##########################################################
# Query made at 02/15/2025 21:16:26 UTC
# Time interval: from 02/01/2016 00:00  to 02/29/2016 23:59  UTC
##########################################################

##########################################################
# KPAE, Everett, Snohomish County Airport (United States)
# WMO index: -----. WIGOS ID: Unknown
# Latitude 47-55-23N. Longitude 122-16-57W. Altitude 184 m.
##########################################################

###################################
#  METAR/SPECI from KPAE
###################################
201602292353 METAR KPAE 292353Z 23004KT 10SM CLR 09/02 A3016 RMK AO2 SLP216 T00940022 10111 20067 55006=
201602292253 METAR KPAE 292253Z 20011G16KT 10SM BKN040 BKN049 11/01 A3016 RMK AO2 SLP214 T01060011=
201602292153 METAR KPAE 292153Z 17008G16KT 10SM BKN039 BKN049 11/01 A3016 RMK AO2 SLP216 T01110011=
201602292053 METAR KPAE 292053Z 19008KT 10SM BKN037 09/01 A3018 RMK AO2 SLP222 T00940011 58014=
201602291953 METAR KPAE 291953Z 15010KT 10SM BKN027 BKN035 09/02 A3020 RMK AO2 SLP229 T00890017=
201602291900 SPECI KPAE 291900Z 16010G14KT 10SM BKN023 BKN028 08/02 A3022 RMK AO2 T00830022=
201602291853 METAR KPAE 291853Z 16007KT 120V210 10SM SCT023 08/02 A3022 RMK AO2 SLP237 T00780022=
201602291753 METAR KPAE 291753Z 16011KT 10SM FEW011 BKN085 BKN110 07/03 A3022 RMK AO2 RAE27 SLP236 P0000 60000 T00670028 10067 20056 50009=
201602291653 METAR KPAE 291653Z 16009KT 10SM -RA SCT048 OVC085 06/03 A3023 RMK AO2 RAB13 SLP239 P0000 T00610028=
201602291553 METAR KPAE 291553Z 17009KT 10SM BKN095 OVC110 06/02 A3021 RMK AO2 SLP233 T00610022=
201602291453 METAR KPAE 291453Z 17011KT 10SM FEW034 OVC110 06/02 A3019 RMK AO2 SLP227 T00560022 51009=
201602291353 METAR KPAE 291353Z AUTO 16009KT 10SM OVC100 06/03 A3019 RMK AO2 SLP225 T00560028=
201602291330 SPECI KPAE 291330Z AUTO 16007KT 10SM FEW015 SCT024 BKN100 06/03 A3019 RMK AO2 T00610028=
201602291310 SPECI KPAE 291310Z AUTO 16010KT 10SM BKN016 BKN024 OVC100 06/03 A3019 RMK AO2 T00610028=
201602291301 SPECI KPAE 291301Z AUTO 17008KT 10SM BKN014 BKN021 OVC100 06/03 A3019 RMK AO2 T00610033=
201602291253 METAR KPAE 291253Z AUTO 17009KT 10SM SCT012 BKN021 OVC100 06/03 A3019 RMK AO2 SLP225 T00610033=
201602291237 SPECI KPAE 291237Z AUTO 16007KT 10SM SCT012 BKN020 OVC110 06/03 A3019 RMK AO2 T00610033=
201602291153 METAR KPAE 291153Z AUTO 17007KT 10SM OVC110 06/03 A3017 RMK AO2 SLP218 70010 T00610033 10061 20050 50003=
201602291124 SPECI KPAE 291124Z AUTO 17012KT 10SM FEW016 SCT023 OVC110 06/03 A3017 RMK AO2 T00610033=
201602291053 METAR KPAE 291053Z AUTO VRB03KT 10SM SCT015 BKN020 OVC110 06/03 A3017 RMK AO2 SLP220 T00560033=
201602291046 SPECI KPAE 291046Z AUTO 12007KT 10SM BKN020 OVC110 06/03 A3017 RMK AO2 T00560033=
201602291015 SPECI KPAE 291015Z AUTO 15008KT 10SM SCT017 BKN110 06/03 A3017 RMK AO2 T00560028=
201602290953 METAR KPAE 290953Z AUTO 16007KT 10SM BKN017 06/03 A3018 RMK AO2 SLP221 T00560028=
201602290940 SPECI KPAE 290940Z AUTO VRB03KT 10SM BKN017 BKN110 06/03 A3018 RMK AO2 T00560028=
201602290853 METAR KPAE 290853Z AUTO 18014KT 10SM CLR 06/03 A3016 RMK AO2 SLP215 T00560028 50002=
201602290829 SPECI KPAE 290829Z AUTO 19013KT 10SM SCT015 06/02 A3016 RMK AO2 T00560022=
201602290753 METAR KPAE 290753Z AUTO 12005KT 10SM BKN016 06/03 A3017 RMK AO2 SLP219 T00610028 401110050=
201602290746 SPECI KPAE 290746Z AUTO 11006KT 10SM BKN018 06/03 A3017 RMK AO2 T00560028=
201602290653 METAR KPAE 290653Z AUTO 19007KT 10SM FEW037 06/02 A3016 RMK AO2 SLP216 T00560017=
201602290553 METAR KPAE 290553Z AUTO 21009KT 10SM FEW055 BKN070 OVC085 06/03 A3015 RMK AO2 LTG DSNT S SLP212 60000 T00610028 10083 20061 53029=
201602290453 METAR KPAE 290453Z 20008KT 10SM BKN080 BKN100 06/02 A3012 RMK AO2 SLP201 T00610022=
201602290353 METAR KPAE 290353Z 21010KT 10SM CLR 07/02 A3008 RMK AO2 SLP190 T00670022=
201602290253 METAR KPAE 290253Z 21011KT 10SM SCT018 07/03 A3006 RMK AO2 SLP183 60000 T00670028 51035=
201602290153 METAR KPAE 290153Z 20013KT 10SM SCT020 BKN042 BKN055 07/03 A3003 RMK AO2 RAB21E30 SLP172 P0000 T00720028=
201602290053 METAR KPAE 290053Z 21014KT 10SM BKN075 OVC100 08/03 A3001 RMK AO2 SLP163 T00780028=
201602282353 METAR KPAE 282353Z 21015G24KT 10SM CLR 08/02 A2996 RMK AO2 PK WND 20028/2317 SLP146 60000 T00830022 10111 20083 53020=
201602282253 METAR KPAE 282253Z 20021G32KT 10SM SCT100 09/03 A2992 RMK AO2 PK WND 20037/2219 SLP132 T00940028=
201602282153 METAR KPAE 282153Z 19023G32KT 10SM SCT060 SCT090 SCT120 10/03 A2992 RMK AO2 PK WND 20032/2149 SLP133 T01000033=
201602282053 METAR KPAE 282053Z 20021G33KT 10SM SCT065 SCT080 BKN090 09/03 A2990 RMK AO2 PK WND 21037/2020 SLP125 60000 T00940033 53037=
201602281953 METAR KPAE 281953Z 20025G32KT 10SM FEW020 11/06 A2986 RMK AO2 PK WND 20035/1906 SLP112 T01110056=
201602281853 METAR KPAE 281853Z 18025G35KT 10SM BKN018 BKN028 10/06 A2981 RMK AO2 PK WND 19036/1832 RAE1756 SLP094 P0000 T01000061=
201602281843 SPECI KPAE 281843Z 19025G33KT 10SM BKN018 BKN028 BKN034 10/06 A2981 RMK AO2 PK WND 19036/1832 RAE1756 P0000 T01000061=
201602281753 METAR KPAE 281753Z 17019G25KT 8SM -RA FEW028 BKN048 OVC075 09/06 A2979 RMK AO2 SLP087 P0004 60010 T00890056 10094 20078 52003=
201602281653 METAR KPAE 281653Z 15011G19KT 9SM -RA BKN049 BKN060 OVC080 08/05 A2977 RMK AO2 SLP081 P0003 T00780050=
201602281553 METAR KPAE 281553Z 17009KT 7SM -RA OVC042 08/04 A2980 RMK AO2 SLP091 P0001 T00830044=
201602281453 METAR KPAE 281453Z 16005KT 10SM -RA BKN060 OVC085 09/03 A2978 RMK AO2 RAB44 SLP085 P0000 60002 T00890033 56034=
201602281353 METAR KPAE 281353Z AUTO 12007KT 10SM SCT039 SCT060 BKN110 09/03 A2979 RMK AO2 RAE44 SLP090 P0002 T00890033=
201602281253 METAR KPAE 281253Z AUTO VRB05KT 10SM -RA OVC065 09/04 A2986 RMK AO2 RAB52 SLP111 P0000 T00890039=
201602281153 METAR KPAE 281153Z AUTO 12007KT 10SM SCT060 OVC085 08/04 A2988 RMK AO2 SLP118 70001 T00830039 10089 20078 58041=
201602281053 METAR KPAE 281053Z AUTO 12007KT 10SM CLR 08/04 A2993 RMK AO2 PRESFR SLP136 T00780044=
201602280953 METAR KPAE 280953Z AUTO 12004KT 10SM BKN100 08/05 A2998 RMK AO2 SLP152 T00780050=
201602280853 METAR KPAE 280853Z AUTO 14003KT 10SM OVC110 08/06 A3000 RMK AO2 SLP161 T00830056 56024=
201602280753 METAR KPAE 280753Z AUTO 12006KT 10SM CLR 08/06 A3003 RMK AO2 SLP170 T00830056 401280072=
201602280653 METAR KPAE 280653Z AUTO 12005KT 10SM CLR 08/06 A3004 RMK AO2 SLP176 T00830056=
201602280553 METAR KPAE 280553Z AUTO 15008KT 10SM CLR 09/06 A3007 RMK AO2 SLP186 T00890056 10128 20089 56008=
201602280453 METAR KPAE 280453Z AUTO 15009KT 10SM CLR 09/04 A3008 RMK AO2 SLP189 T00890039=
201602280353 METAR KPAE 280353Z AUTO 17008KT 10SM CLR 09/04 A3009 RMK AO2 SLP190 T00890039=
201602280253 METAR KPAE 280253Z AUTO 18012KT 10SM CLR 09/04 A3010 RMK AO2 SLP194 T00940039 58004=
201602280153 METAR KPAE 280153Z AUTO 19011KT 10SM FEW023 11/06 A3010 RMK AO2 SLP195 T01110061=
201602280053 METAR KPAE 280053Z AUTO 19011KT 10SM SCT055 12/06 A3011 RMK AO2 SLP197 T01220061=
201602280038 SPECI KPAE 280038Z AUTO 19014KT 10SM FEW018 SCT023 SCT028 12/06 A3011 RMK AO2 T01220061=
201602272353 METAR KPAE 272353Z AUTO 17008KT 10SM BKN017 BKN022 BKN035 12/07 A3011 RMK AO2 SLP197 T01220072 10122 20094 56007=
201602272308 SPECI KPAE 272308Z 17006KT 10SM BKN017 BKN022 BKN035 12/07 A3012 RMK AO2 T01170072=
201602272301 SPECI KPAE 272301Z 18008KT 10SM FEW017 BKN035 12/07 A3012 RMK AO2 T01170072=
201602272253 METAR KPAE 272253Z 19010KT 10SM SCT017 BKN022 BKN035 12/07 A3012 RMK AO2 SLP201 T01170072=
201602272153 METAR KPAE 272153Z 17006KT 10SM BKN010 OVC015 11/07 A3012 RMK AO2 SLP201 T01060072=
201602272100 SPECI KPAE 272100Z 16006KT 10SM BKN010 OVC015 11/07 A3013 RMK AO2 T01060072=
201602272053 METAR KPAE 272053Z 17008KT 10SM BKN008 OVC020 10/07 A3013 RMK AO2 SLP205 T01000072 51004=
201602272033 SPECI KPAE 272033Z 18007KT 10SM BKN008 OVC020 10/08 A3013 RMK AO2 T01000078=
201602271958 SPECI KPAE 271958Z 16008KT 10SM SCT008 BKN014 OVC020 10/07 A3013 RMK AO2 T01000072=
201602271953 METAR KPAE 271953Z 17008KT 10SM SCT008 OVC017 10/08 A3013 RMK AO2 SLP204 T01000078=
201602271925 SPECI KPAE 271925Z 17005KT 7SM SCT007 OVC014 09/08 A3013 RMK AO2 T00940078=
201602271853 METAR KPAE 271853Z 18008KT 2SM BR SCT005 BKN009 OVC049 09/07 A3012 RMK AO2 SLP202 T00940072=
201602271831 SPECI KPAE 271831Z 19006KT 2SM BR SCT005 BKN009 OVC049 10/08 A3012 RMK AO2 T01000078=
201602271753 METAR KPAE 271753Z 17005KT 6SM BR SCT005 BKN010 OVC044 09/08 A3010 RMK AO2 SLP195 60001 T00940078 10094 20072 51019=
201602271738 SPECI KPAE 271738Z 18005KT 7SM FEW005 BKN010 BKN042 09/07 A3010 RMK AO2 T00890072=
201602271659 SPECI KPAE 271659Z 24004KT 1 1/2SM BR BKN003 BKN028 OVC034 08/07 A3009 RMK AO2 T00830067=
201602271655 SPECI KPAE 271655Z 24004KT 1 1/2SM BR SCT002 BKN028 OVC034 08/07 A3009 RMK AO2 T00830072=
201602271653 METAR KPAE 271653Z 22003KT 1 1/2SM BR SCT002 BKN034 OVC050 08/07 A3009 RMK AO2 RAE06 SLP191 P0000 T00830072=
201602271619 SPECI KPAE 271619Z 19004KT 1 1/2SM BR SCT002 BKN024 BKN034 08/07 A3008 RMK AO2 RAE06 P0000 T00780067=
201602271553 METAR KPAE 271553Z 19003KT 1SM R16R/6000VP6000FT -RA BR OVC001 08/07 A3007 RMK AO2 RAB08E17B34 SLP186 P0001 T00780067=
201602271531 SPECI KPAE 271531Z 22004KT 1SM R16R/P6000FT BR OVC001 08/07 A3007 RMK AO2 RAB08E17 P0001 T00780067=
201602271453 METAR KPAE 271453Z 27004KT 1/4SM R16R/P6000FT FG OVC001 07/07 A3005 RMK AO2 SLP176 T00720067 51020=
201602271437 SPECI KPAE 271437Z AUTO 25004KT 1 1/4SM R16R/2600V4000FT BR OVC001 07/07 A3004 RMK AO2 T00720067=
201602271413 SPECI KPAE 271413Z AUTO 24006KT 1/2SM R16R/2400V3500FT FG VV001 07/06 A3003 RMK AO2 T00720061=
201602271402 SPECI KPAE 271402Z AUTO 23006KT 3/4SM R16R/2400VP6000FT BR OVC002 08/07 A3003 RMK AO2 T00780067=
201602271353 METAR KPAE 271353Z AUTO 22005KT 2SM BR OVC002 08/07 A3002 RMK AO2 SLP169 T00780067=
201602271344 SPECI KPAE 271344Z AUTO 21004KT 2SM BR OVC002 08/07 A3002 RMK AO2 T00780067=
201602271326 SPECI KPAE 271326Z AUTO 20004KT 4SM BR OVC002 08/07 A3002 RMK AO2 T00780067=
201602271305 SPECI KPAE 271305Z AUTO 23004KT 3SM BR OVC001 07/06 A3001 RMK AO2 T00720061=
201602271253 METAR KPAE 271253Z AUTO 23005KT 1 1/2SM R16R/3500VP6000FT BR OVC001 08/07 A3001 RMK AO2 SLP164 T00780067=
201602271245 SPECI KPAE 271245Z AUTO 26003KT 1 3/4SM R16R/5000VP6000FT BR OVC001 08/07 A3001 RMK AO2 T00780067=
201602271233 SPECI KPAE 271233Z AUTO 25003KT 1/2SM R16R/2000V5000FT FG VV001 08/07 A3001 RMK AO2 T00780067=
201602271203 SPECI KPAE 271203Z AUTO 31003KT 1SM R16R/3000VP6000FT BR OVC001 08/07 A2999 RMK AO2 T00780067=
201602271153 METAR KPAE 271153Z AUTO 31004KT 1 3/4SM R16R/2600VP6000FT BR OVC002 08/07 A2999 RMK AO2 RAB01E10 SLP155 P0000 60004 70017 T00830067 10094 20083 51007=
201602271112 SPECI KPAE 271112Z AUTO 00000KT 6SM BR OVC002 08/07 A2998 RMK AO2 RAB01E10 P0000 T00830072=
201602271053 METAR KPAE 271053Z AUTO 00000KT 2SM R16R/5000VP6000FT BR OVC002 08/07 A2997 RMK AO2 RAE28 SLP150 P0000 T00830072=
201602270953 METAR KPAE 270953Z AUTO 26003KT 4SM -RA BR OVC002 08/07 A2997 RMK AO2 SLP148 P0002 T00830072=
201602270921 SPECI KPAE 270921Z AUTO 20003KT 7SM -RA OVC003 08/07 A2996 RMK AO2 P0001 T00830072=
201602270853 METAR KPAE 270853Z AUTO 20003KT 7SM -RA BKN007 OVC055 08/07 A2996 RMK AO2 SLP145 P0001 60002 T00830072 53006=
201602270844 SPECI KPAE 270844Z AUTO 21003KT 7SM -RA SCT007 OVC055 08/07 A2996 RMK AO2 P0001 T00830072=
201602270753 METAR KPAE 270753Z AUTO 20004KT 8SM -RA SCT013 OVC060 09/07 A2995 RMK AO2 RAB29 SLP141 P0001 T00890067 401610072=
201602270714 SPECI KPAE 270714Z AUTO 19004KT 10SM BKN013 OVC017 09/07 A2995 RMK AO2 T00890072=
201602270653 METAR KPAE 270653Z AUTO 20004KT 10SM SCT015 BKN023 OVC080 09/07 A2994 RMK AO2 SLP139 T00890072=
201602270629 SPECI KPAE 270629Z AUTO 18004KT 6SM BR SCT009 BKN020 OVC025 09/08 A2994 RMK AO2 T00890078=
201602270553 METAR KPAE 270553Z AUTO 20003KT 6SM BR OVC007 09/08 A2994 RMK AO2 CIG 003V010 SLP138 60013 T00940078 10128 20094 55004=
201602270515 SPECI KPAE 270515Z AUTO 19004KT 6SM BR BKN008 OVC011 09/08 A2994 RMK AO2 CIG 004V010 T00940078=
201602270506 SPECI KPAE 270506Z AUTO 19004KT 7SM SCT006 OVC011 09/08 A2994 RMK AO2 CIG 009V013 T00940078=
201602270453 METAR KPAE 270453Z AUTO 18006KT 8SM BKN006 OVC012 09/08 A2994 RMK AO2 RAE48 SLP138 P0000 T00940078=
201602270353 METAR KPAE 270353Z 18006KT 8SM -RA BKN007 OVC023 09/08 A2994 RMK AO2 CIG 004V010 SLP138 P0001 T00940078=
201602270327 SPECI KPAE 270327Z 18006KT 8SM -RA FEW007 BKN023 OVC029 09/08 A2995 RMK AO2 P0000 T00940078=
201602270253 METAR KPAE 270253Z 18008KT 7SM -RA SCT022 BKN027 OVC044 09/08 A2995 RMK AO2 SLP144 P0004 60012 T00940078 51003=
201602270251 SPECI KPAE 270251Z 18007KT 8SM -RA FEW022 BKN027 OVC040 09/08 A2995 RMK AO2 P0004=
201602270153 METAR KPAE 270153Z 19006KT 6SM -RA FEW039 OVC050 10/07 A2994 RMK AO2 SLP141 P0006 T01000067=
201602270053 METAR KPAE 270053Z 20012KT 5SM -RA BKN060 OVC070 11/06 A2994 RMK AO2 RAB19 SLP140 P0002 T01060061=
201602262353 METAR KPAE 262353Z 19010KT 10SM OVC070 12/07 A2993 RMK AO2 RAB17E48 SLP136 P0000 60000 T01220067 10161 20117 55007=
201602262253 METAR KPAE 262253Z 19011KT 10SM BKN085 15/04 A2992 RMK AO2 SLP131 T01500039=
201602262153 METAR KPAE 262153Z 19009KT 10SM OVC060 15/03 A2993 RMK AO2 SLP134 T01500033=
201602262053 METAR KPAE 262053Z 18011KT 10SM FEW080 16/03 A2995 RMK AO2 SLP142 T01610033 58010=
201602261953 METAR KPAE 261953Z 19010KT 10SM CLR 16/03 A2997 RMK AO2 SLP148 T01560033=
201602261853 METAR KPAE 261853Z 20006KT 10SM CLR 14/04 A2997 RMK AO2 SLP150 T01440039=
201602261753 METAR KPAE 261753Z 17008KT 10SM CLR 14/02 A2998 RMK AO2 SLP152 T01390022 10139 20089 55004=
201602261653 METAR KPAE 261653Z 15005KT 10SM CLR 12/00 A2997 RMK AO2 SLP151 T01220000=
201602261553 METAR KPAE 261553Z 15008KT 10SM CLR 12/M01 A2999 RMK AO2 SLP155 T01171006=
201602261453 METAR KPAE 261453Z 12007KT 10SM CLR 11/00 A3000 RMK AO2 SLP159 T01060000 58014=
201602261353 METAR KPAE 261353Z AUTO VRB05KT 10SM CLR 10/00 A3002 RMK AO2 SLP165 T01000000=
201602261253 METAR KPAE 261253Z AUTO VRB03KT 10SM CLR 11/01 A3003 RMK AO2 SLP170 T01060011=
201602261153 METAR KPAE 261153Z AUTO 12003KT 10SM CLR 10/01 A3004 RMK AO2 SLP172 T01000006 10122 20072 58010=
201602261053 METAR KPAE 261053Z AUTO 16005KT 10SM CLR 07/02 A3005 RMK AO2 SLP178 T00720017=
201602260953 METAR KPAE 260953Z AUTO 00000KT 10SM CLR 10/01 A3007 RMK AO2 SLP182 T01000011=
201602260853 METAR KPAE 260853Z AUTO 13004KT 10SM CLR 11/01 A3007 RMK AO2 SLP183 T01060011 58007=
201602260753 METAR KPAE 260753Z AUTO VRB03KT 10SM CLR 11/01 A3009 RMK AO2 SLP189 T01110011 401390044=
201602260653 METAR KPAE 260653Z AUTO 15009KT 10SM CLR 12/02 A3009 RMK AO2 SLP192 T01170017=
201602260553 METAR KPAE 260553Z AUTO VRB04KT 10SM CLR 11/03 A3009 RMK AO2 SLP190 T01110028 10139 20089 58005=
201602260453 METAR KPAE 260453Z 00000KT 10SM CLR 09/04 A3010 RMK AO2 SLP194 T00940039=
201602260353 METAR KPAE 260353Z 03004KT 10SM CLR 09/04 A3010 RMK AO2 SLP193 T00940039=
201602260253 METAR KPAE 260253Z 00000KT 10SM CLR 09/04 A3010 RMK AO2 SLP196 T00890039 56013=
201602260153 METAR KPAE 260153Z 35003KT 10SM CLR 11/04 A3011 RMK AO2 SLP198 T01060044=
201602260053 METAR KPAE 260053Z 00000KT 10SM CLR 13/03 A3012 RMK AO2 SLP202 T01330033=
201602252353 METAR KPAE 252353Z AUTO 36003KT 10SM CLR 13/04 A3014 RMK AO2 SLP208 T01330044 10139 20106 58017=
201602252253 METAR KPAE 252253Z 36004KT 10SM CLR 13/04 A3016 RMK AO2 SLP214 T01280044=
201602252153 METAR KPAE 252153Z 36005KT 10SM CLR 13/04 A3018 RMK AO2 SLP220 T01330039=
201602252053 METAR KPAE 252053Z 01005KT 10SM CLR 13/03 A3019 RMK AO2 SLP225 T01280033 58010=
201602251953 METAR KPAE 251953Z 36003KT 10SM CLR 12/04 A3021 RMK AO2 SLP231 T01220039=
201602251853 METAR KPAE 251853Z 02003KT 10SM CLR 12/04 A3022 RMK AO2 SLP234 T01170039=
201602251753 METAR KPAE 251753Z 00000KT 10SM CLR 11/03 A3022 RMK AO2 SLP236 T01060033 10106 20044 58001=
201602251653 METAR KPAE 251653Z 07003KT 10SM CLR 09/03 A3023 RMK AO2 SLP237 T00940028=
201602251553 METAR KPAE 251553Z 00000KT 10SM CLR 07/03 A3023 RMK AO2 SLP240 T00670033=
201602251453 METAR KPAE 251453Z 00000KT 10SM CLR 06/03 A3023 RMK AO2 SLP239 T00610028 58003=
201602251353 METAR KPAE 251353Z AUTO 00000KT 10SM CLR 06/03 A3023 RMK AO2 SLP240 T00560028=
201602251253 METAR KPAE 251253Z AUTO 00000KT 10SM CLR 06/02 A3023 RMK AO2 SLP240 T00610022=
201602251153 METAR KPAE 251153Z AUTO 00000KT 10SM CLR 05/02 A3024 RMK AO2 SLP241 70001 T00500022 10100 20050 57000=
201602251053 METAR KPAE 251053Z AUTO 11003KT 10SM CLR 07/03 A3024 RMK AO2 SLP240 T00720028=
201602250953 METAR KPAE 250953Z AUTO 12005KT 10SM CLR 08/03 A3024 RMK AO2 SLP241 T00780028=
201602250853 METAR KPAE 250853Z AUTO 12005KT 10SM CLR 08/03 A3024 RMK AO2 SLP240 T00830028 51005=
201602250753 METAR KPAE 250753Z AUTO 00000KT 10SM CLR 09/04 A3023 RMK AO2 SLP238 T00890039 401330078=
201602250653 METAR KPAE 250653Z AUTO 00000KT 10SM CLR 10/06 A3023 RMK AO2 SLP238 T01000056=
201602250553 METAR KPAE 250553Z AUTO 00000KT 10SM BKN033 OVC042 10/06 A3022 RMK AO2 SLP236 60001 T01000061 10133 20094 56009=
201602250453 METAR KPAE 250453Z 15004KT 10SM OVC041 11/05 A3023 RMK AO2 SLP238 T01110050=
201602250353 METAR KPAE 250353Z 00000KT 10SM OVC040 10/04 A3024 RMK AO2 SLP241 T01000044=
201602250253 METAR KPAE 250253Z 00000KT 10SM OVC041 09/04 A3025 RMK AO2 RAE16 SLP245 P0001 60001 T00940039 53015=
201602250153 METAR KPAE 250153Z 36003KT 7SM -RA OVC043 11/04 A3023 RMK AO2 RAB28 SLP239 P0000 T01110039=
201602250053 METAR KPAE 250053Z 19004KT 10SM OVC049 13/01 A3021 RMK AO2 SLP232 T01330006=
201602242353 METAR KPAE 242353Z 00000KT 10SM OVC050 13/02 A3021 RMK AO2 SLP229 T01330022 10133 20100 53001=
201602242253 METAR KPAE 242253Z VRB03KT 10SM OVC095 13/02 A3020 RMK AO2 SLP227 T01330022=
201602242153 METAR KPAE 242153Z 31003KT 10SM OVC100 12/02 A3020 RMK AO2 SLP227 T01170022=
201602242053 METAR KPAE 242053Z 18006KT 10SM OVC085 13/00 A3020 RMK AO2 SLP228 T01280000 58003=
201602241953 METAR KPAE 241953Z 16006KT 10SM OVC085 12/M01 A3021 RMK AO2 SLP231 T01171011=
201602241853 METAR KPAE 241853Z 19007KT 10SM OVC095 11/M01 A3021 RMK AO2 SLP232 T01061011=
201602241753 METAR KPAE 241753Z 15003KT 10SM OVC095 09/M01 A3021 RMK AO2 SLP232 T00941011 10094 20078 51014=
201602241653 METAR KPAE 241653Z 11005KT 10SM OVC100 09/M02 A3020 RMK AO2 SLP228 T00891017=
201602241553 METAR KPAE 241553Z 11004KT 10SM OVC110 08/M02 A3018 RMK AO2 SLP222 T00831022=
201602241453 METAR KPAE 241453Z 11004KT 10SM CLR 08/M02 A3017 RMK AO2 SLP217 T00831022 53012=
201602241353 METAR KPAE 241353Z AUTO 11004KT 10SM CLR 08/M02 A3015 RMK AO2 SLP213 T00781022=
201602241253 METAR KPAE 241253Z AUTO 11005KT 10SM CLR 08/M02 A3014 RMK AO2 SLP206 T00831022=
201602241153 METAR KPAE 241153Z AUTO 00000KT 10SM CLR 08/M02 A3013 RMK AO2 SLP204 T00831022 10094 20078 53004=
201602241053 METAR KPAE 241053Z AUTO 11008KT 10SM CLR 08/M03 A3012 RMK AO2 SLP201 T00831028=
201602240953 METAR KPAE 240953Z AUTO 11007KT 10SM SCT110 08/M02 A3012 RMK AO2 SLP200 T00831022=
201602240853 METAR KPAE 240853Z AUTO 11008KT 10SM SCT100 08/M02 A3012 RMK AO2 SLP201 T00831022 51002=
201602240753 METAR KPAE 240753Z AUTO 11008KT 10SM SCT110 09/M02 A3012 RMK AO2 SLP201 T00891022 401331006=
201602240653 METAR KPAE 240653Z AUTO 11007KT 10SM CLR 09/M02 A3012 RMK AO2 SLP201 T00891022=
201602240553 METAR KPAE 240553Z AUTO 11007KT 10SM CLR 09/M03 A3011 RMK AO2 SLP199 T00941028 10133 20094 53007=
201602240453 METAR KPAE 240453Z AUTO 12006KT 10SM CLR 09/M03 A3010 RMK AO2 SLP196 T00941028=
201602240353 METAR KPAE 240353Z VRB04KT 10SM CLR 10/M03 A3009 RMK AO2 SLP193 T01001028=
201602240253 METAR KPAE 240253Z 11007KT 10SM CLR 11/M03 A3009 RMK AO2 SLP193 T01061028 50004=
201602240153 METAR KPAE 240153Z 11006KT 10SM CLR 11/M02 A3010 RMK AO2 SLP194 T01111022=
201602240053 METAR KPAE 240053Z 11007KT 10SM CLR 12/M02 A3008 RMK AO2 SLP190 T01221022=
201602232353 METAR KPAE 232353Z 03005KT 10SM CLR 12/01 A3008 RMK AO2 SLP189 T01220006 10128 20072 56022=
201602232253 METAR KPAE 232253Z 01006KT 10SM CLR 12/00 A3009 RMK AO2 SLP192 T01220000=
201602232153 METAR KPAE 232153Z 03005KT 10SM CLR 12/00 A3012 RMK AO2 SLP201 T01220000=
201602232053 METAR KPAE 232053Z 35005KT 10SM CLR 11/M01 A3015 RMK AO2 SLP212 T01061006 57036=
201602231953 METAR KPAE 231953Z 02005KT 10SM CLR 10/00 A3018 RMK AO2 SLP223 T01000000=
201602231853 METAR KPAE 231853Z VRB06KT 10SM CLR 09/M01 A3022 RMK AO2 SLP237 T00891006=
201602231753 METAR KPAE 231753Z 11005KT 10SM CLR 07/M01 A3025 RMK AO2 SLP248 T00721011 10072 21006 56009=
201602231653 METAR KPAE 231653Z 00000KT 10SM CLR 04/00 A3026 RMK AO2 SLP252 T00440000=
201602231553 METAR KPAE 231553Z 04006KT 10SM CLR 03/00 A3027 RMK AO2 SLP256 T00280000=
201602231453 METAR KPAE 231453Z 02003KT 10SM CLR 02/00 A3028 RMK AO2 SLP260 T00220000 56013=
201602231353 METAR KPAE 231353Z AUTO 00000KT 10SM CLR 01/M01 A3030 RMK AO2 SLP265 T00061011=
201602231253 METAR KPAE 231253Z AUTO 00000KT 10SM CLR 01/M01 A3030 RMK AO2 SLP264 T00111006=
201602231153 METAR KPAE 231153Z AUTO VRB03KT 10SM CLR 03/00 A3032 RMK AO2 SLP271 T00280000 10050 20011 58010=
201602231053 METAR KPAE 231053Z AUTO 03003KT 10SM CLR 02/00 A3034 RMK AO2 SLP279 T00220000=
201602230953 METAR KPAE 230953Z AUTO 00000KT 10SM CLR 03/01 A3035 RMK AO2 SLP280 T00280006=
201602230853 METAR KPAE 230853Z AUTO 35003KT 10SM CLR 02/00 A3035 RMK AO2 SLP282 T00170000 56019=
201602230753 METAR KPAE 230753Z AUTO 09003KT 10SM CLR 04/01 A3037 RMK AO2 SLP288 T00440011 400940044=
201602230653 METAR KPAE 230653Z AUTO 10005KT 10SM CLR 04/02 A3038 RMK AO2 SLP292 T00440017=
201602230553 METAR KPAE 230553Z AUTO 00000KT 10SM CLR 04/01 A3041 RMK AO2 SLP301 T00440011 10094 20044 58002=
201602230453 METAR KPAE 230453Z 04003KT 10SM CLR 05/01 A3042 RMK AO2 SLP304 T00500011=
201602230353 METAR KPAE 230353Z 00000KT 10SM CLR 05/01 A3042 RMK AO2 SLP304 T00500011=
201602230253 METAR KPAE 230253Z 00000KT 10SM CLR 06/01 A3041 RMK AO2 SLP303 T00560011 58003=
201602230153 METAR KPAE 230153Z 00000KT 10SM CLR 07/02 A3042 RMK AO2 SLP305 T00720017=
201602230053 METAR KPAE 230053Z 10003KT 10SM FEW027 08/01 A3042 RMK AO2 SLP304 T00830011=
201602230025 SPECI KPAE 230025Z 00000KT 10SM SCT027 SCT034 09/02 A3042 RMK AO2 T00890017=
201602222353 METAR KPAE 222353Z 00000KT 10SM BKN025 09/02 A3042 RMK AO2 SLP305 60000 T00890017 10094 20061 53001=
201602222253 METAR KPAE 222253Z VRB03KT 10SM BKN025 BKN029 09/02 A3041 RMK AO2 SLP300 T00890022=
201602222218 SPECI KPAE 222218Z 20004KT 10SM BKN021 OVC030 08/03 A3042 RMK AO2 T00830028=
201602222156 SPECI KPAE 222156Z VRB04KT 10SM FEW018 OVC030 08/03 A3041 RMK AO2 T00780028=
201602222153 METAR KPAE 222153Z 19006KT 10SM BKN015 BKN085 08/03 A3041 RMK AO2 SLP302 T00780028=
201602222107 SPECI KPAE 222107Z 18006KT 10SM BKN015 BKN085 07/03 A3042 RMK AO2 T00720028=
201602222100 SPECI KPAE 222100Z 22004KT 10SM FEW017 BKN085 07/03 A3042 RMK AO2 T00720033=
201602222053 METAR KPAE 222053Z 24004KT 10SM BKN015 BKN085 07/03 A3042 RMK AO2 SLP304 60000 T00720028 50003=
201602222020 SPECI KPAE 222020Z 20005KT 10SM SCT013 SCT018 OVC080 07/03 A3041 RMK AO2 T00670028=
201602221953 METAR KPAE 221953Z 19004KT 10SM OVC012 06/03 A3042 RMK AO2 SLP304 T00610033=
201602221931 SPECI KPAE 221931Z 19005KT 10SM OVC013 06/03 A3043 RMK AO2 T00610028=
201602221900 SPECI KPAE 221900Z 20006KT 10SM OVC015 06/03 A3042 RMK AO2 T00610028=
201602221853 METAR KPAE 221853Z 21007KT 10SM BKN014 OVC015 06/03 A3042 RMK AO2 RAB25E42 SLP303 P0000 T00610028=
201602221753 METAR KPAE 221753Z 19008KT 10SM BKN014 OVC034 06/03 A3041 RMK AO2 SLP301 T00610028 10061 20056 53019=
201602221731 SPECI KPAE 221731Z 20008KT 10SM BKN014 BKN022 OVC033 06/03 A3039 RMK AO2 T00610028=
201602221700 SPECI KPAE 221700Z 20009KT 10SM SCT012 OVC028 06/03 A3038 RMK AO2 T00610028=
201602221653 METAR KPAE 221653Z COR 19007KT 10SM SCT012 OVC028 06/03 A3038 RMK AO2 SLP290 T00560028=
201602221600 SPECI KPAE 221600Z 19012KT 10SM FEW009 SCT034 BKN075 06/03 A3036 RMK AO2 T00560028=
201602221553 METAR KPAE 221553Z COR 20011KT 10SM FEW009 SCT034 BKN075 06/03 A3036 RMK AO2 SLP283 T00560028=
201602221453 METAR KPAE 221453Z 17006KT 10SM SCT009 BKN015 OVC100 06/03 A3035 RMK AO2 SLP281 T00560033 55000=
201602221445 SPECI KPAE 221445Z 18005KT 10SM SCT009 SCT033 OVC100 06/03 A3035 RMK AO2 T00560033=
201602221353 METAR KPAE 221353Z AUTO 17007KT 10SM SCT011 BKN120 06/03 A3034 RMK AO2 SLP278 T00560028=
201602221341 SPECI KPAE 221341Z AUTO 16008KT 10SM BKN011 BKN017 BKN120 06/03 A3034 RMK AO2 T00560028=
201602221300 SPECI KPAE 221300Z AUTO 17007KT 10SM OVC015 06/03 A3035 RMK AO2 T00560033=
201602221253 METAR KPAE 221253Z AUTO 17005KT 10SM BKN014 OVC090 06/03 A3035 RMK AO2 SLP281 T00560033=
201602221251 SPECI KPAE 221251Z AUTO 17006KT 10SM BKN014 OVC090 06/03 A3035 RMK AO2=
201602221214 SPECI KPAE 221214Z AUTO 17007KT 10SM SCT010 BKN090 06/03 A3035 RMK AO2 T00560033=
201602221153 METAR KPAE 221153Z AUTO 15007KT 10SM OVC010 06/03 A3035 RMK AO2 SLP280 70007 T00610033 10072 20050 53001=
201602221139 SPECI KPAE 221139Z AUTO 16008KT 10SM OVC010 06/03 A3035 RMK AO2 T00610033=
201602221113 SPECI KPAE 221113Z AUTO 16009KT 10SM OVC009 06/03 A3035 RMK AO2 T00610033=
201602221053 METAR KPAE 221053Z AUTO 16011KT 10SM OVC012 06/04 A3035 RMK AO2 SLP279 T00610039=
201602220953 METAR KPAE 220953Z AUTO 15005KT 10SM BKN012 OVC100 07/04 A3034 RMK AO2 SLP278 T00670039=
201602220853 METAR KPAE 220853Z AUTO 16007KT 10SM FEW014 BKN120 06/03 A3034 RMK AO2 SLP278 T00610033 53011=
201602220829 SPECI KPAE 220829Z AUTO 16008KT 10SM FEW014 06/03 A3034 RMK AO2 T00610033=
201602220753 METAR KPAE 220753Z AUTO 16006KT 10SM OVC012 07/04 A3033 RMK AO2 SLP273 T00670039 400940022=
201602220653 METAR KPAE 220653Z AUTO 20007KT 10SM OVC012 07/04 A3032 RMK AO2 SLP271 T00670044=
201602220618 SPECI KPAE 220618Z AUTO 20006KT 10SM BKN013 BKN018 06/04 A3032 RMK AO2 T00610039=
201602220609 SPECI KPAE 220609Z AUTO 19004KT 10SM BKN015 06/04 A3032 RMK AO2 T00610039=
201602220553 METAR KPAE 220553Z AUTO 19009KT 10SM FEW015 06/03 A3031 RMK AO2 SLP267 T00610033 10083 20061 53012=
201602220453 METAR KPAE 220453Z AUTO 18012KT 10SM CLR 06/03 A3030 RMK AO2 SLP263 T00610028=
201602220413 SPECI KPAE 220413Z 19012KT 10SM SCT017 07/04 A3029 RMK AO2 T00670039=
201602220353 METAR KPAE 220353Z 19013KT 10SM BKN018 07/04 A3029 RMK AO2 SLP258 T00720039=
201602220312 SPECI KPAE 220312Z 18010KT 10SM BKN018 07/04 A3028 RMK AO2 T00720039=
201602220253 METAR KPAE 220253Z 18009KT 10SM SCT018 07/04 A3028 RMK AO2 SLP255 T00670039 51013=
201602220153 METAR KPAE 220153Z 20010KT 10SM FEW015 SCT020 SCT060 08/04 A3027 RMK AO2 SLP252 T00780044=
201602220053 METAR KPAE 220053Z 20011KT 10SM BKN018 BKN025 OVC030 08/04 A3025 RMK AO2 SLP246 T00830044=
201602212353 METAR KPAE 212353Z 21012G20KT 10SM BKN018 BKN025 OVC032 08/04 A3024 RMK AO2 PK WND 20027/2324 SLP242 60007 T00830044 10094 20056 53015=
201602212253 METAR KPAE 212253Z 18016G23KT 10SM BKN020 OVC027 08/04 A3021 RMK AO2 SLP233 T00780044=
201602212153 METAR KPAE 212153Z 15013G18KT 10SM FEW009 BKN028 OVC033 06/03 A3019 RMK AO2 RAE20 SLP229 P0001 T00610033=
201602212148 SPECI KPAE 212148Z 16011G19KT 10SM FEW009 BKN028 OVC033 06/03 A3019 RMK AO2 RAE20 P0001=
201602212134 SPECI KPAE 212134Z 17016KT 10SM FEW009 OVC034 06/03 A3018 RMK AO2 RAE20 P0001 T00560033=
201602212100 SPECI KPAE 212100Z 15011KT 6SM -RA FEW020 BKN032 OVC041 06/03 A3017 RMK AO2 P0001 T00560028=
201602212053 METAR KPAE 212053Z 16010KT 6SM -RA FEW022 BKN028 OVC050 06/03 A3017 RMK AO2 PK WND 20034/2010 RAB18 SLP221 P0006 60006 T00560028 53021=
201602212040 SPECI KPAE 212040Z 19016KT 4SM -RA FEW016 FEW022 OVC028 06/03 A3018 RMK AO2 PK WND 20034/2010 RAB18 P0005 T00560028=
201602212030 SPECI KPAE 212030Z 20017G25KT 2 1/2SM RA BKN028 BKN070 OVC090 06/02 A3019 RMK AO2 PK WND 20034/2010 RAB18 P0003 T00610022=
201602211953 METAR KPAE 211953Z 20011KT 10SM SCT110 09/M01 A3014 RMK AO2 SLP210 T00941011=
201602211853 METAR KPAE 211853Z 15008KT 10SM OVC110 08/M02 A3011 RMK AO2 SLP199 T00831022=
201602211753 METAR KPAE 211753Z VRB04KT 10SM FEW120 07/M03 A3011 RMK AO2 SLP199 T00721028 10072 20033 55001=
201602211653 METAR KPAE 211653Z 12007KT 10SM CLR 07/M03 A3010 RMK AO2 SLP194 T00671033=
201602211553 METAR KPAE 211553Z 12006KT 10SM CLR 06/M03 A3010 RMK AO2 SLP197 T00611033=
201602211453 METAR KPAE 211453Z 12008KT 10SM CLR 06/M03 A3011 RMK AO2 SLP200 T00561033 57018=
201602211353 METAR KPAE 211353Z 11006KT 10SM CLR 04/M03 A3013 RMK AO2 SLP205 T00391028=
201602211253 METAR KPAE 211253Z 11007KT 10SM CLR 04/M02 A3015 RMK AO2 SLP212 T00391022=
201602211153 METAR KPAE 211153Z 11006KT 10SM CLR 04/M02 A3017 RMK AO2 SLP218 T00441022 10050 20022 56018=
201602211053 METAR KPAE 211053Z 11003KT 10SM CLR 03/M02 A3019 RMK AO2 SLP225 T00331017=
201602210953 METAR KPAE 210953Z 11006KT 10SM CLR 04/M01 A3020 RMK AO2 SLP228 T00441011=
201602210853 METAR KPAE 210853Z 00000KT 10SM CLR 03/M01 A3022 RMK AO2 SLP237 T00331006 56017=
201602210753 METAR KPAE 210753Z 11005KT 10SM CLR 04/00 A3022 RMK AO2 SLP237 T00390000 400940039=
201602210653 METAR KPAE 210653Z 11007KT 10SM CLR 04/00 A3025 RMK AO2 SLP246 T00440000=
201602210553 METAR KPAE 210553Z 10006KT 10SM CLR 05/01 A3027 RMK AO2 SLP254 T00500006 10094 20050 56019=
201602210453 METAR KPAE 210453Z 09004KT 10SM CLR 06/01 A3028 RMK AO2 SLP259 T00560006=
201602210353 METAR KPAE 210353Z 08005KT 10SM CLR 07/00 A3030 RMK AO2 SLP263 T00720000=
201602210253 METAR KPAE 210253Z 09003KT 10SM CLR 08/00 A3032 RMK AO2 SLP272 T00780000 56013=
201602210153 METAR KPAE 210153Z 11003KT 10SM CLR 08/00 A3033 RMK AO2 SLP274 T00780000=
201602210053 METAR KPAE 210053Z 18004KT 10SM CLR 09/M01 A3034 RMK AO2 SLP279 T00891006=
201602202353 METAR KPAE 202353Z 19009KT 10SM FEW039 SCT048 09/00 A3036 RMK AO2 SLP285 T00940000 10094 20056 56006=
201602202253 METAR KPAE 202253Z 18010KT 10SM BKN039 09/00 A3036 RMK AO2 SLP285 T00940000=
201602202153 METAR KPAE 202153Z 20010KT 10SM BKN041 09/M01 A3037 RMK AO2 SLP286 T00941006=
201602202053 METAR KPAE 202053Z 16007KT 10SM SCT036 SCT042 08/01 A3038 RMK AO2 SLP291 T00780006 58001=
201602201953 METAR KPAE 201953Z 19008KT 10SM BKN031 07/01 A3038 RMK AO2 SLP292 T00720011=
201602201949 SPECI KPAE 201949Z 18006KT 10SM BKN031 07/01 A3038 RMK AO2=
201602201853 METAR KPAE 201853Z 16007KT 10SM BKN019 BKN023 06/02 A3038 RMK AO2 SLP292 T00610017=
201602201753 METAR KPAE 201753Z 18006KT 10SM OVC016 06/02 A3037 RMK AO2 SLP290 T00560017 10056 20039 51023=
201602201739 SPECI KPAE 201739Z 16007KT 10SM OVC016 06/02 A3037 RMK AO2 T00560017=
201602201653 METAR KPAE 201653Z 16008KT 10SM OVC014 05/02 A3036 RMK AO2 SLP286 T00500017=
201602201645 SPECI KPAE 201645Z 16008KT 10SM OVC014 05/02 A3036 RMK AO2 T00500017=
201602201553 METAR KPAE 201553Z 17008KT 10SM BKN016 04/02 A3034 RMK AO2 SLP278 T00440017=
201602201453 METAR KPAE 201453Z 17008KT 10SM BKN013 OVC018 04/02 A3031 RMK AO2 SLP267 T00440017 53014=
201602201353 METAR KPAE 201353Z AUTO 16010KT 10SM OVC012 04/02 A3029 RMK AO2 SLP260 T00440017=
201602201253 METAR KPAE 201253Z AUTO 17006KT 10SM OVC013 04/02 A3027 RMK AO2 SLP252 T00440017=
201602201250 SPECI KPAE 201250Z AUTO 17008KT 10SM OVC013 04/02 A3026 RMK AO2=
201602201204 SPECI KPAE 201204Z AUTO 18012KT 10SM BKN017 BKN100 04/01 A3024 RMK AO2 T00390011=
201602201153 METAR KPAE 201153Z AUTO 18014KT 10SM SCT017 BKN100 04/01 A3023 RMK AO2 SLP241 70024 T00390011 10056 20039 51036=
201602201123 SPECI KPAE 201123Z AUTO 18015KT 10SM BKN016 BKN110 04/01 A3021 RMK AO2 T00390011=
201602201106 SPECI KPAE 201106Z AUTO 19012KT 10SM SCT016 SCT120 04/01 A3021 RMK AO2 T00390011=
201602201053 METAR KPAE 201053Z AUTO 19016KT 10SM BKN016 04/01 A3020 RMK AO2 SLP230 T00440011=
201602200953 METAR KPAE 200953Z AUTO 18014G19KT 10SM OVC016 04/02 A3016 RMK AO2 SLP217 T00440017=
201602200912 SPECI KPAE 200912Z AUTO 18018KT 10SM OVC015 04/02 A3014 RMK AO2 T00440017=
201602200853 METAR KPAE 200853Z AUTO 19014KT 10SM OVC013 05/02 A3013 RMK AO2 SLP205 T00500017 51035=
201602200753 METAR KPAE 200753Z AUTO 19015KT 10SM BKN015 05/02 A3009 RMK AO2 SLP193 T00500017 400890050=
201602200653 METAR KPAE 200653Z AUTO 19013KT 10SM SCT016 BKN024 BKN120 06/02 A3006 RMK AO2 SLP181 T00560017=
201602200634 SPECI KPAE 200634Z AUTO 19013KT 10SM SCT016 BKN020 BKN025 06/02 A3005 RMK AO2 T00560022=
201602200617 SPECI KPAE 200617Z AUTO 18010G20KT 10SM SCT016 06/02 A3004 RMK AO2 T00560022=
201602200553 METAR KPAE 200553Z AUTO 19014G21KT 10SM SCT015 BKN019 BKN110 06/02 A3002 RMK AO2 SLP169 60000 T00560017 10078 20056 51048=
201602200543 SPECI KPAE 200543Z AUTO 20013KT 10SM BKN019 BKN023 OVC039 06/02 A3002 RMK AO2 T00560022=
201602200517 SPECI KPAE 200517Z AUTO 19010KT 10SM FEW017 SCT028 OVC038 06/02 A3001 RMK AO2 T00560022=
201602200453 METAR KPAE 200453Z 19012KT 10SM FEW016 OVC024 06/03 A2999 RMK AO2 SLP158 T00610028=
201602200400 SPECI KPAE 200400Z 20012G20KT 10SM OVC015 06/03 A2994 RMK AO2 T00610028=
201602200353 METAR KPAE 200353Z 20014G20KT 10SM SCT017 BKN065 BKN080 06/03 A2993 RMK AO2 PK WND 21027/0304 SLP139 T00610028=
201602200253 METAR KPAE 200253Z 19019G26KT 10SM SCT017 BKN065 BKN080 06/03 A2988 RMK AO2 PK WND 18028/0200 SLP120 60000 T00610028 51033=
201602200229 SPECI KPAE 200229Z 18019KT 10SM SCT016 BKN065 OVC080 06/03 A2986 RMK AO2 PK WND 18028/0200 T00610028=
201602200153 METAR KPAE 200153Z 19019G31KT 10SM BKN018 BKN090 BKN110 07/03 A2983 RMK AO2 PK WND 19032/0056 SLP103 T00670033=
201602200053 METAR KPAE 200053Z 19020G29KT 10SM SCT020 SCT100 07/03 A2978 RMK AO2 PK WND 18032/2355 RAE2358 SLP086 P0000 T00720033=
201602200021 SPECI KPAE 200021Z 18017G29KT 10SM FEW016 SCT022 OVC100 07/04 A2976 RMK AO2 PK WND 18032/2355 RAE2358 P0000 T00720039=
201602192353 METAR KPAE 192353Z 19021G31KT 10SM -RA SCT019 BKN025 08/04 A2975 RMK AO2 PK WND 19031/2342 RAB48 SLP078 P0000 60015 T00780044 10089 20072 53035=
201602192253 METAR KPAE 192253Z 19020KT 10SM FEW110 08/04 A2969 RMK AO2 PK WND 18030/2227 RAE02 PRESRR SLP057 P0000 T00780044=
201602192153 METAR KPAE 192153Z 19020G27KT 9SM -RA FEW014 BKN037 OVC060 08/05 A2965 RMK AO2 PK WND 16036/2124 SLP042 P0010 T00780050=
201602192149 SPECI KPAE 192149Z 20019G32KT 7SM -RA SCT014 BKN026 OVC036 08/05 A2965 RMK AO2 PK WND 16036/2124 P0010=
201602192135 SPECI KPAE 192135Z 19023G28KT 3SM -RA FEW012 BKN036 OVC044 08/06 A2963 RMK AO2 PK WND 16036/2124 P0009 T00830056=
201602192126 SPECI KPAE 192126Z 19025G36KT 1 3/4SM +RA FEW013 BKN037 OVC055 09/05 A2964 RMK AO2 PK WND 16036/2124 PRESRR P0006 T00890050=
201602192053 METAR KPAE 192053Z VRB05KT 9SM -RA OVC050 09/06 A2958 RMK AO2 SLP017 P0003 60005 T00890056 56011=
201602191953 METAR KPAE 191953Z VRB05KT 8SM -RA BKN047 OVC060 08/05 A2958 RMK AO2 RAB1856 SLP020 P0001 T00830050=
201602191853 METAR KPAE 191853Z 11011KT 10SM BKN060 OVC080 08/05 A2958 RMK AO2 RAE33 SLP019 P0001 T00830050=
201602191753 METAR KPAE 191753Z 12010KT 8SM -RA BKN049 BKN055 OVC070 07/05 A2961 RMK AO2 SLP029 P0001 60009 T00720050 10078 20061 58014=
201602191653 METAR KPAE 191653Z 12009KT 4SM -RA BR FEW028 BKN038 OVC050 07/05 A2963 RMK AO2 SLP036 P0004 T00670050=
201602191553 METAR KPAE 191553Z VRB04KT 5SM -RA BR FEW027 BKN040 OVC050 06/04 A2965 RMK AO2 SLP043 P0002 T00610044=
201602191453 METAR KPAE 191453Z 12007KT 8SM -RA OVC046 07/04 A2965 RMK AO2 SLP043 P0001 60002 T00670044 58013=
201602191353 METAR KPAE 191353Z AUTO 14007KT 100V170 10SM -RA OVC055 07/04 A2967 RMK AO2 SLP049 P0001 T00670044=
201602191253 METAR KPAE 191253Z AUTO 15011KT 10SM -RA SCT055 OVC075 07/04 A2969 RMK AO2 RAB26 SLP056 P0000 T00670039=
201602191153 METAR KPAE 191153Z AUTO 15007KT 10SM FEW034 BKN090 OVC100 08/04 A2969 RMK AO2 SLP056 60001 70003 T00780039 10078 20061 58008=
201602191133 SPECI KPAE 191133Z AUTO 15008KT 10SM SCT025 BKN035 OVC100 08/04 A2970 RMK AO2 T00780039=
201602191121 SPECI KPAE 191121Z AUTO 18008KT 10SM BKN025 OVC033 07/04 A2970 RMK AO2 T00670044=
201602191053 METAR KPAE 191053Z AUTO 15007KT 110V170 10SM OVC034 07/04 A2971 RMK AO2 SLP062 T00720044=
201602190953 METAR KPAE 190953Z AUTO 15009KT 10SM BKN075 OVC110 07/04 A2972 RMK AO2 SLP065 T00720044=
201602190853 METAR KPAE 190853Z AUTO 16014KT 10SM FEW060 BKN095 07/04 A2972 RMK AO2 RAE08 SLP064 P0000 60001 T00720044 51021=
201602190839 SPECI KPAE 190839Z AUTO 18011KT 10SM SCT020 BKN060 07/04 A2971 RMK AO2 RAE08 P0000 T00720044=
201602190808 SPECI KPAE 190808Z AUTO 17012KT 10SM BKN020 OVC041 07/04 A2972 RMK AO2 RAE08 P0000 T00720044=
201602190753 METAR KPAE 190753Z AUTO 16015KT 3SM -RA BR FEW014 BKN043 OVC055 07/04 A2971 RMK AO2 RAB39 SLP063 P0001 T00670044 401000061=
201602190718 SPECI KPAE 190718Z AUTO 16018G25KT 10SM FEW021 07/04 A2969 RMK AO2 T00670044=
201602190703 SPECI KPAE 190703Z AUTO 17019G23KT 10SM FEW010 SCT014 BKN022 07/04 A2968 RMK AO2 T00670044=
201602190653 METAR KPAE 190653Z AUTO 17016G26KT 10SM FEW010 BKN014 OVC120 07/04 A2967 RMK AO2 PK WND 16026/0616 RAE03 SLP050 P0000 T00670044=
201602190635 SPECI KPAE 190635Z AUTO 16018KT 10SM FEW014 SCT018 BKN023 07/04 A2967 RMK AO2 PK WND 16026/0616 RAE03 P0000 T00670039=
201602190553 METAR KPAE 190553Z AUTO 17014G21KT 10SM -RA SCT016 BKN048 OVC065 06/04 A2965 RMK AO2 PK WND 19030/0516 SLP043 P0002 60002 T00610039 10094 20061 51033=
201602190453 METAR KPAE 190453Z 19017KT 10SM -RA BKN050 OVC070 08/03 A2963 RMK AO2 RAB40 SLP037 P0000 T00780033=
201602190353 METAR KPAE 190353Z 18015KT 10SM FEW120 08/03 A2959 RMK AO2 SLP022 T00830028=
201602190253 METAR KPAE 190253Z 17012G21KT 10SM CLR 08/03 A2955 RMK AO2 SLP010 T00830028 51034=
201602190153 METAR KPAE 190153Z 18011KT 10SM CLR 08/03 A2953 RMK AO2 SLP002 T00830028=
201602190053 METAR KPAE 190053Z 18017KT 10SM FEW110 09/02 A2949 RMK AO2 SLP987 T00890022=
201602182353 METAR KPAE 182353Z 18015KT 10SM SCT031 BKN110 09/02 A2945 RMK AO2 PK WND 19029/2307 SLP974 60000 T00940022 10100 20089 53028=
201602182253 METAR KPAE 182253Z 19021G31KT 10SM SCT120 09/02 A2941 RMK AO2 PK WND 20031/2247 SLP961 T00940022=
201602182153 METAR KPAE 182153Z 19022G30KT 10SM BKN030 09/03 A2939 RMK AO2 PK WND 18031/2119 SLP952 T00890028=
201602182140 SPECI KPAE 182140Z 20017KT 10SM BKN028 BKN036 10/03 A2938 RMK AO2 PK WND 18031/2119 T01000033=
201602182053 METAR KPAE 182053Z 20015G26KT 10SM BKN033 09/03 A2937 RMK AO2 PK WND 18028/2009 RAE00 SLP946 P0000 60000 T00940028 51013=
201602181953 METAR KPAE 181953Z 19019G31KT 9SM -RA SCT060 09/04 A2936 RMK AO2 PK WND 18031/1944 RAB43 SLP943 P0000 T00890039=
201602181853 METAR KPAE 181853Z 19017G25KT 10SM CLR 09/04 A2935 RMK AO2 PK WND 18026/1800 SLP939 T00940039=
201602181753 METAR KPAE 181753Z 18016G24KT 10SM SCT060 BKN085 08/03 A2933 RMK AO2 PK WND 18026/1737 RAE16 SLP933 P0000 60000 T00780033 10083 20072 53016=
201602181653 METAR KPAE 181653Z 17009KT 10SM -RA BKN042 OVC050 08/04 A2931 RMK AO2 RAB44 SLP926 P0000 T00780039=
201602181553 METAR KPAE 181553Z 18011KT 10SM FEW060 FEW090 07/03 A2929 RMK AO2 RAB19E30 SLP921 P0000 T00720033=
201602181453 METAR KPAE 181453Z 16012G19KT 10SM FEW050 07/05 A2928 RMK AO2 SLP917 T00720050 51006=
201602181353 METAR KPAE 181353Z AUTO 18009KT 10SM CLR 07/05 A2927 RMK AO2 SLP914 T00720050=
201602181253 METAR KPAE 181253Z AUTO 19015KT 10SM CLR 07/04 A2928 RMK AO2 SLP914 T00720044=
201602181153 METAR KPAE 181153Z AUTO 20015KT 10SM OVC090 08/05 A2927 RMK AO2 SLP910 60004 70026 T00780050 10083 20072 55001=
201602181053 METAR KPAE 181053Z AUTO 17007KT 10SM FEW013 SCT041 08/06 A2926 RMK AO2 SLP908 T00780056=
201602180953 METAR KPAE 180953Z AUTO 16010KT 10SM OVC110 08/06 A2925 RMK AO2 SLP907 T00780056=
201602180853 METAR KPAE 180853Z AUTO 16012KT 10SM FEW090 SCT120 08/06 A2927 RMK AO2 RAE00 SLP910 P0000 60004 T00780056 58002=
201602180753 METAR KPAE 180753Z AUTO 17012KT 10SM -RA SCT009 BKN070 OVC100 08/06 A2928 RMK AO2 SLP916 P0000 T00830061 401670078=
201602180653 METAR KPAE 180653Z AUTO 17013KT 10SM -RA FEW007 OVC060 08/07 A2928 RMK AO2 PK WND 18030/0556 SLP917 P0004 T00830067=
201602180553 METAR KPAE 180553Z AUTO 18020G26KT 6SM -RA BR OVC047 08/06 A2927 RMK AO2 PK WND 17027/0542 SLP912 P0006 60020 T00830061 10133 20083 53024=
201602180453 METAR KPAE 180453Z AUTO 19020G29KT 5SM RA BR FEW010 BKN036 OVC045 09/07 A2924 RMK AO2 PK WND 19029/0448 SLP901 P0012 T00940072=
201602180353 METAR KPAE 180353Z 22010KT 10SM -RA SCT060 OVC075 10/08 A2921 RMK AO2 RAB0259 SLP893 P0001 T01000078=
201602180253 METAR KPAE 180253Z VRB04KT 10SM FEW070 BKN100 OVC120 12/06 A2920 RMK AO2 SLP888 60001 T01220056 55021=
201602180153 METAR KPAE 180153Z 10008KT 10SM FEW080 BKN100 13/06 A2919 RMK AO2 SLP884 T01280061=
201602180053 METAR KPAE 180053Z 10008KT 10SM FEW070 BKN090 13/07 A2922 RMK AO2 RAB2359E19 SLP893 P0001 T01280067=
201602172353 METAR KPAE 172353Z 12008KT 10SM OVC070 13/08 A2926 RMK AO2 RAE51 SLP909 P0002 60002 T01280078 10167 20106 58020=
201602172253 METAR KPAE 172253Z 16009KT 10SM -RA BKN060 OVC075 13/07 A2930 RMK AO2 RAB29 SLP922 P0000 T01280067=
201602172153 METAR KPAE 172153Z 23006KT 10SM FEW060 BKN075 BKN095 12/06 A2931 RMK AO2 SLP926 T01170061=
201602172053 METAR KPAE 172053Z 15007KT 10SM SCT100 16/06 A2932 RMK AO2 SLP929 T01560056 58027=
201602171953 METAR KPAE 171953Z 11008KT 10SM OVC110 14/04 A2936 RMK AO2 SLP942 T01440044=
201602171853 METAR KPAE 171853Z 00000KT 10SM FEW065 BKN085 12/06 A2940 RMK AO2 SLP955 T01170061=
201602171753 METAR KPAE 171753Z 13006KT 10SM FEW120 12/04 A2940 RMK AO2 SLP956 60000 T01220044 10122 20078 56025=
201602171653 METAR KPAE 171653Z 04004KT 10SM BKN110 09/05 A2942 RMK AO2 SLP963 T00940050=
201602171553 METAR KPAE 171553Z 03005KT 10SM BKN110 08/04 A2945 RMK AO2 SLP974 T00830044=
201602171453 METAR KPAE 171453Z 36005KT 10SM FEW110 09/04 A2948 RMK AO2 SLP982 60000 T00940044 56041=
201602171353 METAR KPAE 171353Z AUTO 10009KT 10SM OVC100 11/04 A2950 RMK AO2 RAE1258 SLP990 P0000 T01060039=
201602171253 METAR KPAE 171253Z AUTO 02006KT 10SM -RA BKN060 OVC100 10/05 A2955 RMK AO2 RAB33 SLP005 P0000 T01000050=
201602171153 METAR KPAE 171153Z AUTO VRB03KT 10SM OVC095 10/03 A2960 RMK AO2 SLP023 70005 T01000033 10100 20083 58028=
201602171053 METAR KPAE 171053Z AUTO 10008KT 10SM FEW080 OVC100 10/04 A2964 RMK AO2 SLP035 T01000039=
201602170953 METAR KPAE 170953Z AUTO 12009KT 10SM FEW090 09/04 A2967 RMK AO2 SLP047 T00940044=
201602170853 METAR KPAE 170853Z AUTO 11006KT 10SM CLR 09/04 A2968 RMK AO2 SLP053 T00890044 56032=
201602170753 METAR KPAE 170753Z AUTO 12003KT 10SM CLR 09/04 A2971 RMK AO2 SLP063 T00940039 401170083=
201602170653 METAR KPAE 170653Z AUTO 10006KT 10SM CLR 09/04 A2972 RMK AO2 PRESFR SLP066 T00940044=
201602170553 METAR KPAE 170553Z AUTO 11005KT 10SM BKN110 09/06 A2978 RMK AO2 SLP086 T00940056 10117 20094 58033=
201602170453 METAR KPAE 170453Z 11006KT 10SM OVC100 10/07 A2981 RMK AO2 SLP096 T01000067=
201602170353 METAR KPAE 170353Z 11005KT 10SM BKN100 OVC110 10/08 A2985 RMK AO2 SLP111 T01000078=
201602170253 METAR KPAE 170253Z 12004KT 10SM BKN110 11/08 A2988 RMK AO2 SLP120 T01060078 56018=
201602170153 METAR KPAE 170153Z 15006KT 10SM FEW120 11/08 A2989 RMK AO2 SLP123 T01110078=
201602170100 SPECI KPAE 170100Z VRB03KT 10SM CLR 11/07 A2991 RMK AO2 T01110072=
201602170053 METAR KPAE 170053Z 15006KT 10SM SCT018 BKN024 11/07 A2991 RMK AO2 SLP131 T01110072=
201602162353 METAR KPAE 162353Z VRB04KT 10SM BKN018 BKN026 BKN033 12/08 A2994 RMK AO2 SLP137 T01170078 10117 20094 58017=
201602162253 METAR KPAE 162253Z 15006KT 10SM BKN018 BKN027 OVC032 11/07 A2996 RMK AO2 SLP148 T01110067=
201602162153 METAR KPAE 162153Z 20003KT 10SM BKN016 BKN028 OVC035 11/08 A2998 RMK AO2 SLP155 T01060078=
201602162150 SPECI KPAE 162150Z 00000KT 10SM BKN016 BKN028 OVC035 11/07 A2999 RMK AO2=
201602162053 METAR KPAE 162053Z 18006KT 10SM BKN009 OVC021 11/07 A3000 RMK AO2 SLP162 T01060072 58011=
201602161953 METAR KPAE 161953Z 21008KT 10SM BKN007 OVC012 09/07 A3003 RMK AO2 SLP169 T00940072=
201602161853 METAR KPAE 161853Z 19010KT 3SM HZ BKN005 OVC015 10/07 A3004 RMK AO2 SLP174 T01000072=
201602161753 METAR KPAE 161753Z 22004KT 3SM BR BKN005 BKN020 OVC029 09/08 A3004 RMK AO2 SLP173 60005 T00940078 10094 20083 51005=
201602161727 SPECI KPAE 161727Z 21006KT 3SM BR BKN005 BKN020 OVC029 09/08 A3003 RMK AO2 T00940078=
201602161707 SPECI KPAE 161707Z 19007KT 3SM BR SCT005 BKN020 OVC026 09/07 A3003 RMK AO2 T00940072=
201602161705 SPECI KPAE 161705Z 18007KT 2 1/2SM BR BKN003 BKN020 BKN050 09/07 A3003 RMK AO2 T00940072=
201602161653 METAR KPAE 161653Z 18010KT 5SM BR BKN003 BKN025 OVC033 09/07 A3003 RMK AO2 SLP172 T00890072=
201602161634 SPECI KPAE 161634Z 18005KT 10SM BKN003 BKN025 OVC033 09/08 A3004 RMK AO2 T00940078 $=
201602161624 SPECI KPAE 161624Z 19006KT 10SM SCT003 BKN025 OVC033 09/08 A3003 RMK AO2 T00890078 $=
201602161600 SPECI KPAE 161600Z 22003KT 3SM BR OVC003 09/08 A3003 RMK AO2 T00890078 $=
201602161553 METAR KPAE 161553Z 00000KT 2SM BR OVC003 09/08 A3003 RMK AO2 SLP171 T00890078 $=
201602161530 SPECI KPAE 161530Z 20005KT 2SM BR OVC003 09/08 A3003 RMK AO2 T00890078 $=
201602161511 SPECI KPAE 161511Z 19005KT 10SM BKN009 OVC024 09/07 A3003 RMK AO2 T00890072 $=
201602161500 SPECI KPAE 161500Z 17004KT 10SM OVC024 09/07 A3003 RMK AO2 T00890072 $=
201602161453 METAR KPAE 161453Z 17004KT 10SM BKN009 BKN026 08/07 A3002 RMK AO2 SLP168 P0001 60005 T00830072 58001 $=
201602161353 METAR KPAE 161353Z AUTO 15004KT 10SM BKN022 OVC055 09/07 A3002 RMK AO2 RAE36 SLP168 P0001 T00890072 $=
201602161307 SPECI KPAE 161307Z AUTO 00000KT 8SM -RA FEW011 OVC017 09/07 A3003 RMK AO2 P0001 T00890072 $=
201602161300 METAR KPAE NIL=
201602161300 SPECI KPAE 161300Z AUTO 00000KT 3SM -RA BR FEW009 BKN013 OVC018 09/08 A3003 RMK AO2 P0001 T00890078 $=
201602161257 SPECI KPAE 161257Z AUTO 00000KT 2SM -RA BR BKN011 OVC018 09/08 A3003 RMK AO2 P0001 T00890078 $=
201602161248 METAR KPAE 161248Z AUTO 00000KT 1SM R16R/6000VP6000FT -RA BR BKN005 OVC011 09/08 A3004=
201602161247 SPECI KPAE 161247Z AUTO 00000KT 1SM R16R/6000VP6000FT -RA BR BKN005 OVC011 09/08 A3004 RMK AO2 P0003 $=
201602161234 SPECI KPAE 161234Z AUTO 36005KT 1/2SM R16R/4000VP6000FT -RA FG VV004 09/08 A3003 RMK AO2 P0002 T00890078 $=
201602161208 SPECI KPAE 161208Z AUTO 00000KT 1 3/4SM -RA BR OVC004 09/08 A3003 RMK AO2 P0000 T00890078 $=
201602161153 METAR KPAE 161153Z AUTO 21003KT 5SM -RA BR OVC004 09/08 A3003 RMK AO2 RAB50 SLP170 P0000 60004 70056 T00890078 10100 20089 53001 $=
201602161053 METAR KPAE 161053Z AUTO 18007KT 3SM BR BKN005 BKN014 OVC029 09/08 A3002 RMK AO2 RAE48 SLP168 P0001 T00890078 $=
201602161051 SPECI KPAE 161051Z AUTO 18007KT 4SM BR BKN005 BKN014 OVC027 09/08 A3002 RMK AO2 RAE48 P0001 $=
201602160953 METAR KPAE 160953Z AUTO 20007KT 2 1/2SM -RA BR OVC005 09/08 A3002 RMK AO2 RAB05 SLP168 P0001 T00890078 $=
201602160919 SPECI KPAE 160919Z AUTO 19008KT 2 1/2SM -RA BR OVC008 09/08 A3001 RMK AO2 RAB05 CIG 005V011 P0000 T00940078 $=
201602160853 METAR KPAE 160853Z AUTO 21010KT 10SM OVC008 09/08 A3000 RMK AO2 SLP161 60002 T00940078 53017 $=
201602160825 SPECI KPAE 160825Z AUTO 20013KT 10SM OVC009 09/08 A2999 RMK AO2 CIG 008V013 T00940078 $=
201602160753 METAR KPAE 160753Z AUTO 20015KT 10SM OVC012 09/07 A2997 RMK AO2 RAE00 SLP152 P0000 T00940072 401110094 $=
201602160737 SPECI KPAE 160737Z AUTO 20016G21KT 10SM BKN012 BKN110 09/07 A2997 RMK AO2 RAE00 P0000 T00940072 $=
201602160653 METAR KPAE 160653Z AUTO 20017G24KT 10SM -RA FEW013 BKN060 OVC095 09/07 A2996 RMK AO2 PK WND 21029/0605 RAB04 SLP148 P0002 T00940072 $=
201602160553 METAR KPAE 160553Z AUTO 19020G28KT 10SM SCT011 BKN060 OVC075 10/07 A2995 RMK AO2 PK WND 19035/0501 SLP143 60000 T01000072 10106 20094 53004 $=
201602160551 SPECI KPAE 160551Z AUTO 20021G28KT 10SM SCT011 BKN060 OVC095 10/07 A2994 RMK AO2 PK WND 19035/0501 $=
201602160510 SPECI KPAE 160510Z AUTO 19024G35KT 10SM BKN010 OVC080 10/07 A2993 RMK AO2 PK WND 19035/0501 T01000072 $=
201602160453 METAR KPAE 160453Z AUTO 19025G39KT 10SM FEW009 SCT038 OVC080 10/07 A2992 RMK AO2 PK WND 21039/0451 RAE0355 SLP134 P0000 T01000072 $=
201602160435 SPECI KPAE 160435Z 19031G38KT 10SM SCT011 BKN039 OVC080 10/07 A2993 RMK AO2 PK WND 20038/0434 RAE0355 P0000 T01000072 $=
201602160353 METAR KPAE 160353Z 19022G29KT 6SM -RA BR SCT008 OVC012 10/08 A2994 RMK AO2 PK WND 19039/0300 RAB46 SLP139 P0000 T01000078=
201602160329 SPECI KPAE 160329Z 19028G34KT 9SM BKN012 OVC080 10/08 A2994 RMK AO2 PK WND 19039/0300 T01000078=
201602160300 SPECI KPAE 160300Z 19032G39KT 10SM SCT012 10/08 A2993 RMK AO2 PK WND 19039/0300 T01000078=
201602160253 METAR KPAE 160253Z 19030G42KT 10SM BKN012 10/08 A2993 RMK AO2 PK WND 19042/0244 SLP138 60000 T01000078 58018=
201602160200 SPECI KPAE 160200Z 17017G32KT 10SM BKN013 11/08 A2996 RMK AO2 PK WND 18032/0156 T01060078=
201602160153 METAR KPAE 160153Z 17018G30KT 10SM BKN009 BKN015 OVC034 11/08 A2995 RMK AO2 PK WND 18034/0121 RAE08 SLP144 P0000 T01060078=
201602160105 SPECI KPAE 160105Z 18019G31KT 4SM -RA BR BKN009 BKN015 OVC034 11/08 A2997 RMK AO2 PK WND 16031/0101 P0000 T01060083=
201602160053 METAR KPAE 160053Z 17018G29KT 3SM -RA BR SCT009 BKN015 OVC026 11/08 A2998 RMK AO2 PK WND 18033/2359 SLP151 P0000 T01060083=
201602160050 SPECI KPAE 160050Z 17020G29KT 3SM -RA BR SCT011 BKN015 OVC026 11/08 A2998 RMK AO2 PK WND 18033/2359 P0000=
201602160041 SPECI KPAE 160041Z 18019G28KT 2 1/2SM -RA BR SCT009 BKN014 OVC026 11/08 A2998 RMK AO2 PK WND 18033/2359 P0000 T01060083=
201602160027 SPECI KPAE 160027Z 18020G29KT 3SM -RA BR BKN007 OVC013 11/08 A2998 RMK AO2 PK WND 18033/2359 CIG 005V009 P0000 T01060083=
201602152353 METAR KPAE 152353Z 18017G32KT 1SM R16R/P6000FT -RA BR BKN008 OVC012 11/08 A2999 RMK AO2 PK WND 18032/2349 SLP155 P0001 60018 T01060083 10106 20100 58022=
201602152309 SPECI KPAE 152309Z 17016G23KT 1 1/2SM -RA BR BKN008 OVC013 10/08 A3001 RMK AO2 CIG 005V010 P0000 T01000083=
201602152253 METAR KPAE 152253Z 17015G26KT 2SM -RA BR BKN005 OVC013 10/08 A3001 RMK AO2 PK WND 16026/2235 RAE10B36 SLP163 P0000 T01000083=
201602152153 METAR KPAE 152153Z 18017G23KT 2SM -RA BR BKN005 OVC013 10/08 A3003 RMK AO2 PK WND 18027/2105 RAB18 SLP170 P0000 T01000083=
201602152056 SPECI KPAE 152056Z 19018KT 2SM BR OVC009 10/08 A3005 RMK AO2 T01000078=
201602152053 METAR KPAE 152053Z 18018KT 1 1/2SM BR OVC010 10/08 A3005 RMK AO2 RAE20 SLP178 P0000 60017 T01000078 58011=
201602151953 METAR KPAE 151953Z 18015KT 1 1/2SM -RA BR SCT003 OVC009 10/08 A3008 RMK AO2 SLP186 P0004 T01000083=
201602151853 METAR KPAE 151853Z 20012G21KT 1SM R16R/P6000FT -RA BR BKN003 OVC009 10/08 A3008 RMK AO2 SLP188 P0013 T01000083=
201602151753 METAR KPAE 151753Z 21010KT 1SM R16R/5000V5500FT RA BR BKN003 OVC009 10/08 A3009 RMK AO2 SLP190 P0017 60034 T01000083 10106 20100 51007=
201602151653 METAR KPAE 151653Z 20008KT 1SM R16R/P6000FT -RA BR SCT003 BKN006 OVC038 10/08 A3008 RMK AO2 SLP189 P0006 T01000083=
201602151553 METAR KPAE 151553Z 21013KT 1SM R16R/P6000FT RA BR BKN003 BKN023 OVC035 10/08 A3008 RMK AO2 SLP186 P0009 T01000083=
201602151453 METAR KPAE 151453Z 21010KT 1 1/2SM -RA BR BKN004 OVC008 10/09 A3007 RMK AO2 SLP182 P0001 60002 T01000089 50002=
201602151448 SPECI KPAE 151448Z 20010KT 1 1/2SM -RA BR BKN004 OVC008 10/09 A3007 RMK AO2 P0001=
201602151423 SPECI KPAE 151423Z AUTO 20011KT 1 3/4SM -RA BR OVC008 10/08 A3006 RMK AO2 P0000 T01000083=
201602151417 SPECI KPAE 151417Z AUTO 20009KT 2SM -RA BR BKN004 OVC008 10/08 A3006 RMK AO2 P0000 T01000083=
201602151353 METAR KPAE 151353Z AUTO 21013KT 1 3/4SM -RA BR OVC007 10/08 A3006 RMK AO2 RAB08 SLP181 P0001 T01000083=
201602151342 SPECI KPAE 151342Z AUTO 21011KT 1 3/4SM -RA BR OVC007 10/08 A3006 RMK AO2 RAB08 P0000 T01000083=
201602151315 SPECI KPAE 151315Z AUTO 21012KT 2SM -RA BR OVC007 10/09 A3006 RMK AO2 RAB08 P0000 T01000089=
201602151253 METAR KPAE 151253Z AUTO 20014G21KT 5SM BR OVC007 10/08 A3006 RMK AO2 RAB35E48 SLP179 P0000 T01000083=
201602151153 METAR KPAE 151153Z AUTO 21015G22KT 10SM OVC008 11/08 A3006 RMK AO2 RAB41E50 SLP181 P0000 60000 70011 T01060083 10111 20100 56003=
201602151053 METAR KPAE 151053Z AUTO 22017G21KT 10SM OVC009 11/08 A3007 RMK AO2 PK WND 21029/1038 RAE24 SLP184 P0000 T01060083=
201602151012 SPECI KPAE 151012Z AUTO 21017G25KT 10SM -RA OVC009 11/08 A3006 RMK AO2 P0000 T01060083=
201602150953 METAR KPAE 150953Z AUTO 20017G24KT 10SM -RA OVC010 11/08 A3005 RMK AO2 PK WND 20026/0909 RAE08B32 SLP175 P0000 T01060083=
201602150853 METAR KPAE 150853Z AUTO 20012G24KT 10SM -RA OVC011 11/08 A3007 RMK AO2 PK WND 19028/0806 RAB47 SLP184 P0000 60000 T01060083 55007=
201602150753 METAR KPAE 150753Z AUTO 19021G25KT 10SM OVC010 11/08 A3007 RMK AO2 PK WND 20027/0735 CIG 009V014 SLP182 T01060083 401110083=
201602150728 SPECI KPAE 150728Z AUTO 20015KT 10SM OVC011 11/08 A3008 RMK AO2 T01060083=
201602150653 METAR KPAE 150653Z AUTO 19017G22KT 10SM OVC009 11/08 A3007 RMK AO2 PK WND 19027/0602 RAE21 CIG 007V012 SLP183 P0000 T01060083=
201602150553 METAR KPAE 150553Z AUTO 20015G23KT 10SM -RA OVC008 10/08 A3009 RMK AO2 RAB0458 CIG 005V011 SLP192 P0001 60007 T01000083 10111 20100 58007=
201602150453 METAR KPAE 150453Z 21010KT 10SM BKN007 OVC011 10/09 A3011 RMK AO2 RAE45 SLP198 P0002 T01000089=
201602150407 SPECI KPAE 150407Z 20010KT 4SM -RA BR BKN007 OVC011 11/09 A3012 RMK AO2 P0002 T01060089=
201602150400 SPECI KPAE 150400Z 19013KT 3SM -RA BR SCT009 BKN014 OVC030 11/09 A3011 RMK AO2 P0001 T01060089=
201602150353 METAR KPAE 150353Z 19012KT 3SM -RA BR BKN007 OVC014 11/09 A3011 RMK AO2 SLP199 P0003 T01060089=
201602150338 SPECI KPAE 150338Z 18012KT 3SM -RA BR BKN007 OVC014 11/09 A3012 RMK AO2 P0002 T01060089=
201602150319 SPECI KPAE 150319Z 19010KT 7SM -RA BKN013 OVC019 11/09 A3012 RMK AO2 P0001 T01060089=
201602150256 SPECI KPAE 150256Z 18010KT 10SM -RA FEW007 OVC015 11/09 A3012 RMK AO2 P0000 T01060089=
201602150253 METAR KPAE 150253Z 18009KT 10SM -RA BKN007 OVC014 11/09 A3012 RMK AO2 RAB28 SLP200 P0001 60001 T01060089 58001=
201602150153 METAR KPAE 150153Z 17007KT 10SM BKN007 OVC014 11/09 A3013 RMK AO2 SLP204 T01060094=
201602150053 METAR KPAE 150053Z 17008KT 10SM BKN007 OVC014 11/09 A3013 RMK AO2 RAB29E47 SLP205 P0000 T01110094=
201602142353 METAR KPAE 142353Z 17008KT 10SM BKN007 OVC014 11/09 A3012 RMK AO2 SLP201 60000 T01110094 10111 20089 50002=
201602142253 METAR KPAE 142253Z 18008KT 10SM OVC006 11/09 A3012 RMK AO2 RAE02B43E53 SLP202 P0000 T01060094=
201602142153 METAR KPAE 142153Z 17009KT 10SM -RA OVC005 11/09 A3011 RMK AO2 RAB52 SLP199 P0000 T01060089=
201602142053 METAR KPAE 142053Z 19015KT 7SM OVC004 10/08 A3011 RMK AO2 SLP198 T01000083 53003=
201602142000 SPECI KPAE 142000Z 17014G21KT 8SM OVC004 10/08 A3011 RMK AO2 T01000083=
201602141953 METAR KPAE 141953Z COR 18015G21KT 8SM OVC004 10/08 A3011 RMK AO2 SLP197 T01000083=
201602141853 METAR KPAE 141853Z 17014G23KT 4SM BR OVC004 09/08 A3009 RMK AO2 SLP192 T00940078=
201602141800 SPECI KPAE 141800Z 18015KT 10SM OVC003 09/08 A3010 RMK AO2 T00890078=
201602141753 METAR KPAE 141753Z 17012KT 2SM BR OVC003 09/08 A3010 RMK AO2 RAE1658 SLP195 P0000 60004 T00890078 10089 20083 58002=
201602141712 SPECI KPAE 141712Z 17012G19KT 1SM R16R/P6000FT BR OVC004 09/07 A3009 RMK AO2 RAE1658 P0000 T00890072=
201602141653 METAR KPAE 141653Z 17011KT 7SM -RA OVC004 09/07 A3010 RMK AO2 SLP196 P0001 T00890072=
201602141553 METAR KPAE 141553Z 18012KT 9SM -RA OVC004 09/07 A3012 RMK AO2 CIG 004V008 SLP203 P0001 T00890072=
201602141453 METAR KPAE 141453Z 17007KT 5SM -RA BR OVC004 09/07 A3011 RMK AO2 SLP198 P0001 60002 T00890072 55002=
201602141353 METAR KPAE 141353Z AUTO 17009KT 3SM -RA BR OVC003 08/07 A3010 RMK AO2 SLP195 P0001 T00830072=
201602141344 SPECI KPAE 141344Z AUTO 17008KT 2 1/2SM -RA BR OVC003 08/07 A3010 RMK AO2 P0001 T00830072=
201602141304 SPECI KPAE 141304Z AUTO 17008KT 3SM -RA BR OVC003 08/07 A3010 RMK AO2 P0000 T00830072=
201602141253 METAR KPAE 141253Z AUTO 18009KT 2 1/2SM -RA BR OVC003 08/07 A3009 RMK AO2 RAB39 SLP193 P0000 T00830072=
201602141153 METAR KPAE 141153Z AUTO 16005KT 2 1/2SM BR OVC003 08/07 A3011 RMK AO2 SLP200 70005 T00830072 10083 20072 58003=
201602141127 SPECI KPAE 141127Z AUTO 17006KT 2 1/2SM BR OVC003 08/07 A3011 RMK AO2 T00830072=
201602141053 METAR KPAE 141053Z AUTO 18007KT 3SM BR OVC004 08/07 A3013 RMK AO2 SLP204 T00830067=
201602140953 METAR KPAE 140953Z AUTO 18011KT 7SM OVC004 08/07 A3012 RMK AO2 SLP201 T00830067=
201602140950 SPECI KPAE 140950Z AUTO 19011KT 7SM OVC004 08/07 A3012 RMK AO2=
201602140853 METAR KPAE 140853Z AUTO 19013KT 5SM BR OVC005 08/07 A3011 RMK AO2 SLP198 T00830067 51013=
201602140753 METAR KPAE 140753Z AUTO 19013KT 10SM OVC005 08/06 A3010 RMK AO2 SLP195 T00780061 400890067=
201602140653 METAR KPAE 140653Z AUTO 18014G21KT 10SM OVC005 07/06 A3008 RMK AO2 SLP187 T00720056=
201602140553 METAR KPAE 140553Z AUTO 16015KT 8SM OVC007 07/05 A3007 RMK AO2 PK WND 15028/0455 CIG 005V011 SLP185 60003 T00720050 10072 20067 55003=
201602140453 METAR KPAE 140453Z 16017G26KT 8SM OVC008 07/04 A3006 RMK AO2 PK WND 16026/0443 CIG 005V011 SLP182 T00670044=
201602140353 METAR KPAE 140353Z 16018G25KT 10SM SCT014 BKN075 OVC100 07/04 A3006 RMK AO2 RAB17E27 SLP182 P0000 T00670039=
201602140253 METAR KPAE 140253Z 16013G23KT 10SM BKN012 BKN026 OVC039 07/04 A3008 RMK AO2 RAE25 SLP188 P0001 60003 T00670039 55016=
201602140153 METAR KPAE 140153Z 17013G21KT 8SM -RA SCT012 BKN024 OVC048 07/04 A3007 RMK AO2 PK WND 18027/0104 SLP185 P0001 T00670039=
201602140053 METAR KPAE 140053Z 17016G24KT 8SM -RA BKN009 OVC022 07/04 A3009 RMK AO2 PK WND 16027/0033 SLP192 P0001 T00720044=
201602132353 METAR KPAE 132353Z 17015G23KT 7SM -RA BKN009 OVC022 07/04 A3013 RMK AO2 PK WND 18028/2309 SLP204 P0001 60002 T00720044 10089 20072 58017=
201602132253 METAR KPAE 132253Z 18022G28KT 10SM -RA SCT015 BKN020 OVC036 08/04 A3014 RMK AO2 PK WND 18028/2252 SLP210 P0000 T00780044=
201602132153 METAR KPAE 132153Z 18015G24KT 10SM -RA BKN012 BKN026 OVC060 08/04 A3016 RMK AO2 SLP216 P0001 T00830044=
201602132053 METAR KPAE 132053Z 17012KT 9SM -RA BKN026 BKN035 OVC041 08/04 A3018 RMK AO2 RAB27 SLP221 P0000 60000 T00830039 58024=
201602132033 SPECI KPAE 132033Z 17012KT 7SM -RA BKN026 OVC033 08/04 A3018 RMK AO2 RAB27 P0000 T00830039=
201602131953 METAR KPAE 131953Z 16014G21KT 10SM SCT039 BKN045 OVC060 08/04 A3020 RMK AO2 RAB16E35 SLP230 P0000 T00830039=
201602131853 METAR KPAE 131853Z 16012G21KT 10SM SCT017 BKN110 08/04 A3023 RMK AO2 SLP240 T00830039=
201602131753 METAR KPAE 131753Z 17013G19KT 10SM SCT017 BKN120 08/04 A3025 RMK AO2 SLP245 T00830044 10083 20067 56004=
201602131744 SPECI KPAE 131744Z 18011G19KT 10SM SCT015 BKN120 08/04 A3025 RMK AO2 T00780044=
201602131659 SPECI KPAE 131659Z 18012G21KT 10SM BKN009 08/04 A3026 RMK AO2 T00780044=
201602131653 METAR KPAE 131653Z 18016G23KT 10SM BKN013 OVC022 08/04 A3026 RMK AO2 SLP248 T00780044=
201602131553 METAR KPAE 131553Z 17011KT 10SM BKN013 OVC022 07/04 A3025 RMK AO2 SLP245 T00720044=
201602131453 METAR KPAE 131453Z 18010KT 10SM FEW013 BKN021 07/04 A3026 RMK AO2 SLP249 T00720044 51014=
201602131439 SPECI KPAE 131439Z AUTO 18010KT 10SM SCT014 BKN024 07/04 A3025 RMK AO2 T00720044=
201602131405 SPECI KPAE 131405Z AUTO 20012KT 10SM BKN014 07/04 A3026 RMK AO2 T00670039=
201602131353 METAR KPAE 131353Z AUTO 20010KT 10SM SCT011 BKN016 07/04 A3025 RMK AO2 SLP247 T00720044=
201602131253 METAR KPAE 131253Z AUTO 22012G19KT 10SM OVC011 07/04 A3023 RMK AO2 CIG 009V015 SLP240 T00720044=
201602131224 SPECI KPAE 131224Z AUTO 20016G21KT 10SM OVC013 07/04 A3023 RMK AO2 T00720044=
201602131153 METAR KPAE 131153Z AUTO 20010KT 10SM OVC015 07/04 A3022 RMK AO2 SLP236 60002 70031 T00720039 10094 20067 53021=
201602131102 SPECI KPAE 131102Z AUTO 20013G24KT 10SM BKN015 07/04 A3020 RMK AO2 T00670039=
201602131053 METAR KPAE 131053Z AUTO 20017KT 10SM SCT017 07/04 A3019 RMK AO2 PK WND 19028/1012 SLP226 T00670039=
201602130953 METAR KPAE 130953Z AUTO 18018G25KT 10SM FEW060 BKN100 OVC120 07/03 A3015 RMK AO2 PK WND 19038/0856 RAE10 SLP212 P0000 T00670033=
201602130922 SPECI KPAE 130922Z AUTO 19016KT 10SM SCT016 BKN065 OVC100 07/04 A3016 RMK AO2 PK WND 19038/0856 RAE10 P0000 T00720039=
201602130853 METAR KPAE 130853Z AUTO 20019G29KT 5SM -RA FEW015 BKN024 OVC075 08/05 A3016 RMK AO2 PK WND 19029/0850 RAB38 SLP215 P0002 60002 T00830050 53004=
201602130753 METAR KPAE 130753Z AUTO 19018G25KT 10SM BKN100 08/06 A3016 RMK AO2 PK WND 18031/0713 SLP216 T00830056 401280083=
201602130653 METAR KPAE 130653Z AUTO 19016G22KT 10SM CLR 09/04 A3014 RMK AO2 PK WND 20030/0602 SLP207 T00890044=
201602130553 METAR KPAE 130553Z AUTO 20018G25KT 10SM CLR 09/04 A3015 RMK AO2 PK WND 20030/0532 SLP209 T00940044 10128 20094 53007=
201602130453 METAR KPAE 130453Z 20019G28KT 10SM CLR 09/05 A3014 RMK AO2 PK WND 21028/0438 SLP207 T00940050=
201602130353 METAR KPAE 130353Z 20015G26KT 10SM CLR 10/05 A3013 RMK AO2 PK WND 20026/0344 SLP203 T01000050=
201602130253 METAR KPAE 130253Z 20017KT 10SM CLR 10/04 A3012 RMK AO2 SLP202 T01000044 53004=
201602130153 METAR KPAE 130153Z 20015KT 10SM FEW030 11/04 A3012 RMK AO2 SLP200 T01110044=
201602130053 METAR KPAE 130053Z 18017G24KT 10SM SCT020 12/06 A3011 RMK AO2 PK WND 19028/0024 SLP196 T01170056=
201602122354 SPECI KPAE 122354Z 18018G26KT 10SM SCT020 13/06 A3011 RMK AO2 PK WND 19026/2354 T01280056=
201602122353 METAR KPAE 122353Z 18019G25KT 10SM CLR 13/06 A3011 RMK AO2 PK WND 20029/2257 SLP197 60011 T01280056 10128 20111 53004=
201602122253 METAR KPAE 122253Z 19018G28KT 10SM SCT020 SCT026 BKN032 13/06 A3010 RMK AO2 PK WND 18028/2253 SLP192 T01280061=
201602122204 SPECI KPAE 122204Z 19018G23KT 10SM SCT020 SCT026 BKN032 12/08 A3009 RMK AO2 T01220078=
201602122153 METAR KPAE 122153Z 18014G21KT 10SM SCT020 BKN028 12/08 A3010 RMK AO2 PK WND 16026/2105 SLP192 T01220078=
201602122055 SPECI KPAE 122055Z 17013G22KT 10SM BKN016 OVC024 12/09 A3010 RMK AO2 T01170089=
201602122053 METAR KPAE 122053Z 17012G22KT 10SM BKN009 BKN022 12/09 A3010 RMK AO2 SLP194 60011 T01170089 53010=
201602122050 SPECI KPAE 122050Z 18015G22KT 10SM BKN009 OVC022 12/08 A3010 RMK AO2=
201602121955 SPECI KPAE 121955Z 18016G22KT 10SM SCT020 BKN090 12/08 A3009 RMK AO2 T01170083=
201602121953 METAR KPAE 121953Z 18016G20KT 10SM OVC090 12/08 A3009 RMK AO2 RAE17 SLP189 P0000 T01170083=
201602121859 SPECI KPAE 121859Z 18010KT 10SM -RA FEW010 SCT019 OVC070 11/09 A3007 RMK AO2 P0000 T01110089=
201602121853 METAR KPAE 121853Z 19015KT 10SM -RA BKN008 BKN014 OVC065 11/09 A3008 RMK AO2 SLP185 P0011 T01110089=
201602121828 SPECI KPAE 121828Z 18016G25KT 3SM -RA BR BKN008 BKN014 OVC065 12/09 A3008 RMK AO2 P0010 T01170094=
201602121816 SPECI KPAE 121816Z 18019G23KT 1 3/4SM R16R/4500VP6000FT +RA BR BKN008 BKN014 OVC065 12/10 A3008 RMK AO2 P0007 T01170100=
201602121801 SPECI KPAE 121801Z 19016KT 4SM -RA BR BKN008 BKN014 OVC060 11/09 A3007 RMK AO2 P0002 T01110094=
201602121753 METAR KPAE 121753Z 19011KT 2SM RA BR BKN008 BKN026 OVC042 11/09 A3007 RMK AO2 RAB1656 SLP183 P0017 60018 T01110094 10117 20100 53003=
201602121711 SPECI KPAE 121711Z 16011KT 1 3/4SM -RA BR BKN008 BKN026 OVC042 11/09 A3006 RMK AO2 VIS 1V5 RAB1656 P0001 T01110094=
201602121653 METAR KPAE 121653Z 16009KT 10SM OVC008 11/09 A3006 RMK AO2 SLP180 T01110094=
201602121605 SPECI KPAE 121605Z 17010G18KT 10SM OVC010 11/09 A3006 RMK AO2 CIG 004V013 T01110094=
201602121553 METAR KPAE 121553Z 16014KT 10SM OVC008 11/09 A3006 RMK AO2 CIG 004V010 SLP179 T01060094=
201602121453 METAR KPAE 121453Z 16014KT 10SM BKN008 BKN022 OVC050 11/09 A3006 RMK AO2 RAE1359 SLP180 P0000 60001 T01060089 58005=
201602121449 SPECI KPAE 121449Z 16013KT 10SM BKN008 BKN022 OVC050 11/09 A3006 RMK AO2 RAE1359 P0000=
201602121446 SPECI KPAE 121446Z AUTO 16015KT 10SM SCT010 BKN022 OVC055 11/09 A3006 RMK AO2 RAE1359 P0000 T01060089=
201602121433 SPECI KPAE 121433Z AUTO 15012G18KT 10SM FEW012 BKN031 OVC050 11/09 A3006 RMK AO2 RAE1359 P0000 T01060089=
201602121421 SPECI KPAE 121421Z AUTO 15011G17KT 10SM FEW014 BKN029 OVC055 11/09 A3007 RMK AO2 RAE1359 P0000 T01060089=
201602121414 SPECI KPAE 121414Z AUTO 15011G17KT 10SM BKN014 BKN021 OVC030 11/09 A3007 RMK AO2 RAE1359 P0000 T01060089=
201602121353 METAR KPAE 121353Z AUTO 15011KT 8SM -RA BKN015 OVC022 11/09 A3007 RMK AO2 RAE07B49 SLP184 P0000 T01060089=
201602121300 SPECI KPAE 121300Z AUTO 16014KT 3SM -RA BR SCT005 BKN024 OVC031 11/09 A3008 RMK AO2 P0000 T01060094=
201602121253 METAR KPAE 121253Z AUTO 15013KT 3SM -RA BR SCT005 BKN012 OVC028 11/09 A3008 RMK AO2 RAE00B36 SLP185 P0001 T01060094=
201602121153 METAR KPAE 121153Z AUTO 16015KT 10SM -RA BKN006 BKN023 OVC090 11/09 A3007 RMK AO2 RAB10 CIG 003V009 SLP185 P0001 60027 70033 T01060094 10106 20100 58002=
201602121127 SPECI KPAE 121127Z AUTO 16016KT 6SM -RA BR SCT005 BKN075 OVC085 11/09 A3008 RMK AO2 RAB10 P0001 T01060089=
201602121117 SPECI KPAE 121117Z AUTO 15014KT 9SM -RA SCT002 BKN007 OVC070 11/09 A3008 RMK AO2 RAB10 P0000 T01060089=
201602121053 METAR KPAE 121053Z AUTO 15012KT 8SM OVC002 10/09 A3008 RMK AO2 RAE08 SLP188 P0000 T01000089=
201602121020 SPECI KPAE 121020Z AUTO 15010G18KT 10SM BKN002 OVC080 10/09 A3008 RMK AO2 RAE08 CIG 002V017 P0000 T01000089=
201602121005 SPECI KPAE 121005Z AUTO 15013G20KT 10SM -RA FEW004 BKN080 OVC090 10/09 A3008 RMK AO2 P0000 T01000089=
201602120953 METAR KPAE 120953Z AUTO 15013KT 10SM -RA BKN080 BKN090 OVC120 11/09 A3008 RMK AO2 SLP186 P0010 T01060089=
201602120917 SPECI KPAE 120917Z AUTO 15013KT 3SM RA BR FEW005 BKN035 OVC050 10/09 A3008 RMK AO2 P0008 T01000089 TSNO=
201602120853 METAR KPAE 120853Z AUTO 19008KT 2 1/2SM RA BR FEW005 BKN018 OVC025 10/09 A3008 RMK AO2 SLP187 P0011 60016 T01000089 53003 TSNO=
201602120753 METAR KPAE 120753Z AUTO 14008KT 120V180 10SM -RA BKN016 BKN028 OVC090 11/09 A3007 RMK AO2 SLP184 P0002 T01060089 401390072=
201602120751 SPECI KPAE 120751Z AUTO 15010KT 10SM -RA BKN016 BKN028 OVC090 11/09 A3007 RMK AO2 P0002=
201602120739 SPECI KPAE 120739Z AUTO 15010G15KT 10SM -RA FEW016 BKN060 OVC085 11/08 A3007 RMK AO2 P0002 T01060083=
201602120653 METAR KPAE 120653Z AUTO 15009KT 10SM -RA BKN022 OVC090 11/08 A3007 RMK AO2 SLP184 P0003 T01060083=
201602120640 SPECI KPAE 120640Z AUTO 14008KT 10SM -RA SCT024 BKN050 OVC090 11/08 A3007 RMK AO2 P0003 T01060083=
201602120614 SPECI KPAE 120614Z AUTO 14006KT 5SM RA BR SCT021 BKN029 OVC080 11/08 A3007 RMK AO2 P0002 T01060083=
201602120553 METAR KPAE 120553Z AUTO 15007KT 10SM -RA SCT030 BKN075 OVC110 11/08 A3008 RMK AO2 RAB02 SLP187 P0001 60005 T01060083 10128 20100 56010=
201602120508 SPECI KPAE 120508Z AUTO 14005KT 10SM -RA SCT023 OVC110 11/08 A3008 RMK AO2 RAB02 P0000 T01060083=
201602120453 METAR KPAE 120453Z AUTO 15010G14KT 10SM BKN024 OVC100 11/08 A3009 RMK AO2 RAE14 SLP189 P0000 T01060083=
201602120353 METAR KPAE 120353Z 15009G16KT 8SM -RA OVC026 11/09 A3010 RMK AO2 SLP194 P0001 T01060089=
201602120328 SPECI KPAE 120328Z 16008KT 7SM -RA SCT024 OVC029 11/09 A3011 RMK AO2 P0000 T01060089=
201602120253 METAR KPAE 120253Z 14004KT 9SM -RA OVC035 11/09 A3011 RMK AO2 SLP198 P0001 60003 T01110089 50003=
201602120153 METAR KPAE 120153Z 16007KT 10SM -RA BKN043 OVC050 12/09 A3011 RMK AO2 SLP199 P0002 T01170089=
201602120053 METAR KPAE 120053Z 17004KT 10SM -RA OVC039 12/08 A3010 RMK AO2 RAE2356B32 SLP195 P0000 T01220078=
201602112353 METAR KPAE 112353Z 15006KT 10SM -RA OVC047 13/07 A3010 RMK AO2 RAB12 SLP194 P0001 60001 T01280072 10139 20100 56010=
201602112253 METAR KPAE 112253Z 16007KT 10SM OVC048 13/05 A3010 RMK AO2 SLP195 T01330050=
201602112153 METAR KPAE 112153Z 00000KT 10SM OVC055 13/06 A3010 RMK AO2 SLP195 T01280061=
201602112053 METAR KPAE 112053Z VRB03KT 10SM OVC055 13/06 A3013 RMK AO2 SLP204 T01280056 56016=
201602111953 METAR KPAE 111953Z 10003KT 10SM OVC065 13/05 A3014 RMK AO2 SLP208 T01330050=
201602111853 METAR KPAE 111853Z 10004KT 10SM OVC070 11/04 A3016 RMK AO2 SLP215 T01110044=
201602111753 METAR KPAE 111753Z 19005KT 10SM OVC075 10/04 A3018 RMK AO2 SLP220 T01000044 10100 20078 53004=
201602111653 METAR KPAE 111653Z 15003KT 10SM FEW075 OVC095 10/04 A3017 RMK AO2 SLP218 T01000039=
201602111553 METAR KPAE 111553Z 00000KT 10SM OVC100 08/04 A3017 RMK AO2 SLP219 T00830044=
201602111453 METAR KPAE 111453Z 05006KT 10SM BKN090 OVC110 09/04 A3017 RMK AO2 SLP217 T00890039 58019=
201602111353 METAR KPAE 111353Z 07004KT 10SM SCT120 08/04 A3020 RMK AO2 SLP230 T00830044=
201602111253 METAR KPAE 111253Z 05004KT 10SM FEW120 08/05 A3021 RMK AO2 SLP233 T00830050=
201602111153 METAR KPAE 111153Z 10006KT 10SM CLR 08/05 A3022 RMK AO2 SLP235 70004 T00830050 10111 20072 58020=
201602111053 METAR KPAE 111053Z 10005KT 10SM CLR 08/06 A3024 RMK AO2 SLP242 T00830056=
201602110953 METAR KPAE 110953Z 11005KT 9SM CLR 08/07 A3027 RMK AO2 SLP251 T00830067=
201602110853 METAR KPAE 110853Z 18003KT 8SM CLR 08/07 A3028 RMK AO2 SLP257 T00830067 58008=
201602110811 SPECI KPAE 110811Z 17004KT 10SM SCT016 09/07 A3030 RMK AO2 T00940072=
201602110753 METAR KPAE 110753Z 17004KT 10SM BKN016 10/07 A3031 RMK AO2 SLP265 T01000072 401330089=
201602110653 METAR KPAE 110653Z 15007KT 10SM OVC020 11/08 A3030 RMK AO2 SLP262 T01060078=
201602110553 METAR KPAE 110553Z 13005KT 10SM OVC016 11/08 A3031 RMK AO2 SLP264 60000 T01110078 10122 20100 51010=
201602110500 SPECI KPAE 110500Z 15006KT 10SM OVC016 11/08 A3030 RMK AO2 T01060078=
201602110453 METAR KPAE 110453Z 16005KT 10SM BKN014 11/08 A3030 RMK AO2 SLP263 T01060078=
201602110403 SPECI KPAE 110403Z 19008KT 10SM BKN014 11/08 A3029 RMK AO2 T01060078=
201602110402 SPECI KPAE 110402Z 19007KT 10SM OVC015 11/08 A3029 RMK AO2 T01060078=
201602110353 METAR KPAE 110353Z 20009KT 10SM BKN014 11/08 A3029 RMK AO2 SLP257 T01060078=
201602110311 SPECI KPAE 110311Z 21008KT 10SM FEW008 BKN011 11/08 A3028 RMK AO2 T01110078=
201602110253 METAR KPAE 110253Z 23010G18KT 10SM CLR 11/07 A3028 RMK AO2 SLP253 60000 T01110072 53017=
201602110153 METAR KPAE 110153Z 20013KT 10SM CLR 11/08 A3025 RMK AO2 SLP245 T01110083=
201602110053 METAR KPAE 110053Z 18019G25KT 10SM CLR 12/08 A3023 RMK AO2 PK WND 19026/0029 RAE15 SLP236 P0000 T01170083=
201602102353 METAR KPAE 102353Z 18011KT 10SM -RA BKN031 BKN038 OVC070 12/08 A3023 RMK AO2 RAB38 SLP236 P0000 60004 T01220078 10133 20094 53001=
201602102253 METAR KPAE 102253Z 16017G22KT 10SM FEW033 SCT060 13/07 A3021 RMK AO2 SLP231 T01280072=
201602102153 METAR KPAE 102153Z 16015G21KT 10SM SCT025 BKN090 11/08 A3022 RMK AO2 SLP233 T01110078=
201602102116 SPECI KPAE 102116Z 13006G18KT 10SM FEW008 OVC023 10/08 A3022 RMK AO2 T01000078=
201602102053 METAR KPAE 102053Z 14009G18KT 10SM BKN005 OVC021 10/08 A3022 RMK AO2 RAB1958E11 SLP236 P0000 60004 T01000078 51023=
201602101953 METAR KPAE 101953Z 16015G19KT 10SM BKN005 OVC028 09/07 A3022 RMK AO2 RAE38 SLP233 P0000 T00940072=
201602101943 SPECI KPAE 101943Z 15011G18KT 10SM OVC028 10/07 A3021 RMK AO2 RAE38 P0000 T01000072=
201602101853 METAR KPAE 101853Z 19015KT 5SM -RA SCT045 BKN050 OVC070 10/07 A3020 RMK AO2 SLP226 P0004 T01000072=
201602101753 METAR KPAE 101753Z 18013KT 10SM -RA BKN060 OVC080 11/04 A3015 RMK AO2 RAB27 SLP211 P0000 60000 T01060044 10117 20094 53021=
201602101653 METAR KPAE 101653Z 16009KT 10SM BKN100 BKN120 12/02 A3012 RMK AO2 SLP198 T01170022=
201602101553 METAR KPAE 101553Z 15013KT 10SM BKN110 12/03 A3010 RMK AO2 SLP192 T01170028=
201602101453 METAR KPAE 101453Z 16008KT 10SM BKN110 11/03 A3009 RMK AO2 SLP188 T01060028 55000=
201602101353 METAR KPAE 101353Z 17006KT 10SM SCT100 11/02 A3009 RMK AO2 SLP188 T01060022=
201602101253 METAR KPAE 101253Z 21005KT 10SM CLR 11/02 A3008 RMK AO2 SLP187 T01060022=
201602101153 METAR KPAE 101153Z VRB04KT 10SM CLR 11/03 A3009 RMK AO2 SLP188 T01110028 10139 20089 58008=
201602101053 METAR KPAE 101053Z VRB04KT 10SM CLR 12/03 A3010 RMK AO2 SLP193 T01170028=
201602100953 METAR KPAE 100953Z VRB04KT 10SM CLR 12/03 A3011 RMK AO2 SLP196 T01170028=
201602100853 METAR KPAE 100853Z 17005KT 10SM CLR 10/03 A3011 RMK AO2 SLP197 T01000028 55000=
201602100753 METAR KPAE 100753Z VRB03KT 10SM CLR 11/03 A3010 RMK AO2 SLP194 T01110033 401780044=
201602100653 METAR KPAE 100653Z 15006KT 10SM CLR 13/02 A3010 RMK AO2 SLP193 T01330022=
201602100553 METAR KPAE 100553Z 16006KT 10SM CLR 13/03 A3011 RMK AO2 SLP198 T01280033 10172 20122 56005=
201602100453 METAR KPAE 100453Z AUTO VRB05KT 10SM CLR 14/03 A3011 RMK AO2 SLP198 T01390033=
201602100353 METAR KPAE 100353Z VRB04KT 10SM CLR 14/04 A3012 RMK AO2 SLP202 T01390044=
201602100253 METAR KPAE 100253Z 15009KT 10SM CLR 14/04 A3013 RMK AO2 SLP203 T01440044 50002=
201602100153 METAR KPAE 100153Z 15006KT 10SM CLR 15/04 A3013 RMK AO2 SLP203 T01500039=
201602100053 METAR KPAE 100053Z AUTO VRB05KT 10SM CLR 16/04 A3013 RMK AO2 SLP203 T01610039=
201602092353 METAR KPAE 092353Z AUTO 16007KT 10SM CLR 17/03 A3012 RMK AO2 SLP201 T01720033 10178 20111 55008=
201602092253 METAR KPAE 092253Z 17008KT 10SM CLR 17/04 A3011 RMK AO2 SLP198 T01720039=
201602092153 METAR KPAE 092153Z 16008KT 10SM CLR 17/04 A3012 RMK AO2 SLP200 T01670039=
201602092053 METAR KPAE 092053Z 17006KT 10SM CLR 16/04 A3015 RMK AO2 SLP209 T01610044 58019=
201602091953 METAR KPAE 091953Z 18008KT 10SM CLR 15/04 A3017 RMK AO2 SLP218 T01500039=
201602091853 METAR KPAE 091853Z 16007KT 10SM CLR 13/04 A3018 RMK AO2 SLP223 T01280044=
201602091753 METAR KPAE 091753Z 19006KT 10SM CLR 11/05 A3020 RMK AO2 SLP229 T01110050 10111 20044 53007=
201602091653 METAR KPAE 091653Z 18003KT 10SM CLR 08/04 A3019 RMK AO2 SLP227 T00780044=
201602091553 METAR KPAE 091553Z 21004KT 10SM CLR 04/02 A3018 RMK AO2 SLP224 T00440022=
201602091453 METAR KPAE 091453Z 13003KT 10SM CLR 06/03 A3018 RMK AO2 SLP223 T00610028 58008=
201602091353 METAR KPAE 091353Z AUTO 00000KT 10SM CLR 06/03 A3019 RMK AO2 SLP227 T00560028=
201602091253 METAR KPAE 091253Z AUTO 00000KT 3SM R16R/2800VP6000FT BR SCT001 06/04 A3020 RMK AO2 SLP230 T00560044=
201602091249 SPECI KPAE 091249Z AUTO 02004KT 2SM R16R/2800VP6000FT BR BKN001 06/04 A3020 RMK AO2=
201602091237 SPECI KPAE 091237Z AUTO 02003KT 1/2SM R16R/4500VP6000FT FG VV001 06/04 A3021 RMK AO2 T00560044=
201602091230 SPECI KPAE 091230Z AUTO 02004KT 1SM R16R/4500VP6000FT BR VV001 06/04 A3021 RMK AO2 T00560044=
201602091225 SPECI KPAE 091225Z AUTO 03005KT 2SM BR FEW001 06/04 A3021 RMK AO2 T00560044=
201602091153 METAR KPAE 091153Z AUTO 02004KT 3SM R16R/2000VP6000FT BR FEW001 06/04 A3021 RMK AO2 SLP231 T00560044 10067 20056 56021=
201602091150 SPECI KPAE 091150Z AUTO 02004KT 3SM R16R/1400V5000FT BR FEW001 06/04 A3021 RMK AO2=
201602091134 SPECI KPAE 091134Z AUTO 02005KT 1 3/4SM R16R/2200VP6000FT BR FEW001 06/04 A3021 RMK AO2 T00610044=
201602091053 METAR KPAE 091053Z AUTO 02005KT 3SM R16R/5000VP6000FT BR CLR 06/05 A3023 RMK AO2 SLP238 T00610050=
201602091033 SPECI KPAE 091033Z AUTO 02005KT 2SM BR CLR 06/05 A3024 RMK AO2 T00610050=
201602090953 METAR KPAE 090953Z AUTO 01005KT 4SM BR FEW001 06/05 A3025 RMK AO2 SLP244 T00610050=
201602090936 SPECI KPAE 090936Z AUTO 36005KT 4SM R16R/2200VP6000FT BR SCT002 06/05 A3025 RMK AO2 T00610050=
201602090931 SPECI KPAE 090931Z AUTO 36005KT 2SM R16R/1400VP6000FT BR BKN002 06/04 A3025 RMK AO2 T00610044=
201602090927 SPECI KPAE 090927Z AUTO 36005KT 1 1/4SM R16R/1200V2200FT BR BKN002 06/04 A3026 RMK AO2 T00560044=
201602090920 SPECI KPAE 090920Z AUTO 36004KT 3/4SM R16R/1200V2000FT BR VV001 06/05 A3026 RMK AO2 T00610050=
201602090917 SPECI KPAE 090917Z AUTO 01005KT 1SM R16R/1200V3000FT BR VV001 06/05 A3026 RMK AO2 T00610050=
201602090912 SPECI KPAE 090912Z AUTO 36006KT 2 1/2SM R16R/1600VP6000FT BR FEW001 06/04 A3026 RMK AO2 T00610044=
201602090853 METAR KPAE 090853Z AUTO 36004KT 8SM CLR 06/05 A3027 RMK AO2 SLP253 T00610050 58013=
201602090753 METAR KPAE 090753Z AUTO 35005KT 7SM CLR 06/05 A3029 RMK AO2 SLP260 T00610050 401220044=
201602090653 METAR KPAE 090653Z AUTO 36005KT 8SM CLR 07/05 A3030 RMK AO2 SLP262 T00670050=
201602090553 METAR KPAE 090553Z AUTO 36005KT 7SM CLR 07/05 A3031 RMK AO2 SLP267 T00670050 10111 20067 56013=
201602090453 METAR KPAE 090453Z 36005KT 10SM CLR 07/05 A3032 RMK AO2 SLP271 T00670050=
201602090353 METAR KPAE 090353Z 01006KT 10SM CLR 07/05 A3033 RMK AO2 SLP275 T00720050=
201602090253 METAR KPAE 090253Z AUTO 01004KT 10SM CLR 08/05 A3035 RMK AO2 SLP281 T00830050 56007=
201602090153 METAR KPAE 090153Z AUTO 36006KT 10SM CLR 09/05 A3036 RMK AO2 SLP283 T00890050=
201602090053 METAR KPAE 090053Z AUTO 36007KT 10SM CLR 10/06 A3037 RMK AO2 SLP286 T01000056=
201602082353 METAR KPAE 082353Z 36007KT 10SM CLR 11/06 A3037 RMK AO2 SLP288 T01110056 10122 20067 56018=
201602082253 METAR KPAE 082253Z 01005KT 10SM CLR 12/06 A3039 RMK AO2 SLP293 T01170056=
201602082153 METAR KPAE 082153Z 01004KT 10SM CLR 12/06 A3040 RMK AO2 SLP296 T01170056=
201602082053 METAR KPAE 082053Z 01005KT 10SM CLR 11/05 A3043 RMK AO2 SLP306 T01060050 58016=
201602081953 METAR KPAE 081953Z 36005KT 10SM CLR 09/04 A3046 RMK AO2 SLP317 T00890044=
201602081853 METAR KPAE 081853Z 01006KT 10SM CLR 08/04 A3048 RMK AO2 SLP324 T00780039=
201602081753 METAR KPAE 081753Z 36006KT 10SM CLR 07/04 A3047 RMK AO2 SLP323 T00720039 10072 20044=
201602081653 METAR KPAE 081653Z 36004KT 10SM CLR 06/03 A3046 RMK AO2 SLP319 T00610033 $=
201602081600 METAR KPAE NIL=
201602081453 METAR KPAE 081453Z 01004KT 10SM CLR 05/03 A3046 RMK AO2 SLP320 T00500028 58003=
201602081353 METAR KPAE 081353Z AUTO 01004KT 10SM CLR 05/03 A3047 RMK AO2 SLP321 T00500028=
201602081253 METAR KPAE 081253Z AUTO 36004KT 10SM CLR 05/03 A3047 RMK AO2 SLP322 T00500033=
201602081153 METAR KPAE 081153Z AUTO 36003KT 10SM CLR 04/03 A3047 RMK AO2 SLP322 T00440028 10056 20044 58010=
201602081053 METAR KPAE 081053Z AUTO 36003KT 10SM CLR 05/03 A3049 RMK AO2 SLP327 T00500028=
201602080953 METAR KPAE 080953Z AUTO 01003KT 10SM CLR 05/03 A3049 RMK AO2 SLP329 T00500033=
201602080853 METAR KPAE 080853Z AUTO 36005KT 10SM CLR 05/03 A3050 RMK AO2 SLP333 T00500033 57003=
201602080753 METAR KPAE 080753Z AUTO 01004KT 10SM CLR 06/03 A3051 RMK AO2 SLP334 T00560028 400890028=
201602080653 METAR KPAE 080653Z AUTO 35003KT 10SM CLR 06/03 A3051 RMK AO2 SLP334 T00560028=
201602080553 METAR KPAE 080553Z AUTO 35003KT 10SM FEW065 06/03 A3051 RMK AO2 SLP336 T00560028 10089 20056 56007=
201602080453 METAR KPAE 080453Z 01005KT 10SM BKN070 06/03 A3052 RMK AO2 SLP338 T00610028=
201602080353 METAR KPAE 080353Z 36004KT 10SM CLR 06/02 A3052 RMK AO2 SLP341 T00560022=
201602080253 METAR KPAE 080253Z 36003KT 10SM CLR 06/02 A3053 RMK AO2 SLP344 T00560022 56005=
201602080153 METAR KPAE 080153Z 02004KT 10SM CLR 07/02 A3053 RMK AO2 SLP344 T00670017=
201602080053 METAR KPAE 080053Z 36004KT 10SM OVC085 07/02 A3054 RMK AO2 SLP347 T00720017=
201602072353 METAR KPAE 072353Z 00000KT 10SM BKN060 OVC075 09/02 A3055 RMK AO2 SLP347 T00890022 10089 20056 55006=
201602072253 METAR KPAE 072253Z 01003KT 10SM FEW033 BKN070 OVC080 08/02 A3055 RMK AO2 SLP347 T00780017=
201602072153 METAR KPAE 072153Z COR 04004KT 10SM BKN055 07/02 A3056 RMK AO2 SLP351 T00720022=
201602072053 METAR KPAE 072053Z 03004KT 10SM BKN034 OVC060 08/01 A3057 RMK AO2 SLP354 T00780011 51006=
201602071953 METAR KPAE 071953Z 03004KT 10SM OVC031 07/01 A3056 RMK AO2 SLP353 T00720011=
201602071853 METAR KPAE 071853Z 11004KT 10SM SCT032 OVC075 07/M01 A3056 RMK AO2 SLP352 T00671006=
201602071753 METAR KPAE 071753Z 11003KT 10SM OVC070 06/00 A3055 RMK AO2 SLP348 T00560000 10056 20028 51012=
201602071653 METAR KPAE 071653Z 11007KT 10SM OVC080 04/M01 A3053 RMK AO2 SLP342 T00441006=
201602071553 METAR KPAE 071553Z COR 11006KT 10SM BKN085 04/M01 A3053 RMK AO2 SLP344 T00391011=
201602071453 METAR KPAE 071453Z AUTO 11007KT 10SM OVC100 04/M01 A3051 RMK AO2 SLP336 T00391011 55003=
201602071353 METAR KPAE 071353Z AUTO 11006KT 10SM CLR 03/M01 A3050 RMK AO2 SLP333 T00281006=
201602071253 METAR KPAE 071253Z AUTO 11007KT 10SM FEW120 03/00 A3051 RMK AO2 SLP336 T00330000=
201602071153 METAR KPAE 071153Z AUTO 11007KT 10SM OVC110 03/01 A3052 RMK AO2 SLP338 T00330006 10050 20033 50010=
201602071053 METAR KPAE 071053Z AUTO 11007KT 10SM OVC110 04/01 A3052 RMK AO2 SLP340 T00390011=
201602070953 METAR KPAE 070953Z AUTO 10005KT 10SM FEW120 03/01 A3051 RMK AO2 SLP335 T00330011=
201602070853 METAR KPAE 070853Z AUTO 11006KT 10SM CLR 04/01 A3049 RMK AO2 SLP329 T00390011 56002=
201602070753 METAR KPAE 070753Z AUTO 11007KT 10SM CLR 04/01 A3049 RMK AO2 SLP330 T00440011 400830039=
201602070653 METAR KPAE 070653Z AUTO 11006KT 10SM CLR 04/02 A3049 RMK AO2 SLP328 T00440017=
201602070553 METAR KPAE 070553Z AUTO 12005KT 10SM CLR 05/02 A3049 RMK AO2 SLP331 T00500022 10083 20039 53010=
201602070453 METAR KPAE 070453Z 11005KT 10SM CLR 05/02 A3048 RMK AO2 SLP325 T00500022=
201602070353 METAR KPAE 070353Z 00000KT 10SM CLR 06/02 A3045 RMK AO2 SLP317 T00560022=
201602070253 METAR KPAE 070253Z 00000KT 10SM CLR 06/02 A3046 RMK AO2 SLP319 T00610022 53004=
201602070153 METAR KPAE 070153Z 16003KT 10SM CLR 05/02 A3046 RMK AO2 SLP319 T00500022=
201602070053 METAR KPAE 070053Z 17005KT 10SM SCT037 08/03 A3045 RMK AO2 SLP313 T00780028=
201602070029 SPECI KPAE 070029Z 16006KT 10SM SCT021 BKN037 08/03 A3044 RMK AO2 T00780028=
201602062353 METAR KPAE 062353Z 00000KT 10SM BKN021 OVC025 08/04 A3045 RMK AO2 SLP315 T00830039 10083 20061 56001=
201602062327 SPECI KPAE 062327Z 00000KT 10SM BKN020 OVC034 08/04 A3046 RMK AO2 T00780039=
201602062253 METAR KPAE 062253Z 00000KT 10SM SCT022 SCT027 OVC032 08/04 A3046 RMK AO2 SLP316 T00780039=
201602062153 METAR KPAE 062153Z 00000KT 10SM FEW016 OVC034 07/04 A3045 RMK AO2 SLP313 T00720039=
201602062146 SPECI KPAE 062146Z 00000KT 10SM SCT016 OVC033 08/04 A3045 RMK AO2 T00780039=
201602062053 METAR KPAE 062053Z 00000KT 10SM SCT015 BKN022 OVC031 07/04 A3045 RMK AO2 SLP316 T00720039 50001=
201602061953 METAR KPAE 061953Z 00000KT 10SM SCT017 OVC024 07/03 A3047 RMK AO2 SLP321 T00670033=
201602061853 METAR KPAE 061853Z 25003KT 10SM OVC019 07/03 A3047 RMK AO2 SLP321 T00670033=
201602061753 METAR KPAE 061753Z 19005KT 10SM OVC015 06/03 A3045 RMK AO2 SLP315 T00610028 10061 20039 51018=
201602061653 METAR KPAE 061653Z 21006KT 10SM SCT010 OVC015 06/03 A3044 RMK AO2 SLP312 T00610033=
201602061553 METAR KPAE 061553Z 19007KT 10SM OVC015 06/03 A3041 RMK AO2 SLP301 T00560033=
201602061453 METAR KPAE 061453Z 20008KT 10SM OVC015 06/03 A3040 RMK AO2 SLP296 T00560033 51030=
201602061417 SPECI KPAE 061417Z AUTO 21008KT 10SM BKN015 OVC021 06/03 A3038 RMK AO2 T00560028=
201602061353 METAR KPAE 061353Z AUTO 20009KT 10SM BKN014 BKN019 05/02 A3037 RMK AO2 SLP286 T00500022=
201602061253 METAR KPAE 061253Z AUTO 18009KT 10SM FEW050 BKN110 05/02 A3034 RMK AO2 SLP277 T00500022=
201602061153 METAR KPAE 061153Z AUTO 19009KT 10SM SCT047 BKN100 05/02 A3031 RMK AO2 SLP266 60012 70017 T00500022 10078 20044 51026=
201602061053 METAR KPAE 061053Z AUTO 20010KT 10SM FEW110 05/03 A3028 RMK AO2 SLP257 T00500028=
201602060953 METAR KPAE 060953Z AUTO 20010KT 10SM CLR 06/02 A3026 RMK AO2 SLP248 T00560022=
201602060853 METAR KPAE 060853Z AUTO 20013KT 10SM CLR 06/03 A3023 RMK AO2 SLP238 60012 T00610028 53015=
201602060810 SPECI KPAE 060810Z AUTO 19008KT 10SM SCT017 06/04 A3021 RMK AO2 T00610039=
201602060753 METAR KPAE 060753Z AUTO 18011KT 10SM OVC015 07/04 A3021 RMK AO2 RAE29 SLP232 P0000 T00670039 401220061=
201602060716 SPECI KPAE 060716Z AUTO 19011KT 5SM -RA BR BKN028 OVC037 06/04 A3020 RMK AO2 P0000 T00610044=
201602060653 METAR KPAE 060653Z AUTO 20007KT 9SM -RA FEW029 OVC036 06/04 A3019 RMK AO2 WSHFT 0553 SLP224 P0012 T00610039=
201602060649 SPECI KPAE 060649Z AUTO 21007KT 7SM -RA SCT029 OVC036 06/04 A3018 RMK AO2 WSHFT 0553 P0012=
201602060623 SPECI KPAE 060623Z AUTO 27005KT 5SM -RA SCT019 OVC027 07/04 A3018 RMK AO2 WSHFT 0553 P0010 T00670039=
201602060611 SPECI KPAE 060611Z AUTO 31008G24KT 2 1/2SM +RA BKN017 OVC024 07/03 A3016 RMK AO2 WSHFT 0553 PRESRR P0008 T00670033=
201602060553 METAR KPAE 060553Z AUTO 20020G27KT 10SM -RA BKN018 OVC023 08/04 A3012 RMK AO2 PK WND 20034/0507 RAB41 SLP204 P0000 60005 T00780044 10106 20078 53036=
201602060453 METAR KPAE 060453Z AUTO 19022G35KT 10SM BKN027 09/05 A3008 RMK AO2 PK WND 19036/0425 SLP189 T00890050=
201602060402 SPECI KPAE 060402Z 18022G31KT 10SM BKN027 09/06 A3006 RMK AO2 PK WND 19031/0401 T00890056=
201602060400 SPECI KPAE 060400Z 18024G29KT 10SM BKN020 BKN027 09/06 A3006 RMK AO2 PK WND 19029/0400 T00890056=
201602060353 METAR KPAE 060353Z 19021G30KT 10SM BKN030 BKN055 OVC120 09/06 A3006 RMK AO2 PK WND 19034/0319 RAE12 SLP180 P0001 T00890056=
201602060253 METAR KPAE 060253Z 18023G32KT 10SM -RA FEW080 OVC100 09/05 A3002 RMK AO2 PK WND 20032/0157 SLP166 P0000 60004 T00890050 50014=
201602060153 METAR KPAE 060153Z 19025G35KT 10SM -RA FEW042 BKN060 OVC080 08/05 A3004 RMK AO2 PK WND 21035/0146 SLP174 P0003 T00830050=
201602060053 METAR KPAE 060053Z 21017G23KT 9SM -RA FEW048 BKN055 OVC085 09/04 A3001 RMK AO2 RAB2355 SLP163 P0001 T00940044=
201602052353 METAR KPAE 052353Z 18017G20KT 10SM OVC055 11/03 A2998 RMK AO2 SLP152 T01060028 10122 20078 56034=
201602052253 METAR KPAE 052253Z 18013KT 10SM BKN070 BKN085 OVC100 11/03 A3001 RMK AO2 SLP165 T01110028=
201602052153 METAR KPAE 052153Z 16012G19KT 10SM CLR 12/03 A3004 RMK AO2 SLP173 T01170028=
201602052053 METAR KPAE 052053Z 15011KT 10SM CLR 11/03 A3008 RMK AO2 SLP187 T01110028 58026=
201602051953 METAR KPAE 051953Z 16013KT 10SM CLR 11/03 A3013 RMK AO2 SLP204 T01110028=
201602051853 METAR KPAE 051853Z 17011KT 10SM CLR 12/03 A3015 RMK AO2 SLP211 T01170033=
201602051753 METAR KPAE 051753Z 17010KT 10SM CLR 08/03 A3016 RMK AO2 SLP214 T00780028 10078 20072 56015=
201602051653 METAR KPAE 051653Z 16006KT 10SM CLR 07/03 A3017 RMK AO2 SLP220 T00720028=
201602051553 METAR KPAE 051553Z VRB04KT 10SM CLR 08/02 A3019 RMK AO2 SLP225 T00780022=
201602051453 METAR KPAE 051453Z VRB04KT 10SM CLR 08/02 A3020 RMK AO2 SLP231 T00780022 56024=
201602051353 METAR KPAE 051353Z AUTO 13004KT 10SM CLR 08/03 A3022 RMK AO2 SLP237 T00780028=
201602051253 METAR KPAE 051253Z AUTO 12005KT 10SM FEW120 07/03 A3025 RMK AO2 SLP248 T00720028=
201602051153 METAR KPAE 051153Z AUTO 12006KT 10SM SCT110 08/03 A3028 RMK AO2 SLP255 70002 T00780028 10083 20067 58021=
201602051053 METAR KPAE 051053Z AUTO 12006KT 10SM SCT120 07/04 A3030 RMK AO2 SLP265 T00720039=
201602050953 METAR KPAE 050953Z AUTO 00000KT 10SM FEW120 07/04 A3031 RMK AO2 SLP268 T00670044=
201602050853 METAR KPAE 050853Z AUTO 12007KT 10SM OVC110 07/04 A3034 RMK AO2 SLP277 T00670044 58003=
201602050753 METAR KPAE 050753Z AUTO 12005KT 10SM FEW031 07/04 A3035 RMK AO2 SLP279 T00720044 400830056=
201602050653 METAR KPAE 050653Z AUTO 13006KT 10SM CLR 07/05 A3034 RMK AO2 SLP279 T00720050=
201602050553 METAR KPAE 050553Z AUTO 15013KT 10SM SCT024 SCT110 08/06 A3035 RMK AO2 SLP280 T00830056 10083 20067 57005=
201602050508 SPECI KPAE 050508Z AUTO 13005KT 10SM FEW008 SCT120 08/06 A3035 RMK AO2 T00830056=
201602050453 METAR KPAE 050453Z AUTO VRB05KT 10SM BKN008 BKN120 08/06 A3035 RMK AO2 SLP281 T00780056=
201602050353 METAR KPAE 050353Z 15010KT 10SM OVC009 08/06 A3036 RMK AO2 CIG 007V013 SLP285 T00780056=
201602050351 SPECI KPAE 050351Z 15011KT 10SM OVC009 08/06 A3036 RMK AO2 CIG 007V013=
201602050330 SPECI KPAE 050330Z VRB04KT 10SM OVC011 08/06 A3036 RMK AO2 T00780056=
201602050307 SPECI KPAE 050307Z 14005KT 10SM OVC009 07/05 A3035 RMK AO2 T00720050=
201602050253 METAR KPAE 050253Z VRB05KT 10SM OVC010 07/05 A3035 RMK AO2 SLP282 T00720050 58009=
201602050153 METAR KPAE 050153Z VRB04KT 10SM OVC014 07/04 A3038 RMK AO2 SLP291 T00720044=
201602050053 METAR KPAE 050053Z 15006KT 10SM OVC024 07/04 A3038 RMK AO2 SLP291 T00720039=
201602050025 SPECI KPAE 050025Z VRB04KT 10SM BKN024 OVC090 07/04 A3038 RMK AO2 T00720044=
201602042353 METAR KPAE 042353Z VRB05KT 10SM FEW050 BKN070 OVC090 07/04 A3038 RMK AO2 RAE43 SLP291 P0000 60002 T00720044 10078 20067 51007=
201602042253 METAR KPAE 042253Z 15008KT 10SM -RA OVC049 07/04 A3038 RMK AO2 RAB07 SLP289 P0002 T00670039=
201602042205 SPECI KPAE 042205Z 18009KT 10SM SCT015 OVC060 07/04 A3037 RMK AO2 T00720039=
201602042153 METAR KPAE 042153Z 19012KT 10SM BKN015 OVC060 07/04 A3037 RMK AO2 SLP288 T00720039=
201602042143 SPECI KPAE 042143Z 19010KT 10SM OVC015 07/04 A3037 RMK AO2 T00720039=
201602042053 METAR KPAE 042053Z 18008KT 10SM OVC013 07/04 A3036 RMK AO2 SLP284 T00720039 51012=
201602041953 METAR KPAE 041953Z 20012KT 10SM BKN010 BKN017 OVC070 08/04 A3035 RMK AO2 SLP279 T00780044=
201602041853 METAR KPAE 041853Z 20006KT 10SM OVC013 08/05 A3034 RMK AO2 SLP278 T00780050=
201602041753 METAR KPAE 041753Z 18006KT 10SM OVC012 07/04 A3033 RMK AO2 SLP272 T00720044 10072 20056 52016=
201602041653 METAR KPAE 041653Z 18005KT 10SM SCT009 OVC015 07/04 A3030 RMK AO2 SLP264 T00670039=
201602041651 SPECI KPAE 041651Z 18006KT 10SM SCT009 OVC015 07/04 A3030 RMK AO2=
201602041643 SPECI KPAE 041643Z 18006KT 10SM OVC015 07/04 A3030 RMK AO2 T00670039=
201602041553 METAR KPAE 041553Z 16006KT 10SM OVC012 06/04 A3028 RMK AO2 SLP256 T00610039=
201602041453 METAR KPAE 041453Z 18005KT 10SM BKN011 OVC017 06/04 A3025 RMK AO2 SLP248 T00610039 51023=
201602041437 SPECI KPAE 041437Z AUTO 16007KT 10SM BKN013 OVC019 06/04 A3024 RMK AO2 T00610039=
201602041353 METAR KPAE 041353Z AUTO 16008KT 10SM OVC019 06/04 A3023 RMK AO2 SLP240 T00610039=
201602041253 METAR KPAE 041253Z AUTO 16010KT 10SM SCT014 OVC020 06/04 A3021 RMK AO2 SLP231 T00610039=
201602041153 METAR KPAE 041153Z AUTO 17010KT 10SM FEW009 SCT013 OVC018 06/04 A3018 RMK AO2 SLP223 60000 70013 T00610039 10067 20056 53035=
201602041149 SPECI KPAE 041149Z AUTO 17009KT 10SM FEW009 BKN016 06/04 A3018 RMK AO2=
201602041103 SPECI KPAE 041103Z AUTO 18008KT 10SM BKN017 06/04 A3016 RMK AO2 T00610039=
201602041053 METAR KPAE 041053Z AUTO 19009KT 10SM SCT017 06/04 A3015 RMK AO2 SLP212 T00610039=
201602040953 METAR KPAE 040953Z AUTO 20013G20KT 10SM SCT090 BKN120 06/03 A3010 RMK AO2 SLP196 T00610033=
201602040930 SPECI KPAE 040930Z AUTO 19012KT 10SM FEW008 BKN090 OVC110 06/04 A3008 RMK AO2 T00610039=
201602040915 SPECI KPAE 040915Z AUTO 17013G19KT 10SM SCT010 BKN090 OVC110 07/04 A3006 RMK AO2 T00670039=
201602040903 SPECI KPAE 040903Z AUTO 19015G22KT 10SM BKN010 BKN016 OVC100 07/04 A3007 RMK AO2 CIG 007V014 T00670044=
201602040853 METAR KPAE 040853Z AUTO 19014G22KT 10SM SCT010 BKN026 OVC100 07/04 A3007 RMK AO2 RAB0759E08B31E41 SLP187 P0000 60000 T00670044 50000=
201602040806 SPECI KPAE 040806Z AUTO 18015G21KT 10SM -RA FEW010 SCT023 SCT030 07/04 A3007 RMK AO2 RAB0759 P0000 T00670039=
201602040753 METAR KPAE 040753Z AUTO 18014G21KT 10SM FEW008 BKN024 BKN085 07/04 A3008 RMK AO2 SLP187 T00670044 400830039=
201602040653 METAR KPAE 040653Z AUTO 18015G22KT 10SM SCT013 BKN060 BKN080 07/04 A3007 RMK AO2 SLP187 T00670039=
201602040648 SPECI KPAE 040648Z AUTO 18013G21KT 10SM SCT010 BKN017 BKN060 07/04 A3007 RMK AO2=
201602040553 METAR KPAE 040553Z AUTO 19012KT 10SM BKN013 BKN018 07/04 A3007 RMK AO2 SLP187 60011 T00670044 10067 20050 51036=
201602040544 SPECI KPAE 040544Z AUTO 20014KT 10SM BKN015 07/04 A3008 RMK AO2 T00670039=
201602040534 SPECI KPAE 040534Z AUTO 20017KT 10SM SCT013 06/04 A3008 RMK AO2 T00610039=
201602040453 METAR KPAE 040453Z AUTO 20013G21KT 10SM OVC010 06/04 A3006 RMK AO2 SLP184 T00610039=
201602040403 SPECI KPAE 040403Z 18014KT 10SM OVC010 06/04 A3002 RMK AO2 PRESRR T00610044=
201602040401 SPECI KPAE 040401Z 18012KT 10SM OVC008 06/04 A3002 RMK AO2 CIG 007V011 T00610044=
201602040354 SPECI KPAE 040354Z 17013KT 10SM OVC010 06/04 A3001 RMK AO2 CIG 007V014 T00610039=
201602040353 METAR KPAE 040353Z 17012KT 10SM BKN015 BKN019 OVC024 06/04 A3001 RMK AO2 RAE35 SLP166 P0000 T00610039=
201602040300 SPECI KPAE 040300Z 15009G17KT 100V180 6SM -RA BR BKN023 OVC030 05/03 A2997 RMK AO2 P0000 T00500028=
201602040253 METAR KPAE 040253Z 14007G17KT 100V170 6SM -RA BR SCT025 OVC030 05/03 A2997 RMK AO2 SLP151 P0006 60011 T00500033 55000=
201602040223 SPECI KPAE 040223Z 14007G16KT 110V180 5SM -RA BR OVC029 05/03 A2995 RMK AO2 P0003 T00500033=
201602040153 METAR KPAE 040153Z 15011G18KT 6SM -RA BR SCT028 OVC034 05/03 A2994 RMK AO2 SLP141 P0003 T00500028=
201602040053 METAR KPAE 040053Z VRB06KT 10SM -RA FEW029 OVC050 06/03 A2993 RMK AO2 SLP137 P0002 T00560028=
201602032353 METAR KPAE 032353Z 15010G19KT 120V190 8SM -RA FEW028 BKN043 OVC055 06/02 A2997 RMK AO2 SLP151 P0001 60002 T00610022 10083 20056 58021=
201602032253 METAR KPAE 032253Z 17009KT 10SM -RA BKN046 OVC055 07/03 A2999 RMK AO2 SLP159 P0001 T00720028=
201602032153 METAR KPAE 032153Z 18013G19KT 10SM -RA OVC055 08/02 A3001 RMK AO2 RAB29 SLP166 P0000 T00780017=
201602032053 METAR KPAE 032053Z 16007KT 10SM OVC050 08/M01 A3003 RMK AO2 SLP171 T00781006 58021=
201602031953 METAR KPAE 031953Z VRB04KT 10SM BKN047 OVC055 07/01 A3005 RMK AO2 SLP178 T00670011=
201602031853 METAR KPAE 031853Z 12005KT 10SM OVC070 06/01 A3007 RMK AO2 SLP188 T00610006=
201602031753 METAR KPAE 031753Z VRB04KT 10SM BKN048 BKN055 OVC090 06/01 A3009 RMK AO2 RAB14E28 SLP193 P0000 60000 T00560006 10056 20039 58016=
201602031653 METAR KPAE 031653Z 14005KT 10SM SCT046 SCT065 OVC100 05/01 A3010 RMK AO2 SLP198 T00500006=
201602031553 METAR KPAE 031553Z 12008KT 10SM OVC044 04/01 A3013 RMK AO2 SLP207 T00440006=
201602031453 METAR KPAE 031453Z VRB05KT 10SM OVC039 04/01 A3014 RMK AO2 SLP210 60000 T00440011 58012=
201602031413 SPECI KPAE 031413Z AUTO 15005KT 10SM BKN032 OVC039 04/01 A3014 RMK AO2 T00440006=
201602031353 METAR KPAE 031353Z AUTO VRB04KT 10SM BKN025 OVC031 04/01 A3015 RMK AO2 SLP214 T00440006=
201602031253 METAR KPAE 031253Z AUTO VRB04KT 10SM BKN025 04/01 A3017 RMK AO2 RAB34E44 SLP219 P0000 T00390006=
201602031215 SPECI KPAE 031215Z AUTO 15010KT 10SM BKN024 BKN031 OVC039 04/01 A3018 RMK AO2 T00390006=
201602031153 METAR KPAE 031153Z AUTO 15009KT 10SM SCT032 BKN040 OVC060 04/01 A3018 RMK AO2 SLP221 60003 70003 T00390006 10050 20039 56009=
201602031053 METAR KPAE 031053Z AUTO 14007KT 10SM OVC031 04/01 A3017 RMK AO2 SLP221 T00440011=
201602030953 METAR KPAE 030953Z AUTO 14005KT 10SM OVC030 04/02 A3019 RMK AO2 RAE35 SLP226 P0003 T00390017=
201602030926 SPECI KPAE 030926Z AUTO VRB05KT 8SM -RA FEW022 OVC031 04/02 A3020 RMK AO2 P0003 T00390017=
201602030853 METAR KPAE 030853Z AUTO 15008KT 10SM -RA OVC029 04/01 A3020 RMK AO2 SLP230 P0000 60000 T00390006 51001=
201602030851 SPECI KPAE 030851Z AUTO 15009KT 10SM -RA OVC029 04/01 A3020 RMK AO2 P0000=
201602030753 METAR KPAE 030753Z AUTO 14004KT 10SM -RA BKN037 BKN044 OVC055 04/00 A3020 RMK AO2 RAB52 SLP232 P0000 T00440000 400890028=
201602030653 METAR KPAE 030653Z AUTO 15004KT 10SM SCT050 OVC075 05/00 A3020 RMK AO2 SLP230 T00500000=
201602030553 METAR KPAE 030553Z AUTO 00000KT 10SM OVC050 05/00 A3019 RMK AO2 SLP227 T00500000 10078 20050 55000=
201602030453 METAR KPAE 030453Z AUTO 17003KT 10SM BKN050 06/00 A3019 RMK AO2 SLP226 T00560000=
201602030353 METAR KPAE 030353Z 17003KT 10SM OVC049 07/01 A3019 RMK AO2 SLP226 T00670006=
201602030253 METAR KPAE 030253Z 19004KT 10SM OVC048 07/01 A3019 RMK AO2 SLP227 T00670006 53001=
201602030153 METAR KPAE 030153Z 20003KT 10SM OVC055 07/00 A3018 RMK AO2 SLP225 T00670000=
201602030053 METAR KPAE 030053Z 20004KT 10SM FEW055 07/00 A3019 RMK AO2 SLP226 T00720000=
201602022353 METAR KPAE 022353Z 23005KT 10SM BKN042 08/00 A3019 RMK AO2 SLP226 T00780000 10089 20050 53002=
201602022253 METAR KPAE 022253Z 18004KT 10SM CLR 08/M01 A3018 RMK AO2 SLP223 T00831006=
201602022153 METAR KPAE 022153Z 26004KT 10SM BKN040 08/01 A3018 RMK AO2 SLP223 T00780006=
201602022053 METAR KPAE 022053Z 11004KT 10SM CLR 08/00 A3018 RMK AO2 SLP223 T00830000 58002=
201602021953 METAR KPAE 021953Z 10007KT 10SM CLR 07/M01 A3018 RMK AO2 SLP225 T00671006=
201602021853 METAR KPAE 021853Z VRB04KT 10SM FEW043 06/M01 A3019 RMK AO2 SLP228 T00611006=
201602021753 METAR KPAE 021753Z 10005KT 10SM CLR 05/00 A3019 RMK AO2 SLP226 T00500000 10050 20028 53006=
201602021653 METAR KPAE 021653Z 11003KT 10SM CLR 03/01 A3018 RMK AO2 SLP224 T00330006=
201602021553 METAR KPAE 021553Z 11006KT 10SM SCT018 BKN030 03/01 A3017 RMK AO2 SLP221 T00330011=
201602021453 METAR KPAE 021453Z 11006KT 10SM FEW018 SCT030 03/01 A3017 RMK AO2 SLP220 T00280006 51002=
201602021411 SPECI KPAE 021411Z AUTO 12006KT 10SM BKN019 BKN038 03/01 A3017 RMK AO2 T00330006=
201602021353 METAR KPAE 021353Z AUTO 11005KT 10SM BKN038 04/01 A3017 RMK AO2 SLP219 T00390006=
201602021253 METAR KPAE 021253Z AUTO 11004KT 10SM OVC036 04/01 A3017 RMK AO2 SLP219 T00390006=
201602021234 SPECI KPAE 021234Z AUTO 11006KT 10SM SCT016 OVC034 04/00 A3016 RMK AO2 T00390000=
201602021225 SPECI KPAE 021225Z AUTO 12004KT 10SM BKN016 OVC034 04/00 A3017 RMK AO2 T00390000=
201602021153 METAR KPAE 021153Z AUTO 11006KT 10SM OVC034 03/01 A3016 RMK AO2 SLP217 70002 T00330006 10044 20033 50001=
201602021120 SPECI KPAE 021120Z AUTO 11005KT 10SM SCT025 OVC035 04/01 A3016 RMK AO2 T00390006=
201602021053 METAR KPAE 021053Z AUTO 11006KT 10SM OVC027 03/01 A3016 RMK AO2 SLP218 T00330006=
201602021033 SPECI KPAE 021033Z AUTO 12005KT 10SM OVC029 03/01 A3016 RMK AO2 T00330011=
201602020953 METAR KPAE 020953Z AUTO 12006KT 10SM SCT013 BKN030 03/01 A3016 RMK AO2 SLP218 T00330011=
201602020853 METAR KPAE 020853Z AUTO 11007KT 10SM OVC032 03/02 A3016 RMK AO2 SLP217 T00330017 50002=
201602020841 SPECI KPAE 020841Z AUTO 11007KT 10SM SCT014 OVC031 04/02 A3016 RMK AO2 T00390017=
201602020801 SPECI KPAE 020801Z AUTO VRB03KT 10SM BKN012 OVC026 04/02 A3016 RMK AO2 T00390017=
201602020753 METAR KPAE 020753Z AUTO VRB04KT 10SM SCT012 BKN026 OVC034 04/02 A3016 RMK AO2 SLP218 T00390017 400670028=
201602020746 SPECI KPAE 020746Z AUTO 11006KT 10SM FEW012 BKN030 OVC034 04/02 A3016 RMK AO2 T00440017=
201602020653 METAR KPAE 020653Z AUTO VRB05KT 10SM FEW011 BKN029 OVC035 04/02 A3016 RMK AO2 SLP217 T00440017=
201602020553 METAR KPAE 020553Z AUTO 15005KT 10SM BKN017 OVC023 04/02 A3015 RMK AO2 SLP215 T00440017 10061 20039 58002=
201602020544 SPECI KPAE 020544Z AUTO 16008KT 10SM BKN015 04/01 A3015 RMK AO2 T00440011=
201602020453 METAR KPAE 020453Z 15008KT 10SM SCT028 BKN035 BKN080 04/01 A3016 RMK AO2 SLP217 T00440011=
201602020353 METAR KPAE 020353Z 15008KT 10SM FEW021 BKN038 OVC080 05/01 A3016 RMK AO2 SLP217 T00500011=
201602020322 SPECI KPAE 020322Z 00000KT 10SM SCT021 BKN029 OVC075 05/01 A3016 RMK AO2 T00500006=
201602020253 METAR KPAE 020253Z 13003KT 10SM OVC075 06/01 A3016 RMK AO2 SLP217 T00560011 58004=
201602020153 METAR KPAE 020153Z 16006KT 10SM OVC075 05/01 A3017 RMK AO2 SLP222 T00500011=
201602020053 METAR KPAE 020053Z 17007KT 10SM OVC070 06/01 A3017 RMK AO2 SLP221 T00560006=
201602012353 METAR KPAE 012353Z 16008KT 10SM FEW020 06/01 A3017 RMK AO2 SLP221 T00610006 10067 20039 53001=
201602012313 SPECI KPAE 012313Z 20006KT 10SM FEW020 SCT029 06/01 A3017 RMK AO2 T00610011=
201602012253 METAR KPAE 012253Z 22005KT 10SM SCT019 BKN029 06/01 A3017 RMK AO2 SLP221 T00610011=
201602012200 SPECI KPAE 012200Z 17009KT 10SM FEW017 BKN034 OVC055 06/02 A3017 RMK AO2 T00610017=
201602012153 METAR KPAE 012153Z 19009KT 10SM SCT017 BKN023 OVC055 06/02 A3017 RMK AO2 SLP220 T00610017=
201602012116 SPECI KPAE 012116Z 17009KT 10SM SCT019 BKN050 06/01 A3017 RMK AO2 T00560011=
201602012053 METAR KPAE 012053Z 17006KT 10SM SCT018 BKN027 OVC055 06/01 A3017 RMK AO2 SLP220 T00610011 58003=
201602012045 SPECI KPAE 012045Z 18009KT 10SM SCT018 BKN027 OVC055 06/02 A3017 RMK AO2 T00610017=
201602012000 SPECI KPAE 012000Z 19011KT 10SM FEW017 OVC055 06/02 A3018 RMK AO2 T00560017=
201602011953 METAR KPAE 011953Z 18009KT 10SM SCT009 BKN014 06/02 A3018 RMK AO2 SLP223 T00560017=
201602011933 SPECI KPAE 011933Z 19009KT 10SM SCT009 BKN014 05/02 A3018 RMK AO2 T00500017=
201602011855 SPECI KPAE 011855Z 19009KT 10SM OVC008 04/02 A3018 RMK AO2 T00440022=
201602011853 METAR KPAE 011853Z 20008KT 10SM OVC010 04/02 A3018 RMK AO2 SLP223 T00440022=
201602011753 METAR KPAE 011753Z 17008KT 10SM SCT002 BKN008 BKN030 04/02 A3017 RMK AO2 SLP221 60002 T00390022 10039 20028 53005=
201602011707 SPECI KPAE 011707Z 18006KT 7SM SCT002 BKN008 BKN030 04/02 A3017 RMK AO2 T00390022=
201602011653 METAR KPAE 011653Z 18007KT 2SM BR BKN002 OVC028 03/02 A3017 RMK AO2 SLP221 T00330022=
201602011553 METAR KPAE 011553Z 17006KT 1/4SM R16R/1800VP6000FT FG OVC002 03/02 A3016 RMK AO2 SLP217 T00330022=
201602011526 SPECI KPAE 011526Z 15005KT 1/4SM R16R/4500VP6000FT FG VV002 03/02 A3015 RMK AO2 T00330022=
201602011453 METAR KPAE 011453Z 15004KT 5SM BR FEW023 BKN037 OVC043 03/02 A3016 RMK AO2 SLP217 60002 T00330022 51007=
201602011353 METAR KPAE 011353Z AUTO 00000KT 10SM FEW023 BKN055 03/01 A3016 RMK AO2 RAB1256E27 SLP216 P0002 T00330011=
201602011331 SPECI KPAE 011331Z AUTO 00000KT 10SM FEW021 SCT028 BKN036 03/01 A3016 RMK AO2 RAB1256E27 P0002 T00330011=
201602011316 SPECI KPAE 011316Z AUTO 00000KT 10SM -RA FEW003 BKN029 OVC034 03/02 A3016 RMK AO2 RAB1256 P0002 T00330017=
201602011300 SPECI KPAE 011300Z AUTO 35004KT 5SM -RA BR SCT002 BKN009 OVC035 04/03 A3015 RMK AO2 RAB1256 P0000 T00390028=
201602011253 METAR KPAE 011253Z AUTO 35003KT 6SM BR SCT002 BKN010 OVC030 04/02 A3015 RMK AO2 SLP214 T00390022=
201602011153 METAR KPAE 011153Z AUTO 17003KT 10SM OVC032 04/02 A3014 RMK AO2 SLP209 60003 70007 T00390022 10044 20033 53008=
201602011053 METAR KPAE 011053Z AUTO 21003KT 6SM BR FEW019 OVC030 04/02 A3013 RMK AO2 SLP206 T00390022=
201602011019 SPECI KPAE 011019Z AUTO 00000KT 8SM SCT008 OVC031 04/02 A3012 RMK AO2 T00390022=
201602010953 METAR KPAE 010953Z AUTO 00000KT 8SM OVC009 04/03 A3011 RMK AO2 CIG 008V012 SLP199 T00390028=
201602010917 SPECI KPAE 010917Z AUTO 17003KT 10SM BKN006 OVC029 04/03 A3011 RMK AO2 T00390028=
201602010907 SPECI KPAE 010907Z AUTO 00000KT 10SM SCT007 OVC028 04/03 A3011 RMK AO2 T00440028=
201602010853 METAR KPAE 010853Z AUTO 00000KT 10SM OVC028 04/03 A3011 RMK AO2 RAB0758E10 SLP200 P0000 60003 T00440028 51008=
201602010753 METAR KPAE 010753Z AUTO 00000KT 8SM FEW012 BKN020 OVC030 04/03 A3011 RMK AO2 SLP200 T00390028 400610033=
201602010653 METAR KPAE 010653Z AUTO 00000KT 6SM BR SCT002 OVC020 04/03 A3010 RMK AO2 RAE33 SLP197 P0003 T00440028=
201602010644 SPECI KPAE 010644Z AUTO 03004KT 6SM BR SCT004 BKN020 OVC026 04/03 A3009 RMK AO2 RAE33 P0003 T00440028=
201602010620 SPECI KPAE 010620Z AUTO 03004KT 6SM -RA BR SCT005 BKN013 OVC027 04/03 A3009 RMK AO2 P0003 T00440033=
201602010608 SPECI KPAE 010608Z AUTO 00000KT 5SM -RA BR FEW003 BKN008 OVC013 04/03 A3008 RMK AO2 P0002 T00440033=
201602010601 SPECI KPAE 010601Z AUTO 00000KT 2 1/2SM RA BR SCT005 BKN010 OVC013 04/03 A3008 RMK AO2 P0002 T00440033=
201602010553 METAR KPAE 010553Z AUTO 32004KT 3SM -RA BR SCT005 BKN009 OVC016 04/03 A3009 RMK AO2 RAB16E25B40 SLP191 P0003 60003 T00440033 10061 20039 53011=
201602010546 SPECI KPAE 010546Z AUTO 34005KT 3SM RA BR BKN009 BKN014 OVC040 04/03 A3008 RMK AO2 RAB16E25B40 P0002 T00440028=
201602010539 SPECI KPAE 010539Z AUTO 31007KT 10SM SCT009 BKN015 OVC055 05/03 A3008 RMK AO2 RAB16E25 P0000 T00500028=
201602010520 SPECI KPAE 010520Z AUTO 22004KT 10SM -RA SCT012 BKN019 OVC060 05/02 A3008 RMK AO2 RAB16 P0000 T00500022=
201602010500 SPECI KPAE 010500Z AUTO 21005KT 10SM OVC012 05/02 A3007 RMK AO2 T00500022=
201602010453 METAR KPAE 010453Z AUTO 21005KT 10SM BKN017 OVC041 05/02 A3007 RMK AO2 SLP187 T00500022=
201602010353 METAR KPAE 010353Z 18005KT 10SM BKN017 OVC041 05/02 A3006 RMK AO2 SLP183 T00500022=
201602010340 SPECI KPAE 010340Z 19004KT 10SM BKN016 BKN038 OVC080 05/02 A3006 RMK AO2 T00500017=
201602010253 METAR KPAE 010253Z 19005KT 10SM BKN034 BKN070 OVC085 04/01 A3005 RMK AO2 SLP181 T00390011 53009=
201602010153 METAR KPAE 010153Z 18006KT 10SM SCT029 BKN065 OVC085 06/02 A3004 RMK AO2 SLP175 T00560017=
201602010053 METAR KPAE 010053Z 19007KT 10SM OVC027 06/02 A3003 RMK AO2 SLP173 T00560017=

# No short TAF reports from KPAE in databse.

###################################
#  large TAF from KPAE
###################################
201602292337 TAF KPAE 292337Z 0100/0124 15011KT P6SM SCT035 OVC150 FM010600
                       14010KT P6SM -RA BKN070 OVC090 FM011100
                       13011G19KT 4SM -RA BR SCT025 OVC035 FM011600
                       16018G30KT P6SM -RA SCT035 OVC050 FM012300
                       18022G35KT 5SM -SHRA BR SCT020 BKN030 OVC040=
201602291739 TAF KPAE 291739Z 2918/0118 17009KT P6SM SCT020 SCT040 BKN060
                      TEMPO 2918/2922 -SHRA SCT020 BKN040 BKN060
                       FM292200 17009KT P6SM SCT045 OVC150 FM010600
                       14010KT P6SM -RA BKN060 OVC080 FM011400
                       14015G22KT 5SM -RA BR SCT025 OVC035=
201602291123 TAF KPAE 291123Z 2912/0112 18011KT P6SM VCSH OVC020 FM291900 17009KT
                       P6SM BKN035 FM010000 15010KT P6SM SCT035
                       OVC100 FM010700 15010KT P6SM -RA OVC025=
201602290520 TAF KPAE 290520Z 2906/0106 18012KT P6SM VCSH SCT030 OVC080 FM290900
                       18011KT P6SM VCSH OVC020 FM291900 17009KT
                       P6SM BKN035 FM010000 15010KT P6SM SCT035
                       OVC100=
201602282333 TAF KPAE 282333Z 2900/2924 20017G27KT P6SM VCSH BKN040 BKN100
                      TEMPO 2900/2903 4SM -SHRA BKN020 OVC035 FM290300
                       18012KT P6SM VCSH SCT020 OVC035 FM290900
                       18011KT P6SM VCSH OVC020 FM291900 17009KT
                       P6SM BKN035=
201602282002 TAF AMD KPAE 282002Z 2820/2918 20025G32KT P6SM FEW020 BKN040
                      TEMPO 2820/2822 4SM -SHRA BR OVC025 FM282200
                       19018G28KT P6SM -SHRA BKN025 BKN040 FM290200
                       20013KT P6SM -SHRA SCT020 OVC035 FM291000
                       20010KT P6SM VCSH SCT030 OVC050=
201602281737 TAF KPAE 281737Z 2818/2918 15011G19KT P6SM -RA BKN050 BKN060 OVC080
                       TEMPO 2818/2822 4SM -RA BR OVC025 FM282200
                       19018G28KT P6SM -SHRA BKN025 BKN040 FM290200
                       20013KT P6SM -SHRA SCT020 OVC035 FM291000
                       20010KT P6SM VCSH SCT030 OVC050=
201602281120 TAF KPAE 281120Z 2812/2912 15010KT P6SM SCT035 BKN120 FM281600
                       17018G26KT 5SM -RA OVC025 FM282000 19014G22KT
                       5SM -RA OVC019 FM290200 20010KT P6SM -SHRA
                       SCT020 OVC035 FM291000 20010KT P6SM VCSH
                       SCT030 OVC050=
201602280520 TAF KPAE 280520Z 2806/2906 15009KT P6SM SCT035 SCT120 FM280700
                       15010KT P6SM SCT035 BKN120 FM281400 17022G30KT
                       5SM -RA OVC025 FM282000 19016G24KT 5SM -RA
                       OVC019 FM290200 20010KT P6SM -SHRA SCT020
                       OVC035=
201602272331 TAF KPAE 272331Z 2800/2824 17006KT P6SM SCT015 BKN022 BKN035 FM280300
                       15009KT P6SM SCT035 BKN120 FM281400 17022G30KT
                       5SM -RA OVC009 FM282000 19016G24KT 5SM -RA
                       OVC019=
201602272101 TAF AMD KPAE 272101Z 2721/2818 17008KT P6SM BKN008 OVC020 FM272300
                       22007KT P6SM BKN022 BKN120 FM280200 15006KT
                       P6SM SCT030 OVC100 FM281400 18015G25KT P6SM
                       -RA OVC020=
201602271801 TAF AMD KPAE 271801Z 2718/2818 17005KT 6SM BR SCT005 BKN010 OVC045
                       FM272100 22006KT P6SM SCT012 BKN045 FM272300
                       22007KT P6SM BKN022 BKN120 FM280200 15006KT
                       P6SM SCT030 OVC100 FM281400 18015G25KT P6SM
                       -RA OVC020=
201602271723 TAF KPAE 271723Z 2718/2818 24004KT 2SM BR BKN003 BKN028 OVC035
                       FM272100 22006KT P6SM BKN010 OVC020 FM272300
                       22007KT P6SM BKN022 BKN120 FM280200 15006KT
                       P6SM SCT030 OVC100 FM281400 18015G25KT P6SM
                       -RA OVC020=
201602271414 TAF AMD KPAE 271414Z 2714/2812 22005KT 5SM BR SCT002 OVC012
                      TEMPO 2714/2717 1/2SM FG OVC002 FM271700
                       18010KT P6SM OVC012 FM272100 18012KT P6SM
                       BKN020 OVC100 FM280300 16008KT P6SM SCT035
                       OVC100=
201602271120 TAF KPAE 271120Z 2712/2812 19007KT P6SM -SHRA SCT005 OVC012
                      TEMPO 2712/2715 2SM BR OVC002 FM271600 18010KT
                       P6SM OVC012 FM272100 18012KT P6SM BKN020
                       OVC100 FM280300 16008KT P6SM SCT035 OVC100=
201602271043 TAF AMD KPAE 271043Z 2711/2806 19007KT P6SM -SHRA SCT005 OVC012
                       TEMPO 2711/2715 4SM -RA BR OVC002 FM271600
                       18010KT P6SM VCSH OVC012 FM272100 18012KT
                       P6SM BKN035 OVC100 FM280300 16008KT P6SM
                       SCT035 OVC100=
201602270520 TAF KPAE 270520Z 2706/2806 19007KT P6SM -SHRA SCT005 OVC012 FM271600
                       18010KT P6SM VCSH OVC012 FM272100 18012KT
                       P6SM BKN035 OVC100 FM280300 16008KT P6SM
                       SCT035 OVC100=
201602262339 TAF KPAE 262339Z 2700/2724 19011KT P6SM -RA OVC060 FM270400 17007KT
                       P6SM -RA OVC030 FM270600 19007KT 6SM -SHRA
                       BR OVC020 FM271600 18010KT 5SM BR VCSH OVC012
                       FM272100 18012KT P6SM BKN035 OVC100=
201602261734 TAF KPAE 261734Z 2618/2718 15005KT P6SM SCT180 BKN250 FM262000
                       17008KT P6SM SCT050 OVC100 FM270000 17008KT
                       P6SM -RA SCT022 OVC050 FM270300 17010KT
                       P6SM -RA OVC022 FM270600 19012KT 5SM -RA
                       BR FEW007 OVC012=
201602261141 TAF KPAE 261141Z 2612/2712 13005KT P6SM FEW100 OVC200 FM262000
                       17008KT P6SM SCT050 OVC100 FM270000 17008KT
                       P6SM -RA SCT022 OVC050 FM270300 17010KT
                       P6SM -RA OVC022 FM270600 19012KT 5SM -RA
                       BR FEW007 OVC012=
201602260545 TAF KPAE 260545Z 2606/2706 11005KT P6SM FEW100 OVC200 FM262000
                       17008KT P6SM SCT050 OVC100
                      PROB30 2620/2624 -RA FM270000 17008KT P6SM
                       -RA SCT022 OVC050 FM270300 17008KT P6SM
                       -RA OVC022=
201602260311 TAF AMD KPAE 260311Z 2603/2624 VRB03KT P6SM BKN200 FM260900 15006KT
                       P6SM FEW110 BKN200 FM261700 15007KT P6SM
                       OVC009 FM261900 17009KT P6SM FEW110 BKN200=
201602252327 TAF KPAE 252327Z 2600/2624 36004KT P6SM BKN250 FM260300 14006KT
                       P6SM BKN200 FM260900 15006KT P6SM FEW110
                       BKN200 FM261700 15007KT P6SM OVC009 FM261900
                       17009KT P6SM FEW110 BKN200=
201602251733 TAF KPAE 251733Z 2518/2618 07003KT P6SM BKN250 FM260900 11006KT
                       P6SM FEW110 BKN200=
201602251137 TAF KPAE 251137Z 2512/2612 VRB03KT P6SM VCFG FEW003 SCT200 FM251800
                       VRB03KT P6SM BKN200 FM260900 11006KT P6SM
                       FEW110 BKN200=
201602250908 TAF AMD KPAE 250908Z 2509/2606 VRB03KT P6SM SCT200 FM251200 VRB03KT
                       P6SM VCFG SCT005 SCT200 FM251800 VRB03KT
                       P6SM BKN200=
201602250538 TAF KPAE 250538Z 2506/2606 VRB03KT P6SM BKN045 BKN200 FM250900
                       VRB03KT P6SM SCT050 BKN200 FM251200 VRB03KT
                       P6SM VCFG SCT012 SCT200 FM251800 VRB03KT
                       P6SM BKN200=
201602250320 TAF AMD KPAE 250320Z 2503/2524 VRB03KT P6SM FEW021 BKN045 OVC100
                       TEMPO 2503/2506 -RA FM250600 00000KT P6SM
                       BKN050 FM251200 VRB03KT P6SM SCT003 SCT040
                       TEMPO 2514/2517 3SM BR BKN003 BKN040 FM252000
                       33006KT P6SM SCT200=
201602242320 TAF KPAE 242320Z 2500/2524 VRB03KT P6SM BKN060 BKN100 FM250600
                       00000KT P6SM BKN050 FM251200 VRB03KT P6SM
                       SCT003 SCT040
                      TEMPO 2514/2517 3SM BR BKN003 BKN040 FM252000
                       33006KT P6SM SCT200=
201602241720 TAF KPAE 241720Z 2418/2518 11005KT P6SM OVC080 FM250600 VRB03KT
                       P6SM OVC050 FM251600 VRB03KT P6SM BKN040=
201602241143 TAF KPAE 241143Z 2412/2512 12007KT P6SM SCT110 BKN200
                      TEMPO 2414/2418 BKN110 BKN200 FM241800 17005KT
                       P6SM SCT060 BKN110 BKN200 FM250000 VRB03KT
                       P6SM BKN060 BKN110 FM250600 VRB03KT P6SM
                       FEW016 BKN060 BKN110 FM251000 VRB03KT P6SM
                       OVC009=
201602240528 TAF KPAE 240528Z 2406/2506 12006KT P6SM SCT110 OVC200 FM241800
                       17005KT P6SM SCT060 BKN110 BKN200=
201602240315 TAF AMD KPAE 240315Z 2403/2424 12007KT P6SM SCT110 OVC200 FM240600
                       10008KT P6SM BKN120 OVC200 FM241200 12006KT
                       P6SM BKN060 OVC120 FM241700 14004KT P6SM
                       OVC050=
201602232320 TAF KPAE 232320Z 2400/2424 02006KT P6SM SCT120 BKN200 FM240600
                       10008KT P6SM BKN120 OVC200 FM241200 12006KT
                       P6SM BKN060 OVC120 FM241700 14004KT P6SM
                       OVC050=
201602231720 TAF KPAE 231720Z 2318/2418 04006KT P6SM SKC FM240000 04006KT P6SM
                       BKN200 FM241000 10008KT P6SM BKN120 OVC200
                       FM241700 12007KT P6SM BKN060 BKN120=
201602231120 TAF KPAE 231120Z 2312/2412 VRB03KT P6SM VCFG SKC FM231800 VRB03KT
                       P6SM SCT200 FM240300 12006KT P6SM OVC200=
201602230520 TAF KPAE 230520Z 2306/2406 VRB03KT P6SM SKC FM232000 02005KT P6SM
                       SKC=
201602230311 KPAE 230311Z 2303/2324 VRB03KT P6SM SKC=
201602222320 TAF KPAE 222320Z 2300/2324 VRB03KT P6SM SCT040 FM230600 04006KT
                       P6SM SKC=
201602221734 TAF KPAE 221734Z 2218/2318 20009KT P6SM VCSH BKN030 FM222000 23006KT
                       P6SM SCT030 BKN045 FM230000 31005KT P6SM
                       SCT030 SCT045 FM230200 02005KT P6SM SKC
                       FM231100 05005KT P6SM VCFG SKC FM231700
                       05005KT P6SM SKC=
201602221406 TAF AMD KPAE 221406Z 2214/2312 17008KT P6SM SCT015 BKN120
                      TEMPO 2214/2216 -SHRA BKN015 OVC040 FM221600
                       18006KT P6SM VCSH SCT030 BKN045 FM222000
                       23006KT P6SM SCT030 BKN045 FM230000 31005KT
                       P6SM SCT030 SCT045 FM230200 02005KT P6SM
                       SKC FM231100 05005KT P6SM VCFG SKC=
201602221128 TAF KPAE 221128Z 2212/2312 16008KT P6SM VCSH SCT015 BKN040
                      TEMPO 2212/2214 BKN015 OVC040 FM221400 16010KT
                       P6SM -SHRA BKN020 OVC040 FM221600 18006KT
                       P6SM VCSH BKN030 FM222000 23006KT P6SM SCT030
                       BKN045 FM230000 31005KT P6SM SCT030 SCT045
                       FM230200 02005KT P6SM SKC FM231100 05005KT
                       P6SM VCFG SKC=
201602220631 TAF AMD KPAE 220631Z 2207/2306 18011KT P6SM VCSH SCT025 BKN040
                       TEMPO 2207/2211 BKN018 FM221200 17010KT
                       P6SM -SHRA BKN020 OVC040 FM221700 18006KT
                       P6SM VCSH BKN030 FM222000 23006KT P6SM SCT030
                       BKN045 FM230000 31005KT P6SM SCT030 SCT045
                       FM230200 02005KT P6SM SCT045=
201602220537 TAF KPAE 220537Z 2206/2306 18011KT P6SM VCSH SCT025 BKN040 FM221200
                       17010KT P6SM -SHRA BKN020 OVC040 FM221700
                       18006KT P6SM VCSH BKN030 FM222000 23006KT
                       P6SM SCT030 BKN045 FM230000 31005KT P6SM
                       SCT030 SCT045 FM230200 02005KT P6SM SCT045=
201602220511 TAF AMD KPAE 220511Z 2205/2224 20012KT P6SM VCSH SCT025 BKN040
                       FM221200 18010KT P6SM -SHRA OVC020 FM221500
                       18005KT P6SM BKN030=
201602212321 TAF KPAE 212321Z 2200/2224 18015G25KT P6SM -RA BKN020 BKN035 FM220300
                       20012KT P6SM VCSH BKN030 BKN040 FM221200
                       18010KT P6SM -SHRA OVC020 FM221500 18005KT
                       P6SM BKN030=
201602211722 TAF KPAE 211722Z 2118/2218 14008KT P6SM SCT045 BKN150 OVC200 FM212000
                       17014KT P6SM -RA BKN030 OVC045 FM212200
                       18014G22KT P6SM -RA BKN025 OVC040 FM220100
                       20012G20KT P6SM -SHRA BKN030 BKN045 FM220600
                       18010KT P6SM VCSH SCT030 BKN045=
201602211121 TAF KPAE 211121Z 2112/2212 12006KT P6SM SCT120 BKN200 FM211500
                       14008KT P6SM SCT045 BKN090 OVC150 FM212000
                       17014KT P6SM -RA BKN030 OVC045 FM212200
                       18014G22KT P6SM -RA BKN025 OVC040 FM220100
                       20012G20KT P6SM -SHRA BKN030 BKN045 FM220600
                       18010KT P6SM VCSH SCT030 BKN045=
201602210522 TAF KPAE 210522Z 2106/2206 12005KT P6SM SCT120 BKN200 FM211400
                       14008KT P6SM SCT045 BKN090 OVC150 FM212000
                       17014KT P6SM -RA BKN030 OVC045 FM212200
                       18012G20KT P6SM -RA BKN025 OVC040 FM220100
                       20012G20KT P6SM -SHRA BKN030 BKN045=
201602202329 TAF KPAE 202329Z 2100/2124 18010KT P6SM BKN040 BKN250 FM210300
                       12004KT P6SM FEW030 BKN250 FM211400 14006KT
                       P6SM SCT050 BKN120 OVC200 FM212000 19010KT
                       P6SM -RA BKN030 OVC060=
201602201727 TAF KPAE 201727Z 2018/2118 18008KT P6SM BKN015 FM202000 17008KT
                       P6SM SCT025 FM202200 18006KT P6SM SCT250
                       FM210300 VRB03KT P6SM SCT045 BKN200 FM211400
                       12006KT P6SM BKN120=
201602201122 TAF KPAE 201122Z 2012/2112 18011KT P6SM VCSH SCT018 BKN045
                      TEMPO 2012/2016 BKN018 BKN045 FM201600 18008KT
                       P6SM SCT018 BKN045
                      TEMPO 2016/2020 BKN018 BKN045 FM202000 17008KT
                       P6SM SCT025 BKN045 FM210300 VRB03KT P6SM
                       SCT045 BKN200=
201602200523 TAF KPAE 200523Z 2006/2106 19011KT P6SM SCT020 BKN045
                      TEMPO 2006/2010 -SHRA BKN020 OVC040 FM201000
                       18006KT P6SM VCSH BKN020 BKN045 FM201900
                       17010KT P6SM SCT025 BKN045 FM210300 VRB03KT
                       P6SM SCT045=
201602192320 TAF KPAE 192320Z 2000/2024 18020G30KT P6SM -RA SCT020 BKN035 OVC060
                       FM200300 21012G20KT P6SM -SHRA BKN030 BKN045
                       FM200600 20008KT P6SM -SHRA BKN020 FM201200
                       18006KT P6SM VCSH BKN020=
201602191721 TAF KPAE 191721Z 1918/2018 12010KT P6SM -RA OVC035
                      TEMPO 1918/1921 4SM -RA BR BKN025 FM192100
                       18015G25KT P6SM -RA BKN035 OVC060 FM200000
                       21012G22KT P6SM -SHRA BKN030 BKN045 FM200600
                       20008KT P6SM -SHRA BKN020 FM201200 18006KT
                       P6SM VCSH BKN020=
201602191127 TAF KPAE 191127Z 1912/2012 16011KT P6SM SCT025 BKN040
                      TEMPO 1912/1916 -RA BKN025 OVC040 FM191600
                       16011KT P6SM SCT025 BKN040 OVC060
                      TEMPO 1916/1920 -RA BKN025 OVC040 FM192000
                       16013G23KT P6SM -RA BKN020 OVC035 FM200100
                       19014G24KT P6SM -SHRA BKN035 BKN045 FM200700
                       18011KT P6SM -SHRA BKN035 BKN045=
201602190523 TAF KPAE 190523Z 1906/2006 18014G22KT P6SM -RA BKN030 OVC045 FM190700
                       18014G22KT P6SM VCSH SCT020 OVC035 FM192000
                       16013G23KT P6SM -RA BKN020 OVC035 FM200100
                       19014G24KT P6SM -SHRA BKN035 BKN045=
201602182326 TAF KPAE 182326Z 1900/1924 19021G31KT P6SM SCT120 FM190600 18015G21KT
                       P6SM VCSH SCT020 OVC030 FM191500 16013G21KT
                       P6SM -RA BKN030 OVC040=
201602182024 KPAE 182024Z 1820/1918 19019G31KT P6SM -SHRA SCT035 BKN060 FM190600
                       18015G21KT P6SM VCSH SCT020 OVC035 FM191500
                       16013G21KT P6SM -RA BKN035 OVC045=
201602181720 TAF KPAE 181720Z 1818/1918 17009KT P6SM VCSH BKN040 OVC050 FM182100
                       17012G20KT P6SM -SHRA SCT025 BKN040 FM190600
                       18015G21KT P6SM VCSH SCT020 OVC035 FM191500
                       16013G21KT P6SM -RA BKN035 OVC045=
201602181120 TAF KPAE 181120Z 1812/1912 17012KT P6SM SCT025 OVC045
                      TEMPO 1812/1816 -SHRA BKN025 OVC040 FM181600
                       17010KT P6SM VCSH BKN025 OVC045 FM182100
                       19008KT P6SM VCSH SCT025 BKN040 FM190600
                       17014KT P6SM VCSH SCT020 OVC035=
201602180909 TAF AMD KPAE 180909Z 1809/1906 18012KT P6SM SCT025 OVC045
                      TEMPO 1809/1813 -SHRA BKN025 OVC040 FM181500
                       18010KT P6SM VCSH BKN025 OVC040 FM182100
                       19008KT P6SM VCSH SCT025 BKN040=
201602180520 TAF KPAE 180520Z 1806/1906 19012G22KT P6SM -SHRA SCT012 BKN025
                       OVC040
                      TEMPO 1806/1810 5SM SHRA BKN012 OVC025 FM181500
                       18010KT P6SM VCSH BKN025 OVC040 FM182100
                       19008KT P6SM VCSH SCT025 BKN040=
201602172329 TAF KPAE 172329Z 1800/1824 16009KT P6SM -RA BKN060 OVC080 FM180300
                       15006KT P6SM -RA SCT025 OVC050 FM180600
                       19011KT P6SM -RA BKN020 OVC040 FM181600
                       18009KT P6SM VCSH BKN020 OVC040 FM182100
                       19010KT P6SM VCSH SCT025 OVC040=
201602171720 TAF KPAE 171720Z 1718/1818 04004KT P6SM BKN110 FM180000 14005KT
                       P6SM SCT050 OVC090 FM180300 19008KT P6SM
                       -RA SCT025 OVC050 FM180600 19010KT P6SM
                       -RA BKN025 OVC040=
201602171121 TAF KPAE 171121Z 1712/1812 09006KT P6SM BKN100 OVC250 FM180000
                       14005KT P6SM SCT050 OVC090 FM180300 19008KT
                       P6SM -RA SCT025 OVC050 FM180600 19010KT
                       P6SM -RA BKN025 OVC040=
201602170528 TAF KPAE 170528Z 1706/1806 11006KT P6SM BKN100 OVC200
                      TEMPO 1709/1713 -RA OVC040 FM171800 06006KT
                       P6SM SCT040 BKN120 FM180300 19010KT P6SM
                       -RA BKN025 OVC040=
201602162320 TAF KPAE 162320Z 1700/1724 15006KT P6SM SCT030 OVC100
                      TEMPO 1700/1704 BKN030 OVC100 FM170400 VRB04KT
                       P6SM BKN040 OVC080
                      TEMPO 1704/1708 -RA OVC040 FM171800 06006KT
                       P6SM SCT040 BKN120=
201602162101 KPAE 162101Z 1621/1718 18007KT P6SM SCT010 BKN025
                      TEMPO 1621/1623 BKN010 OVC025 FM170200 VRB03KT
                       P6SM -RA BKN035 OVC060 FM170700 04006KT
                       P6SM OVC035 FM171600 04006KT P6SM SCT030
                       BKN050=
201602161733 TAF KPAE 161733Z 1618/1718 18007KT P6SM SCT005 BKN020 BKN200
                      TEMPO 1618/1620 3SM BR BKN005 OVC020 FM162100
                       VRB03KT P6SM SCT025 BKN150
                      TEMPO 1621/1624 BKN025 OVC150 FM170000 VRB03KT
                       P6SM -RA BKN035 OVC060 FM170500 04006KT
                       P6SM OVC035 FM171600 04006KT P6SM SCT030
                       BKN050=
201602161127 TAF KPAE 161127Z 1612/1712 18007KT 3SM -RA BR BKN005 BKN015 OVC030
                       FM161700 18006KT P6SM BKN025 BKN050 FM162100
                       17006KT P6SM SCT025 BKN060 FM170600 11005KT
                       P6SM -RA BKN025 OVC060=
201602160520 TAF KPAE 160520Z 1606/1706 19020G32KT P6SM -RA BKN040 OVC080 FM160800
                       20016G25KT P6SM -RA BKN020 OVC040 FM161100
                       18010KT P6SM BKN025 BKN040 FM161700 18006KT
                       P6SM SCT025 BKN050=
201602160156 TAF AMD KPAE 160156Z 1602/1624 17015G25KT P6SM SCT009 BKN015 OVC030
                       TEMPO 1602/1604 5SM BR BKN009 OVC015 FM160400
                       21012G22KT 3SM -RA BR BKN005 OVC012 FM161000
                       21008KT P6SM BKN020 BKN040 FM161700 18006KT
                       P6SM SCT025 BKN050=
201602152320 TAF KPAE 152320Z 1600/1624 17015G25KT 4SM -RA BR SCT005 OVC015
                       TEMPO 1600/1604 2SM -RA BR BKN005 OVC012
                       FM160400 21012G22KT 3SM -RA BR BKN005 OVC012
                       FM161000 21008KT P6SM BKN020 BKN040 FM161700
                       18006KT P6SM SCT025 BKN050=
201602152125 TAF KPAE 152125Z 1521/1618 20018KT 3SM -RA BR OVC015
                      TEMPO 1521/1601 1SM -RA BR OVC008 FM160400
                       20012G20KT 3SM -RA BR BKN006 OVC012 FM161000
                       21008KT P6SM BKN020 BKN040 FM161700 18006KT
                       P6SM SCT025 BKN050=
201602152124 TAF AMD KPAE 152124Z 1521/1618 20008KT 3SM -RA BR OVC015
                      TEMPO 1521/1601 1SM -RA BR OVC008 FM160400
                       20012G20KT 3SM -RA BR BKN006 OVC012 FM161000
                       21008KT P6SM BKN020 BKN040 FM161700 18006KT
                       P6SM SCT025 BKN050=
201602151720 TAF KPAE 151720Z 1518/1618 20008KT 2SM -RA BR SCT003 OVC015
                      TEMPO 1518/1522 1SM -RA BR BKN003 OVC010
                       FM152200 20015G25KT P6SM SCT006 BKN015 OVC030
                       FM160400 20012G20KT 3SM -RA BR BKN006 OVC012
                       FM161000 21008KT P6SM BKN020 BKN040 FM161700
                       18006KT P6SM SCT025 BKN050=
201602151608 TAF AMD KPAE 151608Z 1516/1612 20012G20KT 3SM -RA BR SCT003 OVC025
                       TEMPO 1516/1520 1SM -RA BR BKN003 OVC015
                       FM152000 20015G25KT P6SM SCT006 BKN015 OVC030
                       FM160400 20012G20KT 3SM -RA BR BKN006 OVC012=
201602151402 TAF AMD KPAE 151402Z 1514/1612 20012G20KT P6SM -RA OVC006
                      TEMPO 1514/1516 2SM -RA BR OVC005 FM151600
                       20012G20KT 4SM -RA OVC006 FM160200 20012G20KT
                       P6SM -RA SCT006 OVC011=
201602151139 TAF KPAE 151139Z 1512/1612 20012G20KT P6SM -RA OVC006 FM151600
                       20012G20KT 4SM -RA OVC006 FM160200 20012G20KT
                       P6SM -RA SCT006 OVC011=
201602150539 TAF KPAE 150539Z 1506/1606 19012KT 4SM -RA BKN006 OVC011 FM152100
                       19012G20KT P6SM -RA SCT006 OVC011=
201602150233 TAF AMD KPAE 150233Z 1503/1524 17011KT P6SM VCSH BKN007 OVC014
                       TEMPO 1503/1507 -RA FM151300 19011KT 4SM
                       -RA BR OVC007 FM152100 18017G28KT P6SM VCSH
                       SCT008 OVC015=
201602142339 TAF KPAE 142339Z 1500/1524 18011G20KT P6SM VCSH OVC006 FM150300
                       19018G30KT 6SM -RA BR OVC005 FM151300 19011KT
                       4SM -RA BR OVC007 FM152100 18017G28KT P6SM
                       VCSH SCT008 OVC015=
201602141741 TAF KPAE 141741Z 1418/1518 17011G18KT 2SM -RA BR OVC004 FM142000
                       17011G18KT 6SM BR VCSH OVC008 FM150400 19018G30KT
                       5SM -RA BR OVC005 FM151500 36003KT 5SM -RA
                       BR OVC008=
201602141140 TAF KPAE 141140Z 1412/1512 17010KT 2SM BR OVC003 FM141500 17010KT
                       4SM BR SCT003 OVC006 FM141800 17010KT 5SM
                       -RA SCT006 BKN011 OVC020 FM150700 VRB03KT
                       P6SM -RA SCT008 BKN015 OVC025=
201602140545 TAF KPAE 140545Z 1406/1506 17015G25KT P6SM OVC006 FM140900 17010KT
                       4SM BR OVC006 FM141700 17010KT P6SM SCT006
                       BKN011 OVC020 FM142300 17014KT P6SM -RA
                       SCT008 BKN015 OVC025=
201602132338 TAF KPAE 132338Z 1400/1424 18016G26KT P6SM -RA SCT012 BKN020 OVC035
                       FM140200 18015G24KT P6SM VCSH SCT012 OVC018
                       FM140900 17009KT 6SM -RA BR SCT008 OVC012
                       FM141400 18011G18KT P6SM VCSH BKN012 OVC030=
201602131738 TAF KPAE 131738Z 1318/1418 18014G22KT P6SM SCT010 BKN020 OVC100
                       FM132000 16012G20KT P6SM -RA SCT015 OVC030
                       FM132200 17016G26KT 6SM -RA BR SCT012 BKN020
                       OVC030 FM140200 18018G26KT P6SM VCSH SCT012
                       OVC020 FM140900 17010KT 6SM -RA BR OVC012=
201602131133 TAF KPAE 131133Z 1312/1412 19012G18KT P6SM SCT022 BKN040
                      TEMPO 1312/1315 -SHRA BKN022 OVC040 FM131500
                       17012KT P6SM SCT025 BKN045 FM132000 16012G20KT
                       P6SM -RA OVC040 FM140200 16012G20KT 5SM
                       -RA SCT010 OVC018=
201602130533 TAF KPAE 130533Z 1306/1406 19014G22KT P6SM SCT060 FM130900 18012G18KT
                       P6SM SCT025 BKN045
                      TEMPO 1309/1313 -SHRA BKN025 OVC045 FM131300
                       17010KT P6SM SCT025 BKN045 FM132000 16012G20KT
                       P6SM -RA OVC040 FM140000 16012G20KT 5SM
                       -RA SCT010 OVC018=
201602130215 TAF AMD KPAE 130215Z 1302/1324 19016KT P6SM FEW030 BKN200
                      TEMPO 1302/1304 19015G25KT FM130900 18011G18KT
                       5SM -SHRA BR SCT010 BKN018 OVC030 FM131100
                       17010KT P6SM BKN018 OVC030 FM132000 17015G24KT
                       6SM -RA BR SCT018 OVC030=
201602122339 TAF KPAE 122339Z 1300/1324 19016G25KT P6SM SCT025 SCT035 FM130900
                       18011G18KT 5SM -SHRA BR SCT010 BKN018 OVC030
                       FM131100 17010KT P6SM BKN018 OVC030 FM132000
                       17015G24KT 6SM -RA BR SCT018 OVC030=
201602121735 TAF KPAE 121735Z 1218/1318 17012G22KT 3SM -RA BR BKN008 OVC014
                       FM122000 19016G25KT P6SM VCSH SCT012 BKN025
                       FM130800 18011G18KT 6SM -RA BR SCT010 BKN015
                       OVC025 FM131400 16010KT P6SM VCSH SCT012
                       OVC020=
201602121130 TAF KPAE 121130Z 1212/1312 15014KT P6SM -RA SCT006 OVC045
                      TEMPO 1212/1215 5SM -RA BR BKN006 OVC045
                       FM121800 18014KT P6SM VCSH SCT025 BKN040
                       BKN060 FM122200 18010KT P6SM -SHRA SCT012
                       BKN022 OVC035=
201602120533 TAF KPAE 120533Z 1206/1306 14008KT P6SM -RA SCT025 BKN050 OVC100
                       FM121500 17012KT 4SM -RA BR OVC025 FM121900
                       19014KT P6SM VCSH SCT030 BKN050 FM122200
                       19010KT P6SM -SHRA BKN025 OVC040=
201602112322 TAF KPAE 112322Z 1200/1224 16007KT P6SM -RA OVC050 FM120400 16010KT
                       5SM -RA OVC035 FM121300 17012KT 4SM -RA
                       BR OVC025 FM121600 18014G22KT P6SM -SHRA
                       BKN025 BKN040 FM122100 19014G22KT P6SM VCSH
                       SCT030 BKN050=
201602111724 TAF KPAE 111724Z 1118/1218 15003KT P6SM -RA OVC050 FM120400 16010KT
                       5SM -RA OVC035 FM121300 18012G18KT 4SM -RA
                       BR OVC025=
201602111131 TAF KPAE 111131Z 1112/1212 10006KT P6SM BKN120 OVC200 FM111700
                       12008KT P6SM BKN050 OVC090 FM112100 14010KT
                       P6SM -RA OVC040 FM120400 16010KT 5SM -RA
                       OVC025=
201602110907 TAF AMD KPAE 110907Z 1109/1206 15006KT P6SM SCT015 BKN200
                      TEMPO 1109/1112 4SM BR FM111600 12008KT P6SM
                       SCT015 BKN050 FM112100 14010KT P6SM -RA
                       OVC045 FM120200 16010KT 5SM -RA OVC035=
201602110520 TAF KPAE 110520Z 1106/1206 15006KT P6SM OVC015 FM110900 12006KT
                       P6SM BKN018 BKN050 FM111300 12008KT P6SM
                       BKN050 FM112100 14010KT P6SM -RA OVC045
                       FM120200 16010KT 5SM -RA OVC035=
201602110317 TAF AMD KPAE 110317Z 1103/1124 20008KT P6SM SCT011 SCT050
                      TEMPO 1103/1106 BKN011 BKN050 FM110600 VRB04KT
                       P6SM BKN020 OVC050 FM111500 04005KT P6SM
                       OVC050 FM112200 04005KT 5SM -RA BR OVC035=
201602102332 TAF KPAE 102332Z 1100/1124 16017G22KT P6SM -SHRA BKN025 OVC050
                       FM110200 16007KT P6SM VCSH BKN035 BKN070
                       FM110900 VRB04KT P6SM BKN030 OVC050 FM111500
                       04005KT P6SM OVC050 FM112200 04005KT 5SM
                       -RA BR OVC035=
201602102205 TAF AMD KPAE 102205Z 1022/1118 16015G21KT P6SM VCSH SCT025 BKN090
                       FM110200 16007KT P6SM VCSH BKN025 OVC060
                       FM111500 05004KT P6SM OVC050=
201602102021 TAF AMD KPAE 102021Z 1020/1118 16015G19KT P6SM VCSH BKN005 OVC028
                       FM102200 17010KT P6SM VCSH OVC035 FM110200
                       16007KT P6SM VCSH BKN025 OVC040 FM111500
                       05004KT P6SM OVC050=
201602101734 TAF KPAE 101734Z 1018/1118 16009KT P6SM -RA OVC070 FM102100 17010KT
                       P6SM -RA OVC045 FM110200 16007KT P6SM VCSH
                       BKN025 OVC040 FM111500 05004KT P6SM OVC050=
201602101120 TAF KPAE 101120Z 1012/1112 15005KT P6SM BKN120 BKN200 FM102100
                       18008KT P6SM BKN060 BKN120 FM110600 15006KT
                       P6SM BKN050 BKN100=
201602100648 TAF KPAE 100648Z 1007/1106 17008KT P6SM SCT250 FM101200 17008KT
                       P6SM OVC120 FM101800 17010KT P6SM OVC060
                       FM102000 18010KT P6SM OVC040
                      TEMPO 1020/1024 -RA=
201602092320 TAF KPAE 092320Z 1000/1024 17008KT P6SM SCT250 FM101200 17008KT
                       P6SM OVC120 FM101800 17010KT P6SM OVC060
                       FM102000 18010KT P6SM OVC040
                      TEMPO 1020/1024 -RA=
201602091729 TAF KPAE 091729Z 0918/1018 18003KT P6SM BKN250 FM100200 16006KT
                       P6SM BKN250 FM101200 17008KT P6SM OVC120=
201602091555 TAF AMD KPAE 091555Z 0916/1012 13003KT P6SM BKN250 FM092000 10007KT
                       P6SM BKN250=
201602091120 TAF KPAE 091120Z 0912/1012 02005KT P6SM SCT250
                      TEMPO 0912/0916 2SM BR FM092000 10007KT P6SM
                       BKN250=
201602090520 TAF KPAE 090520Z 0906/1006 VRB03KT P6SM SCT250=
201602082320 TAF KPAE 082320Z 0900/0924 01005KT P6SM SCT250 FM090400 VRB03KT
                       P6SM SCT250=
201602081726 TAF KPAE 081726Z 0818/0918 VRB04KT P6SM SCT250=
201602081120 TAF KPAE 081120Z 0812/0912 02003KT P6SM SCT200 FM082000 36003KT
                       P6SM SCT250=
201602080520 TAF KPAE 080520Z 0806/0906 01005KT P6SM FEW035 BKN070 FM080800
                       VRB03KT P6SM SCT050 SCT080 OVC200 FM081100
                       VRB03KT 3SM BR SCT003 BKN200 FM082000 VRB03KT
                       P6SM BKN250=
201602072341 TAF KPAE 072341Z 0800/0824 01005KT P6SM FEW035 BKN050 OVC080 FM080800
                       VRB03KT P6SM SCT050 SCT080 OVC200 FM081100
                       VRB03KT 3SM BR SCT003 BKN200
                      TEMPO 0813/0817 1/2SM FG VV001 FM082000 VRB03KT
                       P6SM BKN250=
201602072131 TAF AMD KPAE 072131Z 0722/0818 01005KT P6SM SCT035 BKN080 OVC120
                       TEMPO 0722/0724 BKN035 OVC060 FM080200 VRB03KT
                       P6SM SCT120 BKN200 FM080800 VRB03KT P6SM
                       SCT200 FM081100 VRB03KT 3SM MIFG SKC
                      TEMPO 0812/0816 1/2SM FG VV001=
201602071745 TAF KPAE 071745Z 0718/0818 11007KT P6SM OVC080 FM072200 07005KT
                       P6SM BKN080 OVC120 FM080200 VRB03KT P6SM
                       SCT120 BKN200 FM080800 VRB03KT P6SM SCT200
                       FM081100 VRB03KT 3SM MIFG SKC
                      TEMPO 0812/0816 1/2SM FG VV001=
201602071120 TAF KPAE 071120Z 0712/0812 13004KT P6SM BKN100 FM071500 13005KT
                       P6SM OVC060 FM071800 11005KT P6SM VCSH OVC040
                       FM080000 10005KT P6SM SCT040 BKN090 FM080400
                       03003KT P6SM SCT050 BKN200=
201602070520 TAF KPAE 070520Z 0706/0806 13004KT P6SM SCT120 FM071500 13005KT
                       P6SM OVC060 FM071800 11005KT P6SM VCSH OVC040
                       FM080000 06005KT P6SM BKN050 FM080400 03003KT
                       P6SM SCT050 BKN200=
201602062337 TAF KPAE 062337Z 0700/0724 18005KT P6SM SCT020 SCT040 BKN200
                      TEMPO 0700/0701 BKN020 OVC040 FM070300 13004KT
                       P6SM BKN120 FM071500 13005KT P6SM VCSH OVC060
                       FM071800 11005KT P6SM VCSH OVC030
                      TEMPO 0719/0723 -RA=
201602061738 TAF KPAE 061738Z 0618/0718 19005KT P6SM BKN015 OVC050 FM062000
                       18005KT P6SM SCT020 SCT050 BKN200
                      TEMPO 0620/0622 BKN020 BKN050 OVC200 FM070100
                       13004KT P6SM BKN120 FM071600 13005KT P6SM
                       SCT035 OVC060
                      PROB30 0716/0718 -RA=
201602061120 TAF KPAE 061120Z 0612/0712 18008KT P6SM SCT020 OVC100 FM061400
                       19008KT P6SM VCSH SCT025 BKN040 OVC100 FM070100
                       11005KT P6SM SCT040 OVC100=
201602060520 TAF KPAE 060520Z 0606/0706 20020G33KT P6SM SCT015 BKN025 OVC040
                       FM060900 18008KT 5SM -SHRA SCT010 BKN020
                       OVC035 FM061400 19008KT P6SM VCSH SCT025
                       BKN040 OVC100 FM070100 11005KT P6SM SCT025
                       BKN040 OVC100=
201602052328 TAF KPAE 052328Z 0600/0624 18015G28KT P6SM -RA SCT020 OVC035
                      TEMPO 0600/0603 3SM RA FM060300 21014G25KT
                       6SM -SHRA BR SCT013 BKN023 OVC040 FM060600
                       18008KT 5SM -SHRA SCT010 BKN020 OVC035 FM061400
                       19008KT P6SM VCSH SCT025 BKN040 OVC100=
201602051735 TAF KPAE 051735Z 0518/0618 16012G18KT P6SM OVC100 FM060000 17020G30KT
                       6SM -RA SCT023 OVC035
                      TEMPO 0600/0604 3SM RA BR SCT013 OVC023 FM060400
                       21018G30KT 6SM -SHRA BR SCT013 BKN023 OVC040
                       FM061000 22014G24KT P6SM VCSH SCT030 BKN080
                       FM061400 19008KT P6SM VCSH SCT030 BKN050
                       OVC100=
201602051121 TAF KPAE 051121Z 0512/0612 14010KT P6SM BKN100 FM051700 16014G22KT
                       P6SM SCT050 OVC070 FM052000 16016G26KT P6SM
                       OVC040 FM052300 16018G28KT P6SM SCT020 OVC030
                       FM060100 18020G30KT 5SM -RA BR OVC020 FM060800
                       23012KT P6SM -RA SCT020 BKN050=
201602050526 TAF KPAE 050526Z 0506/0606 14007KT P6SM BKN010 BKN100 FM050800
                       15011G18KT P6SM BKN100 FM051700 16014G22KT
                       P6SM SCT050 OVC070 FM052000 16016G26KT P6SM
                       OVC040 FM052300 16018G28KT P6SM -RA SCT020
                       OVC030 FM060100 18020G30KT 5SM -RA BR OVC020=
201602050216 TAF AMD KPAE 050216Z 0502/0524 VRB04KT P6SM BKN015 OVC050 FM050500
                       14007KT P6SM SCT020 BKN050 FM050800 15011G18KT
                       P6SM BKN100 FM051700 16014G22KT P6SM SCT050
                       OVC070
                      TEMPO 0517/0520 -RA FM052000 16016G26KT 5SM
                       -RA BR OVC040 FM052300 16012G22KT 3SM RA
                       BR SCT020 OVC030=
201602042323 TAF KPAE 042323Z 0500/0524 15007KT P6SM SCT015 OVC050
                      TEMPO 0500/0502 -RA FM050500 14007KT P6SM
                       SCT020 BKN050 FM050800 15011G18KT P6SM BKN100
                       FM051700 16014G22KT P6SM SCT050 OVC070
                      TEMPO 0517/0520 -RA FM052000 16016G26KT 5SM
                       -RA BR OVC040 FM052300 16012G22KT 3SM RA
                       BR SCT020 OVC030=
201602041751 TAF KPAE 041751Z 0418/0518 18006KT P6SM OVC015 FM042000 17007KT
                       P6SM -RA OVC012 FM050100 15008KT P6SM SCT015
                       BKN020 FM050500 14011KT P6SM SCT035 BKN100
                       FM051600 15016G25KT P6SM SCT040 OVC060=
201602041120 TAF KPAE 041120Z 0412/0512 18010KT P6SM SCT015 OVC035 FM042100
                       16009KT P6SM -RA OVC015 FM050000 16011KT
                       P6SM SCT025 BKN040 FM050800 17012KT P6SM
                       SCT040 BKN080=
201602040524 TAF KPAE 040524Z 0406/0506 19015G24KT P6SM VCSH OVC010
                      TEMPO 0409/0411 5SM -SHRA BR OVC005 FM041100
                       17010KT P6SM VCSH SCT010 OVC015 FM042100
                       16009KT P6SM -RA SCT015 BKN025 OVC040 FM050000
                       16010KT P6SM SCT025 BKN040=
201602032354 TAF KPAE 032354Z 0400/0424 16012G20KT 6SM -RA BR SCT025 BKN035
                       OVC045 FM040400 19015G24KT P6SM VCSH SCT012
                       BKN018 OVC030
                      TEMPO 0409/0411 5SM -SHRA BR BKN012 OVC018
                       FM041100 17010KT P6SM VCSH SCT012 BKN020
                       OVC035 FM042200 16009KT P6SM -RA SCT018
                       BKN030 OVC040=
201602031751 TAF KPAE 031751Z 0318/0418 14006KT P6SM SCT045 OVC060 FM032000
                       15009KT P6SM -RA SCT035 OVC045 FM032300
                       15012G20KT 5SM -RA BR SCT025 OVC035 FM040300
                       19015G24KT P6SM VCSH SCT012 BKN018 OVC030
                       TEMPO 0409/0413 5SM -SHRA BR BKN012 OVC018
                       FM041600 16008KT P6SM VCSH SCT015 BKN025=
201602031142 TAF KPAE 031142Z 0312/0412 13010KT P6SM OVC035 FM032000 13010KT
                       P6SM -RA OVC035 FM040100 18010KT 5SM -RA
                       BR OVC020 FM040500 18008KT P6SM -SHRA BKN010
                       OVC020=
201602030538 TAF KPAE 030538Z 0306/0406 12006KT P6SM OVC050 FM032000 14010KT
                       P6SM -RA OVC035 FM040200 18010KT 5SM -RA
                       BR OVC020=
201602022327 TAF KPAE 022327Z 0300/0324 18004KT P6SM FEW030 SCT140 SCT250 FM030400
                       12006KT P6SM SCT050 BKN100 OVC200 FM031200
                       15011KT P6SM SCT050 OVC080 FM031800 16014KT
                       P6SM -RA OVC050 FM032200 16015G22KT 6SM
                       -RA BR OVC035=
201602021720 TAF KPAE 021720Z 0218/0318 11003KT P6SM BKN200 FM030400 12006KT
                       P6SM SCT050 BKN200 FM031200 16010KT P6SM
                       SCT045 OVC080=
201602021446 TAF AMD KPAE 021446Z 0215/0312 12006KT P6SM BKN019 BKN040 FM021800
                       13006KT P6SM SCT050 BKN200=
201602021139 TAF KPAE 021139Z 0212/0312 11006KT P6SM BKN040 FM021900 13006KT
                       P6SM SCT050 BKN200=
201602020540 TAF KPAE 020540Z 0206/0306 15008KT P6SM BKN040 BKN070 FM021000
                       11006KT P6SM SCT050 BKN100 OVC200 FM030000
                       16006KT P6SM BKN060 OVC100=
201602012324 TAF KPAE 012324Z 0200/0224 22005KT P6SM SCT019 SCT029 SCT040
                      TEMPO 0200/0204 SCT019 BKN029 OVC040 FM020400
                       14005KT P6SM SCT035 BKN200 FM021200 11006KT
                       P6SM OVC100 FM022300 16006KT P6SM OVC060=
201602012214 TAF AMD KPAE 012214Z 0122/0218 17009KT P6SM FEW017 BKN035 OVC060
                       FM020100 16006KT P6SM SCT035 OVC060 FM020400
                       11006KT P6SM SCT050 BKN200 FM021200 11006KT
                       P6SM OVC100=
201602012102 KPAE 012102Z 0121/0218 17006KT P6SM SCT018 BKN027 OVC060 FM012300
                       16006KT P6SM SCT027 OVC060 FM020400 11006KT
                       P6SM SCT050 BKN200 FM021200 11006KT P6SM
                       OVC100=
201602011728 TAF KPAE 011728Z 0118/0218 18006KT P6SM SCT002 BKN008 BKN030 FM012000
                       18006KT P6SM SCT010 BKN030 BKN050 FM012100
                       VRB03KT P6SM SCT030 BKN050 FM020400 11006KT
                       P6SM SCT050 BKN200 FM021200 11006KT P6SM
                       OVC100=
201602011533 TAF AMD KPAE 011533Z 0116/0212 15005KT 3SM BR SCT002 OVC025
                      TEMPO 0116/0118 1/2SM FG VV002 FM012100 VRB03KT
                       P6SM SCT025 BKN050 FM020400 11006KT P6SM
                       SCT050 BKN200=
201602011138 TAF KPAE 011138Z 0112/0212 VRB03KT P6SM SCT018 OVC030 FM012100
                       VRB03KT P6SM SCT025 BKN050 FM020400 11006KT
                       P6SM SCT050 BKN200=
201602010533 TAF KPAE 010533Z 0106/0206 VRB03KT P6SM SCT010 BKN018 OVC040
                      TEMPO 0106/0110 -SHRA FM011900 17005KT P6SM
                       BKN025 BKN050 FM012200 19006KT P6SM SCT025
                       BKN050 FM020400 11006KT P6SM SCT050 BKN200=