##########################################################
# Query made at 02/15/2025 21:25:31 UTC
# Time interval: from 10/01/2016 00:00  to 10/31/2016 23:59  UTC
##########################################################

##########################################################
# KPAE, Everett, Snohomish County Airport (United States)
# WMO index: -----. WIGOS ID: Unknown
# Latitude 47-55-23N. Longitude 122-16-57W. Altitude 184 m.
##########################################################

###################################
#  METAR/SPECI from KPAE
###################################
201610312353 METAR KPAE 312353Z 11006KT 10SM BKN027 OVC033 10/08 A2982 RMK AO2 SLP098 60007 T01000078 10117 20100 52001=
201610312351 SPECI KPAE 312351Z 11006KT 10SM BKN029 OVC038 10/08 A2982 RMK AO2=
201610312253 METAR KPAE 312253Z 10006KT 10SM SCT024 BKN032 OVC039 11/08 A2982 RMK AO2 SLP097 T01060083=
201610312221 SPECI KPAE 312221Z 06005KT 10SM SCT022 OVC036 11/08 A2982 RMK AO2 T01110078=
201610312153 METAR KPAE 312153Z VRB03KT 10SM OVC026 11/08 A2982 RMK AO2 RAE32 SLP097 P0001 T01060078=
201610312053 METAR KPAE 312053Z 00000KT 10SM -RA SCT011 OVC019 10/08 A2980 RMK AO2 RAB05 SLP093 P0004 60006 T01000078 51036=
201610312039 SPECI KPAE 312039Z 33009KT 10SM -RA SCT009 BKN019 OVC024 11/09 A2980 RMK AO2 RAB05 P0002 T01060089=
201610312011 SPECI KPAE 312011Z 22014G21KT 10SM -RA SCT018 BKN023 OVC060 12/09 A2978 RMK AO2 RAB05 P0000 T01170089=
201610312000 SPECI KPAE 312000Z 20013G21KT 10SM SCT021 OVC060 12/09 A2978 RMK AO2 T01170089=
201610311953 METAR KPAE 311953Z 21016KT 10SM BKN013 BKN075 OVC090 11/09 A2978 RMK AO2 PK WND 20027/1857 RAB13E28B39E53 SLP083 P0000 T01110089=
201610311937 SPECI KPAE 311937Z 20015G24KT 10SM BKN013 BKN075 OVC090 11/09 A2976 RMK AO2 PK WND 20027/1857 RAB13E28 P0000 T01110089=
201610311930 SPECI KPAE 311930Z 21016G24KT 10SM SCT013 BKN075 OVC090 11/08 A2976 RMK AO2 PK WND 20027/1857 RAB13E28 P0000 T01110083=
201610311900 SPECI KPAE 311900Z 20021G27KT 10SM BKN013 BKN075 OVC100 11/09 A2974 RMK AO2 PK WND 20027/1857 T01110089=
201610311853 METAR KPAE 311853Z 20020G25KT 10SM OVC009 11/09 A2973 RMK AO2 PK WND 20029/1811 RAE28 SLP068 P0002 T01110089=
201610311753 METAR KPAE 311753Z 20018G33KT 10SM -RA OVC009 11/09 A2969 RMK AO2 PK WND 20033/1744 CIG 007V014 SLP056 P0009 60019 T01110094 10111 20100 53018=
201610311653 METAR KPAE 311653Z 17011KT 10SM -RA BKN006 OVC015 11/09 A2967 RMK AO2 SLP048 P0007 T01060089=
201610311553 METAR KPAE 311553Z 16015KT 10SM -RA BKN008 BKN016 OVC070 11/09 A2965 RMK AO2 RAB16 SLP042 P0003 T01060089=
201610311524 SPECI KPAE 311524Z 16013KT 10SM -RA BKN008 BKN024 OVC034 10/09 A2964 RMK AO2 RAB16 P0000 T01000089=
201610311512 SPECI KPAE 311512Z 16012KT 10SM FEW007 FEW024 OVC032 11/09 A2964 RMK AO2 T01060089=
201610311453 METAR KPAE 311453Z 15012KT 10SM FEW009 BKN026 OVC032 11/08 A2964 RMK AO2 SLP038 60000 T01060083 51009=
201610311353 METAR KPAE 311353Z 16011KT 10SM BKN026 OVC085 11/08 A2963 RMK AO2 RAB1259E09 SLP036 P0000 T01060083=
201610311302 SPECI KPAE 311302Z AUTO 15005KT 10SM -RA BKN021 OVC029 11/09 A2963 RMK AO2 RAB1259 P0000 T01060089=
201610311253 METAR KPAE 311253Z AUTO 15007KT 10SM SCT021 BKN031 OVC060 11/09 A2963 RMK AO2 SLP034 T01060089=
201610311241 SPECI KPAE 311241Z AUTO 15008KT 10SM SCT026 BKN034 OVC100 11/09 A2962 RMK AO2 T01060089=
201610311153 METAR KPAE 311153Z AUTO VRB04KT 10SM BKN029 OVC036 11/09 A2961 RMK AO2 RAB1059E27B38E48 SLP029 P0000 60002 70016 T01060089 10111 20100 53005=
201610311134 SPECI KPAE 311134Z AUTO 15007KT 10SM OVC029 11/09 A2961 RMK AO2 RAB1059E27 P0000 T01060089=
201610311053 METAR KPAE 311053Z AUTO 15008KT 10SM FEW032 OVC046 11/09 A2961 RMK AO2 RAB03E42 SLP026 P0000 T01060089=
201610310953 METAR KPAE 310953Z AUTO VRB06KT 10SM OVC033 11/09 A2960 RMK AO2 SLP024 T01110089=
201610310853 METAR KPAE 310853Z AUTO VRB04KT 10SM FEW028 BKN042 OVC050 11/09 A2960 RMK AO2 RAE03 SLP024 P0000 60002 T01060089 53002=
201610310848 SPECI KPAE 310848Z AUTO VRB05KT 10SM SCT028 BKN040 OVC050 11/09 A2960 RMK AO2 RAE03 P0000=
201610310816 SPECI KPAE 310816Z AUTO 00000KT 10SM BKN029 OVC041 10/09 A2959 RMK AO2 RAE03 P0000 T01000089=
201610310801 SPECI KPAE 310801Z AUTO VRB03KT 10SM -RA FEW002 BKN031 OVC047 10/09 A2959 RMK AO2 P0000 T01000089=
201610310753 METAR KPAE 310753Z AUTO 15005KT 10SM -RA FEW002 BKN029 OVC046 10/09 A2959 RMK AO2 SLP022 P0002 T01000089 401000061=
201610310742 SPECI KPAE 310742Z AUTO 15007KT 10SM -RA FEW002 BKN029 OVC048 10/09 A2959 RMK AO2 P0001 T01000089=
201610310725 SPECI KPAE 310725Z AUTO 15007KT 10SM -RA SCT004 BKN039 OVC060 10/09 A2959 RMK AO2 P0001 T01000089=
201610310653 METAR KPAE 310653Z AUTO 16010KT 10SM -RA OVC003 10/09 A2959 RMK AO2 RAB23 SLP022 P0000 T01000089=
201610310622 SPECI KPAE 310622Z AUTO 16010KT 10SM BKN004 BKN016 OVC050 10/08 A2959 RMK AO2 T01000083=
201610310553 METAR KPAE 310553Z AUTO 17007KT 10SM SCT003 OVC016 10/09 A2958 RMK AO2 RAE28 SLP016 P0001 60013 T01000089 10100 20089 53007=
201610310531 SPECI KPAE 310531Z AUTO 24006KT 10SM FEW004 BKN018 OVC024 10/09 A2958 RMK AO2 RAE28 P0001 T01000089=
201610310510 SPECI KPAE 310510Z AUTO 15007KT 10SM -RA BKN022 BKN028 OVC050 10/08 A2956 RMK AO2 P0001 T01000083=
201610310453 METAR KPAE 310453Z AUTO 16006KT 10SM -RA SCT026 BKN032 OVC055 10/08 A2955 RMK AO2 SLP009 P0002 T01000083=
201610310353 METAR KPAE 310353Z AUTO 11003KT 10SM -RA SCT032 BKN039 OVC055 09/08 A2955 RMK AO2 SLP008 P0004 T00940083=
201610310253 METAR KPAE 310253Z 02003KT 10SM -RA FEW040 OVC060 09/08 A2956 RMK AO2 SLP010 P0003 60006 T00890078 55001=
201610310153 METAR KPAE 310153Z 01003KT 10SM -RA OVC060 09/08 A2955 RMK AO2 SLP008 P0003 T00890078=
201610310053 METAR KPAE 310053Z 03003KT 10SM -RA OVC060 09/07 A2955 RMK AO2 RAB2356 SLP007 P0000 T00940072=
201610302353 METAR KPAE 302353Z 35006KT 10SM OVC055 09/07 A2956 RMK AO2 SLP010 60001 T00940067 10100 20078 56023=
201610302253 METAR KPAE 302253Z 01004KT 10SM OVC060 09/07 A2957 RMK AO2 RAE20 SLP014 P0000 T00940067=
201610302153 METAR KPAE 302153Z 01006KT 10SM -RA OVC075 09/07 A2960 RMK AO2 SLP024 P0001 T00940072=
201610302053 METAR KPAE 302053Z 01005KT 10SM -RA BKN070 BKN085 OVC110 09/06 A2963 RMK AO2 RAB46 SLP034 P0000 60000 T00940061 58025=
201610301953 METAR KPAE 301953Z 35005KT 10SM FEW090 SCT120 09/06 A2965 RMK AO2 SLP041 T00940061=
201610301853 METAR KPAE 301853Z 36004KT 10SM CLR 09/06 A2968 RMK AO2 SLP052 T00890056=
201610301753 METAR KPAE 301753Z 03006KT 10SM CLR 08/06 A2970 RMK AO2 SLP059 T00780056 10089 20061 58025=
201610301653 METAR KPAE 301653Z 02005KT 10SM CLR 07/05 A2975 RMK AO2 SLP074 T00720050=
201610301553 METAR KPAE 301553Z 02004KT 10SM CLR 07/04 A2977 RMK AO2 SLP081 T00720044=
201610301453 METAR KPAE 301453Z 03003KT 10SM CLR 06/04 A2978 RMK AO2 SLP085 T00610044 58021=
201610301353 METAR KPAE 301353Z 00000KT 10SM CLR 06/04 A2980 RMK AO2 SLP092 T00610044=
201610301253 METAR KPAE 301253Z AUTO 08004KT 10SM FEW060 08/04 A2983 RMK AO2 SLP101 T00830039=
201610301153 METAR KPAE 301153Z AUTO 06005KT 10SM CLR 08/04 A2984 RMK AO2 SLP106 70024 T00780044 10094 20067 58017=
201610301053 METAR KPAE 301053Z AUTO 00000KT 10SM CLR 07/05 A2986 RMK AO2 SLP114 T00720050=
201610300953 METAR KPAE 300953Z AUTO 00000KT 10SM CLR 08/05 A2989 RMK AO2 SLP122 T00780050=
201610300853 METAR KPAE 300853Z AUTO 10004KT 10SM CLR 08/06 A2989 RMK AO2 SLP124 T00830056 58010=
201610300753 METAR KPAE 300753Z AUTO 00000KT 10SM CLR 09/06 A2991 RMK AO2 SLP129 T00890056 401390089=
201610300653 METAR KPAE 300653Z AUTO 11007KT 10SM CLR 09/06 A2991 RMK AO2 SLP130 T00940061=
201610300553 METAR KPAE 300553Z AUTO 11006KT 10SM CLR 09/06 A2992 RMK AO2 SLP134 60000 T00940061 10133 20094 58003=
201610300453 METAR KPAE 300453Z AUTO 11007KT 10SM CLR 09/07 A2993 RMK AO2 SLP137 T00940067=
201610300353 METAR KPAE 300353Z AUTO 11006KT 10SM FEW080 10/07 A2994 RMK AO2 SLP140 T01000067=
201610300253 METAR KPAE 300253Z 10005KT 10SM CLR 10/07 A2993 RMK AO2 SLP137 60000 T01000067 57005=
201610300153 METAR KPAE 300153Z 11006KT 10SM FEW065 11/07 A2994 RMK AO2 SLP138 T01110072=
201610300053 METAR KPAE 300053Z VRB03KT 10SM FEW038 SCT075 12/09 A2994 RMK AO2 RAB2359E07 SLP139 P0000 T01220089=
201610292353 METAR KPAE 292353Z 15007KT 110V170 10SM BKN050 BKN065 13/08 A2995 RMK AO2 SLP141 60012 T01280083 10133 20106 53005=
201610292253 METAR KPAE 292253Z 15008KT 10SM CLR 13/09 A2994 RMK AO2 SLP138 T01280089=
201610292153 METAR KPAE 292153Z 15011KT 10SM BKN050 BKN060 12/09 A2993 RMK AO2 SLP137 T01220089=
201610292053 METAR KPAE 292053Z 12006KT 10SM FEW018 SCT050 OVC080 11/09 A2993 RMK AO2 RAE39 SLP136 P0004 60012 T01110089 50003=
201610292015 SPECI KPAE 292015Z 15008KT 10SM -RA SCT021 BKN046 OVC050 11/08 A2994 RMK AO2 P0003 T01060083=
201610291953 METAR KPAE 291953Z 17008KT 10SM RA BKN022 OVC040 11/09 A2994 RMK AO2 SLP140 P0005 T01060089=
201610291927 SPECI KPAE 291927Z 16008KT 10SM -RA BKN026 BKN031 OVC048 11/08 A2994 RMK AO2 P0001 T01060083=
201610291853 METAR KPAE 291853Z 15009KT 10SM -RA BKN034 OVC048 11/08 A2994 RMK AO2 SLP138 P0003 T01060083=
201610291753 METAR KPAE 291753Z 14008G14KT 110V170 10SM -RA FEW042 OVC055 11/08 A2992 RMK AO2 SLP133 P0004 60012 T01110078 10139 20106 51020=
201610291653 METAR KPAE 291653Z 16010KT 10SM -RA BKN060 OVC075 11/08 A2992 RMK AO2 SLP132 P0006 T01110078=
201610291553 METAR KPAE 291553Z 16009KT 6SM RA BKN055 OVC090 12/07 A2990 RMK AO2 RAB15 SLP125 P0002 T01170067=
201610291453 METAR KPAE 291453Z 17007KT 10SM BKN055 13/04 A2986 RMK AO2 SLP112 T01280044 53004=
201610291353 METAR KPAE 291353Z 12003KT 10SM OVC060 13/03 A2985 RMK AO2 SLP108 T01330033=
201610291253 METAR KPAE 291253Z AUTO 00000KT 10SM SCT065 OVC085 13/03 A2985 RMK AO2 SLP108 T01280033=
201610291153 METAR KPAE 291153Z AUTO 00000KT 10SM CLR 12/03 A2985 RMK AO2 SLP108 T01220033 10128 20100 55007=
201610291053 METAR KPAE 291053Z AUTO 11008KT 10SM CLR 12/03 A2985 RMK AO2 SLP106 T01220033=
201610290953 METAR KPAE 290953Z AUTO 11007KT 10SM CLR 12/03 A2987 RMK AO2 SLP113 T01220033=
201610290853 METAR KPAE 290853Z AUTO 11003KT 10SM CLR 12/04 A2987 RMK AO2 SLP115 T01170039 56006=
201610290753 METAR KPAE 290753Z AUTO 00000KT 10SM CLR 11/04 A2988 RMK AO2 SLP118 T01060044 401720100=
201610290653 METAR KPAE 290653Z AUTO 00000KT 10SM CLR 10/04 A2988 RMK AO2 SLP119 T01000044=
201610290553 METAR KPAE 290553Z AUTO 20003KT 10SM CLR 12/04 A2989 RMK AO2 SLP123 T01170039 10156 20117 55005=
201610290453 METAR KPAE 290453Z AUTO 12009KT 10SM CLR 13/04 A2988 RMK AO2 SLP118 T01330039=
201610290353 METAR KPAE 290353Z 10008KT 10SM CLR 13/04 A2989 RMK AO2 SLP121 T01330044=
201610290253 METAR KPAE 290253Z 10008KT 10SM CLR 13/05 A2991 RMK AO2 SLP128 T01330050 58002=
201610290153 METAR KPAE 290153Z 06005KT 10SM CLR 15/07 A2991 RMK AO2 SLP129 T01500067=
201610290053 METAR KPAE 290053Z 03003KT 10SM FEW060 14/07 A2992 RMK AO2 SLP131 T01440072=
201610282353 METAR KPAE 282353Z 00000KT 10SM SCT065 16/06 A2991 RMK AO2 SLP129 T01560061 10172 20122 55002=
201610282253 METAR KPAE 282253Z AUTO 27005KT 10SM CLR 16/08 A2991 RMK AO2 SLP127 T01610083=
201610282153 METAR KPAE 282153Z 21006KT 10SM CLR 17/06 A2992 RMK AO2 SLP130 T01720061=
201610282053 METAR KPAE 282053Z 17005KT 10SM BKN070 16/07 A2992 RMK AO2 SLP131 T01610072 58011=
201610281953 METAR KPAE 281953Z 18004KT 10SM OVC065 14/08 A2994 RMK AO2 SLP138 T01440078=
201610281853 METAR KPAE 281853Z 12006KT 10SM OVC060 14/07 A2995 RMK AO2 SLP140 T01390072=
201610281753 METAR KPAE 281753Z 11007KT 10SM OVC049 12/08 A2995 RMK AO2 SLP144 T01220078 10128 20100 50002=
201610281653 METAR KPAE 281653Z 12006KT 10SM OVC055 12/08 A2996 RMK AO2 SLP145 T01220078=
201610281553 METAR KPAE 281553Z 11008KT 10SM BKN050 11/08 A2995 RMK AO2 SLP143 T01110078=
201610281453 METAR KPAE 281453Z VRB04KT 10SM BKN055 OVC110 10/08 A2995 RMK AO2 SLP142 T01000078 53003=
201610281353 METAR KPAE 281353Z 10007KT 10SM FEW065 10/08 A2994 RMK AO2 SLP138 T01000083=
201610281253 METAR KPAE 281253Z AUTO VRB03KT 10SM FEW037 SCT045 BKN120 11/08 A2994 RMK AO2 SLP140 T01060083=
201610281153 METAR KPAE 281153Z AUTO 15004KT 10SM SCT035 BKN120 11/08 A2994 RMK AO2 SLP139 60001 70009 T01060083 10111 20106 51008=
201610281053 METAR KPAE 281053Z AUTO VRB03KT 10SM FEW035 FEW050 BKN060 11/08 A2994 RMK AO2 SLP138 T01060083=
201610280953 METAR KPAE 280953Z AUTO 15009KT 10SM SCT060 11/08 A2992 RMK AO2 SLP134 T01110078=
201610280853 METAR KPAE 280853Z AUTO VRB03KT 10SM FEW026 FEW034 SCT050 11/08 A2991 RMK AO2 RAB11E27 SLP130 P0000 60001 T01110083 51006=
201610280753 METAR KPAE 280753Z AUTO 15004KT 10SM BKN040 OVC047 11/08 A2991 RMK AO2 SLP128 T01110083 401330106=
201610280653 METAR KPAE 280653Z AUTO 16007KT 10SM SCT031 BKN040 OVC055 11/08 A2990 RMK AO2 RAB17E46 SLP126 P0001 T01110083=
201610280640 SPECI KPAE 280640Z AUTO 16009KT 10SM -RA BKN031 BKN040 OVC055 11/08 A2990 RMK AO2 RAB17 P0000 T01110083=
201610280627 SPECI KPAE 280627Z AUTO 17008KT 10SM -RA BKN029 BKN036 OVC043 11/08 A2990 RMK AO2 RAB17 P0000 T01110083=
201610280553 METAR KPAE 280553Z AUTO 15008KT 10SM BKN041 OVC060 11/08 A2990 RMK AO2 SLP124 60007 T01060083 10122 20106 53011=
201610280453 METAR KPAE 280453Z AUTO 16009KT 10SM BKN045 OVC055 11/08 A2988 RMK AO2 SLP119 T01110083=
201610280353 METAR KPAE 280353Z AUTO 16010KT 10SM SCT070 BKN095 BKN120 11/08 A2987 RMK AO2 RAE52 SLP114 P0001 T01060083=
201610280253 METAR KPAE 280253Z 17012KT 10SM -RA FEW048 OVC060 11/09 A2986 RMK AO2 SLP113 P0004 60006 T01110089 51007=
201610280153 METAR KPAE 280153Z 19006KT 10SM -RA BKN016 OVC021 12/09 A2986 RMK AO2 RAB25 SLP112 P0002 T01170094=
201610280137 SPECI KPAE 280137Z 16007KT 10SM -RA BKN021 BKN028 OVC033 12/09 A2986 RMK AO2 RAB25 P0000 T01220094=
201610280053 METAR KPAE 280053Z 16007KT 10SM SCT030 BKN045 OVC120 12/09 A2985 RMK AO2 RAB23E37 SLP108 P0000 T01220094=
201610272353 METAR KPAE 272353Z 16007KT 10SM OVC050 12/09 A2984 RMK AO2 RAE50 SLP106 P0001 60001 T01220089 10133 20117 53001=
201610272253 METAR KPAE 272253Z 19017KT 10SM -RA FEW027 BKN080 OVC095 13/08 A2984 RMK AO2 RAB38 SLP104 P0000 T01280083=
201610272243 SPECI KPAE 272243Z AUTO 19017KT 10SM -RA SCT025 BKN075 OVC110 13/08 A2984 RMK AO2 RAB38 P0000 T01330083=
201610272229 SPECI KPAE 272229Z 20014G22KT 10SM SCT023 BKN028 OVC100 13/08 A2984 RMK AO2 T01330083=
201610272153 METAR KPAE 272153Z 18011KT 10SM SCT022 BKN039 OVC055 13/08 A2983 RMK AO2 SLP102 T01330083=
201610272053 METAR KPAE 272053Z 17011KT 10SM SCT020 BKN100 13/08 A2984 RMK AO2 SLP104 T01280083 56002=
201610271953 METAR KPAE 271953Z 18011KT 10SM FEW100 13/08 A2984 RMK AO2 SLP105 T01280083=
201610271853 METAR KPAE 271853Z 15007KT 10SM OVC080 12/08 A2984 RMK AO2 SLP105 T01220078=
201610271753 METAR KPAE 271753Z 16009KT 10SM OVC070 12/08 A2984 RMK AO2 RAB40E49 SLP106 P0000 60000 T01170078 10122 20111 55000=
201610271653 METAR KPAE 271653Z 17010KT 10SM OVC065 12/07 A2984 RMK AO2 SLP105 T01170072=
201610271553 METAR KPAE 271553Z 17010KT 10SM OVC070 12/07 A2984 RMK AO2 SLP106 T01170072=
201610271453 METAR KPAE 271453Z 16014KT 10SM FEW036 BKN060 OVC070 12/07 A2984 RMK AO2 RAB22E32 SLP106 P0000 60000 T01170067 53000=
201610271353 METAR KPAE 271353Z 16012KT 10SM OVC050 11/07 A2985 RMK AO2 SLP106 T01110067=
201610271253 METAR KPAE 271253Z AUTO 16011KT 10SM FEW035 OVC060 11/07 A2984 RMK AO2 SLP104 T01110072=
201610271153 METAR KPAE 271153Z AUTO 15007KT 10SM BKN042 OVC055 12/08 A2984 RMK AO2 SLP106 60003 70079 T01170078 10128 20117 55000=
201610271053 METAR KPAE 271053Z AUTO 15011KT 10SM SCT042 OVC060 12/09 A2984 RMK AO2 SLP106 T01170089=
201610270953 METAR KPAE 270953Z AUTO 15007G14KT 100V160 10SM BKN042 BKN050 12/09 A2984 RMK AO2 SLP104 T01220094=
201610270853 METAR KPAE 270853Z AUTO 14008KT 110V190 10SM CLR 12/09 A2984 RMK AO2 SLP106 60003 T01170094 50001=
201610270753 METAR KPAE 270753Z AUTO 16014KT 10SM CLR 12/09 A2985 RMK AO2 SLP109 T01170094 401390100=
201610270653 METAR KPAE 270653Z AUTO 17015G24KT 10SM SCT070 OVC110 12/09 A2984 RMK AO2 PK WND 17027/0643 RAE49 SLP106 P0003 T01170089=
201610270553 METAR KPAE 270553Z AUTO 18021G26KT 10SM -RA OVC065 13/10 A2984 RMK AO2 PK WND 18026/0553 SLP106 P0003 60013 T01280100 10139 20122 51012=
201610270453 METAR KPAE 270453Z AUTO 18016G22KT 10SM -RA FEW018 OVC065 13/11 A2983 RMK AO2 SLP102 P0005 T01330111=
201610270353 METAR KPAE 270353Z 18014G20KT 10SM -RA OVC070 14/12 A2982 RMK AO2 SLP099 P0002 T01390122=
201610270302 SPECI KPAE 270302Z 18010KT 10SM -RA FEW009 FEW055 OVC090 14/12 A2981 RMK AO2 P0000 T01390122=
201610270253 METAR KPAE 270253Z 17010KT 10SM -RA FEW044 OVC090 14/12 A2981 RMK AO2 RAB02 SLP094 P0000 60003 T01390122 53008=
201610270206 SPECI KPAE 270206Z 15014G19KT 10SM -RA SCT009 BKN090 OVC110 14/12 A2979 RMK AO2 RAB02 P0000 T01390122=
201610270153 METAR KPAE 270153Z 15014G21KT 10SM FEW003 BKN009 OVC090 14/12 A2980 RMK AO2 RAE16 CIG 006V011 SLP089 P0001 T01390122=
201610270144 SPECI KPAE 270144Z 15012G20KT 10SM SCT003 BKN009 OVC110 14/12 A2979 RMK AO2 RAE16 CIG 007V013 P0001 T01390122=
201610270100 SPECI KPAE 270100Z VRB04KT 3/4SM R16R/P6000FT -RA BR BKN004 OVC009 12/11 A2979 RMK AO2 CIG 003V007 P0001 T01220111=
201610270053 METAR KPAE 270053Z 11009KT 10SM -RA OVC005 12/11 A2979 RMK AO2 RAB03 CIG 003V010 SLP087 P0002 T01220111=
201610270005 SPECI KPAE 270005Z VRB04KT 10SM -RA BKN009 BKN015 OVC030 13/11 A2979 RMK AO2 RAB03 CIG 006V012 P0000 T01280111=
201610262353 METAR KPAE 262353Z 12007KT 10SM FEW011 BKN020 OVC030 12/11 A2978 RMK AO2 RAE20 SLP086 P0005 60028 T01220111 10133 20106 50000=
201610262336 SPECI KPAE 262336Z 12007KT 10SM SCT006 OVC019 13/12 A2979 RMK AO2 RAE20 P0005 T01280117=
201610262253 METAR KPAE 262253Z VRB06G14KT 5SM R16R/4500VP6000FT RA BR OVC006 13/11 A2979 RMK AO2 SLP090 P0011 T01280111=
201610262220 SPECI KPAE 262220Z 14006KT 10SM -RA FEW006 BKN023 OVC028 13/12 A2978 RMK AO2 P0000 T01330117=
201610262202 SPECI KPAE 262202Z 15010G16KT 10SM -RA SCT007 BKN010 OVC014 13/12 A2978 RMK AO2 P0000 T01330117=
201610262153 METAR KPAE 262153Z 15012KT 5SM R16R/5000VP6000FT -RA BR BKN012 OVC025 13/11 A2978 RMK AO2 RAE10B28 SLP086 P0004 T01280111=
201610262140 SPECI KPAE 262140Z 15009G14KT 2SM -RA BR SCT006 BKN010 OVC028 13/11 A2978 RMK AO2 RAE10B28 P0002 T01330111=
201610262126 SPECI KPAE 262126Z 14006KT 10SM FEW006 BKN026 OVC034 13/11 A2977 RMK AO2 RAE10 P0001 T01280111=
201610262100 SPECI KPAE 262100Z VRB04KT 10SM -RA FEW006 BKN034 OVC070 13/11 A2976 RMK AO2 P0001 T01280111=
201610262053 METAR KPAE 262053Z VRB05KT 10SM -RA SCT009 BKN029 OVC085 12/11 A2976 RMK AO2 SLP078 P0001 60008 T01220111 58012=
201610261953 METAR KPAE 261953Z VRB06KT 10SM -RA SCT009 BKN029 11/10 A2977 RMK AO2 SLP082 P0003 T01110100=
201610261927 SPECI KPAE 261927Z 12008G16KT 10SM -RA SCT029 BKN034 OVC085 11/09 A2979 RMK AO2 P0001 T01110094=
201610261853 METAR KPAE 261853Z 11011KT 10SM -RA OVC028 11/09 A2979 RMK AO2 RAE44B52 SLP088 P0004 T01060089=
201610261848 SPECI KPAE 261848Z 12010KT 10SM BKN028 OVC034 11/09 A2979 RMK AO2 RAE44 P0004=
201610261753 METAR KPAE 261753Z 11010KT 4SM RA BR FEW035 BKN043 OVC050 11/09 A2982 RMK AO2 SLP098 P0014 60035 T01060089 10128 20100 58004=
201610261653 METAR KPAE 261653Z 11006KT 10SM RA BKN050 BKN070 OVC080 11/09 A2983 RMK AO2 SLP103 P0010 T01060089=
201610261553 METAR KPAE 261553Z 00000KT 4SM -RA BKN039 OVC060 11/08 A2985 RMK AO2 SLP107 P0007 T01060078=
201610261453 METAR KPAE 261453Z 06003KT 10SM -RA OVC060 11/08 A2983 RMK AO2 SLP102 P0002 60004 T01060078 58006=
201610261353 METAR KPAE 261353Z 00000KT 10SM -RA BKN070 OVC090 12/07 A2984 RMK AO2 SLP103 P0002 T01170067=
201610261253 METAR KPAE 261253Z AUTO 11004KT 10SM -RA OVC070 12/06 A2985 RMK AO2 RAB23 SLP108 P0000 T01220061=
201610261153 METAR KPAE 261153Z AUTO 10005KT 10SM FEW080 OVC090 12/05 A2985 RMK AO2 SLP107 70001 T01220050 10122 20106 58032=
201610261053 METAR KPAE 261053Z AUTO 11006KT 10SM CLR 12/06 A2989 RMK AO2 SLP121 T01170056=
201610260953 METAR KPAE 260953Z AUTO 11006KT 10SM CLR 11/06 A2993 RMK AO2 SLP134 T01060061=
201610260853 METAR KPAE 260853Z AUTO 11006KT 10SM SCT120 11/06 A2995 RMK AO2 SLP140 T01110061 58015=
201610260800 METAR KPAE NIL=
201610260753 METAR KPAE 260753Z AUTO 10005KT 10SM CLR 11/07 A2996 RMK AO2 SLP146 T01110067 401670106=
201610260653 METAR KPAE 260653Z AUTO 12005KT 10SM CLR 11/07 A2998 RMK AO2 SLP151 T01110067=
201610260553 METAR KPAE 260553Z AUTO 10005KT 10SM CLR 11/07 A2999 RMK AO2 SLP156 T01110072 10156 20111 58007=
201610260453 METAR KPAE 260453Z AUTO 12006KT 10SM CLR 12/07 A3001 RMK AO2 SLP162 T01170067=
201610260353 METAR KPAE 260353Z 12004KT 10SM OVC120 13/07 A3002 RMK AO2 SLP164 T01280067=
201610260253 METAR KPAE 260253Z 11006KT 10SM BKN110 13/06 A3001 RMK AO2 SLP163 T01330061 51003=
201610260153 METAR KPAE 260153Z 16011KT 10SM FEW120 14/06 A3001 RMK AO2 SLP161 T01440061=
201610260053 METAR KPAE 260053Z 17011KT 10SM CLR 15/06 A3001 RMK AO2 SLP162 T01500056=
201610252353 METAR KPAE 252353Z 17017G22KT 10SM CLR 16/06 A3000 RMK AO2 SLP159 T01560056 10167 20144 50009=
201610252253 METAR KPAE 252253Z 18017G23KT 10SM CLR 16/06 A3000 RMK AO2 PK WND 18031/2154 SLP159 T01610061=
201610252153 METAR KPAE 252153Z 18021G28KT 10SM CLR 16/06 A2999 RMK AO2 PK WND 18030/2137 SLP155 T01610061=
201610252053 METAR KPAE 252053Z 19022G31KT 10SM FEW043 16/06 A2998 RMK AO2 PK WND 19033/2018 SLP150 T01610061 51010=
201610251953 METAR KPAE 251953Z 19020G25KT 10SM FEW045 17/06 A2997 RMK AO2 PK WND 18026/1943 SLP148 T01670061=
201610251853 METAR KPAE 251853Z 17015G23KT 10SM CLR 16/06 A2996 RMK AO2 PK WND 18030/1836 SLP145 T01560061=
201610251753 METAR KPAE 251753Z 17017G22KT 10SM BKN070 14/06 A2995 RMK AO2 SLP140 60001 T01440061 10144 20117 51020=
201610251653 METAR KPAE 251653Z VRB05KT 10SM FEW050 BKN070 BKN090 12/06 A2993 RMK AO2 SLP135 T01220056=
201610251553 METAR KPAE 251553Z VRB05KT 10SM BKN060 BKN075 12/06 A2991 RMK AO2 SLP129 T01220056=
201610251453 METAR KPAE 251453Z 15007G16KT 10SM BKN070 12/04 A2989 RMK AO2 SLP121 60001 T01220044 53022=
201610251353 METAR KPAE 251353Z AUTO 16013G17KT 10SM BKN080 12/05 A2985 RMK AO2 RAE1259 SLP110 P0000 T01170050=
201610251253 METAR KPAE 251253Z AUTO 15008G15KT 120V180 10SM -RA FEW050 BKN060 OVC080 12/05 A2984 RMK AO2 RAB04 SLP105 P0001 T01170050=
201610251153 METAR KPAE 251153Z AUTO 15009KT 10SM SCT065 BKN100 12/06 A2982 RMK AO2 RAB26E50 SLP099 P0000 60000 70018 T01170056 10122 20111 53008=
201610251053 METAR KPAE 251053Z AUTO 15009G17KT 10SM BKN075 12/06 A2981 RMK AO2 SLP095 T01170061=
201610250953 METAR KPAE 250953Z AUTO 15012KT 10SM CLR 11/06 A2980 RMK AO2 SLP092 T01110061=
201610250853 METAR KPAE 250853Z AUTO 15009KT 10SM FEW048 FEW075 12/07 A2980 RMK AO2 SLP089 T01170067 51010=
201610250753 METAR KPAE 250753Z AUTO VRB04KT 10SM FEW075 BKN090 11/07 A2979 RMK AO2 SLP086 T01110067 401720100=
201610250653 METAR KPAE 250653Z AUTO 16008KT 10SM CLR 12/07 A2978 RMK AO2 SLP083 T01170067=
201610250553 METAR KPAE 250553Z AUTO 15006KT 10SM CLR 12/08 A2977 RMK AO2 SLP079 60017 T01170078 10117 20100 51016=
201610250453 METAR KPAE 250453Z AUTO VRB03KT 10SM CLR 11/09 A2975 RMK AO2 SLP074 T01110089=
201610250353 METAR KPAE 250353Z AUTO VRB04KT 10SM OVC100 11/09 A2974 RMK AO2 RAE13 SLP070 P0000 T01060089=
201610250253 METAR KPAE 250253Z 12009KT 10SM -RA SCT070 OVC085 11/09 A2972 RMK AO2 SLP064 P0004 60017 T01060089 50003=
201610250153 METAR KPAE 250153Z 15011KT 10SM -RA BKN055 OVC070 11/08 A2972 RMK AO2 SLP065 P0005 T01110083=
201610250053 METAR KPAE 250053Z 16017G25KT 6SM -RA FEW038 OVC060 11/08 A2972 RMK AO2 SLP064 P0008 T01110083=
201610242353 METAR KPAE 242353Z AUTO 19014KT 10SM -RA OVC050 12/08 A2971 RMK AO2 PK WND 21026/2302 RAB34 SLP060 P0001 60001 T01170078 10172 20117 51025=
201610242253 METAR KPAE 242253Z AUTO 22015G24KT 10SM SCT036 OVC090 13/07 A2970 RMK AO2 SLP056 T01280067=
201610242153 METAR KPAE 242153Z AUTO 22016G24KT 10SM OVC100 14/08 A2966 RMK AO2 SLP042 T01440078=
201610242053 METAR KPAE 242053Z AUTO 19013KT 10SM OVC110 16/07 A2963 RMK AO2 SLP034 T01610072 51025=
201610241953 METAR KPAE 241953Z AUTO 18012KT 10SM OVC100 16/07 A2962 RMK AO2 SLP030 T01560067=
201610241853 METAR KPAE 241853Z AUTO 20009KT 10SM BKN110 14/07 A2960 RMK AO2 SLP023 T01390072=
201610241753 METAR KPAE 241753Z AUTO 12006KT 10SM BKN110 17/04 A2956 RMK AO2 SLP007 T01720044 10172 20122 58002=
201610241653 METAR KPAE 241653Z AUTO 12006KT 10SM OVC110 16/04 A2958 RMK AO2 SLP015 T01610044=
201610241553 METAR KPAE 241553Z AUTO VRB05KT 10SM FEW110 15/04 A2958 RMK AO2 SLP015 T01500044=
201610241453 METAR KPAE 241453Z AUTO 07006KT 10SM CLR 14/05 A2956 RMK AO2 SLP010 T01390050 56033=
201610241353 METAR KPAE 241353Z AUTO 11006KT 10SM SCT110 14/05 A2960 RMK AO2 SLP022 T01390050=
201610241253 METAR KPAE 241253Z AUTO 11007KT 10SM BKN110 14/04 A2963 RMK AO2 SLP031 T01440044=
201610241153 METAR KPAE 241153Z AUTO 35003KT 10SM SCT070 BKN095 OVC110 12/06 A2966 RMK AO2 SLP044 T01220061 10150 20106 58010=
201610241053 METAR KPAE 241053Z AUTO 00000KT 10SM SCT100 OVC120 12/07 A2968 RMK AO2 SLP051 T01220067=
201610240953 METAR KPAE 240953Z AUTO 00000KT 10SM BKN110 11/07 A2970 RMK AO2 SLP058 T01110072=
201610240853 METAR KPAE 240853Z AUTO 03003KT 10SM FEW120 11/08 A2969 RMK AO2 SLP055 T01110078 58018=
201610240753 METAR KPAE 240753Z AUTO 05004KT 10SM CLR 13/07 A2971 RMK AO2 SLP060 T01280067 401560094=
201610240653 METAR KPAE 240653Z AUTO 00000KT 10SM CLR 14/04 A2973 RMK AO2 SLP067 T01440044=
201610240553 METAR KPAE 240553Z AUTO 11004KT 10SM CLR 15/05 A2975 RMK AO2 SLP073 60000 T01500050 10150 20128 58008=
201610240453 METAR KPAE 240453Z AUTO 11008KT 10SM BKN110 14/07 A2976 RMK AO2 SLP076 T01390067=
201610240353 METAR KPAE 240353Z AUTO 11004KT 10SM FEW055 OVC075 14/08 A2977 RMK AO2 SLP081 T01390078=
201610240253 METAR KPAE 240253Z 04005KT 10SM FEW055 BKN080 OVC100 14/08 A2977 RMK AO2 PRESFR SLP082 60000 T01390078 56020=
201610240153 METAR KPAE 240153Z 03003KT 10SM OVC070 13/09 A2979 RMK AO2 RAB13E53 SLP090 P0000 T01280089=
201610240053 METAR KPAE 240053Z 00000KT 10SM BKN075 OVC110 14/08 A2981 RMK AO2 SLP095 T01390078=
201610232353 METAR KPAE 232353Z 36003KT 10SM BKN070 OVC085 14/08 A2983 RMK AO2 SLP103 T01440078 10156 20139 56018=
201610232253 METAR KPAE 232253Z VRB03KT 10SM FEW055 BKN070 OVC085 14/08 A2985 RMK AO2 SLP109 T01390078=
201610232153 METAR KPAE 232153Z 00000KT 10SM BKN090 OVC110 15/08 A2986 RMK AO2 SLP112 T01500083=
201610232053 METAR KPAE 232053Z VRB03KT 10SM CLR 16/08 A2989 RMK AO2 SLP121 T01560083 58011=
201610231953 METAR KPAE 231953Z 26008KT 10SM CLR 14/08 A2991 RMK AO2 SLP128 T01390078=
201610231853 METAR KPAE 231853Z 16004KT 10SM BKN060 15/08 A2992 RMK AO2 SLP130 T01500078=
201610231753 METAR KPAE 231753Z 15007KT 10SM SCT050 14/07 A2992 RMK AO2 SLP132 T01390072 10139 20094 51008=
201610231653 METAR KPAE 231653Z 15006KT 10SM OVC055 12/07 A2992 RMK AO2 SLP130 T01220072=
201610231553 METAR KPAE 231553Z 16009KT 10SM BKN060 OVC085 11/07 A2991 RMK AO2 SLP130 T01110067=
201610231453 METAR KPAE 231453Z 17008KT 10SM BKN065 OVC095 10/07 A2990 RMK AO2 SLP125 T01000072 53008=
201610231353 METAR KPAE 231353Z 13003KT 10SM BKN080 10/07 A2989 RMK AO2 SLP122 T01000067=
201610231253 METAR KPAE 231253Z AUTO 12006KT 10SM BKN049 OVC060 10/07 A2988 RMK AO2 SLP119 T01000072=
201610231153 METAR KPAE 231153Z AUTO 12007KT 10SM OVC050 10/07 A2987 RMK AO2 RAE41 SLP117 P0000 60006 70006 T01000072 10133 20100 58001=
201610231053 METAR KPAE 231053Z AUTO 15011KT 10SM -RA FEW070 OVC095 11/07 A2988 RMK AO2 RAB17 SLP119 P0000 T01060072=
201610230953 METAR KPAE 230953Z AUTO 17010KT 10SM FEW050 BKN060 OVC120 11/07 A2988 RMK AO2 RAE21 SLP118 P0000 T01060072=
201610230853 METAR KPAE 230853Z AUTO 15008KT 10SM -RA BKN060 OVC070 11/07 A2988 RMK AO2 SLP116 P0003 60006 T01060072 53016=
201610230753 METAR KPAE 230753Z AUTO 18010KT 10SM -RA OVC055 12/07 A2987 RMK AO2 SLP113 P0001 T01170067 401500083=
201610230653 METAR KPAE 230653Z AUTO 15006KT 10SM -RA OVC060 12/06 A2984 RMK AO2 SLP105 P0002 T01220061=
201610230553 METAR KPAE 230553Z AUTO 15008KT 10SM -RA BKN060 OVC080 13/05 A2983 RMK AO2 RAB43 SLP102 P0000 60000 T01280050 10144 20111 53007=
201610230453 METAR KPAE 230453Z AUTO 15007KT 10SM FEW065 BKN100 OVC110 13/04 A2981 RMK AO2 RAB42E53 SLP096 P0000 T01330044=
201610230353 METAR KPAE 230353Z 15008KT 10SM FEW120 13/04 A2981 RMK AO2 SLP093 T01330044=
201610230253 METAR KPAE 230253Z VRB04KT 10SM CLR 13/05 A2981 RMK AO2 SLP094 T01330050 55004=
201610230153 METAR KPAE 230153Z 10005KT 10SM CLR 12/06 A2980 RMK AO2 SLP093 T01220056=
201610230053 METAR KPAE 230053Z 06004KT 10SM CLR 13/06 A2981 RMK AO2 SLP093 T01330056=
201610222353 METAR KPAE 222353Z 02003KT 10SM CLR 14/04 A2982 RMK AO2 SLP098 T01440044 10150 20117 57026=
201610222253 METAR KPAE 222253Z 34003KT 10SM CLR 14/06 A2984 RMK AO2 SLP107 T01390056=
201610222153 METAR KPAE 222153Z 33004KT 10SM CLR 14/06 A2987 RMK AO2 SLP116 T01390061=
201610222053 METAR KPAE 222053Z VRB03KT 10SM FEW034 14/07 A2990 RMK AO2 SLP125 T01440067 58021=
201610221953 METAR KPAE 221953Z VRB03KT 10SM CLR 13/07 A2993 RMK AO2 SLP137 T01330072=
201610221853 METAR KPAE 221853Z 09004KT 10SM SCT022 12/08 A2996 RMK AO2 SLP146 T01220078=
201610221849 SPECI KPAE 221849Z 10004KT 10SM SCT022 12/08 A2996 RMK AO2=
201610221834 SPECI KPAE 221834Z 11004KT 10SM SCT019 BKN025 12/08 A2997 RMK AO2 T01220078=
201610221753 METAR KPAE 221753Z 16005KT 10SM FEW021 SCT026 12/07 A2998 RMK AO2 SLP152 T01170072 10122 20083 58002=
201610221700 SPECI KPAE 221700Z 17003KT 10SM FEW021 SCT026 10/07 A2999 RMK AO2 T01000072=
201610221653 METAR KPAE 221653Z 18003KT 10SM BKN021 OVC026 10/07 A2999 RMK AO2 SLP155 T01000072=
201610221605 SPECI KPAE 221605Z 16006KT 10SM BKN015 09/07 A2999 RMK AO2 T00940067=
201610221553 METAR KPAE 221553Z 15004KT 10SM BKN014 09/07 A2999 RMK AO2 SLP155 T00940067=
201610221453 METAR KPAE 221453Z 00000KT 10SM FEW009 09/07 A2998 RMK AO2 SLP155 T00890067 58003=
201610221436 SPECI KPAE 221436Z 16005KT 10SM SCT009 09/07 A2999 RMK AO2 T00890067=
201610221353 METAR KPAE 221353Z 16006KT 10SM OVC009 09/07 A2999 RMK AO2 SLP156 T00940072=
201610221346 SPECI KPAE 221346Z 15007KT 10SM OVC009 09/07 A2999 RMK AO2 T00940072=
201610221335 SPECI KPAE 221335Z AUTO 15004KT 10SM OVC010 09/07 A2999 RMK AO2 T00940072=
201610221310 SPECI KPAE 221310Z AUTO 16004KT 10SM BKN009 BKN018 09/07 A2999 RMK AO2 T00940072=
201610221253 METAR KPAE 221253Z AUTO 16005KT 10SM FEW009 BKN020 09/07 A2999 RMK AO2 SLP157 T00940072=
201610221153 METAR KPAE 221153Z AUTO 16009KT 10SM BKN020 09/08 A2999 RMK AO2 SLP158 60000 70005 T00940078 10106 20094 53005=
201610221128 SPECI KPAE 221128Z AUTO 16008KT 10SM BKN022 09/08 A2999 RMK AO2 T00940078=
201610221053 METAR KPAE 221053Z AUTO 16009KT 10SM CLR 09/08 A2999 RMK AO2 SLP155 T00940078=
201610221021 SPECI KPAE 221021Z AUTO 16008KT 10SM FEW005 09/08 A2999 RMK AO2 T00940078=
201610220953 METAR KPAE 220953Z AUTO 17008KT 10SM CLR 09/08 A2998 RMK AO2 SLP154 T00940078=
201610220925 SPECI KPAE 220925Z AUTO 18006KT 10SM FEW007 SCT026 BKN055 09/07 A2998 RMK AO2 T00940072=
201610220853 METAR KPAE 220853Z 17006KT 10SM FEW011 OVC025 10/08 A2998 RMK AO2 SLP152 60000 T01000078 52007=
201610220833 SPECI KPAE 220833Z 16007KT 10SM OVC028 10/07 A2997 RMK AO2 T01000072=
201610220822 SPECI KPAE 220822Z 17008KT 10SM SCT012 OVC030 10/07 A2997 RMK AO2 T01000072=
201610220753 METAR KPAE 220753Z 16008KT 10SM OVC013 10/07 A2997 RMK AO2 RAE0656 SLP150 P0000 T01000072 401390094=
201610220653 METAR KPAE 220653Z 18007KT 10SM -RA BKN012 OVC019 10/07 A2997 RMK AO2 RAB52 SLP148 P0000 T01000072=
201610220553 METAR KPAE 220553Z 18009KT 10SM FEW013 OVC024 11/07 A2996 RMK AO2 SLP146 60001 T01060072 10117 20100 51008=
201610220530 SPECI KPAE 220530Z 19010KT 10SM BKN013 OVC018 11/08 A2995 RMK AO2 T01060078=
201610220453 METAR KPAE 220453Z 18012KT 10SM OVC017 11/08 A2994 RMK AO2 SLP139 T01060078=
201610220353 METAR KPAE 220353Z 18013G19KT 10SM BKN020 OVC032 11/08 A2993 RMK AO2 SLP137 T01110078=
201610220351 SPECI KPAE 220351Z 18013G19KT 10SM BKN020 OVC032 11/08 A2993 RMK AO2=
201610220327 SPECI KPAE 220327Z 18007KT 10SM OVC030 11/08 A2993 RMK AO2 T01060083=
201610220253 METAR KPAE 220253Z 19007KT 10SM BKN029 BKN035 11/08 A2992 RMK AO2 SLP133 60001 T01110083 58002=
201610220248 SPECI KPAE 220248Z 19008KT 10SM FEW022 BKN029 BKN035 11/08 A2992 RMK AO2=
201610220241 SPECI KPAE 220241Z 19009KT 10SM SCT022 BKN033 11/08 A2993 RMK AO2 T01110083=
201610220218 SPECI KPAE 220218Z 18009KT 10SM BKN022 OVC047 12/09 A2993 RMK AO2 T01170089=
201610220153 METAR KPAE 220153Z 19009KT 10SM FEW024 BKN046 BKN065 11/09 A2993 RMK AO2 SLP137 T01110089=
201610220100 SPECI KPAE 220100Z 16006KT 10SM BKN050 OVC060 11/08 A2993 RMK AO2 T01110083=
201610220053 METAR KPAE 220053Z 15005KT 10SM BKN024 BKN055 OVC070 11/08 A2993 RMK AO2 RAE43 SLP136 P0001 T01110083=
201610220024 SPECI KPAE 220024Z 00000KT 10SM -RA BKN024 BKN055 OVC070 11/08 A2994 RMK AO2 P0001 T01060083=
201610212353 METAR KPAE 212353Z 35003KT 5SM -RA BR BKN006 BKN015 OVC070 10/08 A2995 RMK AO2 RAB02 SLP141 P0004 60004 T01000083 10139 20100 53003=
201610212333 SPECI KPAE 212333Z 28009KT 5SM -RA BR BKN006 BKN015 OVC070 11/08 A2995 RMK AO2 RAB02 P0002 T01060083=
201610212328 SPECI KPAE 212328Z 27008KT 10SM -RA BKN015 BKN027 OVC070 11/08 A2995 RMK AO2 RAB02 P0001 T01110083=
201610212253 METAR KPAE 212253Z 19014KT 10SM BKN070 OVC095 13/08 A2993 RMK AO2 SLP136 T01330083=
201610212153 METAR KPAE 212153Z 18014KT 10SM OVC110 14/08 A2994 RMK AO2 SLP138 T01390083=
201610212053 METAR KPAE 212053Z 15011KT 10SM OVC110 13/08 A2994 RMK AO2 SLP138 T01330083 58016=
201610211953 METAR KPAE 211953Z 18011KT 10SM SCT019 BKN046 13/08 A2996 RMK AO2 SLP147 T01330083=
201610211853 METAR KPAE 211853Z 16009KT 10SM CLR 13/09 A2997 RMK AO2 SLP148 T01330089=
201610211753 METAR KPAE 211753Z 16008KT 10SM CLR 11/08 A2999 RMK AO2 SLP155 T01110083 10111 20094 58008=
201610211653 METAR KPAE 211653Z 13004KT 10SM CLR 10/08 A2999 RMK AO2 SLP156 T01000083=
201610211553 METAR KPAE 211553Z VRB03KT 10SM CLR 10/08 A3001 RMK AO2 SLP162 T01000083=
201610211453 METAR KPAE 211453Z VRB04KT 10SM FEW023 10/08 A3001 RMK AO2 SLP163 T01000083 56007=
201610211451 SPECI KPAE 211451Z VRB04KT 10SM SCT023 10/08 A3001 RMK AO2=
201610211429 SPECI KPAE 211429Z VRB03KT 10SM BKN024 10/08 A3001 RMK AO2 T01000083=
201610211420 SPECI KPAE 211420Z VRB04KT 10SM SCT024 11/08 A3002 RMK AO2 T01060083=
201610211409 SPECI KPAE 211409Z 15010KT 10SM BKN024 11/08 A3002 RMK AO2 T01060083=
201610211353 METAR KPAE 211353Z 15009KT 10SM FEW026 11/08 A3002 RMK AO2 SLP165 T01060083=
201610211308 SPECI KPAE 211308Z AUTO VRB04KT 10SM SCT024 10/08 A3003 RMK AO2 T01000083=
201610211253 METAR KPAE 211253Z AUTO VRB05KT 10SM BKN023 10/08 A3003 RMK AO2 SLP171 T01000083=
201610211248 SPECI KPAE 211248Z AUTO 14004KT 10SM BKN025 11/08 A3003 RMK AO2=
201610211153 METAR KPAE 211153Z AUTO 15006KT 10SM CLR 11/09 A3004 RMK AO2 SLP173 70086 T01060089 10117 20100 56013=
201610211053 METAR KPAE 211053Z AUTO 15008KT 10SM CLR 11/09 A3005 RMK AO2 SLP176 T01060089=
201610210953 METAR KPAE 210953Z AUTO 15005KT 10SM CLR 10/09 A3007 RMK AO2 SLP182 T01000089=
201610210853 METAR KPAE 210853Z AUTO VRB05KT 10SM CLR 11/09 A3008 RMK AO2 SLP187 T01060089 56011=
201610210753 METAR KPAE 210753Z AUTO 15007KT 10SM CLR 11/09 A3009 RMK AO2 SLP190 T01060089 401330100=
201610210653 METAR KPAE 210653Z AUTO 12005KT 10SM CLR 11/09 A3009 RMK AO2 SLP191 T01060089=
201610210622 SPECI KPAE 210622Z AUTO VRB03KT 10SM FEW017 12/09 A3010 RMK AO2 T01170089=
201610210553 METAR KPAE 210553Z AUTO 16005KT 10SM OVC016 12/09 A3011 RMK AO2 RAE05 SLP198 P0000 60002 T01170089 10122 20111 50001=
201610210532 SPECI KPAE 210532Z AUTO VRB03KT 10SM OVC016 12/09 A3012 RMK AO2 RAE05 P0000 T01170094=
201610210503 SPECI KPAE 210503Z AUTO 15003KT 10SM -RA BKN013 OVC034 12/09 A3011 RMK AO2 P0000 T01220094=
201610210453 METAR KPAE 210453Z AUTO 16005KT 10SM -RA SCT014 SCT021 OVC032 12/09 A3012 RMK AO2 SLP199 P0001 T01220089=
201610210353 METAR KPAE 210353Z AUTO 16005KT 10SM -RA FEW027 OVC035 11/09 A3011 RMK AO2 RAB46 SLP196 P0000 T01110094=
201610210253 METAR KPAE 210253Z VRB04KT 10SM BKN036 OVC046 12/10 A3011 RMK AO2 SLP197 60001 T01170100 53008=
201610210153 METAR KPAE 210153Z 00000KT 10SM SCT041 BKN065 12/10 A3010 RMK AO2 RAE0057 SLP194 P0000 T01170100=
201610210053 METAR KPAE 210053Z 00000KT 10SM -RA SCT015 BKN032 12/10 A3009 RMK AO2 SLP190 P0001 T01220100=
201610210035 SPECI KPAE 210035Z 09003KT 10SM -RA SCT026 BKN033 OVC041 12/10 A3009 RMK AO2 P0001 T01220100=
201610202353 METAR KPAE 202353Z 36004KT 10SM -RA OVC017 12/11 A3009 RMK AO2 RAE2255B52 SLP189 P0000 60025 T01220106 10133 20117 51008=
201610202320 SPECI KPAE 202320Z 11003KT 10SM SCT005 BKN014 OVC023 12/10 A3008 RMK AO2 RAE2255 P0000 T01220100=
201610202256 SPECI KPAE 202256Z 00000KT 10SM BKN005 OVC023 12/10 A3008 RMK AO2 RAE55 P0000 T01170100=
201610202253 METAR KPAE 202253Z 00000KT 2SM -RA BR BKN005 BKN011 OVC019 12/10 A3008 RMK AO2 SLP186 P0007 T01170100=
201610202204 SPECI KPAE 202204Z 10006KT 2SM R16R/5000VP6000FT -RA BR BKN005 BKN011 OVC019 12/11 A3007 RMK AO2 P0003 T01220106=
201610202155 SPECI KPAE 202155Z 12004KT 10SM R16R/5500VP6000FT -RA SCT005 SCT011 OVC016 12/11 A3007 RMK AO2 P0001 T01170106=
201610202153 METAR KPAE 202153Z 12004KT 2SM R16R/5500VP6000FT -RA BR BKN005 BKN017 OVC022 12/11 A3007 RMK AO2 SLP184 P0007 T01170106=
201610202108 SPECI KPAE 202108Z VRB05KT 2SM -RA BR BKN005 12/11 A3007 RMK AO2 P0002 T01220106=
201610202100 SPECI KPAE 202100Z VRB04KT 10SM R16R/5000VP6000FT -RA FEW012 OVC030 12/10 A3006 RMK AO2 P0001 T01220100=
201610202053 METAR KPAE 202053Z 15004KT 2SM -RA BR BKN005 12/11 A3006 RMK AO2 RAB53 SLP180 P0000 60011 T01220106 51012=
201610202049 SPECI KPAE 202049Z VRB04KT 2SM BR BKN005 12/11 A3006 RMK AO2=
201610202000 SPECI KPAE 202000Z 11005KT 10SM OVC021 13/11 A3005 RMK AO2 T01280106=
201610201953 METAR KPAE 201953Z 11004KT 3SM BR BKN004 BKN024 OVC031 13/11 A3004 RMK AO2 RAE20 SLP174 P0001 T01280106=
201610201905 SPECI KPAE 201905Z VRB05KT 3SM -RA BR BKN004 BKN024 OVC031 12/11 A3003 RMK AO2 P0001 T01220106=
201610201858 SPECI KPAE 201858Z 17005KT 10SM -RA OVC028 12/11 A3003 RMK AO2 P0000 T01220106=
201610201853 METAR KPAE 201853Z 18006KT 1/4SM R16R/P6000FT -RA FG SCT024 OVC031 12/11 A3003 RMK AO2 SLP169 P0010 T01220111=
201610201844 SPECI KPAE 201844Z 20005KT 1/4SM R16R/4000VP6000FT -RA FG SCT005 BKN024 OVC029 12/10 A3002 RMK AO2 P0010 T01220100=
201610201837 SPECI KPAE 201837Z 00000KT 1/4SM R16R/3500V5500FT RA FG SCT005 BKN014 OVC029 12/11 A2999 RMK AO2 P0009 T01220106=
201610201828 SPECI KPAE 201828Z 28005KT 1/4SM R16R/4000VP6000FT -RA FG BKN003 OVC021 12/11 A3002 RMK AO2 P0004 T01170111=
201610201814 SPECI KPAE 201814Z 00000KT 1/4SM R16R/2000VP6000FT -RA FG BKN001 OVC005 12/11 A3001 RMK AO2 P0000 T01170111=
201610201800 SPECI KPAE 201800Z 32005KT 1/4SM R16R/0700V5500FT -RA FG OVC002 12/11 A3000 RMK AO2 P0000 T01220111=
201610201753 METAR KPAE 201753Z 31007KT 2SM R16R/3000VP6000FT -RA BR OVC003 12/11 A3000 RMK AO2 SLP159 P0002 60059 T01220111 10128 20106 51024=
201610201653 METAR KPAE 201653Z 23008KT 2SM -RA BR OVC003 12/11 A2998 RMK AO2 CIG 002V007 SLP154 P0014 T01220111=
201610201630 SPECI KPAE 201630Z 21011KT 4SM RA BR OVC003 12/11 A2997 RMK AO2 P0010 T01220111=
201610201600 SPECI KPAE 201600Z 21009KT 4SM -RA BR OVC006 12/11 A2997 RMK AO2 CIG 004V010 P0002 T01220111=
201610201553 METAR KPAE 201553Z 20008KT 10SM -RA SCT004 BKN012 OVC085 12/11 A2996 RMK AO2 SLP146 P0005 T01220111=
201610201510 SPECI KPAE 201510Z 20012KT 10SM -RA SCT004 BKN012 OVC085 12/11 A2994 RMK AO2 P0002 T01220111=
201610201500 SPECI KPAE 201500Z 20013G20KT 10SM -RA OVC085 12/11 A2993 RMK AO2 P0001 T01220106=
201610201453 METAR KPAE 201453Z 19014KT 10SM -RA SCT004 BKN012 OVC030 12/11 A2993 RMK AO2 SLP135 P0010 60038 T01220106 58015=
201610201403 SPECI KPAE 201403Z 19008KT 10SM -RA SCT004 BKN012 OVC030 12/10 A2996 RMK AO2 P0002 T01170100=
201610201353 METAR KPAE 201353Z AUTO 17006KT 10SM -RA BKN014 BKN030 OVC070 12/10 A2995 RMK AO2 SLP143 P0010 T01170100=
201610201307 SPECI KPAE 201307Z AUTO 20005KT 10SM RA FEW004 BKN016 OVC023 11/10 A2996 RMK AO2 P0006 T01110100=
201610201253 METAR KPAE 201253Z AUTO 19006KT 10SM RA SCT004 BKN012 OVC025 11/10 A2996 RMK AO2 SLP147 P0018 T01110100=
201610201241 SPECI KPAE 201241Z AUTO 23004KT 10SM -RA BKN004 BKN010 OVC025 11/11 A2996 RMK AO2 P0014 T01110106=
201610201223 SPECI KPAE 201223Z AUTO 16008KT 10SM RA FEW006 BKN025 OVC039 11/10 A2995 RMK AO2 P0012 T01110100=
201610201215 SPECI KPAE 201215Z AUTO 16008KT 10SM RA SCT004 BKN014 OVC027 11/09 A2995 RMK AO2 P0009 T01110094=
201610201153 METAR KPAE 201153Z AUTO 16006KT 10SM -RA OVC004 11/09 A2997 RMK AO2 RAE05B18 SLP150 P0002 60016 70018 T01060094 10111 20100 56031=
201610201134 SPECI KPAE 201134Z AUTO 17005KT 10SM -RA OVC004 11/09 A2998 RMK AO2 RAE05B18 CIG 003V008 P0001 T01060094=
201610201107 SPECI KPAE 201107Z AUTO 16008KT 10SM BKN008 OVC016 11/09 A2999 RMK AO2 RAE05 CIG 005V013 P0000 T01060094=
201610201053 METAR KPAE 201053Z AUTO 16009KT 10SM -RA BKN014 BKN022 OVC100 11/09 A2999 RMK AO2 SLP157 P0003 T01110094=
201610201012 SPECI KPAE 201012Z AUTO 14007KT 090V170 10SM -RA SCT004 BKN028 OVC100 10/09 A3000 RMK AO2 P0000 T01000089=
201610200953 METAR KPAE 200953Z AUTO 15006KT 10SM -RA BKN005 BKN031 OVC095 10/09 A3003 RMK AO2 SLP169 P0002 T01000089=
201610200943 SPECI KPAE 200943Z AUTO 15006KT 10SM -RA SCT003 BKN035 OVC100 10/09 A3002 RMK AO2 P0002 T01000089=
201610200918 SPECI KPAE 200918Z AUTO VRB04KT 10SM -RA BKN003 BKN008 OVC027 10/09 A3004 RMK AO2 PRESFR P0000 T01000089=
201610200908 SPECI KPAE 200908Z AUTO VRB04KT 10SM -RA SCT003 BKN008 OVC029 10/09 A3005 RMK AO2 P0000 T01000089=
201610200853 METAR KPAE 200853Z AUTO VRB05KT 10SM -RA FEW003 SCT011 OVC028 10/08 A3006 RMK AO2 RAB21 SLP182 P0003 60009 T01000083 55014=
201610200850 SPECI KPAE 200850Z AUTO 15007KT 10SM -RA FEW003 SCT013 OVC027 10/08 A3006 RMK AO2 RAB21 P0002=
201610200841 SPECI KPAE 200841Z AUTO 16006KT 10SM -RA BKN027 OVC035 10/08 A3007 RMK AO2 RAB21 P0001 T01000083=
201610200753 METAR KPAE 200753Z AUTO 17007KT 10SM FEW029 OVC038 10/08 A3010 RMK AO2 RAE26 SLP194 P0001 T01000083 401330083=
201610200653 METAR KPAE 200653Z AUTO 19004KT 10SM RA BKN043 OVC050 10/08 A3011 RMK AO2 RAB08 SLP196 P0005 T01000083=
201610200553 METAR KPAE 200553Z AUTO 12003KT 10SM OVC049 11/08 A3012 RMK AO2 SLP199 60002 T01060083 10128 20100 58023=
201610200453 METAR KPAE 200453Z AUTO VRB03KT 10SM OVC050 11/07 A3014 RMK AO2 RAE48 SLP207 P0001 T01060072=
201610200353 METAR KPAE 200353Z AUTO 22005KT 10SM -RA OVC060 11/08 A3017 RMK AO2 SLP219 P0001 T01110078=
201610200253 METAR KPAE 200253Z VRB03KT 10SM -RA OVC060 12/08 A3018 RMK AO2 RAE04B31 SLP222 P0000 60000 T01170083 55010=
201610200153 METAR KPAE 200153Z 15008KT 10SM -RA SCT070 OVC085 12/08 A3018 RMK AO2 RAB45 SLP222 P0000 T01220078=
201610200053 METAR KPAE 200053Z 17006KT 10SM OVC070 13/08 A3020 RMK AO2 RAB04E20 SLP226 P0000 T01280078=
201610192353 METAR KPAE 192353Z 20006KT 10SM FEW070 OVC090 13/07 A3021 RMK AO2 SLP233 T01330072 10133 20111 58015=
201610192253 METAR KPAE 192253Z VRB05KT 10SM OVC100 13/07 A3023 RMK AO2 SLP238 T01330067=
201610192153 METAR KPAE 192153Z 10006KT 10SM BKN080 OVC100 13/07 A3024 RMK AO2 SLP243 T01330072=
201610192053 METAR KPAE 192053Z 16005KT 10SM BKN090 OVC120 13/07 A3026 RMK AO2 SLP248 T01280072 58015=
201610192000 METAR KPAE NIL=
201610191953 METAR KPAE 191953Z 16005KT 10SM CLR 13/07 A3027 RMK AO2 SLP253 T01330072=
201610191853 METAR KPAE 191853Z VRB03KT 10SM CLR 12/07 A3029 RMK AO2 SLP259 T01220072=
201610191753 METAR KPAE 191753Z 14004KT 10SM CLR 11/07 A3030 RMK AO2 SLP263 T01110072 10111 20083 58005=
201610191653 METAR KPAE 191653Z 12007KT 10SM CLR 10/07 A3031 RMK AO2 SLP267 T01000067=
201610191553 METAR KPAE 191553Z 11007KT 10SM CLR 09/07 A3031 RMK AO2 SLP267 T00940067=
201610191453 METAR KPAE 191453Z 12005KT 10SM CLR 09/07 A3032 RMK AO2 SLP269 T00890067 53000=
201610191353 METAR KPAE 191353Z VRB04KT 10SM BKN070 09/07 A3031 RMK AO2 SLP266 T00940072=
201610191253 METAR KPAE 191253Z AUTO VRB06KT 10SM FEW039 OVC065 10/07 A3031 RMK AO2 SLP265 T01000072=
201610191153 METAR KPAE 191153Z AUTO 15008KT 10SM CLR 09/07 A3032 RMK AO2 SLP268 70016 T00940072 10106 20089 52003=
201610191053 METAR KPAE 191053Z AUTO 15007KT 10SM FEW016 09/07 A3031 RMK AO2 SLP266 T00940072=
201610191048 SPECI KPAE 191048Z AUTO 16006KT 10SM FEW016 09/08 A3031 RMK AO2=
201610191033 SPECI KPAE 191033Z AUTO 15004KT 10SM FEW010 BKN016 10/08 A3031 RMK AO2 T01000078=
201610190953 METAR KPAE 190953Z AUTO 16006KT 10SM BKN011 OVC016 10/08 A3031 RMK AO2 SLP265 T01000083=
201610190853 METAR KPAE 190853Z AUTO 17006KT 10SM OVC013 10/08 A3029 RMK AO2 SLP259 T01000083 53013=
201610190835 SPECI KPAE 190835Z AUTO 16007KT 10SM BKN013 11/08 A3029 RMK AO2 T01060083=
201610190753 METAR KPAE 190753Z AUTO 16008KT 10SM SCT013 10/08 A3027 RMK AO2 SLP252 T01000083 401390089=
201610190653 METAR KPAE 190653Z AUTO 18003KT 10SM CLR 09/08 A3026 RMK AO2 SLP249 T00890078=
201610190553 METAR KPAE 190553Z AUTO 19004KT 10SM FEW060 SCT075 10/08 A3025 RMK AO2 SLP245 60000 T01000083 10117 20094 51020=
201610190453 METAR KPAE 190453Z AUTO 18009KT 10SM SCT050 SCT075 10/08 A3024 RMK AO2 SLP241 T01000078=
201610190353 METAR KPAE 190353Z AUTO 18008KT 10SM OVC060 11/08 A3021 RMK AO2 SLP233 T01060083=
201610190253 METAR KPAE 190253Z 17006KT 10SM BKN055 11/08 A3019 RMK AO2 SLP225 60000 T01110083 53021=
201610190153 METAR KPAE 190153Z 19006KT 10SM FEW030 BKN043 BKN070 12/09 A3017 RMK AO2 SLP216 T01170094=
201610190109 SPECI KPAE 190109Z 20008KT 10SM FEW018 SCT026 OVC037 12/09 A3015 RMK AO2 LTG DSNT NE T01170094=
201610190101 SPECI KPAE 190101Z 20008KT 10SM FEW019 BKN027 OVC040 12/09 A3015 RMK AO2 T01170094=
201610190053 METAR KPAE 190053Z 19005KT 10SM SCT021 OVC040 12/09 A3014 RMK AO2 RAB40E49 SLP209 P0000 T01170094=
201610182353 METAR KPAE 182353Z 20009KT 10SM OVC050 12/09 A3013 RMK AO2 RAE53 SLP203 P0007 60011 T01170089 10139 20100 53017=
201610182253 METAR KPAE 182253Z 21009KT 10SM -RA FEW026 BKN049 OVC065 12/09 A3011 RMK AO2 RAB26 SLP199 P0004 T01170089=
201610182203 SPECI KPAE 182203Z 20009KT 10SM SCT021 BKN036 OVC050 13/08 A3009 RMK AO2 T01280083=
201610182153 METAR KPAE 182153Z 20011KT 10SM BKN022 BKN034 OVC048 13/08 A3009 RMK AO2 RAB36E46 SLP190 P0000 T01280083=
201610182113 SPECI KPAE 182113Z 19011KT 10SM FEW018 SCT024 OVC035 13/08 A3008 RMK AO2 T01330083=
201610182053 METAR KPAE 182053Z 20009KT 10SM BKN020 OVC033 13/08 A3008 RMK AO2 SLP186 T01280083 51016=
201610182016 SPECI KPAE 182016Z 19009KT 10SM SCT017 BKN023 BKN035 13/08 A3007 RMK AO2 T01280083=
201610182009 SPECI KPAE 182009Z 19010KT 10SM SCT017 BKN035 BKN120 12/08 A3007 RMK AO2 T01220083=
201610181953 METAR KPAE 181953Z 19012G18KT 10SM BKN018 OVC024 13/09 A3007 RMK AO2 SLP183 T01330089=
201610181901 SPECI KPAE 181901Z 20008KT 10SM BKN013 OVC023 12/09 A3006 RMK AO2 T01170089=
201610181853 METAR KPAE 181853Z 20008KT 10SM SCT013 OVC023 12/08 A3005 RMK AO2 SLP177 T01170083=
201610181753 METAR KPAE 181753Z 18007KT 10SM BKN009 OVC020 11/08 A3003 RMK AO2 SLP170 60005 T01060083 10106 20094 51022=
201610181653 METAR KPAE 181653Z 16009KT 10SM OVC007 09/08 A3001 RMK AO2 CIG 005V010 SLP162 T00940078=
201610181553 METAR KPAE 181553Z 15008KT 10SM OVC009 09/08 A2999 RMK AO2 SLP156 T00940078=
201610181507 SPECI KPAE 181507Z 16008KT 10SM OVC005 09/08 A2997 RMK AO2 T00940078=
201610181500 SPECI KPAE 181500Z 15010KT 10SM OVC010 09/08 A2997 RMK AO2 CIG 006V013 T00940078=
201610181453 METAR KPAE 181453Z 17008KT 140V200 10SM OVC005 09/08 A2996 RMK AO2 SLP148 60005 T00940078 53022=
201610181353 METAR KPAE 181353Z AUTO 17010KT 10SM OVC008 09/08 A2994 RMK AO2 RAE49 CIG 005V012 SLP138 P0002 T00940078=
201610181331 SPECI KPAE 181331Z AUTO 17010G18KT 10SM -RA BKN009 BKN050 OVC060 09/08 A2993 RMK AO2 P0002 T00940078=
201610181319 SPECI KPAE 181319Z AUTO 16008KT 10SM -RA SCT007 BKN014 OVC049 09/08 A2993 RMK AO2 P0002 T00940078=
201610181311 SPECI KPAE 181311Z AUTO 18012KT 10SM -RA SCT009 SCT014 OVC048 09/08 A2993 RMK AO2 P0002 T00940078=
201610181304 SPECI KPAE 181304Z AUTO 18009KT 10SM -RA FEW007 BKN012 OVC048 09/08 A2992 RMK AO2 P0001 T00940078=
201610181253 METAR KPAE 181253Z AUTO 18010KT 10SM -RA BKN010 OVC050 09/08 A2992 RMK AO2 SLP132 P0003 T00940078=
201610181208 SPECI KPAE 181208Z AUTO 18010KT 10SM -RA FEW008 BKN012 OVC017 10/08 A2990 RMK AO2 P0000 T01000083=
201610181153 METAR KPAE 181153Z AUTO 18011KT 10SM -RA BKN008 OVC014 10/08 A2990 RMK AO2 CIG 006V010 SLP125 P0002 60005 70023 T01000083 10111 20100 53006=
201610181104 SPECI KPAE 181104Z AUTO 17011KT 10SM -RA BKN010 OVC015 10/08 A2989 RMK AO2 CIG 006V012 P0000 T01000083=
201610181053 METAR KPAE 181053Z AUTO 16012KT 10SM -RA SCT008 OVC015 10/08 A2989 RMK AO2 SLP122 P0000 T01000083=
201610181039 SPECI KPAE 181039Z AUTO 17012KT 10SM -RA BKN015 OVC043 10/08 A2988 RMK AO2 P0000 T01000083=
201610180953 METAR KPAE 180953Z AUTO 18012KT 10SM -RA FEW047 FEW055 OVC070 10/08 A2988 RMK AO2 RAB23 SLP119 P0001 T01000083=
201610180853 METAR KPAE 180853Z AUTO 17009KT 10SM BKN080 OVC100 10/08 A2987 RMK AO2 RAE01B22E32 SLP116 P0000 60002 T01000083 53012=
201610180753 METAR KPAE 180753Z AUTO 17010KT 10SM -RA OVC055 11/08 A2986 RMK AO2 RAB33 SLP111 P0002 T01060083 401390100=
201610180653 METAR KPAE 180653Z AUTO 18009KT 10SM SCT050 BKN065 11/08 A2984 RMK AO2 SLP107 T01110078=
201610180553 METAR KPAE 180553Z AUTO 16007KT 10SM SCT024 BKN110 11/08 A2984 RMK AO2 SLP104 60004 T01110078 10133 20106 53011=
201610180453 METAR KPAE 180453Z AUTO 16008KT 10SM FEW015 BKN022 BKN029 11/08 A2982 RMK AO2 SLP100 T01110083=
201610180419 SPECI KPAE 180419Z AUTO 12004KT 10SM BKN021 11/08 A2982 RMK AO2 T01110083=
201610180353 METAR KPAE 180353Z AUTO VRB04KT 10SM FEW021 12/08 A2981 RMK AO2 SLP096 T01170083=
201610180337 SPECI KPAE 180337Z 15005KT 10SM SCT019 12/08 A2981 RMK AO2 T01170083=
201610180330 SPECI KPAE 180330Z 15004KT 10SM BKN019 12/08 A2981 RMK AO2 T01170083=
201610180253 METAR KPAE 180253Z 16007KT 10SM FEW110 12/08 A2980 RMK AO2 SLP092 60004 T01170083 53015=
201610180153 METAR KPAE 180153Z 20009KT 10SM FEW120 12/08 A2979 RMK AO2 LTG DSNT NE SLP087 T01170083=
201610180053 METAR KPAE 180053Z 20011KT 10SM BKN033 BKN042 13/09 A2977 RMK AO2 LTG DSNT NE RAE13 SLP081 P0004 T01330089=
201610180005 SPECI KPAE 180005Z 20008KT 10SM -RA SCT030 BKN037 OVC055 13/09 A2976 RMK AO2 P0004 T01330094=
201610172353 METAR KPAE 172353Z 20009KT 10SM -RA FEW020 BKN029 OVC043 13/10 A2976 RMK AO2 LTG DSNT NE RAB30 SLP077 P0004 60013 T01330100 10139 20111 53014=
201610172345 SPECI KPAE 172345Z 20011KT 10SM -RA SCT025 BKN041 OVC050 13/10 A2975 RMK AO2 RAB30 P0004 T01330100=
201610172335 SPECI KPAE 172335Z 20010KT 10SM R16R/5500VP6000FT RA FEW020 BKN026 OVC060 13/10 A2975 RMK AO2 RAB30 P0002 T01280100=
201610172253 METAR KPAE 172253Z 20011KT 10SM SCT026 BKN036 OVC060 14/10 A2974 RMK AO2 RAB28E40 SLP071 P0000 T01390100=
201610172238 SPECI KPAE 172238Z 20012KT 10SM -RA SCT026 BKN035 OVC065 13/10 A2974 RMK AO2 RAB28 P0000 T01330100=
201610172219 SPECI KPAE 172219Z 19012G21KT 10SM BKN026 BKN035 OVC075 13/10 A2973 RMK AO2 T01330100=
201610172153 METAR KPAE 172153Z 20015KT 10SM FEW015 BKN080 OVC120 14/11 A2972 RMK AO2 RAE2056 SLP063 P0000 T01390106=
201610172150 SPECI KPAE 172150Z 19015KT 10SM FEW015 BKN030 OVC120 14/11 A2971 RMK AO2 RAE2056 P0000=
201610172053 METAR KPAE 172053Z 20010KT 10SM -RA BKN017 OVC024 13/11 A2970 RMK AO2 RAB37 SLP056 P0001 60009 T01280106 51023=
201610172000 SPECI KPAE 172000Z 17009KT 10SM BKN012 BKN017 OVC030 12/10 A2968 RMK AO2 T01220100=
201610171953 METAR KPAE 171953Z 17009KT 10SM OVC009 12/10 A2967 RMK AO2 RAE24 SLP049 P0002 T01170100=
201610171853 METAR KPAE 171853Z 17008KT 10SM -RA OVC009 11/09 A2965 RMK AO2 SLP042 P0006 T01110089=
201610171753 METAR KPAE 171753Z 16009KT 10SM -RA OVC014 11/08 A2963 RMK AO2 RAB33 SLP033 P0000 60001 T01110083 10111 20100 51030=
201610171726 SPECI KPAE 171726Z 17010KT 10SM OVC015 11/08 A2961 RMK AO2 T01110083=
201610171653 METAR KPAE 171653Z 17009KT 10SM BKN014 OVC027 11/08 A2960 RMK AO2 SLP024 T01110083=
201610171600 SPECI KPAE 171600Z 15008KT 10SM BKN024 10/08 A2957 RMK AO2 T01000078=
201610171553 METAR KPAE 171553Z 15010KT 10SM BKN010 OVC095 11/08 A2957 RMK AO2 SLP014 T01060078=
201610171453 METAR KPAE 171453Z 17011KT 10SM BKN010 OVC095 10/08 A2954 RMK AO2 SLP002 60001 T01000078 53018=
201610171353 METAR KPAE 171353Z 17010G19KT 10SM FEW008 SCT012 BKN065 10/08 A2951 RMK AO2 RAE14 SLP992 P0000 T01000078=
201610171330 SPECI KPAE 171330Z AUTO 17012G19KT 10SM BKN011 BKN065 OVC090 10/08 A2950 RMK AO2 RAE14 P0000 T01000078=
201610171320 SPECI KPAE 171320Z AUTO 18014G22KT 10SM SCT013 BKN045 OVC090 10/08 A2949 RMK AO2 RAE14 P0000 T01000078=
201610171310 SPECI KPAE 171310Z AUTO 18014KT 10SM -RA BKN013 BKN045 OVC095 10/08 A2949 RMK AO2 P0000 T01000078=
201610171253 METAR KPAE 171253Z AUTO 19016G22KT 10SM -RA SCT013 BKN070 OVC095 10/08 A2948 RMK AO2 RAB1158 SLP984 P0001 T01000078=
201610171153 METAR KPAE 171153Z AUTO 17014G20KT 10SM FEW010 BKN090 OVC110 10/08 A2945 RMK AO2 RAE42 SLP973 P0001 60005 70041 T01000078 10106 20100 53017=
201610171127 SPECI KPAE 171127Z AUTO 18015KT 10SM -RA SCT009 OVC055 10/08 A2944 RMK AO2 P0001 T01000078=
201610171113 SPECI KPAE 171113Z AUTO 18011KT 10SM -RA SCT009 BKN014 OVC055 10/08 A2944 RMK AO2 P0001 T01000078=
201610171111 SPECI KPAE 171111Z AUTO 18011G20KT 10SM -RA SCT009 BKN030 OVC055 10/08 A2944 RMK AO2 P0001 T01000078=
201610171053 METAR KPAE 171053Z AUTO 18014G23KT 10SM -RA SCT013 BKN028 OVC060 10/08 A2943 RMK AO2 SLP966 P0002 T01000078=
201610171000 SPECI KPAE 171000Z AUTO 18015G21KT 10SM -RA FEW014 OVC023 10/08 A2942 RMK AO2 P0001 T01000078=
201610170953 METAR KPAE 170953Z AUTO 17010KT 10SM -RA BKN014 BKN025 OVC070 10/08 A2942 RMK AO2 RAE0856B50 SLP961 P0000 T01000078=
201610170942 SPECI KPAE 170942Z AUTO 17011G19KT 10SM BKN014 OVC023 10/08 A2942 RMK AO2 RAE0856 P0000 T01000078=
201610170853 METAR KPAE 170853Z AUTO 17009KT 10SM -RA FEW010 OVC017 10/08 A2940 RMK AO2 RAB09 SLP955 P0000 60002 T01000083 53009=
201610170834 SPECI KPAE 170834Z AUTO 15007KT 10SM -RA FEW009 OVC018 10/08 A2939 RMK AO2 RAB09 P0000 T01000083=
201610170800 SPECI KPAE 170800Z AUTO 15008KT 10SM FEW016 SCT024 OVC029 10/08 A2939 RMK AO2 T01000083=
201610170753 METAR KPAE 170753Z AUTO 15005KT 10SM FEW016 BKN031 OVC035 10/08 A2938 RMK AO2 RAE46 SLP950 P0000 T01000083 401280100=
201610170749 SPECI KPAE 170749Z AUTO 16007KT 10SM FEW016 BKN025 OVC038 10/08 A2938 RMK AO2 RAE46 P0000=
201610170653 METAR KPAE 170653Z AUTO 15007KT 10SM -RA BKN043 OVC055 10/08 A2937 RMK AO2 SLP946 P0002 T01000083=
201610170553 METAR KPAE 170553Z AUTO 16013KT 10SM -RA OVC055 11/08 A2936 RMK AO2 SLP941 P0004 60020 T01060083 10128 20106 53004=
201610170453 METAR KPAE 170453Z AUTO 16008KT 10SM -RA OVC065 11/09 A2935 RMK AO2 SLP939 P0002 T01060089=
201610170426 SPECI KPAE 170426Z AUTO 18007KT 10SM -RA FEW009 OVC055 11/09 A2935 RMK AO2 P0002 T01060089=
201610170353 METAR KPAE 170353Z 19007KT 10SM -RA FEW012 OVC049 11/09 A2935 RMK AO2 SLP939 P0004 T01060094=
201610170253 METAR KPAE 170253Z 20007KT 10SM -RA OVC050 11/09 A2935 RMK AO2 SLP937 P0007 60010 T01110094 56008=
201610170210 SPECI KPAE 170210Z 21007KT 10SM -RA FEW026 BKN043 OVC055 11/09 A2935 RMK AO2 P0002 T01110094=
201610170153 METAR KPAE 170153Z 23006KT 10SM -RA FEW014 BKN025 OVC048 12/10 A2935 RMK AO2 RAB16 SLP939 P0003 T01170100=
201610170053 METAR KPAE 170053Z 11004KT 10SM OVC060 13/09 A2934 RMK AO2 SLP936 T01280094=
201610162353 METAR KPAE 162353Z 15003KT 10SM BKN041 OVC060 13/09 A2937 RMK AO2 SLP946 60005 T01280094 10128 20111 56016=
201610162253 METAR KPAE 162253Z 10005KT 10SM FEW034 BKN042 BKN055 13/09 A2938 RMK AO2 SLP949 T01280089=
201610162153 METAR KPAE 162153Z 12007KT 10SM SCT008 SCT037 OVC048 12/09 A2940 RMK AO2 RAE39 SLP954 P0001 T01170094=
201610162135 SPECI KPAE 162135Z 00000KT 10SM -RA SCT008 SCT037 OVC048 12/09 A2940 RMK AO2 P0001 T01170094=
201610162124 SPECI KPAE 162124Z VRB03KT 10SM -RA FEW011 BKN036 OVC048 11/09 A2941 RMK AO2 P0001 T01110094=
201610162053 METAR KPAE 162053Z 16007KT 10SM -RA BKN017 OVC025 11/09 A2942 RMK AO2 RAB16 SLP962 P0004 60004 T01110094 58003=
201610162032 SPECI KPAE 162032Z 16012KT 10SM -RA BKN018 BKN032 OVC043 11/09 A2942 RMK AO2 RAB16 P0002 T01110089=
201610162008 SPECI KPAE 162008Z 17010KT 10SM BKN014 BKN032 OVC049 12/08 A2943 RMK AO2 T01170078=
201610161953 METAR KPAE 161953Z 18012G19KT 10SM FEW024 SCT032 OVC049 12/08 A2944 RMK AO2 SLP967 T01220078=
201610161853 METAR KPAE 161853Z 18017G23KT 10SM FEW021 OVC050 12/08 A2944 RMK AO2 PK WND 15026/1818 RAB19E30 SLP968 P0000 T01220083=
201610161753 METAR KPAE 161753Z 16015G21KT 10SM FEW009 SCT027 OVC050 11/08 A2943 RMK AO2 RAB18E50 SLP965 P0000 60011 T01110083 10111 20100 50005=
201610161653 METAR KPAE 161653Z 15010G17KT 10SM FEW009 BKN038 OVC055 11/08 A2943 RMK AO2 RAE19 SLP965 VIS E-S 2 P0000 T01060083=
201610161646 SPECI KPAE 161646Z 14007G17KT 100V170 10SM FEW009 BKN038 OVC055 11/08 A2943 RMK AO2 RAE19 VIS E-S 2 P0000 T01060083=
201610161600 SPECI KPAE 161600Z 15017G23KT 10SM -RA BKN009 BKN047 OVC055 10/08 A2943 RMK AO2 VIS E-S 2 P0000 T01000083=
201610161553 METAR KPAE 161553Z 15013KT 10SM -RA SCT009 BKN050 OVC070 11/08 A2942 RMK AO2 PK WND 16028/1456 SLP964 P0002 T01060083=
201610161501 SPECI KPAE 161501Z 17015G28KT 10SM -RA BKN014 OVC060 11/08 A2941 RMK AO2 PK WND 16028/1456 P0000 T01060078=
201610161453 METAR KPAE 161453Z 17013G24KT 10SM -RA OVC060 11/08 A2941 RMK AO2 PK WND 18027/1440 SLP960 P0002 60009 T01060078 53001=
201610161353 METAR KPAE 161353Z 15010G17KT 10SM -RA FEW033 SCT049 OVC060 10/08 A2939 RMK AO2 SLP953 P0001 T01000078=
201610161253 METAR KPAE 161253Z AUTO 15006KT 10SM -RA OVC046 10/08 A2940 RMK AO2 SLP956 P0006 T01000078=
201610161153 METAR KPAE 161153Z AUTO 16015KT 10SM -RA FEW042 OVC055 10/08 A2941 RMK AO2 PK WND 16026/1114 RAE1058B16 SLP959 P0002 60004 70052 T01000078 10117 20100 51006=
201610161053 METAR KPAE 161053Z AUTO 16017G22KT 10SM -RA BKN050 11/07 A2941 RMK AO2 RAB36 SLP958 P0002 T01110072=
201610160953 METAR KPAE 160953Z AUTO 17013G21KT 10SM SCT110 11/08 A2941 RMK AO2 RAE0856 SLP958 P0000 T01110078=
201610160853 METAR KPAE 160853Z AUTO 17014G21KT 10SM -RA SCT024 SCT031 BKN049 11/08 A2939 RMK AO2 PK WND 19031/0819 RAB39 SLP952 P0000 60000 T01110083 51027=
201610160753 METAR KPAE 160753Z AUTO 18023G31KT 10SM CLR 11/08 A2937 RMK AO2 PK WND 18032/0703 SLP945 T01110078 401440094=
201610160708 SPECI KPAE 160708Z AUTO 18023G32KT 10SM SCT019 11/08 A2935 RMK AO2 PK WND 18032/0703 T01110078=
201610160653 METAR KPAE 160653Z AUTO 18020G31KT 10SM BKN019 BKN024 11/08 A2934 RMK AO2 PK WND 20031/0646 SLP936 T01110083=
201610160553 METAR KPAE 160553Z AUTO 17017G28KT 10SM FEW021 FEW030 11/08 A2931 RMK AO2 PK WND 18030/0522 RAE17 PRESRR SLP925 P0000 60007 T01110083 10144 20111 53024=
201610160453 METAR KPAE 160453Z AUTO 18022G29KT 10SM -RA SCT017 BKN036 OVC070 12/08 A2928 RMK AO2 PK WND 18031/0412 RAB53 SLP915 P0000 T01170083=
201610160441 SPECI KPAE 160441Z AUTO 18018G29KT 10SM SCT017 BKN023 OVC041 12/08 A2928 RMK AO2 PK WND 18031/0412 T01170083=
201610160353 METAR KPAE 160353Z AUTO 18024G31KT 10SM SCT023 BKN030 BKN100 12/08 A2924 RMK AO2 PK WND 19034/0327 SLP901 T01170083=
201610160348 SPECI KPAE 160348Z AUTO 18024G31KT 10SM FEW018 BKN023 BKN030 12/08 A2924 RMK AO2 PK WND 19034/0327=
201610160253 METAR KPAE 160253Z 19026G34KT 10SM SCT022 BKN110 12/08 A2918 RMK AO2 PK WND 18034/0240 RAE01 SLP882 P0000 60007 T01170083 53030=
201610160153 METAR KPAE 160153Z 19026G37KT 10SM -RA FEW029 SCT038 OVC050 12/08 A2914 RMK AO2 PK WND 18037/0134 SLP866 P0007 T01220083=
201610160053 METAR KPAE 160053Z 16014G21KT 10SM -RA BKN045 OVC055 14/08 A2912 RMK AO2 PK WND 15028/0001 SLP859 P0000 T01390078=
201610152353 METAR KPAE 152353Z 15017G26KT 10SM -RA BKN065 BKN080 OVC090 14/08 A2909 RMK AO2 PK WND 16026/2350 RAE21B40 SLP852 P0000 60030 T01390078 10139 20094 56039=
201610152253 METAR KPAE 152253Z 15012G21KT 10SM -RA FEW060 BKN075 OVC100 13/08 A2911 RMK AO2 RAE07B44 SLP858 P0000 T01330078=
201610152153 METAR KPAE 152153Z 14007KT 10SM -RA SCT033 SCT055 OVC070 12/09 A2914 RMK AO2 PRESFR SLP868 P0001 T01170094=
201610152053 METAR KPAE 152053Z 12012G18KT 10SM -RA BKN060 OVC070 11/09 A2921 RMK AO2 SLP892 P0014 60029 T01060089 56056=
201610151953 METAR KPAE 151953Z 10010KT 10SM -RA BKN060 OVC075 10/08 A2925 RMK AO2 SLP907 P0009 T01000083=
201610151853 METAR KPAE 151853Z 11010KT 6SM -RA BR OVC060 10/08 A2933 RMK AO2 SLP933 P0006 T01000078=
201610151753 METAR KPAE 151753Z 12009KT 5SM -RA BR FEW037 BKN060 OVC070 09/08 A2938 RMK AO2 SLP949 P0004 60011 T00940083 10106 20094 58042=
201610151701 SPECI KPAE 151701Z 11010KT 10SM -RA FEW009 BKN040 OVC070 09/08 A2943 RMK AO2 P0001 T00940078=
201610151653 METAR KPAE 151653Z 11009KT 10SM -RA BKN060 OVC070 10/08 A2944 RMK AO2 SLP969 P0004 T01000083=
201610151553 METAR KPAE 151553Z 12008KT 3SM -RA BR BKN060 OVC075 10/08 A2948 RMK AO2 SLP984 P0002 T01000083=
201610151458 SPECI KPAE 151458Z 12008KT 4SM -RA BR FEW032 SCT047 OVC060 10/08 A2951 RMK AO2 P0000 T01000078=
201610151453 METAR KPAE 151453Z 12008KT 10SM -RA FEW045 OVC060 10/08 A2951 RMK AO2 RAB33 SLP993 P0001 60001 T01000078 58019=
201610151353 METAR KPAE 151353Z 12008KT 10SM OVC046 10/08 A2953 RMK AO2 SLP998 T01000078=
201610151253 METAR KPAE 151253Z AUTO 15007KT 100V170 10SM BKN049 OVC060 10/08 A2955 RMK AO2 RAE1159 SLP007 P0000 T01000083=
201610151153 METAR KPAE 151153Z AUTO 16014KT 10SM -RA FEW065 BKN080 OVC120 10/08 A2957 RMK AO2 RAB47 SLP012 P0000 60004 70077 T01000078 10111 20094 58010=
201610151053 METAR KPAE 151053Z AUTO 16017G23KT 10SM CLR 10/08 A2958 RMK AO2 SLP018 T01000078=
201610150953 METAR KPAE 150953Z AUTO 15009KT 10SM CLR 10/08 A2959 RMK AO2 SLP022 T01000078=
201610150853 METAR KPAE 150853Z AUTO 15012KT 10SM SCT025 BKN033 OVC060 10/08 A2960 RMK AO2 RAE38 SLP022 P0001 60004 T01000083 52003=
201610150753 METAR KPAE 150753Z AUTO 16012KT 10SM -RA BKN060 OVC075 10/08 A2959 RMK AO2 SLP022 P0003 T01000083 401330100=
201610150653 METAR KPAE 150653Z AUTO 17015G20KT 10SM -RA BKN070 OVC090 11/08 A2959 RMK AO2 RAB30 SLP019 P0000 T01060078=
201610150553 METAR KPAE 150553Z AUTO 17015G24KT 10SM SCT047 OVC070 11/08 A2959 RMK AO2 RAB40E51 SLP019 P0000 60005 T01110078 10128 20111 51017=
201610150453 METAR KPAE 150453Z AUTO 16015KT 10SM FEW017 FEW023 11/08 A2957 RMK AO2 SLP015 T01110078=
201610150353 METAR KPAE 150353Z 18013KT 10SM SCT022 SCT075 12/08 A2956 RMK AO2 PK WND 18028/0254 SLP009 T01170078=
201610150253 METAR KPAE 150253Z 18021G27KT 10SM FEW021 12/09 A2953 RMK AO2 PK WND 18029/0209 SLP001 60005 T01220089 51032=
201610150153 METAR KPAE 150153Z 18019G30KT 10SM FEW020 SCT090 12/09 A2951 RMK AO2 PK WND 18035/0056 RAE0058 SLP993 P0000 T01220089=
201610150053 METAR KPAE 150053Z 19025G32KT 10SM -RA SCT040 BKN050 OVC110 13/09 A2949 RMK AO2 PK WND 19038/0023 SLP985 P0005 T01280089=
201610142353 METAR KPAE 142353Z 18030G43KT 10SM RA BKN060 OVC070 12/09 A2944 RMK AO2 PK WND 18043/2346 RAE2258B26 SLP969 P0009 60030 T01220089 10133 20111 51025=
201610142253 METAR KPAE 142253Z 19032G41KT 10SM -RA SCT027 BKN035 BKN048 13/09 A2943 RMK AO2 PK WND 18046/2220 RAE11B43 SLP964 P0000 T01330089=
201610142238 SPECI KPAE 142238Z 19027G44KT 10SM SCT026 BKN033 13/09 A2940 RMK AO2 PK WND 18046/2220 RAE11 P0000 T01330089=
201610142153 METAR KPAE 142153Z 18025G43KT 10SM -RA SCT017 SCT022 OVC029 12/09 A2940 RMK AO2 PK WND 19044/2120 RAE22B46 SLP956 P0001 T01220089=
201610142053 METAR KPAE 142053Z 18023G36KT 10SM -RA BKN013 BKN020 OVC042 12/09 A2936 RMK AO2 PK WND 18039/2043 SLP942 P0003 60020 T01170094 53015=
201610141958 SPECI KPAE 141958Z 17022G36KT 10SM -RA BKN013 BKN027 OVC050 11/09 A2935 RMK AO2 PK WND 16036/1958 P0000 T01110089=
201610141953 METAR KPAE 141953Z 17025G35KT 5SM -RA BR SCT014 OVC040 11/09 A2934 RMK AO2 PK WND 16040/1906 SLP936 P0002 T01110089=
201610141853 METAR KPAE 141853Z 17027G35KT 10SM -RA BKN041 OVC055 11/08 A2933 RMK AO2 PK WND 18039/1838 SLP929 P0015 T01110083=
201610141811 SPECI KPAE 141811Z 17022G32KT 2SM RA BKN013 OVC055 11/08 A2932 RMK AO2 PK WND 18035/1756 P0007 T01110083=
201610141753 METAR KPAE 141753Z 17023G37KT 10SM -RA FEW041 OVC050 12/08 A2932 RMK AO2 PK WND 16037/1750 RAE02B20 SLP927 P0009 60038 T01170078 10122 20100 50005=
201610141653 METAR KPAE 141653Z 16018G28KT 10SM -RA FEW025 BKN036 OVC050 11/08 A2932 RMK AO2 PK WND 16028/1653 SLP929 P0005 T01060083=
201610141553 METAR KPAE 141553Z 15017G24KT 10SM -RA BKN055 BKN070 OVC085 11/08 A2933 RMK AO2 PK WND 18028/1515 RAB10 SLP931 P0005 T01060078=
201610141453 METAR KPAE 141453Z 16020G28KT 10SM FEW055 SCT070 BKN100 11/08 A2930 RMK AO2 PK WND 16033/1441 RAE52 SLP923 P0015 60019 T01110078 58005=
201610141353 METAR KPAE 141353Z 18020G33KT 10SM RA OVC060 11/08 A2932 RMK AO2 PK WND 15035/1328 RAB18 SLP929 P0004 T01110083=
201610141253 METAR KPAE 141253Z AUTO 16016G21KT 10SM BKN055 12/07 A2931 RMK AO2 RAE02 SLP926 P0000 T01170072=
201610141153 METAR KPAE 141153Z AUTO 16013KT 10SM -RA BKN035 BKN048 OVC060 12/08 A2932 RMK AO2 RAE03B22 SLP928 P0003 60011 70083 T01170083 10139 20117 50011=
201610141123 SPECI KPAE 141123Z AUTO 17016KT 10SM -RA SCT022 SCT043 OVC060 12/08 A2932 RMK AO2 RAE03B22 P0000 T01170083=
201610141112 SPECI KPAE 141112Z AUTO 16018G24KT 10SM SCT020 BKN027 OVC060 12/08 A2932 RMK AO2 RAE03 P0000 T01220083=
201610141053 METAR KPAE 141053Z AUTO 16016G23KT 10SM -RA FEW020 BKN034 OVC060 12/09 A2932 RMK AO2 PK WND 19027/0955 RAB52 SLP928 P0000 T01170089=
201610141003 SPECI KPAE 141003Z AUTO 18016G27KT 10SM FEW016 SCT055 12/09 A2930 RMK AO2 PK WND 19027/0955 T01220089=
201610140953 METAR KPAE 140953Z AUTO 18017G30KT 10SM SCT016 BKN022 BKN050 12/09 A2930 RMK AO2 PK WND 18034/0911 RAB06E22 SLP922 P0000 T01220094=
201610140853 METAR KPAE 140853Z AUTO 18020G29KT 10SM BKN016 BKN024 12/10 A2929 RMK AO2 PK WND 18036/0813 RAB17E52 SLP917 P0000 60008 T01220100 53040=
201610140845 SPECI KPAE 140845Z AUTO 19022G29KT 10SM -RA BKN015 BKN023 BKN029 12/10 A2929 RMK AO2 PK WND 18036/0813 RAB17 PRESRR P0000 T01220100=
201610140800 SPECI KPAE 140800Z AUTO 19027G43KT 10SM SCT016 SCT031 BKN100 13/10 A2923 RMK AO2 PK WND 19035/0800 T01280100=
201610140753 METAR KPAE 140753Z AUTO 18029G43KT 10SM SCT014 BKN023 BKN031 13/10 A2922 RMK AO2 PK WND 18043/0753 RAE48 SLP896 P0002 T01280100 401390100=
201610140739 SPECI KPAE 140739Z AUTO 18020G31KT 10SM -RA SCT012 BKN021 OVC043 13/11 A2921 RMK AO2 PK WND 16035/0710 P0002 T01280106=
201610140721 SPECI KPAE 140721Z AUTO 17021G34KT 10SM -RA FEW013 BKN040 OVC050 13/11 A2921 RMK AO2 PK WND 16035/0710 P0001 T01330111=
201610140712 SPECI KPAE 140712Z AUTO 17023G35KT 10SM -RA FEW010 BKN017 OVC050 13/11 A2920 RMK AO2 PK WND 16035/0710 P0001 T01330111=
201610140701 SPECI KPAE 140701Z AUTO 17023G33KT 10SM -RA SCT013 BKN032 OVC075 14/12 A2920 RMK AO2 PK WND 18033/0659 P0001 T01390117=
201610140656 SPECI KPAE 140656Z AUTO 17020G29KT 10SM -RA BKN013 BKN027 OVC048 14/12 A2919 RMK AO2 PK WND 17029/0654 P0001 T01390117=
201610140653 METAR KPAE 140653Z AUTO 17021G28KT 10SM -RA SCT012 BKN027 OVC075 14/12 A2919 RMK AO2 PK WND 17033/0554 SLP884 P0006 T01390117=
201610140650 SPECI KPAE 140650Z AUTO 17017G27KT 10SM -RA SCT012 BKN027 OVC075 14/12 A2919 RMK AO2 PK WND 17033/0554 P0006=
201610140624 SPECI KPAE 140624Z AUTO 17020G26KT 10SM -RA SCT012 BKN055 OVC075 14/12 A2919 RMK AO2 PK WND 17033/0554 P0003 T01390117=
201610140553 METAR KPAE 140553Z AUTO 18021G29KT 10SM -RA BKN011 BKN016 OVC055 13/12 A2917 RMK AO2 PK WND 19031/0532 SLP876 P0002 60043 T01330117 10133 20106 55019=
201610140530 SPECI KPAE 140530Z AUTO 17023G29KT 10SM -RA SCT018 BKN025 OVC055 13/11 A2916 RMK AO2 PK WND 18029/0530 PRESRR P0001 T01330106=
201610140453 METAR KPAE 140453Z AUTO 14011G20KT 10SM -RA SCT032 BKN045 OVC075 12/10 A2912 RMK AO2 SLP861 P0013 T01170100=
201610140353 METAR KPAE 140353Z AUTO 12012G18KT 10SM RA BKN055 OVC070 11/09 A2916 RMK AO2 SLP873 P0012 T01110094=
201610140253 METAR KPAE 140253Z 11015G19KT 10SM -RA BKN080 OVC095 11/09 A2922 RMK AO2 PRESFR SLP895 P0008 60016 T01060089 58081=
201610140208 SPECI KPAE 140208Z 11011G19KT 5SM -RA BR BKN008 OVC080 11/09 A2931 RMK AO2 P0002 T01060089=
201610140200 SPECI KPAE 140200Z 11012G19KT 10SM -RA BKN075 OVC090 11/09 A2933 RMK AO2 PRESFR P0001 T01060089=
201610140153 METAR KPAE 140153Z 11011KT 5SM -RA BR BKN008 OVC090 11/09 A2934 RMK AO2 PRESFR SLP935 P0003 T01060089=
201610140132 SPECI KPAE 140132Z 11013G18KT 5SM -RA BR BKN008 OVC080 11/09 A2936 RMK AO2 P0002 T01060089=
201610140110 SPECI KPAE 140110Z 11011KT 1/2SM R16R/P6000FT -RA FG OVC002 11/09 A2939 RMK AO2 P0001 T01060094=
201610140100 SPECI KPAE 140100Z 11011KT 10SM -RA OVC002 11/09 A2939 RMK AO2 PRESFR P0001 T01060094=
201610140053 METAR KPAE 140053Z 11010KT 1/2SM R16R/P6000FT -RA FG OVC002 11/09 A2941 RMK AO2 PRESFR SLP959 P0005 T01060094=
201610132353 METAR KPAE 132353Z 12007KT 1/2SM R16R/P6000FT -RA FG OVC002 11/10 A2947 RMK AO2 SLP978 P0004 60015 T01060100 10117 20106 56030=
201610132253 METAR KPAE 132253Z VRB04KT 10SM -RA BKN004 OVC018 12/11 A2952 RMK AO2 SLP998 P0005 T01170106=
201610132202 SPECI KPAE 132202Z VRB05KT 10SM -RA BKN004 OVC018 12/11 A2955 RMK AO2 P0001 T01170106=
201610132200 SPECI KPAE 132200Z 14005KT 10SM -RA FEW003 BKN018 OVC050 12/11 A2955 RMK AO2 P0001 T01170106=
201610132153 METAR KPAE 132153Z VRB04KT 7SM -RA BKN004 OVC020 12/11 A2956 RMK AO2 SLP008 P0004 T01170106=
201610132100 SPECI KPAE 132100Z 15010KT 7SM -RA BKN004 OVC020 12/11 A2959 RMK AO2 P0001 T01170106=
201610132053 METAR KPAE 132053Z 15009KT 110V170 7SM -RA BKN006 OVC010 12/11 A2960 RMK AO2 RAB12 SLP023 P0001 60002 T01170106 58020=
201610131953 METAR KPAE 131953Z 15008KT 10SM BR BKN004 OVC009 12/11 A2963 RMK AO2 RAB1856E33 SLP034 P0000 T01170106=
201610131902 SPECI KPAE 131902Z 15009KT 10SM -RA BKN004 OVC009 12/10 A2964 RMK AO2 RAB1856 P0000 T01170100=
201610131853 METAR KPAE 131853Z 15009KT 3SM BR SCT005 BKN009 OVC025 12/10 A2964 RMK AO2 RAE41 SLP037 P0001 T01170100=
201610131757 SPECI KPAE 131757Z 15010KT 3SM -RA BR SCT005 BKN009 OVC025 11/09 A2966 RMK AO2 P0000 T01110094=
201610131753 METAR KPAE 131753Z 15009KT 3SM -RA BR BKN004 BKN030 OVC060 11/09 A2966 RMK AO2 SLP042 P0003 60014 T01110094 10111 20106 56004=
201610131700 SPECI KPAE 131700Z 15008KT 3SM -RA BR BKN004 BKN030 OVC060 11/09 A2967 RMK AO2 P0000 T01060094=
201610131653 METAR KPAE 131653Z 15006KT 1SM R16R/P6000FT -RA BR BKN004 BKN033 OVC090 11/09 A2966 RMK AO2 SLP044 P0003 T01110094=
201610131553 METAR KPAE 131553Z 15007KT 1SM R16R/P6000FT -RA BR OVC002 11/10 A2966 RMK AO2 RAE05B21 SLP044 P0000 T01110100=
201610131512 SPECI KPAE 131512Z 16011KT 1SM R16R/P6000FT BR OVC002 11/09 A2967 RMK AO2 RAE05 P0000 T01110094=
201610131500 SPECI KPAE 131500Z 16013KT 10SM -RA FEW004 BKN070 OVC120 11/10 A2967 RMK AO2 P0000 T01110100=
201610131453 METAR KPAE 131453Z 16015KT 10SM -RA BKN004 BKN065 OVC090 11/10 A2967 RMK AO2 SLP046 P0001 60008 T01110100 58009=
201610131400 SPECI KPAE 131400Z 18010KT 10SM -RA FEW005 OVC033 11/09 A2970 RMK AO2 P0000 T01110094=
201610131353 METAR KPAE 131353Z AUTO 18008KT 10SM -RA FEW029 OVC036 11/09 A2970 RMK AO2 SLP057 P0003 T01060094=
201610131331 SPECI KPAE 131331Z AUTO 17009KT 10SM -RA SCT026 BKN036 OVC050 11/09 A2970 RMK AO2 P0002 T01060094=
201610131253 METAR KPAE 131253Z AUTO 17009KT 10SM -RA OVC029 11/09 A2970 RMK AO2 SLP056 P0004 T01060089=
201610131251 SPECI KPAE 131251Z AUTO 17010KT 150V210 10SM -RA OVC029 11/09 A2970 RMK AO2 P0004=
201610131153 METAR KPAE 131153Z AUTO 16011KT 10SM -RA OVC032 11/08 A2970 RMK AO2 SLP056 P0003 60011 70011 T01060083 10139 20100 56026=
201610131053 METAR KPAE 131053Z AUTO 14009G17KT 100V170 10SM -RA BKN035 OVC044 10/08 A2972 RMK AO2 SLP062 P0003 T01000078=
201610130953 METAR KPAE 130953Z AUTO 15011G21KT 10SM -RA FEW050 SCT055 OVC070 11/07 A2974 RMK AO2 SLP072 P0004 T01060072=
201610130853 METAR KPAE 130853Z AUTO 15010G15KT 10SM -RA OVC050 12/06 A2978 RMK AO2 RAB01 SLP083 P0001 60001 T01170061 56021=
201610130753 METAR KPAE 130753Z AUTO 17007KT 10SM BKN050 OVC060 12/05 A2980 RMK AO2 SLP091 T01220050 401780067=
201610130653 METAR KPAE 130653Z AUTO VRB05KT 10SM BKN070 OVC100 14/03 A2982 RMK AO2 SLP096 T01390028=
201610130553 METAR KPAE 130553Z AUTO 16010KT 10SM BKN080 BKN100 OVC120 14/03 A2984 RMK AO2 SLP104 T01390028 10172 20128 58002=
201610130453 METAR KPAE 130453Z AUTO 16008KT 10SM SCT080 BKN100 14/02 A2985 RMK AO2 SLP107 T01440017=
201610130353 METAR KPAE 130353Z AUTO 19008KT 10SM FEW090 14/03 A2985 RMK AO2 SLP108 T01390028=
201610130253 METAR KPAE 130253Z 12004KT 10SM OVC100 15/03 A2985 RMK AO2 SLP107 T01500028 58026=
201610130153 METAR KPAE 130153Z 18003KT 10SM BKN110 14/03 A2988 RMK AO2 SLP119 T01440033=
201610130053 METAR KPAE 130053Z 17003KT 10SM FEW120 16/03 A2990 RMK AO2 SLP126 T01610028=
201610122353 METAR KPAE 122353Z 18004KT 10SM CLR 17/02 A2992 RMK AO2 SLP134 T01670022 10178 20111 56027=
201610122253 METAR KPAE 122253Z 17010KT 10SM CLR 18/02 A2995 RMK AO2 SLP140 T01780017=
201610122153 METAR KPAE 122153Z VRB03KT 10SM CLR 18/02 A2997 RMK AO2 SLP149 T01780017=
201610122053 METAR KPAE 122053Z 00000KT 10SM CLR 15/02 A3000 RMK AO2 SLP161 T01500022 58016=
201610121953 METAR KPAE 121953Z 16004KT 10SM CLR 16/00 A3003 RMK AO2 SLP168 T01560000=
201610121853 METAR KPAE 121853Z VRB03KT 10SM CLR 14/02 A3004 RMK AO2 SLP174 T01390022=
201610121753 METAR KPAE 121753Z 19003KT 10SM CLR 11/00 A3005 RMK AO2 SLP179 T01110000 10111 20067 58019=
201610121653 METAR KPAE 121653Z 10006KT 10SM CLR 10/M01 A3007 RMK AO2 SLP184 T01001006=
201610121553 METAR KPAE 121553Z 11006KT 10SM CLR 09/M01 A3010 RMK AO2 SLP193 T00891006=
201610121453 METAR KPAE 121453Z 11008KT 10SM CLR 07/M01 A3011 RMK AO2 SLP198 T00721006 58003=
201610121353 METAR KPAE 121353Z 11005KT 10SM CLR 07/00 A3011 RMK AO2 SLP200 T00670000=
201610121253 METAR KPAE 121253Z AUTO 10003KT 10SM CLR 08/00 A3012 RMK AO2 SLP199 T00780000=
201610121153 METAR KPAE 121153Z AUTO 10005KT 10SM CLR 07/01 A3012 RMK AO2 SLP200 T00720006 10094 20067 56011=
201610121053 METAR KPAE 121053Z AUTO 10003KT 10SM CLR 07/01 A3013 RMK AO2 SLP203 T00720006=
201610120953 METAR KPAE 120953Z AUTO 11003KT 10SM CLR 08/01 A3014 RMK AO2 SLP207 T00830006=
201610120853 METAR KPAE 120853Z AUTO 10005KT 10SM CLR 08/01 A3015 RMK AO2 SLP212 T00830011 58004=
201610120753 METAR KPAE 120753Z AUTO 12005KT 10SM CLR 09/01 A3016 RMK AO2 SLP215 T00940011 401500044=
201610120653 METAR KPAE 120653Z AUTO 11004KT 10SM CLR 08/03 A3017 RMK AO2 SLP218 T00830028=
201610120553 METAR KPAE 120553Z AUTO 00000KT 10SM CLR 08/05 A3017 RMK AO2 SLP217 T00830050 10144 20072 53002=
201610120453 METAR KPAE 120453Z AUTO 00000KT 10SM CLR 08/04 A3016 RMK AO2 SLP216 T00830044=
201610120353 METAR KPAE 120353Z 00000KT 10SM CLR 09/05 A3016 RMK AO2 SLP215 T00890050=
201610120253 METAR KPAE 120253Z 02004KT 10SM CLR 10/04 A3016 RMK AO2 SLP216 T01000039 56006=
201610120153 METAR KPAE 120153Z 03005KT 10SM CLR 12/04 A3016 RMK AO2 SLP216 T01170039=
201610120053 METAR KPAE 120053Z 01004KT 10SM CLR 13/04 A3017 RMK AO2 SLP218 T01330039=
201610112353 METAR KPAE 112353Z 03005KT 10SM CLR 14/03 A3018 RMK AO2 SLP220 T01440028 10150 20111 57010=
201610112253 METAR KPAE 112253Z AUTO 36006KT 10SM CLR 14/03 A3019 RMK AO2 SLP225 T01440033=
201610112153 METAR KPAE 112153Z AUTO 03006KT 10SM CLR 14/04 A3020 RMK AO2 SLP227 T01390039=
201610112053 METAR KPAE 112053Z AUTO 36004KT 10SM CLR 13/04 A3021 RMK AO2 SLP231 T01330044 58008=
201610111953 METAR KPAE 111953Z AUTO 36004KT 10SM CLR 13/04 A3022 RMK AO2 SLP235 T01280039=
201610111853 METAR KPAE 111853Z AUTO 11006KT 10SM CLR 12/01 A3023 RMK AO2 SLP239 T01220011=
201610111753 METAR KPAE 111753Z AUTO 08004KT 10SM CLR 11/02 A3023 RMK AO2 SLP239 T01110017 10111 20044 50013=
201610111653 METAR KPAE 111653Z AUTO VRB03KT 10SM CLR 09/02 A3023 RMK AO2 SLP240 T00940022=
201610111553 METAR KPAE 111553Z AUTO 03004KT 10SM CLR 08/02 A3021 RMK AO2 SLP234 T00780017=
201610111453 METAR KPAE 111453Z AUTO 04003KT 10SM CLR 04/02 A3019 RMK AO2 SLP226 T00440017 53013=
201610111353 METAR KPAE 111353Z AUTO 00000KT 10SM CLR 05/02 A3018 RMK AO2 SLP221 T00500017 $=
201610111253 METAR KPAE 111253Z AUTO 00000KT 10SM CLR 04/01 A3016 RMK AO2 SLP216 T00440011 $=
201610111153 METAR KPAE 111153Z AUTO 04006KT 10SM CLR 06/02 A3015 RMK AO2 SLP212 T00610022 10078 20050 51004 $=
201610111053 METAR KPAE 111053Z AUTO 03005KT 10SM CLR 06/02 A3015 RMK AO2 SLP212 T00560022 $=
201610110953 METAR KPAE 110953Z AUTO 36003KT 10SM CLR 06/04 A3015 RMK AO2 SLP211 T00560039 $=
201610110853 METAR KPAE 110853Z AUTO 36004KT 10SM CLR 06/04 A3014 RMK AO2 SLP208 T00560039 52010 $=
201610110753 METAR KPAE 110753Z AUTO 30007KT 10SM CLR 07/03 A3013 RMK AO2 SLP203 T00720028 401330067 $=
201610110653 METAR KPAE 110653Z AUTO 34004KT 10SM CLR 08/01 A3012 RMK AO2 SLP201 T00780011 $=
201610110553 METAR KPAE 110553Z AUTO 31005KT 10SM CLR 08/02 A3011 RMK AO2 SLP197 T00780017 10128 20078 $=
201610110453 METAR KPAE 110453Z AUTO 33005KT 10SM CLR 09/02 A3010 RMK AO2 SLP196 T00890022 $=
201610110353 METAR KPAE 110353Z AUTO 32006KT 10SM 09/03 A3009 RMK AO2 SLP192 T00890028 $=
201610110253 METAR KPAE 110253Z 32005KT 10SM CLR 09/03 A3009 RMK AO2 SLP190 T00890033 53005=
201610110153 METAR KPAE 110153Z 32004KT 10SM CLR 09/04 A3008 RMK AO2 SLP188 T00940039=
201610110053 METAR KPAE 110053Z 35005KT 10SM CLR 12/04 A3008 RMK AO2 SLP185 T01170039=
201610102353 METAR KPAE 102353Z 34007KT 10SM CLR 12/05 A3007 RMK AO2 SLP184 T01220050 10133 20100 56002=
201610102253 METAR KPAE 102253Z 33008KT 10SM CLR 12/06 A3007 RMK AO2 SLP184 T01220061=
201610102153 METAR KPAE 102153Z 36007KT 10SM CLR 13/07 A3007 RMK AO2 SLP184 T01330067=
201610102053 METAR KPAE 102053Z 00000KT 10SM FEW070 12/05 A3008 RMK AO2 SLP186 T01220050 58006=
201610101953 METAR KPAE 101953Z 27005KT 10SM BKN047 12/07 A3009 RMK AO2 SLP189 T01220072=
201610101853 METAR KPAE 101853Z 19006KT 10SM OVC046 12/07 A3009 RMK AO2 SLP191 T01170067=
201610101753 METAR KPAE 101753Z VRB03KT 10SM OVC039 10/07 A3010 RMK AO2 SLP193 T01000067 10100 20089 51011=
201610101653 METAR KPAE 101653Z 21004KT 10SM FEW010 SCT026 OVC033 09/07 A3009 RMK AO2 SLP192 T00940067=
201610101624 SPECI KPAE 101624Z 00000KT 10SM SCT024 OVC032 09/07 A3008 RMK AO2 T00940067=
201610101606 SPECI KPAE 101606Z 21004KT 10SM BKN024 OVC032 09/07 A3008 RMK AO2 T00940067=
201610101553 METAR KPAE 101553Z 19004KT 10SM OVC030 09/07 A3008 RMK AO2 SLP187 T00940067=
201610101525 SPECI KPAE 101525Z 22003KT 10SM BKN030 OVC035 09/07 A3007 RMK AO2 T00890067=
201610101453 METAR KPAE 101453Z 00000KT 10SM OVC025 09/06 A3006 RMK AO2 SLP182 T00940061 51009=
201610101353 METAR KPAE 101353Z 20003KT 10SM OVC025 09/06 A3006 RMK AO2 SLP180 T00890061=
201610101253 METAR KPAE 101253Z AUTO 20004KT 10SM BKN023 BKN031 OVC043 09/06 A3005 RMK AO2 SLP178 T00890061=
201610101153 METAR KPAE 101153Z AUTO 29004KT 10SM OVC021 09/05 A3003 RMK AO2 SLP171 70001 T00940050 10094 20083 53016=
201610101053 METAR KPAE 101053Z AUTO 33004KT 10SM BKN018 OVC036 09/06 A3001 RMK AO2 SLP165 T00890056=
201610100953 METAR KPAE 100953Z AUTO 32004KT 10SM FEW020 BKN030 BKN041 09/06 A3000 RMK AO2 SLP160 T00890056=
201610100900 SPECI KPAE 100900Z AUTO 33005KT 10SM BKN030 OVC036 09/06 A2999 RMK AO2 T00890056=
201610100853 METAR KPAE 100853Z AUTO VRB03KT 10SM BKN028 09/06 A2999 RMK AO2 SLP155 T00890056 53012=
201610100832 SPECI KPAE 100832Z AUTO 33003KT 10SM BKN028 09/06 A2998 RMK AO2 T00890061=
201610100753 METAR KPAE 100753Z AUTO 33004KT 10SM FEW013 OVC040 09/07 A2998 RMK AO2 SLP152 T00890067 401280083=
201610100653 METAR KPAE 100653Z AUTO 31005KT 10SM SCT008 OVC039 09/07 A2996 RMK AO2 SLP148 T00890072=
201610100643 SPECI KPAE 100643Z AUTO 33005KT 10SM BKN009 OVC039 09/07 A2996 RMK AO2 T00890072=
201610100621 SPECI KPAE 100621Z AUTO 31004KT 10SM SCT009 OVC041 09/07 A2996 RMK AO2 T00890067=
201610100553 METAR KPAE 100553Z 31007KT 10SM BKN041 09/07 A2995 RMK AO2 SLP145 60001 T00890067 10111 20089 53004=
201610100453 METAR KPAE 100453Z 32005KT 10SM FEW008 SCT039 09/07 A2994 RMK AO2 RAE0355 SLP142 P0000 T00890072=
201610100358 SPECI KPAE 100358Z 33005KT 10SM FEW006 BKN055 OVC080 09/08 A2994 RMK AO2 RAE55 P0000 T00940083=
201610100353 METAR KPAE 100353Z 34005KT 10SM -RA BKN055 OVC080 09/08 A2994 RMK AO2 RAB08 SLP141 P0001 T00940083=
201610100253 METAR KPAE 100253Z 35003KT 10SM FEW023 SCT028 OVC055 10/08 A2994 RMK AO2 SLP141 T01000078 58011=
201610100153 METAR KPAE 100153Z 33003KT 10SM BKN042 11/08 A2995 RMK AO2 SLP145 T01060078=
201610100120 SPECI KPAE 100120Z 00000KT 10SM FEW019 BKN043 OVC120 11/08 A2995 RMK AO2 T01060078=
201610100053 METAR KPAE 100053Z 31003KT 10SM BKN019 OVC041 11/08 A2997 RMK AO2 SLP150 T01060078=
201610100012 SPECI KPAE 100012Z 25005KT 10SM BKN016 OVC095 11/08 A2998 RMK AO2 T01110078=
201610092353 METAR KPAE 092353Z 00000KT 10SM BKN095 BKN120 11/08 A2998 RMK AO2 SLP151 T01110078 10128 20100 58011=
201610092253 METAR KPAE 092253Z 33004KT 10SM FEW014 12/08 A2999 RMK AO2 SLP157 T01170078=
201610092153 METAR KPAE 092153Z VRB04KT 10SM SCT012 BKN042 12/08 A2999 RMK AO2 SLP157 T01170078=
201610092053 METAR KPAE 092053Z VRB03KT 10SM BKN010 12/08 A3001 RMK AO2 CIG 009V013 SLP162 T01170083 58008=
201610092044 SPECI KPAE 092044Z 00000KT 10SM BKN010 11/08 A3001 RMK AO2 T01110078=
201610091953 METAR KPAE 091953Z 01005KT 10SM FEW008 OVC041 11/08 A3002 RMK AO2 SLP166 T01110083=
201610091853 METAR KPAE 091853Z 34003KT 10SM OVC039 10/08 A3003 RMK AO2 SLP169 T01000078=
201610091753 METAR KPAE 091753Z VRB03KT 10SM OVC042 10/08 A3003 RMK AO2 SLP171 T01000078 10100 20089 51008=
201610091653 METAR KPAE 091653Z 01003KT 10SM FEW037 FEW046 10/08 A3003 RMK AO2 SLP169 T01000078=
201610091553 METAR KPAE 091553Z 33003KT 10SM OVC039 09/08 A3002 RMK AO2 SLP167 T00940078=
201610091453 METAR KPAE 091453Z 34003KT 10SM BKN041 09/07 A3001 RMK AO2 SLP162 T00890072 51012=
201610091353 METAR KPAE 091353Z 34003KT 10SM BKN070 09/07 A3000 RMK AO2 SLP159 T00890072=
201610091253 METAR KPAE 091253Z AUTO 32003KT 10SM OVC060 09/08 A2999 RMK AO2 SLP155 T00940078=
201610091153 METAR KPAE 091153Z AUTO 00000KT 10SM FEW003 BKN065 09/08 A2997 RMK AO2 SLP149 60006 70023 T00940083 10100 20094 51015=
201610091146 SPECI KPAE 091146Z AUTO 00000KT 10SM FEW003 BKN065 09/08 A2997 RMK AO2 T00940083=
201610091100 SPECI KPAE 091100Z AUTO 00000KT 10SM BKN004 BKN010 OVC065 10/09 A2996 RMK AO2 CIG 002V007 T01000089=
201610091053 METAR KPAE 091053Z AUTO 34003KT 10SM SCT004 BKN010 BKN060 09/08 A2996 RMK AO2 RAE0957 SLP145 P0000 T00940083=
201610090953 METAR KPAE 090953Z AUTO 01003KT 10SM -RA FEW006 OVC048 10/08 A2995 RMK AO2 RAE15B47 SLP140 P0000 T01000083=
201610090938 SPECI KPAE 090938Z AUTO 35005KT 10SM FEW004 SCT041 OVC048 10/08 A2994 RMK AO2 RAE15 P0000 T01000083=
201610090853 METAR KPAE 090853Z AUTO 02007KT 10SM -RA OVC002 10/09 A2993 RMK AO2 SLP134 P0001 60006 T01000089 51014=
201610090842 SPECI KPAE 090842Z AUTO 01006KT 10SM -RA OVC001 10/09 A2992 RMK AO2 P0000 T01000094=
201610090753 METAR KPAE 090753Z AUTO VRB06KT 10SM -RA OVC002 10/09 A2991 RMK AO2 SLP126 P0002 T01000094 401780100=
201610090653 METAR KPAE 090653Z AUTO 33006KT 10SM -RA OVC002 10/09 A2988 RMK AO2 SLP119 P0003 T01000094=
201610090553 METAR KPAE 090553Z AUTO 33006KT 10SM -RA OVC003 10/09 A2987 RMK AO2 CIG 001V006 SLP114 P0004 60010 T01000094 10161 20100 53031=
201610090453 METAR KPAE 090453Z AUTO 34007KT 10SM -RA BKN003 BKN007 OVC013 11/11 A2984 RMK AO2 PK WND 21026/0404 WSHFT 0404 RAB23 SLP103 P0006 T01110106=
201610090430 SPECI KPAE 090430Z AUTO VRB06G19KT 10SM -RA BKN003 OVC010 14/13 A2983 RMK AO2 PK WND 21026/0404 WSHFT 0404 RAB23 CIG 002V005 P0001 T01390128=
201610090418 SPECI KPAE 090418Z AUTO 28010G21KT 10SM FEW003 OVC010 14/13 A2982 RMK AO2 PK WND 21026/0404 WSHFT 0404 CIG 008V014 T01440128=
201610090403 SPECI KPAE 090403Z AUTO 20017G26KT 10SM OVC010 16/13 A2981 RMK AO2 PK WND 19026/0359 T01560133=
201610090353 METAR KPAE 090353Z AUTO 20018G27KT 10SM BKN009 OVC015 16/13 A2981 RMK AO2 PK WND 20029/0310 CIG 008V013 SLP092 T01560133=
201610090343 SPECI KPAE 090343Z 20018G26KT 10SM OVC009 16/13 A2980 RMK AO2 PK WND 20029/0310 CIG 008V014 T01560133=
201610090309 SPECI KPAE 090309Z 20018G29KT 10SM OVC011 16/13 A2978 RMK AO2 PK WND 20029/0305 T01560133=
201610090253 METAR KPAE 090253Z 19021G28KT 10SM OVC009 16/13 A2978 RMK AO2 PK WND 18034/0218 SLP082 60000 T01560133 55004=
201610090153 METAR KPAE 090153Z 18023G31KT 10SM BKN009 OVC013 16/14 A2977 RMK AO2 PK WND 18034/0102 RAB0055E05 SLP082 P0000 T01560139=
201610090124 SPECI KPAE 090124Z 18024G31KT 10SM BKN009 OVC013 16/14 A2978 RMK AO2 PK WND 18034/0102 RAB0055E05 P0000 T01560139=
201610090117 SPECI KPAE 090117Z 18023G30KT 10SM BKN010 OVC013 16/14 A2978 RMK AO2 PK WND 18034/0102 RAB0055E05 CIG 007V011 P0000 T01560139=
201610090053 METAR KPAE 090053Z 18022G27KT 10SM OVC009 16/14 A2979 RMK AO2 PK WND 18033/2354 RAB12E22 SLP087 P0000 T01560139=
201610082353 METAR KPAE 082353Z 19023G35KT 10SM BKN009 OVC015 16/14 A2979 RMK AO2 PK WND 19035/2349 SLP087 60005 T01610139 10178 20156 57005=
201610082253 METAR KPAE 082253Z 19023G29KT 10SM BKN009 OVC015 16/14 A2980 RMK AO2 PK WND 19030/2212 RAE45 SLP091 P0000 T01610139=
201610082250 SPECI KPAE 082250Z 20019G28KT 10SM BKN009 OVC015 16/14 A2980 RMK AO2 PK WND 19030/2212 RAE45 P0000=
201610082212 SPECI KPAE 082212Z 19022G30KT 10SM -RA BKN010 BKN032 OVC040 16/14 A2979 RMK AO2 PK WND 19030/2212 P0000 T01610139=
201610082153 METAR KPAE 082153Z 18021G28KT 10SM -RA SCT016 BKN040 OVC070 16/14 A2979 RMK AO2 PK WND 18033/2125 SLP087 P0003 T01610139=
201610082100 SPECI KPAE 082100Z 18022G30KT 10SM -RA FEW016 BKN047 OVC090 16/14 A2981 RMK AO2 PK WND 19030/2057 P0000 T01610139=
201610082053 METAR KPAE 082053Z 18022G31KT 2SM -RA BR BKN024 OVC035 16/14 A2980 RMK AO2 PK WND 19037/2036 RAB13 SLP092 P0002 60002 T01610139 58008=
201610082043 SPECI KPAE 082043Z 18022G37KT 2SM -RA BR BKN024 OVC035 16/14 A2981 RMK AO2 PK WND 19037/2036 RAB13 P0002 T01610139=
201610081953 METAR KPAE 081953Z 19026G32KT 10SM BKN024 BKN028 BKN040 18/13 A2981 RMK AO2 PK WND 19035/1933 RAB01E11 SLP093 P0000 T01780128=
201610081853 METAR KPAE 081853Z 17016G27KT 10SM FEW016 BKN033 OVC100 17/13 A2983 RMK AO2 PK WND 18032/1839 SLP100 T01670133=
201610081829 SPECI KPAE 081829Z 18023G30KT 10SM FEW012 SCT037 BKN055 16/13 A2983 RMK AO2 PK WND 17030/1757 T01610133=
201610081755 SPECI KPAE 081755Z 18019G28KT 10SM BKN008 OVC012 16/13 A2983 RMK AO2 PK WND 17028/1755 T01560133=
201610081753 METAR KPAE 081753Z 18019G28KT 10SM SCT008 BKN012 15/13 A2983 RMK AO2 PK WND 19031/1735 SLP100 60002 T01500133 10150 20106 56011=
201610081653 METAR KPAE 081653Z 17017G25KT 10SM SCT003 BKN007 14/12 A2984 RMK AO2 PK WND 16030/1555 SLP104 T01390122=
201610081553 METAR KPAE 081553Z 16015G23KT 10SM BKN006 OVC023 12/11 A2984 RMK AO2 RAB14E43 SLP106 P0000 T01220106=
201610081541 SPECI KPAE 081541Z 16015G22KT 10SM -RA BKN006 OVC010 12/11 A2985 RMK AO2 RAB14 P0000 T01170106=
201610081453 METAR KPAE 081453Z 16015KT 10SM BKN003 OVC010 12/10 A2986 RMK AO2 SLP112 60002 T01170100 56031=
201610081353 METAR KPAE 081353Z 16011KT 10SM BKN003 OVC013 11/09 A2989 RMK AO2 SLP123 T01060094=
201610081337 SPECI KPAE 081337Z AUTO 15010KT 10SM BKN004 BKN010 OVC017 11/09 A2990 RMK AO2 T01060094=
201610081301 SPECI KPAE 081301Z AUTO 15005KT 10SM BKN005 OVC027 11/09 A2992 RMK AO2 CIG 003V007 T01060089=
201610081253 METAR KPAE 081253Z AUTO VRB05KT 10SM BKN004 BKN027 OVC038 11/09 A2992 RMK AO2 RAE22 SLP132 P0002 T01060089=
201610081245 SPECI KPAE 081245Z AUTO VRB03KT 10SM SCT004 BKN027 OVC040 11/09 A2992 RMK AO2 RAE22 P0002 T01060094=
201610081224 SPECI KPAE 081224Z AUTO 15007KT 10SM FEW025 OVC042 11/09 A2993 RMK AO2 RAE22 P0002 T01060089=
201610081153 METAR KPAE 081153Z AUTO 16009KT 10SM -RA BKN025 OVC030 11/09 A2995 RMK AO2 RAB18 SLP143 P0005 60006 70006 T01060089 10133 20106 55013=
201610081149 SPECI KPAE 081149Z AUTO VRB06KT 10SM RA OVC029 11/09 A2995 RMK AO2 RAB18 P0004=
201610081053 METAR KPAE 081053Z AUTO VRB03KT 10SM OVC039 11/08 A2997 RMK AO2 RAB12E26 SLP147 P0000 T01060078=
201610080953 METAR KPAE 080953Z AUTO 11005KT 10SM BKN039 OVC047 11/08 A2999 RMK AO2 RAB0857E08 SLP156 P0000 T01110083=
201610080853 METAR KPAE 080853Z AUTO 11005KT 10SM OVC060 11/09 A3001 RMK AO2 SLP164 60001 T01110089 58020=
201610080753 METAR KPAE 080753Z AUTO 11004KT 10SM BKN075 OVC090 12/08 A3004 RMK AO2 RAE08 SLP171 P0000 T01170083 401560111=
201610080653 METAR KPAE 080653Z AUTO 18004KT 10SM -RA OVC100 11/09 A3006 RMK AO2 SLP181 P0001 T01110089=
201610080553 METAR KPAE 080553Z AUTO 20008KT 10SM -RA SCT036 BKN050 OVC075 13/08 A3007 RMK AO2 RAB53 SLP184 P0000 60000 T01330083 10150 20122 53001=
201610080453 METAR KPAE 080453Z AUTO VRB04KT 10SM BKN039 OVC100 13/07 A3007 RMK AO2 SLP181 T01330072=
201610080353 METAR KPAE 080353Z 15006KT 10SM SCT040 BKN120 14/08 A3007 RMK AO2 SLP181 T01390078=
201610080253 METAR KPAE 080253Z 00000KT 10SM CLR 13/09 A3007 RMK AO2 SLP184 T01280089 53003=
201610080153 METAR KPAE 080153Z 00000KT 10SM CLR 13/09 A3006 RMK AO2 SLP181 T01280089=
201610080053 METAR KPAE 080053Z 01004KT 10SM CLR 14/08 A3006 RMK AO2 SLP179 T01390083=
201610072353 METAR KPAE 072353Z 13003KT 10SM FEW030 SCT040 15/08 A3006 RMK AO2 SLP180 T01500083 10156 20122 50003=
201610072253 METAR KPAE 072253Z 00000KT 10SM SCT023 BKN033 15/08 A3007 RMK AO2 SLP181 T01500083=
201610072153 METAR KPAE 072153Z 21003KT 10SM SCT023 BKN033 14/09 A3007 RMK AO2 SLP181 T01440089=
201610072145 SPECI KPAE 072145Z 24004KT 10SM SCT023 BKN033 OVC055 14/08 A3006 RMK AO2 T01440083=
201610072053 METAR KPAE 072053Z 25006KT 10SM SCT022 OVC029 14/09 A3005 RMK AO2 SLP177 T01440089 51023=
201610071953 METAR KPAE 071953Z 20009KT 10SM BKN021 OVC033 14/09 A3004 RMK AO2 SLP173 T01390089=
201610071923 SPECI KPAE 071923Z 21010KT 10SM SCT017 OVC030 13/09 A3003 RMK AO2 T01330089=
201610071912 SPECI KPAE 071912Z 20011KT 10SM FEW017 BKN029 OVC036 13/09 A3003 RMK AO2 T01330089=
201610071900 SPECI KPAE 071900Z 20012KT 10SM FEW017 SCT025 OVC037 13/09 A3002 RMK AO2 T01280089=
201610071853 METAR KPAE 071853Z 20010KT 10SM SCT017 BKN025 OVC039 13/09 A3001 RMK AO2 SLP164 T01280089=
201610071753 METAR KPAE 071753Z 20014G19KT 10SM BKN015 12/09 A2999 RMK AO2 SLP155 T01220089 10122 20117 51036=
201610071746 SPECI KPAE 071746Z 20012G19KT 10SM OVC015 12/09 A2998 RMK AO2 T01220089=
201610071734 SPECI KPAE 071734Z 19012KT 10SM OVC013 12/09 A2997 RMK AO2 T01220089=
201610071710 SPECI KPAE 071710Z 19017G22KT 10SM BKN015 OVC020 12/09 A2996 RMK AO2 T01170089=
201610071653 METAR KPAE 071653Z 20016G23KT 10SM OVC012 12/09 A2995 RMK AO2 SLP141 T01170089=
201610071605 SPECI KPAE 071605Z 19013KT 10SM OVC012 12/09 A2992 RMK AO2 T01220089=
201610071600 SPECI KPAE 071600Z 20013G18KT 10SM OVC016 12/09 A2992 RMK AO2 T01220089=
201610071553 METAR KPAE 071553Z 19012KT 10SM BKN009 12/09 A2992 RMK AO2 PK WND 19027/1527 SLP132 T01220089=
201610071501 SPECI KPAE 071501Z 20015G24KT 10SM BKN009 12/09 A2989 RMK AO2 PRESRR T01220089=
201610071453 METAR KPAE 071453Z 19019G28KT 10SM BKN019 12/09 A2988 RMK AO2 PK WND 19029/1424 SLP117 T01170089 51028=
201610071450 SPECI KPAE 071450Z 19018G28KT 10SM BKN019 12/09 A2987 RMK AO2 PK WND 19029/1424=
201610071353 METAR KPAE 071353Z 18017G29KT 10SM SCT012 12/09 A2981 RMK AO2 PK WND 17034/1335 SLP096 T01170089=
201610071253 METAR KPAE 071253Z AUTO 18021G31KT 10SM FEW019 12/09 A2979 RMK AO2 PK WND 18032/1237 SLP088 T01220089=
201610071153 METAR KPAE 071153Z AUTO 18026G34KT 10SM FEW012 12/10 A2975 RMK AO2 PK WND 18036/1055 SLP074 60024 70027 T01220100 10122 20111 55003=
201610071127 SPECI KPAE 071127Z AUTO 17024G35KT 10SM SCT009 SCT013 12/10 A2974 RMK AO2 PK WND 18036/1055 T01220100=
201610071053 METAR KPAE 071053Z AUTO 17020G32KT 10SM BKN009 OVC014 12/11 A2973 RMK AO2 PK WND 18035/1033 RAE23 CIG 003V012 SLP068 P0000 T01220106=
201610071022 SPECI KPAE 071022Z AUTO 17019G30KT 10SM -RA BKN008 OVC013 12/11 A2975 RMK AO2 PK WND 16030/1015 CIG 006V009 P0000 T01220106=
201610071011 SPECI KPAE 071011Z AUTO 17020G27KT 10SM -RA FEW008 BKN011 OVC023 12/11 A2976 RMK AO2 PK WND 19027/1010 P0000 T01220106=
201610070953 METAR KPAE 070953Z AUTO 16016G24KT 10SM -RA FEW007 BKN016 OVC024 12/11 A2976 RMK AO2 SLP078 P0003 T01220106=
201610070853 METAR KPAE 070853Z AUTO 17010G17KT 10SM -RA FEW008 BKN016 OVC021 12/11 A2976 RMK AO2 SLP078 P0007 60021 T01170106 55015=
201610070800 METAR KPAE NIL=
201610070800 SPECI KPAE 070800Z AUTO 14010G18KT 100V170 10SM -RA BKN026 OVC034 12/10 A2975 RMK AO2 P0000 T01170100=
201610070753 METAR KPAE 070753Z AUTO 15011G18KT 10SM -RA SCT025 BKN030 OVC036 12/10 A2975 RMK AO2 SLP073 P0007 T01170100 401560111=
201610070746 SPECI KPAE 070746Z AUTO 15009G18KT 10SM -RA FEW024 BKN029 OVC044 12/10 A2975 RMK AO2 P0007 T01170100=
201610070653 METAR KPAE 070653Z AUTO 15010KT 10SM -RA BKN044 OVC050 12/10 A2977 RMK AO2 SLP082 P0007 T01170100=
201610070553 METAR KPAE 070553Z AUTO 15007KT 10SM -RA FEW040 BKN055 OVC075 12/09 A2981 RMK AO2 SLP092 P0002 60003 T01170094 10133 20117 58034=
201610070453 METAR KPAE 070453Z AUTO 16010KT 10SM -RA SCT046 OVC065 12/09 A2986 RMK AO2 SLP111 P0001 T01220089=
201610070353 METAR KPAE 070353Z AUTO 15013KT 10SM -RA OVC060 13/08 A2988 RMK AO2 RAB45 SLP117 P0000 T01330078=
201610070253 METAR KPAE 070253Z 16014G23KT 10SM OVC070 13/08 A2991 RMK AO2 RAB13E22 SLP128 P0000 60000 T01330078 58036=
201610070153 METAR KPAE 070153Z 16010KT 10SM OVC090 13/08 A2995 RMK AO2 SLP143 T01280083=
201610070053 METAR KPAE 070053Z 16011KT 10SM BKN090 OVC110 13/08 A2999 RMK AO2 RAE36 SLP155 P0000 T01280083=
201610062353 METAR KPAE 062353Z 17012KT 10SM -RA OVC070 13/09 A3001 RMK AO2 RAB00 SLP163 P0000 60000 T01330089 10156 20133 57019=
201610062253 METAR KPAE 062253Z 19012KT 10SM SCT033 BKN040 OVC075 15/08 A3003 RMK AO2 SLP170 T01500078=
201610062153 METAR KPAE 062153Z 18012KT 10SM BKN047 BKN055 15/07 A3005 RMK AO2 SLP176 T01500072=
201610062053 METAR KPAE 062053Z 18013KT 10SM CLR 16/07 A3007 RMK AO2 SLP183 T01560072 58014=
201610061953 METAR KPAE 061953Z 17012KT 10SM FEW032 15/08 A3009 RMK AO2 SLP189 T01500078=
201610061937 SPECI KPAE 061937Z 17012G19KT 10SM SCT027 BKN033 14/08 A3010 RMK AO2 T01440078=
201610061853 METAR KPAE 061853Z 17012G18KT 10SM OVC027 14/07 A3010 RMK AO2 SLP192 T01390072=
201610061827 SPECI KPAE 061827Z 19012KT 10SM BKN027 OVC033 13/08 A3011 RMK AO2 T01330078=
201610061753 METAR KPAE 061753Z 18010KT 10SM FEW020 SCT026 OVC035 13/08 A3011 RMK AO2 SLP197 60000 T01330083 10133 20111 51003=
201610061653 METAR KPAE 061653Z 18011G17KT 10SM BKN020 BKN025 OVC034 13/09 A3011 RMK AO2 SLP197 T01280089=
201610061641 SPECI KPAE 061641Z 17010KT 10SM BKN019 OVC032 13/09 A3011 RMK AO2 T01280089=
201610061553 METAR KPAE 061553Z 17008KT 10SM SCT011 OVC036 12/09 A3011 RMK AO2 SLP196 T01170089=
201610061453 METAR KPAE 061453Z 18011KT 10SM FEW011 OVC036 11/09 A3010 RMK AO2 SLP194 60000 T01110089 51007=
201610061422 SPECI KPAE 061422Z 19008KT 10SM OVC010 11/09 A3010 RMK AO2 CIG 007V012 T01110094=
201610061353 METAR KPAE 061353Z 20008KT 10SM OVC007 11/09 A3009 RMK AO2 CIG 005V009 SLP190 T01110094=
201610061253 METAR KPAE 061253Z AUTO 19009KT 10SM OVC005 11/09 A3008 RMK AO2 RAB03E25 CIG 004V009 SLP186 P0000 T01110094=
201610061153 METAR KPAE 061153Z AUTO 16004KT 10SM OVC007 12/09 A3008 RMK AO2 CIG 005V010 SLP185 60005 70005 T01170094 10117 20106 57001=
201610061136 SPECI KPAE 061136Z AUTO 16005KT 10SM OVC009 11/09 A3008 RMK AO2 CIG 007V013 T01110094=
201610061105 SPECI KPAE 061105Z AUTO VRB03KT 10SM BKN013 OVC018 12/09 A3008 RMK AO2 T01170094=
201610061053 METAR KPAE 061053Z AUTO 00000KT 10SM BKN016 OVC033 12/09 A3008 RMK AO2 RAB30E45 SLP186 P0000 T01170094=
201610060953 METAR KPAE 060953Z AUTO 00000KT 10SM OVC034 12/10 A3008 RMK AO2 SLP187 T01170100=
201610060853 METAR KPAE 060853Z AUTO 00000KT 10SM FEW011 SCT037 OVC047 12/10 A3007 RMK AO2 RAE36 SLP183 P0003 60005 T01170100 50008=
201610060753 METAR KPAE 060753Z AUTO 00000KT 10SM -RA BKN032 OVC041 12/09 A3007 RMK AO2 RAB21 SLP184 P0002 T01170094 401720106=
201610060653 METAR KPAE 060653Z AUTO 00000KT 10SM BKN050 BKN060 OVC080 12/09 A3006 RMK AO2 SLP179 T01170089=
201610060553 METAR KPAE 060553Z AUTO 00000KT 10SM FEW050 11/08 A3005 RMK AO2 SLP175 T01060083 10172 20106 52013=
201610060453 METAR KPAE 060453Z AUTO 00000KT 10SM FEW060 11/09 A3003 RMK AO2 SLP171 T01110089=
201610060353 METAR KPAE 060353Z AUTO 36003KT 10SM CLR 11/09 A3002 RMK AO2 SLP167 T01110089=
201610060253 METAR KPAE 060253Z 35004KT 10SM CLR 12/09 A3001 RMK AO2 SLP162 T01220089 53018=
201610060153 METAR KPAE 060153Z 34004KT 10SM CLR 14/07 A2999 RMK AO2 SLP155 T01390072=
201610060053 METAR KPAE 060053Z 30003KT 10SM CLR 16/08 A2997 RMK AO2 SLP148 T01560078=
201610052353 METAR KPAE 052353Z 00000KT 10SM CLR 17/07 A2995 RMK AO2 SLP143 T01720072 10172 20139 53007=
201610052253 METAR KPAE 052253Z 35005KT 10SM CLR 16/09 A2994 RMK AO2 SLP139 T01610089=
201610052153 METAR KPAE 052153Z VRB05KT 10SM CLR 17/09 A2994 RMK AO2 SLP137 T01670089=
201610052053 METAR KPAE 052053Z 01004KT 10SM FEW070 16/09 A2993 RMK AO2 SLP135 T01560089 51008=
201610051953 METAR KPAE 051953Z 31003KT 10SM OVC070 14/09 A2993 RMK AO2 SLP135 T01440089=
201610051853 METAR KPAE 051853Z 31004KT 10SM BKN100 OVC120 14/08 A2992 RMK AO2 SLP132 T01440078=
201610051753 METAR KPAE 051753Z 00000KT 10SM FEW060 BKN090 OVC110 14/08 A2991 RMK AO2 SLP127 T01440083 10144 20111 51013=
201610051653 METAR KPAE 051653Z 00000KT 10SM FEW090 13/08 A2989 RMK AO2 SLP123 T01330083=
201610051553 METAR KPAE 051553Z 00000KT 10SM OVC075 12/07 A2988 RMK AO2 SLP120 T01220072=
201610051453 METAR KPAE 051453Z VRB04KT 10SM BKN065 BKN110 12/07 A2987 RMK AO2 SLP115 T01170067 53008=
201610051353 METAR KPAE 051353Z 13005KT 10SM BKN049 OVC060 12/07 A2985 RMK AO2 SLP110 T01170072=
201610051253 METAR KPAE 051253Z AUTO 11006KT 10SM SCT046 OVC065 11/08 A2985 RMK AO2 SLP108 T01110078=
201610051153 METAR KPAE 051153Z AUTO 11007KT 10SM SCT055 11/08 A2985 RMK AO2 SLP107 60000 70060 T01110078 10117 20111 55004=
201610051053 METAR KPAE 051053Z AUTO 11006KT 10SM OVC065 11/08 A2984 RMK AO2 SLP107 T01110083=
201610050953 METAR KPAE 050953Z AUTO 12007KT 10SM FEW050 11/08 A2985 RMK AO2 SLP108 T01110083=
201610050853 METAR KPAE 050853Z AUTO 12006KT 10SM BKN055 BKN070 11/08 A2986 RMK AO2 RAB03E36 SLP110 P0000 60000 T01110083 58001=
201610050753 METAR KPAE 050753Z AUTO VRB03KT 10SM FEW033 BKN055 OVC070 12/09 A2986 RMK AO2 SLP111 T01170089 401440100=
201610050653 METAR KPAE 050653Z AUTO VRB03KT 10SM BKN060 OVC090 12/09 A2986 RMK AO2 SLP111 T01170089=
201610050553 METAR KPAE 050553Z AUTO VRB04KT 10SM BKN044 OVC055 12/09 A2986 RMK AO2 SLP111 60057 T01170089 10133 20111 50002=
201610050453 METAR KPAE 050453Z AUTO VRB04KT 10SM FEW042 BKN048 OVC060 12/09 A2986 RMK AO2 RAE21 SLP113 P0001 T01170094=
201610050353 METAR KPAE 050353Z AUTO 11007KT 10SM -RA FEW023 BKN040 OVC060 11/09 A2986 RMK AO2 SLP112 P0016 T01110094=
201610050253 METAR KPAE 050253Z 12006KT 10SM RA FEW028 FEW036 OVC050 12/10 A2985 RMK AO2 SLP110 P0021 60040 T01170100 51002=
201610050153 METAR KPAE 050153Z VRB04KT 10SM -RA OVC055 12/10 A2985 RMK AO2 RAB0056 SLP109 P0018 T01220100=
201610050053 METAR KPAE 050053Z 15010KT 10SM FEW024 SCT060 OVC070 13/09 A2985 RMK AO2 RAE17B33E52 SLP109 P0001 T01280089=
201610042353 METAR KPAE 042353Z 15007KT 10SM -RA FEW038 BKN050 OVC060 13/09 A2985 RMK AO2 RAB20 SLP108 P0000 60000 T01330094 10144 20133 56004=
201610042253 METAR KPAE 042253Z AUTO 15010G21KT 10SM FEW019 BKN035 OVC047 13/09 A2985 RMK AO2 SLP109 T01330089=
201610042214 SPECI KPAE 042214Z 16011KT 10SM FEW022 BKN050 OVC065 14/09 A2985 RMK AO2 T01390094=
201610042204 SPECI KPAE 042204Z 16013G20KT 10SM FEW022 BKN029 OVC055 14/09 A2986 RMK AO2 T01390094=
201610042153 METAR KPAE 042153Z 16010KT 10SM FEW024 SCT030 OVC055 14/10 A2986 RMK AO2 RAE07B26E42 SLP110 P0000 T01390100=
201610042053 METAR KPAE 042053Z 17010KT 10SM -RA FEW022 BKN049 OVC070 14/09 A2986 RMK AO2 SLP112 P0000 60000 T01390094 57001=
201610042004 SPECI KPAE 042004Z 17013KT 10SM -RA FEW023 BKN039 OVC075 14/09 A2986 RMK AO2 P0000 T01390089=
201610041953 METAR KPAE 041953Z 18014KT 10SM -RA BKN025 BKN037 BKN044 14/09 A2986 RMK AO2 RAB48 SLP112 P0000 T01390089=
201610041942 SPECI KPAE 041942Z 17011KT 10SM FEW025 BKN034 14/08 A2986 RMK AO2 T01390083=
201610041900 SPECI KPAE 041900Z 18012KT 10SM BKN023 14/09 A2986 RMK AO2 T01390089=
201610041853 METAR KPAE 041853Z 17010KT 10SM SCT018 BKN090 14/09 A2986 RMK AO2 SLP112 T01390089=
201610041753 METAR KPAE 041753Z 18014KT 10SM SCT016 SCT020 BKN090 13/09 A2986 RMK AO2 SLP113 60003 T01330094 10133 20106 53005=
201610041653 METAR KPAE 041653Z 17013KT 10SM BKN009 OVC022 12/09 A2986 RMK AO2 SLP111 T01220094=
201610041553 METAR KPAE 041553Z 16010KT 10SM OVC009 12/09 A2985 RMK AO2 SLP109 T01170094=
201610041453 METAR KPAE 041453Z 16011KT 10SM OVC009 11/09 A2985 RMK AO2 CIG 007V013 SLP107 60003 T01110094 53005=
201610041423 SPECI KPAE 041423Z 15011KT 10SM BKN009 OVC012 11/09 A2984 RMK AO2 T01060089=
201610041353 METAR KPAE 041353Z 16009KT 10SM OVC013 11/09 A2984 RMK AO2 RAB1258E29 SLP104 P0001 T01060089=
201610041321 SPECI KPAE 041321Z AUTO 16007KT 10SM -RA FEW008 BKN014 OVC022 11/09 A2984 RMK AO2 RAB1258 P0001 T01060089=
201610041253 METAR KPAE 041253Z AUTO 16010KT 10SM BKN021 OVC060 11/09 A2983 RMK AO2 RAE42 SLP103 P0002 T01060089=
201610041153 METAR KPAE 041153Z AUTO 16011KT 10SM -RA FEW028 SCT048 OVC060 11/09 A2983 RMK AO2 RAB46 SLP101 P0001 60002 70002 T01060089 10111 20100 55001=
201610041053 METAR KPAE 041053Z AUTO 15011KT 10SM FEW029 OVC070 11/08 A2983 RMK AO2 SLP100 T01060083=
201610041002 SPECI KPAE 041002Z AUTO 15009KT 10SM FEW020 OVC070 11/08 A2983 RMK AO2 T01060083=
201610040953 METAR KPAE 040953Z AUTO 16008KT 10SM BKN020 OVC070 11/08 A2983 RMK AO2 RAB0857E06 SLP101 P0000 T01060083=
201610040902 SPECI KPAE 040902Z AUTO 15009KT 10SM -RA FEW021 BKN029 OVC060 11/08 A2983 RMK AO2 RAB0857 P0000 T01060083=
201610040853 METAR KPAE 040853Z AUTO 15010KT 10SM FEW021 BKN033 OVC060 11/08 A2983 RMK AO2 RAE24 SLP102 P0000 60001 T01060083 58007=
201610040753 METAR KPAE 040753Z AUTO 16010KT 10SM -RA BKN047 OVC060 11/08 A2984 RMK AO2 RAB47 SLP104 P0000 T01060083 401560100=
201610040713 SPECI KPAE 040713Z AUTO 16009KT 10SM SCT029 BKN035 OVC055 11/08 A2985 RMK AO2 T01060078=
201610040653 METAR KPAE 040653Z AUTO 16008KT 10SM OVC029 11/08 A2985 RMK AO2 RAE33 SLP108 P0001 T01060078=
201610040643 SPECI KPAE 040643Z AUTO 16008KT 10SM OVC028 11/08 A2985 RMK AO2 RAE33 P0001 T01060078=
201610040553 METAR KPAE 040553Z AUTO 18009KT 10SM -RA BKN043 OVC050 11/08 A2986 RMK AO2 SLP110 P0000 60000 T01110078 10144 20111 55000=
201610040453 METAR KPAE 040453Z AUTO 21010KT 10SM -RA BKN060 OVC080 12/07 A2986 RMK AO2 RAE14B44 SLP111 P0000 T01170072=
201610040353 METAR KPAE 040353Z AUTO 20010KT 10SM -RA FEW055 OVC070 12/07 A2985 RMK AO2 RAB45 SLP110 P0000 T01220067=
201610040253 METAR KPAE 040253Z 16006KT 10SM FEW065 OVC090 13/07 A2986 RMK AO2 SLP110 T01330067 56008=
201610040153 METAR KPAE 040153Z 16007KT 10SM SCT120 14/06 A2986 RMK AO2 SLP110 T01390056=
201610040053 METAR KPAE 040053Z 16012KT 10SM FEW120 14/06 A2987 RMK AO2 SLP113 T01390056=
201610032353 METAR KPAE 032353Z 17012KT 10SM CLR 14/05 A2988 RMK AO2 SLP118 T01440050 10156 20128 56009=
201610032253 METAR KPAE 032253Z 17010KT 10SM FEW055 14/05 A2989 RMK AO2 SLP121 T01440050=
201610032153 METAR KPAE 032153Z 19014KT 10SM CLR 14/05 A2990 RMK AO2 SLP124 T01440050=
201610032053 METAR KPAE 032053Z 20013KT 10SM BKN035 16/06 A2991 RMK AO2 SLP127 T01560061 58008=
201610031953 METAR KPAE 031953Z 18012KT 10SM OVC060 14/06 A2992 RMK AO2 SLP133 T01440061=
201610031853 METAR KPAE 031853Z 18014KT 10SM BKN050 14/06 A2993 RMK AO2 SLP135 T01440056=
201610031753 METAR KPAE 031753Z 17013G18KT 10SM OVC049 13/06 A2993 RMK AO2 SLP137 T01280061 10128 20106 50005=
201610031653 METAR KPAE 031653Z 17011KT 10SM BKN048 OVC075 12/08 A2993 RMK AO2 SLP137 T01220078=
201610031553 METAR KPAE 031553Z 19009KT 10SM FEW012 OVC075 11/08 A2992 RMK AO2 SLP133 T01110083=
201610031453 METAR KPAE 031453Z 16008KT 10SM FEW049 OVC070 11/08 A2992 RMK AO2 SLP132 T01110083 53005=
201610031353 METAR KPAE 031353Z 18007KT 10SM OVC050 11/08 A2991 RMK AO2 SLP129 T01110083=
201610031253 METAR KPAE 031253Z AUTO 16010KT 10SM OVC050 11/08 A2991 RMK AO2 SLP127 T01110083=
201610031153 METAR KPAE 031153Z AUTO 17007KT 10SM OVC043 11/08 A2990 RMK AO2 SLP125 T01060083 10122 20100 53001=
201610031053 METAR KPAE 031053Z AUTO 19008KT 10SM SCT055 10/08 A2990 RMK AO2 SLP125 T01000083=
201610030953 METAR KPAE 030953Z AUTO 17007KT 10SM CLR 11/08 A2990 RMK AO2 SLP124 T01060078=
201610030853 METAR KPAE 030853Z AUTO 15007KT 10SM CLR 11/08 A2990 RMK AO2 SLP124 T01110083 58006=
201610030753 METAR KPAE 030753Z AUTO 16007KT 10SM FEW060 12/08 A2991 RMK AO2 SLP128 T01170078 401670094=
201610030653 METAR KPAE 030653Z AUTO 16005KT 10SM CLR 12/08 A2992 RMK AO2 SLP131 T01170078=
201610030553 METAR KPAE 030553Z AUTO 00000KT 10SM CLR 12/08 A2992 RMK AO2 SLP131 T01170078 10167 20111 58002=
201610030453 METAR KPAE 030453Z AUTO 00000KT 10SM CLR 11/08 A2992 RMK AO2 SLP133 T01110078=
201610030353 METAR KPAE 030353Z AUTO 00000KT 10SM BKN060 OVC080 13/08 A2992 RMK AO2 SLP134 T01280083=
201610030253 METAR KPAE 030253Z 18003KT 10SM OVC110 13/08 A2992 RMK AO2 SLP133 T01330083 53006=
201610030153 METAR KPAE 030153Z 24003KT 10SM OVC090 13/08 A2991 RMK AO2 SLP129 T01330083=
201610030053 METAR KPAE 030053Z 00000KT 10SM FEW095 16/08 A2990 RMK AO2 SLP125 T01560078=
201610022353 METAR KPAE 022353Z VRB03KT 10SM CLR 16/07 A2990 RMK AO2 SLP125 T01610067 10167 20128 55005=
201610022253 METAR KPAE 022253Z 28005KT 10SM CLR 16/07 A2990 RMK AO2 SLP125 T01610072=
201610022153 METAR KPAE 022153Z 31005KT 10SM CLR 16/08 A2990 RMK AO2 SLP126 T01560078=
201610022053 METAR KPAE 022053Z VRB05KT 10SM CLR 16/07 A2992 RMK AO2 SLP130 T01560067 58015=
201610021953 METAR KPAE 021953Z 00000KT 10SM CLR 15/06 A2993 RMK AO2 SLP136 T01500061=
201610021853 METAR KPAE 021853Z 27004KT 10SM CLR 14/07 A2995 RMK AO2 SLP142 T01440072=
201610021753 METAR KPAE 021753Z 00000KT 10SM OVC110 13/07 A2996 RMK AO2 SLP146 T01280072 10133 20094 50002=
201610021653 METAR KPAE 021653Z 00000KT 10SM SCT110 12/08 A2996 RMK AO2 SLP146 T01220078=
201610021553 METAR KPAE 021553Z 00000KT 10SM FEW120 11/07 A2996 RMK AO2 SLP146 T01060067=
201610021453 METAR KPAE 021453Z 00000KT 10SM BKN100 10/07 A2995 RMK AO2 SLP144 T01000067 53002=
201610021353 METAR KPAE 021353Z 00000KT 10SM OVC090 09/06 A2995 RMK AO2 SLP143 T00940061=
201610021253 METAR KPAE 021253Z AUTO VRB03KT 10SM OVC075 10/06 A2994 RMK AO2 SLP140 T01000061=
201610021153 METAR KPAE 021153Z AUTO 11004KT 10SM BKN060 OVC070 10/07 A2995 RMK AO2 SLP141 70019 T01000072 10111 20100 57006=
201610021053 METAR KPAE 021053Z AUTO 13003KT 10SM OVC060 11/08 A2996 RMK AO2 SLP143 T01060078=
201610020953 METAR KPAE 020953Z AUTO 11005KT 10SM OVC055 10/08 A2996 RMK AO2 SLP147 T01000083=
201610020853 METAR KPAE 020853Z AUTO 10007KT 10SM BKN055 11/08 A2997 RMK AO2 SLP149 T01060078 56006=
201610020753 METAR KPAE 020753Z AUTO 00000KT 10SM CLR 10/08 A2997 RMK AO2 SLP149 T01000078 401560094=
201610020653 METAR KPAE 020653Z AUTO 11007KT 10SM CLR 11/08 A2998 RMK AO2 SLP152 T01060083=
201610020553 METAR KPAE 020553Z AUTO 11007KT 10SM FEW046 11/08 A2999 RMK AO2 SLP155 60017 T01060083 10150 20100 58004=
201610020453 METAR KPAE 020453Z AUTO 12006KT 10SM CLR 11/08 A3000 RMK AO2 SLP158 T01060083=
201610020353 METAR KPAE 020353Z 15004KT 10SM FEW055 11/09 A3001 RMK AO2 SLP161 T01060089=
201610020253 METAR KPAE 020253Z AUTO 16006KT 10SM FEW048 FEW060 11/09 A3000 RMK AO2 RAE12 SLP159 P0001 60017 T01110089 53007=
201610020153 METAR KPAE 020153Z AUTO 18010KT 10SM RA BKN042 OVC050 11/09 A2999 RMK AO2 RAB16 SLP158 P0016 T01060089=
201610020053 METAR KPAE 020053Z AUTO 21007KT 10SM FEW038 BKN055 BKN075 14/08 A2998 RMK AO2 SLP153 T01390078=
201610012353 METAR KPAE 012353Z AUTO 19012KT 10SM SCT035 BKN048 BKN065 15/07 A2998 RMK AO2 SLP151 60002 T01500072 10156 20122 53006=
201610012253 METAR KPAE 012253Z 18013KT 10SM FEW030 FEW039 15/09 A2997 RMK AO2 SLP148 T01500094=
201610012153 METAR KPAE 012153Z 17010KT 10SM OVC043 13/09 A2996 RMK AO2 RAE33 SLP147 P0002 T01280089=
201610012053 METAR KPAE 012053Z 19013G20KT 10SM -RA FEW019 BKN055 OVC070 13/09 A2996 RMK AO2 RAB26 SLP146 P0000 60000 T01280089 53008=
201610011953 METAR KPAE 011953Z 18013G17KT 10SM BKN034 BKN042 OVC048 14/07 A2995 RMK AO2 RAB29E50 SLP140 P0000 T01440072=
201610011853 METAR KPAE 011853Z 18010KT 10SM FEW041 BKN050 OVC075 14/07 A2994 RMK AO2 SLP138 T01390067=
201610011753 METAR KPAE 011753Z 15007G14KT 10SM FEW055 OVC075 13/07 A2994 RMK AO2 SLP137 T01330067 10133 20094 51002=
201610011653 METAR KPAE 011653Z VRB04KT 10SM FEW037 SCT055 BKN075 13/08 A2993 RMK AO2 SLP136 T01280078=
201610011553 METAR KPAE 011553Z 12005KT 10SM BKN060 BKN110 12/07 A2993 RMK AO2 SLP137 T01170072=
201610011453 METAR KPAE 011453Z 12007KT 10SM FEW065 SCT120 10/07 A2993 RMK AO2 SLP135 T01000072 56003=
201610011353 METAR KPAE 011353Z 11007KT 10SM FEW036 SCT050 10/07 A2993 RMK AO2 SLP136 T01000072=
201610011253 METAR KPAE 011253Z AUTO VRB05KT 10SM BKN038 BKN055 OVC070 11/08 A2993 RMK AO2 SLP136 T01060078=
201610011153 METAR KPAE 011153Z AUTO 13004KT 10SM FEW040 BKN055 OVC100 10/08 A2994 RMK AO2 SLP138 60002 70002 T01000083 10122 20100 58012=
201610011053 METAR KPAE 011053Z AUTO 13004KT 10SM BKN038 BKN055 OVC110 10/08 A2996 RMK AO2 SLP144 T01000083=
201610010953 METAR KPAE 010953Z AUTO 15008KT 10SM SCT037 BKN044 OVC070 11/08 A2996 RMK AO2 RAB14E37 SLP146 P0001 T01060083=
201610010853 METAR KPAE 010853Z AUTO 20006KT 10SM OVC055 11/07 A2997 RMK AO2 RAB35E53 SLP150 P0001 60001 T01110072 51005=
201610010753 METAR KPAE 010753Z AUTO 21007KT 10SM OVC085 12/05 A2997 RMK AO2 SLP149 T01170050 401670089=
201610010653 METAR KPAE 010653Z AUTO 23006KT 10SM SCT070 OVC085 12/06 A2996 RMK AO2 SLP146 T01170056=
201610010553 METAR KPAE 010553Z AUTO 20007KT 10SM FEW070 12/05 A2996 RMK AO2 SLP146 T01170050 10161 20117 50001=
201610010453 METAR KPAE 010453Z AUTO 11004KT 10SM SCT050 12/07 A2997 RMK AO2 SLP148 T01220067=
201610010353 METAR KPAE 010353Z AUTO 00000KT 10SM CLR 12/06 A2996 RMK AO2 SLP144 T01170061=
201610010253 METAR KPAE 010253Z AUTO 00000KT 10SM CLR 12/07 A2996 RMK AO2 SLP145 T01220067 58005=
201610010153 METAR KPAE 010153Z 00000KT 10SM CLR 13/07 A2997 RMK AO2 SLP148 T01330067=
201610010053 METAR KPAE 010053Z 32003KT 10SM CLR 16/06 A2997 RMK AO2 SLP147 T01560061=

# No short TAF reports from KPAE in databse.

###################################
#  large TAF from KPAE
###################################
201610312335 TAF KPAE 312335Z 0100/0124 17007KT P6SM SCT035 BKN060 OVC130 FM010500
                       15006KT P6SM -RA BKN035 OVC060 FM010800
                       15006KT P6SM -RA SCT015 OVC030
                      TEMPO 0110/0114 5SM -RA BR BKN015 OVC030
                       FM011400 17007KT 5SM -RA BR FEW007 OVC015
                       FM011800 17009KT P6SM VCSH BKN025 OVC060
                       FM012100 17011KT P6SM VCSH BKN035 BKN070
                       PROB30 0121/0124 -SHRA=
201610312102 KPAE 312102Z 3121/0118 VRB05KT P6SM -SHRA SCT010 BKN020 OVC050
                       FM010000 18008KT P6SM -SHRA FEW018 BKN030
                       OVC050 FM010600 15007KT P6SM -RA SCT012
                       OVC028 FM010900 15007KT 4SM -RA BR SCT006
                       BKN012 OVC028=
201610312022 KPAE 312022Z 3120/0118 21013G20KT P6SM -SHRA SCT010 BKN025 OVC050
                       FM010000 18008KT P6SM -SHRA FEW018 BKN030
                       OVC050 FM010600 15007KT P6SM -RA SCT012
                       OVC028 FM010900 15007KT 4SM -RA BR SCT006
                       BKN012 OVC028=
201610311745 TAF KPAE 311745Z 3118/0118 19022G32KT P6SM -RA SCT006 BKN015 OVC030
                       TEMPO 3118/3121 3SM RA BR BKN006 OVC015
                       FM312100 19013G20KT P6SM -SHRA SCT010 BKN025
                       OVC050 FM010000 18008KT P6SM -SHRA FEW018
                       BKN030 OVC050 FM010600 15007KT P6SM -RA
                       SCT012 OVC028 FM010900 15007KT 4SM -RA BR
                       SCT006 BKN012 OVC028=
201610311549 KPAE 311549Z 3116/0112 15013KT P6SM -RA SCT008 BKN022 OVC035
                      TEMPO 3116/3118 3SM RA BR BKN008 OVC020 FM311800
                       19015G24KT P6SM -SHRA BKN030 OVC060 FM312200
                       20010KT P6SM BKN035 OVC080 FM010200 18005KT
                       P6SM -SHRA BKN025 OVC040=
201610311418 KPAE 311418Z 3114/0112 15013KT P6SM SCT022 BKN050 OVC090
                      TEMPO 3114/3118 5SM -RA BR BKN022 OVC050
                       FM311800 19015G24KT P6SM -SHRA BKN030 OVC060
                       FM312200 20010KT P6SM BKN035 OVC080 FM010200
                       18005KT P6SM -SHRA BKN025 OVC040=
201610311130 TAF KPAE 311130Z 3112/0112 15008KT P6SM FEW030 OVC045
                      TEMPO 3113/3117 5SM -RA BR OVC013 FM311700
                       19015G24KT P6SM -SHRA BKN030 OVC060 FM312200
                       20010KT P6SM BKN035 OVC080 FM010200 18005KT
                       P6SM -SHRA BKN025 OVC040=
201610310525 TAF KPAE 310525Z 3106/0106 15007KT P6SM -RA SCT005 BKN022 OVC050
                       TEMPO 3106/3110 2SM -RA BR BKN005 OVC020
                       FM311200 17010KT 5SM -RA OVC015 FM311800
                       19015G24KT P6SM -SHRA BKN030 OVC060 FM312200
                       20010KT P6SM BKN035 OVC080 FM010200 18005KT
                       P6SM -SHRA BKN025 OVC040=
201610302320 TAF KPAE 302320Z 3100/3124 01004KT P6SM -RA FEW030 OVC060 FM310400
                       12004KT P6SM -RA OVC030 FM311200 17010KT
                       5SM -RA OVC015 FM311800 19015G24KT P6SM
                       -SHRA BKN030 OVC060 FM312200 20010KT P6SM
                       BKN035 OVC080=
201610301720 TAF KPAE 301720Z 3018/3118 02005KT P6SM SCT090 BKN150 FM310000
                       07004KT P6SM -RA OVC060 FM310400 12004KT
                       P6SM -RA OVC030 FM311200 17010KT 5SM -RA
                       OVC015=
201610301120 TAF KPAE 301120Z 3012/3112 00000KT P6SM VCFG SCT001 SCT070
                      TEMPO 3014/3017 1/4SM FG OVC001 FM301700
                       02006KT P6SM VCSH OVC060 FM310000 07004KT
                       P6SM -RA OVC030 FM310400 12004KT P6SM -RA
                       OVC015=
201610300529 TAF KPAE 300529Z 3006/3106 11007KT P6SM FEW090 SCT250 FM301200
                       VRB03KT 1/2SM FG SCT001 OVC120 FM301800
                       01004KT P6SM VCSH OVC060 FM302300 16004KT
                       P6SM -RA OVC025 FM310500 17007KT P6SM -RA
                       OVC012=
201610292321 TAF KPAE 292321Z 3000/3024 15005KT P6SM SCT050
                      TEMPO 3000/3002 FEW030 BKN050 FM300300 VRB03KT
                       P6SM FEW050 FM301200 01003KT 5SM BR VCFG
                       FEW001 FM301700 36005KT P6SM FEW090 BKN150=
201610291725 TAF KPAE 291725Z 2918/3018 16010KT P6SM -RA BKN060 OVC080
                      TEMPO 2918/2922 6SM -RA BR BKN040 OVC060
                       FM300100 14004KT P6SM SCT040 FM301200 01003KT
                       5SM BR VCFG FEW001 FM301700 36005KT P6SM
                       FEW090 BKN150=
201610291120 TAF KPAE 291120Z 2912/3012 11008KT P6SM BKN200 FM291800 17008KT
                       P6SM -SHRA BKN040 OVC080 FM300100 14004KT
                       P6SM SCT040 BKN100=
201610290527 TAF KPAE 290527Z 2906/3006 12009KT P6SM BKN220 FM291200 16007KT
                       P6SM BKN100 BKN200 FM291800 18008KT P6SM
                       -SHRA BKN050 OVC090 FM300100 16005KT P6SM
                       SCT050 BKN100=
201610282323 TAF KPAE 282323Z 2900/2924 32005KT P6SM SCT070 BKN250 FM290200
                       10003KT P6SM FEW090 BKN250 FM291300 16006KT
                       P6SM BKN090 BKN200 FM291800 18010KT P6SM
                       -SHRA BKN040 OVC080=
201610281720 TAF KPAE 281720Z 2818/2918 12006KT P6SM BKN060 BKN200 FM282100
                       15006KT P6SM SCT070 BKN200 FM290200 06004KT
                       P6SM FEW090 BKN200 FM291300 16006KT P6SM
                       BKN090 BKN200=
201610281120 TAF KPAE 281120Z 2812/2912 VRB03KT P6SM -RA FEW035 BKN060 OVC120
                       FM281500 15008KT P6SM BKN040 FM282100 13005KT
                       P6SM SCT070 BKN200=
201610280529 TAF KPAE 280529Z 2806/2906 16009KT P6SM -RA BKN045 OVC060 FM280900
                       16009KT P6SM VCSH SCT020 BKN035 OVC050 FM281600
                       15008KT P6SM BKN040 FM282100 19005KT P6SM
                       SCT070 BKN200=
201610272337 TAF KPAE 272337Z 2800/2824 18011KT P6SM -SHRA SCT025 BKN070 OVC100
                       TEMPO 2800/2804 5SM -SHRA BR BKN025 BKN045
                       OVC070 FM280900 15008KT P6SM VCSH SCT025
                       BKN040 OVC060 FM281600 13006KT P6SM SCT035
                       BKN080 FM282100 VRB03KT P6SM SCT080 BKN200=
201610271734 TAF KPAE 271734Z 2718/2818 17009KT P6SM VCSH SCT050 OVC070 FM272200
                       18008KT P6SM -SHRA SCT030 BKN045 OVC070
                       FM281000 14008KT P6SM SCT020 BKN035 OVC050
                       FM281600 13005KT P6SM SCT040 BKN060=
201610271120 TAF KPAE 271120Z 2712/2812 15011KT P6SM SCT040 OVC060 FM271800
                       17009KT P6SM VCSH SCT030 BKN045 BKN110=
201610270523 TAF KPAE 270523Z 2706/2806 18016G22KT P6SM -RA FEW018 OVC070
                      TEMPO 2706/2709 5SM SHRA OVC018 FM270900
                       17013G21KT P6SM SCT035 OVC110 FM271800 18011G17KT
                       P6SM VCSH SCT035 BKN050 BKN110=
201610262322 TAF KPAE 262322Z 2700/2724 15013KT P6SM -RA FEW006 BKN025 OVC050
                       WS020/18030KT
                      TEMPO 2700/2703 3SM RA BR BKN006 OVC020 FM270300
                       17015G25KT P6SM -SHRA BKN035 OVC050 FM270600
                       17015G25KT P6SM VCSH SCT035 BKN050 OVC110
                       TEMPO 2706/2710 -SHRA FM271200 17012KT P6SM
                       SCT035 BKN050 BKN110 FM271800 19010KT P6SM
                       SCT050 BKN110
                      PROB30 2720/2724 -SHRA OVC050=
201610262156 KPAE 262156Z 2622/2718 15013KT P6SM -RA SCT006 SCT015 OVC030 WS020/18040KT
                       TEMPO 2622/2624 2SM RA BR SCT006 BKN015
                       OVC030 FM270000 17015G25KT P6SM -SHRA SCT020
                       BKN035 OVC060 FM270600 17015G25KT P6SM VCSH
                       SCT020 BKN035 OVC060=
201610261900 KPAE 261900Z 2619/2718 12012KT P6SM -RA OVC035 WS020/18040KT
                      TEMPO 2619/2623 3SM RA BR OVC025 FM270000
                       17015G25KT P6SM -SHRA SCT020 BKN035 OVC060
                       FM270600 17015G25KT P6SM VCSH SCT020 BKN035
                       OVC060
                      PROB30 2706/2712 -SHRA OVC020=
201610261745 TAF KPAE 261745Z 2618/2718 09007KT P6SM -RA SCT035 OVC050 WS020/15035KT
                       TEMPO 2618/2620 4SM -RA BR BKN035 OVC050
                       FM262000 13012KT 6SM -RA BR SCT020 OVC035
                       WS020/18040KT
                      TEMPO 2620/2624 3SM RA BR BKN020 OVC035 FM270000
                       17015G25KT P6SM -SHRA SCT020 BKN035 OVC060
                       FM270600 17015G25KT P6SM VCSH SCT020 BKN035
                       OVC060
                      PROB30 2706/2712 -SHRA OVC020=
201610261610 KPAE 261610Z 2616/2712 VRB05KT 5SM -RA BR BKN035 OVC050 FM261700
                       06005KT 4SM -RA BR SCT020 OVC035 FM261900
                       09006KT 2SM RA BR BKN020 OVC030 WS020/18030KT
                       FM262200 17017G26KT 5SM -SHRA SCT025 BKN040=
201610261501 KPAE 261501Z 2615/2712 VRB05KT P6SM -RA FEW035 OVC060 FM261700
                       06005KT 4SM -RA BR SCT020 OVC035 FM261900
                       09006KT 2SM RA BR BKN020 OVC030 WS020/18030KT
                       FM262200 17017G26KT 5SM -SHRA SCT025 BKN040=
201610261120 TAF KPAE 261120Z 2612/2712 11006KT P6SM OVC080 FM261400 09005KT
                       P6SM -RA SCT040 OVC060 FM261600 06005KT
                       4SM -RA BR SCT020 OVC035 FM261800 09006KT
                       2SM RA BR BKN020 OVC030 WS020/18030KT FM262200
                       17017G26KT 5SM -SHRA SCT025 BKN040=
201610260902 KPAE 260902Z 2609/2706 11006KT P6SM SCT120 FM261300 09005KT P6SM
                       -RA SCT040 OVC060 FM261600 06005KT 4SM -RA
                       BR SCT020 OVC035 FM261900 09006KT 3SM RA
                       BR BKN020 OVC030 WS020/18030KT FM262200
                       17018G26KT 5SM -SHRA SCT025 BKN040=
201610260523 TAF KPAE 260523Z 2606/2706 12006KT P6SM OVC080 FM261100 09005KT
                       P6SM -RA SCT040 OVC060 FM261500 06005KT
                       4SM -RA BR SCT020 OVC035 FM261900 09006KT
                       3SM RA BR BKN020 OVC030 WS020/18030KT FM262200
                       17018G26KT 5SM -SHRA SCT025 BKN040=
201610252338 TAF KPAE 252338Z 2600/2624 17014G22KT P6SM VCSH SCT045 BKN080 FM260200
                       13008KT P6SM SCT100 BKN150 FM261100 11009KT
                       P6SM -RA SCT050 OVC070 FM261400 12014G22KT
                       4SM RA BR SCT030 BKN050 OVC080 FM261800
                       16016G26KT 6SM -SHRA BKN035 OVC060=
201610251738 TAF KPAE 251738Z 2518/2618 17016G26KT P6SM VCSH SCT050 BKN080
                      TEMPO 2523/2602 -SHRA BKN050 FM260200 13007KT
                       P6SM SCT100 OVC200 FM261000 11009KT P6SM
                       -RA BKN040 OVC060 FM261300 12012G20KT 4SM
                       RA BR SCT025 OVC040 FM261700 17014G22KT
                       P6SM -SHRA SCT030 BKN045=
201610251136 TAF KPAE 251136Z 2512/2612 15012KT P6SM BKN070 BKN120 FM251900
                       16008KT P6SM SCT070 BKN120 FM260500 10006KT
                       P6SM BKN070 OVC120 FM261100 10006KT P6SM
                       -RA OVC040=
201610250537 TAF KPAE 250537Z 2506/2606 14006KT P6SM BKN120 FM251600 16012KT
                       P6SM BKN070 OVC120 FM260300 13006KT P6SM
                       BKN070 OVC120=
201610242320 TAF KPAE 242320Z 2500/2524 20013G20KT P6SM FEW025 SCT060 OVC100
                       TEMPO 2500/2503 -SHRA BKN025 OVC060 FM250500
                       17016G24KT P6SM SCT070 OVC120 FM251500 17017G25KT
                       P6SM BKN070 OVC120=
201610241720 TAF KPAE 241720Z 2418/2518 12006KT P6SM BKN120 OVC200 FM242000
                       16012KT P6SM SCT070 OVC120 FM250000 18012KT
                       P6SM -SHRA BKN070 OVC120 FM250400 17014G20KT
                       P6SM SCT070 OVC120 FM251500 17017G25KT P6SM
                       BKN070 OVC120=
201610241135 TAF KPAE 241135Z 2412/2512 VRB03KT P6SM BKN120 FM242100 14012KT
                       P6SM -SHRA BKN050 OVC080 FM250300 16008KT
                       P6SM SCT060 BKN100=
201610240536 TAF KPAE 240536Z 2406/2506 09006KT P6SM BKN120 FM242100 14012KT
                       P6SM -SHRA BKN050 OVC080=
201610232338 TAF KPAE 232338Z 2400/2424 02003KT P6SM VCSH BKN060 OVC090 FM240400
                       10004KT P6SM OVC120 FM241200 14011G18KT
                       P6SM VCSH SCT060 OVC080=
201610231737 TAF KPAE 231737Z 2318/2418 16006KT P6SM SCT050 OVC200 FM240000
                       02003KT P6SM BKN060 OVC100 FM240400 10004KT
                       P6SM OVC120 FM241500 15009KT P6SM VCSH SCT060
                       OVC080=
201610231136 TAF KPAE 231136Z 2312/2412 15008KT P6SM -SHRA BKN050 OVC080 FM231600
                       15008KT P6SM SCT050 BKN100 FM240000 VRB03KT
                       P6SM BKN070 OVC120=
201610230540 TAF KPAE 230540Z 2306/2406 15008KT P6SM SCT060 OVC100 FM230800
                       15008KT P6SM -SHRA BKN050 OVC070 FM231400
                       15008KT P6SM BKN050 FM232000 VRB03KT P6SM
                       SCT045 SCT200 FM240000 VRB03KT P6SM BKN070
                       OVC120=
201610222338 TAF KPAE 222338Z 2300/2324 12004KT P6SM BKN200 FM230600 15010KT
                       P6SM BKN080 OVC120 FM230900 18010KT P6SM
                       -SHRA BKN050 OVC070 FM231300 16007KT P6SM
                       SCT040 BKN050 FM232000 20004KT P6SM SCT045
                       BKN200=
201610221736 TAF KPAE 221736Z 2218/2318 14004KT P6SM BKN250 FM230600 15008KT
                       P6SM BKN070 OVC120 FM231000 18010KT P6SM
                       BKN045 OVC070
                      TEMPO 2310/2314 -SHRA FM231400 15006KT P6SM
                       SCT035 BKN050=
201610221457 KPAE 221457Z 2215/2312 15004KT P6SM VCFG SCT009
                      TEMPO 2215/2217 BKN009 FM221700 14004KT P6SM
                       SCT015 FM221900 VRB03KT P6SM BKN200 FM230600
                       13006KT P6SM OVC100 FM231100 13008KT P6SM
                       -RA OVC040=
201610221134 TAF KPAE 221134Z 2212/2312 15006KT P6SM BKN022 FM221500 15006KT
                       P6SM SCT025 FM222000 VRB03KT P6SM SCT200
                       FM230000 VRB03KT P6SM BKN200 FM230600 13006KT
                       P6SM OVC100 FM231100 13008KT P6SM -RA OVC040=
201610220540 TAF KPAE 220540Z 2206/2306 18008KT P6SM OVC015 FM221300 15006KT
                       P6SM BKN022 BKN040 FM221500 13006KT P6SM
                       SCT025 SCT200 FM222000 VRB03KT P6SM SCT200
                       FM230000 VRB03KT P6SM BKN200=
201610220025 KPAE 220025Z 2200/2224 35003KT 5SM -RA BR BKN006 BKN015 OVC070
                       FM220100 18008KT P6SM -SHRA SCT040 BKN070
                       OVC100
                      TEMPO 2201/2205 5SM -SHRA BR BKN035 OVC060
                       FM220500 18007KT P6SM VCSH SCT020 OVC035
                       FM221100 18006KT 4SM BR OVC009 FM221700
                       15005KT P6SM SCT014=
201610212330 TAF KPAE 212330Z 2200/2224 19014KT P6SM -SHRA SCT040 BKN070 OVC100
                       TEMPO 2201/2205 5SM -SHRA BR BKN035 OVC060
                       FM220500 18007KT P6SM VCSH SCT020 OVC035
                       FM221100 18006KT 4SM BR OVC009 FM221700
                       15005KT P6SM SCT014=
201610211739 TAF KPAE 211739Z 2118/2218 16007KT P6SM FEW025 BKN200 FM220000
                       18010KT P6SM -SHRA SCT025 OVC040 FM220500
                       18007KT P6SM VCSH SCT020 OVC035 FM221100
                       18006KT 4SM BR OVC009 FM221700 15005KT P6SM
                       SCT014=
201610211120 TAF KPAE 211120Z 2112/2212 15008KT P6SM SCT015 SCT040
                      TEMPO 2112/2116 BKN015 BKN040 FM211700 18010KT
                       P6SM SCT025 BKN050 FM212300 18010KT P6SM
                       -RA SCT020 OVC050 FM220400 18007KT P6SM
                       SCT020 OVC050 FM221100 18006KT 3SM BR OVC009=
201610210753 KPAE 210753Z 2108/2206 12005KT P6SM SCT015
                      TEMPO 2112/2116 4SM BR BKN010 FM211700 18010KT
                       P6SM SCT025 BKN080 FM212300 18010KT P6SM
                       -RA SCT025 OVC050=
201610210522 TAF KPAE 210522Z 2106/2206 16005KT P6SM -SHRA SCT014 SCT021 OVC030
                       FM210800 16005KT P6SM BKN011 FM211200 16004KT
                       3SM BR BKN002 OVC010 FM211700 18010KT P6SM
                       SCT025 BKN080 FM212300 18010KT P6SM -RA
                       SCT025 OVC050=
201610210303 KPAE 210303Z 2103/2124 VRB04KT P6SM VCSH BKN035 OVC045 FM210700
                       16005KT P6SM BKN015 FM211200 16004KT 3SM
                       BR BKN002 OVC010 FM211800 18010KT P6SM SCT025
                       BKN080 FM212300 18010KT P6SM -RA FEW030
                       OVC050=
201610202324 TAF KPAE 202324Z 2100/2124 VRB03KT P6SM SCT005 BKN025 OVC060
                      TEMPO 2100/2102 2SM -RA BR BKN005 OVC025
                       FM210400 16006KT P6SM FEW025 SCT050 FM210700
                       16005KT P6SM BKN015 FM211200 16004KT P6SM
                       SCT007 OVC012 FM211800 18010KT P6SM SCT025
                       BKN080 FM212300 18010KT P6SM -RA FEW030
                       OVC050=
201610202159 KPAE 202159Z 2022/2118 VRB04KT P6SM SCT005 BKN030 OVC060
                      TEMPO 2022/2024 2SM -SHRA BR BKN005 OVC030
                       FM210500 16006KT P6SM SCT050 BKN200=
201610201725 TAF KPAE 201725Z 2018/2118 23008KT 6SM -RA BR SCT003 BKN015 OVC030
                       TEMPO 2018/2020 2SM -RA BR BKN003 OVC015
                       FM202000 20008KT P6SM SCT022 BKN040
                      TEMPO 2020/2023 BKN022 OVC040 FM210500 16006KT
                       P6SM SCT050 BKN200=
201610201503 KPAE 201503Z 2015/2112 19010KT P6SM -RA SCT004 BKN014 OVC030
                      TEMPO 2015/2018 3SM -RA BR BKN004 OVC010
                       FM201800 20008KT P6SM -SHRA SCT012 OVC022
                       FM210200 20008KT P6SM VCSH SCT022 BKN040=
201610201134 TAF KPAE 201134Z 2012/2112 17012KT 4SM -RA BR BKN008 OVC015 FM201800
                       20008KT P6SM -SHRA SCT012 OVC022 FM210200
                       20008KT P6SM VCSH SCT022 BKN040=
201610200913 TAF AMD KPAE 200913Z 2009/2106 14006KT 4SM -RA BR OVC009 FM201800
                       20008KT P6SM -SHRA SCT012 OVC022 FM210200
                       20008KT P6SM VCSH SCT022 BKN040=
201610200538 TAF KPAE 200538Z 2006/2106 14006KT P6SM -RA OVC045 FM201300 16012KT
                       5SM -RA BR OVC018 FM201600 16012KT 3SM -RA
                       BR OVC010 FM202000 20008KT P6SM -SHRA SCT012
                       OVC022 FM210200 20008KT P6SM VCSH SCT022
                       BKN040=
201610192335 TAF KPAE 192335Z 2000/2024 VRB05KT P6SM OVC080 FM200300 16010KT
                       P6SM -RA OVC035 FM201000 16012KT 5SM -RA
                       BR OVC018 FM201400 16010KT 3SM -RA BR OVC010
                       FM202000 17010KT P6SM -SHRA OVC023=
201610191724 TAF KPAE 191724Z 1918/2018 11007KT P6SM FEW035 FEW060 BKN250 FM192200
                       15006KT P6SM SCT045 BKN100 OVC200 FM200300
                       17012KT P6SM -RA OVC035 FM201100 17012KT
                       P6SM -RA OVC016=
201610191307 KPAE 191307Z 1913/2012 15006KT P6SM FEW020 SCT060 SCT200
                      TEMPO 1913/1917 FEW020 BKN060 BKN200 FM191800
                       15006KT P6SM SCT100 BKN200 FM192200 15006KT
                       P6SM SCT045 BKN100 OVC200 FM200300 17012KT
                       P6SM -RA OVC035 FM201100 17012KT P6SM -RA
                       OVC016=
201610191128 TAF KPAE 191128Z 1912/2012 15006KT P6SM SCT012 FM191800 15006KT
                       P6SM SCT100 BKN200 FM192200 15006KT P6SM
                       SCT045 BKN100 OVC200 FM200300 17012KT P6SM
                       -RA OVC035 FM201100 17012KT P6SM -RA OVC016=
201610190536 TAF KPAE 190536Z 1906/2006 17010KT P6SM SCT050 FM190900 16006KT
                       P6SM OVC006 FM191800 14008KT P6SM FEW010
                       SCT040 BKN150 FM192100 17012KT P6SM BKN040
                       OVC100 FM200200 17012KT P6SM -RA OVC035=
201610182320 TAF KPAE 182320Z 1900/1924 20008KT P6SM VCSH SCT022 BKN035 OVC050
                       TEMPO 1900/1902 6SM -SHRA BKN022 OVC035
                       FM190300 17006KT P6SM SCT020 BKN050 FM190900
                       16005KT P6SM SCT010 BKN025
                      TEMPO 1912/1916 VRB03KT 3SM BR OVC006 FM191800
                       15008KT P6SM FEW010 SCT040 BKN150 FM192100
                       17012KT P6SM BKN040 OVC100=
201610181746 TAF KPAE 181746Z 1818/1918 17010KT P6SM VCSH SCT010 BKN030 BKN080
                       TEMPO 1818/1819 OVC008 FM190000 18007KT
                       P6SM BKN035 BKN080 FM190500 16005KT P6SM
                       SCT025 SCT080 FM190900 16005KT P6SM SCT010
                       BKN025
                      TEMPO 1911/1915 VRB03KT 5SM BR OVC007 FM191600
                       15006KT P6SM FEW010 SCT040 BKN150=
201610181502 KPAE 181502Z 1815/1912 17008KT P6SM -SHRA SCT006 BKN030 OVC060
                       TEMPO 1815/1817 OVC006 FM181900 16006KT
                       P6SM VCSH SCT025 BKN040 BKN080 FM190300
                       16006KT P6SM SCT040 BKN080 FM190600 17006KT
                       P6SM SCT040 SCT080=
201610181316 KPAE 181316Z 1813/1912 17011KT P6SM -SHRA SCT009 SCT015 OVC050
                       TEMPO 1813/1815 SCT009 BKN015 OVC050 FM181500
                       17011KT P6SM -SHRA SCT015 BKN030 OVC060
                       FM181900 16006KT P6SM VCSH SCT025 BKN040
                       BKN080 FM190300 16006KT P6SM SCT040 BKN080
                       FM190600 17006KT P6SM SCT040 SCT080=
201610181203 KPAE 181203Z 1812/1912 17011KT P6SM -SHRA SCT008 BKN015 OVC030
                       TEMPO 1812/1815 BKN008 OVC015 FM181500 17011KT
                       P6SM -SHRA SCT015 BKN030 OVC060 FM181900
                       16006KT P6SM VCSH SCT025 BKN040 BKN080 FM190300
                       16006KT P6SM SCT040 BKN080 FM190600 17006KT
                       P6SM SCT040 SCT080=
201610181121 TAF KPAE 181121Z 1812/1912 17011KT P6SM -SHRA BKN010 OVC015 FM181900
                       16006KT P6SM VCSH SCT025 BKN040 BKN080 FM190300
                       16006KT P6SM SCT040 BKN080 FM190600 17006KT
                       P6SM SCT040 SCT080=
201610180528 TAF KPAE 180528Z 1806/1906 16008KT P6SM -SHRA FEW015 BKN022 BKN030
                       FM181200 16006KT P6SM VCSH SCT015 OVC020
                       FM181900 16006KT P6SM VCSH SCT025 BKN040
                       BKN080 FM190300 16006KT P6SM SCT040 BKN080=
201610180336 KPAE 180336Z 1804/1824 15004KT P6SM SCT019 BKN080
                      TEMPO 1804/1808 -SHRA BKN019 OVC080 FM180800
                       16007KT P6SM SCT035 BKN060 FM181200 16006KT
                       P6SM SCT015 OVC025 FM181900 16006KT P6SM
                       SCT025 BKN040 BKN060=
201610180309 KPAE 180309Z 1803/1824 16007KT P6SM SCT035 BKN100
                      TEMPO 1804/1808 -SHRA BKN030 OVC080 FM180800
                       16007KT P6SM SCT035 BKN060 FM181200 16006KT
                       P6SM SCT015 OVC025 FM181900 16006KT P6SM
                       SCT025 BKN040 BKN060=
201610172338 TAF KPAE 172338Z 1800/1824 18010KT P6SM -SHRA SCT022 BKN035 OVC050
                       TEMPO 1800/1804 -SHRA BKN022 OVC035 FM180500
                       18010KT P6SM SCT035 BKN060 FM181200 16006KT
                       P6SM SCT015 OVC025 FM181900 16006KT P6SM
                       SCT025 BKN040 BKN060=
201610171740 TAF KPAE 171740Z 1718/1818 18010KT P6SM -SHRA BKN015 OVC030 FM172200
                       18010KT P6SM -SHRA SCT020 BKN035 OVC050
                       FM180800 18010KT P6SM SCT015 OVC025=
201610171314 KPAE 171314Z 1713/1812 17013KT P6SM VCSH SCT015 BKN060 OVC100
                      TEMPO 1713/1717 17013G23KT -SHRA BKN015 OVC040
                       FM171800 18010KT P6SM -SHRA SCT015 BKN040
                       OVC060 FM180300 18009KT P6SM BKN040 OVC060
                       FM180800 17007KT P6SM SCT015 OVC025=
201610171212 KPAE 171212Z 1712/1812 17013KT P6SM VCSH SCT015 BKN060 OVC100
                      TEMPO 1712/1716 17013G23KT -SHRA SCT015 OVC030
                       FM171800 18010KT P6SM -SHRA SCT015 BKN040
                       OVC060 FM180300 18009KT P6SM BKN040 OVC060
                       FM180800 17007KT P6SM SCT015 OVC025=
201610171120 TAF KPAE 171120Z 1712/1812 16006KT P6SM SCT015 BKN025 OVC060
                      TEMPO 1712/1716 18014G23KT -SHRA SCT010 BKN020
                       FM171800 18010KT P6SM -SHRA SCT015 BKN040
                       OVC060 FM180300 18009KT P6SM BKN040 OVC060
                       FM180800 17007KT P6SM SCT015 OVC025=
201610170525 TAF KPAE 170525Z 1706/1806 16006KT P6SM -SHRA SCT025 BKN040 OVC060
                       FM171200 16006KT P6SM SCT015 BKN025 OVC040
                       FM171800 18010KT P6SM -SHRA SCT025 BKN040
                       OVC060 FM180300 18009KT P6SM BKN040 OVC060=
201610162339 TAF KPAE 162339Z 1700/1724 16006KT P6SM -SHRA SCT025 BKN040 OVC060
                       FM171200 16006KT P6SM SCT015 BKN025 OVC040
                       FM171800 18010KT P6SM -SHRA SCT025 BKN040
                       OVC060=
201610161733 TAF KPAE 161733Z 1618/1718 16012G18KT P6SM -SHRA SCT025 BKN040
                       OVC060 FM171200 16008KT P6SM SCT015 BKN025
                       OVC040=
201610161206 KPAE 161206Z 1612/1712 17015KT P6SM VCSH SCT035 OVC060
                      TEMPO 1612/1616 17015G25KT -SHRA BKN025 OVC060
                       FM161600 17018G28KT P6SM -SHRA BKN035 OVC060
                       FM162300 18012KT P6SM -SHRA SCT020 BKN040
                       FM171100 18010KT P6SM OVC020=
201610161120 TAF KPAE 161120Z 1612/1712 18015G25KT P6SM -SHRA SCT030 OVC050
                       FM162300 18012KT P6SM -SHRA SCT020 BKN040
                       FM171100 18010KT P6SM OVC020=
201610160520 TAF KPAE 160520Z 1606/1706 16025G35KT P6SM -SHRA SCT020 BKN030
                       OVC070 FM160700 18015G25KT P6SM -SHRA BKN040
                       OVC070 FM161100 18012KT P6SM -SHRA BKN045
                       BKN070 FM162300 16008KT P6SM SCT045 BKN070=
201610152339 TAF KPAE 152339Z 1600/1624 15014G24KT P6SM -SHRA BKN050 OVC080
                       FM160200 16025G35KT P6SM -SHRA BKN045 OVC070
                       FM160700 18015G25KT P6SM -SHRA BKN045 OVC070
                       FM161100 18012KT P6SM BKN045 BKN070 FM162300
                       16008KT P6SM SCT045 BKN070=
201610151751 TAF KPAE 151751Z 1518/1618 13010KT P6SM -RA BKN035 OVC050 FM152300
                       15014G24KT P6SM -RA BKN035 OVC050 FM160200
                       16025G35KT P6SM -RA SCT020 OVC040 FM160700
                       18015G25KT P6SM VCSH BKN050 OVC070 FM161100
                       18012KT P6SM SCT045 BKN070=
201610151328 KPAE 151328Z 1513/1612 13010KT P6SM SCT035 OVC050 WS020/19030KT
                       TEMPO 1513/1515 -RA FM151500 13010KT P6SM
                       -RA BKN035 OVC050
                      TEMPO 1515/1519 13015G25KT FM151900 15018G28KT
                       P6SM -RA SCT018 OVC035 FM152300 15028G38KT
                       5SM -RA BR FEW009 BKN018 OVC035 FM160300
                       17035G45KT P6SM -RA SCT018 BKN035 OVC050
                       FM160700 18016G25KT P6SM VCSH BKN050 OVC070=
201610151120 TAF KPAE 151120Z 1512/1612 17010KT P6SM SCT020 BKN100
                      TEMPO 1512/1514 16017G25KT -SHRA SCT020 BKN070
                       FM151400 13010KT P6SM SCT035 BKN150 FM151700
                       12012G22KT P6SM -RA BKN050 OVC070
                      TEMPO 1517/1521 5SM RA BR FM152200 15018G26KT
                       4SM -RA BR BKN030 OVC050 FM160000 16024G33KT
                       4SM -RA BR BKN025 OVC050 FM160700 18016G25KT
                       P6SM VCSH BKN050 OVC070=
201610150520 TAF KPAE 150520Z 1506/1606 18011KT P6SM -SHRA SCT020 BKN035 FM150800
                       17010KT P6SM BKN020 OVC035 FM151400 13010KT
                       P6SM SCT035 BKN150 FM151700 12012G22KT P6SM
                       -RA BKN050 OVC070
                      TEMPO 1517/1521 5SM RA BR FM152200 15018G26KT
                       4SM -RA BR BKN030 OVC050 FM160000 16024G33KT
                       4SM -RA BR BKN025 OVC050=
201610142338 TAF KPAE 142338Z 1500/1524 19024G36KT 6SM -SHRA BR SCT020 OVC040
                       FM150400 18011KT P6SM -SHRA SCT020 BKN035
                       FM150800 17010KT P6SM BKN020 OVC035 FM151400
                       13010KT P6SM SCT035 BKN150 FM151700 12012G22KT
                       P6SM -RA BKN050 OVC070
                      TEMPO 1517/1521 5SM RA BR=
201610141736 TAF KPAE 141736Z 1418/1518 19025G40KT 6SM -SHRA BR SCT025 BKN035
                       OVC050
                      TEMPO 1418/1421 3SM SHRA BR BKN025 OVC035
                       FM150000 18018G30KT P6SM -SHRA SCT030 BKN050
                       FM150500 17012KT P6SM -RA BKN020 OVC040
                       FM151400 14012KT P6SM VCSH SCT035 BKN150=
201610141120 TAF KPAE 141120Z 1412/1512 17018G28KT P6SM -RA SCT020 BKN030 OVC050
                       FM141300 18020G30KT 4SM -RA BR BKN020 OVC030
                       FM141600 18023G33KT 4SM -RA BR BKN010 OVC020
                       FM150300 19016G25KT 5SM -RA BR BKN015 OVC030
                       FM150900 17013KT P6SM -RA BKN010 OVC025=
201610140526 TAF KPAE 140526Z 1406/1506 14015G22KT P6SM -RA SCT030 BKN045 OVC070
                       FM140700 17018G28KT 6SM -RA BR BKN010 OVC030
                       FM141200 18020G30KT 4SM -RA BR OVC010 FM141600
                       18023G33KT 4SM -RA BR BKN003 OVC020 FM150300
                       19017G26KT 5SM -RA BR BKN010 OVC030=
201610140308 KPAE 140308Z 1403/1424 14010KT P6SM -RA BKN070 OVC090
                      TEMPO 1403/1404 1/2SM -RA FG BKN004 OVC015
                       FM140400 17018G28KT 4SM -RA BR BKN003 OVC010
                       FM140600 18024G35KT 4SM -RA BR OVC003 FM140900
                       18017G25KT 5SM -RA BR BKN003 OVC010 FM141800
                       18023G33KT 5SM -RA BR BKN003 OVC025=
201610140003 KPAE 140003Z 1400/1424 14010KT P6SM -RA BKN004 OVC015
                      TEMPO 1400/1402 1/2SM -RA FG OVC002 FM140400
                       17018G28KT 4SM -RA BR BKN003 OVC010 FM140600
                       18024G35KT 4SM -RA BR OVC003 FM140900 18017G25KT
                       5SM -RA BR BKN003 OVC010 FM141800 18023G33KT
                       5SM -RA BR BKN003 OVC025=
201610132337 TAF KPAE 132337Z 1400/1424 14010KT P6SM -RA BKN004 OVC015 FM140400
                       17018G28KT 4SM -RA BR BKN003 OVC010 FM140600
                       18024G35KT 4SM -RA BR OVC003 FM140900 18017G25KT
                       5SM -RA BR BKN003 OVC010 FM141800 18023G33KT
                       5SM -RA BR BKN003 OVC025=
201610131739 TAF KPAE 131739Z 1318/1418 16010KT 5SM -RA BR SCT004 OVC025
                      TEMPO 1318/1322 1SM -RA BR BKN004 OVC020
                       FM132200 16012KT 3SM -RA BR BKN006 OVC020
                       FM140400 17018G28KT 5SM -RA BR SCT006 BKN020
                       OVC040=
201610131517 KPAE 131517Z 1315/1412 16010KT 5SM -RA BR SCT002 OVC020
                      TEMPO 1315/1318 1SM -RA BR BKN002 OVC020
                       FM131800 18012KT 6SM -RA BR BKN006 BKN020
                       OVC030 FM140000 16017G25KT 4SM -RA BR SCT006
                       BKN015 OVC030 FM140500 18022G31KT 5SM -RA
                       BR BKN020 OVC040=
201610131503 KPAE 131503Z 1315/1412 18010KT P6SM -RA SCT004 OVC030
                      TEMPO 1315/1318 BKN004 OVC030 FM131800 18012KT
                       6SM -RA BR BKN006 BKN020 OVC030 FM140000
                       16017G25KT 4SM -RA BR SCT006 BKN015 OVC030
                       FM140500 18022G31KT 5SM -RA BR BKN020 OVC040=
201610131434 KPAE 131434Z 1315/1412 18010KT P6SM -RA SCT006 OVC030 FM131800
                       18012KT 6SM -RA BR SCT006 BKN020 OVC030
                       FM140000 16017G25KT 4SM -RA BR SCT006 BKN015
                       OVC030 FM140500 18022G31KT 5SM -RA BR BKN020
                       OVC040=
201610131120 TAF KPAE 131120Z 1312/1412 16015G25KT P6SM -RA BKN030 OVC040 FM131300
                       16015G25KT 4SM -RA BR BKN015 OVC025 FM131500
                       16012KT 4SM -RA BR BKN007 OVC020 FM140000
                       16017G25KT 4SM -RA BR BKN015 OVC030 FM140500
                       18022G31KT 5SM -RA BR BKN020 OVC040=
201610130524 TAF KPAE 130524Z 1306/1406 16010KT P6SM SCT070 BKN100 FM130700
                       16014G22KT P6SM -RA BKN050 OVC080 FM131000
                       16015G25KT P6SM -RA OVC030 FM131300 16015G25KT
                       4SM -RA BR BKN015 OVC025 FM131500 16012KT
                       4SM -RA BR BKN007 OVC020 FM140000 16020G30KT
                       4SM -RA BR BKN007 OVC020=
201610122340 TAF KPAE 122340Z 1300/1324 16010KT P6SM BKN100 OVC200 FM130500
                       16014G22KT P6SM -RA BKN050 OVC080 FM131000
                       16015G25KT P6SM -RA OVC030 FM131300 16015G25KT
                       4SM -RA BR BKN015 OVC025 FM131500 16012KT
                       4SM -RA BR BKN007 OVC020=
201610121742 TAF KPAE 121742Z 1218/1318 11006KT P6SM SCT200 FM122200 18009KT
                       P6SM OVC200 FM130200 17012KT P6SM BKN100
                       OVC150 FM130500 16015G25KT P6SM -RA BKN050
                       OVC080 FM131200 16015G25KT P6SM -RA OVC035
                       FM131600 16012G20KT 4SM -RA BR OVC020=
201610121145 TAF KPAE 121145Z 1212/1312 VRB03KT P6SM BKN200 FM122000 19006KT
                       P6SM FEW110 BKN200 FM130300 15011KT P6SM
                       FEW060 BKN110 OVC200 FM130600 15015G22KT
                       P6SM -RA SCT028 OVC060=
201610120545 TAF KPAE 120545Z 1206/1306 VRB03KT P6SM FEW200 FM122000 19006KT
                       P6SM FEW110 BKN200 FM130300 15011KT P6SM
                       FEW060 BKN110 OVC200=
201610112320 TAF KPAE 112320Z 1200/1224 36006KT P6SM SKC FM120100 VRB04KT P6SM
                       SKC FM121900 14005KT P6SM SCT200=
201610111721 TAF KPAE 111721Z 1118/1218 VRB03KT P6SM SKC FM120100 VRB04KT P6SM
                       SKC FM121700 14005KT P6SM FEW200=
201610111131 TAF KPAE 111131Z 1112/1212 VRB03KT P6SM SKC=
201610110537 TAF KPAE 110537Z 1106/1206 36005KT P6SM SKC FM111200 VRB03KT P6SM
                       MIFG SKC FM111600 VRB03KT P6SM SKC=
201610102320 TAF KPAE 102320Z 1100/1124 34007KT P6SM SKC FM110500 02003KT P6SM
                       SKC FM111300 02003KT P6SM SKC
                      TEMPO 1113/1116 1/2SM PRFG BKN001=
201610101734 TAF KPAE 101734Z 1018/1118 VRB03KT P6SM OVC035 FM102000 34004KT
                       P6SM SCT035 FM102200 34005KT P6SM SKC FM110900
                       VRB03KT 2SM BR SKC FM111300 02003KT 1/2SM
                       FG OVC001=
201610101530 KPAE 101530Z 1016/1112 VRB03KT P6SM BKN030 FM101800 VRB03KT P6SM
                       SCT035 FM102000 34005KT P6SM SKC FM110200
                       VRB03KT P6SM SKC FM110900 VRB03KT 2SM BR
                       SKC=
201610101130 TAF KPAE 101130Z 1012/1112 VRB03KT P6SM VCFG BKN015 BKN035 FM101400
                       VRB03KT P6SM VCFG BKN007 BKN030 FM101900
                       01005KT P6SM SCT011 SCT030 FM102100 35005KT
                       P6SM SKC FM110200 VRB03KT P6SM SKC FM110900
                       VRB03KT 2SM BR SKC=
201610100904 KPAE 100904Z 1009/1106 VRB03KT P6SM BKN030 FM101200 VRB03KT 2SM
                       BR BKN005 FM101800 01005KT P6SM SCT010
                      TEMPO 1018/1020 BKN010 FM102000 34005KT P6SM
                       SKC FM110200 VRB03KT P6SM SKC=
201610100541 TAF KPAE 100541Z 1006/1106 35005KT P6SM FEW008 SCT050 FM100900
                       VRB03KT 6SM BR FEW005 FM101200 VRB03KT 2SM
                       BR BKN005 FM101800 01005KT P6SM SCT010
                      TEMPO 1018/1020 BKN010 FM102000 34005KT P6SM
                       SKC FM110200 VRB03KT P6SM SKC=
201610100313 KPAE 100313Z 1003/1024 VRB03KT P6SM SCT025 OVC060 FM100600 VRB03KT
                       4SM BR FEW002 SCT050 SCT120 FM101000 00000KT
                       1SM BR OVC003 FM101200 00000KT 1/2SM FG
                       OVC002 FM101800 35005KT 4SM BR SCT009 FM102000
                       34007KT P6SM SKC=
201610100141 KPAE 100141Z 1002/1024 VRB03KT P6SM FEW019 BKN045 OVC120 FM100600
                       VRB03KT 4SM BR FEW002 SCT050 SCT120 FM101000
                       00000KT 1SM BR OVC003 FM101200 00000KT 1/2SM
                       FG OVC002 FM101800 35005KT 4SM BR SCT009
                       FM102000 34007KT P6SM SKC=
201610100108 KPAE 100108Z 1001/1024 31003KT P6SM BKN019 OVC040 FM100700 02003KT
                       4SM BR FEW002 SCT050 FM101000 00000KT 1SM
                       BR OVC003 FM101200 00000KT 1/2SM FG OVC002
                       FM101800 35005KT 4SM BR SCT009 FM102000
                       34007KT P6SM SKC=
201610092323 TAF KPAE 092323Z 1000/1024 36004KT P6SM FEW015 BKN150 FM100700
                       02003KT 4SM BR FEW002 SCT150 FM101000 00000KT
                       1SM BR OVC003 FM101200 00000KT 1/2SM FG
                       OVC002 FM101800 35005KT 4SM BR SCT009 FM102000
                       34007KT P6SM SKC=
201610092105 KPAE 092105Z 0921/1018 01004KT P6SM SCT012 SCT040 BKN120 FM100000
                       02004KT P6SM SCT020 SCT150 FM100700 VRB03KT
                       4SM BR FEW003 FM101000 00000KT 1SM BR OVC003=
201610091721 TAF KPAE 091721Z 0918/1018 01004KT P6SM FEW035 SCT045 BKN120 FM092100
                       35005KT P6SM SCT060 SCT150 FM100700 VRB03KT
                       4SM BR FEW003 FM101000 00000KT 1SM BR OVC003=
201610091248 KPAE 091248Z 0913/1012 00000KT P6SM FEW004 BKN070
                      TEMPO 0913/0916 BKN004 OVC060 FM091800 22005KT
                       P6SM SCT020 BKN060 OVC150 FM092100 26005KT
                       P6SM SCT025 BKN060 BKN150 FM100400 35005KT
                       P6SM SCT060 SCT150 FM100700 VRB03KT 4SM
                       BR FEW003 FM101000 00000KT 1SM BR OVC003=
201610091145 TAF KPAE 091145Z 0912/1012 VRB03KT P6SM SCT004 BKN011 OVC070
                      TEMPO 0912/0916 BKN004 BKN011 OVC060 FM091800
                       22005KT P6SM BKN020 BKN060 OVC150 FM092100
                       26005KT P6SM SCT025 BKN060 BKN150 FM100400
                       35005KT P6SM SCT060 SCT150 FM100700 VRB03KT
                       4SM BR FEW003 FM101000 00000KT 1SM BR OVC003=
201610090908 KPAE 090908Z 0909/1006 02006KT P6SM -RA BKN004 OVC015
                      TEMPO 0909/0912 3SM -DZ BR OVC002 FM091200
                       VRB03KT P6SM BKN012 OVC025 FM092000 21005KT
                       P6SM SCT015 BKN030 OVC050 FM100000 25005KT
                       P6SM SCT030 BKN050 OVC090=
201610090558 TAF KPAE 090558Z 0906/1006 36007KT P6SM -RA BKN003 OVC010 FM090900
                       01004KT P6SM BKN008 OVC015 FM091200 VRB03KT
                       P6SM BKN012 OVC025 FM092000 21005KT P6SM
                       SCT015 BKN030 OVC050 FM100000 25005KT P6SM
                       SCT030 BKN050 OVC090=
201610090441 KPAE 090441Z 0905/0924 32011KT P6SM -RA SCT003 OVC010
                      TEMPO 0905/0907 5SM -RA BR BKN003 OVC015
                       FM090800 01004KT 4SM BR SCT004 OVC012 FM091200
                       34004KT 3SM BR OVC004 FM091800 33005KT P6SM
                       SCT025=
201610090320 KPAE 090320Z 0903/0924 19015G25KT P6SM SCT009 OVC015
                      TEMPO 0903/0906 -RA BKN009 OVC015 FM090600
                       19009KT 4SM BR SCT004 OVC012 FM091200 34004KT
                       3SM BR OVC004 FM091800 33005KT P6SM SCT025=
201610082329 TAF KPAE 082329Z 0900/0924 19018G28KT P6SM -RA BKN009 OVC015 FM090600
                       33006KT 4SM BR SCT004 OVC012 FM091200 34004KT
                       3SM BR OVC004 FM091800 33005KT P6SM SCT025=
201610081731 TAF KPAE 081731Z 0818/0918 17015G25KT P6SM -RA SCT008 OVC020
                      TEMPO 0818/0820 BKN008 FM082300 19013KT 5SM
                       -RA SCT006 BKN018 OVC030 FM090700 33006KT
                       4SM BR SCT004 OVC012 FM091200 34004KT 3SM
                       BR OVC004=
201610081634 KPAE 081634Z 0817/0912 15015G25KT P6SM -RA BKN006 OVC023 FM081800
                       17015G25KT P6SM -RA SCT008 OVC025 FM090000
                       19013KT P6SM -RA SCT009 BKN022 OVC035 FM090600
                       19009KT 4SM -RA BR SCT005 OVC012=
201610081332 KPAE 081332Z 0814/0912 15005KT P6SM BKN005 OVC027
                      TEMPO 0814/0816 5SM -RA BR SCT005 BKN027
                       OVC040 FM081600 17013KT 5SM -RA BR BKN015
                       OVC030 FM081800 17015G23KT 5SM -RA BR SCT005
                       OVC015 FM090000 19013KT P6SM -RA SCT009
                       BKN022 OVC035 FM090600 19009KT 4SM -RA BR
                       SCT005 OVC012=
201610081131 TAF KPAE 081131Z 0812/0912 13008KT P6SM -RA SCT018 OVC035
                      TEMPO 0812/0815 5SM -RA BR BKN018 OVC035
                       FM081500 17013KT 5SM -RA BR BKN015 OVC030
                       FM081800 17015G23KT 5SM -RA BR SCT005 OVC015
                       FM090000 19013KT P6SM -RA SCT009 BKN022
                       OVC035 FM090600 19009KT 4SM -RA BR SCT005
                       OVC012=
201610080536 TAF KPAE 080536Z 0806/0906 14005KT P6SM SCT035 OVC090
                      TEMPO 0806/0808 BKN035 OVC090 FM080900 11005KT
                       P6SM -RA SCT030 OVC070 FM081200 14009KT
                       6SM -RA BR SCT013 OVC030 FM081500 16012KT
                       4SM -RA BR FEW005 BKN013 OVC028 FM081800
                       18015G23KT 5SM -RA BR SCT005 OVC013 FM090000
                       18013KT P6SM -RA BKN020 OVC035=
201610080119 KPAE 080119Z 0801/0824 VRB04KT P6SM FEW035 OVC130 FM080800 12004KT
                       P6SM -RA OVC035 FM081100 15010KT 3SM -RA
                       BR OVC011 FM081800 18012G20KT 4SM -RA BR
                       OVC015=
201610072325 TAF KPAE 072325Z 0800/0824 20006KT P6SM SCT025 BKN030 BKN200 FM080800
                       12004KT P6SM -RA OVC035 FM081100 15010KT
                       3SM -RA BR OVC011 FM081800 18012G20KT 4SM
                       -RA BR OVC015=
201610071721 TAF KPAE 071721Z 0718/0818 18015G25KT P6SM VCSH BKN015 BKN025 OVC060
                       FM072000 19012KT P6SM VCSH SCT030 BKN060
                       FM080700 12004KT P6SM -RA OVC040 FM081100
                       15010KT 4SM -RA BR OVC013=
201610071130 TAF KPAE 071130Z 0712/0812 17018G27KT P6SM -RA BKN009 OVC014 FM071600
                       18015G25KT P6SM VCSH BKN014 BKN025 OVC040
                       FM072200 19012KT P6SM VCSH SCT025 BKN060
                       FM080600 12004KT P6SM -RA OVC040 FM081100
                       15010KT 4SM -RA BR OVC013=
201610070530 TAF KPAE 070530Z 0706/0806 16013G20KT P6SM -RA OVC040 FM070900
                       16020G30KT 4SM -RA BR OVC012 FM071500 18015G25KT
                       4SM BR VCSH OVC015 FM071800 20012KT P6SM
                       BKN025 FM072300 21010KT P6SM VCSH SCT030
                       BKN060=
201610062322 TAF KPAE 062322Z 0700/0724 18010G20KT P6SM -RA SCT030 BKN070 OVC140
                       FM070600 16015G25KT P6SM -RA BKN022 OVC040
                       FM070900 16020G30KT 4SM -RA BR OVC012 FM071500
                       18015G25KT 4SM BR VCSH OVC015 FM071800 20012KT
                       P6SM BKN025=
201610061721 TAF KPAE 061721Z 0618/0718 18010G20KT P6SM BKN020 BKN035 FM062000
                       18010G20KT P6SM SCT030 BKN070 FM070600 16018G28KT
                       P6SM -RA BKN022 OVC040 FM070900 16018G28KT
                       4SM -RA BR OVC012=
201610061125 TAF KPAE 061125Z 0612/0712 VRB03KT P6SM BKN013 OVC018
                      TEMPO 0612/0616 OVC010 FM061800 18009KT P6SM
                       SCT013 BKN020 OVC035 FM062000 19012KT P6SM
                       SCT023 BKN040 FM070600 16018G28KT P6SM -RA
                       BKN022 OVC040=
201610060540 TAF KPAE 060540Z 0606/0706 00000KT P6SM FEW060 FM061200 19005KT
                       P6SM BKN020 BKN150
                      TEMPO 0612/0616 OVC013 FM061800 18006KT P6SM
                       BKN025 BKN040 BKN120 FM062000 19010KT P6SM
                       BKN040 OVC120 FM070300 15012KT P6SM -RA
                       OVC050=
201610052320 TAF KPAE 052320Z 0600/0624 35005KT P6SM SCT050 BKN080 BKN250 FM060800
                       19005KT P6SM BKN035 BKN050 BKN250 FM061200
                       19005KT P6SM BKN020 BKN150
                      TEMPO 0612/0616 OVC015 FM061800 18006KT P6SM
                       BKN025 BKN040 BKN120 FM062000 19010KT P6SM
                       BKN040 OVC120=
201610051720 TAF KPAE 051720Z 0518/0618 33004KT P6SM SCT030 BKN050 BKN070 FM052200
                       33006KT P6SM VCSH SCT050 BKN080 FM060600
                       17005KT P6SM VCSH BKN035 BKN050 FM061000
                       19005KT P6SM VCSH BKN020
                      TEMPO 0612/0616 OVC015=
201610051130 TAF KPAE 051130Z 0512/0612 11006KT P6SM SCT025 BKN060
                      TEMPO 0514/0518 -SHRA OVC023 FM051800 04005KT
                       P6SM VCSH SCT030 BKN050 OVC070 FM060000
                       32006KT P6SM SCT060 BKN100 FM060600 17005KT
                       P6SM -SHRA BKN020 OVC035=
201610050525 TAF KPAE 050525Z 0506/0606 VRB04KT P6SM FEW040 BKN050 OVC060 FM050800
                       15008KT P6SM -SHRA OVC035 FM051300 05003KT
                       4SM -RA BR BKN007 OVC015 FM051800 34003KT
                       P6SM VCSH SCT020 SCT030 BKN050 FM052200
                       32004KT P6SM SCT030 BKN050=
201610042329 TAF KPAE 042329Z 0500/0524 15010G21KT P6SM -SHRA FEW019 BKN035
                       OVC045 FM050300 15008KT P6SM -SHRA OVC035
                       FM051300 05003KT 4SM -RA BR BKN007 OVC015
                       FM051800 34003KT P6SM VCSH SCT020 SCT030
                       BKN050 FM052200 32004KT P6SM SCT030 BKN050=
201610041724 TAF KPAE 041724Z 0418/0518 17013KT P6SM BKN009 OVC022 FM042000
                       17013KT P6SM -SHRA BKN035 OVC050 FM050600
                       15008KT P6SM VCSH OVC050 FM051300 05003KT
                       P6SM SCT007 OVC015=
201610041506 KPAE 041506Z 0415/0512 16011KT P6SM SCT009 BKN030 BKN045
                      TEMPO 0415/0418 -SHRA BKN009 OVC030 FM041800
                       17011KT P6SM -SHRA OVC030 FM042200 18011KT
                       P6SM -SHRA BKN035 OVC050 FM050600 16009KT
                       P6SM VCSH OVC040=
201610041130 TAF KPAE 041130Z 0412/0512 15011KT P6SM FEW029 OVC070
                      TEMPO 0412/0416 -RA BKN025 OVC035 FM041800
                       17011KT P6SM -SHRA OVC030 FM042200 18011KT
                       P6SM -SHRA BKN035 OVC050 FM050600 16009KT
                       P6SM VCSH OVC040=
201610040525 TAF KPAE 040525Z 0406/0506 21010KT P6SM -RA BKN060 OVC080 FM040900
                       17009KT P6SM -RA BKN020 OVC050 FM041400
                       17011KT P6SM -RA BKN010 OVC020 FM042100
                       20009KT P6SM -RA BKN020 OVC040=
201610032327 TAF KPAE 032327Z 0400/0424 17010KT P6SM FEW060 OVC150 FM040300
                       17011KT P6SM -RA BKN050 OVC090 FM040900
                       17009KT P6SM -RA BKN020 OVC050 FM041400
                       17011KT P6SM -RA BKN010 OVC020 FM042100
                       20009KT P6SM -RA BKN020 OVC040=
201610031905 KPAE 031905Z 0319/0418 17012G18KT P6SM BKN040 BKN060 BKN200 FM040000
                       18010KT P6SM SCT050 BKN100 FM040500 17011KT
                       P6SM -RA BKN050 OVC090 FM040900 17009KT
                       P6SM -RA BKN020 OVC050 FM041400 17011KT
                       P6SM -RA BKN010 OVC020=
201610031743 TAF KPAE 031743Z 0318/0418 19008KT P6SM FEW010 BKN050 OVC080 FM032200
                       19008KT P6SM SCT060 BKN100 FM040500 18008KT
                       P6SM -RA BKN050 OVC090 FM040900 17008KT
                       P6SM -RA BKN020 OVC050=
201610031120 TAF KPAE 031120Z 0312/0412 19008KT P6SM FEW010 BKN060 FM032200
                       19008KT P6SM SCT060 BKN100 FM040500 18008KT
                       P6SM -RA BKN050 OVC090 FM040900 17008KT
                       P6SM -RA BKN020 OVC050=
201610030523 TAF KPAE 030523Z 0306/0406 17003KT P6SM BKN070 FM031200 18005KT
                       P6SM BKN050 BKN060 FM032200 19008KT P6SM
                       SCT060 BKN100 FM040500 18007KT P6SM -RA
                       BKN050 OVC090=
201610022324 TAF KPAE 022324Z 0300/0324 29005KT P6SM SCT200 FM030300 00000KT
                       P6SM SCT100 FM030800 18005KT P6SM SCT100
                       SCT200 FM031200 18005KT P6SM BKN020 BKN100
                       FM031800 18006KT P6SM SCT035 BKN100 FM032200
                       19008KT P6SM BKN100=
201610021732 TAF KPAE 021732Z 0218/0318 00000KT P6SM SCT100 SCT200 FM022000
                       32004KT P6SM SCT100 FM030300 VRB03KT P6SM
                       SCT100 FM031200 18006KT 6SM BR BKN010 BKN030
                       BKN100 FM031700 18006KT P6SM SCT020 BKN035
                       BKN100=
201610021120 TAF KPAE 021120Z 0212/0312 10004KT P6SM SCT060 BKN100
                      TEMPO 0212/0216 BKN060 OVC100 FM022000 32005KT
                       P6SM SCT100 FM030300 VRB03KT P6SM SCT100
                       FM030900 18005KT P6SM BKN035=
201610020520 TAF KPAE 020520Z 0206/0306 12004KT P6SM SCT060 BKN100
                      TEMPO 0206/0210 BKN060 OVC100 FM022000 32005KT
                       P6SM SCT100 FM030300 VRB03KT P6SM SCT100=
201610012328 TAF KPAE 012328Z 0200/0224 18013KT P6SM BKN040 BKN090 FM020300
                       16009KT P6SM -SHRA BKN040 OVC090 FM021100
                       14005KT P6SM SCT050 BKN100 FM021800 34004KT
                       P6SM SCT100 BKN250=
201610011729 TAF KPAE 011729Z 0118/0218 VRB04KT P6SM FEW035 SCT060 BKN080
                      TEMPO 0118/0120 -SHRA SCT035 BKN050 BKN080
                       FM012000 18014G20KT P6SM -SHRA SCT025 OVC050
                       FM020300 17010KT P6SM -SHRA BKN050 OVC090
                       FM020900 14005KT P6SM SCT050 OVC090=
201610011120 TAF KPAE 011120Z 0112/0212 15006KT P6SM FEW025 SCT040 BKN070
                      TEMPO 0112/0116 -SHRA SCT025 BKN040 OVC070
                       FM011600 18010KT P6SM SCT025 OVC050 FM011900
                       18014G20KT P6SM -SHRA SCT025 OVC050 FM020200
                       17010KT P6SM -SHRA BKN050 OVC090=
201610010520 TAF KPAE 010520Z 0106/0206 11004KT P6SM SCT060 SCT150 FM011000
                       17008KT P6SM BKN050 BKN120 FM011600 18014KT
                       P6SM OVC050 FM011900 18015G22KT P6SM -SHRA
                       SCT025 OVC050 FM020300 17010KT P6SM BKN050
                       OVC090=