##########################################################
# Query made at 02/15/2025 21:38:02 UTC
# Time interval: from 09/01/2017 00:00  to 09/30/2017 23:59  UTC
##########################################################

##########################################################
# KPAE, Everett, Snohomish County Airport (United States)
# WMO index: -----. WIGOS ID: Unknown
# Latitude 47-55-23N. Longitude 122-16-57W. Altitude 184 m.
##########################################################

###################################
#  METAR/SPECI from KPAE
###################################
201709302353 METAR KPAE 302353Z 33004KT 2 1/2SM RA BR BKN013 OVC050 12/11 A3007 RMK AO2 RAE2258B45 SLP183 P0004 60006 T01220106 10161 20122 52003=
201709302335 SPECI KPAE 302335Z 03005KT 10SM SCT014 BKN029 OVC055 13/10 A3006 RMK AO2 RAE2258 P0000 T01330100=
201709302253 METAR KPAE 302253Z VRB04KT 10SM -RA BKN046 OVC060 13/11 A3006 RMK AO2 LTG DSNT E SLP179 P0002 T01330111=
201709302153 METAR KPAE 302153Z 02006KT 10SM -RA FEW028 BKN065 OVC085 15/10 A3006 RMK AO2 RAB41 SLP179 P0000 T01500100=
201709302146 SPECI KPAE 302146Z 02006KT 10SM -RA FEW021 BKN030 OVC065 15/10 A3006 RMK AO2 RAB41 P0000 T01500100=
201709302120 SPECI KPAE 302120Z 01004KT 10SM FEW021 BKN027 BKN090 16/09 A3006 RMK AO2 T01560094=
201709302053 METAR KPAE 302053Z VRB04KT 10SM SCT026 BKN032 BKN040 16/09 A3007 RMK AO2 SLP181 T01610089 58012=
201709302037 SPECI KPAE 302037Z VRB03KT 10SM SCT026 BKN032 BKN040 16/09 A3008 RMK AO2 T01560089=
201709302030 SPECI KPAE 302030Z VRB03KT 10SM BKN028 BKN035 OVC042 15/09 A3008 RMK AO2 T01500094=
201709302008 SPECI KPAE 302008Z 28004KT 10SM FEW021 BKN038 OVC100 15/10 A3008 RMK AO2 T01500100=
201709301953 METAR KPAE 301953Z 00000KT 10SM FEW022 BKN028 OVC080 16/09 A3009 RMK AO2 SLP188 T01610089=
201709301853 METAR KPAE 301853Z 21006KT 10SM SCT022 BKN070 15/11 A3010 RMK AO2 SLP193 T01500111=
201709301753 METAR KPAE 301753Z 23006KT 10SM BKN070 BKN080 13/11 A3011 RMK AO2 SLP194 60000 T01330106 10133 20111 53007=
201709301653 METAR KPAE 301653Z 24005KT 10SM SCT010 BKN080 13/11 A3009 RMK AO2 SLP190 T01280106=
201709301553 METAR KPAE 301553Z 17008KT 10SM SCT004 OVC070 13/10 A3009 RMK AO2 SLP188 T01280100=
201709301513 SPECI KPAE 301513Z 18006KT 10SM SCT004 OVC070 12/11 A3009 RMK AO2 T01170106=
201709301453 METAR KPAE 301453Z 17006KT 10SM SCT004 BKN008 12/11 A3008 RMK AO2 RAB1355E06 SLP187 P0000 60000 T01170106 53005=
201709301353 METAR KPAE 301353Z 17007KT 10SM BKN007 OVC027 12/10 A3008 RMK AO2 CIG 005V010 SLP184 T01170100=
201709301319 SPECI KPAE 301319Z AUTO 18005KT 10SM BKN009 OVC019 12/10 A3007 RMK AO2 T01170100=
201709301306 SPECI KPAE 301306Z AUTO 17007KT 10SM FEW008 BKN019 OVC070 12/10 A3007 RMK AO2 T01170100=
201709301253 METAR KPAE 301253Z AUTO 17006KT 10SM FEW009 OVC070 12/10 A3007 RMK AO2 SLP181 T01170100=
201709301228 SPECI KPAE 301228Z AUTO 16007KT 10SM FEW009 BKN025 OVC070 12/10 A3006 RMK AO2 T01170100=
201709301213 SPECI KPAE 301213Z AUTO 14007KT 10SM FEW010 BKN023 OVC060 12/10 A3006 RMK AO2 T01170100=
201709301153 METAR KPAE 301153Z AUTO 12007KT 10SM SCT060 OVC075 12/09 A3007 RMK AO2 SLP181 70002 T01170094 10133 20117 58005=
201709301053 METAR KPAE 301053Z 12004KT 10SM OVC075 12/09 A3007 RMK AO2 SLP181 T01220094=
201709300953 METAR KPAE 300953Z 12006KT 10SM BKN034 BKN110 12/09 A3008 RMK AO2 SLP184 T01220089=
201709300902 SPECI KPAE 300902Z 12005KT 10SM BKN031 OVC040 13/09 A3008 RMK AO2 T01330089=
201709300853 METAR KPAE 300853Z VRB04KT 10SM BKN029 OVC039 13/09 A3008 RMK AO2 SLP185 T01330089 51004=
201709300839 SPECI KPAE 300839Z VRB03KT 10SM BKN029 OVC035 13/08 A3008 RMK AO2 T01330083=
201709300753 METAR KPAE 300753Z 09004KT 10SM BKN036 OVC048 13/08 A3008 RMK AO2 SLP184 T01330078 402060133=
201709300653 METAR KPAE 300653Z 11003KT 10SM OVC037 13/08 A3008 RMK AO2 SLP184 T01330083=
201709300553 METAR KPAE 300553Z VRB04KT 10SM BKN044 OVC055 13/08 A3007 RMK AO2 SLP182 T01330083 10144 20133 52009=
201709300453 METAR KPAE 300453Z 05005KT 10SM OVC037 13/08 A3006 RMK AO2 SLP180 T01330083=
201709300353 METAR KPAE 300353Z 01006KT 10SM BKN036 OVC046 13/08 A3005 RMK AO2 SLP176 T01330083=
201709300253 METAR KPAE 300253Z 01009KT 10SM OVC038 14/08 A3004 RMK AO2 SLP172 T01390083 53014=
201709300153 METAR KPAE 300153Z 35011KT 10SM OVC039 14/08 A3002 RMK AO2 SLP167 T01390083=
201709300053 METAR KPAE 300053Z 35008KT 10SM SCT048 BKN080 14/08 A3001 RMK AO2 SLP161 T01390083=
201709292353 METAR KPAE 292353Z 30007KT 10SM OVC065 14/08 A3000 RMK AO2 SLP159 60000 T01390083 10206 20139 53021=
201709292253 METAR KPAE 292253Z 17019G25KT 10SM SCT035 BKN044 20/11 A2996 RMK AO2 SLP144 T02000106=
201709292153 METAR KPAE 292153Z 15015KT 10SM SCT080 BKN100 19/13 A2994 RMK AO2 PK WND 15027/2118 RAE05 SLP138 P0000 T01890128=
201709292053 METAR KPAE 292053Z 15015G28KT 10SM -RA FEW015 FEW065 OVC085 17/14 A2994 RMK AO2 PK WND 12028/2048 SLP136 P0000 60000 T01670139 58006=
201709291953 METAR KPAE 291953Z 14012G21KT 10SM -RA SCT014 OVC095 17/14 A2995 RMK AO2 RAB02 SLP140 P0000 T01670139=
201709291853 METAR KPAE 291853Z 14010KT 10SM FEW023 BKN031 OVC090 16/14 A2996 RMK AO2 SLP143 T01610139=
201709291850 SPECI KPAE 291850Z 14010KT 10SM FEW023 BKN033 OVC090 16/14 A2995 RMK AO2=
201709291833 SPECI KPAE 291833Z 13010KT 10SM SCT012 BKN023 OVC090 16/14 A2996 RMK AO2 T01610139=
201709291824 SPECI KPAE 291824Z 14012KT 10SM BKN012 BKN023 OVC080 16/14 A2996 RMK AO2 T01560139=
201709291753 METAR KPAE 291753Z 12008KT 10SM FEW010 OVC090 16/13 A2995 RMK AO2 RAE1655B01E40 SLP142 P0000 60002 T01560133 10161 20150 51007=
201709291720 SPECI KPAE 291720Z 11007KT 10SM -RA BKN010 BKN031 OVC090 15/13 A2995 RMK AO2 RAE1655B01 P0000 T01500133=
201709291700 SPECI KPAE 291700Z 12008KT 10SM BKN015 BKN032 OVC095 15/13 A2995 RMK AO2 RAE1655 P0000 T01500133=
201709291653 METAR KPAE 291653Z 13008KT 10SM -RA BKN010 OVC095 15/13 A2995 RMK AO2 SLP140 P0002 T01500133=
201709291553 METAR KPAE 291553Z 14010KT 10SM -RA BKN010 OVC016 15/13 A2995 RMK AO2 RAB48 SLP139 P0000 T01500128=
201709291453 METAR KPAE 291453Z 15012KT 10SM BKN010 OVC016 16/13 A2993 RMK AO2 SLP133 60000 T01560128 51010=
201709291427 SPECI KPAE 291427Z AUTO 14010KT 10SM BKN014 OVC120 15/13 A2993 RMK AO2 T01500128=
201709291413 SPECI KPAE 291413Z AUTO 12008KT 10SM SCT012 OVC120 15/13 A2992 RMK AO2 T01500133=
201709291353 METAR KPAE 291353Z AUTO 15006KT 10SM BKN012 OVC060 15/13 A2992 RMK AO2 RAE19 SLP130 P0000 T01500133=
201709291253 METAR KPAE 291253Z AUTO 13013KT 10SM -RA BKN065 OVC100 15/13 A2991 RMK AO2 RAB42 SLP127 P0000 T01500133=
201709291153 METAR KPAE 291153Z AUTO 13013KT 10SM CLR 15/13 A2990 RMK AO2 SLP123 T01500128 10194 20150 55001=
201709291053 METAR KPAE 291053Z AUTO 13012KT 10SM CLR 15/13 A2990 RMK AO2 SLP121 T01500128=
201709290953 METAR KPAE 290953Z AUTO 14007KT 10SM CLR 16/13 A2990 RMK AO2 SLP122 T01560128=
201709290853 METAR KPAE 290853Z AUTO 13008KT 10SM CLR 17/12 A2990 RMK AO2 SLP123 T01670122 53008=
201709290753 METAR KPAE 290753Z AUTO 15007KT 10SM CLR 17/11 A2989 RMK AO2 SLP119 T01720106 402890133=
201709290653 METAR KPAE 290653Z AUTO 16003KT 10SM CLR 18/11 A2989 RMK AO2 SLP116 T01830106=
201709290553 METAR KPAE 290553Z AUTO 00000KT 10SM CLR 19/09 A2988 RMK AO2 SLP114 T01890094 10289 20189 53008=
201709290453 METAR KPAE 290453Z AUTO 36003KT 10SM CLR 20/09 A2987 RMK AO2 SLP111 T02000089=
201709290353 METAR KPAE 290353Z AUTO 12007KT 10SM CLR 25/07 A2986 RMK AO2 SLP107 T02500072=
201709290253 METAR KPAE 290253Z 12006KT 10SM CLR 24/07 A2986 RMK AO2 SLP106 T02390072 56004=
201709290153 METAR KPAE 290153Z 15006KT 10SM CLR 24/07 A2986 RMK AO2 SLP108 T02440072=
201709290053 METAR KPAE 290053Z 18006KT 10SM CLR 28/07 A2986 RMK AO2 SLP109 T02780067=
201709282353 METAR KPAE 282353Z 20008KT 10SM CLR 29/06 A2987 RMK AO2 SLP110 T02890056 10289 20250 58013=
201709282253 METAR KPAE 282253Z 21011KT 10SM CLR 29/06 A2988 RMK AO2 SLP115 T02890056=
201709282153 METAR KPAE 282153Z 22008KT 10SM CLR 28/08 A2990 RMK AO2 SLP120 T02830083=
201709282053 METAR KPAE 282053Z 24006KT 10SM CLR 28/08 A2991 RMK AO2 SLP124 T02780083 58017=
201709281953 METAR KPAE 281953Z 23007KT 10SM CLR 28/09 A2993 RMK AO2 SLP131 T02780094=
201709281853 METAR KPAE 281853Z 13008KT 10SM CLR 27/08 A2994 RMK AO2 SLP136 T02720078=
201709281753 METAR KPAE 281753Z 12006KT 10SM CLR 25/08 A2996 RMK AO2 SLP141 T02500078 10256 20133 56005=
201709281653 METAR KPAE 281653Z VRB03KT 10SM CLR 23/08 A2996 RMK AO2 SLP144 T02280078=
201709281553 METAR KPAE 281553Z 08007KT 10SM CLR 21/08 A2996 RMK AO2 SLP144 T02060083=
201709281453 METAR KPAE 281453Z 00000KT 10SM CLR 16/09 A2997 RMK AO2 SLP147 T01560094 56003=
201709281353 METAR KPAE 281353Z 00000KT 10SM CLR 14/09 A2998 RMK AO2 SLP148 T01390089=
201709281253 METAR KPAE 281253Z AUTO 07003KT 10SM CLR 17/09 A2998 RMK AO2 SLP149 T01670089=
201709281153 METAR KPAE 281153Z AUTO 08004KT 10SM CLR 17/09 A2998 RMK AO2 SLP150 T01720089 10178 20150 56010=
201709281053 METAR KPAE 281053Z AUTO 08006KT 10SM CLR 17/09 A2999 RMK AO2 SLP152 T01670094=
201709280953 METAR KPAE 280953Z AUTO 08003KT 10SM CLR 16/11 A3000 RMK AO2 SLP156 T01610106=
201709280853 METAR KPAE 280853Z AUTO 00000KT 10SM CLR 15/12 A3001 RMK AO2 SLP161 T01500122 58005=
201709280753 METAR KPAE 280753Z AUTO 35003KT 10SM CLR 16/13 A3002 RMK AO2 SLP164 T01560128 402500122=
201709280653 METAR KPAE 280653Z AUTO 00000KT 10SM CLR 16/12 A3003 RMK AO2 SLP167 T01560122=
201709280553 METAR KPAE 280553Z AUTO 00000KT 10SM CLR 16/12 A3003 RMK AO2 SLP167 T01610122 10239 20161 53003=
201709280453 METAR KPAE 280453Z AUTO 00000KT 10SM CLR 18/12 A3002 RMK AO2 SLP165 T01830122=
201709280353 METAR KPAE 280353Z AUTO 00000KT 10SM CLR 18/11 A3002 RMK AO2 SLP165 T01830111=
201709280253 METAR KPAE 280253Z 00000KT 10SM CLR 20/11 A3002 RMK AO2 SLP164 T02000111 55005=
201709280153 METAR KPAE 280153Z 00000KT 10SM CLR 21/11 A3002 RMK AO2 SLP163 T02110111=
201709280053 METAR KPAE 280053Z 32006KT 10SM CLR 23/11 A3002 RMK AO2 SLP165 T02280106=
201709272353 METAR KPAE 272353Z 33006KT 10SM CLR 24/10 A3003 RMK AO2 SLP168 T02390100 10250 20161 56021=
201709272253 METAR KPAE 272253Z 33006KT 10SM CLR 24/09 A3005 RMK AO2 SLP175 T02440094=
201709272153 METAR KPAE 272153Z VRB04KT 10SM CLR 24/11 A3007 RMK AO2 SLP182 T02390106=
201709272053 METAR KPAE 272053Z 33004KT 10SM CLR 22/12 A3010 RMK AO2 SLP190 T02170122 58013=
201709271953 METAR KPAE 271953Z VRB03KT 10SM CLR 21/12 A3012 RMK AO2 SLP199 T02060122=
201709271853 METAR KPAE 271853Z 33005KT 10SM CLR 18/12 A3014 RMK AO2 SLP203 T01780117=
201709271753 METAR KPAE 271753Z 33006KT 10SM CLR 16/12 A3014 RMK AO2 SLP204 T01610117 10161 20122 55001=
201709271653 METAR KPAE 271653Z 33004KT 6SM BCFG SCT001 13/13 A3013 RMK AO2 SLP204 T01330128=
201709271638 SPECI KPAE 271638Z 32005KT 6SM BCFG SCT001 13/13 A3013 RMK AO2 T01280128=
201709271631 SPECI KPAE 271631Z 33003KT 1 1/2SM BCFG OVC001 13/13 A3013 RMK AO2 T01280128=
201709271612 SPECI KPAE 271612Z 34004KT 1/2SM R16R/1200V2800FT FG VV001 13/13 A3013 RMK AO2 T01280128=
201709271553 METAR KPAE 271553Z 33003KT M1/4SM R16R/0600V0800FT FG VV001 12/12 A3013 RMK AO2 SLP204 T01220122=
201709271453 METAR KPAE 271453Z 33003KT M1/4SM R16R/0500V0600FT FG VV001 12/12 A3014 RMK AO2 SLP206 T01220122 53002=
201709271353 METAR KPAE 271353Z 32004KT 1/4SM R16R/0600V0800FT FG VV001 12/12 A3014 RMK AO2 SLP204 T01220122=
201709271300 SPECI KPAE 271300Z AUTO 32004KT 1/4SM R16R/1200V1600FT FG VV001 12/12 A3013 RMK AO2 T01220122=
201709271253 METAR KPAE 271253Z AUTO 32004KT 1SM R16R/1400V2000FT BR OVC001 13/13 A3013 RMK AO2 SLP202 T01280128=
201709271237 SPECI KPAE 271237Z AUTO 33004KT 2 1/2SM BR BKN001 13/12 A3013 RMK AO2 T01280122=
201709271153 METAR KPAE 271153Z AUTO 35004KT 4SM BR SCT001 12/12 A3013 RMK AO2 SLP203 T01220122 10144 20122 58007=
201709271131 SPECI KPAE 271131Z AUTO 34004KT 4SM BR SCT002 12/12 A3014 RMK AO2 T01220122=
201709271053 METAR KPAE 271053Z AUTO 00000KT 5SM BR CLR 13/12 A3014 RMK AO2 SLP205 T01280122=
201709270953 METAR KPAE 270953Z AUTO 35005KT 7SM CLR 13/12 A3015 RMK AO2 SLP209 T01280122=
201709270853 METAR KPAE 270853Z AUTO 35004KT 10SM CLR 13/12 A3016 RMK AO2 SLP210 T01330122 57001=
201709270753 METAR KPAE 270753Z AUTO 32003KT 10SM CLR 13/12 A3016 RMK AO2 SLP211 T01280117 402000117=
201709270653 METAR KPAE 270653Z AUTO 33004KT 10SM CLR 14/12 A3016 RMK AO2 SLP211 T01390117=
201709270553 METAR KPAE 270553Z AUTO 32004KT 10SM CLR 14/12 A3016 RMK AO2 SLP212 T01440117 10200 20139 51004=
201709270453 METAR KPAE 270453Z AUTO 32003KT 10SM CLR 14/12 A3016 RMK AO2 SLP212 T01440117=
201709270353 METAR KPAE 270353Z AUTO 00000KT 10SM CLR 15/12 A3015 RMK AO2 SLP211 T01500122=
201709270253 METAR KPAE 270253Z 31005KT 10SM CLR 16/12 A3015 RMK AO2 SLP209 T01560117 55001=
201709270153 METAR KPAE 270153Z 32004KT 10SM CLR 17/12 A3014 RMK AO2 SLP206 T01670122=
201709270053 METAR KPAE 270053Z VRB05KT 10SM CLR 19/12 A3014 RMK AO2 SLP205 T01890122=
201709262353 METAR KPAE 262353Z 32007KT 10SM CLR 20/13 A3015 RMK AO2 SLP208 T02000128 10200 20133 58010=
201709262253 METAR KPAE 262253Z 31008KT 300V360 10SM CLR 19/13 A3017 RMK AO2 SLP214 T01940128=
201709262153 METAR KPAE 262153Z 32007KT 10SM CLR 19/13 A3017 RMK AO2 SLP216 T01890128=
201709262053 METAR KPAE 262053Z VRB06KT 10SM CLR 19/12 A3018 RMK AO2 SLP219 T01890122 56013=
201709261953 METAR KPAE 261953Z 32007KT 280V350 10SM CLR 18/12 A3019 RMK AO2 SLP222 T01830122=
201709261853 METAR KPAE 261853Z 33006KT 4SM BCFG FEW002 18/13 A3020 RMK AO2 SLP226 T01780128=
201709261800 SPECI KPAE 261800Z VRB03KT 4SM BCFG FEW002 14/13 A3022 RMK AO2 T01390128=
201709261753 METAR KPAE 261753Z VRB03KT 2SM BCFG SCT002 14/13 A3022 RMK AO2 SLP232 T01390128 10139 20117 51003=
201709261745 SPECI KPAE 261745Z 00000KT 2SM BCFG SCT002 13/13 A3022 RMK AO2 T01330128=
201709261736 SPECI KPAE 261736Z VRB03KT 3SM BCFG OVC002 13/13 A3022 RMK AO2 T01330128=
201709261708 SPECI KPAE 261708Z 32003KT 1 3/4SM BCFG OVC002 13/13 A3021 RMK AO2 VIS 1 1/4V3 T01330128=
201709261653 METAR KPAE 261653Z 33004KT 1/2SM R16R/1800V6000FT BCFG VV002 13/13 A3021 RMK AO2 SLP231 T01280128=
201709261650 SPECI KPAE 261650Z 33004KT 1/2SM R16R/1800V6000FT BCFG VV001 13/13 A3021 RMK AO2=
201709261638 SPECI KPAE 261638Z 30003KT 1/4SM R16R/1000V2800FT BCFG VV001 13/13 A3021 RMK AO2 T01280128=
201709261621 SPECI KPAE 261621Z 32004KT M1/4SM R16R/1000V1600FT BCFG VV001 12/12 A3021 RMK AO2 T01220122=
201709261614 SPECI KPAE 261614Z 33004KT M1/4SM R16R/1200V2400FT BCFG VV001 12/12 A3021 RMK AO2 T01220122=
201709261607 SPECI KPAE 261607Z 33004KT 6SM R16R/1600V4000FT BCFG OVC001 12/12 A3021 RMK AO2 T01220122=
201709261600 SPECI KPAE 261600Z 33003KT 6SM R16R/2000VP6000FT BCFG OVC002 12/12 A3021 RMK AO2 T01220122=
201709261553 METAR KPAE 261553Z 34003KT 1SM R16R/P6000FT BR BKN002 12/12 A3021 RMK AO2 VIS 1/2V2 SLP229 T01220122=
201709261535 SPECI KPAE 261535Z 29003KT 1SM R16R/P6000FT BR VV002 12/12 A3020 RMK AO2 T01220122=
201709261517 SPECI KPAE 261517Z 00000KT 1/2SM R16R/1000VP6000FT FG VV001 12/12 A3020 RMK AO2 T01220122=
201709261453 METAR KPAE 261453Z 33003KT 1/2SM R16R/1000V1200FT FG VV001 12/12 A3020 RMK AO2 SLP226 T01220122 53007=
201709261419 SPECI KPAE 261419Z 33003KT 1/4SM R16R/1000V1600FT FG VV001 12/12 A3019 RMK AO2 T01220122=
201709261412 SPECI KPAE 261412Z 34003KT 3/4SM R16R/1200VP6000FT BR BKN001 12/12 A3019 RMK AO2 T01220122=
201709261404 SPECI KPAE 261404Z 33003KT 2 1/2SM BR BKN001 12/12 A3019 RMK AO2 T01220117=
201709261401 SPECI KPAE 261401Z 31003KT 3SM BR SCT001 12/12 A3019 RMK AO2 T01220117=
201709261353 METAR KPAE 261353Z 32003KT 3SM R16R/2800VP6000FT BR CLR 12/12 A3019 RMK AO2 SLP222 T01220117=
201709261342 SPECI KPAE 261342Z AUTO 33003KT 3SM BR SCT028 13/12 A3018 RMK AO2 T01280117=
201709261253 METAR KPAE 261253Z AUTO 32003KT 10SM OVC028 13/12 A3018 RMK AO2 SLP218 T01280117=
201709261153 METAR KPAE 261153Z AUTO 00000KT 10SM OVC029 13/11 A3017 RMK AO2 SLP217 70005 T01280111 10161 20128 53006=
201709261114 SPECI KPAE 261114Z AUTO 09004KT 10SM BKN028 13/12 A3017 RMK AO2 T01280117=
201709261053 METAR KPAE 261053Z AUTO 09006KT 10SM CLR 13/12 A3017 RMK AO2 SLP214 T01280117=
201709260953 METAR KPAE 260953Z AUTO 09004KT 10SM CLR 14/12 A3016 RMK AO2 SLP211 T01390122=
201709260853 METAR KPAE 260853Z AUTO 08005KT 10SM CLR 14/12 A3016 RMK AO2 SLP211 T01440122 53005=
201709260753 METAR KPAE 260753Z AUTO 00000KT 10SM FEW031 14/12 A3015 RMK AO2 SLP208 T01440122 401780122=
201709260653 METAR KPAE 260653Z AUTO 00000KT 10SM OVC031 16/12 A3015 RMK AO2 SLP207 T01560122=
201709260553 METAR KPAE 260553Z AUTO 00000KT 10SM BKN030 14/12 A3014 RMK AO2 SLP207 T01440117 10178 20144 51006=
201709260453 METAR KPAE 260453Z AUTO 12003KT 10SM BKN030 OVC070 16/12 A3014 RMK AO2 SLP204 T01560117=
201709260353 METAR KPAE 260353Z AUTO 16004KT 10SM BKN080 OVC100 16/12 A3013 RMK AO2 SLP202 T01610117=
201709260253 METAR KPAE 260253Z 11005KT 10SM BKN085 OVC110 17/12 A3012 RMK AO2 SLP200 T01670117 52005=
201709260153 METAR KPAE 260153Z 13006KT 10SM OVC080 17/12 A3012 RMK AO2 SLP199 T01720117=
201709260053 METAR KPAE 260053Z 18003KT 10SM SCT022 OVC090 17/13 A3011 RMK AO2 SLP196 T01720128=
201709260025 SPECI KPAE 260025Z 21006KT 10SM SCT024 OVC085 17/13 A3011 RMK AO2 T01670128=
201709252353 METAR KPAE 252353Z 22007KT 10SM BKN023 OVC120 17/13 A3011 RMK AO2 SLP195 60000 T01670128 10172 20144 57004=
201709252341 SPECI KPAE 252341Z 21007KT 10SM BKN024 OVC070 17/13 A3011 RMK AO2 T01670128=
201709252253 METAR KPAE 252253Z 21009KT 10SM OVC070 17/13 A3011 RMK AO2 SLP196 T01670128=
201709252153 METAR KPAE 252153Z 22008KT 10SM OVC100 16/13 A3012 RMK AO2 SLP197 T01610128=
201709252100 SPECI KPAE 252100Z 22009KT 10SM SCT022 OVC075 16/12 A3012 RMK AO2 T01610122=
201709252053 METAR KPAE 252053Z 21007KT 10SM BKN022 OVC075 16/12 A3012 RMK AO2 SLP198 60000 T01610122 53001=
201709252032 SPECI KPAE 252032Z 20008KT 10SM BKN022 OVC080 16/13 A3012 RMK AO2 T01610128=
201709252010 SPECI KPAE 252010Z 20005KT 10SM SCT020 OVC080 16/13 A3012 RMK AO2 T01610128=
201709251953 METAR KPAE 251953Z 24007KT 10SM BKN019 OVC080 16/13 A3012 RMK AO2 RAB10E24 SLP198 P0000 T01560128=
201709251933 SPECI KPAE 251933Z 23005KT 10SM BKN019 OVC085 15/13 A3011 RMK AO2 RAB10E24 P0000 T01500128=
201709251853 METAR KPAE 251853Z 14008KT 10SM BKN070 OVC085 17/12 A3011 RMK AO2 SLP194 T01670122=
201709251820 SPECI KPAE 251820Z 14007KT 10SM SCT009 OVC070 15/13 A3011 RMK AO2 T01500128=
201709251753 METAR KPAE 251753Z 15007KT 10SM BKN008 OVC070 14/13 A3012 RMK AO2 RAE01 SLP198 P0001 60005 T01440128 10144 20128 53003=
201709251735 SPECI KPAE 251735Z 12006KT 10SM BKN006 OVC070 14/13 A3011 RMK AO2 RAE01 P0000 T01440133=
201709251725 SPECI KPAE 251725Z 12005KT 10SM SCT006 OVC070 14/13 A3011 RMK AO2 RAE01 P0000 T01440128=
201709251653 METAR KPAE 251653Z VRB03KT 10SM -RA OVC060 14/13 A3011 RMK AO2 RAB45 SLP197 P0000 T01390128=
201709251553 METAR KPAE 251553Z 00000KT 9SM OVC045 13/12 A3011 RMK AO2 RAB06E40 SLP195 P0001 T01330122=
201709251453 METAR KPAE 251453Z 00000KT 10SM OVC046 13/12 A3011 RMK AO2 RAE00B17E42 SLP195 P0001 60003 T01330117 53003=
201709251353 METAR KPAE 251353Z 00000KT 10SM -RA BKN046 BKN055 OVC085 14/12 A3010 RMK AO2 RAB1255 SLP192 P0000 T01390117=
201709251253 METAR KPAE 251253Z AUTO 00000KT 10SM FEW060 BKN080 OVC110 13/12 A3010 RMK AO2 RAB09E46 SLP192 P0002 T01330117=
201709251153 METAR KPAE 251153Z AUTO 08004KT 10SM SCT060 BKN080 OVC095 13/12 A3010 RMK AO2 RAB1057E48 SLP192 P0002 60002 70002 T01330117 10150 20122 55002=
201709251053 METAR KPAE 251053Z AUTO 00000KT 10SM OVC070 14/11 A3010 RMK AO2 SLP191 T01440106=
201709250953 METAR KPAE 250953Z AUTO 02004KT 10SM OVC110 14/10 A3010 RMK AO2 SLP191 T01440100=
201709250853 METAR KPAE 250853Z AUTO 02003KT 10SM FEW080 15/09 A3011 RMK AO2 SLP194 T01500094 55003=
201709250753 METAR KPAE 250753Z AUTO 02003KT 10SM CLR 15/09 A3011 RMK AO2 SLP193 T01500094 402110100=
201709250653 METAR KPAE 250653Z AUTO 01004KT 10SM FEW065 15/09 A3011 RMK AO2 SLP195 T01500094=
201709250553 METAR KPAE 250553Z AUTO 35006KT 10SM FEW060 15/09 A3012 RMK AO2 SLP197 T01500089 10189 20139 51003=
201709250453 METAR KPAE 250453Z AUTO 35005KT 10SM BKN065 14/09 A3012 RMK AO2 SLP198 T01440094=
201709250353 METAR KPAE 250353Z AUTO 34003KT 10SM CLR 14/09 A3012 RMK AO2 SLP198 T01440089=
201709250253 METAR KPAE 250253Z 33004KT 10SM CLR 16/09 A3011 RMK AO2 SLP195 T01610094 57004=
201709250153 METAR KPAE 250153Z 00000KT 10SM CLR 18/09 A3011 RMK AO2 SLP197 T01780094=
201709250053 METAR KPAE 250053Z AUTO 25004KT 10SM OVC055 19/09 A3012 RMK AO2 SLP197 T01890094=
201709242353 METAR KPAE 242353Z AUTO 24003KT 10SM BKN055 19/09 A3012 RMK AO2 SLP198 T01890089 10211 20150 55005=
201709242253 METAR KPAE 242253Z AUTO 24006KT 10SM BKN110 21/09 A3012 RMK AO2 SLP197 T02060089=
201709242153 METAR KPAE 242153Z 23006KT 10SM CLR 19/09 A3013 RMK AO2 SLP201 T01940089=
201709242053 METAR KPAE 242053Z 24005KT 10SM CLR 19/08 A3013 RMK AO2 SLP203 T01940083 56011=
201709241953 METAR KPAE 241953Z VRB03KT 10SM CLR 18/09 A3014 RMK AO2 SLP207 T01780094=
201709241853 METAR KPAE 241853Z VRB03KT 10SM CLR 17/10 A3015 RMK AO2 SLP210 T01720100=
201709241753 METAR KPAE 241753Z 00000KT 10SM CLR 15/11 A3017 RMK AO2 SLP215 T01500111 10150 20106 51003=
201709241653 METAR KPAE 241653Z 04003KT 10SM FEW004 SCT050 14/11 A3016 RMK AO2 SLP213 T01390106=
201709241553 METAR KPAE 241553Z 13004KT 1SM R16R/P6000FT BR BKN002 11/11 A3016 RMK AO2 SLP214 T01110106=
201709241533 SPECI KPAE 241533Z 27003KT 1SM R16R/P6000FT BR BKN002 11/11 A3018 RMK AO2 T01110106=
201709241455 SPECI KPAE 241455Z 15003KT 1/4SM R16R/5500VP6000FT FG BKN002 11/11 A3016 RMK AO2 T01110106=
201709241453 METAR KPAE 241453Z 15003KT 1/4SM R16R/5500VP6000FT FG CLR 11/11 A3016 RMK AO2 SLP212 T01060106 55000=
201709241419 SPECI KPAE 241419Z 08003KT 1/2SM R16R/P6000FT FG BKN001 11/10 A3015 RMK AO2 T01110100=
201709241402 SPECI KPAE 241402Z 00000KT 3SM BR SCT001 11/10 A3015 RMK AO2 T01060100=
201709241353 METAR KPAE 241353Z 00000KT 4SM BR BKN001 11/11 A3015 RMK AO2 SLP209 T01060106=
201709241340 SPECI KPAE 241340Z AUTO 05003KT 5SM R16R/4000VP6000FT BR OVC001 11/11 A3015 RMK AO2 T01060106=
201709241253 METAR KPAE 241253Z AUTO VRB04KT 7SM OVC003 11/11 A3016 RMK AO2 SLP213 T01110106=
201709241239 SPECI KPAE 241239Z AUTO 34005KT 10SM BKN003 11/10 A3016 RMK AO2 T01110100=
201709241229 SPECI KPAE 241229Z AUTO 35004KT 10SM SCT005 11/10 A3016 RMK AO2 T01060100=
201709241153 METAR KPAE 241153Z AUTO 33003KT 10SM CLR 11/09 A3016 RMK AO2 SLP212 T01060094 10122 20100 53005=
201709241053 METAR KPAE 241053Z AUTO 00000KT 10SM CLR 10/09 A3015 RMK AO2 SLP211 T01000094=
201709240953 METAR KPAE 240953Z AUTO 00000KT 10SM CLR 11/09 A3014 RMK AO2 SLP207 T01110094=
201709240853 METAR KPAE 240853Z AUTO 35003KT 10SM CLR 12/09 A3014 RMK AO2 SLP207 T01170094 53002=
201709240753 METAR KPAE 240753Z AUTO 32003KT 10SM CLR 12/09 A3014 RMK AO2 SLP206 T01170094 401890117=
201709240653 METAR KPAE 240653Z AUTO 00000KT 10SM CLR 12/08 A3013 RMK AO2 SLP204 T01170083=
201709240553 METAR KPAE 240553Z AUTO 31003KT 10SM CLR 13/08 A3014 RMK AO2 SLP205 T01280083 10183 20122 53009=
201709240453 METAR KPAE 240453Z AUTO 00000KT 10SM CLR 13/09 A3012 RMK AO2 SLP200 T01280089=
201709240353 METAR KPAE 240353Z AUTO 33003KT 10SM BKN090 15/09 A3012 RMK AO2 SLP198 T01500089=
201709240253 METAR KPAE 240253Z 33003KT 10SM OVC090 16/09 A3011 RMK AO2 SLP196 T01610089 53002=
201709240153 METAR KPAE 240153Z 31004KT 10SM OVC095 17/09 A3011 RMK AO2 SLP193 T01720089=
201709240053 METAR KPAE 240053Z 28003KT 10SM OVC095 18/09 A3010 RMK AO2 SLP193 T01780094=
201709232353 METAR KPAE 232353Z 26004KT 10SM OVC100 18/09 A3010 RMK AO2 SLP193 T01830089 10189 20156 53000=
201709232253 METAR KPAE 232253Z 21006KT 10SM CLR 18/10 A3010 RMK AO2 SLP191 T01780100=
201709232153 METAR KPAE 232153Z 23008KT 10SM CLR 17/10 A3010 RMK AO2 SLP191 T01720100=
201709232053 METAR KPAE 232053Z 22007KT 10SM CLR 17/10 A3010 RMK AO2 SLP192 T01670100 58003=
201709231953 METAR KPAE 231953Z 23006KT 10SM FEW050 17/10 A3011 RMK AO2 SLP195 T01670100=
201709231853 METAR KPAE 231853Z VRB06KT 10SM CLR 17/11 A3011 RMK AO2 SLP196 T01670106=
201709231753 METAR KPAE 231753Z 21006KT 10SM CLR 16/11 A3011 RMK AO2 SLP195 T01560106 10156 20117 51011=
201709231653 METAR KPAE 231653Z 17004KT 10SM CLR 15/10 A3011 RMK AO2 SLP194 T01500100=
201709231553 METAR KPAE 231553Z 17006KT 10SM CLR 13/11 A3010 RMK AO2 SLP192 T01330111=
201709231453 METAR KPAE 231453Z VRB03KT 10SM FEW120 12/11 A3008 RMK AO2 SLP185 T01220106 53006=
201709231353 METAR KPAE 231353Z VRB03KT 10SM BKN120 12/11 A3007 RMK AO2 SLP183 T01220106=
201709231253 METAR KPAE 231253Z AUTO 08003KT 10SM FEW095 OVC120 13/11 A3006 RMK AO2 SLP179 T01280111=
201709231213 SPECI KPAE 231213Z AUTO 00000KT 10SM SCT015 OVC110 12/11 A3006 RMK AO2 T01220111=
201709231153 METAR KPAE 231153Z AUTO 00000KT 10SM OVC015 12/11 A3006 RMK AO2 SLP179 T01170111 10150 20117 52001=
201709231103 SPECI KPAE 231103Z AUTO 00000KT 10SM FEW005 OVC014 12/11 A3006 RMK AO2 T01220111=
201709231053 METAR KPAE 231053Z AUTO 00000KT 10SM BKN005 OVC014 12/11 A3006 RMK AO2 SLP178 T01220106=
201709231033 SPECI KPAE 231033Z AUTO 00000KT 10SM BKN004 BKN014 OVC110 12/11 A3006 RMK AO2 T01220106=
201709231026 SPECI KPAE 231026Z AUTO 31003KT 10SM FEW004 SCT014 BKN110 12/10 A3006 RMK AO2 T01220100=
201709230953 METAR KPAE 230953Z AUTO 00000KT 10SM BKN100 12/09 A3005 RMK AO2 SLP175 T01220089=
201709230853 METAR KPAE 230853Z AUTO 13006KT 10SM OVC110 13/09 A3004 RMK AO2 SLP173 T01330089 50002=
201709230753 METAR KPAE 230753Z AUTO 13006KT 10SM OVC110 14/08 A3005 RMK AO2 SLP174 T01390083 401780100=
201709230653 METAR KPAE 230653Z AUTO 13005KT 10SM OVC120 15/06 A3004 RMK AO2 SLP171 T01500061=
201709230553 METAR KPAE 230553Z AUTO 08005KT 10SM CLR 14/07 A3004 RMK AO2 SLP171 T01440067 10172 20139 58001=
201709230453 METAR KPAE 230453Z AUTO 00000KT 10SM CLR 15/06 A3004 RMK AO2 SLP173 T01500056=
201709230353 METAR KPAE 230353Z AUTO 00000KT 10SM CLR 14/07 A3004 RMK AO2 SLP173 T01440067=
201709230253 METAR KPAE 230253Z AUTO 00000KT 10SM CLR 15/06 A3004 RMK AO2 SLP172 T01500061 53002=
201709230153 METAR KPAE 230153Z AUTO 20003KT 10SM CLR 16/08 A3004 RMK AO2 SLP172 T01610078=
201709230053 METAR KPAE 230053Z AUTO 00000KT 10SM CLR 17/07 A3003 RMK AO2 SLP169 T01670072=
201709222353 METAR KPAE 222353Z AUTO 33005KT 10SM CLR 17/08 A3003 RMK AO2 SLP170 T01670078 10178 20144 56004=
201709222253 METAR KPAE 222253Z AUTO 33005KT 10SM CLR 18/08 A3003 RMK AO2 SLP170 T01780083=
201709222153 METAR KPAE 222153Z VRB03KT 10SM CLR 18/09 A3004 RMK AO2 SLP172 T01780089=
201709222053 METAR KPAE 222053Z 28004KT 10SM CLR 16/09 A3005 RMK AO2 SLP174 T01610089 56007=
201709221953 METAR KPAE 221953Z 00000KT 10SM FEW023 16/09 A3005 RMK AO2 SLP176 T01610094=
201709221853 METAR KPAE 221853Z VRB03KT 10SM SCT025 16/09 A3006 RMK AO2 SLP178 T01560094=
201709221753 METAR KPAE 221753Z 25004KT 10SM CLR 14/09 A3007 RMK AO2 SLP181 T01440089 10144 20100 51004=
201709221653 METAR KPAE 221653Z 00000KT 10SM SCT008 13/09 A3007 RMK AO2 SLP181 T01330089=
201709221600 SPECI KPAE 221600Z 19003KT 10SM SCT008 11/09 A3007 RMK AO2 T01110089=
201709221553 METAR KPAE 221553Z 21004KT 10SM SCT095 11/09 A3007 RMK AO2 SLP182 T01110089=
201709221453 METAR KPAE 221453Z 19003KT 10SM BKN095 11/08 A3006 RMK AO2 SLP178 T01060083 53008=
201709221353 METAR KPAE 221353Z 00000KT 10SM OVC100 10/08 A3005 RMK AO2 SLP177 T01000083=
201709221253 METAR KPAE 221253Z AUTO 00000KT 10SM OVC100 11/09 A3004 RMK AO2 SLP170 T01060089=
201709221153 METAR KPAE 221153Z AUTO 29006KT 10SM OVC100 11/07 A3003 RMK AO2 SLP170 T01110072 10128 20106 53002=
201709221053 METAR KPAE 221053Z AUTO 12003KT 10SM OVC100 11/09 A3002 RMK AO2 SLP166 T01110089=
201709220953 METAR KPAE 220953Z AUTO 00000KT 10SM OVC100 12/09 A3002 RMK AO2 SLP165 T01170089=
201709220853 METAR KPAE 220853Z AUTO 00000KT 10SM OVC100 11/09 A3003 RMK AO2 SLP168 T01110094 52006=
201709220753 METAR KPAE 220753Z AUTO 25003KT 10SM OVC110 11/09 A3002 RMK AO2 SLP165 T01110089 401670100=
201709220653 METAR KPAE 220653Z AUTO 00000KT 10SM OVC100 12/09 A3002 RMK AO2 SLP164 T01220094=
201709220553 METAR KPAE 220553Z AUTO 00000KT 10SM OVC100 12/09 A3001 RMK AO2 SLP162 60000 T01220094 10167 20117 51008=
201709220453 METAR KPAE 220453Z AUTO 00000KT 10SM OVC100 13/08 A3000 RMK AO2 SLP159 T01280078 TSNO=
201709220353 METAR KPAE 220353Z 00000KT 10SM SCT110 13/08 A3000 RMK AO2 SLP159 T01280078=
201709220253 METAR KPAE 220253Z 00000KT 10SM OVC100 13/08 A2998 RMK AO2 SLP154 60000 T01330078 53006=
201709220153 METAR KPAE 220153Z 00000KT 10SM BKN100 14/08 A2997 RMK AO2 SLP150 T01390078=
201709220053 METAR KPAE 220053Z 32007KT 10SM BKN100 16/06 A2997 RMK AO2 RAE2357 SLP148 P0000 T01610056=
201709212353 METAR KPAE 212353Z VRB05KT 10SM -RA SCT070 BKN100 17/08 A2997 RMK AO2 SLP147 P0000 60000 T01670078 10167 20117 53006=
201709212253 METAR KPAE 212253Z 30007KT 10SM -RA SCT030 14/08 A2996 RMK AO2 RAB50 SLP145 P0000 T01440078=
201709212153 METAR KPAE 212153Z 27007KT 10SM CLR 16/09 A2995 RMK AO2 SLP141 T01560094=
201709212053 METAR KPAE 212053Z 26007KT 10SM CLR 16/08 A2995 RMK AO2 SLP140 T01560078 50000=
201709211953 METAR KPAE 211953Z VRB03KT 10SM CLR 14/08 A2995 RMK AO2 SLP142 T01440083=
201709211853 METAR KPAE 211853Z VRB04KT 10SM SCT013 BKN050 13/09 A2995 RMK AO2 SLP143 T01280089=
201709211800 SPECI KPAE 211800Z 32006KT 10SM SCT009 BKN013 12/09 A2995 RMK AO2 T01220094=
201709211753 METAR KPAE 211753Z VRB04KT 10SM BKN007 BKN011 OVC042 12/09 A2995 RMK AO2 SLP141 60000 T01170089 10117 20100 53006=
201709211653 METAR KPAE 211653Z 00000KT 10SM BKN007 BKN011 OVC025 12/09 A2993 RMK AO2 SLP137 T01170094=
201709211648 SPECI KPAE 211648Z 32004KT 10SM BKN007 BKN011 OVC025 12/09 A2993 RMK AO2=
201709211600 SPECI KPAE 211600Z 00000KT 10SM SCT007 BKN011 OVC025 11/09 A2993 RMK AO2 T01060094=
201709211553 METAR KPAE 211553Z 00000KT 10SM BKN007 OVC085 11/09 A2993 RMK AO2 SLP134 T01060094=
201709211508 SPECI KPAE 211508Z 00000KT 10SM BKN007 OVC085 10/09 A2992 RMK AO2 T01000089=
201709211500 SPECI KPAE 211500Z 00000KT 10SM BKN014 OVC080 11/09 A2991 RMK AO2 T01060094=
201709211453 METAR KPAE 211453Z 00000KT 10SM SCT008 BKN017 BKN080 10/09 A2991 RMK AO2 RAB08E20 SLP130 P0000 60000 T01000094 53008=
201709211421 SPECI KPAE 211421Z 00000KT 10SM SCT007 BKN015 OVC085 10/09 A2991 RMK AO2 RAB08E20 P0000 T01000094=
201709211353 METAR KPAE 211353Z 00000KT 10SM FEW013 OVC095 10/09 A2990 RMK AO2 SLP124 T01000089=
201709211350 SPECI KPAE 211350Z 12003KT 10SM SCT013 OVC095 10/09 A2989 RMK AO2=
201709211301 SPECI KPAE 211301Z AUTO 12003KT 10SM SCT008 OVC013 10/09 A2989 RMK AO2 T01000089=
201709211253 METAR KPAE 211253Z AUTO 13004KT 10SM BKN008 OVC013 10/09 A2989 RMK AO2 SLP122 T01000089=
201709211233 SPECI KPAE 211233Z AUTO 13004KT 10SM BKN009 BKN013 OVC044 10/09 A2988 RMK AO2 T01000089=
201709211202 SPECI KPAE 211202Z AUTO 13005KT 10SM FEW009 BKN012 OVC043 10/09 A2988 RMK AO2 T01000089=
201709211153 METAR KPAE 211153Z AUTO 07005KT 10SM SCT011 OVC043 10/09 A2988 RMK AO2 RAB01E31 SLP117 P0000 60000 70001 T01000089 10111 20100 53007=
201709211053 METAR KPAE 211053Z AUTO 06004KT 10SM SCT010 BKN060 OVC070 10/08 A2987 RMK AO2 SLP114 T01000083=
201709210953 METAR KPAE 210953Z AUTO 13005KT 10SM BKN046 OVC055 11/09 A2985 RMK AO2 SLP110 T01060089=
201709210853 METAR KPAE 210853Z AUTO 14006KT 10SM SCT049 SCT060 OVC080 10/08 A2985 RMK AO2 SLP110 T01000083 53008=
201709210753 METAR KPAE 210753Z AUTO 13005KT 10SM BKN055 BKN070 OVC090 10/08 A2985 RMK AO2 SLP107 T01000083 401500078=
201709210653 METAR KPAE 210653Z AUTO 12005KT 10SM BKN050 11/09 A2983 RMK AO2 SLP103 T01060089=
201709210553 METAR KPAE 210553Z AUTO 14005KT 10SM CLR 11/08 A2983 RMK AO2 SLP101 T01110083 10133 20100 53008=
201709210453 METAR KPAE 210453Z AUTO 15005KT 10SM CLR 11/08 A2982 RMK AO2 SLP098 T01060083=
201709210353 METAR KPAE 210353Z AUTO 15005KT 10SM BKN060 11/09 A2981 RMK AO2 SLP095 T01110094=
201709210253 METAR KPAE 210253Z 19005KT 10SM OVC060 12/09 A2980 RMK AO2 SLP094 T01170094 53016=
201709210153 METAR KPAE 210153Z 19006KT 10SM BKN060 12/08 A2979 RMK AO2 SLP087 T01220083=
201709210053 METAR KPAE 210053Z 19007KT 10SM FEW060 13/08 A2977 RMK AO2 SLP082 T01280078=
201709202353 METAR KPAE 202353Z 27005KT 10SM FEW025 FEW032 14/07 A2976 RMK AO2 SLP077 60001 T01390072 10150 20111 53010=
201709202253 METAR KPAE 202253Z 31005KT 10SM BKN055 14/07 A2974 RMK AO2 SLP073 T01390072=
201709202200 SPECI KPAE 202200Z 29008KT 260V330 10SM OVC065 14/08 A2973 RMK AO2 T01390083=
201709202153 METAR KPAE 202153Z 29007KT 10SM SCT014 BKN022 BKN055 13/08 A2973 RMK AO2 SLP069 T01330083=
201709202053 METAR KPAE 202053Z 27008KT 10SM SCT014 BKN022 OVC055 13/09 A2973 RMK AO2 RAE20 SLP066 P0001 60001 T01280089 51015=
201709201953 METAR KPAE 201953Z 29007KT 250V310 7SM -RA SCT014 BKN022 OVC055 12/09 A2972 RMK AO2 RAB47 SLP065 P0000 T01170089=
201709201905 SPECI KPAE 201905Z 26009KT 10SM SCT014 BKN022 OVC055 12/08 A2971 RMK AO2 T01220083=
201709201853 METAR KPAE 201853Z 28007KT 10SM FEW014 SCT022 BKN040 13/09 A2970 RMK AO2 SLP058 T01280089=
201709201811 SPECI KPAE 201811Z 33005KT 10SM FEW012 BKN019 12/08 A2969 RMK AO2 T01220083=
201709201753 METAR KPAE 201753Z 33006KT 10SM FEW008 SCT024 12/08 A2968 RMK AO2 SLP051 T01220083 10122 20078 51008=
201709201748 SPECI KPAE 201748Z 33006KT 10SM SCT008 SCT018 BKN024 12/08 A2968 RMK AO2=
201709201653 METAR KPAE 201653Z 33007KT 10SM BKN006 BKN050 11/09 A2967 RMK AO2 SLP046 T01060089=
201709201621 SPECI KPAE 201621Z 30004KT 10SM BKN006 BKN050 09/08 A2966 RMK AO2 T00940083=
201709201602 SPECI KPAE 201602Z 33004KT 10SM SCT006 BKN050 09/08 A2966 RMK AO2 T00940078=
201709201553 METAR KPAE 201553Z 32005KT 10SM FEW010 SCT055 09/07 A2966 RMK AO2 SLP044 T00940072=
201709201453 METAR KPAE 201453Z 35004KT 10SM CLR 08/07 A2964 RMK AO2 SLP040 T00830072 53004=
201709201353 METAR KPAE 201353Z VRB03KT 10SM OVC065 08/07 A2963 RMK AO2 SLP036 T00830067=
201709201253 METAR KPAE 201253Z AUTO 00000KT 10SM OVC065 08/07 A2963 RMK AO2 SLP036 T00830067=
201709201153 METAR KPAE 201153Z AUTO 05003KT 10SM FEW044 OVC055 08/06 A2963 RMK AO2 SLP035 60000 70023 T00780061 10100 20078 56013=
201709201053 METAR KPAE 201053Z AUTO 07003KT 10SM OVC041 08/07 A2964 RMK AO2 SLP037 T00780067=
201709200953 METAR KPAE 200953Z AUTO 08007KT 10SM FEW060 08/06 A2965 RMK AO2 SLP041 T00780061=
201709200853 METAR KPAE 200853Z AUTO 08008KT 10SM FEW002 08/08 A2967 RMK AO2 SLP048 60000 T00830078 58022=
201709200830 SPECI KPAE 200830Z AUTO 09008KT 7SM BKN002 08/08 A2967 RMK AO2 T00830078=
201709200819 SPECI KPAE 200819Z AUTO 08009KT 10SM SCT001 SCT065 08/08 A2968 RMK AO2 T00830078=
201709200753 METAR KPAE 200753Z AUTO 09007KT 10SM SCT042 BKN065 09/08 A2970 RMK AO2 SLP056 T00890078 401560089=
201709200653 METAR KPAE 200653Z AUTO VRB05KT 10SM SCT004 OVC040 10/09 A2973 RMK AO2 RAE0558 SLP066 P0000 T01000094=
201709200553 METAR KPAE 200553Z AUTO 12006KT 10SM -RA FEW004 SCT035 OVC044 10/09 A2974 RMK AO2 RAB29 SLP070 P0003 60023 T01000094 10133 20100 58007=
201709200537 SPECI KPAE 200537Z AUTO 11004KT 5SM RA BR FEW004 BKN033 OVC042 10/09 A2974 RMK AO2 RAB29 P0002 T01000094=
201709200528 SPECI KPAE 200528Z AUTO 12005KT 10SM BKN026 BKN038 OVC060 10/09 A2974 RMK AO2 T01000094=
201709200453 METAR KPAE 200453Z AUTO 09003KT 10SM SCT043 OVC060 10/09 A2975 RMK AO2 RAE22 SLP074 P0001 T01000094=
201709200353 METAR KPAE 200353Z AUTO 08006KT 8SM -RA OVC038 10/08 A2976 RMK AO2 RAB42 SLP077 P0000 T01000083=
201709200253 METAR KPAE 200253Z 08007KT 10SM FEW022 BKN047 OVC060 10/09 A2976 RMK AO2 RAE24 SLP078 P0001 60019 T01000089 55000=
201709200153 METAR KPAE 200153Z 08004KT 5SM -RA BR SCT008 OVC049 11/09 A2975 RMK AO2 SLP075 P0016 T01060094=
201709200150 SPECI KPAE 200150Z 08005KT 4SM -RA BR SCT008 OVC049 11/09 A2975 RMK AO2 P0015=
201709200136 SPECI KPAE 200136Z 08005KT 6SM -RA BR SCT010 BKN015 OVC046 11/10 A2975 RMK AO2 P0013 T01110100=
201709200129 SPECI KPAE 200129Z 00000KT 2 1/2SM RA BR SCT010 BKN015 OVC046 11/10 A2975 RMK AO2 LTG DSNT SE P0012 T01110100=
201709200109 SPECI KPAE 200109Z 08004KT 3SM RA BR SCT010 BKN015 OVC046 11/09 A2976 RMK AO2 P0006 T01110094=
201709200102 SPECI KPAE 200102Z 08004KT 4SM RA BR BKN010 BKN015 OVC046 11/09 A2976 RMK AO2 P0003 T01110094=
201709200053 METAR KPAE 200053Z 08004KT 6SM -RA BR SCT011 BKN023 OVC060 12/09 A2976 RMK AO2 RAB27 SLP077 P0002 T01170094=
201709200049 SPECI KPAE 200049Z 08004KT 6SM -RA BR SCT013 BKN022 OVC060 12/10 A2976 RMK AO2 RAB27 P0002=
201709200000 SPECI KPAE 200000Z VRB04KT 10SM SCT021 BKN043 OVC070 13/09 A2975 RMK AO2 T01280089=
201709192353 METAR KPAE 192353Z 10003KT 10SM SCT018 BKN019 13/09 A2975 RMK AO2 SLP073 T01280089 10156 20111 50000=
201709192253 METAR KPAE 192253Z 09005KT 10SM FEW012 BKN019 OVC065 13/09 A2975 RMK AO2 SLP075 T01280094=
201709192244 SPECI KPAE 192244Z VRB04KT 10SM FEW011 BKN022 OVC065 13/09 A2975 RMK AO2 T01330094=
201709192153 METAR KPAE 192153Z 18005KT 10SM FEW047 13/08 A2975 RMK AO2 LTG DSNT E AND SW SLP073 T01330083=
201709192129 SPECI KPAE 192129Z 26007KT 10SM SCT023 BKN046 OVC070 14/08 A2975 RMK AO2 T01390083=
201709192110 SPECI KPAE 192110Z 10SM BKN021 BKN029 OVC046 14/09 A2975 RMK AO2 T01390089=
201709192053 METAR KPAE 192053Z 16003KT 10SM FEW024 BKN047 OVC055 13/09 A2975 RMK AO2 SLP073 T01330089 58003=
201709191953 METAR KPAE 191953Z 24008KT 10SM FEW017 SCT034 BKN100 13/09 A2976 RMK AO2 SLP077 T01330089=
201709191929 SPECI KPAE 191929Z 21007KT 10SM SCT015 OVC035 13/09 A2976 RMK AO2 T01330094=
201709191853 METAR KPAE 191853Z 19007KT 10SM SCT014 BKN024 OVC030 12/09 A2976 RMK AO2 SLP077 T01170089=
201709191830 SPECI KPAE 191830Z 16008KT 10SM SCT014 BKN024 OVC030 12/09 A2975 RMK AO2 T01170089=
201709191753 METAR KPAE 191753Z 16009KT 10SM BKN009 OVC022 12/09 A2975 RMK AO2 SLP076 T01170089 10117 20100 51011=
201709191653 METAR KPAE 191653Z 16010KT 10SM BKN009 OVC022 11/09 A2974 RMK AO2 SLP072 T01110089=
201709191553 METAR KPAE 191553Z 16010KT 10SM SCT010 BKN016 OVC022 11/09 A2973 RMK AO2 SLP069 T01060089=
201709191453 METAR KPAE 191453Z 15008KT 10SM SCT009 OVC019 10/09 A2972 RMK AO2 SLP065 T01000089 53012=
201709191413 SPECI KPAE 191413Z 13007KT 10SM BKN009 OVC014 10/09 A2971 RMK AO2 CIG 007V012 T01000089=
201709191404 SPECI KPAE 191404Z 13009KT 10SM OVC012 10/09 A2971 RMK AO2 T01000089=
201709191357 SPECI KPAE 191357Z 13007KT 10SM BKN009 OVC014 10/09 A2971 RMK AO2 CIG 008V014 T01000089=
201709191353 METAR KPAE 191353Z 14008KT 10SM OVC014 10/09 A2971 RMK AO2 SLP060 T01000089=
201709191330 SPECI KPAE 191330Z AUTO 13007KT 10SM BKN014 OVC021 10/09 A2970 RMK AO2 T01000089=
201709191253 METAR KPAE 191253Z AUTO 12008KT 10SM FEW009 FEW013 OVC020 10/09 A2970 RMK AO2 SLP056 T01000089=
201709191207 SPECI KPAE 191207Z AUTO 14009KT 10SM FEW009 BKN026 OVC070 10/09 A2969 RMK AO2 T01000089=
201709191153 METAR KPAE 191153Z AUTO 14009KT 10SM BKN009 BKN033 OVC043 10/09 A2968 RMK AO2 RAE50 CIG 006V013 SLP052 P0001 60010 70016 T01000089 10106 20094 56001=
201709191053 METAR KPAE 191053Z AUTO 12008KT 9SM -RA BKN008 OVC013 09/09 A2969 RMK AO2 CIG 005V011 SLP052 P0002 T00940089=
201709191027 SPECI KPAE 191027Z AUTO 12007KT 9SM -RA FEW007 BKN012 OVC037 09/09 A2968 RMK AO2 P0001 T00940089=
201709191002 SPECI KPAE 191002Z AUTO 13010KT 10SM -RA FEW006 BKN009 OVC014 09/08 A2969 RMK AO2 P0000 T00940083=
201709190953 METAR KPAE 190953Z AUTO 11008KT 10SM -RA FEW006 BKN010 OVC014 09/08 A2969 RMK AO2 CIG 009V012 SLP052 P0004 T00940083=
201709190931 SPECI KPAE 190931Z AUTO 12009KT 5SM -RA BR BKN014 OVC026 09/08 A2968 RMK AO2 P0003 T00940083=
201709190916 SPECI KPAE 190916Z AUTO 12010KT 7SM -RA SCT014 BKN029 OVC060 09/08 A2969 RMK AO2 P0001 T00940083=
201709190853 METAR KPAE 190853Z AUTO 12010KT 7SM -RA OVC060 09/08 A2969 RMK AO2 RAB03 SLP053 P0003 60003 T00940083 56004=
201709190753 METAR KPAE 190753Z AUTO 12010KT 10SM FEW018 BKN080 OVC090 09/08 A2969 RMK AO2 RAE13B31E40 SLP053 P0000 T00940083 401670094=
201709190730 SPECI KPAE 190730Z AUTO 12009G15KT 10SM SCT018 SCT049 OVC095 10/09 A2969 RMK AO2 RAE13 P0000 T01000089=
201709190653 METAR KPAE 190653Z AUTO 12012KT 10SM -RA FEW019 BKN025 OVC100 10/08 A2970 RMK AO2 RAB50 SLP057 P0000 T01000083=
201709190553 METAR KPAE 190553Z AUTO 12010KT 10SM BKN017 OVC046 11/09 A2970 RMK AO2 SLP058 60006 T01060089 10144 20100 56005=
201709190517 SPECI KPAE 190517Z AUTO 12010KT 10SM BKN018 11/09 A2970 RMK AO2 T01060089=
201709190453 METAR KPAE 190453Z AUTO 12010G17KT 10SM FEW033 10/09 A2970 RMK AO2 SLP058 T01000089=
201709190413 SPECI KPAE 190413Z AUTO 12011KT 10SM FEW008 SCT090 10/09 A2971 RMK AO2 T01000094=
201709190353 METAR KPAE 190353Z AUTO 12010KT 10SM SCT065 BKN090 11/09 A2971 RMK AO2 RAE13 SLP061 P0000 T01060094=
201709190253 METAR KPAE 190253Z 13014G22KT 10SM -RA FEW012 FEW042 OVC050 11/09 A2971 RMK AO2 SLP063 P0006 60006 T01110094 56005=
201709190153 METAR KPAE 190153Z 13011KT 10SM -RA SCT060 BKN080 OVC110 12/10 A2972 RMK AO2 RAB37 SLP063 P0000 T01220100=
201709190053 METAR KPAE 190053Z 14012KT 10SM CLR 13/08 A2973 RMK AO2 SLP067 T01330078=
201709182353 METAR KPAE 182353Z 15014G22KT 10SM SCT085 BKN110 14/06 A2973 RMK AO2 SLP068 T01440056 10167 20128 58003=
201709182303 SPECI KPAE 182303Z 16016G24KT 10SM FEW070 15/06 A2974 RMK AO2 T01500061=
201709182253 METAR KPAE 182253Z 19018G21KT 10SM VCTS SCT075 16/06 A2974 RMK AO2 SLP069 T01560061=
201709182248 SPECI KPAE 182248Z 17017G20KT 10SM VCTS FEW060 BKN075 16/06 A2974 RMK AO2=
201709182153 METAR KPAE 182153Z 16010KT 10SM SCT038 BKN046 OVC080 16/07 A2974 RMK AO2 SLP070 T01560067=
201709182053 METAR KPAE 182053Z 18013G20KT 10SM BKN038 OVC110 16/06 A2975 RMK AO2 SLP073 T01560061 58007=
201709181953 METAR KPAE 181953Z 15015KT 10SM SCT030 BKN036 16/07 A2976 RMK AO2 SLP077 T01560072=
201709181908 SPECI KPAE 181908Z 17011KT 10SM SCT026 SCT030 15/08 A2977 RMK AO2 T01500078=
201709181853 METAR KPAE 181853Z 16014G20KT 10SM BKN025 BKN030 14/08 A2977 RMK AO2 SLP081 T01440078=
201709181753 METAR KPAE 181753Z 15010KT 10SM SCT016 BKN023 13/09 A2977 RMK AO2 SLP082 60000 T01330089 10133 20100 51002=
201709181733 SPECI KPAE 181733Z 15008KT 10SM BKN015 BKN022 13/09 A2977 RMK AO2 T01280094=
201709181653 METAR KPAE 181653Z 14009KT 10SM BKN011 OVC090 12/10 A2977 RMK AO2 SLP082 T01220100=
201709181615 SPECI KPAE 181615Z 15009KT 10SM SCT005 SCT065 BKN095 11/09 A2977 RMK AO2 T01110094=
201709181553 METAR KPAE 181553Z 15008KT 10SM BKN014 11/09 A2977 RMK AO2 RAB21E30 SLP081 P0000 T01060094=
201709181541 SPECI KPAE 181541Z 13008KT 10SM BKN014 BKN075 11/09 A2977 RMK AO2 RAB21E30 P0000 T01060094=
201709181508 SPECI KPAE 181508Z 13008KT 10SM BKN016 OVC095 10/09 A2977 RMK AO2 T01000089=
201709181453 METAR KPAE 181453Z 12009KT 10SM FEW005 10/09 A2977 RMK AO2 SLP081 T01000089 50001=
201709181353 METAR KPAE 181353Z 15009KT 10SM FEW005 10/09 A2977 RMK AO2 SLP083 T01000089=
201709181340 SPECI KPAE 181340Z AUTO 15006KT 10SM SCT006 10/09 A2977 RMK AO2 T01000094=
201709181253 METAR KPAE 181253Z AUTO 17005KT 10SM OVC007 11/09 A2976 RMK AO2 CIG 005V009 SLP078 T01060094=
201709181226 SPECI KPAE 181226Z AUTO 16005KT 10SM BKN008 OVC110 10/09 A2977 RMK AO2 T01000089=
201709181218 SPECI KPAE 181218Z AUTO 16004KT 10SM SCT009 OVC110 10/09 A2977 RMK AO2 T01000089=
201709181153 METAR KPAE 181153Z AUTO 14005KT 10SM OVC110 10/09 A2976 RMK AO2 SLP079 70033 T01000089 10106 20100 56014=
201709181053 METAR KPAE 181053Z AUTO 08006KT 10SM SCT050 10/08 A2978 RMK AO2 SLP083 T01000078=
201709180953 METAR KPAE 180953Z AUTO 12003KT 10SM SCT044 11/08 A2979 RMK AO2 SLP088 T01060078=
201709180853 METAR KPAE 180853Z AUTO 12003KT 10SM FEW047 10/08 A2981 RMK AO2 SLP093 T01000083 56007=
201709180753 METAR KPAE 180753Z AUTO VRB03KT 10SM BKN065 11/09 A2981 RMK AO2 SLP094 T01060089 401720100=
201709180653 METAR KPAE 180653Z AUTO 08007KT 10SM BKN049 BKN065 10/09 A2982 RMK AO2 SLP096 T01000094=
201709180553 METAR KPAE 180553Z AUTO 08007KT 10SM BKN043 OVC055 10/10 A2983 RMK AO2 RAE37 SLP100 P0005 60032 T01000100 10139 20100 51018=
201709180453 METAR KPAE 180453Z AUTO VRB05KT 6SM -RA BR FEW004 OVC042 10/09 A2983 RMK AO2 SLP100 P0007 T01000094=
201709180436 SPECI KPAE 180436Z AUTO 07005KT 3SM -RA BR FEW004 OVC036 10/10 A2982 RMK AO2 P0005 T01000100=
201709180418 SPECI KPAE 180418Z AUTO 09005KT 4SM -RA BR OVC032 10/10 A2982 RMK AO2 P0002 T01000100=
201709180353 METAR KPAE 180353Z AUTO 08006KT 5SM -RA BR OVC027 10/09 A2980 RMK AO2 SLP092 P0004 T01000094=
201709180253 METAR KPAE 180253Z 35005KT 8SM -RA OVC022 10/09 A2977 RMK AO2 SLP083 P0010 60016 T01000094 53001=
201709180240 SPECI KPAE 180240Z 34005KT 5SM -RA BR SCT003 OVC022 10/09 A2978 RMK AO2 P0010 T01000094=
201709180232 SPECI KPAE 180232Z 32006KT 3SM -RA BR BKN003 BKN016 OVC022 10/10 A2978 RMK AO2 CIG 002V010 P0010 T01000100=
201709180223 SPECI KPAE 180223Z 31008G16KT 3SM -RA BR SCT003 BKN007 OVC023 10/10 A2978 RMK AO2 P0009 T01000100=
201709180216 SPECI KPAE 180216Z 32009G16KT 2SM -RA BR BKN004 BKN009 OVC017 10/10 A2978 RMK AO2 P0009 T01000100=
201709180206 SPECI KPAE 180206Z 31008KT 2SM -RA BR SCT004 BKN009 OVC018 10/10 A2978 RMK AO2 P0007 T01000100=
201709180155 SPECI KPAE 180155Z 30013G18KT 1 3/4SM R16R/4500VP6000FT +RA BR BKN004 BKN008 OVC016 11/10 A2978 RMK AO2 CIG 002V006 P0003 T01060100=
201709180153 METAR KPAE 180153Z 30011G18KT 2 1/2SM R16R/4500VP6000FT RA BR BKN008 BKN035 OVC060 11/10 A2978 RMK AO2 RAB0058 SLP085 P0006 T01060100=
201709180140 SPECI KPAE 180140Z VRB04KT 3SM -RA BR BKN008 BKN035 OVC060 13/12 A2977 RMK AO2 RAB0058 P0001 T01330122=
201709180123 SPECI KPAE 180123Z 12007KT 2 1/2SM -RA BR BKN008 BKN035 OVC060 13/12 A2977 RMK AO2 RAB0058 P0001 T01280122=
201709180112 SPECI KPAE 180112Z 12007KT 1 3/4SM -RA BR BKN008 BKN035 OVC060 13/12 A2977 RMK AO2 RAB0058 P0000 T01280122=
201709180102 SPECI KPAE 180102Z 13010KT 2SM -RA BR BKN008 BKN035 OVC060 13/12 A2977 RMK AO2 RAB0058 P0000 T01280122=
201709180055 SPECI KPAE 180055Z 12010KT 2 1/2SM BR FEW008 BKN035 OVC060 13/12 A2976 RMK AO2 T01280117=
201709180053 METAR KPAE 180053Z 12013KT 2 1/2SM BR BKN008 BKN036 OVC070 13/12 A2976 RMK AO2 SLP078 T01280117=
201709180051 SPECI KPAE 180051Z 12014KT 2 1/2SM BR BKN008 BKN036 OVC070 13/12 A2976 RMK AO2=
201709180035 SPECI KPAE 180035Z 13013KT 8SM FEW009 OVC065 13/12 A2976 RMK AO2 T01330117=
201709172353 METAR KPAE 172353Z 13016G24KT 10SM FEW022 BKN042 OVC065 14/11 A2977 RMK AO2 SLP081 60001 T01390111 10172 20133 58008=
201709172253 METAR KPAE 172253Z 14013G21KT 10SM OVC039 13/11 A2978 RMK AO2 PK WND 15027/2229 RAE31 SLP085 P0000 T01330106=
201709172153 METAR KPAE 172153Z 16017G28KT 8SM -RA OVC060 14/11 A2979 RMK AO2 PK WND 15029/2143 RAE32B49 SLP088 P0001 T01440106=
201709172053 METAR KPAE 172053Z 15011KT 10SM -RA OVC090 15/11 A2980 RMK AO2 RAB31 SLP088 P0000 60000 T01500106 56015=
201709171953 METAR KPAE 171953Z 14015G22KT 10SM BKN120 17/09 A2980 RMK AO2 PK WND 15027/1909 SLP090 T01670089=
201709171853 METAR KPAE 171853Z 15013G23KT 10SM FEW030 17/09 A2982 RMK AO2 SLP097 T01670089=
201709171753 METAR KPAE 171753Z 14014KT 10SM FEW025 16/09 A2984 RMK AO2 SLP103 T01560094 10156 20128 56004=
201709171653 METAR KPAE 171653Z 14014G26KT 10SM FEW055 14/10 A2984 RMK AO2 PK WND 13026/1646 SLP104 T01440100=
201709171553 METAR KPAE 171553Z 13017KT 10SM BKN055 BKN075 14/09 A2984 RMK AO2 SLP104 T01390094=
201709171453 METAR KPAE 171453Z 15010KT 10SM BKN070 13/09 A2985 RMK AO2 SLP107 T01330089 55001=
201709171353 METAR KPAE 171353Z 15007KT 10SM CLR 13/09 A2985 RMK AO2 SLP105 T01330089=
201709171253 METAR KPAE 171253Z AUTO 14009KT 10SM FU CLR 13/09 A2984 RMK AO2 SLP102 T01330094=
201709171153 METAR KPAE 171153Z AUTO 16007KT 8SM FU CLR 13/07 A2985 RMK AO2 SLP106 T01330072 10156 20117 56011=
201709171053 METAR KPAE 171053Z AUTO 13006KT 8SM FU CLR 14/04 A2986 RMK AO2 SLP108 T01440044=
201709170953 METAR KPAE 170953Z AUTO 07006KT 7SM FU CLR 14/04 A2987 RMK AO2 SLP112 T01390039=
201709170853 METAR KPAE 170853Z AUTO 00000KT 7SM FU CLR 14/05 A2989 RMK AO2 SLP118 T01440050 58007=
201709170753 METAR KPAE 170753Z AUTO 00000KT 10SM FU CLR 12/07 A2989 RMK AO2 SLP120 T01220072 402560111=
201709170653 METAR KPAE 170653Z AUTO 35003KT 10SM FU CLR 13/08 A2990 RMK AO2 SLP124 T01330078=
201709170553 METAR KPAE 170553Z AUTO 35003KT 9SM FU CLR 14/07 A2991 RMK AO2 SLP126 T01440067 10228 20144 58002=
201709170453 METAR KPAE 170453Z AUTO 00000KT 8SM FU FEW055 17/04 A2991 RMK AO2 SLP127 T01720039=
201709170353 METAR KPAE 170353Z AUTO 00000KT 8SM FU BKN050 17/03 A2991 RMK AO2 SLP127 T01720033=
201709170253 METAR KPAE 170253Z 00000KT 8SM FU OVC050 19/04 A2991 RMK AO2 SLP128 T01890039 56012=
201709170153 METAR KPAE 170153Z 00000KT 7SM FU SCT050 21/03 A2992 RMK AO2 SLP130 T02110033=
201709170053 METAR KPAE 170053Z 23003KT 7SM FU FEW050 22/03 A2994 RMK AO2 SLP135 T02170033=
201709162353 METAR KPAE 162353Z 22005KT 8SM HZ FU CLR 23/03 A2995 RMK AO2 SLP139 T02280028 10256 20200 56015=
201709162253 METAR KPAE 162253Z 00000KT 5SM HZ FU CLR 22/02 A2996 RMK AO2 SLP142 T02220022=
201709162153 METAR KPAE 162153Z 17006KT 9SM HZ FU CLR 25/01 A2997 RMK AO2 SLP147 T02500006=
201709162053 METAR KPAE 162053Z 31003KT 7SM FU CLR 23/03 A2999 RMK AO2 SLP154 T02330033 58014=
201709161953 METAR KPAE 161953Z 18003KT 7SM FU CLR 23/03 A3001 RMK AO2 SLP160 T02280028=
201709161853 METAR KPAE 161853Z VRB03KT 6SM HZ FU CLR 22/02 A3002 RMK AO2 SLP164 T02220017=
201709161753 METAR KPAE 161753Z 13006KT 7SM FU CLR 20/02 A3003 RMK AO2 SLP168 T02000022 10200 20111 58001=
201709161653 METAR KPAE 161653Z 15004KT 7SM FU CLR 17/03 A3004 RMK AO2 SLP172 T01720028=
201709161553 METAR KPAE 161553Z 00000KT 8SM CLR 15/03 A3004 RMK AO2 SLP172 T01500033=
201709161453 METAR KPAE 161453Z 08007KT 10SM CLR 13/03 A3004 RMK AO2 SLP171 T01330033 53002=
201709161353 METAR KPAE 161353Z 00000KT 10SM CLR 13/03 A3004 RMK AO2 SLP170 T01280033=
201709161253 METAR KPAE 161253Z AUTO 08003KT 10SM CLR 13/03 A3003 RMK AO2 SLP168 T01280033=
201709161153 METAR KPAE 161153Z AUTO 08005KT 10SM CLR 13/03 A3003 RMK AO2 SLP168 T01330033 10161 20128 55000=
201709161053 METAR KPAE 161053Z AUTO 08005KT 10SM CLR 13/03 A3003 RMK AO2 SLP168 T01280033=
201709160953 METAR KPAE 160953Z AUTO 09004KT 10SM CLR 13/03 A3003 RMK AO2 SLP169 T01330033=
201709160853 METAR KPAE 160853Z AUTO 09005KT 10SM CLR 14/03 A3003 RMK AO2 SLP169 T01390033 58004=
201709160753 METAR KPAE 160753Z AUTO 00000KT 10SM CLR 15/04 A3004 RMK AO2 SLP170 T01500039 402220106=
201709160653 METAR KPAE 160653Z AUTO 08005KT 10SM CLR 16/04 A3004 RMK AO2 SLP172 T01560039=
201709160553 METAR KPAE 160553Z AUTO 08004KT 10SM CLR 16/05 A3005 RMK AO2 SLP173 T01560050 10217 20150 51002=
201709160453 METAR KPAE 160453Z AUTO 00000KT 10SM CLR 16/04 A3005 RMK AO2 SLP173 T01560039=
201709160353 METAR KPAE 160353Z AUTO 00000KT 10SM CLR 16/04 A3004 RMK AO2 SLP172 T01610044=
201709160253 METAR KPAE 160253Z 00000KT 10SM CLR 18/05 A3004 RMK AO2 SLP171 T01780050 56005=
201709160153 METAR KPAE 160153Z 24003KT 10SM CLR 18/05 A3004 RMK AO2 SLP172 T01830050=
201709160053 METAR KPAE 160053Z 30003KT 10SM CLR 21/02 A3005 RMK AO2 SLP175 T02060022=
201709152353 METAR KPAE 152353Z 35003KT 10SM CLR 21/04 A3006 RMK AO2 SLP177 T02110039 10222 20167 56010=
201709152253 METAR KPAE 152253Z VRB03KT 10SM CLR 21/04 A3006 RMK AO2 SLP178 T02110039=
201709152153 METAR KPAE 152153Z VRB03KT 10SM CLR 21/06 A3007 RMK AO2 SLP182 T02110056=
201709152053 METAR KPAE 152053Z 23006KT 10SM CLR 20/05 A3009 RMK AO2 SLP187 T02000050 56005=
201709151953 METAR KPAE 151953Z 27005KT 10SM CLR 19/05 A3009 RMK AO2 SLP190 T01940050=
201709151853 METAR KPAE 151853Z VRB03KT 10SM CLR 19/03 A3009 RMK AO2 SLP190 T01890028=
201709151753 METAR KPAE 151753Z 25004KT 10SM CLR 17/03 A3010 RMK AO2 SLP193 T01720033 10172 20106 50002=
201709151653 METAR KPAE 151653Z VRB03KT 10SM CLR 16/03 A3011 RMK AO2 SLP194 T01610028=
201709151553 METAR KPAE 151553Z 00000KT 10SM CLR 15/04 A3010 RMK AO2 SLP193 T01500044=
201709151453 METAR KPAE 151453Z VRB03KT 10SM CLR 12/05 A3010 RMK AO2 SLP191 T01220050 53014=
201709151353 METAR KPAE 151353Z 09004KT 10SM CLR 11/05 A3008 RMK AO2 SLP185 T01110050=
201709151253 METAR KPAE 151253Z 10004KT 10SM CLR 11/05 A3007 RMK AO2 SLP182 T01110050=
201709151153 METAR KPAE 151153Z 08006KT 10SM CLR 12/05 A3006 RMK AO2 SLP177 T01170050 10156 20111 51004=
201709151053 METAR KPAE 151053Z 00000KT 10SM CLR 11/02 A3006 RMK AO2 SLP177 T01110022=
201709150953 METAR KPAE 150953Z 00000KT 10SM CLR 12/02 A3005 RMK AO2 SLP175 T01220022=
201709150853 METAR KPAE 150853Z 00000KT 10SM CLR 13/03 A3005 RMK AO2 SLP173 T01280028 53010=
201709150753 METAR KPAE 150753Z 00000KT 10SM CLR 13/03 A3003 RMK AO2 SLP169 T01280033 402220106=
201709150653 METAR KPAE 150653Z 33003KT 10SM CLR 14/02 A3002 RMK AO2 SLP166 T01390022=
201709150553 METAR KPAE 150553Z 33006KT 10SM CLR 15/03 A3002 RMK AO2 SLP163 T01500028 10217 20144 51010=
201709150453 METAR KPAE 150453Z 00000KT 10SM CLR 16/02 A3000 RMK AO2 SLP159 T01610022=
201709150353 METAR KPAE 150353Z 00000KT 10SM CLR 16/02 A3000 RMK AO2 SLP157 T01610022=
201709150253 METAR KPAE 150253Z 33004KT 10SM CLR 17/01 A2999 RMK AO2 SLP154 T01720006 53007=
201709150153 METAR KPAE 150153Z 31004KT 10SM CLR 19/01 A2998 RMK AO2 SLP150 T01940006=
201709150053 METAR KPAE 150053Z 32007KT 10SM CLR 21/01 A2997 RMK AO2 SLP147 T02110011=
201709142353 METAR KPAE 142353Z 30008KT 10SM CLR 21/02 A2996 RMK AO2 SLP145 T02110017 10222 20167 55003=
201709142253 METAR KPAE 142253Z 28009KT 10SM CLR 22/03 A2996 RMK AO2 SLP144 T02170028=
201709142153 METAR KPAE 142153Z 34008KT 10SM CLR 21/04 A2997 RMK AO2 SLP147 T02110039=
201709142053 METAR KPAE 142053Z 33008KT 10SM CLR 21/05 A2997 RMK AO2 SLP148 T02110050 56004=
201709141953 METAR KPAE 141953Z 33006KT 10SM CLR 20/06 A2997 RMK AO2 SLP149 T02000061=
201709141853 METAR KPAE 141853Z 33008KT 10SM CLR 18/07 A2998 RMK AO2 SLP150 T01780067=
201709141753 METAR KPAE 141753Z 34007KT 300V010 10SM CLR 17/07 A2998 RMK AO2 SLP152 T01720072 10172 20106 51007=
201709141653 METAR KPAE 141653Z VRB06KT 10SM CLR 16/08 A2998 RMK AO2 SLP151 T01560083=
201709141553 METAR KPAE 141553Z 33005KT 10SM CLR 14/09 A2998 RMK AO2 SLP151 T01390089=
201709141453 METAR KPAE 141453Z 32003KT 10SM CLR 12/09 A2996 RMK AO2 SLP146 T01170094 53009=
201709141353 METAR KPAE 141353Z 31004KT 10SM CLR 11/09 A2996 RMK AO2 SLP143 T01060094=
201709141253 METAR KPAE 141253Z AUTO 33003KT 10SM CLR 11/09 A2994 RMK AO2 SLP138 T01110094=
201709141153 METAR KPAE 141153Z AUTO 32003KT 10SM SCT090 11/09 A2994 RMK AO2 SLP136 T01110094 10144 20111 53005=
201709141053 METAR KPAE 141053Z AUTO VRB04KT 10SM SCT095 12/09 A2993 RMK AO2 SLP134 T01170094=
201709140953 METAR KPAE 140953Z AUTO 32006KT 10SM CLR 12/09 A2992 RMK AO2 SLP131 T01220089=
201709140853 METAR KPAE 140853Z AUTO 33006KT 10SM FEW100 12/09 A2992 RMK AO2 SLP130 T01220089 58001=
201709140753 METAR KPAE 140753Z AUTO 34005KT 10SM FEW100 13/09 A2993 RMK AO2 SLP133 T01280094 401940111=
201709140653 METAR KPAE 140653Z AUTO 32004KT 10SM FEW090 14/09 A2992 RMK AO2 SLP132 T01390094=
201709140553 METAR KPAE 140553Z AUTO 30003KT 10SM CLR 13/10 A2992 RMK AO2 SLP133 T01330100 10189 20133 58002=
201709140453 METAR KPAE 140453Z AUTO 00000KT 10SM BKN080 15/10 A2993 RMK AO2 SLP135 T01500100=
201709140353 METAR KPAE 140353Z AUTO 00000KT 10SM SCT080 15/09 A2994 RMK AO2 SLP137 T01500094=
201709140253 METAR KPAE 140253Z 31004KT 10SM CLR 15/09 A2993 RMK AO2 SLP135 T01500094 55003=
201709140153 METAR KPAE 140153Z 00000KT 10SM SCT070 17/09 A2993 RMK AO2 SLP133 T01670094=
201709140053 METAR KPAE 140053Z 32005KT 10SM CLR 18/09 A2993 RMK AO2 SLP135 T01830094=
201709132353 METAR KPAE 132353Z 32006KT 10SM CLR 18/09 A2994 RMK AO2 SLP138 T01830089 10194 20139 56013=
201709132253 METAR KPAE 132253Z 21004KT 10SM CLR 18/09 A2995 RMK AO2 SLP141 T01830089=
201709132153 METAR KPAE 132153Z 27006KT 10SM FEW030 18/09 A2996 RMK AO2 SLP145 T01830094=
201709132053 METAR KPAE 132053Z 26006KT 10SM CLR 17/09 A2998 RMK AO2 SLP150 T01720094 58012=
201709131953 METAR KPAE 131953Z 28004KT 10SM CLR 16/09 A2999 RMK AO2 SLP156 T01610094=
201709131900 SPECI KPAE 131900Z VRB06KT 10SM SCT018 15/10 A3000 RMK AO2 T01500100=
201709131853 METAR KPAE 131853Z 25005KT 10SM BKN018 16/10 A3000 RMK AO2 SLP160 T01560100=
201709131753 METAR KPAE 131753Z VRB03KT 10SM OVC018 14/10 A3001 RMK AO2 SLP163 T01390100 10144 20111 50001=
201709131653 METAR KPAE 131653Z 26005KT 10SM OVC015 13/11 A3002 RMK AO2 SLP164 T01330106=
201709131643 SPECI KPAE 131643Z 22003KT 10SM OVC015 13/11 A3002 RMK AO2 T01330106=
201709131553 METAR KPAE 131553Z 23004KT 10SM OVC014 13/10 A3001 RMK AO2 SLP163 T01280100=
201709131538 SPECI KPAE 131538Z 24004KT 10SM BKN014 13/11 A3001 RMK AO2 T01280106=
201709131453 METAR KPAE 131453Z 26004KT 10SM SCT055 12/11 A3001 RMK AO2 SLP162 T01220106 53008=
201709131353 METAR KPAE 131353Z AUTO 22004KT 10SM SCT049 12/11 A3000 RMK AO2 SLP158 T01170106=
201709131253 METAR KPAE 131253Z AUTO 31003KT 10SM BKN050 OVC060 13/09 A2999 RMK AO2 SLP155 T01280094=
201709131153 METAR KPAE 131153Z AUTO 00000KT 10SM FEW049 FEW060 12/11 A2999 RMK AO2 SLP153 T01170106 10139 20111 53000=
201709131053 METAR KPAE 131053Z AUTO 00000KT 10SM BKN047 12/11 A2998 RMK AO2 SLP150 T01170106=
201709130953 METAR KPAE 130953Z AUTO 31003KT 10SM BKN060 12/11 A2998 RMK AO2 SLP152 T01170106=
201709130853 METAR KPAE 130853Z AUTO 31004KT 10SM FEW030 OVC060 12/11 A2999 RMK AO2 SLP153 T01220111 51002=
201709130753 METAR KPAE 130753Z AUTO 32003KT 10SM OVC065 13/11 A2998 RMK AO2 SLP151 T01280106 402110128=
201709130653 METAR KPAE 130653Z AUTO 34005KT 10SM BKN060 13/10 A2999 RMK AO2 SLP153 T01280100=
201709130553 METAR KPAE 130553Z AUTO 30007KT 10SM BKN060 14/10 A2998 RMK AO2 SLP150 T01390100 10211 20139 52005=
201709130453 METAR KPAE 130453Z AUTO 29004KT 10SM OVC050 14/12 A2997 RMK AO2 SLP149 T01440117=
201709130353 METAR KPAE 130353Z AUTO 33007KT 10SM OVC055 15/12 A2997 RMK AO2 SLP149 T01500122=
201709130253 METAR KPAE 130253Z 33005KT 10SM OVC070 16/13 A2996 RMK AO2 SLP146 T01560128 56004=
201709130153 METAR KPAE 130153Z 33004KT 10SM FEW070 17/13 A2997 RMK AO2 SLP147 T01720128=
201709130053 METAR KPAE 130053Z 32008KT 10SM CLR 19/13 A2997 RMK AO2 SLP147 T01890133=
201709122353 METAR KPAE 122353Z 31005KT 10SM CLR 21/13 A2998 RMK AO2 SLP149 T02060133 10206 20178 56011=
201709122253 METAR KPAE 122253Z 33008KT 10SM CLR 19/14 A2998 RMK AO2 SLP151 T01940139=
201709122153 METAR KPAE 122153Z 31008KT 10SM CLR 19/14 A3000 RMK AO2 SLP157 T01890144=
201709122053 METAR KPAE 122053Z 30006KT 10SM CLR 19/14 A3001 RMK AO2 SLP160 T01940139 55006=
201709121953 METAR KPAE 121953Z VRB05KT 10SM VCFG CLR 20/14 A3001 RMK AO2 SLP159 T02000139=
201709121853 METAR KPAE 121853Z 32009KT 10SM VCFG CLR 19/14 A3002 RMK AO2 SLP164 T01940139=
201709121753 METAR KPAE 121753Z 33006KT 10SM VCFG FEW032 18/14 A3003 RMK AO2 SLP168 T01780139 10178 20133 58001=
201709121724 SPECI KPAE 121724Z 34004KT 10SM SCT002 17/14 A3003 RMK AO2 T01720139=
201709121706 SPECI KPAE 121706Z VRB04KT 3SM R16R/3500VP6000FT BR OVC002 15/14 A3004 RMK AO2 T01500139=
201709121657 SPECI KPAE 121657Z 00000KT 2SM R16R/1800VP6000FT BR OVC002 14/14 A3003 RMK AO2 VIS 1 1/4V5 T01440139=
201709121653 METAR KPAE 121653Z 33003KT 1 1/4SM R16R/1800VP6000FT BR OVC001 14/14 A3003 RMK AO2 SLP169 T01440139=
201709121630 SPECI KPAE 121630Z 00000KT 1/2SM R16R/2800VP6000FT FG VV001 14/14 A3003 RMK AO2 T01390139=
201709121623 SPECI KPAE 121623Z 00000KT 1/4SM R16R/1800V4500FT FG VV001 14/14 A3003 RMK AO2 T01390139=
201709121553 METAR KPAE 121553Z 00000KT 1/4SM R16R/1000V1400FT FG VV001 14/14 A3003 RMK AO2 SLP168 T01390139=
201709121453 METAR KPAE 121453Z 34003KT M1/4SM R16R/0500V1000FT FG VV001 13/13 A3003 RMK AO2 SLP169 T01330133 53005=
201709121442 SPECI KPAE 121442Z 34003KT 1/4SM R16R/0800VP6000FT FG VV001 14/13 A3003 RMK AO2 T01390133=
201709121430 SPECI KPAE 121430Z 33003KT 1/2SM R16R/2200VP6000FT FG VV001 14/14 A3003 RMK AO2 T01390139=
201709121417 SPECI KPAE 121417Z 33004KT 3/4SM R16R/2200VP6000FT BR OVC002 14/14 A3003 RMK AO2 T01390139=
201709121353 METAR KPAE 121353Z 29003KT 8SM OVC002 14/14 A3003 RMK AO2 SLP166 T01440144=
201709121253 METAR KPAE 121253Z AUTO VRB03KT 3SM BR OVC001 15/15 A3002 RMK AO2 SLP161 T01500150=
201709121153 METAR KPAE 121153Z AUTO 34003KT 10SM OVC004 15/14 A3002 RMK AO2 SLP162 T01500144 10178 20150 57004=
201709121149 SPECI KPAE 121149Z AUTO 00000KT 10SM OVC004 15/14 A3002 RMK AO2=
201709121141 SPECI KPAE 121141Z AUTO VRB03KT 10SM BKN006 15/14 A3002 RMK AO2 T01500139=
201709121130 SPECI KPAE 121130Z AUTO 34003KT 10SM SCT006 15/14 A3002 RMK AO2 T01500139=
201709121053 METAR KPAE 121053Z AUTO 35004KT 10SM CLR 16/14 A3003 RMK AO2 SLP166 T01560139=
201709120953 METAR KPAE 120953Z AUTO VRB03KT 10SM CLR 15/13 A3003 RMK AO2 SLP166 T01500128=
201709120853 METAR KPAE 120853Z AUTO 35004KT 10SM CLR 16/13 A3003 RMK AO2 SLP166 T01610133 56006=
201709120753 METAR KPAE 120753Z AUTO 34004KT 10SM CLR 16/14 A3003 RMK AO2 SLP168 T01610139 402500106=
201709120653 METAR KPAE 120653Z AUTO 34005KT 10SM CLR 17/13 A3004 RMK AO2 SLP171 T01670128=
201709120553 METAR KPAE 120553Z AUTO VRB06KT 10SM CLR 17/13 A3005 RMK AO2 SLP174 T01670128 10250 20167 50001=
201709120453 METAR KPAE 120453Z AUTO 35005KT 10SM CLR 17/12 A3006 RMK AO2 SLP177 T01720122=
201709120353 METAR KPAE 120353Z AUTO 34005KT 10SM CLR 17/12 A3005 RMK AO2 SLP176 T01720117=
201709120253 METAR KPAE 120253Z 32008KT 10SM CLR 18/10 A3005 RMK AO2 SLP174 T01830100 56009=
201709120153 METAR KPAE 120153Z 31004KT 10SM CLR 22/09 A3005 RMK AO2 SLP176 T02170094=
201709120053 METAR KPAE 120053Z 29004KT 10SM CLR 24/09 A3007 RMK AO2 SLP179 T02440094=
201709112353 METAR KPAE 112353Z 00000KT 10SM CLR 25/09 A3008 RMK AO2 SLP182 T02500094 10250 20194 56014=
201709112253 METAR KPAE 112253Z 26004KT 10SM CLR 24/09 A3009 RMK AO2 SLP186 T02390089=
201709112153 METAR KPAE 112153Z VRB05KT 10SM CLR 25/08 A3010 RMK AO2 SLP190 T02500083=
201709112053 METAR KPAE 112053Z 35003KT 10SM CLR 23/07 A3012 RMK AO2 SLP197 T02330072 58014=
201709111953 METAR KPAE 111953Z VRB04KT 10SM CLR 22/09 A3014 RMK AO2 SLP203 T02170094=
201709111853 METAR KPAE 111853Z VRB04KT 10SM CLR 21/09 A3015 RMK AO2 SLP208 T02060089=
201709111753 METAR KPAE 111753Z 34005KT 10SM CLR 19/09 A3016 RMK AO2 SLP212 T01940089 10194 20106 56007=
201709111653 METAR KPAE 111653Z 34004KT 10SM CLR 17/09 A3017 RMK AO2 SLP215 T01670094=
201709111553 METAR KPAE 111553Z 35004KT 10SM CLR 14/11 A3017 RMK AO2 SLP217 T01440106=
201709111453 METAR KPAE 111453Z 35004KT 10SM CLR 13/11 A3018 RMK AO2 SLP220 T01280106 58007=
201709111353 METAR KPAE 111353Z 33003KT 10SM CLR 12/10 A3019 RMK AO2 SLP223 T01170100=
201709111253 METAR KPAE 111253Z AUTO 00000KT 10SM CLR 11/09 A3020 RMK AO2 SLP224 T01110094=
201709111153 METAR KPAE 111153Z AUTO 00000KT 10SM CLR 12/09 A3020 RMK AO2 SLP227 T01170094 10150 20111 58013=
201709111053 METAR KPAE 111053Z AUTO 00000KT 10SM CLR 12/09 A3022 RMK AO2 SLP232 T01170094=
201709110953 METAR KPAE 110953Z AUTO 00000KT 10SM CLR 12/10 A3023 RMK AO2 SLP235 T01220100=
201709110853 METAR KPAE 110853Z AUTO 32004KT 10SM CLR 12/11 A3024 RMK AO2 SLP240 T01220106 56005=
201709110753 METAR KPAE 110753Z AUTO 32003KT 10SM CLR 13/10 A3025 RMK AO2 SLP241 T01280100 402170117=
201709110653 METAR KPAE 110653Z AUTO 33004KT 10SM CLR 13/09 A3025 RMK AO2 SLP243 T01330094=
201709110553 METAR KPAE 110553Z AUTO 33003KT 10SM CLR 15/09 A3026 RMK AO2 SLP245 T01500094 10217 20150 58002=
201709110453 METAR KPAE 110453Z AUTO 32004KT 10SM CLR 16/08 A3026 RMK AO2 SLP247 T01560083=
201709110353 METAR KPAE 110353Z AUTO 33003KT 10SM CLR 17/08 A3027 RMK AO2 SLP248 T01670078=
201709110253 METAR KPAE 110253Z 32004KT 10SM CLR 17/08 A3026 RMK AO2 SLP247 T01720078 56008=
201709110153 METAR KPAE 110153Z 32005KT 10SM CLR 19/07 A3027 RMK AO2 SLP248 T01940067=
201709110053 METAR KPAE 110053Z 31005KT 10SM CLR 21/07 A3028 RMK AO2 SLP252 T02060067=
201709102353 METAR KPAE 102353Z VRB04KT 10SM CLR 21/08 A3029 RMK AO2 SLP255 T02060078 10211 20172 58010=
201709102253 METAR KPAE 102253Z 35006KT 10SM CLR 21/09 A3030 RMK AO2 SLP261 T02060089=
201709102153 METAR KPAE 102153Z VRB04KT 10SM CLR 20/08 A3031 RMK AO2 SLP263 T02000083=
201709102053 METAR KPAE 102053Z VRB04KT 10SM CLR 19/09 A3032 RMK AO2 SLP265 T01940094 58002=
201709101953 METAR KPAE 101953Z 26006KT 10SM CLR 18/11 A3032 RMK AO2 SLP268 T01830106=
201709101853 METAR KPAE 101853Z 00000KT 10SM CLR 18/10 A3032 RMK AO2 SLP267 T01780100=
201709101753 METAR KPAE 101753Z 33004KT 10SM FEW016 17/10 A3032 RMK AO2 SLP267 T01720100 10172 20117 51010=
201709101653 METAR KPAE 101653Z 36004KT 10SM CLR 16/11 A3032 RMK AO2 SLP266 T01610111=
201709101553 METAR KPAE 101553Z 35004KT 10SM CLR 14/12 A3031 RMK AO2 SLP261 T01440117=
201709101453 METAR KPAE 101453Z 33005KT 10SM CLR 13/12 A3029 RMK AO2 SLP258 T01280117 53015=
201709101353 METAR KPAE 101353Z VRB05KT 10SM FEW050 12/11 A3028 RMK AO2 SLP253 T01220111=
201709101253 METAR KPAE 101253Z AUTO 33003KT 10SM SCT050 12/11 A3026 RMK AO2 SLP248 T01170111=
201709101153 METAR KPAE 101153Z AUTO 32003KT 10SM CLR 12/11 A3025 RMK AO2 SLP243 70001 T01220111 10156 20122 50004=
201709101053 METAR KPAE 101053Z AUTO 34005KT 10SM CLR 13/12 A3025 RMK AO2 SLP243 T01280117=
201709100953 METAR KPAE 100953Z AUTO 33003KT 10SM CLR 13/12 A3024 RMK AO2 SLP239 T01280122=
201709100934 SPECI KPAE 100934Z AUTO 34003KT 10SM SCT001 BKN060 14/12 A3023 RMK AO2 T01390122=
201709100923 SPECI KPAE 100923Z AUTO 36004KT 5SM BR BKN001 OVC060 14/13 A3023 RMK AO2 T01390133=
201709100909 SPECI KPAE 100909Z AUTO 35004KT 5SM BR BKN003 OVC060 14/14 A3024 RMK AO2 T01390139=
201709100901 SPECI KPAE 100901Z AUTO 35004KT 7SM SCT003 OVC060 14/13 A3024 RMK AO2 T01390133=
201709100853 METAR KPAE 100853Z AUTO 36003KT 5SM R16R/3000VP6000FT BR BKN003 OVC055 14/13 A3024 RMK AO2 SLP239 T01390133 53016=
201709100850 SPECI KPAE 100850Z AUTO 34003KT 2SM R16R/2000VP6000FT BR BKN003 OVC055 14/13 A3024 RMK AO2=
201709100837 SPECI KPAE 100837Z AUTO 36003KT 3/4SM R16R/2600VP6000FT BR FEW001 OVC055 14/14 A3024 RMK AO2 T01390139=
201709100833 SPECI KPAE 100833Z AUTO 01003KT 2 1/2SM BR FEW001 OVC055 14/13 A3023 RMK AO2 T01390133=
201709100753 METAR KPAE 100753Z AUTO 00000KT 9SM OVC050 14/13 A3021 RMK AO2 SLP229 T01390128 401830128=
201709100653 METAR KPAE 100653Z AUTO 00000KT 10SM OVC050 14/13 A3020 RMK AO2 SLP225 T01440133=
201709100553 METAR KPAE 100553Z AUTO 16004KT 10SM OVC048 16/13 A3019 RMK AO2 SLP222 T01560133 10178 20150 53016=
201709100518 SPECI KPAE 100518Z AUTO 00000KT 10SM SCT026 OVC036 16/13 A3018 RMK AO2 T01560133=
201709100453 METAR KPAE 100453Z AUTO 13003KT 10SM BKN018 OVC025 15/13 A3017 RMK AO2 SLP216 T01500128=
201709100353 METAR KPAE 100353Z 16005KT 10SM OVC021 15/13 A3016 RMK AO2 SLP210 T01500128=
201709100253 METAR KPAE 100253Z 22008KT 10SM OVC021 16/13 A3014 RMK AO2 SLP206 T01560128 53016=
201709100153 METAR KPAE 100153Z 12005KT 10SM BKN026 OVC032 17/13 A3012 RMK AO2 SLP198 T01670128=
201709100100 SPECI KPAE 100100Z 12008KT 10SM BKN029 OVC034 17/12 A3011 RMK AO2 T01720122=
201709100053 METAR KPAE 100053Z 12007KT 10SM OVC031 17/12 A3011 RMK AO2 SLP194 T01720122=
201709092353 METAR KPAE 092353Z 12007KT 10SM OVC031 17/12 A3010 RMK AO2 SLP190 60001 T01720117 10183 20156 53007=
201709092253 METAR KPAE 092253Z 15010KT 10SM SCT034 BKN045 OVC075 18/11 A3008 RMK AO2 SLP183 T01780111=
201709092153 METAR KPAE 092153Z 12012KT 4SM HZ BKN039 OVC046 17/12 A3006 RMK AO2 RAE27 SLP179 P0001 T01670117=
201709092106 SPECI KPAE 092106Z 11008KT 4SM -RA SCT030 SCT035 OVC044 16/12 A3007 RMK AO2 P0000 T01560117=
201709092053 METAR KPAE 092053Z 12008KT 2SM -RA SCT030 OVC043 16/12 A3007 RMK AO2 RAB19 SLP183 P0000 60000 T01560122 53007=
201709092045 SPECI KPAE 092045Z 16013G19KT 2SM -RA SCT030 BKN036 OVC047 16/12 A3007 RMK AO2 RAB19 P0000 T01610122=
201709091953 METAR KPAE 091953Z 14011G19KT 10SM FEW023 OVC065 18/09 A3004 RMK AO2 SLP172 T01780094=
201709091853 METAR KPAE 091853Z 13014KT 10SM OVC065 17/10 A3004 RMK AO2 SLP172 T01670100=
201709091753 METAR KPAE 091753Z 15012KT 10SM BKN070 OVC085 16/11 A3005 RMK AO2 RAE11 SLP175 P0000 60000 T01610106 10161 20128 55002=
201709091653 METAR KPAE 091653Z 15011KT 10SM -RA SCT020 BKN080 OVC095 15/11 A3005 RMK AO2 RAB50 SLP174 P0000 T01500111=
201709091615 SPECI KPAE 091615Z 14008KT 10SM FEW021 OVC100 15/11 A3005 RMK AO2 T01500106=
201709091553 METAR KPAE 091553Z 00000KT 10SM BKN021 OVC100 14/11 A3005 RMK AO2 SLP175 T01440106=
201709091453 METAR KPAE 091453Z 00000KT 10SM BKN023 BKN055 OVC110 14/11 A3006 RMK AO2 SLP177 T01440106 53017=
201709091353 METAR KPAE 091353Z 00000KT 10SM FEW049 FEW120 13/11 A3003 RMK AO2 SLP169 T01330111=
201709091253 METAR KPAE 091253Z AUTO 00000KT 10SM CLR 14/11 A3002 RMK AO2 SLP163 T01390111=
201709091153 METAR KPAE 091153Z AUTO 00000KT 10SM SCT065 13/11 A3001 RMK AO2 SLP160 T01330106 10144 20128 53002=
201709091053 METAR KPAE 091053Z AUTO 02004KT 10SM OVC065 13/11 A3000 RMK AO2 SLP156 T01330111=
201709090953 METAR KPAE 090953Z AUTO 35004KT 10SM OVC070 13/11 A3000 RMK AO2 SLP157 T01330111=
201709090937 SPECI KPAE 090937Z AUTO 32004KT 10SM SCT020 OVC070 13/11 A3001 RMK AO2 T01330111=
201709090921 SPECI KPAE 090921Z AUTO 32005KT 10SM BKN019 OVC070 13/12 A3000 RMK AO2 T01330117=
201709090853 METAR KPAE 090853Z AUTO 35005KT 10SM FEW008 OVC070 13/12 A3000 RMK AO2 SLP158 T01330117 51011=
201709090825 SPECI KPAE 090825Z AUTO 34003KT 10SM SCT009 OVC070 13/12 A3000 RMK AO2 T01330122=
201709090801 SPECI KPAE 090801Z AUTO 34005KT 10SM OVC009 13/12 A3000 RMK AO2 T01330117=
201709090753 METAR KPAE 090753Z AUTO 34005KT 10SM BKN010 OVC017 13/12 A2999 RMK AO2 SLP156 T01330117 402000133=
201709090745 SPECI KPAE 090745Z AUTO 34006KT 10SM BKN010 OVC015 13/12 A2999 RMK AO2 T01330117=
201709090731 SPECI KPAE 090731Z AUTO 34004KT 10SM OVC015 14/12 A2999 RMK AO2 T01390117=
201709090653 METAR KPAE 090653Z AUTO 34005KT 10SM BKN013 OVC044 14/12 A2999 RMK AO2 SLP153 T01390117=
201709090632 SPECI KPAE 090632Z AUTO VRB05KT 10SM BKN014 OVC044 14/12 A2997 RMK AO2 T01440117=
201709090602 SPECI KPAE 090602Z AUTO VRB04KT 10SM BKN017 BKN025 OVC042 14/11 A2997 RMK AO2 T01440111=
201709090553 METAR KPAE 090553Z AUTO 34005KT 10SM SCT018 SCT035 OVC042 14/11 A2997 RMK AO2 SLP147 T01440111 10200 20144 51004=
201709090549 SPECI KPAE 090549Z AUTO 34005KT 10SM FEW018 SCT035 OVC042 14/11 A2997 RMK AO2=
201709090536 SPECI KPAE 090536Z AUTO 34006KT 10SM BKN018 BKN027 OVC035 15/12 A2997 RMK AO2 T01500122=
201709090528 SPECI KPAE 090528Z AUTO 33004KT 10SM SCT020 SCT027 OVC035 15/12 A2997 RMK AO2 T01500122=
201709090453 METAR KPAE 090453Z AUTO 34005KT 10SM SCT022 OVC028 16/14 A2997 RMK AO2 SLP146 T01560139=
201709090353 METAR KPAE 090353Z AUTO 35004KT 5SM BR OVC027 16/15 A2996 RMK AO2 SLP143 T01610150=
201709090253 METAR KPAE 090253Z 35004KT 5SM BR OVC022 17/16 A2996 RMK AO2 SLP143 T01670156 55000=
201709090241 SPECI KPAE 090241Z 31003KT 9SM BKN022 OVC031 17/16 A2995 RMK AO2 T01720156=
201709090153 METAR KPAE 090153Z 00000KT 8SM OVC033 18/16 A2996 RMK AO2 SLP143 T01780161=
201709090053 METAR KPAE 090053Z VRB03KT 8SM OVC031 19/16 A2995 RMK AO2 SLP141 T01890161=
201709082353 METAR KPAE 082353Z 22005KT 9SM SCT024 BKN037 19/16 A2996 RMK AO2 SLP142 T01940156 10200 20178 56006=
201709082253 METAR KPAE 082253Z 22004KT 10SM OVC021 19/15 A2997 RMK AO2 SLP145 T01940150=
201709082153 METAR KPAE 082153Z 20004KT 10SM OVC018 19/15 A2997 RMK AO2 SLP145 T01940150=
201709082053 METAR KPAE 082053Z 19004KT 9SM OVC016 19/16 A2998 RMK AO2 SLP148 T01940156 56004=
201709082051 SPECI KPAE 082051Z VRB04KT 9SM OVC016 19/16 A2998 RMK AO2=
201709082002 SPECI KPAE 082002Z 20003KT 7SM OVC006 19/16 A2998 RMK AO2 T01890156=
201709082000 SPECI KPAE 082000Z 00000KT 7SM OVC014 18/16 A2998 RMK AO2 T01830156=
201709081953 METAR KPAE 081953Z 22003KT 7SM OVC006 18/16 A2998 RMK AO2 SLP151 T01830156=
201709081908 SPECI KPAE 081908Z 26003KT 6SM HZ OVC006 18/16 A2999 RMK AO2 T01830156=
201709081900 SPECI KPAE 081900Z 00000KT 6SM HZ OVC011 18/16 A2999 RMK AO2 T01830156=
201709081853 METAR KPAE 081853Z 00000KT 6SM HZ OVC006 18/16 A2999 RMK AO2 SLP153 T01830156=
201709081753 METAR KPAE 081753Z 00000KT 6SM HZ OVC009 18/16 A2999 RMK AO2 SLP154 T01830156 10183 20156 51005=
201709081653 METAR KPAE 081653Z 00000KT 7SM OVC009 18/16 A2999 RMK AO2 SLP155 T01780156=
201709081553 METAR KPAE 081553Z 03003KT 6SM BR OVC009 17/15 A2998 RMK AO2 SLP151 T01670150=
201709081539 SPECI KPAE 081539Z 02004KT 6SM BR OVC009 17/15 A2998 RMK AO2 T01670150=
201709081453 METAR KPAE 081453Z 02003KT 5SM BR SCT011 OVC041 16/15 A2998 RMK AO2 SLP149 T01610150 51006=
201709081356 SPECI KPAE 081356Z 34003KT 6SM BR BKN008 OVC014 16/15 A2997 RMK AO2 T01610150=
201709081353 METAR KPAE 081353Z 35003KT 6SM BR SCT008 OVC014 16/15 A2997 RMK AO2 SLP148 T01610150=
201709081253 METAR KPAE 081253Z AUTO 33005KT 7SM OVC008 16/14 A2996 RMK AO2 SLP145 T01560144=
201709081209 SPECI KPAE 081209Z AUTO 34004KT 7SM FEW004 OVC009 16/15 A2996 RMK AO2 T01610150=
201709081153 METAR KPAE 081153Z AUTO 35004KT 7SM OVC010 16/15 A2996 RMK AO2 SLP142 T01610150 10189 20161 51002=
201709081053 METAR KPAE 081053Z AUTO 35005KT 8SM OVC010 16/15 A2996 RMK AO2 SLP142 T01610150=
201709081041 SPECI KPAE 081041Z AUTO 35005KT 8SM OVC009 16/15 A2996 RMK AO2 T01610150=
201709080953 METAR KPAE 080953Z AUTO 34006KT 8SM FEW004 OVC011 17/16 A2995 RMK AO2 SLP141 T01670156=
201709080917 SPECI KPAE 080917Z AUTO 35004KT 9SM BKN011 OVC020 17/16 A2995 RMK AO2 T01670156=
201709080853 METAR KPAE 080853Z AUTO 34004KT 9SM OVC019 17/16 A2995 RMK AO2 SLP140 T01720156 51005=
201709080753 METAR KPAE 080753Z AUTO 12003KT 10SM OVC021 18/16 A2995 RMK AO2 SLP139 T01830156 402170156=
201709080732 SPECI KPAE 080732Z AUTO 00000KT 10SM BKN021 BKN028 18/16 A2994 RMK AO2 T01780156=
201709080653 METAR KPAE 080653Z AUTO 00000KT 9SM CLR 18/16 A2994 RMK AO2 SLP137 T01780156=
201709080553 METAR KPAE 080553Z AUTO 00000KT 10SM CLR 17/16 A2994 RMK AO2 SLP135 T01720156 10189 20161 51015=
201709080453 METAR KPAE 080453Z AUTO 00000KT 9SM CLR 17/16 A2992 RMK AO2 SLP130 T01670156=
201709080353 METAR KPAE 080353Z 34003KT 10SM FU HZ CLR 17/15 A2991 RMK AO2 SLP125 T01670150=
201709080253 METAR KPAE 080253Z 34005KT 10SM FU HZ CLR 17/16 A2989 RMK AO2 SLP120 T01720156 58003=
201709080153 METAR KPAE 080153Z 35007KT 9SM FU HZ CLR 17/15 A2990 RMK AO2 SLP123 T01670150=
201709080053 METAR KPAE 080053Z 33006KT 10SM FU HZ CLR 17/15 A2990 RMK AO2 SLP123 T01720150=
201709072353 METAR KPAE 072353Z 33007KT 10SM FU HZ CLR 19/16 A2990 RMK AO2 SLP123 T01890156 10217 20183 55003=
201709072253 METAR KPAE 072253Z 21005KT 9SM FU HZ FEW029 21/15 A2990 RMK AO2 SLP123 T02110150=
201709072153 METAR KPAE 072153Z 24005KT 8SM FU HZ CLR 21/15 A2991 RMK AO2 SLP125 T02060150=
201709072053 METAR KPAE 072053Z VRB03KT 8SM FU HZ CLR 21/16 A2991 RMK AO2 SLP125 T02110156 58009=
201709071953 METAR KPAE 071953Z 00000KT 7SM FU HZ CLR 21/16 A2992 RMK AO2 SLP129 T02110156=
201709071853 METAR KPAE 071853Z 23004KT 6SM FU HZ CLR 19/16 A2994 RMK AO2 SLP134 T01940156=
201709071753 METAR KPAE 071753Z 26005KT 7SM FU HZ CLR 18/15 A2994 RMK AO2 SLP136 T01830150 10194 20156 53000=
201709071653 METAR KPAE 071653Z 00000KT 4SM FU HZ CLR 19/16 A2992 RMK AO2 SLP130 T01940156=
201709071553 METAR KPAE 071553Z VRB03KT 6SM FU HZ FEW065 19/16 A2992 RMK AO2 SLP129 T01890156=
201709071453 METAR KPAE 071453Z VRB03KT 7SM FU HZ CLR 18/15 A2994 RMK AO2 SLP134 T01830150 58004=
201709071353 METAR KPAE 071353Z 00000KT 6SM FU HZ FEW080 16/14 A2996 RMK AO2 SLP140 T01560144=
201709071253 METAR KPAE 071253Z AUTO 00000KT 8SM FU HZ OVC070 17/15 A2995 RMK AO2 SLP138 T01670150=
201709071153 METAR KPAE 071153Z AUTO 34003KT 8SM FU HZ OVC070 17/15 A2995 RMK AO2 SLP139 T01670150 10217 20167 58002=
201709071053 METAR KPAE 071053Z AUTO 33003KT 8SM FU HZ FEW080 17/15 A2996 RMK AO2 SLP141 T01670150=
201709070953 METAR KPAE 070953Z AUTO 34003KT 7SM FU HZ CLR 17/16 A2996 RMK AO2 SLP142 T01720156=
201709070853 METAR KPAE 070853Z AUTO 14005G14KT 10SM FU HZ CLR 21/17 A2996 RMK AO2 SLP140 T02060167 50002=
201709070753 METAR KPAE 070753Z AUTO 11008KT 060V130 9SM FU HZ BKN080 21/17 A2996 RMK AO2 SLP141 T02110167 402610172=
201709070653 METAR KPAE 070653Z AUTO 10004KT 7SM FU HZ OVC070 21/16 A2995 RMK AO2 SLP140 T02110161=
201709070553 METAR KPAE 070553Z AUTO 15004KT 7SM FU HZ OVC075 19/15 A2995 RMK AO2 SLP139 T01890150 10256 20189 53009=
201709070453 METAR KPAE 070453Z AUTO 00000KT 7SM FU HZ OVC070 20/15 A2993 RMK AO2 SLP133 T02000150=
201709070353 METAR KPAE 070353Z AUTO 36003KT 7SM FU HZ OVC060 21/15 A2992 RMK AO2 SLP129 T02060150=
201709070253 METAR KPAE 070253Z AUTO 31003KT 7SM FU HZ OVC060 23/16 A2992 RMK AO2 SLP130 T02330161 55006=
201709070153 METAR KPAE 070153Z 12006KT 4SM FU HZ BKN043 OVC055 25/16 A2992 RMK AO2 SLP130 T02500156=
201709070053 METAR KPAE 070053Z 21004KT 5SM FU HZ CLR 26/16 A2993 RMK AO2 SLP132 T02560161=
201709062353 METAR KPAE 062353Z 22006KT 5SM FU HZ OVC038 25/16 A2994 RMK AO2 SLP136 T02500161 10261 20228 53000=
201709062253 METAR KPAE 062253Z 22005KT 5SM FU HZ CLR 25/16 A2994 RMK AO2 SLP135 T02500156=
201709062153 METAR KPAE 062153Z 20008KT 5SM FU HZ BKN041 OVC050 26/16 A2994 RMK AO2 SLP135 T02560156=
201709062053 METAR KPAE 062053Z 21007KT 5SM FU HZ CLR 26/16 A2994 RMK AO2 SLP135 T02560156 55005=
201709061953 METAR KPAE 061953Z 20005KT 4SM FU HZ CLR 25/16 A2994 RMK AO2 SLP134 T02500156=
201709061853 METAR KPAE 061853Z 26003KT 4SM FU HZ CLR 23/16 A2995 RMK AO2 SLP137 T02330156=
201709061753 METAR KPAE 061753Z VRB03KT 6SM FU HZ OVC049 23/16 A2996 RMK AO2 SLP140 T02280156 10228 20172 58008=
201709061653 METAR KPAE 061653Z 16007KT 6SM FU HZ OVC049 21/15 A2997 RMK AO2 SLP146 T02110150=
201709061553 METAR KPAE 061553Z 14005KT 6SM FU HZ CLR 19/15 A2998 RMK AO2 SLP149 T01890150=
201709061453 METAR KPAE 061453Z 15006KT 6SM FU HZ OVC050 18/15 A2998 RMK AO2 SLP149 T01830150 53004=
201709061353 METAR KPAE 061353Z 15006KT 5SM FU HZ CLR 17/15 A2998 RMK AO2 SLP147 T01720150=
201709061253 METAR KPAE 061253Z AUTO 13008KT 7SM FU OVC055 19/15 A2997 RMK AO2 SLP146 T01890150=
201709061153 METAR KPAE 061153Z AUTO 13005KT 7SM FU OVC055 19/14 A2997 RMK AO2 SLP144 T01940144 10222 20178 50001=
201709061053 METAR KPAE 061053Z AUTO 13004KT 7SM FU OVC055 19/13 A2997 RMK AO2 SLP145 T01940133=
201709060953 METAR KPAE 060953Z AUTO 00000KT 8SM FU OVC060 19/13 A2997 RMK AO2 SLP143 T01940133=
201709060853 METAR KPAE 060853Z AUTO 00000KT 8SM FU OVC060 19/13 A2997 RMK AO2 SLP143 T01890128 53007=
201709060753 METAR KPAE 060753Z AUTO 00000KT 8SM FU OVC055 20/13 A2996 RMK AO2 SLP140 T02000128 403110194=
201709060653 METAR KPAE 060653Z AUTO 00000KT 8SM FU OVC055 21/13 A2995 RMK AO2 SLP137 T02110128=
201709060553 METAR KPAE 060553Z AUTO 00000KT 8SM FU OVC050 22/13 A2994 RMK AO2 SLP135 T02220133 10261 20211 51010=
201709060453 METAR KPAE 060453Z AUTO 00000KT 9SM FU OVC048 22/13 A2994 RMK AO2 SLP133 T02220133=
201709060353 METAR KPAE 060353Z AUTO 33004KT 5SM HZ FU OVC045 23/13 A2994 RMK AO2 SLP134 T02280128=
201709060304 SPECI KPAE 060304Z 00000KT 5SM HZ FU OVC044 23/13 A2992 RMK AO2 T02330133=
201709060253 METAR KPAE 060253Z 32004KT 2SM HZ FU OVC044 23/13 A2991 RMK AO2 SLP126 T02330133 55002=
201709060153 METAR KPAE 060153Z 33003KT 2SM HZ FU OVC041 25/13 A2990 RMK AO2 SLP120 T02500133=
201709060053 METAR KPAE 060053Z 35003KT 2SM HZ FU OVC037 26/13 A2990 RMK AO2 SLP121 T02560128=
201709060000 SPECI KPAE 060000Z 30005KT 6SM HZ FU OVC037 26/14 A2992 RMK AO2 T02610139=
201709052353 METAR KPAE 052353Z 29006KT 2SM HZ FU CLR 27/14 A2992 RMK AO2 SLP127 T02670139 10311 20256 58008=
201709052253 METAR KPAE 052253Z 34005KT 2SM HZ FU OVC038 26/13 A2993 RMK AO2 SLP130 T02610133=
201709052153 METAR KPAE 052153Z 33005KT 2SM HZ FU OVC040 27/14 A2994 RMK AO2 SLP135 T02720139=
201709052053 METAR KPAE 052053Z 26006KT 2SM HZ FU BKN032 OVC041 29/14 A2994 RMK AO2 SLP135 T02890139 53004=
201709051953 METAR KPAE 051953Z 26006KT 2SM HZ FU SCT030 OVC037 29/13 A2993 RMK AO2 SLP131 T02890128=
201709051853 METAR KPAE 051853Z 00000KT 2SM HZ FU BKN030 OVC038 29/13 A2993 RMK AO2 SLP131 T02890133=
201709051753 METAR KPAE 051753Z 35003KT 2SM HZ FU BKN035 BKN050 OVC060 27/13 A2993 RMK AO2 SLP131 T02670133 10267 20206 50005=
201709051656 SPECI KPAE 051656Z 35004KT 2SM HZ FU BKN035 OVC050 23/13 A2994 RMK AO2 T02330128=
201709051653 METAR KPAE 051653Z 36004KT 5SM HZ FU OVC030 23/13 A2994 RMK AO2 SLP133 T02330128=
201709051600 SPECI KPAE 051600Z 33003KT 5SM HZ FU OVC030 22/13 A2993 RMK AO2 T02220133=
201709051553 METAR KPAE 051553Z 32004KT 3SM HZ FU OVC020 22/13 A2993 RMK AO2 SLP132 T02170133=
201709051507 SPECI KPAE 051507Z 33005KT 3SM HZ FU OVC020 21/14 A2992 RMK AO2 T02060144=
201709051500 SPECI KPAE 051500Z 33004KT 10SM FU OVC055 21/14 A2992 RMK AO2 T02060144=
201709051453 METAR KPAE 051453Z 33004KT 3SM HZ FU OVC020 21/14 A2992 RMK AO2 SLP128 T02060144 53001=
201709051353 METAR KPAE 051353Z 35005KT 3SM HZ FU OVC050 21/14 A2991 RMK AO2 SLP124 T02110144=
201709051253 METAR KPAE 051253Z AUTO 36003KT 10SM OVC055 22/14 A2990 RMK AO2 SLP121 T02170144=
201709051153 METAR KPAE 051153Z AUTO 33003KT 10SM OVC055 21/14 A2991 RMK AO2 SLP126 T02060144 10228 20194 56002=
201709051053 METAR KPAE 051053Z AUTO VRB03KT 10SM OVC060 20/14 A2991 RMK AO2 SLP126 T02000144=
201709050953 METAR KPAE 050953Z AUTO 34004KT 10SM OVC060 21/14 A2992 RMK AO2 SLP127 T02110139=
201709050853 METAR KPAE 050853Z AUTO 33004KT 10SM OVC065 22/13 A2992 RMK AO2 SLP127 T02170133 53002=
201709050753 METAR KPAE 050753Z AUTO 32004KT 10SM OVC070 21/13 A2991 RMK AO2 SLP126 T02110133 402780172=
201709050653 METAR KPAE 050653Z AUTO 31003KT 10SM OVC060 22/13 A2991 RMK AO2 SLP123 T02170133=
201709050553 METAR KPAE 050553Z AUTO 33003KT 10SM OVC065 22/14 A2991 RMK AO2 SLP125 T02170139 10278 20217 58004=
201709050453 METAR KPAE 050453Z AUTO 35003KT 10SM OVC070 23/13 A2992 RMK AO2 SLP128 T02330133=
201709050353 METAR KPAE 050353Z 32003KT 10SM OVC060 23/13 A2993 RMK AO2 SLP132 T02280133=
201709050253 METAR KPAE 050253Z 00000KT 10SM OVC070 24/13 A2993 RMK AO2 SLP131 T02390133 56013=
201709050153 METAR KPAE 050153Z 00000KT 10SM OVC055 25/13 A2993 RMK AO2 SLP133 T02500133=
201709050053 METAR KPAE 050053Z 32005KT 10SM OVC050 27/14 A2995 RMK AO2 SLP136 T02670139=
201709042353 METAR KPAE 042353Z 32006KT 10SM BKN047 27/14 A2997 RMK AO2 SLP143 T02720139 10278 20239 58018=
201709042253 METAR KPAE 042253Z 33006KT 10SM OVC049 28/14 A2999 RMK AO2 SLP150 T02780139=
201709042153 METAR KPAE 042153Z 33008KT 10SM OVC050 27/14 A3001 RMK AO2 SLP157 T02720139=
201709042053 METAR KPAE 042053Z 32006KT 10SM BKN055 27/14 A3002 RMK AO2 SLP162 T02670144 56015=
201709041953 METAR KPAE 041953Z 33008KT 10SM BKN060 25/14 A3003 RMK AO2 SLP166 T02500144=
201709041853 METAR KPAE 041853Z 32008KT 10SM CLR 24/16 A3005 RMK AO2 SLP173 T02440156=
201709041753 METAR KPAE 041753Z 32007KT 10SM CLR 24/15 A3007 RMK AO2 SLP178 T02390150 10239 20172 58004=
201709041653 METAR KPAE 041653Z 33007KT 10SM CLR 21/16 A3007 RMK AO2 SLP181 T02110156=
201709041553 METAR KPAE 041553Z 32007KT 10SM CLR 19/14 A3008 RMK AO2 SLP182 T01940144=
201709041453 METAR KPAE 041453Z 35004KT 10SM CLR 18/14 A3008 RMK AO2 SLP182 T01780139 53004=
201709041353 METAR KPAE 041353Z 33004KT 10SM CLR 18/13 A3007 RMK AO2 SLP181 T01780128=
201709041253 METAR KPAE 041253Z AUTO 35003KT 10SM CLR 18/12 A3007 RMK AO2 SLP177 T01830122=
201709041153 METAR KPAE 041153Z AUTO 33003KT 10SM CLR 18/13 A3007 RMK AO2 SLP177 T01780128 10200 20178 58003=
201709041053 METAR KPAE 041053Z AUTO 35003KT 10SM CLR 18/13 A3007 RMK AO2 SLP179 T01830128=
201709040953 METAR KPAE 040953Z AUTO 33003KT 10SM CLR 19/13 A3008 RMK AO2 SLP181 T01940133=
201709040853 METAR KPAE 040853Z AUTO 00000KT 10SM CLR 19/13 A3008 RMK AO2 SLP180 T01890133 51005=
201709040753 METAR KPAE 040753Z AUTO 33004KT 10SM CLR 20/13 A3007 RMK AO2 SLP180 T02000133 403000167=
201709040653 METAR KPAE 040653Z AUTO 32007KT 10SM CLR 20/13 A3007 RMK AO2 SLP177 T02000133=
201709040553 METAR KPAE 040553Z AUTO 32006KT 10SM CLR 20/13 A3006 RMK AO2 SLP176 T02000133 10289 20200 51010=
201709040453 METAR KPAE 040453Z AUTO 33006KT 10SM CLR 21/14 A3005 RMK AO2 SLP174 T02060139=
201709040353 METAR KPAE 040353Z AUTO 32003KT 10SM CLR 22/15 A3004 RMK AO2 SLP170 T02170150=
201709040253 METAR KPAE 040253Z 33005KT 10SM CLR 23/15 A3003 RMK AO2 SLP166 T02330150 55001=
201709040153 METAR KPAE 040153Z 32005KT 10SM CLR 26/15 A3002 RMK AO2 SLP164 T02610150=
201709040053 METAR KPAE 040053Z 31005KT 10SM CLR 28/14 A3003 RMK AO2 SLP164 T02780139=
201709032353 METAR KPAE 032353Z VRB04KT 10SM CLR 29/13 A3004 RMK AO2 SLP166 T02890133 10300 20228 56005=
201709032253 METAR KPAE 032253Z VRB04KT 10SM CLR 30/14 A3004 RMK AO2 SLP167 T03000139=
201709032153 METAR KPAE 032153Z 30006KT 10SM CLR 28/14 A3004 RMK AO2 SLP170 T02830139=
201709032053 METAR KPAE 032053Z 32007KT 10SM CLR 28/14 A3005 RMK AO2 SLP172 T02830139 58001=
201709031953 METAR KPAE 031953Z 34007KT 10SM CLR 27/14 A3005 RMK AO2 SLP173 T02670139=
201709031853 METAR KPAE 031853Z 33007KT 10SM CLR 25/14 A3005 RMK AO2 SLP173 T02500139=
201709031753 METAR KPAE 031753Z 33007KT 310V010 10SM CLR 23/14 A3006 RMK AO2 SLP174 T02280139 10233 20167 52010=
201709031653 METAR KPAE 031653Z 33005KT 10SM CLR 21/16 A3005 RMK AO2 SLP172 T02060156=
201709031553 METAR KPAE 031553Z 33004KT 10SM CLR 18/16 A3003 RMK AO2 SLP167 T01830156=
201709031453 METAR KPAE 031453Z 34003KT 10SM CLR 17/16 A3002 RMK AO2 SLP165 T01720156 53008=
201709031353 METAR KPAE 031353Z 00000KT 10SM CLR 17/14 A3001 RMK AO2 SLP159 T01720144=
201709031253 METAR KPAE 031253Z AUTO 32003KT 10SM CLR 17/16 A3001 RMK AO2 SLP158 T01670156=
201709031153 METAR KPAE 031153Z AUTO 33005KT 10SM CLR 18/16 A3000 RMK AO2 SLP154 T01830156 10217 20183 58000=
201709031053 METAR KPAE 031053Z AUTO 33006KT 10SM CLR 19/16 A3000 RMK AO2 SLP156 T01940156=
201709030953 METAR KPAE 030953Z AUTO 34003KT 10SM CLR 19/16 A3000 RMK AO2 SLP155 T01940156=
201709030853 METAR KPAE 030853Z AUTO 34003KT 10SM CLR 19/16 A3000 RMK AO2 SLP154 T01940156 53001=
201709030753 METAR KPAE 030753Z AUTO 35005KT 10SM CLR 20/16 A2999 RMK AO2 SLP153 T02000156 402940144=
201709030653 METAR KPAE 030653Z AUTO 35005KT 10SM CLR 21/16 A2999 RMK AO2 SLP152 T02110156=
201709030553 METAR KPAE 030553Z AUTO 03004KT 10SM CLR 22/16 A3000 RMK AO2 SLP155 T02170161 10283 20206 51005=
201709030453 METAR KPAE 030453Z AUTO 35004KT 10SM CLR 21/16 A2999 RMK AO2 SLP154 T02060161=
201709030353 METAR KPAE 030353Z AUTO 33007G15KT 10SM CLR 21/17 A2999 RMK AO2 SLP153 T02060167=
201709030253 METAR KPAE 030253Z 35006KT 10SM CLR 21/17 A2998 RMK AO2 SLP151 T02110167 55002=
201709030153 METAR KPAE 030153Z 32007KT 10SM CLR 24/13 A2998 RMK AO2 SLP149 T02390128=
201709030053 METAR KPAE 030053Z 33007KT 10SM CLR 27/12 A2998 RMK AO2 SLP150 T02720117=
201709022353 METAR KPAE 022353Z 33009KT 10SM CLR 28/11 A2999 RMK AO2 SLP151 T02830111 10294 20217 56011=
201709022253 METAR KPAE 022253Z 32008G15KT 10SM CLR 28/08 A2999 RMK AO2 SLP153 T02830083=
201709022153 METAR KPAE 022153Z VRB06KT 10SM CLR 29/09 A3001 RMK AO2 SLP158 T02890089=
201709022053 METAR KPAE 022053Z 33007KT 300V360 10SM CLR 28/08 A3002 RMK AO2 SLP162 T02830083 58009=
201709021953 METAR KPAE 021953Z VRB03KT 10SM CLR 27/07 A3003 RMK AO2 SLP166 T02670072=
201709021853 METAR KPAE 021853Z 33006KT 10SM CLR 25/09 A3004 RMK AO2 SLP169 T02500089=
201709021753 METAR KPAE 021753Z 32005KT 10SM CLR 22/11 A3005 RMK AO2 SLP173 T02170111 10222 20144 51003=
201709021653 METAR KPAE 021653Z VRB04KT 10SM CLR 22/11 A3005 RMK AO2 SLP171 T02170111=
201709021553 METAR KPAE 021553Z 36003KT 10SM CLR 20/11 A3005 RMK AO2 SLP171 T02000111=
201709021453 METAR KPAE 021453Z 00000KT 10SM CLR 17/11 A3004 RMK AO2 SLP170 T01720106 53001=
201709021353 METAR KPAE 021353Z 00000KT 10SM CLR 15/10 A3003 RMK AO2 SLP168 T01500100=
201709021253 METAR KPAE 021253Z AUTO 33003KT 10SM CLR 15/09 A3004 RMK AO2 SLP168 T01500094=
201709021153 METAR KPAE 021153Z AUTO 05004KT 10SM CLR 17/09 A3004 RMK AO2 SLP168 T01670094 10178 20161 58002=
201709021053 METAR KPAE 021053Z VRB03KT 10SM CLR 17/11 A3004 RMK AO2 SLP169 T01670106=
201709020953 METAR KPAE 020953Z 33004KT 10SM CLR 17/11 A3004 RMK AO2 SLP170 T01720106=
201709020853 METAR KPAE 020853Z 32003KT 10SM CLR 17/11 A3004 RMK AO2 SLP170 T01720106 58006=
201709020753 METAR KPAE 020753Z 36004KT 10SM CLR 17/08 A3006 RMK AO2 SLP175 T01720078 402560128=
201709020653 METAR KPAE 020653Z 00000KT 10SM CLR 17/08 A3006 RMK AO2 SLP177 T01720078=
201709020553 METAR KPAE 020553Z 32006KT 10SM CLR 17/09 A3006 RMK AO2 SLP177 T01720094 10256 20172 51002=
201709020453 METAR KPAE 020453Z 34006KT 10SM CLR 18/09 A3006 RMK AO2 SLP177 T01780089=
201709020353 METAR KPAE 020353Z VRB05KT 10SM CLR 19/08 A3006 RMK AO2 SLP177 T01940083=
201709020253 METAR KPAE 020253Z 32004KT 10SM CLR 21/11 A3005 RMK AO2 SLP175 T02060106 56010=
201709020153 METAR KPAE 020153Z 30005KT 10SM CLR 24/08 A3007 RMK AO2 SLP179 T02390083=
201709020053 METAR KPAE 020053Z VRB05KT 10SM CLR 24/09 A3007 RMK AO2 SLP181 T02440089=
201709012353 METAR KPAE 012353Z VRB04KT 10SM CLR 26/10 A3009 RMK AO2 SLP186 T02560100 10256 20194 56019=
201709012253 METAR KPAE 012253Z 33006KT 10SM CLR 24/09 A3010 RMK AO2 SLP191 T02440094=
201709012153 METAR KPAE 012153Z VRB06KT 10SM CLR 24/08 A3012 RMK AO2 SLP197 T02440083=
201709012053 METAR KPAE 012053Z 25005KT 10SM CLR 23/09 A3014 RMK AO2 SLP205 T02330094 56014=
201709011953 METAR KPAE 011953Z VRB05KT 10SM CLR 23/10 A3015 RMK AO2 SLP209 T02280100=
201709011853 METAR KPAE 011853Z 33006KT 10SM CLR 21/10 A3017 RMK AO2 SLP214 T02060100=
201709011753 METAR KPAE 011753Z VRB04KT 10SM CLR 19/10 A3018 RMK AO2 SLP220 T01940100 10194 20133 50001=
201709011653 METAR KPAE 011653Z 33005KT 10SM CLR 17/08 A3019 RMK AO2 SLP223 T01720083=
201709011553 METAR KPAE 011553Z 34004KT 10SM CLR 16/08 A3019 RMK AO2 SLP221 T01610083=
201709011453 METAR KPAE 011453Z 35005KT 10SM CLR 15/08 A3018 RMK AO2 SLP219 T01500083 53007=
201709011353 METAR KPAE 011353Z 00000KT 10SM CLR 14/09 A3017 RMK AO2 SLP216 T01390089=
201709011253 METAR KPAE 011253Z AUTO 02003KT 10SM CLR 13/09 A3016 RMK AO2 SLP211 T01330094=
201709011153 METAR KPAE 011153Z AUTO 34003KT 10SM CLR 13/09 A3016 RMK AO2 SLP211 T01330094 10144 20128 55001=
201709011053 METAR KPAE 011053Z AUTO 34004KT 10SM CLR 13/09 A3015 RMK AO2 SLP210 T01330094=
201709010953 METAR KPAE 010953Z AUTO 34005KT 10SM CLR 13/10 A3016 RMK AO2 SLP211 T01330100=
201709010853 METAR KPAE 010853Z AUTO 34005KT 10SM CLR 14/10 A3016 RMK AO2 SLP212 T01390100 56005=
201709010753 METAR KPAE 010753Z AUTO 35005KT 10SM CLR 14/10 A3016 RMK AO2 SLP213 T01390100 402170139=
201709010653 METAR KPAE 010653Z AUTO 33004KT 10SM CLR 14/09 A3016 RMK AO2 SLP212 T01440089=
201709010553 METAR KPAE 010553Z AUTO 34008KT 10SM CLR 14/09 A3017 RMK AO2 SLP217 T01390094 10211 20139 50008=
201709010453 METAR KPAE 010453Z AUTO 34007KT 10SM CLR 14/12 A3018 RMK AO2 SLP217 T01440122=
201709010353 METAR KPAE 010353Z AUTO 33005KT 10SM CLR 16/11 A3016 RMK AO2 SLP213 T01560111=
201709010253 METAR KPAE 010253Z 32004KT 10SM CLR 18/11 A3015 RMK AO2 SLP209 T01780106 55001=
201709010153 METAR KPAE 010153Z 32007KT 10SM CLR 19/12 A3015 RMK AO2 SLP206 T01940117=
201709010053 METAR KPAE 010053Z 31005KT 10SM CLR 21/12 A3015 RMK AO2 SLP207 T02060117=

# No short TAF reports from KPAE in databse.

###################################
#  large TAF from KPAE
###################################
201709302320 TAF KPAE 302320Z 0100/0124 VRB05KT P6SM VCSH SCT020 BKN035
                      TEMPO 0100/0104 5SM SHRA BR BKN020 OVC035
                       FM010800 18006KT P6SM BKN020 FM011700 30006KT
                       P6SM SCT030=
201709302102 KPAE 302102Z 3021/0118 VRB05KT P6SM VCSH SCT020 BKN035
                      TEMPO 0100/0104 5SM SHRA BR BKN020 OVC035
                       FM010800 18006KT P6SM BKN020 FM011700 30006KT
                       P6SM SCT030=
201709301720 TAF KPAE 301720Z 3018/0118 22008KT P6SM SCT020 BKN040
                      TEMPO 3018/3022 BKN020 FM010800 18006KT P6SM
                       BKN020 FM011700 30006KT P6SM SCT030=
201709301120 TAF KPAE 301120Z 3012/0112 12004KT P6SM OVC080 FM301400 17007KT
                       P6SM VCSH OVC019 FM301800 21007KT P6SM VCSH
                       BKN020 BKN040 FM302100 31005KT P6SM VCSH
                       SCT020 BKN040 FM010400 VRB03KT P6SM OVC015=
201709300529 TAF KPAE 300529Z 3006/0106 05005KT P6SM OVC035 FM301000 15007KT
                       P6SM OVC035 FM301600 18008KT P6SM OVC015
                       FM301800 20007KT P6SM BKN020 FM302000 24005KT
                       P6SM VCSH SCT020 BKN045=
201709292320 TAF KPAE 292320Z 3000/3024 27012G20KT P6SM VCSH BKN035
                      TEMPO 3000/3004 4SM -SHRA BKN020 FM300500
                       VRB05KT P6SM VCSH BKN040 FM301000 18006KT
                       P6SM BKN020 FM301800 23006KT P6SM SCT025
                       BKN050=
201709291720 TAF KPAE 291720Z 2918/3018 14012G20KT P6SM SCT015 BKN035 OVC080
                       TEMPO 2918/2922 -RA BKN015 OVC030 FM292200
                       20012G20KT P6SM VCSH SCT025 BKN050 FM300000
                       VRB06KT P6SM -SHRA BKN015 BKN030 FM300500
                       18007KT P6SM VCSH BKN020 BKN040=
201709291120 TAF KPAE 291120Z 2912/3012 13012KT P6SM SCT150 OVC250 FM291600
                       16008KT 5SM -RA OVC035 FM291800 18011KT
                       5SM -RA OVC009 FM292100 19011G17KT P6SM
                       VCSH BKN020 BKN040 FM301000 16008KT P6SM
                       VCSH BKN020 BKN040=
201709290527 TAF KPAE 290527Z 2906/3006 36003KT P6SM SKC FM290900 15005KT P6SM
                       BKN250 FM291400 17008KT P6SM OVC035 FM291600
                       18013KT 4SM -RA OVC006 FM292200 19014G20KT
                       P6SM VCSH BKN020 BKN035=
201709282320 TAF KPAE 282320Z 2900/2924 24010KT P6SM SKC FM290200 18008KT P6SM
                       SKC FM290800 18008KT P6SM BKN100 FM291100
                       18008KT P6SM BKN050 OVC080 FM291400 18008KT
                       P6SM -RA BKN015 OVC030 FM292000 19014KT
                       P6SM BKN025 OVC040=
201709281732 TAF KPAE 281732Z 2818/2918 VRB03KT P6SM SKC FM282000 24006KT P6SM
                       SKC FM290200 18007KT P6SM SKC FM290800 18008KT
                       P6SM BKN100 FM291100 18008KT P6SM BKN050
                       OVC080 FM291400 18008KT P6SM -RA BKN025
                       OVC050=
201709281120 TAF KPAE 281120Z 2812/2912 08006KT P6SM SKC FM282100 21007KT P6SM
                       SKC=
201709280531 TAF KPAE 280531Z 2806/2906 00000KT P6SM SKC FM282100 21007KT P6SM
                       SKC=
201709272320 TAF KPAE 272320Z 2800/2824 33007KT P6SM SKC FM280300 02005KT P6SM
                       SKC FM282100 21007KT P6SM SKC=
201709271720 TAF KPAE 271720Z 2718/2818 35007KT P6SM SKC FM280300 18004KT P6SM
                       SKC FM281500 15007KT P6SM SKC=
201709271552 KPAE 271552Z 2716/2812 33004KT P6SM SCT004
                      TEMPO 2716/2717 1/2SM FG BKN001 FM271800
                       35007KT P6SM SKC=
201709271120 TAF KPAE 271120Z 2712/2812 02004KT P6SM SCT004
                      TEMPO 2712/2716 1/2SM FG BKN001 FM271800
                       35007KT P6SM SKC=
201709270520 TAF KPAE 270520Z 2706/2806 03005KT P6SM SKC FM271200 VRB03KT P6SM
                       VCFG FEW006 FM271300 VRB03KT 2SM BR BKN006
                       FM271700 36006KT 4SM BR SCT008 FM271800
                       01007KT P6SM SKC=
201709262320 TAF KPAE 262320Z 2700/2724 33007KT P6SM SKC FM270300 03005KT P6SM
                       SKC FM271200 VRB03KT P6SM VCFG FEW006 FM271300
                       VRB03KT 2SM BR BKN006 FM271700 36006KT 4SM
                       BR SCT008 FM271800 01007KT P6SM SKC=
201709261809 KPAE 261809Z 2618/2718 VRB03KT P6SM FEW002 SCT200
                      TEMPO 2618/2619 4SM BR FM261900 34005KT P6SM
                       SCT200 FM270000 36006KT P6SM FEW200 FM270300
                       03005KT P6SM SKC FM271400 VRB03KT P6SM VCFG
                       FEW005=
201709261720 TAF KPAE 261720Z 2618/2718 34005KT P6SM FEW005 SCT030 SCT200
                      TEMPO 2618/2619 1SM BR BKN002 FM261900 34006KT
                       P6SM SCT030 SCT200 FM270000 36007KT P6SM
                       FEW200 FM270300 03005KT P6SM SKC FM271400
                       VRB03KT P6SM VCFG FEW005=
201709261701 KPAE 261701Z 2617/2712 34004KT P6SM VCFG SCT002 SCT030 BKN200
                      TEMPO 2617/2618 1/2SM FG VV002 FM262000 34006KT
                       P6SM SCT005 SCT200 FM270000 36007KT P6SM
                       FEW200 FM270300 03005KT P6SM SKC=
201709261559 KPAE 261559Z 2616/2712 34004KT P6SM VCFG SCT002 SCT030 BKN200
                      TEMPO 2616/2617 1SM BR OVC002 FM261900 34006KT
                       P6SM FEW040 SCT200 FM270000 36007KT P6SM
                       FEW200 FM270300 03005KT P6SM SKC=
201709261418 KPAE 261418Z 2614/2712 34004KT P6SM SCT030 BKN200
                      TEMPO 2614/2616 1SM BR BKN001 BKN025 FM261900
                       34007KT P6SM FEW040 SCT200 FM270000 36009KT
                       P6SM FEW200 FM270300 03005KT P6SM SKC=
201709261123 TAF KPAE 261123Z 2612/2712 06004KT P6SM BKN030 BKN200
                      TEMPO 2612/2616 SCT011 BKN025 FM261900 34007KT
                       P6SM FEW040 SCT200 FM270000 36009KT P6SM
                       FEW200 FM270300 03005KT P6SM SKC=
201709260908 KPAE 260908Z 2609/2706 VRB03KT P6SM FEW030 SCT080
                      TEMPO 2612/2616 SCT012 BKN030 FM262000 35005KT
                       P6SM FEW035 SCT200=
201709260520 TAF KPAE 260520Z 2606/2706 VRB03KT P6SM BKN030 OVC070 FM261000
                       VRB02KT P6SM BKN010 BKN030 FM262000 35005KT
                       P6SM FEW035 SCT200=
201709252329 TAF KPAE 252329Z 2600/2624 21007KT P6SM FEW022 BKN070 OVC110 FM260200
                       VRB02KT P6SM FEW022 SCT070 BKN110 FM261000
                       VRB02KT P6SM BKN010 BKN030 FM261300 VRB02KT
                       5SM BR OVC007 FM261800 35005KT P6SM BKN010
                       BKN030 FM262000 35005KT P6SM FEW035 SCT250=
201709252104 KPAE 252104Z 2521/2618 22007KT P6SM VCSH SCT022 OVC070
                      TEMPO 2521/2524 -RA BKN022 OVC070 FM260200
                       17004KT P6SM FEW022 BKN050 OVC100 FM260900
                       VRB02KT P6SM SCT010 OVC030 FM261200 VRB02KT
                       P6SM OVC010=
201709251943 KPAE 251943Z 2520/2618 22005KT P6SM -RA SCT018 OVC070
                      TEMPO 2520/2524 BKN018 OVC070 FM260200 17004KT
                       P6SM FEW022 BKN050 OVC100 FM260900 VRB02KT
                       P6SM SCT010 OVC030 FM261200 VRB02KT P6SM
                       OVC010=
201709251729 TAF KPAE 251729Z 2518/2618 21005KT P6SM -RA FEW008 OVC050 FM260200
                       17004KT P6SM FEW022 BKN050 OVC100 FM260900
                       VRB02KT P6SM SCT010 OVC030 FM261200 VRB02KT
                       P6SM OVC010=
201709251433 KPAE 251433Z 2515/2612 17004KT P6SM -RA FEW022 OVC050 FM251800
                       22005KT P6SM VCSH SCT025 BKN050 OVC070 FM252100
                       23006KT P6SM VCSH BKN030 OVC050 FM260300
                       20004KT P6SM SCT030 OVC050=
201709251120 TAF KPAE 251120Z 2512/2612 18003KT P6SM SCT050 BKN070 OVC100 FM251500
                       22005KT P6SM VCSH SCT025 BKN050 OVC070 FM252100
                       23006KT P6SM VCSH BKN030 OVC050 FM260300
                       20004KT P6SM SCT030 OVC050=
201709250520 TAF KPAE 250520Z 2506/2606 02003KT P6SM BKN070 BKN150 FM251200
                       18003KT P6SM SCT015 BKN050 OVC100 FM251500
                       22005KT P6SM VCSH BKN015 OVC050 FM252100
                       23006KT P6SM VCSH BKN030 OVC050 FM260300
                       20004KT P6SM SCT030 OVC050=
201709242328 TAF KPAE 242328Z 2500/2524 VRB05KT P6SM FEW045 BKN110 BKN200 FM250200
                       VRB03KT P6SM BKN110 OVC200 FM250900 VRB03KT
                       P6SM SCT050 OVC100 FM251200 17005KT P6SM
                       SCT007 BKN050 OVC100
                      TEMPO 2514/2518 BKN007 OVC050 FM251800 20007KT
                       P6SM BKN012 OVC050
                      PROB30 2518/2524 -RA=
201709242112 KPAE 242112Z 2421/2518 VRB05KT P6SM FEW045 SCT120 SCT200
                      TEMPO 2421/2424 FEW045 BKN120 BKN200 FM250200
                       VRB03KT P6SM BKN120 OVC200 FM250900 VRB03KT
                       P6SM SCT050 OVC100 FM251200 17005KT P6SM
                       SCT007 BKN050 OVC100
                      TEMPO 2514/2518 BKN007 OVC050=
201709241727 TAF KPAE 241727Z 2418/2518 VRB03KT P6SM VCFG FEW005 SCT050 BKN200
                       FM241900 33004KT P6SM SCT050 SCT120 BKN200
                       FM250200 VRB03KT P6SM BKN120 OVC200 FM250900
                       VRB03KT P6SM SCT050 OVC100 FM251200 17005KT
                       P6SM SCT007 BKN050 OVC100
                      TEMPO 2514/2518 BKN007 OVC050=
201709241502 KPAE 241502Z 2415/2512 VRB03KT 2SM BR BKN003 BKN200
                      TEMPO 2415/2418 1/4SM FG VV001 FM241800 30005KT
                       P6SM SCT100 BKN200 FM250000 28005KT P6SM
                       SCT050 BKN100 BKN200 FM250600 VRB04KT P6SM
                       BKN050 BKN100=
201709241425 KPAE 241425Z 2414/2512 VRB03KT 3SM BR SCT001 BKN200
                      TEMPO 2414/2417 1/2SM FG VV001 FM241800 30005KT
                       P6SM SCT100 BKN200 FM250000 28005KT P6SM
                       SCT050 BKN100 BKN200 FM250600 VRB04KT P6SM
                       BKN050 BKN100=
201709241416 KPAE 241416Z 2414/2512 VRB04KT 5SM BR SCT001 BKN200
                      TEMPO 2414/2417 2SM BR BKN001 FM241800 30005KT
                       P6SM SCT100 BKN200 FM250000 28005KT P6SM
                       SCT050 BKN100 BKN200 FM250600 VRB04KT P6SM
                       BKN050 BKN100=
201709241243 KPAE 241243Z 2413/2512 VRB04KT P6SM FEW150 SCT200
                      TEMPO 2413/2417 BKN005 FM241800 30005KT P6SM
                       SCT100 BKN200 FM250000 28005KT P6SM SCT050
                       BKN100 BKN200 FM250600 VRB04KT P6SM BKN050
                       BKN100=
201709241120 TAF KPAE 241120Z 2412/2512 VRB04KT P6SM FEW150 SCT200
                      TEMPO 2414/2418 SCT008 FM241800 30005KT P6SM
                       SCT100 BKN200 FM250000 28005KT P6SM SCT050
                       BKN100 BKN200 FM250600 VRB04KT P6SM BKN050
                       BKN100=
201709240520 TAF KPAE 240520Z 2406/2506 VRB04KT P6SM FEW100 FM241000 VRB02KT
                       P6SM SCT009 SCT100
                      TEMPO 2413/2417 BKN009 FM241800 24005KT P6SM
                       SCT050 OVC100 FM250000 20006KT P6SM BKN050
                       OVC100=
201709232332 TAF KPAE 232332Z 2400/2424 24005KT P6SM BKN100 BKN200 FM240200
                       VRB04KT P6SM BKN100 BKN200 FM241000 VRB02KT
                       P6SM SCT009 OVC100
                      TEMPO 2413/2417 BKN009 OVC100 FM241800 24005KT
                       P6SM SCT050 OVC100=
201709232109 KPAE 232109Z 2321/2418 24005KT P6SM BKN200 FM240000 33004KT P6SM
                       SCT100 BKN200 FM241000 VRB02KT P6SM FEW009
                       FEW050 OVC100 FM241500 VRB02KT P6SM FEW012
                       BKN050 OVC100=
201709231731 TAF KPAE 231731Z 2318/2418 19005KT P6SM SCT100 FM232000 28005KT
                       P6SM SCT100 SCT200 FM240000 33004KT P6SM
                       SCT100 BKN200 FM241000 VRB02KT P6SM FEW009
                       FEW050 OVC100 FM241500 VRB02KT P6SM FEW012
                       BKN050 OVC100=
201709231412 KPAE 231412Z 2314/2412 VRB03KT P6SM SCT015 BKN120 FM231800 17004KT
                       P6SM SCT020 OVC080 FM232100 17004KT P6SM
                       SCT080 BKN100 FM240200 02004KT P6SM SCT100=
201709231121 TAF KPAE 231121Z 2312/2412 15003KT P6SM SCT005 OVC014
                      TEMPO 2312/2316 BKN005 FM231800 17004KT P6SM
                       SCT020 OVC080 FM232100 17004KT P6SM SCT080
                       BKN100 FM240200 02004KT P6SM SCT100=
201709230520 TAF KPAE 230520Z 2306/2406 15003KT P6SM BKN150 FM231000 15003KT
                       P6SM SCT050 OVC100 FM231300 16004KT P6SM
                       SCT012 BKN050
                      TEMPO 2314/2317 BKN012 BKN050 FM231800 17004KT
                       P6SM FEW020 SCT050 FM232000 17004KT P6SM
                       SCT080 SCT120=
201709222320 TAF KPAE 222320Z 2300/2324 VRB04KT P6SM SCT100 SCT200 FM230600
                       15003KT P6SM BKN100 BKN200 FM231000 15003KT
                       P6SM SCT050 OVC100 FM231300 16004KT P6SM
                       SCT012 BKN050
                      TEMPO 2314/2317 BKN012 BKN050 FM231800 17004KT
                       P6SM FEW020 SCT050 FM232000 17004KT P6SM
                       SCT060=
201709221750 TAF KPAE 221750Z 2218/2318 29003KT P6SM SCT100 FM230200 34004KT
                       P6SM SCT100 SCT200 FM230600 17003KT P6SM
                       BKN100 BKN200 FM231000 16003KT P6SM SCT040
                       OVC100 FM231400 16004KT P6SM BKN008 OVC080=
201709221120 TAF KPAE 221120Z 2212/2312 12004KT P6SM OVC100 FM221800 29004KT
                       P6SM SCT100 SCT200 FM230600 17004KT P6SM
                       BKN200=
201709220520 TAF KPAE 220520Z 2206/2306 VRB04KT P6SM OVC100 FM221200 VRB03KT
                       P6SM BCFG FEW005 BKN100 FM221700 32004KT
                       P6SM SCT120 SCT200=
201709212345 TAF KPAE 212345Z 2200/2224 30007KT P6SM VCSH SCT030 SCT200 FM220300
                       01004KT P6SM SCT200 FM221200 VRB03KT P6SM
                       SCT150 SCT200 FM221700 VRB03KT P6SM SCT100
                       SCT200 FM222000 18005KT P6SM SCT100 SCT200=
201709211918 KPAE 211918Z 2119/2218 VRB04KT P6SM SCT015 BKN045 FM212100 33004KT
                       P6SM SCT025 BKN040 FM220000 34005KT P6SM
                       SCT050 FM220400 01004KT P6SM SCT200 FM221200
                       VRB03KT P6SM BCFG FEW005 SCT200 FM221700
                       VRB03KT P6SM SCT150 SCT200=
201709211726 TAF KPAE 211726Z 2118/2218 33003KT P6SM SCT008 OVC015
                      TEMPO 2118/2119 OVC008 FM211900 33004KT P6SM
                       SCT015 BKN025 OVC040 FM212100 33004KT P6SM
                       SCT025 BKN040 FM220000 34005KT P6SM SCT050
                       FM220400 01004KT P6SM SCT200 FM221200 VRB03KT
                       P6SM BCFG FEW005 SCT200 FM221700 VRB03KT
                       P6SM SCT150 SCT200=
201709211520 KPAE 211520Z 2115/2212 VRB03KT P6SM SCT008 OVC015
                      TEMPO 2115/2117 BKN008 OVC015 FM211700 33003KT
                       P6SM SCT015 BKN025 FM212000 34004KT P6SM
                       SCT020 BKN045 FM212200 34005KT P6SM FEW020
                       SCT045 FM220400 VRB04KT P6SM SCT200=
201709211140 TAF KPAE 211140Z 2112/2212 VRB03KT P6SM BKN008 OVC020 FM211600
                       VRB03KT P6SM SCT008 BKN020 BKN035 FM211800
                       21006KT P6SM SCT020 BKN035 FM212100 34008KT
                       P6SM SCT050 FM220400 02006KT P6SM SCT200=
201709210540 TAF KPAE 210540Z 2106/2206 15004KT P6SM SCT050 FM211300 18006KT
                       P6SM BKN008 OVC015 FM211600 21006KT P6SM
                       BKN015 FM211800 21006KT P6SM SCT020 FM212000
                       34008KT P6SM SCT050=
201709202320 TAF KPAE 202320Z 2100/2124 31006KT P6SM SCT030 BKN050 FM211000
                       18006KT P6SM BKN015 BKN040 FM212000 31008KT
                       P6SM SCT040=
201709201925 KPAE 201925Z 2019/2118 29008KT P6SM BKN025 BKN050 FM210400 VRB04KT
                       P6SM SCT050 FM211000 16006KT P6SM BKN012=
201709201728 TAF KPAE 201728Z 2018/2118 31006KT P6SM BKN008 BKN050 FM202000
                       31006KT P6SM SCT015 BKN050 FM210400 VRB04KT
                       P6SM SCT050 FM211000 16006KT P6SM BKN012=
201709201646 KPAE 201646Z 2017/2112 31006KT P6SM BKN008 BKN050 FM201900 31006KT
                       P6SM SCT015 BKN050 FM210400 VRB04KT P6SM
                       SCT050 FM211000 16006KT P6SM BKN012=
201709201135 TAF KPAE 201135Z 2012/2112 VRB04KT P6SM SCT022 OVC040
                      TEMPO 2014/2017 BKN022 OVC040 FM201800 36006KT
                       P6SM BKN050 FM210400 18008KT P6SM BKN050=
201709200539 TAF KPAE 200539Z 2006/2106 VRB04KT P6SM SCT025 BKN040 BKN060
                      TEMPO 2006/2009 -SHRA BKN025 OVC040 FM201200
                       VRB04KT P6SM BKN011 OVC018 FM201600 VRB04KT
                       P6SM BKN018 BKN050 FM201800 36006KT P6SM
                       BKN050 FM210400 18008KT P6SM BKN050=
201709192320 TAF KPAE 192320Z 2000/2024 VRB04KT P6SM VCSH SCT020 BKN040
                      TEMPO 2000/2004 -SHRA BKN018 OVC040 FM200400
                       VRB04KT P6SM VCSH BKN025 BKN040 FM201800
                       36006KT P6SM BKN050=
201709191722 TAF KPAE 191722Z 1918/2018 16010KT P6SM SCT010 OVC025
                      TEMPO 1918/1922 -SHRA BKN010 OVC025 FM192200
                       VRB04KT P6SM -SHRA BKN025 OVC040 FM201200
                       VRB03KT P6SM VCSH BKN020 BKN040 FM201700
                       36006KT P6SM SCT030 BKN060=
201709191137 TAF KPAE 191137Z 1912/2012 14008KT P6SM -SHRA SCT008 BKN014 OVC030
                       TEMPO 1912/1916 BKN008 OVC014 FM191800 14008KT
                       P6SM -SHRA SCT020 BKN040 BKN060 FM200300
                       14008KT P6SM SCT035 BKN050=
201709190541 TAF KPAE 190541Z 1906/2006 15008KT P6SM -SHRA BKN018 BKN040 FM191800
                       15008KT P6SM -SHRA SCT020 BKN040 BKN060=
201709182322 TAF KPAE 182322Z 1900/1924 18014KT P6SM VCSH SCT015 BKN050 FM190400
                       18008KT P6SM -SHRA BKN025 OVC040 FM191500
                       31006KT P6SM VCSH SCT040=
201709181724 TAF KPAE 181724Z 1818/1918 16010KT P6SM VCSH SCT015 BKN050
                      TEMPO 1818/1821 BKN015 BKN040 FM190400 18008KT
                       P6SM -SHRA BKN025 OVC040 FM191500 31006KT
                       P6SM VCSH SCT040=
201709181235 KPAE 181235Z 1813/1912 17005KT P6SM SCT008 SCT045 BKN110
                      TEMPO 1813/1815 BKN008 BKN045 BKN110 FM181800
                       17010KT P6SM VCSH SCT022 BKN045 FM182000
                       20013KT P6SM -SHRA SCT022 BKN045
                      TEMPO 1820/1824 5SM SHRA BKN022 OVC045 FM190300
                       19011KT P6SM -SHRA OVC022 FM190600 17006KT
                       P6SM -SHRA OVC015=
201709181225 KPAE 181225Z 1812/1912 VRB05KT P6SM SCT045 BKN110 FM181800 17010KT
                       P6SM VCSH SCT022 BKN045 FM182000 20013KT
                       P6SM -SHRA SCT022 BKN045
                      TEMPO 1820/1824 5SM SHRA BKN022 OVC045 FM190300
                       19011KT P6SM -SHRA OVC022 FM190600 17006KT
                       P6SM -SHRA OVC015=
201709181120 TAF KPAE 181120Z 1812/1912 14008KT P6SM VCSH BKN025 BKN050 FM182000
                       20010KT P6SM -RA SCT030 BKN050 FM190300
                       17005KT P6SM VCSH BKN030 OVC050=
201709180520 TAF KPAE 180520Z 1806/1906 VRB04KT P6SM VCSH SCT010 OVC040
                      TEMPO 1806/1810 5SM -RA BR BKN005 FM181000
                       18008KT P6SM VCSH BKN025 BKN050 FM182000
                       20010KT P6SM -RA SCT030 BKN050 FM190300
                       17005KT P6SM VCSH BKN030 OVC050=
201709180102 KPAE 180102Z 1801/1824 12010KT 2SM -SHRA FEW008 OVC030
                      TEMPO 1801/1803 20010KT 1SM -SHRA BR BKN008
                       OVC020 FM180300 27007KT P6SM VCSH BKN020
                       BKN040 FM181000 18008KT P6SM VCSH BKN025
                       BKN050 FM182000 21010KT P6SM VCSH SCT030
                       BKN050=
201709172320 TAF KPAE 172320Z 1800/1824 16012G22KT P6SM SCT020 OVC040
                      TEMPO 1800/1802 -RA BKN020 OVC040 FM180200
                       27007KT P6SM VCSH BKN020 BKN040 FM181000
                       18008KT P6SM VCSH BKN025 BKN050 FM182000
                       21010KT P6SM VCSH SCT030 BKN050=
201709171720 TAF KPAE 171720Z 1718/1818 19012G22KT P6SM SCT015 BKN040 BKN100
                       TEMPO 1718/1721 BKN015 OVC040 FM172100 19012G22KT
                       P6SM -RA BKN020 OVC040 FM180000 24012KT
                       P6SM -SHRA BKN020 OVC040 FM180300 30008KT
                       P6SM -SHRA BKN020 OVC040 FM181000 17008KT
                       P6SM VCSH BKN025 BKN050 FM181700 20010KT
                       P6SM VCSH SCT030 BKN050=
201709171601 KPAE 171601Z 1716/1812 14014G22KT P6SM SCT020 BKN060 BKN200 FM172000
                       19017G27KT 5SM -RA BR BKN022 OVC040 FM180000
                       22012KT P6SM -SHRA BKN022 OVC040=
201709171212 KPAE 171212Z 1712/1812 15007KT P6SM OVC150 FM171800 17013G22KT
                       P6SM -RA FEW022 SCT040 OVC090 FM172100 19017G27KT
                       5SM -RA BR BKN022 OVC040 FM180000 18013KT
                       P6SM -SHRA BKN022 OVC040=
201709171120 TAF KPAE 171120Z 1712/1812 14007KT P6SM SCT005 BKN150
                      TEMPO 1712/1716 4SM BR BKN003 OVC150 FM171700
                       18012KT P6SM SCT030 BKN080 FM172200 18014KT
                       P6SM -RA BKN030 OVC080 FM180200 18008KT
                       P6SM OVC030=
201709170522 TAF KPAE 170522Z 1706/1806 VRB04KT 6SM HZ FU SCT040 BKN200 FM170700
                       25005KT P6SM SCT200 FM171200 18008KT P6SM
                       SCT005 BKN150
                      TEMPO 1712/1716 3SM BR BKN003 OVC150 FM171700
                       18012KT P6SM SCT030 BKN080 FM172200 18014KT
                       P6SM -RA BKN030 OVC080 FM180200 18008KT
                       P6SM OVC030=
201709162320 TAF KPAE 162320Z 1700/1724 VRB04KT 5SM HZ FU SCT040 BKN200 FM170700
                       25005KT P6SM SCT200 FM171200 18008KT P6SM
                       SCT005 BKN150
                      TEMPO 1712/1716 3SM BR BKN003 OVC150 FM171700
                       18012KT P6SM SCT030 BKN080 FM172200 18014KT
                       P6SM -RA BKN030 OVC080=
201709161728 TAF KPAE 161728Z 1618/1718 VRB04KT P6SM BKN200 FM170700 25005KT
                       P6SM SCT200 FM171200 18008KT P6SM SCT005
                       BKN150
                      TEMPO 1712/1716 3SM BR BKN003 OVC150 FM171700
                       18012KT P6SM SCT030 BKN080=
201709161120 TAF KPAE 161120Z 1612/1712 VRB03KT P6SM BKN200 FM161700 24006KT
                       P6SM SCT200 FM170000 VRB03KT P6SM SCT200
                       FM170800 16005KT P6SM SCT200=
201709160520 TAF KPAE 160520Z 1606/1706 VRB03KT P6SM BKN200 FM161700 22006KT
                       P6SM SCT200 FM170000 VRB03KT P6SM SCT200=
201709152324 TAF KPAE 152324Z 1600/1624 VRB03KT P6SM SCT250 FM160600 00000KT
                       P6SM BKN200=
201709151720 TAF KPAE 151720Z 1518/1618 VRB03KT P6SM FEW250 FM152200 36006KT
                       P6SM SCT250 FM160600 VRB03KT P6SM BKN250=
201709151128 TAF KPAE 151128Z 1512/1612 00000KT P6SM SKC FM151800 30006KT P6SM
                       SKC FM160300 VRB03KT P6SM SKC FM160800 15003KT
                       P6SM SKC=
201709150534 TAF KPAE 150534Z 1506/1606 00000KT P6SM SKC FM151200 01004KT P6SM
                       SKC FM151800 31006KT P6SM SKC FM160300 VRB03KT
                       P6SM SKC=
201709142330 TAF KPAE 142330Z 1500/1524 28009KT P6SM SKC FM150300 34004KT P6SM
                       SKC FM150600 VRB03KT P6SM SKC FM151200 33004KT
                       P6SM SKC=
201709141724 TAF KPAE 141724Z 1418/1518 34006KT P6SM SKC FM142100 34008KT P6SM
                       SKC FM150300 VRB03KT P6SM SKC FM150600 00000KT
                       P6SM SKC FM151200 VRB03KT P6SM SKC=
201709141129 TAF KPAE 141129Z 1412/1512 VRB04KT P6SM SCT090 FM141800 35008KT
                       P6SM SKC FM150300 36003KT P6SM SKC FM150600
                       VRB03KT P6SM SKC=
201709140522 TAF KPAE 140522Z 1406/1506 01003KT P6SM BKN080 FM141200 35004KT
                       P6SM SKC FM141800 35010KT P6SM SKC FM150300
                       36003KT P6SM SKC=
201709132320 TAF KPAE 132320Z 1400/1424 33006KT P6SM SCT045 SCT250 FM140400
                       01005KT P6SM FEW250 FM141800 35010KT P6SM
                       SKC=
201709131740 TAF KPAE 131740Z 1318/1418 26005KT P6SM BKN015 BKN045
                      TEMPO 1318/1320 SCT015 BKN045 FM132000 33006KT
                       P6SM SCT045 SCT250 FM140400 01005KT P6SM
                       FEW250=
201709131720 TAF KPAE 131720Z 1318/1418 VRB03KT P6SM SCT015 BKN045
                      TEMPO 1318/1320 BKN015 BKN045 FM132000 28005KT
                       P6SM SCT045 BKN250 FM132100 33006KT P6SM
                       SCT045 SCT250 FM140300 VRB04KT P6SM FEW250=
201709131548 KPAE 131548Z 1316/1412 VRB03KT P6SM SCT015 BKN045
                      TEMPO 1316/1317 BKN015 BKN045 FM131900 25006KT
                       P6SM SCT045 BKN250 FM132100 33006KT P6SM
                       SCT045 SCT250 FM140200 01004KT P6SM FEW250=
201709131423 KPAE 131423Z 1314/1412 VRB03KT P6SM SCT015 BKN045 FM131900 25006KT
                       P6SM SCT045 BKN250 FM132100 33006KT P6SM
                       SCT045 SCT250 FM140200 01004KT P6SM FEW250=
201709131131 TAF KPAE 131131Z 1312/1412 VRB03KT P6SM FEW022 BKN045 OVC250 FM131400
                       19004KT P6SM OVC022 FM131900 25006KT P6SM
                       SCT035 BKN250 FM132100 33006KT P6SM SCT050
                       SCT250 FM140200 01004KT P6SM FEW250=
201709130906 KPAE 130906Z 1309/1406 31004KT P6SM SCT030 BKN060 OVC250 FM131200
                       35004KT P6SM OVC022 FM131900 33006KT P6SM
                       SCT035 BKN250 FM132100 33006KT P6SM SCT050
                       SCT250 FM140200 01004KT P6SM FEW250=
201709130540 TAF KPAE 130540Z 1306/1406 31004KT P6SM SCT035 OVC050 FM130900
                       35004KT P6SM OVC035 FM131200 35004KT P6SM
                       OVC022 FM131900 33006KT P6SM SCT035 BKN250
                       FM132100 33006KT P6SM SCT050 SCT250 FM140200
                       01004KT P6SM FEW250=
201709130304 KPAE 130304Z 1303/1324 33005KT P6SM SCT050 BKN250
                      TEMPO 1303/1306 BKN050 BKN250 FM131200 VRB04KT
                       P6SM SCT015
                      TEMPO 1314/1318 BKN015 FM131800 33006KT P6SM
                       SCT030 BKN250=
201709130155 KPAE 130155Z 1302/1324 33007KT P6SM SCT040 SCT250 FM131200 VRB04KT
                       P6SM SCT015
                      TEMPO 1314/1318 BKN015 FM131800 33006KT P6SM
                       SCT030 BKN250=
201709122320 TAF KPAE 122320Z 1300/1324 33010KT P6SM SCT100 BKN200 FM131200
                       VRB04KT P6SM SCT015
                      TEMPO 1314/1318 BKN015 FM131800 33006KT P6SM
                       SCT030 BKN250=
201709121740 KPAE 121740Z 1218/1318 33008KT P6SM BKN200 FM131200 VRB04KT P6SM
                       BKN015 FM131700 33006KT P6SM SCT030=
201709121720 TAF KPAE 121720Z 1218/1318 00000KT 3SM BR BKN002 FM121900 33008KT
                       P6SM BKN200 FM131200 VRB04KT P6SM BKN015
                       FM131700 33006KT P6SM SCT030=
201709121440 KPAE 121440Z 1215/1312 34003KT 3SM BR BKN003
                      TEMPO 1215/1217 1/2SM FG VV001 FM121800 35005KT
                       P6SM SCT020 SCT050 BKN250 FM130600 VRB03KT
                       P6SM SCT035 SCT250 FM131000 VRB03KT P6SM
                       BKN022 BKN250=
201709121327 KPAE 121327Z 1213/1312 34003KT P6SM OVC004
                      TEMPO 1213/1216 3SM BR OVC001 FM121800 35004KT
                       P6SM SCT035 SCT080 BKN250 FM122100 32006KT
                       P6SM SCT035 SCT050 BKN250 FM130000 36006KT
                       P6SM SCT035 SCT050 BKN250 FM130600 VRB03KT
                       P6SM SCT035 SCT250 FM131000 VRB03KT P6SM
                       BKN022 BKN250=
201709121206 KPAE 121206Z 1212/1312 34003KT P6SM OVC004 FM121800 35004KT P6SM
                       SCT035 SCT080 BKN250 FM122100 32006KT P6SM
                       SCT035 SCT050 BKN250 FM130000 36006KT P6SM
                       SCT035 SCT050 BKN250 FM130600 VRB03KT P6SM
                       SCT035 SCT250 FM131000 VRB03KT P6SM BKN022
                       BKN250=
201709121135 TAF KPAE 121135Z 1212/1312 35004KT P6SM SCT020 SCT080 BKN250 FM121800
                       35004KT P6SM SCT035 SCT080 BKN250 FM122100
                       32006KT P6SM SCT035 SCT050 BKN250 FM130000
                       36006KT P6SM SCT035 SCT050 BKN250 FM130600
                       VRB03KT P6SM SCT035 SCT250 FM131000 VRB03KT
                       P6SM BKN022 BKN250=
201709120912 KPAE 120912Z 1209/1306 35004KT P6SM VCFG SKC FM121100 35004KT 6SM
                       BR SCT008
                      TEMPO 1211/1215 4SM BR BKN008 FM121800 33006KT
                       P6SM SCT120 BKN250 FM122000 33007KT P6SM
                       SCT030 BKN120 FM130300 36005KT P6SM OVC100=
201709120520 TAF KPAE 120520Z 1206/1306 35005KT P6SM SKC FM121000 01003KT 2SM
                       BR BKN002
                      TEMPO 1212/1216 1/4SM FG VV001 FM121700 33006KT
                       P6SM BKN015 FM122000 33007KT P6SM SCT030
                       BKN120 FM130300 36005KT P6SM OVC100=
201709120302 KPAE 120302Z 1203/1224 32008KT P6SM SKC FM121000 34006KT 2SM BR
                       BKN002
                      TEMPO 1212/1216 1/4SM FG VV001 FM121700 33006KT
                       P6SM BKN015 FM122000 33008KT P6SM SCT030=
201709112320 TAF KPAE 112320Z 1200/1224 03006KT P6SM SKC FM121000 34006KT 2SM
                       BR BKN002
                      TEMPO 1212/1216 1/4SM FG VV001 FM121700 33006KT
                       P6SM SCT010 FM122000 33008KT P6SM SCT030=
201709111720 TAF KPAE 111720Z 1118/1218 33006KT P6SM SKC FM120900 36006KT P6SM
                       VCFG SCT005 FM121200 36006KT 3SM BR BKN005
                       TEMPO 1212/1216 1SM BR OVC003 FM121700 33008KT
                       P6SM SCT010=
201709111126 TAF KPAE 111126Z 1112/1212 VRB03KT P6SM FEW250 FM111800 33006KT
                       P6SM SKC FM121000 VRB03KT P6SM VCFG SCT250=
201709110536 TAF KPAE 110536Z 1106/1206 VRB03KT P6SM SKC FM111800 33006KT P6SM
                       SKC=
201709110308 KPAE 110308Z 1103/1124 VRB03KT P6SM SKC FM111800 34007KT P6SM SKC=
201709102320 TAF KPAE 102320Z 1100/1124 35007KT P6SM FEW040 SCT200 FM110400
                       02006KT P6SM SKC FM111800 34007KT P6SM SKC=
201709101720 TAF KPAE 101720Z 1018/1118 35006KT P6SM BKN200 FM102000 35005KT
                       P6SM SCT200 FM110500 03003KT P6SM SKC=
201709101123 TAF KPAE 101123Z 1012/1112 35006KT P6SM SKC=
201709100534 TAF KPAE 100534Z 1006/1106 VRB03KT P6SM SCT020 OVC035 FM100900
                       VRB03KT P6SM OVC020 FM101500 33006KT P6SM
                       BKN025 FM101600 36006KT P6SM SCT040 FM110200
                       36006KT P6SM SKC=
201709092325 TAF KPAE 092325Z 1000/1024 15010KT P6SM VCSH SCT035 BKN040 OVC080
                       TEMPO 1000/1003 -RA BKN035 FM100300 36003KT
                       P6SM BKN030 BKN050 FM100900 02003KT P6SM
                       OVC012 FM101800 33005KT P6SM BKN025 FM102100
                       36005KT P6SM SCT040=
201709092104 KPAE 092104Z 0921/1018 15008KT P6SM -RA SCT030 OVC050
                      TEMPO 0921/0924 2SM -RA BR OVC030 FM100600
                       36003KT P6SM OVC030 FM100900 02003KT P6SM
                       OVC010=
201709091722 TAF KPAE 091722Z 0918/1018 15010KT P6SM -RA SCT020 BKN050 OVC100
                       FM092100 17009KT P6SM BKN030 BKN050 FM100600
                       36003KT P6SM OVC020 FM100900 02003KT P6SM
                       OVC010=
201709091135 TAF KPAE 091135Z 0912/1012 VRB05KT P6SM FEW030 OVC060 FM091500
                       15009KT P6SM BKN030 OVC050
                      TEMPO 0917/0921 -RA OVC022 FM092100 17010KT
                       P6SM BKN035 BKN050 FM100600 VRB03KT P6SM
                       OVC022 FM100900 VRB03KT P6SM OVC012=
201709090915 KPAE 090915Z 0909/1006 35004KT P6SM SCT009 OVC070 FM091200 17008KT
                       P6SM BKN022 OVC070 FM091800 17012KT P6SM
                       OVC018
                      PROB30 0918/0921 4SM -RA BR FM092100 17012KT
                       P6SM VCSH BKN025 BKN050 FM100000 15008KT
                       P6SM BKN035 BKN050=
201709090804 KPAE 090804Z 0908/1006 VRB04KT P6SM SCT009 BKN015 OVC040
                      TEMPO 0908/0912 BKN009 OVC015 FM091200 17008KT
                       P6SM BKN022 OVC070 FM091800 17012KT P6SM
                       OVC018
                      PROB30 0918/0921 4SM -RA BR FM092100 17012KT
                       P6SM VCSH BKN025 BKN050 FM100000 15008KT
                       P6SM BKN035 BKN050=
201709090637 KPAE 090637Z 0907/1006 VRB04KT P6SM BKN015 OVC040 FM091200 17008KT
                       P6SM BKN022 OVC070 FM091800 17012KT P6SM
                       OVC018
                      PROB30 0918/0921 4SM -RA BR FM092100 17012KT
                       P6SM VCSH BKN025 BKN050 FM100000 15008KT
                       P6SM BKN035 BKN050=
201709090600 KPAE 090600Z 0906/1006 VRB04KT P6SM SCT022 OVC040 FM091200 17008KT
                       P6SM BKN022 OVC070 FM091800 17012KT P6SM
                       OVC018
                      PROB30 0918/0921 4SM -RA BR FM092100 17012KT
                       P6SM VCSH BKN025 BKN050 FM100000 15008KT
                       P6SM BKN035 BKN050=
201709090544 TAF KPAE 090544Z 0906/1006 VRB04KT P6SM OVC028 FM091200 17008KT
                       P6SM BKN022 OVC070 FM091800 17012KT P6SM
                       OVC018
                      PROB30 0918/0921 4SM -RA BR FM092100 17012KT
                       P6SM VCSH BKN025 BKN050 FM100000 15008KT
                       P6SM BKN035 BKN050=
201709090256 KPAE 090256Z 0903/0924 VRB03KT P6SM SCT022 OVC035
                      TEMPO 0903/0906 BKN022 OVC035 FM090600 18007KT
                       P6SM SCT025 BKN050 BKN080 FM091000 19006KT
                       P6SM BKN022 OVC040 FM091900 22008KT P6SM
                       -RA BKN030 OVC060=
201709090208 KPAE 090208Z 0902/0924 VRB03KT P6SM OVC035 FM090600 18007KT P6SM
                       SCT025 BKN050 BKN080 FM091000 19006KT P6SM
                       BKN022 OVC040 FM091900 22008KT P6SM -RA
                       BKN030 OVC060=
201709082320 TAF KPAE 082320Z 0900/0924 22006KT P6SM BKN020 FM090300 18007KT
                       P6SM SCT025 BKN050 BKN080 FM091000 19006KT
                       P6SM BKN022 OVC040 FM091900 22008KT P6SM
                       -RA BKN030 OVC060=
201709082000 KPAE 082000Z 0820/0918 22005KT P6SM BKN009 OVC020 FM082100 21006KT
                       P6SM FEW015 BKN025 OVC040 FM082300 23006KT
                       P6SM SCT025 BKN040 BKN120 FM090300 20007KT
                       P6SM SCT025 BKN050 OVC080=
201709081720 TAF KPAE 081720Z 0818/0918 22005KT P6SM BKN009 OVC020 FM081900
                       21006KT P6SM FEW015 BKN025 OVC040 FM082100
                       23006KT P6SM SCT025 BKN040 BKN120 FM090300
                       20007KT P6SM SCT025 BKN050 OVC080=
201709081125 TAF KPAE 081125Z 0812/0912 35005KT P6SM OVC010 FM081900 22006KT
                       P6SM BKN020 BKN050 OVC120 FM082100 23006KT
                       P6SM SCT023 BKN060 BKN120 FM090300 17007KT
                       P6SM SCT030 BKN050 OVC080=
201709080520 TAF KPAE 080520Z 0806/0906 00000KT P6SM SCT100 BKN200 FM080800
                       33004KT P6SM SCT030 OVC060 FM081200 18004KT
                       P6SM OVC012 FM082100 22005KT P6SM SCT025
                       BKN070 BKN120=
201709072320 TAF KPAE 072320Z 0800/0824 30005KT P6SM SCT120 BKN200 FM080800
                       33004KT P6SM SCT030 OVC060 FM081200 18004KT
                       P6SM OVC012 FM082100 22005KT P6SM SCT025
                       SCT120=
201709071720 TAF KPAE 071720Z 0718/0818 VRB04KT P6SM SCT060 BKN250
                      TEMPO 0718/0721 4SM FU FM072100 30005KT P6SM
                       BKN150 BKN250 FM080600 33004KT P6SM SCT030
                       OVC060 FM081200 18004KT P6SM OVC012=
201709071332 KPAE 071332Z 0714/0812 VRB03KT P6SM BKN070 BKN250 FM071800 29005KT
                       P6SM BKN250 FM072000 31005KT P6SM BKN150
                       BKN250 FM080600 23005KT P6SM SCT030 OVC060=
201709071130 TAF KPAE 071130Z 0712/0812 33003KT P6SM FEW080 BKN250 FM071300
                       VRB03KT P6SM SCT008
                      TEMPO 0713/0716 BKN008 FM071800 29005KT P6SM
                       BKN250 FM072000 31005KT P6SM BKN150 BKN250
                       FM080600 23005KT P6SM SCT030 OVC060=
201709070918 KPAE 070918Z 0709/0806 00000KT P6SM OVC070 FM071300 VRB03KT P6SM
                       SCT008
                      TEMPO 0713/0716 BKN008 FM071800 29005KT P6SM
                       BKN250 FM072000 31005KT P6SM BKN150 BKN250=
201709070530 TAF KPAE 070530Z 0706/0806 00000KT P6SM OVC070 FM071300 VRB03KT
                       P6SM BKN008
                      TEMPO 0714/0717 4SM FU BR OVC004 FM071800
                       29005KT P6SM SCT012 BKN250 FM072000 31005KT
                       P6SM BKN150 BKN250=
201709062345 TAF KPAE 062345Z 0700/0724 22005KT 5SM FU OVC040 FM070500 20004KT
                       P6SM OVC060 FM071300 VRB03KT 5SM FU BR OVC006
                       TEMPO 0715/0717 4SM FU BR OVC004 FM071800
                       29005KT P6SM BKN012 BKN150 BKN200 FM072000
                       31005KT P6SM SCT020 BKN150 BKN200=
201709061744 TAF KPAE 061744Z 0618/0718 14006KT 6SM FU OVC050 FM062200 23006KT
                       P6SM OVC060 FM070600 17004KT P6SM SCT060
                       OVC200 FM071300 18006KT 5SM BR OVC006=
201709061125 TAF KPAE 061125Z 0612/0712 13004KT P6SM OVC060
                      TEMPO 0613/0617 3SM FU FM062000 23008KT P6SM
                       SCT060 BKN250
                      TEMPO 0623/0703 34006KT=
201709060525 TAF KPAE 060525Z 0606/0706 00000KT P6SM OVC050 FM061200 16004KT
                       P6SM OVC040
                      TEMPO 0613/0617 3SM FU FM062000 23008KT P6SM
                       SCT040 BKN250 FM070200 34006KT P6SM SCT040
                       BKN250=
201709060200 KPAE 060200Z 0602/0624 34005KT 2SM FU OVC040 FM060400 VRB04KT 5SM
                       FU OVC040 FM061200 20005KT 5SM FU OVC030
                       TEMPO 0613/0617 4SM FU FM061900 20006KT
                       P6SM SCT040 BKN200=
201709060015 KPAE 060015Z 0600/0624 34005KT 5SM FU OVC040
                      TEMPO 0600/0602 2SM FU OVC035 FM060400 VRB04KT
                       5SM FU OVC040 FM061200 20005KT 5SM FU OVC030
                       TEMPO 0613/0617 4SM FU FM061900 20006KT
                       P6SM SCT040 BKN200=
201709052321 TAF KPAE 052321Z 0600/0624 34005KT 2SM FU OVC035 FM060400 VRB04KT
                       5SM FU OVC040 FM061200 20005KT 5SM FU OVC030
                       TEMPO 0613/0617 4SM FU FM061900 20006KT
                       P6SM SCT040 BKN200=
201709052159 KPAE 052159Z 0522/0618 32005KT 2SM FU OVC040 FM060200 04004KT P6SM
                       OVC040 FM061200 20005KT P6SM OVC030
                      TEMPO 0613/0617 4SM FU=
201709051901 KPAE 051901Z 0519/0618 34005KT 2SM FU OVC030 FM052200 30005KT 4SM
                       FU OVC030 FM060200 04004KT P6SM OVC040 FM061200
                       20005KT P6SM OVC030
                      TEMPO 0613/0617 4SM FU=
201709051732 TAF KPAE 051732Z 0518/0618 34005KT 5SM FU OVC035
                      TEMPO 0518/0519 2SM FU FM052200 30007KT P6SM
                       OVC040 FM060400 04004KT P6SM OVC040 FM061200
                       20005KT P6SM OVC030
                      TEMPO 0613/0617 4SM FU=
201709051521 KPAE 051521Z 0515/0612 33005KT P6SM OVC020
                      TEMPO 0515/0519 3SM FU FM051900 31005KT P6SM
                       OVC030 FM052200 30007KT P6SM BKN040 FM060400
                       04004KT P6SM OVC040=
201709051140 TAF KPAE 051140Z 0512/0612 35006KT P6SM OVC050
                      TEMPO 0514/0518 5SM FU FM060000 33006KT P6SM
                       BKN050=
201709050525 TAF KPAE 050525Z 0506/0606 35003KT P6SM OVC050 FM050800 04006KT
                       5SM FU BKN050 FM051200 04006KT 3SM FU BKN050
                       FM051800 36006KT 5SM FU BKN050 BKN200=
201709042320 TAF KPAE 042320Z 0500/0524 33006KT P6SM BKN050 FM050500 04006KT
                       5SM FU BKN050 FM051200 04006KT 3SM FU BKN050
                       FM051800 36006KT 5SM FU BKN050 BKN200=
201709041720 TAF KPAE 041720Z 0418/0518 33007KT P6SM SCT060 SCT250 FM050400
                       04006KT 5SM FU BKN060 FM051200 04006KT 3SM
                       FU BKN050 FM051700 36006KT 5SM FU BKN050
                       BKN200=
201709041120 TAF KPAE 041120Z 0412/0512 VRB03KT P6SM FEW250 FM041900 35007KT
                       P6SM BKN060 FM051000 04004KT 5SM FU BKN060=
201709040522 TAF KPAE 040522Z 0406/0506 34006KT P6SM FEW080 SCT250 FM041900
                       35007KT P6SM BKN060=
201709032320 TAF KPAE 032320Z 0400/0424 VRB04KT P6SM SCT250 FM040500 01004KT
                       P6SM SCT200 FM041800 35005KT 6SM FU SCT050=
201709031720 TAF KPAE 031720Z 0318/0418 33007KT P6SM SKC FM040500 01004KT P6SM
                       SKC FM041600 35005KT P6SM SKC=
201709031120 TAF KPAE 031120Z 0312/0412 34006KT P6SM SKC=
201709030520 TAF KPAE 030520Z 0306/0406 35006KT P6SM SKC=
201709022320 TAF KPAE 022320Z 0300/0324 32008G15KT P6SM SKC FM030400 01004KT
                       P6SM SKC FM031900 35006KT P6SM SKC=
201709021720 TAF KPAE 021720Z 0218/0318 VRB04KT P6SM SKC FM022000 33006KT P6SM
                       SKC FM030400 01004KT P6SM SKC=
201709021120 TAF KPAE 021120Z 0212/0312 VRB03KT P6SM SKC FM021700 34006KT P6SM
                       SKC FM030300 02004KT P6SM SKC=
201709020528 TAF KPAE 020528Z 0206/0306 34006KT P6SM SKC=
201709012320 TAF KPAE 012320Z 0200/0224 33006KT P6SM SKC FM020500 01004KT P6SM
                       SKC FM021900 34008KT P6SM SKC=
201709011720 TAF KPAE 011720Z 0118/0218 33007KT P6SM SKC FM020500 01004KT P6SM
                       SKC=
201709011120 TAF KPAE 011120Z 0112/0212 34007KT P6SM SKC=
201709010520 TAF KPAE 010520Z 0106/0206 36006KT P6SM SKC=