##########################################################
# Query made at 02/15/2025 21:47:20 UTC
# Time interval: from 05/01/2018 00:00  to 05/31/2018 23:59  UTC
##########################################################

##########################################################
# KPAE, Everett, Snohomish County Airport (United States)
# WMO index: -----. WIGOS ID: Unknown
# Latitude 47-55-23N. Longitude 122-16-57W. Altitude 184 m.
##########################################################

###################################
#  METAR/SPECI from KPAE
###################################
201805312353 METAR KPAE 312353Z 21006KT 10SM SCT041 BKN120 16/06 A2994 RMK AO2 SLP137 T01610056 10167 20111 53001=
201805312253 METAR KPAE 312253Z 21008KT 180V250 10SM SCT041 SCT120 17/05 A2993 RMK AO2 SLP134 T01670050=
201805312153 METAR KPAE 312153Z 22006KT 10SM SCT030 BKN045 BKN060 16/07 A2993 RMK AO2 SLP136 T01560072=
201805312053 METAR KPAE 312053Z 00000KT 10SM FEW028 SCT037 14/06 A2993 RMK AO2 SLP137 T01440056 51002=
201805311953 METAR KPAE 311953Z 25005KT 10SM SCT026 BKN035 13/07 A2993 RMK AO2 SLP137 T01280072=
201805311915 SPECI KPAE 311915Z 15004KT 10SM SCT025 BKN033 BKN120 13/06 A2993 RMK AO2 T01280061=
201805311853 METAR KPAE 311853Z VRB05KT 10SM BKN020 BKN120 12/07 A2993 RMK AO2 SLP135 T01220067=
201805311829 SPECI KPAE 311829Z 07005KT 10SM BKN022 BKN110 13/07 A2992 RMK AO2 T01280067=
201805311827 SPECI KPAE 311827Z 08004KT 10SM SCT022 BKN110 12/07 A2992 RMK AO2 T01220067=
201805311810 SPECI KPAE 311810Z 14003KT 10SM BKN022 BKN075 12/07 A2992 RMK AO2 T01170067=
201805311753 METAR KPAE 311753Z 11004KT 10SM FEW018 OVC080 11/06 A2992 RMK AO2 SLP133 60000 T01110061 10111 20089 51006=
201805311733 SPECI KPAE 311733Z 08004KT 10SM SCT019 OVC080 11/06 A2992 RMK AO2 T01110061=
201805311653 METAR KPAE 311653Z 11003KT 10SM OVC018 11/06 A2992 RMK AO2 SLP133 T01060061=
201805311614 SPECI KPAE 311614Z 12004KT 10SM BKN018 OVC075 11/06 A2992 RMK AO2 T01060061=
201805311553 METAR KPAE 311553Z 00000KT 10SM FEW016 OVC080 11/07 A2991 RMK AO2 RAE02 SLP129 P0000 T01060067=
201805311453 METAR KPAE 311453Z 00000KT 10SM -RA OVC075 10/06 A2990 RMK AO2 RAB52 SLP127 P0000 60000 T01000061 53008=
201805311353 METAR KPAE 311353Z AUTO 35003KT 10SM OVC075 09/06 A2990 RMK AO2 SLP124 T00940061=
201805311253 METAR KPAE 311253Z AUTO 35003KT 10SM OVC070 09/06 A2988 RMK AO2 SLP118 T00890061=
201805311153 METAR KPAE 311153Z AUTO 34005KT 10SM FEW070 BKN110 09/06 A2988 RMK AO2 SLP117 T00890061 10094 20089 50006=
201805311053 METAR KPAE 311053Z AUTO 34003KT 10SM BKN070 OVC110 09/06 A2988 RMK AO2 SLP118 T00940061=
201805310953 METAR KPAE 310953Z AUTO 32004KT 10SM BKN070 09/06 A2987 RMK AO2 SLP115 T00890061=
201805310853 METAR KPAE 310853Z AUTO 33006KT 10SM OVC070 09/06 A2986 RMK AO2 SLP113 T00890061 55004=
201805310753 METAR KPAE 310753Z AUTO 33009KT 10SM CLR 09/07 A2986 RMK AO2 SLP112 T00940067 401720078=
201805310653 METAR KPAE 310653Z AUTO 34007KT 10SM CLR 09/06 A2987 RMK AO2 SLP115 T00940061=
201805310553 METAR KPAE 310553Z AUTO 33004KT 10SM CLR 09/06 A2987 RMK AO2 SLP117 T00940056 10172 20094 53001=
201805310453 METAR KPAE 310453Z AUTO 33005KT 10SM CLR 10/07 A2987 RMK AO2 SLP116 T01000067=
201805310353 METAR KPAE 310353Z AUTO 32006KT 10SM CLR 11/07 A2987 RMK AO2 SLP115 T01060072=
201805310253 METAR KPAE 310253Z 30005KT 10SM CLR 13/04 A2987 RMK AO2 SLP116 T01330044 56007=
201805310153 METAR KPAE 310153Z 31007KT 300V360 10SM CLR 15/03 A2987 RMK AO2 SLP116 T01500028=
201805310053 METAR KPAE 310053Z VRB06KT 10SM CLR 16/04 A2988 RMK AO2 SLP118 T01610044=
201805302353 METAR KPAE 302353Z 33007KT 10SM CLR 17/05 A2989 RMK AO2 SLP122 T01670050 10172 20111 56019=
201805302253 METAR KPAE 302253Z 32010KT 10SM CLR 16/06 A2991 RMK AO2 SLP128 T01610061=
201805302153 METAR KPAE 302153Z VRB06KT 10SM CLR 16/04 A2993 RMK AO2 SLP134 T01610044=
201805302053 METAR KPAE 302053Z 25008KT 10SM CLR 14/07 A2995 RMK AO2 SLP142 T01440072 58022=
201805301953 METAR KPAE 301953Z 25007KT 10SM CLR 13/07 A2997 RMK AO2 SLP150 T01330067=
201805301853 METAR KPAE 301853Z 25006KT 10SM CLR 13/07 A2999 RMK AO2 SLP158 T01280067=
201805301837 SPECI KPAE 301837Z 23005KT 10SM FEW023 SCT029 12/07 A3000 RMK AO2 T01220067=
201805301753 METAR KPAE 301753Z 19003KT 10SM BKN026 OVC032 11/06 A3002 RMK AO2 SLP166 T01110061 10111 20083 56004=
201805301749 SPECI KPAE 301749Z 23005KT 10SM OVC028 11/06 A3002 RMK AO2=
201805301738 SPECI KPAE 301738Z 00000KT 10SM FEW021 BKN030 OVC034 11/07 A3002 RMK AO2 T01110067=
201805301653 METAR KPAE 301653Z 00000KT 10SM FEW016 OVC028 11/07 A3002 RMK AO2 SLP168 T01060067=
201805301611 SPECI KPAE 301611Z 17005KT 10SM FEW018 BKN030 OVC042 10/06 A3003 RMK AO2 T01000061=
201805301553 METAR KPAE 301553Z 16003KT 10SM BKN019 BKN024 OVC041 10/07 A3003 RMK AO2 SLP170 T01000067=
201805301535 SPECI KPAE 301535Z 00000KT 10SM BKN017 OVC041 10/07 A3003 RMK AO2 T01000067=
201805301453 METAR KPAE 301453Z VRB03KT 10SM BKN041 10/07 A3003 RMK AO2 SLP170 T01000067 58003=
201805301353 METAR KPAE 301353Z 05003KT 10SM FEW013 FEW045 09/06 A3003 RMK AO2 SLP170 T00940061=
201805301336 SPECI KPAE 301336Z AUTO 08003KT 10SM FEW012 09/06 A3004 RMK AO2 T00890061=
201805301253 METAR KPAE 301253Z AUTO 00000KT 10SM OVC014 08/07 A3004 RMK AO2 SLP172 T00830067=
201805301244 SPECI KPAE 301244Z AUTO 00000KT 10SM BKN014 OVC029 08/07 A3004 RMK AO2 T00830067=
201805301223 SPECI KPAE 301223Z AUTO 00000KT 10SM SCT012 BKN029 09/07 A3004 RMK AO2 T00890067=
201805301153 METAR KPAE 301153Z AUTO 00000KT 10SM OVC013 09/06 A3004 RMK AO2 SLP173 70009 T00890056 10094 20078 56005=
201805301126 SPECI KPAE 301126Z AUTO 31004KT 10SM OVC014 09/06 A3004 RMK AO2 T00890061=
201805301053 METAR KPAE 301053Z AUTO 32003KT 10SM OVC017 09/06 A3004 RMK AO2 SLP173 T00890056=
201805301007 SPECI KPAE 301007Z AUTO 35006KT 10SM BKN020 BKN028 09/06 A3004 RMK AO2 T00890056=
201805300953 METAR KPAE 300953Z AUTO 35004KT 10SM SCT028 09/06 A3005 RMK AO2 SLP177 T00890056=
201805300853 METAR KPAE 300853Z AUTO 35004KT 10SM CLR 09/05 A3005 RMK AO2 SLP177 T00890050 58004=
201805300753 METAR KPAE 300753Z AUTO 31005KT 10SM SCT049 09/06 A3006 RMK AO2 SLP179 T00890056 401670089=
201805300653 METAR KPAE 300653Z AUTO 34006KT 10SM FEW090 09/06 A3006 RMK AO2 SLP180 T00940061=
201805300553 METAR KPAE 300553Z AUTO 29006KT 10SM OVC095 09/06 A3006 RMK AO2 SLP181 60009 T00890056 10133 20089 51005=
201805300453 METAR KPAE 300453Z AUTO 32005KT 10SM BKN080 09/06 A3006 RMK AO2 SLP181 T00940061=
201805300353 METAR KPAE 300353Z 30005KT 10SM BKN080 OVC100 10/08 A3006 RMK AO2 RAE29 SLP180 P0005 T01000078=
201805300253 METAR KPAE 300253Z 32006KT 5SM -RA BR BKN043 OVC050 10/09 A3005 RMK AO2 RAB14 SLP176 P0004 60004 T01000089 56009=
201805300153 METAR KPAE 300153Z 32007KT 10SM OVC048 12/07 A3005 RMK AO2 SLP177 T01170072=
201805300053 METAR KPAE 300053Z 33005KT 10SM BKN050 OVC060 12/07 A3006 RMK AO2 RAE13 SLP180 P0000 T01220072=
201805292353 METAR KPAE 292353Z 31004KT 10SM -RA OVC055 13/08 A3008 RMK AO2 RAB32 SLP185 P0000 60000 T01330078 10167 20122 56011=
201805292253 METAR KPAE 292253Z 26006KT 10SM FEW042 BKN065 BKN080 14/06 A3008 RMK AO2 SLP186 T01440056=
201805292153 METAR KPAE 292153Z 28005KT 10SM BKN032 BKN043 14/06 A3010 RMK AO2 SLP192 T01440061=
201805292103 SPECI KPAE 292103Z 36003KT 10SM BKN032 BKN043 14/07 A3011 RMK AO2 T01440067=
201805292053 METAR KPAE 292053Z 00000KT 10SM BKN029 BKN036 14/07 A3011 RMK AO2 SLP196 T01440067 58008=
201805292008 SPECI KPAE 292008Z VRB03KT 10SM SCT025 14/07 A3011 RMK AO2 T01440072=
201805292000 SPECI KPAE 292000Z VRB06KT 10SM BKN025 14/07 A3011 RMK AO2 T01390072=
201805291953 METAR KPAE 291953Z 24006KT 10SM BKN033 14/07 A3011 RMK AO2 SLP199 T01390072=
201805291853 METAR KPAE 291853Z VRB03KT 10SM BKN033 14/07 A3013 RMK AO2 SLP203 T01390072=
201805291838 SPECI KPAE 291838Z VRB03KT 10SM FEW023 OVC031 13/07 A3013 RMK AO2 T01280067=
201805291753 METAR KPAE 291753Z VRB03KT 10SM SCT023 OVC027 12/06 A3013 RMK AO2 SLP204 T01220061 10128 20089 58001=
201805291653 METAR KPAE 291653Z 25005KT 10SM OVC028 11/07 A3014 RMK AO2 SLP207 T01110067=
201805291642 SPECI KPAE 291642Z 24003KT 10SM FEW022 OVC028 11/07 A3014 RMK AO2 T01110067=
201805291622 SPECI KPAE 291622Z 27005KT 10SM SCT021 BKN030 OVC047 12/07 A3014 RMK AO2 T01170067=
201805291553 METAR KPAE 291553Z AUTO 00000KT 10SM SCT021 BKN029 OVC046 11/06 A3014 RMK AO2 SLP208 T01110061=
201805291453 METAR KPAE 291453Z AUTO 34003KT 10SM OVC041 11/06 A3014 RMK AO2 SLP205 T01060056 52002=
201805291434 SPECI KPAE 291434Z AUTO 00000KT 10SM SCT025 OVC041 11/06 A3014 RMK AO2 T01060061=
201805291415 SPECI KPAE 291415Z AUTO 33004KT 10SM BKN025 OVC038 10/06 A3014 RMK AO2 T01000056=
201805291353 METAR KPAE 291353Z AUTO 30003KT 10SM FEW025 OVC036 10/06 A3014 RMK AO2 SLP206 T01000056=
201805291333 SPECI KPAE 291333Z AUTO 31004KT 10SM FEW023 SCT028 OVC037 10/06 A3013 RMK AO2 T01000056=
201805291253 METAR KPAE 291253Z AUTO 31005KT 10SM BKN018 BKN024 OVC035 09/06 A3013 RMK AO2 SLP203 T00940056=
201805291251 SPECI KPAE 291251Z AUTO 31005KT 10SM BKN018 OVC035 09/06 A3013 RMK AO2=
201805291153 METAR KPAE 291153Z AUTO 32004KT 10SM FEW035 BKN055 09/06 A3013 RMK AO2 SLP204 T00940056 10106 20094 58008=
201805291053 METAR KPAE 291053Z AUTO 33005KT 10SM BKN050 OVC070 10/05 A3014 RMK AO2 SLP207 T01000050=
201805290953 METAR KPAE 290953Z AUTO 32006KT 10SM SCT050 OVC075 10/06 A3015 RMK AO2 SLP211 T01000056=
201805290853 METAR KPAE 290853Z AUTO 33006KT 10SM BKN041 BKN075 10/06 A3016 RMK AO2 SLP212 T01000056 58004=
201805290753 METAR KPAE 290753Z AUTO 34007KT 10SM BKN038 OVC050 11/06 A3017 RMK AO2 SLP216 T01060056 401830100=
201805290653 METAR KPAE 290653Z AUTO 33006KT 10SM BKN065 10/06 A3017 RMK AO2 SLP217 T01000056=
201805290553 METAR KPAE 290553Z AUTO VRB06KT 10SM BKN060 OVC070 11/06 A3017 RMK AO2 SLP217 T01060061 10167 20100 53001=
201805290453 METAR KPAE 290453Z AUTO 33009G15KT 10SM OVC060 10/07 A3017 RMK AO2 SLP216 T01000072=
201805290353 METAR KPAE 290353Z AUTO 33011G16KT 10SM OVC060 11/07 A3016 RMK AO2 SLP213 T01110067=
201805290253 METAR KPAE 290253Z AUTO 34010KT 10SM BKN070 12/07 A3017 RMK AO2 SLP215 T01220072 56014=
201805290153 METAR KPAE 290153Z AUTO 34009KT 10SM BKN060 14/08 A3018 RMK AO2 SLP218 T01390078=
201805290053 METAR KPAE 290053Z AUTO 32009G16KT 10SM SCT065 15/08 A3019 RMK AO2 SLP224 T01500083=
201805282353 METAR KPAE 282353Z AUTO 32007KT 10SM CLR 17/09 A3021 RMK AO2 SLP229 T01720094 10183 20139 58014=
201805282253 METAR KPAE 282253Z AUTO 34009G15KT 10SM FEW031 FEW070 17/10 A3022 RMK AO2 SLP235 T01720100=
201805282153 METAR KPAE 282153Z 22008KT 10SM BKN032 18/09 A3023 RMK AO2 SLP238 T01780089=
201805282053 METAR KPAE 282053Z 20009KT 10SM SCT034 18/09 A3025 RMK AO2 SLP243 T01780089 58006=
201805281953 METAR KPAE 281953Z VRB04KT 10SM CLR 17/08 A3026 RMK AO2 SLP245 T01670083=
201805281853 METAR KPAE 281853Z 24005KT 10SM SCT019 16/09 A3026 RMK AO2 SLP249 T01560089=
201805281802 SPECI KPAE 281802Z 25006KT 10SM SCT020 14/09 A3027 RMK AO2 T01440094=
201805281753 METAR KPAE 281753Z 25007KT 10SM BKN022 14/09 A3027 RMK AO2 SLP249 T01440094 10150 20106 53002=
201805281653 METAR KPAE 281653Z 28004KT 10SM BKN020 13/09 A3026 RMK AO2 SLP248 T01330089=
201805281618 SPECI KPAE 281618Z 00000KT 10SM BKN020 14/09 A3026 RMK AO2 T01440089=
201805281553 METAR KPAE 281553Z 36004KT 10SM SCT018 13/08 A3026 RMK AO2 SLP248 T01330083=
201805281453 METAR KPAE 281453Z 36004KT 10SM FEW048 13/09 A3026 RMK AO2 SLP247 T01280089 51006=
201805281438 SPECI KPAE 281438Z 01004KT 10SM SCT020 BKN048 12/09 A3026 RMK AO2 T01170089=
201805281412 SPECI KPAE 281412Z 36004KT 10SM BKN021 OVC048 12/08 A3026 RMK AO2 T01170083=
201805281353 METAR KPAE 281353Z 01003KT 10SM OVC049 12/08 A3026 RMK AO2 SLP247 T01170083=
201805281253 METAR KPAE 281253Z AUTO 36004KT 10SM OVC047 11/08 A3025 RMK AO2 SLP242 T01110083=
201805281153 METAR KPAE 281153Z AUTO 02004KT 10SM BKN042 11/08 A3024 RMK AO2 SLP241 T01060083 10117 20106 51001=
201805281053 METAR KPAE 281053Z AUTO 02003KT 10SM CLR 11/08 A3024 RMK AO2 SLP239 T01060083=
201805280953 METAR KPAE 280953Z AUTO 02005KT 10SM CLR 11/09 A3024 RMK AO2 SLP240 T01110089=
201805280853 METAR KPAE 280853Z AUTO 34004KT 10SM CLR 11/09 A3024 RMK AO2 SLP238 T01110089 51012=
201805280753 METAR KPAE 280753Z AUTO 34006KT 10SM CLR 11/09 A3023 RMK AO2 SLP236 T01110089 401940089=
201805280653 METAR KPAE 280653Z AUTO 33006KT 10SM CLR 11/09 A3022 RMK AO2 SLP232 T01110094=
201805280553 METAR KPAE 280553Z AUTO 33006G15KT 10SM CLR 12/09 A3020 RMK AO2 SLP227 T01170094 10189 20117 53007=
201805280453 METAR KPAE 280453Z AUTO 34008G15KT 10SM CLR 12/09 A3019 RMK AO2 SLP223 T01170094=
201805280353 METAR KPAE 280353Z AUTO 33006KT 10SM CLR 13/09 A3018 RMK AO2 SLP220 T01280089=
201805280253 METAR KPAE 280253Z 32006KT 10SM CLR 14/08 A3018 RMK AO2 SLP220 T01440078 55003=
201805280153 METAR KPAE 280153Z 33008KT 10SM CLR 17/08 A3018 RMK AO2 SLP219 T01670078=
201805280053 METAR KPAE 280053Z 32008KT 10SM CLR 18/07 A3018 RMK AO2 SLP220 T01780072=
201805272353 METAR KPAE 272353Z 33008KT 10SM CLR 18/07 A3019 RMK AO2 SLP224 T01830072 10194 20150 58010=
201805272253 METAR KPAE 272253Z 34006KT 10SM CLR 19/09 A3021 RMK AO2 SLP229 T01890089=
201805272153 METAR KPAE 272153Z VRB05KT 10SM CLR 19/09 A3021 RMK AO2 SLP232 T01890089=
201805272053 METAR KPAE 272053Z 19005KT 10SM CLR 19/08 A3022 RMK AO2 SLP234 T01890083 56011=
201805271953 METAR KPAE 271953Z VRB03KT 10SM CLR 18/09 A3023 RMK AO2 SLP236 T01780089=
201805271853 METAR KPAE 271853Z 25006KT 10SM CLR 16/08 A3025 RMK AO2 SLP242 T01610083=
201805271753 METAR KPAE 271753Z 32003KT 10SM CLR 15/08 A3026 RMK AO2 SLP246 T01500078 10156 20089 56004=
201805271653 METAR KPAE 271653Z VRB04KT 10SM CLR 14/07 A3026 RMK AO2 SLP247 T01390067=
201805271553 METAR KPAE 271553Z 32005KT 10SM CLR 13/08 A3026 RMK AO2 SLP248 T01280078=
201805271453 METAR KPAE 271453Z 34003KT 10SM CLR 12/08 A3027 RMK AO2 SLP250 T01220078 58001=
201805271353 METAR KPAE 271353Z VRB03KT 10SM FEW036 10/07 A3027 RMK AO2 SLP252 T01000072=
201805271253 METAR KPAE 271253Z AUTO 00000KT 10SM CLR 09/07 A3027 RMK AO2 SLP252 T00890067=
201805271153 METAR KPAE 271153Z AUTO 00000KT 10SM CLR 09/07 A3027 RMK AO2 SLP252 T00940072 10117 20094 52009=
201805271053 METAR KPAE 271053Z AUTO 35004KT 10SM CLR 09/07 A3026 RMK AO2 SLP248 T00940072=
201805270953 METAR KPAE 270953Z AUTO VRB03KT 10SM CLR 09/07 A3025 RMK AO2 SLP245 T00940067=
201805270853 METAR KPAE 270853Z AUTO 34004KT 10SM CLR 10/07 A3025 RMK AO2 SLP242 T01000067 53004=
201805270753 METAR KPAE 270753Z AUTO 33005KT 10SM CLR 11/07 A3024 RMK AO2 SLP240 T01060067 401780089=
201805270653 METAR KPAE 270653Z AUTO 32006KT 10SM OVC040 11/07 A3024 RMK AO2 SLP239 T01110072=
201805270553 METAR KPAE 270553Z AUTO 34008KT 10SM OVC040 11/07 A3023 RMK AO2 SLP239 T01110072 10150 20111 53008=
201805270453 METAR KPAE 270453Z AUTO 34007KT 10SM CLR 11/07 A3022 RMK AO2 SLP235 T01110072=
201805270353 METAR KPAE 270353Z AUTO 32005KT 10SM CLR 12/07 A3021 RMK AO2 SLP233 T01170072=
201805270253 METAR KPAE 270253Z 32005KT 10SM FEW042 13/08 A3021 RMK AO2 SLP230 T01280078 58000=
201805270153 METAR KPAE 270153Z 32008KT 10SM SCT049 14/08 A3021 RMK AO2 SLP230 T01390083=
201805270053 METAR KPAE 270053Z 33006KT 10SM OVC050 14/08 A3021 RMK AO2 SLP231 T01440078=
201805262353 METAR KPAE 262353Z 31007KT 10SM BKN050 15/08 A3021 RMK AO2 SLP230 T01500083 10178 20133 53006=
201805262253 METAR KPAE 262253Z 26006KT 10SM BKN050 17/08 A3020 RMK AO2 SLP227 T01670078=
201805262153 METAR KPAE 262153Z 28005KT 10SM BKN035 16/08 A3019 RMK AO2 SLP224 T01610078=
201805262053 METAR KPAE 262053Z 24005KT 10SM BKN033 16/09 A3019 RMK AO2 SLP223 T01560089 53007=
201805261953 METAR KPAE 261953Z VRB06KT 10SM OVC031 16/08 A3018 RMK AO2 SLP219 T01560078=
201805261853 METAR KPAE 261853Z 07004KT 10SM OVC031 14/07 A3018 RMK AO2 SLP220 T01390072=
201805261846 SPECI KPAE 261846Z 04004KT 10SM OVC031 14/08 A3018 RMK AO2 T01390078=
201805261823 SPECI KPAE 261823Z 22003KT 10SM BKN021 OVC034 13/08 A3017 RMK AO2 T01330083=
201805261755 SPECI KPAE 261755Z 00000KT 10SM OVC034 13/09 A3017 RMK AO2 T01330089=
201805261753 METAR KPAE 261753Z 00000KT 10SM BKN021 OVC034 13/09 A3017 RMK AO2 SLP217 T01330089 10139 20089 50004=
201805261653 METAR KPAE 261653Z 24005KT 10SM BKN021 BKN027 OVC034 12/08 A3017 RMK AO2 SLP217 T01170083=
201805261553 METAR KPAE 261553Z 14006KT 10SM BKN020 OVC036 12/07 A3016 RMK AO2 SLP214 T01220072=
201805261453 METAR KPAE 261453Z 00000KT 10SM OVC022 11/07 A3016 RMK AO2 SLP213 T01110072 53013=
201805261353 METAR KPAE 261353Z 11003KT 10SM OVC024 11/07 A3014 RMK AO2 SLP206 T01060072=
201805261253 METAR KPAE 261253Z AUTO 12005KT 10SM BKN021 OVC026 09/07 A3012 RMK AO2 SLP200 T00940072=
201805261241 SPECI KPAE 261241Z AUTO 12004KT 10SM BKN023 BKN030 09/07 A3012 RMK AO2 T00940072=
201805261153 METAR KPAE 261153Z AUTO 12005KT 10SM CLR 09/07 A3012 RMK AO2 SLP200 T00940067 10106 20089 53012=
201805261053 METAR KPAE 261053Z AUTO 08005KT 10SM BKN065 09/07 A3010 RMK AO2 SLP195 T00940067=
201805260953 METAR KPAE 260953Z AUTO 02003KT 10SM BKN060 OVC070 10/07 A3010 RMK AO2 SLP192 T01000067=
201805260853 METAR KPAE 260853Z AUTO 35006KT 10SM BKN039 OVC049 10/07 A3008 RMK AO2 SLP188 T01000072 53007=
201805260753 METAR KPAE 260753Z AUTO 35005KT 10SM OVC065 10/07 A3007 RMK AO2 SLP183 T01000072 401610100=
201805260653 METAR KPAE 260653Z AUTO 34006KT 10SM FEW065 10/07 A3007 RMK AO2 SLP184 T01000072=
201805260553 METAR KPAE 260553Z AUTO 34007KT 10SM CLR 11/07 A3006 RMK AO2 SLP181 T01060067 10161 20106 51012=
201805260453 METAR KPAE 260453Z AUTO 36004KT 10SM CLR 11/07 A3006 RMK AO2 SLP179 T01110067=
201805260353 METAR KPAE 260353Z 35006KT 10SM BKN070 11/07 A3004 RMK AO2 SLP174 T01110067=
201805260253 METAR KPAE 260253Z AUTO 34006KT 10SM SCT049 OVC070 13/06 A3003 RMK AO2 SLP169 T01280061 56001=
201805260153 METAR KPAE 260153Z AUTO 32008KT 10SM BKN060 13/07 A3003 RMK AO2 SLP169 T01330067=
201805260053 METAR KPAE 260053Z AUTO 34006KT 10SM BKN060 16/07 A3003 RMK AO2 SLP169 T01560067=
201805252353 METAR KPAE 252353Z AUTO 32009KT 10SM SCT055 15/07 A3003 RMK AO2 SLP169 T01500067 10156 20117 58005=
201805252253 METAR KPAE 252253Z AUTO 33007KT 10SM OVC050 14/08 A3004 RMK AO2 SLP173 T01390083=
201805252153 METAR KPAE 252153Z VRB05KT 10SM SCT032 OVC050 14/08 A3005 RMK AO2 SLP175 T01390083=
201805252053 METAR KPAE 252053Z 31007KT 10SM FEW032 OVC055 14/08 A3005 RMK AO2 SLP176 T01440083 56004=
201805251953 METAR KPAE 251953Z VRB04KT 10SM BKN030 OVC048 14/08 A3005 RMK AO2 SLP176 T01390078=
201805251853 METAR KPAE 251853Z 34006KT 10SM FEW033 OVC046 13/07 A3005 RMK AO2 SLP177 T01280072=
201805251753 METAR KPAE 251753Z 33007KT 10SM OVC046 12/07 A3006 RMK AO2 SLP180 T01170067 10122 20100 50000=
201805251653 METAR KPAE 251653Z 32007KT 10SM OVC047 12/07 A3006 RMK AO2 SLP180 T01170072=
201805251553 METAR KPAE 251553Z 35007KT 10SM OVC043 11/07 A3006 RMK AO2 SLP181 T01110072=
201805251453 METAR KPAE 251453Z 36006KT 10SM OVC039 11/07 A3006 RMK AO2 SLP178 T01110072 51007=
201805251353 METAR KPAE 251353Z 32006KT 10SM BKN041 11/08 A3005 RMK AO2 SLP177 T01110078=
201805251253 METAR KPAE 251253Z AUTO 34006KT 10SM OVC036 10/08 A3004 RMK AO2 SLP173 T01000078=
201805251153 METAR KPAE 251153Z AUTO 35005KT 10SM BKN033 10/08 A3004 RMK AO2 SLP171 T01000078 10111 20100 56004=
201805251053 METAR KPAE 251053Z AUTO 35004KT 10SM OVC033 10/07 A3004 RMK AO2 SLP173 T01000072=
201805250953 METAR KPAE 250953Z AUTO 35006KT 10SM OVC033 11/07 A3004 RMK AO2 SLP171 T01060072=
201805250945 SPECI KPAE 250945Z AUTO 35006KT 10SM OVC031 11/07 A3004 RMK AO2 T01060072=
201805250906 SPECI KPAE 250906Z AUTO 35005KT 10SM BKN028 BKN060 10/07 A3005 RMK AO2 T01000072=
201805250853 METAR KPAE 250853Z AUTO 34005KT 10SM FEW028 SCT060 10/07 A3005 RMK AO2 SLP175 T01000072 58002=
201805250753 METAR KPAE 250753Z AUTO 35006KT 10SM CLR 11/08 A3005 RMK AO2 SLP176 T01060078 401830106=
201805250653 METAR KPAE 250653Z AUTO 35007KT 10SM CLR 11/08 A3005 RMK AO2 SLP176 T01060078=
201805250553 METAR KPAE 250553Z AUTO 34006KT 10SM CLR 11/08 A3005 RMK AO2 SLP178 T01110083 10178 20111 53006=
201805250453 METAR KPAE 250453Z AUTO 33005KT 10SM CLR 12/08 A3005 RMK AO2 SLP174 T01170083=
201805250353 METAR KPAE 250353Z AUTO 33009G16KT 10SM CLR 12/09 A3004 RMK AO2 SLP172 T01170089=
201805250253 METAR KPAE 250253Z 33007KT 10SM CLR 14/09 A3004 RMK AO2 SLP171 T01390094 56006=
201805250153 METAR KPAE 250153Z 32005KT 10SM CLR 16/11 A3004 RMK AO2 SLP171 T01610106=
201805250053 METAR KPAE 250053Z 33005KT 10SM CLR 17/11 A3005 RMK AO2 SLP173 T01720111=
201805242353 METAR KPAE 242353Z 29005KT 10SM CLR 18/11 A3005 RMK AO2 SLP176 T01780111 10183 20133 58009=
201805242253 METAR KPAE 242253Z 25007KT 10SM CLR 18/11 A3007 RMK AO2 SLP181 T01780111=
201805242153 METAR KPAE 242153Z 28005KT 10SM SCT021 17/11 A3008 RMK AO2 SLP183 T01670111=
201805242053 METAR KPAE 242053Z 19007KT 10SM BKN026 17/12 A3008 RMK AO2 SLP186 T01720117 58001=
201805241953 METAR KPAE 241953Z 22006KT 10SM OVC017 15/12 A3009 RMK AO2 SLP188 T01500117=
201805241902 SPECI KPAE 241902Z 13007KT 10SM BKN012 OVC025 16/11 A3009 RMK AO2 T01560111=
201805241900 SPECI KPAE 241900Z 15006KT 10SM SCT017 OVC025 16/11 A3009 RMK AO2 T01560111=
201805241853 METAR KPAE 241853Z 15007KT 10SM SCT008 BKN012 OVC025 15/11 A3009 RMK AO2 SLP188 T01500106=
201805241753 METAR KPAE 241753Z 23006KT 10SM SCT008 BKN012 OVC025 13/11 A3008 RMK AO2 SLP186 T01330111 10139 20122 51012=
201805241708 SPECI KPAE 241708Z VRB05KT 10SM SCT008 BKN012 OVC025 14/11 A3007 RMK AO2 T01390106=
201805241700 SPECI KPAE 241700Z 12006KT 10SM FEW012 OVC020 13/11 A3007 RMK AO2 T01330106=
201805241653 METAR KPAE 241653Z 13006KT 10SM SCT008 BKN012 OVC025 13/11 A3007 RMK AO2 SLP182 T01330111=
201805241620 SPECI KPAE 241620Z 15008KT 10SM FEW006 SCT009 OVC015 13/11 A3007 RMK AO2 T01280106=
201805241553 METAR KPAE 241553Z 15007KT 10SM FEW006 BKN009 OVC017 13/11 A3006 RMK AO2 SLP179 T01280111=
201805241453 METAR KPAE 241453Z 16005KT 4SM R16R/6000VP6000FT BR BKN006 OVC013 12/11 A3005 RMK AO2 CIG 005V009 SLP174 T01220111 53014=
201805241353 METAR KPAE 241353Z 17005KT 9SM OVC009 12/11 A3003 RMK AO2 SLP170 T01220106=
201805241346 SPECI KPAE 241346Z AUTO 17004KT 8SM OVC009 12/11 A3003 RMK AO2 T01220111=
201805241253 METAR KPAE 241253Z AUTO 16005KT 10SM OVC011 13/11 A3001 RMK AO2 SLP162 T01280106=
201805241153 METAR KPAE 241153Z AUTO 19003KT 10SM BKN013 OVC045 13/12 A3001 RMK AO2 SLP160 T01280117 10133 20122 51013=
201805241125 SPECI KPAE 241125Z AUTO 24004KT 10SM OVC013 13/11 A3000 RMK AO2 T01280111=
201805241053 METAR KPAE 241053Z AUTO 16005KT 10SM OVC015 13/11 A3000 RMK AO2 SLP156 T01330111=
201805241020 SPECI KPAE 241020Z AUTO 19003KT 10SM OVC014 13/11 A2999 RMK AO2 T01330111=
201805241008 SPECI KPAE 241008Z AUTO 21003KT 10SM BKN015 BKN055 13/11 A2999 RMK AO2 T01280111=
201805240953 METAR KPAE 240953Z AUTO 18003KT 10SM FEW015 FEW055 13/11 A2998 RMK AO2 SLP151 T01280106=
201805240853 METAR KPAE 240853Z AUTO 08004KT 10SM FEW015 BKN085 BKN110 13/11 A2997 RMK AO2 SLP147 T01330106 51022=
201805240753 METAR KPAE 240753Z AUTO 08004KT 10SM FEW095 13/11 A2995 RMK AO2 SLP140 T01330106 402170117=
201805240653 METAR KPAE 240653Z AUTO 06003KT 10SM CLR 13/11 A2993 RMK AO2 SLP135 T01330106=
201805240553 METAR KPAE 240553Z AUTO 34006KT 10SM CLR 13/11 A2990 RMK AO2 SLP124 T01330111 10200 20128 53025=
201805240453 METAR KPAE 240453Z AUTO 32005KT 10SM CLR 13/11 A2987 RMK AO2 SLP116 T01330111=
201805240353 METAR KPAE 240353Z 33008KT 10SM CLR 14/11 A2985 RMK AO2 SLP106 T01390111=
201805240253 METAR KPAE 240253Z 33011G17KT 10SM CLR 16/11 A2983 RMK AO2 SLP099 T01560111 51004=
201805240153 METAR KPAE 240153Z 33007KT 10SM FEW100 16/12 A2982 RMK AO2 SLP097 T01560117=
201805240053 METAR KPAE 240053Z 32008KT 10SM SCT100 17/11 A2982 RMK AO2 SLP098 T01720111=
201805232353 METAR KPAE 232353Z 32008KT 10SM CLR 19/11 A2981 RMK AO2 SLP094 T01940106 10217 20167 53001=
201805232253 METAR KPAE 232253Z VRB05KT 10SM CLR 20/12 A2980 RMK AO2 SLP090 T02000117=
201805232153 METAR KPAE 232153Z 32006KT 10SM CLR 19/12 A2980 RMK AO2 SLP090 T01940122=
201805232053 METAR KPAE 232053Z VRB03KT 10SM CLR 21/13 A2981 RMK AO2 SLP093 T02110128 58006=
201805231953 METAR KPAE 231953Z 25005KT 10SM CLR 19/12 A2982 RMK AO2 SLP095 T01890117=
201805231853 METAR KPAE 231853Z 24005KT 10SM CLR 18/12 A2983 RMK AO2 SLP100 T01780117=
201805231753 METAR KPAE 231753Z VRB04KT 10SM CLR 17/12 A2983 RMK AO2 SLP099 T01670117 10167 20117 58005=
201805231653 METAR KPAE 231653Z 35005KT 10SM CLR 14/10 A2983 RMK AO2 SLP102 T01440100=
201805231553 METAR KPAE 231553Z 33006KT 10SM CLR 13/10 A2984 RMK AO2 SLP105 T01330100=
201805231453 METAR KPAE 231453Z 32003KT 10SM CLR 13/11 A2984 RMK AO2 SLP104 T01280106 53007=
201805231353 METAR KPAE 231353Z 34004KT 10SM CLR 12/10 A2983 RMK AO2 SLP100 T01220100=
201805231253 METAR KPAE 231253Z AUTO VRB04KT 10SM CLR 12/09 A2983 RMK AO2 SLP099 T01170094=
201805231153 METAR KPAE 231153Z AUTO 35006KT 10SM CLR 12/09 A2982 RMK AO2 SLP097 T01170089 10144 20117 58003=
201805231053 METAR KPAE 231053Z AUTO 35005KT 10SM FEW110 12/09 A2983 RMK AO2 SLP099 T01220089=
201805230953 METAR KPAE 230953Z AUTO 33005KT 10SM CLR 12/09 A2983 RMK AO2 SLP099 T01220089=
201805230853 METAR KPAE 230853Z AUTO 35006KT 10SM CLR 13/09 A2983 RMK AO2 SLP100 T01330089 58008=
201805230753 METAR KPAE 230753Z AUTO 35005KT 10SM CLR 14/09 A2984 RMK AO2 SLP104 T01390089 402170094=
201805230653 METAR KPAE 230653Z AUTO 36004KT 10SM CLR 14/08 A2985 RMK AO2 SLP106 T01390083=
201805230553 METAR KPAE 230553Z AUTO VRB03KT 10SM CLR 13/09 A2986 RMK AO2 SLP109 T01330089 10217 20133 50003=
201805230453 METAR KPAE 230453Z AUTO 34007KT 10SM CLR 14/09 A2986 RMK AO2 SLP109 T01390089=
201805230353 METAR KPAE 230353Z 35005KT 10SM CLR 14/10 A2985 RMK AO2 SLP107 T01440100=
201805230253 METAR KPAE 230253Z 32008KT 10SM CLR 17/11 A2985 RMK AO2 SLP106 T01720106 56007=
201805230153 METAR KPAE 230153Z 33005KT 10SM CLR 19/11 A2985 RMK AO2 SLP106 T01940111=
201805230053 METAR KPAE 230053Z VRB05KT 10SM CLR 22/12 A2986 RMK AO2 SLP110 T02170117=
201805222353 METAR KPAE 222353Z 33008KT 10SM CLR 21/12 A2987 RMK AO2 SLP113 T02110122 10217 20161 56016=
201805222253 METAR KPAE 222253Z 32007KT 290V360 10SM CLR 21/12 A2988 RMK AO2 SLP118 T02060117=
201805222153 METAR KPAE 222153Z 33007KT 300V020 10SM CLR 21/11 A2990 RMK AO2 SLP124 T02060111=
201805222053 METAR KPAE 222053Z VRB06KT 10SM CLR 19/11 A2992 RMK AO2 SLP130 T01940111 58014=
201805221953 METAR KPAE 221953Z 33007KT 10SM CLR 19/11 A2993 RMK AO2 SLP134 T01890111=
201805221853 METAR KPAE 221853Z 33005KT 10SM CLR 18/11 A2995 RMK AO2 SLP141 T01780111=
201805221753 METAR KPAE 221753Z VRB05KT 10SM CLR 16/12 A2996 RMK AO2 SLP145 T01610117 10161 20100 58008=
201805221653 METAR KPAE 221653Z VRB04KT 10SM CLR 16/11 A2997 RMK AO2 SLP149 T01560111=
201805221553 METAR KPAE 221553Z VRB03KT 10SM CLR 14/10 A2998 RMK AO2 SLP152 T01390100=
201805221453 METAR KPAE 221453Z 31004KT 10SM SCT002 13/10 A2999 RMK AO2 SLP153 T01280100 51001=
201805221421 SPECI KPAE 221421Z 33005KT 9SM SCT002 11/10 A2999 RMK AO2 T01110100=
201805221407 SPECI KPAE 221407Z 32005KT 8SM OVC002 11/10 A2999 RMK AO2 T01060100=
201805221353 METAR KPAE 221353Z 32007KT 10SM SCT003 11/10 A2999 RMK AO2 SLP154 T01110100=
201805221350 SPECI KPAE 221350Z 33005KT 10SM BKN003 11/10 A2999 RMK AO2=
201805221341 SPECI KPAE 221341Z AUTO 32004KT 10SM SCT004 11/10 A2999 RMK AO2 T01110100=
201805221253 METAR KPAE 221253Z AUTO 32004KT 10SM CLR 10/09 A2998 RMK AO2 SLP153 T01000089=
201805221153 METAR KPAE 221153Z AUTO 35004KT 10SM CLR 10/09 A2999 RMK AO2 SLP154 T01000089 10117 20094 56007=
201805221053 METAR KPAE 221053Z AUTO 00000KT 10SM CLR 10/09 A2999 RMK AO2 SLP155 T01000089=
201805220953 METAR KPAE 220953Z AUTO 35004KT 10SM CLR 11/09 A3000 RMK AO2 SLP158 T01060089=
201805220853 METAR KPAE 220853Z AUTO 33006KT 10SM CLR 11/09 A3001 RMK AO2 SLP161 T01060089 58002=
201805220753 METAR KPAE 220753Z AUTO 33009KT 10SM CLR 11/09 A3001 RMK AO2 SLP162 T01060089 401890083=
201805220653 METAR KPAE 220653Z AUTO 32007KT 10SM CLR 11/09 A3001 RMK AO2 SLP163 T01110089=
201805220553 METAR KPAE 220553Z AUTO 34009KT 10SM CLR 12/09 A3001 RMK AO2 SLP163 T01170089 10189 20117 50000=
201805220453 METAR KPAE 220453Z AUTO 35005KT 10SM CLR 12/09 A3002 RMK AO2 SLP164 T01220094=
201805220353 METAR KPAE 220353Z AUTO 32005KT 10SM CLR 14/10 A3001 RMK AO2 SLP163 T01390100=
201805220253 METAR KPAE 220253Z 31003KT 10SM CLR 17/09 A3001 RMK AO2 SLP163 T01670094 56008=
201805220153 METAR KPAE 220153Z 32005KT 10SM CLR 18/09 A3001 RMK AO2 SLP164 T01780094=
201805220053 METAR KPAE 220053Z 33006KT 10SM CLR 18/09 A3003 RMK AO2 SLP168 T01830094=
201805212353 METAR KPAE 212353Z 33006KT 10SM CLR 18/10 A3004 RMK AO2 SLP172 T01830100 10183 20139 58009=
201805212253 METAR KPAE 212253Z 33009KT 10SM SCT045 18/10 A3005 RMK AO2 SLP177 T01830100=
201805212153 METAR KPAE 212153Z 29005KT 10SM CLR 17/11 A3006 RMK AO2 SLP180 T01720111=
201805212053 METAR KPAE 212053Z VRB05KT 10SM CLR 17/11 A3007 RMK AO2 SLP181 T01720106 58008=
201805211953 METAR KPAE 211953Z VRB04KT 10SM CLR 16/10 A3008 RMK AO2 SLP185 T01610100=
201805211853 METAR KPAE 211853Z 32009KT 10SM CLR 14/09 A3009 RMK AO2 SLP189 T01440089=
201805211753 METAR KPAE 211753Z 00000KT 10SM FEW042 14/09 A3009 RMK AO2 SLP189 T01390089 10144 20094 51003=
201805211653 METAR KPAE 211653Z VRB05KT 10SM FEW042 14/09 A3009 RMK AO2 SLP189 T01390089=
201805211553 METAR KPAE 211553Z 33006KT 10SM CLR 12/08 A3009 RMK AO2 SLP189 T01220083=
201805211536 SPECI KPAE 211536Z 34004KT 10SM SCT022 12/08 A3008 RMK AO2 T01220083=
201805211453 METAR KPAE 211453Z 31003KT 10SM OVC024 11/08 A3008 RMK AO2 SLP187 T01110078 53004=
201805211353 METAR KPAE 211353Z 00000KT 10SM BKN021 10/08 A3008 RMK AO2 SLP186 T01000078=
201805211253 METAR KPAE 211253Z AUTO 33004KT 10SM OVC020 10/08 A3007 RMK AO2 SLP182 T01000078=
201805211153 METAR KPAE 211153Z AUTO 31004KT 10SM OVC022 09/08 A3007 RMK AO2 SLP182 70012 T00940083 10111 20083 55001=
201805211106 SPECI KPAE 211106Z AUTO 31003KT 10SM BKN024 09/08 A3007 RMK AO2 T00890078=
201805211053 METAR KPAE 211053Z AUTO 00000KT 10SM FEW024 09/07 A3006 RMK AO2 SLP181 T00890072=
201805210953 METAR KPAE 210953Z AUTO 00000KT 10SM CLR 09/08 A3006 RMK AO2 SLP181 T00940078=
201805210853 METAR KPAE 210853Z AUTO 35004KT 10SM SCT050 10/08 A3007 RMK AO2 SLP184 T01000078 50000=
201805210753 METAR KPAE 210753Z AUTO 35005KT 10SM FEW043 10/08 A3007 RMK AO2 SLP185 T01000083 401610100=
201805210653 METAR KPAE 210653Z AUTO 33007KT 10SM SCT041 11/08 A3007 RMK AO2 SLP184 T01060083=
201805210553 METAR KPAE 210553Z AUTO 33006KT 10SM OVC039 11/08 A3007 RMK AO2 SLP184 T01110083 10156 20111 51007=
201805210453 METAR KPAE 210453Z AUTO 33008KT 10SM OVC040 11/08 A3007 RMK AO2 SLP184 T01110083=
201805210353 METAR KPAE 210353Z AUTO 32005KT 10SM CLR 11/09 A3005 RMK AO2 SLP178 T01110089=
201805210253 METAR KPAE 210253Z 32005KT 10SM CLR 13/09 A3005 RMK AO2 SLP177 T01280089 58001=
201805210153 METAR KPAE 210153Z 32008KT 10SM OVC045 14/09 A3005 RMK AO2 SLP178 T01390089=
201805210053 METAR KPAE 210053Z 32007KT 10SM BKN041 15/09 A3005 RMK AO2 SLP177 T01500094=
201805202353 METAR KPAE 202353Z 33007KT 10SM FEW038 SCT046 16/11 A3005 RMK AO2 SLP177 60001 T01560106 10161 20106 56009=
201805202253 METAR KPAE 202253Z VRB04KT 10SM SCT010 BKN031 OVC075 16/11 A3006 RMK AO2 SLP179 T01560111=
201805202153 METAR KPAE 202153Z 35005KT 10SM SCT010 BKN031 OVC075 14/11 A3007 RMK AO2 SLP182 T01440106=
201805202126 SPECI KPAE 202126Z 35003KT 10SM SCT007 BKN025 OVC070 13/10 A3008 RMK AO2 T01330100=
201805202053 METAR KPAE 202053Z VRB03KT 10SM OVC009 13/10 A3008 RMK AO2 SLP187 60001 T01330100 50001=
201805201953 METAR KPAE 201953Z 35006KT 10SM OVC008 11/09 A3008 RMK AO2 SLP187 T01110094=
201805201853 METAR KPAE 201853Z 35004KT 8SM OVC005 11/09 A3008 RMK AO2 SLP186 P0001 T01060094=
201805201849 SPECI KPAE 201849Z 33004KT 7SM OVC005 11/09 A3008 RMK AO2 P0001=
201805201753 METAR KPAE 201753Z 32005KT 1 1/2SM BR OVC002 11/10 A3007 RMK AO2 RAB08E45 SLP183 P0001 60011 T01060100 10111 20106 51011=
201805201732 SPECI KPAE 201732Z 33006KT 1 1/2SM -RA BR OVC002 11/10 A3006 RMK AO2 RAB08 P0001 T01060100=
201805201659 SPECI KPAE 201659Z 33004KT 1 1/2SM BR BKN005 OVC009 11/10 A3006 RMK AO2 T01060100=
201805201653 METAR KPAE 201653Z 33003KT 1SM R16R/P6000FT BR BKN004 OVC010 11/10 A3006 RMK AO2 SLP181 P0001 T01060100=
201805201602 SPECI KPAE 201602Z 33004KT 1SM R16R/P6000FT BR BKN002 OVC010 11/10 A3005 RMK AO2 P0001 T01060100=
201805201600 SPECI KPAE 201600Z 33005KT 1 3/4SM BR SCT003 OVC010 11/10 A3005 RMK AO2 P0001 T01060100=
201805201553 METAR KPAE 201553Z 34003KT 1SM R16R/P6000FT BR BKN002 OVC011 11/11 A3005 RMK AO2 RAE12 SLP176 P0000 T01060106=
201805201453 METAR KPAE 201453Z 35005KT 1 1/2SM R16R/5000VP6000FT -RA BR BKN002 BKN007 OVC011 11/10 A3004 RMK AO2 SLP171 P0007 60009 T01060100 53013=
201805201430 SPECI KPAE 201430Z VRB04KT 1 1/2SM R16R/6000VP6000FT -RA BR BKN003 OVC008 11/10 A3003 RMK AO2 P0004 T01060100=
201805201353 METAR KPAE 201353Z 01003KT 1 1/2SM -RA BR OVC006 11/10 A3002 RMK AO2 RAE01B49 CIG 003V008 SLP166 P0001 T01060100=
201805201334 SPECI KPAE 201334Z AUTO 35005KT 2 1/2SM BR OVC008 11/10 A3002 RMK AO2 RAE01 P0000 T01060100=
201805201253 METAR KPAE 201253Z AUTO 34004KT 5SM -RA BR OVC009 11/10 A3001 RMK AO2 RAB33 SLP161 P0001 T01110100=
201805201153 METAR KPAE 201153Z AUTO 00000KT 10SM OVC009 11/10 A3000 RMK AO2 CIG 006V011 SLP157 70009 T01110100 10122 20111 53005=
201805201135 SPECI KPAE 201135Z AUTO 00000KT 10SM OVC010 11/10 A3000 RMK AO2 T01110100=
201805201053 METAR KPAE 201053Z AUTO 36004KT 10SM OVC009 11/10 A2999 RMK AO2 SLP155 T01110100=
201805201023 SPECI KPAE 201023Z AUTO 33005KT 10SM OVC009 11/10 A2999 RMK AO2 T01110100=
201805200953 METAR KPAE 200953Z AUTO 33005KT 10SM OVC013 11/10 A2999 RMK AO2 SLP153 T01110100=
201805200919 SPECI KPAE 200919Z AUTO 34007KT 10SM OVC014 11/10 A2999 RMK AO2 T01110100=
201805200853 METAR KPAE 200853Z AUTO 34006KT 10SM OVC016 11/10 A2998 RMK AO2 SLP152 T01110100 53001=
201805200753 METAR KPAE 200753Z AUTO 33006KT 10SM OVC017 12/11 A2998 RMK AO2 SLP151 T01170106 401940106=
201805200653 METAR KPAE 200653Z AUTO 31003KT 10SM BKN021 OVC027 12/12 A2998 RMK AO2 SLP153 T01220117=
201805200622 SPECI KPAE 200622Z AUTO 00000KT 10SM BKN025 BKN032 OVC085 12/12 A2998 RMK AO2 T01220117=
201805200553 METAR KPAE 200553Z AUTO 34004KT 10SM OVC085 12/12 A2998 RMK AO2 RAE0458 SLP152 P0000 60009 T01220117 10178 20122 53006=
201805200453 METAR KPAE 200453Z AUTO 35004KT 10SM -RA BKN080 OVC100 13/12 A2997 RMK AO2 SLP150 P0004 T01280122=
201805200353 METAR KPAE 200353Z AUTO 33004KT 5SM -RA BR OVC075 13/12 A2997 RMK AO2 RAB06 SLP147 P0005 T01330122=
201805200253 METAR KPAE 200253Z 26004KT 10SM BKN050 OVC080 14/11 A2996 RMK AO2 SLP146 T01440106 53002=
201805200153 METAR KPAE 200153Z 32005KT 10SM OVC100 16/11 A2995 RMK AO2 SLP142 T01610111=
201805200053 METAR KPAE 200053Z 33006KT 10SM OVC100 17/12 A2995 RMK AO2 SLP143 T01720117=
201805192353 METAR KPAE 192353Z 33006KT 10SM BKN095 18/12 A2996 RMK AO2 LTG DSNT NE SLP143 T01830122 10194 20156 56012=
201805192253 METAR KPAE 192253Z 33004KT 10SM BKN110 18/12 A2997 RMK AO2 LTG DSNT E AND SE SLP148 T01780122=
201805192153 METAR KPAE 192153Z 24006KT 10SM CLR 18/13 A2998 RMK AO2 LTG DSNT E AND SE SLP149 T01830128=
201805192053 METAR KPAE 192053Z 23006KT 10SM CLR 18/13 A2999 RMK AO2 SLP155 T01830133 58011=
201805191953 METAR KPAE 191953Z 24006KT 10SM CLR 18/13 A3001 RMK AO2 SLP160 T01780133=
201805191853 METAR KPAE 191853Z 23006KT 10SM SCT075 BKN100 16/12 A3002 RMK AO2 SLP165 T01610122=
201805191753 METAR KPAE 191753Z 25004KT 10SM FEW015 SCT065 16/12 A3002 RMK AO2 SLP167 T01560122 10167 20111 58001=
201805191700 SPECI KPAE 191700Z VRB03KT 10SM FEW013 16/12 A3003 RMK AO2 T01610117=
201805191653 METAR KPAE 191653Z 31003KT 10SM FEW009 BKN013 16/12 A3003 RMK AO2 SLP167 T01560122=
201805191600 SPECI KPAE 191600Z 00000KT 10SM SCT009 BKN013 OVC080 14/12 A3004 RMK AO2 T01440117=
201805191553 METAR KPAE 191553Z 00000KT 10SM SCT009 BKN080 15/12 A3003 RMK AO2 SLP169 T01500122=
201805191524 SPECI KPAE 191524Z 00000KT 10SM BKN008 13/11 A3003 RMK AO2 T01330111=
201805191515 SPECI KPAE 191515Z 00000KT 10SM SCT008 13/11 A3003 RMK AO2 T01330111=
201805191453 METAR KPAE 191453Z 00000KT 10SM CLR 13/11 A3003 RMK AO2 SLP168 T01280106 51001=
201805191411 SPECI KPAE 191411Z 00000KT 10SM FEW007 BKN085 12/10 A3003 RMK AO2 T01220100=
201805191353 METAR KPAE 191353Z AUTO 00000KT 10SM BKN085 12/11 A3003 RMK AO2 SLP168 T01170106=
201805191253 METAR KPAE 191253Z AUTO 00000KT 10SM SCT070 OVC085 11/10 A3003 RMK AO2 SLP168 T01110100=
201805191225 SPECI KPAE 191225Z AUTO 00000KT 10SM SCT025 OVC060 11/10 A3003 RMK AO2 T01110100=
201805191153 METAR KPAE 191153Z AUTO 35003KT 10SM OVC022 11/10 A3003 RMK AO2 SLP167 T01110100 10122 20106 56003=
201805191117 SPECI KPAE 191117Z AUTO 33003KT 10SM SCT003 OVC020 11/10 A3003 RMK AO2 T01060100=
201805191053 METAR KPAE 191053Z AUTO 33005KT 10SM BKN004 OVC020 11/10 A3003 RMK AO2 SLP168 T01060100=
201805191005 SPECI KPAE 191005Z AUTO 33006KT 10SM BKN004 BKN024 OVC110 11/10 A3002 RMK AO2 T01110100=
201805190953 METAR KPAE 190953Z AUTO 33006KT 10SM SCT004 BKN024 OVC110 11/10 A3003 RMK AO2 SLP167 T01110100=
201805190853 METAR KPAE 190853Z AUTO 34005KT 10SM OVC022 12/10 A3003 RMK AO2 SLP170 T01170100 58003=
201805190806 SPECI KPAE 190806Z AUTO 33005KT 10SM BKN022 OVC070 11/10 A3004 RMK AO2 T01110100=
201805190753 METAR KPAE 190753Z AUTO 33007KT 10SM SCT021 OVC065 11/10 A3004 RMK AO2 SLP174 T01110100 401610106=
201805190653 METAR KPAE 190653Z AUTO 34005KT 10SM SCT070 SCT080 OVC100 12/11 A3005 RMK AO2 SLP176 T01170106=
201805190553 METAR KPAE 190553Z AUTO 34005KT 10SM BKN100 12/11 A3005 RMK AO2 SLP175 T01220111 10156 20122 52002=
201805190453 METAR KPAE 190453Z AUTO 33003KT 10SM BKN100 13/12 A3005 RMK AO2 SLP175 T01330117=
201805190353 METAR KPAE 190353Z 00000KT 10SM OVC100 14/11 A3004 RMK AO2 SLP171 T01440111=
201805190253 METAR KPAE 190253Z 00000KT 10SM OVC095 15/11 A3004 RMK AO2 SLP172 T01500111 55002=
201805190227 SPECI KPAE 190227Z 26003KT 10SM SCT022 OVC090 15/11 A3004 RMK AO2 T01500111=
201805190153 METAR KPAE 190153Z 00000KT 10SM OVC022 16/11 A3004 RMK AO2 SLP171 T01560111=
201805190053 METAR KPAE 190053Z 26004KT 10SM BKN022 OVC110 16/11 A3004 RMK AO2 SLP173 T01560111=
201805182358 SPECI KPAE 182358Z 28004KT 10SM BKN022 OVC110 15/11 A3005 RMK AO2 T01500111=
201805182353 METAR KPAE 182353Z 26006KT 10SM SCT013 16/11 A3005 RMK AO2 SLP174 T01560111 10161 20117 58006=
201805182300 SPECI KPAE 182300Z 22003KT 10SM SCT013 15/12 A3005 RMK AO2 T01500117=
201805182253 METAR KPAE 182253Z VRB03KT 10SM SCT005 BKN013 16/12 A3005 RMK AO2 SLP177 T01610122=
201805182200 SPECI KPAE 182200Z 24003KT 10SM SCT005 BKN013 14/12 A3006 RMK AO2 T01390117=
201805182153 METAR KPAE 182153Z 27003KT 10SM OVC004 14/11 A3006 RMK AO2 SLP180 T01390111=
201805182053 METAR KPAE 182053Z VRB03KT 8SM OVC004 14/12 A3006 RMK AO2 SLP181 T01440117 58000=
201805182002 SPECI KPAE 182002Z 00000KT 4SM BR OVC004 13/11 A3007 RMK AO2 T01280111=
201805182000 SPECI KPAE 182000Z 00000KT 8SM BR OVC005 13/11 A3007 RMK AO2 T01330111=
201805181953 METAR KPAE 181953Z 00000KT 3SM BR OVC003 13/12 A3007 RMK AO2 SLP183 T01280117=
201805181853 METAR KPAE 181853Z 29004KT 8SM OVC003 12/11 A3007 RMK AO2 SLP182 T01220106=
201805181753 METAR KPAE 181753Z 00000KT 3SM BR OVC003 12/11 A3007 RMK AO2 SLP182 60000 T01170106 10117 20106 53005=
201805181653 METAR KPAE 181653Z 33003KT 5SM BR OVC004 11/11 A3006 RMK AO2 SLP179 T01110106=
201805181553 METAR KPAE 181553Z 34003KT 3SM BR OVC003 11/11 A3005 RMK AO2 RAE1457 SLP177 P0000 T01110106=
201805181453 METAR KPAE 181453Z 30003KT 6SM -RA BR OVC003 11/10 A3005 RMK AO2 RAB34 SLP176 P0000 60000 T01110100 52003=
201805181448 SPECI KPAE 181448Z 30003KT 7SM -RA OVC003 11/11 A3005 RMK AO2 RAB34 P0000=
201805181353 METAR KPAE 181353Z 00000KT 10SM OVC006 11/10 A3004 RMK AO2 SLP173 T01110100=
201805181326 SPECI KPAE 181326Z AUTO 00000KT 10SM OVC005 11/10 A3005 RMK AO2 T01110100=
201805181253 METAR KPAE 181253Z AUTO 00000KT 10SM OVC004 11/10 A3004 RMK AO2 SLP173 T01110100=
201805181205 SPECI KPAE 181205Z AUTO 31004KT 10SM OVC004 11/10 A3005 RMK AO2 T01110100=
201805181153 METAR KPAE 181153Z AUTO 32004KT 10SM OVC005 11/10 A3004 RMK AO2 SLP174 T01110100 10122 20111 50000=
201805181053 METAR KPAE 181053Z AUTO VRB05KT 10SM OVC005 11/10 A3005 RMK AO2 SLP174 T01110100=
201805181033 SPECI KPAE 181033Z AUTO VRB04KT 10SM OVC005 11/10 A3004 RMK AO2 T01110100=
201805180953 METAR KPAE 180953Z AUTO 32006KT 10SM BKN004 OVC110 11/10 A3004 RMK AO2 SLP172 T01110100=
201805180915 SPECI KPAE 180915Z AUTO 33006KT 10SM BKN005 BKN046 OVC110 11/10 A3004 RMK AO2 T01110100=
201805180901 SPECI KPAE 180901Z AUTO 33006KT 10SM FEW004 SCT047 OVC110 11/10 A3004 RMK AO2 T01110100=
201805180853 METAR KPAE 180853Z AUTO 33006KT 10SM SCT047 OVC110 11/10 A3004 RMK AO2 SLP173 T01110100 55003=
201805180753 METAR KPAE 180753Z AUTO 33005KT 10SM SCT035 BKN049 BKN120 12/10 A3004 RMK AO2 SLP172 T01170100 401720117=
201805180653 METAR KPAE 180653Z AUTO 33005KT 10SM OVC035 12/11 A3004 RMK AO2 SLP173 T01220106=
201805180553 METAR KPAE 180553Z AUTO 33006KT 10SM FEW036 12/11 A3005 RMK AO2 SLP176 T01220106 10172 20122 53002=
201805180453 METAR KPAE 180453Z AUTO 33003KT 10SM SCT033 13/11 A3004 RMK AO2 SLP173 T01280111=
201805180353 METAR KPAE 180353Z AUTO 07005KT 10SM SCT034 BKN065 15/11 A3004 RMK AO2 SLP173 T01500106=
201805180253 METAR KPAE 180253Z 07007KT 10SM OVC034 16/11 A3005 RMK AO2 SLP174 T01560106 55004=
201805180205 SPECI KPAE 180205Z 08006KT 10SM FEW025 OVC033 17/11 A3004 RMK AO2 T01670106=
201805180153 METAR KPAE 180153Z 04006KT 10SM BKN026 OVC034 17/11 A3004 RMK AO2 SLP173 T01670106=
201805180053 METAR KPAE 180053Z 29003KT 10SM BKN027 16/11 A3004 RMK AO2 SLP174 T01610106=
201805180038 SPECI KPAE 180038Z 00000KT 10SM OVC029 17/11 A3005 RMK AO2 T01670106=
201805172353 METAR KPAE 172353Z 16005KT 10SM OVC033 17/10 A3006 RMK AO2 SLP178 T01670100 10172 20128 58005=
201805172253 METAR KPAE 172253Z VRB03KT 10SM SCT036 OVC065 16/10 A3006 RMK AO2 SLP180 T01610100=
201805172153 METAR KPAE 172153Z 21006KT 10SM OVC033 16/11 A3007 RMK AO2 SLP184 T01610106=
201805172053 METAR KPAE 172053Z 22009KT 10SM BKN033 16/11 A3007 RMK AO2 SLP184 T01610106 56006=
201805171953 METAR KPAE 171953Z 20008KT 10SM BKN031 OVC060 15/11 A3008 RMK AO2 SLP185 T01500106=
201805171943 SPECI KPAE 171943Z VRB06KT 10SM OVC030 15/10 A3008 RMK AO2 T01500100=
201805171853 METAR KPAE 171853Z 24006KT 10SM OVC027 14/11 A3009 RMK AO2 SLP188 T01390106=
201805171753 METAR KPAE 171753Z 22007KT 10SM BKN019 OVC028 13/10 A3009 RMK AO2 SLP190 T01280100 10133 20117 58003=
201805171653 METAR KPAE 171653Z 24005KT 10SM OVC016 13/10 A3010 RMK AO2 SLP192 T01280100=
201805171553 METAR KPAE 171553Z 15005KT 10SM SCT014 OVC023 12/09 A3010 RMK AO2 SLP194 T01220089=
201805171523 SPECI KPAE 171523Z 15008KT 10SM SCT014 OVC023 12/09 A3010 RMK AO2 T01220089=
201805171516 SPECI KPAE 171516Z 13007KT 10SM BKN014 OVC023 12/09 A3010 RMK AO2 T01220089=
201805171453 METAR KPAE 171453Z 16007KT 10SM SCT014 OVC022 12/09 A3010 RMK AO2 SLP193 T01220089 51005=
201805171428 SPECI KPAE 171428Z 16007KT 10SM OVC015 12/09 A3010 RMK AO2 T01170089=
201805171353 METAR KPAE 171353Z 17005KT 10SM OVC014 12/09 A3010 RMK AO2 SLP193 T01170089=
201805171343 SPECI KPAE 171343Z AUTO 18006KT 10SM OVC014 12/09 A3010 RMK AO2 T01170089=
201805171333 SPECI KPAE 171333Z AUTO 18005KT 10SM OVC015 12/09 A3010 RMK AO2 T01170089=
201805171316 SPECI KPAE 171316Z AUTO 16007KT 10SM BKN014 BKN019 OVC032 12/09 A3009 RMK AO2 T01170089=
201805171252 METAR KPAE 171252Z AUTO 16007KT 10SM FEW014 SCT021 OVC030 12/09 A3009 RMK AO2 SLP190 T01170089=
201805171251 SPECI KPAE 171251Z AUTO 17007KT 10SM SCT014 SCT021 OVC030 12/09 A3009 RMK AO2=
201805171244 SPECI KPAE 171244Z AUTO 18007KT 10SM BKN014 BKN021 OVC030 12/09 A3009 RMK AO2 T01170089=
201805171153 METAR KPAE 171153Z AUTO 16007KT 10SM OVC028 12/09 A3009 RMK AO2 SLP187 T01170089 10139 20117 50002=
201805171053 METAR KPAE 171053Z AUTO 17008KT 10SM BKN015 OVC030 12/09 A3009 RMK AO2 SLP187 T01220089=
201805170953 METAR KPAE 170953Z AUTO 17007KT 10SM FEW012 OVC034 12/09 A3008 RMK AO2 SLP186 T01220094=
201805170853 METAR KPAE 170853Z AUTO 17006KT 10SM FEW013 OVC035 12/09 A3008 RMK AO2 SLP184 T01220094 50001=
201805170753 METAR KPAE 170753Z AUTO 15007KT 10SM OVC036 13/10 A3008 RMK AO2 SLP185 T01280100 401890117=
201805170653 METAR KPAE 170653Z AUTO 17007KT 10SM BKN035 13/10 A3008 RMK AO2 SLP184 T01330100=
201805170553 METAR KPAE 170553Z AUTO 18007KT 10SM OVC035 14/11 A3008 RMK AO2 SLP184 T01390106 10189 20128 51013=
201805170453 METAR KPAE 170453Z AUTO VRB03KT 10SM OVC032 14/11 A3007 RMK AO2 SLP183 T01390111=
201805170353 METAR KPAE 170353Z 33004KT 10SM OVC031 14/11 A3005 RMK AO2 SLP176 T01390106=
201805170253 METAR KPAE 170253Z 33005KT 10SM BKN040 15/11 A3004 RMK AO2 SLP171 T01500106 53004=
201805170153 METAR KPAE 170153Z 24003KT 10SM CLR 17/11 A3003 RMK AO2 SLP169 T01670111=
201805170053 METAR KPAE 170053Z 23007KT 10SM CLR 17/11 A3003 RMK AO2 SLP167 T01720106=
201805162353 METAR KPAE 162353Z 22007KT 10SM CLR 18/11 A3003 RMK AO2 SLP166 T01830106 10189 20144 56005=
201805162253 METAR KPAE 162253Z 24009KT 10SM CLR 18/11 A3003 RMK AO2 SLP168 T01830111=
201805162153 METAR KPAE 162153Z 23010KT 10SM CLR 18/11 A3003 RMK AO2 SLP169 T01830106=
201805162053 METAR KPAE 162053Z 22008KT 10SM CLR 18/11 A3004 RMK AO2 SLP171 T01780106 50000=
201805161953 METAR KPAE 161953Z 21009KT 10SM FEW027 17/11 A3004 RMK AO2 SLP172 T01670106=
201805161946 SPECI KPAE 161946Z 22008KT 10SM SCT027 17/11 A3004 RMK AO2 T01670106=
201805161930 SPECI KPAE 161930Z 21005KT 10SM BKN026 17/11 A3004 RMK AO2 T01670106=
201805161920 SPECI KPAE 161920Z 21007KT 10SM SCT026 16/10 A3004 RMK AO2 T01560100=
201805161853 METAR KPAE 161853Z 20006KT 10SM BKN024 16/10 A3004 RMK AO2 SLP172 T01610100=
201805161842 SPECI KPAE 161842Z 18006KT 10SM BKN023 16/10 A3004 RMK AO2 T01560100=
201805161800 SPECI KPAE 161800Z 00000KT 10SM SCT021 BKN035 14/09 A3004 RMK AO2 T01440094=
201805161753 METAR KPAE 161753Z 19009KT 10SM BKN019 OVC035 16/10 A3004 RMK AO2 SLP172 T01560100 10156 20117 51001=
201805161653 METAR KPAE 161653Z 19007KT 10SM BKN018 OVC034 14/09 A3004 RMK AO2 SLP172 T01390094=
201805161553 METAR KPAE 161553Z 18007KT 10SM BKN018 OVC033 13/09 A3004 RMK AO2 SLP172 T01330094=
201805161453 METAR KPAE 161453Z 15011KT 10SM BKN017 OVC033 12/09 A3004 RMK AO2 SLP171 T01220089 51003=
201805161449 SPECI KPAE 161449Z 16009KT 10SM BKN017 OVC033 12/09 A3004 RMK AO2=
201805161353 METAR KPAE 161353Z 17010KT 10SM SCT015 OVC033 12/09 A3003 RMK AO2 SLP170 T01220089=
201805161253 METAR KPAE 161253Z AUTO 15008KT 10SM OVC012 12/09 A3003 RMK AO2 SLP168 T01170094=
201805161153 METAR KPAE 161153Z AUTO 17008KT 10SM OVC012 12/09 A3002 RMK AO2 SLP166 T01220094 10139 20122 51007=
201805161053 METAR KPAE 161053Z 15014KT 10SM OVC013 12/09 A3002 RMK AO2 SLP165 T01220094=
201805160953 METAR KPAE 160953Z 17011KT 10SM OVC009 13/10 A3001 RMK AO2 SLP161 T01280100=
201805160853 METAR KPAE 160853Z 17010KT 10SM OVC009 13/11 A3000 RMK AO2 SLP159 T01280106 51011=
201805160753 METAR KPAE 160753Z 16009KT 10SM OVC008 13/11 A3000 RMK AO2 SLP156 T01330111 402000122=
201805160731 SPECI KPAE 160731Z 17009KT 10SM OVC009 13/11 A2999 RMK AO2 T01330111=
201805160713 SPECI KPAE 160713Z 17012G18KT 10SM BKN011 13/11 A2998 RMK AO2 T01330111=
201805160653 METAR KPAE 160653Z 17006KT 10SM CLR 14/12 A2998 RMK AO2 SLP151 T01390117=
201805160553 METAR KPAE 160553Z 21003KT 10SM CLR 13/11 A2997 RMK AO2 SLP148 T01280111 10194 20128 53020=
201805160453 METAR KPAE 160453Z 34005KT 10SM CLR 13/12 A2995 RMK AO2 SLP142 T01330117=
201805160353 METAR KPAE 160353Z 33006KT 10SM CLR 14/12 A2993 RMK AO2 SLP133 T01390117=
201805160253 METAR KPAE 160253Z 33006KT 10SM CLR 15/12 A2991 RMK AO2 SLP128 T01500117 55001=
201805160153 METAR KPAE 160153Z 33007KT 10SM CLR 16/12 A2991 RMK AO2 SLP127 T01610122=
201805160053 METAR KPAE 160053Z 27005KT 10SM CLR 19/13 A2991 RMK AO2 SLP128 T01890128=
201805152353 METAR KPAE 152353Z 28007KT 10SM CLR 19/13 A2991 RMK AO2 SLP129 T01940133 10200 20144 58009=
201805152253 METAR KPAE 152253Z 21007KT 10SM CLR 19/13 A2993 RMK AO2 SLP134 T01940133=
201805152153 METAR KPAE 152153Z 21008KT 10SM CLR 19/13 A2994 RMK AO2 SLP136 T01890133=
201805152053 METAR KPAE 152053Z 22007KT 10SM CLR 18/13 A2994 RMK AO2 SLP138 T01830133 58007=
201805151953 METAR KPAE 151953Z 22008KT 10SM CLR 17/13 A2995 RMK AO2 SLP140 T01670128=
201805151853 METAR KPAE 151853Z 21010KT 10SM CLR 16/13 A2996 RMK AO2 SLP144 T01610128=
201805151814 SPECI KPAE 151814Z 20007KT 10SM SCT012 15/12 A2996 RMK AO2 T01500122=
201805151753 METAR KPAE 151753Z 21007KT 10SM BKN009 14/12 A2996 RMK AO2 SLP145 T01440122 10144 20122 51005=
201805151712 SPECI KPAE 151712Z 21008KT 10SM OVC009 14/12 A2996 RMK AO2 T01390117=
201805151705 SPECI KPAE 151705Z 23006KT 10SM OVC010 14/12 A2996 RMK AO2 T01390122=
201805151653 METAR KPAE 151653Z VRB03KT 10SM OVC008 14/12 A2996 RMK AO2 SLP143 T01440117=
201805151553 METAR KPAE 151553Z 18006KT 9SM OVC007 13/11 A2996 RMK AO2 SLP144 T01280111=
201805151453 METAR KPAE 151453Z 23005KT 10SM BKN009 12/12 A2995 RMK AO2 SLP140 T01220117 51011=
201805151448 SPECI KPAE 151448Z 22005KT 9SM BKN009 12/11 A2995 RMK AO2=
201805151353 METAR KPAE 151353Z AUTO 17003KT 10SM CLR 13/12 A2993 RMK AO2 SLP133 T01330117=
201805151253 METAR KPAE 151253Z AUTO 18004KT 10SM CLR 12/11 A2992 RMK AO2 SLP128 T01220111=
201805151153 METAR KPAE 151153Z AUTO 22004KT 10SM CLR 13/11 A2990 RMK AO2 SLP123 T01280106 10167 20128 53004=
201805151053 METAR KPAE 151053Z AUTO 00000KT 10SM CLR 14/10 A2990 RMK AO2 SLP122 T01390100=
201805150953 METAR KPAE 150953Z AUTO 00000KT 10SM BKN110 16/10 A2989 RMK AO2 SLP119 T01560100=
201805150853 METAR KPAE 150853Z AUTO 36003KT 10SM CLR 15/10 A2989 RMK AO2 SLP118 T01500100 50004=
201805150753 METAR KPAE 150753Z AUTO 33003KT 10SM CLR 15/10 A2989 RMK AO2 SLP121 T01500100 402560144=
201805150653 METAR KPAE 150653Z AUTO 31003KT 10SM CLR 15/10 A2989 RMK AO2 SLP118 T01500100=
201805150553 METAR KPAE 150553Z AUTO 33004KT 10SM CLR 16/10 A2988 RMK AO2 SLP115 T01610100 10250 20161 53004=
201805150453 METAR KPAE 150453Z AUTO 33008KT 10SM CLR 17/10 A2987 RMK AO2 SLP113 T01670100=
201805150353 METAR KPAE 150353Z 34006KT 10SM CLR 18/10 A2986 RMK AO2 SLP111 T01830100=
201805150253 METAR KPAE 150253Z 32004KT 10SM CLR 20/11 A2987 RMK AO2 SLP112 T02000106 56009=
201805150153 METAR KPAE 150153Z 32007KT 10SM CLR 22/11 A2987 RMK AO2 SLP113 T02170106=
201805150053 METAR KPAE 150053Z 32006KT 10SM CLR 24/11 A2988 RMK AO2 SLP115 T02440106=
201805142353 METAR KPAE 142353Z 33006KT 10SM CLR 24/11 A2989 RMK AO2 SLP120 T02440111 10256 20217 58016=
201805142253 METAR KPAE 142253Z AUTO 33007KT 10SM CLR 25/12 A2991 RMK AO2 SLP126 T02500122=
201805142153 METAR KPAE 142153Z 34006KT 10SM CLR 26/11 A2993 RMK AO2 SLP131 T02560106=
201805142053 METAR KPAE 142053Z VRB06KT 10SM CLR 25/14 A2994 RMK AO2 SLP136 T02500139 58012=
201805141953 METAR KPAE 141953Z VRB05KT 10SM CLR 23/12 A2996 RMK AO2 SLP141 T02330122=
201805141853 METAR KPAE 141853Z 27004KT 10SM CLR 23/13 A2997 RMK AO2 SLP147 T02280128=
201805141753 METAR KPAE 141753Z 24004KT 10SM CLR 21/13 A2998 RMK AO2 SLP148 T02110133 10211 20156 50001=
201805141653 METAR KPAE 141653Z 23005KT 10SM CLR 19/13 A2998 RMK AO2 SLP150 T01940128=
201805141553 METAR KPAE 141553Z 24003KT 10SM CLR 19/13 A2998 RMK AO2 SLP148 T01940128=
201805141453 METAR KPAE 141453Z 14003KT 10SM CLR 18/12 A2997 RMK AO2 SLP147 T01830117 51006=
201805141353 METAR KPAE 141353Z 00000KT 10SM CLR 17/11 A2997 RMK AO2 SLP146 T01720111=
201805141253 METAR KPAE 141253Z AUTO 11003KT 10SM CLR 16/11 A2996 RMK AO2 SLP143 T01610106=
201805141153 METAR KPAE 141153Z AUTO 00000KT 10SM CLR 16/11 A2996 RMK AO2 SLP141 T01610106 10194 20161 52005=
201805141053 METAR KPAE 141053Z AUTO 08005KT 10SM CLR 16/09 A2995 RMK AO2 SLP140 T01610094=
201805140953 METAR KPAE 140953Z AUTO 08007KT 10SM CLR 17/11 A2994 RMK AO2 SLP136 T01720111=
201805140853 METAR KPAE 140853Z AUTO 09003KT 10SM CLR 18/09 A2994 RMK AO2 SLP135 T01780094 53004=
201805140753 METAR KPAE 140753Z AUTO 00000KT 10SM CLR 18/10 A2994 RMK AO2 SLP135 T01830100 402500122=
201805140653 METAR KPAE 140653Z AUTO 00000KT 10SM CLR 18/09 A2993 RMK AO2 SLP133 T01780094=
201805140553 METAR KPAE 140553Z AUTO 00000KT 10SM CLR 18/11 A2993 RMK AO2 SLP132 T01830111 10250 20178 53006=
201805140453 METAR KPAE 140453Z AUTO 00000KT 10SM CLR 19/11 A2993 RMK AO2 SLP131 T01940106=
201805140353 METAR KPAE 140353Z AUTO 30003KT 10SM CLR 21/11 A2991 RMK AO2 SLP126 T02060106=
201805140253 METAR KPAE 140253Z 32003KT 10SM CLR 22/12 A2991 RMK AO2 SLP126 T02220122 56004=
201805140153 METAR KPAE 140153Z 31004KT 10SM CLR 24/12 A2991 RMK AO2 SLP126 T02390122=
201805140053 METAR KPAE 140053Z 34005KT 10SM CLR 24/12 A2991 RMK AO2 SLP126 T02440122=
201805132353 METAR KPAE 132353Z VRB05KT 10SM CLR 24/12 A2992 RMK AO2 SLP129 T02440117 10244 20183 56013=
201805132253 METAR KPAE 132253Z 34006KT 10SM CLR 24/11 A2993 RMK AO2 SLP134 T02390106=
201805132153 METAR KPAE 132153Z VRB05KT 10SM CLR 23/12 A2994 RMK AO2 SLP137 T02330117=
201805132053 METAR KPAE 132053Z 33006KT 10SM CLR 22/12 A2996 RMK AO2 SLP142 T02220122 58008=
201805131953 METAR KPAE 131953Z 33007KT 310V010 10SM CLR 21/11 A2997 RMK AO2 SLP147 T02060111=
201805131853 METAR KPAE 131853Z VRB06KT 10SM CLR 20/11 A2998 RMK AO2 SLP149 T02000111=
201805131753 METAR KPAE 131753Z 33007KT 10SM CLR 18/11 A2998 RMK AO2 SLP152 T01830106 10183 20122 58003=
201805131653 METAR KPAE 131653Z VRB05KT 10SM CLR 16/12 A2999 RMK AO2 SLP154 T01610117=
201805131553 METAR KPAE 131553Z 36004KT 10SM CLR 15/11 A2999 RMK AO2 SLP155 T01500111=
201805131453 METAR KPAE 131453Z VRB03KT 10SM CLR 14/11 A2999 RMK AO2 SLP155 T01440111 51006=
201805131353 METAR KPAE 131353Z 34004KT 10SM CLR 13/11 A2999 RMK AO2 SLP153 T01330111=
201805131253 METAR KPAE 131253Z AUTO 34006KT 10SM CLR 13/11 A2998 RMK AO2 SLP152 T01280106=
201805131153 METAR KPAE 131153Z AUTO 34006KT 10SM CLR 13/10 A2997 RMK AO2 SLP149 T01280100 10161 20122 58001=
201805131053 METAR KPAE 131053Z AUTO 29004KT 10SM CLR 13/08 A2998 RMK AO2 SLP150 T01280083=
201805130953 METAR KPAE 130953Z AUTO 00000KT 10SM CLR 13/08 A2998 RMK AO2 SLP150 T01280083=
201805130853 METAR KPAE 130853Z AUTO 35005KT 10SM CLR 14/08 A2998 RMK AO2 SLP150 T01390078 58003=
201805130753 METAR KPAE 130753Z AUTO 33005KT 10SM CLR 13/09 A2998 RMK AO2 SLP152 T01330089 402060089=
201805130653 METAR KPAE 130653Z AUTO 35004KT 10SM CLR 16/09 A2998 RMK AO2 SLP152 T01560094=
201805130553 METAR KPAE 130553Z AUTO 34004KT 10SM CLR 16/09 A2999 RMK AO2 SLP153 T01610094 10206 20161 53001=
201805130453 METAR KPAE 130453Z AUTO 34004KT 10SM CLR 17/09 A2998 RMK AO2 SLP152 T01670089=
201805130353 METAR KPAE 130353Z AUTO 34006KT 10SM CLR 17/10 A2998 RMK AO2 SLP150 T01720100=
201805130253 METAR KPAE 130253Z 32005KT 10SM CLR 18/10 A2998 RMK AO2 SLP153 T01830100 56015=
201805130153 METAR KPAE 130153Z 32007KT 10SM CLR 20/10 A2999 RMK AO2 SLP155 T02000100=
201805130053 METAR KPAE 130053Z 29005KT 10SM CLR 20/11 A3002 RMK AO2 SLP163 T02000106=
201805122353 METAR KPAE 122353Z 32008KT 10SM CLR 20/11 A3003 RMK AO2 SLP167 T02000106 10200 20156 58019=
201805122253 METAR KPAE 122253Z 32010G17KT 10SM CLR 19/11 A3005 RMK AO2 SLP173 T01940106=
201805122153 METAR KPAE 122153Z 30006G17KT 10SM CLR 18/11 A3007 RMK AO2 SLP182 T01830111=
201805122053 METAR KPAE 122053Z 31008KT 10SM CLR 19/12 A3008 RMK AO2 SLP187 T01890117 58020=
201805121953 METAR KPAE 121953Z 33009G15KT 10SM CLR 17/11 A3011 RMK AO2 SLP195 T01720111=
201805121853 METAR KPAE 121853Z 33006KT 10SM CLR 17/11 A3014 RMK AO2 SLP205 T01670111=
201805121753 METAR KPAE 121753Z 32008KT 10SM CLR 15/11 A3014 RMK AO2 SLP208 T01500106 10150 20089 58015=
201805121653 METAR KPAE 121653Z 33008KT 10SM CLR 14/09 A3016 RMK AO2 SLP214 T01390094=
201805121553 METAR KPAE 121553Z VRB04KT 10SM CLR 12/09 A3019 RMK AO2 SLP222 T01220094=
201805121530 SPECI KPAE 121530Z 32005KT 10SM FEW002 11/10 A3019 RMK AO2 T01110100=
201805121517 SPECI KPAE 121517Z 34004KT 1 1/2SM BR SCT001 11/10 A3019 RMK AO2 T01060100=
201805121506 SPECI KPAE 121506Z 34005KT 1/2SM R16R/1400VP6000FT FG OVC001 10/10 A3019 RMK AO2 T01000100=
201805121453 METAR KPAE 121453Z 33005KT 1/2SM R16R/1200V1800FT FG VV001 10/09 A3019 RMK AO2 SLP223 T01000094 50002=
201805121408 SPECI KPAE 121408Z 32005KT 1/4SM R16R/1000V1400FT FG VV001 09/09 A3019 RMK AO2 T00940094=
201805121407 SPECI KPAE 121407Z 33004KT 3/4SM R16R/1000V1400FT BR VV001 10/09 A3019 RMK AO2 T01000094=
201805121353 METAR KPAE 121353Z 32005KT 1/4SM R16R/1200V1800FT FG VV001 09/09 A3019 RMK AO2 SLP224 T00940094=
201805121349 SPECI KPAE 121349Z 33005KT 1/4SM R16R/1200V2400FT FG VV001 09/09 A3019 RMK AO2=
201805121339 SPECI KPAE 121339Z AUTO 33005KT 1 3/4SM R16R/2600VP6000FT BR BKN001 09/09 A3019 RMK AO2 T00940089=
201805121336 SPECI KPAE 121336Z AUTO 33005KT 2 1/2SM R16R/4500VP6000FT BR BKN002 09/09 A3019 RMK AO2 VIS 1V5 T00940089=
201805121327 SPECI KPAE 121327Z AUTO 33005KT 9SM SCT002 10/09 A3019 RMK AO2 T01000089=
201805121253 METAR KPAE 121253Z AUTO 35004KT 10SM CLR 09/08 A3018 RMK AO2 SLP221 T00940083=
201805121153 METAR KPAE 121153Z AUTO 01003KT 10SM CLR 09/08 A3019 RMK AO2 SLP222 T00940083 10122 20094 58005=
201805121053 METAR KPAE 121053Z AUTO 01003KT 10SM CLR 11/08 A3020 RMK AO2 SLP225 T01060083=
201805120953 METAR KPAE 120953Z AUTO 34004KT 10SM CLR 10/09 A3020 RMK AO2 SLP225 T01000089=
201805120853 METAR KPAE 120853Z AUTO 33004KT 10SM CLR 10/08 A3020 RMK AO2 SLP227 T01000083 58002=
201805120753 METAR KPAE 120753Z AUTO 34003KT 10SM CLR 11/08 A3021 RMK AO2 SLP228 T01060083 401780094=
201805120653 METAR KPAE 120653Z AUTO 34005KT 10SM CLR 12/08 A3021 RMK AO2 SLP230 T01170083=
201805120553 METAR KPAE 120553Z AUTO 35004KT 10SM CLR 12/08 A3021 RMK AO2 SLP230 T01220083 10178 20122 53003=
201805120453 METAR KPAE 120453Z AUTO 00000KT 10SM CLR 13/09 A3021 RMK AO2 SLP229 T01330089=
201805120353 METAR KPAE 120353Z 00000KT 10SM CLR 15/08 A3020 RMK AO2 SLP225 T01500083=
201805120253 METAR KPAE 120253Z 33004KT 10SM CLR 17/08 A3020 RMK AO2 SLP227 T01670083 56009=
201805120153 METAR KPAE 120153Z 31005KT 10SM CLR 17/08 A3021 RMK AO2 SLP229 T01720083=
201805120053 METAR KPAE 120053Z 30004KT 10SM CLR 17/09 A3022 RMK AO2 SLP232 T01670089=
201805112353 METAR KPAE 112353Z 33005KT 10SM CLR 17/09 A3023 RMK AO2 SLP236 T01720089 10172 20128 56011=
201805112253 METAR KPAE 112253Z 36006KT 10SM CLR 17/09 A3024 RMK AO2 SLP239 T01670089=
201805112153 METAR KPAE 112153Z 34007KT 10SM FEW030 16/09 A3025 RMK AO2 SLP243 T01610089=
201805112053 METAR KPAE 112053Z 35007KT 10SM CLR 16/08 A3026 RMK AO2 SLP247 T01560083 58008=
201805112002 SPECI KPAE 112002Z VRB04KT 10SM SCT027 16/09 A3027 RMK AO2 T01560089=
201805111953 METAR KPAE 111953Z VRB06KT 10SM BKN027 15/09 A3027 RMK AO2 SLP251 T01500089=
201805111853 METAR KPAE 111853Z VRB06KT 10SM OVC027 15/09 A3028 RMK AO2 SLP253 T01500094=
201805111753 METAR KPAE 111753Z VRB04KT 10SM BKN018 OVC027 13/09 A3028 RMK AO2 SLP256 T01330089 10133 20094 51007=
201805111653 METAR KPAE 111653Z 00000KT 10SM OVC015 11/08 A3028 RMK AO2 SLP255 T01060078=
201805111553 METAR KPAE 111553Z 25004KT 10SM OVC022 10/07 A3028 RMK AO2 SLP254 T01000067=
201805111453 METAR KPAE 111453Z 25004KT 10SM OVC026 10/06 A3026 RMK AO2 SLP248 T01000061 53015=
201805111353 METAR KPAE 111353Z 31003KT 10SM OVC029 10/06 A3025 RMK AO2 SLP244 T01000061=
201805111253 METAR KPAE 111253Z AUTO 00000KT 10SM OVC029 09/06 A3023 RMK AO2 SLP237 T00940061=
201805111153 METAR KPAE 111153Z AUTO 00000KT 10SM FEW011 OVC037 09/06 A3022 RMK AO2 SLP233 70002 T00940056 10100 20094 53001=
201805111053 METAR KPAE 111053Z AUTO 31003KT 10SM BKN034 OVC042 10/06 A3022 RMK AO2 SLP233 T01000056=
201805110953 METAR KPAE 110953Z AUTO 31005KT 10SM OVC033 09/05 A3021 RMK AO2 SLP233 T00940050=
201805110853 METAR KPAE 110853Z AUTO 31004KT 10SM OVC033 09/06 A3021 RMK AO2 SLP233 T00940056 51009=
201805110753 METAR KPAE 110753Z AUTO VRB03KT 10SM BKN035 OVC055 09/06 A3021 RMK AO2 SLP232 T00940061 401390094=
201805110653 METAR KPAE 110653Z AUTO VRB04KT 10SM BKN040 OVC055 10/07 A3020 RMK AO2 SLP227 T01000067=
201805110553 METAR KPAE 110553Z AUTO 00000KT 10SM BKN043 OVC050 10/07 A3019 RMK AO2 SLP223 T01000067 10139 20100 51014=
201805110453 METAR KPAE 110453Z AUTO 31005KT 10SM FEW045 BKN055 10/06 A3018 RMK AO2 SLP219 T01000061=
201805110353 METAR KPAE 110353Z AUTO VRB04KT 10SM OVC050 11/06 A3016 RMK AO2 SLP215 T01060061=
201805110253 METAR KPAE 110253Z 28008G15KT 250V310 10SM OVC060 11/06 A3015 RMK AO2 SLP209 T01110061 53005=
201805110153 METAR KPAE 110153Z 29010G19KT 10SM FEW023 BKN050 BKN065 12/07 A3014 RMK AO2 SLP206 T01220067=
201805110053 METAR KPAE 110053Z 28015G21KT 10SM SCT028 BKN045 BKN050 13/07 A3013 RMK AO2 SLP205 T01330072=
201805102353 METAR KPAE 102353Z 28009KT 10SM BKN026 OVC034 14/08 A3013 RMK AO2 SLP204 60001 T01390078 10139 20106 50005=
201805102328 SPECI KPAE 102328Z 30006KT 10SM BKN029 OVC035 13/08 A3013 RMK AO2 T01280083=
201805102253 METAR KPAE 102253Z 32008KT 290V350 10SM BKN034 OVC046 13/08 A3013 RMK AO2 SLP205 T01280078=
201805102153 METAR KPAE 102153Z 32005KT 10SM SCT027 BKN040 BKN046 13/08 A3013 RMK AO2 SLP202 T01330083=
201805102053 METAR KPAE 102053Z 33006KT 10SM SCT021 BKN027 BKN046 13/08 A3012 RMK AO2 SLP199 60001 T01280078 51003=
201805102043 SPECI KPAE 102043Z VRB03KT 10SM SCT020 BKN027 BKN055 14/08 A3012 RMK AO2 T01390083=
201805101953 METAR KPAE 101953Z VRB03KT 10SM FEW030 SCT039 OVC048 12/09 A3012 RMK AO2 RAB08E43 SLP199 P0000 T01220094=
201805101950 SPECI KPAE 101950Z 31004KT 10SM SCT030 SCT039 OVC048 12/10 A3012 RMK AO2 RAB08E43 P0000=
201805101903 SPECI KPAE 101903Z 33005KT 10SM SCT009 BKN014 BKN019 11/09 A3011 RMK AO2 T01110089=
201805101900 SPECI KPAE 101900Z 33006KT 10SM SCT012 BKN017 OVC041 11/09 A3011 RMK AO2 T01110089=
201805101853 METAR KPAE 101853Z 33006KT 10SM SCT009 BKN014 BKN019 12/09 A3011 RMK AO2 RAE05 SLP196 P0001 T01170089=
201805101842 SPECI KPAE 101842Z 00000KT 10SM BKN013 BKN055 12/08 A3011 RMK AO2 RAE05 P0001 T01170083=
201805101820 SPECI KPAE 101820Z 22005KT 10SM FEW034 SCT080 SCT100 11/09 A3011 RMK AO2 RAE05 P0000 T01110094=
201805101811 SPECI KPAE 101811Z VRB06KT 10SM BKN009 BKN055 OVC100 11/09 A3011 RMK AO2 RAE05 P0000 T01110089=
201805101800 SPECI KPAE 101800Z 22005KT 10SM -RA FEW009 BKN038 OVC060 11/09 A3011 RMK AO2 P0000 T01110089=
201805101753 METAR KPAE 101753Z 22006KT 10SM -RA BKN009 BKN039 OVC050 11/08 A3011 RMK AO2 RAE03B17 SLP196 P0000 60001 T01110083 10111 20100 51004=
201805101731 SPECI KPAE 101731Z 20009KT 10SM -RA FEW009 SCT013 OVC039 11/09 A3011 RMK AO2 RAE03B17 P0000 T01060089=
201805101713 SPECI KPAE 101713Z 23008KT 10SM SCT009 BKN014 OVC039 10/09 A3011 RMK AO2 RAE03 P0000 T01000089=
201805101653 METAR KPAE 101653Z 22008KT 10SM -RA FEW009 OVC039 11/09 A3010 RMK AO2 RAB49 SLP194 P0000 T01060089=
201805101650 SPECI KPAE 101650Z 22006KT 10SM -RA FEW009 OVC039 11/09 A3010 RMK AO2 RAB49 P0000=
201805101643 SPECI KPAE 101643Z 20008KT 10SM FEW016 OVC040 11/09 A3010 RMK AO2 T01060089=
201805101623 SPECI KPAE 101623Z 21006KT 10SM FEW004 BKN009 OVC040 10/09 A3010 RMK AO2 T01000089=
201805101553 METAR KPAE 101553Z 23004KT 10SM OVC012 10/09 A3010 RMK AO2 RAE08B26E36 SLP192 P0000 T01000089=
201805101536 SPECI KPAE 101536Z 20005KT 10SM BKN012 OVC043 11/08 A3010 RMK AO2 RAE08B26E36 P0000 T01060083=
201805101453 METAR KPAE 101453Z 14006KT 10SM -RA SCT039 OVC048 10/08 A3009 RMK AO2 RAB12 SLP190 P0001 60001 T01000083 53005=
201805101353 METAR KPAE 101353Z 16006KT 10SM FEW024 BKN047 OVC070 10/08 A3009 RMK AO2 RAB21E31 SLP189 P0000 T01000078=
201805101341 SPECI KPAE 101341Z AUTO 15007KT 10SM FEW023 BKN055 OVC070 10/07 A3008 RMK AO2 RAB21E31 P0000 T01000072=
201805101253 METAR KPAE 101253Z AUTO 17003KT 10SM BKN023 BKN055 OVC090 10/07 A3007 RMK AO2 SLP184 T01000072=
201805101250 SPECI KPAE 101250Z AUTO 18003KT 10SM BKN024 BKN075 OVC095 10/07 A3007 RMK AO2=
201805101153 METAR KPAE 101153Z AUTO 16007KT 10SM OVC100 10/07 A3007 RMK AO2 SLP181 T01000072 10111 20094 58004=
201805101103 SPECI KPAE 101103Z AUTO 00000KT 10SM FEW019 SCT028 OVC080 10/07 A3007 RMK AO2 T01000072=
201805101053 METAR KPAE 101053Z AUTO 32004KT 10SM SCT019 BKN028 OVC080 10/07 A3007 RMK AO2 SLP183 T01000072=
201805101030 SPECI KPAE 101030Z AUTO 29003KT 10SM SCT018 OVC080 10/07 A3007 RMK AO2 T01000072=
201805100953 METAR KPAE 100953Z AUTO 00000KT 10SM BKN018 OVC026 10/07 A3008 RMK AO2 SLP184 T01000072=
201805100905 SPECI KPAE 100905Z AUTO 00000KT 10SM BKN021 11/07 A3008 RMK AO2 T01060072=
201805100853 METAR KPAE 100853Z AUTO 00000KT 10SM FEW021 SCT120 11/07 A3008 RMK AO2 SLP185 T01060067 58003=
201805100830 SPECI KPAE 100830Z AUTO 00000KT 10SM SCT024 BKN032 OVC120 11/07 A3008 RMK AO2 T01060072=
201805100753 METAR KPAE 100753Z AUTO 25003KT 10SM OVC024 11/08 A3009 RMK AO2 SLP188 T01060078 401890106=
201805100653 METAR KPAE 100653Z AUTO 00000KT 10SM BKN027 BKN037 11/08 A3008 RMK AO2 SLP187 T01060083=
201805100353 METAR KPAE 100353Z 33005KT 10SM BKN036 12/08 A3007 RMK AO2 SLP183 T01170083=
201805100253 METAR KPAE 100253Z 34006KT 10SM CLR 12/09 A3006 RMK AO2 SLP179 T01220089 51002=
201805100153 METAR KPAE 100153Z 32007KT 280V350 10SM SCT070 14/09 A3006 RMK AO2 SLP178 T01440094=
201805100053 METAR KPAE 100053Z 18013KT 10SM BKN065 16/08 A3006 RMK AO2 SLP180 T01610083=
201805092353 METAR KPAE 092353Z 18016G22KT 10SM FEW042 17/08 A3005 RMK AO2 SLP176 T01670078 10189 20150 56001=
201805092253 METAR KPAE 092253Z 18016G23KT 10SM CLR 18/07 A3006 RMK AO2 SLP176 T01830072=
201805092153 METAR KPAE 092153Z 15018G22KT 10SM CLR 18/07 A3005 RMK AO2 PK WND 16028/2103 SLP175 T01780072=
201805092053 METAR KPAE 092053Z 16017KT 10SM FEW065 18/06 A3006 RMK AO2 SLP177 T01780061 53002=
201805091953 METAR KPAE 091953Z 16014G23KT 10SM FEW037 17/07 A3005 RMK AO2 PK WND 15028/1933 SLP175 T01670072=
201805091853 METAR KPAE 091853Z 17019G26KT 10SM FEW034 17/07 A3005 RMK AO2 PK WND 16027/1844 SLP174 T01670072=
201805091753 METAR KPAE 091753Z 17018KT 10SM CLR 15/08 A3005 RMK AO2 SLP176 T01500078 10156 20128 51010=
201805091653 METAR KPAE 091653Z 17018G24KT 10SM CLR 14/08 A3005 RMK AO2 PK WND 15026/1631 SLP176 T01440083=
201805091553 METAR KPAE 091553Z 16015KT 10SM CLR 14/09 A3004 RMK AO2 SLP170 T01390094=
201805091453 METAR KPAE 091453Z 17016G22KT 10SM CLR 13/09 A3002 RMK AO2 SLP166 T01280089 53013=
201805091353 METAR KPAE 091353Z AUTO 15013KT 10SM BKN040 13/09 A3001 RMK AO2 SLP160 T01280094=
201805091311 SPECI KPAE 091311Z AUTO 15014G18KT 10SM FEW029 BKN036 13/10 A3000 RMK AO2 T01280100=
201805091253 METAR KPAE 091253Z AUTO 15013KT 10SM SCT015 BKN028 13/11 A3000 RMK AO2 SLP157 T01280106=
201805091233 SPECI KPAE 091233Z AUTO 14011KT 10SM BKN015 BKN027 BKN070 13/11 A3000 RMK AO2 T01280106=
201805091153 METAR KPAE 091153Z AUTO 13013G19KT 10SM FEW070 13/11 A2998 RMK AO2 SLP152 60003 70005 T01330106 10167 20133 53008=
201805091053 METAR KPAE 091053Z AUTO 15016G23KT 10SM CLR 13/11 A2997 RMK AO2 SLP147 T01330111=
201805091021 SPECI KPAE 091021Z AUTO 14014G22KT 10SM SCT015 BKN030 OVC046 14/12 A2997 RMK AO2 T01390117=
201805091004 SPECI KPAE 091004Z AUTO 14013KT 10SM SCT014 BKN029 OVC034 14/12 A2997 RMK AO2 T01390117=
201805090953 METAR KPAE 090953Z AUTO 15013KT 10SM FEW029 BKN037 OVC046 14/12 A2997 RMK AO2 RAE00 SLP146 P0000 T01390117=
201805090853 METAR KPAE 090853Z AUTO 17012KT 10SM -RA BKN034 OVC044 14/12 A2996 RMK AO2 SLP144 P0002 60003 T01390122 51013=
201805090753 METAR KPAE 090753Z AUTO 18013G22KT 9SM -RA OVC048 15/11 A2995 RMK AO2 RAB13E22B43 SLP142 P0001 T01500111 402220094=
201805090353 METAR KPAE 090353Z AUTO 08008KT 10SM CLR 17/14 A2993 RMK AO2 SLP133 T01670139=
201805090253 METAR KPAE 090253Z 11008KT 070V140 10SM BKN065 BKN120 17/16 A2994 RMK AO2 SLP136 60002 T01670156 50007=
201805090153 METAR KPAE 090153Z VRB05KT 10SM BKN070 OVC085 18/15 A2994 RMK AO2 RAB14E48 SLP139 P0001 T01780150=
201805090053 METAR KPAE 090053Z 23003KT 10SM OVC075 20/13 A2993 RMK AO2 RAB37E49 SLP134 P0001 T02000133=
201805082353 METAR KPAE 082353Z 18005KT 10SM SCT100 SCT110 21/12 A2991 RMK AO2 SLP128 T02110117 10222 20167 56013=
201805082253 METAR KPAE 082253Z AUTO 21006KT 10SM CLR 22/14 A2992 RMK AO2 SLP129 T02170139=
201805082153 METAR KPAE 082153Z VRB05KT 10SM CLR 22/13 A2992 RMK AO2 SLP131 T02170133=
201805082053 METAR KPAE 082053Z 30005KT 10SM CLR 21/13 A2995 RMK AO2 SLP141 T02060128 56024=
201805081953 METAR KPAE 081953Z VRB05KT 10SM CLR 19/11 A2997 RMK AO2 SLP149 T01940106=
201805081853 METAR KPAE 081853Z 35005KT 10SM CLR 19/12 A3000 RMK AO2 SLP157 T01940117=
201805081753 METAR KPAE 081753Z VRB03KT 10SM CLR 17/11 A3002 RMK AO2 SLP166 T01720111 10172 20094 58020=
201805081653 METAR KPAE 081653Z 25004KT 10SM CLR 14/11 A3005 RMK AO2 SLP176 T01440111=
201805081553 METAR KPAE 081553Z 34003KT 10SM CLR 14/11 A3007 RMK AO2 SLP181 T01390111=
201805081453 METAR KPAE 081453Z 00000KT 10SM CLR 12/11 A3008 RMK AO2 SLP187 T01170106 56013=
201805081411 SPECI KPAE 081411Z 00000KT 10SM SCT001 11/11 A3009 RMK AO2 T01060106=
201805081353 METAR KPAE 081353Z 34003KT 3SM R16R/1600VP6000FT BR BKN001 10/10 A3009 RMK AO2 SLP190 T01000100=
201805081349 SPECI KPAE 081349Z AUTO 34003KT 1SM R16R/1200VP6000FT BR VV001 10/10 A3009 RMK AO2=
201805081338 SPECI KPAE 081338Z AUTO 34004KT 1/4SM R16R/0800V4500FT FG VV001 10/10 A3009 RMK AO2 T01000100=
201805081333 SPECI KPAE 081333Z AUTO 34004KT 1/2SM R16R/0800V1200FT FG VV001 10/10 A3009 RMK AO2 T01000100=
201805081253 METAR KPAE 081253Z AUTO 36003KT 1/4SM R16R/1200V1400FT FG VV001 10/09 A3011 RMK AO2 SLP195 T01000094=
201805081251 SPECI KPAE 081251Z AUTO 35004KT 1/4SM R16R/1000V1400FT FG VV001 10/09 A3011 RMK AO2=
201805081246 SPECI KPAE 081246Z AUTO 35004KT 1 1/4SM R16R/1000V1200FT BR SCT001 10/09 A3011 RMK AO2 T01000094=
201805081239 SPECI KPAE 081239Z AUTO 33003KT 2 1/2SM R16R/1000V2200FT BR CLR 09/09 A3011 RMK AO2 T00940094=
201805081153 METAR KPAE 081153Z AUTO 33003KT 10SM CLR 10/09 A3012 RMK AO2 SLP200 T01000094 10117 20100 58008=
201805081053 METAR KPAE 081053Z AUTO 00000KT 10SM CLR 11/10 A3013 RMK AO2 SLP204 T01060100=
201805080953 METAR KPAE 080953Z AUTO 35005KT 10SM CLR 11/10 A3014 RMK AO2 SLP207 T01110100=
201805080853 METAR KPAE 080853Z AUTO 34004KT 10SM CLR 11/10 A3015 RMK AO2 SLP209 T01110100 58004=
201805080753 METAR KPAE 080753Z AUTO 32003KT 10SM CLR 11/11 A3016 RMK AO2 SLP211 T01110106 401830111=
201805080653 METAR KPAE 080653Z AUTO 34003KT 10SM CLR 12/11 A3016 RMK AO2 SLP212 T01170106=
201805080553 METAR KPAE 080553Z AUTO 34004KT 10SM CLR 12/11 A3016 RMK AO2 SLP212 T01170106 10183 20117 58001=
201805080453 METAR KPAE 080453Z AUTO 33005KT 10SM CLR 13/10 A3017 RMK AO2 SLP215 T01280100=
201805080353 METAR KPAE 080353Z AUTO 00000KT 10SM CLR 14/11 A3016 RMK AO2 SLP212 T01390106=
201805080253 METAR KPAE 080253Z 00000KT 10SM CLR 16/11 A3016 RMK AO2 SLP213 T01560111 56013=
201805080153 METAR KPAE 080153Z 29004KT 10SM CLR 18/11 A3017 RMK AO2 SLP215 T01780106=
201805080053 METAR KPAE 080053Z 23003KT 10SM CLR 17/11 A3018 RMK AO2 SLP220 T01720106=
201805072353 METAR KPAE 072353Z VRB04KT 10SM CLR 17/11 A3020 RMK AO2 SLP226 T01720106 10172 20133 56016=
201805072253 METAR KPAE 072253Z AUTO VRB06KT 10SM CLR 16/11 A3021 RMK AO2 SLP230 T01610106=
201805072153 METAR KPAE 072153Z 24007KT 10SM CLR 16/11 A3022 RMK AO2 SLP235 T01610106=
201805072100 SPECI KPAE 072100Z 20008KT 10SM SCT025 16/11 A3024 RMK AO2 T01560106=
201805072053 METAR KPAE 072053Z 22008KT 10SM BKN025 15/10 A3024 RMK AO2 SLP242 T01500100 50000=
201805071953 METAR KPAE 071953Z 20009KT 10SM OVC020 14/11 A3025 RMK AO2 SLP243 T01440106=
201805071853 METAR KPAE 071853Z 23006KT 10SM OVC023 14/10 A3024 RMK AO2 SLP242 T01390100=
201805071753 METAR KPAE 071753Z 17006KT 10SM OVC022 14/10 A3024 RMK AO2 SLP241 T01390100 10144 20111 53004=
201805071700 SPECI KPAE 071700Z 16010KT 10SM SCT017 OVC022 13/09 A3024 RMK AO2 T01330094=
201805071653 METAR KPAE 071653Z 18010KT 10SM BKN010 OVC024 14/10 A3024 RMK AO2 SLP239 T01390100=
201805071553 METAR KPAE 071553Z 16007KT 10SM OVC010 13/11 A3023 RMK AO2 SLP237 T01280106=
201805071453 METAR KPAE 071453Z 16008KT 10SM OVC010 12/09 A3023 RMK AO2 SLP236 T01170094 53010=
201805071353 METAR KPAE 071353Z 14009KT 10SM OVC011 12/09 A3022 RMK AO2 SLP232 T01170094=
201805071345 SPECI KPAE 071345Z 15010KT 10SM OVC012 11/09 A3022 RMK AO2 T01110094=
201805071253 METAR KPAE 071253Z AUTO 16005KT 10SM OVC008 11/09 A3021 RMK AO2 SLP228 T01110094=
201805071153 METAR KPAE 071153Z AUTO 16011KT 10SM OVC009 12/09 A3020 RMK AO2 SLP226 T01170094 10144 20111 53012=
201805071135 SPECI KPAE 071135Z AUTO 16014KT 10SM OVC009 12/09 A3020 RMK AO2 T01170094=
201805071103 SPECI KPAE 071103Z AUTO 15009KT 10SM OVC010 12/09 A3019 RMK AO2 T01170094=
201805071053 METAR KPAE 071053Z AUTO 17011KT 10SM OVC009 12/09 A3019 RMK AO2 SLP223 T01170094=
201805070953 METAR KPAE 070953Z AUTO 16011KT 10SM OVC009 12/10 A3017 RMK AO2 SLP216 T01220100=
201805070941 SPECI KPAE 070941Z AUTO 17013KT 10SM OVC009 12/09 A3017 RMK AO2 T01220094=
201805070853 METAR KPAE 070853Z AUTO 17012KT 10SM OVC010 12/10 A3017 RMK AO2 SLP214 T01220100 53015=
201805070753 METAR KPAE 070753Z AUTO 16011KT 10SM OVC010 12/10 A3015 RMK AO2 SLP209 T01220100 402280111=
201805070653 METAR KPAE 070653Z AUTO 16008KT 10SM OVC012 13/11 A3014 RMK AO2 SLP204 T01330106=
201805070633 SPECI KPAE 070633Z AUTO 13007KT 10SM BKN013 13/11 A3013 RMK AO2 T01330106=
201805070553 METAR KPAE 070553Z AUTO 13005KT 10SM CLR 14/11 A3012 RMK AO2 SLP199 T01440106 10222 20144 51025=
201805070453 METAR KPAE 070453Z AUTO 13008KT 10SM FEW110 16/11 A3010 RMK AO2 SLP191 T01560111=
201805070353 METAR KPAE 070353Z 27004KT 10SM CLR 16/12 A3008 RMK AO2 SLP185 T01560122=
201805070253 METAR KPAE 070253Z 25004KT 10SM CLR 20/11 A3005 RMK AO2 SLP173 T02000106 53013=
201805070153 METAR KPAE 070153Z 27004KT 10SM BKN110 21/12 A3003 RMK AO2 SLP167 T02060117=
201805070053 METAR KPAE 070053Z 24006KT 10SM BKN120 22/12 A3001 RMK AO2 SLP162 T02170117=
201805062353 METAR KPAE 062353Z 24005KT 10SM OVC110 22/12 A3001 RMK AO2 SLP160 T02170122 10228 20183 56000=
201805062253 METAR KPAE 062253Z VRB03KT 10SM OVC100 22/11 A3001 RMK AO2 SLP160 T02170111=
201805062153 METAR KPAE 062153Z 32005KT 10SM BKN110 22/12 A3001 RMK AO2 SLP158 T02170122=
201805062053 METAR KPAE 062053Z 01004KT 10SM CLR 22/13 A3001 RMK AO2 SLP159 T02170128 58001=
201805061953 METAR KPAE 061953Z 25004KT 10SM FEW110 20/11 A3002 RMK AO2 SLP163 T02000111=
201805061853 METAR KPAE 061853Z 26005KT 10SM CLR 18/11 A3001 RMK AO2 SLP161 T01830106=
201805061753 METAR KPAE 061753Z 32003KT 10SM BKN100 18/10 A3001 RMK AO2 SLP161 T01830100 10189 20111 51008=
201805061653 METAR KPAE 061653Z VRB04KT 10SM BKN100 18/09 A3001 RMK AO2 SLP160 T01780094=
201805061553 METAR KPAE 061553Z VRB05KT 10SM CLR 16/09 A2999 RMK AO2 SLP155 T01610094=
201805061453 METAR KPAE 061453Z 33004KT 10SM CLR 13/10 A2999 RMK AO2 SLP153 T01330100 53004=
201805061353 METAR KPAE 061353Z 32004KT 10SM CLR 12/09 A2997 RMK AO2 SLP150 T01220089=
201805061253 METAR KPAE 061253Z AUTO 32003KT 10SM CLR 12/09 A2998 RMK AO2 SLP151 T01170094=
201805061153 METAR KPAE 061153Z AUTO 32003KT 10SM CLR 12/09 A2997 RMK AO2 SLP150 T01170089 10150 20117 58009=
201805061053 METAR KPAE 061053Z AUTO 33004KT 10SM FEW110 12/09 A2999 RMK AO2 SLP153 T01220089=
201805060953 METAR KPAE 060953Z AUTO 36004KT 10SM CLR 13/09 A3000 RMK AO2 SLP157 T01330089=
201805060853 METAR KPAE 060853Z AUTO 00000KT 10SM FEW095 14/09 A3000 RMK AO2 SLP158 T01390089 55005=
201805060753 METAR KPAE 060753Z AUTO 31003KT 10SM FEW095 13/09 A3000 RMK AO2 SLP158 T01330094 401780089=
201805060653 METAR KPAE 060653Z AUTO 35006KT 10SM BKN080 OVC100 15/09 A3000 RMK AO2 SLP158 T01500094=
201805060553 METAR KPAE 060553Z AUTO 35003KT 10SM OVC100 15/11 A3002 RMK AO2 RAB0457E40 SLP165 P0000 60000 T01500106 10172 20144 58001=
201805060453 METAR KPAE 060453Z AUTO 33004KT 10SM FEW070 OVC090 16/09 A3003 RMK AO2 SLP170 T01560094=
201805060353 METAR KPAE 060353Z AUTO 00000KT 10SM FEW065 BKN090 OVC110 16/09 A3003 RMK AO2 SLP169 T01610094=
201805060253 METAR KPAE 060253Z 32006KT 10SM BKN075 16/09 A3002 RMK AO2 SLP166 T01610094 56012=
201805060153 METAR KPAE 060153Z 32004KT 10SM CLR 17/10 A3003 RMK AO2 SLP169 T01670100=
201805060053 METAR KPAE 060053Z 32004KT 10SM CLR 17/10 A3004 RMK AO2 SLP172 T01720100=
201805052353 METAR KPAE 052353Z VRB05KT 10SM CLR 17/09 A3006 RMK AO2 SLP179 T01720094 10178 20133 56019=
201805052253 METAR KPAE 052253Z 31008KT 10SM CLR 17/09 A3008 RMK AO2 SLP184 T01720094=
201805052153 METAR KPAE 052153Z 34008KT 10SM CLR 17/10 A3009 RMK AO2 SLP191 T01720100=
201805052053 METAR KPAE 052053Z 32005KT 10SM BKN090 16/09 A3012 RMK AO2 SLP198 T01560094 58021=
201805051953 METAR KPAE 051953Z VRB06KT 10SM CLR 15/09 A3014 RMK AO2 SLP207 T01500094=
201805051853 METAR KPAE 051853Z 34006KT 10SM CLR 14/09 A3017 RMK AO2 SLP216 T01440094=
201805051753 METAR KPAE 051753Z 34008KT 10SM CLR 13/09 A3018 RMK AO2 SLP221 T01330089 10133 20089 58004=
201805051653 METAR KPAE 051653Z 34007KT 10SM SCT009 12/08 A3019 RMK AO2 SLP224 T01220083=
201805051553 METAR KPAE 051553Z 32005KT 10SM SCT003 10/08 A3019 RMK AO2 SLP224 T01000083=
201805051519 SPECI KPAE 051519Z 31006KT 10SM SCT003 10/09 A3019 RMK AO2 T01000089=
201805051453 METAR KPAE 051453Z 33006KT 6SM BR BKN002 09/08 A3019 RMK AO2 SLP226 VIS N-NE 2 T00940083 55006=
201805051400 SPECI KPAE 051400Z 32007KT 8SM OVC002 09/08 A3019 RMK AO2 T00890083=
201805051353 METAR KPAE 051353Z 33008KT 2SM BR OVC002 09/08 A3019 RMK AO2 SLP225 T00940083=
201805051253 METAR KPAE 051253Z AUTO 34004KT 9SM OVC003 09/08 A3020 RMK AO2 SLP227 T00890083=
201805051219 SPECI KPAE 051219Z AUTO 33005KT 10SM BKN003 BKN085 09/08 A3020 RMK AO2 T00890083=
201805051153 METAR KPAE 051153Z AUTO 32006KT 10SM SCT003 OVC085 09/08 A3021 RMK AO2 SLP232 T00890083 10100 20089 57007=
201805051138 SPECI KPAE 051138Z AUTO 31006KT 10SM SCT003 OVC085 09/08 A3022 RMK AO2 T00890083=
201805051053 METAR KPAE 051053Z AUTO 32006KT 10SM BKN003 OVC085 09/08 A3022 RMK AO2 SLP236 T00940083=
201805051035 SPECI KPAE 051035Z AUTO 32007KT 10SM SCT003 OVC090 09/08 A3022 RMK AO2 T00890078=
201805050953 METAR KPAE 050953Z AUTO 32005KT 10SM BKN090 09/08 A3022 RMK AO2 SLP235 T00940078=
201805050853 METAR KPAE 050853Z AUTO 32004KT 10SM CLR 09/08 A3023 RMK AO2 SLP239 T00940078 58005=
201805050753 METAR KPAE 050753Z AUTO 32004KT 10SM CLR 09/08 A3025 RMK AO2 SLP243 T00940078 401500094=
201805050653 METAR KPAE 050653Z AUTO 32004KT 10SM CLR 09/08 A3025 RMK AO2 SLP244 T00940083=
201805050553 METAR KPAE 050553Z AUTO 32005KT 10SM CLR 10/08 A3025 RMK AO2 SLP244 T01000078 10144 20100 50002=
201805050453 METAR KPAE 050453Z AUTO 33004KT 10SM CLR 11/08 A3025 RMK AO2 SLP246 T01060078=
201805050353 METAR KPAE 050353Z AUTO 32006KT 10SM OVC085 11/07 A3025 RMK AO2 SLP245 T01110072=
201805050253 METAR KPAE 050253Z 31004KT 10SM CLR 12/07 A3024 RMK AO2 SLP242 T01220072 56008=
201805050153 METAR KPAE 050153Z 32004KT 10SM CLR 13/07 A3025 RMK AO2 SLP243 T01330072=
201805050053 METAR KPAE 050053Z 31006KT 10SM CLR 14/08 A3026 RMK AO2 SLP248 T01390078=
201805042353 METAR KPAE 042353Z 28009KT 250V310 10SM CLR 14/07 A3027 RMK AO2 SLP251 T01390072 10150 20111 55002=
201805042253 METAR KPAE 042253Z 23008KT 10SM CLR 14/08 A3026 RMK AO2 SLP248 T01440078=
201805042153 METAR KPAE 042153Z 23010KT 10SM CLR 14/07 A3027 RMK AO2 SLP251 T01390072=
201805042053 METAR KPAE 042053Z 22008KT 10SM SCT028 BKN031 14/08 A3027 RMK AO2 SLP253 T01390078 58009=
201805041953 METAR KPAE 041953Z VRB05KT 10SM BKN031 OVC095 13/08 A3029 RMK AO2 SLP258 T01280078=
201805041927 SPECI KPAE 041927Z 20004KT 10SM FEW025 OVC031 12/07 A3029 RMK AO2 T01220072=
201805041853 METAR KPAE 041853Z 20005KT 10SM OVC022 12/07 A3030 RMK AO2 SLP261 T01170072=
201805041753 METAR KPAE 041753Z 22005KT 10SM BKN022 OVC031 11/07 A3030 RMK AO2 SLP262 T01110072 10117 20100 51007=
201805041653 METAR KPAE 041653Z 19005KT 10SM BKN020 OVC026 11/07 A3030 RMK AO2 SLP262 T01110067=
201805041553 METAR KPAE 041553Z 15008KT 10SM OVC019 11/06 A3029 RMK AO2 SLP257 T01060061=
201805041453 METAR KPAE 041453Z 15009KT 10SM OVC021 11/07 A3028 RMK AO2 SLP255 T01060067 53009=
201805041353 METAR KPAE 041353Z 14006KT 10SM OVC027 10/06 A3026 RMK AO2 SLP248 T01000061=
201805041253 METAR KPAE 041253Z AUTO 16007KT 10SM BKN022 OVC027 10/06 A3026 RMK AO2 SLP246 T01000061=
201805041153 METAR KPAE 041153Z AUTO 17009KT 10SM OVC018 10/07 A3025 RMK AO2 SLP244 T01000067 10117 20100 53003=
201805041053 METAR KPAE 041053Z AUTO 16008KT 10SM OVC018 11/07 A3024 RMK AO2 SLP240 T01060067=
201805040953 METAR KPAE 040953Z AUTO 16010KT 10SM OVC022 11/07 A3024 RMK AO2 SLP239 T01060067=
201805040853 METAR KPAE 040853Z AUTO 17006KT 10SM BKN017 OVC023 10/07 A3024 RMK AO2 SLP240 T01000067 51013=
201805040806 SPECI KPAE 040806Z AUTO 17009KT 10SM BKN023 OVC032 11/07 A3023 RMK AO2 T01060067=
201805040753 METAR KPAE 040753Z AUTO 17010KT 10SM FEW020 BKN032 BKN045 11/07 A3023 RMK AO2 SLP237 T01060067 402220100=
201805040653 METAR KPAE 040653Z AUTO 15008KT 10SM SCT055 BKN075 11/07 A3022 RMK AO2 SLP231 T01110072=
201805040553 METAR KPAE 040553Z AUTO 14007KT 10SM SCT050 BKN065 11/09 A3020 RMK AO2 SLP228 T01110089 10194 20106 51026=
201805040453 METAR KPAE 040453Z AUTO 34004KT 10SM BKN065 11/09 A3019 RMK AO2 SLP221 T01060089=
201805040353 METAR KPAE 040353Z AUTO 35007KT 10SM CLR 11/09 A3016 RMK AO2 SLP215 T01110089=
201805040253 METAR KPAE 040253Z 34008KT 10SM CLR 13/09 A3013 RMK AO2 SLP203 T01280094 51004=
201805040153 METAR KPAE 040153Z 35007KT 10SM CLR 15/09 A3013 RMK AO2 SLP201 T01500089=
201805040053 METAR KPAE 040053Z 33005KT 10SM CLR 17/09 A3012 RMK AO2 SLP199 T01670094=
201805032353 METAR KPAE 032353Z 33008KT 10SM CLR 19/10 A3011 RMK AO2 SLP196 T01940100 10222 20172 55000=
201805032253 METAR KPAE 032253Z 24007KT 10SM CLR 22/09 A3011 RMK AO2 SLP195 T02170094=
201805032153 METAR KPAE 032153Z 22005KT 10SM CLR 22/09 A3011 RMK AO2 SLP196 T02170094=
201805032053 METAR KPAE 032053Z 27005KT 10SM CLR 20/09 A3011 RMK AO2 SLP196 T02000094 58004=
201805031953 METAR KPAE 031953Z 00000KT 10SM CLR 21/11 A3012 RMK AO2 SLP197 T02060106=
201805031853 METAR KPAE 031853Z 00000KT 10SM CLR 18/09 A3012 RMK AO2 SLP201 T01830094=
201805031753 METAR KPAE 031753Z 00000KT 10SM CLR 17/08 A3012 RMK AO2 SLP201 T01720083 10178 20100 58001=
201805031653 METAR KPAE 031653Z VRB04KT 10SM CLR 16/08 A3013 RMK AO2 SLP201 T01560083=
201805031553 METAR KPAE 031553Z 12003KT 10SM CLR 13/08 A3013 RMK AO2 SLP203 T01330078=
201805031453 METAR KPAE 031453Z VRB03KT 10SM CLR 12/07 A3013 RMK AO2 SLP202 T01170067 53010=
201805031353 METAR KPAE 031353Z 09003KT 10SM CLR 11/07 A3011 RMK AO2 SLP197 T01060067=
201805031253 METAR KPAE 031253Z AUTO 09003KT 10SM CLR 10/07 A3011 RMK AO2 SLP194 T01000067=
201805031153 METAR KPAE 031153Z AUTO 08005KT 10SM CLR 11/07 A3010 RMK AO2 SLP191 T01060067 10122 20106 58001=
201805031053 METAR KPAE 031053Z AUTO 09004KT 10SM CLR 11/07 A3010 RMK AO2 SLP194 T01110072=
201805030953 METAR KPAE 030953Z AUTO 08004KT 10SM CLR 12/07 A3010 RMK AO2 SLP194 T01170072=
201805030853 METAR KPAE 030853Z AUTO 00000KT 10SM CLR 11/08 A3010 RMK AO2 SLP193 T01110078 52002=
201805030753 METAR KPAE 030753Z AUTO 33003KT 10SM CLR 11/08 A3010 RMK AO2 SLP192 T01110083 401780083=
201805030653 METAR KPAE 030653Z AUTO 00000KT 10SM CLR 11/08 A3010 RMK AO2 SLP191 T01060078=
201805030553 METAR KPAE 030553Z AUTO 33004KT 10SM CLR 12/08 A3010 RMK AO2 SLP191 T01170078 10178 20117 52005=
201805030453 METAR KPAE 030453Z AUTO 35005KT 10SM CLR 12/07 A3009 RMK AO2 SLP190 T01220072=
201805030353 METAR KPAE 030353Z AUTO 00000KT 10SM CLR 14/07 A3009 RMK AO2 SLP187 T01390067=
201805030253 METAR KPAE 030253Z 28004KT 10SM CLR 16/07 A3008 RMK AO2 SLP186 T01560067 58004=
201805030153 METAR KPAE 030153Z 33004KT 10SM CLR 17/06 A3009 RMK AO2 SLP188 T01670061=
201805030053 METAR KPAE 030053Z VRB05KT 10SM CLR 18/06 A3009 RMK AO2 SLP190 T01780056=
201805022353 METAR KPAE 022353Z 32006KT 10SM CLR 18/07 A3009 RMK AO2 SLP191 T01780067 10178 20133 56007=
201805022253 METAR KPAE 022253Z 25006KT 10SM CLR 17/09 A3010 RMK AO2 SLP191 T01720089=
201805022153 METAR KPAE 022153Z 27006KT 10SM CLR 17/09 A3011 RMK AO2 SLP194 T01670089=
201805022053 METAR KPAE 022053Z 25005KT 10SM CLR 16/09 A3012 RMK AO2 SLP199 T01560089 58012=
201805021953 METAR KPAE 021953Z 26004KT 10SM CLR 14/09 A3013 RMK AO2 SLP204 T01440089=
201805021853 METAR KPAE 021853Z VRB04KT 10SM CLR 15/07 A3014 RMK AO2 SLP208 T01500067=
201805021753 METAR KPAE 021753Z 32005KT 10SM CLR 13/07 A3015 RMK AO2 SLP211 T01330072 10139 20083 51003=
201805021653 METAR KPAE 021653Z VRB04KT 10SM CLR 13/07 A3015 RMK AO2 SLP210 T01280072=
201805021553 METAR KPAE 021553Z 33004KT 10SM CLR 12/07 A3015 RMK AO2 SLP209 T01170067=
201805021453 METAR KPAE 021453Z 35004KT 10SM CLR 10/07 A3014 RMK AO2 SLP208 T01000067 53005=
201805021353 METAR KPAE 021353Z AUTO 00000KT 10SM CLR 10/07 A3013 RMK AO2 SLP202 T01000067=
201805021253 METAR KPAE 021253Z AUTO 01004KT 10SM CLR 09/06 A3012 RMK AO2 SLP200 T00890061=
201805021153 METAR KPAE 021153Z AUTO VRB04KT 10SM CLR 09/06 A3013 RMK AO2 SLP202 T00890061 10100 20083 56003=
201805021053 METAR KPAE 021053Z AUTO 00000KT 10SM CLR 09/06 A3013 RMK AO2 SLP203 T00890061=
201805020953 METAR KPAE 020953Z AUTO 05003KT 10SM CLR 09/06 A3012 RMK AO2 SLP201 T00890061=
201805020853 METAR KPAE 020853Z AUTO 36004KT 10SM CLR 09/07 A3014 RMK AO2 SLP206 T00890072 50005=
201805020753 METAR KPAE 020753Z AUTO 34005KT 10SM CLR 09/07 A3014 RMK AO2 SLP207 T00890072 401500089=
201805020653 METAR KPAE 020653Z AUTO 35006KT 10SM CLR 09/06 A3013 RMK AO2 SLP202 T00940061=
201805020553 METAR KPAE 020553Z AUTO 32006KT 10SM CLR 10/06 A3012 RMK AO2 SLP201 T01000056 10150 20100 51007=
201805020453 METAR KPAE 020453Z AUTO 00000KT 10SM CLR 11/05 A3012 RMK AO2 SLP200 T01110050=
201805020353 METAR KPAE 020353Z AUTO 00000KT 10SM CLR 12/05 A3010 RMK AO2 SLP195 T01170050=
201805020253 METAR KPAE 020253Z 31004KT 10SM CLR 13/05 A3010 RMK AO2 SLP194 T01330050 53004=
201805020153 METAR KPAE 020153Z 31004KT 10SM CLR 14/06 A3009 RMK AO2 SLP192 T01440056=
201805020053 METAR KPAE 020053Z 31005KT 10SM CLR 15/06 A3008 RMK AO2 SLP187 T01500061=
201805012353 METAR KPAE 012353Z 25005KT 10SM SCT031 BKN050 14/07 A3009 RMK AO2 SLP189 T01440067 10150 20106 56007=
201805012309 SPECI KPAE 012309Z VRB04KT 10SM SCT031 BKN050 15/07 A3009 RMK AO2 T01500067=
201805012253 METAR KPAE 012253Z 30006KT 10SM FEW031 OVC050 14/06 A3009 RMK AO2 SLP189 T01440061=
201805012153 METAR KPAE 012153Z 27007KT 10SM SCT029 13/07 A3010 RMK AO2 SLP195 T01330072=
201805012053 METAR KPAE 012053Z 26006KT 10SM SCT029 13/07 A3011 RMK AO2 SLP196 T01330072 55003=
201805011953 METAR KPAE 011953Z 28007KT 10SM FEW021 BKN023 13/07 A3010 RMK AO2 SLP195 T01280067=
201805011936 SPECI KPAE 011936Z VRB04KT 10SM FEW021 BKN023 12/07 A3011 RMK AO2 T01220067=
201805011933 SPECI KPAE 011933Z 29005KT 10SM FEW021 SCT027 13/07 A3011 RMK AO2 T01280067=
201805011853 METAR KPAE 011853Z 32005KT 10SM OVC023 11/06 A3011 RMK AO2 SLP198 T01110061=
201805011753 METAR KPAE 011753Z 31007KT 10SM BKN021 OVC049 11/07 A3012 RMK AO2 SLP199 T01110067 10111 20089 51007=
201805011736 SPECI KPAE 011736Z 01006KT 10SM BKN019 OVC031 10/06 A3012 RMK AO2 T01000061=
201805011700 SPECI KPAE 011700Z 30008KT 10SM OVC047 11/06 A3011 RMK AO2 T01060061=
201805011653 METAR KPAE 011653Z 28007KT 10SM BKN022 OVC043 10/06 A3011 RMK AO2 SLP197 T01000056=
201805011622 SPECI KPAE 011622Z 31004KT 10SM BKN022 OVC043 10/06 A3011 RMK AO2 T01000061=
201805011612 SPECI KPAE 011612Z 30005KT 10SM FEW022 OVC043 10/06 A3011 RMK AO2 T01000061=
201805011553 METAR KPAE 011553Z 32005KT 10SM OVC020 10/06 A3010 RMK AO2 SLP196 T01000061=
201805011453 METAR KPAE 011453Z 30007KT 10SM SCT014 BKN021 09/06 A3009 RMK AO2 SLP192 T00890056 53005=
201805011401 SPECI KPAE 011401Z VRB04KT 10SM OVC014 09/06 A3009 RMK AO2 T00890061=
201805011353 METAR KPAE 011353Z AUTO 31008KT 10SM BKN015 OVC050 09/06 A3009 RMK AO2 SLP191 T00890061=
201805011309 SPECI KPAE 011309Z AUTO 32003KT 10SM BKN017 OVC044 09/06 A3008 RMK AO2 T00890061=
201805011253 METAR KPAE 011253Z AUTO 29003KT 10SM FEW018 OVC046 09/06 A3007 RMK AO2 SLP184 T00890061=
201805011205 SPECI KPAE 011205Z AUTO 00000KT 10SM SCT020 OVC050 09/06 A3008 RMK AO2 T00940061=
201805011153 METAR KPAE 011153Z AUTO 00000KT 10SM SCT018 BKN022 OVC050 09/07 A3008 RMK AO2 SLP186 T00940072 10100 20094 58006=
201805011109 SPECI KPAE 011109Z AUTO 00000KT 10SM OVC015 09/08 A3009 RMK AO2 T00940078=
201805011053 METAR KPAE 011053Z AUTO 33003KT 10SM OVC014 09/07 A3009 RMK AO2 SLP191 T00940072=
201805011038 SPECI KPAE 011038Z AUTO 35004KT 10SM OVC014 10/07 A3009 RMK AO2 T01000072=
201805010953 METAR KPAE 010953Z AUTO 00000KT 10SM BKN015 OVC030 10/07 A3009 RMK AO2 SLP189 T01000072=
201805010853 METAR KPAE 010853Z AUTO 00000KT 10SM BKN030 OVC038 10/07 A3009 RMK AO2 SLP192 T01000067 56014=
201805010845 SPECI KPAE 010845Z AUTO 00000KT 10SM BKN030 OVC050 10/07 A3010 RMK AO2 T01000067=
201805010811 SPECI KPAE 010811Z AUTO 08003KT 10SM BKN024 BKN030 OVC070 10/07 A3010 RMK AO2 T01000067=
201805010753 METAR KPAE 010753Z AUTO 07004KT 10SM FEW031 FEW050 OVC070 09/07 A3011 RMK AO2 SLP196 T00940067 401330083=
201805010653 METAR KPAE 010653Z AUTO 00000KT 10SM SCT033 OVC075 09/07 A3013 RMK AO2 SLP203 T00940072=
201805010553 METAR KPAE 010553Z AUTO 00000KT 10SM FEW023 SCT070 09/07 A3014 RMK AO2 SLP207 T00940072 10133 20094 50001=
201805010453 METAR KPAE 010453Z AUTO 24003KT 10SM FEW065 10/07 A3014 RMK AO2 SLP208 T01000072=
201805010353 METAR KPAE 010353Z 18003KT 10SM OVC065 10/07 A3014 RMK AO2 SLP207 T01000072=
201805010253 METAR KPAE 010253Z 24003KT 10SM BKN060 11/07 A3013 RMK AO2 SLP206 T01110067 58004=
201805010153 METAR KPAE 010153Z 22004KT 10SM CLR 12/07 A3014 RMK AO2 SLP208 T01170072=
201805010053 METAR KPAE 010053Z 26005KT 10SM OVC060 12/07 A3015 RMK AO2 SLP210 T01220072=

# No short TAF reports from KPAE in databse.

###################################
#  large TAF from KPAE
###################################
201805312320 TAF KPAE 312320Z 0100/0124 21008KT P6SM SCT040 SCT120 FM010300
                       35009KT P6SM VCSH BKN035 BKN060 FM010900
                       18008KT P6SM OVC018 FM011800 19010KT P6SM
                       SCT025 BKN040 FM012000 21010KT P6SM FEW030
                       SCT050=
201805311720 TAF KPAE 311720Z 3118/0118 15004KT P6SM BKN020 OVC060 FM311900
                       21005KT P6SM SCT025 BKN060 FM312300 31008KT
                       P6SM -SHRA BKN030 OVC060 FM010300 35009KT
                       P6SM VCSH BKN035 BKN060 FM010900 18008KT
                       P6SM OVC018=
201805311133 TAF KPAE 311133Z 3112/0112 33003KT P6SM BKN060 BKN120 FM311500
                       23003KT P6SM BKN050 OVC080 FM311800 25006KT
                       P6SM BKN035 OVC060 FM312300 31008KT P6SM
                       -SHRA BKN030 OVC060 FM010300 35009KT P6SM
                       VCSH BKN035 BKN060 FM010900 18008KT P6SM
                       OVC018=
201805310534 TAF KPAE 310534Z 3106/0106 32010KT P6SM FEW045 SCT250 FM311000
                       VRB03KT P6SM BKN060 BKN120 FM311300 19003KT
                       P6SM BKN025 OVC060 FM311800 25006KT P6SM
                       SCT030 BKN060=
201805302321 TAF KPAE 302321Z 3100/3124 32010KT P6SM FEW045 SCT250 FM311000
                       VRB03KT P6SM BKN060 BKN120 FM311300 19003KT
                       P6SM BKN025 OVC060 FM311800 25006KT P6SM
                       SCT030 BKN060=
201805301723 TAF KPAE 301723Z 3018/3118 00000KT P6SM FEW015 BKN030 OVC250 FM302000
                       34006KT P6SM SCT035 BKN200 FM311000 VRB03KT
                       P6SM BKN060 BKN120 FM311300 19003KT P6SM
                       BKN025 OVC060=
201805301614 KPAE 301614Z 3016/3112 16003KT P6SM SCT020 BKN040
                      TEMPO 3016/3018 BKN020 OVC040 FM302000 34008KT
                       P6SM SCT040 BKN200 FM311000 VRB03KT P6SM
                       BKN060 BKN120=
201805301127 TAF KPAE 301127Z 3012/3112 33004KT P6SM BKN018 BKN050
                      TEMPO 3012/3016 SCT022 BKN050 FM301600 33005KT
                       P6SM BKN035 BKN060 FM302000 34008KT P6SM
                       SCT040 BKN200 FM311000 VRB03KT P6SM BKN060
                       BKN120=
201805300827 KPAE 300827Z 3008/3106 VRB04KT P6SM SCT035 BKN050 FM301200 VRB03KT
                       P6SM BKN030 BKN050 FM301800 33007KT P6SM
                       FEW035 SCT060 FM302100 34008KT P6SM FEW040
                       SCT150=
201805300520 TAF KPAE 300520Z 3006/3106 33006KT P6SM VCSH SCT040 BKN080 FM300800
                       02004KT P6SM OVC030 FM301800 33007KT P6SM
                       FEW035 SCT060 FM302100 34008KT P6SM FEW040
                       SCT150=
201805300014 KPAE 300014Z 3000/3024 33006KT P6SM VCSH SCT045 OVC050
                      TEMPO 3000/3004 -SHRA FM300800 02004KT P6SM
                       OVC030 FM301800 33007KT P6SM FEW035 SCT060=
201805292320 TAF KPAE 292320Z 3000/3024 33006KT P6SM FEW040 BKN070 FM300800
                       02004KT P6SM OVC030 FM301800 33007KT P6SM
                       FEW035 SCT060=
201805292101 KPAE 292101Z 2921/3018 30004KT P6SM SCT030 BKN045
                      TEMPO 2921/2923 BKN030 OVC045 FM300000 35009KT
                       P6SM SCT045 SCT070 FM300800 02004KT P6SM
                       OVC030=
201805291722 TAF KPAE 291722Z 2918/3018 25005KT P6SM SCT028 BKN045
                      TEMPO 2918/2919 BKN028 OVC045 FM292000 32006KT
                       P6SM SCT040 BKN060 FM300000 35009KT P6SM
                       SCT045 SCT070 FM300800 02004KT P6SM OVC030=
201805291614 KPAE 291614Z 2916/3012 00000KT P6SM SCT025 BKN045
                      TEMPO 2916/2919 BKN025 OVC045 FM291900 32006KT
                       P6SM SCT040 BKN060 FM300000 35009KT P6SM
                       SCT045 SCT070 FM300800 02004KT P6SM OVC030=
201805291124 TAF KPAE 291124Z 2912/3012 32005KT P6SM BKN045 BKN070 FM291900
                       32006KT P6SM SCT040 BKN060 FM300000 35009KT
                       P6SM SCT045 SCT070 FM300800 02004KT P6SM
                       OVC030=
201805290520 TAF KPAE 290520Z 2906/3006 33009G15KT P6SM OVC060 FM290800 36004KT
                       P6SM SCT030 BKN050 FM291200 VRB03KT P6SM
                       OVC020 FM291900 32005KT P6SM SCT025 BKN050
                       FM300000 35009KT P6SM BKN050=
201805290404 KPAE 290404Z 2904/2924 33011G16KT P6SM OVC060 FM290800 36004KT
                       P6SM SCT030 BKN050 FM291100 VRB03KT P6SM
                       OVC020 FM291900 32005KT P6SM SCT025 BKN050=
201805282322 TAF KPAE 282322Z 2900/2924 34008KT P6SM FEW035 SCT070 FM290800
                       36004KT P6SM SCT030 BKN050 FM291100 VRB03KT
                       P6SM OVC020 FM291900 32005KT P6SM SCT025
                       BKN050=
201805281722 TAF KPAE 281722Z 2818/2918 28004KT P6SM SCT020 BKN050
                      TEMPO 2818/2819 BKN020 BKN050 FM282200 34007KT
                       P6SM SCT030 BKN050 FM290100 36008KT P6SM
                       SCT050 FM290800 36004KT P6SM SCT030 BKN050
                       FM291100 VRB03KT P6SM OVC020=
201805281310 KPAE 281310Z 2813/2912 VRB04KT P6SM SCT015 SCT050
                      TEMPO 2813/2817 OVC045 FM281900 27004KT P6SM
                       SCT022 BKN050 FM282200 34007KT P6SM SCT030
                       BKN050 FM290100 36008KT P6SM SCT050 FM290800
                       36004KT P6SM BKN030 OVC050=
201805281133 TAF KPAE 281133Z 2812/2912 VRB03KT P6SM SCT015 SCT050
                      TEMPO 2812/2814 BKN014 OVC050 FM281400 23005KT
                       P6SM OVC014 FM281900 27004KT P6SM SCT015
                       BKN030 FM282200 34007KT P6SM SCT030 BKN050
                       FM290100 36008KT P6SM SCT050 FM290800 36004KT
                       P6SM BKN030 OVC050=
201805280520 TAF KPAE 280520Z 2806/2906 34008G15KT P6SM SKC FM280800 34005KT
                       P6SM SKC FM281100 VRB03KT P6SM SCT008 BKN015
                       OVC020 FM281900 27004KT P6SM SCT015 BKN030
                       FM282200 32007KT P6SM SCT030 BKN040 FM290100
                       36005KT P6SM SCT040=
201805272337 TAF KPAE 272337Z 2800/2824 34007KT P6SM SCT040 FM281100 VRB03KT
                       P6SM SCT008 BKN015 OVC020 FM281800 33004KT
                       P6SM SCT015 BKN030 FM282200 33007KT P6SM
                       SCT030 BKN040=
201805271739 TAF KPAE 271739Z 2718/2818 29004KT P6SM SCT200 FM280000 34007KT
                       P6SM SCT040 FM281100 VRB03KT P6SM SCT008
                       BKN015 OVC020=
201805271123 TAF KPAE 271123Z 2712/2812 VRB03KT P6SM SCT045 BKN200 FM271900
                       28005KT P6SM SCT200 FM272100 34006KT P6SM
                       SCT200 FM280900 VRB05KT P6SM BKN015 OVC030=
201805270520 TAF KPAE 270520Z 2706/2806 34007KT P6SM SCT060 BKN250 FM270900
                       03005KT P6SM SCT025 BKN030 FM271900 28005KT
                       P6SM SCT035 FM272100 31006KT P6SM SCT250
                       FM280400 01005KT P6SM SCT250=
201805270302 KPAE 270302Z 2703/2724 35005KT P6SM SCT040 BKN200 FM270800 03005KT
                       P6SM SCT025 BKN035 FM271900 31006KT P6SM
                       SKC=
201805262320 TAF KPAE 262320Z 2700/2724 29006KT P6SM BKN045 BKN150 FM270200
                       33007KT P6SM SCT035 BKN120 FM270800 03005KT
                       P6SM SCT025 BKN035 FM271900 31006KT P6SM
                       SKC=
201805261735 TAF KPAE 261735Z 2618/2718 26005KT P6SM BKN025 BKN035 FM262000
                       32007KT P6SM SCT035 SCT200 FM270600 03005KT
                       P6SM SCT100=
201805261130 TAF KPAE 261130Z 2612/2712 VRB03KT P6SM SCT020 BKN060 FM261400
                       VRB03KT P6SM BKN022 OVC040 FM261900 VRB03KT
                       P6SM SCT025 BKN040 FM262300 33006KT P6SM
                       SCT045 SCT200=
201805260521 TAF KPAE 260521Z 2606/2706 36004KT P6SM SCT045 FM260700 01005KT
                       P6SM SCT030 FM261100 VRB03KT P6SM SCT010
                       BKN018 FM261700 20005KT P6SM SCT015 BKN025
                       FM261900 25004KT P6SM SCT025 BKN035 FM262100
                       30005KT P6SM SCT030 SCT045 FM270300 36005KT
                       P6SM SCT045=
201805252325 TAF KPAE 252325Z 2600/2624 33007KT P6SM SCT040 BKN050 BKN200 FM260200
                       35008KT P6SM SKC FM260700 01005KT P6SM SCT020
                       FM261000 17003KT P6SM SCT010 OVC018 FM261700
                       20005KT P6SM SCT015 BKN025 FM261900 25004KT
                       P6SM SCT025 BKN035 FM262100 30005KT P6SM
                       SCT030 SCT045=
201805251739 TAF KPAE 251739Z 2518/2618 32007KT P6SM SCT030 BKN045 FM252100
                       32006KT P6SM SCT035 SCT050 FM261000 17004KT
                       P6SM SCT015 BKN025=
201805251124 TAF KPAE 251124Z 2512/2612 35006KT P6SM OVC035 FM251800 32008KT
                       P6SM SCT040 FM261100 VRB03KT P6SM BKN030=
201805251033 KPAE 251033Z 2511/2606 35006KT P6SM OVC030 FM251800 32007KT P6SM
                       SCT035 FM260000 32007KT P6SM SCT035=
201805250525 TAF KPAE 250525Z 2506/2606 33005KT P6SM FEW040 SCT250 FM251100
                       01003KT P6SM SCT020 FM251700 32007KT P6SM
                       SCT035 FM260000 32007KT P6SM SCT035=
201805242335 TAF KPAE 242335Z 2500/2524 32007KT P6SM SKC FM251100 01003KT P6SM
                       SCT008 FM251700 32007KT P6SM SKC=
201805241738 TAF KPAE 241738Z 2418/2518 23004KT P6SM SCT015 BKN025 FM242100
                       26006KT P6SM SCT025 SCT035 FM242300 32005KT
                       P6SM SCT035=
201805241500 KPAE 241500Z 2415/2512 18006KT 5SM -DZ BR BKN006 OVC012 FM241800
                       23006KT P6SM SCT015 BKN020 FM242100 26006KT
                       P6SM SCT040 FM242300 35006KT P6SM SCT040
                       BKN150=
201805241128 TAF KPAE 241128Z 2412/2512 18006KT P6SM OVC011 FM241800 23006KT
                       P6SM BKN020 FM242100 26006KT P6SM SCT040
                       FM242300 35006KT P6SM SCT040 BKN150=
201805240521 TAF KPAE 240521Z 2406/2506 32005KT P6SM SCT100 FM240900 VRB04KT
                       P6SM SCT100 FM241100 19007KT P6SM OVC010
                       FM241900 23004KT P6SM BKN020 FM242100 26006KT
                       P6SM SCT040 FM242300 32007KT P6SM SCT040
                       FM250300 01004KT P6SM SCT040=
201805240307 KPAE 240307Z 2403/2424 33011G17KT P6SM SCT080 FM240600 VRB05KT
                       P6SM SCT080 FM241100 19007KT P6SM OVC010
                       FM241900 23004KT P6SM BKN025 FM242100 26006KT
                       P6SM SCT040=
201805232320 TAF KPAE 232320Z 2400/2424 28008KT P6SM FEW050 FEW120 FM240600
                       28008KT P6SM SCT020
                      TEMPO 2406/2409 BKN020 FM240900 20010KT P6SM
                       OVC018 FM241700 23004KT P6SM BKN025 FM242100
                       26006KT P6SM SCT040=
201805231720 TAF KPAE 231720Z 2318/2418 VRB04KT P6SM FEW040 SCT120 FM240000
                       30010KT P6SM SCT040 BKN120 FM240600 28008KT
                       P6SM SCT020 SCT060
                      TEMPO 2406/2409 BKN020 BKN060 FM240900 20010KT
                       P6SM OVC018 FM241700 23004KT P6SM BKN025=
201805231132 TAF KPAE 231132Z 2312/2412 36005KT P6SM SCT100 FM231600 27006KT
                       P6SM SCT120 FM240300 35006KT P6SM SCT100
                       BKN250 FM240900 18008KT P6SM OVC014=
201805230535 TAF KPAE 230535Z 2306/2406 36005KT P6SM SKC FM231400 25004KT P6SM
                       SCT008 FM231600 27006KT P6SM SCT250 FM240300
                       35006KT P6SM SCT100 BKN250=
201805222320 TAF KPAE 222320Z 2300/2324 35006KT P6SM SCT250 FM230700 VRB04KT
                       P6SM SCT250 FM231900 27005KT P6SM SCT250=
201805221720 TAF KPAE 221720Z 2218/2318 35006KT P6SM SCT250 FM230700 VRB04KT
                       P6SM SCT250=
201805221356 KPAE 221356Z 2214/2312 35005KT P6SM SCT004
                      TEMPO 2214/2216 BKN003 FM221700 35006KT P6SM
                       SCT250 FM230700 VRB04KT P6SM SCT250=
201805221120 TAF KPAE 221120Z 2212/2312 35005KT P6SM SKC FM221800 35006KT P6SM
                       SCT250 FM230700 VRB04KT P6SM SCT250=
201805220537 TAF KPAE 220537Z 2206/2306 35005KT P6SM SKC FM221800 35004KT P6SM
                       SCT250=
201805212320 TAF KPAE 212320Z 2200/2224 34006KT P6SM SCT050 SCT250 FM220400
                       VRB04KT P6SM SKC FM221800 34006KT P6SM SKC=
201805211720 TAF KPAE 211720Z 2118/2218 32004KT P6SM SCT040 BKN250 FM212000
                       34006KT P6SM SCT050 SCT250 FM220400 VRB04KT
                       P6SM SKC=
201805211132 TAF KPAE 211132Z 2112/2212 36004KT P6SM SCT025 BKN050
                      TEMPO 2112/2116 BKN024 OVC045 FM211800 32004KT
                       P6SM SCT030 BKN050 FM212000 34006KT P6SM
                       SCT050 SCT250 FM220400 02004KT P6SM SKC=
201805210523 TAF KPAE 210523Z 2106/2206 33008KT P6SM OVC040 FM211100 36004KT
                       P6SM OVC020 FM211900 32004KT P6SM BKN022
                       FM212000 34006KT P6SM SCT030 SCT250=
201805210031 KPAE 210031Z 2101/2124 33007KT P6SM BKN045 FM210700 01004KT P6SM
                       BKN020 BKN050 FM211300 VRB03KT P6SM OVC015
                       TEMPO 2113/2117 3SM BR OVC005 FM211900 33005KT
                       P6SM SCT020 BKN040=
201805202320 TAF KPAE 202320Z 2100/2124 VRB03KT P6SM SCT010 BKN030 FM210100
                       35004KT P6SM BKN030 BKN050 FM210700 01004KT
                       P6SM BKN020 BKN050 FM211300 VRB03KT P6SM
                       OVC015
                      TEMPO 2113/2117 3SM BR OVC005 FM211900 33005KT
                       P6SM SCT020 BKN040=
201805202001 KPAE 202001Z 2020/2118 33004KT P6SM OVC010 FM202100 27006KT P6SM
                       SCT020 BKN035 FM210100 35004KT P6SM BKN050
                       BKN100 FM210700 01004KT P6SM BKN035 BKN060
                       FM211300 VRB03KT P6SM OVC015
                      TEMPO 2113/2117 3SM BR OVC005=
201805201720 TAF KPAE 201720Z 2018/2118 33004KT P6SM SCT010 OVC020
                      TEMPO 2018/2020 1SM BR BKN005 OVC010 FM202000
                       27006KT P6SM SCT020 BKN035 FM210100 35004KT
                       P6SM BKN050 BKN100 FM210700 01004KT P6SM
                       BKN035 BKN060 FM211300 VRB03KT P6SM OVC015
                       TEMPO 2113/2117 3SM BR OVC005=
201805201621 KPAE 201621Z 2016/2112 33004KT P6SM SCT010 OVC022
                      TEMPO 2016/2018 1SM -RA BR OVC007 FM202000
                       27006KT P6SM SCT020 BKN035 FM210100 35004KT
                       P6SM BKN050 BKN100 FM210700 01004KT P6SM
                       BKN035 BKN060=
201805201420 KPAE 201420Z 2014/2112 33004KT P6SM SCT010 OVC022
                      TEMPO 2014/2016 2SM -RA BR OVC007 FM202000
                       27006KT P6SM SCT020 BKN035 FM210100 35004KT
                       P6SM BKN050 BKN100 FM210700 01004KT P6SM
                       BKN035 BKN060=
201805201121 TAF KPAE 201121Z 2012/2112 33004KT P6SM SCT010 OVC022
                      TEMPO 2012/2016 BKN009 OVC020 FM202000 27006KT
                       P6SM SCT020 BKN035 FM210100 35004KT P6SM
                       BKN050 BKN100 FM210700 01004KT P6SM BKN035
                       BKN060=
201805200522 TAF KPAE 200522Z 2006/2106 35004KT P6SM BKN080 OVC100 FM201000
                       21004KT P6SM OVC015 FM202000 27006KT P6SM
                       SCT020 BKN035 FM210300 35004KT P6SM BKN100=
201805192320 TAF KPAE 192320Z 2000/2024 30006KT P6SM SCT035 BKN100 FM200500
                       VRB04KT P6SM SCT020 BKN040 FM201000 21004KT
                       P6SM OVC015 FM202000 27006KT P6SM SCT020
                       BKN035=
201805191720 TAF KPAE 191720Z 1918/2018 VRB03KT P6SM SCT015 OVC090 FM192100
                       30006KT P6SM SCT035 BKN070 FM201000 18004KT
                       P6SM OVC015=
201805191310 KPAE 191310Z 1913/2012 00000KT P6SM SCT025 OVC090
                      TEMPO 1913/1916 OVC025 FM192100 30006KT P6SM
                       SCT035 BKN070 FM201000 18004KT P6SM OVC015=
201805191121 TAF KPAE 191121Z 1912/2012 33005KT P6SM SCT004 OVC020
                      TEMPO 1912/1916 BKN004 OVC020 FM191900 24005KT
                       P6SM SCT015 BKN035 FM192100 30006KT P6SM
                       SCT035 BKN070 FM201000 18004KT P6SM OVC015=
201805191011 KPAE 191011Z 1910/2006 33006KT P6SM BKN004 BKN025 OVC110 FM191200
                       VRB04KT P6SM BKN004 OVC010 FM191900 24005KT
                       P6SM SCT015 BKN035 FM192100 30006KT P6SM
                       SCT035 BKN070=
201805190811 KPAE 190811Z 1908/2006 33005KT P6SM BKN020 OVC070 FM191100 VRB04KT
                       P6SM OVC010 FM191900 24005KT P6SM SCT015
                       BKN035 FM192100 30006KT P6SM SCT035 BKN070=
201805190527 TAF KPAE 190527Z 1906/2006 33003KT P6SM BKN100 FM191100 VRB04KT
                       P6SM OVC010 FM191900 24005KT P6SM SCT015
                       BKN035 FM192100 30006KT P6SM SCT035 BKN070=
201805182320 TAF KPAE 182320Z 1900/1924 31005KT P6SM BKN015
                      TEMPO 1900/1903 SCT015 FM190500 03003KT P6SM
                       OVC020 FM191100 VRB04KT P6SM OVC010 FM191900
                       26005KT P6SM BKN015 OVC030=
201805182108 KPAE 182108Z 1821/1918 31005KT P6SM BKN005 BKN015 FM190500 03003KT
                       P6SM OVC020 FM191100 19003KT P6SM OVC010=
201805181720 TAF KPAE 181720Z 1818/1918 VRB03KT P6SM OVC006 FM181900 26004KT
                       P6SM BKN010 OVC020 FM182100 31005KT P6SM
                       BKN020 BKN040 FM190500 03003KT P6SM OVC020
                       FM191100 19003KT P6SM OVC010=
201805181127 TAF KPAE 181127Z 1812/1912 VRB03KT P6SM OVC005 FM181600 VRB02KT
                       P6SM BKN015 OVC030 FM181900 26004KT P6SM
                       SCT018 BKN035 OVC070 FM182100 31005KT P6SM
                       SCT035 BKN070 FM190500 03003KT P6SM BKN070
                       FM191100 19003KT P6SM OVC050=
201805180959 KPAE 180959Z 1810/1906 32005KT P6SM BKN005 OVC100 FM181200 VRB03KT
                       P6SM VCSH BKN010 OVC030 FM181700 28004KT
                       P6SM VCSH SCT016 BKN035 OVC070 FM182200
                       32004KT P6SM SCT035 BKN070=
201805180528 TAF KPAE 180528Z 1806/1906 33003KT P6SM SCT035 BKN070 FM181200
                       19003KT P6SM VCSH BKN014 OVC030 FM181700
                       28004KT P6SM VCSH SCT016 BKN035 OVC070 FM182200
                       32004KT P6SM SCT035 BKN070=
201805180301 KPAE 180301Z 1803/1824 07007KT P6SM OVC035 FM181000 19003KT P6SM
                       VCSH OVC014 FM181800 28004KT P6SM VCSH SCT016
                       BKN035 OVC070=
201805180130 KPAE 180130Z 1802/1824 29003KT P6SM BKN027 OVC070 FM181000 19003KT
                       P6SM VCSH OVC014 FM181800 28004KT P6SM VCSH
                       SCT016 BKN035 OVC070=
201805172338 TAF KPAE 172338Z 1800/1824 VRB03KT P6SM SCT035 OVC070 FM180600
                       15003KT P6SM BKN035 BKN070 FM181000 19003KT
                       P6SM VCSH OVC014 FM181800 28004KT P6SM VCSH
                       SCT016 BKN035 OVC070=
201805172108 KPAE 172108Z 1721/1818 22009KT P6SM BKN035 FM172200 24005KT P6SM
                       SCT035 BKN050 FM181000 19003KT P6SM VCSH
                       OVC014=
201805171724 TAF KPAE 171724Z 1718/1818 24005KT P6SM OVC016 FM172000 24005KT
                       P6SM BKN022 OVC045 FM172200 24005KT P6SM
                       SCT030 BKN050 FM181000 19003KT P6SM VCSH
                       OVC014=
201805171123 TAF KPAE 171123Z 1712/1812 17008KT P6SM BKN015 OVC030 FM171800
                       25005KT P6SM BKN020 BKN050 FM172100 23004KT
                       P6SM SCT030 BKN050 FM181000 VRB03KT P6SM
                       OVC025=
201805170527 TAF KPAE 170527Z 1706/1806 VRB03KT P6SM OVC030 FM171000 VRB03KT
                       P6SM OVC010 FM171800 25005KT P6SM BKN020
                       BKN050 FM172100 23004KT P6SM SCT030 BKN050=
201805170302 KPAE 170302Z 1703/1724 33005KT P6SM BKN040 FM170500 VRB05KT P6SM
                       OVC020 FM171100 20005KT P6SM OVC015 FM171800
                       24005KT P6SM BKN020 OVC040=
201805162320 TAF KPAE 162320Z 1700/1724 24006KT P6SM SCT025 FM170200 30006KT
                       P6SM SCT030 FM170700 18006KT P6SM OVC020
                       FM171100 20005KT P6SM OVC015 FM171800 24005KT
                       P6SM BKN020 OVC040=
201805161720 TAF KPAE 161720Z 1618/1718 19008KT P6SM BKN017 OVC030 FM162100
                       24006KT P6SM BKN025 BKN035 FM170100 30006KT
                       P6SM BKN030 BKN050 FM170500 19006KT P6SM
                       OVC020 FM171100 20005KT P6SM OVC015=
201805161126 TAF KPAE 161126Z 1612/1712 16010KT P6SM BKN014 OVC022 FM161800
                       19008KT P6SM BKN017 OVC030 FM162100 24006KT
                       P6SM BKN025 BKN035 FM170100 30006KT P6SM
                       BKN030 BKN050 FM170500 19006KT P6SM OVC020=
201805160717 KPAE 160717Z 1607/1706 17011KT P6SM OVC009 FM161100 20007KT P6SM
                       OVC006 FM161700 22006KT P6SM OVC010 FM162100
                       25006KT P6SM OVC015 FM162300 VRB04KT P6SM
                       BKN020 FM170500 19005KT P6SM OVC015=
201805160520 TAF KPAE 160520Z 1606/1706 33006KT P6SM SKC FM160800 21007KT P6SM
                       OVC006 FM161100 20007KT P6SM OVC004 FM161700
                       22006KT P6SM OVC010 FM162100 25006KT P6SM
                       OVC015 FM162300 VRB04KT P6SM BKN020 FM170500
                       19005KT P6SM OVC015=
201805152324 TAF KPAE 152324Z 1600/1624 21007KT P6SM SKC FM161100 19007KT P6SM
                       OVC006 FM161700 22006KT P6SM OVC010 FM162100
                       25006KT P6SM BKN015=
201805151725 TAF KPAE 151725Z 1518/1618 21008KT P6SM BKN009 FM151900 25006KT
                       P6SM SKC FM160000 32008KT P6SM SKC FM161200
                       20006KT P6SM OVC009=
201805151510 KPAE 151510Z 1515/1612 23005KT P6SM BKN009 FM151700 24006KT P6SM
                       SCT010 FM151800 24005KT P6SM SKC FM152200
                       33007KT P6SM SCT250 FM160800 17007KT P6SM
                       OVC012=
201805151121 TAF KPAE 151121Z 1512/1612 VRB03KT P6SM SCT003 SCT200
                      TEMPO 1513/1515 3SM BR BCFG FM151700 24006KT
                       P6SM SCT250 FM152200 33007KT P6SM SCT250
                       FM160800 17007KT P6SM OVC012=
201805150520 TAF KPAE 150520Z 1506/1606 33008KT P6SM SKC FM150900 35003KT P6SM
                       SKC FM151200 VRB03KT P6SM SCT005 SCT200
                       FM151700 24006KT P6SM SCT250 FM152200 33007KT
                       P6SM SCT250=
201805142320 TAF KPAE 142320Z 1500/1524 33007KT P6SM SKC FM150600 VRB04KT P6SM
                       SCT250 FM151200 20003KT P6SM SCT025 SCT200
                       FM151700 24006KT P6SM SKC FM152100 31006KT
                       P6SM SKC=
201805141743 TAF KPAE 141743Z 1418/1518 24005KT P6SM SKC FM142000 27005KT P6SM
                       SKC FM142200 34006KT P6SM SKC FM150600 VRB04KT
                       P6SM SCT250 FM151200 VRB04KT P6SM SCT025
                       SCT200 FM151700 24006KT P6SM SKC=
201805141137 TAF KPAE 141137Z 1412/1512 VRB03KT P6SM SKC FM141800 27005KT P6SM
                       SKC FM142200 34006KT P6SM SKC FM150800 VRB04KT
                       P6SM SCT250=
201805140520 TAF KPAE 140520Z 1406/1506 VRB03KT P6SM SKC FM141300 17004KT P6SM
                       SKC FM142200 34006KT P6SM SKC=
201805132327 TAF KPAE 132327Z 1400/1424 34006KT P6SM SKC FM140500 VRB03KT P6SM
                       SKC FM141300 17004KT P6SM SKC FM142200 01006KT
                       P6SM SKC=
201805131722 TAF KPAE 131722Z 1318/1418 35006KT P6SM SKC FM140500 03003KT P6SM
                       SKC=
201805131137 TAF KPAE 131137Z 1312/1412 VRB04KT P6SM SKC FM131900 35006KT P6SM
                       SKC FM140500 03003KT P6SM SKC=
201805130520 TAF KPAE 130520Z 1306/1406 02004KT P6SM SKC FM131900 35006KT P6SM
                       SKC FM140500 03003KT P6SM SKC=
201805122324 TAF KPAE 122324Z 1300/1324 32010G15KT P6SM SKC FM130400 36004KT
                       P6SM SKC=
201805121741 TAF KPAE 121741Z 1218/1318 33008KT P6SM SKC FM130400 VRB03KT P6SM
                       SKC FM131600 36004KT 5SM BR SKC=
201805121343 KPAE 121343Z 1214/1312 33005KT P6SM FEW002
                      TEMPO 1214/1216 1 1/2SM BR BKN001 FM121700
                       36005KT P6SM SKC FM122100 35007KT P6SM SKC
                       FM130500 04004KT P6SM SKC=
201805121120 TAF KPAE 121120Z 1212/1312 02002KT P6SM FEW002
                      TEMPO 1212/1215 5SM BR SCT002 FM121600 36005KT
                       P6SM SKC FM122100 35007KT P6SM SKC FM130500
                       04004KT P6SM SKC=
201805120528 TAF KPAE 120528Z 1206/1306 02002KT P6SM SKC FM121400 36005KT P6SM
                       SKC FM122100 35007KT P6SM SKC=
201805112320 TAF KPAE 112320Z 1200/1224 36006KT P6SM SCT035 FM120200 02002KT
                       P6SM SKC FM121400 36005KT P6SM SKC FM122100
                       35007KT P6SM SKC=
201805111730 TAF KPAE 111730Z 1118/1218 00000KT P6SM BKN020 BKN035 FM112000
                       31006KT P6SM FEW035 SCT050 FM120200 02002KT
                       P6SM SKC FM121400 36005KT P6SM SKC=
201805111308 KPAE 111308Z 1113/1212 VRB03KT P6SM OVC028 FM111800 31006KT P6SM
                       BKN035 FM112000 31006KT P6SM SCT050 FM120200
                       VRB03KT P6SM SKC=
201805111128 TAF KPAE 111128Z 1112/1212 VRB03KT P6SM SCT015 OVC035
                      TEMPO 1114/1118 BKN015 OVC035 FM111800 31006KT
                       P6SM FEW022 BKN035 FM112000 31006KT P6SM
                       SCT050 FM120200 VRB03KT P6SM SKC=
201805110717 KPAE 110717Z 1107/1206 33005KT P6SM BKN035 BKN060 FM110900 VRB03KT
                       P6SM BKN028 OVC040 FM111200 VRB03KT P6SM
                       OVC011 FM111800 31006KT P6SM SCT023 FM111900
                       31006KT P6SM FEW035 FM120200 VRB03KT P6SM
                       SKC=
201805110524 TAF KPAE 110524Z 1106/1206 33005KT P6SM BKN060 BKN100 FM110900
                       VRB03KT P6SM SCT020 SCT060 SCT100
                      TEMPO 1109/1112 BKN020 BKN060 BKN100 FM111200
                       VRB03KT P6SM OVC015 FM111800 31006KT P6SM
                       SCT023 FM111900 31006KT P6SM FEW035 FM120200
                       VRB03KT P6SM SKC=
201805102324 TAF KPAE 102324Z 1100/1124 32008KT P6SM BKN035 BKN045 FM110200
                       32007KT P6SM SCT030 BKN045 FM110500 01003KT
                       P6SM SCT030 BKN045 FM111100 01004KT P6SM
                       BKN015 BKN025 FM111900 32005KT P6SM SCT025
                       BKN050 FM112200 34005KT P6SM SCT050=
201805101729 TAF KPAE 101729Z 1018/1118 23008KT P6SM -SHRA SCT009 SCT015 OVC040
                       FM102100 31008KT P6SM VCSH BKN035 BKN060
                       FM110000 36008KT P6SM SCT035 BKN060 FM110800
                       01004KT P6SM SCT007 BKN015 BKN025=
201805101122 TAF KPAE 101122Z 1012/1112 17004KT P6SM VCSH SCT025 OVC060
                      TEMPO 1012/1014 BKN025 OVC060 FM101400 17007KT
                       P6SM VCSH OVC025 FM101800 22009KT P6SM -SHRA
                       BKN030 OVC050 FM102100 31008KT P6SM VCSH
                       BKN035 BKN060 FM110000 36008KT P6SM SCT035
                       BKN060 FM110300 02004KT P6SM SCT060=
201805100909 KPAE 100909Z 1009/1106 VRB03KT P6SM FEW022 SCT110 BKN250 FM101200
                       18007KT P6SM BKN020 BKN060 OVC110 FM101800
                       21009KT P6SM VCSH BKN030 OVC060 FM102100
                       33008KT P6SM -SHRA BKN030 OVC060=
201805100904 KPAE 100904Z 1009/1106 VRB03KT P6SM FEW022 SCT110 BKN250 FM101200
                       18007KT P6SM BKN020 BKN060 OVC110 FM101800
                       21009KT P6SM VCSH BKN030 OVC060 FM102100
                       33008KT P6SM -SHRA BKN030 OVC060=
201805100638 KPAE 100638Z 1007/1106 33005KT P6SM BKN035 BKN100 FM101200 18007KT
                       P6SM BKN020 BKN060 OVC110 FM101800 21009KT
                       P6SM VCSH BKN030 OVC060 FM102100 33008KT
                       P6SM -SHRA BKN030 OVC060=
201805100522 TAF KPAE 100522Z 1006/1106 33005KT P6SM BKN035 BKN100 FM101200
                       18007KT P6SM BKN020 BKN060 OVC110 FM101800
                       21009KT P6SM VCSH BKN030 OVC060 FM102100
                       33008KT P6SM -SHRA BKN030 OVC060=
201805092320 TAF KPAE 092320Z 1000/1024 18015G25KT P6SM FEW030 SCT070 BKN250
                       FM100300 22008KT P6SM FEW030 SCT070 BKN250
                       FM101000 18007KT P6SM BKN020 BKN060 OVC110
                       FM101800 21009KT P6SM VCSH BKN030 BKN060
                       FM102100 33008KT P6SM -SHRA BKN030 BKN060=
201805091721 TAF KPAE 091721Z 0918/1018 18015G25KT P6SM SCT035 BKN250 FM091900
                       18015G25KT P6SM VCSH SCT030 BKN040 BKN250
                       TEMPO 0919/0923 -SHRA BKN030 OVC050 FM100000
                       25006KT P6SM VCSH BKN035 OVC050 FM100600
                       VRB04KT P6SM FEW035 BKN060 BKN110 FM100900
                       17005KT P6SM BKN022 BKN060 BKN110=
201805091219 KPAE 091219Z 0912/1012 15014KT P6SM VCSH SCT025 SCT060 BKN250
                      TEMPO 0912/0915 15013G23KT BKN025 OVC060
                       FM091800 20012KT P6SM SCT035 BKN060 BKN250
                       TEMPO 0921/0924 -SHRA BKN035 OVC050 FM100000
                       25006KT P6SM VCSH BKN035 OVC050 FM100600
                       VRB04KT P6SM FEW035 BKN060 BKN110 FM100900
                       17005KT P6SM SCT022 SCT060 BKN110=
201805091132 TAF KPAE 091132Z 0912/1012 16014KT P6SM VCSH SCT025 SCT060 BKN250
                       TEMPO 0912/0915 16013G23KT BKN025 OVC060
                       FM091800 20012KT P6SM SCT035 BKN060 BKN250
                       TEMPO 0921/0924 -SHRA BKN035 OVC050 FM100000
                       25006KT P6SM VCSH BKN035 OVC050 FM100600
                       VRB04KT P6SM FEW035 BKN060 BKN110 FM100900
                       17005KT P6SM SCT022 SCT060 BKN110=
201805091053 KPAE 091053Z 0911/1006 16014KT P6SM VCSH SCT015 SCT030 OVC045
                      TEMPO 0911/0915 15015G25KT SCT015 BKN030
                       OVC045 FM091500 18013KT P6SM VCSH OVC030
                       FM091900 22012KT P6SM VCSH BKN050=
201805090804 KPAE 090804Z 0908/1006 18013KT P6SM -SHRA OVC045
                      TEMPO 0908/0910 18013G22KT FM091000 18013KT
                       P6SM VCSH OVC030
                      TEMPO 0910/0912 -SHRA FM091900 22012KT P6SM
                       VCSH BKN050=
201805090520 TAF KPAE 090520Z 0906/1006 VRB05KT P6SM VCSH BKN070 BKN120 FM091000
                       18010KT P6SM -SHRA BKN030 BKN120 FM091900
                       22012KT P6SM VCSH BKN050=
201805090034 KPAE 090034Z 0901/0924 20010KT P6SM -TSRA BKN050CB OVC100 FM090200
                       19012G20KT P6SM -SHRA BKN050 OVC100 FM090800
                       18015G25KT P6SM -RA BKN020 OVC040 FM091300
                       18012KT P6SM VCSH BKN015 OVC030 FM091700
                       20013KT P6SM SCT020 OVC030=
201805082320 TAF KPAE 082320Z 0900/0924 24007KT P6SM BKN100 OVC200 FM090300
                       19010KT P6SM -RA OVC060 FM090800 18015G25KT
                       P6SM -RA BKN020 OVC040 FM091300 18012KT
                       P6SM VCSH BKN015 OVC030 FM091700 20013KT
                       P6SM SCT020 OVC030=
201805081720 TAF KPAE 081720Z 0818/0918 VRB04KT P6SM SCT250 FM081900 33006KT
                       P6SM SCT120 BKN200 FM082200 24007KT P6SM
                       BKN100 OVC200 FM090300 19010KT P6SM -RA
                       OVC060 FM090800 18015G25KT P6SM -RA BKN020
                       OVC040 FM091300 18012KT P6SM VCSH BKN015
                       OVC030=
201805081312 KPAE 081312Z 0813/0912 35005KT 5SM BR SCT002 SCT250
                      TEMPO 0813/0815 1/4SM FG VV001 FM081600 33006KT
                       P6SM SCT120 BKN200 FM082200 24007KT P6SM
                       BKN100 OVC200 FM090300 19010KT P6SM -RA
                       OVC060 FM090800 18015G25KT P6SM -RA BKN020
                       OVC040=
201805081243 KPAE 081243Z 0813/0912 35005KT P6SM SCT250
                      TEMPO 0813/0815 2SM BR SCT001 SCT250 FM081800
                       33006KT P6SM SCT120 BKN200 FM082200 24007KT
                       P6SM BKN100 OVC200 FM090300 19010KT P6SM
                       -RA OVC060 FM090800 18015G25KT P6SM -RA
                       BKN020 OVC040=
201805081132 TAF KPAE 081132Z 0812/0912 35005KT P6SM SCT250 FM081800 33006KT
                       P6SM SCT120 BKN200 FM082200 24007KT P6SM
                       BKN100 OVC200 FM090300 19010KT P6SM -RA
                       OVC060 FM090800 18015G25KT P6SM -RA BKN020
                       OVC040=
201805080520 TAF KPAE 080520Z 0806/0906 33005KT P6SM SCT250 FM081800 23006KT
                       P6SM SCT070 BKN200 FM082200 23010KT P6SM
                       BKN070 BKN150 FM090200 20010KT P6SM -RA
                       OVC040=
201805072330 TAF KPAE 072330Z 0800/0824 32006KT P6SM FEW030 FM080500 02004KT
                       P6SM SCT250 FM081800 35006KT P6SM SCT250
                       FM082300 24006KT P6SM SCT070 OVC250=
201805072113 KPAE 072113Z 0721/0818 20008KT P6SM SCT025 FM072300 30006KT P6SM
                       SCT035 SCT250 FM080400 01005KT P6SM SCT250=
201805071806 TAF KPAE 071806Z 0718/0818 16010KT P6SM SCT017 OVC022 FM072000
                       21006KT P6SM SCT020 BKN035 FM072300 30006KT
                       P6SM SCT035 SCT250 FM080400 01005KT P6SM
                       SCT250=
201805071126 TAF KPAE 071126Z 0712/0812 17009KT P6SM OVC009 FM071900 21006KT
                       P6SM SCT015 BKN035 FM072300 30006KT P6SM
                       SCT035 SCT250 FM080400 01005KT P6SM SCT250=
201805070524 TAF KPAE 070524Z 0706/0806 18008KT P6SM SCT015 SCT080
                      TEMPO 0706/0709 BKN012 BKN080 FM070900 17006KT
                       P6SM OVC011 FM071900 21006KT P6SM SCT015
                       BKN035 FM072300 30006KT P6SM SCT035 SCT250=
201805062331 TAF KPAE 062331Z 0700/0724 VRB03KT P6SM VCSH SCT040 BKN090 BKN220
                       FM070900 17006KT P6SM OVC011 FM071900 21006KT
                       P6SM SCT015 BKN035 FM072300 30006KT P6SM
                       SCT035 SCT250=
201805061722 TAF KPAE 061722Z 0618/0718 VRB04KT P6SM BKN100 FM062200 VRB04KT
                       P6SM VCSH SCT050 BKN090 FM070900 17006KT
                       P6SM OVC011=
201805061127 TAF KPAE 061127Z 0612/0712 33004KT P6SM FEW110 BKN250 FM070000
                       10006KT P6SM SCT050 BKN090 FM071000 15006KT
                       P6SM OVC015=
201805060520 TAF KPAE 060520Z 0606/0706 VRB03KT P6SM OVC090 FM061200 VRB04KT
                       P6SM BKN090 FM070000 30012KT P6SM SCT050
                       BKN090=
201805052332 TAF KPAE 052332Z 0600/0624 31008KT P6SM SCT150 BKN200 FM060100
                       36006KT P6SM BKN080 OVC220 FM060600 03004KT
                       P6SM SCT100 BKN250 FM061800 33005KT P6SM
                       SCT035 BKN250=
201805051753 TAF KPAE 051753Z 0518/0618 34007KT P6SM SCT009 BKN220 FM051900
                       34008KT P6SM SCT100 BKN220 FM060100 36006KT
                       P6SM BKN080 OVC220 FM060600 03004KT P6SM
                       SCT100 BKN250=
201805051120 TAF KPAE 051120Z 0512/0612 32006KT P6SM SCT003 OVC090
                      TEMPO 0512/0516 BKN003 OVC080 FM052000 35005KT
                       P6SM SCT040 BKN150 FM060000 35005KT P6SM
                       BKN050 BKN120 FM060600 00000KT P6SM OVC100=
201805050520 TAF KPAE 050520Z 0506/0606 33007KT P6SM SCT090 BKN250 FM051000
                       02006KT P6SM BKN090 OVC200 FM051400 03006KT
                       P6SM SCT020 BKN080 BKN200
                      TEMPO 0514/0517 BKN015 OVC080 FM052000 34010KT
                       P6SM SCT040 BKN150 FM060000 36010KT P6SM
                       BKN050 BKN120=
201805042329 TAF KPAE 042329Z 0500/0524 23008KT P6SM SCT030 BKN120 BKN200 FM050200
                       36004KT P6SM SCT090 BKN120 OVC200 FM050700
                       02004KT P6SM BKN035 FM051600 36006KT P6SM
                       SCT035 BKN250=
201805041730 TAF KPAE 041730Z 0418/0518 19005KT P6SM BKN020 OVC026 FM042000
                       21004KT P6SM OVC035 FM050100 33003KT P6SM
                       SCT040 OVC100 FM050600 01005KT P6SM BKN035=
201805041129 TAF KPAE 041129Z 0412/0512 16008KT P6SM OVC018 FM042000 33004KT
                       P6SM OVC040=
201805040902 KPAE 040902Z 0409/0506 17006KT P6SM BKN017 OVC023 FM041900 24006KT
                       P6SM BKN020 BKN060 FM042100 24006KT P6SM
                       SCT030 BKN060 FM050000 25005KT P6SM SCT030
                       BKN080=
201805040520 TAF KPAE 040520Z 0406/0506 34007KT P6SM BKN200 FM041000 20006KT
                       P6SM BKN014 FM041200 20007KT P6SM OVC006
                       FM041900 24006KT P6SM BKN020 BKN060 FM042100
                       24006KT P6SM SCT030 BKN060 FM050000 25005KT
                       P6SM SCT030 BKN080=
201805032320 TAF KPAE 032320Z 0400/0424 22007KT P6SM BKN200 FM041000 20006KT
                       P6SM BKN014 FM041100 20007KT P6SM OVC006
                       FM041900 24006KT P6SM BKN020 BKN060 FM042100
                       24006KT P6SM SCT030 BKN060=
201805031720 TAF KPAE 031720Z 0318/0418 22008KT P6SM BKN200 FM032200 25012KT
                       P6SM BKN200 FM040300 20008KT P6SM BKN200
                       FM041100 18008KT P6SM BKN012 FM041300 18008KT
                       P6SM OVC010=
201805031120 TAF KPAE 031120Z 0312/0412 VRB04KT P6SM SCT200 FM031800 22010KT
                       P6SM BKN200 FM032200 25012KT P6SM BKN200
                       FM040300 20008KT P6SM BKN200 FM040900 16008KT
                       P6SM SCT020 BKN100 BKN200=
201805030520 TAF KPAE 030520Z 0306/0406 VRB04KT P6SM SCT200 FM031800 22010KT
                       P6SM BKN200 FM032200 25012KT P6SM BKN200
                       FM040300 20008KT P6SM BKN200=
201805022320 TAF KPAE 022320Z 0300/0324 28006KT P6SM SCT200 FM030600 VRB04KT
                       P6SM SCT200 FM031800 22008KT P6SM SCT200=
201805021720 TAF KPAE 021720Z 0218/0318 32004KT P6SM FEW200 FM022000 36005KT
                       P6SM FEW200 FM030700 VRB03KT P6SM FEW200=
201805021120 TAF KPAE 021120Z 0212/0312 VRB03KT P6SM SCT200 FM022000 31005KT
                       P6SM FEW200 FM030300 VRB03KT P6SM SCT200
                       FM030900 12004KT P6SM FEW200=
201805020520 TAF KPAE 020520Z 0206/0306 33004KT P6SM SKC FM020900 VRB04KT P6SM
                       FEW150 FM021200 VRB03KT P6SM SCT020 FM021800
                       VRB04KT P6SM FEW200 FM022000 33005KT P6SM
                       FEW200=
201805012321 TAF KPAE 012321Z 0200/0224 33004KT P6SM FEW030 SCT050
                      TEMPO 0200/0204 BKN050 FM020700 VRB04KT P6SM
                       SCT150 FM021800 VRB04KT P6SM FEW200 FM022000
                       33005KT P6SM FEW200=
201805011720 TAF KPAE 011720Z 0118/0218 VRB04KT P6SM SCT020 BKN045 FM011900
                       35007KT P6SM FEW025 SCT045 FM012300 35005KT
                       P6SM SCT050 FM020700 VRB03KT P6SM SCT150=
201805011120 TAF KPAE 011120Z 0112/0212 VRB03KT P6SM OVC015 FM012000 20007KT
                       P6SM BKN030 FM012300 36005KT P6SM SCT040
                       FM020700 VRB03KT P6SM SCT100 SCT200=
201805010645 TAF KPAE 010645Z 0107/0206 20005KT P6SM SCT020 BKN050 FM010900
                       20005KT P6SM OVC020 FM012000 20007KT P6SM
                       BKN030 FM012300 36005KT P6SM SCT040=