##########################################################
# Query made at 02/15/2025 21:43:52 UTC
# Time interval: from 02/01/2018 00:00  to 02/28/2018 23:59  UTC
##########################################################

##########################################################
# KPAE, Everett, Snohomish County Airport (United States)
# WMO index: -----. WIGOS ID: Unknown
# Latitude 47-55-23N. Longitude 122-16-57W. Altitude 184 m.
##########################################################

###################################
#  METAR/SPECI from KPAE
###################################
201802282353 METAR KPAE 282353Z 12012G21KT 7SM -RA FEW027 OVC033 06/04 A2963 RMK AO2 SLP038 P0003 60006 T00610044 10067 20050 56030=
201802282253 METAR KPAE 282253Z 12014G21KT 7SM -RA BKN037 OVC045 07/03 A2966 RMK AO2 SLP046 P0002 T00670033=
201802282153 METAR KPAE 282153Z 13015G19KT 8SM -RA FEW021 OVC036 06/03 A2969 RMK AO2 SLP057 P0001 T00610028=
201802282053 METAR KPAE 282053Z 14007KT 9SM -RA BKN038 OVC046 07/03 A2973 RMK AO2 RAE14B32 SLP069 P0000 60000 T00670028 58036=
201802281953 METAR KPAE 281953Z 14011KT 10SM -RA BKN044 OVC050 06/02 A2976 RMK AO2 RAE05B35 SLP082 P0000 T00610022=
201802281853 METAR KPAE 281853Z 12012KT 10SM -RA BKN041 OVC075 06/01 A2980 RMK AO2 RAB51 SLP095 P0000 T00560006=
201802281753 METAR KPAE 281753Z 12008KT 10SM FEW080 OVC100 05/02 A2983 RMK AO2 SLP106 T00500017 10050 20033 58027=
201802281653 METAR KPAE 281653Z 11006KT 10SM OVC044 04/02 A2987 RMK AO2 SLP118 T00440017=
201802281553 METAR KPAE 281553Z 12011KT 10SM OVC042 04/02 A2990 RMK AO2 SLP127 T00390017=
201802281453 METAR KPAE 281453Z 12006KT 10SM BKN040 OVC110 03/02 A2992 RMK AO2 SLP134 T00330022 58010=
201802281353 METAR KPAE 281353Z AUTO 12009KT 10SM SCT026 BKN043 OVC100 03/02 A2993 RMK AO2 SLP139 T00330022=
201802281342 SPECI KPAE 281342Z AUTO 12009KT 10SM FEW016 SCT024 OVC100 03/02 A2993 RMK AO2 T00330022=
201802281253 METAR KPAE 281253Z AUTO 12010KT 10SM SCT014 BKN020 OVC024 03/02 A2995 RMK AO2 SLP144 T00330022=
201802281250 SPECI KPAE 281250Z AUTO 12011KT 10SM FEW011 BKN016 OVC024 03/02 A2995 RMK AO2=
201802281226 SPECI KPAE 281226Z AUTO 12009KT 9SM FEW005 BKN010 OVC017 03/03 A2996 RMK AO2 T00330028=
201802281211 SPECI KPAE 281211Z AUTO 13009KT 9SM FEW005 BKN017 OVC025 03/03 A2996 RMK AO2 T00330028=
201802281153 METAR KPAE 281153Z AUTO 12007KT 9SM FEW013 BKN023 OVC027 03/03 A2997 RMK AO2 SLP152 60002 70004 T00330028 10033 20028 57018=
201802281132 SPECI KPAE 281132Z AUTO 12009KT 9SM FEW009 BKN019 OVC036 03/02 A2997 RMK AO2 T00330022=
201802281109 SPECI KPAE 281109Z AUTO 12010KT 9SM FEW013 BKN023 OVC035 03/02 A2998 RMK AO2 T00330022=
201802281053 METAR KPAE 281053Z AUTO 13007KT 9SM BKN013 BKN028 OVC050 03/02 A2998 RMK AO2 SLP157 T00330022=
201802281007 SPECI KPAE 281007Z AUTO VRB04KT 9SM FEW006 OVC011 03/02 A3001 RMK AO2 T00280022=
201802280953 METAR KPAE 280953Z AUTO VRB03KT 10SM BKN008 OVC013 03/02 A3001 RMK AO2 RAB05E30 CIG 004V010 SLP166 P0000 T00280022=
201802280904 SPECI KPAE 280904Z AUTO VRB05KT 9SM BKN013 OVC019 03/02 A3002 RMK AO2 T00330022=
201802280853 METAR KPAE 280853Z AUTO VRB04KT 7SM BKN016 OVC023 03/02 A3002 RMK AO2 RAB13E47 SLP171 P0002 60002 T00330022 56013=
201802280835 SPECI KPAE 280835Z AUTO VRB03KT 5SM -RA BR BKN021 OVC031 03/02 A3003 RMK AO2 RAB13 P0001 T00330022=
201802280753 METAR KPAE 280753Z AUTO 12008KT 10SM OVC050 03/02 A3004 RMK AO2 SLP175 T00280022 400720022=
201802280653 METAR KPAE 280653Z AUTO 12010KT 10SM FEW028 OVC055 03/02 A3005 RMK AO2 UPB07E10RAB10E24 SLP179 P0000 T00280017=
201802280553 METAR KPAE 280553Z AUTO 12008KT 10SM OVC036 03/02 A3006 RMK AO2 SLP184 T00330017 10072 20033 52007=
201802280453 METAR KPAE 280453Z 13008KT 10SM SCT005 BKN038 OVC055 04/02 A3006 RMK AO2 SLP183 T00390022=
201802280440 SPECI KPAE 280440Z 13009KT 10SM SCT005 BKN038 OVC060 04/03 A3005 RMK AO2 T00390028=
201802280353 METAR KPAE 280353Z VRB03KT 10SM OVC060 06/01 A3005 RMK AO2 SLP178 T00560006=
201802280253 METAR KPAE 280253Z 00000KT 10SM OVC060 06/01 A3004 RMK AO2 SLP177 T00610006 55000=
201802280153 METAR KPAE 280153Z 34004KT 10SM OVC050 06/01 A3004 RMK AO2 SLP176 T00610006=
201802280053 METAR KPAE 280053Z 30008KT 10SM FEW041 BKN065 OVC080 07/M01 A3004 RMK AO2 SLP176 T00671011=
201802272353 METAR KPAE 272353Z 30007KT 10SM BKN049 OVC060 07/01 A3004 RMK AO2 SLP177 60002 T00670011 10072 20050 55001=
201802272253 METAR KPAE 272253Z 00000KT 10SM SCT029 BKN037 OVC060 07/02 A3004 RMK AO2 RAE21 SLP175 P0002 T00670022=
201802272250 SPECI KPAE 272250Z 00000KT 10SM BKN029 BKN037 OVC049 07/03 A3003 RMK AO2 RAE21 P0002=
201802272222 SPECI KPAE 272222Z 17004KT 10SM SCT015 BKN035 OVC047 06/03 A3004 RMK AO2 RAE21 P0002 T00560028=
201802272153 METAR KPAE 272153Z 27003KT 7SM -RA SCT017 BKN023 OVC029 06/03 A3005 RMK AO2 RAB51 SLP178 P0000 T00610028=
201802272144 SPECI KPAE 272144Z 19005KT 10SM FEW017 OVC030 06/03 A3004 RMK AO2 T00610028=
201802272053 METAR KPAE 272053Z 18011KT 10SM BKN018 OVC025 06/02 A3004 RMK AO2 SLP177 T00610022 58001=
201802271953 METAR KPAE 271953Z 18015G23KT 10SM OVC017 06/02 A3005 RMK AO2 PK WND 18026/1935 SLP179 T00610022=
201802271853 METAR KPAE 271853Z 16018KT 10SM OVC016 06/02 A3005 RMK AO2 PK WND 16028/1814 SLP180 T00560022=
201802271812 SPECI KPAE 271812Z 16018G26KT 10SM BKN015 OVC020 05/02 A3004 RMK AO2 PK WND 15028/1756 T00500022=
201802271753 METAR KPAE 271753Z 16019G27KT 10SM OVC014 05/02 A3004 RMK AO2 PK WND 15027/1747 SLP177 T00500022 10050 20028 58007=
201802271653 METAR KPAE 271653Z 16017KT 10SM OVC012 04/02 A3005 RMK AO2 SLP182 T00390017=
201802271625 SPECI KPAE 271625Z 15013KT 10SM OVC014 04/02 A3006 RMK AO2 T00390017=
201802271553 METAR KPAE 271553Z 15013G18KT 10SM OVC015 03/01 A3007 RMK AO2 SLP186 T00330011=
201802271551 SPECI KPAE 271551Z 14011KT 10SM OVC015 03/01 A3007 RMK AO2=
201802271453 METAR KPAE 271453Z 15011KT 10SM BKN013 OVC060 03/01 A3008 RMK AO2 SLP189 T00330011 56017=
201802271353 METAR KPAE 271353Z AUTO 15014KT 10SM OVC011 03/01 A3009 RMK AO2 SLP193 T00330011=
201802271253 METAR KPAE 271253Z AUTO 14010KT 10SM OVC011 03/01 A3010 RMK AO2 CIG 009V014 SLP196 T00280011=
201802271153 METAR KPAE 271153Z AUTO 15011KT 10SM BKN012 OVC080 03/01 A3013 RMK AO2 SLP206 T00330011 10033 20017 56013=
201802271053 METAR KPAE 271053Z AUTO 15008KT 10SM OVC013 03/01 A3014 RMK AO2 SLP210 T00280011=
201802270953 METAR KPAE 270953Z AUTO 14009KT 10SM OVC013 02/01 A3015 RMK AO2 SLP215 T00220006=
201802270924 SPECI KPAE 270924Z AUTO 14009KT 10SM BKN015 OVC070 02/00 A3016 RMK AO2 T00220000=
201802270853 METAR KPAE 270853Z AUTO 14008KT 10SM BKN075 OVC120 02/M01 A3017 RMK AO2 SLP220 T00221006 58010=
201802270753 METAR KPAE 270753Z AUTO 13013KT 10SM FEW065 02/M01 A3017 RMK AO2 SLP223 T00221011 400670006=
201802270653 METAR KPAE 270653Z AUTO 12008KT 10SM BKN070 02/M01 A3020 RMK AO2 SLP230 T00221011=
201802270553 METAR KPAE 270553Z AUTO 13009KT 10SM OVC070 03/M02 A3020 RMK AO2 SLP230 T00331017 10056 20028 58003=
201802270453 METAR KPAE 270453Z 12008KT 10SM BKN070 04/M02 A3020 RMK AO2 SLP232 T00391022=
201802270353 METAR KPAE 270353Z 14005KT 10SM FEW055 03/M03 A3020 RMK AO2 SLP232 T00331028=
201802270253 METAR KPAE 270253Z 00000KT 10SM OVC060 05/M02 A3021 RMK AO2 SLP234 T00501022 53001=
201802270153 METAR KPAE 270153Z 00000KT 10SM SCT060 04/M04 A3020 RMK AO2 SLP233 T00441039=
201802270053 METAR KPAE 270053Z 00000KT 10SM OVC060 06/M02 A3020 RMK AO2 SLP233 T00561017=
201802262353 METAR KPAE 262353Z AUTO 20003KT 10SM FEW029 BKN055 06/M01 A3020 RMK AO2 SLP232 T00561006 10067 20017 53004=
201802262304 SPECI KPAE 262304Z 21005KT 10SM FEW020 SCT026 SCT038 06/01 A3020 RMK AO2 T00560006=
201802262253 METAR KPAE 262253Z 23006KT 10SM BKN020 BKN026 BKN038 06/01 A3020 RMK AO2 SLP230 T00560006=
201802262234 SPECI KPAE 262234Z VRB03KT 10SM BKN019 BKN027 OVC045 06/01 A3019 RMK AO2 T00610011=
201802262153 METAR KPAE 262153Z VRB04KT 10SM FEW025 FEW033 BKN042 05/01 A3019 RMK AO2 SLP228 T00500006=
201802262053 METAR KPAE 262053Z 19004KT 10SM FEW024 BKN032 BKN040 05/M01 A3019 RMK AO2 SLP228 T00501006 50009=
201802262007 SPECI KPAE 262007Z 13004KT 10SM SCT014 BKN025 04/01 A3020 RMK AO2 T00440006=
201802262000 SPECI KPAE 262000Z 13004KT 10SM FEW014 SCT025 04/01 A3019 RMK AO2 T00440006=
201802261953 METAR KPAE 261953Z VRB03KT 10SM SCT014 BKN029 04/00 A3019 RMK AO2 SLP229 T00390000=
201802261938 SPECI KPAE 261938Z 14003KT 10SM SCT014 BKN029 04/01 A3019 RMK AO2 T00390006=
201802261858 SPECI KPAE 261858Z VRB03KT 10SM BKN011 OVC029 03/00 A3019 RMK AO2 T00280000=
201802261853 METAR KPAE 261853Z 15004KT 10SM SCT009 BKN015 02/00 A3019 RMK AO2 SLP229 T00220000=
201802261843 SPECI KPAE 261843Z 12003KT 10SM SCT009 BKN015 02/M01 A3018 RMK AO2 T00221006=
201802261753 METAR KPAE 261753Z 12004KT 10SM OVC009 02/M01 A3016 RMK AO2 CIG 007V012 SLP220 T00171006 10017 20006 51028=
201802261653 METAR KPAE 261653Z 15006KT 10SM OVC008 01/M01 A3014 RMK AO2 SLP211 T00111006=
201802261631 SPECI KPAE 261631Z 16003KT 10SM OVC009 01/M01 A3013 RMK AO2 T00111006=
201802261553 METAR KPAE 261553Z 13005KT 10SM BKN010 01/M01 A3011 RMK AO2 SLP201 T00111011=
201802261453 METAR KPAE 261453Z 12005KT 10SM BKN010 OVC049 01/M01 A3008 RMK AO2 SLP191 T00111011 51025=
201802261430 SPECI KPAE 261430Z AUTO 09003KT 10SM BKN012 OVC031 01/M01 A3007 RMK AO2 T00111006=
201802261353 METAR KPAE 261353Z AUTO 13004KT 10SM FEW010 BKN044 OVC060 01/M01 A3006 RMK AO2 SLP184 T00061011=
201802261253 METAR KPAE 261253Z AUTO 00000KT 10SM FEW031 BKN047 OVC065 01/M01 A3003 RMK AO2 SLP174 T00061011=
201802261153 METAR KPAE 261153Z AUTO 19004KT 10SM OVC050 01/M01 A3001 RMK AO2 SLP166 60000 70034 T00061011 10011 20006 51020=
201802261053 METAR KPAE 261053Z AUTO 17010KT 10SM OVC050 01/M01 A2998 RMK AO2 SLP158 T00111006=
201802260953 METAR KPAE 260953Z AUTO 17010KT 10SM OVC043 01/M01 A2997 RMK AO2 SLP154 T00111006=
201802260853 METAR KPAE 260853Z AUTO 15009KT 10SM OVC049 01/M01 A2995 RMK AO2 SLP145 60000 T00111006 53018=
201802260753 METAR KPAE 260753Z AUTO 15009KT 10SM FEW040 OVC055 01/00 A2993 RMK AO2 SNB17E38 SLP139 P0000 T00110000 400610006=
201802260653 METAR KPAE 260653Z AUTO 13011KT 10SM SCT043 OVC055 01/00 A2991 RMK AO2 SLP132 T00110000=
201802260553 METAR KPAE 260553Z AUTO 12009KT 10SM FEW025 FEW039 OVC050 01/00 A2989 RMK AO2 SLP126 T00110000 10039 20006 51023=
201802260453 METAR KPAE 260453Z AUTO VRB03KT 10SM FEW090 01/00 A2987 RMK AO2 SLP119 T00060000=
201802260400 SPECI KPAE 260400Z 14005KT 10SM SCT050 OVC075 01/00 A2985 RMK AO2 T00060000=
201802260353 METAR KPAE 260353Z 13003KT 9SM BKN003 BKN060 OVC070 01/01 A2985 RMK AO2 SLP112 T00060006=
201802260332 SPECI KPAE 260332Z VRB04KT 2SM BR BKN003 OVC070 01/01 A2984 RMK AO2 T00060006=
201802260325 SPECI KPAE 260325Z 12005KT 9SM BKN002 BKN070 OVC085 01/01 A2983 RMK AO2 T00060006=
201802260253 METAR KPAE 260253Z 12007KT 10SM FEW033 OVC085 01/00 A2982 RMK AO2 SLP103 T00110000 53016=
201802260153 METAR KPAE 260153Z 09005KT 10SM FEW037 BKN095 02/00 A2980 RMK AO2 SLP094 T00170000=
201802260053 METAR KPAE 260053Z 35003KT 10SM FEW035 BKN095 03/M01 A2978 RMK AO2 SLP090 T00331006=
201802252353 METAR KPAE 252353Z VRB03KT 10SM SCT028 SCT039 BKN120 02/01 A2977 RMK AO2 UPB11E14SNE11 SLP086 P0001 60025 T00220006 10061 20011 55001=
201802252308 SPECI KPAE 252308Z 07005KT 6SM -SN BR SCT024 BKN036 OVC100 01/01 A2977 RMK AO2 P0001 T00110006=
201802252253 METAR KPAE 252253Z 12006KT 2SM -SN BR BKN022 BKN040 OVC080 02/01 A2977 RMK AO2 RAB2157E51SNB10 SLP085 P0019 T00170006=
201802252225 SPECI KPAE 252225Z 06005KT 1 1/2SM RASN BR FEW015 OVC025 02/01 A2976 RMK AO2 RAB2157SNB10 P0008 T00220006=
201802252153 METAR KPAE 252153Z 34005KT 10SM SCT026 BKN034 OVC060 06/01 A2977 RMK AO2 SLP085 T00560006=
201802252053 METAR KPAE 252053Z 18005KT 10SM BKN120 06/M01 A2978 RMK AO2 SLP087 60005 T00561006 58008=
201802251953 METAR KPAE 251953Z VRB03KT 10SM OVC095 04/M02 A2979 RMK AO2 SNB10E27 SLP092 P0001 T00391022=
201802251853 METAR KPAE 251853Z 24006KT 10SM SCT009 OVC032 04/00 A2980 RMK AO2 RAE30UPB30E33SNB33E53 SLP093 P0004 T00390000=
201802251833 SPECI KPAE 251833Z VRB05KT 8SM -SN FEW009 BKN012 OVC032 03/01 A2980 RMK AO2 RAE30UPB30E33SNB33 P0004 T00280011=
201802251809 SPECI KPAE 251809Z 27007G17KT 2SM -RA BR OVC007 02/02 A2980 RMK AO2 P0003 T00220017=
201802251802 SPECI KPAE 251802Z 27010G17KT 3SM -RA BR BKN007 OVC013 03/02 A2981 RMK AO2 P0002 T00280022=
201802251753 METAR KPAE 251753Z 27004KT 1 3/4SM RA BR OVC008 03/02 A2980 RMK AO2 SLP096 P0008 60009 T00330022 10050 20033 53005=
201802251751 SPECI KPAE 251751Z 28004KT 1 1/2SM RA BR BKN008 OVC013 03/02 A2980 RMK AO2 P0008=
201802251653 METAR KPAE 251653Z 33005KT 7SM -RA FEW005 OVC013 03/02 A2978 RMK AO2 RAB42 SLP090 P0001 T00330022=
201802251636 SPECI KPAE 251636Z 36006KT 10SM FEW005 BKN013 OVC018 04/03 A2979 RMK AO2 T00390028=
201802251633 SPECI KPAE 251633Z 36005KT 10SM OVC015 04/03 A2979 RMK AO2 T00390028=
201802251553 METAR KPAE 251553Z 18011KT 10SM OVC012 05/03 A2978 RMK AO2 SLP090 T00500028=
201802251520 SPECI KPAE 251520Z 18010KT 10SM OVC010 05/03 A2979 RMK AO2 T00500033=
201802251453 METAR KPAE 251453Z 17011KT 10SM OVC009 05/03 A2979 RMK AO2 SLP091 T00500033 57016=
201802251417 SPECI KPAE 251417Z AUTO 17012G22KT 10SM BKN011 OVC014 05/03 A2980 RMK AO2 T00500033=
201802251353 METAR KPAE 251353Z AUTO 17016G22KT 10SM OVC008 05/03 A2981 RMK AO2 PK WND 15027/1302 CIG 006V012 SLP097 T00500033=
201802251253 METAR KPAE 251253Z AUTO 16020G29KT 7SM OVC008 04/03 A2981 RMK AO2 PK WND 16034/1157 SLP099 T00440033=
201802251153 METAR KPAE 251153Z AUTO 15021G28KT 10SM OVC009 04/03 A2983 RMK AO2 PK WND 15034/1133 SLP106 70003 T00440028 10044 20039 58042=
201802251123 SPECI KPAE 251123Z AUTO 15022G33KT 10SM OVC009 04/02 A2985 RMK AO2 PK WND 15033/1119 PRESFR T00390022=
201802251053 METAR KPAE 251053Z AUTO 15020G29KT 10SM BKN011 OVC019 04/02 A2989 RMK AO2 PK WND 16033/1027 CIG 008V013 SLP123 T00390022=
201802250953 METAR KPAE 250953Z AUTO 15022G34KT 10SM BKN014 BKN120 04/02 A2992 RMK AO2 PK WND 15038/0937 SLP137 T00390017=
201802250934 SPECI KPAE 250934Z AUTO 15024G33KT 10SM OVC014 04/02 A2991 RMK AO2 PK WND 16033/0934 PRESFR T00440017=
201802250853 METAR KPAE 250853Z AUTO 15019G32KT 10SM BKN016 BKN022 OVC080 04/01 A2996 RMK AO2 PK WND 15032/0847 SLP149 T00440011 56030=
201802250753 METAR KPAE 250753Z AUTO 16018G26KT 10SM BKN020 BKN040 OVC080 04/01 A3000 RMK AO2 PK WND 15027/0730 SLP164 T00440011 400560011=
201802250749 SPECI KPAE 250749Z AUTO 15018G26KT 10SM BKN020 BKN046 OVC085 04/01 A3000 RMK AO2 PK WND 15027/0730=
201802250740 SPECI KPAE 250740Z AUTO 15017G23KT 10SM SCT020 BKN046 OVC085 04/01 A3001 RMK AO2 PK WND 15027/0730 T00440011=
201802250701 SPECI KPAE 250701Z AUTO 15017G21KT 10SM BKN023 OVC090 04/01 A3004 RMK AO2 T00440011=
201802250653 METAR KPAE 250653Z AUTO 15016KT 10SM SCT023 BKN070 OVC090 04/01 A3005 RMK AO2 SLP179 T00440006=
201802250553 METAR KPAE 250553Z AUTO 16010KT 10SM OVC090 04/00 A3008 RMK AO2 SLP189 T00390000 10044 20028 56020=
201802250453 METAR KPAE 250453Z AUTO 13010KT 10SM OVC075 03/M01 A3009 RMK AO2 SLP193 T00281006=
201802250353 METAR KPAE 250353Z VRB05KT 10SM OVC110 03/M02 A3010 RMK AO2 SLP197 T00281017=
201802250253 METAR KPAE 250253Z 12008KT 10SM SCT034 BKN047 OVC070 03/M01 A3013 RMK AO2 SLP209 T00281011 53001=
201802250153 METAR KPAE 250153Z VRB06KT 10SM BKN070 BKN110 03/00 A3012 RMK AO2 SLP206 T00330000=
201802250053 METAR KPAE 250053Z 12006KT 10SM OVC032 04/M01 A3014 RMK AO2 SLP210 T00391006=
201802242353 METAR KPAE 242353Z 13005KT 10SM BKN031 BKN040 OVC060 04/M01 A3013 RMK AO2 SLP208 60000 T00391006 10056 20022 51008=
201802242253 METAR KPAE 242253Z 16007KT 10SM BKN036 BKN043 BKN060 04/M02 A3012 RMK AO2 SLP206 T00441017=
201802242153 METAR KPAE 242153Z 00000KT 10SM SCT042 BKN065 04/M02 A3012 RMK AO2 SLP203 T00441022=
201802242053 METAR KPAE 242053Z 35006KT 10SM BKN047 OVC055 04/M01 A3011 RMK AO2 SLP200 60000 T00441006 51022=
201802241953 METAR KPAE 241953Z 31005KT 10SM SCT034 BKN041 BKN060 04/M01 A3010 RMK AO2 SLP197 T00391006=
201802241853 METAR KPAE 241853Z 30011G16KT 10SM SCT036 BKN048 04/00 A3006 RMK AO2 UPB18E28SNB28E29 SLP186 P0000 T00440000=
201802241832 SPECI KPAE 241832Z 32006KT 10SM FEW013 BKN036 OVC048 03/01 A3006 RMK AO2 UPB18E28SNB28E29 P0000 T00330011=
201802241753 METAR KPAE 241753Z 29009G15KT 10SM SCT013 BKN020 BKN028 03/00 A3004 RMK AO2 SLP178 60003 T00280000 10033 20011 51026=
201802241749 SPECI KPAE 241749Z 31006KT 10SM SCT013 BKN020 BKN028 02/00 A3004 RMK AO2=
201802241729 SPECI KPAE 241729Z 29007KT 280V340 10SM BKN014 BKN022 OVC029 02/00 A3003 RMK AO2 T00220000=
201802241705 SPECI KPAE 241705Z 27008KT 10SM SCT017 BKN022 OVC055 03/01 A3001 RMK AO2 T00280006=
201802241653 METAR KPAE 241653Z 29008KT 10SM SCT017 SCT026 OVC050 03/01 A3000 RMK AO2 SLP165 T00280006=
201802241553 METAR KPAE 241553Z 26005KT 10SM BKN015 BKN026 OVC034 02/01 A2996 RMK AO2 UPB15E21SNB02E15 SLP152 P0000 T00220006=
201802241511 SPECI KPAE 241511Z 26008KT 5SM -SN BR BKN019 BKN024 OVC034 02/00 A2993 RMK AO2 SNB02 P0000 T00220000=
201802241453 METAR KPAE 241453Z 25007G15KT 10SM FEW008 BKN035 OVC055 03/M01 A2992 RMK AO2 SLP136 60003 T00281006 53009=
201802241353 METAR KPAE 241353Z AUTO 23006KT 10SM FEW020 BKN046 OVC055 02/00 A2989 RMK AO2 SLP128 T00220000=
201802241253 METAR KPAE 241253Z AUTO 00000KT 10SM BKN024 BKN048 OVC090 02/01 A2989 RMK AO2 UPE00B26E30SNB00E26 SLP126 P0003 T00170006=
201802241230 SPECI KPAE 241230Z AUTO VRB06KT 9SM FEW006 OVC046 01/01 A2988 RMK AO2 UPE00B26E30SNB00E26 P0003 T00110006=
201802241222 SPECI KPAE 241222Z AUTO 17008KT 4SM -SN BR SCT004 BKN015 OVC048 01/01 A2988 RMK AO2 UPE00SNB00 P0003 T00110006=
201802241217 SPECI KPAE 241217Z AUTO 17007KT 2 1/2SM -SN BR BKN006 BKN015 OVC042 01/01 A2988 RMK AO2 UPE00SNB00 P0003 T00110006=
201802241153 METAR KPAE 241153Z AUTO 22011KT 6SM UP BR OVC006 02/01 A2989 RMK AO2 RAB46E49UPB49 SLP125 P0000 60000 T00170011 10022 20006 56027=
201802241053 METAR KPAE 241053Z AUTO 17011G22KT 10SM OVC006 02/01 A2990 RMK AO2 SLP129 T00220011=
201802240953 METAR KPAE 240953Z AUTO 15014KT 10SM OVC007 02/01 A2993 RMK AO2 SLP141 T00220011=
201802240853 METAR KPAE 240853Z AUTO 15017G23KT 10SM OVC007 02/01 A2997 RMK AO2 SLP154 T00220006 58041=
201802240753 METAR KPAE 240753Z AUTO 15014KT 10SM OVC006 02/01 A3003 RMK AO2 SLP173 T00170006 400281039=
201802240653 METAR KPAE 240653Z AUTO 12007KT 7SM OVC005 01/01 A3006 RMK AO2 SLP185 T00110006=
201802240628 SPECI KPAE 240628Z AUTO 12009KT 5SM BR OVC005 01/00 A3007 RMK AO2 T00110000=
201802240618 SPECI KPAE 240618Z AUTO 12009KT 4SM BR OVC004 01/00 A3007 RMK AO2 T00110000=
201802240553 METAR KPAE 240553Z AUTO 12009KT 4SM BR OVC005 01/00 A3009 RMK AO2 SLP197 T00060000 10022 20006 58028=
201802240453 METAR KPAE 240453Z AUTO 15017KT 10SM OVC008 01/M01 A3013 RMK AO2 SLP208 T00111006=
201802240427 SPECI KPAE 240427Z 16014G24KT 10SM OVC009 01/M01 A3014 RMK AO2 T00111011=
201802240353 METAR KPAE 240353Z 17016G21KT 10SM OVC010 01/M01 A3015 RMK AO2 SLP218 T00111011=
201802240253 METAR KPAE 240253Z 15011KT 8SM OVC011 01/M02 A3018 RMK AO2 CIG 009V013 SLP225 T00061017 56011=
201802240216 SPECI KPAE 240216Z 14012KT 10SM OVC014 01/M02 A3018 RMK AO2 T00061022=
201802240153 METAR KPAE 240153Z 14010KT 10SM BKN016 OVC022 01/M02 A3018 RMK AO2 PK WND 13027/0106 SLP227 T00061022=
201802240053 METAR KPAE 240053Z 14015G25KT 10SM OVC020 01/M03 A3019 RMK AO2 PK WND 15029/2359 SLP230 T00111033=
201802240038 SPECI KPAE 240038Z 13018G25KT 10SM BKN023 BKN034 OVC090 01/M03 A3020 RMK AO2 PK WND 15029/2359 T00111033=
201802232353 METAR KPAE 232353Z 14015G28KT 10SM BKN034 OVC090 02/M06 A3021 RMK AO2 PK WND 14028/2347 SLP237 60000 T00221056 10028 21017 56041=
201802232253 METAR KPAE 232253Z 13019G25KT 10SM BKN042 OVC080 02/M08 A3024 RMK AO2 PK WND 12028/2209 SLP249 T00171083=
201802232153 METAR KPAE 232153Z 13019G25KT 10SM BKN065 OVC080 01/M09 A3028 RMK AO2 SLP262 T00111089=
201802232053 METAR KPAE 232053Z 13012G20KT 10SM OVC075 01/M08 A3033 RMK AO2 SNE1957 SLP278 P0000 60000 T00061078 58019=
201802231953 METAR KPAE 231953Z 12007G17KT 070V150 6SM -SN BKN011 BKN047 OVC070 M01/M07 A3038 RMK AO2 SNB38 SLP294 P0000 T10061067=
201802231943 SPECI KPAE 231943Z 12012G15KT 3SM SN BKN011 BKN047 OVC070 M01/M07 A3039 RMK AO2 SNB38 P0000 T10061072=
201802231853 METAR KPAE 231853Z 12010KT 10SM BKN070 OVC080 M01/M08 A3038 RMK AO2 SLP296 T10111078=
201802231753 METAR KPAE 231753Z 12010G15KT 10SM FEW060 OVC080 M02/M08 A3039 RMK AO2 SLP298 T10171078 11017 21039 56009=
201802231653 METAR KPAE 231653Z 12010KT 10SM OVC080 M03/M08 A3039 RMK AO2 SLP299 T10281078=
201802231553 METAR KPAE 231553Z VRB06KT 10SM FEW110 M04/M08 A3041 RMK AO2 SLP304 T10391078=
201802231453 METAR KPAE 231453Z VRB04KT 10SM BKN110 M04/M08 A3042 RMK AO2 SLP307 T10391078 58005=
201802231353 METAR KPAE 231353Z AUTO VRB04KT 10SM CLR M04/M08 A3043 RMK AO2 SLP310 T10391078=
201802231253 METAR KPAE 231253Z AUTO VRB05KT 10SM CLR M03/M08 A3043 RMK AO2 SLP311 T10331078=
201802231153 METAR KPAE 231153Z AUTO 12004KT 10SM CLR M03/M08 A3043 RMK AO2 SLP312 T10331078 11006 21039 50001=
201802231053 METAR KPAE 231053Z AUTO 00000KT 10SM CLR M03/M08 A3043 RMK AO2 SLP313 T10331078=
201802230953 METAR KPAE 230953Z AUTO 09005KT 10SM CLR M03/M08 A3043 RMK AO2 SLP311 T10331083=
201802230853 METAR KPAE 230853Z AUTO 09003KT 10SM CLR M03/M09 A3043 RMK AO2 SLP311 T10281089 51007=
201802230753 METAR KPAE 230753Z AUTO 00000KT 10SM CLR M02/M09 A3042 RMK AO2 SLP308 T10221089 400221039=
201802230653 METAR KPAE 230653Z AUTO 36003KT 10SM CLR M02/M10 A3041 RMK AO2 SLP306 T10171100=
201802230553 METAR KPAE 230553Z AUTO 35004KT 10SM CLR M01/M07 A3040 RMK AO2 SLP303 T10111072 10022 21011 51012=
201802230453 METAR KPAE 230453Z AUTO 30003KT 10SM CLR M01/M07 A3039 RMK AO2 SLP300 T10111067=
201802230353 METAR KPAE 230353Z 32003KT 10SM CLR 00/M08 A3038 RMK AO2 SLP295 T00001078=
201802230253 METAR KPAE 230253Z 29007KT 10SM CLR 00/M09 A3037 RMK AO2 SLP291 T00001094 53010=
201802230153 METAR KPAE 230153Z 27003KT 10SM CLR 01/M11 A3035 RMK AO2 SLP286 T00061106=
201802230053 METAR KPAE 230053Z 29006KT 10SM CLR 02/M11 A3034 RMK AO2 SLP282 T00171106=
201802222353 METAR KPAE 222353Z 30008KT 10SM CLR 02/M10 A3034 RMK AO2 SLP279 T00221100 10022 21017 53005=
201802222253 METAR KPAE 222253Z 29007KT 10SM CLR 02/M10 A3033 RMK AO2 SLP278 T00171100=
201802222153 METAR KPAE 222153Z 29012G16KT 10SM CLR 02/M09 A3032 RMK AO2 SLP276 T00171094=
201802222053 METAR KPAE 222053Z 30008KT 10SM CLR 01/M08 A3032 RMK AO2 SLP275 T00061083 50006=
201802221953 METAR KPAE 221953Z VRB04KT 10SM CLR 00/M06 A3033 RMK AO2 SLP276 T00001061=
201802221853 METAR KPAE 221853Z 35006KT 10SM CLR M01/M06 A3032 RMK AO2 SLP275 T10061061=
201802221753 METAR KPAE 221753Z 32005KT 10SM CLR M02/M07 A3030 RMK AO2 SLP269 T10171067 11017 21039 53022=
201802221653 METAR KPAE 221653Z 36004KT 10SM CLR M03/M06 A3028 RMK AO2 SLP262 T10331061=
201802221553 METAR KPAE 221553Z 30004KT 10SM FEW014 M04/M06 A3026 RMK AO2 SLP254 T10391056=
201802221453 METAR KPAE 221453Z 29004KT 10SM SCT014 M04/M06 A3024 RMK AO2 SLP247 T10391056 53015=
201802221353 METAR KPAE 221353Z AUTO 32008KT 10SM CLR M04/M06 A3021 RMK AO2 SLP239 T10391056=
201802221319 SPECI KPAE 221319Z AUTO 32008KT 10SM SCT009 M03/M05 A3021 RMK AO2 T10331050=
201802221253 METAR KPAE 221253Z AUTO 32006KT 10SM BKN007 BKN011 OVC100 M03/M04 A3020 RMK AO2 CIG 005V009 SLP236 T10331044=
201802221220 SPECI KPAE 221220Z AUTO 32005KT 10SM BKN006 M03/M04 A3020 RMK AO2 CIG 005V011 T10281039=
201802221215 SPECI KPAE 221215Z AUTO 31004KT 10SM SCT006 SCT013 M03/M04 A3020 RMK AO2 T10281039=
201802221153 METAR KPAE 221153Z AUTO 30007KT 10SM CLR M03/M04 A3019 RMK AO2 SLP231 60000 70002 T10281044 11017 21033 51004=
201802221053 METAR KPAE 221053Z AUTO 30007KT 10SM SCT009 M03/M04 A3019 RMK AO2 SLP230 T10281044=
201802221011 SPECI KPAE 221011Z AUTO 29004KT 10SM FEW009 M03/M04 A3019 RMK AO2 T10331044=
201802220953 METAR KPAE 220953Z AUTO 34003KT 10SM CLR M03/M04 A3019 RMK AO2 SLP230 T10331044=
201802220853 METAR KPAE 220853Z AUTO 34006KT 10SM CLR M03/M04 A3018 RMK AO2 SLP227 60000 T10281039 53004=
201802220753 METAR KPAE 220753Z AUTO 02003KT 10SM SCT034 OVC046 M02/M03 A3017 RMK AO2 SLP224 T10171028 400111039=
201802220712 SPECI KPAE 220712Z AUTO 02004KT 8SM SCT029 OVC043 M02/M03 A3017 RMK AO2 T10171028=
201802220653 METAR KPAE 220653Z AUTO 06003KT 9SM OVC028 M02/M03 A3017 RMK AO2 SNE10 SLP224 P0000 T10171028=
201802220605 SPECI KPAE 220605Z AUTO 07006KT 3SM -SN BR FEW005 OVC027 M02/M03 A3017 RMK AO2 P0000 T10171028=
201802220553 METAR KPAE 220553Z AUTO 08007KT 2 1/2SM -SN BR OVC027 M02/M03 A3017 RMK AO2 SLP222 P0000 60002 T10171028 10000 21017 56007=
201802220542 SPECI KPAE 220542Z AUTO 08006KT 3SM -SN BR FEW007 OVC027 M02/M03 A3017 RMK AO2 P0000 T10171028=
201802220526 SPECI KPAE 220526Z AUTO 07007KT 2 1/2SM -SN BR FEW005 OVC026 M02/M03 A3016 RMK AO2 P0000 T10171028=
201802220453 METAR KPAE 220453Z 07004KT 1 1/4SM -SN BR SCT005 OVC021 M02/M03 A3017 RMK AO2 SLP223 P0001 T10171028=
201802220439 SPECI KPAE 220439Z 07005KT 1 1/4SM -SN BR FEW005 SCT009 OVC021 M02/M03 A3017 RMK AO2 P0001 T10171028=
201802220426 SPECI KPAE 220426Z 08006KT 1 1/4SM -SN BR BKN007 OVC021 M02/M03 A3017 RMK AO2 P0001 T10171028=
201802220400 SPECI KPAE 220400Z 08005KT 1 1/4SM -SN BR SCT007 OVC018 M02/M03 A3017 RMK AO2 P0000 T10171028=
201802220353 METAR KPAE 220353Z 08007KT 2SM -SN BR SCT005 OVC016 M02/M03 A3017 RMK AO2 SLP225 P0001 T10171028=
201802220339 SPECI KPAE 220339Z 08006KT 2SM -SN BR FEW005 OVC017 M02/M03 A3017 RMK AO2 P0001 T10171028=
201802220253 METAR KPAE 220253Z 08007KT 2SM -SN BR OVC029 M02/M03 A3019 RMK AO2 SLP231 P0000 60000 T10171028 58008=
201802220153 METAR KPAE 220153Z 08005KT 1 3/4SM -SN BR BKN009 OVC022 M01/M03 A3020 RMK AO2 SLP234 P0000 T10111033=
201802220124 SPECI KPAE 220124Z VRB03KT 1 1/2SM -SN BR BKN009 OVC022 M01/M03 A3020 RMK AO2 P0000 T10111033=
201802220115 SPECI KPAE 220115Z VRB04KT 2SM -SN BR BKN009 OVC022 M01/M03 A3020 RMK AO2 P0000 T10111033=
201802220053 METAR KPAE 220053Z 13005KT 1 1/4SM -SN BKN009 OVC055 M01/M04 A3021 RMK AO2 SLP239 P0000 T10111039=
201802220048 SPECI KPAE 220048Z 14003KT 1 1/4SM -SN BKN009 OVC055 M01/M04 A3021 RMK AO2 P0000=
201802220027 SPECI KPAE 220027Z VRB03KT 2 1/2SM -SN BKN009 OVC055 M01/M06 A3022 RMK AO2 P0000 T10061056=
201802212353 METAR KPAE 212353Z 17005KT 9SM -SN BKN015 OVC045 00/M06 A3023 RMK AO2 SLP244 P0000 60000 T00001056 10011 21022 56010=
201802212350 SPECI KPAE 212350Z 17005KT 9SM -SN BKN015 OVC045 00/M06 A3023 RMK AO2 P0000=
201802212253 METAR KPAE 212253Z 08005KT 10SM -SN BKN042 OVC050 00/M08 A3025 RMK AO2 SNB52 SLP250 P0000 T00001083=
201802212153 METAR KPAE 212153Z 00000KT 10SM OVC070 01/M08 A3026 RMK AO2 SLP254 T00061078=
201802212053 METAR KPAE 212053Z 00000KT 10SM OVC085 00/M07 A3027 RMK AO2 SLP259 T00001072 58008=
201802211953 METAR KPAE 211953Z 14005KT 10SM OVC100 00/M09 A3030 RMK AO2 SLP266 T00001089=
201802211853 METAR KPAE 211853Z 13006KT 10SM CLR M01/M09 A3029 RMK AO2 SLP266 T10061094=
201802211753 METAR KPAE 211753Z 12008KT 10SM SCT110 M02/M09 A3030 RMK AO2 SLP267 T10171089 11017 21039 58004=
201802211653 METAR KPAE 211653Z VRB05KT 10SM FEW120 M03/M10 A3031 RMK AO2 SLP271 T10281100=
201802211553 METAR KPAE 211553Z 09006KT 10SM CLR M04/M09 A3031 RMK AO2 SLP271 T10391089=
201802211453 METAR KPAE 211453Z VRB03KT 10SM CLR M03/M11 A3031 RMK AO2 SLP271 T10331106 53003=
201802211353 METAR KPAE 211353Z AUTO 08005KT 10SM CLR M04/M11 A3030 RMK AO2 SLP268 T10391111=
201802211253 METAR KPAE 211253Z AUTO 08006KT 10SM CLR M03/M11 A3031 RMK AO2 SLP271 T10331111=
201802211153 METAR KPAE 211153Z AUTO 08005KT 10SM CLR M03/M10 A3030 RMK AO2 SLP269 T10331100 11011 21033 58003=
201802211053 METAR KPAE 211053Z AUTO 08006KT 10SM CLR M03/M09 A3030 RMK AO2 SLP269 T10331094=
201802210953 METAR KPAE 210953Z AUTO 07004KT 10SM CLR M03/M08 A3032 RMK AO2 SLP273 T10281083=
201802210853 METAR KPAE 210853Z AUTO 00000KT 10SM CLR M02/M09 A3031 RMK AO2 SLP271 T10221094 51018=
201802210753 METAR KPAE 210753Z AUTO 09006KT 10SM CLR M02/M08 A3029 RMK AO2 SLP263 T10171083 400221033=
201802210653 METAR KPAE 210653Z AUTO 07003KT 10SM CLR M02/M06 A3028 RMK AO2 SLP261 T10221061=
201802210553 METAR KPAE 210553Z AUTO 02003KT 10SM CLR M01/M07 A3026 RMK AO2 SLP253 T10111067 10011 21011 53012=
201802210453 METAR KPAE 210453Z AUTO 35004KT 10SM CLR M01/M07 A3024 RMK AO2 SLP248 T10061067=
201802210353 METAR KPAE 210353Z 32004KT 10SM CLR 00/M07 A3023 RMK AO2 SLP244 T00001067=
201802210253 METAR KPAE 210253Z 32007KT 10SM CLR 00/M07 A3022 RMK AO2 SLP241 T00001072 53012=
201802210153 METAR KPAE 210153Z 33005KT 10SM CLR 00/M06 A3020 RMK AO2 SLP235 T00001056=
201802210053 METAR KPAE 210053Z 31005KT 10SM FEW032 SCT110 01/M06 A3019 RMK AO2 SLP232 T00111056=
201802202353 METAR KPAE 202353Z 34005KT 10SM FEW050 SCT070 OVC085 01/M06 A3018 RMK AO2 SLP228 T00111061 10022 20000 53004=
201802202253 METAR KPAE 202253Z 30004KT 10SM OVC070 01/M06 A3017 RMK AO2 SLP224 T00111056=
201802202153 METAR KPAE 202153Z 29003KT 10SM FEW024 BKN041 OVC050 01/M04 A3017 RMK AO2 SLP224 T00061044=
201802202100 SPECI KPAE 202100Z 28004KT 10SM SCT027 BKN046 OVC055 01/M04 A3017 RMK AO2 T00111044=
201802202053 METAR KPAE 202053Z 24004KT 10SM BKN027 BKN055 OVC080 01/M05 A3017 RMK AO2 SLP224 T00061050 50000=
201802202035 SPECI KPAE 202035Z 33003KT 10SM BKN027 BKN037 OVC060 01/M06 A3018 RMK AO2 T00061056=
201802201953 METAR KPAE 201953Z VRB03KT 10SM BKN037 OVC050 01/M06 A3018 RMK AO2 SLP226 T00111056=
201802201853 METAR KPAE 201853Z 00000KT 10SM BKN055 OVC070 01/M07 A3017 RMK AO2 SLP224 T00111072=
201802201753 METAR KPAE 201753Z 00000KT 10SM OVC080 00/M08 A3017 RMK AO2 SLP224 T00001078 10000 21028 53004=
201802201653 METAR KPAE 201653Z 08006KT 10SM OVC080 M01/M08 A3016 RMK AO2 SLP221 T10111083=
201802201553 METAR KPAE 201553Z 08007KT 10SM OVC110 M02/M08 A3016 RMK AO2 SLP219 T10221078=
201802201453 METAR KPAE 201453Z 08006KT 10SM BKN038 OVC120 M02/M08 A3016 RMK AO2 SLP220 T10221078 56007=
201802201353 METAR KPAE 201353Z AUTO 08007KT 10SM BKN038 OVC120 M02/M08 A3016 RMK AO2 SLP221 T10221078=
201802201253 METAR KPAE 201253Z AUTO 08006KT 10SM CLR M03/M07 A3018 RMK AO2 SLP226 T10281072=
201802201153 METAR KPAE 201153Z AUTO 08007KT 10SM FEW110 M03/M07 A3018 RMK AO2 SLP227 T10281072 11011 21033 56004=
201802201053 METAR KPAE 201053Z AUTO 08007KT 10SM FEW120 M03/M08 A3019 RMK AO2 SLP229 T10281078=
201802200953 METAR KPAE 200953Z AUTO 09004KT 10SM SCT110 M02/M08 A3019 RMK AO2 SLP229 T10221078=
201802200853 METAR KPAE 200853Z AUTO VRB04KT 10SM SCT110 M02/M08 A3019 RMK AO2 SLP232 T10221083 56003=
201802200753 METAR KPAE 200753Z AUTO 12007KT 10SM SCT120 M02/M10 A3020 RMK AO2 SLP233 T10221100 400111033=
201802200653 METAR KPAE 200653Z AUTO 12004KT 10SM FEW065 M01/M12 A3020 RMK AO2 SLP233 T10111117=
201802200553 METAR KPAE 200553Z AUTO 00000KT 10SM CLR M01/M12 A3020 RMK AO2 SLP234 T10111117 10011 21017 50004=
201802200453 METAR KPAE 200453Z AUTO 00000KT 10SM CLR M01/M12 A3020 RMK AO2 SLP235 T10061122=
201802200353 METAR KPAE 200353Z 02003KT 10SM CLR M01/M11 A3019 RMK AO2 SLP231 T10061111=
201802200253 METAR KPAE 200253Z 00000KT 10SM CLR M01/M11 A3019 RMK AO2 SLP230 T10111111 55002=
201802200153 METAR KPAE 200153Z 29003KT 10SM CLR M01/M12 A3019 RMK AO2 SLP229 T10111122=
201802200053 METAR KPAE 200053Z 30005KT 10SM CLR 01/M12 A3019 RMK AO2 SLP229 T00061117=
201802192353 METAR KPAE 192353Z 34007KT 10SM CLR 01/M12 A3019 RMK AO2 SLP231 T00111122 10011 21017 55004=
201802192253 METAR KPAE 192253Z 32008KT 10SM CLR 01/M12 A3019 RMK AO2 SLP232 T00061122=
201802192153 METAR KPAE 192153Z 32008KT 10SM CLR 00/M13 A3020 RMK AO2 SLP235 T00001128=
201802192053 METAR KPAE 192053Z 28009KT 10SM CLR 01/M12 A3021 RMK AO2 SLP236 T00061122 50003=
201802191953 METAR KPAE 191953Z 32008KT 10SM CLR 00/M11 A3022 RMK AO2 SLP239 T00001106=
201802191853 METAR KPAE 191853Z 33007G15KT 10SM CLR M01/M11 A3021 RMK AO2 SLP236 T10061111=
201802191753 METAR KPAE 191753Z 31009KT 10SM CLR M01/M12 A3020 RMK AO2 SLP232 T10111117 11011 21033 51017=
201802191653 METAR KPAE 191653Z 34010G16KT 10SM CLR M02/M12 A3018 RMK AO2 SLP226 T10221117=
201802191553 METAR KPAE 191553Z 32005KT 10SM CLR M03/M12 A3017 RMK AO2 SLP223 T10281117=
201802191453 METAR KPAE 191453Z 32006KT 10SM CLR M03/M11 A3014 RMK AO2 SLP215 T10281111 51025=
201802191353 METAR KPAE 191353Z AUTO 31006KT 10SM CLR M03/M11 A3012 RMK AO2 SLP207 T10281111=
201802191253 METAR KPAE 191253Z AUTO 33009KT 10SM BKN060 OVC075 M02/M09 A3010 RMK AO2 SLP198 T10221094=
201802191153 METAR KPAE 191153Z AUTO 32011KT 10SM BKN060 OVC070 M02/M11 A3007 RMK AO2 SLP188 70002 T10171111 11011 21017 53022=
201802191053 METAR KPAE 191053Z AUTO 32009KT 10SM FEW050 BKN065 OVC075 M02/M09 A3005 RMK AO2 SLP181 T10171094=
201802190953 METAR KPAE 190953Z AUTO 32007KT 10SM FEW047 OVC060 M02/M09 A3002 RMK AO2 SLP172 T10171094=
201802190853 METAR KPAE 190853Z AUTO 31008KT 280V340 10SM FEW045 OVC055 M02/M08 A3000 RMK AO2 SLP166 T10171078 51025=
201802190753 METAR KPAE 190753Z AUTO 31008G15KT 10SM OVC043 M02/M08 A2999 RMK AO2 SLP161 T10171078 400281017=
201802190653 METAR KPAE 190653Z AUTO 33014G20KT 10SM OVC050 M02/M08 A2995 RMK AO2 SLP149 T10171083=
201802190553 METAR KPAE 190553Z AUTO 29013G20KT 10SM OVC055 M02/M08 A2993 RMK AO2 SLP141 T10171078 10017 21017 53020=
201802190453 METAR KPAE 190453Z AUTO 28010G18KT 10SM BKN060 M02/M07 A2991 RMK AO2 SLP135 T10171072=
201802190353 METAR KPAE 190353Z 29013KT 10SM FEW090 M02/M06 A2988 RMK AO2 SLP126 T10171061=
201802190253 METAR KPAE 190253Z 28009KT 10SM CLR M01/M06 A2987 RMK AO2 SLP121 T10111056 53026=
201802190153 METAR KPAE 190153Z 29011G17KT 10SM CLR M01/M06 A2984 RMK AO2 SLP110 T10061056=
201802190053 METAR KPAE 190053Z 30011G18KT 10SM CLR 01/M05 A2981 RMK AO2 SLP101 T00061050=
201802182353 METAR KPAE 182353Z 29013G20KT 10SM CLR 01/M05 A2979 RMK AO2 PK WND 30026/2314 SLP093 60000 T00111050 10028 20006 53020=
201802182253 METAR KPAE 182253Z 30011G19KT 10SM CLR 02/M03 A2976 RMK AO2 SLP082 T00171033=
201802182153 METAR KPAE 182153Z 29015G23KT 10SM SCT023 02/M02 A2975 RMK AO2 SLP079 T00221017=
201802182053 METAR KPAE 182053Z 31012G20KT 10SM SCT006 BKN011 BKN016 02/M01 A2973 RMK AO2 SNE01 SLP074 P0000 60000 T00221011 51015=
201802182044 SPECI KPAE 182044Z 31007KT 10SM SCT006 BKN011 BKN016 02/00 A2973 RMK AO2 SNE01 P0000 T00220000=
201802181955 SPECI KPAE 181955Z 31009KT 3SM -SN BR OVC002 01/01 A2972 RMK AO2 P0000 T00060006=
201802181953 METAR KPAE 181953Z 32007KT 1/2SM R16R/P6000FT -SN FG OVC002 01/01 A2972 RMK AO2 UPB16E18SNB18 SLP070 P0000 T00060006=
201802181926 SPECI KPAE 181926Z 30008KT 1/2SM R16R/1800V6000FT -SN FG BKN002 BKN009 OVC013 01/01 A2972 RMK AO2 UPB16E18SNB18 P0000 T00110006=
201802181917 SPECI KPAE 181917Z 31008KT 1 1/2SM R16R/6000VP6000FT UP BR BKN002 BKN009 OVC013 01/00 A2972 RMK AO2 UPB16 P0000 T00110000=
201802181853 METAR KPAE 181853Z 30006KT 10SM OVC007 01/00 A2970 RMK AO2 CIG 006V012 SLP064 T00110000=
201802181818 SPECI KPAE 181818Z 34005KT 10SM BKN005 OVC045 02/01 A2969 RMK AO2 CIG 004V008 T00170006=
201802181801 SPECI KPAE 181801Z 34003KT 10SM SCT004 OVC046 02/01 A2969 RMK AO2 T00170006=
201802181753 METAR KPAE 181753Z VRB03KT 10SM BKN004 OVC048 01/00 A2969 RMK AO2 SNE08 SLP057 P0000 60002 T00110000 10017 20000 51013=
201802181733 SPECI KPAE 181733Z 34004KT 10SM SCT003 OVC047 01/01 A2968 RMK AO2 SNE08 P0000 T00110006=
201802181701 SPECI KPAE 181701Z 35006KT 2SM -SN BR BKN003 OVC055 01/01 A2967 RMK AO2 P0000 T00110006=
201802181653 METAR KPAE 181653Z 35007KT 2SM -SN BR SCT003 BKN009 OVC040 01/00 A2967 RMK AO2 SNE00B43 SLP051 P0000 T00060000=
201802181607 SPECI KPAE 181607Z 00000KT 1 1/2SM BR FEW014 BKN021 OVC042 01/M01 A2965 RMK AO2 SNE00 P0000 T00061006=
201802181553 METAR KPAE 181553Z 00000KT 1 1/2SM -SN BR FEW006 OVC014 01/01 A2965 RMK AO2 SNB26 SLP044 P0002 T00060006=
201802181549 SPECI KPAE 181549Z 00000KT 1 1/2SM R16R/5000VP6000FT -SN BR SCT006 OVC012 01/00 A2965 RMK AO2 SNB26 P0002=
201802181527 SPECI KPAE 181527Z 07003KT 1/2SM R16R/P6000FT -SN FEW002 BKN007 OVC015 00/00 A2964 RMK AO2 SNB26 CIG 005V011 P0000 T00000000=
201802181502 SPECI KPAE 181502Z 02004KT 1 1/2SM BR BKN002 OVC017 00/M01 A2963 RMK AO2 T00001006=
201802181453 METAR KPAE 181453Z VRB04KT 10SM BKN003 OVC014 00/M01 A2963 RMK AO2 UPB02E08SNB08E25 SLP039 VIS N-E 1 1/2 P0000 60000 T00001006 51007=
201802181440 SPECI KPAE 181440Z AUTO 34005KT 10SM FEW003 OVC014 00/M01 A2963 RMK AO2 UPB02E08SNB08E25 P0000 T00001006=
201802181434 SPECI KPAE 181434Z AUTO 01006KT 8SM OVC015 01/M01 A2963 RMK AO2 UPB02E08SNB08E25 P0000 T00061006=
201802181403 SPECI KPAE 181403Z AUTO 03007KT 10SM UP FEW008 BKN014 OVC023 01/M01 A2963 RMK AO2 UPB02 P0000 T00061006=
201802181353 METAR KPAE 181353Z AUTO 03005KT 10SM BKN014 OVC022 01/M01 A2962 RMK AO2 SLP036 T00061006=
201802181351 SPECI KPAE 181351Z AUTO 03005KT 10SM BKN014 BKN022 01/00 A2963 RMK AO2=
201802181253 METAR KPAE 181253Z AUTO 02005KT 10SM FEW001 BKN017 OVC022 01/00 A2961 RMK AO2 SLP032 T00060000=
201802181234 SPECI KPAE 181234Z AUTO 01007KT 6SM BR FEW001 BKN016 OVC022 01/00 A2961 RMK AO2 T00060000=
201802181153 METAR KPAE 181153Z AUTO 02005KT 10SM FEW005 OVC012 01/00 A2961 RMK AO2 SLP030 60019 70036 T00060000 10017 20006 53002=
201802181120 SPECI KPAE 181120Z AUTO 01010KT 10SM BKN014 OVC020 01/00 A2961 RMK AO2 T00110000=
201802181053 METAR KPAE 181053Z AUTO 00000KT 10SM OVC020 01/01 A2960 RMK AO2 SLP028 T00110006=
201802180953 METAR KPAE 180953Z AUTO 09006KT 10SM BKN020 OVC024 01/01 A2960 RMK AO2 RAE0854UPB0854E04 SLP028 P0000 T00110006=
201802180853 METAR KPAE 180853Z AUTO 07009KT 10SM -RA SCT003 BKN018 OVC023 01/01 A2960 RMK AO2 RAB44SNE16 SLP028 P0001 60019 T00060006 50002=
201802180815 SPECI KPAE 180815Z AUTO 12009KT 6SM -SN BR BKN003 OVC021 01/00 A2961 RMK AO2 P0001 T00060000=
201802180803 SPECI KPAE 180803Z AUTO 09007G16KT 3SM -SN BR FEW003 BKN007 OVC022 01/00 A2961 RMK AO2 P0001 T00060000=
201802180757 SPECI KPAE 180757Z AUTO 05009G16KT 2SM -SN BR SCT007 OVC022 01/00 A2961 RMK AO2 P0000 T00060000=
201802180753 METAR KPAE 180753Z AUTO 06009KT 1 3/4SM -SN BR BKN007 OVC021 01/00 A2961 RMK AO2 SLP030 P0011 T00060000 401000006=
201802180723 SPECI KPAE 180723Z AUTO 09006KT 3/4SM R16R/5000VP6000FT -SN BR FEW003 OVC009 01/00 A2960 RMK AO2 P0004 T00060000=
201802180709 SPECI KPAE 180709Z AUTO 08007KT 1 3/4SM -SN BR FEW004 OVC013 01/00 A2960 RMK AO2 P0002 T00110000=
201802180653 METAR KPAE 180653Z AUTO 08006KT 2SM -SN BR OVC013 02/01 A2959 RMK AO2 RAE29SNB29 SLP024 P0007 T00170006=
201802180644 SPECI KPAE 180644Z AUTO 09005KT 2 1/2SM -SN BR OVC013 02/01 A2959 RMK AO2 RAE29SNB29 P0005 T00170006=
201802180553 METAR KPAE 180553Z AUTO VRB04KT 10SM -RA FEW020 OVC027 04/00 A2958 RMK AO2 RAB35 SLP019 P0001 60001 T00390000 10067 20033 53008=
201802180543 SPECI KPAE 180543Z AUTO VRB05KT 10SM -RA FEW006 SCT012 OVC027 04/01 A2958 RMK AO2 RAB35 P0001 T00390011=
201802180534 SPECI KPAE 180534Z AUTO VRB04KT 10SM FEW006 BKN012 OVC027 03/02 A2958 RMK AO2 T00330022=
201802180526 SPECI KPAE 180526Z AUTO 35004KT 10SM BKN006 OVC012 03/02 A2957 RMK AO2 T00330022=
201802180500 SPECI KPAE 180500Z AUTO 33008KT 10SM SCT006 OVC014 04/02 A2957 RMK AO2 T00390022=
201802180453 METAR KPAE 180453Z AUTO 33007KT 10SM OVC014 05/03 A2956 RMK AO2 SLP013 T00500028=
201802180353 METAR KPAE 180353Z 16014KT 10SM BKN016 OVC023 06/03 A2953 RMK AO2 SLP002 T00560033=
201802180253 METAR KPAE 180253Z 16011KT 10SM BKN020 OVC027 06/03 A2955 RMK AO2 SLP010 T00560028 58008=
201802180238 SPECI KPAE 180238Z 16013KT 10SM BKN022 OVC085 06/03 A2955 RMK AO2 T00560028=
201802180153 METAR KPAE 180153Z 15012KT 10SM FEW032 OVC085 06/02 A2956 RMK AO2 SLP010 T00610017=
201802180105 SPECI KPAE 180105Z VRB03KT 10SM BKN024 BKN036 OVC050 07/04 A2957 RMK AO2 T00670039=
201802180053 METAR KPAE 180053Z 07007KT 10SM SCT027 BKN037 BKN050 07/04 A2958 RMK AO2 SLP018 T00670039=
201802180048 SPECI KPAE 180048Z 07007KT 10SM SCT029 BKN036 OVC050 07/03 A2958 RMK AO2=
201802180036 SPECI KPAE 180036Z 03005KT 10SM BKN029 BKN038 OVC050 07/03 A2958 RMK AO2 T00670033=
201802180005 SPECI KPAE 180005Z 00000KT 10SM SCT030 BKN037 BKN080 07/03 A2958 RMK AO2 T00720028=
201802172353 METAR KPAE 172353Z 00000KT 10SM BKN028 OVC035 07/03 A2957 RMK AO2 SLP017 60011 T00720028 10100 20056 51005=
201802172350 SPECI KPAE 172350Z 00000KT 10SM BKN028 BKN033 OVC041 07/03 A2957 RMK AO2=
201802172253 METAR KPAE 172253Z VRB04KT 10SM BKN031 OVC040 06/03 A2957 RMK AO2 RAE2157B20E47 SLP015 P0001 T00610033=
201802172153 METAR KPAE 172153Z 30003KT 9SM -RA BKN006 OVC012 06/04 A2956 RMK AO2 RAB31 SLP011 P0002 T00560044=
201802172053 METAR KPAE 172053Z 34005KT 10SM SCT006 BKN009 OVC027 07/06 A2954 RMK AO2 RAE38 SLP007 P0001 60008 T00670061 58004=
201802172027 SPECI KPAE 172027Z 29005KT 5SM -RA BR SCT006 BKN009 OVC027 07/06 A2955 RMK AO2 P0001 T00670061=
201802172000 SPECI KPAE 172000Z 32007KT 4SM -RA BR FEW009 BKN025 OVC032 07/06 A2956 RMK AO2 P0001 T00670056=
201802171953 METAR KPAE 171953Z VRB06KT 6SM R16R/3500VP6000FT RA BR BKN015 BKN027 OVC037 07/06 A2957 RMK AO2 PK WND 20031/1901 WSHFT 1931 RAB42 SLP014 P0007 T00720056=
201802171947 SPECI KPAE 171947Z 28010G23KT 1 3/4SM R16R/6000VP6000FT +RA BKN009 BKN055 OVC085 07/06 A2957 RMK AO2 PK WND 20031/1901 WSHFT 1931 RAB42 P0005=
201802171853 METAR KPAE 171853Z 17024G35KT 10SM BKN009 OVC017 09/06 A2955 RMK AO2 PK WND 15042/1757 SLP007 T00940061=
201802171800 SPECI KPAE 171800Z 17025G42KT 4SM BR OVC009 08/07 A2955 RMK AO2 PK WND 15042/1757 CIG 006V013 T00780067=
201802171753 METAR KPAE 171753Z 15023G35KT 2 1/2SM BR OVC009 07/07 A2956 RMK AO2 PK WND 16035/1749 RAB16E47 CIG 006V014 SLP010 P0001 60005 T00720067 10072 20056 56051=
201802171724 SPECI KPAE 171724Z 14021G31KT 2 1/2SM -RA BR BKN006 OVC012 07/06 A2956 RMK AO2 PK WND 13031/1720 RAB16 PRESFR P0000 T00670056=
201802171653 METAR KPAE 171653Z 14017G27KT 10SM BKN006 OVC014 06/05 A2962 RMK AO2 PK WND 15030/1627 SLP033 T00610050=
201802171648 SPECI KPAE 171648Z 14016G28KT 10SM BKN008 OVC014 06/05 A2963 RMK AO2 PK WND 15030/1627=
201802171553 METAR KPAE 171553Z 15021G28KT 10SM BKN014 OVC065 06/04 A2971 RMK AO2 PK WND 17034/1503 PRESFR SLP062 T00610044=
201802171453 METAR KPAE 171453Z AUTO 16022G28KT 10SM BKN014 BKN038 OVC050 06/04 A2977 RMK AO2 PK WND 16035/1419 RAE19 SLP084 P0000 60004 T00560039 58037=
201802171353 METAR KPAE 171353Z AUTO 16019G28KT 10SM -RA OVC048 06/04 A2982 RMK AO2 PK WND 16028/1343 RAB12 SLP101 P0001 T00610044=
201802171333 SPECI KPAE 171333Z AUTO 16022G28KT 9SM -RA SCT013 OVC038 06/04 A2985 RMK AO2 PK WND 17028/1325 RAB12 P0001 T00610044=
201802171253 METAR KPAE 171253Z AUTO 15013KT 10SM BKN012 BKN027 OVC065 07/06 A2988 RMK AO2 PK WND 15028/1236 RAE48 PRESFR SLP119 P0003 T00670056=
201802171234 SPECI KPAE 171234Z AUTO 15014KT 10SM -RA SCT010 BKN015 OVC034 07/06 A2990 RMK AO2 P0002 T00670056=
201802171153 METAR KPAE 171153Z AUTO 15014G20KT 10SM -RA BKN010 OVC015 07/06 A2995 RMK AO2 RAB04 CIG 008V014 SLP146 P0000 60001 70008 T00670056 10067 20050 58029=
201802171138 SPECI KPAE 171138Z AUTO 15014KT 10SM -RA OVC009 07/06 A2994 RMK AO2 RAB04 CIG 008V012 P0000 T00670056=
201802171053 METAR KPAE 171053Z AUTO 16012KT 10SM SCT008 BKN013 OVC029 07/06 A3000 RMK AO2 SLP161 T00670056=
201802171049 SPECI KPAE 171049Z AUTO 15010KT 10SM FEW008 BKN011 OVC027 07/06 A3000 RMK AO2=
201802170953 METAR KPAE 170953Z AUTO 15009KT 10SM FEW009 BKN022 OVC028 06/06 A3004 RMK AO2 SLP175 T00610056=
201802170934 SPECI KPAE 170934Z AUTO 15007KT 10SM SCT007 OVC023 06/06 A3005 RMK AO2 T00610056=
201802170906 SPECI KPAE 170906Z AUTO 16009KT 10SM OVC006 06/06 A3007 RMK AO2 CIG 003V009 T00610056=
201802170853 METAR KPAE 170853Z AUTO 16009KT 10SM OVC003 06/06 A3008 RMK AO2 SLP187 60001 T00610056 58012=
201802170841 SPECI KPAE 170841Z AUTO 17010KT 10SM OVC003 06/06 A3008 RMK AO2 CIG 001V006 T00610056=
201802170821 SPECI KPAE 170821Z AUTO 16010KT 3SM BR OVC001 06/06 A3009 RMK AO2 T00560056=
201802170753 METAR KPAE 170753Z AUTO 15006KT 1 3/4SM BR OVC002 06/05 A3010 RMK AO2 RAB08E43 SLP196 P0001 T00560050 400780039=
201802170745 SPECI KPAE 170745Z AUTO 16005KT 3SM BR OVC003 05/05 A3010 RMK AO2 RAB08E43 P0001 T00500050=
201802170734 SPECI KPAE 170734Z AUTO 15003KT 2 1/2SM -RA BR BKN003 OVC008 06/04 A3010 RMK AO2 RAB08 P0000 T00560044=
201802170709 SPECI KPAE 170709Z AUTO 00000KT 5SM -RA BR OVC008 06/04 A3011 RMK AO2 RAB08 P0000 T00560044=
201802170653 METAR KPAE 170653Z AUTO VRB03KT 10SM OVC010 06/04 A3011 RMK AO2 RAB11E20 SLP201 P0000 T00560039=
201802170618 SPECI KPAE 170618Z AUTO VRB03KT 10SM -RA BKN014 OVC028 05/04 A3012 RMK AO2 RAB11 P0000 T00500039=
201802170553 METAR KPAE 170553Z AUTO 12003KT 10SM BKN030 OVC037 05/03 A3013 RMK AO2 SLP208 60000 T00500033 10078 20050 58009=
201802170453 METAR KPAE 170453Z AUTO 08005KT 10SM SCT018 OVC041 06/03 A3015 RMK AO2 SLP213 T00560028=
201802170353 METAR KPAE 170353Z 03005KT 10SM OVC018 06/03 A3016 RMK AO2 SLP217 T00560033=
201802170333 SPECI KPAE 170333Z 02005KT 10SM BKN018 OVC048 06/03 A3017 RMK AO2 T00560033=
201802170317 SPECI KPAE 170317Z 02005KT 10SM SCT014 OVC049 06/04 A3017 RMK AO2 T00560039=
201802170253 METAR KPAE 170253Z 03005KT 10SM OVC013 06/04 A3016 RMK AO2 SLP218 60000 T00560039 51005=
201802170207 SPECI KPAE 170207Z 01005KT 10SM OVC010 06/04 A3016 RMK AO2 T00560039=
201802170153 METAR KPAE 170153Z 02006KT 10SM OVC009 06/04 A3016 RMK AO2 RAB10E38 SLP217 P0000 T00560044=
201802170115 SPECI KPAE 170115Z 02006KT 7SM -RA OVC006 06/04 A3015 RMK AO2 RAB10 CIG 003V009 P0000 T00610044=
201802170053 METAR KPAE 170053Z 36006KT 3/4SM R16R/P6000FT BR OVC002 06/06 A3015 RMK AO2 CIG 001V006 SLP215 T00610056=
201802170040 SPECI KPAE 170040Z 35005KT 5SM BR OVC004 07/06 A3015 RMK AO2 CIG 001V007 T00670061=
201802162353 METAR KPAE 162353Z 17005KT 10SM OVC008 08/06 A3015 RMK AO2 SLP212 60000 T00780061 10078 20056 55003=
201802162253 METAR KPAE 162253Z 15005KT 10SM OVC008 07/06 A3013 RMK AO2 CIG 007V012 SLP207 T00720056=
201802162153 METAR KPAE 162153Z 15011KT 10SM BKN008 BKN012 OVC055 08/06 A3014 RMK AO2 SLP209 T00780061=
201802162114 SPECI KPAE 162114Z 14009KT 10SM FEW003 BKN022 OVC050 07/06 A3015 RMK AO2 T00720056=
201802162053 METAR KPAE 162053Z 15010KT 10SM SCT010 OVC022 07/06 A3016 RMK AO2 SLP215 60000 T00720056 58009=
201802162012 SPECI KPAE 162012Z 13011KT 10SM BKN010 OVC022 07/05 A3017 RMK AO2 T00670050=
201802161953 METAR KPAE 161953Z 15009KT 10SM FEW012 OVC020 06/04 A3018 RMK AO2 RAB10E20 SLP223 P0000 T00610044=
201802161909 SPECI KPAE 161909Z 14010KT 7SM BKN020 OVC055 06/04 A3018 RMK AO2 T00610044=
201802161853 METAR KPAE 161853Z 15010KT 10SM SCT007 BKN010 OVC018 06/04 A3019 RMK AO2 SLP228 T00560044=
201802161834 SPECI KPAE 161834Z 16011KT 10SM SCT007 BKN010 OVC018 06/04 A3019 RMK AO2 T00560039=
201802161753 METAR KPAE 161753Z 16011KT 10SM BKN007 OVC018 06/04 A3018 RMK AO2 SLP225 60007 T00560044 10067 20044 55008 $=
201802161653 METAR KPAE 161653Z 16012KT 10SM BKN006 OVC018 05/04 A3018 RMK AO2 RAE07 SLP224 P0000 T00500039=
201802161553 METAR KPAE 161553Z 16013KT 10SM -RA OVC008 04/04 A3019 RMK AO2 RAE33B50 SLP227 P0000 T00440039=
201802161453 METAR KPAE 161453Z 15012KT 9SM -RA OVC008 04/04 A3021 RMK AO2 CIG 005V010 SLP233 P0002 60007 T00440039 56019=
201802161353 METAR KPAE 161353Z AUTO 15009KT 8SM -RA BKN007 OVC012 04/04 A3021 RMK AO2 CIG 004V010 SLP236 P0004 T00440039=
201802161253 METAR KPAE 161253Z AUTO 15010KT 9SM -RA OVC007 04/04 A3024 RMK AO2 RAE08B31 CIG 006V012 SLP243 P0001 T00440039=
201802161210 SPECI KPAE 161210Z AUTO 15010KT 10SM OVC008 04/03 A3026 RMK AO2 RAE08 P0000 T00440033=
201802161153 METAR KPAE 161153Z AUTO 15009KT 10SM -RA SCT008 BKN013 OVC030 04/04 A3026 RMK AO2 SLP253 P0003 60006 70006 T00440039 10044 20039 58022=
201802161113 SPECI KPAE 161113Z AUTO 15010KT 9SM -RA SCT014 OVC034 04/03 A3028 RMK AO2 P0001 T00440033=
201802161053 METAR KPAE 161053Z AUTO 16010KT 9SM -RA OVC013 04/03 A3029 RMK AO2 SLP261 P0003 T00440033=
201802161031 SPECI KPAE 161031Z AUTO 16009KT 9SM -RA OVC013 04/03 A3031 RMK AO2 P0002 T00440033=
201802160953 METAR KPAE 160953Z AUTO 16009KT 10SM -RA BKN015 OVC055 04/03 A3032 RMK AO2 RAB39 SLP272 P0000 T00440028=
201802160853 METAR KPAE 160853Z AUTO 14009KT 10SM BKN075 OVC090 04/02 A3033 RMK AO2 SLP275 T00440022 58018=
201802160753 METAR KPAE 160753Z AUTO 15009KT 10SM FEW070 SCT080 OVC100 04/02 A3035 RMK AO2 SLP282 T00440022 400610022=
201802160653 METAR KPAE 160653Z AUTO 13007KT 10SM OVC070 04/03 A3037 RMK AO2 SLP288 T00440028=
201802160553 METAR KPAE 160553Z AUTO 13007KT 10SM OVC080 04/03 A3038 RMK AO2 SLP292 T00440028 10056 20044 56003=
201802160453 METAR KPAE 160453Z AUTO 12006KT 10SM FEW015 FEW021 OVC085 05/03 A3039 RMK AO2 SLP293 T00500028=
201802160449 SPECI KPAE 160449Z AUTO 12006KT 10SM FEW015 SCT021 OVC085 05/03 A3039 RMK AO2=
201802160353 METAR KPAE 160353Z 12006KT 10SM OVC018 05/03 A3039 RMK AO2 SLP297 T00500028=
201802160340 SPECI KPAE 160340Z 12005KT 10SM BKN018 BKN032 OVC095 05/02 A3039 RMK AO2 T00500022=
201802160300 SPECI KPAE 160300Z 00000KT 10SM OVC033 06/02 A3040 RMK AO2 T00560017=
201802160253 METAR KPAE 160253Z 00000KT 10SM BKN027 OVC033 06/02 A3040 RMK AO2 SLP300 T00560017 53004=
201802160200 SPECI KPAE 160200Z 13003KT 10SM BKN027 OVC033 05/02 A3040 RMK AO2 T00500017=
201802160153 METAR KPAE 160153Z 12003KT 10SM SCT027 OVC033 06/02 A3040 RMK AO2 SLP299 T00560017=
201802160111 SPECI KPAE 160111Z 14003KT 10SM OVC029 06/02 A3040 RMK AO2 T00560017=
201802160101 SPECI KPAE 160101Z 14004KT 10SM BKN030 OVC110 06/01 A3040 RMK AO2 T00560011=
201802160053 METAR KPAE 160053Z 13007KT 10SM FEW020 BKN028 OVC110 06/01 A3039 RMK AO2 SLP296 T00560011=
201802152353 METAR KPAE 152353Z 00000KT 10SM SCT018 BKN030 OVC110 06/02 A3041 RMK AO2 SLP303 T00560017 10061 20044 53002=
201802152253 METAR KPAE 152253Z 21005KT 10SM SCT018 SCT026 BKN035 06/02 A3039 RMK AO2 SLP297 T00560022=
201802152153 METAR KPAE 152153Z 16008KT 10SM BKN020 BKN039 06/02 A3041 RMK AO2 SLP301 T00560022=
201802152148 SPECI KPAE 152148Z 16008KT 10SM BKN020 BKN037 06/02 A3041 RMK AO2=
201802152053 METAR KPAE 152053Z 18004KT 10SM SCT011 OVC034 06/03 A3042 RMK AO2 SLP305 T00560028 58003=
201802152014 SPECI KPAE 152014Z 19006KT 10SM FEW017 OVC031 06/02 A3043 RMK AO2 T00560017=
201802151953 METAR KPAE 151953Z 14007KT 10SM FEW014 BKN027 OVC032 05/02 A3043 RMK AO2 SLP311 T00500017=
201802151853 METAR KPAE 151853Z 16006KT 10SM FEW006 SCT011 BKN023 04/02 A3044 RMK AO2 SLP312 T00440017=
201802151807 SPECI KPAE 151807Z 14006KT 10SM FEW006 SCT011 BKN023 04/02 A3043 RMK AO2 T00440022=
201802151800 SPECI KPAE 151800Z 15005KT 10SM FEW011 04/02 A3043 RMK AO2 T00440022=
201802151753 METAR KPAE 151753Z 16006KT 10SM FEW005 SCT011 BKN023 04/02 A3043 RMK AO2 SLP308 T00440022 10044 20028 51018=
201802151653 METAR KPAE 151653Z 17009KT 9SM SCT004 BKN017 03/02 A3042 RMK AO2 SLP305 T00330022=
201802151553 METAR KPAE 151553Z 16006KT 5SM BR SCT005 BKN017 OVC031 03/02 A3040 RMK AO2 SLP298 T00280022=
201802151537 SPECI KPAE 151537Z 14005KT 5SM BR SCT005 BKN017 OVC031 03/02 A3039 RMK AO2 T00280022=
201802151453 METAR KPAE 151453Z 14004KT 8SM OVC020 03/02 A3037 RMK AO2 SLP290 T00280022 53018=
201802151353 METAR KPAE 151353Z AUTO 13007KT 10SM OVC016 03/02 A3035 RMK AO2 SLP284 T00280017=
201802151314 SPECI KPAE 151314Z AUTO 12006KT 10SM OVC016 03/02 A3034 RMK AO2 T00280017=
201802151253 METAR KPAE 151253Z AUTO 12006KT 10SM OVC013 03/02 A3034 RMK AO2 SLP278 T00280017=
201802151153 METAR KPAE 151153Z AUTO 13008KT 7SM BKN010 BKN035 OVC080 03/02 A3032 RMK AO2 SLP272 60000 70011 T00280022 10039 20022 51013=
201802151144 SPECI KPAE 151144Z AUTO 12008KT 6SM BR BKN010 BKN014 OVC035 03/02 A3032 RMK AO2 T00280017=
201802151053 METAR KPAE 151053Z AUTO 08004KT 5SM BR FEW009 BKN041 OVC080 03/02 A3031 RMK AO2 RAB0958E15 SLP269 P0000 T00280022=
201802151032 SPECI KPAE 151032Z AUTO 00000KT 8SM FEW009 OVC080 03/02 A3031 RMK AO2 RAB0958E15 P0000 T00330022=
201802150953 METAR KPAE 150953Z AUTO 15003KT 10SM OVC045 03/02 A3030 RMK AO2 SLP265 T00330022=
201802150853 METAR KPAE 150853Z AUTO 15004KT 10SM FEW027 OVC055 03/02 A3028 RMK AO2 SLP258 T00330017 51018=
201802150753 METAR KPAE 150753Z AUTO 17009KT 7SM FEW024 BKN065 OVC080 03/02 A3026 RMK AO2 SLP252 T00280022 400500011=
201802150745 SPECI KPAE 150745Z AUTO 16008KT 8SM FEW025 BKN039 OVC070 03/02 A3026 RMK AO2 T00330022=
201802150735 SPECI KPAE 150735Z AUTO 14005KT 8SM BKN025 OVC039 03/02 A3026 RMK AO2 T00330022=
201802150653 METAR KPAE 150653Z AUTO 13004KT 9SM SCT039 BKN060 03/02 A3025 RMK AO2 SLP247 T00330022=
201802150553 METAR KPAE 150553Z 13007KT 10SM BKN039 OVC050 04/02 A3023 RMK AO2 SLP240 60000 T00390022 10044 20033 51015=
201802150453 METAR KPAE 150453Z 13006KT 10SM OVC039 04/02 A3022 RMK AO2 SLP237 T00390017=
201802150353 METAR KPAE 150353Z VRB03KT 10SM OVC033 04/02 A3020 RMK AO2 SLP233 T00390017=
201802150253 METAR KPAE 150253Z 00000KT 10SM OVC033 04/02 A3018 RMK AO2 SLP226 60000 T00390022 53021=
201802150153 METAR KPAE 150153Z 00000KT 10SM FEW009 SCT014 OVC042 04/02 A3015 RMK AO2 SLP214 T00390017=
201802150053 METAR KPAE 150053Z 30003KT 10SM FEW009 SCT014 OVC042 04/02 A3012 RMK AO2 RAB00E19 SLP205 P0000 T00390022=
201802150027 SPECI KPAE 150027Z 30003KT 10SM FEW008 SCT023 OVC042 04/02 A3012 RMK AO2 RAB00E19 P0000 T00390022=
201802150017 SPECI KPAE 150017Z VRB03KT 10SM -RA SCT010 BKN024 OVC029 04/02 A3012 RMK AO2 RAB00 P0000 T00390022=
201802150006 SPECI KPAE 150006Z 33007KT 10SM -RA BKN008 BKN017 OVC025 04/02 A3013 RMK AO2 RAB00 CIG 007V013 P0000 T00390022=
201802142353 METAR KPAE 142353Z 30008KT 10SM BKN012 BKN016 OVC025 04/02 A3012 RMK AO2 SLP204 60002 T00440022 10050 20033 53016=
201802142336 SPECI KPAE 142336Z 32005KT 10SM BKN012 BKN032 05/02 A3011 RMK AO2 T00500022=
201802142313 SPECI KPAE 142313Z 32006KT 10SM SCT009 BKN025 05/02 A3010 RMK AO2 T00500022=
201802142253 METAR KPAE 142253Z 29008KT 10SM BKN009 BKN025 04/02 A3010 RMK AO2 SLP196 T00440022=
201802142153 METAR KPAE 142153Z 31009KT 10SM BKN007 BKN013 OVC095 04/02 A3007 RMK AO2 SLP188 T00390022=
201802142149 SPECI KPAE 142149Z 30009G14KT 10SM FEW009 BKN013 OVC095 04/02 A3007 RMK AO2=
201802142053 METAR KPAE 142053Z 32006KT 10SM BKN007 OVC013 03/02 A3007 RMK AO2 RAE1956 SLP186 P0000 60002 T00330022 51018=
201802141953 METAR KPAE 141953Z 31008G14KT 3SM -RA BR BKN004 OVC009 03/03 A3006 RMK AO2 CIG 002V007 SLP182 P0001 T00330028=
201802141853 METAR KPAE 141853Z VRB04KT 3SM -RA BR OVC002 04/03 A3003 RMK AO2 SLP175 P0001 T00390033=
201802141823 SPECI KPAE 141823Z 20005KT 3/4SM R16R/P6000FT -RA BR OVC002 03/03 A3002 RMK AO2 P0000 T00330033=
201802141753 METAR KPAE 141753Z 21006KT 5SM -RA BR OVC003 03/03 A3001 RMK AO2 RAB04 SLP168 P0001 60009 T00330028 10033 20022 51023=
201802141720 SPECI KPAE 141720Z 18007KT 2 1/2SM -RA BR OVC003 03/03 A3001 RMK AO2 RAB04 P0000 T00330028=
201802141707 SPECI KPAE 141707Z 16007KT 3SM -RA BR OVC006 03/03 A3000 RMK AO2 RAB04 CIG 004V009 P0000 T00330028=
201802141700 SPECI KPAE 141700Z 17006KT 4SM BR BKN004 OVC009 03/03 A3000 RMK AO2 T00330028=
201802141653 METAR KPAE 141653Z 18006KT 5SM BR BKN006 BKN013 OVC020 03/03 A3000 RMK AO2 RAE22UPB22E25 SLP163 P0001 T00330028=
201802141553 METAR KPAE 141553Z 13007KT 5SM -RA BR BKN006 BKN013 OVC020 03/02 A2997 RMK AO2 RAB52 SLP152 P0000 T00280022=
201802141505 SPECI KPAE 141505Z 15008KT 10SM BKN006 BKN013 OVC020 03/02 A2995 RMK AO2 T00280017=
201802141458 SPECI KPAE 141458Z 15008KT 10SM FEW006 BKN015 OVC022 03/02 A2995 RMK AO2 T00280022=
201802141453 METAR KPAE 141453Z 16006KT 10SM BKN006 OVC020 03/02 A2994 RMK AO2 RAE29UPB1357E08B29E31 SLP144 P0001 60007 T00280022 53004=
201802141446 SPECI KPAE 141446Z 17006KT 10SM FEW006 BKN013 OVC020 03/02 A2995 RMK AO2 RAE29UPB1357E08B29E31 P0001 T00280022=
201802141438 SPECI KPAE 141438Z AUTO 16007KT 9SM SCT006 SCT010 OVC020 03/02 A2995 RMK AO2 RAE29UPB1357E08B29E31 P0001 T00280022=
201802141421 SPECI KPAE 141421Z AUTO 20006KT 6SM -RA BR BKN007 OVC015 03/02 A2994 RMK AO2 UPB1357E08 P0001 T00280022=
201802141409 SPECI KPAE 141409Z AUTO 16008KT 6SM -RA BR SCT007 OVC015 03/02 A2994 RMK AO2 UPB1357E08 P0000 T00280022=
201802141353 METAR KPAE 141353Z AUTO 16011KT 6SM -RA BR BKN007 BKN012 OVC020 03/02 A2994 RMK AO2 SLP144 P0005 T00280022=
201802141253 METAR KPAE 141253Z AUTO 17011KT 9SM -RA BKN005 OVC010 03/02 A2993 RMK AO2 UPB14E17B38E41RAB25 SLP139 P0001 T00280022=
201802141153 METAR KPAE 141153Z AUTO 17009KT 10SM OVC005 03/02 A2993 RMK AO2 SLP139 60015 70028 T00280022 10028 20006 56007=
201802141053 METAR KPAE 141053Z AUTO 16012KT 10SM OVC006 03/02 A2994 RMK AO2 SLP142 T00280017=
201802140953 METAR KPAE 140953Z AUTO 15012KT 10SM OVC007 03/02 A2995 RMK AO2 RAE24UPB24E28 CIG 005V009 SLP145 P0002 T00280022=
201802140917 SPECI KPAE 140917Z AUTO 14009KT 9SM -RA OVC006 02/02 A2995 RMK AO2 CIG 003V010 P0002 T00170017=
201802140853 METAR KPAE 140853Z AUTO 12007KT 6SM -RA BR BKN004 OVC010 01/01 A2995 RMK AO2 RAB37SNE37 CIG 003V007 SLP148 P0005 60013 T00110011 56022=
201802140819 SPECI KPAE 140819Z AUTO 12009KT 3SM -SN BR OVC004 01/01 A2996 RMK AO2 P0002 T00110006=
201802140753 METAR KPAE 140753Z AUTO 13008KT 2 1/2SM -SN BR OVC004 01/01 A2997 RMK AO2 SLP154 P0003 T00110006 400611022=
201802140737 SPECI KPAE 140737Z AUTO 12008KT 2 1/2SM -SN BR OVC004 01/01 A2998 RMK AO2 P0002 T00110006=
201802140726 SPECI KPAE 140726Z AUTO 13008KT 3SM -SN BR OVC003 01/01 A2998 RMK AO2 CIG 003V008 P0002 T00110006=
201802140653 METAR KPAE 140653Z AUTO 13009KT 2SM -SN BR OVC004 01/01 A2999 RMK AO2 SLP160 P0005 T00110006=
201802140613 SPECI KPAE 140613Z AUTO 12009KT 1 1/4SM -SN BR BKN004 OVC012 01/01 A3001 RMK AO2 P0002 T00110006=
201802140553 METAR KPAE 140553Z AUTO 12006KT 1 1/2SM -SN BR SCT005 OVC012 01/01 A3002 RMK AO2 RAE28SNB28 SLP171 P0009 60013 T00110006 10061 20011 58020=
201802140533 SPECI KPAE 140533Z AUTO 12009KT 2SM -SN BR FEW006 OVC013 02/01 A3003 RMK AO2 RAE28SNB28 P0006 T00170006=
201802140512 SPECI KPAE 140512Z AUTO 12007KT 6SM -RA BR OVC013 02/01 A3005 RMK AO2 P0002 T00220006=
201802140453 METAR KPAE 140453Z AUTO 11005KT 5SM -RA BR OVC017 03/01 A3006 RMK AO2 SLP183 P0004 T00280006=
201802140432 SPECI KPAE 140432Z VRB04KT 10SM -RA OVC026 03/00 A3007 RMK AO2 P0001 T00330000=
201802140353 METAR KPAE 140353Z 13007KT 10SM -RA OVC040 04/M02 A3007 RMK AO2 RAB36 SLP189 P0000 T00441017=
201802140253 METAR KPAE 140253Z 08004KT 10SM OVC060 05/M03 A3008 RMK AO2 SLP190 T00501033 57018=
201802140153 METAR KPAE 140153Z 36003KT 10SM OVC090 04/M03 A3010 RMK AO2 SLP196 T00441033=
201802140053 METAR KPAE 140053Z 33003KT 10SM OVC100 04/M03 A3012 RMK AO2 SLP204 T00441028=
201802132353 METAR KPAE 132353Z 09003KT 10SM OVC100 06/M04 A3013 RMK AO2 SLP209 T00611039 10061 20022 58030=
201802132253 METAR KPAE 132253Z 33003KT 10SM BKN080 OVC100 05/M03 A3016 RMK AO2 SLP219 T00501033=
201802132153 METAR KPAE 132153Z 31004KT 10SM OVC070 06/M01 A3020 RMK AO2 SLP231 T00561011=
201802132053 METAR KPAE 132053Z 00000KT 10SM OVC060 05/M01 A3022 RMK AO2 SLP239 T00501006 56024=
201802131953 METAR KPAE 131953Z VRB03KT 10SM BKN080 OVC110 05/M03 A3024 RMK AO2 SLP246 T00501033=
201802131853 METAR KPAE 131853Z 12007KT 10SM OVC060 04/M04 A3026 RMK AO2 SLP254 T00391039=
201802131753 METAR KPAE 131753Z 13003KT 10SM CLR 02/M04 A3029 RMK AO2 SLP264 T00221039 10022 21022 58002=
201802131653 METAR KPAE 131653Z 13004KT 10SM CLR 01/M03 A3029 RMK AO2 SLP263 T00111033=
201802131553 METAR KPAE 131553Z 00000KT 10SM CLR M01/M04 A3030 RMK AO2 SLP267 T10111039=
201802131453 METAR KPAE 131453Z 00000KT 10SM CLR M01/M04 A3030 RMK AO2 SLP266 T10061039 58008=
201802131353 METAR KPAE 131353Z AUTO 00000KT 10SM CLR M01/M04 A3031 RMK AO2 SLP271 T10061039=
201802131253 METAR KPAE 131253Z AUTO 00000KT 10SM CLR M01/M04 A3033 RMK AO2 SLP276 T10111044=
201802131153 METAR KPAE 131153Z AUTO 00000KT 10SM CLR M01/M04 A3032 RMK AO2 SLP274 T10061039 10011 21017 58008=
201802131053 METAR KPAE 131053Z AUTO 08006KT 10SM CLR M01/M04 A3034 RMK AO2 SLP278 T10061039=
201802130953 METAR KPAE 130953Z AUTO 00000KT 10SM CLR M01/M04 A3035 RMK AO2 SLP283 T10061044=
201802130853 METAR KPAE 130853Z AUTO 00000KT 10SM CLR 00/M04 A3035 RMK AO2 SLP282 T00001044 50001=
201802130753 METAR KPAE 130753Z AUTO 00000KT 10SM CLR 00/M04 A3035 RMK AO2 SLP282 T00001044 400561017=
201802130653 METAR KPAE 130653Z AUTO 00000KT 10SM CLR M01/M03 A3035 RMK AO2 SLP282 T10111033=
201802130553 METAR KPAE 130553Z AUTO 00000KT 10SM CLR 01/M03 A3035 RMK AO2 SLP282 T00061033 10050 21011 51003=
201802130453 METAR KPAE 130453Z AUTO 00000KT 10SM CLR 01/M04 A3034 RMK AO2 SLP280 T00061039=
201802130353 METAR KPAE 130353Z 00000KT 10SM CLR 01/M04 A3034 RMK AO2 SLP281 T00111044=
201802130253 METAR KPAE 130253Z 00000KT 10SM CLR 02/M05 A3033 RMK AO2 SLP278 T00171050 53002=
201802130153 METAR KPAE 130153Z 00000KT 10SM CLR 03/M05 A3032 RMK AO2 SLP274 T00281050=
201802130053 METAR KPAE 130053Z 31004KT 10SM CLR 04/M06 A3031 RMK AO2 SLP270 T00441056=
201802122353 METAR KPAE 122353Z 32006KT 10SM CLR 05/M04 A3033 RMK AO2 SLP275 T00501044 10056 20017 53002=
201802122253 METAR KPAE 122253Z 33006KT 10SM CLR 06/M06 A3031 RMK AO2 SLP270 T00561061=
201802122153 METAR KPAE 122153Z VRB04KT 10SM CLR 05/M09 A3032 RMK AO2 SLP271 T00501089=
201802122053 METAR KPAE 122053Z 32005KT 10SM CLR 04/M08 A3032 RMK AO2 SLP274 T00441083 50001=
201802121953 METAR KPAE 121953Z 33008KT 10SM CLR 04/M07 A3034 RMK AO2 SLP278 T00391067=
201802121853 METAR KPAE 121853Z 32006KT 10SM CLR 03/M07 A3033 RMK AO2 SLP275 T00281067=
201802121753 METAR KPAE 121753Z 33005KT 10SM CLR 02/M07 A3032 RMK AO2 SLP272 T00171072 10017 20000 53012=
201802121653 METAR KPAE 121653Z 33006KT 10SM CLR 01/M06 A3029 RMK AO2 SLP263 T00111061=
201802121553 METAR KPAE 121553Z 30007KT 10SM CLR 00/M06 A3028 RMK AO2 SLP261 T00001061=
201802121453 METAR KPAE 121453Z 32007KT 10SM CLR 01/M08 A3028 RMK AO2 SLP261 T00061078 53028=
201802121353 METAR KPAE 121353Z AUTO 32007KT 10SM CLR 01/M06 A3026 RMK AO2 SLP251 T00061061=
201802121253 METAR KPAE 121253Z AUTO 33009KT 10SM CLR 01/M07 A3022 RMK AO2 SLP238 T00111067=
201802121153 METAR KPAE 121153Z AUTO 31004KT 10SM CLR 00/M06 A3020 RMK AO2 SLP232 T00001056 10022 21006 51016=
201802121053 METAR KPAE 121053Z AUTO 31004KT 10SM SCT050 BKN060 01/M04 A3019 RMK AO2 SLP229 T00061044=
201802120953 METAR KPAE 120953Z AUTO 32005KT 10SM BKN070 01/M04 A3018 RMK AO2 SLP224 T00061039=
201802120853 METAR KPAE 120853Z AUTO 28005KT 10SM BKN075 01/M06 A3015 RMK AO2 SLP215 T00061056 51030=
201802120753 METAR KPAE 120753Z AUTO 33003KT 10SM CLR 01/M02 A3012 RMK AO2 SLP205 T00061017 400610000=
201802120653 METAR KPAE 120653Z AUTO 00000KT 10SM CLR 01/M01 A3010 RMK AO2 SLP197 T00111011=
201802120553 METAR KPAE 120553Z AUTO 30005KT 10SM CLR 02/M02 A3006 RMK AO2 SLP185 T00221022 10050 20022 53015=
201802120453 METAR KPAE 120453Z AUTO 30006KT 10SM CLR 03/M02 A3005 RMK AO2 SLP179 T00281022=
201802120353 METAR KPAE 120353Z 29005KT 10SM CLR 03/M01 A3003 RMK AO2 SLP176 T00281011=
201802120253 METAR KPAE 120253Z 30005KT 10SM CLR 03/M01 A3002 RMK AO2 SLP171 T00281006 53015=
201802120153 METAR KPAE 120153Z 29006KT 10SM CLR 03/M01 A2999 RMK AO2 SLP160 T00331006=
201802120053 METAR KPAE 120053Z 30004KT 10SM CLR 04/M01 A2998 RMK AO2 SLP156 T00441011=
201802112353 METAR KPAE 112353Z 31009KT 10SM FEW028 05/M01 A2997 RMK AO2 SLP154 T00501011 10061 20028 51005=
201802112253 METAR KPAE 112253Z 32010KT 10SM FEW035 06/M03 A2997 RMK AO2 SLP152 T00561028=
201802112153 METAR KPAE 112153Z 31008G18KT 10SM CLR 05/M02 A2996 RMK AO2 SLP151 T00501017=
201802112053 METAR KPAE 112053Z 33007KT 10SM FEW040 05/00 A2996 RMK AO2 SLP148 T00500000 50000=
201802111953 METAR KPAE 111953Z 33006KT 10SM SCT043 05/00 A2997 RMK AO2 SLP153 T00500000=
201802111853 METAR KPAE 111853Z 34004KT 10SM SCT046 04/00 A2996 RMK AO2 SLP150 T00440000=
201802111753 METAR KPAE 111753Z 33007KT 10SM FEW007 BKN043 03/01 A2996 RMK AO2 SLP149 T00330006 10039 20000 53005=
201802111653 METAR KPAE 111653Z 32005KT 10SM CLR 02/00 A2995 RMK AO2 SLP147 T00170000=
201802111622 SPECI KPAE 111622Z 00000KT 10SM SCT003 01/00 A2995 RMK AO2 T00060000=
201802111553 METAR KPAE 111553Z 30003KT 10SM BKN003 01/M01 A2994 RMK AO2 SLP146 T00061006=
201802111453 METAR KPAE 111453Z 00000KT 10SM SCT120 01/M01 A2994 RMK AO2 SLP144 T00061011 57016=
201802111353 METAR KPAE 111353Z AUTO 00000KT 10SM FEW120 01/M01 A2995 RMK AO2 SLP148 T00111006=
201802111253 METAR KPAE 111253Z AUTO 03003KT 10SM SCT120 01/M01 A2998 RMK AO2 SLP155 T00111006=
201802111153 METAR KPAE 111153Z AUTO 00000KT 10SM CLR 01/00 A2999 RMK AO2 SLP160 T00110000 10028 20006 56029=
201802111053 METAR KPAE 111053Z AUTO 00000KT 10SM CLR 01/00 A3002 RMK AO2 SLP169 T00110000=
201802110953 METAR KPAE 110953Z AUTO 08006KT 10SM CLR 01/M01 A3003 RMK AO2 SLP175 T00111006=
201802110853 METAR KPAE 110853Z AUTO 08006KT 10SM CLR 02/M01 A3008 RMK AO2 SLP190 T00171006 58044=
201802110753 METAR KPAE 110753Z AUTO 08006KT 10SM CLR 02/00 A3012 RMK AO2 SLP205 T00170000 400561006=
201802110653 METAR KPAE 110653Z AUTO 08005KT 10SM CLR 02/00 A3017 RMK AO2 SLP221 T00220000=
201802110553 METAR KPAE 110553Z AUTO 08004KT 10SM CLR 03/M01 A3021 RMK AO2 SLP234 T00281006 10056 20022 56027=
201802110453 METAR KPAE 110453Z AUTO 07004KT 10SM CLR 03/M02 A3023 RMK AO2 SLP241 T00281017=
201802110353 METAR KPAE 110353Z 08003KT 10SM CLR 03/M02 A3026 RMK AO2 SLP253 T00281022=
201802110253 METAR KPAE 110253Z 00000KT 10SM CLR 03/M03 A3029 RMK AO2 SLP263 T00331028 58020=
201802110153 METAR KPAE 110153Z 00000KT 10SM CLR 03/M03 A3032 RMK AO2 SLP274 T00281033=
201802110053 METAR KPAE 110053Z 00000KT 10SM CLR 04/M03 A3033 RMK AO2 SLP276 T00391033=
201802102353 METAR KPAE 102353Z 28003KT 10SM CLR 05/M03 A3035 RMK AO2 SLP282 T00501028 10056 20022 56020=
201802102253 METAR KPAE 102253Z 31004KT 10SM CLR 06/M03 A3036 RMK AO2 SLP287 T00561028=
201802102153 METAR KPAE 102153Z 01004KT 10SM CLR 05/M03 A3039 RMK AO2 SLP295 T00501033=
201802102053 METAR KPAE 102053Z 32006KT 10SM CLR 04/M04 A3041 RMK AO2 SLP303 T00391039 58006=
201802101953 METAR KPAE 101953Z 32005KT 10SM CLR 04/M03 A3042 RMK AO2 SLP307 T00391028=
201802101853 METAR KPAE 101853Z 35003KT 10SM CLR 04/M03 A3044 RMK AO2 SLP312 T00391028=
201802101753 METAR KPAE 101753Z 35003KT 10SM CLR 02/M01 A3043 RMK AO2 SLP309 T00221011 10022 21006 51012=
201802101653 METAR KPAE 101653Z 33005KT 10SM CLR 02/M01 A3042 RMK AO2 SLP306 T00171011=
201802101553 METAR KPAE 101553Z 30003KT 10SM CLR M01/M02 A3041 RMK AO2 SLP302 T10061022=
201802101453 METAR KPAE 101453Z 30003KT 10SM CLR M01/M02 A3039 RMK AO2 SLP297 T10061022 50011=
201802101353 METAR KPAE 101353Z AUTO 34004KT 10SM CLR 01/M03 A3040 RMK AO2 SLP299 T00061033=
201802101253 METAR KPAE 101253Z AUTO 32006KT 10SM CLR 01/M03 A3038 RMK AO2 SLP292 T00111033=
201802101153 METAR KPAE 101153Z AUTO 30009G15KT 10SM CLR 02/M04 A3036 RMK AO2 SLP285 70003 T00171039 10039 20011 53015=
201802101138 SPECI KPAE 101138Z AUTO 31007KT 10SM SCT028 02/M04 A3035 RMK AO2 T00171039=
201802101104 SPECI KPAE 101104Z AUTO 30007KT 10SM BKN026 02/M04 A3034 RMK AO2 T00171044=
201802101053 METAR KPAE 101053Z AUTO 31007KT 10SM SCT024 01/M04 A3034 RMK AO2 SLP279 T00111044=
201802100953 METAR KPAE 100953Z AUTO 30004KT 10SM CLR 02/M03 A3033 RMK AO2 SLP274 T00171033=
201802100853 METAR KPAE 100853Z AUTO 28006KT 10SM CLR 02/M02 A3031 RMK AO2 SLP269 T00221017 51013=
201802100753 METAR KPAE 100753Z AUTO 29008KT 10SM OVC070 03/M02 A3030 RMK AO2 SLP266 T00281017 400720028=
201802100653 METAR KPAE 100653Z AUTO 29007KT 10SM OVC065 03/M01 A3029 RMK AO2 SLP262 T00331006=
201802100553 METAR KPAE 100553Z AUTO 30004KT 10SM OVC070 03/00 A3028 RMK AO2 SLP256 T00330000 10061 20033 51007=
201802100453 METAR KPAE 100453Z AUTO 30004KT 10SM BKN070 03/01 A3027 RMK AO2 SLP255 T00330006=
201802100353 METAR KPAE 100353Z 33006KT 10SM FEW055 OVC070 04/M01 A3026 RMK AO2 SLP252 T00441006=
201802100253 METAR KPAE 100253Z 32004KT 10SM BKN042 OVC070 05/01 A3025 RMK AO2 SLP249 T00500011 55001=
201802100153 METAR KPAE 100153Z 33005KT 10SM OVC042 05/02 A3025 RMK AO2 SLP247 T00500022=
201802100053 METAR KPAE 100053Z 32005KT 10SM SCT023 BKN042 06/03 A3026 RMK AO2 SLP250 T00560033=
201802092353 METAR KPAE 092353Z 31004KT 10SM SCT049 BKN060 06/03 A3026 RMK AO2 SLP250 60001 T00610033 10072 20056 55006=
201802092341 SPECI KPAE 092341Z 33005KT 10SM SCT049 OVC055 06/03 A3026 RMK AO2 T00610033=
201802092253 METAR KPAE 092253Z 29003KT 10SM SCT008 BKN023 OVC060 07/02 A3025 RMK AO2 RAB07E20 SLP248 P0000 T00670017=
201802092153 METAR KPAE 092153Z 26005KT 10SM SCT008 BKN023 OVC060 07/03 A3027 RMK AO2 SLP252 T00670028=
201802092053 METAR KPAE 092053Z VRB03KT 10SM SCT008 BKN049 07/03 A3028 RMK AO2 RAE13 SLP256 P0001 60001 T00670028 58004=
201802091956 SPECI KPAE 091956Z 35003KT 10SM -RA FEW006 SCT009 BKN024 06/03 A3029 RMK AO2 P0000 T00610033=
201802091953 METAR KPAE 091953Z 00000KT 10SM -RA SCT006 BKN009 OVC024 06/03 A3029 RMK AO2 RAE1856B33 SLP260 P0000 T00610033=
201802091853 METAR KPAE 091853Z 00000KT 10SM -RA BKN009 OVC016 06/04 A3029 RMK AO2 RAB47 SLP262 P0000 T00560039=
201802091753 METAR KPAE 091753Z 07004KT 9SM SCT006 BKN009 OVC031 06/04 A3029 RMK AO2 RAB38E49 SLP260 P0000 60002 T00560039 10056 20044 51006=
201802091714 SPECI KPAE 091714Z 00000KT 10SM SCT006 BKN009 OVC031 05/04 A3029 RMK AO2 T00500044=
201802091653 METAR KPAE 091653Z 00000KT 10SM FEW002 SCT009 BKN013 05/04 A3029 RMK AO2 SLP261 T00500044=
201802091614 SPECI KPAE 091614Z 00000KT 10SM FEW004 BKN019 OVC030 05/04 A3028 RMK AO2 T00500044=
201802091600 SPECI KPAE 091600Z 00000KT 10SM BKN028 OVC040 05/04 A3028 RMK AO2 T00500044=
201802091553 METAR KPAE 091553Z 16003KT 10SM FEW019 FEW025 OVC031 05/04 A3028 RMK AO2 SLP257 T00500044=
201802091457 SPECI KPAE 091457Z 00000KT 10SM BKN028 OVC040 05/04 A3027 RMK AO2 T00500044=
201802091453 METAR KPAE 091453Z 00000KT 10SM FEW024 BKN030 OVC039 04/04 A3027 RMK AO2 RAE44 SLP254 P0002 60002 T00440044 51003=
201802091422 SPECI KPAE 091422Z AUTO 25003KT 7SM -RA BKN026 OVC032 05/04 A3027 RMK AO2 P0002 T00500039=
201802091400 SPECI KPAE 091400Z AUTO 14003KT 10SM -RA SCT025 BKN034 OVC042 04/04 A3027 RMK AO2 P0001 T00440039=
201802091353 METAR KPAE 091353Z AUTO 15003KT 10SM -RA BKN025 OVC038 05/04 A3027 RMK AO2 RAE1257B44 SLP253 P0000 T00500039=
201802091300 SPECI KPAE 091300Z AUTO 20004KT 10SM SCT025 BKN029 OVC040 05/03 A3027 RMK AO2 RAE1257 P0000 T00500033=
201802091253 METAR KPAE 091253Z AUTO 20004KT 9SM -RA SCT025 BKN031 OVC038 05/03 A3027 RMK AO2 RAB16 SLP253 P0000 T00500028=
201802091207 SPECI KPAE 091207Z AUTO 16003KT 10SM BKN024 OVC055 05/03 A3026 RMK AO2 T00500033=
201802091153 METAR KPAE 091153Z AUTO 00000KT 10SM FEW024 BKN049 OVC060 05/03 A3026 RMK AO2 SLP251 70012 T00500033 10067 20044 53006=
201802091053 METAR KPAE 091053Z AUTO 00000KT 10SM FEW043 OVC060 05/03 A3026 RMK AO2 SLP249 T00500028=
201802090953 METAR KPAE 090953Z AUTO 00000KT 10SM OVC060 06/03 A3025 RMK AO2 SLP246 T00560028=
201802090853 METAR KPAE 090853Z AUTO 00000KT 10SM BKN050 OVC060 06/03 A3025 RMK AO2 SLP245 T00560028 50008=
201802090753 METAR KPAE 090753Z AUTO 30005KT 10SM BKN055 OVC080 06/02 A3025 RMK AO2 SLP245 T00610022 401060050=
201802090653 METAR KPAE 090653Z AUTO 32004KT 10SM BKN060 06/02 A3023 RMK AO2 SLP241 T00610022=
201802090553 METAR KPAE 090553Z AUTO 00000KT 10SM FEW036 BKN070 06/03 A3022 RMK AO2 SLP237 60002 T00610028 10078 20050 53010=
201802090453 METAR KPAE 090453Z AUTO 16003KT 10SM BKN055 05/03 A3021 RMK AO2 SLP234 T00500033=
201802090353 METAR KPAE 090353Z 33003KT 10SM SCT060 06/03 A3019 RMK AO2 SLP228 T00610028=
201802090253 METAR KPAE 090253Z 36003KT 10SM OVC060 07/03 A3019 RMK AO2 SLP226 60002 T00720033 53011=
201802090153 METAR KPAE 090153Z 00000KT 10SM FEW040 07/04 A3017 RMK AO2 RAB16E32 SLP218 P0002 T00720039=
201802090130 SPECI KPAE 090130Z 28008KT 230V310 10SM -RA SCT026 BKN032 OVC041 07/05 A3016 RMK AO2 RAB16 P0002 T00720050=
201802090053 METAR KPAE 090053Z 30006KT 10SM SCT024 BKN029 07/06 A3016 RMK AO2 RAE2358 SLP215 P0000 T00720061=
201802090018 SPECI KPAE 090018Z 32007KT 10SM SCT003 OVC016 07/07 A3016 RMK AO2 RAE2358 P0000 T00720067=
201802082353 METAR KPAE 082353Z 33007KT 1 1/2SM -RA BR BKN003 OVC014 08/07 A3016 RMK AO2 SLP215 P0003 60010 T00780072 10094 20072 53001=
201802082334 SPECI KPAE 082334Z 32007KT 1/4SM R16R/4500VP6000FT -RA FG OVC001 08/07 A3015 RMK AO2 P0003 T00780072=
201802082318 SPECI KPAE 082318Z 33006KT 1/4SM R16R/3500V5500FT -RA FG VV002 08/07 A3015 RMK AO2 P0002 T00780072=
201802082253 METAR KPAE 082253Z 32012KT 1/2SM R16R/4500VP6000FT -RA FG BKN003 OVC008 08/08 A3014 RMK AO2 RAE2158B37 SLP210 P0003 T00780078=
201802082231 SPECI KPAE 082231Z 35004KT 1/2SM R16R/3500VP6000FT FG BKN002 OVC008 08/08 A3014 RMK AO2 RAE2158 P0001 T00830083=
201802082200 SPECI KPAE 082200Z 33004KT 1 1/2SM BR BKN006 OVC010 08/08 A3015 RMK AO2 RAE2158 P0001 T00830083=
201802082153 METAR KPAE 082153Z 33004KT 1 1/2SM -RA BR BKN003 OVC010 09/08 A3015 RMK AO2 SLP212 P0001 T00890083=
201802082134 SPECI KPAE 082134Z 25003KT 1SM R16R/P6000FT -RA BR BKN003 OVC010 08/08 A3016 RMK AO2 P0001 T00830083=
201802082115 SPECI KPAE 082115Z 24003KT 1/2SM R16R/6000VP6000FT -RA FG OVC003 09/08 A3016 RMK AO2 P0001 T00890083=
201802082053 METAR KPAE 082053Z 21004KT 1 1/2SM -RA BR BKN003 OVC009 09/08 A3016 RMK AO2 SLP214 P0002 60003 T00890083 50003=
201802082000 SPECI KPAE 082000Z 18008KT 1 3/4SM R16R/5000VP6000FT -RA BR BKN003 OVC010 09/08 A3016 RMK AO2 P0000 T00940083=
201802081953 METAR KPAE 081953Z 19008KT 2 1/2SM R16R/5000VP6000FT -RA BR OVC004 09/08 A3016 RMK AO2 RAB1854E03B08E20B40 SLP215 P0001 T00890083=
201802081911 SPECI KPAE 081911Z 18007KT 2 1/2SM -RA BR OVC004 09/08 A3016 RMK AO2 RAB1854E03B08 P0000 T00890083=
201802081903 SPECI KPAE 081903Z 17010KT 4SM BR OVC004 09/08 A3016 RMK AO2 RAB1854E03 P0000 T00890083=
201802081853 METAR KPAE 081853Z 17011KT 2SM BR OVC004 09/08 A3016 RMK AO2 RAB03E09 SLP214 P0000 T00890083=
201802081810 SPECI KPAE 081810Z 16012KT 2 1/2SM BR BKN006 OVC014 09/08 A3015 RMK AO2 RAB03E09 P0000 T00890083=
201802081800 SPECI KPAE 081800Z 15012KT 1 3/4SM BR OVC005 09/08 A3015 RMK AO2 CIG 004V009 T00890083=
201802081753 METAR KPAE 081753Z 16010KT 2SM BR OVC003 09/08 A3015 RMK AO2 SLP211 T00890083 10094 20083 55000=
201802081653 METAR KPAE 081653Z 16009KT 2SM BR OVC007 09/08 A3015 RMK AO2 SLP210 T00890078=
201802081553 METAR KPAE 081553Z 15010KT 10SM BKN006 OVC014 09/07 A3014 RMK AO2 SLP209 T00890072=
201802081517 SPECI KPAE 081517Z 16009KT 10SM BKN006 OVC014 08/07 A3014 RMK AO2 T00830072=
201802081453 METAR KPAE 081453Z 16008KT 10SM BKN010 BKN014 OVC026 09/07 A3015 RMK AO2 CIG 008V012 SLP211 T00890072 53005=
201802081353 METAR KPAE 081353Z AUTO 16010KT 10SM OVC011 09/07 A3014 RMK AO2 SLP208 T00890072=
201802081312 SPECI KPAE 081312Z AUTO 17010KT 10SM BKN011 OVC070 09/07 A3014 RMK AO2 T00890067=
201802081253 METAR KPAE 081253Z AUTO 16013KT 10SM FEW011 OVC070 09/07 A3013 RMK AO2 SLP206 T00890067=
201802081242 SPECI KPAE 081242Z AUTO 16012KT 10SM FEW013 OVC070 09/07 A3014 RMK AO2 T00890067=
201802081153 METAR KPAE 081153Z AUTO 18012G21KT 10SM OVC014 09/07 A3013 RMK AO2 PK WND 16029/1107 SLP206 T00940067 10106 20094 55003=
201802081129 SPECI KPAE 081129Z AUTO 17015G23KT 10SM OVC014 09/07 A3012 RMK AO2 PK WND 16029/1107 T00940072=
201802081053 METAR KPAE 081053Z AUTO 16021G29KT 10SM BKN016 BKN110 10/07 A3013 RMK AO2 PK WND 15030/1015 SLP203 T01000072=
201802081051 SPECI KPAE 081051Z AUTO 16020G28KT 10SM BKN016 BKN110 10/07 A3013 RMK AO2 PK WND 15030/1015=
201802081014 SPECI KPAE 081014Z AUTO 15019KT 10SM SCT022 BKN110 10/07 A3013 RMK AO2 T01000072=
201802080953 METAR KPAE 080953Z AUTO 14011KT 10SM OVC020 10/07 A3014 RMK AO2 SLP209 T01000072=
201802080908 SPECI KPAE 080908Z AUTO 12010KT 10SM BKN024 OVC110 10/08 A3015 RMK AO2 T01000078=
201802080853 METAR KPAE 080853Z AUTO 13010KT 10SM FEW022 BKN110 10/08 A3016 RMK AO2 SLP215 T01000078 58024=
201802080753 METAR KPAE 080753Z AUTO 14011KT 10SM FEW018 BKN120 10/08 A3018 RMK AO2 SLP222 T01000078 401060072=
201802080727 SPECI KPAE 080727Z AUTO 13015KT 10SM SCT019 SCT023 BKN120 10/08 A3020 RMK AO2 T01000078=
201802080653 METAR KPAE 080653Z AUTO 12008KT 10SM BKN018 OVC110 10/08 A3021 RMK AO2 SLP233 T01000078=
201802080601 SPECI KPAE 080601Z AUTO 14009KT 10SM BKN019 10/08 A3024 RMK AO2 T01000078=
201802080553 METAR KPAE 080553Z AUTO 13010KT 10SM SCT019 BKN120 10/08 A3023 RMK AO2 SLP240 T01000078 10106 20100 56022=
201802080502 SPECI KPAE 080502Z AUTO 12008KT 10SM SCT019 10/08 A3025 RMK AO2 T01000078=
201802080453 METAR KPAE 080453Z 12006KT 10SM BKN021 10/08 A3025 RMK AO2 SLP245 T01000078=
201802080353 METAR KPAE 080353Z 11004KT 10SM OVC017 11/07 A3027 RMK AO2 SLP253 T01060072=
201802080253 METAR KPAE 080253Z 12006KT 10SM OVC016 10/07 A3030 RMK AO2 SLP262 T01000072 58013=
201802080153 METAR KPAE 080153Z 11005KT 10SM OVC015 10/07 A3033 RMK AO2 SLP273 T01000067=
201802080150 SPECI KPAE 080150Z 00000KT 10SM OVC015 10/07 A3033 RMK AO2=
201802080053 METAR KPAE 080053Z 12005KT 10SM OVC014 10/07 A3034 RMK AO2 SLP276 T01000072=
201802072353 METAR KPAE 072353Z AUTO 15007KT 10SM OVC015 10/07 A3034 RMK AO2 SLP277 T01000072 10106 20083 56012=
201802072339 SPECI KPAE 072339Z 14006KT 10SM OVC015 10/07 A3034 RMK AO2 T01000072=
201802072301 SPECI KPAE 072301Z 13008KT 10SM OVC013 10/07 A3035 RMK AO2 T01000072=
201802072253 METAR KPAE 072253Z 15008KT 10SM OVC015 10/07 A3035 RMK AO2 SLP279 T01000072=
201802072153 METAR KPAE 072153Z 14011KT 10SM OVC015 10/07 A3036 RMK AO2 SLP284 T01000072=
201802072053 METAR KPAE 072053Z 15011KT 10SM OVC014 10/08 A3038 RMK AO2 SLP289 T01000078 58013=
201802071953 METAR KPAE 071953Z 15009KT 10SM OVC010 09/07 A3041 RMK AO2 SLP299 T00940072=
201802071853 METAR KPAE 071853Z 13007KT 10SM OVC008 09/07 A3041 RMK AO2 SLP300 T00890072=
201802071753 METAR KPAE 071753Z 15004KT 8SM OVC004 08/07 A3042 RMK AO2 SLP303 T00830067 10083 20072 53015=
201802071653 METAR KPAE 071653Z 15006KT 9SM OVC008 08/07 A3040 RMK AO2 SLP296 T00780067=
201802071638 SPECI KPAE 071638Z 13007KT 10SM OVC009 08/07 A3038 RMK AO2 T00780067=
201802071630 SPECI KPAE 071630Z 13005KT 10SM OVC010 08/07 A3039 RMK AO2 T00780067=
201802071553 METAR KPAE 071553Z 14006KT 6SM BR FEW003 OVC008 08/07 A3038 RMK AO2 SLP290 T00780067=
201802071453 METAR KPAE 071453Z 14005KT 10SM OVC007 08/07 A3037 RMK AO2 SLP288 T00780067 51001=
201802071353 METAR KPAE 071353Z AUTO 15008KT 9SM OVC007 07/07 A3037 RMK AO2 CIG 004V013 SLP287 T00720067=
201802071253 METAR KPAE 071253Z AUTO 14007KT 8SM OVC009 07/07 A3038 RMK AO2 CIG 005V012 SLP290 T00720067=
201802071153 METAR KPAE 071153Z AUTO 13008KT 10SM FEW008 OVC013 08/07 A3037 RMK AO2 SLP287 60003 70008 T00780067 10078 20072 51001=
201802071133 SPECI KPAE 071133Z AUTO 12005KT 10SM FEW008 OVC013 08/07 A3037 RMK AO2 T00780067=
201802071053 METAR KPAE 071053Z AUTO 13006KT 10SM OVC012 08/07 A3037 RMK AO2 SLP287 T00780067=
201802071022 SPECI KPAE 071022Z AUTO 13006KT 9SM SCT006 OVC012 07/07 A3037 RMK AO2 T00720072=
201802070953 METAR KPAE 070953Z AUTO 13007KT 4SM BR OVC010 07/07 A3037 RMK AO2 RAE34 CIG 006V014 SLP287 P0001 T00720067=
201802070935 SPECI KPAE 070935Z AUTO 13006KT 4SM BR BKN008 OVC016 08/07 A3038 RMK AO2 RAE34 CIG 006V013 P0001 T00780067=
201802070853 METAR KPAE 070853Z AUTO 12005KT 9SM -RA OVC013 08/07 A3037 RMK AO2 RAB51 SLP287 P0000 60002 T00780067 53005=
201802070813 SPECI KPAE 070813Z AUTO 12008KT 10SM FEW008 OVC014 07/07 A3035 RMK AO2 T00720067=
201802070753 METAR KPAE 070753Z AUTO 13008KT 10SM OVC014 07/07 A3036 RMK AO2 RAB0658E38 SLP283 P0002 T00720067 400830061=
201802070719 SPECI KPAE 070719Z AUTO 13007KT 6SM -RA BR FEW008 OVC013 07/07 A3036 RMK AO2 RAB0658 P0001 T00720067=
201802070653 METAR KPAE 070653Z AUTO 12007KT 7SM OVC010 07/07 A3036 RMK AO2 RAB27E48 SLP282 P0000 T00720067=
201802070553 METAR KPAE 070553Z AUTO 13010KT 9SM SCT007 OVC013 07/07 A3035 RMK AO2 RAE11 SLP281 P0001 60005 T00720067 10078 20072 58000=
201802070539 SPECI KPAE 070539Z AUTO 13008KT 6SM BR SCT005 OVC011 07/07 A3036 RMK AO2 RAE11 P0001 T00720067=
201802070453 METAR KPAE 070453Z AUTO VRB05KT 3SM -RA BR BKN005 OVC010 07/07 A3037 RMK AO2 CIG 003V007 SLP288 P0001 T00720067=
201802070437 SPECI KPAE 070437Z 13005KT 3SM -RA BR BKN005 OVC012 07/07 A3037 RMK AO2 CIG 003V009 P0001 T00720067=
201802070424 SPECI KPAE 070424Z 12005KT 2 1/2SM -RA BR BKN005 OVC011 07/07 A3036 RMK AO2 CIG 003V009 P0001 T00720067=
201802070417 SPECI KPAE 070417Z 12006KT 2 1/2SM -RA BR SCT005 OVC013 07/07 A3036 RMK AO2 P0000 T00720072=
201802070401 SPECI KPAE 070401Z 12006KT 3SM -RA BR BKN006 BKN010 OVC013 07/07 A3037 RMK AO2 CIG 003V008 P0000 T00720072=
201802070353 METAR KPAE 070353Z 11005KT 2 1/2SM -RA BR BKN006 OVC011 07/07 A3036 RMK AO2 RAE08B30 CIG 003V008 SLP284 P0001 T00720072=
201802070324 SPECI KPAE 070324Z 11006KT 2 1/2SM BR BKN008 OVC012 07/07 A3036 RMK AO2 RAE08 CIG 004V010 P0000 T00720067=
201802070312 SPECI KPAE 070312Z 12005KT 3SM BR BKN008 OVC014 07/07 A3036 RMK AO2 RAE08 CIG 005V010 P0000 T00720067=
201802070253 METAR KPAE 070253Z 12006KT 2 1/2SM -RA BR FEW006 FEW010 OVC014 07/07 A3035 RMK AO2 RAB44 SLP282 P0001 60002 T00720067 53004=
201802070247 SPECI KPAE 070247Z 12006KT 3SM -RA BR FEW008 OVC014 07/07 A3035 RMK AO2 RAB44 P0000=
201802070232 SPECI KPAE 070232Z 12004KT 3SM BR OVC015 07/07 A3036 RMK AO2 T00720067=
201802070214 SPECI KPAE 070214Z 12007KT 2 1/2SM BR OVC015 07/07 A3035 RMK AO2 T00720067=
201802070153 METAR KPAE 070153Z 13006KT 9SM OVC015 07/06 A3035 RMK AO2 SLP281 T00720061=
201802070053 METAR KPAE 070053Z 12006KT 10SM OVC020 08/06 A3034 RMK AO2 RAB07E51 SLP278 P0001 T00780061=
201802070000 SPECI KPAE 070000Z 13007KT 10SM SCT016 BKN021 OVC055 08/06 A3034 RMK AO2 T00780061=
201802062353 METAR KPAE 062353Z 14006KT 10SM BKN011 OVC027 08/06 A3034 RMK AO2 RAB2254E27 SLP278 P0000 60000 T00780061 10083 20072 53002=
201802062253 METAR KPAE 062253Z 15006KT 10SM BKN011 BKN027 OVC060 08/06 A3034 RMK AO2 SLP277 T00780061=
201802062250 SPECI KPAE 062250Z 15006KT 10SM BKN011 BKN027 OVC060 08/06 A3034 RMK AO2=
201802062153 METAR KPAE 062153Z 15007KT 10SM SCT010 OVC024 08/06 A3034 RMK AO2 SLP276 T00780061=
201802062053 METAR KPAE 062053Z 13008KT 10SM SCT004 OVC016 07/06 A3035 RMK AO2 SLP280 T00720056 50005=
201802062026 SPECI KPAE 062026Z 14007KT 10SM SCT004 OVC016 07/06 A3035 RMK AO2 T00720061=
201802061953 METAR KPAE 061953Z 13010KT 10SM OVC016 07/06 A3035 RMK AO2 SLP281 T00720056=
201802061900 SPECI KPAE 061900Z 15009KT 10SM BKN009 OVC014 07/06 A3035 RMK AO2 T00720061=
201802061853 METAR KPAE 061853Z 15009KT 10SM SCT009 OVC014 07/06 A3035 RMK AO2 SLP281 T00720061=
201802061803 SPECI KPAE 061803Z 14008KT 10SM OVC009 07/06 A3033 RMK AO2 T00720061=
201802061800 SPECI KPAE 061800Z 13008KT 10SM OVC012 07/06 A3033 RMK AO2 T00720061=
201802061753 METAR KPAE 061753Z 13008KT 5SM BR BKN004 OVC032 07/06 A3033 RMK AO2 SLP275 T00720056 10072 20061 51014=
201802061704 SPECI KPAE 061704Z 12007KT 5SM BR BKN004 OVC032 07/06 A3033 RMK AO2 T00670056=
201802061653 METAR KPAE 061653Z 12006KT 2 1/2SM BR FEW004 OVC032 07/06 A3033 RMK AO2 SLP273 T00670056=
201802061624 SPECI KPAE 061624Z VRB04KT 2 1/2SM BR FEW004 BKN017 OVC026 07/06 A3032 RMK AO2 T00670061=
201802061622 SPECI KPAE 061622Z 11005KT 2 1/2SM BR FEW004 SCT017 OVC026 07/06 A3032 RMK AO2 T00670061=
201802061556 SPECI KPAE 061556Z 12006KT 1SM R16R/P6000FT BR FEW004 OVC019 07/06 A3031 RMK AO2 T00670056=
201802061553 METAR KPAE 061553Z 12006KT 2SM BR FEW014 OVC019 07/06 A3031 RMK AO2 SLP268 T00670056=
201802061535 SPECI KPAE 061535Z 12006KT 2 1/2SM BR FEW012 BKN022 OVC027 07/06 A3031 RMK AO2 T00670056=
201802061527 SPECI KPAE 061527Z 12005KT 7SM FEW009 SCT015 OVC025 07/06 A3030 RMK AO2 T00670056=
201802061453 METAR KPAE 061453Z 13004KT 5SM BR OVC012 07/06 A3029 RMK AO2 SLP262 T00670056 53011 $=
201802061409 SPECI KPAE 061409Z 13005KT 10SM FEW004 BKN011 OVC018 07/06 A3028 RMK AO2 T00670061 $=
201802061402 SPECI KPAE 061402Z 13003KT 10SM SCT011 BKN018 OVC032 07/06 A3028 RMK AO2 T00670056 $=
201802061353 METAR KPAE 061353Z 13003KT 10SM FEW009 SCT018 OVC034 07/06 A3027 RMK AO2 SLP254 T00670056 $=
201802061253 METAR KPAE 061253Z 00000KT 10SM FEW012 BKN037 OVC050 07/06 A3027 RMK AO2 SLP252 T00670056 $=
201802061153 METAR KPAE 061153Z 00000KT 10SM SCT010 OVC034 07/06 A3026 RMK AO2 SLP250 60006 70022 T00670061 10067 20067 53009 $=
201802061142 SPECI KPAE 061142Z 00000KT 10SM SCT008 OVC034 07/06 A3026 RMK AO2 T00670061 $=
201802061121 SPECI KPAE 061121Z 00000KT 10SM BKN008 BKN019 OVC035 07/06 A3026 RMK AO2 CIG 006V011 T00670056 $=
201802061109 SPECI KPAE 061109Z 00000KT 10SM SCT008 OVC019 07/06 A3025 RMK AO2 T00670061 $=
201802061053 METAR KPAE 061053Z 00000KT 10SM OVC017 07/06 A3025 RMK AO2 RAE16 SLP246 P0000 T00670061 $=
201802061034 SPECI KPAE 061034Z 00000KT 10SM FEW006 OVC016 07/06 A3025 RMK AO2 RAE16 P0000 T00670061 $=
201802061016 SPECI KPAE 061016Z 00000KT 5SM BR BKN005 OVC015 07/06 A3025 RMK AO2 RAE16 CIG 003V009 P0000 T00670061 $=
201802060953 METAR KPAE 060953Z VRB03KT 2SM -RA BR OVC006 07/06 A3024 RMK AO2 CIG 002V011 SLP243 P0004 T00670061 $=
201802060931 SPECI KPAE 060931Z 00000KT 2SM -RA BR OVC006 07/06 A3024 RMK AO2 P0002 T00670061 $=
201802060928 SPECI KPAE 060928Z 00000KT 1 3/4SM -RA BR OVC004 07/06 A3024 RMK AO2 P0002 T00670061 $=
201802060853 METAR KPAE 060853Z 00000KT 2SM -RA BR OVC006 07/07 A3023 RMK AO2 RAB22 SLP241 P0001 60002 T00670067 51012 $=
201802060831 SPECI KPAE 060831Z 00000KT 2 1/2SM -RA BR OVC007 07/07 A3023 RMK AO2 RAB22 P0000 T00670067 $=
201802060800 SPECI KPAE 060800Z 00000KT 10SM BKN008 OVC018 07/06 A3022 RMK AO2 T00670061 $=
201802060753 METAR KPAE 060753Z 00000KT 10SM SCT008 OVC018 07/06 A3022 RMK AO2 RAB0654E03 SLP237 P0000 T00670061 400890067 $=
201802060739 SPECI KPAE 060739Z 00000KT 10SM SCT006 OVC016 07/07 A3021 RMK AO2 RAB0654E03 P0000 T00670067 $=
201802060653 METAR KPAE 060653Z 00000KT 9SM BKN005 OVC016 07/07 A3021 RMK AO2 RAE26 SLP234 P0001 T00670067 $=
201802060630 SPECI KPAE 060630Z 00000KT 7SM BKN005 OVC015 07/06 A3021 RMK AO2 RAE26 P0001 T00670061 $=
201802060609 SPECI KPAE 060609Z 00000KT 3SM -RA BR OVC003 07/07 A3020 RMK AO2 P0001 T00670067 $=
201802060600 SPECI KPAE 060600Z 00000KT 2 1/2SM -RA BR OVC003 07/07 A3020 RMK AO2 P0001 T00670067 $=
201802060553 METAR KPAE 060553Z 00000KT 1 3/4SM -RA BR OVC003 07/07 A3020 RMK AO2 SLP229 P0002 60007 T00670067 10078 20067 51005 $=
201802060549 SPECI KPAE 060549Z 00000KT 1 1/2SM -RA BR OVC003 07/07 A3020 RMK AO2 P0002 $=
201802060520 SPECI KPAE 060520Z 32003KT 1/2SM R16R/3000VP6000FT -RA FG VV002 07/07 A3020 RMK AO2 P0001 T00670067 $=
201802060507 SPECI KPAE 060507Z 00000KT 1/4SM R16R/2200VP6000FT -RA FG VV002 07/07 A3019 RMK AO2 P0000 T00670067 $=
201802060500 SPECI KPAE 060500Z AUTO 34004KT 1/2SM R16R/2600VP6000FT -RA FG VV002 07/07 A3019 RMK AO2 P0000 T00670067 $=
201802060453 METAR KPAE 060453Z 34003KT 3SM R16R/2800VP6000FT -RA BR OVC002 07/07 A3019 RMK AO2 SLP225 P0002 T00670067 $=
201802060353 METAR KPAE 060353Z 36006KT 3SM -RA BR BKN003 OVC026 07/07 A3018 RMK AO2 RAB16 SLP224 P0001 T00720067 $=
201802060253 METAR KPAE 060253Z VRB03KT 9SM BKN003 OVC015 07/07 A3016 RMK AO2 RAE15 SLP217 P0000 60002 T00720067 50000 $=
201802060153 METAR KPAE 060153Z 01003KT 8SM -RA BKN003 BKN015 OVC046 07/07 A3016 RMK AO2 RAE36B47 SLP217 P0001 T00720067 $=
201802060137 SPECI KPAE 060137Z 35004KT 9SM SCT003 BKN017 OVC046 07/07 A3016 RMK AO2 RAE36 P0001 T00720067 $=
201802060056 SPECI KPAE 060056Z 33006KT 3SM -RA BR BKN003 OVC025 07/07 A3017 RMK AO2 CIG 001V006 P0000 T00720067 $=
201802060053 METAR KPAE 060053Z 33005KT 2 1/2SM -RA BR BKN005 BKN018 OVC025 07/07 A3017 RMK AO2 RAB18 SLP218 P0001 T00720067 $=
201802060039 SPECI KPAE 060039Z 34005KT 4SM -RA BR BKN005 BKN018 OVC025 08/07 A3017 RMK AO2 RAB18 P0000 T00780067 $=
201802060031 SPECI KPAE 060031Z 34006KT 6SM -RA BR FEW005 BKN018 OVC025 07/07 A3016 RMK AO2 RAB18 P0000 T00720067 $=
201802052353 METAR KPAE 052353Z 33005KT 10SM BKN016 OVC025 08/06 A3016 RMK AO2 SLP217 T00780061 10089 20072 53005 $=
201802052253 METAR KPAE 052253Z 23004KT 10SM OVC019 08/06 A3015 RMK AO2 SLP214 T00830061 $=
201802052153 METAR KPAE 052153Z 21008KT 10SM BKN017 OVC037 08/06 A3015 RMK AO2 SLP211 T00830061 $=
201802052131 SPECI KPAE 052131Z 16009KT 10SM OVC016 09/06 A3015 RMK AO2 T00890061 $=
201802052053 METAR KPAE 052053Z 16011KT 10SM OVC014 08/06 A3015 RMK AO2 SLP211 T00830061 58006 $=
201802051953 METAR KPAE 051953Z 18006KT 10SM FEW001 OVC012 08/07 A3017 RMK AO2 SLP218 T00830067 $=
201802051938 SPECI KPAE 051938Z 17006KT 10SM FEW001 OVC012 08/06 A3017 RMK AO2 T00830061 $=
201802051853 METAR KPAE 051853Z 18006KT 10SM OVC009 08/07 A3018 RMK AO2 SLP220 T00780067 $=
201802051753 METAR KPAE 051753Z 18007KT 10SM OVC009 07/06 A3017 RMK AO2 SLP217 60009 T00720061 10072 20067 $=
201802051653 METAR KPAE 051653Z 14004KT 7SM OVC009 07/06 A3016 RMK AO2 RAB1557E07 SLP216 P0000 T00720061 $=
201802051553 METAR KPAE 051553Z 16004KT 10SM OVC009 07/06 A3017 RMK AO2 SLP217 T00720061=
201802051453 METAR KPAE 051453Z 18004KT 10SM OVC009 07/06 A3016 RMK AO2 RAE36 SLP215 P0003 60009 T00720061 51006=
201802051422 SPECI KPAE 051422Z AUTO 00000KT 6SM -RA BR OVC010 07/07 A3015 RMK AO2 P0003 T00720067=
201802051353 METAR KPAE 051353Z AUTO 26003KT 3SM -RA BR OVC008 07/06 A3015 RMK AO2 SLP212 P0003 T00720061=
201802051307 SPECI KPAE 051307Z AUTO 16003KT 8SM -RA OVC009 07/06 A3015 RMK AO2 CIG 008V013 P0000 T00720061=
201802051253 METAR KPAE 051253Z AUTO 17004KT 6SM -RA BR OVC010 07/06 A3015 RMK AO2 RAB12 SLP213 P0003 T00720061=
201802051153 METAR KPAE 051153Z AUTO 17009KT 10SM OVC010 07/06 A3014 RMK AO2 RAB29E49 SLP208 P0000 60001 70010 T00720061 10094 20072 58001=
201802051149 SPECI KPAE 051149Z AUTO 16007KT 10SM OVC009 07/06 A3014 RMK AO2 RAB29E49 P0000=
201802051139 SPECI KPAE 051139Z AUTO 15006KT 4SM -RA BR OVC010 07/06 A3014 RMK AO2 RAB29 P0000 T00720061=
201802051053 METAR KPAE 051053Z AUTO 17006KT 10SM OVC007 07/06 A3015 RMK AO2 RAE05 SLP210 P0001 T00720061=
201802051005 SPECI KPAE 051005Z AUTO 16008KT 10SM BKN007 BKN015 OVC047 07/06 A3014 RMK AO2 RAE05 P0001 T00720061=
201802050953 METAR KPAE 050953Z AUTO 17008KT 10SM -RA SCT007 BKN015 OVC048 07/06 A3014 RMK AO2 RAB25 SLP209 P0000 T00720061=
201802050943 SPECI KPAE 050943Z AUTO 16010KT 10SM -RA SCT007 BKN013 OVC037 08/06 A3014 RMK AO2 RAB25 P0000 T00780061=
201802050853 METAR KPAE 050853Z AUTO 15009KT 10SM BKN008 OVC014 08/07 A3014 RMK AO2 SLP209 T00780067 51006=
201802050837 SPECI KPAE 050837Z AUTO 16008KT 10SM BKN009 OVC014 08/07 A3014 RMK AO2 CIG 008V013 T00830067=
201802050809 SPECI KPAE 050809Z AUTO 16010KT 10SM OVC013 08/07 A3014 RMK AO2 T00830072=
201802050753 METAR KPAE 050753Z AUTO 16008KT 10SM FEW009 OVC015 08/07 A3014 RMK AO2 SLP209 T00830072 401280083=
201802050746 SPECI KPAE 050746Z AUTO 16006KT 10SM OVC015 08/07 A3014 RMK AO2 T00830072=
201802050653 METAR KPAE 050653Z AUTO 18008KT 10SM OVC012 09/07 A3013 RMK AO2 SLP204 T00890072=
201802050639 SPECI KPAE 050639Z AUTO 18008KT 10SM BKN012 OVC018 09/07 A3013 RMK AO2 T00890072=
201802050610 SPECI KPAE 050610Z AUTO 19003KT 10SM OVC016 09/08 A3013 RMK AO2 T00940078=
201802050553 METAR KPAE 050553Z AUTO 18005KT 10SM BKN011 OVC017 09/08 A3012 RMK AO2 SLP203 T00890078 10100 20089 51012=
201802050521 SPECI KPAE 050521Z AUTO 19006KT 10SM BKN014 OVC028 09/08 A3012 RMK AO2 T00940078=
201802050503 SPECI KPAE 050503Z AUTO 15005KT 10SM BKN028 BKN038 09/07 A3012 RMK AO2 T00890072=
201802050453 METAR KPAE 050453Z AUTO 16005KT 10SM SCT028 BKN035 09/07 A3012 RMK AO2 SLP200 T00890072=
201802050426 SPECI KPAE 050426Z 15008KT 10SM SCT016 BKN035 09/07 A3011 RMK AO2 T00940072=
201802050410 SPECI KPAE 050410Z 14007KT 10SM BKN015 09/07 A3010 RMK AO2 T00940072=
201802050353 METAR KPAE 050353Z 14009KT 10SM OVC014 09/07 A3011 RMK AO2 SLP196 T00940072=
201802050253 METAR KPAE 050253Z 17010KT 10SM OVC017 10/08 A3009 RMK AO2 SLP191 T01000078 53009=
201802050153 METAR KPAE 050153Z VRB04KT 10SM FEW016 OVC022 09/08 A3007 RMK AO2 SLP186 T00940078=
201802050100 SPECI KPAE 050100Z 00000KT 10SM BKN015 OVC020 09/08 A3006 RMK AO2 T00940078=
201802050053 METAR KPAE 050053Z 03003KT 10SM BKN007 09/08 A3007 RMK AO2 SLP183 T00940078=
201802050011 SPECI KPAE 050011Z 33004KT 10SM BKN009 OVC013 09/08 A3007 RMK AO2 T00940083=
201802042353 METAR KPAE 042353Z AUTO 36005KT 10SM BKN009 OVC013 10/08 A3006 RMK AO2 SLP182 60003 T01000083 10128 20100 55000=
201802042321 SPECI KPAE 042321Z 33006KT 10SM BKN004 OVC026 10/09 A3007 RMK AO2 T01000094=
201802042253 METAR KPAE 042253Z 26006KT 10SM FEW004 SCT014 BKN024 11/09 A3006 RMK AO2 SLP181 T01060089=
201802042157 SPECI KPAE 042157Z 18009KT 10SM FEW009 SCT011 BKN015 13/11 A3005 RMK AO2 T01280106=
201802042153 METAR KPAE 042153Z 17011KT 10SM BKN009 BKN014 12/11 A3005 RMK AO2 SLP176 T01220106=
201802042053 METAR KPAE 042053Z 18007KT 10SM BKN007 OVC009 11/10 A3006 RMK AO2 RAE11 SLP182 P0000 60003 T01110100 58007=
201802042020 SPECI KPAE 042020Z 14006KT 10SM BKN007 BKN070 OVC090 11/10 A3006 RMK AO2 RAE11 P0000 T01110100=
201802041955 SPECI KPAE 041955Z 14009KT 10SM -RA FEW003 BKN014 OVC090 11/10 A3006 RMK AO2 P0000 T01060100=
201802041953 METAR KPAE 041953Z 13008KT 5SM -RA BR BKN006 OVC016 11/10 A3006 RMK AO2 RAB03 PRESFR SLP182 P0003 T01060100=
201802041853 METAR KPAE 041853Z 15011KT 10SM BKN006 OVC016 11/09 A3011 RMK AO2 SLP197 T01060094=
201802041800 SPECI KPAE 041800Z 13009KT 10SM BKN006 OVC013 10/09 A3008 RMK AO2 T01000094=
201802041753 METAR KPAE 041753Z 15008KT 2 1/2SM BR BKN003 OVC013 10/09 A3009 RMK AO2 SLP190 60006 T01000094 10100 20089 58005=
201802041751 SPECI KPAE 041751Z 14008KT 2 1/2SM BR BKN003 OVC013 10/09 A3008 RMK AO2=
201802041704 SPECI KPAE 041704Z 17008KT 2 1/2SM BR OVC005 10/09 A3011 RMK AO2 T01000094=
201802041653 METAR KPAE 041653Z 16008KT 2 1/2SM BR OVC004 10/09 A3011 RMK AO2 SLP196 T01000094=
201802041604 SPECI KPAE 041604Z 15010KT 2SM BR OVC004 09/09 A3010 RMK AO2 T00940089=
201802041553 METAR KPAE 041553Z 15008KT 6SM BR OVC004 09/09 A3010 RMK AO2 SLP195 T00940094=
201802041500 SPECI KPAE 041500Z 14007KT 4SM BR OVC004 09/09 A3010 RMK AO2 T00940094=
201802041453 METAR KPAE 041453Z 13011KT 1SM R16R/P6000FT BR OVC004 09/09 A3010 RMK AO2 RAE51 SLP194 P0003 60006 T00940094 58015=
201802041429 SPECI KPAE 041429Z AUTO 12007KT 5SM -RA BR OVC004 09/09 A3011 RMK AO2 P0003 T00940089=
201802041353 METAR KPAE 041353Z AUTO 15008KT 5SM -RA BR OVC005 09/09 A3012 RMK AO2 SLP202 P0003 T00890089=
201802041253 METAR KPAE 041253Z AUTO 14008KT 10SM -RA OVC005 09/08 A3014 RMK AO2 SLP208 P0000 T00890083=
201802041153 METAR KPAE 041153Z AUTO 13010KT 10SM -RA OVC006 09/08 A3014 RMK AO2 SLP210 P0002 60020 70067 T00890078 10089 20083 58009=
201802041053 METAR KPAE 041053Z AUTO 16011KT 10SM -RA OVC006 08/08 A3017 RMK AO2 RAE08B50 SLP217 P0000 T00830078=
201802041004 SPECI KPAE 041004Z AUTO 15009KT 10SM -RA BKN009 OVC012 08/08 A3017 RMK AO2 P0000 T00830078=
201802040953 METAR KPAE 040953Z AUTO 15011KT 10SM -RA OVC011 08/08 A3017 RMK AO2 SLP220 P0000 T00830078=
201802040938 SPECI KPAE 040938Z AUTO 15010KT 10SM -RA OVC012 08/08 A3018 RMK AO2 P0000 T00830078=
201802040853 METAR KPAE 040853Z AUTO 15011KT 10SM -RA OVC007 08/08 A3017 RMK AO2 RAE16B18 CIG 006V011 SLP219 P0003 60018 T00830078 58010=
201802040817 SPECI KPAE 040817Z AUTO 15011KT 10SM BKN008 BKN013 OVC032 08/08 A3019 RMK AO2 RAE16 P0001 T00830078=
201802040753 METAR KPAE 040753Z AUTO 15013KT 5SM -RA BR FEW007 BKN013 OVC035 08/08 A3019 RMK AO2 SLP226 P0006 T00830078 401000083=
201802040709 SPECI KPAE 040709Z AUTO 15011KT 8SM -RA FEW008 BKN013 OVC038 08/08 A3020 RMK AO2 P0001 T00830078=
201802040653 METAR KPAE 040653Z AUTO 16013KT 5SM RA BR SCT008 BKN015 OVC038 08/08 A3020 RMK AO2 SLP230 P0009 T00830078=
201802040649 SPECI KPAE 040649Z AUTO 16012KT 6SM -RA BR SCT008 BKN013 OVC038 08/08 A3020 RMK AO2 P0008=
201802040632 SPECI KPAE 040632Z AUTO 16012KT 7SM -RA BKN007 OVC012 08/08 A3020 RMK AO2 P0006 T00830078=
201802040553 METAR KPAE 040553Z AUTO 16013KT 4SM RA BR FEW007 BKN012 OVC018 08/08 A3021 RMK AO2 SLP232 P0011 60041 T00830078 10100 20083 56008=
201802040540 SPECI KPAE 040540Z AUTO 16012KT 6SM -RA BR SCT008 BKN013 OVC019 08/08 A3022 RMK AO2 P0008 T00830078=
201802040453 METAR KPAE 040453Z AUTO 16011KT 5SM RA BR OVC006 09/08 A3022 RMK AO2 CIG 005V010 SLP235 P0012 T00890083=
201802040353 METAR KPAE 040353Z 15009KT 6SM -RA BR OVC006 09/08 A3022 RMK AO2 SLP234 P0005 T00890083=
201802040253 METAR KPAE 040253Z 15008KT 6SM -RA BR OVC005 09/09 A3024 RMK AO2 CIG 003V008 SLP241 P0005 60013 T00940089 56007=
201802040153 METAR KPAE 040153Z 16009KT 4SM -RA BR OVC003 09/09 A3024 RMK AO2 SLP243 P0005 T00940089=
201802040151 SPECI KPAE 040151Z 16009KT 4SM -RA BR OVC003 09/09 A3025 RMK AO2 P0005=
201802040108 SPECI KPAE 040108Z 17006KT 3SM -RA BR BKN005 OVC011 09/09 A3026 RMK AO2 CIG 003V007 P0002 T00940094=
201802040053 METAR KPAE 040053Z 16007KT 4SM -RA BR BKN004 OVC012 10/09 A3026 RMK AO2 CIG 003V007 SLP248 P0003 T01000094=
201802032353 METAR KPAE 032353Z 15007KT 6SM -RA BR OVC003 10/09 A3027 RMK AO2 SLP252 P0003 60006 T01000094 10100 20094 56011=
201802032253 METAR KPAE 032253Z 16005KT 3SM -RA BR BKN005 OVC011 10/09 A3028 RMK AO2 RAB2154 SLP257 P0003 T01000094=
201802032249 SPECI KPAE 032249Z 16006KT 3SM -RA BR OVC005 10/09 A3028 RMK AO2 RAB2154 P0003=
201802032207 SPECI KPAE 032207Z 13005KT 7SM -RA BKN003 10/09 A3028 RMK AO2 RAB2154 P0001 T01000094=
201802032201 SPECI KPAE 032201Z 13006KT 7SM -RA OVC005 10/09 A3028 RMK AO2 RAB2154 CIG 004V008 P0000 T01000089=
201802032153 METAR KPAE 032153Z 15004KT 5SM BR OVC003 10/09 A3029 RMK AO2 SLP258 T01000094=
201802032053 METAR KPAE 032053Z 15008KT 7SM OVC003 09/09 A3030 RMK AO2 SLP263 T00940089 58001=
201802031953 METAR KPAE 031953Z 13006KT 6SM BR OVC008 09/08 A3031 RMK AO2 CIG 005V011 SLP265 T00940083=
201802031853 METAR KPAE 031853Z 17007KT 4SM BR OVC009 10/09 A3032 RMK AO2 SLP269 T01000089=
201802031753 METAR KPAE 031753Z 16012KT 10SM OVC009 09/08 A3031 RMK AO2 CIG 007V013 SLP265 T00940083 10094 20083 53011=
201802031653 METAR KPAE 031653Z 16013KT 5SM BR BKN009 OVC013 09/08 A3029 RMK AO2 SLP258 T00890078=
201802031553 METAR KPAE 031553Z 16013KT 6SM BR BKN006 OVC014 08/08 A3027 RMK AO2 SLP253 T00830078=
201802031453 METAR KPAE 031453Z 17011KT 5SM BR OVC006 08/08 A3027 RMK AO2 SLP253 T00830078 51008=
201802031353 METAR KPAE 031353Z AUTO 15009KT 4SM BR OVC006 08/08 A3026 RMK AO2 SLP250 T00830078=
201802031253 METAR KPAE 031253Z AUTO 16011KT 4SM BR OVC008 08/08 A3026 RMK AO2 SLP248 T00830078=
201802031233 SPECI KPAE 031233Z AUTO 16014KT 8SM OVC009 08/07 A3025 RMK AO2 T00830072=
201802031153 METAR KPAE 031153Z AUTO 16017KT 10SM BKN013 BKN017 OVC044 08/07 A3025 RMK AO2 SLP245 60003 70024 T00830072 10089 20083 53002=
201802031114 SPECI KPAE 031114Z AUTO 15016KT 10SM FEW011 BKN021 OVC044 08/07 A3024 RMK AO2 T00830072=
201802031100 SPECI KPAE 031100Z AUTO 15015KT 10SM FEW011 BKN043 OVC050 08/07 A3024 RMK AO2 T00830072=
201802031053 METAR KPAE 031053Z AUTO 15014KT 10SM BKN021 BKN043 OVC050 08/07 A3023 RMK AO2 SLP239 T00830072=
201802031050 SPECI KPAE 031050Z AUTO 15013KT 10SM BKN021 BKN043 OVC050 08/07 A3023 RMK AO2=
201802031031 SPECI KPAE 031031Z AUTO 14011KT 10SM SCT021 OVC050 08/07 A3023 RMK AO2 T00830072=
201802030953 METAR KPAE 030953Z AUTO 14010KT 10SM BKN019 OVC055 08/07 A3024 RMK AO2 RAE12 SLP243 P0000 T00830072=
201802030907 SPECI KPAE 030907Z AUTO 15013KT 10SM -RA SCT012 OVC017 08/08 A3024 RMK AO2 P0000 T00830083=
201802030853 METAR KPAE 030853Z AUTO 14010KT 10SM -RA BKN012 OVC018 08/08 A3024 RMK AO2 RAE25B43 SLP243 P0000 60003 T00830083 55002=
201802030753 METAR KPAE 030753Z AUTO 14010KT 10SM -RA OVC013 08/07 A3024 RMK AO2 SLP241 P0001 T00830072 401110061=
201802030719 SPECI KPAE 030719Z AUTO 14009KT 10SM -RA BKN010 BKN015 OVC090 08/07 A3025 RMK AO2 P0000 T00830072=
201802030710 SPECI KPAE 030710Z AUTO 15008KT 10SM -RA SCT009 BKN065 OVC090 08/07 A3024 RMK AO2 P0000 T00830072=
201802030653 METAR KPAE 030653Z AUTO 15011KT 10SM -RA FEW010 OVC065 08/07 A3024 RMK AO2 SLP242 P0002 T00830072=
201802030553 METAR KPAE 030553Z AUTO 16013KT 9SM -RA FEW011 BKN036 OVC070 09/07 A3025 RMK AO2 RAB29 SLP245 P0002 60016 T00890072 10106 20089 56001=
201802030550 SPECI KPAE 030550Z AUTO 15013KT 10SM -RA SCT011 BKN036 OVC060 09/07 A3025 RMK AO2 RAB29 P0001=
201802030500 SPECI KPAE 030500Z AUTO 15012KT 10SM OVC010 09/08 A3025 RMK AO2 T00890078=
201802030453 METAR KPAE 030453Z AUTO 16011KT 10SM OVC007 09/08 A3025 RMK AO2 SLP244 T00890078=
201802030353 METAR KPAE 030353Z 17011KT 7SM OVC007 09/08 A3025 RMK AO2 SLP246 T00940083=
201802030253 METAR KPAE 030253Z 16007KT 10SM BKN009 OVC015 09/08 A3025 RMK AO2 CIG 008V014 SLP246 60014 T00940083 53014=
201802030200 SPECI KPAE 030200Z 17007KT 10SM OVC007 10/09 A3024 RMK AO2 CIG 005V011 T01000089=
201802030153 METAR KPAE 030153Z 16008KT 1SM R16R/P6000FT BR BKN002 BKN009 OVC014 10/09 A3023 RMK AO2 RAE26 SLP240 P0001 T01000089=
201802030105 SPECI KPAE 030105Z 35004KT 1SM R16R/P6000FT -RA BR BKN002 BKN009 OVC014 09/08 A3023 RMK AO2 P0000 T00890083=
201802030103 SPECI KPAE 030103Z 34004KT 3SM -RA BR BKN005 BKN009 OVC014 09/09 A3022 RMK AO2 P0000 T00890089=
201802030053 METAR KPAE 030053Z VRB03KT 1SM R16R/P6000FT +RA BR BKN005 OVC014 09/09 A3022 RMK AO2 RAB06 SLP236 P0013 T00940089=
201802030049 SPECI KPAE 030049Z 35005KT 3/4SM R16R/P6000FT RA BR BKN005 OVC014 09/09 A3022 RMK AO2 RAB06 P0012=
201802022353 METAR KPAE 022353Z 00000KT 3SM BR BKN005 OVC012 11/09 A3021 RMK AO2 CIG 003V008 SLP232 60002 T01060094 10111 20094 53018=
201802022312 SPECI KPAE 022312Z 13004KT 3SM BR BKN005 BKN014 OVC023 11/09 A3020 RMK AO2 T01060094=
201802022253 METAR KPAE 022253Z 13005KT 8SM FEW010 SCT018 OVC025 11/09 A3019 RMK AO2 SLP227 T01110094=
201802022200 SPECI KPAE 022200Z 15008KT 10SM OVC020 11/09 A3017 RMK AO2 T01110089=
201802022153 METAR KPAE 022153Z 15009KT 10SM BKN013 OVC022 11/09 A3016 RMK AO2 SLP217 T01110089=
201802022107 SPECI KPAE 022107Z 15010KT 10SM BKN011 OVC022 11/09 A3015 RMK AO2 T01110089=
201802022100 SPECI KPAE 022100Z 15010KT 10SM FEW013 OVC022 11/09 A3015 RMK AO2 T01110089=
201802022053 METAR KPAE 022053Z 15009KT 10SM BKN011 OVC022 11/09 A3016 RMK AO2 SLP213 60002 T01110089 53005=
201802021953 METAR KPAE 021953Z 17018G24KT 10SM BKN017 11/08 A3015 RMK AO2 PK WND 17028/1906 SLP210 T01110083=
201802021853 METAR KPAE 021853Z 16021G27KT 10SM SCT009 SCT049 BKN075 10/08 A3011 RMK AO2 PK WND 17027/1853 RAE30 SLP196 P0002 T01000083=
201802021828 SPECI KPAE 021828Z 17017G26KT 10SM -RA BKN009 10/08 A3012 RMK AO2 PK WND 16026/1825 P0002 T01000083=
201802021800 SPECI KPAE 021800Z 19012G27KT 9SM -RA BKN013 OVC020 10/08 A3015 RMK AO2 P0001 T01000083=
201802021753 METAR KPAE 021753Z 18016G27KT 10SM -RA BKN009 BKN016 OVC070 10/08 A3014 RMK AO2 PK WND 15030/1709 RAE02B39 SLP208 P0000 60003 T01000083 10100 20072 53001=
201802021740 SPECI KPAE 021740Z 17016KT 10SM -RA BKN009 BKN016 OVC070 10/08 A3013 RMK AO2 PK WND 15030/1709 RAE02B39 P0000 T01000083=
201802021732 SPECI KPAE 021732Z 16014KT 10SM BKN012 BKN020 OVC070 10/08 A3013 RMK AO2 PK WND 15030/1709 RAE02 PRESRR P0000 T01000083=
201802021653 METAR KPAE 021653Z 14016G26KT 10SM -RA OVC009 09/08 A3010 RMK AO2 PK WND 16030/1607 RAB27 CIG 007V011 SLP196 P0002 T00940083=
201802021553 METAR KPAE 021553Z 15018G21KT 10SM OVC007 09/08 A3009 RMK AO2 CIG 005V010 PRESFR SLP192 T00940083=
201802021453 METAR KPAE 021453Z 14012KT 4SM BR OVC006 09/08 A3013 RMK AO2 RAE10 CIG 004V010 SLP207 P0000 60001 T00890083 56010=
201802021403 SPECI KPAE 021403Z AUTO 15014KT 3SM -RA BR BKN005 OVC010 09/08 A3015 RMK AO2 CIG 004V009 P0000 T00890083=
201802021353 METAR KPAE 021353Z AUTO 15014KT 2 1/2SM -RA BR OVC004 09/08 A3014 RMK AO2 RAB23 CIG 003V008 SLP208 P0001 T00890083=
201802021253 METAR KPAE 021253Z AUTO 13010KT 2 1/2SM BR OVC003 08/08 A3014 RMK AO2 RAB38E39 SLP210 P0000 T00830083=
201802021240 SPECI KPAE 021240Z AUTO 13011KT 2SM BR OVC003 08/08 A3014 RMK AO2 RAB38E39 P0000 T00830078=
201802021205 SPECI KPAE 021205Z AUTO 13006KT 1 3/4SM BR OVC002 08/07 A3018 RMK AO2 T00780072=
201802021153 METAR KPAE 021153Z AUTO 12006KT 2SM BR OVC002 07/07 A3017 RMK AO2 RAB00E24 SLP218 P0001 60002 70050 T00720072 10072 20056 50007=
201802021143 SPECI KPAE 021143Z AUTO VRB03KT 1 3/4SM BR OVC003 07/07 A3016 RMK AO2 RAB00E24 P0001 T00720067=
201802021053 METAR KPAE 021053Z AUTO VRB03KT 2SM BR OVC003 07/07 A3018 RMK AO2 SLP222 T00670067=
201802021042 SPECI KPAE 021042Z AUTO 00000KT 2SM BR OVC002 07/07 A3017 RMK AO2 T00670067=
201802020953 METAR KPAE 020953Z AUTO VRB05KT 1 3/4SM BR BKN003 OVC007 07/07 A3015 RMK AO2 SLP212 T00720067=
201802020937 SPECI KPAE 020937Z AUTO VRB04KT 2 1/2SM BR BKN003 OVC007 07/07 A3015 RMK AO2 T00720067=
201802020907 SPECI KPAE 020907Z AUTO 12006KT 4SM BR SCT002 BKN007 OVC011 07/06 A3015 RMK AO2 T00670061=
201802020853 METAR KPAE 020853Z AUTO 12007KT 5SM BR FEW002 BKN011 OVC021 07/06 A3014 RMK AO2 SLP210 60001 T00670061 51016=
201802020846 SPECI KPAE 020846Z AUTO 12007KT 5SM BR FEW002 SCT008 OVC019 07/06 A3014 RMK AO2 T00670061=
201802020753 METAR KPAE 020753Z AUTO 12005KT 7SM OVC003 06/06 A3013 RMK AO2 CIG 002V005 SLP206 T00610056 400720050=
201802020653 METAR KPAE 020653Z AUTO 12006KT 9SM BKN003 OVC016 06/06 A3012 RMK AO2 RAB00E46 SLP201 P0001 T00610056=
201802020553 METAR KPAE 020553Z AUTO VRB05KT 7SM OVC003 06/06 A3010 RMK AO2 RAE48 SLP195 P0003 60038 T00610056 10061 20056 53005=
201802020453 METAR KPAE 020453Z AUTO 00000KT 7SM -RA BKN004 BKN016 OVC022 06/06 A3009 RMK AO2 SLP192 P0002 T00610056=
201802020408 SPECI KPAE 020408Z 12009KT 8SM -RA BKN004 OVC019 06/06 A3008 RMK AO2 P0000 T00610056=
201802020400 SPECI KPAE 020400Z 11007KT 8SM -RA BKN019 OVC025 06/06 A3008 RMK AO2 P0000 T00610056=
201802020353 METAR KPAE 020353Z 12008KT 7SM -RA BKN006 OVC034 06/05 A3008 RMK AO2 SLP189 P0003 T00610050=
201802020253 METAR KPAE 020253Z 08007KT 8SM -RA BKN006 OVC034 06/05 A3008 RMK AO2 SLP189 P0008 60030 T00560050 56018=
201802020237 SPECI KPAE 020237Z 08008KT 7SM -RA SCT001 BKN020 OVC041 06/05 A3008 RMK AO2 P0007 T00560050=
201802020153 METAR KPAE 020153Z 08009KT 6SM -RA BR FEW001 BKN031 OVC041 06/05 A3009 RMK AO2 SLP193 P0016 T00560050=
201802020053 METAR KPAE 020053Z VRB06KT 4SM RA BR BKN006 BKN023 OVC029 06/05 A3011 RMK AO2 SLP198 P0006 T00610050=
201802012353 METAR KPAE 012353Z 09008KT 6SM -RA BR BKN005 OVC028 06/06 A3014 RMK AO2 SLP208 P0003 60010 T00610056 10072 20056 56020=
201802012330 SPECI KPAE 012330Z 08008KT 8SM -RA SCT005 BKN010 OVC055 06/06 A3014 RMK AO2 P0002 T00610056=
201802012322 SPECI KPAE 012322Z 08006KT 7SM -RA SCT005 BKN009 OVC055 06/06 A3014 RMK AO2 P0001 T00610056=
201802012319 SPECI KPAE 012319Z 08007KT 6SM -RA BR SCT005 BKN042 OVC055 06/06 A3014 RMK AO2 P0001 T00610056=
201802012253 METAR KPAE 012253Z VRB04KT 9SM -RA FEW004 BKN008 OVC044 07/06 A3015 RMK AO2 SLP212 P0004 T00670056=
201802012234 SPECI KPAE 012234Z VRB04KT 8SM -RA FEW004 BKN008 OVC050 07/06 A3015 RMK AO2 P0003 T00670056=
201802012153 METAR KPAE 012153Z 12008KT 7SM -RA FEW009 BKN012 OVC049 07/05 A3017 RMK AO2 SLP220 P0002 T00670050=
201802012053 METAR KPAE 012053Z 13009KT 10SM -RA BKN016 OVC047 07/04 A3020 RMK AO2 RAB1958 SLP228 P0001 60001 T00670044 58008=
201802011953 METAR KPAE 011953Z 13010KT 10SM OVC019 07/04 A3021 RMK AO2 SLP234 T00720044=
201802011853 METAR KPAE 011853Z 12008KT 10SM OVC015 06/04 A3022 RMK AO2 SLP238 T00610039=
201802011806 SPECI KPAE 011806Z 12010KT 10SM OVC015 06/04 A3022 RMK AO2 T00610039=
201802011753 METAR KPAE 011753Z 12009KT 10SM OVC013 06/04 A3022 RMK AO2 RAE50 SLP236 P0000 60000 T00610039 10061 20050 53008=
201802011653 METAR KPAE 011653Z 14007KT 10SM -RA OVC014 06/04 A3021 RMK AO2 RAB28 SLP233 P0000 T00610039=
201802011553 METAR KPAE 011553Z 12007KT 10SM OVC014 06/03 A3020 RMK AO2 SLP230 T00610028=
201802011453 METAR KPAE 011453Z 12008KT 10SM OVC014 06/02 A3019 RMK AO2 SLP227 T00610022 53001=
201802011423 SPECI KPAE 011423Z AUTO 12007KT 10SM OVC014 06/02 A3019 RMK AO2 T00560022=
201802011353 METAR KPAE 011353Z AUTO 12006KT 10SM OVC015 06/02 A3019 RMK AO2 SLP226 T00560022=
201802011253 METAR KPAE 011253Z AUTO VRB03KT 10SM OVC017 06/02 A3019 RMK AO2 SLP227 T00560022=
201802011205 SPECI KPAE 011205Z AUTO 12006KT 10SM OVC015 06/02 A3019 RMK AO2 T00560022=
201802011153 METAR KPAE 011153Z AUTO 12008KT 10SM OVC014 06/02 A3019 RMK AO2 SLP226 60000 T00560022 10061 20050 56004=
201802011118 SPECI KPAE 011118Z AUTO 12007KT 10SM OVC014 06/02 A3019 RMK AO2 T00560022=
201802011053 METAR KPAE 011053Z AUTO 11004KT 10SM OVC015 05/02 A3019 RMK AO2 SLP229 T00500022=
201802010953 METAR KPAE 010953Z AUTO 12003KT 10SM OVC017 05/02 A3019 RMK AO2 SLP229 T00500022=
201802010853 METAR KPAE 010853Z AUTO 12007KT 10SM OVC017 06/02 A3020 RMK AO2 RAB03E12 SLP231 P0000 60000 T00560022 51007=
201802010753 METAR KPAE 010753Z AUTO 13009KT 10SM OVC017 06/02 A3020 RMK AO2 SLP230 T00610017 400610022=
201802010653 METAR KPAE 010653Z AUTO 13010KT 10SM OVC018 06/02 A3019 RMK AO2 SLP229 T00610022=
201802010553 METAR KPAE 010553Z 16014KT 10SM BKN020 OVC080 06/03 A3018 RMK AO2 SLP224 T00560028 10061 20056 51004=
201802010453 METAR KPAE 010453Z 17019KT 10SM BKN019 BKN055 OVC070 06/02 A3018 RMK AO2 SLP223 T00610022=
201802010448 SPECI KPAE 010448Z 15018KT 10SM SCT019 BKN055 OVC075 06/03 A3018 RMK AO2=
201802010353 METAR KPAE 010353Z 16014KT 10SM OVC022 06/02 A3017 RMK AO2 SLP220 T00610022=
201802010325 SPECI KPAE 010325Z 14010KT 10SM BKN027 BKN065 OVC100 06/02 A3017 RMK AO2 T00610022=
201802010253 METAR KPAE 010253Z 14011G20KT 10SM OVC100 06/02 A3017 RMK AO2 SLP219 T00610022 55002=
201802010153 METAR KPAE 010153Z 14011KT 10SM FEW021 BKN027 OVC075 06/02 A3017 RMK AO2 SLP219 T00610022=
201802010053 METAR KPAE 010053Z 15014KT 10SM SCT020 BKN055 BKN070 06/02 A3017 RMK AO2 SLP219 T00610022=

# No short TAF reports from KPAE in databse.

###################################
#  large TAF from KPAE
###################################
201802282320 TAF KPAE 282320Z 0100/0124 14014G22KT P6SM -RA OVC035
                      TEMPO 0100/0104 5SM -RA BR OVC025 FM010400
                       17015G25KT 5SM -RA BR OVC025 FM010900 21012G20KT
                       P6SM -SHRA BKN020 OVC040 FM011600 18008KT
                       P6SM VCSH BKN025 BKN050 FM012100 16006KT
                       P6SM SCT025 BKN050=
201802282214 KPAE 282214Z 2822/0118 14015G25KT P6SM -RA OVC035
                      TEMPO 2822/0102 5SM -RA BR OVC025 FM010900
                       18012KT P6SM -SHRA BKN020 BKN040 FM011600
                       18008KT P6SM VCSH SCT025 BKN050=
201802281720 TAF KPAE 281720Z 2818/0118 12010KT P6SM -RA BKN040 OVC080 FM282100
                       16016G25KT P6SM -RA OVC025 FM010800 19013G22KT
                       6SM -SHRA BR BKN015 OVC022=
201802281140 TAF KPAE 281140Z 2812/0112 12010KT P6SM VCSH BKN025 BKN050
                      TEMPO 2812/2816 BKN015 FM281700 16013G20KT
                       P6SM OVC040 FM282100 16016G25KT P6SM -RA
                       OVC025 FM010800 19013G22KT 6SM -SHRA BR
                       BKN015 OVC022=
201802281001 KPAE 281001Z 2810/0106 16010KT P6SM VCSH BKN015 BKN040
                      TEMPO 2810/2814 BKN008 OVC025 FM281700 16013KT
                       P6SM -RA OVC040 FM282000 16015G22KT P6SM
                       -RA BKN020 OVC040=
201802280520 TAF KPAE 280520Z 2806/0106 13008KT P6SM VCSH SCT005 BKN035 OVC050
                       TEMPO 2806/2809 4SM -SHRA BKN011 FM280900
                       16010KT P6SM BKN040 FM281700 16013KT P6SM
                       -RA OVC040 FM282000 16015G22KT P6SM -RA
                       BKN020 OVC040=
201802272333 TAF KPAE 272333Z 2800/2824 00000KT P6SM VCSH SCT029 BKN035 OVC060
                       FM280500 17006KT P6SM OVC050 FM281700 16013KT
                       P6SM -RA OVC040 FM282000 16015G22KT P6SM
                       -RA BKN020 OVC040=
201802271742 TAF KPAE 271742Z 2718/2818 16017KT P6SM VCSH OVC012 FM280600 19007KT
                       P6SM BKN050 FM281200 16006KT P6SM SCT025
                       OVC050 FM281600 15007KT P6SM -RA OVC025=
201802271138 TAF KPAE 271138Z 2712/2812 16012KT P6SM VCSH BKN014 OVC035 FM271800
                       18014G22KT P6SM VCSH BKN022 BKN040 FM272200
                       21011KT P6SM -SHRA BKN020 BKN035 FM280500
                       16008KT P6SM VCSH BKN030 BKN050 FM281000
                       14006KT P6SM BKN045 BKN100=
201802271003 KPAE 271003Z 2710/2806 14009KT P6SM VCSH SCT015 BKN060 BKN200
                      TEMPO 2710/2712 BKN015 OVC035 FM271200 16013G20KT
                       5SM -RASN BR BKN014 OVC035 FM271800 18014G21KT
                       P6SM VCSH OVC025 FM280000 23006KT P6SM -SHRA
                       OVC020=
201802270526 TAF KPAE 270526Z 2706/2806 16009KT P6SM BKN060 BKN200 FM271200
                       17013KT 3SM -RASN OVC012 FM271800 18014G21KT
                       P6SM VCSH OVC025 FM280000 23006KT P6SM -SHRA
                       OVC020=
201802262337 TAF KPAE 262337Z 2700/2724 21005KT P6SM SCT026 SCT040 FM270500
                       16009KT P6SM OVC120 FM271200 17013KT 3SM
                       -RASN OVC012 FM271800 18014G21KT P6SM VCSH
                       OVC012=
201802261812 TAF KPAE 261812Z 2618/2718 12004KT P6SM OVC009 FM262000 19005KT
                       P6SM SCT035 SCT200 FM270500 16008KT P6SM
                       OVC060 FM271100 16011KT 2SM -RASN OVC030
                       FM271600 17013KT 5SM -RASN OVC012=
201802261136 TAF KPAE 261136Z 2612/2712 17009KT P6SM VCSH SCT015 BKN050
                      TEMPO 2612/2616 5SM BR BKN010 FM261800 21003KT
                       P6SM SCT020 BKN050 FM262000 VRB04KT P6SM
                       SCT035 SCT200 FM270400 15008KT P6SM BKN120
                       OVC200 FM271100 16010KT 5SM -SN BR BKN025
                       OVC040=
201802260520 TAF KPAE 260520Z 2606/2706 VRB05KT P6SM FEW020 SCT050 SCT090
                      TEMPO 2606/2610 BKN020 FM261000 VRB03KT P6SM
                       BKN020 OVC030 FM261800 21003KT P6SM BKN020
                       FM262000 27004KT P6SM SCT035=
201802252338 TAF KPAE 252338Z 2600/2624 07005KT P6SM VCSH SCT024 BKN035 OVC100
                       TEMPO 2600/2604 4SM -RASN OVC022 FM260400
                       17005KT P6SM OVC035 FM261100 VRB03KT P6SM
                       BKN020 OVC030 FM261800 21003KT P6SM BKN020
                       FM262000 27004KT P6SM SCT035=
201802251738 TAF KPAE 251738Z 2518/2618 33005KT P6SM -SHRA FEW005 OVC013 FM252300
                       30009KT P6SM VCSH SCT020 BKN035 FM260200
                       21006KT P6SM SCT020 BKN040 FM260800 17004KT
                       P6SM BKN020 OVC030=
201802251120 TAF KPAE 251120Z 2512/2612 24020G30KT P6SM -RA BKN010 OVC020 FM251800
                       28012KT P6SM -SHRA SCT020 OVC030 FM260100
                       24006KT P6SM SCT025 OVC040=
201802250520 TAF KPAE 250520Z 2506/2606 20012G25KT P6SM VCSH SCT030 BKN060 BKN080
                       TEMPO 2506/2509 -RA BKN040 FM250900 19015G25KT
                       P6SM -RA OVC035 FM251200 24020G30KT P6SM
                       -RA OVC015 FM251800 26012KT P6SM -SHRA SCT020
                       OVC030=
201802242333 TAF KPAE 242333Z 2500/2524 16007KT P6SM BKN035 BKN045 BKN060 FM250700
                       18016G23KT P6SM -RA OVC035 FM251000 24012G25KT
                       P6SM -RA OVC015=
201802241735 TAF KPAE 241735Z 2418/2518 27008KT P6SM VCSH SCT017 BKN022 OVC060
                       FM242000 30005KT P6SM VCSH BKN035 FM242200
                       21007KT P6SM BKN040 FM250700 18016G23KT
                       P6SM -RA OVC025 FM251000 22014G24KT P6SM
                       -RA OVC015=
201802241120 TAF KPAE 241120Z 2412/2512 17012KT P6SM VCSH BKN006 OVC012
                      TEMPO 2412/2416 -SHRASN OVC005 FM241800 32006KT
                       P6SM VCSH OVC015 FM242100 30006KT P6SM VCSH
                       BKN035 FM250600 18016G25KT P6SM -RA OVC012=
201802240525 TAF KPAE 240525Z 2406/2506 17015G22KT P6SM -SHRASN BKN008 OVC012
                       FM240900 20014G23KT P6SM -SHRASN OVC010
                       FM241800 32006KT P6SM VCSH OVC015 FM242100
                       30006KT P6SM VCSH BKN035=
201802232335 TAF KPAE 232335Z 2400/2424 13019G25KT P6SM SCT013 OVC035 FM240100
                       17016G24KT 5SM -SN OVC030
                      TEMPO 2401/2404 3SM -SN BKN011 OVC030 FM240400
                       18010KT P6SM VCSH BKN012 OVC030 FM240700
                       20014G23KT P6SM -SHRA OVC010 FM241800 32006KT
                       P6SM -SHRASN OVC015 FM242100 30006KT P6SM
                       -SHRA BKN035=
201802231722 TAF KPAE 231722Z 2318/2418 17012KT P6SM OVC080 FM232200 17016G24KT
                       5SM -SN OVC030 FM240400 18010KT P6SM VCSH
                       BKN012 OVC030 FM240700 20014G23KT P6SM -SHRA
                       OVC010=
201802231120 TAF KPAE 231120Z 2312/2412 VRB03KT P6SM SKC FM231800 17012KT P6SM
                       OVC080 FM232200 17016G24KT 5SM -SN OVC030
                       FM240400 18010KT P6SM VCSH BKN012 OVC030
                       FM240700 20014G23KT P6SM -SHRA OVC010=
201802230520 TAF KPAE 230520Z 2306/2406 36003KT P6SM SKC FM230900 VRB03KT P6SM
                       SKC FM231800 17012KT P6SM OVC080 FM232200
                       17016G24KT 5SM -SN OVC030 FM240400 18010KT
                       P6SM -SHRA BKN012 OVC030=
201802222338 TAF KPAE 222338Z 2300/2324 29007KT P6SM SKC FM230300 36003KT P6SM
                       SKC FM230900 VRB03KT P6SM SKC FM231800 17012KT
                       P6SM OVC080 FM232200 17016G24KT 5SM -SN
                       OVC030=
201802221756 TAF KPAE 221756Z 2218/2318 36004KT P6SM SKC FM230200 VRB05KT P6SM
                       SCT200 FM231000 12005KT P6SM SCT120 BKN200=
201802221229 KPAE 221229Z 2212/2312 36006KT P6SM SCT010 SCT200
                      TEMPO 2213/2216 BKN006 FM221800 35006KT P6SM
                       SCT050 SCT200 FM230200 VRB05KT P6SM SCT200
                       FM231000 12005KT P6SM SCT120 BKN200=
201802221140 TAF KPAE 221140Z 2212/2312 36006KT P6SM SCT010 SCT200 FM221800
                       35006KT P6SM SCT050 SCT200 FM230200 VRB05KT
                       P6SM SCT200 FM231000 12005KT P6SM SCT120
                       BKN200=
201802220524 TAF KPAE 220524Z 2206/2306 07004KT 1SM -SN BR SCT005 OVC021 FM220700
                       03005KT P6SM BKN025 OVC045 FM221100 02006KT
                       P6SM SCT045 SCT100 FM221800 35006KT P6SM
                       SCT120=
201802220121 KPAE 220121Z 2201/2224 VRB04KT 2SM -SN BR BKN009 OVC022 FM221000
                       03005KT P6SM SCT045 BKN100 FM221800 35006KT
                       P6SM SCT120=
201802220058 KPAE 220058Z 2201/2224 08006KT 1SM -SN BKN010 OVC050 FM220200 11004KT
                       3SM -SN BR OVC030 FM221000 03005KT P6SM
                       SCT045 BKN100 FM221800 35006KT P6SM SCT120=
201802220003 TAF KPAE 220003Z 2200/2224 08006KT P6SM -SN BKN035 OVC050 FM220200
                       11004KT 3SM -SN BR OVC030 FM221000 03005KT
                       P6SM SCT045 BKN100 FM221800 35006KT P6SM
                       SCT120=
201802211742 TAF KPAE 211742Z 2118/2218 VRB04KT P6SM SCT120 OVC200 FM212200
                       17006KT P6SM BKN080 OVC120 FM220200 11004KT
                       P6SM OVC050
                      PROB30 2203/2208 5SM -SN BR OVC030 FM221000
                       03005KT P6SM SCT045 BKN100=
201802211146 TAF KPAE 211146Z 2112/2212 08006KT P6SM SKC FM211600 15005KT P6SM
                       SCT100 OVC200 FM212200 17006KT P6SM BKN080
                       OVC120 FM220200 11004KT P6SM OVC050
                      PROB30 2203/2208 5SM -SN BR OVC030 FM221000
                       03005KT P6SM SCT045 BKN100=
201802210524 TAF KPAE 210524Z 2106/2206 35004KT P6SM SKC FM211600 15005KT P6SM
                       BKN100 OVC180 FM212300 15005KT P6SM OVC050
                       FM220300 02004KT P6SM OVC050=
201802202333 TAF KPAE 202333Z 2100/2124 30004KT P6SM OVC070 FM210200 VRB03KT
                       P6SM BKN050 BKN200 FM210500 VRB03KT P6SM
                       FEW060 SCT250 FM211900 16004KT P6SM OVC060=
201802201731 TAF KPAE 201731Z 2018/2118 08006KT P6SM OVC080 FM202100 01005KT
                       P6SM BKN070 OVC120 FM210200 02005KT P6SM
                       BKN200 FM210500 05004KT P6SM FEW060 SCT250=
201802201129 TAF KPAE 201129Z 2012/2112 08007KT P6SM SCT120 BKN200 FM201400
                       VRB05KT P6SM BKN100 OVC200 FM202000 36006KT
                       P6SM OVC090 FM210200 02004KT P6SM SCT120
                       BKN250 FM210700 04005KT P6SM SKC=
201802200534 TAF KPAE 200534Z 2006/2106 00000KT P6SM BKN250 FM201300 14005KT
                       P6SM SCT100 BKN250 FM202100 36004KT P6SM
                       OVC100 FM210400 02004KT P6SM SCT250=
201802192337 TAF KPAE 192337Z 2000/2024 32008KT P6SM SCT250 FM200300 VRB03KT
                       P6SM BKN250 FM200600 13005KT P6SM SCT250=
201802191734 TAF KPAE 191734Z 1918/2018 34010G16KT P6SM SKC FM192100 33005KT
                       P6SM SCT250 FM200300 00000KT P6SM SCT250
                       FM200600 12004KT P6SM SCT250=
201802191131 TAF KPAE 191131Z 1912/2012 33008KT P6SM BKN050 FM191700 35006KT
                       P6SM SCT050 FM200200 VRB04KT P6SM FEW050
                       SCT250 FM200800 13005KT P6SM SCT250=
201802190520 TAF KPAE 190520Z 1906/2006 04012KT P6SM SCT060 SCT250 FM191200
                       35004KT P6SM SKC FM191800 04006KT P6SM SKC
                       FM200200 VRB03KT P6SM SKC=
201802182320 TAF KPAE 182320Z 1900/1924 32015G25KT P6SM SKC FM190600 04012KT
                       P6SM SKC FM191800 04006KT P6SM SKC=
201802182001 KPAE 182001Z 1820/1918 32012G20KT 5SM -SHSN SCT003 OVC030
                      TEMPO 1820/1822 2SM -SHSN BKN002 OVC030 FM182200
                       35015G25KT P6SM SCT020 BKN040
                      TEMPO 1822/1824 BKN020 BKN040 FM190500 04012KT
                       P6SM SCT040 FM191700 04006KT P6SM SKC=
201802181720 TAF KPAE 181720Z 1818/1918 35010KT 3SM -SHSN SCT003 OVC030
                      TEMPO 1818/1820 1SM -SHSN BKN003 OVC030 FM182000
                       35015G25KT P6SM SCT020 BKN040
                      TEMPO 1820/1822 3SM -SHSN BKN020 BKN040 FM190500
                       04012KT P6SM SCT040 FM191700 04006KT P6SM
                       SKC=
201802181138 TAF KPAE 181138Z 1812/1912 VRB06KT P6SM VCSH SCT012 BKN025
                      TEMPO 1812/1814 3SM -SN BR BKN008 OVC020
                       FM181400 04006KT 5SM -SN BR SCT008 OVC020
                       TEMPO 1814/1818 2SM -SN BR BKN006 OVC015
                       FM181900 36012G20KT P6SM SCT017 BKN040 FM190300
                       36008KT P6SM SCT040 SCT200=
201802180806 KPAE 180806Z 1808/1906 06010KT P6SM -SHSN BKN015
                      TEMPO 1808/1812 2SM BR FM181200 36012G22KT
                       P6SM SCT015 BKN030
                      TEMPO 1812/1816 3SM -SHSN BKN015 OVC030 FM181900
                       36015G25KT P6SM SCT040 FM190300 36008KT
                       P6SM SCT040 SCT200=
201802180652 KPAE 180652Z 1807/1906 27010KT P6SM VCSH SCT010 BKN020
                      TEMPO 1807/1808 2SM -SHSN BR OVC010 FM180800
                       30012KT P6SM -SHSN BKN015 FM181200 36012G22KT
                       P6SM SCT015 BKN030
                      TEMPO 1812/1816 3SM -SHSN BKN015 OVC030 FM181900
                       36015G25KT P6SM SCT040 FM190300 36008KT
                       P6SM SCT040 SCT200=
201802180520 TAF KPAE 180520Z 1806/1906 27010KT P6SM VCSH SCT010 BKN020 FM180800
                       30012KT P6SM VCSH BKN015 FM181200 36012G22KT
                       P6SM SCT015 BKN030
                      TEMPO 1812/1816 3SM -SHSN BKN015 OVC030 FM181900
                       36015G25KT P6SM SCT040 FM190300 36008KT
                       P6SM SCT040 SCT200=
201802172320 TAF KPAE 172320Z 1800/1824 VRB06KT P6SM -SHRA BKN030 FM180300 27012G20KT
                       P6SM -SHRA BKN015 BKN040 FM180800 30012KT
                       P6SM -SHSN BKN015 FM181200 36012G22KT P6SM
                       SCT015 BKN030
                      TEMPO 1812/1816 3SM -SHSN BKN015 OVC030 FM181900
                       36015G25KT P6SM SCT040=
201802172012 KPAE 172012Z 1720/1818 23015G25KT P6SM -SHRA BKN020 BKN040
                      TEMPO 1720/1724 32010G20KT 4SM SHRA BR OVC015
                       FM180200 27014G22KT P6SM -SHRA BKN015 BKN040
                       FM180800 VRB08KT P6SM -SHSN BKN015 FM181200
                       36012G22KT P6SM SCT015 BKN030
                      TEMPO 1815/1818 3SM -SHSN BKN015 OVC030=
201802171725 TAF KPAE 171725Z 1718/1818 16017G30KT P6SM -RA SCT006 OVC015
                      TEMPO 1718/1720 BKN006 OVC015 FM172000 20020G30KT
                       P6SM -SHRA BKN020 BKN040
                      TEMPO 1720/1724 SCT020 BKN040 FM180200 24014G22KT
                       P6SM -SHRA BKN015 BKN040 FM180800 VRB08KT
                       P6SM -SHSN BKN015 FM181200 36012G22KT P6SM
                       SCT015 BKN030
                      TEMPO 1815/1818 3SM -SHSN BKN015 OVC030=
201802171444 KPAE 171444Z 1715/1812 16016G26KT P6SM -RA SCT020 OVC040 FM171700
                       18020G30KT P6SM -SHRA SCT010 BKN020 OVC040
                       FM172100 18020G30KT 4SM -SHRA BKN006 OVC010
                       FM180100 18010KT P6SM -SHRA SCT006 BKN010
                       OVC020=
201802171139 TAF KPAE 171139Z 1712/1812 16012G20KT P6SM -RA SCT006 BKN010 OVC020
                       TEMPO 1715/1718 4SM -RA BKN006 OVC010 FM171800
                       18020G30KT P6SM -SHRA BKN010 BKN020 FM180100
                       18010KT 4SM -SHRA BKN006 OVC010=
201802170924 KPAE 170924Z 1709/1806 15005KT P6SM SCT003 OVC008
                      TEMPO 1709/1710 3SM -RA BKN003 OVC008 FM171000
                       15005KT P6SM SCT006 OVC010 FM171400 18007KT
                       4SM -RA BR OVC010 FM171800 18020G30KT 4SM
                       -SHRA BR BKN010 BKN020 FM180200 22011KT
                       P6SM -SHRA OVC010=
201802170746 KPAE 170746Z 1708/1806 15005KT P6SM SCT003 OVC008
                      TEMPO 1708/1710 3SM -RA BKN003 OVC008 FM171000
                       15005KT P6SM SCT006 OVC010 FM171400 18007KT
                       4SM -RA BR OVC010 FM171800 18020G30KT 4SM
                       -SHRA BR BKN010 BKN020 FM180200 22011KT
                       P6SM -SHRA OVC010=
201802170520 TAF KPAE 170520Z 1706/1806 15005KT P6SM VCSH BKN018 OVC030 FM171400
                       18007KT 4SM -RA BR OVC010 FM171800 18020G30KT
                       4SM -SHRA BR BKN010 BKN020 FM180200 22011KT
                       P6SM -SHRA OVC010=
201802162341 TAF KPAE 162341Z 1700/1724 15005KT 6SM -DZ OVC008 FM171400 18007KT
                       4SM -RA BR OVC008 FM171800 18020G30KT 4SM
                       -SHRA BR BKN008 BKN020=
201802162018 KPAE 162018Z 1620/1718 13011KT P6SM BKN010 OVC022 FM170200 18008KT
                       P6SM SCT010 OVC025 FM170900 16008KT P6SM
                       -RA OVC015 FM171400 17015G25KT P6SM -RA
                       OVC012 FM171700 18015G25KT 5SM -RA BR OVC007=
201802161737 TAF KPAE 161737Z 1618/1718 16012KT P6SM VCSH BKN006 OVC018 FM162000
                       18012KT P6SM SCT008 OVC018 FM170200 18008KT
                       P6SM SCT025 BKN040 OVC060 FM170900 16008KT
                       P6SM -RA OVC015 FM171400 17015G25KT P6SM
                       -RA OVC012 FM171700 18015G25KT 5SM -RA BR
                       OVC007=
201802161131 TAF KPAE 161131Z 1612/1712 16012KT P6SM -RA BKN014 OVC025 FM161800
                       18012G20KT P6SM VCSH SCT014 BKN024 OVC040
                       FM170200 18008KT P6SM SCT025 BKN040 OVC060
                       FM170900 16008KT P6SM -RA OVC015=
201802160520 TAF KPAE 160520Z 1606/1706 16004KT P6SM VCSH SCT020 BKN035 OVC045
                       FM160700 15008KT P6SM -RA SCT012 BKN020
                       OVC035 FM161100 17011G18KT 5SM -RA BR SCT007
                       OVC012 FM161600 18013G23KT P6SM -SHRA SCT012
                       BKN020 OVC050 FM162200 18012G22KT P6SM VCSH
                       SCT012 BKN018 OVC030 FM170000 18007KT P6SM
                       VCSH BKN010 OVC018=
201802152337 TAF KPAE 152337Z 1600/1624 16004KT P6SM VCSH SCT020 BKN035 OVC045
                       FM160700 15008KT P6SM -RA SCT012 BKN020
                       OVC035 FM161100 17011G18KT 5SM -RA BR SCT007
                       OVC012 FM161600 18013G23KT P6SM -SHRA SCT012
                       BKN020 OVC050 FM162200 18012G22KT P6SM VCSH
                       SCT012 BKN018 OVC030=
201802152217 KPAE 152217Z 1522/1618 16008KT P6SM VCSH BKN020 BKN040 FM160000
                       13004KT P6SM VCSH SCT020 BKN035 OVC045 FM160700
                       15008KT P6SM -RA SCT012 BKN020 OVC035 FM161100
                       17011G18KT 5SM -RA BR SCT007 OVC012 FM161600
                       18013G23KT P6SM VCSH SCT012 BKN020 OVC050=
201802151739 TAF KPAE 151739Z 1518/1618 17008KT P6SM SCT010 BKN018 OVC030 FM152200
                       13004KT P6SM SCT020 BKN035 OVC045 FM160700
                       15008KT P6SM -RA SCT012 BKN020 OVC035 FM161100
                       17011G18KT 5SM -RA BR SCT007 OVC012 FM161600
                       18013G23KT P6SM VCSH SCT012 BKN020 OVC050=
201802151136 TAF KPAE 151136Z 1512/1612 VRB03KT P6SM SCT008 BKN035 OVC080
                      TEMPO 1512/1516 4SM -SHRA BR BKN008 OVC035
                       FM151900 13004KT P6SM SCT035 BKN080 BKN200
                       FM160400 15008KT P6SM -RA SCT020 OVC040
                       FM160800 15008KT P6SM -RA SCT010 OVC020=
201802150525 TAF KPAE 150525Z 1506/1606 VRB03KT P6SM VCSH SCT012 BKN020 OVC040
                       FM150800 13004KT P6SM SCT006 BKN010 OVC018
                       FM151600 13005KT P6SM SCT012 BKN035 FM152100
                       17008KT P6SM BKN025 OVC040 FM160100 18006KT
                       P6SM -RA OVC020=
201802142343 TAF KPAE 142343Z 1500/1524 VRB03KT P6SM VCSH SCT012 BKN020 BKN040
                       FM150800 13004KT P6SM SCT006 BKN010 OVC018
                       FM151600 13005KT P6SM SCT012 BKN035 FM152100
                       17008KT P6SM BKN025 OVC040=
201802141746 TAF KPAE 141746Z 1418/1518 24003KT 3SM -RASN BR BKN004 OVC010 FM142000
                       34004KT P6SM VCSH SCT008 BKN015 OVC030 FM142200
                       34005KT P6SM SCT015 BKN030 FM150000 VRB03KT
                       P6SM SCT012 BKN020 OVC050 FM150800 13004KT
                       P6SM SCT018 OVC025 FM151600 13005KT P6SM
                       SCT020 BKN035=
201802141141 TAF KPAE 141141Z 1412/1512 17012KT P6SM SCT006 BKN012 BKN035
                      TEMPO 1412/1416 5SM -SHRA BR BKN006 OVC012
                       FM141700 33004KT P6SM VCSH BKN025 OVC040
                       FM142100 36005KT P6SM SCT025 BKN040 FM150000
                       VRB03KT P6SM FEW030 BKN060 FM150600 12004KT
                       P6SM OVC035=
201802140552 KPAE 140552Z 1406/1506 13007KT 5SM -RASN BR SCT006 OVC012
                      TEMPO 1406/1409 2SM -SN BR BKN006 OVC012
                       FM140900 17013KT 5SM -RA BR FEW006 OVC012
                       FM141400 23008KT P6SM -SHRA OVC020 FM141600
                       33008KT P6SM VCSH BKN025 OVC040 FM141900
                       36005KT P6SM BKN025 BKN040 FM150000 VRB03KT
                       P6SM FEW030 BKN060=
201802140541 TAF KPAE 140541Z 1406/1506 14007KT 5SM -RA BR OVC012 FM140900 17013KT
                       5SM -RA BR FEW006 OVC012 FM141400 23008KT
                       P6SM -SHRA OVC020 FM141600 33008KT P6SM
                       VCSH BKN025 OVC040 FM141900 36005KT P6SM
                       BKN025 BKN040 FM150000 VRB03KT P6SM FEW030
                       BKN060=
201802140501 KPAE 140501Z 1405/1424 13007KT 5SM -RA BR OVC015 FM140900 16012G18KT
                       5SM -RA OVC015 FM141600 22010KT P6SM -SHRA
                       BKN025 OVC030 FM142000 33005KT P6SM VCSH
                       BKN025 OVC030 FM142200 34005KT P6SM BKN030
                       BKN050=
201802140212 KPAE 140212Z 1402/1424 VRB03KT P6SM OVC080 FM140500 16011KT P6SM
                       -RA SCT025 OVC050 FM140900 16012G18KT 6SM
                       -RA OVC022 FM141600 22010KT P6SM -SHRA BKN025
                       OVC030 FM142000 33005KT P6SM VCSH BKN025
                       OVC030 FM142200 34005KT P6SM BKN030 BKN050=
201802132329 TAF KPAE 132329Z 1400/1424 19005KT P6SM SCT080 BKN100 OVC200 FM140500
                       16011KT P6SM -RA SCT025 OVC050 FM140900
                       16012G18KT 6SM -RA OVC022 FM141600 22010KT
                       P6SM -SHRA BKN025 OVC030 FM142000 33005KT
                       P6SM VCSH BKN025 OVC030 FM142200 34005KT
                       P6SM BKN030 BKN050=
201802131725 TAF KPAE 131725Z 1318/1418 16004KT P6SM SCT060 BKN200 FM132100
                       19005KT P6SM SCT050 BKN100 OVC200 FM140400
                       16011KT P6SM -RA SCT025 OVC050 FM140900
                       16012G18KT 6SM -RA OVC022 FM141500 22010KT
                       P6SM -SHRA BKN025 OVC030=
201802131134 TAF KPAE 131134Z 1312/1412 11005KT P6SM BKN200 FM131800 17004KT
                       P6SM SCT100 BKN200 FM132100 19005KT P6SM
                       SCT050 BKN100 OVC200 FM140400 16011KT P6SM
                       -RA SCT025 OVC050 FM140900 16012G18KT 6SM
                       -RA OVC022=
201802130520 TAF KPAE 130520Z 1306/1406 VRB02KT P6SM BKN200 FM131800 17004KT
                       P6SM SCT100 BKN200 FM132100 19005KT P6SM
                       SCT050 BKN100 OVC200 FM140300 15008KT P6SM
                       -RA SCT022 OVC050=
201802130302 KPAE 130302Z 1303/1324 00000KT P6SM SCT200 FM131200 VRB03KT P6SM
                       SCT120=
201802122320 TAF KPAE 122320Z 1300/1324 33008KT P6SM SKC FM130200 00000KT P6SM
                       SKC FM131200 VRB03KT P6SM SCT120=
201802121720 TAF KPAE 121720Z 1218/1318 33008KT P6SM SKC FM121900 34004KT P6SM
                       SKC FM130200 00000KT P6SM SKC=
201802121122 TAF KPAE 121122Z 1212/1312 33005KT P6SM SCT050 SCT060 FM121800
                       31004KT P6SM SKC FM130200 00000KT P6SM SKC=
201802120532 TAF KPAE 120532Z 1206/1306 35005KT P6SM SKC FM121800 VRB03KT P6SM
                       SKC=
201802120316 KPAE 120316Z 1203/1224 34006KT P6SM SKC=
201802120123 KPAE 120123Z 1201/1224 32007KT P6SM FEW040 FM120300 36008KT P6SM
                       SKC FM121800 34006KT P6SM SKC=
201802112320 TAF KPAE 112320Z 1200/1224 36010KT P6SM FEW040 FM120200 36008KT
                       P6SM SKC FM121800 34006KT P6SM SKC=
201802111720 TAF KPAE 111720Z 1118/1218 36005KT P6SM BKN040 BKN120 FM112000
                       36010KT P6SM BKN050 FM120000 02010KT P6SM
                       SCT050 FM120900 02008KT P6SM SKC=
201802111128 TAF KPAE 111128Z 1112/1212 VRB03KT P6SM SCT040 OVC090 FM111500
                       VRB03KT P6SM FEW035 OVC070 FM111800 32005KT
                       P6SM SCT070 FM120000 36007KT P6SM SKC=
201802110538 TAF KPAE 110538Z 1106/1206 VRB03KT P6SM OVC200 FM111200 VRB03KT
                       P6SM SCT090 OVC200 FM111500 VRB03KT P6SM
                       FEW035 OVC070 FM111800 32005KT P6SM SCT070
                       FM120000 36007KT P6SM SKC=
201802110307 KPAE 110307Z 1103/1124 00000KT P6SM OVC200 FM110600 15004KT P6SM
                       SCT120 OVC200 FM111600 03004KT P6SM SCT025
                       BKN050 OVC090 FM112100 35005KT P6SM SCT050=
201802102320 TAF KPAE 102320Z 1100/1124 33007KT P6SM FEW030 SCT200 FM110300
                       00000KT P6SM BKN200 FM111100 15007KT P6SM
                       OVC120 FM111600 03004KT P6SM SCT025 BKN050
                       OVC090 FM112100 35005KT P6SM SCT050=
201802101722 TAF KPAE 101722Z 1018/1118 33007KT P6SM FEW200 FM110300 00000KT
                       P6SM BKN200 FM111100 15007KT P6SM OVC120
                       FM111600 03004KT P6SM SCT020 BKN050 OVC090=
201802101120 TAF KPAE 101120Z 1012/1112 32007KT P6SM SCT025 FM101800 32007KT
                       P6SM SKC FM110300 00000KT P6SM BKN200 FM111100
                       15007KT P6SM OVC120=
201802100823 KPAE 100823Z 1008/1106 31007KT P6SM BKN070 FM101000 35007KT P6SM
                       SCT070
                      TEMPO 1010/1012 BKN070 FM101200 VRB03KT P6SM
                       SKC=
201802100535 TAF KPAE 100535Z 1006/1106 35005KT P6SM VCSH FEW030 BKN070 FM100900
                       VRB03KT P6SM SCT070
                      TEMPO 1009/1011 BKN070 FM101200 VRB03KT P6SM
                       SKC=
201802100136 KPAE 100136Z 1002/1024 36005KT P6SM SCT025 BKN040 FM100600 02006KT
                       P6SM SCT050 FM100900 02005KT P6SM SKC=
201802092320 TAF KPAE 092320Z 1000/1024 30004KT P6SM VCSH SCT008 BKN025 BKN050
                       FM100200 36005KT P6SM SCT030 BKN050 FM100500
                       02006KT P6SM SCT050 FM100900 02005KT P6SM
                       SKC=
201802091721 TAF KPAE 091721Z 0918/1018 VRB04KT P6SM VCSH BKN020 BKN040
                      TEMPO 0918/0921 -SHRA BKN011 FM092300 36005KT
                       P6SM BKN050 FM100500 02006KT P6SM SCT050
                       FM100900 02005KT P6SM SKC=
201802091220 KPAE 091220Z 0912/1012 VRB04KT P6SM SCT022 OVC050
                      TEMPO 0912/0916 -SHRA BKN022 OVC040 FM091600
                       36006KT P6SM VCSH BKN040 FM100500 02006KT
                       P6SM SCT040=
201802091120 TAF KPAE 091120Z 0912/1012 00000KT P6SM OVC050 FM091600 36006KT
                       P6SM VCSH BKN040 FM100500 02006KT P6SM SCT040=
201802090522 TAF KPAE 090522Z 0906/1006 VRB03KT P6SM BKN060 FM091100 23004KT
                       5SM BR SCT004 OVC008 FM091600 31005KT P6SM
                       SCT010 BKN020 FM092200 32007KT P6SM SCT025
                       BKN045 FM100300 00000KT P6SM SCT050=
201802082343 TAF KPAE 082343Z 0900/0924 32009KT P6SM VCSH SCT010 BKN018 OVC035
                       TEMPO 0900/0901 1SM -DZ BR BKN004 OVC010
                       FM090200 31007KT P6SM VCSH SCT020 SCT035
                       FM090800 VRB03KT P6SM VCSH SCT015 OVC030
                       FM091100 23004KT 5SM BR VCSH SCT004 OVC008
                       FM091600 31005KT P6SM SCT010 BKN020 FM092200
                       32007KT P6SM SCT025 BKN045=
201802082157 KPAE 082157Z 0822/0918 31005KT P6SM VCSH SCT010 BKN018 OVC035
                      TEMPO 0822/0823 2SM -DZ BR BKN004 OVC010
                       FM090100 31006KT P6SM VCSH SCT018 SCT035
                       FM090800 28005KT P6SM VCSH SCT009 OVC015=
201802081739 TAF KPAE 081739Z 0818/0918 16009KT P6SM VCSH BKN008 OVC015
                      TEMPO 0818/0821 2SM -DZ BR OVC008 FM082100
                       27006KT P6SM VCSH SCT010 BKN018 OVC035 FM082300
                       31006KT P6SM VCSH SCT018 SCT035 FM090800
                       28005KT P6SM VCSH SCT009 OVC015=
201802081628 KPAE 081628Z 0816/0912 16009KT P6SM VCSH BKN008 OVC015 FM082100
                       27006KT P6SM VCSH SCT010 BKN020 OVC035 FM082300
                       31006KT P6SM VCSH SCT020 SCT035 FM090800
                       18005KT P6SM VCSH SCT009 OVC015=
201802081409 KPAE 081409Z 0814/0912 17012G22KT P6SM SCT012 OVC040
                      TEMPO 0814/0816 BKN011 OVC030 FM081600 20015G25KT
                       P6SM -SHRA BKN015 OVC040 FM082000 22015G25KT
                       P6SM VCSH BKN030 FM090400 20008KT P6SM -SHRA
                       BKN020 FM090800 18006KT P6SM VCSH OVC015=
201802081129 TAF KPAE 081129Z 0812/0912 17017G27KT P6SM SCT015 BKN060
                      TEMPO 0812/0815 BKN015 OVC060 FM081500 20015G25KT
                       P6SM -SHRA BKN015 OVC040 FM082000 22015G25KT
                       P6SM VCSH BKN030 FM090400 20008KT P6SM -SHRA
                       BKN020 FM090800 18006KT P6SM VCSH OVC015=
201802080533 TAF KPAE 080533Z 0806/0906 13006KT P6SM SCT020 BKN150
                      TEMPO 0806/0808 BKN020 OVC150 FM081300 18014KT
                       P6SM -RA BKN025 OVC035 FM082000 21014G22KT
                       P6SM SCT025 BKN035 OVC050 FM090100 31006KT
                       P6SM SCT015 BKN025 OVC035=
201802072334 TAF KPAE 072334Z 0800/0824 15008KT P6SM SCT012 BKN018 OVC100 FM080700
                       16012G18KT P6SM BKN012 OVC120 FM081300 18012G18KT
                       P6SM -RA BKN012 OVC025 FM082000 22009KT
                       P6SM VCSH SCT014 BKN020 OVC035 FM082300
                       30007KT P6SM VCSH SCT020 BKN040=
201802071738 TAF KPAE 071738Z 0718/0818 15007KT P6SM OVC008 FM072100 16008KT
                       P6SM SCT012 BKN018 OVC100 FM080500 16012G18KT
                       P6SM BKN010 OVC120 FM081300 18012G18KT P6SM
                       VCSH BKN015 OVC030=
201802071130 TAF KPAE 071130Z 0712/0812 13008KT P6SM OVC012
                      TEMPO 0712/0716 5SM BR OVC008 FM072000 18012KT
                       P6SM SCT010 OVC020 FM080500 16010KT P6SM
                       SCT020 OVC070 FM080900 18012G18KT P6SM VCSH
                       BKN017 OVC030=
201802070520 TAF KPAE 070520Z 0706/0806 13005KT 6SM BR SCT005 OVC010
                      TEMPO 0706/0710 3SM -RA BR BKN005 OVC010
                       FM071000 17008KT 6SM BR BKN005 OVC010 FM072000
                       18012KT P6SM SCT010 OVC020 FM080500 16010KT
                       P6SM SCT020 OVC150=
201802070423 KPAE 070423Z 0704/0724 13005KT 6SM BR SCT005 OVC013
                      TEMPO 0704/0706 2SM -RA BR BKN005 OVC013
                       FM070600 16007KT 6SM -RA BR BKN008 OVC014
                       FM071400 17010KT P6SM SCT007 BKN020 OVC040
                       FM072000 18014KT P6SM SCT010 BKN015 OVC080=
201802062339 TAF KPAE 062339Z 0700/0724 16006KT P6SM -RA SCT008 BKN012 OVC025
                       FM070600 16007KT 6SM -RA BR BKN008 OVC014
                       FM071400 17010KT P6SM SCT007 BKN020 OVC040
                       FM072000 18014KT P6SM SCT010 BKN015 OVC080=
201802062106 KPAE 062106Z 0621/0718 15008KT P6SM VCSH SCT008 BKN018 OVC030 FM062300
                       17007KT P6SM VCSH SCT018 BKN030 OVC040 FM070300
                       17006KT P6SM -RA SCT008 BKN012 OVC025 FM071500
                       17010KT P6SM SCT007 BKN020 OVC040=
201802061742 TAF KPAE 061742Z 0618/0718 14006KT P6SM VCSH SCT010 BKN018 OVC035
                       TEMPO 0618/0619 4SM -DZ BR BKN006 OVC018
                       FM062000 18007KT P6SM SCT015 BKN025 OVC040
                       FM062300 18007KT P6SM SCT020 BKN035 OVC060
                       FM070300 17006KT P6SM -RA SCT008 BKN012
                       OVC025 FM071500 17010KT P6SM SCT007 BKN020
                       OVC040=
201802061547 KPAE 061547Z 0616/0712 13006KT 4SM -DZ BR BKN009 OVC015 FM061800
                       15006KT P6SM VCSH SCT009 BKN015 OVC020 FM062100
                       18008KT P6SM SCT015 BKN022 OVC040 FM070500
                       17008KT P6SM OVC020 FM071000 17010KT 6SM
                       -RA BR OVC015=
201802061134 TAF KPAE 061134Z 0612/0712 17004KT P6SM VCSH SCT008 OVC018
                      TEMPO 0612/0616 5SM BR BKN007 OVC015 FM062100
                       18008KT P6SM SCT012 BKN022 OVC040 FM070500
                       17008KT P6SM OVC020 FM071000 17010KT 6SM
                       -RA BR OVC015=
201802060802 KPAE 060802Z 0608/0706 VRB04KT P6SM VCSH SCT008 BKN020
                      TEMPO 0608/0612 5SM BR BKN007 OVC015 FM061200
                       17004KT P6SM OVC012 FM062200 18008KT P6SM
                       SCT009 BKN015 OVC030=
201802060520 TAF KPAE 060520Z 0606/0706 35004KT 3SM -DZ BR BKN003 BKN015 OVC025
                       TEMPO 0606/0608 1/4SM -DZ FG VV002 FM060900
                       17004KT P6SM BKN005 OVC015 FM062200 18008KT
                       P6SM SCT009 BKN015 OVC030=
201802060322 KPAE 060322Z 0603/0624 VRB03KT P6SM SCT003 BKN015 OVC045
                      TEMPO 0603/0606 3SM -DZ BR BKN003 OVC015
                       FM060600 VRB03KT P6SM VCSH SCT015 BKN020
                       OVC040 FM061700 18005KT P6SM -RA SCT004
                       OVC008 FM062200 18008KT P6SM -RA SCT009
                       BKN014 OVC020=
201802060111 KPAE 060111Z 0601/0624 33005KT 5SM -SHRA BR SCT003 OVC020
                      TEMPO 0601/0603 2SM -RA BR BKN003 OVC020
                       FM060300 VRB03KT P6SM VCSH SCT015 BKN020
                       OVC040 FM061700 18005KT P6SM -RA SCT004
                       OVC008 FM062200 18008KT P6SM -RA SCT009
                       BKN014 OVC020=
201802052336 TAF KPAE 052336Z 0600/0624 VRB03KT 5SM -SHRA BR SCT012 OVC018 FM060300
                       VRB03KT P6SM VCSH SCT015 BKN020 OVC040 FM061700
                       18005KT P6SM -RA SCT004 OVC008 FM062200
                       18008KT P6SM -RA SCT009 BKN014 OVC020=
201802051737 TAF KPAE 051737Z 0518/0618 17005KT 6SM -SHRA BR SCT009 OVC014 FM060200
                       VRB03KT P6SM VCSH SCT012 BKN025 OVC040 FM060800
                       17004KT P6SM SCT006 OVC012 FM061600 17006KT
                       6SM -RA BR SCT004 OVC008=
201802051123 TAF KPAE 051123Z 0512/0612 17008KT P6SM VCSH BKN008 OVC017 FM051500
                       VRB04KT P6SM BKN012 OVC022 FM052200 21010KT
                       P6SM VCSH BKN022 BKN040 FM060500 18006KT
                       P6SM OVC015=
201802050520 TAF KPAE 050520Z 0506/0606 17008KT P6SM BKN025 FM051200 VRB04KT
                       P6SM VCSH BKN025 FM052200 21010KT P6SM SCT025
                       BKN040 FM060500 18006KT P6SM BKN020=
201802042330 TAF KPAE 042330Z 0500/0524 26006KT P6SM FEW004 SCT014 BKN024
                      TEMPO 0500/0504 SCT024 BKN060 FM050400 20012KT
                       P6SM VCSH OVC022 FM052200 21010KT P6SM VCSH
                       SCT025 BKN035=
201802042155 KPAE 042155Z 0422/0518 18007KT P6SM BKN007 OVC009 FM050100 20013G20KT
                       P6SM VCSH SCT006 OVC012=
201802041730 TAF KPAE 041730Z 0418/0518 17008KT 2SM BR OVC005 FM050100 20013G20KT
                       P6SM VCSH SCT006 OVC012=
201802041131 TAF KPAE 041131Z 0412/0512 16010KT 5SM -RA OVC006 FM041800 20016G24KT
                       5SM -RA BR OVC006 FM050100 20012KT P6SM
                       SCT006 OVC012=
201802040535 TAF KPAE 040535Z 0406/0506 16010KT 4SM -RA OVC006 FM041800 20016G24KT
                       4SM -RA BR OVC006 FM050100 20012KT P6SM
                       SCT006 OVC012=
201802032336 TAF KPAE 032336Z 0400/0424 16005KT 3SM -RA BR BKN005 OVC011 FM040300
                       17006KT 5SM -RA BKN006 OVC012 FM041500 19012KT
                       P6SM -RA OVC015 FM041800 20016G24KT 4SM
                       -RA BR OVC007=
201802032002 KPAE 032002Z 0320/0418 13006KT 6SM BR OVC008 FM032200 17014KT P6SM
                       SCT006 BKN011 OVC020 FM040300 17006KT 5SM
                       -RA BKN006 OVC012 FM041500 19012KT P6SM
                       -RA OVC015=
201802031721 TAF KPAE 031721Z 0318/0418 16013KT 5SM BR BKN009 OVC013 FM031900
                       17014KT P6SM SCT006 BKN011 OVC020 FM040300
                       17006KT 5SM -RA BKN006 OVC012=
201802031602 KPAE 031602Z 0316/0412 16013KT 6SM BR BKN006 OVC014 FM031800 17014KT
                       P6SM SCT006 BKN011 OVC020 FM040300 17006KT
                       5SM -RA BKN006 OVC012=
201802031142 TAF KPAE 031142Z 0312/0412 17014KT P6SM SCT011 BKN020 OVC040 FM031500
                       17014KT P6SM SCT006 BKN011 OVC020 FM040300
                       17006KT 5SM -RA BKN006 OVC012=
201802030541 TAF KPAE 030541Z 0306/0406 15012KT P6SM -RA OVC010 FM031000 17010KT
                       4SM BR BKN006 OVC010 FM031800 17010KT P6SM
                       SCT006 BKN012 OVC020 FM040300 17006KT 5SM
                       -RA BKN006 OVC012=
201802022339 TAF KPAE 022339Z 0300/0324 VRB05KT 5SM BR SCT005 OVC015
                      TEMPO 0300/0303 3SM BR BKN005 OVC015 FM030300
                       17011KT 4SM -RA BR BKN005 OVC015 FM030900
                       17011KT 4SM BR BKN005 OVC011 FM032000 18013KT
                       P6SM -SHRA BKN009 BKN015 OVC028=
201802022115 KPAE 022115Z 0221/0318 17013KT P6SM BKN015 OVC030 FM022300 20016G25KT
                       P6SM -SHRA SCT015 SCT030 OVC050 FM030200
                       23010KT P6SM -SHRA SCT007 OVC015 FM030300
                       19007KT P6SM BKN015 OVC030 FM030600 15010KT
                       5SM -RA BR SCT007 OVC012 FM031200 15010KT
                       5SM BR BKN007 OVC012=
201802021904 KPAE 021904Z 0219/0318 18018G28KT P6SM FEW012 SCT050 BKN090
                      TEMPO 0219/0221 -SHRA BKN012 OVC050 FM022100
                       20016G25KT P6SM -SHRA SCT015 SCT030 OVC050
                       FM030000 23010KT P6SM -SHRA SCT007 OVC015
                       FM030300 19007KT P6SM BKN015 OVC030 FM030600
                       15010KT 5SM -RA BR SCT007 OVC012 FM031200
                       15010KT 5SM BR BKN007 OVC012=
201802021805 KPAE 021805Z 0218/0318 19016G25KT P6SM -SHRA SCT009 OVC020 FM022100
                       19016G25KT P6SM -SHRA BKN020 BKN035 OVC050
                       FM030000 23010KT P6SM -SHRA SCT007 OVC015
                       FM030300 19007KT P6SM BKN015 OVC030 FM030600
                       15010KT 5SM -RA BR SCT007 OVC012 FM031200
                       15010KT 5SM BR BKN007 OVC012=
201802021741 TAF KPAE 021741Z 0218/0318 16018G28KT P6SM -SHRA BKN009 OVC020
                       FM022100 19016G25KT P6SM -SHRA BKN015 BKN030
                       OVC050 FM030000 23010KT P6SM -SHRA SCT007
                       OVC015 FM030300 19007KT P6SM BKN015 OVC030
                       FM030600 15010KT 5SM -RA BR SCT007 OVC012
                       FM031200 15010KT 5SM BR BKN007 OVC012=
201802021558 KPAE 021558Z 0216/0312 15015G22KT P6SM BKN007 OVC015
                      TEMPO 0216/0218 5SM -SHRA BR FM021800 18018G28KT
                       P6SM -SHRA SCT007 OVC015 FM022200 18010KT
                       P6SM SCT008 BKN015 OVC030 FM031000 15004KT
                       5SM -RA SCT004 BKN008 OVC015=
201802021511 KPAE 021511Z 0215/0312 15013KT 4SM BR OVC006
                      TEMPO 0215/0218 4SM -SHRA BR FM021800 18012KT
                       P6SM -SHRA SCT004 BKN008 OVC015 FM022200
                       18010KT P6SM SCT008 BKN015 OVC030 FM031000
                       15004KT 5SM -RA SCT004 BKN008 OVC015=
201802021139 TAF KPAE 021139Z 0212/0312 15006KT 2SM BR BKN003 OVC006 FM021500
                       18006KT 4SM BR SCT004 BKN008 OVC015 FM021800
                       18012KT P6SM -SHRA SCT004 BKN008 OVC015
                       FM022200 18010KT P6SM SCT008 BKN015 OVC030
                       FM031000 15004KT 5SM -RA SCT004 BKN008 OVC015=
201802021010 KPAE 021010Z 0210/0306 15006KT 2SM BR BKN003 OVC006 FM021300 18006KT
                       4SM BR SCT004 BKN008 OVC015 FM021700 18012G18KT
                       P6SM -SHRA SCT004 BKN008 OVC015 FM022200
                       18010KT P6SM SCT010 BKN020 OVC040=
201802020540 TAF KPAE 020540Z 0206/0306 14006KT P6SM -RA BKN004 BKN012 OVC022
                       FM020800 18006KT P6SM SCT004 BKN008 OVC015
                       FM021200 18010KT P6SM SCT008 BKN015 OVC025
                       FM021700 18012G18KT P6SM -SHRA SCT004 BKN008
                       OVC015 FM022200 18010KT P6SM SCT010 BKN020
                       OVC040=
201802020011 KPAE 020011Z 0200/0224 10007KT P6SM -RA SCT005 SCT020 OVC050
                      TEMPO 0200/0203 5SM -RA BR BKN005 OVC020
                       FM020300 15010KT 5SM -RA BR BKN007 OVC020
                       FM020900 18010KT P6SM VCSH BKN007 OVC012
                       FM021500 18015KT P6SM -SHRA SCT007 OVC018
                       FM021800 20015G23KT P6SM -SHRA BKN025 OVC050=
201802012340 TAF KPAE 012340Z 0200/0224 10005KT P6SM -RA SCT007 SCT020 OVC050
                       TEMPO 0200/0203 6SM -RA BR BKN007 OVC020
                       FM020300 15010KT 5SM -RA BR BKN007 OVC020
                       FM020900 18010KT P6SM VCSH BKN007 OVC012
                       FM021500 18015KT P6SM -SHRA SCT007 OVC018
                       FM021800 20015G23KT P6SM -SHRA BKN025 OVC050=
201802012253 KPAE 012253Z 0123/0218 14008KT P6SM -RA SCT006 BKN012 OVC040
                      TEMPO 0123/0203 5SM -RA BR BKN006 OVC012
                       FM020600 16012KT P6SM VCSH FEW007 OVC012
                       TEMPO 0206/0209 -RA FM020900 18012KT P6SM
                       VCSH FEW007 BKN012 OVC028
                      PROB30 0215/0218 -SHRA=
201802011741 TAF KPAE 011741Z 0118/0218 14008KT P6SM BKN018 OVC030
                      TEMPO 0118/0121 -RA FM012100 14008KT 5SM
                       -RA BR OVC012 FM020600 16012KT P6SM VCSH
                       FEW007 OVC012
                      TEMPO 0206/0209 -RA FM020900 18012KT P6SM
                       VCSH FEW007 BKN012 OVC028
                      PROB30 0215/0218 -SHRA=
201802011146 TAF KPAE 011146Z 0112/0212 13006KT P6SM BKN018 OVC030 FM011800
                       13008KT P6SM -RA SCT022 OVC035 FM012200
                       13008KT 5SM -RA SCT006 BKN016 OVC025 FM020700
                       18010KT P6SM BKN011 OVC020=
201802010540 TAF KPAE 010540Z 0106/0206 17014KT P6SM VCSH SCT022 BKN040 OVC080
                       TEMPO 0106/0110 BKN022 OVC040 FM011000 17008KT
                       P6SM BKN022 OVC035 FM011800 15008KT P6SM
                       -RA SCT022 OVC035 FM012200 15008KT 5SM -RA
                       SCT006 BKN016 OVC025=
201802010014 KPAE 010014Z 0100/0124 15013KT P6SM VCSH BKN022 OVC060 FM010300
                       17013KT P6SM VCSH SCT022 BKN040 OVC080
                      TEMPO 0103/0107 BKN022 OVC040 FM011000 17008KT
                       P6SM BKN022 OVC080 FM011800 15008KT 6SM
                       -RA BR OVC022 FM012000 15008KT 4SM -RA BR
                       SCT006 OVC018=