##########################################################
# Query made at 02/15/2025 21:46:10 UTC
# Time interval: from 04/01/2018 00:00  to 04/30/2018 23:59  UTC
##########################################################

##########################################################
# KPAE, Everett, Snohomish County Airport (United States)
# WMO index: -----. WIGOS ID: Unknown
# Latitude 47-55-23N. Longitude 122-16-57W. Altitude 184 m.
##########################################################

###################################
#  METAR/SPECI from KPAE
###################################
201804302353 METAR KPAE 302353Z 23003KT 10SM SCT029 OVC055 12/07 A3015 RMK AO2 SLP209 T01220072 10128 20089 58007=
201804302333 SPECI KPAE 302333Z 27005KT 10SM BKN029 OVC055 12/07 A3015 RMK AO2 T01170067=
201804302253 METAR KPAE 302253Z 21004KT 10SM FEW023 BKN032 OVC049 12/07 A3016 RMK AO2 SLP214 T01170067=
201804302213 SPECI KPAE 302213Z 00000KT 10SM SCT022 BKN039 OVC055 13/07 A3016 RMK AO2 T01280072=
201804302153 METAR KPAE 302153Z 23004KT 10SM BKN022 OVC041 11/07 A3017 RMK AO2 SLP217 T01110067=
201804302100 SPECI KPAE 302100Z VRB05KT 10SM SCT017 BKN028 OVC060 11/08 A3017 RMK AO2 T01110078=
201804302053 METAR KPAE 302053Z 27005KT 10SM SCT013 BKN049 OVC060 11/08 A3017 RMK AO2 SLP217 T01110078 58000=
201804302027 SPECI KPAE 302027Z 16004KT 10SM SCT013 BKN049 OVC060 11/08 A3017 RMK AO2 T01110078=
201804301953 METAR KPAE 301953Z VRB05KT 10SM SCT012 BKN017 OVC060 11/08 A3017 RMK AO2 SLP218 T01060078=
201804301907 SPECI KPAE 301907Z 14005KT 10SM BKN009 BKN017 OVC022 10/07 A3017 RMK AO2 T01000067=
201804301900 SPECI KPAE 301900Z 16006KT 10SM BKN011 BKN017 OVC022 09/07 A3017 RMK AO2 T00940072=
201804301853 METAR KPAE 301853Z 18004KT 10SM OVC008 09/07 A3017 RMK AO2 SLP218 T00940067=
201804301753 METAR KPAE 301753Z 16005KT 10SM OVC008 09/07 A3017 RMK AO2 RAB08E17 SLP218 P0000 60000 T00890067 10089 20083 51013=
201804301708 SPECI KPAE 301708Z 13006KT 10SM -RA OVC008 08/06 A3016 RMK AO2 RAB08 P0000 T00830061=
201804301700 SPECI KPAE 301700Z 12006KT 10SM OVC012 08/06 A3016 RMK AO2 T00830061=
201804301653 METAR KPAE 301653Z 13007KT 10SM OVC008 08/07 A3016 RMK AO2 SLP214 T00830067=
201804301559 SPECI KPAE 301559Z 13007KT 10SM OVC008 08/06 A3015 RMK AO2 T00830061=
201804301553 METAR KPAE 301553Z 14006KT 10SM OVC011 08/06 A3015 RMK AO2 SLP211 T00830061=
201804301453 METAR KPAE 301453Z 13008KT 10SM OVC012 08/06 A3013 RMK AO2 SLP204 T00830061 53012=
201804301353 METAR KPAE 301353Z AUTO 14006KT 10SM OVC012 08/06 A3011 RMK AO2 SLP197 T00830061=
201804301331 SPECI KPAE 301331Z AUTO 14005KT 10SM OVC014 08/07 A3011 RMK AO2 T00830067=
201804301304 SPECI KPAE 301304Z AUTO 14006KT 10SM OVC017 08/06 A3010 RMK AO2 T00830061=
201804301253 METAR KPAE 301253Z AUTO 13007KT 10SM OVC014 08/06 A3010 RMK AO2 SLP194 T00830061=
201804301153 METAR KPAE 301153Z AUTO 17005KT 10SM OVC012 08/07 A3009 RMK AO2 SLP191 60002 70021 T00830067 10094 20083 51005=
201804301053 METAR KPAE 301053Z AUTO 16005KT 10SM OVC012 08/07 A3009 RMK AO2 SLP191 T00830067=
201804300953 METAR KPAE 300953Z AUTO 17008KT 10SM BKN012 OVC075 08/07 A3009 RMK AO2 SLP190 T00830067=
201804300950 SPECI KPAE 300950Z AUTO 16009KT 10SM BKN012 BKN018 OVC085 08/07 A3009 RMK AO2=
201804300942 SPECI KPAE 300942Z AUTO 16008KT 10SM FEW014 SCT020 OVC075 08/07 A3008 RMK AO2 T00830067=
201804300853 METAR KPAE 300853Z AUTO 16010KT 10SM OVC015 09/07 A3008 RMK AO2 SLP186 60002 T00890067 51006=
201804300800 SPECI KPAE 300800Z AUTO 16006KT 10SM OVC015 09/08 A3008 RMK AO2 T00890078=
201804300753 METAR KPAE 300753Z AUTO 16005KT 10SM OVC013 09/08 A3008 RMK AO2 SLP186 T00890078 401220078=
201804300730 SPECI KPAE 300730Z AUTO 18004KT 10SM OVC014 09/08 A3008 RMK AO2 T00890083=
201804300714 SPECI KPAE 300714Z AUTO 18004KT 10SM OVC015 09/08 A3007 RMK AO2 T00890083=
201804300706 SPECI KPAE 300706Z AUTO 17005KT 10SM BKN014 OVC055 09/08 A3007 RMK AO2 T00890083=
201804300653 METAR KPAE 300653Z AUTO 17005KT 10SM FEW014 OVC055 09/08 A3007 RMK AO2 RAE16 SLP183 P0002 T00890083=
201804300626 SPECI KPAE 300626Z AUTO 18004KT 10SM FEW006 SCT011 OVC055 09/08 A3006 RMK AO2 RAE16 P0002 T00890083=
201804300612 SPECI KPAE 300612Z AUTO 18004KT 10SM -RA SCT006 BKN013 OVC038 09/09 A3006 RMK AO2 P0002 T00940089=
201804300603 SPECI KPAE 300603Z AUTO 20007KT 5SM -RA BR SCT009 BKN020 OVC055 09/08 A3006 RMK AO2 P0002 T00940083=
201804300553 METAR KPAE 300553Z AUTO 19006KT 3SM -RA BR FEW005 SCT021 OVC055 09/09 A3006 RMK AO2 SLP181 P0006 60019 T00940089 10122 20094 51013=
201804300453 METAR KPAE 300453Z 36003KT 3SM RA BR FEW023 BKN033 OVC042 10/09 A3005 RMK AO2 RAB01 SLP178 P0013 T01000089=
201804300440 SPECI KPAE 300440Z 00000KT 2 1/2SM RA BR SCT025 BKN032 OVC040 10/09 A3005 RMK AO2 RAB01 P0005 T01000089=
201804300406 SPECI KPAE 300406Z 33004KT 10SM -RA BKN029 BKN047 OVC060 11/08 A3004 RMK AO2 RAB01 P0000 T01060083=
201804300353 METAR KPAE 300353Z 33005KT 10SM FEW031 BKN047 OVC060 11/08 A3003 RMK AO2 RAB16E42 SLP172 P0000 T01060083=
201804300253 METAR KPAE 300253Z 00000KT 10SM SCT060 BKN095 BKN120 11/07 A3002 RMK AO2 SLP168 60000 T01110072 55001=
201804300153 METAR KPAE 300153Z 02003KT 10SM SCT045 OVC070 12/07 A3002 RMK AO2 RAE04 SLP166 P0000 T01220072=
201804300053 METAR KPAE 300053Z 31003KT 10SM -RA BKN038 BKN048 OVC060 12/07 A3002 RMK AO2 RAB11E21B49 SLP168 P0000 T01220072=
201804292353 METAR KPAE 292353Z 35004KT 10SM SCT049 OVC060 12/07 A3002 RMK AO2 RAB22E45 SLP169 P0000 60000 T01220072 10122 20094 53000=
201804292253 METAR KPAE 292253Z 35005KT 10SM BKN042 OVC050 12/07 A3002 RMK AO2 SLP167 T01220072=
201804292153 METAR KPAE 292153Z 22003KT 10SM BKN040 OVC060 12/07 A3002 RMK AO2 SLP168 T01170067=
201804292100 SPECI KPAE 292100Z 22004KT 10SM BKN050 OVC060 11/07 A3002 RMK AO2 T01110067=
201804292053 METAR KPAE 292053Z 23006KT 10SM SCT010 BKN020 12/07 A3002 RMK AO2 SLP168 T01170067 51001=
201804291958 SPECI KPAE 291958Z 21006KT 10SM SCT010 BKN020 11/07 A3002 RMK AO2 T01110067=
201804291953 METAR KPAE 291953Z 22006KT 10SM BKN010 BKN018 OVC100 12/07 A3002 RMK AO2 SLP167 T01170067=
201804291853 METAR KPAE 291853Z 20004KT 10SM BKN012 BKN025 OVC100 10/08 A3003 RMK AO2 SLP169 T01000078=
201804291848 SPECI KPAE 291848Z 22006KT 10SM BKN012 BKN025 OVC100 11/08 A3003 RMK AO2=
201804291753 METAR KPAE 291753Z 00000KT 10SM BKN004 OVC014 09/08 A3002 RMK AO2 SLP168 60000 T00940078 10094 20078 51009=
201804291653 METAR KPAE 291653Z VRB03KT 10SM BKN004 OVC014 09/07 A3002 RMK AO2 SLP167 T00890072=
201804291646 SPECI KPAE 291646Z 00000KT 10SM BKN006 OVC014 09/08 A3002 RMK AO2 T00890078=
201804291633 SPECI KPAE 291633Z 08004KT 10SM SCT008 OVC014 08/08 A3002 RMK AO2 T00830078=
201804291553 METAR KPAE 291553Z 08006KT 10SM BKN005 BKN014 OVC029 08/07 A3001 RMK AO2 SLP163 T00830072=
201804291453 METAR KPAE 291453Z 08006KT 5SM BR BKN005 BKN014 OVC029 08/07 A2999 RMK AO2 SLP159 60000 T00830072 53005=
201804291353 METAR KPAE 291353Z 08003KT 5SM BR BKN005 OVC012 08/07 A2999 RMK AO2 SLP156 T00780072=
201804291334 SPECI KPAE 291334Z AUTO 10003KT 9SM FEW005 OVC011 08/07 A2998 RMK AO2 T00780072=
201804291253 METAR KPAE 291253Z AUTO 07004KT 10SM BKN011 OVC016 08/07 A2998 RMK AO2 RAB1154E03 SLP153 P0000 T00780072=
201804291249 SPECI KPAE 291249Z AUTO 08004KT 10SM BKN011 OVC016 08/07 A2998 RMK AO2 RAB1154E03 P0000=
201804291153 METAR KPAE 291153Z AUTO 06004KT 4SM BR OVC007 08/07 A2998 RMK AO2 RAE50 CIG 004V011 SLP154 P0003 60006 70035 T00780072 10083 20078 52007=
201804291119 SPECI KPAE 291119Z AUTO 00000KT 4SM -RA BR OVC005 08/07 A2998 RMK AO2 CIG 004V009 P0002 T00780072=
201804291101 SPECI KPAE 291101Z AUTO 00000KT 2SM -RA BR OVC005 08/07 A2998 RMK AO2 P0001 T00780072=
201804291053 METAR KPAE 291053Z AUTO 02003KT 3SM -RA BR OVC005 08/07 A2997 RMK AO2 RAE0955B49 CIG 004V009 SLP152 P0001 T00780072=
201804291022 SPECI KPAE 291022Z AUTO 00000KT 10SM BKN007 OVC021 08/07 A2997 RMK AO2 RAE0955 CIG 004V010 P0000 T00780072=
201804291012 SPECI KPAE 291012Z AUTO 00000KT 9SM FEW006 BKN010 OVC023 08/07 A2997 RMK AO2 RAE0955 P0000 T00780072=
201804291005 SPECI KPAE 291005Z AUTO VRB03KT 10SM SCT006 BKN015 OVC034 08/07 A2996 RMK AO2 RAE0955 P0000 T00780072=
201804290953 METAR KPAE 290953Z AUTO 00000KT 5SM -RA BR BKN007 OVC023 08/07 A2996 RMK AO2 RAB00E12B34 CIG 004V010 SLP147 P0000 T00780072=
201804290853 METAR KPAE 290853Z AUTO 34003KT 9SM BKN008 OVC025 08/07 A2996 RMK AO2 RAE34 SLP146 P0001 60002 T00780072 58001=
201804290819 SPECI KPAE 290819Z AUTO 35003KT 9SM -RA BKN009 OVC043 08/07 A2996 RMK AO2 P0001 T00830072=
201804290803 SPECI KPAE 290803Z AUTO 00000KT 7SM -RA SCT008 OVC041 08/07 A2996 RMK AO2 P0000 T00830072=
201804290753 METAR KPAE 290753Z AUTO 00000KT 6SM -RA BR SCT007 BKN025 OVC041 08/07 A2996 RMK AO2 RAB0657 SLP147 P0001 T00830072 401170083=
201804290742 SPECI KPAE 290742Z AUTO 35003KT 7SM -RA SCT007 BKN025 OVC044 08/07 A2996 RMK AO2 RAB0657 P0001 T00830072=
201804290724 SPECI KPAE 290724Z AUTO 00000KT 6SM -RA BR BKN008 OVC025 08/07 A2996 RMK AO2 RAB0657 P0001 T00830072=
201804290713 SPECI KPAE 290713Z AUTO 00000KT 7SM -RA SCT008 OVC025 08/07 A2996 RMK AO2 RAB0657 P0000 T00830072=
201804290653 METAR KPAE 290653Z AUTO 00000KT 10SM BKN023 OVC028 08/07 A2996 RMK AO2 RAB0559E11 SLP147 P0000 T00830072=
201804290627 SPECI KPAE 290627Z AUTO 34003KT 10SM BKN023 OVC031 08/07 A2996 RMK AO2 RAB0559E11 P0000 T00830072=
201804290553 METAR KPAE 290553Z AUTO 32003KT 10SM SCT022 OVC033 08/07 A2996 RMK AO2 RAE14 SLP146 P0001 60002 T00830072 10094 20083 51008=
201804290534 SPECI KPAE 290534Z AUTO 32003KT 10SM BKN022 OVC037 08/08 A2996 RMK AO2 RAE14 P0001 T00830078=
201804290453 METAR KPAE 290453Z AUTO 32003KT 10SM -RA FEW031 SCT039 OVC048 08/07 A2995 RMK AO2 RAB10 SLP144 P0000 T00830072=
201804290400 SPECI KPAE 290400Z AUTO 31003KT 10SM FEW023 BKN031 OVC049 08/07 A2995 RMK AO2 T00830072=
201804290353 METAR KPAE 290353Z 32004KT 10SM BKN006 OVC041 08/07 A2995 RMK AO2 RAB37E52 SLP142 P0001 T00830072=
201804290302 SPECI KPAE 290302Z 32005KT 10SM BKN006 OVC041 09/08 A2993 RMK AO2 T00890078=
201804290253 METAR KPAE 290253Z 33005KT 10SM SCT008 SCT025 OVC041 09/08 A2993 RMK AO2 RAE38 SLP138 P0000 60000 T00890078 55002=
201804290200 SPECI KPAE 290200Z 31007KT 10SM -RA FEW009 OVC023 09/08 A2993 RMK AO2 P0000 T00890078=
201804290153 METAR KPAE 290153Z 32004KT 10SM -RA BKN008 OVC014 09/08 A2993 RMK AO2 RAE28B50 SLP137 P0000 T00890078=
201804290053 METAR KPAE 290053Z 31007KT 10SM -RA BKN006 BKN012 OVC035 09/08 A2994 RMK AO2 RAB49 SLP139 P0000 T00940078=
201804290007 SPECI KPAE 290007Z 33006KT 10SM BKN006 BKN012 OVC035 09/08 A2994 RMK AO2 T00940083=
201804290000 SPECI KPAE 290000Z 31006KT 10SM FEW006 BKN012 OVC035 09/08 A2994 RMK AO2 T00940083=
201804282353 METAR KPAE 282353Z VRB06KT 10SM BKN006 BKN026 OVC042 10/08 A2994 RMK AO2 RAE05 SLP140 P0001 60002 T01000083 10117 20094 58001=
201804282253 METAR KPAE 282253Z 32008KT 9SM -RA BKN009 BKN026 OVC042 09/08 A2994 RMK AO2 RAB08 SLP141 P0001 T00940078=
201804282153 METAR KPAE 282153Z 32007KT 10SM BKN008 BKN026 OVC050 10/08 A2994 RMK AO2 SLP141 T01000078=
201804282141 SPECI KPAE 282141Z 32006KT 10SM BKN008 BKN026 OVC050 10/08 A2994 RMK AO2 T01000078=
201804282103 SPECI KPAE 282103Z 01004KT 10SM BKN010 BKN026 OVC050 12/08 A2994 RMK AO2 T01170083=
201804282100 SPECI KPAE 282100Z 34005KT 10SM FEW021 BKN026 OVC050 11/08 A2994 RMK AO2 T01110083=
201804282053 METAR KPAE 282053Z 35005KT 10SM BKN009 BKN042 OVC055 11/08 A2994 RMK AO2 SLP140 60000 T01110083 58004=
201804281953 METAR KPAE 281953Z VRB03KT 10SM BKN009 BKN042 OVC055 12/07 A2995 RMK AO2 SLP143 T01170067=
201804281853 METAR KPAE 281853Z 00000KT 5SM HZ BKN006 OVC060 11/08 A2995 RMK AO2 RAE27 SLP144 P0000 T01060078=
201804281836 SPECI KPAE 281836Z 03004KT 5SM BR BKN006 OVC060 11/08 A2995 RMK AO2 RAE27 P0000 T01060083=
201804281800 SPECI KPAE 281800Z 08005KT 5SM -RA BR BKN004 BKN007 OVC022 10/09 A2995 RMK AO2 P0000 T01000089=
201804281753 METAR KPAE 281753Z 06004KT 2 1/2SM -RA BR BKN004 BKN007 OVC022 10/09 A2995 RMK AO2 RAB1659 SLP144 P0002 60025 T01000089 10100 20083 51003=
201804281721 SPECI KPAE 281721Z 07004KT 2 1/2SM -RA BR BKN004 BKN007 OVC022 09/08 A2995 RMK AO2 RAB1659 P0001 T00890078=
201804281653 METAR KPAE 281653Z 07003KT 3SM BR BKN007 OVC018 09/08 A2995 RMK AO2 RAE37 CIG 005V011 SLP144 P0001 T00890078=
201804281600 SPECI KPAE 281600Z 12006KT 5SM -RA BR BKN005 BKN039 OVC048 08/08 A2995 RMK AO2 P0001 T00830078=
201804281553 METAR KPAE 281553Z 12007KT 4SM -RA BR SCT005 BKN039 OVC048 08/08 A2995 RMK AO2 SLP143 P0004 T00830078=
201804281453 METAR KPAE 281453Z VRB03KT 7SM -RA BKN007 OVC038 08/08 A2994 RMK AO2 SLP141 P0008 60018 T00830078 53001=
201804281419 SPECI KPAE 281419Z 12007KT 5SM -RA BR BKN007 OVC043 08/07 A2994 RMK AO2 P0004 T00830072=
201804281410 SPECI KPAE 281410Z 13007KT 4SM -RA BR SCT007 OVC041 08/08 A2994 RMK AO2 P0003 T00830078=
201804281405 SPECI KPAE 281405Z 13008KT 2 1/2SM -RA BR SCT007 BKN021 OVC043 08/08 A2994 RMK AO2 P0003 T00830078=
201804281353 METAR KPAE 281353Z 12006KT 3SM -RA BR BKN007 BKN021 OVC043 08/08 A2994 RMK AO2 SLP139 P0004 T00830078=
201804281311 SPECI KPAE 281311Z AUTO 13007KT 7SM -RA BKN006 OVC037 08/08 A2994 RMK AO2 P0001 T00830078=
201804281253 METAR KPAE 281253Z AUTO 14007KT 6SM -RA BR FEW006 BKN041 OVC055 08/08 A2994 RMK AO2 SLP138 P0006 T00830078=
201804281203 SPECI KPAE 281203Z AUTO 14008KT 4SM -RA BR FEW006 SCT019 OVC038 08/08 A2994 RMK AO2 P0002 T00830078=
201804281153 METAR KPAE 281153Z AUTO 13006KT 5SM -RA BR SCT006 BKN013 OVC024 08/08 A2994 RMK AO2 RAB15 SLP140 P0003 60003 70003 T00830078 10106 20083 58008=
201804281124 SPECI KPAE 281124Z AUTO 14005KT 4SM -RA BR SCT007 OVC014 09/08 A2995 RMK AO2 RAB15 P0001 T00890078=
201804281053 METAR KPAE 281053Z AUTO 17005KT 7SM BKN012 OVC017 09/08 A2995 RMK AO2 RAB35E44 SLP144 P0000 T00890078=
201804280953 METAR KPAE 280953Z AUTO 16007KT 10SM OVC013 09/07 A2996 RMK AO2 SLP147 T00940072=
201804280925 SPECI KPAE 280925Z AUTO 17007KT 10SM OVC013 09/07 A2997 RMK AO2 T00940072=
201804280913 SPECI KPAE 280913Z AUTO 16008KT 10SM BKN015 OVC038 09/07 A2996 RMK AO2 T00940072=
201804280853 METAR KPAE 280853Z AUTO 17006KT 10SM BKN013 BKN019 OVC038 09/07 A2997 RMK AO2 SLP148 T00940072 58009=
201804280753 METAR KPAE 280753Z AUTO 17008KT 10SM BKN013 OVC041 10/07 A2998 RMK AO2 SLP151 T01000072 401560078=
201804280726 SPECI KPAE 280726Z AUTO 16009KT 10SM BKN014 OVC039 10/07 A2998 RMK AO2 T01000072=
201804280653 METAR KPAE 280653Z AUTO 15011KT 10SM OVC022 10/07 A2999 RMK AO2 SLP155 T01000067=
201804280553 METAR KPAE 280553Z AUTO 16007KT 10SM BKN020 BKN075 OVC090 11/07 A2999 RMK AO2 SLP157 T01060072 10150 20106 50010=
201804280544 SPECI KPAE 280544Z AUTO 14009KT 10SM SCT020 BKN075 OVC090 11/07 A3000 RMK AO2 T01110072=
201804280453 METAR KPAE 280453Z AUTO 16010KT 10SM OVC021 11/07 A3000 RMK AO2 SLP158 T01110067=
201804280430 SPECI KPAE 280430Z AUTO 15012KT 10SM BKN021 BKN044 OVC065 11/07 A3000 RMK AO2 T01110072=
201804280353 METAR KPAE 280353Z 14010KT 10SM SCT024 12/07 A2998 RMK AO2 SLP154 T01170072=
201804280253 METAR KPAE 280253Z 14011G21KT 10SM OVC055 12/07 A2996 RMK AO2 SLP147 T01220072 53009=
201804280200 SPECI KPAE 280200Z 15014G22KT 10SM BKN060 13/07 A2995 RMK AO2 T01330072=
201804280153 METAR KPAE 280153Z 15017G22KT 10SM BKN029 OVC048 13/07 A2995 RMK AO2 SLP142 T01330072=
201804280107 SPECI KPAE 280107Z 15014G24KT 10SM BKN029 OVC048 14/08 A2996 RMK AO2 T01390078=
201804280100 SPECI KPAE 280100Z 14017G23KT 10SM FEW029 OVC048 14/08 A2996 RMK AO2 T01440078=
201804280053 METAR KPAE 280053Z 14015KT 10SM BKN029 BKN033 BKN043 14/08 A2995 RMK AO2 PK WND 14029/0021 SLP143 T01390078=
201804280004 SPECI KPAE 280004Z 17015G25KT 10SM SCT029 BKN033 BKN043 15/08 A2994 RMK AO2 T01500083=
201804272353 METAR KPAE 272353Z 16019KT 10SM BKN029 BKN033 14/08 A2994 RMK AO2 SLP138 T01440078 10156 20106 53011=
201804272253 METAR KPAE 272253Z AUTO 14015G24KT 10SM BKN026 OVC032 15/09 A2992 RMK AO2 SLP132 T01500089=
201804272153 METAR KPAE 272153Z 16017KT 10SM OVC019 13/09 A2992 RMK AO2 SLP131 T01330089=
201804272053 METAR KPAE 272053Z 15016KT 10SM OVC017 13/09 A2990 RMK AO2 SLP127 T01330089 53001=
201804272034 SPECI KPAE 272034Z 16013KT 10SM OVC015 13/08 A2990 RMK AO2 T01280083=
201804271953 METAR KPAE 271953Z 15009KT 10SM OVC011 11/09 A2990 RMK AO2 SLP127 T01110089=
201804271950 SPECI KPAE 271950Z 14010KT 10SM OVC011 11/09 A2990 RMK AO2=
201804271853 METAR KPAE 271853Z 13011KT 10SM OVC009 11/08 A2990 RMK AO2 SLP126 T01110083=
201804271753 METAR KPAE 271753Z 15009KT 10SM OVC007 11/09 A2991 RMK AO2 SLP128 T01060089 10106 20078 51003=
201804271653 METAR KPAE 271653Z 15011KT 9SM OVC006 10/08 A2991 RMK AO2 SLP127 T01000083=
201804271553 METAR KPAE 271553Z 17006KT 1 1/2SM BR OVC003 09/09 A2991 RMK AO2 SLP127 T00940089=
201804271523 SPECI KPAE 271523Z 17005KT 1SM R16R/P6000FT BR OVC002 09/09 A2991 RMK AO2 T00890089=
201804271507 SPECI KPAE 271507Z 20004KT 2SM R16R/4500VP6000FT BR OVC002 09/09 A2990 RMK AO2 T00890089=
201804271500 SPECI KPAE 271500Z 00000KT 3/4SM R16R/3500VP6000FT BR OVC002 09/09 A2990 RMK AO2 T00890089=
201804271453 METAR KPAE 271453Z 19004KT 1/4SM R16R/1800V4500FT FG OVC002 09/08 A2990 RMK AO2 SLP124 T00890083 53004=
201804271440 SPECI KPAE 271440Z 00000KT 1/4SM R16R/2000V4000FT FG VV002 09/09 A2990 RMK AO2 T00890089=
201804271429 SPECI KPAE 271429Z 17003KT 1/4SM R16R/1400V1800FT FG VV002 08/08 A2990 RMK AO2 T00830083=
201804271353 METAR KPAE 271353Z 11004KT 1/4SM R16R/2400VP6000FT FG OVC002 08/08 A2989 RMK AO2 SLP121 T00830083=
201804271345 SPECI KPAE 271345Z AUTO 16005KT 3SM R16R/4500VP6000FT BR OVC004 09/08 A2989 RMK AO2 CIG 002V005 T00890083=
201804271318 SPECI KPAE 271318Z AUTO 00000KT 3SM BR BKN005 08/08 A2989 RMK AO2 T00830083=
201804271312 SPECI KPAE 271312Z AUTO 00000KT 2 1/2SM BR FEW005 08/08 A2989 RMK AO2 T00830078=
201804271253 METAR KPAE 271253Z AUTO 00000KT 4SM R16R/1600VP6000FT BR SCT001 08/07 A2989 RMK AO2 SLP120 T00780072=
201804271250 SPECI KPAE 271250Z AUTO 00000KT 2 1/2SM R16R/1800VP6000FT BR BKN001 08/08 A2989 RMK AO2=
201804271234 SPECI KPAE 271234Z AUTO 00000KT 1/2SM R16R/1600V2400FT FG VV001 08/08 A2989 RMK AO2 T00830078=
201804271153 METAR KPAE 271153Z AUTO 34003KT 1/4SM R16R/1600V2000FT FG VV001 08/08 A2989 RMK AO2 SLP119 T00830083 10144 20083 58001=
201804271148 SPECI KPAE 271148Z AUTO 00000KT 1/4SM R16R/1200V2200FT FG VV001 08/08 A2989 RMK AO2=
201804271133 SPECI KPAE 271133Z AUTO 32003KT 1/2SM R16R/1600V2000FT FG VV001 09/09 A2989 RMK AO2 T00890089=
201804271125 SPECI KPAE 271125Z AUTO 32004KT 1/2SM R16R/1600V3500FT FG VV001 09/08 A2989 RMK AO2 T00890083=
201804271116 SPECI KPAE 271116Z AUTO 32004KT 1SM R16R/2400V4500FT BR VV001 09/08 A2989 RMK AO2 T00890083=
201804271053 METAR KPAE 271053Z AUTO 33005KT 1/2SM R16R/2400VP6000FT FG VV001 09/09 A2989 RMK AO2 SLP120 T00890089=
201804271033 SPECI KPAE 271033Z AUTO 34007KT 1SM R16R/1000VP6000FT BR VV001 09/08 A2989 RMK AO2 VIS 1/2V5 T00890083=
201804271030 SPECI KPAE 271030Z AUTO 34006KT 2SM R16R/1200VP6000FT BR BKN002 09/08 A2989 RMK AO2 VIS 1/2V5 T00890083=
201804271025 SPECI KPAE 271025Z AUTO 35005KT 6SM BR SCT002 09/08 A2989 RMK AO2 T00890083=
201804270953 METAR KPAE 270953Z AUTO 34004KT 10SM CLR 09/08 A2989 RMK AO2 SLP120 T00940078=
201804270853 METAR KPAE 270853Z AUTO 00000KT 10SM CLR 11/07 A2990 RMK AO2 SLP123 T01110072 53003=
201804270753 METAR KPAE 270753Z AUTO 32006KT 10SM CLR 11/08 A2989 RMK AO2 SLP121 T01060083 402390100=
201804270653 METAR KPAE 270653Z AUTO 32007KT 10SM CLR 12/08 A2989 RMK AO2 SLP121 T01220078=
201804270553 METAR KPAE 270553Z AUTO 32007KT 10SM CLR 14/06 A2989 RMK AO2 SLP120 T01440056 10233 20144 50001=
201804270453 METAR KPAE 270453Z AUTO 32005KT 10SM CLR 17/06 A2989 RMK AO2 SLP121 T01720056=
201804270353 METAR KPAE 270353Z AUTO 33007KT 10SM CLR 18/06 A2989 RMK AO2 SLP120 T01780061=
201804270253 METAR KPAE 270253Z 32007KT 10SM CLR 19/07 A2989 RMK AO2 SLP119 T01890072 56016=
201804270153 METAR KPAE 270153Z 32007KT 10SM CLR 21/08 A2990 RMK AO2 SLP123 T02110078=
201804270053 METAR KPAE 270053Z 31006KT 10SM CLR 22/07 A2992 RMK AO2 SLP130 T02220067=
201804262353 METAR KPAE 262353Z 31008KT 10SM CLR 23/06 A2993 RMK AO2 SLP135 T02330056 10239 20178 56021=
201804262253 METAR KPAE 262253Z 31005KT 10SM CLR 23/08 A2995 RMK AO2 SLP142 T02280078=
201804262153 METAR KPAE 262153Z 33006KT 10SM CLR 23/07 A2997 RMK AO2 SLP149 T02280072=
201804262053 METAR KPAE 262053Z 33006KT 10SM CLR 22/07 A3000 RMK AO2 SLP156 T02170067 58015=
201804261953 METAR KPAE 261953Z 31005KT 10SM CLR 21/06 A3001 RMK AO2 SLP162 T02060056=
201804261853 METAR KPAE 261853Z 32005KT 10SM CLR 20/06 A3003 RMK AO2 SLP168 T02000056=
201804261753 METAR KPAE 261753Z 34006KT 10SM CLR 18/05 A3004 RMK AO2 SLP172 T01780050 10178 20106 58002=
201804261653 METAR KPAE 261653Z 35005KT 10SM CLR 16/04 A3005 RMK AO2 SLP173 T01560039=
201804261553 METAR KPAE 261553Z 35004KT 10SM CLR 15/06 A3004 RMK AO2 SLP173 T01500061=
201804261453 METAR KPAE 261453Z 32005KT 10SM CLR 12/06 A3005 RMK AO2 SLP174 T01220061 55003=
201804261353 METAR KPAE 261353Z 35003KT 10SM CLR 11/06 A3004 RMK AO2 SLP173 T01110061=
201804261253 METAR KPAE 261253Z AUTO 34005KT 10SM CLR 11/05 A3005 RMK AO2 SLP174 T01110050=
201804261153 METAR KPAE 261153Z AUTO 00000KT 10SM CLR 11/06 A3006 RMK AO2 SLP177 T01060056 10144 20100 56003=
201804261053 METAR KPAE 261053Z AUTO 00000KT 10SM CLR 11/05 A3006 RMK AO2 SLP178 T01110050=
201804260953 METAR KPAE 260953Z AUTO 00000KT 10SM CLR 12/04 A3006 RMK AO2 SLP177 T01170044=
201804260853 METAR KPAE 260853Z AUTO 00000KT 10SM CLR 12/04 A3006 RMK AO2 SLP179 T01220039 58003=
201804260753 METAR KPAE 260753Z AUTO 36004KT 10SM CLR 12/04 A3007 RMK AO2 SLP182 T01220039 402000094=
201804260653 METAR KPAE 260653Z AUTO 35003KT 10SM CLR 13/03 A3007 RMK AO2 SLP183 T01330033=
201804260553 METAR KPAE 260553Z AUTO 00000KT 10SM CLR 14/04 A3007 RMK AO2 SLP184 T01390044 10200 20139 51004=
201804260453 METAR KPAE 260453Z AUTO 33004KT 10SM CLR 14/04 A3007 RMK AO2 SLP183 T01440044=
201804260353 METAR KPAE 260353Z 32005KT 10SM CLR 15/04 A3007 RMK AO2 SLP182 T01500039=
201804260253 METAR KPAE 260253Z 32006KT 10SM CLR 16/05 A3006 RMK AO2 SLP180 T01610050 58009=
201804260153 METAR KPAE 260153Z 32008KT 10SM CLR 18/06 A3007 RMK AO2 SLP183 T01830061=
201804260053 METAR KPAE 260053Z 32008KT 10SM CLR 20/07 A3008 RMK AO2 SLP185 T02000067=
201804252353 METAR KPAE 252353Z 30010KT 10SM CLR 19/07 A3009 RMK AO2 SLP188 T01940067 10200 20144 58013=
201804252253 METAR KPAE 252253Z 31008KT 10SM CLR 19/07 A3010 RMK AO2 SLP193 T01940067=
201804252153 METAR KPAE 252153Z 34007KT 10SM CLR 19/07 A3011 RMK AO2 SLP197 T01940072=
201804252053 METAR KPAE 252053Z 31007KT 10SM CLR 19/07 A3013 RMK AO2 SLP201 T01890067 58006=
201804251953 METAR KPAE 251953Z 32006KT 10SM CLR 18/05 A3014 RMK AO2 SLP204 T01780050=
201804251853 METAR KPAE 251853Z 33007KT 280V360 10SM CLR 17/07 A3015 RMK AO2 SLP207 T01670067=
201804251753 METAR KPAE 251753Z 34007KT 10SM CLR 15/06 A3015 RMK AO2 SLP208 T01500061 10150 20100 53007=
201804251653 METAR KPAE 251653Z 33009KT 10SM CLR 13/07 A3014 RMK AO2 SLP205 T01280067=
201804251553 METAR KPAE 251553Z 33009KT 10SM CLR 12/07 A3013 RMK AO2 SLP203 T01220067=
201804251453 METAR KPAE 251453Z 32006KT 10SM CLR 12/06 A3013 RMK AO2 SLP201 T01170056 53011=
201804251353 METAR KPAE 251353Z AUTO 32004KT 10SM CLR 11/07 A3012 RMK AO2 SLP198 T01060067=
201804251253 METAR KPAE 251253Z AUTO 32004KT 10SM CLR 10/06 A3010 RMK AO2 SLP191 T01000061=
201804251153 METAR KPAE 251153Z AUTO 33006KT 10SM CLR 10/06 A3009 RMK AO2 SLP189 T01000056 10139 20094 50000=
201804251053 METAR KPAE 251053Z AUTO 32005KT 10SM CLR 10/05 A3010 RMK AO2 SLP190 T01000050=
201804250953 METAR KPAE 250953Z AUTO 33004KT 10SM CLR 09/05 A3009 RMK AO2 SLP188 T00940050=
201804250853 METAR KPAE 250853Z AUTO 33005KT 10SM CLR 12/04 A3009 RMK AO2 SLP189 T01170039 50001=
201804250753 METAR KPAE 250753Z AUTO 33005KT 10SM CLR 12/03 A3009 RMK AO2 SLP189 T01220033 402060078=
201804250653 METAR KPAE 250653Z AUTO 32006KT 10SM CLR 13/03 A3009 RMK AO2 SLP190 T01280033=
201804250553 METAR KPAE 250553Z AUTO 34005KT 10SM CLR 13/03 A3009 RMK AO2 SLP187 T01330033 10200 20122 51009=
201804250453 METAR KPAE 250453Z AUTO 32006KT 10SM CLR 13/06 A3009 RMK AO2 SLP187 T01280056=
201804250353 METAR KPAE 250353Z AUTO 32006KT 10SM CLR 14/06 A3007 RMK AO2 SLP183 T01440056=
201804250253 METAR KPAE 250253Z 32006KT 10SM CLR 16/06 A3006 RMK AO2 SLP178 T01560061 56016=
201804250153 METAR KPAE 250153Z 32008KT 10SM CLR 17/06 A3007 RMK AO2 SLP181 T01720061=
201804250053 METAR KPAE 250053Z VRB06KT 10SM CLR 19/06 A3009 RMK AO2 SLP189 T01890056=
201804242353 METAR KPAE 242353Z 33008KT 10SM CLR 20/06 A3011 RMK AO2 SLP194 T02000056 10206 20172 56018=
201804242253 METAR KPAE 242253Z 32009KT 10SM CLR 19/06 A3012 RMK AO2 SLP200 T01940056=
201804242153 METAR KPAE 242153Z 33009KT 10SM CLR 19/05 A3014 RMK AO2 SLP208 T01940050=
201804242053 METAR KPAE 242053Z 32009KT 10SM CLR 18/06 A3016 RMK AO2 SLP214 T01830056 56016=
201804241953 METAR KPAE 241953Z 32008KT 10SM CLR 18/04 A3018 RMK AO2 SLP219 T01830039=
201804241853 METAR KPAE 241853Z 34005KT 10SM CLR 20/M02 A3019 RMK AO2 SLP224 T02001017=
201804241753 METAR KPAE 241753Z 35004KT 10SM CLR 19/01 A3021 RMK AO2 SLP230 T01890006 10189 20078 55005=
201804241653 METAR KPAE 241653Z 36003KT 10SM CLR 17/03 A3021 RMK AO2 SLP230 T01670028=
201804241553 METAR KPAE 241553Z 35003KT 10SM CLR 12/04 A3022 RMK AO2 SLP233 T01220039=
201804241453 METAR KPAE 241453Z 33004KT 10SM CLR 10/04 A3023 RMK AO2 SLP236 T01000039 53001=
201804241353 METAR KPAE 241353Z AUTO 01005KT 10SM CLR 11/01 A3022 RMK AO2 SLP234 T01060006=
201804241253 METAR KPAE 241253Z AUTO 02003KT 10SM CLR 08/02 A3023 RMK AO2 SLP235 T00830017=
201804241153 METAR KPAE 241153Z AUTO 00000KT 10SM CLR 09/02 A3023 RMK AO2 SLP235 T00940017 10106 20083 56006=
201804241053 METAR KPAE 241053Z AUTO 00000KT 10SM CLR 09/02 A3023 RMK AO2 SLP237 T00940022=
201804240953 METAR KPAE 240953Z AUTO 34004KT 10SM CLR 09/04 A3024 RMK AO2 SLP239 T00890039=
201804240853 METAR KPAE 240853Z AUTO 34003KT 10SM CLR 10/04 A3025 RMK AO2 SLP242 T01000039 58001=
201804240753 METAR KPAE 240753Z AUTO VRB03KT 10SM CLR 11/04 A3026 RMK AO2 SLP246 T01060039 401780050=
201804240653 METAR KPAE 240653Z AUTO 36004KT 10SM CLR 10/04 A3026 RMK AO2 SLP247 T01000039=
201804240553 METAR KPAE 240553Z AUTO 33004KT 10SM CLR 10/04 A3025 RMK AO2 SLP244 T01000039 10178 20100 52008=
201804240453 METAR KPAE 240453Z AUTO 00000KT 10SM CLR 12/04 A3024 RMK AO2 SLP242 T01170039=
201804240353 METAR KPAE 240353Z AUTO 34005KT 10SM CLR 14/02 A3023 RMK AO2 SLP237 T01440017=
201804240253 METAR KPAE 240253Z 32005KT 10SM CLR 15/02 A3022 RMK AO2 SLP236 T01500017 58014=
201804240153 METAR KPAE 240153Z 32007KT 10SM CLR 17/01 A3024 RMK AO2 SLP241 T01720011=
201804240053 METAR KPAE 240053Z 32010KT 10SM CLR 17/00 A3026 RMK AO2 SLP247 T01720000=
201804232353 METAR KPAE 232353Z 31009KT 10SM CLR 17/03 A3027 RMK AO2 SLP250 T01720028 10172 20122 56017=
201804232253 METAR KPAE 232253Z 32009KT 10SM CLR 17/04 A3028 RMK AO2 SLP256 T01670044=
201804232153 METAR KPAE 232153Z 32011G17KT 10SM CLR 16/04 A3030 RMK AO2 SLP262 T01610044=
201804232053 METAR KPAE 232053Z 33009KT 10SM CLR 16/04 A3032 RMK AO2 SLP268 T01610039 58017=
201804231953 METAR KPAE 231953Z 33006KT 10SM CLR 16/03 A3033 RMK AO2 SLP273 T01560033=
201804231853 METAR KPAE 231853Z 34005KT 10SM CLR 13/04 A3036 RMK AO2 SLP281 T01330039=
201804231753 METAR KPAE 231753Z 34006KT 10SM CLR 12/04 A3037 RMK AO2 SLP285 T01220044 10122 20050 51001=
201804231653 METAR KPAE 231653Z 33004KT 10SM CLR 12/04 A3037 RMK AO2 SLP284 T01170044=
201804231553 METAR KPAE 231553Z 35003KT 10SM CLR 11/05 A3037 RMK AO2 SLP286 T01060050=
201804231453 METAR KPAE 231453Z 04003KT 10SM CLR 08/05 A3037 RMK AO2 SLP285 T00830050 53006=
201804231353 METAR KPAE 231353Z 35005KT 10SM CLR 07/05 A3035 RMK AO2 SLP280 T00670050=
201804231253 METAR KPAE 231253Z AUTO 00000KT 10SM CLR 06/04 A3035 RMK AO2 SLP278 T00610039=
201804231153 METAR KPAE 231153Z AUTO 00000KT 10SM CLR 06/03 A3035 RMK AO2 SLP278 T00560033 10083 20056 58001=
201804231053 METAR KPAE 231053Z AUTO 35004KT 10SM CLR 06/03 A3036 RMK AO2 SLP281 T00610033=
201804230953 METAR KPAE 230953Z AUTO 35005KT 10SM CLR 07/03 A3035 RMK AO2 SLP280 T00670028=
201804230853 METAR KPAE 230853Z AUTO 34004KT 10SM CLR 07/04 A3035 RMK AO2 SLP280 T00720039 52006=
201804230753 METAR KPAE 230753Z AUTO 31004KT 10SM CLR 07/05 A3035 RMK AO2 SLP279 T00720050 401330056=
201804230653 METAR KPAE 230653Z AUTO 32005KT 10SM CLR 07/04 A3033 RMK AO2 SLP274 T00720044=
201804230553 METAR KPAE 230553Z AUTO 32004KT 10SM CLR 08/05 A3033 RMK AO2 SLP273 T00830050 10133 20083 51004=
201804230453 METAR KPAE 230453Z AUTO 32006KT 10SM CLR 09/04 A3033 RMK AO2 SLP273 T00890044=
201804230353 METAR KPAE 230353Z 30005KT 10SM CLR 09/04 A3033 RMK AO2 SLP272 T00940044=
201804230253 METAR KPAE 230253Z 31004KT 10SM CLR 11/04 A3032 RMK AO2 SLP269 T01060039 58007=
201804230153 METAR KPAE 230153Z AUTO 30007KT 10SM CLR 12/03 A3033 RMK AO2 SLP272 T01170033=
201804230053 METAR KPAE 230053Z AUTO 31007KT 10SM CLR 13/04 A3034 RMK AO2 SLP275 T01280044=
201804222353 METAR KPAE 222353Z AUTO 30008KT 10SM CLR 13/05 A3034 RMK AO2 SLP276 T01280050 10133 20089 56012=
201804222253 METAR KPAE 222253Z AUTO 30008KT 10SM CLR 12/05 A3034 RMK AO2 SLP278 T01220050=
201804222153 METAR KPAE 222153Z 31008KT 10SM CLR 12/04 A3037 RMK AO2 SLP285 T01220039=
201804222053 METAR KPAE 222053Z 33009KT 10SM CLR 12/04 A3038 RMK AO2 SLP288 T01170039 58012=
201804221953 METAR KPAE 221953Z 31007KT 290V350 10SM CLR 11/04 A3039 RMK AO2 SLP293 T01110044=
201804221853 METAR KPAE 221853Z 29010KT 10SM CLR 10/04 A3040 RMK AO2 SLP296 T01000044=
201804221819 SPECI KPAE 221819Z 30007KT 10SM SCT022 10/04 A3040 RMK AO2 T01000044=
201804221753 METAR KPAE 221753Z 34008KT 10SM OVC021 09/04 A3041 RMK AO2 SLP300 T00890044 10094 20056 55001=
201804221653 METAR KPAE 221653Z 33004KT 10SM FEW010 BKN016 08/04 A3041 RMK AO2 SLP300 T00830044=
201804221613 SPECI KPAE 221613Z 36005KT 10SM SCT008 07/04 A3041 RMK AO2 T00720039=
201804221553 METAR KPAE 221553Z 34005KT 10SM BKN008 07/04 A3041 RMK AO2 SLP302 T00720039=
201804221453 METAR KPAE 221453Z VRB05KT 10SM OVC007 06/04 A3041 RMK AO2 SLP302 T00610044 55000=
201804221420 SPECI KPAE 221420Z 33005KT 10SM BKN009 OVC013 06/04 A3041 RMK AO2 CIG 007V011 T00610044=
201804221353 METAR KPAE 221353Z VRB03KT 10SM BKN011 OVC014 06/04 A3041 RMK AO2 SLP302 T00610044=
201804221308 SPECI KPAE 221308Z AUTO 29003KT 10SM OVC013 06/04 A3041 RMK AO2 T00610044=
201804221253 METAR KPAE 221253Z AUTO 00000KT 10SM OVC015 06/04 A3041 RMK AO2 SLP300 T00610044=
201804221203 SPECI KPAE 221203Z AUTO VRB03KT 10SM FEW014 BKN022 06/03 A3041 RMK AO2 T00560033=
201804221153 METAR KPAE 221153Z AUTO 31003KT 10SM SCT022 06/03 A3041 RMK AO2 SLP301 70003 T00610033 10072 20061 52002=
201804221053 METAR KPAE 221053Z AUTO 30003KT 10SM OVC023 07/03 A3041 RMK AO2 SLP300 T00670033=
201804220953 METAR KPAE 220953Z AUTO 00000KT 10SM SCT015 BKN026 06/04 A3041 RMK AO2 SLP299 T00610039=
201804220853 METAR KPAE 220853Z AUTO 35005KT 10SM CLR 06/03 A3040 RMK AO2 SLP298 T00610033 58005=
201804220753 METAR KPAE 220753Z AUTO 33006KT 10SM FEW016 07/04 A3041 RMK AO2 SLP301 T00670039 401110067=
201804220741 SPECI KPAE 220741Z AUTO 35004KT 10SM SCT014 07/04 A3041 RMK AO2 T00670039=
201804220709 SPECI KPAE 220709Z AUTO 29005KT 10SM BKN015 07/04 A3041 RMK AO2 T00670044=
201804220653 METAR KPAE 220653Z AUTO 32007KT 10SM SCT017 07/04 A3042 RMK AO2 SLP302 T00670044=
201804220637 SPECI KPAE 220637Z AUTO 32007KT 10SM SCT015 BKN020 BKN040 07/04 A3042 RMK AO2 T00720044=
201804220553 METAR KPAE 220553Z AUTO 33007KT 10SM SCT055 07/03 A3042 RMK AO2 SLP303 T00720033 10106 20072 50002=
201804220453 METAR KPAE 220453Z AUTO 36003KT 10SM FEW060 07/03 A3043 RMK AO2 SLP308 T00720028=
201804220353 METAR KPAE 220353Z AUTO 32004KT 10SM BKN060 OVC075 08/03 A3042 RMK AO2 SLP305 T00780033=
201804220253 METAR KPAE 220253Z 31004KT 10SM SCT065 08/03 A3041 RMK AO2 SLP302 T00830033 56000=
201804220153 METAR KPAE 220153Z 33005KT 10SM FEW070 BKN085 09/03 A3042 RMK AO2 SLP302 T00940033=
201804220053 METAR KPAE 220053Z 34008KT 10SM CLR 11/04 A3041 RMK AO2 SLP300 T01060039=
201804212353 METAR KPAE 212353Z 33004KT 10SM CLR 10/03 A3042 RMK AO2 SLP302 T01000033 10111 20083 50005=
201804212253 METAR KPAE 212253Z 33008KT 10SM SCT090 11/02 A3042 RMK AO2 SLP302 T01060022=
201804212153 METAR KPAE 212153Z 33006KT 10SM SCT065 BKN080 OVC100 11/03 A3041 RMK AO2 SLP301 T01110033=
201804212053 METAR KPAE 212053Z 32005KT 10SM FEW032 OVC070 11/03 A3040 RMK AO2 SLP297 T01060033 53004=
201804212018 SPECI KPAE 212018Z 27004KT 10SM SCT029 BKN070 OVC100 11/04 A3040 RMK AO2 T01060039=
201804211953 METAR KPAE 211953Z 23006KT 10SM BKN025 BKN031 OVC100 10/05 A3040 RMK AO2 SLP295 T01000050=
201804211858 SPECI KPAE 211858Z VRB04KT 10SM SCT025 BKN042 BKN048 10/04 A3038 RMK AO2 T01000044=
201804211853 METAR KPAE 211853Z 09005KT 10SM BKN017 10/05 A3038 RMK AO2 SLP291 T01000050=
201804211807 SPECI KPAE 211807Z 09005KT 10SM BKN017 09/05 A3039 RMK AO2 T00890050=
201804211800 SPECI KPAE 211800Z VRB05KT 10SM SCT017 09/06 A3039 RMK AO2 T00890056=
201804211753 METAR KPAE 211753Z 07006KT 10SM SCT006 BKN011 BKN020 09/05 A3039 RMK AO2 SLP292 60003 T00940050 10094 20067 51024=
201804211653 METAR KPAE 211653Z VRB04KT 5SM BR SCT006 BKN011 BKN020 07/06 A3038 RMK AO2 RAE13 SLP290 P0000 T00720056=
201804211637 SPECI KPAE 211637Z 08008KT 5SM BR SCT006 BKN011 BKN020 07/06 A3037 RMK AO2 RAE13 P0000 T00720061=
201804211553 METAR KPAE 211553Z 09005KT 9SM -RA BKN011 OVC018 07/06 A3036 RMK AO2 RAE10B35 SLP282 P0003 T00670056=
201804211453 METAR KPAE 211453Z 14003KT 9SM -RA BKN011 OVC018 07/05 A3032 RMK AO2 RAE18B49 SLP268 P0000 60000 T00670050 53035=
201804211353 METAR KPAE 211353Z 16009KT 9SM -RA BKN021 OVC029 07/05 A3028 RMK AO2 RAB48 SLP255 P0000 T00670050=
201804211253 METAR KPAE 211253Z 16011KT 10SM BKN017 BKN021 OVC030 07/04 A3024 RMK AO2 SLP241 T00720044=
201804211200 SPECI KPAE 211200Z 17014KT 10SM BKN019 07/04 A3021 RMK AO2 T00720044=
201804211153 METAR KPAE 211153Z 16012KT 10SM SCT017 07/04 A3021 RMK AO2 PK WND 14028/1057 SLP231 60000 T00720044 10106 20067 53017=
201804211102 SPECI KPAE 211102Z 15016G28KT 10SM FEW018 07/04 A3017 RMK AO2 PK WND 14028/1057 T00720044=
201804211053 METAR KPAE 211053Z 15023G28KT 10SM BKN020 07/04 A3016 RMK AO2 PK WND 16028/1052 SLP215 T00720044=
201804211009 SPECI KPAE 211009Z 14018G27KT 10SM OVC028 08/03 A3016 RMK AO2 PK WND 15027/1007 T00830033=
201804210953 METAR KPAE 210953Z 14012KT 10SM BKN030 BKN034 OVC048 08/03 A3016 RMK AO2 PK WND 15030/0929 SLP212 T00830033=
201804210853 METAR KPAE 210853Z 17020G24KT 10SM BKN038 OVC050 09/03 A3016 RMK AO2 PK WND 17027/0826 RAB33E51 SLP214 P0000 60000 T00890033 53002=
201804210753 METAR KPAE 210753Z 16017KT 10SM OVC065 10/01 A3015 RMK AO2 SLP209 T01000011 401560056=
201804210653 METAR KPAE 210653Z 15013G22KT 10SM OVC060 10/01 A3014 RMK AO2 SLP206 T01000011=
201804210553 METAR KPAE 210553Z 18018G25KT 10SM BKN065 OVC080 11/M01 A3015 RMK AO2 SLP212 T01061006 10133 20106 53003=
201804210453 METAR KPAE 210453Z 17011KT 10SM OVC085 12/00 A3014 RMK AO2 SLP209 T01170000=
201804210353 METAR KPAE 210353Z 13008KT 10SM OVC095 12/01 A3015 RMK AO2 SLP209 T01220011=
201804210253 METAR KPAE 210253Z 16008KT 10SM OVC100 12/02 A3015 RMK AO2 SLP210 T01220022 58010=
201804210153 METAR KPAE 210153Z 19006KT 10SM OVC100 12/03 A3016 RMK AO2 SLP215 T01170028=
201804210053 METAR KPAE 210053Z 18007KT 10SM BKN110 13/00 A3017 RMK AO2 SLP218 T01330000=
201804202353 METAR KPAE 202353Z 16006KT 10SM OVC090 13/M01 A3017 RMK AO2 SLP220 T01331011 10156 20117 58006=
201804202253 METAR KPAE 202253Z AUTO 17012G19KT 10SM OVC095 14/00 A3019 RMK AO2 SLP225 T01440000=
201804202153 METAR KPAE 202153Z 15012KT 10SM OVC100 15/M02 A3019 RMK AO2 SLP223 T01501017=
201804202053 METAR KPAE 202053Z 16010KT 10SM FEW120 15/M01 A3019 RMK AO2 SLP225 T01501006 56016=
201804201953 METAR KPAE 201953Z 16014KT 10SM CLR 14/M01 A3020 RMK AO2 SLP227 T01441011=
201804201853 METAR KPAE 201853Z 21006KT 10SM SCT100 13/04 A3023 RMK AO2 SLP237 T01330039=
201804201753 METAR KPAE 201753Z 15008KT 10SM CLR 12/04 A3024 RMK AO2 SLP241 T01220044 10122 20056 58007=
201804201653 METAR KPAE 201653Z 15006KT 10SM CLR 10/04 A3025 RMK AO2 SLP245 T01000044=
201804201553 METAR KPAE 201553Z 15008KT 10SM BKN120 09/04 A3026 RMK AO2 SLP248 T00890039=
201804201453 METAR KPAE 201453Z 12004KT 10SM CLR 07/04 A3026 RMK AO2 SLP249 T00720039 53001=
201804201353 METAR KPAE 201353Z 08005KT 10SM CLR 07/04 A3025 RMK AO2 SLP247 T00720039=
201804201253 METAR KPAE 201253Z AUTO 00000KT 10SM CLR 07/02 A3025 RMK AO2 SLP246 T00670022=
201804201153 METAR KPAE 201153Z AUTO 00000KT 10SM CLR 06/02 A3026 RMK AO2 SLP248 T00610017 10089 20061 58005=
201804201053 METAR KPAE 201053Z AUTO 00000KT 10SM CLR 07/02 A3026 RMK AO2 SLP249 T00720022=
201804200953 METAR KPAE 200953Z AUTO 36003KT 10SM OVC110 08/03 A3027 RMK AO2 SLP251 T00830028=
201804200853 METAR KPAE 200853Z AUTO 35004KT 10SM SCT050 OVC110 08/02 A3027 RMK AO2 SLP252 T00830022 50000=
201804200753 METAR KPAE 200753Z AUTO 35005KT 10SM BKN050 OVC110 09/02 A3027 RMK AO2 SLP252 T00890022 401440044=
201804200653 METAR KPAE 200653Z AUTO 35006KT 10SM BKN055 08/03 A3027 RMK AO2 SLP253 T00830028=
201804200553 METAR KPAE 200553Z AUTO 34003KT 10SM OVC070 09/03 A3027 RMK AO2 SLP253 T00890028 10139 20089 50006=
201804200453 METAR KPAE 200453Z AUTO 33003KT 10SM BKN070 09/04 A3027 RMK AO2 SLP253 T00890044=
201804200353 METAR KPAE 200353Z AUTO 32005KT 10SM CLR 09/03 A3026 RMK AO2 SLP250 T00940028=
201804200253 METAR KPAE 200253Z 32005KT 10SM CLR 11/02 A3025 RMK AO2 SLP246 T01110022 58000=
201804200153 METAR KPAE 200153Z 32006KT 10SM CLR 13/02 A3025 RMK AO2 SLP245 T01280022=
201804200053 METAR KPAE 200053Z 31006KT 10SM CLR 13/02 A3026 RMK AO2 SLP249 T01330022=
201804192353 METAR KPAE 192353Z 33004KT 10SM CLR 13/02 A3025 RMK AO2 SLP246 T01330022 10144 20100 58005=
201804192253 METAR KPAE 192253Z 31007KT 10SM CLR 13/03 A3026 RMK AO2 SLP249 T01330033=
201804192153 METAR KPAE 192153Z 33008KT 10SM CLR 14/02 A3027 RMK AO2 SLP251 T01440022=
201804192053 METAR KPAE 192053Z 27005KT 10SM CLR 13/07 A3027 RMK AO2 SLP252 T01280067 55002=
201804191953 METAR KPAE 191953Z 27005KT 10SM CLR 12/04 A3027 RMK AO2 SLP251 T01220044=
201804191853 METAR KPAE 191853Z 35005KT 10SM CLR 12/04 A3027 RMK AO2 SLP252 T01170044=
201804191753 METAR KPAE 191753Z 33005KT 10SM CLR 10/04 A3028 RMK AO2 SLP254 T01000044 10106 20044 51009=
201804191653 METAR KPAE 191653Z 29006KT 10SM CLR 08/04 A3027 RMK AO2 SLP252 T00830044=
201804191553 METAR KPAE 191553Z 00000KT 10SM CLR 08/06 A3026 RMK AO2 SLP249 T00780056=
201804191453 METAR KPAE 191453Z 31003KT 10SM CLR 07/04 A3025 RMK AO2 SLP245 T00670044 53010=
201804191353 METAR KPAE 191353Z AUTO 00000KT 10SM FEW004 05/04 A3023 RMK AO2 SLP239 T00500044=
201804191336 SPECI KPAE 191336Z AUTO 00000KT 10SM SCT004 05/04 A3022 RMK AO2 T00500039=
201804191253 METAR KPAE 191253Z AUTO 33003KT 10SM CLR 04/03 A3022 RMK AO2 SLP237 T00440033=
201804191153 METAR KPAE 191153Z AUTO 29003KT 10SM CLR 05/04 A3022 RMK AO2 SLP234 70001 T00500044 10078 20050 53003=
201804191053 METAR KPAE 191053Z AUTO 00000KT 10SM CLR 06/05 A3021 RMK AO2 SLP231 T00560050=
201804190953 METAR KPAE 190953Z AUTO 32003KT 10SM CLR 06/04 A3021 RMK AO2 SLP232 T00560044=
201804190853 METAR KPAE 190853Z AUTO 00000KT 10SM CLR 06/04 A3021 RMK AO2 SLP231 T00560044 52001=
201804190753 METAR KPAE 190753Z AUTO 30004KT 10SM CLR 06/04 A3021 RMK AO2 SLP233 T00610044 401220050=
201804190653 METAR KPAE 190653Z AUTO 00000KT 10SM BKN095 07/05 A3020 RMK AO2 SLP230 T00720050=
201804190553 METAR KPAE 190553Z AUTO 29004KT 10SM FEW060 BKN100 08/04 A3021 RMK AO2 SLP230 60001 T00780044 10122 20078 53004=
201804190453 METAR KPAE 190453Z AUTO 33007KT 10SM BKN055 OVC070 09/06 A3019 RMK AO2 RAE48 SLP224 P0001 T00890056=
201804190353 METAR KPAE 190353Z 00000KT 10SM -RA OVC055 09/06 A3019 RMK AO2 RAB37 SLP226 P0000 T00940056=
201804190253 METAR KPAE 190253Z 06006KT 10SM BKN075 OVC095 11/03 A3019 RMK AO2 SLP227 T01060033 53009=
201804190153 METAR KPAE 190153Z 30007KT 10SM BKN095 11/04 A3017 RMK AO2 SLP217 T01110044=
201804190053 METAR KPAE 190053Z VRB06KT 10SM CLR 12/06 A3016 RMK AO2 LTG DSNT SE SLP215 T01220056=
201804182353 METAR KPAE 182353Z 30010G15KT 270V340 10SM CLR 12/06 A3016 RMK AO2 SLP216 T01220056 10122 20083 56011=
201804182253 METAR KPAE 182253Z AUTO 32007KT 10SM CLR 12/05 A3017 RMK AO2 SLP220 T01220050=
201804182153 METAR KPAE 182153Z 33005KT 10SM CLR 12/05 A3019 RMK AO2 SLP224 T01170050=
201804182053 METAR KPAE 182053Z 32007KT 10SM CLR 11/04 A3020 RMK AO2 SLP228 T01060044 58011=
201804181953 METAR KPAE 181953Z VRB05KT 10SM CLR 09/04 A3021 RMK AO2 SLP233 T00940044=
201804181853 METAR KPAE 181853Z 34006KT 10SM FEW010 09/04 A3022 RMK AO2 SLP237 T00890044=
201804181753 METAR KPAE 181753Z 32006KT 10SM FEW007 09/04 A3023 RMK AO2 SLP239 T00890044 10089 20050 50003=
201804181701 SPECI KPAE 181701Z VRB03KT 10SM FEW007 08/04 A3023 RMK AO2 T00780039=
201804181653 METAR KPAE 181653Z 34006KT 10SM CLR 08/04 A3024 RMK AO2 SLP241 T00780039=
201804181553 METAR KPAE 181553Z VRB03KT 10SM SCT007 SCT100 07/05 A3023 RMK AO2 SLP240 T00670050=
201804181540 SPECI KPAE 181540Z 00000KT 10SM FEW005 SCT090 06/05 A3023 RMK AO2 T00610050=
201804181453 METAR KPAE 181453Z 34005KT 10SM BKN090 OVC100 05/04 A3022 RMK AO2 SLP237 T00500039 56006=
201804181353 METAR KPAE 181353Z 00000KT 10SM OVC090 06/03 A3022 RMK AO2 SLP237 T00560033=
201804181253 METAR KPAE 181253Z AUTO 08006KT 10SM OVC095 05/03 A3023 RMK AO2 SLP240 T00500033=
201804181153 METAR KPAE 181153Z AUTO 08005KT 10SM OVC090 05/03 A3024 RMK AO2 SLP243 60001 70012 T00500033 10072 20050 58003=
201804181053 METAR KPAE 181053Z AUTO 08005KT 10SM SCT120 05/04 A3025 RMK AO2 SLP246 T00500039=
201804180953 METAR KPAE 180953Z AUTO 07004KT 10SM SCT018 05/04 A3025 RMK AO2 SLP246 T00500039=
201804180951 SPECI KPAE 180951Z AUTO 08005KT 10SM SCT018 05/04 A3025 RMK AO2=
201804180936 SPECI KPAE 180936Z AUTO 08006KT 10SM BKN018 05/04 A3025 RMK AO2 T00500044=
201804180853 METAR KPAE 180853Z AUTO 08007KT 10SM FEW019 06/04 A3026 RMK AO2 SLP248 60001 T00560044 58000=
201804180825 SPECI KPAE 180825Z AUTO 07005KT 10SM FEW005 SCT016 SCT023 06/05 A3026 RMK AO2 T00560050=
201804180753 METAR KPAE 180753Z AUTO 08006KT 10SM BKN019 OVC026 06/05 A3026 RMK AO2 RAE0656 SLP250 P0000 T00610050 401170050=
201804180717 SPECI KPAE 180717Z AUTO 09003KT 10SM BKN018 BKN046 OVC095 07/06 A3026 RMK AO2 RAE0656 P0000 T00670056=
201804180653 METAR KPAE 180653Z AUTO 00000KT 10SM -RA FEW019 BKN038 OVC045 07/05 A3026 RMK AO2 RAB14 SLP249 P0001 T00670050=
201804180553 METAR KPAE 180553Z AUTO VRB03KT 10SM OVC029 07/06 A3026 RMK AO2 SLP249 60004 T00720056 10089 20072 51008=
201804180453 METAR KPAE 180453Z AUTO 08006KT 10SM SCT040 BKN046 OVC100 07/06 A3025 RMK AO2 SLP248 T00720061=
201804180353 METAR KPAE 180353Z AUTO 34004KT 10SM SCT036 BKN043 OVC100 07/06 A3024 RMK AO2 SLP245 T00720056=
201804180253 METAR KPAE 180253Z 29005KT 10SM BKN041 BKN055 OVC075 07/06 A3023 RMK AO2 SLP241 60004 T00720056 50004=
201804180153 METAR KPAE 180153Z 00000KT 10SM BKN042 OVC055 08/06 A3023 RMK AO2 RAE51 SLP241 P0002 T00780056=
201804180053 METAR KPAE 180053Z 00000KT 10SM -RA FEW025 OVC036 08/04 A3023 RMK AO2 RAE03B33 SLP240 P0002 T00780039=
201804172353 METAR KPAE 172353Z 17005KT 10SM -RA FEW036 BKN049 OVC070 09/05 A3022 RMK AO2 SLP236 P0001 60007 T00890050 10117 20083 53004=
201804172300 SPECI KPAE 172300Z 14011KT 10SM -RA FEW017 SCT037 BKN047 08/04 A3022 RMK AO2 P0000 T00830044=
201804172253 METAR KPAE 172253Z AUTO 16014KT 10SM -RA BKN029 BKN039 OVC047 08/04 A3022 RMK AO2 RAB06E34B52 SLP235 P0005 T00830044=
201804172230 SPECI KPAE 172230Z 17011KT 3SM R16R/5000VP6000FT -RA BKN029 BKN039 OVC047 09/05 A3021 RMK AO2 RAB06 P0005 T00890050=
201804172222 SPECI KPAE 172222Z 17011G21KT 1 3/4SM R16R/3500VP6000FT +RA BKN029 BKN039 OVC047 08/04 A3022 RMK AO2 RAB06 P0005 T00830039=
201804172153 METAR KPAE 172153Z 15010KT 10SM BKN029 BKN039 OVC050 10/04 A3021 RMK AO2 RAE53 SLP231 P0001 T01000044=
201804172053 METAR KPAE 172053Z 19015G19KT 10SM -RA SCT038 BKN048 OVC065 10/03 A3020 RMK AO2 RAB47 SLP228 P0000 60000 T01000033 53013=
201804171953 METAR KPAE 171953Z 14014KT 10SM BKN033 BKN043 OVC050 11/03 A3018 RMK AO2 SLP221 T01060028=
201804171853 METAR KPAE 171853Z 17011KT 10SM FEW028 FEW036 09/02 A3017 RMK AO2 SLP221 T00890022=
201804171812 SPECI KPAE 171812Z 18009KT 10SM FEW023 SCT036 BKN047 08/03 A3017 RMK AO2 T00830028=
201804171753 METAR KPAE 171753Z 17009KT 10SM SCT022 BKN029 BKN048 08/03 A3016 RMK AO2 SLP216 T00830028 10083 20050 51027=
201804171653 METAR KPAE 171653Z 17010G16KT 10SM BKN021 OVC042 08/04 A3013 RMK AO2 SLP207 T00780039=
201804171646 SPECI KPAE 171646Z 17012KT 10SM BKN021 OVC044 08/03 A3013 RMK AO2 T00780033=
201804171553 METAR KPAE 171553Z 16013KT 10SM SCT016 BKN035 07/03 A3011 RMK AO2 SLP198 T00670033=
201804171453 METAR KPAE 171453Z 14008KT 10SM SCT028 BKN036 06/03 A3008 RMK AO2 SLP189 T00560033 51019=
201804171449 SPECI KPAE 171449Z 13011KT 10SM SCT028 BKN036 06/03 A3008 RMK AO2=
201804171353 METAR KPAE 171353Z 14008KT 10SM BKN025 05/03 A3005 RMK AO2 SLP179 T00500033=
201804171253 METAR KPAE 171253Z AUTO 13009KT 10SM BKN024 06/03 A3002 RMK AO2 SLP169 T00560033=
201804171153 METAR KPAE 171153Z AUTO 13007KT 10SM OVC026 06/04 A2999 RMK AO2 SLP157 60009 70050 T00610044 10072 20061 53027=
201804171119 SPECI KPAE 171119Z AUTO 13006KT 10SM BKN026 BKN034 06/05 A2997 RMK AO2 T00610050=
201804171053 METAR KPAE 171053Z AUTO 13007KT 10SM FEW035 BKN060 06/05 A2995 RMK AO2 SLP146 T00610050=
201804170953 METAR KPAE 170953Z AUTO 13010KT 10SM BKN037 BKN048 OVC065 07/06 A2993 RMK AO2 RAE52 SLP136 P0000 T00670056=
201804170944 SPECI KPAE 170944Z AUTO 14007KT 10SM -RA FEW026 BKN050 OVC065 07/06 A2992 RMK AO2 P0000 T00670056=
201804170853 METAR KPAE 170853Z AUTO 16010KT 10SM -RA OVC025 07/06 A2990 RMK AO2 SLP129 P0002 60009 T00670056 53022=
201804170834 SPECI KPAE 170834Z AUTO 16010KT 10SM -RA BKN029 OVC037 07/06 A2990 RMK AO2 P0002 T00670056=
201804170753 METAR KPAE 170753Z AUTO 16011KT 7SM -RA SCT027 OVC032 07/06 A2988 RMK AO2 SLP121 P0003 T00670056 400830050=
201804170653 METAR KPAE 170653Z AUTO 17009KT 7SM -RA FEW005 SCT012 OVC038 07/06 A2986 RMK AO2 SLP113 P0004 T00670061=
201804170625 SPECI KPAE 170625Z AUTO 20006KT 5SM -RA BR BKN006 BKN012 OVC032 07/06 A2985 RMK AO2 P0003 T00670061=
201804170616 SPECI KPAE 170616Z AUTO 20005KT 5SM -RA BR FEW006 BKN022 OVC032 07/06 A2984 RMK AO2 P0002 T00720061=
201804170608 SPECI KPAE 170608Z AUTO 17006KT 5SM -RA BR FEW006 BKN014 OVC034 07/06 A2984 RMK AO2 P0001 T00720061=
201804170553 METAR KPAE 170553Z AUTO 18007KT 6SM -RA BR FEW006 BKN015 OVC036 07/06 A2984 RMK AO2 SLP107 P0002 60018 T00720061 10083 20067 51023=
201804170540 SPECI KPAE 170540Z AUTO 17007KT 7SM -RA SCT006 BKN025 OVC036 07/07 A2984 RMK AO2 P0001 T00720067=
201804170508 SPECI KPAE 170508Z AUTO 18007KT 10SM -RA SCT007 BKN030 OVC065 07/06 A2982 RMK AO2 P0000 T00720061=
201804170453 METAR KPAE 170453Z AUTO 17008KT 10SM -RA BKN008 BKN024 OVC035 07/06 A2982 RMK AO2 SLP101 P0003 T00720061=
201804170443 SPECI KPAE 170443Z AUTO 17006KT 6SM -RA BR BKN010 BKN024 OVC033 07/06 A2982 RMK AO2 P0002 T00720061=
201804170414 SPECI KPAE 170414Z AUTO 16006KT 10SM -RA FEW008 BKN032 OVC040 07/06 A2981 RMK AO2 P0001 T00670061=
201804170405 SPECI KPAE 170405Z AUTO 16005KT 10SM -RA FEW008 BKN025 OVC040 07/06 A2981 RMK AO2 P0000 T00670061=
201804170353 METAR KPAE 170353Z AUTO 19005KT 10SM -RA FEW008 SCT012 OVC037 07/06 A2981 RMK AO2 SLP096 P0013 T00720061=
201804170341 SPECI KPAE 170341Z AUTO 17007KT 7SM -RA FEW013 OVC033 07/06 A2980 RMK AO2 P0013 T00720061=
201804170324 SPECI KPAE 170324Z 18009KT 4SM RA BR FEW008 SCT016 OVC027 07/06 A2979 RMK AO2 P0011 T00720061=
201804170253 METAR KPAE 170253Z 18014KT 10SM -RA SCT012 BKN024 OVC030 07/06 A2977 RMK AO2 RAB42 SLP083 P0000 60000 T00720056 51018=
201804170153 METAR KPAE 170153Z 16017G24KT 10SM OVC016 08/05 A2975 RMK AO2 PK WND 16026/0127 SLP078 T00780050=
201804170053 METAR KPAE 170053Z 16018G24KT 10SM SCT015 BKN022 OVC030 08/05 A2974 RMK AO2 PK WND 15027/0031 SLP073 T00830050=
201804170023 SPECI KPAE 170023Z 16019G26KT 10SM SCT015 BKN022 OVC030 08/05 A2973 RMK AO2 PK WND 14027/0004 T00830050=
201804170008 SPECI KPAE 170008Z 15020G27KT 10SM SCT015 SCT020 OVC030 08/05 A2972 RMK AO2 PK WND 14027/0004 T00780050=
201804162353 METAR KPAE 162353Z 15016G23KT 10SM BKN015 BKN022 OVC030 08/05 A2972 RMK AO2 PK WND 15028/2308 SLP065 60011 T00780050 10083 20056 53007=
201804162322 SPECI KPAE 162322Z 14014G22KT 10SM SCT018 BKN025 OVC065 08/05 A2971 RMK AO2 PK WND 15028/2308 T00780050=
201804162253 METAR KPAE 162253Z 15018G28KT 10SM SCT021 OVC055 08/04 A2970 RMK AO2 PK WND 15030/2226 SLP059 T00830044=
201804162248 SPECI KPAE 162248Z 15020G28KT 10SM SCT021 OVC055 08/04 A2970 RMK AO2 PK WND 15030/2226=
201804162153 METAR KPAE 162153Z 16018G26KT 10SM OVC022 08/04 A2970 RMK AO2 PK WND 17030/2055 SLP058 T00780044=
201804162053 METAR KPAE 162053Z 15019G24KT 10SM BKN016 OVC021 08/06 A2968 RMK AO2 SLP053 60011 T00780056 51010=
201804162044 SPECI KPAE 162044Z 14014G21KT 10SM BKN016 OVC021 08/06 A2968 RMK AO2 T00830056=
201804162007 SPECI KPAE 162007Z 15015G21KT 10SM BKN009 BKN021 OVC034 07/06 A2968 RMK AO2 T00720056=
201804162000 SPECI KPAE 162000Z 15015KT 10SM FEW012 BKN021 OVC034 07/06 A2968 RMK AO2 T00720056=
201804161953 METAR KPAE 161953Z 16012KT 10SM BKN009 BKN017 OVC024 08/06 A2968 RMK AO2 RAE46 SLP051 P0005 T00780061=
201804161853 METAR KPAE 161853Z 17008KT 5SM -RA BR BKN006 BKN017 OVC030 07/06 A2967 RMK AO2 SLP050 P0006 T00670056=
201804161805 SPECI KPAE 161805Z 16010KT 5SM -RA BR BKN006 BKN017 OVC030 06/05 A2966 RMK AO2 P0002 T00610050=
201804161758 SPECI KPAE 161758Z 18010KT 5SM -RA BR FEW006 SCT017 OVC030 06/05 A2965 RMK AO2 P0001 T00560050=
201804161753 METAR KPAE 161753Z 17010KT 5SM -RA BR BKN009 06/05 A2965 RMK AO2 SLP042 P0009 60012 T00560050 10067 20050 53019=
201804161653 METAR KPAE 161653Z 16007KT 4SM -RA BR BKN009 OVC016 06/04 A2962 RMK AO2 RAB14 CIG 006V014 SLP033 P0003 T00560044=
201804161553 METAR KPAE 161553Z 14011KT 10SM OVC009 05/04 A2960 RMK AO2 CIG 007V011 SLP026 T00500039=
201804161453 METAR KPAE 161453Z 15013KT 10SM OVC009 05/03 A2959 RMK AO2 SLP023 60000 T00500033 53007=
201804161353 METAR KPAE 161353Z 15014G20KT 10SM OVC009 05/03 A2958 RMK AO2 CIG 007V013 SLP018 T00500033=
201804161333 SPECI KPAE 161333Z AUTO 14012KT 10SM OVC009 05/04 A2957 RMK AO2 CIG 007V013 T00500039=
201804161253 METAR KPAE 161253Z AUTO 14011KT 10SM FEW010 BKN013 OVC030 06/04 A2957 RMK AO2 RAE1154 SLP015 P0000 T00560039=
201804161248 SPECI KPAE 161248Z AUTO 14011KT 10SM SCT010 BKN017 OVC030 06/04 A2957 RMK AO2 RAE1154 P0000=
201804161241 SPECI KPAE 161241Z AUTO 15014G18KT 10SM FEW008 BKN013 OVC029 06/05 A2957 RMK AO2 RAE1154 P0000 T00610050=
201804161228 SPECI KPAE 161228Z AUTO 13007KT 10SM FEW013 BKN026 OVC032 06/05 A2956 RMK AO2 RAE1154 P0000 T00610050=
201804161218 SPECI KPAE 161218Z AUTO 13007KT 10SM FEW013 SCT021 OVC032 06/05 A2956 RMK AO2 RAE1154 P0000 T00610050=
201804161153 METAR KPAE 161153Z AUTO 13008KT 10SM -RA FEW015 BKN023 OVC031 06/05 A2956 RMK AO2 SLP013 P0002 60017 70021 T00610050 10067 20061 53005=
201804161131 SPECI KPAE 161131Z AUTO 16009KT 10SM -RA BKN024 OVC034 06/04 A2956 RMK AO2 P0001 T00610044=
201804161053 METAR KPAE 161053Z AUTO 19009KT 7SM -RA FEW025 OVC033 07/04 A2956 RMK AO2 SLP011 P0004 T00670044=
201804161001 SPECI KPAE 161001Z AUTO 09003KT 9SM -RA FEW005 SCT011 OVC033 06/06 A2955 RMK AO2 P0000 T00610061=
201804160953 METAR KPAE 160953Z AUTO VRB03KT 6SM -RA BR FEW005 BKN021 OVC029 06/06 A2955 RMK AO2 SLP008 P0007 T00610056=
201804160937 SPECI KPAE 160937Z AUTO 16009KT 5SM -RA BR FEW005 BKN010 OVC021 06/06 A2956 RMK AO2 P0004 T00610056=
201804160900 SPECI KPAE 160900Z AUTO 19003KT 7SM -RA OVC015 06/05 A2955 RMK AO2 P0000 T00610050=
201804160853 METAR KPAE 160853Z AUTO 00000KT 6SM -RA BR OVC013 06/05 A2955 RMK AO2 SLP008 P0004 60004 T00610050 53002=
201804160753 METAR KPAE 160753Z AUTO 31004KT 10SM -RA OVC012 06/06 A2953 RMK AO2 RAB41 SLP003 P0000 T00610056 400940050=
201804160714 SPECI KPAE 160714Z AUTO 27003KT 10SM OVC010 06/06 A2954 RMK AO2 T00610056=
201804160653 METAR KPAE 160653Z AUTO 26004KT 10SM OVC008 06/06 A2954 RMK AO2 RAB08E32 CIG 004V012 SLP004 P0000 T00610056=
201804160553 METAR KPAE 160553Z AUTO 30004KT 10SM OVC005 06/06 A2954 RMK AO2 RAE33 SLP006 P0001 60001 T00610056 10089 20061 56010=
201804160526 SPECI KPAE 160526Z AUTO 32006KT 10SM -RA BKN007 OVC050 07/06 A2954 RMK AO2 P0001 T00670056=
201804160514 SPECI KPAE 160514Z AUTO 32008KT 10SM -RA SCT007 OVC050 07/06 A2954 RMK AO2 P0001 T00670056=
201804160453 METAR KPAE 160453Z AUTO 31008KT 10SM -RA OVC055 07/05 A2955 RMK AO2 RAB22 SLP007 P0000 T00670050=
201804160353 METAR KPAE 160353Z AUTO 30010KT 10SM FEW055 BKN070 OVC090 07/05 A2956 RMK AO2 SLP012 T00670050=
201804160253 METAR KPAE 160253Z 31008G15KT 10SM SCT017 OVC060 07/06 A2957 RMK AO2 RAB0154E11 SLP016 P0000 60000 T00720056 56020=
201804160249 SPECI KPAE 160249Z 31008G16KT 10SM SCT017 OVC060 07/06 A2957 RMK AO2 RAB0154E11 P0000=
201804160214 SPECI KPAE 160214Z 31009G15KT 10SM FEW010 BKN015 08/06 A2959 RMK AO2 RAB0154E11 P0000 T00780061=
201804160153 METAR KPAE 160153Z 31009KT 10SM OVC014 08/06 A2960 RMK AO2 RAE0056 SLP024 P0000 T00780061=
201804160146 SPECI KPAE 160146Z 31007KT 10SM OVC014 08/06 A2960 RMK AO2 RAE0056 P0000 T00780061=
201804160101 SPECI KPAE 160101Z 31006KT 10SM BKN016 OVC060 08/06 A2963 RMK AO2 RAE0056 P0000 T00830061=
201804160053 METAR KPAE 160053Z 31008KT 10SM -RA SCT016 OVC065 08/06 A2963 RMK AO2 RAB35 SLP036 P0000 T00830056=
201804152353 METAR KPAE 152353Z 31009KT 10SM FEW050 BKN070 OVC080 09/06 A2965 RMK AO2 SLP044 T00890056 10094 20078 56039=
201804152253 METAR KPAE 152253Z 31008G17KT 290V350 10SM FEW050 BKN065 OVC100 09/05 A2969 RMK AO2 SLP055 T00890050=
201804152153 METAR KPAE 152153Z 32009KT 10SM BKN060 OVC075 09/05 A2973 RMK AO2 SLP070 T00890050=
201804152053 METAR KPAE 152053Z 31005KT 10SM CLR 09/04 A2977 RMK AO2 SLP084 T00940044 58028=
201804152000 SPECI KPAE 152000Z 33006KT 10SM CLR 09/05 A2980 RMK AO2 T00890050=
201804151953 METAR KPAE 151953Z 33008KT 10SM BKN012 09/04 A2980 RMK AO2 SLP094 T00890044=
201804151853 METAR KPAE 151853Z 32007KT 10SM BKN012 08/05 A2983 RMK AO2 SLP105 T00830050=
201804151832 SPECI KPAE 151832Z 32008KT 10SM BKN012 08/04 A2984 RMK AO2 T00830044=
201804151821 SPECI KPAE 151821Z 33006KT 10SM SCT012 08/04 A2984 RMK AO2 T00780044=
201804151753 METAR KPAE 151753Z 30006KT 10SM BKN012 08/05 A2986 RMK AO2 SLP112 60003 T00830050 10083 20050 58020=
201804151734 SPECI KPAE 151734Z 35005KT 10SM BKN008 BKN015 08/05 A2986 RMK AO2 T00780050=
201804151710 SPECI KPAE 151710Z 32006KT 10SM BKN010 BKN016 08/06 A2987 RMK AO2 CIG 007V013 T00780056=
201804151653 METAR KPAE 151653Z VRB04KT 10SM BKN008 08/06 A2987 RMK AO2 SLP119 T00780061=
201804151608 SPECI KPAE 151608Z 35006KT 10SM BKN006 OVC026 07/06 A2989 RMK AO2 T00670056=
201804151553 METAR KPAE 151553Z 35004KT 10SM SCT002 OVC026 07/05 A2990 RMK AO2 SLP127 T00670050=
201804151453 METAR KPAE 151453Z 34003KT 10SM FEW002 OVC028 06/05 A2992 RMK AO2 SLP133 60003 T00610050 56006=
201804151353 METAR KPAE 151353Z 35003KT 10SM SCT001 BKN010 OVC018 05/05 A2992 RMK AO2 RAE04 SLP134 P0001 T00500050=
201804151328 SPECI KPAE 151328Z AUTO 32004KT 10SM FEW004 OVC016 05/05 A2992 RMK AO2 RAE04 P0001 T00500050=
201804151321 SPECI KPAE 151321Z AUTO 00000KT 10SM FEW004 OVC014 05/05 A2992 RMK AO2 RAE04 P0001 T00500050=
201804151313 SPECI KPAE 151313Z AUTO 32003KT 5SM BR BKN004 OVC014 05/05 A2993 RMK AO2 RAE04 P0001 T00500050=
201804151305 SPECI KPAE 151305Z AUTO 33003KT 2SM R16R/2800VP6000FT BR BKN002 OVC012 05/05 A2993 RMK AO2 RAE04 P0000 T00500050=
201804151253 METAR KPAE 151253Z AUTO 35004KT 3/4SM R16R/2800VP6000FT -RA BR OVC003 05/05 A2993 RMK AO2 SLP137 P0002 T00500050=
201804151249 SPECI KPAE 151249Z AUTO 34005KT 1 3/4SM -RA BR OVC003 05/05 A2993 RMK AO2 P0002=
201804151234 SPECI KPAE 151234Z AUTO 30003KT 5SM -RA BR OVC004 05/05 A2993 RMK AO2 CIG 002V009 P0002 T00500050=
201804151222 SPECI KPAE 151222Z AUTO 33003KT 3SM -RA BR BKN005 BKN009 OVC020 06/06 A2993 RMK AO2 P0002 T00560056=
201804151212 SPECI KPAE 151212Z AUTO 35004KT 3SM -RA BR SCT007 SCT010 OVC018 06/05 A2993 RMK AO2 P0001 T00560050=
201804151153 METAR KPAE 151153Z AUTO 35006KT 2 1/2SM -RA BR FEW005 OVC016 06/05 A2993 RMK AO2 SLP139 P0002 60023 70099 T00560050 10067 20050 58002=
201804151143 SPECI KPAE 151143Z AUTO 34005KT 2 1/2SM -RA BR FEW005 SCT010 OVC016 06/05 A2993 RMK AO2 P0002 T00560050=
201804151136 SPECI KPAE 151136Z AUTO 35005KT 3SM -RA BR FEW003 SCT007 OVC014 06/05 A2993 RMK AO2 P0002 T00560050=
201804151114 SPECI KPAE 151114Z AUTO 34006KT 3SM -RA BR FEW003 OVC008 05/05 A2993 RMK AO2 P0001 T00500050=
201804151053 METAR KPAE 151053Z AUTO 33006KT 5SM -RA BR BKN002 OVC008 06/05 A2993 RMK AO2 RAE00B45 SLP139 P0000 T00560050=
201804151032 SPECI KPAE 151032Z AUTO 34004KT 4SM BR BKN002 OVC009 06/06 A2994 RMK AO2 RAE00 P0000 T00610056=
201804151011 SPECI KPAE 151011Z AUTO 00000KT 10SM BKN009 OVC014 06/06 A2994 RMK AO2 RAE00 P0000 T00610056=
201804151004 SPECI KPAE 151004Z AUTO 30003KT 10SM OVC014 06/05 A2994 RMK AO2 RAE00 P0000 T00610050=
201804150953 METAR KPAE 150953Z AUTO 00000KT 10SM -RA OVC016 06/05 A2994 RMK AO2 RAE20B28 SLP140 P0001 T00610050=
201804150924 SPECI KPAE 150924Z AUTO VRB03KT 10SM BKN021 OVC036 06/05 A2994 RMK AO2 RAE20 P0000 T00610050=
201804150853 METAR KPAE 150853Z AUTO 05004KT 10SM -RA FEW030 SCT036 OVC046 06/05 A2994 RMK AO2 SLP140 P0003 60020 T00610050 56014=
201804150807 SPECI KPAE 150807Z AUTO 05006KT 7SM -RA FEW019 SCT027 OVC036 06/05 A2995 RMK AO2 P0001 T00610050=
201804150753 METAR KPAE 150753Z AUTO 03004KT 6SM -RA BR FEW020 BKN027 OVC032 06/05 A2995 RMK AO2 SLP144 P0007 T00610050 401000061=
201804150653 METAR KPAE 150653Z AUTO 02004KT 5SM -RA BR OVC024 07/06 A2997 RMK AO2 SLP150 P0010 T00670061=
201804150629 SPECI KPAE 150629Z AUTO 03005KT 7SM -RA BKN024 OVC032 07/06 A2997 RMK AO2 P0006 T00670061=
201804150553 METAR KPAE 150553Z AUTO 06005KT 6SM -RA BR OVC031 07/06 A2998 RMK AO2 SLP155 P0008 60053 T00670061 10089 20061 58008=
201804150453 METAR KPAE 150453Z AUTO 35006KT 9SM -RA FEW002 SCT025 OVC039 06/06 A2999 RMK AO2 SLP159 P0008 T00610056=
201804150400 SPECI KPAE 150400Z 34005KT 6SM -RA BR SCT004 BKN022 OVC032 07/06 A3000 RMK AO2 P0001 T00670061=
201804150353 METAR KPAE 150353Z 35005KT 6SM -RA BR BKN004 OVC034 07/06 A3000 RMK AO2 SLP161 P0008 T00670061=
201804150253 METAR KPAE 150253Z 02004KT 5SM -RA BR BKN004 OVC024 07/07 A3001 RMK AO2 SLP163 P0009 60029 T00720067 56023=
201804150201 SPECI KPAE 150201Z 03004KT 4SM RA BR BKN004 OVC024 08/07 A3002 RMK AO2 P0002 T00780072=
201804150153 METAR KPAE 150153Z 05004KT 4SM RA BR SCT004 OVC024 08/07 A3003 RMK AO2 SLP172 P0012 T00780072=
201804150106 SPECI KPAE 150106Z 06003KT 3SM -RA BR SCT008 OVC038 08/08 A3004 RMK AO2 P0002 T00830078=
201804150053 METAR KPAE 150053Z 07005KT 6SM -RA BR SCT011 BKN045 OVC055 08/07 A3005 RMK AO2 SLP177 P0008 T00830067=
201804142355 SPECI KPAE 142355Z 13004KT 6SM -RA BR SCT011 BKN045 OVC055 09/08 A3007 RMK AO2 P0000 T00890078=
201804142353 METAR KPAE 142353Z 13004KT 6SM -RA BR BKN011 BKN045 OVC055 09/08 A3008 RMK AO2 SLP186 P0004 60014 T00890078 10100 20089 58019=
201804142253 METAR KPAE 142253Z 14009KT 6SM -RA BR BKN011 BKN060 OVC080 09/08 A3010 RMK AO2 SLP195 P0005 T00940078=
201804142201 SPECI KPAE 142201Z 13012KT 10SM -RA BKN011 BKN060 OVC080 10/08 A3011 RMK AO2 P0000 T01000083=
201804142153 METAR KPAE 142153Z 13012KT 10SM -RA BKN005 OVC009 10/08 A3011 RMK AO2 RAE04B45 SLP199 P0000 T01000083=
201804142053 METAR KPAE 142053Z 15010G21KT 10SM -RA BKN005 OVC009 10/08 A3013 RMK AO2 SLP206 P0002 60005 T01000083 58024=
201804141953 METAR KPAE 141953Z 12011G16KT 4SM -RA BR BKN008 BKN014 OVC021 09/09 A3017 RMK AO2 RAE06B23 SLP217 P0002 T00940089=
201804141855 SPECI KPAE 141855Z 12008KT 5SM -RA BR BKN008 BKN014 OVC021 09/08 A3018 RMK AO2 P0000 T00940078=
201804141853 METAR KPAE 141853Z 12011KT 2 1/2SM -RA BR SCT004 BKN008 OVC014 09/08 A3018 RMK AO2 RAB1754E20B53 SLP222 P0001 T00890078=
201804141828 SPECI KPAE 141828Z 13012KT 2 1/2SM BR SCT004 BKN008 OVC014 09/08 A3019 RMK AO2 RAB1754E20 P0001 T00890083=
201804141821 SPECI KPAE 141821Z 13010KT 6SM BR SCT004 BKN008 OVC014 09/08 A3020 RMK AO2 RAB1754E20 P0001 T00890078=
201804141753 METAR KPAE 141753Z 12008KT 2SM BR SCT004 BKN008 OVC014 09/08 A3020 RMK AO2 RAE47 SLP230 P0003 60009 T00890078 10089 20078 56005=
201804141710 SPECI KPAE 141710Z 13008KT 2 1/2SM -RA BR OVC006 08/08 A3021 RMK AO2 P0001 T00830078=
201804141703 SPECI KPAE 141703Z 14009KT 4SM -RA BR OVC006 08/08 A3021 RMK AO2 P0001 T00830078=
201804141653 METAR KPAE 141653Z 13007KT 2 1/2SM -RA BR BKN006 OVC010 08/08 A3021 RMK AO2 RAB1556 SLP232 P0003 T00830078=
201804141553 METAR KPAE 141553Z 13007KT 3SM BR BKN005 OVC011 08/08 A3022 RMK AO2 RAE50 SLP235 P0003 T00830078=
201804141507 SPECI KPAE 141507Z 13011KT 1 1/2SM -RA BR BKN005 OVC011 08/07 A3022 RMK AO2 P0001 T00830072=
201804141453 METAR KPAE 141453Z 13010KT 4SM -RA BR OVC005 08/07 A3022 RMK AO2 RAE04B24 SLP235 P0000 60000 T00780072 55000=
201804141353 METAR KPAE 141353Z 13011KT 9SM -RA BKN006 BKN035 OVC047 08/07 A3022 RMK AO2 RAB1258E25B45 SLP234 P0000 T00780072=
201804141300 SPECI KPAE 141300Z AUTO 16011G21KT 10SM -RA FEW005 BKN009 OVC090 08/07 A3021 RMK AO2 RAB1258 P0000 T00830072=
201804141253 METAR KPAE 141253Z AUTO 13016G26KT 10SM BKN012 OVC090 08/07 A3020 RMK AO2 PK WND 13026/1250 RAE12B34E44 SLP228 P0000 T00830072=
201804141220 SPECI KPAE 141220Z AUTO 14014G20KT 10SM FEW008 BKN065 OVC090 08/07 A3021 RMK AO2 RAE12 P0000 T00780072=
201804141153 METAR KPAE 141153Z AUTO 14012KT 8SM -RA OVC039 08/07 A3022 RMK AO2 SLP234 P0002 60003 70009 T00830072 10089 20083 57001=
201804141053 METAR KPAE 141053Z AUTO 14014G22KT 7SM -RA BKN046 OVC070 08/07 A3022 RMK AO2 RAB31 SLP236 P0000 T00830072=
201804141017 SPECI KPAE 141017Z AUTO 14013G23KT 9SM FEW010 SCT027 OVC060 08/07 A3022 RMK AO2 T00830072=
201804140953 METAR KPAE 140953Z AUTO 15017G23KT 10SM SCT012 BKN016 OVC055 08/07 A3022 RMK AO2 PK WND 15026/0914 RAE04B31E42 SLP234 P0001 T00830072=
201804140920 SPECI KPAE 140920Z AUTO 15018G26KT 9SM FEW011 BKN016 OVC023 08/07 A3022 RMK AO2 PK WND 15026/0914 RAE04 P0001 T00830072=
201804140853 METAR KPAE 140853Z AUTO 15016G23KT 8SM -RA SCT009 BKN013 OVC022 08/07 A3022 RMK AO2 RAB0758 SLP236 P0000 60000 T00830072 58006=
201804140803 SPECI KPAE 140803Z AUTO 15016G26KT 8SM -RA SCT008 BKN013 OVC028 08/07 A3023 RMK AO2 RAB0758 P0000 T00830072=
201804140753 METAR KPAE 140753Z AUTO 15019G24KT 8SM SCT010 BKN013 OVC031 08/07 A3023 RMK AO2 RAB00E49 SLP239 P0000 T00830072 401110050=
201804140653 METAR KPAE 140653Z AUTO 15016G22KT 10SM SCT011 BKN017 OVC023 08/07 A3024 RMK AO2 PK WND 16028/0618 RAB37E50 SLP241 P0000 T00830072=
201804140606 SPECI KPAE 140606Z AUTO 15020G26KT 10SM SCT019 BKN029 OVC070 09/07 A3024 RMK AO2 PK WND 15026/0559 T00890067=
201804140553 METAR KPAE 140553Z AUTO 16021G28KT 10SM SCT018 BKN032 OVC070 09/07 A3024 RMK AO2 PK WND 15032/0457 SLP242 60004 T00890067 10100 20089 53007=
201804140536 SPECI KPAE 140536Z AUTO 16019G28KT 10SM SCT014 BKN024 OVC090 09/07 A3023 RMK AO2 PK WND 15032/0457 T00890072=
201804140453 METAR KPAE 140453Z AUTO 15020G29KT 10SM FEW015 OVC110 09/07 A3021 RMK AO2 PK WND 16035/0425 SLP231 T00890072=
201804140434 SPECI KPAE 140434Z AUTO 16022G35KT 10SM FEW012 SCT020 OVC110 09/07 A3021 RMK AO2 PK WND 16035/0425 T00940072=
201804140423 SPECI KPAE 140423Z AUTO 16026G33KT 10SM SCT016 BKN025 BKN032 09/07 A3020 RMK AO2 PK WND 16034/0400 T00940072=
201804140416 SPECI KPAE 140416Z AUTO 17028G33KT 10SM FEW016 SCT022 BKN030 09/07 A3020 RMK AO2 PK WND 16034/0400 T00940072=
201804140353 METAR KPAE 140353Z AUTO 17023G32KT 10SM BKN018 BKN028 09/07 A3022 RMK AO2 PK WND 17039/0300 SLP235 T00940072=
201804140349 SPECI KPAE 140349Z AUTO 17023G32KT 10SM SCT016 BKN022 BKN028 09/07 A3022 RMK AO2 PK WND 17039/0300=
201804140300 SPECI KPAE 140300Z 17027G39KT 10SM BR FEW014 BKN110 09/07 A3019 RMK AO2 PK WND 17039/0300 T00940072=
201804140253 METAR KPAE 140253Z 18025G36KT 10SM BR BKN006 BKN021 OVC031 09/07 A3018 RMK AO2 PK WND 17036/0247 RAE13 SLP222 P0001 60004 T00940072 56002=
201804140207 SPECI KPAE 140207Z 17021G30KT 9SM -RA BR BKN006 BKN021 OVC031 10/08 A3019 RMK AO2 PK WND 17030/0158 P0001 T01000083=
201804140200 SPECI KPAE 140200Z 16021G30KT 6SM -RA BR SCT014 BKN021 OVC031 10/09 A3019 RMK AO2 PK WND 17030/0158 P0001 T01000089=
201804140153 METAR KPAE 140153Z 16021G30KT 6SM -RA BR SCT008 BKN014 OVC023 10/08 A3019 RMK AO2 PK WND 16030/0146 RAB0058E18B31 SLP225 P0001 T01000083=
201804140121 SPECI KPAE 140121Z 16016KT 10SM BR SCT008 BKN014 OVC023 10/09 A3019 RMK AO2 RAB0058E18 P0001 T01000089=
201804140100 SPECI KPAE 140100Z 16017KT 6SM -RA BR OVC013 10/09 A3018 RMK AO2 RAB0058 P0000 T01000089=
201804140053 METAR KPAE 140053Z 16021G29KT 2 1/2SM BR BKN009 BKN013 OVC031 10/09 A3018 RMK AO2 PK WND 15029/2356 RAE45 SLP221 P0002 T01000089=
201804140021 SPECI KPAE 140021Z 15017G24KT 2 1/2SM -RA BR BKN009 BKN013 OVC031 09/09 A3018 RMK AO2 PK WND 15029/2356 P0002 T00940089=
201804140010 SPECI KPAE 140010Z 14015G21KT 2SM -RA BR SCT007 BKN013 OVC031 09/09 A3018 RMK AO2 PK WND 15029/2356 P0001 T00940089=
201804132353 METAR KPAE 132353Z 14017G30KT 4SM -RA BR BKN009 BKN017 OVC035 10/09 A3019 RMK AO2 PK WND 14031/2341 SLP226 P0002 60002 T01000089 10111 20094 50004=
201804132332 SPECI KPAE 132332Z 14017G24KT 5SM -RA BR BKN009 BKN017 OVC035 10/09 A3019 RMK AO2 PK WND 15026/2319 P0002 T01000089=
201804132324 SPECI KPAE 132324Z 15015G26KT 2 1/2SM -RA BR BKN009 BKN017 OVC035 09/09 A3020 RMK AO2 PK WND 15026/2319 P0002 T00940089=
201804132315 SPECI KPAE 132315Z 15017G23KT 4SM -RA BR BKN009 BKN017 OVC035 10/09 A3020 RMK AO2 P0001 T01000089=
201804132253 METAR KPAE 132253Z 15018G26KT 2 1/2SM -RA BR BKN009 BKN013 OVC029 10/09 A3020 RMK AO2 PK WND 14031/2221 RAB42 SLP229 P0000 T01000089=
201804132153 METAR KPAE 132153Z 14020G28KT 10SM BKN009 OVC015 10/08 A3019 RMK AO2 PK WND 14031/2122 SLP226 T01000078=
201804132053 METAR KPAE 132053Z 14019G29KT 6SM BR BKN009 OVC014 10/08 A3018 RMK AO2 PK WND 15029/2046 SLP220 T01000078 53007=
201804132020 SPECI KPAE 132020Z 14018G28KT 6SM HZ BKN014 OVC020 10/07 A3017 RMK AO2 PK WND 14029/1956 T01000072=
201804131953 METAR KPAE 131953Z 14023G29KT 10SM BKN019 OVC031 11/07 A3016 RMK AO2 PK WND 14030/1926 SLP216 T01060067=
201804131853 METAR KPAE 131853Z 14017G25KT 10SM BKN017 BKN030 BKN120 10/06 A3017 RMK AO2 PK WND 13033/1822 SLP217 T01000061=
201804131753 METAR KPAE 131753Z 14017G28KT 10SM BKN017 BKN030 BKN120 09/06 A3016 RMK AO2 PK WND 13029/1713 SLP213 T00940056 10094 20050 53001=
201804131653 METAR KPAE 131653Z 14018G26KT 10SM BKN019 OVC027 08/05 A3015 RMK AO2 PK WND 15026/1652 SLP213 T00830050=
201804131553 METAR KPAE 131553Z 12011G20KT 10SM OVC022 07/05 A3015 RMK AO2 SLP212 T00720050=
201804131541 SPECI KPAE 131541Z 13014KT 10SM BKN023 OVC032 07/05 A3015 RMK AO2 T00720050=
201804131453 METAR KPAE 131453Z 13014KT 10SM FEW020 SCT036 07/05 A3015 RMK AO2 SLP213 T00670050 55003=
201804131353 METAR KPAE 131353Z 12013G19KT 10SM FEW019 BKN036 06/04 A3015 RMK AO2 SLP212 T00610039=
201804131344 SPECI KPAE 131344Z AUTO 12012KT 10SM SCT021 SCT025 BKN038 06/04 A3015 RMK AO2 T00610039=
201804131253 METAR KPAE 131253Z AUTO 11010G17KT 10SM FEW014 OVC022 06/04 A3015 RMK AO2 SLP213 T00560039=
201804131244 SPECI KPAE 131244Z AUTO 12011G16KT 10SM SCT014 OVC022 06/04 A3015 RMK AO2 T00560039=
201804131224 SPECI KPAE 131224Z AUTO 12009G15KT 8SM BKN014 OVC024 05/04 A3016 RMK AO2 T00500039=
201804131153 METAR KPAE 131153Z AUTO 11007KT 10SM BKN018 BKN026 OVC037 06/03 A3016 RMK AO2 RAE47 SLP216 P0001 60002 70011 T00560033 10067 20050 55005=
201804131146 SPECI KPAE 131146Z AUTO 12008G14KT 10SM -RA BKN018 BKN026 OVC045 06/03 A3016 RMK AO2 P0001 T00560033=
201804131053 METAR KPAE 131053Z AUTO 12013G21KT 10SM -RA FEW021 SCT027 OVC042 06/03 A3016 RMK AO2 RAE0959B12 SLP214 P0000 T00560033=
201804131000 SPECI KPAE 131000Z AUTO 12016KT 10SM SCT020 BKN026 OVC070 06/03 A3016 RMK AO2 RAE0959 P0000 T00560033=
201804130953 METAR KPAE 130953Z AUTO 13015G22KT 10SM -RA SCT023 BKN037 OVC070 06/03 A3016 RMK AO2 RAB05 SLP217 P0001 T00610033=
201804130946 SPECI KPAE 130946Z AUTO 13015G21KT 8SM -RA FEW018 BKN037 OVC075 06/04 A3016 RMK AO2 RAB05 P0001 T00610039=
201804130904 SPECI KPAE 130904Z AUTO 12014KT 10SM FEW022 BKN027 OVC060 07/03 A3017 RMK AO2 T00670028=
201804130853 METAR KPAE 130853Z AUTO 12014G21KT 10SM SCT027 BKN050 OVC100 07/03 A3018 RMK AO2 RAB17E28 SLP221 P0000 60000 T00670028 51009=
201804130753 METAR KPAE 130753Z AUTO 14012KT 10SM BKN050 BKN075 OVC110 07/03 A3017 RMK AO2 SLP218 T00670033 400940033=
201804130653 METAR KPAE 130653Z AUTO 14013KT 10SM BKN110 07/03 A3016 RMK AO2 SLP216 T00670033=
201804130553 METAR KPAE 130553Z AUTO 16015KT 10SM FEW120 07/04 A3015 RMK AO2 SLP212 60006 T00670039 10094 20067 51018=
201804130521 SPECI KPAE 130521Z AUTO 16016KT 10SM FEW021 BKN050 07/04 A3014 RMK AO2 T00670039=
201804130453 METAR KPAE 130453Z AUTO 13007KT 10SM OVC019 07/05 A3013 RMK AO2 RAE31 SLP206 P0006 T00720050=
201804130401 SPECI KPAE 130401Z AUTO 08006KT 5SM RA BR FEW007 BKN029 OVC034 07/05 A3012 RMK AO2 P0003 T00720050=
201804130353 METAR KPAE 130353Z AUTO 12010KT 10SM -RA BKN031 OVC055 08/05 A3011 RMK AO2 RAB00E16B49 SLP200 P0000 T00780050=
201804130253 METAR KPAE 130253Z 07004KT 10SM OVC036 08/06 A3009 RMK AO2 RAB38E47 SLP193 P0000 60000 T00830056 51024=
201804130153 METAR KPAE 130153Z 34003KT 10SM OVC048 09/03 A3007 RMK AO2 SLP186 T00940033=
201804130100 SPECI KPAE 130100Z 20004KT 10SM CLR 09/03 A3005 RMK AO2 T00940028=
201804130053 METAR KPAE 130053Z 20003KT 10SM BKN021 09/03 A3005 RMK AO2 SLP178 T00940028=
201804122358 SPECI KPAE 122358Z 22007KT 10SM BKN021 09/04 A3002 RMK AO2 T00940039=
201804122353 METAR KPAE 122353Z 21006KT 10SM FEW021 09/03 A3002 RMK AO2 SLP169 60003 T00890033 10089 20056 51020=
201804122313 SPECI KPAE 122313Z 23005KT 10SM SCT017 OVC036 09/05 A3001 RMK AO2 T00890050=
201804122253 METAR KPAE 122253Z 17007KT 140V250 10SM SCT015 BKN020 OVC039 08/05 A3000 RMK AO2 RAE2157 SLP163 P0000 T00830050=
201804122216 SPECI KPAE 122216Z 17007KT 10SM SCT012 BKN030 OVC035 07/05 A2999 RMK AO2 RAE2157 P0000 T00670050=
201804122153 METAR KPAE 122153Z 13005KT 10SM -RA BKN007 OVC012 06/05 A2999 RMK AO2 RAB10E21B39 SLP158 P0001 T00610050=
201804122117 SPECI KPAE 122117Z 14006KT 10SM -RA OVC009 06/04 A2997 RMK AO2 RAB10 P0000 T00610044=
201804122053 METAR KPAE 122053Z 13008KT 10SM OVC014 06/03 A2996 RMK AO2 RAE18 SLP149 P0000 60002 T00560033 53024=
201804121953 METAR KPAE 121953Z 15013KT 9SM -RA BKN011 BKN014 OVC030 06/04 A2993 RMK AO2 SLP140 P0002 T00610039=
201804121934 SPECI KPAE 121934Z 16012KT 9SM -RA BKN011 BKN022 OVC037 06/04 A2993 RMK AO2 P0001 T00610039=
201804121853 METAR KPAE 121853Z 17015KT 10SM -RA BKN016 BKN027 OVC075 06/04 A2991 RMK AO2 RAB1756E09B43 SLP133 P0000 T00610039=
201804121800 SPECI KPAE 121800Z 17012G19KT 7SM -RA BKN018 OVC024 06/03 A2989 RMK AO2 RAB1756 P0000 T00610033=
201804121753 METAR KPAE 121753Z 17011KT 10SM SCT007 BKN012 BKN018 07/04 A2989 RMK AO2 SLP124 60000 T00670039 10072 20039 53017=
201804121653 METAR KPAE 121653Z 16012KT 10SM SCT007 BKN012 BKN018 06/04 A2987 RMK AO2 SLP116 T00610039=
201804121600 SPECI KPAE 121600Z 16011KT 10SM BKN009 BKN018 OVC023 06/04 A2985 RMK AO2 T00560039=
201804121553 METAR KPAE 121553Z 15011KT 10SM BKN007 BKN018 OVC030 06/04 A2985 RMK AO2 SLP112 T00560039=
201804121453 METAR KPAE 121453Z 15008KT 10SM BKN007 BKN015 05/04 A2984 RMK AO2 SLP107 60000 T00500039 53017=
201804121353 METAR KPAE 121353Z 15008KT 10SM SCT003 BKN007 04/04 A2982 RMK AO2 SLP100 T00440039=
201804121306 SPECI KPAE 121306Z AUTO 12005KT 10SM OVC009 04/03 A2980 RMK AO2 CIG 007V013 T00440033=
201804121253 METAR KPAE 121253Z AUTO 12007KT 10SM OVC011 04/03 A2980 RMK AO2 RAE07 SLP094 P0000 T00440033=
201804121244 SPECI KPAE 121244Z AUTO 12007KT 10SM BKN013 OVC021 04/03 A2980 RMK AO2 RAE07 P0000 T00440033=
201804121153 METAR KPAE 121153Z AUTO 12006KT 9SM -RA OVC027 04/03 A2979 RMK AO2 RAB15 SLP090 P0001 60021 70044 T00390033 10050 20033 51014=
201804121150 SPECI KPAE 121150Z AUTO 12005KT 10SM -RA OVC027 04/03 A2979 RMK AO2 RAB15 P0001=
201804121053 METAR KPAE 121053Z AUTO 12005KT 10SM BKN032 OVC042 04/03 A2977 RMK AO2 SLP083 T00390028=
201804120953 METAR KPAE 120953Z AUTO 12008KT 10SM FEW004 OVC045 04/03 A2975 RMK AO2 RAE18 SLP076 P0001 T00390028=
201804120902 SPECI KPAE 120902Z AUTO VRB03KT 9SM -RA FEW005 SCT020 OVC032 04/03 A2974 RMK AO2 P0000 T00390028=
201804120853 METAR KPAE 120853Z AUTO VRB05KT 10SM -RA FEW018 SCT025 OVC032 04/03 A2974 RMK AO2 SLP073 P0003 60019 T00390033 51017=
201804120803 SPECI KPAE 120803Z AUTO 08007KT 7SM -RA SCT010 BKN028 OVC034 04/03 A2973 RMK AO2 P0001 T00440028=
201804120753 METAR KPAE 120753Z AUTO 08005KT 7SM -RA FEW010 BKN014 OVC032 04/03 A2973 RMK AO2 SLP070 P0007 T00440028 401170044=
201804120729 SPECI KPAE 120729Z AUTO 00000KT 4SM -RA BR FEW010 BKN014 OVC019 04/03 A2972 RMK AO2 P0005 T00440033=
201804120713 SPECI KPAE 120713Z AUTO 00000KT 4SM -RA BR FEW010 BKN015 OVC020 04/03 A2972 RMK AO2 P0003 T00440028=
201804120706 SPECI KPAE 120706Z AUTO 00000KT 3SM -RA BR BKN013 OVC018 04/03 A2972 RMK AO2 P0002 T00440028=
201804120653 METAR KPAE 120653Z AUTO 00000KT 3SM R16R/3500VP6000FT RA OVC017 05/02 A2971 RMK AO2 SLP061 P0009 T00500022=
201804120553 METAR KPAE 120553Z AUTO VRB04KT 6SM -RA BR OVC022 05/03 A2969 RMK AO2 SLP056 P0004 60022 T00500028 10106 20050 51025=
201804120453 METAR KPAE 120453Z AUTO 00000KT 10SM -RA OVC026 06/03 A2967 RMK AO2 SLP047 P0005 T00560033=
201804120411 SPECI KPAE 120411Z AUTO 29003KT 6SM -RA BR SCT006 SCT010 OVC021 05/04 A2965 RMK AO2 P0002 T00500044=
201804120353 METAR KPAE 120353Z 29007KT 5SM -RA BR BKN006 OVC013 06/05 A2964 RMK AO2 CIG 004V010 SLP039 P0006 T00560050=
201804120345 SPECI KPAE 120345Z 31006KT 5SM RA BR BKN006 OVC013 06/05 A2964 RMK AO2 P0005 T00560050=
201804120336 SPECI KPAE 120336Z 29008KT 6SM -RA BR SCT006 BKN014 OVC038 06/05 A2963 RMK AO2 P0003 T00560050=
201804120329 SPECI KPAE 120329Z 30008KT 8SM -RA SCT006 SCT014 OVC038 06/05 A2963 RMK AO2 P0002 T00610050=
201804120253 METAR KPAE 120253Z 18007KT 3SM -RA BR BKN036 OVC046 08/06 A2962 RMK AO2 SLP031 P0006 60007 T00780061 55002=
201804120153 METAR KPAE 120153Z 18008KT 10SM -RA OVC035 09/06 A2961 RMK AO2 RAE07B27 SLP027 P0001 T00940061=
201804120053 METAR KPAE 120053Z 14007KT 10SM -RA BKN039 BKN047 OVC060 10/06 A2960 RMK AO2 SLP026 P0000 T01000061=
201804112353 METAR KPAE 112353Z 11003KT 10SM -RA BKN046 OVC055 10/06 A2962 RMK AO2 SLP032 P0000 60001 T01000061 10117 20089 56027=
201804112253 METAR KPAE 112253Z VRB05KT 10SM -RA BKN047 OVC060 10/06 A2964 RMK AO2 RAB2155 SLP039 P0001 T01000056=
201804112153 METAR KPAE 112153Z VRB06KT 10SM BKN050 OVC060 10/04 A2968 RMK AO2 RAE48 SLP050 P0000 T01000044=
201804112053 METAR KPAE 112053Z 12009G19KT 10SM -RA OVC055 10/03 A2970 RMK AO2 SLP059 P0000 60000 T01000033 58022=
201804112045 SPECI KPAE 112045Z 12014G19KT 10SM -RA BKN045 OVC055 10/03 A2971 RMK AO2 P0000 T01000033=
201804111953 METAR KPAE 111953Z 15011KT 10SM -RA BKN025 OVC060 09/04 A2974 RMK AO2 PK WND 17030/1857 RAB1857 SLP071 P0000 T00890044=
201804111853 METAR KPAE 111853Z 17019G27KT 10SM BKN024 OVC060 11/02 A2977 RMK AO2 PK WND 18027/1853 RAE01 SLP081 P0000 T01110022=
201804111820 SPECI KPAE 111820Z 13012G23KT 10SM BKN024 OVC060 11/02 A2976 RMK AO2 RAE01 P0000 T01110017=
201804111753 METAR KPAE 111753Z 13015G30KT 10SM -RA SCT044 OVC055 11/03 A2977 RMK AO2 PK WND 18030/1747 RAB49 SLP082 P0000 60000 T01060028 10117 20078 55014=
201804111653 METAR KPAE 111653Z 12013G18KT 10SM CLR 11/03 A2977 RMK AO2 SLP080 T01110028=
201804111553 METAR KPAE 111553Z 12011KT 10SM BKN065 OVC080 09/04 A2978 RMK AO2 SLP087 T00940039=
201804111453 METAR KPAE 111453Z 12007KT 10SM OVC080 08/05 A2981 RMK AO2 SLP096 60000 T00780050 58017=
201804111353 METAR KPAE 111353Z 12006KT 10SM FEW050 BKN070 OVC085 08/04 A2983 RMK AO2 RAB12E21 SLP101 P0000 T00780044=
201804111253 METAR KPAE 111253Z AUTO 12008KT 10SM FEW047 SCT060 OVC095 08/05 A2985 RMK AO2 RAB30E42 SLP109 P0000 T00780050=
201804111153 METAR KPAE 111153Z AUTO 12011G16KT 10SM SCT049 BKN070 OVC090 08/05 A2986 RMK AO2 RAE53 SLP113 P0002 60003 70023 T00780050 10094 20078 58013=
201804111053 METAR KPAE 111053Z AUTO 14007KT 10SM -RA SCT038 BKN050 OVC070 08/05 A2988 RMK AO2 SLP120 P0001 T00780050=
201804110953 METAR KPAE 110953Z AUTO 12010KT 10SM -RA SCT045 BKN050 OVC070 08/04 A2989 RMK AO2 RAB11E21B38 SLP121 P0000 T00830039=
201804110853 METAR KPAE 110853Z AUTO 13011KT 10SM FEW055 BKN070 OVC085 09/03 A2990 RMK AO2 SLP125 T00890033 58010=
201804110753 METAR KPAE 110753Z AUTO 12009KT 10SM CLR 09/03 A2991 RMK AO2 SLP128 T00890033 401560089=
201804110653 METAR KPAE 110653Z AUTO 12012KT 10SM BKN085 09/03 A2992 RMK AO2 SLP134 T00890033=
201804110553 METAR KPAE 110553Z AUTO 13009KT 10SM CLR 09/03 A2993 RMK AO2 SLP136 T00940033 10144 20094 50006=
201804110253 METAR KPAE 110253Z 17012G20KT 10SM CLR 11/02 A2991 RMK AO2 SLP130 T01110022 51003=
201804110153 METAR KPAE 110153Z 17017G24KT 10SM CLR 13/01 A2991 RMK AO2 PK WND 16026/0118 SLP129 T01280011=
201804110053 METAR KPAE 110053Z 17019G24KT 10SM SCT050 14/M01 A2991 RMK AO2 SLP126 T01391006=
201804102353 METAR KPAE 102353Z 17017G26KT 10SM CLR 14/01 A2990 RMK AO2 PK WND 18029/2314 SLP126 60000 T01390011 10144 20106 50001=
201804102253 METAR KPAE 102253Z 17022G31KT 10SM CLR 14/03 A2991 RMK AO2 PK WND 15031/2244 SLP127 T01440033=
201804102153 METAR KPAE 102153Z 17021G30KT 10SM CLR 14/05 A2991 RMK AO2 PK WND 15031/2116 SLP128 T01390050=
201804102053 METAR KPAE 102053Z 17021G33KT 10SM CLR 14/07 A2990 RMK AO2 PK WND 16033/2051 SLP124 60000 T01390067 51014=
201804101953 METAR KPAE 101953Z 16021G29KT 10SM CLR 13/07 A2989 RMK AO2 PK WND 17032/1935 RAE1859 SLP120 P0000 T01280072=
201804101853 METAR KPAE 101853Z 16014KT 7SM -RA SCT017 BKN025 OVC039 11/09 A2989 RMK AO2 PK WND 14031/1814 RAB37 SLP121 P0000 T01110089=
201804101834 SPECI KPAE 101834Z 16021G31KT 10SM SCT019 BKN039 OVC070 12/09 A2988 RMK AO2 PK WND 14031/1814 T01170089=
201804101800 SPECI KPAE 101800Z 16016G23KT 10SM BKN023 BKN031 OVC045 12/09 A2986 RMK AO2 T01170089=
201804101753 METAR KPAE 101753Z 15017G26KT 10SM FEW023 SCT029 OVC045 12/09 A2986 RMK AO2 PK WND 16027/1742 RAE04 SLP111 P0000 60020 T01170089 10150 20100 53026=
201804101653 METAR KPAE 101653Z 12012G20KT 5SM -RA BR FEW037 OVC065 11/09 A2982 RMK AO2 SLP098 P0006 T01060089=
201804101621 SPECI KPAE 101621Z 14011G20KT 5SM -RA BR FEW008 BKN043 OVC050 10/09 A2982 RMK AO2 P0005 T01000094=
201804101553 METAR KPAE 101553Z 12011KT 3SM -RA BR FEW025 BKN055 OVC075 11/09 A2980 RMK AO2 SLP090 P0008 T01060089=
201804101453 METAR KPAE 101453Z 12011G15KT 9SM -RA BKN060 OVC080 11/08 A2978 RMK AO2 SLP084 P0006 60006 T01060083 53010=
201804101353 METAR KPAE 101353Z 17014G26KT 10SM -RA BKN060 OVC075 13/06 A2980 RMK AO2 PK WND 19027/1322 WSHFT 1316 RAE04B24 SLP092 P0000 T01280056=
201804101331 SPECI KPAE 101331Z 17015G27KT 10SM -RA FEW055 BKN075 OVC085 12/06 A2980 RMK AO2 PK WND 19027/1322 WSHFT 1316 RAE04B24 P0000 T01170056=
201804101253 METAR KPAE 101253Z AUTO 08014G18KT 10SM -RA BKN060 OVC080 14/02 A2972 RMK AO2 RAB48 PRESFR SLP063 P0000 T01440022=
201804101153 METAR KPAE 101153Z AUTO 12005KT 10SM BKN110 15/01 A2975 RMK AO2 SLP071 T01500011 10156 20128 56016=
201804101053 METAR KPAE 101053Z AUTO 12006KT 10SM CLR 15/01 A2975 RMK AO2 SLP073 T01500011=
201804100953 METAR KPAE 100953Z AUTO 08005KT 10SM CLR 14/02 A2977 RMK AO2 SLP080 T01390022=
201804100853 METAR KPAE 100853Z AUTO VRB03KT 10SM CLR 13/04 A2980 RMK AO2 SLP089 T01330039 56030=
201804100753 METAR KPAE 100753Z AUTO 07007KT 10SM CLR 14/04 A2982 RMK AO2 SLP096 T01390039 401500067=
201804100653 METAR KPAE 100653Z AUTO 08005KT 10SM CLR 13/04 A2985 RMK AO2 SLP108 T01330044=
201804100553 METAR KPAE 100553Z AUTO 07006KT 10SM CLR 13/06 A2989 RMK AO2 SLP121 T01280061 10144 20106 58025=
201804100453 METAR KPAE 100453Z AUTO 35005KT 10SM CLR 11/07 A2993 RMK AO2 SLP135 T01110072=
201804100353 METAR KPAE 100353Z AUTO 32003KT 10SM CLR 11/07 A2995 RMK AO2 SLP143 T01060072=
201804100253 METAR KPAE 100253Z AUTO 00000KT 10SM CLR 11/07 A2996 RMK AO2 SLP148 T01110072 58035=
201804100153 METAR KPAE 100153Z 32004KT 10SM CLR 12/07 A3000 RMK AO2 SLP160 T01220067=
201804100053 METAR KPAE 100053Z 33008KT 10SM CLR 14/06 A3003 RMK AO2 SLP171 T01440061=
201804092353 METAR KPAE 092353Z 31006KT 10SM CLR 14/05 A3007 RMK AO2 SLP182 T01440050 10150 20100 56035=
201804092253 METAR KPAE 092253Z 33005KT 10SM CLR 15/05 A3009 RMK AO2 SLP192 T01500050=
201804092153 METAR KPAE 092153Z 33005KT 10SM CLR 14/05 A3013 RMK AO2 SLP205 T01390050=
201804092053 METAR KPAE 092053Z 28006KT 10SM CLR 12/05 A3017 RMK AO2 SLP219 T01220050 58028 $=
201804091953 METAR KPAE 091953Z 25005KT 10SM CLR 11/05 A3020 RMK AO2 SLP229 T01110050 $=
201804091853 METAR KPAE 091853Z VRB03KT 10SM CLR 11/05 A3023 RMK AO2 SLP238 T01060050 $=
201804091826 SPECI KPAE 091826Z VRB04KT 10SM SCT025 11/05 A3024 RMK AO2 T01060050 $=
201804091753 METAR KPAE 091753Z VRB03KT 10SM BKN023 11/05 A3026 RMK AO2 SLP247 T01060050 10106 20067 56015 $=
201804091739 SPECI KPAE 091739Z 08004KT 10SM BKN021 11/05 A3026 RMK AO2 T01060050 $=
201804091653 METAR KPAE 091653Z 00000KT 10SM CLR 09/05 A3027 RMK AO2 SLP253 T00940050 $=
201804091553 METAR KPAE 091553Z 13005KT 10SM CLR 09/05 A3028 RMK AO2 SLP255 T00890050 $=
201804091453 METAR KPAE 091453Z 15004KT 10SM CLR 07/05 A3030 RMK AO2 SLP262 T00720050 $=
201804091353 METAR KPAE 091353Z 13006KT 10SM CLR 07/05 A3030 RMK AO2 SLP263 T00670050 $=
201804091253 METAR KPAE 091253Z AUTO VRB04KT 10SM CLR 07/05 A3031 RMK AO2 SLP265 T00670050=
201804091153 METAR KPAE 091153Z AUTO 12007KT 10SM FEW015 BKN060 07/05 A3031 RMK AO2 SLP266 70002 T00720050 10083 20072 53004=
201804091053 METAR KPAE 091053Z AUTO 13009KT 10SM BKN060 07/05 A3030 RMK AO2 SLP261 T00720050=
201804090953 METAR KPAE 090953Z AUTO 13011KT 10SM OVC065 08/05 A3030 RMK AO2 SLP262 T00780050=
201804090853 METAR KPAE 090853Z AUTO 15012G19KT 10SM FEW060 FEW075 08/05 A3030 RMK AO2 SLP262 T00780050 52021=
201804090753 METAR KPAE 090753Z AUTO 14010KT 10SM FEW014 SCT075 08/05 A3028 RMK AO2 SLP254 T00780050 401170072=
201804090653 METAR KPAE 090653Z AUTO 15014KT 10SM FEW014 BKN070 OVC090 08/05 A3026 RMK AO2 SLP248 T00780050=
201804090553 METAR KPAE 090553Z AUTO 15012KT 10SM FEW013 OVC065 08/06 A3024 RMK AO2 SLP241 T00830056 10111 20083 51027=
201804090453 METAR KPAE 090453Z AUTO 15014KT 10SM FEW014 OVC065 08/06 A3022 RMK AO2 SLP235 T00830061=
201804090425 SPECI KPAE 090425Z AUTO 15013G19KT 10SM SCT016 OVC031 09/06 A3022 RMK AO2 T00890061=
201804090353 METAR KPAE 090353Z AUTO 15013G19KT 10SM FEW015 BKN021 OVC033 09/07 A3019 RMK AO2 SLP226 T00890067=
201804090253 METAR KPAE 090253Z 15012KT 10SM BKN018 BKN023 OVC034 09/07 A3015 RMK AO2 SLP213 T00940067 52026=
201804090153 METAR KPAE 090153Z 17015G22KT 10SM OVC020 11/07 A3013 RMK AO2 PK WND 18028/0111 SLP204 T01060067=
201804090053 METAR KPAE 090053Z 17016G23KT 10SM BKN021 OVC026 11/07 A3010 RMK AO2 PK WND 17029/0030 SLP196 T01110067=
201804082353 METAR KPAE 082353Z 15014G23KT 10SM BKN015 OVC023 11/07 A3008 RMK AO2 PK WND 17026/2302 SLP187 60001 T01110072 10117 20083 51034=
201804082253 METAR KPAE 082253Z 16015G24KT 10SM BKN015 BKN023 OVC090 12/08 A3005 RMK AO2 SLP176 T01170078=
201804082153 METAR KPAE 082153Z 15016G24KT 10SM BKN013 OVC021 11/08 A3001 RMK AO2 SLP164 T01060078=
201804082053 METAR KPAE 082053Z 15014G21KT 10SM OVC009 10/08 A2998 RMK AO2 SLP152 60001 T01000083 51027=
201804082050 SPECI KPAE 082050Z 15014G20KT 10SM OVC010 10/08 A2997 RMK AO2 CIG 007V013=
201804081953 METAR KPAE 081953Z 14012G19KT 10SM OVC007 09/08 A2994 RMK AO2 RAE30 CIG 005V010 SLP138 P0001 T00890078=
201804081900 SPECI KPAE 081900Z 14011G18KT 4SM -RA BR OVC007 08/08 A2990 RMK AO2 CIG 005V010 P0001 T00830078=
201804081853 METAR KPAE 081853Z 14011KT 2 1/2SM -RA BR OVC007 08/08 A2989 RMK AO2 RAB53 CIG 005V010 SLP125 P0000 T00830078=
201804081753 METAR KPAE 081753Z 14012KT 3SM BR OVC007 08/07 A2984 RMK AO2 RAB06E50 SLP107 P0001 60001 T00830072 10083 20072 53045=
201804081713 SPECI KPAE 081713Z 13015G21KT 2 1/2SM -RA BR OVC007 08/07 A2981 RMK AO2 RAB06 P0000 T00780067=
201804081653 METAR KPAE 081653Z 14014G21KT 6SM BR OVC007 08/07 A2980 RMK AO2 PK WND 13030/1555 SLP092 T00830067=
201804081553 METAR KPAE 081553Z 13020G30KT 10SM BKN009 OVC014 08/06 A2974 RMK AO2 PK WND 13033/1511 SLP072 T00780061=
201804081507 SPECI KPAE 081507Z 13017G29KT 10SM BKN009 OVC013 08/06 A2971 RMK AO2 PK WND 12029/1458 CIG 008V012 T00780061=
201804081453 METAR KPAE 081453Z 13019G28KT 10SM BKN010 OVC014 08/06 A2971 RMK AO2 PK WND 13028/1436 SLP061 T00780061 51023=
201804081353 METAR KPAE 081353Z 13017G27KT 10SM BKN012 BKN027 OVC100 08/06 A2968 RMK AO2 PK WND 13027/1318 SLP053 T00780056=
201804081340 SPECI KPAE 081340Z AUTO 13017G26KT 10SM FEW012 SCT029 OVC100 07/06 A2968 RMK AO2 PK WND 13027/1318 T00720056=
201804081315 SPECI KPAE 081315Z AUTO 13018G26KT 10SM BKN013 OVC025 08/06 A2967 RMK AO2 PK WND 14026/1315 T00780056=
201804081305 SPECI KPAE 081305Z AUTO 13019G24KT 10SM BKN015 BKN022 OVC110 07/06 A2967 RMK AO2 T00720056=
201804081253 METAR KPAE 081253Z AUTO 13018G26KT 10SM BKN013 BKN026 OVC110 07/05 A2967 RMK AO2 PK WND 14030/1219 SLP049 T00720050=
201804081238 SPECI KPAE 081238Z AUTO 13018G26KT 10SM SCT015 BKN029 OVC110 08/05 A2966 RMK AO2 PK WND 14030/1219 T00780050=
201804081204 SPECI KPAE 081204Z AUTO 13018G27KT 10SM SCT016 BKN110 07/06 A2964 RMK AO2 PK WND 14027/1155 T00720056=
201804081153 METAR KPAE 081153Z AUTO 13020G26KT 10SM FEW013 BKN018 OVC110 08/06 A2964 RMK AO2 PK WND 13028/1106 SLP037 60000 70034 T00780056 10083 20072 53015=
201804081131 SPECI KPAE 081131Z AUTO 13018G26KT 10SM SCT018 BKN028 BKN033 08/05 A2963 RMK AO2 PK WND 13028/1106 T00780050=
201804081053 METAR KPAE 081053Z AUTO 13018G24KT 10SM FEW034 FEW055 08/05 A2962 RMK AO2 PK WND 12027/0957 SLP032 T00780050=
201804080953 METAR KPAE 080953Z AUTO 13022G28KT 10SM SCT022 BKN048 07/06 A2960 RMK AO2 PK WND 13028/0953 RAE0859 SLP024 P0000 T00720056=
201804080939 SPECI KPAE 080939Z AUTO 14014G22KT 10SM SCT022 BKN027 07/06 A2960 RMK AO2 RAE0859 P0000 T00720056=
201804080917 SPECI KPAE 080917Z AUTO 13013KT 10SM FEW015 SCT029 BKN120 07/06 A2960 RMK AO2 RAE0859 P0000 T00720056=
201804080853 METAR KPAE 080853Z AUTO 13016G22KT 10SM -RA FEW013 BKN024 BKN037 07/06 A2959 RMK AO2 PK WND 12026/0814 RAE01B46 SLP022 P0000 60000 T00720061 53017=
201804080753 METAR KPAE 080753Z AUTO 14019G27KT 10SM -RA FEW016 BKN042 07/06 A2957 RMK AO2 PK WND 14028/0728 RAB43 SLP014 P0000 T00720056 401440072=
201804080737 SPECI KPAE 080737Z AUTO 15021G28KT 10SM SCT015 BKN042 08/06 A2956 RMK AO2 PK WND 14028/0728 T00780056=
201804080653 METAR KPAE 080653Z AUTO 15012KT 10SM SCT019 BKN024 OVC030 08/07 A2957 RMK AO2 RAE41 SLP012 P0000 T00780072=
201804080632 SPECI KPAE 080632Z AUTO 15013KT 10SM -RA FEW018 BKN028 OVC055 08/07 A2955 RMK AO2 P0000 T00780072=
201804080621 SPECI KPAE 080621Z AUTO 16016KT 10SM -RA SCT028 BKN035 OVC055 08/06 A2955 RMK AO2 P0000 T00780061=
201804080602 SPECI KPAE 080602Z AUTO 16013G23KT 10SM -RA BKN029 OVC040 08/06 A2955 RMK AO2 P0000 T00830061=
201804080553 METAR KPAE 080553Z AUTO 16015G21KT 9SM -RA SCT025 BKN031 OVC046 08/06 A2954 RMK AO2 SLP005 P0001 60013 T00830061 10106 20083 53019=
201804080453 METAR KPAE 080453Z AUTO 15011KT 10SM -RA SCT014 SCT021 OVC055 09/07 A2953 RMK AO2 SLP000 P0001 T00890072=
201804080443 SPECI KPAE 080443Z AUTO 15011G17KT 9SM -RA SCT014 BKN020 OVC046 09/08 A2952 RMK AO2 P0001 T00890078=
201804080353 METAR KPAE 080353Z 13012G19KT 10SM -RA BKN050 OVC070 09/07 A2950 RMK AO2 SLP991 P0001 T00890072=
201804080306 SPECI KPAE 080306Z 14012KT 10SM -RA SCT020 SCT035 OVC055 09/07 A2949 RMK AO2 P0000 T00890072=
201804080253 METAR KPAE 080253Z 13009G20KT 7SM -RA SCT018 BKN024 OVC050 09/07 A2949 RMK AO2 SLP986 P0001 60010 T00890072 51008=
201804080248 SPECI KPAE 080248Z 13010G21KT 7SM -RA SCT018 BKN024 OVC047 09/07 A2949 RMK AO2 P0001=
201804080153 METAR KPAE 080153Z 14012G19KT 8SM -RA SCT021 BKN037 OVC070 10/07 A2948 RMK AO2 PK WND 15027/0103 RAB05E25B43 SLP983 P0001 T01000072=
201804080100 SPECI KPAE 080100Z 15020KT 10SM FEW016 SCT055 OVC070 10/08 A2946 RMK AO2 T01000078=
201804080053 METAR KPAE 080053Z 16020G25KT 8SM BKN022 BKN050 OVC070 10/08 A2946 RMK AO2 PK WND 17027/0043 RAE46 SLP976 P0008 T01000078=
201804080008 SPECI KPAE 080008Z 11008KT 2 1/2SM -RA BR BKN018 BKN037 OVC055 10/08 A2945 RMK AO2 P0002 T01000078=
201804080000 SPECI KPAE 080000Z 13013KT 7SM -RA FEW018 BKN037 OVC055 11/08 A2945 RMK AO2 P0001 T01060078=
201804072353 METAR KPAE 072353Z 12012KT 2 1/2SM -RA BKN019 BKN049 OVC060 11/08 A2945 RMK AO2 RAE2258B03 SLP973 P0001 60002 T01060078 10133 20094 56005=
201804072337 SPECI KPAE 072337Z 11010G18KT 2 1/2SM -RA BKN019 BKN049 OVC060 11/08 A2944 RMK AO2 RAE2258B03 P0001 T01060078=
201804072302 SPECI KPAE 072302Z 11008G16KT 10SM BKN019 BKN049 OVC060 11/08 A2945 RMK AO2 RAE2258 P0000 T01110078=
201804072300 SPECI KPAE 072300Z 11008G16KT 060V150 10SM FEW023 BKN050 OVC065 11/08 A2945 RMK AO2 RAE2258 P0000 T01110078=
201804072253 METAR KPAE 072253Z 11010G24KT 9SM -RA BKN019 BKN049 OVC060 11/07 A2945 RMK AO2 PK WND 12026/2214 SLP974 P0000 T01060067=
201804072153 METAR KPAE 072153Z 13017G26KT 10SM -RA OVC065 11/07 A2946 RMK AO2 PK WND 13026/2148 RAE27B47 SLP976 P0001 T01060067=
201804072053 METAR KPAE 072053Z 14013G26KT 6SM -RA FEW023 BKN050 OVC065 11/07 A2947 RMK AO2 PK WND 16026/2031 SLP978 P0000 60000 T01060072 53008=
201804071953 METAR KPAE 071953Z 19011G24KT 10SM -RA SCT013 BKN035 OVC050 10/06 A2945 RMK AO2 PK WND 15034/1929 RAB43 SLP973 P0000 T01000061=
201804071853 METAR KPAE 071853Z 14015KT 10SM FEW035 FEW045 OVC060 13/07 A2943 RMK AO2 RAB1757E08 SLP966 P0000 T01280067=
201804071816 SPECI KPAE 071816Z 16012KT 10SM FEW019 BKN025 12/08 A2945 RMK AO2 RAB1757E08 P0000 T01170083=
201804071753 METAR KPAE 071753Z 17015G25KT 10SM CLR 11/08 A2944 RMK AO2 PK WND 17028/1728 SLP969 P0001 60019 T01110078 10117 20100 51020=
201804071653 METAR KPAE 071653Z 15018G24KT 10SM BKN060 OVC095 11/08 A2941 RMK AO2 PK WND 15029/1601 RAE34 SLP959 P0002 T01060078=
201804071616 SPECI KPAE 071616Z 16016KT 4SM -RA BR SCT016 BKN021 OVC050 10/09 A2942 RMK AO2 PK WND 15029/1601 P0002 T01000089=
201804071605 SPECI KPAE 071605Z 15021G29KT 4SM -RA BR FEW019 BKN046 OVC055 11/09 A2942 RMK AO2 PK WND 15029/1601 P0001 T01060089=
201804071553 METAR KPAE 071553Z 13017G23KT 2SM RA BR FEW019 BKN047 OVC060 11/09 A2941 RMK AO2 RAB37 SLP959 P0006 T01060089=
201804071453 METAR KPAE 071453Z 11008G17KT 10SM SCT070 BKN090 OVC100 11/09 A2938 RMK AO2 RAE53 SLP947 P0000 60010 T01060089 50011=
201804071353 METAR KPAE 071353Z 14018G29KT 10SM -RA OVC055 12/08 A2939 RMK AO2 PK WND 17029/1335 WSHFT 1248 SLP951 P0008 T01170083=
201804071309 SPECI KPAE 071309Z AUTO 17012G17KT 3SM RA BR FEW009 BKN030 OVC050 11/10 A2939 RMK AO2 WSHFT 1248 P0006 T01060100=
201804071305 SPECI KPAE 071305Z AUTO 20014G23KT 2 1/2SM RA BR SCT007 BKN027 OVC039 11/10 A2940 RMK AO2 WSHFT 1248 VIS 1 1/2V5 PRESRR P0005 T01060100=
201804071302 SPECI KPAE 071302Z AUTO 17013G23KT 3SM RA BR FEW007 BKN033 OVC041 11/10 A2938 RMK AO2 WSHFT 1248 P0004 T01060100=
201804071253 METAR KPAE 071253Z AUTO 13013G19KT 6SM -RA BR BKN037 OVC044 11/10 A2935 RMK AO2 SLP937 P0002 T01110100=
201804071153 METAR KPAE 071153Z AUTO VRB06KT 4SM -RA BR BKN047 BKN055 OVC070 11/10 A2935 RMK AO2 SLP936 P0010 60015 70016 T01110100 10144 20111 56027=
201804071053 METAR KPAE 071053Z AUTO VRB04KT 5SM RA OVC065 12/08 A2938 RMK AO2 RAB00 SLP945 P0005 T01220078=
201804070953 METAR KPAE 070953Z AUTO 07008KT 10SM FEW050 BKN070 OVC080 14/06 A2937 RMK AO2 RAB27E51 PRESFR SLP943 P0000 T01390061=
201804070853 METAR KPAE 070853Z AUTO 08008KT 10SM BKN080 OVC100 14/06 A2943 RMK AO2 SLP964 T01390056 58046=
201804070753 METAR KPAE 070753Z AUTO 08007KT 10SM BKN090 13/06 A2949 RMK AO2 SLP984 T01330056 401720089=
201804070653 METAR KPAE 070653Z AUTO 08006KT 10SM BKN075 13/06 A2954 RMK AO2 SLP001 T01330056=
201804070553 METAR KPAE 070553Z AUTO 07006KT 10SM CLR 13/06 A2957 RMK AO2 SLP013 T01330061 10167 20133 58023=
201804070453 METAR KPAE 070453Z AUTO 07008KT 10SM CLR 14/07 A2960 RMK AO2 SLP024 T01390072=
201804070353 METAR KPAE 070353Z AUTO 05003KT 10SM FEW060 15/09 A2964 RMK AO2 SLP034 T01500089=
201804070253 METAR KPAE 070253Z 00000KT 10SM OVC060 15/09 A2964 RMK AO2 SLP036 T01500094 58019=
201804070153 METAR KPAE 070153Z 21003KT 10SM OVC060 16/09 A2965 RMK AO2 SLP041 T01560094=
201804070053 METAR KPAE 070053Z 23005KT 10SM BKN055 16/10 A2968 RMK AO2 SLP050 T01610100=
201804062353 METAR KPAE 062353Z 24005KT 10SM FEW032 17/11 A2969 RMK AO2 SLP054 60000 T01670106 10172 20111 56033=
201804062253 METAR KPAE 062253Z AUTO 15005KT 10SM FEW029 17/10 A2972 RMK AO2 SLP065 T01720100=
201804062153 METAR KPAE 062153Z 12007KT 10SM SCT041 16/11 A2976 RMK AO2 SLP076 T01560106=
201804062126 SPECI KPAE 062126Z 12008KT 10SM FEW027 SCT034 OVC043 15/10 A2977 RMK AO2 T01500100=
201804062053 METAR KPAE 062053Z 13004KT 10SM FEW006 BKN020 BKN028 14/10 A2979 RMK AO2 SLP089 60000 T01440100 58010=
201804061953 METAR KPAE 061953Z 16005KT 8SM FEW006 BKN020 OVC028 13/11 A2981 RMK AO2 SLP094 T01330111=
201804061900 SPECI KPAE 061900Z 12008KT 10SM SCT006 BKN014 OVC023 12/11 A2982 RMK AO2 T01220106=
201804061853 METAR KPAE 061853Z 12007KT 10SM FEW003 BKN006 OVC019 12/11 A2982 RMK AO2 RAB04E26 SLP097 P0000 T01170106=
201804061830 SPECI KPAE 061830Z 12007KT 9SM FEW003 BKN006 OVC019 12/11 A2982 RMK AO2 RAB04E26 P0000 T01170106=
201804061818 SPECI KPAE 061818Z 12009KT 2 1/2SM R16R/6000VP6000FT -RA BR FEW003 BKN006 OVC019 11/11 A2982 RMK AO2 VIS 1 1/2V5 RAB04 P0000 T01110106=
201804061811 SPECI KPAE 061811Z 12009KT 1 3/4SM -RA BR FEW003 BKN006 OVC019 11/11 A2982 RMK AO2 RAB04 P0000 T01110106=
201804061802 SPECI KPAE 061802Z VRB05KT 4SM BR FEW005 BKN006 OVC019 11/11 A2982 RMK AO2 T01110106=
201804061755 SPECI KPAE 061755Z 11005KT 3SM BR FEW005 BKN013 OVC019 11/11 A2982 RMK AO2 T01110106=
201804061753 METAR KPAE 061753Z 11004KT 2 1/2SM BR BKN007 BKN024 OVC036 11/11 A2982 RMK AO2 RAB10E28 SLP099 P0000 60001 T01110106 10122 20089 56003=
201804061748 SPECI KPAE 061748Z 08007KT 3SM BR BKN007 BKN024 OVC036 12/11 A2982 RMK AO2 RAB10E28 P0000=
201804061709 SPECI KPAE 061709Z 12007KT 9SM FEW006 BKN014 OVC044 11/10 A2983 RMK AO2 T01110100=
201804061653 METAR KPAE 061653Z 11004KT 10SM FEW017 BKN022 OVC043 11/10 A2983 RMK AO2 SLP100 T01110100=
201804061553 METAR KPAE 061553Z 12007KT 10SM BKN016 OVC023 11/09 A2983 RMK AO2 SLP102 T01060089=
201804061505 SPECI KPAE 061505Z VRB04KT 6SM BR BKN017 OVC024 09/09 A2983 RMK AO2 T00940089=
201804061453 METAR KPAE 061453Z 08006KT 2SM BR OVC017 09/08 A2983 RMK AO2 RAB22E52 SLP103 P0001 60001 T00890083 51001=
201804061450 SPECI KPAE 061450Z 08006KT 2SM -RA BR OVC017 09/08 A2983 RMK AO2 RAB22 P0001=
201804061356 SPECI KPAE 061356Z 08007KT 9SM SCT005 OVC014 09/09 A2983 RMK AO2 T00940089=
201804061353 METAR KPAE 061353Z 08008KT 9SM OVC014 09/09 A2983 RMK AO2 SLP102 T00940089=
201804061253 METAR KPAE 061253Z AUTO VRB03KT 10SM OVC012 09/09 A2983 RMK AO2 SLP100 T00940089=
201804061153 METAR KPAE 061153Z AUTO 08008KT 10SM OVC013 09/08 A2983 RMK AO2 SLP102 70022 T00940083 10100 20089 56001=
201804061135 SPECI KPAE 061135Z AUTO 08008KT 10SM OVC014 09/08 A2983 RMK AO2 T00940083=
201804061053 METAR KPAE 061053Z AUTO 12006KT 10SM SCT019 BKN023 OVC028 10/09 A2983 RMK AO2 SLP103 T01000089=
201804060953 METAR KPAE 060953Z AUTO 12007KT 10SM OVC018 10/09 A2983 RMK AO2 SLP102 T01000089=
201804060853 METAR KPAE 060853Z AUTO VRB05KT 10SM SCT017 OVC025 10/09 A2983 RMK AO2 SLP104 T01000089 58001=
201804060753 METAR KPAE 060753Z AUTO 13012KT 10SM FEW015 OVC022 10/09 A2984 RMK AO2 SLP106 T01000089 401110067=
201804060720 SPECI KPAE 060720Z AUTO 12012KT 10SM SCT005 BKN016 BKN024 10/09 A2984 RMK AO2 T01000094=
201804060653 METAR KPAE 060653Z AUTO 11006G15KT 9SM BKN006 OVC015 10/09 A2984 RMK AO2 CIG 004V010 SLP106 T01000089=
201804060644 SPECI KPAE 060644Z AUTO 12007KT 080V140 6SM BR BKN008 OVC015 10/09 A2984 RMK AO2 CIG 006V011 T01000089=
201804060617 SPECI KPAE 060617Z AUTO 11005KT 10SM BKN019 BKN029 OVC042 10/09 A2984 RMK AO2 T01000089=
201804060553 METAR KPAE 060553Z AUTO 12009G17KT 10SM SCT027 BKN035 BKN110 10/09 A2984 RMK AO2 SLP106 60006 T01000089 10111 20100 50004=
201804060507 SPECI KPAE 060507Z AUTO 12010KT 10SM SCT022 BKN037 OVC100 10/09 A2984 RMK AO2 T01000094=
201804060453 METAR KPAE 060453Z AUTO 12010G16KT 10SM FEW018 BKN024 OVC037 10/09 A2984 RMK AO2 SLP106 T01000094=
201804060445 SPECI KPAE 060445Z AUTO 12011G14KT 10SM BKN024 BKN030 OVC050 10/09 A2984 RMK AO2 T01000094=
201804060353 METAR KPAE 060353Z AUTO VRB06KT 10SM FEW032 BKN039 OVC049 11/09 A2983 RMK AO2 SLP104 T01060094=
201804060253 METAR KPAE 060253Z VRB04KT 10SM SCT001 BKN007 OVC030 11/10 A2983 RMK AO2 RAE41 SLP102 P0001 60006 T01060100 56009=
201804060153 METAR KPAE 060153Z VRB04KT 9SM -RA BKN005 BKN030 OVC050 11/10 A2983 RMK AO2 SLP103 P0003 T01060100=
201804060053 METAR KPAE 060053Z VRB05KT 8SM -RA FEW010 SCT033 OVC070 11/10 A2984 RMK AO2 SLP106 P0002 T01110100=
201804052353 METAR KPAE 052353Z VRB04KT 7SM -RA BKN006 BKN055 OVC070 11/10 A2985 RMK AO2 SLP111 P0002 60013 T01110100 10111 20094 57021=
201804052253 METAR KPAE 052253Z AUTO VRB05KT 10SM -RA BKN009 OVC070 11/10 A2987 RMK AO2 SLP117 P0000 T01110100=
201804052153 METAR KPAE 052153Z 12010G14KT 10SM -RA BKN007 BKN011 OVC035 11/09 A2990 RMK AO2 SLP127 P0002 T01060089=
201804052053 METAR KPAE 052053Z 13009KT 5SM -RA BR BKN009 BKN011 OVC035 10/09 A2992 RMK AO2 SLP133 P0003 60009 T01000089 58007=
201804051953 METAR KPAE 051953Z 12007KT 7SM -RA BKN006 BKN050 OVC065 09/08 A2993 RMK AO2 SLP135 P0003 T00940083=
201804051904 SPECI KPAE 051904Z 11005KT 6SM -RA BR BKN006 BKN036 BKN055 10/08 A2994 RMK AO2 P0000 T01000083=
201804051853 METAR KPAE 051853Z 13007KT 5SM -RA BR BKN036 BKN055 OVC070 09/08 A2994 RMK AO2 SLP139 P0003 T00940083=
201804051753 METAR KPAE 051753Z 13007KT 9SM -RA BKN055 OVC070 09/08 A2994 RMK AO2 RAB1658 SLP140 P0000 60003 T00940083 10094 20078 53001=
201804051653 METAR KPAE 051653Z VRB05KT 10SM BKN048 OVC070 09/08 A2993 RMK AO2 RAB1556E36 SLP138 P0001 T00890078=
201804051553 METAR KPAE 051553Z 14005KT 10SM SCT055 OVC075 08/08 A2994 RMK AO2 RAE50 SLP142 P0001 T00830078=
201804051453 METAR KPAE 051453Z 12009KT 6SM -RA BR BKN060 BKN075 OVC090 08/07 A2994 RMK AO2 RAB39 SLP140 P0001 60001 T00830072 56002=
201804051353 METAR KPAE 051353Z 12008KT 10SM FEW080 OVC100 08/07 A2994 RMK AO2 SLP141 T00780067=
201804051253 METAR KPAE 051253Z AUTO 12008KT 10SM BKN085 OVC120 08/07 A2994 RMK AO2 SLP141 T00780067=
201804051153 METAR KPAE 051153Z AUTO 12008KT 10SM SCT060 OVC090 08/06 A2994 RMK AO2 RAE1058 SLP143 P0000 60005 70039 T00780061 10078 20067 56010=
201804051053 METAR KPAE 051053Z AUTO VRB04KT 10SM -RA BKN055 OVC070 07/06 A2995 RMK AO2 RAB48 SLP145 P0000 T00720061=
201804050953 METAR KPAE 050953Z AUTO 08009KT 10SM SCT070 BKN085 OVC100 07/06 A2996 RMK AO2 SLP147 T00720056=
201804050853 METAR KPAE 050853Z AUTO 07005KT 10SM OVC110 07/06 A2997 RMK AO2 SLP153 60005 T00720056 56010=
201804050753 METAR KPAE 050753Z AUTO 08007KT 10SM BKN090 OVC110 07/06 A2998 RMK AO2 RAE24 SLP154 P0001 T00670061 400780039=
201804050653 METAR KPAE 050653Z AUTO 07008KT 10SM -RA OVC065 07/06 A2999 RMK AO2 SLP157 P0004 T00670061=
201804050553 METAR KPAE 050553Z AUTO 08008KT 8SM -RA BKN055 OVC070 07/06 A3000 RMK AO2 SLP163 P0003 60009 T00670061 10078 20067 58011=
201804050538 SPECI KPAE 050538Z AUTO 08008KT 10SM -RA SCT028 OVC065 07/06 A3001 RMK AO2 P0002 T00670061=
201804050453 METAR KPAE 050453Z AUTO 08007KT 10SM -RA OVC016 07/06 A3003 RMK AO2 SLP171 P0001 T00670061=
201804050421 SPECI KPAE 050421Z AUTO 08008KT 10SM -RA OVC015 07/06 A3003 RMK AO2 P0000 T00670061=
201804050400 SPECI KPAE 050400Z AUTO 08008KT 10SM -RA OVC014 07/06 A3003 RMK AO2 P0000 T00670061=
201804050353 METAR KPAE 050353Z 08008KT 3SM -RA BR BKN003 OVC014 07/06 A3003 RMK AO2 SLP174 P0001 T00670061=
201804050300 SPECI KPAE 050300Z 08007KT 3SM -RA BR OVC003 07/07 A3004 RMK AO2 P0000 T00720067=
201804050253 METAR KPAE 050253Z 08006KT 1 1/2SM -RA BR OVC002 07/07 A3004 RMK AO2 SLP174 P0003 60004 T00720067 58005=
201804050222 SPECI KPAE 050222Z 07007KT 1 1/2SM -RA BR OVC002 07/07 A3004 RMK AO2 P0002 T00720067=
201804050153 METAR KPAE 050153Z 09005KT 3SM -RA BR BKN009 OVC014 07/07 A3004 RMK AO2 RAB0055 SLP178 P0001 T00720067=
201804050053 METAR KPAE 050053Z VRB04KT 10SM BKN005 OVC012 07/07 A3005 RMK AO2 RAB09E34 SLP179 P0000 T00720067=
201804042353 METAR KPAE 042353Z 08008KT 10SM BKN005 OVC019 07/06 A3005 RMK AO2 RAE53 SLP179 P0001 60024 T00720061 10072 20056 56006=
201804042307 SPECI KPAE 042307Z 08005KT 10SM -RA BKN005 OVC019 07/06 A3005 RMK AO2 P0000 T00670056=
201804042300 SPECI KPAE 042300Z 08006KT 9SM -RA OVC019 07/06 A3005 RMK AO2 P0000 T00720056=
201804042253 METAR KPAE 042253Z 08008KT 10SM -RA BKN005 OVC019 07/06 A3005 RMK AO2 SLP179 P0005 T00670056=
201804042153 METAR KPAE 042153Z 09007KT 8SM -RA SCT005 BKN009 OVC040 07/06 A3006 RMK AO2 SLP181 P0006 T00670056=
201804042107 SPECI KPAE 042107Z 08006KT 6SM -RA BR BKN005 BKN026 OVC038 07/05 A3007 RMK AO2 P0002 T00670050=
201804042100 SPECI KPAE 042100Z 08007KT 5SM -RA BR SCT009 SCT026 OVC038 07/05 A3007 RMK AO2 P0001 T00670050=
201804042053 METAR KPAE 042053Z 09005KT 6SM -RA BR OVC005 07/05 A3007 RMK AO2 SLP185 P0006 60012 T00670050 50002=
201804041953 METAR KPAE 041953Z VRB04KT 6SM -RA BR OVC009 06/05 A3008 RMK AO2 SLP189 P0004 T00610050=
201804041924 SPECI KPAE 041924Z 12006KT 6SM -RA BR BKN006 OVC014 06/04 A3008 RMK AO2 P0002 T00610044=
201804041853 METAR KPAE 041853Z 12005KT 6SM -RA BR FEW006 OVC014 06/04 A3007 RMK AO2 SLP186 P0002 T00610044=
201804041753 METAR KPAE 041753Z 10005KT 10SM -RA OVC020 06/04 A3006 RMK AO2 RAB48 SLP184 P0000 60001 T00560039 10056 20039 52002=
201804041726 SPECI KPAE 041726Z 12005KT 10SM BKN021 OVC031 06/03 A3006 RMK AO2 T00560033=
201804041706 SPECI KPAE 041706Z 12007KT 10SM OVC031 06/03 A3006 RMK AO2 T00560033=
201804041653 METAR KPAE 041653Z 12007KT 10SM OVC029 06/03 A3006 RMK AO2 SLP182 T00560033=
201804041600 SPECI KPAE 041600Z VRB04KT 10SM OVC027 04/03 A3006 RMK AO2 T00440028=
201804041553 METAR KPAE 041553Z 12005KT 10SM OVC030 04/03 A3006 RMK AO2 SLP183 T00440033=
201804041540 SPECI KPAE 041540Z 12006KT 10SM OVC030 04/03 A3006 RMK AO2 T00440033=
201804041533 SPECI KPAE 041533Z 12006KT 10SM OVC028 04/03 A3006 RMK AO2 T00440033=
201804041453 METAR KPAE 041453Z VRB03KT 10SM OVC032 04/03 A3006 RMK AO2 SLP181 60001 T00440033 58002=
201804041353 METAR KPAE 041353Z 13005KT 10SM OVC040 04/03 A3006 RMK AO2 RAE31 SLP182 P0000 T00390033=
201804041253 METAR KPAE 041253Z AUTO 13006KT 10SM -RA OVC035 04/03 A3006 RMK AO2 SLP183 P0001 T00390028=
201804041153 METAR KPAE 041153Z AUTO 12006KT 7SM -RA FEW013 OVC041 04/03 A3006 RMK AO2 SLP183 P0001 60006 70006 T00440033 10067 20044 58002=
201804041053 METAR KPAE 041053Z AUTO 12008KT 8SM -RA FEW016 OVC036 05/03 A3007 RMK AO2 SLP185 P0002 T00500033=
201804041049 SPECI KPAE 041049Z AUTO 12007KT 7SM -RA SCT016 OVC036 05/03 A3007 RMK AO2 P0002=
201804041018 SPECI KPAE 041018Z AUTO 12006KT 6SM -RA BR FEW020 BKN029 OVC039 05/03 A3007 RMK AO2 P0001 T00500028=
201804041006 SPECI KPAE 041006Z AUTO 12007KT 7SM -RA FEW020 BKN031 OVC041 05/03 A3007 RMK AO2 P0000 T00500028=
201804040953 METAR KPAE 040953Z AUTO 12006KT 9SM -RA FEW021 BKN025 OVC043 05/03 A3007 RMK AO2 SLP186 P0002 T00500028=
201804040941 SPECI KPAE 040941Z AUTO 14005KT 6SM -RA BR FEW020 BKN026 OVC033 05/03 A3007 RMK AO2 P0001 T00500028=
201804040853 METAR KPAE 040853Z AUTO 13007KT 10SM -RA BKN031 OVC042 06/02 A3006 RMK AO2 RAB27 SLP183 P0001 60001 T00610022 53008=
201804040753 METAR KPAE 040753Z AUTO 13007KT 10SM OVC055 06/00 A3005 RMK AO2 SLP179 T00610000 400830033=
201804040653 METAR KPAE 040653Z AUTO VRB04KT 10SM BKN050 BKN080 06/00 A3004 RMK AO2 SLP177 T00610000=
201804040553 METAR KPAE 040553Z AUTO 08003KT 10SM FEW043 06/M01 A3004 RMK AO2 SLP175 T00611006 10083 20061 51007=
201804040453 METAR KPAE 040453Z AUTO 07004KT 10SM FEW080 07/M01 A3004 RMK AO2 SLP174 T00721011=
201804040353 METAR KPAE 040353Z AUTO 00000KT 10SM BKN055 OVC075 08/M01 A3003 RMK AO2 SLP172 T00781011=
201804040253 METAR KPAE 040253Z 00000KT 10SM OVC100 07/M01 A3002 RMK AO2 SLP169 T00721011 58004=
201804040153 METAR KPAE 040153Z 34003KT 10SM OVC100 08/M01 A3002 RMK AO2 SLP169 T00781011=
201804040053 METAR KPAE 040053Z 31004KT 10SM FEW060 OVC110 08/M01 A3003 RMK AO2 SLP172 T00781006=
201804032353 METAR KPAE 032353Z 10SM OVC100 08/M01 A3003 RMK AO2 SLP172 T00831006 10083 20061 56008=
201804032253 METAR KPAE 032253Z VRB03KT 10SM OVC100 08/00 A3004 RMK AO2 SLP176 T00780000=
201804032153 METAR KPAE 032153Z 00000KT 10SM SCT040 OVC110 08/00 A3004 RMK AO2 SLP177 T00780000=
201804032053 METAR KPAE 032053Z 20004KT 10SM OVC110 07/00 A3006 RMK AO2 SLP182 T00720000 55003=
201804031953 METAR KPAE 031953Z 24005KT 10SM FEW036 FEW120 07/02 A3005 RMK AO2 SLP179 T00720017=
201804031853 METAR KPAE 031853Z 21005KT 10SM FEW034 BKN048 BKN120 07/02 A3006 RMK AO2 SLP182 T00670022=
201804031834 SPECI KPAE 031834Z 24005KT 10SM FEW022 SCT030 BKN046 07/03 A3006 RMK AO2 T00670028=
201804031811 SPECI KPAE 031811Z 24005KT 10SM BKN028 BKN035 OVC047 06/02 A3007 RMK AO2 T00610022=
201804031753 METAR KPAE 031753Z 13006KT 10SM SCT025 BKN033 OVC048 07/01 A3007 RMK AO2 SLP184 T00670011 10067 20033 56008=
201804031731 SPECI KPAE 031731Z 13006KT 10SM BKN025 06/01 A3007 RMK AO2 T00610011=
201804031653 METAR KPAE 031653Z 13005KT 10SM FEW019 06/01 A3007 RMK AO2 SLP186 T00560011=
201804031553 METAR KPAE 031553Z VRB04KT 10SM CLR 04/01 A3008 RMK AO2 SLP191 T00440011=
201804031453 METAR KPAE 031453Z 12007KT 10SM FEW060 04/01 A3009 RMK AO2 SLP194 T00390011 56007=
201804031353 METAR KPAE 031353Z 13006KT 10SM OVC060 04/01 A3010 RMK AO2 SLP195 T00390011=
201804031253 METAR KPAE 031253Z 12004KT 10SM FEW060 04/01 A3010 RMK AO2 SLP196 T00390011=
201804031153 METAR KPAE 031153Z 13007KT 10SM BKN060 04/02 A3011 RMK AO2 SLP199 60000 T00440017 10061 20033 56007=
201804031053 METAR KPAE 031053Z 15007KT 10SM CLR 03/01 A3011 RMK AO2 SLP201 T00330011=
201804030953 METAR KPAE 030953Z 13008KT 10SM FEW055 04/01 A3012 RMK AO2 SLP203 T00440011=
201804030853 METAR KPAE 030853Z 16006KT 10SM FEW030 SCT039 04/01 A3013 RMK AO2 SLP207 60000 T00390011 58001=
201804030822 SPECI KPAE 030822Z 17007KT 10SM SCT026 BKN042 BKN060 05/02 A3014 RMK AO2 T00500017=
201804030800 SPECI KPAE 030800Z 12005KT 10SM BKN026 BKN031 OVC046 06/02 A3014 RMK AO2 T00560017=
201804030753 METAR KPAE 030753Z 00000KT 10SM SCT023 BKN030 OVC043 05/02 A3014 RMK AO2 RAB04E30 SLP208 P0000 T00500022 400940017=
201804030751 SPECI KPAE 030751Z VRB03KT 10SM FEW020 BKN032 OVC043 06/02 A3014 RMK AO2 RAB04E30 P0000=
201804030733 SPECI KPAE 030733Z 12007KT 10SM BKN022 OVC030 05/02 A3013 RMK AO2 RAB04E30 P0000 T00500022=
201804030722 SPECI KPAE 030722Z 15006KT 6SM -RA FEW018 BKN032 OVC045 05/02 A3013 RMK AO2 RAB04 P0000 T00500022=
201804030714 SPECI KPAE 030714Z 11005KT 8SM -RA BKN026 BKN032 OVC045 06/02 A3013 RMK AO2 RAB04 P0000 T00560017=
201804030703 SPECI KPAE 030703Z 12006KT 10SM FEW024 BKN038 OVC060 06/02 A3013 RMK AO2 T00560017=
201804030653 METAR KPAE 030653Z 12005KT 10SM FEW024 BKN029 OVC050 06/02 A3014 RMK AO2 SLP208 T00560017=
201804030624 SPECI KPAE 030624Z 08003KT 10SM SCT026 BKN039 OVC055 06/01 A3013 RMK AO2 T00610011=
201804030614 SPECI KPAE 030614Z 07004KT 10SM BKN025 BKN039 OVC055 06/01 A3013 RMK AO2 T00610011=
201804030553 METAR KPAE 030553Z VRB03KT 10SM BKN041 BKN060 OVC120 06/01 A3014 RMK AO2 SLP207 T00610011 10094 20061 51011=
201804030453 METAR KPAE 030453Z 03004KT 10SM FEW048 OVC060 06/02 A3013 RMK AO2 SLP206 T00610017=
201804030353 METAR KPAE 030353Z 35005KT 10SM FEW040 BKN060 06/01 A3011 RMK AO2 SLP201 T00610011=
201804030253 METAR KPAE 030253Z 32007KT 10SM BKN043 07/01 A3010 RMK AO2 SLP197 T00670006 53007=
201804030153 METAR KPAE 030153Z 34007KT 10SM SCT065 OVC080 08/01 A3008 RMK AO2 SLP191 T00780011=
201804030053 METAR KPAE 030053Z 02007KT 10SM BKN055 OVC070 09/00 A3008 RMK AO2 SLP190 T00890000=
201804022353 METAR KPAE 022353Z 08006KT 10SM BKN055 OVC070 09/01 A3008 RMK AO2 SLP190 T00890006 10089 20061 58000=
201804022253 METAR KPAE 022253Z 08007KT 040V100 10SM OVC065 09/02 A3008 RMK AO2 SLP191 T00890017=
201804022153 METAR KPAE 022153Z 07008KT 10SM SCT044 BKN055 OVC070 08/01 A3009 RMK AO2 SLP192 T00780006=
201804022053 METAR KPAE 022053Z 08008KT 10SM SCT023 BKN035 OVC065 08/02 A3008 RMK AO2 SLP190 T00780022 51010=
201804022012 SPECI KPAE 022012Z VRB03KT 10SM SCT023 BKN041 OVC060 07/01 A3008 RMK AO2 T00720006=
201804021953 METAR KPAE 021953Z VRB05KT 10SM BKN019 BKN027 OVC075 07/02 A3008 RMK AO2 SLP189 T00720022=
201804021853 METAR KPAE 021853Z 24004KT 10SM BKN065 06/M01 A3007 RMK AO2 SLP186 T00611011=
201804021753 METAR KPAE 021753Z 19005KT 10SM SCT025 BKN055 06/00 A3005 RMK AO2 SLP180 60000 T00560000 10056 20017 51028=
201804021728 SPECI KPAE 021728Z 13004KT 10SM BKN025 OVC050 06/01 A3004 RMK AO2 T00560006=
201804021653 METAR KPAE 021653Z 17006KT 10SM SCT060 04/02 A3002 RMK AO2 SLP171 T00440017=
201804021553 METAR KPAE 021553Z 18006KT 10SM OVC055 03/01 A3000 RMK AO2 SLP163 T00330011=
201804021453 METAR KPAE 021453Z 16005KT 10SM OVC060 02/01 A2997 RMK AO2 SLP153 60000 T00170006 53027=
201804021353 METAR KPAE 021353Z 16007KT 10SM SCT023 BKN034 OVC070 02/01 A2994 RMK AO2 SLP142 T00220011=
201804021346 SPECI KPAE 021346Z AUTO 17005KT 10SM SCT023 BKN034 OVC070 02/01 A2994 RMK AO2 T00220011=
201804021253 METAR KPAE 021253Z AUTO 13007KT 10SM BKN027 OVC041 02/01 A2991 RMK AO2 UPB00E53SNB31E42 SLP134 P0000 T00170006=
201804021226 SPECI KPAE 021226Z AUTO VRB03KT 10SM UP BKN019 BKN025 OVC080 02/01 A2990 RMK AO2 UPB00 P0000 T00220011=
201804021153 METAR KPAE 021153Z AUTO 16008KT 10SM FEW031 BKN055 OVC070 02/01 A2989 RMK AO2 UPB06E15 SLP125 P0000 60003 70031 T00170006 10044 20017 53008=
201804021053 METAR KPAE 021053Z AUTO 14006KT 10SM FEW010 OVC048 02/01 A2987 RMK AO2 RAB0956E05B24E45UPB05E24 SLP120 P0001 T00170006=
201804021045 SPECI KPAE 021045Z AUTO 13006KT 10SM SCT010 BKN041 OVC050 02/01 A2987 RMK AO2 RAB0956E05B24E45UPB05E24 P0001 T00170006=
201804021020 SPECI KPAE 021020Z AUTO 22004KT 10SM UP OVC013 02/01 A2987 RMK AO2 RAB0956E05UPB05 P0000 T00220006=
201804020953 METAR KPAE 020953Z AUTO 21007KT 10SM BKN015 BKN027 OVC048 02/01 A2987 RMK AO2 RAB04E09UPB25E38SNE04 SLP118 P0001 T00220006=
201804020949 SPECI KPAE 020949Z AUTO 22007KT 10SM BKN017 BKN027 OVC080 02/01 A2986 RMK AO2 RAB04E09UPB25E38SNE04 P0001=
201804020941 SPECI KPAE 020941Z AUTO 16005KT 10SM FEW017 BKN046 OVC080 02/01 A2986 RMK AO2 RAB04E09UPB25E38SNE04 P0001 T00220006=
201804020853 METAR KPAE 020853Z AUTO 20004KT 7SM -SN FEW017 BKN026 OVC050 03/01 A2986 RMK AO2 SNB46 SLP115 P0001 60001 T00280006 52009=
201804020753 METAR KPAE 020753Z AUTO 13007KT 10SM SCT036 BKN065 BKN080 02/01 A2985 RMK AO2 SLP113 T00220006 400720017=
201804020653 METAR KPAE 020653Z AUTO 18009G15KT 150V220 10SM BKN090 04/M02 A2984 RMK AO2 SLP108 T00391022=
201804020553 METAR KPAE 020553Z AUTO 29005KT 10SM FEW060 SCT070 BKN095 04/M03 A2983 RMK AO2 SLP105 60002 T00441028 10067 20039 53005=
201804020453 METAR KPAE 020453Z AUTO 29009G19KT 260V320 10SM SCT095 04/M03 A2983 RMK AO2 PK WND 30026/0411 SLP104 T00441028=
201804020353 METAR KPAE 020353Z AUTO 30010G18KT 260V320 10SM CLR 04/M02 A2981 RMK AO2 SLP099 T00441022=
201804020253 METAR KPAE 020253Z 10SM CLR 04/00 A2982 RMK AO2 RAE50 SLP100 P0000 60002 T00440000 56007=
201804020153 METAR KPAE 020153Z 31004KT 10SM -RA SCT038 06/00 A2982 RMK AO2 SLP100 P0000 T00610000=
201804020053 METAR KPAE 020053Z 30003KT 10SM -RA FEW040 BKN049 OVC060 05/01 A2983 RMK AO2 RAB00 SLP104 P0002 T00500006=
201804020000 SPECI KPAE 020000Z VRB04KT 10SM -RA OVC037 06/01 A2984 RMK AO2 RAB00 P0000 T00560011=
201804012353 METAR KPAE 012353Z 33003KT 10SM BKN017 OVC037 06/01 A2984 RMK AO2 SLP106 60023 T00560011 10067 20039 56014=
201804012253 METAR KPAE 012253Z VRB04KT 10SM BKN020 OVC027 06/02 A2985 RMK AO2 RAE07 SLP109 P0000 T00560017=
201804012153 METAR KPAE 012153Z 31005KT 4SM -RA BR OVC011 05/03 A2986 RMK AO2 SLP115 P0007 T00500033=
201804012055 SPECI KPAE 012055Z 29011KT 2 1/2SM -RA BR OVC011 04/03 A2988 RMK AO2 P0002 T00440033=
201804012053 SPECI KPAE 012053Z 30008KT 3SM -RA BR FEW009 OVC017 04/03 A2988 RMK AO2 P0001 T00440033=
201804012051 METAR KPAE 012051Z 30005KT 3SM -RA BR OVC011 04/03 A2988 RMK AO2 SLP122 P0009 60016 T00440028 58013=
201804012050 SPECI KPAE 012050Z 30005KT 3SM -RA BR OVC011 04/03 A2988 RMK AO2 P0009=
201804012039 SPECI KPAE 012039Z 2SM RA BR SCT006 BKN018 OVC025 04/03 A2988 RMK AO2 P0007 T00440033=
201804012008 SPECI KPAE 012008Z 32005KT 4SM -RA BR SCT006 BKN018 OVC025 04/03 A2990 RMK AO2 P0002 T00440033=
201804011953 METAR KPAE 011953Z 31005KT 3SM -RA BR SCT006 BKN012 OVC021 04/04 A2990 RMK AO2 SLP127 P0007 T00440039=
201804011930 SPECI KPAE 011930Z 30008G17KT 3SM R16R/6000VP6000FT RA BR BKN014 OVC021 04/02 A2990 RMK AO2 P0002 T00440022=
201804011853 METAR KPAE 011853Z 18011KT 10SM -RA BKN017 OVC023 07/04 A2990 RMK AO2 RAB51 SLP128 P0000 T00670044=
201804011753 METAR KPAE 011753Z 17010KT 10SM OVC017 06/04 A2992 RMK AO2 RAE31 SLP134 P0001 60003 T00610044 10067 20056 56009=
201804011653 METAR KPAE 011653Z 17010KT 8SM -RA OVC013 06/04 A2993 RMK AO2 SLP137 P0001 T00610044=
201804011553 METAR KPAE 011553Z 18011KT 10SM -RA OVC013 06/04 A2994 RMK AO2 SLP140 P0001 T00610039=
201804011539 SPECI KPAE 011539Z 17012KT 10SM -RA OVC013 06/03 A2994 RMK AO2 P0001 T00610033=
201804011453 METAR KPAE 011453Z 15009KT 10SM -RA OVC019 06/03 A2995 RMK AO2 RAB33 SLP143 P0000 60000 T00610033 58020=
201804011353 METAR KPAE 011353Z VRB05KT 10SM OVC017 06/03 A2998 RMK AO2 SLP154 T00610028=
201804011253 METAR KPAE 011253Z AUTO 15007KT 10SM OVC019 07/02 A2999 RMK AO2 SLP158 T00670022=
201804011153 METAR KPAE 011153Z AUTO 15008KT 10SM OVC018 06/03 A3001 RMK AO2 SLP162 T00610028 10072 20061 58015=
201804011128 SPECI KPAE 011128Z AUTO 13009KT 10SM BKN019 OVC085 06/03 A3001 RMK AO2 T00610028=
201804011053 METAR KPAE 011053Z AUTO 14008KT 10SM FEW017 FEW032 OVC090 06/03 A3003 RMK AO2 SLP171 T00610028=
201804011023 SPECI KPAE 011023Z AUTO 16009KT 10SM SCT014 SCT024 OVC031 07/04 A3004 RMK AO2 T00670039=
201804010953 METAR KPAE 010953Z AUTO 18007KT 10SM OVC012 07/05 A3004 RMK AO2 SLP175 T00720050=
201804010924 SPECI KPAE 010924Z AUTO 00000KT 10SM FEW011 BKN017 OVC042 07/06 A3005 RMK AO2 T00720056=
201804010853 METAR KPAE 010853Z AUTO 00000KT 10SM FEW043 BKN110 07/06 A3005 RMK AO2 SLP177 T00670056 58010=
201804010753 METAR KPAE 010753Z AUTO VRB04KT 10SM FEW120 07/06 A3006 RMK AO2 SLP182 T00720056 401280044=
201804010744 SPECI KPAE 010744Z AUTO 32004KT 10SM FEW006 FEW110 07/05 A3006 RMK AO2 T00670050=
201804010653 METAR KPAE 010653Z AUTO 32003KT 10SM FEW040 SCT120 07/04 A3007 RMK AO2 SLP185 T00670044=
201804010553 METAR KPAE 010553Z AUTO 32003KT 10SM SCT042 09/03 A3008 RMK AO2 SLP188 T00890028 10122 20089 58006=
201804010453 METAR KPAE 010453Z AUTO 00000KT 10SM OVC042 09/05 A3011 RMK AO2 SLP198 T00890050=
201804010353 METAR KPAE 010353Z AUTO 31003KT 10SM OVC050 09/04 A3011 RMK AO2 SLP199 T00890044=
201804010253 METAR KPAE 010253Z 32005KT 10SM CLR 09/04 A3010 RMK AO2 SLP195 T00890044 56014=
201804010153 METAR KPAE 010153Z 31003KT 10SM CLR 10/05 A3012 RMK AO2 SLP201 T01000050=
201804010053 METAR KPAE 010053Z 32003KT 10SM CLR 12/05 A3012 RMK AO2 SLP203 T01220050=

# No short TAF reports from KPAE in databse.

###################################
#  large TAF from KPAE
###################################
201804302320 TAF KPAE 302320Z 0100/0124 23007KT P6SM BKN030 BKN050 FM010500
                       20005KT P6SM SCT020 OVC030 FM010900 20005KT
                       P6SM OVC020 FM012000 20007KT P6SM BKN030
                       FM012300 36005KT P6SM SCT040=
201804301721 TAF KPAE 301721Z 3018/0118 18006KT P6SM VCSH OVC012
                      TEMPO 3018/3019 -RA BKN008 FM302100 25005KT
                       P6SM SCT020 BKN030 FM010500 VRB04KT P6SM
                       SCT020 OVC030 FM010900 VRB04KT P6SM OVC025=
201804301137 KPAE 301137Z 3012/0112 17005KT P6SM BKN012 OVC025 FM301800 23004KT
                       P6SM OVC025 FM302200 28004KT P6SM SCT030
                       BKN050 FM010500 VRB04KT P6SM BKN030=
201804301133 TAF KPAE 301133Z 3012/0112 17005KT P6SM VCSH BKN012 OVC025 FM301800
                       23004KT P6SM OVC025 FM302200 28004KT P6SM
                       SCT030 BKN050 FM010500 32004KT P6SM BKN030=
201804300524 TAF KPAE 300524Z 3006/0106 36003KT P6SM VCSH FEW023 BKN035 OVC040
                       TEMPO 3006/3010 3SM -SHRA BR BKN022 OVC035
                       FM301000 17005KT P6SM VCSH BKN012 OVC025
                       FM301800 23004KT P6SM OVC025 FM302200 28004KT
                       P6SM SCT030 BKN050 FM010500 32004KT P6SM
                       BKN030=
201804292321 TAF KPAE 292321Z 3000/3024 35005KT P6SM FEW025 OVC050 FM300400
                       32005KT P6SM SCT010 BKN025 OVC050 FM300700
                       06005KT P6SM -SHRA BKN010 OVC025 FM301100
                       VRB04KT P6SM -SHRA BKN005 OVC010 FM301800
                       21006KT P6SM BKN020 OVC030 FM302000 24006KT
                       P6SM SCT030 BKN050=
201804291720 TAF KPAE 291720Z 2918/3018 VRB03KT P6SM BKN005 OVC014 FM291900
                       22005KT P6SM BKN015 OVC050 FM292100 22006KT
                       P6SM SCT025 BKN050 FM300400 32005KT P6SM
                       SCT010 BKN025 OVC050 FM300700 06005KT P6SM
                       -SHRA BKN010 OVC025 FM301100 VRB04KT P6SM
                       -SHRA BKN005 OVC010=
201804291120 TAF KPAE 291120Z 2912/3012 VRB03KT P6SM BKN006 OVC013
                      TEMPO 2912/2916 3SM -RA BR OVC004 FM291800
                       21008KT P6SM BKN020 OVC040 FM292100 22008KT
                       P6SM VCSH SCT025 BKN050 FM300300 VRB03KT
                       P6SM VCSH BKN010 OVC020=
201804290541 TAF KPAE 290541Z 2906/3006 32003KT P6SM VCSH BKN022 OVC035 FM291100
                       18005KT P6SM BKN006 OVC013 FM291800 21008KT
                       P6SM BKN020 OVC040 FM292100 22008KT P6SM
                       VCSH SCT025 BKN050=
201804290330 KPAE 290330Z 2904/2924 32005KT P6SM SCT009 BKN025 OVC040
                      TEMPO 2904/2906 -SHRA BKN006 OVC025 FM290600
                       VRB04KT P6SM BKN020 OVC040 FM291100 18005KT
                       P6SM BKN006 OVC013 FM291800 21008KT P6SM
                       BKN020 OVC040 FM292100 22008KT P6SM SCT025
                       BKN050=
201804282320 TAF KPAE 282320Z 2900/2924 32005KT P6SM SCT009 BKN025 OVC040
                      TEMPO 2900/2902 -SHRA BKN009 OVC025 FM290600
                       VRB04KT P6SM BKN020 OVC040 FM291100 18005KT
                       P6SM BKN006 OVC013 FM291800 21008KT P6SM
                       BKN020 OVC040 FM292100 22008KT P6SM SCT025
                       BKN050=
201804281720 TAF KPAE 281720Z 2818/2918 20006KT 3SM -SHRA BR BKN007 OVC018 FM282000
                       20008KT P6SM -SHRA BKN010 OVC020 FM282200
                       22008KT P6SM SCT020 OVC040 FM290600 VRB04KT
                       P6SM BKN020 OVC040 FM291100 18005KT P6SM
                       BKN010 OVC020=
201804281134 TAF KPAE 281134Z 2812/2912 18008KT P6SM -SHRA SCT006 BKN012 OVC020
                       TEMPO 2812/2815 4SM -SHRA BKN006 OVC012
                       FM281700 18008KT P6SM SCT010 BKN020 OVC040
                       FM282200 18008KT P6SM -SHRA SCT020 OVC040
                       FM290400 18008KT P6SM BKN020 OVC035=
201804280532 TAF KPAE 280532Z 2806/2906 16010KT P6SM OVC021 FM280800 20006KT
                       P6SM -RA BKN007 OVC015 FM281200 21008KT
                       P6SM VCSH BKN013 OVC020 FM282000 21008KT
                       P6SM VCSH SCT015 OVC040=
201804272321 TAF KPAE 272321Z 2800/2824 15014G22KT P6SM BKN025 OVC040
                      TEMPO 2800/2804 SCT025 BKN040 FM280600 20010KT
                       P6SM -SHRA OVC015 FM280900 20006KT P6SM
                       -SHRA BKN007 OVC015 FM281700 21008KT P6SM
                       -SHRA BKN013 OVC020 FM282000 21008KT P6SM
                       SCT020 OVC045=
201804272028 KPAE 272028Z 2720/2818 15010KT P6SM OVC011 FM272200 16013KT P6SM
                       SCT015 OVC040 FM280400 21010KT P6SM -SHRA
                       BKN020 OVC040 FM280800 21006KT P6SM -SHRA
                       BKN011 OVC020=
201804271720 TAF KPAE 271720Z 2718/2818 18012KT P6SM OVC009 FM272000 21010KT
                       P6SM SCT015 BKN050 FM280400 21010KT P6SM
                       -SHRA BKN020 OVC040 FM280800 21006KT P6SM
                       -SHRA BKN011 OVC020=
201804271135 TAF KPAE 271135Z 2712/2812 32004KT 3/4SM BR OVC001 FM271500 VRB03KT
                       3SM BR OVC003 FM271700 VRB03KT P6SM OVC006
                       FM272000 21010KT P6SM SCT015 BKN050 FM280400
                       21010KT P6SM -SHRA BKN020 OVC040 FM280800
                       21006KT P6SM -SHRA BKN011 OVC020=
201804270910 KPAE 270910Z 2709/2806 19006KT P6SM SCT250 FM271300 21006KT P6SM
                       BKN006 FM271800 21008KT P6SM SCT015 BKN050
                       FM272100 21013KT P6SM SCT050=
201804270532 TAF KPAE 270532Z 2706/2806 32005KT P6SM SKC FM270800 19006KT P6SM
                       SCT250 FM271600 21006KT P6SM BKN012 FM271800
                       21008KT P6SM SCT015 BKN050 FM272100 21013KT
                       P6SM SCT050=
201804262321 TAF KPAE 262321Z 2700/2724 31005KT P6SM SKC FM270800 19006KT P6SM
                       SCT250 FM271600 21006KT P6SM BKN012 FM271800
                       21008KT P6SM SCT015 BKN050 FM272100 21013KT
                       P6SM SCT050=
201804261723 TAF KPAE 261723Z 2618/2718 35006KT P6SM SKC FM270800 19006KT P6SM
                       SCT250 FM271600 21006KT P6SM BKN012=
201804261124 TAF KPAE 261124Z 2612/2712 00000KT P6SM SCT250 FM261700 34008KT
                       P6SM SCT250 FM270800 19006KT P6SM SCT250=
201804260520 TAF KPAE 260520Z 2606/2706 33004KT P6SM FEW250 FM261700 36006KT
                       P6SM SCT200 FM270400 36004KT P6SM SCT200=
201804252327 TAF KPAE 252327Z 2600/2624 31008KT P6SM FEW200 FM260400 02004KT
                       P6SM SKC FM262000 35007KT P6SM SCT200=
201804251720 TAF KPAE 251720Z 2518/2618 33009KT P6SM SKC FM260400 02003KT P6SM
                       SKC=
201804251126 TAF KPAE 251126Z 2512/2612 35006KT P6SM SCT200=
201804250532 TAF KPAE 250532Z 2506/2606 35006KT P6SM SCT200=
201804242320 TAF KPAE 242320Z 2500/2524 32008KT P6SM SCT250 FM250500 04006KT
                       P6SM BKN200 FM251800 36010KT P6SM SCT250=
201804241720 TAF KPAE 241720Z 2418/2518 36006KT P6SM SCT250 FM250500 04006KT
                       P6SM BKN200=
201804241133 TAF KPAE 241133Z 2412/2512 VRB04KT P6SM SCT200 FM241800 36007KT
                       P6SM SCT200=
201804240526 TAF KPAE 240526Z 2406/2506 05006KT P6SM SKC FM242100 35005KT P6SM
                       SKC=
201804232322 TAF KPAE 232322Z 2400/2424 32010KT P6SM SKC FM240600 07007KT P6SM
                       SKC=
201804231720 TAF KPAE 231720Z 2318/2418 33007KT P6SM SKC FM240600 10005KT P6SM
                       SKC=
201804231127 TAF KPAE 231127Z 2312/2412 35006KT P6SM SKC FM240600 10005KT P6SM
                       SKC=
201804230521 TAF KPAE 230521Z 2306/2406 35006KT P6SM SKC FM240400 10005KT P6SM
                       SKC=
201804222320 TAF KPAE 222320Z 2300/2324 32008KT P6SM SKC FM230400 04008KT P6SM
                       SKC FM232000 32010KT P6SM SKC=
201804221720 TAF KPAE 221720Z 2218/2318 35008KT P6SM SCT015
                      TEMPO 2218/2220 BKN015 FM230300 02004KT P6SM
                       SKC=
201804221502 KPAE 221502Z 2215/2312 VRB03KT P6SM BKN007 FM221800 35008KT P6SM
                       SCT012 FM230300 02004KT P6SM SKC=
201804221401 KPAE 221401Z 2214/2312 VRB03KT P6SM BKN012
                      TEMPO 2216/2218 SCT015 FM221800 35008KT P6SM
                       SKC FM230300 02004KT P6SM SKC=
201804221120 TAF KPAE 221120Z 2212/2312 35004KT P6SM BKN022 FM221800 35008KT
                       P6SM SKC FM230300 02004KT P6SM SKC=
201804221022 KPAE 221022Z 2210/2306 33004KT P6SM SCT015 BKN025 FM221700 34008KT
                       P6SM SKC=
201804220825 KPAE 220825Z 2208/2306 33004KT P6SM FEW015 SCT200 FM221200 VRB03KT
                       P6SM SCT004 SCT200
                      TEMPO 2212/2216 3SM BR BKN004 FM221700 34008KT
                       P6SM SKC=
201804220537 TAF KPAE 220537Z 2206/2306 01004KT P6SM SCT040 SCT200 FM221200
                       VRB03KT P6SM SCT004 SCT250
                      TEMPO 2212/2216 3SM BR BKN004 FM221700 34008KT
                       P6SM SKC=
201804212320 TAF KPAE 212320Z 2200/2224 33008KT P6SM VCSH BKN050 BKN150 FM220600
                       03006KT P6SM SCT050 SCT200 FM221200 VRB03KT
                       P6SM SCT003 SCT250
                      TEMPO 2212/2216 3SM BR BKN003 FM221700 35007KT
                       P6SM SCT250=
201804211727 KPAE 211727Z 2118/2218 VRB05KT P6SM VCSH SCT015 BKN030
                      TEMPO 2118/2120 -SHRA BKN015 BKN030 FM212100
                       33008KT P6SM VCSH BKN040 FM220500 03006KT
                       P6SM SCT050 BKN250 FM221200 VRB03KT P6SM
                       SCT003 SCT250
                      TEMPO 2212/2216 3SM BR BKN003 FM221700 35007KT
                       P6SM SCT250=
201804211720 TAF KPAE 211720Z 2118/2218 22012KT P6SM SCT030 FM212100 VRB05KT
                       P6SM VCSH BKN040 FM220000 35007KT P6SM VCSH
                       BKN040 FM220500 03006KT P6SM SCT050 BKN250
                       FM221200 VRB03KT P6SM SCT003 SCT250
                      TEMPO 2212/2216 3SM BR BKN003 FM221700 35007KT
                       P6SM SCT250=
201804211122 TAF KPAE 211122Z 2112/2212 18015G25KT P6SM VCSH SCT020 BKN040
                      TEMPO 2112/2116 -SHRA BKN020 FM211700 28008KT
                       P6SM VCSH SCT030 BKN040 FM212100 31009KT
                       P6SM VCSH SCT040 FM220000 32010KT P6SM SCT200=
201804210535 TAF KPAE 210535Z 2106/2206 18012G22KT P6SM SCT045 BKN060 OVC090
                       FM210800 17015G23KT P6SM -RA SCT035 BKN050
                       OVC070 FM211100 21011G20KT P6SM -SHRA BKN020
                       BKN040 FM211700 28008KT P6SM VCSH SCT030
                       BKN040 FM212100 31009KT P6SM VCSH SCT040
                       FM220000 32010KT P6SM SCT200=
201804202320 TAF KPAE 202320Z 2100/2124 17012G19KT P6SM OVC100 FM210600 18012G22KT
                       P6SM -RA BKN025 OVC050 FM211200 20015G25KT
                       P6SM -SHRA BKN020 BKN040 FM211600 28008KT
                       P6SM -SHRA BKN025 BKN050 FM212000 30008KT
                       P6SM VCSH BKN040=
201804201720 TAF KPAE 201720Z 2018/2118 16006KT P6SM SCT120 BKN250 FM210000
                       23007KT P6SM BKN070 OVC150 FM210600 18012G22KT
                       P6SM -RA BKN025 OVC050 FM211200 20015G25KT
                       P6SM -SHRA BKN020 BKN040 FM211600 28008KT
                       P6SM -SHRA BKN025 BKN050=
201804201121 TAF KPAE 201121Z 2012/2112 VRB04KT P6SM BKN120 FM201800 21006KT
                       P6SM BKN120 OVC200 FM210400 23007KT P6SM
                       SCT050 OVC100 FM210900 19014G24KT P6SM -RA
                       BKN020 OVC050=
201804200523 TAF KPAE 200523Z 2006/2106 VRB04KT P6SM SCT060 BKN200 FM201200
                       10005KT P6SM SCT030 BKN120 BKN200 FM201800
                       20007KT P6SM SCT030 OVC120 FM210100 17010KT
                       P6SM BKN030 OVC100=
201804192329 TAF KPAE 192329Z 2000/2024 33006KT P6SM BKN200 FM200500 VRB04KT
                       P6SM FEW050 BKN200 FM201200 10005KT P6SM
                       SCT030 BKN120 BKN200 FM201800 17007KT P6SM
                       SCT030 OVC120=
201804191733 TAF KPAE 191733Z 1918/2018 31006KT P6SM SCT200 FM200500 VRB04KT
                       P6SM BKN200 FM201200 05004KT P6SM BKN120
                       BKN200=
201804191121 TAF KPAE 191121Z 1912/2012 VRB03KT P6SM SCT200 FM191800 31006KT
                       P6SM SCT200 FM200500 VRB04KT P6SM BKN200=
201804190520 TAF KPAE 190520Z 1906/2006 32007KT P6SM BKN060 OVC070 FM190900
                       02003KT P6SM SCT200 FM192000 30006KT P6SM
                       SCT200 FM200400 35004KT P6SM SCT100 SCT200=
201804182320 TAF KPAE 182320Z 1900/1924 32007KT P6SM FEW060 BKN200 FM190400
                       02003KT P6SM SCT200 FM192000 30006KT P6SM
                       SCT200=
201804181720 TAF KPAE 181720Z 1818/1918 VRB03KT P6SM FEW007 BKN100 BKN200 FM182000
                       34006KT P6SM SCT100 BKN200 FM190400 02003KT
                       P6SM SCT200=
201804181126 TAF KPAE 181126Z 1812/1912 VRB03KT P6SM BKN100 BKN200 FM181700
                       02005KT P6SM BKN100 BKN200 FM182000 35007KT
                       P6SM FEW060 BKN100 BKN200 FM190500 VRB03KT
                       P6SM SCT200=
201804180520 TAF KPAE 180520Z 1806/1906 VRB05KT P6SM SCT040 BKN050 OVC100 FM180700
                       17006KT P6SM BKN035 OVC050 FM180900 VRB03KT
                       P6SM FEW035 BKN080 OVC200 FM181700 01005KT
                       P6SM BKN110 BKN200 FM182000 34005KT P6SM
                       FEW060 BKN100 BKN200 FM190400 VRB03KT P6SM
                       SCT100 SCT200=
201804172333 TAF KPAE 172333Z 1800/1824 13009KT P6SM -SHRA FEW015 SCT028 OVC050
                       TEMPO 1800/1802 FEW015 BKN028 OVC050 FM180200
                       VRB05KT P6SM -SHRA SCT015 OVC028 FM180600
                       17006KT P6SM BKN035 OVC050 FM180900 VRB03KT
                       P6SM FEW035 BKN080 OVC200 FM181700 01005KT
                       P6SM BKN110 BKN200 FM182000 34005KT P6SM
                       FEW060 BKN100 BKN200=
201804172206 KPAE 172206Z 1722/1818 17010KT P6SM VCSH BKN035 BKN050 BKN200
                      TEMPO 1722/1724 19013G22KT -SHRA BKN028 OVC040
                       FM180000 24007KT P6SM SCT035 BKN050 BKN200
                       FM180300 17006KT P6SM BKN070 BKN200 FM180900
                       VRB03KT P6SM BKN090 BKN200=
201804172123 KPAE 172123Z 1721/1818 19013KT P6SM VCSH SCT035 BKN050 BKN200
                      TEMPO 1722/1724 19013G22KT -SHRA BKN035 OVC050
                       FM180000 24007KT P6SM SCT035 BKN050 BKN200
                       FM180300 17006KT P6SM BKN070 BKN200 FM180900
                       VRB03KT P6SM BKN090 BKN200=
201804172017 KPAE 172017Z 1720/1818 16012KT P6SM VCSH BKN035 OVC050
                      TEMPO 1720/1722 -SHRA FM172200 19011KT P6SM
                       VCSH BKN035 BKN050 BKN200
                      TEMPO 1722/1724 -SHRA FM180000 24007KT P6SM
                       SCT035 BKN050 BKN200 FM180300 17006KT P6SM
                       BKN070 BKN200 FM180900 VRB03KT P6SM BKN090
                       BKN200=
201804171723 TAF KPAE 171723Z 1718/1818 17012KT P6SM VCSH BKN025 BKN050 BKN200
                       FM172000 20011KT P6SM VCSH BKN035 BKN050
                       BKN200 FM180000 24007KT P6SM SCT035 BKN050
                       BKN200 FM180300 17006KT P6SM BKN070 BKN200
                       FM180900 VRB03KT P6SM BKN090 BKN200=
201804171421 KPAE 171421Z 1714/1812 16008KT P6SM VCSH BKN025 FM171800 21012KT
                       P6SM VCSH SCT025 OVC040 FM172300 19008KT
                       P6SM -SHRA BKN025 BKN040 FM180900 VRB05KT
                       P6SM BKN045 BKN100=
201804171131 TAF KPAE 171131Z 1712/1812 14007KT P6SM VCSH SCT030 BKN050
                      TEMPO 1713/1717 BKN027 OVC040 FM171700 21012KT
                       P6SM VCSH SCT025 OVC040 FM172300 19008KT
                       P6SM -SHRA BKN025 BKN040 FM180900 VRB05KT
                       P6SM BKN045 BKN100=
201804170520 TAF KPAE 170520Z 1706/1806 17008KT P6SM VCSH BKN010 BKN025 OVC035
                       FM170800 18011KT P6SM VCSH SCT010 BKN020
                       OVC040
                      TEMPO 1712/1716 18017G26KT FM171700 21012KT
                       P6SM SCT025 OVC040 FM180100 20008KT P6SM
                       BKN040=
201804162320 TAF KPAE 162320Z 1700/1724 15018G28KT P6SM SCT021 OVC060 FM170100
                       17015G25KT P6SM -SHRA BKN015 OVC045 FM170800
                       18011KT P6SM VCSH BKN020 OVC040=
201804161724 TAF KPAE 161724Z 1618/1718 16007KT 5SM -SHRA BR BKN009 OVC016 FM162300
                       16007KT 6SM -SHRA BR SCT009 OVC015 FM170800
                       16007KT P6SM VCSH BKN015 BKN030=
201804161505 KPAE 161505Z 1615/1712 15013KT P6SM -SHRA OVC009 FM161800 18011G20KT
                       4SM -SHRA BR OVC009 FM162200 20012G18KT
                       P6SM -SHRA BKN012 BKN025 FM170300 22009KT
                       P6SM -SHRA BKN012 OVC025 FM170900 20012KT
                       6SM -SHRA BR BKN008 OVC015=
201804161141 TAF KPAE 161141Z 1612/1712 19010KT P6SM VCSH SCT022 BKN035 OVC050
                       TEMPO 1612/1616 5SM -SHRA BR BKN015 OVC028
                       FM161600 19012KT P6SM -SHRA BKN020 OVC040
                       FM162200 20012G18KT P6SM -SHRA BKN025 BKN045
                       FM170300 22009KT P6SM -SHRA BKN012 OVC022
                       FM170900 20012KT 6SM -SHRA BR BKN008 OVC015=
201804160524 TAF KPAE 160524Z 1606/1706 31008KT P6SM -RA SCT007 SCT030 OVC050
                       TEMPO 1606/1610 BKN007 OVC030 FM161000 20008KT
                       P6SM -RA BKN020 OVC030 FM161800 20012KT
                       P6SM VCSH BKN025 OVC040=
201804152335 TAF KPAE 152335Z 1600/1624 31008G17KT P6SM FEW050 BKN070 OVC100
                       TEMPO 1601/1605 -RA BKN035 OVC070 FM160500
                       00000KT P6SM -RA OVC015 FM160900 18007KT
                       P6SM -RA OVC012 FM161700 20007KT P6SM VCSH
                       OVC008=
201804151734 TAF KPAE 151734Z 1518/1618 32006KT P6SM BKN010 BKN016 FM152000
                       35007KT P6SM SCT020 BKN035 FM160100 34003KT
                       P6SM -RA OVC015 FM161100 19005KT P6SM -RA
                       OVC007=
201804151137 TAF KPAE 151137Z 1512/1612 34005KT P6SM VCSH SCT007 OVC018
                      TEMPO 1512/1516 3SM BR BKN003 OVC015 FM151600
                       01005KT P6SM SCT008 OVC018 FM152200 36008KT
                       P6SM VCSH BKN025 OVC040 FM160200 35005KT
                       P6SM -RA OVC022 FM161000 19005KT 6SM -RA
                       BR OVC012=
201804151028 KPAE 151028Z 1510/1606 02005KT P6SM VCSH SCT012 OVC025
                      TEMPO 1510/1514 6SM BR BKN008 OVC015 FM151500
                       01005KT P6SM SCT020 OVC025 FM152200 35008KT
                       P6SM -SHRA OVC030=
201804150531 TAF KPAE 150531Z 1506/1606 35005KT P6SM -RA SCT025 OVC035 FM150900
                       02005KT P6SM VCSH SCT025 OVC035 FM151500
                       01005KT P6SM SCT020 OVC025 FM152200 35008KT
                       P6SM -SHRA OVC030=
201804142335 TAF KPAE 142335Z 1500/1524 14009KT 6SM -RA BR BKN011 BKN060 OVC080
                       TEMPO 1500/1504 4SM -RA BR BKN005 OVC012
                       FM150700 17010KT P6SM VCSH OVC009 FM151800
                       36007KT P6SM OVC015=
201804142101 KPAE 142101Z 1421/1518 15010G21KT P6SM -RA BKN005 OVC009 FM150700
                       17007KT P6SM OVC008 FM151400 36003KT P6SM
                       OVC014=
201804141736 TAF KPAE 141736Z 1418/1518 13008KT 4SM BR VCSH OVC006 FM141900
                       16010KT P6SM VCSH FEW006 OVC015 FM142100
                       17009KT 5SM -RA OVC006 FM150700 17007KT
                       P6SM OVC008 FM151400 36003KT P6SM OVC014=
201804141401 KPAE 141401Z 1414/1512 16012KT P6SM SCT006 BKN030 OVC045
                      TEMPO 1414/1417 -RA BKN006 OVC030 FM142000
                       17012KT P6SM -RA OVC020 FM142200 17012KT
                       4SM -RA SCT006 OVC011 FM150400 VRB04KT P6SM
                       SCT011 BKN020 OVC035=
201804141141 TAF KPAE 141141Z 1412/1512 15012G20KT P6SM -RA OVC040 FM141600
                       17012KT P6SM SCT020 BKN040 OVC070 FM142000
                       17012KT P6SM -RA OVC020 FM142200 17012KT
                       4SM -RA SCT006 OVC011 FM150400 VRB04KT P6SM
                       SCT011 BKN020 OVC035=
201804140810 KPAE 140810Z 1408/1506 15015G25KT P6SM -RA SCT008 BKN012 OVC020
                       FM141200 19012KT P6SM -RA SCT012 BKN020
                       OVC110 FM141600 19012KT P6SM SCT020 OVC100
                       FM142100 18010KT P6SM -RA OVC025=
201804140522 TAF KPAE 140522Z 1406/1506 18020G30KT P6SM -RA FEW015 SCT030 OVC110
                       FM140900 19012KT P6SM -RA SCT020 SCT040
                       OVC110 FM142100 18010KT P6SM -RA OVC025=
201804132341 TAF KPAE 132341Z 1400/1424 15017G23KT 4SM -RA BR BKN009 BKN017
                       OVC035 FM141000 17017G25KT 5SM -RA OVC004
                       FM141700 17012KT P6SM -SHRA OVC009=
201804132103 KPAE 132103Z 1321/1418 14019G29KT 6SM BR BKN009 OVC014 FM132300
                       18022G29KT P6SM -RA OVC018 FM141500 17012KT
                       P6SM -RA OVC030=
201804131728 TAF KPAE 131728Z 1318/1418 14018G26KT P6SM -RA BKN019 OVC027 FM132300
                       18022G29KT P6SM -RA OVC018 FM141500 17012KT
                       P6SM -RA OVC030=
201804131125 TAF KPAE 131125Z 1312/1412 14012G20KT P6SM -RA SCT020 OVC035 FM131700
                       18020G30KT P6SM -RA OVC020 FM140400 18010KT
                       P6SM -RA OVC020=
201804130528 TAF KPAE 130528Z 1306/1406 17012KT P6SM SCT020 BKN050 BKN120 FM130900
                       18012KT P6SM BKN020 BKN040 OVC100 FM131200
                       18012G18KT P6SM -RA BKN020 OVC040 FM131700
                       18020G30KT P6SM -RA OVC018 FM132300 20020G30KT
                       P6SM -RA OVC025=
201804130302 KPAE 130302Z 1303/1324 VRB05KT P6SM VCSH SCT020 BKN035
                      TEMPO 1303/1306 -SHRA BKN030 FM130600 20012KT
                       P6SM SCT030 BKN050 FM131200 18012KT P6SM
                       -RA SCT025 OVC035 FM131700 18014KT P6SM
                       -RA OVC025=
201804122320 TAF KPAE 122320Z 1300/1324 20010KT P6SM VCSH SCT020 BKN040 FM130600
                       20012KT P6SM SCT030 BKN050 FM131200 18012KT
                       P6SM -RA SCT025 OVC035 FM131700 18014KT
                       P6SM -RA OVC025=
201804121722 TAF KPAE 121722Z 1218/1318 17012KT P6SM -SHRA BKN015 BKN040 FM130000
                       23010KT P6SM -SHRA BKN020 BKN040 FM130600
                       20012KT P6SM SCT030 BKN060 OVC100 FM131200
                       18012KT P6SM -RA SCT025 OVC035 FM131700
                       18014KT P6SM -RA OVC025=
201804121414 KPAE 121414Z 1214/1312 15008KT P6SM SCT003 BKN007 OVC030 FM121800
                       19010KT P6SM VCSH SCT010 OVC040 FM130500
                       17008KT P6SM SCT035 BKN060 OVC100=
201804121128 TAF KPAE 121128Z 1212/1312 13006KT P6SM BKN030 OVC045 FM121800
                       19010KT P6SM VCSH SCT030 OVC045 FM130500
                       17008KT P6SM SCT035 BKN060 OVC100=
201804120521 TAF KPAE 120521Z 1206/1306 VRB04KT P6SM -SHRA OVC025
                      TEMPO 1206/1210 4SM -SHRA SCT015 OVC020 FM121400
                       20008KT P6SM VCSH BKN018 OVC040 FM121800
                       19010KT P6SM VCSH SCT025 OVC040 FM122100
                       21010KT P6SM VCSH BKN030 BKN040=
201804112335 TAF KPAE 112335Z 1200/1224 17008KT P6SM -RA BKN045 OVC060
                      TEMPO 1201/1205 -RA BKN020 OVC035 FM120500
                       18012G21KT P6SM -SHRA BKN020 OVC040 FM121400
                       19009KT P6SM VCSH BKN020 OVC040 FM122200
                       19010G20KT P6SM VCSH OVC035=
201804111737 TAF KPAE 111737Z 1118/1218 12013G18KT P6SM BKN070 OVC100
                      TEMPO 1118/1120 6SM -RA BR OVC035 FM112000
                       16016G22KT 5SM -RA BR SCT018 OVC030 FM112200
                       18015G22KT P6SM -SHRA SCT015 OVC035 FM120200
                       19010KT P6SM -SHRA SCT015 OVC030 FM121000
                       17009KT P6SM VCSH BKN020 OVC040=
201804111132 TAF KPAE 111132Z 1112/1212 14012KT P6SM VCSH SCT030 BKN045 OVC070
                       FM111600 16016G26KT P6SM -RA SCT025 BKN035
                       OVC050
                      TEMPO 1116/1120 5SM -RA BR BKN020 OVC035
                       FM112000 16018G28KT 5SM -RA BR SCT022 BKN030
                       OVC045 FM112200 18014G24KT P6SM -SHRA SCT025
                       BKN040 OVC080 FM120100 19010KT 5SM -SHRA
                       BR SCT015 BKN025 FM121000 18009KT P6SM VCSH
                       BKN017 OVC030=
201804110524 TAF KPAE 110524Z 1106/1206 18010KT P6SM BKN120 OVC180 FM110900
                       17012KT P6SM VCSH SCT030 BKN045 OVC070 FM111500
                       15016G26KT P6SM -RA BKN045 OVC060 FM111900
                       16018G28KT 5SM -RA BR SCT025 BKN035 OVC045
                       FM112200 18014G24KT P6SM -SHRA SCT025 BKN040
                       OVC080 FM120100 15006KT 5SM -SHRA BR SCT015
                       BKN025=
201804102332 TAF KPAE 102332Z 1100/1124 18015G25KT P6SM SCT040 SCT060 FM110700
                       16014G22KT P6SM VCSH SCT030 BKN045 OVC070
                       FM111600 15016G26KT P6SM -RA BKN045 OVC060
                       FM111900 15018G28KT 5SM -RA BR SCT025 BKN035
                       OVC045 FM112200 18014G24KT P6SM -SHRA SCT025
                       BKN040 OVC080=
201804101736 TAF KPAE 101736Z 1018/1118 18018G28KT 6SM -SHRA BR SCT018 BKN030
                       FM102000 19017G27KT P6SM VCSH SCT030 BKN040
                       FM102200 20014G24KT P6SM SCT035 FM110400
                       18012G20KT P6SM VCSH SCT030 BKN045 OVC070
                       FM111700 15016G26KT P6SM -RA SCT025 BKN035
                       OVC050=
201804101128 TAF KPAE 101128Z 1012/1112 14010KT P6SM BKN060 OVC100 FM101300
                       15014G24KT P6SM SCT035 OVC060
                      TEMPO 1013/1017 5SM -RA BR SCT022 OVC030
                       FM101700 18022G32KT 6SM -RA BR SCT018 OVC028
                       FM102200 20019G30KT P6SM -SHRA SCT017 BKN030
                       OVC050 FM110300 18013G22KT P6SM VCSH SCT025
                       BKN040=
201804100537 TAF KPAE 100537Z 1006/1106 VRB06KT P6SM SCT120 OVC200 FM101000
                       14010KT P6SM BKN060 OVC100 FM101300 15014G24KT
                       P6SM SCT025 OVC040
                      TEMPO 1013/1017 4SM -RA BR SCT018 OVC025
                       FM101700 18022G32KT 6SM -RA BR SCT012 OVC022
                       FM102200 20019G30KT P6SM -SHRA SCT017 BKN028
                       OVC050 FM110300 18013G22KT P6SM VCSH SCT025
                       BKN040=
201804092335 TAF KPAE 092335Z 1000/1024 02003KT P6SM BKN200 FM100700 11007KT
                       P6SM OVC200 FM101000 14010KT P6SM VCSH BKN060
                       OVC100 FM101200 15014G24KT P6SM -RA SCT025
                       OVC040
                      TEMPO 1013/1017 4SM -RA BR SCT018 OVC025
                       FM101700 18024G34KT P6SM VCSH SCT025 BKN035
                       FM102100 20019G30KT P6SM -SHRA SCT035 BKN045
                       OVC070=
201804091741 TAF KPAE 091741Z 0918/1018 VRB03KT P6SM SCT030 BKN200 FM092000
                       VRB03KT P6SM BKN200 FM100700 11007KT P6SM
                       OVC200 FM101000 14010KT P6SM BKN060 OVC100
                       FM101200 15014G24KT P6SM -RA SCT025 OVC040
                       TEMPO 1013/1017 4SM -RA BR SCT018 OVC025
                       FM101700 18024G34KT P6SM -SHRA SCT025 BKN035=
201804091136 TAF KPAE 091136Z 0912/1012 13008KT P6SM SCT017 BKN060 BKN200 FM091700
                       16006KT P6SM SCT040 BKN200 FM092000 VRB05KT
                       P6SM BKN200 FM100100 04007KT P6SM SCT120
                       OVC200 FM100700 14009KT P6SM BKN100 OVC200
                       FM101100 16012G18KT P6SM BKN060 OVC100=
201804090521 TAF KPAE 090521Z 0906/1006 15014KT P6SM SCT014 OVC070 FM091200
                       16010KT P6SM BKN011 BKN040 FM091700 16006KT
                       P6SM SCT025 SCT040 BKN200 FM092000 VRB04KT
                       P6SM BKN200 FM100400 05004KT P6SM OVC200=
201804082335 TAF KPAE 082335Z 0900/0924 16012G20KT P6SM VCSH BKN016 OVC025 FM090500
                       16007KT P6SM BKN014 OVC030 FM091400 16006KT
                       P6SM SCT010 SCT035 BKN200 FM091800 VRB03KT
                       P6SM BKN200=
201804081845 KPAE 081845Z 0819/0918 15011KT 4SM -SHRA BR BKN007 OVC014 FM082000
                       16009KT P6SM VCSH SCT012 OVC020
                      TEMPO 0822/0902 5SM -SHRA BR BKN012 OVC025
                       FM090500 16007KT P6SM VCSH BKN014 OVC020
                       FM091400 16006KT P6SM SCT010 SCT030 BKN200=
201804081736 TAF KPAE 081736Z 0818/0918 15011G18KT P6SM -SHRA SCT009 BKN015
                       OVC025 FM082000 16009KT P6SM VCSH SCT015
                       OVC025
                      TEMPO 0822/0902 5SM -SHRA BR BKN015 OVC025
                       FM090500 16007KT P6SM VCSH BKN014 OVC020
                       FM091400 16006KT P6SM SCT010 SCT030 BKN200=
201804081409 KPAE 081409Z 0814/0912 15015G25KT P6SM -SHRA SCT012 BKN030 OVC050
                       TEMPO 0814/0816 5SM SHRA BKN012 OVC025 FM081800
                       19013G22KT P6SM -SHRA BKN035 BKN050 BKN200
                       FM090000 19009KT P6SM VCSH SCT035 BKN060
                       BKN200
                      PROB30 0900/0906 -SHRA OVC035 FM090600 17007KT
                       P6SM VCSH OVC022
                      PROB30 0906/0912 5SM -DZ BR OVC012=
201804081142 TAF KPAE 081142Z 0812/0912 15015G25KT P6SM -SHRA BKN035 OVC050
                       TEMPO 0812/0816 5SM SHRA OVC025 FM081800
                       19013G22KT P6SM -SHRA BKN035 BKN050 BKN200
                       FM090000 19009KT P6SM VCSH SCT035 BKN060
                       BKN200
                      PROB30 0900/0906 -SHRA OVC035 FM090600 17007KT
                       P6SM VCSH OVC022
                      PROB30 0906/0912 5SM -DZ BR OVC012=
201804080943 KPAE 080943Z 0810/0906 14015G23KT P6SM -SHRA BKN025 OVC200 FM081500
                       17015KT 4SM -SHRA BR SCT007 OVC015 FM082200
                       20008KT 6SM -SHRA BKN015 BKN025 BKN050 FM090300
                       18008KT P6SM VCSH BKN025 OVC050=
201804080805 KPAE 080805Z 0808/0906 15015G25KT P6SM -SHRA SCT015 SCT028 OVC040
                       TEMPO 0808/0810 SCT015 BKN028 OVC040 FM081000
                       17016G26KT 6SM -SHRA BR SCT007 OVC015 FM081500
                       17015KT 4SM -SHRA BR SCT007 OVC015 FM082200
                       20008KT 6SM -SHRA BKN015 BKN025 BKN050 FM090300
                       18008KT P6SM VCSH BKN025 OVC050=
201804080721 KPAE 080721Z 0807/0906 15013KT P6SM -SHRA SCT015 OVC028 FM080900
                       17016G26KT 6SM -SHRA BR SCT007 OVC015 FM081500
                       17015KT 4SM -SHRA BR SCT007 OVC015 FM082200
                       20008KT 6SM -SHRA BKN015 BKN025 BKN050 FM090300
                       18008KT P6SM VCSH BKN025 OVC050=
201804080522 TAF KPAE 080522Z 0806/0906 15011KT P6SM -SHRA SCT014 SCT021 OVC060
                       FM080800 19016G26KT 6SM -SHRA BR SCT007
                       OVC014 FM081500 17015KT 4SM -SHRA BR SCT007
                       OVC015 FM082200 20008KT 6SM -SHRA BKN015
                       BKN025 BKN050 FM090300 18008KT P6SM VCSH
                       BKN025 OVC050=
201804080122 KPAE 080122Z 0801/0824 15017KT P6SM -SHRA SCT015 SCT040 OVC070
                       FM080300 17012G18KT 5SM -SHRA BR SCT015
                       BKN025 OVC035 FM080800 19016G26KT 5SM -SHRA
                       BR SCT007 OVC014 FM081900 20011G18KT P6SM
                       -SHRA SCT015 BKN025 OVC050=
201804080035 KPAE 080035Z 0801/0824 11008KT 2SM -RA BR BKN018 BKN035 OVC060
                       FM080300 17012G18KT 5SM -SHRA BR BKN025
                       OVC035 FM080800 19016G26KT 5SM -SHRA BR
                       SCT007 OVC014 FM081900 20011G18KT P6SM -SHRA
                       SCT015 BKN025 OVC050=
201804072333 TAF KPAE 072333Z 0800/0824 15015G25KT 6SM -SHRA BR SCT016 BKN035
                       OVC050 FM080800 19016G26KT 5SM -SHRA BR
                       SCT007 OVC014 FM081900 20011G18KT P6SM -SHRA
                       SCT015 BKN025 OVC050=
201804071738 TAF KPAE 071738Z 0718/0818 16017G28KT P6SM -SHRA SCT020 BKN050
                       BKN060
                      TEMPO 0720/0723 4SM SHRA BR BKN020 OVC050
                       FM080200 17018G28KT 6SM -SHRA BR SCT015
                       BKN030 OVC045 FM080800 19016G26KT 5SM -SHRA
                       BR SCT007 OVC014 FM081700 20015G25KT P6SM
                       -SHRA SCT015 BKN025 OVC050=
201804071408 KPAE 071408Z 0714/0812 16018G28KT P6SM -RA SCT022 OVC050
                      TEMPO 0714/0716 3SM RA BR BKN022 OVC050 FM071600
                       15025G35KT 5SM RA BR BKN022 OVC050 FM071900
                       18025G35KT P6SM -SHRA SCT022 BKN050 BKN200
                       FM080300 16018G28KT P6SM -SHRA SCT022 OVC050
                       FM080600 18018G28KT P6SM -SHRA OVC022=
201804071310 KPAE 071310Z 0713/0812 18015G25KT 5SM RA BR FEW007 BKN022 OVC035
                       TEMPO 0713/0716 1 1/2SM +RA BR FEW007 BKN015
                       OVC030 FM071600 15025G35KT 5SM RA BR BKN022
                       OVC050 FM071900 18025G35KT P6SM -SHRA SCT022
                       BKN050 BKN200 FM080300 16018G28KT P6SM -SHRA
                       SCT022 OVC050 FM080600 18018G28KT P6SM -SHRA
                       OVC022=
201804071307 KPAE 071307Z 0713/0812 15015G25KT 5SM RA BR FEW007 SCT022 OVC035
                       TEMPO 0713/0716 1 1/2SM +RA BR FEW007 BKN015
                       OVC030 FM071600 15025G35KT 5SM RA BR BKN022
                       OVC050 FM071900 18025G35KT P6SM -SHRA SCT022
                       BKN050 BKN200 FM080300 16018G28KT P6SM -SHRA
                       SCT022 OVC050 FM080600 18018G28KT P6SM -SHRA
                       OVC022=
201804071140 TAF KPAE 071140Z 0712/0812 10009KT 6SM -RA BR FEW022 OVC050 WS020/15035KT
                       TEMPO 0712/0716 4SM RA BR BKN022 OVC050
                       FM071600 15025G35KT 5SM RA BR BKN022 OVC050
                       FM071900 18025G35KT P6SM -SHRA SCT022 BKN050
                       BKN200 FM080300 16018G28KT P6SM -SHRA SCT022
                       OVC050 FM080600 18018G28KT P6SM -SHRA OVC022=
201804071001 KPAE 071001Z 0710/0806 09009KT P6SM -RA OVC060 FM071200 15012KT
                       P6SM -RA OVC035 FM071400 16016KT P6SM -RA
                       SCT020 OVC035 FM071700 17024G35KT P6SM -SHRA
                       SCT020 BKN035 FM080300 18015G25KT P6SM -SHRA
                       BKN020 BKN035=
201804070808 KPAE 070808Z 0708/0806 08008KT P6SM FEW060 OVC100 FM071000 15012KT
                       P6SM VCSH BKN060 OVC100 FM071200 15012KT
                       P6SM -RA OVC035 FM071400 16016KT P6SM -RA
                       SCT020 OVC035 FM071700 17024G35KT P6SM -SHRA
                       SCT020 BKN035 FM080300 18015G25KT P6SM -SHRA
                       BKN020 BKN035=
201804070524 TAF KPAE 070524Z 0706/0806 07008KT P6SM SCT080 SCT200 FM070900
                       15012KT P6SM OVC050 FM071200 15012KT P6SM
                       -RA OVC035 FM071400 16016KT P6SM -RA SCT020
                       OVC035 FM071700 17024G35KT P6SM -SHRA SCT020
                       BKN035 FM080300 18015G25KT P6SM -SHRA BKN020
                       BKN035=
201804062346 TAF KPAE 062346Z 0700/0724 VRB05KT P6SM BKN050 BKN090 BKN200 FM070300
                       VRB05KT P6SM FEW050 SCT100 OVC200 FM070800
                       16012G22KT P6SM -SHRA SCT020 OVC050 FM071400
                       16018G30KT 6SM -SHRA BR SCT020 BKN035 FM071800
                       18025G38KT 6SM -SHRA BR SCT025 BKN045=
201804061740 TAF KPAE 061740Z 0618/0718 14009KT P6SM VCSH BKN030 OVC050 FM062100
                       20006KT P6SM VCSH BKN035 BKN050 BKN200 FM070000
                       VRB05KT P6SM BKN050 BKN090 BKN200 FM070300
                       VRB05KT P6SM FEW050 SCT100 OVC200 FM070800
                       13011KT P6SM -SHRA SCT020 OVC050 FM071200
                       15014G28KT 6SM -SHRA SCT020 BKN030=
201804061140 TAF KPAE 061140Z 0612/0712 14007KT P6SM OVC020 FM061800 18009KT
                       P6SM VCSH BKN030 OVC050 FM062100 20006KT
                       P6SM VCSH BKN035 BKN050 BKN200 FM070000
                       VRB05KT P6SM BKN050 BKN090 BKN200 FM070300
                       VRB05KT P6SM FEW050 SCT100 OVC200 FM070800
                       14011KT P6SM SCT045 OVC100
                      PROB30 0708/0712 -RA OVC045=
201804061000 KPAE 061000Z 0610/0706 12008KT P6SM OVC020 FM061500 18005KT P6SM
                       BKN050=
201804060932 KPAE 060932Z 0610/0706 12008KT P6SM OVC025 FM061500 18005KT P6SM
                       BKN050=
201804060535 TAF KPAE 060535Z 0606/0706 12010KT P6SM SCT022 BKN035 OVC100 FM061000
                       18007KT 4SM BR OVC025 FM061500 18005KT P6SM
                       BKN050=
201804052358 TAF KPAE 052358Z 0600/0624 16010KT 5SM -RA BR BKN008 OVC015 FM060400
                       17011KT 4SM -SHRA BR BKN025 OVC035 FM061000
                       18007KT 4SM BR OVC025 FM061500 18005KT P6SM
                       BKN050=
201804051741 TAF KPAE 051741Z 0518/0618 14010KT P6SM -RA BKN030 OVC050 FM052100
                       16012G20KT 5SM -RA BR BKN022 OVC035 FM052300
                       16013G20KT 4SM -RA BR OVC015 FM060200 17011KT
                       P6SM -SHRA BKN025 BKN035=
201804051136 TAF KPAE 051136Z 0512/0612 11008KT P6SM -RA SCT017 OVC045 FM051500
                       14010KT P6SM -RA SCT015 OVC030 FM051700
                       17013G20KT 5SM -RA BR OVC015 FM060300 17011KT
                       P6SM -SHRA BKN018 BKN035=
201804050805 KPAE 050805Z 0508/0606 08007KT P6SM VCSH SCT015 OVC080
                      TEMPO 0508/0512 3SM BR SCT002 OVC050 FM051200
                       16009KT 3SM -RA BR FEW001 BKN020 OVC050
                       FM051800 17018G26KT 1 1/2SM -RA BR OVC004
                       FM060000 17013G20KT 4SM -RA BR OVC015 FM060300
                       17011KT P6SM -RA OVC025=
201804050537 TAF KPAE 050537Z 0506/0606 08007KT P6SM -RA OVC016 FM051200 16009KT
                       1/2SM -RA FG OVC001 FM051800 17018G26KT
                       1 1/2SM -RA BR OVC004 FM060000 17013G20KT
                       4SM -RA BR OVC015 FM060300 17011KT P6SM
                       -RA OVC025=
201804050305 KPAE 050305Z 0503/0524 08006KT 1 1/2SM -RA BR OVC002
                      TEMPO 0505/0509 4SM -RA OVC015 FM050900 17011KT
                       P6SM -RA BKN025 OVC050 FM051500 17014G22KT
                       4SM -RA BR OVC007=
201804042320 TAF KPAE 042320Z 0500/0524 08006KT 5SM -RA BR OVC006 FM050200 17012KT
                       P6SM -RA FEW010 OVC022 FM050900 17011KT
                       P6SM -RA BKN025 OVC050 FM051400 18013KT
                       5SM -RA BR OVC020=
201804042143 KPAE 042143Z 0422/0518 08006KT 5SM -RA BR OVC006 FM050200 17012KT
                       P6SM -RA FEW010 OVC022 FM050900 17011KT
                       P6SM -RA BKN025 OVC050 FM051400 18013KT
                       5SM -RA BR OVC020=
201804041732 TAF KPAE 041732Z 0418/0518 15009KT 5SM -RA BR SCT007 OVC013
                      TEMPO 0418/0421 3SM -RA BR OVC007 FM042100
                       16011KT 5SM -RA BR OVC011 FM050400 17008KT
                       P6SM -RA OVC022 FM050900 17011KT P6SM -RA
                       BKN025 OVC050 FM051400 18013KT 5SM -RA BR
                       OVC020=
201804041120 TAF KPAE 041120Z 0412/0512 13007KT 6SM -RA BR SCT017 OVC025
                      TEMPO 0412/0416 4SM -RA BR OVC013 FM041600
                       15009KT 5SM -RA BR SCT007 OVC013
                      TEMPO 0417/0421 3SM -RA BR OVC007 FM042100
                       16011KT 5SM -RA BR OVC011 FM050400 17008KT
                       P6SM -RA OVC022 FM050900 17011KT P6SM BKN035
                       OVC070=
201804040539 TAF KPAE 040539Z 0406/0506 07004KT P6SM BKN060 OVC100 FM040900
                       14004KT P6SM BKN045 OVC070
                      TEMPO 0409/0412 -RA FM041200 16006KT P6SM
                       -RA OVC040 FM041700 16009KT 4SM -RA BR OVC013
                       FM050300 17008KT P6SM -RA OVC025=
201804032320 TAF KPAE 032320Z 0400/0424 18006KT P6SM SCT040 OVC120 FM040200
                       16006KT P6SM SCT030 OVC100 FM041200 15007KT
                       P6SM -RA BKN025 OVC050 FM041300 14006KT
                       4SM -RA OVC020 FM041800 15007KT P6SM VCSH
                       BKN025 OVC060 FM042200 15010KT P6SM VCSH
                       BKN030 OVC060=
201804031733 TAF KPAE 031733Z 0318/0418 13006KT P6SM SCT020 OVC120 FM040200
                       16008KT P6SM SCT030 OVC100 FM041200 15008KT
                       P6SM -RA BKN025 OVC050 FM041300 14006KT
                       4SM -RA OVC020 FM041700 15007KT P6SM VCSH
                       BKN025 OVC060=
201804031128 TAF KPAE 031128Z 0312/0412 15007KT P6SM BKN060 BKN120 FM031800
                       20007KT P6SM BKN100 FM040300 16008KT P6SM
                       BKN100 FM041100 15008KT P6SM -RA OVC050=
201804030520 TAF KPAE 030520Z 0306/0406 03004KT P6SM OVC060 FM031500 16006KT
                       P6SM BKN100 FM031800 20007KT P6SM OVC050
                       FM040300 18007KT P6SM BKN100=
201804022320 TAF KPAE 022320Z 0300/0324 06006KT P6SM VCSH SCT030 BKN040 OVC060
                       TEMPO 0300/0304 VRB04KT -SHRA SCT025 OVC040
                       FM030400 19009KT P6SM VCSH SCT020 OVC035
                       FM030900 16007KT P6SM BKN020 OVC035 FM031800
                       17006KT P6SM SCT025 BKN045 OVC120=
201804021755 TAF KPAE 021755Z 0218/0318 21006KT P6SM VCSH SCT022 BKN040 FM022200
                       25009KT P6SM SCT030 BKN050 FM030400 19009KT
                       P6SM VCSH SCT020 OVC035=
201804021128 TAF KPAE 021128Z 0212/0312 18007KT P6SM VCSH SCT015 BKN040
                      TEMPO 0212/0216 -RASN BKN014 OVC030 FM021600
                       21006KT P6SM VCSH SCT022 BKN040 FM022200
                       25009KT P6SM SCT030 BKN050 FM030400 19009KT
                       P6SM VCSH SCT020 OVC035=
201804020602 KPAE 020602Z 0206/0306 28011KT P6SM SCT050 BKN200 FM020900 25007KT
                       P6SM FEW022 BKN050 BKN200 FM021400 20005KT
                       P6SM SCT022 BKN050 BKN200
                      TEMPO 0214/0218 BKN022 BKN050 BKN200 FM021800
                       24009KT P6SM SCT030 BKN050
                      PROB30 0223/0303 -SHRA FM030300 19009KT P6SM
                       VCSH SCT035 BKN050=
201804020542 TAF KPAE 020542Z 0206/0306 33010KT P6SM VCSH SCT020 BKN040 BKN080
                       FM021200 20006KT P6SM BKN020 FM021800 23008KT
                       P6SM SCT025 BKN030=
201804020529 KPAE 020529Z 0205/0224 30013KT P6SM VCSH FEW035 SCT050 FM020600
                       33010KT P6SM VCSH SCT020 BKN040 BKN080 FM021200
                       20006KT P6SM BKN020 FM021800 23008KT P6SM
                       SCT025 BKN030=
201804020401 KPAE 020401Z 0204/0224 32012KT P6SM VCSH FEW035 SCT050 FM020600
                       33010KT P6SM VCSH SCT020 BKN040 BKN080 FM021200
                       20006KT P6SM BKN020 FM021800 23008KT P6SM
                       SCT025 BKN030=
201804020400 KPAE 020400Z 0204/0224 33012KT P6SM VCSH FEW035 SCT050 FM020600
                       33010KT P6SM VCSH SCT020 BKN040 BKN080 FM021200
                       20006KT P6SM BKN020 FM021800 23008KT P6SM
                       SCT025 BKN030=
201804020148 KPAE 020148Z 0202/0224 35008KT P6SM VCSH FEW035 OVC050
                      TEMPO 0202/0204 -SHRA FM020600 33010KT P6SM
                       VCSH SCT020 BKN040 BKN080 FM021200 20006KT
                       P6SM BKN020 FM021800 23008KT P6SM SCT025
                       BKN030=
201804020026 KPAE 020026Z 0200/0224 VRB05KT P6SM -SHRA SCT020 OVC035
                      TEMPO 0200/0204 4SM SHRA OVC020 FM020600
                       33010KT P6SM VCSH SCT020 BKN040 BKN080 FM021200
                       20006KT P6SM BKN020 FM021800 23008KT P6SM
                       SCT025 BKN030=
201804012324 TAF KPAE 012324Z 0200/0224 32010KT P6SM VCSH BKN020 BKN080
                      TEMPO 0200/0203 -SHRA FM020300 33010KT P6SM
                       VCSH SCT020 BKN040 BKN080 FM021200 20006KT
                       P6SM BKN020 FM021800 23008KT P6SM SCT025
                       BKN030=
201804012002 KPAE 012002Z 0120/0218 31006KT P6SM -SHRA SCT006 BKN012 OVC020
                       TEMPO 0120/0122 3SM SHRA BKN008 FM012200
                       23012KT P6SM -SHRA SCT007 OVC013 FM020000
                       33012G20KT P6SM -SHRA SCT012 BKN028 OVC040
                       FM020800 21008KT P6SM VCSH BKN015 BKN030
                       FM021200 20006KT P6SM BKN015=
201804011917 KPAE 011917Z 0119/0218 18010KT P6SM -RA OVC013
                      TEMPO 0119/0121 4SM RA BKN008 FM012100 23012KT
                       5SM -SHRA SCT007 OVC013 FM020000 33012G20KT
                       P6SM -SHRA SCT012 BKN028 OVC040 FM020800
                       21008KT P6SM VCSH BKN015 BKN030 FM021200
                       20006KT P6SM BKN015=
201804011721 TAF KPAE 011721Z 0118/0218 18010KT P6SM -RA OVC013 FM012100 23012KT
                       5SM -SHRA SCT007 OVC013 FM020000 33012G20KT
                       P6SM -SHRA SCT012 BKN028 OVC040 FM020800
                       21008KT P6SM VCSH BKN015 BKN030 FM021200
                       20006KT P6SM BKN015=
201804011139 TAF KPAE 011139Z 0112/0212 17009KT P6SM SCT017 OVC040
                      TEMPO 0112/0116 -RA BKN015 OVC030 FM011600
                       17013KT P6SM VCSH OVC015 FM011800 20013G23KT
                       P6SM VCSH BKN012 OVC025 FM012100 23012KT
                       5SM -SHRA SCT007 OVC012 FM020000 33012G20KT
                       P6SM -SHRA SCT012 BKN028 OVC040 FM020800
                       21008KT P6SM VCSH BKN015 BKN030=
201804010536 TAF KPAE 010536Z 0106/0206 15004KT P6SM FEW022 BKN045 BKN120 FM010900
                       17008KT P6SM BKN022 OVC045 FM011500 17013KT
                       P6SM -RA OVC012 FM011800 19013G23KT P6SM
                       -RA BKN012 OVC028 FM012100 23009KT 5SM SHRA
                       SCT007 OVC012 FM020000 33013G22KT P6SM -SHRA
                       SCT012 BKN028 OVC040=