##########################################################
# Query made at 02/15/2025 21:42:42 UTC
# Time interval: from 01/01/2018 00:00  to 01/31/2018 23:59  UTC
##########################################################

##########################################################
# KPAE, Everett, Snohomish County Airport (United States)
# WMO index: -----. WIGOS ID: Unknown
# Latitude 47-55-23N. Longitude 122-16-57W. Altitude 184 m.
##########################################################

###################################
#  METAR/SPECI from KPAE
###################################
201801312353 METAR KPAE 312353Z 14010KT 10SM BKN020 BKN027 OVC075 06/03 A3017 RMK AO2 SLP221 T00610028 10061 20050 56012=
201801312335 SPECI KPAE 312335Z 14011KT 10SM BKN021 BKN027 OVC080 06/02 A3018 RMK AO2 T00610022=
201801312317 SPECI KPAE 312317Z 15010KT 10SM SCT019 OVC080 06/02 A3018 RMK AO2 T00610022=
201801312253 METAR KPAE 312253Z 14011KT 10SM BKN017 BKN022 OVC080 06/02 A3018 RMK AO2 SLP222 T00610022=
201801312153 METAR KPAE 312153Z 14010KT 10SM BKN018 OVC024 06/03 A3018 RMK AO2 SLP225 T00610028=
201801312053 METAR KPAE 312053Z 16009KT 10SM OVC018 06/03 A3021 RMK AO2 SLP233 T00560028 58001=
201801311953 METAR KPAE 311953Z 16013KT 10SM BKN018 06/02 A3022 RMK AO2 SLP236 T00560022=
201801311853 METAR KPAE 311853Z 16011KT 10SM OVC015 05/03 A3023 RMK AO2 SLP239 T00500028=
201801311831 SPECI KPAE 311831Z 16009KT 10SM OVC016 05/03 A3022 RMK AO2 T00500028=
201801311753 METAR KPAE 311753Z 13009KT 10SM BKN012 BKN017 OVC095 04/03 A3021 RMK AO2 SLP234 T00440028 10050 20033 50002=
201801311734 SPECI KPAE 311734Z 14008KT 10SM SCT011 BKN016 OVC100 05/03 A3021 RMK AO2 T00500028=
201801311653 METAR KPAE 311653Z 13006KT 10SM OVC013 04/02 A3022 RMK AO2 SLP236 T00440022=
201801311553 METAR KPAE 311553Z VRB06KT 10SM BKN012 OVC019 04/02 A3021 RMK AO2 SLP235 T00390022=
201801311453 METAR KPAE 311453Z AUTO 13006KT 10SM OVC011 04/02 A3020 RMK AO2 SLP231 T00390022 55002=
201801311438 SPECI KPAE 311438Z AUTO 14006KT 10SM OVC013 04/02 A3020 RMK AO2 T00390022=
201801311353 METAR KPAE 311353Z AUTO 15006KT 10SM OVC015 04/02 A3020 RMK AO2 SLP231 T00390022=
201801311351 SPECI KPAE 311351Z AUTO 15006KT 10SM OVC015 04/02 A3020 RMK AO2=
201801311315 SPECI KPAE 311315Z AUTO 15005KT 10SM OVC013 04/02 A3021 RMK AO2 T00390022=
201801311253 METAR KPAE 311253Z AUTO 12007KT 10SM OVC015 04/02 A3021 RMK AO2 SLP232 T00390022=
201801311153 METAR KPAE 311153Z AUTO 17007KT 10SM OVC016 03/02 A3021 RMK AO2 SLP233 70001 T00330017 10044 20022 53010=
201801311131 SPECI KPAE 311131Z AUTO 15007KT 10SM FEW009 OVC016 03/02 A3020 RMK AO2 T00330022=
201801311114 SPECI KPAE 311114Z AUTO 14003KT 10SM FEW009 OVC014 03/02 A3020 RMK AO2 T00280022=
201801311106 SPECI KPAE 311106Z AUTO 15003KT 10SM OVC014 03/02 A3020 RMK AO2 T00330022=
201801311053 METAR KPAE 311053Z AUTO 14004KT 10SM OVC015 03/02 A3020 RMK AO2 SLP228 T00330017=
201801311029 SPECI KPAE 311029Z AUTO 00000KT 10SM BKN013 03/02 A3019 RMK AO2 T00330017=
201801310953 METAR KPAE 310953Z AUTO 16007KT 10SM SCT110 03/01 A3019 RMK AO2 SLP226 T00280011=
201801310853 METAR KPAE 310853Z AUTO 15009KT 10SM FEW075 BKN120 03/02 A3018 RMK AO2 SLP223 T00330017 50004=
201801310701 SPECI KPAE 310701Z AUTO 17006KT 10SM BKN019 OVC036 04/02 A3017 RMK AO2 T00440017=
201801310653 METAR KPAE 310653Z AUTO 17007KT 10SM SCT019 OVC036 04/02 A3017 RMK AO2 SLP221 T00440017=
201801310603 SPECI KPAE 310603Z AUTO 18007KT 10SM BKN019 OVC028 04/01 A3017 RMK AO2 T00440011=
201801310553 METAR KPAE 310553Z AUTO 17008KT 10SM SCT019 BKN030 BKN085 04/01 A3016 RMK AO2 SLP219 T00440011 10083 20044 51005=
201801310526 SPECI KPAE 310526Z AUTO 18009KT 10SM FEW019 BKN085 04/01 A3016 RMK AO2 T00440011=
201801310453 METAR KPAE 310453Z AUTO 18007KT 10SM SCT020 BKN025 BKN120 05/01 A3016 RMK AO2 SLP218 T00500011=
201801310353 METAR KPAE 310353Z 16010KT 10SM SCT090 OVC110 05/01 A3015 RMK AO2 SLP214 T00500006=
201801310253 METAR KPAE 310253Z 16011KT 10SM FEW090 05/02 A3014 RMK AO2 LTG DSNT N SLP211 T00500017 53004=
201801310153 METAR KPAE 310153Z 15009KT 10SM FEW090 06/02 A3014 RMK AO2 SLP209 T00610017=
201801310053 METAR KPAE 310053Z 17009KT 10SM OVC046 08/01 A3013 RMK AO2 SLP207 T00780011=
201801302353 METAR KPAE 302353Z 17008KT 10SM SCT032 BKN040 BKN090 08/02 A3013 RMK AO2 SLP205 60001 T00830022 10083 20056 53001=
201801302313 SPECI KPAE 302313Z 16007KT 10SM SCT025 BKN031 OVC110 08/03 A3013 RMK AO2 T00830028=
201801302253 METAR KPAE 302253Z VRB04KT 10SM SCT024 BKN028 BKN100 08/03 A3013 RMK AO2 SLP204 T00830028=
201801302153 METAR KPAE 302153Z 18008KT 10SM FEW027 BKN060 08/03 A3012 RMK AO2 SLP203 T00830033=
201801302053 METAR KPAE 302053Z 18005KT 10SM FEW055 07/04 A3013 RMK AO2 RAB03E12 SLP204 P0000 60001 T00720039 50007=
201801302024 SPECI KPAE 302024Z 00000KT 10SM FEW010 SCT023 BKN035 07/03 A3013 RMK AO2 RAB03E12 P0000 T00670033=
201801302017 SPECI KPAE 302017Z 00000KT 10SM FEW015 SCT020 BKN025 06/04 A3013 RMK AO2 RAB03E12 P0000 T00610039=
201801302000 SPECI KPAE 302000Z 00000KT 10SM FEW011 FEW025 OVC035 06/04 A3013 RMK AO2 T00610039=
201801301953 METAR KPAE 301953Z 00000KT 9SM SCT011 OVC014 06/04 A3013 RMK AO2 RAE1854B16E50 SLP206 P0001 T00610039=
201801301853 METAR KPAE 301853Z 22006KT 10SM -RA OVC014 06/04 A3013 RMK AO2 RAB45 SLP208 P0000 T00560039=
201801301806 SPECI KPAE 301806Z 18008KT 10SM OVC014 06/04 A3012 RMK AO2 T00610039=
201801301753 METAR KPAE 301753Z 17007KT 10SM OVC009 06/04 A3011 RMK AO2 SLP198 T00560044 10056 20044 53020=
201801301712 SPECI KPAE 301712Z 16011KT 10SM BKN008 OVC050 05/04 A3009 RMK AO2 T00500039=
201801301653 METAR KPAE 301653Z 16007KT 10SM FEW050 BKN090 05/04 A3008 RMK AO2 SLP189 T00500039=
201801301553 METAR KPAE 301553Z 18007KT 10SM SCT008 OVC090 04/04 A3006 RMK AO2 SLP184 T00440039=
201801301533 SPECI KPAE 301533Z 18009KT 10SM SCT008 BKN095 04/03 A3006 RMK AO2 T00440033=
201801301453 METAR KPAE 301453Z 16008KT 10SM CLR 04/03 A3005 RMK AO2 SLP177 T00440033 53007=
201801301353 METAR KPAE 301353Z AUTO 16008KT 10SM FEW015 BKN100 BKN120 05/04 A3003 RMK AO2 SLP171 T00500039=
201801301253 METAR KPAE 301253Z AUTO 15010KT 10SM SCT017 SCT022 06/04 A3002 RMK AO2 SLP169 T00560039=
201801301239 SPECI KPAE 301239Z AUTO 15009KT 10SM FEW017 05/04 A3002 RMK AO2 T00500039=
201801301208 SPECI KPAE 301208Z AUTO 15007KT 10SM BKN019 06/04 A3002 RMK AO2 T00560039=
201801301153 METAR KPAE 301153Z AUTO 13008KT 10SM FEW017 FEW022 SCT120 06/04 A3002 RMK AO2 SLP170 60004 70070 T00560039 10061 20050 53004=
201801301053 METAR KPAE 301053Z AUTO 13008KT 10SM FEW014 OVC110 06/04 A3002 RMK AO2 SLP167 T00560044=
201801300953 METAR KPAE 300953Z AUTO 13007KT 10SM BKN110 06/04 A3001 RMK AO2 SLP165 T00560039=
201801300906 SPECI KPAE 300906Z AUTO 14010KT 10SM SCT015 06/03 A3001 RMK AO2 T00560033=
201801300853 METAR KPAE 300853Z AUTO 14007KT 10SM BKN016 BKN020 BKN110 06/06 A3001 RMK AO2 SLP165 60004 T00560056 53011=
201801300836 SPECI KPAE 300836Z AUTO 13010KT 10SM BKN016 06/05 A3001 RMK AO2 T00610050=
201801300753 METAR KPAE 300753Z AUTO VRB03KT 10SM SCT018 BKN047 06/04 A3000 RMK AO2 RAE12 SLP162 P0001 T00560044 401060056=
201801300736 SPECI KPAE 300736Z AUTO VRB04KT 10SM SCT018 OVC049 06/05 A3000 RMK AO2 RAE12 P0001 T00560050=
201801300725 SPECI KPAE 300725Z AUTO 07007KT 10SM SCT008 BKN018 OVC049 06/04 A3000 RMK AO2 RAE12 P0001 T00560044=
201801300653 METAR KPAE 300653Z AUTO 08007KT 6SM -RA BR BKN009 BKN014 OVC020 06/04 A2998 RMK AO2 RAE0555B40 SLP155 P0003 T00560044=
201801300649 SPECI KPAE 300649Z AUTO 08007KT 8SM -RA BKN009 BKN014 OVC021 06/04 A2998 RMK AO2 RAE0555B40 CIG 006V012 P0002=
201801300641 SPECI KPAE 300641Z AUTO 07009KT 10SM -RA SCT009 BKN017 OVC024 06/05 A2998 RMK AO2 RAE0555B40 P0001 T00560050=
201801300604 SPECI KPAE 300604Z AUTO 08006KT 10SM SCT012 BKN020 OVC028 06/05 A2996 RMK AO2 RAE0555 P0000 T00560050=
201801300553 METAR KPAE 300553Z AUTO 08006KT 9SM -RA BKN013 OVC018 06/05 A2995 RMK AO2 RAB41 SLP145 P0000 60025 T00560050 10094 20056 51028=
201801300538 SPECI KPAE 300538Z AUTO 08006KT 10SM OVC013 06/04 A2995 RMK AO2 T00560044=
201801300453 METAR KPAE 300453Z 11006KT 10SM SCT006 BKN021 06/04 A2992 RMK AO2 RAE41 SLP136 P0001 T00610039=
201801300425 SPECI KPAE 300425Z 00000KT 10SM -RA SCT006 BKN021 06/04 A2993 RMK AO2 P0001 T00610044=
201801300417 SPECI KPAE 300417Z 00000KT 9SM -RA OVC030 06/04 A2993 RMK AO2 P0001 T00560039=
201801300357 SPECI KPAE 300357Z 00000KT 3SM -RA BR FEW006 BKN021 OVC026 06/04 A2993 RMK AO2 P0000 T00560044=
201801300353 METAR KPAE 300353Z 31005G15KT 2SM -RA BR BKN006 BKN010 OVC016 06/04 A2993 RMK AO2 RAB14 SLP136 P0021 T00560044=
201801300351 SPECI KPAE 300351Z 30006G15KT 2SM R16R/5500VP6000FT RA BR BKN006 BKN010 OVC016 06/04 A2993 RMK AO2 RAB14 P0021=
201801300332 SPECI KPAE 300332Z 24004KT 1 1/4SM +RA BR SCT008 BKN016 OVC060 07/06 A2991 RMK AO2 RAB14 P0012 T00670061=
201801300322 SPECI KPAE 300322Z 25010G18KT 2 1/2SM RA BR SCT008 BKN016 OVC060 07/06 A2990 RMK AO2 RAB14 PRESRR P0004 T00720061=
201801300318 SPECI KPAE 300318Z 22007KT 6SM -RA BR OVC013 07/06 A2989 RMK AO2 RAB14 P0001 T00720056=
201801300253 METAR KPAE 300253Z 19015KT 10SM SCT008 BKN017 OVC060 08/06 A2987 RMK AO2 PRESRR SLP115 60003 T00830061 53015=
201801300251 SPECI KPAE 300251Z 19014KT 10SM BKN017 OVC060 08/06 A2986 RMK AO2=
201801300212 SPECI KPAE 300212Z 15019G25KT 10SM SCT009 SCT017 09/07 A2982 RMK AO2 T00890072=
201801300153 METAR KPAE 300153Z 15016G27KT 10SM BKN008 OVC014 09/08 A2982 RMK AO2 PK WND 15027/0148 SLP099 T00890078=
201801300053 METAR KPAE 300053Z 15014G25KT 3SM BR BKN008 OVC010 09/08 A2982 RMK AO2 PK WND 15027/0003 RAE45 SLP100 P0003 T00890078=
201801300007 SPECI KPAE 300007Z 16019G27KT 3SM -RA BR BKN008 OVC010 09/08 A2984 RMK AO2 PK WND 15027/0003 P0001 T00890078=
201801300000 SPECI KPAE 300000Z 15019KT 5SM -RA BR BKN010 OVC014 09/08 A2984 RMK AO2 CIG 006V011 P0000 T00940083=
201801292353 METAR KPAE 292353Z 16016KT 3SM RA BR BKN008 BKN010 OVC024 09/08 A2984 RMK AO2 PK WND 16033/2333 SLP108 P0010 60033 T00940083 10100 20083 55016=
201801292344 SPECI KPAE 292344Z 16015G24KT 2 1/2SM RA BR BKN008 BKN010 OVC024 09/08 A2984 RMK AO2 PK WND 16033/2333 P0007 T00940083=
201801292253 METAR KPAE 292253Z 14014KT 4SM -RA BR SCT006 BKN008 OVC026 09/09 A2984 RMK AO2 SLP106 P0006 T00940089=
201801292200 SPECI KPAE 292200Z 13011KT 5SM -RA BR SCT005 BKN008 OVC028 09/08 A2985 RMK AO2 P0001 T00890083=
201801292153 METAR KPAE 292153Z 13011KT 2SM -RA BR BKN014 09/08 A2984 RMK AO2 SLP107 P0011 T00890083=
201801292053 METAR KPAE 292053Z 12007KT 090V170 2SM -RA BR OVC014 09/08 A2989 RMK AO2 SLP124 P0004 60006 T00890078 55034=
201801291953 METAR KPAE 291953Z 09009G14KT 070V140 10SM -RA BKN014 OVC030 09/07 A2995 RMK AO2 RAE09B25 SLP143 P0000 T00890072=
201801291939 SPECI KPAE 291939Z 09007KT 10SM SCT014 OVC030 09/07 A2996 RMK AO2 RAE09B25E39 P0000 T00890072=
201801291853 METAR KPAE 291853Z 12006KT 10SM -RA OVC029 09/07 A2999 RMK AO2 SLP158 P0002 T00890072=
201801291753 METAR KPAE 291753Z 12011KT 8SM -RA OVC038 09/07 A3000 RMK AO2 RAB1659 SLP161 P0004 60008 T00890067 10100 20083 56018=
201801291653 METAR KPAE 291653Z 16005KT 10SM OVC035 09/07 A3003 RMK AO2 RAE03B27E36 SLP169 P0000 T00890072=
201801291555 SPECI KPAE 291555Z 15010G20KT 10SM -RA FEW014 SCT035 OVC090 09/08 A3003 RMK AO2 PRESRR P0000 T00940083=
201801291553 METAR KPAE 291553Z 15012G28KT 9SM -RA SCT035 BKN090 OVC110 09/08 A3002 RMK AO2 PK WND 13031/1519 PRESRR SLP168 P0002 T00940083=
201801291453 METAR KPAE 291453Z 14014G24KT 10SM -RA OVC075 09/07 A3006 RMK AO2 RAB21 SLP179 P0002 60002 T00940072 56023=
201801291353 METAR KPAE 291353Z AUTO 15008KT 10SM OVC036 09/06 A3009 RMK AO2 SLP190 T00890061=
201801291253 METAR KPAE 291253Z AUTO 12013KT 10SM BKN095 09/06 A3009 RMK AO2 SLP190 T00940061=
201801291153 METAR KPAE 291153Z AUTO 13014KT 10SM FEW042 FEW065 09/06 A3012 RMK AO2 SLP203 60000 T00940061 10111 20089 58027=
201801291053 METAR KPAE 291053Z AUTO 12006KT 10SM FEW041 SCT090 09/07 A3016 RMK AO2 SLP214 T00940067=
201801290953 METAR KPAE 290953Z AUTO 12008KT 10SM FEW065 OVC100 11/07 A3018 RMK AO2 RAB16E36 SLP220 P0000 T01060072=
201801290853 METAR KPAE 290853Z AUTO 12009KT 10SM FEW042 SCT065 BKN090 10/08 A3020 RMK AO2 SLP230 T01000078 58011=
201801290753 METAR KPAE 290753Z AUTO 12008G16KT 10SM OVC055 11/08 A3025 RMK AO2 SLP243 T01060083 401110056=
201801290653 METAR KPAE 290653Z AUTO 11007KT 10SM FEW032 11/08 A3023 RMK AO2 SLP237 T01060078=
201801290553 METAR KPAE 290553Z AUTO 13012KT 10SM BKN034 11/08 A3024 RMK AO2 SLP241 T01110083 10111 20100 58005=
201801290453 METAR KPAE 290453Z AUTO 13013KT 10SM SCT020 SCT026 BKN046 11/08 A3026 RMK AO2 SLP246 T01110083=
201801290444 SPECI KPAE 290444Z 13013KT 10SM BKN022 OVC044 11/08 A3025 RMK AO2 T01110083=
201801290353 METAR KPAE 290353Z 12009KT 10SM FEW018 OVC042 11/09 A3026 RMK AO2 SLP247 T01060089=
201801290253 METAR KPAE 290253Z 12013KT 10SM OVC047 11/09 A3025 RMK AO2 SLP247 T01060089 56010=
201801290153 METAR KPAE 290153Z 12012KT 10SM SCT050 BKN060 11/09 A3026 RMK AO2 SLP249 T01060089=
201801290053 METAR KPAE 290053Z 12013KT 10SM SCT050 BKN060 11/08 A3027 RMK AO2 SLP252 T01110083=
201801282353 METAR KPAE 282353Z 12009KT 10SM SCT035 BKN043 OVC060 11/09 A3028 RMK AO2 SLP257 60000 T01060089 10106 20100 55005=
201801282253 METAR KPAE 282253Z 12014KT 10SM BKN065 BKN120 11/09 A3028 RMK AO2 SLP255 T01060089=
201801282153 METAR KPAE 282153Z 12013G20KT 10SM SCT008 BKN030 OVC110 11/09 A3028 RMK AO2 RAB27E40 SLP255 P0000 T01060089=
201801282122 SPECI KPAE 282122Z 12017KT 10SM SCT008 BKN030 OVC110 10/09 A3029 RMK AO2 T01000094=
201801282053 METAR KPAE 282053Z 13015KT 10SM BKN008 BKN030 OVC110 10/09 A3030 RMK AO2 RAB06E18 SLP262 P0000 60000 T01000094 58009=
201801282034 SPECI KPAE 282034Z 13013G21KT 6SM BR BKN006 BKN032 OVC047 10/09 A3030 RMK AO2 RAB06E18 P0000 T01000094=
201801282027 SPECI KPAE 282027Z 13012G21KT 2SM BR BKN006 BKN032 OVC047 10/09 A3031 RMK AO2 RAB06E18 P0000 T01000094=
201801281956 SPECI KPAE 281956Z 13013KT 2SM BR FEW006 BKN024 OVC044 10/09 A3032 RMK AO2 T01000094=
201801281953 METAR KPAE 281953Z 13014KT 2SM BR SCT008 BKN035 OVC050 10/09 A3032 RMK AO2 RAB31E48 SLP269 P0000 T01000094=
201801281935 SPECI KPAE 281935Z 13015KT 2SM -RA BR BKN040 OVC055 10/09 A3032 RMK AO2 RAB31 P0000 T01000094=
201801281912 SPECI KPAE 281912Z 14012G20KT 10SM SCT024 BKN049 OVC060 10/09 A3033 RMK AO2 T01000089=
201801281853 METAR KPAE 281853Z 13014KT 10SM FEW019 BKN023 BKN043 10/09 A3033 RMK AO2 RAB12E31 SLP272 P0000 T01000089=
201801281827 SPECI KPAE 281827Z 13016KT 3SM -RA BR BKN029 OVC049 10/09 A3031 RMK AO2 RAB12 P0000 T01000089=
201801281823 SPECI KPAE 281823Z 13018KT 2SM -RA BR BKN031 BKN043 OVC049 10/09 A3032 RMK AO2 RAB12 P0000 T01000089=
201801281753 METAR KPAE 281753Z 13018G23KT 10SM FEW040 SCT047 OVC060 10/09 A3032 RMK AO2 SLP270 T01000089 10100 20056 53009=
201801281716 SPECI KPAE 281716Z 12017KT 10SM SCT006 BKN050 OVC070 09/08 A3031 RMK AO2 T00940083=
201801281653 METAR KPAE 281653Z 13015KT 9SM BKN006 BKN048 OVC070 09/08 A3030 RMK AO2 PK WND 13027/1623 SLP264 T00940083=
201801281617 SPECI KPAE 281617Z 13017KT 9SM BKN006 BKN017 OVC070 08/08 A3030 RMK AO2 PK WND 13026/1559 T00830078=
201801281605 SPECI KPAE 281605Z 13019G26KT 9SM BKN004 BKN018 OVC065 08/08 A3029 RMK AO2 PK WND 13026/1559 T00830078=
201801281553 METAR KPAE 281553Z 14013G23KT 10SM BKN006 BKN075 08/07 A3029 RMK AO2 SLP262 T00780072=
201801281540 SPECI KPAE 281540Z 13015G21KT 10SM BKN006 BKN075 07/06 A3029 RMK AO2 T00670061=
201801281532 SPECI KPAE 281532Z 13014KT 10SM FEW006 SCT075 07/06 A3029 RMK AO2 T00670061=
201801281453 METAR KPAE 281453Z 13015KT 10SM SCT010 07/06 A3030 RMK AO2 SLP262 T00670056 55000=
201801281418 SPECI KPAE 281418Z AUTO 12012G20KT 10SM OVC014 06/05 A3029 RMK AO2 T00610050=
201801281353 METAR KPAE 281353Z AUTO 12014KT 10SM OVC018 06/05 A3029 RMK AO2 SLP261 T00610050=
201801281253 METAR KPAE 281253Z AUTO 10007KT 070V150 10SM BKN027 OVC034 06/04 A3030 RMK AO2 SLP262 T00610044=
201801281153 METAR KPAE 281153Z AUTO VRB04KT 10SM BKN039 OVC047 06/04 A3032 RMK AO2 SLP272 60006 70027 T00560044 10067 20056 56014=
201801281053 METAR KPAE 281053Z AUTO VRB05KT 10SM SCT050 OVC070 06/05 A3033 RMK AO2 RAB03E47 SLP273 P0004 T00560050=
201801280953 METAR KPAE 280953Z AUTO VRB04KT 10SM OVC065 06/05 A3034 RMK AO2 SLP276 T00610050=
201801280853 METAR KPAE 280853Z AUTO 13005KT 10SM SCT032 SCT050 OVC070 06/05 A3037 RMK AO2 RAB0754E52 SLP286 P0002 60002 T00610050 50004=
201801280817 SPECI KPAE 280817Z AUTO 13006KT 10SM -RA SCT017 SCT035 OVC044 07/05 A3037 RMK AO2 RAB0754 P0000 T00670050=
201801280753 METAR KPAE 280753Z AUTO 12005KT 10SM FEW017 BKN022 OVC075 06/05 A3037 RMK AO2 SLP287 T00610050 400830033=
201801280745 SPECI KPAE 280745Z AUTO 12005KT 10SM FEW014 BKN024 OVC080 07/04 A3037 RMK AO2 T00670044=
201801280720 SPECI KPAE 280720Z AUTO 08006KT 10SM SCT015 OVC085 06/05 A3036 RMK AO2 T00610050=
201801280653 METAR KPAE 280653Z AUTO 08005KT 10SM BKN018 OVC100 06/05 A3037 RMK AO2 SLP288 T00610050=
201801280609 SPECI KPAE 280609Z AUTO 09003KT 10SM FEW018 BKN025 OVC100 07/04 A3036 RMK AO2 T00670044=
201801280553 METAR KPAE 280553Z AUTO 13005KT 10SM OVC100 07/04 A3035 RMK AO2 SLP282 60007 T00670044 10078 20061 51009=
201801280453 METAR KPAE 280453Z 12006KT 10SM SCT027 BKN034 OVC100 07/05 A3035 RMK AO2 SLP282 T00670050=
201801280449 SPECI KPAE 280449Z 12005KT 10SM BKN028 BKN034 OVC110 07/05 A3035 RMK AO2=
201801280353 METAR KPAE 280353Z 10003KT 10SM SCT025 BKN031 OVC120 06/05 A3033 RMK AO2 SLP273 T00610050=
201801280253 METAR KPAE 280253Z VRB03KT 10SM OVC015 06/05 A3031 RMK AO2 SLP267 60007 T00610050 51040=
201801280200 SPECI KPAE 280200Z 06003KT 10SM OVC017 07/05 A3029 RMK AO2 T00670050=
201801280153 METAR KPAE 280153Z 03003KT 10SM BKN014 06/06 A3028 RMK AO2 RAE48 SLP259 P0005 T00610056=
201801280131 SPECI KPAE 280131Z 05004KT 8SM -RA BKN014 06/06 A3027 RMK AO2 P0005 T00610056=
201801280129 SPECI KPAE 280129Z 06004KT 8SM -RA SCT009 OVC016 06/06 A3027 RMK AO2 P0005 T00610056=
201801280112 SPECI KPAE 280112Z 01003KT 4SM -RA BR SCT009 OVC014 07/06 A3026 RMK AO2 P0004 T00670056=
201801280053 METAR KPAE 280053Z 36005KT 7SM -RA BKN014 OVC027 07/05 A3025 RMK AO2 RAB15 PRESRR SLP247 P0002 T00720050=
201801272353 METAR KPAE 272353Z 14008KT 10SM OVC031 08/04 A3019 RMK AO2 SLP226 60000 T00780039 10083 20072 51062=
201801272314 SPECI KPAE 272314Z 15009KT 10SM OVC030 08/04 A3017 RMK AO2 T00830044=
201801272253 METAR KPAE 272253Z 14009KT 10SM BKN024 OVC035 08/04 A3015 RMK AO2 SLP213 T00830044=
201801272153 METAR KPAE 272153Z 16013G20KT 10SM BKN029 OVC035 08/04 A3009 RMK AO2 PK WND 18029/2055 SLP191 T00830044=
201801272053 METAR KPAE 272053Z 16019G28KT 10SM FEW018 BKN065 08/05 A3000 RMK AO2 PK WND 18036/1956 RAE49 PRESRR SLP162 P0000 60000 T00830050 53062=
201801271953 METAR KPAE 271953Z 16021G36KT 10SM -RA SCT019 SCT095 08/05 A2992 RMK AO2 PK WND 16041/1905 SLP136 P0000 T00830050=
201801271853 METAR KPAE 271853Z 16027G42KT 10SM -RA FEW019 08/05 A2987 RMK AO2 PK WND 15044/1808 SLP116 P0000 T00780050=
201801271756 SPECI KPAE 271756Z 15028G37KT 10SM -RA FEW010 FEW015 SCT021 08/06 A2981 RMK AO2 PK WND 15035/1756 P0000 T00780056=
201801271753 METAR KPAE 271753Z 16028G37KT 5SM -RA BKN010 OVC027 08/06 A2982 RMK AO2 PK WND 15042/1742 SLP099 P0000 60014 T00780056 10078 20039 50009=
201801271742 SPECI KPAE 271742Z 16033G42KT 5SM -RA BR BKN010 OVC027 08/06 A2982 RMK AO2 PK WND 15042/1742 P0000 T00780061=
201801271653 METAR KPAE 271653Z 14016G29KT 2SM -RA BR SCT006 BKN011 OVC027 07/06 A2982 RMK AO2 PK WND 16029/1647 SLP100 P0003 T00720061=
201801271553 METAR KPAE 271553Z 12009G18KT 2 1/2SM -RA BR SCT006 BKN009 OVC016 06/05 A2981 RMK AO2 SLP097 P0004 T00560050=
201801271551 SPECI KPAE 271551Z 12009G18KT 2 1/2SM -RA BR SCT006 BKN009 OVC016 06/05 A2980 RMK AO2 P0004=
201801271453 METAR KPAE 271453Z VRB06KT 2 1/2SM -RA BR OVC021 06/05 A2979 RMK AO2 SLP091 P0003 60007 T00560050 55014=
201801271431 SPECI KPAE 271431Z AUTO 12011G23KT 2 1/2SM -RA BR OVC023 05/04 A2977 RMK AO2 P0001 T00500044=
201801271423 SPECI KPAE 271423Z AUTO 12012G22KT 080V150 3SM -RA BR OVC025 05/04 A2977 RMK AO2 P0001 T00500044=
201801271402 SPECI KPAE 271402Z AUTO 11011G23KT 2 1/2SM -RA BR OVC023 05/04 A2978 RMK AO2 P0000 T00500039=
201801271353 METAR KPAE 271353Z AUTO 12014G23KT 3SM -RA BR OVC027 05/04 A2979 RMK AO2 SLP089 P0002 T00500039=
201801271342 SPECI KPAE 271342Z AUTO 12016G23KT 2 1/2SM -RA BR OVC029 05/04 A2978 RMK AO2 P0001 T00500039=
201801271253 METAR KPAE 271253Z AUTO 12016G26KT 7SM -RA FEW023 OVC037 04/03 A2980 RMK AO2 PK WND 12026/1247 SLP095 P0002 T00440033=
201801271222 SPECI KPAE 271222Z AUTO 11009G16KT 7SM -RA SCT026 OVC031 04/03 A2982 RMK AO2 P0001 T00440033=
201801271214 SPECI KPAE 271214Z AUTO 12010G18KT 10SM -RA BKN027 OVC031 04/03 A2982 RMK AO2 P0001 T00440033=
201801271153 METAR KPAE 271153Z AUTO 12011G16KT 10SM -RA FEW028 OVC033 04/03 A2983 RMK AO2 SLP105 P0003 60025 70026 T00390033 10039 20033 56038=
201801271053 METAR KPAE 271053Z AUTO VRB06G14KT 7SM -RA OVC036 04/03 A2986 RMK AO2 SLP115 P0004 T00390033=
201801271013 SPECI KPAE 271013Z AUTO VRB06KT 7SM -RA OVC032 04/03 A2989 RMK AO2 P0001 T00390028=
201801270953 METAR KPAE 270953Z AUTO VRB05KT 5SM -RA BR OVC022 04/03 A2989 RMK AO2 SLP126 P0011 T00390028=
201801270853 METAR KPAE 270853Z AUTO 09010KT 7SM -RA OVC029 03/03 A2995 RMK AO2 SLP145 P0004 60007 T00330028 56027=
201801270849 SPECI KPAE 270849Z AUTO 08009KT 7SM -RA OVC029 03/03 A2995 RMK AO2 P0003=
201801270753 METAR KPAE 270753Z AUTO 08009KT 10SM -RA OVC043 03/03 A2999 RMK AO2 SLP160 P0002 T00330028 400500028=
201801270653 METAR KPAE 270653Z AUTO 10005KT 8SM -RA OVC037 04/03 A3003 RMK AO2 RAB30 SLP173 P0001 T00390028=
201801270553 METAR KPAE 270553Z AUTO VRB04KT 10SM FEW030 OVC060 04/03 A3006 RMK AO2 RAB36E46 SLP183 P0001 60001 T00390028 10050 20039 58016=
201801270500 SPECI KPAE 270500Z AUTO VRB04KT 10SM FEW007 BKN065 OVC080 04/03 A3008 RMK AO2 T00390028=
201801270453 METAR KPAE 270453Z AUTO 12007KT 10SM BKN007 OVC012 04/03 A3008 RMK AO2 SLP191 T00390028=
201801270353 METAR KPAE 270353Z 12008KT 10SM OVC008 04/03 A3010 RMK AO2 RAB0258E17 SLP197 P0000 T00390028=
201801270322 SPECI KPAE 270322Z 12010KT 9SM OVC008 04/03 A3010 RMK AO2 RAB0258E17 P0000 T00390033=
201801270315 SPECI KPAE 270315Z 12009KT 10SM -RA OVC010 04/03 A3010 RMK AO2 RAB0258 CIG 006V013 P0000 T00440033=
201801270302 SPECI KPAE 270302Z 12009KT 10SM -RA OVC008 04/03 A3010 RMK AO2 RAB0258 CIG 006V011 P0000 T00440033=
201801270253 METAR KPAE 270253Z 12009KT 9SM OVC010 04/03 A3011 RMK AO2 CIG 007V013 SLP200 60000 T00440033 56007=
201801270251 SPECI KPAE 270251Z 12009KT 9SM OVC010 04/03 A3011 RMK AO2 CIG 007V013=
201801270241 SPECI KPAE 270241Z 12009KT 10SM OVC009 04/03 A3011 RMK AO2 CIG 008V015 T00440028=
201801270153 METAR KPAE 270153Z 13008KT 10SM BKN011 OVC018 05/03 A3011 RMK AO2 RAB25E36 SLP201 P0000 T00500028=
201801270053 METAR KPAE 270053Z 14006KT 10SM BKN012 OVC021 05/03 A3013 RMK AO2 SLP206 T00500028=
201801262353 METAR KPAE 262353Z 15008KT 10SM BKN014 OVC022 05/03 A3012 RMK AO2 SLP203 T00500028 10050 20039 50003=
201801262253 METAR KPAE 262253Z 17008KT 10SM BKN012 OVC019 05/03 A3012 RMK AO2 SLP205 T00500028=
201801262201 SPECI KPAE 262201Z 18009KT 10SM BKN014 OVC019 04/02 A3012 RMK AO2 T00440022=
201801262153 METAR KPAE 262153Z 18008KT 10SM SCT014 OVC019 04/02 A3012 RMK AO2 SLP204 T00440022=
201801262053 METAR KPAE 262053Z 18010G19KT 10SM OVC014 04/03 A3011 RMK AO2 SLP200 T00440028 51015=
201801261953 METAR KPAE 261953Z 17009KT 10SM OVC010 04/02 A3011 RMK AO2 SLP199 T00440022=
201801261853 METAR KPAE 261853Z VRB06G20KT 10SM OVC010 04/02 A3009 RMK AO2 SLP192 T00390022=
201801261753 METAR KPAE 261753Z 15008G19KT 10SM SCT007 BKN010 OVC033 04/02 A3007 RMK AO2 RAB21E43 SLP185 P0000 60000 T00390022 10039 20028 53014=
201801261700 SPECI KPAE 261700Z 14017G22KT 10SM SCT007 BKN010 OVC033 03/02 A3005 RMK AO2 T00330022=
201801261653 METAR KPAE 261653Z 14010G20KT 7SM BKN010 OVC019 03/02 A3004 RMK AO2 SLP177 T00330022=
201801261610 SPECI KPAE 261610Z 15016G20KT 10SM BKN010 OVC019 03/02 A3004 RMK AO2 T00330017=
201801261600 SPECI KPAE 261600Z 14012KT 10SM OVC015 03/02 A3003 RMK AO2 T00330017=
201801261553 METAR KPAE 261553Z 14012G20KT 10SM OVC010 03/02 A3003 RMK AO2 SLP175 T00330017=
201801261453 METAR KPAE 261453Z 14017G22KT 10SM OVC013 03/02 A3003 RMK AO2 SLP172 T00330017 51015=
201801261415 SPECI KPAE 261415Z AUTO 14013G22KT 10SM BKN013 BKN024 03/02 A3002 RMK AO2 T00330017=
201801261353 METAR KPAE 261353Z AUTO 15017G25KT 10SM FEW011 03/02 A3001 RMK AO2 PK WND 15028/1340 SLP167 T00330017=
201801261344 SPECI KPAE 261344Z AUTO 15017G28KT 10SM SCT013 03/01 A3001 RMK AO2 PK WND 15028/1340 T00330011=
201801261304 SPECI KPAE 261304Z AUTO 15016KT 10SM BKN013 BKN018 BKN023 03/02 A3000 RMK AO2 T00330017=
201801261253 METAR KPAE 261253Z AUTO 14015G21KT 10SM SCT013 BKN021 03/02 A3000 RMK AO2 SLP162 T00330017=
201801261236 SPECI KPAE 261236Z AUTO 15015KT 10SM SCT013 BKN021 BKN026 03/02 A3000 RMK AO2 T00330017=
201801261219 SPECI KPAE 261219Z AUTO 17016KT 10SM BKN013 OVC019 03/02 A2999 RMK AO2 T00330017=
201801261205 SPECI KPAE 261205Z AUTO 16015G25KT 10SM SCT013 BKN019 03/02 A2999 RMK AO2 T00280017=
201801261153 METAR KPAE 261153Z AUTO 15016KT 10SM BKN014 03/02 A2998 RMK AO2 SLP157 70007 T00330017 10044 20028 51017=
201801261148 SPECI KPAE 261148Z AUTO 15017KT 10SM SCT012 BKN017 03/02 A2998 RMK AO2=
201801261133 SPECI KPAE 261133Z AUTO 15019KT 10SM BKN012 BKN017 03/02 A2997 RMK AO2 T00330017=
201801261107 SPECI KPAE 261107Z AUTO 16018KT 10SM SCT012 03/02 A2997 RMK AO2 T00330017=
201801261053 METAR KPAE 261053Z AUTO 16018KT 10SM BKN014 03/02 A2996 RMK AO2 PK WND 16031/1016 SLP150 T00280017=
201801261041 SPECI KPAE 261041Z AUTO 16017G23KT 10SM BKN014 BKN120 03/02 A2995 RMK AO2 PK WND 16031/1016 T00330017=
201801261008 SPECI KPAE 261008Z AUTO 15017KT 10SM SCT013 03/02 A2994 RMK AO2 T00330017=
201801260953 METAR KPAE 260953Z AUTO 15014G22KT 10SM BKN013 03/02 A2993 RMK AO2 PK WND 16026/0929 SLP140 T00330017=
201801260931 SPECI KPAE 260931Z AUTO 15018G26KT 10SM OVC015 04/02 A2993 RMK AO2 PK WND 16026/0929 T00390017=
201801260853 METAR KPAE 260853Z AUTO 16013KT 10SM OVC013 04/02 A2993 RMK AO2 SLP138 T00390017 51018=
201801260818 SPECI KPAE 260818Z AUTO 17013KT 10SM BKN017 OVC110 04/02 A2992 RMK AO2 T00390022=
201801260810 SPECI KPAE 260810Z AUTO 16014KT 10SM SCT017 BKN037 OVC100 04/02 A2991 RMK AO2 T00390022=
201801260753 METAR KPAE 260753Z AUTO 17014KT 10SM BKN016 OVC110 04/02 A2990 RMK AO2 SLP130 T00390022 400500033=
201801260653 METAR KPAE 260653Z AUTO 16012G17KT 10SM BKN014 OVC021 04/03 A2987 RMK AO2 PK WND 15029/0556 SLP120 T00440028=
201801260553 METAR KPAE 260553Z AUTO 15017KT 10SM OVC013 04/03 A2984 RMK AO2 SLP106 60003 T00440028 10050 20039 53009=
201801260453 METAR KPAE 260453Z AUTO 14014G20KT 10SM SCT009 OVC013 04/03 A2981 RMK AO2 SLP099 T00440033=
201801260353 METAR KPAE 260353Z 13010KT 9SM BKN008 OVC014 04/03 A2982 RMK AO2 RAE40 CIG 005V010 SLP101 P0003 T00390033=
201801260300 SPECI KPAE 260300Z 15014KT 9SM -RA BKN014 OVC036 04/03 A2981 RMK AO2 P0001 T00440028=
201801260253 METAR KPAE 260253Z 14011KT 10SM -RA SCT014 BKN041 OVC075 04/03 A2981 RMK AO2 RAB42 SLP097 P0000 60000 T00440028 53013=
201801260153 METAR KPAE 260153Z 13012KT 10SM SCT015 BKN100 04/03 A2979 RMK AO2 SLP091 T00440028=
201801260053 METAR KPAE 260053Z 13006KT 10SM BKN015 05/03 A2978 RMK AO2 SLP088 T00500028=
201801260011 SPECI KPAE 260011Z 14008KT 10SM FEW008 BKN010 OVC015 05/03 A2977 RMK AO2 T00500028=
201801252353 METAR KPAE 252353Z 15010KT 10SM BKN008 OVC015 04/03 A2977 RMK AO2 SLP084 60004 T00440033 10044 20033 52025=
201801252325 SPECI KPAE 252325Z 13007KT 10SM BKN008 OVC015 04/03 A2976 RMK AO2 T00440028=
201801252301 SPECI KPAE 252301Z 15010KT 10SM BKN010 OVC015 04/03 A2975 RMK AO2 T00390028=
201801252253 METAR KPAE 252253Z 15010KT 10SM BKN008 BKN016 OVC022 04/03 A2975 RMK AO2 SLP077 T00390028=
201801252153 METAR KPAE 252153Z 14014KT 10SM OVC008 04/03 A2972 RMK AO2 RAB2059E37 SLP067 P0000 T00390028=
201801252103 SPECI KPAE 252103Z 13011KT 7SM -RA OVC008 04/02 A2970 RMK AO2 RAB2059 P0000 T00390022=
201801252053 METAR KPAE 252053Z 12011KT 7SM OVC012 04/02 A2969 RMK AO2 RAE53 SLP060 P0001 60004 T00390022 51012=
201801251953 METAR KPAE 251953Z 15010KT 10SM -RA BKN012 BKN028 OVC050 04/02 A2969 RMK AO2 SLP057 P0002 T00390022=
201801251907 SPECI KPAE 251907Z 12010KT 5SM -RA BR BKN014 OVC023 03/01 A2969 RMK AO2 P0001 T00330011=
201801251853 METAR KPAE 251853Z 12010KT 6SM -RA BR FEW016 OVC023 03/01 A2968 RMK AO2 RAB07 SLP055 P0001 T00330011=
201801251807 SPECI KPAE 251807Z 12009KT 10SM -RA BKN020 OVC047 04/00 A2967 RMK AO2 RAB07 P0000 T00390000=
201801251753 METAR KPAE 251753Z 12007KT 10SM BKN045 OVC055 04/01 A2966 RMK AO2 SLP047 T00390006 10039 20033 53009=
201801251653 METAR KPAE 251653Z VRB03KT 10SM BKN050 OVC075 04/00 A2964 RMK AO2 SLP040 T00390000=
201801251553 METAR KPAE 251553Z 13008KT 10SM OVC060 04/01 A2963 RMK AO2 SLP038 T00390006=
201801251453 METAR KPAE 251453Z 08007KT 10SM BKN065 OVC075 04/01 A2963 RMK AO2 SLP038 T00390006 56019=
201801251353 METAR KPAE 251353Z AUTO 08006KT 10SM BKN065 04/01 A2965 RMK AO2 SLP043 T00390011=
201801251253 METAR KPAE 251253Z AUTO 09006KT 10SM BKN045 OVC075 04/02 A2967 RMK AO2 SLP050 T00390017=
201801251153 METAR KPAE 251153Z AUTO 12008KT 10SM FEW055 04/02 A2969 RMK AO2 RAE15 SLP057 P0000 60002 70015 T00390022 10056 20033 50001=
201801251126 SPECI KPAE 251126Z AUTO 12006KT 10SM FEW015 BKN033 OVC060 04/03 A2970 RMK AO2 RAE15 P0000 T00390028=
201801251053 METAR KPAE 251053Z AUTO 13010G19KT 9SM -RA FEW016 BKN025 04/03 A2970 RMK AO2 RAB33 SLP061 P0002 T00390028=
201801251048 SPECI KPAE 251048Z AUTO 15014G20KT 6SM -RA BR FEW010 BKN025 BKN031 04/03 A2970 RMK AO2 RAB33 P0002=
201801250953 METAR KPAE 250953Z AUTO 14014G23KT 10SM CLR 04/02 A2969 RMK AO2 SLP057 T00390017=
201801250853 METAR KPAE 250853Z AUTO 13015G22KT 10SM CLR 03/02 A2967 RMK AO2 SLP051 T00330022 51009=
201801250753 METAR KPAE 250753Z AUTO 16018G25KT 10SM SCT019 BKN060 BKN075 04/02 A2967 RMK AO2 SLP049 T00440022 400830044=
201801250730 SPECI KPAE 250730Z AUTO 16016KT 10SM SCT019 BKN026 BKN043 05/03 A2968 RMK AO2 T00500028=
201801250715 SPECI KPAE 250715Z AUTO 15014KT 10SM FEW016 SCT021 BKN038 05/03 A2967 RMK AO2 T00500028=
201801250653 METAR KPAE 250653Z AUTO 16017G23KT 10SM BKN022 BKN028 BKN120 06/03 A2966 RMK AO2 SLP047 T00560028=
201801250553 METAR KPAE 250553Z AUTO 14012KT 10SM BKN018 OVC025 06/03 A2965 RMK AO2 PK WND 17028/0455 SLP041 60005 T00560033 10072 20056 53021=
201801250453 METAR KPAE 250453Z AUTO 16019G25KT 10SM SCT017 BKN023 OVC029 06/04 A2962 RMK AO2 SLP033 T00610039=
201801250421 SPECI KPAE 250421Z 15014KT 10SM SCT015 BKN027 BKN110 06/04 A2961 RMK AO2 T00610044=
201801250353 METAR KPAE 250353Z 15017G26KT 10SM FEW018 BKN100 OVC110 06/04 A2959 RMK AO2 PK WND 15026/0344 SLP022 T00610039=
201801250253 METAR KPAE 250253Z 15016KT 10SM SCT002 BKN012 BKN016 06/05 A2958 RMK AO2 PK WND 15028/0219 RAE0156B11E45 SLP020 P0003 60005 T00610050 53004=
201801250228 SPECI KPAE 250228Z 17018G28KT 6SM -RA BR SCT002 BKN012 BKN016 07/05 A2958 RMK AO2 PK WND 15028/0219 RAE0156B11 P0002 T00670050=
201801250200 SPECI KPAE 250200Z 13009KT 10SM SCT030 BKN038 OVC050 07/06 A2957 RMK AO2 RAE0156 P0000 T00670056=
201801250153 METAR KPAE 250153Z 13010KT 10SM -RA BKN005 BKN032 OVC043 07/06 A2957 RMK AO2 SLP015 P0001 T00670056=
201801250104 SPECI KPAE 250104Z 13011KT 5SM -RA BR BKN005 BKN032 OVC043 07/06 A2956 RMK AO2 P0001 T00670056=
201801250053 METAR KPAE 250053Z 12008KT 9SM -RA SCT006 BKN041 07/06 A2956 RMK AO2 RAB16 SLP013 P0001 T00670056=
201801242353 METAR KPAE 242353Z 12008G15KT 10SM SCT006 BKN041 OVC055 07/06 A2957 RMK AO2 RAB03E18 SLP016 P0000 60006 T00720056 10072 20067 56016=
201801242301 SPECI KPAE 242301Z 12011KT 10SM FEW004 SCT025 OVC070 07/06 A2959 RMK AO2 T00720056=
201801242253 METAR KPAE 242253Z 13013KT 10SM FEW022 BKN055 OVC070 07/06 A2959 RMK AO2 RAE2156B22E48 SLP021 P0001 T00720056=
201801242153 METAR KPAE 242153Z 12010KT 10SM -RA FEW028 BKN050 OVC080 07/06 A2960 RMK AO2 SLP024 P0002 T00720056=
201801242053 METAR KPAE 242053Z 12008KT 8SM -RA SCT024 OVC040 07/06 A2962 RMK AO2 SLP032 P0003 60003 T00720056 58022=
201801242013 SPECI KPAE 242013Z 14009KT 6SM -RA BR BKN024 BKN060 OVC075 07/06 A2963 RMK AO2 P0000 T00720056=
201801241953 METAR KPAE 241953Z 11008KT 10SM -RA SCT060 BKN075 OVC090 07/05 A2964 RMK AO2 RAB52 SLP040 P0000 T00720050=
201801241853 METAR KPAE 241853Z 12008KT 10SM SCT042 BKN060 OVC070 07/05 A2968 RMK AO2 SLP054 T00720050=
201801241753 METAR KPAE 241753Z VRB03KT 10SM SCT050 BKN080 OVC100 07/05 A2969 RMK AO2 RAE12 SLP054 P0000 60002 T00670050 10083 20067 58007=
201801241653 METAR KPAE 241653Z 12009KT 10SM -RA BKN050 BKN070 OVC085 07/05 A2970 RMK AO2 SLP060 P0002 T00670050=
201801241553 METAR KPAE 241553Z 12010KT 10SM -RA SCT030 OVC039 07/05 A2970 RMK AO2 RAB36 SLP060 P0000 T00720050=
201801241453 METAR KPAE 241453Z 14010KT 10SM CLR 08/05 A2971 RMK AO2 SLP062 T00780050 53001=
201801241353 METAR KPAE 241353Z AUTO 14011KT 10SM FEW026 SCT050 08/06 A2971 RMK AO2 SLP061 T00780061=
201801241326 SPECI KPAE 241326Z AUTO 15015G20KT 10SM FEW015 SCT022 08/06 A2971 RMK AO2 T00830061=
201801241253 METAR KPAE 241253Z AUTO 14010KT 10SM BKN015 BKN025 08/07 A2970 RMK AO2 SLP061 T00830067=
201801241251 SPECI KPAE 241251Z AUTO 14011G19KT 10SM FEW010 BKN015 BKN025 08/07 A2971 RMK AO2=
201801241153 METAR KPAE 241153Z AUTO 14013G20KT 10SM BKN012 BKN032 OVC042 08/07 A2970 RMK AO2 RAE16 SLP061 P0000 60009 70065 T00830067 10083 20050 50006=
201801241053 METAR KPAE 241053Z AUTO 12009G14KT 8SM -RA BKN014 OVC020 08/06 A2971 RMK AO2 RAB0954E05B52 SLP061 P0000 T00780061=
201801241050 SPECI KPAE 241050Z AUTO VRB05KT 9SM BKN014 OVC022 08/06 A2970 RMK AO2 RAB0954E05 P0000=
201801241026 SPECI KPAE 241026Z AUTO 09011G18KT 10SM BKN023 BKN030 OVC035 07/06 A2970 RMK AO2 RAB0954E05 P0000 T00720061=
201801241002 SPECI KPAE 241002Z AUTO 09010KT 10SM -RA FEW008 SCT013 OVC032 08/07 A2968 RMK AO2 RAB0954 P0000 T00780072=
201801240953 METAR KPAE 240953Z AUTO 08009G14KT 10SM FEW013 SCT024 OVC035 08/07 A2969 RMK AO2 RAE16 SLP055 P0002 T00830072=
201801240853 METAR KPAE 240853Z AUTO 13016G23KT 8SM -RA SCT034 OVC048 08/07 A2970 RMK AO2 RAE01B19 SLP060 P0002 60007 T00780067 53002=
201801240753 METAR KPAE 240753Z AUTO 12008KT 080V150 10SM -RA FEW027 OVC035 07/06 A2968 RMK AO2 RAE20B51 SLP054 P0000 T00670056 400670039=
201801240653 METAR KPAE 240653Z AUTO 08009KT 5SM -RA BR OVC033 06/04 A2969 RMK AO2 SLP056 P0005 T00560044=
201801240553 METAR KPAE 240553Z AUTO 09008KT 080V140 5SM -RA BR OVC038 05/04 A2970 RMK AO2 SLP059 P0006 60021 T00500044 10056 20044 56020=
201801240527 SPECI KPAE 240527Z AUTO 09009KT 7SM -RA SCT031 OVC038 05/04 A2970 RMK AO2 P0001 T00500044=
201801240503 SPECI KPAE 240503Z AUTO 08008KT 10SM -RA OVC029 05/04 A2970 RMK AO2 P0000 T00500044=
201801240453 METAR KPAE 240453Z AUTO 08009KT 7SM -RA OVC031 05/04 A2970 RMK AO2 SLP059 P0003 T00500044=
201801240400 SPECI KPAE 240400Z 08009KT 8SM -RA OVC032 04/04 A2973 RMK AO2 P0001 T00440039=
201801240353 METAR KPAE 240353Z 08007KT 7SM -RA SCT004 BKN029 OVC036 04/04 A2973 RMK AO2 SLP071 P0004 T00440044=
201801240253 METAR KPAE 240253Z 08008KT 8SM -RA SCT005 OVC025 05/04 A2976 RMK AO2 SLP079 P0002 60008 T00500044 57024=
201801240206 SPECI KPAE 240206Z 08007KT 060V130 8SM -RA SCT005 OVC025 06/05 A2978 RMK AO2 P0001 T00560050=
201801240159 SPECI KPAE 240159Z 08008KT 050V130 4SM -RA BR SCT005 06/04 A2978 RMK AO2 P0001 T00560044=
201801240153 METAR KPAE 240153Z 09006KT 4SM -RA BR BKN005 BKN036 OVC045 05/04 A2978 RMK AO2 SLP087 P0001 T00500044=
201801240053 METAR KPAE 240053Z 09009G14KT 4SM -RA BR BKN005 BKN030 OVC036 06/05 A2980 RMK AO2 SLP096 P0005 T00560050=
201801232353 METAR KPAE 232353Z 09012G17KT 4SM -RA BR BKN005 BKN030 OVC036 05/04 A2983 RMK AO2 SLP104 P0006 60033 T00500044 10056 20050 58019=
201801232317 SPECI KPAE 232317Z 09010G16KT 5SM -RA BR BKN005 BKN022 OVC033 05/04 A2984 RMK AO2 P0003 T00500044=
201801232310 SPECI KPAE 232310Z 09007G14KT 5SM -RA BR SCT005 BKN022 OVC033 05/04 A2985 RMK AO2 P0002 T00500044=
201801232258 SPECI KPAE 232258Z VRB05KT 5SM -RA BR FEW006 SCT023 OVC031 06/04 A2985 RMK AO2 P0001 T00560044=
201801232253 METAR KPAE 232253Z 12008KT 2SM -RA BR BKN006 BKN021 OVC028 06/04 A2985 RMK AO2 SLP113 P0010 T00560044=
201801232208 SPECI KPAE 232208Z 11005KT 2SM -RA BR BKN024 OVC029 06/04 A2987 RMK AO2 P0000 T00560044=
201801232153 METAR KPAE 232153Z VRB04KT 7SM -RA FEW006 BKN024 OVC028 06/04 A2987 RMK AO2 SLP120 P0005 T00560044=
201801232139 SPECI KPAE 232139Z VRB03KT 8SM -RA SCT006 BKN024 OVC032 05/04 A2987 RMK AO2 P0005 T00500044=
201801232123 SPECI KPAE 232123Z VRB03KT 2SM -RA BR FEW006 BKN024 OVC032 05/04 A2987 RMK AO2 P0004 T00500044=
201801232116 SPECI KPAE 232116Z 12007KT 1 3/4SM RA BR FEW008 OVC024 05/04 A2987 RMK AO2 P0004 T00500044=
201801232113 SPECI KPAE 232113Z VRB04KT 2SM -RA BR OVC024 05/04 A2987 RMK AO2 P0002 T00500044=
201801232053 METAR KPAE 232053Z 09007KT 3SM -RA BR BKN026 OVC031 05/04 A2989 RMK AO2 SLP124 P0005 60012 T00500044 58029=
201801232010 SPECI KPAE 232010Z 08007KT 2SM -RA BR OVC026 05/04 A2990 RMK AO2 PRESFR P0002 T00500044=
201801232003 SPECI KPAE 232003Z VRB03KT 3SM -RA BR OVC028 05/04 A2991 RMK AO2 P0001 T00500044=
201801231953 METAR KPAE 231953Z 12007KT 6SM -RA BR FEW014 SCT025 OVC031 06/04 A2993 RMK AO2 SLP137 P0004 T00560044=
201801231853 METAR KPAE 231853Z 13009KT 9SM -RA FEW030 OVC037 06/04 A2996 RMK AO2 SLP148 P0003 T00560039=
201801231800 SPECI KPAE 231800Z 13010KT 6SM -RA OVC031 06/03 A2997 RMK AO2 P0002 T00560028=
201801231753 METAR KPAE 231753Z 13007KT 7SM -RA OVC024 06/03 A2998 RMK AO2 SLP154 P0002 60002 T00560028 10061 20039 56013=
201801231653 METAR KPAE 231653Z 13008KT 10SM -RA OVC024 06/02 A2999 RMK AO2 SLP159 P0000 T00560017=
201801231631 SPECI KPAE 231631Z 12010KT 10SM -RA OVC024 06/01 A2998 RMK AO2 P0000 T00560006=
201801231553 METAR KPAE 231553Z 12005KT 10SM -RA OVC044 06/00 A2999 RMK AO2 RAB13E26B42 SLP158 P0000 T00610000=
201801231453 METAR KPAE 231453Z 12009KT 10SM FEW075 BKN100 BKN120 05/M01 A3001 RMK AO2 SLP167 T00501006 56041=
201801231353 METAR KPAE 231353Z AUTO 09006KT 10SM BKN080 OVC090 04/01 A3004 RMK AO2 SLP176 T00440006=
201801231253 METAR KPAE 231253Z AUTO 09008KT 10SM BKN110 04/01 A3008 RMK AO2 SLP190 T00440006=
201801231153 METAR KPAE 231153Z AUTO 09007KT 10SM SCT110 04/01 A3013 RMK AO2 SLP208 70002 T00440011 10050 20044 58031=
201801231053 METAR KPAE 231053Z AUTO 09007KT 10SM SCT036 BKN049 04/02 A3018 RMK AO2 SLP224 T00440017=
201801230953 METAR KPAE 230953Z AUTO 08008KT 10SM SCT039 OVC048 04/02 A3020 RMK AO2 SLP231 T00440017=
201801230853 METAR KPAE 230853Z AUTO 09005KT 10SM SCT048 BKN120 04/02 A3023 RMK AO2 SLP239 T00440022 58007=
201801230753 METAR KPAE 230753Z AUTO 12005KT 10SM FEW044 SCT060 04/02 A3025 RMK AO2 SLP248 T00440022 400720044=
201801230653 METAR KPAE 230653Z AUTO VRB05KT 10SM CLR 05/02 A3025 RMK AO2 SLP249 T00500022=
201801230553 METAR KPAE 230553Z AUTO 12005KT 10SM CLR 04/03 A3025 RMK AO2 SLP247 T00440028 10067 20044 58004=
201801230453 METAR KPAE 230453Z AUTO 12006KT 10SM CLR 04/02 A3026 RMK AO2 SLP250 T00440022=
201801230353 METAR KPAE 230353Z 12008KT 10SM CLR 05/03 A3027 RMK AO2 SLP254 T00500028=
201801230253 METAR KPAE 230253Z 12008KT 10SM CLR 06/03 A3026 RMK AO2 SLP251 T00560028 58004=
201801230153 METAR KPAE 230153Z 14007KT 10SM FEW017 FEW025 06/03 A3027 RMK AO2 SLP253 T00560028=
201801230146 SPECI KPAE 230146Z 14005KT 10SM FEW017 SCT025 06/03 A3027 RMK AO2 T00610033=
201801230053 METAR KPAE 230053Z 14007KT 10SM OVC024 07/03 A3028 RMK AO2 SLP256 T00670028=
201801222353 METAR KPAE 222353Z 15009KT 10SM BKN025 07/03 A3027 RMK AO2 SLP255 T00670028 10072 20050 51009=
201801222253 METAR KPAE 222253Z 16009KT 10SM SCT022 BKN027 07/03 A3027 RMK AO2 SLP252 T00720033=
201801222153 METAR KPAE 222153Z 18010KT 10SM BKN017 07/03 A3026 RMK AO2 SLP248 T00720033=
201801222103 SPECI KPAE 222103Z 16013KT 10SM BKN017 07/04 A3025 RMK AO2 T00720039=
201801222053 METAR KPAE 222053Z 16013KT 10SM CLR 07/03 A3025 RMK AO2 SLP245 T00720033 51014=
201801222036 SPECI KPAE 222036Z 17013KT 10SM SCT017 07/04 A3024 RMK AO2 T00670039=
201801221953 METAR KPAE 221953Z 17009KT 10SM OVC017 07/04 A3024 RMK AO2 SLP242 T00670039=
201801221935 SPECI KPAE 221935Z 17010KT 10SM OVC017 06/04 A3023 RMK AO2 T00610039=
201801221853 METAR KPAE 221853Z 18009KT 10SM OVC009 06/04 A3022 RMK AO2 SLP238 T00560039=
201801221844 SPECI KPAE 221844Z 18011KT 10SM OVC009 06/03 A3022 RMK AO2 T00560033=
201801221753 METAR KPAE 221753Z 17011KT 10SM OVC011 05/03 A3020 RMK AO2 SLP232 60002 T00500033 10056 20044 53033=
201801221653 METAR KPAE 221653Z 17010KT 10SM OVC010 05/03 A3017 RMK AO2 SLP221 T00500033=
201801221603 SPECI KPAE 221603Z 16013KT 10SM OVC014 04/03 A3014 RMK AO2 T00440033=
201801221553 METAR KPAE 221553Z 16013KT 10SM OVC015 04/03 A3013 RMK AO2 SLP208 T00440033=
201801221507 SPECI KPAE 221507Z 17016KT 10SM BKN014 OVC020 04/03 A3011 RMK AO2 T00440033=
201801221453 METAR KPAE 221453Z 16017G24KT 10SM BKN017 OVC024 05/03 A3011 RMK AO2 SLP199 60002 T00500033 51016=
201801221410 SPECI KPAE 221410Z AUTO 16016KT 10SM SCT011 BKN028 04/03 A3010 RMK AO2 T00440033=
201801221353 METAR KPAE 221353Z AUTO 16011KT 10SM BKN011 BKN016 BKN023 04/03 A3009 RMK AO2 RAE21 CIG 009V013 SLP194 P0002 T00440033=
201801221253 METAR KPAE 221253Z AUTO 15014KT 10SM -RA BKN011 OVC017 06/04 A3009 RMK AO2 RAB49 SLP192 P0000 T00560039=
201801221236 SPECI KPAE 221236Z AUTO 15013KT 10SM BKN013 OVC020 06/04 A3008 RMK AO2 T00560039=
201801221226 SPECI KPAE 221226Z AUTO 15015KT 10SM SCT015 OVC021 06/04 A3008 RMK AO2 T00560039=
201801221214 SPECI KPAE 221214Z AUTO 16017KT 10SM BKN013 BKN018 OVC080 06/04 A3008 RMK AO2 T00560039=
201801221153 METAR KPAE 221153Z AUTO 15018KT 10SM SCT011 BKN026 OVC090 06/04 A3006 RMK AO2 SLP182 60004 70026 T00560039 10061 20050 51005=
201801221053 METAR KPAE 221053Z AUTO 15018KT 10SM FEW014 BKN060 OVC120 05/03 A3006 RMK AO2 PK WND 16026/1009 SLP181 T00500033=
201801221020 SPECI KPAE 221020Z AUTO 17015KT 10SM BKN015 BKN070 BKN090 06/04 A3006 RMK AO2 PK WND 16026/1009 T00560039=
201801221004 SPECI KPAE 221004Z AUTO 15017KT 10SM SCT015 SCT070 BKN090 06/04 A3005 RMK AO2 T00560039=
201801220953 METAR KPAE 220953Z AUTO 15018G22KT 10SM BKN018 BKN049 OVC110 06/04 A3004 RMK AO2 RAB14E40 SLP176 P0000 T00560039=
201801220935 SPECI KPAE 220935Z AUTO 15018G23KT 10SM -RA FEW016 BKN023 OVC032 06/04 A3004 RMK AO2 RAB14 P0000 T00560039=
201801220922 SPECI KPAE 220922Z AUTO 16017KT 10SM -RA SCT021 BKN030 OVC047 06/04 A3004 RMK AO2 RAB14 P0000 T00560039=
201801220853 METAR KPAE 220853Z AUTO 15016KT 10SM OVC026 06/03 A3003 RMK AO2 SLP173 60004 T00560033 51016=
201801220829 SPECI KPAE 220829Z AUTO 15018KT 10SM OVC025 06/03 A3002 RMK AO2 T00560033=
201801220753 METAR KPAE 220753Z AUTO 14015G21KT 10SM FEW028 SCT038 BKN050 06/03 A3002 RMK AO2 SLP168 P0001 T00560033 400940044=
201801220707 SPECI KPAE 220707Z AUTO 14016G21KT 10SM FEW015 SCT022 BKN100 06/04 A3001 RMK AO2 T00560039=
201801220653 METAR KPAE 220653Z AUTO 14015G21KT 10SM BKN017 BKN022 06/04 A3001 RMK AO2 RAE45 SLP164 P0003 T00560039=
201801220617 SPECI KPAE 220617Z AUTO 14009KT 4SM -RA BR FEW015 BKN027 OVC036 06/04 A3000 RMK AO2 P0001 T00560039=
201801220553 METAR KPAE 220553Z AUTO 13015G21KT 9SM -RA SCT026 OVC037 06/03 A2999 RMK AO2 RAB50 SLP157 P0000 60003 T00560033 10067 20044 53019=
201801220546 SPECI KPAE 220546Z AUTO 13015KT 10SM FEW024 SCT028 BKN035 06/03 A2999 RMK AO2 T00560033=
201801220531 SPECI KPAE 220531Z AUTO 14013KT 10SM FEW021 BKN026 OVC035 06/03 A2998 RMK AO2 T00560033=
201801220453 METAR KPAE 220453Z 14014KT 10SM FEW025 SCT033 06/03 A2997 RMK AO2 SLP150 T00560033=
201801220353 METAR KPAE 220353Z 13015G24KT 10SM FEW020 05/03 A2995 RMK AO2 SLP144 T00500033=
201801220253 METAR KPAE 220253Z 14011KT 10SM CLR 05/03 A2993 RMK AO2 PK WND 16034/0156 SLP138 60003 T00500033 53024=
201801220153 METAR KPAE 220153Z 17022G33KT 10SM FEW070 SCT110 06/02 A2991 RMK AO2 PK WND 17033/0152 PRESRR SLP132 T00560022=
201801220053 METAR KPAE 220053Z 15021G25KT 10SM FEW055 BKN090 OVC110 06/03 A2986 RMK AO2 PK WND 16038/0016 RAB08E35 SLP114 P0003 T00560028=
201801212353 METAR KPAE 212353Z 14013KT 10SM FEW065 SCT120 06/04 A2986 RMK AO2 PK WND 16028/2310 RAE23 SLP113 P0000 60002 T00610039 10083 20061 53019=
201801212253 METAR KPAE 212253Z 17017G29KT 10SM -RA BKN030 BKN050 OVC100 07/04 A2984 RMK AO2 PK WND 17031/2157 RAB50 SLP106 P0000 T00720039=
201801212153 METAR KPAE 212153Z 16017G29KT 10SM BKN026 BKN032 08/04 A2982 RMK AO2 PK WND 16032/2058 SLP098 T00830039=
201801212127 SPECI KPAE 212127Z 16021G28KT 10SM SCT021 BKN028 BKN033 08/04 A2981 RMK AO2 PK WND 16032/2058 T00780039=
201801212053 METAR KPAE 212053Z 16024G33KT 10SM FEW017 FEW036 FEW075 08/04 A2980 RMK AO2 PK WND 15040/1955 RAE07 SLP093 P0000 60002 T00780044 51026=
201801211953 METAR KPAE 211953Z 16023G41KT 10SM -RA SCT027 BKN041 OVC050 08/04 A2978 RMK AO2 PK WND 15041/1947 SLP086 P0001 T00780044=
201801211853 METAR KPAE 211853Z 13006KT 10SM -RA OVC040 07/04 A2976 RMK AO2 RAE1757B19 SLP081 P0001 T00720044=
201801211753 METAR KPAE 211753Z 12010KT 10SM -RA OVC041 07/04 A2972 RMK AO2 SLP067 P0004 60017 T00670044 10094 20067 56009=
201801211653 METAR KPAE 211653Z 11012G21KT 070V140 6SM -RA OVC037 07/04 A2973 RMK AO2 SLP068 P0005 T00670039=
201801211553 METAR KPAE 211553Z 12016G22KT 8SM -RA OVC038 08/04 A2972 RMK AO2 PK WND 12029/1517 SLP066 P0005 T00780039=
201801211453 METAR KPAE 211453Z 12017G25KT 9SM -RA OVC039 08/02 A2975 RMK AO2 PK WND 15028/1422 SLP077 P0003 60003 T00830022 56025=
201801211353 METAR KPAE 211353Z AUTO 12011G28KT 10SM -RA OVC044 09/02 A2977 RMK AO2 PK WND 12040/1316 SLP083 P0000 T00940017=
201801211253 METAR KPAE 211253Z AUTO 13022G39KT 10SM -RA OVC048 09/02 A2980 RMK AO2 PK WND 13039/1245 SLP093 P0000 T00940022=
201801211153 METAR KPAE 211153Z AUTO 14022G38KT 10SM -RA FEW055 OVC075 09/02 A2983 RMK AO2 PK WND 15038/1150 RAE01B44 SLP102 P0000 60001 70001 T00890022 10089 20078 56019=
201801211053 METAR KPAE 211053Z AUTO 14020G35KT 10SM -RA OVC050 08/03 A2983 RMK AO2 PK WND 14035/1045 SLP104 P0001 T00830028=
201801210953 METAR KPAE 210953Z AUTO 14020G30KT 10SM -RA BKN050 OVC070 09/02 A2985 RMK AO2 PK WND 15036/0918 RAB40 SLP112 P0000 T00890022=
201801210853 METAR KPAE 210853Z AUTO 13020G30KT 10SM SCT060 OVC080 09/01 A2988 RMK AO2 PK WND 12032/0817 SLP122 60000 T00890011 58015=
201801210753 METAR KPAE 210753Z AUTO 12018G29KT 10SM BKN060 OVC090 09/01 A2990 RMK AO2 PK WND 14029/0729 SLP129 T00890011 400890039=
201801210653 METAR KPAE 210653Z AUTO 13019G28KT 10SM BKN047 OVC060 08/02 A2992 RMK AO2 PK WND 13030/0601 RAE01 SLP134 P0000 T00830017=
201801210553 METAR KPAE 210553Z AUTO 13017G25KT 10SM -RA OVC045 08/02 A2993 RMK AO2 PK WND 13029/0529 RAB18 SLP137 P0000 60000 T00780022 10083 20067 56012=
201801210453 METAR KPAE 210453Z AUTO 13020G27KT 10SM FEW032 BKN045 OVC070 08/02 A2994 RMK AO2 PK WND 13028/0430 SLP141 T00830022=
201801210353 METAR KPAE 210353Z 12019G25KT 10SM FEW033 BKN042 BKN050 08/03 A2995 RMK AO2 SLP144 T00780028=
201801210253 METAR KPAE 210253Z 13018G24KT 10SM BKN040 BKN050 07/03 A2996 RMK AO2 PK WND 12026/0216 SLP149 T00720033 56014=
201801210153 METAR KPAE 210153Z 13017G25KT 10SM SCT065 BKN080 OVC090 07/04 A2998 RMK AO2 SLP157 T00670039=
201801210053 METAR KPAE 210053Z 13019G23KT 10SM SCT016 07/04 A2998 RMK AO2 SLP156 T00670039=
201801202353 METAR KPAE 202353Z 13013KT 10SM SCT019 BKN028 OVC100 07/03 A3000 RMK AO2 SLP164 60000 T00670033 10067 20050 58005=
201801202344 SPECI KPAE 202344Z 12017KT 10SM SCT022 BKN030 OVC100 07/03 A3001 RMK AO2 T00670033=
201801202253 METAR KPAE 202253Z 12013KT 10SM BKN019 OVC039 06/03 A3001 RMK AO2 SLP164 T00610033=
201801202153 METAR KPAE 202153Z 14014KT 10SM BKN019 BKN025 OVC032 06/03 A3002 RMK AO2 SLP168 T00610033=
201801202100 SPECI KPAE 202100Z 13016G23KT 10SM BKN013 BKN032 BKN100 06/04 A3002 RMK AO2 T00610039=
201801202053 METAR KPAE 202053Z 13014KT 10SM OVC016 06/04 A3002 RMK AO2 RAB04E14 SLP168 P0000 60000 T00610039 58006=
201801201953 METAR KPAE 201953Z 13014KT 10SM OVC016 06/03 A3004 RMK AO2 SLP174 T00610033=
201801201853 METAR KPAE 201853Z 14012KT 10SM OVC014 06/03 A3005 RMK AO2 SLP179 T00560028=
201801201753 METAR KPAE 201753Z 13011KT 10SM OVC013 05/03 A3004 RMK AO2 SLP176 T00500028 10050 20039 51012=
201801201749 SPECI KPAE 201749Z 12012KT 10SM BKN013 OVC019 05/03 A3004 RMK AO2=
201801201722 SPECI KPAE 201722Z 13011KT 10SM BKN016 OVC022 05/03 A3003 RMK AO2 T00500028=
201801201653 METAR KPAE 201653Z 14012KT 10SM OVC012 04/02 A3003 RMK AO2 SLP171 T00440022=
201801201553 METAR KPAE 201553Z 13010G17KT 10SM OVC014 04/02 A3000 RMK AO2 SLP163 T00440022=
201801201453 METAR KPAE 201453Z 13011KT 10SM OVC013 04/02 A3000 RMK AO2 SLP162 T00440022 51008=
201801201413 SPECI KPAE 201413Z AUTO 13011KT 10SM BKN014 OVC021 04/02 A3000 RMK AO2 T00440022=
201801201353 METAR KPAE 201353Z AUTO 13012KT 10SM SCT014 OVC021 04/02 A3000 RMK AO2 PK WND 13026/1322 SLP162 T00440022=
201801201344 SPECI KPAE 201344Z AUTO 13015KT 10SM FEW010 SCT015 OVC021 04/02 A3000 RMK AO2 PK WND 13026/1322 T00440022=
201801201253 METAR KPAE 201253Z AUTO 14011G18KT 10SM BKN014 04/02 A2998 RMK AO2 SLP154 T00390022=
201801201249 SPECI KPAE 201249Z AUTO 15012G18KT 10SM BKN013 04/02 A2997 RMK AO2=
201801201153 METAR KPAE 201153Z AUTO 14015KT 10SM SCT015 BKN120 04/02 A2996 RMK AO2 SLP148 60000 70003 T00440022 10061 20044 50003=
201801201150 SPECI KPAE 201150Z AUTO 14014G23KT 10SM BKN015 OVC120 05/02 A2996 RMK AO2=
201801201053 METAR KPAE 201053Z AUTO 16015KT 10SM BKN014 OVC021 06/03 A2995 RMK AO2 SLP145 T00560033=
201801201050 SPECI KPAE 201050Z AUTO 15014KT 10SM BKN016 OVC021 06/03 A2995 RMK AO2=
201801201018 SPECI KPAE 201018Z AUTO 16013KT 10SM OVC014 06/03 A2994 RMK AO2 T00560033=
201801200953 METAR KPAE 200953Z AUTO 17010KT 10SM BKN016 OVC021 06/03 A2993 RMK AO2 RAB09E18 SLP139 P0000 T00560033=
201801200853 METAR KPAE 200853Z AUTO 17016KT 10SM BKN015 OVC020 06/03 A2992 RMK AO2 PK WND 15026/0800 SLP136 T00560033 51013=
201801200844 SPECI KPAE 200844Z AUTO 17016G20KT 10SM BKN015 OVC110 06/03 A2992 RMK AO2 PK WND 15026/0800 T00560033=
201801200753 METAR KPAE 200753Z AUTO 16016KT 10SM OVC014 06/03 A2992 RMK AO2 SLP134 T00610033 400670039=
201801200653 METAR KPAE 200653Z AUTO 16017G23KT 10SM OVC014 06/03 A2991 RMK AO2 PK WND 15031/0554 SLP132 T00610033=
201801200553 METAR KPAE 200553Z AUTO 15020G28KT 10SM BKN015 OVC080 06/03 A2988 RMK AO2 PK WND 15032/0531 SLP122 60000 T00610033 10067 20061 53005=
201801200453 METAR KPAE 200453Z AUTO 16022G31KT 10SM OVC019 07/03 A2988 RMK AO2 PK WND 16031/0451 RAE0358 SLP119 P0000 T00670033=
201801200353 METAR KPAE 200353Z 16020G27KT 10SM -RA BKN022 OVC031 07/03 A2987 RMK AO2 PK WND 15027/0340 SLP117 P0000 T00670033=
201801200253 METAR KPAE 200253Z 16020G26KT 10SM -RA BKN021 OVC026 07/03 A2987 RMK AO2 PK WND 15026/0251 SLP117 P0000 60000 T00670033 53001=
201801200153 METAR KPAE 200153Z 15015G22KT 10SM -RA BKN023 BKN028 OVC033 06/03 A2986 RMK AO2 SLP115 P0000 T00610033=
201801200053 METAR KPAE 200053Z 14015G22KT 10SM -RA OVC028 06/03 A2987 RMK AO2 SLP118 P0000 T00610033=
201801200042 SPECI KPAE 200042Z 13014KT 10SM -RA BKN028 OVC033 06/03 A2987 RMK AO2 P0000 T00610033=
201801192353 METAR KPAE 192353Z 12013KT 10SM -RA BKN030 BKN070 OVC085 06/03 A2987 RMK AO2 SLP117 P0000 60003 T00610033 10067 20056 55002=
201801192253 METAR KPAE 192253Z 13014KT 10SM -RA FEW048 BKN075 OVC090 06/03 A2986 RMK AO2 SLP116 P0001 T00610033=
201801192153 METAR KPAE 192153Z 12015KT 10SM -RA SCT028 BKN040 OVC050 07/03 A2986 RMK AO2 SLP116 P0001 T00670033=
201801192053 METAR KPAE 192053Z 13014G23KT 10SM -RA FEW026 BKN045 OVC055 07/03 A2987 RMK AO2 PK WND 13027/2019 SLP118 P0001 60001 T00670033 58001=
201801191953 METAR KPAE 191953Z 13015G25KT 10SM -RA SCT036 BKN050 OVC100 07/03 A2988 RMK AO2 RAE1854B49 SLP120 P0000 T00670028=
201801191853 METAR KPAE 191853Z 14014G23KT 10SM -RA FEW034 SCT049 07/02 A2988 RMK AO2 SLP122 P0000 T00670022=
201801191753 METAR KPAE 191753Z 13012G19KT 10SM -RA SCT039 BKN060 OVC070 06/03 A2988 RMK AO2 RAB36 SLP120 P0000 60000 T00560028 10056 20039 53015=
201801191653 METAR KPAE 191653Z 12012KT 10SM SCT035 BKN100 05/02 A2986 RMK AO2 SLP115 T00500022=
201801191553 METAR KPAE 191553Z 12011KT 10SM BKN038 OVC050 05/02 A2984 RMK AO2 SLP109 T00500022=
201801191453 METAR KPAE 191453Z 13011KT 10SM BKN110 05/02 A2983 RMK AO2 SLP106 60000 T00500022 53004=
201801191353 METAR KPAE 191353Z AUTO 13013KT 10SM FEW041 SCT048 BKN060 05/02 A2982 RMK AO2 RAB32E47 SLP101 P0000 T00500022=
201801191253 METAR KPAE 191253Z AUTO 12010KT 10SM SCT050 SCT060 BKN090 04/02 A2982 RMK AO2 SLP102 T00440017=
201801191153 METAR KPAE 191153Z AUTO 12009KT 10SM FEW110 04/02 A2982 RMK AO2 SLP101 70010 T00390017 10050 20039 51005=
201801191053 METAR KPAE 191053Z AUTO 12011KT 10SM FEW022 SCT060 04/02 A2982 RMK AO2 SLP100 T00440022=
201801190953 METAR KPAE 190953Z AUTO 12011KT 10SM CLR 04/02 A2981 RMK AO2 SLP097 T00440022=
201801190853 METAR KPAE 190853Z AUTO 13011KT 10SM BKN050 OVC060 05/02 A2980 RMK AO2 SLP095 T00500022 50008=
201801190753 METAR KPAE 190753Z AUTO 13011KT 10SM FEW044 BKN060 BKN070 05/02 A2981 RMK AO2 SLP095 T00500022 401060044=
201801190653 METAR KPAE 190653Z AUTO 12010KT 10SM SCT042 OVC055 05/03 A2980 RMK AO2 SLP095 T00500028=
201801190553 METAR KPAE 190553Z AUTO 11006KT 10SM FEW018 SCT025 BKN047 04/04 A2978 RMK AO2 RAB06E44 SLP087 P0001 60007 T00440044 10061 20044 51001=
201801190532 SPECI KPAE 190532Z AUTO 13014KT 7SM -RA BKN021 BKN032 BKN046 04/03 A2979 RMK AO2 RAB06 P0001 T00440033=
201801190453 METAR KPAE 190453Z AUTO 14012G20KT 10SM CLR 04/03 A2978 RMK AO2 RAE33 SLP087 P0000 T00440033=
201801190436 SPECI KPAE 190436Z 12015G23KT 10SM FEW017 SCT033 05/03 A2978 RMK AO2 RAE33 P0000 T00500033=
201801190427 SPECI KPAE 190427Z 12014G21KT 9SM -RA BKN016 BKN033 05/03 A2977 RMK AO2 P0000 T00500033=
201801190353 METAR KPAE 190353Z 12010KT 8SM -RA FEW029 BKN037 BKN049 05/04 A2978 RMK AO2 RAB33 SLP086 P0001 T00500039=
201801190253 METAR KPAE 190253Z 13012KT 10SM FEW033 05/03 A2978 RMK AO2 RAB0154E27 SLP087 P0000 60005 T00500033 53005=
201801190217 SPECI KPAE 190217Z 16013G24KT 10SM -RA FEW011 BKN035 OVC100 05/03 A2975 RMK AO2 RAB0154 P0000 T00500033=
201801190153 METAR KPAE 190153Z 15015G21KT 10SM BKN025 BKN034 BKN046 05/03 A2976 RMK AO2 RAE0055 SLP081 P0000 T00500033=
201801190100 SPECI KPAE 190100Z 14008KT 10SM FEW012 BKN035 BKN042 06/03 A2976 RMK AO2 RAE0055 P0000 T00560028=
201801190053 METAR KPAE 190053Z 13011G22KT 10SM -RA SCT008 BKN025 OVC038 06/03 A2976 RMK AO2 RAE12B30 SLP082 P0005 T00610033=
201801190043 SPECI KPAE 190043Z 15015G20KT 4SM -RA BR SCT008 BKN025 OVC038 06/04 A2977 RMK AO2 RAE12B30 P0005 T00560039=
201801182353 METAR KPAE 182353Z AUTO 13008KT 8SM -RA BKN011 BKN028 OVC034 06/04 A2976 RMK AO2 RAE14B38 SLP080 P0001 60002 T00610044 10089 20061 55005=
201801182333 SPECI KPAE 182333Z 15009KT 10SM FEW009 BKN019 OVC030 06/04 A2976 RMK AO2 RAE14 P0000 T00610044=
201801182253 METAR KPAE 182253Z 15015G25KT 10SM -RA SCT019 BKN050 OVC085 07/04 A2974 RMK AO2 RAB49 SLP074 P0000 T00670039=
201801182153 METAR KPAE 182153Z 15010KT 10SM FEW029 BKN036 OVC060 07/04 A2975 RMK AO2 PK WND 16029/2124 RAE51 SLP075 P0001 T00720044=
201801182053 METAR KPAE 182053Z 16015G20KT 10SM -RA SCT035 BKN043 OVC100 08/03 A2978 RMK AO2 RAB47 SLP085 P0000 60000 T00830033 56012=
201801181953 METAR KPAE 181953Z 12012G19KT 10SM BKN055 09/03 A2978 RMK AO2 SLP087 T00890028=
201801181853 METAR KPAE 181853Z 13013KT 10SM BKN065 08/03 A2980 RMK AO2 SLP092 T00830033=
201801181753 METAR KPAE 181753Z 13013G21KT 10SM SCT046 08/04 A2981 RMK AO2 SLP097 60001 T00780039 10078 20050 51012=
201801181653 METAR KPAE 181653Z 13014G25KT 10SM BR BKN036 07/04 A2981 RMK AO2 SLP095 T00670039=
201801181553 METAR KPAE 181553Z 13017G23KT 10SM FEW029 06/04 A2980 RMK AO2 SLP092 T00610039=
201801181453 METAR KPAE 181453Z 14012G21KT 10SM CLR 06/04 A2978 RMK AO2 PK WND 13026/1412 SLP086 60001 T00560039 55001=
201801181353 METAR KPAE 181353Z AUTO 14013KT 10SM FEW075 BKN090 OVC110 06/04 A2977 RMK AO2 PK WND 14028/1301 SLP084 T00560044=
201801181253 METAR KPAE 181253Z AUTO 14019G26KT 10SM OVC049 05/04 A2976 RMK AO2 PK WND 14027/1242 RAB06E50 SLP081 P0001 T00500039=
201801181153 METAR KPAE 181153Z AUTO 16016G23KT 10SM BKN046 OVC070 06/04 A2978 RMK AO2 RAB1057E52 SLP086 P0002 60023 70058 T00610039 10106 20061 51008=
201801181053 METAR KPAE 181053Z AUTO 15016KT 10SM SCT041 BKN050 OVC100 07/05 A2977 RMK AO2 PK WND 17026/1029 RAE26 SLP083 P0006 T00670050=
201801180953 METAR KPAE 180953Z AUTO 17015KT 7SM -RA OVC030 06/06 A2978 RMK AO2 PK WND 21038/0918 RAB19 SLP086 P0015 T00610056=
201801180942 SPECI KPAE 180942Z AUTO 18019G27KT 4SM -RA BR FEW015 OVC026 06/06 A2978 RMK AO2 PK WND 21038/0918 RAB19 P0013 T00610056=
201801180923 SPECI KPAE 180923Z AUTO 18018G38KT 2 1/2SM +RA BR FEW022 BKN026 OVC075 07/05 A2978 RMK AO2 PK WND 21038/0918 RAB19 P0007 T00720050=
201801180853 METAR KPAE 180853Z AUTO 15017G23KT 10SM SCT043 OVC065 09/06 A2976 RMK AO2 PK WND 18034/0822 RAB19E33 SLP077 P0000 60000 T00890056 53012=
201801180818 SPECI KPAE 180818Z AUTO 18018G26KT 10SM FEW038 BKN047 BKN110 10/06 A2976 RMK AO2 PK WND 15033/0801 T01000061=
201801180803 SPECI KPAE 180803Z AUTO 16026G34KT 10SM VCTS BKN100 10/06 A2974 RMK AO2 PK WND 15033/0801 T01000061=
201801180753 METAR KPAE 180753Z AUTO 15021G32KT 10SM BKN100 10/07 A2973 RMK AO2 PK WND 13032/0749 SLP067 T01000072 401280056=
201801180653 METAR KPAE 180653Z AUTO 14015G21KT 10SM FEW033 SCT055 BKN070 10/08 A2974 RMK AO2 LTG DSNT S SLP072 T01000083=
201801180553 METAR KPAE 180553Z AUTO 13015KT 10SM FEW018 FEW040 SCT060 10/08 A2972 RMK AO2 PK WND 15028/0512 RAE0458B00E18 SLP066 P0000 60018 T01000083 10106 20100 55003=
201801180453 METAR KPAE 180453Z AUTO 14015KT 10SM -RA FEW038 BKN060 OVC080 10/09 A2971 RMK AO2 PK WND 13027/0430 RAE04B41 SLP062 P0000 T01000089=
201801180436 SPECI KPAE 180436Z 14015G27KT 10SM FEW009 SCT065 OVC090 10/09 A2972 RMK AO2 PK WND 13027/0430 RAE04 P0000 T01000089=
201801180353 METAR KPAE 180353Z 14016G26KT 10SM -RA BKN060 BKN075 OVC100 10/08 A2973 RMK AO2 PK WND 15026/0353 RAB47 SLP067 P0000 T01000083=
201801180314 SPECI KPAE 180314Z 14015G24KT 10SM FEW009 BKN085 OVC100 10/09 A2973 RMK AO2 T01000089=
201801180253 METAR KPAE 180253Z 14020G24KT 10SM FEW010 BKN070 OVC095 10/09 A2973 RMK AO2 PK WND 14031/0230 RAE22 SLP069 P0001 60018 T01000089 58013=
201801180233 SPECI KPAE 180233Z 15022G31KT 10SM SCT055 BKN070 10/08 A2973 RMK AO2 PK WND 14031/0230 RAE22 P0001 T01000078=
201801180153 METAR KPAE 180153Z 14017G25KT 3SM -RA BR SCT008 BKN016 OVC042 10/09 A2977 RMK AO2 PK WND 13028/0058 SLP081 P0007 T01000089=
201801180150 SPECI KPAE 180150Z 14018G25KT 3SM -RA BR SCT008 BKN016 OVC042 10/09 A2976 RMK AO2 PK WND 13028/0058 P0007=
201801180141 SPECI KPAE 180141Z 15018G24KT 3SM -RA BR BKN014 BKN033 OVC050 10/09 A2976 RMK AO2 PK WND 13028/0058 P0006 T01000089=
201801180053 METAR KPAE 180053Z 14018G29KT 4SM -RA BR OVC050 11/08 A2977 RMK AO2 PK WND 12029/0040 SLP081 P0010 T01060083=
201801172353 METAR KPAE 172353Z 13015KT 3SM -RA BR OVC049 10/09 A2977 RMK AO2 SLP082 P0013 60016 T01000089 10128 20089 55009=
201801172253 METAR KPAE 172253Z 12010G23KT 5SM -RA OVC060 12/06 A2975 RMK AO2 RAB11 SLP077 P0003 T01170056=
201801172153 METAR KPAE 172153Z 09007G15KT 10SM FEW090 BKN110 12/04 A2973 RMK AO2 SLP070 T01170044=
201801172053 METAR KPAE 172053Z 11004KT 10SM CLR 12/04 A2980 RMK AO2 SLP091 T01170044 58048=
201801171953 METAR KPAE 171953Z 11006KT 10SM BKN060 BKN085 11/04 A2985 RMK AO2 SLP110 T01110044=
201801171853 METAR KPAE 171853Z VRB05G16KT 10SM OVC055 10/04 A2991 RMK AO2 SLP128 T01000044=
201801171753 METAR KPAE 171753Z VRB06KT 10SM OVC055 09/05 A2994 RMK AO2 SLP140 60001 T00940050 10100 20078 56019=
201801171653 METAR KPAE 171653Z 09008KT 10SM OVC050 10/05 A2995 RMK AO2 SLP142 T01000050=
201801171553 METAR KPAE 171553Z 11008G15KT 080V140 10SM OVC050 09/05 A2995 RMK AO2 RAE08 SLP145 P0000 T00940050=
201801171453 METAR KPAE 171453Z 12010KT 10SM -RA OVC048 09/04 A3000 RMK AO2 SLP159 P0001 60001 T00890039 56021=
201801171353 METAR KPAE 171353Z AUTO 12009KT 10SM -RA BKN060 OVC070 09/02 A3001 RMK AO2 RAB29 SLP163 P0000 T00940022=
201801171253 METAR KPAE 171253Z AUTO 11007KT 10SM SCT060 BKN075 OVC090 09/02 A3002 RMK AO2 RAB28E39 SLP167 P0000 T00890017=
201801171153 METAR KPAE 171153Z AUTO 17007KT 10SM OVC085 08/02 A3006 RMK AO2 SLP181 70006 T00780022 10089 20056 55013=
201801171053 METAR KPAE 171053Z AUTO VRB05KT 10SM OVC110 08/01 A3005 RMK AO2 SLP178 T00830011=
201801170953 METAR KPAE 170953Z AUTO VRB05KT 10SM CLR 08/02 A3007 RMK AO2 SLP186 T00780022=
201801170853 METAR KPAE 170853Z AUTO VRB04KT 10SM CLR 08/02 A3010 RMK AO2 SLP194 T00780022 58026=
201801170753 METAR KPAE 170753Z AUTO 17004KT 10SM CLR 07/03 A3013 RMK AO2 SLP205 T00670033 401110067=
201801170653 METAR KPAE 170653Z AUTO 08006KT 10SM CLR 07/03 A3014 RMK AO2 SLP210 T00720033=
201801170553 METAR KPAE 170553Z AUTO 08008KT 10SM CLR 08/04 A3018 RMK AO2 SLP220 60001 T00780039 10106 20072 58023=
201801170453 METAR KPAE 170453Z AUTO 08006KT 10SM CLR 08/04 A3022 RMK AO2 SLP235 T00780044=
201801170353 METAR KPAE 170353Z VRB06KT 10SM CLR 08/04 A3024 RMK AO2 SLP242 T00830044=
201801170253 METAR KPAE 170253Z 12007KT 10SM CLR 09/04 A3024 RMK AO2 SLP244 60001 T00940039 55001=
201801170153 METAR KPAE 170153Z 12006KT 10SM SCT070 09/04 A3023 RMK AO2 SLP240 T00940039=
201801170053 METAR KPAE 170053Z 13009KT 10SM FEW049 SCT060 10/04 A3024 RMK AO2 RAB03E20 SLP241 P0001 T01000044=
201801162353 METAR KPAE 162353Z 19003KT 10SM SCT040 OVC049 09/06 A3025 RMK AO2 RAB16E49 SLP245 P0000 60005 T00890061 10111 20083 51014=
201801162253 METAR KPAE 162253Z 13009KT 10SM FEW026 FEW042 BKN055 10/06 A3023 RMK AO2 RAE37 SLP239 P0002 T01000056=
201801162153 METAR KPAE 162153Z 19011KT 10SM -RA BKN034 OVC041 08/06 A3023 RMK AO2 RAB18 SLP237 P0002 T00830061=
201801162053 METAR KPAE 162053Z 15013G19KT 10SM FEW027 BKN037 BKN044 10/06 A3020 RMK AO2 PK WND 15027/2000 RAB26E39 SLP230 P0001 60001 T01000056 51015=
201801161953 METAR KPAE 161953Z 15021G28KT 10SM FEW027 11/06 A3020 RMK AO2 PK WND 14028/1952 SLP228 T01060056=
201801161853 METAR KPAE 161853Z 15015KT 10SM FEW024 10/06 A3020 RMK AO2 PK WND 16026/1824 SLP226 T01000061=
201801161753 METAR KPAE 161753Z 14015KT 10SM FEW010 09/07 A3016 RMK AO2 RAE09 SLP213 P0000 60000 T00940072 10094 20089 53023=
201801161721 SPECI KPAE 161721Z 13013KT 10SM FEW011 SCT041 BKN049 09/07 A3015 RMK AO2 RAE09 P0000 T00890072=
201801161653 METAR KPAE 161653Z 12013KT 8SM -RA BKN006 OVC012 09/08 A3013 RMK AO2 RAB05E14B46 SLP204 P0000 T00890078=
201801161553 METAR KPAE 161553Z 14012KT 10SM BKN006 OVC023 09/08 A3010 RMK AO2 RAB32E42 SLP195 P0000 T00890078=
201801161543 SPECI KPAE 161543Z 14012KT 10SM SCT008 BKN023 OVC050 09/08 A3010 RMK AO2 RAB32E42 P0000 T00890078=
201801161453 METAR KPAE 161453Z AUTO 14010KT 10SM BKN008 09/08 A3009 RMK AO2 CIG 006V013 SLP190 60000 T00890078 51009=
201801161402 SPECI KPAE 161402Z AUTO 15009KT 10SM BKN008 BKN013 OVC021 09/08 A3009 RMK AO2 CIG 005V011 T00890078=
201801161353 METAR KPAE 161353Z AUTO 14010KT 10SM SCT008 BKN012 OVC021 09/08 A3008 RMK AO2 RAB24E34 SLP188 P0000 T00890083=
201801161330 SPECI KPAE 161330Z AUTO 13011KT 10SM -RA FEW009 BKN023 OVC060 09/08 A3008 RMK AO2 RAB24 P0000 T00890083=
201801161253 METAR KPAE 161253Z AUTO 13009KT 10SM BKN029 OVC038 09/08 A3008 RMK AO2 SLP185 T00890083=
201801161153 METAR KPAE 161153Z AUTO 14007KT 10SM BKN021 OVC034 09/08 A3006 RMK AO2 RAE08 SLP180 P0000 60012 70014 T00890083 10117 20089 53015=
201801161053 METAR KPAE 161053Z AUTO 12008KT 7SM -RA BKN050 OVC070 09/08 A3004 RMK AO2 RAB0956 SLP172 P0003 T00940083=
201801160953 METAR KPAE 160953Z AUTO 11009G16KT 10SM OVC065 09/08 A3002 RMK AO2 RAE46 SLP166 P0000 T00940083=
201801160911 SPECI KPAE 160911Z AUTO 12011KT 10SM -RA FEW019 SCT025 OVC060 09/09 A3002 RMK AO2 P0000 T00940089=
201801160853 METAR KPAE 160853Z AUTO 13012KT 7SM -RA BKN023 OVC030 09/08 A3002 RMK AO2 SLP164 P0001 60009 T00890083 51025=
201801160845 SPECI KPAE 160845Z AUTO 15011KT 8SM -RA BKN023 OVC030 09/08 A3002 RMK AO2 P0000 T00890078=
201801160753 METAR KPAE 160753Z AUTO 16007KT 10SM -RA OVC060 09/08 A3000 RMK AO2 SLP160 P0002 T00940078 401670072=
201801160653 METAR KPAE 160653Z AUTO 12007KT 6SM -RA OVC060 11/07 A2997 RMK AO2 SLP151 P0006 T01060067=
201801160553 METAR KPAE 160553Z AUTO 13006KT 10SM -RA OVC070 11/06 A2994 RMK AO2 SLP140 P0002 60002 T01110061 10167 20100 51028=
201801160453 METAR KPAE 160453Z 19007KT 10SM -RA BKN070 OVC100 12/04 A2993 RMK AO2 RAB48 SLP137 P0000 T01220039=
201801160353 METAR KPAE 160353Z 12012G17KT 10SM SCT110 14/02 A2989 RMK AO2 SLP123 T01440017=
201801160253 METAR KPAE 160253Z 12011G14KT 10SM CLR 14/02 A2986 RMK AO2 SLP111 T01390022 56011=
201801160153 METAR KPAE 160153Z 11006KT 10SM SCT110 14/02 A2986 RMK AO2 SLP113 T01390022=
201801160053 METAR KPAE 160053Z VRB05KT 10SM FEW110 15/03 A2988 RMK AO2 SLP120 T01500028=
201801152353 METAR KPAE 152353Z VRB03KT 10SM CLR 17/04 A2989 RMK AO2 SLP121 T01670039 10167 20106 55014=
201801152253 METAR KPAE 152253Z 12006KT 10SM CLR 17/04 A2989 RMK AO2 SLP120 T01670039=
201801152153 METAR KPAE 152153Z 09008KT 070V150 10SM CLR 17/03 A2990 RMK AO2 SLP124 T01670033=
201801152053 METAR KPAE 152053Z 09006KT 10SM CLR 16/04 A2993 RMK AO2 SLP135 T01610039 58038=
201801151953 METAR KPAE 151953Z 10006KT 10SM CLR 14/04 A2998 RMK AO2 SLP154 T01440044=
201801151853 METAR KPAE 151853Z VRB05KT 10SM CLR 14/04 A3002 RMK AO2 SLP166 T01390044=
201801151753 METAR KPAE 151753Z 12008KT 10SM CLR 12/04 A3005 RMK AO2 SLP175 T01170039 10117 20072 51005=
201801151653 METAR KPAE 151653Z VRB05KT 10SM CLR 09/04 A3004 RMK AO2 SLP176 T00940044=
201801151553 METAR KPAE 151553Z 13008KT 10SM CLR 09/03 A3004 RMK AO2 SLP176 T00940033=
201801151453 METAR KPAE 151453Z 12007KT 10SM CLR 09/03 A3003 RMK AO2 SLP172 T00940033 55009=
201801151353 METAR KPAE 151353Z AUTO 10004KT 10SM CLR 10/03 A3002 RMK AO2 SLP168 T01000033=
201801151253 METAR KPAE 151253Z AUTO 00000KT 10SM CLR 07/03 A3005 RMK AO2 SLP177 T00720033=
201801151153 METAR KPAE 151153Z AUTO 07003KT 10SM CLR 10/03 A3006 RMK AO2 SLP179 T01000033 10111 20094 58009=
201801151053 METAR KPAE 151053Z AUTO 06004KT 10SM CLR 11/03 A3008 RMK AO2 SLP184 T01060033=
201801150953 METAR KPAE 150953Z AUTO 07005KT 10SM CLR 11/03 A3009 RMK AO2 SLP189 T01110033=
201801150853 METAR KPAE 150853Z AUTO 07007KT 10SM CLR 10/04 A3009 RMK AO2 SLP189 T01000039 58004=
201801150753 METAR KPAE 150753Z AUTO 08005KT 10SM CLR 10/04 A3009 RMK AO2 SLP191 T01000044 401500033=
201801150653 METAR KPAE 150653Z AUTO VRB06KT 10SM CLR 11/04 A3010 RMK AO2 SLP194 T01110039=
201801150553 METAR KPAE 150553Z AUTO 08005KT 10SM CLR 11/04 A3010 RMK AO2 SLP194 T01060039 10122 20083 50001=
201801150453 METAR KPAE 150453Z AUTO 07005KT 10SM CLR 10/04 A3010 RMK AO2 SLP196 T01000044=
201801150353 METAR KPAE 150353Z 00000KT 10SM CLR 09/04 A3010 RMK AO2 SLP197 T00940044=
201801150253 METAR KPAE 150253Z 07003KT 10SM CLR 11/05 A3010 RMK AO2 SLP194 T01060050 58009=
201801150153 METAR KPAE 150153Z 11003KT 10SM CLR 11/05 A3011 RMK AO2 SLP198 T01110050=
201801150053 METAR KPAE 150053Z 00000KT 10SM CLR 09/07 A3012 RMK AO2 SLP203 T00940067=
201801142353 METAR KPAE 142353Z 00000KT 10SM CLR 12/07 A3012 RMK AO2 SLP203 T01170072 10150 20061 55005=
201801142253 METAR KPAE 142253Z 00000KT 10SM CLR 14/07 A3011 RMK AO2 SLP200 T01440067=
201801142153 METAR KPAE 142153Z 00000KT 10SM CLR 13/08 A3012 RMK AO2 SLP202 T01280078=
201801142053 METAR KPAE 142053Z 00000KT 10SM CLR 13/08 A3014 RMK AO2 SLP208 T01330083 58010=
201801141953 METAR KPAE 141953Z 00000KT 10SM CLR 12/08 A3015 RMK AO2 SLP212 T01220083=
201801141853 METAR KPAE 141853Z 00000KT 10SM CLR 09/07 A3017 RMK AO2 SLP218 T00940067=
201801141753 METAR KPAE 141753Z 35004KT 10SM BCFG CLR 06/06 A3017 RMK AO2 SLP220 T00610056 10061 20033 56005=
201801141700 SPECI KPAE 141700Z 35004KT 10SM BCFG CLR 04/04 A3018 RMK AO2 T00440044=
201801141658 SPECI KPAE 141658Z 34005KT 2 1/2SM BCFG FEW001 04/04 A3018 RMK AO2 T00440044=
201801141653 METAR KPAE 141653Z 34005KT 10SM BCFG CLR 04/04 A3018 RMK AO2 SLP223 T00440044=
201801141553 METAR KPAE 141553Z 35006KT 10SM R16R/3500VP6000FT BCFG FEW001 04/04 A3017 RMK AO2 SLP222 T00390039=
201801141502 SPECI KPAE 141502Z 35004KT 10SM R16R/1800V2600FT BCFG FEW001 04/04 A3019 RMK AO2 T00390039=
201801141453 METAR KPAE 141453Z 35006KT 1/4SM R16R/2000V2800FT FG VV001 04/04 A3019 RMK AO2 SLP226 T00390039 56014=
201801141451 SPECI KPAE 141451Z AUTO 35005KT 1/4SM R16R/2000V2800FT FG VV001 04/04 A3019 RMK AO2=
201801141437 SPECI KPAE 141437Z AUTO 36006KT 1/4SM R16R/1600V1800FT FG VV001 04/04 A3019 RMK AO2 T00390039=
201801141429 SPECI KPAE 141429Z AUTO 35008KT 1/2SM R16R/1600V2000FT FG VV001 04/04 A3019 RMK AO2 T00390039=
201801141416 SPECI KPAE 141416Z AUTO 35006KT 1/4SM R16R/1200V1400FT FG VV001 04/04 A3020 RMK AO2 T00390039=
201801141401 SPECI KPAE 141401Z AUTO 35006KT 1/4SM R16R/1200VP6000FT FG VV001 04/04 A3021 RMK AO2 T00440039=
201801141358 SPECI KPAE 141358Z AUTO 35006KT 1SM R16R/2800VP6000FT BR VV001 04/04 A3021 RMK AO2 T00440039=
201801141353 METAR KPAE 141353Z AUTO 34003KT 7SM FEW001 04/04 A3021 RMK AO2 SLP232 T00390039=
201801141346 SPECI KPAE 141346Z AUTO 34003KT 6SM BR SCT001 04/04 A3021 RMK AO2 T00390039=
201801141336 SPECI KPAE 141336Z AUTO 34003KT 3SM BR BKN001 04/04 A3021 RMK AO2 T00440044=
201801141333 SPECI KPAE 141333Z AUTO 34004KT 1SM R16R/3500VP6000FT BR VV001 04/04 A3021 RMK AO2 T00440044=
201801141323 SPECI KPAE 141323Z AUTO 34004KT 1/4SM R16R/2400V2800FT FG VV001 04/04 A3021 RMK AO2 T00390039=
201801141315 SPECI KPAE 141315Z AUTO 35005KT 1 3/4SM R16R/2400VP6000FT BR BKN001 04/04 A3022 RMK AO2 T00440039=
201801141253 METAR KPAE 141253Z AUTO 33003KT 7SM SCT001 04/04 A3023 RMK AO2 SLP240 T00390039=
201801141217 SPECI KPAE 141217Z AUTO 35005KT 6SM BR BKN001 04/04 A3024 RMK AO2 T00440044=
201801141210 SPECI KPAE 141210Z AUTO 35006KT 2 1/2SM BR BKN001 04/04 A3024 RMK AO2 T00440044=
201801141201 SPECI KPAE 141201Z AUTO 33005KT 1/2SM R16R/P6000FT FG OVC001 05/04 A3024 RMK AO2 T00500044=
201801141153 METAR KPAE 141153Z AUTO 35006KT 1 1/2SM BR OVC001 05/04 A3024 RMK AO2 SLP243 T00500044 10061 20044 58014=
201801141053 METAR KPAE 141053Z AUTO 34004KT 3SM R16R/2200V5000FT BR OVC001 05/04 A3026 RMK AO2 SLP250 T00500044=
201801141041 SPECI KPAE 141041Z AUTO 33004KT 4SM BR BKN001 04/04 A3027 RMK AO2 T00440044=
201801141032 SPECI KPAE 141032Z AUTO 32004KT 2SM BR BKN001 04/04 A3027 RMK AO2 T00440044=
201801141028 SPECI KPAE 141028Z AUTO 33003KT 1 3/4SM BR BKN002 04/04 A3027 RMK AO2 T00440044=
201801140953 METAR KPAE 140953Z AUTO 33004KT 7SM BKN002 05/04 A3027 RMK AO2 SLP251 T00500044=
201801140943 SPECI KPAE 140943Z AUTO 34005KT 8SM BKN002 05/04 A3027 RMK AO2 T00500044=
201801140853 METAR KPAE 140853Z AUTO 33003KT 8SM FEW002 05/05 A3028 RMK AO2 SLP258 T00500050 58010=
201801140822 SPECI KPAE 140822Z AUTO 33004KT 9SM SCT001 05/05 A3029 RMK AO2 T00500050=
201801140753 METAR KPAE 140753Z AUTO 33005KT 6SM BR OVC001 06/06 A3030 RMK AO2 SLP265 T00560056 401220056=
201801140750 SPECI KPAE 140750Z AUTO 33005KT 6SM BR OVC001 06/05 A3030 RMK AO2=
201801140737 SPECI KPAE 140737Z AUTO 33004KT 6SM BR BKN002 06/05 A3031 RMK AO2 T00560050=
201801140718 SPECI KPAE 140718Z AUTO 32006KT 10SM FEW002 06/05 A3031 RMK AO2 T00560050=
201801140653 METAR KPAE 140653Z AUTO 32004KT 10SM CLR 06/05 A3031 RMK AO2 SLP268 T00560050=
201801140553 METAR KPAE 140553Z AUTO 32005KT 10SM FEW002 06/06 A3033 RMK AO2 SLP272 T00610056 10111 20061 56003=
201801140507 SPECI KPAE 140507Z AUTO 33004KT 10SM SCT002 06/06 A3032 RMK AO2 T00610061=
201801140453 METAR KPAE 140453Z AUTO 33007KT 8SM BKN002 07/06 A3033 RMK AO2 SLP272 T00670061=
201801140444 SPECI KPAE 140444Z 34006KT 8SM SCT002 07/06 A3033 RMK AO2 T00670061=
201801140353 METAR KPAE 140353Z 32005KT 10SM CLR 07/06 A3033 RMK AO2 SLP275 T00670061=
201801140253 METAR KPAE 140253Z 33005KT 10SM CLR 07/06 A3034 RMK AO2 SLP276 T00720061 56014=
201801140153 METAR KPAE 140153Z 33004KT 10SM CLR 08/07 A3034 RMK AO2 SLP278 T00780072=
201801140053 METAR KPAE 140053Z 33003KT 10SM FEW001 09/08 A3036 RMK AO2 SLP284 T00890083=
201801132353 METAR KPAE 132353Z 35006KT 10SM CLR 11/09 A3038 RMK AO2 SLP289 T01110089 10122 20083 56010=
201801132253 METAR KPAE 132253Z VRB03KT 10SM FEW012 12/09 A3038 RMK AO2 SLP289 T01220089=
201801132241 SPECI KPAE 132241Z 00000KT 10SM SCT009 BKN014 12/09 A3038 RMK AO2 T01220089=
201801132153 METAR KPAE 132153Z 07005KT 10SM BKN009 OVC014 11/09 A3039 RMK AO2 SLP293 T01110094=
201801132053 METAR KPAE 132053Z 08006KT 9SM OVC009 09/08 A3041 RMK AO2 SLP299 T00940083 58010=
201801131953 METAR KPAE 131953Z 08007KT 3SM BCFG BKN009 BKN012 OVC021 09/08 A3042 RMK AO2 SLP305 T00890083=
201801131935 SPECI KPAE 131935Z 08005KT 3SM BCFG BKN009 BKN012 OVC021 09/08 A3043 RMK AO2 T00940083=
201801131916 SPECI KPAE 131916Z 07004KT 7SM BCFG SCT002 OVC015 09/08 A3043 RMK AO2 T00940083=
201801131853 METAR KPAE 131853Z VRB03KT 7SM BCFG OVC015 09/08 A3044 RMK AO2 SLP309 T00940083=
201801131824 SPECI KPAE 131824Z VRB03KT 7SM BCFG OVC016 09/08 A3044 RMK AO2 T00890083=
201801131753 METAR KPAE 131753Z VRB03KT 1 1/2SM BR OVC010 08/08 A3044 RMK AO2 SLP309 T00830078 10089 20078 51010=
201801131726 SPECI KPAE 131726Z VRB03KT 1 1/2SM BR OVC011 08/07 A3043 RMK AO2 T00830072=
201801131653 METAR KPAE 131653Z VRB03KT 10SM OVC013 08/07 A3043 RMK AO2 SLP305 T00830072=
201801131651 SPECI KPAE 131651Z 11003KT 10SM OVC013 08/07 A3042 RMK AO2=
201801131553 METAR KPAE 131553Z 08006KT 10SM SCT015 OVC024 08/07 A3041 RMK AO2 SLP299 T00780067=
201801131453 METAR KPAE 131453Z 09006KT 10SM OVC015 08/07 A3040 RMK AO2 SLP298 T00780067 51004=
201801131353 METAR KPAE 131353Z 08007KT 10SM OVC014 08/07 A3040 RMK AO2 SLP296 T00830067=
201801131253 METAR KPAE 131253Z VRB04KT 10SM OVC012 08/07 A3040 RMK AO2 SLP296 T00830072=
201801131153 METAR KPAE 131153Z 12009KT 10SM OVC011 09/08 A3039 RMK AO2 CIG 008V013 SLP294 60001 70008 T00890078 10089 20089 50012=
201801131053 METAR KPAE 131053Z 12010KT 10SM OVC013 09/08 A3039 RMK AO2 SLP294 T00890078=
201801131032 SPECI KPAE 131032Z 14009KT 10SM BKN015 OVC022 09/08 A3039 RMK AO2 T00890078=
201801130955 SPECI KPAE 130955Z 15011KT 10SM FEW009 BKN014 OVC035 09/07 A3037 RMK AO2 T00890072=
201801130953 METAR KPAE 130953Z 15013KT 10SM SCT010 BKN016 OVC080 09/08 A3037 RMK AO2 SLP287 T00890078=
201801130916 SPECI KPAE 130916Z 15013KT 10SM OVC010 09/08 A3036 RMK AO2 CIG 006V013 T00890078=
201801130853 METAR KPAE 130853Z 14011KT 8SM OVC008 09/08 A3036 RMK AO2 SLP281 60001 T00890078 50002=
201801130836 SPECI KPAE 130836Z 13012KT 10SM OVC009 09/08 A3035 RMK AO2 CIG 006V012 T00890078=
201801130825 SPECI KPAE 130825Z 14010KT 10SM OVC010 09/08 A3035 RMK AO2 CIG 006V012 T00890078=
201801130817 SPECI KPAE 130817Z 13012KT 10SM OVC008 09/08 A3036 RMK AO2 CIG 005V012 T00890078=
201801130753 METAR KPAE 130753Z 13009KT 9SM FEW007 BKN010 OVC031 09/08 A3036 RMK AO2 RAE34 SLP282 P0001 T00890078 401000056=
201801130743 SPECI KPAE 130743Z 14011KT 8SM SCT005 BKN017 OVC030 09/08 A3035 RMK AO2 RAE34 P0001 T00890078=
201801130653 METAR KPAE 130653Z 14011KT 4SM -RA BR BKN006 OVC011 09/08 A3035 RMK AO2 RAE09B45 CIG 004V008 SLP281 P0000 T00890083=
201801130553 METAR KPAE 130553Z 13013KT 8SM -RA BKN005 OVC040 09/08 A3035 RMK AO2 RAB0454E09B53 SLP280 P0000 60007 T00890078 10089 20083 58005=
201801130539 SPECI KPAE 130539Z 13011KT 9SM BKN005 BKN065 OVC085 09/08 A3035 RMK AO2 RAB0454E09 P0000 T00890078=
201801130524 SPECI KPAE 130524Z 13012KT 10SM SCT004 BKN055 OVC090 09/08 A3035 RMK AO2 RAB0454E09 P0000 T00890078=
201801130453 METAR KPAE 130453Z 14011KT 9SM BKN055 OVC070 09/08 A3036 RMK AO2 RAE16 SLP281 P0001 T00890078=
201801130353 METAR KPAE 130353Z 15010KT 10SM -RA FEW007 OVC050 08/08 A3036 RMK AO2 SLP284 P0003 T00830078=
201801130331 SPECI KPAE 130331Z 14008KT 9SM -RA FEW008 SCT011 OVC050 08/08 A3036 RMK AO2 P0002 T00830078=
201801130310 SPECI KPAE 130310Z 15007KT 10SM -RA BKN012 OVC050 08/07 A3036 RMK AO2 P0001 T00830072=
201801130253 METAR KPAE 130253Z 16008KT 10SM -RA SCT008 OVC060 08/07 A3037 RMK AO2 SLP285 P0002 60003 T00830072 53009=
201801130200 SPECI KPAE 130200Z 17009KT 10SM -RA SCT008 OVC060 08/07 A3035 RMK AO2 P0000 T00830072=
201801130153 METAR KPAE 130153Z 17010KT 10SM -RA SCT008 OVC012 08/07 A3035 RMK AO2 SLP280 P0001 T00830067=
201801130114 SPECI KPAE 130114Z 17007KT 10SM -RA SCT008 OVC012 08/07 A3034 RMK AO2 P0001 T00830072=
201801130112 SPECI KPAE 130112Z 17007KT 10SM -RA SCT012 OVC049 08/07 A3034 RMK AO2 P0001 T00830072=
201801130053 METAR KPAE 130053Z 17007KT 10SM -RA SCT008 OVC012 08/07 A3035 RMK AO2 RAB19 SLP279 P0000 T00830072=
201801122353 METAR KPAE 122353Z 20009KT 10SM SCT008 OVC012 09/07 A3034 RMK AO2 SLP276 T00890067 10100 20089 53020=
201801122253 METAR KPAE 122253Z 17016G22KT 10SM OVC014 09/07 A3031 RMK AO2 PK WND 17026/2236 SLP265 T00940072=
201801122153 METAR KPAE 122153Z 17014G24KT 10SM OVC014 09/07 A3029 RMK AO2 PK WND 17029/2134 SLP259 T00940072=
201801122053 METAR KPAE 122053Z 17016G23KT 10SM BKN010 09/08 A3028 RMK AO2 PK WND 16027/2040 SLP257 T00940078 51019=
201801121953 METAR KPAE 121953Z 16019G26KT 10SM OVC012 09/08 A3027 RMK AO2 PK WND 16030/1929 SLP252 T00940078=
201801121853 METAR KPAE 121853Z 15020G24KT 10SM OVC012 09/08 A3025 RMK AO2 PK WND 15027/1831 SLP246 T00940078=
201801121753 METAR KPAE 121753Z 16019G28KT 10SM BKN014 09/07 A3022 RMK AO2 PK WND 15030/1721 SLP237 T00940072 10094 20089 53023=
201801121740 SPECI KPAE 121740Z 15021KT 10SM BKN014 09/07 A3021 RMK AO2 PK WND 15030/1721 T00940072=
201801121653 METAR KPAE 121653Z 15020G28KT 10SM SCT010 SCT014 09/07 A3019 RMK AO2 PK WND 16028/1644 SLP224 T00940072=
201801121557 SPECI KPAE 121557Z 14015G24KT 10SM BKN009 09/07 A3016 RMK AO2 T00890072=
201801121553 METAR KPAE 121553Z 15015G24KT 10SM BKN014 09/07 A3016 RMK AO2 PK WND 14026/1456 SLP215 T00890072=
201801121453 METAR KPAE 121453Z 15016G24KT 10SM BKN013 OVC075 09/07 A3015 RMK AO2 SLP213 T00940072 50010=
201801121449 SPECI KPAE 121449Z 15016G22KT 10SM BKN013 OVC075 09/07 A3015 RMK AO2=
201801121412 SPECI KPAE 121412Z AUTO 14016G25KT 10SM SCT010 BKN075 09/08 A3015 RMK AO2 T00940078=
201801121353 METAR KPAE 121353Z AUTO 14018KT 10SM BKN010 BKN014 09/08 A3014 RMK AO2 PK WND 15027/1320 CIG 008V012 SLP208 T00940078=
201801121303 SPECI KPAE 121303Z AUTO 15019G25KT 10SM BKN011 09/08 A3012 RMK AO2 T00890078=
201801121253 METAR KPAE 121253Z AUTO 15020KT 10SM BKN009 BKN014 09/08 A3012 RMK AO2 PK WND 16026/1248 CIG 007V012 SLP202 T00890083=
201801121153 METAR KPAE 121153Z AUTO 16017G25KT 10SM BKN008 OVC017 09/08 A3010 RMK AO2 CIG 006V011 SLP194 60006 70068 T00940083 10094 20056 53022=
201801121132 SPECI KPAE 121132Z AUTO 16019KT 10SM BKN009 OVC016 09/08 A3008 RMK AO2 CIG 006V012 T00940083=
201801121122 SPECI KPAE 121122Z AUTO 16016G25KT 10SM FEW006 OVC011 09/08 A3008 RMK AO2 T00940083=
201801121053 METAR KPAE 121053Z AUTO 15015KT 10SM BKN008 OVC012 09/09 A3007 RMK AO2 CIG 005V010 SLP186 T00890089=
201801121015 SPECI KPAE 121015Z AUTO 15014KT 10SM OVC005 08/07 A3006 RMK AO2 CIG 002V008 T00780072=
201801120953 METAR KPAE 120953Z AUTO 12003KT 10SM OVC003 06/06 A3006 RMK AO2 RAB0856E06 SLP181 P0001 T00610061=
201801120910 SPECI KPAE 120910Z AUTO 00000KT 4SM BR OVC004 06/06 A3004 RMK AO2 RAB0856E06 CIG 002V007 P0001 T00560056=
201801120901 SPECI KPAE 120901Z AUTO 00000KT 2 1/2SM -RA BR OVC004 06/05 A3004 RMK AO2 RAB0856 CIG 002V007 P0000 T00560050=
201801120853 METAR KPAE 120853Z AUTO 01003KT 3SM BR OVC002 06/06 A3003 RMK AO2 RAB0754E04B17E29 CIG 002V005 SLP174 P0001 60005 T00560056 51023=
201801120848 SPECI KPAE 120848Z AUTO 00000KT 3SM BR OVC002 06/06 A3003 RMK AO2 RAB0754E04B17E29 P0001=
201801120821 SPECI KPAE 120821Z AUTO 00000KT 2SM -RA BR OVC002 06/06 A3002 RMK AO2 RAB0754E04B17 P0001 T00560056=
201801120808 SPECI KPAE 120808Z AUTO 00000KT 3SM R16R/5000VP6000FT BR OVC002 06/06 A3001 RMK AO2 RAB0754E04 P0000 T00560056=
201801120753 METAR KPAE 120753Z AUTO 33003KT 1SM R16R/3000VP6000FT BR VV002 06/06 A3000 RMK AO2 RAE17 SLP163 P0002 T00560056 400940039=
201801120746 SPECI KPAE 120746Z AUTO 33004KT 1 3/4SM R16R/4000VP6000FT BR OVC002 06/06 A3000 RMK AO2 RAE17 P0002 T00560056=
201801120733 SPECI KPAE 120733Z AUTO 33005KT 3SM BR OVC003 06/06 A2999 RMK AO2 RAE17 P0002 T00560056=
201801120710 SPECI KPAE 120710Z AUTO 00000KT 1 1/2SM R16R/6000VP6000FT -RA BR OVC003 06/06 A2998 RMK AO2 P0001 T00560056=
201801120653 METAR KPAE 120653Z AUTO 35005KT 3/4SM R16R/4500V6000FT -RA BR VV003 06/06 A2996 RMK AO2 RAB01E15B39 SLP150 P0002 T00610056=
201801120641 SPECI KPAE 120641Z AUTO 34003KT 1 1/4SM R16R/6000VP6000FT -RA BR OVC004 06/06 A2995 RMK AO2 RAB01E15B39 P0002 T00610056=
201801120618 SPECI KPAE 120618Z AUTO 00000KT 2SM R16R/6000VP6000FT BR BKN004 OVC008 06/06 A2994 RMK AO2 RAB01E15 P0001 T00610061=
201801120606 SPECI KPAE 120606Z AUTO 34003KT 1 1/2SM -RA BR OVC003 06/06 A2993 RMK AO2 RAB01 P0001 T00610061=
201801120553 METAR KPAE 120553Z AUTO 31003KT 2 1/2SM BR OVC002 06/06 A2993 RMK AO2 RAE39 SLP138 P0002 60006 T00610061 10094 20061 51026=
201801120542 SPECI KPAE 120542Z AUTO 00000KT 3SM BR BKN002 OVC008 06/06 A2992 RMK AO2 RAE39 P0002 T00610061=
201801120509 SPECI KPAE 120509Z AUTO 00000KT 2SM -RA BR OVC002 07/07 A2990 RMK AO2 P0001 T00670067=
201801120453 METAR KPAE 120453Z AUTO 34003KT 3/4SM R16R/2400V4500FT -RA BR VV002 07/07 A2989 RMK AO2 RAE0358B22 SLP123 P0002 T00670067=
201801120353 METAR KPAE 120353Z 00000KT 1/2SM R16R/5000VP6000FT -RA FG OVC002 07/07 A2985 RMK AO2 SLP110 P0001 T00720067=
201801120253 METAR KPAE 120253Z 21006KT 3SM -RA BR BKN002 OVC008 07/07 A2981 RMK AO2 RAB45 SLP097 P0001 60001 T00720072 53039=
201801120224 SPECI KPAE 120224Z 19007KT 3SM BR BKN002 OVC008 08/07 A2979 RMK AO2 T00780072=
201801120153 METAR KPAE 120153Z 19007KT 10SM BKN005 BKN009 OVC015 08/08 A2977 RMK AO2 CIG 003V006 SLP084 T00830078=
201801120053 METAR KPAE 120053Z 16009KT 10SM OVC005 09/08 A2973 RMK AO2 SLP069 T00890078=
201801120009 SPECI KPAE 120009Z 17009KT 10SM OVC008 09/08 A2970 RMK AO2 T00890078=
201801120002 SPECI KPAE 120002Z 16014KT 10SM OVC010 09/08 A2969 RMK AO2 T00890078=
201801112353 METAR KPAE 112353Z 16012KT 10SM OVC008 09/08 A2969 RMK AO2 SLP057 60016 T00890078 10089 20050 53017=
201801112253 METAR KPAE 112253Z 14011KT 8SM BKN004 OVC010 09/08 A2967 RMK AO2 SLP049 T00890078=
201801112153 METAR KPAE 112153Z 12010G17KT 2SM BR BKN002 BKN010 OVC028 08/07 A2965 RMK AO2 RAE2058 SLP042 P0000 T00780067=
201801112053 METAR KPAE 112053Z 08010KT 2SM -RA BR BKN002 BKN026 OVC035 06/05 A2964 RMK AO2 SLP041 P0004 60016 T00560050 56019=
201801111953 METAR KPAE 111953Z 08009KT 2SM -RA BR BKN002 BKN026 OVC035 05/04 A2966 RMK AO2 SLP046 P0006 T00500044=
201801111948 SPECI KPAE 111948Z 08010KT 4SM R16R/6000VP6000FT -RA BR BKN005 BKN026 OVC035 05/04 A2967 RMK AO2 P0006=
201801111935 SPECI KPAE 111935Z 08010KT 5SM -RA BR FEW005 BKN023 OVC040 05/04 A2968 RMK AO2 P0004 T00500044=
201801111853 METAR KPAE 111853Z 07010KT 8SM -RA FEW005 BKN043 OVC050 05/04 A2970 RMK AO2 SLP061 P0006 T00500044=
201801111820 SPECI KPAE 111820Z 07012KT 3SM -RA BR SCT005 BKN043 OVC050 05/04 A2972 RMK AO2 P0002 T00500044=
201801111800 SPECI KPAE 111800Z 06009KT 7SM -RA OVC045 05/04 A2974 RMK AO2 P0000 T00500044=
201801111753 METAR KPAE 111753Z 06007KT 1 1/2SM -RA BR BKN002 OVC040 05/04 A2974 RMK AO2 SLP074 P0010 60040 T00500044 10067 20044 58042=
201801111715 SPECI KPAE 111715Z 07007KT 1 1/2SM -RA BR BKN005 BKN023 OVC033 05/04 A2977 RMK AO2 PRESFR P0004 T00500044=
201801111653 METAR KPAE 111653Z 07007KT 4SM -RA BR SCT005 BKN023 OVC039 05/04 A2980 RMK AO2 SLP094 P0010 T00500044=
201801111625 SPECI KPAE 111625Z 09009KT 6SM -RA BR BKN004 BKN017 OVC025 05/04 A2981 RMK AO2 P0006 T00500044=
201801111617 SPECI KPAE 111617Z VRB05G16KT 7SM -RA SCT004 BKN017 OVC025 06/04 A2981 RMK AO2 P0004 T00560044=
201801111553 METAR KPAE 111553Z 07007KT 6SM -RA BR OVC004 06/06 A2981 RMK AO2 CIG 003V008 SLP099 P0008 T00610056=
201801111453 METAR KPAE 111453Z 12008KT 8SM -RA FEW003 BKN008 OVC012 07/07 A2986 RMK AO2 SLP115 P0010 60012 T00670067 58023=
201801111440 SPECI KPAE 111440Z AUTO 13007KT 7SM -RA BKN008 BKN015 OVC041 07/07 A2987 RMK AO2 P0008 T00670067=
201801111435 SPECI KPAE 111435Z AUTO 12010KT 6SM -RA BR SCT011 BKN015 OVC041 07/07 A2988 RMK AO2 P0008 T00670067=
201801111353 METAR KPAE 111353Z AUTO 13011KT 9SM -RA FEW007 OVC046 07/06 A2989 RMK AO2 RAB16 SLP125 P0002 T00670061=
201801111308 SPECI KPAE 111308Z AUTO 13013KT 10SM FEW004 SCT011 OVC060 06/06 A2990 RMK AO2 T00610056=
201801111253 METAR KPAE 111253Z AUTO 13012KT 10SM SCT003 BKN010 OVC065 06/06 A2991 RMK AO2 SLP130 T00610056=
201801111153 METAR KPAE 111153Z AUTO 13009KT 6SM BR OVC002 06/06 A2993 RMK AO2 SLP139 60001 70007 T00560056 10056 20039 56014=
201801111150 SPECI KPAE 111150Z AUTO 13011KT 5SM BR OVC002 06/05 A2993 RMK AO2=
201801111136 SPECI KPAE 111136Z AUTO 12012G17KT 4SM BR OVC001 05/05 A2994 RMK AO2 T00500050=
201801111110 SPECI KPAE 111110Z AUTO VRB04KT 3SM BR OVC002 04/04 A2995 RMK AO2 T00440044=
201801111053 METAR KPAE 111053Z AUTO VRB06KT 1 1/2SM BR OVC002 04/04 A2995 RMK AO2 SLP145 T00390039=
201801111051 SPECI KPAE 111051Z AUTO 08007KT 1 3/4SM BR OVC002 04/04 A2995 RMK AO2=
201801111029 SPECI KPAE 111029Z AUTO 10004KT 7SM BKN004 OVC008 04/04 A2997 RMK AO2 T00440039=
201801111013 SPECI KPAE 111013Z AUTO VRB05KT 7SM BKN006 BKN013 OVC024 04/04 A2997 RMK AO2 T00440039=
201801111007 SPECI KPAE 111007Z AUTO VRB04KT 6SM BR FEW004 BKN015 OVC024 04/04 A2997 RMK AO2 T00440039=
201801111005 SPECI KPAE 111005Z AUTO VRB05KT 6SM BR BKN013 BKN019 OVC024 04/04 A2997 RMK AO2 T00440039=
201801110953 METAR KPAE 110953Z AUTO VRB05KT 8SM FEW010 SCT017 OVC023 04/04 A2997 RMK AO2 SLP154 T00440039=
201801110936 SPECI KPAE 110936Z AUTO 12005KT 10SM FEW003 SCT020 OVC027 04/04 A2998 RMK AO2 T00440039=
201801110905 SPECI KPAE 110905Z AUTO 09005KT 10SM BKN029 BKN037 OVC044 04/04 A2998 RMK AO2 T00440039=
201801110853 METAR KPAE 110853Z AUTO 08007KT 10SM SCT029 OVC042 04/04 A2998 RMK AO2 SLP154 60001 T00440039 56013=
201801110753 METAR KPAE 110753Z AUTO 09007KT 10SM SCT030 BKN036 OVC055 04/03 A2998 RMK AO2 RAE10 SLP157 P0000 T00440033 400670033=
201801110653 METAR KPAE 110653Z AUTO 08007KT 4SM -RA BR OVC041 04/04 A2999 RMK AO2 RAE14B41 SLP159 P0001 T00440039=
201801110553 METAR KPAE 110553Z AUTO VRB03KT 9SM -RA BKN050 OVC070 04/04 A3002 RMK AO2 SLP168 P0002 60006 T00440039 10056 20044 55006=
201801110528 SPECI KPAE 110528Z AUTO VRB03KT 10SM -RA SCT023 BKN043 OVC070 04/03 A3002 RMK AO2 P0001 T00440033=
201801110453 METAR KPAE 110453Z VRB03KT 9SM -RA BKN022 BKN029 OVC050 04/04 A3001 RMK AO2 SLP167 P0001 T00440039=
201801110353 METAR KPAE 110353Z 09005KT 10SM -RA OVC029 05/04 A3002 RMK AO2 RAE18B45 SLP169 P0002 T00500039=
201801110334 SPECI KPAE 110334Z 08006KT 10SM BKN027 BKN070 OVC080 05/04 A3002 RMK AO2 RAE18 P0002 T00500039=
201801110253 METAR KPAE 110253Z 00000KT 10SM -RA OVC037 06/04 A3003 RMK AO2 RAB13 SLP174 P0001 60001 T00560039 52003=
201801110153 METAR KPAE 110153Z VRB03KT 10SM SCT006 BKN028 OVC033 06/04 A3003 RMK AO2 RAB46E53 SLP171 P0000 T00560044=
201801110053 METAR KPAE 110053Z 12006KT 10SM SCT006 BKN019 OVC060 06/04 A3003 RMK AO2 SLP173 T00560044=
201801110043 SPECI KPAE 110043Z 12008KT 10SM SCT006 BKN019 OVC060 06/04 A3003 RMK AO2 T00610044=
201801110004 SPECI KPAE 110004Z 12005KT 10SM BKN011 BKN019 OVC060 06/04 A3003 RMK AO2 T00610044=
201801102353 METAR KPAE 102353Z 12006KT 10SM FEW011 BKN019 OVC060 06/04 A3002 RMK AO2 SLP171 T00610044 10067 20044 53005=
201801102253 METAR KPAE 102253Z 15006KT 10SM FEW006 BKN017 OVC090 07/04 A3001 RMK AO2 SLP165 T00670039=
201801102153 METAR KPAE 102153Z 16008KT 10SM BKN014 OVC110 06/04 A3001 RMK AO2 SLP164 T00610039=
201801102053 METAR KPAE 102053Z 18008KT 10SM BKN014 OVC110 06/04 A3001 RMK AO2 SLP165 T00610039 51008=
201801101953 METAR KPAE 101953Z 16007KT 10SM BKN013 OVC090 06/04 A3000 RMK AO2 SLP162 T00560039=
201801101853 METAR KPAE 101853Z 15006KT 10SM SCT006 BKN011 05/03 A3000 RMK AO2 SLP164 T00500033=
201801101822 SPECI KPAE 101822Z 15007KT 10SM SCT005 OVC011 05/03 A2999 RMK AO2 T00500033=
201801101753 METAR KPAE 101753Z 15005KT 10SM BKN005 OVC009 04/04 A2998 RMK AO2 SLP157 T00440039 10044 20033 53024=
201801101653 METAR KPAE 101653Z 17006KT 10SM OVC014 04/03 A2996 RMK AO2 SLP148 T00440033=
201801101625 SPECI KPAE 101625Z 14005KT 10SM BKN012 04/03 A2994 RMK AO2 T00390033=
201801101602 SPECI KPAE 101602Z 16004KT 10SM FEW009 FEW015 SCT028 04/03 A2993 RMK AO2 T00390033=
201801101600 SPECI KPAE 101600Z 16005KT 10SM FEW010 SCT015 BKN028 04/03 A2993 RMK AO2 T00390033=
201801101553 METAR KPAE 101553Z 15005KT 10SM FEW010 OVC030 04/03 A2993 RMK AO2 SLP138 T00390033=
201801101453 METAR KPAE 101453Z 15005KT 10SM BKN032 OVC110 04/03 A2991 RMK AO2 SLP132 T00440033 53015=
201801101353 METAR KPAE 101353Z AUTO 13005KT 10SM SCT029 BKN035 OVC110 04/03 A2989 RMK AO2 SLP125 T00440033=
201801101317 SPECI KPAE 101317Z AUTO 12006KT 10SM SCT029 OVC110 04/03 A2988 RMK AO2 T00390033=
201801101308 SPECI KPAE 101308Z AUTO 12004KT 10SM BKN029 OVC110 04/03 A2988 RMK AO2 T00390033=
201801101253 METAR KPAE 101253Z AUTO VRB03KT 10SM SCT028 OVC110 04/03 A2988 RMK AO2 SLP120 T00390033=
201801101153 METAR KPAE 101153Z AUTO 12005KT 10SM FEW010 OVC034 04/03 A2987 RMK AO2 SLP118 60000 70039 T00390033 10044 20033 51014=
201801101133 SPECI KPAE 101133Z AUTO 13005KT 10SM SCT009 OVC034 04/03 A2986 RMK AO2 T00390033=
201801101124 SPECI KPAE 101124Z AUTO VRB03KT 10SM SCT010 OVC034 04/03 A2986 RMK AO2 T00390033=
201801101053 METAR KPAE 101053Z AUTO 12007KT 10SM BKN011 OVC031 04/03 A2986 RMK AO2 SLP115 T00390028=
201801101037 SPECI KPAE 101037Z AUTO 12007KT 10SM OVC030 03/03 A2986 RMK AO2 T00330028=
201801101018 SPECI KPAE 101018Z AUTO VRB04KT 9SM FEW009 BKN028 OVC046 04/03 A2986 RMK AO2 T00390033=
201801100953 METAR KPAE 100953Z AUTO 07004KT 10SM SCT011 BKN041 BKN048 04/03 A2985 RMK AO2 SLP110 T00390033=
201801100853 METAR KPAE 100853Z AUTO 12006KT 10SM BKN043 04/03 A2982 RMK AO2 SLP103 60000 T00390033 51016=
201801100843 SPECI KPAE 100843Z AUTO 13004KT 10SM SCT028 BKN043 04/03 A2982 RMK AO2 T00390033=
201801100753 METAR KPAE 100753Z AUTO 12007KT 10SM OVC027 04/03 A2981 RMK AO2 RAB13E36 SLP098 P0000 T00440033 400720044=
201801100653 METAR KPAE 100653Z AUTO 11004KT 10SM OVC019 04/03 A2980 RMK AO2 SLP093 T00440028=
201801100624 SPECI KPAE 100624Z 12006KT 10SM BKN023 OVC090 04/03 A2979 RMK AO2 T00440033=
201801100553 METAR KPAE 100553Z 10003KT 10SM OVC080 04/03 A2978 RMK AO2 SLP086 60033 T00440033 10067 20044 51019=
201801100500 SPECI KPAE 100500Z 09005KT 10SM SCT022 BKN033 OVC070 05/03 A2976 RMK AO2 T00500033=
201801100453 METAR KPAE 100453Z 06004KT 10SM SCT007 BKN012 OVC019 05/03 A2976 RMK AO2 RAE40 SLP079 P0007 T00500033=
201801100410 SPECI KPAE 100410Z 15005KT 4SM -RA BR SCT007 BKN012 OVC019 05/03 A2976 RMK AO2 P0005 T00500033=
201801100353 METAR KPAE 100353Z VRB03KT 4SM RA BR FEW007 SCT014 OVC020 05/04 A2976 RMK AO2 SLP080 P0010 T00500039=
201801100350 SPECI KPAE 100350Z 24005KT 4SM -RA BR FEW007 SCT014 OVC020 05/03 A2976 RMK AO2 P0010=
201801100346 SPECI KPAE 100346Z VRB05KT 4SM RA BR BKN009 BKN014 OVC020 05/03 A2976 RMK AO2 P0009 T00500033=
201801100317 SPECI KPAE 100317Z 35003KT 5SM -RA BR SCT009 BKN014 OVC035 06/05 A2974 RMK AO2 P0002 T00560050=
201801100310 SPECI KPAE 100310Z 29003KT 7SM -RA BKN009 OVC034 06/05 A2973 RMK AO2 P0001 T00560050=
201801100253 METAR KPAE 100253Z 34005KT 4SM -RA BR FEW011 FEW020 OVC034 06/05 A2972 RMK AO2 SLP067 P0007 60016 T00560050 51006=
201801100239 SPECI KPAE 100239Z VRB03KT 8SM -RA FEW015 FEW020 OVC034 06/05 A2972 RMK AO2 P0005 T00560050=
201801100153 METAR KPAE 100153Z 33004KT 5SM -RA BR SCT014 BKN020 OVC027 06/04 A2971 RMK AO2 SLP064 P0008 T00560044=
201801100117 SPECI KPAE 100117Z 00000KT 4SM R16R/3500VP6000FT -RA BR SCT016 BKN022 OVC027 06/05 A2972 RMK AO2 P0003 T00610050=
201801100100 SPECI KPAE 100100Z 00000KT 4SM -RA BR BKN014 OVC020 06/05 A2972 RMK AO2 P0001 T00560050=
201801100053 METAR KPAE 100053Z 18003KT 5SM -RA BR BKN005 OVC016 06/05 A2972 RMK AO2 RAE18B53 SLP065 P0001 T00560050=
201801092353 METAR KPAE 092353Z 30004KT 5SM -RA BR BKN005 OVC016 07/04 A2970 RMK AO2 RAB19 SLP061 P0000 60001 T00670044 10072 20061 53017=
201801092334 SPECI KPAE 092334Z 32003KT 5SM -RA BR SCT005 BKN010 OVC022 07/04 A2970 RMK AO2 RAB19 P0000 T00670044=
201801092253 METAR KPAE 092253Z VRB04KT 10SM OVC021 07/04 A2968 RMK AO2 RAB40E50 SLP054 P0000 T00720044=
201801092153 METAR KPAE 092153Z 32006KT 10SM SCT017 OVC024 07/04 A2966 RMK AO2 SLP045 T00720044=
201801092053 METAR KPAE 092053Z 32007KT 10SM BKN017 OVC026 07/05 A2965 RMK AO2 SLP043 60001 T00720050 51013=
201801092045 SPECI KPAE 092045Z 33009KT 10SM BKN016 OVC026 07/06 A2965 RMK AO2 T00720056=
201801091953 METAR KPAE 091953Z 32008KT 10SM OVC012 07/06 A2965 RMK AO2 SLP041 T00720056=
201801091901 SPECI KPAE 091901Z 34005KT 10SM OVC012 07/06 A2964 RMK AO2 T00670056=
201801091853 METAR KPAE 091853Z 35004KT 10SM SCT010 OVC015 07/06 A2963 RMK AO2 RAB24E49 SLP037 P0001 T00670056=
201801091829 SPECI KPAE 091829Z 33007KT 6SM -RA BR BKN012 OVC036 07/05 A2963 RMK AO2 RAB24 P0000 T00670050=
201801091753 METAR KPAE 091753Z 33005KT 10SM OVC040 07/05 A2962 RMK AO2 SLP031 60005 T00670050 10072 20067 51015=
201801091653 METAR KPAE 091653Z 33006KT 10SM FEW007 OVC033 07/06 A2960 RMK AO2 SLP026 T00670056=
201801091636 SPECI KPAE 091636Z 33005KT 10SM FEW007 OVC031 07/06 A2960 RMK AO2 T00670061=
201801091553 METAR KPAE 091553Z 30005KT 4SM BR OVC002 07/06 A2959 RMK AO2 RAB09E52 CIG 001V006 SLP021 P0005 T00670061=
201801091523 SPECI KPAE 091523Z 26006KT 2SM -RA BR OVC003 07/07 A2958 RMK AO2 RAB09 P0003 T00720067=
201801091453 METAR KPAE 091453Z 18007KT 10SM OVC004 07/07 A2957 RMK AO2 SLP015 T00720072 53007=
201801091440 SPECI KPAE 091440Z AUTO 16006KT 10SM OVC004 07/07 A2957 RMK AO2 T00720072=
201801091353 METAR KPAE 091353Z AUTO 13008KT 10SM BKN006 OVC010 07/07 A2956 RMK AO2 CIG 004V008 SLP012 T00720067=
201801091253 METAR KPAE 091253Z AUTO 12010KT 10SM BKN009 OVC085 07/07 A2955 RMK AO2 SLP008 T00720072=
201801091249 SPECI KPAE 091249Z AUTO 12010KT 10SM BKN011 OVC090 07/07 A2955 RMK AO2=
201801091241 SPECI KPAE 091241Z AUTO 12010KT 10SM SCT011 BKN085 OVC110 07/07 A2955 RMK AO2 T00720072=
201801091230 SPECI KPAE 091230Z AUTO 12011KT 10SM BKN011 BKN085 OVC110 07/07 A2955 RMK AO2 T00720072=
201801091153 METAR KPAE 091153Z AUTO 13010KT 10SM OVC008 07/07 A2957 RMK AO2 RAE33 CIG 003V010 SLP014 P0000 60014 70014 T00720067 10078 20067 58007=
201801091142 SPECI KPAE 091142Z AUTO 13010KT 10SM OVC006 07/07 A2957 RMK AO2 RAE33 CIG 003V008 P0000 T00720072=
201801091053 METAR KPAE 091053Z AUTO 12009KT 10SM -RA BKN003 OVC009 07/07 A2958 RMK AO2 SLP018 P0001 T00720067=
201801090953 METAR KPAE 090953Z AUTO 12008KT 9SM -RA OVC003 07/07 A2958 RMK AO2 SLP018 P0003 T00670067=
201801090925 SPECI KPAE 090925Z AUTO 11004KT 8SM -RA BKN003 BKN011 OVC045 07/07 A2958 RMK AO2 P0002 T00670067=
201801090907 SPECI KPAE 090907Z AUTO 12010KT 7SM -RA FEW004 BKN037 OVC045 07/07 A2958 RMK AO2 P0001 T00720067=
201801090853 METAR KPAE 090853Z AUTO 12007KT 6SM -RA BR SCT005 BKN017 OVC034 07/07 A2959 RMK AO2 SLP022 P0005 60010 T00720067 56006=
201801090850 SPECI KPAE 090850Z AUTO 13007KT 6SM -RA BR SCT005 OVC017 07/07 A2959 RMK AO2 P0005=
201801090753 METAR KPAE 090753Z AUTO 13005KT 5SM -RA BR BKN019 OVC026 07/07 A2960 RMK AO2 SLP025 P0004 T00720067 400940061=
201801090653 METAR KPAE 090653Z AUTO 12009KT 10SM -RA OVC025 07/06 A2961 RMK AO2 SLP027 P0001 T00720061=
201801090636 SPECI KPAE 090636Z AUTO 13006KT 10SM -RA OVC028 07/06 A2961 RMK AO2 P0001 T00720061=
201801090553 METAR KPAE 090553Z AUTO 12007KT 10SM -RA BKN034 OVC060 08/06 A2962 RMK AO2 RAB46 SLP031 P0000 60000 T00780061 10089 20078 58015=
201801090453 METAR KPAE 090453Z AUTO 12007KT 10SM OVC038 08/06 A2963 RMK AO2 SLP036 T00830061=
201801090353 METAR KPAE 090353Z 12008KT 10SM OVC048 08/06 A2965 RMK AO2 SLP042 T00830061=
201801090253 METAR KPAE 090253Z 00000KT 10SM BKN047 BKN055 OVC070 08/07 A2966 RMK AO2 SLP046 T00830067 58012=
201801090153 METAR KPAE 090153Z 12005KT 10SM OVC050 08/07 A2968 RMK AO2 SLP052 T00830072=
201801090053 METAR KPAE 090053Z VRB03KT 10SM OVC060 08/07 A2969 RMK AO2 SLP055 T00830067=
201801082353 METAR KPAE 082353Z 12004KT 10SM BKN070 09/06 A2970 RMK AO2 SLP058 T00890061 10094 20072 56016=
201801082253 METAR KPAE 082253Z 12004KT 10SM OVC070 09/06 A2970 RMK AO2 SLP059 T00940061=
201801082153 METAR KPAE 082153Z 08006KT 10SM CLR 09/07 A2971 RMK AO2 SLP063 T00890067=
201801082053 METAR KPAE 082053Z 08006KT 10SM CLR 08/07 A2974 RMK AO2 SLP074 T00830067 58028=
201801081953 METAR KPAE 081953Z 08007KT 10SM CLR 09/07 A2978 RMK AO2 SLP085 T00940067=
201801081853 METAR KPAE 081853Z 12008KT 10SM BKN044 09/06 A2981 RMK AO2 SLP098 T00890061=
201801081800 SPECI KPAE 081800Z VRB04KT 10SM SCT002 08/07 A2982 RMK AO2 T00780067=
201801081753 METAR KPAE 081753Z VRB04KT 10SM SCT070 07/06 A2983 RMK AO2 SLP103 T00720061 10072 20067 58006=
201801081653 METAR KPAE 081653Z 12011KT 10SM FEW006 BKN036 OVC045 07/06 A2983 RMK AO2 SLP105 T00720061=
201801081553 METAR KPAE 081553Z 12010KT 9SM BKN006 OVC039 07/07 A2984 RMK AO2 SLP108 T00720067=
201801081540 SPECI KPAE 081540Z 13011KT 9SM FEW006 OVC039 07/07 A2984 RMK AO2 T00670067=
201801081453 METAR KPAE 081453Z 13013KT 10SM OVC047 07/06 A2985 RMK AO2 SLP109 T00720061 58004=
201801081400 SPECI KPAE 081400Z AUTO 13010KT 7SM SCT006 SCT023 OVC031 07/07 A2986 RMK AO2 T00720067=
201801081353 METAR KPAE 081353Z AUTO 13011KT 6SM BR SCT006 BKN016 OVC031 07/07 A2986 RMK AO2 SLP113 T00670067=
201801081341 SPECI KPAE 081341Z AUTO 12011KT 6SM BR FEW006 BKN016 OVC033 07/06 A2986 RMK AO2 T00670061=
201801081253 METAR KPAE 081253Z AUTO 12007KT 10SM BKN021 OVC060 07/06 A2986 RMK AO2 SLP113 T00670061=
201801081153 METAR KPAE 081153Z AUTO 12008KT 10SM FEW008 SCT050 OVC080 07/06 A2986 RMK AO2 SLP113 60011 70053 T00670061 10067 20061 58015=
201801081134 SPECI KPAE 081134Z AUTO 12008KT 10SM SCT005 BKN055 OVC080 07/06 A2986 RMK AO2 T00670061=
201801081053 METAR KPAE 081053Z AUTO 11007KT 10SM OVC005 07/06 A2988 RMK AO2 RAE18 CIG 003V010 SLP119 P0001 T00670061=
201801081035 SPECI KPAE 081035Z AUTO 12008KT 10SM OVC005 07/06 A2988 RMK AO2 RAE18 P0001 T00670061=
201801080953 METAR KPAE 080953Z AUTO 12008KT 9SM -RA OVC004 07/06 A2989 RMK AO2 SLP123 P0002 T00670061=
201801080919 SPECI KPAE 080919Z AUTO 12010KT 10SM -RA OVC004 07/06 A2990 RMK AO2 CIG 004V007 P0001 T00670061=
201801080853 METAR KPAE 080853Z AUTO 12010KT 9SM -RA OVC006 07/06 A2990 RMK AO2 CIG 003V011 SLP128 P0002 60008 T00670061 56008=
201801080817 SPECI KPAE 080817Z AUTO 12010G15KT 10SM -RA BKN006 OVC011 07/06 A2991 RMK AO2 CIG 004V010 P0001 T00670061=
201801080753 METAR KPAE 080753Z AUTO 12008KT 10SM -RA SCT006 BKN013 OVC024 07/06 A2992 RMK AO2 SLP133 P0002 T00670061 400670044=
201801080749 SPECI KPAE 080749Z AUTO 12009KT 10SM -RA SCT006 BKN011 OVC025 07/06 A2991 RMK AO2 P0002=
201801080651 METAR KPAE 080651Z AUTO 12006KT 9SM -RA BKN006 OVC011 07/06 A2993 RMK AO2 CIG 004V009 SLP137 P0004 T00670056=
201801080650 SPECI KPAE 080650Z AUTO 12006KT 9SM -RA OVC009 07/06 A2993 RMK AO2 CIG 004V012 P0004=
201801080553 METAR KPAE 080553Z AUTO 12007KT 070V150 8SM -RA OVC012 06/06 A2993 RMK AO2 SLP139 P0004 60023 T00610056 10061 20056 58009=
201801080518 SPECI KPAE 080518Z AUTO VRB03KT 8SM -RA BKN014 BKN035 OVC050 06/06 A2994 RMK AO2 P0002 T00610056=
201801080500 SPECI KPAE 080500Z AUTO VRB06KT 7SM -RA FEW016 SCT034 OVC055 06/06 A2994 RMK AO2 P0001 T00610056=
201801080453 METAR KPAE 080453Z AUTO VRB05KT 7SM -RA SCT003 BKN018 06/06 A2994 RMK AO2 SLP143 P0005 T00610056=
201801080401 SPECI KPAE 080401Z 11007KT 060V130 7SM -RA SCT003 BKN018 06/05 A2995 RMK AO2 P0000 T00560050=
201801080400 SPECI KPAE 080400Z 11007KT 060V140 7SM -RA SCT020 BKN060 OVC070 06/05 A2995 RMK AO2 P0000 T00560050=
201801080353 METAR KPAE 080353Z 10004KT 7SM -RA SCT003 BKN018 06/05 A2995 RMK AO2 SLP145 P0004 T00560050=
201801080253 METAR KPAE 080253Z 10004KT 6SM -RA BR FEW016 SCT044 OVC070 06/05 A2996 RMK AO2 SLP148 P0003 60010 T00560050 58014=
201801080220 SPECI KPAE 080220Z 10005KT 8SM -RA FEW003 SCT014 OVC070 06/05 A2996 RMK AO2 P0001 T00560050=
201801080153 METAR KPAE 080153Z VRB05KT 9SM -RA SCT004 BKN018 OVC075 06/05 A2997 RMK AO2 SLP153 P0003 T00560050=
201801080053 METAR KPAE 080053Z 12006KT 8SM -RA BKN015 OVC026 06/05 A3000 RMK AO2 SLP161 P0004 T00560050=
201801080008 SPECI KPAE 080008Z 12008KT 7SM -RA FEW017 BKN023 OVC044 06/05 A3000 RMK AO2 P0000 T00560050=
201801072353 METAR KPAE 072353Z 12009KT 7SM -RA SCT018 BKN043 OVC070 06/05 A3000 RMK AO2 SLP161 P0002 60011 T00610050 10061 20050 58012=
201801072253 METAR KPAE 072253Z 12008KT 6SM -RA BR BKN049 BKN060 OVC070 06/06 A3001 RMK AO2 SLP166 P0005 T00560056=
201801072153 METAR KPAE 072153Z 11008G15KT 5SM -RA BR OVC039 06/05 A3003 RMK AO2 RAB15 SLP171 P0002 T00560050=
201801072053 METAR KPAE 072053Z 12010KT 10SM FEW042 BKN055 OVC075 06/05 A3003 RMK AO2 RAB1958E49 SLP174 P0002 60002 T00560050 57012=
201801071953 METAR KPAE 071953Z 12006KT 10SM SCT036 SCT055 OVC070 06/04 A3005 RMK AO2 SLP178 T00560044=
201801071853 METAR KPAE 071853Z VRB06KT 10SM SCT034 OVC070 06/04 A3006 RMK AO2 SLP182 T00560039=
201801071753 METAR KPAE 071753Z VRB05KT 10SM OVC070 05/04 A3007 RMK AO2 RAE07B23E51 SLP186 P0001 60008 T00500039 10056 20044 56014=
201801071653 METAR KPAE 071653Z 12009G18KT 10SM -RA FEW015 FEW055 OVC070 04/04 A3008 RMK AO2 SLP190 P0003 T00440039=
201801071553 METAR KPAE 071553Z 12016G21KT 10SM -RA OVC042 05/04 A3009 RMK AO2 SLP195 P0002 T00500039=
201801071453 METAR KPAE 071453Z 12011KT 10SM -RA BKN044 OVC060 05/04 A3011 RMK AO2 SLP200 P0002 60002 T00500039 58015=
201801071353 METAR KPAE 071353Z AUTO 12009KT 10SM -RA OVC050 06/04 A3013 RMK AO2 RAB14 SLP207 P0000 T00560039=
201801071253 METAR KPAE 071253Z AUTO 12010KT 10SM BKN065 OVC090 06/04 A3014 RMK AO2 RAB36E53 SLP210 P0000 T00560039=
201801071153 METAR KPAE 071153Z AUTO VRB06KT 10SM FEW045 OVC090 06/04 A3016 RMK AO2 SLP214 70015 T00560039 10061 20050 56008=
201801071053 METAR KPAE 071053Z AUTO 12007KT 10SM BKN075 OVC090 06/04 A3016 RMK AO2 SLP216 T00560044=
201801070953 METAR KPAE 070953Z AUTO VRB04KT 10SM OVC080 06/04 A3017 RMK AO2 SLP218 T00560044 TSNO=
201801070853 METAR KPAE 070853Z AUTO VRB05KT 10SM OVC034 06/04 A3018 RMK AO2 SLP223 T00560044 56010=
201801070753 METAR KPAE 070753Z AUTO 12006KT 10SM OVC090 06/05 A3018 RMK AO2 SLP224 T00560050 400890050=
201801070703 SPECI KPAE 070703Z AUTO 12009KT 10SM SCT006 SCT013 BKN100 06/05 A3020 RMK AO2 T00560050=
201801070653 METAR KPAE 070653Z AUTO 12008KT 10SM SCT006 BKN013 BKN100 06/06 A3020 RMK AO2 SLP229 T00560056=
201801070553 METAR KPAE 070553Z AUTO 13007KT 10SM BKN007 BKN016 OVC021 06/05 A3021 RMK AO2 CIG 005V011 SLP234 60001 T00610050 10061 20061 58007=
201801070506 SPECI KPAE 070506Z AUTO 13006KT 8SM SCT006 OVC016 06/06 A3022 RMK AO2 T00610056=
201801070453 METAR KPAE 070453Z AUTO 13007KT 10SM BKN006 OVC015 06/05 A3022 RMK AO2 SLP237 T00610050=
201801070353 METAR KPAE 070353Z 15003KT 10SM BKN007 OVC018 06/06 A3023 RMK AO2 CIG 004V011 SLP240 T00610056=
201801070322 SPECI KPAE 070322Z 17003KT 3SM BR BKN005 BKN009 OVC021 06/06 A3023 RMK AO2 T00610056=
201801070315 SPECI KPAE 070315Z 20003KT 3SM BR SCT005 BKN012 OVC021 06/06 A3023 RMK AO2 T00610056=
201801070259 SPECI KPAE 070259Z 18004KT 2 1/2SM BR BKN005 BKN013 OVC021 06/06 A3023 RMK AO2 T00610056=
201801070253 METAR KPAE 070253Z 17004KT 3SM BR BKN004 BKN013 OVC021 06/06 A3023 RMK AO2 RAB20E44 SLP241 P0001 60001 T00610056 56003=
201801070250 SPECI KPAE 070250Z 18005KT 3SM BR BKN004 BKN009 OVC015 06/06 A3023 RMK AO2 RAB20E44 P0001=
201801070232 SPECI KPAE 070232Z 20004KT 2SM -RA BR BKN004 OVC011 06/06 A3023 RMK AO2 RAB20 P0001 T00610056=
201801070225 SPECI KPAE 070225Z 20007KT 2 1/2SM -RA BR BKN006 OVC011 06/06 A3023 RMK AO2 RAB20 CIG 003V009 P0000 T00610056=
201801070211 SPECI KPAE 070211Z 00000KT 10SM FEW006 BKN011 OVC033 06/06 A3024 RMK AO2 T00610056=
201801070200 SPECI KPAE 070200Z 00000KT 10SM SCT013 BKN019 OVC033 06/06 A3023 RMK AO2 T00610056=
201801070153 METAR KPAE 070153Z 00000KT 10SM BKN008 OVC033 06/06 A3023 RMK AO2 SLP241 T00610056=
201801070111 SPECI KPAE 070111Z 00000KT 5SM BR BKN003 OVC015 06/06 A3024 RMK AO2 T00610056=
201801070100 SPECI KPAE 070100Z 00000KT 10SM OVC014 06/06 A3024 RMK AO2 T00610056=
201801070053 METAR KPAE 070053Z 00000KT 5SM BR BKN003 OVC014 06/06 A3024 RMK AO2 SLP244 T00610056=
201801062353 METAR KPAE 062353Z 00000KT 3SM BR BKN003 OVC009 06/06 A3025 RMK AO2 SLP246 60002 T00610061 10067 20061 53000=
201801062254 SPECI KPAE 062254Z 19005KT 3SM BR BKN003 OVC009 06/06 A3024 RMK AO2 T00610056=
201801062253 METAR KPAE 062253Z 20005KT 3SM BR OVC003 06/06 A3024 RMK AO2 SLP244 T00610061=
201801062229 SPECI KPAE 062229Z 19005KT 4SM BR OVC003 06/06 A3024 RMK AO2 T00610056=
201801062153 METAR KPAE 062153Z 13003KT 4SM BR BKN009 OVC016 07/06 A3024 RMK AO2 SLP243 T00670061=
201801062116 SPECI KPAE 062116Z 12005KT 10SM BKN009 OVC016 07/06 A3024 RMK AO2 T00670056=
201801062108 SPECI KPAE 062108Z 13006KT 10SM SCT007 OVC016 07/06 A3024 RMK AO2 T00670056=
201801062100 SPECI KPAE 062100Z VRB03KT 10SM BKN009 OVC016 07/06 A3024 RMK AO2 CIG 005V012 T00670056=
201801062053 METAR KPAE 062053Z VRB04KT 2SM BR BKN003 BKN012 OVC028 07/06 A3025 RMK AO2 SLP245 60002 T00670056 58004=
201801061953 METAR KPAE 061953Z VRB04KT 2SM BR BKN003 OVC030 06/06 A3026 RMK AO2 RAE13 SLP251 P0000 T00610056=
201801061853 METAR KPAE 061853Z 08006KT 2SM -RA BR BKN005 BKN030 OVC037 06/06 A3027 RMK AO2 RAB06 SLP253 P0002 T00610056=
201801061803 SPECI KPAE 061803Z VRB03KT 1 3/4SM BR FEW005 OVC015 06/06 A3026 RMK AO2 T00610056=
201801061753 METAR KPAE 061753Z VRB03KT 2SM BR SCT005 OVC014 06/06 A3026 RMK AO2 RAE04 SLP249 P0001 60012 T00610056 10067 20061 53017=
201801061726 SPECI KPAE 061726Z 08006KT 2SM BR BKN005 OVC019 06/06 A3025 RMK AO2 RAE04 P0001 T00610056=
201801061704 SPECI KPAE 061704Z 10004KT 2SM BR BKN004 OVC020 06/06 A3024 RMK AO2 RAE04 P0001 T00610056=
201801061659 SPECI KPAE 061659Z 09004KT 7SM -RA BKN004 OVC020 06/06 A3023 RMK AO2 P0000 T00610056=
201801061653 METAR KPAE 061653Z 09006KT 2SM -RA BR SCT005 BKN020 OVC028 06/06 A3022 RMK AO2 RAB1559 SLP237 P0002 T00610056=
201801061558 SPECI KPAE 061558Z 07004KT 2SM BR FEW005 OVC026 06/06 A3022 RMK AO2 T00610056=
201801061553 METAR KPAE 061553Z 05006KT 3SM BR FEW005 OVC024 06/06 A3022 RMK AO2 SLP237 P0001 T00610056=
201801061535 SPECI KPAE 061535Z 06004KT 3SM BR FEW005 SCT018 OVC024 06/06 A3021 RMK AO2 P0001 T00610056=
201801061453 METAR KPAE 061453Z 07006KT 5SM BR OVC025 06/06 A3021 RMK AO2 RAE27 SLP231 P0002 60008 T00610056 51019=
201801061431 SPECI KPAE 061431Z AUTO 07005KT 3SM BR OVC025 06/06 A3019 RMK AO2 RAE27 P0002 T00610061=
201801061400 SPECI KPAE 061400Z AUTO 00000KT 2SM -RA BR SCT012 OVC019 07/06 A3019 RMK AO2 P0001 T00670061=
201801061353 METAR KPAE 061353Z AUTO 07003KT 1 3/4SM -RA BR BKN012 OVC019 06/06 A3018 RMK AO2 RAB10 SLP224 P0004 T00610061=
201801061351 SPECI KPAE 061351Z AUTO 07004KT 1 3/4SM -RA BR BKN012 OVC019 06/06 A3018 RMK AO2 RAB10 P0004=
201801061332 SPECI KPAE 061332Z AUTO 08005KT 2SM -RA BR SCT004 BKN010 OVC013 06/06 A3017 RMK AO2 RAB10 P0002 T00610061=
201801061316 SPECI KPAE 061316Z AUTO 00000KT 1 3/4SM -RA BR OVC006 06/06 A3016 RMK AO2 RAB10 CIG 003V010 P0001 T00610061=
201801061253 METAR KPAE 061253Z AUTO 08006KT 7SM BKN006 OVC029 07/06 A3015 RMK AO2 RAE25 SLP211 P0002 T00670061=
201801061217 SPECI KPAE 061217Z AUTO 32005KT 3SM -RA BR BKN006 OVC016 06/06 A3014 RMK AO2 P0002 T00610061=
201801061204 SPECI KPAE 061204Z AUTO 33004KT 2SM -RA BR OVC004 06/06 A3014 RMK AO2 P0002 T00610061=
201801061153 METAR KPAE 061153Z AUTO 33005KT 3SM -RA BR OVC004 06/06 A3014 RMK AO2 SLP207 P0004 60021 70034 T00610061 10089 20061 51017=
201801061149 SPECI KPAE 061149Z AUTO 34004KT 3SM -RA BR OVC003 06/06 A3013 RMK AO2 P0004=
201801061133 SPECI KPAE 061133Z AUTO 33005KT 2SM -RA BR OVC003 06/06 A3013 RMK AO2 P0004 T00610061=
201801061053 METAR KPAE 061053Z AUTO 32007KT 1 1/4SM R16R/4500VP6000FT -RA BR OVC003 07/07 A3013 RMK AO2 SLP204 P0005 T00670067=
201801060953 METAR KPAE 060953Z AUTO 33009KT 1 3/4SM R16R/5000VP6000FT -RA BR OVC003 07/06 A3009 RMK AO2 SLP190 P0011 T00670061=
201801060940 SPECI KPAE 060940Z AUTO 35006KT 1 3/4SM RA BR OVC003 07/07 A3008 RMK AO2 P0008 T00670067=
201801060925 SPECI KPAE 060925Z AUTO 29004KT 4SM -RA BR BKN004 OVC010 08/07 A3007 RMK AO2 CIG 001V006 P0004 T00780072=
201801060853 METAR KPAE 060853Z AUTO 15004KT 3SM -RA BR BKN005 OVC010 08/07 A3007 RMK AO2 RAB27 CIG 004V008 SLP185 P0001 60001 T00780072 53019=
201801060839 SPECI KPAE 060839Z AUTO 13007KT 10SM -RA BKN009 OVC014 08/07 A3007 RMK AO2 RAB27 CIG 006V012 P0000 T00830072=
201801060828 SPECI KPAE 060828Z AUTO 13008KT 10SM -RA OVC013 08/07 A3006 RMK AO2 RAB27 P0000 T00830072=
201801060753 METAR KPAE 060753Z AUTO 13010KT 10SM OVC022 09/07 A3005 RMK AO2 SLP177 T00890067 401110072=
201801060719 SPECI KPAE 060719Z AUTO 11007KT 10SM BKN026 OVC032 09/06 A3005 RMK AO2 T00890061=
201801060653 METAR KPAE 060653Z AUTO 11005KT 10SM BKN036 OVC049 09/06 A3003 RMK AO2 SLP171 T00890061=
201801060553 METAR KPAE 060553Z AUTO 12005KT 10SM BKN040 OVC050 09/07 A3001 RMK AO2 SLP165 60003 T00890067 10106 20083 51009=
201801060453 METAR KPAE 060453Z AUTO 15004KT 10SM BKN041 OVC049 08/07 A3001 RMK AO2 SLP165 T00830072=
201801060353 METAR KPAE 060353Z 16005KT 10SM OVC048 08/08 A3000 RMK AO2 SLP161 T00830078=
201801060253 METAR KPAE 060253Z 14006KT 10SM OVC055 09/08 A2999 RMK AO2 RAE02B22E53 SLP156 P0002 60003 T00890078 50001=
201801060153 METAR KPAE 060153Z VRB04KT 10SM -RA FEW025 FEW031 OVC047 09/08 A2999 RMK AO2 RAB29 SLP158 P0000 T00940083=
201801060053 METAR KPAE 060053Z VRB03KT 10SM BKN037 BKN044 OVC055 10/08 A2999 RMK AO2 RAB00E25 SLP157 P0001 T01000083=
201801052353 METAR KPAE 052353Z 12009KT 10SM BKN060 11/08 A2999 RMK AO2 RAB02E24 SLP155 P0001 60008 T01060083 10111 20083 56001=
201801052253 METAR KPAE 052253Z 11007KT 10SM FEW050 BKN070 BKN080 11/09 A2998 RMK AO2 SLP155 T01110089=
201801052153 METAR KPAE 052153Z 12009G15KT 10SM BKN036 BKN045 BKN090 10/09 A2998 RMK AO2 RAE43 SLP154 P0004 T01000089=
201801052130 SPECI KPAE 052130Z 12009G17KT 9SM -RA FEW002 BKN060 OVC090 09/08 A2998 RMK AO2 P0004 T00940083=
201801052053 METAR KPAE 052053Z 11015G21KT 10SM RA OVC060 09/08 A2999 RMK AO2 RAB53 SLP157 P0000 60003 T00940078 53002=
201801051953 METAR KPAE 051953Z 11008KT 070V130 10SM SCT060 BKN075 OVC095 09/08 A2998 RMK AO2 RAB34E45 SLP155 P0000 T00890078=
201801051853 METAR KPAE 051853Z 12014G22KT 10SM FEW002 BKN035 OVC090 09/07 A2999 RMK AO2 RAB00E52 SLP156 P0003 T00890072=
201801051753 METAR KPAE 051753Z 13009KT 10SM BKN032 BKN041 OVC070 09/07 A2998 RMK AO2 RAB29E35 SLP155 P0000 60002 T00890067 10089 20078 53010=
201801051653 METAR KPAE 051653Z 14004KT 10SM SCT033 BKN047 OVC060 08/07 A2997 RMK AO2 SLP150 T00830072=
201801051553 METAR KPAE 051553Z VRB03KT 10SM OVC033 08/07 A2995 RMK AO2 SLP146 T00780072=
201801051550 SPECI KPAE 051550Z VRB03KT 10SM OVC033 08/07 A2995 RMK AO2=
201801051511 SPECI KPAE 051511Z 14005KT 10SM BKN025 OVC031 08/07 A2995 RMK AO2 T00780067=
201801051453 METAR KPAE 051453Z VRB05KT 10SM OVC033 08/07 A2994 RMK AO2 SLP142 60002 T00780067 58007=
201801051353 METAR KPAE 051353Z AUTO VRB06KT 10SM BKN038 BKN047 OVC060 08/07 A2995 RMK AO2 RAB1257E16 SLP145 P0001 T00780067=
201801051253 METAR KPAE 051253Z AUTO VRB04KT 10SM FEW031 BKN039 OVC060 08/08 A2996 RMK AO2 RAB15E47 SLP148 P0001 T00780078=
201801051153 METAR KPAE 051153Z AUTO 08008G15KT 10SM BKN034 OVC047 08/07 A2996 RMK AO2 RAE31 SLP149 P0000 60007 70008 T00780072 10094 20072 58001=
201801051053 METAR KPAE 051053Z AUTO 10006KT 10SM -RA FEW060 OVC080 08/07 A2996 RMK AO2 SLP149 P0002 T00780067=
201801050953 METAR KPAE 050953Z AUTO VRB04KT 10SM -RA FEW050 BKN080 OVC095 07/06 A2997 RMK AO2 SLP151 P0001 T00720061=
201801050853 METAR KPAE 050853Z AUTO 09006KT 10SM -RA SCT044 BKN060 OVC075 07/06 A2997 RMK AO2 SLP150 P0001 60004 T00720056 58006=
201801050753 METAR KPAE 050753Z AUTO VRB06KT 10SM -RA BKN036 BKN042 OVC049 08/04 A2998 RMK AO2 SLP155 P0002 T00780044 400940011=
201801050653 METAR KPAE 050653Z AUTO VRB03KT 10SM -RA OVC044 08/03 A2999 RMK AO2 RAB36 SLP156 P0001 T00830028=
201801050553 METAR KPAE 050553Z AUTO 08004KT 10SM BKN049 OVC100 09/02 A2999 RMK AO2 SLP157 60001 T00890022 10094 20067 58001=
201801050453 METAR KPAE 050453Z AUTO VRB03KT 10SM FEW038 BKN055 OVC070 08/02 A2999 RMK AO2 RAB35E49 SLP158 P0000 T00830022=
201801050353 METAR KPAE 050353Z 13003KT 10SM SCT046 SCT070 OVC100 07/03 A3000 RMK AO2 RAB27E53 SLP160 P0000 T00720033=
201801050253 METAR KPAE 050253Z 11003KT 10SM OVC050 08/03 A2999 RMK AO2 SLP158 60001 T00830028 53003=
201801050153 METAR KPAE 050153Z 18005KT 10SM OVC055 07/04 A2998 RMK AO2 RAB0054E13 SLP155 P0001 T00720044=
201801050053 METAR KPAE 050053Z 18005KT 10SM OVC060 08/02 A2999 RMK AO2 RAE21 SLP157 P0000 T00830022=
201801042353 METAR KPAE 042353Z VRB04KT 10SM -RA BKN065 OVC085 08/02 A2998 RMK AO2 RAB46 SLP155 P0000 60000 T00830022 10094 20056 58001=
201801042253 METAR KPAE 042253Z 12006KT 10SM BKN090 OVC110 08/01 A2999 RMK AO2 RAB03E47 SLP158 P0000 T00830011=
201801042153 METAR KPAE 042153Z 14006KT 10SM OVC075 09/01 A2999 RMK AO2 SLP159 T00890006=
201801042053 METAR KPAE 042053Z 15003KT 10SM BKN095 09/01 A2998 RMK AO2 SLP156 T00940011 58010=
201801041953 METAR KPAE 041953Z 12004KT 10SM SCT110 08/00 A3000 RMK AO2 SLP162 T00830000=
201801041853 METAR KPAE 041853Z 12005KT 10SM SCT110 08/M01 A3002 RMK AO2 SLP171 T00831006=
201801041753 METAR KPAE 041753Z 00000KT 10SM CLR 06/02 A3001 RMK AO2 SLP168 T00560017 10067 20022 53003=
201801041653 METAR KPAE 041653Z 16003KT 10SM CLR 04/01 A3001 RMK AO2 SLP166 T00440011=
201801041553 METAR KPAE 041553Z VRB05KT 10SM CLR 06/00 A3000 RMK AO2 SLP162 T00610000=
201801041453 METAR KPAE 041453Z 11003KT 10SM CLR 04/01 A3000 RMK AO2 SLP164 T00390006 53000=
201801041353 METAR KPAE 041353Z AUTO 00000KT 10SM CLR 03/01 A3000 RMK AO2 SLP162 T00280011=
201801041253 METAR KPAE 041253Z AUTO 34004KT 10SM CLR 03/01 A3000 RMK AO2 SLP162 T00280011=
201801041153 METAR KPAE 041153Z AUTO 00000KT 10SM CLR 06/M01 A3000 RMK AO2 SLP163 T00561011 10072 20011 58003=
201801041053 METAR KPAE 041053Z AUTO 00000KT 10SM SCT100 03/01 A3001 RMK AO2 SLP168 T00280011=
201801040953 METAR KPAE 040953Z AUTO 00000KT 10SM CLR 02/01 A3001 RMK AO2 SLP167 T00220011=
201801040853 METAR KPAE 040853Z AUTO 00000KT 10SM CLR 02/01 A3001 RMK AO2 SLP167 T00220011 57007=
201801040753 METAR KPAE 040753Z AUTO 35006KT 9SM CLR 02/02 A3002 RMK AO2 SLP170 T00220017 400560000=
201801040653 METAR KPAE 040653Z AUTO 34006KT 8SM CLR 02/02 A3003 RMK AO2 SLP172 T00220017=
201801040553 METAR KPAE 040553Z AUTO 34006KT 8SM CLR 02/02 A3003 RMK AO2 SLP175 T00220017 10039 20022 58012=
201801040453 METAR KPAE 040453Z AUTO 35005KT 10SM CLR 03/02 A3005 RMK AO2 SLP182 T00280017=
201801040353 METAR KPAE 040353Z 35006KT 10SM CLR 03/01 A3006 RMK AO2 SLP186 T00280011=
201801040253 METAR KPAE 040253Z 35005KT 10SM CLR 03/02 A3007 RMK AO2 SLP187 T00330017 58009=
201801040153 METAR KPAE 040153Z 34003KT 10SM CLR 03/01 A3008 RMK AO2 SLP191 T00330011=
201801040053 METAR KPAE 040053Z 32004KT 10SM CLR 03/01 A3009 RMK AO2 SLP195 T00330011=
201801032353 METAR KPAE 032353Z 32006KT 10SM CLR 04/01 A3010 RMK AO2 SLP196 T00390011 10056 20022 56013=
201801032253 METAR KPAE 032253Z 32006KT 10SM CLR 05/02 A3011 RMK AO2 SLP200 T00500017=
201801032153 METAR KPAE 032153Z 33008KT 10SM CLR 05/01 A3011 RMK AO2 SLP203 T00500011=
201801032053 METAR KPAE 032053Z 33006KT 10SM CLR 04/01 A3014 RMK AO2 SLP209 T00440011 56018=
201801031953 METAR KPAE 031953Z 33004KT 10SM CLR 04/02 A3015 RMK AO2 SLP216 T00390017=
201801031853 METAR KPAE 031853Z 33005KT 10SM CLR 04/01 A3017 RMK AO2 SLP221 T00390011=
201801031753 METAR KPAE 031753Z 34006KT 10SM CLR 02/00 A3019 RMK AO2 SLP228 T00170000 10017 20000 55006=
201801031653 METAR KPAE 031653Z 35005KT 7SM CLR 01/01 A3018 RMK AO2 SLP226 T00110006=
201801031553 METAR KPAE 031553Z 34003KT 9SM CLR 01/00 A3020 RMK AO2 SLP231 T00060000=
201801031453 METAR KPAE 031453Z 00000KT 10SM CLR 01/00 A3021 RMK AO2 SLP235 T00110000 58006=
201801031353 METAR KPAE 031353Z AUTO 33003KT 10SM CLR 01/00 A3022 RMK AO2 SLP238 T00110000=
201801031253 METAR KPAE 031253Z AUTO 35004KT 9SM CLR 01/00 A3023 RMK AO2 SLP241 T00110000=
201801031153 METAR KPAE 031153Z AUTO 34004KT 10SM CLR 01/00 A3023 RMK AO2 SLP242 T00110000 10033 20006 50001=
201801031053 METAR KPAE 031053Z AUTO 33005KT 10SM CLR 01/00 A3024 RMK AO2 SLP246 T00060000=
201801030953 METAR KPAE 030953Z AUTO 35005KT 10SM CLR 01/00 A3024 RMK AO2 SLP244 T00110000=
201801030853 METAR KPAE 030853Z AUTO 35006KT 10SM CLR 01/01 A3022 RMK AO2 SLP241 T00110006 56004=
201801030753 METAR KPAE 030753Z AUTO 36003KT 10SM CLR 02/00 A3023 RMK AO2 SLP240 T00170000 400391006=
201801030653 METAR KPAE 030653Z AUTO 00000KT 10SM BKN080 02/01 A3023 RMK AO2 SLP241 T00220006=
201801030553 METAR KPAE 030553Z AUTO 00000KT 10SM BKN075 OVC095 03/01 A3024 RMK AO2 SLP245 60000 T00280006 10039 20022 58011=
201801030453 METAR KPAE 030453Z AUTO 01003KT 10SM OVC075 03/01 A3025 RMK AO2 RAB12E42 SLP249 P0000 T00280006=
201801030353 METAR KPAE 030353Z 04003KT 10SM BKN070 OVC090 03/M01 A3026 RMK AO2 SLP252 T00331006=
201801030253 METAR KPAE 030253Z 34005KT 10SM OVC110 03/00 A3027 RMK AO2 SLP256 T00280000 56002=
201801030153 METAR KPAE 030153Z 33006KT 10SM OVC100 03/00 A3027 RMK AO2 SLP257 T00280000=
201801030053 METAR KPAE 030053Z 35007KT 10SM CLR 03/00 A3027 RMK AO2 SLP255 T00280000=
201801022353 METAR KPAE 022353Z 29004KT 10SM CLR 02/01 A3028 RMK AO2 SLP258 T00220006 10039 20006 55008=
201801022253 METAR KPAE 022253Z 35007KT 10SM CLR 03/00 A3027 RMK AO2 SLP256 T00280000=
201801022153 METAR KPAE 022153Z 34005KT 10SM CLR 03/00 A3029 RMK AO2 SLP262 T00280000=
201801022053 METAR KPAE 022053Z 34005KT 10SM CLR 02/00 A3030 RMK AO2 SLP266 T00220000 58017=
201801021953 METAR KPAE 021953Z 36004KT 10SM CLR 03/00 A3032 RMK AO2 SLP273 T00330000=
201801021853 METAR KPAE 021853Z 34003KT 10SM CLR 02/M01 A3035 RMK AO2 SLP283 T00221006=
201801021753 METAR KPAE 021753Z 34006KT 10SM CLR 01/M01 A3035 RMK AO2 SLP284 T00061011 10011 21006 56004=
201801021653 METAR KPAE 021653Z 32004KT 10SM CLR 01/M01 A3035 RMK AO2 SLP284 T00061006=
201801021553 METAR KPAE 021553Z 33004KT 10SM CLR 01/M01 A3036 RMK AO2 SLP286 T00061011=
201801021453 METAR KPAE 021453Z AUTO 33005KT 10SM CLR 00/M01 A3036 RMK AO2 SLP288 T00001011 58010=
201801021353 METAR KPAE 021353Z AUTO 30004KT 10SM CLR 00/M02 A3038 RMK AO2 SLP294 T00001017=
201801021253 METAR KPAE 021253Z AUTO 35006KT 10SM CLR 00/M02 A3038 RMK AO2 SLP295 T00001017=
201801021153 METAR KPAE 021153Z AUTO 32005KT 10SM CLR M01/M02 A3040 RMK AO2 SLP299 T10061017 10006 21006 58006=
201801021053 METAR KPAE 021053Z AUTO 35006KT 10SM CLR 00/M02 A3042 RMK AO2 SLP307 T00001017=
201801020953 METAR KPAE 020953Z AUTO 34005KT 10SM CLR 00/M02 A3041 RMK AO2 SLP305 T00001017=
201801020853 METAR KPAE 020853Z AUTO 34006KT 10SM CLR 00/M01 A3041 RMK AO2 SLP305 T00001011 50004=
201801020753 METAR KPAE 020753Z AUTO 34004KT 10SM CLR 00/M02 A3042 RMK AO2 SLP306 T00001017 400331017=
201801020653 METAR KPAE 020653Z AUTO 32004KT 10SM CLR 00/M02 A3041 RMK AO2 SLP305 T00001017=
201801020553 METAR KPAE 020553Z AUTO 34004KT 10SM CLR 01/M02 A3040 RMK AO2 SLP301 T00061017 10028 20000 56006=
201801020453 METAR KPAE 020453Z AUTO 32003KT 10SM CLR 00/M02 A3041 RMK AO2 SLP303 T00001022=
201801020353 METAR KPAE 020353Z 33005KT 10SM CLR 01/M02 A3041 RMK AO2 SLP303 T00061022=
201801020253 METAR KPAE 020253Z 33004KT 10SM CLR 01/M02 A3042 RMK AO2 SLP307 T00061017 50001=
201801020153 METAR KPAE 020153Z 32006KT 10SM CLR 01/M01 A3042 RMK AO2 SLP308 T00061011=
201801020053 METAR KPAE 020053Z 32003KT 10SM CLR 01/M01 A3042 RMK AO2 SLP308 T00111006=
201801012353 METAR KPAE 012353Z 32005KT 10SM CLR 03/M01 A3042 RMK AO2 SLP306 T00281006 10033 20006 53007=
201801012253 METAR KPAE 012253Z 34003KT 10SM CLR 03/00 A3041 RMK AO2 SLP304 T00330000=
201801012153 METAR KPAE 012153Z 35004KT 10SM CLR 03/M01 A3040 RMK AO2 SLP300 T00281006=
201801012053 METAR KPAE 012053Z 36004KT 10SM CLR 03/M01 A3039 RMK AO2 SLP299 T00281006 58004=
201801011953 METAR KPAE 011953Z 34003KT 10SM CLR 02/M01 A3040 RMK AO2 SLP301 T00171006=
201801011853 METAR KPAE 011853Z 33004KT 10SM CLR 01/M01 A3041 RMK AO2 SLP305 T00111006=
201801011753 METAR KPAE 011753Z 32006KT 10SM CLR 01/M01 A3041 RMK AO2 SLP303 I6000 T00061011 10006 21017 51011=
201801011653 METAR KPAE 011653Z 36003KT 10SM CLR M01/M02 A3040 RMK AO2 SLP299 T10061017=
201801011553 METAR KPAE 011553Z 34003KT 10SM CLR M01/M02 A3038 RMK AO2 SLP295 T10111017=
201801011453 METAR KPAE 011453Z 35004KT 7SM FEW002 M01/M02 A3037 RMK AO2 SLP292 I1000 I3000 T10111017 53014=
201801011353 METAR KPAE 011353Z AUTO 34003KT 6SM BR CLR M01/M02 A3036 RMK AO2 SLP288 I1000 T10111017=
201801011305 SPECI KPAE 011305Z AUTO 35004KT 4SM BR SCT002 M01/M01 A3034 RMK AO2 T10111011=
201801011253 METAR KPAE 011253Z AUTO 35005KT 4SM BR BKN002 M01/M01 A3034 RMK AO2 SLP280 T10111011=
201801011240 SPECI KPAE 011240Z AUTO 35004KT 5SM BR BKN002 M01/M01 A3034 RMK AO2 T10111011=
201801011232 SPECI KPAE 011232Z AUTO 34004KT 8SM SCT002 M01/M02 A3034 RMK AO2 T10111017=
201801011153 METAR KPAE 011153Z AUTO 34004KT 10SM CLR M01/M02 A3033 RMK AO2 SLP277 T10061017 10000 21011 50009=
201801011053 METAR KPAE 011053Z AUTO 34004KT 7SM CLR M01/M02 A3033 RMK AO2 SLP278 T10111017=
201801010953 METAR KPAE 010953Z AUTO 35005KT 9SM CLR M01/M02 A3031 RMK AO2 SLP271 T10061017=
201801010853 METAR KPAE 010853Z AUTO 34004KT 10SM CLR M01/M02 A3030 RMK AO2 SLP268 T10061017 53012=
201801010753 METAR KPAE 010753Z AUTO 35003KT 9SM CLR M01/M02 A3029 RMK AO2 SLP264 T10061022 400281011=
201801010653 METAR KPAE 010653Z AUTO 35003KT 10SM CLR M01/M02 A3028 RMK AO2 SLP258 T10061022=
201801010553 METAR KPAE 010553Z AUTO 33003KT 10SM CLR 00/M02 A3027 RMK AO2 SLP256 T00001022 10011 20000 53009=
201801010453 METAR KPAE 010453Z AUTO 36006KT 10SM CLR 00/M02 A3025 RMK AO2 SLP251 T00001017=
201801010353 METAR KPAE 010353Z 36006KT 10SM CLR 01/M01 A3024 RMK AO2 SLP247 T00061011=
201801010253 METAR KPAE 010253Z 32003KT 10SM CLR 00/M01 A3024 RMK AO2 SLP246 T00001011 53002=
201801010153 METAR KPAE 010153Z 32004KT 10SM CLR 00/M01 A3023 RMK AO2 SLP243 T00001011=
201801010053 METAR KPAE 010053Z 32005KT 10SM CLR 01/M01 A3023 RMK AO2 SLP243 T00061006=

# No short TAF reports from KPAE in databse.

###################################
#  large TAF from KPAE
###################################
201801312345 TAF KPAE 312345Z 0100/0124 15013KT P6SM VCSH BKN022 BKN035 OVC110
                       FM010300 17009KT P6SM VCSH SCT022 BKN035
                       OVC110
                      TEMPO 0103/0107 BKN022 BKN035 OVC110 FM011200
                       17005KT P6SM SCT022 SCT035 OVC110 FM011800
                       17005KT P6SM -RA SCT022 BKN035 OVC050 FM012000
                       15007KT 4SM -RA BR SCT008 OVC022=
201801312229 KPAE 312229Z 3122/0118 15012KT P6SM VCSH BKN020 OVC035 FM010000
                       17013KT P6SM SCT025 BKN060 OVC100 FM010900
                       17008KT P6SM SCT025 BKN060 OVC100
                      PROB30 0109/0115 -RA BKN025 OVC050=
201801311740 TAF KPAE 311740Z 3118/0118 14008KT P6SM VCSH OVC015 FM312000 17013KT
                       P6SM BKN022 OVC050
                      TEMPO 3120/3124 -SHRA FM010000 17013KT P6SM
                       SCT025 BKN060 OVC100 FM010900 17008KT P6SM
                       SCT025 BKN060 OVC100
                      PROB30 0109/0115 -RA BKN025 OVC050=
201801311200 TAF KPAE 311200Z 3112/0112 16007KT P6SM VCSH BKN018 BKN035 OVC080
                       FM311800 16008KT P6SM -SHRA BKN030 OVC060
                       FM010000 16010KT P6SM -RA BKN025 BKN040=
201801310802 KPAE 310802Z 3108/0106 16007KT P6SM VCSH SCT018 BKN035 OVC080
                      TEMPO 3108/3112 -SHRA BKN018 OVC035 FM311400
                       17007KT P6SM VCSH SCT035 OVC070 FM311800
                       16008KT P6SM -SHRA BKN035 OVC060 FM010300
                       16012G22KT P6SM -SHRA BKN035 BKN050=
201801310554 TAF KPAE 310554Z 3106/0106 16007KT P6SM VCSH SCT030 OVC080 FM311600
                       17009KT P6SM VCSH OVC060 FM311800 17008KT
                       P6SM -SHRA BKN040 OVC060=
201801302334 TAF KPAE 302334Z 3100/3124 16007KT P6SM VCSH SCT030 OVC110
                      TEMPO 3100/3104 -SHRA BKN030 OVC090 FM311600
                       17009KT P6SM VCSH OVC060=
201801301733 TAF KPAE 301733Z 3018/3118 16011KT P6SM SCT008 OVC050
                      TEMPO 3018/3020 BKN008 OVC050 FM302000 19010KT
                       P6SM VCSH FEW035 BKN050 FM310200 20007KT
                       P6SM VCSH SCT030 BKN060 FM310800 18007KT
                       P6SM VCSH SCT030 OVC060=
201801301224 KPAE 301224Z 3012/3112 15008KT P6SM VCSH FEW015 SCT035 BKN060
                      TEMPO 3012/3015 BKN015 BKN060 FM301900 18012KT
                       P6SM VCSH SCT025 OVC050 FM302200 22010KT
                       P6SM -SHRA SCT020 OVC040 FM310500 20008KT
                       P6SM VCSH SCT015 BKN050=
201801301150 TAF KPAE 301150Z 3012/3112 15008KT P6SM VCSH FEW015 SCT035 BKN060
                       FM301900 18012KT P6SM VCSH SCT025 OVC050
                       FM302200 22010KT P6SM -SHRA SCT020 OVC040
                       FM310500 20008KT P6SM VCSH SCT015 BKN050=
201801300525 TAF KPAE 300525Z 3006/3106 20008KT P6SM -SHRA SCT008 BKN020 OVC050
                       TEMPO 3006/3007 24012G22KT 2SM -SHRA BR
                       BKN008 BKN015 OVC050 FM300700 21010KT P6SM
                       -SHRA SCT015 BKN025 BKN050 FM301000 20008KT
                       P6SM VCSH SCT025 BKN050 FM301800 20012KT
                       P6SM VCSH SCT025 OVC050 FM302200 22008KT
                       P6SM -RA SCT010 OVC020=
201801300337 KPAE 300337Z 3004/3024 24012G22KT P6SM -SHRA SCT008 BKN015 OVC050
                       TEMPO 3004/3006 2SM -SHRA BR BKN008 BKN015
                       OVC050 FM300700 21010KT P6SM -SHRA SCT015
                       BKN025 BKN050 FM301000 20008KT P6SM VCSH
                       SCT025 BKN050 FM301800 20012KT P6SM SCT025
                       OVC050=
201801300202 KPAE 300202Z 3002/3024 15015G25KT P6SM VCSH BKN008 OVC015 FM300300
                       21012KT P6SM VCSH BKN015 OVC030 FM300700
                       20009KT P6SM VCSH BKN025 BKN035=
201801292333 TAF KPAE 292333Z 3000/3024 14014KT 4SM -RA BR SCT006 BKN008 OVC026
                       FM300300 21012KT 5SM -SHRA BKN009 FM300700
                       20009KT P6SM VCSH BKN025 BKN035=
201801292126 KPAE 292126Z 2921/3018 12007KT 2SM -RA BR OVC014 FM300300 20013G22KT
                       6SM -RA BR OVC025 FM300500 22011KT P6SM
                       -SHRA OVC025 FM300600 22012KT P6SM VCSH
                       BKN035 BKN045=
201801291736 TAF KPAE 291736Z 2918/3018 16005KT P6SM -RA OVC035 WS020/21040KT
                       FM291900 17016G24KT 5SM RA BR OVC025 FM300300
                       20013G22KT 6SM -RA BR OVC025 FM300500 22011KT
                       P6SM -SHRA OVC025 FM300600 22012KT P6SM
                       VCSH BKN035 BKN045=
201801291154 TAF KPAE 291154Z 2912/3012 12010G20KT P6SM SCT040 OVC050 FM291400
                       14013G23KT P6SM -RA BKN030 OVC040 FM291800
                       15017G28KT 5SM -RA OVC030 FM300200 18013G24KT
                       P6SM -SHRA BKN025 BKN040 FM300400 21012KT
                       P6SM VCSH SCT020 BKN045=
201801290546 TAF KPAE 290546Z 2906/3006 13014G25KT P6SM SCT025 OVC040 FM291200
                       16016G26KT P6SM -RA OVC035 FM291600 16017G26KT
                       5SM RA OVC025 FM300100 18013G23KT P6SM -SHRA
                       BKN025 BKN040 FM300300 20012KT P6SM VCSH
                       SCT020 BKN045=
201801282340 TAF KPAE 282340Z 2900/2924 12014KT P6SM BKN070 BKN120 FM290300
                       16015G22KT P6SM SCT025 OVC040 FM291200 16016G23KT
                       P6SM -RA OVC035 FM291500 16017G24KT P6SM
                       -RA OVC025=
201801282109 KPAE 282109Z 2821/2918 12017KT P6SM SCT006 BKN050 OVC070
                      TEMPO 2821/2824 BKN008 OVC035 FM290300 16017G23KT
                       P6SM SCT025 OVC035 FM291200 16016G23KT P6SM
                       -RA OVC035 FM291500 16018G24KT P6SM -RA
                       OVC025=
201801281735 TAF KPAE 281735Z 2818/2918 12017KT P6SM SCT006 BKN050 OVC070 FM290300
                       16017G23KT P6SM SCT025 OVC035 FM291200 16016G23KT
                       P6SM -RA OVC035 FM291500 16018G24KT P6SM
                       -RA OVC025=
201801281302 KPAE 281302Z 2813/2912 10007KT P6SM BKN027 OVC035 FM281600 14012G20KT
                       P6SM SCT030 OVC050 FM281800 16016G28KT P6SM
                       OVC050 FM290100 17015G25KT P6SM -RA OVC035=
201801281157 TAF KPAE 281157Z 2812/2912 13005KT P6SM -RA SCT025 OVC050 FM281600
                       14012G20KT P6SM SCT030 OVC050 FM281800 16016G28KT
                       P6SM OVC050 FM290100 17015G25KT P6SM -RA
                       OVC035=
201801280923 KPAE 280923Z 2809/2906 13006KT P6SM -RA SCT025 OVC050 FM281300
                       15008KT P6SM -RA SCT020 OVC035 FM281800
                       16014G25KT P6SM SCT025 OVC040 FM282000 18016G28KT
                       P6SM OVC040=
201801280551 TAF KPAE 280551Z 2806/2906 14008KT P6SM BKN025 OVC040 FM280800
                       13006KT 5SM -RA OVC020 FM281100 15008KT
                       3SM -RA OVC012 FM281800 18014G23KT 5SM -RA
                       BKN015 OVC025 FM282000 19016G28KT P6SM BKN025
                       OVC035=
201801272334 TAF KPAE 272334Z 2800/2824 15009KT P6SM VCSH BKN030 OVC120 FM280400
                       16007KT P6SM BKN050 FM280600 13008KT P6SM
                       SCT025 OVC040 FM280800 12007KT P6SM -RA
                       SCT025 OVC040 FM281100 16015G25KT P6SM -RA
                       OVC015=
201801271739 TAF KPAE 271739Z 2718/2818 14016G29KT P6SM VCSH SCT006 BKN011 OVC027
                       FM272000 19016G24KT P6SM VCSH OVC019 FM272300
                       21014G22KT P6SM OVC019 FM280100 22009KT
                       P6SM SCT025 BKN040 FM280600 15007KT P6SM
                       OVC040 FM280800 14007KT P6SM -RA SCT020
                       OVC040 FM281200 15011KT P6SM -RA OVC019
                       FM281700 17015G22KT 5SM -RA OVC009=
201801271604 KPAE 271604Z 2716/2812 12009G18KT 2SM -RA BR SCT006 BKN009 OVC016
                       FM271900 18018G30KT P6SM BKN030 OVC050 FM280000
                       20012KT P6SM BKN035 BKN050 FM280400 18008KT
                       P6SM OVC035 FM281000 15006KT P6SM -RA OVC030=
201801271407 KPAE 271407Z 2714/2812 11011G23KT 2SM -RA BR OVC023 WS020/18040KT
                       FM271600 14015G28KT P6SM -SHRA SCT020 BKN035
                       FM271900 18018G30KT P6SM BKN030 OVC050 FM280000
                       20012KT P6SM BKN035 BKN050 FM280400 18008KT
                       P6SM OVC035 FM281000 15006KT P6SM -RA OVC030=
201801271202 TAF KPAE 271202Z 2712/2812 12012G20KT P6SM -RA SCT015 OVC030 WS020/18040KT
                       FM271600 14015G28KT P6SM -SHRA SCT020 BKN035
                       FM271900 18018G30KT P6SM BKN030 OVC050 FM280000
                       20012KT P6SM BKN035 BKN050 FM280400 18008KT
                       P6SM OVC035 FM281000 15006KT P6SM -RA OVC030=
201801270559 TAF KPAE 270559Z 2706/2806 12010G18KT P6SM -RA OVC008 FM270900
                       14015G25KT P6SM -RA BKN015 OVC030 FM271200
                       14018G34KT P6SM -SHRA SCT015 OVC030 FM272000
                       18015G30KT P6SM BKN030 OVC050 FM280100 17012KT
                       P6SM BKN030 BKN050=
201801262323 TAF KPAE 262323Z 2700/2724 17008KT P6SM BKN012 OVC020 FM270600
                       15012G18KT P6SM -RA SCT020 OVC040 FM271500
                       17018G28KT P6SM -SHRA SCT015 OVC030 FM272100
                       19014G24KT P6SM BKN030 OVC050=
201801262104 KPAE 262104Z 2621/2718 18012KT P6SM BKN015 OVC030 FM262300 17010KT
                       P6SM SCT025 BKN040 OVC090 FM270400 15010KT
                       P6SM -RA BKN040 OVC090 FM270700 14013G22KT
                       P6SM -RA SCT010 OVC030 FM271500 17018G28KT
                       P6SM -SHRA SCT015 OVC030=
201801261733 TAF KPAE 261733Z 2618/2718 14014G22KT P6SM SCT010 OVC020
                      TEMPO 2618/2621 BKN010 OVC020 FM262100 18012KT
                       P6SM SCT025 BKN050 OVC100 FM270400 15010KT
                       P6SM -RA BKN040 OVC090 FM270700 14013G22KT
                       P6SM -RA SCT010 OVC030 FM271500 17018G28KT
                       P6SM -SHRA SCT015 OVC030=
201801261120 TAF KPAE 261120Z 2612/2712 14012KT P6SM VCSH SCT007 OVC015 FM261800
                       18009KT P6SM VCSH SCT040 BKN120 FM270200
                       15009KT P6SM -RA SCT020 OVC040 FM270700
                       14013G22KT P6SM -RA SCT010 OVC030=
201801260522 TAF KPAE 260522Z 2606/2706 14012KT P6SM VCSH SCT007 OVC015 FM261800
                       18009KT P6SM VCSH SCT040 BKN120 FM270200
                       15009KT P6SM -RA SCT020 OVC040=
201801252320 TAF KPAE 252320Z 2600/2624 15010KT P6SM VCSH BKN012 BKN030 FM260200
                       18010KT P6SM VCSH SCT015 BKN035 FM261800
                       15005KT P6SM SCT040 BKN120=
201801252120 KPAE 252120Z 2521/2618 14010KT P6SM -RA OVC008 FM252300 18008KT
                       P6SM VCSH BKN015 OVC030 FM260200 18008KT
                       P6SM VCSH SCT020 BKN040 FM260900 18008KT
                       P6SM BKN020 FM261700 18006KT P6SM SCT030=
201801251824 KPAE 251824Z 2518/2618 VRB04KT P6SM SCT020 OVC045
                      TEMPO 2518/2521 -RA BKN020 OVC045 FM260000
                       18008KT P6SM VCSH SCT020 BKN040 FM260900
                       18008KT P6SM BKN020 FM261700 18006KT P6SM
                       SCT030=
201801251720 TAF KPAE 251720Z 2518/2618 VRB04KT P6SM BKN040 OVC080
                      TEMPO 2518/2522 -RA OVC035 FM260000 18008KT
                       P6SM VCSH SCT020 BKN040 FM260900 18008KT
                       P6SM BKN020 FM261700 18006KT P6SM SCT030=
201801251406 KPAE 251406Z 2514/2612 08006KT P6SM SCT015 BKN070 FM251600 16010KT
                       P6SM -RA SCT020 BKN030 OVC040 FM252000 17009KT
                       P6SM -RA SCT015 BKN025 OVC035 FM260200 17010KT
                       P6SM VCSH SCT010 OVC020 FM260600 18012KT
                       P6SM -SHRA SCT010 OVC020=
201801251120 TAF KPAE 251120Z 2512/2612 16010KT P6SM SCT015 BKN025 FM251700
                       16010KT P6SM -RA SCT020 BKN030 OVC040 FM252000
                       17009KT P6SM -RA SCT015 BKN025 OVC035 FM260200
                       17010KT P6SM VCSH SCT010 OVC020 FM260600
                       18012KT P6SM -SHRA SCT010 OVC020=
201801250524 TAF KPAE 250524Z 2506/2606 18016G25KT P6SM VCSH SCT020 OVC030 FM250900
                       16010KT P6SM SCT025 BKN040 FM251600 16010KT
                       P6SM -RA SCT020 BKN030 OVC040 FM251900 17011G19KT
                       P6SM -RA SCT015 BKN025 OVC035 FM260200 17010KT
                       P6SM VCSH SCT010 OVC020=
201801242344 TAF KPAE 242344Z 2500/2524 13010KT P6SM -RA SCT020 BKN035 OVC050
                       TEMPO 2502/2503 5SM -SHRA BR SCT012 BKN020
                       OVC035 FM250300 18016G25KT P6SM VCSH SCT030
                       BKN045 FM251600 16010KT P6SM -RA SCT020
                       BKN030 OVC040 FM251900 17011G19KT P6SM -RA
                       SCT018 BKN025 OVC035=
201801241745 TAF KPAE 241745Z 2418/2518 13007KT P6SM -RA SCT020 BKN035 OVC050
                       FM250200 18017G29KT P6SM VCSH SCT030 BKN040
                       FM250800 16012G20KT P6SM SCT045 OVC100 FM251600
                       16010KT P6SM -RA SCT020 BKN030 OVC040=
201801241604 KPAE 241604Z 2416/2512 16008KT P6SM -SHRA SCT015 OVC025 FM250200
                       18016G25KT P6SM VCSH SCT018 BKN030 FM250800
                       16011KT P6SM SCT025 BKN040 OVC200=
201801241120 TAF KPAE 241120Z 2412/2512 17011KT 5SM -SHRA BR SCT008 BKN015 OVC020
                       FM250100 18016G25KT P6SM -SHRA SCT015 OVC030
                       FM250800 17012KT P6SM SCT030 OVC060=
201801240525 TAF KPAE 240525Z 2406/2506 15010KT P6SM -RA SCT020 OVC030 FM241000
                       17011KT 5SM -SHRA BR SCT008 BKN012 OVC020
                       FM250100 18016G25KT P6SM -SHRA SCT015 OVC030=
201801232328 TAF KPAE 232328Z 2400/2424 10008KT 5SM -RA BR FEW006 OVC030 WS020/19030KT
                       TEMPO 2400/2403 2SM RA BR BKN006 OVC020
                       FM240300 15010KT 5SM -RA BR SCT020 OVC030
                       FM241000 17011G19KT 5SM -SHRA BR SCT008
                       BKN012 OVC020=
201801232019 KPAE 232019Z 2320/2418 10007KT 6SM -RA BR SCT015 OVC030 WS020/18035KT
                       TEMPO 2320/2322 2SM -RA BR BKN015 OVC025
                       FM232200 14012G20KT P6SM -RA SCT015 OVC020
                       TEMPO 2322/2402 5SM -RA BR BKN015 OVC020
                       FM241000 17011G19KT P6SM VCSH SCT008 BKN012
                       OVC020=
201801231742 TAF KPAE 231742Z 2318/2418 13008KT P6SM -RA SCT020 BKN030 WS020/18035KT
                       TEMPO 2318/2319 5SM -RA BR OVC020 FM232200
                       14012G20KT P6SM -RA SCT015 OVC020
                      TEMPO 2322/2402 5SM -RA BR BKN015 OVC020
                       FM241000 17011G19KT P6SM VCSH SCT008 BKN012
                       OVC020=
201801231120 TAF KPAE 231120Z 2312/2412 15008KT P6SM SCT035 BKN050 FM231400
                       14011G18KT P6SM -RA SCT030 OVC040 FM232200
                       16015G25KT P6SM -RA SCT020 OVC030 FM240200
                       16015G25KT 6SM -RA BR SCT010 OVC020 FM240600
                       16015G23KT 6SM -RA BR OVC010=
201801230520 TAF KPAE 230520Z 2306/2406 12008KT P6SM SCT030 SCT150 FM230700
                       15008KT P6SM SCT050 BKN150 FM231300 14011G18KT
                       P6SM -RA SCT030 OVC040 FM232200 16015G25KT
                       P6SM -RA SCT020 OVC030 FM240200 16015G25KT
                       6SM -RA BR SCT010 OVC020=
201801222340 TAF KPAE 222340Z 2300/2324 16009KT P6SM VCSH SCT020 BKN030 FM230400
                       16008KT P6SM SCT030 BKN050 FM230700 15008KT
                       P6SM SCT050 BKN150 FM231300 14011G18KT P6SM
                       -RA SCT030 OVC040 FM232200 16015G25KT P6SM
                       -RA SCT020 OVC030=
201801221747 TAF KPAE 221747Z 2218/2318 17011KT P6SM VCSH BKN015 OVC025 FM222000
                       19011KT P6SM VCSH SCT020 BKN030 FM230300
                       17006KT P6SM SCT015 BKN025 OVC050 FM230700
                       15008KT P6SM SCT030 BKN150 FM231100 14008KT
                       P6SM SCT050 OVC090 FM231600 15011G19KT P6SM
                       -RA SCT030 OVC040=
201801221120 TAF KPAE 221120Z 2212/2312 15018KT P6SM -SHRA FEW014 BKN035 FM221300
                       16011KT P6SM -SHRA BKN014 OVC030 FM221900
                       19010KT P6SM VCSH SCT025 BKN040 OVC060 FM230000
                       18009KT P6SM SCT040 BKN070 FM230700 14009KT
                       P6SM SCT050 BKN090=
201801220904 KPAE 220904Z 2209/2306 15016KT P6SM -SHRA SCT015 OVC026 FM221200
                       16014KT P6SM -SHRA SCT012 BKN018 FM221500
                       18011KT P6SM VCSH SCT010 BKN018 OVC030 FM222100
                       19009KT P6SM SCT025 BKN035 OVC060 FM230300
                       16008KT P6SM SCT035 BKN070=
201801220622 KPAE 220622Z 2206/2306 14014KT P6SM -SHRA SCT025 BKN035
                      TEMPO 2206/2210 4SM -SHRA SCT015 BKN025 OVC035
                       FM221000 16014KT P6SM -SHRA SCT012 BKN018
                       FM221500 18011KT P6SM VCSH SCT010 BKN018
                       OVC030 FM222100 19009KT P6SM SCT025 BKN035
                       OVC060 FM230300 16008KT P6SM SCT035 BKN070=
201801220526 TAF KPAE 220526Z 2206/2306 14014KT P6SM -SHRA SCT025 BKN035 FM220900
                       17014G23KT P6SM -SHRA SCT012 BKN018 FM221500
                       18011KT P6SM VCSH SCT010 BKN018 OVC030 FM222100
                       19009KT P6SM SCT025 BKN035 OVC060 FM230300
                       16008KT P6SM SCT035 BKN070=
201801220307 KPAE 220307Z 2203/2224 14011KT P6SM VCSH SCT020 BKN040 FM220900
                       18014G23KT P6SM -SHRA SCT012 BKN018 FM221500
                       18011KT P6SM VCSH SCT010 BKN018 OVC030 FM222100
                       19009KT P6SM SCT025 BKN035 OVC060=
201801212340 TAF KPAE 212340Z 2200/2224 17015G26KT P6SM -SHRA SCT020 BKN030
                       FM220300 18012G21KT P6SM VCSH SCT020 BKN030
                       FM220900 18014G23KT P6SM -SHRA SCT012 BKN018
                       FM221500 18011KT P6SM VCSH SCT010 BKN018
                       OVC030 FM222100 19009KT P6SM SCT025 BKN035
                       OVC060=
201801211745 TAF KPAE 211745Z 2118/2218 14015G25KT 6SM -RA OVC035 WS020/18045KT
                       FM212000 18018G30KT P6SM VCSH SCT025 BKN035
                       TEMPO 2123/2201 -SHRA BKN025 OVC035 FM220400
                       17015G25KT P6SM -SHRA SCT015 BKN025 FM221400
                       18011KT P6SM VCSH SCT008 BKN015 OVC030=
201801211126 TAF KPAE 211126Z 2112/2212 14020G35KT P6SM -RA OVC050 WS020/19050KT
                       FM211500 16025G36KT 4SM RA BR SCT025 OVC035
                       FM212000 18016G27KT P6SM -SHRA SCT025 BKN035
                       FM220400 19012KT P6SM -SHRA SCT025 OVC035=
201801210528 TAF KPAE 210528Z 2106/2206 13020G27KT P6SM FEW030 BKN045 OVC070
                       WS020/19045KT FM211300 14022G33KT P6SM -RA
                       SCT020 OVC030 WS020/19050KT FM211500 16025G36KT
                       4SM -RA BR SCT012 BKN020 OVC030 FM212000
                       18016G25KT P6SM -SHRA SCT018 BKN020 BKN050
                       FM212300 18014G24KT P6SM VCSH SCT025 BKN050=
201801210256 KPAE 210256Z 2103/2124 13017G25KT P6SM VCSH SCT070 BKN080 OVC090
                       FM210400 14020G30KT P6SM VCSH SCT030 OVC045
                       FM211300 14022G33KT P6SM -RA SCT020 OVC030
                       FM211500 15022G34KT 4SM -RA BR SCT012 BKN020
                       OVC030 FM211900 18016G25KT P6SM VCSH SCT018
                       BKN020 BKN060=
201801202342 TAF KPAE 202342Z 2100/2124 14012KT P6SM VCSH BKN020 OVC040 FM210400
                       17020G30KT P6SM VCSH SCT030 OVC045 FM211300
                       14022G33KT P6SM -RA SCT020 OVC030 FM211500
                       15022G34KT 4SM -RA BR SCT012 BKN020 OVC030
                       FM211900 18016G25KT P6SM VCSH SCT018 BKN020
                       BKN060=
201801201752 TAF KPAE 201752Z 2018/2118 17012KT P6SM VCSH BKN018 OVC030
                      TEMPO 2020/2022 -SHRA FM202200 17015KT P6SM
                       BKN025 OVC040 FM210300 17020G30KT P6SM VCSH
                       SCT030 OVC045 FM211300 14022G35KT 6SM -RA
                       SCT020 OVC030=
201801201128 TAF KPAE 201128Z 2012/2112 16015KT P6SM VCSH BKN014 OVC021 FM201600
                       17012KT P6SM BKN030 BKN050 FM210000 16012KT
                       P6SM SCT030 BKN050 OVC120 FM210300 16015G25KT
                       P6SM -RA SCT025 OVC040 FM211000 16020G29KT
                       P6SM -RA BKN025 OVC040=
201801200903 KPAE 200903Z 2009/2106 17016KT P6SM VCSH BKN015 OVC020 FM201000
                       17014KT P6SM VCSH BKN020 OVC050 FM201500
                       17010KT P6SM BKN030 BKN050
                      PROB30 2018/2024 -SHRA FM210000 16012KT P6SM
                       SCT030 BKN050 OVC120=
201801200526 TAF KPAE 200526Z 2006/2106 16022G31KT P6SM -SHRA OVC019 FM201000
                       17014KT P6SM VCSH OVC025 FM201200 17010KT
                       P6SM BKN030 BKN050
                      PROB30 2018/2024 -SHRA FM210000 16012KT P6SM
                       SCT030 BKN050 OVC120=
201801200303 KPAE 200303Z 2003/2024 16020G26KT P6SM -SHRA BKN021 OVC026 FM200900
                       17013KT P6SM -SHRA OVC021 FM201200 17010KT
                       P6SM BKN035 BKN050 FM201800 17015KT P6SM
                       SCT035 BKN050 BKN110
                      PROB30 2020/2024 -SHRA=
201801200056 KPAE 200056Z 2001/2024 13014KT P6SM -SHRA SCT030 OVC060
                      TEMPO 2001/2003 BKN030 OVC060 FM200300 17015G22KT
                       P6SM -SHRA BKN025 OVC040 FM200800 17013KT
                       P6SM VCSH BKN025 OVC040 FM201200 17010KT
                       P6SM BKN035 BKN050 FM201800 17015KT P6SM
                       SCT035 BKN050 BKN110
                      PROB30 2020/2024 -SHRA=
201801192344 TAF KPAE 192344Z 2000/2024 13014KT P6SM -RA FEW050 BKN080 OVC090
                       FM200600 17013KT P6SM BKN028 OVC040=
201801192333 KPAE 192333Z 2000/2018 15018G23KT P6SM -SHRA SCT030 OVC060 FM200600
                       17013KT P6SM BKN028 OVC040=
201801192104 KPAE 192104Z 1921/2018 15015G25KT P6SM -SHRA SCT022 OVC040 FM200000
                       17018G28KT P6SM -SHRA BKN022 OVC040 FM200600
                       17013KT P6SM BKN028 OVC040
                      PROB30 2006/2012 -SHRA=
201801191909 KPAE 191909Z 1919/2018 14015G23KT P6SM VCSH SCT035 BKN060
                      TEMPO 1919/1921 -SHRA BKN035 OVC060 FM192100
                       17018G28KT P6SM -SHRA BKN035 OVC050 FM200000
                       17018G28KT P6SM -SHRA BKN022 OVC040 FM200600
                       17013KT P6SM BKN028 OVC040
                      PROB30 2006/2012 -SHRA=
201801191743 TAF KPAE 191743Z 1918/2018 13013KT P6SM VCSH SCT035 BKN060
                      TEMPO 1918/1921 -SHRA BKN035 OVC060 FM192100
                       17018G28KT P6SM -SHRA BKN035 OVC050 FM200000
                       17018G28KT P6SM -SHRA BKN022 OVC040 FM200600
                       17013KT P6SM BKN028 OVC040
                      PROB30 2006/2012 -SHRA=
201801191527 KPAE 191527Z 1915/2012 13012KT P6SM SCT040 BKN110
                      TEMPO 1915/1919 -SHRA OVC040 FM192200 17015G25KT
                       P6SM -SHRA BKN015 OVC025 FM200200 17015G25KT
                       5SM -SHRA BKN009 OVC015=
201801191120 TAF KPAE 191120Z 1912/2012 16012G20KT P6SM VCSH SCT015 BKN035 BKN080
                       FM191400 16012G20KT P6SM -SHRA SCT015 BKN025
                       OVC050 FM192200 17015G25KT P6SM -SHRA BKN015
                       OVC025 FM200200 17015G25KT 5SM -SHRA BKN009
                       OVC015=
201801190832 KPAE 190832Z 1909/2006 14012G20KT P6SM -SHRA SCT016 SCT035 BKN060
                       FM191200 16012G20KT P6SM VCSH SCT015 BKN035
                       BKN080 FM192200 17015G25KT P6SM -SHRA BKN025
                       OVC035 FM200200 17015G25KT 5SM -SHRA BKN009
                       OVC015=
201801190529 TAF KPAE 190529Z 1906/2006 14012G20KT P6SM VCSH SCT016 BKN035 BKN080
                       TEMPO 1906/1910 6SM -SHRA BKN015 OVC030
                       FM191000 16012G20KT P6SM VCSH SCT015 BKN035
                       BKN080 FM192200 17015G25KT P6SM -SHRA BKN025
                       OVC035 FM200200 17015G25KT 5SM -SHRA BKN009
                       OVC015=
201801190304 KPAE 190304Z 1903/1924 13012KT P6SM VCSH SCT035 BKN050
                      TEMPO 1903/1906 5SM -SHRA BR OVC025 FM190600
                       17012KT P6SM VCSH BKN035 BKN080 FM191700
                       18006KT P6SM SCT040 SCT100=
201801182320 TAF KPAE 182320Z 1900/1924 15015G25KT P6SM -SHRA BKN040 BKN080
                       TEMPO 1900/1904 4SM SHRA BR OVC025 FM190600
                       18012KT P6SM VCSH BKN035 BKN080 FM191700
                       18006KT P6SM SCT040 SCT100=
201801181720 TAF KPAE 181720Z 1818/1918 14015G25KT P6SM VCSH SCT035 SCT100
                      TEMPO 1818/1822 -SHRA BKN035 BKN100 FM182200
                       15017G27KT P6SM VCSH BKN040 BKN100 FM190600
                       18012KT P6SM VCSH BKN035 BKN080 FM191700
                       18006KT P6SM SCT040 SCT100=
201801181120 TAF KPAE 181120Z 1812/1912 17015KT P6SM -RA OVC030
                      TEMPO 1812/1815 4SM SHRA OVC020 FM181500
                       18017G25KT P6SM -SHRA SCT025 OVC050=
201801180942 KPAE 180942Z 1810/1906 18018G30KT 2SM +SHRA SCT018 BKN025 OVC035
                       FM181200 18020G30KT P6SM -SHRA SCT020 BKN045
                       OVC070=
201801180806 KPAE 180806Z 1808/1906 16020G30KT P6SM -SHRA SCT020 BKN045 OVC070
                       FM181000 18017G27KT P6SM -SHRA SCT020 OVC045=
201801180532 TAF KPAE 180532Z 1806/1906 14015KT P6SM -RA FEW040 BKN060 OVC080
                       FM180800 18017G25KT P6SM -SHRA SCT025 BKN040
                       OVC060=
201801172320 TAF KPAE 172320Z 1800/1824 14015G25KT 5SM -RA OVC040
                      TEMPO 1800/1804 3SM RA BR OVC025 FM180600
                       16015G25KT P6SM -SHRA BKN025 OVC050 FM181700
                       14012KT P6SM VCSH BKN050=
201801171720 TAF KPAE 171720Z 1718/1818 10010KT P6SM OVC050 FM172200 14015G25KT
                       P6SM -RA OVC040
                      TEMPO 1800/1804 5SM RA BR OVC025 FM180600
                       16015G25KT P6SM -SHRA BKN025 OVC050 FM181700
                       14012KT P6SM VCSH BKN050=
201801171120 TAF KPAE 171120Z 1712/1812 VRB05KT P6SM OVC110 FM171300 14014G23KT
                       P6SM -RA SCT020 BKN040 OVC070 FM172000 16020G27KT
                       P6SM VCSH SCT020 OVC040 FM180400 18019G28KT
                       5SM -RA OVC020=
201801170539 TAF KPAE 170539Z 1706/1806 08006KT P6SM SCT120 BKN200 FM170900
                       12007KT P6SM SCT040 BKN120 FM171300 14014G23KT
                       P6SM -RA SCT020 BKN040 OVC070 FM172000 16020G27KT
                       P6SM VCSH SCT020 OVC040 FM180400 18019G28KT
                       5SM -RA OVC020=
201801162320 TAF KPAE 162320Z 1700/1724 16010KT P6SM VCSH SCT020 BKN050 FM170400
                       16008KT P6SM SCT035 SCT120 BKN200 FM171000
                       14010KT P6SM VCSH SCT035 BKN120 FM171400
                       14013KT P6SM VCSH SCT015 BKN030 FM172100
                       15016G25KT P6SM -RA SCT015 OVC030=
201801161720 TAF KPAE 161720Z 1618/1718 15012KT P6SM VCSH OVC020
                      TEMPO 1618/1621 -SHRA BKN006 FM162100 16010G22KT
                       P6SM VCSH SCT020 BKN040 FM170400 16008KT
                       P6SM SCT035 SCT120 BKN200 FM171000 14010KT
                       P6SM SCT035 BKN120 FM171400 14013KT P6SM
                       VCSH SCT015 BKN030=
201801161205 KPAE 161205Z 1612/1712 14007KT P6SM VCSH BKN021 OVC035 FM161400
                       15012KT P6SM VCSH OVC020 FM162100 16010G22KT
                       P6SM VCSH SCT020 BKN040 FM170400 16008KT
                       P6SM SCT035 SCT120 BKN200=
201801161136 TAF KPAE 161136Z 1612/1712 12008KT P6SM -RA VCSH BKN050 OVC070
                       FM161400 15012KT P6SM VCSH OVC020 FM162100
                       16010G22KT P6SM VCSH SCT020 BKN040 FM170400
                       16008KT P6SM SCT035 SCT120 BKN200=
201801160534 TAF KPAE 160534Z 1606/1706 19007KT P6SM -RA BKN070 OVC100 FM160800
                       15014G21KT P6SM -RA SCT025 OVC070 FM161100
                       16012KT P6SM -RA OVC020 FM161600 17012KT
                       P6SM VCSH SCT025 OVC040 FM161900 17014G22KT
                       P6SM VCSH SCT025 BKN040=
201801152329 TAF KPAE 152329Z 1600/1624 13009KT P6SM SCT080 BKN200 FM160800
                       15012KT P6SM -RA SCT020 OVC040 FM161000
                       17012KT P6SM -RA OVC020 FM161800 18016G23KT
                       P6SM VCSH SCT020 OVC040=
201801151720 TAF KPAE 151720Z 1518/1618 VRB04KT P6SM FEW180 SCT250 FM151900
                       14009KT P6SM SCT080 BKN200 FM160600 15010KT
                       P6SM -RA SCT020 OVC040 FM161000 15012KT
                       P6SM -RA OVC020=
201801151138 TAF KPAE 151138Z 1512/1612 06004KT P6SM FEW180 BKN250 FM151900
                       14009KT P6SM SCT080 BKN200 FM160600 15010KT
                       P6SM -RA SCT020 OVC040 FM161000 15012KT
                       P6SM -RA OVC020=
201801150536 TAF KPAE 150536Z 1506/1606 07005KT P6SM FEW120 BKN200 FM151200
                       12005KT P6SM VCFG SCT080 BKN200 FM160400
                       15009KT P6SM OVC070=
201801142346 TAF KPAE 142346Z 1500/1524 VRB03KT P6SM SCT150 SCT200 FM151200
                       05005KT P6SM SCT080 BKN120 BKN200 FM152100
                       15008KT P6SM SCT080 BKN120 BKN200=
201801141741 TAF KPAE 141741Z 1418/1518 35006KT 5SM BR VCFG SCT001 SCT200 FM141900
                       06006KT P6SM SCT200 FM142000 09006KT P6SM
                       FEW120 FM151000 14004KT 4SM BR BKN004=
201801141617 KPAE 141617Z 1416/1512 35006KT 4SM BR VCFG SCT001
                      TEMPO 1416/1418 1SM BR BKN001 FM141900 06006KT
                       4SM BR SCT010 SCT250 FM142000 12006KT P6SM
                       FEW120 FM150800 VRB03KT P6SM BKN004=
201801141122 TAF KPAE 141122Z 1412/1512 34004KT 3SM BR OVC001
                      TEMPO 1412/1416 1/2SM FG OVC001 FM141900
                       06004KT 4SM BR SCT010 SCT250 FM142000 12006KT
                       P6SM FEW120 FM150800 VRB03KT P6SM BKN004=
201801140633 KPAE 140633Z 1407/1506 32005KT P6SM FEW002
                      TEMPO 1408/1412 4SM BR OVC002 FM141200 01005KT
                       2SM BR OVC002
                      TEMPO 1412/1416 1/4SM FG VV001 FM141700 05004KT
                       4SM BR OVC005 FM141900 06004KT P6SM SCT010
                       SCT200 FM142000 08004KT P6SM FEW120 SCT200=
201801140520 TAF KPAE 140520Z 1406/1506 33004KT 4SM BR OVC002
                      TEMPO 1412/1416 1/2SM FG FM141700 05004KT
                       4SM BR OVC005 FM141900 06004KT P6SM SCT010
                       SCT200 FM142000 08004KT P6SM FEW120 SCT200=
201801140003 TAF KPAE 140003Z 1400/1424 VRB04KT P6SM SCT020 BKN200 FM141000
                       04005KT 2SM BR BKN012 FM141200 01004KT 1/2SM
                       FG OVC003 FM141900 04006KT 2SM BR BKN010
                       FM142000 06006KT P6SM FEW020 SCT200=
201801131759 TAF KPAE 131759Z 1318/1418 15010KT P6SM OVC012
                      TEMPO 1318/1320 -RA FM132100 15008KT P6SM
                       OVC025 FM140000 07005KT P6SM SCT030 BKN150
                       FM141000 05005KT 2SM BR BKN012
                      TEMPO 1412/1416 1/2SM FG VV002=
201801131400 KPAE 131400Z 1314/1412 08007KT P6SM VCSH OVC014 FM131800 15010KT
                       P6SM OVC019 FM132100 15008KT P6SM OVC025
                       FM140000 07005KT P6SM BKN030=
201801131120 TAF KPAE 131120Z 1312/1412 12010KT P6SM VCSH OVC013 FM131800 15010KT
                       P6SM OVC019 FM132100 15008KT P6SM OVC025
                       FM140000 07005KT P6SM BKN030=
201801130932 KPAE 130932Z 1310/1406 15013KT P6SM VCSH OVC010 FM131500 15009KT
                       P6SM VCSH OVC015 FM131800 14007KT P6SM OVC015
                       FM132000 09005KT P6SM OVC019=
201801130543 KPAE 130543Z 1306/1406 13011KT P6SM -RA BKN005 BKN070 OVC090 FM130800
                       15010KT 6SM -RA BR OVC005 FM131500 15009KT
                       P6SM VCSH OVC015 FM131800 14007KT P6SM OVC015
                       FM132000 09005KT P6SM OVC019=
201801130531 TAF KPAE 130531Z 1306/1406 14011KT P6SM -RA BKN060 OVC070 FM130800
                       15010KT 6SM -RA BR OVC005 FM131500 15009KT
                       P6SM VCSH OVC015 FM131800 14007KT P6SM OVC015
                       FM132000 09005KT P6SM OVC019=
201801122342 TAF KPAE 122342Z 1300/1324 17015G25KT P6SM VCSH OVC014 FM130400
                       15007KT 5SM -RA BR SCT008 OVC012 FM131000
                       13004KT 4SM BR OVC008 FM131600 14005KT 5SM
                       BR BKN012 OVC020 FM131900 VRB04KT P6SM BKN035
                       BKN045=
201801121751 TAF KPAE 121751Z 1218/1318 17018G28KT P6SM VCSH SCT012 BKN050
                      TEMPO 1218/1220 BKN012 BKN040 FM130100 16012KT
                       P6SM -RA BKN020 OVC050 FM130400 15007KT
                       5SM -RA BR OVC015 FM131200 13004KT 5SM BR
                       OVC012=
201801121625 KPAE 121625Z 1216/1312 14015G25KT P6SM VCSH SCT008 BKN014 OVC050
                       TEMPO 1216/1218 BKN008 BKN014 OVC050 FM130100
                       16012KT P6SM -RA BKN020 OVC050=
201801121129 TAF KPAE 121129Z 1212/1312 15012G20KT P6SM VCSH SCT006 BKN012 BKN040
                       TEMPO 1212/1216 -SHRA BKN006 FM121900 18012KT
                       P6SM SCT020 BKN040 FM130000 18008KT P6SM
                       SCT050 BKN070 OVC100=
201801120902 KPAE 120902Z 1209/1306 VRB03KT 3SM BR OVC002
                      TEMPO 1209/1212 -SHRA FM121200 18010KT P6SM
                       -SHRA BKN005 BKN010 OVC020 FM121900 19012KT
                       P6SM BKN030=
201801120520 TAF KPAE 120520Z 1206/1306 20008KT P6SM -SHRA OVC002
                      TEMPO 1206/1210 2SM -SHRA BR VV002 FM121000
                       18010KT P6SM -SHRA SCT005 BKN010 OVC020
                       FM121900 19012KT P6SM BKN030=
201801120417 KPAE 120417Z 1204/1224 20006KT P6SM -SHRA SCT002 OVC008
                      TEMPO 1204/1208 1SM -SHRA BR OVC002 FM120800
                       18010KT P6SM -SHRA BKN010 OVC020 FM121900
                       19012KT P6SM BKN025 OVC040=
201801112320 TAF KPAE 112320Z 1200/1224 16010KT P6SM SCT004 BKN025 BKN200
                      TEMPO 1200/1202 4SM -SHRA BKN004 OVC025 FM120400
                       18010KT P6SM -SHRA BKN010 OVC020 FM121900
                       19012KT P6SM BKN025 OVC040=
201801112008 KPAE 112008Z 1120/1218 08008KT 5SM -RA BR SCT003 BKN025 OVC045
                       TEMPO 1120/1124 2SM -RA BR BKN003 OVC025
                       FM120000 16008KT 4SM -RA BR OVC010 FM120400
                       18010KT P6SM -SHRA BKN018 OVC030=
201801111915 KPAE 111915Z 1119/1218 07010KT P6SM -RA FEW005 SCT025 OVC045
                      TEMPO 1119/1122 3SM -RA BR SCT005 BKN025
                       OVC045 FM112200 11008KT 5SM -RA BKN015 OVC040
                       FM120100 16008KT 4SM -RA BR OVC010 FM120400
                       18010KT P6SM -SHRA BKN018 OVC030=
201801111723 TAF KPAE 111723Z 1118/1218 07007KT 4SM -RA BR SCT005 BKN023 OVC040
                       TEMPO 1118/1122 2SM -RA BR BKN005 OVC023
                       FM112200 11008KT 5SM -RA BKN015 OVC040 FM120100
                       16008KT 4SM -RA BR OVC010 FM120400 18010KT
                       P6SM -SHRA BKN018 OVC030=
201801111613 KPAE 111613Z 1116/1212 10007KT P6SM -RA SCT004 BKN015 OVC040
                      TEMPO 1116/1118 3SM RA BR BKN004 OVC015 FM111800
                       18010KT 4SM -RA BR BKN012 OVC020 FM120100
                       21011KT P6SM -SHRA BKN018 OVC030=
201801111405 KPAE 111405Z 1114/1212 13011KT P6SM -RA FEW007 OVC045
                      TEMPO 1114/1118 2SM RA BR OVC015 FM111800
                       18010KT 4SM -RA BR BKN012 OVC020 FM120100
                       21011KT P6SM -SHRA BKN018 OVC030=
201801111214 KPAE 111214Z 1112/1212 11008KT 6SM -RA BR BKN006 OVC015
                      TEMPO 1112/1116 2SM RA BR OVC002 FM112000
                       18010KT 4SM -RA BR BKN012 OVC020 FM120100
                       21011KT P6SM -SHRA BKN018 OVC030=
201801111132 TAF KPAE 111132Z 1112/1212 11008KT 3SM -RA BR BKN006 OVC015
                      TEMPO 1112/1116 2SM RA BR OVC002 FM112000
                       18010KT 4SM -RA BR BKN012 OVC020 FM120100
                       21011KT P6SM -SHRA BKN018 OVC030=
201801110529 TAF KPAE 110529Z 1106/1206 12004KT P6SM -RA BKN022 BKN030 OVC050
                       FM110900 14004KT 5SM -RA BR BKN020 OVC030
                       FM111200 15009KT 4SM -RA BR BKN008 OVC020
                       FM112000 16012G20KT 4SM -RA BR BKN008 OVC020
                       FM120300 18008KT P6SM -SHRA BKN020 OVC030=
201801102320 TAF KPAE 102320Z 1100/1124 15006KT P6SM SCT018 BKN045 OVC090
                      TEMPO 1100/1104 -RA BKN018 OVC045 FM110400
                       15008KT P6SM -RA BKN015 OVC045 FM111200
                       15009KT 4SM -RA BR BKN008 OVC020 FM112000
                       16012G20KT 4SM -RA BR BKN008 OVC020=
201801102026 KPAE 102026Z 1020/1118 16007KT P6SM BKN013 OVC090 FM102300 14006KT
                       P6SM -RA BKN015 OVC040 FM110900 15009KT
                       4SM -RA BR BKN008 OVC020=
201801101721 TAF KPAE 101721Z 1018/1118 17008KT P6SM SCT015 OVC090
                      TEMPO 1018/1020 OVC015 FM102300 14006KT P6SM
                       -RA SCT025 OVC040 FM110900 15009KT 4SM -RA
                       BR BKN008 OVC020=
201801101223 KPAE 101223Z 1012/1112 12005KT P6SM VCSH SCT011 OVC030 FM101600
                       18004KT P6SM SCT020 BKN030 BKN140 FM102300
                       14006KT P6SM -RA SCT025 OVC040 FM110900
                       15009KT 4SM -RA BR BKN008 OVC020=
201801101127 TAF KPAE 101127Z 1012/1112 12005KT P6SM VCSH BKN011 OVC030 FM101600
                       18004KT P6SM SCT020 BKN030 BKN140 FM102300
                       14006KT P6SM -RA SCT025 OVC040 FM110900
                       15009KT 4SM -RA BR BKN008 OVC020=
201801100520 TAF KPAE 100520Z 1006/1106 VRB05KT P6SM VCSH SCT022 BKN030 OVC070
                       TEMPO 1006/1010 4SM -RA BR BKN022 FM101400
                       VRB04KT P6SM SCT020 OVC030 FM102300 14006KT
                       P6SM -RA SCT025 OVC040=
201801100218 KPAE 100218Z 1002/1024 33004KT 5SM -RA BR SCT014 BKN020 OVC027
                       FM101200 VRB04KT P6SM SCT010 BKN018 OVC030
                       FM101900 14006KT P6SM -RA SCT025 OVC040=
201801092341 TAF KPAE 092341Z 1000/1024 VRB04KT 4SM -RA BKN006 OVC012 FM101200
                       VRB04KT P6SM SCT010 BKN018 OVC030 FM101900
                       14006KT P6SM -RA SCT025 OVC040=
201801092014 KPAE 092014Z 0920/1018 32006KT P6SM BKN011 OVC035 FM100200 VRB04KT
                       4SM -RA BKN006 OVC012 FM101600 VRB04KT P6SM
                       SCT010 BKN018 OVC030=
201801091738 TAF KPAE 091738Z 0918/1018 32006KT P6SM SCT010 OVC035 FM100200
                       VRB04KT 4SM -RA BKN006 OVC012 FM101600 VRB04KT
                       P6SM SCT010 BKN018 OVC030=
201801091626 KPAE 091626Z 0916/1012 30006KT 4SM BR OVC002 FM091800 30006KT 5SM
                       BR SCT002 BKN006 OVC012 FM092000 30006KT
                       P6SM SCT006 OVC012 FM092300 VRB04KT 4SM
                       -RA BKN006 OVC012 FM100600 VRB04KT P6SM
                       SCT010 BKN018 OVC030=
201801091128 TAF KPAE 091128Z 0912/1012 12009KT P6SM -RA BKN003 OVC011 FM091600
                       21010KT P6SM SCT006 OVC014 FM091900 23009KT
                       P6SM BKN025 FM092300 VRB04KT P6SM -SHRA
                       OVC020=
201801090526 TAF KPAE 090526Z 0906/1006 14007KT P6SM -RA OVC035 FM090900 14005KT
                       4SM -RA BKN006 OVC011 FM091600 21010KT P6SM
                       SCT006 OVC014 FM091900 23009KT P6SM BKN025
                       FM092300 VRB04KT P6SM -SHRA OVC025=
201801082339 TAF KPAE 082339Z 0900/0924 13008KT P6SM SCT030 BKN070 OVC150 FM090500
                       15004KT P6SM -RA SCT025 OVC040 FM090900
                       15008KT 5SM -RA SCT006 BKN011 OVC020 FM091600
                       18008KT P6SM SCT010 BKN020 OVC030=
201801081744 TAF KPAE 081744Z 0818/0918 13008KT P6SM SCT006 BKN035 OVC050 FM082100
                       13008KT P6SM SCT030 BKN050 FM090600 15008KT
                       P6SM -RA SCT012 OVC020 FM090900 15008KT
                       P6SM -RA SCT006 BKN011 OVC020 FM091600 15008KT
                       P6SM SCT010 BKN020 OVC030=
201801081135 TAF KPAE 081135Z 0812/0912 12008KT P6SM SCT005 BKN060 OVC080
                      TEMPO 0812/0816 4SM -DZ OVC015 FM081600 14005KT
                       P6SM SCT013 OVC025
                      TEMPO 0816/0820 5SM -DZ BR BKN013 OVC025
                       FM082000 17005KT P6SM BKN040 OVC060 FM090600
                       17004KT P6SM -RA OVC020=
201801080524 TAF KPAE 080524Z 0806/0906 VRB06KT P6SM -RA FEW016 SCT035 OVC060
                       TEMPO 0807/0811 4SM -RA OVC030 FM081100
                       15007KT P6SM OVC025
                      TEMPO 0811/0815 4SM -DZ OVC015 FM081500 16008KT
                       P6SM SCT025 BKN050 OVC200=
201801072339 TAF KPAE 072339Z 0800/0824 14012G21KT P6SM -RA SCT035 BKN045 OVC060
                       TEMPO 0801/0805 5SM -RA BR SCT020 OVC035
                       FM080600 16011KT P6SM -RA SCT015 OVC025
                       FM081500 16008KT P6SM SCT025 BKN050 OVC200=
201801071743 TAF KPAE 071743Z 0718/0818 13011G20KT P6SM -RA SCT020 BKN060 OVC080
                       FM072300 15014G22KT P6SM -RA SCT018 OVC030
                       FM080600 16012KT P6SM -RA SCT015 OVC025
                       FM081400 16008KT P6SM SCT025 BKN080 OVC200=
201801071138 TAF KPAE 071138Z 0712/0812 12007KT P6SM BKN080 OVC090 FM071500
                       14008KT P6SM -RA OVC045 FM072000 16010KT
                       P6SM -RA OVC030 FM072300 16012G18KT P6SM
                       -RA OVC030
                      TEMPO 0723/0803 4SM -RA BR OVC020 FM080600
                       16012KT P6SM OVC025
                      TEMPO 0806/0810 -RA=
201801070540 TAF KPAE 070540Z 0706/0806 13006KT P6SM SCT006 OVC016
                      TEMPO 0706/0710 SCT018 OVC045 FM071200 14010G18KT
                       P6SM -RA SCT020 BKN035 OVC050 FM071800 14015G25KT
                       6SM -RA BR SCT010 BKN018 OVC030=
201801062339 TAF KPAE 062339Z 0700/0724 18005KT 5SM -SHRA BR SCT005 OVC009 FM070300
                       17005KT P6SM VCSH SCT010 BKN015 OVC030 FM070800
                       15008KT P6SM SCT015 BKN030 OVC080 FM071200
                       14010G18KT P6SM -RA SCT020 BKN035 OVC050
                       FM071800 14015G25KT 6SM -RA BR SCT010 BKN018
                       OVC030=
201801062059 KPAE 062059Z 0621/0718 VRB03KT 3SM -SHRA BR BKN003 BKN012 OVC030
                       FM062300 15006KT 6SM -SHRA BR SCT008 BKN015
                       OVC030 FM070200 15005KT P6SM VCSH SCT012
                       BKN018 OVC030 FM070500 15008KT P6SM SCT016
                       BKN035 OVC100 FM071200 14010G18KT P6SM -RA
                       SCT020 OVC040=
201801061738 TAF KPAE 061738Z 0618/0718 12005KT 3SM -SHRA BR BKN006 OVC018 FM062000
                       15006KT 6SM -SHRA BR SCT008 BKN014 OVC020
                       FM070200 15005KT P6SM VCSH SCT012 BKN018
                       OVC030 FM070500 15008KT P6SM SCT016 BKN035
                       OVC100 FM071200 14010G18KT P6SM -RA SCT020
                       OVC040=
201801061437 KPAE 061437Z 0615/0712 07006KT 4SM BR SCT015 OVC025
                      TEMPO 0617/0619 2SM -SHRA BKN015 OVC025 FM061900
                       18009KT P6SM VCSH SCT015 BKN025 OVC035 FM070400
                       17005KT P6SM SCT020 BKN035 OVC050=
201801061136 TAF KPAE 061136Z 0612/0712 32007KT 1SM -RA BR OVC003
                      TEMPO 0615/0619 4SM BR OVC007 FM061900 18009KT
                       P6SM VCSH SCT012 BKN018 OVC030 FM070400
                       17005KT P6SM SCT020 BKN035 OVC050=
201801060530 TAF KPAE 060530Z 0606/0706 15004KT P6SM BKN040 OVC050 FM060900
                       18010KT P6SM -SHRA OVC013 FM061900 18009KT
                       P6SM VCSH SCT012 BKN018 OVC030 FM070400
                       17005KT P6SM SCT020 BKN035=
201801052343 TAF KPAE 052343Z 0600/0624 14008KT P6SM -SHRA SCT035 BKN050 OVC070
                       FM060400 16006KT 6SM -SHRA BR BKN030 OVC045
                       FM060700 18004KT 5SM -SHRA BR SCT008 BKN012
                       OVC018 FM061900 18009KT P6SM VCSH SCT012
                       BKN018 OVC030=
201801051742 TAF KPAE 051742Z 0518/0618 14008KT 5SM -RA BR BKN035 OVC050 FM052000
                       16005KT P6SM -SHRA SCT035 BKN045 OVC060
                       FM060400 16006KT 6SM -SHRA BR BKN030 OVC045
                       FM060700 18011KT 5SM -SHRA BR SCT008 BKN012
                       OVC018 FM061300 33005KT 6SM -SHRA BR SCT010
                       BKN015 OVC020=
201801051125 TAF KPAE 051125Z 0512/0612 12008KT P6SM -RA BKN045 OVC070 FM052000
                       12008KT P6SM VCSH BKN040 BKN060 FM060200
                       14006KT P6SM -RA OVC040 FM061000 18012KT
                       P6SM BKN015 OVC025=
201801050535 TAF KPAE 050535Z 0506/0606 VRB03KT P6SM -RA BKN045 OVC070 FM051600
                       14006KT P6SM VCSH BKN040 BKN060 FM060200
                       14006KT P6SM -RA OVC040=
201801042320 TAF KPAE 042320Z 0500/0524 VRB03KT P6SM -RA BKN050 OVC090 FM051600
                       18008KT P6SM VCSH BKN040 BKN080=
201801041720 TAF KPAE 041720Z 0418/0518 14006KT P6SM OVC120 FM042200 14006KT
                       P6SM OVC060
                      TEMPO 0500/0504 -RA OVC040 FM050400 VRB03KT
                       P6SM -RA OVC040 FM051700 18008KT P6SM VCSH
                       BKN040 BKN080=
201801041137 TAF KPAE 041137Z 0412/0512 VRB03KT P6SM BKN150 FM041700 07006KT
                       P6SM BKN100 OVC200 FM050100 10008KT P6SM
                       -RA OVC045=
201801040540 TAF KPAE 040540Z 0406/0506 01008KT P6SM SCT200 FM041700 10008KT
                       P6SM BKN100 OVC200 FM050100 12010KT P6SM
                       -RA OVC045=
201801032320 TAF KPAE 032320Z 0400/0424 33006KT P6SM SCT200 FM040500 04006KT
                       P6SM BKN200 FM041700 10008KT P6SM BKN100
                       OVC200 FM042200 12010KT P6SM -RA BKN050
                       OVC100=
201801031720 TAF KPAE 031720Z 0318/0418 35005KT P6SM SCT200 FM040300 04006KT
                       P6SM BKN200 FM041700 10008KT P6SM BKN100
                       OVC200=
201801031120 TAF KPAE 031120Z 0312/0412 35006KT P6SM SCT100 FM032200 02005KT
                       P6SM SCT150 FM040900 VRB03KT P6SM BKN150=
201801030520 TAF KPAE 030520Z 0306/0406 35006KT P6SM OVC080 FM032200 02007KT
                       P6SM SCT150=
201801022321 TAF KPAE 022321Z 0300/0324 35006KT P6SM OVC100 FM032200 02007KT
                       P6SM SCT150=
201801021730 TAF KPAE 021730Z 0218/0318 33006KT P6SM OVC150 FM030300 04006KT
                       P6SM OVC080=
201801021120 TAF KPAE 021120Z 0212/0312 01003KT P6SM BKN200 FM021800 05006KT
                       P6SM FEW100 BKN150 FM030300 VRB03KT P6SM
                       SCT040 BKN100=
201801020526 TAF KPAE 020526Z 0206/0306 34003KT P6SM SCT250 FM020700 03003KT
                       P6SM SCT150 SCT250 FM021200 03003KT P6SM
                       BKN150 FM021800 02006KT P6SM FEW100 BKN150
                       FM030300 VRB03KT P6SM SCT040 BKN100=
201801012339 TAF KPAE 012339Z 0200/0224 34003KT P6SM SCT250 FM020600 03003KT
                       P6SM SCT150 SCT250 FM021200 03003KT P6SM
                       VCFG BKN150 FM021800 02006KT P6SM FEW100
                       BKN150=
201801011727 TAF KPAE 011727Z 0118/0218 36003KT P6SM SCT150 SCT250 FM020800
                       03003KT P6SM SCT150 SCT250 FM021200 03003KT
                       P6SM VCFG BKN150=
201801011120 TAF KPAE 011120Z 0112/0212 35004KT P6SM SCT200 FM012000 36006KT
                       P6SM SCT200 FM020100 VRB03KT P6SM SCT200=
201801011002 KPAE 011002Z 0110/0206 35004KT P6SM SCT200
                      TEMPO 0112/0116 1/4SM FG SCT001 SCT200 FM012000
                       36006KT P6SM SCT200 FM020100 VRB03KT P6SM
                       SCT200=
201801010520 TAF KPAE 010520Z 0106/0206 35007KT P6SM SCT200 FM011000 00000KT
                       1/4SM FG SCT001 SCT200 FM012000 36006KT
                       P6SM SCT200 FM020100 VRB03KT P6SM SCT200=