##########################################################
# Query made at 02/15/2025 21:45:02 UTC
# Time interval: from 03/01/2018 00:00  to 03/31/2018 23:59  UTC
##########################################################

##########################################################
# KPAE, Everett, Snohomish County Airport (United States)
# WMO index: -----. WIGOS ID: Unknown
# Latitude 47-55-23N. Longitude 122-16-57W. Altitude 184 m.
##########################################################

###################################
#  METAR/SPECI from KPAE
###################################
201803312353 METAR KPAE 312353Z 25006KT 10SM CLR 12/06 A3014 RMK AO2 SLP209 T01170061 10128 20083 58021=
201803312253 METAR KPAE 312253Z 29005KT 10SM CLR 12/05 A3016 RMK AO2 SLP216 T01170050=
201803312153 METAR KPAE 312153Z 33005KT 10SM CLR 12/06 A3019 RMK AO2 SLP224 T01170056=
201803312053 METAR KPAE 312053Z VRB05KT 10SM CLR 11/06 A3020 RMK AO2 SLP230 T01110056 56008=
201803311953 METAR KPAE 311953Z 28005KT 10SM FEW016 09/06 A3022 RMK AO2 SLP235 T00940061=
201803311905 SPECI KPAE 311905Z 36004KT 10SM FEW004 09/06 A3021 RMK AO2 T00890056=
201803311853 METAR KPAE 311853Z VRB03KT 10SM SCT010 09/06 A3021 RMK AO2 SLP234 T00890056=
201803311810 SPECI KPAE 311810Z 00000KT 10SM SCT010 09/06 A3022 RMK AO2 T00890056=
201803311753 METAR KPAE 311753Z 00000KT 10SM OVC007 08/05 A3023 RMK AO2 CIG 006V011 SLP239 T00830050 10083 20050 55000=
201803311653 METAR KPAE 311653Z 23004KT 10SM OVC006 07/06 A3023 RMK AO2 SLP240 T00670056=
201803311553 METAR KPAE 311553Z 00000KT 10SM BKN007 06/05 A3022 RMK AO2 SLP237 T00610050=
201803311453 METAR KPAE 311453Z 00000KT 10SM OVC005 06/05 A3023 RMK AO2 SLP239 T00610050 53000=
201803311408 SPECI KPAE 311408Z 33003KT 10SM OVC005 06/04 A3023 RMK AO2 T00560044=
201803311407 SPECI KPAE 311407Z 34003KT 10SM SCT005 06/04 A3023 RMK AO2 T00560044=
201803311400 SPECI KPAE 311400Z 35004KT 10SM OVC005 06/04 A3023 RMK AO2 T00560044=
201803311353 METAR KPAE 311353Z 35005KT 10SM FEW005 06/04 A3023 RMK AO2 SLP239 T00560044=
201803311253 METAR KPAE 311253Z AUTO 00000KT 10SM BKN007 BKN030 06/04 A3023 RMK AO2 SLP239 T00560039=
201803311250 SPECI KPAE 311250Z AUTO 00000KT 10SM BKN007 BKN030 06/04 A3023 RMK AO2=
201803311242 SPECI KPAE 311242Z AUTO 00000KT 10SM SCT007 BKN030 05/04 A3023 RMK AO2 T00500039=
201803311153 METAR KPAE 311153Z AUTO 00000KT 10SM BKN033 05/04 A3023 RMK AO2 SLP239 70001 T00500044 10072 20044 55000=
201803311053 METAR KPAE 311053Z AUTO 00000KT 10SM SCT033 06/04 A3023 RMK AO2 SLP238 T00560039=
201803310953 METAR KPAE 310953Z AUTO 00000KT 10SM SCT008 05/04 A3023 RMK AO2 SLP239 T00500039=
201803310950 SPECI KPAE 310950Z AUTO 00000KT 10SM SCT008 05/04 A3023 RMK AO2=
201803310940 SPECI KPAE 310940Z AUTO 00000KT 10SM BKN008 06/04 A3023 RMK AO2 T00560039=
201803310920 SPECI KPAE 310920Z AUTO 35004KT 10SM FEW008 06/04 A3023 RMK AO2 T00560044=
201803310853 METAR KPAE 310853Z AUTO 35005KT 10SM CLR 06/04 A3023 RMK AO2 SLP240 T00610044 50006=
201803310753 METAR KPAE 310753Z AUTO 35005KT 10SM CLR 06/04 A3023 RMK AO2 SLP240 T00610044 401330061=
201803310653 METAR KPAE 310653Z AUTO 33005KT 10SM FEW048 07/05 A3022 RMK AO2 SLP237 T00670050=
201803310553 METAR KPAE 310553Z AUTO 33007KT 10SM BKN030 07/05 A3021 RMK AO2 SLP235 T00670050 10117 20067 52009=
201803310453 METAR KPAE 310453Z AUTO 33006KT 10SM CLR 07/06 A3021 RMK AO2 SLP232 T00720056=
201803310353 METAR KPAE 310353Z 34007KT 10SM BKN048 08/06 A3019 RMK AO2 SLP228 T00780061=
201803310253 METAR KPAE 310253Z 33009KT 10SM BKN043 BKN055 08/06 A3019 RMK AO2 SLP225 T00830056 56003=
201803310153 METAR KPAE 310153Z 33009KT 10SM BKN050 BKN060 09/06 A3019 RMK AO2 SLP226 T00890056=
201803310053 METAR KPAE 310053Z 33010KT 10SM CLR 10/06 A3019 RMK AO2 SLP226 T01000061=
201803302353 METAR KPAE 302353Z 32007KT 10SM SCT030 BKN035 OVC043 11/06 A3020 RMK AO2 SLP228 T01110061 10133 20089 55003=
201803302253 METAR KPAE 302253Z 17004KT 10SM BKN039 13/06 A3020 RMK AO2 SLP227 T01280056=
201803302153 METAR KPAE 302153Z 15003KT 10SM BKN035 OVC042 12/06 A3020 RMK AO2 SLP228 T01220056=
201803302100 SPECI KPAE 302100Z 18006KT 10SM FEW026 BKN043 12/06 A3021 RMK AO2 T01170056=
201803302053 METAR KPAE 302053Z 18009KT 10SM SCT016 BKN029 OVC041 12/06 A3021 RMK AO2 SLP230 T01170056 51000=
201803301956 SPECI KPAE 301956Z 17007KT 10SM SCT016 BKN029 OVC041 11/06 A3021 RMK AO2 T01110061=
201803301953 METAR KPAE 301953Z 17006KT 10SM SCT016 SCT023 BKN041 11/06 A3021 RMK AO2 SLP230 T01110061=
201803301908 SPECI KPAE 301908Z 18009KT 10SM SCT016 SCT023 BKN041 11/07 A3021 RMK AO2 T01060067=
201803301853 METAR KPAE 301853Z 16007KT 10SM BKN016 BKN023 OVC041 11/07 A3021 RMK AO2 SLP232 T01060072=
201803301753 METAR KPAE 301753Z 17010KT 10SM SCT006 BKN010 09/07 A3020 RMK AO2 RAE1655 SLP230 P0000 60001 T00890067 10094 20067 53009=
201803301653 METAR KPAE 301653Z 17009KT 10SM -RA BKN004 OVC014 08/07 A3019 RMK AO2 RAB44 SLP226 P0000 T00830067=
201803301647 SPECI KPAE 301647Z 16011KT 10SM -RA BKN004 OVC014 08/07 A3019 RMK AO2 RAB44 P0000=
201803301553 METAR KPAE 301553Z 14007KT 10SM SCT007 OVC015 08/07 A3018 RMK AO2 SLP222 T00780067=
201803301453 METAR KPAE 301453Z 14004KT 8SM BKN007 OVC010 07/06 A3018 RMK AO2 RAE1355 CIG 005V009 SLP221 P0000 60001 T00720061 53001=
201803301353 METAR KPAE 301353Z 14005KT 3SM -RA BR OVC005 07/07 A3017 RMK AO2 RAB46 CIG 003V009 SLP220 P0001 T00670067=
201803301350 SPECI KPAE 301350Z 13007KT 3SM -RA BR OVC005 07/07 A3017 RMK AO2 RAB46 CIG 003V009 P0001=
201803301334 SPECI KPAE 301334Z AUTO 13006KT 2 1/2SM BR OVC005 07/07 A3017 RMK AO2 CIG 003V009 T00670067=
201803301253 METAR KPAE 301253Z AUTO 13006KT 2SM BR BKN003 OVC008 07/06 A3018 RMK AO2 SLP220 T00670061=
201803301246 SPECI KPAE 301246Z AUTO 12006KT 1 3/4SM BR OVC003 07/07 A3017 RMK AO2 T00720067=
201803301219 SPECI KPAE 301219Z AUTO 13005KT 2SM BR OVC003 07/07 A3017 RMK AO2 T00720067=
201803301208 SPECI KPAE 301208Z AUTO 13004KT 1 3/4SM BR BKN004 BKN012 OVC019 07/07 A3018 RMK AO2 T00720067=
201803301156 SPECI KPAE 301156Z AUTO VRB03KT 1 3/4SM BR FEW004 BKN011 OVC019 07/07 A3017 RMK AO2 T00720067=
201803301153 METAR KPAE 301153Z AUTO 12004KT 2SM BR FEW004 SCT011 OVC019 07/07 A3017 RMK AO2 SLP219 60002 70005 T00720067 10078 20072 58005=
201803301053 METAR KPAE 301053Z AUTO VRB03KT 4SM BR FEW005 OVC025 07/07 A3018 RMK AO2 SLP222 T00720067=
201803301051 SPECI KPAE 301051Z AUTO 09003KT 4SM BR FEW005 OVC025 07/07 A3018 RMK AO2=
201803300953 METAR KPAE 300953Z AUTO 08005KT 8SM OVC025 07/07 A3019 RMK AO2 SLP224 T00720067=
201803300853 METAR KPAE 300853Z AUTO 08006KT 7SM OVC022 07/07 A3020 RMK AO2 SLP228 60002 T00720067 58007=
201803300828 SPECI KPAE 300828Z AUTO 08008KT 4SM BR OVC020 07/07 A3020 RMK AO2 T00720067=
201803300818 SPECI KPAE 300818Z AUTO 07005KT 2 1/2SM BR OVC020 07/07 A3021 RMK AO2 T00720067=
201803300800 SPECI KPAE 300800Z AUTO 05003KT 3SM BR OVC018 08/07 A3021 RMK AO2 T00780067=
201803300753 METAR KPAE 300753Z AUTO 05003KT 2 1/2SM BR OVC018 08/07 A3021 RMK AO2 RAB11E22 SLP234 P0001 T00780067 401110050=
201803300653 METAR KPAE 300653Z AUTO 34005KT 5SM BR SCT002 SCT007 OVC017 08/07 A3022 RMK AO2 RAE08 SLP237 P0001 T00780072=
201803300637 SPECI KPAE 300637Z AUTO 01003KT 4SM BR BKN002 OVC018 08/07 A3022 RMK AO2 RAE08 P0001 T00780072=
201803300606 SPECI KPAE 300606Z AUTO 34003KT 4SM -RA BR FEW004 OVC021 08/07 A3022 RMK AO2 P0001 T00780072=
201803300553 METAR KPAE 300553Z AUTO 00000KT 2SM -RA BR FEW003 BKN017 OVC023 08/07 A3022 RMK AO2 RAB0459 SLP237 P0002 60002 T00780072 10100 20078 58005=
201803300546 SPECI KPAE 300546Z AUTO 35004KT 1 3/4SM -RA BR FEW007 BKN017 OVC023 08/07 A3023 RMK AO2 RAB0459 P0002 T00780072=
201803300532 SPECI KPAE 300532Z AUTO 00000KT 2 1/2SM -RA BR OVC017 08/07 A3023 RMK AO2 RAB0459 P0001 T00780072=
201803300453 METAR KPAE 300453Z AUTO 00000KT 6SM BR OVC022 08/07 A3023 RMK AO2 SLP241 T00830067=
201803300420 SPECI KPAE 300420Z AUTO 00000KT 10SM BKN026 OVC035 09/06 A3024 RMK AO2 T00890061=
201803300353 METAR KPAE 300353Z 00000KT 10SM BKN035 OVC060 09/06 A3024 RMK AO2 SLP242 T00890061=
201803300253 METAR KPAE 300253Z 07003KT 10SM OVC060 09/06 A3024 RMK AO2 SLP243 T00940056 58016=
201803300153 METAR KPAE 300153Z 00000KT 10SM OVC043 10/04 A3026 RMK AO2 SLP248 T01000044=
201803300053 METAR KPAE 300053Z 00000KT 10SM OVC041 10/04 A3027 RMK AO2 SLP253 T01000044=
201803292353 METAR KPAE 292353Z 00000KT 10SM OVC039 10/05 A3029 RMK AO2 SLP259 60000 T01000050 10111 20067 56019=
201803292253 METAR KPAE 292253Z 27007KT 10SM OVC037 11/06 A3030 RMK AO2 SLP263 T01060056=
201803292153 METAR KPAE 292153Z 13006KT 10SM BKN034 OVC045 11/04 A3032 RMK AO2 SLP269 T01060044=
201803292053 METAR KPAE 292053Z 15007KT 10SM OVC036 09/04 A3035 RMK AO2 RAB04E24B35E53 SLP279 P0000 60000 T00890044 58010=
201803292033 SPECI KPAE 292033Z 13007KT 10SM SCT015 OVC033 08/04 A3035 RMK AO2 RAB04E24 P0000 T00830044=
201803291953 METAR KPAE 291953Z 14008KT 10SM BKN015 OVC035 08/04 A3036 RMK AO2 RAE31 SLP284 P0000 T00780044=
201803291943 SPECI KPAE 291943Z 13009KT 10SM BKN015 OVC035 08/04 A3036 RMK AO2 RAE31 P0000 T00780039=
201803291853 METAR KPAE 291853Z 15009KT 10SM -RA BKN012 OVC035 07/04 A3037 RMK AO2 RAB45 SLP289 P0000 T00720044=
201803291753 METAR KPAE 291753Z 14009KT 10SM SCT008 BKN014 OVC037 07/04 A3038 RMK AO2 RAB1654E01 SLP290 P0000 60001 T00670044 10067 20061 55000=
201803291738 SPECI KPAE 291738Z 12007KT 9SM SCT008 OVC012 07/05 A3038 RMK AO2 RAB1654E01 P0000 T00670050=
201803291715 SPECI KPAE 291715Z 13006KT 9SM BKN008 OVC017 06/05 A3038 RMK AO2 RAB1654E01 P0000 T00610050=
201803291700 SPECI KPAE 291700Z 12005KT 9SM -RA OVC011 06/05 A3038 RMK AO2 RAB1654 P0000 T00610050=
201803291653 METAR KPAE 291653Z 13006KT 9SM BKN009 BKN013 OVC018 06/04 A3038 RMK AO2 RAE49 SLP290 P0000 T00610044=
201803291651 SPECI KPAE 291651Z 12006KT 9SM BKN009 BKN013 OVC018 06/04 A3038 RMK AO2 RAE49 P0000=
201803291553 METAR KPAE 291553Z 12007KT 7SM -RA SCT008 OVC020 06/04 A3038 RMK AO2 RAE22B51 SLP290 P0001 T00610044=
201803291518 SPECI KPAE 291518Z 14005KT 8SM -RA FEW008 OVC019 06/04 A3038 RMK AO2 P0000 T00610044=
201803291453 METAR KPAE 291453Z 12005KT 9SM -RA OVC021 06/04 A3038 RMK AO2 RAE27B52 SLP289 P0000 60000 T00610044 58002=
201803291353 METAR KPAE 291353Z 12005KT 10SM -RA OVC022 06/03 A3038 RMK AO2 RAB15 SLP290 P0000 T00610033=
201803291253 METAR KPAE 291253Z AUTO 13004KT 10SM OVC024 06/03 A3038 RMK AO2 SLP292 T00610033=
201803291153 METAR KPAE 291153Z AUTO 12004KT 10SM OVC026 06/03 A3038 RMK AO2 SLP291 70002 T00610033 10067 20050 56006=
201803291053 METAR KPAE 291053Z AUTO 00000KT 10SM BKN026 OVC033 07/03 A3039 RMK AO2 SLP293 T00670033=
201803291048 SPECI KPAE 291048Z AUTO 00000KT 10SM BKN026 OVC035 07/03 A3039 RMK AO2=
201803291019 SPECI KPAE 291019Z AUTO 07003KT 10SM SCT027 OVC040 07/03 A3039 RMK AO2 T00670033=
201803290953 METAR KPAE 290953Z AUTO 00000KT 10SM OVC027 07/03 A3040 RMK AO2 SLP298 T00670033=
201803290926 SPECI KPAE 290926Z AUTO 00000KT 10SM BKN029 OVC036 07/03 A3039 RMK AO2 T00670033=
201803290853 METAR KPAE 290853Z AUTO 00000KT 10SM SCT028 OVC041 07/04 A3040 RMK AO2 SLP297 T00670039 56003=
201803290840 SPECI KPAE 290840Z AUTO VRB03KT 10SM BKN028 OVC043 07/04 A3040 RMK AO2 T00670039=
201803290753 METAR KPAE 290753Z AUTO 00000KT 10SM SCT042 05/03 A3040 RMK AO2 SLP298 T00500033 400890050=
201803290653 METAR KPAE 290653Z AUTO 35004KT 10SM BKN045 07/04 A3040 RMK AO2 SLP297 T00670039=
201803290553 METAR KPAE 290553Z AUTO 33003KT 10SM BKN048 07/03 A3041 RMK AO2 SLP300 T00670033 10083 20067 50003=
201803290453 METAR KPAE 290453Z AUTO 33003KT 10SM BKN030 OVC039 07/03 A3041 RMK AO2 SLP300 T00720033=
201803290353 METAR KPAE 290353Z 35003KT 10SM OVC033 07/03 A3040 RMK AO2 SLP298 T00720033=
201803290253 METAR KPAE 290253Z 33004KT 10SM OVC036 08/03 A3040 RMK AO2 SLP297 T00780028 56006=
201803290153 METAR KPAE 290153Z 34004KT 10SM OVC036 08/03 A3040 RMK AO2 SLP297 T00780028=
201803290053 METAR KPAE 290053Z 32004KT 10SM BKN038 OVC048 08/03 A3041 RMK AO2 SLP300 T00830033=
201803282353 METAR KPAE 282353Z 35006KT 10SM OVC046 08/03 A3041 RMK AO2 SLP303 60001 T00830033 10089 20067 56005=
201803282253 METAR KPAE 282253Z AUTO VRB04KT 10SM FEW020 BKN033 OVC050 08/03 A3042 RMK AO2 SLP304 T00830033=
201803282238 SPECI KPAE 282238Z 33006KT 10SM SCT020 OVC035 09/04 A3042 RMK AO2 T00890039=
201803282230 SPECI KPAE 282230Z 35003KT 10SM BKN020 OVC033 08/03 A3042 RMK AO2 T00830033=
201803282153 METAR KPAE 282153Z VRB05KT 10SM SCT032 OVC048 08/03 A3042 RMK AO2 SLP305 T00830033=
201803282053 METAR KPAE 282053Z 25005KT 10SM FEW024 BKN034 OVC080 08/03 A3043 RMK AO2 SLP308 60001 T00830033 58008=
201803281953 METAR KPAE 281953Z 22004KT 10SM SCT014 OVC038 08/03 A3044 RMK AO2 RAE29 SLP312 P0001 T00780033=
201803281925 SPECI KPAE 281925Z 20006KT 10SM -RA SCT014 BKN016 OVC044 08/04 A3045 RMK AO2 P0001 T00780044=
201803281853 METAR KPAE 281853Z 22007KT 10SM -RA OVC036 07/04 A3046 RMK AO2 RAB02 SLP317 P0000 T00720039=
201803281840 SPECI KPAE 281840Z 24005KT 10SM -RA SCT029 OVC036 07/04 A3046 RMK AO2 RAB02 P0000 T00670039=
201803281753 METAR KPAE 281753Z VRB03KT 10SM BKN018 OVC033 07/04 A3045 RMK AO2 RAE01B20E49 SLP316 P0001 60001 T00720039 10072 20061 53008=
201803281718 SPECI KPAE 281718Z 29005KT 10SM BKN018 OVC033 07/04 A3046 RMK AO2 RAE01 P0000 T00720039=
201803281653 METAR KPAE 281653Z 00000KT 10SM -RA FEW016 OVC033 07/04 A3044 RMK AO2 RAE31B47 SLP310 P0000 T00720039=
201803281553 METAR KPAE 281553Z VRB03KT 10SM -RA OVC031 07/03 A3044 RMK AO2 RAB17 SLP310 P0000 T00670028=
201803281453 METAR KPAE 281453Z 32003KT 10SM OVC031 07/02 A3043 RMK AO2 SLP308 T00670022 51003=
201803281353 METAR KPAE 281353Z 32004KT 10SM OVC033 07/02 A3043 RMK AO2 SLP307 T00670022=
201803281253 METAR KPAE 281253Z AUTO 32005KT 10SM OVC034 07/02 A3043 RMK AO2 SLP308 T00670022=
201803281153 METAR KPAE 281153Z AUTO 32003KT 10SM OVC042 07/02 A3042 RMK AO2 SLP304 70011 T00670022 10072 20067 51005=
201803281053 METAR KPAE 281053Z AUTO 31006KT 10SM OVC038 07/02 A3042 RMK AO2 SLP303 T00670022=
201803280953 METAR KPAE 280953Z AUTO 32003KT 10SM SCT028 OVC039 07/02 A3042 RMK AO2 SLP302 T00720022=
201803280853 METAR KPAE 280853Z AUTO VRB03KT 10SM OVC034 07/03 A3040 RMK AO2 SLP298 T00670028 51009=
201803280814 SPECI KPAE 280814Z AUTO 00000KT 10SM OVC030 07/02 A3040 RMK AO2 T00670022=
201803280753 METAR KPAE 280753Z AUTO 31003KT 10SM OVC028 07/03 A3039 RMK AO2 SLP295 T00670028 401000067=
201803280653 METAR KPAE 280653Z AUTO 35005KT 10SM OVC024 07/03 A3039 RMK AO2 SLP295 T00720033=
201803280553 METAR KPAE 280553Z AUTO 33005KT 10SM OVC022 07/04 A3038 RMK AO2 SLP290 60000 T00720044 10094 20072 51018=
201803280453 METAR KPAE 280453Z AUTO 34007KT 10SM OVC020 07/06 A3037 RMK AO2 SLP288 T00720056=
201803280415 SPECI KPAE 280415Z AUTO 35006KT 10SM OVC016 08/06 A3036 RMK AO2 T00780061=
201803280353 METAR KPAE 280353Z 35006KT 10SM OVC012 08/06 A3035 RMK AO2 SLP281 T00780061=
201803280300 SPECI KPAE 280300Z 35006KT 10SM OVC011 08/07 A3033 RMK AO2 T00830067=
201803280253 METAR KPAE 280253Z 35006KT 10SM OVC009 08/07 A3032 RMK AO2 SLP270 60000 T00830067 53006=
201803280153 METAR KPAE 280153Z 36004KT 10SM BKN007 OVC016 08/07 A3031 RMK AO2 SLP267 T00830072=
201803280107 SPECI KPAE 280107Z 34005KT 10SM FEW003 BKN005 OVC021 09/08 A3031 RMK AO2 T00940083=
201803280100 SPECI KPAE 280100Z 34005KT 10SM FEW003 BKN018 OVC023 09/08 A3031 RMK AO2 T00890083=
201803280053 METAR KPAE 280053Z 34005KT 3SM BR FEW001 BKN005 OVC021 09/08 A3031 RMK AO2 RAE14 SLP265 P0000 T00890083=
201803280016 SPECI KPAE 280016Z 34004KT 1SM R16R/1600VP6000FT BR BKN003 BKN006 OVC016 09/08 A3030 RMK AO2 RAE14 P0000 T00890083=
201803272353 METAR KPAE 272353Z 30003KT 5SM -RA BR SCT002 BKN008 OVC028 09/08 A3031 RMK AO2 RAE10B14E27B53 SLP264 P0001 60006 T00940083 10100 20078 50005=
201803272312 SPECI KPAE 272312Z 12005KT 7SM SCT004 BKN009 OVC028 10/08 A3031 RMK AO2 RAE10 P0000 T01000083=
201803272302 SPECI KPAE 272302Z 12006KT 4SM -RA BR SCT010 BKN019 OVC028 10/08 A3030 RMK AO2 P0000 T01000083=
201803272253 METAR KPAE 272253Z 11005KT 5SM -RA BR BKN009 OVC017 10/08 A3031 RMK AO2 RAB33 SLP265 P0000 T01000083=
201803272153 METAR KPAE 272153Z 13009KT 10SM OVC007 09/08 A3030 RMK AO2 RAE14 SLP261 P0000 T00940078=
201803272112 SPECI KPAE 272112Z 14010KT 10SM -RA BKN009 BKN017 OVC055 09/08 A3029 RMK AO2 P0000 T00940083=
201803272105 SPECI KPAE 272105Z 14011KT 9SM -RA SCT007 SCT017 OVC055 09/08 A3029 RMK AO2 P0000 T00940083=
201803272053 METAR KPAE 272053Z 15013KT 9SM -RA BKN007 BKN017 OVC050 09/08 A3029 RMK AO2 RAB31 SLP259 P0001 60005 T00940083 53005 $=
201803271953 METAR KPAE 271953Z 15014KT 10SM OVC006 08/08 A3028 RMK AO2 RAE1857B28E39 SLP257 P0000 T00830078 $=
201803271853 METAR KPAE 271853Z 15012KT 10SM -RA OVC008 08/07 A3028 RMK AO2 SLP255 P0004 T00830072 $=
201803271753 METAR KPAE 271753Z 16018KT 6SM -RA BR OVC008 08/07 A3028 RMK AO2 PK WND 15028/1713 SLP255 P0005 60005 T00780067 10083 20078 53008 $=
201803271717 SPECI KPAE 271717Z 16018G28KT 9SM -RA OVC008 08/06 A3027 RMK AO2 PK WND 15028/1713 P0001 T00780061 $=
201803271653 METAR KPAE 271653Z 17017G26KT 10SM -RA OVC012 08/06 A3027 RMK AO2 PK WND 16031/1619 RAB1559E24B44 SLP254 P0000 T00780061 $=
201803271600 SPECI KPAE 271600Z 15021G29KT 10SM -RA OVC011 08/06 A3025 RMK AO2 PK WND 15029/1559 RAB1559 P0000 T00780061 $=
201803271553 METAR KPAE 271553Z 16020G31KT 10SM OVC009 08/06 A3025 RMK AO2 PK WND 15031/1546 SLP247 T00780061 $=
201803271453 METAR KPAE 271453Z 15022G29KT 10SM OVC008 08/06 A3025 RMK AO2 PK WND 15032/1431 RAB40E52 SLP247 P0000 60000 T00780061 $=
201803271353 METAR KPAE 271353Z 15018G30KT 10SM OVC012 08/06 A3024 RMK AO2 PK WND 14030/1351 SLP243 T00780061 $=
201803271304 SPECI KPAE 271304Z AUTO 14019G26KT 10SM OVC012 08/06 A3025 RMK AO2 PK WND 15026/1259 T00780061 $=
201803271253 METAR KPAE 271253Z AUTO 15018G26KT 10SM 08/06 A3026 RMK AO2 PK WND 14030/1235 SLP249 T00780061 $=
201803271153 METAR KPAE 271153Z AUTO 15016G23KT 10SM BKN011 BKN020 OVC070 08/06 A3027 RMK AO2 SLP252 70006 T00780061 10078 20072 58003=
201803271053 METAR KPAE 271053Z AUTO 15011G23KT 10SM BKN010 OVC017 07/06 A3028 RMK AO2 SLP256 T00720061=
201803270953 METAR KPAE 270953Z AUTO 14014G20KT 10SM BKN010 OVC013 07/06 A3027 RMK AO2 CIG 007V011 SLP255 T00720061=
201803270946 SPECI KPAE 270946Z AUTO 14013G19KT 10SM OVC010 07/06 A3028 RMK AO2 CIG 007V013 T00720061=
201803270853 METAR KPAE 270853Z AUTO 14011KT 10SM OVC009 07/06 A3028 RMK AO2 CIG 008V013 SLP256 T00720056 56007=
201803270824 SPECI KPAE 270824Z AUTO 13012G21KT 10SM OVC009 07/06 A3028 RMK AO2 CIG 008V013 T00720061=
201803270753 METAR KPAE 270753Z AUTO 14010KT 10SM OVC010 07/06 A3028 RMK AO2 SLP258 T00720061 400780044=
201803270653 METAR KPAE 270653Z AUTO 15013G20KT 10SM OVC012 08/06 A3028 RMK AO2 SLP258 T00780056=
201803270638 SPECI KPAE 270638Z AUTO 14010KT 10SM BKN010 OVC014 07/06 A3029 RMK AO2 CIG 008V012 T00720061=
201803270601 SPECI KPAE 270601Z AUTO 14011KT 10SM OVC009 08/06 A3029 RMK AO2 T00780061=
201803270553 METAR KPAE 270553Z AUTO 14011G19KT 10SM OVC010 07/06 A3030 RMK AO2 CIG 008V013 SLP263 60003 T00720061 10072 20067 50008=
201803270453 METAR KPAE 270453Z AUTO 16011KT 10SM OVC010 07/06 A3031 RMK AO2 CIG 009V014 SLP265 T00720061=
201803270433 SPECI KPAE 270433Z AUTO 14010KT 10SM BKN010 OVC015 07/06 A3030 RMK AO2 CIG 007V012 T00720061=
201803270353 METAR KPAE 270353Z AUTO 13012KT 10SM OVC008 07/06 A3028 RMK AO2 SLP257 T00670056=
201803270253 METAR KPAE 270253Z 14010KT 10SM OVC009 07/06 A3027 RMK AO2 SLP256 60003 T00670056 50000=
201803270153 METAR KPAE 270153Z 13010KT 10SM OVC008 07/06 A3028 RMK AO2 RAE38 SLP257 P0001 T00670056=
201803270148 SPECI KPAE 270148Z 14011KT 10SM OVC008 07/06 A3028 RMK AO2 RAE38 CIG 007V012 P0001=
201803270053 METAR KPAE 270053Z 14008KT 10SM -RA OVC011 07/06 A3027 RMK AO2 SLP255 P0002 T00720056=
201803262353 METAR KPAE 262353Z 13014G19KT 9SM -RA OVC011 07/05 A3027 RMK AO2 RAB39 SLP252 P0001 60003 T00670050 10072 20056 53009=
201803262253 METAR KPAE 262253Z AUTO 14015G22KT 10SM BKN011 OVC017 07/05 A3025 RMK AO2 SLP248 T00670050=
201803262153 METAR KPAE 262153Z 14013KT 10SM OVC011 07/05 A3024 RMK AO2 RAE22 SLP243 P0000 T00670050=
201803262053 METAR KPAE 262053Z 15016G21KT 10SM -RA OVC012 07/04 A3024 RMK AO2 SLP243 P0001 60002 T00670044 51005=
201803262038 SPECI KPAE 262038Z 15014KT 10SM -RA BKN009 OVC015 06/04 A3024 RMK AO2 P0001 T00610044=
201803262030 SPECI KPAE 262030Z 15014KT 10SM -RA BKN010 OVC015 06/04 A3024 RMK AO2 CIG 008V013 P0001 T00610044=
201803261953 METAR KPAE 261953Z 16016KT 10SM -RA OVC009 06/04 A3024 RMK AO2 CIG 008V014 SLP242 P0001 T00610044=
201803261853 METAR KPAE 261853Z 16015KT 10SM -RA OVC009 06/04 A3023 RMK AO2 RAB23 SLP239 P0000 T00610044=
201803261753 METAR KPAE 261753Z 17012KT 10SM OVC008 06/03 A3022 RMK AO2 SLP239 T00560033 10056 20044 51017=
201803261706 SPECI KPAE 261706Z 17014KT 10SM OVC010 06/03 A3021 RMK AO2 T00560033=
201803261653 METAR KPAE 261653Z 17010KT 10SM OVC009 05/03 A3021 RMK AO2 SLP233 T00500028=
201803261628 SPECI KPAE 261628Z 17011KT 10SM OVC009 05/03 A3020 RMK AO2 T00500028=
201803261553 METAR KPAE 261553Z 16015KT 10SM OVC012 05/03 A3019 RMK AO2 SLP227 T00500028=
201803261453 METAR KPAE 261453Z 15015KT 10SM OVC009 04/03 A3017 RMK AO2 SLP220 T00440028 51012=
201803261448 SPECI KPAE 261448Z 15014KT 10SM OVC009 04/03 A3017 RMK AO2=
201803261353 METAR KPAE 261353Z 14012G21KT 10SM OVC014 04/02 A3015 RMK AO2 PK WND 14026/1258 SLP213 T00440022=
201803261310 SPECI KPAE 261310Z AUTO 14015G24KT 10SM BKN013 OVC110 04/02 A3014 RMK AO2 PK WND 14026/1258 T00440022=
201803261253 METAR KPAE 261253Z AUTO 14017G23KT 10SM BKN015 BKN060 OVC110 04/02 A3014 RMK AO2 PK WND 15027/1221 SLP208 T00440022=
201803261153 METAR KPAE 261153Z AUTO 15015G23KT 10SM SCT022 BKN060 OVC070 06/01 A3015 RMK AO2 SLP211 T00560011 10056 20056 58002=
201803261053 METAR KPAE 261053Z AUTO 13016G21KT 10SM FEW120 06/01 A3015 RMK AO2 SLP213 T00560006=
201803260953 METAR KPAE 260953Z AUTO 15013KT 10SM BKN110 06/01 A3015 RMK AO2 SLP213 T00560006=
201803260853 METAR KPAE 260853Z AUTO 13011G18KT 10SM OVC100 06/01 A3015 RMK AO2 SLP214 T00560006 53002=
201803260653 METAR KPAE 260653Z AUTO 16013KT 10SM FEW100 OVC110 06/01 A3015 RMK AO2 SLP211 T00560011=
201803260553 METAR KPAE 260553Z AUTO 16013KT 10SM FEW100 OVC120 06/01 A3015 RMK AO2 SLP212 T00560006 10094 20056 51013 TSNO=
201803260453 METAR KPAE 260453Z AUTO 17012KT 10SM BKN120 06/01 A3014 RMK AO2 SLP209 T00610006=
201803260353 METAR KPAE 260353Z AUTO 18010KT 10SM CLR 07/00 A3013 RMK AO2 SLP207 T00670000=
201803260253 METAR KPAE 260253Z 17006KT 10SM CLR 07/00 A3011 RMK AO2 SLP200 T00720000 53005=
201803260153 METAR KPAE 260153Z 19013G19KT 10SM OVC055 08/M02 A3010 RMK AO2 SLP196 T00831017=
201803260053 METAR KPAE 260053Z 14009KT 10SM SCT055 BKN070 09/M02 A3009 RMK AO2 SLP193 T00941022=
201803252353 METAR KPAE 252353Z VRB03KT 10SM FEW010 BKN055 BKN095 09/M02 A3009 RMK AO2 SLP194 T00891017 10094 20050 58003=
201803252253 METAR KPAE 252253Z 18003KT 10SM FEW044 SCT075 BKN100 08/M01 A3010 RMK AO2 SLP197 T00831006=
201803252200 SPECI KPAE 252200Z 00000KT 10SM SCT037 BKN045 BKN050 08/00 A3011 RMK AO2 T00830000=
201803252153 METAR KPAE 252153Z VRB04KT 10SM BKN029 BKN048 BKN055 08/00 A3010 RMK AO2 SLP198 T00830000=
201803252053 METAR KPAE 252053Z 20005KT 10SM BKN029 BKN048 BKN055 07/01 A3010 RMK AO2 SLP198 T00720011 53001=
201803252010 SPECI KPAE 252010Z 20005KT 10SM OVC028 07/02 A3010 RMK AO2 T00720017=
201803252000 SPECI KPAE 252000Z 16004KT 10SM FEW024 BKN030 OVC044 07/01 A3010 RMK AO2 T00670006=
201803251953 METAR KPAE 251953Z 19008KT 10SM BKN026 BKN035 07/01 A3010 RMK AO2 SLP196 T00720011=
201803251951 SPECI KPAE 251951Z 17004KT 10SM BKN026 OVC033 07/01 A3010 RMK AO2=
201803251853 METAR KPAE 251853Z 15007KT 10SM FEW015 SCT022 BKN038 07/02 A3010 RMK AO2 SLP197 T00670022=
201803251753 METAR KPAE 251753Z 14007KT 10SM SCT020 06/03 A3009 RMK AO2 SLP194 T00560028 10056 20006 53008=
201803251653 METAR KPAE 251653Z VRB03KT 10SM FEW013 04/02 A3008 RMK AO2 SLP190 T00390017=
201803251619 SPECI KPAE 251619Z 12003KT 9SM FEW002 BKN010 03/02 A3007 RMK AO2 T00280017=
201803251553 METAR KPAE 251553Z 12005KT 6SM VCFG SCT002 BKN015 02/01 A3007 RMK AO2 SLP186 T00220011=
201803251548 SPECI KPAE 251548Z 13005KT 6SM VCFG SCT002 OVC015 02/02 A3007 RMK AO2=
201803251531 SPECI KPAE 251531Z 12005KT 1SM R16R/P6000FT VCFG BKN002 OVC013 02/01 A3006 RMK AO2 T00170011=
201803251453 METAR KPAE 251453Z 12004KT 1/2SM R16R/2600VP6000FT FG BKN002 OVC013 01/01 A3005 RMK AO2 SLP180 T00060006 53011=
201803251432 SPECI KPAE 251432Z 13004KT 1/2SM R16R/P6000FT FG BKN002 01/00 A3003 RMK AO2 T00060000=
201803251353 METAR KPAE 251353Z VRB03KT 10SM FEW014 SCT019 OVC046 01/00 A3002 RMK AO2 SLP170 T00110000=
201803251348 SPECI KPAE 251348Z AUTO 09005KT 10SM SCT014 BKN019 OVC046 01/01 A3002 RMK AO2=
201803251334 SPECI KPAE 251334Z AUTO 12005KT 10SM OVC014 01/01 A3002 RMK AO2 T00110006=
201803251312 SPECI KPAE 251312Z AUTO VRB03KT 10SM SCT016 BKN025 OVC045 01/00 A3002 RMK AO2 T00110000=
201803251253 METAR KPAE 251253Z AUTO 00000KT 10SM OVC042 01/00 A3002 RMK AO2 SLP168 T00060000=
201803251153 METAR KPAE 251153Z AUTO VRB04KT 10SM CLR 01/M01 A2999 RMK AO2 SLP159 70022 T00061006 10033 20006 53009=
201803251116 SPECI KPAE 251116Z AUTO 00000KT 10SM SCT016 01/M01 A2998 RMK AO2 T00061011=
201803251053 METAR KPAE 251053Z AUTO 00000KT 10SM BKN016 01/00 A2998 RMK AO2 SLP156 T00110000=
201803251045 SPECI KPAE 251045Z AUTO 00000KT 10SM BKN015 01/00 A2998 RMK AO2 T00110000=
201803250953 METAR KPAE 250953Z AUTO 00000KT 10SM CLR 02/M01 A2997 RMK AO2 SLP153 T00221006=
201803250853 METAR KPAE 250853Z AUTO 13003KT 10SM CLR 01/M01 A2996 RMK AO2 SLP151 T00111006 53006=
201803250753 METAR KPAE 250753Z AUTO 01003KT 10SM CLR 02/00 A2995 RMK AO2 SLP146 T00220000 400830017=
201803250653 METAR KPAE 250653Z AUTO 35004KT 10SM CLR 03/01 A2995 RMK AO2 SLP145 T00280011=
201803250553 METAR KPAE 250553Z AUTO 33004KT 10SM CLR 03/00 A2994 RMK AO2 SLP144 T00280000 10083 20028 51007=
201803250453 METAR KPAE 250453Z AUTO 00000KT 10SM CLR 03/00 A2994 RMK AO2 SLP143 T00330000=
201803250353 METAR KPAE 250353Z 00000KT 10SM CLR 06/01 A2993 RMK AO2 SLP139 T00560006=
201803250253 METAR KPAE 250253Z 05003KT 10SM CLR 06/01 A2992 RMK AO2 SLP135 T00610006 53006=
201803250153 METAR KPAE 250153Z 00000KT 10SM BKN033 BKN042 07/00 A2991 RMK AO2 SLP131 T00720000=
201803250053 METAR KPAE 250053Z 01006KT 10SM BKN039 BKN048 08/01 A2991 RMK AO2 SLP131 T00780011=
201803242353 METAR KPAE 242353Z 00000KT 10SM FEW048 SCT065 08/00 A2990 RMK AO2 SLP129 T00780000 10078 20039 56003=
201803242253 METAR KPAE 242253Z 27005KT 10SM SCT021 BKN043 BKN050 07/03 A2990 RMK AO2 SLP130 T00670028=
201803242153 METAR KPAE 242153Z 35005KT 10SM BKN030 BKN037 06/02 A2990 RMK AO2 SLP129 T00610022=
201803242053 METAR KPAE 242053Z 00000KT 10SM FEW028 SCT038 SCT050 06/M01 A2991 RMK AO2 SLP133 T00611006 51005=
201803241953 METAR KPAE 241953Z 21005KT 10SM SCT023 BKN030 06/01 A2991 RMK AO2 SLP132 T00610011=
201803241853 METAR KPAE 241853Z 17008KT 10SM SCT009 OVC015 04/02 A2991 RMK AO2 SLP131 T00440017=
201803241821 SPECI KPAE 241821Z 19007KT 10SM FEW002 OVC015 04/02 A2990 RMK AO2 T00390017=
201803241753 METAR KPAE 241753Z 17012KT 10SM BKN008 OVC020 04/02 A2990 RMK AO2 SLP127 60022 T00390022 10044 20017 51017=
201803241653 METAR KPAE 241653Z 17008KT 10SM BKN005 OVC017 04/03 A2988 RMK AO2 SLP123 T00390028=
201803241641 SPECI KPAE 241641Z 18009KT 10SM BKN005 OVC017 03/02 A2988 RMK AO2 T00330022=
201803241634 SPECI KPAE 241634Z 18012KT 10SM SCT007 OVC017 03/02 A2988 RMK AO2 T00330022=
201803241553 METAR KPAE 241553Z 15005KT 10SM BKN005 BKN019 02/02 A2987 RMK AO2 UPE05 SLP119 P0000 T00220017=
201803241507 SPECI KPAE 241507Z 15011KT 10SM BKN005 BKN019 02/02 A2985 RMK AO2 UPE05 P0000 T00220017=
201803241500 SPECI KPAE 241500Z 15011KT 10SM UP BKN014 BKN019 OVC050 02/02 A2985 RMK AO2 P0000 T00220017=
201803241453 METAR KPAE 241453Z 15010KT 3SM UP BR BKN005 OVC009 02/02 A2985 RMK AO2 RAB08E53UPB53SNE08 SLP111 P0004 60022 T00220017 53027=
201803241353 METAR KPAE 241353Z 18008KT 4SM -SN BR OVC005 02/01 A2982 RMK AO2 RAE50SNB50 SLP101 P0012 T00170011=
201803241253 METAR KPAE 241253Z AUTO 22007KT 6SM -RA BR OVC009 03/02 A2979 RMK AO2 CIG 006V013 SLP090 P0006 T00280022=
201803241153 METAR KPAE 241153Z AUTO 26004KT 4SM -RA BR BKN008 OVC013 03/02 A2976 RMK AO2 SLP082 P0010 60017 70050 T00280017 10044 20028 53002=
201803241135 SPECI KPAE 241135Z AUTO 19004KT 3SM RA BR BKN008 OVC012 03/02 A2976 RMK AO2 P0007 T00280022=
201803241118 SPECI KPAE 241118Z AUTO 21003KT 7SM -RA BKN010 OVC021 03/02 A2976 RMK AO2 P0003 T00330022=
201803241053 METAR KPAE 241053Z AUTO 22004KT 6SM -RA BR SCT010 OVC021 03/02 A2976 RMK AO2 SLP081 P0005 T00280017=
201803241005 SPECI KPAE 241005Z AUTO 22004KT 10SM -RA FEW009 BKN013 OVC028 03/02 A2976 RMK AO2 P0001 T00330017=
201803240953 METAR KPAE 240953Z AUTO 25005KT 9SM -RA FEW011 OVC028 03/02 A2975 RMK AO2 RAE0857B26 SLP079 P0001 T00330017=
201803240942 SPECI KPAE 240942Z AUTO 22003KT 9SM -RA BKN026 OVC044 03/02 A2976 RMK AO2 RAE0857B26 P0000 T00330022=
201803240853 METAR KPAE 240853Z AUTO 00000KT 10SM -RA FEW039 BKN050 OVC070 04/02 A2976 RMK AO2 SLP080 P0001 60001 T00390017 58004=
201803240753 METAR KPAE 240753Z AUTO 00000KT 10SM -RA OVC036 04/01 A2976 RMK AO2 RAB21 SLP081 P0000 T00440011 400670006=
201803240653 METAR KPAE 240653Z AUTO 13003KT 10SM BKN065 OVC090 04/01 A2977 RMK AO2 SLP086 T00440011=
201803240553 METAR KPAE 240553Z AUTO 14004KT 10SM BKN065 OVC080 04/01 A2977 RMK AO2 SLP086 T00440006 10061 20039 58006=
201803240453 METAR KPAE 240453Z AUTO 13005KT 10SM OVC060 04/01 A2978 RMK AO2 SLP089 T00440011=
201803240353 METAR KPAE 240353Z AUTO 16006KT 10SM SCT070 OVC100 04/01 A2980 RMK AO2 SLP096 T00390011=
201803240253 METAR KPAE 240253Z 14008KT 10SM BKN032 OVC050 05/02 A2979 RMK AO2 SLP092 T00500017 58006=
201803240153 METAR KPAE 240153Z 16008KT 10SM BKN050 06/01 A2981 RMK AO2 SLP098 T00560011=
201803240053 METAR KPAE 240053Z 17011KT 10SM CLR 06/02 A2980 RMK AO2 SLP095 T00610017=
201803232353 METAR KPAE 232353Z 16015KT 10SM FEW016 SCT060 BKN085 06/03 A2981 RMK AO2 RAE14SNE2254 SLP098 P0003 60008 T00560028 10067 20011 58008=
201803232309 SPECI KPAE 232309Z 14007KT 10SM -RA FEW009 BKN016 BKN023 04/02 A2983 RMK AO2 SNE2254 P0003 T00390022=
201803232304 SPECI KPAE 232304Z 15009G19KT 2 1/2SM RA BR BKN009 OVC019 03/02 A2983 RMK AO2 SNE2254 P0003 T00330017=
201803232255 SPECI KPAE 232255Z 19015KT 3SM -RA BR BKN009 OVC019 03/01 A2984 RMK AO2 SNE54 P0000 T00280006=
201803232253 METAR KPAE 232253Z 19015KT 2SM RASN BR BKN009 BKN032 OVC060 03/01 A2984 RMK AO2 PK WND 21030/2238 WSHFT 2233 RAB37SNB39 SLP109 P0004 T00280006=
201803232239 SPECI KPAE 232239Z 19022G30KT 2SM RASN BKN009 BKN032 OVC060 06/01 A2984 RMK AO2 PK WND 21030/2238 RAB37SNB39 P0000 T00610011=
201803232227 SPECI KPAE 232227Z 13010KT 10SM FEW025 BKN034 OVC060 07/02 A2982 RMK AO2 T00670017=
201803232153 METAR KPAE 232153Z 14010G15KT 10SM BKN022 BKN030 06/02 A2982 RMK AO2 SLP101 T00610017=
201803232119 SPECI KPAE 232119Z 13012KT 10SM BKN014 BKN019 OVC035 06/02 A2983 RMK AO2 T00560017=
201803232053 METAR KPAE 232053Z 14009KT 10SM BKN009 BKN013 05/02 A2983 RMK AO2 SLP106 60001 T00500022 53007=
201803231953 METAR KPAE 231953Z 15015KT 10SM BKN008 BKN013 04/02 A2982 RMK AO2 CIG 006V011 SLP103 T00390022=
201803231942 SPECI KPAE 231942Z 14013KT 10SM OVC006 04/03 A2982 RMK AO2 CIG 004V011 T00390028=
201803231853 METAR KPAE 231853Z 13014KT 5SM BR BKN002 BKN023 OVC043 02/01 A2982 RMK AO2 UPB34E48SNE34 SLP101 P0001 T00220011=
201803231831 SPECI KPAE 231831Z 12014KT 2SM -SN BR BKN002 BKN023 OVC043 02/01 A2981 RMK AO2 P0001 T00170011=
201803231814 SPECI KPAE 231814Z 12012KT 3/4SM R16R/P6000FT -SN BR BKN006 BKN019 OVC027 01/01 A2981 RMK AO2 P0001 T00110006=
201803231753 METAR KPAE 231753Z 12010KT 1 1/2SM -SN BR BKN006 BKN019 OVC027 01/01 A2981 RMK AO2 SLP100 P0007 60025 T00110006 10039 20006 53007=
201803231720 SPECI KPAE 231720Z 11006KT 1SM R16R/4000VP6000FT -SN BR BKN004 OVC014 01/01 A2981 RMK AO2 P0005 T00110006=
201803231708 SPECI KPAE 231708Z 12008KT 3/4SM R16R/5000VP6000FT -SN BR BKN004 OVC014 01/01 A2981 RMK AO2 P0002 T00060006=
201803231700 SPECI KPAE 231700Z 12007KT 3/4SM R16R/4500VP6000FT -SN BR SCT004 OVC015 01/01 A2980 RMK AO2 P0001 T00110011=
201803231653 METAR KPAE 231653Z VRB03KT 1 1/4SM R16R/5500VP6000FT -SN BR BKN004 OVC015 01/01 A2980 RMK AO2 RAE02SNB02 SLP095 P0007 T00110011=
201803231649 SPECI KPAE 231649Z 12005KT 1 1/4SM R16R/5000VP6000FT -SN BR BKN004 OVC015 01/01 A2980 RMK AO2 RAE02SNB02 P0006=
201803231634 SPECI KPAE 231634Z 12007G15KT 2 1/2SM -SN BR BKN007 OVC017 02/01 A2980 RMK AO2 RAE02SNB02 P0005 T00170011=
201803231621 SPECI KPAE 231621Z 11008KT 1 3/4SM -SN BR BKN007 OVC017 02/01 A2979 RMK AO2 RAE02SNB02 P0004 T00170011=
201803231553 METAR KPAE 231553Z 13011KT 5SM -RA BR BKN008 OVC017 02/01 A2979 RMK AO2 SNE52 SLP092 P0005 T00220011=
201803231453 METAR KPAE 231453Z 11008KT 6SM -RASN SCT009 OVC019 03/01 A2979 RMK AO2 RAB06SNB29 SLP093 P0004 60006 T00280011 52004=
201803231435 SPECI KPAE 231435Z VRB05KT 4SM -RASN SCT006 OVC019 02/01 A2978 RMK AO2 RAB06SNB29 P0003 T00220006=
201803231406 SPECI KPAE 231406Z 10007KT 10SM -RA SCT006 OVC037 03/01 A2978 RMK AO2 RAB06 P0000 T00330006=
201803231353 METAR KPAE 231353Z VRB05KT 10SM SCT010 OVC039 03/00 A2978 RMK AO2 RAE52 SLP089 P0001 T00330000=
201803231348 SPECI KPAE 231348Z AUTO 11006KT 10SM -RA OVC039 03/00 A2979 RMK AO2 P0001=
201803231337 SPECI KPAE 231337Z AUTO 12010KT 9SM -RA OVC029 04/00 A2979 RMK AO2 P0001 T00390000=
201803231253 METAR KPAE 231253Z AUTO 13011KT 10SM -RA OVC046 04/00 A2978 RMK AO2 RAE19B47 SLP087 P0001 T00390000=
201803231218 SPECI KPAE 231218Z AUTO 14009KT 10SM -RA BKN034 BKN060 OVC070 03/01 A2978 RMK AO2 P0001 T00330006=
201803231204 SPECI KPAE 231204Z AUTO 13013KT 9SM -RA OVC026 03/00 A2978 RMK AO2 P0001 T00330000=
201803231153 METAR KPAE 231153Z AUTO 15014G22KT 10SM -RA OVC030 04/00 A2978 RMK AO2 RAB30 SLP088 P0000 60002 70027 T00390000 10044 20033 55003=
201803231053 METAR KPAE 231053Z AUTO 12008KT 10SM BKN070 BKN090 OVC100 04/00 A2978 RMK AO2 SLP087 T00390000=
201803230953 METAR KPAE 230953Z AUTO 11007G15KT 10SM SCT049 BKN070 OVC080 04/01 A2979 RMK AO2 RAE08 SLP091 P0000 T00390006=
201803230853 METAR KPAE 230853Z AUTO 12010KT 10SM -RA OVC031 03/01 A2979 RMK AO2 SLP091 P0001 60002 T00330011 51004=
201803230851 SPECI KPAE 230851Z AUTO 12011KT 10SM -RA OVC031 03/01 A2979 RMK AO2 P0001=
201803230753 METAR KPAE 230753Z AUTO 13014G19KT 8SM -RA OVC028 03/01 A2979 RMK AO2 RAB34 SLP091 P0001 T00330011 400890028=
201803230653 METAR KPAE 230653Z AUTO 12012KT 10SM FEW039 BKN050 OVC075 03/01 A2978 RMK AO2 SLP087 T00330006=
201803230553 METAR KPAE 230553Z AUTO 13011KT 10SM CLR 03/01 A2977 RMK AO2 RAE0459 SLP083 P0000 60000 T00330006 10072 20028 50006=
201803230453 METAR KPAE 230453Z AUTO 12009KT 10SM -RA FEW021 BKN034 BKN047 03/01 A2977 RMK AO2 RAB47 SLP085 P0000 T00280011=
201803230353 METAR KPAE 230353Z AUTO VRB04KT 10SM FEW032 FEW070 03/00 A2976 RMK AO2 RAB13E38 SLP082 P0000 T00280000=
201803230253 METAR KPAE 230253Z 13010KT 10SM BKN065 BKN080 05/01 A2975 RMK AO2 RAE02 SLP076 P0000 60000 T00500011 53020=
201803230153 METAR KPAE 230153Z 14011KT 10SM -RA FEW050 SCT060 06/01 A2972 RMK AO2 RAB53 SLP068 P0000 T00610011=
201803230053 METAR KPAE 230053Z 14014G22KT 10SM CLR 06/01 A2970 RMK AO2 RAE2357 SLP061 P0000 T00610011=
201803222353 METAR KPAE 222353Z 16015G23KT 10SM -RA FEW030 SCT039 BKN075 07/02 A2969 RMK AO2 RAB47 SLP056 P0000 60005 T00670017 10072 20050 51022=
201803222253 METAR KPAE 222253Z 14015KT 10SM OVC090 07/02 A2967 RMK AO2 PK WND 15026/2243 SLP049 T00670022=
201803222153 METAR KPAE 222153Z 15017G23KT 10SM BKN080 OVC090 06/03 A2965 RMK AO2 PK WND 15026/2140 SLP043 T00560028=
201803222053 METAR KPAE 222053Z 15014G26KT 10SM OVC065 06/03 A2962 RMK AO2 PK WND 15032/1955 RAB03E24 SLP033 P0000 60005 T00560028 51026=
201803222000 SPECI KPAE 222000Z 16024G32KT 10SM BKN030 OVC075 06/02 A2961 RMK AO2 PK WND 15032/1955 T00560022=
201803221953 METAR KPAE 221953Z 15017G26KT 10SM SCT010 OVC012 06/02 A2960 RMK AO2 PK WND 15029/1928 RAE15 SLP024 P0001 T00560022=
201803221916 SPECI KPAE 221916Z 15020KT 10SM SCT010 OVC012 06/04 A2957 RMK AO2 RAE15 P0001 T00560039=
201803221902 SPECI KPAE 221902Z 15018G24KT 10SM -RA BKN009 OVC018 06/04 A2958 RMK AO2 P0001 T00560039=
201803221853 METAR KPAE 221853Z 15015G22KT 10SM -RA BKN012 OVC018 06/04 A2958 RMK AO2 SLP017 P0004 T00560039=
201803221753 METAR KPAE 221753Z 15014KT 8SM -RA BKN009 BKN013 OVC026 06/04 A2955 RMK AO2 SLP007 P0003 60020 T00560044 10083 20056 53025=
201803221718 SPECI KPAE 221718Z 15013KT 6SM -RA BR BKN009 BKN028 OVC045 06/04 A2952 RMK AO2 P0002 T00560039=
201803221700 SPECI KPAE 221700Z 15012KT 6SM -RA BR FEW011 SCT020 OVC028 06/04 A2952 RMK AO2 P0001 T00560039=
201803221653 METAR KPAE 221653Z 15013G20KT 6SM -RA BR BKN007 BKN015 OVC028 06/04 A2952 RMK AO2 SLP997 P0005 T00560044=
201803221646 SPECI KPAE 221646Z 15014G20KT 6SM -RA BR SCT007 BKN015 OVC028 06/04 A2951 RMK AO2 P0005 T00560044=
201803221553 METAR KPAE 221553Z 15013G19KT 5SM -RA BR BKN009 OVC036 06/05 A2948 RMK AO2 SLP985 P0008 T00610050=
201803221453 METAR KPAE 221453Z 17013KT 9SM -RA BKN009 BKN012 OVC027 07/06 A2947 RMK AO2 SLP981 P0004 60004 T00670056 53001=
201803221423 SPECI KPAE 221423Z 17012KT 9SM -RA BKN009 BKN012 OVC027 07/06 A2947 RMK AO2 P0002 T00720061=
201803221407 SPECI KPAE 221407Z 16013KT 9SM -RA SCT009 BKN012 OVC060 08/07 A2947 RMK AO2 P0001 T00780067=
201803221353 METAR KPAE 221353Z 15011KT 10SM -RA FEW029 SCT037 OVC060 08/07 A2946 RMK AO2 RAB35 SLP976 P0000 T00780067=
201803221253 METAR KPAE 221253Z AUTO 15008KT 10SM SCT012 OVC065 08/06 A2945 RMK AO2 SLP974 T00780061=
201803221237 SPECI KPAE 221237Z AUTO 15009KT 10SM BKN013 BKN065 08/06 A2946 RMK AO2 T00780061=
201803221153 METAR KPAE 221153Z AUTO 00000KT 10SM BKN060 08/06 A2947 RMK AO2 SLP978 60006 70008 T00830061 10094 20078 58026=
201803221053 METAR KPAE 221053Z AUTO 14003KT 10SM SCT055 BKN070 OVC095 08/07 A2950 RMK AO2 RAE0958 SLP989 P0000 T00830067=
201803220953 METAR KPAE 220953Z AUTO 12006KT 10SM -RA OVC050 09/07 A2952 RMK AO2 RAE14B48 SLP995 P0000 T00890067=
201803220853 METAR KPAE 220853Z AUTO 12006KT 8SM -RA BKN055 BKN075 OVC090 08/07 A2955 RMK AO2 SLP005 P0002 60006 T00830067 58007=
201803220753 METAR KPAE 220753Z AUTO 13009KT 8SM -RA OVC045 09/07 A2956 RMK AO2 SLP011 P0003 T00890072 401440028=
201803220653 METAR KPAE 220653Z AUTO 16011KT 10SM -RA OVC055 09/06 A2955 RMK AO2 SLP009 P0001 T00940061=
201803220553 METAR KPAE 220553Z AUTO 16007KT 10SM -RA FEW048 BKN055 OVC075 09/06 A2957 RMK AO2 RAB09 SLP013 P0000 60002 T00940056 10128 20089 55007=
201803220453 METAR KPAE 220453Z AUTO 17004KT 10SM OVC055 09/06 A2956 RMK AO2 RAE21 SLP011 P0001 T00940061=
201803220353 METAR KPAE 220353Z AUTO 09003KT 10SM -RA OVC055 10/05 A2958 RMK AO2 RAB34 SLP017 P0000 T01000050=
201803220253 METAR KPAE 220253Z 00000KT 10SM OVC055 10/05 A2959 RMK AO2 RAE53 SLP021 P0001 60001 T01000050 58015=
201803220153 METAR KPAE 220153Z 17008KT 10SM -RA OVC060 11/05 A2962 RMK AO2 SLP031 P0000 T01060050=
201803220053 METAR KPAE 220053Z 18006KT 10SM -RA BKN060 OVC080 12/02 A2963 RMK AO2 RAB43 SLP033 P0000 T01220017=
201803212353 METAR KPAE 212353Z 19005KT 10SM OVC080 13/01 A2963 RMK AO2 SLP035 T01280011 10144 20072 56018=
201803212253 METAR KPAE 212253Z 21008KT 10SM SCT075 BKN110 12/04 A2964 RMK AO2 SLP039 T01220039=
201803212153 METAR KPAE 212153Z VRB05KT 10SM SCT075 14/03 A2965 RMK AO2 SLP043 T01390033=
201803212053 METAR KPAE 212053Z 34004KT 10SM CLR 13/04 A2968 RMK AO2 SLP053 T01280039 58018=
201803211953 METAR KPAE 211953Z 00000KT 10SM CLR 11/04 A2971 RMK AO2 SLP063 T01060039=
201803211853 METAR KPAE 211853Z 24003KT 10SM CLR 09/04 A2973 RMK AO2 SLP069 T00890044=
201803211753 METAR KPAE 211753Z VRB03KT 10SM CLR 08/04 A2974 RMK AO2 SLP072 T00830039 10083 20028 56005=
201803211653 METAR KPAE 211653Z 00000KT 10SM FEW070 07/03 A2974 RMK AO2 SLP073 T00670033=
201803211553 METAR KPAE 211553Z 00000KT 10SM CLR 04/02 A2974 RMK AO2 SLP075 T00440022=
201803211453 METAR KPAE 211453Z 14003KT 10SM CLR 03/02 A2975 RMK AO2 SLP078 T00330017 56009=
201803211353 METAR KPAE 211353Z 10003KT 10SM CLR 03/02 A2976 RMK AO2 SLP079 T00330017=
201803211253 METAR KPAE 211253Z 09004KT 10SM CLR 04/01 A2977 RMK AO2 SLP082 T00390011=
201803211153 METAR KPAE 211153Z 00000KT 10SM CLR 04/01 A2978 RMK AO2 SLP087 T00390011 10061 20039 56017=
201803211053 METAR KPAE 211053Z 00000KT 10SM CLR 04/02 A2979 RMK AO2 SLP091 T00440022=
201803210953 METAR KPAE 210953Z 00000KT 10SM CLR 04/02 A2981 RMK AO2 SLP098 T00440017=
201803210853 METAR KPAE 210853Z 32003KT 10SM FEW120 05/02 A2983 RMK AO2 SLP105 T00500017 56018=
201803210753 METAR KPAE 210753Z 35005KT 10SM OVC110 06/02 A2985 RMK AO2 SLP110 T00560022 401000039=
201803210653 METAR KPAE 210653Z 35006KT 10SM FEW120 06/02 A2987 RMK AO2 SLP117 T00610022=
201803210553 METAR KPAE 210553Z 32003KT 10SM CLR 06/03 A2989 RMK AO2 SLP124 T00610028 10100 20061 58011=
201803210453 METAR KPAE 210453Z 31004KT 10SM CLR 06/03 A2990 RMK AO2 SLP129 T00610028=
201803210353 METAR KPAE 210353Z 32004KT 10SM CLR 06/03 A2991 RMK AO2 SLP132 T00610028=
201803210253 METAR KPAE 210253Z 31005KT 10SM CLR 07/03 A2992 RMK AO2 SLP134 T00670028 56019=
201803210153 METAR KPAE 210153Z 32006KT 10SM CLR 08/03 A2994 RMK AO2 SLP140 T00830028=
201803210053 METAR KPAE 210053Z 33006KT 10SM CLR 10/03 A2996 RMK AO2 SLP147 T01000028=
201803202353 METAR KPAE 202353Z 24004KT 10SM CLR 10/03 A2998 RMK AO2 SLP154 T01000028 10100 20067 56027=
201803202253 METAR KPAE 202253Z 26005KT 10SM CLR 09/03 A3000 RMK AO2 SLP162 T00940028=
201803202153 METAR KPAE 202153Z VRB06KT 10SM CLR 09/02 A3003 RMK AO2 SLP171 T00940022=
201803202053 METAR KPAE 202053Z 28007KT 10SM CLR 09/03 A3006 RMK AO2 SLP182 T00940028 58014=
201803201953 METAR KPAE 201953Z VRB04KT 10SM OVC031 09/02 A3008 RMK AO2 SLP188 T00890022=
201803201853 METAR KPAE 201853Z 32006KT 10SM OVC031 08/02 A3009 RMK AO2 SLP193 T00780022=
201803201753 METAR KPAE 201753Z 33004KT 10SM OVC030 07/03 A3010 RMK AO2 SLP195 T00720033 10072 20039 56007=
201803201653 METAR KPAE 201653Z 32003KT 10SM OVC031 07/03 A3011 RMK AO2 SLP197 T00670033=
201803201608 SPECI KPAE 201608Z 34004KT 10SM OVC030 06/03 A3011 RMK AO2 T00610033=
201803201553 METAR KPAE 201553Z 00000KT 10SM OVC029 06/03 A3011 RMK AO2 SLP200 T00610033=
201803201453 METAR KPAE 201453Z AUTO 00000KT 10SM OVC028 05/03 A3012 RMK AO2 SLP202 T00500028 58003=
201803201432 SPECI KPAE 201432Z AUTO 00000KT 10SM OVC029 04/03 A3012 RMK AO2 T00440033=
201803201353 METAR KPAE 201353Z AUTO 00000KT 10SM BKN030 04/03 A3013 RMK AO2 SLP205 T00390028=
201803201314 SPECI KPAE 201314Z AUTO 09003KT 10SM FEW018 04/03 A3013 RMK AO2 T00440028=
201803201253 METAR KPAE 201253Z AUTO 08003KT 10SM BKN018 04/03 A3013 RMK AO2 SLP206 T00440033=
201803201250 SPECI KPAE 201250Z AUTO 08003KT 10SM BKN018 04/03 A3013 RMK AO2=
201803201200 SPECI KPAE 201200Z AUTO 00000KT 10SM FEW017 05/03 A3013 RMK AO2 T00500033=
201803201153 METAR KPAE 201153Z AUTO 05004KT 10SM BKN017 05/03 A3014 RMK AO2 SLP208 T00500033 10067 20044 58008=
201803201137 SPECI KPAE 201137Z AUTO 00000KT 10SM SCT009 BKN017 06/04 A3014 RMK AO2 T00560039=
201803201130 SPECI KPAE 201130Z AUTO 00000KT 10SM BKN009 BKN016 05/04 A3014 RMK AO2 T00500039=
201803201112 SPECI KPAE 201112Z AUTO 00000KT 10SM BKN010 BKN015 05/04 A3014 RMK AO2 T00500039=
201803201100 SPECI KPAE 201100Z AUTO 00000KT 10SM SCT010 BKN070 06/04 A3015 RMK AO2 T00560039=
201803201053 METAR KPAE 201053Z AUTO 00000KT 10SM BKN009 BKN070 06/04 A3015 RMK AO2 CIG 009V012 SLP211 T00560039=
201803201036 SPECI KPAE 201036Z AUTO VRB03KT 10SM BKN010 BKN016 OVC075 06/04 A3015 RMK AO2 T00560039=
201803201024 SPECI KPAE 201024Z AUTO 03003KT 10SM SCT016 OVC075 06/04 A3016 RMK AO2 T00560039=
201803200953 METAR KPAE 200953Z AUTO 35003KT 10SM OVC012 06/04 A3016 RMK AO2 SLP215 T00610044=
201803200951 SPECI KPAE 200951Z AUTO 35004KT 10SM OVC010 06/04 A3016 RMK AO2=
201803200853 METAR KPAE 200853Z AUTO 35007KT 10SM OVC007 06/04 A3016 RMK AO2 SLP217 T00610044 56002=
201803200753 METAR KPAE 200753Z AUTO 00000KT 10SM BKN007 06/04 A3016 RMK AO2 SLP217 T00560044 401110028=
201803200653 METAR KPAE 200653Z AUTO 32003KT 10SM SCT008 06/04 A3017 RMK AO2 SLP219 T00560044=
201803200553 METAR KPAE 200553Z AUTO 35003KT 10SM OVC005 07/05 A3017 RMK AO2 CIG 005V011 SLP219 T00670050 10111 20061 57002=
201803200453 METAR KPAE 200453Z AUTO 36003KT 10SM BKN006 07/05 A3017 RMK AO2 SLP220 T00670050=
201803200450 SPECI KPAE 200450Z AUTO 35003KT 10SM BKN006 07/05 A3017 RMK AO2=
201803200440 SPECI KPAE 200440Z AUTO 34004KT 10SM SCT006 06/04 A3017 RMK AO2 T00610044=
201803200353 METAR KPAE 200353Z AUTO 32004KT 10SM CLR 06/04 A3018 RMK AO2 SLP221 T00610039=
201803200253 METAR KPAE 200253Z 33004KT 10SM CLR 07/04 A3018 RMK AO2 SLP223 T00720039 57008=
201803200153 METAR KPAE 200153Z 32005KT 10SM CLR 09/02 A3019 RMK AO2 SLP226 T00940022=
201803200053 METAR KPAE 200053Z VRB04KT 10SM OVC080 09/03 A3019 RMK AO2 SLP227 T00940033=
201803192353 METAR KPAE 192353Z 36003KT 10SM OVC080 10/02 A3020 RMK AO2 SLP231 T01000022 10106 20072 56009=
201803192253 METAR KPAE 192253Z 35005KT 10SM FEW040 BKN075 10/03 A3021 RMK AO2 SLP232 T01000033=
201803192153 METAR KPAE 192153Z VRB03KT 10SM OVC075 10/03 A3021 RMK AO2 SLP234 T01000033=
201803192053 METAR KPAE 192053Z VRB04KT 10SM FEW024 SCT032 09/03 A3023 RMK AO2 SLP240 T00940033 58010=
201803191953 METAR KPAE 191953Z 36006KT 10SM FEW016 OVC080 09/04 A3025 RMK AO2 SLP247 T00890039=
201803191853 METAR KPAE 191853Z 30005KT 10SM FEW019 OVC075 08/04 A3026 RMK AO2 SLP250 T00830039=
201803191753 METAR KPAE 191753Z 00000KT 10SM FEW013 OVC075 08/04 A3026 RMK AO2 SLP251 T00780044 10078 20028 51003=
201803191713 SPECI KPAE 191713Z 00000KT 10SM OVC009 07/04 A3026 RMK AO2 T00670039=
201803191653 METAR KPAE 191653Z 32004KT 10SM OVC011 07/04 A3026 RMK AO2 SLP250 T00670039=
201803191649 SPECI KPAE 191649Z 31004KT 10SM OVC011 07/04 A3026 RMK AO2=
201803191553 METAR KPAE 191553Z 00000KT 9SM CLR 06/04 A3025 RMK AO2 SLP248 T00560039=
201803191453 METAR KPAE 191453Z 00000KT 9SM CLR 04/03 A3025 RMK AO2 SLP246 T00390028 53000=
201803191409 SPECI KPAE 191409Z 00000KT 10SM SCT011 04/03 A3024 RMK AO2 T00440033=
201803191353 METAR KPAE 191353Z 00000KT 10SM BKN011 05/04 A3024 RMK AO2 SLP244 T00500039=
201803191336 SPECI KPAE 191336Z AUTO 00000KT 10SM BKN011 04/04 A3024 RMK AO2 T00440039=
201803191253 METAR KPAE 191253Z AUTO 34003KT 10SM CLR 04/03 A3024 RMK AO2 SLP243 T00440033=
201803191228 SPECI KPAE 191228Z AUTO 00000KT 10SM SCT007 05/04 A3024 RMK AO2 T00500039=
201803191153 METAR KPAE 191153Z AUTO 00000KT 10SM OVC007 05/04 A3025 RMK AO2 SLP245 T00500039 10067 20039 51001=
201803191053 METAR KPAE 191053Z AUTO 32003KT 10SM OVC007 06/04 A3025 RMK AO2 SLP244 T00560044=
201803190953 METAR KPAE 190953Z AUTO 00000KT 10SM BKN006 04/03 A3025 RMK AO2 SLP246 T00390033=
201803190927 SPECI KPAE 190927Z AUTO 00000KT 10SM SCT006 04/03 A3025 RMK AO2 T00440033=
201803190853 METAR KPAE 190853Z AUTO 00000KT 10SM BKN055 05/03 A3024 RMK AO2 SLP244 T00500033 51007=
201803190753 METAR KPAE 190753Z AUTO 00000KT 10SM BKN050 06/04 A3024 RMK AO2 SLP242 T00610044 401170044=
201803190653 METAR KPAE 190653Z AUTO 00000KT 10SM BKN050 07/04 A3023 RMK AO2 SLP240 T00670039=
201803190553 METAR KPAE 190553Z AUTO 00000KT 10SM BKN044 06/03 A3022 RMK AO2 SLP236 T00560033 10111 20056 51014=
201803190453 METAR KPAE 190453Z AUTO 22006KT 10SM BKN042 06/02 A3021 RMK AO2 SLP234 T00610017=
201803190353 METAR KPAE 190353Z AUTO 21005KT 10SM BKN044 08/01 A3020 RMK AO2 SLP229 T00780011=
201803190253 METAR KPAE 190253Z 00000KT 10SM SCT050 08/01 A3018 RMK AO2 SLP223 T00830011 53006=
201803190153 METAR KPAE 190153Z 00000KT 10SM FEW055 10/00 A3017 RMK AO2 SLP219 T01000000=
201803190053 METAR KPAE 190053Z 18003KT 10SM CLR 11/02 A3016 RMK AO2 SLP217 T01060017=
201803182353 METAR KPAE 182353Z 30003KT 10SM FEW037 FEW044 10/03 A3016 RMK AO2 SLP216 T01000028 10117 20072 56004=
201803182253 METAR KPAE 182253Z AUTO VRB04KT 10SM BKN050 BKN060 11/03 A3016 RMK AO2 SLP215 T01060033=
201803182153 METAR KPAE 182153Z 36004KT 10SM SCT035 BKN042 OVC050 10/03 A3016 RMK AO2 SLP217 T01000028=
201803182053 METAR KPAE 182053Z VRB03KT 10SM BKN037 OVC047 09/03 A3017 RMK AO2 SLP220 T00940033 50004=
201803181953 METAR KPAE 181953Z 12009KT 10SM SCT030 09/02 A3017 RMK AO2 SLP221 T00890017=
201803181900 SPECI KPAE 181900Z 15007KT 10SM SCT028 09/03 A3017 RMK AO2 T00890028=
201803181853 METAR KPAE 181853Z 14008KT 10SM BKN018 OVC025 09/03 A3017 RMK AO2 SLP220 T00890028=
201803181800 SPECI KPAE 181800Z 17008KT 10SM BKN018 OVC025 07/03 A3016 RMK AO2 T00720033=
201803181753 METAR KPAE 181753Z 18009KT 10SM BKN014 OVC030 07/03 A3016 RMK AO2 SLP216 T00720033 10078 20050 52012=
201803181653 METAR KPAE 181653Z 12005KT 10SM BKN016 BKN020 OVC026 07/03 A3014 RMK AO2 SLP210 T00670033=
201803181649 SPECI KPAE 181649Z 12004KT 10SM BKN016 07/03 A3014 RMK AO2=
201803181638 SPECI KPAE 181638Z 12005KT 10SM BKN014 BKN031 06/03 A3014 RMK AO2 T00610033=
201803181553 METAR KPAE 181553Z 13006KT 10SM BKN031 BKN046 06/03 A3012 RMK AO2 SLP204 T00560033=
201803181453 METAR KPAE 181453Z 12006KT 10SM OVC030 05/03 A3011 RMK AO2 SLP199 T00500028 51007=
201803181353 METAR KPAE 181353Z 12007KT 10SM OVC026 05/03 A3010 RMK AO2 SLP195 T00500028=
201803181253 METAR KPAE 181253Z AUTO 13008KT 10SM FEW018 OVC022 05/03 A3009 RMK AO2 SLP191 T00500028=
201803181153 METAR KPAE 181153Z AUTO 13007KT 10SM OVC015 05/03 A3007 RMK AO2 SLP186 T00500033 10072 20044 51009=
201803181053 METAR KPAE 181053Z AUTO 15008KT 10SM OVC013 06/03 A3006 RMK AO2 SLP183 T00560033=
201803180953 METAR KPAE 180953Z AUTO 16006KT 10SM BKN012 OVC110 05/03 A3005 RMK AO2 SLP180 T00500033=
201803180944 SPECI KPAE 180944Z AUTO 16008KT 10SM BKN011 OVC110 05/03 A3005 RMK AO2 T00500033=
201803180853 METAR KPAE 180853Z AUTO 14008KT 10SM SCT120 05/03 A3004 RMK AO2 SLP177 T00500028 53008=
201803180753 METAR KPAE 180753Z AUTO 16007KT 10SM SCT020 05/02 A3003 RMK AO2 SLP170 T00500022 401060028=
201803180748 SPECI KPAE 180748Z AUTO 16008KT 10SM SCT020 05/02 A3003 RMK AO2=
201803180732 SPECI KPAE 180732Z AUTO 15008KT 10SM BKN019 05/02 A3002 RMK AO2 T00500022=
201803180723 SPECI KPAE 180723Z AUTO 15005KT 10SM SCT020 06/03 A3002 RMK AO2 T00560028=
201803180653 METAR KPAE 180653Z AUTO 20005KT 10SM BKN021 BKN110 06/03 A3002 RMK AO2 SLP168 T00610033=
201803180635 SPECI KPAE 180635Z AUTO 16003KT 10SM BKN021 OVC055 07/04 A3001 RMK AO2 T00670039=
201803180553 METAR KPAE 180553Z AUTO 03005KT 10SM OVC060 07/04 A3000 RMK AO2 SLP163 T00670039 10106 20067 51019=
201803180453 METAR KPAE 180453Z AUTO 03004KT 10SM SCT029 SCT035 OVC065 08/04 A2998 RMK AO2 SLP156 T00780044=
201803180353 METAR KPAE 180353Z AUTO 36005KT 10SM BKN041 OVC065 08/04 A2997 RMK AO2 SLP150 T00830039=
201803180253 METAR KPAE 180253Z 20004KT 10SM BKN035 BKN045 BKN075 09/03 A2995 RMK AO2 SLP143 T00890033 53011=
201803180153 METAR KPAE 180153Z 20006KT 10SM OVC042 09/03 A2994 RMK AO2 SLP140 T00940033=
201803180053 METAR KPAE 180053Z 13007KT 10SM BKN036 OVC047 11/03 A2992 RMK AO2 SLP135 T01060033=
201803172353 METAR KPAE 172353Z 15004KT 10SM SCT025 BKN030 11/04 A2991 RMK AO2 SLP131 T01060039 10106 20061 54000=
201803172320 SPECI KPAE 172320Z 13006KT 10SM SCT025 BKN030 10/03 A2991 RMK AO2 T01000033=
201803172253 METAR KPAE 172253Z 16007KT 10SM BKN025 BKN030 10/04 A2991 RMK AO2 SLP131 T01000039=
201803172250 SPECI KPAE 172250Z AUTO 15010KT 10SM BKN025 BKN030 10/04 A2991 RMK AO2=
201803172224 SPECI KPAE 172224Z 13007KT 10SM SCT022 09/04 A2991 RMK AO2 T00940039=
201803172153 METAR KPAE 172153Z 16009KT 10SM OVC018 08/04 A2991 RMK AO2 SLP132 T00830039=
201803172053 METAR KPAE 172053Z 14009KT 10SM OVC016 08/03 A2992 RMK AO2 SLP133 T00780033 51008=
201803172012 SPECI KPAE 172012Z 17008KT 10SM SCT009 OVC014 07/04 A2992 RMK AO2 T00720039=
201803171959 SPECI KPAE 171959Z 16007KT 10SM OVC009 07/04 A2991 RMK AO2 T00720039=
201803171953 METAR KPAE 171953Z 17010KT 10SM OVC013 07/04 A2991 RMK AO2 SLP133 T00720039=
201803171853 METAR KPAE 171853Z 21007KT 10SM OVC014 07/04 A2990 RMK AO2 SLP128 T00670044=
201803171753 METAR KPAE 171753Z 23007KT 9SM SCT005 BKN010 06/04 A2989 RMK AO2 SLP125 T00610039 10067 20028 53012=
201803171650 METAR KPAE 171650Z 15007KT 10SM SCT006 07/04 A2987 RMK AO2 SLP119 T00670044=
201803171649 SPECI KPAE 171649Z 15006KT 3SM BR SCT006 07/04 A2987 RMK AO2=
201803171631 SPECI KPAE 171631Z 15008KT 3SM BR OVC003 05/04 A2987 RMK AO2 T00500044=
201803171616 SPECI KPAE 171616Z 15010KT 1SM R16R/P6000FT BR OVC002 04/04 A2987 RMK AO2 T00440039=
201803171553 METAR KPAE 171553Z 14007KT 1/2SM R16R/5000VP6000FT FG OVC003 04/03 A2987 RMK AO2 SLP117 T00390033=
201803171506 SPECI KPAE 171506Z 13005KT 1SM R16R/P6000FT BR BKN004 04/03 A2986 RMK AO2 T00390028=
201803171453 METAR KPAE 171453Z 13006KT 10SM BKN004 04/03 A2986 RMK AO2 SLP112 T00390028 53007=
201803171353 METAR KPAE 171353Z 14003KT 10SM CLR 03/02 A2984 RMK AO2 SLP108 T00330022=
201803171253 METAR KPAE 171253Z AUTO 16003KT 10SM SCT100 04/02 A2984 RMK AO2 SLP107 T00390022=
201803171153 METAR KPAE 171153Z AUTO 12004KT 10SM SCT100 06/02 A2983 RMK AO2 SLP104 T00560022 10067 20033 50001=
201803171053 METAR KPAE 171053Z AUTO 00000KT 10SM OVC095 06/01 A2983 RMK AO2 SLP104 T00610011=
201803170953 METAR KPAE 170953Z AUTO 08004KT 10SM BKN095 06/01 A2983 RMK AO2 SLP104 T00560011=
201803170853 METAR KPAE 170853Z AUTO 00000KT 10SM CLR 04/01 A2983 RMK AO2 SLP103 T00440006 50004=
201803170753 METAR KPAE 170753Z AUTO 00000KT 10SM CLR 04/00 A2983 RMK AO2 SLP105 T00390000 401170028=
201803170653 METAR KPAE 170653Z AUTO 00000KT 10SM CLR 07/01 A2983 RMK AO2 SLP102 T00670006=
201803170553 METAR KPAE 170553Z AUTO 32003KT 10SM CLR 06/00 A2982 RMK AO2 SLP099 T00560000 10117 20056 51006=
201803170453 METAR KPAE 170453Z AUTO 30003KT 10SM CLR 07/00 A2981 RMK AO2 SLP098 T00670000=
201803170353 METAR KPAE 170353Z AUTO 29004KT 10SM CLR 07/01 A2981 RMK AO2 SLP098 T00720006=
201803170253 METAR KPAE 170253Z 29005KT 10SM CLR 08/03 A2980 RMK AO2 SLP094 T00830028 55001=
201803170153 METAR KPAE 170153Z 31005KT 10SM CLR 10/03 A2979 RMK AO2 SLP092 T01000033=
201803170053 METAR KPAE 170053Z 32008KT 10SM CLR 11/03 A2980 RMK AO2 SLP094 T01110033=
201803162353 METAR KPAE 162353Z 33010KT 10SM CLR 11/04 A2980 RMK AO2 SLP094 T01110039 10117 20072 56010=
201803162253 METAR KPAE 162253Z 33012KT 10SM CLR 11/04 A2980 RMK AO2 SLP095 T01110039=
201803162153 METAR KPAE 162153Z 34006KT 10SM CLR 11/03 A2982 RMK AO2 SLP098 T01110033=
201803162053 METAR KPAE 162053Z 30006KT 10SM CLR 11/03 A2983 RMK AO2 SLP103 T01060033 58008=
201803161953 METAR KPAE 161953Z 33008KT 10SM CLR 09/03 A2984 RMK AO2 SLP107 T00940028=
201803161853 METAR KPAE 161853Z 33006KT 10SM CLR 09/03 A2985 RMK AO2 SLP111 T00890028=
201803161753 METAR KPAE 161753Z 34008KT 10SM CLR 07/02 A2986 RMK AO2 SLP113 T00720022 10072 20028 53008=
201803161653 METAR KPAE 161653Z 35006KT 10SM CLR 06/01 A2985 RMK AO2 SLP110 T00560011=
201803161553 METAR KPAE 161553Z 32005KT 10SM CLR 04/03 A2984 RMK AO2 SLP109 T00440028=
201803161453 METAR KPAE 161453Z 32003KT 10SM CLR 03/02 A2983 RMK AO2 SLP106 T00330022 51005=
201803161353 METAR KPAE 161353Z 32003KT 10SM CLR 03/01 A2983 RMK AO2 SLP105 T00280011=
201803161253 METAR KPAE 161253Z AUTO 00000KT 10SM CLR 03/01 A2983 RMK AO2 SLP103 T00330011=
201803161153 METAR KPAE 161153Z AUTO VRB03KT 10SM CLR 04/01 A2982 RMK AO2 SLP100 T00390011 10061 20033 53007=
201803161053 METAR KPAE 161053Z AUTO 35006KT 10SM CLR 04/03 A2981 RMK AO2 SLP097 T00440028=
201803160953 METAR KPAE 160953Z AUTO 34004KT 10SM CLR 05/03 A2980 RMK AO2 SLP094 T00500028=
201803160853 METAR KPAE 160853Z AUTO 33005KT 10SM CLR 06/02 A2980 RMK AO2 SLP092 T00560022 53006=
201803160753 METAR KPAE 160753Z AUTO 32007KT 10SM CLR 06/03 A2979 RMK AO2 SLP089 T00560028 401220022=
201803160653 METAR KPAE 160653Z AUTO 31004KT 10SM CLR 06/03 A2979 RMK AO2 SLP089 T00560033=
201803160553 METAR KPAE 160553Z AUTO 32008KT 10SM BKN100 06/03 A2978 RMK AO2 SLP087 T00610033 10111 20061 53010=
201803160453 METAR KPAE 160453Z AUTO 32005KT 10SM OVC080 07/04 A2977 RMK AO2 SLP083 T00670044=
201803160353 METAR KPAE 160353Z AUTO 31008KT 10SM FEW090 07/04 A2976 RMK AO2 SLP079 T00670039=
201803160253 METAR KPAE 160253Z 30006KT 10SM CLR 08/01 A2975 RMK AO2 SLP077 T00780011 53002=
201803160153 METAR KPAE 160153Z 31005KT 10SM CLR 09/01 A2974 RMK AO2 SLP074 T00890011=
201803160053 METAR KPAE 160053Z 31008G15KT 10SM CLR 11/M01 A2973 RMK AO2 SLP071 T01061011=
201803152353 METAR KPAE 152353Z 32008KT 10SM CLR 11/M02 A2974 RMK AO2 SLP073 T01111017 10122 20067 56010=
201803152253 METAR KPAE 152253Z 32006KT 10SM CLR 11/M03 A2975 RMK AO2 SLP077 T01111033=
201803152153 METAR KPAE 152153Z 34005KT 10SM CLR 11/M03 A2976 RMK AO2 SLP079 T01111028=
201803152053 METAR KPAE 152053Z VRB04KT 10SM CLR 11/M04 A2977 RMK AO2 SLP083 T01061039 58012=
201803151953 METAR KPAE 151953Z VRB04KT 10SM CLR 11/01 A2979 RMK AO2 SLP089 T01060011=
201803151853 METAR KPAE 151853Z VRB03KT 10SM CLR 09/M01 A2980 RMK AO2 SLP093 T00891006=
201803151753 METAR KPAE 151753Z 00000KT 10SM CLR 07/M01 A2980 RMK AO2 SLP095 T00671006 10072 20022 55001=
201803151653 METAR KPAE 151653Z 08006KT 10SM CLR 06/00 A2980 RMK AO2 SLP094 T00560000=
201803151553 METAR KPAE 151553Z 08005KT 10SM CLR 04/00 A2980 RMK AO2 SLP096 T00440000=
201803151453 METAR KPAE 151453Z 08007KT 10SM CLR 02/01 A2981 RMK AO2 SLP097 T00220006 56005=
201803151353 METAR KPAE 151353Z 08004KT 10SM CLR 02/01 A2981 RMK AO2 SLP099 T00220006=
201803151253 METAR KPAE 151253Z AUTO 08006KT 10SM CLR 03/01 A2982 RMK AO2 SLP099 T00280011=
201803151153 METAR KPAE 151153Z AUTO 08007KT 10SM CLR 03/01 A2982 RMK AO2 SLP101 70016 T00280011 10061 20028 58013=
201803151053 METAR KPAE 151053Z AUTO 08007KT 10SM CLR 03/01 A2984 RMK AO2 SLP106 T00330011=
201803150953 METAR KPAE 150953Z AUTO 08007KT 10SM CLR 04/02 A2985 RMK AO2 SLP111 T00390017=
201803150853 METAR KPAE 150853Z AUTO 08003KT 10SM CLR 04/01 A2986 RMK AO2 SLP114 T00440011 58007=
201803150753 METAR KPAE 150753Z AUTO 08006KT 10SM CLR 04/01 A2987 RMK AO2 SLP119 T00440006 401060044=
201803150653 METAR KPAE 150653Z AUTO 12007KT 10SM CLR 06/01 A2988 RMK AO2 SLP119 T00560006=
201803150553 METAR KPAE 150553Z AUTO 13007KT 10SM CLR 06/01 A2988 RMK AO2 SLP122 T00560006 10106 20050 58003=
201803150453 METAR KPAE 150453Z AUTO 13006KT 10SM CLR 06/02 A2989 RMK AO2 SLP125 T00560017=
201803150353 METAR KPAE 150353Z AUTO 14003KT 10SM CLR 06/03 A2990 RMK AO2 SLP126 T00560028=
201803150253 METAR KPAE 150253Z 00000KT 10SM CLR 07/03 A2989 RMK AO2 SLP125 T00670033 53005=
201803150153 METAR KPAE 150153Z 19006KT 10SM FEW100 08/02 A2988 RMK AO2 SLP121 T00830017=
201803150053 METAR KPAE 150053Z 18009KT 10SM FEW100 10/01 A2988 RMK AO2 SLP120 T01000006=
201803142353 METAR KPAE 142353Z 18009KT 10SM CLR 11/M01 A2988 RMK AO2 WSHFT 2310 SLP119 60011 T01061006 10106 20061 56004=
201803142253 METAR KPAE 142253Z 23009KT 10SM SCT045 BKN055 10/03 A2988 RMK AO2 SLP119 T01000033=
201803142153 METAR KPAE 142153Z 34004KT 10SM FEW021 BKN043 BKN050 08/06 A2988 RMK AO2 SLP120 T00830061=
201803142100 SPECI KPAE 142100Z 35004KT 10SM FEW007 BKN040 07/06 A2989 RMK AO2 T00720056=
201803142053 METAR KPAE 142053Z 01004KT 10SM SCT009 BKN019 OVC024 07/06 A2989 RMK AO2 SLP124 60011 T00720056 50004=
201803141953 METAR KPAE 141953Z 33004KT 5SM BR BKN006 OVC019 07/05 A2990 RMK AO2 RAE39 SLP128 P0003 T00670050=
201803141940 SPECI KPAE 141940Z 01003KT 5SM BR BKN006 OVC019 07/05 A2990 RMK AO2 RAE39 P0003 T00670050=
201803141916 SPECI KPAE 141916Z VRB03KT 2SM -RA BR BKN006 OVC019 06/05 A2990 RMK AO2 P0001 T00610050=
201803141856 SPECI KPAE 141856Z 09003KT 3SM -RA BR BKN006 OVC019 06/05 A2989 RMK AO2 P0000 T00610050=
201803141853 METAR KPAE 141853Z 08003KT 2 1/2SM -RA BR BKN006 OVC019 07/05 A2989 RMK AO2 SLP125 P0008 T00670050=
201803141831 SPECI KPAE 141831Z 00000KT 2SM R16R/0600VP6000FT -RA BR BKN005 OVC016 06/06 A2989 RMK AO2 P0006 T00610056=
201803141753 METAR KPAE 141753Z 00000KT 2SM R16R/6000VP6000FT -RA BR BKN003 OVC009 07/06 A2988 RMK AO2 SLP120 P0002 60005 T00670056 10072 20061 53016=
201803141653 METAR KPAE 141653Z 22005KT 2SM -RA BR OVC003 07/06 A2986 RMK AO2 RAB1557 SLP114 P0003 T00670061=
201803141553 METAR KPAE 141553Z 18007KT 9SM OVC009 07/06 A2984 RMK AO2 SLP107 T00670061=
201803141453 METAR KPAE 141453Z 15007KT 6SM BR BKN002 07/06 A2983 RMK AO2 SLP104 T00670061 52004=
201803141439 SPECI KPAE 141439Z 15008KT 7SM BKN002 07/06 A2983 RMK AO2 T00670061=
201803141353 METAR KPAE 141353Z 13007KT 10SM BKN008 OVC110 07/06 A2982 RMK AO2 SLP102 T00670056=
201803141351 SPECI KPAE 141351Z 13006KT 10SM SCT008 BKN095 OVC110 07/06 A2982 RMK AO2=
201803141253 METAR KPAE 141253Z AUTO 13012KT 10SM OVC095 07/06 A2982 RMK AO2 SLP099 T00670056=
201803141153 METAR KPAE 141153Z AUTO 13009KT 10SM BKN070 07/06 A2981 RMK AO2 SLP097 70024 T00670056 10078 20067 53000=
201803141053 METAR KPAE 141053Z AUTO VRB04KT 10SM BKN080 07/06 A2980 RMK AO2 SLP094 T00670056=
201803140953 METAR KPAE 140953Z AUTO 12009KT 10SM SCT110 07/06 A2981 RMK AO2 SLP097 T00670056=
201803140853 METAR KPAE 140853Z AUTO VRB05KT 10SM SCT036 BKN120 07/05 A2981 RMK AO2 SLP096 T00670050 55005=
201803140753 METAR KPAE 140753Z AUTO VRB04KT 10SM OVC110 07/05 A2981 RMK AO2 SLP096 T00720050 401670072=
201803140653 METAR KPAE 140653Z AUTO VRB03KT 10SM OVC100 07/06 A2981 RMK AO2 SLP095 T00720061=
201803140553 METAR KPAE 140553Z AUTO VRB04KT 10SM OVC085 07/06 A2983 RMK AO2 SLP100 60016 T00720056 10078 20072 56003=
201803140453 METAR KPAE 140453Z AUTO 09007KT 10SM OVC085 07/06 A2983 RMK AO2 SLP101 T00720061=
201803140353 METAR KPAE 140353Z AUTO 08008KT 10SM SCT060 OVC080 07/07 A2982 RMK AO2 RAE22 SLP098 P0002 T00720072=
201803140253 METAR KPAE 140253Z VRB06KT 7SM -RA OVC044 08/08 A2983 RMK AO2 SLP103 P0006 60014 T00780078 58003=
201803140153 METAR KPAE 140153Z 12008KT 4SM -RA BR OVC039 08/07 A2984 RMK AO2 SLP106 P0005 T00780072=
201803140053 METAR KPAE 140053Z 12008KT 4SM -RA BR OVC045 08/07 A2983 RMK AO2 SLP103 P0003 T00780067=
201803132353 METAR KPAE 132353Z 12009KT 8SM -RA SCT009 SCT013 OVC050 08/07 A2984 RMK AO2 SLP105 P0005 60008 T00780067 10161 20078 50007=
201803132350 SPECI KPAE 132350Z 12008KT 7SM -RA SCT009 BKN050 OVC060 08/07 A2984 RMK AO2 P0005=
201803132253 METAR KPAE 132253Z AUTO 15015KT 7SM -RA FEW037 OVC050 08/06 A2985 RMK AO2 SLP108 P0002 T00830061=
201803132153 METAR KPAE 132153Z 18016G22KT 6SM -RA OVC050 09/06 A2982 RMK AO2 PK WND 17029/2108 RAB17 SLP098 P0001 T00940061=
201803132053 METAR KPAE 132053Z 17017G28KT 10SM SCT055 SCT070 OVC090 12/04 A2980 RMK AO2 PK WND 18031/2027 SLP091 T01220044 51024=
201803131953 METAR KPAE 131953Z 18020G27KT 10SM OVC090 13/06 A2978 RMK AO2 PK WND 18029/1913 SLP085 T01280056=
201803131853 METAR KPAE 131853Z 18018G26KT 10SM OVC100 14/08 A2975 RMK AO2 PK WND 19026/1852 SLP073 T01440078=
201803131753 METAR KPAE 131753Z 16016KT 10SM BKN095 BKN110 16/04 A2973 RMK AO2 SLP065 60000 T01610039 10167 20139 51024=
201803131653 METAR KPAE 131653Z 13008KT 10SM FEW070 OVC095 15/03 A2971 RMK AO2 RAB00E12 SLP059 P0000 T01500028=
201803131553 METAR KPAE 131553Z 15009KT 10SM FEW070 OVC100 16/00 A2968 RMK AO2 SLP050 T01610000=
201803131453 METAR KPAE 131453Z VRB04KT 10SM OVC110 16/M01 A2966 RMK AO2 SLP040 T01611011 55007=
201803131353 METAR KPAE 131353Z 08007KT 10SM FEW120 16/M01 A2965 RMK AO2 SLP038 T01561011=
201803131253 METAR KPAE 131253Z AUTO 08006KT 10SM CLR 16/M01 A2966 RMK AO2 SLP043 T01561011=
201803131153 METAR KPAE 131153Z AUTO 08008KT 10SM CLR 16/M01 A2968 RMK AO2 SLP047 T01561011 10156 20144 58028=
201803131053 METAR KPAE 131053Z AUTO 08006KT 10SM CLR 15/M01 A2971 RMK AO2 SLP057 T01501011=
201803130953 METAR KPAE 130953Z AUTO 07008KT 10SM CLR 16/M01 A2973 RMK AO2 SLP065 T01561006=
201803130853 METAR KPAE 130853Z AUTO 07009KT 10SM CLR 16/00 A2976 RMK AO2 SLP075 T01560000 56027=
201803130753 METAR KPAE 130753Z AUTO 07008KT 10SM CLR 15/01 A2978 RMK AO2 SLP084 T01500006 402110089=
201803130653 METAR KPAE 130653Z AUTO 07010KT 10SM CLR 15/01 A2981 RMK AO2 SLP094 T01500006=
201803130553 METAR KPAE 130553Z AUTO 08013G19KT 10SM CLR 15/00 A2984 RMK AO2 SLP104 T01500000 10200 20150 58016=
201803130453 METAR KPAE 130453Z AUTO 08010KT 10SM CLR 15/M01 A2987 RMK AO2 SLP115 T01501011=
201803130353 METAR KPAE 130353Z AUTO 08010KT 10SM CLR 16/M02 A2989 RMK AO2 SLP120 T01611017=
201803130253 METAR KPAE 130253Z 08010KT 10SM CLR 17/M02 A2989 RMK AO2 SLP121 T01671017 56009=
201803130153 METAR KPAE 130153Z 07010G16KT 10SM CLR 18/M01 A2989 RMK AO2 SLP122 T01781011=
201803130053 METAR KPAE 130053Z 07011G18KT 10SM CLR 19/M01 A2990 RMK AO2 SLP126 T01891011=
201803122353 METAR KPAE 122353Z 07015G21KT 10SM CLR 20/M01 A2992 RMK AO2 SLP130 T02001011 10211 20161 56025=
201803122253 METAR KPAE 122253Z 07013G22KT 10SM CLR 21/M01 A2994 RMK AO2 SLP138 T02061011=
201803122153 METAR KPAE 122153Z 07011G19KT 10SM CLR 21/00 A2997 RMK AO2 SLP146 T02060000=
201803122053 METAR KPAE 122053Z 08015G20KT 10SM CLR 21/01 A2999 RMK AO2 SLP155 T02060006 58026=
201803121953 METAR KPAE 121953Z 07010G17KT 10SM CLR 19/02 A3002 RMK AO2 SLP164 T01940017=
201803121853 METAR KPAE 121853Z 07010KT 10SM CLR 18/01 A3005 RMK AO2 SLP175 T01780011=
201803121753 METAR KPAE 121753Z 08008KT 10SM CLR 16/01 A3007 RMK AO2 SLP183 T01560006 10156 20094 56006=
201803121653 METAR KPAE 121653Z 08007KT 10SM CLR 13/01 A3007 RMK AO2 SLP183 T01330006=
201803121553 METAR KPAE 121553Z 07006KT 10SM CLR 12/00 A3008 RMK AO2 SLP188 T01170000=
201803121453 METAR KPAE 121453Z 07007KT 10SM CLR 10/00 A3009 RMK AO2 SLP190 T01000000 55004=
201803121353 METAR KPAE 121353Z 07007KT 10SM CLR 10/00 A3009 RMK AO2 SLP189 T01000000=
201803121253 METAR KPAE 121253Z AUTO 07007KT 10SM CLR 09/00 A3009 RMK AO2 SLP191 T00940000=
201803121153 METAR KPAE 121153Z AUTO 07007KT 10SM CLR 09/00 A3010 RMK AO2 SLP193 T00940000 10117 20078 56011=
201803121053 METAR KPAE 121053Z AUTO 07006KT 10SM CLR 09/01 A3011 RMK AO2 SLP195 T00940006=
201803120953 METAR KPAE 120953Z AUTO 07006KT 10SM CLR 10/01 A3012 RMK AO2 SLP201 T01000006=
201803120853 METAR KPAE 120853Z AUTO 07008KT 10SM CLR 10/01 A3013 RMK AO2 SLP205 T01000006 58004=
201803120753 METAR KPAE 120753Z AUTO VRB05KT 10SM CLR 10/01 A3013 RMK AO2 SLP205 T01000011 401670056=
201803120653 METAR KPAE 120653Z AUTO 00000KT 10SM CLR 08/03 A3014 RMK AO2 SLP209 T00780033=
201803120553 METAR KPAE 120553Z AUTO 06005KT 10SM CLR 12/01 A3015 RMK AO2 SLP209 T01170011 10161 20111 58000=
201803120453 METAR KPAE 120453Z AUTO 07005KT 10SM CLR 12/02 A3015 RMK AO2 SLP209 T01220017=
201803120353 METAR KPAE 120353Z AUTO 03004KT 10SM CLR 12/03 A3015 RMK AO2 SLP210 T01220033=
201803120253 METAR KPAE 120253Z 00000KT 10SM CLR 11/03 A3015 RMK AO2 SLP210 T01110028 55004=
201803120153 METAR KPAE 120153Z 34003KT 10SM CLR 13/02 A3014 RMK AO2 SLP209 T01330022=
201803120053 METAR KPAE 120053Z 33004KT 10SM CLR 14/02 A3015 RMK AO2 SLP210 T01440017=
201803112353 METAR KPAE 112353Z 29004KT 10SM CLR 16/02 A3016 RMK AO2 SLP213 T01560017 10167 20106 56012=
201803112253 METAR KPAE 112253Z VRB04KT 10SM CLR 16/02 A3017 RMK AO2 SLP216 T01610017=
201803112153 METAR KPAE 112153Z 33005KT 10SM CLR 15/03 A3017 RMK AO2 SLP219 T01500028=
201803112053 METAR KPAE 112053Z 27003KT 10SM CLR 13/02 A3019 RMK AO2 SLP225 T01330017 58000=
201803111953 METAR KPAE 111953Z 00000KT 10SM CLR 14/02 A3020 RMK AO2 SLP228 T01390022=
201803111853 METAR KPAE 111853Z 23006KT 10SM CLR 11/02 A3020 RMK AO2 SLP229 T01110017=
201803111753 METAR KPAE 111753Z 12004KT 10SM CLR 11/00 A3019 RMK AO2 SLP226 T01060000 10106 20056 51015=
201803111653 METAR KPAE 111653Z 08005KT 10SM SCT110 09/M01 A3019 RMK AO2 SLP224 T00941006=
201803111553 METAR KPAE 111553Z 07004KT 10SM BKN110 08/M01 A3017 RMK AO2 SLP218 T00781006=
201803111453 METAR KPAE 111453Z VRB03KT 10SM OVC110 07/M01 A3015 RMK AO2 SLP212 T00671011 51009=
201803111353 METAR KPAE 111353Z 05003KT 10SM CLR 06/M01 A3014 RMK AO2 SLP210 T00611011=
201803111253 METAR KPAE 111253Z AUTO 08007KT 10SM CLR 07/M01 A3014 RMK AO2 SLP207 T00671011=
201803111153 METAR KPAE 111153Z AUTO 06005KT 10SM CLR 06/M01 A3012 RMK AO2 SLP202 T00611011 10089 20056 51008=
201803111053 METAR KPAE 111053Z AUTO 06005KT 10SM CLR 07/M01 A3012 RMK AO2 SLP200 T00671011=
201803110953 METAR KPAE 110953Z AUTO 05005KT 10SM CLR 07/M01 A3011 RMK AO2 SLP198 T00721011=
201803110853 METAR KPAE 110853Z AUTO 05003KT 10SM CLR 07/M01 A3010 RMK AO2 SLP195 T00721006 51010=
201803110753 METAR KPAE 110753Z AUTO 00000KT 10SM CLR 06/01 A3009 RMK AO2 SLP193 T00610011 401220000=
201803110653 METAR KPAE 110653Z AUTO 01004KT 10SM CLR 06/03 A3008 RMK AO2 SLP189 T00610033=
201803110553 METAR KPAE 110553Z AUTO 07006KT 10SM CLR 09/M01 A3007 RMK AO2 SLP185 T00891011 10122 20078 51014=
201803110453 METAR KPAE 110453Z AUTO 07005KT 10SM CLR 09/M01 A3006 RMK AO2 SLP183 T00891006=
201803110353 METAR KPAE 110353Z 35003KT 10SM CLR 08/03 A3004 RMK AO2 SLP177 T00830028=
201803110253 METAR KPAE 110253Z 36005KT 10SM CLR 08/02 A3003 RMK AO2 SLP173 T00830022 53002=
201803110153 METAR KPAE 110153Z 35006KT 10SM CLR 09/02 A3002 RMK AO2 SLP170 T00940022=
201803110053 METAR KPAE 110053Z 33003KT 10SM CLR 12/02 A3002 RMK AO2 SLP168 T01220017=
201803102353 METAR KPAE 102353Z 36005KT 10SM CLR 12/01 A3002 RMK AO2 SLP170 T01170011 10122 20061 56013=
201803102253 METAR KPAE 102253Z 32005KT 10SM CLR 12/01 A3003 RMK AO2 SLP173 T01220011=
201803102153 METAR KPAE 102153Z 34006KT 10SM CLR 11/00 A3004 RMK AO2 SLP175 T01110000=
201803102053 METAR KPAE 102053Z 33004KT 10SM CLR 10/M01 A3006 RMK AO2 SLP183 T01001011 58011=
201803101953 METAR KPAE 101953Z 36004KT 10SM CLR 09/01 A3008 RMK AO2 SLP189 T00890006=
201803101853 METAR KPAE 101853Z 32004KT 10SM CLR 08/M01 A3009 RMK AO2 SLP194 T00781006=
201803101753 METAR KPAE 101753Z 34006KT 10SM CLR 06/00 A3010 RMK AO2 SLP195 T00610000 10061 20000 57002=
201803101653 METAR KPAE 101653Z 03004KT 10SM CLR 04/M01 A3010 RMK AO2 SLP196 T00441006=
201803101553 METAR KPAE 101553Z 01004KT 10SM CLR 03/M01 A3010 RMK AO2 SLP197 T00281006=
201803101453 METAR KPAE 101453Z 05003KT 10SM CLR 02/M02 A3010 RMK AO2 SLP197 T00221017 56002=
201803101353 METAR KPAE 101353Z AUTO 00000KT 10SM CLR 01/M01 A3010 RMK AO2 SLP198 T00061011=
201803101253 METAR KPAE 101253Z AUTO 00000KT 10SM CLR 02/M01 A3010 RMK AO2 SLP198 T00171011=
201803101153 METAR KPAE 101153Z AUTO 00000KT 10SM CLR 01/M01 A3011 RMK AO2 SLP199 70001 T00111006 10050 20011 58000=
201803101053 METAR KPAE 101053Z AUTO 01004KT 10SM CLR 02/00 A3011 RMK AO2 SLP199 T00170000=
201803100953 METAR KPAE 100953Z AUTO 07003KT 10SM CLR 03/00 A3011 RMK AO2 SLP201 T00280000=
201803100853 METAR KPAE 100853Z AUTO 08005KT 10SM CLR 03/01 A3011 RMK AO2 SLP200 T00280006 51001=
201803100753 METAR KPAE 100753Z AUTO VRB04KT 10SM CLR 04/01 A3011 RMK AO2 SLP198 T00390011 400890028=
201803100653 METAR KPAE 100653Z AUTO 05003KT 10SM CLR 04/01 A3011 RMK AO2 SLP200 T00440011=
201803100553 METAR KPAE 100553Z AUTO 00000KT 10SM CLR 05/01 A3011 RMK AO2 SLP199 T00500006 10078 20050 50005=
201803100453 METAR KPAE 100453Z 03004KT 10SM BKN065 06/00 A3011 RMK AO2 SLP199 T00610000=
201803100353 METAR KPAE 100353Z 34003KT 10SM OVC065 06/01 A3010 RMK AO2 SLP197 T00610006=
201803100253 METAR KPAE 100253Z 35003KT 10SM OVC065 07/01 A3009 RMK AO2 SLP194 T00670006 53005=
201803100153 METAR KPAE 100153Z 33003KT 10SM OVC070 07/00 A3008 RMK AO2 SLP191 T00720000=
201803100053 METAR KPAE 100053Z 31005KT 10SM OVC070 07/01 A3008 RMK AO2 SLP191 T00720011=
201803092353 METAR KPAE 092353Z AUTO 32004KT 10SM OVC070 08/01 A3008 RMK AO2 SLP187 T00780006 10089 20056 53007=
201803092253 METAR KPAE 092253Z VRB04KT 10SM SCT030 BKN070 08/01 A3007 RMK AO2 SLP186 T00780006=
201803092153 METAR KPAE 092153Z 33006KT 10SM OVC065 08/01 A3006 RMK AO2 SLP180 T00780011=
201803092101 SPECI KPAE 092101Z 31004KT 10SM SCT027 OVC070 08/02 A3005 RMK AO2 T00830022=
201803092053 METAR KPAE 092053Z 31005KT 10SM BKN027 BKN032 OVC070 08/03 A3005 RMK AO2 SLP180 T00830028 51011=
201803092022 SPECI KPAE 092022Z 28004KT 10SM BKN029 BKN041 07/02 A3005 RMK AO2 T00720022=
201803092013 SPECI KPAE 092013Z 33004KT 10SM FEW022 SCT027 BKN032 07/02 A3005 RMK AO2 T00720022=
201803092005 SPECI KPAE 092005Z VRB03KT 10SM FEW022 BKN028 OVC044 08/02 A3005 RMK AO2 T00780022=
201803091956 SPECI KPAE 091956Z 16004KT 10SM BKN032 BKN044 07/01 A3004 RMK AO2 T00720011=
201803091953 METAR KPAE 091953Z 10SM FEW020 BKN026 BKN044 08/02 A3004 RMK AO2 SLP176 T00780022=
201803091853 METAR KPAE 091853Z 16003KT 10SM FEW020 BKN026 OVC034 06/02 A3003 RMK AO2 SLP173 T00610022=
201803091810 SPECI KPAE 091810Z 17009KT 10SM BKN018 06/02 A3003 RMK AO2 T00560022=
201803091753 METAR KPAE 091753Z 12006KT 10SM SCT007 BKN070 06/02 A3002 RMK AO2 SLP168 60001 T00610022 10061 20028 51019=
201803091729 SPECI KPAE 091729Z 12010KT 10SM SCT007 BKN070 06/03 A3001 RMK AO2 T00560028=
201803091653 METAR KPAE 091653Z 15006KT 10SM BKN075 05/03 A3001 RMK AO2 SLP164 T00500028=
201803091553 METAR KPAE 091553Z 14006KT 10SM SCT043 OVC085 04/03 A2998 RMK AO2 SLP156 T00390028=
201803091453 METAR KPAE 091453Z 12006KT 10SM FEW033 BKN085 03/02 A2996 RMK AO2 SLP149 60001 T00330022 51024=
201803091353 METAR KPAE 091353Z AUTO 09003KT 10SM BKN032 OVC090 03/02 A2994 RMK AO2 SLP142 T00280022=
201803091253 METAR KPAE 091253Z AUTO 12006KT 10SM FEW032 BKN095 03/02 A2992 RMK AO2 SLP135 P0001 T00280022=
201803091153 METAR KPAE 091153Z AUTO 12004KT 10SM FEW040 SCT060 OVC085 04/02 A2989 RMK AO2 RAE38 SLP125 P0001 60011 70059 T00390022 10083 20039 51030=
201803091119 SPECI KPAE 091119Z AUTO 14007KT 10SM -RA FEW014 OVC032 04/02 A2988 RMK AO2 P0001 T00390022=
201803091053 METAR KPAE 091053Z AUTO 00000KT 5SM -RA BR SCT016 OVC025 04/03 A2987 RMK AO2 SLP119 P0001 T00390028=
201803090953 METAR KPAE 090953Z AUTO VRB03KT 6SM -RA BR OVC020 04/03 A2984 RMK AO2 SLP106 P0002 T00440033=
201803090917 SPECI KPAE 090917Z AUTO 32005KT 4SM -RA BR FEW007 FEW011 OVC019 04/03 A2982 RMK AO2 P0001 T00440033=
201803090903 SPECI KPAE 090903Z AUTO 33004KT 4SM -RA BR FEW005 BKN013 OVC018 04/04 A2981 RMK AO2 P0000 T00440039=
201803090853 METAR KPAE 090853Z AUTO 32008KT 3SM -RA BR BKN005 OVC012 04/04 A2980 RMK AO2 RAB14 CIG 003V009 SLP094 P0007 60007 T00440039 53025=
201803090835 SPECI KPAE 090835Z AUTO 32008KT 2SM RA BR BKN005 OVC011 06/05 A2979 RMK AO2 RAB14 CIG 004V008 P0005 T00560050=
201803090753 METAR KPAE 090753Z AUTO 35005KT 10SM OVC008 07/06 A2977 RMK AO2 SLP082 T00720061 400890044=
201803090717 SPECI KPAE 090717Z AUTO 19006KT 10SM BKN009 OVC012 08/06 A2976 RMK AO2 T00780061=
201803090653 METAR KPAE 090653Z AUTO 20008G18KT 10SM OVC013 08/06 A2975 RMK AO2 SLP075 T00780056=
201803090624 SPECI KPAE 090624Z AUTO 18015G20KT 10SM OVC014 08/06 A2974 RMK AO2 T00780056=
201803090553 METAR KPAE 090553Z AUTO 18011KT 10SM SCT018 BKN029 OVC095 08/06 A2973 RMK AO2 PK WND 16031/0529 SLP068 60002 T00830056 10089 20078 53037=
201803090453 METAR KPAE 090453Z 15020G29KT 10SM FEW014 08/06 A2967 RMK AO2 PK WND 15040/0356 SLP051 T00780061=
201803090353 METAR KPAE 090353Z 16026G40KT 10SM SCT014 08/06 A2965 RMK AO2 PK WND 17042/0328 SLP042 T00830061=
201803090301 SPECI KPAE 090301Z 16029G42KT 10SM SCT015 BKN110 08/06 A2962 RMK AO2 PK WND 16038/0301 T00830061=
201803090253 METAR KPAE 090253Z 16030G42KT 10SM BKN015 BKN110 08/06 A2961 RMK AO2 PK WND 16043/0223 SLP030 60002 T00830061 50001=
201803090236 SPECI KPAE 090236Z 16029G34KT 10SM BKN015 OVC022 08/07 A2962 RMK AO2 PK WND 16043/0223 T00830067=
201803090153 METAR KPAE 090153Z 16025G35KT 10SM BKN009 BKN013 OVC020 09/08 A2962 RMK AO2 PK WND 16035/0144 SLP034 T00890078=
201803090053 METAR KPAE 090053Z 16021G29KT 8SM BKN006 BKN017 OVC022 09/08 A2961 RMK AO2 PK WND 17030/0004 RAE35 SLP029 P0002 T00890078=
201803082353 METAR KPAE 082353Z 14014G21KT 1 1/2SM -RA BR OVC009 09/08 A2961 RMK AO2 SLP029 P0005 60031 T00890078 10089 20067 55003=
201803082312 SPECI KPAE 082312Z 12015KT 2SM -RA BR BKN013 BKN020 OVC038 08/07 A2961 RMK AO2 P0002 T00780067=
201803082258 SPECI KPAE 082258Z 11009G18KT 070V140 2 1/2SM -RA BR FEW009 BKN020 OVC038 08/07 A2961 RMK AO2 P0000 T00780067=
201803082253 METAR KPAE 082253Z 12010G18KT 3SM -RA BR SCT020 BKN025 OVC050 08/07 A2960 RMK AO2 SLP026 P0004 T00780067=
201803082226 SPECI KPAE 082226Z VRB06KT 5SM -RA BR BKN023 OVC031 08/07 A2960 RMK AO2 P0003 T00780067=
201803082153 METAR KPAE 082153Z 10006KT 5SM -RA BR BKN037 OVC048 08/07 A2960 RMK AO2 SLP026 P0006 T00780067=
201803082053 METAR KPAE 082053Z 11007KT 030V150 8SM -RA BKN039 BKN048 OVC055 08/06 A2962 RMK AO2 SLP032 P0004 60016 T00830061 58008=
201803081953 METAR KPAE 081953Z VRB04KT 8SM -RA OVC037 08/06 A2963 RMK AO2 SLP037 P0005 T00780061=
201803081853 METAR KPAE 081853Z 12005KT 5SM -RA BR OVC034 07/06 A2964 RMK AO2 SLP039 P0007 T00670056=
201803081753 METAR KPAE 081753Z VRB06KT 4SM -RA BR BKN037 OVC045 07/06 A2964 RMK AO2 SLP040 P0008 60015 T00670061 10067 20050 58022=
201803081653 METAR KPAE 081653Z VRB04KT 3SM -RA BR BKN038 BKN047 OVC065 06/04 A2966 RMK AO2 SLP047 P0006 T00610039=
201803081553 METAR KPAE 081553Z 12007KT 10SM -RA OVC043 06/03 A2969 RMK AO2 RAB30 SLP058 P0001 T00610033=
201803081453 METAR KPAE 081453Z 12009KT 10SM FEW047 BKN055 OVC070 07/03 A2971 RMK AO2 RAB13E42 SLP063 P0000 60000 T00670028 55013=
201803081353 METAR KPAE 081353Z AUTO 08004KT 10SM FEW070 BKN085 BKN100 06/03 A2971 RMK AO2 SLP063 T00560028=
201803081253 METAR KPAE 081253Z AUTO 09003KT 10SM CLR 06/03 A2974 RMK AO2 SLP072 T00560028=
201803081153 METAR KPAE 081153Z AUTO 07005KT 10SM SCT060 BKN085 06/03 A2975 RMK AO2 SLP076 60003 70003 T00560033 10067 20044 58029=
201803081053 METAR KPAE 081053Z AUTO 09003KT 10SM OVC080 06/03 A2978 RMK AO2 SLP086 T00610028=
201803080953 METAR KPAE 080953Z AUTO VRB03KT 10SM SCT080 BKN100 06/03 A2980 RMK AO2 RAE01 SLP095 P0000 T00610028=
201803080853 METAR KPAE 080853Z AUTO 08006KT 10SM -RA FEW038 OVC080 05/03 A2983 RMK AO2 SLP106 P0001 60003 T00500033 58016=
201803080753 METAR KPAE 080753Z AUTO 08006KT 6SM -RA BR OVC055 05/03 A2985 RMK AO2 SLP113 P0002 T00500033 400670000=
201803080653 METAR KPAE 080653Z AUTO 12008KT 10SM -RA OVC050 06/02 A2988 RMK AO2 RAB36 SLP121 P0000 T00560017=
201803080553 METAR KPAE 080553Z AUTO 16006KT 10SM OVC110 05/01 A2988 RMK AO2 SLP123 T00500011 10061 20044 53010=
201803080453 METAR KPAE 080453Z 08005KT 10SM FEW100 06/01 A2986 RMK AO2 SLP114 T00560011=
201803080353 METAR KPAE 080353Z 23005KT 10SM BKN110 04/01 A2986 RMK AO2 SLP116 T00440011=
201803080253 METAR KPAE 080253Z 31003KT 10SM FEW120 05/01 A2985 RMK AO2 SLP113 T00500011 56021=
201803080153 METAR KPAE 080153Z 31004KT 10SM SCT110 06/01 A2986 RMK AO2 SLP116 T00560006=
201803080053 METAR KPAE 080053Z 33004KT 10SM SCT120 06/01 A2990 RMK AO2 SLP128 T00610006=
201803072353 METAR KPAE 072353Z 32005KT 10SM FEW120 06/01 A2991 RMK AO2 SLP134 T00560006 10067 20039 56020=
201803072253 METAR KPAE 072253Z 32008KT 10SM CLR 06/01 A2992 RMK AO2 SLP137 T00610006=
201803072153 METAR KPAE 072153Z 33005KT 10SM CLR 06/01 A2995 RMK AO2 SLP147 T00560006=
201803072053 METAR KPAE 072053Z 32008KT 10SM CLR 06/01 A2997 RMK AO2 SLP155 T00560006 58026=
201803071953 METAR KPAE 071953Z 30006KT 10SM CLR 06/01 A3001 RMK AO2 SLP166 T00560006=
201803071853 METAR KPAE 071853Z 33006KT 10SM CLR 04/01 A3003 RMK AO2 SLP173 T00440006=
201803071753 METAR KPAE 071753Z 32004KT 10SM CLR 04/00 A3005 RMK AO2 SLP180 T00390000 10050 20000 58013=
201803071653 METAR KPAE 071653Z 31004KT 10SM CLR 04/M01 A3007 RMK AO2 SLP185 T00391006=
201803071553 METAR KPAE 071553Z 30003KT 10SM CLR 02/00 A3008 RMK AO2 SLP192 T00170000=
201803071453 METAR KPAE 071453Z 30003KT 10SM CLR 01/M01 A3009 RMK AO2 SLP195 T00111011 58012=
201803071353 METAR KPAE 071353Z AUTO 00000KT 10SM CLR 01/00 A3011 RMK AO2 SLP202 T00110000=
201803071253 METAR KPAE 071253Z AUTO 00000KT 10SM CLR 01/M01 A3012 RMK AO2 SLP205 T00061006=
201803071153 METAR KPAE 071153Z AUTO 34003KT 10SM CLR 01/M01 A3013 RMK AO2 SLP206 T00061011 10044 20006 56017=
201803071053 METAR KPAE 071053Z AUTO 35003KT 10SM CLR 01/M01 A3014 RMK AO2 SLP211 T00111006=
201803070953 METAR KPAE 070953Z AUTO 36005KT 10SM CLR 02/M01 A3016 RMK AO2 SLP218 T00171006=
201803070853 METAR KPAE 070853Z AUTO 01005KT 10SM CLR 02/00 A3018 RMK AO2 SLP224 T00220000 58010=
201803070753 METAR KPAE 070753Z AUTO 34006KT 10SM CLR 03/01 A3019 RMK AO2 SLP228 T00330006 400940006=
201803070653 METAR KPAE 070653Z AUTO 34004KT 10SM CLR 04/02 A3021 RMK AO2 SLP234 T00390017=
201803070553 METAR KPAE 070553Z AUTO 34006KT 10SM CLR 04/01 A3021 RMK AO2 SLP235 T00440011 10089 20044 56007=
201803070453 METAR KPAE 070453Z 33006KT 10SM CLR 04/02 A3022 RMK AO2 SLP238 T00440017=
201803070353 METAR KPAE 070353Z 32005KT 10SM CLR 05/01 A3022 RMK AO2 SLP238 T00500006=
201803070253 METAR KPAE 070253Z 31005KT 10SM CLR 06/01 A3023 RMK AO2 SLP242 T00560006 56015=
201803070153 METAR KPAE 070153Z 31005KT 10SM CLR 07/M01 A3025 RMK AO2 SLP247 T00671006=
201803070053 METAR KPAE 070053Z 31006KT 10SM CLR 08/00 A3026 RMK AO2 SLP251 T00830000=
201803062353 METAR KPAE 062353Z 31007KT 290V350 10SM CLR 09/M01 A3028 RMK AO2 SLP256 T00891011 10094 20067 58014=
201803062253 METAR KPAE 062253Z VRB05KT 10SM CLR 09/01 A3029 RMK AO2 SLP261 T00890011=
201803062153 METAR KPAE 062153Z 34006KT 10SM CLR 09/01 A3031 RMK AO2 SLP266 T00890006=
201803062053 METAR KPAE 062053Z 33005KT 10SM CLR 08/M01 A3032 RMK AO2 SLP270 T00831006 58011=
201803061953 METAR KPAE 061953Z 33006KT 10SM CLR 07/01 A3033 RMK AO2 SLP275 T00720011=
201803061853 METAR KPAE 061853Z 07004KT 10SM CLR 08/01 A3034 RMK AO2 SLP278 T00780011=
201803061753 METAR KPAE 061753Z 34004KT 10SM CLR 07/01 A3035 RMK AO2 SLP283 T00670011 10067 20006 51002=
201803061653 METAR KPAE 061653Z 02003KT 10SM CLR 06/01 A3035 RMK AO2 SLP282 T00610006=
201803061553 METAR KPAE 061553Z 00000KT 10SM CLR 04/01 A3035 RMK AO2 SLP283 T00390011=
201803061453 METAR KPAE 061453Z 08004KT 10SM CLR 02/01 A3035 RMK AO2 SLP282 T00220006 58001=
201803061353 METAR KPAE 061353Z AUTO 00000KT 10SM CLR 01/M01 A3035 RMK AO2 SLP284 T00111006=
201803061253 METAR KPAE 061253Z AUTO 00000KT 10SM CLR 02/00 A3036 RMK AO2 SLP284 T00220000=
201803061153 METAR KPAE 061153Z AUTO 00000KT 10SM CLR 03/00 A3035 RMK AO2 SLP282 T00280000 10044 20028 58001=
201803061053 METAR KPAE 061053Z AUTO 00000KT 10SM SCT043 OVC070 04/01 A3036 RMK AO2 SLP284 T00390006=
201803060953 METAR KPAE 060953Z AUTO 04003KT 10SM OVC070 04/01 A3036 RMK AO2 SLP285 T00390011=
201803060853 METAR KPAE 060853Z AUTO 02005KT 10SM OVC065 04/01 A3036 RMK AO2 SLP284 T00440011 58001=
201803060753 METAR KPAE 060753Z AUTO 02005KT 10SM OVC065 04/01 A3036 RMK AO2 SLP284 T00440011 400670022=
201803060653 METAR KPAE 060653Z AUTO 36004KT 10SM OVC065 04/02 A3036 RMK AO2 SLP286 T00440022=
201803060553 METAR KPAE 060553Z AUTO 32004KT 10SM FEW032 OVC075 04/02 A3036 RMK AO2 SLP285 T00440017 10067 20044 53002=
201803060453 METAR KPAE 060453Z AUTO 36004KT 10SM OVC075 05/01 A3036 RMK AO2 SLP285 T00500011=
201803060353 METAR KPAE 060353Z 02003KT 10SM FEW037 OVC075 06/01 A3035 RMK AO2 SLP283 T00560011=
201803060253 METAR KPAE 060253Z 02003KT 10SM OVC070 06/01 A3035 RMK AO2 SLP283 T00560011 55003=
201803060153 METAR KPAE 060153Z 35004KT 10SM SCT029 OVC070 06/01 A3035 RMK AO2 SLP281 T00610011=
201803060104 SPECI KPAE 060104Z 00000KT 10SM SCT029 BKN040 OVC075 06/02 A3036 RMK AO2 T00610017=
201803060053 METAR KPAE 060053Z 30003KT 10SM FEW023 BKN029 OVC045 06/02 A3036 RMK AO2 SLP284 T00610017=
201803052353 METAR KPAE 052353Z 29003KT 10SM SCT025 BKN029 OVC075 07/02 A3036 RMK AO2 SLP286 T00670017 10067 20044 58003=
201803052300 SPECI KPAE 052300Z 26003KT 10SM SCT030 BKN038 OVC070 07/01 A3037 RMK AO2 T00670011=
201803052253 METAR KPAE 052253Z 00000KT 10SM BKN025 OVC042 07/01 A3036 RMK AO2 SLP287 T00670006=
201803052153 METAR KPAE 052153Z VRB03KT 10SM BKN025 OVC042 07/01 A3037 RMK AO2 SLP289 T00670006=
201803052149 SPECI KPAE 052149Z VRB04KT 10SM SCT025 OVC042 07/01 A3037 RMK AO2=
201803052053 METAR KPAE 052053Z 13005KT 10SM SCT024 BKN029 OVC080 07/01 A3038 RMK AO2 SLP293 T00670006 58001=
201803051953 METAR KPAE 051953Z 13004KT 10SM SCT016 BKN032 OVC080 06/02 A3040 RMK AO2 SLP298 T00560017=
201803051931 SPECI KPAE 051931Z 14007KT 10SM SCT016 BKN027 OVC080 06/02 A3040 RMK AO2 T00560022=
201803051853 METAR KPAE 051853Z 15006KT 10SM OVC080 06/02 A3039 RMK AO2 SLP296 T00560017=
201803051753 METAR KPAE 051753Z 13006KT 10SM OVC075 04/01 A3039 RMK AO2 SLP295 T00440011 10044 20022 53009=
201803051653 METAR KPAE 051653Z 13007KT 10SM BKN070 04/02 A3037 RMK AO2 SLP288 T00440022=
201803051600 SPECI KPAE 051600Z 12005KT 8SM SCT001 BKN075 03/03 A3036 RMK AO2 T00280028=
201803051553 METAR KPAE 051553Z 12006KT 1/2SM R16R/P6000FT FG VV001 03/02 A3036 RMK AO2 SLP286 T00280022=
201803051548 SPECI KPAE 051548Z 12004KT 1/2SM R16R/P6000FT FG VV001 02/02 A3036 RMK AO2=
201803051456 SPECI KPAE 051456Z 12005KT 1/2SM R16R/P6000FT FG BKN002 03/02 A3036 RMK AO2 T00280022=
201803051453 METAR KPAE 051453Z 12005KT 1/2SM R16R/P6000FT FG OVC075 03/02 A3036 RMK AO2 SLP284 T00280022 51008=
201803051353 METAR KPAE 051353Z AUTO 00000KT 10SM BKN034 OVC080 03/02 A3035 RMK AO2 SLP281 T00330022=
201803051253 METAR KPAE 051253Z AUTO 00000KT 10SM OVC031 03/02 A3034 RMK AO2 SLP278 T00280022=
201803051240 SPECI KPAE 051240Z AUTO 09003KT 10SM BKN031 OVC043 03/02 A3034 RMK AO2 T00280022=
201803051153 METAR KPAE 051153Z AUTO 00000KT 10SM BKN026 OVC080 03/02 A3033 RMK AO2 SLP275 60009 70015 T00280022 10033 20028 51008=
201803051053 METAR KPAE 051053Z AUTO 00000KT 6SM BR BKN027 OVC034 03/03 A3032 RMK AO2 SLP272 T00280028=
201803051037 SPECI KPAE 051037Z AUTO 00000KT 3SM BR FEW001 OVC024 03/03 A3032 RMK AO2 T00280028=
201803051032 SPECI KPAE 051032Z AUTO 00000KT 1 1/2SM BR FEW001 OVC024 03/03 A3032 RMK AO2 T00280028=
201803051012 SPECI KPAE 051012Z AUTO 12003KT 3/4SM R16R/1400V2600FT BR FEW001 BKN024 OVC085 03/02 A3032 RMK AO2 T00280022=
201803051006 SPECI KPAE 051006Z AUTO 13005KT 6SM R16R/1400VP6000FT BR FEW001 BKN024 BKN085 03/02 A3032 RMK AO2 T00280022=
201803050953 METAR KPAE 050953Z AUTO 00000KT 10SM FEW025 SCT037 BKN085 03/02 A3032 RMK AO2 SLP271 T00280022=
201803050937 SPECI KPAE 050937Z AUTO 09003KT 10SM SCT025 BKN037 BKN045 03/02 A3031 RMK AO2 T00330022=
201803050916 SPECI KPAE 050916Z AUTO 00000KT 10SM BKN025 OVC039 03/02 A3031 RMK AO2 T00280022=
201803050853 METAR KPAE 050853Z AUTO 00000KT 10SM FEW024 BKN035 OVC042 03/03 A3030 RMK AO2 RAE46 SLP266 P0001 60009 T00330028 53013=
201803050844 SPECI KPAE 050844Z AUTO 00000KT 10SM -RA SCT026 OVC036 03/03 A3030 RMK AO2 P0001 T00330028=
201803050828 SPECI KPAE 050828Z AUTO 00000KT 10SM -RA SCT008 SCT017 OVC026 03/03 A3030 RMK AO2 P0001 T00330028=
201803050753 METAR KPAE 050753Z AUTO 00000KT 8SM -RA OVC008 03/03 A3029 RMK AO2 RAE25B49 SLP261 P0003 T00330028 400670017=
201803050736 SPECI KPAE 050736Z AUTO 00000KT 10SM BKN009 BKN015 OVC022 03/03 A3029 RMK AO2 RAE25 P0003 T00330028=
201803050728 SPECI KPAE 050728Z AUTO 00000KT 10SM FEW006 BKN016 OVC023 03/03 A3029 RMK AO2 RAE25 P0003 T00330033=
201803050718 SPECI KPAE 050718Z AUTO 00000KT 6SM -RA BR SCT006 BKN014 OVC022 03/03 A3028 RMK AO2 P0003 T00330033=
201803050653 METAR KPAE 050653Z AUTO 29007KT 6SM -RA BR BKN006 OVC023 03/03 A3028 RMK AO2 SLP258 P0005 T00330028=
201803050630 SPECI KPAE 050630Z AUTO 31004KT 5SM -RA BR FEW005 BKN009 OVC022 03/03 A3027 RMK AO2 P0005 T00330028=
201803050616 SPECI KPAE 050616Z AUTO 32006KT 3SM -RA BR SCT004 BKN013 OVC018 03/03 A3027 RMK AO2 P0003 T00330028=
201803050607 SPECI KPAE 050607Z AUTO 30004KT 4SM -RA BR BKN006 BKN011 OVC016 03/03 A3027 RMK AO2 CIG 003V009 P0001 T00330028=
201803050600 SPECI KPAE 050600Z AUTO 30008KT 5SM -RA BR SCT006 OVC013 03/03 A3027 RMK AO2 P0000 T00330028=
201803050553 METAR KPAE 050553Z AUTO 28009KT 4SM -RA BR BKN008 OVC015 03/03 A3027 RMK AO2 RAB36 CIG 005V011 SLP254 P0003 60006 T00330028 10067 20033 51009=
201803050548 SPECI KPAE 050548Z AUTO 30009KT 4SM -RA BR BKN008 OVC015 04/03 A3026 RMK AO2 RAB36 CIG 005V011 P0002=
201803050509 SPECI KPAE 050509Z AUTO 16009KT 10SM OVC011 04/03 A3025 RMK AO2 T00440033=
201803050453 METAR KPAE 050453Z AUTO 17009KT 10SM BKN009 OVC014 04/03 A3025 RMK AO2 RAB10E30 CIG 007V012 SLP248 P0000 T00440033=
201803050353 METAR KPAE 050353Z 12008KT 080V140 10SM BKN008 OVC019 05/03 A3024 RMK AO2 RAB11E50 SLP245 P0003 T00500033=
201803050314 SPECI KPAE 050314Z 12005KT 10SM -RA BKN008 OVC019 05/03 A3024 RMK AO2 RAB11 P0000 T00500033=
201803050253 METAR KPAE 050253Z 12004KT 10SM FEW007 BKN011 OVC031 05/04 A3024 RMK AO2 SLP244 60000 T00500039 53010=
201803050251 SPECI KPAE 050251Z 00000KT 10SM BKN009 BKN018 OVC031 05/04 A3024 RMK AO2 CIG 007V013=
201803050237 SPECI KPAE 050237Z 12004KT 10SM SCT015 BKN020 OVC041 05/04 A3023 RMK AO2 T00500039=
201803050206 SPECI KPAE 050206Z 12006KT 10SM FEW011 BKN014 OVC045 06/03 A3022 RMK AO2 T00560033=
201803050158 SPECI KPAE 050158Z 11004KT 10SM SCT009 BKN019 OVC045 06/04 A3022 RMK AO2 T00560039=
201803050153 METAR KPAE 050153Z 08006KT 10SM FEW011 SCT019 OVC045 06/03 A3022 RMK AO2 RAB08E29 SLP237 P0000 T00560033=
201803050144 SPECI KPAE 050144Z 07005KT 10SM SCT021 BKN045 OVC090 06/03 A3022 RMK AO2 RAB08E29 P0000 T00560028=
201803050125 SPECI KPAE 050125Z 04003KT 10SM -RA BKN024 OVC037 06/03 A3022 RMK AO2 RAB08 P0000 T00560028=
201803050053 METAR KPAE 050053Z 35004KT 10SM SCT021 SCT029 OVC039 06/02 A3021 RMK AO2 RAE47 SLP235 P0000 T00560022=
201803050008 SPECI KPAE 050008Z 00000KT 8SM -RA BKN022 BKN029 OVC034 06/02 A3021 RMK AO2 LTG DSNT SE P0000 T00610022=
201803042353 METAR KPAE 042353Z VRB03KT 10SM -RA SCT030 OVC037 06/02 A3020 RMK AO2 RAB24 SLP232 P0000 60000 T00610022 10061 20044 51007=
201803042253 METAR KPAE 042253Z 00000KT 10SM BKN047 OVC055 06/02 A3020 RMK AO2 RAB41E52 SLP231 P0000 T00610022=
201803042207 SPECI KPAE 042207Z 25004KT 10SM FEW022 FEW028 OVC041 06/02 A3019 RMK AO2 T00560017=
201803042153 METAR KPAE 042153Z 27005KT 10SM SCT020 BKN027 OVC040 06/02 A3019 RMK AO2 SLP227 T00560017=
201803042053 METAR KPAE 042053Z 22005KT 10SM OVC019 06/02 A3018 RMK AO2 SLP224 T00560017 51014=
201803042000 SPECI KPAE 042000Z 16006KT 10SM OVC017 06/02 A3018 RMK AO2 T00560017=
201803041953 METAR KPAE 041953Z 14006KT 10SM OVC014 06/02 A3017 RMK AO2 SLP222 T00560017=
201803041853 METAR KPAE 041853Z 17010KT 10SM OVC014 05/02 A3016 RMK AO2 SLP216 T00500017=
201803041833 SPECI KPAE 041833Z 16009KT 10SM BKN014 OVC100 05/02 A3015 RMK AO2 T00500017=
201803041753 METAR KPAE 041753Z 15010KT 10SM OVC100 04/01 A3014 RMK AO2 SLP211 T00440011 10044 20017 51020=
201803041653 METAR KPAE 041653Z 15006KT 10SM SCT100 04/01 A3012 RMK AO2 SLP206 T00390006=
201803041553 METAR KPAE 041553Z 13007KT 10SM BKN070 03/00 A3010 RMK AO2 SLP197 T00280000=
201803041453 METAR KPAE 041453Z 13006KT 10SM SCT110 02/00 A3008 RMK AO2 SLP191 T00220000 53012=
201803041353 METAR KPAE 041353Z AUTO VRB04KT 10SM SCT035 BKN110 03/00 A3007 RMK AO2 SLP186 T00280000=
201803041253 METAR KPAE 041253Z AUTO 12007KT 10SM OVC037 03/01 A3006 RMK AO2 SLP182 T00280006=
201803041153 METAR KPAE 041153Z AUTO VRB04KT 10SM BKN035 03/01 A3005 RMK AO2 SLP178 T00280006 10044 20028 51006=
201803041053 METAR KPAE 041053Z AUTO 00000KT 10SM OVC034 03/01 A3004 RMK AO2 SLP177 T00330006=
201803040953 METAR KPAE 040953Z AUTO 00000KT 10SM BKN039 OVC090 03/01 A3004 RMK AO2 SLP176 T00330006=
201803040853 METAR KPAE 040853Z AUTO 00000KT 10SM SCT045 BKN070 OVC085 04/01 A3003 RMK AO2 SLP171 T00390006 51008=
201803040753 METAR KPAE 040753Z AUTO 00000KT 10SM BKN065 OVC090 03/01 A3002 RMK AO2 SLP169 T00280006 400830011=
201803040653 METAR KPAE 040653Z AUTO 00000KT 10SM BKN075 OVC090 03/01 A3001 RMK AO2 SLP166 T00330006=
201803040553 METAR KPAE 040553Z 00000KT 10SM OVC080 03/00 A3000 RMK AO2 SLP163 T00330000 10078 20022 53007=
201803040453 METAR KPAE 040453Z 33003KT 10SM FEW075 03/M01 A2999 RMK AO2 SLP161 T00281006=
201803040353 METAR KPAE 040353Z 00000KT 10SM CLR 03/M01 A2998 RMK AO2 SLP157 T00281006=
201803040253 METAR KPAE 040253Z 00000KT 10SM CLR 04/M01 A2998 RMK AO2 SLP156 T00441006 53010=
201803040153 METAR KPAE 040153Z 31004KT 10SM CLR 05/M01 A2997 RMK AO2 SLP152 T00501006=
201803040053 METAR KPAE 040053Z 31005KT 10SM CLR 07/M01 A2996 RMK AO2 SLP148 T00671006=
201803032353 METAR KPAE 032353Z 31007KT 10SM CLR 08/M01 A2995 RMK AO2 SLP145 T00781006 10083 20050 55000=
201803032253 METAR KPAE 032253Z 33009KT 10SM CLR 07/01 A2994 RMK AO2 SLP143 T00720006=
201803032153 METAR KPAE 032153Z 33007KT 10SM CLR 08/01 A2994 RMK AO2 SLP141 T00830006=
201803032053 METAR KPAE 032053Z 32007KT 10SM CLR 07/02 A2995 RMK AO2 SLP145 T00720017 50001=
201803031953 METAR KPAE 031953Z 33008KT 10SM CLR 07/02 A2995 RMK AO2 SLP146 T00670017=
201803031853 METAR KPAE 031853Z 33006KT 10SM CLR 06/01 A2995 RMK AO2 SLP145 T00560011=
201803031753 METAR KPAE 031753Z 32005KT 10SM CLR 05/02 A2994 RMK AO2 SLP143 T00500017 10050 20011 52016=
201803031714 SPECI KPAE 031714Z 34007KT 10SM FEW008 04/01 A2993 RMK AO2 T00390011=
201803031653 METAR KPAE 031653Z 33005KT 10SM CLR 03/01 A2993 RMK AO2 SLP139 T00330011=
201803031553 METAR KPAE 031553Z 36006KT 10SM CLR 03/01 A2991 RMK AO2 SLP134 T00280006=
201803031453 METAR KPAE 031453Z AUTO 34005KT 10SM CLR 02/01 A2990 RMK AO2 SLP128 T00220011 51012=
201803031353 METAR KPAE 031353Z AUTO 33004KT 10SM BKN110 02/01 A2989 RMK AO2 SLP124 T00220011=
201803031253 METAR KPAE 031253Z AUTO 33006KT 10SM CLR 02/01 A2987 RMK AO2 SLP121 T00170006=
201803031153 METAR KPAE 031153Z AUTO 33003KT 10SM FEW110 02/01 A2986 RMK AO2 SLP116 70004 T00170006 10039 20011 51012=
201803031053 METAR KPAE 031053Z AUTO 33004KT 10SM CLR 01/00 A2985 RMK AO2 SLP114 T00110000=
201803030953 METAR KPAE 030953Z AUTO 00000KT 10SM CLR 02/01 A2984 RMK AO2 SLP110 T00220006=
201803030853 METAR KPAE 030853Z AUTO 00000KT 10SM CLR 03/01 A2982 RMK AO2 SLP104 T00280011 53009=
201803030753 METAR KPAE 030753Z AUTO 05003KT 10SM CLR 04/01 A2981 RMK AO2 SLP098 T00390006 400610022=
201803030653 METAR KPAE 030653Z AUTO 07005KT 10SM CLR 04/01 A2981 RMK AO2 SLP097 T00390006=
201803030553 METAR KPAE 030553Z AUTO 08006KT 10SM CLR 04/01 A2980 RMK AO2 SLP094 T00390011 10061 20039 53006=
201803030453 METAR KPAE 030453Z AUTO 08007KT 10SM CLR 04/02 A2978 RMK AO2 SLP090 T00390022=
201803030353 METAR KPAE 030353Z 08007KT 10SM SCT048 05/02 A2978 RMK AO2 SLP088 T00500017=
201803030253 METAR KPAE 030253Z 00000KT 10SM BKN023 BKN030 OVC037 06/02 A2978 RMK AO2 SLP087 T00560017 53008=
201803030153 METAR KPAE 030153Z 12003KT 10SM BKN023 BKN030 OVC037 06/01 A2976 RMK AO2 SLP081 T00610011=
201803030053 METAR KPAE 030053Z 20004KT 10SM BKN025 OVC032 06/01 A2976 RMK AO2 SLP079 T00560011=
201803030049 SPECI KPAE 030049Z 21004KT 10SM BKN025 BKN030 OVC037 06/01 A2976 RMK AO2=
201803022353 METAR KPAE 022353Z 14005KT 10SM SCT025 BKN039 OVC048 06/01 A2974 RMK AO2 SLP076 T00610011 10061 20039 53009=
201803022253 METAR KPAE 022253Z 00000KT 10SM SCT025 BKN037 OVC044 06/01 A2973 RMK AO2 SLP072 T00610006=
201803022153 METAR KPAE 022153Z 00000KT 10SM FEW025 FEW031 06/00 A2972 RMK AO2 SLP069 T00560000=
201803022139 SPECI KPAE 022139Z 16003KT 10SM SCT025 06/01 A2972 RMK AO2 T00560006=
201803022105 SPECI KPAE 022105Z 15006KT 10SM BKN024 BKN029 05/00 A2972 RMK AO2 T00500000=
201803022053 METAR KPAE 022053Z 13005KT 10SM FEW023 SCT027 05/00 A2972 RMK AO2 SLP067 T00500000 51016=
201803021953 METAR KPAE 021953Z 15006KT 10SM FEW020 05/01 A2971 RMK AO2 SLP064 T00500006=
201803021853 METAR KPAE 021853Z 15012KT 10SM CLR 04/01 A2969 RMK AO2 SLP058 T00440006=
201803021753 METAR KPAE 021753Z 16012KT 10SM FEW004 SCT012 BKN034 04/02 A2967 RMK AO2 SLP052 60004 T00390017 10039 20022 51006=
201803021708 SPECI KPAE 021708Z 14008KT 10SM FEW003 BKN008 OVC017 03/02 A2966 RMK AO2 T00330022=
201803021653 METAR KPAE 021653Z 13008KT 10SM BKN012 OVC019 03/02 A2965 RMK AO2 SLP046 T00330022=
201803021648 SPECI KPAE 021648Z 13009KT 10SM BKN010 BKN016 03/02 A2965 RMK AO2=
201803021637 SPECI KPAE 021637Z 12008KT 10SM BKN008 03/02 A2964 RMK AO2 CIG 006V013 T00330022=
201803021615 SPECI KPAE 021615Z 14009KT 10SM SCT007 SCT020 03/02 A2963 RMK AO2 T00330022=
201803021553 METAR KPAE 021553Z 13010KT 10SM BKN005 BKN013 OVC110 03/02 A2963 RMK AO2 SLP036 T00280022=
201803021521 SPECI KPAE 021521Z 13011KT 10SM BKN005 BKN100 OVC120 03/02 A2961 RMK AO2 CIG 004V009 T00280017=
201803021453 METAR KPAE 021453Z 13010KT 10SM OVC004 03/03 A2960 RMK AO2 CIG 003V009 SLP027 60004 T00280028 51015=
201803021451 SPECI KPAE 021451Z 13011KT 10SM OVC004 03/03 A2960 RMK AO2 CIG 003V009=
201803021430 SPECI KPAE 021430Z AUTO 13011KT 10SM OVC006 03/03 A2959 RMK AO2 CIG 003V008 T00280028=
201803021415 SPECI KPAE 021415Z AUTO 13013KT 8SM OVC004 03/03 A2958 RMK AO2 CIG 003V008 T00280028=
201803021353 METAR KPAE 021353Z AUTO 11007KT 10SM BKN005 OVC009 03/03 A2958 RMK AO2 RAE45 CIG 004V007 SLP021 P0002 T00280028=
201803021253 METAR KPAE 021253Z AUTO 12009KT 10SM -RA BKN008 OVC014 03/03 A2956 RMK AO2 UPB39E50 SLP012 P0002 T00280028=
201803021250 SPECI KPAE 021250Z AUTO 12009KT 10SM -RA BKN008 OVC014 03/02 A2956 RMK AO2 UPB39E50 P0002=
201803021211 SPECI KPAE 021211Z AUTO 12010KT 7SM -RA SCT008 BKN013 OVC031 03/02 A2954 RMK AO2 P0001 T00280017=
201803021153 METAR KPAE 021153Z AUTO 12006KT 10SM -RA FEW017 OVC033 03/02 A2952 RMK AO2 SLP000 P0004 60009 70009 T00280017 10044 20028 51009=
201803021149 SPECI KPAE 021149Z AUTO 12007KT 10SM -RA OVC031 03/02 A2952 RMK AO2 P0004=
201803021053 METAR KPAE 021053Z AUTO 15013KT 6SM -RA BR SCT009 OVC020 03/02 A2951 RMK AO2 SLP995 P0005 T00280022=
201803021039 SPECI KPAE 021039Z AUTO 16011KT 7SM -RA FEW007 SCT011 OVC024 03/02 A2951 RMK AO2 P0003 T00330022=
201803021032 SPECI KPAE 021032Z AUTO 17010KT 8SM -RA BKN008 OVC026 03/02 A2951 RMK AO2 P0002 T00330022=
201803021006 SPECI KPAE 021006Z AUTO 18011KT 9SM -RA FEW008 BKN041 OVC070 04/03 A2950 RMK AO2 P0000 T00390028=
201803020953 METAR KPAE 020953Z AUTO 19011KT 10SM -RA BKN055 OVC070 04/02 A2950 RMK AO2 RAB51 SLP991 P0000 T00390022=
201803020753 METAR KPAE 020753Z AUTO 14004KT 10SM FEW065 SCT090 BKN110 03/01 A2946 RMK AO2 SLP977 T00330011 400890028=
201803020653 METAR KPAE 020653Z AUTO 00000KT 10SM CLR 04/01 A2944 RMK AO2 SLP973 T00390011=
201803020553 METAR KPAE 020553Z AUTO 02003KT 10SM CLR 04/01 A2944 RMK AO2 SLP973 T00390011 10089 20033 56009=
201803020453 METAR KPAE 020453Z AUTO 00000KT 10SM CLR 04/01 A2945 RMK AO2 SLP974 T00390006=
201803020353 METAR KPAE 020353Z 34003KT 10SM CLR 04/M01 A2944 RMK AO2 SLP975 T00441006=
201803020253 METAR KPAE 020253Z 00000KT 10SM CLR 06/M01 A2947 RMK AO2 SLP982 T00561006 55008=
201803020153 METAR KPAE 020153Z 00000KT 10SM CLR 06/M01 A2946 RMK AO2 SLP979 T00611006=
201803020053 METAR KPAE 020053Z 32004KT 10SM CLR 08/M01 A2948 RMK AO2 SLP985 T00781006=
201803012353 METAR KPAE 012353Z 34005KT 10SM CLR 09/00 A2949 RMK AO2 SLP990 T00890000 10089 20050 58016=
201803012253 METAR KPAE 012253Z 34006KT 10SM SCT039 BKN046 BKN055 09/01 A2951 RMK AO2 SLP995 T00890006=
201803012153 METAR KPAE 012153Z 00000KT 10SM SCT037 BKN048 BKN055 07/00 A2953 RMK AO2 SLP001 T00720000=
201803012053 METAR KPAE 012053Z 26003KT 10SM SCT036 BKN046 07/01 A2954 RMK AO2 SLP006 T00670011 58012=
201803011953 METAR KPAE 011953Z 19008KT 10SM SCT025 SCT035 07/01 A2956 RMK AO2 SLP012 T00670006=
201803011901 SPECI KPAE 011901Z 13005KT 10SM SCT025 SCT035 06/01 A2957 RMK AO2 T00610006=
201803011853 METAR KPAE 011853Z 13005KT 10SM BKN025 BKN035 06/01 A2957 RMK AO2 SLP014 T00610006=
201803011806 SPECI KPAE 011806Z 13006KT 10SM SCT022 BKN027 06/01 A2958 RMK AO2 T00560011=
201803011753 METAR KPAE 011753Z 12007KT 10SM SCT020 06/01 A2958 RMK AO2 SLP019 T00560011 10056 20028 50000=
201803011653 METAR KPAE 011653Z 13008KT 10SM CLR 05/02 A2958 RMK AO2 SLP021 T00500017=
201803011553 METAR KPAE 011553Z VRB03KT 10SM FEW090 03/02 A2958 RMK AO2 SLP020 T00330017=
201803011453 METAR KPAE 011453Z AUTO VRB03KT 10SM FEW080 BKN090 03/02 A2958 RMK AO2 SLP020 T00280017 51010=
201803011353 METAR KPAE 011353Z AUTO 12008KT 10SM CLR 03/02 A2957 RMK AO2 SLP018 T00330022=
201803011253 METAR KPAE 011253Z AUTO 13012KT 10SM CLR 03/02 A2956 RMK AO2 SLP014 T00330017=
201803011153 METAR KPAE 011153Z AUTO 13012KT 10SM OVC070 04/02 A2955 RMK AO2 SLP009 60013 70054 T00390017 10061 20033 53017=
201803011053 METAR KPAE 011053Z AUTO 15012KT 10SM SCT075 BKN090 04/02 A2952 RMK AO2 SLP999 T00390022=
201803010953 METAR KPAE 010953Z AUTO 15013KT 10SM SCT015 SCT027 OVC065 06/03 A2952 RMK AO2 RAB0854E13 SLP997 P0000 T00560033=
201803010853 METAR KPAE 010853Z AUTO 12009KT 10SM BKN028 OVC035 06/04 A2950 RMK AO2 RAE34 SLP991 P0001 60013 T00560044 53011=
201803010838 SPECI KPAE 010838Z AUTO 12008KT 10SM BKN029 OVC036 06/04 A2949 RMK AO2 RAE34 P0001 T00560044=
201803010753 METAR KPAE 010753Z AUTO 12012G17KT 9SM -RA OVC036 06/04 A2947 RMK AO2 SLP983 P0003 T00560039 400670028=
201803010653 METAR KPAE 010653Z 11008G15KT 7SM -RA OVC035 06/04 A2946 RMK AO2 SLP980 P0009 T00560039=
201803010638 SPECI KPAE 010638Z 11010G18KT 070V140 7SM -RA FEW014 OVC030 06/04 A2946 RMK AO2 P0007 T00560039=
201803010615 SPECI KPAE 010615Z 12010G20KT 070V140 4SM -RA BR FEW012 OVC028 05/04 A2946 RMK AO2 P0005 T00500039=
201803010553 METAR KPAE 010553Z 11010G17KT 080V140 6SM -RA BR OVC030 05/04 A2946 RMK AO2 SLP980 P0006 60035 T00500039 10061 20050 58016=
201803010508 SPECI KPAE 010508Z 11009G16KT 6SM -RA BR OVC031 05/04 A2948 RMK AO2 P0002 T00500039=
201803010500 SPECI KPAE 010500Z 12010G17KT 7SM -RA OVC029 05/04 A2949 RMK AO2 P0001 T00500039=
201803010453 METAR KPAE 010453Z 12012G19KT 7SM -RA OVC031 05/04 A2949 RMK AO2 SLP990 P0006 T00500039=
201803010353 METAR KPAE 010353Z 12014G23KT 6SM -RA BR OVC030 05/04 A2951 RMK AO2 SLP996 P0006 T00500039=
201803010350 SPECI KPAE 010350Z 12017G23KT 6SM -RA BR OVC030 05/04 A2951 RMK AO2 P0006=
201803010342 SPECI KPAE 010342Z 12014G22KT 6SM -RA BR OVC028 05/04 A2952 RMK AO2 P0005 T00500044=
201803010253 METAR KPAE 010253Z 12015G23KT 8SM -RA OVC032 05/03 A2954 RMK AO2 SLP007 P0005 60017 T00500033 56030=
201803010153 METAR KPAE 010153Z 12013G21KT 6SM -RA BR FEW025 OVC031 05/03 A2957 RMK AO2 SLP015 P0006 T00500033=
201803010150 SPECI KPAE 010150Z 12012G22KT 6SM -RA BR FEW025 OVC031 05/03 A2957 RMK AO2 P0005=
201803010107 SPECI KPAE 010107Z 12013G23KT 4SM -RA BR OVC028 06/03 A2959 RMK AO2 P0001 T00560033=
201803010053 METAR KPAE 010053Z 12015G24KT 5SM -RA BR FEW025 OVC030 06/03 A2960 RMK AO2 PK WND 13030/0008 SLP025 P0006 T00560033=

# No short TAF reports from KPAE in databse.

###################################
#  large TAF from KPAE
###################################
201803312322 TAF KPAE 312322Z 0100/0124 30005KT P6SM FEW040 BKN200 FM010600
                       17006KT P6SM BKN030 BKN200 FM011200 18006KT
                       P6SM BKN020 OVC100 FM011700 18010KT P6SM
                       -RA BKN020 OVC040 FM012100 21010KT P6SM
                       -SHRA OVC030=
201803311720 TAF KPAE 311720Z 3118/0118 31006KT P6SM BKN006 BKN200 FM311900
                       36005KT P6SM SCT030 BKN200 FM312200 31006KT
                       P6SM FEW110 BKN200 FM010700 17006KT P6SM
                       BKN200 FM011200 21006KT P6SM SCT040 OVC070
                       FM011500 18010KT P6SM VCSH SCT020 OVC040=
201803311227 TAF KPAE 311227Z 3112/0112 VRB03KT P6SM BKN030 FM311600 31006KT
                       P6SM SCT030 BKN200 FM312200 31006KT P6SM
                       FEW110 BKN200 FM010700 17006KT P6SM BKN200=
201803310540 TAF KPAE 310540Z 3106/0106 35005KT P6SM SCT200 FM311200 VRB03KT
                       P6SM MIFG FEW018 BKN200 FM311600 VRB03KT
                       P6SM BKN200 FM312000 34004KT P6SM BKN200
                       FM010100 VRB02KT P6SM FEW110 BKN200=
201803310412 KPAE 310412Z 3104/3124 36006KT P6SM BKN050 BKN200 FM310900 02003KT
                       P6SM OVC011 FM311800 VRB04KT P6SM SCT025
                       BKN250 FM312000 32005KT P6SM SCT030 BKN200=
201803310229 KPAE 310229Z 3102/3124 35008KT P6SM SCT050 BKN200
                      TEMPO 3102/3104 BKN050 BKN200 FM310400 01006KT
                       P6SM SCT050 BKN200 FM310900 02003KT P6SM
                       OVC011 FM311800 VRB04KT P6SM SCT025 BKN250
                       FM312000 32005KT P6SM SCT030 BKN200=
201803310126 KPAE 310126Z 3101/3124 35008KT P6SM SCT050 BKN200 FM310400 01006KT
                       P6SM BKN200 FM310900 02003KT P6SM OVC011
                       FM311800 VRB04KT P6SM SCT025 BKN250 FM312000
                       32005KT P6SM SCT030 BKN200=
201803310054 KPAE 310054Z 3101/3124 34006KT P6SM FEW030 SCT035 BKN050
                      TEMPO 3101/3103 FEW030 BKN035 BKN050 FM310400
                       01006KT P6SM SCT050 BKN200 FM310900 02003KT
                       P6SM OVC011 FM311800 VRB04KT P6SM SCT025
                       BKN250 FM312000 32005KT P6SM SCT030 BKN200=
201803302323 TAF KPAE 302323Z 3100/3124 32006KT P6SM VCSH BKN035 OVC040
                      TEMPO 3100/3104 -SHRA SCT025 OVC030 FM310400
                       36006KT P6SM BKN020 OVC030 FM310900 02003KT
                       P6SM OVC011 FM311800 VRB04KT P6SM SCT025
                       BKN250 FM312000 32005KT P6SM SCT030 BKN200=
201803301933 KPAE 301933Z 3020/3118 18009KT P6SM VCSH SCT015 SCT025 BKN040 FM302200
                       32006KT 4SM -SHRA BKN008 OVC015 FM310300
                       32006KT P6SM SCT008 BKN015 OVC030 FM310600
                       VRB03KT P6SM OVC011=
201803301720 TAF KPAE 301720Z 3018/3118 22005KT P6SM -SHRA SCT007 OVC015
                      TEMPO 3018/3021 BKN004 FM302200 32006KT 4SM
                       -SHRA BKN008 OVC015 FM310300 32006KT P6SM
                       SCT008 BKN015 OVC030 FM310600 VRB03KT P6SM
                       OVC011=
201803301135 TAF KPAE 301135Z 3012/3112 VRB03KT P6SM SCT006 OVC020
                      TEMPO 3012/3016 3SM -DZ BR BKN006 OVC020
                       FM301900 24006KT P6SM -SHRA SCT015 BKN025
                       OVC050 FM302200 32006KT 4SM -SHRA BKN008
                       OVC015 FM310300 32006KT P6SM SCT008 BKN015
                       OVC030 FM310600 VRB03KT P6SM OVC011=
201803300532 TAF KPAE 300532Z 3006/3106 VRB02KT 6SM BR OVC022 FM300900 17008KT
                       P6SM OVC018 FM301200 17013KT P6SM -RA OVC018
                       FM301800 20011KT P6SM VCSH OVC025 FM302100
                       24006KT P6SM -SHRA BKN025 OVC050 FM310000
                       32006KT 5SM -SHRA BR SCT007 OVC015=
201803300334 KPAE 300334Z 3004/3024 VRB03KT P6SM SCT028 OVC050 FM300600 VRB03KT
                       P6SM OVC028 FM301100 19006KT P6SM OVC012
                       FM301800 22010KT P6SM BKN022 OVC030 FM302200
                       VRB05KT P6SM VCSH BKN025=
201803300208 KPAE 300208Z 3002/3024 VRB03KT P6SM SCT028 OVC045
                      TEMPO 3003/3006 BKN028 OVC045 FM300600 VRB03KT
                       P6SM OVC028 FM301100 19006KT P6SM OVC012
                       FM301800 22010KT P6SM BKN022 OVC030 FM302200
                       VRB05KT P6SM VCSH BKN025=
201803292330 TAF KPAE 292330Z 3000/3024 25007KT P6SM BKN040 OVC100 FM300600
                       18006KT P6SM SCT020 OVC035 FM301100 19006KT
                       P6SM OVC012 FM301800 22010KT P6SM BKN022
                       OVC030 FM302200 VRB05KT P6SM VCSH BKN025=
201803291725 TAF KPAE 291725Z 2918/3018 14005KT P6SM -RA SCT008 OVC011 FM292100
                       20007KT P6SM VCSH SCT020 BKN030 BKN150 FM300600
                       18006KT P6SM BKN020 OVC035 FM301200 19006KT
                       P6SM OVC015=
201803291124 TAF KPAE 291124Z 2912/3012 VRB03KT P6SM BKN022 OVC035 FM292000
                       17008KT P6SM SCT022 BKN035 OVC060 FM300000
                       17008KT P6SM BKN022 OVC035=
201803290540 TAF KPAE 290540Z 2906/3006 VRB03KT P6SM OVC035
                      TEMPO 2906/2909 OVC028 FM290900 VRB03KT P6SM
                       OVC028 FM291200 VRB03KT P6SM OVC022 FM291800
                       17007KT P6SM BKN025 OVC060 FM292100 17010KT
                       P6SM BKN035 OVC060=
201803290422 KPAE 290422Z 2904/2924 35004KT P6SM OVC035 FM290600 VRB03KT P6SM
                       BKN022 OVC040 FM291200 17005KT P6SM VCSH
                       OVC020 FM291500 17008KT P6SM -RA OVC018
                       FM292100 18010KT P6SM SCT025 BKN040 OVC150=
201803290050 KPAE 290050Z 2901/2924 35006KT P6SM OVC045 FM290600 VRB04KT P6SM
                       BKN022 OVC040 FM291200 17005KT P6SM VCSH
                       OVC020 FM291500 17008KT P6SM -RA OVC018
                       FM292100 18010KT P6SM SCT025 BKN040 OVC150=
201803282320 TAF KPAE 282320Z 2900/2924 VRB04KT P6SM VCSH SCT020 BKN035 OVC050
                       FM290400 17004KT P6SM BKN022 OVC040 FM291200
                       17005KT P6SM VCSH OVC020 FM291500 17008KT
                       P6SM -RA OVC018 FM292100 18010KT P6SM SCT025
                       BKN040 OVC150=
201803281728 TAF KPAE 281728Z 2818/2918 VRB04KT P6SM VCSH FEW015 OVC030
                      TEMPO 2818/2821 -RA BKN025 FM282100 18008KT
                       P6SM SCT025 BKN040 FM290500 17004KT P6SM
                       BKN022 OVC040 FM291200 17005KT P6SM VCSH
                       OVC020=
201803281611 KPAE 281611Z 2816/2912 31006KT P6SM VCSH OVC030
                      TEMPO 2816/2819 -RA BKN025 FM281900 20008KT
                       P6SM BKN030 BKN050 FM282100 21008KT P6SM
                       SCT035 BKN060 FM290500 VRB04KT P6SM BKN022
                       OVC040=
201803281125 TAF KPAE 281125Z 2812/2912 31006KT P6SM OVC030 FM281800 20008KT
                       P6SM BKN030 BKN050 FM282100 21008KT P6SM
                       SCT035 BKN060 FM290500 VRB04KT P6SM BKN022
                       OVC040=
201803280520 TAF KPAE 280520Z 2806/2906 34005KT P6SM VCSH OVC020 FM280900 VRB03KT
                       P6SM OVC015 FM281200 22006KT 4SM BR BKN007
                       OVC012 FM281800 20008KT P6SM BKN020 BKN035
                       FM282100 21008KT P6SM SCT035 BKN060=
201803280022 KPAE 280022Z 2800/2824 33005KT P6SM -SHRA SCT003 BKN008 OVC025
                       TEMPO 2800/2802 1SM -SHRA BR BKN003 BKN008
                       OVC015 FM280200 VRB04KT P6SM VCSH SCT008
                       BKN025
                      TEMPO 2802/2805 5SM -SHRA BR SCT010 OVC020
                       FM280900 VRB04KT P6SM OVC015 FM281200 22006KT
                       4SM BR BKN007 OVC012 FM281800 20008KT P6SM
                       BKN020 BKN035=
201803272349 TAF KPAE 272349Z 2800/2824 12006KT P6SM -SHRA BKN008 OVC025 FM280200
                       VRB04KT P6SM VCSH SCT008 BKN025
                      TEMPO 2802/2805 5SM -SHRA BR SCT010 OVC020
                       FM280900 VRB04KT P6SM OVC015 FM281200 22006KT
                       4SM BR BKN007 OVC012 FM281800 20008KT P6SM
                       BKN020 BKN035=
201803271815 TAF KPAE 271815Z 2718/2818 16018G30KT P6SM -RA SCT008 OVC012
                      TEMPO 2718/2720 5SM -RA BR OVC008 FM272000
                       19015G25KT P6SM -RA BKN015 OVC025 FM280200
                       24006KT P6SM VCSH SCT013 BKN030 FM280900
                       22006KT P6SM BKN015 BKN030 FM281200 22006KT
                       4SM BR OVC015=
201803271130 TAF KPAE 271130Z 2712/2812 16015G23KT P6SM -RA SCT006 OVC012
                      TEMPO 2712/2716 5SM -RA BR OVC006 FM271600
                       18015G25KT 6SM -RA BR SCT004 OVC010 FM272000
                       19015G25KT P6SM -RA BKN015 OVC025 FM280100
                       24006KT P6SM VCSH SCT013 OVC020 FM280900
                       22006KT P6SM BKN014 BKN030=
201803270524 TAF KPAE 270524Z 2706/2806 16012KT P6SM OVC010 FM271200 18015G23KT
                       P6SM -RA OVC008 FM272200 19015G25KT P6SM
                       SCT010 OVC015 FM280100 24006KT P6SM SCT013
                       OVC020=
201803262323 TAF KPAE 262323Z 2700/2724 14015G22KT P6SM -RA BKN011 OVC017 FM270600
                       17012KT P6SM -RA OVC012 FM271200 18016G26KT
                       P6SM -RA OVC009 FM272200 19014KT P6SM VCSH
                       SCT009 OVC015=
201803261720 TAF KPAE 261720Z 2618/2718 17010KT P6SM OVC009 FM262000 17016G22KT
                       P6SM -RA OVC009 FM270400 17014KT P6SM OVC012
                       FM271200 18016G26KT P6SM -RA OVC010=
201803261555 KPAE 261555Z 2616/2712 15015KT P6SM -RA OVC009 FM270100 17013KT
                       P6SM -RA OVC015 FM270700 17014G20KT P6SM
                       -SHRA BKN020 BKN040=
201803261416 KPAE 261416Z 2614/2712 14012G21KT P6SM -RA OVC014 FM261600 17015G25KT
                       P6SM -RA OVC012 FM270100 17013KT P6SM -RA
                       OVC020 FM270700 17014G20KT P6SM -SHRA BKN020
                       BKN040=
201803261131 TAF KPAE 261131Z 2612/2712 16014G22KT P6SM -RA SCT030 OVC050
                      TEMPO 2612/2616 -RA BKN022 OVC040 FM261600
                       17015G25KT P6SM -RA OVC022 FM270100 17013KT
                       P6SM -RA OVC020 FM270700 17014G20KT P6SM
                       -SHRA BKN020 BKN040=
201803260520 TAF KPAE 260520Z 2606/2706 17012KT P6SM BKN120 BKN200 FM260800
                       16008KT P6SM OVC035 FM261000 16012KT P6SM
                       -RA OVC030 FM261200 16013KT P6SM -RA BKN009
                       OVC015 FM262000 17015G25KT P6SM -RA BKN013
                       OVC020=
201803252320 TAF KPAE 252320Z 2600/2624 18003KT P6SM SCT045 BKN100 FM260700
                       16008KT P6SM OVC035 FM261000 16012KT P6SM
                       -RA OVC030 FM261200 16013KT P6SM -RA BKN009
                       OVC015 FM262000 17015G25KT P6SM -RA SCT009
                       OVC015=
201803251736 TAF KPAE 251736Z 2518/2618 VRB03KT P6SM FEW013 SCT025 BKN050 FM252000
                       20006KT P6SM SCT050 BKN150 FM260200 22006KT
                       P6SM SCT050 OVC100 FM260700 17010KT P6SM
                       OVC050 FM261000 16012KT P6SM -RA SCT008
                       OVC015=
201803251730 TAF KPAE 251730Z 2518/2618 VRB03KT P6SM FEW013 SCT025 BKN050 FM252000
                       20006KT P6SM SCT050 BKN150 FM260200 22006KT
                       P6SM SCT050 OVC100 FM260700 17010KT P6SM
                       OVC050 FM261000 16012KT P6SM -RA SCT008
                       OVC015=
201803251440 KPAE 251440Z 2515/2612 13004KT P6SM VCFG SCT002 SCT020 OVC045
                      TEMPO 2515/2517 1/2SM FG BKN002 BKN020 OVC045
                       FM251800 15005KT P6SM SCT025 BKN040 BKN060
                       FM252100 18008KT P6SM SCT035 BKN060 FM260200
                       15008KT P6SM BKN060 BKN200 FM260800 15008KT
                       P6SM -RA BKN035 OVC060=
201803251428 KPAE 251428Z 2514/2612 VRB03KT P6SM SCT020 OVC045 FM252100 18008KT
                       P6SM SCT035 BKN060 FM260200 15008KT P6SM
                       BKN060 BKN200 FM260800 15008KT P6SM -RA
                       BKN035 OVC060=
201803251128 TAF KPAE 251128Z 2512/2612 00000KT P6SM SCT015
                      TEMPO 2513/2516 BKN015 FM251700 00000KT P6SM
                       SCT020 SCT050 FM252100 18008KT P6SM SCT035
                       BKN060 FM260200 15008KT P6SM BKN060 BKN200
                       FM260800 15008KT P6SM -RA BKN035 OVC060=
201803250523 TAF KPAE 250523Z 2506/2606 00000KT P6SM FEW040 SCT150 FM251300
                       17003KT P6SM FEW015 BKN040 BKN150 FM251900
                       20008KT P6SM SCT040 BKN080=
201803242320 TAF KPAE 242320Z 2500/2524 27005KT P6SM SCT021 BKN045 BKN150 FM250200
                       VRB03KT P6SM SCT040 BKN150 FM251300 17005KT
                       P6SM SCT015 BKN040 BKN150 FM251900 20007KT
                       P6SM BKN040 BKN150=
201803241726 TAF KPAE 241726Z 2418/2518 17008KT P6SM BKN005 OVC017 FM242000
                       18005KT P6SM SCT025 BKN040 FM242200 18005KT
                       P6SM SCT040 FM250200 VRB03KT P6SM SCT040
                       FM251300 17005KT P6SM SCT015 BKN040=
201803241613 KPAE 241613Z 2416/2512 15005KT P6SM BKN005 BKN019 FM241800 20006KT
                       P6SM SCT015 BKN025 BKN040 FM242000 23006KT
                       P6SM SCT025 BKN040 FM250200 VRB03KT P6SM
                       SCT050 BKN150=
201803241428 KPAE 241428Z 2414/2512 18008KT 4SM -SN BR OVC005 FM241600 20006KT
                       P6SM SCT006 BKN011 OVC020 FM241700 20006KT
                       P6SM SCT015 BKN025 BKN040 FM241900 23006KT
                       P6SM SCT025 BKN040 FM250200 VRB03KT P6SM
                       SCT050 BKN150=
201803241139 TAF KPAE 241139Z 2412/2512 20006KT P6SM -SHRA BKN006 OVC011
                      TEMPO 2412/2414 3SM -SHRASN FM241500 20006KT
                       P6SM SCT006 BKN011 OVC020 FM241700 20006KT
                       P6SM SCT015 BKN025 BKN040 FM241900 23006KT
                       P6SM SCT025 BKN040 FM250200 VRB03KT P6SM
                       SCT050 BKN150=
201803240525 TAF KPAE 240525Z 2406/2506 13005KT P6SM BKN060 FM241000 17006KT
                       P6SM -SHRA BKN015 OVC030
                      TEMPO 2412/2416 2SM -SHSNRA BR OVC007 FM242100
                       23005KT P6SM VCSH SCT020 BKN035 FM250200
                       VRB03KT P6SM SCT040 BKN150=
201803240020 KPAE 240020Z 2400/2424 16015KT P6SM FEW015 SCT060 BKN090
                      TEMPO 2400/2402 -SHRA BKN015 BKN060 FM240200
                       19010KT P6SM SCT020 OVC040 FM240900 17006KT
                       P6SM -SHRA OVC010
                      TEMPO 2412/2416 2SM -SHSNRA BR OVC007 FM242100
                       23005KT P6SM VCSH SCT020 BKN035=
201803232334 TAF KPAE 232334Z 2400/2424 16008KT P6SM -SHRA BKN015 OVC030 FM240200
                       19010KT P6SM SCT020 OVC040 FM240900 17006KT
                       P6SM -SHRA OVC010
                      TEMPO 2412/2416 2SM -SHSNRA BR OVC007 FM242100
                       23005KT P6SM VCSH SCT020 BKN035=
201803231859 KPAE 231859Z 2319/2418 13014KT 5SM BR BKN002 BKN023 OVC045 FM232100
                       17015G25KT P6SM VCSH BKN025 OVC040 FM240200
                       17010KT P6SM VCSH SCT020 OVC040 FM240900
                       17006KT P6SM -SHRA OVC015=
201803231734 TAF KPAE 231734Z 2318/2418 12004KT 1SM -SN BR BKN004 OVC015 FM232200
                       15012G22KT P6SM -SHRA BKN020 OVC040 FM240200
                       17010KT P6SM VCSH SCT020 OVC040 FM240900
                       17006KT P6SM -SHRA OVC015=
201803231618 KPAE 231618Z 2316/2412 14012KT P6SM -SHRA SCT009 BKN020 OVC040
                       TEMPO 2316/2320 5SM -SHRASN BKN009 OVC020
                       FM232000 17012G22KT P6SM -SHRA BKN030 OVC060
                       FM240500 18008KT P6SM VCSH BKN040=
201803231224 KPAE 231224Z 2312/2412 14012KT P6SM -SHRA SCT025 BKN040 BKN080
                       TEMPO 2312/2316 BKN025 OVC040 FM232000 17012G22KT
                       P6SM -SHRA BKN030 OVC060 FM240500 18008KT
                       P6SM VCSH BKN040=
201803230520 TAF KPAE 230520Z 2306/2406 14010KT P6SM -SHRA BKN035 BKN060 FM230900
                       16012KT P6SM VCSH BKN040 BKN080 FM231800
                       17012G22KT P6SM -SHRA BKN030 OVC060 FM240500
                       18008KT P6SM VCSH BKN040=
201803222320 TAF KPAE 222320Z 2300/2324 21014G23KT P6SM -SHRA BKN050 OVC080
                       FM230600 18014G22KT P6SM -SHRA BKN030 BKN050
                       FM231900 17017G26KT P6SM -SHRA BKN040 OVC060=
201803221720 TAF KPAE 221720Z 2218/2318 15011KT 5SM -RA BR OVC025 FM221900 20014G22KT
                       P6SM -RA OVC030 FM222200 21012KT P6SM -SHRA
                       BKN030 FM230600 18014G22KT P6SM -SHRA BKN030
                       BKN050=
201803221139 TAF KPAE 221139Z 2212/2312 15006KT P6SM SCT025 BKN050 OVC070
                      TEMPO 2212/2215 6SM -RA BR BKN025 OVC040
                       FM221500 19011KT 5SM -RA BR OVC025 FM221800
                       20014G22KT P6SM -RA OVC030 FM222200 21012KT
                       P6SM -SHRA BKN030 FM230600 18014G22KT P6SM
                       -SHRA BKN030 BKN050=
201803220520 TAF KPAE 220520Z 2206/2306 17004KT P6SM -RA OVC050 FM220900 16008KT
                       P6SM -RA OVC030 FM221500 19012KT 5SM -RA
                       BR OVC025 FM221800 20014G23KT P6SM -RA OVC030
                       FM222200 21012KT P6SM -SHRA BKN030=
201803212320 TAF KPAE 212320Z 2200/2224 19007KT P6SM BKN070 OVC110 FM220400
                       14006KT P6SM -RA BKN050 OVC070 FM220900
                       16008KT P6SM -RA OVC030 FM221500 19012KT
                       5SM -RA BR OVC025 FM221800 20014G23KT P6SM
                       -RA OVC030 FM222200 21012KT P6SM -SHRA BKN030=
201803211720 TAF KPAE 211720Z 2118/2218 17006KT P6SM SCT080 OVC140 FM212200
                       19007KT P6SM BKN070 OVC100 FM220400 14006KT
                       P6SM -RA BKN050 OVC080 FM220900 16008KT
                       P6SM -RA OVC030 FM221500 19012KT 5SM -RA
                       BR OVC025=
201803211131 TAF KPAE 211131Z 2112/2212 VRB04KT P6SM SCT100 BKN200 FM211800
                       17006KT P6SM BKN080 OVC140 FM212200 19007KT
                       P6SM BKN070 OVC100 FM220400 14006KT P6SM
                       -RA BKN050 OVC080 FM220900 16008KT P6SM
                       -RA OVC030=
201803210520 TAF KPAE 210520Z 2106/2206 32005KT P6SM SCT250 FM211200 00000KT
                       P6SM BKN200 FM212000 VRB04KT P6SM BKN050
                       BKN100 FM220400 VRB04KT P6SM -RA BKN040
                       OVC080=
201803202320 TAF KPAE 202320Z 2100/2124 24006KT P6SM SCT120 SCT250 FM210300
                       02004KT P6SM SCT120 BKN200 FM211100 VRB03KT
                       P6SM SCT070 OVC100 FM212100 17008KT P6SM
                       BKN040=
201803201724 TAF KPAE 201724Z 2018/2118 17005KT P6SM SCT030 SCT200 FM202200
                       24006KT P6SM SCT120 BKN200 FM210300 02004KT
                       P6SM BKN120 BKN200 FM211100 VRB03KT P6SM
                       BKN070 OVC200=
201803201131 TAF KPAE 201131Z 2012/2112 VRB03KT P6SM SCT015 SCT080
                      TEMPO 2012/2016 BKN010 FM201700 17005KT P6SM
                       SCT020 SCT200 FM202200 24006KT P6SM SCT120
                       BKN200 FM210300 02004KT P6SM BKN120 BKN200
                       FM211100 05003KT P6SM BKN100 OVC200=
201803200520 TAF KPAE 200520Z 2006/2106 36003KT P6SM SCT006
                      TEMPO 2006/2010 BKN006 FM201000 VRB03KT P6SM
                       BKN010 BKN200 FM201700 17005KT P6SM SCT020
                       SCT100 FM202200 22006KT P6SM SCT050 BKN100=
201803192323 TAF KPAE 192323Z 2000/2024 35005KT P6SM BKN080 FM200400 01003KT
                       P6SM SCT200 FM201300 VRB03KT P6SM SCT010
                       SCT200 FM201700 17005KT P6SM SCT030 SCT100
                       FM202200 22006KT P6SM SCT050 BKN100=
201803191728 TAF KPAE 191728Z 1918/2018 32004KT P6SM BKN011 FM191900 32004KT
                       P6SM SCT015 SCT040 FM192300 32006KT P6SM
                       SCT050 SCT080 FM200500 VRB03KT P6SM SCT200
                       FM201300 VRB03KT P6SM BKN010=
201803191128 TAF KPAE 191128Z 1912/2012 VRB04KT P6SM SCT007 SCT050
                      TEMPO 1912/1916 6SM BR OVC006 FM191800 VRB05KT
                       P6SM SCT015 BKN060 FM192300 32006KT P6SM
                       SCT035 SCT060 FM200500 03004KT P6SM SCT200=
201803190527 TAF KPAE 190527Z 1906/2006 22006KT P6SM FEW025 BKN040 FM191800
                       24004KT P6SM SCT025 BKN100 FM192000 30004KT
                       P6SM SCT035 SCT050=
201803182339 TAF KPAE 182339Z 1900/1924 VRB05KT P6SM SCT050
                      TEMPO 1900/1902 BKN050 FM190600 VRB03KT P6SM
                       FEW025 SCT100 FM191000 VRB03KT P6SM OVC020
                       FM191800 24004KT P6SM BKN025 BKN100 FM192000
                       30004KT P6SM SCT035 SCT050=
201803182222 KPAE 182222Z 1822/1918 VRB05KT P6SM BKN040 BKN060 FM190000 25005KT
                       P6SM SCT040 SCT060 FM190300 VRB03KT P6SM
                       BKN090 BKN200 FM190600 VRB03KT P6SM BKN100
                       BKN200 FM191200 00000KT P6SM OVC020=
201803182105 KPAE 182105Z 1821/1918 20007KT P6SM BKN035 BKN050 FM190000 25005KT
                       P6SM SCT035 BKN060 FM190300 VRB03KT P6SM
                       BKN090 BKN200 FM190600 VRB03KT P6SM BKN100
                       BKN200 FM191200 00000KT P6SM OVC020=
201803181742 TAF KPAE 181742Z 1818/1918 VRB05KT P6SM BKN020 OVC035 FM182000
                       20007KT P6SM BKN028 BKN050 FM182200 24005KT
                       P6SM BKN035 BKN050 FM190300 VRB03KT P6SM
                       SCT035 BKN070 FM190600 VRB03KT P6SM BKN100
                       BKN200 FM191200 00000KT P6SM OVC020=
201803181603 KPAE 181603Z 1816/1912 13006KT P6SM FEW025 BKN035 BKN050 FM181800
                       20005KT P6SM SCT035 BKN050 FM182100 23006KT
                       P6SM VCSH SCT035 BKN050 FM190300 VRB04KT
                       P6SM BKN050 FM190800 VRB03KT P6SM FEW002
                       SCT050 SCT120=
201803181428 KPAE 181428Z 1814/1912 12007KT P6SM BKN025 FM181800 20005KT P6SM
                       BKN030 BKN050 FM182100 23006KT P6SM VCSH
                       SCT035 BKN050 FM190300 VRB04KT P6SM BKN050
                       FM190800 VRB03KT P6SM FEW002 SCT050 SCT120=
201803181128 TAF KPAE 181128Z 1812/1912 16008KT P6SM BKN015 BKN035 FM181800
                       20005KT P6SM BKN030 BKN050 FM182100 23006KT
                       P6SM VCSH SCT035 BKN050 FM190300 VRB04KT
                       P6SM BKN050 FM190800 VRB03KT P6SM FEW002
                       SCT050 SCT120=
201803180529 TAF KPAE 180529Z 1806/1906 VRB05KT P6SM VCSH BKN035 BKN060 FM180900
                       17005KT P6SM OVC022 FM181800 20005KT P6SM
                       BKN030 BKN050 FM182100 23006KT P6SM VCSH
                       SCT035 BKN050 FM190300 VRB04KT P6SM BKN050=
201803180150 KPAE 180150Z 1802/1824 VRB05KT P6SM VCSH BKN035 OVC050
                      TEMPO 1802/1803 -SHRA FM180300 VRB05KT P6SM
                       -SHRA OVC025 FM180900 17005KT P6SM OVC018
                       FM181800 20005KT P6SM BKN025 BKN035 FM182000
                       23006KT P6SM SCT035 BKN050=
201803180059 KPAE 180059Z 1801/1824 VRB05KT P6SM SCT035 BKN050 BKN090
                      TEMPO 1801/1803 BKN035 OVC050 FM180300 VRB05KT
                       P6SM -SHRA OVC025 FM180900 17005KT P6SM
                       OVC018 FM181800 20005KT P6SM BKN025 BKN035
                       FM182000 23006KT P6SM SCT035 BKN050=
201803172343 TAF KPAE 172343Z 1800/1824 VRB05KT P6SM SCT030 BKN050 BKN090
                      TEMPO 1800/1803 BKN030 BKN050 BKN090 FM180300
                       VRB05KT P6SM -SHRA OVC025 FM180900 17005KT
                       P6SM OVC018 FM181800 20005KT P6SM BKN025
                       BKN035 FM182000 23006KT P6SM SCT035 BKN050=
201803172125 KPAE 172125Z 1721/1818 17008KT P6SM OVC020 FM172300 21009KT P6SM
                       VCSH BKN028 BKN050 FM180300 VRB05KT P6SM
                       -SHRA OVC035 FM180600 17004KT P6SM OVC022
                       FM181200 15004KT P6SM OVC018=
201803172012 KPAE 172012Z 1720/1818 18008KT P6SM OVC009 FM172200 21009KT P6SM
                       VCSH BKN020 BKN050 FM180300 VRB05KT P6SM
                       -SHRA OVC035 FM180600 17004KT P6SM OVC022
                       FM181200 15004KT P6SM OVC018=
201803171808 KPAE 171808Z 1718/1818 23008KT P6SM FEW005 SCT010 SCT030
                      TEMPO 1718/1720 FEW005 BKN010 BKN030 FM172000
                       23008KT P6SM VCSH BKN035 BKN050 FM180300
                       VRB05KT P6SM -SHRA OVC035 FM180600 17004KT
                       P6SM OVC022 FM181200 15004KT P6SM OVC018=
201803171740 TAF KPAE 171740Z 1718/1818 17008KT P6SM SCT010 SCT030 FM172000
                       20008KT P6SM VCSH BKN035 BKN050 FM180300
                       VRB05KT P6SM -SHRA OVC035 FM180600 17004KT
                       P6SM OVC022 FM181200 15004KT P6SM OVC018=
201803171701 KPAE 171701Z 1717/1812 15007KT P6SM SCT008
                      TEMPO 1717/1719 BKN008 FM171900 20008KT P6SM
                       SCT045 FM180300 18005KT P6SM BKN040=
201803171604 KPAE 171604Z 1716/1812 14006KT 4SM BR BKN004 BKN100
                      TEMPO 1716/1718 1/2SM FG VV002 FM171800 17008KT
                       P6SM SCT008 SCT100 FM172000 20008KT P6SM
                       SCT045 FM180300 18005KT P6SM BKN040=
201803171542 KPAE 171542Z 1716/1812 14006KT 4SM BR BKN004 BKN100
                      TEMPO 1716/1718 3/4SM BR FM171800 17008KT
                       P6SM SCT008 SCT100 FM172000 20008KT P6SM
                       SCT045 FM180300 18005KT P6SM BKN040=
201803171457 KPAE 171457Z 1715/1812 14006KT P6SM VCFG SCT004 SCT100
                      TEMPO 1715/1718 BKN004 BKN100 FM171800 17008KT
                       P6SM SCT009 SCT100 FM172000 20008KT P6SM
                       SCT045 FM180300 18005KT P6SM BKN040=
201803171444 KPAE 171444Z 1715/1812 14005KT P6SM VCFG FEW005 SCT100 FM171800
                       17008KT P6SM FEW009 FM172000 20008KT P6SM
                       SCT045 FM180300 18005KT P6SM BKN040=
201803171120 TAF KPAE 171120Z 1712/1812 VRB03KT P6SM BKN100 FM171500 17005KT
                       P6SM SCT020 BKN100 FM171800 17008KT P6SM
                       FEW020 FM172000 20008KT P6SM SCT045 FM180300
                       18005KT P6SM BKN040=
201803170520 TAF KPAE 170520Z 1706/1806 VRB02KT P6SM SKC FM171500 17005KT P6SM
                       SCT012
                      TEMPO 1715/1718 BKN012 FM171800 17008KT P6SM
                       FEW020 FM172000 20008KT P6SM SCT045 FM180300
                       18005KT P6SM BKN040=
201803162330 TAF KPAE 162330Z 1700/1724 33009KT P6SM FEW060 FEW200 FM170200
                       01004KT P6SM FEW200 FM170600 VRB02KT P6SM
                       SKC FM171500 17005KT P6SM SCT012
                      TEMPO 1715/1718 BKN012 FM171800 17008KT P6SM
                       FEW020 FM172000 20008KT P6SM SCT045
                      PROB30 1721/1724 -SHRA BKN045=
201803162109 KPAE 162109Z 1621/1718 31006KT P6SM FEW060 FEW200 FM170200 01004KT
                       P6SM FEW200 FM170600 VRB02KT P6SM SKC FM171500
                       17005KT P6SM SCT012
                      TEMPO 1715/1718 BKN012=
201803161725 TAF KPAE 161725Z 1618/1718 33006KT P6SM FEW200 FM162100 33006KT
                       P6SM FEW060 FEW100 SCT200 FM170200 01004KT
                       P6SM FEW200 FM170600 VRB02KT P6SM SKC FM171500
                       17005KT P6SM SCT012
                      TEMPO 1715/1718 BKN012=
201803161128 TAF KPAE 161128Z 1612/1712 35006KT P6SM SCT120 FM171000 15006KT
                       P6SM SCT120=
201803160536 TAF KPAE 160536Z 1606/1706 32006KT P6SM BKN080 FM161000 35006KT
                       P6SM SCT120=
201803152320 TAF KPAE 152320Z 1600/1624 34006KT P6SM SKC FM160600 02004KT P6SM
                       SCT200 FM161000 03003KT P6SM FEW030 SCT120
                       FM161800 35007KT P6SM SKC=
201803151749 TAF KPAE 151749Z 1518/1618 08006KT P6SM SKC FM152000 35006KT P6SM
                       FEW250 FM160600 02004KT P6SM SCT200 FM161000
                       03003KT P6SM FEW030 SCT200=
201803151140 TAF KPAE 151140Z 1512/1612 10006KT P6SM SCT200 FM151800 34008KT
                       P6SM SCT200=
201803150541 TAF KPAE 150541Z 1506/1606 14006KT P6SM SCT200 FM151800 34008KT
                       P6SM SCT200=
201803150019 TAF KPAE 150019Z 1500/1524 18010KT P6SM SKC FM150300 18006KT P6SM
                       SCT080 FM150600 14006KT P6SM SCT120 FM151200
                       VRB04KT P6SM SCT030 BKN120 FM151800 33007KT
                       P6SM SCT200=
201803141726 TAF KPAE 141726Z 1418/1518 20008KT 2SM -SHRA BR OVC003 FM141900
                       21010KT P6SM VCSH BKN025 OVC080 FM150300
                       18006KT P6SM VCSH BKN050 BKN120 FM150600
                       14006KT P6SM BKN060 BKN120 FM151400 VRB04KT
                       P6SM SCT030 BKN120=
201803141456 KPAE 141456Z 1415/1512 15008KT 5SM BR BKN002 OVC100 FM141600 20008KT
                       P6SM VCSH BKN030 OVC110 FM142300 21009KT
                       P6SM VCSH BKN050 BKN120 FM150600 14006KT
                       P6SM BKN060 BKN120=
201803141133 TAF KPAE 141133Z 1412/1512 18006KT P6SM VCSH BKN060 OVC100 FM141800
                       20008KT P6SM -SHRA BKN045 BKN080 FM142300
                       21009KT P6SM VCSH BKN050 BKN120 FM150600
                       14006KT P6SM BKN060 BKN120=
201803140526 TAF KPAE 140526Z 1406/1506 09007KT P6SM VCSH OVC090 FM141500 18008KT
                       P6SM VCSH BKN020 OVC050 FM141900 20008KT
                       P6SM VCSH SCT035 BKN120=
201803132320 TAF KPAE 132320Z 1400/1424 15014KT P6SM -RA SCT020 OVC040
                      TEMPO 1400/1404 4SM -RA BR BKN020 OVC040
                       FM140600 16012KT P6SM VCSH SCT020 BKN040
                       FM141900 18012KT P6SM SCT040=
201803131922 KPAE 131922Z 1319/1418 18015G25KT P6SM VCSH BKN050 OVC090 FM132200
                       18012KT P6SM -RA OVC040 FM140600 16006KT
                       P6SM VCSH BKN025 FM141700 16008KT P6SM SCT040=
201803131720 TAF KPAE 131720Z 1318/1418 14010KT P6SM -RA BKN050 OVC090 FM132200
                       18010KT P6SM -RA OVC040 FM140600 16006KT
                       P6SM VCSH BKN025 FM141700 16008KT P6SM SCT040=
201803131135 TAF KPAE 131135Z 1312/1412 09007KT P6SM BKN120 OVC200 FM131700
                       15008KT P6SM OVC070 FM131900 18011KT P6SM
                       -RA OVC050 FM140200 16008KT 5SM -RA BR BKN020
                       BKN050 FM140900 15005KT P6SM VCSH BKN018
                       BKN030=
201803130526 TAF KPAE 130526Z 1306/1406 08010KT P6SM BKN200 FM131200 11007KT
                       P6SM OVC100 FM131700 15008KT P6SM OVC050
                       FM132100 18011KT P6SM -RA OVC050 FM140200
                       16008KT 5SM -SHRA BKN025 BKN050=
201803130301 KPAE 130301Z 1303/1324 08010KT P6SM BKN200 FM131000 14012KT P6SM
                       OVC100 FM131600 16012G20KT P6SM -RA OVC050
                       FM132100 18012G22KT P6SM -SHRA BKN025 BKN050=
201803122320 TAF KPAE 122320Z 1300/1324 08012G22KT P6SM BKN250 FM131000 14012KT
                       P6SM OVC100 FM131600 16012G20KT P6SM -RA
                       OVC050 FM132100 18012G22KT P6SM -SHRA BKN025
                       BKN050=
201803122101 KPAE 122101Z 1221/1318 08014G20KT P6SM BKN250 FM131200 14012KT
                       P6SM OVC100 FM131700 16008KT P6SM -RA OVC050=
201803121720 TAF KPAE 121720Z 1218/1318 07007KT P6SM SCT250 FM122200 10012G20KT
                       P6SM BKN250 FM131200 14012KT P6SM OVC100
                       FM131700 16008KT P6SM -RA OVC050=
201803121127 TAF KPAE 121127Z 1212/1312 07006KT P6SM SKC FM121900 11007KT P6SM
                       SCT200 FM130000 12010KT P6SM SCT200 FM130800
                       10008KT P6SM SCT120 OVC200=
201803120520 TAF KPAE 120520Z 1206/1306 07005KT P6SM SKC FM130000 14008KT P6SM
                       FEW200=
201803112320 TAF KPAE 112320Z 1200/1224 01004KT P6SM FEW200=
201803111720 TAF KPAE 111720Z 1118/1218 VRB03KT P6SM SCT200 FM112000 01004KT
                       P6SM SCT200=
201803111120 TAF KPAE 111120Z 1112/1212 07005KT P6SM SKC FM112000 36004KT P6SM
                       SCT200 FM120000 03005KT P6SM SKC=
201803110529 TAF KPAE 110529Z 1106/1206 07005KT P6SM SKC FM112000 36004KT P6SM
                       SCT200=
201803102320 TAF KPAE 102320Z 1100/1124 33007KT P6SM SCT250 FM110600 03006KT
                       P6SM BKN150 FM112000 36006KT P6SM SCT200=
201803101732 TAF KPAE 101732Z 1018/1118 02006KT P6SM SKC FM110400 02006KT P6SM
                       BKN200 FM111000 02006KT P6SM BKN120 BKN200
                       FM111700 02006KT P6SM SCT200=
201803101120 TAF KPAE 101120Z 1012/1112 VRB03KT P6SM SCT200 FM102100 01005KT
                       P6SM SCT200 FM110200 VRB04KT P6SM SCT200=
201803100530 TAF KPAE 100530Z 1006/1106 03004KT P6SM BKN070 FM100800 VRB03KT
                       P6SM SCT200 FM102100 01005KT P6SM BKN200=
201803092320 TAF KPAE 092320Z 1000/1024 01005KT P6SM SCT040 BKN060 FM100200
                       04004KT P6SM SCT060 SCT200 FM100800 04004KT
                       P6SM BKN200 FM102000 31006KT P6SM BKN200=
201803091936 KPAE 091936Z 0920/1018 16003KT P6SM BKN025 OVC035 FM092200 35005KT
                       P6SM SCT035 BKN060 FM100000 05005KT P6SM
                       SCT040 BKN060 FM100600 06004KT P6SM SKC=
201803091750 TAF KPAE 091750Z 0918/1018 12009KT P6SM SCT008 BKN060 FM092200
                       35005KT P6SM BKN060 FM100000 05005KT P6SM
                       SCT040 BKN060 FM100600 06004KT P6SM SKC=
201803091120 TAF KPAE 091120Z 0912/1012 30010KT 6SM -SHRA BR SCT015 OVC025 FM091500
                       23006KT P6SM VCSH SCT015 OVC030 FM092000
                       22005KT P6SM SCT025 OVC040 FM100000 VRB03KT
                       P6SM SCT040 BKN060 FM100600 06004KT P6SM
                       SKC=
201803090714 KPAE 090714Z 0907/1006 20010G18KT P6SM VCSH SCT010 BKN015 OVC025
                       FM090800 30010KT 6SM -SHRA BR SCT008 BKN012
                       OVC018 FM091200 30006KT P6SM VCSH SCT012
                       BKN060 FM091500 VRB03KT P6SM VCSH BKN015
                       OVC030 FM092000 22005KT P6SM SCT025 OVC040
                       FM100000 VRB03KT P6SM SCT040 BKN060=
201803090547 TAF KPAE 090547Z 0906/1006 21012G20KT P6SM VCSH SCT014 BKN035 OVC080
                       FM090800 30010KT 6SM -SHRA BR SCT012 BKN025
                       OVC060 FM091200 30006KT P6SM VCSH SCT015
                       BKN060 FM091500 VRB03KT P6SM VCSH BKN015
                       OVC030 FM092000 22005KT P6SM SCT025 OVC040
                       FM100000 VRB03KT P6SM SCT040 BKN060=
201803090216 KPAE 090216Z 0902/0924 15025G35KT P6SM BKN009 BKN014 OVC020 FM090600
                       23010KT 5SM -SHRA BR BKN007 OVC012 FM090900
                       30010KT P6SM -SHRA SCT012 BKN025 OVC060
                       FM091500 VRB05KT P6SM VCSH BKN025 BKN050
                       FM092000 24006KT P6SM SCT030 BKN050=
201803090044 KPAE 090044Z 0901/0924 14014G21KT 1 1/2SM -SHRA BR OVC009 FM090300
                       VRB05KT 4SM -SHRA OVC009 FM090900 VRB05KT
                       P6SM -SHRA OVC015 FM091500 VRB05KT P6SM
                       VCSH BKN025 BKN050 FM092000 24006KT P6SM
                       SCT030 BKN050=
201803082320 TAF KPAE 082320Z 0900/0924 VRB06KT 3SM -RA BR BKN023 OVC030 FM090100
                       18015G25KT 5SM -SHRA SCT015 OVC025 FM090900
                       VRB05KT P6SM -SHRA OVC015 FM091500 VRB05KT
                       P6SM VCSH BKN025 BKN050 FM092000 24006KT
                       P6SM SCT030 BKN050=
201803081923 KPAE 081923Z 0819/0918 12005KT 5SM -RA BR OVC035 FM082200 18017G27KT
                       5SM -RA BR OVC025 FM090200 20015G25KT P6SM
                       -SHRA SCT015 OVC025 FM090900 VRB05KT P6SM
                       -SHRA OVC015 FM091500 VRB05KT P6SM VCSH
                       BKN025 BKN050=
201803081720 TAF KPAE 081720Z 0818/0918 VRB04KT 3SM -RA BR BKN040 BKN045 OVC070
                       FM082200 18017G27KT 4SM -RA BR OVC015 FM090400
                       20015G25KT P6SM -SHRA SCT015 OVC025 FM090900
                       VRB05KT P6SM -SHRA OVC015 FM091500 VRB05KT
                       P6SM VCSH BKN025 BKN050=
201803081132 TAF KPAE 081132Z 0812/0912 12005KT P6SM BKN070 OVC100
                      TEMPO 0813/0817 -RA BKN045 OVC080 FM081700
                       14012G22KT P6SM -RA OVC040 FM082200 18017G27KT
                       6SM -RA BR OVC030 FM090400 18015G25KT P6SM
                       -SHRA SCT018 BKN030 OVC080 FM090900 22012G18KT
                       P6SM VCSH BKN025 BKN040=
201803080540 TAF KPAE 080540Z 0806/0906 10005KT P6SM OVC100 FM080800 11004KT
                       P6SM -RA OVC060 FM081800 14012G22KT P6SM
                       -RA OVC040 FM082200 18017G27KT 6SM -RA BR
                       OVC030 FM090200 18016G26KT P6SM -SHRA SCT018
                       BKN030 OVC080=
201803072320 TAF KPAE 072320Z 0800/0824 34008KT P6SM OVC100 FM080800 06006KT
                       P6SM -RA OVC060 FM081600 14012G22KT P6SM
                       -RA OVC040 FM082200 18017G27KT P6SM -SHRA
                       BKN020 BKN040=
201803071720 TAF KPAE 071720Z 0718/0818 36008KT P6SM BKN150 BKN250 FM080800
                       06006KT P6SM -RA OVC060 FM081600 14012G22KT
                       P6SM -RA OVC040=
201803071129 TAF KPAE 071129Z 0712/0812 36006KT P6SM BKN250 FM072000 02006KT
                       P6SM SCT120 OVC250 FM080300 04005KT P6SM
                       SCT080 OVC100 FM081100 14005KT P6SM -RA
                       OVC050=
201803070537 TAF KPAE 070537Z 0706/0806 34006KT P6SM SKC FM070800 03005KT P6SM
                       SKC FM071800 35005KT P6SM SCT120 OVC250
                       FM080300 VRB03KT P6SM SCT080 OVC100=
201803062329 TAF KPAE 062329Z 0700/0724 35006KT P6SM SKC FM070800 03005KT P6SM
                       SKC FM071800 01004KT P6SM SCT120 OVC250=
201803061730 TAF KPAE 061730Z 0618/0718 02003KT P6SM SKC FM062300 36009KT P6SM
                       SKC FM070800 03005KT P6SM SKC=
201803061127 TAF KPAE 061127Z 0612/0712 VRB03KT P6SM SCT035 BKN070 FM061800
                       02007KT P6SM SCT070 FM062300 36009KT P6SM
                       SKC FM070800 03005KT P6SM SKC=
201803060538 TAF KPAE 060538Z 0606/0706 VRB03KT P6SM SCT030 BKN070 FM061200
                       11003KT P6SM SCT015 FM061800 34007KT P6SM
                       SKC=
201803052330 TAF KPAE 052330Z 0600/0624 29004KT P6SM SCT030 BKN040 OVC070 FM060400
                       16003KT P6SM BKN070 BKN250 FM060900 15003KT
                       P6SM SCT070 SCT250 FM061200 14003KT P6SM
                       SCT011
                      TEMPO 0613/0617 BKN011 FM061800 02006KT P6SM
                       SCT030 BKN250=
201803052100 KPAE 052100Z 0521/0618 13005KT P6SM VCSH SCT024 BKN029 OVC080
                      TEMPO 0521/0524 SCT029 OVC080 FM060000 20005KT
                       P6SM SCT030 BKN080 FM060900 07005KT P6SM
                       SCT050=
201803051724 TAF KPAE 051724Z 0518/0618 13007KT P6SM VCSH BKN070
                      TEMPO 0518/0520 BKN022 BKN070 FM052000 18007KT
                       P6SM VCSH SCT025 BKN070 FM060300 VRB04KT
                       P6SM BKN050 FM060900 07005KT P6SM SCT050=
201803051537 KPAE 051537Z 0516/0612 12005KT 1/2SM FG VCSH BKN002
                      TEMPO 0516/0518 4SM BR SCT002 OVC035 FM051800
                       18007KT P6SM VCSH BKN020 BKN035 FM052200
                       19007KT P6SM VCSH SCT030 BKN050 FM060300
                       VRB04KT P6SM BKN050 FM060900 07005KT P6SM
                       SCT050=
201803051141 TAF KPAE 051141Z 0512/0612 16007KT 6SM BR VCSH SCT010 OVC025
                      TEMPO 0512/0516 2SM BR BKN006 OVC018 FM051800
                       18007KT P6SM VCSH BKN020 BKN035 FM052200
                       19007KT P6SM VCSH SCT030 BKN050 FM060300
                       VRB04KT P6SM BKN050 FM060900 07005KT P6SM
                       SCT050=
201803050538 TAF KPAE 050538Z 0506/0606 16007KT P6SM VCSH BKN010 OVC020
                      TEMPO 0506/0510 -SHRA BKN008 OVC018 FM051800
                       17006KT P6SM VCSH BKN018 BKN035 FM052100
                       19006KT P6SM VCSH SCT030 SCT040
                      TEMPO 0602/0606 -SHRA SCT030 OVC040=
201803050449 KPAE 050449Z 0505/0524 15005KT P6SM VCSH BKN008 OVC020
                      TEMPO 0505/0507 -SHRA FM051300 17005KT P6SM
                       VCSH BKN018 BKN040 FM052100 20007KT P6SM
                       VCSH BKN035=
201803042323 TAF KPAE 042323Z 0500/0524 00000KT P6SM VCSH BKN045 OVC060
                      TEMPO 0500/0504 6SM -SHRA BKN025 OVC040 FM050400
                       18005KT P6SM BKN025 OVC040 FM051300 17005KT
                       P6SM VCSH OVC020 FM052100 20007KT P6SM VCSH
                       BKN035=
201803041730 TAF KPAE 041730Z 0418/0518 15006KT P6SM SCT100 FM041900 20008KT
                       P6SM VCSH BKN035 OVC070 FM050300 19005KT
                       P6SM VCSH BKN027 OVC050 FM051500 17005KT
                       P6SM VCSH OVC025=
201803041124 TAF KPAE 041124Z 0412/0512 16005KT P6SM BKN035 OVC070 FM041900
                       20008KT P6SM VCSH BKN035 OVC070 FM050300
                       19005KT P6SM VCSH BKN027 OVC050=
201803040520 TAF KPAE 040520Z 0406/0506 00000KT P6SM FEW200 FM040900 14004KT
                       P6SM SCT035 BKN100 FM041300 16005KT P6SM
                       BKN035 OVC070 FM042000 20008KT P6SM VCSH
                       BKN035 OVC070 FM050400 23003KT P6SM VCSH
                       BKN035 OVC070=
201803032320 TAF KPAE 032320Z 0400/0424 33009KT P6SM SKC FM040300 02004KT P6SM
                       FEW050 BKN200 FM041300 16005KT P6SM BKN035
                       FM042000 20008KT P6SM VCSH BKN035=
201803031725 TAF KPAE 031725Z 0318/0418 33005KT P6SM FEW025 SCT150 FM040300
                       02004KT P6SM FEW050 BKN200 FM041300 16005KT
                       P6SM BKN035=
201803031120 TAF KPAE 031120Z 0312/0412 02005KT P6SM BKN080 BKN110 FM031800
                       36006KT P6SM SCT050 SCT120 FM040300 02004KT
                       P6SM FEW050 BKN200 FM040900 16005KT P6SM
                       BKN035=
201803030520 TAF KPAE 030520Z 0306/0406 08007KT P6SM SCT050 BKN150 FM030900
                       07006KT P6SM SCT060 BKN090 BKN150 FM031100
                       04003KT 3SM BR BKN025 BKN150 FM031500 36005KT
                       P6SM SCT030 BKN200 FM032000 32005KT P6SM
                       FEW050 SCT200=
201803022344 TAF KPAE 022344Z 0300/0324 VRB03KT P6SM VCSH SCT025 OVC040
                      TEMPO 0300/0304 BKN025 OVC040 FM030600 VRB03KT
                       P6SM BKN060 BKN090 BKN150 FM030900 VRB03KT
                       P6SM SCT060 BKN090 BKN150 FM031500 36005KT
                       P6SM SCT090 BKN200 FM032000 32005KT P6SM
                       FEW050 SCT200=
201803022124 KPAE 022124Z 0221/0318 15010KT P6SM SCT025 SCT040 OVC150
                      TEMPO 0221/0224 BKN025 BKN040 OVC150 FM030000
                       17006KT P6SM SCT035 SCT060 BKN150 FM030600
                       VRB03KT P6SM FEW035 BKN090 BKN150 FM031500
                       36005KT P6SM SCT090 BKN200=
201803022102 KPAE 022102Z 0221/0318 15010KT P6SM SCT025 SCT040 BKN150 FM030000
                       17006KT P6SM SCT035 SCT060 BKN150 FM030600
                       VRB03KT P6SM FEW035 BKN090 BKN150 FM031500
                       36005KT P6SM SCT090 BKN200=
201803021930 KPAE 021930Z 0220/0318 15012KT P6SM SCT015 SCT040 OVC150
                      TEMPO 0220/0221 BKN015 BKN040 OVC150 FM022100
                       17012KT P6SM SCT025 SCT040 BKN150 FM030000
                       17006KT P6SM SCT035 SCT060 BKN150 FM030600
                       VRB03KT P6SM FEW035 BKN090 BKN150 FM031500
                       36005KT P6SM SCT090 BKN200=
201803021740 TAF KPAE 021740Z 0218/0318 14009KT P6SM FEW003 SCT009 OVC020
                      TEMPO 0218/0220 FEW003 BKN009 OVC020 FM022000
                       17009KT P6SM SCT012 BKN028 OVC040 FM030000
                       17006KT P6SM BKN035 BKN060 BKN150 FM030600
                       VRB03KT P6SM FEW035 BKN090 BKN150 FM031500
                       36005KT P6SM SCT090 BKN200=
201803021640 KPAE 021640Z 0217/0312 12008KT P6SM SCT007 SCT020 OVC150
                      TEMPO 0217/0219 BKN007 BKN020 OVC150 FM022000
                       18008KT P6SM VCSH BKN035 FM030300 VRB03KT
                       P6SM SCT035 BKN050=
201803021528 KPAE 021528Z 0215/0312 13009KT P6SM SCT005 BKN045 OVC120
                      TEMPO 0215/0218 BKN005 OVC045 FM022000 18008KT
                       P6SM VCSH BKN035 FM030300 VRB03KT P6SM SCT035
                       BKN050=
201803021133 TAF KPAE 021133Z 0212/0312 18008KT 5SM -SHRASN BR SCT009 OVC016
                       FM021400 17009KT P6SM VCSH SCT012 BKN020
                       FM022000 18008KT P6SM VCSH BKN035 FM030300
                       VRB03KT P6SM SCT035 BKN050=
201803020520 TAF KPAE 020520Z 0206/0306 00000KT P6SM SCT250 FM020800 00000KT
                       P6SM VCSH BKN040
                      TEMPO 0209/0212 5SM -SHRASN OVC025 FM021200
                       18008KT P6SM VCSH BKN025 FM022000 18004KT
                       P6SM VCSH BKN040 FM030000 VRB04KT P6SM SCT030
                       BKN050=
201803012320 TAF KPAE 012320Z 0200/0224 VRB04KT P6SM SCT040 FM020700 00000KT
                       P6SM BKN040
                      TEMPO 0209/0212 5SM -SHRASN OVC025 FM021200
                       18008KT P6SM VCSH BKN025 FM022000 VRB04KT
                       P6SM VCSH BKN040=
201803011720 TAF KPAE 011720Z 0118/0218 13008KT P6SM SCT030 SCT090 FM012000
                       16006KT P6SM SCT030 BKN050 FM020200 VRB03KT
                       P6SM SCT070 BKN150 FM021000 15004KT P6SM
                       -SHRASN SCT030 OVC040=
201803011135 TAF KPAE 011135Z 0112/0212 21008G15KT P6SM SCT020 OVC050
                      TEMPO 0112/0114 -SHRA BKN020 OVC050 FM012000
                       16006KT P6SM SCT030 BKN050 FM020200 VRB03KT
                       P6SM SCT070 BKN150 FM021000 15004KT P6SM
                       -SHRASN SCT030 OVC040=
201803010520 TAF KPAE 010520Z 0106/0206 13015G25KT 5SM -RA BR OVC030 FM010700
                       15012G20KT 3SM -RA BR OVC015 FM010900 21008G15KT
                       P6SM -SHRA BKN020 OVC040 FM011600 18008KT
                       P6SM VCSH BKN025 BKN050 FM012100 16006KT
                       P6SM SCT025 BKN050=