##########################################################
# Query made at 02/15/2025 22:03:27 UTC
# Time interval: from 07/01/2019 00:00  to 07/31/2019 23:59  UTC
##########################################################

##########################################################
# KPAE, Everett, Snohomish County Airport (United States)
# WMO index: -----. WIGOS ID: Unknown
# Latitude 47-55-23N. Longitude 122-16-57W. Altitude 184 m.
##########################################################

###################################
#  METAR/SPECI from KPAE
###################################
201907312353 METAR KPAE 312353Z 25006KT 10SM CLR 26/09 A3000 RMK AO2 SLP156 T02610089 10261 20206 58010=
201907312253 METAR KPAE 312253Z AUTO VRB04KT 10SM CLR 25/10 A3002 RMK AO2 SLP161 T02500100=
201907312153 METAR KPAE 312153Z 31007KT 10SM CLR 24/11 A3003 RMK AO2 SLP165 T02440111=
201907312053 METAR KPAE 312053Z VRB05KT 10SM CLR 24/11 A3003 RMK AO2 SLP166 T02440111 58007=
201907311953 METAR KPAE 311953Z 26006KT 10SM CLR 23/12 A3004 RMK AO2 SLP171 T02280117=
201907311853 METAR KPAE 311853Z 28007KT 10SM CLR 22/11 A3005 RMK AO2 SLP173 T02220111=
201907311753 METAR KPAE 311753Z 27004KT 10SM CLR 21/12 A3005 RMK AO2 SLP175 T02060122 10211 20150 51001=
201907311653 METAR KPAE 311653Z 32004KT 10SM BKN080 19/12 A3005 RMK AO2 SLP175 T01940122=
201907311553 METAR KPAE 311553Z 00000KT 10SM SCT080 19/13 A3006 RMK AO2 SLP176 T01940128=
201907311453 METAR KPAE 311453Z 00000KT 10SM OVC075 17/12 A3005 RMK AO2 SLP175 T01720122 53005=
201907311353 METAR KPAE 311353Z 00000KT 10SM OVC075 16/12 A3005 RMK AO2 SLP173 T01610117=
201907311253 METAR KPAE 311253Z AUTO 00000KT 10SM OVC075 15/11 A3004 RMK AO2 SLP171 T01500111=
201907311153 METAR KPAE 311153Z AUTO 00000KT 10SM SCT075 15/11 A3004 RMK AO2 SLP170 T01500111 10156 20144 53002=
201907311053 METAR KPAE 311053Z AUTO 02003KT 10SM BKN070 15/11 A3003 RMK AO2 SLP168 T01500111=
201907310953 METAR KPAE 310953Z AUTO 02003KT 10SM SCT070 16/11 A3003 RMK AO2 SLP168 T01560111=
201907310853 METAR KPAE 310853Z AUTO 00000KT 10SM BKN070 16/12 A3003 RMK AO2 SLP168 T01560117 58002=
201907310753 METAR KPAE 310753Z AUTO 35004KT 10SM CLR 15/11 A3004 RMK AO2 SLP169 T01500111 402220133=
201907310653 METAR KPAE 310653Z AUTO 36004KT 10SM SCT070 16/12 A3004 RMK AO2 SLP171 T01560117=
201907310553 METAR KPAE 310553Z AUTO 35004KT 10SM CLR 16/12 A3004 RMK AO2 SLP171 T01560117 10222 20156 51006=
201907310453 METAR KPAE 310453Z AUTO 36006KT 10SM CLR 17/11 A3004 RMK AO2 SLP170 T01670111=
201907310353 METAR KPAE 310353Z AUTO 35004KT 10SM CLR 18/12 A3003 RMK AO2 SLP167 T01780117=
201907310253 METAR KPAE 310253Z 02003KT 10SM CLR 21/09 A3002 RMK AO2 SLP164 T02060094 56007=
201907310153 METAR KPAE 310153Z 36004KT 10SM CLR 22/09 A3003 RMK AO2 SLP166 T02170089=
201907310053 METAR KPAE 310053Z 30006KT 10SM CLR 22/08 A3003 RMK AO2 SLP167 T02170083=
201907302353 METAR KPAE 302353Z 26006KT 10SM CLR 22/10 A3004 RMK AO2 SLP171 T02170100 10217 20161 58009=
201907302253 METAR KPAE 302253Z 27008KT 10SM CLR 21/11 A3005 RMK AO2 SLP175 T02060106=
201907302153 METAR KPAE 302153Z 27006KT 10SM CLR 20/11 A3006 RMK AO2 SLP178 T02000106=
201907302053 METAR KPAE 302053Z 17007KT 10SM CLR 19/10 A3007 RMK AO2 SLP181 T01940100 58002=
201907302001 SPECI KPAE 302001Z 23007G16KT 10SM SCT026 19/11 A3007 RMK AO2 T01890106=
201907301953 METAR KPAE 301953Z 23008KT 10SM BKN026 18/11 A3007 RMK AO2 SLP183 T01830106=
201907301853 METAR KPAE 301853Z 24009KT 10SM BKN026 17/11 A3008 RMK AO2 SLP184 T01670106=
201907301753 METAR KPAE 301753Z 23009KT 10SM OVC024 16/11 A3008 RMK AO2 SLP184 T01610106 10167 20139 53007=
201907301653 METAR KPAE 301653Z 18010KT 10SM OVC020 16/10 A3007 RMK AO2 SLP180 T01610100=
201907301553 METAR KPAE 301553Z 19006KT 10SM OVC019 16/11 A3006 RMK AO2 SLP179 T01610106=
201907301453 METAR KPAE 301453Z 15008KT 10SM OVC015 15/11 A3006 RMK AO2 SLP177 T01500111 51008=
201907301430 SPECI KPAE 301430Z 18006KT 10SM OVC015 14/11 A3005 RMK AO2 T01440111=
201907301353 METAR KPAE 301353Z 15005KT 10SM OVC013 14/11 A3005 RMK AO2 SLP173 T01440111=
201907301306 SPECI KPAE 301306Z AUTO 15004KT 10SM OVC013 14/11 A3005 RMK AO2 T01440111=
201907301253 METAR KPAE 301253Z AUTO 00000KT 10SM OVC015 14/11 A3005 RMK AO2 SLP172 T01440111=
201907301153 METAR KPAE 301153Z AUTO 10004KT 10SM OVC021 14/11 A3003 RMK AO2 SLP168 T01390111 10144 20133 51006=
201907301053 METAR KPAE 301053Z AUTO 11003KT 10SM OVC016 14/11 A3003 RMK AO2 SLP168 T01440111=
201907300953 METAR KPAE 300953Z AUTO 07004KT 10SM OVC019 14/11 A3002 RMK AO2 SLP164 T01440111=
201907300939 SPECI KPAE 300939Z AUTO VRB03KT 10SM BKN019 14/11 A3002 RMK AO2 T01390111=
201907300853 METAR KPAE 300853Z AUTO 02005KT 10SM CLR 14/11 A3001 RMK AO2 SLP162 T01390111 50009=
201907300753 METAR KPAE 300753Z AUTO 01005KT 10SM CLR 14/11 A3002 RMK AO2 SLP162 T01390111 402560133=
201907300653 METAR KPAE 300653Z AUTO 36008KT 10SM FEW070 14/12 A3000 RMK AO2 SLP156 T01390117=
201907300553 METAR KPAE 300553Z AUTO 01010G16KT 10SM CLR 14/12 A2999 RMK AO2 SLP153 T01440117 10244 20144 51007=
201907300453 METAR KPAE 300453Z AUTO 36010G17KT 10SM CLR 15/12 A2998 RMK AO2 SLP152 T01500122=
201907300353 METAR KPAE 300353Z AUTO 36011G17KT 10SM CLR 16/12 A2997 RMK AO2 SLP147 T01560122=
201907300253 METAR KPAE 300253Z 36007KT 10SM CLR 18/13 A2996 RMK AO2 SLP146 T01780128 55004=
201907300153 METAR KPAE 300153Z 36010KT 10SM CLR 21/11 A2996 RMK AO2 SLP143 T02110111=
201907300053 METAR KPAE 300053Z 36007KT 10SM CLR 23/11 A2997 RMK AO2 SLP147 T02280106=
201907292353 METAR KPAE 292353Z 36005KT 10SM CLR 24/11 A2998 RMK AO2 SLP149 T02440106 10256 20194 57014=
201907292253 METAR KPAE 292253Z 31005KT 10SM CLR 24/11 A2999 RMK AO2 SLP154 T02440111=
201907292153 METAR KPAE 292153Z VRB05KT 10SM CLR 24/12 A3001 RMK AO2 SLP157 T02440117=
201907292053 METAR KPAE 292053Z 28006KT 10SM CLR 24/12 A3002 RMK AO2 SLP162 T02440122 58012=
201907291953 METAR KPAE 291953Z 24005KT 10SM CLR 22/12 A3003 RMK AO2 SLP167 T02220117=
201907291853 METAR KPAE 291853Z 23004KT 10SM CLR 21/12 A3004 RMK AO2 SLP172 T02110117=
201907291753 METAR KPAE 291753Z 29003KT 10SM CLR 19/12 A3005 RMK AO2 SLP175 T01940117 10194 20133 58003=
201907291653 METAR KPAE 291653Z 25005KT 10SM CLR 18/12 A3006 RMK AO2 SLP179 T01830117=
201907291553 METAR KPAE 291553Z 00000KT 10SM CLR 18/12 A3007 RMK AO2 SLP179 T01780122=
201907291453 METAR KPAE 291453Z 01003KT 10SM CLR 16/12 A3006 RMK AO2 SLP178 T01610117 51001=
201907291353 METAR KPAE 291353Z 01003KT 10SM CLR 14/12 A3006 RMK AO2 SLP178 T01440117=
201907291253 METAR KPAE 291253Z AUTO VRB03KT 10SM CLR 14/11 A3006 RMK AO2 SLP178 T01390111=
201907291153 METAR KPAE 291153Z AUTO 03004KT 10SM CLR 14/11 A3006 RMK AO2 SLP177 T01390106 10167 20139 56005=
201907291053 METAR KPAE 291053Z AUTO 00000KT 10SM CLR 14/10 A3007 RMK AO2 SLP179 T01390100=
201907290953 METAR KPAE 290953Z AUTO 00000KT 10SM CLR 15/10 A3007 RMK AO2 SLP181 T01500100=
201907290853 METAR KPAE 290853Z AUTO 06003KT 10SM CLR 16/11 A3008 RMK AO2 SLP183 T01610106 56007=
201907290753 METAR KPAE 290753Z AUTO 05003KT 10SM CLR 16/11 A3008 RMK AO2 SLP184 T01610106 402330128=
201907290653 METAR KPAE 290653Z AUTO 01007KT 10SM CLR 16/11 A3009 RMK AO2 SLP186 T01560106=
201907290553 METAR KPAE 290553Z AUTO 02007KT 10SM CLR 16/12 A3010 RMK AO2 SLP190 T01560117 10233 20156 57003=
201907290453 METAR KPAE 290453Z AUTO 04003KT 10SM CLR 16/12 A3010 RMK AO2 SLP192 T01610122=
201907290353 METAR KPAE 290353Z AUTO 36003KT 10SM CLR 18/11 A3011 RMK AO2 SLP193 T01830111=
201907290253 METAR KPAE 290253Z 34006KT 10SM CLR 21/11 A3011 RMK AO2 SLP193 T02060111 56008=
201907290153 METAR KPAE 290153Z 35006KT 10SM CLR 22/12 A3011 RMK AO2 SLP193 T02220117=
201907290053 METAR KPAE 290053Z 36008KT 10SM CLR 23/11 A3012 RMK AO2 SLP196 T02280111=
201907282353 METAR KPAE 282353Z 35010KT 10SM CLR 23/12 A3013 RMK AO2 SLP202 T02280117 10233 20194 58019=
201907282253 METAR KPAE 282253Z 34008KT 10SM CLR 23/12 A3015 RMK AO2 SLP208 T02330122=
201907282153 METAR KPAE 282153Z 01006KT 10SM CLR 23/13 A3018 RMK AO2 SLP217 T02280128=
201907282053 METAR KPAE 282053Z VRB06KT 10SM CLR 23/12 A3019 RMK AO2 SLP221 T02280117 58013=
201907281953 METAR KPAE 281953Z VRB06KT 10SM CLR 22/13 A3021 RMK AO2 SLP227 T02170128=
201907281853 METAR KPAE 281853Z 36008KT 10SM CLR 21/13 A3022 RMK AO2 SLP231 T02060133=
201907281753 METAR KPAE 281753Z 36008KT 10SM CLR 19/12 A3023 RMK AO2 SLP235 T01940122 10194 20128 58006=
201907281653 METAR KPAE 281653Z VRB04KT 10SM CLR 18/13 A3024 RMK AO2 SLP238 T01780128=
201907281553 METAR KPAE 281553Z VRB04KT 10SM SCT005 16/13 A3025 RMK AO2 SLP241 T01610128=
201907281548 SPECI KPAE 281548Z 35003KT 10SM SCT005 16/13 A3025 RMK AO2=
201907281453 METAR KPAE 281453Z 33006KT 10SM OVC005 14/13 A3024 RMK AO2 SLP240 T01440128 50001=
201907281353 METAR KPAE 281353Z AUTO 33007KT 290V360 10SM OVC007 14/12 A3024 RMK AO2 SLP240 T01390122=
201907281253 METAR KPAE 281253Z AUTO 02004KT 10SM BKN006 13/12 A3024 RMK AO2 SLP239 T01330117=
201907281211 SPECI KPAE 281211Z AUTO 01004KT 10SM FEW007 13/12 A3024 RMK AO2 T01330117=
201907281153 METAR KPAE 281153Z AUTO 03004KT 10SM CLR 13/12 A3024 RMK AO2 SLP238 70009 T01330117 10150 20133 56005=
201907281053 METAR KPAE 281053Z AUTO 34005KT 10SM CLR 13/12 A3024 RMK AO2 SLP239 T01330117=
201907280953 METAR KPAE 280953Z AUTO 01005KT 10SM CLR 14/12 A3025 RMK AO2 SLP242 T01390117=
201907280853 METAR KPAE 280853Z AUTO 01007KT 10SM CLR 14/12 A3025 RMK AO2 SLP243 T01440117 58002=
201907280753 METAR KPAE 280753Z AUTO 03004KT 10SM CLR 14/11 A3026 RMK AO2 SLP245 T01440111 402110144=
201907280653 METAR KPAE 280653Z AUTO 01006KT 10SM CLR 15/11 A3026 RMK AO2 SLP245 T01500111=
201907280553 METAR KPAE 280553Z AUTO 36005KT 10SM CLR 15/12 A3026 RMK AO2 SLP245 T01500122 10211 20150 55000=
201907280453 METAR KPAE 280453Z AUTO 01006KT 10SM CLR 16/13 A3026 RMK AO2 SLP245 T01560128=
201907280353 METAR KPAE 280353Z AUTO 36007KT 10SM CLR 17/12 A3026 RMK AO2 SLP245 T01670122=
201907280253 METAR KPAE 280253Z 34005KT 10SM CLR 18/13 A3026 RMK AO2 SLP245 T01830128 56007=
201907280153 METAR KPAE 280153Z 36006KT 10SM BKN046 BKN055 21/12 A3026 RMK AO2 SLP244 T02060117=
201907280053 METAR KPAE 280053Z 36005KT 10SM OVC055 21/11 A3027 RMK AO2 SLP247 T02060111=
201907272353 METAR KPAE 272353Z VRB04KT 10SM OVC047 19/12 A3028 RMK AO2 SLP252 T01940122 10206 20167 58000=
201907272253 METAR KPAE 272253Z AUTO VRB05KT 10SM SCT046 OVC060 21/12 A3029 RMK AO2 SLP254 T02060122=
201907272153 METAR KPAE 272153Z 01006KT 10SM OVC046 19/12 A3029 RMK AO2 SLP254 T01890117=
201907272053 METAR KPAE 272053Z 02004KT 10SM OVC050 19/12 A3028 RMK AO2 SLP252 T01940117 51007=
201907271953 METAR KPAE 271953Z 05006KT 10SM FEW021 OVC047 19/12 A3028 RMK AO2 SLP250 T01890122=
201907271853 METAR KPAE 271853Z 10005KT 10SM OVC045 18/14 A3027 RMK AO2 SLP249 T01780139=
201907271753 METAR KPAE 271753Z 02005KT 10SM BKN040 OVC048 17/13 A3026 RMK AO2 SLP245 60009 T01670133 10172 20150 51018=
201907271653 METAR KPAE 271653Z 02003KT 10SM BKN038 OVC048 16/14 A3025 RMK AO2 RAE32 SLP243 P0000 T01610139=
201907271626 SPECI KPAE 271626Z 03003KT 5SM -RA BR FEW025 BKN033 OVC042 16/14 A3025 RMK AO2 P0000 T01560139=
201907271553 METAR KPAE 271553Z VRB03KT 2SM -RA BR BKN005 BKN010 OVC025 15/14 A3024 RMK AO2 SLP239 P0005 T01500144=
201907271509 SPECI KPAE 271509Z 01004KT 2SM R16R/5500VP6000FT -RA BR BKN005 OVC024 15/14 A3022 RMK AO2 P0002 T01500144=
201907271456 SPECI KPAE 271456Z 36004KT 1 3/4SM R16R/5000VP6000FT -RA BR BKN005 OVC024 15/14 A3021 RMK AO2 P0001 T01500144=
201907271453 METAR KPAE 271453Z 35005KT 3SM R16R/6000VP6000FT -RA BR BKN005 OVC024 16/14 A3021 RMK AO2 RAB46 SLP227 P0000 60004 T01560144 52021=
201907271353 METAR KPAE 271353Z 35004KT 3SM BR FEW003 BKN005 OVC021 15/14 A3018 RMK AO2 RAE24 SLP218 P0001 T01500144=
201907271323 SPECI KPAE 271323Z AUTO 34004KT 4SM -RA BR SCT004 BKN021 OVC028 15/14 A3017 RMK AO2 P0001 T01500144=
201907271315 SPECI KPAE 271315Z AUTO 35004KT 3SM -RA BR BKN004 BKN018 OVC028 15/14 A3017 RMK AO2 P0001 T01500144=
201907271306 SPECI KPAE 271306Z AUTO 36005KT 1 1/2SM -RA BR BKN004 OVC014 15/14 A3017 RMK AO2 P0001 T01500144=
201907271253 METAR KPAE 271253Z AUTO VRB03KT 2 1/2SM -RA BR BKN004 OVC014 15/14 A3017 RMK AO2 SLP213 P0003 T01500144=
201907271219 SPECI KPAE 271219Z AUTO 36006KT 2 1/2SM -RA BR BKN004 OVC010 16/14 A3015 RMK AO2 CIG 002V005 P0001 T01560144=
201907271201 SPECI KPAE 271201Z AUTO VRB06KT 4SM -RA BR BKN008 OVC013 16/15 A3015 RMK AO2 CIG 004V011 P0000 T01610150=
201907271153 METAR KPAE 271153Z AUTO 28005KT 4SM -RA BR SCT006 OVC015 16/15 A3014 RMK AO2 RAB33 SLP204 P0001 60001 70001 T01610150 10189 20161 51015=
201907271148 SPECI KPAE 271148Z AUTO 29005KT 4SM -RA BR SCT006 OVC015 16/14 A3014 RMK AO2 RAB33 P0001=
201907271053 METAR KPAE 271053Z AUTO 19012KT 10SM BKN017 OVC023 18/14 A3012 RMK AO2 SLP194 T01830144=
201907270953 METAR KPAE 270953Z AUTO 17012KT 10SM BKN016 OVC100 18/14 A3010 RMK AO2 SLP188 T01830144=
201907270853 METAR KPAE 270853Z AUTO 17012KT 10SM OVC015 18/14 A3010 RMK AO2 SLP188 T01830144 50000=
201907270816 SPECI KPAE 270816Z AUTO 18008KT 10SM BKN028 OVC110 18/14 A3010 RMK AO2 T01830144=
201907270753 METAR KPAE 270753Z AUTO 16008KT 10SM SCT030 BKN110 18/14 A3010 RMK AO2 SLP189 T01830144 402720144=
201907270653 METAR KPAE 270653Z AUTO 01003KT 10SM CLR 18/14 A3009 RMK AO2 SLP187 T01830139=
201907270553 METAR KPAE 270553Z AUTO 35004KT 10SM CLR 18/14 A3009 RMK AO2 SLP188 T01780139 10256 20178 51012=
201907270453 METAR KPAE 270453Z AUTO 02004KT 10SM CLR 18/14 A3009 RMK AO2 SLP187 T01780139=
201907270353 METAR KPAE 270353Z AUTO 02005KT 10SM CLR 18/14 A3007 RMK AO2 SLP182 T01780144=
201907270253 METAR KPAE 270253Z 36007KT 10SM CLR 19/14 A3006 RMK AO2 SLP177 T01890144 53006=
201907270153 METAR KPAE 270153Z 35008KT 10SM CLR 22/14 A3005 RMK AO2 SLP175 T02170144=
201907270053 METAR KPAE 270053Z 33010KT 10SM CLR 23/14 A3004 RMK AO2 SLP170 T02330139=
201907262353 METAR KPAE 262353Z 36006KT 10SM CLR 25/13 A3004 RMK AO2 SLP169 T02500128 10272 20211 58009=
201907262253 METAR KPAE 262253Z 28007KT 250V310 10SM CLR 27/13 A3005 RMK AO2 SLP173 T02720128=
201907262153 METAR KPAE 262153Z 23006KT 10SM CLR 27/12 A3006 RMK AO2 SLP176 T02670117 $=
201907262053 METAR KPAE 262053Z 24009KT 10SM CLR 26/12 A3007 RMK AO2 SLP179 T02560117 58005 $=
201907261953 METAR KPAE 261953Z VRB05KT 10SM CLR 24/13 A3007 RMK AO2 SLP180 T02390133 $=
201907261853 METAR KPAE 261853Z 00000KT 10SM CLR 23/13 A3008 RMK AO2 SLP183 T02330128 $=
201907261753 METAR KPAE 261753Z 32006KT 10SM CLR 22/13 A3008 RMK AO2 SLP185 T02170133 10217 20144 $=
201907261653 METAR KPAE 261653Z VRB03KT 10SM CLR 20/14 A3009 RMK AO2 SLP186 T02000139 $=
201907261553 METAR KPAE 261553Z 30003KT 10SM CLR 18/13 A3008 RMK AO2 SLP184 T01830128=
201907261453 METAR KPAE 261453Z 01003KT 10SM CLR 17/13 A3007 RMK AO2 SLP180 T01720128 53008=
201907261353 METAR KPAE 261353Z 00000KT 10SM CLR 16/13 A3006 RMK AO2 SLP177 T01610133=
201907261253 METAR KPAE 261253Z AUTO 08004KT 10SM CLR 15/14 A3005 RMK AO2 SLP173 T01500139=
201907261153 METAR KPAE 261153Z AUTO 35005KT 10SM FEW002 14/14 A3005 RMK AO2 SLP172 T01440139 10167 20144 57001=
201907261136 SPECI KPAE 261136Z AUTO 36004KT 10SM FEW002 15/14 A3005 RMK AO2 T01500139=
201907261053 METAR KPAE 261053Z AUTO 36003KT 10SM CLR 16/14 A3005 RMK AO2 SLP172 T01560139=
201907260953 METAR KPAE 260953Z AUTO 34003KT 10SM CLR 15/14 A3005 RMK AO2 SLP173 T01500139=
201907260853 METAR KPAE 260853Z AUTO 35004KT 10SM CLR 16/14 A3005 RMK AO2 SLP173 T01560139 58003=
201907260753 METAR KPAE 260753Z AUTO 36006KT 10SM CLR 17/14 A3006 RMK AO2 SLP176 T01670139 402610128=
201907260653 METAR KPAE 260653Z AUTO 36008KT 10SM CLR 17/14 A3006 RMK AO2 SLP175 T01670139=
201907260553 METAR KPAE 260553Z AUTO 35009G16KT 10SM CLR 17/13 A3006 RMK AO2 SLP177 T01670133 10256 20167 58004=
201907260453 METAR KPAE 260453Z AUTO 36005KT 10SM CLR 17/13 A3007 RMK AO2 SLP181 T01720133=
201907260353 METAR KPAE 260353Z AUTO 36007KT 10SM CLR 19/08 A3007 RMK AO2 SLP180 T01940078=
201907260253 METAR KPAE 260253Z 35006KT 10SM CLR 22/07 A3007 RMK AO2 SLP181 T02220072 56012=
201907260153 METAR KPAE 260153Z 34006KT 10SM CLR 25/04 A3008 RMK AO2 SLP184 T02500044=
201907260053 METAR KPAE 260053Z 35008KT 10SM CLR 25/05 A3009 RMK AO2 SLP188 T02500050=
201907252353 METAR KPAE 252353Z 35008KT 10SM CLR 26/07 A3011 RMK AO2 SLP193 T02560067 10261 20200 58015=
201907252253 METAR KPAE 252253Z 35011KT 10SM CLR 25/08 A3013 RMK AO2 SLP200 T02500083=
201907252153 METAR KPAE 252153Z 35007KT 10SM CLR 25/08 A3014 RMK AO2 SLP205 T02500078=
201907252053 METAR KPAE 252053Z VRB06KT 10SM CLR 25/07 A3015 RMK AO2 SLP209 T02500072 58009=
201907251953 METAR KPAE 251953Z VRB06KT 10SM CLR 23/07 A3017 RMK AO2 SLP213 T02330072=
201907251853 METAR KPAE 251853Z 34006KT 10SM CLR 23/09 A3018 RMK AO2 SLP217 T02330089=
201907251753 METAR KPAE 251753Z 36006KT 10SM CLR 20/10 A3018 RMK AO2 SLP219 T02000100 10206 20128 58001=
201907251653 METAR KPAE 251653Z VRB03KT 10SM CLR 19/11 A3019 RMK AO2 SLP220 T01940106=
201907251553 METAR KPAE 251553Z 35004KT 10SM CLR 17/10 A3019 RMK AO2 SLP221 T01720100=
201907251453 METAR KPAE 251453Z 02004KT 10SM CLR 16/09 A3018 RMK AO2 SLP219 T01560094 56002=
201907251353 METAR KPAE 251353Z 02004KT 10SM CLR 14/11 A3018 RMK AO2 SLP219 T01390111=
201907251253 METAR KPAE 251253Z AUTO 02004KT 10SM CLR 13/12 A3019 RMK AO2 SLP220 T01330117=
201907251153 METAR KPAE 251153Z AUTO 35003KT 10SM CLR 13/11 A3019 RMK AO2 SLP221 T01280111 10167 20128 55002=
201907251053 METAR KPAE 251053Z AUTO 00000KT 10SM CLR 13/11 A3019 RMK AO2 SLP221 T01330111=
201907250953 METAR KPAE 250953Z AUTO 00000KT 10SM CLR 13/11 A3019 RMK AO2 SLP223 T01330111=
201907250853 METAR KPAE 250853Z AUTO 34003KT 10SM CLR 14/12 A3020 RMK AO2 SLP223 T01390117 58001=
201907250753 METAR KPAE 250753Z AUTO 36006KT 10SM CLR 14/11 A3020 RMK AO2 SLP226 T01440111 402330128=
201907250653 METAR KPAE 250653Z AUTO 02005KT 10SM CLR 16/11 A3020 RMK AO2 SLP226 T01560106=
201907250553 METAR KPAE 250553Z AUTO 01005KT 10SM CLR 16/11 A3020 RMK AO2 SLP226 T01610106 10228 20161 58005=
201907250453 METAR KPAE 250453Z AUTO 33004KT 10SM CLR 17/09 A3021 RMK AO2 SLP229 T01720094=
201907250353 METAR KPAE 250353Z AUTO 34003KT 10SM CLR 18/09 A3021 RMK AO2 SLP227 T01830089=
201907250253 METAR KPAE 250253Z 34005KT 10SM CLR 21/08 A3022 RMK AO2 SLP230 T02060078 56016=
201907250153 METAR KPAE 250153Z 35007KT 10SM CLR 22/08 A3023 RMK AO2 SLP234 T02170083=
201907250053 METAR KPAE 250053Z 01006KT 10SM CLR 23/09 A3024 RMK AO2 SLP240 T02280094=
201907242353 METAR KPAE 242353Z 34007KT 10SM CLR 22/09 A3026 RMK AO2 SLP246 T02220094 10233 20167 56015=
201907242253 METAR KPAE 242253Z 36008KT 10SM CLR 23/10 A3027 RMK AO2 SLP249 T02280100=
201907242153 METAR KPAE 242153Z VRB06KT 10SM SCT046 BKN055 22/11 A3029 RMK AO2 SLP256 T02170111=
201907242053 METAR KPAE 242053Z 00000KT 10SM SCT037 21/11 A3031 RMK AO2 SLP261 T02110106 50003=
201907241953 METAR KPAE 241953Z VRB05KT 10SM SCT037 SCT045 18/12 A3032 RMK AO2 SLP265 T01830117=
201907241907 SPECI KPAE 241907Z 28006KT 10SM BKN027 17/12 A3031 RMK AO2 T01720117=
201907241900 SPECI KPAE 241900Z 29007KT 10SM SCT033 BKN041 BKN050 17/12 A3031 RMK AO2 T01720117=
201907241853 METAR KPAE 241853Z 26007KT 10SM BKN027 18/12 A3031 RMK AO2 SLP263 T01780117=
201907241753 METAR KPAE 241753Z 28005KT 10SM BKN027 17/12 A3030 RMK AO2 SLP259 T01720117 10183 20133 53005=
201907241717 SPECI KPAE 241717Z 25007KT 10SM BKN025 BKN031 18/12 A3029 RMK AO2 T01780122=
201907241653 METAR KPAE 241653Z 18007KT 10SM FEW020 FEW027 SCT032 18/12 A3029 RMK AO2 SLP258 T01780117=
201907241645 SPECI KPAE 241645Z 21006KT 10SM FEW020 SCT026 BKN031 17/12 A3029 RMK AO2 T01720117=
201907241553 METAR KPAE 241553Z 20009KT 10SM BKN016 17/12 A3029 RMK AO2 SLP255 T01670122=
201907241453 METAR KPAE 241453Z 18005KT 10SM CLR 15/12 A3028 RMK AO2 SLP254 T01500122 51014=
201907241353 METAR KPAE 241353Z 16005KT 10SM FEW034 FEW050 13/11 A3028 RMK AO2 SLP251 T01330111=
201907241253 METAR KPAE 241253Z 15005KT 10SM BKN030 13/11 A3026 RMK AO2 SLP245 T01330111=
201907241223 SPECI KPAE 241223Z 15006KT 10SM SCT029 13/11 A3024 RMK AO2 T01330111=
201907241153 METAR KPAE 241153Z 13003KT 10SM OVC029 13/11 A3024 RMK AO2 SLP239 60001 70001 T01330111 10144 20128 53016=
201907241053 METAR KPAE 241053Z 11007KT 10SM BKN032 13/11 A3021 RMK AO2 SLP230 T01330111=
201907241030 SPECI KPAE 241030Z 11004KT 10SM OVC030 14/12 A3021 RMK AO2 T01390117=
201907241008 SPECI KPAE 241008Z 11005KT 10SM BKN026 OVC034 14/12 A3021 RMK AO2 T01390117=
201907240953 METAR KPAE 240953Z 10004KT 10SM OVC034 13/12 A3020 RMK AO2 RAE38 SLP226 P0001 T01330117=
201907240853 METAR KPAE 240853Z 04003KT 10SM -RA SCT035 OVC044 14/11 A3019 RMK AO2 RAB41 SLP223 P0000 60000 T01440106 53015=
201907240753 METAR KPAE 240753Z 01005KT 10SM BKN032 BKN040 OVC055 14/11 A3017 RMK AO2 SLP216 T01440106 402000139=
201907240653 METAR KPAE 240653Z 36003KT 10SM BKN036 OVC045 14/11 A3015 RMK AO2 SLP210 T01440106=
201907240553 METAR KPAE 240553Z VRB06KT 10SM OVC034 14/11 A3015 RMK AO2 SLP207 T01440106 10189 20144 50015=
201907240549 SPECI KPAE 240549Z 36007KT 10SM OVC036 14/11 A3015 RMK AO2=
201907240521 SPECI KPAE 240521Z 02007KT 10SM BKN029 OVC040 14/11 A3013 RMK AO2 T01440111=
201907240453 METAR KPAE 240453Z 01008KT 10SM SCT030 BKN038 BKN049 14/12 A3012 RMK AO2 SLP197 T01440117=
201907240421 SPECI KPAE 240421Z 35004KT 10SM SCT028 BKN036 OVC044 14/12 A3011 RMK AO2 T01440117=
201907240353 METAR KPAE 240353Z 36007KT 10SM BKN027 OVC036 15/12 A3010 RMK AO2 SLP192 T01500117=
201907240253 METAR KPAE 240253Z 36010G14KT 10SM BKN028 BKN034 OVC048 16/11 A3009 RMK AO2 SLP189 T01560111 58001=
201907240153 METAR KPAE 240153Z 01006KT 10SM BKN024 BKN030 OVC048 17/12 A3009 RMK AO2 SLP188 T01670117=
201907240125 SPECI KPAE 240125Z 34006KT 10SM OVC027 16/12 A3010 RMK AO2 T01610117=
201907240100 SPECI KPAE 240100Z 35007KT 10SM FEW023 OVC030 17/12 A3010 RMK AO2 T01670117=
201907240053 METAR KPAE 240053Z 35007KT 10SM OVC027 17/12 A3010 RMK AO2 SLP191 T01720117=
201907232353 METAR KPAE 232353Z AUTO 25006KT 10SM OVC027 18/13 A3009 RMK AO2 SLP189 T01830133 10200 20167 55004=
201907232253 METAR KPAE 232253Z AUTO 24008KT 10SM OVC027 19/13 A3009 RMK AO2 SLP189 T01940128=
201907232153 METAR KPAE 232153Z 28005KT 10SM OVC021 19/13 A3010 RMK AO2 SLP191 T01890133=
201907232053 METAR KPAE 232053Z 30005KT 10SM OVC018 19/13 A3011 RMK AO2 SLP193 T01890133 51001=
201907231953 METAR KPAE 231953Z VRB05KT 10SM OVC016 18/13 A3011 RMK AO2 SLP193 T01830133=
201907231920 SPECI KPAE 231920Z 31006KT 10SM OVC015 18/13 A3011 RMK AO2 T01780133=
201907231853 METAR KPAE 231853Z VRB04KT 10SM OVC013 17/13 A3011 RMK AO2 SLP194 T01720133=
201907231753 METAR KPAE 231753Z 29004KT 10SM FEW008 OVC011 17/13 A3010 RMK AO2 SLP192 T01670133 10167 20144 56002=
201907231653 METAR KPAE 231653Z VRB04KT 10SM OVC009 17/13 A3010 RMK AO2 SLP193 T01670133=
201907231648 SPECI KPAE 231648Z 01003KT 10SM OVC010 16/13 A3011 RMK AO2=
201907231553 METAR KPAE 231553Z 00000KT 10SM OVC007 16/13 A3011 RMK AO2 CIG 007V010 SLP194 T01560133=
201907231453 METAR KPAE 231453Z 06004KT 10SM OVC006 15/13 A3011 RMK AO2 SLP194 T01500133 51007=
201907231353 METAR KPAE 231353Z VRB05KT 10SM OVC007 15/13 A3010 RMK AO2 SLP192 T01500133=
201907231253 METAR KPAE 231253Z AUTO 05004KT 10SM BKN007 14/13 A3010 RMK AO2 SLP191 T01440133=
201907231246 SPECI KPAE 231246Z AUTO 05004KT 10SM BKN006 14/13 A3010 RMK AO2 T01440128=
201907231238 SPECI KPAE 231238Z AUTO VRB04KT 10SM SCT006 14/13 A3010 RMK AO2 T01440128=
201907231153 METAR KPAE 231153Z AUTO 04004KT 10SM CLR 14/13 A3009 RMK AO2 SLP186 T01440128 10167 20144 53002=
201907231053 METAR KPAE 231053Z AUTO VRB04KT 10SM FEW006 14/13 A3008 RMK AO2 SLP185 T01440133=
201907230953 METAR KPAE 230953Z AUTO 02005KT 10SM FEW006 15/13 A3008 RMK AO2 SLP184 T01500133=
201907230948 SPECI KPAE 230948Z AUTO 02003KT 10SM FEW006 15/13 A3008 RMK AO2=
201907230853 METAR KPAE 230853Z AUTO 02007KT 10SM CLR 15/13 A3008 RMK AO2 SLP183 T01500133 50001=
201907230753 METAR KPAE 230753Z AUTO 02005KT 10SM CLR 15/13 A3008 RMK AO2 SLP183 T01500128 402500139=
201907230653 METAR KPAE 230653Z AUTO 02006KT 10SM CLR 16/13 A3007 RMK AO2 SLP182 T01610128=
201907230553 METAR KPAE 230553Z AUTO 02006KT 10SM CLR 17/13 A3007 RMK AO2 SLP182 T01670128 10228 20167 51003=
201907230453 METAR KPAE 230453Z AUTO 01005KT 10SM CLR 17/13 A3007 RMK AO2 SLP181 T01670133=
201907230353 METAR KPAE 230353Z 36007KT 10SM CLR 17/13 A3007 RMK AO2 SLP179 T01670133=
201907230253 METAR KPAE 230253Z 36007KT 10SM CLR 18/13 A3006 RMK AO2 SLP178 T01780128 55000=
201907230153 METAR KPAE 230153Z 01008G15KT 10SM CLR 19/13 A3006 RMK AO2 SLP178 T01940128=
201907230053 METAR KPAE 230053Z 36010KT 10SM CLR 21/12 A3006 RMK AO2 SLP177 T02110122=
201907222353 METAR KPAE 222353Z 35007KT 10SM CLR 23/11 A3007 RMK AO2 SLP179 T02280111 10250 20183 58001=
201907222253 METAR KPAE 222253Z 28007KT 10SM CLR 24/12 A3007 RMK AO2 SLP180 T02390117=
201907222153 METAR KPAE 222153Z 26009G17KT 10SM CLR 23/12 A3007 RMK AO2 SLP182 T02330117=
201907222053 METAR KPAE 222053Z 26009KT 10SM CLR 22/12 A3007 RMK AO2 SLP180 T02170122 51004=
201907221953 METAR KPAE 221953Z 24008KT 10SM CLR 22/12 A3006 RMK AO2 SLP178 T02170122=
201907221853 METAR KPAE 221853Z 23008KT 10SM CLR 20/12 A3006 RMK AO2 SLP178 T02000117=
201907221753 METAR KPAE 221753Z 27006KT 10SM CLR 19/12 A3006 RMK AO2 SLP176 T01890117 10200 20139 51008=
201907221653 METAR KPAE 221653Z 26005KT 10SM CLR 18/12 A3005 RMK AO2 SLP174 T01830122=
201907221553 METAR KPAE 221553Z 15005KT 10SM CLR 19/08 A3004 RMK AO2 SLP170 T01890083=
201907221353 METAR KPAE 221353Z 24003KT 10SM CLR 16/07 A3002 RMK AO2 SLP163 T01560072=
201907221253 METAR KPAE 221253Z 00000KT 10SM CLR 15/07 A3000 RMK AO2 SLP155 T01500072=
201907221153 METAR KPAE 221153Z 00000KT 10SM CLR 16/06 A2999 RMK AO2 SLP153 T01560061 10167 20150 51003=
201907221053 METAR KPAE 221053Z 05004KT 10SM CLR 16/07 A2999 RMK AO2 SLP152 T01560067=
201907220953 METAR KPAE 220953Z 00000KT 10SM CLR 16/08 A2999 RMK AO2 SLP153 T01560078=
201907220853 METAR KPAE 220853Z 00000KT 10SM CLR 16/08 A2998 RMK AO2 SLP150 T01560078 53006=
201907220753 METAR KPAE 220753Z 02005KT 10SM CLR 16/08 A2998 RMK AO2 SLP147 T01610078 402830128=
201907220653 METAR KPAE 220653Z 36006KT 10SM CLR 16/07 A2997 RMK AO2 SLP146 T01610072=
201907220553 METAR KPAE 220553Z 36009KT 10SM CLR 17/06 A2997 RMK AO2 SLP145 T01670056 10267 20167 53006=
201907220453 METAR KPAE 220453Z 01006KT 10SM CLR 17/07 A2996 RMK AO2 SLP143 T01720072=
201907220353 METAR KPAE 220353Z 02007KT 10SM CLR 18/10 A2995 RMK AO2 SLP140 T01780100=
201907220253 METAR KPAE 220253Z 35007KT 10SM CLR 20/10 A2995 RMK AO2 SLP139 T02000100 55004=
201907220153 METAR KPAE 220153Z 35007KT 10SM CLR 23/09 A2994 RMK AO2 SLP137 T02280094=
201907220053 METAR KPAE 220053Z 34007KT 10SM CLR 26/09 A2995 RMK AO2 SLP140 T02560089=
201907212353 METAR KPAE 212353Z 35007KT 10SM CLR 26/09 A2996 RMK AO2 SLP142 T02610094 10283 20222 58010=
201907212253 METAR KPAE 212253Z 36007KT 10SM CLR 26/11 A2997 RMK AO2 SLP145 T02610106=
201907212153 METAR KPAE 212153Z 35007KT 10SM CLR 27/10 A2998 RMK AO2 SLP150 T02720100=
201907212053 METAR KPAE 212053Z VRB05KT 10SM CLR 27/11 A2999 RMK AO2 SLP152 T02720106 58009=
201907211953 METAR KPAE 211953Z 29004KT 10SM CLR 26/12 A3000 RMK AO2 SLP156 T02610117=
201907211853 SPECI KPAE 211853Z 33004KT 10SM CLR 23/12 A3002 RMK AO2 SLP162 T02330122=
201907211853 METAR KPAE 211853Z 33004KT 10SM CLR 23/12 A3002 RMK AO2 SLP162 T02330122=
201907211753 METAR KPAE 211753Z VRB05KT 10SM CLR 22/11 A3002 RMK AO2 SLP161 T02220111 10222 20128 50000=
201907211653 METAR KPAE 211653Z 31005KT 10SM CLR 21/12 A3002 RMK AO2 SLP162 T02060122=
201907211553 METAR KPAE 211553Z VRB03KT 10SM CLR 21/12 A3002 RMK AO2 SLP163 T02060122=
201907211453 METAR KPAE 211453Z 02003KT 10SM CLR 18/11 A3002 RMK AO2 SLP162 T01780111 51008=
201907211353 METAR KPAE 211353Z 01004KT 10SM CLR 16/11 A3001 RMK AO2 SLP160 T01560111=
201907211253 METAR KPAE 211253Z AUTO 02003KT 10SM CLR 13/10 A3000 RMK AO2 SLP158 T01330100=
201907211153 METAR KPAE 211153Z AUTO 01004KT 10SM CLR 14/10 A2999 RMK AO2 SLP154 T01390100 10178 20128 56005=
201907211053 METAR KPAE 211053Z AUTO 35003KT 10SM CLR 13/11 A2999 RMK AO2 SLP154 T01330106=
201907210953 METAR KPAE 210953Z AUTO 03004KT 10SM CLR 15/11 A2999 RMK AO2 SLP154 T01500106=
201907210853 METAR KPAE 210853Z AUTO 36004KT 10SM CLR 14/09 A3001 RMK AO2 SLP159 T01390094 58005=
201907210753 METAR KPAE 210753Z AUTO 01003KT 10SM CLR 14/10 A3002 RMK AO2 SLP164 T01440100 402330106=
201907210653 METAR KPAE 210653Z AUTO 36003KT 10SM CLR 16/09 A3002 RMK AO2 SLP164 T01560094=
201907210553 METAR KPAE 210553Z AUTO 36005KT 10SM CLR 17/09 A3002 RMK AO2 SLP164 T01720094 10233 20172 53000=
201907210453 METAR KPAE 210453Z AUTO 35003KT 10SM CLR 19/09 A3002 RMK AO2 SLP163 T01890094=
201907210353 METAR KPAE 210353Z 35003KT 10SM CLR 19/09 A3001 RMK AO2 SLP162 T01940094=
201907210253 METAR KPAE 210253Z 33004KT 10SM CLR 21/09 A3002 RMK AO2 SLP164 T02110094 56014=
201907210153 METAR KPAE 210153Z 35006KT 10SM CLR 22/09 A3003 RMK AO2 SLP168 T02220094=
201907210053 METAR KPAE 210053Z 36006KT 10SM CLR 23/09 A3005 RMK AO2 SLP173 T02330094=
201907202353 METAR KPAE 202353Z 35006KT 10SM CLR 23/09 A3006 RMK AO2 SLP178 T02280094 10233 20183 58014=
201907202253 METAR KPAE 202253Z 36008KT 10SM CLR 23/09 A3007 RMK AO2 SLP182 T02280094=
201907202153 METAR KPAE 202153Z 31006KT 10SM CLR 23/09 A3009 RMK AO2 SLP187 T02280094=
201907202053 METAR KPAE 202053Z VRB06KT 10SM CLR 21/09 A3010 RMK AO2 SLP193 T02110094 58010=
201907201953 METAR KPAE 201953Z VRB05KT 10SM CLR 21/09 A3012 RMK AO2 SLP197 T02060089=
201907201853 METAR KPAE 201853Z 01007KT 10SM CLR 19/09 A3013 RMK AO2 SLP201 T01940089=
201907201753 METAR KPAE 201753Z 01006KT 10SM CLR 19/09 A3013 RMK AO2 SLP203 T01890094 10189 20106 58001=
201907201653 METAR KPAE 201653Z 35004KT 10SM CLR 17/09 A3015 RMK AO2 SLP207 T01670094=
201907201553 METAR KPAE 201553Z 00000KT 10SM CLR 15/11 A3014 RMK AO2 SLP206 T01500106=
201907201453 METAR KPAE 201453Z 02005KT 10SM CLR 13/11 A3014 RMK AO2 SLP204 T01330106 53002=
201907201353 METAR KPAE 201353Z 01004KT 10SM CLR 12/11 A3013 RMK AO2 SLP202 T01220106=
201907201253 METAR KPAE 201253Z AUTO VRB03KT 10SM CLR 11/09 A3013 RMK AO2 SLP201 T01110094=
201907201153 METAR KPAE 201153Z AUTO 04003KT 10SM CLR 12/09 A3013 RMK AO2 SLP203 T01170094 10133 20117 53001=
201907201053 METAR KPAE 201053Z AUTO VRB03KT 10SM CLR 12/10 A3013 RMK AO2 SLP202 T01220100=
201907200953 METAR KPAE 200953Z AUTO 36005KT 10SM CLR 12/10 A3013 RMK AO2 SLP201 T01220100=
201907200853 METAR KPAE 200853Z AUTO 35007KT 10SM CLR 12/11 A3013 RMK AO2 SLP201 T01220106 58002=
201907200753 METAR KPAE 200753Z AUTO 36007KT 10SM CLR 12/11 A3013 RMK AO2 SLP202 T01220106 402060111=
201907200653 METAR KPAE 200653Z AUTO 36004KT 10SM CLR 12/10 A3013 RMK AO2 SLP204 T01220100=
201907200553 METAR KPAE 200553Z AUTO 36007KT 10SM CLR 13/10 A3013 RMK AO2 SLP204 T01330100 10206 20133 53002=
201907200453 METAR KPAE 200453Z AUTO VRB03KT 10SM CLR 14/09 A3013 RMK AO2 SLP204 T01390094=
201907200353 METAR KPAE 200353Z 35005KT 10SM CLR 15/08 A3012 RMK AO2 SLP200 T01500078=
201907200253 METAR KPAE 200253Z 34006KT 10SM CLR 17/07 A3013 RMK AO2 SLP201 T01670072 56007=
201907200153 METAR KPAE 200153Z 35006KT 10SM CLR 19/07 A3013 RMK AO2 SLP201 T01890067=
201907200053 METAR KPAE 200053Z 35008KT 10SM CLR 19/06 A3014 RMK AO2 SLP205 T01940061=
201907192353 METAR KPAE 192353Z 35007KT 10SM CLR 21/06 A3015 RMK AO2 SLP208 T02060056 10206 20150 56005=
201907192253 METAR KPAE 192253Z 35005KT 10SM CLR 19/08 A3016 RMK AO2 SLP211 T01940083=
201907192153 METAR KPAE 192153Z 27007KT 10SM CLR 19/10 A3016 RMK AO2 SLP211 T01890100=
201907192053 METAR KPAE 192053Z 27005KT 10SM CLR 18/07 A3016 RMK AO2 SLP213 T01830072 58001=
201907191953 METAR KPAE 191953Z 31006KT 10SM CLR 17/09 A3017 RMK AO2 SLP215 T01720094=
201907191853 METAR KPAE 191853Z 34004KT 10SM SCT020 BKN049 16/11 A3017 RMK AO2 SLP216 T01560106=
201907191755 SPECI KPAE 191755Z VRB03KT 10SM FEW017 SCT039 BKN047 15/10 A3017 RMK AO2 T01500100=
201907191753 METAR KPAE 191753Z 28005KT 10SM SCT008 BKN014 16/11 A3017 RMK AO2 SLP216 T01560106 10156 20111 51009=
201907191704 SPECI KPAE 191704Z 31005KT 10SM SCT008 BKN014 15/11 A3017 RMK AO2 T01500106=
201907191653 METAR KPAE 191653Z 29005KT 10SM OVC036 14/10 A3016 RMK AO2 SLP215 T01390100=
201907191553 METAR KPAE 191553Z 02003KT 10SM FEW017 OVC033 14/09 A3016 RMK AO2 SLP212 T01390094=
201907191453 METAR KPAE 191453Z 01003KT 10SM SCT035 13/09 A3014 RMK AO2 SLP206 T01280089 53012=
201907191353 METAR KPAE 191353Z 35003KT 10SM SCT033 12/09 A3013 RMK AO2 SLP203 T01220089=
201907191253 METAR KPAE 191253Z AUTO VRB03KT 10SM CLR 11/09 A3011 RMK AO2 SLP197 T01110089=
201907191153 METAR KPAE 191153Z AUTO 33004KT 10SM OVC070 12/10 A3011 RMK AO2 SLP193 60003 70021 T01170100 10133 20117 53009=
201907191053 METAR KPAE 191053Z AUTO 36006KT 10SM OVC070 12/10 A3009 RMK AO2 SLP189 T01170100=
201907191030 SPECI KPAE 191030Z AUTO 01005KT 10SM SCT018 OVC080 12/10 A3009 RMK AO2 T01170100=
201907191014 SPECI KPAE 191014Z AUTO 35004KT 10SM BKN018 BKN045 OVC080 12/10 A3009 RMK AO2 T01170100=
201907190953 METAR KPAE 190953Z AUTO 36003KT 10SM FEW019 BKN044 OVC080 12/10 A3009 RMK AO2 SLP187 T01170100=
201907190853 METAR KPAE 190853Z AUTO 02005KT 10SM SCT042 BKN080 12/10 A3008 RMK AO2 SLP184 60003 T01220100 50001=
201907190753 METAR KPAE 190753Z AUTO VRB05KT 10SM SCT065 OVC085 13/11 A3008 RMK AO2 RAE46 SLP185 P0000 T01280106 402000128=
201907190653 METAR KPAE 190653Z AUTO 00000KT 9SM -RA OVC065 13/11 A3008 RMK AO2 SLP184 P0003 T01280106=
201907190553 METAR KPAE 190553Z AUTO 00000KT 10SM -RA OVC060 13/11 A3008 RMK AO2 RAB17 SLP184 P0001 60018 T01280106 10194 20128 51008=
201907190453 METAR KPAE 190453Z AUTO 33005KT 10SM BKN043 OVC055 13/11 A3007 RMK AO2 RAE47 SLP183 P0005 T01330106=
201907190353 METAR KPAE 190353Z 36004KT 10SM -RA OVC065 13/12 A3006 RMK AO2 SLP178 P0010 T01330117=
201907190253 METAR KPAE 190253Z 35005KT 6SM -RA BR OVC065 14/12 A3005 RMK AO2 RAB07 SLP176 P0002 60002 T01390117 55003=
201907190153 METAR KPAE 190153Z 36009KT 10SM OVC055 16/10 A3005 RMK AO2 RAB02E13 SLP175 P0000 T01560100=
201907190053 METAR KPAE 190053Z VRB05KT 10SM OVC060 17/09 A3006 RMK AO2 SLP178 T01720094=
201907182353 METAR KPAE 182353Z 36005KT 10SM FEW050 BKN065 OVC080 19/09 A3006 RMK AO2 SLP178 60000 T01940089 10200 20161 58003=
201907182253 METAR KPAE 182253Z AUTO 27007KT 10SM OVC065 18/09 A3007 RMK AO2 SLP180 T01830089=
201907182209 SPECI KPAE 182209Z 35006KT 10SM BKN065 BKN085 19/08 A3008 RMK AO2 T01940083=
201907182153 METAR KPAE 182153Z VRB03KT 10SM BKN025 BKN070 18/11 A3007 RMK AO2 RAB09E50 SLP183 P0000 T01830106=
201907182053 METAR KPAE 182053Z 28006KT 10SM BKN020 BKN035 BKN070 19/09 A3007 RMK AO2 RAB42E52 SLP181 P0000 60000 T01890089 51002=
201907181953 METAR KPAE 181953Z VRB03KT 10SM BKN020 BKN030 BKN070 19/10 A3007 RMK AO2 SLP181 T01940100=
201907181911 SPECI KPAE 181911Z 00000KT 10SM BKN023 BKN075 18/11 A3007 RMK AO2 T01780106=
201907181907 SPECI KPAE 181907Z 24003KT 10SM FEW023 BKN075 17/11 A3007 RMK AO2 T01720106=
201907181853 METAR KPAE 181853Z VRB03KT 10SM BKN023 BKN075 18/12 A3007 RMK AO2 SLP183 T01780117=
201907181828 SPECI KPAE 181828Z 00000KT 10SM BKN022 OVC070 17/11 A3007 RMK AO2 T01670111=
201907181753 METAR KPAE 181753Z VRB03KT 10SM FEW025 BKN030 OVC065 16/11 A3006 RMK AO2 SLP179 60000 T01610106 10161 20128 50009=
201907181711 SPECI KPAE 181711Z 19005KT 10SM SCT015 BKN065 15/12 A3006 RMK AO2 T01500117=
201907181653 METAR KPAE 181653Z 26003KT 10SM FEW006 SCT010 BKN015 14/11 A3006 RMK AO2 SLP180 T01440111=
201907181602 SPECI KPAE 181602Z 10005KT 10SM SCT006 BKN010 OVC015 14/11 A3006 RMK AO2 T01390111=
201907181553 METAR KPAE 181553Z 10005KT 10SM BKN006 OVC012 14/12 A3006 RMK AO2 SLP178 T01440117=
201907181531 SPECI KPAE 181531Z 00000KT 10SM BKN006 OVC012 14/11 A3005 RMK AO2 T01390111=
201907181509 SPECI KPAE 181509Z VRB03KT 10SM BKN010 BKN015 OVC020 14/12 A3004 RMK AO2 CIG 008V012 T01390117=
201907181500 SPECI KPAE 181500Z VRB03KT 10SM SCT012 OVC020 14/11 A3003 RMK AO2 T01390111=
201907181453 METAR KPAE 181453Z 07004KT 10SM FEW008 SCT024 OVC060 14/11 A3003 RMK AO2 SLP169 60000 T01390106 52012=
201907181356 SPECI KPAE 181356Z 02006KT 10SM FEW008 SCT024 OVC060 13/10 A3003 RMK AO2 T01330100=
201907181353 METAR KPAE 181353Z 02006KT 10SM FEW024 OVC060 13/10 A3003 RMK AO2 RAE00 SLP166 P0000 T01330100=
201907181253 METAR KPAE 181253Z AUTO 02004KT 10SM -RA FEW020 FEW028 OVC060 13/11 A3001 RMK AO2 RAB00E31B50 SLP161 P0000 T01330106=
201907181153 METAR KPAE 181153Z AUTO VRB04KT 10SM SCT026 OVC055 13/11 A3000 RMK AO2 RAE34 SLP157 P0006 60015 70031 T01280106 10139 20128 53012=
201907181053 METAR KPAE 181053Z AUTO 33005KT 9SM -RA FEW021 OVC047 13/11 A2999 RMK AO2 RAB0958 SLP154 P0001 T01280111=
201907180953 METAR KPAE 180953Z AUTO 35006KT 10SM FEW016 OVC042 13/12 A2997 RMK AO2 RAE39 SLP146 P0002 T01280117=
201907180942 SPECI KPAE 180942Z AUTO 35008KT 10SM FEW011 SCT017 OVC041 13/12 A2996 RMK AO2 RAE39 P0002 T01280117=
201907180853 METAR KPAE 180853Z AUTO 36008KT 8SM -RA BKN015 OVC036 13/12 A2996 RMK AO2 SLP145 P0002 60006 T01280117 53017=
201907180830 SPECI KPAE 180830Z AUTO 36007KT 9SM -RA FEW010 BKN016 OVC036 13/12 A2996 RMK AO2 P0001 T01330122=
201907180753 METAR KPAE 180753Z AUTO 36010KT 5SM RA BR FEW007 BKN013 OVC031 13/12 A2994 RMK AO2 SLP136 P0003 T01280122 402060128=
201907180653 METAR KPAE 180653Z AUTO 01005KT 4SM -RA BR FEW006 BKN013 OVC024 13/13 A2993 RMK AO2 RAB0555 SLP133 P0001 T01330128=
201907180641 SPECI KPAE 180641Z AUTO 02005KT 5SM -RA BR SCT007 BKN013 OVC024 13/13 A2992 RMK AO2 RAB0555 P0000 T01330128=
201907180628 SPECI KPAE 180628Z AUTO 01005KT 8SM -RA FEW004 BKN009 OVC012 14/13 A2992 RMK AO2 RAB0555 CIG 007V012 P0000 T01390128=
201907180553 METAR KPAE 180553Z AUTO 33006KT 9SM SCT006 BKN012 OVC019 14/13 A2991 RMK AO2 RAE49 SLP128 P0001 60012 T01390133 10200 20139 52007=
201907180539 SPECI KPAE 180539Z AUTO VRB06KT 5SM -RA BR BKN006 BKN009 OVC017 14/13 A2991 RMK AO2 CIG 002V008 P0001 T01390133=
201907180506 SPECI KPAE 180506Z AUTO 34004KT 5SM -RA BR OVC003 14/13 A2991 RMK AO2 CIG 002V006 P0000 T01390133=
201907180453 METAR KPAE 180453Z AUTO VRB03KT 2 1/2SM RA BR OVC003 14/13 A2990 RMK AO2 SLP125 P0006 T01390133=
201907180400 SPECI KPAE 180400Z AUTO VRB05KT 3SM -RA BR OVC002 14/14 A2990 RMK AO2 P0000 T01390139=
201907180353 METAR KPAE 180353Z 33004KT 1 1/4SM -RA BR OVC002 14/14 A2990 RMK AO2 RAB08 SLP123 P0005 T01440139=
201907180318 SPECI KPAE 180318Z 36007KT 1/2SM R16R/P6000FT -RA FG BKN002 BKN010 OVC017 15/14 A2989 RMK AO2 RAB08 P0001 T01500144=
201907180253 METAR KPAE 180253Z VRB03KT 10SM BKN007 OVC015 17/14 A2989 RMK AO2 SLP121 T01720144 53003=
201907180228 SPECI KPAE 180228Z 21006KT 10SM BKN007 BKN017 OVC024 17/15 A2989 RMK AO2 T01720150=
201907180216 SPECI KPAE 180216Z 00000KT 10SM SCT007 BKN014 OVC024 17/15 A2989 RMK AO2 T01670150=
201907180153 METAR KPAE 180153Z 35004KT 10SM FEW002 OVC006 16/15 A2988 RMK AO2 SLP118 VIS N 1 1/2 T01610150=
201907180053 METAR KPAE 180053Z 24007KT 10SM BKN006 BKN017 OVC024 17/15 A2988 RMK AO2 SLP117 T01720150=
201907180029 SPECI KPAE 180029Z 25008KT 10SM BKN006 BKN017 OVC024 17/14 A2988 RMK AO2 T01670139=
201907172353 METAR KPAE 172353Z 19014G22KT 10SM BKN018 BKN024 OVC047 20/14 A2988 RMK AO2 PK WND 20028/2254 SLP116 60001 T02000144 10206 20161 58002=
201907172253 METAR KPAE 172253Z 20018G26KT 10SM BKN019 OVC026 20/14 A2989 RMK AO2 PK WND 20027/2241 SLP118 T02000144=
201907172153 METAR KPAE 172153Z 19017G25KT 10SM BKN022 OVC029 21/14 A2988 RMK AO2 PK WND 20029/2141 RAB08E33 SLP117 P0000 T02060144=
201907172100 SPECI KPAE 172100Z 20017G23KT 10SM OVC020 19/14 A2988 RMK AO2 T01940139=
201907172053 METAR KPAE 172053Z 18015G25KT 10SM SCT022 BKN070 19/14 A2989 RMK AO2 PK WND 15026/2025 SLP118 60001 T01940139 53004=
201907172001 SPECI KPAE 172001Z 18014KT 10SM SCT022 BKN075 BKN100 20/14 A2987 RMK AO2 T02000144=
201907171953 METAR KPAE 171953Z 18014G22KT 10SM BKN020 BKN070 OVC095 20/15 A2987 RMK AO2 PK WND 15030/1932 RAE44 SLP112 P0001 T02000150=
201907171853 METAR KPAE 171853Z 17014G21KT 10SM -RA SCT006 BKN015 OVC022 18/13 A2987 RMK AO2 RAB49 SLP113 P0000 T01780128=
201907171828 SPECI KPAE 171828Z 17016G23KT 10SM SCT006 BKN015 OVC022 18/13 A2987 RMK AO2 T01830128=
201907171753 METAR KPAE 171753Z 16015G24KT 10SM SCT006 BKN014 OVC032 17/13 A2987 RMK AO2 PK WND 16027/1734 SLP114 60003 T01670133 10167 20150 58007=
201907171709 SPECI KPAE 171709Z 16018G24KT 10SM SCT006 BKN014 OVC032 17/13 A2987 RMK AO2 T01670128=
201907171653 METAR KPAE 171653Z 16016G23KT 10SM BKN010 BKN030 OVC110 16/13 A2988 RMK AO2 RAE1554 SLP116 P0000 T01610128=
201907171553 METAR KPAE 171553Z 16015G23KT 10SM -RA FEW036 BKN070 OVC095 16/13 A2989 RMK AO2 RAB26 SLP121 P0000 T01610133=
201907171453 METAR KPAE 171453Z 15013G20KT 10SM FEW017 BKN070 OVC110 16/13 A2989 RMK AO2 RAE51 SLP121 P0000 60003 T01560133 58001=
201907171353 METAR KPAE 171353Z 16015KT 10SM -RA FEW046 BKN060 OVC085 15/13 A2990 RMK AO2 SLP123 P0003 T01500133=
201907171253 METAR KPAE 171253Z AUTO 17013G21KT 10SM -RA SCT018 BKN044 OVC080 16/13 A2990 RMK AO2 RAB24 SLP122 P0000 T01610128=
201907171243 SPECI KPAE 171243Z AUTO 17012G19KT 10SM -RA SCT018 BKN032 OVC080 16/13 A2990 RMK AO2 RAB24 P0000 T01610128=
201907171231 SPECI KPAE 171231Z AUTO 17017G23KT 10SM -RA BKN019 OVC034 17/13 A2990 RMK AO2 RAB24 P0000 T01670128=
201907171153 METAR KPAE 171153Z AUTO 17012G20KT 10SM FEW021 OVC037 17/12 A2990 RMK AO2 RAB37E51 SLP121 P0000 60000 T01670122 10172 20161 56012=
201907171053 METAR KPAE 171053Z AUTO 16015KT 10SM SCT044 BKN055 17/12 A2991 RMK AO2 SLP124 T01670122=
201907170953 METAR KPAE 170953Z AUTO 18011KT 10SM BKN040 BKN055 OVC070 17/12 A2992 RMK AO2 SLP127 T01720122=
201907170853 METAR KPAE 170853Z AUTO VRB03KT 10SM OVC043 17/12 A2993 RMK AO2 SLP133 T01720117 58007=
201907170836 SPECI KPAE 170836Z AUTO 11004KT 10SM SCT027 OVC044 17/12 A2994 RMK AO2 T01720117=
201907170809 SPECI KPAE 170809Z AUTO 00000KT 10SM OVC029 17/12 A2995 RMK AO2 T01720117=
201907170753 METAR KPAE 170753Z AUTO 10003KT 10SM BKN030 17/12 A2995 RMK AO2 SLP138 T01720117 402500144=
201907170653 METAR KPAE 170653Z AUTO 00000KT 10SM SCT060 17/12 A2995 RMK AO2 SLP140 T01670117=
201907170553 METAR KPAE 170553Z AUTO 00000KT 10SM SCT055 16/12 A2995 RMK AO2 SLP141 T01610117 10239 20161 56002=
201907170453 METAR KPAE 170453Z AUTO 36005KT 10SM FEW050 16/12 A2996 RMK AO2 SLP141 T01610117=
201907170353 METAR KPAE 170353Z AUTO 35005KT 10SM SCT050 16/12 A2995 RMK AO2 SLP142 T01610122=
201907170253 METAR KPAE 170253Z 36006KT 10SM CLR 18/12 A2996 RMK AO2 SLP145 T01830122 56003=
201907170153 METAR KPAE 170153Z 36008KT 10SM CLR 21/13 A2997 RMK AO2 SLP145 T02060128=
201907170053 METAR KPAE 170053Z 34006KT 10SM CLR 22/13 A2997 RMK AO2 SLP145 T02220128=
201907162353 METAR KPAE 162353Z 28007KT 10SM CLR 24/12 A2997 RMK AO2 SLP146 T02390117 10250 20200 57016=
201907162253 METAR KPAE 162253Z AUTO 25006KT 10SM CLR 24/12 A2999 RMK AO2 SLP151 T02390117=
201907162153 METAR KPAE 162153Z 26008KT 10SM CLR 23/12 A3000 RMK AO2 SLP157 T02330117=
201907162053 METAR KPAE 162053Z 29008KT 250V310 10SM CLR 23/13 A3002 RMK AO2 SLP162 T02330133 58007=
201907161953 METAR KPAE 161953Z VRB04KT 10SM SCT043 22/13 A3003 RMK AO2 SLP166 T02220133=
201907161853 METAR KPAE 161853Z 27006KT 10SM FEW043 22/14 A3004 RMK AO2 SLP171 T02170139=
201907161753 METAR KPAE 161753Z VRB04KT 10SM SCT020 21/14 A3004 RMK AO2 SLP171 T02060139 10206 20144 56003=
201907161702 SPECI KPAE 161702Z VRB04KT 10SM SCT020 19/13 A3004 RMK AO2 T01890133=
201907161653 METAR KPAE 161653Z 34004KT 10SM BKN020 19/13 A3004 RMK AO2 SLP171 T01890133=
201907161648 SPECI KPAE 161648Z 36004KT 10SM BKN020 BKN030 20/13 A3004 RMK AO2=
201907161627 SPECI KPAE 161627Z 00000KT 10SM SCT022 BKN030 18/13 A3005 RMK AO2 T01780133=
201907161600 SPECI KPAE 161600Z 00000KT 10SM OVC021 17/14 A3005 RMK AO2 T01720139=
201907161553 METAR KPAE 161553Z 00000KT 10SM SCT019 OVC045 17/14 A3005 RMK AO2 SLP174 T01720144=
201907161500 SPECI KPAE 161500Z 02004KT 10SM SCT019 OVC045 16/14 A3005 RMK AO2 T01610139=
201907161453 METAR KPAE 161453Z 02003KT 10SM BKN019 OVC045 16/14 A3005 RMK AO2 SLP173 T01610139 53003=
201907161436 SPECI KPAE 161436Z 02004KT 10SM SCT003 BKN043 16/14 A3005 RMK AO2 T01560139=
201907161353 METAR KPAE 161353Z 34004KT 10SM OVC002 15/14 A3004 RMK AO2 SLP173 T01500139=
201907161331 SPECI KPAE 161331Z AUTO VRB04KT 10SM BKN002 OVC040 15/13 A3004 RMK AO2 CIG 001V005 T01500133=
201907161321 SPECI KPAE 161321Z AUTO 34005KT 10SM SCT004 OVC040 15/13 A3004 RMK AO2 T01500133=
201907161253 METAR KPAE 161253Z AUTO 02003KT 10SM OVC039 16/13 A3004 RMK AO2 SLP170 T01560133=
201907161153 METAR KPAE 161153Z AUTO 02005KT 10SM OVC035 16/13 A3004 RMK AO2 SLP169 T01560133 10167 20156 56005=
201907161121 SPECI KPAE 161121Z AUTO 02005KT 10SM SCT019 OVC033 16/13 A3004 RMK AO2 T01560133=
201907161053 METAR KPAE 161053Z AUTO 02004KT 10SM OVC019 16/13 A3004 RMK AO2 SLP170 T01560133=
201907160953 METAR KPAE 160953Z AUTO 02005KT 10SM BKN019 OVC026 16/13 A3004 RMK AO2 SLP172 T01560128=
201907160853 METAR KPAE 160853Z AUTO 02006KT 10SM OVC022 16/13 A3005 RMK AO2 SLP174 T01610128 56005=
201907160823 SPECI KPAE 160823Z AUTO VRB03KT 10SM BKN020 BKN050 16/13 A3006 RMK AO2 T01610128=
201907160753 METAR KPAE 160753Z AUTO 02006KT 10SM FEW021 SCT026 OVC050 16/12 A3006 RMK AO2 SLP177 T01610122 402330150=
201907160750 SPECI KPAE 160750Z AUTO 02006KT 10SM SCT021 SCT026 OVC050 16/12 A3006 RMK AO2=
201907160732 SPECI KPAE 160732Z AUTO 36003KT 10SM BKN022 OVC050 16/13 A3007 RMK AO2 T01610128=
201907160653 METAR KPAE 160653Z AUTO 36004KT 10SM BKN043 BKN100 16/12 A3007 RMK AO2 SLP179 T01610122=
201907160553 METAR KPAE 160553Z AUTO 02005KT 10SM BKN044 OVC100 16/13 A3006 RMK AO2 SLP178 T01610128 10211 20161 57001=
201907160538 SPECI KPAE 160538Z AUTO 02006KT 10SM SCT027 BKN039 OVC100 16/13 A3007 RMK AO2 T01610128=
201907160501 SPECI KPAE 160501Z AUTO 02006KT 10SM BKN025 BKN034 OVC060 17/13 A3007 RMK AO2 T01720128=
201907160453 METAR KPAE 160453Z AUTO 02006KT 10SM SCT025 BKN034 OVC060 17/13 A3007 RMK AO2 SLP179 T01720128=
201907160353 METAR KPAE 160353Z AUTO 36004KT 10SM FEW039 OVC055 18/13 A3006 RMK AO2 SLP178 T01830133=
201907160253 METAR KPAE 160253Z 24003KT 10SM OVC055 19/13 A3007 RMK AO2 SLP179 T01940128 55001=
201907160200 SPECI KPAE 160200Z 23005KT 10SM SCT028 OVC055 19/13 A3006 RMK AO2 T01940133=
201907160153 METAR KPAE 160153Z 26006KT 10SM BKN028 OVC055 19/13 A3006 RMK AO2 SLP178 T01940133=
201907160053 METAR KPAE 160053Z 21005KT 10SM OVC065 21/13 A3006 RMK AO2 SLP178 T02060128=
201907152353 METAR KPAE 152353Z 23007KT 10SM BKN080 OVC100 21/13 A3007 RMK AO2 SLP181 T02110128 10233 20189 56006=
201907152253 METAR KPAE 152253Z 10SM FEW070 BKN085 OVC110 22/13 A3008 RMK AO2 SLP183 T02170128=
201907152153 METAR KPAE 152153Z 24007KT 10SM FEW027 OVC075 21/13 A3008 RMK AO2 SLP185 T02060128=
201907152053 METAR KPAE 152053Z 25006KT 10SM OVC070 20/14 A3009 RMK AO2 SLP187 T02000139 58001=
201907151953 METAR KPAE 151953Z 24007KT 10SM SCT025 OVC100 19/13 A3010 RMK AO2 SLP191 T01940133=
201907151911 SPECI KPAE 151911Z 27006KT 10SM SCT025 OVC100 19/13 A3010 RMK AO2 T01890128=
201907151900 SPECI KPAE 151900Z 26007KT 10SM BKN025 OVC100 19/13 A3010 RMK AO2 T01940133=
201907151853 METAR KPAE 151853Z 26008KT 10SM FEW048 OVC100 19/13 A3010 RMK AO2 SLP191 T01940128=
201907151753 METAR KPAE 151753Z VRB04KT 10SM FEW048 OVC100 21/13 A3010 RMK AO2 SLP189 60000 T02060133 10206 20150 51005=
201907151653 METAR KPAE 151653Z 29005KT 10SM FEW048 BKN095 18/13 A3010 RMK AO2 SLP189 T01830128=
201907151553 METAR KPAE 151553Z 29003KT 10SM OVC080 17/13 A3009 RMK AO2 SLP188 T01720128=
201907151453 METAR KPAE 151453Z VRB03KT 10SM OVC085 17/12 A3008 RMK AO2 SLP183 60000 T01670122 51001=
201907151353 METAR KPAE 151353Z 02005KT 10SM OVC085 16/13 A3008 RMK AO2 SLP182 T01610128=
201907151253 METAR KPAE 151253Z AUTO 11004KT 10SM FEW065 OVC090 16/13 A3008 RMK AO2 RAE22 SLP183 P0000 T01560128=
201907151153 METAR KPAE 151153Z AUTO 33003KT 10SM -RA BKN090 OVC110 15/12 A3008 RMK AO2 RAB31 SLP182 P0000 60000 T01500122 10161 20150 53001=
201907151053 METAR KPAE 151053Z AUTO 01004KT 10SM OVC110 16/12 A3006 RMK AO2 SLP178 T01560122=
201907150953 METAR KPAE 150953Z AUTO 36005KT 10SM CLR 16/12 A3007 RMK AO2 SLP179 T01560117=
201907150853 METAR KPAE 150853Z AUTO 33004KT 10SM CLR 16/12 A3007 RMK AO2 SLP181 T01610117 56004=
201907150753 METAR KPAE 150753Z AUTO VRB04KT 10SM CLR 16/12 A3007 RMK AO2 SLP181 T01610117 402440150=
201907150653 METAR KPAE 150653Z AUTO 01007KT 10SM CLR 16/12 A3008 RMK AO2 SLP183 T01560117=
201907150553 METAR KPAE 150553Z AUTO 36007KT 10SM CLR 16/12 A3008 RMK AO2 SLP186 T01560117 10239 20156 51004=
201907150453 METAR KPAE 150453Z AUTO 34006KT 10SM CLR 17/12 A3008 RMK AO2 SLP186 T01670117=
201907150353 METAR KPAE 150353Z AUTO 35005KT 10SM CLR 18/12 A3007 RMK AO2 SLP180 T01830122=
201907150253 METAR KPAE 150253Z 35005KT 10SM CLR 19/12 A3007 RMK AO2 SLP180 T01940122 58008=
201907150153 METAR KPAE 150153Z 34005KT 10SM CLR 22/12 A3008 RMK AO2 SLP183 T02170117=
201907150053 METAR KPAE 150053Z 29006KT 10SM CLR 23/11 A3009 RMK AO2 SLP186 T02330111=
201907142353 METAR KPAE 142353Z VRB06KT 10SM CLR 24/12 A3009 RMK AO2 SLP188 T02390117 10244 20183 56007=
201907142253 METAR KPAE 142253Z 01006KT 10SM CLR 23/12 A3010 RMK AO2 SLP190 T02330122=
201907142153 METAR KPAE 142153Z 27008KT 10SM CLR 23/12 A3011 RMK AO2 SLP195 T02280122=
201907142053 METAR KPAE 142053Z 01006KT 10SM FEW030 22/12 A3012 RMK AO2 SLP196 T02220117 58004=
201907141953 METAR KPAE 141953Z 27006KT 10SM FEW035 SCT043 21/13 A3013 RMK AO2 SLP200 T02060133=
201907141938 SPECI KPAE 141938Z 31005KT 10SM FEW029 BKN039 19/13 A3013 RMK AO2 T01940128=
201907141907 SPECI KPAE 141907Z VRB03KT 10SM BKN026 21/13 A3013 RMK AO2 T02060128=
201907141853 METAR KPAE 141853Z 18003KT 10SM FEW024 20/13 A3013 RMK AO2 SLP200 T02000128=
201907141841 SPECI KPAE 141841Z 11003KT 10SM SCT021 20/13 A3013 RMK AO2 T02000128=
201907141753 METAR KPAE 141753Z 00000KT 10SM OVC019 18/13 A3013 RMK AO2 SLP201 T01830133 10183 20156 51006=
201907141653 METAR KPAE 141653Z 16004KT 10SM SCT014 BKN015 18/13 A3012 RMK AO2 SLP199 T01780128=
201907141553 METAR KPAE 141553Z 12003KT 10SM FEW005 SCT010 OVC018 17/13 A3012 RMK AO2 SLP198 T01720128=
201907141542 SPECI KPAE 141542Z VRB03KT 10SM FEW005 SCT010 OVC018 17/13 A3012 RMK AO2 T01670128=
201907141532 SPECI KPAE 141532Z 10003KT 10SM SCT012 OVC018 17/13 A3012 RMK AO2 T01720128=
201907141453 METAR KPAE 141453Z 06004KT 10SM BKN011 BKN042 OVC055 16/13 A3011 RMK AO2 SLP195 T01610128 51015=
201907141353 METAR KPAE 141353Z 00000KT 10SM OVC030 16/13 A3010 RMK AO2 SLP190 T01560128=
201907141253 METAR KPAE 141253Z AUTO 00000KT 10SM FEW018 SCT030 OVC039 16/13 A3008 RMK AO2 SLP184 T01560128=
201907141153 METAR KPAE 141153Z AUTO 01004KT 10SM FEW022 BKN047 BKN070 16/13 A3006 RMK AO2 SLP178 T01560128 10161 20150 53005=
201907141053 METAR KPAE 141053Z AUTO 36003KT 10SM BKN040 OVC055 16/13 A3006 RMK AO2 SLP176 T01560133=
201907140953 METAR KPAE 140953Z AUTO 01005KT 10SM FEW019 BKN038 BKN050 15/13 A3006 RMK AO2 SLP176 T01500133=
201907140853 METAR KPAE 140853Z AUTO 35005KT 10SM SCT045 OVC060 15/13 A3005 RMK AO2 SLP174 T01500128 51001=
201907140753 METAR KPAE 140753Z AUTO 36007KT 10SM FEW047 SCT055 15/13 A3005 RMK AO2 SLP173 T01500128 402390150=
201907140653 METAR KPAE 140653Z AUTO 01005KT 10SM CLR 16/12 A3005 RMK AO2 SLP173 T01560122=
201907140553 METAR KPAE 140553Z AUTO 36006KT 10SM BKN060 16/12 A3005 RMK AO2 SLP172 T01610117 10222 20161 53008=
201907140453 METAR KPAE 140453Z AUTO 36005KT 10SM FEW055 BKN110 16/12 A3004 RMK AO2 SLP172 T01610117=
201907140353 METAR KPAE 140353Z AUTO VRB05KT 10SM SCT055 17/12 A3003 RMK AO2 SLP166 T01670122=
201907140253 METAR KPAE 140253Z 35008KT 10SM CLR 18/12 A3002 RMK AO2 SLP165 T01780117 55001=
201907140153 METAR KPAE 140153Z 36006KT 10SM SCT060 21/12 A3002 RMK AO2 SLP162 T02060117=
201907140053 METAR KPAE 140053Z 35007KT 320V020 10SM CLR 22/13 A3002 RMK AO2 SLP163 T02170128=
201907132353 METAR KPAE 132353Z 35007KT 10SM CLR 22/13 A3003 RMK AO2 SLP165 T02220128 10239 20189 58010=
201907132253 METAR KPAE 132253Z VRB03KT 10SM CLR 23/13 A3004 RMK AO2 SLP168 T02280128=
201907132200 SPECI KPAE 132200Z 29006KT 10SM SCT045 22/13 A3005 RMK AO2 T02170128=
201907132153 METAR KPAE 132153Z 31006KT 10SM BKN029 22/13 A3005 RMK AO2 SLP174 T02220128=
201907132103 SPECI KPAE 132103Z 26005KT 10SM BKN029 22/13 A3006 RMK AO2 T02170128=
201907132053 METAR KPAE 132053Z 28006KT 10SM FEW029 22/13 A3006 RMK AO2 SLP176 T02170128 50001=
201907131953 METAR KPAE 131953Z 29006KT 10SM FEW029 22/12 A3006 RMK AO2 SLP177 T02170122=
201907131853 METAR KPAE 131853Z VRB04KT 10SM BKN033 21/12 A3006 RMK AO2 SLP178 T02060122=
201907131753 METAR KPAE 131753Z 30007KT 10SM FEW055 19/12 A3005 RMK AO2 SLP176 T01890117 10211 20156 51004=
201907131653 METAR KPAE 131653Z 36004KT 10SM SCT021 BKN050 18/13 A3005 RMK AO2 SLP173 T01830128=
201907131553 METAR KPAE 131553Z 00000KT 10SM OVC100 18/13 A3005 RMK AO2 SLP173 T01780128=
201907131453 METAR KPAE 131453Z 03004KT 10SM OVC049 16/12 A3004 RMK AO2 SLP171 T01610122 53009=
201907131353 METAR KPAE 131353Z VRB04KT 10SM OVC050 16/12 A3002 RMK AO2 SLP165 T01610117=
201907131253 METAR KPAE 131253Z AUTO 02005KT 10SM OVC047 16/12 A3002 RMK AO2 SLP164 T01560117=
201907131153 METAR KPAE 131153Z AUTO 02004KT 10SM OVC046 16/12 A3001 RMK AO2 SLP160 T01560117 10161 20156 55001=
201907131053 METAR KPAE 131053Z AUTO 03003KT 10SM SCT044 BKN070 OVC080 16/12 A3001 RMK AO2 SLP160 T01560117=
201907130953 METAR KPAE 130953Z AUTO 01005KT 10SM OVC075 16/12 A3001 RMK AO2 SLP160 T01560117=
201907130853 METAR KPAE 130853Z AUTO 36005KT 10SM CLR 16/12 A3002 RMK AO2 SLP162 T01560117 51002=
201907130753 METAR KPAE 130753Z AUTO 36008KT 10SM CLR 16/12 A3001 RMK AO2 SLP161 T01560117 402440144=
201907130653 METAR KPAE 130653Z AUTO 35007KT 10SM CLR 16/11 A3002 RMK AO2 SLP163 T01560111=
201907130553 METAR KPAE 130553Z AUTO 36008KT 10SM CLR 16/11 A3001 RMK AO2 SLP161 T01560111 10244 20156 58001=
201907130453 METAR KPAE 130453Z AUTO 35009G16KT 10SM CLR 17/12 A3002 RMK AO2 SLP162 T01670122=
201907130353 METAR KPAE 130353Z AUTO VRB05KT 10SM CLR 17/13 A3001 RMK AO2 SLP160 T01720133=
201907130253 METAR KPAE 130253Z 36006KT 10SM CLR 19/13 A3001 RMK AO2 SLP161 T01890128 55005=
201907130153 METAR KPAE 130153Z 34006KT 10SM CLR 21/12 A3001 RMK AO2 SLP160 T02110122=
201907130053 METAR KPAE 130053Z VRB05KT 10SM CLR 23/12 A3002 RMK AO2 SLP163 T02330117=
201907122353 METAR KPAE 122353Z 30005KT 10SM CLR 24/13 A3003 RMK AO2 SLP166 T02390128 10239 20189 58011=
201907122253 METAR KPAE 122253Z 28006KT 10SM CLR 23/13 A3004 RMK AO2 SLP171 T02330128=
201907122153 METAR KPAE 122153Z 01005KT 10SM CLR 23/12 A3005 RMK AO2 SLP173 T02280122=
201907122053 METAR KPAE 122053Z VRB03KT 10SM CLR 22/13 A3006 RMK AO2 SLP177 T02220133 58006=
201907121953 METAR KPAE 121953Z VRB05KT 10SM CLR 21/14 A3007 RMK AO2 SLP180 T02110139=
201907121853 METAR KPAE 121853Z 03003KT 10SM CLR 19/14 A3007 RMK AO2 SLP181 T01940139=
201907121753 METAR KPAE 121753Z 36004KT 10SM CLR 19/13 A3008 RMK AO2 SLP183 T01890133 10194 20144 56005=
201907121653 METAR KPAE 121653Z 35004KT 10SM CLR 19/13 A3008 RMK AO2 SLP183 T01890133=
201907121553 METAR KPAE 121553Z VRB06KT 10SM CLR 17/13 A3008 RMK AO2 SLP185 T01720133=
201907121453 METAR KPAE 121453Z VRB04KT 10SM CLR 16/14 A3009 RMK AO2 SLP187 T01610139 55001=
201907121353 METAR KPAE 121353Z 01004KT 10SM CLR 16/14 A3009 RMK AO2 SLP186 T01560139=
201907121253 METAR KPAE 121253Z AUTO 35003KT 10SM CLR 14/13 A3009 RMK AO2 SLP188 T01440133=
201907121153 METAR KPAE 121153Z AUTO 35003KT 10SM CLR 14/13 A3009 RMK AO2 SLP189 T01440128 10178 20144 57002=
201907121053 METAR KPAE 121053Z AUTO 00000KT 10SM CLR 14/12 A3010 RMK AO2 SLP190 T01440122=
201907120953 METAR KPAE 120953Z AUTO VRB05KT 10SM CLR 14/12 A3010 RMK AO2 SLP190 T01440122=
201907120853 METAR KPAE 120853Z AUTO 35005KT 10SM CLR 14/12 A3010 RMK AO2 SLP191 T01440122 58007=
201907120753 METAR KPAE 120753Z AUTO 36003KT 10SM CLR 16/12 A3011 RMK AO2 SLP194 T01560122 402280156=
201907120653 METAR KPAE 120653Z AUTO 36003KT 10SM CLR 17/12 A3012 RMK AO2 SLP197 T01670122=
201907120553 METAR KPAE 120553Z AUTO 35003KT 10SM OVC080 18/12 A3012 RMK AO2 SLP198 T01780122 10222 20178 56003=
201907120453 METAR KPAE 120453Z AUTO 34003KT 10SM OVC080 18/12 A3012 RMK AO2 SLP198 T01830122=
201907120353 METAR KPAE 120353Z AUTO 32003KT 10SM OVC085 19/13 A3012 RMK AO2 SLP198 T01940128=
201907120253 METAR KPAE 120253Z 00000KT 10SM OVC090 19/13 A3013 RMK AO2 SLP201 T01940128 55003=
201907120153 METAR KPAE 120153Z 27005KT 10SM OVC090 21/13 A3013 RMK AO2 SLP200 T02060128=
201907120053 METAR KPAE 120053Z 26006KT 10SM OVC085 21/12 A3013 RMK AO2 SLP202 T02110122=
201907112353 METAR KPAE 112353Z 24007KT 10SM SCT040 22/13 A3014 RMK AO2 SLP204 T02170128 10228 20189 56006=
201907112253 METAR KPAE 112253Z 23007KT 10SM FEW080 23/12 A3014 RMK AO2 SLP205 T02280117=
201907112153 METAR KPAE 112153Z 26007KT 10SM SCT040 22/13 A3015 RMK AO2 SLP209 T02170133=
201907112053 METAR KPAE 112053Z 24007KT 10SM OVC075 21/13 A3016 RMK AO2 SLP210 T02060133 50001=
201907111953 METAR KPAE 111953Z 24008KT 10SM SCT015 BKN070 20/14 A3016 RMK AO2 SLP211 T02000144=
201907111902 SPECI KPAE 111902Z 26006KT 10SM BKN015 BKN032 OVC075 19/14 A3016 RMK AO2 T01940144=
201907111853 METAR KPAE 111853Z 25007KT 10SM FEW019 FEW032 OVC075 19/14 A3016 RMK AO2 SLP211 T01890139=
201907111753 METAR KPAE 111753Z 18006KT 10SM BKN034 OVC080 19/14 A3016 RMK AO2 SLP210 T01890139 10189 20156 50001=
201907111732 SPECI KPAE 111732Z 21006KT 10SM BKN031 OVC080 19/14 A3016 RMK AO2 T01890139=
201907111653 METAR KPAE 111653Z 23005KT 10SM OVC029 18/14 A3016 RMK AO2 SLP212 T01780144=
201907111553 METAR KPAE 111553Z 25006KT 10SM BKN016 OVC022 16/14 A3016 RMK AO2 SLP213 T01610139=
201907111540 SPECI KPAE 111540Z 26006KT 10SM BKN016 OVC022 16/14 A3016 RMK AO2 T01610139=
201907111531 SPECI KPAE 111531Z 24006KT 10SM FEW007 OVC014 16/14 A3016 RMK AO2 T01610139=
201907111523 SPECI KPAE 111523Z VRB04KT 10SM BKN014 OVC026 16/14 A3016 RMK AO2 T01610139=
201907111453 METAR KPAE 111453Z 17006KT 10SM SCT011 OVC027 17/14 A3015 RMK AO2 SLP208 T01720144 53007=
201907111414 SPECI KPAE 111414Z 15007KT 10SM SCT009 OVC027 17/14 A3014 RMK AO2 T01670139=
201907111353 METAR KPAE 111353Z 16006KT 10SM BKN009 BKN024 OVC029 17/14 A3014 RMK AO2 SLP205 T01670144=
201907111346 SPECI KPAE 111346Z 17005KT 10SM SCT009 BKN024 OVC029 17/14 A3014 RMK AO2 T01670144=
201907111342 SPECI KPAE 111342Z 16006KT 10SM BKN009 BKN016 OVC024 17/14 A3014 RMK AO2 CIG 008V014 T01670144=
201907111329 SPECI KPAE 111329Z AUTO 00000KT 10SM BKN010 OVC014 16/14 A3014 RMK AO2 T01610144=
201907111253 METAR KPAE 111253Z AUTO 00000KT 10SM OVC008 16/14 A3014 RMK AO2 SLP204 T01610144=
201907111153 METAR KPAE 111153Z AUTO 00000KT 10SM OVC008 16/14 A3013 RMK AO2 SLP201 70004 T01610144 10172 20161 53003=
201907111129 SPECI KPAE 111129Z AUTO 23003KT 10SM OVC008 16/14 A3012 RMK AO2 T01610144=
201907111110 SPECI KPAE 111110Z AUTO 22004KT 10SM OVC010 16/15 A3012 RMK AO2 CIG 008V012 T01610150=
201907111053 METAR KPAE 111053Z AUTO 24003KT 10SM OVC009 16/15 A3012 RMK AO2 CIG 007V011 SLP198 T01610150=
201907111008 SPECI KPAE 111008Z AUTO 26003KT 10SM OVC009 16/15 A3012 RMK AO2 T01610150=
201907110953 METAR KPAE 110953Z AUTO 23004KT 10SM OVC011 17/15 A3012 RMK AO2 SLP198 T01670150=
201907110944 SPECI KPAE 110944Z AUTO 00000KT 10SM OVC011 17/14 A3012 RMK AO2 CIG 007V014 T01670144=
201907110932 SPECI KPAE 110932Z AUTO 28003KT 10SM OVC009 17/14 A3012 RMK AO2 T01670144=
201907110853 METAR KPAE 110853Z AUTO 00000KT 10SM BKN010 OVC016 17/14 A3012 RMK AO2 SLP198 T01670144 51005=
201907110753 METAR KPAE 110753Z AUTO 00000KT 10SM OVC010 17/14 A3012 RMK AO2 SLP196 T01670144 402170161=
201907110653 METAR KPAE 110653Z AUTO 00000KT 10SM OVC010 17/15 A3011 RMK AO2 CIG 009V015 SLP195 T01670150=
201907110619 SPECI KPAE 110619Z AUTO 00000KT 10SM BKN022 BKN070 17/15 A3011 RMK AO2 T01720150=
201907110553 METAR KPAE 110553Z AUTO 00000KT 10SM SCT024 BKN070 17/15 A3011 RMK AO2 SLP193 T01720150 10217 20172 51013=
201907110529 SPECI KPAE 110529Z AUTO 20003KT 10SM FEW028 SCT033 BKN070 17/15 A3010 RMK AO2 T01720150=
201907110453 METAR KPAE 110453Z AUTO 22005KT 10SM BKN025 BKN030 18/15 A3010 RMK AO2 SLP191 T01780150=
201907110442 SPECI KPAE 110442Z AUTO 22006KT 10SM BKN025 BKN030 18/15 A3010 RMK AO2 T01780150=
201907110432 SPECI KPAE 110432Z AUTO 22007KT 10SM SCT027 18/15 A3010 RMK AO2 T01780150=
201907110400 SPECI KPAE 110400Z AUTO 22006KT 10SM FEW019 BKN025 OVC032 18/15 A3009 RMK AO2 T01780150=
201907110353 METAR KPAE 110353Z AUTO 23006KT 10SM FEW009 SCT019 BKN043 18/15 A3008 RMK AO2 SLP185 T01780150=
201907110301 SPECI KPAE 110301Z 18011KT 10SM FEW009 SCT019 BKN043 21/15 A3007 RMK AO2 T02110150=
201907110253 METAR KPAE 110253Z 16010KT 10SM SCT019 BKN025 BKN065 21/16 A3007 RMK AO2 SLP180 T02060156 53002=
201907110153 METAR KPAE 110153Z 16014KT 10SM SCT013 BKN019 OVC034 22/16 A3007 RMK AO2 SLP179 T02170161=
201907110058 SPECI KPAE 110058Z 17007KT 10SM SCT013 BKN019 OVC034 20/16 A3006 RMK AO2 T02000156=
201907110053 METAR KPAE 110053Z 16009KT 10SM BKN013 BKN070 BKN110 20/16 A3006 RMK AO2 SLP177 T02000161=
201907110000 SPECI KPAE 110000Z 16012KT 10SM BKN013 BKN070 BKN110 20/16 A3006 RMK AO2 T02000156=
201907102353 METAR KPAE 102353Z 17010KT 10SM BKN015 BKN020 BKN100 20/16 A3006 RMK AO2 SLP178 60000 T02000161 10211 20178 50002=
201907102302 SPECI KPAE 102302Z 17011KT 10SM BKN013 BKN070 BKN110 20/16 A3007 RMK AO2 T02000156=
201907102253 METAR KPAE 102253Z 18016KT 10SM BKN018 BKN070 20/16 A3007 RMK AO2 RAB37E51 SLP180 P0000 T02000161=
201907102153 METAR KPAE 102153Z 18014KT 10SM BKN018 OVC070 21/16 A3007 RMK AO2 RAB08E35 SLP180 P0000 T02060156=
201907102053 METAR KPAE 102053Z 18014KT 10SM FEW025 OVC095 21/16 A3005 RMK AO2 SLP175 60000 T02110156 51002=
201907101953 METAR KPAE 101953Z 17013KT 10SM FEW025 SCT095 21/16 A3005 RMK AO2 RAE18 SLP173 P0000 T02110156=
201907101853 METAR KPAE 101853Z 18015KT 8SM -RA SCT009 OVC070 18/16 A3006 RMK AO2 RAB42 SLP176 P0000 T01830156=
201907101753 METAR KPAE 101753Z 18011KT 10SM BKN007 BKN049 BKN100 19/17 A3005 RMK AO2 RAB25E37 SLP173 P0000 60004 T01890167 10189 20161 53005=
201907101653 METAR KPAE 101653Z 15008KT 5SM BR BKN005 BKN049 BKN120 18/17 A3004 RMK AO2 RAE00B39E48 SLP171 P0000 T01780167=
201907101553 METAR KPAE 101553Z 16008KT 3SM -RA BR BKN003 OVC024 17/16 A3004 RMK AO2 RAB03E22B43 SLP170 P0000 T01720161=
201907101453 METAR KPAE 101453Z 18007KT 10SM BKN008 OVC022 17/16 A3003 RMK AO2 SLP168 60004 T01670156 53006=
201907101449 SPECI KPAE 101449Z 18009KT 10SM BKN008 OVC022 17/16 A3003 RMK AO2=
201907101420 SPECI KPAE 101420Z 16009KT 2SM BR FEW006 BKN026 OVC034 17/16 A3002 RMK AO2 T01670156=
201907101353 METAR KPAE 101353Z 16011KT 2SM BR SCT005 SCT021 OVC034 17/16 A3002 RMK AO2 RAE53 SLP162 P0004 T01670156=
201907101322 SPECI KPAE 101322Z 16007KT 4SM -RA BR SCT004 BKN018 OVC026 17/16 A3002 RMK AO2 P0003 T01670156=
201907101315 SPECI KPAE 101315Z 16007KT 3SM -RA BR BKN005 OVC020 17/16 A3002 RMK AO2 P0003 T01670156=
201907101308 SPECI KPAE 101308Z 18007KT 1 1/4SM R16R/5500VP6000FT RA BR BKN005 BKN020 OVC027 16/16 A3002 RMK AO2 P0003 T01610156=
201907101253 METAR KPAE 101253Z 18008KT 2 1/2SM -RA BR BKN005 BKN028 OVC036 16/16 A3002 RMK AO2 RAB23E36B52 SLP164 P0000 T01610156=
201907101210 SPECI KPAE 101210Z 17007KT 10SM BKN006 BKN023 OVC060 17/16 A3002 RMK AO2 T01670156=
201907101153 METAR KPAE 101153Z 16008KT 10SM SCT008 SCT024 OVC060 17/16 A3001 RMK AO2 RAB24E46 SLP160 P0001 60006 70011 T01670156 10167 20161 53002=
201907101053 METAR KPAE 101053Z 17007KT 10SM FEW007 BKN075 OVC100 17/16 A3001 RMK AO2 SLP159 T01670156=
201907101048 SPECI KPAE 101048Z 17008KT 10SM SCT006 BKN029 OVC100 17/16 A3001 RMK AO2=
201907101004 SPECI KPAE 101004Z 18010KT 10SM SCT008 BKN055 OVC070 17/16 A3001 RMK AO2 T01670156=
201907100953 METAR KPAE 100953Z 18010KT 10SM BKN009 BKN036 OVC060 17/16 A3001 RMK AO2 RAE31 CIG 006V013 SLP158 P0000 T01670156=
201907100944 SPECI KPAE 100944Z 17009KT 10SM SCT009 BKN036 OVC070 17/16 A3001 RMK AO2 RAE31 P0000 T01670156=
201907100853 METAR KPAE 100853Z 17010KT 10SM -RA BKN008 OVC012 17/16 A3000 RMK AO2 RAB05E19B52 SLP155 P0000 60005 T01670156 58001=
201907100753 METAR KPAE 100753Z 18014KT 9SM BKN009 OVC040 17/16 A3001 RMK AO2 RAE23 CIG 005V013 SLP159 P0002 T01670156 402390122=
201907100742 SPECI KPAE 100742Z 18012KT 10SM SCT007 BKN010 OVC042 17/16 A3001 RMK AO2 RAE23 P0002 T01670156=
201907100717 SPECI KPAE 100717Z 16008KT 6SM -RA BR FEW008 BKN019 OVC028 17/16 A3000 RMK AO2 P0002 T01670156=
201907100709 SPECI KPAE 100709Z 17008KT 6SM -RA BR BKN019 OVC031 17/16 A3000 RMK AO2 P0002 T01670156=
201907100653 METAR KPAE 100653Z 18012KT 10SM -RA FEW017 BKN030 OVC037 17/16 A3001 RMK AO2 SLP160 P0003 T01670156=
201907100553 METAR KPAE 100553Z 18006KT 7SM -RA FEW032 OVC060 16/15 A3000 RMK AO2 SLP157 P0005 60005 T01610150 10233 20161 53005=
201907100453 METAR KPAE 100453Z 23009KT 10SM -RA SCT040 OVC055 17/14 A2999 RMK AO2 RAB30 SLP155 P0000 T01670139=
201907100353 METAR KPAE 100353Z 24008KT 10SM OVC080 18/13 A2998 RMK AO2 RAB19E28 SLP149 P0000 T01780128=
201907100253 METAR KPAE 100253Z 24009KT 10SM SCT095 SCT120 19/13 A2999 RMK AO2 SLP152 T01890128 56004=
201907100153 METAR KPAE 100153Z 14005KT 10SM OVC100 22/11 A2999 RMK AO2 SLP152 T02170111=
201907100053 METAR KPAE 100053Z 16010KT 10SM OVC100 23/11 A2999 RMK AO2 SLP154 T02280111=
201907092353 METAR KPAE 092353Z 17008KT 10SM OVC090 23/12 A3000 RMK AO2 RAB09E23 SLP156 P0000 60000 T02330117 10239 20206 53005=
201907092253 METAR KPAE 092253Z 18008KT 10SM SCT090 SCT110 23/09 A2999 RMK AO2 SLP153 T02330094=
201907092153 METAR KPAE 092153Z 24007KT 10SM CLR 23/11 A2999 RMK AO2 SLP152 T02330111=
201907092053 METAR KPAE 092053Z 23005KT 10SM CLR 23/11 A2998 RMK AO2 SLP151 T02330111 58003=
201907091953 METAR KPAE 091953Z VRB03KT 10SM CLR 22/13 A2999 RMK AO2 SLP153 T02170128=
201907091853 METAR KPAE 091853Z 27005KT 10SM CLR 22/13 A2999 RMK AO2 SLP153 T02170133=
201907091753 METAR KPAE 091753Z 18003KT 10SM CLR 22/13 A2999 RMK AO2 SLP154 T02170133 10217 20133 58002=
201907091653 METAR KPAE 091653Z 00000KT 10SM CLR 19/13 A3000 RMK AO2 SLP156 T01940133=
201907091553 METAR KPAE 091553Z 00000KT 10SM CLR 18/12 A3000 RMK AO2 SLP156 T01830122=
201907091453 METAR KPAE 091453Z 11004KT 10SM CLR 17/12 A3000 RMK AO2 SLP157 T01670122 53001=
201907091353 METAR KPAE 091353Z 00000KT 10SM CLR 16/13 A3000 RMK AO2 SLP156 T01560128=
201907091253 METAR KPAE 091253Z AUTO 03003KT 10SM CLR 14/12 A3000 RMK AO2 SLP156 T01440122=
201907091153 METAR KPAE 091153Z AUTO 03004KT 10SM CLR 14/12 A3000 RMK AO2 SLP156 T01390122 10167 20122 58001=
201907091053 METAR KPAE 091053Z AUTO 00000KT 10SM CLR 13/11 A3000 RMK AO2 SLP157 T01280111=
201907090953 METAR KPAE 090953Z AUTO 01003KT 10SM CLR 13/12 A3000 RMK AO2 SLP158 T01330117=
201907090853 METAR KPAE 090853Z AUTO 36003KT 10SM CLR 13/11 A3000 RMK AO2 SLP157 T01330111 50001=
201907090753 METAR KPAE 090753Z AUTO 02005KT 10SM CLR 14/12 A3000 RMK AO2 SLP158 T01440122 402280133=
201907090653 METAR KPAE 090653Z AUTO 00000KT 10SM CLR 17/12 A3000 RMK AO2 SLP158 T01670122=
201907090553 METAR KPAE 090553Z AUTO 36003KT 10SM CLR 17/12 A3000 RMK AO2 SLP157 T01670117 10228 20167 51004=
201907090453 METAR KPAE 090453Z AUTO 35003KT 10SM CLR 17/12 A3000 RMK AO2 SLP157 T01720117=
201907090353 METAR KPAE 090353Z AUTO 35003KT 10SM CLR 18/12 A2999 RMK AO2 SLP154 T01830117=
201907090253 METAR KPAE 090253Z 35005KT 10SM CLR 20/12 A2999 RMK AO2 SLP153 T02000122 56001=
201907090153 METAR KPAE 090153Z 29005KT 10SM CLR 21/12 A2999 RMK AO2 SLP153 T02110122=
201907090053 METAR KPAE 090053Z VRB04KT 10SM CLR 22/12 A2998 RMK AO2 SLP151 T02220122=
201907082353 METAR KPAE 082353Z 29007KT 10SM BKN047 22/11 A2999 RMK AO2 SLP153 T02170111 10222 20167 58004=
201907082253 METAR KPAE 082253Z 26004KT 10SM BKN049 22/11 A3000 RMK AO2 SLP157 T02170106=
201907082153 METAR KPAE 082153Z 29008KT 10SM SCT030 21/11 A3000 RMK AO2 SLP157 T02110106=
201907082053 METAR KPAE 082053Z 26007KT 10SM CLR 21/12 A3000 RMK AO2 SLP158 T02110122 58001=
201907081953 METAR KPAE 081953Z 24010KT 10SM CLR 19/12 A3001 RMK AO2 SLP160 T01890122=
201907081853 METAR KPAE 081853Z 24007KT 10SM SCT020 BKN036 18/12 A3001 RMK AO2 SLP162 T01780122=
201907081753 METAR KPAE 081753Z 28005KT 10SM SCT015 BKN032 17/12 A3000 RMK AO2 SLP159 T01670122 10178 20133 55002=
201907081727 SPECI KPAE 081727Z 29003KT 10SM SCT015 BKN032 16/12 A3001 RMK AO2 T01610122=
201907081713 SPECI KPAE 081713Z 32003KT 10SM BKN015 BKN033 17/12 A3000 RMK AO2 T01670122=
201907081704 SPECI KPAE 081704Z VRB03KT 10SM BKN014 17/12 A3000 RMK AO2 T01670122=
201907081653 METAR KPAE 081653Z 00000KT 10SM SCT014 BKN035 17/12 A3000 RMK AO2 SLP158 T01670122=
201907081642 SPECI KPAE 081642Z 00000KT 10SM SCT009 BKN035 17/12 A3000 RMK AO2 T01670122=
201907081553 METAR KPAE 081553Z 00000KT 10SM BKN006 OVC030 14/12 A3001 RMK AO2 SLP161 T01440122=
201907081506 SPECI KPAE 081506Z 35006KT 10SM OVC006 14/12 A3001 RMK AO2 CIG 004V008 T01390122=
201907081453 METAR KPAE 081453Z VRB03KT 10SM OVC004 14/12 A3001 RMK AO2 SLP162 T01390122 50004=
201907081449 SPECI KPAE 081449Z 35005KT 10SM OVC006 13/13 A3001 RMK AO2 CIG 003V009=
201907081353 METAR KPAE 081353Z VRB03KT 10SM OVC003 13/13 A3001 RMK AO2 SLP162 T01330128=
201907081253 METAR KPAE 081253Z AUTO 01005KT 10SM BKN003 OVC034 13/13 A3000 RMK AO2 SLP156 T01330128 $=
201907081218 SPECI KPAE 081218Z AUTO 36003KT 10SM OVC002 13/13 A3000 RMK AO2 T01330128 $=
201907081153 METAR KPAE 081153Z AUTO 36005KT 7SM OVC001 13/13 A2999 RMK AO2 SLP155 70001 T01330128 10139 20133 55001 $=
201907081114 SPECI KPAE 081114Z AUTO 00000KT 7SM OVC001 13/13 A2999 RMK AO2 T01330128 $=
201907081053 METAR KPAE 081053Z AUTO 33003KT 5SM BR OVC002 13/13 A2999 RMK AO2 SLP154 T01330128 $=
201907081034 SPECI KPAE 081034Z AUTO 33004KT 8SM OVC002 13/13 A2999 RMK AO2 T01330128 $=
201907080953 METAR KPAE 080953Z AUTO 36003KT 7SM OVC001 13/13 A2999 RMK AO2 SLP154 T01330128 $=
201907080944 SPECI KPAE 080944Z AUTO 00000KT 7SM OVC001 13/13 A2999 RMK AO2 T01330128 $=
201907080853 METAR KPAE 080853Z AUTO 36004KT 10SM BKN003 BKN025 OVC034 13/12 A3000 RMK AO2 SLP157 T01330122 56005 $=
201907080839 SPECI KPAE 080839Z AUTO 34004KT 10SM SCT003 BKN028 OVC033 13/12 A3000 RMK AO2 T01330122 $=
201907080820 SPECI KPAE 080820Z AUTO 36004KT 10SM SCT024 OVC033 13/13 A3000 RMK AO2 T01330128 $=
201907080803 SPECI KPAE 080803Z AUTO 34003KT 10SM SCT002 OVC024 13/13 A3000 RMK AO2 T01330128 $=
201907080753 METAR KPAE 080753Z AUTO 34003KT 10SM BKN002 OVC023 13/13 A3001 RMK AO2 SLP160 T01330128 401830133 $=
201907080724 SPECI KPAE 080724Z AUTO 35005KT 7SM BKN004 OVC028 13/13 A3001 RMK AO2 CIG 001V005 T01330128 $=
201907080715 SPECI KPAE 080715Z AUTO 34004KT 10SM SCT004 BKN028 OVC065 14/13 A3001 RMK AO2 T01390128 $=
201907080706 SPECI KPAE 080706Z AUTO 32003KT 10SM BKN028 OVC060 14/13 A3001 RMK AO2 T01390128 $=
201907080653 METAR KPAE 080653Z AUTO 00000KT 10SM SCT025 BKN030 OVC070 14/13 A3001 RMK AO2 SLP162 T01390128 $=
201907080553 METAR KPAE 080553Z AUTO 00000KT 10SM BKN024 OVC070 13/13 A3002 RMK AO2 SLP163 60001 T01330128 10172 20133 51001 $=
201907080523 SPECI KPAE 080523Z AUTO 35004KT 10SM FEW026 OVC075 14/13 A3002 RMK AO2 T01390128 $=
201907080453 METAR KPAE 080453Z 01004KT 10SM OVC026 14/13 A3002 RMK AO2 SLP164 T01390128 $=
201907080424 SPECI KPAE 080424Z 00000KT 10SM BKN026 BKN034 OVC085 14/13 A3002 RMK AO2 T01390128 $=
201907080353 METAR KPAE 080353Z 35004KT 10SM OVC090 14/13 A3001 RMK AO2 RAB15E26 SLP163 P0000 T01440128 $=
201907080253 METAR KPAE 080253Z 35003KT 10SM BKN090 OVC110 15/13 A3001 RMK AO2 RAE21 SLP162 P0000 60001 T01500128 56006 $=
201907080153 METAR KPAE 080153Z 34003KT 10SM -RA OVC095 16/13 A3001 RMK AO2 RAE02B29 SLP163 P0000 T01560128 $=
201907080053 METAR KPAE 080053Z 00000KT 10SM -RA OVC080 16/13 A3002 RMK AO2 RAB13 SLP164 P0001 T01610128 $=
201907072353 METAR KPAE 072353Z 24005KT 10SM OVC047 17/11 A3003 RMK AO2 SLP168 T01720111 10183 20161 58003 $=
201907072253 METAR KPAE 072253Z 24007KT 10SM OVC039 18/11 A3004 RMK AO2 SLP170 T01780111 $=
201907072153 METAR KPAE 072153Z 26005KT 10SM OVC034 18/12 A3004 RMK AO2 SLP170 T01780117 $=
201907072053 METAR KPAE 072053Z 24007KT 10SM SCT028 OVC039 18/12 A3004 RMK AO2 SLP171 T01780117 56003 $=
201907072049 SPECI KPAE 072049Z 24006KT 10SM SCT028 OVC039 18/12 A3004 RMK AO2 $=
201907072042 SPECI KPAE 072042Z 24006KT 10SM BKN028 OVC037 17/12 A3004 RMK AO2 T01720117 $=
201907072024 SPECI KPAE 072024Z 24007KT 10SM FEW027 OVC037 18/12 A3004 RMK AO2 T01780117 $=
201907071953 METAR KPAE 071953Z 24005KT 10SM OVC026 18/12 A3004 RMK AO2 SLP172 T01780117 $=
201907071853 METAR KPAE 071853Z 20007KT 10SM FEW020 BKN027 OVC038 18/11 A3005 RMK AO2 SLP174 T01830111 $=
201907071827 SPECI KPAE 071827Z 17008KT 10SM BKN025 OVC031 18/11 A3005 RMK AO2 T01780111 $=
201907071753 METAR KPAE 071753Z 21007KT 10SM SCT008 BKN015 16/12 A3005 RMK AO2 SLP174 T01610117 10167 20139 56004 $=
201907071725 SPECI KPAE 071725Z 15006KT 10SM SCT008 BKN015 17/11 A3005 RMK AO2 T01670111 $=
201907071653 METAR KPAE 071653Z VRB04KT 10SM BKN008 OVC012 16/12 A3005 RMK AO2 SLP175 T01560122 $=
201907071553 METAR KPAE 071553Z 15004KT 4SM BR BKN008 OVC012 14/13 A3006 RMK AO2 SLP177 T01390128 $=
201907071453 METAR KPAE 071453Z 00000KT 10SM BKN008 OVC012 14/12 A3006 RMK AO2 SLP178 T01440117 56002 $=
201907071438 SPECI KPAE 071438Z 10003KT 10SM OVC008 14/12 A3006 RMK AO2 T01390117 $=
201907071353 METAR KPAE 071353Z 10005KT 10SM FEW009 OVC019 14/12 A3006 RMK AO2 SLP178 T01390117 $=
201907071351 SPECI KPAE 071351Z 10006KT 10SM SCT009 OVC019 14/12 A3006 RMK AO2 $=
201907071253 METAR KPAE 071253Z AUTO 00000KT 10SM OVC008 14/12 A3006 RMK AO2 SLP180 T01390117 $=
201907071234 SPECI KPAE 071234Z AUTO 00000KT 10SM OVC009 14/12 A3007 RMK AO2 CIG 007V011 T01390117 $=
201907071207 SPECI KPAE 071207Z AUTO 06004KT 10SM OVC014 14/12 A3006 RMK AO2 T01390117 $=
201907071153 METAR KPAE 071153Z AUTO 05003KT 10SM FEW008 OVC016 14/12 A3006 RMK AO2 SLP179 T01390122 10150 20139 57002 $=
201907071124 SPECI KPAE 071124Z AUTO 07003KT 10SM FEW008 BKN017 OVC035 14/12 A3006 RMK AO2 T01440117 $=
201907071053 METAR KPAE 071053Z AUTO 02004KT 10SM OVC035 14/12 A3006 RMK AO2 SLP178 T01440117 $=
201907070953 METAR KPAE 070953Z AUTO 06003KT 10SM OVC035 15/11 A3007 RMK AO2 SLP179 T01500111 $=
201907070853 METAR KPAE 070853Z AUTO 02005KT 10SM OVC043 14/11 A3007 RMK AO2 SLP181 T01440111 56004 $=
201907070753 METAR KPAE 070753Z AUTO 02004KT 10SM FEW044 FEW060 OVC080 14/11 A3007 RMK AO2 SLP183 T01440111 402110122 $=
201907070653 METAR KPAE 070653Z AUTO 02007KT 10SM BKN055 OVC080 14/11 A3008 RMK AO2 SLP183 T01440111 $=
201907070553 METAR KPAE 070553Z AUTO 02007KT 10SM OVC080 15/11 A3008 RMK AO2 SLP185 T01500106 10206 20144 50001 $=
201907070453 METAR KPAE 070453Z AUTO 03004KT 10SM OVC070 14/11 A3009 RMK AO2 SLP187 T01440106 $=
201907070353 METAR KPAE 070353Z 35007KT 10SM CLR 16/11 A3008 RMK AO2 SLP185 T01560106 $=
201907070253 METAR KPAE 070253Z 35005KT 10SM CLR 18/10 A3008 RMK AO2 SLP184 T01780100 56005 $=
201907070153 METAR KPAE 070153Z 36005KT 10SM SCT050 19/09 A3008 RMK AO2 SLP185 T01940094 $=
201907070053 METAR KPAE 070053Z 28007KT 10SM FEW055 19/10 A3008 RMK AO2 SLP186 T01940100 $=
201907062353 METAR KPAE 062353Z 27008KT 10SM SCT055 20/10 A3009 RMK AO2 SLP190 T02000100 10211 20172 58007 $=
201907062253 METAR KPAE 062253Z 24009KT 10SM SCT050 21/09 A3011 RMK AO2 SLP194 T02060094 $=
201907062153 METAR KPAE 062153Z 27008KT 10SM BKN050 21/09 A3011 RMK AO2 SLP194 T02060094 $=
201907062053 METAR KPAE 062053Z 26008KT 10SM BKN049 OVC055 19/09 A3012 RMK AO2 SLP197 T01940089 58006 $=
201907061953 METAR KPAE 061953Z 22009KT 10SM SCT039 OVC050 18/09 A3013 RMK AO2 SLP200 T01830089 $=
201907061853 METAR KPAE 061853Z 22005KT 10SM BKN045 17/09 A3013 RMK AO2 SLP202 T01720089 $=
201907061807 SPECI KPAE 061807Z 24005KT 10SM BKN020 BKN039 17/09 A3013 RMK AO2 T01720094 $=
201907061800 SPECI KPAE 061800Z 24005KT 10SM OVC039 18/10 A3013 RMK AO2 T01780100 $=
201907061753 METAR KPAE 061753Z VRB04KT 10SM SCT020 BKN027 OVC036 17/10 A3013 RMK AO2 SLP203 T01720100 10172 20128 50000 $=
201907061653 METAR KPAE 061653Z 29005KT 10SM BKN017 OVC029 15/11 A3013 RMK AO2 SLP203 T01500111 $=
201907061553 METAR KPAE 061553Z 00000KT 10SM BKN016 OVC037 16/11 A3014 RMK AO2 SLP205 T01560111 $=
201907061500 SPECI KPAE 061500Z 00000KT 10SM BKN018 14/11 A3013 RMK AO2 T01440111 $=
201907061453 METAR KPAE 061453Z 00000KT 10SM SCT020 BKN044 14/11 A3013 RMK AO2 SLP203 T01440111 58000 $=
201907061420 SPECI KPAE 061420Z 00000KT 10SM SCT020 BKN044 14/11 A3014 RMK AO2 T01440106 $=
201907061353 METAR KPAE 061353Z 00000KT 10SM BKN020 OVC034 14/11 A3014 RMK AO2 SLP204 T01390106 $=
201907061253 METAR KPAE 061253Z AUTO 00000KT 10SM OVC025 13/11 A3013 RMK AO2 SLP202 T01330111 $=
201907061153 METAR KPAE 061153Z AUTO 02004KT 10SM OVC022 13/11 A3013 RMK AO2 SLP203 T01280106 10139 20122 53004 $=
201907061053 METAR KPAE 061053Z AUTO 00000KT 10SM BKN022 BKN050 13/11 A3013 RMK AO2 SLP200 T01280106 $=
201907061042 SPECI KPAE 061042Z AUTO 02003KT 10SM BKN021 OVC036 13/11 A3012 RMK AO2 T01330111 $=
201907061018 SPECI KPAE 061018Z AUTO 03003KT 10SM SCT021 OVC035 13/11 A3012 RMK AO2 T01330111 $=
201907060953 METAR KPAE 060953Z AUTO 00000KT 10SM OVC021 13/11 A3012 RMK AO2 SLP199 T01330111 $=
201907060909 SPECI KPAE 060909Z AUTO 00000KT 10SM BKN019 BKN050 13/12 A3012 RMK AO2 T01330117 $=
201907060853 METAR KPAE 060853Z AUTO 00000KT 10SM SCT019 BKN050 13/12 A3012 RMK AO2 SLP199 T01330117 53001 $=
201907060753 METAR KPAE 060753Z AUTO 02003KT 10SM SCT120 14/12 A3012 RMK AO2 SLP197 T01390122 401940128 $=
201907060653 METAR KPAE 060653Z AUTO 36003KT 10SM CLR 14/12 A3012 RMK AO2 SLP197 T01390122 $=
201907060553 METAR KPAE 060553Z AUTO 34004KT 10SM BKN049 14/13 A3012 RMK AO2 RAE21 SLP198 P0000 60000 T01390128 10194 20139 50001 $=
201907060453 METAR KPAE 060453Z AUTO 35005KT 8SM -RA FEW029 OVC049 14/13 A3012 RMK AO2 RAB43 SLP199 P0000 T01440128 $=
201907060353 METAR KPAE 060353Z AUTO 36005KT 10SM BKN031 OVC040 15/12 A3012 RMK AO2 SLP197 T01500122 $=
201907060253 METAR KPAE 060253Z 35005KT 10SM BKN033 OVC048 15/13 A3012 RMK AO2 SLP197 T01500128 51003 $=
201907060153 METAR KPAE 060153Z 01005KT 10SM BKN033 OVC043 16/13 A3012 RMK AO2 SLP197 T01610128 $=
201907060053 METAR KPAE 060053Z AUTO 34005KT 10SM BKN033 OVC043 17/12 A3011 RMK AO2 SLP195 T01670122 $=
201907052353 METAR KPAE 052353Z AUTO VRB05KT 10SM BKN032 OVC041 19/12 A3011 RMK AO2 SLP194 T01940117 10194 20150 58002 $=
201907052303 SPECI KPAE 052303Z 19006KT 10SM BKN031 OVC038 19/11 A3011 RMK AO2 T01890111 $=
201907052253 METAR KPAE 052253Z 16005KT 10SM BKN029 OVC035 19/11 A3011 RMK AO2 SLP194 T01890111 $=
201907052235 SPECI KPAE 052235Z 15003KT 10SM BKN029 OVC037 18/11 A3011 RMK AO2 T01830111 $=
201907052211 SPECI KPAE 052211Z 00000KT 10SM SCT027 OVC033 18/12 A3011 RMK AO2 T01830117 $=
201907052153 METAR KPAE 052153Z 24005KT 10SM BKN026 OVC033 18/12 A3011 RMK AO2 SLP196 T01780117 $=
201907052118 SPECI KPAE 052118Z 00000KT 10SM BKN026 BKN030 OVC036 17/12 A3011 RMK AO2 T01720117 $=
201907052104 SPECI KPAE 052104Z 24007KT 10SM SCT028 OVC034 18/12 A3011 RMK AO2 T01780117 $=
201907052053 METAR KPAE 052053Z 23006KT 10SM BKN028 OVC034 18/12 A3011 RMK AO2 SLP196 T01780117 51005 $=
201907052045 SPECI KPAE 052045Z 25005KT 10SM FEW026 OVC034 18/11 A3011 RMK AO2 T01780111 $=
201907051953 METAR KPAE 051953Z 19007KT 10SM BKN018 BKN026 OVC035 17/12 A3011 RMK AO2 SLP196 T01720117 $=
201907051853 METAR KPAE 051853Z 26004KT 10SM OVC015 16/12 A3011 RMK AO2 SLP194 T01560122 $=
201907051753 METAR KPAE 051753Z 25004KT 10SM SCT011 OVC021 16/12 A3010 RMK AO2 SLP191 T01560122 10161 20133 50003 $=
201907051653 METAR KPAE 051653Z 00000KT 10SM FEW008 OVC011 15/12 A3010 RMK AO2 SLP193 T01500122 $=
201907051553 METAR KPAE 051553Z 20006KT 6SM HZ OVC011 15/12 A3010 RMK AO2 SLP191 T01500122 $=
201907051536 SPECI KPAE 051536Z 18005KT 5SM HZ BKN012 BKN019 OVC024 15/12 A3009 RMK AO2 T01500122 $=
201907051453 METAR KPAE 051453Z 15005KT 10SM OVC027 14/12 A3009 RMK AO2 SLP187 T01440117 53007 $=
201907051353 METAR KPAE 051353Z 00000KT 10SM OVC022 14/11 A3008 RMK AO2 SLP185 T01440111 $=
201907051253 METAR KPAE 051253Z AUTO 01003KT 10SM OVC019 14/11 A3007 RMK AO2 SLP182 T01390111 $=
201907051153 METAR KPAE 051153Z AUTO 00000KT 10SM OVC019 13/11 A3007 RMK AO2 SLP180 T01330111 10139 20128 53003 $=
201907051123 SPECI KPAE 051123Z AUTO 35004KT 10SM BKN019 OVC033 13/11 A3006 RMK AO2 T01330111 $=
201907051053 METAR KPAE 051053Z AUTO 00000KT 10SM SCT019 OVC032 13/11 A3006 RMK AO2 SLP177 T01330111 $=
201907051050 SPECI KPAE 051050Z AUTO 33003KT 10SM SCT019 OVC032 13/11 A3006 RMK AO2 $=
201907051041 SPECI KPAE 051041Z AUTO 00000KT 10SM BKN019 OVC030 13/11 A3006 RMK AO2 T01330111 $=
201907050953 METAR KPAE 050953Z AUTO 00000KT 10SM BKN035 13/11 A3006 RMK AO2 SLP177 T01280106 $=
201907050853 METAR KPAE 050853Z AUTO 00000KT 10SM BKN030 13/11 A3006 RMK AO2 SLP177 T01280106 55001 $=
201907050753 METAR KPAE 050753Z AUTO 35004KT 10SM FEW065 13/11 A3005 RMK AO2 SLP175 T01330106 402060122 $=
201907050653 METAR KPAE 050653Z AUTO 36006KT 10SM CLR 14/11 A3005 RMK AO2 SLP175 T01390106 $=
201907050553 METAR KPAE 050553Z AUTO 36006KT 10SM CLR 14/11 A3006 RMK AO2 SLP179 T01390111 10206 20139 51004 $=
201907050453 METAR KPAE 050453Z AUTO VRB04KT 10SM CLR 14/11 A3006 RMK AO2 SLP178 T01390106 $=
201907050353 METAR KPAE 050353Z AUTO 35007KT 10SM CLR 15/11 A3005 RMK AO2 SLP176 T01500111 $=
201907050253 METAR KPAE 050253Z 35006KT 10SM SCT075 16/12 A3005 RMK AO2 SLP175 T01610122 57001 $=
201907050153 METAR KPAE 050153Z 36007KT 330V030 10SM SCT070 17/13 A3005 RMK AO2 SLP175 T01720128 $=
201907050053 METAR KPAE 050053Z 35005KT 10SM CLR 18/13 A3005 RMK AO2 SLP174 T01830128=
201907042353 METAR KPAE 042353Z 10SM CLR 21/13 A3005 RMK AO2 SLP175 T02060128 10206 20150 58004=
201907042253 METAR KPAE 042253Z 29006KT 10SM CLR 19/13 A3006 RMK AO2 SLP178 T01940128=
201907042153 METAR KPAE 042153Z 24008KT 10SM CLR 19/12 A3006 RMK AO2 SLP178 T01890122=
201907042104 SPECI KPAE 042104Z 25011KT 10SM SCT021 19/12 A3006 RMK AO2 T01890122=
201907042053 METAR KPAE 042053Z 26009KT 10SM BKN021 19/12 A3006 RMK AO2 SLP179 T01890122 58001=
201907041953 METAR KPAE 041953Z 25006KT 10SM OVC019 17/13 A3007 RMK AO2 SLP180 T01720128=
201907041911 SPECI KPAE 041911Z 23004KT 10SM SCT010 OVC019 17/13 A3007 RMK AO2 T01670128=
201907041853 METAR KPAE 041853Z VRB03KT 10SM OVC011 16/13 A3007 RMK AO2 SLP181 T01560128=
201907041806 SPECI KPAE 041806Z 00000KT 10SM OVC010 15/12 A3007 RMK AO2 T01500122=
201907041753 METAR KPAE 041753Z VRB03KT 10SM OVC009 15/12 A3007 RMK AO2 SLP182 T01500122 10150 20122 55001=
201907041653 METAR KPAE 041653Z 35003KT 10SM OVC008 14/12 A3007 RMK AO2 SLP181 T01390117=
201907041553 METAR KPAE 041553Z 02004KT 8SM OVC005 13/12 A3007 RMK AO2 SLP182 T01330117=
201907041505 SPECI KPAE 041505Z 35004KT 8SM OVC005 13/11 A3007 RMK AO2 T01280111=
201907041453 METAR KPAE 041453Z 35006KT 8SM OVC004 13/11 A3007 RMK AO2 SLP182 T01280111 51004=
201907041353 METAR KPAE 041353Z 36004KT 10SM BKN006 OVC012 13/11 A3007 RMK AO2 SLP181 T01280111=
201907041334 SPECI KPAE 041334Z 36003KT 10SM BKN006 OVC012 13/11 A3007 RMK AO2 T01280111=
201907041253 METAR KPAE 041253Z 34004KT 10SM SCT006 OVC014 12/11 A3007 RMK AO2 SLP181 T01220111=
201907041242 SPECI KPAE 041242Z VRB03KT 10SM FEW006 BKN014 OVC024 12/11 A3007 RMK AO2 T01220111=
201907041153 METAR KPAE 041153Z 36005KT 10SM FEW015 OVC025 12/11 A3006 RMK AO2 SLP178 70002 T01220111 10139 20122 51001=
201907041128 SPECI KPAE 041128Z 36006KT 10SM SCT007 OVC015 13/11 A3006 RMK AO2 T01280111=
201907041053 METAR KPAE 041053Z 35005KT 10SM BKN006 BKN016 OVC025 13/11 A3006 RMK AO2 SLP177 T01280111=
201907041014 SPECI KPAE 041014Z 35004KT 10SM BKN006 OVC025 13/11 A3006 RMK AO2 T01280111=
201907041001 SPECI KPAE 041001Z 35004KT 10SM SCT006 OVC024 13/12 A3006 RMK AO2 T01280117=
201907040953 METAR KPAE 040953Z 36004KT 10SM BKN024 OVC060 13/12 A3006 RMK AO2 SLP178 T01280117=
201907040853 METAR KPAE 040853Z 01004KT 10SM BKN021 BKN060 13/12 A3006 RMK AO2 SLP178 T01280117 58001=
201907040843 SPECI KPAE 040843Z 02006KT 10SM SCT020 13/11 A3006 RMK AO2 T01280111=
201907040753 METAR KPAE 040753Z 36005KT 10SM BKN022 13/11 A3006 RMK AO2 SLP180 T01280111 402060128=
201907040745 SPECI KPAE 040745Z 36006KT 10SM BKN022 13/11 A3006 RMK AO2 T01280111=
201907040653 METAR KPAE 040653Z 36007KT 10SM FEW060 13/11 A3006 RMK AO2 SLP180 T01280111=
201907040553 METAR KPAE 040553Z 01006KT 10SM OVC060 14/12 A3006 RMK AO2 SLP180 T01390117 10206 20139 50001=
201907040453 METAR KPAE 040453Z 01005KT 10SM OVC055 14/12 A3007 RMK AO2 SLP181 T01440117=
201907040404 SPECI KPAE 040404Z 36005KT 10SM SCT019 OVC055 16/12 A3006 RMK AO2 T01560122=
201907040353 METAR KPAE 040353Z 36005KT 10SM BKN019 OVC055 16/13 A3006 RMK AO2 SLP179 T01560128=
201907040348 SPECI KPAE 040348Z 36005KT 10SM BKN020 OVC055 16/13 A3006 RMK AO2=
201907040253 METAR KPAE 040253Z 28003KT 10SM OVC055 18/13 A3006 RMK AO2 SLP177 T01780128 55003=
201907040153 METAR KPAE 040153Z 28005KT 10SM OVC055 18/13 A3006 RMK AO2 SLP177 T01780128=
201907040053 METAR KPAE 040053Z 00000KT 10SM BKN050 19/13 A3006 RMK AO2 SLP176 T01890128=
201907032353 METAR KPAE 032353Z 26005KT 10SM FEW024 OVC049 17/12 A3007 RMK AO2 SLP180 T01720117 10178 20139 57006=
201907032318 SPECI KPAE 032318Z 28005KT 10SM SCT022 OVC050 18/12 A3007 RMK AO2 T01780117=
201907032253 METAR KPAE 032253Z 25005KT 10SM BKN024 OVC050 18/12 A3007 RMK AO2 SLP183 T01780122=
201907032153 METAR KPAE 032153Z 25005KT 10SM BKN019 OVC048 17/13 A3008 RMK AO2 SLP184 T01720128=
201907032136 SPECI KPAE 032136Z 24005KT 10SM SCT009 BKN016 OVC048 17/13 A3008 RMK AO2 T01670133=
201907032053 METAR KPAE 032053Z VRB03KT 10SM OVC008 16/14 A3009 RMK AO2 CIG 005V009 SLP188 T01560139 57000=
201907031953 METAR KPAE 031953Z 26004KT 8SM OVC005 14/13 A3009 RMK AO2 SLP188 T01440128=
201907031900 SPECI KPAE 031900Z 32004KT 10SM OVC007 14/13 A3008 RMK AO2 CIG 005V010 T01440133=
201907031853 METAR KPAE 031853Z 33003KT 10SM OVC003 14/13 A3009 RMK AO2 SLP188 T01440133=
201907031753 METAR KPAE 031753Z VRB03KT 9SM OVC003 14/13 A3009 RMK AO2 SLP188 60002 T01390128 10139 20128 50002=
201907031700 SPECI KPAE 031700Z 34003KT 6SM BR OVC003 13/13 A3009 RMK AO2 T01280128=
201907031653 METAR KPAE 031653Z 34004KT 1SM R16R/P6000FT BR OVC002 13/13 A3009 RMK AO2 SLP190 T01280128=
201907031558 SPECI KPAE 031558Z 36003KT 3/4SM R16R/P6000FT BR OVC002 13/13 A3009 RMK AO2 T01280128=
201907031553 METAR KPAE 031553Z VRB03KT 2SM BR OVC002 13/12 A3009 RMK AO2 SLP190 T01280122=
201907031534 SPECI KPAE 031534Z 01004KT 4SM R16R/3000VP6000FT BR OVC002 13/13 A3009 RMK AO2 T01280128=
201907031522 SPECI KPAE 031522Z 01004KT 1SM R16R/2600VP6000FT BR OVC001 13/12 A3009 RMK AO2 T01280122=
201907031513 SPECI KPAE 031513Z 01004KT 2SM R16R/1800V5500FT BR OVC001 13/13 A3009 RMK AO2 T01280128=
201907031506 SPECI KPAE 031506Z 36005KT 3/4SM R16R/1600V3500FT BR VV001 13/13 A3008 RMK AO2 T01280128=
201907031459 SPECI KPAE 031459Z 01005KT 1/2SM R16R/1400V1800FT FG VV001 13/12 A3008 RMK AO2 T01280122=
201907031453 METAR KPAE 031453Z 36005KT 1/4SM R16R/1400V4000FT FG VV001 13/12 A3008 RMK AO2 RAE46 SLP186 P0001 60002 T01280122 52005=
201907031414 SPECI KPAE 031414Z 36005KT 1/4SM R16R/1600VP6000FT -RA FG VV002 13/12 A3008 RMK AO2 P0001 T01280122=
201907031407 SPECI KPAE 031407Z 35005KT 1/2SM R16R/1800VP6000FT -RA FG VV002 13/12 A3008 RMK AO2 P0000 T01280122=
201907031353 METAR KPAE 031353Z 36005KT 1SM R16R/1600VP6000FT -RA BR VV002 13/12 A3007 RMK AO2 RAB17 SLP184 P0001 T01280122=
201907031350 SPECI KPAE 031350Z 36004KT 3/4SM R16R/1600V2400FT -RA BR VV001 13/12 A3007 RMK AO2 RAB17 P0001=
201907031340 SPECI KPAE 031340Z 36004KT 1 1/4SM R16R/1800V2400FT -RA BR OVC001 13/12 A3007 RMK AO2 RAB17 P0001 T01280122=
201907031334 SPECI KPAE 031334Z AUTO 01005KT 1/2SM R16R/1600V2200FT -RA FG VV001 13/12 A3007 RMK AO2 RAB17 P0001 T01280122=
201907031329 SPECI KPAE 031329Z AUTO 36004KT 1/4SM R16R/1600V2800FT -RA FG VV001 13/12 A3007 RMK AO2 RAB17 P0001 T01280122=
201907031312 SPECI KPAE 031312Z AUTO 34003KT 1/4SM R16R/1400V2000FT FG VV001 13/12 A3007 RMK AO2 T01280122=
201907031305 SPECI KPAE 031305Z AUTO 36004KT 1/2SM R16R/1400V3500FT FG VV001 13/12 A3007 RMK AO2 T01280122=
201907031253 METAR KPAE 031253Z AUTO 34004KT 1 3/4SM R16R/5000VP6000FT BR OVC001 13/12 A3007 RMK AO2 SLP181 T01280122=
201907031237 SPECI KPAE 031237Z AUTO 34004KT 2 1/2SM BR OVC001 13/12 A3006 RMK AO2 T01280122=
201907031215 SPECI KPAE 031215Z AUTO 34003KT 2 1/2SM BR OVC003 13/13 A3006 RMK AO2 T01330128=
201907031206 SPECI KPAE 031206Z AUTO 00000KT 3SM BR BKN003 OVC007 13/13 A3006 RMK AO2 T01330128=
201907031153 METAR KPAE 031153Z AUTO 00000KT 4SM BR OVC007 13/13 A3006 RMK AO2 CIG 003V009 SLP179 60000 70008 T01330128 10139 20128 53000=
201907031102 SPECI KPAE 031102Z AUTO 00000KT 6SM BR OVC008 13/13 A3006 RMK AO2 CIG 007V012 T01330128=
201907031053 METAR KPAE 031053Z AUTO 00000KT 7SM OVC010 13/13 A3006 RMK AO2 CIG 008V012 SLP178 T01330128=
201907031041 SPECI KPAE 031041Z AUTO 00000KT 8SM OVC008 13/13 A3006 RMK AO2 CIG 008V011 T01330128=
201907031017 SPECI KPAE 031017Z AUTO 00000KT 6SM BR OVC011 13/13 A3006 RMK AO2 T01330128=
201907030953 METAR KPAE 030953Z AUTO 00000KT 8SM BKN009 OVC013 13/12 A3006 RMK AO2 CIG 008V012 SLP179 T01330122=
201907030946 SPECI KPAE 030946Z AUTO 00000KT 8SM BKN009 OVC014 13/12 A3006 RMK AO2 CIG 008V012 T01330122=
201907030920 SPECI KPAE 030920Z AUTO 00000KT 7SM SCT002 BKN012 OVC018 13/13 A3006 RMK AO2 T01330128=
201907030911 SPECI KPAE 030911Z AUTO 00000KT 4SM R16R/2400VP6000FT BR BKN002 OVC012 13/13 A3006 RMK AO2 T01330128=
201907030853 METAR KPAE 030853Z AUTO 00000KT 4SM R16R/1600V2400FT BR OVC001 13/13 A3006 RMK AO2 SLP180 60000 T01330128 55009=
201907030820 SPECI KPAE 030820Z AUTO 00000KT 3SM R16R/2800VP6000FT BR OVC001 13/13 A3007 RMK AO2 T01280128=
201907030811 SPECI KPAE 030811Z AUTO 00000KT 1SM R16R/2000V5000FT BR VV001 13/13 A3006 RMK AO2 T01280128=
201907030753 METAR KPAE 030753Z AUTO 25006KT 3/4SM R16R/1400VP6000FT BR BKN002 BKN024 OVC028 13/12 A3006 RMK AO2 VIS 1/4V5 RAE03 SLP178 P0000 T01280122 401500128=
201907030751 SPECI KPAE 030751Z AUTO 26006KT 1 1/2SM R16R/1400VP6000FT BR SCT002 OVC028 13/12 A3006 RMK AO2 VIS 1/4V5 RAE03 P0000=
201907030726 SPECI KPAE 030726Z AUTO 26003KT 9SM SCT007 OVC025 14/13 A3007 RMK AO2 RAE03 P0000 T01390128=
201907030716 SPECI KPAE 030716Z AUTO 00000KT 9SM BKN008 OVC025 14/13 A3008 RMK AO2 RAE03 P0000 T01390128=
201907030706 SPECI KPAE 030706Z AUTO 00000KT 10SM SCT008 OVC025 14/13 A3009 RMK AO2 RAE03 P0000 T01390128=
201907030653 METAR KPAE 030653Z AUTO 00000KT 10SM -RA BKN008 BKN012 OVC025 14/13 A3009 RMK AO2 RAB51 SLP189 P0000 T01390128=
201907030649 SPECI KPAE 030649Z AUTO 00000KT 10SM BKN008 BKN012 OVC025 14/13 A3009 RMK AO2 CIG 006V010=
201907030631 SPECI KPAE 030631Z AUTO 00000KT 10SM SCT006 OVC026 14/13 A3008 RMK AO2 T01390128=
201907030553 METAR KPAE 030553Z AUTO 00000KT 10SM SCT006 OVC011 13/13 A3008 RMK AO2 SLP187 60001 T01330128 10144 20133 52002=
201907030529 SPECI KPAE 030529Z AUTO 00000KT 9SM FEW007 BKN011 OVC035 13/13 A3008 RMK AO2 T01330128=
201907030453 METAR KPAE 030453Z AUTO 26003KT 8SM R16R/3500VP6000FT FEW008 OVC031 13/13 A3008 RMK AO2 SLP187 T01330128=
201907030400 SPECI KPAE 030400Z AUTO 00000KT 10SM OVC038 14/13 A3008 RMK AO2 T01390128=
201907030353 METAR KPAE 030353Z AUTO 00000KT 10SM BKN009 OVC038 14/13 A3008 RMK AO2 SLP185 T01390128=
201907030253 METAR KPAE 030253Z 00000KT 5SM BR BKN006 OVC090 14/13 A3008 RMK AO2 SLP185 60001 T01390128 55003=
201907030153 METAR KPAE 030153Z 00000KT 5SM BR BKN006 BKN031 OVC080 14/13 A3007 RMK AO2 RAE0056 SLP184 P0000 T01390128=
201907030053 METAR KPAE 030053Z 00000KT 5SM -RA BR BKN006 BKN023 OVC090 14/13 A3008 RMK AO2 RAB31 SLP185 P0001 T01390133=
201907030007 SPECI KPAE 030007Z 00000KT 5SM BR BKN006 BKN023 OVC090 14/13 A3008 RMK AO2 T01390128=
201907030000 SPECI KPAE 030000Z 00000KT 10SM SCT006 BKN023 OVC090 14/13 A3009 RMK AO2 T01390128=
201907022353 METAR KPAE 022353Z 26003KT 5SM BR BKN006 BKN023 OVC090 14/13 A3009 RMK AO2 SLP188 60007 T01390128 10144 20133 58006=
201907022323 SPECI KPAE 022323Z 29003KT 3SM BR BKN006 OVC023 14/13 A3009 RMK AO2 CIG 004V008 T01390128=
201907022253 METAR KPAE 022253Z 00000KT 3SM BR BKN004 BKN018 OVC025 14/13 A3009 RMK AO2 RAB14E28 SLP189 P0000 T01390128=
201907022153 METAR KPAE 022153Z 27003KT 3SM BR OVC003 13/13 A3010 RMK AO2 RAE34 CIG 002V006 SLP192 P0002 T01330128=
201907022053 METAR KPAE 022053Z 29004KT 3SM R16R/4000VP6000FT -RA BR OVC004 13/12 A3010 RMK AO2 RAB1959 SLP194 P0005 60005 T01330122 58001=
201907021953 METAR KPAE 021953Z 15005KT 3SM BR BKN004 OVC012 14/12 A3011 RMK AO2 RAE1855B16E44 SLP194 P0000 T01390122=
201907021941 SPECI KPAE 021941Z 16004KT 3SM -RA BR BKN005 OVC010 14/12 A3011 RMK AO2 RAE1855B16 P0000 T01390122=
201907021926 SPECI KPAE 021926Z 15005KT 1 1/2SM -RA BR BKN007 OVC012 13/12 A3011 RMK AO2 RAE1855B16 CIG 004V009 P0000 T01330122=
201907021916 SPECI KPAE 021916Z 18005KT 2 1/2SM -RA BR BKN009 OVC014 14/12 A3011 RMK AO2 VIS 1 1/2V5 RAE1855B16 CIG 004V011 P0000 T01390122=
201907021900 SPECI KPAE 021900Z 00000KT 8SM OVC012 14/12 A3011 RMK AO2 RAE1855 P0000 T01390122=
201907021853 METAR KPAE 021853Z 00000KT 5SM -RA BR BKN009 OVC017 14/12 A3011 RMK AO2 RAE1754B42 SLP195 P0000 T01390122=
201907021814 SPECI KPAE 021814Z 00000KT 10SM BKN009 OVC017 14/12 A3011 RMK AO2 RAE1754 P0000 T01390117=
201907021807 SPECI KPAE 021807Z 26004KT 10SM BKN011 OVC017 14/12 A3010 RMK AO2 RAE1754 P0000 T01390117=
201907021759 SPECI KPAE 021759Z 20007KT 10SM SCT010 OVC016 14/12 A3011 RMK AO2 RAE54 P0000 T01440117=
201907021753 METAR KPAE 021753Z 18007KT 10SM -RA OVC006 14/11 A3011 RMK AO2 RAB06E18B45 SLP194 P0000 60000 T01390111 10150 20133 50003=
201907021653 METAR KPAE 021653Z VRB03KT 9SM OVC006 14/12 A3011 RMK AO2 SLP196 T01390122=
201907021553 METAR KPAE 021553Z 17008KT 6SM BR OVC009 14/12 A3010 RMK AO2 SLP192 T01390117=
201907021501 SPECI KPAE 021501Z 15007KT 10SM OVC014 14/11 A3010 RMK AO2 T01390106=
201907021453 METAR KPAE 021453Z 16007KT 10SM OVC015 14/11 A3010 RMK AO2 SLP190 T01390106 53004=
201907021353 METAR KPAE 021353Z 20006KT 10SM OVC015 14/11 A3009 RMK AO2 SLP188 T01440106=
201907021253 METAR KPAE 021253Z AUTO 19009KT 10SM OVC018 14/11 A3009 RMK AO2 SLP188 T01440106=
201907021153 METAR KPAE 021153Z AUTO 19009KT 10SM BKN017 OVC023 14/11 A3009 RMK AO2 SLP186 T01440106 10150 20133 56003=
201907021053 METAR KPAE 021053Z AUTO 18006KT 10SM OVC017 14/11 A3009 RMK AO2 SLP186 T01440106=
201907020953 METAR KPAE 020953Z AUTO 19010KT 10SM BKN019 OVC025 14/11 A3009 RMK AO2 SLP187 T01440106=
201907020853 METAR KPAE 020853Z AUTO 12004KT 10SM OVC018 13/11 A3010 RMK AO2 SLP189 T01330111 51005=
201907020824 SPECI KPAE 020824Z AUTO VRB04KT 10SM BKN018 14/11 A3010 RMK AO2 T01390111=
201907020753 METAR KPAE 020753Z AUTO 08004KT 10SM SCT022 13/11 A3009 RMK AO2 SLP187 T01330111 402390133=
201907020744 SPECI KPAE 020744Z AUTO 08005KT 10SM FEW007 BKN022 13/11 A3009 RMK AO2 T01330111=
201907020736 SPECI KPAE 020736Z AUTO 06005KT 10SM SCT007 SCT022 13/11 A3009 RMK AO2 T01330111=
201907020653 METAR KPAE 020653Z AUTO 03003KT 10SM BKN008 OVC013 13/11 A3009 RMK AO2 SLP186 T01330111=
201907020553 METAR KPAE 020553Z AUTO 01010G15KT 10SM OVC007 13/12 A3008 RMK AO2 SLP185 T01330117 10200 20133 53017=
201907020539 SPECI KPAE 020539Z AUTO 02010G16KT 10SM BKN007 14/12 A3007 RMK AO2 T01390117=
201907020524 SPECI KPAE 020524Z AUTO 01011G15KT 10SM FEW008 14/12 A3007 RMK AO2 T01390117=
201907020453 METAR KPAE 020453Z AUTO 01008G16KT 10SM CLR 14/12 A3006 RMK AO2 SLP178 T01390117=
201907020353 METAR KPAE 020353Z 01009KT 10SM CLR 15/12 A3004 RMK AO2 SLP171 T01500117=
201907020253 METAR KPAE 020253Z 36009G19KT 10SM CLR 16/12 A3003 RMK AO2 SLP167 T01610117 55006=
201907020153 METAR KPAE 020153Z 35008G16KT 10SM CLR 17/12 A3002 RMK AO2 SLP166 T01720122=
201907020053 METAR KPAE 020053Z 01009G16KT 10SM CLR 19/12 A3002 RMK AO2 SLP164 T01890122=
201907012353 METAR KPAE 012353Z 36010G16KT 10SM CLR 19/12 A3005 RMK AO2 SLP173 T01890117 10239 20189 56006=
201907012253 METAR KPAE 012253Z AUTO 35008G17KT 10SM CLR 21/12 A3005 RMK AO2 SLP173 T02110122=
201907012153 METAR KPAE 012153Z 36008KT 10SM CLR 21/11 A3006 RMK AO2 SLP175 T02110111=
201907012053 METAR KPAE 012053Z 27006KT 10SM CLR 23/10 A3006 RMK AO2 SLP178 T02330100 58008=
201907011953 METAR KPAE 011953Z 26007KT 10SM CLR 22/09 A3008 RMK AO2 SLP183 T02170094=
201907011853 METAR KPAE 011853Z 24005KT 10SM CLR 22/10 A3009 RMK AO2 SLP186 T02170100=
201907011753 METAR KPAE 011753Z 27007KT 10SM CLR 20/11 A3009 RMK AO2 SLP186 T02000106 10206 20139 50000=
201907011653 METAR KPAE 011653Z 00000KT 10SM CLR 19/11 A3009 RMK AO2 SLP188 T01940106=
201907011553 METAR KPAE 011553Z 22003KT 10SM CLR 18/11 A3010 RMK AO2 SLP189 T01830111=
201907011453 METAR KPAE 011453Z 00000KT 10SM CLR 18/11 A3009 RMK AO2 SLP185 T01780111 52004=
201907011353 METAR KPAE 011353Z 00000KT 10SM CLR 15/11 A3008 RMK AO2 SLP185 T01500111=
201907011253 METAR KPAE 011253Z AUTO 00000KT 10SM CLR 14/10 A3008 RMK AO2 SLP183 T01390100=
201907011153 METAR KPAE 011153Z AUTO 01003KT 10SM CLR 14/09 A3007 RMK AO2 SLP182 T01440094 10161 20139 50000=
201907011053 METAR KPAE 011053Z AUTO 06003KT 10SM CLR 15/09 A3008 RMK AO2 SLP183 T01500094=
201907010953 METAR KPAE 010953Z AUTO 02003KT 10SM CLR 16/10 A3007 RMK AO2 SLP182 T01560100=
201907010853 METAR KPAE 010853Z AUTO 36004KT 10SM CLR 16/10 A3007 RMK AO2 SLP182 T01560100 56003=
201907010753 METAR KPAE 010753Z AUTO 35005KT 10SM CLR 16/09 A3007 RMK AO2 SLP182 T01560094 402390117=
201907010653 METAR KPAE 010653Z AUTO 35007KT 10SM CLR 16/09 A3008 RMK AO2 SLP182 T01560094=
201907010553 METAR KPAE 010553Z AUTO 35004KT 10SM CLR 16/11 A3008 RMK AO2 SLP185 T01560106 10239 20156 50004=
201907010453 METAR KPAE 010453Z AUTO 35009G17KT 10SM CLR 17/09 A3009 RMK AO2 SLP188 T01670094=
201907010353 METAR KPAE 010353Z AUTO 35005KT 10SM CLR 20/09 A3008 RMK AO2 SLP185 T02000094=
201907010253 METAR KPAE 010253Z 34005KT 10SM CLR 22/08 A3007 RMK AO2 SLP180 T02220083 56007=
201907010153 METAR KPAE 010153Z 34005KT 10SM CLR 23/09 A3007 RMK AO2 SLP181 T02280094=
201907010053 METAR KPAE 010053Z 35008KT 10SM CLR 23/08 A3009 RMK AO2 SLP185 T02330083=

# No short TAF reports from KPAE in databse.

###################################
#  large TAF from KPAE
###################################
201907312322 TAF KPAE 312322Z 0100/0124 VRB06KT P6SM FEW035 SCT120 FM011100
                       17005KT P6SM BKN050 FM011800 21007KT P6SM
                       FEW250=
201907311720 TAF KPAE 311720Z 3118/0118 VRB03KT P6SM SCT080 FM312000 28006KT
                       P6SM SCT060 SCT120 FM010200 VRB04KT P6SM
                       SCT060 FM011100 17005KT P6SM BKN050=
201907311135 TAF KPAE 311135Z 3112/0112 VRB03KT P6SM BKN070 FM312000 28006KT
                       P6SM SCT060 SCT120 FM010200 36006KT P6SM
                       SCT060 FM011100 18005KT P6SM SCT010 BKN050=
201907310534 TAF KPAE 310534Z 3106/0106 01004KT P6SM SCT080 FM311200 VRB03KT
                       P6SM SCT120 FM312000 26006KT P6SM SCT040
                       SCT120 FM010000 33006KT P6SM SCT040=
201907310258 KPAE 310258Z 3103/3124 VRB04KT P6SM SCT080 SCT200 FM310900 03005KT
                       P6SM SCT030 BKN100 FM311900 28006KT P6SM
                       SCT040 SCT120=
201907302320 TAF KPAE 302320Z 3100/3124 27007KT P6SM FEW035 FEW150 FM310500
                       01005KT P6SM FEW035 BKN100 FM310900 03005KT
                       P6SM SCT030 BKN100 FM311900 28006KT P6SM
                       SCT040 SCT120=
201907301722 TAF KPAE 301722Z 3018/3118 18010KT P6SM OVC020 FM302000 23007KT
                       P6SM SCT030 FM302200 29007KT P6SM FEW030
                       FEW090 FM310500 36004KT P6SM SCT030 BKN090=
201907301120 TAF KPAE 301120Z 3012/3112 14003KT P6SM OVC016 FM301800 20005KT
                       P6SM BKN025 FM301900 23007KT P6SM SCT030
                       FM302200 29007KT P6SM FEW090 FM310500 36004KT
                       P6SM BKN090=
201907300533 TAF KPAE 300533Z 3006/3106 36010KT P6SM FEW040 FEW250 FM300800
                       01008KT P6SM SCT030 FM301100 18007KT P6SM
                       OVC012 FM301900 22007KT P6SM SCT025 FM302200
                       28007KT P6SM FEW090 FM310500 36005KT P6SM
                       SCT090 BKN180=
201907292321 TAF KPAE 292321Z 3000/3024 36005KT P6SM FEW250 FM300900 VRB04KT
                       P6SM SCT050 FM301200 20005KT P6SM SCT015
                       FM301300 20007KT P6SM OVC012 FM301800 20007KT
                       P6SM BKN018 FM302000 23005KT P6SM SCT030=
201907291720 TAF KPAE 291720Z 2918/3018 30005KT P6SM FEW250 FM300000 36005KT
                       P6SM SCT250 FM301300 20005KT P6SM OVC009=
201907291122 TAF KPAE 291122Z 2912/3012 VRB03KT P6SM FEW250 FM291800 29005KT
                       P6SM SCT250 FM300000 36005KT P6SM SCT250=
201907290532 TAF KPAE 290532Z 2906/3006 03004KT P6SM SCT250 FM291300 33004KT
                       P6SM SCT007 SCT250
                      TEMPO 2913/2916 5SM BR BKN007 FM291800 30005KT
                       P6SM SCT250 FM292200 29006KT P6SM SCT050
                       SCT250=
201907282320 TAF KPAE 282320Z 2900/2924 34007KT P6SM SCT250 FM290400 01004KT
                       P6SM SCT250 FM291500 33004KT P6SM SCT008
                       SCT250 FM291800 28007KT P6SM SCT250=
201907281742 TAF KPAE 281742Z 2818/2918 34007KT P6SM SCT250 FM290400 01004KT
                       P6SM SCT250 FM291500 33004KT P6SM SCT008
                       SCT250=
201907281341 KPAE 281341Z 2814/2912 02004KT P6SM BKN006
                      TEMPO 2814/2817 SCT006 FM281700 34005KT P6SM
                       SCT250 FM290400 01004KT P6SM SCT250=
201907281121 TAF KPAE 281121Z 2812/2912 01005KT P6SM SCT250 FM281900 33006KT
                       P6SM SCT250 FM290400 01004KT P6SM SCT250=
201907280535 TAF KPAE 280535Z 2806/2906 01006KT P6SM FEW035 SCT070 SCT250 FM281200
                       VRB03KT P6SM SCT015 SCT250
                      TEMPO 2812/2816 5SM BR OVC009 FM281700 34007KT
                       P6SM SCT250 FM290400 36005KT P6SM SCT200=
201907272342 TAF KPAE 272342Z 2800/2824 33008KT P6SM BKN045 FM280200 36007KT
                       P6SM SCT045 SCT250 FM281200 35003KT P6SM
                       SCT025 BKN050 FM281700 35005KT P6SM SCT050
                       SCT250=
201907271743 TAF KPAE 271743Z 2718/2818 27008KT P6SM VCSH BKN035 OVC050 FM272300
                       33008KT P6SM BKN045 FM280200 36007KT P6SM
                       SCT045 SCT250 FM281200 35003KT P6SM SCT025
                       BKN050=
201907271558 KPAE 271558Z 2716/2812 35003KT P6SM -RA SCT005 OVC015
                      TEMPO 2716/2718 2SM -RA BR BKN005 FM271800
                       27008KT P6SM VCSH OVC025 FM272300 33008KT
                       P6SM BKN045 FM280200 36007KT P6SM SCT045
                       SCT250=
201907271219 KPAE 271219Z 2712/2812 21006KT P6SM -RA SCT006 OVC015
                      TEMPO 2712/2716 3SM -RA BR OVC006 FM271800
                       27008KT P6SM VCSH OVC025 FM272300 33008KT
                       P6SM BKN045 FM280200 36007KT P6SM SCT045
                       SCT250=
201907271120 TAF KPAE 271120Z 2712/2812 19012KT P6SM VCSH BKN017 OVC023 FM271400
                       20012KT P6SM -RA OVC015 FM271900 27008KT
                       P6SM VCSH OVC025 FM272300 33008KT P6SM BKN045
                       FM280200 36007KT P6SM SCT045 SCT250=
201907270537 TAF KPAE 270537Z 2706/2806 02005KT P6SM SCT040 BKN100 FM270800
                       16009KT P6SM BKN025
                      TEMPO 2708/2711 BKN012 FM271100 17011KT P6SM
                       VCSH OVC012 FM271900 32009KT P6SM VCSH OVC025
                       FM272300 33008KT P6SM BKN040 FM280200 36007KT
                       P6SM SCT045 SCT250=
201907262341 TAF KPAE 262341Z 2700/2724 30006KT P6SM SKC FM270400 36008KT P6SM
                       SCT100 BKN200 FM271100 18008KT P6SM VCSH
                       OVC011 FM272000 32009KT P6SM BKN050=
201907261736 TAF KPAE 261736Z 2618/2718 30006KT P6SM SKC FM270400 36008KT P6SM
                       SCT100 BKN200 FM271100 18008KT P6SM OVC011=
201907261130 TAF KPAE 261130Z 2612/2712 36006KT P6SM SKC FM261800 30006KT P6SM
                       SKC FM270400 36008KT P6SM SCT100 BKN200
                       FM271100 18008KT P6SM OVC011=
201907260526 TAF KPAE 260526Z 2606/2706 36006KT P6SM SKC FM261800 27008KT P6SM
                       SCT250 FM270300 30009KT P6SM BKN100=
201907252320 TAF KPAE 252320Z 2600/2624 35010KT P6SM SKC FM260400 04006KT P6SM
                       SKC=
201907251720 TAF KPAE 251720Z 2518/2618 33006KT P6SM SKC FM252200 33010KT P6SM
                       SKC FM260400 04006KT P6SM SKC=
201907251130 TAF KPAE 251130Z 2512/2612 VRB03KT P6SM SCT250 FM251900 35008KT
                       P6SM SCT250=
201907250534 TAF KPAE 250534Z 2506/2606 34004KT P6SM SCT250 FM252000 33010KT
                       P6SM SCT250 FM260200 36004KT P6SM SCT250=
201907242320 TAF KPAE 242320Z 2500/2524 33008KT P6SM SCT050 BKN250 FM250600
                       04005KT P6SM BKN250 FM252000 33010KT P6SM
                       SCT050 BKN250=
201907241720 TAF KPAE 241720Z 2418/2518 18007KT P6SM SCT030 FM242100 VRB04KT
                       P6SM SCT040 FM250600 VRB04KT P6SM SCT200=
201907241129 TAF KPAE 241129Z 2412/2512 12006KT P6SM BKN035
                      TEMPO 2412/2414 SCT035 FM241800 VRB03KT P6SM
                       BKN040 FM242000 34006KT P6SM SCT040 FM250400
                       34006KT P6SM SKC=
201907240535 TAF KPAE 240535Z 2406/2506 01006KT P6SM OVC025 FM241200 18006KT
                       P6SM OVC025 FM241800 VRB03KT P6SM BKN040
                       FM242000 34006KT P6SM SCT040=
201907232320 TAF KPAE 232320Z 2400/2424 23007KT P6SM BKN030 BKN150 FM240600
                       23007KT P6SM OVC030 FM241800 VRB04KT P6SM
                       BKN040 FM242100 34006KT P6SM SCT040=
201907232010 KPAE 232010Z 2320/2418 VRB04KT P6SM OVC018 FM232200 30006KT P6SM
                       BKN020 FM240000 30008KT P6SM SCT040 FM240700
                       21008KT P6SM OVC020=
201907231720 TAF KPAE 231720Z 2318/2418 VRB04KT P6SM OVC012 FM232100 VRB04KT
                       P6SM SCT020 FM232200 28008KT P6SM SCT040
                       FM240900 21008KT P6SM OVC020=
201907231134 TAF KPAE 231134Z 2312/2412 VRB03KT P6SM SCT006 FM231300 VRB03KT
                       P6SM BKN006 FM231700 VRB03KT P6SM SCT040
                       BKN200 FM232300 31006KT P6SM SCT040 BKN120
                       FM241000 35006KT P6SM OVC010=
201907230520 TAF KPAE 230520Z 2306/2406 02004KT P6SM FEW120 SCT250 FM231200
                       VRB03KT P6SM BKN020 BKN250 FM231900 31006KT
                       P6SM SCT040 BKN250 FM240300 35006KT P6SM
                       BKN050=
201907222320 TAF KPAE 222320Z 2300/2324 28008KT P6SM FEW150 FM230600 28008KT
                       P6SM BKN150 FM231000 23005KT P6SM BKN022
                       FM232000 31007KT P6SM SCT040=
201907221720 TAF KPAE 221720Z 2218/2318 VRB04KT P6SM FEW150 FM222100 31007KT
                       P6SM FEW150 FM231000 31007KT P6SM BKN020=
201907221120 TAF KPAE 221120Z 2212/2312 VRB03KT P6SM FEW250 FM222000 27008KT
                       P6SM FEW250 FM230100 36005KT P6SM SCT250
                       FM231000 VRB03KT P6SM BKN030=
201907220522 TAF KPAE 220522Z 2206/2306 01005KT P6SM FEW250 FM220900 VRB03KT
                       P6SM FEW250 FM222000 27008KT P6SM FEW250
                       FM230100 36005KT P6SM SCT250=
201907212337 TAF KPAE 212337Z 2200/2224 35007KT P6SM SKC FM220400 VRB03KT P6SM
                       FEW250 FM222000 27009KT P6SM FEW250=
201907211726 TAF KPAE 211726Z 2118/2218 31007KT P6SM SKC FM220400 VRB03KT P6SM
                       FEW250=
201907211120 TAF KPAE 211120Z 2112/2212 01005KT P6SM FEW250 FM212000 30006KT
                       P6SM SKC FM220000 25005KT P6SM SKC FM220500
                       VRB03KT P6SM FEW250=
201907210528 TAF KPAE 210528Z 2106/2206 01005KT P6SM FEW250 FM212000 31006KT
                       P6SM SKC=
201907202331 TAF KPAE 202331Z 2100/2124 34008KT P6SM FEW250 FM210500 VRB03KT
                       P6SM FEW250 FM212000 31006KT P6SM SKC=
201907201728 TAF KPAE 201728Z 2018/2118 34007KT P6SM SKC FM210400 VRB03KT P6SM
                       FEW250=
201907201120 TAF KPAE 201120Z 2012/2112 VRB03KT P6SM SKC FM201900 35006KT P6SM
                       SKC FM210400 01003KT P6SM SKC=
201907200523 TAF KPAE 200523Z 2006/2106 02003KT P6SM SKC FM201900 35006KT P6SM
                       SKC FM210400 01003KT P6SM SKC=
201907192320 TAF KPAE 192320Z 2000/2024 35005KT P6SM SKC FM200400 04004KT P6SM
                       SKC=
201907191720 TAF KPAE 191720Z 1918/2018 29005KT P6SM BKN040 FM192100 33007KT
                       P6SM SCT050 FM200400 04004KT P6SM SKC=
201907191120 TAF KPAE 191120Z 1912/2012 01004KT P6SM SCT025 OVC050 FM191800
                       30005KT P6SM SCT025 BKN050 FM192100 33007KT
                       P6SM SCT060 FM200300 36005KT P6SM SKC=
201907190520 TAF KPAE 190520Z 1906/2006 01005KT P6SM BKN045 OVC060
                      TEMPO 1906/1910 6SM -SHRA BKN035 OVC045 FM191200
                       VRB04KT P6SM BKN020 OVC035 FM191800 29005KT
                       P6SM SCT025 BKN050 FM192100 33007KT P6SM
                       SCT060 FM200300 36005KT P6SM SKC=
201907182339 TAF KPAE 182339Z 1900/1924 33008KT P6SM VCSH SCT030 BKN070 FM190900
                       VRB04KT P6SM BKN025 FM191800 29005KT P6SM
                       SCT025 BKN050 BKN150=
201907181737 TAF KPAE 181737Z 1818/1918 VRB04KT P6SM SCT015 BKN070 FM182200
                       33008KT P6SM VCSH SCT025 BKN050 FM190900
                       VRB04KT P6SM BKN025=
201907181120 TAF KPAE 181120Z 1812/1912 VRB04KT P6SM VCSH SCT020 OVC050
                      TEMPO 1812/1815 -RA BKN015 FM181500 VRB04KT
                       P6SM BKN025 FM182200 33008KT P6SM SCT025
                       BKN050 FM190900 VRB04KT P6SM BKN025=
201907180522 TAF KPAE 180522Z 1806/1906 VRB03KT P6SM VCSH BKN007 OVC015
                      TEMPO 1806/1810 4SM -RA BR OVC004 FM181000
                       VRB04KT P6SM VCSH BKN015 OVC020 FM181500
                       20007KT P6SM BKN025 FM182200 31007KT P6SM
                       SCT025 BKN050=
201907180333 KPAE 180333Z 1804/1824 24007KT P6SM BKN006 BKN017 OVC024
                      TEMPO 1804/1806 1/2SM -RA FG OVC002 FM180600
                       21008KT P6SM VCSH BKN012 BKN050 FM181000
                       18008KT P6SM BKN015 OVC020 FM181900 28010KT
                       P6SM VCSH BKN025=
201907180146 KPAE 180146Z 1802/1824 24007KT P6SM BKN006 BKN017 OVC024 FM180600
                       21008KT P6SM VCSH BKN020 BKN050 FM181000
                       18008KT P6SM BKN015 OVC020 FM181900 28010KT
                       P6SM VCSH BKN025=
201907172340 TAF KPAE 172340Z 1800/1824 21015G24KT P6SM -SHRA BKN020 OVC025
                       FM180200 19012KT P6SM -SHRA BKN015 OVC030
                       FM180600 21008KT P6SM VCSH BKN020 BKN050
                       FM181000 18008KT P6SM BKN015 OVC020 FM181900
                       28010KT P6SM VCSH BKN025=
201907171720 TAF KPAE 171720Z 1718/1818 16015G25KT P6SM -RA SCT012 BKN025 OVC040
                       TEMPO 1718/1722 5SM -RA BR BKN012 OVC025
                       FM172200 22014G22KT P6SM -SHRA BKN020 BKN050
                       FM180200 29012KT P6SM -SHRA BKN015 OVC030
                       FM180600 VRB04KT P6SM VCSH BKN020 BKN050
                       FM181000 18008KT P6SM OVC015 FM181700 21010KT
                       P6SM VCSH BKN025=
201907171120 TAF KPAE 171120Z 1712/1812 17012G18KT P6SM OVC040
                      TEMPO 1713/1717 -RA OVC025 FM171700 18014G22KT
                       6SM -RA BR OVC018 FM172100 18014G22KT P6SM
                       -SHRA BKN018 OVC035 FM180200 22012G18KT
                       P6SM -SHRA BKN022 OVC050 FM180900 32010KT
                       P6SM VCSH BKN027 BKN050=
201907170539 TAF KPAE 170539Z 1706/1806 36005KT P6SM SCT050 BKN120 OVC200 FM170900
                       17007KT P6SM BKN060 OVC120 FM171300 18012KT
                       P6SM OVC030 FM171700 18012G20KT P6SM -RA
                       OVC025 FM172100 18012G18KT P6SM -SHRA BKN018
                       OVC035 FM180400 18012G18KT P6SM -SHRA BKN027
                       BKN050=
201907162321 TAF KPAE 162321Z 1700/1724 27007KT P6SM SCT040 BKN250 FM170900
                       21007KT P6SM BKN040 FM171200 18010KT P6SM
                       OVC030 FM171700 18012G20KT P6SM -RA OVC025
                       FM172100 21012KT P6SM -SHRA BKN025 BKN050=
201907161720 TAF KPAE 161720Z 1618/1718 VRB04KT P6SM SCT020 BKN050
                      TEMPO 1618/1620 BKN020 BKN040 FM170900 21006KT
                       P6SM OVC030 FM171400 18012KT P6SM -RA OVC020=
201907161509 KPAE 161509Z 1615/1712 VRB04KT P6SM SCT020 OVC040
                      TEMPO 1615/1618 BKN018 OVC040 FM161800 VRB05KT
                       P6SM BKN022 BKN040 FM162200 26006KT P6SM
                       SCT025 BKN050 FM170500 18006KT P6SM BKN040
                       FM171100 17010KT P6SM OVC025=
201907161340 KPAE 161340Z 1614/1712 VRB04KT P6SM SCT005 OVC022
                      TEMPO 1614/1616 BKN002 FM161800 VRB05KT P6SM
                       BKN022 BKN040 FM162200 26006KT P6SM VCSH
                       SCT040 BKN120 BKN200 FM170100 34006KT P6SM
                       SCT060 BKN200 FM170500 18006KT P6SM BKN040
                       OVC100 FM171100 17010KT P6SM OVC022=
201907161129 TAF KPAE 161129Z 1612/1712 VRB04KT P6SM OVC018 FM161800 VRB05KT
                       P6SM BKN022 BKN040 FM162200 26006KT P6SM
                       VCSH SCT040 BKN120 BKN200 FM170100 34006KT
                       P6SM SCT060 BKN200 FM170500 18006KT P6SM
                       BKN040 OVC100 FM171100 17010KT P6SM OVC022=
201907160540 TAF KPAE 160540Z 1606/1706 01005KT P6SM SCT025 OVC040
                      TEMPO 1606/1610 BKN022 OVC035 FM161000 VRB04KT
                       P6SM OVC018 FM161800 VRB05KT P6SM VCSH BKN022
                       BKN040 FM162200 26006KT P6SM VCSH BKN040
                       BKN080 FM170300 34006KT P6SM BKN060 OVC120=
201907152336 TAF KPAE 152336Z 1600/1624 24007KT P6SM FEW070 BKN080 FM160200
                       21005KT P6SM VCSH BKN040 OVC060 FM160900
                       VRB04KT P6SM VCSH OVC025 FM161200 33002KT
                       P6SM OVC015 FM161800 31003KT P6SM BKN050=
201907151720 TAF KPAE 151720Z 1518/1618 29005KT P6SM FEW040 BKN060 OVC100 FM152000
                       24007KT P6SM BKN050 OVC090 FM160200 VRB05KT
                       P6SM VCSH BKN040 OVC060 FM160900 16004KT
                       P6SM VCSH OVC025 FM161200 33002KT P6SM OVC015=
201907151128 TAF KPAE 151128Z 1512/1612 VRB04KT P6SM VCSH SCT050 BKN080 OVC120
                       FM151400 20005KT P6SM BKN060 OVC100 FM152000
                       24007KT P6SM BKN050 OVC090 FM160200 33005KT
                       P6SM VCSH BKN040 OVC060 FM160900 16004KT
                       P6SM VCSH OVC025=
201907150532 TAF KPAE 150532Z 1506/1606 34005KT P6SM FEW040 BKN120 BKN200 FM150900
                       VRB04KT P6SM BKN080 OVC120 FM151400 20005KT
                       P6SM BKN060 OVC100 FM152000 24007KT P6SM
                       BKN050 OVC090 FM160100 33005KT P6SM VCSH
                       BKN040 OVC060=
201907142338 TAF KPAE 142338Z 1500/1524 VRB06KT P6SM FEW040 SCT250 FM150900
                       VRB04KT P6SM BKN120 OVC200 FM151300 36002KT
                       P6SM BKN040 FM151600 23004KT P6SM BKN040=
201907141736 TAF KPAE 141736Z 1418/1518 16005KT P6SM SCT015 BKN020 FM142000
                       28006KT P6SM BKN060 FM142300 31007KT P6SM
                       SCT070 SCT200 FM150900 VRB04KT P6SM BKN120
                       OVC200 FM151300 02002KT P6SM BKN040=
201907141120 TAF KPAE 141120Z 1412/1512 VRB03KT P6SM BKN040 BKN120 FM141800
                       20005KT P6SM SCT050 SCT200 FM142300 34007KT
                       P6SM SCT060 SCT200 FM150900 VRB04KT P6SM
                       BKN120 OVC200=
201907140529 TAF KPAE 140529Z 1406/1506 36005KT P6SM SCT060 BKN120 FM140900
                       35004KT P6SM BKN050 OVC100 FM141200 VRB03KT
                       P6SM OVC040 FM141800 23005KT P6SM SCT050
                       SCT200 FM142300 34007KT P6SM SCT060 SCT200=
201907132329 TAF KPAE 132329Z 1400/1424 VRB05KT P6SM SCT040 SCT250 FM140600
                       VRB05KT P6SM OVC060 FM140900 35004KT P6SM
                       OVC040 FM141200 27003KT P6SM OVC030 FM141800
                       23005KT P6SM SCT050=
201907131722 TAF KPAE 131722Z 1318/1418 VRB04KT P6SM SCT020 BKN050 BKN250 FM132300
                       31006KT P6SM BKN120 FM140600 VRB05KT P6SM
                       BKN060 FM140900 VRB04KT P6SM OVC040 FM141200
                       27003KT P6SM OVC025=
201907131125 TAF KPAE 131125Z 1312/1412 02004KT P6SM BKN045 OVC080 FM131400
                       VRB03KT P6SM OVC050 FM131800 28005KT P6SM
                       BKN050 BKN090 FM132300 34008KT P6SM SCT060
                       BKN120 FM140900 VRB04KT P6SM OVC040=
201907130520 TAF KPAE 130520Z 1306/1406 33006KT P6SM SCT250 FM130900 01003KT
                       P6SM OVC120 FM131100 VRB03KT P6SM OVC050
                       FM131400 24003KT P6SM OVC030 FM131800 28005KT
                       P6SM BKN050 FM132200 33008KT P6SM BKN060=
201907122328 TAF KPAE 122328Z 1300/1324 28006KT P6SM SCT250 FM130900 01003KT
                       P6SM OVC120 FM131100 01003KT P6SM OVC050
                       FM131400 01003KT P6SM OVC030 FM131800 28005KT
                       P6SM BKN050=
201907121736 TAF KPAE 121736Z 1218/1318 35005KT P6SM BKN250 FM122000 32005KT
                       P6SM BKN250 FM131100 01003KT P6SM OVC050
                       FM131400 VRB03KT P6SM OVC025=
201907121135 TAF KPAE 121135Z 1212/1312 00000KT P6SM SCT250 FM121400 00000KT
                       4SM BR SCT001 BKN040 FM121600 34006KT P6SM
                       BKN250=
201907120917 KPAE 120917Z 1209/1306 01004KT P6SM SCT250 FM121400 01004KT 4SM
                       BR SCT001 FM121600 34006KT P6SM BKN250=
201907120520 TAF KPAE 120520Z 1206/1306 33004KT P6SM BKN080 FM120800 01004KT
                       P6SM BKN060 FM121200 35003KT P6SM OVC030
                       FM122200 28006KT P6SM BKN050 FM130100 33006KT
                       P6SM SCT060=
201907112343 TAF KPAE 112343Z 1200/1224 27006KT P6SM FEW080 BKN090 FM120200
                       33006KT P6SM BKN060 FM120800 01004KT P6SM
                       BKN060 FM121200 35003KT P6SM OVC030 FM122200
                       29005KT P6SM BKN050=
201907111734 TAF KPAE 111734Z 1118/1218 23005KT P6SM SCT020 BKN030 BKN080 FM111900
                       25003KT P6SM SCT020 BKN035 FM112300 27006KT
                       P6SM SCT060 BKN200 FM120200 33006KT P6SM
                       BKN060 FM120800 01004KT P6SM BKN060 FM121200
                       35003KT P6SM OVC030=
201907111129 TAF KPAE 111129Z 1112/1212 VRB03KT P6SM OVC009 FM111700 VRB03KT
                       P6SM SCT009 BKN015 OVC030 FM111900 VRB03KT
                       P6SM SCT020 BKN035 FM112300 34006KT P6SM
                       SCT060 BKN200=
201907110544 TAF KPAE 110544Z 1106/1206 20006KT P6SM SCT030 BKN060 FM111000
                       VRB03KT P6SM BKN011 OVC020 FM111300 VRB03KT
                       1SM BR BKN003 OVC006 FM111700 VRB03KT P6SM
                       SCT008 BKN015 OVC030 FM111900 VRB03KT P6SM
                       SCT020 BKN035 FM112300 34006KT P6SM SCT060
                       BKN200=
201907102332 TAF KPAE 102332Z 1100/1124 17011KT P6SM VCSH BKN013 BKN070 BKN110
                       FM110300 19006KT P6SM VCSH SCT020 OVC035
                       FM110700 18006KT P6SM BKN020 FM110900 17005KT
                       P6SM OVC015
                      TEMPO 1112/1116 2SM BR OVC004 FM111700 25005KT
                       P6SM OVC019 FM112200 28006KT P6SM BKN035=
201907101957 KPAE 101957Z 1020/1118 17013KT P6SM VCSH FEW025 SCT100
                      TEMPO 1020/1022 4SM -SHRA OVC012 FM110100
                       19008KT P6SM VCSH SCT015 OVC030 FM110500
                       17006KT P6SM OVC015 FM111200 16004KT 6SM
                       BR OVC007 FM111500 17004KT 6SM BR OVC003
                       FM111600 21004KT P6SM OVC007=
201907101742 TAF KPAE 101742Z 1018/1118 15008KT 5SM BR VCSH BKN005 BKN050 BKN120
                       TEMPO 1018/1022 4SM -SHRA OVC012 FM110100
                       19008KT P6SM VCSH SCT015 OVC030 FM110500
                       17006KT P6SM OVC015 FM111200 16004KT 6SM
                       BR OVC007 FM111500 17004KT 6SM BR OVC003
                       FM111600 21004KT P6SM OVC007=
201907101132 TAF KPAE 101132Z 1012/1112 18008KT P6SM -SHRA SCT008 BKN022 OVC050
                       FM102100 18008KT P6SM VCSH SCT015 BKN025
                       OVC045 FM110000 18006KT P6SM SCT030 BKN045
                       BKN060 FM110500 15006KT P6SM BKN015 OVC025=
201907100902 KPAE 100902Z 1009/1106 18008KT P6SM BKN008 OVC015 FM101100 18008KT
                       P6SM -SHRA BKN011 OVC020 FM102100 18006KT
                       P6SM VCSH BKN025 OVC045 FM110000 18006KT
                       P6SM SCT030 BKN045 BKN060 FM110500 15006KT
                       P6SM BKN015 OVC025=
201907100540 TAF KPAE 100540Z 1006/1106 22008KT P6SM -RA SCT015 OVC040
                      TEMPO 1006/1008 4SM -RA BKN015 OVC040 FM100800
                       22006KT P6SM SCT015 BKN040 OVC060 FM101200
                       22006KT P6SM -SHRA BKN011 OVC020 FM102100
                       18006KT P6SM VCSH BKN025 OVC045 FM110000
                       18006KT P6SM SCT030 BKN045 BKN060 FM110500
                       15006KT P6SM BKN015 OVC025=
201907092328 TAF KPAE 092328Z 1000/1024 18008KT P6SM -RA OVC070 FM100400 20008KT
                       P6SM -RA OVC040 FM100800 18008KT 5SM -RA
                       BR OVC015
                      TEMPO 1012/1016 3SM -RA BR OVC010 FM101700
                       18008KT P6SM -SHRA BKN015 OVC030=
201907091728 TAF KPAE 091728Z 0918/1018 00000KT P6SM OVC200 FM092100 VRB04KT
                       P6SM SCT050 OVC120 FM100000 22006KT P6SM
                       -RA OVC040 FM100400 20008KT P6SM -RA OVC025
                       FM100800 18008KT 5SM -RA BR OVC015
                      TEMPO 1012/1016 3SM -RA BR OVC010 FM101700
                       18008KT P6SM -SHRA BKN015 OVC030=
201907091130 TAF KPAE 091130Z 0912/1012 VRB03KT P6SM BKN250 FM092300 21008KT
                       P6SM SCT050 OVC120 FM100300 17009KT P6SM
                       -RA OVC050 FM101000 17009KT P6SM -RA OVC015=
201907090906 KPAE 090906Z 0909/1006 VRB03KT P6SM BKN250 FM092200 21008KT P6SM
                       SCT050 OVC120 FM100300 17009KT P6SM -RA
                       OVC050=
201907090520 TAF KPAE 090520Z 0906/1006 VRB03KT P6SM SCT050 FM091200 VRB03KT
                       P6SM BKN015
                      TEMPO 0912/0916 2SM BR BKN007 FM091600 21006KT
                       P6SM SCT015 BKN200 FM092100 21008KT P6SM
                       SCT050 OVC120 FM100200 17009KT P6SM -RA
                       OVC050=
201907082320 TAF KPAE 082320Z 0900/0924 30006KT P6SM BKN050 FM090400 04004KT
                       P6SM SCT050 FM091200 00000KT 5SM BR BKN005
                       TEMPO 0912/0916 1SM BR BKN003 FM091600 00000KT
                       P6SM SCT015 BKN200 FM092100 VRB04KT P6SM
                       SCT050 OVC120=
201907081721 TAF KPAE 081721Z 0818/0918 VRB03KT P6SM SCT015 BKN035
                      TEMPO 0818/0820 BKN015 OVC030 FM082100 32005KT
                       P6SM SCT020 BKN040 FM090200 34005KT P6SM
                       SCT040 FM091200 00000KT P6SM BKN010
                      TEMPO 0912/0916 5SM BR BKN005 FM091600 VRB04KT
                       P6SM SCT010 BKN200=
201907081312 KPAE 081312Z 0813/0912 33003KT P6SM BKN003 OVC035
                      TEMPO 0813/0815 3SM BR OVC001 FM081500 VRB04KT
                       P6SM OVC015 FM081800 30004KT P6SM BKN025
                       FM082100 28006KT P6SM BKN040 FM090100 VRB03KT
                       P6SM SCT050 SCT250 FM091000 VRB03KT P6SM
                       BKN025
                      TEMPO 0910/0912 5SM BR BKN005=
201907081125 TAF KPAE 081125Z 0812/0912 33003KT P6SM BKN002 OVC015
                      TEMPO 0812/0815 3SM BR OVC001 FM081500 VRB04KT
                       P6SM OVC015 FM081800 30004KT P6SM BKN025
                       FM082100 28006KT P6SM BKN040 FM090100 VRB03KT
                       P6SM SCT050 SCT250 FM091000 VRB03KT P6SM
                       BKN025
                      TEMPO 0910/0912 5SM BR BKN005=
201907081005 KPAE 081005Z 0810/0906 35005KT P6SM BKN004 OVC025
                      TEMPO 0810/0813 3SM BR OVC001 FM081500 VRB04KT
                       P6SM OVC010 FM081800 28004KT P6SM BKN025
                       FM082100 27006KT P6SM BKN040 FM090100 VRB03KT
                       P6SM SCT050 SCT250=
201907080733 KPAE 080733Z 0808/0906 35005KT P6SM BKN004 OVC025 FM081200 VRB04KT
                       P6SM OVC015 FM081800 28004KT P6SM BKN025
                       FM082100 27006KT P6SM BKN040 FM090100 VRB03KT
                       P6SM SCT050 SCT250=
201907080520 TAF KPAE 080520Z 0806/0906 VRB04KT P6SM VCSH OVC025 FM081200 VRB04KT
                       P6SM OVC015 FM081800 28004KT P6SM BKN025
                       FM082100 27006KT P6SM BKN040 FM090100 VRB03KT
                       P6SM SCT050 SCT250=
201907072320 TAF KPAE 072320Z 0800/0824 24007KT P6SM -SHRA OVC035 FM080600 VRB04KT
                       P6SM VCSH OVC025 FM081200 VRB04KT P6SM OVC015
                       FM081800 26006KT P6SM BKN025 FM082100 33006KT
                       P6SM BKN040=
201907071731 TAF KPAE 071731Z 0718/0818 VRB04KT P6SM BKN012 BKN030
                      TEMPO 0718/0721 BKN010 OVC030 FM072200 30008KT
                       P6SM VCSH SCT020 BKN040
                      TEMPO 0722/0802 -SHRA BKN020 OVC040 FM080600
                       VRB04KT P6SM BKN025 OVC040 FM081700 VRB04KT
                       P6SM BKN040=
201907071142 TAF KPAE 071142Z 0712/0812 VRB03KT P6SM BKN015 OVC035
                      TEMPO 0712/0715 BKN008 OVC015 FM071800 27007KT
                       P6SM BKN040 FM080000 29006KT P6SM BKN050
                       FM080600 36004KT P6SM BKN040 FM080900 36003KT
                       P6SM BKN015 OVC030=
201907070520 TAF KPAE 070520Z 0706/0806 VRB04KT P6SM BKN070 FM070800 VRB04KT
                       P6SM BKN040 FM071200 15006KT P6SM OVC022
                       FM071800 27007KT P6SM BKN040 FM080300 VRB03KT
                       P6SM BKN050=
201907062320 TAF KPAE 062320Z 0700/0724 25008KT P6SM BKN050 FM070600 VRB04KT
                       P6SM BKN040 FM071200 21006KT P6SM OVC022
                       FM071800 27007KT P6SM BKN040=
201907061720 TAF KPAE 061720Z 0618/0718 27007KT P6SM SCT020 BKN040
                      TEMPO 0618/0621 BKN020 OVC035 FM070900 18006KT
                       P6SM BKN035 FM071200 18006KT P6SM OVC030
                       FM071700 22006KT P6SM BKN040=
201907061143 TAF KPAE 061143Z 0612/0712 00000KT P6SM BKN020 OVC035 FM061500
                       20003KT P6SM OVC030 FM061800 22007KT P6SM
                       OVC035 FM062100 25007KT P6SM BKN035 FM070100
                       35005KT P6SM BKN040 FM070600 VRB04KT P6SM
                       BKN030=
201907060520 TAF KPAE 060520Z 0606/0706 35005KT P6SM VCSH SCT030 OVC050 FM060700
                       VRB03KT P6SM OVC020 FM061800 24007KT P6SM
                       OVC030 FM062100 25007KT P6SM BKN035 FM070100
                       35005KT P6SM BKN040=
201907052320 TAF KPAE 052320Z 0600/0624 18007KT P6SM VCSH OVC030 FM060600 18007KT
                       P6SM OVC020 FM061800 21007KT P6SM OVC030
                       FM062100 23007KT P6SM BKN035=
201907052121 KPAE 052121Z 0521/0618 24007KT P6SM VCSH BKN025 OVC040
                      TEMPO 0521/0601 SCT025 BKN040 OVC100 FM060800
                       18007KT P6SM OVC020=
201907051720 TAF KPAE 051720Z 0518/0618 VRB04KT P6SM VCSH OVC015 FM052000 18007KT
                       P6SM VCSH BKN020 BKN050 OVC120 FM052100
                       24007KT P6SM BKN030 BKN050 BKN120 FM060400
                       24007KT P6SM BKN030 OVC100 FM060800 18007KT
                       P6SM OVC020=
201907051128 TAF KPAE 051128Z 0512/0612 VRB04KT P6SM SCT018 OVC030
                      TEMPO 0512/0516 BKN017 OVC025 FM052100 26008KT
                       P6SM SCT025 BKN050 FM060100 34006KT P6SM
                       BKN050 OVC100 FM060900 VRB04KT P6SM OVC022=
201907050520 TAF KPAE 050520Z 0506/0606 VRB04KT P6SM BKN250 FM051100 VRB04KT
                       P6SM OVC015 FM052100 27008KT P6SM SCT020
                       OVC050 FM060100 33006KT P6SM SCT020 OVC050=
201907042320 TAF KPAE 042320Z 0500/0524 VRB05KT P6SM SCT025 BKN250 FM051100
                       VRB04KT P6SM OVC015 FM052100 27008KT P6SM
                       SCT020 OVC050=
201907041722 TAF KPAE 041722Z 0418/0518 VRB05KT P6SM OVC010 FM041900 VRB05KT
                       P6SM OVC025 FM042200 29005KT P6SM SCT025
                       SCT050 SCT200 FM050100 36006KT P6SM SCT050
                       SCT200 FM051100 VRB04KT P6SM BKN012 OVC030=
201907041505 KPAE 041505Z 0415/0512 35005KT P6SM OVC004 FM041700 VRB05KT P6SM
                       BKN015 BKN050 FM042200 29005KT P6SM SCT022
                       SCT050 SCT200 FM050100 36006KT P6SM SCT050
                       SCT200 FM051100 VRB04KT P6SM BKN012 OVC030=
201907041142 TAF KPAE 041142Z 0412/0512 35004KT P6SM BKN006 OVC022 FM041700
                       VRB05KT P6SM BKN015 BKN050 FM042200 29005KT
                       P6SM SCT022 SCT050 SCT200 FM050100 36006KT
                       P6SM SCT050 SCT200 FM051100 VRB04KT P6SM
                       BKN012 OVC030=
201907040539 TAF KPAE 040539Z 0406/0506 28003KT P6SM SCT022 OVC060 FM040900
                       03003KT P6SM OVC020 FM042200 29005KT P6SM
                       OVC050=
201907032332 TAF KPAE 032332Z 0400/0424 VRB04KT P6SM SCT025 BKN050 FM041100
                       VRB03KT P6SM OVC015 FM042200 29005KT P6SM
                       OVC050=
201907031721 TAF KPAE 031721Z 0318/0418 VRB03KT P6SM OVC003 FM031900 25005KT
                       P6SM SCT003 OVC020 FM032100 30005KT P6SM
                       OVC035 FM040000 VRB04KT P6SM BKN050 FM041100
                       VRB03KT P6SM OVC007=
201907031610 KPAE 031610Z 0316/0412 VRB04KT 2SM BR OVC003 FM031800 22003KT 2SM
                       BR OVC010 FM031900 25005KT P6SM OVC020 FM032100
                       30005KT P6SM OVC035 FM040000 32006KT P6SM
                       SCT050 BKN150 FM040600 02003KT P6SM BKN050=
201907031427 KPAE 031427Z 0314/0412 VRB05KT 1/2SM -RA FG VV002 FM031600 22003KT
                       2SM BR OVC010 FM031800 25005KT P6SM OVC020
                       FM032100 30005KT P6SM OVC035 FM040000 32006KT
                       P6SM SCT050 BKN150 FM040600 02003KT P6SM
                       BKN050=
201907031307 KPAE 031307Z 0313/0412 00000KT 5SM BR OVC008
                      TEMPO 0313/0316 1SM BR OVC001 FM031600 22003KT
                       2SM BR OVC010 FM031800 25005KT P6SM OVC020
                       FM032100 30005KT P6SM OVC035 FM040000 32006KT
                       P6SM SCT050 BKN150 FM040600 02003KT P6SM
                       BKN050=
201907031140 TAF KPAE 031140Z 0312/0412 00000KT 5SM BR OVC008 FM031400 22003KT
                       2SM BR OVC004 FM031800 25005KT P6SM OVC020
                       FM032100 30005KT P6SM OVC035 FM040000 32006KT
                       P6SM SCT050 BKN150 FM040600 02003KT P6SM
                       BKN050=
201907030842 KPAE 030842Z 0309/0406 VRB03KT 3SM BR BKN002 OVC025
                      TEMPO 0309/0312 3/4SM BR VV001 FM031400 19004KT
                       2SM BR OVC004 FM031800 23005KT P6SM BKN007
                       FM032100 30005KT P6SM SCT007 BKN050 FM040000
                       32006KT P6SM SCT050 BKN250=
201907030757 KPAE 030757Z 0308/0406 VRB03KT 3/4SM BR BKN002 OVC025 FM031200
                       19004KT 2SM BR OVC004 FM031800 23005KT P6SM
                       BKN007 FM032100 30005KT P6SM SCT007 BKN050
                       FM040000 32006KT P6SM SCT050 BKN250=
201907030520 TAF KPAE 030520Z 0306/0406 00000KT P6SM FEW008 OVC040 FM031200
                       19004KT 2SM BR OVC004 FM031800 23005KT P6SM
                       BKN007 FM032100 30005KT P6SM SCT007 BKN050
                       FM040000 32006KT P6SM SCT050 BKN250=
201907030306 KPAE 030306Z 0303/0324 00000KT 4SM BR BKN006 OVC090 FM030600 07003KT
                       3SM BR OVC005 FM031200 19004KT 2SM BR OVC004
                       FM031800 23005KT P6SM BKN007 FM032100 30005KT
                       P6SM SCT007 BKN015=
201907030149 KPAE 030149Z 0302/0324 00000KT P6SM VCSH SCT006 BKN023 OVC090
                      TEMPO 0302/0304 3SM -RA BR OVC006 FM030600
                       07003KT 4SM BR OVC007 FM032100 30005KT P6SM
                       BKN050=
201907022326 TAF KPAE 022326Z 0300/0324 00000KT 3SM BR VCSH SCT004 BKN018 OVC025
                       TEMPO 0300/0304 2SM -RA BR OVC004 FM030600
                       07003KT 4SM BR OVC007 FM032100 30005KT P6SM
                       BKN050=
201907022114 KPAE 022114Z 0221/0318 29004KT 3SM -RA BR VCSH OVC004 FM022300
                       20009KT P6SM VCSH OVC030 FM030800 21004KT
                       P6SM OVC012=
201907021912 KPAE 021912Z 0219/0318 00000KT P6SM VCSH OVC012 FM022300 20009KT
                       P6SM VCSH OVC030 FM030800 21004KT P6SM OVC012=
201907021732 TAF KPAE 021732Z 0218/0318 19008KT P6SM VCSH OVC006 FM022300 20009KT
                       P6SM VCSH OVC030 FM030800 21004KT P6SM OVC012=
201907021144 TAF KPAE 021144Z 0212/0312 18006KT P6SM OVC016 FM021800 21007KT
                       P6SM VCSH BKN012 OVC025 FM030300 02004KT
                       P6SM OVC015=
201907020858 TAF AMD KPAE 020858Z 0209/0306 VRB04KT P6SM OVC018 FM021100 20008KT
                       P6SM OVC012 FM021800 21007KT P6SM VCSH BKN012
                       OVC025 FM030300 22005KT P6SM OVC015=
201907020522 TAF KPAE 020522Z 0206/0306 01008KT P6SM BKN150 FM020900 36005KT
                       P6SM SCT120 BKN250 FM021100 20008KT P6SM
                       OVC012 FM021800 21007KT P6SM VCSH BKN012
                       OVC025 FM030300 22005KT P6SM OVC015=
201907020520 TAF KPAE 020520Z 0206/0306 01008KT P6SM BKN150 FM020900 36005KT
                       P6SM SCT120 BKN250 FM021100 20008KT P6SM
                       OVC012 FM021800 21007KT P6SM VCSH BKN012
                       OVC025 FM030300 22005KT P6SM OVC015=
201907012327 TAF KPAE 012327Z 0200/0224 35008G17KT P6SM SKC FM020300 34007KT
                       P6SM SCT120 BKN250 FM021100 20008KT P6SM
                       OVC012 FM021800 21007KT P6SM VCSH BKN012
                       OVC025=
201907011729 TAF KPAE 011729Z 0118/0218 00000KT P6SM SKC FM012100 30006KT P6SM
                       SCT040 SCT120 FM020400 19006KT P6SM SCT040
                       BKN120 FM021200 18008KT P6SM OVC008=
201907011146 TAF KPAE 011146Z 0112/0212 06003KT P6SM SKC FM011500 VRB04KT P6SM
                       FEW250 FM011800 32005KT P6SM SCT040 SCT120
                       FM020000 35008KT P6SM SCT040 BKN120 FM020600
                       35005KT P6SM SCT030 BKN120 FM021000 17006KT
                       P6SM BKN025 OVC040=
201907010526 TAF KPAE 010526Z 0106/0206 32008KT P6SM FEW050 FM010700 VRB03KT
                       P6SM SKC FM012000 32008KT P6SM SCT040 SCT120=