##########################################################
# Query made at 02/15/2025 22:04:37 UTC
# Time interval: from 08/01/2019 00:00  to 08/31/2019 23:59  UTC
##########################################################

##########################################################
# KPAE, Everett, Snohomish County Airport (United States)
# WMO index: -----. WIGOS ID: Unknown
# Latitude 47-55-23N. Longitude 122-16-57W. Altitude 184 m.
##########################################################

###################################
#  METAR/SPECI from KPAE
###################################
201908312353 METAR KPAE 312353Z 22008KT 10SM BKN075 25/14 A2997 RMK AO2 SLP144 60000 T02500139 10256 20200 57005=
201908312253 METAR KPAE 312253Z 24005KT 10SM FEW039 BKN085 24/14 A2997 RMK AO2 SLP145 T02440139=
201908312153 METAR KPAE 312153Z 26010KT 10SM SCT040 BKN080 25/14 A2998 RMK AO2 SLP147 T02500139=
201908312053 METAR KPAE 312053Z 23009KT 180V260 10SM SCT039 BKN100 24/14 A2998 RMK AO2 SLP149 60000 T02440139 58006=
201908311953 METAR KPAE 311953Z 21011KT 10SM CLR 24/14 A2998 RMK AO2 SLP150 T02440139=
201908311853 METAR KPAE 311853Z 18007KT 10SM FEW120 23/15 A3000 RMK AO2 RAE01 SLP155 P0000 T02280150=
201908311753 METAR KPAE 311753Z 17003KT 10SM -RA FEW022 FEW040 BKN100 20/16 A3000 RMK AO2 RAB15 SLP156 P0000 60000 T02000156 10206 20167 58004=
201908311653 METAR KPAE 311653Z 17007KT 10SM FEW100 19/14 A3001 RMK AO2 SLP159 T01940144=
201908311553 METAR KPAE 311553Z 17004KT 10SM CLR 19/15 A3001 RMK AO2 SLP160 T01890150=
201908311453 METAR KPAE 311453Z 15003KT 10SM CLR 18/14 A3001 RMK AO2 SLP160 T01780139 53002=
201908311353 METAR KPAE 311353Z 11003KT 10SM CLR 17/14 A3000 RMK AO2 SLP158 T01670139=
201908311253 METAR KPAE 311253Z AUTO 07003KT 10SM BKN050 17/14 A3001 RMK AO2 SLP157 T01720139=
201908311153 METAR KPAE 311153Z AUTO 00000KT 10SM OVC049 17/14 A3000 RMK AO2 SLP157 T01720139 10172 20156 53003=
201908311053 METAR KPAE 311053Z AUTO 00000KT 10SM OVC045 17/14 A2999 RMK AO2 SLP153 T01670139=
201908310953 METAR KPAE 310953Z AUTO 00000KT 10SM OVC045 16/14 A2999 RMK AO2 SLP154 T01610144=
201908310853 METAR KPAE 310853Z AUTO 00000KT 10SM SCT046 16/14 A3000 RMK AO2 SLP155 T01610139 56013=
201908310753 METAR KPAE 310753Z AUTO 00000KT 10SM CLR 17/14 A3000 RMK AO2 SLP158 T01670139 402390161=
201908310653 METAR KPAE 310653Z AUTO 00000KT 10SM FEW049 16/14 A3002 RMK AO2 SLP162 T01610139=
201908310553 METAR KPAE 310553Z AUTO 00000KT 10SM BKN050 17/14 A3004 RMK AO2 SLP169 T01720139 10233 20167 58001=
201908310453 METAR KPAE 310453Z AUTO 00000KT 10SM OVC050 17/14 A3004 RMK AO2 SLP171 T01720144=
201908310353 METAR KPAE 310353Z AUTO 35004KT 10SM OVC050 19/13 A3004 RMK AO2 SLP170 T01940133=
201908310253 METAR KPAE 310253Z 00000KT 10SM SCT050 21/13 A3004 RMK AO2 SLP170 T02060128 55002=
201908310153 METAR KPAE 310153Z 28004KT 10SM CLR 22/12 A3004 RMK AO2 SLP168 T02170122=
201908310053 METAR KPAE 310053Z 25005KT 10SM FEW047 22/12 A3004 RMK AO2 SLP170 T02220122=
201908302353 METAR KPAE 302353Z 26010KT 10SM FEW047 23/12 A3004 RMK AO2 SLP171 T02330122 10239 20200 56012=
201908302253 METAR KPAE 302253Z 20004KT 10SM BKN050 23/13 A3005 RMK AO2 SLP172 T02330128=
201908302153 METAR KPAE 302153Z 25007KT 10SM SCT038 OVC049 22/13 A3007 RMK AO2 SLP178 T02170128=
201908302053 METAR KPAE 302053Z 25005KT 10SM BKN055 21/13 A3008 RMK AO2 SLP183 T02110128 58004=
201908301953 METAR KPAE 301953Z 16007KT 10SM OVC055 22/14 A3008 RMK AO2 SLP184 T02170139=
201908301853 METAR KPAE 301853Z 16010KT 10SM SCT017 BKN033 OVC040 21/14 A3009 RMK AO2 SLP187 T02060139=
201908301753 METAR KPAE 301753Z 17009KT 10SM OVC040 20/14 A3009 RMK AO2 SLP187 T02000144 10200 20172 53002=
201908301653 METAR KPAE 301653Z 15005KT 10SM FEW009 SCT015 OVC035 19/15 A3008 RMK AO2 SLP185 T01890150=
201908301600 SPECI KPAE 301600Z 15007KT 10SM FEW013 OVC036 18/15 A3008 RMK AO2 T01780150=
201908301553 METAR KPAE 301553Z 15007KT 10SM SCT009 BKN011 OVC060 18/15 A3008 RMK AO2 SLP185 T01780150=
201908301453 METAR KPAE 301453Z 15009KT 10SM SCT009 BKN011 OVC042 18/15 A3008 RMK AO2 SLP182 T01780150 51005=
201908301448 SPECI KPAE 301448Z 15008KT 10SM SCT009 BKN013 OVC042 18/15 A3008 RMK AO2=
201908301353 METAR KPAE 301353Z 17010KT 10SM OVC042 18/14 A3007 RMK AO2 SLP179 T01780144=
201908301253 METAR KPAE 301253Z AUTO 18008KT 10SM BKN038 17/14 A3006 RMK AO2 SLP176 T01720144=
201908301153 METAR KPAE 301153Z AUTO 18007KT 10SM OVC031 18/14 A3006 RMK AO2 RAB07E16 SLP174 P0000 60000 T01780144 10178 20178 51004=
201908301151 SPECI KPAE 301151Z AUTO 18009KT 10SM OVC031 18/14 A3006 RMK AO2 RAB07E16 P0000=
201908301128 SPECI KPAE 301128Z AUTO 18008KT 10SM BKN028 OVC035 18/14 A3005 RMK AO2 RAB07E16 P0000 T01780144=
201908301116 SPECI KPAE 301116Z AUTO 19009KT 10SM SCT028 OVC035 18/15 A3006 RMK AO2 RAB07E16 P0000 T01780150=
201908301053 METAR KPAE 301053Z AUTO 19009KT 10SM BKN029 OVC038 18/14 A3005 RMK AO2 SLP174 T01780144=
201908301019 SPECI KPAE 301019Z AUTO 17007KT 10SM BKN026 OVC036 18/15 A3005 RMK AO2 T01780150=
201908300953 METAR KPAE 300953Z AUTO 18008KT 10SM FEW025 OVC037 18/15 A3004 RMK AO2 SLP170 T01780150=
201908300853 METAR KPAE 300853Z AUTO 18007KT 10SM OVC046 18/15 A3004 RMK AO2 SLP168 T01780150 53003=
201908300753 METAR KPAE 300753Z AUTO 18008KT 10SM OVC046 18/16 A3003 RMK AO2 SLP167 T01780156 402720144=
201908300714 SPECI KPAE 300714Z AUTO 16007KT 10SM SCT010 BKN045 BKN110 18/16 A3003 RMK AO2 T01780161=
201908300702 SPECI KPAE 300702Z AUTO 17006KT 10SM BKN010 BKN110 18/16 A3003 RMK AO2 CIG 006V012 T01780161=
201908300653 METAR KPAE 300653Z AUTO 17007KT 10SM BKN008 18/16 A3003 RMK AO2 CIG 006V012 SLP165 T01780161=
201908300639 SPECI KPAE 300639Z AUTO 16005KT 10SM BKN008 18/16 A3003 RMK AO2 CIG 006V011 T01780161=
201908300621 SPECI KPAE 300621Z AUTO 14006KT 10SM SCT008 SCT110 18/16 A3002 RMK AO2 T01780161=
201908300553 METAR KPAE 300553Z AUTO VRB03KT 10SM CLR 18/16 A3003 RMK AO2 RAE18 SLP165 P0000 60000 T01780161 10244 20178 53007=
201908300453 METAR KPAE 300453Z AUTO 20007KT 10SM -RA FEW065 SCT090 BKN110 18/16 A3002 RMK AO2 RAE01B30 SLP162 P0000 T01830156=
201908300353 METAR KPAE 300353Z AUTO 17006KT 10SM -RA CLR 19/14 A3001 RMK AO2 RAB50 SLP159 P0000 T01890144=
201908300253 METAR KPAE 300253Z 16010KT 10SM OVC100 19/13 A3000 RMK AO2 SLP158 60000 T01940133 53007=
201908300153 METAR KPAE 300153Z 17013KT 10SM OVC100 21/13 A2999 RMK AO2 RAB18E32 SLP153 P0000 T02110128=
201908300053 METAR KPAE 300053Z 19012KT 10SM BKN090 OVC110 23/14 A2999 RMK AO2 SLP153 T02280144=
201908292353 METAR KPAE 292353Z 19015KT 10SM BKN110 24/13 A2998 RMK AO2 SLP149 T02440133 10272 20200 53002=
201908292253 METAR KPAE 292253Z AUTO 17011G18KT 10SM OVC120 26/14 A2997 RMK AO2 SLP146 T02610139=
201908292153 METAR KPAE 292153Z 17011KT 10SM OVC110 25/14 A2998 RMK AO2 SLP149 T02500139=
201908292053 METAR KPAE 292053Z 16011KT 10SM BKN110 24/14 A2998 RMK AO2 SLP147 T02390139 57004=
201908291953 METAR KPAE 291953Z 23007KT 10SM CLR 23/14 A2998 RMK AO2 SLP148 T02330144=
201908291853 METAR KPAE 291853Z 17006KT 10SM CLR 22/14 A2998 RMK AO2 SLP150 T02220139=
201908291753 METAR KPAE 291753Z 17007KT 10SM CLR 20/13 A2999 RMK AO2 SLP151 T02000133 10200 20150 50005=
201908291653 METAR KPAE 291653Z 17008KT 10SM CLR 18/13 A2999 RMK AO2 SLP152 T01830128=
201908291553 METAR KPAE 291553Z 18011KT 10SM CLR 18/14 A2998 RMK AO2 SLP147 T01830139=
201908291453 METAR KPAE 291453Z 15008KT 10SM CLR 17/13 A2997 RMK AO2 SLP146 T01670133 51013=
201908291353 METAR KPAE 291353Z 18006KT 10SM CLR 16/14 A2996 RMK AO2 SLP143 T01560139=
201908291253 METAR KPAE 291253Z AUTO 18004KT 10SM CLR 16/13 A2994 RMK AO2 SLP137 T01560128=
201908291153 METAR KPAE 291153Z AUTO 20003KT 10SM CLR 16/13 A2993 RMK AO2 SLP132 T01610128 10217 20144 53010=
201908291053 METAR KPAE 291053Z AUTO 20004KT 10SM CLR 17/12 A2992 RMK AO2 SLP127 T01670122=
201908290953 METAR KPAE 290953Z AUTO 22003KT 10SM CLR 17/12 A2991 RMK AO2 SLP123 T01720122=
201908290853 METAR KPAE 290853Z AUTO 00000KT 10SM CLR 18/12 A2990 RMK AO2 SLP122 T01830122 50004=
201908290753 METAR KPAE 290753Z AUTO 00000KT 10SM CLR 18/12 A2991 RMK AO2 SLP123 T01780122 402830161=
201908290653 METAR KPAE 290653Z AUTO 00000KT 10SM CLR 21/13 A2989 RMK AO2 SLP119 T02110133=
201908290553 METAR KPAE 290553Z AUTO 00000KT 10SM CLR 20/13 A2989 RMK AO2 SLP118 T02000133 10278 20194 52010=
201908290453 METAR KPAE 290453Z AUTO 00000KT 10SM CLR 21/13 A2988 RMK AO2 SLP115 T02110133=
201908290353 METAR KPAE 290353Z AUTO 35003KT 10SM CLR 22/13 A2987 RMK AO2 SLP111 T02220133=
201908290253 METAR KPAE 290253Z 35004KT 10SM CLR 24/13 A2986 RMK AO2 SLP108 T02390128 55004=
201908290153 METAR KPAE 290153Z VRB03KT 10SM CLR 26/12 A2986 RMK AO2 SLP107 T02610117=
201908290053 METAR KPAE 290053Z VRB05KT 10SM CLR 27/13 A2986 RMK AO2 SLP109 T02720128=
201908282353 METAR KPAE 282353Z 36007KT 10SM CLR 28/13 A2987 RMK AO2 SLP111 T02780128 10283 20217 56011=
201908282253 METAR KPAE 282253Z 34004KT 10SM CLR 28/13 A2989 RMK AO2 SLP116 T02830128=
201908282153 METAR KPAE 282153Z 36008KT 10SM CLR 28/12 A2989 RMK AO2 SLP118 T02780122=
201908282053 METAR KPAE 282053Z 33007KT 10SM CLR 26/13 A2991 RMK AO2 SLP123 T02610128 58002=
201908281953 METAR KPAE 281953Z 01006KT 10SM CLR 25/14 A2991 RMK AO2 SLP125 T02500139=
201908281853 METAR KPAE 281853Z 34007KT 300V010 10SM CLR 23/14 A2991 RMK AO2 SLP126 T02330139=
201908281753 METAR KPAE 281753Z 36006KT 10SM CLR 22/13 A2991 RMK AO2 SLP126 T02220133 10222 20161 50004=
201908281653 METAR KPAE 281653Z 01007KT 10SM CLR 21/14 A2991 RMK AO2 SLP126 T02060144=
201908281553 METAR KPAE 281553Z 36008KT 10SM CLR 19/14 A2991 RMK AO2 SLP125 T01890144=
201908281453 METAR KPAE 281453Z 36005KT 10SM CLR 18/13 A2990 RMK AO2 SLP122 T01780133 53003=
201908281353 METAR KPAE 281353Z 36003KT 10SM CLR 16/13 A2990 RMK AO2 SLP120 T01610128=
201908281253 METAR KPAE 281253Z AUTO 00000KT 10SM CLR 16/12 A2989 RMK AO2 SLP118 T01610122=
201908281153 METAR KPAE 281153Z AUTO 00000KT 10SM CLR 17/13 A2989 RMK AO2 SLP119 T01720128 10206 20167 56005=
201908281053 METAR KPAE 281053Z AUTO 00000KT 10SM CLR 17/12 A2990 RMK AO2 SLP120 T01720122=
201908280953 METAR KPAE 280953Z AUTO 01003KT 10SM CLR 18/12 A2990 RMK AO2 SLP122 T01780122=
201908280853 METAR KPAE 280853Z AUTO 01003KT 10SM CLR 19/12 A2991 RMK AO2 SLP124 T01890122 58003=
201908280753 METAR KPAE 280753Z AUTO 02005KT 10SM CLR 19/12 A2991 RMK AO2 SLP126 T01890122 402610133=
201908280653 METAR KPAE 280653Z AUTO 35006KT 10SM CLR 19/12 A2992 RMK AO2 SLP127 T01890122=
201908280553 METAR KPAE 280553Z AUTO 36009KT 10SM CLR 21/12 A2992 RMK AO2 SLP128 T02060117 10256 20194 58002=
201908280453 METAR KPAE 280453Z AUTO 35008KT 10SM CLR 19/11 A2992 RMK AO2 SLP130 T01940111=
201908280353 METAR KPAE 280353Z AUTO 35006KT 10SM CLR 21/11 A2992 RMK AO2 SLP129 T02060106=
201908280253 METAR KPAE 280253Z 35007KT 10SM CLR 22/11 A2992 RMK AO2 SLP130 T02170111 56012=
201908280153 METAR KPAE 280153Z 34006KT 10SM CLR 24/11 A2993 RMK AO2 SLP132 T02390111=
201908280053 METAR KPAE 280053Z 34009KT 10SM CLR 25/12 A2994 RMK AO2 SLP138 T02500117=
201908272353 METAR KPAE 272353Z 35009KT 10SM CLR 26/12 A2996 RMK AO2 SLP142 T02560122 10261 20200 56022=
201908272253 METAR KPAE 272253Z 35008KT 10SM CLR 25/12 A2998 RMK AO2 SLP148 T02500122=
201908272153 METAR KPAE 272153Z 34006KT 10SM CLR 26/13 A3000 RMK AO2 SLP156 T02560128=
201908272053 METAR KPAE 272053Z 33008KT 10SM CLR 24/13 A3003 RMK AO2 SLP165 T02440133 58021=
201908271953 METAR KPAE 271953Z 33009G17KT 10SM CLR 23/13 A3005 RMK AO2 SLP174 T02280128=
201908271853 METAR KPAE 271853Z 34007KT 300V010 10SM CLR 22/14 A3008 RMK AO2 SLP183 T02170139=
201908271753 METAR KPAE 271753Z 36008KT 10SM CLR 20/13 A3009 RMK AO2 SLP187 T02000128 10200 20133 58004=
201908271653 METAR KPAE 271653Z 35008KT 10SM CLR 18/13 A3009 RMK AO2 SLP189 T01780128=
201908271553 METAR KPAE 271553Z 36006KT 10SM CLR 16/13 A3010 RMK AO2 SLP192 T01610128=
201908271453 METAR KPAE 271453Z 36006KT 10SM FEW005 15/13 A3010 RMK AO2 SLP192 T01500128 56003=
201908271446 SPECI KPAE 271446Z VRB06KT 10SM SCT005 15/13 A3010 RMK AO2 T01500128=
201908271353 METAR KPAE 271353Z 35004KT 10SM CLR 14/12 A3010 RMK AO2 SLP192 T01390117=
201908271253 METAR KPAE 271253Z 36003KT 10SM CLR 14/11 A3010 RMK AO2 SLP191 T01390111=
201908271153 METAR KPAE 271153Z 36003KT 10SM CLR 14/11 A3011 RMK AO2 SLP194 T01390111 10161 20139 58005=
201908271053 METAR KPAE 271053Z 35004KT 10SM CLR 14/11 A3012 RMK AO2 SLP197 T01440111=
201908270953 METAR KPAE 270953Z 02004KT 10SM CLR 15/10 A3012 RMK AO2 SLP199 T01500100=
201908270853 METAR KPAE 270853Z 01004KT 10SM CLR 15/11 A3013 RMK AO2 SLP199 T01500111 58007=
201908270753 METAR KPAE 270753Z 36006KT 10SM CLR 16/10 A3013 RMK AO2 SLP202 T01560100 402220117=
201908270653 METAR KPAE 270653Z 35003KT 10SM CLR 15/11 A3014 RMK AO2 SLP205 T01500106=
201908270553 METAR KPAE 270553Z 36004KT 10SM CLR 16/10 A3015 RMK AO2 SLP208 T01610100 10217 20156 58004=
201908270453 METAR KPAE 270453Z 34004KT 10SM CLR 16/11 A3015 RMK AO2 SLP210 T01610106=
201908270353 METAR KPAE 270353Z 34004KT 10SM CLR 17/11 A3016 RMK AO2 SLP212 T01720106=
201908270253 METAR KPAE 270253Z 34005KT 10SM CLR 18/11 A3016 RMK AO2 SLP211 T01830111 56003=
201908270153 METAR KPAE 270153Z 34006KT 10SM CLR 20/11 A3016 RMK AO2 SLP212 T02000111=
201908270053 METAR KPAE 270053Z 34007KT 10SM CLR 21/11 A3016 RMK AO2 SLP213 T02110106=
201908262353 METAR KPAE 262353Z 35008KT 10SM CLR 22/11 A3017 RMK AO2 SLP214 T02170111 10222 20183 56015=
201908262253 METAR KPAE 262253Z 36009KT 10SM CLR 22/11 A3018 RMK AO2 SLP219 T02170111=
201908262153 METAR KPAE 262153Z 35007KT 10SM CLR 22/11 A3019 RMK AO2 SLP223 T02170111=
201908262053 METAR KPAE 262053Z 36008KT 10SM CLR 21/12 A3021 RMK AO2 SLP229 T02110117 58013=
201908261953 METAR KPAE 261953Z 35008KT 10SM CLR 20/11 A3022 RMK AO2 SLP234 T02000111 $=
201908261853 METAR KPAE 261853Z 33008KT 10SM CLR 19/12 A3025 RMK AO2 SLP241 T01940117 $=
201908261753 METAR KPAE 261753Z 33008KT 10SM CLR 18/11 A3025 RMK AO2 SLP243 T01830111 10189 20117=
201908261653 METAR KPAE 261653Z 36005KT 10SM CLR 16/11 A3025 RMK AO2 SLP244 T01610111 $=
201908261553 METAR KPAE 261553Z 35003KT 14/12 A3026 RMK AO2 SLP244 T01440117 RVRNO $=
201908261506 SPECI KPAE 261506Z VRB04KT 3SM BCFG SCT002 13/12 A3025 RMK AO2 T01280122=
201908261453 METAR KPAE 261453Z 36004KT 1SM R16R/P6000FT BR BKN002 13/12 A3025 RMK AO2 SLP243 T01280117 53009=
201908261353 METAR KPAE 261353Z VRB04KT 1SM R16R/P6000FT BR BKN002 12/11 A3024 RMK AO2 SLP240 T01220111=
201908261351 SPECI KPAE 261351Z 35003KT 1SM R16R/P6000FT BR BKN002 12/11 A3024 RMK AO2=
201908261346 SPECI KPAE 261346Z AUTO 35003KT 6SM BR SCT002 12/11 A3024 RMK AO2 T01220111=
201908261253 METAR KPAE 261253Z AUTO VRB03KT 10SM CLR 12/11 A3023 RMK AO2 SLP236 T01220106=
201908261153 METAR KPAE 261153Z AUTO 01005KT 10SM CLR 12/11 A3022 RMK AO2 SLP234 T01220106 10139 20122 58002=
201908261053 METAR KPAE 261053Z AUTO 01005KT 10SM CLR 12/11 A3023 RMK AO2 SLP237 T01220106=
201908260953 METAR KPAE 260953Z AUTO 00000KT 10SM CLR 12/11 A3023 RMK AO2 SLP237 T01220106=
201908260853 METAR KPAE 260853Z AUTO 02004KT 10SM CLR 13/11 A3023 RMK AO2 SLP236 T01330106 53003=
201908260753 METAR KPAE 260753Z AUTO 35007KT 10SM CLR 13/11 A3023 RMK AO2 SLP234 T01330106 402220133=
201908260653 METAR KPAE 260653Z AUTO 36006KT 10SM CLR 13/11 A3023 RMK AO2 SLP234 T01330106=
201908260553 METAR KPAE 260553Z AUTO 02009KT 10SM CLR 14/11 A3022 RMK AO2 SLP234 T01390106 10217 20139 51007=
201908260453 METAR KPAE 260453Z AUTO 02007KT 10SM CLR 15/12 A3022 RMK AO2 SLP233 T01500117=
201908260353 METAR KPAE 260353Z AUTO 35005KT 10SM CLR 17/12 A3021 RMK AO2 SLP230 T01670117=
201908260253 METAR KPAE 260253Z 31004KT 10SM CLR 19/11 A3020 RMK AO2 SLP226 T01890106 55002=
201908260153 METAR KPAE 260153Z AUTO 28006KT 10SM CLR 21/10 A3020 RMK AO2 SLP225 T02060100=
201908260053 METAR KPAE 260053Z AUTO 24005KT 10SM CLR 21/09 A3020 RMK AO2 SLP225 T02110089=
201908252353 METAR KPAE 252353Z AUTO 27005KT 10SM CLR 22/09 A3021 RMK AO2 SLP227 T02170094 10222 20167 58001=
201908252253 METAR KPAE 252253Z 01005KT 10SM CLR 22/10 A3021 RMK AO2 SLP229 T02170100=
201908252153 METAR KPAE 252153Z VRB05KT 10SM CLR 22/11 A3021 RMK AO2 SLP229 T02170106=
201908252053 METAR KPAE 252053Z 07004KT 10SM SCT028 BKN038 BKN050 21/12 A3021 RMK AO2 SLP229 T02060117 51004=
201908251953 METAR KPAE 251953Z 33004KT 10SM SCT028 BKN038 BKN050 21/12 A3021 RMK AO2 SLP229 T02060117=
201908251853 METAR KPAE 251853Z 02006KT 10SM FEW021 BKN040 18/12 A3021 RMK AO2 SLP227 T01780117=
201908251753 METAR KPAE 251753Z 00000KT 10SM FEW019 BKN041 17/12 A3020 RMK AO2 SLP226 T01670122 10172 20139 52015=
201908251653 METAR KPAE 251653Z VRB03KT 10SM FEW013 BKN042 16/12 A3019 RMK AO2 SLP221 T01610122=
201908251553 METAR KPAE 251553Z 01004KT 10SM SCT019 16/11 A3017 RMK AO2 SLP215 T01560111=
201908251453 METAR KPAE 251453Z VRB03KT 10SM SCT019 16/11 A3016 RMK AO2 SLP210 T01560111 51014=
201908251353 METAR KPAE 251353Z AUTO 00000KT 10SM FEW019 14/11 A3013 RMK AO2 SLP203 T01390106=
201908251351 SPECI KPAE 251351Z AUTO 00000KT 10SM SCT019 14/11 A3014 RMK AO2=
201908251327 SPECI KPAE 251327Z AUTO 01003KT 10SM BKN019 BKN045 14/11 A3013 RMK AO2 T01390111=
201908251253 METAR KPAE 251253Z AUTO 35004KT 10SM OVC041 14/11 A3011 RMK AO2 SLP196 T01390111=
201908251153 METAR KPAE 251153Z AUTO 36004KT 10SM BKN037 OVC047 14/11 A3010 RMK AO2 SLP190 T01440106 10150 20144 53008=
201908251116 SPECI KPAE 251116Z AUTO 02003KT 10SM FEW025 OVC031 14/12 A3009 RMK AO2 T01440117=
201908251109 SPECI KPAE 251109Z AUTO 02005KT 10SM OVC029 14/11 A3009 RMK AO2 T01440111=
201908251100 SPECI KPAE 251100Z AUTO 02006KT 10SM OVC031 14/11 A3008 RMK AO2 T01440111=
201908251053 METAR KPAE 251053Z AUTO 02006KT 10SM OVC029 14/11 A3008 RMK AO2 SLP184 T01440111=
201908250953 METAR KPAE 250953Z AUTO 01003KT 10SM OVC026 15/11 A3008 RMK AO2 SLP184 T01500111=
201908250853 METAR KPAE 250853Z AUTO 03006KT 10SM OVC026 15/11 A3007 RMK AO2 SLP181 T01500111 53007=
201908250832 SPECI KPAE 250832Z AUTO 01006KT 10SM BKN027 OVC041 15/11 A3007 RMK AO2 T01500111=
201908250753 METAR KPAE 250753Z AUTO 01006KT 10SM FEW025 BKN040 OVC049 15/11 A3007 RMK AO2 SLP179 T01500111 402220139=
201908250653 METAR KPAE 250653Z AUTO 36006KT 10SM BKN055 OVC070 15/11 A3006 RMK AO2 SLP176 T01500111=
201908250553 METAR KPAE 250553Z AUTO 36005KT 10SM BKN060 OVC070 15/11 A3005 RMK AO2 SLP175 T01500111 10194 20150 53006=
201908250453 METAR KPAE 250453Z AUTO 36009KT 10SM BKN050 OVC070 15/12 A3004 RMK AO2 SLP170 T01500117=
201908250353 METAR KPAE 250353Z AUTO 01008G15KT 10SM BKN049 OVC055 16/13 A3003 RMK AO2 SLP169 T01560128=
201908250253 METAR KPAE 250253Z AUTO 01007KT 10SM OVC041 16/12 A3003 RMK AO2 SLP169 T01610122 51005=
201908250153 METAR KPAE 250153Z 36008KT 10SM OVC037 17/12 A3003 RMK AO2 SLP167 T01720122=
201908250053 METAR KPAE 250053Z 35007KT 10SM OVC043 18/12 A3002 RMK AO2 SLP166 T01830122=
201908242353 METAR KPAE 242353Z 35008G15KT 10SM OVC055 19/12 A3002 RMK AO2 SLP164 T01940117 10222 20183 53004=
201908242253 METAR KPAE 242253Z 35007KT 10SM FEW070 22/11 A3001 RMK AO2 SLP160 T02170111=
201908242153 METAR KPAE 242153Z 24007KT 10SM OVC070 22/09 A3001 RMK AO2 SLP158 T02220094=
201908242053 METAR KPAE 242053Z 26008KT 10SM CLR 21/11 A3001 RMK AO2 SLP160 T02060106 51002=
201908241953 METAR KPAE 241953Z 28009KT 10SM BKN070 21/12 A3000 RMK AO2 SLP158 T02060117=
201908241853 METAR KPAE 241853Z 26008KT 10SM FEW070 19/11 A3001 RMK AO2 SLP160 T01940106=
201908241753 METAR KPAE 241753Z 10SM FEW048 19/08 A3000 RMK AO2 SLP157 T01940078 10194 20144 53007=
201908241653 METAR KPAE 241653Z VRB03KT 10SM OVC050 17/11 A2999 RMK AO2 SLP155 T01720111=
201908241553 METAR KPAE 241553Z 15004KT 10SM SCT065 BKN080 16/10 A2998 RMK AO2 SLP150 T01610100=
201908241453 METAR KPAE 241453Z 00000KT 10SM OVC060 16/09 A2998 RMK AO2 SLP150 T01560089 51013=
201908241353 METAR KPAE 241353Z 00000KT 10SM FEW047 OVC060 15/10 A2997 RMK AO2 SLP146 T01500100=
201908241253 METAR KPAE 241253Z AUTO 00000KT 10SM BKN048 OVC065 15/11 A2996 RMK AO2 SLP143 T01500106=
201908241153 METAR KPAE 241153Z AUTO 04003KT 10SM BKN048 BKN070 OVC090 15/11 A2994 RMK AO2 SLP138 T01500106 10150 20133 55001=
201908241053 METAR KPAE 241053Z AUTO 03004KT 10SM FEW047 SCT070 BKN085 14/11 A2994 RMK AO2 SLP137 T01390106=
201908240953 METAR KPAE 240953Z AUTO 02005KT 10SM BKN047 OVC075 14/11 A2994 RMK AO2 SLP137 T01440106=
201908240853 METAR KPAE 240853Z AUTO VRB04KT 10SM OVC075 14/09 A2994 RMK AO2 SLP138 T01390094 58000=
201908240753 METAR KPAE 240753Z AUTO 36003KT 10SM SCT070 14/09 A2994 RMK AO2 SLP138 T01390089 402060122=
201908240653 METAR KPAE 240653Z AUTO 02005KT 10SM BKN075 14/09 A2995 RMK AO2 SLP140 T01390089=
201908240553 METAR KPAE 240553Z AUTO 36005KT 10SM CLR 14/10 A2994 RMK AO2 SLP140 T01390100 10172 20139 50001=
201908240453 METAR KPAE 240453Z AUTO 35003KT 10SM CLR 14/11 A2995 RMK AO2 SLP140 T01440106=
201908240353 METAR KPAE 240353Z AUTO 34003KT 10SM OVC080 16/12 A2994 RMK AO2 SLP136 T01560122=
201908240253 METAR KPAE 240253Z VRB03KT 10SM BKN090 16/13 A2994 RMK AO2 SLP137 T01560128 58001=
201908240218 SPECI KPAE 240218Z 35003KT 10SM FEW008 OVC090 16/13 A2994 RMK AO2 T01610133=
201908240153 METAR KPAE 240153Z 34005KT 10SM OVC100 16/13 A2994 RMK AO2 SLP138 T01610133=
201908240053 METAR KPAE 240053Z 36006KT 10SM BKN100 17/12 A2994 RMK AO2 SLP138 T01720122=
201908232353 METAR KPAE 232353Z 35004KT 10SM BKN110 17/13 A2994 RMK AO2 SLP139 T01670128 10206 20144 56010=
201908232253 METAR KPAE 232253Z 35005KT 10SM SCT110 18/12 A2996 RMK AO2 SLP143 T01780117=
201908232153 METAR KPAE 232153Z 29007KT 10SM BKN090 18/11 A2995 RMK AO2 SLP141 T01830111=
201908232053 METAR KPAE 232053Z VRB03KT 10SM BKN095 19/11 A2997 RMK AO2 SLP149 T01940111 58009=
201908231953 METAR KPAE 231953Z 05003KT 10SM OVC100 19/11 A2998 RMK AO2 SLP151 T01890111=
201908231853 METAR KPAE 231853Z VRB05KT 10SM FEW015 BKN100 16/11 A3000 RMK AO2 SLP158 T01560111=
201908231753 METAR KPAE 231753Z 01006KT 10SM SCT120 15/12 A3000 RMK AO2 SLP158 T01500117 10167 20122 58009=
201908231653 METAR KPAE 231653Z 31011G15KT 10SM CLR 16/11 A3003 RMK AO2 SLP168 T01560111=
201908231553 METAR KPAE 231553Z 06003KT 10SM FEW120 14/11 A3001 RMK AO2 SLP160 T01440111=
201908231453 METAR KPAE 231453Z 01003KT 10SM CLR 14/12 A3003 RMK AO2 SLP167 T01390117 53007=
201908231353 METAR KPAE 231353Z 01004KT 10SM CLR 13/12 A3002 RMK AO2 SLP164 T01330117=
201908231326 SPECI KPAE 231326Z AUTO 35003KT 8SM FEW004 13/12 A3002 RMK AO2 T01280117=
201908231253 METAR KPAE 231253Z AUTO 35004KT 9SM CLR 13/12 A3001 RMK AO2 SLP160 T01280117=
201908231153 METAR KPAE 231153Z AUTO 00000KT 10SM CLR 12/12 A3001 RMK AO2 SLP160 T01220117 10172 20122 56006=
201908231053 METAR KPAE 231053Z AUTO 00000KT 10SM CLR 13/12 A3001 RMK AO2 SLP161 T01280117=
201908230953 METAR KPAE 230953Z AUTO 36003KT 10SM CLR 13/12 A3001 RMK AO2 SLP160 T01330117=
201908230853 METAR KPAE 230853Z AUTO 01003KT 10SM CLR 13/11 A3003 RMK AO2 SLP166 T01330111 58008=
201908230753 METAR KPAE 230753Z AUTO 01003KT 10SM CLR 14/11 A3003 RMK AO2 SLP169 T01440111 402170122=
201908230653 METAR KPAE 230653Z AUTO 35003KT 10SM CLR 16/10 A3005 RMK AO2 SLP173 T01560100=
201908230553 METAR KPAE 230553Z AUTO 00000KT 10SM CLR 17/10 A3005 RMK AO2 SLP174 T01670100 10211 20167 58003=
201908230453 METAR KPAE 230453Z AUTO 00000KT 10SM CLR 18/10 A3006 RMK AO2 SLP178 T01780100=
201908230353 METAR KPAE 230353Z AUTO 00000KT 10SM CLR 18/11 A3006 RMK AO2 SLP179 T01780106=
201908230253 METAR KPAE 230253Z 26003KT 10SM CLR 19/10 A3006 RMK AO2 SLP177 T01940100 56007=
201908230153 METAR KPAE 230153Z 30003KT 10SM CLR 20/10 A3006 RMK AO2 SLP179 T02000100=
201908230053 METAR KPAE 230053Z 28004KT 10SM CLR 20/10 A3007 RMK AO2 SLP181 T02000100=
201908222353 METAR KPAE 222353Z 28005KT 10SM CLR 21/10 A3008 RMK AO2 SLP184 T02060100 10217 20172 56010=
201908222253 METAR KPAE 222253Z 30006KT 10SM CLR 21/11 A3008 RMK AO2 SLP185 T02060106=
201908222153 METAR KPAE 222153Z VRB03KT 10SM SCT030 21/11 A3010 RMK AO2 SLP190 T02110106=
201908222053 METAR KPAE 222053Z 36005KT 10SM CLR 21/09 A3011 RMK AO2 SLP194 T02060094 58002=
201908221953 METAR KPAE 221953Z VRB04KT 10SM CLR 19/11 A3011 RMK AO2 SLP196 T01940106=
201908221853 METAR KPAE 221853Z VRB03KT 10SM CLR 18/10 A3012 RMK AO2 SLP198 T01830100=
201908221753 METAR KPAE 221753Z 32005KT 10SM FEW017 SCT025 17/12 A3011 RMK AO2 SLP196 T01720117 10172 20122 51011=
201908221700 SPECI KPAE 221700Z VRB03KT 10SM SCT003 BKN046 16/13 A3011 RMK AO2 T01560133=
201908221653 METAR KPAE 221653Z 25004KT 4SM BR SCT001 BKN008 15/13 A3011 RMK AO2 SLP194 T01500133=
201908221621 SPECI KPAE 221621Z 27004KT 4SM R16R/1600VP6000FT BR SCT001 BKN008 13/13 A3010 RMK AO2 T01330128=
201908221617 SPECI KPAE 221617Z 26004KT 3SM R16R/1600VP6000FT BR OVC001 13/13 A3010 RMK AO2 T01330128=
201908221610 SPECI KPAE 221610Z 26004KT 2 1/2SM R16R/3500VP6000FT BR OVC001 13/13 A3010 RMK AO2 VIS 3/4V5 T01330133=
201908221553 METAR KPAE 221553Z 26004KT 1/2SM R16R/1800V4500FT FG OVC001 13/13 A3009 RMK AO2 SLP190 T01330128=
201908221547 SPECI KPAE 221547Z 25004KT 1/4SM R16R/2000VP6000FT FG VV001 13/13 A3009 RMK AO2=
201908221537 SPECI KPAE 221537Z 26006KT 2SM R16R/2000VP6000FT BR BKN002 13/13 A3009 RMK AO2 T01330128=
201908221529 SPECI KPAE 221529Z 24007KT 1 3/4SM R16R/2800VP6000FT BR BKN002 13/13 A3009 RMK AO2 VIS 3/4V4 T01330128=
201908221526 SPECI KPAE 221526Z 23006KT 2 1/2SM R16R/3000VP6000FT BR BKN001 13/13 A3009 RMK AO2 T01330128=
201908221453 METAR KPAE 221453Z 24005KT 9SM SCT004 13/12 A3008 RMK AO2 SLP186 T01330122 53009=
201908221439 SPECI KPAE 221439Z 21004KT 9SM FEW004 13/12 A3008 RMK AO2 T01330122=
201908221353 METAR KPAE 221353Z 20003KT 9SM CLR 12/11 A3007 RMK AO2 SLP183 T01220111=
201908221253 METAR KPAE 221253Z AUTO 00000KT 10SM CLR 12/11 A3006 RMK AO2 SLP177 T01220106=
201908221207 SPECI KPAE 221207Z AUTO 00000KT 8SM SCT026 BKN055 13/11 A3005 RMK AO2 T01280111=
201908221153 METAR KPAE 221153Z AUTO 00000KT 9SM FEW010 BKN025 BKN060 13/12 A3005 RMK AO2 SLP176 70013 T01280117 10139 20128 51014=
201908221141 SPECI KPAE 221141Z AUTO 00000KT 9SM SCT010 BKN060 13/11 A3005 RMK AO2 T01280111=
201908221125 SPECI KPAE 221125Z AUTO 00000KT 9SM BKN010 OVC015 13/11 A3004 RMK AO2 T01280111=
201908221108 SPECI KPAE 221108Z AUTO 33003KT 9SM BKN015 OVC023 13/12 A3004 RMK AO2 T01330117=
201908221053 METAR KPAE 221053Z AUTO VRB03KT 9SM BKN014 OVC038 13/12 A3004 RMK AO2 SLP172 T01330117=
201908221040 SPECI KPAE 221040Z AUTO VRB03KT 9SM FEW011 BKN016 OVC038 13/12 A3004 RMK AO2 T01330117=
201908220953 METAR KPAE 220953Z AUTO 35005KT 9SM OVC010 13/12 A3003 RMK AO2 SLP168 T01330117=
201908220853 METAR KPAE 220853Z AUTO 35003KT 9SM OVC013 13/12 A3001 RMK AO2 SLP161 T01330117 58001=
201908220835 SPECI KPAE 220835Z AUTO VRB03KT 10SM OVC014 13/11 A3001 RMK AO2 T01330111=
201908220753 METAR KPAE 220753Z AUTO 36005KT 10SM BKN018 OVC065 14/11 A3002 RMK AO2 SLP164 T01390111 402000133=
201908220653 METAR KPAE 220653Z AUTO 36006KT 10SM FEW031 OVC070 14/11 A3002 RMK AO2 SLP163 T01390106=
201908220553 METAR KPAE 220553Z AUTO 36009KT 10SM OVC032 14/11 A3001 RMK AO2 SLP162 60000 T01390111 10178 20139 51004=
201908220519 SPECI KPAE 220519Z AUTO 02008KT 10SM OVC032 14/11 A3001 RMK AO2 T01440111=
201908220509 SPECI KPAE 220509Z AUTO 01008KT 10SM BKN029 OVC037 14/11 A3001 RMK AO2 T01440111=
201908220453 METAR KPAE 220453Z AUTO 01008KT 10SM FEW029 OVC037 14/12 A3001 RMK AO2 SLP162 T01440117 TSNO=
201908220431 SPECI KPAE 220431Z AUTO 02007KT 10SM SCT024 OVC037 14/11 A3001 RMK AO2 T01440111=
201908220400 SPECI KPAE 220400Z AUTO 02007KT 10SM BKN019 BKN028 OVC050 14/12 A3002 RMK AO2 T01440117=
201908220353 METAR KPAE 220353Z AUTO 02006KT 10SM SCT017 BKN050 OVC065 14/12 A3002 RMK AO2 SLP164 T01440117=
201908220334 SPECI KPAE 220334Z 01005KT 10SM SCT016 BKN060 OVC070 14/12 A3002 RMK AO2 T01440117=
201908220318 SPECI KPAE 220318Z AUTO 01005KT 10SM BKN015 OVC060 14/13 A3001 RMK AO2 T01440128=
201908220300 SPECI KPAE 220300Z 02005KT 10SM OVC014 14/13 A3000 RMK AO2 T01440128=
201908220253 METAR KPAE 220253Z 02006KT 10SM FEW001 OVC009 14/13 A3000 RMK AO2 RAE09B34E50 SLP159 P0000 60000 T01440133 53008=
201908220217 SPECI KPAE 220217Z 35005KT 9SM SCT001 OVC008 15/14 A3000 RMK AO2 RAE09 P0000 T01500144=
201908220210 SPECI KPAE 220210Z 34006KT 7SM BKN001 OVC008 15/14 A3000 RMK AO2 RAE09 P0000 T01500144=
201908220153 METAR KPAE 220153Z 35006KT 1/4SM R16R/1200VP6000FT -RA FG VV001 16/15 A2999 RMK AO2 RAB13 SLP156 P0000 T01560150=
201908220146 SPECI KPAE 220146Z VRB05KT 1/8SM R16R/1200V5500FT -RA FG VV002 16/16 A2999 RMK AO2 RAB13 P0000 T01610156=
201908220136 SPECI KPAE 220136Z 36005KT 3/4SM R16R/P6000FT -RA BR BKN002 OVC030 16/16 A2999 RMK AO2 RAB13 P0000 T01610156=
201908220124 SPECI KPAE 220124Z VRB03KT 2SM -RA BR BKN002 OVC030 17/16 A2999 RMK AO2 RAB13 P0000 T01670156=
201908220119 SPECI KPAE 220119Z 33005KT 1 3/4SM -RA BR BKN020 OVC030 17/15 A2999 RMK AO2 RAB13 P0000 T01670150=
201908220102 SPECI KPAE 220102Z 27005KT 10SM BKN010 OVC030 17/15 A2999 RMK AO2 T01720150=
201908220053 METAR KPAE 220053Z 25006KT 10SM SCT020 OVC030 18/15 A2998 RMK AO2 SLP151 T01780150=
201908220041 SPECI KPAE 220041Z 26006KT 10SM SCT014 BKN020 OVC028 18/15 A2998 RMK AO2 T01780150=
201908212353 METAR KPAE 212353Z 23004KT 10SM BKN010 OVC017 18/15 A2998 RMK AO2 SLP150 60000 T01780150 10200 20172 56004=
201908212330 SPECI KPAE 212330Z 21006KT 8SM BKN010 OVC017 18/15 A2997 RMK AO2 T01780150=
201908212253 METAR KPAE 212253Z AUTO 24006KT 10SM OVC017 18/14 A2998 RMK AO2 SLP149 T01830144=
201908212153 METAR KPAE 212153Z 17007KT 10SM OVC017 18/14 A2999 RMK AO2 SLP152 T01830139=
201908212053 METAR KPAE 212053Z 16008KT 10SM BKN025 OVC031 19/13 A2999 RMK AO2 SLP153 60000 T01940133 58001=
201908212045 SPECI KPAE 212045Z 18009KT 10SM BKN025 OVC031 19/14 A2999 RMK AO2 T01940139=
201908211953 METAR KPAE 211953Z 15008KT 10SM FEW010 BKN050 OVC100 19/13 A2999 RMK AO2 RAB37E47 SLP155 P0000 T01890133=
201908211853 METAR KPAE 211853Z 17010KT 10SM FEW005 SCT045 OVC075 19/15 A2999 RMK AO2 RAB1755E04 SLP155 P0000 T01890150=
201908211753 METAR KPAE 211753Z 14007KT 10SM FEW055 OVC080 17/15 A2999 RMK AO2 RAE49 SLP154 P0004 60013 T01670150 10172 20156 58002=
201908211653 METAR KPAE 211653Z 14007KT 3SM RA BR BKN009 BKN060 OVC075 16/14 A3000 RMK AO2 SLP156 P0003 T01610144=
201908211607 SPECI KPAE 211607Z 16015G22KT 3SM -RA BR FEW007 OVC060 16/14 A3000 RMK AO2 P0001 T01610144=
201908211553 METAR KPAE 211553Z 17012G21KT 2SM -RA BR FEW007 OVC055 16/14 A3000 RMK AO2 SLP157 P0003 T01560144=
201908211543 SPECI KPAE 211543Z 17014KT 2SM -RA BR FEW007 BKN047 OVC060 16/14 A3000 RMK AO2 P0003 T01560144=
201908211535 SPECI KPAE 211535Z 17014KT 2SM -RA BR BKN049 OVC055 16/14 A3000 RMK AO2 P0002 T01560144=
201908211453 METAR KPAE 211453Z 15013KT 10SM -RA BKN060 OVC080 16/14 A3000 RMK AO2 RAB14 SLP155 P0003 60003 T01560139 53005=
201908211353 METAR KPAE 211353Z 16014G21KT 10SM FEW047 OVC060 16/13 A2999 RMK AO2 RAB26E42 SLP154 P0000 T01610133=
201908211253 METAR KPAE 211253Z AUTO 15010G16KT 10SM FEW065 OVC085 17/13 A2998 RMK AO2 SLP149 T01720128=
201908211153 METAR KPAE 211153Z AUTO 15010KT 10SM BKN050 OVC090 17/13 A2998 RMK AO2 SLP150 T01670128 10194 20167 56008=
201908211053 METAR KPAE 211053Z AUTO 14010G15KT 10SM OVC100 17/13 A2999 RMK AO2 SLP151 T01670128=
201908210953 METAR KPAE 210953Z AUTO 15011KT 10SM BKN110 17/12 A2999 RMK AO2 SLP153 T01720122=
201908210853 METAR KPAE 210853Z AUTO 16009KT 10SM CLR 17/12 A3001 RMK AO2 SLP158 T01720117 51009=
201908210753 METAR KPAE 210753Z AUTO 17009KT 10SM CLR 18/12 A3000 RMK AO2 SLP156 T01780122 402780122=
201908210653 METAR KPAE 210653Z AUTO 16012KT 10SM CLR 18/13 A3000 RMK AO2 SLP154 T01830128=
201908210553 METAR KPAE 210553Z AUTO 17012KT 10SM CLR 19/13 A2998 RMK AO2 SLP148 T01940133 10267 20178 51018=
201908210453 METAR KPAE 210453Z AUTO 18004KT 10SM CLR 19/13 A2997 RMK AO2 SLP146 T01940128=
201908210353 METAR KPAE 210353Z 02004KT 10SM CLR 19/12 A2994 RMK AO2 SLP138 T01890122=
201908210253 METAR KPAE 210253Z 22007KT 10SM CLR 25/13 A2992 RMK AO2 SLP130 T02500133 53006=
201908210153 METAR KPAE 210153Z 20005KT 10SM CLR 26/13 A2991 RMK AO2 SLP126 T02560128=
201908210053 METAR KPAE 210053Z 20008KT 10SM CLR 27/12 A2991 RMK AO2 SLP125 T02670122=
201908202353 METAR KPAE 202353Z 18008KT 10SM CLR 27/12 A2991 RMK AO2 SLP123 T02670117 10278 20206 58010=
201908202253 METAR KPAE 202253Z 17009KT 10SM CLR 27/11 A2991 RMK AO2 SLP126 T02670111=
201908202153 METAR KPAE 202153Z 17006KT 10SM CLR 27/12 A2993 RMK AO2 SLP131 T02670122=
201908202053 METAR KPAE 202053Z 25006KT 10SM CLR 25/13 A2993 RMK AO2 SLP134 T02500133 58006=
201908201953 METAR KPAE 201953Z 26005KT 10SM CLR 24/13 A2994 RMK AO2 SLP137 T02390133=
201908201853 METAR KPAE 201853Z 27005KT 10SM CLR 22/13 A2995 RMK AO2 SLP139 T02170128=
201908201753 METAR KPAE 201753Z VRB03KT 10SM CLR 21/13 A2995 RMK AO2 SLP141 T02110128 10211 20122 58003=
201908201653 METAR KPAE 201653Z 18004KT 10SM CLR 19/12 A2996 RMK AO2 SLP144 T01940122=
201908201553 METAR KPAE 201553Z 00000KT 10SM CLR 17/12 A2997 RMK AO2 SLP146 T01720122=
201908201453 METAR KPAE 201453Z 00000KT 10SM CLR 16/12 A2996 RMK AO2 SLP145 T01560122 53001=
201908201353 METAR KPAE 201353Z 00000KT 10SM CLR 14/11 A2995 RMK AO2 SLP141 T01390111=
201908201253 METAR KPAE 201253Z AUTO 00000KT 10SM CLR 13/11 A2996 RMK AO2 SLP142 T01280106=
201908201153 METAR KPAE 201153Z AUTO 36003KT 10SM CLR 13/11 A2996 RMK AO2 SLP144 T01280106 10150 20122 56006=
201908201053 METAR KPAE 201053Z AUTO 34003KT 10SM CLR 13/11 A2997 RMK AO2 SLP148 T01280111=
201908200953 METAR KPAE 200953Z AUTO 00000KT 10SM CLR 13/11 A2997 RMK AO2 SLP146 T01330106=
201908200853 METAR KPAE 200853Z AUTO 01004KT 10SM CLR 14/10 A2998 RMK AO2 SLP150 T01390100 55006=
201908200753 METAR KPAE 200753Z AUTO 35003KT 10SM CLR 14/11 A2998 RMK AO2 SLP150 T01390106 402170139=
201908200653 METAR KPAE 200653Z AUTO 00000KT 10SM CLR 14/11 A2998 RMK AO2 SLP152 T01440111=
201908200553 METAR KPAE 200553Z AUTO 34003KT 10SM CLR 15/11 A3000 RMK AO2 SLP156 T01500111 10217 20150 58002=
201908200453 METAR KPAE 200453Z AUTO 35004KT 10SM CLR 16/11 A3000 RMK AO2 SLP157 T01610106=
201908200353 METAR KPAE 200353Z AUTO 34004KT 10SM CLR 17/11 A3000 RMK AO2 SLP159 T01720106=
201908200253 METAR KPAE 200253Z 35004KT 10SM CLR 18/11 A3000 RMK AO2 SLP158 T01830111 55008=
201908200153 METAR KPAE 200153Z 35006KT 10SM CLR 20/11 A3000 RMK AO2 SLP156 T02000111=
201908200053 METAR KPAE 200053Z 28005KT 10SM CLR 21/12 A3002 RMK AO2 SLP163 T02060117=
201908192353 METAR KPAE 192353Z 28007KT 10SM CLR 21/12 A3003 RMK AO2 SLP166 T02110117 10217 20172 58005=
201908192253 METAR KPAE 192253Z 30004KT 10SM SCT038 21/11 A3003 RMK AO2 SLP166 T02110111=
201908192153 METAR KPAE 192153Z 31007KT 10SM SCT038 21/12 A3004 RMK AO2 SLP171 T02060122=
201908192100 SPECI KPAE 192100Z 29007KT 10SM FEW038 21/12 A3004 RMK AO2 T02060122=
201908192053 METAR KPAE 192053Z 28007KT 240V310 10SM SCT014 BKN025 21/12 A3004 RMK AO2 SLP171 T02060122 53002=
201908192007 SPECI KPAE 192007Z 28008KT 10SM SCT014 BKN025 21/12 A3003 RMK AO2 T02060122=
201908191953 METAR KPAE 191953Z 29005KT 10SM SCT019 BKN025 OVC035 19/12 A3003 RMK AO2 SLP168 T01940122=
201908191909 SPECI KPAE 191909Z VRB03KT 10SM SCT019 BKN025 OVC035 18/12 A3003 RMK AO2 T01830117=
201908191902 SPECI KPAE 191902Z 34004KT 10SM FEW019 SCT025 OVC035 18/12 A3004 RMK AO2 T01830117=
201908191853 METAR KPAE 191853Z 01004KT 10SM SCT019 BKN025 OVC035 18/12 A3004 RMK AO2 SLP171 T01830122=
201908191840 SPECI KPAE 191840Z 31004KT 10SM BKN018 BKN025 OVC040 18/12 A3004 RMK AO2 T01780122=
201908191800 SPECI KPAE 191800Z VRB03KT 10SM FEW026 SCT034 OVC043 18/13 A3004 RMK AO2 T01780128=
201908191753 METAR KPAE 191753Z VRB03KT 10SM BKN014 OVC045 17/13 A3004 RMK AO2 SLP170 T01720128 10178 20150 53008=
201908191710 SPECI KPAE 191710Z 28004KT 10SM BKN014 OVC045 17/13 A3003 RMK AO2 T01670128=
201908191653 METAR KPAE 191653Z 27004KT 10SM BKN020 OVC045 17/13 A3003 RMK AO2 SLP167 T01670128=
201908191632 SPECI KPAE 191632Z 28004KT 10SM BKN017 OVC045 17/13 A3002 RMK AO2 T01670128=
201908191624 SPECI KPAE 191624Z 16003KT 10SM SCT017 OVC045 17/12 A3002 RMK AO2 T01720122=
201908191553 METAR KPAE 191553Z 00000KT 10SM FEW016 BKN028 OVC044 17/12 A3001 RMK AO2 SLP163 T01670122=
201908191549 SPECI KPAE 191549Z VRB03KT 10SM FEW016 BKN028 OVC044 17/12 A3001 RMK AO2=
201908191453 METAR KPAE 191453Z 09003KT 10SM FEW029 OVC043 16/12 A3001 RMK AO2 SLP160 T01560122 51015=
201908191353 METAR KPAE 191353Z 01004KT 10SM OVC041 16/13 A2999 RMK AO2 SLP156 T01560128=
201908191253 METAR KPAE 191253Z 02004KT 10SM OVC039 16/13 A2998 RMK AO2 SLP149 T01560128=
201908191238 SPECI KPAE 191238Z 04003KT 10SM SCT028 OVC039 15/13 A2997 RMK AO2 T01500128=
201908191215 SPECI KPAE 191215Z 04004KT 10SM BKN028 OVC039 15/13 A2997 RMK AO2 T01500128=
201908191153 METAR KPAE 191153Z 02004KT 10SM FEW030 OVC039 15/12 A2996 RMK AO2 SLP143 T01500122 10156 20144 51008=
201908191053 METAR KPAE 191053Z 01003KT 10SM OVC032 15/12 A2995 RMK AO2 SLP140 T01500122=
201908190953 METAR KPAE 190953Z VRB04KT 10SM OVC029 15/12 A2994 RMK AO2 SLP135 T01500122=
201908190853 METAR KPAE 190853Z 02005KT 10SM BKN029 BKN041 15/12 A2992 RMK AO2 SLP131 T01500122 53006=
201908190753 METAR KPAE 190753Z 02004KT 10SM BKN042 15/12 A2992 RMK AO2 SLP129 T01500122 402220133=
201908190653 METAR KPAE 190653Z 01004KT 10SM CLR 15/12 A2991 RMK AO2 SLP127 T01500122=
201908190553 METAR KPAE 190553Z 01005KT 10SM CLR 15/12 A2991 RMK AO2 SLP125 T01500122 10217 20150 51009=
201908190453 METAR KPAE 190453Z 36006KT 10SM CLR 15/12 A2990 RMK AO2 SLP123 T01500117=
201908190353 METAR KPAE 190353Z 36006KT 10SM CLR 16/12 A2989 RMK AO2 SLP120 T01560117=
201908190253 METAR KPAE 190253Z 35006KT 10SM CLR 17/12 A2988 RMK AO2 SLP116 T01720117 55000=
201908190153 METAR KPAE 190153Z 35006KT 10SM CLR 18/12 A2987 RMK AO2 SLP115 T01830122=
201908190053 METAR KPAE 190053Z 35008KT 10SM CLR 20/12 A2987 RMK AO2 SLP114 T02000122=
201908182353 METAR KPAE 182353Z 30003KT 10SM FEW024 21/13 A2988 RMK AO2 SLP116 T02110128 10222 20172 56008=
201908182253 METAR KPAE 182253Z 24006KT 10SM FEW024 21/12 A2988 RMK AO2 SLP118 T02110122=
201908182200 SPECI KPAE 182200Z 25006KT 10SM FEW024 21/13 A2989 RMK AO2 T02110128=
201908182153 METAR KPAE 182153Z 26006KT 10SM BKN024 21/13 A2989 RMK AO2 SLP119 T02110128=
201908182105 SPECI KPAE 182105Z 25006KT 10SM BKN024 21/13 A2990 RMK AO2 T02060128=
201908182053 METAR KPAE 182053Z 00000KT 10SM BKN024 20/13 A2990 RMK AO2 SLP125 T02000128 58001=
201908181953 METAR KPAE 181953Z 27006KT 10SM OVC024 19/12 A2991 RMK AO2 SLP128 T01890122=
201908181853 METAR KPAE 181853Z 25004KT 10SM OVC020 18/13 A2991 RMK AO2 SLP127 T01830128=
201908181753 METAR KPAE 181753Z 23004KT 10SM OVC018 17/13 A2991 RMK AO2 SLP125 T01720128 10172 20133 50002=
201908181653 METAR KPAE 181653Z 24003KT 10SM OVC019 17/13 A2991 RMK AO2 SLP126 T01670133=
201908181553 METAR KPAE 181553Z 20005KT 10SM OVC019 16/13 A2990 RMK AO2 SLP123 T01610128=
201908181537 SPECI KPAE 181537Z 20003KT 10SM FEW014 OVC019 16/13 A2990 RMK AO2 T01560128=
201908181453 METAR KPAE 181453Z 00000KT 10SM SCT010 BKN014 OVC022 16/13 A2990 RMK AO2 SLP122 T01560128 55004=
201908181353 METAR KPAE 181353Z AUTO 05003KT 10SM OVC011 14/12 A2989 RMK AO2 SLP121 T01390122=
201908181253 METAR KPAE 181253Z AUTO 01004KT 10SM OVC011 14/13 A2991 RMK AO2 SLP125 T01390128=
201908181201 SPECI KPAE 181201Z AUTO 00000KT 10SM OVC012 13/13 A2991 RMK AO2 T01330128=
201908181153 METAR KPAE 181153Z AUTO 35004KT 10SM OVC015 13/13 A2991 RMK AO2 SLP126 T01330128 10156 20133 58003=
201908181122 SPECI KPAE 181122Z AUTO 00000KT 10SM BKN015 13/13 A2991 RMK AO2 T01330128=
201908181053 METAR KPAE 181053Z AUTO 00000KT 10SM SCT004 13/13 A2991 RMK AO2 SLP127 T01330128=
201908181036 SPECI KPAE 181036Z AUTO 00000KT 10SM BKN004 OVC035 13/13 A2991 RMK AO2 T01330128=
201908181029 SPECI KPAE 181029Z AUTO 00000KT 10SM SCT005 OVC035 14/13 A2992 RMK AO2 T01390128=
201908180953 METAR KPAE 180953Z AUTO 34004KT 10SM BKN035 14/13 A2992 RMK AO2 SLP130 T01390128=
201908180853 METAR KPAE 180853Z AUTO 01006KT 10SM CLR 14/13 A2992 RMK AO2 SLP130 T01390128 58003=
201908180753 METAR KPAE 180753Z AUTO 36005KT 10SM CLR 14/13 A2993 RMK AO2 SLP134 T01440128 402220144=
201908180653 METAR KPAE 180653Z AUTO 02006KT 10SM FEW060 15/13 A2993 RMK AO2 SLP135 T01500133=
201908180553 METAR KPAE 180553Z AUTO 02004KT 10SM CLR 16/13 A2993 RMK AO2 SLP133 T01560133 10217 20156 52001=
201908180453 METAR KPAE 180453Z AUTO 00000KT 10SM CLR 17/13 A2993 RMK AO2 SLP132 T01720128=
201908180353 METAR KPAE 180353Z AUTO 00000KT 10SM BKN060 19/13 A2993 RMK AO2 SLP132 T01940128=
201908180253 METAR KPAE 180253Z 21005KT 10SM OVC060 21/13 A2993 RMK AO2 SLP131 T02060128 56013=
201908180153 METAR KPAE 180153Z 22005KT 10SM OVC060 21/13 A2993 RMK AO2 SLP134 T02110128=
201908180053 METAR KPAE 180053Z 23007KT 10SM BKN030 OVC060 21/13 A2995 RMK AO2 SLP140 T02110128=
201908172353 METAR KPAE 172353Z 25007KT 10SM BKN029 22/13 A2996 RMK AO2 SLP144 T02170128 10222 20178 58014=
201908172253 METAR KPAE 172253Z 23009KT 10SM BKN028 22/12 A2998 RMK AO2 SLP149 T02220122=
201908172205 SPECI KPAE 172205Z 25010KT 10SM BKN028 22/12 A2999 RMK AO2 T02170122=
201908172200 SPECI KPAE 172200Z 24009KT 220V280 10SM CLR 22/12 A2999 RMK AO2 T02220122=
201908172153 METAR KPAE 172153Z 26007KT 10SM BKN028 22/13 A2999 RMK AO2 SLP154 T02170128=
201908172053 METAR KPAE 172053Z 27009KT 10SM BKN028 21/12 A3000 RMK AO2 SLP158 T02060122 58007=
201908171953 METAR KPAE 171953Z 23007KT 10SM SCT028 OVC055 19/13 A3001 RMK AO2 SLP162 T01940128=
201908171853 METAR KPAE 171853Z 24007KT 10SM BKN025 OVC060 18/13 A3002 RMK AO2 SLP163 T01830128=
201908171753 METAR KPAE 171753Z 30004KT 10SM BKN018 OVC024 18/13 A3003 RMK AO2 SLP165 T01780133 10178 20150 51003=
201908171653 METAR KPAE 171653Z VRB04KT 10SM OVC018 17/13 A3002 RMK AO2 SLP165 T01670133=
201908171553 METAR KPAE 171553Z 27004KT 10SM BKN013 BKN043 16/13 A3002 RMK AO2 SLP166 T01610128=
201908171533 SPECI KPAE 171533Z VRB04KT 10SM BKN013 BKN043 17/13 A3002 RMK AO2 T01670128=
201908171525 SPECI KPAE 171525Z 22006KT 10SM BKN015 BKN043 17/13 A3002 RMK AO2 T01670128=
201908171453 METAR KPAE 171453Z 00000KT 10SM BKN043 OVC060 16/13 A3002 RMK AO2 SLP163 T01610128 55000=
201908171353 METAR KPAE 171353Z 00000KT 10SM BKN015 OVC033 16/13 A3002 RMK AO2 SLP163 T01560128=
201908171253 METAR KPAE 171253Z AUTO 00000KT 10SM OVC016 16/13 A3001 RMK AO2 SLP161 T01560128=
201908171229 SPECI KPAE 171229Z AUTO 00000KT 10SM OVC016 16/13 A3002 RMK AO2 T01560128=
201908171202 SPECI KPAE 171202Z AUTO 00000KT 10SM BKN014 OVC031 15/13 A3002 RMK AO2 T01500128=
201908171153 METAR KPAE 171153Z AUTO 35003KT 10SM BKN015 OVC031 15/13 A3002 RMK AO2 SLP163 T01500128 10172 20150 56005=
201908171053 METAR KPAE 171053Z AUTO 00000KT 10SM OVC065 16/13 A3002 RMK AO2 SLP163 T01560133=
201908170953 METAR KPAE 170953Z AUTO 00000KT 10SM SCT029 OVC060 16/13 A3002 RMK AO2 SLP165 T01610128=
201908170853 METAR KPAE 170853Z AUTO 20004KT 10SM BKN027 OVC032 16/13 A3003 RMK AO2 SLP168 T01610128 58003=
201908170840 SPECI KPAE 170840Z AUTO 21005KT 10SM SCT027 OVC032 16/13 A3004 RMK AO2 T01610128=
201908170753 METAR KPAE 170753Z AUTO 22005KT 10SM BKN027 OVC033 17/13 A3004 RMK AO2 SLP170 T01720128 402170139=
201908170711 SPECI KPAE 170711Z AUTO 21003KT 10SM BKN028 OVC070 17/13 A3004 RMK AO2 T01720128=
201908170653 METAR KPAE 170653Z AUTO 20003KT 10SM FEW027 FEW055 OVC070 17/13 A3004 RMK AO2 SLP171 T01720128=
201908170553 METAR KPAE 170553Z AUTO 20003KT 10SM SCT025 17/13 A3004 RMK AO2 SLP171 T01720128 10194 20172 56004=
201908170453 METAR KPAE 170453Z 21004KT 10SM SCT060 OVC070 18/13 A3004 RMK AO2 SLP173 T01780133=
201908170353 METAR KPAE 170353Z 22004KT 10SM OVC070 18/13 A3005 RMK AO2 SLP175 T01780133=
201908170253 METAR KPAE 170253Z 24005KT 10SM OVC039 18/13 A3005 RMK AO2 SLP176 T01830133 56009=
201908170200 SPECI KPAE 170200Z 22005KT 10SM OVC033 19/13 A3006 RMK AO2 T01890133=
201908170153 METAR KPAE 170153Z 23004KT 10SM OVC028 19/13 A3006 RMK AO2 SLP179 T01890133=
201908170053 METAR KPAE 170053Z 25005KT 10SM OVC028 19/13 A3007 RMK AO2 SLP181 T01940133=
201908162353 METAR KPAE 162353Z 22006KT 10SM OVC025 19/13 A3008 RMK AO2 SLP185 T01890128 10217 20172 58010=
201908162253 METAR KPAE 162253Z VRB06KT 10SM OVC023 20/13 A3009 RMK AO2 SLP189 T02000128=
201908162230 SPECI KPAE 162230Z 19010G16KT 10SM BKN025 19/13 A3009 RMK AO2 T01940128=
201908162153 METAR KPAE 162153Z 18011G17KT 10SM SCT029 21/13 A3010 RMK AO2 SLP191 T02060128=
201908162053 METAR KPAE 162053Z 27007KT 10SM BKN029 20/13 A3011 RMK AO2 SLP195 T02000128 58010=
201908161953 METAR KPAE 161953Z 25007KT 10SM BKN028 19/13 A3012 RMK AO2 SLP200 T01890128=
201908161853 METAR KPAE 161853Z 24007KT 10SM OVC023 18/12 A3013 RMK AO2 SLP203 T01780122=
201908161753 METAR KPAE 161753Z 18005KT 10SM OVC018 17/12 A3014 RMK AO2 SLP206 T01720117 10178 20139 58002=
201908161700 SPECI KPAE 161700Z 17008KT 10SM OVC017 17/12 A3014 RMK AO2 T01720122=
201908161653 METAR KPAE 161653Z 17007KT 10SM OVC014 17/12 A3015 RMK AO2 SLP207 T01670122=
201908161553 METAR KPAE 161553Z 19007KT 10SM OVC014 16/12 A3015 RMK AO2 SLP208 T01560122=
201908161529 SPECI KPAE 161529Z 18006KT 10SM BKN014 OVC020 15/12 A3015 RMK AO2 T01500117=
201908161453 METAR KPAE 161453Z 17004KT 10SM BKN020 16/12 A3015 RMK AO2 SLP208 T01560117 53004=
201908161353 METAR KPAE 161353Z 10003KT 10SM OVC016 14/11 A3014 RMK AO2 SLP206 T01440111=
201908161324 SPECI KPAE 161324Z AUTO 15003KT 10SM OVC015 14/12 A3013 RMK AO2 T01440117=
201908161253 METAR KPAE 161253Z AUTO 08003KT 10SM OVC013 14/11 A3014 RMK AO2 SLP203 T01390111=
201908161248 SPECI KPAE 161248Z AUTO 07003KT 10SM OVC014 14/11 A3014 RMK AO2=
201908161153 METAR KPAE 161153Z AUTO 09005KT 10SM BKN017 BKN036 14/11 A3014 RMK AO2 SLP204 T01440111 10150 20144 53001=
201908161148 SPECI KPAE 161148Z AUTO 08004KT 10SM SCT017 BKN036 14/11 A3014 RMK AO2=
201908161138 SPECI KPAE 161138Z AUTO 08005KT 10SM BKN015 BKN035 14/11 A3014 RMK AO2 T01440111=
201908161108 SPECI KPAE 161108Z AUTO 06006KT 10SM BKN012 OVC036 14/12 A3013 RMK AO2 T01440117=
201908161053 METAR KPAE 161053Z AUTO 07005KT 10SM FEW012 BKN036 OVC043 14/12 A3013 RMK AO2 SLP202 T01440117=
201908160953 METAR KPAE 160953Z AUTO 02007KT 10SM OVC036 14/12 A3014 RMK AO2 SLP203 T01440117=
201908160853 METAR KPAE 160853Z AUTO 02007KT 10SM OVC034 15/12 A3014 RMK AO2 SLP203 T01500117 55000=
201908160753 METAR KPAE 160753Z AUTO 01004KT 10SM CLR 15/12 A3013 RMK AO2 SLP201 T01500117 402500150=
201908160653 METAR KPAE 160653Z AUTO 02008KT 10SM CLR 15/12 A3013 RMK AO2 SLP202 T01500122=
201908160553 METAR KPAE 160553Z AUTO 01009KT 10SM CLR 15/12 A3014 RMK AO2 SLP203 T01500122 10250 20150 50001=
201908160453 METAR KPAE 160453Z AUTO 01009G15KT 10SM CLR 16/13 A3014 RMK AO2 SLP204 T01560128=
201908160353 METAR KPAE 160353Z AUTO 02009KT 10SM FEW080 17/13 A3014 RMK AO2 SLP205 T01670133=
201908160253 METAR KPAE 160253Z 01006KT 10SM FEW075 18/14 A3013 RMK AO2 SLP203 T01830139 56010=
201908160153 METAR KPAE 160153Z 36005KT 10SM CLR 19/14 A3014 RMK AO2 SLP206 T01940139=
201908160053 METAR KPAE 160053Z 35007KT 10SM CLR 22/13 A3015 RMK AO2 SLP207 T02220133=
201908152353 METAR KPAE 152353Z AUTO 24007KT 10SM CLR 24/12 A3016 RMK AO2 SLP211 T02440122 10250 20194 56016=
201908152253 METAR KPAE 152253Z AUTO 27007G16KT 10SM CLR 24/12 A3017 RMK AO2 SLP216 T02390122=
201908152153 METAR KPAE 152153Z 26006KT 10SM CLR 23/13 A3019 RMK AO2 SLP222 T02330128=
201908152053 METAR KPAE 152053Z 22008KT 10SM CLR 22/13 A3021 RMK AO2 SLP228 T02220133 58008=
201908151953 METAR KPAE 151953Z 24008KT 10SM CLR 21/15 A3022 RMK AO2 SLP232 T02060150=
201908151853 METAR KPAE 151853Z 26008KT 10SM CLR 19/14 A3023 RMK AO2 SLP236 T01940139=
201908151753 METAR KPAE 151753Z VRB05KT 10SM CLR 20/15 A3024 RMK AO2 SLP236 T02000150 10200 20150 50000=
201908151653 METAR KPAE 151653Z 00000KT 10SM FEW018 19/14 A3024 RMK AO2 SLP237 T01940139=
201908151553 METAR KPAE 151553Z 00000KT 10SM FEW006 18/14 A3023 RMK AO2 SLP237 T01780144=
201908151453 METAR KPAE 151453Z 00000KT 10SM SCT003 16/14 A3023 RMK AO2 SLP237 T01610144 53007=
201908151446 SPECI KPAE 151446Z 00000KT 10SM SCT003 16/14 A3024 RMK AO2 T01560144=
201908151437 SPECI KPAE 151437Z 36003KT 10SM BKN003 15/14 A3023 RMK AO2 T01500144=
201908151426 SPECI KPAE 151426Z 01004KT 10SM SCT003 15/14 A3023 RMK AO2 T01500139=
201908151353 METAR KPAE 151353Z 01005KT 10SM FEW065 15/14 A3022 RMK AO2 SLP231 T01500139=
201908151253 METAR KPAE 151253Z 00000KT 10SM BKN065 15/14 A3021 RMK AO2 SLP230 T01500139=
201908151223 SPECI KPAE 151223Z 06004KT 10SM SCT004 SCT065 15/14 A3021 RMK AO2 T01500139=
201908151153 METAR KPAE 151153Z 05004KT 10SM OVC003 15/14 A3021 RMK AO2 SLP227 T01500139 10172 20150 53004=
201908151053 METAR KPAE 151053Z 02004KT 10SM OVC004 15/14 A3021 RMK AO2 SLP226 T01500139=
201908151020 SPECI KPAE 151020Z 02006KT 10SM BKN004 15/14 A3021 RMK AO2 T01500139=
201908151002 SPECI KPAE 151002Z 02005KT 10SM FEW004 16/14 A3020 RMK AO2 T01560139=
201908150953 METAR KPAE 150953Z VRB03KT 10SM CLR 16/13 A3020 RMK AO2 SLP224 T01560133=
201908150853 METAR KPAE 150853Z 33003KT 10SM CLR 17/13 A3020 RMK AO2 SLP223 T01670128 53002=
201908150753 METAR KPAE 150753Z 04004KT 10SM CLR 16/14 A3019 RMK AO2 SLP220 T01610139 402610150=
201908150653 METAR KPAE 150653Z VRB06KT 10SM CLR 16/14 A3019 RMK AO2 SLP222 T01560139=
201908150553 METAR KPAE 150553Z 35010G16KT 10SM CLR 17/13 A3019 RMK AO2 SLP222 T01670133 10250 20161 51007=
201908150453 METAR KPAE 150453Z 36008G16KT 10SM CLR 16/13 A3019 RMK AO2 SLP220 T01610133=
201908150353 METAR KPAE 150353Z 01006KT 10SM SCT075 17/13 A3018 RMK AO2 SLP219 T01670128=
201908150253 METAR KPAE 150253Z 35005KT 10SM OVC085 18/13 A3017 RMK AO2 SLP215 T01780128 55000=
201908150153 METAR KPAE 150153Z 36006KT 10SM CLR 21/13 A3016 RMK AO2 SLP211 T02110128=
201908150053 METAR KPAE 150053Z 36007KT 10SM CLR 23/13 A3016 RMK AO2 SLP211 T02330133=
201908142353 METAR KPAE 142353Z 34007KT 10SM CLR 25/13 A3017 RMK AO2 SLP214 T02500128 10261 20217 57005=
201908142253 METAR KPAE 142253Z 35007KT 10SM CLR 25/12 A3018 RMK AO2 SLP216 T02500122=
201908142153 METAR KPAE 142153Z 27006KT 10SM CLR 26/12 A3018 RMK AO2 SLP218 T02560117=
201908142053 METAR KPAE 142053Z 30005KT 10SM CLR 24/12 A3019 RMK AO2 SLP220 T02440122 56003=
201908141953 METAR KPAE 141953Z 25006KT 10SM CLR 23/13 A3019 RMK AO2 SLP220 T02330133=
201908141853 METAR KPAE 141853Z VRB04KT 10SM CLR 23/13 A3019 RMK AO2 SLP221 T02280128=
201908141753 METAR KPAE 141753Z 26004KT 10SM CLR 22/13 A3020 RMK AO2 SLP222 T02170128 10217 20150 51005=
201908141653 METAR KPAE 141653Z VRB03KT 10SM CLR 21/13 A3020 RMK AO2 SLP223 T02060128=
201908141553 METAR KPAE 141553Z 36004KT 10SM CLR 19/12 A3019 RMK AO2 SLP221 T01940122=
201908141453 METAR KPAE 141453Z VRB03KT 10SM CLR 18/12 A3018 RMK AO2 SLP217 T01780122 53008=
201908141353 METAR KPAE 141353Z 01003KT 10SM CLR 16/12 A3017 RMK AO2 SLP214 T01610122=
201908141253 METAR KPAE 141253Z 34003KT 10SM CLR 15/11 A3016 RMK AO2 SLP211 T01500111=
201908141153 METAR KPAE 141153Z 00000KT 10SM CLR 16/11 A3016 RMK AO2 SLP208 T01610111 10189 20156 51005=
201908141053 METAR KPAE 141053Z 35003KT 10SM CLR 16/11 A3015 RMK AO2 SLP206 T01610111=
201908140953 METAR KPAE 140953Z 36003KT 10SM CLR 17/11 A3015 RMK AO2 SLP205 T01670111=
201908140853 METAR KPAE 140853Z 00000KT 10SM CLR 17/11 A3014 RMK AO2 SLP203 T01720111 51005=
201908140753 METAR KPAE 140753Z 36003KT 10SM CLR 18/11 A3013 RMK AO2 SLP201 T01780106 402560156=
201908140653 METAR KPAE 140653Z 36003KT 10SM CLR 18/12 A3013 RMK AO2 SLP201 T01830117=
201908140553 METAR KPAE 140553Z 36004KT 10SM CLR 19/12 A3012 RMK AO2 SLP198 T01890117 10256 20189 53009=
201908140453 METAR KPAE 140453Z 34004KT 10SM CLR 19/12 A3012 RMK AO2 SLP195 T01940117=
201908140353 METAR KPAE 140353Z 35003KT 10SM CLR 21/11 A3011 RMK AO2 SLP191 T02110111=
201908140253 METAR KPAE 140253Z 35004KT 10SM CLR 22/11 A3010 RMK AO2 SLP189 T02220111 56006=
201908140153 METAR KPAE 140153Z 36005KT 10SM CLR 23/11 A3010 RMK AO2 SLP189 T02330111=
201908140053 METAR KPAE 140053Z 35005KT 10SM CLR 24/12 A3011 RMK AO2 SLP192 T02440117=
201908132353 METAR KPAE 132353Z 36008KT 10SM CLR 25/13 A3012 RMK AO2 SLP195 T02500128 10256 20211 58004=
201908132253 METAR KPAE 132253Z AUTO 36007KT 10SM BKN100 26/12 A3013 RMK AO2 SLP198 T02560117=
201908132153 METAR KPAE 132153Z 36005KT 10SM BKN090 25/12 A3013 RMK AO2 SLP200 T02500122=
201908132053 METAR KPAE 132053Z 31005KT 10SM CLR 24/13 A3013 RMK AO2 SLP200 T02440128 50000=
201908131953 METAR KPAE 131953Z 29007KT 240V330 10SM CLR 24/13 A3013 RMK AO2 SLP201 T02390133=
201908131853 METAR KPAE 131853Z 31007KT 10SM CLR 22/14 A3014 RMK AO2 SLP203 T02220139=
201908131753 METAR KPAE 131753Z 29004KT 10SM SCT090 21/14 A3013 RMK AO2 SLP201 T02110139 10217 20156 53004=
201908131653 METAR KPAE 131653Z 00000KT 10SM BKN100 21/13 A3012 RMK AO2 SLP197 T02060133=
201908131553 METAR KPAE 131553Z 00000KT 10SM CLR 18/13 A3012 RMK AO2 SLP197 T01830133=
201908131453 METAR KPAE 131453Z 00000KT 10SM CLR 17/13 A3012 RMK AO2 SLP196 T01720133 53005=
201908131353 METAR KPAE 131353Z 12003KT 10SM CLR 16/13 A3011 RMK AO2 SLP194 T01610128=
201908131253 METAR KPAE 131253Z AUTO 06003KT 10SM FEW120 17/13 A3010 RMK AO2 SLP191 T01670128=
201908131153 METAR KPAE 131153Z AUTO 01003KT 10SM SCT120 16/13 A3010 RMK AO2 SLP191 T01610128 10172 20156 58004=
201908131053 METAR KPAE 131053Z AUTO VRB03KT 10SM BKN120 16/12 A3011 RMK AO2 SLP192 T01560122=
201908130953 METAR KPAE 130953Z AUTO 01003KT 10SM CLR 16/13 A3012 RMK AO2 SLP196 T01610128=
201908130853 METAR KPAE 130853Z AUTO 02005KT 10SM CLR 17/13 A3012 RMK AO2 SLP196 T01670133 51002=
201908130753 METAR KPAE 130753Z AUTO 36004KT 10SM CLR 16/13 A3012 RMK AO2 SLP196 T01610128 402440150=
201908130653 METAR KPAE 130653Z AUTO 01006KT 10SM CLR 17/13 A3012 RMK AO2 SLP197 T01670133=
201908130553 METAR KPAE 130553Z AUTO 01004KT 10SM CLR 17/12 A3011 RMK AO2 SLP194 T01720122 10244 20172 51007=
201908130453 METAR KPAE 130453Z AUTO 36005KT 10SM CLR 18/12 A3011 RMK AO2 SLP193 T01830122=
201908130353 METAR KPAE 130353Z AUTO 00000KT 10SM CLR 20/11 A3010 RMK AO2 SLP191 T02000111=
201908130253 METAR KPAE 130253Z 00000KT 10SM CLR 22/11 A3009 RMK AO2 SLP187 T02220106 56008=
201908130153 METAR KPAE 130153Z 34004KT 10SM CLR 23/09 A3009 RMK AO2 SLP187 T02330094=
201908130053 METAR KPAE 130053Z 35004KT 10SM CLR 24/11 A3010 RMK AO2 SLP190 T02440106=
201908122353 METAR KPAE 122353Z VRB04KT 10SM CLR 24/11 A3011 RMK AO2 SLP194 T02390111 10244 20189 58014=
201908122253 METAR KPAE 122253Z 28005KT 10SM SCT065 24/11 A3013 RMK AO2 SLP199 T02390106=
201908122153 METAR KPAE 122153Z 28006KT 10SM BKN065 23/12 A3015 RMK AO2 SLP206 T02280122=
201908122053 METAR KPAE 122053Z 00000KT 10SM BKN065 22/13 A3016 RMK AO2 SLP209 T02220128 58005=
201908121953 METAR KPAE 121953Z 27004KT 10SM OVC065 21/14 A3017 RMK AO2 SLP213 T02060144=
201908121853 METAR KPAE 121853Z 28005KT 10SM BKN020 BKN065 19/15 A3017 RMK AO2 SLP214 T01890150=
201908121835 SPECI KPAE 121835Z 29005KT 10SM SCT020 SCT065 19/15 A3017 RMK AO2 T01890150=
201908121821 SPECI KPAE 121821Z 26005KT 9SM BKN020 BKN026 19/15 A3017 RMK AO2 T01940150=
201908121800 SPECI KPAE 121800Z 23004KT 9SM FEW025 SCT030 19/15 A3017 RMK AO2 T01940150=
201908121753 METAR KPAE 121753Z 24004KT 8SM SCT008 OVC014 19/15 A3017 RMK AO2 SLP215 T01940150 10200 20156 50000=
201908121700 SPECI KPAE 121700Z 20004KT 10SM SCT008 OVC014 18/15 A3017 RMK AO2 T01830150=
201908121653 METAR KPAE 121653Z 21004KT 10SM BKN006 OVC014 18/14 A3017 RMK AO2 SLP216 T01780144=
201908121610 SPECI KPAE 121610Z 18007KT 10SM BKN006 OVC014 18/14 A3017 RMK AO2 T01780144=
201908121600 SPECI KPAE 121600Z 19005KT 10SM OVC016 17/15 A3018 RMK AO2 T01720150=
201908121553 METAR KPAE 121553Z 14004KT 10SM BKN007 OVC012 17/15 A3018 RMK AO2 SLP216 T01720150=
201908121453 METAR KPAE 121453Z 00000KT 10SM BKN006 16/15 A3017 RMK AO2 SLP215 T01610150 52006=
201908121416 SPECI KPAE 121416Z 14003KT 10SM BKN006 OVC012 16/15 A3017 RMK AO2 T01610150=
201908121353 METAR KPAE 121353Z 16005KT 10SM BKN011 OVC060 16/15 A3017 RMK AO2 SLP213 T01610150=
201908121346 SPECI KPAE 121346Z AUTO 16003KT 10SM BKN011 OVC060 16/15 A3016 RMK AO2 T01610150=
201908121322 SPECI KPAE 121322Z AUTO 00000KT 8SM FEW004 OVC060 16/15 A3016 RMK AO2 T01560150=
201908121253 METAR KPAE 121253Z AUTO 15003KT 10SM BKN055 16/15 A3016 RMK AO2 SLP210 T01560150=
201908121153 METAR KPAE 121153Z AUTO 18005KT 9SM FEW007 OVC047 16/15 A3015 RMK AO2 SLP208 60001 70002 T01560150 10178 20150 52001=
201908121149 SPECI KPAE 121149Z AUTO 18006KT 9SM SCT007 OVC045 16/15 A3015 RMK AO2=
201908121100 SPECI KPAE 121100Z AUTO 15005KT 10SM BKN007 OVC048 16/15 A3015 RMK AO2 T01610150=
201908121053 METAR KPAE 121053Z AUTO 00000KT 10SM SCT007 BKN048 16/15 A3015 RMK AO2 SLP207 T01560150=
201908121051 SPECI KPAE 121051Z AUTO 15003KT 10SM SCT007 BKN048 16/15 A3015 RMK AO2=
201908121043 SPECI KPAE 121043Z AUTO 17003KT 4SM BR BKN048 15/14 A3015 RMK AO2 T01500144=
201908121032 SPECI KPAE 121032Z AUTO 00000KT 1SM R16R/1600VP6000FT BR FEW001 SCT006 BKN048 16/15 A3015 RMK AO2 T01560150=
201908121021 SPECI KPAE 121021Z AUTO 00000KT 1 1/4SM R16R/1400V2200FT BR SCT001 OVC048 16/16 A3015 RMK AO2 T01560156=
201908121007 SPECI KPAE 121007Z AUTO 02003KT 1/2SM R16R/2200VP6000FT FG BKN001 BKN048 OVC075 16/15 A3015 RMK AO2 T01560150=
201908121002 SPECI KPAE 121002Z AUTO 02003KT 1 3/4SM R16R/2400VP6000FT BR SCT001 SCT040 OVC048 16/15 A3015 RMK AO2 VIS 3/4V4 T01560150=
201908120953 METAR KPAE 120953Z AUTO 36003KT 8SM FEW004 BKN050 OVC075 16/15 A3014 RMK AO2 SLP206 T01560150=
201908120915 SPECI KPAE 120915Z AUTO 00000KT 10SM FEW002 SCT025 OVC033 16/16 A3015 RMK AO2 T01610156=
201908120908 SPECI KPAE 120908Z AUTO 12004KT 10SM SCT002 BKN025 OVC033 16/15 A3015 RMK AO2 T01560150=
201908120857 SPECI KPAE 120857Z AUTO 10005KT 3SM R16R/3500VP6000FT BR BKN002 OVC024 16/15 A3015 RMK AO2 T01560150=
201908120853 METAR KPAE 120853Z AUTO 10004KT 1SM R16R/3500VP6000FT BR BKN002 OVC024 16/15 A3015 RMK AO2 RAE38 SLP207 P0001 60001 T01560150 51002=
201908120851 SPECI KPAE 120851Z AUTO 09004KT 1SM R16R/3500VP6000FT BR VV002 16/15 A3015 RMK AO2 RAE38 P0001=
201908120840 SPECI KPAE 120840Z AUTO 00000KT 2 1/2SM R16R/3500VP6000FT BR OVC002 16/16 A3015 RMK AO2 RAE38 P0001 T01560156=
201908120826 SPECI KPAE 120826Z AUTO 00000KT 1/2SM R16R/2200VP6000FT -RA FG VV002 16/16 A3015 RMK AO2 P0001 T01560156=
201908120816 SPECI KPAE 120816Z AUTO 01003KT 1 3/4SM -RA BR BKN002 OVC008 16/16 A3015 RMK AO2 P0001 T01610156=
201908120753 METAR KPAE 120753Z AUTO VRB04KT 5SM R16R/2000VP6000FT -RA BR OVC003 16/16 A3015 RMK AO2 RAB34 SLP207 P0000 T01610156 402220156=
201908120743 SPECI KPAE 120743Z AUTO 00000KT 3SM -RA BR BKN003 OVC013 16/16 A3015 RMK AO2 RAB34 P0000 T01610156=
201908120728 SPECI KPAE 120728Z AUTO 00000KT 10SM FEW008 BKN014 OVC025 17/16 A3014 RMK AO2 T01670156=
201908120653 METAR KPAE 120653Z AUTO 11007KT 9SM OVC019 17/15 A3014 RMK AO2 RAB0559E08 SLP205 P0000 T01670150=
201908120553 METAR KPAE 120553Z AUTO 11003KT 10SM OVC021 18/15 A3014 RMK AO2 RAB25E35 SLP206 P0000 60000 T01780150 10211 20178 50004=
201908120453 METAR KPAE 120453Z AUTO VRB03KT 10SM BKN025 OVC030 18/14 A3014 RMK AO2 SLP205 T01830144=
201908120428 SPECI KPAE 120428Z AUTO 11005KT 10SM BKN026 OVC033 18/14 A3014 RMK AO2 T01830144=
201908120353 METAR KPAE 120353Z AUTO 00000KT 10SM OVC030 18/15 A3014 RMK AO2 RAB15E26 SLP204 P0000 T01780150=
201908120253 METAR KPAE 120253Z 14007KT 10SM FEW023 BKN034 OVC043 19/14 A3013 RMK AO2 SLP202 T01890139 53005=
201908120153 METAR KPAE 120153Z 11007KT 10SM BKN038 OVC048 20/14 A3012 RMK AO2 SLP199 T02000144=
201908120124 SPECI KPAE 120124Z VRB05KT 10SM SCT028 BKN042 OVC050 20/14 A3012 RMK AO2 T02000139=
201908120053 METAR KPAE 120053Z 15004KT 10SM BKN028 BKN033 OVC048 21/13 A3012 RMK AO2 SLP196 T02060133=
201908120041 SPECI KPAE 120041Z 18004KT 10SM BKN028 OVC049 21/13 A3012 RMK AO2 T02060133=
201908120000 SPECI KPAE 120000Z 14007KT 10SM FEW028 BKN049 OVC070 21/13 A3012 RMK AO2 T02060133=
201908112353 METAR KPAE 112353Z 16005KT 10SM BKN028 BKN065 OVC080 21/13 A3012 RMK AO2 SLP196 60001 T02110133 10222 20167 56006=
201908112253 METAR KPAE 112253Z 16005KT 10SM BKN023 BKN065 OVC080 22/14 A3012 RMK AO2 SLP197 T02220139=
201908112153 METAR KPAE 112153Z VRB04KT 10SM BKN023 BKN065 OVC080 20/13 A3013 RMK AO2 SLP199 T02000133=
201908112145 SPECI KPAE 112145Z 18006KT 10SM BKN023 BKN065 OVC080 20/13 A3013 RMK AO2 T02000133=
201908112053 METAR KPAE 112053Z 16007KT 10SM FEW020 OVC070 19/13 A3013 RMK AO2 SLP202 60001 T01940133 51008=
201908112045 SPECI KPAE 112045Z 15009KT 10SM SCT020 SCT050 OVC070 19/13 A3013 RMK AO2 T01940133=
201908111953 METAR KPAE 111953Z 19007KT 10SM BKN016 BKN019 18/14 A3013 RMK AO2 SLP201 T01830139=
201908111910 SPECI KPAE 111910Z 19007KT 10SM BKN012 BKN019 OVC100 18/13 A3012 RMK AO2 T01780133=
201908111853 METAR KPAE 111853Z 15008KT 10SM BKN008 BKN019 OVC060 18/14 A3012 RMK AO2 RAB04E25 SLP198 P0001 T01830139=
201908111753 METAR KPAE 111753Z 17007KT 10SM BKN008 BKN012 OVC017 17/14 A3011 RMK AO2 SLP195 T01670139 10172 20156 53010=
201908111653 METAR KPAE 111653Z 17008KT 10SM OVC008 17/13 A3010 RMK AO2 SLP192 T01670133=
201908111553 METAR KPAE 111553Z 16007KT 10SM BKN007 OVC048 16/13 A3009 RMK AO2 SLP188 T01610133=
201908111453 METAR KPAE 111453Z 18007KT 10SM BKN007 OVC048 16/12 A3008 RMK AO2 SLP185 T01560122 53016=
201908111441 SPECI KPAE 111441Z 16006KT 10SM BKN007 OVC048 16/12 A3008 RMK AO2 T01560122=
201908111353 METAR KPAE 111353Z 15007KT 10SM FEW017 OVC050 16/13 A3007 RMK AO2 SLP180 T01560128=
201908111253 METAR KPAE 111253Z 20004KT 10SM OVC038 16/13 A3005 RMK AO2 SLP174 T01560128=
201908111153 METAR KPAE 111153Z 00000KT 10SM BKN039 OVC046 16/12 A3003 RMK AO2 SLP168 70042 T01560122 10161 20150 53005=
201908111053 METAR KPAE 111053Z 06005KT 10SM BKN036 OVC045 16/12 A3002 RMK AO2 SLP165 T01610117=
201908110953 METAR KPAE 110953Z 05005KT 10SM OVC033 16/12 A3002 RMK AO2 SLP162 T01610122=
201908110853 METAR KPAE 110853Z 02004KT 10SM OVC032 16/12 A3002 RMK AO2 SLP163 T01560122 50003=
201908110753 METAR KPAE 110753Z 02007KT 10SM BKN031 BKN040 OVC065 16/13 A3002 RMK AO2 SLP165 T01560128 402060139=
201908110653 METAR KPAE 110653Z 03006KT 10SM OVC036 16/12 A3001 RMK AO2 SLP162 T01560122=
201908110553 METAR KPAE 110553Z 36004KT 10SM SCT048 OVC055 16/12 A3001 RMK AO2 SLP161 T01560122 10200 20156 50009=
201908110453 METAR KPAE 110453Z 36006KT 10SM OVC055 16/13 A3001 RMK AO2 SLP162 T01610128=
201908110353 METAR KPAE 110353Z 33006KT 10SM OVC050 16/13 A2999 RMK AO2 SLP154 T01560128=
201908110253 METAR KPAE 110253Z 35005KT 10SM OVC050 17/12 A2998 RMK AO2 SLP151 T01670122 53007=
201908110153 METAR KPAE 110153Z 35006KT 10SM OVC050 17/12 A2997 RMK AO2 SLP147 T01720122=
201908110053 METAR KPAE 110053Z 35006KT 10SM OVC050 18/14 A2997 RMK AO2 SLP148 T01830139=
201908102353 METAR KPAE 102353Z 35009KT 10SM SCT050 20/14 A2996 RMK AO2 SLP143 60000 T02000144 10206 20156 58009=
201908102253 METAR KPAE 102253Z VRB05KT 10SM CLR 21/16 A2997 RMK AO2 SLP148 T02060156=
201908102153 METAR KPAE 102153Z 35006KT 10SM CLR 19/16 A2997 RMK AO2 SLP148 T01940156=
201908102053 METAR KPAE 102053Z 28006KT 10SM SCT005 SCT080 19/15 A2999 RMK AO2 SLP152 60000 T01940150 50000=
201908101953 METAR KPAE 101953Z 29005KT 10SM BKN006 BKN016 OVC022 18/15 A2999 RMK AO2 SLP155 T01780150=
201908101945 SPECI KPAE 101945Z VRB06KT 10SM BKN006 BKN016 OVC022 18/16 A2999 RMK AO2 T01830156=
201908101936 SPECI KPAE 101936Z 29005KT 10SM SCT009 OVC016 19/16 A2999 RMK AO2 T01890161=
201908101900 SPECI KPAE 101900Z 27004KT 10SM BKN006 OVC014 17/16 A2999 RMK AO2 T01720156=
201908101853 METAR KPAE 101853Z VRB03KT 10SM OVC002 17/16 A2999 RMK AO2 RAE01 SLP154 P0000 T01720156=
201908101820 SPECI KPAE 101820Z 00000KT 10SM BKN002 BKN030 BKN060 17/15 A2999 RMK AO2 RAE01 P0000 T01670150=
201908101753 METAR KPAE 101753Z 02003KT 8SM -RA BKN007 BKN030 OVC095 16/14 A2999 RMK AO2 SLP153 P0005 60042 T01560144 10161 20139 53001=
201908101743 SPECI KPAE 101743Z 02003KT 5SM -RA BR BKN007 BKN030 OVC095 16/14 A2999 RMK AO2 P0005 T01610144=
201908101709 SPECI KPAE 101709Z 00000KT 4SM -RA BR FEW014 SCT047 OVC095 15/14 A2998 RMK AO2 P0002 T01500139=
201908101700 SPECI KPAE 101700Z 06003KT 4SM RA BR BKN012 BKN070 OVC095 15/14 A2998 RMK AO2 P0001 T01500139=
201908101653 METAR KPAE 101653Z 07003KT 4SM RA BR BKN004 BKN070 OVC100 15/14 A2998 RMK AO2 SLP151 P0010 T01500139=
201908101633 SPECI KPAE 101633Z 00000KT 4SM RA BR BKN004 BKN070 OVC100 14/14 A2998 RMK AO2 P0007 T01440139=
201908101619 SPECI KPAE 101619Z 00000KT 4SM -RA BR SCT004 SCT070 OVC100 14/14 A2998 RMK AO2 P0003 T01440139=
201908101608 SPECI KPAE 101608Z 35004KT 4SM -RA BR FEW055 SCT075 OVC100 14/13 A2998 RMK AO2 P0002 T01440133=
201908101600 SPECI KPAE 101600Z 02003KT 2SM RA BR FEW055 BKN075 OVC090 14/13 A2998 RMK AO2 P0002 T01440133=
201908101553 METAR KPAE 101553Z 36003KT 3SM +RA BR SCT004 OVC030 14/13 A2998 RMK AO2 SLP150 P0019 T01390133=
201908101545 SPECI KPAE 101545Z 02003KT 3SM +RA BR SCT004 OVC030 14/13 A2998 RMK AO2 P0015 T01440133=
201908101535 SPECI KPAE 101535Z 00000KT 2 1/2SM RA BR SCT004 OVC030 14/13 A2998 RMK AO2 P0009 T01440133=
201908101506 SPECI KPAE 101506Z 34003KT 2 1/2SM -RA BR FEW018 SCT030 OVC060 14/13 A2998 RMK AO2 P0004 T01390133=
201908101453 METAR KPAE 101453Z 00000KT 2SM RA BR BKN020 BKN033 OVC060 14/13 A2999 RMK AO2 SLP153 P0006 60008 T01440128 51009=
201908101415 SPECI KPAE 101415Z 00000KT 8SM -RA BKN024 OVC036 14/13 A2999 RMK AO2 P0001 T01440128=
201908101353 METAR KPAE 101353Z AUTO 00000KT 8SM -RA FEW026 BKN037 OVC080 14/13 A2998 RMK AO2 RAE06B27 SLP152 P0000 T01440133=
201908101253 METAR KPAE 101253Z AUTO 35003KT 8SM -RA BKN030 OVC039 14/13 A2997 RMK AO2 RAB00 SLP146 P0002 T01440128=
201908101153 METAR KPAE 101153Z AUTO 02004KT 10SM OVC031 16/13 A2996 RMK AO2 SLP143 T01560128 10167 20150 55003=
201908101053 METAR KPAE 101053Z AUTO 00000KT 10SM BKN036 16/12 A2995 RMK AO2 SLP139 T01610122=
201908100953 METAR KPAE 100953Z AUTO VRB03KT 10SM OVC035 16/12 A2996 RMK AO2 SLP144 T01610117=
201908100853 METAR KPAE 100853Z AUTO 02003KT 10SM OVC037 16/12 A2997 RMK AO2 SLP147 T01610117 50001=
201908100753 METAR KPAE 100753Z AUTO 00000KT 10SM OVC033 16/12 A2998 RMK AO2 SLP150 T01560122 402170144=
201908100653 METAR KPAE 100653Z AUTO 02003KT 10SM OVC033 15/12 A2998 RMK AO2 SLP152 T01500122=
201908100553 METAR KPAE 100553Z AUTO 01006KT 10SM BKN033 15/12 A2997 RMK AO2 SLP146 T01500122 10206 20150 51008=
201908100453 METAR KPAE 100453Z AUTO 01005KT 10SM BKN033 16/12 A2996 RMK AO2 SLP145 T01560117=
201908100353 METAR KPAE 100353Z AUTO 36006KT 10SM CLR 16/12 A2995 RMK AO2 SLP140 T01610122=
201908100304 SPECI KPAE 100304Z VRB06KT 10SM SCT025 17/12 A2994 RMK AO2 T01720122=
201908100253 METAR KPAE 100253Z 36005KT 10SM BKN025 18/12 A2994 RMK AO2 SLP138 T01780122 56004=
201908100153 METAR KPAE 100153Z 35006KT 10SM BKN027 19/12 A2995 RMK AO2 SLP139 T01890117=
201908100053 METAR KPAE 100053Z 35007KT 10SM BKN028 19/12 A2995 RMK AO2 SLP140 T01890122=
201908092353 METAR KPAE 092353Z AUTO 35005KT 10SM OVC028 20/12 A2996 RMK AO2 SLP142 T02000122 10217 20172 56006=
201908092253 METAR KPAE 092253Z AUTO 34005KT 10SM OVC029 21/13 A2996 RMK AO2 SLP143 T02060133=
201908092153 METAR KPAE 092153Z VRB03KT 10SM OVC026 19/13 A2997 RMK AO2 SLP147 T01940128=
201908092053 METAR KPAE 092053Z 32004KT 10SM OVC024 18/12 A2997 RMK AO2 SLP149 T01830122 56006=
201908091953 METAR KPAE 091953Z 00000KT 10SM BKN020 OVC026 19/13 A2998 RMK AO2 SLP149 T01940128=
201908091900 SPECI KPAE 091900Z 04003KT 10SM BKN020 OVC026 18/13 A2999 RMK AO2 T01780128=
201908091853 METAR KPAE 091853Z 36005KT 10SM SCT009 OVC014 18/13 A2999 RMK AO2 SLP154 T01780128=
201908091753 METAR KPAE 091753Z 00000KT 10SM SCT009 OVC014 17/13 A2999 RMK AO2 SLP154 T01720128 10172 20144 58002=
201908091713 SPECI KPAE 091713Z 05004KT 10SM SCT009 OVC014 16/13 A3000 RMK AO2 T01610128=
201908091653 METAR KPAE 091653Z 04003KT 10SM OVC014 16/13 A3000 RMK AO2 SLP157 T01610128=
201908091553 METAR KPAE 091553Z 35003KT 10SM OVC014 15/12 A3000 RMK AO2 SLP157 T01500122=
201908091500 SPECI KPAE 091500Z 00000KT 10SM OVC013 15/13 A3000 RMK AO2 T01500128=
201908091453 METAR KPAE 091453Z 36003KT 10SM OVC015 15/12 A3000 RMK AO2 SLP157 T01500122 53006=
201908091433 SPECI KPAE 091433Z 36004KT 10SM OVC015 15/12 A3000 RMK AO2 T01500122=
201908091353 METAR KPAE 091353Z 03005KT 10SM OVC014 15/12 A2999 RMK AO2 SLP155 T01500122=
201908091322 SPECI KPAE 091322Z AUTO 36006KT 10SM OVC014 15/12 A2999 RMK AO2 T01500122=
201908091253 METAR KPAE 091253Z AUTO 36004KT 10SM BKN016 OVC028 15/12 A2999 RMK AO2 SLP153 T01500122=
201908091234 SPECI KPAE 091234Z AUTO 36005KT 10SM SCT011 OVC027 15/12 A2999 RMK AO2 T01500122=
201908091153 METAR KPAE 091153Z AUTO 35004KT 10SM OVC011 15/13 A2998 RMK AO2 SLP151 T01500128 10178 20144 55002=
201908091145 SPECI KPAE 091145Z AUTO 01005KT 10SM BKN010 OVC033 15/13 A2998 RMK AO2 T01500128=
201908091053 METAR KPAE 091053Z AUTO 36004KT 10SM OVC031 15/13 A2998 RMK AO2 SLP150 T01500128=
201908090953 METAR KPAE 090953Z AUTO 36003KT 10SM FEW012 OVC032 15/13 A2998 RMK AO2 SLP151 T01500128=
201908090947 SPECI KPAE 090947Z AUTO 35004KT 10SM SCT013 OVC030 15/13 A2998 RMK AO2=
201908090918 SPECI KPAE 090918Z AUTO 35004KT 10SM BKN014 OVC033 15/13 A2999 RMK AO2 T01500128=
201908090853 METAR KPAE 090853Z AUTO 00000KT 10SM SCT014 OVC033 16/14 A2999 RMK AO2 SLP152 T01610139 58003=
201908090753 METAR KPAE 090753Z AUTO 00000KT 10SM OVC033 16/14 A2999 RMK AO2 SLP155 T01610139 402000150=
201908090726 SPECI KPAE 090726Z AUTO 26004KT 10SM FEW012 SCT018 OVC034 16/14 A3000 RMK AO2 T01610139=
201908090653 METAR KPAE 090653Z AUTO 00000KT 10SM BKN016 BKN022 OVC034 16/14 A3000 RMK AO2 SLP158 T01610139=
201908090553 METAR KPAE 090553Z AUTO 21004KT 10SM OVC032 18/13 A3000 RMK AO2 SLP156 T01780133 10189 20178 50003=
201908090508 SPECI KPAE 090508Z AUTO 21004KT 10SM OVC030 18/14 A3000 RMK AO2 T01780139=
201908090453 METAR KPAE 090453Z AUTO 22004KT 10SM OVC028 18/13 A3000 RMK AO2 SLP158 T01780133=
201908090353 METAR KPAE 090353Z 21004KT 10SM OVC026 18/13 A2999 RMK AO2 SLP155 T01780133=
201908090253 METAR KPAE 090253Z 20004KT 10SM OVC026 18/13 A2999 RMK AO2 SLP153 T01830128 53000=
201908090153 METAR KPAE 090153Z 22006KT 10SM OVC027 18/13 A2998 RMK AO2 SLP151 T01830128=
201908090129 SPECI KPAE 090129Z 23007KT 10SM OVC028 18/13 A2998 RMK AO2 T01830128=
201908090053 METAR KPAE 090053Z 24007KT 10SM OVC030 19/13 A2998 RMK AO2 SLP152 T01890133=
201908082353 METAR KPAE 082353Z 25007KT 10SM OVC025 18/13 A2999 RMK AO2 SLP153 T01830128 10200 20167 58003=
201908082253 METAR KPAE 082253Z 25006KT 10SM OVC024 19/13 A2999 RMK AO2 SLP155 T01890128=
201908082153 METAR KPAE 082153Z 23010KT 10SM OVC024 19/13 A3000 RMK AO2 SLP156 T01940128=
201908082053 METAR KPAE 082053Z 23006KT 10SM OVC023 19/13 A3000 RMK AO2 SLP156 T01940133 58005=
201908081953 METAR KPAE 081953Z 25007KT 10SM BKN021 OVC035 18/13 A3000 RMK AO2 SLP159 T01830128=
201908081853 METAR KPAE 081853Z 23006KT 10SM OVC017 17/13 A3001 RMK AO2 SLP162 T01720128=
201908081810 SPECI KPAE 081810Z 26006KT 10SM BKN015 OVC021 17/13 A3001 RMK AO2 T01720128=
201908081753 METAR KPAE 081753Z 17006KT 10SM OVC013 17/13 A3001 RMK AO2 SLP162 T01720133 10172 20156 52001=
201908081653 METAR KPAE 081653Z 18004KT 10SM SCT006 OVC009 17/13 A3001 RMK AO2 SLP161 T01670133=
201908081625 SPECI KPAE 081625Z 19005KT 9SM SCT006 OVC009 16/13 A3001 RMK AO2 T01560133=
201908081610 SPECI KPAE 081610Z 20005KT 10SM SCT006 OVC010 16/13 A3001 RMK AO2 T01560133=
201908081600 SPECI KPAE 081600Z 18005KT 9SM OVC010 16/13 A3001 RMK AO2 CIG 008V013 T01560133=
201908081553 METAR KPAE 081553Z 19006KT 8SM OVC006 16/13 A3001 RMK AO2 SLP162 T01560133=
201908081453 METAR KPAE 081453Z 18007KT 8SM OVC006 16/13 A3001 RMK AO2 SLP161 T01560133 51006=
201908081430 SPECI KPAE 081430Z 19008KT 9SM OVC006 16/13 A3001 RMK AO2 T01560133=
201908081353 METAR KPAE 081353Z 17005KT 10SM OVC011 16/13 A3000 RMK AO2 SLP159 T01560133=
201908081321 SPECI KPAE 081321Z AUTO 18006KT 10SM OVC010 16/13 A3000 RMK AO2 CIG 008V014 T01560133=
201908081253 METAR KPAE 081253Z AUTO 21007KT 10SM OVC008 16/13 A3000 RMK AO2 SLP156 T01560133=
201908081153 METAR KPAE 081153Z AUTO 21004KT 10SM OVC009 16/13 A2999 RMK AO2 SLP153 T01560133 10167 20150 53001=
201908081138 SPECI KPAE 081138Z AUTO 22003KT 10SM OVC009 16/13 A2999 RMK AO2 T01560133=
201908081121 SPECI KPAE 081121Z AUTO 20004KT 10SM OVC010 16/13 A2999 RMK AO2 T01560133=
201908081053 METAR KPAE 081053Z AUTO 18005KT 10SM OVC009 16/13 A2999 RMK AO2 SLP152 T01560133=
201908080953 METAR KPAE 080953Z AUTO 20006KT 10SM OVC009 15/13 A2999 RMK AO2 SLP152 T01500128=
201908080922 SPECI KPAE 080922Z AUTO 18008KT 10SM BKN009 15/13 A2999 RMK AO2 T01500133=
201908080853 METAR KPAE 080853Z AUTO 21004KT 10SM CLR 15/13 A2999 RMK AO2 SLP153 T01500133 51005=
201908080753 METAR KPAE 080753Z AUTO 23004KT 10SM CLR 16/13 A2998 RMK AO2 SLP152 T01560133 402390122=
201908080653 METAR KPAE 080653Z AUTO 11004KT 10SM CLR 17/13 A2998 RMK AO2 SLP150 T01670133=
201908080553 METAR KPAE 080553Z AUTO 06003KT 10SM CLR 16/13 A2997 RMK AO2 SLP149 T01560133 10239 20150 53017=
201908080453 METAR KPAE 080453Z AUTO 02005KT 10SM CLR 16/13 A2996 RMK AO2 SLP145 T01560133=
201908080353 METAR KPAE 080353Z AUTO 36007KT 10SM CLR 16/13 A2994 RMK AO2 SLP136 T01610128=
201908080253 METAR KPAE 080253Z 36007KT 10SM CLR 17/13 A2992 RMK AO2 SLP132 T01720133 55003=
201908080153 METAR KPAE 080153Z 35007KT 10SM CLR 19/13 A2992 RMK AO2 SLP130 T01890133=
201908080053 METAR KPAE 080053Z 36006KT 10SM CLR 22/14 A2992 RMK AO2 SLP130 T02220139=
201908072353 METAR KPAE 072353Z 28007KT 10SM CLR 24/14 A2993 RMK AO2 SLP134 T02390144 10239 20150 56012=
201908072253 METAR KPAE 072253Z 26007KT 10SM CLR 23/14 A2994 RMK AO2 SLP138 T02280144=
201908072153 METAR KPAE 072153Z 26007KT 10SM CLR 22/14 A2995 RMK AO2 SLP141 T02170144=
201908072053 METAR KPAE 072053Z 24007KT 10SM CLR 20/14 A2997 RMK AO2 SLP147 T02000139 58009=
201908071953 METAR KPAE 071953Z 24008KT 10SM CLR 18/14 A2998 RMK AO2 SLP151 T01830139=
201908071853 METAR KPAE 071853Z 25008KT 8SM SCT002 SCT011 18/14 A2999 RMK AO2 SLP153 T01830139=
201908071758 SPECI KPAE 071758Z 23006KT 3SM R16R/3500VP6000FT BR BKN002 OVC008 16/14 A2999 RMK AO2 T01560139=
201908071753 METAR KPAE 071753Z 23006KT 1SM R16R/2200VP6000FT BR OVC002 15/14 A2999 RMK AO2 SLP156 T01500139 10156 20122 50000=
201908071710 SPECI KPAE 071710Z 24003KT 1/2SM R16R/1400VP6000FT FG OVC003 15/14 A2999 RMK AO2 T01500144=
201908071703 SPECI KPAE 071703Z 24003KT 1 1/4SM R16R/1000V3500FT BR OVC003 15/14 A2999 RMK AO2 T01500144=
201908071653 METAR KPAE 071653Z 25004KT 1/2SM R16R/0800V1400FT FG OVC003 14/14 A2999 RMK AO2 SLP156 T01440139=
201908071646 SPECI KPAE 071646Z 27003KT 1 1/2SM R16R/1200VP6000FT BR OVC002 14/14 A3000 RMK AO2 T01440139=
201908071623 SPECI KPAE 071623Z 00000KT 3SM BR OVC002 14/14 A2999 RMK AO2 T01440144=
201908071615 SPECI KPAE 071615Z 00000KT 1 3/4SM BR OVC002 14/14 A3000 RMK AO2 T01390139=
201908071553 METAR KPAE 071553Z 00000KT 1/2SM R16R/2200V3000FT FG VV002 14/14 A3000 RMK AO2 SLP157 T01390139=
201908071545 SPECI KPAE 071545Z VRB03KT 1/2SM R16R/1400V2400FT FG VV002 14/13 A3000 RMK AO2 T01390133=
201908071543 SPECI KPAE 071543Z 24004KT 1/4SM R16R/1400V2200FT FG VV002 14/14 A3000 RMK AO2 T01390139=
201908071535 SPECI KPAE 071535Z 00000KT 1/4SM R16R/1400V2800FT FG VV001 14/13 A3000 RMK AO2 T01390133=
201908071453 METAR KPAE 071453Z 00000KT M1/4SM R16R/0600V1000FT FG VV001 13/13 A2999 RMK AO2 SLP156 T01330133 51006=
201908071353 METAR KPAE 071353Z 00000KT M1/4SM R16R/0800V1200FT FG VV001 13/13 A2999 RMK AO2 SLP153 T01330133=
201908071310 SPECI KPAE 071310Z AUTO 20003KT 1/4SM R16R/1000V1800FT FG VV001 13/13 A2998 RMK AO2 T01330133=
201908071302 SPECI KPAE 071302Z AUTO 19003KT 1/2SM R16R/1600V2600FT FG OVC001 13/13 A2998 RMK AO2 T01330133=
201908071253 METAR KPAE 071253Z AUTO 20004KT 1 3/4SM R16R/2000VP6000FT BR BKN001 13/13 A2998 RMK AO2 VIS 3/4V5 SLP150 T01330133=
201908071251 SPECI KPAE 071251Z AUTO 20004KT 3SM R16R/2800VP6000FT BR BKN001 13/13 A2998 RMK AO2=
201908071244 SPECI KPAE 071244Z AUTO 21005KT 9SM R16R/6000VP6000FT SCT003 13/13 A2998 RMK AO2 T01330128=
201908071153 METAR KPAE 071153Z AUTO 00000KT 10SM CLR 13/13 A2997 RMK AO2 SLP148 T01280128 10156 20128 53003=
201908071053 METAR KPAE 071053Z AUTO 00000KT 8SM CLR 13/13 A2997 RMK AO2 SLP147 T01280128=
201908071043 SPECI KPAE 071043Z AUTO 00000KT 10SM SCT001 13/13 A2997 RMK AO2 T01330128=
201908071036 SPECI KPAE 071036Z AUTO 00000KT 4SM R16R/3500VP6000FT BR BKN001 13/13 A2997 RMK AO2 T01330128=
201908071033 SPECI KPAE 071033Z AUTO 00000KT 1 1/4SM R16R/3500VP6000FT BR BKN001 13/13 A2997 RMK AO2 T01330128=
201908071018 SPECI KPAE 071018Z AUTO 00000KT 1/4SM R16R/1600V3500FT FG VV001 13/13 A2997 RMK AO2 T01330133=
201908071001 SPECI KPAE 071001Z AUTO 00000KT 1/4SM R16R/1200V2200FT FG VV001 13/13 A2997 RMK AO2 T01330128=
201908070953 METAR KPAE 070953Z AUTO 01004KT 1/2SM R16R/1800V3500FT FG VV001 13/13 A2996 RMK AO2 SLP144 T01330128=
201908070947 SPECI KPAE 070947Z AUTO 02004KT 1 3/4SM R16R/2000VP6000FT BR BKN001 13/13 A2996 RMK AO2=
201908070937 SPECI KPAE 070937Z AUTO 00000KT 2 1/2SM BR SCT001 13/13 A2996 RMK AO2 T01330128=
201908070853 METAR KPAE 070853Z AUTO 00000KT 10SM CLR 14/13 A2996 RMK AO2 SLP145 T01440133 53003=
201908070753 METAR KPAE 070753Z AUTO 00000KT 10SM CLR 14/13 A2996 RMK AO2 SLP145 T01440133 402500122=
201908070653 METAR KPAE 070653Z AUTO 02006KT 10SM CLR 15/13 A2995 RMK AO2 SLP141 T01500133=
201908070553 METAR KPAE 070553Z AUTO 02005KT 10SM CLR 15/13 A2996 RMK AO2 SLP142 T01500128 10239 20150 51010=
201908070453 METAR KPAE 070453Z AUTO 36007KT 10SM CLR 16/13 A2995 RMK AO2 SLP142 T01560128=
201908070353 METAR KPAE 070353Z AUTO 02006KT 10SM CLR 16/13 A2994 RMK AO2 SLP138 T01610128=
201908070253 METAR KPAE 070253Z 36008KT 10SM CLR 19/12 A2993 RMK AO2 SLP132 T01890122 55004=
201908070153 METAR KPAE 070153Z 36006KT 10SM CLR 22/13 A2992 RMK AO2 SLP130 T02170128=
201908070053 METAR KPAE 070053Z VRB04KT 10SM CLR 23/13 A2993 RMK AO2 SLP132 T02280128=
201908062353 METAR KPAE 062353Z 36006KT 10SM CLR 24/13 A2994 RMK AO2 SLP136 T02440133 10250 20189 56016=
201908062253 METAR KPAE 062253Z VRB06KT 10SM CLR 24/13 A2995 RMK AO2 SLP141 T02440128=
201908062153 METAR KPAE 062153Z 28006KT 10SM CLR 24/13 A2997 RMK AO2 SLP146 T02390133=
201908062053 METAR KPAE 062053Z VRB04KT 10SM VCFG CLR 23/14 A2999 RMK AO2 SLP152 T02330139 58013=
201908061953 METAR KPAE 061953Z 25005KT 10SM VCFG CLR 21/13 A3000 RMK AO2 SLP157 T02110133=
201908061853 METAR KPAE 061853Z 25005KT 10SM VCFG CLR 19/13 A3002 RMK AO2 SLP164 T01940133=
201908061753 METAR KPAE 061753Z VRB05KT 10SM VCFG CLR 19/13 A3003 RMK AO2 SLP167 T01890133 10189 20122 58005=
201908061653 METAR KPAE 061653Z 34004KT 5SM BR SCT001 15/13 A3004 RMK AO2 SLP171 T01500133=
201908061553 METAR KPAE 061553Z 00000KT 5SM R16R/1400V6000FT BR SCT001 13/13 A3004 RMK AO2 SLP172 T01330128=
201908061551 SPECI KPAE 061551Z 00000KT 1/4SM R16R/1400V6000FT FG VV001 13/13 A3004 RMK AO2=
201908061453 METAR KPAE 061453Z 03003KT M1/4SM R16R/0500V0800FT FG VV001 13/13 A3004 RMK AO2 SLP170 T01280128 51007=
201908061353 METAR KPAE 061353Z AUTO 05003KT M1/4SM R16R/0400FT FG VV001 13/13 A3004 RMK AO2 SLP169 T01280128=
201908061253 METAR KPAE 061253Z AUTO 35005KT 1/4SM R16R/0500FT FG VV001 13/13 A3003 RMK AO2 SLP165 T01280128=
201908061153 METAR KPAE 061153Z AUTO 36003KT 1/4SM R16R/1000V1200FT FG VV001 13/13 A3001 RMK AO2 SLP162 T01330128 10156 20133 53003=
201908061117 SPECI KPAE 061117Z AUTO 01004KT 1/4SM R16R/0800V1000FT FG VV001 13/13 A3001 RMK AO2 T01330128=
201908061104 SPECI KPAE 061104Z AUTO 02003KT 1/4SM R16R/1600VP6000FT FG VV001 13/13 A3001 RMK AO2 T01330128=
201908061056 SPECI KPAE 061056Z AUTO 01003KT 1 3/4SM BR BKN001 13/13 A3001 RMK AO2 T01330128=
201908061053 METAR KPAE 061053Z AUTO 01004KT 4SM BR BKN001 13/13 A3001 RMK AO2 SLP159 T01330128=
201908061050 SPECI KPAE 061050Z AUTO 02003KT 5SM BR SCT001 13/13 A3001 RMK AO2=
201908060953 METAR KPAE 060953Z AUTO 00000KT 9SM CLR 14/13 A3001 RMK AO2 SLP157 T01390128=
201908060853 METAR KPAE 060853Z AUTO 04003KT 10SM CLR 14/13 A3001 RMK AO2 SLP159 T01440133 50004=
201908060753 METAR KPAE 060753Z AUTO 02004KT 10SM CLR 14/13 A3001 RMK AO2 SLP159 T01440133 402670144=
201908060653 METAR KPAE 060653Z AUTO 03006KT 10SM CLR 15/13 A3000 RMK AO2 SLP156 T01500128=
201908060553 METAR KPAE 060553Z AUTO 35006KT 10SM CLR 16/13 A3000 RMK AO2 SLP156 T01560128 10256 20150 51004=
201908060453 METAR KPAE 060453Z AUTO 36006KT 10SM CLR 16/13 A3000 RMK AO2 SLP155 T01560128=
201908060353 METAR KPAE 060353Z AUTO 36007KT 10SM CLR 17/13 A2999 RMK AO2 SLP153 T01670128=
201908060253 METAR KPAE 060253Z 36007KT 10SM CLR 19/13 A2999 RMK AO2 SLP151 T01890128 55005=
201908060153 METAR KPAE 060153Z 36007KT 10SM CLR 22/12 A2998 RMK AO2 SLP150 T02220117=
201908060053 METAR KPAE 060053Z 36007KT 10SM CLR 24/12 A2999 RMK AO2 SLP153 T02390122=
201908052353 METAR KPAE 052353Z 35005KT 10SM CLR 25/12 A3000 RMK AO2 SLP156 T02500122 10267 20233 58016=
201908052253 METAR KPAE 052253Z VRB04KT 10SM CLR 25/12 A3002 RMK AO2 SLP162 T02500122=
201908052153 METAR KPAE 052153Z 35006KT 10SM CLR 26/12 A3004 RMK AO2 SLP167 T02610122=
201908052053 METAR KPAE 052053Z VRB04KT 10SM CLR 26/12 A3005 RMK AO2 SLP171 T02610122 58008=
201908051953 METAR KPAE 051953Z VRB04KT 10SM CLR 25/12 A3006 RMK AO2 SLP176 T02500117=
201908051853 METAR KPAE 051853Z 27006KT 10SM CLR 24/12 A3007 RMK AO2 SLP180 T02440122=
201908051753 METAR KPAE 051753Z VRB04KT 10SM CLR 23/13 A3007 RMK AO2 SLP180 T02330128 10233 20167 50002=
201908051653 METAR KPAE 051653Z 29003KT 10SM CLR 22/13 A3007 RMK AO2 SLP180 T02170133=
201908051553 METAR KPAE 051553Z VRB03KT 10SM CLR 21/14 A3007 RMK AO2 SLP179 T02110139=
201908051453 METAR KPAE 051453Z 00000KT 10SM CLR 21/13 A3006 RMK AO2 SLP177 T02060128 52009=
201908051353 METAR KPAE 051353Z 00000KT 10SM CLR 18/12 A3006 RMK AO2 SLP175 T01830122=
201908051253 METAR KPAE 051253Z 00000KT 10SM CLR 17/11 A3004 RMK AO2 SLP170 T01720106=
201908051153 METAR KPAE 051153Z 00000KT 10SM CLR 19/10 A3004 RMK AO2 SLP167 T01890100 10200 20178 53005=
201908051053 METAR KPAE 051053Z 00000KT 10SM CLR 19/11 A3003 RMK AO2 SLP164 T01890106=
201908050953 METAR KPAE 050953Z 00000KT 10SM CLR 19/11 A3002 RMK AO2 SLP162 T01940106=
201908050853 METAR KPAE 050853Z 00000KT 10SM CLR 19/10 A3002 RMK AO2 SLP163 T01940100 51004=
201908050753 METAR KPAE 050753Z 00000KT 10SM CLR 18/11 A3002 RMK AO2 SLP162 T01830111 402720144=
201908050653 METAR KPAE 050653Z 00000KT 10SM CLR 19/11 A3002 RMK AO2 SLP162 T01890111=
201908050553 METAR KPAE 050553Z 36004KT 10SM CLR 20/11 A3001 RMK AO2 SLP159 T02000111 10272 20200 50008=
201908050453 METAR KPAE 050453Z 00000KT 10SM CLR 22/11 A3001 RMK AO2 SLP159 T02170111=
201908050353 METAR KPAE 050353Z 34004KT 10SM CLR 23/12 A3000 RMK AO2 SLP154 T02280117=
201908050253 METAR KPAE 050253Z 34005KT 10SM CLR 24/13 A2999 RMK AO2 SLP151 T02390128 55003=
201908050153 METAR KPAE 050153Z 34006KT 10SM CLR 26/13 A2998 RMK AO2 SLP150 T02560128=
201908050053 METAR KPAE 050053Z 35009KT 10SM CLR 27/13 A2999 RMK AO2 SLP151 T02670128=
201908042353 METAR KPAE 042353Z 36008KT 10SM CLR 27/12 A2999 RMK AO2 SLP154 T02720122 10272 20200 58015=
201908042253 METAR KPAE 042253Z 36007KT 10SM CLR 27/13 A3001 RMK AO2 SLP160 T02670133=
201908042153 METAR KPAE 042153Z VRB06KT 10SM CLR 26/13 A3003 RMK AO2 SLP165 T02610133=
201908042053 METAR KPAE 042053Z 35007KT 10SM CLR 24/13 A3004 RMK AO2 SLP170 T02440133 57010=
201908041953 METAR KPAE 041953Z 35007KT 310V020 10SM CLR 24/13 A3005 RMK AO2 SLP173 T02390133=
201908041853 METAR KPAE 041853Z VRB06KT 10SM CLR 22/12 A3006 RMK AO2 SLP177 T02220122=
201908041753 METAR KPAE 041753Z 34006KT 10SM CLR 21/13 A3007 RMK AO2 SLP181 T02060133 10206 20144 58001=
201908041653 METAR KPAE 041653Z 35005KT 10SM CLR 19/13 A3008 RMK AO2 SLP183 T01890128=
201908041553 METAR KPAE 041553Z 36006KT 10SM CLR 18/12 A3008 RMK AO2 SLP182 T01780117=
201908041453 METAR KPAE 041453Z AUTO 01004KT 10SM CLR 17/11 A3007 RMK AO2 SLP182 T01720106 51004=
201908041353 METAR KPAE 041353Z AUTO 35003KT 10SM CLR 16/10 A3007 RMK AO2 SLP181 T01610100=
201908041253 METAR KPAE 041253Z AUTO 02003KT 10SM CLR 15/11 A3007 RMK AO2 SLP179 T01500106=
201908041153 METAR KPAE 041153Z AUTO 02004KT 10SM CLR 16/11 A3006 RMK AO2 SLP176 T01610106 10161 20144 58002=
201908041053 METAR KPAE 041053Z AUTO 02003KT 10SM CLR 14/11 A3006 RMK AO2 SLP178 T01440111=
201908040953 METAR KPAE 040953Z AUTO 02005KT 10SM CLR 15/12 A3007 RMK AO2 SLP179 T01500117=
201908040853 METAR KPAE 040853Z AUTO 01003KT 10SM CLR 14/11 A3007 RMK AO2 SLP179 T01440111 55000=
201908040753 METAR KPAE 040753Z AUTO 36003KT 10SM CLR 15/11 A3007 RMK AO2 SLP179 T01500111 402440122=
201908040653 METAR KPAE 040653Z AUTO 35008KT 10SM CLR 16/11 A3006 RMK AO2 SLP178 T01560111=
201908040553 METAR KPAE 040553Z AUTO 35007KT 10SM CLR 16/12 A3007 RMK AO2 SLP179 T01610117 10244 20161 58000=
201908040453 METAR KPAE 040453Z AUTO 35005KT 10SM CLR 18/11 A3007 RMK AO2 SLP181 T01780111=
201908040353 METAR KPAE 040353Z AUTO 34004KT 10SM CLR 18/12 A3007 RMK AO2 SLP180 T01830117=
201908040253 METAR KPAE 040253Z 35004KT 10SM CLR 21/12 A3007 RMK AO2 SLP179 T02110117 56007=
201908040153 METAR KPAE 040153Z 34008KT 10SM CLR 23/13 A3007 RMK AO2 SLP180 T02280128=
201908040053 METAR KPAE 040053Z 35007KT 10SM CLR 23/12 A3008 RMK AO2 SLP183 T02330122=
201908032353 METAR KPAE 032353Z 34008KT 10SM CLR 24/12 A3009 RMK AO2 SLP187 T02390117 10244 20189 58016=
201908032253 METAR KPAE 032253Z AUTO 33011G18KT 10SM CLR 24/12 A3010 RMK AO2 SLP192 T02390117=
201908032153 METAR KPAE 032153Z 34009G15KT 10SM CLR 22/12 A3012 RMK AO2 SLP198 T02220122=
201908032053 METAR KPAE 032053Z 35009KT 10SM CLR 22/12 A3014 RMK AO2 SLP203 T02220122 56014=
201908031953 METAR KPAE 031953Z 35009KT 10SM CLR 21/12 A3015 RMK AO2 SLP207 T02110122=
201908031853 METAR KPAE 031853Z 34008KT 10SM CLR 21/12 A3017 RMK AO2 SLP213 T02110122=
201908031753 METAR KPAE 031753Z 36006KT 10SM CLR 19/12 A3018 RMK AO2 SLP217 T01890122 10189 20122 57002=
201908031653 METAR KPAE 031653Z 36005KT 10SM CLR 17/12 A3018 RMK AO2 SLP218 T01670122=
201908031553 METAR KPAE 031553Z 01005KT 10SM CLR 16/12 A3019 RMK AO2 SLP221 T01560117=
201908031453 METAR KPAE 031453Z 35004KT 10SM FEW003 14/12 A3019 RMK AO2 SLP221 T01390122 53004=
201908031400 SPECI KPAE 031400Z 36005KT 10SM FEW003 13/12 A3018 RMK AO2 T01280122=
201908031353 METAR KPAE 031353Z 36007KT 6SM BKN003 13/12 A3018 RMK AO2 SLP218 T01280117=
201908031335 SPECI KPAE 031335Z AUTO 6SM BR FEW003 13/12 A3017 RMK AO2 T01280117=
201908031253 METAR KPAE 031253Z AUTO 35003KT 8SM CLR 13/11 A3017 RMK AO2 SLP216 T01280111=
201908031153 METAR KPAE 031153Z AUTO 36004KT 10SM CLR 13/11 A3017 RMK AO2 SLP215 T01280106 10167 20128 51003=
201908031053 METAR KPAE 031053Z AUTO 36004KT 10SM CLR 13/11 A3017 RMK AO2 SLP215 T01330111=
201908030953 METAR KPAE 030953Z AUTO 36005KT 10SM CLR 14/12 A3017 RMK AO2 SLP213 T01390117=
201908030853 METAR KPAE 030853Z AUTO 02005KT 10SM CLR 15/11 A3017 RMK AO2 SLP213 T01500106 53001=
201908030753 METAR KPAE 030753Z AUTO 02005KT 10SM CLR 15/11 A3016 RMK AO2 SLP213 T01500111 402330150=
201908030653 METAR KPAE 030653Z AUTO 01006KT 10SM CLR 16/11 A3016 RMK AO2 SLP212 T01610106=
201908030553 METAR KPAE 030553Z AUTO 03005KT 10SM FEW080 17/12 A3016 RMK AO2 SLP212 T01670117 10233 20167 51010=
201908030453 METAR KPAE 030453Z AUTO 01005KT 10SM SCT065 OVC080 18/13 A3016 RMK AO2 SLP210 T01780128=
201908030353 METAR KPAE 030353Z AUTO 01007KT 10SM BKN050 OVC065 18/13 A3014 RMK AO2 SLP205 T01780128=
201908030253 METAR KPAE 030253Z 36006KT 10SM FEW060 BKN085 19/13 A3013 RMK AO2 SLP201 T01940128 55000=
201908030153 METAR KPAE 030153Z 35006KT 10SM CLR 21/13 A3013 RMK AO2 SLP199 T02110128=
201908030053 METAR KPAE 030053Z 35006KT 10SM CLR 23/13 A3013 RMK AO2 SLP199 T02280133=
201908022353 METAR KPAE 022353Z 36006KT 10SM CLR 23/14 A3013 RMK AO2 SLP200 T02330139 10233 20172 58005=
201908022253 METAR KPAE 022253Z 36006KT 10SM CLR 23/13 A3014 RMK AO2 SLP202 T02280133=
201908022153 METAR KPAE 022153Z 34007KT 10SM BKN034 21/13 A3015 RMK AO2 SLP206 T02110128=
201908022100 SPECI KPAE 022100Z 34007KT 10SM FEW015 21/14 A3015 RMK AO2 T02110139=
201908022053 METAR KPAE 022053Z 36009KT 10SM SCT012 BKN025 21/13 A3015 RMK AO2 SLP206 T02110133 51011=
201908022018 SPECI KPAE 022018Z 36005KT 10SM SCT012 BKN025 20/14 A3014 RMK AO2 T02000144=
201908021953 METAR KPAE 021953Z 34006KT 10SM SCT002 BKN005 OVC015 18/15 A3014 RMK AO2 SLP206 T01830150=
201908021920 SPECI KPAE 021920Z 35005KT 10SM SCT002 BKN005 OVC015 18/16 A3014 RMK AO2 T01780156=
201908021853 METAR KPAE 021853Z 34004KT 10SM BKN002 BKN009 OVC028 18/16 A3014 RMK AO2 SLP203 T01780156=
201908021832 SPECI KPAE 021832Z 32005KT 10SM SCT002 BKN009 OVC028 18/16 A3013 RMK AO2 T01780156=
201908021807 SPECI KPAE 021807Z 23005KT 10SM FEW002 SCT008 BKN012 20/16 A3012 RMK AO2 T02000161=
201908021800 SPECI KPAE 021800Z VRB06KT 10SM OVC025 20/16 A3012 RMK AO2 T02000161=
201908021753 METAR KPAE 021753Z 19009KT 10SM FEW002 SCT008 BKN012 20/16 A3012 RMK AO2 SLP195 T02000161 10206 20172 51022=
201908021700 SPECI KPAE 021700Z 22009KT 10SM SCT008 BKN013 19/16 A3010 RMK AO2 T01940161=
201908021653 METAR KPAE 021653Z 20013KT 10SM OVC008 21/16 A3009 RMK AO2 SLP187 T02060161=
201908021553 METAR KPAE 021553Z 19009KT 10SM OVC008 19/16 A3008 RMK AO2 SLP182 T01890161=
201908021453 METAR KPAE 021453Z 18010KT 10SM OVC009 18/17 A3005 RMK AO2 PK WND 17028/1358 CIG 008V014 SLP172 T01830167 53022=
201908021401 SPECI KPAE 021401Z 17015G28KT 10SM BKN009 BKN019 18/16 A3002 RMK AO2 PK WND 17028/1358 T01780161=
201908021353 METAR KPAE 021353Z 17016G25KT 10SM BKN011 BKN019 18/16 A3002 RMK AO2 PK WND 18027/1311 SLP160 T01780161=
201908021253 METAR KPAE 021253Z AUTO 17017G25KT 10SM BKN009 BKN027 17/16 A3000 RMK AO2 PK WND 18028/1224 CIG 006V011 SLP154 T01720161=
201908021243 SPECI KPAE 021243Z AUTO 18015G24KT 10SM BKN009 BKN027 OVC032 17/16 A3000 RMK AO2 PK WND 18028/1224 CIG 006V012 T01720161=
201908021153 METAR KPAE 021153Z AUTO 17016G24KT 10SM BKN010 BKN025 OVC100 17/16 A2998 RMK AO2 RAE49 CIG 007V014 SLP148 P0001 60017 70017 T01720161 10222 20172 53005=
201908021143 SPECI KPAE 021143Z AUTO 17018G24KT 10SM -RA BKN010 BKN023 OVC030 17/16 A2998 RMK AO2 P0001 T01720161=
201908021127 SPECI KPAE 021127Z AUTO 17013G22KT 10SM -RA SCT010 BKN025 OVC110 17/16 A2998 RMK AO2 P0001 T01720161=
201908021053 METAR KPAE 021053Z AUTO 16016G21KT 6SM -RA BR FEW019 BKN047 OVC065 18/16 A2998 RMK AO2 RAE0954B11 SLP147 P0016 T01780156=
201908021031 SPECI KPAE 021031Z AUTO 18016G19KT 3SM RA BR SCT036 OVC045 18/16 A2998 RMK AO2 RAE0954B11 P0012 T01780156=
201908021021 SPECI KPAE 021021Z AUTO 17012KT 2SM RA BKN036 BKN047 OVC080 18/15 A2998 RMK AO2 RAE0954B11 P0008 T01830150=
201908020953 METAR KPAE 020953Z AUTO 15010KT 10SM -RA FEW039 SCT055 OVC075 19/14 A2996 RMK AO2 RAB48 SLP140 P0000 T01940144=
201908020853 METAR KPAE 020853Z AUTO 17013KT 10SM FEW110 19/14 A2997 RMK AO2 PK WND 18026/0818 SLP143 T01940144 51010=
201908020753 METAR KPAE 020753Z AUTO 18019KT 10SM BKN060 20/14 A2997 RMK AO2 PK WND 19026/0729 SLP144 T02000139 402940161=
201908020653 METAR KPAE 020653Z AUTO 18016G25KT 10SM SCT075 BKN090 BKN110 21/13 A2995 RMK AO2 SLP139 T02110133=
201908020553 METAR KPAE 020553Z AUTO 18014KT 10SM CLR 22/12 A2994 RMK AO2 SLP134 T02220122 10294 20222 51009=
201908020453 METAR KPAE 020453Z AUTO 20012KT 10SM CLR 24/12 A2993 RMK AO2 SLP131 T02390117=
201908020353 METAR KPAE 020353Z AUTO 19006KT 10SM CLR 24/13 A2992 RMK AO2 SLP128 T02390128=
201908020253 METAR KPAE 020253Z AUTO 21007KT 10SM CLR 26/13 A2991 RMK AO2 SLP124 T02610128 55007=
201908020153 METAR KPAE 020153Z AUTO 21010KT 10SM CLR 28/12 A2990 RMK AO2 SLP123 T02830117=
201908020053 METAR KPAE 020053Z AUTO 20014KT 10SM CLR 28/11 A2991 RMK AO2 SLP126 T02830111=
201908012353 METAR KPAE 012353Z AUTO 19012G20KT 10SM CLR 29/11 A2993 RMK AO2 SLP131 T02890106 10289 20211 58018=
201908012253 METAR KPAE 012253Z AUTO 19013KT 10SM CLR 28/12 A2995 RMK AO2 SLP138 T02830117=
201908012153 METAR KPAE 012153Z 15012G17KT 10SM CLR 27/12 A2997 RMK AO2 SLP146 T02720117=
201908012053 METAR KPAE 012053Z 14009G18KT 10SM CLR 26/12 A2998 RMK AO2 SLP150 T02560122 58011=
201908011953 METAR KPAE 011953Z 16009KT 10SM CLR 24/13 A3000 RMK AO2 SLP155 T02390128 $=
201908011853 METAR KPAE 011853Z 17009KT 10SM CLR 23/13 A3001 RMK AO2 SLP160 T02280128 $=
201908011753 METAR KPAE 011753Z 17009KT 10SM R16R/5500VP6000FT SCT026 21/13 A3002 RMK AO2 SLP163 T02110133 10217 20161 58003=
201908011727 SPECI KPAE 011727Z 18013KT 10SM FEW026 21/13 A3002 RMK AO2 T02060133=
201908011653 METAR KPAE 011653Z 16011KT 10SM BKN020 21/13 A3002 RMK AO2 SLP165 T02110133=
201908011637 SPECI KPAE 011637Z 15012KT 10SM BKN020 19/13 A3003 RMK AO2 T01940133=
201908011553 METAR KPAE 011553Z 19011KT 10SM FEW018 19/13 A3003 RMK AO2 SLP166 T01890133=
201908011453 METAR KPAE 011453Z 16008KT 10SM SCT050 18/14 A3003 RMK AO2 SLP165 T01780139 51006=
201908011353 METAR KPAE 011353Z 16011KT 10SM CLR 16/14 A3002 RMK AO2 SLP164 T01610139=
201908011253 METAR KPAE 011253Z AUTO 15008KT 10SM FEW060 16/14 A3002 RMK AO2 SLP161 T01610139=
201908011153 METAR KPAE 011153Z AUTO VRB04KT 10SM SCT065 17/13 A3001 RMK AO2 SLP158 T01670133 10172 20161 51002=
201908011053 METAR KPAE 011053Z AUTO 10005KT 10SM CLR 17/13 A3001 RMK AO2 SLP157 T01670133=
201908010953 METAR KPAE 010953Z AUTO 10003KT 10SM CLR 17/13 A3001 RMK AO2 SLP158 T01670133=
201908010853 METAR KPAE 010853Z AUTO 00000KT 10SM CLR 16/13 A3000 RMK AO2 SLP156 T01610133 53002=
201908010753 METAR KPAE 010753Z AUTO 35005KT 10SM CLR 16/13 A2999 RMK AO2 SLP155 T01610133 402610144=
201908010653 METAR KPAE 010653Z AUTO 34006KT 10SM CLR 16/13 A3000 RMK AO2 SLP155 T01610133=
201908010553 METAR KPAE 010553Z AUTO 01004KT 10SM CLR 17/14 A3000 RMK AO2 SLP155 T01670139 10261 20167 51007=
201908010453 METAR KPAE 010453Z AUTO 34004KT 10SM CLR 17/13 A2999 RMK AO2 SLP154 T01720133=
201908010353 METAR KPAE 010353Z AUTO 02006KT 10SM CLR 19/13 A2998 RMK AO2 SLP150 T01940128=
201908010253 METAR KPAE 010253Z 35006KT 10SM CLR 22/13 A2998 RMK AO2 SLP148 T02170128 56009=
201908010153 METAR KPAE 010153Z 35005KT 10SM CLR 24/11 A2998 RMK AO2 SLP149 T02440111=
201908010053 METAR KPAE 010053Z 29006KT 10SM CLR 26/09 A2999 RMK AO2 SLP153 T02560094=

# No short TAF reports from KPAE in databse.

###################################
#  large TAF from KPAE
###################################
201908312333 TAF KPAE 312333Z 0100/0124 27009KT P6SM BKN070 BKN100 FM010500
                       VRB05KT P6SM OVC060 FM011200 VRB04KT P6SM
                       OVC022 FM011700 21006KT P6SM VCSH BKN025
                       OVC050 FM012300 31006KT P6SM VCSH BKN060
                       BKN200=
201908311732 TAF KPAE 311732Z 3118/0118 17007KT P6SM BKN060 OVC100 FM312200
                       23006KT P6SM OVC060 FM010300 23004KT P6SM
                       OVC050 FM010900 VRB04KT P6SM OVC030 FM011300
                       19004KT P6SM VCSH OVC022=
201908311129 TAF KPAE 311129Z 3112/0112 VRB04KT P6SM OVC045 FM311800 23005KT
                       P6SM OVC060 FM312200 26006KT P6SM OVC060
                       FM010300 23004KT P6SM OVC050 FM010500 36004KT
                       P6SM OVC050=
201908310535 TAF KPAE 310535Z 3106/0106 VRB04KT P6SM OVC050 FM311200 VRB04KT
                       P6SM SCT010 OVC060 FM311800 22005KT P6SM
                       OVC060 FM312200 25006KT P6SM OVC060 FM010300
                       21004KT P6SM OVC050=
201908302322 TAF KPAE 302322Z 3100/3124 24007KT P6SM BKN050 BKN200 FM310400
                       VRB04KT P6SM SCT050 SCT120 BKN200 FM311200
                       VRB04KT P6SM SCT010 SCT120 BKN200 FM311800
                       22005KT P6SM BKN100 OVC200=
201908301728 TAF KPAE 301728Z 3018/3118 15007KT P6SM SCT012 OVC035 FM302000
                       20007KT P6SM BKN040 BKN120 FM310000 24007KT
                       P6SM SCT045 BKN120 FM310300 36005KT P6SM
                       SCT120 BKN200 FM311200 VRB04KT P6SM SCT010
                       BKN200=
201908301504 KPAE 301504Z 3015/3112 15007KT P6SM SCT012 OVC035
                      TEMPO 3015/3018 BKN012 OVC030 FM302000 23007KT
                       P6SM BKN035 FM302200 24007KT P6SM BKN040
                       FM310500 VRB03KT P6SM BKN120=
201908301136 TAF KPAE 301136Z 3012/3112 19006KT P6SM SCT030 OVC035 FM302000
                       23007KT P6SM BKN035 FM302200 24007KT P6SM
                       BKN040 FM310500 VRB03KT P6SM BKN120=
201908300537 TAF KPAE 300537Z 3006/3106 20008KT P6SM -RA SCT050 OVC100 FM301100
                       19006KT P6SM OVC025 FM302000 21007KT P6SM
                       BKN035 FM310100 26006KT P6SM BKN150=
201908292331 TAF KPAE 292331Z 3000/3024 17011KT P6SM OVC120 FM300200 18010KT
                       P6SM VCSH BKN050 OVC080
                      TEMPO 3002/3006 6SM -SHRA FM300600 17008KT
                       P6SM VCSH OVC050 FM301100 19006KT P6SM OVC025
                       FM301800 21007KT P6SM BKN035=
201908291803 TAF KPAE 291803Z 2918/3018 17008KT P6SM SCT250 FM292100 24008KT
                       P6SM BKN220 FM292300 24010KT P6SM VCTS BKN050CB
                       OVC080 FM300600 17008KT P6SM VCSH SCT015
                       BKN080 FM301200 18006KT P6SM OVC035 FM301600
                       18006KT P6SM BKN035=
201908291125 TAF KPAE 291125Z 2912/3012 20004KT P6SM SCT250 FM291500 19007KT
                       P6SM BKN015 FM291800 23006KT P6SM VCSH SCT015
                       BKN250 FM300000 23007KT P6SM VCSH SCT015
                       BKN080=
201908290524 TAF KPAE 290524Z 2906/3006 35004KT P6SM SKC FM291500 18011KT P6SM
                       BKN015 FM291800 19012KT P6SM VCSH SCT015
                       BKN050 FM300000 23007KT P6SM VCSH SCT015
                       BKN080=
201908282338 TAF KPAE 282338Z 2900/2924 35008KT P6SM SKC FM290300 VRB03KT P6SM
                       SCT250 FM291500 18007KT P6SM BKN035 OVC250
                       FM291800 23008KT P6SM OVC080=
201908281734 TAF KPAE 281734Z 2818/2918 35008KT P6SM SKC FM290300 VRB03KT P6SM
                       SKC FM291500 18007KT P6SM BKN025 OVC250=
201908281120 TAF KPAE 281120Z 2812/2912 VRB03KT P6SM SCT250 FM281800 34005KT
                       P6SM SKC FM290300 VRB03KT P6SM SKC=
201908280520 TAF KPAE 280520Z 2806/2906 35008KT P6SM SKC FM280700 02005KT P6SM
                       SKC FM281800 34005KT P6SM SKC FM290300 VRB03KT
                       P6SM SKC=
201908272337 TAF KPAE 272337Z 2800/2824 35008KT P6SM SKC FM280600 02005KT P6SM
                       SKC FM281800 34005KT P6SM SKC=
201908271732 TAF KPAE 271732Z 2718/2818 35008KT P6SM SKC FM280600 02005KT P6SM
                       SKC=
201908271120 TAF KPAE 271120Z 2712/2812 35007KT P6SM SKC FM280600 02005KT P6SM
                       SKC=
201908270520 TAF KPAE 270520Z 2706/2806 36003KT P6SM SKC FM271800 35008KT P6SM
                       SKC FM280200 01005KT P6SM SKC=
201908262340 TAF KPAE 262340Z 2700/2724 35007KT P6SM SCT250 FM270800 36003KT
                       P6SM SKC=
201908261720 TAF KPAE 261720Z 2618/2718 35007KT P6SM SCT250 FM270200 36003KT
                       P6SM SKC=
201908261415 KPAE 261415Z 2614/2712 01005KT P6SM SKC
                      TEMPO 2614/2617 1SM BR BKN002 FM261800 35008KT
                       P6SM SCT250 FM270200 36003KT P6SM SKC=
201908261120 TAF KPAE 261120Z 2612/2712 01005KT P6SM SKC FM261800 35008KT P6SM
                       SCT250 FM270200 36003KT P6SM SKC=
201908260520 TAF KPAE 260520Z 2606/2706 36005KT P6SM SCT250 FM261200 36003KT
                       P6SM SCT004 SCT250 FM261800 35008KT P6SM
                       SCT250 FM270200 36004KT P6SM SKC=
201908252336 TAF KPAE 252336Z 2600/2624 36005KT P6SM SCT250 FM261200 36003KT
                       P6SM SCT004 SCT250 FM261800 35008KT P6SM
                       SCT250=
201908251732 TAF KPAE 251732Z 2518/2618 VRB04KT P6SM SCT015 BKN040 FM252000
                       30005KT P6SM BKN050 FM252300 33005KT P6SM
                       SCT050 SCT250 FM260400 36003KT P6SM FEW250=
201908251121 TAF KPAE 251121Z 2512/2612 VRB04KT P6SM OVC025 FM251900 30005KT
                       P6SM BKN050 FM252300 33005KT P6SM SCT050
                       SCT250 FM260400 36003KT P6SM FEW250=
201908250901 KPAE 250901Z 2509/2606 VRB04KT P6SM OVC025 FM251900 27005KT P6SM
                       BKN050 FM252300 33005KT P6SM SCT050 SCT250=
201908250520 TAF KPAE 250520Z 2506/2606 35006KT P6SM OVC050 FM251200 VRB04KT
                       P6SM OVC020 FM251900 27005KT P6SM BKN050
                       FM252300 33005KT P6SM SCT050 SCT250=
201908242332 TAF KPAE 242332Z 2500/2524 30008KT P6SM BKN060 FM250200 35006KT
                       P6SM OVC050 FM251200 07005KT P6SM OVC015
                       FM251900 27005KT P6SM BKN050 FM252300 29007KT
                       P6SM SCT250=
201908241737 TAF KPAE 241737Z 2418/2518 24007KT P6SM OVC050 FM242200 30008KT
                       P6SM BKN060 FM250200 35006KT P6SM OVC050
                       FM251200 07005KT P6SM OVC015=
201908241120 TAF KPAE 241120Z 2412/2512 02004KT P6SM FEW045 SCT070 BKN100 FM241400
                       VRB03KT P6SM FEW025 SCT060 FM241800 24007KT
                       P6SM SCT060 FM242200 30008KT P6SM BKN060
                       FM250200 35006KT P6SM OVC050=
201908240520 TAF KPAE 240520Z 2406/2506 VRB04KT P6SM SCT100 SCT200 FM240800
                       02004KT P6SM SCT070 BKN200 FM241400 17004KT
                       P6SM FEW025 SCT060 FM241800 24007KT P6SM
                       SCT060 FM242200 30008KT P6SM BKN060 FM250200
                       35006KT P6SM OVC050=
201908232325 TAF KPAE 232325Z 2400/2424 33006KT P6SM BKN100 OVC200 FM240800
                       02004KT P6SM SCT070 BKN200 FM241400 17004KT
                       P6SM FEW025 SCT060 FM241800 20007KT P6SM
                       SCT060 FM242200 26008KT P6SM BKN060=
201908231732 TAF KPAE 231732Z 2318/2418 31006KT P6SM VCSH FEW040 BKN100 OVC200
                       FM232300 34005KT P6SM SCT100 BKN200 FM240800
                       02004KT P6SM SCT070 BKN200 FM241400 15004KT
                       P6SM FEW025 SCT060=
201908231120 TAF KPAE 231120Z 2312/2412 00000KT P6SM SCT250 FM231700 33006KT
                       P6SM BKN100 OVC200 FM232300 01006KT P6SM
                       SCT100 BKN200 FM241000 16004KT P6SM SCT070
                       BKN200=
201908230520 TAF KPAE 230520Z 2306/2406 01004KT P6SM SCT250 FM231200 VRB03KT
                       P6SM SCT150 BKN250 FM231800 33006KT P6SM
                       BKN100 OVC200 FM240000 01006KT P6SM SCT040
                       BKN070 OVC200=
201908222331 TAF KPAE 222331Z 2300/2324 30006KT P6SM SCT030 SCT250 FM230400
                       VRB03KT P6SM FEW180 SCT250 FM231100 VRB03KT
                       P6SM SCT150 BKN250 FM231700 33006KT P6SM
                       BKN090 OVC200=
201908221729 TAF KPAE 221729Z 2218/2318 26004KT P6SM SCT004 BKN040 FM222000
                       27005KT P6SM SCT050 FM230300 36004KT P6SM
                       FEW180 SCT250 FM231000 VRB03KT P6SM BKN100
                       BKN250=
201908221607 KPAE 221607Z 2216/2312 26004KT P6SM BKN002 OVC007
                      TEMPO 2216/2218 1/2SM FG OVC001 FM221900
                       31005KT P6SM SCT050 FM230200 01004KT P6SM
                       SCT250=
201908221338 KPAE 221338Z 2214/2312 VRB03KT P6SM SCT025 SCT060
                      TEMPO 2214/2218 BKN025 BKN060 FM221900 31005KT
                       P6SM SCT050 FM230200 01004KT P6SM SCT250=
201908221120 TAF KPAE 221120Z 2212/2312 VRB03KT P6SM SCT010 OVC025
                      TEMPO 2212/2216 OVC010 FM221900 30004KT P6SM
                       SCT025 BKN050 FM222100 31005KT P6SM SCT050
                       FM230200 01004KT P6SM SCT250=
201908220541 TAF KPAE 220541Z 2206/2306 01008KT P6SM BKN030 OVC035 FM221200
                       02004KT 5SM BR OVC008 FM221700 30004KT P6SM
                       OVC025 FM222000 33007KT P6SM BKN035 FM222200
                       35004KT P6SM SCT040 SCT250=
201908220126 KPAE 220126Z 2201/2224 33005KT P6SM VCSH BKN020 OVC030
                      TEMPO 2201/2203 2SM -SHRA FM220300 36004KT
                       6SM -SHRA OVC015 FM221200 VRB04KT 5SM BR
                       OVC008 FM221700 28004KT P6SM OVC025 FM222100
                       30007KT P6SM BKN035=
201908212331 TAF KPAE 212331Z 2200/2224 22006KT P6SM VCSH OVC018
                      TEMPO 2200/2203 5SM -SHRA FM220300 36004KT
                       6SM -SHRA OVC015 FM221200 VRB04KT 5SM BR
                       OVC008 FM221700 28004KT P6SM OVC025 FM222100
                       30007KT P6SM BKN035=
201908211733 TAF KPAE 211733Z 2118/2218 16012G21KT P6SM -RA SCT007 OVC050
                      TEMPO 2118/2120 BKN007 FM212200 18011KT P6SM
                       -SHRA BKN020 OVC040 FM220100 36004KT P6SM
                       -SHRA OVC020 FM221100 36003KT 5SM -DZ BR
                       OVC007 FM221700 VRB03KT P6SM OVC010=
201908211628 KPAE 211628Z 2116/2212 17012G21KT P6SM -RA SCT007 SCT025 OVC050
                       FM212100 18005KT P6SM -SHRA BKN020 OVC040
                       FM220300 36004KT P6SM -SHRA OVC020=
201908211123 TAF KPAE 211123Z 2112/2212 16010KT P6SM BKN090 OVC150 FM211600
                       17012KT P6SM -RA SCT025 OVC050 FM212100
                       18005KT P6SM -SHRA BKN020 OVC040 FM220300
                       36004KT P6SM -SHRA OVC020=
201908210521 TAF KPAE 210521Z 2106/2206 18009KT P6SM SCT150 BKN250 FM211000
                       17008KT P6SM BKN100 OVC250 FM211200 16006KT
                       P6SM SCT035 OVC070 FM211600 20007KT P6SM
                       -RA BKN025 OVC070 FM212100 18005KT P6SM
                       VCSH BKN030 OVC060 FM220300 36004KT P6SM
                       VCSH OVC030=
201908202324 TAF KPAE 202324Z 2100/2124 18009KT P6SM SCT150 BKN250 FM211000
                       17008KT P6SM BKN100 OVC250 FM211200 16006KT
                       P6SM SCT035 OVC070 FM211600 20007KT P6SM
                       -RA BKN030 OVC070 FM212100 18005KT P6SM
                       VCSH BKN035 OVC060=
201908201756 TAF KPAE 201756Z 2018/2118 VRB04KT P6SM SKC FM202000 21008KT P6SM
                       SCT250 FM211000 17008KT P6SM BKN100 FM211200
                       16006KT P6SM SCT035 OVC070 FM211600 20007KT
                       P6SM -RA BKN030 OVC070=
201908201123 TAF KPAE 201123Z 2012/2112 34003KT P6SM FEW250 FM201500 VRB03KT
                       P6SM SCT250 FM201800 21008KT P6SM SCT250
                       FM211000 17008KT P6SM BKN100=
201908200520 TAF KPAE 200520Z 2006/2106 04004KT P6SM SCT250 FM201800 21008KT
                       P6SM SCT250=
201908192320 TAF KPAE 192320Z 2000/2024 30005KT P6SM SCT035 FM200200 36005KT
                       P6SM FEW040 FM200500 02004KT P6SM SCT250
                       FM201800 22007KT P6SM SCT250=
201908191732 TAF KPAE 191732Z 1918/2018 VRB03KT P6SM BKN015 OVC040 FM191900
                       VRB03KT P6SM SCT020 BKN050 FM192100 36004KT
                       P6SM SKC FM201500 19004KT P6SM SCT250=
201908191137 TAF KPAE 191137Z 1912/2012 VRB03KT P6SM OVC035 FM191400 VRB03KT
                       P6SM OVC020 FM191900 VRB03KT P6SM SCT025
                       BKN035 FM192100 36006KT P6SM SKC=
201908190903 KPAE 190903Z 1909/2006 36005KT P6SM OVC030 FM191300 18005KT P6SM
                       OVC020 FM192000 26005KT P6SM SCT025 FM192200
                       33006KT P6SM SKC=
201908190520 TAF KPAE 190520Z 1906/2006 36005KT P6SM SKC FM191100 18005KT P6SM
                       OVC020 FM192000 26005KT P6SM SCT025 FM192200
                       VRB04KT P6SM FEW025=
201908182320 TAF KPAE 182320Z 1900/1924 26006KT P6SM SCT030 FM190300 34004KT
                       P6SM SCT040 FM191100 18005KT P6SM OVC020
                       FM192000 26005KT P6SM SCT025 SCT040=
201908181720 TAF KPAE 181720Z 1818/1918 24006KT P6SM BKN025 FM182100 26006KT
                       P6SM BKN035 FM190300 34004KT P6SM SCT050
                       FM191100 18005KT P6SM OVC020=
201908181135 TAF KPAE 181135Z 1812/1912 00000KT P6SM SCT008 OVC015
                      TEMPO 1814/1816 BKN008 OVC015 FM181800 24006KT
                       P6SM BKN025 FM182100 26006KT P6SM BKN035
                       FM190300 34004KT P6SM SCT050=
201908180520 TAF KPAE 180520Z 1806/1906 VRB03KT P6SM SCT060 FM181100 VRB04KT
                       P6SM OVC020 FM182100 26006KT P6SM BKN025
                       FM190300 VRB05KT P6SM BKN050=
201908172320 TAF KPAE 172320Z 1800/1824 25009KT P6SM BKN030 FM180200 30005KT
                       P6SM SCT035 BKN045 FM181100 VRB04KT P6SM
                       OVC020 FM182100 26006KT P6SM BKN025=
201908171720 TAF KPAE 171720Z 1718/1818 VRB03KT P6SM OVC015 FM171900 VRB03KT
                       P6SM BKN022 OVC040 FM172100 22006KT P6SM
                       SCT025 BKN045 FM181100 VRB04KT P6SM OVC020=
201908171316 KPAE 171316Z 1713/1812 VRB03KT P6SM OVC015 FM171700 VRB03KT P6SM
                       BKN022 OVC040 FM172000 22006KT P6SM SCT025
                       BKN045=
201908171140 TAF KPAE 171140Z 1712/1812 VRB03KT P6SM OVC060 FM171500 VRB03KT
                       P6SM BKN025 OVC050 FM172000 22006KT P6SM
                       SCT025 BKN045=
201908170520 TAF KPAE 170520Z 1706/1806 22004KT P6SM OVC050 FM171100 18007KT
                       P6SM OVC020 FM172000 22006KT P6SM SCT025
                       BKN050 FM180000 23005KT P6SM OVC050=
201908170402 KPAE 170402Z 1704/1724 VRB04KT P6SM OVC050 FM171200 18007KT P6SM
                       OVC020 FM172000 22006KT P6SM SCT025 BKN050=
201908162320 TAF KPAE 162320Z 1700/1724 16005KT P6SM OVC025 FM171200 18007KT
                       P6SM OVC020 FM172000 22006KT P6SM SCT025
                       BKN050=
201908161720 TAF KPAE 161720Z 1618/1718 VRB03KT P6SM OVC015 FM161900 VRB03KT
                       P6SM SCT015 OVC025 FM162100 VRB03KT P6SM
                       SCT250 FM170200 35006KT P6SM BKN050 FM170600
                       35006KT P6SM SCT050 FM171200 VRB04KT P6SM
                       OVC020=
201908161136 TAF KPAE 161136Z 1612/1712 VRB03KT P6SM BKN012 OVC025 FM161700
                       VRB03KT P6SM SCT012 OVC025 FM162100 VRB03KT
                       P6SM SCT250 FM170200 35006KT P6SM BKN050
                       FM170600 35006KT P6SM SCT050=
201908161024 KPAE 161024Z 1610/1706 36008KT P6SM OVC035 FM161400 34006KT P6SM
                       OVC012 FM162100 VRB04KT P6SM SCT250 FM170200
                       VRB04KT P6SM BKN050=
201908160521 TAF KPAE 160521Z 1606/1706 36009KT P6SM SKC FM161100 34006KT P6SM
                       OVC004 FM162100 25005KT P6SM SCT250 FM170200
                       VRB04KT P6SM BKN050=
201908152323 TAF KPAE 152323Z 1600/1624 30009KT P6SM SKC FM161100 34006KT P6SM
                       OVC004 FM162100 25005KT P6SM SCT250=
201908151727 TAF KPAE 151727Z 1518/1618 00000KT P6SM SCT250 FM152000 01004KT
                       P6SM SCT250 FM161100 34006KT P6SM OVC004=
201908151641 KPAE 151641Z 1517/1612 00000KT P6SM FEW006 FM151800 VRB03KT P6SM
                       SCT250 FM161100 34006KT P6SM OVC006=
201908151448 KPAE 151448Z 1515/1612 36004KT P6SM SCT004 SCT070
                      TEMPO 1515/1517 BKN003 FM151700 34006KT P6SM
                       SCT250 FM161100 34006KT P6SM OVC006=
201908151357 KPAE 151357Z 1514/1612 36004KT P6SM SCT004 SCT070 FM151700 34006KT
                       P6SM SCT250 FM161100 34006KT P6SM OVC006=
201908151139 TAF KPAE 151139Z 1512/1612 36004KT P6SM OVC004 FM151600 VRB03KT
                       P6SM SCT008 FM151700 34006KT P6SM SCT250=
201908150520 TAF KPAE 150520Z 1506/1606 35007KT P6SM SCT250 FM151300 36003KT
                       P6SM SCT007 FM151700 34006KT P6SM SCT250=
201908142331 TAF KPAE 142331Z 1500/1524 35007KT P6SM SCT250 FM151300 36003KT
                       P6SM SCT007 FM151700 34006KT P6SM SCT250=
201908141732 TAF KPAE 141732Z 1418/1518 VRB03KT P6SM SCT250 FM150000 35004KT
                       P6SM SCT250 FM151300 36003KT P6SM SCT007=
201908141120 TAF KPAE 141120Z 1412/1512 35003KT P6SM BKN250 FM141800 30006KT
                       P6SM BKN250 FM150000 35004KT P6SM SCT250=
201908140520 TAF KPAE 140520Z 1406/1506 36005KT P6SM BKN250 FM141200 03003KT
                       P6SM FEW070 SCT250 FM141800 32006KT P6SM
                       FEW070 SCT250=
201908132337 TAF KPAE 132337Z 1400/1424 36007KT P6SM SCT100 SCT250 FM141200
                       01003KT P6SM SCT250=
201908131727 TAF KPAE 131727Z 1318/1418 36004KT P6SM SCT120 SCT250=
201908131120 TAF KPAE 131120Z 1312/1412 36004KT P6SM SCT120 SCT250=
201908130520 TAF KPAE 130520Z 1306/1406 35005KT P6SM FEW100 SCT250 FM131200
                       VRB03KT P6SM SCT008 FM131700 35004KT P6SM
                       FEW100 SCT250=
201908122320 TAF KPAE 122320Z 1300/1324 28005KT P6SM SCT070 FM130100 35005KT
                       P6SM BKN250 FM131200 VRB03KT P6SM OVC008
                       FM131700 35004KT P6SM SCT250=
201908121732 TAF KPAE 121732Z 1218/1318 20004KT P6SM SCT014 BKN050 FM122100
                       25005KT P6SM SCT050 BKN250 FM130100 35005KT
                       P6SM BKN250 FM131200 VRB03KT P6SM OVC008=
201908121121 TAF KPAE 121121Z 1212/1312 14003KT P6SM SCT007 BKN050
                      TEMPO 1212/1215 4SM BR BKN007 OVC050 FM121500
                       15004KT P6SM BKN007 BKN050 FM121800 23004KT
                       P6SM FEW015 BKN050 FM122100 25005KT P6SM
                       SCT050 BKN250 FM130100 35005KT P6SM BKN250=
201908121015 KPAE 121015Z 1210/1306 VRB03KT P6SM SCT001 BKN050 OVC080
                      TEMPO 1210/1212 1/2SM FG BKN001 OVC050 FM121200
                       17004KT P6SM BKN015 OVC025 FM121800 23004KT
                       P6SM BKN030 FM122100 25005KT P6SM SCT050
                       BKN250 FM130100 35005KT P6SM SCT050 BKN250=
201908120926 KPAE 120926Z 1209/1306 00000KT P6SM SCT025 OVC035
                      TEMPO 1209/1212 OVC025 FM121200 17004KT P6SM
                       BKN015 OVC025 FM121800 23004KT P6SM BKN030
                       FM122100 25005KT P6SM SCT050 BKN250 FM130100
                       35005KT P6SM SCT050 BKN250=
201908120802 KPAE 120802Z 1208/1306 16004KT P6SM SCT003 BKN013 OVC020
                      TEMPO 1208/1212 1SM -RA BR BKN003 OVC013
                       FM121800 22004KT P6SM BKN030 FM122100 25005KT
                       P6SM SCT050 BKN250 FM130100 35005KT P6SM
                       SCT050 BKN250=
201908120522 TAF KPAE 120522Z 1206/1306 18005KT P6SM VCSH BKN025 OVC030 FM121000
                       18004KT P6SM OVC012 FM121800 22004KT P6SM
                       BKN030 FM122100 25005KT P6SM SCT050 BKN250
                       FM130100 35005KT P6SM SCT050 BKN250=
201908112336 TAF KPAE 112336Z 1200/1224 16005KT P6SM SCT040 BKN070
                      TEMPO 1200/1202 BKN020 FM120900 16005KT P6SM
                       OVC035 FM121100 16003KT P6SM OVC020 FM121800
                       23005KT P6SM BKN050=
201908111727 TAF KPAE 111727Z 1118/1218 17008KT P6SM SCT015 OVC040
                      TEMPO 1118/1120 OVC008 FM112100 21005KT P6SM
                       SCT030 BKN050 FM120900 16005KT P6SM OVC020
                       FM121300 16003KT P6SM OVC015=
201908111120 TAF KPAE 111120Z 1112/1212 VRB03KT P6SM SCT015 BKN035 OVC045
                      TEMPO 1112/1116 BKN015 OVC035 FM112100 21005KT
                       P6SM SCT030 BKN050 FM120900 16005KT P6SM
                       OVC020=
201908110520 TAF KPAE 110520Z 1106/1206 36006KT P6SM BKN050 FM111000 18006KT
                       P6SM BKN020 OVC040 FM112100 21005KT P6SM
                       SCT030 BKN050=
201908102321 TAF KPAE 102321Z 1100/1124 33006KT P6SM BKN050 FM110600 VRB04KT
                       P6SM SCT020 OVC040 FM111000 18006KT P6SM
                       BKN020 OVC040 FM112100 21005KT P6SM SCT030
                       BKN050=
201908102127 KPAE 102127Z 1021/1118 30005KT P6SM SCT020 SCT080 FM110000 VRB04KT
                       P6SM SCT025 BKN050
                      TEMPO 1107/1110 BKN025 OVC050 FM111000 18007KT
                       P6SM BKN020 OVC040 FM111700 22007KT P6SM
                       VCSH BKN025 OVC050=
201908102016 KPAE 102016Z 1020/1118 30005KT P6SM SCT006 BKN020 FM102300 VRB04KT
                       P6SM BKN030 FM111000 18006KT P6SM BKN020
                       FM111700 21005KT P6SM SCT030=
201908101820 KPAE 101820Z 1018/1118 VRB03KT P6SM SCT007 BKN040 OVC090
                      TEMPO 1018/1020 4SM -SHRA BR BKN007 OVC030
                       FM102200 VRB04KT P6SM SCT020 BKN050 BKN100
                       FM111000 18006KT P6SM BKN015 BKN050 FM111700
                       21005KT P6SM SCT030 BKN050=
201908101720 TAF KPAE 101720Z 1018/1118 VRB03KT P6SM SCT012 BKN040 OVC090
                      TEMPO 1018/1020 4SM -SHRA BR BKN012 OVC040
                       FM102200 VRB04KT P6SM SCT020 BKN050 BKN100
                       FM111000 18006KT P6SM BKN015 BKN050 FM111700
                       21005KT P6SM SCT030 BKN050=
201908101501 KPAE 101501Z 1015/1112 VRB03KT 5SM -RA BR OVC030
                      TEMPO 1015/1018 2SM RA BR OVC015 FM101800
                       VRB03KT P6SM -SHRA BKN030 OVC080 FM102100
                       30006KT P6SM BKN040 BKN100 FM110900 VRB04KT
                       P6SM BKN040 BKN100 FM111100 20006KT P6SM
                       BKN020 OVC040=
201908101121 TAF KPAE 101121Z 1012/1112 00000KT P6SM BKN035 BKN100
                      TEMPO 1012/1016 -SHRA BKN025 OVC035 FM102100
                       31006KT P6SM SCT040 BKN100 FM110800 36004KT
                       P6SM BKN040 BKN100=
201908100538 TAF KPAE 100538Z 1006/1106 35007KT P6SM BKN030 FM101200 18005KT
                       P6SM -SHRA SCT008 BKN020 OVC040 FM101700
                       21005KT P6SM VCSH BKN025 BKN040 FM102200
                       30006KT P6SM BKN040=
201908092320 TAF KPAE 092320Z 1000/1024 32007KT P6SM BKN030 BKN150 FM101200
                       18005KT P6SM -SHRA BKN025 OVC040 FM101700
                       21005KT P6SM VCSH SCT025 BKN040 FM102200
                       30006KT P6SM SCT040=
201908092101 KPAE 092101Z 0921/1018 32004KT P6SM OVC025 FM092300 32006KT P6SM
                       SCT025 BKN040 BKN120 FM101000 18005KT 6SM
                       -SHRA BKN025 OVC040 FM101700 21005KT P6SM
                       VCSH SCT025 BKN040=
201908091720 TAF KPAE 091720Z 0918/1018 VRB03KT P6SM BKN015 BKN040 FM092100
                       VRB04KT P6SM SCT020 BKN040 BKN120 FM101000
                       18005KT 6SM -SHRA BKN025 OVC040 FM101700
                       21005KT P6SM VCSH SCT025 BKN040=
201908091344 KPAE 091344Z 0914/1012 36005KT P6SM VCSH OVC015 FM092100 29005KT
                       P6SM OVC035 FM100000 33005KT P6SM BKN040
                       BKN120 FM100900 VRB03KT P6SM OVC030=
201908091131 TAF KPAE 091131Z 0912/1012 36003KT P6SM SCT012 OVC030 FM092100
                       29005KT P6SM OVC035 FM100000 33005KT P6SM
                       BKN040 BKN120 FM100900 VRB03KT P6SM OVC030=
201908090857 KPAE 090857Z 0909/1006 VRB03KT P6SM SCT015 OVC030 FM092100 22006KT
                       P6SM BKN030 FM092300 34006KT P6SM SCT035
                       BKN100=
201908090536 TAF KPAE 090536Z 0906/1006 18006KT P6SM OVC030 FM091000 18006KT
                       P6SM OVC020 FM092100 22006KT P6SM BKN030
                       FM092300 34006KT P6SM SCT035 BKN100=
201908082320 TAF KPAE 082320Z 0900/0924 24007KT P6SM OVC025 FM090600 18006KT
                       P6SM OVC020 FM092100 22006KT P6SM BKN030=
201908081726 TAF KPAE 081726Z 0818/0918 18006KT P6SM OVC012 FM082000 22006KT
                       P6SM OVC018 FM082200 24006KT P6SM BKN025
                       FM090900 VRB03KT P6SM OVC015=
201908081341 KPAE 081341Z 0814/0912 19006KT P6SM OVC010
                      TEMPO 0814/0816 OVC008 FM081700 22005KT P6SM
                       OVC015 FM082100 24007KT P6SM OVC025 FM090000
                       25006KT P6SM BKN030 FM091000 VRB04KT P6SM
                       OVC020=
201908081127 TAF KPAE 081127Z 0812/0912 19005KT P6SM OVC009 FM081700 22005KT
                       P6SM OVC015 FM082100 24007KT P6SM OVC025
                       FM090000 25006KT P6SM BKN030 FM091000 VRB04KT
                       P6SM OVC020=
201908080534 TAF KPAE 080534Z 0806/0906 36006KT P6SM SKC FM081000 VRB03KT P6SM
                       OVC006 FM081700 VRB03KT P6SM OVC011 FM082200
                       29006KT P6SM BKN025=
201908072338 TAF KPAE 072338Z 0800/0824 29006KT P6SM SKC FM080900 VRB03KT 1SM
                       BR OVC002 FM081500 VRB03KT 4SM BR OVC003
                       FM081700 VRB03KT P6SM OVC006 FM081900 VRB03KT
                       P6SM OVC011 FM082200 29006KT P6SM SCT030=
201908071727 TAF KPAE 071727Z 0718/0818 VRB04KT 1SM BR OVC003 FM071900 18007KT
                       P6SM FEW004 SCT010 FM072200 32008KT P6SM
                       FEW010 FM080900 19007KT 1SM BR OVC003 FM081700
                       19006KT P6SM BKN008=
201908071153 TAF KPAE 071153Z 0712/0812 VRB03KT P6SM BKN001
                      TEMPO 0712/0715 1/4SM FG VV001 FM071600 VRB03KT
                       1SM BR BKN002 FM071700 VRB03KT 3SM BR BKN004
                       FM071800 34008KT P6SM SKC FM080600 VRB03KT
                       P6SM SKC=
201908071012 KPAE 071012Z 0710/0806 VRB03KT 1/4SM FG VV001 FM071600 VRB03KT
                       1SM BR BKN002 FM071700 VRB03KT 3SM BR BKN004
                       FM071800 34008KT P6SM SKC=
201908070526 TAF KPAE 070526Z 0706/0806 35008KT P6SM SKC FM071100 VRB03KT 1/2SM
                       FG VV001 FM071600 VRB03KT 1SM BR BKN002
                       FM071700 VRB03KT 3SM BR BKN004 FM071800
                       34008KT P6SM SKC=
201908070310 KPAE 070310Z 0703/0724 35008KT P6SM SKC FM071100 VRB03KT 1/2SM
                       FG VV001 FM071600 32004KT 3SM BR BKN002
                       FM071700 33006KT P6SM SKC=
201908062337 TAF KPAE 062337Z 0700/0724 35008KT P6SM SKC FM070600 35004KT P6SM
                       SKC FM071100 32004KT P6SM SCT250 FM071400
                       29002KT P6SM OVC010 FM071500 28003KT 6SM
                       BR OVC008=
201908061727 TAF KPAE 061727Z 0618/0718 VRB03KT P6SM SCT200
                      TEMPO 0618/0619 5SM BR SCT001 FM062100 35008KT
                       P6SM SCT200 FM070600 01003KT P6SM SKC FM071100
                       32004KT P6SM BKN008 FM071300 36002KT 6SM
                       BR OVC003=
201908061142 TAF KPAE 061142Z 0612/0712 VRB03KT 1/4SM FG OVC001 FM061600 VRB03KT
                       3SM BR OVC004 FM061700 VRB03KT P6SM BKN006
                       FM061800 VRB03KT P6SM SCT200 FM062100 35008KT
                       P6SM SCT200 FM070600 01003KT P6SM SKC FM071100
                       32004KT P6SM BKN008=
201908061037 KPAE 061037Z 0611/0706 00000KT P6SM SKC FM061200 VRB03KT 1/2SM
                       FG OVC001 FM061400 VRB03KT 2SM BR OVC002
                       FM061600 VRB03KT 5SM BR OVC004 FM061700
                       VRB03KT P6SM BKN006 FM061800 VRB03KT P6SM
                       SCT200 FM062100 35008KT P6SM SCT200=
201908060536 TAF KPAE 060536Z 0606/0706 35006KT P6SM SCT200 FM061000 VRB03KT
                       1/2SM FG OVC001 FM061400 VRB03KT 2SM BR
                       OVC002 FM061600 VRB03KT 5SM BR OVC004 FM061700
                       VRB03KT P6SM BKN006 FM061800 VRB03KT P6SM
                       SCT200 FM062100 35008KT P6SM SCT200=
201908052335 TAF KPAE 052335Z 0600/0624 35005KT P6SM SKC FM061100 35001KT 6SM
                       BR FEW003 FM061800 30005KT P6SM SKC=
201908051730 TAF KPAE 051730Z 0518/0618 32006KT P6SM SKC FM060000 36005KT P6SM
                       SKC FM061100 VRB03KT 6SM BR FEW003=
201908051127 TAF KPAE 051127Z 0512/0612 VRB03KT P6SM SKC FM051800 32006KT P6SM
                       SKC FM060000 36005KT P6SM SKC FM061100 VRB03KT
                       6SM BR FEW003=
201908050532 TAF KPAE 050532Z 0506/0606 VRB03KT P6SM SKC FM051800 32006KT P6SM
                       SKC FM060000 36005KT P6SM SKC=
201908042331 TAF KPAE 042331Z 0500/0524 35007KT P6SM SKC FM050600 VRB03KT P6SM
                       SKC=
201908041730 TAF KPAE 041730Z 0418/0518 35006KT P6SM FEW200 FM050600 VRB03KT
                       P6SM SKC FM050900 02002KT P6SM SKC=
201908041129 TAF KPAE 041129Z 0412/0512 02005KT P6SM SCT200 FM041800 36006KT
                       P6SM FEW200 FM050600 VRB03KT P6SM SKC=
201908040531 TAF KPAE 040531Z 0406/0506 36006KT P6SM SCT200 FM041800 36005KT
                       P6SM FEW200=
201908032320 TAF KPAE 032320Z 0400/0424 33010G18KT P6SM SCT200 FM040500 01007KT
                       P6SM SCT200 FM041800 36005KT P6SM FEW200=
201908031720 TAF KPAE 031720Z 0318/0418 35006KT P6SM SKC FM040300 35004KT P6SM
                       SCT200 FM041000 36003KT P6SM SKC=
201908031130 TAF KPAE 031130Z 0312/0412 36005KT P6SM SCT050 SCT200 FM031800
                       34007KT P6SM SKC FM040300 36004KT P6SM SCT200
                       FM041000 02003KT P6SM SKC=
201908030541 TAF KPAE 030541Z 0306/0406 36005KT P6SM SCT060 SCT200
                      TEMPO 0306/0310 BKN060 FM031000 02004KT P6SM
                       SCT200 FM031800 34007KT P6SM SKC FM040300
                       36004KT P6SM SCT200=
201908022327 TAF KPAE 022327Z 0300/0324 36006KT P6SM FEW030 SCT060 BKN200 FM030300
                       36005KT P6SM SCT060 BKN200 FM030700 02004KT
                       P6SM SCT200 FM031800 34008KT P6SM SKC=
201908022103 KPAE 022103Z 0221/0318 35009KT P6SM SCT012 BKN025 FM022300 35009KT
                       P6SM SCT020 BKN050 FM030300 36005KT P6SM
                       SCT050 SCT200=
201908021944 KPAE 021944Z 0220/0318 35005KT P6SM VCSH SCT005 BKN015 FM022100
                       35005KT P6SM VCSH SCT020 BKN050 FM030300
                       36005KT P6SM SCT050 SCT200=
201908021720 TAF KPAE 021720Z 0218/0318 22010KT P6SM -SHRA SCT008 BKN013 BKN025
                       FM022100 22011KT P6SM VCSH SCT030 BKN050
                       FM030300 36005KT P6SM SCT050 SCT200=
201908021505 KPAE 021505Z 0215/0312 17015G20KT P6SM -SHRA BKN009 BKN020 FM021800
                       19014G22KT P6SM -SHRA BKN030 BKN050 FM022100
                       22011KT P6SM VCSH SCT030 BKN050 FM030300
                       36005KT P6SM SCT050 SCT200=
201908021122 TAF KPAE 021122Z 0212/0312 17015G20KT P6SM -RA OVC035
                      TEMPO 0212/0216 3SM RA BR OVC022 FM021800
                       19014G22KT P6SM -SHRA BKN030 BKN050 FM022100
                       22011KT P6SM VCSH SCT030 BKN050 FM030300
                       36005KT P6SM SCT050 SCT200=
201908020544 TAF KPAE 020544Z 0206/0306 19012KT P6SM SCT060 OVC100 FM020900
                       18012G18KT P6SM -RA BKN035 OVC060 FM021100
                       17015G20KT P6SM -RA OVC025 FM021800 19012G18KT
                       P6SM -SHRA BKN030 BKN050 FM022100 22011KT
                       P6SM VCSH SCT030 BKN050 FM030300 36005KT
                       P6SM SCT050 SCT200=
201908012320 TAF KPAE 012320Z 0200/0224 19012KT P6SM FEW035 SCT200 FM020900
                       18012G18KT P6SM BKN050 OVC080 FM021300 17015G20KT
                       P6SM -RA OVC030 FM021800 18015G20KT P6SM
                       OVC050 FM022100 20012KT P6SM BKN050=
201908011739 TAF KPAE 011739Z 0118/0218 16010KT P6SM BKN020 FM011900 21010KT
                       P6SM SCT070 SCT200 FM020300 19011KT P6SM
                       SCT070 BKN200 FM020900 18012G18KT P6SM BKN050
                       OVC080 FM021400 17015KT P6SM -RA OVC030=
201908011140 TAF KPAE 011140Z 0112/0212 VRB03KT P6SM FEW030 SCT070 FM011800
                       19008KT P6SM SCT070 SCT200 FM020300 19011KT
                       P6SM SCT070 BKN200 FM020900 18012G18KT P6SM
                       BKN050 OVC080=
201908010543 TAF KPAE 010543Z 0106/0206 VRB04KT P6SM FEW080 FEW250 FM011100
                       VRB03KT P6SM BKN030 FM011800 19008KT P6SM
                       SCT250 FM020300 19011KT P6SM SCT250=