##########################################################
# Query made at 02/15/2025 22:02:19 UTC
# Time interval: from 06/01/2019 00:00  to 06/30/2019 23:59  UTC
##########################################################

##########################################################
# KPAE, Everett, Snohomish County Airport (United States)
# WMO index: -----. WIGOS ID: Unknown
# Latitude 47-55-23N. Longitude 122-16-57W. Altitude 184 m.
##########################################################

###################################
#  METAR/SPECI from KPAE
###################################
201906302353 METAR KPAE 302353Z 36008KT 10SM CLR 24/11 A3009 RMK AO2 LTG DSNT E SLP187 T02390106 10239 20194 56014=
201906302253 METAR KPAE 302253Z 35010KT 10SM CLR 23/09 A3010 RMK AO2 SLP192 T02330089=
201906302153 METAR KPAE 302153Z 36009G15KT 10SM CLR 23/10 A3011 RMK AO2 SLP194 T02280100=
201906302053 METAR KPAE 302053Z 36007KT 10SM CLR 22/11 A3013 RMK AO2 SLP202 T02220111 56011=
201906301953 METAR KPAE 301953Z AUTO 32007KT 10SM CLR 22/12 A3014 RMK AO2 SLP205 T02170117=
201906301853 METAR KPAE 301853Z AUTO VRB05KT 10SM CLR 21/11 A3015 RMK AO2 SLP209 T02110106=
201906301753 METAR KPAE 301753Z AUTO 36006KT 10SM CLR 19/11 A3017 RMK AO2 SLP214 T01940111 10200 20117 58003=
201906301653 METAR KPAE 301653Z AUTO 36004KT 10SM CLR 18/11 A3017 RMK AO2 SLP216 T01830106=
201906301553 METAR KPAE 301553Z AUTO 01005KT 10SM CLR 17/11 A3018 RMK AO2 SLP217 T01670106=
201906301453 METAR KPAE 301453Z AUTO 35003KT 10SM CLR 16/11 A3017 RMK AO2 SLP216 T01610111 51009=
201906301353 METAR KPAE 301353Z AUTO 00000KT 10SM CLR 14/11 A3017 RMK AO2 SLP214 T01440106=
201906301253 METAR KPAE 301253Z AUTO 00000KT 10SM CLR 13/11 A3016 RMK AO2 SLP210 T01330106=
201906301153 METAR KPAE 301153Z AUTO 34003KT 10SM CLR 12/09 A3015 RMK AO2 SLP207 T01220094 10144 20122 56003=
201906301053 METAR KPAE 301053Z AUTO 00000KT 10SM CLR 13/09 A3015 RMK AO2 SLP208 T01280094=
201906300953 METAR KPAE 300953Z AUTO 36003KT 10SM CLR 13/09 A3015 RMK AO2 SLP207 T01330094=
201906300853 METAR KPAE 300853Z AUTO 35005KT 10SM CLR 13/09 A3015 RMK AO2 SLP210 T01330094 50001=
201906300753 METAR KPAE 300753Z AUTO 34004KT 10SM CLR 13/09 A3016 RMK AO2 SLP211 T01330094 402220117=
201906300653 METAR KPAE 300653Z AUTO VRB03KT 10SM CLR 14/09 A3015 RMK AO2 SLP210 T01440089=
201906300553 METAR KPAE 300553Z AUTO 34005KT 10SM CLR 14/09 A3015 RMK AO2 SLP209 T01440094 10222 20144 51008=
201906300453 METAR KPAE 300453Z AUTO 35004KT 10SM CLR 16/09 A3015 RMK AO2 SLP207 T01560089=
201906300353 METAR KPAE 300353Z AUTO 33004KT 10SM CLR 17/09 A3014 RMK AO2 SLP204 T01720094=
201906300253 METAR KPAE 300253Z 35006KT 10SM CLR 19/11 A3012 RMK AO2 SLP200 T01940106 55004=
201906300153 METAR KPAE 300153Z 34008KT 10SM CLR 21/09 A3012 RMK AO2 SLP198 T02060094=
201906300053 METAR KPAE 300053Z 36007KT 10SM CLR 22/09 A3012 RMK AO2 SLP199 T02170089=
201906292353 METAR KPAE 292353Z 35009KT 10SM CLR 22/08 A3014 RMK AO2 SLP204 T02170083 10222 20183 56009=
201906292253 METAR KPAE 292253Z AUTO 36009KT 10SM CLR 22/09 A3014 RMK AO2 SLP206 T02170089=
201906292153 METAR KPAE 292153Z 35008KT 10SM CLR 22/09 A3015 RMK AO2 SLP209 T02170094=
201906292053 METAR KPAE 292053Z 31007KT 10SM CLR 21/11 A3016 RMK AO2 SLP212 T02110111 58005=
201906291953 METAR KPAE 291953Z 32005KT 10SM CLR 20/10 A3017 RMK AO2 SLP216 T02000100=
201906291853 METAR KPAE 291853Z 28006KT 10SM CLR 19/11 A3018 RMK AO2 SLP217 T01940106=
201906291753 METAR KPAE 291753Z VRB04KT 10SM CLR 18/11 A3018 RMK AO2 SLP218 T01830106 10189 20117 51002=
201906291653 METAR KPAE 291653Z 01005KT 10SM CLR 18/10 A3018 RMK AO2 SLP218 T01780100=
201906291553 METAR KPAE 291553Z 34004KT 10SM CLR 16/11 A3018 RMK AO2 SLP219 T01610106=
201906291453 METAR KPAE 291453Z 01004KT 10SM CLR 15/10 A3017 RMK AO2 SLP216 T01500100 53012=
201906291353 METAR KPAE 291353Z 01004KT 10SM CLR 14/11 A3016 RMK AO2 SLP212 T01390106=
201906291253 METAR KPAE 291253Z AUTO 00000KT 10SM CLR 13/10 A3014 RMK AO2 SLP206 T01280100=
201906291153 METAR KPAE 291153Z AUTO 00000KT 10SM CLR 12/10 A3014 RMK AO2 SLP204 T01220100 10139 20122 50000=
201906291053 METAR KPAE 291053Z AUTO 00000KT 10SM CLR 12/10 A3014 RMK AO2 SLP204 T01220100=
201906290953 METAR KPAE 290953Z AUTO 00000KT 10SM CLR 13/10 A3014 RMK AO2 SLP206 T01330100=
201906290853 METAR KPAE 290853Z AUTO 36003KT 10SM CLR 13/10 A3014 RMK AO2 SLP204 T01330100 53001=
201906290753 METAR KPAE 290753Z AUTO 02003KT 10SM BKN085 13/11 A3013 RMK AO2 SLP203 T01330106 402170128=
201906290653 METAR KPAE 290653Z AUTO 35003KT 10SM CLR 14/11 A3013 RMK AO2 SLP202 T01390106=
201906290553 METAR KPAE 290553Z AUTO 35004KT 10SM CLR 14/11 A3013 RMK AO2 SLP202 T01390106 10206 20133 50004=
201906290453 METAR KPAE 290453Z AUTO 01006KT 10SM BKN090 14/11 A3013 RMK AO2 SLP204 T01390106=
201906290353 METAR KPAE 290353Z AUTO 35009KT 10SM OVC085 14/10 A3013 RMK AO2 SLP202 T01440100=
201906290253 METAR KPAE 290253Z 35006KT 10SM CLR 17/08 A3012 RMK AO2 SLP198 T01670083 53003=
201906290153 METAR KPAE 290153Z 34006KT 10SM CLR 18/09 A3011 RMK AO2 SLP196 T01830094=
201906290053 METAR KPAE 290053Z VRB03KT 10SM SCT085 19/09 A3011 RMK AO2 SLP195 T01940089=
201906282353 METAR KPAE 282353Z 28008KT 10SM SCT085 19/07 A3011 RMK AO2 SLP195 T01940072 10217 20156 56005=
201906282253 METAR KPAE 282253Z 25008KT 10SM CLR 21/05 A3011 RMK AO2 SLP196 T02060050=
201906282153 METAR KPAE 282153Z 27008KT 10SM CLR 21/07 A3012 RMK AO2 SLP198 T02060072=
201906282053 METAR KPAE 282053Z 25006KT 10SM FEW041 BKN080 19/08 A3013 RMK AO2 SLP200 T01890078 58004=
201906281953 METAR KPAE 281953Z VRB06KT 10SM FEW040 SCT055 BKN070 17/08 A3013 RMK AO2 SLP202 T01720083=
201906281853 METAR KPAE 281853Z 00000KT 10SM FEW027 SCT034 OVC075 17/10 A3013 RMK AO2 SLP203 T01720100=
201906281828 SPECI KPAE 281828Z 23004KT 10SM SCT027 OVC070 16/10 A3013 RMK AO2 T01610100=
201906281811 SPECI KPAE 281811Z VRB03KT 10SM BKN028 OVC070 17/10 A3013 RMK AO2 T01670100=
201906281753 METAR KPAE 281753Z 23003KT 10SM SCT027 OVC070 16/11 A3014 RMK AO2 SLP205 T01560106 10161 20128 56002=
201906281706 SPECI KPAE 281706Z 21006KT 10SM FEW023 OVC070 16/10 A3014 RMK AO2 T01560100=
201906281653 METAR KPAE 281653Z 21005KT 10SM BKN019 BKN024 OVC070 15/10 A3014 RMK AO2 SLP205 T01500100=
201906281553 METAR KPAE 281553Z 18008KT 10SM BKN017 BKN025 OVC038 14/10 A3014 RMK AO2 SLP207 T01440100=
201906281500 SPECI KPAE 281500Z 17005KT 10SM BKN017 BKN026 OVC075 14/11 A3014 RMK AO2 T01390106=
201906281453 METAR KPAE 281453Z 17006KT 10SM BKN010 OVC022 14/11 A3014 RMK AO2 SLP206 T01390106 52005=
201906281420 SPECI KPAE 281420Z 17007KT 10SM SCT007 BKN013 OVC045 14/11 A3014 RMK AO2 T01390106=
201906281353 METAR KPAE 281353Z 16007KT 10SM FEW014 OVC075 13/10 A3014 RMK AO2 SLP204 T01330100=
201906281253 METAR KPAE 281253Z AUTO 19006KT 10SM OVC080 13/10 A3013 RMK AO2 SLP203 T01280100=
201906281153 METAR KPAE 281153Z AUTO 20004KT 10SM SCT014 OVC075 13/11 A3013 RMK AO2 SLP201 T01330106 10144 20128 53004=
201906281053 METAR KPAE 281053Z AUTO 17006KT 10SM FEW055 OVC080 13/11 A3012 RMK AO2 SLP199 T01330106=
201906280953 METAR KPAE 280953Z AUTO 17007KT 10SM OVC080 13/11 A3012 RMK AO2 SLP198 T01330106=
201906280853 METAR KPAE 280853Z AUTO 16008KT 10SM FEW065 OVC080 13/11 A3012 RMK AO2 SLP197 T01330106 50000=
201906280753 METAR KPAE 280753Z AUTO 15008KT 10SM FEW026 OVC070 13/11 A3012 RMK AO2 SLP198 T01330106 402060128=
201906280749 SPECI KPAE 280749Z AUTO 15007KT 10SM SCT026 OVC070 14/11 A3012 RMK AO2=
201906280653 METAR KPAE 280653Z AUTO 11003KT 10SM BKN028 14/11 A3012 RMK AO2 SLP197 T01390106=
201906280553 METAR KPAE 280553Z AUTO 00000KT 10SM FEW031 FEW070 SCT100 13/11 A3011 RMK AO2 SLP196 T01280106 10206 20128 51012=
201906280453 METAR KPAE 280453Z AUTO 01006KT 10SM FEW100 14/10 A3011 RMK AO2 SLP195 T01390100=
201906280353 METAR KPAE 280353Z AUTO 36005KT 10SM SCT065 14/10 A3010 RMK AO2 SLP192 T01440100=
201906280253 METAR KPAE 280253Z 23008KT 10SM FEW055 SCT075 17/08 A3008 RMK AO2 LTG DSNT NE SLP184 T01720083 53011=
201906280153 METAR KPAE 280153Z 19010KT 10SM FEW045 OVC090 19/08 A3006 RMK AO2 WSHFT 0119 SLP178 T01940083=
201906280139 SPECI KPAE 280139Z 18012KT 10SM BKN047 OVC095 19/08 A3005 RMK AO2 WSHFT 0119 T01940083=
201906280053 METAR KPAE 280053Z VRB06KT 10SM FEW050 SCT070 BKN090 19/07 A3005 RMK AO2 SLP174 T01940072=
201906272353 METAR KPAE 272353Z 20011KT 10SM FEW050 20/05 A3004 RMK AO2 SLP173 T02000050 10206 20167 53003=
201906272253 METAR KPAE 272253Z AUTO 24009KT 10SM SCT050 BKN060 BKN080 21/07 A3004 RMK AO2 SLP170 T02060072=
201906272153 METAR KPAE 272153Z 25007KT 10SM SCT050 BKN070 OVC080 19/06 A3004 RMK AO2 SLP170 T01890061=
201906272100 SPECI KPAE 272100Z 23008KT 10SM SCT048 BKN060 OVC075 18/08 A3004 RMK AO2 T01830078=
201906272053 METAR KPAE 272053Z 27007KT 10SM BKN020 BKN034 BKN043 18/08 A3004 RMK AO2 SLP170 T01830078 53002=
201906271953 METAR KPAE 271953Z VRB03KT 10SM BKN020 BKN034 BKN043 19/08 A3003 RMK AO2 SLP169 T01940078=
201906271853 METAR KPAE 271853Z 20012G17KT 10SM BKN020 BKN034 BKN043 18/09 A3003 RMK AO2 SLP169 T01830089=
201906271753 METAR KPAE 271753Z 17011KT 150V220 10SM BKN025 BKN032 OVC110 17/09 A3003 RMK AO2 SLP168 60000 T01670094 10172 20128 51011=
201906271730 SPECI KPAE 271730Z 18011KT 10SM SCT020 BKN027 BKN034 16/09 A3003 RMK AO2 T01610094=
201906271653 METAR KPAE 271653Z 16010KT 10SM SCT016 BKN080 BKN100 16/11 A3002 RMK AO2 RAE1554 SLP165 P0000 T01610111=
201906271642 SPECI KPAE 271642Z 16013G19KT 10SM BKN016 BKN075 16/11 A3002 RMK AO2 RAE1554 P0000 T01560106=
201906271635 SPECI KPAE 271635Z 17011G17KT 10SM BKN014 OVC075 15/11 A3002 RMK AO2 RAE1554 P0000 T01500106=
201906271615 SPECI KPAE 271615Z 16013KT 10SM BKN015 OVC070 14/11 A3001 RMK AO2 RAE1554 P0000 T01390106=
201906271553 METAR KPAE 271553Z 16011KT 10SM -RA FEW013 SCT018 OVC070 14/11 A3001 RMK AO2 RAB30 SLP161 P0000 T01390111=
201906271453 METAR KPAE 271453Z 17011KT 10SM SCT016 OVC060 13/10 A3000 RMK AO2 RAB23E51 SLP157 P0000 60000 T01330100 53017=
201906271353 METAR KPAE 271353Z 17012G17KT 10SM FEW015 OVC050 13/10 A2998 RMK AO2 SLP150 T01330100=
201906271253 METAR KPAE 271253Z AUTO 18012KT 10SM FEW040 OVC048 13/10 A2996 RMK AO2 SLP144 T01330100=
201906271153 METAR KPAE 271153Z AUTO 19013G18KT 10SM OVC075 13/10 A2995 RMK AO2 RAE1054 SLP139 P0000 60000 T01330100 10150 20133 53006=
201906271053 METAR KPAE 271053Z AUTO 18010KT 10SM -RA FEW039 BKN070 OVC080 14/11 A2993 RMK AO2 RAE22B41 SLP135 P0000 T01390111=
201906270953 METAR KPAE 270953Z AUTO 15007KT 10SM -RA OVC070 14/11 A2993 RMK AO2 RAE10B28 SLP133 P0000 T01390111=
201906270853 METAR KPAE 270853Z AUTO 16003KT 10SM -RA OVC070 14/11 A2993 RMK AO2 RAB50 SLP132 P0000 60000 T01440106 50000=
201906270753 METAR KPAE 270753Z AUTO 18004KT 10SM OVC070 14/11 A2994 RMK AO2 SLP137 T01440106 402110122=
201906270653 METAR KPAE 270653Z AUTO 00000KT 10SM SCT080 BKN100 15/11 A2993 RMK AO2 SLP133 T01500106=
201906270553 METAR KPAE 270553Z AUTO 06004KT 10SM BKN100 14/11 A2993 RMK AO2 SLP133 T01440111 10178 20139 51011=
201906270453 METAR KPAE 270453Z AUTO 36003KT 10SM CLR 14/11 A2993 RMK AO2 SLP132 T01390106=
201906270353 METAR KPAE 270353Z AUTO 35003KT 10SM CLR 16/10 A2990 RMK AO2 SLP122 T01560100=
201906270253 METAR KPAE 270253Z 00000KT 10SM CLR 17/09 A2989 RMK AO2 SLP121 T01670094 58002=
201906270153 METAR KPAE 270153Z 10009KT 10SM CLR 17/10 A2990 RMK AO2 SLP122 T01670100=
201906270053 METAR KPAE 270053Z 09009KT 10SM FEW070 17/10 A2990 RMK AO2 SLP123 T01720100=
201906262353 METAR KPAE 262353Z VRB06KT 10SM FEW085 18/12 A2990 RMK AO2 LTG DSNT NE AND E RAB01E25 SLP123 P0000 60000 T01780117 10211 20172 53008=
201906262253 METAR KPAE 262253Z 11004KT 10SM FEW080 OVC110 18/10 A2988 RMK AO2 LTG DSNT E SLP116 T01830100=
201906262153 METAR KPAE 262153Z 33005KT 10SM CLR 18/11 A2986 RMK AO2 LTG DSNT SE SLP109 T01830106=
201906262053 METAR KPAE 262053Z VRB06KT 10SM CLR 21/09 A2987 RMK AO2 SLP115 T02060094 56012=
201906261953 METAR KPAE 261953Z 30007KT 10SM CLR 18/11 A2988 RMK AO2 SLP117 T01830106=
201906261853 METAR KPAE 261853Z 30005KT 10SM SCT035 19/11 A2990 RMK AO2 SLP123 T01890106=
201906261753 METAR KPAE 261753Z VRB04KT 10SM CLR 17/09 A2991 RMK AO2 SLP126 T01720094 10172 20128 58007=
201906261653 METAR KPAE 261653Z 27004KT 10SM SCT021 17/11 A2991 RMK AO2 SLP128 T01670106=
201906261612 SPECI KPAE 261612Z 32004KT 10SM BKN018 17/12 A2992 RMK AO2 T01670117=
201906261553 METAR KPAE 261553Z 00000KT 10SM FEW016 BKN080 16/11 A2993 RMK AO2 SLP132 T01560111=
201906261453 METAR KPAE 261453Z 00000KT 10SM OVC080 14/11 A2993 RMK AO2 SLP133 T01390111 50003=
201906261353 METAR KPAE 261353Z 16004KT 10SM SCT080 14/11 A2993 RMK AO2 SLP134 T01390106=
201906261253 METAR KPAE 261253Z AUTO 15006KT 10SM BKN095 13/10 A2993 RMK AO2 SLP132 T01280100=
201906261235 SPECI KPAE 261235Z AUTO 12003KT 10SM SCT025 BKN032 OVC095 13/09 A2992 RMK AO2 T01330094=
201906261228 SPECI KPAE 261228Z AUTO 11004KT 10SM BKN025 BKN032 OVC095 13/09 A2992 RMK AO2 T01330094=
201906261153 METAR KPAE 261153Z AUTO 09003KT 10SM BKN100 13/09 A2992 RMK AO2 SLP130 T01330089 10144 20122 53001=
201906261053 METAR KPAE 261053Z AUTO 00000KT 10SM BKN095 13/09 A2992 RMK AO2 SLP128 T01330094=
201906260953 METAR KPAE 260953Z AUTO 02004KT 10SM BKN100 13/10 A2992 RMK AO2 SLP130 T01330100=
201906260853 METAR KPAE 260853Z AUTO 02005KT 10SM BKN100 13/10 A2992 RMK AO2 SLP129 T01280100 51002=
201906260753 METAR KPAE 260753Z AUTO 35004KT 10SM CLR 13/10 A2991 RMK AO2 SLP129 T01280100 402280094=
201906260653 METAR KPAE 260653Z AUTO 01003KT 10SM CLR 13/10 A2991 RMK AO2 SLP129 T01330100=
201906260553 METAR KPAE 260553Z AUTO VRB03KT 10SM CLR 14/09 A2991 RMK AO2 SLP127 60000 T01390094 10228 20139 53015=
201906260453 METAR KPAE 260453Z AUTO 36005KT 10SM OVC090 15/10 A2990 RMK AO2 RAB42E53 SLP123 P0000 T01500100=
201906260353 METAR KPAE 260353Z AUTO 34004KT 10SM BKN090 OVC110 17/07 A2988 RMK AO2 SLP115 T01670067=
201906260253 METAR KPAE 260253Z 35005KT 10SM OVC095 18/08 A2987 RMK AO2 SLP112 T01830083 53006=
201906260153 METAR KPAE 260153Z 34005KT 10SM CLR 21/08 A2986 RMK AO2 SLP109 T02060078=
201906260053 METAR KPAE 260053Z 36006KT 10SM CLR 22/04 A2985 RMK AO2 SLP105 T02220044=
201906252353 METAR KPAE 252353Z 29006KT 10SM CLR 22/01 A2985 RMK AO2 SLP106 T02220006 10228 20167 56010=
201906252253 METAR KPAE 252253Z AUTO 28006KT 10SM FEW040 SCT110 22/05 A2986 RMK AO2 SLP109 T02170050=
201906252153 METAR KPAE 252153Z 29006KT 10SM FEW040 SCT120 21/06 A2987 RMK AO2 SLP112 T02110061=
201906252053 METAR KPAE 252053Z 31006KT 10SM FEW120 20/06 A2988 RMK AO2 SLP116 T02000056 58008=
201906251953 METAR KPAE 251953Z 00000KT 10SM CLR 19/06 A2989 RMK AO2 SLP119 T01890061=
201906251853 METAR KPAE 251853Z 28005KT 10SM CLR 18/07 A2989 RMK AO2 SLP123 T01780072=
201906251753 METAR KPAE 251753Z 26005KT 10SM CLR 17/09 A2990 RMK AO2 SLP125 T01720094 10172 20094 58002=
201906251653 METAR KPAE 251653Z VRB04KT 10SM CLR 17/09 A2990 RMK AO2 SLP124 T01670094=
201906251553 METAR KPAE 251553Z 00000KT 10SM CLR 14/09 A2991 RMK AO2 SLP126 T01440094=
201906251453 METAR KPAE 251453Z 36004KT 10SM CLR 13/09 A2991 RMK AO2 SLP126 T01330089 50002=
201906251353 METAR KPAE 251353Z 01003KT 10SM CLR 12/09 A2991 RMK AO2 SLP128 T01170089=
201906251253 METAR KPAE 251253Z 00000KT 10SM CLR 10/08 A2991 RMK AO2 SLP127 T01000083=
201906251153 METAR KPAE 251153Z 01004KT 10SM CLR 10/08 A2990 RMK AO2 SLP125 70001 T01000078 10111 20094 56009=
201906251053 METAR KPAE 251053Z 01003KT 10SM CLR 10/08 A2991 RMK AO2 SLP127 T01000083=
201906250953 METAR KPAE 250953Z 00000KT 10SM CLR 10/08 A2991 RMK AO2 SLP129 T01000078=
201906250853 METAR KPAE 250853Z 35003KT 10SM CLR 10/08 A2993 RMK AO2 SLP134 T01000083 56007=
201906250753 METAR KPAE 250753Z VRB04KT 10SM CLR 11/08 A2993 RMK AO2 SLP136 T01060083 401940106=
201906250653 METAR KPAE 250653Z 36006KT 10SM CLR 11/08 A2994 RMK AO2 SLP141 T01110083=
201906250553 METAR KPAE 250553Z VRB03KT 10SM CLR 11/08 A2995 RMK AO2 SLP143 T01110083 10189 20111 56003=
201906250453 METAR KPAE 250453Z 01007KT 10SM CLR 13/08 A2995 RMK AO2 SLP143 T01280083=
201906250353 METAR KPAE 250353Z 01006KT 10SM CLR 15/09 A2995 RMK AO2 SLP142 T01500094=
201906250253 METAR KPAE 250253Z 35004KT 10SM CLR 16/09 A2996 RMK AO2 SLP145 T01610094 56015=
201906250153 METAR KPAE 250153Z 31006KT 10SM CLR 18/07 A2997 RMK AO2 SLP148 T01830067=
201906250053 METAR KPAE 250053Z 27006KT 10SM CLR 19/07 A2999 RMK AO2 SLP154 T01890067=
201906242353 METAR KPAE 242353Z VRB05KT 10SM SCT025 18/07 A3001 RMK AO2 SLP160 T01830067 10194 20122 56016=
201906242253 METAR KPAE 242253Z 26007KT 10SM SCT020 18/06 A3002 RMK AO2 SLP165 T01830061=
201906242153 METAR KPAE 242153Z VRB05KT 10SM CLR 18/07 A3004 RMK AO2 SLP170 T01780067=
201906242053 METAR KPAE 242053Z 26006KT 10SM SCT033 18/08 A3005 RMK AO2 SLP177 T01780078 58012=
201906241953 METAR KPAE 241953Z VRB04KT 10SM SCT041 16/10 A3007 RMK AO2 SLP182 T01560100=
201906241925 SPECI KPAE 241925Z VRB03KT 10SM SCT027 BKN034 OVC041 14/11 A3008 RMK AO2 T01390106=
201906241917 SPECI KPAE 241917Z 34003KT 10SM FEW013 BKN029 OVC036 14/10 A3008 RMK AO2 T01390100=
201906241909 SPECI KPAE 241909Z 01004KT 10SM SCT012 SCT024 OVC030 13/10 A3008 RMK AO2 T01330100=
201906241853 METAR KPAE 241853Z 30003KT 10SM BKN011 BKN033 OVC048 13/10 A3008 RMK AO2 SLP187 T01330100=
201906241808 SPECI KPAE 241808Z 01003KT 10SM BKN011 BKN033 OVC048 13/10 A3009 RMK AO2 T01280100=
201906241753 METAR KPAE 241753Z 00000KT 8SM FEW006 BKN026 OVC033 12/11 A3009 RMK AO2 RAB1654E25 SLP190 P0001 60001 T01220106 10122 20106 58001=
201906241749 SPECI KPAE 241749Z 01003KT 7SM FEW006 BKN010 OVC031 12/11 A3009 RMK AO2 RAB1654E25 CIG 007V012 P0001=
201906241729 SPECI KPAE 241729Z 36003KT 3SM BR BKN006 OVC010 11/10 A3009 RMK AO2 RAB1654E25 CIG 004V009 P0001 T01110100=
201906241714 SPECI KPAE 241714Z 00000KT 2 1/2SM -RA BR OVC008 11/10 A3010 RMK AO2 RAB1654 CIG 004V013 P0000 T01110100=
201906241708 SPECI KPAE 241708Z 35003KT 3SM -RA BR SCT006 OVC011 11/10 A3010 RMK AO2 RAB1654 CIG 008V014 P0000 T01110100=
201906241653 METAR KPAE 241653Z 28003KT 2 1/2SM R16R/5000VP6000FT BR BKN006 OVC011 11/10 A3010 RMK AO2 SLP192 T01110100=
201906241626 SPECI KPAE 241626Z 00000KT 6SM BR BKN009 OVC012 11/09 A3010 RMK AO2 CIG 006V012 T01110094=
201906241600 SPECI KPAE 241600Z 00000KT 10SM FEW009 OVC014 12/10 A3009 RMK AO2 T01170100=
201906241553 METAR KPAE 241553Z 00000KT 9SM BKN007 OVC015 12/10 A3009 RMK AO2 SLP191 T01170100=
201906241507 SPECI KPAE 241507Z 00000KT 10SM BKN008 BKN013 OVC025 12/10 A3010 RMK AO2 T01170100=
201906241500 SPECI KPAE 241500Z 00000KT 10SM FEW008 SCT013 OVC025 12/10 A3010 RMK AO2 T01170100=
201906241453 METAR KPAE 241453Z 00000KT 10SM BKN009 OVC025 11/10 A3010 RMK AO2 RAE1355 SLP192 P0000 60000 T01110100 55002=
201906241413 SPECI KPAE 241413Z 31003KT 10SM BKN009 OVC025 11/09 A3009 RMK AO2 RAE1355 P0000 T01110094=
201906241400 SPECI KPAE 241400Z 00000KT 10SM FEW009 SCT018 OVC025 11/09 A3009 RMK AO2 RAE1355 P0000 T01110094=
201906241353 METAR KPAE 241353Z 00000KT 5SM -RA BR BKN009 BKN018 OVC025 11/09 A3009 RMK AO2 RAB36 SLP191 P0000 T01110094=
201906241345 SPECI KPAE 241345Z 00000KT 5SM -RA BR FEW006 SCT010 OVC025 11/09 A3009 RMK AO2 RAB36 P0000 T01060094=
201906241328 SPECI KPAE 241328Z 00000KT 8SM BKN012 OVC020 11/09 A3010 RMK AO2 T01110094=
201906241253 METAR KPAE 241253Z 00000KT 10SM FEW009 BKN015 OVC028 11/10 A3010 RMK AO2 SLP194 T01110100=
201906241249 SPECI KPAE 241249Z 00000KT 10SM FEW009 SCT015 OVC024 11/09 A3010 RMK AO2=
201906241153 METAR KPAE 241153Z 11003KT 10SM SCT018 OVC027 11/09 A3011 RMK AO2 SLP195 60001 70006 T01110094 10117 20106 58006=
201906241123 SPECI KPAE 241123Z VRB03KT 10SM SCT018 OVC028 11/09 A3011 RMK AO2 T01110094=
201906241053 METAR KPAE 241053Z 11004KT 10SM OVC032 11/09 A3011 RMK AO2 SLP197 T01110094=
201906241007 SPECI KPAE 241007Z 07004KT 10SM FEW016 OVC030 11/09 A3012 RMK AO2 T01110094=
201906240953 METAR KPAE 240953Z 00000KT 10SM SCT016 OVC029 12/09 A3012 RMK AO2 SLP199 T01170094=
201906240853 METAR KPAE 240853Z 02003KT 10SM OVC016 11/09 A3012 RMK AO2 SLP201 60001 T01110094 55005=
201906240814 SPECI KPAE 240814Z 01004KT 10SM BKN017 OVC055 11/09 A3012 RMK AO2 T01110094=
201906240753 METAR KPAE 240753Z 35003KT 10SM FEW017 OVC060 11/09 A3012 RMK AO2 RAE21 SLP201 P0000 T01110094 401560111=
201906240653 METAR KPAE 240653Z 05004KT 7SM -RA OVC048 11/10 A3014 RMK AO2 RAB0554 SLP206 P0001 T01110100=
201906240553 METAR KPAE 240553Z 03006KT 10SM FEW017 OVC040 11/10 A3014 RMK AO2 RAE52 SLP207 P0001 60002 T01110100 10133 20111 56003=
201906240453 METAR KPAE 240453Z 36003KT 9SM -RA OVC043 12/09 A3015 RMK AO2 SLP209 P0000 T01170094=
201906240353 METAR KPAE 240353Z 02005KT 4SM -RA BR OVC037 11/09 A3014 RMK AO2 RAB06 SLP208 P0001 T01110094=
201906240310 SPECI KPAE 240310Z AUTO 36006KT 8SM -RA OVC031 12/09 A3014 RMK AO2 RAB06 P0000 T01170094=
201906240253 METAR KPAE 240253Z 01005KT 10SM OVC029 12/09 A3015 RMK AO2 RAB14E28 SLP210 P0000 60000 T01170089 58006=
201906240153 METAR KPAE 240153Z 34005KT 10SM SCT019 OVC027 12/09 A3016 RMK AO2 RAB05E31 SLP214 P0000 T01170094=
201906240053 METAR KPAE 240053Z 33006KT 10SM BKN015 OVC024 12/08 A3017 RMK AO2 RAB21E39 SLP216 P0000 T01220083=
201906240026 SPECI KPAE 240026Z 35005KT 4SM -RA BR OVC012 13/09 A3017 RMK AO2 RAB21 P0000 T01280089=
201906232353 METAR KPAE 232353Z 36005KT 10SM BKN015 BKN030 13/09 A3017 RMK AO2 SLP217 60001 T01330094 10156 20117 58008=
201906232253 METAR KPAE 232253Z 34004KT 10SM BKN015 BKN022 14/10 A3018 RMK AO2 SLP220 T01390100=
201906232245 SPECI KPAE 232245Z 35006KT 10SM FEW016 BKN024 OVC030 14/10 A3018 RMK AO2 T01390100=
201906232236 SPECI KPAE 232236Z 36006KT 10SM SCT016 SCT024 OVC031 14/11 A3018 RMK AO2 T01390106=
201906232153 METAR KPAE 232153Z 35007KT 10SM BKN018 OVC024 14/11 A3019 RMK AO2 SLP222 T01440111=
201906232102 SPECI KPAE 232102Z 15005KT 10SM BKN012 BKN027 OVC033 14/12 A3019 RMK AO2 T01440117=
201906232053 METAR KPAE 232053Z 16005KT 10SM BKN009 BKN027 OVC033 14/11 A3019 RMK AO2 SLP224 60001 T01440111 58001=
201906231956 SPECI KPAE 231956Z VRB04KT 10SM SCT003 BKN006 OVC024 13/12 A3020 RMK AO2 T01330117=
201906231953 METAR KPAE 231953Z 11005KT 2SM BR BKN003 OVC006 13/11 A3020 RMK AO2 SLP226 T01280111=
201906231853 METAR KPAE 231853Z VRB04KT 2SM BR BKN003 OVC006 12/11 A3020 RMK AO2 RAB1757E49 SLP227 P0001 T01220111=
201906231851 SPECI KPAE 231851Z VRB04KT 2SM BR BKN003 OVC006 12/11 A3020 RMK AO2 RAB1757E49 P0001=
201906231848 SPECI KPAE 231848Z VRB03KT 3SM -RA BR OVC006 12/11 A3020 RMK AO2 RAB1757 CIG 003V010 P0001=
201906231818 SPECI KPAE 231818Z VRB03KT 1 3/4SM R16R/6000VP6000FT -RA BR OVC009 12/11 A3020 RMK AO2 RAB1757 P0000 T01220106=
201906231753 METAR KPAE 231753Z 11003KT 2SM BR BKN007 OVC012 12/11 A3019 RMK AO2 CIG 005V009 SLP226 60002 T01170106 10122 20111 51003=
201906231744 SPECI KPAE 231744Z 00000KT 3SM BR BKN007 OVC012 12/11 A3020 RMK AO2 CIG 005V009 T01220111=
201906231723 SPECI KPAE 231723Z 11003KT 2SM BR OVC007 12/11 A3019 RMK AO2 CIG 005V010 T01170106=
201906231700 SPECI KPAE 231700Z 00000KT 5SM BR OVC007 12/11 A3019 RMK AO2 CIG 005V011 T01170106=
201906231653 METAR KPAE 231653Z 00000KT 2SM BR OVC006 12/11 A3019 RMK AO2 RAE25 CIG 005V012 SLP224 P0001 T01170106=
201906231559 SPECI KPAE 231559Z 06003KT 1 1/2SM -RA BR BKN006 OVC013 11/10 A3019 RMK AO2 P0000 T01110100=
201906231553 METAR KPAE 231553Z 06004KT 1 1/4SM -RA BR SCT006 OVC011 11/10 A3018 RMK AO2 RAB21 SLP221 P0001 T01110100=
201906231528 SPECI KPAE 231528Z 00000KT 2 1/2SM -RA BR BKN008 OVC012 12/09 A3018 RMK AO2 RAB21 P0000 T01170094=
201906231453 METAR KPAE 231453Z 02003KT 10SM OVC012 12/09 A3017 RMK AO2 SLP218 T01170089 53003=
201906231353 METAR KPAE 231353Z 02004KT 10SM OVC013 12/09 A3017 RMK AO2 SLP216 T01170094=
201906231332 SPECI KPAE 231332Z AUTO 01005KT 10SM OVC013 12/09 A3017 RMK AO2 T01170094=
201906231253 METAR KPAE 231253Z AUTO 36006KT 10SM SCT008 OVC015 11/09 A3017 RMK AO2 SLP215 T01110094=
201906231233 SPECI KPAE 231233Z AUTO 36006KT 10SM BKN008 OVC016 11/09 A3017 RMK AO2 CIG 007V011 T01110094=
201906231153 METAR KPAE 231153Z AUTO 36006KT 9SM FEW008 OVC016 11/09 A3017 RMK AO2 SLP215 T01110094 10128 20111 58005=
201906231110 SPECI KPAE 231110Z AUTO 35009KT 10SM FEW009 OVC019 11/09 A3017 RMK AO2 T01110094=
201906231053 METAR KPAE 231053Z AUTO 36007KT 10SM OVC019 12/09 A3017 RMK AO2 SLP218 T01170094=
201906230953 METAR KPAE 230953Z AUTO 36009KT 10SM OVC021 12/09 A3018 RMK AO2 SLP218 T01170094=
201906230853 METAR KPAE 230853Z AUTO 36008KT 10SM OVC025 12/10 A3018 RMK AO2 SLP220 T01220100 58002=
201906230840 SPECI KPAE 230840Z AUTO 02008KT 10SM BKN025 OVC038 13/10 A3018 RMK AO2 T01280100=
201906230753 METAR KPAE 230753Z AUTO 02006KT 10SM OVC039 12/11 A3018 RMK AO2 SLP221 T01220106 401670122=
201906230653 METAR KPAE 230653Z AUTO 36006KT 10SM OVC034 12/11 A3019 RMK AO2 SLP223 T01220106=
201906230553 METAR KPAE 230553Z AUTO 01005KT 10SM OVC038 12/11 A3019 RMK AO2 SLP223 T01220106 10167 20122 58000=
201906230453 METAR KPAE 230453Z AUTO 36004KT 10SM OVC035 13/10 A3019 RMK AO2 SLP223 T01330100=
201906230353 METAR KPAE 230353Z AUTO 00000KT 10SM OVC034 16/10 A3019 RMK AO2 SLP223 T01560100=
201906230253 METAR KPAE 230253Z 00000KT 10SM OVC038 16/10 A3019 RMK AO2 SLP223 T01560100 58007=
201906230153 METAR KPAE 230153Z 22004KT 10SM BKN050 16/09 A3020 RMK AO2 SLP225 T01560094=
201906230053 METAR KPAE 230053Z AUTO 24006KT 10SM OVC055 16/10 A3021 RMK AO2 SLP230 T01610100=
201906222353 METAR KPAE 222353Z AUTO 10SM SCT022 16/10 A3021 RMK AO2 SLP231 T01610100 10167 20133 58009=
201906222253 METAR KPAE 222253Z AUTO 25006KT 10SM OVC022 15/10 A3022 RMK AO2 SLP235 T01500100=
201906222153 METAR KPAE 222153Z 25008KT 220V290 10SM OVC021 14/09 A3023 RMK AO2 SLP238 T01440094=
201906222053 METAR KPAE 222053Z 24009KT 10SM OVC022 14/09 A3024 RMK AO2 SLP239 T01390094 56004=
201906221953 METAR KPAE 221953Z 20010KT 10SM OVC019 14/09 A3024 RMK AO2 SLP239 T01440094=
201906221853 METAR KPAE 221853Z 24007KT 10SM OVC017 13/09 A3025 RMK AO2 SLP243 T01330094=
201906221753 METAR KPAE 221753Z 22007KT 10SM OVC016 13/09 A3025 RMK AO2 SLP243 T01330094 10133 20122 53003=
201906221653 METAR KPAE 221653Z 24008KT 10SM FEW008 OVC016 13/10 A3025 RMK AO2 SLP242 T01280100=
201906221616 SPECI KPAE 221616Z 25006KT 10SM SCT006 OVC013 12/10 A3024 RMK AO2 T01220100=
201906221600 SPECI KPAE 221600Z 25006KT 10SM OVC014 13/10 A3024 RMK AO2 T01280100=
201906221553 METAR KPAE 221553Z VRB05KT 10SM BKN006 OVC012 13/10 A3024 RMK AO2 SLP238 T01280100=
201906221534 SPECI KPAE 221534Z 22004KT 10SM BKN006 OVC012 12/11 A3024 RMK AO2 T01220106=
201906221453 METAR KPAE 221453Z 23007KT 10SM OVC012 12/10 A3024 RMK AO2 SLP239 T01220100 50000=
201906221353 METAR KPAE 221353Z 22006KT 10SM OVC012 12/10 A3024 RMK AO2 SLP240 T01220100=
201906221253 METAR KPAE 221253Z AUTO 20008KT 10SM OVC010 12/09 A3024 RMK AO2 SLP240 T01220094=
201906221228 SPECI KPAE 221228Z AUTO 20009KT 10SM OVC010 12/09 A3024 RMK AO2 T01220094=
201906221153 METAR KPAE 221153Z AUTO 20009KT 10SM OVC009 12/09 A3024 RMK AO2 SLP239 T01220094 10161 20122 50006=
201906221151 SPECI KPAE 221151Z AUTO 20008KT 10SM OVC009 12/09 A3024 RMK AO2=
201906221053 METAR KPAE 221053Z AUTO 20009KT 10SM OVC010 12/09 A3023 RMK AO2 SLP237 T01220094=
201906220953 METAR KPAE 220953Z AUTO 19006KT 10SM OVC012 13/11 A3022 RMK AO2 SLP233 T01280106=
201906220920 SPECI KPAE 220920Z AUTO 20005KT 10SM BKN014 13/10 A3022 RMK AO2 T01280100=
201906220853 METAR KPAE 220853Z AUTO 21004KT 10SM BKN070 13/10 A3022 RMK AO2 SLP233 T01330100 53009=
201906220753 METAR KPAE 220753Z AUTO 20005KT 10SM SCT070 14/11 A3021 RMK AO2 SLP229 T01390106 402110111=
201906220653 METAR KPAE 220653Z AUTO 00000KT 10SM CLR 13/10 A3020 RMK AO2 SLP226 T01330100=
201906220553 METAR KPAE 220553Z AUTO 18007KT 10SM SCT070 16/11 A3019 RMK AO2 SLP223 T01610106 10211 20156 53008=
201906220453 METAR KPAE 220453Z AUTO 22005KT 10SM CLR 17/11 A3019 RMK AO2 SLP221 T01670106=
201906220353 METAR KPAE 220353Z AUTO 22007KT 10SM FEW046 18/10 A3017 RMK AO2 SLP217 T01830100=
201906220253 METAR KPAE 220253Z 24006KT 10SM CLR 19/09 A3017 RMK AO2 SLP215 T01940094 55002=
201906220153 METAR KPAE 220153Z 25006KT 10SM CLR 20/09 A3017 RMK AO2 SLP214 T02000089=
201906220053 METAR KPAE 220053Z 26006KT 10SM CLR 21/09 A3017 RMK AO2 SLP217 T02060089=
201906212353 METAR KPAE 212353Z 24006KT 10SM CLR 20/09 A3018 RMK AO2 SLP217 T02000089 10206 20133 58002=
201906212253 METAR KPAE 212253Z 28007KT 240V300 10SM FEW035 20/08 A3018 RMK AO2 SLP219 T02000083=
201906212153 METAR KPAE 212153Z 23006KT 10SM FEW034 19/08 A3018 RMK AO2 SLP219 T01940083=
201906212053 METAR KPAE 212053Z 22008KT 10SM BKN035 19/09 A3018 RMK AO2 SLP219 T01890094 55000=
201906211953 METAR KPAE 211953Z VRB06KT 10SM CLR 17/09 A3018 RMK AO2 SLP218 T01720094=
201906211853 METAR KPAE 211853Z 25006KT 10SM SCT024 16/09 A3018 RMK AO2 SLP219 T01610094=
201906211753 METAR KPAE 211753Z 24007KT 10SM BKN021 OVC031 14/09 A3018 RMK AO2 SLP221 T01390089 10150 20117 53007=
201906211653 METAR KPAE 211653Z 24006KT 10SM BKN021 OVC028 13/09 A3018 RMK AO2 SLP219 T01280089=
201906211553 METAR KPAE 211553Z 19009KT 10SM OVC018 13/09 A3017 RMK AO2 SLP214 T01330089=
201906211453 METAR KPAE 211453Z 19007KT 10SM OVC017 13/09 A3016 RMK AO2 SLP212 T01280089 51007=
201906211410 SPECI KPAE 211410Z 20008KT 10SM BKN017 OVC039 12/08 A3015 RMK AO2 T01220083=
201906211353 METAR KPAE 211353Z 19007KT 10SM SCT018 OVC039 12/08 A3015 RMK AO2 SLP210 T01170083=
201906211349 SPECI KPAE 211349Z 18008KT 10SM SCT018 OVC039 12/08 A3015 RMK AO2=
201906211323 SPECI KPAE 211323Z AUTO 19008KT 10SM BKN018 OVC040 12/08 A3015 RMK AO2 T01220083=
201906211253 METAR KPAE 211253Z AUTO 18008KT 10SM FEW018 OVC042 12/08 A3014 RMK AO2 SLP205 T01170083=
201906211236 SPECI KPAE 211236Z AUTO 17007KT 10SM SCT018 OVC042 12/08 A3014 RMK AO2 T01170083=
201906211153 METAR KPAE 211153Z AUTO 18006KT 10SM BKN018 OVC043 12/08 A3013 RMK AO2 SLP203 60002 70002 T01170083 10139 20111 53008=
201906211130 SPECI KPAE 211130Z AUTO 18006KT 10SM BKN018 BKN047 OVC110 12/08 A3013 RMK AO2 T01170083=
201906211053 METAR KPAE 211053Z AUTO 19009KT 10SM FEW070 OVC110 11/09 A3011 RMK AO2 SLP197 T01110089=
201906210953 METAR KPAE 210953Z AUTO 19006KT 10SM FEW026 SCT080 OVC110 12/08 A3011 RMK AO2 RAE41 SLP196 P0001 T01170083=
201906210905 SPECI KPAE 210905Z AUTO 19008KT 10SM -RA SCT028 OVC070 12/08 A3011 RMK AO2 P0000 T01220083=
201906210853 METAR KPAE 210853Z AUTO 18010KT 10SM -RA BKN028 OVC075 12/08 A3011 RMK AO2 RAE06B22 SLP196 P0001 60001 T01220083 51011=
201906210837 SPECI KPAE 210837Z AUTO 19010KT 10SM BKN029 BKN050 OVC080 12/08 A3011 RMK AO2 RAE06B22E37 P0001 T01220083=
201906210753 METAR KPAE 210753Z AUTO 18007KT 9SM -RA OVC031 13/08 A3010 RMK AO2 RAB48 SLP193 P0000 T01280083 401940100=
201906210653 METAR KPAE 210653Z AUTO 07004KT 10SM BKN033 OVC080 13/08 A3009 RMK AO2 SLP188 T01330083=
201906210553 METAR KPAE 210553Z AUTO 02005KT 10SM FEW035 BKN090 OVC110 13/08 A3008 RMK AO2 SLP184 T01330083 10194 20133 53010=
201906210453 METAR KPAE 210453Z AUTO 36005KT 10SM FEW034 OVC100 14/08 A3006 RMK AO2 SLP180 T01390078=
201906210353 METAR KPAE 210353Z AUTO 21007KT 10SM OVC110 16/08 A3004 RMK AO2 SLP172 T01610083=
201906210253 METAR KPAE 210253Z 21009KT 10SM SCT055 OVC110 17/08 A3005 RMK AO2 SLP174 T01720083 55008=
201906210153 METAR KPAE 210153Z 23007KT 10SM SCT070 18/07 A3004 RMK AO2 SLP174 T01780067=
201906210053 METAR KPAE 210053Z AUTO 24007KT 210V270 10SM CLR 19/07 A3006 RMK AO2 SLP178 T01940067=
201906202353 METAR KPAE 202353Z AUTO 20007KT 150V230 10SM CLR 19/07 A3007 RMK AO2 SLP182 T01890067 10189 20122 58012=
201906202253 METAR KPAE 202253Z AUTO 22009KT 10SM CLR 18/06 A3009 RMK AO2 SLP189 T01780056=
201906202153 METAR KPAE 202153Z VRB04KT 10SM CLR 17/07 A3010 RMK AO2 SLP192 T01720067=
201906202053 METAR KPAE 202053Z 24003KT 10SM FEW041 16/06 A3011 RMK AO2 SLP195 T01610061 58003=
201906201953 METAR KPAE 201953Z 22005KT 10SM FEW026 SCT049 16/07 A3011 RMK AO2 SLP197 T01560072=
201906201853 METAR KPAE 201853Z 16003KT 10SM OVC041 13/07 A3012 RMK AO2 SLP201 T01280072=
201906201753 METAR KPAE 201753Z 21005KT 10SM SCT020 BKN042 13/08 A3012 RMK AO2 SLP199 60000 T01280083 10128 20100 58001=
201906201700 SPECI KPAE 201700Z 23006KT 10SM FEW024 OVC044 12/08 A3013 RMK AO2 T01170078=
201906201653 METAR KPAE 201653Z 26004KT 10SM SCT007 BKN014 OVC048 12/08 A3013 RMK AO2 RAE06 SLP203 P0000 T01170083=
201906201634 SPECI KPAE 201634Z 23005KT 10SM SCT007 BKN014 OVC048 12/08 A3013 RMK AO2 RAE06 P0000 T01170083=
201906201553 METAR KPAE 201553Z 23005KT 10SM -RA BKN006 BKN012 OVC035 11/09 A3013 RMK AO2 RAB52 SLP203 P0000 T01110089=
201906201520 SPECI KPAE 201520Z 23004KT 10SM BKN006 BKN012 OVC035 11/09 A3013 RMK AO2 T01110089=
201906201503 SPECI KPAE 201503Z 24005KT 10SM SCT004 BKN012 OVC035 11/09 A3012 RMK AO2 T01060089=
201906201453 METAR KPAE 201453Z 24006KT 10SM BKN012 BKN035 OVC046 11/09 A3012 RMK AO2 SLP199 60000 T01110089 53006=
201906201422 SPECI KPAE 201422Z 22007KT 10SM SCT004 BKN012 OVC043 11/09 A3012 RMK AO2 T01060089=
201906201353 METAR KPAE 201353Z 20005KT 10SM FEW002 SCT037 BKN070 10/09 A3011 RMK AO2 RAB1255E30 SLP197 P0000 T01000089=
201906201319 SPECI KPAE 201319Z AUTO 21004KT 6SM -RA BR FEW008 BKN034 OVC049 10/09 A3011 RMK AO2 RAB1255 P0000 T01000089=
201906201253 METAR KPAE 201253Z AUTO 27004KT 9SM BKN024 OVC035 10/08 A3011 RMK AO2 SLP196 T01000083=
201906201215 SPECI KPAE 201215Z AUTO 00000KT 10SM FEW005 BKN025 OVC065 10/08 A3011 RMK AO2 T01000083=
201906201153 METAR KPAE 201153Z AUTO 00000KT 10SM FEW026 OVC043 11/08 A3010 RMK AO2 SLP193 70004 T01060083 10117 20100 53003=
201906201114 SPECI KPAE 201114Z AUTO 18004KT 10SM SCT024 OVC047 11/08 A3010 RMK AO2 T01060083=
201906201053 METAR KPAE 201053Z AUTO 00000KT 10SM BKN024 BKN032 OVC055 11/08 A3009 RMK AO2 SLP191 T01060078=
201906201014 SPECI KPAE 201014Z AUTO VRB03KT 10SM SCT022 OVC028 11/08 A3009 RMK AO2 T01060078=
201906201000 SPECI KPAE 201000Z AUTO 17003KT 10SM SCT026 OVC031 11/08 A3009 RMK AO2 T01060078=
201906200953 METAR KPAE 200953Z AUTO 00000KT 10SM BKN029 OVC034 11/08 A3009 RMK AO2 SLP190 T01060078=
201906200853 METAR KPAE 200853Z AUTO 15005KT 10SM FEW019 BKN030 OVC039 11/08 A3009 RMK AO2 SLP190 T01060078 56007=
201906200753 METAR KPAE 200753Z AUTO VRB04KT 10SM BKN035 BKN041 OVC075 12/06 A3010 RMK AO2 SLP192 T01170061 401720106=
201906200653 METAR KPAE 200653Z AUTO VRB03KT 10SM SCT027 SCT075 BKN110 11/07 A3011 RMK AO2 SLP195 T01110072=
201906200634 SPECI KPAE 200634Z AUTO 00000KT 10SM BKN027 OVC048 12/07 A3011 RMK AO2 T01170072=
201906200553 METAR KPAE 200553Z AUTO 04004KT 10SM FEW028 SCT050 BKN080 12/07 A3011 RMK AO2 SLP197 60003 T01170067 10150 20106 58002=
201906200453 METAR KPAE 200453Z AUTO 03003KT 10SM SCT065 11/07 A3011 RMK AO2 SLP198 T01110067=
201906200353 METAR KPAE 200353Z AUTO 02007KT 10SM OVC049 12/07 A3012 RMK AO2 SLP201 T01220072=
201906200253 METAR KPAE 200253Z 00000KT 10SM BKN046 OVC060 14/07 A3012 RMK AO2 RAB0159E31 SLP199 P0002 60003 T01390072 56005=
201906200153 METAR KPAE 200153Z 35005KT 10SM BKN041 OVC050 13/08 A3012 RMK AO2 RAE29 SLP201 P0001 T01280083=
201906200053 METAR KPAE 200053Z 35007KT 5SM -RA SCT060 BKN075 OVC090 13/09 A3013 RMK AO2 RAB46 SLP202 P0000 T01330089=
201906192353 METAR KPAE 192353Z 35009G16KT 10SM FEW050 BKN070 BKN090 15/07 A3013 RMK AO2 RAE02 SLP204 P0000 60000 T01500072 10172 20133 56013=
201906192253 METAR KPAE 192253Z 03006KT 10SM -RA SCT030 SCT050 OVC070 17/08 A3015 RMK AO2 RAE06B33 SLP208 P0000 T01670083=
201906192153 METAR KPAE 192153Z VRB04KT 10SM -RA FEW050 OVC070 16/08 A3016 RMK AO2 RAB2057E32B51 SLP214 P0000 T01610083=
201906192053 METAR KPAE 192053Z 25009KT 10SM SCT040 BKN080 15/08 A3017 RMK AO2 SLP218 60000 T01500083 58009=
201906191953 METAR KPAE 191953Z 25006KT 10SM FEW050 BKN070 BKN085 16/09 A3019 RMK AO2 SLP222 T01610089=
201906191853 METAR KPAE 191853Z 27006KT 10SM BKN034 OVC080 14/08 A3020 RMK AO2 RAB32E45 SLP228 P0000 T01390083=
201906191753 METAR KPAE 191753Z 24005KT 10SM OVC070 13/08 A3020 RMK AO2 SLP228 60001 T01330083 10139 20111 58004=
201906191730 SPECI KPAE 191730Z 23006KT 10SM SCT021 OVC070 13/09 A3021 RMK AO2 T01330089=
201906191653 METAR KPAE 191653Z 19005KT 10SM BKN021 OVC075 13/08 A3021 RMK AO2 RAB1554E25 SLP231 P0001 T01330083=
201906191553 METAR KPAE 191553Z 19007KT 10SM BKN021 OVC028 12/07 A3022 RMK AO2 SLP232 T01220072=
201906191545 SPECI KPAE 191545Z 19007KT 10SM SCT021 BKN028 OVC039 12/07 A3021 RMK AO2 T01220072=
201906191509 SPECI KPAE 191509Z 16007KT 10SM FEW025 SCT032 OVC039 12/07 A3021 RMK AO2 T01220072=
201906191453 METAR KPAE 191453Z 18004KT 10SM BKN024 BKN030 OVC038 12/07 A3021 RMK AO2 SLP231 T01170072 53002=
201906191353 METAR KPAE 191353Z 11004KT 10SM OVC022 12/07 A3021 RMK AO2 SLP230 T01170072=
201906191253 METAR KPAE 191253Z AUTO 15004KT 10SM OVC022 12/07 A3021 RMK AO2 SLP230 T01170067=
201906191153 METAR KPAE 191153Z AUTO VRB03KT 10SM OVC021 11/07 A3021 RMK AO2 SLP229 70006 T01110067 10122 20111 53003=
201906191053 METAR KPAE 191053Z AUTO 11005KT 10SM OVC022 11/07 A3020 RMK AO2 SLP226 T01110067=
201906190953 METAR KPAE 190953Z AUTO VRB04KT 10SM OVC027 12/07 A3020 RMK AO2 SLP226 T01170072=
201906190853 METAR KPAE 190853Z AUTO 04004KT 10SM BKN026 OVC034 12/07 A3020 RMK AO2 SLP226 T01220072 55001=
201906190753 METAR KPAE 190753Z AUTO VRB04KT 10SM BKN025 OVC037 12/07 A3019 RMK AO2 SLP225 T01170072 401560117=
201906190736 SPECI KPAE 190736Z AUTO 05005KT 10SM BKN025 12/08 A3019 RMK AO2 T01170078=
201906190717 SPECI KPAE 190717Z AUTO VRB04KT 10SM FEW025 SCT030 BKN038 12/08 A3019 RMK AO2 T01170078=
201906190653 METAR KPAE 190653Z AUTO 00000KT 10SM OVC025 12/08 A3019 RMK AO2 SLP224 T01220083=
201906190612 SPECI KPAE 190612Z AUTO 04003KT 10SM BKN023 12/09 A3020 RMK AO2 T01220089=
201906190553 METAR KPAE 190553Z 02006KT 10SM FEW033 12/09 A3020 RMK AO2 SLP226 60000 T01220089 10156 20117 51001=
201906190531 SPECI KPAE 190531Z 02006KT 10SM FEW026 BKN033 12/09 A3020 RMK AO2 T01220089=
201906190453 METAR KPAE 190453Z 36006KT 10SM OVC026 13/09 A3020 RMK AO2 RAE0354 SLP226 P0000 T01280094=
201906190353 METAR KPAE 190353Z 01006KT 10SM -RA OVC022 13/10 A3020 RMK AO2 RAB24 SLP225 P0000 T01330100=
201906190253 METAR KPAE 190253Z 01004KT 10SM FEW022 OVC029 15/11 A3020 RMK AO2 SLP225 T01500106 56013=
201906190229 SPECI KPAE 190229Z 02004KT 10SM OVC029 15/11 A3020 RMK AO2 T01500106=
201906190153 METAR KPAE 190153Z VRB03KT 10SM OVC033 15/11 A3021 RMK AO2 SLP229 T01500106=
201906190053 METAR KPAE 190053Z VRB03KT 10SM SCT020 OVC040 14/11 A3022 RMK AO2 SLP233 T01440111=
201906182353 METAR KPAE 182353Z 34005KT 9SM OVC018 14/11 A3023 RMK AO2 SLP238 T01440106 10156 20133 58003=
201906182253 METAR KPAE 182253Z 34005KT 10SM BKN024 OVC035 15/11 A3023 RMK AO2 SLP238 T01500106=
201906182153 METAR KPAE 182153Z 36005KT 10SM OVC020 15/11 A3025 RMK AO2 SLP243 T01500111=
201906182053 METAR KPAE 182053Z VRB04KT 10SM SCT011 BKN016 OVC031 15/11 A3024 RMK AO2 SLP242 T01500106 51001=
201906181953 METAR KPAE 181953Z VRB05KT 10SM SCT011 BKN016 OVC031 14/11 A3024 RMK AO2 SLP242 T01440111=
201906181853 METAR KPAE 181853Z 36003KT 10SM SCT007 OVC016 14/12 A3025 RMK AO2 SLP242 T01390117=
201906181753 METAR KPAE 181753Z 36006KT 10SM SCT005 OVC016 13/12 A3024 RMK AO2 RAB1655E20 SLP241 P0000 60006 T01330117 10139 20117 51005=
201906181717 SPECI KPAE 181717Z VRB04KT 7SM -RA SCT004 BKN016 13/11 A3024 RMK AO2 RAB1655 P0000 T01330111=
201906181700 SPECI KPAE 181700Z 04003KT 4SM -RA BR BKN016 OVC030 13/11 A3024 RMK AO2 RAB1655 P0000 T01330111=
201906181653 METAR KPAE 181653Z VRB04KT 7SM BKN005 OVC016 13/12 A3024 RMK AO2 RAE03B34E48 SLP241 P0000 T01330117=
201906181604 SPECI KPAE 181604Z 03005KT 7SM BKN005 OVC016 12/11 A3023 RMK AO2 RAE03 P0000 T01220111=
201906181553 METAR KPAE 181553Z 04004KT 2SM -RA BR BKN009 OVC014 13/12 A3023 RMK AO2 SLP235 P0002 T01280117=
201906181548 SPECI KPAE 181548Z 00000KT 2 1/2SM -RA BR BKN009 OVC014 13/12 A3023 RMK AO2 P0002=
201906181539 SPECI KPAE 181539Z 03004KT 1 3/4SM -RA BR BKN009 OVC014 12/12 A3023 RMK AO2 P0001 T01220117=
201906181527 SPECI KPAE 181527Z 03004KT 2 1/2SM -RA BR BKN009 OVC014 12/12 A3023 RMK AO2 P0000 T01220117=
201906181522 SPECI KPAE 181522Z 03004KT 3SM -RA BR BKN009 OVC013 12/12 A3023 RMK AO2 P0000 T01220117=
201906181453 METAR KPAE 181453Z 02005KT 2SM -RA BR BKN005 OVC009 12/11 A3023 RMK AO2 CIG 002V008 SLP237 P0002 60004 T01220111 52020=
201906181440 SPECI KPAE 181440Z 01005KT 1 3/4SM -RA BR BKN005 OVC009 12/12 A3023 RMK AO2 CIG 002V008 P0001 T01220117=
201906181353 METAR KPAE 181353Z 36006KT 1 3/4SM -RA BR OVC004 12/12 A3022 RMK AO2 RAB50 SLP231 P0001 T01220117=
201906181320 SPECI KPAE 181320Z AUTO 01007KT 2 1/2SM BR OVC003 12/12 A3020 RMK AO2 VIS 2 1/2V4 T01220117=
201906181253 METAR KPAE 181253Z AUTO 36006KT 8SM OVC003 12/12 A3019 RMK AO2 RAB12E26 SLP221 P0001 T01220117=
201906181153 METAR KPAE 181153Z AUTO 01006KT 8SM OVC002 12/12 A3017 RMK AO2 SLP216 60001 70001 T01220117 10150 20122 53005=
201906181132 SPECI KPAE 181132Z AUTO 35007KT 10SM BKN002 OVC012 13/12 A3017 RMK AO2 T01280117=
201906181120 SPECI KPAE 181120Z AUTO 36008KT 10SM SCT004 BKN012 OVC025 13/12 A3017 RMK AO2 T01280117=
201906181106 SPECI KPAE 181106Z AUTO 35006KT 10SM SCT012 BKN025 OVC032 13/12 A3017 RMK AO2 T01280122=
201906181053 METAR KPAE 181053Z AUTO 36007KT 10SM BKN012 BKN025 OVC032 13/12 A3017 RMK AO2 RAE31 SLP214 P0001 T01280122=
201906181007 SPECI KPAE 181007Z AUTO 36004KT 6SM -RA BR SCT006 BKN013 OVC031 13/12 A3016 RMK AO2 P0001 T01330122=
201906180953 METAR KPAE 180953Z AUTO 36005KT 10SM -RA SCT008 BKN015 OVC032 13/12 A3016 RMK AO2 RAB38 SLP212 P0000 T01330122=
201906180934 SPECI KPAE 180934Z AUTO 36007KT 10SM FEW006 SCT010 OVC034 13/12 A3016 RMK AO2 T01330117=
201906180907 SPECI KPAE 180907Z AUTO 36007KT 10SM BKN006 OVC034 13/12 A3016 RMK AO2 T01330117=
201906180853 METAR KPAE 180853Z AUTO 01004KT 10SM SCT006 OVC034 13/12 A3016 RMK AO2 SLP211 T01330117 53001=
201906180834 SPECI KPAE 180834Z AUTO 01006KT 10SM SCT005 OVC033 13/12 A3015 RMK AO2 T01330117=
201906180806 SPECI KPAE 180806Z AUTO 36008G17KT 10SM BKN005 OVC033 13/12 A3015 RMK AO2 T01330117=
201906180753 METAR KPAE 180753Z AUTO 36010G17KT 10SM FEW006 OVC033 13/12 A3015 RMK AO2 SLP208 T01330117 402220117=
201906180653 METAR KPAE 180653Z AUTO 01008G15KT 10SM OVC034 15/12 A3015 RMK AO2 SLP210 T01500122=
201906180553 METAR KPAE 180553Z AUTO 02010KT 10SM SCT038 BKN048 OVC060 14/12 A3015 RMK AO2 SLP210 T01440122 10222 20144 53003=
201906180453 METAR KPAE 180453Z AUTO 02009KT 10SM BKN035 16/13 A3015 RMK AO2 SLP209 T01560128=
201906180353 METAR KPAE 180353Z AUTO 01005KT 10SM SCT060 17/13 A3014 RMK AO2 SLP205 T01670128=
201906180253 METAR KPAE 180253Z 01005KT 10SM CLR 19/13 A3014 RMK AO2 SLP206 T01940128 56002=
201906180153 METAR KPAE 180153Z 01006KT 10SM BKN070 20/13 A3014 RMK AO2 SLP206 T02000133=
201906180053 METAR KPAE 180053Z 02007KT 10SM SCT070 20/12 A3015 RMK AO2 SLP207 T02000122=
201906172353 METAR KPAE 172353Z VRB05KT 10SM CLR 22/13 A3015 RMK AO2 SLP208 T02170128 10222 20167 55002=
201906172253 METAR KPAE 172253Z 30007KT 10SM CLR 22/13 A3015 RMK AO2 SLP208 T02170128=
201906172153 METAR KPAE 172153Z VRB04KT 10SM CLR 21/12 A3015 RMK AO2 SLP210 T02110122=
201906172053 METAR KPAE 172053Z 26007KT 10SM CLR 21/12 A3015 RMK AO2 SLP210 T02060117 58001=
201906171953 METAR KPAE 171953Z 24006KT 10SM CLR 19/13 A3016 RMK AO2 SLP212 T01890128=
201906171853 METAR KPAE 171853Z 23005KT 10SM CLR 18/13 A3016 RMK AO2 SLP212 T01780128=
201906171753 METAR KPAE 171753Z 27008KT 10SM FEW013 17/12 A3016 RMK AO2 SLP211 T01670122 10172 20117 53005=
201906171653 METAR KPAE 171653Z 28005KT 10SM BKN009 16/12 A3015 RMK AO2 SLP209 T01560117=
201906171626 SPECI KPAE 171626Z VRB03KT 10SM BKN009 15/11 A3015 RMK AO2 T01500111=
201906171614 SPECI KPAE 171614Z 00000KT 10SM OVC010 15/12 A3015 RMK AO2 CIG 008V013 T01500117=
201906171553 METAR KPAE 171553Z 00000KT 10SM BKN007 14/12 A3014 RMK AO2 SLP206 T01390117=
201906171500 SPECI KPAE 171500Z 00000KT 10SM OVC005 13/11 A3014 RMK AO2 T01280111=
201906171453 METAR KPAE 171453Z AUTO 34003KT 10SM OVC004 13/11 A3014 RMK AO2 SLP206 T01280111 53015=
201906171353 METAR KPAE 171353Z AUTO 00000KT 10SM OVC004 12/11 A3013 RMK AO2 SLP201 T01220111=
201906171253 METAR KPAE 171253Z AUTO 36003KT 10SM OVC004 12/11 A3011 RMK AO2 SLP194 T01220111=
201906171153 METAR KPAE 171153Z AUTO VRB03KT 10SM OVC003 12/11 A3010 RMK AO2 SLP190 T01170111 10150 20117 53007=
201906171053 METAR KPAE 171053Z AUTO 36006KT 10SM OVC003 12/11 A3009 RMK AO2 SLP188 T01220111=
201906170953 METAR KPAE 170953Z AUTO 02006KT 10SM BKN003 12/11 A3008 RMK AO2 SLP183 T01220111=
201906170950 SPECI KPAE 170950Z AUTO 01006KT 10SM BKN003 12/11 A3008 RMK AO2=
201906170939 SPECI KPAE 170939Z AUTO 01008KT 10SM SCT003 12/11 A3007 RMK AO2 T01220111=
201906170853 METAR KPAE 170853Z AUTO 02007KT 10SM CLR 13/11 A3007 RMK AO2 SLP180 T01280111 53004=
201906170753 METAR KPAE 170753Z AUTO 05005KT 10SM CLR 14/11 A3006 RMK AO2 SLP177 T01390111 402170106=
201906170653 METAR KPAE 170653Z AUTO 05005KT 10SM CLR 14/11 A3005 RMK AO2 SLP175 T01440111=
201906170553 METAR KPAE 170553Z AUTO 04004KT 10SM CLR 15/12 A3005 RMK AO2 SLP175 T01500117 10206 20150 51004=
201906170453 METAR KPAE 170453Z AUTO 02006KT 10SM CLR 15/12 A3005 RMK AO2 SLP175 T01500117=
201906170353 METAR KPAE 170353Z 02008KT 10SM CLR 15/12 A3004 RMK AO2 SLP172 T01500117=
201906170253 METAR KPAE 170253Z AUTO 01005KT 10SM CLR 17/12 A3004 RMK AO2 SLP171 T01720117 55003=
201906170153 METAR KPAE 170153Z AUTO 01005KT 10SM CLR 19/12 A3004 RMK AO2 SLP170 T01940117=
201906170053 METAR KPAE 170053Z AUTO 02006KT 10SM CLR 19/12 A3004 RMK AO2 SLP172 T01890117=
201906162353 METAR KPAE 162353Z AUTO 35007KT 10SM CLR 20/12 A3005 RMK AO2 SLP175 T02000117 10217 20161 56004=
201906162253 METAR KPAE 162253Z AUTO 36006KT 10SM CLR 20/12 A3006 RMK AO2 SLP176 T02000117=
201906162153 METAR KPAE 162153Z 30007KT 10SM CLR 22/11 A3006 RMK AO2 SLP176 T02170106=
201906162053 METAR KPAE 162053Z 26008KT 10SM CLR 21/10 A3006 RMK AO2 SLP179 T02110100 58004=
201906161953 METAR KPAE 161953Z 28005KT 10SM CLR 20/11 A3007 RMK AO2 SLP182 T02000111=
201906161853 METAR KPAE 161853Z VRB03KT 10SM CLR 18/11 A3008 RMK AO2 SLP184 T01830106=
201906161753 METAR KPAE 161753Z 27006KT 10SM CLR 17/11 A3008 RMK AO2 SLP184 T01670111 10172 20106 55003=
201906161653 METAR KPAE 161653Z VRB03KT 10SM FEW006 15/12 A3007 RMK AO2 SLP183 T01500117=
201906161553 METAR KPAE 161553Z 00000KT 10SM SCT006 14/11 A3008 RMK AO2 SLP186 T01440106=
201906161538 SPECI KPAE 161538Z 02003KT 10SM SCT006 14/11 A3008 RMK AO2 T01390111=
201906161453 METAR KPAE 161453Z VRB03KT 10SM OVC005 13/11 A3008 RMK AO2 SLP186 T01280106 54000=
201906161448 SPECI KPAE 161448Z VRB03KT 10SM OVC005 13/11 A3008 RMK AO2=
201906161353 METAR KPAE 161353Z 02004KT 10SM OVC004 12/11 A3008 RMK AO2 SLP186 T01170106=
201906161348 SPECI KPAE 161348Z 01005KT 10SM OVC004 12/11 A3008 RMK AO2=
201906161253 METAR KPAE 161253Z 02003KT 10SM BKN006 11/10 A3008 RMK AO2 SLP184 T01110100=
201906161153 METAR KPAE 161153Z 02005KT 10SM FEW006 11/09 A3006 RMK AO2 SLP179 T01060094 10122 20106 53003=
201906161144 SPECI KPAE 161144Z 03004KT 10SM SCT006 11/09 A3006 RMK AO2 T01060094=
201906161053 METAR KPAE 161053Z 02006KT 10SM CLR 11/09 A3005 RMK AO2 SLP176 T01110094=
201906160953 METAR KPAE 160953Z 02008KT 10SM CLR 11/10 A3005 RMK AO2 SLP175 T01110100=
201906160853 METAR KPAE 160853Z 01006KT 10SM CLR 11/10 A3005 RMK AO2 SLP177 T01110100 58002=
201906160753 METAR KPAE 160753Z 02007KT 10SM CLR 12/10 A3006 RMK AO2 SLP177 T01170100 402110106=
201906160653 METAR KPAE 160653Z 01006KT 10SM CLR 12/11 A3006 RMK AO2 SLP179 T01220106=
201906160553 METAR KPAE 160553Z 01005KT 10SM CLR 12/11 A3006 RMK AO2 SLP179 T01220106 10211 20122 53002=
201906160453 METAR KPAE 160453Z 36006KT 10SM CLR 13/11 A3006 RMK AO2 SLP178 T01330106=
201906160353 METAR KPAE 160353Z 01008KT 10SM CLR 14/11 A3005 RMK AO2 SLP175 T01440106=
201906160253 METAR KPAE 160253Z 02005KT 10SM CLR 17/11 A3005 RMK AO2 SLP176 T01720111 55001=
201906160153 METAR KPAE 160153Z VRB04KT 10SM CLR 19/12 A3005 RMK AO2 SLP174 T01940117=
201906160053 METAR KPAE 160053Z 36007KT 10SM CLR 21/12 A3005 RMK AO2 SLP175 T02060117=
201906152353 METAR KPAE 152353Z VRB04KT 10SM CLR 20/11 A3006 RMK AO2 SLP176 T02000111 10211 20133 56012=
201906152253 METAR KPAE 152253Z AUTO 30004KT 10SM CLR 20/11 A3007 RMK AO2 SLP180 T02000111=
201906152153 METAR KPAE 152153Z VRB03KT 10SM CLR 19/12 A3008 RMK AO2 SLP184 T01890117=
201906152053 METAR KPAE 152053Z VRB05KT 10SM CLR 17/12 A3009 RMK AO2 SLP189 T01720117 58006=
201906152017 SPECI KPAE 152017Z VRB04KT 10SM SCT014 17/12 A3010 RMK AO2 T01670117=
201906151953 METAR KPAE 151953Z 25005KT 10SM SCT009 BKN013 16/12 A3010 RMK AO2 SLP194 T01610117=
201906151853 METAR KPAE 151853Z 28005KT 10SM BKN006 OVC010 15/11 A3011 RMK AO2 SLP196 T01500111=
201906151846 SPECI KPAE 151846Z 25004KT 10SM BKN006 OVC010 14/11 A3011 RMK AO2 T01440111=
201906151844 SPECI KPAE 151844Z 28003KT 10SM OVC010 14/11 A3011 RMK AO2 T01440111=
201906151753 METAR KPAE 151753Z 00000KT 10SM OVC007 13/11 A3011 RMK AO2 SLP195 T01330106 10133 20111 53002=
201906151653 METAR KPAE 151653Z 35003KT 10SM OVC004 12/11 A3011 RMK AO2 SLP195 T01220106=
201906151553 METAR KPAE 151553Z VRB03KT 1SM R16R/P6000FT BR OVC002 12/11 A3010 RMK AO2 SLP194 T01170106=
201906151453 METAR KPAE 151453Z 00000KT 2SM BR OVC002 12/10 A3010 RMK AO2 SLP193 T01170100 53004=
201906151353 METAR KPAE 151353Z 00000KT 1SM R16R/P6000FT BR OVC002 11/11 A3010 RMK AO2 SLP191 T01110106=
201906151253 METAR KPAE 151253Z AUTO 04003KT 7SM OVC002 11/11 A3009 RMK AO2 SLP189 T01110106=
201906151153 METAR KPAE 151153Z AUTO 35003KT 10SM OVC003 11/11 A3009 RMK AO2 SLP189 T01110106 10128 20106 52001=
201906151053 METAR KPAE 151053Z AUTO 35004KT 10SM OVC004 11/10 A3009 RMK AO2 SLP189 T01110100=
201906151011 SPECI KPAE 151011Z AUTO 36005KT 10SM BKN004 11/10 A3009 RMK AO2 T01110100=
201906150953 METAR KPAE 150953Z AUTO 35005KT 10SM FEW004 11/10 A3009 RMK AO2 SLP189 T01060100=
201906150853 METAR KPAE 150853Z AUTO 35004KT 10SM CLR 11/10 A3009 RMK AO2 SLP189 T01110100 53002=
201906150753 METAR KPAE 150753Z AUTO 01007KT 10SM CLR 12/10 A3008 RMK AO2 SLP187 T01170100 402060117=
201906150653 METAR KPAE 150653Z AUTO 36007KT 10SM CLR 12/10 A3009 RMK AO2 SLP187 T01220100=
201906150553 METAR KPAE 150553Z AUTO 36004KT 10SM CLR 13/11 A3008 RMK AO2 SLP187 T01280106 10200 20128 53003=
201906150453 METAR KPAE 150453Z AUTO 36003KT 10SM CLR 14/11 A3008 RMK AO2 SLP186 T01440106=
201906150353 METAR KPAE 150353Z 25006KT 10SM CLR 16/11 A3008 RMK AO2 SLP184 T01610106=
201906150253 METAR KPAE 150253Z 24006KT 10SM FEW041 18/10 A3007 RMK AO2 SLP183 T01780100 53000=
201906150153 METAR KPAE 150153Z AUTO 24005KT 10SM CLR 19/10 A3007 RMK AO2 SLP180 T01890100=
201906150053 METAR KPAE 150053Z AUTO 24007KT 10SM FEW037 19/10 A3007 RMK AO2 SLP180 T01890100=
201906142353 METAR KPAE 142353Z AUTO 26008KT 10SM CLR 19/11 A3007 RMK AO2 SLP182 T01940106 10206 20139 58012=
201906142253 METAR KPAE 142253Z AUTO 27006KT 10SM BKN031 19/10 A3009 RMK AO2 SLP187 T01890100=
201906142200 SPECI KPAE 142200Z VRB04KT 10SM BKN031 18/10 A3010 RMK AO2 T01830100=
201906142153 METAR KPAE 142153Z 00000KT 10SM BKN026 18/10 A3010 RMK AO2 SLP192 T01830100=
201906142053 METAR KPAE 142053Z 24004KT 10SM OVC026 18/10 A3011 RMK AO2 SLP194 T01780100 50001=
201906141953 METAR KPAE 141953Z VRB04KT 10SM OVC026 16/10 A3011 RMK AO2 SLP197 T01610100=
201906141853 METAR KPAE 141853Z 18004KT 10SM OVC016 14/10 A3012 RMK AO2 SLP198 T01440100=
201906141809 SPECI KPAE 141809Z 20006KT 10SM OVC015 14/10 A3011 RMK AO2 T01440100=
201906141753 METAR KPAE 141753Z 21005KT 10SM SCT009 OVC014 14/10 A3010 RMK AO2 SLP194 T01390100 10139 20122 51005=
201906141700 SPECI KPAE 141700Z 22006KT 10SM SCT009 OVC014 13/09 A3010 RMK AO2 T01330094=
201906141653 METAR KPAE 141653Z 21006KT 10SM OVC013 13/10 A3010 RMK AO2 SLP194 T01330100=
201906141625 SPECI KPAE 141625Z 22006KT 10SM SCT006 OVC011 13/11 A3010 RMK AO2 T01280106=
201906141553 METAR KPAE 141553Z 21004KT 10SM SCT005 OVC009 12/11 A3010 RMK AO2 SLP192 T01220106=
201906141509 SPECI KPAE 141509Z 28003KT 8SM OVC009 13/11 A3009 RMK AO2 T01280106=
201906141453 METAR KPAE 141453Z 00000KT 10SM BKN010 OVC015 13/11 A3009 RMK AO2 CIG 009V012 SLP189 T01280106 53014=
201906141353 METAR KPAE 141353Z 00000KT 10SM OVC010 12/11 A3007 RMK AO2 SLP184 T01220106=
201906141253 METAR KPAE 141253Z AUTO 00000KT 10SM OVC013 12/10 A3005 RMK AO2 SLP177 T01220100=
201906141243 SPECI KPAE 141243Z AUTO 00000KT 10SM OVC014 12/10 A3005 RMK AO2 T01220100=
201906141201 SPECI KPAE 141201Z AUTO 36003KT 10SM OVC015 12/10 A3005 RMK AO2 T01220100=
201906141153 METAR KPAE 141153Z AUTO VRB03KT 10SM OVC014 13/10 A3005 RMK AO2 SLP175 T01280100 10128 20122 51010=
201906141103 SPECI KPAE 141103Z AUTO 03004KT 10SM OVC012 12/10 A3004 RMK AO2 T01220100=
201906141053 METAR KPAE 141053Z AUTO 05003KT 10SM BKN009 OVC015 12/10 A3004 RMK AO2 SLP172 T01220100=
201906140953 METAR KPAE 140953Z AUTO 07004KT 10SM OVC018 12/10 A3003 RMK AO2 SLP168 T01220100=
201906140907 SPECI KPAE 140907Z AUTO 03005KT 10SM FEW008 BKN022 OVC040 12/10 A3002 RMK AO2 T01220100=
201906140853 METAR KPAE 140853Z AUTO 02004KT 10SM FEW008 OVC040 12/10 A3002 RMK AO2 SLP164 T01220100 52011=
201906140837 SPECI KPAE 140837Z AUTO 02004KT 10SM SCT017 OVC040 12/10 A3002 RMK AO2 T01220100=
201906140801 SPECI KPAE 140801Z AUTO 01006KT 10SM FEW009 BKN018 OVC060 12/10 A3001 RMK AO2 T01220100=
201906140753 METAR KPAE 140753Z AUTO 02006KT 10SM SCT009 BKN041 OVC065 12/10 A3001 RMK AO2 SLP162 T01220100 402280122=
201906140723 SPECI KPAE 140723Z AUTO 02007G16KT 10SM FEW009 OVC050 12/10 A3000 RMK AO2 T01220100=
201906140653 METAR KPAE 140653Z AUTO 02008G15KT 10SM OVC050 12/10 A2999 RMK AO2 SLP155 T01220100=
201906140553 METAR KPAE 140553Z AUTO 01008G18KT 10SM FEW010 OVC049 13/09 A2999 RMK AO2 SLP153 T01280094 10172 20128 53018=
201906140453 METAR KPAE 140453Z AUTO 36007G15KT 10SM OVC042 13/10 A2997 RMK AO2 SLP147 T01330100=
201906140353 METAR KPAE 140353Z AUTO 36011G19KT 10SM CLR 13/10 A2995 RMK AO2 SLP140 T01280100=
201906140253 METAR KPAE 140253Z 01013KT 10SM CLR 14/10 A2993 RMK AO2 SLP135 T01440100 55002=
201906140153 METAR KPAE 140153Z 01009G18KT 10SM CLR 15/11 A2993 RMK AO2 SLP133 T01500106=
201906140053 METAR KPAE 140053Z 01013G19KT 10SM CLR 16/11 A2993 RMK AO2 SLP133 T01560106=
201906132353 METAR KPAE 132353Z 35010G17KT 10SM CLR 16/12 A2994 RMK AO2 SLP137 T01610117 10228 20156 58003=
201906132253 METAR KPAE 132253Z 35007KT 10SM CLR 19/12 A2995 RMK AO2 SLP138 T01890117=
201906132153 METAR KPAE 132153Z 01006KT 10SM CLR 21/13 A2995 RMK AO2 SLP137 T02110133=
201906132053 METAR KPAE 132053Z 30005KT 10SM CLR 22/14 A2995 RMK AO2 SLP139 T02170139 52002=
201906131953 METAR KPAE 131953Z 28005KT 10SM CLR 22/14 A2995 RMK AO2 SLP138 T02170139=
201906131853 METAR KPAE 131853Z 26006KT 10SM CLR 21/14 A2994 RMK AO2 SLP137 T02060139=
201906131753 METAR KPAE 131753Z 26007KT 10SM CLR 18/13 A2994 RMK AO2 SLP136 T01780133 10189 20150 51008=
201906131653 METAR KPAE 131653Z 26006KT 10SM CLR 17/13 A2994 RMK AO2 SLP134 T01720133=
201906131553 METAR KPAE 131553Z 29005KT 10SM CLR 17/13 A2993 RMK AO2 SLP132 T01720133=
201906131453 METAR KPAE 131453Z 25004KT 10SM CLR 18/13 A2992 RMK AO2 SLP128 T01830133 51013=
201906131353 METAR KPAE 131353Z 23003KT 10SM CLR 19/13 A2991 RMK AO2 SLP124 T01890128=
201906131253 METAR KPAE 131253Z AUTO 00000KT 10SM CLR 16/13 A2989 RMK AO2 SLP118 T01560128=
201906131153 METAR KPAE 131153Z AUTO 01004KT 10SM CLR 15/13 A2988 RMK AO2 SLP114 T01500128 10217 20150 53006=
201906131053 METAR KPAE 131053Z AUTO 02004KT 10SM CLR 16/12 A2987 RMK AO2 SLP110 T01610122=
201906130953 METAR KPAE 130953Z AUTO 00000KT 10SM CLR 19/12 A2987 RMK AO2 SLP111 T01940117=
201906130853 METAR KPAE 130853Z AUTO 08005KT 10SM CLR 22/10 A2986 RMK AO2 SLP108 T02170100 51005=
201906130753 METAR KPAE 130753Z AUTO 02005KT 10SM CLR 21/10 A2986 RMK AO2 SLP107 T02110100 403060167=
201906130653 METAR KPAE 130653Z AUTO 36006KT 10SM CLR 20/11 A2986 RMK AO2 SLP106 T02000111=
201906130553 METAR KPAE 130553Z AUTO 34004KT 10SM CLR 22/14 A2985 RMK AO2 SLP103 T02170144 10306 20217 53001=
201906130453 METAR KPAE 130453Z AUTO 00000KT 10SM CLR 24/14 A2984 RMK AO2 SLP101 T02390139=
201906130353 METAR KPAE 130353Z AUTO 00000KT 10SM CLR 24/14 A2984 RMK AO2 SLP100 T02440139=
201906130253 METAR KPAE 130253Z 33003KT 10SM CLR 26/14 A2984 RMK AO2 SLP101 T02610139 58012=
201906130153 METAR KPAE 130153Z 01005KT 10SM CLR 27/15 A2986 RMK AO2 SLP106 T02670150=
201906130053 METAR KPAE 130053Z 34004KT 10SM CLR 29/15 A2987 RMK AO2 SLP110 T02940150=
201906122353 METAR KPAE 122353Z 35004KT 10SM CLR 30/14 A2988 RMK AO2 SLP114 T03000139 10306 20244 58018=
201906122253 METAR KPAE 122253Z 31006KT 10SM CLR 29/13 A2990 RMK AO2 SLP122 T02890133=
201906122153 METAR KPAE 122153Z VRB04KT 10SM CLR 29/13 A2992 RMK AO2 SLP126 T02890133=
201906122053 METAR KPAE 122053Z 35003KT 10SM CLR 28/15 A2993 RMK AO2 SLP132 T02830150 58015=
201906121953 METAR KPAE 121953Z 34004KT 10SM CLR 26/15 A2995 RMK AO2 SLP139 T02560150=
201906121853 METAR KPAE 121853Z 33005KT 10SM CLR 25/14 A2996 RMK AO2 SLP142 T02500144=
201906121753 METAR KPAE 121753Z 01005KT 10SM CLR 24/14 A2998 RMK AO2 SLP148 T02440144 10244 20178 58009=
201906121653 METAR KPAE 121653Z 36004KT 10SM CLR 23/14 A2999 RMK AO2 SLP153 T02280139=
201906121553 METAR KPAE 121553Z 32003KT 10SM CLR 21/14 A3000 RMK AO2 SLP155 T02060139=
201906121453 METAR KPAE 121453Z 01005KT 10SM CLR 21/13 A3001 RMK AO2 SLP158 T02110133 58005=
201906121353 METAR KPAE 121353Z 01004KT 10SM CLR 20/13 A3002 RMK AO2 SLP161 T02000128=
201906121253 METAR KPAE 121253Z AUTO 03003KT 10SM CLR 19/13 A3002 RMK AO2 SLP162 T01890133=
201906121153 METAR KPAE 121153Z AUTO 02004KT 10SM CLR 18/12 A3002 RMK AO2 SLP164 T01830122 10200 20167 58009=
201906121053 METAR KPAE 121053Z AUTO 00000KT 10SM CLR 17/12 A3003 RMK AO2 SLP167 T01720117=
201906120953 METAR KPAE 120953Z AUTO 00000KT 10SM CLR 17/12 A3004 RMK AO2 SLP170 T01720117=
201906120853 METAR KPAE 120853Z AUTO 00000KT 10SM CLR 18/12 A3005 RMK AO2 SLP173 T01780117 58011=
201906120753 METAR KPAE 120753Z AUTO 36004KT 10SM CLR 19/11 A3006 RMK AO2 SLP176 T01890111 402560128=
201906120653 METAR KPAE 120653Z AUTO 36003KT 10SM CLR 20/11 A3008 RMK AO2 SLP183 T02000111=
201906120553 METAR KPAE 120553Z AUTO 36003KT 10SM CLR 19/12 A3009 RMK AO2 SLP186 T01940117 10256 20194 58005=
201906120453 METAR KPAE 120453Z 35003KT 10SM CLR 20/12 A3009 RMK AO2 SLP189 T02000117=
201906120353 METAR KPAE 120353Z 34005KT 10SM CLR 22/12 A3009 RMK AO2 SLP188 T02170117=
201906120253 METAR KPAE 120253Z 35005KT 10SM CLR 23/13 A3010 RMK AO2 SLP190 T02330128 56017=
201906120153 METAR KPAE 120153Z 35005KT 10SM CLR 24/13 A3011 RMK AO2 SLP193 T02440128=
201906120053 METAR KPAE 120053Z 36010KT 10SM CLR 25/13 A3013 RMK AO2 SLP200 T02500133=
201906112353 METAR KPAE 112353Z 35009KT 10SM CLR 24/13 A3015 RMK AO2 SLP208 T02440133 10250 20194 56023=
201906112253 METAR KPAE 112253Z 35009G14KT 10SM CLR 24/13 A3017 RMK AO2 SLP215 T02440133=
201906112153 METAR KPAE 112153Z 35008G17KT 10SM CLR 24/13 A3019 RMK AO2 SLP223 T02390133=
201906112053 METAR KPAE 112053Z 33010G17KT 10SM CLR 22/13 A3022 RMK AO2 SLP231 T02220128 58019=
201906111953 METAR KPAE 111953Z 36010G15KT 10SM CLR 22/13 A3025 RMK AO2 SLP240 T02170128=
201906111853 METAR KPAE 111853Z 36008KT 10SM CLR 21/13 A3026 RMK AO2 SLP246 T02060128=
201906111753 METAR KPAE 111753Z 33008KT 10SM CLR 19/13 A3028 RMK AO2 SLP252 T01940128 10194 20128 58009=
201906111653 METAR KPAE 111653Z 36006KT 10SM CLR 18/13 A3029 RMK AO2 SLP255 T01830128=
201906111553 METAR KPAE 111553Z 34007KT 10SM CLR 17/13 A3030 RMK AO2 SLP259 T01720128=
201906111453 METAR KPAE 111453Z 01005KT 10SM CLR 16/12 A3031 RMK AO2 SLP260 T01610122 55001=
201906111353 METAR KPAE 111353Z 36006KT 10SM CLR 15/12 A3030 RMK AO2 SLP260 T01500122=
201906111253 METAR KPAE 111253Z AUTO 01005KT 10SM CLR 13/12 A3030 RMK AO2 SLP259 T01330122=
201906111153 METAR KPAE 111153Z AUTO 36003KT 10SM CLR 13/12 A3031 RMK AO2 SLP262 T01280117 10150 20128 58002=
201906111053 METAR KPAE 111053Z AUTO 02004KT 10SM CLR 13/12 A3031 RMK AO2 SLP262 T01330117=
201906110953 METAR KPAE 110953Z AUTO 00000KT 10SM CLR 13/12 A3031 RMK AO2 SLP264 T01330122=
201906110853 METAR KPAE 110853Z AUTO 36007KT 10SM CLR 13/12 A3031 RMK AO2 SLP264 T01330117 51003=
201906110753 METAR KPAE 110753Z AUTO 35007KT 10SM CLR 13/12 A3031 RMK AO2 SLP264 T01330122 402170106=
201906110653 METAR KPAE 110653Z AUTO 33005KT 10SM CLR 14/12 A3031 RMK AO2 SLP261 T01440122=
201906110553 METAR KPAE 110553Z AUTO 35004KT 10SM CLR 14/12 A3030 RMK AO2 SLP260 T01440122 10217 20144 50005=
201906110453 METAR KPAE 110453Z AUTO 36003KT 10SM CLR 15/12 A3031 RMK AO2 SLP261 T01500117=
201906110353 METAR KPAE 110353Z AUTO 35004KT 10SM CLR 17/11 A3029 RMK AO2 SLP256 T01720111=
201906110253 METAR KPAE 110253Z VRB03KT 10SM CLR 19/11 A3029 RMK AO2 SLP255 T01940111 56008=
201906110153 METAR KPAE 110153Z 35006KT 10SM CLR 21/11 A3029 RMK AO2 SLP256 T02110106=
201906110053 METAR KPAE 110053Z 36006KT 10SM CLR 22/11 A3030 RMK AO2 SLP259 T02170111=
201906102353 METAR KPAE 102353Z VRB05KT 10SM CLR 21/11 A3031 RMK AO2 SLP263 T02110111 10217 20167 58010=
201906102253 METAR KPAE 102253Z 36008KT 10SM CLR 21/11 A3032 RMK AO2 SLP268 T02110111=
201906102153 METAR KPAE 102153Z 32009KT 10SM CLR 21/11 A3033 RMK AO2 SLP270 T02110111=
201906102053 METAR KPAE 102053Z 36007KT 10SM CLR 21/08 A3034 RMK AO2 SLP273 T02060078 51002=
201906101953 METAR KPAE 101953Z 36008KT 10SM OVC065 18/08 A3034 RMK AO2 SLP273 T01830083=
201906101853 METAR KPAE 101853Z 01006KT 10SM SCT085 BKN100 18/07 A3034 RMK AO2 SLP272 T01830067=
201906101753 METAR KPAE 101753Z 36008KT 10SM OVC100 18/07 A3033 RMK AO2 SLP271 T01780067 10178 20106 53002=
201906101653 METAR KPAE 101653Z VRB04KT 10SM CLR 17/08 A3033 RMK AO2 SLP271 T01670078=
201906101553 METAR KPAE 101553Z 36004KT 10SM CLR 15/08 A3033 RMK AO2 SLP269 T01500083=
201906101453 METAR KPAE 101453Z 36005KT 10SM CLR 14/07 A3033 RMK AO2 SLP270 T01390072 53003=
201906101353 METAR KPAE 101353Z AUTO 36005KT 10SM CLR 12/07 A3032 RMK AO2 SLP268 T01220072=
201906101253 METAR KPAE 101253Z AUTO 36005KT 10SM CLR 11/07 A3032 RMK AO2 SLP267 T01110072=
201906101153 METAR KPAE 101153Z AUTO 36004KT 10SM CLR 11/07 A3032 RMK AO2 SLP267 T01060072 10122 20106 58002=
201906101053 METAR KPAE 101053Z AUTO VRB03KT 10SM CLR 11/07 A3032 RMK AO2 SLP267 T01110072=
201906100953 METAR KPAE 100953Z AUTO 00000KT 10SM CLR 11/07 A3033 RMK AO2 SLP269 T01060072=
201906100853 METAR KPAE 100853Z AUTO VRB03KT 10SM CLR 12/07 A3032 RMK AO2 SLP268 T01170072 58004=
201906100753 METAR KPAE 100753Z AUTO VRB04KT 10SM CLR 12/07 A3034 RMK AO2 SLP272 T01220072 402000089=
201906100653 METAR KPAE 100653Z AUTO 35007G15KT 10SM CLR 12/07 A3034 RMK AO2 SLP274 T01170072=
201906100553 METAR KPAE 100553Z AUTO 35009G15KT 10SM CLR 12/07 A3034 RMK AO2 SLP273 T01220067 10189 20122 53002=
201906100453 METAR KPAE 100453Z AUTO 36005KT 10SM CLR 12/08 A3034 RMK AO2 SLP273 T01220078=
201906100353 METAR KPAE 100353Z AUTO 01005KT 10SM CLR 13/08 A3033 RMK AO2 SLP271 T01330083=
201906100253 METAR KPAE 100253Z 35007KT 10SM CLR 14/08 A3033 RMK AO2 SLP271 T01440083 55005=
201906100153 METAR KPAE 100153Z 35007KT 10SM BKN100 16/08 A3033 RMK AO2 SLP269 T01610078=
201906100053 METAR KPAE 100053Z 35006KT 10SM FEW110 17/07 A3033 RMK AO2 SLP272 T01720072=
201906092353 METAR KPAE 092353Z 35007KT 10SM CLR 18/08 A3035 RMK AO2 SLP277 T01830078 10200 20156 56006=
201906092253 METAR KPAE 092253Z 36008KT 10SM CLR 18/08 A3035 RMK AO2 SLP278 T01830083=
201906092153 METAR KPAE 092153Z 36008KT 10SM CLR 19/08 A3036 RMK AO2 SLP280 T01890078=
201906092053 METAR KPAE 092053Z 35006KT 10SM CLR 18/08 A3037 RMK AO2 SLP283 T01830083 58010=
201906091953 METAR KPAE 091953Z 01007KT 10SM CLR 18/07 A3038 RMK AO2 SLP287 T01830072=
201906091853 METAR KPAE 091853Z VRB03KT 10SM CLR 17/10 A3039 RMK AO2 SLP290 T01720100=
201906091753 METAR KPAE 091753Z 35004KT 10SM CLR 16/09 A3040 RMK AO2 SLP293 T01560089 10156 20089 58004=
201906091653 METAR KPAE 091653Z VRB03KT 10SM CLR 14/09 A3040 RMK AO2 SLP295 T01440089=
201906091553 METAR KPAE 091553Z 35004KT 10SM CLR 12/09 A3041 RMK AO2 SLP299 T01220089=
201906091453 METAR KPAE 091453Z VRB04KT 10SM CLR 12/09 A3041 RMK AO2 SLP298 T01170089 54000=
201906091353 METAR KPAE 091353Z 36003KT 10SM CLR 11/09 A3041 RMK AO2 SLP298 T01110089=
201906091253 METAR KPAE 091253Z 35003KT 10SM CLR 09/08 A3041 RMK AO2 SLP297 T00940083=
201906091153 METAR KPAE 091153Z 00000KT 10SM CLR 09/08 A3041 RMK AO2 SLP298 T00890078 10117 20089 56006=
201906091053 METAR KPAE 091053Z 01003KT 10SM CLR 09/07 A3041 RMK AO2 SLP300 T00940072=
201906090953 METAR KPAE 090953Z 01003KT 10SM CLR 10/08 A3042 RMK AO2 SLP301 T01000078=
201906090853 METAR KPAE 090853Z 35007KT 10SM CLR 10/08 A3043 RMK AO2 SLP304 T01000078 50000=
201906090753 METAR KPAE 090753Z 34003KT 10SM CLR 10/08 A3043 RMK AO2 SLP305 T01000078 401780100=
201906090653 METAR KPAE 090653Z 36006KT 10SM CLR 11/08 A3043 RMK AO2 SLP303 T01110078=
201906090553 METAR KPAE 090553Z VRB05KT 10SM CLR 12/08 A3043 RMK AO2 SLP305 T01170078 10178 20111 53006=
201906090453 METAR KPAE 090453Z 01004KT 10SM CLR 12/09 A3042 RMK AO2 SLP303 T01170089=
201906090353 METAR KPAE 090353Z 35005KT 10SM CLR 12/08 A3040 RMK AO2 SLP296 T01220083=
201906090253 METAR KPAE 090253Z 33007KT 10SM SCT080 14/08 A3041 RMK AO2 SLP297 T01390078 53005=
201906090153 METAR KPAE 090153Z 34006KT 10SM BKN080 16/08 A3039 RMK AO2 SLP291 T01560083=
201906090053 METAR KPAE 090053Z 33005KT 10SM CLR 17/08 A3039 RMK AO2 SLP291 T01670083=
201906082353 METAR KPAE 082353Z 30005KT 10SM CLR 18/06 A3039 RMK AO2 SLP292 T01780061 10178 20122 58000=
201906082253 METAR KPAE 082253Z 25006KT 10SM CLR 17/07 A3040 RMK AO2 SLP294 T01720067=
201906082153 METAR KPAE 082153Z 26008KT 10SM FEW034 17/08 A3039 RMK AO2 SLP291 T01670078=
201906082053 METAR KPAE 082053Z 24008KT 10SM FEW033 16/09 A3039 RMK AO2 SLP292 T01610089 51001=
201906081953 METAR KPAE 081953Z 26008KT 10SM CLR 15/09 A3039 RMK AO2 SLP292 T01500089=
201906081853 METAR KPAE 081853Z VRB06KT 10SM SCT080 14/09 A3040 RMK AO2 SLP294 T01390089=
201906081753 METAR KPAE 081753Z 23008KT 10SM SCT019 BKN055 OVC085 12/08 A3039 RMK AO2 SLP292 T01220083 10128 20100 53010=
201906081653 METAR KPAE 081653Z 26008KT 10SM FEW012 BKN055 OVC085 12/09 A3038 RMK AO2 SLP288 T01170089=
201906081553 METAR KPAE 081553Z 25006KT 10SM FEW009 BKN017 OVC065 11/09 A3036 RMK AO2 SLP283 T01110094=
201906081548 SPECI KPAE 081548Z 24007KT 10SM FEW009 BKN017 OVC065 11/09 A3036 RMK AO2=
201906081524 SPECI KPAE 081524Z 19008KT 10SM OVC016 11/08 A3036 RMK AO2 T01110078=
201906081453 METAR KPAE 081453Z 18007KT 10SM BKN009 OVC017 11/08 A3035 RMK AO2 SLP280 T01110078 52017=
201906081353 METAR KPAE 081353Z 20004KT 10SM BKN009 OVC012 10/09 A3034 RMK AO2 SLP274 T01000094=
201906081344 SPECI KPAE 081344Z 22004KT 10SM BKN009 OVC012 10/09 A3034 RMK AO2 T01000094=
201906081253 METAR KPAE 081253Z 22003KT 10SM BKN011 OVC055 10/09 A3032 RMK AO2 SLP268 T01000089=
201906081230 SPECI KPAE 081230Z 21003KT 10SM FEW008 BKN050 OVC080 10/09 A3031 RMK AO2 T01000089=
201906081153 METAR KPAE 081153Z 20003KT 10SM SCT023 BKN055 OVC075 10/08 A3030 RMK AO2 SLP262 70045 T01000083 10106 20100 51013=
201906081053 METAR KPAE 081053Z 23004KT 10SM OVC023 10/08 A3029 RMK AO2 SLP259 T01000083=
201906081020 SPECI KPAE 081020Z 00000KT 10SM BKN015 OVC024 10/08 A3029 RMK AO2 T01000083=
201906080953 METAR KPAE 080953Z 22003KT 10SM BKN013 OVC018 10/08 A3028 RMK AO2 SLP255 T01000083=
201906080931 SPECI KPAE 080931Z 22004KT 10SM BKN018 OVC070 10/08 A3027 RMK AO2 T01000083=
201906080853 METAR KPAE 080853Z 20005KT 10SM FEW015 OVC065 11/09 A3026 RMK AO2 SLP249 T01060089 52011=
201906080828 SPECI KPAE 080828Z 21005KT 10SM SCT014 OVC060 11/09 A3026 RMK AO2 T01060089=
201906080819 SPECI KPAE 080819Z 22005KT 10SM BKN012 OVC060 11/09 A3025 RMK AO2 T01060089=
201906080753 METAR KPAE 080753Z 20005KT 10SM FEW011 SCT042 OVC055 11/09 A3025 RMK AO2 SLP244 T01060089 401440083=
201906080748 SPECI KPAE 080748Z 20006KT 10SM FEW009 BKN042 OVC055 11/09 A3025 RMK AO2=
201906080737 SPECI KPAE 080737Z 20005KT 10SM SCT009 BKN013 OVC050 11/09 A3025 RMK AO2 T01060094=
201906080722 SPECI KPAE 080722Z 16003KT 10SM FEW009 BKN050 11/09 A3024 RMK AO2 T01060089=
201906080653 METAR KPAE 080653Z 18004KT 10SM FEW048 SCT060 10/09 A3023 RMK AO2 SLP238 T01000089=
201906080553 METAR KPAE 080553Z 17005KT 10SM OVC041 11/08 A3022 RMK AO2 SLP233 P0001 60020 T01060083 10122 20100 51019=
201906080453 METAR KPAE 080453Z 18005KT 10SM FEW040 SCT050 10/08 A3020 RMK AO2 RAB01E18 SLP228 P0000 T01000083=
201906080424 SPECI KPAE 080424Z 21006KT 10SM FEW017 SCT027 SCT060 11/08 A3019 RMK AO2 RAB01E18 P0000 T01060083=
201906080353 METAR KPAE 080353Z 18007KT 10SM BKN020 OVC045 12/08 A3018 RMK AO2 SLP220 T01170078=
201906080317 SPECI KPAE 080317Z 16006KT 10SM BKN020 BKN028 OVC060 12/08 A3017 RMK AO2 T01170078=
201906080253 METAR KPAE 080253Z 15008KT 10SM FEW005 FEW016 BKN050 12/09 A3016 RMK AO2 RAE03 SLP213 P0000 60019 T01170089 53015=
201906080153 METAR KPAE 080153Z VRB03KT 10SM -RA BKN070 OVC085 12/09 A3014 RMK AO2 SLP206 P0001 T01170089=
201906080053 METAR KPAE 080053Z 17007KT 10SM -RA OVC060 11/08 A3013 RMK AO2 SLP204 P0018 T01110078=
201906080025 SPECI KPAE 080025Z 18008KT 3SM RA FEW030 BKN035 OVC050 11/08 A3013 RMK AO2 P0017 T01110078=
201906080007 SPECI KPAE 080007Z 21008KT 1 3/4SM R16R/5500VP6000FT +RA SCT037 OVC050 11/08 A3012 RMK AO2 P0004 T01110083=
201906072353 METAR KPAE 072353Z 20007KT 10SM -RA FEW045 OVC050 12/09 A3012 RMK AO2 SLP200 P0009 60014 T01170089 10144 20117 53015=
201906072320 SPECI KPAE 072320Z 18007KT 10SM RA FEW034 OVC048 12/09 A3010 RMK AO2 P0007 T01220089=
201906072313 SPECI KPAE 072313Z 18006KT 2SM R16R/5000VP6000FT RA SCT040 OVC049 12/08 A3010 RMK AO2 P0005 T01170083=
201906072253 METAR KPAE 072253Z 17005KT 10SM -RA FEW034 OVC050 12/08 A3010 RMK AO2 SLP193 P0005 T01170078=
201906072244 SPECI KPAE 072244Z 15008KT 10SM -RA SCT039 OVC048 12/08 A3009 RMK AO2 P0005 T01170078=
201906072236 SPECI KPAE 072236Z 16010KT 2 1/2SM RA SCT039 OVC050 12/09 A3009 RMK AO2 P0004 T01170089=
201906072153 METAR KPAE 072153Z 20009KT 10SM -RA FEW026 BKN035 OVC047 13/07 A3008 RMK AO2 RAB14E24B53 SLP187 P0000 T01330072=
201906072053 METAR KPAE 072053Z 10006KT 10SM SCT042 BKN050 OVC090 14/07 A3007 RMK AO2 SLP183 T01390072 56004=
201906071953 METAR KPAE 071953Z VRB05KT 10SM SCT022 BKN028 BKN035 14/07 A3007 RMK AO2 SLP184 T01390072=
201906071907 SPECI KPAE 071907Z 10006KT 10SM SCT025 SCT047 OVC070 13/08 A3008 RMK AO2 T01330078=
201906071853 METAR KPAE 071853Z 10005KT 10SM SCT016 BKN027 OVC055 13/08 A3008 RMK AO2 SLP186 T01280083=
201906071808 SPECI KPAE 071808Z 17007KT 10SM SCT016 BKN027 OVC055 12/07 A3008 RMK AO2 T01170067=
201906071801 SPECI KPAE 071801Z 15005KT 10SM SCT020 BKN032 OVC075 12/07 A3008 RMK AO2 T01170067=
201906071753 METAR KPAE 071753Z 15004KT 10SM SCT016 BKN027 OVC055 12/08 A3008 RMK AO2 RAE13 SLP188 P0000 60011 T01220078 10122 20083 51009=
201906071741 SPECI KPAE 071741Z 16006KT 10SM SCT016 BKN027 OVC055 12/08 A3008 RMK AO2 RAE13 P0000 T01170078=
201906071709 SPECI KPAE 071709Z 16007KT 10SM -RA BKN007 BKN029 OVC055 11/08 A3008 RMK AO2 P0000 T01110083=
201906071653 METAR KPAE 071653Z 16007KT 10SM -RA SCT009 SCT011 OVC040 11/08 A3008 RMK AO2 RAB12 SLP187 P0000 T01060083=
201906071553 METAR KPAE 071553Z VRB04KT 10SM SCT005 OVC060 09/08 A3007 RMK AO2 SLP184 T00940083=
201906071508 SPECI KPAE 071508Z VRB04KT 10SM SCT003 BKN008 BKN018 09/08 A3006 RMK AO2 T00940078=
201906071453 METAR KPAE 071453Z 11005KT 10SM BKN003 BKN018 OVC060 09/08 A3006 RMK AO2 SLP178 60011 T00940078 53010=
201906071353 METAR KPAE 071353Z 11003KT 10SM FEW002 FEW010 BKN015 09/07 A3004 RMK AO2 SLP173 T00940072=
201906071253 METAR KPAE 071253Z AUTO 00000KT 10SM BKN037 OVC047 09/08 A3003 RMK AO2 RAE48 SLP169 P0011 T00940078=
201906071221 SPECI KPAE 071221Z AUTO 00000KT 6SM RA BR OVC039 08/07 A3002 RMK AO2 P0009 T00830067=
201906071201 SPECI KPAE 071201Z AUTO 00000KT 2 1/2SM RA BR FEW016 SCT032 OVC042 08/07 A3002 RMK AO2 P0004 T00830067=
201906071153 METAR KPAE 071153Z AUTO 31004KT 4SM RA BR FEW010 BKN033 OVC040 08/06 A3002 RMK AO2 RAB33 SLP168 P0003 60003 70005 T00830061 10106 20083 53011=
201906071148 SPECI KPAE 071148Z AUTO VRB03KT 4SM RA BR FEW008 BKN019 OVC032 08/06 A3002 RMK AO2 RAB33 P0002=
201906071142 SPECI KPAE 071142Z AUTO 33006KT 5SM -RA SCT010 BKN013 OVC029 09/06 A3003 RMK AO2 RAB33 P0000 T00890061=
201906071130 SPECI KPAE 071130Z AUTO 24007KT 10SM BKN009 OVC030 09/07 A3002 RMK AO2 CIG 008V013 T00940072=
201906071114 SPECI KPAE 071114Z AUTO 24007KT 10SM SCT009 BKN025 OVC031 09/07 A3001 RMK AO2 T00940072=
201906071053 METAR KPAE 071053Z AUTO 22007KT 10SM OVC028 10/07 A3001 RMK AO2 SLP163 T01000067=
201906070953 METAR KPAE 070953Z AUTO 22006KT 10SM SCT022 OVC027 10/07 A3000 RMK AO2 SLP161 T01000067=
201906070853 METAR KPAE 070853Z AUTO 20007KT 10SM BKN022 OVC029 10/07 A2999 RMK AO2 SLP156 T01000072 53002=
201906070753 METAR KPAE 070753Z AUTO 19008KT 10SM FEW020 BKN028 OVC034 11/07 A2999 RMK AO2 SLP155 T01060072 401670094=
201906070706 SPECI KPAE 070706Z AUTO 21007KT 10SM BKN023 BKN030 10/07 A2999 RMK AO2 T01000072=
201906070653 METAR KPAE 070653Z AUTO 20008KT 10SM FEW023 SCT030 10/07 A2998 RMK AO2 SLP154 T01000072=
201906070553 METAR KPAE 070553Z AUTO 18009KT 10SM FEW080 10/06 A2999 RMK AO2 SLP155 60001 T01000061 10156 20100 51007=
201906070453 METAR KPAE 070453Z AUTO 18011KT 10SM CLR 11/06 A2998 RMK AO2 SLP154 T01110061=
201906070353 METAR KPAE 070353Z AUTO 21009KT 10SM FEW033 BKN065 12/07 A2997 RMK AO2 SLP149 T01220067=
201906070309 SPECI KPAE 070309Z 10004KT 10SM BKN041 OVC049 12/07 A2997 RMK AO2 T01220072=
201906070253 METAR KPAE 070253Z VRB03KT 10SM VCTS BKN047 BKN060 BKN085 13/08 A2997 RMK AO2 RAB07E42 SLP148 P0001 60001 T01280078 55001=
201906070153 METAR KPAE 070153Z 36006KT 10SM FEW039 SCT048 OVC070 14/06 A2996 RMK AO2 SLP146 T01390061=
201906070053 METAR KPAE 070053Z VRB03KT 10SM OVC090 14/06 A2996 RMK AO2 SLP147 T01440056=
201906062353 METAR KPAE 062353Z 15008KT 10SM SCT070 OVC090 14/05 A2997 RMK AO2 RAE05 SLP148 P0000 60001 T01390050 10167 20117 50001=
201906062253 METAR KPAE 062253Z AUTO 19007KT 6SM -RA BKN048 OVC070 12/07 A2998 RMK AO2 RAB30 SLP152 P0001 T01170067=
201906062153 METAR KPAE 062153Z 22012G22KT 10SM BKN050 BKN110 13/07 A2998 RMK AO2 SLP153 RA SE-SW T01280067=
201906062053 METAR KPAE 062053Z VRB05KT 10SM FEW080 16/04 A2997 RMK AO2 SLP147 T01560044 58007=
201906061953 METAR KPAE 061953Z 22006KT 10SM SCT044 BKN065 14/07 A2998 RMK AO2 SLP152 T01440067=
201906061853 METAR KPAE 061853Z 28005KT 10SM BKN033 13/07 A2998 RMK AO2 SLP153 T01280067=
201906061753 METAR KPAE 061753Z 24007KT 10SM FEW024 SCT033 12/07 A2999 RMK AO2 SLP155 T01220067 10139 20094 58004=
201906061653 METAR KPAE 061653Z 15006KT 10SM FEW049 13/06 A2999 RMK AO2 SLP157 T01280061=
201906061631 SPECI KPAE 061631Z VRB05KT 10SM SCT023 BKN030 13/06 A2999 RMK AO2 T01280056=
201906061603 SPECI KPAE 061603Z 16007KT 10SM BKN022 BKN033 11/06 A2999 RMK AO2 T01110056=
201906061553 METAR KPAE 061553Z 17007KT 10SM SCT014 BKN048 12/06 A2999 RMK AO2 SLP157 T01220061=
201906061453 METAR KPAE 061453Z 16005KT 10SM FEW050 SCT070 11/06 A3000 RMK AO2 SLP159 T01110061 56003=
201906061353 METAR KPAE 061353Z 16007KT 10SM CLR 09/06 A3000 RMK AO2 SLP158 T00940061=
201906061253 METAR KPAE 061253Z AUTO 15005KT 10SM FEW055 10/06 A3000 RMK AO2 SLP159 T01000061=
201906061153 METAR KPAE 061153Z AUTO 12004KT 10SM FEW024 BKN035 OVC055 11/06 A3001 RMK AO2 RAB21E41 SLP159 P0000 60000 T01110056 10117 20100 58003=
201906061053 METAR KPAE 061053Z AUTO VRB03KT 10SM SCT044 BKN055 11/06 A3001 RMK AO2 SLP162 T01060056=
201906060953 METAR KPAE 060953Z AUTO 32003KT 10SM FEW029 BKN043 BKN050 11/06 A3002 RMK AO2 SLP164 T01060056=
201906060853 METAR KPAE 060853Z AUTO 36003KT 10SM SCT039 OVC050 11/07 A3001 RMK AO2 SLP163 T01110067 50000=
201906060753 METAR KPAE 060753Z AUTO 33004KT 10SM SCT036 10/07 A3002 RMK AO2 SLP165 T01000067 401890100=
201906060653 METAR KPAE 060653Z AUTO 35006KT 10SM FEW060 11/07 A3001 RMK AO2 SLP163 T01110067=
201906060553 METAR KPAE 060553Z AUTO VRB03KT 10SM BKN034 BKN045 OVC055 12/07 A3001 RMK AO2 SLP163 T01170072 10189 20111 53011=
201906060453 METAR KPAE 060453Z AUTO 36007KT 10SM BKN030 OVC037 12/08 A3000 RMK AO2 SLP160 T01170078=
201906060353 METAR KPAE 060353Z AUTO VRB05KT 10SM BKN025 OVC040 11/08 A2998 RMK AO2 SLP153 T01110083=
201906060253 METAR KPAE 060253Z 36007KT 10SM FEW043 FEW055 12/09 A2998 RMK AO2 SLP152 T01220089 53003=
201906060153 METAR KPAE 060153Z 25013KT 10SM FEW031 SCT040 16/09 A2996 RMK AO2 PK WND 19026/0055 SLP146 T01560094=
201906060053 METAR KPAE 060053Z 19020G25KT 10SM CLR 18/08 A2996 RMK AO2 PK WND 19026/0019 SLP144 T01830083=
201906052353 METAR KPAE 052353Z 18014G20KT 10SM CLR 18/09 A2997 RMK AO2 SLP149 T01830089 10189 20144 56012=
201906052253 METAR KPAE 052253Z 17016G22KT 10SM FEW033 SCT060 18/09 A2998 RMK AO2 SLP153 T01780094=
201906052153 METAR KPAE 052153Z 17013KT 10SM FEW029 FEW120 17/09 A3000 RMK AO2 SLP157 T01670089=
201906052053 METAR KPAE 052053Z 17010KT 10SM FEW029 SCT120 16/09 A3001 RMK AO2 SLP161 T01610089 58000=
201906052046 SPECI KPAE 052046Z 18012KT 10SM SCT029 BKN120 16/09 A3001 RMK AO2 T01610089=
201906052001 SPECI KPAE 052001Z 17008KT 10SM BKN028 16/08 A3001 RMK AO2 T01560083=
201906051953 METAR KPAE 051953Z 16015KT 10SM SCT028 15/08 A3001 RMK AO2 SLP162 T01500078=
201906051907 SPECI KPAE 051907Z 18014KT 10SM BKN028 15/08 A3002 RMK AO2 T01500078=
201906051900 SPECI KPAE 051900Z 18013KT 10SM SCT028 14/08 A3002 RMK AO2 T01440078=
201906051853 METAR KPAE 051853Z 19016KT 10SM BKN028 14/08 A3002 RMK AO2 SLP165 T01440078=
201906051843 SPECI KPAE 051843Z 19016KT 10SM BKN028 14/07 A3001 RMK AO2 T01440072=
201906051836 SPECI KPAE 051836Z 18015G20KT 10SM SCT028 14/07 A3001 RMK AO2 T01440072=
201906051753 METAR KPAE 051753Z 17014G19KT 10SM BKN025 15/07 A3001 RMK AO2 SLP162 T01500072 10150 20106 58001=
201906051723 SPECI KPAE 051723Z 18011KT 10SM BKN026 OVC031 14/04 A3002 RMK AO2 T01390044=
201906051653 METAR KPAE 051653Z 19011KT 10SM BKN047 OVC065 14/03 A3002 RMK AO2 SLP165 T01440028=
201906051553 METAR KPAE 051553Z 18013KT 10SM OVC070 14/02 A3002 RMK AO2 SLP165 T01390022=
201906051453 METAR KPAE 051453Z 16010KT 10SM BKN075 OVC095 13/03 A3001 RMK AO2 SLP162 T01330033 58006=
201906051353 METAR KPAE 051353Z VRB04KT 10SM OVC095 12/06 A3002 RMK AO2 SLP166 T01170061=
201906051253 METAR KPAE 051253Z 00000KT 10SM BKN085 11/07 A3002 RMK AO2 SLP166 T01110067=
201906051153 METAR KPAE 051153Z 05003KT 10SM CLR 11/07 A3003 RMK AO2 SLP169 T01060072 10117 20100 58007=
201906051053 METAR KPAE 051053Z 02004KT 10SM SCT050 11/07 A3004 RMK AO2 SLP171 T01060072=
201906050953 METAR KPAE 050953Z 02005KT 10SM BKN055 OVC070 11/07 A3004 RMK AO2 SLP173 T01060072=
201906050853 METAR KPAE 050853Z 03004KT 10SM BKN060 OVC080 11/07 A3005 RMK AO2 SLP176 T01060072 58005=
201906050753 METAR KPAE 050753Z 01006KT 10SM BKN065 OVC080 11/07 A3006 RMK AO2 SLP179 T01110067 401890094=
201906050653 METAR KPAE 050653Z 36005KT 10SM FEW075 11/06 A3006 RMK AO2 SLP178 T01060061=
201906050553 METAR KPAE 050553Z 36005KT 10SM OVC080 12/07 A3007 RMK AO2 SLP182 T01170067 10183 20117 56002=
201906050453 METAR KPAE 050453Z 01006KT 10SM FEW100 12/07 A3007 RMK AO2 SLP182 T01170067=
201906050353 METAR KPAE 050353Z 35006KT 10SM SCT100 12/07 A3007 RMK AO2 SLP182 T01220072=
201906050253 METAR KPAE 050253Z 35006KT 10SM FEW090 15/07 A3007 RMK AO2 SLP183 T01500067 56014=
201906050153 METAR KPAE 050153Z 35007KT 10SM CLR 16/07 A3008 RMK AO2 SLP185 T01610072=
201906050053 METAR KPAE 050053Z 35004KT 10SM CLR 17/07 A3010 RMK AO2 SLP192 T01720072=
201906042353 METAR KPAE 042353Z 28006KT 10SM CLR 18/08 A3011 RMK AO2 SLP198 T01830078 10189 20150 56017=
201906042253 METAR KPAE 042253Z 32005KT 10SM CLR 18/07 A3013 RMK AO2 SLP203 T01830072=
201906042153 METAR KPAE 042153Z VRB06KT 10SM CLR 18/08 A3015 RMK AO2 SLP208 T01780078=
201906042053 METAR KPAE 042053Z 25005KT 10SM CLR 17/07 A3016 RMK AO2 SLP214 T01670072 58007=
201906041953 METAR KPAE 041953Z 28006KT 10SM CLR 16/07 A3018 RMK AO2 SLP218 T01610072=
201906041853 METAR KPAE 041853Z 31005KT 10SM CLR 15/07 A3019 RMK AO2 SLP222 T01500072=
201906041753 METAR KPAE 041753Z 03005KT 10SM CLR 16/07 A3019 RMK AO2 SLP222 T01560072 10156 20094 58001=
201906041653 METAR KPAE 041653Z 00000KT 9SM FEW038 13/07 A3019 RMK AO2 SLP223 T01330072=
201906041553 METAR KPAE 041553Z 02004KT 10SM OVC039 12/07 A3019 RMK AO2 SLP226 T01170067=
201906041453 METAR KPAE 041453Z 02005KT 10SM OVC039 11/07 A3019 RMK AO2 SLP223 T01060067 51008=
201906041353 METAR KPAE 041353Z 02005KT 10SM BKN040 11/07 A3018 RMK AO2 SLP221 T01110067=
201906041253 METAR KPAE 041253Z AUTO 01006KT 10SM OVC039 10/07 A3018 RMK AO2 SLP220 T01000067=
201906041153 METAR KPAE 041153Z AUTO 02005KT 10SM CLR 09/06 A3016 RMK AO2 SLP214 T00940061 10111 20094 51005=
201906041053 METAR KPAE 041053Z AUTO 02006KT 10SM BKN044 10/06 A3016 RMK AO2 SLP213 T01000061=
201906040953 METAR KPAE 040953Z AUTO 35005KT 10SM BKN050 10/06 A3016 RMK AO2 SLP212 T01000056=
201906040853 METAR KPAE 040853Z AUTO 35006KT 10SM SCT055 11/06 A3015 RMK AO2 SLP209 T01060061 53001=
201906040753 METAR KPAE 040753Z AUTO 36007KT 10SM OVC060 11/06 A3014 RMK AO2 SLP207 T01060061 401780106=
201906040653 METAR KPAE 040653Z AUTO 01006KT 10SM OVC060 11/06 A3015 RMK AO2 SLP209 T01110061=
201906040553 METAR KPAE 040553Z AUTO 01006KT 10SM OVC060 11/07 A3015 RMK AO2 SLP209 T01110067 10172 20111 52011=
201906040453 METAR KPAE 040453Z AUTO 36007KT 10SM BKN055 12/07 A3014 RMK AO2 SLP206 T01170072=
201906040353 METAR KPAE 040353Z AUTO 36009G18KT 10SM CLR 12/07 A3012 RMK AO2 SLP201 T01170067=
201906040253 METAR KPAE 040253Z 35009KT 10SM CLR 13/07 A3011 RMK AO2 SLP198 T01280067 58008=
201906040153 METAR KPAE 040153Z 35008KT 10SM CLR 15/07 A3012 RMK AO2 SLP201 T01500072=
201906040053 METAR KPAE 040053Z 35007KT 10SM CLR 16/08 A3013 RMK AO2 SLP203 T01610078=
201906032353 METAR KPAE 032353Z 35007KT 10SM SCT050 17/08 A3014 RMK AO2 SLP204 T01720083 10178 20133 58005=
201906032253 METAR KPAE 032253Z 30005KT 10SM CLR 17/09 A3015 RMK AO2 SLP208 T01670089=
201906032153 METAR KPAE 032153Z VRB04KT 10SM CLR 17/09 A3015 RMK AO2 SLP209 T01670089=
201906032100 SPECI KPAE 032100Z 36006KT 10SM FEW024 16/09 A3015 RMK AO2 T01610094=
201906032053 METAR KPAE 032053Z VRB04KT 10SM BKN026 BKN031 15/09 A3015 RMK AO2 SLP210 T01500089 58001=
201906031953 METAR KPAE 031953Z VRB04KT 10SM BKN026 BKN031 14/09 A3016 RMK AO2 SLP212 T01440089=
201906031936 SPECI KPAE 031936Z VRB05KT 10SM BKN024 OVC050 14/08 A3015 RMK AO2 T01440083=
201906031853 METAR KPAE 031853Z VRB04KT 10SM FEW022 BKN033 OVC049 14/08 A3015 RMK AO2 SLP211 T01440083=
201906031851 SPECI KPAE 031851Z 00000KT 10SM FEW022 BKN033 OVC049 14/08 A3015 RMK AO2=
201906031753 METAR KPAE 031753Z 00000KT 10SM SCT021 OVC027 13/08 A3014 RMK AO2 SLP207 60000 T01330078 10133 20111 53012=
201906031653 METAR KPAE 031653Z 34003KT 10SM SCT014 OVC021 12/08 A3013 RMK AO2 SLP203 T01220083=
201906031556 SPECI KPAE 031556Z 00000KT 10SM SCT014 OVC021 12/08 A3012 RMK AO2 T01170083=
201906031553 METAR KPAE 031553Z 07003KT 10SM BKN014 OVC021 12/08 A3012 RMK AO2 RAB26E40 SLP199 P0000 T01170083=
201906031453 METAR KPAE 031453Z 01005KT 10SM BKN015 12/08 A3011 RMK AO2 SLP195 T01170078 52019=
201906031353 METAR KPAE 031353Z VRB05KT 10SM OVC025 12/08 A3009 RMK AO2 SLP190 T01170078=
201906031253 METAR KPAE 031253Z AUTO 02006KT 10SM BKN027 OVC060 12/07 A3007 RMK AO2 SLP181 T01170067=
201906031244 SPECI KPAE 031244Z AUTO 01006KT 10SM BKN027 OVC060 12/06 A3006 RMK AO2 T01170061=
201906031153 METAR KPAE 031153Z AUTO 01004KT 10SM FEW020 OVC055 12/07 A3005 RMK AO2 SLP174 T01220067 10128 20117 53015=
201906031053 METAR KPAE 031053Z AUTO 35004KT 10SM BKN060 OVC070 12/06 A3003 RMK AO2 SLP169 T01220061=
201906030953 METAR KPAE 030953Z AUTO 03003KT 10SM OVC055 12/07 A3002 RMK AO2 SLP164 T01220067=
201906030853 METAR KPAE 030853Z AUTO 03005KT 10SM OVC055 12/07 A3000 RMK AO2 SLP159 T01220072 51013=
201906030753 METAR KPAE 030753Z AUTO 02004KT 10SM OVC060 12/08 A3000 RMK AO2 SLP156 T01220078 402220111=
201906030653 METAR KPAE 030653Z AUTO 01006KT 10SM OVC050 12/09 A2998 RMK AO2 SLP152 T01220089=
201906030553 METAR KPAE 030553Z AUTO 36008G16KT 10SM FEW036 OVC055 12/08 A2997 RMK AO2 SLP146 T01220083 10183 20122 53014=
201906030453 METAR KPAE 030453Z AUTO 36012G17KT 10SM OVC060 13/08 A2995 RMK AO2 SLP141 T01280083=
201906030353 METAR KPAE 030353Z AUTO 36008G15KT 10SM FEW055 13/08 A2994 RMK AO2 SLP137 T01330083=
201906030253 METAR KPAE 030253Z 02009KT 10SM CLR 14/09 A2993 RMK AO2 SLP133 T01440089 53003=
201906030153 METAR KPAE 030153Z 36010G18KT 10SM CLR 16/09 A2992 RMK AO2 SLP132 T01560089=
201906030053 METAR KPAE 030053Z 36008KT 10SM CLR 17/09 A2992 RMK AO2 SLP131 T01670094=
201906022353 METAR KPAE 022353Z 36009KT 10SM CLR 18/11 A2992 RMK AO2 SLP129 T01830106 10222 20172 55001=
201906022253 METAR KPAE 022253Z 26008KT 10SM CLR 22/13 A2991 RMK AO2 SLP127 T02170128=
201906022153 METAR KPAE 022153Z 25009KT 10SM CLR 21/13 A2991 RMK AO2 SLP129 T02110128=
201906022053 METAR KPAE 022053Z 24008KT 10SM CLR 21/12 A2992 RMK AO2 SLP131 T02060122 58005=
201906021953 METAR KPAE 021953Z 10SM CLR 20/12 A2993 RMK AO2 SLP133 T02000117=
201906021853 METAR KPAE 021853Z 22006KT 10SM CLR 18/12 A2993 RMK AO2 SLP134 T01830117=
201906021753 METAR KPAE 021753Z 25004KT 10SM CLR 17/11 A2994 RMK AO2 SLP136 T01720111 10172 20111 58001=
201906021653 METAR KPAE 021653Z 25006KT 10SM CLR 17/11 A2994 RMK AO2 SLP137 T01670106=
201906021553 METAR KPAE 021553Z 26005KT 10SM CLR 14/11 A2994 RMK AO2 SLP139 T01440111=
201906021453 METAR KPAE 021453Z 00000KT 10SM BCFG CLR 14/11 A2994 RMK AO2 SLP139 T01390111 50002=
201906021353 METAR KPAE 021353Z 02003KT 10SM BCFG CLR 12/11 A2994 RMK AO2 SLP140 VIS N 1 T01170106=
201906021349 SPECI KPAE 021349Z 02004KT 10SM CLR 12/11 A2994 RMK AO2 VIS N 1=
201906021253 METAR KPAE 021253Z 01004KT 7SM BKN002 11/10 A2994 RMK AO2 SLP137 T01110100=
201906021153 METAR KPAE 021153Z 05003KT 10SM CLR 12/10 A2993 RMK AO2 SLP134 T01170100 10144 20111 58007=
201906021053 METAR KPAE 021053Z 01004KT 10SM BKN060 12/11 A2994 RMK AO2 SLP138 T01170106=
201906020953 METAR KPAE 020953Z 00000KT 10SM CLR 12/10 A2994 RMK AO2 SLP138 T01220100=
201906020853 METAR KPAE 020853Z 01004KT 10SM CLR 12/10 A2995 RMK AO2 SLP141 T01220100 56005=
201906020753 METAR KPAE 020753Z 02005KT 10SM CLR 13/09 A2996 RMK AO2 SLP142 T01280094 402060106=
201906020653 METAR KPAE 020653Z 02007KT 10SM CLR 13/09 A2996 RMK AO2 SLP143 T01330094=
201906020553 METAR KPAE 020553Z 36007KT 10SM CLR 14/09 A2996 RMK AO2 SLP145 T01440094 10183 20144 50001=
201906020453 METAR KPAE 020453Z 01008KT 10SM CLR 15/09 A2997 RMK AO2 SLP147 T01500094=
201906020353 METAR KPAE 020353Z 01007KT 10SM CLR 15/10 A2997 RMK AO2 SLP147 T01500100=
201906020253 METAR KPAE 020253Z 35005KT 10SM CLR 15/11 A2996 RMK AO2 SLP146 T01500111 58010=
201906020153 METAR KPAE 020153Z 36006KT 10SM CLR 17/12 A2998 RMK AO2 SLP150 T01720117=
201906020053 METAR KPAE 020053Z 36007KT 10SM CLR 17/12 A2998 RMK AO2 SLP153 T01720122=
201906012353 METAR KPAE 012353Z 35006KT 10SM CLR 18/13 A2999 RMK AO2 SLP156 T01830128 10206 20167 56010=
201906012253 METAR KPAE 012253Z 36007KT 320V030 10SM CLR 19/12 A3000 RMK AO2 SLP159 T01940122=
201906012153 METAR KPAE 012153Z 26005KT 10SM CLR 20/13 A3001 RMK AO2 SLP161 T02000133=
201906012053 METAR KPAE 012053Z VRB04KT 10SM CLR 19/13 A3002 RMK AO2 SLP165 T01940128 58011=
201906011953 METAR KPAE 011953Z 31005KT 10SM CLR 18/12 A3003 RMK AO2 SLP169 T01780122=
201906011853 METAR KPAE 011853Z 29006KT 10SM CLR 17/12 A3005 RMK AO2 SLP175 T01670122=
201906011753 METAR KPAE 011753Z VRB04KT 10SM CLR 17/11 A3006 RMK AO2 SLP176 T01720111 10172 20106 58004=
201906011653 METAR KPAE 011653Z 35003KT 7SM FEW003 16/11 A3006 RMK AO2 SLP179 T01560106=
201906011553 METAR KPAE 011553Z 36004KT 5SM HZ SCT003 13/11 A3007 RMK AO2 SLP182 T01330106=
201906011549 SPECI KPAE 011549Z 01004KT 5SM HZ SCT003 13/11 A3007 RMK AO2=
201906011453 METAR KPAE 011453Z 35004KT 4SM BR BKN002 12/11 A3007 RMK AO2 SLP181 T01170106 51012=
201906011353 METAR KPAE 011353Z 35004KT 1SM R16R/5500VP6000FT BR OVC002 11/11 A3006 RMK AO2 SLP178 T01110106=
201906011341 SPECI KPAE 011341Z AUTO 36006KT 6SM OVC002 11/10 A3005 RMK AO2 T01060100=
201906011253 METAR KPAE 011253Z AUTO 35006KT 3SM OVC001 11/10 A3005 RMK AO2 SLP174 T01060100=
201906011245 SPECI KPAE 011245Z AUTO VRB04KT 2 1/2SM R16R/6000VP6000FT OVC001 11/10 A3004 RMK AO2 T01060100=
201906011223 SPECI KPAE 011223Z AUTO 35004KT 6SM OVC001 11/11 A3004 RMK AO2 T01110106=
201906011216 SPECI KPAE 011216Z AUTO 34004KT 7SM BKN003 11/11 A3004 RMK AO2 T01110106=
201906011203 SPECI KPAE 011203Z AUTO 35004KT 7SM SCT003 11/10 A3003 RMK AO2 T01060100=
201906011153 METAR KPAE 011153Z AUTO 33004KT 8SM CLR 11/10 A3003 RMK AO2 SLP168 T01060100 10133 20106 50000=
201906011106 SPECI KPAE 011106Z AUTO 03003KT 8SM SCT001 11/11 A3003 RMK AO2 T01110106=
201906011053 METAR KPAE 011053Z AUTO 02004KT 6SM BKN001 11/11 A3003 RMK AO2 SLP169 T01110106=
201906011044 SPECI KPAE 011044Z AUTO 02005KT 5SM BKN001 11/11 A3003 RMK AO2 T01110106=
201906011018 SPECI KPAE 011018Z AUTO 02006KT 7SM SCT001 11/11 A3003 RMK AO2 T01110106=
201906011001 SPECI KPAE 011001Z AUTO 02006KT 4SM OVC001 11/11 A3003 RMK AO2 T01110106=
201906010953 METAR KPAE 010953Z AUTO 01007KT 4SM R16R/4500VP6000FT OVC002 11/11 A3004 RMK AO2 SLP170 T01110106=
201906010926 SPECI KPAE 010926Z AUTO 36006KT 8SM BKN002 11/11 A3004 RMK AO2 T01110106=
201906010914 SPECI KPAE 010914Z AUTO 02006KT 9SM SCT002 12/11 A3004 RMK AO2 T01170106=
201906010853 METAR KPAE 010853Z AUTO 01006KT 8SM CLR 12/11 A3003 RMK AO2 SLP168 T01170106 50000=
201906010829 SPECI KPAE 010829Z AUTO 02008KT 9SM SCT002 12/11 A3003 RMK AO2 T01170106=
201906010808 SPECI KPAE 010808Z AUTO 01006KT 9SM BKN002 12/11 A3004 RMK AO2 T01170111=
201906010753 METAR KPAE 010753Z AUTO 01007KT 9SM SCT002 12/11 A3004 RMK AO2 SLP172 T01170111 402110106=
201906010741 SPECI KPAE 010741Z AUTO 02006KT 9SM SCT002 12/11 A3004 RMK AO2 T01220111=
201906010653 METAR KPAE 010653Z AUTO 02006KT 8SM CLR 12/11 A3004 RMK AO2 SLP171 T01220111=
201906010553 METAR KPAE 010553Z AUTO 36006KT 10SM CLR 13/12 A3003 RMK AO2 SLP169 T01330117 10206 20133 53003=
201906010453 METAR KPAE 010453Z 05005KT 10SM CLR 16/12 A3002 RMK AO2 SLP167 T01610117=
201906010353 METAR KPAE 010353Z 02005KT 10SM CLR 15/11 A3002 RMK AO2 SLP166 T01500106=
201906010253 METAR KPAE 010253Z 35006KT 10SM CLR 16/11 A3002 RMK AO2 SLP167 T01610111 55004=
201906010153 METAR KPAE 010153Z 35006KT 10SM CLR 18/12 A3002 RMK AO2 SLP166 T01780117=
201906010053 METAR KPAE 010053Z 35008KT 10SM CLR 18/12 A3003 RMK AO2 SLP167 T01780117=

# No short TAF reports from KPAE in databse.

###################################
#  large TAF from KPAE
###################################
201906302320 TAF KPAE 302320Z 0100/0124 32008KT P6SM FEW050 FM010600 VRB03KT
                       P6SM SKC FM012000 32008KT P6SM SCT040 SCT120=
201906301720 TAF KPAE 301720Z 3018/0118 36004KT P6SM SCT200 FM302200 34007KT
                       P6SM FEW050 SCT200 FM010300 35005KT P6SM
                       SCT070 FM010600 02004KT P6SM SCT060=
201906301206 KPAE 301206Z 3012/0112 34003KT P6SM SKC FM301800 33005KT P6SM SKC
                       FM302200 34007KT P6SM FEW050 SCT200 FM010300
                       35005KT P6SM SCT070 FM010600 02004KT P6SM
                       SCT060=
201906301159 TAF KPAE 301159Z 3012/0112 34003KT P6SM SKC FM302200 33008KT P6SM
                       FEW050 SCT200 FM010300 VRB04KT P6SM SCT200=
201906300520 TAF KPAE 300520Z 3006/0106 36008KT P6SM FEW050 SCT200 FM300700
                       02005KT P6SM SCT200 FM301200 VRB03KT P6SM
                       SCT200 FM302200 33008KT P6SM FEW050 SCT200
                       FM010300 VRB04KT P6SM SCT200=
201906292320 TAF KPAE 292320Z 3000/3024 36008KT P6SM FEW050 SCT200 FM300600
                       02005KT P6SM SCT200 FM301200 VRB03KT P6SM
                       SCT200 FM302200 33008KT P6SM FEW050 SCT200=
201906291720 TAF KPAE 291720Z 2918/3018 36005KT P6SM FEW040 SCT120 BKN200 FM292200
                       36007KT P6SM FEW060 SCT120 SCT200 FM300600
                       04004KT P6SM SCT200=
201906291136 TAF KPAE 291136Z 2912/3012 00000KT P6SM SKC FM291400 VRB03KT P6SM
                       SCT010 FM291700 33003KT P6SM SCT050 FM291900
                       34005KT P6SM SCT250 FM300600 02004KT P6SM
                       SKC=
201906290530 TAF KPAE 290530Z 2906/3006 34005KT P6SM BKN080 FM291200 02003KT
                       P6SM SCT025 OVC035 FM291700 35003KT P6SM
                       BKN050 OVC070 FM291900 34005KT P6SM SCT250=
201906282335 TAF KPAE 282335Z 2900/2924 27008KT P6SM BKN070 FM290300 34005KT
                       P6SM BKN070 FM291200 02003KT P6SM SCT025
                       OVC035 FM291700 35003KT P6SM BKN050 OVC070
                       FM291900 34005KT P6SM SCT250=
201906281735 TAF KPAE 281735Z 2818/2918 22006KT P6SM BKN050 FM282300 29006KT
                       P6SM BKN070 FM290300 34005KT P6SM BKN070
                       FM291200 02003KT P6SM SCT025 OVC035 FM291700
                       35003KT P6SM BKN050 OVC070=
201906281138 TAF KPAE 281138Z 2812/2912 17006KT P6SM FEW050 BKN080 FM281400
                       17006KT P6SM OVC035 FM281900 22006KT P6SM
                       BKN050 FM282300 29006KT P6SM BKN070 FM290200
                       34005KT P6SM BKN070 FM290500 35002KT P6SM
                       BKN070=
201906280534 TAF KPAE 280534Z 2806/2906 VRB06KT P6SM VCSH FEW030 BKN060 BKN080
                       TEMPO 2806/2809 -RA FM281200 17006KT P6SM
                       OVC035 FM281900 VRB05KT P6SM OVC050 FM282300
                       29006KT P6SM OVC050=
201906272326 TAF KPAE 272326Z 2800/2824 24008KT P6SM VCSH SCT040 BKN060 FM280600
                       19003KT P6SM BKN035 OVC060 FM281200 16004KT
                       P6SM OVC025 FM281900 VRB05KT P6SM OVC050=
201906271722 TAF KPAE 271722Z 2718/2818 17011KT P6SM VCSH SCT015 BKN080 FM272000
                       22006KT P6SM VCSH SCT035 BKN060 FM272200
                       24006KT P6SM VCSH BKN035 OVC060 FM280300
                       19003KT P6SM BKN035 OVC060 FM280800 16004KT
                       P6SM OVC030=
201906271133 TAF KPAE 271133Z 2712/2812 18010KT P6SM -SHRA FEW035 BKN070 OVC080
                       TEMPO 2712/2716 5SM -SHRA BR OVC015 FM272000
                       22006KT P6SM -SHRA SCT035 BKN060 FM272200
                       24006KT P6SM VCSH BKN035 OVC060 FM280300
                       19003KT P6SM BKN035 OVC060=
201906270536 TAF KPAE 270536Z 2706/2806 VRB04KT P6SM BKN080 BKN100 FM271100
                       17009KT 6SM -SHRA BR OVC020 FM272000 22006KT
                       P6SM -SHRA OVC020 FM272200 24006KT P6SM
                       -SHRA BKN035 OVC060=
201906270023 KPAE 270023Z 2700/2724 VRB05KT P6SM VCSH BKN070 BKN100 FM270300
                       15004KT P6SM -SHRA BKN050 OVC080 FM271100
                       17009KT 6SM -SHRA BR OVC020 FM272000 19008KT
                       P6SM -SHRA BKN035 OVC060=
201906262321 TAF KPAE 262321Z 2700/2724 31005KT P6SM VCSH BKN070 BKN100
                      TEMPO 2700/2703 -TSRA BKN045 OVC070CB FM270300
                       15004KT P6SM -SHRA BKN050 OVC080 FM271100
                       17009KT 6SM -SHRA BR OVC020 FM272000 19008KT
                       P6SM -SHRA BKN035 OVC060=
201906261737 TAF KPAE 261737Z 2618/2718 VRB05KT P6SM SCT022 BKN070 FM262000
                       31005KT P6SM VCSH BKN060 BKN080
                      TEMPO 2622/2702 -TSRA BKN045 OVC070CB FM270200
                       14004KT P6SM -SHRA BKN050 OVC080 FM271000
                       17007KT 6SM -SHRA OVC020=
201906261620 KPAE 261620Z 2616/2712 VRB05KT P6SM FEW050 SCT080
                      TEMPO 2616/2618 BKN015 FM262000 31005KT P6SM
                       VCSH BKN060 OVC100 FM262300 31006KT P6SM
                       -SHRA BKN050 OVC080 FM270700 14004KT P6SM
                       -SHRA BKN050 OVC080 FM271000 17007KT 6SM
                       -SHRA OVC020=
201906261314 KPAE 261314Z 2613/2712 VRB05KT P6SM FEW050 BKN090 FM262000 31005KT
                       P6SM VCSH BKN060 OVC100 FM262300 31006KT
                       P6SM -SHRA BKN050 OVC080 FM270700 14004KT
                       P6SM -SHRA BKN050 OVC080 FM271000 17007KT
                       6SM -SHRA OVC020=
201906261139 TAF KPAE 261139Z 2612/2712 VRB05KT P6SM FEW050 SCT090 FM262000
                       31005KT P6SM VCSH BKN060 OVC100 FM262300
                       29006KT P6SM -SHRA BKN050 OVC080=
201906260537 TAF KPAE 260537Z 2606/2706 36005KT P6SM BKN070 OVC090 FM261200
                       19005KT P6SM SCT030 BKN060 OVC100 FM262000
                       31005KT P6SM VCSH BKN060 OVC100 FM262300
                       29006KT P6SM -SHRA BKN050 OVC080=
201906252322 TAF KPAE 252322Z 2600/2624 30006KT P6SM VCSH BKN090 OVC120 FM260400
                       35005KT P6SM BKN070 OVC100 FM261200 19005KT
                       P6SM SCT030 BKN060 OVC100 FM262000 31005KT
                       P6SM VCSH BKN060 OVC100 FM262300 32006KT
                       P6SM -SHRA BKN050 OVC080=
201906251723 TAF KPAE 251723Z 2518/2618 VRB05KT P6SM SCT120 BKN200 FM252200
                       30006KT P6SM BKN120 OVC200 FM260500 35005KT
                       P6SM BKN080 OVC120 FM261200 19005KT P6SM
                       SCT030 BKN060 OVC100=
201906251130 TAF KPAE 251130Z 2512/2612 01004KT P6SM SCT200 FM251700 27005KT
                       P6SM SCT120 BKN200 FM252300 28006KT P6SM
                       BKN120 OVC200 FM260400 35005KT P6SM BKN060
                       OVC100=
201906250523 TAF KPAE 250523Z 2506/2606 01005KT P6SM SCT200 FM251200 VRB04KT
                       P6SM SCT008 SCT200 FM251700 27005KT P6SM
                       SCT120 BKN200 FM252300 28006KT P6SM BKN120
                       OVC200 FM260400 36005KT P6SM BKN060 OVC100=
201906242320 TAF KPAE 242320Z 2500/2524 27006KT P6SM SCT035 SCT200 FM250400
                       36005KT P6SM SCT200 FM251200 VRB04KT P6SM
                       SCT008 SCT200 FM251700 29005KT P6SM SCT120
                       BKN200 FM252300 28006KT P6SM BKN120 OVC200=
201906241723 TAF KPAE 241723Z 2418/2518 VRB03KT P6SM SCT015 OVC030
                      TEMPO 2418/2420 6SM BR BKN012 OVC025 FM242000
                       22005KT P6SM SCT020 BKN035 FM242200 30005KT
                       P6SM SCT040 FM250300 36006KT P6SM SCT040
                       FM250700 VRB03KT P6SM SCT040 SCT200 FM251500
                       VRB04KT P6SM SCT008 SCT200=
201906241131 TAF KPAE 241131Z 2412/2512 VRB03KT P6SM SCT015 OVC030 FM241900
                       22005KT P6SM OVC035 FM242100 30005KT P6SM
                       BKN040 FM250100 33006KT P6SM SCT040 FM250700
                       VRB03KT P6SM SCT040 SCT250=
201906240523 TAF KPAE 240523Z 2406/2506 34005KT P6SM VCSH SCT015 OVC040
                      TEMPO 2406/2410 4SM -RA BKN015 FM241000 20004KT
                       P6SM OVC012 FM241900 22005KT P6SM BKN025
                       FM242100 24005KT P6SM BKN030 FM250000 33004KT
                       P6SM SCT040=
201906240403 KPAE 240403Z 2404/2424 34008KT P6SM VCSH BKN015 OVC022
                      TEMPO 2404/2408 4SM -DZ FM240800 01006KT
                       P6SM VCSH SCT007 OVC017 FM241200 20004KT
                       P6SM OVC012 FM241900 22005KT P6SM BKN020
                       FM242100 24005KT P6SM BKN030=
201906232333 TAF KPAE 232333Z 2400/2424 34008KT P6SM VCSH BKN015 OVC022 FM240800
                       01006KT P6SM VCSH SCT007 OVC017 FM241200
                       20004KT P6SM OVC012 FM241900 22005KT P6SM
                       BKN020 FM242100 24005KT P6SM BKN030=
201906232152 KPAE 232152Z 2322/2418 VRB06KT P6SM BKN012 OVC035 FM232300 34008KT
                       P6SM SCT012 BKN035 FM240900 01006KT P6SM
                       VCSH SCT007 OVC017 FM241100 VRB03KT P6SM
                       VCSH SCT007 OVC017=
201906231736 TAF KPAE 231736Z 2318/2418 VRB06KT P6SM OVC010
                      TEMPO 2318/2319 3SM -DZ OVC007 FM232100 34008KT
                       P6SM OVC035 FM240900 01006KT P6SM VCSH SCT007
                       OVC017 FM241100 VRB03KT P6SM VCSH SCT007
                       OVC017=
201906231131 TAF KPAE 231131Z 2312/2412 35009KT P6SM OVC018
                      TEMPO 2312/2316 -DZ OVC009 FM231800 23006KT
                       P6SM OVC020 FM232100 26008KT P6SM OVC030
                       FM240100 34006KT P6SM BKN040 FM240600 01006KT
                       P6SM OVC025 FM241100 VRB03KT P6SM OVC015=
201906230530 TAF KPAE 230530Z 2306/2406 35007KT P6SM SCT025 OVC035 FM230900
                       35005KT P6SM OVC025 FM231200 VRB04KT P6SM
                       OVC015 FM231800 23005KT P6SM OVC020 FM232100
                       25005KT P6SM BKN025 OVC030 FM240000 33005KT
                       P6SM SCT030 BKN040=
201906222336 TAF KPAE 222336Z 2300/2324 25006KT P6SM OVC022 FM230300 35007KT
                       P6SM VCSH BKN010 OVC020 FM230900 35005KT
                       P6SM -SHRA OVC010 FM231500 VRB04KT P6SM
                       VCSH SCT008 OVC010 FM231800 23005KT P6SM
                       OVC015 FM232100 25005KT P6SM BKN025=
201906221739 TAF KPAE 221739Z 2218/2318 24008KT P6SM FEW008 OVC020 FM222300
                       35011KT P6SM BKN040 BKN200 FM230400 01007KT
                       P6SM VCSH BKN010 OVC040 FM230900 35005KT
                       P6SM -SHRA OVC010=
201906221130 TAF KPAE 221130Z 2212/2312 20008KT P6SM OVC010 FM221900 21008KT
                       P6SM OVC020 FM222300 26009KT P6SM BKN040
                       FM230600 36007KT P6SM OVC025 FM230900 35005KT
                       P6SM -SHRA OVC010=
201906220520 TAF KPAE 220520Z 2206/2306 22005KT P6SM FEW050 SCT250 FM221100
                       21006KT P6SM OVC012 FM222000 22009KT P6SM
                       BKN015 FM222200 24009KT P6SM BKN025 FM230000
                       35005KT P6SM SCT030=
201906212331 TAF KPAE 212331Z 2200/2224 28007KT P6SM FEW035 FM221100 20007KT
                       P6SM OVC015 FM222300 26007KT P6SM SCT040=
201906211738 TAF KPAE 211738Z 2118/2218 24006KT P6SM BKN021 OVC028 FM212000
                       23006KT P6SM BKN045 FM220200 01004KT P6SM
                       SCT050 FM221000 17006KT P6SM OVC012=
201906211339 KPAE 211339Z 2114/2212 19008KT P6SM SCT018 OVC040
                      TEMPO 2114/2116 BKN015 FM211900 23007KT P6SM
                       BKN045 FM220200 VRB05KT P6SM SCT050 SCT100
                       FM221100 VRB04KT P6SM OVC020=
201906211129 TAF KPAE 211129Z 2112/2212 19008KT P6SM SCT025 OVC090
                      TEMPO 2112/2116 BKN025 FM211900 23007KT P6SM
                       BKN045 FM220200 VRB05KT P6SM SCT050 SCT100
                       FM221100 VRB04KT P6SM OVC020=
201906210900 KPAE 210900Z 2109/2206 18010KT P6SM VCSH BKN025 OVC080
                      TEMPO 2109/2112 -SHRA FM211200 18006KT P6SM
                       BKN015 BKN070 FM211900 30005KT P6SM SCT025
                       BKN050 FM212200 30007KT P6SM SCT050 BKN120=
201906210740 KPAE 210740Z 2108/2206 VRB04KT P6SM VCSH BKN030 OVC080
                      TEMPO 2108/2110 -SHRA FM211000 VRB04KT P6SM
                       SCT020 BKN070 FM211200 18006KT P6SM BKN015
                       BKN070 FM211900 30005KT P6SM SCT025 BKN050
                       FM212200 30007KT P6SM SCT050 BKN120=
201906210520 TAF KPAE 210520Z 2106/2206 VRB04KT P6SM SCT040 BKN090 FM211000
                       VRB04KT P6SM SCT020 BKN070 FM211200 18006KT
                       P6SM BKN015 BKN070 FM211900 30005KT P6SM
                       SCT025 BKN050 FM212200 30007KT P6SM SCT050
                       BKN120=
201906202323 TAF KPAE 202323Z 2100/2124 22009KT P6SM BKN250 FM211200 VRB05KT
                       P6SM OVC012 FM212000 25005KT P6SM BKN040=
201906202126 KPAE 202126Z 2021/2118 24003KT P6SM VCSH FEW040 FM210000 33006KT
                       P6SM OVC060 FM210800 VRB03KT P6SM OVC030
                       FM211100 17005KT P6SM OVC015=
201906201735 TAF KPAE 201735Z 2018/2118 23006KT P6SM VCSH FEW024 OVC045
                      TEMPO 2018/2022 -SHRA OVC022 FM210000 33006KT
                       P6SM OVC060 FM210800 VRB03KT P6SM OVC030
                       FM211100 17005KT P6SM OVC015=
201906201608 KPAE 201608Z 2016/2112 23005KT P6SM -SHRA BKN006 BKN012 OVC035
                       FM201800 27004KT P6SM BKN015 FM202100 31007KT
                       P6SM BKN060 FM210900 VRB03KT P6SM VCSH OVC025=
201906201337 KPAE 201337Z 2014/2112 VRB04KT P6SM VCSH OVC030
                      TEMPO 2014/2016 -SHRA FM201600 VRB04KT P6SM
                       OVC020 FM201800 27004KT P6SM BKN025 FM202100
                       31007KT P6SM BKN060 FM210900 VRB03KT P6SM
                       VCSH OVC025=
201906201133 TAF KPAE 201133Z 2012/2112 VRB03KT P6SM VCSH BKN020 OVC030
                      TEMPO 2012/2014 -SHRA OVC020 FM201400 VRB04KT
                       P6SM OVC020 FM201800 27004KT P6SM BKN025
                       FM202100 31007KT P6SM BKN060 FM210900 VRB03KT
                       P6SM VCSH OVC025=
201906200900 KPAE 200900Z 2009/2106 VRB05KT P6SM VCSH SCT020 OVC035
                      TEMPO 2009/2012 -RA OVC030 FM201300 20004KT
                       P6SM OVC020 FM201800 25005KT P6SM SCT025
                       OVC040 FM202100 31004KT P6SM FEW030 BKN060=
201906200524 TAF KPAE 200524Z 2006/2106 03003KT P6SM VCSH SCT035 BKN070
                      TEMPO 2006/2009 -SHRA OVC035 FM200900 02004KT
                       P6SM OVC035 FM201300 20004KT P6SM OVC020
                       FM201800 25005KT P6SM SCT025 OVC040 FM202100
                       31004KT P6SM FEW030 BKN060=
201906192325 TAF KPAE 192325Z 2000/2024 05006KT P6SM SCT030 BKN070
                      TEMPO 2000/2004 -SHRA BKN030 OVC070 FM200600
                       03006KT 4SM -SHRA BKN015 OVC030 FM201000
                       20005KT P6SM OVC020 FM201700 25005KT P6SM
                       SCT020 OVC050 FM202100 29006KT P6SM FEW025
                       BKN060=
201906191908 KPAE 191908Z 1919/2018 31008KT P6SM SCT035 BKN080
                      TEMPO 1919/1923 BKN035 OVC080 FM192300 34012KT
                       P6SM -SHRA BKN025 OVC060 FM201000 34012KT
                       4SM -SHRA BKN006 OVC010=
201906191722 TAF KPAE 191722Z 1918/2018 19005KT P6SM BKN021 OVC060 FM192300
                       34012KT P6SM -SHRA BKN025 OVC060 FM201000
                       34012KT 4SM -SHRA BKN006 OVC010=
201906191140 TAF KPAE 191140Z 1912/2012 VRB03KT P6SM OVC022 FM191800 18008KT
                       P6SM SCT025 BKN045 FM192300 34012KT P6SM
                       -SHRA BKN025 OVC040 FM201000 34012KT 4SM
                       -SHRA BKN006 OVC010=
201906190538 TAF KPAE 190538Z 1906/2006 36006KT P6SM VCSH OVC025
                      TEMPO 1906/1910 P6SM BKN015 OVC025 FM191800
                       19009KT P6SM VCSH BKN020 OVC035 FM192300
                       34012KT P6SM -SHRA BKN025 OVC040 FM200200
                       36015KT P6SM OVC050=
201906182345 TAF KPAE 182345Z 1900/1924 34007KT P6SM BKN025 BKN040 FM190700
                       01010KT P6SM BKN017 OVC025 FM191800 19009KT
                       P6SM VCSH BKN020 OVC035 FM192300 34006KT
                       P6SM -SHRA BKN025 OVC040=
201906181724 TAF KPAE 181724Z 1818/1918 02006KT P6SM SCT012 OVC027
                      TEMPO 1818/1821 5SM -DZ BR BKN014 OVC022
                       FM182100 01007KT P6SM SCT025 BKN040 FM190700
                       01010KT P6SM BKN012 BKN025 FM191600 19009KT
                       P6SM VCSH BKN017 OVC030=
201906181139 TAF KPAE 181139Z 1812/1912 01006KT P6SM BKN004 OVC008
                      TEMPO 1813/1817 2SM -DZ FM181900 01006KT
                       P6SM SCT008 BKN015 OVC030 FM182100 01006KT
                       P6SM SCT025 BKN040 FM190700 01010KT P6SM
                       BKN008 BKN025=
201906180536 TAF KPAE 180536Z 1806/1906 02010KT P6SM BKN035 BKN050 BKN200 FM180900
                       02006KT P6SM SCT030 OVC050 FM181200 01006KT
                       6SM -DZ BR OVC009 FM182000 30006KT P6SM
                       SCT025 BKN035 FM182200 31007KT P6SM SCT025
                       BKN050 FM190200 36012KT P6SM BKN035 BKN100=
201906172329 TAF KPAE 172329Z 1800/1824 32006KT P6SM BKN200 FM180300 01011KT
                       P6SM BKN200 FM180900 36006KT P6SM OVC010
                       FM181200 01006KT 6SM -DZ BR OVC009 FM182000
                       30006KT P6SM BKN018 FM182200 34007KT P6SM
                       SCT022 BKN050=
201906171721 TAF KPAE 171721Z 1718/1818 VRB04KT P6SM BKN009
                      TEMPO 1718/1720 SCT012 SCT040 FM172000 32006KT
                       P6SM FEW020 SCT050 BKN200 FM180300 01011KT
                       P6SM SCT040 BKN200 FM180900 36006KT P6SM
                       OVC008 FM181200 01006KT 6SM -DZ BR OVC007=
201906171126 TAF KPAE 171126Z 1712/1812 02006KT P6SM OVC003 FM171600 02004KT
                       P6SM OVC006 FM171900 02004KT P6SM OVC011
                       FM172000 34006KT P6SM SCT050 BKN200 FM181000
                       36006KT P6SM OVC008=
201906171028 KPAE 171028Z 1710/1806 02006KT P6SM OVC003 FM171600 02004KT P6SM
                       OVC006 FM171900 02004KT P6SM OVC011 FM172000
                       34006KT P6SM SCT020 SCT050 BKN200 FM180400
                       36008KT P6SM BKN050=
201906170539 TAF KPAE 170539Z 1706/1806 02006KT P6SM SCT200 FM171100 02004KT
                       P6SM OVC050 FM171300 03004KT P6SM OVC020
                       FM171900 28005KT P6SM OVC050 FM172100 30006KT
                       P6SM SCT020 SCT050 BKN200 FM180400 36008KT
                       P6SM BKN050=
201906162320 TAF KPAE 162320Z 1700/1724 30007KT P6SM BKN200 FM170300 36006KT
                       P6SM SCT200 FM170900 02005KT P6SM SCT008
                       SCT200 FM171100 VRB04KT P6SM OVC008 FM172100
                       29006KT P6SM SCT020 SCT050 BKN200=
201906161725 TAF KPAE 161725Z 1618/1718 30005KT P6SM SCT200 FM170100 36006KT
                       P6SM SCT200 FM170700 02005KT P6SM SCT008
                       SCT200
                      TEMPO 1707/1710 BKN008 FM171000 VRB04KT P6SM
                       OVC008=
201906161549 KPAE 161549Z 1616/1712 01004KT P6SM SCT006 FM161700 01008KT P6SM
                       SCT200=
201906161327 KPAE 161327Z 1613/1712 01004KT P6SM OVC004 FM161700 01008KT P6SM
                       SCT200=
201906161135 TAF KPAE 161135Z 1612/1712 01008KT P6SM SCT200
                      TEMPO 1614/1616 6SM BR SCT002=
201906160538 TAF KPAE 160538Z 1606/1706 36005KT P6SM FEW250 FM161100 VRB04KT
                       P6SM SCT005 BKN200 FM161700 32005KT P6SM
                       SCT200 FM170000 35006KT P6SM SCT250=
201906152327 TAF KPAE 152327Z 1600/1624 32006KT P6SM SKC FM160200 36005KT P6SM
                       SKC FM161100 VRB04KT P6SM SCT005 BKN200
                       FM161700 32005KT P6SM SCT200=
201906151726 TAF KPAE 151726Z 1518/1618 35004KT P6SM OVC006
                      TEMPO 1519/1521 SCT010 BKN040 FM152100 35008KT
                       P6SM SCT040 FM160200 35008KT P6SM SKC FM161100
                       VRB04KT P6SM SCT005 BKN200 FM161700 32005KT
                       P6SM SCT200=
201906151455 KPAE 151455Z 1515/1612 35004KT 6SM BR OVC004
                      TEMPO 1515/1517 2SM BR OVC003 FM151700 35004KT
                       P6SM OVC006 FM152000 35008KT P6SM SCT010
                       FM152100 35008KT P6SM SKC=
201906151137 TAF KPAE 151137Z 1512/1612 35004KT P6SM OVC004 FM151600 35004KT
                       P6SM OVC006 FM151900 35008KT P6SM SCT010
                       FM152100 35008KT P6SM SKC=
201906150520 TAF KPAE 150520Z 1506/1606 VRB04KT P6SM FEW040 FM151200 VRB04KT
                       P6SM SCT025 BKN040
                      TEMPO 1512/1516 BKN025 BKN040 FM151800 33007KT
                       P6SM SCT040 FM160500 04006KT P6SM SKC=
201906142320 TAF KPAE 142320Z 1500/1524 27005KT P6SM BKN030 FM150500 01003KT
                       P6SM BKN025 FM151200 34004KT P6SM OVC025
                       FM152000 32007KT P6SM SCT030 FM152100 32008KT
                       P6SM FEW030 SCT120=
201906141720 TAF KPAE 141720Z 1418/1518 22008KT P6SM OVC014 FM142000 23007KT
                       P6SM BKN020 FM142200 25007KT P6SM SCT040
                       FM150000 35004KT P6SM SCT040 FM151200 35004KT
                       P6SM BKN015=
201906141624 KPAE 141624Z 1416/1512 VRB04KT P6SM SCT005 OVC009 FM141900 25006KT
                       P6SM BKN018 FM142200 28005KT P6SM SCT040
                       FM150300 27006KT P6SM SCT040=
201906141127 TAF KPAE 141127Z 1412/1512 VRB04KT P6SM SCT018 BKN035
                      TEMPO 1412/1416 BKN010 OVC015 FM141900 25006KT
                       P6SM BKN035 FM142100 28005KT P6SM SCT040
                       FM150300 27006KT P6SM SCT040=
201906140520 TAF KPAE 140520Z 1406/1506 32008KT P6SM BKN035 FM140900 VRB04KT
                       P6SM SCT018 BKN035
                      TEMPO 1412/1416 BKN018 OVC035 FM141900 18007KT
                       P6SM BKN035 FM142100 23007KT P6SM SCT040
                       FM150300 30007KT P6SM SCT040=
201906132320 TAF KPAE 132320Z 1400/1424 35007KT P6SM BKN250 FM140300 35008KT
                       P6SM FEW250 FM141000 VRB05KT P6SM BKN008
                       FM141200 22006KT P6SM OVC006 FM142000 19005KT
                       P6SM SCT012 BKN020 FM142100 19007KT P6SM
                       SCT030=
201906132225 KPAE 132225Z 1322/1418 01006KT P6SM BKN250 FM140100 33010KT P6SM
                       BKN250 FM141000 01005KT P6SM BKN008 FM141200
                       20006KT P6SM OVC005=
201906131728 TAF KPAE 131728Z 1318/1418 22008KT P6SM FEW250 FM140100 33010KT
                       P6SM FEW250 FM141000 01005KT P6SM BKN008
                       FM141200 20006KT P6SM OVC005=
201906131130 TAF KPAE 131130Z 1312/1412 VRB03KT P6SM SCT250 FM131900 24008KT
                       P6SM SCT250 FM140000 33010G18KT P6SM SCT250
                       FM140600 01005KT P6SM OVC050 FM140900 01005KT
                       P6SM OVC025=
201906130526 TAF KPAE 130526Z 1306/1406 VRB03KT P6SM SCT150 SCT250 FM131400
                       19006KT P6SM SCT250 FM131900 30010KT P6SM
                       SCT250 FM140300 36008KT P6SM SCT250=
201906122320 TAF KPAE 122320Z 1300/1324 31006KT P6SM FEW060 BKN250 FM130900
                       17005KT P6SM SCT250 FM131900 31008KT P6SM
                       SCT250=
201906121720 TAF KPAE 121720Z 1218/1318 34006KT P6SM BKN250 FM130900 17005KT
                       P6SM SCT250=
201906121125 TAF KPAE 121125Z 1212/1312 VRB03KT P6SM SKC FM122100 35006KT P6SM
                       SCT250 FM130300 36006KT P6SM SCT250 FM130700
                       05004KT P6SM BKN250=
201906120523 TAF KPAE 120523Z 1206/1306 35005KT P6SM SKC FM122100 31006KT P6SM
                       SCT250=
201906112331 TAF KPAE 112331Z 1200/1224 35009G14KT P6SM FEW250 FM120300 35006KT
                       P6SM SKC=
201906112101 KPAE 112101Z 1121/1218 33010G17KT P6SM FEW250 FM120200 36008KT
                       P6SM SKC=
201906111729 TAF KPAE 111729Z 1118/1218 36006KT P6SM FEW250 FM112200 02012KT
                       P6SM SKC FM120200 36008KT P6SM SKC=
201906111120 TAF KPAE 111120Z 1112/1212 VRB03KT 6SM BR FEW250 FM111800 35008KT
                       P6SM SKC FM120500 VRB04KT P6SM SKC=
201906110529 TAF KPAE 110529Z 1106/1206 VRB03KT P6SM SCT250 FM111200 VRB03KT
                       6SM BR FEW250 FM111800 35010KT P6SM SKC
                       FM120500 VRB04KT P6SM SKC=
201906102335 TAF KPAE 102335Z 1100/1124 34008KT P6SM SCT250 FM110600 VRB03KT
                       P6SM FEW250 FM111800 35010KT P6SM SKC=
201906101720 TAF KPAE 101720Z 1018/1118 35010KT P6SM SCT120 SCT250=
201906101120 TAF KPAE 101120Z 1012/1112 33006KT P6SM BKN200 FM110600 04006KT
                       P6SM SCT200=
201906100520 TAF KPAE 100520Z 1006/1106 36005KT P6SM SCT200=
201906092322 TAF KPAE 092322Z 1000/1024 36008KT P6SM BKN250 FM100600 36004KT
                       P6SM SCT200=
201906091722 TAF KPAE 091722Z 0918/1018 VRB03KT P6SM BKN250 FM092100 36006KT
                       P6SM BKN200 FM100600 VRB03KT P6SM SCT200=
201906091120 TAF KPAE 091120Z 0912/1012 36005KT P6SM SCT250 FM092100 32008KT
                       P6SM BKN200 FM100600 04006KT P6SM SCT200=
201906090520 TAF KPAE 090520Z 0906/1006 36004KT P6SM SCT250=
201906082336 TAF KPAE 082336Z 0900/0924 25006KT P6SM SCT060 SCT070 FM090300
                       35005KT P6SM SCT200 FM090600 02005KT P6SM
                       SCT250 FM091700 35005KT P6SM SCT250=
201906081732 TAF KPAE 081732Z 0818/0918 21006KT P6SM FEW015 BKN050
                      TEMPO 0818/0820 BKN015 OVC020 FM082000 24007KT
                       P6SM BKN050 FM090000 30006KT P6SM BKN100
                       FM090300 35005KT P6SM BKN200=
201906081120 TAF KPAE 081120Z 0812/0912 21006KT P6SM OVC025 FM081500 21006KT
                       P6SM BKN025 BKN050 FM081900 21006KT P6SM
                       SCT025 BKN050 FM090000 30006KT P6SM BKN050
                       FM090600 04004KT P6SM SCT050 BKN200=
201906080523 TAF KPAE 080523Z 0806/0906 VRB05KT P6SM OVC040 FM081000 16004KT
                       P6SM OVC015 FM081800 21005KT P6SM BKN050
                       FM082000 25005KT P6SM BKN050 FM090000 34005KT
                       P6SM SCT250=
201906072333 TAF KPAE 072333Z 0800/0824 17005KT P6SM -RA FEW030 OVC050 FM080300
                       18005KT P6SM VCSH OVC050 FM080500 VRB05KT
                       P6SM OVC025 FM081000 16004KT P6SM OVC015
                       FM081800 21005KT P6SM BKN050 FM082000 24005KT
                       P6SM BKN050=
201906071920 KPAE 071920Z 0719/0818 VRB06KT P6SM VCSH SCT025 SCT040 OVC070 FM072000
                       30012KT P6SM VCSH BKN025 OVC050 FM080200
                       VRB05KT P6SM OVC050 FM080500 VRB05KT P6SM
                       OVC025 FM081000 15004KT P6SM OVC015=
201906071738 TAF KPAE 071738Z 0718/0818 21010KT P6SM -SHRA BKN025 OVC050
                      TEMPO 0718/0720 VRB05KT -SHRA BKN007 BKN025
                       OVC050 FM072000 30012KT P6SM VCSH BKN025
                       OVC050 FM080200 VRB05KT P6SM OVC050 FM080500
                       VRB05KT P6SM OVC025 FM081000 15004KT P6SM
                       OVC015=
201906071120 TAF KPAE 071120Z 0712/0812 22010KT P6SM -SHRA OVC025
                      TEMPO 0712/0716 5SM SHRA BR OVC015 FM071600
                       24010KT P6SM -SHRA BKN025 OVC050
                      TEMPO 0716/0720 VRB05KT 4SM SHRA BR OVC015
                       FM072000 30012KT P6SM VCSH BKN025 OVC050
                       FM080200 VRB05KT P6SM SCT025 BKN050 FM080500
                       18008KT P6SM BKN025=
201906070914 KPAE 070914Z 0709/0806 20008KT P6SM VCSH OVC022 FM071200 18010KT
                       P6SM VCSH BKN025 BKN070 FM071600 18010KT
                       P6SM -SHRA BKN025 OVC050
                      TEMPO 0716/0720 VRB05KT 4SM SHRA BR OVC020
                       FM072000 30012KT P6SM -SHRA BKN025 OVC050
                       FM080200 VRB05KT P6SM VCSH SCT025 BKN050
                       FM080500 18008KT P6SM BKN025=
201906070521 TAF KPAE 070521Z 0706/0806 18010KT P6SM VCSH SCT040 FM071200 20006KT
                       P6SM -SHRA BKN025 FM071900 22006KT P6SM
                       -RA OVC020 FM080100 26006KT P6SM OVC025=
201906062320 TAF KPAE 062320Z 0700/0724 23007KT P6SM VCSH SCT050 BKN070
                      TEMPO 0700/0704 -SHRA SCT025 BKN045 FM070400
                       17006KT P6SM VCSH BKN030 FM070900 20006KT
                       P6SM -SHRA BKN020 FM071900 22006KT P6SM
                       -RA OVC020=
201906061731 TAF KPAE 061731Z 0618/0718 VRB04KT P6SM SCT050 FM061900 23007KT
                       P6SM VCSH SCT025 BKN045 FM070400 17006KT
                       P6SM VCSH BKN030 FM070900 15005KT P6SM -SHRA
                       BKN020=
201906061120 TAF KPAE 061120Z 0612/0712 VRB04KT P6SM BKN040 FM061800 27007KT
                       P6SM VCSH SCT020 BKN040 FM070400 30006KT
                       P6SM -SHRA BKN030=
201906060520 TAF KPAE 060520Z 0606/0706 VRB06KT P6SM BKN030 OVC040 FM061200
                       18006KT P6SM OVC020 FM061800 22008KT P6SM
                       BKN050 FM062100 27007KT P6SM OVC050=
201906052320 TAF KPAE 052320Z 0600/0624 20014G20KT P6SM VCSH BKN035 OVC060 FM060400
                       17009KT P6SM BKN030 OVC045 FM061200 18006KT
                       P6SM OVC020 FM061800 22008KT P6SM SCT025
                       BKN040=
201906051720 TAF KPAE 051720Z 0518/0618 17010KT P6SM BKN050 OVC090 FM052000
                       18012G18KT P6SM OVC050 FM052300 20014G20KT
                       P6SM VCSH BKN035 OVC050 FM060400 17009KT
                       P6SM BKN030 OVC045 FM061200 18006KT P6SM
                       OVC020=
201906051120 TAF KPAE 051120Z 0512/0612 VRB04KT P6SM BKN060 OVC100 FM051400
                       17010KT P6SM BKN050 OVC090 FM052000 18012G18KT
                       P6SM OVC050 FM060200 20014G20KT P6SM VCSH
                       BKN035 OVC050 FM060600 17009KT P6SM BKN030
                       OVC045=
201906050539 TAF KPAE 050539Z 0506/0606 VRB05KT P6SM SCT100 BKN200 FM050800
                       16008KT P6SM BKN100 OVC200 FM051400 17010KT
                       P6SM BKN060 OVC100 FM051900 18012G18KT P6SM
                       OVC050 FM060100 21014G20KT P6SM VCSH BKN035
                       OVC050=
201906042320 TAF KPAE 042320Z 0500/0524 32006KT P6SM SCT040 SCT200 FM050500
                       VRB05KT P6SM BKN200 FM050800 16008KT P6SM
                       BKN120 OVC200 FM051200 17010KT P6SM BKN040
                       OVC120 FM051600 18011KT P6SM OVC050=
201906041726 TAF KPAE 041726Z 0418/0518 VRB05KT P6SM SCT040 SCT200 FM042000
                       32006KT P6SM SCT040 SCT200 FM050500 VRB05KT
                       P6SM BKN200 FM050800 16008KT P6SM BKN120
                       OVC200 FM051200 17010KT P6SM BKN040 OVC120=
201906041131 TAF KPAE 041131Z 0412/0512 VRB05KT P6SM BKN040 FM041700 26005KT
                       P6SM SCT040 SCT200 FM050000 32007KT P6SM
                       SCT040 SCT200 FM050500 VRB05KT P6SM BKN200
                       FM051100 17010KT P6SM BKN120 OVC200=
201906040537 TAF KPAE 040537Z 0406/0506 35008KT P6SM BKN050 FM040900 VRB05KT
                       P6SM SCT020 BKN040 FM041200 VRB04KT P6SM
                       BKN025 FM041600 24004KT P6SM SCT025 BKN040
                       FM041900 29006KT P6SM SCT030 SCT250 FM050500
                       13004KT P6SM SCT250=
201906032332 TAF KPAE 032332Z 0400/0424 VRB05KT P6SM SCT040 SCT200 FM040200
                       35008KT P6SM SCT200 FM040900 VRB05KT P6SM
                       SCT015 FM041200 VRB04KT P6SM BKN015 FM041600
                       24004KT P6SM BKN025 FM041900 27006KT P6SM
                       SCT030 SCT250=
201906031748 TAF KPAE 031748Z 0318/0418 34004KT P6SM SCT015 OVC022 FM032000
                       33006KT P6SM SCT050 SCT200 FM040200 35008KT
                       P6SM SCT200 FM040900 VRB04KT P6SM SCT015
                       FM041200 VRB04KT P6SM BKN015 FM041600 16004KT
                       P6SM BKN025=
201906031252 KPAE 031252Z 0313/0412 VRB05KT P6SM SCT025 BKN050 BKN070
                      TEMPO 0313/0317 BKN022 OVC050 FM031700 24006KT
                       P6SM SCT022 BKN050 FM032000 30007KT P6SM
                       SCT050 SCT200 FM040200 35008KT P6SM SCT200
                       FM040900 VRB04KT P6SM SCT010=
201906031121 TAF KPAE 031121Z 0312/0412 VRB05KT P6SM SCT020 BKN050 BKN070 FM031700
                       24006KT P6SM SCT022 BKN050 FM032000 30007KT
                       P6SM SCT050 SCT200 FM040200 35008KT P6SM
                       SCT200 FM040900 VRB04KT P6SM SCT010=
201906030851 KPAE 030851Z 0309/0406 VRB04KT P6SM OVC060 FM031000 16007KT P6SM
                       SCT020 BKN050 FM031700 24006KT P6SM SCT022
                       BKN050 FM032000 30007KT P6SM SCT050 SCT200
                       FM040200 35008KT P6SM SCT200=
201906030537 TAF KPAE 030537Z 0306/0406 35008KT P6SM OVC060 FM031000 20006KT
                       P6SM OVC009 FM031800 25006KT P6SM SCT012
                       BKN035 FM031900 30007KT P6SM SCT045 FM040200
                       35012KT P6SM SCT250=
201906022320 TAF KPAE 022320Z 0300/0324 26008KT P6SM FEW030 BKN200 FM030200
                       35008KT P6SM BKN200 FM031000 20006KT P6SM
                       OVC009 FM031700 25006KT P6SM SCT012 BKN035
                       FM031900 30007KT P6SM SCT045=
201906021724 TAF KPAE 021724Z 0218/0318 26006KT P6SM SCT200 FM030200 35008KT
                       P6SM SCT200 FM031000 20006KT P6SM OVC009=
201906021501 KPAE 021501Z 0215/0312 00000KT P6SM BCFG SCT250 FM021800 27007KT
                       P6SM SCT200 FM030200 35009KT P6SM SCT200
                       FM031000 24006KT P6SM OVC009=
201906021120 TAF KPAE 021120Z 0212/0312 VRB03KT P6SM SCT005 SCT050
                      TEMPO 0213/0215 6SM BR BKN005 FM021500 VRB04KT
                       6SM BR OVC005 FM021700 25005KT P6SM OVC007
                       FM021900 29007KT P6SM SCT200 FM030200 35009KT
                       P6SM SCT200 FM031000 24006KT P6SM OVC009=
201906020538 TAF KPAE 020538Z 0206/0306 01005KT P6SM SCT250 FM021200 VRB03KT
                       6SM BR OVC004 FM021700 25005KT P6SM OVC007
                       FM021900 29007KT P6SM SCT200 FM030200 35009KT
                       P6SM SCT250=
201906012320 TAF KPAE 012320Z 0200/0224 36007KT P6SM FEW035 SCT250 FM020300
                       01003KT P6SM SCT250 FM021200 VRB03KT 6SM
                       BR OVC004 FM021700 25005KT P6SM OVC007 FM021900
                       29007KT P6SM SCT200=
201906011720 TAF KPAE 011720Z 0118/0218 30005KT P6SM SCT200 FM020300 36005KT
                       P6SM SCT200 FM021200 VRB03KT 6SM BR OVC004=
201906011654 KPAE 011654Z 0117/0212 36004KT P6SM SKC FM011900 30006KT P6SM SKC
                       FM020300 36005KT P6SM SCT200=
201906011126 TAF KPAE 011126Z 0112/0212 VRB03KT 6SM BR BKN002
                      TEMPO 0112/0115 4SM BR OVC001 FM011500 VRB04KT
                       4SM BR OVC001 FM011700 VRB03KT 6SM BR OVC005
                       FM011900 27005KT P6SM SCT200 FM020300 36005KT
                       P6SM SCT200=
201906010831 KPAE 010831Z 0109/0206 01004KT P6SM SCT002
                      TEMPO 0109/0111 6SM BR BKN002 FM011100 VRB03KT
                       3SM BR OVC002 FM011700 VRB03KT 3SM BR OVC005
                       FM011900 27005KT P6SM SKC FM020000 34005KT
                       P6SM SKC=
201906010539 TAF KPAE 010539Z 0106/0206 01004KT P6SM SKC FM011000 VRB03KT 1/2SM
                       FG VV002 FM011700 VRB03KT 3SM BR OVC005
                       FM011900 27005KT P6SM SKC FM020000 34005KT
                       P6SM SKC=