##########################################################
# Query made at 02/15/2025 21:57:43 UTC
# Time interval: from 02/01/2019 00:00  to 02/28/2019 23:59  UTC
##########################################################

##########################################################
# KPAE, Everett, Snohomish County Airport (United States)
# WMO index: -----. WIGOS ID: Unknown
# Latitude 47-55-23N. Longitude 122-16-57W. Altitude 184 m.
##########################################################

###################################
#  METAR/SPECI from KPAE
###################################
201902282353 METAR KPAE 282353Z 34005KT 10SM CLR 08/M04 A3007 RMK AO2 SLP186 T00781044 10078 20033 56006=
201902282253 METAR KPAE 282253Z VRB03KT 10SM CLR 07/M03 A3007 RMK AO2 SLP188 T00721028=
201902282153 METAR KPAE 282153Z 34003KT 10SM CLR 07/M03 A3008 RMK AO2 SLP190 T00721028=
201902282053 METAR KPAE 282053Z 33005KT 10SM CLR 06/M02 A3009 RMK AO2 SLP193 T00611022 58002=
201902281953 METAR KPAE 281953Z VRB04KT 10SM FEW035 06/M02 A3009 RMK AO2 SLP196 T00561022=
201902281853 METAR KPAE 281853Z 15006KT 10SM CLR 05/M04 A3009 RMK AO2 SLP193 T00501039=
201902281753 METAR KPAE 281753Z 00000KT 10SM CLR 03/M03 A3009 RMK AO2 SLP195 T00331028 10033 21006 50004=
201902281653 METAR KPAE 281653Z 10003KT 10SM CLR 02/M04 A3009 RMK AO2 SLP195 T00171039=
201902281553 METAR KPAE 281553Z 11005KT 10SM CLR 01/M04 A3009 RMK AO2 SLP193 T00061039=
201902281453 METAR KPAE 281453Z 09004KT 10SM CLR M01/M03 A3008 RMK AO2 SLP191 T10061033 53002=
201902281353 METAR KPAE 281353Z AUTO 00000KT 10SM CLR M01/M04 A3007 RMK AO2 SLP189 T10061039=
201902281253 METAR KPAE 281253Z AUTO 11007KT 10SM CLR 01/M04 A3007 RMK AO2 SLP187 T00061039=
201902281153 METAR KPAE 281153Z AUTO 12007KT 10SM CLR 01/M03 A3007 RMK AO2 SLP188 T00061033 10028 20000 58002=
201902281053 METAR KPAE 281053Z AUTO 12008KT 10SM CLR 01/M03 A3008 RMK AO2 SLP190 T00061028=
201902280953 METAR KPAE 280953Z AUTO 12008KT 10SM CLR 01/M03 A3008 RMK AO2 SLP192 T00061028=
201902280853 METAR KPAE 280853Z AUTO VRB04KT 10SM CLR 01/M03 A3008 RMK AO2 SLP190 T00111028 51012=
201902280753 METAR KPAE 280753Z AUTO 12005KT 10SM FEW026 02/M03 A3006 RMK AO2 SLP185 T00171028 400441011=
201902280653 METAR KPAE 280653Z AUTO 13007KT 10SM FEW046 02/M02 A3006 RMK AO2 SLP183 T00171022=
201902280553 METAR KPAE 280553Z AUTO 12008KT 10SM FEW030 BKN036 OVC075 03/M03 A3004 RMK AO2 SLP178 T00281028 10039 20028 53022=
201902280453 METAR KPAE 280453Z 12011KT 10SM OVC036 03/M03 A3001 RMK AO2 SLP168 T00331028=
201902280353 METAR KPAE 280353Z 13008KT 10SM OVC055 03/M03 A3000 RMK AO2 SLP164 T00331028=
201902280253 METAR KPAE 280253Z 15013KT 10SM BKN060 OVC070 03/M03 A2998 RMK AO2 SLP156 T00331033 51020=
201902280153 METAR KPAE 280153Z 16007KT 10SM OVC060 04/M04 A2995 RMK AO2 SLP148 T00391039=
201902280053 METAR KPAE 280053Z 19007KT 10SM OVC060 04/M04 A2994 RMK AO2 SLP143 T00391044=
201902272353 METAR KPAE 272353Z 17006KT 10SM OVC060 04/M06 A2992 RMK AO2 SLP135 T00391061 10044 20022 53016=
201902272253 METAR KPAE 272253Z 21004KT 10SM OVC060 04/M07 A2989 RMK AO2 SLP128 T00441067=
201902272153 METAR KPAE 272153Z 22006KT 10SM OVC060 04/M07 A2989 RMK AO2 SLP126 T00391072=
201902272053 METAR KPAE 272053Z 24003KT 10SM FEW047 OVC060 04/M06 A2987 RMK AO2 SLP120 T00391056 51008=
201902271953 METAR KPAE 271953Z 28003KT 10SM OVC055 03/M05 A2986 RMK AO2 SLP118 T00331050=
201902271853 METAR KPAE 271853Z 00000KT 10SM OVC055 03/M07 A2985 RMK AO2 SLP114 T00281067=
201902271753 METAR KPAE 271753Z VRB03KT 10SM OVC065 02/M07 A2984 RMK AO2 SLP111 T00221067 10022 20000 53007=
201902271653 METAR KPAE 271653Z 33006KT 10SM OVC075 02/M08 A2983 RMK AO2 SLP106 T00171083=
201902271553 METAR KPAE 271553Z 34004KT 10SM OVC070 01/M11 A2982 RMK AO2 SLP104 T00111106=
201902271453 METAR KPAE 271453Z 35006KT 10SM OVC070 01/M12 A2982 RMK AO2 SLP104 T00061117 56009=
201902271353 METAR KPAE 271353Z AUTO 35005KT 10SM OVC070 01/M11 A2983 RMK AO2 SLP105 T00061106=
201902271253 METAR KPAE 271253Z AUTO 34003KT 10SM OVC080 00/M11 A2984 RMK AO2 SLP108 T00001111=
201902271153 METAR KPAE 271153Z AUTO 35005KT 10SM OVC090 01/M13 A2985 RMK AO2 SLP112 T00061133 10006 21011 56022=
201902271053 METAR KPAE 271053Z AUTO 36004KT 10SM FEW080 SCT095 M01/M11 A2987 RMK AO2 SLP120 T10111111=
201902270953 METAR KPAE 270953Z AUTO 35004KT 10SM SCT100 M01/M11 A2989 RMK AO2 SLP126 T10061111=
201902270853 METAR KPAE 270853Z AUTO 35005KT 10SM OVC110 M01/M11 A2992 RMK AO2 SLP136 T10061111 56032=
201902270753 METAR KPAE 270753Z AUTO 01005KT 10SM CLR M01/M11 A2994 RMK AO2 SLP143 T10061111 400501011=
201902270653 METAR KPAE 270653Z AUTO 03005KT 10SM CLR 00/M14 A2997 RMK AO2 SLP155 T00001139=
201902270553 METAR KPAE 270553Z AUTO 04006KT 10SM CLR 00/M14 A3001 RMK AO2 SLP168 T00001139 10050 20000 58015=
201902270453 METAR KPAE 270453Z AUTO 07007KT 10SM CLR 01/M14 A3003 RMK AO2 SLP175 T00061139=
201902270353 METAR KPAE 270353Z 07009KT 10SM CLR 01/M13 A3005 RMK AO2 SLP180 T00061133=
201902270253 METAR KPAE 270253Z 07010G18KT 10SM CLR 01/M13 A3006 RMK AO2 SLP183 T00111133 56004=
201902270153 METAR KPAE 270153Z 09011G17KT 10SM CLR 02/M13 A3006 RMK AO2 SLP184 T00221128=
201902270053 METAR KPAE 270053Z 08009G16KT 10SM SCT060 03/M12 A3005 RMK AO2 SLP182 T00331122=
201902262353 METAR KPAE 262353Z VRB06KT 10SM SCT060 04/M07 A3007 RMK AO2 SLP186 T00441072 10050 20022 56016=
201902262253 METAR KPAE 262253Z 30008KT 10SM OVC065 04/M06 A3007 RMK AO2 SLP189 T00441061=
201902262153 METAR KPAE 262153Z 31008KT 10SM SCT060 04/M05 A3009 RMK AO2 SLP195 T00391050=
201902262053 METAR KPAE 262053Z VRB06KT 10SM CLR 04/M04 A3012 RMK AO2 SLP203 T00391044 58007=
201902261953 METAR KPAE 261953Z 35006KT 10SM CLR 04/M05 A3014 RMK AO2 SLP212 T00391050=
201902261853 METAR KPAE 261853Z VRB06KT 10SM CLR 03/M08 A3014 RMK AO2 SLP213 T00331083=
201902261753 METAR KPAE 261753Z 03004KT 10SM CLR 02/M08 A3014 RMK AO2 SLP210 T00221078 10028 21011 51022=
201902261653 METAR KPAE 261653Z 12004KT 10SM CLR 01/M06 A3012 RMK AO2 SLP206 T00061056=
201902261553 METAR KPAE 261553Z 08005KT 10SM CLR 00/M04 A3010 RMK AO2 SLP197 T00001044=
201902261453 METAR KPAE 261453Z 00000KT 10SM SCT095 M01/M05 A3007 RMK AO2 SLP189 T10061050 51019=
201902261353 METAR KPAE 261353Z AUTO VRB03KT 10SM BKN100 00/M04 A3005 RMK AO2 SLP183 T00001044=
201902261253 METAR KPAE 261253Z AUTO 32004KT 10SM BKN070 OVC090 00/M05 A3004 RMK AO2 SLP177 T00001050=
201902261153 METAR KPAE 261153Z AUTO 28005KT 10SM BKN060 OVC090 01/M06 A3001 RMK AO2 SLP169 T00061056 10017 20000 52018=
201902261053 METAR KPAE 261053Z AUTO 29003KT 10SM SCT060 OVC100 00/M06 A2999 RMK AO2 SLP162 T00001056=
201902260953 METAR KPAE 260953Z AUTO 29004KT 10SM BKN070 OVC090 01/M07 A2998 RMK AO2 SLP157 T00061067=
201902260853 METAR KPAE 260853Z AUTO 32004KT 10SM BKN075 OVC095 01/M06 A2996 RMK AO2 SLP150 T00111061 51028=
201902260753 METAR KPAE 260753Z AUTO 31004KT 10SM OVC080 01/M07 A2993 RMK AO2 SLP141 T00111067 400561011=
201902260653 METAR KPAE 260653Z AUTO 30007KT 10SM OVC075 01/M07 A2991 RMK AO2 SLP132 T00111072=
201902260553 METAR KPAE 260553Z AUTO 29003KT 10SM OVC090 02/M08 A2987 RMK AO2 SLP121 T00171083 10044 20011 53025=
201902260453 METAR KPAE 260453Z AUTO 28005KT 10SM OVC085 02/M08 A2984 RMK AO2 SLP110 T00171083=
201902260353 METAR KPAE 260353Z 28006KT 10SM OVC085 02/M08 A2982 RMK AO2 SLP103 T00171083=
201902260253 METAR KPAE 260253Z 29007KT 10SM BKN085 02/M09 A2980 RMK AO2 SLP096 T00171089 53013=
201902260153 METAR KPAE 260153Z 29008KT 10SM CLR 02/M09 A2978 RMK AO2 SLP090 T00221089=
201902260053 METAR KPAE 260053Z 30009G17KT 10SM CLR 03/M08 A2977 RMK AO2 SLP085 T00281083=
201902252353 METAR KPAE 252353Z AUTO 32010G15KT 10SM FEW065 04/M07 A2976 RMK AO2 SLP081 T00441072 10056 20022 55004=
201902252253 METAR KPAE 252253Z 31010G18KT 10SM CLR 05/M07 A2976 RMK AO2 SLP080 T00501072=
201902252153 METAR KPAE 252153Z 32010KT 10SM CLR 05/M06 A2976 RMK AO2 SLP081 T00501056=
201902252053 METAR KPAE 252053Z 30010G16KT 10SM CLR 04/M06 A2977 RMK AO2 SLP086 T00441056 58014=
201902251953 METAR KPAE 251953Z 29011KT 10SM CLR 03/M06 A2979 RMK AO2 SLP092 T00331056=
201902251853 METAR KPAE 251853Z 30008KT 10SM CLR 03/M06 A2980 RMK AO2 SLP096 T00331056=
201902251753 METAR KPAE 251753Z 32009KT 10SM CLR 02/M06 A2981 RMK AO2 SLP100 T00221056 10022 21006 58009=
201902251653 METAR KPAE 251653Z 33005KT 10SM CLR 02/M05 A2983 RMK AO2 SLP105 T00171050=
201902251553 METAR KPAE 251553Z 33005KT 10SM CLR 01/M05 A2983 RMK AO2 SLP108 T00061050=
201902251453 METAR KPAE 251453Z 35004KT 10SM CLR M01/M04 A2984 RMK AO2 SLP110 T10061044 56014=
201902251353 METAR KPAE 251353Z 34005KT 10SM CLR M01/M04 A2985 RMK AO2 SLP113 T10061044=
201902251253 METAR KPAE 251253Z 35004KT 10SM CLR 00/M04 A2986 RMK AO2 SLP117 T00001039=
201902251153 METAR KPAE 251153Z 35004KT 10SM CLR 00/M04 A2988 RMK AO2 SLP123 T00001039 10033 21011 58013=
201902251053 METAR KPAE 251053Z 35005KT 10SM CLR 00/M03 A2990 RMK AO2 SLP129 T00001028=
201902250953 METAR KPAE 250953Z 35003KT 10SM CLR M01/M03 A2991 RMK AO2 SLP134 T10061033=
201902250853 METAR KPAE 250853Z 05004KT 10SM CLR 01/M03 A2992 RMK AO2 SLP137 T00111033 56006=
201902250753 METAR KPAE 250753Z 08005KT 10SM CLR 02/M03 A2992 RMK AO2 SLP138 T00171033 400560011=
201902250653 METAR KPAE 250653Z 07005KT 10SM FEW075 OVC095 03/M01 A2993 RMK AO2 SLP140 T00281011=
201902250553 METAR KPAE 250553Z 00000KT 10SM SCT070 OVC095 03/M01 A2994 RMK AO2 SLP143 T00331011 10050 20022 53001=
201902250453 METAR KPAE 250453Z 00000KT 10SM OVC095 03/M01 A2994 RMK AO2 SLP142 T00281011=
201902250353 METAR KPAE 250353Z 00000KT 10SM OVC095 02/M01 A2994 RMK AO2 SLP143 T00221006=
201902250253 METAR KPAE 250253Z 00000KT 10SM OVC090 03/M01 A2994 RMK AO2 SLP141 T00331011 53002=
201902250153 METAR KPAE 250153Z AUTO 29004KT 10SM BKN085 03/M01 A2993 RMK AO2 SLP139 T00331011=
201902250053 METAR KPAE 250053Z AUTO 32004KT 10SM OVC080 04/M02 A2993 RMK AO2 SLP139 T00441017=
201902242353 METAR KPAE 242353Z 32005KT 10SM SCT048 BKN070 05/M01 A2993 RMK AO2 SLP139 T00501011 10056 20028 55002=
201902242253 METAR KPAE 242253Z 31007KT 280V350 10SM BKN055 OVC070 06/00 A2993 RMK AO2 SLP138 T00560000=
201902242153 METAR KPAE 242153Z 30009KT 10SM OVC070 05/00 A2992 RMK AO2 SLP138 T00500000=
201902242053 METAR KPAE 242053Z 31007KT 10SM OVC065 04/01 A2993 RMK AO2 SLP141 T00440006 58004=
201902241953 METAR KPAE 241953Z 32006KT 10SM BKN055 OVC070 04/01 A2994 RMK AO2 SLP144 T00440006=
201902241853 METAR KPAE 241853Z 33007KT 10SM OVC065 04/00 A2994 RMK AO2 SLP144 T00440000=
201902241753 METAR KPAE 241753Z 35006KT 10SM OVC055 03/M01 A2995 RMK AO2 SNE1654 SLP145 P0000 60000 T00281006 10028 20011 56003=
201902241653 METAR KPAE 241653Z 35006KT 6SM -SN BR BKN031 OVC042 02/M01 A2995 RMK AO2 SLP146 P0000 T00171006=
201902241553 METAR KPAE 241553Z 35005KT 2SM -SN BR BKN018 OVC049 01/M01 A2995 RMK AO2 SNE01B20 SLP146 P0000 T00111006=
201902241503 SPECI KPAE 241503Z 02005KT 2SM BR OVC044 01/M01 A2995 RMK AO2 SNE01 P0000 T00111011=
201902241453 METAR KPAE 241453Z 06004KT 4SM -SN OVC044 02/M01 A2996 RMK AO2 SNB43 SLP148 P0000 60000 T00171011 56004=
201902241353 METAR KPAE 241353Z 00000KT 10SM OVC049 02/M01 A2996 RMK AO2 SLP149 T00171006=
201902241253 METAR KPAE 241253Z 00000KT 10SM BKN040 OVC070 02/00 A2995 RMK AO2 SLP148 T00220000=
201902241153 METAR KPAE 241153Z 03003KT 10SM SCT038 OVC060 02/00 A2997 RMK AO2 SLP153 60009 70033 T00170000 10028 20011 56021=
201902241053 METAR KPAE 241053Z 03005KT 10SM OVC048 02/00 A2999 RMK AO2 UPB16E22SNE16 SLP157 P0001 T00220000=
201902241025 SPECI KPAE 241025Z 03007KT 10SM SCT019 OVC044 02/01 A3000 RMK AO2 UPB16E22SNE16 P0001 T00170006=
201902240953 METAR KPAE 240953Z VRB04KT 6SM -SN BR OVC015 02/01 A3001 RMK AO2 RAE08B19E36SNB08E19B36 SLP167 P0006 T00170006=
201902240945 SPECI KPAE 240945Z 04006KT 6SM -SN BR OVC015 02/01 A3002 RMK AO2 RAE08B19E36SNB08E19B36 P0006 T00170006=
201902240918 SPECI KPAE 240918Z 07005KT 5SM -SN BR OVC013 02/01 A3003 RMK AO2 RAE08SNB08 P0003 T00170006=
201902240853 METAR KPAE 240853Z 08005KT 6SM -RA BR BKN019 OVC044 02/01 A3003 RMK AO2 UPB41E43RAB43 SLP174 P0001 60002 T00220011 56003=
201902240851 SPECI KPAE 240851Z 07005KT 6SM -RA BR BKN021 OVC044 02/01 A3003 RMK AO2 UPB41E43RAB43 P0001=
201902240753 METAR KPAE 240753Z 05005KT 10SM OVC041 02/01 A3003 RMK AO2 SLP173 T00220011 400670011=
201902240653 METAR KPAE 240653Z 09004KT 10SM BKN040 OVC049 02/02 A3004 RMK AO2 RAB0558E41UPB28E29SNE0558 SLP178 P0001 T00220017=
201902240637 SPECI KPAE 240637Z 08006KT 10SM -RA FEW027 OVC037 02/01 A3004 RMK AO2 RAB0558UPB28E29SNE0558 P0001 T00220011=
201902240608 SPECI KPAE 240608Z 09003KT 9SM -RA OVC017 01/01 A3004 RMK AO2 RAB0558SNE0558 P0000 T00110006=
201902240553 METAR KPAE 240553Z VRB04KT 3SM -SN BR OVC013 01/01 A3005 RMK AO2 RAE16SNB16 SLP180 P0016 60024 T00110006 10044 20011 58001=
201902240548 SPECI KPAE 240548Z VRB03KT 3SM -SN BR FEW006 OVC013 01/01 A3005 RMK AO2 RAE16SNB16 P0015=
201902240532 SPECI KPAE 240532Z 12007KT 2SM -SN BR FEW006 OVC013 01/00 A3005 RMK AO2 RAE16SNB16 P0010 T00110000=
201902240525 SPECI KPAE 240525Z VRB04KT 3SM -SN BR FEW006 OVC015 01/00 A3006 RMK AO2 RAE16SNB16 P0007 T00110000=
201902240453 METAR KPAE 240453Z VRB04KT 5SM -RA BR OVC016 03/01 A3005 RMK AO2 SLP181 P0008 T00280011=
201902240408 SPECI KPAE 240408Z 13009KT 9SM -RA BKN025 OVC035 03/01 A3005 RMK AO2 P0001 T00330006=
201902240353 METAR KPAE 240353Z 12006KT 10SM -RA OVC037 04/01 A3005 RMK AO2 RAB51 SLP181 P0000 T00390006=
201902240253 METAR KPAE 240253Z 09003KT 10SM FEW029 BKN046 03/01 A3005 RMK AO2 SLP182 T00330006 57007=
201902240153 METAR KPAE 240153Z 08007KT 10SM BKN080 OVC100 03/01 A3006 RMK AO2 SLP184 T00330011=
201902240053 METAR KPAE 240053Z VRB04KT 10SM SCT065 OVC090 04/01 A3007 RMK AO2 SLP187 T00440011=
201902232353 METAR KPAE 232353Z 11008KT 10SM FEW015 SCT080 BKN110 04/01 A3008 RMK AO2 SLP189 T00440011 10067 20039 56007=
201902232253 METAR KPAE 232253Z 13010KT 10SM SCT023 06/01 A3008 RMK AO2 SLP189 T00610011=
201902232202 SPECI KPAE 232202Z 13013KT 10SM BKN023 BKN045 06/01 A3008 RMK AO2 T00610006=
201902232153 METAR KPAE 232153Z 15012G20KT 10SM FEW023 SCT045 07/01 A3008 RMK AO2 SLP191 T00670006=
201902232053 METAR KPAE 232053Z 15011KT 10SM SCT023 BKN040 OVC100 06/02 A3010 RMK AO2 SLP195 T00610017 58000=
201902231953 METAR KPAE 231953Z 15014G19KT 10SM BKN021 06/02 A3010 RMK AO2 SLP196 T00560017=
201902231853 METAR KPAE 231853Z 15011KT 10SM OVC016 04/02 A3010 RMK AO2 SLP198 T00440017=
201902231753 METAR KPAE 231753Z 14011KT 10SM BKN015 OVC070 04/02 A3010 RMK AO2 SLP197 T00390017 10039 20011 51009=
201902231653 METAR KPAE 231653Z 13011KT 10SM BKN015 OVC070 03/01 A3009 RMK AO2 SLP195 T00280011=
201902231628 SPECI KPAE 231628Z 13009KT 10SM SCT012 BKN017 OVC026 03/01 A3009 RMK AO2 T00280011=
201902231553 METAR KPAE 231553Z 12009KT 10SM OVC010 02/01 A3008 RMK AO2 CIG 007V013 SLP190 T00220011=
201902231509 SPECI KPAE 231509Z 13007KT 10SM BKN012 OVC017 02/01 A3007 RMK AO2 T00220011=
201902231453 METAR KPAE 231453Z 12006KT 10SM FEW009 OVC015 02/01 A3007 RMK AO2 SLP187 T00220011 51005=
201902231441 SPECI KPAE 231441Z 12006KT 10SM FEW009 OVC015 02/01 A3007 RMK AO2 T00220011=
201902231426 SPECI KPAE 231426Z VRB03KT 10SM OVC014 02/01 A3006 RMK AO2 T00220011=
201902231413 SPECI KPAE 231413Z VRB05KT 10SM OVC016 02/01 A3006 RMK AO2 T00220011=
201902231353 METAR KPAE 231353Z 00000KT 10SM OVC014 02/01 A3007 RMK AO2 SLP186 T00220011=
201902231350 SPECI KPAE 231350Z 12004KT 10SM OVC014 02/01 A3007 RMK AO2=
201902231253 METAR KPAE 231253Z 12007KT 10SM BKN016 02/01 A3005 RMK AO2 SLP182 T00170006=
201902231153 METAR KPAE 231153Z 12003KT 10SM SCT012 BKN018 BKN041 01/00 A3005 RMK AO2 SLP181 70011 T00110000 10033 20011 51008=
201902231128 SPECI KPAE 231128Z 16003KT 10SM BKN013 01/01 A3005 RMK AO2 T00110011=
201902231053 METAR KPAE 231053Z 13007KT 10SM CLR 02/01 A3004 RMK AO2 SLP179 T00170006=
201902230953 METAR KPAE 230953Z 15004KT 10SM FEW075 02/01 A3004 RMK AO2 SLP176 T00170011=
201902230853 METAR KPAE 230853Z 14005KT 10SM BKN055 BKN070 02/01 A3003 RMK AO2 SLP173 T00220011 53014=
201902230753 METAR KPAE 230753Z 13007KT 10SM OVC065 03/02 A3001 RMK AO2 SLP167 T00280017 400390017=
201902230653 METAR KPAE 230653Z 15008KT 8SM SCT009 SCT033 BKN065 02/01 A3000 RMK AO2 SLP162 T00170011=
201902230621 SPECI KPAE 230621Z 15008KT 8SM BKN006 BKN031 03/02 A2999 RMK AO2 T00280017=
201902230608 SPECI KPAE 230608Z 14008KT 9SM SCT005 BKN027 BKN032 03/02 A2999 RMK AO2 T00280017=
201902230553 METAR KPAE 230553Z 14010KT 10SM BKN026 OVC032 03/02 A2999 RMK AO2 SLP159 60000 T00280022 10033 20022 52014=
201902230525 SPECI KPAE 230525Z 16010KT 8SM SCT005 OVC026 03/02 A2998 RMK AO2 T00280022=
201902230513 SPECI KPAE 230513Z 15008KT 8SM BKN005 OVC028 03/02 A2997 RMK AO2 T00330022=
201902230453 METAR KPAE 230453Z VRB05KT 7SM OVC004 03/02 A2997 RMK AO2 SLP154 T00280022=
201902230437 SPECI KPAE 230437Z VRB03KT 7SM BKN004 OVC026 03/02 A2997 RMK AO2 T00280022=
201902230427 SPECI KPAE 230427Z 15008KT 8SM SCT004 BKN026 BKN030 03/02 A2997 RMK AO2 T00280017=
201902230353 METAR KPAE 230353Z 16008KT 7SM BKN006 OVC026 03/02 A2996 RMK AO2 SLP148 T00280022=
201902230329 SPECI KPAE 230329Z 14009KT 9SM BKN006 BKN026 BKN033 03/02 A2996 RMK AO2 T00280017=
201902230316 SPECI KPAE 230316Z 14010KT 9SM SCT008 BKN026 03/02 A2995 RMK AO2 T00280017=
201902230312 SPECI KPAE 230312Z 15009KT 10SM FEW007 FEW023 BKN030 03/02 A2995 RMK AO2 T00280017=
201902230253 METAR KPAE 230253Z 15009KT 10SM SCT028 03/02 A2994 RMK AO2 SLP144 60000 T00280017 53010=
201902230227 SPECI KPAE 230227Z 14009KT 10SM SCT006 02/02 A2994 RMK AO2 T00220017=
201902230153 METAR KPAE 230153Z 15009KT 10SM BKN006 BKN025 03/02 A2993 RMK AO2 SLP140 T00280017=
201902230112 SPECI KPAE 230112Z 15009KT 10SM BKN007 BKN025 03/02 A2993 RMK AO2 T00280017=
201902230105 SPECI KPAE 230105Z 17008KT 10SM SCT008 BKN025 03/02 A2992 RMK AO2 T00330017=
201902230053 METAR KPAE 230053Z 12008KT 10SM OVC006 03/02 A2992 RMK AO2 RAE50 SLP137 P0000 T00280017=
201902222353 METAR KPAE 222353Z 16012KT 10SM -RA OVC009 03/02 A2991 RMK AO2 CIG 007V013 SLP134 P0000 60011 T00330017 10039 20017 53003=
201902222311 SPECI KPAE 222311Z 15011KT 10SM -RA OVC005 03/02 A2990 RMK AO2 P0000 T00330017=
201902222300 SPECI KPAE 222300Z 17011KT 10SM -RA SCT008 BKN032 03/02 A2990 RMK AO2 P0000 T00330017=
201902222253 METAR KPAE 222253Z 15011KT 5SM -RA BR BKN005 OVC012 03/02 A2990 RMK AO2 SLP129 P0000 T00330017=
201902222156 SPECI KPAE 222156Z 16008KT 5SM -RA BR BKN005 OVC012 03/02 A2989 RMK AO2 P0000 T00280017=
201902222153 METAR KPAE 222153Z 16008KT 2SM -RA BR BKN005 OVC012 03/02 A2989 RMK AO2 SLP127 P0002 T00280017=
201902222053 METAR KPAE 222053Z 15011KT 2SM -RA BR BKN005 OVC012 02/01 A2990 RMK AO2 RAB32SNE32 SLP131 P0007 60009 T00220011 53000=
201902222036 SPECI KPAE 222036Z 17010KT 2SM -RA BR BKN005 OVC012 02/01 A2991 RMK AO2 RAB32SNE32 P0006 T00170011=
201902221953 METAR KPAE 221953Z 16016KT 2SM -SN BKN012 OVC018 02/01 A2991 RMK AO2 PK WND 15028/1859 RAE47SNB47 SLP131 P0002 T00220006=
201902221951 SPECI KPAE 221951Z 16018KT 2SM -SN BKN012 OVC018 02/01 A2991 RMK AO2 PK WND 15028/1859 RAE47SNB47 P0002=
201902221853 METAR KPAE 221853Z 15021G31KT 10SM -RA BKN023 OVC049 03/M01 A2989 RMK AO2 PK WND 15032/1806 RAB47 SLP126 P0000 T00331006=
201902221808 SPECI KPAE 221808Z 14024G32KT 9SM BKN023 OVC049 03/M01 A2989 RMK AO2 PK WND 15032/1806 T00331011=
201902221800 SPECI KPAE 221800Z 13020G29KT 10SM SCT023 OVC049 03/M02 A2990 RMK AO2 PK WND 14029/1800 T00331017=
201902221753 METAR KPAE 221753Z 13022G28KT 10SM BKN022 OVC049 03/M02 A2990 RMK AO2 PK WND 13035/1722 SLP130 T00331017 10033 20017 56024=
201902221714 SPECI KPAE 221714Z 13021G28KT 10SM BKN020 OVC090 03/M01 A2991 RMK AO2 PK WND 13031/1655 T00281011=
201902221653 METAR KPAE 221653Z 13021G31KT 10SM SCT021 BKN060 OVC090 03/M02 A2992 RMK AO2 PK WND 13031/1644 SLP136 T00281017=
201902221553 METAR KPAE 221553Z 13016G27KT 10SM BKN040 BKN050 OVC080 03/M03 A2995 RMK AO2 PK WND 12027/1545 SLP147 T00281028=
201902221453 METAR KPAE 221453Z 14016KT 10SM BKN060 OVC085 02/M03 A2997 RMK AO2 SLP155 T00221028 58022=
201902221353 METAR KPAE 221353Z AUTO 13013G19KT 10SM BKN075 OVC090 02/M02 A3000 RMK AO2 SLP164 T00221022=
201902221253 METAR KPAE 221253Z AUTO 12011KT 10SM BKN080 OVC095 02/M02 A3002 RMK AO2 SLP170 T00171022=
201902221153 METAR KPAE 221153Z AUTO 12011KT 10SM OVC095 02/M02 A3004 RMK AO2 SLP177 T00171022 10028 20017 58010=
201902221053 METAR KPAE 221053Z AUTO 12009G14KT 070V140 10SM OVC100 02/M02 A3005 RMK AO2 SLP181 T00171022=
201902220953 METAR KPAE 220953Z AUTO 12006KT 10SM BKN120 02/M02 A3006 RMK AO2 SLP185 T00171022=
201902220853 METAR KPAE 220853Z AUTO 12008KT 10SM BKN110 02/M02 A3007 RMK AO2 SLP187 T00171022 56012=
201902220753 METAR KPAE 220753Z AUTO VRB06KT 10SM FEW120 02/M02 A3007 RMK AO2 SLP188 T00171022 400611022=
201902220653 METAR KPAE 220653Z AUTO 12007KT 10SM CLR 02/M03 A3009 RMK AO2 SLP195 T00221028=
201902220553 METAR KPAE 220553Z AUTO VRB03KT 10SM CLR 02/M02 A3011 RMK AO2 SLP200 T00221022 10056 20017 50001=
201902220453 METAR KPAE 220453Z AUTO 08005KT 10SM CLR 02/M03 A3011 RMK AO2 SLP202 T00221033=
201902220353 METAR KPAE 220353Z AUTO 00000KT 10SM CLR 02/M04 A3012 RMK AO2 SLP205 T00221039=
201902220253 METAR KPAE 220253Z 00000KT 10SM CLR 02/M03 A3010 RMK AO2 SLP199 T00221028 56003=
201902220153 METAR KPAE 220153Z 00000KT 10SM CLR 03/M03 A3010 RMK AO2 SLP199 T00331028=
201902220053 METAR KPAE 220053Z 00000KT 10SM CLR 05/M04 A3010 RMK AO2 SLP198 T00501039=
201902212353 METAR KPAE 212353Z 24004KT 10SM CLR 06/M04 A3011 RMK AO2 SLP201 T00561044 10061 20017 56006=
201902212253 METAR KPAE 212253Z 31005KT 10SM CLR 06/M04 A3011 RMK AO2 SLP201 T00561044=
201902212153 METAR KPAE 212153Z VRB03KT 10SM CLR 05/M03 A3011 RMK AO2 SLP202 T00501028=
201902212053 METAR KPAE 212053Z 33004KT 10SM CLR 04/M01 A3013 RMK AO2 SLP207 T00441011 58002=
201902211953 METAR KPAE 211953Z 31005KT 10SM CLR 03/M01 A3015 RMK AO2 SLP215 T00331006=
201902211853 METAR KPAE 211853Z VRB03KT 10SM FEW012 03/M01 A3015 RMK AO2 SLP213 T00331006=
201902211753 METAR KPAE 211753Z 00000KT 10SM SCT010 02/M01 A3014 RMK AO2 SLP210 I6000 T00171011 10017 21022 53013=
201902211653 METAR KPAE 211653Z 00000KT 10SM CLR 00/M01 A3012 RMK AO2 SLP205 T00001011=
201902211606 SPECI KPAE 211606Z 03004KT 6SM BR FEW002 01/M01 A3011 RMK AO2 VIS N 1 T00061006=
201902211553 METAR KPAE 211553Z 00000KT 10SM FEW009 00/M01 A3011 RMK AO2 SLP201 T00001006=
201902211453 METAR KPAE 211453Z 00000KT 7SM OVC009 00/M01 A3010 RMK AO2 SLP197 I1000 I3000 T00001006 51010=
201902211440 SPECI KPAE 211440Z AUTO 09003KT 6SM R16R/4000VP6000FT BR FEW002 OVC009 M01/M02 A3009 RMK AO2 I1000 T10111017=
201902211433 SPECI KPAE 211433Z AUTO 00000KT 2 1/2SM BR SCT002 OVC010 M01/M02 A3010 RMK AO2 I1000 T10111017=
201902211429 SPECI KPAE 211429Z AUTO 00000KT 3/4SM R16R/P6000FT BR SCT002 OVC010 M02/M02 A3010 RMK AO2 I1000 T10171022=
201902211412 SPECI KPAE 211412Z AUTO 00000KT 1/4SM R16R/1600V3500FT FZFG VV002 M02/M03 A3009 RMK AO2 T10221028=
201902211403 SPECI KPAE 211403Z AUTO 00000KT 1/2SM R16R/1800V2400FT FZFG VV001 M02/M02 A3009 RMK AO2 T10171022=
201902211353 METAR KPAE 211353Z AUTO 00000KT 1/4SM R16R/1000V2200FT FZFG VV001 M01/M01 A3009 RMK AO2 SLP194 I1000 T10111011=
201902211340 SPECI KPAE 211340Z AUTO 00000KT 1/4SM R16R/1600V2000FT FZFG VV001 M01/M01 A3009 RMK AO2 I1000 T10061006=
201902211334 SPECI KPAE 211334Z AUTO 00000KT 1/2SM R16R/1600VP6000FT FZFG VV001 M01/M01 A3009 RMK AO2 VIS 1/4V5 I1000 T10061011=
201902211331 SPECI KPAE 211331Z AUTO 00000KT 1 1/2SM R16R/1800VP6000FT BR BKN002 00/M01 A3008 RMK AO2 VIS 1/2V5 I1000 T00001011=
201902211323 SPECI KPAE 211323Z AUTO 00000KT 10SM BKN002 BKN006 M01/M01 A3008 RMK AO2 T10061006=
201902211253 METAR KPAE 211253Z AUTO 30003KT 4SM BR FEW007 M01/M02 A3008 RMK AO2 SLP191 T10111017=
201902211153 METAR KPAE 211153Z AUTO 03003KT 9SM CLR 01/00 A3006 RMK AO2 SLP186 I1000 I6000 T00060000 10033 21011 51016=
201902211125 SPECI KPAE 211125Z AUTO 03005KT 6SM BR CLR 00/M01 A3006 RMK AO2 I1000 T00001006=
201902211115 SPECI KPAE 211115Z AUTO 36003KT 2SM BR FEW004 M01/M02 A3006 RMK AO2 VIS 1 1/4V3 I1000 T10111017=
201902211109 SPECI KPAE 211109Z AUTO 00000KT 1SM R16R/P6000FT BR VV004 M01/M02 A3006 RMK AO2 T10111017=
201902211056 SPECI KPAE 211056Z AUTO 00000KT 1/2SM R16R/2200VP6000FT FZFG VV004 M01/M02 A3006 RMK AO2 T10111017=
201902211053 METAR KPAE 211053Z AUTO 00000KT 1/4SM R16R/2200VP6000FT FZFG SCT004 BKN008 M01/M02 A3005 RMK AO2 SLP183 T10111017=
201902211047 SPECI KPAE 211047Z AUTO 00000KT 1SM R16R/P6000FT BR VV006 M01/M01 A3005 RMK AO2 VIS 1/4V4=
201902211043 SPECI KPAE 211043Z AUTO 00000KT 2 1/2SM BR SCT006 00/M01 A3005 RMK AO2 T00001011=
201902211017 SPECI KPAE 211017Z AUTO 00000KT 7SM FEW005 01/M01 A3005 RMK AO2 T00061006=
201902210953 METAR KPAE 210953Z AUTO 00000KT 9SM CLR 01/M01 A3003 RMK AO2 SLP175 T00061006=
201902210853 METAR KPAE 210853Z AUTO 33005KT 10SM FEW010 01/00 A3002 RMK AO2 SLP169 T00110000 53013=
201902210753 METAR KPAE 210753Z AUTO 33004KT 10SM FEW010 02/01 A3000 RMK AO2 SLP163 T00170006 400500011=
201902210748 SPECI KPAE 210748Z AUTO 33004KT 10SM FEW010 02/01 A3000 RMK AO2=
201902210718 SPECI KPAE 210718Z AUTO 29003KT 10SM BKN011 02/01 A2998 RMK AO2 CIG 008V013 T00220011=
201902210653 METAR KPAE 210653Z AUTO 32005KT 10SM FEW011 02/01 A2998 RMK AO2 SLP156 T00220006=
201902210634 SPECI KPAE 210634Z AUTO 32006KT 10SM SCT011 02/01 A2997 RMK AO2 T00220006=
201902210613 SPECI KPAE 210613Z AUTO 31007KT 10SM BKN013 03/01 A2997 RMK AO2 T00280006=
201902210553 METAR KPAE 210553Z AUTO 32010G16KT 10SM OVC015 03/01 A2995 RMK AO2 SLP147 T00330011 10050 20028 52014=
201902210517 SPECI KPAE 210517Z AUTO 31005KT 10SM OVC013 03/01 A2995 RMK AO2 T00330011=
201902210500 SPECI KPAE 210500Z AUTO 31007KT 10SM BKN015 03/01 A2994 RMK AO2 T00280006=
201902210453 METAR KPAE 210453Z AUTO 31006KT 10SM SCT015 03/01 A2994 RMK AO2 SLP143 T00280006=
201902210444 SPECI KPAE 210444Z 30006KT 10SM FEW017 SCT022 03/01 A2994 RMK AO2 T00280006=
201902210353 METAR KPAE 210353Z 29007KT 10SM OVC019 03/01 A2992 RMK AO2 SLP137 T00330006=
201902210253 METAR KPAE 210253Z 32006KT 10SM OVC021 03/M01 A2991 RMK AO2 SLP133 T00331006 53015=
201902210153 METAR KPAE 210153Z 31005KT 10SM BKN026 03/M01 A2989 RMK AO2 SLP125 T00331011=
201902210140 SPECI KPAE 210140Z 30005KT 10SM BKN026 03/M01 A2988 RMK AO2 T00331011=
201902210053 METAR KPAE 210053Z 31007KT 10SM CLR 04/M01 A2987 RMK AO2 SLP121 T00391006=
201902210000 SPECI KPAE 210000Z 33007KT 10SM CLR 04/M01 A2986 RMK AO2 T00441006=
201902202353 METAR KPAE 202353Z 33008KT 10SM BKN028 04/00 A2987 RMK AO2 SLP118 T00440000 10044 20028 53004=
201902202253 METAR KPAE 202253Z 31007KT 10SM OVC028 04/00 A2986 RMK AO2 SLP115 T00390000=
201902202153 METAR KPAE 202153Z VRB04KT 10SM OVC028 04/M01 A2985 RMK AO2 SLP113 T00391006=
201902202100 SPECI KPAE 202100Z 01003KT 10SM FEW014 BKN030 04/00 A2986 RMK AO2 T00390000=
201902202053 METAR KPAE 202053Z 00000KT 10SM BKN019 BKN030 04/01 A2985 RMK AO2 SLP114 T00390006 51002=
201902201953 METAR KPAE 201953Z 33005KT 10SM FEW008 BKN019 BKN029 04/00 A2985 RMK AO2 SLP114 T00390000=
201902201910 SPECI KPAE 201910Z 33003KT 10SM SCT006 BKN015 BKN040 03/00 A2985 RMK AO2 T00330000=
201902201900 SPECI KPAE 201900Z 28005KT 10SM FEW010 SCT014 BKN027 03/00 A2985 RMK AO2 T00330000=
201902201853 METAR KPAE 201853Z 32003KT 10SM BKN006 OVC044 03/01 A2985 RMK AO2 SLP113 T00330006=
201902201753 METAR KPAE 201753Z 35005KT 10SM BKN006 OVC038 03/01 A2985 RMK AO2 SLP112 T00280011 10033 20011 51001=
201902201751 SPECI KPAE 201751Z 34004KT 10SM BKN006 OVC038 03/01 A2985 RMK AO2=
201902201653 METAR KPAE 201653Z 00000KT 10SM FEW004 OVC042 03/01 A2985 RMK AO2 SLP113 T00280011=
201902201604 SPECI KPAE 201604Z 01004KT 10SM SCT016 OVC038 02/01 A2985 RMK AO2 T00220011=
201902201553 METAR KPAE 201553Z 34003KT 10SM FEW010 BKN016 OVC038 02/01 A2985 RMK AO2 SLP112 T00220011=
201902201540 SPECI KPAE 201540Z 34004KT 10SM FEW008 BKN016 02/01 A2985 RMK AO2 T00170006=
201902201504 SPECI KPAE 201504Z 35004KT 10SM BKN008 02/01 A2984 RMK AO2 T00170006=
201902201453 METAR KPAE 201453Z 36004KT 10SM SCT008 SCT018 02/01 A2983 RMK AO2 SLP107 T00170006 53004=
201902201445 SPECI KPAE 201445Z 34005KT 10SM SCT008 BKN018 BKN042 02/01 A2983 RMK AO2 T00170006=
201902201433 SPECI KPAE 201433Z AUTO 34004KT 10SM BKN010 BKN019 02/01 A2983 RMK AO2 CIG 008V012 T00170006=
201902201408 SPECI KPAE 201408Z AUTO 31004KT 6SM BR FEW005 SCT014 01/01 A2983 RMK AO2 T00110006=
201902201353 METAR KPAE 201353Z AUTO 34003KT 9SM FEW004 BKN016 02/01 A2983 RMK AO2 SLP105 T00170006=
201902201351 SPECI KPAE 201351Z AUTO 32003KT 10SM FEW004 BKN014 02/01 A2983 RMK AO2=
201902201336 SPECI KPAE 201336Z AUTO 34004KT 10SM SCT004 SCT010 02/01 A2983 RMK AO2 T00170006=
201902201325 SPECI KPAE 201325Z AUTO 36005KT 10SM SCT004 BKN010 BKN030 02/01 A2982 RMK AO2 T00170011=
201902201316 SPECI KPAE 201316Z AUTO 34003KT 8SM BKN004 BKN010 OVC032 02/01 A2983 RMK AO2 T00170011=
201902201253 METAR KPAE 201253Z AUTO 32004KT 10SM BKN007 OVC024 02/01 A2982 RMK AO2 CIG 003V012 SLP103 T00170011=
201902201239 SPECI KPAE 201239Z AUTO 31004KT 10SM BKN007 OVC012 02/01 A2982 RMK AO2 CIG 004V009 T00220011=
201902201209 SPECI KPAE 201209Z AUTO 31003KT 9SM FEW007 BKN011 OVC042 02/01 A2983 RMK AO2 T00170011=
201902201205 SPECI KPAE 201205Z AUTO 00000KT 10SM SCT011 BKN016 OVC042 02/01 A2983 RMK AO2 T00170011=
201902201153 METAR KPAE 201153Z AUTO 29003KT 10SM FEW014 OVC038 02/01 A2983 RMK AO2 SLP106 60005 70023 T00170006 10033 20017 58001=
201902201148 SPECI KPAE 201148Z AUTO 00000KT 10SM FEW019 BKN035 OVC042 02/01 A2983 RMK AO2=
201902201120 SPECI KPAE 201120Z AUTO 00000KT 10SM BKN028 OVC050 02/02 A2983 RMK AO2 T00170017=
201902201053 METAR KPAE 201053Z AUTO 34003KT 10SM FEW023 BKN049 BKN055 02/01 A2984 RMK AO2 RAB05E20 SLP108 P0001 T00220011=
201902201038 SPECI KPAE 201038Z AUTO 35004KT 10SM FEW007 BKN022 OVC055 02/02 A2984 RMK AO2 RAB05E20 P0001 T00220017=
201902201004 SPECI KPAE 201004Z AUTO 35007KT 9SM BKN005 OVC009 02/02 A2984 RMK AO2 P0001 T00220017=
201902200953 METAR KPAE 200953Z AUTO 35007KT 9SM BKN003 OVC008 02/02 A2984 RMK AO2 RAB00E10 SLP107 P0000 T00220017=
201902200939 SPECI KPAE 200939Z AUTO 33009KT 6SM BR BKN003 OVC009 03/02 A2984 RMK AO2 RAB00E10 P0000 T00280017=
201902200924 SPECI KPAE 200924Z AUTO 32007KT 10SM BKN005 BKN011 03/02 A2983 RMK AO2 RAB00E10 P0000 T00280017=
201902200917 SPECI KPAE 200917Z AUTO 34006KT 10SM SCT009 BKN012 OVC029 03/02 A2983 RMK AO2 RAB00E10 P0000 T00280022=
201902200906 SPECI KPAE 200906Z AUTO 31004KT 10SM -RA BKN012 BKN025 OVC036 03/02 A2983 RMK AO2 RAB00 P0000 T00280022=
201902200903 SPECI KPAE 200903Z AUTO 32003KT 10SM -RA SCT012 BKN032 OVC043 03/02 A2983 RMK AO2 RAB00 P0000 T00280022=
201902200853 METAR KPAE 200853Z AUTO 00000KT 9SM FEW009 BKN012 OVC036 03/02 A2983 RMK AO2 RAE0759B18E27 SLP105 P0000 60004 T00280022 57004=
201902200848 SPECI KPAE 200848Z AUTO 00000KT 10SM FEW009 BKN012 OVC036 03/03 A2983 RMK AO2 RAE0759B18E27 P0000=
201902200842 SPECI KPAE 200842Z AUTO 00000KT 10SM SCT010 BKN015 OVC036 03/03 A2983 RMK AO2 RAE0759B18E27 P0000 T00280028=
201902200753 METAR KPAE 200753Z AUTO 00000KT 10SM -RA SCT008 OVC014 03/02 A2983 RMK AO2 RAE10B19 SLP106 P0000 T00330022 400440022=
201902200751 SPECI KPAE 200751Z AUTO 31003KT 9SM -RA BKN008 OVC014 03/02 A2983 RMK AO2 RAE10B19 CIG 005V012 P0000=
201902200716 SPECI KPAE 200716Z AUTO 00000KT 10SM SCT007 BKN015 OVC028 03/03 A2983 RMK AO2 RAE10 P0000 T00330028=
201902200653 METAR KPAE 200653Z AUTO 32003KT 9SM -RA OVC007 03/03 A2984 RMK AO2 CIG 006V010 SLP109 P0004 T00330028=
201902200640 SPECI KPAE 200640Z AUTO 00000KT 6SM -RA BR OVC009 03/03 A2984 RMK AO2 CIG 007V014 P0003 T00330028=
201902200618 SPECI KPAE 200618Z AUTO 36003KT 7SM -RA FEW004 OVC013 03/02 A2984 RMK AO2 P0003 T00330022=
201902200609 SPECI KPAE 200609Z AUTO 32006KT 5SM -RA BR FEW004 BKN009 OVC015 03/03 A2985 RMK AO2 P0003 T00330028=
201902200553 METAR KPAE 200553Z AUTO 27004KT 10SM -RA FEW011 OVC015 04/03 A2984 RMK AO2 SLP110 P0001 60011 T00390028 10044 20028 56009=
201902200550 SPECI KPAE 200550Z AUTO 25003KT 10SM -RA OVC015 04/03 A2984 RMK AO2 P0001=
201902200510 SPECI KPAE 200510Z AUTO 00000KT 5SM -RA BR OVC014 03/03 A2985 RMK AO2 P0001 T00330028=
201902200453 METAR KPAE 200453Z AUTO 00000KT 7SM -RA OVC016 03/03 A2985 RMK AO2 RAE15B47 SLP113 P0000 T00330028=
201902200400 SPECI KPAE 200400Z AUTO 13003KT 5SM -RA BR BKN019 OVC026 03/02 A2986 RMK AO2 P0000 T00280022=
201902200353 METAR KPAE 200353Z AUTO 13008KT 3SM -RA BR BKN005 OVC031 03/02 A2987 RMK AO2 UPB48E53 SLP119 P0003 T00280022=
201902200253 METAR KPAE 200253Z 01003KT 3SM -RA BR BKN009 OVC031 04/03 A2989 RMK AO2 SLP126 P0002 60007 T00390033 56025=
201902200200 SPECI KPAE 200200Z 24004KT 10SM -RA BKN009 OVC013 04/03 A2991 RMK AO2 P0000 T00440033=
201902200153 METAR KPAE 200153Z 21004KT 4SM -RA BR BKN004 BKN009 OVC020 04/03 A2991 RMK AO2 RAB01 SLP133 P0005 T00390033=
201902200100 SPECI KPAE 200100Z 13007KT 4SM BR BKN004 BKN009 OVC020 04/03 A2993 RMK AO2 T00390033=
201902200053 METAR KPAE 200053Z 13007KT 4SM SCT004 BKN009 OVC020 04/03 A2993 RMK AO2 CIG 006V012 SLP141 T00390033=
201902200023 SPECI KPAE 200023Z 13007KT 4SM BR OVC004 04/03 A2995 RMK AO2 T00390028=
201902192353 METAR KPAE 192353Z 12006KT 8SM BKN005 OVC009 04/03 A2996 RMK AO2 RAE39 SLP151 P0001 60003 T00390028 10044 20028 58041=
201902192253 METAR KPAE 192253Z 13007KT 7SM -RA BKN009 04/03 A3002 RMK AO2 SLP169 P0001 T00390028=
201902192228 SPECI KPAE 192228Z 12007KT 9SM -RA BKN009 04/02 A3003 RMK AO2 P0000 T00390022=
201902192220 SPECI KPAE 192220Z 15007KT 10SM -RA BKN010 OVC013 04/02 A3003 RMK AO2 CIG 007V011 P0000 T00390022=
201902192153 METAR KPAE 192153Z 12008KT 10SM -RA BKN009 OVC023 04/02 A3005 RMK AO2 RAB04 SLP179 P0001 T00390022=
201902192129 SPECI KPAE 192129Z 14007KT 10SM -RA BKN009 OVC023 04/02 A3006 RMK AO2 RAB04 P0000 T00440022=
201902192053 METAR KPAE 192053Z 16007KT 10SM FEW012 BKN017 OVC023 04/02 A3009 RMK AO2 RAB23E34 SLP193 P0000 60000 T00440022 56021=
201902192048 SPECI KPAE 192048Z 16006KT 10SM FEW011 BKN017 OVC025 04/02 A3009 RMK AO2 RAB23E34 P0000=
201902192000 SPECI KPAE 192000Z 16008KT 10SM BKN013 BKN060 OVC070 04/02 A3013 RMK AO2 T00440022=
201902191953 METAR KPAE 191953Z 15008KT 10SM SCT008 BKN042 OVC050 04/02 A3013 RMK AO2 SLP208 T00440022=
201902191853 METAR KPAE 191853Z 13007KT 10SM SCT008 BKN042 OVC050 03/02 A3015 RMK AO2 SLP215 T00330022=
201902191823 SPECI KPAE 191823Z 13006KT 10SM SCT008 OVC044 03/02 A3016 RMK AO2 T00330022=
201902191807 SPECI KPAE 191807Z 14005KT 10SM BKN008 OVC044 03/02 A3017 RMK AO2 T00330022=
201902191800 SPECI KPAE 191800Z 15007KT 10SM FEW006 OVC044 03/02 A3017 RMK AO2 T00330022=
201902191753 METAR KPAE 191753Z 16006KT 8SM BKN008 03/02 A3017 RMK AO2 SLP221 60004 T00330022 10033 20022 56011=
201902191657 SPECI KPAE 191657Z 13006KT 4SM BR BKN008 03/02 A3018 RMK AO2 T00280017=
201902191653 METAR KPAE 191653Z 13005KT 4SM BR SCT005 BKN015 OVC060 03/02 A3018 RMK AO2 SLP224 T00280017=
201902191627 SPECI KPAE 191627Z 13008KT 4SM BR SCT005 BKN015 BKN049 03/02 A3018 RMK AO2 T00280017=
201902191553 METAR KPAE 191553Z 13006KT 4SM BR BKN015 OVC050 03/02 A3019 RMK AO2 SLP227 T00280017=
201902191546 SPECI KPAE 191546Z 15004KT 4SM BR BKN016 OVC050 03/02 A3020 RMK AO2 T00280017=
201902191453 METAR KPAE 191453Z 14005KT 9SM FEW002 OVC044 02/02 A3020 RMK AO2 SLP232 60004 T00220017 56018=
201902191422 SPECI KPAE 191422Z AUTO 13010KT 6SM BR SCT002 BKN038 OVC046 02/02 A3020 RMK AO2 T00220017=
201902191353 METAR KPAE 191353Z AUTO 13011KT 10SM BKN040 OVC050 03/02 A3021 RMK AO2 RAB1259E41 SLP236 P0004 T00280017=
201902191319 SPECI KPAE 191319Z AUTO 14011KT 5SM -RA BR FEW012 OVC032 02/02 A3023 RMK AO2 RAB1259 P0004 T00220017=
201902191312 SPECI KPAE 191312Z AUTO 14011KT 2 1/2SM -RA BR SCT012 OVC030 02/01 A3024 RMK AO2 RAB1259 P0003 T00220011=
201902191253 METAR KPAE 191253Z AUTO 14004KT 10SM OVC011 03/02 A3024 RMK AO2 RAE37 SLP246 P0000 T00280017=
201902191153 METAR KPAE 191153Z AUTO VRB03KT 6SM -RA BR FEW008 OVC014 02/02 A3026 RMK AO2 UPB36E38RAB38 SLP251 P0001 60002 70003 I6000 T00220017 10028 20022 58010=
201902191140 SPECI KPAE 191140Z AUTO VRB03KT 7SM -RA FEW008 OVC013 02/02 A3026 RMK AO2 UPB36E38RAB38 P0000 T00220017=
201902191117 SPECI KPAE 191117Z AUTO 13006KT 10SM BKN011 OVC031 03/02 A3026 RMK AO2 T00280017=
201902191109 SPECI KPAE 191109Z AUTO 12005KT 10SM SCT009 OVC032 03/02 A3027 RMK AO2 T00280017=
201902191053 METAR KPAE 191053Z AUTO 12005KT 10SM OVC032 03/02 A3027 RMK AO2 RAE32 SLP255 P0000 I1000 T00280017=
201902190953 METAR KPAE 190953Z AUTO 12006KT 7SM -RA OVC036 02/01 A3029 RMK AO2 RAE30B46UPB02E05B44E46 SLP262 P0001 T00220011=
201902190936 SPECI KPAE 190936Z AUTO VRB03KT 10SM SCT022 BKN034 OVC055 02/01 A3029 RMK AO2 RAE30UPB02E05 P0001 T00220006=
201902190853 METAR KPAE 190853Z AUTO 09003KT 10SM -RA BKN025 OVC039 02/01 A3029 RMK AO2 RAB37 SLP262 P0000 60000 T00220006 56014=
201902190832 SPECI KPAE 190832Z AUTO 09004KT 10SM BKN026 OVC034 03/00 A3029 RMK AO2 T00280000=
201902190753 METAR KPAE 190753Z AUTO 08004KT 10SM OVC036 03/00 A3029 RMK AO2 SLP263 T00280000 400391006=
201902190653 METAR KPAE 190653Z AUTO 08005KT 10SM FEW039 OVC060 03/00 A3031 RMK AO2 SLP269 T00280000=
201902190553 METAR KPAE 190553Z AUTO 08004KT 10SM BKN037 OVC060 03/01 A3033 RMK AO2 SLP276 60001 T00280006 10033 20028 55006=
201902190453 METAR KPAE 190453Z AUTO 00000KT 10SM OVC047 03/01 A3032 RMK AO2 RAE23 SLP273 P0000 T00280011=
201902190353 METAR KPAE 190353Z 08004KT 8SM -RA OVC033 03/01 A3033 RMK AO2 RAE0258B52 SLP276 P0000 T00330011=
201902190306 SPECI KPAE 190306Z 08003KT 10SM SCT029 BKN040 OVC055 03/02 A3034 RMK AO2 RAE0258 P0000 T00330017=
201902190253 METAR KPAE 190253Z 08004KT 10SM -RA BKN029 OVC042 03/02 A3035 RMK AO2 RAB15 SLP282 P0000 60001 T00330017 55000=
201902190153 METAR KPAE 190153Z 00000KT 10SM SCT018 OVC040 03/02 A3034 RMK AO2 RAB10E24 SLP280 P0000 T00330017=
201902190053 METAR KPAE 190053Z 09004KT 9SM OVC034 03/02 A3034 RMK AO2 RAE28 SLP279 P0001 T00330017=
201902182353 METAR KPAE 182353Z 07004KT 8SM -RA VCFG BKN032 OVC041 03/01 A3035 RMK AO2 RAB07 SLP282 P0000 60000 T00330011 10039 20022 56006=
201902182339 SPECI KPAE 182339Z 07005KT 7SM -RA VCFG FEW016 BKN029 OVC036 03/01 A3035 RMK AO2 RAB07 P0000 T00330011=
201902182253 METAR KPAE 182253Z 09004KT 10SM VCFG FEW018 OVC034 03/00 A3036 RMK AO2 SLP285 T00330000=
201902182222 SPECI KPAE 182222Z 08005KT 10SM VCFG SCT014 OVC038 04/01 A3036 RMK AO2 T00390006=
201902182158 SPECI KPAE 182158Z VRB04KT 10SM VCFG BKN013 OVC020 03/01 A3037 RMK AO2 T00330011=
201902182153 METAR KPAE 182153Z 11004KT 10SM VCFG SCT018 BKN049 OVC055 04/01 A3037 RMK AO2 SLP288 T00390011=
201902182053 METAR KPAE 182053Z 06003KT 10SM VCFG SCT018 BKN049 OVC055 04/01 A3038 RMK AO2 SLP292 T00390011 58004=
201902182000 SPECI KPAE 182000Z 08003KT 9SM VCFG OVC055 04/01 A3040 RMK AO2 T00390011=
201902181953 METAR KPAE 181953Z 00000KT 10SM VCFG BKN006 OVC050 03/01 A3039 RMK AO2 SLP298 T00330011=
201902181935 SPECI KPAE 181935Z 00000KT 8SM VCFG BKN006 03/02 A3040 RMK AO2 T00330017=
201902181853 METAR KPAE 181853Z 00000KT 7SM VCFG SCT012 OVC044 03/02 A3040 RMK AO2 SLP298 T00280017=
201902181800 SPECI KPAE 181800Z 12003KT 7SM FG OVC045 02/01 A3039 RMK AO2 T00220011=
201902181753 METAR KPAE 181753Z 00000KT 1/2SM R16R/P6000FT FG OVC045 02/01 A3039 RMK AO2 SLP297 T00220011 10022 21006 53007=
201902181653 METAR KPAE 181653Z 00000KT 1/2SM R16R/P6000FT FG OVC047 01/01 A3039 RMK AO2 SLP295 T00110006=
201902181622 SPECI KPAE 181622Z 10003KT 1/2SM R16R/P6000FT FG BKN047 BKN060 01/00 A3038 RMK AO2 T00060000=
201902181553 METAR KPAE 181553Z 13003KT 6SM BCFG BR SCT013 BKN049 01/M01 A3037 RMK AO2 SLP291 T00061006=
201902181453 METAR KPAE 181453Z 11004KT 7SM BCFG BR BKN048 01/M01 A3037 RMK AO2 SLP290 T00061006 51008=
201902181353 METAR KPAE 181353Z AUTO 00000KT 6SM BR OVC050 01/01 A3036 RMK AO2 SLP287 T00060006=
201902181319 SPECI KPAE 181319Z AUTO 11003KT 3SM R16R/2800V4000FT BR FEW001 OVC050 01/01 A3036 RMK AO2 T00060006=
201902181310 SPECI KPAE 181310Z AUTO 11003KT 1 3/4SM R16R/2400V3000FT BR FEW001 OVC050 01/00 A3035 RMK AO2 T00060000=
201902181253 METAR KPAE 181253Z AUTO 11004KT 2 1/2SM R16R/2000V2400FT BR FEW001 SCT024 OVC050 01/00 A3035 RMK AO2 SLP284 T00060000=
201902181250 SPECI KPAE 181250Z AUTO 12004KT 3SM R16R/2000V2400FT BR FEW001 SCT024 OVC050 01/00 A3035 RMK AO2=
201902181153 METAR KPAE 181153Z AUTO 11003KT 6SM BR BKN026 BKN055 01/M01 A3034 RMK AO2 SLP280 T00061006 10028 20000 50002=
201902181053 METAR KPAE 181053Z AUTO 12004KT 9SM SCT024 01/M01 A3034 RMK AO2 SLP281 T00061006=
201902181015 SPECI KPAE 181015Z AUTO 11003KT 10SM BKN024 BKN060 01/M01 A3034 RMK AO2 T00111006=
201902180953 METAR KPAE 180953Z AUTO 13003KT 10SM CLR 01/M01 A3034 RMK AO2 SLP281 T00061011=
201902180917 SPECI KPAE 180917Z AUTO 00000KT 10SM SCT026 01/M01 A3034 RMK AO2 T00111006=
201902180853 METAR KPAE 180853Z AUTO 15003KT 10SM BKN028 01/M01 A3034 RMK AO2 SLP278 T00111011 53011=
201902180753 METAR KPAE 180753Z AUTO 00000KT 10SM OVC026 02/M01 A3033 RMK AO2 SLP274 T00171006 400610006=
201902180653 METAR KPAE 180653Z AUTO 10003KT 10SM OVC028 02/M01 A3031 RMK AO2 SLP270 T00171011=
201902180644 SPECI KPAE 180644Z AUTO 00000KT 10SM BKN028 BKN110 01/M01 A3031 RMK AO2 T00111011=
201902180553 METAR KPAE 180553Z AUTO 00000KT 10SM OVC110 01/M02 A3030 RMK AO2 SLP267 T00111017 10056 20006 53014=
201902180453 METAR KPAE 180453Z 00000KT 10SM CLR 02/M01 A3028 RMK AO2 SLP260 T00171006=
201902180353 METAR KPAE 180353Z 00000KT 10SM CLR 02/M01 A3028 RMK AO2 SLP258 T00171011=
201902180253 METAR KPAE 180253Z 00000KT 10SM CLR 02/M01 A3026 RMK AO2 SLP253 T00221011 53016=
201902180153 METAR KPAE 180153Z 32004KT 10SM BKN110 04/M01 A3024 RMK AO2 SLP246 T00391006=
201902180053 METAR KPAE 180053Z 30006KT 10SM FEW110 05/00 A3023 RMK AO2 SLP241 T00500000=
201902172353 METAR KPAE 172353Z 32007KT 10SM FEW033 BKN110 06/M01 A3021 RMK AO2 SLP237 T00561006 10061 20028 53011=
201902172253 METAR KPAE 172253Z 29009G16KT 10SM BKN033 06/M01 A3020 RMK AO2 SLP232 T00561006=
201902172153 METAR KPAE 172153Z 31006KT 10SM SCT013 BKN033 05/M01 A3019 RMK AO2 SLP228 T00501011=
201902172053 METAR KPAE 172053Z 34007KT 10SM SCT013 BKN030 05/01 A3018 RMK AO2 SLP226 T00500006 52006=
201902171953 METAR KPAE 171953Z 32005KT 10SM OVC008 04/01 A3018 RMK AO2 SLP225 T00390011=
201902171853 METAR KPAE 171853Z VRB04KT 10SM BKN004 OVC036 04/03 A3017 RMK AO2 SLP220 T00390028=
201902171848 SPECI KPAE 171848Z VRB04KT 10SM BKN004 OVC036 04/03 A3017 RMK AO2=
201902171820 SPECI KPAE 171820Z 32003KT 9SM OVC005 03/02 A3016 RMK AO2 CIG 003V008 T00330022=
201902171805 SPECI KPAE 171805Z 32003KT 9SM BKN004 OVC013 03/02 A3015 RMK AO2 CIG 003V008 T00280017=
201902171800 SPECI KPAE 171800Z 33003KT 9SM SCT004 OVC016 03/02 A3015 RMK AO2 T00280022=
201902171753 METAR KPAE 171753Z 30003KT 9SM BKN006 03/02 A3015 RMK AO2 SLP214 T00280022 10028 20011 52025=
201902171653 METAR KPAE 171653Z 00000KT 10SM OVC006 02/01 A3013 RMK AO2 SLP206 T00220011=
201902171553 METAR KPAE 171553Z 00000KT 7SM OVC009 02/01 A3010 RMK AO2 CIG 005V012 SLP197 T00170011=
201902171541 SPECI KPAE 171541Z 00000KT 9SM BKN009 OVC039 02/01 A3009 RMK AO2 CIG 005V011 T00170011=
201902171453 METAR KPAE 171453Z 00000KT 8SM SCT004 OVC011 01/01 A3007 RMK AO2 SLP189 T00110011 51024=
201902171353 METAR KPAE 171353Z AUTO 00000KT 6SM BR FEW002 BKN012 OVC060 01/01 A3005 RMK AO2 SLP181 T00110006=
201902171309 SPECI KPAE 171309Z AUTO 09003KT 6SM BR FEW002 BKN011 OVC060 02/01 A3003 RMK AO2 T00170006=
201902171253 METAR KPAE 171253Z AUTO 00000KT 7SM FEW012 OVC060 02/01 A3003 RMK AO2 SLP172 T00170006=
201902171153 METAR KPAE 171153Z AUTO 13005KT 8SM BKN060 02/01 A3000 RMK AO2 SLP164 60001 70023 T00170011 10022 20017 51014=
201902171133 SPECI KPAE 171133Z AUTO 12005KT 8SM SCT002 BKN050 OVC065 02/01 A3000 RMK AO2 T00170011=
201902171053 METAR KPAE 171053Z AUTO 13005KT 6SM BR OVC002 02/01 A2999 RMK AO2 SLP161 T00170011=
201902170953 METAR KPAE 170953Z AUTO 13005KT 9SM OVC003 02/02 A2997 RMK AO2 SLP155 T00220017=
201902170908 SPECI KPAE 170908Z AUTO VRB03KT 5SM BR BKN002 BKN006 OVC010 02/02 A2996 RMK AO2 T00220017=
201902170853 METAR KPAE 170853Z AUTO 12005KT 5SM BR SCT002 BKN006 OVC026 02/01 A2996 RMK AO2 RAE0756 SLP150 P0000 60001 T00220011 51010=
201902170848 SPECI KPAE 170848Z AUTO 12005KT 5SM BR BKN002 BKN010 OVC070 02/01 A2996 RMK AO2 RAE0756 P0000=
201902170837 SPECI KPAE 170837Z AUTO VRB03KT 6SM BR SCT002 BKN027 OVC070 02/02 A2995 RMK AO2 RAE0756 P0000 T00220017=
201902170753 METAR KPAE 170753Z AUTO 00000KT 5SM -RA BR FEW021 BKN033 OVC040 02/02 A2994 RMK AO2 SLP144 P0000 T00220017 400390017=
201902170734 SPECI KPAE 170734Z AUTO 00000KT 4SM -RA BR BKN016 OVC029 02/02 A2994 RMK AO2 P0000 T00220017=
201902170724 SPECI KPAE 170724Z AUTO 00000KT 5SM -RA BR BKN014 OVC019 02/02 A2994 RMK AO2 P0000 T00220017=
201902170709 SPECI KPAE 170709Z AUTO 12003KT 8SM -RA OVC015 02/01 A2993 RMK AO2 P0000 T00170011=
201902170653 METAR KPAE 170653Z AUTO 13004KT 9SM -RA OVC014 02/01 A2993 RMK AO2 RAE21B52 SLP139 P0001 T00170011=
201902170553 METAR KPAE 170553Z AUTO 13005KT 7SM -RA OVC014 02/01 A2992 RMK AO2 RAE0456B12UPB0456E12 SLP135 P0001 60006 T00170011 10039 20017 53015=
201902170539 SPECI KPAE 170539Z AUTO 13007KT 6SM -RA BR BKN012 OVC018 02/01 A2991 RMK AO2 RAE0456B12UPB0456E12 P0001 T00170011=
201902170522 SPECI KPAE 170522Z AUTO 13006KT 8SM -RA FEW003 SCT010 OVC016 02/02 A2990 RMK AO2 RAE0456B12UPB0456E12 P0000 T00220017=
201902170509 SPECI KPAE 170509Z AUTO 13006KT 6SM UP BR SCT003 BKN008 OVC018 02/01 A2990 RMK AO2 RAE0456UPB0456 P0000 T00220011=
201902170500 SPECI KPAE 170500Z AUTO 14004KT 8SM UP BKN003 BKN008 OVC022 03/02 A2990 RMK AO2 RAE0456UPB0456 CIG 003V007 P0000 T00280017=
201902170453 METAR KPAE 170453Z AUTO 13004KT 8SM -RA BKN007 OVC014 03/02 A2990 RMK AO2 RAB01UPB20E29 SLP128 P0000 T00280017=
201902170353 METAR KPAE 170353Z 00000KT 10SM BKN007 OVC011 03/02 A2988 RMK AO2 RAB15E42UPB28E29 SLP123 P0001 T00280017=
201902170253 METAR KPAE 170253Z 00000KT 5SM BR BKN007 OVC011 03/01 A2987 RMK AO2 RAE40 SLP119 P0000 60004 T00330011 53007=
201902170153 METAR KPAE 170153Z 35003KT 5SM -RA BKN007 OVC011 04/01 A2986 RMK AO2 UPB10E11 SLP115 P0001 T00390006=
201902170053 METAR KPAE 170053Z 35005KT 4SM -RA BR BKN005 OVC011 03/02 A2985 RMK AO2 SLP113 P0003 T00280022=
201902162353 METAR KPAE 162353Z 27003KT 5SM -RA BR BKN005 OVC011 03/02 A2985 RMK AO2 SLP112 P0003 60014 T00330022 10039 20033 53003=
201902162302 SPECI KPAE 162302Z 00000KT 7SM -RA BKN004 BKN014 OVC024 04/02 A2984 RMK AO2 P0001 T00390022=
201902162300 SPECI KPAE 162300Z 00000KT 7SM -RA BKN016 OVC024 04/02 A2984 RMK AO2 P0000 T00390022=
201902162253 METAR KPAE 162253Z 00000KT 3SM -RA BR BKN005 BKN011 OVC020 04/03 A2984 RMK AO2 SLP110 P0005 T00390028=
201902162200 SPECI KPAE 162200Z 16005KT 3SM -RA BR BKN005 BKN011 OVC020 03/02 A2984 RMK AO2 P0001 T00330022=
201902162153 METAR KPAE 162153Z 15004KT 2SM -RA BR BKN005 BKN011 OVC020 03/02 A2984 RMK AO2 RAB2056 SLP109 P0001 T00330022=
201902162053 METAR KPAE 162053Z 16006KT 2SM BR BKN005 BKN011 OVC020 03/03 A2984 RMK AO2 RAE46 SLP109 P0000 60005 T00330028 50005=
201902161953 METAR KPAE 161953Z 00000KT 2SM -RA BR BKN005 BKN011 OVC020 04/03 A2984 RMK AO2 SLP110 P0001 T00390033=
201902161859 SPECI KPAE 161859Z 13003KT 1SM R16R/P6000FT -RA BR BKN007 BKN024 OVC031 03/03 A2983 RMK AO2 P0000 T00330028=
201902161853 METAR KPAE 161853Z 14003KT 3SM -RA BR BKN004 OVC014 03/03 A2983 RMK AO2 SLP107 P0004 T00330028=
201902161805 SPECI KPAE 161805Z 00000KT 3SM -RA BR BKN004 OVC014 03/03 A2983 RMK AO2 P0000 T00330028=
201902161753 METAR KPAE 161753Z 00000KT 3SM -RA BR BKN005 OVC023 03/03 A2982 RMK AO2 RAB1656 SLP103 P0002 60002 T00330028 10033 20017 51015=
201902161728 SPECI KPAE 161728Z 15003KT 6SM -RA BR BKN005 OVC023 03/02 A2982 RMK AO2 RAB1656 P0000 T00280022=
201902161717 SPECI KPAE 161717Z 16004KT 9SM -RA SCT003 OVC023 03/02 A2982 RMK AO2 RAB1656 P0000 T00280022=
201902161653 METAR KPAE 161653Z 14003KT 10SM OVC022 03/02 A2981 RMK AO2 SLP100 T00280017=
201902161553 METAR KPAE 161553Z 00000KT 10SM BKN025 BKN033 BKN044 02/01 A2980 RMK AO2 SLP094 T00220011=
201902161453 METAR KPAE 161453Z 00000KT 10SM OVC050 02/01 A2978 RMK AO2 RAB29E38 SLP088 P0000 60000 T00220006 53011=
201902161353 METAR KPAE 161353Z 00000KT 10SM FEW045 BKN075 02/01 A2977 RMK AO2 SLP084 T00220006=
201902161253 METAR KPAE 161253Z 09003KT 10SM OVC043 02/01 A2975 RMK AO2 SLP080 T00220006=
201902161153 METAR KPAE 161153Z 08004KT 10SM FEW041 BKN060 02/01 A2975 RMK AO2 SLP076 60000 T00220006 10039 20017 51009=
201902161053 METAR KPAE 161053Z 00000KT 10SM OVC060 03/01 A2974 RMK AO2 SLP073 T00280011=
201902160953 METAR KPAE 160953Z 00000KT 10SM OVC050 02/01 A2973 RMK AO2 SLP070 T00220011=
201902160853 METAR KPAE 160853Z 08004KT 10SM FEW048 SCT060 BKN110 04/01 A2972 RMK AO2 RAE0759 SLP066 P0000 60000 T00390011 51003=
201902160753 METAR KPAE 160753Z 08005KT 10SM -RA FEW034 OVC055 04/02 A2971 RMK AO2 RAB50 SLP065 P0000 T00390017 400720028=
201902160653 METAR KPAE 160653Z 08005KT 10SM FEW042 BKN050 03/02 A2971 RMK AO2 SLP064 T00330017=
201902160553 METAR KPAE 160553Z 07006KT 10SM SCT060 03/02 A2971 RMK AO2 SLP064 T00330017 10067 20033 52004=
201902160453 METAR KPAE 160453Z 08006KT 10SM FEW050 04/02 A2970 RMK AO2 SLP061 T00390017=
201902160353 METAR KPAE 160353Z AUTO 08006KT 10SM CLR 04/02 A2970 RMK AO2 SLP059 T00440017=
201902160253 METAR KPAE 160253Z VRB05KT 10SM CLR 06/02 A2969 RMK AO2 SLP058 T00560017 51009=
201902160153 METAR KPAE 160153Z 13007KT 10SM SCT024 06/02 A2969 RMK AO2 SLP058 T00560017=
201902160053 METAR KPAE 160053Z 16006KT 10SM BKN025 06/02 A2968 RMK AO2 SLP054 T00560017=
201902152353 METAR KPAE 152353Z 14011G15KT 10SM BKN021 07/02 A2966 RMK AO2 SLP048 T00720022 10072 20044 53011=
201902152253 METAR KPAE 152253Z 14009KT 10SM BKN021 06/02 A2965 RMK AO2 SLP042 T00610022=
201902152234 SPECI KPAE 152234Z 14010KT 10SM BKN021 06/02 A2964 RMK AO2 T00610022=
201902152206 SPECI KPAE 152206Z 16013KT 10SM SCT018 06/02 A2963 RMK AO2 T00610022=
201902152153 METAR KPAE 152153Z 15010G19KT 10SM BKN020 BKN025 07/03 A2964 RMK AO2 SLP039 T00670028=
201902152053 METAR KPAE 152053Z 14010KT 10SM OVC024 06/02 A2963 RMK AO2 SLP037 T00610022 51016=
201902151953 METAR KPAE 151953Z 15011KT 10SM BKN020 06/02 A2963 RMK AO2 SLP035 T00560022=
201902151853 METAR KPAE 151853Z 14008KT 10SM FEW012 BKN070 05/02 A2961 RMK AO2 SLP028 T00500022=
201902151753 METAR KPAE 151753Z 14008KT 10SM BKN048 OVC060 04/01 A2958 RMK AO2 SLP021 60000 T00440011 10044 20033 53028=
201902151653 METAR KPAE 151653Z 13007KT 10SM FEW034 OVC046 04/01 A2956 RMK AO2 SLP011 T00440011=
201902151553 METAR KPAE 151553Z 11007KT 10SM OVC044 04/01 A2952 RMK AO2 RAB25E43 SLP002 P0000 T00390011=
201902151453 METAR KPAE 151453Z VRB04KT 10SM OVC038 03/01 A2950 RMK AO2 RAE02 SLP993 P0000 60000 T00330011 53023=
201902151353 METAR KPAE 151353Z 12008KT 10SM -RA SCT028 OVC037 03/01 A2948 RMK AO2 RAB06E18B50 SLP985 P0000 T00330011=
201902151253 METAR KPAE 151253Z 12009KT 10SM FEW028 BKN036 OVC050 04/01 A2945 RMK AO2 RAE40 SLP977 P0000 T00390011=
201902151153 METAR KPAE 151153Z 12009KT 10SM -RA FEW036 BKN046 OVC060 03/01 A2943 RMK AO2 RAB24 SLP970 P0000 60000 70019 T00330011 10039 20028 53019=
201902151053 METAR KPAE 151053Z 08007KT 10SM OVC065 03/01 A2940 RMK AO2 SLP961 T00330011=
201902150953 METAR KPAE 150953Z VRB05KT 10SM FEW042 OVC055 03/01 A2940 RMK AO2 SLP958 T00330011=
201902150853 METAR KPAE 150853Z VRB04KT 10SM FEW041 BKN100 BKN120 03/02 A2937 RMK AO2 SLP951 60000 T00330017 53015=
201902150753 METAR KPAE 150753Z 08007KT 10SM FEW037 SCT046 BKN110 03/02 A2935 RMK AO2 SLP942 T00280017 400441006=
201902150653 METAR KPAE 150653Z VRB04KT 10SM FEW036 OVC049 03/02 A2934 RMK AO2 RAB0558E21 SLP938 P0000 T00330022=
201902150600 SPECI KPAE 150600Z 12010KT 9SM -RA FEW018 BKN034 OVC045 04/03 A2933 RMK AO2 RAB0558 P0000 T00390033=
201902150553 METAR KPAE 150553Z 13011KT 10SM BKN008 BKN013 OVC020 04/03 A2933 RMK AO2 RAE12 SLP936 P0000 60013 T00390028 10039 20028 51038=
201902150453 METAR KPAE 150453Z 13013KT 7SM -RA BKN008 OVC015 04/03 A2930 RMK AO2 SLP924 P0004 T00390028=
201902150423 SPECI KPAE 150423Z 14014G24KT 7SM -RA BKN008 OVC015 04/03 A2928 RMK AO2 P0003 T00390028=
201902150353 METAR KPAE 150353Z 14015G22KT 6SM -RA BR OVC013 04/03 A2926 RMK AO2 PK WND 15029/0324 SLP912 P0001 T00390028=
201902150340 SPECI KPAE 150340Z 14013G22KT 8SM -RA OVC014 04/03 A2925 RMK AO2 PK WND 15029/0324 P0000 T00390028=
201902150253 METAR KPAE 150253Z 12015KT 9SM -RA SCT021 BKN025 OVC030 04/03 A2922 RMK AO2 SLP897 P0003 60008 T00390028 53031=
201902150230 SPECI KPAE 150230Z 12009KT 7SM -RA BKN023 OVC028 04/02 A2920 RMK AO2 PRESRR P0002 T00390022=
201902150153 METAR KPAE 150153Z 12007KT 8SM -RA OVC032 04/02 A2917 RMK AO2 SLP882 P0002 T00390022=
201902150053 METAR KPAE 150053Z VRB03KT 6SM -RA BR FEW026 OVC035 03/02 A2913 RMK AO2 SLP867 P0003 T00330017=
201902142353 METAR KPAE 142353Z 00000KT 6SM -RA BR FEW019 OVC026 04/02 A2912 RMK AO2 SLP864 P0006 60006 T00390017 10044 20028 50001=
201902142304 SPECI KPAE 142304Z 13004KT 8SM -RA OVC021 03/01 A2912 RMK AO2 P0001 T00330006=
201902142253 METAR KPAE 142253Z 00000KT 8SM -RA OVC031 03/00 A2912 RMK AO2 RAB21 SLP866 P0000 T00330000=
201902142153 METAR KPAE 142153Z 00000KT 10SM OVC070 04/M01 A2912 RMK AO2 SLP863 T00441011=
201902142053 METAR KPAE 142053Z 32006KT 10SM OVC070 04/M01 A2912 RMK AO2 SLP865 T00391011 58039=
201902141953 METAR KPAE 141953Z 34007KT 10SM OVC090 03/00 A2917 RMK AO2 SLP881 T00330000=
201902141853 METAR KPAE 141853Z 34006KT 10SM BKN070 OVC090 03/M01 A2920 RMK AO2 SLP892 T00281011=
201902141753 METAR KPAE 141753Z 32003KT 10SM BKN075 OVC085 03/M01 A2924 RMK AO2 SLP904 T00281011 10028 21006 56020=
201902141653 METAR KPAE 141653Z 00000KT 10SM OVC060 03/M01 A2925 RMK AO2 SLP909 T00281011=
201902141553 METAR KPAE 141553Z 00000KT 10SM FEW065 BKN090 BKN120 02/M02 A2927 RMK AO2 SLP915 T00171017=
201902141453 METAR KPAE 141453Z 34004KT 10SM OVC055 01/M03 A2929 RMK AO2 SLP925 T00111028 56033=
201902141353 METAR KPAE 141353Z AUTO 36003KT 10SM SCT050 OVC060 01/M03 A2932 RMK AO2 SLP933 T00061033=
201902141253 METAR KPAE 141253Z AUTO 07003KT 10SM BKN060 01/M04 A2936 RMK AO2 SLP948 T00061039=
201902141153 METAR KPAE 141153Z AUTO 07005KT 10SM CLR 01/M05 A2939 RMK AO2 SLP958 70001 T00111050 10011 21006 56031=
201902141053 METAR KPAE 141053Z AUTO VRB06KT 10SM CLR 01/M04 A2942 RMK AO2 SLP965 T00111044=
201902140953 METAR KPAE 140953Z AUTO 03004KT 10SM CLR 00/M02 A2945 RMK AO2 SLP979 T00001017=
201902140853 METAR KPAE 140853Z AUTO 35003KT 10SM CLR M01/M02 A2949 RMK AO2 SLP990 T10061017 58020=
201902140753 METAR KPAE 140753Z AUTO 01003KT 10SM CLR 00/M01 A2951 RMK AO2 SLP998 T00001011 400280000=
201902140653 METAR KPAE 140653Z AUTO 36004KT 10SM SCT009 01/M01 A2953 RMK AO2 SLP005 T00061011=
201902140650 SPECI KPAE 140650Z AUTO 35004KT 10SM SCT009 01/M01 A2953 RMK AO2=
201902140553 METAR KPAE 140553Z AUTO 00000KT 10SM OVC011 01/M01 A2955 RMK AO2 SLP010 T00061011 10022 20000 56010=
201902140548 SPECI KPAE 140548Z AUTO 00000KT 10SM OVC010 01/M01 A2954 RMK AO2=
201902140453 METAR KPAE 140453Z AUTO 00000KT 10SM OVC009 01/M01 A2957 RMK AO2 SLP017 T00111011=
201902140400 SPECI KPAE 140400Z 30003KT 10SM OVC012 01/M03 A2958 RMK AO2 T00061028=
201902140353 METAR KPAE 140353Z 30003KT 10SM SCT015 OVC065 01/M03 A2958 RMK AO2 SLP020 T00061028=
201902140253 METAR KPAE 140253Z 30003KT 10SM OVC065 01/M04 A2959 RMK AO2 SLP024 T00061039 56007=
201902140208 SPECI KPAE 140208Z 32005KT 10SM SCT014 OVC065 01/M03 A2959 RMK AO2 T00111033=
201902140153 METAR KPAE 140153Z 32005KT 10SM BKN015 OVC065 01/M03 A2959 RMK AO2 SLP024 T00111033=
201902140053 METAR KPAE 140053Z VRB05KT 10SM CLR 02/M04 A2960 RMK AO2 SLP028 T00171039=
201902132353 METAR KPAE 132353Z AUTO 32007KT 10SM CLR 02/M03 A2961 RMK AO2 SLP030 T00221028 10028 20006 56007=
201902132253 METAR KPAE 132253Z 32008KT 10SM SCT024 03/M03 A2961 RMK AO2 SLP032 T00281033=
201902132200 SPECI KPAE 132200Z 33008KT 10SM SCT024 03/M03 A2962 RMK AO2 T00281028=
201902132153 METAR KPAE 132153Z 34006KT 10SM BKN024 03/M03 A2961 RMK AO2 SLP032 T00281028=
201902132053 METAR KPAE 132053Z 33008KT 10SM OVC023 02/M02 A2963 RMK AO2 SLP037 T00171017 50000=
201902132027 SPECI KPAE 132027Z 33010KT 10SM SCT005 OVC023 02/M01 A2963 RMK AO2 T00171006=
201902131953 METAR KPAE 131953Z 33008KT 10SM BKN006 OVC024 02/M01 A2964 RMK AO2 SLP040 T00171006=
201902131940 SPECI KPAE 131940Z 32008KT 10SM BKN005 BKN011 OVC024 02/M01 A2964 RMK AO2 T00171006=
201902131853 METAR KPAE 131853Z 32007KT 5SM BR OVC003 01/00 A2964 RMK AO2 SLP041 T00060000=
201902131843 SPECI KPAE 131843Z 33007KT 8SM OVC002 01/00 A2964 RMK AO2 T00060000=
201902131815 SPECI KPAE 131815Z 32007KT 3SM BR OVC001 01/00 A2963 RMK AO2 T00060000=
201902131812 SPECI KPAE 131812Z 32007KT 1SM R16R/1800VP6000FT BR VV001 01/01 A2963 RMK AO2 T00060006=
201902131804 SPECI KPAE 131804Z 32008KT 1/4SM R16R/1600V2400FT FG VV001 01/00 A2963 RMK AO2 T00060000=
201902131753 METAR KPAE 131753Z 30008KT 1/4SM R16R/1200V1800FT FG VV001 01/00 A2963 RMK AO2 SLP038 60001 T00060000 10022 20006 53009=
201902131747 SPECI KPAE 131747Z 32005KT 1/4SM R16R/1200V1800FT FG VV001 01/01 A2963 RMK AO2=
201902131732 SPECI KPAE 131732Z 32005KT 3/4SM R16R/1800V4000FT BR OVC002 01/01 A2962 RMK AO2 T00110011=
201902131713 SPECI KPAE 131713Z 31005KT 1/2SM R16R/1400V3000FT FG VV001 01/01 A2962 RMK AO2 T00110006=
201902131705 SPECI KPAE 131705Z 33005KT 1/4SM R16R/1000V1400FT FG VV001 01/01 A2961 RMK AO2 T00110006=
201902131658 SPECI KPAE 131658Z 33004KT 1/4SM R16R/1000VP6000FT FG BKN002 OVC006 01/01 A2961 RMK AO2 T00110011=
201902131653 METAR KPAE 131653Z 33005KT 1 1/2SM R16R/3000VP6000FT BR BKN002 OVC004 02/01 A2961 RMK AO2 RAE1555UPB1555E1559B10E23SNB1559E10 SLP032 P0001 T00170011=
201902131624 SPECI KPAE 131624Z 31003KT 3SM BR OVC002 01/01 A2961 RMK AO2 RAE1555UPB1555E1559B10E23SNB1559E10 CIG 001V008 P0001 T00110011=
201902131615 SPECI KPAE 131615Z 33003KT 2 1/2SM UP BR OVC002 01/01 A2961 RMK AO2 RAE1555UPB1555E1559B10SNB1559E10 CIG 001V008 P0001 T00110011=
201902131602 SPECI KPAE 131602Z 35005KT 2SM R16R/3500VP6000FT -SN BR OVC001 01/01 A2960 RMK AO2 RAE1555UPB1555E1559SNB1559 P0000 T00110006=
201902131553 METAR KPAE 131553Z 34004KT 1 3/4SM R16R/3500VP6000FT -RA BR OVC001 02/01 A2960 RMK AO2 RAE02B19 SLP028 P0000 T00170011=
201902131539 SPECI KPAE 131539Z 33004KT 4SM -RA BR OVC002 02/01 A2960 RMK AO2 RAE02B19 CIG 001V006 P0000 T00170011=
201902131517 SPECI KPAE 131517Z 29004KT 5SM BR OVC001 02/01 A2959 RMK AO2 RAE02 P0000 T00170011=
201902131500 SPECI KPAE 131500Z 32005KT 5SM -RA BR BKN002 OVC006 02/01 A2959 RMK AO2 CIG 001V005 P0000 T00170011=
201902131453 METAR KPAE 131453Z 31004KT 7SM -RA OVC006 02/01 A2959 RMK AO2 RAE16B52 CIG 001V008 SLP026 P0000 60000 T00170011 58003=
201902131428 SPECI KPAE 131428Z AUTO 00000KT 10SM OVC005 02/01 A2960 RMK AO2 RAE16 CIG 004V008 P0000 T00170011=
201902131353 METAR KPAE 131353Z AUTO 25005KT 10SM -RA OVC004 02/01 A2960 RMK AO2 RAB47 CIG 004V007 SLP027 P0000 T00170011=
201902131328 SPECI KPAE 131328Z AUTO 00000KT 9SM OVC005 02/02 A2960 RMK AO2 CIG 003V008 T00220017=
201902131316 SPECI KPAE 131316Z AUTO 00000KT 6SM BR OVC004 02/02 A2960 RMK AO2 T00220017=
201902131253 METAR KPAE 131253Z AUTO 00000KT 8SM OVC005 02/02 A2960 RMK AO2 SLP028 T00170017=
201902131222 SPECI KPAE 131222Z AUTO 12005KT 8SM OVC008 02/02 A2960 RMK AO2 CIG 003V013 T00220017=
201902131153 METAR KPAE 131153Z AUTO 00000KT 5SM BR OVC003 02/02 A2960 RMK AO2 SLP029 70004 T00220017 10028 20017 58009=
201902131139 SPECI KPAE 131139Z AUTO 09003KT 4SM BR OVC004 02/01 A2961 RMK AO2 T00220011=
201902131128 SPECI KPAE 131128Z AUTO 08005KT 5SM BR OVC005 02/01 A2961 RMK AO2 T00220011=
201902131116 SPECI KPAE 131116Z AUTO VRB03KT 10SM OVC004 02/02 A2961 RMK AO2 CIG 003V009 T00220017=
201902131053 METAR KPAE 131053Z AUTO 14005KT 9SM BKN005 OVC012 02/01 A2962 RMK AO2 SLP035 T00170011=
201902131048 SPECI KPAE 131048Z AUTO 14003KT 9SM BKN005 OVC012 02/02 A2962 RMK AO2=
201902131025 SPECI KPAE 131025Z AUTO 15005KT 10SM FEW005 OVC013 02/02 A2962 RMK AO2 T00220017=
201902131017 SPECI KPAE 131017Z AUTO 15007KT 10SM SCT005 OVC015 02/02 A2962 RMK AO2 T00220017=
201902130953 METAR KPAE 130953Z AUTO 13006KT 10SM OVC005 02/01 A2963 RMK AO2 CIG 003V010 SLP039 T00220011=
201902130920 SPECI KPAE 130920Z AUTO 16003KT 10SM BKN005 BKN013 OVC085 02/02 A2964 RMK AO2 T00170017=
201902130913 SPECI KPAE 130913Z AUTO 16003KT 10SM SCT006 BKN021 OVC085 02/02 A2963 RMK AO2 T00220017=
201902130904 SPECI KPAE 130904Z AUTO 16005KT 10SM FEW008 SCT021 OVC085 02/01 A2963 RMK AO2 T00220011=
201902130853 METAR KPAE 130853Z AUTO 13007KT 10SM FEW010 SCT015 OVC022 02/01 A2964 RMK AO2 SLP042 T00220011 56014=
201902130753 METAR KPAE 130753Z AUTO 18006KT 10SM SCT008 BKN014 OVC020 02/01 A2967 RMK AO2 SLP052 T00220011 400281011=
201902130708 SPECI KPAE 130708Z AUTO 18006KT 10SM OVC005 02/01 A2968 RMK AO2 T00170011=
201902130653 METAR KPAE 130653Z AUTO 17005KT 10SM OVC004 02/01 A2968 RMK AO2 SLP056 T00220011=
201902130633 SPECI KPAE 130633Z AUTO 19007KT 10SM OVC004 02/02 A2969 RMK AO2 T00220017=
201902130602 SPECI KPAE 130602Z AUTO 15009KT 10SM BKN007 OVC012 03/02 A2969 RMK AO2 CIG 005V010 T00280017=
201902130553 METAR KPAE 130553Z AUTO 14007KT 10SM OVC010 03/02 A2969 RMK AO2 CIG 006V014 SLP058 T00280017 10028 20017 56005=
201902130543 SPECI KPAE 130543Z AUTO 15009KT 10SM BKN008 OVC013 03/02 A2969 RMK AO2 CIG 006V012 T00280017=
201902130500 SPECI KPAE 130500Z AUTO 13009KT 10SM OVC012 03/02 A2969 RMK AO2 T00280017=
201902130453 METAR KPAE 130453Z AUTO 13011KT 10SM BKN008 OVC012 03/02 A2969 RMK AO2 SLP058 T00280017=
201902130400 SPECI KPAE 130400Z 13008KT 10SM BKN008 OVC012 03/02 A2970 RMK AO2 T00280017=
201902130353 METAR KPAE 130353Z 13008KT 9SM OVC012 03/02 A2970 RMK AO2 SLP061 T00280017=
201902130333 SPECI KPAE 130333Z 13007KT 10SM OVC010 03/02 A2970 RMK AO2 CIG 007V014 T00280017=
201902130253 METAR KPAE 130253Z 13009KT 10SM OVC009 03/02 A2970 RMK AO2 CIG 006V012 SLP062 T00280017 53012=
201902130153 METAR KPAE 130153Z VRB05KT 10SM OVC006 03/02 A2968 RMK AO2 SLP057 T00280017=
201902130100 SPECI KPAE 130100Z 15010KT 10SM OVC005 02/02 A2967 RMK AO2 T00220017=
201902130053 METAR KPAE 130053Z 13007KT 3/4SM R16R/P6000FT BR OVC005 02/02 A2967 RMK AO2 SLP052 T00220017=
201902122353 METAR KPAE 122353Z 13010KT 3/4SM R16R/P6000FT BR OVC002 02/01 A2966 RMK AO2 SLP050 60001 T00170011 10022 20006 53002=
201902122315 SPECI KPAE 122315Z 13009KT 1SM R16R/P6000FT BR BKN002 OVC010 02/01 A2966 RMK AO2 T00170011=
201902122300 SPECI KPAE 122300Z 13008KT 10SM BKN002 OVC010 02/01 A2965 RMK AO2 T00170011=
201902122253 METAR KPAE 122253Z 14011KT 1SM R16R/P6000FT BR BKN004 OVC010 02/01 A2965 RMK AO2 RAE2154UPB2158E07 CIG 003V006 SLP046 P0000 T00170011=
201902122200 SPECI KPAE 122200Z 13009KT 1SM R16R/P6000FT UP BR OVC003 01/01 A2965 RMK AO2 RAE2154UPB2158 P0000 T00110006=
201902122153 METAR KPAE 122153Z 13011KT 2SM RA BR OVC003 01/01 A2965 RMK AO2 UPE2057RAB2059SNB2057E2059 SLP047 P0000 T00110006=
201902122053 METAR KPAE 122053Z 13011KT 2SM UP BR OVC004 01/01 A2966 RMK AO2 UPB07E11B32SNE1957B11E32 SLP048 P0001 60001 T00110006 58004=
201902121953 METAR KPAE 121953Z 13010KT 2SM -SN BR OVC003 01/01 A2967 RMK AO2 SLP051 P0000 T00110006=
201902121858 SPECI KPAE 121858Z 12010KT 1SM R16R/P6000FT -SN BR OVC004 01/01 A2966 RMK AO2 P0000 T00110006=
201902121853 METAR KPAE 121853Z 13010KT 2SM -SN BR OVC004 01/01 A2967 RMK AO2 SNB00 SLP052 P0000 T00110006=
201902121753 METAR KPAE 121753Z 13008KT 2SM BR OVC004 01/00 A2967 RMK AO2 SNE24 SLP052 P0000 60003 T00060000 10006 21006 55000=
201902121653 METAR KPAE 121653Z VRB05KT 1SM R16R/P6000FT -SN BR OVC007 00/00 A2966 RMK AO2 SNE15B50 CIG 004V010 SLP051 P0000 T00000000=
201902121649 SPECI KPAE 121649Z VRB05KT 1SM R16R/P6000FT BR OVC008 00/00 A2967 RMK AO2 SNE15 CIG 004V010 P0000=
201902121556 SPECI KPAE 121556Z 11004KT 3SM -SN BR BKN005 OVC015 00/M01 A2967 RMK AO2 P0000 T00001006=
201902121553 METAR KPAE 121553Z VRB03KT 1SM R16R/P6000FT -SN BR BKN004 OVC015 00/M01 A2966 RMK AO2 SNE21B46 SLP051 P0000 T00001006=
201902121546 SPECI KPAE 121546Z VRB05KT 4SM -SN BR BKN004 OVC013 00/M01 A2966 RMK AO2 SNE21B46 P0000 T00001006=
201902121453 METAR KPAE 121453Z AUTO 11006KT 4SM -SN BR OVC003 00/M01 A2967 RMK AO2 SLP052 P0000 60003 T00001006 55004=
201902121450 SPECI KPAE 121450Z AUTO VRB05KT 3SM -SN BR OVC003 00/M01 A2967 RMK AO2 P0000=
201902121442 SPECI KPAE 121442Z AUTO VRB04KT 2 1/2SM -SN BR OVC003 00/M01 A2967 RMK AO2 P0000 T00001006=
201902121407 SPECI KPAE 121407Z AUTO VRB06KT 3SM -SN BR OVC003 M01/M01 A2968 RMK AO2 P0000 T10061011=
201902121353 METAR KPAE 121353Z AUTO VRB04KT 2 1/2SM -SN BR BKN003 BKN017 OVC039 M01/M02 A2968 RMK AO2 SLP055 P0002 T10061017=
201902121348 SPECI KPAE 121348Z AUTO VRB04KT 2 1/2SM -SN BR SCT004 BKN017 OVC037 M01/M01 A2968 RMK AO2 P0001=
201902121337 SPECI KPAE 121337Z AUTO VRB04KT 4SM -SN BR FEW004 OVC034 M01/M01 A2968 RMK AO2 P0001 T10061011=
201902121326 SPECI KPAE 121326Z AUTO VRB05KT 2SM -SN BR OVC030 M01/M01 A2968 RMK AO2 P0001 T10061011=
201902121253 METAR KPAE 121253Z AUTO VRB06KT 1 1/2SM -SN BR OVC018 M01/M01 A2968 RMK AO2 SLP057 P0001 T10061011=
201902121244 SPECI KPAE 121244Z AUTO VRB06KT 1 1/2SM -SN BR FEW003 OVC019 M01/M01 A2969 RMK AO2 P0001 T10061011=
201902121235 SPECI KPAE 121235Z AUTO 12006KT 2 1/2SM -SN BR SCT003 OVC019 M01/M01 A2969 RMK AO2 P0000 T10061011=
201902121211 SPECI KPAE 121211Z AUTO 09007KT 3SM -SN BR BKN003 OVC019 M01/M02 A2967 RMK AO2 P0000 T10111017=
201902121159 SPECI KPAE 121159Z AUTO 08009KT 2 1/2SM -SN BR BKN003 OVC019 M01/M02 A2968 RMK AO2 P0000 T10111017=
201902121153 METAR KPAE 121153Z AUTO 09006KT 3SM -SN BR SCT003 OVC019 M01/M01 A2967 RMK AO2 SLP055 P0001 60002 70028 T10061011 10006 21006 57007=
201902121151 SPECI KPAE 121151Z AUTO 09007KT 4SM -SN BR SCT003 OVC019 M01/M01 A2968 RMK AO2 P0001=
201902121125 SPECI KPAE 121125Z AUTO VRB06KT 3SM -SN BR BKN003 OVC017 00/M01 A2969 RMK AO2 P0001 T00001006=
201902121053 METAR KPAE 121053Z AUTO 12007KT 2SM -SN BR BKN004 OVC018 00/M01 A2969 RMK AO2 SLP060 P0000 T00001006=
201902121051 SPECI KPAE 121051Z AUTO 12007KT 2SM -SN BR BKN004 OVC018 00/M01 A2969 RMK AO2 P0000=
201902121038 SPECI KPAE 121038Z AUTO VRB06KT 1 3/4SM -SN BR OVC004 00/M01 A2969 RMK AO2 P0000 T00001006=
201902121031 SPECI KPAE 121031Z AUTO 10006KT 2SM -SN BR OVC004 00/M01 A2969 RMK AO2 P0000 T00001006=
201902120953 METAR KPAE 120953Z AUTO 12009G16KT 3SM -SN BR OVC003 00/M01 A2968 RMK AO2 SNE10B39 SLP055 P0000 T00001006=
201902120853 METAR KPAE 120853Z AUTO 12011KT 3SM -SN BR OVC004 01/00 A2968 RMK AO2 SLP056 P0000 60001 T00060000 51005=
201902120848 SPECI KPAE 120848Z AUTO 11008KT 2 1/2SM -SN BR OVC004 01/00 A2968 RMK AO2 P0000=
201902120832 SPECI KPAE 120832Z AUTO 11009KT 1 1/2SM -SN BR OVC004 01/00 A2969 RMK AO2 CIG 003V006 P0000 T00060000=
201902120753 METAR KPAE 120753Z AUTO 12013KT 2 1/2SM -SN BR BKN004 BKN010 OVC035 01/00 A2968 RMK AO2 SLP055 P0001 T00060000 400061044=
201902120745 SPECI KPAE 120745Z AUTO 12014KT 2 1/2SM -SN BR BKN004 OVC010 01/00 A2968 RMK AO2 P0001 T00060000=
201902120653 METAR KPAE 120653Z AUTO 12010G17KT 4SM -SN BR OVC004 00/M01 A2967 RMK AO2 CIG 003V008 SLP052 P0000 T00001006=
201902120639 SPECI KPAE 120639Z AUTO 12010G17KT 3SM -SN BR OVC004 00/M01 A2966 RMK AO2 P0000 T00001006=
201902120609 SPECI KPAE 120609Z AUTO 12009G18KT 2 1/2SM -SN BR BKN004 BKN010 OVC026 00/M01 A2965 RMK AO2 P0000 T00001006=
201902120601 SPECI KPAE 120601Z AUTO 11010G19KT 3SM -SN BR SCT004 BKN014 OVC026 00/M01 A2965 RMK AO2 P0000 T00001011=
201902120553 METAR KPAE 120553Z AUTO 11009G16KT 2SM -SN BR SCT004 BKN016 OVC024 00/M01 A2965 RMK AO2 SLP047 P0001 60021 T00001006 10000 21011 55000=
201902120551 SPECI KPAE 120551Z AUTO 11009G16KT 2SM -SN BR FEW004 BKN014 OVC022 00/M01 A2965 RMK AO2 P0001=
201902120542 SPECI KPAE 120542Z AUTO 12009G15KT 1 1/2SM -SN BR SCT004 OVC017 00/M01 A2966 RMK AO2 P0001 T00001011=
201902120529 SPECI KPAE 120529Z AUTO 11009G18KT 1 1/2SM -SN BR BKN005 OVC017 00/M01 A2966 RMK AO2 P0001 T00001011=
201902120453 METAR KPAE 120453Z AUTO 11008KT 2 1/2SM -SN BR OVC006 M01/M02 A2964 RMK AO2 SLP045 P0002 T10111017=
201902120428 SPECI KPAE 120428Z 09010G17KT 2 1/2SM -SN BR BKN006 OVC015 M01/M02 A2963 RMK AO2 P0001 T10111017=
201902120413 SPECI KPAE 120413Z 08011KT 1 3/4SM -SN BR BKN006 OVC015 M01/M02 A2963 RMK AO2 P0000 T10111017=
201902120409 SPECI KPAE 120409Z 08010G15KT 2SM -SN BR SCT006 OVC015 M01/M02 A2963 RMK AO2 P0000 T10111017=
201902120402 SPECI KPAE 120402Z 09007KT 1 3/4SM -SN BR SCT005 OVC015 M01/M01 A2964 RMK AO2 P0000 T10061011=
201902120355 SPECI KPAE 120355Z 09005KT 1SM R16R/P6000FT -SN BR BKN015 OVC026 M01/M02 A2964 RMK AO2 P0000 T10111017=
201902120353 METAR KPAE 120353Z 09008KT 1SM R16R/P6000FT -SN BR BKN005 OVC015 M01/M02 A2964 RMK AO2 SLP044 P0006 T10111017=
201902120253 METAR KPAE 120253Z 09008KT 1SM R16R/P6000FT -SN BR OVC005 M01/M02 A2965 RMK AO2 SLP048 P0005 60012 T10061017 55006=
201902120223 SPECI KPAE 120223Z 09005KT 1SM R16R/6000VP6000FT -SN BR FEW005 OVC011 M01/M01 A2964 RMK AO2 P0004 T10061011=
201902120153 METAR KPAE 120153Z 09007KT 1SM R16R/P6000FT -SN BR BKN005 OVC009 M01/M02 A2965 RMK AO2 SLP048 P0002 T10111017=
201902120129 SPECI KPAE 120129Z 08011KT 1SM R16R/P6000FT -SN BR BKN006 OVC016 M01/M02 A2965 RMK AO2 P0001 T10111017=
201902120117 SPECI KPAE 120117Z 09011KT 1/2SM R16R/P6000FT -SN FZFG VV010 M01/M02 A2964 RMK AO2 P0001 T10111022=
201902120104 SPECI KPAE 120104Z 08013KT 1/2SM R16R/3500VP6000FT SN FZFG VV012 M01/M02 A2964 RMK AO2 PRESFR P0001 T10111022=
201902120102 SPECI KPAE 120102Z 08012KT 1/4SM R16R/3000V6000FT SN FZFG VV011 M01/M02 A2965 RMK AO2 P0001 T10111022=
201902120053 SPECI KPAE 120053Z COR 08013KT 1/2SM R16R/3500VP6000FT SN FZFG VV012 M01/M02 A2964 RMK AO2 PRESFR P0001 T10111022=
201902120053 METAR KPAE 120053Z 08012KT 1/2SM R16R/3000V4500FT SN FZFG VV010 M01/M02 A2966 RMK AO2 SLP050 P0005 T10111017=
201902120035 SPECI KPAE 120035Z 08010KT 1/4SM R16R/3500V4000FT SN FZFG VV011 M01/M02 A2967 RMK AO2 P0004 T10111017=
201902120010 SPECI KPAE 120010Z 08010KT 1/4SM R16R/2400V3500FT SN FZFG VV008 M01/M02 A2966 RMK AO2 P0003 T10061017=
201902120000 SPECI KPAE 120000Z 08008KT 1/4SM R16R/2600V3500FT SN FZFG FEW003 OVC010 M01/M02 A2967 RMK AO2 P0001 T10061017=
201902112353 METAR KPAE 112353Z 08009KT 1/2SM R16R/3000V4000FT SN FZFG BKN008 OVC014 M01/M02 A2967 RMK AO2 SLP054 P0003 60005 T10061017 10000 21028 56020=
201902112251 METAR KPAE 112251Z 07009KT 1/2SM R16R/3500V4500FT SN FZFG BKN008 OVC014 M01/M02 A2968 RMK AO2 SLP057 P0002 T10061017=
201902112250 SPECI KPAE 112250Z 07009KT 3/4SM R16R/4000V4500FT -SN BR BKN008 OVC014 M01/M02 A2968 RMK AO2 P0002=
201902112223 SPECI KPAE 112223Z 08005KT 3/4SM R16R/4500V5000FT -SN BR FEW005 OVC015 00/M02 A2970 RMK AO2 P0001 T00001017=
201902112207 SPECI KPAE 112207Z 09007KT 3/4SM R16R/4000V5000FT -SN BR BKN018 OVC029 00/M02 A2970 RMK AO2 P0000 T00001017=
201902112153 METAR KPAE 112153Z 08008KT 1SM R16R/5500VP6000FT -SN BR BKN024 OVC034 00/M02 A2971 RMK AO2 SNB12 SLP066 P0000 T00001022=
201902112114 SPECI KPAE 112114Z 08007KT 1SM R16R/P6000FT -SN BKN039 BKN047 OVC055 00/M03 A2972 RMK AO2 SNB12 P0000 T00001028=
201902112053 METAR KPAE 112053Z 09006KT 10SM OVC060 00/M03 A2973 RMK AO2 SNE11 SLP074 P0000 60000 T00001028 58011=
201902111953 METAR KPAE 111953Z VRB03KT 2 1/2SM -SN FEW020 BKN025 OVC042 M01/M03 A2975 RMK AO2 SNB49 SLP082 P0000 T10061033=
201902111911 SPECI KPAE 111911Z 08006KT 10SM BKN015 OVC040 M01/M03 A2976 RMK AO2 T10111033=
201902111904 SPECI KPAE 111904Z 08007KT 10SM SCT015 BKN039 OVC070 M01/M03 A2976 RMK AO2 T10111033=
201902111853 METAR KPAE 111853Z 08007KT 10SM BKN015 OVC040 M01/M03 A2976 RMK AO2 SLP085 T10111033=
201902111753 METAR KPAE 111753Z 08010KT 10SM FEW016 OVC028 M03/M04 A2976 RMK AO2 SNE1656 SLP085 P0000 60000 T10281039 11028 21044 53003=
201902111700 SPECI KPAE 111700Z 08007KT 6SM BR SCT030 BKN043 OVC075 M03/M05 A2975 RMK AO2 SNE1656 P0000 T10331050=
201902111653 METAR KPAE 111653Z 08007KT 1SM R16R/P6000FT -SN BR SCT030 OVC042 M03/M05 A2975 RMK AO2 SNB24 SLP082 P0000 T10331050=
201902111634 SPECI KPAE 111634Z 07006KT 1SM R16R/P6000FT -SN OVC038 M03/M06 A2976 RMK AO2 SNB24 P0000 T10331061=
201902111553 METAR KPAE 111553Z 08005KT 10SM FEW034 OVC065 M03/M06 A2976 RMK AO2 SLP084 T10331061=
201902111453 METAR KPAE 111453Z 08006KT 10SM OVC037 M04/M06 A2975 RMK AO2 SLP083 T10391061 50005=
201902111353 METAR KPAE 111353Z AUTO 08005KT 10SM OVC040 M04/M06 A2976 RMK AO2 SLP084 T10391056=
201902111253 METAR KPAE 111253Z AUTO 09005KT 10SM BKN043 M04/M06 A2976 RMK AO2 SLP084 T10441056=
201902111153 METAR KPAE 111153Z AUTO 09003KT 10SM FEW042 M04/M05 A2974 RMK AO2 SLP078 60002 70019 T10391050 11011 21039 51027=
201902111053 METAR KPAE 111053Z AUTO 00000KT 10SM SCT007 OVC045 M03/M04 A2972 RMK AO2 SLP071 T10331044=
201902111021 SPECI KPAE 111021Z AUTO 00000KT 10SM BKN008 BKN043 OVC070 M03/M04 A2971 RMK AO2 T10281044=
201902111010 SPECI KPAE 111010Z AUTO 00000KT 10SM SCT008 BKN043 OVC070 M03/M05 A2971 RMK AO2 T10281050=
201902110953 METAR KPAE 110953Z AUTO 32005KT 10SM FEW042 SCT060 BKN070 M03/M05 A2970 RMK AO2 SLP062 T10281050=
201902110853 METAR KPAE 110853Z AUTO 28006KT 10SM FEW009 BKN042 OVC050 M02/M04 A2966 RMK AO2 SLP049 60002 T10221044 51015=
201902110849 SPECI KPAE 110849Z AUTO 26009KT 10SM FEW009 BKN042 OVC050 M02/M04 A2965 RMK AO2=
201902110840 SPECI KPAE 110840Z AUTO 27008KT 10SM SCT009 BKN013 OVC042 M02/M04 A2965 RMK AO2 T10171039=
201902110833 SPECI KPAE 110833Z AUTO 27007KT 10SM BKN009 OVC042 M02/M03 A2965 RMK AO2 CIG 008V013 T10171033=
201902110753 METAR KPAE 110753Z AUTO 21004KT 10SM FEW018 OVC039 M01/M04 A2963 RMK AO2 SNE02 SLP040 P0000 T10111039 400001106=
201902110702 SPECI KPAE 110702Z AUTO 27008KT 9SM OVC015 M01/M03 A2962 RMK AO2 SNE02 P0000 T10111028=
201902110653 METAR KPAE 110653Z AUTO VRB05KT 2 1/2SM -SN BR BKN013 OVC018 M01/M03 A2961 RMK AO2 SLP034 P0002 T10111028=
201902110651 SPECI KPAE 110651Z AUTO 29006KT 2SM -SN BR BKN011 OVC018 M01/M03 A2961 RMK AO2 P0002=
201902110643 SPECI KPAE 110643Z AUTO 30006KT 1 1/2SM -SN BR BKN011 BKN018 OVC024 M01/M02 A2961 RMK AO2 P0002 T10111022=
201902110636 SPECI KPAE 110636Z AUTO 29008KT 1 3/4SM -SN BR SCT011 BKN017 OVC024 M01/M02 A2960 RMK AO2 P0001 T10111022=
201902110623 SPECI KPAE 110623Z AUTO 28008KT 7SM -SN FEW003 BKN018 OVC024 M01/M02 A2959 RMK AO2 P0001 T10061017=
201902110611 SPECI KPAE 110611Z AUTO 28007KT 4SM -SN BR SCT003 BKN011 OVC028 M01/M01 A2958 RMK AO2 P0001 T10061011=
201902110609 SPECI KPAE 110609Z AUTO 28008KT 2SM -SN BR BKN003 BKN011 OVC028 M01/M01 A2958 RMK AO2 P0001 T10061011=
201902110606 SPECI KPAE 110606Z AUTO 25009KT 1 1/4SM R16R/4500VP6000FT -SN BR OVC005 M01/M02 A2958 RMK AO2 P0001 T10061017=
201902110553 METAR KPAE 110553Z AUTO 23007KT 3/4SM R16R/3000VP6000FT -SN BR OVC003 00/M01 A2957 RMK AO2 SLP019 P0002 60017 T00001011 10000 21011 53012=
201902110531 SPECI KPAE 110531Z AUTO 21005KT 1 3/4SM -SN BR BKN007 OVC033 00/M01 A2956 RMK AO2 P0000 T00001011=
201902110503 SPECI KPAE 110503Z AUTO 18006KT 3SM -SN BR BKN005 OVC020 00/M01 A2955 RMK AO2 P0000 T00001006=
201902110453 METAR KPAE 110453Z AUTO 17005KT 3SM -SN BR BKN003 OVC011 00/M01 A2954 RMK AO2 SLP011 P0011 T00001006=
201902110426 SPECI KPAE 110426Z AUTO 22007KT 1SM R16R/6000VP6000FT -SN BR OVC004 00/M01 A2954 RMK AO2 P0010 T00001011=
201902110419 SPECI KPAE 110419Z 21008G15KT 3/4SM R16R/5500VP6000FT -SN BR OVC004 00/M01 A2953 RMK AO2 P0009 T00001011=
201902110407 SPECI KPAE 110407Z 17006KT 3/4SM R16R/5000VP6000FT -SN BR OVC006 00/M01 A2953 RMK AO2 P0004 T00001006=
201902110400 SPECI KPAE 110400Z VRB04KT 1SM R16R/5500VP6000FT -SN BR OVC006 00/M01 A2953 RMK AO2 P0002 T00001006=
201902110353 METAR KPAE 110353Z 21004KT 2SM -SN BR OVC006 00/M01 A2954 RMK AO2 CIG 004V009 SLP008 P0001 T00001006=
201902110334 SPECI KPAE 110334Z 15006KT 3SM -SN BR BKN008 OVC013 00/M01 A2953 RMK AO2 P0000 T00001011=
201902110311 SPECI KPAE 110311Z 13010KT 1SM R16R/P6000FT -SN BR BKN005 OVC013 M01/M01 A2953 RMK AO2 P0000 T10061011=
201902110253 METAR KPAE 110253Z 12009KT 3/4SM R16R/4500V6000FT -SN BR VV005 M01/M02 A2953 RMK AO2 SLP007 P0003 60003 T10061017 56037=
201902110231 SPECI KPAE 110231Z 12008KT 1/2SM R16R/4000V6000FT SN FZFG BKN006 OVC012 M01/M02 A2954 RMK AO2 P0001 T10111022=
201902110153 METAR KPAE 110153Z 11009G19KT 1SM R16R/P6000FT -SN BR OVC009 M01/M02 A2956 RMK AO2 CIG 006V012 SLP018 P0000 T10111022=
201902110126 SPECI KPAE 110126Z 11009G16KT 1 1/2SM -SN BR BKN008 OVC014 M01/M02 A2958 RMK AO2 CIG 006V009 PRESFR P0000 T10111022=
201902110112 SPECI KPAE 110112Z 12009G14KT 1 1/2SM -SN BR SCT008 BKN015 OVC020 M01/M02 A2959 RMK AO2 P0000 T10111022=
201902110102 SPECI KPAE 110102Z 12011G21KT 2SM -SN BR FEW008 FEW013 OVC022 M01/M03 A2960 RMK AO2 P0000 T10111028=
201902110053 METAR KPAE 110053Z 12012G20KT 1SM R16R/P6000FT -SN BR OVC020 M01/M03 A2961 RMK AO2 SNB06 SLP034 P0000 T10111028=
201902110010 SPECI KPAE 110010Z 12014G20KT 1SM R16R/P6000FT -SN OVC020 M01/M04 A2964 RMK AO2 SNB06 P0000 T10061044=
201902102353 METAR KPAE 102353Z 11008G15KT 070V140 8SM OVC036 M01/M04 A2964 RMK AO2 SLP045 T10061044 11006 21039 58038=
201902102253 METAR KPAE 102253Z 12013KT 10SM BKN019 BKN034 OVC050 M01/M05 A2970 RMK AO2 SLP065 T10061050=
201902102209 SPECI KPAE 102209Z 12009KT 10SM BKN019 BKN034 OVC050 M01/M05 A2973 RMK AO2 T10111050=
201902102153 METAR KPAE 102153Z 12010KT 10SM FEW020 SCT034 OVC048 M01/M05 A2974 RMK AO2 SLP077 T10111050=
201902102053 METAR KPAE 102053Z 13011KT 10SM OVC045 M02/M07 A2976 RMK AO2 SLP084 T10171072 58020=
201902101953 METAR KPAE 101953Z 13007KT 10SM OVC047 M03/M08 A2980 RMK AO2 SLP098 T10281078=
201902101853 METAR KPAE 101853Z 12007KT 10SM BKN039 M03/M08 A2982 RMK AO2 SLP106 T10331078=
201902101753 METAR KPAE 101753Z 12006KT 10SM BKN040 M04/M08 A2982 RMK AO2 SLP104 T10391083 11033 21106 50000=
201902101653 METAR KPAE 101653Z 13006KT 10SM CLR M07/M09 A2983 RMK AO2 SLP109 T10721094=
201902101553 METAR KPAE 101553Z 13004KT 10SM CLR M08/M11 A2982 RMK AO2 SLP107 T10781111=
201902101453 METAR KPAE 101453Z AUTO 09004KT 10SM CLR M07/M11 A2982 RMK AO2 SLP105 T10721111 58004=
201902101353 METAR KPAE 101353Z AUTO 12003KT 10SM CLR M10/M13 A2983 RMK AO2 SLP108 T11001128=
201902101253 METAR KPAE 101253Z AUTO 00000KT 10SM CLR M06/M12 A2983 RMK AO2 SLP108 T10611117=
201902101153 METAR KPAE 101153Z AUTO 34005KT 10SM CLR M05/M10 A2983 RMK AO2 SLP109 70002 T10501100 11022 21056 58001=
201902101053 METAR KPAE 101053Z AUTO 32005KT 10SM CLR M04/M10 A2985 RMK AO2 SLP114 T10441100=
201902100953 METAR KPAE 100953Z AUTO 31004KT 10SM CLR M04/M09 A2984 RMK AO2 SLP111 T10441089=
201902100853 METAR KPAE 100853Z AUTO 30004KT 10SM CLR M04/M09 A2983 RMK AO2 SLP109 T10391089 51007=
201902100753 METAR KPAE 100753Z AUTO 29006KT 10SM CLR M04/M08 A2983 RMK AO2 SLP107 T10391083 400001039=
201902100653 METAR KPAE 100653Z AUTO 30006G15KT 10SM CLR M03/M09 A2982 RMK AO2 SLP107 T10281089=
201902100553 METAR KPAE 100553Z AUTO 32008G16KT 10SM CLR M02/M08 A2981 RMK AO2 SLP101 T10221078 10000 21028 53010=
201902100453 METAR KPAE 100453Z AUTO 31009KT 10SM CLR M02/M08 A2980 RMK AO2 SLP097 T10221083=
201902100353 METAR KPAE 100353Z 32010G17KT 10SM CLR M02/M07 A2979 RMK AO2 SLP093 T10171072=
201902100253 METAR KPAE 100253Z 31009KT 10SM CLR M02/M07 A2978 RMK AO2 SLP092 T10221072 53012=
201902100153 METAR KPAE 100153Z 32009KT 10SM CLR M01/M07 A2976 RMK AO2 SLP085 T10111072=
201902100053 METAR KPAE 100053Z 31012G18KT 10SM CLR M01/M07 A2975 RMK AO2 SLP081 T10061067=
201902092353 METAR KPAE 092353Z 31011G18KT 10SM CLR M01/M07 A2975 RMK AO2 SLP080 T10061067 10000 21017 53004=
201902092253 METAR KPAE 092253Z 31012KT 10SM OVC090 00/M07 A2974 RMK AO2 SLP077 T00001067=
201902092153 METAR KPAE 092153Z 32011G19KT 10SM OVC100 M01/M07 A2974 RMK AO2 SLP077 T10061072=
201902092053 METAR KPAE 092053Z 31010G18KT 10SM OVC080 M01/M07 A2974 RMK AO2 SLP076 T10111067 51014=
201902091953 METAR KPAE 091953Z 32010KT 10SM OVC070 M01/M07 A2973 RMK AO2 SLP074 T10111067=
201902091853 METAR KPAE 091853Z 32010G17KT 10SM SCT050 OVC070 M02/M06 A2972 RMK AO2 SLP069 T10171061=
201902091753 METAR KPAE 091753Z 30008KT 10SM BKN049 OVC060 M02/M06 A2970 RMK AO2 SLP062 60002 T10171056 11011 21028 53026=
201902091653 METAR KPAE 091653Z 31008KT 10SM BKN034 OVC043 M02/M06 A2967 RMK AO2 SLP052 T10171056=
201902091553 METAR KPAE 091553Z 32007G17KT 10SM OVC050 M02/M05 A2964 RMK AO2 SLP044 T10171050=
201902091453 METAR KPAE 091453Z 31010G17KT 10SM SCT004 OVC049 M02/M04 A2962 RMK AO2 SLP035 60002 T10221039 55001=
201902091424 SPECI KPAE 091424Z 33008G15KT 10SM SCT005 SCT031 OVC043 M02/M03 A2961 RMK AO2 T10221033=
201902091411 SPECI KPAE 091411Z 33009KT 10SM BKN005 OVC041 M02/M03 A2961 RMK AO2 T10221033=
201902091353 METAR KPAE 091353Z 33008KT 10SM OVC004 M02/M03 A2961 RMK AO2 SNE25 SLP033 P0000 T10221033=
201902091322 SPECI KPAE 091322Z 32008KT 6SM -SN BR BKN002 OVC008 M02/M03 A2961 RMK AO2 P0000 T10221028=
201902091310 SPECI KPAE 091310Z 32011G20KT 2SM -SN BR OVC002 M02/M03 A2962 RMK AO2 P0000 T10221028=
201902091253 METAR KPAE 091253Z 33009G17KT 1 1/2SM -SN BR OVC002 M02/M03 A2961 RMK AO2 SLP034 P0002 T10221028=
201902091217 SPECI KPAE 091217Z 33010KT 1 3/4SM -SN BR OVC002 M02/M03 A2961 RMK AO2 P0000 T10171028=
201902091210 SPECI KPAE 091210Z 35010KT 2SM -SN BR OVC002 M02/M03 A2962 RMK AO2 P0000 T10171028=
201902091153 METAR KPAE 091153Z 34008KT 1 1/4SM -SN BR BKN003 OVC009 M02/M03 A2962 RMK AO2 SLP036 P0002 60013 70027 T10221028 11017 21022 58012=
201902091117 SPECI KPAE 091117Z 35009KT 1 1/4SM -SN BR BKN004 OVC013 M02/M03 A2963 RMK AO2 P0001 T10171028=
201902091102 SPECI KPAE 091102Z 35007KT 1SM R16R/P6000FT -SN BR SCT004 OVC010 M02/M03 A2964 RMK AO2 P0001 T10171028=
201902091053 METAR KPAE 091053Z 35007KT 1SM R16R/P6000FT -SN BR BKN004 OVC010 M02/M03 A2964 RMK AO2 SLP042 P0002 T10171028=
201902091051 SPECI KPAE 091051Z 35007KT 1SM R16R/P6000FT -SN BR BKN004 OVC010 M02/M03 A2964 RMK AO2 P0002=
201902091046 SPECI KPAE 091046Z 35006KT 3/4SM R16R/6000VP6000FT -SN BR SCT004 OVC010 M02/M03 A2964 RMK AO2 P0002 T10171028=
201902091012 SPECI KPAE 091012Z 01006KT 1 3/4SM -SN BR BKN004 BKN010 OVC019 M02/M03 A2965 RMK AO2 P0000 T10221028=
201902090953 METAR KPAE 090953Z 01006KT 1SM R16R/P6000FT -SN BR SCT004 OVC011 M02/M03 A2964 RMK AO2 SLP045 P0003 T10221028=
201902090921 SPECI KPAE 090921Z 36004KT 1SM R16R/P6000FT -SN BR SCT006 OVC010 M02/M03 A2965 RMK AO2 P0002 T10221028=
201902090905 SPECI KPAE 090905Z 02005KT 3/4SM R16R/6000VP6000FT -SN BR FEW005 OVC010 M02/M03 A2965 RMK AO2 P0001 T10221033=
201902090853 METAR KPAE 090853Z 02007KT 1SM R16R/P6000FT -SN BR VV011 M02/M03 A2966 RMK AO2 SLP048 P0002 60006 T10221033 56016=
201902090839 SPECI KPAE 090839Z 02006KT 1SM R16R/P6000FT -SN BR VV013 M02/M04 A2966 RMK AO2 P0001 T10221039=
201902090826 SPECI KPAE 090826Z 03007KT 1 1/4SM -SN BR OVC015 M02/M04 A2966 RMK AO2 P0001 T10221039=
201902090815 SPECI KPAE 090815Z 04006KT 1SM R16R/P6000FT -SN BR VV014 M02/M04 A2966 RMK AO2 P0001 T10221039=
201902090753 METAR KPAE 090753Z 04005KT 1 1/2SM -SN BR OVC017 M02/M04 A2967 RMK AO2 SLP052 P0003 T10221039 400111022=
201902090745 SPECI KPAE 090745Z 03006KT 1 1/2SM -SN BR OVC015 M02/M04 A2967 RMK AO2 P0002 T10221039=
201902090719 SPECI KPAE 090719Z 05008KT 1SM R16R/P6000FT -SN BR VV011 M02/M04 A2968 RMK AO2 P0002 T10221039=
201902090710 SPECI KPAE 090710Z 05006KT 3/4SM R16R/6000VP6000FT -SN BR VV011 M02/M03 A2968 RMK AO2 P0001 T10221033=
201902090701 SPECI KPAE 090701Z 06007KT 1SM R16R/6000VP6000FT -SN BR VV012 M02/M03 A2969 RMK AO2 P0001 T10221033=
201902090653 METAR KPAE 090653Z 07010G19KT 1SM R16R/P6000FT -SN BR VV015 M02/M04 A2969 RMK AO2 SLP060 P0001 T10221039=
201902090621 SPECI KPAE 090621Z 07009KT 1 1/4SM -SN BR BKN018 BKN027 OVC034 M02/M03 A2970 RMK AO2 P0001 T10221033=
201902090603 SPECI KPAE 090603Z 07008KT 1 1/2SM -SN BR SCT027 OVC034 M02/M03 A2970 RMK AO2 P0000 T10221033=
201902090553 METAR KPAE 090553Z 07009KT 2 1/2SM -SN BR BKN027 OVC036 M02/M03 A2971 RMK AO2 SNE18B38 SLP065 P0000 60006 T10171033 10000 21022 56024=
201902090518 SPECI KPAE 090518Z 07011KT 3SM BR FEW005 OVC028 M02/M03 A2972 RMK AO2 SNE18 P0000 T10221033=
201902090500 SPECI KPAE 090500Z 07008KT 2 1/2SM -SN BR SCT005 BKN026 OVC031 M02/M03 A2972 RMK AO2 P0000 T10171028=
201902090453 METAR KPAE 090453Z 07006KT 1SM R16R/P6000FT -SN BR BKN005 OVC010 M02/M03 A2973 RMK AO2 SLP073 P0001 T10171028=
201902090358 SPECI KPAE 090358Z 07007KT 1SM R16R/P6000FT -SN BR BKN005 OVC010 M02/M03 A2975 RMK AO2 P0000 T10171028=
201902090353 METAR KPAE 090353Z 07008KT 2 1/2SM -SN BR BKN005 BKN021 OVC025 M02/M03 A2975 RMK AO2 SLP082 P0000 T10171028=
201902090302 SPECI KPAE 090302Z 07007KT 4SM -SN BR BKN005 BKN021 OVC025 M01/M02 A2978 RMK AO2 P0000 T10111022=
201902090253 METAR KPAE 090253Z 06005KT 3SM -SN BR SCT005 OVC021 M01/M02 A2978 RMK AO2 SLP090 P0001 60005 T10111022 56026=
201902090241 SPECI KPAE 090241Z 05005KT 3SM -SN BR BKN005 OVC021 M01/M02 A2978 RMK AO2 P0001 T10111022=
201902090221 SPECI KPAE 090221Z 07008KT 2SM -SN BR BKN005 BKN015 OVC022 M01/M02 A2980 RMK AO2 P0000 T10111017=
201902090153 METAR KPAE 090153Z 06004KT 1SM R16R/P6000FT -SN BR BKN005 OVC012 M01/M01 A2980 RMK AO2 SLP098 P0002 T10061011=
201902090053 METAR KPAE 090053Z 08004KT 1SM R16R/P6000FT -SN BR OVC006 00/M01 A2983 RMK AO2 CIG 004V008 SLP106 P0002 T00001006=
201902090006 SPECI KPAE 090006Z 05003KT 1/2SM R16R/4000V5500FT SN FG OVC005 00/M01 A2985 RMK AO2 CIG 003V007 P0000 T00001006=
201902082353 METAR KPAE 082353Z 07005KT 3/4SM R16R/4000V5000FT -SN BR BKN004 OVC010 00/M01 A2986 RMK AO2 SLP115 P0003 60008 T00001011 10011 20000 58020=
201902082346 SPECI KPAE 082346Z 07006KT 1SM R16R/4500VP6000FT -SN BR BKN004 OVC010 00/M01 A2986 RMK AO2 P0002 T00001011=
201902082253 METAR KPAE 082253Z 09005KT 3/4SM R16R/5000V5500FT -SN BR BKN004 OVC010 00/M01 A2989 RMK AO2 SLP126 P0002 T00001011=
201902082229 SPECI KPAE 082229Z 09005KT 1/2SM R16R/3500V4500FT SN FG BKN004 OVC014 00/M01 A2989 RMK AO2 P0002 T00001011=
201902082222 SPECI KPAE 082222Z 08005KT 1SM R16R/4000VP6000FT -SN BR BKN004 OVC014 00/M01 A2989 RMK AO2 P0001 T00001011=
201902082213 SPECI KPAE 082213Z 08005KT 1/2SM R16R/3500V5500FT SN FG SCT004 OVC012 00/M01 A2990 RMK AO2 P0001 T00001011=
201902082153 METAR KPAE 082153Z 08003KT 1/2SM R16R/3000V4000FT SN FG BKN007 OVC022 00/M01 A2992 RMK AO2 SLP136 P0003 T00001011=
201902082144 SPECI KPAE 082144Z 09004KT 1/4SM R16R/2600V3500FT SN FG BKN007 OVC022 00/M01 A2992 RMK AO2 P0002 T00001011=
201902082123 SPECI KPAE 082123Z 12006KT 1/2SM R16R/2800V3500FT SN FG BKN007 OVC022 00/M02 A2993 RMK AO2 P0000 T00001022=
201902082053 METAR KPAE 082053Z 08004KT 2SM -SN BKN018 01/M03 A2994 RMK AO2 SNB45 SLP146 P0000 60000 T00061028 56028=
201902082051 SPECI KPAE 082051Z 09004KT 2SM -SN BKN018 01/M03 A2995 RMK AO2 SNB45 P0000=
201902081953 METAR KPAE 081953Z VRB05KT 10SM OVC060 01/M04 A2999 RMK AO2 SLP160 T00111039=
201902081853 METAR KPAE 081853Z 12007KT 10SM FEW013 BKN044 OVC055 01/M03 A3003 RMK AO2 SLP174 T00061033=
201902081825 SPECI KPAE 081825Z VRB04KT 10SM FEW009 BKN041 OVC055 01/M03 A3003 RMK AO2 T00061033=
201902081753 METAR KPAE 081753Z VRB04KT 10SM FEW040 OVC055 00/M04 A3005 RMK AO2 SLP182 T00001039 10000 21011 57023=
201902081653 METAR KPAE 081653Z 12007KT 10SM OVC055 00/M03 A3007 RMK AO2 SLP189 T00001033=
201902081553 METAR KPAE 081553Z VRB05KT 10SM BKN050 BKN070 OVC085 M01/M04 A3009 RMK AO2 SLP198 T10061039=
201902081453 METAR KPAE 081453Z 00000KT 10SM FEW050 SCT060 OVC090 M01/M03 A3012 RMK AO2 SLP204 T10061033 56017=
201902081353 METAR KPAE 081353Z AUTO 12007KT 10SM BKN050 OVC060 M01/M03 A3012 RMK AO2 SLP207 T10061033=
201902081253 METAR KPAE 081253Z AUTO 13003KT 10SM OVC050 M01/M04 A3015 RMK AO2 SLP214 T10061039=
201902081153 METAR KPAE 081153Z AUTO 00000KT 10SM OVC048 M01/M04 A3017 RMK AO2 SLP221 T10061039 10000 21028 58021=
201902081053 METAR KPAE 081053Z AUTO 00000KT 10SM OVC046 M01/M04 A3019 RMK AO2 SLP230 T10061039=
201902080953 METAR KPAE 080953Z AUTO 00000KT 10SM OVC048 M01/M04 A3021 RMK AO2 SLP236 T10061044=
201902080853 METAR KPAE 080853Z AUTO 00000KT 10SM OVC049 00/M05 A3023 RMK AO2 SLP242 T00001050 56006=
201902080753 METAR KPAE 080753Z AUTO 09003KT 10SM OVC040 M01/M04 A3023 RMK AO2 SLP244 T10061044 400221056=
201902080653 METAR KPAE 080653Z AUTO 00000KT 10SM BKN050 OVC110 M01/M05 A3024 RMK AO2 SLP247 T10061050=
201902080553 METAR KPAE 080553Z AUTO 00000KT 10SM FEW120 M03/M06 A3025 RMK AO2 SLP250 T10281056 10011 21028 56008=
201902080453 METAR KPAE 080453Z AUTO 00000KT 10SM SCT120 M01/M05 A3025 RMK AO2 SLP250 T10061050=
201902080353 METAR KPAE 080353Z 00000KT 10SM CLR M01/M05 A3026 RMK AO2 SLP254 T10061050=
201902080253 METAR KPAE 080253Z 00000KT 10SM FEW120 00/M06 A3027 RMK AO2 SLP258 T00001056 56006=
201902080153 METAR KPAE 080153Z 32004KT 10SM CLR M01/M05 A3027 RMK AO2 SLP260 T10061050=
201902080053 METAR KPAE 080053Z 00000KT 10SM CLR 00/M04 A3028 RMK AO2 SLP260 T00001044=
201902072353 METAR KPAE 072353Z 34004KT 10SM CLR 01/M05 A3029 RMK AO2 SLP263 T00111050 10022 21011 56014=
201902072253 METAR KPAE 072253Z 35003KT 10SM CLR 01/M06 A3029 RMK AO2 SLP266 T00111056=
201902072153 METAR KPAE 072153Z 35004KT 10SM CLR 01/M05 A3031 RMK AO2 SLP272 T00111050=
201902072053 METAR KPAE 072053Z 00000KT 10SM CLR 01/M08 A3033 RMK AO2 SLP277 T00061078 58007=
201902071953 METAR KPAE 071953Z 19003KT 10SM CLR 00/M07 A3034 RMK AO2 SLP281 T00001067=
201902071853 METAR KPAE 071853Z 20003KT 10SM CLR M01/M05 A3035 RMK AO2 SLP283 T10111050=
201902071753 METAR KPAE 071753Z 08003KT 10SM CLR M02/M06 A3035 RMK AO2 SLP285 T10171061 11011 21056 51002=
201902071653 METAR KPAE 071653Z 08004KT 10SM CLR M03/M06 A3035 RMK AO2 SLP285 T10331061=
201902071553 METAR KPAE 071553Z 00000KT 10SM CLR M05/M07 A3035 RMK AO2 SLP286 T10501072=
201902071453 METAR KPAE 071453Z 09004KT 10SM CLR M04/M07 A3034 RMK AO2 SLP283 T10441067 56002=
201902071353 METAR KPAE 071353Z AUTO 08005KT 10SM CLR M04/M07 A3034 RMK AO2 SLP284 T10441067=
201902071253 METAR KPAE 071253Z AUTO 09005KT 10SM CLR M04/M07 A3035 RMK AO2 SLP283 T10391067=
201902071153 METAR KPAE 071153Z AUTO 08007KT 10SM CLR M04/M06 A3035 RMK AO2 SLP285 T10391061 11028 21039 58003=
201902071053 METAR KPAE 071053Z AUTO 08006KT 10SM CLR M04/M06 A3036 RMK AO2 SLP289 T10391061=
201902070953 METAR KPAE 070953Z AUTO 09004KT 10SM CLR M04/M06 A3036 RMK AO2 SLP287 T10391061=
201902070853 METAR KPAE 070853Z AUTO 09004KT 10SM CLR M03/M06 A3036 RMK AO2 SLP288 T10331061 51005=
201902070753 METAR KPAE 070753Z AUTO 09004KT 10SM CLR M03/M07 A3036 RMK AO2 SLP287 T10331067 400111094=
201902070653 METAR KPAE 070653Z AUTO 09004KT 10SM CLR M03/M07 A3035 RMK AO2 SLP287 T10281072=
201902070553 METAR KPAE 070553Z AUTO 08005KT 10SM CLR M03/M07 A3034 RMK AO2 SLP284 T10281067 10006 21039 53009=
201902070453 METAR KPAE 070453Z 08005KT 10SM CLR M02/M07 A3033 RMK AO2 SLP279 T10221067=
201902070353 METAR KPAE 070353Z 00000KT 10SM CLR M03/M06 A3032 RMK AO2 SLP277 T10331061=
201902070253 METAR KPAE 070253Z 00000KT 10SM CLR M03/M07 A3032 RMK AO2 SLP275 T10281072 53007=
201902070153 METAR KPAE 070153Z 00000KT 10SM CLR M01/M06 A3031 RMK AO2 SLP273 T10111061=
201902070053 METAR KPAE 070053Z 00000KT 10SM CLR 00/M06 A3030 RMK AO2 SLP269 T00001061=
201902062353 METAR KPAE 062353Z 00000KT 10SM CLR 01/M07 A3030 RMK AO2 SLP267 T00061072 10011 21044 53008=
201902062253 METAR KPAE 062253Z 33003KT 10SM CLR 01/M07 A3028 RMK AO2 SLP263 T00111072=
201902062153 METAR KPAE 062153Z VRB03KT 10SM CLR 01/M06 A3027 RMK AO2 SLP259 T00061061=
201902062053 METAR KPAE 062053Z 33005KT 10SM CLR 00/M07 A3027 RMK AO2 SLP259 T00001072 51011=
201902061953 METAR KPAE 061953Z 00000KT 10SM CLR 00/M06 A3027 RMK AO2 SLP257 T00001061=
201902061853 METAR KPAE 061853Z 15003KT 10SM CLR M03/M06 A3026 RMK AO2 SLP256 T10281056=
201902061753 METAR KPAE 061753Z 00000KT 10SM CLR M04/M06 A3024 RMK AO2 SLP249 I6002 T10441056 11044 21094 51018=
201902061653 METAR KPAE 061653Z 11003KT 10SM CLR M06/M07 A3023 RMK AO2 SLP244 I1000 T10561067=
201902061553 METAR KPAE 061553Z 00000KT 9SM CLR M08/M08 A3021 RMK AO2 SLP240 T10781083=
201902061453 METAR KPAE 061453Z 00000KT 10SM CLR M08/M09 A3019 RMK AO2 SLP232 I1001 I3002 T10831094 53014=
201902061353 METAR KPAE 061353Z AUTO 00000KT 10SM SCT006 M08/M09 A3017 RMK AO2 SLP224 I1000 T10831094=
201902061301 SPECI KPAE 061301Z AUTO 00000KT 10SM FEW006 M08/M09 A3016 RMK AO2 T10831094=
201902061253 METAR KPAE 061253Z AUTO 00000KT 10SM CLR M09/M10 A3015 RMK AO2 SLP220 I1001 T10941100=
201902061153 METAR KPAE 061153Z AUTO 00000KT 10SM CLR M09/M09 A3014 RMK AO2 SLP217 I1001 I6001 T10891094 11044 21089 53012=
201902061053 METAR KPAE 061053Z AUTO 00000KT 10SM CLR M06/M07 A3013 RMK AO2 SLP212 T10561072=
201902060953 METAR KPAE 060953Z AUTO 08005KT 10SM CLR M07/M10 A3012 RMK AO2 SLP208 T10721100=
201902060853 METAR KPAE 060853Z AUTO 00000KT 10SM CLR M06/M07 A3011 RMK AO2 SLP205 I3000 T10561072 51017=
201902060753 METAR KPAE 060753Z AUTO 00000KT 10SM CLR M06/M08 A3010 RMK AO2 SLP200 I1000 T10611078 410111094=
201902060653 METAR KPAE 060653Z AUTO 00000KT 10SM CLR M07/M08 A3007 RMK AO2 SLP193 I1000 T10671078=
201902060553 METAR KPAE 060553Z AUTO 00000KT 10SM CLR M05/M08 A3006 RMK AO2 SLP187 T10501078 11011 21078 53015=
201902060453 METAR KPAE 060453Z AUTO 09004KT 10SM CLR M05/M08 A3003 RMK AO2 SLP180 T10501078=
201902060353 METAR KPAE 060353Z 00000KT 10SM CLR M04/M07 A3002 RMK AO2 SLP175 T10441072=
201902060253 METAR KPAE 060253Z 00000KT 10SM CLR M06/M07 A3001 RMK AO2 SLP173 T10561072 53024=
201902060153 METAR KPAE 060153Z 00000KT 10SM CLR M03/M07 A2998 RMK AO2 SLP162 T10331072=
201902060053 METAR KPAE 060053Z 00000KT 10SM CLR M02/M08 A2996 RMK AO2 SLP153 T10171078=
201902052353 METAR KPAE 052353Z VRB04KT 10SM CLR M01/M07 A2994 RMK AO2 SLP148 T10111067 11011 21039 53012=
201902052253 METAR KPAE 052253Z VRB03KT 10SM CLR M01/M07 A2993 RMK AO2 SLP143 T10111072=
201902052153 METAR KPAE 052153Z 34004KT 10SM SCT015 M02/M06 A2991 RMK AO2 SLP138 T10171061=
201902052053 METAR KPAE 052053Z 30005KT 10SM SCT015 M03/M07 A2991 RMK AO2 SLP136 T10331072 51012=
201902051953 METAR KPAE 051953Z 33003KT 10SM FEW015 M02/M07 A2990 RMK AO2 SLP132 T10221067=
201902051853 METAR KPAE 051853Z 35004KT 10SM CLR M03/M07 A2989 RMK AO2 SLP130 T10281067=
201902051753 METAR KPAE 051753Z 00000KT 10SM CLR M03/M06 A2987 RMK AO2 SLP123 I6001 T10331056 11033 21094 51018=
201902051653 METAR KPAE 051653Z 00000KT 10SM CLR M07/M08 A2986 RMK AO2 SLP119 I1000 T10721078=
201902051553 METAR KPAE 051553Z 00000KT 10SM CLR M08/M08 A2984 RMK AO2 SLP115 I1000 T10781083=
201902051453 METAR KPAE 051453Z AUTO 00000KT 10SM CLR M07/M09 A2982 RMK AO2 SLP105 I1000 I3001 T10721089 51014=
201902051353 METAR KPAE 051353Z AUTO 00000KT 10SM CLR M08/M09 A2980 RMK AO2 SLP100 T10781094=
201902051253 METAR KPAE 051253Z AUTO 32003KT 10SM CLR M08/M09 A2979 RMK AO2 SLP097 I1001 T10831094=
201902051153 METAR KPAE 051153Z AUTO 00000KT 10SM CLR M09/M10 A2977 RMK AO2 SLP092 70007 I1000 I6001 T10891100 11050 21094 50005=
201902051053 METAR KPAE 051053Z AUTO 00000KT 10SM FEW012 M08/M10 A2978 RMK AO2 SLP093 I1001 T10831100=
201902050953 METAR KPAE 050953Z AUTO 00000KT 10SM CLR M07/M08 A2976 RMK AO2 SLP086 I1000 T10721083=
201902050853 METAR KPAE 050853Z AUTO 00000KT 10SM CLR M07/M09 A2976 RMK AO2 SLP086 I1000 I3000 T10721089 51011=
201902050753 METAR KPAE 050753Z AUTO 00000KT 10SM CLR M06/M08 A2975 RMK AO2 SLP083 T10611083 410221078=
201902050653 METAR KPAE 050653Z AUTO 00000KT 10SM FEW016 M07/M09 A2974 RMK AO2 SLP079 T10721089=
201902050553 METAR KPAE 050553Z AUTO 31007KT 10SM CLR M04/M09 A2973 RMK AO2 SLP075 T10441089 11033 21050 52012=
201902050453 METAR KPAE 050453Z AUTO 29008KT 10SM CLR M04/M09 A2971 RMK AO2 SLP070 T10441089=
201902050353 METAR KPAE 050353Z 29007KT 10SM FEW020 M04/M08 A2971 RMK AO2 SLP067 T10441083=
201902050253 METAR KPAE 050253Z 29007KT 10SM FEW021 M04/M08 A2969 RMK AO2 SLP063 T10441083 53006=
201902050153 METAR KPAE 050153Z 31007KT 10SM CLR M04/M08 A2969 RMK AO2 SLP060 T10391083=
201902050053 METAR KPAE 050053Z 29007KT 10SM CLR M04/M08 A2968 RMK AO2 SLP056 T10391083=
201902042353 METAR KPAE 042353Z 29010KT 10SM FEW120 M04/M08 A2967 RMK AO2 SLP055 60000 T10391083 11039 21056 53006=
201902042300 SPECI KPAE 042300Z 29010G17KT 10SM CLR M04/M08 A2966 RMK AO2 T10391083=
201902042253 METAR KPAE 042253Z 30012KT 10SM BKN016 M04/M08 A2966 RMK AO2 SLP051 T10391083=
201902042153 METAR KPAE 042153Z 29008G17KT 10SM BKN016 M04/M07 A2965 RMK AO2 SLP047 T10391072=
201902042053 METAR KPAE 042053Z 29009G16KT 10SM BKN013 BKN024 OVC110 M04/M08 A2966 RMK AO2 SNE1955 SLP049 P0000 60000 T10441078 50011=
201902041953 METAR KPAE 041953Z 29010KT 7SM -SN OVC008 M05/M07 A2966 RMK AO2 SNB08 SLP049 P0000 T10501067=
201902041943 SPECI KPAE 041943Z 29011G17KT 4SM -SN BR OVC008 M05/M07 A2965 RMK AO2 SNB08 P0000 T10501072=
201902041926 SPECI KPAE 041926Z 29010G17KT 2SM -SN BR BKN008 OVC012 M05/M07 A2965 RMK AO2 SNB08 CIG 007V011 P0000 T10501067=
201902041853 METAR KPAE 041853Z 29012G17KT 10SM OVC007 M06/M07 A2965 RMK AO2 SNE23 CIG 006V010 SLP047 P0000 T10561072=
201902041753 METAR KPAE 041753Z 29010G18KT 1 1/4SM -SN BR OVC006 M06/M07 A2962 RMK AO2 SLP038 P0000 60007 T10561067 11044 21067 51019=
201902041653 METAR KPAE 041653Z 29009KT 1SM R16R/4500VP6000FT -SN BR BKN006 BKN010 OVC015 M06/M07 A2961 RMK AO2 SLP033 P0001 T10611072=
201902041553 METAR KPAE 041553Z 29010KT 1SM R16R/4000V5000FT -SN BR VV008 M07/M08 A2959 RMK AO2 SLP026 P0001 T10671078=
201902041533 SPECI KPAE 041533Z 29010KT 3/4SM R16R/3500V5000FT -SN BR VV007 M07/M08 A2958 RMK AO2 P0001 T10671078=
201902041513 SPECI KPAE 041513Z 28011KT 1 1/2SM -SN BR BKN006 OVC013 M06/M07 A2957 RMK AO2 P0001 T10611072=
201902041453 METAR KPAE 041453Z AUTO 29009KT 1SM R16R/P6000FT -SN BR FEW005 OVC010 M06/M07 A2957 RMK AO2 SLP019 P0001 60005 T10611072 51025=
201902041437 SPECI KPAE 041437Z AUTO 29008KT 1SM R16R/P6000FT -SN BR SCT004 OVC010 M06/M07 A2957 RMK AO2 PRESRR P0001 T10561067=
201902041427 SPECI KPAE 041427Z AUTO 30009KT 1SM R16R/5500VP6000FT -SN BR BKN004 OVC008 M06/M06 A2955 RMK AO2 P0001 T10561061=
201902041353 METAR KPAE 041353Z AUTO 28014G19KT 3/4SM R16R/5000V5500FT -SN BR VV006 M05/M06 A2954 RMK AO2 SLP009 P0002 T10501061=
201902041332 SPECI KPAE 041332Z AUTO 29013G21KT 1/2SM R16R/3500V5000FT SN FZFG VV008 M05/M07 A2954 RMK AO2 P0001 T10501067=
201902041324 SPECI KPAE 041324Z AUTO 29014G19KT 3/4SM R16R/4500V6000FT -SN BR FEW006 OVC010 M05/M06 A2953 RMK AO2 P0001 T10501061=
201902041306 SPECI KPAE 041306Z AUTO 29012G20KT 1SM R16R/6000VP6000FT -SN BR SCT006 OVC010 M05/M06 A2953 RMK AO2 P0001 T10501061=
201902041253 METAR KPAE 041253Z AUTO 28008KT 3/4SM R16R/5000VP6000FT -SN BR VV007 M04/M06 A2953 RMK AO2 SLP005 P0002 T10441056=
201902041227 SPECI KPAE 041227Z AUTO 29010G19KT 3/4SM R16R/4500V6000FT -SN BR VV006 M04/M06 A2951 RMK AO2 P0002 T10441056=
201902041216 SPECI KPAE 041216Z AUTO 30011G18KT 1/2SM R16R/3500V4500FT SN FZFG VV004 M04/M05 A2950 RMK AO2 P0002 T10441050=
201902041202 SPECI KPAE 041202Z AUTO 29010G21KT 1/4SM R16R/2400V2800FT +SN FZFG VV004 M04/M06 A2950 RMK AO2 P0001 T10441056=
201902041153 METAR KPAE 041153Z AUTO 30011G21KT 1/2SM R16R/2800V4500FT SN FZFG VV006 M04/M06 A2949 RMK AO2 SLP993 P0003 60009 70024 T10441056 11017 21044 51014=
201902041131 SPECI KPAE 041131Z AUTO 29009KT 3/4SM R16R/5000VP6000FT -SN BR OVC005 M04/M05 A2948 RMK AO2 P0001 T10391050=
201902041101 SPECI KPAE 041101Z AUTO 32008G16KT 1 1/4SM -SN BR OVC003 M04/M04 A2948 RMK AO2 P0000 T10391044=
201902041053 METAR KPAE 041053Z AUTO 31010KT 3/4SM R16R/4500VP6000FT -SN BR OVC004 M04/M04 A2947 RMK AO2 SLP986 P0004 T10391044=
201902041040 SPECI KPAE 041040Z AUTO 32007KT 1/2SM R16R/3500V5000FT SN FZFG OVC004 M03/M04 A2948 RMK AO2 P0003 T10331044=
201902041016 SPECI KPAE 041016Z AUTO 32011G18KT 1/2SM R16R/4000V5000FT SN FZFG VV005 M03/M04 A2946 RMK AO2 P0002 T10331044=
201902040953 METAR KPAE 040953Z AUTO 30009KT 3/4SM R16R/5000VP6000FT -SN BR BKN004 OVC009 M03/M04 A2947 RMK AO2 SLP985 P0001 T10331039=
201902040853 METAR KPAE 040853Z AUTO 30008KT 1 3/4SM -SN BR OVC004 M02/M03 A2945 RMK AO2 SLP978 P0000 60001 T10221033 51009=
201902040849 SPECI KPAE 040849Z AUTO 29008KT 2SM -SN BR OVC003 M02/M03 A2945 RMK AO2 P0000=
201902040822 SPECI KPAE 040822Z AUTO 30010KT 3SM -SN BR OVC002 M02/M03 A2944 RMK AO2 P0000 T10221028=
201902040753 METAR KPAE 040753Z AUTO 30008G16KT 2 1/2SM -SN BR OVC003 M02/M02 A2943 RMK AO2 SNB16 CIG 002V006 SLP970 P0001 T10171022 400391017=
201902040732 SPECI KPAE 040732Z AUTO 31006KT 1 3/4SM -SN BR OVC003 M02/M02 A2943 RMK AO2 SNB16 P0000 T10171022=
201902040653 METAR KPAE 040653Z AUTO 33006KT 10SM OVC004 M02/M02 A2942 RMK AO2 SNE08 SLP968 P0000 T10171022=
201902040644 SPECI KPAE 040644Z AUTO 30006KT 10SM OVC004 M02/M02 A2942 RMK AO2 SNE08 P0000 T10171022=
201902040553 METAR KPAE 040553Z AUTO 33007KT 3SM -SN BR BKN005 OVC008 M01/M02 A2941 RMK AO2 SNB22 SLP962 P0000 60004 T10111022 11006 21011 51003=
201902040453 METAR KPAE 040453Z 31008KT 9SM BKN007 BKN012 OVC028 M01/M02 A2940 RMK AO2 SNB14E47 SLP961 P0000 T10111022=
201902040413 SPECI KPAE 040413Z 33006KT 7SM BKN007 BKN012 OVC028 M01/M03 A2940 RMK AO2 T10111028=
201902040400 SPECI KPAE 040400Z 33007KT 9SM FEW006 BKN012 OVC028 M01/M03 A2940 RMK AO2 T10111028=
201902040353 METAR KPAE 040353Z 32006KT 2SM BR BKN006 OVC015 M01/M02 A2940 RMK AO2 SNE40 SLP962 P0000 T10111022=
201902040253 METAR KPAE 040253Z 33006KT 2SM -SN BR BKN006 OVC015 M01/M03 A2940 RMK AO2 SLP960 P0000 60004 T10111028 56005=
201902040153 METAR KPAE 040153Z 34007KT 2SM -SN BR SCT006 BKN009 M01/M02 A2940 RMK AO2 SLP961 P0001 T10111022=
201902040053 METAR KPAE 040053Z 34009KT 1/2SM R16R/2400V5000FT SN FZFG OVC006 M01/M02 A2940 RMK AO2 SLP959 P0003 T10111022=
201902032353 METAR KPAE 032353Z 35009KT 1/2SM R16R/4500V5500FT SN FZFG BKN006 OVC013 M01/M02 A2941 RMK AO2 SLP965 P0001 60011 T10061017 10039 21006 55003=
201902032253 METAR KPAE 032253Z 35012KT 1SM R16R/6000VP6000FT -SN BR OVC006 00/M01 A2941 RMK AO2 SLP962 P0001 T00001011=
201902032153 METAR KPAE 032153Z VRB06KT 1SM R16R/5000VP6000FT -SN BR OVC006 00/M01 A2942 RMK AO2 SLP965 P0002 T00001006=
201902032104 SPECI KPAE 032104Z 01006KT 1SM R16R/5500VP6000FT -SN BR OVC004 01/00 A2942 RMK AO2 P0000 T00060000=
201902032053 METAR KPAE 032053Z VRB04KT 3/4SM R16R/4000V5000FT -SN BR BKN004 OVC022 00/00 A2942 RMK AO2 SLP967 P0006 60007 T00000000 51016=
201902031953 METAR KPAE 031953Z 33011G16KT 1 1/2SM -SN BR BKN003 BKN014 OVC022 00/M01 A2942 RMK AO2 SNB39 SLP966 P0001 T00001006=
201902031939 SPECI KPAE 031939Z 32009KT 1 1/2SM -SN BR BKN003 BKN022 OVC029 01/M01 A2942 RMK AO2 SNB39 P0000 T00061011=
201902031855 SPECI KPAE 031855Z 16015KT 10SM FEW003 SCT019 OVC022 03/00 A2940 RMK AO2 T00330000=
201902031853 METAR KPAE 031853Z 16013KT 10SM SCT019 OVC050 03/00 A2940 RMK AO2 SLP960 T00330000=
201902031753 METAR KPAE 031753Z 16015G20KT 10SM FEW021 OVC050 03/00 A2938 RMK AO2 SLP951 60000 T00330000 10033 20022 53006=
201902031700 SPECI KPAE 031700Z 15010KT 10SM FEW022 OVC050 03/01 A2936 RMK AO2 T00330006=
201902031653 METAR KPAE 031653Z 15011KT 10SM BKN008 BKN016 OVC041 03/01 A2937 RMK AO2 RAE18 SLP948 P0000 T00330006=
201902031553 METAR KPAE 031553Z 13007KT 7SM -RA BKN008 BKN016 OVC050 03/02 A2936 RMK AO2 RAB35UPB36E44 SLP945 P0000 T00280017=
201902031453 METAR KPAE 031453Z AUTO 13006KT 10SM BKN013 BKN030 OVC050 03/01 A2936 RMK AO2 RAE15 SLP946 P0000 60000 T00280011 56010=
201902031401 SPECI KPAE 031401Z AUTO 15005KT 10SM -RA FEW012 BKN034 OVC043 03/01 A2936 RMK AO2 P0000 T00280006=
201902031353 METAR KPAE 031353Z AUTO 17005KT 10SM -RA FEW015 BKN022 OVC045 03/01 A2937 RMK AO2 RAB39 SLP949 P0000 T00280006=
201902031332 SPECI KPAE 031332Z AUTO 18006KT 10SM BKN022 BKN027 OVC046 03/01 A2937 RMK AO2 T00280006=
201902031322 SPECI KPAE 031322Z AUTO 00000KT 10SM SCT026 BKN038 OVC055 03/00 A2937 RMK AO2 T00330000=
201902031253 METAR KPAE 031253Z AUTO 00000KT 10SM BKN027 OVC050 03/M01 A2937 RMK AO2 SLP948 T00331006=
201902031241 SPECI KPAE 031241Z AUTO 00000KT 10SM BKN026 OVC050 03/M01 A2938 RMK AO2 T00331006=
201902031153 METAR KPAE 031153Z AUTO 30004KT 10SM SCT027 OVC050 03/00 A2939 RMK AO2 SLP955 T00330000 10039 20033 58012=
201902031053 METAR KPAE 031053Z AUTO 32003KT 10SM BKN030 OVC041 04/00 A2941 RMK AO2 SLP963 T00390000=
201902030953 METAR KPAE 030953Z AUTO 33008KT 10SM BKN040 OVC049 04/01 A2941 RMK AO2 SLP961 T00390006=
201902030853 METAR KPAE 030853Z AUTO 34005KT 10SM OVC039 04/01 A2943 RMK AO2 SLP967 T00390011 56008=
201902030753 METAR KPAE 030753Z AUTO 33004KT 10SM SCT025 OVC040 04/01 A2944 RMK AO2 SLP971 T00390011 400830033=
201902030749 SPECI KPAE 030749Z AUTO 32005KT 10SM SCT025 OVC040 04/01 A2944 RMK AO2=
201902030732 SPECI KPAE 030732Z AUTO 33004KT 10SM BKN026 OVC042 04/01 A2944 RMK AO2 T00390011=
201902030653 METAR KPAE 030653Z AUTO 32004KT 10SM OVC042 04/01 A2945 RMK AO2 SLP976 T00390011=
201902030635 SPECI KPAE 030635Z AUTO 32004KT 10SM FEW026 OVC041 04/01 A2945 RMK AO2 T00390011=
201902030553 METAR KPAE 030553Z AUTO VRB05KT 10SM BKN026 OVC042 04/01 A2946 RMK AO2 SLP979 T00390011 10056 20033 56008=
201902030551 SPECI KPAE 030551Z AUTO VRB04KT 10SM BKN026 OVC042 04/01 A2946 RMK AO2=
201902030527 SPECI KPAE 030527Z AUTO VRB04KT 10SM SCT026 OVC042 04/02 A2947 RMK AO2 T00390017=
201902030453 METAR KPAE 030453Z 33004KT 10SM BKN027 OVC043 04/02 A2947 RMK AO2 SLP982 T00390017=
201902030441 SPECI KPAE 030441Z 30003KT 10SM BKN027 OVC043 04/02 A2947 RMK AO2 T00390017=
201902030353 METAR KPAE 030353Z 30004KT 10SM BKN041 03/02 A2949 RMK AO2 SLP988 T00330017=
201902030253 METAR KPAE 030253Z 32004KT 10SM CLR 03/02 A2950 RMK AO2 SLP991 T00330017 58019=
201902030153 METAR KPAE 030153Z 32005KT 10SM CLR 04/02 A2952 RMK AO2 SLP999 T00440022=
201902030053 METAR KPAE 030053Z 32007KT 10SM FEW010 BKN041 05/03 A2954 RMK AO2 SLP003 T00500033=
201902022353 METAR KPAE 022353Z 32007KT 10SM SCT008 OVC010 06/03 A2955 RMK AO2 SLP010 60000 T00560033 10072 20056 56016=
201902022253 METAR KPAE 022253Z 33007KT 10SM BKN004 OVC011 06/05 A2957 RMK AO2 SLP014 T00610050=
201902022153 METAR KPAE 022153Z VRB04KT 10SM BKN005 OVC009 07/06 A2958 RMK AO2 CIG 004V007 SLP019 T00670056=
201902022140 SPECI KPAE 022140Z 31005KT 10SM OVC004 07/06 A2959 RMK AO2 T00670056=
201902022053 METAR KPAE 022053Z 33007KT 10SM BKN006 BKN014 OVC036 06/05 A2960 RMK AO2 RAE26 SLP026 P0000 60000 T00610050 58019=
201902021953 METAR KPAE 021953Z 32008KT 7SM -RA BKN005 OVC012 06/05 A2963 RMK AO2 RAB28 CIG 004V009 SLP036 P0000 T00610050=
201902021853 METAR KPAE 021853Z 30003KT 10SM SCT002 BKN005 OVC020 07/06 A2965 RMK AO2 SLP044 T00670056=
201902021753 METAR KPAE 021753Z 00000KT 10SM SCT002 BKN005 07/06 A2966 RMK AO2 SLP045 60000 T00720056 10083 20050 55001=
201902021716 SPECI KPAE 021716Z 34005KT 10SM FEW006 BKN009 08/06 A2966 RMK AO2 T00780056=
201902021653 METAR KPAE 021653Z 00000KT 10SM CLR 07/06 A2965 RMK AO2 SLP044 T00720061=
201902021553 METAR KPAE 021553Z 00000KT 10SM SCT038 06/06 A2966 RMK AO2 SLP046 T00610056=
201902021543 SPECI KPAE 021543Z 00000KT 10SM SCT034 BKN042 06/06 A2966 RMK AO2 T00610056=
201902021453 METAR KPAE 021453Z 00000KT 10SM SCT007 OVC024 07/06 A2966 RMK AO2 SLP046 60000 T00670061 53001=
201902021450 SPECI KPAE 021450Z AUTO 00000KT 10SM SCT007 OVC024 07/06 A2966 RMK AO2=
201902021435 SPECI KPAE 021435Z AUTO 00000KT 10SM BKN006 OVC025 07/06 A2965 RMK AO2 CIG 005V009 T00670056=
201902021426 SPECI KPAE 021426Z AUTO 00000KT 10SM SCT006 OVC024 07/06 A2965 RMK AO2 T00670056=
201902021353 METAR KPAE 021353Z AUTO 15003KT 10SM FEW015 OVC020 07/06 A2965 RMK AO2 SLP043 T00670061=
201902021253 METAR KPAE 021253Z AUTO 13003KT 10SM FEW014 OVC025 07/06 A2966 RMK AO2 RAB02E23 SLP044 P0000 T00670056=
201902021153 METAR KPAE 021153Z AUTO 20004KT 10SM SCT017 BKN022 OVC042 07/06 A2968 RMK AO2 SLP050 70027 T00670056 10083 20067 53010=
201902021134 SPECI KPAE 021134Z AUTO 18005KT 10SM SCT008 BKN016 OVC022 07/06 A2968 RMK AO2 T00720056=
201902021117 SPECI KPAE 021117Z AUTO 18003KT 10SM BKN008 OVC016 07/06 A2968 RMK AO2 T00720061=
201902021053 METAR KPAE 021053Z AUTO 16004KT 10SM BKN010 OVC017 07/06 A2967 RMK AO2 CIG 008V013 SLP048 T00720061=
201902021025 SPECI KPAE 021025Z AUTO 16004KT 10SM FEW008 BKN013 OVC019 07/07 A2966 RMK AO2 T00720067=
201902020953 METAR KPAE 020953Z AUTO 15005KT 10SM SCT007 OVC018 08/07 A2965 RMK AO2 SLP040 T00780067=
201902020951 SPECI KPAE 020951Z AUTO 15006KT 10SM SCT007 OVC018 08/07 A2964 RMK AO2=
201902020926 SPECI KPAE 020926Z AUTO 13004KT 10SM BKN007 OVC016 08/07 A2964 RMK AO2 CIG 005V009 T00780067=
201902020910 SPECI KPAE 020910Z AUTO 13005KT 10SM FEW007 OVC015 08/07 A2964 RMK AO2 T00780067=
201902020853 METAR KPAE 020853Z AUTO 13009KT 10SM BKN015 08/07 A2964 RMK AO2 SLP038 T00780067 50006=
201902020753 METAR KPAE 020753Z AUTO 15006KT 10SM OVC015 08/07 A2965 RMK AO2 SLP040 T00780067 401000067=
201902020733 SPECI KPAE 020733Z AUTO 17008KT 10SM SCT008 OVC017 08/07 A2965 RMK AO2 T00780067=
201902020718 SPECI KPAE 020718Z AUTO 18009KT 10SM BKN008 OVC014 08/07 A2964 RMK AO2 CIG 006V011 T00780067=
201902020653 METAR KPAE 020653Z AUTO 19007KT 10SM BKN010 OVC015 08/07 A2964 RMK AO2 CIG 008V012 SLP038 T00830067=
201902020623 SPECI KPAE 020623Z AUTO 16010KT 10SM BKN012 OVC110 08/06 A2963 RMK AO2 T00830061=
201902020553 METAR KPAE 020553Z AUTO 17010KT 10SM FEW065 SCT080 OVC100 08/06 A2962 RMK AO2 SLP032 60000 T00830061 10094 20083 53010=
201902020453 METAR KPAE 020453Z AUTO 15013KT 10SM SCT055 BKN080 OVC100 08/07 A2960 RMK AO2 SLP025 T00830067=
201902020353 METAR KPAE 020353Z 15014KT 10SM BKN060 OVC080 09/07 A2959 RMK AO2 SLP022 T00890072=
201902020253 METAR KPAE 020253Z 15013G21KT 10SM SCT006 OVC070 09/07 A2959 RMK AO2 RAB42E53 SLP021 P0000 60000 T00890072 53006=
201902020219 SPECI KPAE 020219Z 15015KT 10SM SCT006 BKN060 09/08 A2959 RMK AO2 T00890078=
201902020200 SPECI KPAE 020200Z 15018KT 10SM FEW055 OVC085 09/08 A2958 RMK AO2 T00890078=
201902020153 METAR KPAE 020153Z 15017KT 10SM BKN009 BKN055 OVC080 09/08 A2958 RMK AO2 SLP018 T00890078=
201902020053 METAR KPAE 020053Z 15017KT 10SM BKN009 BKN034 OVC090 09/08 A2958 RMK AO2 SLP017 T00940078=
201902012353 METAR KPAE 012353Z 14011G18KT 10SM BKN008 BKN048 09/08 A2957 RMK AO2 RAE03 SLP015 P0001 60011 T00940083 10094 20067 56003=
201902012320 SPECI KPAE 012320Z 14015KT 10SM SCT008 BKN048 OVC080 09/08 A2957 RMK AO2 RAE03 P0001 T00940078=
201902012253 METAR KPAE 012253Z 15016G23KT 5SM -RA BR BKN008 BKN013 OVC034 09/08 A2957 RMK AO2 SLP016 P0000 T00890078=
201902012153 METAR KPAE 012153Z 14015KT 5SM -RA BR BKN006 OVC011 09/08 A2957 RMK AO2 SLP013 P0001 T00890078=
201902012100 SPECI KPAE 012100Z 13014KT 5SM -RA BR BKN006 OVC011 08/07 A2958 RMK AO2 P0000 T00830072=
201902012053 METAR KPAE 012053Z 14010KT 4SM -RA BR BKN004 BKN029 OVC039 08/07 A2958 RMK AO2 SLP018 P0003 60009 T00830072 56008=
201902011953 METAR KPAE 011953Z 12011KT 6SM -RA BR BKN004 BKN029 OVC039 08/07 A2959 RMK AO2 SLP020 P0002 T00830072=
201902011853 METAR KPAE 011853Z VRB04KT 5SM -RA BR BKN004 BKN029 OVC039 07/07 A2960 RMK AO2 SLP023 P0004 T00720067=
201902011753 METAR KPAE 011753Z 12006KT 4SM -RA BR BKN004 BKN016 OVC031 07/06 A2961 RMK AO2 SLP027 P0006 60016 T00720061 10094 20067 58005=
201902011708 SPECI KPAE 011708Z 12010KT 5SM R16R/6000VP6000FT -RA BR BKN004 BKN016 OVC031 07/06 A2961 RMK AO2 P0002 T00720061=
201902011653 METAR KPAE 011653Z 13008KT 5SM -RA BR SCT004 BKN016 OVC031 07/06 A2962 RMK AO2 SLP030 P0004 T00720061=
201902011636 SPECI KPAE 011636Z 15006KT 6SM -RA BR SCT004 OVC028 07/06 A2962 RMK AO2 P0003 T00670061=
201902011612 SPECI KPAE 011612Z 13009KT 6SM -RA BR SCT018 BKN026 OVC031 07/06 A2962 RMK AO2 P0001 T00720056=
201902011553 METAR KPAE 011553Z 13010KT 7SM -RA SCT018 BKN030 OVC039 07/06 A2961 RMK AO2 SLP030 P0005 T00720056=
201902011453 METAR KPAE 011453Z 16014KT 10SM -RA OVC036 07/05 A2962 RMK AO2 SLP032 P0001 60001 T00720050 56006=
201902011353 METAR KPAE 011353Z AUTO 15008KT 10SM -RA FEW044 OVC055 08/04 A2962 RMK AO2 RAB04 SLP033 P0000 T00780039=
201902011253 METAR KPAE 011253Z AUTO 14010KT 10SM OVC080 09/03 A2963 RMK AO2 RAE1154B10E28 SLP033 P0000 T00890033=
201902011153 METAR KPAE 011153Z AUTO 15013KT 10SM -RA SCT070 OVC090 09/03 A2964 RMK AO2 RAB45 SLP038 P0000 60000 T00940028 10100 20094 56004=
201902011053 METAR KPAE 011053Z AUTO 14010KT 10SM OVC100 09/03 A2964 RMK AO2 SLP038 T00940028=
201902010953 METAR KPAE 010953Z AUTO 13012KT 10SM OVC110 09/03 A2964 RMK AO2 SLP040 T00940033=
201902010853 METAR KPAE 010853Z AUTO 13013KT 10SM FEW080 OVC110 09/04 A2965 RMK AO2 SLP042 T00940039 56006=
201902010753 METAR KPAE 010753Z AUTO 13010KT 10SM SCT080 OVC110 10/03 A2966 RMK AO2 SLP044 T01000033 401170028=
201902010740 SPECI KPAE 010740Z AUTO 13010KT 10SM SCT029 BKN085 OVC110 10/03 A2966 RMK AO2 T01000033=
201902010702 SPECI KPAE 010702Z AUTO 14010KT 10SM BKN029 BKN110 10/03 A2966 RMK AO2 T01000028=
201902010653 METAR KPAE 010653Z AUTO 13012KT 10SM OVC031 10/03 A2966 RMK AO2 SLP044 T01000028=
201902010553 METAR KPAE 010553Z AUTO 13011KT 10SM SCT035 BKN044 OVC080 10/03 A2967 RMK AO2 SLP049 60000 T01000028 10111 20100 56017=
201902010453 METAR KPAE 010453Z AUTO 13011KT 10SM OVC050 11/02 A2968 RMK AO2 SLP053 T01060022=
201902010353 METAR KPAE 010353Z 13012KT 10SM OVC055 11/02 A2970 RMK AO2 SLP058 T01060022=
201902010253 METAR KPAE 010253Z 13007KT 10SM BKN060 OVC080 10/02 A2972 RMK AO2 SLP066 60000 T01000022 58015=
201902010153 METAR KPAE 010153Z 13006KT 10SM OVC070 11/02 A2974 RMK AO2 RAB0054E15 SLP074 P0000 T01060022=
201902010053 METAR KPAE 010053Z 13006KT 10SM BKN075 OVC095 11/02 A2976 RMK AO2 SLP081 T01060017=

# No short TAF reports from KPAE in databse.

###################################
#  large TAF from KPAE
###################################
201902282320 TAF KPAE 282320Z 0100/0124 36005KT P6SM SKC FM010600 02005KT P6SM
                       FEW200 FM011800 02006KT P6SM FEW200 FM012100
                       35007KT P6SM SCT120 SCT200=
201902281723 TAF KPAE 281723Z 2818/0118 18005KT P6SM FEW070 FEW200 FM282000
                       20005KT P6SM FEW070 SCT200 FM010200 03005KT
                       P6SM FEW060 SCT200 FM010600 03005KT P6SM
                       BKN060=
201902281120 TAF KPAE 281120Z 2812/0112 13006KT P6SM BKN060 FM281800 21005KT
                       P6SM FEW060 BKN150 FM010000 33005KT P6SM
                       FEW060 BKN150 FM010600 04003KT P6SM BKN060
                       BKN100=
201902280530 TAF KPAE 280530Z 2806/0106 12009KT P6SM VCSH OVC035
                      TEMPO 2806/2810 P6SM -SN OVC030 FM281200
                       15006KT P6SM BKN030 OVC050 FM282000 20005KT
                       P6SM SCT035 FM010300 VRB03KT P6SM SCT040
                       SCT200=
201902272320 TAF KPAE 272320Z 2800/2824 21007KT P6SM VCSH OVC060
                      TEMPO 2802/2806 18006KT P6SM -SN BKN035 OVC050
                       FM280600 18007KT P6SM BKN035 OVC050 FM281800
                       20005KT P6SM OVC050=
201902271720 TAF KPAE 271720Z 2718/2818 36008KT P6SM OVC080 FM272000 02008KT
                       P6SM OVC070 FM280100 15008KT 4SM -SHRASN
                       BKN025 OVC035 FM280200 15008KT 4SM -SN OVC025
                       FM280700 17007KT P6SM OVC050=
201902271138 TAF KPAE 271138Z 2712/2812 03010KT P6SM BKN080 OVC090 FM272000
                       02010KT P6SM OVC070 FM280100 15008KT 4SM
                       -SHRASN BKN025 OVC035 FM280200 15008KT 4SM
                       -SN OVC025 FM280700 17007KT P6SM OVC050=
201902270540 TAF KPAE 270540Z 2706/2806 06010KT P6SM BKN200 FM271200 06010KT
                       P6SM BKN100 OVC200 FM272000 02010KT P6SM
                       OVC070 FM280300 15008KT 4SM -SN OVC025=
201902262320 TAF KPAE 262320Z 2700/2724 01010KT P6SM SCT060 SCT200
                      TEMPO 2700/2703 BKN060 FM270900 03012KT P6SM
                       SCT120 BKN200 FM271200 04010KT P6SM BKN100
                       OVC200 FM271500 04010KT P6SM BKN070 BKN100
                       FM272000 02010KT P6SM OVC070=
201902261720 TAF KPAE 261720Z 2618/2718 03008KT P6SM FEW040 FEW100 FM262100
                       03010KT P6SM FEW100 FM271200 04010KT P6SM
                       BKN100 FM271500 04010KT P6SM BKN070 BKN100=
201902261130 TAF KPAE 261130Z 2612/2712 29005KT P6SM BKN090 FM261400 02008KT
                       P6SM SCT250=
201902260538 TAF KPAE 260538Z 2606/2706 29006KT P6SM BKN090 FM261300 32009KT
                       P6SM SCT250=
201902260312 KPAE 260312Z 2603/2624 31008KT P6SM BKN090 FM260700 31008KT P6SM
                       SCT250=
201902252340 TAF KPAE 252340Z 2600/2624 31010G18KT P6SM SCT250=
201902252104 KPAE 252104Z 2521/2618 30010G16KT P6SM SKC=
201902251722 TAF KPAE 251722Z 2518/2618 33005KT P6SM SKC=
201902251137 TAF KPAE 251137Z 2512/2612 01007KT P6SM SCT250 FM252300 01009KT
                       P6SM SCT120 BKN250 FM260500 07004KT P6SM
                       BKN150=
201902250522 TAF KPAE 250522Z 2506/2606 VRB03KT P6SM BKN090 FM251200 01006KT
                       P6SM SCT250 FM252300 01010KT P6SM SCT120
                       BKN250=
201902250005 TAF KPAE 250005Z 2500/2524 33008KT P6SM VCSH BKN050 OVC080 FM250400
                       01006KT P6SM SCT050 BKN150 FM250800 05005KT
                       P6SM SCT250 FM251200 02005KT P6SM SCT250
                       FM251900 01008KT P6SM SCT100 BKN250=
201902241758 TAF KPAE 241758Z 2418/2518 01004KT 5SM -SHSN BKN030 OVC040
                      TEMPO 2418/2419 2SM -SN BKN015 OVC025 FM241900
                       01008KT P6SM VCSH SCT025 BKN045 FM250400
                       01008KT P6SM SCT050 BKN150 FM250800 05005KT
                       P6SM SCT250 FM251200 02005KT P6SM SCT250=
201902241649 KPAE 241649Z 2417/2512 01004KT 5SM -SHSN BKN020 OVC035
                      TEMPO 2417/2419 2SM -SN BKN015 OVC025 FM241900
                       01008KT P6SM VCSH SCT025 BKN045 FM250400
                       01008KT P6SM SCT050 BKN150 FM250800 05005KT
                       P6SM SCT250=
201902241136 TAF KPAE 241136Z 2412/2512 01004KT P6SM SCT020 OVC040
                      TEMPO 2412/2415 -SHRA BKN020 OVC040 FM241500
                       01008KT P6SM SCT025 BKN045 FM250400 01008KT
                       P6SM SCT050 BKN150 FM250800 05005KT P6SM
                       SCT250=
201902240540 TAF KPAE 240540Z 2406/2506 VRB03KT 2SM -SN BKN006 OVC015 FM240700
                       VRB03KT 4SM BR SCT006 BKN015 OVC030 FM240900
                       VRB03KT P6SM SCT020 BKN035 BKN050 FM241100
                       01004KT P6SM SCT025 BKN040 OVC060
                      TEMPO 2411/2415 -SHRA BKN025 OVC040 FM241500
                       01008KT P6SM SCT025 BKN045 FM250400 01008KT
                       P6SM SCT050 BKN150=
201902232320 TAF KPAE 232320Z 2400/2424 14008KT P6SM VCSH SCT025 BKN040
                      TEMPO 2400/2404 BKN025 OVC040 FM241200 VRB04KT
                       P6SM SCT020 BKN040
                      TEMPO 2412/2416 -SHSN BKN020 OVC040 FM241800
                       36008KT P6SM SCT025 BKN050=
201902232118 KPAE 232118Z 2321/2418 15012KT P6SM VCSH SCT020 BKN040 BKN100 FM240300
                       15008KT P6SM VCSH SCT025 BKN050 FM241200
                       VRB04KT P6SM -SHSN BKN025 BKN050 FM241600
                       35007KT P6SM SCT030 BKN050=
201902232012 KPAE 232012Z 2320/2418 15014G20KT P6SM BKN015 FM232200 16012KT
                       P6SM VCSH BKN040 FM240300 12007KT 6SM -SHRASN
                       OVC025=
201902231750 TAF KPAE 231750Z 2318/2418 13010KT P6SM SCT015 SCT025 BKN070 FM232100
                       15008KT P6SM VCSH BKN040 FM240300 12007KT
                       6SM -SHRASN OVC025=
201902231137 TAF KPAE 231137Z 2312/2412 14008KT P6SM FEW015 BKN020 FM231800
                       15008KT P6SM SCT015 BKN025 BKN070 FM232100
                       15008KT P6SM VCSH BKN040 FM240300 12007KT
                       P6SM VCSH SCT050 BKN200=
201902230931 KPAE 230931Z 2310/2406 15008KT P6SM BKN050 BKN070 FM231200 15008KT
                       P6SM BKN035 OVC050 FM231800 15008KT P6SM
                       SCT015 BKN025 BKN050 FM232100 15008KT P6SM
                       VCSH BKN040 FM240300 12006KT P6SM SCT050
                       BKN200=
201902230532 TAF KPAE 230532Z 2306/2406 15008KT P6SM BKN006 OVC020
                      TEMPO 2306/2310 SCT006 OVC020 FM231000 15008KT
                       P6SM SCT008 BKN015 OVC030 FM231800 15008KT
                       P6SM SCT015 BKN025 BKN050 FM232100 15008KT
                       P6SM VCSH BKN040 FM240300 12006KT P6SM SCT050
                       BKN200=
201902230340 KPAE 230340Z 2304/2324 15008KT P6SM BKN006 BKN020 BKN035 FM230800
                       15008KT P6SM VCSH SCT008 BKN020 BKN035 FM232000
                       19010KT P6SM VCSH BKN040=
201902222320 TAF KPAE 222320Z 2300/2324 18012KT P6SM VCSH SCT015 BKN040
                      TEMPO 2300/2304 BKN012 OVC030 FM230900 19007KT
                       P6SM VCSH BKN025 FM232000 19010KT P6SM VCSH
                       BKN040=
201902221749 TAF KPAE 221749Z 2218/2318 17018G26KT P6SM -RASN BKN020 OVC035
                       FM221900 18018G26KT 6SM -RA BR BKN018 OVC030
                       FM230200 21006KT P6SM -SHRA BKN025 OVC050
                       FM230900 18008KT P6SM VCSH BKN025=
201902221136 TAF KPAE 221136Z 2212/2312 13010KT P6SM OVC090 FM221400 14012G18KT
                       P6SM SCT035 OVC060 FM221700 17016G24KT P6SM
                       -RASN SCT020 OVC035 FM221900 18018G26KT
                       6SM -RA BR BKN018 OVC030 FM230200 21006KT
                       P6SM -SHRA BKN025 OVC050 FM230900 18008KT
                       P6SM VCSH BKN025=
201902220520 TAF KPAE 220520Z 2206/2306 15004KT P6SM BKN250 FM221200 16008KT
                       P6SM BKN120 OVC250 FM221400 16012KT P6SM
                       SCT035 OVC060 FM221700 17016G24KT P6SM -RASN
                       SCT020 OVC035 FM221900 18018G26KT P6SM -RA
                       BKN020 OVC030 FM230200 21006KT P6SM -SHRA
                       BKN025 OVC050=
201902212355 TAF KPAE 212355Z 2200/2224 31005KT P6SM SKC FM220200 VRB03KT P6SM
                       BKN200 FM220600 14006KT P6SM BKN120 OVC200
                       FM221100 16010KT P6SM VCSH BKN060 OVC100
                       FM221400 16013G22KT P6SM VCSH BKN035 OVC060
                       FM221600 17014G24KT P6SM -RASN BKN030 OVC040
                       FM221900 16017G28KT P6SM -SHRA BKN025 OVC035=
201902211745 TAF KPAE 211745Z 2118/2218 VRB03KT P6SM SKC FM211900 36005KT P6SM
                       SKC FM220200 VRB03KT P6SM BKN200 FM220800
                       16007KT P6SM BKN120 OVC200 FM221100 16010KT
                       P6SM VCSH BKN060 OVC100 FM221500 16013G22KT
                       P6SM VCSH BKN035 OVC060 FM221700 17014G24KT
                       P6SM VCSH BKN030 OVC040=
201902211601 KPAE 211601Z 2116/2212 VRB03KT 5SM BR SCT006
                      TEMPO 2116/2118 4SM BR BKN006 FM211900 36006KT
                       P6SM SKC FM220200 VRB03KT P6SM BKN200 FM220800
                       16007KT P6SM BKN120 OVC200 FM221100 16010KT
                       P6SM VCSH BKN060 OVC100=
201902211352 KPAE 211352Z 2114/2212 VRB03KT 3SM BR SCT006
                      TEMPO 2114/2116 1/4SM FZFG VV001 FM211700
                       36006KT P6SM SKC FM220200 VRB03KT P6SM BKN200
                       FM220800 16007KT P6SM BKN120 OVC200 FM221100
                       16010KT P6SM VCSH BKN060 OVC100=
201902211127 KPAE 211127Z 2112/2212 VRB03KT 3SM BR SCT006
                      TEMPO 2112/2116 1/2SM FZFG VV003 FM211700
                       36006KT P6SM SKC FM220200 VRB03KT P6SM BKN200
                       FM220800 16007KT P6SM BKN120 OVC200 FM221100
                       16010KT P6SM VCSH BKN060 OVC100=
201902210525 TAF KPAE 210525Z 2106/2206 34005KT P6SM SCT015
                      TEMPO 2106/2110 BKN015 FM211600 36006KT P6SM
                       SKC FM220300 VRB03KT P6SM BKN250=
201902202322 TAF KPAE 202322Z 2100/2124 31007KT P6SM BKN025 FM210200 03006KT
                       P6SM SCT030 FM211200 36006KT P6SM SKC=
201902202134 KPAE 202134Z 2022/2118 VRB04KT P6SM VCSH SCT015 BKN030 FM210200
                       03006KT P6SM SCT040 FM211700 36006KT P6SM
                       SKC=
201902201723 TAF KPAE 201723Z 2018/2118 VRB04KT P6SM SCT010 BKN040
                      TEMPO 2018/2021 4SM -SHRASN BKN010 OVC040
                       FM210400 03006KT P6SM SCT050 FM211700 36006KT
                       P6SM SKC=
201902201250 KPAE 201250Z 2013/2112 35005KT P6SM VCSH SCT015 BKN035
                      TEMPO 2013/2017 6SM -SHRA BR BKN008 OVC022
                       FM202000 35005KT P6SM SCT025 BKN050 FM210300
                       36004KT P6SM SCT050 BKN150 FM210700 03004KT
                       P6SM FEW050=
201902201137 TAF KPAE 201137Z 2012/2112 35005KT P6SM VCSH SCT015 BKN035
                      TEMPO 2012/2016 6SM -SHRA BR BKN015 OVC027
                       FM202000 35005KT P6SM SCT025 BKN050 FM210300
                       36004KT P6SM SCT050 BKN150 FM210700 03004KT
                       P6SM FEW050=
201902200947 KPAE 200947Z 2010/2106 00000KT P6SM VCSH SCT005 BKN012
                      TEMPO 2010/2014 6SM BR BKN003 OVC008 FM201400
                       35003KT P6SM OVC015 FM202000 35005KT P6SM
                       SCT025 BKN050 FM210300 36004KT P6SM SCT050
                       BKN150=
201902200521 TAF KPAE 200521Z 2006/2106 00000KT P6SM -SHRA OVC016 FM201000 32006KT
                       6SM -SHRA BR BKN015 BKN030 FM201400 35003KT
                       P6SM OVC015 FM202000 35005KT P6SM SCT025
                       BKN050 FM210300 36004KT P6SM SCT050 BKN150=
201902192320 TAF KPAE 192320Z 2000/2024 15010KT P6SM -RA OVC010 FM200600 21008KT
                       6SM -SHRA BR BKN014 BKN025 FM201000 32006KT
                       6SM -SHRA BR BKN015 BKN030 FM201400 35003KT
                       P6SM OVC015=
201902191722 TAF KPAE 191722Z 1918/2018 14007KT 4SM BR VCSH BKN010 OVC025 FM192000
                       18010KT P6SM -RA OVC015 FM200600 21008KT
                       6SM -SHRA BR BKN014 BKN025 FM201000 32006KT
                       6SM -SHRA BR BKN015 BKN030=
201902191135 TAF KPAE 191135Z 1912/2012 14006KT P6SM VCSH SCT009 OVC027
                      TEMPO 1912/1916 BKN008 OVC022 FM191600 17007KT
                       P6SM VCSH BKN015 OVC025 FM192000 18010KT
                       P6SM -RA OVC015 FM200600 21008KT 6SM -SHRA
                       BR BKN014 BKN025 FM201000 32006KT 6SM -SHRA
                       BR BKN015 BKN030=
201902190520 TAF KPAE 190520Z 1906/2006 00000KT P6SM SCT020 OVC045
                      TEMPO 1906/1910 -SHRA OVC020 FM191000 14004KT
                       P6SM OVC020 FM192000 17008KT P6SM -RA OVC015=
201902182320 TAF KPAE 182320Z 1900/1924 VRB04KT P6SM OVC040 FM191000 14004KT
                       P6SM OVC020 FM192000 17008KT P6SM -RA OVC015=
201902181720 TAF KPAE 181720Z 1818/1918 18004KT P6SM OVC045
                      TEMPO 1818/1820 1/2SM FG FM190600 14004KT
                       P6SM OVC020=
201902181629 KPAE 181629Z 1816/1912 15003KT P6SM BKN040
                      TEMPO 1816/1818 1/2SM FG FM182000 12004KT
                       P6SM BKN030 OVC040 FM190600 12004KT P6SM
                       OVC020=
201902181138 TAF KPAE 181138Z 1812/1912 12004KT P6SM SCT025 FM181400 15003KT
                       P6SM BKN020 OVC030 FM181700 19005KT P6SM
                       OVC025 FM182000 12004KT P6SM BKN030 OVC040
                       FM190600 12004KT P6SM OVC020=
201902180601 TAF KPAE 180601Z 1806/1906 VRB04KT P6SM FEW020 BKN200 FM181200
                       VRB04KT P6SM OVC018 FM181800 19005KT P6SM
                       OVC025 FM182000 12004KT P6SM SCT030 BKN040=
201902180001 KPAE 180001Z 1800/1824 35007KT P6SM FEW030 SCT110 FM180300 35005KT
                       P6SM SKC FM181200 VRB04KT P6SM FEW018 BKN020
                       FM182100 20004KT P6SM SCT030 BKN040=
201902172322 TAF KPAE 172322Z 1800/1824 35007KT P6SM BKN030 FM180200 01004KT
                       P6SM SCT030 FM181200 VRB04KT P6SM FEW018
                       BKN020 FM182100 20004KT P6SM SCT030 BKN040=
201902171747 TAF KPAE 171747Z 1718/1818 00000KT P6SM OVC006 FM171900 34006KT
                       P6SM SCT008 BKN015 OVC030 FM172200 34006KT
                       P6SM SCT020 BKN025 OVC040 FM180000 35005KT
                       P6SM SCT025 BKN040 FM180500 VRB04KT P6SM
                       BKN025 FM181400 VRB03KT P6SM OVC010=
201902171139 TAF KPAE 171139Z 1712/1812 VRB04KT P6SM SCT002 BKN015 OVC070
                      TEMPO 1713/1715 P6SM OVC002 FM171500 34006KT
                       P6SM SCT004 BKN005 OVC015 FM171900 34006KT
                       P6SM SCT008 BKN015 OVC030 FM172200 34006KT
                       P6SM SCT020 BKN025 OVC040 FM180000 35005KT
                       P6SM SCT025 BKN040 FM180500 VRB04KT P6SM
                       BKN025=
201902170546 TAF KPAE 170546Z 1706/1806 13006KT P6SM -RA SCT006 OVC012 FM170800
                       13006KT 5SM -SHRASN BKN006 OVC012 FM171100
                       VRB04KT P6SM BKN003 OVC006 FM171500 34006KT
                       P6SM SCT004 BKN008 OVC015 FM171800 34006KT
                       P6SM SCT008 BKN015 OVC030 FM172200 34006KT
                       P6SM SCT025 BKN040=
201902162344 TAF KPAE 162344Z 1700/1724 20003KT P6SM -RA BKN004 OVC025 FM170500
                       VRB02KT P6SM -SHRA BKN015 OVC030 FM170900
                       VRB04KT P6SM BKN005 OVC020 FM171400 35004KT
                       P6SM OVC010 FM171900 34005KT P6SM BKN015
                       OVC035 FM172100 34006KT P6SM BKN035 OVC040=
201902161908 KPAE 161908Z 1619/1718 15004KT 1SM -RA BR BKN007 OVC025 FM162100
                       20007KT 4SM -RA BR OVC015 FM170000 20005KT
                       P6SM -SHRA OVC020 FM170500 VRB02KT P6SM
                       -SHRA OVC025 FM170900 VRB04KT P6SM BKN020
                       FM171400 00000KT P6SM OVC010=
201902161755 TAF KPAE 161755Z 1618/1718 15004KT P6SM -RA BKN005 OVC025 FM162100
                       20007KT P6SM -RA OVC020 FM170500 VRB02KT
                       P6SM -SHRA OVC025 FM170900 VRB04KT P6SM
                       BKN020 FM171400 00000KT P6SM OVC010=
201902161137 TAF KPAE 161137Z 1612/1712 00000KT P6SM OVC060 FM161800 19004KT
                       P6SM VCSH OVC025 FM162100 20007KT P6SM -RA
                       OVC020 FM170500 VRB02KT P6SM -SHRA OVC025=
201902160548 TAF KPAE 160548Z 1606/1706 08006KT P6SM SCT050 FM161800 19004KT
                       P6SM VCSH OVC025 FM162100 20007KT P6SM VCSH
                       OVC025=
201902152320 TAF KPAE 152320Z 1600/1624 14008KT P6SM SCT020 FM160500 15004KT
                       P6SM OVC050 FM161800 19004KT P6SM OVC025=
201902151724 TAF KPAE 151724Z 1518/1618 17011KT P6SM VCSH SCT035 OVC050 FM160500
                       17007KT P6SM BKN035 OVC050 FM161200 16004KT
                       P6SM OVC050=
201902151138 TAF KPAE 151138Z 1512/1612 14010KT P6SM -SHRA OVC070 FM151300 16010KT
                       P6SM -RA OVC030 FM151700 18011KT P6SM VCSH
                       BKN035 OVC040 FM152200 18010KT P6SM BKN040
                       OVC050 FM160500 17009KT P6SM BKN025 OVC035=
201902150704 KPAE 150704Z 1507/1606 14010KT P6SM VCSH FEW040 OVC050
                      TEMPO 1508/1510 P6SM -RA BKN025 OVC030 FM151300
                       16010KT P6SM VCSH OVC015 FM152200 18010KT
                       P6SM OVC022=
201902150523 TAF KPAE 150523Z 1506/1606 14010KT 6SM -RA BKN008 OVC015 FM150800
                       15008KT P6SM -SHRA OVC010 FM151300 16010KT
                       P6SM VCSH OVC010 FM152200 18010KT P6SM OVC022=
201902142328 TAF KPAE 142328Z 1500/1524 VRB03KT 5SM -RA OVC020 FM150200 16007KT
                       6SM -RA SCT015 OVC020 FM150800 15008KT P6SM
                       -SHRA OVC015 FM151300 16010KT P6SM VCSH
                       OVC015 FM152200 18010KT P6SM OVC022=
201902141729 TAF KPAE 141729Z 1418/1518 VRB03KT P6SM VCSH SCT040 OVC060 FM142300
                       05011KT 6SM -RA OVC040 FM150200 16007KT
                       P6SM -RA OVC030 FM150800 15006KT P6SM -SHRA
                       BKN015 OVC020 FM151300 15008KT P6SM VCSH
                       OVC015=
201902141139 TAF KPAE 141139Z 1412/1512 04006KT P6SM SKC FM141400 03005KT P6SM
                       BKN050 FM141900 07007KT P6SM VCSH OVC050
                       FM150000 08007KT P6SM -RA OVC030 FM150800
                       15011KT P6SM -SHRA BKN015 OVC020=
201902140758 KPAE 140758Z 1408/1506 03004KT P6SM SKC
                      TEMPO 1408/1409 VRB03KT SCT010 FM141000 05006KT
                       P6SM SCT025 SCT200 FM141700 07007KT P6SM
                       SCT060 BKN200 FM142000 07006KT P6SM VCSH
                       OVC050 FM150000 08007KT P6SM -RA OVC030=
201902140552 TAF KPAE 140552Z 1406/1506 03004KT P6SM OVC012
                      TEMPO 1406/1409 VRB03KT OVC008 FM141000 05006KT
                       P6SM SCT025 SCT200 FM141700 07007KT P6SM
                       SCT060 BKN200 FM142000 07006KT P6SM VCSH
                       OVC050 FM150000 08007KT P6SM -RA OVC030=
201902140423 KPAE 140423Z 1404/1424 03004KT P6SM OVC015 FM141000 05005KT P6SM
                       SCT025 SCT200 FM141700 06005KT P6SM VCSH
                       BKN060 BKN200 FM142200 02006KT P6SM -RA
                       OVC050=
201902132324 TAF KPAE 132324Z 1400/1424 33008KT P6SM SCT025 FM140300 03004KT
                       P6SM SCT250 FM141100 07005KT P6SM SCT050
                       SCT200 FM141700 06005KT P6SM VCSH BKN060
                       BKN200 FM142200 02006KT P6SM -RA OVC050=
201902131736 TAF KPAE 131736Z 1318/1418 33004KT 2SM BR BKN002 OVC005
                      TEMPO 1318/1320 1/4SM FG VV001 FM132100 35006KT
                       P6SM SCT007 BKN015 FM140300 03004KT P6SM
                       SCT250 FM141100 07005KT P6SM SCT050 SCT200
                       FM141700 06005KT P6SM VCSH BKN060 BKN200=
201902131126 TAF KPAE 131126Z 1312/1412 14005KT P6SM SCT006 OVC012
                      TEMPO 1312/1316 6SM BR BKN005 OVC011 FM131800
                       VRB05KT P6SM SCT008 OVC015 FM132100 35006KT
                       P6SM SCT006 BKN022 BKN040 FM140300 03006KT
                       P6SM SCT030 SCT200 FM141100 06005KT P6SM
                       SCT100 BKN200=
201902130534 TAF KPAE 130534Z 1306/1406 14008KT P6SM SCT006 OVC012 FM131200
                       VRB03KT 5SM BR BKN006 OVC012 FM131800 35006KT
                       P6SM SCT006 OVC012 FM132100 35006KT P6SM
                       SCT006 BKN022 BKN040 FM140300 35006KT P6SM
                       SCT025 BKN040=
201902122322 TAF KPAE 122322Z 1300/1324 13008KT 1SM BR BKN004 OVC010 FM130200
                       15005KT 4SM BR SCT004 OVC015 FM130700 VRB04KT
                       6SM BR OVC004 FM131900 35005KT P6SM OVC005
                       FM132100 36005KT P6SM SCT005 BKN025 BKN050=
201902122117 KPAE 122117Z 1221/1318 13008KT 2SM -RASN OVC004 FM130200 18008KT
                       6SM -RASN BKN013 OVC025 FM130700 17007KT
                       P6SM BKN017 OVC030=
201902121720 TAF KPAE 121720Z 1218/1318 VRB05KT 4SM -RASN SCT007 OVC015
                      TEMPO 1218/1220 1SM -SN BR OVC007 FM122000
                       15007KT 6SM -RASN BR SCT008 BKN012 OVC025
                       FM130200 18008KT P6SM VCSH BKN020 OVC035
                       FM130700 17007KT P6SM BKN017 OVC030=
201902121618 KPAE 121618Z 1216/1312 11004KT 3SM -SN BR SCT005 OVC015
                      TEMPO 1216/1218 1SM -SN BR BKN005 OVC015
                       FM121800 14007KT 4SM -SN BR SCT005 BKN010
                       OVC020 FM122000 15007KT 6SM -RASN BR SCT008
                       BKN012 OVC025 FM130200 18008KT P6SM VCSH
                       BKN020 OVC035 FM130700 17007KT P6SM BKN017
                       OVC030=
201902121145 TAF KPAE 121145Z 1212/1312 12006KT 4SM -SN BR BKN005 OVC018
                      TEMPO 1212/1216 2SM -SN BR OVC003 FM121600
                       14007KT 5SM -SN BR SCT005 BKN010 OVC020
                       FM121800 15007KT 6SM -RASN BR SCT008 BKN012
                       OVC025 FM130200 18008KT P6SM VCSH BKN020
                       OVC035 FM130700 17007KT P6SM BKN017 OVC030=
201902120746 KPAE 120746Z 1208/1306 12010KT 4SM -SN BR SCT006 OVC012
                      TEMPO 1208/1212 2SM -SN BR OVC004 FM121200
                       15008KT 4SM -RASN SCT006 BKN012 OVC020 FM121600
                       17008KT P6SM -RA SCT006 BKN012 OVC020 FM122300
                       17008KT P6SM SCT020 BKN035 OVC050=
201902120539 TAF KPAE 120539Z 1206/1306 11008KT 2SM -SN BR BKN006 OVC012 FM121200
                       15008KT 4SM -RASN SCT006 BKN012 OVC020 FM121600
                       17008KT P6SM -RA SCT006 BKN012 OVC020 FM122300
                       17008KT P6SM SCT020 BKN035 OVC050=
201902120310 KPAE 120310Z 1203/1224 09008KT 1SM -SN BR OVC005 FM120900 15008KT
                       4SM -RASN BKN012 OVC025 FM121500 17008KT
                       P6SM BKN015 OVC030 FM122200 17008KT P6SM
                       SCT020 BKN050 OVC090=
201902112321 TAF KPAE 112321Z 1200/1224 07009KT 1SM -SN BR SCT008 OVC014
                      TEMPO 1200/1204 1/2SM SN FZFG VV008 FM120900
                       15008KT 4SM -RASN BKN012 OVC025 FM121500
                       17008KT P6SM BKN015 OVC030 FM122200 17008KT
                       P6SM SCT020 BKN050 OVC090=
201902111721 TAF KPAE 111721Z 1118/1218 08007KT P6SM SCT015 BKN040 OVC080 FM112000
                       08006KT 3SM -SN BKN010 OVC020
                      TEMPO 1120/1124 1SM -SN BR OVC010 FM120400
                       10007KT 2SM -SN BKN006 OVC012 FM120900 16008KT
                       5SM -RASN BKN012 OVC025=
201902111645 KPAE 111645Z 1117/1212 07006KT 6SM -SN SCT010 OVC040
                      TEMPO 1117/1120 1SM -SN BR OVC010 FM112000
                       08006KT 3SM -SN BKN010 OVC020 FM120400 10007KT
                       3SM -SN BKN006 OVC012=
201902111139 TAF KPAE 111139Z 1112/1212 VRB05KT P6SM SCT010 BKN035 OVC045 FM112100
                       11006KT P6SM VCSH BKN025 OVC040 FM112300
                       08006KT 5SM -SN BKN010 OVC020 FM120400 10007KT
                       3SM -SN BKN006 OVC012=
201902110540 TAF KPAE 110540Z 1106/1206 18008KT 3SM -SN BR BKN006 OVC020 FM110800
                       14008KT P6SM SCT006 BKN020 OVC040 FM111200
                       10006KT P6SM SCT020 BKN035 OVC045 FM112300
                       08006KT 5SM -SN BKN010 OVC020=
201902110019 KPAE 110019Z 1100/1124 12015G22KT 2SM -SN OVC020
                      TEMPO 1100/1104 1SM -SN BKN007 OVC015 FM110800
                       02007KT 5SM -SN SCT010 BKN017 OVC030 FM111200
                       VRB04KT P6SM SCT015 BKN035 OVC045 FM111500
                       13005KT P6SM BKN030 OVC050 FM112200 08005KT
                       5SM -SN BKN015 OVC025=
201902102339 TAF KPAE 102339Z 1100/1124 17014KT 5SM -SN BKN020 BKN030 OVC050
                       FM110200 15014KT 2SM -SN BKN010 OVC015
                      TEMPO 1102/1105 1SM -SN FM110800 02007KT
                       5SM -SN SCT010 BKN017 OVC030 FM111200 VRB04KT
                       P6SM SCT015 BKN035 OVC045 FM111500 13005KT
                       P6SM BKN030 OVC050 FM112200 08005KT 5SM
                       -SN BKN015 OVC025=
201902101739 TAF KPAE 101739Z 1018/1118 13008KT P6SM SCT200 FM102100 15012KT
                       P6SM SCT030 OVC050 FM102300 17014KT 5SM
                       -SN SCT015 OVC035 FM110400 15012KT 2SM -SN
                       SCT008 OVC015 FM110800 11007KT 5SM -SN SCT010
                       BKN017 OVC030 FM111200 VRB04KT P6SM SCT015
                       BKN035 OVC045 FM111500 13005KT P6SM BKN030
                       OVC050=
201902101142 TAF KPAE 101142Z 1012/1112 33006KT P6SM SCT200 FM101800 15008KT
                       P6SM SCT080 BKN120 FM102100 15012KT P6SM
                       SCT030 OVC050 FM102300 15012KT 5SM -SN SCT015
                       OVC035 FM110400 15012KT 2SM -SN SCT008 OVC015
                       FM110800 03007KT 5SM -SN SCT010 BKN017 OVC030=
201902100544 TAF KPAE 100544Z 1006/1106 33006KT P6SM SCT200 FM101800 15008KT
                       P6SM SCT080 BKN120 FM102100 15012KT P6SM
                       SCT030 OVC050 FM102300 15012KT 5SM -SN SCT015
                       OVC035 FM110400 15012KT 3SM -SN SCT008 OVC015=
201902092333 TAF KPAE 092333Z 1000/1024 35014KT P6SM SCT200 FM100500 35008KT
                       P6SM SCT200 FM101100 03005KT P6SM SCT200
                       FM101800 17005KT P6SM SCT150 BKN180 FM102200
                       18009KT P6SM SCT030 BKN070=
201902091735 TAF KPAE 091735Z 0918/1018 35012G18KT P6SM VCSH BKN020 BKN040 FM092100
                       35014KT P6SM BKN050 FM100500 35008KT P6SM
                       SCT050 BKN120 FM101100 03005KT P6SM SCT200=
201902091438 KPAE 091438Z 0915/1012 36010KT P6SM SCT012 BKN035
                      TEMPO 0915/0918 3SM -SN BR BKN010 OVC030
                       FM091800 35012G18KT P6SM VCSH BKN020 BKN040
                       FM092100 35014KT P6SM BKN050 FM100500 35008KT
                       P6SM SCT050 BKN120=
201902091133 TAF KPAE 091133Z 0912/1012 36010KT 2SM -SN BKN006 OVC012
                      TEMPO 0912/0916 3/4SM -SN BR BKN004 OVC010
                       FM091600 35010KT 3SM -SN BR SCT006 OVC015
                       FM091800 35012G18KT P6SM VCSH BKN020 BKN040
                       FM092100 35014KT P6SM BKN050 FM100500 35008KT
                       P6SM SCT050 BKN120=
201902090540 TAF KPAE 090540Z 0906/1006 06012KT 2SM -SN SCT006 OVC025 FM091000
                       02012KT 2SM -SN BKN006 OVC012 FM091500 35012KT
                       P6SM SCT006 OVC015 FM091700 35014G22KT P6SM
                       BKN040 FM092100 35014G22KT P6SM SCT050 FM100400
                       35012KT P6SM SCT050=
201902082337 TAF KPAE 082337Z 0900/0924 07012KT 1/2SM SN FG OVC005 FM090400
                       04010KT 2SM -SN OVC010 FM091000 02009KT
                       3SM -SN OVC015 FM091400 35012KT P6SM OVC015
                       FM091600 35014G21KT P6SM BKN040=
201902081737 TAF KPAE 081737Z 0818/0918 10007KT P6SM SCT030 OVC050 FM081900
                       09008KT P6SM -SN BKN010 OVC020 FM082100
                       06012KT 1/2SM SN FG OVC005 FM090400 04010KT
                       2SM -SN OVC010 FM091000 02009KT 3SM -SN
                       OVC015 FM091400 35012KT 4SM -SN OVC015=
201902081125 TAF KPAE 081125Z 0812/0912 05007KT P6SM OVC050 FM081500 10007KT
                       P6SM SCT030 OVC050 FM081900 09008KT P6SM
                       -SN BKN030 OVC050 FM082100 06012KT 1/2SM
                       SN FG OVC005 FM090400 04010KT 2SM -SN OVC010
                       FM091000 02009KT 3SM -SN OVC015=
201902080606 TAF KPAE 080606Z 0806/0906 05007KT P6SM OVC200 FM081500 10007KT
                       P6SM SCT040 OVC120 FM081900 09008KT P6SM
                       -SN BKN040 OVC090 FM082100 06012KT 1/2SM
                       SN FG OVC003=
201902072320 TAF KPAE 072320Z 0800/0824 36005KT P6SM BKN250 FM080600 05007KT
                       P6SM OVC200 FM081500 10007KT P6SM SCT040
                       OVC120 FM081900 12008KT P6SM -RASN BKN040
                       OVC090 FM082200 12012KT 3SM -SN OVC030=
201902071720 TAF KPAE 071720Z 0718/0818 VRB04KT P6SM SCT150 BKN250 FM080600
                       10008KT P6SM SCT050 OVC120 FM081600 16010KT
                       P6SM BKN050 OVC090=
201902071120 TAF KPAE 071120Z 0712/0812 10006KT P6SM SCT250 FM072000 35004KT
                       P6SM SCT150 BKN250 FM080200 VRB03KT P6SM
                       SCT060 OVC120 FM080800 00000KT P6SM BKN050=
201902070526 TAF KPAE 070526Z 0706/0806 VRB03KT P6SM SKC FM071200 10006KT P6SM
                       BKN250 FM072000 35004KT P6SM SCT150 BKN250
                       FM080200 VRB03KT P6SM SCT060 OVC120=
201902062320 TAF KPAE 062320Z 0700/0724 VRB03KT P6SM SKC FM071200 10006KT P6SM
                       BKN250=
201902061720 TAF KPAE 061720Z 0618/0718 11003KT P6SM SKC FM062100 VRB03KT P6SM
                       SCT250=
201902061120 TAF KPAE 061120Z 0612/0712 VRB03KT P6SM SKC FM062100 VRB03KT P6SM
                       SCT250=
201902060526 TAF KPAE 060526Z 0606/0706 VRB03KT P6SM SKC FM062100 VRB03KT P6SM
                       BKN250=
201902052321 TAF KPAE 052321Z 0600/0624 VRB03KT P6SM SKC FM062100 VRB03KT P6SM
                       BKN250=
201902051720 TAF KPAE 051720Z 0518/0618 VRB04KT P6SM SCT250 FM061700 VRB04KT
                       P6SM BKN250=
201902051120 TAF KPAE 051120Z 0512/0612 VRB03KT P6SM SCT015 SCT250 FM051800
                       01005KT P6SM SCT250 FM060100 VRB03KT P6SM
                       SCT250=
201902050522 TAF KPAE 050522Z 0506/0606 32007KT P6SM SCT090 FM051300 01004KT
                       P6SM SCT100 SCT250 FM060100 VRB03KT P6SM
                       SCT250=
201902042320 TAF KPAE 042320Z 0500/0524 32012G20KT P6SM SCT050 BKN090 FM050600
                       32010KT P6SM SCT090=
201902041722 TAF KPAE 041722Z 0418/0518 33012G22KT 5SM -SN BR SCT006 OVC015
                       TEMPO 0418/0420 1SM -SN VV005 FM042000 33012G22KT
                       P6SM BKN020 BKN035 FM042300 36012G20KT P6SM
                       BKN050 BKN090 FM050600 02008KT P6SM SCT050
                       BKN090 FM051200 02008KT P6SM SCT090=
201902041615 KPAE 041615Z 0416/0512 32012G20KT 3SM -SN BR OVC010
                      TEMPO 0416/0418 1SM -SN BR VV004 FM041800
                       34012KT 5SM -SN BR BKN015 OVC025 FM042200
                       36012KT P6SM BKN050 FM050300 01007KT P6SM
                       SCT050=
201902041131 TAF KPAE 041131Z 0412/0512 32008G16KT 2SM -SN BR OVC003
                      TEMPO 0412/0416 1/2SM SN FZFG VV004 FM041600
                       36008KT 5SM -SN BR BKN015 OVC025 FM042200
                       36008KT P6SM BKN050 FM050300 01007KT P6SM
                       SCT050=
201902041017 KPAE 041017Z 0410/0506 30009KT 3/4SM -SN BR BKN004 OVC009
                      TEMPO 0410/0414 1/2SM SN FZFG VV004 FM041400
                       36004KT 4SM -SHSN BR OVC009 FM041800 36005KT
                       P6SM VCSH OVC009 FM042200 36005KT P6SM SCT019
                       FM050400 36003KT P6SM SCT050=
201902040631 KPAE 040631Z 0407/0506 33007KT 3SM -SN BR BKN005 OVC008
                      TEMPO 0407/0411 1/2SM SN FZFG VV004 FM041100
                       36004KT 4SM -SHSN BR OVC009 FM041800 36005KT
                       P6SM VCSH OVC009 FM042200 36005KT P6SM SCT019
                       FM050400 36003KT P6SM SCT050=
201902040533 TAF KPAE 040533Z 0406/0506 31008KT P6SM BKN007 BKN012 OVC028 FM040900
                       36004KT 4SM -SHSN BR OVC009 FM041800 36005KT
                       P6SM VCSH OVC009 FM042200 36005KT P6SM SCT019
                       FM050400 36003KT P6SM SCT050=
201902032349 TAF KPAE 032349Z 0400/0424 36011KT 3SM -SHSN BR SCT006 OVC018
                      TEMPO 0400/0404 1SM -SHSN BR BKN006 OVC012
                       FM040400 36008KT 3SM -SHSN BR OVC012 FM041200
                       36010KT 3SM -SHSN BR OVC015 FM041900 36008KT
                       6SM BR VCSH BKN022 BKN040=
201902031948 KPAE 031948Z 0320/0418 32008KT 6SM -SN BR FEW005 BKN020 OVC035
                       TEMPO 0320/0324 2SM -SN BR BKN003 OVC020
                       FM040000 36005KT 5SM -SHSN BR OVC018 FM040600
                       36008KT 4SM -SHSN BR OVC020 FM041200 36010KT
                       5SM -SHSN BR OVC017=
201902031745 TAF KPAE 031745Z 0318/0418 16010KT P6SM VCSH BKN025 OVC040 FM032000
                       26007KT 6SM -RASN BR BKN020 OVC035 FM040000
                       36005KT 5SM -SHSN BR OVC018 FM040600 36008KT
                       4SM -SHSN BR OVC020 FM041200 36010KT 5SM
                       -SHSN BR OVC017=
201902031247 KPAE 031247Z 0313/0412 00000KT P6SM VCSH BKN026 OVC050 FM031700
                       18008KT P6SM VCSH SCT020 OVC040 FM040000
                       36005KT 5SM -SHSN BR OVC020 FM040600 36008KT
                       4SM -SHSN BR OVC020
                      TEMPO 0408/0412 1SM -SHSN BR OVC008=
201902031128 TAF KPAE 031128Z 0312/0412 33008KT P6SM VCSH OVC040 FM031500 18008KT
                       P6SM VCSH SCT020 OVC040 FM040000 36005KT
                       5SM -SHSN BR OVC020 FM040600 36008KT 4SM
                       -SHSN BR OVC020
                      TEMPO 0408/0412 1SM -SHSN BR OVC008=
201902030533 TAF KPAE 030533Z 0306/0406 33004KT P6SM BKN027 OVC045 FM031200
                       05002KT P6SM OVC020 FM031500 16005KT P6SM
                       VCSH SCT020 OVC040 FM040000 36004KT P6SM
                       -SHSN OVC020=
201902030321 KPAE 030321Z 0303/0324 32004KT P6SM SCT200
                      TEMPO 0303/0305 SCT010 BKN025 BKN040 FM030500
                       VRB03KT P6SM BKN012 OVC025 FM031200 16004KT
                       P6SM BKN015 OVC025 FM031800 19008KT P6SM
                       -SHRA BKN017 OVC030 FM032300 VRB06KT 6SM
                       -RASN BR BKN015 OVC025=
201902022337 TAF KPAE 022337Z 0300/0324 33006KT P6SM BKN007 BKN015 OVC035
                      TEMPO 0301/0305 SCT010 BKN025 BKN040 FM030500
                       VRB03KT P6SM BKN012 OVC025 FM031200 16004KT
                       P6SM BKN015 OVC025 FM031800 19008KT P6SM
                       -SHRA BKN017 OVC030 FM032300 VRB06KT 6SM
                       -RASN BR BKN015 OVC025=
201902021733 TAF KPAE 021733Z 0218/0318 34003KT P6SM BKN008 BKN025 BKN040
                      TEMPO 0218/0222 SCT012 BKN027 BKN040 FM022200
                       35005KT P6SM SCT020 BKN035 BKN050 FM030500
                       VRB03KT P6SM BKN020 BKN040 FM031100 VRB03KT
                       P6SM BKN014 OVC025 FM031700 19006KT P6SM
                       VCSH BKN017 OVC035=
201902021225 KPAE 021225Z 0212/0312 20004KT P6SM VCSH SCT017 BKN022 OVC040 FM021800
                       VRB03KT P6SM BKN025 BKN040 FM030500 VRB03KT
                       P6SM OVC012=
201902021132 TAF KPAE 021132Z 0212/0312 16010KT P6SM VCSH BKN008 OVC015 FM021800
                       22004KT P6SM BKN012 FM022100 VRB03KT P6SM
                       BKN020 FM030500 VRB03KT P6SM OVC012=
201902020646 KPAE 020646Z 0207/0306 16010KT P6SM VCSH BKN012 OVC110 FM021300
                       17006KT 5SM BR OVC008 FM021800 22004KT P6SM
                       BKN012=
201902020533 TAF KPAE 020533Z 0206/0306 15013KT P6SM VCSH SCT060 BKN080 OVC100
                       FM020800 17010KT P6SM VCSH OVC035 FM021300
                       17006KT 5SM BR OVC008 FM021800 22004KT P6SM
                       BKN012=
201902020348 KPAE 020348Z 0204/0224 15013G21KT P6SM SCT006 OVC070
                      TEMPO 0204/0208 -SHRA OVC006 FM020800 17007KT
                       P6SM VCSH OVC008 FM021200 17005KT 6SM BR
                       OVC005 FM021800 VRB04KT P6SM BKN012 BKN030=
201902012338 TAF KPAE 012338Z 0200/0224 17012KT 5SM -SHRA BR BKN007 BKN015 OVC035
                       TEMPO 0200/0203 6SM -SHRA BR SCT010 BKN030
                       FM020300 18010KT P6SM -SHRA BKN010 BKN030
                       FM020800 17007KT P6SM VCSH OVC008 FM021200
                       17005KT 6SM BR OVC005 FM021800 VRB04KT P6SM
                       BKN012 BKN030=
201902011733 TAF KPAE 011733Z 0118/0218 16011KT 6SM -RA BR SCT005 BKN012 OVC025
                       TEMPO 0118/0122 4SM -RA BR BKN004 OVC010
                       FM012200 18011KT 5SM -SHRA SCT007 BKN015
                       FM020300 18010KT P6SM -SHRA BKN020 OVC040
                       FM020800 17008KT P6SM VCSH OVC012=
201902011120 TAF KPAE 011120Z 0112/0212 14010KT P6SM BKN050 OVC100 FM011400
                       15014KT P6SM -RA OVC040 FM011600 16014G21KT
                       4SM -RA BR BKN012 OVC025 FM012200 18011KT
                       5SM -SHRA SCT007 BKN015 FM020300 18010KT
                       P6SM -SHRA BKN020 OVC040 FM020700 17008KT
                       P6SM VCSH OVC025=
201902010540 TAF KPAE 010540Z 0106/0206 14010KT P6SM -RA OVC050 FM011400 16014G21KT
                       4SM -RA BR BKN012 OVC020 FM012200 18011KT
                       5SM -SHRA SCT007 BKN015 FM020000 18011KT
                       P6SM -SHRA BKN020 OVC040=
201902010002 KPAE 010002Z 0100/0124 14006KT P6SM BKN080 BKN200 FM010600 14010KT
                       P6SM BKN050 OVC100 FM011000 14014KT P6SM
                       -RA OVC040 FM011600 16014KT 5SM -RA BR OVC025
                       FM012100 18012KT P6SM -SHRA BKN025 OVC040=