##########################################################
# Query made at 02/15/2025 22:13:53 UTC
# Time interval: from 04/01/2020 00:00  to 04/30/2020 23:59  UTC
##########################################################

##########################################################
# KPAE, Everett, Snohomish County Airport (United States)
# WMO index: -----. WIGOS ID: Unknown
# Latitude 47-55-23N. Longitude 122-16-57W. Altitude 184 m.
##########################################################

###################################
#  METAR/SPECI from KPAE
###################################
202004302353 METAR KPAE 302353Z 19010KT 10SM BKN037 OVC080 14/06 A3009 RMK AO2 SLP190 T01390061 10150 20117 58001=
202004302253 METAR KPAE 302253Z 21014KT 10SM SCT039 14/06 A3009 RMK AO2 SLP190 T01390056=
202004302153 METAR KPAE 302153Z 18017G27KT 10SM BKN032 BKN039 BKN047 14/06 A3009 RMK AO2 PK WND 18027/2151 SLP192 T01390056=
202004302053 METAR KPAE 302053Z 19015G21KT 10SM BKN039 BKN047 BKN055 14/05 A3009 RMK AO2 SLP190 T01390050 53002=
202004301953 METAR KPAE 301953Z 18014G19KT 10SM SCT035 14/05 A3009 RMK AO2 SLP188 T01440050=
202004301853 METAR KPAE 301853Z 18013G22KT 10SM OVC035 13/06 A3009 RMK AO2 SLP189 T01280056=
202004301753 METAR KPAE 301753Z 18015KT 10SM SCT026 OVC035 12/06 A3009 RMK AO2 SLP189 T01220061 10122 20089 53008=
202004301728 SPECI KPAE 301728Z 19016KT 10SM BKN026 BKN033 BKN040 12/06 A3008 RMK AO2 T01170056=
202004301653 METAR KPAE 301653Z 20015KT 10SM SCT027 SCT033 11/05 A3007 RMK AO2 SLP185 T01060050=
202004301553 METAR KPAE 301553Z 20013KT 10SM FEW027 SCT033 11/04 A3007 RMK AO2 SLP183 T01110044=
202004301546 SPECI KPAE 301546Z 21011KT 10SM SCT026 SCT033 11/04 A3007 RMK AO2 T01110044=
202004301504 SPECI KPAE 301504Z 18012KT 10SM BKN022 10/06 A3007 RMK AO2 T01000061=
202004301453 METAR KPAE 301453Z 18012KT 10SM SCT016 10/06 A3006 RMK AO2 SLP181 T01000061 51017=
202004301353 METAR KPAE 301353Z 18008KT 10SM FEW016 09/07 A3005 RMK AO2 SLP176 T00890067=
202004301309 SPECI KPAE 301309Z AUTO 20009KT 10SM FEW017 SCT025 09/07 A3004 RMK AO2 T00940067=
202004301253 METAR KPAE 301253Z AUTO 20010KT 10SM SCT018 BKN024 09/06 A3003 RMK AO2 SLP170 T00940061=
202004301237 SPECI KPAE 301237Z AUTO 20009G16KT 10SM BKN021 10/06 A3003 RMK AO2 T01000061=
202004301153 METAR KPAE 301153Z AUTO 17006KT 10SM FEW017 FEW024 10/07 A3001 RMK AO2 SLP163 70002 T01000067 10117 20094 51009=
202004301148 SPECI KPAE 301148Z AUTO 18008KT 10SM SCT017 SCT024 10/07 A3001 RMK AO2=
202004301053 METAR KPAE 301053Z AUTO 20008KT 10SM BKN015 10/07 A3000 RMK AO2 SLP157 T01000072=
202004301036 SPECI KPAE 301036Z AUTO 18007KT 10SM BKN017 11/07 A3000 RMK AO2 T01060072=
202004301009 SPECI KPAE 301009Z AUTO 19007KT 10SM SCT017 10/07 A2999 RMK AO2 T01000072=
202004300953 METAR KPAE 300953Z AUTO 21007KT 10SM BKN019 11/07 A2999 RMK AO2 SLP152 T01060072=
202004300950 SPECI KPAE 300950Z AUTO 21008KT 10SM BKN019 11/07 A2999 RMK AO2=
202004300853 METAR KPAE 300853Z AUTO 19014KT 10SM CLR 11/07 A2999 RMK AO2 SLP154 T01110072 50006=
202004300808 SPECI KPAE 300808Z AUTO 19016G22KT 10SM SCT016 11/08 A3000 RMK AO2 T01110078=
202004300753 METAR KPAE 300753Z AUTO 20018G23KT 10SM BKN016 11/08 A3000 RMK AO2 SLP157 T01110083 402110089=
202004300728 SPECI KPAE 300728Z AUTO 20015G23KT 10SM BKN015 OVC090 11/08 A2999 RMK AO2 T01110083=
202004300720 SPECI KPAE 300720Z AUTO 20014G21KT 10SM BKN014 OVC095 11/08 A2999 RMK AO2 T01110083=
202004300653 METAR KPAE 300653Z AUTO 19016KT 10SM FEW013 OVC095 11/09 A2999 RMK AO2 SLP154 T01110089=
202004300553 METAR KPAE 300553Z AUTO 19017KT 10SM SCT014 OVC090 12/09 A2997 RMK AO2 SLP149 60002 T01170094 10194 20117 53024=
202004300538 SPECI KPAE 300538Z AUTO 19017KT 10SM SCT014 OVC095 12/10 A2997 RMK AO2 T01220100=
202004300453 METAR KPAE 300453Z AUTO 20013KT 10SM BKN012 OVC100 13/11 A2994 RMK AO2 SLP141 T01280111=
202004300441 SPECI KPAE 300441Z AUTO 21014G19KT 10SM BKN012 OVC090 13/11 A2994 RMK AO2 T01280111=
202004300353 METAR KPAE 300353Z AUTO 19018KT 8SM OVC070 13/12 A2991 RMK AO2 PK WND 17031/0314 RAE53 SLP129 P0002 T01330117=
202004300256 SPECI KPAE 300256Z 18021G30KT 8SM -RA FEW028 BKN048 OVC080 14/12 A2990 RMK AO2 PK WND 17030/0254 P0000 T01390117=
202004300253 METAR KPAE 300253Z 18023G29KT 3SM -RA BR BKN023 OVC031 14/12 A2990 RMK AO2 PK WND 19030/0228 RAB38 SLP126 P0000 60000 T01390117 53003=
202004300153 METAR KPAE 300153Z 20020G26KT 10SM BKN027 17/11 A2990 RMK AO2 PK WND 19030/0113 SLP123 T01720111=
202004300143 SPECI KPAE 300143Z 20016G27KT 10SM BKN027 18/11 A2990 RMK AO2 PK WND 19030/0113 T01780111=
202004300053 METAR KPAE 300053Z 19019G34KT 10SM SCT060 SCT085 17/11 A2989 RMK AO2 PK WND 20038/0005 SLP121 T01720106=
202004292353 METAR KPAE 292353Z 19023G29KT 10SM BKN055 OVC095 19/09 A2989 RMK AO2 PK WND 20029/2353 SLP121 T01890094 10211 20122 53006=
202004292253 METAR KPAE 292253Z 17013KT 10SM FEW050 SCT070 SCT100 21/09 A2987 RMK AO2 PK WND 18026/2201 SLP112 T02060094=
202004292153 METAR KPAE 292153Z 16015KT 10SM BKN080 19/09 A2987 RMK AO2 PK WND 15027/2141 SLP115 T01940094=
202004292053 METAR KPAE 292053Z 16010G19KT 10SM OVC095 18/08 A2987 RMK AO2 SLP115 T01830083 56008=
202004291953 METAR KPAE 291953Z 16011KT 10SM BKN100 19/09 A2987 RMK AO2 SLP115 T01890089=
202004291853 METAR KPAE 291853Z 19004KT 10SM BKN100 15/09 A2989 RMK AO2 SLP120 T01500094=
202004291753 METAR KPAE 291753Z 26007KT 10SM SCT100 13/08 A2990 RMK AO2 SLP124 T01330083 10139 20089 56018=
202004291653 METAR KPAE 291653Z 00000KT 10SM CLR 12/07 A2991 RMK AO2 SLP129 T01170072=
202004291553 METAR KPAE 291553Z 03003KT 10SM BKN100 BKN110 11/08 A2993 RMK AO2 SLP137 T01060078=
202004291453 METAR KPAE 291453Z 36005KT 10SM FEW005 BKN090 09/08 A2995 RMK AO2 SLP143 T00940078 56017=
202004291449 SPECI KPAE 291449Z 36006KT 10SM FEW005 BKN090 09/08 A2995 RMK AO2=
202004291353 METAR KPAE 291353Z AUTO 01003KT 10SM BKN090 09/08 A2997 RMK AO2 SLP151 T00890078=
202004291253 METAR KPAE 291253Z AUTO 35004KT 10SM OVC090 09/07 A3000 RMK AO2 SLP161 T00890072=
202004291153 METAR KPAE 291153Z AUTO 35006KT 10SM BKN085 09/07 A3003 RMK AO2 SLP170 70001 T00890072 10100 20089 58025=
202004291053 METAR KPAE 291053Z AUTO 33005KT 10SM FEW110 09/07 A3006 RMK AO2 SLP181 T00890072=
202004290953 METAR KPAE 290953Z AUTO 35006KT 10SM SCT120 09/08 A3008 RMK AO2 SLP188 T00940078=
202004290853 METAR KPAE 290853Z AUTO 35006KT 10SM BKN095 OVC120 10/08 A3011 RMK AO2 SLP196 T01000083 58028=
202004290753 METAR KPAE 290753Z AUTO 34006KT 10SM BKN090 OVC120 10/08 A3015 RMK AO2 SLP209 T01000083 401390067=
202004290653 METAR KPAE 290653Z AUTO 35006KT 8SM FEW008 OVC095 10/09 A3017 RMK AO2 SLP216 T01000089=
202004290617 SPECI KPAE 290617Z AUTO 34007KT 9SM SCT004 OVC100 10/09 A3019 RMK AO2 T01000089=
202004290553 METAR KPAE 290553Z AUTO 36004KT 10SM BKN100 10/09 A3019 RMK AO2 SLP225 60000 T01000089 10122 20100 58008=
202004290453 METAR KPAE 290453Z AUTO 28005KT 10SM BKN100 11/09 A3020 RMK AO2 SLP229 T01060089=
202004290353 METAR KPAE 290353Z AUTO 00000KT 10SM OVC100 11/09 A3021 RMK AO2 RAB0254E07 SLP230 P0000 T01110089=
202004290253 METAR KPAE 290253Z VRB03KT 10SM FEW060 OVC070 11/09 A3022 RMK AO2 RAE08 SLP234 P0000 60000 T01060089 58016=
202004290153 METAR KPAE 290153Z 35007KT 9SM -RA OVC070 11/08 A3025 RMK AO2 RAB20E33B53 SLP245 P0000 T01060083=
202004290053 METAR KPAE 290053Z 35005KT 10SM OVC080 11/08 A3025 RMK AO2 SLP247 T01060083=
202004282353 METAR KPAE 282353Z 36005KT 10SM BKN085 OVC110 12/08 A3027 RMK AO2 SLP251 60001 T01170083 10139 20111 53001=
202004282253 METAR KPAE 282253Z 36006KT 10SM OVC085 12/08 A3027 RMK AO2 SLP251 T01170078=
202004282153 METAR KPAE 282153Z 29003KT 10SM OVC085 13/08 A3026 RMK AO2 RAB2055E13 SLP248 P0001 T01330078=
202004282053 METAR KPAE 282053Z 19008KT 10SM OVC095 14/07 A3026 RMK AO2 RAB28E38 SLP249 P0000 60000 T01390072 53004=
202004281953 METAR KPAE 281953Z 19007KT 10SM OVC110 13/07 A3026 RMK AO2 SLP248 T01330067=
202004281853 METAR KPAE 281853Z 16006KT 10SM SCT100 SCT120 14/06 A3025 RMK AO2 SLP245 T01390061=
202004281753 METAR KPAE 281753Z 18010KT 10SM OVC100 13/06 A3025 RMK AO2 SLP245 T01330061 10133 20067 56002=
202004281653 METAR KPAE 281653Z 16006KT 10SM CLR 12/07 A3025 RMK AO2 SLP245 T01220067=
202004281553 METAR KPAE 281553Z 17005KT 10SM CLR 11/07 A3025 RMK AO2 SLP245 T01060072=
202004281453 METAR KPAE 281453Z 12004KT 10SM SCT044 09/07 A3026 RMK AO2 SLP248 T00890067 53001=
202004281353 METAR KPAE 281353Z 12005KT 10SM CLR 08/07 A3025 RMK AO2 SLP246 T00780067=
202004281253 METAR KPAE 281253Z AUTO 00000KT 10SM CLR 08/07 A3025 RMK AO2 SLP245 T00780067=
202004281200 SPECI KPAE 281200Z AUTO 00000KT 8SM SCT003 07/07 A3025 RMK AO2 T00720067=
202004281153 METAR KPAE 281153Z AUTO 00000KT 7SM BKN003 08/07 A3025 RMK AO2 SLP247 70005 T00780072 10100 20067 53005=
202004281144 SPECI KPAE 281144Z AUTO 15004KT 8SM BKN003 08/07 A3025 RMK AO2 T00780067=
202004281132 SPECI KPAE 281132Z AUTO 00000KT 10SM BKN005 08/07 A3025 RMK AO2 T00780067=
202004281123 SPECI KPAE 281123Z AUTO 14003KT 10SM SCT005 08/07 A3025 RMK AO2 T00780072=
202004281053 METAR KPAE 281053Z AUTO 00000KT 7SM CLR 08/07 A3024 RMK AO2 SLP241 T00780067=
202004280953 METAR KPAE 280953Z AUTO 00000KT 10SM FEW042 07/06 A3023 RMK AO2 SLP239 T00720061=
202004280853 METAR KPAE 280853Z AUTO 01003KT 10SM BKN041 08/07 A3024 RMK AO2 SLP240 T00830067 51008=
202004280753 METAR KPAE 280753Z AUTO 01005KT 10SM SCT041 09/06 A3023 RMK AO2 SLP239 T00940061 401500089=
202004280653 METAR KPAE 280653Z AUTO 04004KT 10SM CLR 09/06 A3022 RMK AO2 SLP236 T00940061=
202004280553 METAR KPAE 280553Z AUTO 01008KT 10SM OVC035 09/07 A3021 RMK AO2 SLP232 60001 T00940067 10122 20094 51013=
202004280453 METAR KPAE 280453Z AUTO 03004KT 10SM OVC034 10/07 A3021 RMK AO2 SLP232 T01000072=
202004280439 SPECI KPAE 280439Z AUTO 02006KT 10SM BKN031 BKN036 OVC045 10/07 A3021 RMK AO2 T01000072=
202004280415 SPECI KPAE 280415Z AUTO VRB03KT 10SM BKN029 OVC034 10/07 A3020 RMK AO2 T01000072=
202004280353 METAR KPAE 280353Z AUTO 00000KT 10SM BKN030 10/08 A3019 RMK AO2 RAB18E48 SLP225 P0000 T01000078=
202004280253 METAR KPAE 280253Z 33005KT 10SM FEW016 BKN031 OVC038 10/08 A3017 RMK AO2 RAE26 SLP220 P0000 60001 T01000083 53018=
202004280153 METAR KPAE 280153Z 01004KT 6SM -RA BR OVC024 11/08 A3016 RMK AO2 RAB34 SLP213 P0001 T01060083=
202004280131 SPECI KPAE 280131Z 01006KT 10SM OVC024 11/08 A3015 RMK AO2 T01110078=
202004280053 METAR KPAE 280053Z 02005KT 10SM OVC048 12/07 A3014 RMK AO2 SLP206 T01170072=
202004272353 METAR KPAE 272353Z 36009KT 10SM SCT028 BKN035 BKN046 12/08 A3012 RMK AO2 RAE2254 SLP200 P0000 60004 T01170078 10150 20106 51025=
202004272253 METAR KPAE 272253Z 35007KT 10SM -RA BKN030 OVC050 11/09 A3011 RMK AO2 RAB12 SLP197 P0003 T01110089=
202004272153 METAR KPAE 272153Z 20017G21KT 10SM FEW055 BKN075 14/06 A3007 RMK AO2 SLP184 T01440056=
202004272053 METAR KPAE 272053Z 20014G23KT 10SM SCT039 BKN055 OVC070 14/06 A3005 RMK AO2 RAE19 SLP175 P0001 60001 T01440061 51010=
202004271953 METAR KPAE 271953Z 19012KT 8SM -RA SCT047 BKN055 OVC080 13/07 A3004 RMK AO2 RAB45 SLP174 P0000 T01330072=
202004271853 METAR KPAE 271853Z 21012KT 10SM BKN032 13/06 A3003 RMK AO2 SLP170 T01330061=
202004271753 METAR KPAE 271753Z 19011KT 10SM FEW022 BKN034 12/07 A3002 RMK AO2 SLP165 T01220072 10128 20100 51026=
202004271731 SPECI KPAE 271731Z 22009KT 10SM FEW022 BKN030 BKN037 12/07 A3001 RMK AO2 T01170072=
202004271653 METAR KPAE 271653Z 21007KT 10SM BKN018 12/07 A2999 RMK AO2 SLP156 T01170072=
202004271553 METAR KPAE 271553Z 19016KT 10SM BKN012 12/08 A2996 RMK AO2 SLP146 T01170083=
202004271453 METAR KPAE 271453Z 19016KT 10SM BKN020 10/08 A2994 RMK AO2 SLP138 T01000083 53020=
202004271422 SPECI KPAE 271422Z 19015KT 10SM SCT008 10/08 A2993 RMK AO2 PRESRR T01000083=
202004271353 METAR KPAE 271353Z AUTO 18020KT 10SM FEW008 10/08 A2990 RMK AO2 PK WND 18026/1341 SLP126 T01000083=
202004271338 SPECI KPAE 271338Z AUTO 19020G26KT 10SM SCT008 10/08 A2990 RMK AO2 PK WND 18026/1320 T01000083=
202004271253 METAR KPAE 271253Z AUTO 19019KT 10SM OVC008 10/09 A2988 RMK AO2 PK WND 19030/1203 CIG 006V010 SLP118 T01000089=
202004271153 METAR KPAE 271153Z AUTO 19020G30KT 10SM OVC009 10/09 A2988 RMK AO2 PK WND 19030/1153 CIG 007V013 SLP117 60006 70008 T01000089 10100 20083 55008=
202004271053 METAR KPAE 271053Z AUTO 18020KT 4SM BR BKN009 OVC013 10/09 A2987 RMK AO2 CIG 005V011 SLP115 T01000089=
202004270953 METAR KPAE 270953Z AUTO 18011KT 10SM OVC006 09/09 A2988 RMK AO2 RAB11E38 CIG 004V011 SLP119 P0001 T00940089=
202004270922 SPECI KPAE 270922Z AUTO 16011KT 3SM -RA BR OVC006 09/08 A2989 RMK AO2 RAB11 CIG 004V011 P0001 T00940083=
202004270913 SPECI KPAE 270913Z AUTO 15011KT 2 1/2SM -RA BR BKN007 OVC015 09/08 A2989 RMK AO2 RAB11 CIG 004V010 P0000 T00940083=
202004270906 SPECI KPAE 270906Z AUTO 16011KT 3SM BR BKN007 BKN015 OVC021 09/08 A2990 RMK AO2 T00940083=
202004270853 METAR KPAE 270853Z AUTO 15010KT 4SM BR SCT005 OVC018 09/08 A2990 RMK AO2 RAE04B26E52 SLP126 P0000 60005 T00890083 56005=
202004270851 SPECI KPAE 270851Z AUTO 15010KT 3SM -RA BR FEW005 OVC018 09/08 A2990 RMK AO2 RAE04B26 P0000=
202004270840 SPECI KPAE 270840Z AUTO 15012KT 2 1/2SM -RA BR FEW006 OVC018 09/08 A2989 RMK AO2 RAE04B26 P0000 T00890078=
202004270827 SPECI KPAE 270827Z AUTO 15012KT 4SM -RA BR FEW006 BKN020 OVC029 09/08 A2990 RMK AO2 RAE04B26 P0000 T00890078=
202004270819 SPECI KPAE 270819Z AUTO 15011KT 7SM BKN019 BKN029 OVC036 09/08 A2991 RMK AO2 RAE04 P0000 T00890078=
202004270753 METAR KPAE 270753Z AUTO 15011KT 5SM -RA BR FEW004 FEW018 OVC033 09/08 A2991 RMK AO2 SLP129 P0003 T00890078 401500078=
202004270726 SPECI KPAE 270726Z AUTO 17008KT 4SM -RA BR FEW007 BKN035 OVC046 08/07 A2992 RMK AO2 P0002 T00830072=
202004270653 METAR KPAE 270653Z AUTO 18014KT 8SM -RA FEW040 BKN050 OVC065 09/07 A2992 RMK AO2 SLP131 P0002 T00890072=
202004270553 METAR KPAE 270553Z AUTO 16013KT 8SM -RA OVC060 09/06 A2992 RMK AO2 RAB06 SLP133 P0002 60002 T00940061 10150 20094 50003=
202004270453 METAR KPAE 270453Z AUTO 20013G21KT 10SM SCT065 OVC085 12/04 A2994 RMK AO2 PK WND 19034/0400 WSHFT 0358 SLP141 T01170044=
202004270418 SPECI KPAE 270418Z AUTO 22017G26KT 10SM FEW080 BKN100 BKN120 12/04 A2994 RMK AO2 PK WND 19034/0400 WSHFT 0358 T01220044=
202004270353 METAR KPAE 270353Z AUTO 17010KT 10SM FEW080 SCT110 14/04 A2992 RMK AO2 SLP130 T01440039=
202004270253 METAR KPAE 270253Z 15009KT 10SM FEW090 14/03 A2991 RMK AO2 SLP130 T01440033 58021=
202004270153 METAR KPAE 270153Z 16011KT 10SM CLR 14/04 A2994 RMK AO2 SLP138 T01440039=
202004270053 METAR KPAE 270053Z 18010KT 10SM CLR 14/04 A2996 RMK AO2 SLP146 T01440044=
202004262353 METAR KPAE 262353Z 16009KT 10SM FEW120 15/04 A2998 RMK AO2 SLP152 T01500044 10150 20117 58020=
202004262253 METAR KPAE 262253Z 19010KT 10SM BKN080 14/03 A3003 RMK AO2 SLP168 T01440033=
202004262153 METAR KPAE 262153Z 16012KT 10SM CLR 14/02 A3003 RMK AO2 SLP169 T01390017=
202004262053 METAR KPAE 262053Z 18011KT 10SM CLR 14/04 A3004 RMK AO2 SLP173 T01390039 58026=
202004261953 METAR KPAE 261953Z VRB05KT 10SM FEW039 13/04 A3007 RMK AO2 SLP184 T01330039=
202004261853 METAR KPAE 261853Z 16011KT 10SM SCT039 13/04 A3010 RMK AO2 SLP194 T01280044=
202004261753 METAR KPAE 261753Z 16009KT 10SM SCT038 BKN120 12/04 A3012 RMK AO2 SLP199 T01170039 10122 20089 56002=
202004261653 METAR KPAE 261653Z 16010KT 10SM SCT045 11/06 A3012 RMK AO2 SLP200 T01110056=
202004261553 METAR KPAE 261553Z 18009KT 9SM SCT014 SCT022 11/07 A3012 RMK AO2 SLP200 T01060067=
202004261453 METAR KPAE 261453Z 16009KT 9SM SCT014 SCT018 09/06 A3012 RMK AO2 SLP201 T00890061 55001=
202004261353 METAR KPAE 261353Z 15008KT 7SM BKN014 OVC029 09/06 A3012 RMK AO2 SLP200 T00890056=
202004261345 SPECI KPAE 261345Z 15007KT 9SM BKN014 OVC027 09/06 A3012 RMK AO2 T00890061=
202004261253 METAR KPAE 261253Z AUTO 16008KT 10SM SCT018 OVC023 09/06 A3012 RMK AO2 SLP200 T00890056=
202004261153 METAR KPAE 261153Z AUTO 18007KT 10SM OVC019 09/06 A3013 RMK AO2 SLP203 70010 T00890061 10100 20078 56004=
202004261053 METAR KPAE 261053Z AUTO 15005KT 10SM SCT015 SCT020 OVC029 09/06 A3014 RMK AO2 SLP205 T00890061=
202004261039 SPECI KPAE 261039Z AUTO 17004KT 10SM BKN019 BKN028 08/06 A3014 RMK AO2 T00830056=
202004260953 METAR KPAE 260953Z AUTO VRB03KT 10SM CLR 09/05 A3013 RMK AO2 SLP203 T00890050=
202004260853 METAR KPAE 260853Z AUTO 17005KT 10SM CLR 09/05 A3014 RMK AO2 SLP206 T00890050 53006=
202004260834 SPECI KPAE 260834Z AUTO 17005KT 10SM FEW026 SCT031 09/05 A3014 RMK AO2 T00890050=
202004260753 METAR KPAE 260753Z AUTO 00000KT 10SM BKN027 OVC034 09/05 A3013 RMK AO2 SLP203 T00940050 401670089=
202004260702 SPECI KPAE 260702Z AUTO 00000KT 10SM BKN029 09/05 A3013 RMK AO2 T00940050=
202004260653 METAR KPAE 260653Z AUTO 00000KT 10SM SCT029 09/05 A3013 RMK AO2 SLP203 T00890050=
202004260553 METAR KPAE 260553Z AUTO 00000KT 10SM FEW033 09/06 A3012 RMK AO2 SLP201 T00890056 10156 20089 51016=
202004260453 METAR KPAE 260453Z AUTO 00000KT 10SM CLR 10/06 A3012 RMK AO2 SLP199 T01000056=
202004260353 METAR KPAE 260353Z AUTO 35003KT 10SM CLR 11/06 A3009 RMK AO2 SLP191 T01060056=
202004260253 METAR KPAE 260253Z 02005KT 10SM CLR 12/06 A3007 RMK AO2 SLP185 T01170061 50006=
202004260153 METAR KPAE 260153Z VRB03KT 10SM CLR 13/07 A3008 RMK AO2 SLP185 T01330067=
202004260053 METAR KPAE 260053Z 24015G23KT 10SM BKN085 14/04 A3006 RMK AO2 SLP180 T01440044=
202004252353 METAR KPAE 252353Z 22012G22KT 10SM BKN055 OVC075 15/04 A3006 RMK AO2 PK WND 19026/2312 SLP178 T01500039 10167 20133 51017=
202004252253 METAR KPAE 252253Z 20021G27KT 10SM BKN090 16/04 A3004 RMK AO2 PK WND 20028/2231 SLP173 T01610044=
202004252153 METAR KPAE 252153Z 24010G18KT 200V270 10SM CLR 14/07 A3004 RMK AO2 PK WND 21028/2055 SLP172 T01440067=
202004252053 METAR KPAE 252053Z 22024G32KT 10SM CLR 16/06 A3001 RMK AO2 PK WND 21032/2037 SLP161 T01610061 53014=
202004251953 METAR KPAE 251953Z 19019G28KT 10SM SCT021 16/11 A2998 RMK AO2 PK WND 18030/1912 SLP151 T01610106=
202004251853 METAR KPAE 251853Z 18021G28KT 10SM BKN008 BKN025 14/11 A2997 RMK AO2 PK WND 18028/1845 SLP148 T01390111=
202004251753 METAR KPAE 251753Z 16017G23KT 10SM BKN008 BKN017 OVC022 12/11 A2997 RMK AO2 RAE00 SLP147 P0000 60010 T01220106 10122 20106 55007=
202004251653 METAR KPAE 251653Z 15014G19KT 7SM -RA BKN007 BKN014 OVC100 11/09 A2995 RMK AO2 RAB00 SLP141 P0003 T01060094=
202004251553 METAR KPAE 251553Z 15010KT 10SM BKN004 OVC060 11/10 A2997 RMK AO2 RAE39 SLP149 P0002 T01060100=
202004251453 METAR KPAE 251453Z 16012KT 4SM -RA BR SCT018 BKN028 OVC047 11/09 A2999 RMK AO2 SLP154 P0005 60005 T01110094 56012=
202004251353 METAR KPAE 251353Z 18008KT 8SM -RA BKN012 OVC035 11/08 A2999 RMK AO2 RAB47 SLP157 P0000 T01110083=
202004251253 METAR KPAE 251253Z AUTO VRB03KT 10SM BKN037 BKN044 OVC120 11/09 A3000 RMK AO2 SLP158 T01110089=
202004251153 METAR KPAE 251153Z AUTO 15004KT 10SM FEW039 BKN050 12/09 A3002 RMK AO2 SLP166 T01170094 10133 20117 56022=
202004251107 SPECI KPAE 251107Z AUTO 15008KT 10SM SCT012 BKN050 12/09 A3003 RMK AO2 T01170094=
202004251053 METAR KPAE 251053Z AUTO 16009KT 10SM BKN012 12/09 A3003 RMK AO2 SLP170 T01170094=
202004251041 SPECI KPAE 251041Z AUTO 15009KT 10SM BKN012 12/09 A3004 RMK AO2 T01220094=
202004250953 METAR KPAE 250953Z AUTO 16011KT 10SM CLR 12/09 A3006 RMK AO2 SLP179 T01170094=
202004250939 SPECI KPAE 250939Z AUTO 15011KT 10SM SCT012 12/09 A3006 RMK AO2 T01220094=
202004250853 METAR KPAE 250853Z AUTO 16011KT 10SM BKN013 12/09 A3009 RMK AO2 SLP188 T01220094 56017=
202004250836 SPECI KPAE 250836Z AUTO 16011KT 10SM BKN014 12/09 A3009 RMK AO2 T01220094=
202004250816 SPECI KPAE 250816Z AUTO 17010KT 10SM BKN015 12/09 A3010 RMK AO2 T01220089=
202004250806 SPECI KPAE 250806Z AUTO 16010KT 10SM OVC014 13/09 A3010 RMK AO2 T01280089=
202004250753 METAR KPAE 250753Z AUTO 16011KT 10SM BKN016 OVC021 13/09 A3010 RMK AO2 SLP192 T01280089 401560078=
202004250708 SPECI KPAE 250708Z AUTO 16011KT 10SM BKN018 13/08 A3011 RMK AO2 T01280083=
202004250653 METAR KPAE 250653Z AUTO 16010KT 10SM FEW022 13/08 A3012 RMK AO2 SLP199 T01280083=
202004250553 METAR KPAE 250553Z AUTO 16009KT 10SM BKN047 BKN075 13/08 A3014 RMK AO2 SLP206 T01280078 10156 20128 56003=
202004250453 METAR KPAE 250453Z AUTO 16009KT 10SM FEW038 OVC070 13/08 A3014 RMK AO2 SLP207 T01280078=
202004250353 METAR KPAE 250353Z AUTO 17010KT 10SM OVC080 13/08 A3014 RMK AO2 SLP207 T01330078=
202004250253 METAR KPAE 250253Z 16010KT 10SM SCT080 14/07 A3015 RMK AO2 SLP209 T01390067 56009=
202004250153 METAR KPAE 250153Z 17007KT 10SM BKN080 14/07 A3015 RMK AO2 SLP211 T01390072=
202004250053 METAR KPAE 250053Z 17008KT 10SM SCT046 OVC075 15/06 A3016 RMK AO2 SLP215 T01500056=
202004242353 METAR KPAE 242353Z 22005KT 10SM BKN042 OVC060 14/07 A3017 RMK AO2 SLP218 T01440067 10150 20117 58006=
202004242253 METAR KPAE 242253Z 21007KT 10SM OVC046 14/06 A3019 RMK AO2 SLP224 T01390061=
202004242153 METAR KPAE 242153Z VRB04KT 10SM BKN050 OVC060 14/07 A3018 RMK AO2 SLP222 T01440072=
202004242053 METAR KPAE 242053Z 00000KT 10SM OVC070 14/08 A3019 RMK AO2 SLP224 T01440078 58005=
202004241953 METAR KPAE 241953Z 26003KT 10SM SCT026 OVC080 13/08 A3020 RMK AO2 SLP228 T01330083=
202004241825 SPECI KPAE 241825Z 00000KT 10SM FEW017 SCT022 OVC100 13/09 A3020 RMK AO2 T01280089=
202004241753 METAR KPAE 241753Z VRB03KT 10SM BKN020 12/08 A3020 RMK AO2 SLP229 T01170083 10122 20078 56008=
202004241653 METAR KPAE 241653Z 16003KT 10SM SCT014 BKN120 11/08 A3021 RMK AO2 SLP230 T01110078=
202004241553 METAR KPAE 241553Z 10006KT 10SM SCT012 11/08 A3022 RMK AO2 SLP234 T01110078=
202004241453 METAR KPAE 241453Z 00000KT 10SM CLR 10/07 A3023 RMK AO2 SLP238 T01000072 53000=
202004241353 METAR KPAE 241353Z 00000KT 10SM BKN050 09/07 A3023 RMK AO2 SLP236 T00890072=
202004241253 METAR KPAE 241253Z AUTO 00000KT 10SM SCT050 08/07 A3022 RMK AO2 SLP233 T00830072=
202004241214 SPECI KPAE 241214Z AUTO 32003KT 10SM SCT009 OVC050 09/07 A3023 RMK AO2 T00890067=
202004241153 METAR KPAE 241153Z AUTO 01003KT 10SM OVC009 09/07 A3023 RMK AO2 SLP237 T00890067 10100 20089 55009=
202004241151 SPECI KPAE 241151Z AUTO 00000KT 10SM OVC009 09/07 A3023 RMK AO2=
202004241123 SPECI KPAE 241123Z AUTO 00000KT 10SM BKN010 OVC050 09/06 A3022 RMK AO2 T00940061=
202004241113 SPECI KPAE 241113Z AUTO 06003KT 10SM FEW015 SCT025 OVC050 09/06 A3022 RMK AO2 T00940061=
202004241053 METAR KPAE 241053Z AUTO 06004KT 10SM SCT015 SCT020 OVC025 09/06 A3023 RMK AO2 SLP239 T00940061=
202004240953 METAR KPAE 240953Z AUTO 00000KT 10SM OVC020 09/07 A3026 RMK AO2 SLP247 T00940067=
202004240931 SPECI KPAE 240931Z AUTO 00000KT 10SM BKN020 OVC050 09/07 A3026 RMK AO2 T00940067=
202004240853 METAR KPAE 240853Z AUTO 00000KT 10SM OVC050 09/07 A3026 RMK AO2 SLP247 T00940067 57002=
202004240753 METAR KPAE 240753Z AUTO 00000KT 10SM OVC040 09/07 A3026 RMK AO2 SLP249 T00890072 401330083=
202004240653 METAR KPAE 240653Z AUTO 01003KT 10SM OVC039 09/07 A3026 RMK AO2 SLP247 T00940072=
202004240604 SPECI KPAE 240604Z AUTO 02006KT 10SM SCT010 BKN041 OVC055 09/07 A3026 RMK AO2 T00940072=
202004240553 METAR KPAE 240553Z AUTO 02006KT 10SM BKN010 BKN045 OVC055 09/08 A3026 RMK AO2 SLP250 T00940078 10133 20094 58002=
202004240453 METAR KPAE 240453Z AUTO 35007KT 10SM OVC040 10/08 A3028 RMK AO2 SLP256 T01000078=
202004240400 SPECI KPAE 240400Z AUTO 36007KT 10SM OVC034 11/08 A3028 RMK AO2 T01060078=
202004240353 METAR KPAE 240353Z AUTO 35005KT 10SM BKN012 BKN021 OVC027 11/08 A3028 RMK AO2 SLP254 T01060078=
202004240253 METAR KPAE 240253Z VRB03KT 10SM BKN012 OVC030 12/08 A3027 RMK AO2 SLP251 T01170083 56002=
202004240153 METAR KPAE 240153Z 01004KT 10SM BKN012 OVC035 12/08 A3027 RMK AO2 SLP252 T01220083=
202004240150 SPECI KPAE 240150Z 02004KT 10SM BKN012 OVC035 12/08 A3027 RMK AO2=
202004240053 METAR KPAE 240053Z 01005KT 10SM OVC035 12/08 A3028 RMK AO2 SLP254 T01220083=
202004232353 METAR KPAE 232353Z 01005KT 10SM BKN029 OVC055 13/09 A3028 RMK AO2 SLP253 60000 T01280089 10133 20100 58006=
202004232253 METAR KPAE 232253Z 35005KT 10SM BKN029 OVC050 12/09 A3029 RMK AO2 SLP257 T01220094=
202004232153 METAR KPAE 232153Z 00000KT 10SM BKN019 OVC041 13/09 A3029 RMK AO2 SLP257 T01280094=
202004232053 METAR KPAE 232053Z 24006KT 10SM BKN018 BKN026 12/09 A3029 RMK AO2 SLP259 60000 T01220094 51001=
202004232000 SPECI KPAE 232000Z 16007KT 10SM SCT006 OVC018 12/08 A3029 RMK AO2 T01170083=
202004231953 METAR KPAE 231953Z 16008KT 10SM FEW005 BKN008 BKN018 12/09 A3029 RMK AO2 SLP259 T01170089=
202004231948 SPECI KPAE 231948Z 14007KT 10SM FEW005 SCT008 BKN018 12/08 A3029 RMK AO2=
202004231921 SPECI KPAE 231921Z 20005KT 10SM BKN004 OVC015 11/09 A3030 RMK AO2 T01060094=
202004231914 SPECI KPAE 231914Z 23004KT 9SM FEW004 BKN010 OVC015 11/10 A3030 RMK AO2 CIG 007V012 T01060100=
202004231853 METAR KPAE 231853Z 17007KT 3SM BR BKN004 OVC007 11/09 A3030 RMK AO2 RAE45 SLP260 P0000 T01110089=
202004231753 METAR KPAE 231753Z 17007KT 3SM -RA BR BKN004 OVC011 10/09 A3029 RMK AO2 RAB52 SLP259 P0000 60000 T01000089 10100 20083 51012=
202004231728 SPECI KPAE 231728Z 17007KT 1SM R16R/P6000FT BR OVC004 10/09 A3029 RMK AO2 CIG 002V006 T01000089=
202004231658 SPECI KPAE 231658Z 21003KT 6SM BR BKN004 OVC007 10/09 A3028 RMK AO2 T01000089=
202004231653 METAR KPAE 231653Z 23003KT 6SM BR SCT002 OVC007 09/09 A3028 RMK AO2 SLP257 T00940089=
202004231600 SPECI KPAE 231600Z 19003KT 10SM BKN004 OVC022 10/08 A3027 RMK AO2 T01000078=
202004231553 METAR KPAE 231553Z 00000KT 10SM BKN006 OVC022 10/08 A3027 RMK AO2 SLP252 T01000078=
202004231453 METAR KPAE 231453Z 00000KT 10SM OVC008 09/08 A3025 RMK AO2 CIG 006V010 SLP247 T00940078 53015=
202004231353 METAR KPAE 231353Z 00000KT 10SM OVC006 09/08 A3023 RMK AO2 CIG 002V008 SLP238 T00890078=
202004231253 METAR KPAE 231253Z AUTO 34003KT 9SM BKN004 OVC009 09/08 A3021 RMK AO2 CIG 002V008 SLP233 T00890083=
202004231248 SPECI KPAE 231248Z AUTO 34003KT 9SM BKN004 OVC009 09/08 A3021 RMK AO2=
202004231227 SPECI KPAE 231227Z AUTO 00000KT 10SM SCT005 BKN008 OVC037 09/08 A3021 RMK AO2 CIG 007V011 T00890078=
202004231214 SPECI KPAE 231214Z AUTO 00000KT 10SM FEW009 BKN015 OVC039 09/08 A3020 RMK AO2 T00890078=
202004231153 METAR KPAE 231153Z AUTO 00000KT 9SM FEW028 OVC040 09/08 A3019 RMK AO2 SLP225 60007 70077 T00890078 10094 20089 53016=
202004231107 SPECI KPAE 231107Z AUTO 00000KT 10SM FEW005 SCT028 BKN110 09/08 A3018 RMK AO2 T00890078=
202004231053 METAR KPAE 231053Z AUTO 36003KT 9SM SCT005 SCT012 BKN023 09/08 A3018 RMK AO2 SLP220 T00890078=
202004231018 SPECI KPAE 231018Z AUTO 30004KT 9SM OVC006 09/08 A3017 RMK AO2 CIG 003V009 T00890078=
202004230953 METAR KPAE 230953Z AUTO 34003KT 8SM OVC002 09/08 A3016 RMK AO2 RAB04E30 CIG 001V006 SLP213 P0000 T00890083=
202004230853 METAR KPAE 230853Z AUTO 33003KT 6SM BR OVC003 09/08 A3014 RMK AO2 RAB40E52 CIG 003V006 SLP209 P0000 60007 T00890083 51012=
202004230851 SPECI KPAE 230851Z AUTO 00000KT 6SM -RA BR OVC005 09/08 A3014 RMK AO2 RAB40 CIG 003V006 P0000=
202004230802 SPECI KPAE 230802Z AUTO 31003KT 7SM BKN002 OVC023 09/08 A3013 RMK AO2 T00890083=
202004230753 METAR KPAE 230753Z AUTO 32004KT 7SM OVC001 09/08 A3013 RMK AO2 RAE42 SLP203 P0003 T00890083 401110089=
202004230740 SPECI KPAE 230740Z AUTO 32003KT 4SM -RA BR OVC001 09/09 A3012 RMK AO2 P0003 T00890089=
202004230729 SPECI KPAE 230729Z AUTO 31003KT 3SM -RA BR OVC002 09/09 A3012 RMK AO2 P0002 T00890089=
202004230653 METAR KPAE 230653Z AUTO 32004KT 2 1/2SM -RA BR OVC002 09/09 A3011 RMK AO2 SLP197 P0004 T00940089=
202004230650 SPECI KPAE 230650Z AUTO 31004KT 2 1/2SM -RA BR BKN002 OVC006 09/09 A3010 RMK AO2 P0004=
202004230621 SPECI KPAE 230621Z AUTO 34004KT 1SM R16R/4000VP6000FT -RA BR VV002 09/09 A3010 RMK AO2 P0001 T00940089=
202004230613 SPECI KPAE 230613Z AUTO 34005KT 1/2SM R16R/3000VP6000FT -RA FG VV001 09/09 A3009 RMK AO2 P0000 T00940089=
202004230602 SPECI KPAE 230602Z AUTO 35004KT 1/4SM R16R/2000V3500FT -RA FG VV001 09/09 A3009 RMK AO2 P0000 T00940089=
202004230553 METAR KPAE 230553Z AUTO 34004KT 1/2SM R16R/2400VP6000FT -RA FG VV001 09/09 A3009 RMK AO2 SLP190 P0007 60019 T00940089 10111 20094 53018=
202004230549 SPECI KPAE 230549Z AUTO 35003KT 1SM R16R/5500VP6000FT -RA BR VV001 09/09 A3008 RMK AO2 P0006=
202004230453 METAR KPAE 230453Z AUTO 00000KT 2SM -RA BR OVC003 10/09 A3006 RMK AO2 SLP182 P0005 T01000094=
202004230416 SPECI KPAE 230416Z AUTO 01004KT 4SM -RA BR OVC002 10/09 A3005 RMK AO2 P0002 T01000089=
202004230400 SPECI KPAE 230400Z AUTO 02004KT 2 1/2SM -RA BR OVC003 10/09 A3005 RMK AO2 P0001 T01000094=
202004230353 METAR KPAE 230353Z AUTO 02004KT 1 1/4SM -RA BR OVC003 10/09 A3004 RMK AO2 SLP175 P0005 T01000094=
202004230302 SPECI KPAE 230302Z 35003KT 1 3/4SM R16R/6000VP6000FT -RA BR OVC003 10/09 A3003 RMK AO2 P0001 T01000094=
202004230300 SPECI KPAE 230300Z 01004KT 2SM R16R/6000VP6000FT -RA BR OVC001 10/09 A3003 RMK AO2 P0001 T01000094=
202004230253 METAR KPAE 230253Z 36004KT 2SM -RA BR OVC003 10/09 A3003 RMK AO2 RAE0158B22 SLP171 P0001 60002 T01000094 55000=
202004230243 SPECI KPAE 230243Z 35003KT 2 1/2SM -RA BR OVC003 10/09 A3003 RMK AO2 RAE0158B22 CIG 001V006 P0001 T01000094=
202004230214 SPECI KPAE 230214Z 35003KT 3SM BR OVC002 11/09 A3003 RMK AO2 RAE0158 P0000 T01060094=
202004230153 METAR KPAE 230153Z 36003KT 1 1/4SM -RA BR OVC003 11/10 A3003 RMK AO2 RAB09 SLP171 P0001 T01060100=
202004230126 SPECI KPAE 230126Z 00000KT 1 1/4SM -RA BR OVC004 11/10 A3003 RMK AO2 RAB09 CIG 002V009 P0000 T01060100=
202004230108 SPECI KPAE 230108Z 35003KT 1 3/4SM R16R/6000VP6000FT BR BKN005 OVC013 11/10 A3003 RMK AO2 CIG 002V007 T01060100=
202004230053 METAR KPAE 230053Z 00000KT 8SM BKN008 OVC012 11/10 A3003 RMK AO2 RAB16E25 SLP169 P0000 T01110100=
202004222353 METAR KPAE 222353Z 00000KT 9SM BKN009 OVC014 11/09 A3003 RMK AO2 RAE15 SLP172 P0001 60032 T01060094 10111 20100 56006=
202004222253 METAR KPAE 222253Z 17004KT 7SM -RA BKN008 OVC013 11/10 A3004 RMK AO2 SLP173 P0001 T01110100=
202004222200 SPECI KPAE 222200Z 15008KT 5SM -RA BR BKN008 OVC013 11/09 A3004 RMK AO2 P0001 T01060094=
202004222153 METAR KPAE 222153Z 15008KT 2SM -RA BR OVC006 11/09 A3004 RMK AO2 SLP176 P0004 T01060089=
202004222139 SPECI KPAE 222139Z 15007KT 2SM -RA BR OVC006 11/09 A3004 RMK AO2 P0003 T01060089=
202004222052 METAR KPAE 222052Z 15005KT 2SM -RA BR SCT006 BKN021 OVC029 10/09 A3005 RMK AO2 SLP178 P0007 60026 T01000089 58015=
202004222051 SPECI KPAE 222051Z VRB06KT 2SM -RA BR SCT006 BKN021 OVC029 10/09 A3005 RMK AO2 P0007=
202004221953 METAR KPAE 221953Z VRB04KT 3SM -RA BR BKN008 BKN030 OVC036 10/09 A3007 RMK AO2 SLP185 P0009 T01000089=
202004221944 SPECI KPAE 221944Z 15006KT 3SM -RA BR BKN008 BKN030 OVC036 10/09 A3008 RMK AO2 P0008 T01000089=
202004221933 SPECI KPAE 221933Z 16005KT 2 1/2SM -RA BR BKN008 BKN030 OVC036 10/09 A3008 RMK AO2 P0007 T01000089=
202004221926 SPECI KPAE 221926Z 17005KT 1 3/4SM -RA BR BKN008 BKN030 OVC036 10/09 A3009 RMK AO2 P0006 T01000089=
202004221853 METAR KPAE 221853Z 17007KT 2SM -RA BR BKN008 OVC033 10/09 A3009 RMK AO2 SLP191 P0010 T01000089=
202004221807 SPECI KPAE 221807Z 15008KT 3SM -RA BR BKN008 BKN012 OVC018 10/08 A3010 RMK AO2 P0001 T01000083=
202004221753 METAR KPAE 221753Z VRB05KT 4SM -RA BR FEW015 BKN033 OVC040 10/08 A3010 RMK AO2 SLP192 P0005 60019 T01000083 10100 20089 58014=
202004221745 SPECI KPAE 221745Z 15007KT 4SM -RA BR FEW017 BKN033 OVC047 10/08 A3010 RMK AO2 P0005 T01000083=
202004221653 METAR KPAE 221653Z 15005KT 4SM -RA BR OVC021 09/08 A3012 RMK AO2 RAB1554 SLP200 P0008 T00940078=
202004221626 SPECI KPAE 221626Z 15004KT 4SM RA BR OVC023 09/08 A3012 RMK AO2 RAB1554 P0005 T00940078=
202004221553 METAR KPAE 221553Z 12007KT 10SM BKN024 BKN031 OVC060 09/08 A3013 RMK AO2 RAE42 SLP202 P0001 T00940078=
202004221453 METAR KPAE 221453Z VRB04KT 6SM -RA BR FEW030 SCT037 OVC050 09/07 A3014 RMK AO2 SLP207 P0005 60005 T00890072 56021=
202004221353 METAR KPAE 221353Z 15009KT 9SM -RA OVC025 09/06 A3016 RMK AO2 RAB53 SLP213 P0000 T00940061=
202004221253 METAR KPAE 221253Z 17007KT 10SM OVC028 09/06 A3018 RMK AO2 SLP220 T00940056=
202004221204 SPECI KPAE 221204Z 16007KT 10SM BKN029 OVC085 09/06 A3020 RMK AO2 T00940056=
202004221153 METAR KPAE 221153Z 15008KT 10SM BKN031 BKN038 OVC085 09/06 A3020 RMK AO2 SLP228 T00940056 10111 20094 58019=
202004221138 SPECI KPAE 221138Z 15009KT 10SM BKN030 BKN037 OVC080 09/06 A3021 RMK AO2 T00940056=
202004221130 SPECI KPAE 221130Z 15007KT 10SM BKN028 OVC075 09/06 A3022 RMK AO2 T00940056=
202004221053 METAR KPAE 221053Z 16007KT 10SM FEW029 OVC085 09/06 A3023 RMK AO2 SLP239 T00940056=
202004221045 SPECI KPAE 221045Z 15008KT 10SM FEW029 SCT037 OVC085 10/06 A3023 RMK AO2 T01000056=
202004221009 SPECI KPAE 221009Z 16009KT 10SM BKN026 OVC090 10/06 A3024 RMK AO2 T01000056=
202004220953 METAR KPAE 220953Z 16008KT 10SM OVC090 09/06 A3025 RMK AO2 SLP244 T00940056=
202004220853 METAR KPAE 220853Z 16009KT 10SM OVC100 10/06 A3026 RMK AO2 SLP247 T01000056 56007=
202004220753 METAR KPAE 220753Z 16008KT 10SM OVC100 10/06 A3026 RMK AO2 SLP248 T01000056 401220083=
202004220653 METAR KPAE 220653Z 16008KT 10SM FEW050 OVC100 11/06 A3027 RMK AO2 SLP250 T01060056=
202004220553 METAR KPAE 220553Z 00000KT 10SM OVC046 11/06 A3028 RMK AO2 SLP255 T01110061 10122 20111 50004=
202004220453 METAR KPAE 220453Z 11004KT 10SM SCT049 OVC100 11/06 A3028 RMK AO2 SLP257 T01110061=
202004220353 METAR KPAE 220353Z VRB04KT 10SM OVC048 12/06 A3027 RMK AO2 SLP253 T01170056=
202004220253 METAR KPAE 220253Z 15007KT 10SM SCT037 OVC047 12/06 A3027 RMK AO2 SLP251 T01170056 55007=
202004220153 METAR KPAE 220153Z VRB04KT 10SM FEW036 OVC046 12/06 A3026 RMK AO2 SLP249 T01220056=
202004220053 METAR KPAE 220053Z VRB05KT 10SM BKN036 OVC045 12/06 A3027 RMK AO2 SLP253 T01220056=
202004220008 SPECI KPAE 220008Z VRB05KT 10SM OVC030 12/06 A3028 RMK AO2 T01220056=
202004212353 METAR KPAE 212353Z 16007KT 10SM OVC029 12/06 A3029 RMK AO2 SLP258 T01170056 10122 20083 50003=
202004212253 METAR KPAE 212253Z 15006KT 10SM OVC029 12/06 A3029 RMK AO2 SLP259 T01220056=
202004212221 SPECI KPAE 212221Z 18009KT 10SM BKN029 OVC041 12/06 A3029 RMK AO2 T01220056=
202004212153 METAR KPAE 212153Z 17009KT 10SM SCT030 OVC040 12/06 A3028 RMK AO2 SLP256 T01220056=
202004212138 SPECI KPAE 212138Z 19012KT 10SM SCT026 OVC038 12/06 A3028 RMK AO2 T01220056=
202004212122 SPECI KPAE 212122Z 15010KT 10SM BKN026 OVC035 12/06 A3028 RMK AO2 T01170056=
202004212053 METAR KPAE 212053Z 15008KT 10SM FEW023 OVC035 12/06 A3028 RMK AO2 SLP255 T01170061 58007=
202004211956 SPECI KPAE 211956Z 17006KT 10SM SCT021 BKN034 OVC042 11/06 A3029 RMK AO2 T01110061=
202004211953 METAR KPAE 211953Z 17008KT 10SM OVC014 11/06 A3029 RMK AO2 SLP258 T01110061=
202004211853 METAR KPAE 211853Z 15004KT 10SM OVC014 10/07 A3030 RMK AO2 SLP263 T01000067=
202004211849 SPECI KPAE 211849Z 19006KT 10SM OVC014 10/07 A3030 RMK AO2=
202004211753 METAR KPAE 211753Z 15006KT 6SM BR BKN006 OVC011 08/07 A3030 RMK AO2 SLP261 T00830067 10089 20083 53014=
202004211716 SPECI KPAE 211716Z 17009KT 4SM BR SCT004 BKN006 OVC015 08/07 A3029 RMK AO2 T00830067=
202004211702 SPECI KPAE 211702Z 16008KT 1 3/4SM BR BKN009 OVC014 08/07 A3028 RMK AO2 T00830067=
202004211655 SPECI KPAE 211655Z 17008KT 1 3/4SM BR SCT010 OVC014 08/07 A3028 RMK AO2 T00830067=
202004211653 METAR KPAE 211653Z 17007KT 4SM BR BKN008 OVC014 08/07 A3028 RMK AO2 SLP255 T00830067=
202004211553 METAR KPAE 211553Z 00000KT 4SM BR BKN008 BKN014 OVC025 08/06 A3027 RMK AO2 SLP252 T00830061 $=
202004211520 SPECI KPAE 211520Z 00000KT 4SM BR BKN008 BKN029 OVC035 08/06 A3025 RMK AO2 T00830061 $=
202004211453 METAR KPAE 211453Z 00000KT FEW011 BKN023 OVC028 08/06 A3025 RMK AO2 SLP247 T00830056 53013 $=
202004211443 SPECI KPAE 211443Z 00000KT SCT014 OVC025 08/06 A3025 RMK AO2 T00830056 $=
202004211353 METAR KPAE 211353Z 20009KT 10SM OVC011 08/06 A3024 RMK AO2 SLP242 T00830056=
202004211253 METAR KPAE 211253Z AUTO 21007KT 10SM OVC011 09/06 A3022 RMK AO2 SLP235 T00890061=
202004211153 METAR KPAE 211153Z AUTO 18008KT 10SM OVC012 09/06 A3022 RMK AO2 SLP232 T00890061 10100 20089 51009=
202004211053 METAR KPAE 211053Z AUTO 16008KT 10SM BKN010 OVC015 09/07 A3021 RMK AO2 CIG 010V014 SLP228 T00940067=
202004211045 SPECI KPAE 211045Z AUTO 15007KT 10SM OVC012 09/07 A3020 RMK AO2 T00940067=
202004210953 METAR KPAE 210953Z AUTO 00000KT 10SM FEW018 BKN027 OVC032 09/06 A3020 RMK AO2 SLP227 T00940061=
202004210914 SPECI KPAE 210914Z AUTO 20003KT 10SM OVC029 09/07 A3019 RMK AO2 T00940067=
202004210853 METAR KPAE 210853Z AUTO 00000KT 10SM BKN032 OVC050 09/06 A3019 RMK AO2 SLP222 T00940061 53015=
202004210753 METAR KPAE 210753Z AUTO 35004KT 10SM FEW050 09/07 A3016 RMK AO2 SLP215 T00890067 401670078=
202004210653 METAR KPAE 210653Z AUTO VRB04KT 10SM FEW047 09/07 A3015 RMK AO2 SLP210 T00940067=
202004210553 METAR KPAE 210553Z AUTO 01006KT 10SM BKN047 10/07 A3014 RMK AO2 SLP208 T01000067 10161 20100 53009=
202004210453 METAR KPAE 210453Z AUTO 01007KT 10SM BKN046 11/07 A3013 RMK AO2 SLP204 T01060067=
202004210353 METAR KPAE 210353Z AUTO 36004KT 10SM BKN050 11/07 A3012 RMK AO2 SLP202 T01060067=
202004210253 METAR KPAE 210253Z 36006KT 10SM CLR 11/07 A3011 RMK AO2 SLP198 T01110072 53005=
202004210153 METAR KPAE 210153Z 35008KT 10SM CLR 13/07 A3011 RMK AO2 SLP197 T01330072=
202004210053 METAR KPAE 210053Z 36009KT 10SM CLR 14/07 A3010 RMK AO2 SLP194 T01440072=
202004202353 METAR KPAE 202353Z 35007KT 310V030 10SM CLR 16/07 A3010 RMK AO2 SLP193 T01610072 10167 20122 58007=
202004202253 METAR KPAE 202253Z 31006KT 10SM CLR 16/08 A3011 RMK AO2 SLP197 T01610078=
202004202153 METAR KPAE 202153Z 23005KT 10SM CLR 16/07 A3011 RMK AO2 SLP199 T01560072=
202004202053 METAR KPAE 202053Z 28007KT 10SM CLR 16/08 A3012 RMK AO2 SLP200 T01560083 58003=
202004201953 METAR KPAE 201953Z 27006KT 10SM CLR 14/08 A3013 RMK AO2 SLP203 T01440078=
202004201853 METAR KPAE 201853Z 29006KT 10SM CLR 13/08 A3013 RMK AO2 SLP204 T01330078=
202004201753 METAR KPAE 201753Z 27005KT 10SM CLR 12/07 A3013 RMK AO2 SLP203 T01220072 10122 20078 53006=
202004201653 METAR KPAE 201653Z 24003KT 10SM CLR 11/07 A3012 RMK AO2 SLP200 T01110072=
202004201553 METAR KPAE 201553Z 00000KT 10SM CLR 11/06 A3011 RMK AO2 SLP198 T01060061=
202004201453 METAR KPAE 201453Z 00000KT 10SM CLR 09/06 A3011 RMK AO2 SLP197 T00940056 53009=
202004201353 METAR KPAE 201353Z 00000KT 10SM CLR 08/06 A3010 RMK AO2 SLP193 T00780056=
202004201253 METAR KPAE 201253Z 06003KT 10SM CLR 08/06 A3009 RMK AO2 SLP191 T00780056=
202004201153 METAR KPAE 201153Z 02004KT 10SM CLR 08/06 A3008 RMK AO2 SLP188 T00780056 10094 20078 53000=
202004201053 METAR KPAE 201053Z 01004KT 10SM CLR 08/06 A3008 RMK AO2 SLP187 T00830056=
202004200953 METAR KPAE 200953Z 01004KT 10SM CLR 08/06 A3008 RMK AO2 SLP187 T00830056=
202004200853 METAR KPAE 200853Z 36004KT 10SM CLR 08/06 A3008 RMK AO2 SLP187 T00830056 55001=
202004200753 METAR KPAE 200753Z 02004KT 10SM CLR 09/06 A3008 RMK AO2 SLP187 T00890061 401440067=
202004200653 METAR KPAE 200653Z 02006KT 10SM CLR 09/06 A3008 RMK AO2 SLP188 T00890061=
202004200553 METAR KPAE 200553Z 36004KT 10SM CLR 09/06 A3009 RMK AO2 SLP189 T00940061 10139 20094 51003=
202004200453 METAR KPAE 200453Z 35005KT 10SM CLR 09/07 A3008 RMK AO2 SLP189 T00940067=
202004200353 METAR KPAE 200353Z 35005KT 10SM CLR 10/07 A3008 RMK AO2 SLP187 T01000067=
202004200253 METAR KPAE 200253Z 34004KT 10SM CLR 11/07 A3008 RMK AO2 SLP186 T01110067 55005=
202004200153 METAR KPAE 200153Z 36007KT 10SM CLR 13/07 A3008 RMK AO2 SLP185 T01280067=
202004200053 METAR KPAE 200053Z 35007KT 10SM CLR 13/07 A3008 RMK AO2 SLP188 T01330072=
202004192353 METAR KPAE 192353Z 26006KT 10SM CLR 14/08 A3009 RMK AO2 SLP191 T01390078 10144 20100 56006=
202004192253 METAR KPAE 192253Z VRB05KT 10SM CLR 14/07 A3010 RMK AO2 SLP192 T01440072=
202004192153 METAR KPAE 192153Z 27007KT 10SM CLR 14/07 A3011 RMK AO2 SLP195 T01390072=
202004192053 METAR KPAE 192053Z 24007KT 10SM CLR 13/07 A3011 RMK AO2 SLP197 T01280072 58007=
202004191953 METAR KPAE 191953Z 24008KT 10SM CLR 12/07 A3012 RMK AO2 SLP201 T01220072=
202004191916 SPECI KPAE 191916Z 27008KT 10SM FEW024 12/08 A3013 RMK AO2 T01170078=
202004191853 METAR KPAE 191853Z 25007KT 10SM BKN023 11/07 A3013 RMK AO2 SLP204 T01110072=
202004191753 METAR KPAE 191753Z 24007KT 10SM OVC023 11/07 A3013 RMK AO2 SLP204 T01060072 10106 20078 53000=
202004191653 METAR KPAE 191653Z VRB06KT 10SM OVC017 10/06 A3013 RMK AO2 SLP203 T01000061=
202004191650 SPECI KPAE 191650Z 18005KT 10SM OVC015 10/06 A3013 RMK AO2=
202004191553 METAR KPAE 191553Z 19009KT 10SM OVC012 09/06 A3013 RMK AO2 SLP204 T00940061=
202004191453 METAR KPAE 191453Z 17007KT 10SM BKN010 BKN024 08/06 A3012 RMK AO2 SLP201 T00830061 53013=
202004191353 METAR KPAE 191353Z 18004KT 10SM SCT011 BKN027 OVC070 08/06 A3011 RMK AO2 SLP197 T00780056=
202004191253 METAR KPAE 191253Z AUTO 17005KT 10SM OVC070 08/06 A3010 RMK AO2 SLP192 T00830056=
202004191203 SPECI KPAE 191203Z AUTO 00000KT 10SM SCT016 OVC070 08/06 A3009 RMK AO2 T00830056=
202004191153 METAR KPAE 191153Z AUTO 00000KT 10SM BKN016 OVC070 08/06 A3009 RMK AO2 SLP188 70070 T00830056 10111 20067 53010=
202004191118 SPECI KPAE 191118Z AUTO 00000KT 10SM BKN013 08/06 A3008 RMK AO2 T00780056=
202004191053 METAR KPAE 191053Z AUTO 00000KT 10SM CLR 07/06 A3007 RMK AO2 SLP185 T00720056=
202004190953 METAR KPAE 190953Z AUTO 00000KT 10SM BKN034 OVC044 09/06 A3006 RMK AO2 SLP181 T00890056=
202004190853 METAR KPAE 190853Z AUTO 18004KT 10SM BKN041 09/06 A3006 RMK AO2 SLP179 T00890061 53004=
202004190753 METAR KPAE 190753Z AUTO 00000KT 10SM CLR 09/06 A3005 RMK AO2 SLP176 T00890056 401390083=
202004190653 METAR KPAE 190653Z AUTO 17004KT 10SM CLR 10/06 A3005 RMK AO2 SLP176 T01000061=
202004190553 METAR KPAE 190553Z AUTO 18004KT 10SM OVC032 11/07 A3004 RMK AO2 SLP174 T01110067 10139 20111 51014=
202004190532 SPECI KPAE 190532Z AUTO 16005KT 10SM OVC030 12/07 A3004 RMK AO2 T01170067=
202004190453 METAR KPAE 190453Z AUTO 15005KT 10SM BKN029 12/07 A3003 RMK AO2 SLP169 T01170067=
202004190435 SPECI KPAE 190435Z AUTO 15005KT 10SM OVC031 12/07 A3002 RMK AO2 T01170072=
202004190400 SPECI KPAE 190400Z AUTO 15004KT 10SM BKN029 BKN042 12/07 A3002 RMK AO2 T01220067=
202004190353 METAR KPAE 190353Z AUTO 16004KT 10SM FEW027 BKN044 12/07 A3001 RMK AO2 SLP165 T01220072=
202004190253 METAR KPAE 190253Z 16007KT 10SM FEW027 BKN044 12/07 A3000 RMK AO2 SLP159 T01220067 52001=
202004190153 METAR KPAE 190153Z 30004KT 10SM BKN040 13/08 A3000 RMK AO2 SLP159 T01280083=
202004190053 METAR KPAE 190053Z 15008KT 10SM SCT075 13/07 A3000 RMK AO2 SLP158 T01330072=
202004182353 METAR KPAE 182353Z 17008KT 10SM BKN040 13/07 A3000 RMK AO2 SLP158 60000 T01280072 10133 20100 51004=
202004182253 METAR KPAE 182253Z 16006KT 10SM FEW022 BKN031 12/07 A3000 RMK AO2 SLP158 T01220067=
202004182153 METAR KPAE 182153Z 16010KT 10SM FEW022 OVC031 12/07 A2999 RMK AO2 SLP156 T01220072=
202004182146 SPECI KPAE 182146Z 16009KT 10SM FEW022 SCT028 BKN033 12/07 A2999 RMK AO2 T01220072=
202004182101 SPECI KPAE 182101Z VRB04KT 10SM SCT017 BKN022 OVC060 12/08 A2998 RMK AO2 T01170083=
202004182053 METAR KPAE 182053Z 24006KT 10SM FEW014 BKN031 OVC060 11/08 A2998 RMK AO2 SLP154 60000 T01110083 51001=
202004181953 METAR KPAE 181953Z 16009KT 10SM BKN016 OVC065 12/08 A2998 RMK AO2 SLP154 T01170078=
202004181933 SPECI KPAE 181933Z 19010KT 10SM BKN012 BKN070 12/08 A2998 RMK AO2 T01170078=
202004181853 METAR KPAE 181853Z 16008KT 10SM FEW010 OVC015 10/08 A2999 RMK AO2 RAE26 SLP155 P0000 T01000078=
202004181850 SPECI KPAE 181850Z 16009KT 10SM SCT010 OVC015 10/08 A2999 RMK AO2 RAE26 P0000=
202004181841 SPECI KPAE 181841Z 16009KT 10SM BKN010 OVC014 11/08 A2999 RMK AO2 RAE26 CIG 007V013 P0000 T01060083=
202004181753 METAR KPAE 181753Z 18008KT 7SM -RA BKN006 OVC049 09/08 A2998 RMK AO2 SLP154 P0009 60070 T00940083 10100 20083 53010=
202004181714 SPECI KPAE 181714Z 19009KT 4SM -RA BR SCT011 OVC047 09/08 A2997 RMK AO2 P0005 T00890078=
202004181653 METAR KPAE 181653Z 20006KT 2 1/2SM RA BR OVC047 09/08 A2997 RMK AO2 SLP149 P0022 T00890078=
202004181627 SPECI KPAE 181627Z 20007KT 2 1/2SM RA BR OVC047 09/08 A2996 RMK AO2 P0011 T00890078=
202004181612 SPECI KPAE 181612Z 20007KT 3SM RA BR SCT010 SCT040 OVC047 09/08 A2996 RMK AO2 P0006 T00890078=
202004181553 METAR KPAE 181553Z 21005KT 2 1/2SM -RA BR OVC011 09/08 A2995 RMK AO2 SLP144 P0020 T00890078=
202004181549 SPECI KPAE 181549Z 20006KT 2 1/2SM -RA BR OVC011 09/08 A2995 RMK AO2 P0019=
202004181541 SPECI KPAE 181541Z 19004KT 1 3/4SM RA BR BKN011 OVC046 09/08 A2995 RMK AO2 P0017 T00890078=
202004181526 SPECI KPAE 181526Z 21004KT 1 3/4SM RA BR FEW009 OVC046 09/08 A2994 RMK AO2 P0012 T00890078=
202004181509 SPECI KPAE 181509Z 21003KT 1 3/4SM RA BR OVC048 08/08 A2993 RMK AO2 P0006 T00830078=
202004181500 SPECI KPAE 181500Z 21004KT 2SM RA BR OVC048 09/08 A2993 RMK AO2 P0002 T00890078=
202004181453 METAR KPAE 181453Z 19003KT 3SM -RA BR OVC050 09/08 A2993 RMK AO2 SLP134 P0009 60019 T00890078 53019=
202004181353 METAR KPAE 181353Z 16003KT 3SM -RA BR OVC050 09/07 A2990 RMK AO2 SLP126 P0010 T00890072=
202004180453 METAR KPAE 180453Z AUTO 35007KT 10SM BKN090 OVC110 11/04 A2984 RMK AO2 SLP106 T01110044=
202004180353 METAR KPAE 180353Z AUTO 34004KT 10SM BKN090 OVC110 11/05 A2984 RMK AO2 SLP105 T01110050=
202004180253 METAR KPAE 180253Z 35007KT 10SM OVC100 12/04 A2984 RMK AO2 SLP106 T01220044 56015=
202004180153 METAR KPAE 180153Z 35004KT 10SM FEW065 OVC090 14/02 A2986 RMK AO2 SLP112 T01390022=
202004180053 METAR KPAE 180053Z 34003KT 10SM OVC095 16/01 A2987 RMK AO2 SLP116 T01610006=
202004172353 METAR KPAE 172353Z 35006KT 10SM CLR 16/01 A2989 RMK AO2 SLP121 T01610011 10178 20150 56021=
202004172253 METAR KPAE 172253Z 35006KT 10SM CLR 17/M01 A2991 RMK AO2 SLP127 T01721006=
202004172153 METAR KPAE 172153Z 31005KT 10SM CLR 17/01 A2993 RMK AO2 SLP133 T01720006=
202004172053 METAR KPAE 172053Z 27004KT 10SM CLR 16/03 A2995 RMK AO2 SLP142 T01610028 58016=
202004171953 METAR KPAE 171953Z 28004KT 10SM CLR 16/03 A2997 RMK AO2 SLP147 T01560033=
202004171853 METAR KPAE 171853Z 31004KT 10SM CLR 16/04 A2999 RMK AO2 SLP154 T01560044=
202004171753 METAR KPAE 171753Z 14004KT 10SM CLR 15/01 A3000 RMK AO2 SLP158 T01500011 10150 20072 58013=
202004171653 METAR KPAE 171653Z 16003KT CLR 13/02 A3001 RMK AO2 SLP163 T01330022 $=
202004171553 METAR KPAE 171553Z 18005KT 10SM CLR 11/02 A3003 RMK AO2 SLP169 T01110017=
202004171453 METAR KPAE 171453Z 15006KT 10SM CLR 09/01 A3004 RMK AO2 SLP172 T00890011 56009=
202004171353 METAR KPAE 171353Z AUTO 00000KT 10SM CLR 07/01 A3004 RMK AO2 SLP173 T00720006=
202004171253 METAR KPAE 171253Z AUTO 11003KT 10SM CLR 07/01 A3005 RMK AO2 SLP175 T00720006 $=
202004171153 METAR KPAE 171153Z AUTO 00000KT 10SM CLR 08/01 A3006 RMK AO2 SLP181 T00830006 10128 20083 56013 $=
202004171053 METAR KPAE 171053Z AUTO 11008KT 10SM CLR 08/01 A3007 RMK AO2 SLP182 T00830011 $=
202004170953 METAR KPAE 170953Z AUTO 11005KT 10SM CLR 10/01 A3008 RMK AO2 SLP187 T01000006 $=
202004170853 METAR KPAE 170853Z AUTO 05003KT 10SM CLR 10/02 A3010 RMK AO2 SLP193 T01000017 56007 $=
202004170753 METAR KPAE 170753Z AUTO 03004KT 10SM CLR 10/03 A3011 RMK AO2 SLP196 T01000028 401890078 $=
202004170653 METAR KPAE 170653Z AUTO 36004KT 10SM CLR 11/02 A3011 RMK AO2 SLP196 T01110022 $=
202004170553 METAR KPAE 170553Z AUTO 00000KT 10SM CLR 12/M02 A3012 RMK AO2 SLP200 T01221022 10189 20117 58006 $=
202004170453 METAR KPAE 170453Z AUTO 01003KT 10SM CLR 13/M01 A3014 RMK AO2 SLP206 T01281011 $=
202004170353 METAR KPAE 170353Z AUTO 31003KT 10SM CLR 13/01 A3014 RMK AO2 SLP208 T01280006 $=
202004170253 METAR KPAE 170253Z 31003KT 10SM 15/00 A3014 RMK AO2 SLP208 T01500000 $=
202004170153 METAR KPAE 170153Z 34004KT 10SM CLR 17/01 A3016 RMK AO2 SLP213 T01720011=
202004170053 METAR KPAE 170053Z 35005KT 10SM CLR 18/M03 A3018 RMK AO2 SLP219 T01831028=
202004162353 METAR KPAE 162353Z VRB05KT 10SM CLR 19/M02 A3020 RMK AO2 SLP225 T01891022 10189 20150 58021=
202004162253 METAR KPAE 162253Z 28005KT 10SM CLR 18/M01 A3022 RMK AO2 SLP233 T01781006=
202004162153 METAR KPAE 162153Z VRB05KT 10SM CLR 18/M01 A3024 RMK AO2 SLP240 T01781011=
202004162053 METAR KPAE 162053Z 26007KT 10SM CLR 17/M02 A3026 RMK AO2 SLP247 T01721017 58009=
202004161953 METAR KPAE 161953Z 26007KT 10SM CLR 16/02 A3027 RMK AO2 SLP251 T01610017=
202004161853 METAR KPAE 161853Z 26007KT 10SM CLR 15/03 A3029 RMK AO2 SLP256 T01500028=
202004161753 METAR KPAE 161753Z VRB03KT 10SM CLR 15/03 A3029 RMK AO2 SLP256 T01500028 10150 20078 58001=
202004161653 METAR KPAE 161653Z 19004KT 10SM CLR 14/01 A3030 RMK AO2 SLP260 T01390011=
202004161553 METAR KPAE 161553Z 00000KT 10SM CLR 12/01 A3029 RMK AO2 SLP259 T01170011=
202004161453 METAR KPAE 161453Z 11004KT 10SM CLR 09/00 A3029 RMK AO2 SLP258 T00940000 53007=
202004161353 METAR KPAE 161353Z VRB03KT 10SM CLR 08/M01 A3028 RMK AO2 SLP256 T00781006=
202004161253 METAR KPAE 161253Z AUTO 11006KT 10SM CLR 08/M01 A3027 RMK AO2 SLP252 T00831006=
202004161153 METAR KPAE 161153Z AUTO 11005KT 10SM CLR 08/00 A3027 RMK AO2 SLP252 T00830000 10111 20083 53005=
202004161053 METAR KPAE 161053Z AUTO 11004KT 10SM CLR 09/00 A3026 RMK AO2 SLP249 T00890000=
202004160953 METAR KPAE 160953Z AUTO VRB04KT 10SM CLR 09/01 A3026 RMK AO2 SLP247 T00940006=
202004160853 METAR KPAE 160853Z AUTO 11008KT 10SM CLR 09/02 A3026 RMK AO2 SLP246 T00940022 51008=
202004160753 METAR KPAE 160753Z AUTO 02003KT 10SM CLR 10/03 A3025 RMK AO2 SLP244 T01000033 401610083=
202004160653 METAR KPAE 160653Z AUTO 01003KT 10SM CLR 11/04 A3024 RMK AO2 SLP241 T01110044=
202004160553 METAR KPAE 160553Z AUTO 34006KT 10SM CLR 11/04 A3023 RMK AO2 SLP238 T01110039 10161 20111 51009=
202004160453 METAR KPAE 160453Z AUTO 02007KT 10SM CLR 13/03 A3022 RMK AO2 SLP235 T01280028=
202004160353 METAR KPAE 160353Z AUTO 36006KT 10SM CLR 12/04 A3021 RMK AO2 SLP233 T01220044=
202004160253 METAR KPAE 160253Z 35004KT 10SM CLR 14/04 A3020 RMK AO2 SLP229 T01390039 55003=
202004160153 METAR KPAE 160153Z 34005KT 10SM CLR 15/04 A3020 RMK AO2 SLP227 T01500044=
202004160053 METAR KPAE 160053Z 33008KT 10SM CLR 16/05 A3021 RMK AO2 SLP229 T01560050=
202004152353 METAR KPAE 152353Z 36010G17KT 10SM CLR 16/06 A3021 RMK AO2 SLP232 T01560056 10161 20111 56020=
202004152253 METAR KPAE 152253Z 36009G16KT 10SM CLR 16/06 A3023 RMK AO2 SLP237 T01560061=
202004152153 METAR KPAE 152153Z 35009KT 10SM CLR 15/07 A3025 RMK AO2 SLP246 T01500067=
202004152053 METAR KPAE 152053Z 32011G16KT 10SM CLR 14/06 A3027 RMK AO2 SLP253 T01390061 58010=
202004151953 METAR KPAE 151953Z 02007KT 10SM CLR 13/06 A3028 RMK AO2 SLP256 T01330061=
202004151853 METAR KPAE 151853Z VRB05KT 10SM FEW026 12/07 A3030 RMK AO2 SLP262 T01220067=
202004151805 SPECI KPAE 151805Z 36006KT 10SM FEW017 SCT026 12/07 A3030 RMK AO2 T01220072=
202004151753 METAR KPAE 151753Z 31007KT 10SM BKN026 BKN033 12/07 A3030 RMK AO2 SLP263 T01170072 10117 20083 58003=
202004151653 METAR KPAE 151653Z 27005KT 10SM BKN015 OVC023 09/07 A3030 RMK AO2 SLP263 T00940067=
202004151553 METAR KPAE 151553Z 25004KT 10SM BKN010 OVC020 09/07 A3031 RMK AO2 SLP266 T00890072=
202004151550 SPECI KPAE 151550Z 26004KT 10SM SCT010 OVC020 09/07 A3031 RMK AO2=
202004151453 METAR KPAE 151453Z 24005KT 10SM FEW008 BKN012 OVC018 09/07 A3030 RMK AO2 SLP261 T00890072 53012=
202004151353 METAR KPAE 151353Z AUTO 25003KT 10SM BKN012 OVC018 09/07 A3028 RMK AO2 SLP253 T00890067=
202004151253 METAR KPAE 151253Z AUTO 16005KT 10SM OVC013 09/06 A3027 RMK AO2 SLP249 T00940061=
202004151153 METAR KPAE 151153Z AUTO 18006KT 10SM OVC013 09/06 A3026 RMK AO2 SLP247 T00890061 10111 20089 56001=
202004151053 METAR KPAE 151053Z AUTO 15008KT 10SM OVC012 09/06 A3026 RMK AO2 SLP248 T00940061=
202004150953 METAR KPAE 150953Z AUTO 18008KT 10SM OVC014 09/06 A3025 RMK AO2 SLP246 T00940061=
202004150853 METAR KPAE 150853Z AUTO 20006KT 10SM OVC014 09/06 A3026 RMK AO2 SLP250 T00940061 53008=
202004150823 SPECI KPAE 150823Z AUTO 18010KT 10SM OVC014 09/06 A3026 RMK AO2 T00940061=
202004150753 METAR KPAE 150753Z AUTO 19011KT 10SM OVC015 10/06 A3025 RMK AO2 SLP246 T01000061 401670061=
202004150741 SPECI KPAE 150741Z AUTO 18009KT 10SM BKN016 OVC070 10/06 A3025 RMK AO2 T01000061=
202004150653 METAR KPAE 150653Z AUTO 19007KT 10SM OVC070 11/06 A3025 RMK AO2 SLP244 T01060061=
202004150553 METAR KPAE 150553Z AUTO 00000KT 10SM OVC070 11/06 A3024 RMK AO2 SLP241 T01110056 10167 20106 53012=
202004150453 METAR KPAE 150453Z AUTO 00000KT 10SM OVC070 11/06 A3023 RMK AO2 SLP237 T01110061=
202004150353 METAR KPAE 150353Z AUTO 19007KT 10SM OVC070 13/06 A3021 RMK AO2 SLP232 T01330056=
202004150253 METAR KPAE 150253Z 20007KT 10SM BKN070 16/03 A3020 RMK AO2 SLP228 T01560033 56016=
202004150153 METAR KPAE 150153Z 21006KT 10SM FEW070 17/00 A3021 RMK AO2 SLP231 T01670000=
202004150053 METAR KPAE 150053Z 22005KT 10SM CLR 17/01 A3023 RMK AO2 SLP238 T01670011=
202004142353 METAR KPAE 142353Z 24009KT 10SM FEW120 17/03 A3025 RMK AO2 SLP245 T01670028 10167 20111 58021=
202004142253 METAR KPAE 142253Z 23008KT 10SM BKN120 16/00 A3027 RMK AO2 SLP252 T01610000=
202004142153 METAR KPAE 142153Z 28008KT 10SM BKN120 15/03 A3030 RMK AO2 SLP260 T01500033=
202004142053 METAR KPAE 142053Z 25007KT 10SM CLR 13/04 A3031 RMK AO2 SLP266 T01330044 57015=
202004141953 METAR KPAE 141953Z 25008KT 10SM CLR 13/06 A3033 RMK AO2 SLP271 T01280056=
202004141853 METAR KPAE 141853Z 25005KT 10SM CLR 12/04 A3034 RMK AO2 SLP276 T01170044=
202004141753 METAR KPAE 141753Z 19007KT 10SM CLR 12/M01 A3036 RMK AO2 SLP281 T01221006 10122 20061 56001=
202004141653 METAR KPAE 141653Z 18008KT 10SM CLR 11/M01 A3036 RMK AO2 SLP281 T01061006=
202004141553 METAR KPAE 141553Z 16006KT 10SM CLR 09/M01 A3036 RMK AO2 SLP282 T00941006=
202004141453 METAR KPAE 141453Z 19004KT 10SM CLR 08/M01 A3036 RMK AO2 SLP282 T00831011 53004=
202004141353 METAR KPAE 141353Z 16003KT 10SM CLR 07/M03 A3035 RMK AO2 SLP280 T00721033=
202004141253 METAR KPAE 141253Z AUTO 11003KT 10SM CLR 07/M03 A3035 RMK AO2 SLP278 T00721033=
202004141153 METAR KPAE 141153Z AUTO 10005KT 10SM CLR 07/M03 A3035 RMK AO2 SLP278 T00721028 10106 20072 55001=
202004141053 METAR KPAE 141053Z AUTO 11004KT 10SM CLR 08/M03 A3035 RMK AO2 SLP278 T00781028=
202004140953 METAR KPAE 140953Z AUTO 11005KT 10SM CLR 09/M02 A3035 RMK AO2 SLP279 T00891017=
202004140853 METAR KPAE 140853Z AUTO 00000KT 10SM CLR 08/02 A3035 RMK AO2 SLP280 T00780022 58003=
202004140753 METAR KPAE 140753Z AUTO 00000KT 10SM CLR 08/03 A3036 RMK AO2 SLP282 T00830028 401610033=
202004140653 METAR KPAE 140653Z AUTO 01004KT 10SM FEW110 10/02 A3036 RMK AO2 SLP283 T01000022=
202004140553 METAR KPAE 140553Z AUTO 02005KT 10SM OVC100 11/M01 A3036 RMK AO2 SLP283 T01061006 10156 20106 58004=
202004140453 METAR KPAE 140453Z AUTO 03004KT 10SM BKN110 11/M02 A3037 RMK AO2 SLP285 T01111017=
202004140353 METAR KPAE 140353Z 01005KT 10SM FEW120 12/M06 A3037 RMK AO2 SLP287 T01221056=
202004140253 METAR KPAE 140253Z 30005KT 10SM CLR 12/M04 A3038 RMK AO2 SLP288 T01221039 58005=
202004140153 METAR KPAE 140153Z 30005KT 10SM CLR 14/M06 A3038 RMK AO2 SLP291 T01391061=
202004140053 METAR KPAE 140053Z 35006KT 10SM CLR 16/M08 A3039 RMK AO2 SLP293 T01561083=
202004132353 METAR KPAE 132353Z 36008KT 10SM CLR 16/M07 A3039 RMK AO2 SLP294 T01561072 10161 20106 56010=
202004132253 METAR KPAE 132253Z 35007KT 10SM CLR 16/M09 A3040 RMK AO2 SLP296 T01561094=
202004132153 METAR KPAE 132153Z 36006KT 10SM CLR 15/M08 A3041 RMK AO2 SLP299 T01501083=
202004132053 METAR KPAE 132053Z 33005KT 10SM CLR 14/00 A3042 RMK AO2 SLP304 T01390000 58004=
202004131953 METAR KPAE 131953Z 31006KT 10SM CLR 13/M01 A3043 RMK AO2 SLP306 T01331006=
202004131853 METAR KPAE 131853Z VRB04KT 10SM CLR 11/00 A3043 RMK AO2 SLP308 T01060000=
202004131753 METAR KPAE 131753Z 31006KT 10SM CLR 11/M03 A3043 RMK AO2 SLP308 T01111033 10111 20033 53008=
202004131653 METAR KPAE 131653Z 29005KT 10SM CLR 09/M01 A3043 RMK AO2 SLP306 T00941011=
202004131553 METAR KPAE 131553Z 00000KT 10SM CLR 08/M03 A3041 RMK AO2 SLP302 T00781028=
202004131453 METAR KPAE 131453Z 10003KT 10SM CLR 06/M03 A3041 RMK AO2 SLP299 T00561033 53016=
202004131353 METAR KPAE 131353Z AUTO 00000KT 10SM CLR 03/M04 A3039 RMK AO2 SLP294 T00331039=
202004131253 METAR KPAE 131253Z AUTO 12006KT 10SM CLR 04/M04 A3037 RMK AO2 SLP287 T00391039=
202004131153 METAR KPAE 131153Z AUTO 12005KT 10SM CLR 04/M04 A3036 RMK AO2 SLP283 T00391039 10083 20039 53012=
202004131053 METAR KPAE 131053Z AUTO 00000KT 10SM CLR 04/M03 A3035 RMK AO2 SLP279 T00441033=
202004130953 METAR KPAE 130953Z AUTO 09005KT 10SM CLR 06/M04 A3033 RMK AO2 SLP274 T00561039=
202004130853 METAR KPAE 130853Z AUTO 11004KT 10SM CLR 06/M03 A3033 RMK AO2 SLP272 T00611028 53012=
202004130753 METAR KPAE 130753Z AUTO 00000KT 10SM CLR 07/M03 A3031 RMK AO2 SLP266 T00671028 401390028=
202004130653 METAR KPAE 130653Z AUTO 00000KT 10SM CLR 08/M03 A3030 RMK AO2 SLP262 T00831028=
202004130553 METAR KPAE 130553Z AUTO 35006KT 10SM CLR 08/M03 A3029 RMK AO2 SLP260 T00781028 10133 20078 51011=
202004130453 METAR KPAE 130453Z AUTO 34006KT 10SM CLR 08/M04 A3029 RMK AO2 SLP259 T00831044=
202004130353 METAR KPAE 130353Z AUTO 31004KT 10SM CLR 09/M06 A3028 RMK AO2 SLP255 T00941061=
202004130253 METAR KPAE 130253Z 32008KT 10SM CLR 11/M08 A3026 RMK AO2 SLP248 T01061078 55001=
202004130153 METAR KPAE 130153Z 31006KT 10SM CLR 12/M08 A3025 RMK AO2 SLP248 T01221078=
202004130053 METAR KPAE 130053Z 32009G22KT 10SM CLR 13/M08 A3026 RMK AO2 SLP248 T01281078=
202004122353 METAR KPAE 122353Z 32009G17KT 10SM CLR 13/M07 A3026 RMK AO2 SLP249 T01331067 10139 20094 58008=
202004122253 METAR KPAE 122253Z 32009G16KT 10SM CLR 14/M05 A3027 RMK AO2 SLP252 T01391050=
202004122153 METAR KPAE 122153Z 33012G19KT 10SM CLR 13/M07 A3028 RMK AO2 SLP256 T01331072=
202004122053 METAR KPAE 122053Z 34008G16KT 300V010 10SM CLR 13/M06 A3029 RMK AO2 SLP258 T01281056 56011=
202004121953 METAR KPAE 121953Z 36009KT 10SM CLR 13/M03 A3029 RMK AO2 SLP260 T01281033=
202004121853 METAR KPAE 121853Z 36009KT 10SM CLR 11/M04 A3031 RMK AO2 SLP265 T01111039=
202004121753 METAR KPAE 121753Z 35006KT 10SM CLR 09/M02 A3032 RMK AO2 SLP269 T00941022 10100 20028 51008=
202004121653 METAR KPAE 121653Z 36005KT 10SM CLR 09/01 A3032 RMK AO2 SLP268 T00890011=
202004121553 METAR KPAE 121553Z 01004KT 10SM CLR 07/M03 A3031 RMK AO2 SLP265 T00721033=
202004121453 METAR KPAE 121453Z 36004KT 10SM CLR 06/00 A3029 RMK AO2 SLP260 T00560000 53013=
202004121353 METAR KPAE 121353Z 33003KT 10SM CLR 03/M01 A3028 RMK AO2 SLP255 T00281011=
202004121253 METAR KPAE 121253Z AUTO 11005KT 10SM CLR 04/M01 A3026 RMK AO2 SLP249 T00391006=
202004121153 METAR KPAE 121153Z AUTO 11006KT 10SM CLR 04/M01 A3025 RMK AO2 SLP247 T00391006 10083 20039 51004=
202004121053 METAR KPAE 121053Z AUTO 11006KT 10SM CLR 04/00 A3025 RMK AO2 SLP246 T00440000=
202004120953 METAR KPAE 120953Z AUTO 00000KT 10SM CLR 05/00 A3025 RMK AO2 SLP244 T00500000=
202004120853 METAR KPAE 120853Z AUTO 10007KT 10SM CLR 06/00 A3024 RMK AO2 SLP242 T00610000 52009=
202004120753 METAR KPAE 120753Z AUTO 03003KT 10SM CLR 07/M01 A3023 RMK AO2 SLP240 T00721006 401500067=
202004120653 METAR KPAE 120653Z AUTO 35005KT 10SM CLR 08/M01 A3022 RMK AO2 SLP235 T00781011=
202004120553 METAR KPAE 120553Z AUTO 34005KT 10SM CLR 08/00 A3021 RMK AO2 SLP233 T00780000 10139 20078 51009=
202004120453 METAR KPAE 120453Z AUTO 34006KT 10SM CLR 09/M03 A3021 RMK AO2 SLP231 T00941028=
202004120353 METAR KPAE 120353Z AUTO 35004KT 10SM CLR 11/M03 A3020 RMK AO2 SLP229 T01061033=
202004120253 METAR KPAE 120253Z VRB05KT 10SM CLR 11/M03 A3019 RMK AO2 SLP224 T01111033 53004=
202004120153 METAR KPAE 120153Z 33009KT 10SM CLR 12/M04 A3018 RMK AO2 SLP220 T01221039=
202004120053 METAR KPAE 120053Z 33009G17KT 10SM CLR 13/M03 A3018 RMK AO2 SLP220 T01281033=
202004112353 METAR KPAE 112353Z 31011G19KT 10SM CLR 13/M04 A3017 RMK AO2 SLP218 60000 T01331039 10150 20083 55002=
202004112253 METAR KPAE 112253Z 33012G19KT 310V010 10SM CLR 14/M04 A3017 RMK AO2 SLP217 T01441044=
202004112153 METAR KPAE 112153Z 34007KT 310V030 10SM CLR 14/M02 A3018 RMK AO2 SLP219 T01391017=
202004112053 METAR KPAE 112053Z 33007KT 10SM CLR 12/03 A3018 RMK AO2 SLP221 60000 T01220028 51005=
202004111953 METAR KPAE 111953Z 34006KT 10SM FEW050 BKN060 10/06 A3018 RMK AO2 RAB25E35 SLP220 P0000 T01000056=
202004111939 SPECI KPAE 111939Z 35008KT 10SM SCT029 BKN055 10/06 A3018 RMK AO2 RAB25E35 P0000 T01000056=
202004111853 METAR KPAE 111853Z 36006KT 10SM SCT009 BKN017 09/06 A3017 RMK AO2 SLP220 T00940056=
202004111753 METAR KPAE 111753Z 31003KT 10SM BKN009 08/06 A3017 RMK AO2 SLP217 60000 T00830056 10089 20067 52016=
202004111707 SPECI KPAE 111707Z 00000KT 10SM BKN009 08/06 A3015 RMK AO2 T00830056=
202004111700 SPECI KPAE 111700Z 23005KT 10SM OVC015 08/06 A3015 RMK AO2 T00830056=
202004111653 METAR KPAE 111653Z 22004KT 10SM BKN007 08/06 A3015 RMK AO2 SLP211 T00780056=
202004111553 METAR KPAE 111553Z 27005KT 8SM OVC007 07/06 A3013 RMK AO2 RAB42E51 SLP206 P0000 T00720056=
202004111529 SPECI KPAE 111529Z 24007KT 9SM OVC009 07/05 A3013 RMK AO2 CIG 009V012 T00720050=
202004111453 METAR KPAE 111453Z 19005KT 8SM OVC011 07/05 A3012 RMK AO2 SLP200 T00720050 53017=
202004111353 METAR KPAE 111353Z 19005KT 5SM BR OVC012 07/05 A3009 RMK AO2 SLP191 T00720050=
202004111253 METAR KPAE 111253Z AUTO 20006KT 7SM OVC012 07/05 A3007 RMK AO2 SLP184 T00720050=
202004111153 METAR KPAE 111153Z AUTO 22006KT 10SM OVC012 08/05 A3007 RMK AO2 SLP182 T00780050 10089 20078 53001=
202004111053 METAR KPAE 111053Z AUTO 20005KT 10SM OVC010 08/06 A3006 RMK AO2 SLP180 T00780056=
202004111026 SPECI KPAE 111026Z AUTO 00000KT 7SM OVC009 08/06 A3006 RMK AO2 T00830061=
202004110953 METAR KPAE 110953Z AUTO VRB03KT 8SM OVC011 08/06 A3006 RMK AO2 SLP179 T00830061=
202004110853 METAR KPAE 110853Z AUTO 05003KT 10SM OVC014 08/06 A3006 RMK AO2 SLP181 T00830061 53010=
202004110753 METAR KPAE 110753Z AUTO 02006KT 10SM OVC016 08/06 A3005 RMK AO2 SLP178 T00830061 401670067=
202004110653 METAR KPAE 110653Z AUTO 02004KT 10SM OVC027 08/06 A3004 RMK AO2 SLP172 T00830061=
202004110641 SPECI KPAE 110641Z AUTO 05003KT 10SM OVC027 08/06 A3003 RMK AO2 T00830061=
202004110553 METAR KPAE 110553Z AUTO 03005KT 10SM OVC032 09/06 A3003 RMK AO2 SLP170 T00890061 10167 20083 51006=
202004110453 METAR KPAE 110453Z AUTO 01007KT 10SM CLR 09/06 A3003 RMK AO2 SLP170 T00890061=
202004110353 METAR KPAE 110353Z AUTO 02008KT 10SM OVC110 10/07 A3002 RMK AO2 SLP166 T01000067=
202004110253 METAR KPAE 110253Z 36011KT 10SM OVC120 11/07 A3001 RMK AO2 SLP165 T01110072 58002=
202004110153 METAR KPAE 110153Z 36006KT 10SM FEW120 12/07 A3001 RMK AO2 SLP164 T01170072=
202004110053 METAR KPAE 110053Z 35006KT 10SM FEW120 14/07 A3002 RMK AO2 SLP167 T01440072=
202004102353 METAR KPAE 102353Z 27007KT 10SM CLR 16/06 A3002 RMK AO2 SLP165 T01610061 10167 20117 58019=
202004102253 METAR KPAE 102253Z 28006KT 10SM CLR 17/04 A3004 RMK AO2 SLP171 T01670044=
202004102153 METAR KPAE 102153Z VRB05KT 10SM CLR 16/06 A3006 RMK AO2 SLP179 T01610061=
202004102053 METAR KPAE 102053Z VRB04KT 10SM CLR 15/07 A3007 RMK AO2 SLP185 T01500067 58013=
202004101953 METAR KPAE 101953Z 29004KT 10SM CLR 13/06 A3009 RMK AO2 SLP190 T01330061=
202004101853 METAR KPAE 101853Z 26004KT 10SM CLR 13/07 A3010 RMK AO2 SLP193 T01280067=
202004101753 METAR KPAE 101753Z 27003KT 10SM BKN070 12/06 A3011 RMK AO2 SLP198 T01170061 10117 20067 53004=
202004101653 METAR KPAE 101653Z VRB05KT 10SM SCT070 11/06 A3011 RMK AO2 SLP197 T01110056=
202004101553 METAR KPAE 101553Z 00000KT 10SM CLR 11/06 A3010 RMK AO2 SLP194 T01060061=
202004101453 METAR KPAE 101453Z 02004KT 10SM CLR 09/07 A3010 RMK AO2 SLP194 T00890067 53003=
202004101353 METAR KPAE 101353Z 00000KT 10SM CLR 07/06 A3009 RMK AO2 SLP190 T00720056=
202004101253 METAR KPAE 101253Z AUTO 03004KT 10SM CLR 08/05 A3009 RMK AO2 SLP190 T00780050=
202004101153 METAR KPAE 101153Z AUTO 03003KT 10SM CLR 08/04 A3009 RMK AO2 SLP191 T00780044 10100 20067 53001=
202004101053 METAR KPAE 101053Z AUTO 00000KT 10SM CLR 08/04 A3009 RMK AO2 SLP188 T00830039=
202004100953 METAR KPAE 100953Z AUTO VRB03KT 10SM CLR 09/03 A3008 RMK AO2 SLP186 T00890033=
202004100853 METAR KPAE 100853Z AUTO 00000KT 10SM CLR 09/03 A3009 RMK AO2 SLP190 T00890033 53002=
202004100753 METAR KPAE 100753Z AUTO 00000KT 10SM CLR 09/03 A3009 RMK AO2 SLP190 T00940028 401720050=
202004100653 METAR KPAE 100653Z AUTO 06005KT 10SM CLR 10/03 A3008 RMK AO2 SLP187 T01000028=
202004100553 METAR KPAE 100553Z AUTO 06003KT 10SM CLR 09/04 A3008 RMK AO2 SLP188 T00940039 10172 20094 50004=
202004100453 METAR KPAE 100453Z AUTO 36006KT 10SM CLR 10/03 A3009 RMK AO2 SLP191 T01000028=
202004100353 METAR KPAE 100353Z AUTO 36007KT 10SM CLR 10/03 A3009 RMK AO2 SLP190 T01000033=
202004100253 METAR KPAE 100253Z 35006KT 10SM CLR 13/03 A3007 RMK AO2 SLP185 T01280033 55003=
202004100153 METAR KPAE 100153Z 35008KT 10SM CLR 16/02 A3007 RMK AO2 SLP183 T01560022=
202004100053 METAR KPAE 100053Z 35006KT 10SM CLR 17/04 A3007 RMK AO2 SLP183 T01670044=
202004092353 METAR KPAE 092353Z 35009KT 10SM CLR 17/05 A3008 RMK AO2 SLP188 T01670050 10167 20117 56018=
202004092253 METAR KPAE 092253Z 35008KT 310V010 10SM CLR 17/04 A3010 RMK AO2 SLP193 T01670039=
202004092153 METAR KPAE 092153Z 32007KT 10SM CLR 16/05 A3011 RMK AO2 SLP199 T01610050=
202004092053 METAR KPAE 092053Z 28005KT 10SM CLR 15/05 A3014 RMK AO2 SLP206 T01500050 58013=
202004091953 METAR KPAE 091953Z VRB06KT 10SM CLR 14/03 A3016 RMK AO2 SLP213 T01440033=
202004091853 METAR KPAE 091853Z 35007KT 10SM CLR 14/04 A3017 RMK AO2 SLP218 T01390039=
202004091753 METAR KPAE 091753Z 34008KT 10SM CLR 12/02 A3018 RMK AO2 SLP220 T01220022 10122 20050 56005=
202004091653 METAR KPAE 091653Z 01006KT 10SM CLR 11/03 A3018 RMK AO2 SLP222 T01060028=
202004091553 METAR KPAE 091553Z 01003KT CLR 09/03 A3018 RMK AO2 SLP221 T00890033 $=
202004091453 METAR KPAE 091453Z 01003KT CLR 07/04 A3019 RMK AO2 SLP226 T00720039 53002 $=
202004091353 METAR KPAE 091353Z 03004KT 10SM CLR 06/03 A3018 RMK AO2 SLP223 T00610028=
202004091253 METAR KPAE 091253Z AUTO 00000KT 10SM CLR 06/02 A3018 RMK AO2 SLP222 T00610017=
202004091153 METAR KPAE 091153Z AUTO 02003KT 10SM CLR 06/02 A3019 RMK AO2 SLP224 T00560022 10094 20056 56009=
202004091053 METAR KPAE 091053Z AUTO 00000KT 10SM CLR 07/03 A3019 RMK AO2 SLP226 T00670028=
202004090953 METAR KPAE 090953Z AUTO 01003KT 10SM CLR 07/03 A3020 RMK AO2 SLP230 T00720033=
202004090853 METAR KPAE 090853Z AUTO 35004KT 10SM CLR 08/03 A3021 RMK AO2 SLP233 T00780033 58006=
202004090753 METAR KPAE 090753Z AUTO 35004KT 10SM CLR 08/02 A3022 RMK AO2 SLP237 T00830022 401390033=
202004090653 METAR KPAE 090653Z AUTO 36004KT 10SM CLR 08/02 A3023 RMK AO2 SLP238 T00830022=
202004090553 METAR KPAE 090553Z AUTO 00000KT 10SM CLR 09/03 A3023 RMK AO2 SLP240 T00940028 10139 20083 50002=
202004090453 METAR KPAE 090453Z AUTO 35004KT 10SM CLR 09/02 A3024 RMK AO2 SLP242 T00890017=
202004090353 METAR KPAE 090353Z AUTO 35004KT 10SM CLR 10/02 A3023 RMK AO2 SLP240 T01000017=
202004090253 METAR KPAE 090253Z 35004KT 10SM CLR 11/03 A3023 RMK AO2 SLP239 T01060028 56006=
202004090153 METAR KPAE 090153Z 33006KT 10SM CLR 12/03 A3023 RMK AO2 SLP238 T01220033=
202004090053 METAR KPAE 090053Z 35007KT 10SM CLR 13/03 A3023 RMK AO2 SLP240 T01330033=
202004082353 METAR KPAE 082353Z 34007KT 310V020 10SM CLR 13/03 A3024 RMK AO2 SLP244 T01330033 10139 20094 58014=
202004082253 METAR KPAE 082253Z 36006KT 10SM CLR 14/03 A3026 RMK AO2 SLP248 T01390033=
202004082153 METAR KPAE 082153Z 33010KT 10SM CLR 12/03 A3028 RMK AO2 SLP254 T01220028=
202004082053 METAR KPAE 082053Z 36008KT 10SM CLR 12/03 A3029 RMK AO2 SLP258 T01220033 58010=
202004081953 METAR KPAE 081953Z 33007KT 10SM CLR 11/03 A3030 RMK AO2 SLP264 T01110028=
202004081853 METAR KPAE 081853Z 36008KT 10SM CLR 11/02 A3032 RMK AO2 SLP268 T01060017=
202004081753 METAR KPAE 081753Z 36005KT 10SM CLR 09/02 A3032 RMK AO2 SLP269 T00940022 10094 20033 55001=
202004081653 METAR KPAE 081653Z 01006KT 10SM CLR 08/02 A3032 RMK AO2 SLP268 T00830022=
202004081553 METAR KPAE 081553Z 36005KT 10SM CLR 07/02 A3032 RMK AO2 SLP269 T00720022=
202004081453 METAR KPAE 081453Z 02006KT 10SM CLR 05/01 A3032 RMK AO2 SLP270 T00500006 53010=
202004081353 METAR KPAE 081353Z 01005KT 10SM CLR 04/01 A3030 RMK AO2 SLP263 T00390006=
202004081253 METAR KPAE 081253Z 36004KT 10SM CLR 04/02 A3029 RMK AO2 SLP260 T00390017=
202004081153 METAR KPAE 081153Z 00000KT 10SM CLR 04/02 A3029 RMK AO2 SLP259 T00390017 10083 20039 50001=
202004081053 METAR KPAE 081053Z 02004KT 10SM CLR 05/02 A3029 RMK AO2 SLP261 T00500022=
202004080953 METAR KPAE 080953Z 02005KT 10SM CLR 06/03 A3029 RMK AO2 SLP258 T00610028=
202004080853 METAR KPAE 080853Z 01006KT 10SM CLR 07/03 A3029 RMK AO2 SLP258 T00670033 51005=
202004080753 METAR KPAE 080753Z 35004KT 10SM CLR 07/05 A3028 RMK AO2 SLP254 T00670050 401220050=
202004080653 METAR KPAE 080653Z 36005KT 10SM CLR 07/03 A3028 RMK AO2 SLP257 T00720033=
202004080553 METAR KPAE 080553Z 36004KT 10SM CLR 07/02 A3027 RMK AO2 SLP254 T00720017 10122 20067 50009=
202004080453 METAR KPAE 080453Z 36003KT 10SM CLR 08/02 A3027 RMK AO2 SLP254 T00780017=
202004080353 METAR KPAE 080353Z 33003KT 10SM CLR 09/02 A3027 RMK AO2 SLP252 T00890017=
202004080253 METAR KPAE 080253Z 27003KT 10SM CLR 10/02 A3024 RMK AO2 SLP243 T01000017 56003=
202004080153 METAR KPAE 080153Z 25005KT 10SM CLR 11/03 A3025 RMK AO2 SLP245 T01060028=
202004080053 METAR KPAE 080053Z 26005KT 10SM CLR 11/02 A3025 RMK AO2 SLP245 T01110022=
202004072353 METAR KPAE 072353Z 36005KT 10SM CLR 12/01 A3025 RMK AO2 SLP247 T01220011 10122 20078 55000=
202004072253 METAR KPAE 072253Z AUTO VRB03KT 10SM CLR 12/01 A3025 RMK AO2 SLP245 T01170011=
202004072153 METAR KPAE 072153Z 32004KT 10SM CLR 11/02 A3025 RMK AO2 SLP245 T01110022=
202004072053 METAR KPAE 072053Z VRB03KT 10SM SCT025 OVC038 10/03 A3025 RMK AO2 SLP247 T01000033 58001=
202004071953 METAR KPAE 071953Z VRB05KT 10SM SCT025 OVC038 10/04 A3026 RMK AO2 SLP248 T01000039=
202004071853 METAR KPAE 071853Z VRB04KT 10SM SCT025 OVC037 09/03 A3026 RMK AO2 SLP250 T00890033=
202004071832 SPECI KPAE 071832Z 25003KT 10SM SCT025 OVC037 08/03 A3026 RMK AO2 T00830028=
202004071753 METAR KPAE 071753Z 31003KT 10SM SCT016 BKN027 OVC035 08/03 A3026 RMK AO2 SLP249 T00780033 10078 20050 53016=
202004071653 METAR KPAE 071653Z 21004KT 10SM SCT015 OVC021 07/04 A3024 RMK AO2 SLP242 T00670039=
202004071553 METAR KPAE 071553Z 18003KT 10SM BKN022 OVC037 06/03 A3023 RMK AO2 SLP238 T00610033=
202004071453 METAR KPAE 071453Z 11003KT 10SM FEW031 OVC042 06/03 A3021 RMK AO2 SLP231 T00610028 53017=
202004071353 METAR KPAE 071353Z 00000KT 10SM OVC042 05/03 A3019 RMK AO2 SLP226 T00500028=
202004071253 METAR KPAE 071253Z AUTO 00000KT 10SM FEW060 06/02 A3017 RMK AO2 SLP220 T00560022=
202004071153 METAR KPAE 071153Z AUTO 02003KT 10SM CLR 06/02 A3016 RMK AO2 SLP214 T00560017 10078 20050 51015=
202004071053 METAR KPAE 071053Z AUTO 36004KT 10SM CLR 05/02 A3015 RMK AO2 SLP212 T00500017=
202004070953 METAR KPAE 070953Z AUTO 01003KT 10SM CLR 06/02 A3013 RMK AO2 SLP206 T00560022=
202004070853 METAR KPAE 070853Z AUTO 35004KT 10SM CLR 06/03 A3011 RMK AO2 SLP199 T00610033 53021=
202004070753 METAR KPAE 070753Z AUTO 35007KT 10SM CLR 07/04 A3009 RMK AO2 SLP190 T00670039 401390033=
202004070653 METAR KPAE 070653Z AUTO 36008KT 10SM CLR 07/04 A3007 RMK AO2 SLP183 T00720044=
202004070553 METAR KPAE 070553Z AUTO 01007KT 10SM CLR 08/03 A3005 RMK AO2 SLP178 T00780028 10139 20078 51015=
202004070453 METAR KPAE 070453Z AUTO 01005KT 10SM FEW065 09/01 A3004 RMK AO2 SLP175 T00890011=
202004070353 METAR KPAE 070353Z AUTO 34004KT 10SM BKN065 09/00 A3003 RMK AO2 SLP170 T00940000=
202004070253 METAR KPAE 070253Z 34003KT 10SM CLR 11/M01 A3001 RMK AO2 SLP163 T01061006 53009=
202004070153 METAR KPAE 070153Z 35005KT 10SM CLR 12/M01 A3000 RMK AO2 SLP160 T01221006=
202004070053 METAR KPAE 070053Z 36005KT 10SM CLR 13/00 A2999 RMK AO2 SLP156 T01330000=
202004062353 METAR KPAE 062353Z 29004KT 10SM CLR 13/00 A2998 RMK AO2 SLP154 T01330000 10139 20094 53003=
202004062253 METAR KPAE 062253Z 29006KT 10SM CLR 13/M01 A2997 RMK AO2 SLP152 T01331006=
202004062153 METAR KPAE 062153Z 24005KT 10SM CLR 12/M02 A2997 RMK AO2 SLP150 T01221022=
202004062053 METAR KPAE 062053Z 31004KT 10SM CLR 12/03 A2997 RMK AO2 SLP150 T01170028 51010=
202004061953 METAR KPAE 061953Z VRB04KT 10SM CLR 12/05 A2997 RMK AO2 SLP150 T01170050=
202004061853 METAR KPAE 061853Z VRB03KT 10SM CLR 09/04 A2996 RMK AO2 SLP147 T00940039=
202004061753 METAR KPAE 061753Z VRB05KT 10SM CLR 09/02 A2994 RMK AO2 SLP140 T00940017 10094 20033 51024=
202004061653 METAR KPAE 061653Z 01004KT 10SM CLR 08/02 A2991 RMK AO2 SLP132 T00830022=
202004061553 METAR KPAE 061553Z VRB04KT 10SM CLR 07/03 A2989 RMK AO2 SLP125 T00720033=
202004061453 METAR KPAE 061453Z 35004KT 10SM CLR 06/03 A2987 RMK AO2 SLP116 T00560033 53023=
202004061353 METAR KPAE 061353Z 35003KT 10SM CLR 04/02 A2984 RMK AO2 SLP107 T00440017=
202004061253 METAR KPAE 061253Z 36003KT 10SM CLR 04/01 A2981 RMK AO2 SLP098 T00440011=
202004061153 METAR KPAE 061153Z 35003KT 10SM CLR 04/01 A2980 RMK AO2 SLP093 T00440011 10078 20044 53012=
202004061053 METAR KPAE 061053Z 35005KT 10SM CLR 05/01 A2978 RMK AO2 SLP088 T00500011=
202004060953 METAR KPAE 060953Z 36003KT 10SM SCT065 06/02 A2977 RMK AO2 SLP082 T00560017=
202004060853 METAR KPAE 060853Z 35005KT 10SM BKN075 07/01 A2976 RMK AO2 SLP079 T00670011 53015=
202004060753 METAR KPAE 060753Z 35005KT 10SM OVC080 07/02 A2974 RMK AO2 SLP074 T00720022 401170050=
202004060653 METAR KPAE 060653Z 34006KT 10SM FEW060 OVC080 07/01 A2973 RMK AO2 SLP070 T00720011=
202004060553 METAR KPAE 060553Z 33005KT 10SM BKN065 OVC080 07/01 A2972 RMK AO2 SLP066 T00720011 10094 20072 51019=
202004060453 METAR KPAE 060453Z 34005KT 10SM BKN065 OVC085 07/01 A2971 RMK AO2 SLP062 T00720011=
202004060353 METAR KPAE 060353Z 33005KT 10SM OVC085 07/02 A2967 RMK AO2 SLP051 T00720017=
202004060253 METAR KPAE 060253Z 34005KT 10SM OVC080 08/02 A2966 RMK AO2 SLP046 T00780017 50005=
202004060153 METAR KPAE 060153Z 33007KT 10SM BKN070 OVC085 08/02 A2966 RMK AO2 SLP047 T00830017=
202004060053 METAR KPAE 060053Z 34009KT 10SM OVC085 09/01 A2965 RMK AO2 SLP043 T00890011=
202004052353 METAR KPAE 052353Z 34008KT 10SM OVC070 09/01 A2965 RMK AO2 SLP041 T00890011 10117 20072 53003=
202004052253 METAR KPAE 052253Z 36010KT 10SM OVC080 11/01 A2964 RMK AO2 SLP039 T01060011=
202004052153 METAR KPAE 052153Z 34008G16KT 10SM BKN070 OVC080 10/01 A2963 RMK AO2 SLP037 T01000011=
202004052053 METAR KPAE 052053Z 35011KT 10SM BKN070 11/02 A2964 RMK AO2 SLP037 T01060017 58005=
202004051953 METAR KPAE 051953Z 34009KT 10SM BKN070 09/02 A2965 RMK AO2 SLP042 T00890022=
202004051853 METAR KPAE 051853Z 34008KT 10SM BKN049 OVC080 08/01 A2966 RMK AO2 SLP045 T00830011=
202004051753 METAR KPAE 051753Z 33006KT 10SM FEW065 OVC080 07/01 A2965 RMK AO2 SLP043 T00720011 10072 20050 53004=
202004051653 METAR KPAE 051653Z 35007KT 10SM OVC075 07/01 A2965 RMK AO2 SLP041 T00670011=
202004051553 METAR KPAE 051553Z 01007KT 10SM OVC070 06/02 A2964 RMK AO2 SLP040 T00610017=
202004051453 METAR KPAE 051453Z 34004KT 10SM OVC046 05/02 A2964 RMK AO2 SLP039 T00500017 53005=
202004051353 METAR KPAE 051353Z 35005KT 10SM OVC070 05/02 A2963 RMK AO2 SLP036 T00500017=
202004051253 METAR KPAE 051253Z AUTO 35003KT 10SM OVC070 05/02 A2963 RMK AO2 SLP035 T00500022=
202004051153 METAR KPAE 051153Z AUTO 35003KT 10SM OVC070 05/02 A2963 RMK AO2 SLP035 T00500022 10067 20050 56004=
202004051053 METAR KPAE 051053Z AUTO 00000KT 10SM FEW055 OVC075 05/03 A2963 RMK AO2 SLP035 T00500028=
202004050953 METAR KPAE 050953Z AUTO 00000KT 10SM BKN060 OVC070 06/03 A2963 RMK AO2 SLP037 T00560028=
202004050853 METAR KPAE 050853Z AUTO 32005KT 10SM SCT060 OVC075 06/02 A2964 RMK AO2 SLP039 T00560022 56003=
202004050753 METAR KPAE 050753Z AUTO 35004KT 10SM OVC095 06/02 A2964 RMK AO2 SLP039 T00610017 401060017=
202004050653 METAR KPAE 050653Z AUTO 32005KT 10SM BKN100 OVC120 06/01 A2964 RMK AO2 SLP041 T00610011=
202004050553 METAR KPAE 050553Z AUTO 34005KT 10SM SCT110 07/02 A2965 RMK AO2 SLP041 T00670017 10100 20067 50001=
202004050453 METAR KPAE 050453Z AUTO 35005KT 10SM OVC095 07/01 A2965 RMK AO2 SLP043 T00720011=
202004050353 METAR KPAE 050353Z AUTO 35006KT 10SM OVC110 08/01 A2965 RMK AO2 SLP042 T00780006=
202004050253 METAR KPAE 050253Z 35006KT 10SM CLR 08/00 A2964 RMK AO2 SLP041 T00830000 56009=
202004050153 METAR KPAE 050153Z 35006KT 10SM FEW070 08/00 A2965 RMK AO2 SLP044 T00830000=
202004050053 METAR KPAE 050053Z 35007KT 10SM BKN070 09/M01 A2966 RMK AO2 SLP046 T00941006=
202004042353 METAR KPAE 042353Z 35008KT 10SM CLR 10/M01 A2967 RMK AO2 SLP050 T01001011 10106 20061 56023=
202004042253 METAR KPAE 042253Z AUTO 35008KT 10SM CLR 11/M02 A2969 RMK AO2 SLP055 T01061017=
202004042153 METAR KPAE 042153Z VRB05KT 10SM FEW060 09/00 A2972 RMK AO2 SLP066 T00940000=
202004042053 METAR KPAE 042053Z 34005KT 10SM OVC055 08/00 A2974 RMK AO2 SLP075 T00780000 58024=
202004041953 METAR KPAE 041953Z VRB06KT 10SM FEW040 09/M01 A2977 RMK AO2 SLP083 T00941011=
202004041853 METAR KPAE 041853Z 05005KT 10SM FEW060 08/M01 A2980 RMK AO2 SLP093 T00781006=
202004041753 METAR KPAE 041753Z 06003KT 10SM FEW060 06/M01 A2981 RMK AO2 SLP099 T00611006 10067 20017 58016=
202004041653 METAR KPAE 041653Z 11003KT 10SM FEW008 BKN065 04/01 A2984 RMK AO2 SLP108 T00440011=
202004041553 METAR KPAE 041553Z 00000KT 10SM OVC055 04/01 A2985 RMK AO2 SLP111 T00390011=
202004041453 METAR KPAE 041453Z 00000KT 10SM SCT050 02/01 A2986 RMK AO2 SLP117 T00220006 56013=
202004041353 METAR KPAE 041353Z 10005KT 10SM BKN050 02/01 A2988 RMK AO2 SLP121 T00170006=
202004041253 METAR KPAE 041253Z AUTO 11005KT 10SM CLR 02/01 A2989 RMK AO2 SLP125 T00170006=
202004041153 METAR KPAE 041153Z AUTO 10005KT 10SM CLR 02/01 A2990 RMK AO2 SLP130 60005 70009 T00170006 10028 20017 58019=
202004041053 METAR KPAE 041053Z AUTO 11006KT 10SM FEW070 02/01 A2992 RMK AO2 SLP138 T00170006=
202004040953 METAR KPAE 040953Z AUTO 10006KT 10SM BKN065 02/01 A2994 RMK AO2 SLP142 T00220011=
202004040920 SPECI KPAE 040920Z AUTO 11005KT 10SM SCT028 OVC065 02/01 A2995 RMK AO2 T00220011=
202004040907 SPECI KPAE 040907Z AUTO 10004KT 10SM BKN027 OVC065 03/01 A2995 RMK AO2 T00280011=
202004040853 METAR KPAE 040853Z AUTO 12003KT 10SM FEW027 OVC060 03/01 A2996 RMK AO2 SLP149 60005 T00280011 58010=
202004040829 SPECI KPAE 040829Z AUTO 09003KT 10SM SCT024 OVC055 03/01 A2996 RMK AO2 T00280011=
202004040753 METAR KPAE 040753Z AUTO 10006KT 10SM FEW004 BKN023 OVC048 03/02 A2997 RMK AO2 RAE08UPB08E10 SLP152 P0001 T00280017 400670028=
202004040653 METAR KPAE 040653Z AUTO 00000KT 6SM -RA BR SCT009 OVC019 03/01 A2998 RMK AO2 SLP156 P0004 T00280011=
202004040640 SPECI KPAE 040640Z AUTO 21003KT 5SM -RA BR SCT007 OVC015 03/01 A2999 RMK AO2 P0004 T00280011=
202004040624 SPECI KPAE 040624Z AUTO 18005KT 5SM -RA BR SCT013 OVC017 03/02 A2998 RMK AO2 P0002 T00280017=
202004040610 SPECI KPAE 040610Z AUTO 16007KT 9SM -RA FEW005 BKN012 OVC025 03/02 A2999 RMK AO2 P0001 T00280017=
202004040553 METAR KPAE 040553Z AUTO 16007KT 9SM -RA FEW005 SCT020 OVC029 03/02 A2999 RMK AO2 RAB12 SLP158 P0001 60001 T00280017 10056 20028 56002=
202004040550 SPECI KPAE 040550Z AUTO 16007KT 10SM -RA FEW005 SCT018 OVC031 03/02 A2999 RMK AO2 RAB12 P0001=
202004040536 SPECI KPAE 040536Z AUTO 16006KT 10SM -RA FEW011 SCT020 OVC033 03/02 A2999 RMK AO2 RAB12 P0000 T00330017=
202004040453 METAR KPAE 040453Z AUTO 15006KT 10SM SCT014 OVC021 03/02 A2999 RMK AO2 SLP159 T00330017=
202004040400 SPECI KPAE 040400Z AUTO VRB03KT 10SM BKN018 BKN023 OVC030 04/02 A2999 RMK AO2 T00440017=
202004040353 METAR KPAE 040353Z 00000KT 10SM SCT011 BKN030 04/02 A2999 RMK AO2 RAE20 SLP160 P0000 T00440017=
202004040253 METAR KPAE 040253Z 34003KT 10SM -RA BKN065 OVC080 04/01 A3000 RMK AO2 RAB25 SLP162 P0000 60000 T00440011 57005=
202004040228 SPECI KPAE 040228Z 36005KT 9SM -RA SCT024 BKN032 OVC075 04/00 A3000 RMK AO2 RAB25 P0000 T00440000=
202004040214 SPECI KPAE 040214Z 34007KT 10SM BKN024 BKN034 OVC060 04/01 A3000 RMK AO2 T00440006=
202004040153 METAR KPAE 040153Z 36006KT 10SM SCT022 BKN032 OVC055 06/01 A3000 RMK AO2 SLP162 T00560006=
202004040053 METAR KPAE 040053Z VRB05KT 10SM FEW034 OVC070 06/01 A3001 RMK AO2 SLP165 T00560006=
202004032353 METAR KPAE 032353Z 35005KT 10SM OVC055 05/01 A3001 RMK AO2 RAB17E28 SLP167 P0000 60003 T00500006 10067 20039 58007=
202004032253 METAR KPAE 032253Z AUTO 01006KT 10SM OVC048 06/01 A3002 RMK AO2 RAB2158E13 SLP169 P0000 T00560006=
202004032153 METAR KPAE 032153Z 35009KT 10SM FEW016 FEW026 OVC036 05/02 A3003 RMK AO2 RAE12B27E40 SLP173 P0002 T00500017=
202004032121 SPECI KPAE 032121Z 00000KT 10SM FEW028 BKN034 OVC045 05/02 A3003 RMK AO2 RAE12 P0001 T00500017=
202004032053 METAR KPAE 032053Z 22006KT 4SM -RA BKN025 OVC033 05/01 A3003 RMK AO2 RAB30 SLP175 P0001 60001 T00500011 56012=
202004031955 SPECI KPAE 031955Z 27005KT 10SM SCT031 BKN055 OVC070 06/01 A3004 RMK AO2 T00610011=
202004031953 METAR KPAE 031953Z 27003KT 10SM BKN022 BKN034 OVC080 06/01 A3004 RMK AO2 SLP177 T00610011=
202004031853 METAR KPAE 031853Z 25008KT 10SM BKN022 OVC085 06/02 A3005 RMK AO2 SLP181 T00610017=
202004031753 METAR KPAE 031753Z 20011KT 10SM FEW018 SCT023 OVC065 06/01 A3007 RMK AO2 SLP186 T00560011 10056 20028 56008=
202004031653 METAR KPAE 031653Z 19009KT 10SM BKN019 OVC075 05/01 A3007 RMK AO2 SLP187 T00500011=
202004031553 METAR KPAE 031553Z 20008KT 10SM OVC014 04/02 A3008 RMK AO2 SLP192 T00390017=
202004031526 SPECI KPAE 031526Z 20007KT 10SM SCT010 BKN014 OVC019 03/01 A3009 RMK AO2 T00330011=
202004031453 METAR KPAE 031453Z 20010KT 10SM BKN018 BKN024 OVC070 03/01 A3009 RMK AO2 SLP194 T00330011 55008=
202004031353 METAR KPAE 031353Z 18012KT 10SM OVC075 03/01 A3009 RMK AO2 SLP192 T00330011=
202004031253 METAR KPAE 031253Z AUTO 19009KT 10SM OVC060 03/01 A3010 RMK AO2 SLP197 T00330006=
202004031202 SPECI KPAE 031202Z AUTO 18011KT 10SM FEW019 BKN048 OVC070 03/01 A3011 RMK AO2 T00280011=
202004031153 METAR KPAE 031153Z AUTO 18007KT 10SM FEW021 BKN028 OVC065 03/01 A3012 RMK AO2 RAB36E48 SLP202 P0000 60003 70020 T00280011 10033 20028 58006=
202004031131 SPECI KPAE 031131Z AUTO 19009KT 10SM FEW009 SCT041 OVC065 03/01 A3012 RMK AO2 T00280011=
202004031104 SPECI KPAE 031104Z AUTO 19010KT 10SM BKN009 BKN036 BKN065 03/01 A3012 RMK AO2 T00280011=
202004031053 METAR KPAE 031053Z AUTO 18010KT 10SM FEW011 BKN038 OVC070 03/01 A3012 RMK AO2 SLP204 T00280006=
202004030953 METAR KPAE 030953Z AUTO 12004KT 10SM FEW021 FEW026 OVC033 03/02 A3013 RMK AO2 SLP208 T00280017=
202004030950 SPECI KPAE 030950Z AUTO VRB03KT 10SM FEW021 SCT028 OVC035 03/02 A3013 RMK AO2=
202004030853 METAR KPAE 030853Z AUTO 10005KT 10SM FEW018 OVC026 03/02 A3015 RMK AO2 SLP213 60003 T00280017 58004=
202004030821 SPECI KPAE 030821Z AUTO 10004KT 10SM BKN022 BKN027 OVC070 03/02 A3015 RMK AO2 T00330017=
202004030753 METAR KPAE 030753Z AUTO 10004KT 10SM SCT020 OVC041 03/02 A3016 RMK AO2 RAE13 SLP216 P0000 T00330017 400780028=
202004030748 SPECI KPAE 030748Z AUTO 07005KT 10SM SCT022 OVC041 03/02 A3016 RMK AO2 RAE13 P0000=
202004030731 SPECI KPAE 030731Z AUTO 10004KT 10SM FEW022 BKN027 OVC042 03/02 A3016 RMK AO2 RAE13 P0000 T00330017=
202004030653 METAR KPAE 030653Z AUTO 06004KT 10SM -RA SCT024 OVC039 03/02 A3016 RMK AO2 SLP217 P0003 T00330017=
202004030553 METAR KPAE 030553Z AUTO 11006KT 8SM -RA FEW010 FEW016 OVC026 03/02 A3016 RMK AO2 SLP218 P0008 60017 T00330017 10061 20033 51005=
202004030543 SPECI KPAE 030543Z AUTO 11006KT 7SM -RA FEW005 BKN017 OVC025 03/02 A3017 RMK AO2 P0007 T00330022=
202004030531 SPECI KPAE 030531Z AUTO 09003KT 5SM -RA BR SCT007 BKN012 OVC029 03/02 A3017 RMK AO2 P0007 T00330017=
202004030521 SPECI KPAE 030521Z AUTO 11003KT 3SM RA BR BKN005 OVC014 03/02 A3017 RMK AO2 P0006 T00330017=
202004030506 SPECI KPAE 030506Z AUTO 12003KT 4SM RA BR FEW007 BKN014 OVC019 04/02 A3016 RMK AO2 P0002 T00390022=
202004030453 METAR KPAE 030453Z AUTO 04004KT 9SM -RA OVC018 04/02 A3016 RMK AO2 SLP217 P0007 T00390022=
202004030353 METAR KPAE 030353Z AUTO 31008KT 10SM -RA SCT021 OVC029 04/01 A3017 RMK AO2 RAE0255B46 SLP220 P0001 T00390011=
202004030300 SPECI KPAE 030300Z 34004KT 10SM BKN025 BKN030 OVC060 05/02 A3015 RMK AO2 RAE0255 P0000 T00500022=
202004030253 METAR KPAE 030253Z 35003KT 10SM -RA BKN031 OVC037 05/02 A3015 RMK AO2 RAB24 SLP214 P0001 60001 T00500022 56002=
202004030153 METAR KPAE 030153Z 34004KT 10SM BKN039 BKN047 OVC075 06/02 A3015 RMK AO2 SLP214 T00560022=
202004030053 METAR KPAE 030053Z 34006KT 10SM BKN047 BKN055 OVC070 06/03 A3015 RMK AO2 RAB05E14 SLP214 P0000 T00610028=
202004022353 METAR KPAE 022353Z 34005KT 10SM FEW039 BKN060 OVC080 06/02 A3016 RMK AO2 SLP216 60000 T00610022 10078 20050 58001=
202004022253 METAR KPAE 022253Z 28005KT 10SM SCT070 BKN085 07/02 A3016 RMK AO2 SLP216 T00720022=
202004022153 METAR KPAE 022153Z VRB05KT 10SM OVC080 07/03 A3016 RMK AO2 RAB10E32 SLP217 P0000 T00670028=
202004022053 METAR KPAE 022053Z 24010KT 10SM FEW032 BKN039 OVC060 07/01 A3016 RMK AO2 SLP217 T00720006 56006=
202004021953 METAR KPAE 021953Z 20010KT 10SM SCT022 SCT031 07/02 A3016 RMK AO2 SLP218 T00670022=
202004021940 SPECI KPAE 021940Z 26004KT 10SM SCT021 BKN030 BKN035 06/03 A3017 RMK AO2 T00610028=
202004021853 METAR KPAE 021853Z 24004KT 10SM BKN017 BKN022 OVC030 06/02 A3017 RMK AO2 SLP221 T00560022=
202004021753 METAR KPAE 021753Z 16007KT 10SM SCT016 OVC021 06/02 A3018 RMK AO2 RAB07E31 SLP223 P0000 60000 T00560022 10056 20028 51003=
202004021716 SPECI KPAE 021716Z VRB04KT 10SM -RA FEW017 BKN026 OVC031 05/02 A3018 RMK AO2 RAB07 P0000 T00500017=
202004021653 METAR KPAE 021653Z 11005KT 10SM OVC031 05/02 A3018 RMK AO2 SLP222 T00500017=
202004021553 METAR KPAE 021553Z 15006KT 10SM BKN048 OVC055 03/01 A3018 RMK AO2 RAB27E47 SLP223 P0000 T00330011=
202004021453 METAR KPAE 021453Z 15004KT 10SM FEW044 BKN055 OVC070 03/01 A3017 RMK AO2 SLP220 T00280006 51004=
202004021353 METAR KPAE 021353Z 00000KT 10SM OVC044 03/01 A3017 RMK AO2 SLP219 T00280006=
202004021253 METAR KPAE 021253Z AUTO VRB03KT 10SM FEW044 BKN065 OVC085 03/01 A3016 RMK AO2 SLP218 T00280011=
202004021153 METAR KPAE 021153Z AUTO 11004KT 10SM BKN047 OVC060 03/01 A3016 RMK AO2 SLP215 70006 T00330006 10044 20022 51004=
202004021053 METAR KPAE 021053Z AUTO 00000KT 10SM BKN060 OVC080 04/01 A3015 RMK AO2 SLP214 T00390006=
202004020953 METAR KPAE 020953Z AUTO 17003KT 10SM FEW060 OVC085 04/M01 A3015 RMK AO2 SLP212 T00391006=
202004020853 METAR KPAE 020853Z AUTO 17003KT 10SM BKN065 OVC080 04/M01 A3015 RMK AO2 SLP211 T00391011 53009=
202004020753 METAR KPAE 020753Z AUTO 00000KT 10SM OVC070 04/M01 A3014 RMK AO2 SLP209 T00391011 400830022=
202004020653 METAR KPAE 020653Z AUTO 32003KT 10SM FEW070 03/M02 A3012 RMK AO2 SLP204 T00281017=
202004020553 METAR KPAE 020553Z AUTO 00000KT 10SM CLR 03/M02 A3012 RMK AO2 SLP203 T00331017 10083 20028 51006=
202004020453 METAR KPAE 020453Z AUTO VRB03KT 10SM CLR 04/M02 A3012 RMK AO2 SLP202 T00441017=
202004020353 METAR KPAE 020353Z AUTO 30004KT 10SM CLR 04/M01 A3011 RMK AO2 SLP199 T00441006=
202004020253 METAR KPAE 020253Z 30005KT 10SM CLR 06/00 A3010 RMK AO2 SLP197 T00560000 53007=
202004020153 METAR KPAE 020153Z VRB06KT 10SM CLR 07/M01 A3009 RMK AO2 SLP192 T00721006=
202004020053 METAR KPAE 020053Z 34006KT 10SM CLR 08/M01 A3008 RMK AO2 SLP190 T00831006=
202004012353 METAR KPAE 012353Z 35010KT 10SM CLR 08/02 A3008 RMK AO2 SLP188 T00830017 10083 20050 50001=
202004012253 METAR KPAE 012253Z 36009KT 10SM FEW030 08/03 A3008 RMK AO2 SLP188 T00780028=
202004012153 METAR KPAE 012153Z 34010G16KT 10SM SCT027 08/02 A3007 RMK AO2 SLP187 T00780022=
202004012118 SPECI KPAE 012118Z 34007KT 10SM SCT018 07/02 A3008 RMK AO2 T00670017=
202004012104 SPECI KPAE 012104Z 03006KT 10SM BKN018 BKN024 08/03 A3007 RMK AO2 T00780028=
202004012053 METAR KPAE 012053Z 28006KT 10SM SCT017 08/03 A3007 RMK AO2 SLP187 T00780028 55001=
202004011953 METAR KPAE 011953Z VRB06KT 10SM BKN014 07/03 A3007 RMK AO2 SLP187 T00720028=
202004011913 SPECI KPAE 011913Z 28006KT 10SM BKN014 BKN029 BKN033 06/02 A3008 RMK AO2 T00610022=
202004011900 SPECI KPAE 011900Z 30005KT 10SM FEW012 SCT028 BKN034 06/02 A3008 RMK AO2 T00560022=
202004011853 METAR KPAE 011853Z 29006KT 10SM SCT006 BKN016 OVC028 06/03 A3008 RMK AO2 SLP189 T00610028=
202004011759 SPECI KPAE 011759Z 00000KT 10SM SCT006 BKN016 OVC028 05/03 A3008 RMK AO2 T00500028=
202004011753 METAR KPAE 011753Z 00000KT 10SM BKN006 BKN023 OVC028 05/03 A3008 RMK AO2 RAE49 SLP190 P0001 60006 T00500033 10050 20033 53008=
202004011653 METAR KPAE 011653Z 32003KT 10SM -RA BKN006 BKN011 04/03 A3007 RMK AO2 RAB23 SLP187 P0002 T00440028 $=
202004011553 METAR KPAE 011553Z 15003KT 10SM BKN006 BKN011 04/02 A3006 RMK AO2 SLP184 T00440022 $=
202004011453 METAR KPAE 011453Z 12004KT 10SM BKN018 OVC029 03/02 A3005 RMK AO2 SLP181 60003 T00330022 53005 $=
202004011444 SPECI KPAE 011444Z VRB03KT 10SM OVC016 03/03 A3005 RMK AO2 T00330028 $=
202004011421 SPECI KPAE 011421Z 12004KT 10SM BKN013 OVC025 03/02 A3005 RMK AO2 T00330022 $=
202004011353 METAR KPAE 011353Z AUTO VRB03KT 10SM SCT014 BKN028 OVC070 03/02 A3004 RMK AO2 RAE10 SLP176 P0001 T00330022 $=
202004011345 SPECI KPAE 011345Z AUTO VRB03KT 10SM SCT014 BKN028 OVC036 03/02 A3004 RMK AO2 RAE10 P0001 T00330022 $=
202004011334 SPECI KPAE 011334Z AUTO 00000KT 10SM BKN013 BKN027 OVC036 03/02 A3004 RMK AO2 RAE10 P0001 T00330022 $=
202004011314 SPECI KPAE 011314Z AUTO VRB03KT 10SM FEW025 OVC032 03/03 A3004 RMK AO2 RAE10 P0001 T00330028 $=
202004011253 METAR KPAE 011253Z AUTO 14004KT 4SM -RA BR FEW009 BKN015 OVC024 03/02 A3004 RMK AO2 RAB17 SLP175 P0002 T00330022 $=
202004011251 SPECI KPAE 011251Z AUTO 14005KT 4SM -RA BR FEW009 BKN015 OVC024 03/02 A3004 RMK AO2 RAB17 P0002 $=
202004011239 SPECI KPAE 011239Z AUTO 15004KT 6SM -RA BR SCT005 BKN014 OVC021 03/03 A3004 RMK AO2 RAB17 P0001 T00330028 $=
202004011230 SPECI KPAE 011230Z AUTO VRB03KT 6SM -RA BR FEW005 BKN022 OVC033 03/03 A3004 RMK AO2 RAB17 P0001 T00330028 $=
202004011214 SPECI KPAE 011214Z AUTO VRB03KT 9SM FEW006 SCT026 OVC033 03/03 A3003 RMK AO2 T00330028 $=
202004011153 METAR KPAE 011153Z AUTO 00000KT 10SM FEW006 OVC024 04/03 A3003 RMK AO2 SLP174 70024 T00390028 10039 20028 55001 $=
202004011102 SPECI KPAE 011102Z AUTO 15004KT 9SM FEW004 BKN024 OVC032 04/03 A3003 RMK AO2 T00390028 $=
202004011053 METAR KPAE 011053Z AUTO 15006KT 8SM BKN006 OVC032 04/03 A3003 RMK AO2 SLP173 T00390028 $=
202004010953 METAR KPAE 010953Z AUTO 15005KT 10SM BKN006 OVC012 04/03 A3003 RMK AO2 CIG 005V009 SLP172 T00390028 $=
202004010943 SPECI KPAE 010943Z AUTO 16006KT 10SM BKN006 OVC012 04/03 A3003 RMK AO2 T00390028 $=
202004010922 SPECI KPAE 010922Z AUTO 15007KT 10SM OVC010 04/03 A3003 RMK AO2 CIG 005V013 T00390028 $=
202004010853 METAR KPAE 010853Z AUTO 15007KT 10SM BKN007 OVC013 04/03 A3004 RMK AO2 CIG 005V012 SLP174 T00390028 56002 $=
202004010824 SPECI KPAE 010824Z AUTO 15006KT 10SM FEW004 OVC011 03/03 A3003 RMK AO2 T00330028 $=
202004010753 METAR KPAE 010753Z AUTO 15006KT 10SM BKN011 BKN016 OVC021 03/03 A3004 RMK AO2 SLP175 T00330028 400890022 $=
202004010723 SPECI KPAE 010723Z AUTO 15006KT 10SM BKN014 OVC025 03/03 A3004 RMK AO2 T00330028 $=
202004010653 METAR KPAE 010653Z AUTO 16008KT 10SM FEW017 OVC024 03/02 A3003 RMK AO2 SLP174 T00330022 $=
202004010553 METAR KPAE 010553Z AUTO 14005KT 10SM BKN024 OVC060 03/02 A3004 RMK AO2 SLP178 60009 T00280017 10056 20022 51010 $=
202004010544 SPECI KPAE 010544Z AUTO VRB03KT 10SM BKN024 OVC060 03/02 A3004 RMK AO2 T00280017 $=
202004010453 METAR KPAE 010453Z AUTO VRB03KT 10SM OVC075 03/02 A3004 RMK AO2 SLP177 T00280017 $=
202004010353 METAR KPAE 010353Z AUTO 11005KT 10SM OVC070 03/02 A3003 RMK AO2 SLP175 T00330022 $=
202004010253 METAR KPAE 010253Z 15005KT 10SM BKN050 BKN075 OVC100 04/02 A3001 RMK AO2 RAE40 SLP168 P0001 60009 T00390022 58001=
202004010230 SPECI KPAE 010230Z 15016KT 10SM -RA OVC036 04/03 A3001 RMK AO2 P0001 T00440028=
202004010219 SPECI KPAE 010219Z 15013KT 10SM -RA OVC027 04/03 A3002 RMK AO2 P0001 T00440028=
202004010153 METAR KPAE 010153Z 17004KT 10SM -RA OVC038 05/02 A3002 RMK AO2 SLP170 P0001 T00500022=
202004010103 SPECI KPAE 010103Z 29004KT 10SM -RA BKN032 OVC044 05/02 A3002 RMK AO2 P0000 T00500017=
202004010053 METAR KPAE 010053Z 24003KT 8SM VCTS -RA BKN024 OVC044 05/02 A3002 RMK AO2 SLP170 P0007 T00500017=

# No short TAF reports from KPAE in databse.

###################################
#  large TAF from KPAE
###################################
202004302337 TAF KPAE 302337Z 0100/0124 21012KT P6SM SCT030 BKN050 FM010400
                       19005KT P6SM SCT030 BKN050 FM011400 15006KT
                       P6SM BKN060 FM011800 21009G19KT P6SM OVC250=
202004301729 TAF KPAE 301729Z 3018/0118 18010KT P6SM SCT020 BKN030 BKN060 FM302100
                       21012KT P6SM SCT030 BKN050 FM010400 19005KT
                       P6SM SCT030 BKN050 FM011400 15006KT P6SM
                       SCT060 BKN200=
202004301134 TAF KPAE 301134Z 3012/0112 18010KT P6SM BKN015 BKN030
                      TEMPO 3012/3016 -SHRA FM301600 18010KT P6SM
                       SCT015 BKN030 BKN060 FM301900 18008KT P6SM
                       SCT030 BKN050 FM010900 15006KT P6SM SCT060
                       BKN200=
202004300536 TAF KPAE 300536Z 3006/0106 18014KT P6SM SCT015 BKN080
                      TEMPO 3006/3009 BKN015 OVC080 FM301100 18010KT
                       P6SM SCT012 BKN020 OVC035 FM301800 18010KT
                       P6SM SCT020 BKN035 BKN050 FM302300 18008KT
                       P6SM SCT030 BKN050=
202004292337 TAF KPAE 292337Z 3000/3024 18012KT P6SM SCT050 BKN070 OVC120 FM300200
                       18014G20KT P6SM -RA SCT025 OVC040 FM300600
                       18012KT P6SM SCT015 OVC020 FM301500 18009KT
                       P6SM OVC050=
202004291734 TAF KPAE 291734Z 2918/3018 34004KT P6SM BKN100 BKN150 FM291900
                       18008KT P6SM BKN070 OVC120 FM300100 18014G20KT
                       P6SM -RA SCT025 OVC040 FM300600 18012KT
                       P6SM SCT015 OVC020=
202004291132 TAF KPAE 291132Z 2912/3012 34006KT P6SM BKN100 BKN150 FM291900
                       18008KT P6SM BKN070 OVC120 FM300100 18014G20KT
                       P6SM -RA SCT025 OVC040 FM300600 18012KT
                       P6SM SCT012 BKN022 OVC035=
202004290540 TAF KPAE 290540Z 2906/3006 VRB03KT P6SM BKN100 BKN200 FM291900
                       18008KT P6SM BKN070 OVC120 FM300400 18012KT
                       P6SM -RA SCT025 OVC040=
202004282332 TAF KPAE 282332Z 2900/2924 35008KT P6SM OVC090 FM290500 04004KT
                       P6SM OVC070 FM292100 19015G22KT P6SM OVC050=
202004281720 TAF KPAE 281720Z 2818/2918 VRB03KT P6SM BKN200 FM290000 35008KT
                       P6SM OVC070 FM290500 VRB03KT P6SM SCT070
                       BKN200 FM291500 17005KT P6SM OVC090=
202004281130 TAF KPAE 281130Z 2812/2912 14006KT P6SM SCT004 BKN200 FM281500
                       VRB03KT P6SM BKN200 FM282100 34008KT P6SM
                       OVC070 FM291000 VRB03KT P6SM SCT070 BKN200=
202004280540 TAF KPAE 280540Z 2806/2906 01006KT P6SM BKN035 OVC050 FM281000
                       VRB03KT P6SM SCT035 BKN050 FM281200 VRB03KT
                       P6SM SCT050 BKN250 FM282100 34008KT P6SM
                       OVC090=
202004272337 TAF KPAE 272337Z 2800/2824 21014G22KT P6SM -SHRA BKN030 OVC050
                       FM280400 19006KT P6SM OVC050 FM280900 14005KT
                       P6SM BKN250 FM281900 24005KT P6SM OVC090=
202004271726 TAF KPAE 271726Z 2718/2818 20013KT P6SM BKN020 FM271900 21014G22KT
                       P6SM OVC050 FM280400 21006KT P6SM OVC050
                       FM280900 14005KT P6SM BKN250=
202004271141 TAF KPAE 271141Z 2712/2812 18020KT 4SM -RA BR BKN009 OVC015 FM271600
                       18012KT P6SM OVC015 FM271800 20013KT P6SM
                       OVC050 FM272300 29014G20KT P6SM OVC050 FM280400
                       21006KT P6SM OVC050=
202004270832 KPAE 270832Z 2709/2806 15014KT 4SM -RA BR SCT010 BKN020 OVC025
                       FM271400 18012KT P6SM BKN015 OVC020 FM271800
                       20013KT P6SM OVC050 FM272300 32014G21KT
                       P6SM OVC050 FM280400 21010KT P6SM OVC050=
202004270544 TAF KPAE 270544Z 2706/2806 20013G21KT P6SM SCT060 OVC080 FM270900
                       17017G24KT P6SM -RA OVC020 FM271400 18012KT
                       P6SM OVC025 FM271800 20013KT P6SM OVC050
                       FM272300 32014G21KT P6SM OVC050 FM280400
                       21010KT P6SM OVC050=
202004262321 TAF KPAE 262321Z 2700/2724 19011KT P6SM BKN080 FM270200 19011KT
                       P6SM OVC250 FM270600 18016G24KT P6SM -RA
                       OVC050 FM271100 17019KT P6SM -RA OVC020=
202004261725 TAF KPAE 261725Z 2618/2718 17010KT P6SM SCT045 FM262000 20011KT
                       P6SM OVC250 FM270200 19011KT P6SM OVC080
                       FM270600 18016G24KT P6SM -RA OVC050 FM270900
                       17019KT P6SM -RA OVC035=
202004261133 TAF KPAE 261133Z 2612/2712 15005KT P6SM SCT015 OVC025 FM261700
                       17010KT P6SM OVC050 FM270200 19011KT P6SM
                       OVC080 FM270500 18016G24KT P6SM OVC050 FM270800
                       17019G25KT P6SM -RA OVC035=
202004260543 TAF KPAE 260543Z 2606/2706 18006KT P6SM OVC050 FM261200 17007KT
                       P6SM OVC015 FM261700 17010KT P6SM OVC050
                       FM270200 19011KT P6SM OVC080=
202004252321 TAF KPAE 252321Z 2600/2624 20021G27KT P6SM BKN090 FM260300 20010KT
                       P6SM OVC050 FM260900 17012KT P6SM OVC050=
202004251721 TAF KPAE 251721Z 2518/2618 15010KT 5SM -RA BR BKN004 OVC060 FM251900
                       17015G25KT 4SM -RA BR OVC010 FM252100 21013G21KT
                       4SM BR OVC035 FM260400 19010KT P6SM OVC050=
202004251130 TAF KPAE 251130Z 2512/2612 15009KT P6SM SCT015 BKN060 FM251500
                       16016G23KT 4SM -RA BR OVC025 FM260000 26011G18KT
                       P6SM BKN050 FM260400 19010KT P6SM OVC050
                       FM261000 17006KT P6SM OVC025=
202004250910 KPAE 250910Z 2509/2606 17011KT P6SM BKN015 BKN060 FM251700 16016G23KT
                       4SM -RA BR OVC025 FM260000 26011G18KT P6SM
                       BKN050 FM260400 19010KT P6SM OVC050=
202004250537 TAF KPAE 250537Z 2506/2606 21006KT P6SM SCT040 OVC060 FM250900
                       17011KT P6SM OVC050 FM251700 16016G23KT
                       4SM -RA BR OVC025 FM260000 26011G18KT P6SM
                       BKN050 FM260400 19010KT P6SM OVC050=
202004242320 TAF KPAE 242320Z 2500/2524 21006KT P6SM OVC045 FM250900 17011KT
                       P6SM OVC050 FM251700 17011G23KT P6SM OVC030=
202004241721 TAF KPAE 241721Z 2418/2518 10005KT P6SM SCT014 BKN120 FM241900
                       19006KT P6SM OVC050 FM250700 17011KT P6SM
                       OVC050=
202004241323 KPAE 241323Z 2413/2512 VRB03KT P6SM BKN040 FM241700 24005KT P6SM
                       OVC050 FM250700 17011KT P6SM OVC050=
202004241158 KPAE 241158Z 2412/2512 VRB03KT P6SM BKN009 OVC040 FM241700 24005KT
                       P6SM OVC050 FM250700 17011KT P6SM OVC050=
202004241138 TAF KPAE 241138Z 2412/2512 VRB03KT P6SM BKN014 OVC040 FM241900
                       24005KT P6SM OVC050 FM250700 17011KT P6SM
                       OVC050=
202004240530 TAF KPAE 240530Z 2406/2506 03007KT P6SM OVC035 FM241000 15004KT
                       P6SM OVC025 FM241900 24005KT P6SM OVC050=
202004232339 TAF KPAE 232339Z 2400/2424 30006KT P6SM VCSH BKN025 OVC050 FM240300
                       03007KT P6SM OVC035 FM241000 15004KT P6SM
                       OVC025 FM241900 24005KT P6SM OVC050=
202004231739 TAF KPAE 231739Z 2318/2418 VRB04KT 6SM BR BKN004 OVC007 FM232000
                       29005KT P6SM BKN015 OVC025 FM232300 30006KT
                       P6SM SCT025 OVC050 FM240300 36007KT P6SM
                       OVC010=
202004231248 KPAE 231248Z 2313/2412 VRB04KT 6SM -RA BR BKN009 BKN035 FM231900
                       29005KT P6SM BKN015 OVC030 FM232300 30006KT
                       P6SM SCT025 OVC050 FM240300 36007KT P6SM
                       OVC003=
202004231125 TAF KPAE 231125Z 2312/2412 VRB04KT 6SM -RA BR SCT005 BKN035 FM231900
                       29005KT P6SM BKN015 OVC030 FM232300 30006KT
                       P6SM SCT025 OVC050 FM240300 36007KT P6SM
                       OVC003=
202004230527 TAF KPAE 230527Z 2306/2406 VRB04KT 2SM -RA BR OVC004 FM231100 18005KT
                       1SM -RA BR OVC002 FM231600 22007KT 6SM BR
                       OVC003 FM231900 29005KT P6SM BKN015 OVC030
                       FM232300 30006KT P6SM SCT025 OVC050 FM240300
                       36007KT P6SM OVC003=
202004230316 KPAE 230316Z 2303/2324 VRB04KT 2SM -RA BR BKN003 OVC012 FM231900
                       29005KT P6SM BKN015 OVC030 FM232300 30006KT
                       P6SM SCT025 OVC050=
202004222335 TAF KPAE 222335Z 2300/2324 19008KT P6SM -SHRA BKN008 OVC015 FM231900
                       29005KT P6SM OVC025=
202004221734 TAF KPAE 221734Z 2218/2318 15008KT 5SM -RA SCT012 OVC020 FM222000
                       15008KT 3SM -RA SCT004 BKN008 OVC015 FM230000
                       18008KT P6SM -SHRA SCT008 OVC015=
202004221136 TAF KPAE 221136Z 2212/2312 15008KT P6SM SCT025 BKN050 OVC080
                      TEMPO 2212/2214 BKN025 OVC050 FM221500 15008KT
                       P6SM -RA OVC045 FM221800 15008KT P6SM -RA
                       SCT012 OVC020 FM222000 15008KT 3SM -RA SCT004
                       BKN008 OVC015 FM230000 18008KT P6SM -SHRA
                       SCT008 OVC015=
202004220540 TAF KPAE 220540Z 2206/2306 11008KT P6SM SCT045 OVC100 FM221100
                       15008KT P6SM -RA OVC040 FM221500 15008KT
                       P6SM -RA SCT012 OVC020 FM221800 15008KT
                       3SM -RA SCT004 BKN008 OVC015 FM222200 18008KT
                       P6SM SCT010 OVC018=
202004212329 TAF KPAE 212329Z 2200/2224 17008KT P6SM SCT025 OVC035 FM221400
                       15009KT 5SM -RA BR OVC015 FM221800 18005KT
                       4SM -RA BR OVC009 FM222300 23004KT P6SM
                       OVC009=
202004211727 TAF KPAE 211727Z 2118/2218 17008KT 4SM BR SCT005 BKN009 OVC015
                       FM211900 17008KT P6SM BKN015 OVC040 FM212200
                       17008KT P6SM SCT025 BKN040 OVC080 FM221400
                       15009KT 5SM -RA BR OVC015=
202004211127 TAF KPAE 211127Z 2112/2212 17008KT P6SM OVC010 FM211900 17008KT
                       P6SM SCT015 BKN022 OVC040 FM212200 17008KT
                       P6SM SCT025 BKN040 OVC080=
202004210536 TAF KPAE 210536Z 2106/2206 36006KT P6SM BKN050 FM211300 20008KT
                       P6SM OVC015 FM211800 20008KT P6SM SCT015
                       BKN025 OVC040 FM212100 20008KT P6SM SCT025
                       BKN040 OVC080=
202004202320 TAF KPAE 202320Z 2100/2124 30006KT P6SM SKC FM210700 35005KT P6SM
                       OVC060 FM211200 20008KT P6SM OVC015=
202004201722 TAF KPAE 201722Z 2018/2118 24004KT P6SM SKC FM202000 30003KT P6SM
                       SKC FM210700 35005KT P6SM OVC060 FM211300
                       18008KT P6SM OVC015=
202004201126 TAF KPAE 201126Z 2012/2112 35004KT P6SM SKC FM211000 18008KT P6SM
                       OVC012=
202004200540 TAF KPAE 200540Z 2006/2106 36006KT P6SM SKC FM201200 00000KT P6SM
                       SCT002 FM201600 34006KT P6SM SKC=
202004192320 TAF KPAE 192320Z 2000/2024 VRB05KT P6SM FEW050 FM200800 00000KT
                       P6SM BKN030 FM201800 34006KT P6SM SCT040=
202004191720 TAF KPAE 191720Z 1918/2018 VRB04KT P6SM SCT025 BKN050
                      TEMPO 1918/1921 BKN020 OVC040 FM200200 34006KT
                       P6SM SCT050 FM200800 04004KT P6SM SCT020
                       BKN040=
202004191132 TAF KPAE 191132Z 1912/2012 VRB03KT P6SM BKN015 BKN030 FM191600
                       VRB03KT P6SM SCT020 BKN035 FM192100 32006KT
                       P6SM BKN045 FM200200 36004KT P6SM SKC=
202004190817 KPAE 190817Z 1908/2006 16006KT P6SM SCT035 FM191400 VRB04KT P6SM
                       BKN035 FM191900 30006KT P6SM SCT040=
202004190528 TAF KPAE 190528Z 1906/2006 16006KT P6SM OVC025 FM191800 VRB04KT
                       P6SM BKN035 FM192100 30006KT P6SM SCT040=
202004182320 TAF KPAE 182320Z 1900/1924 16006KT P6SM BKN035 FM191000 18006KT
                       P6SM OVC020 FM191800 VRB04KT P6SM BKN030
                       FM192100 30006KT P6SM SCT040=
202004181902 KPAE 181902Z 1819/1918 18007KT P6SM VCSH BKN015 BKN040 FM182000
                       18007KT P6SM BKN025 BKN040 FM182200 21008KT
                       P6SM SCT025 BKN040 FM191200 18006KT P6SM
                       OVC020 FM191700 VRB04KT P6SM BKN030=
202004181800 KPAE 181800Z 1818/1918 20006KT P6SM SCT006 OVC040
                      TEMPO 1818/1821 3SM -RA BR BKN006 OVC040
                       FM182200 21008KT P6SM SCT025 BKN040 FM191200
                       18006KT P6SM OVC020 FM191700 VRB04KT P6SM
                       BKN030=
202004181722 TAF KPAE 181722Z 1818/1918 20006KT P6SM SCT020 OVC040
                      TEMPO 1818/1821 3SM -RA BR BKN020 OVC040
                       FM182200 21008KT P6SM SCT025 BKN040 FM191200
                       18006KT P6SM OVC020 FM191700 VRB04KT P6SM
                       BKN030=
202004181513 KPAE 181513Z 1815/1912 VRB04KT 5SM -SHRA BR SCT015 OVC040
                      TEMPO 1815/1818 2SM SHRA BR BKN015 OVC040
                       FM181800 18008KT P6SM SCT025 BKN040 FM191000
                       18006KT P6SM BKN020 BKN040=
202004181136 TAF KPAE 181136Z 1812/1912 35006KT P6SM BKN100 OVC200 FM181800
                       18008KT P6SM SCT025 BKN040=
202004180527 TAF KPAE 180527Z 1806/1906 35006KT P6SM BKN100 OVC200 FM181300
                       18008KT P6SM OVC011 FM181800 18008KT P6SM
                       SCT012 BKN022 OVC040 FM182100 18008KT P6SM
                       SCT025 BKN040=
202004172320 TAF KPAE 172320Z 1800/1824 34006KT P6SM OVC120 FM180600 VRB03KT
                       P6SM BKN050 OVC100 FM181000 18007KT P6SM
                       VCSH BKN012 OVC040 FM181700 20007KT P6SM
                       SCT020 BKN040=
202004171720 TAF KPAE 171720Z 1718/1818 VRB04KT P6SM SCT200 FM180000 25007KT
                       P6SM BKN100 BKN200 FM180600 20007KT P6SM
                       BKN050 OVC100 FM181000 18007KT P6SM VCSH
                       BKN012 OVC040 FM181700 20007KT P6SM SCT020
                       BKN040=
202004171120 TAF KPAE 171120Z 1712/1812 11008KT P6SM SKC FM171700 24006KT P6SM
                       SCT200 FM172300 32005KT P6SM BKN200 FM180100
                       36005KT P6SM OVC120 FM180900 35002KT P6SM
                       OVC050=
202004170520 TAF KPAE 170520Z 1706/1806 01003KT P6SM SKC FM171700 24006KT P6SM
                       SCT200 FM172300 32005KT P6SM BKN200 FM180100
                       36005KT P6SM OVC120=
202004162320 TAF KPAE 162320Z 1700/1724 29006KT P6SM SKC FM170600 03003KT P6SM
                       SKC FM171700 24006KT P6SM SCT200 FM172300
                       30005KT P6SM BKN200=
202004161720 TAF KPAE 161720Z 1618/1718 VRB04KT P6SM SKC FM162200 31006KT P6SM
                       SKC FM170600 VRB03KT P6SM SKC=
202004161120 TAF KPAE 161120Z 1612/1712 VRB05KT P6SM SKC FM162000 31006KT P6SM
                       SKC FM170600 VRB03KT P6SM SKC=
202004160520 TAF KPAE 160520Z 1606/1706 VRB05KT P6SM SKC FM162000 28006KT P6SM
                       SKC=
202004152321 TAF KPAE 152321Z 1600/1624 36010KT P6SM SCT200 FM160500 02008KT
                       P6SM SKC FM161100 VRB04KT P6SM SKC FM162000
                       27006KT P6SM SKC=
202004151726 TAF KPAE 151726Z 1518/1618 30006KT P6SM SCT025 SCT200
                      TEMPO 1518/1520 BKN020 FM152000 34009KT P6SM
                       SCT030 SCT200 FM160500 VRB04KT P6SM SKC=
202004151127 TAF KPAE 151127Z 1512/1612 16008KT P6SM OVC011 FM151800 36006KT
                       P6SM SCT030 SCT200 FM152000 35010G17KT P6SM
                       SCT200 FM160300 VRB05KT P6SM SKC=
202004150758 KPAE 150758Z 1508/1606 19009KT P6SM OVC015 FM151800 36006KT P6SM
                       SCT030 SCT200 FM160300 34006KT P6SM SKC=
202004150525 TAF KPAE 150525Z 1506/1606 VRB02KT P6SM OVC070 FM151000 VRB03KT
                       P6SM BKN035 FM151200 36004KT P6SM BKN022
                       FM151800 36006KT P6SM SCT030 SCT200 FM160300
                       34006KT P6SM SKC=
202004142330 TAF KPAE 142330Z 1500/1524 23007KT P6SM SCT120 BKN200 FM150600
                       04004KT P6SM BKN120 BKN200 FM151000 VRB03KT
                       P6SM BKN035 BKN120 FM151400 36004KT P6SM
                       BKN022 FM151800 36006KT P6SM SCT030 SCT200=
202004141732 TAF KPAE 141732Z 1418/1518 18008KT P6SM SCT200 FM142300 23005KT
                       P6SM SCT120 BKN200 FM150600 04004KT P6SM
                       BKN120 BKN200 FM151000 VRB03KT P6SM OVC050=
202004141126 TAF KPAE 141126Z 1412/1512 VRB04KT P6SM SCT100 FM141900 27006KT
                       P6SM SCT200 FM150300 36004KT P6SM OVC100
                       FM151000 VRB03KT P6SM OVC050=
202004140520 TAF KPAE 140520Z 1406/1506 VRB04KT P6SM SCT100 FM141900 27006KT
                       P6SM SCT200 FM150300 36004KT P6SM OVC100=
202004132335 TAF KPAE 132335Z 1400/1424 36006KT P6SM SCT200 FM140400 03005KT
                       P6SM SCT200 FM141200 VRB03KT P6SM SCT200
                       FM141900 24006KT P6SM SCT200=
202004131744 TAF KPAE 131744Z 1318/1418 32006KT P6SM SKC FM140400 34005KT P6SM
                       SCT200 FM141200 VRB03KT P6SM SCT200=
202004131120 TAF KPAE 131120Z 1312/1412 32004KT P6SM SKC FM131700 32006KT P6SM
                       SKC FM140400 VRB03KT P6SM SKC=
202004130520 TAF KPAE 130520Z 1306/1406 32004KT P6SM SKC FM131700 32006KT P6SM
                       SKC FM140400 VRB03KT P6SM SKC=
202004122330 TAF KPAE 122330Z 1300/1324 34010KT P6SM SKC=
202004121735 TAF KPAE 121735Z 1218/1318 36008KT P6SM SKC=
202004121120 TAF KPAE 121120Z 1212/1312 01005KT P6SM SKC FM121600 34010KT P6SM
                       SKC FM130300 34005KT P6SM SKC=
202004120520 TAF KPAE 120520Z 1206/1306 01005KT P6SM SKC FM121600 34010KT P6SM
                       SKC FM130300 34005KT P6SM SKC=
202004120322 KPAE 120322Z 1203/1224 35007KT P6SM SKC FM120500 01008KT P6SM SKC=
202004112327 TAF KPAE 112327Z 1200/1224 34012G18KT P6SM SKC FM120500 01008KT
                       P6SM SKC=
202004111725 TAF KPAE 111725Z 1118/1218 28008KT P6SM BKN010 FM111900 34012KT
                       P6SM SKC FM120600 01008KT P6SM SKC=
202004111624 KPAE 111624Z 1116/1212 28008KT P6SM OVC007 FM111900 34012KT P6SM
                       SKC FM120300 35004KT P6SM SKC=
202004111120 TAF KPAE 111120Z 1112/1212 20008KT P6SM OVC012 FM111600 32008KT
                       P6SM BKN025 FM111900 34012KT P6SM SKC FM120300
                       35004KT P6SM SKC=
202004110810 KPAE 110810Z 1108/1206 02005KT P6SM BKN012 FM111000 20008KT P6SM
                       OVC012 FM111600 32008KT P6SM BKN025 FM111700
                       34012KT P6SM SKC=
202004110520 TAF KPAE 110520Z 1106/1206 VRB03KT P6SM BKN200 FM111000 20008KT
                       P6SM OVC011 FM111600 32008KT P6SM BKN025
                       FM111700 34012KT P6SM SKC=
202004102320 TAF KPAE 102320Z 1100/1124 32006KT P6SM BKN200 FM110500 VRB03KT
                       P6SM BKN200 FM111000 20008KT P6SM OVC011
                       FM111600 32008KT P6SM BKN025 FM111700 34012KT
                       P6SM SKC=
202004101735 TAF KPAE 101735Z 1018/1118 VRB03KT P6SM BKN200 FM102300 32006KT
                       P6SM SCT050 BKN100 FM110500 VRB03KT P6SM
                       BKN050 FM111100 20008KT P6SM OVC011 FM111700
                       32008KT P6SM BKN025=
202004101203 TAF KPAE 101203Z 1012/1112 01004KT P6SM FEW250 FM101800 30006KT
                       P6SM SCT100 BKN200 FM102100 30008KT P6SM
                       SCT050 BKN100=
202004100520 TAF KPAE 100520Z 1006/1106 01004KT P6SM FEW250 FM101800 30004KT
                       P6SM SCT100 BKN200 FM102100 27006KT P6SM
                       SCT050 BKN100=
202004092320 TAF KPAE 092320Z 1000/1024 33008KT P6SM SCT250 FM100300 01003KT
                       P6SM FEW250 FM101800 30004KT P6SM SCT100
                       BKN200 FM102100 27006KT P6SM SCT050 BKN100=
202004091720 TAF KPAE 091720Z 0918/1018 01005KT P6SM SKC FM091900 33008KT P6SM
                       SCT250 FM100300 01003KT P6SM FEW250=
202004091120 TAF KPAE 091120Z 0912/1012 VRB03KT P6SM SKC FM091700 33008KT P6SM
                       SCT250 FM100300 01003KT P6SM FEW250=
202004090605 TAF KPAE 090605Z 0906/1006 VRB03KT P6SM SKC FM091800 33005KT P6SM
                       SKC=
202004082320 TAF KPAE 082320Z 0900/0924 36007KT P6SM SCT200 FM090600 VRB03KT
                       P6SM SKC FM091800 33005KT P6SM SKC=
202004081720 TAF KPAE 081720Z 0818/0918 36007KT P6SM SCT200 FM090600 VRB03KT
                       P6SM SKC=
202004081120 TAF KPAE 081120Z 0812/0912 02004KT P6SM SKC FM081800 36007KT P6SM
                       SCT200 FM090600 VRB03KT P6SM SKC=
202004080520 TAF KPAE 080520Z 0806/0906 36003KT P6SM SKC FM081800 36007KT P6SM
                       SCT200=
202004072331 TAF KPAE 072331Z 0800/0824 34004KT P6SM SCT030 SCT200 FM080400
                       02004KT P6SM SCT200 FM081800 36007KT P6SM
                       SCT200=
202004071742 TAF KPAE 071742Z 0718/0818 21005KT P6SM BKN025
                      TEMPO 0718/0720 SCT025 SCT200 FM072000 32005KT
                       P6SM SCT030 SCT200 FM080300 01005KT P6SM
                       SCT200 FM080600 00000KT P6SM SKC=
202004071129 TAF KPAE 071129Z 0712/0812 36004KT P6SM SKC FM071300 16005KT P6SM
                       BKN025 FM071900 VRB05KT P6SM SCT030 SCT200
                       FM072300 33005KT P6SM SCT200 FM080600 00000KT
                       P6SM SKC=
202004070520 TAF KPAE 070520Z 0706/0806 01005KT P6SM FEW070 FM071300 16005KT
                       P6SM BKN025 FM071900 VRB05KT P6SM SCT030
                       SCT200 FM072300 33005KT P6SM SCT200=
202004062320 TAF KPAE 062320Z 0700/0724 33006KT P6SM SCT200 FM071300 16005KT
                       P6SM BKN025 FM071900 24005KT P6SM SCT030
                       SCT200 FM072300 31005KT P6SM SCT200=
202004061730 TAF KPAE 061730Z 0618/0718 33004KT P6SM SCT200 FM070000 36005KT
                       P6SM SCT200 FM071200 16005KT P6SM BKN025=
202004061120 TAF KPAE 061120Z 0612/0712 35005KT P6SM SKC FM061800 30004KT P6SM
                       SCT250 FM070000 33005KT P6SM BKN250=
202004060520 TAF KPAE 060520Z 0606/0706 35005KT P6SM BKN070 FM061800 29004KT
                       P6SM SCT070 FM070000 32005KT P6SM BKN250=
202004052322 TAF KPAE 052322Z 0600/0624 35010KT P6SM FEW050 OVC070 FM060300
                       35008KT P6SM BKN070 FM060900 36004KT P6SM
                       BKN070 FM061800 30004KT P6SM SCT070=
202004051722 TAF KPAE 051722Z 0518/0618 35008KT P6SM SCT050 BKN070 FM060900
                       35004KT P6SM BKN050=
202004051120 TAF KPAE 051120Z 0512/0612 VRB02KT P6SM OVC060 FM051800 VRB04KT
                       P6SM BKN050 FM052100 35005KT P6SM SCT050
                       BKN100=
202004050520 TAF KPAE 050520Z 0506/0606 35004KT P6SM OVC060 FM051800 03006KT
                       P6SM BKN050 FM052100 35007KT P6SM SCT050
                       BKN150=
202004042320 TAF KPAE 042320Z 0500/0524 35008KT P6SM FEW040 SCT070 BKN200 FM050300
                       35004KT P6SM OVC050 FM051800 03006KT P6SM
                       BKN050 FM052100 35007KT P6SM SCT050 BKN150=
202004041729 TAF KPAE 041729Z 0418/0518 34005KT P6SM FEW010 BKN060 BKN200 FM042000
                       36007KT P6SM SCT070 BKN200 FM050200 03004KT
                       P6SM OVC050=
202004041123 TAF KPAE 041123Z 0412/0512 VRB04KT P6SM FEW070 FM041800 36006KT
                       P6SM BKN150 FM050300 35003KT P6SM OVC050=
202004040521 TAF KPAE 040521Z 0406/0506 VRB04KT P6SM VCSH BKN020 FM040900 VRB04KT
                       P6SM SCT030 FM041800 36006KT P6SM SCT070
                       BKN150 FM050300 35003KT P6SM OVC030=
202004032320 TAF KPAE 032320Z 0400/0424 36008KT P6SM -SHRA SCT025 OVC050 FM040600
                       VRB04KT P6SM VCSH BKN030 BKN150 FM041200
                       11004KT P6SM SCT030 BKN150 FM041800 02006KT
                       P6SM SCT070 BKN150=
202004032107 KPAE 032107Z 0321/0418 22008KT P6SM -SHRA BKN030 BKN060
                      TEMPO 0321/0324 4SM -SHRA BKN025 FM040000
                       32008KT P6SM -SHRA OVC030 FM040900 06004KT
                       P6SM VCSH BKN030 BKN150 FM041200 01004KT
                       P6SM SCT030 BKN150=
202004031720 TAF KPAE 031720Z 0318/0418 20010KT P6SM VCSH SCT020 BKN060
                      TEMPO 0318/0319 BKN020 FM032100 22008KT P6SM
                       -SHRA BKN030 BKN060 FM040000 32008KT P6SM
                       -SHRA OVC030 FM040900 06004KT P6SM VCSH
                       BKN030 BKN150 FM041200 01004KT P6SM SCT030
                       BKN150=
202004031142 TAF KPAE 031142Z 0312/0412 19010KT P6SM FEW009 BKN035 FM031300
                       18010KT P6SM OVC010 FM031900 20010KT P6SM
                       VCSH BKN040=
202004030521 TAF KPAE 030521Z 0306/0406 12003KT 4SM RA BR FEW007 BKN015 OVC020
                       FM030900 17006KT P6SM SCT045 FM031900 20010KT
                       P6SM VCSH BKN040=
202004022342 TAF KPAE 022342Z 0300/0324 24010KT P6SM -SHRA SCT035 BKN050 FM030700
                       17006KT P6SM SCT035 SCT050 FM031900 20010KT
                       P6SM VCSH BKN040=
202004022150 KPAE 022150Z 0222/0318 24010KT P6SM VCSH FEW030 BKN040 OVC060 FM030700
                       17006KT P6SM SCT050 FM031200 18010KT P6SM
                       BKN020=
202004021720 TAF KPAE 021720Z 0218/0318 18007KT P6SM VCSH BKN030
                      TEMPO 0218/0220 -SHRA FM022200 34008KT P6SM
                       VCSH BKN040 FM030700 17006KT P6SM SCT050
                       FM031200 18010KT P6SM BKN020=
202004021125 TAF KPAE 021125Z 0212/0312 VRB04KT P6SM VCSH BKN070 FM021800 18007KT
                       P6SM VCSH BKN070 FM022200 34008KT P6SM VCSH
                       BKN050 FM030700 31006KT P6SM SCT050=
202004020858 KPAE 020858Z 0209/0306 VRB04KT P6SM OVC070 FM021400 VRB03KT P6SM
                       BKN025 FM021800 18005KT P6SM BKN030 FM022100
                       23006KT P6SM SCT040=
202004020524 TAF KPAE 020524Z 0206/0306 VRB04KT P6SM FEW040 FM021200 VRB03KT
                       P6SM BKN025 FM021800 18005KT P6SM BKN030
                       FM022100 23006KT P6SM SCT040=
202004020328 KPAE 020328Z 0203/0224 33005KT P6SM SKC FM020600 00000KT P6SM SKC
                       FM021500 18004KT P6SM FEW040 FM022100 23005KT
                       P6SM SCT040=
202004012320 TAF KPAE 012320Z 0200/0224 36010KT P6SM FEW040 FM020400 02004KT
                       P6SM SKC FM020900 00000KT P6SM SCT015
                      TEMPO 0209/0212 BKN015 FM021200 00000KT P6SM
                       BKN015 FM021800 VRB04KT P6SM SCT020 FM022100
                       23005KT P6SM SCT040=
202004012225 KPAE 012225Z 0122/0218 34012KT P6SM SCT030 FM020400 02006KT P6SM
                       SCT030 FM021000 VRB04KT P6SM BKN020 FM021700
                       VRB04KT P6SM SCT040=
202004011720 TAF KPAE 011720Z 0118/0218 33007KT P6SM SCT015 BKN040
                      TEMPO 0118/0121 -SHRA BKN015 BKN040 FM012100
                       34008KT P6SM VCSH BKN030 FM020400 02006KT
                       P6SM SCT030 FM021000 VRB04KT P6SM BKN020
                       FM021700 VRB04KT P6SM SCT040=
202004011508 KPAE 011508Z 0115/0212 VRB04KT P6SM SCT005 BKN015 BKN030
                      TEMPO 0115/0118 6SM -SHRA BR BKN005 OVC015
                       FM011800 36008KT P6SM SCT020 BKN040 FM012100
                       33012KT P6SM VCSH SCT040 FM020400 30007KT
                       P6SM VCSH SCT050 FM021000 VRB03KT P6SM BKN030
                       OVC050=
202004011225 KPAE 011225Z 0112/0212 15005KT P6SM VCSH SCT005 OVC028
                      TEMPO 0112/0116 6SM -RA BKN005 FM011800 31013KT
                       P6SM SCT020 BKN040 FM012100 33015KT P6SM
                       VCSH SCT040 FM020400 30007KT P6SM VCSH SCT050
                       FM021000 VRB05KT P6SM BKN030 OVC050=
202004011129 TAF KPAE 011129Z 0112/0212 15006KT P6SM SCT005 OVC028 FM011800
                       31013KT P6SM SCT020 BKN040 FM012100 33015KT
                       P6SM VCSH SCT040 FM020400 30007KT P6SM VCSH
                       SCT050 FM021000 VRB05KT P6SM BKN030 OVC050=
202004010531 TAF KPAE 010531Z 0106/0206 VRB05KT P6SM VCSH BKN025 OVC080 FM011200
                       36003KT P6SM VCSH OVC015 FM011800 34013KT
                       P6SM VCSH SCT020 BKN040 FM020400 35005KT
                       P6SM VCSH BKN100=