##########################################################
# Query made at 02/15/2025 22:21:58 UTC
# Time interval: from 11/01/2020 00:00  to 11/30/2020 23:59  UTC
##########################################################

##########################################################
# KPAE, Everett, Snohomish County Airport (United States)
# WMO index: -----. WIGOS ID: Unknown
# Latitude 47-55-23N. Longitude 122-16-57W. Altitude 184 m.
##########################################################

###################################
#  METAR/SPECI from KPAE
###################################
202011302353 METAR KPAE 302353Z 04006KT 10SM CLR 09/02 A3029 RMK AO2 SLP259 T00940017 10106 20078 51042=
202011302253 METAR KPAE 302253Z 21005KT 10SM CLR 11/03 A3025 RMK AO2 SLP245 T01060028=
202011302153 METAR KPAE 302153Z 23003KT 10SM FEW048 11/04 A3020 RMK AO2 SLP230 T01060039=
202011302053 METAR KPAE 302053Z 16005KT 10SM SCT015 10/04 A3016 RMK AO2 SLP215 T01000044 51054=
202011301953 METAR KPAE 301953Z 21011KT 10SM SCT015 09/05 A3012 RMK AO2 SLP201 T00940050=
202011301853 METAR KPAE 301853Z 19011KT 10SM FEW065 09/06 A3007 RMK AO2 PRESRR SLP186 T00890056=
202011301753 METAR KPAE 301753Z 17008KT 10SM FEW070 08/06 A3000 RMK AO2 SLP161 60021 T00780056 10083 20061 53050=
202011301655 SPECI KPAE 301655Z 17006KT 10SM SCT025 SCT033 07/06 A2995 RMK AO2 T00720056=
202011301653 METAR KPAE 301653Z 18006KT 10SM BKN007 BKN025 OVC033 07/06 A2995 RMK AO2 RAE15 SLP144 P0003 T00720056=
202011301624 SPECI KPAE 301624Z 20009G20KT 10SM BKN007 BKN025 OVC033 07/06 A2993 RMK AO2 RAE15 P0003 T00720061=
202011301614 SPECI KPAE 301614Z 23009KT 10SM -RA FEW009 BKN018 OVC033 08/06 A2992 RMK AO2 P0003 T00780061=
202011301605 SPECI KPAE 301605Z VRB06KT 4SM RA BR FEW007 BKN012 OVC019 07/06 A2993 RMK AO2 PRESRR P0003 T00720061=
202011301553 METAR KPAE 301553Z 19017G23KT 7SM -RA SCT013 OVC020 07/06 A2989 RMK AO2 PK WND 18026/1524 RAE1457B52 SLP125 P0001 T00720056=
202011301453 METAR KPAE 301453Z 17016G22KT 7SM -RA SCT012 BKN018 OVC036 07/06 A2985 RMK AO2 PK WND 16030/1359 SLP110 P0005 60017 T00720056 53010=
202011301353 METAR KPAE 301353Z 16022G30KT 9SM -RA FEW010 BKN027 OVC036 07/05 A2981 RMK AO2 PK WND 16032/1331 SLP096 P0003 T00670050=
202011301253 METAR KPAE 301253Z 14017G24KT 10SM -RA FEW024 BKN043 OVC080 06/04 A2982 RMK AO2 PK WND 14030/1227 SLP099 P0009 T00610044=
202011301153 METAR KPAE 301153Z VRB06G17KT 5SM RA BR OVC038 06/04 A2982 RMK AO2 SLP101 P0015 60018 70018 T00610039 10083 20061 58019=
202011301053 METAR KPAE 301053Z 22007KT 6SM -RA BR BKN038 BKN048 OVC060 07/04 A2988 RMK AO2 RAB12 SLP118 P0003 T00670044=
202011300953 METAR KPAE 300953Z 15010G16KT 10SM FEW055 BKN075 07/03 A2985 RMK AO2 SLP109 T00670028=
202011300853 METAR KPAE 300853Z 15011KT 10SM FEW080 OVC110 08/03 A2988 RMK AO2 SLP120 T00780028 58032=
202011300753 METAR KPAE 300753Z 14007KT 10SM OVC070 08/02 A2993 RMK AO2 SLP137 T00780022 401220017=
202011300653 METAR KPAE 300653Z 17008KT 10SM BKN070 BKN085 08/01 A2995 RMK AO2 SLP144 T00830011=
202011300553 METAR KPAE 300553Z 16013KT 10SM FEW070 07/02 A2998 RMK AO2 SLP154 T00720017 10106 20050 58024=
202011300453 METAR KPAE 300453Z 16009KT 10SM FEW110 07/02 A3001 RMK AO2 SLP166 T00670017=
202011300353 METAR KPAE 300353Z AUTO 16006KT 10SM CLR 05/02 A3004 RMK AO2 SLP178 T00500022=
202011300253 METAR KPAE 300253Z AUTO 14004KT 10SM SCT080 BKN100 08/03 A3005 RMK AO2 SLP179 T00780028 56013=
202011300153 METAR KPAE 300153Z AUTO VRB05KT 10SM OVC070 08/03 A3006 RMK AO2 SLP182 T00830033=
202011300053 METAR KPAE 300053Z AUTO 15008KT 10SM OVC120 09/03 A3007 RMK AO2 SLP187 T00940033=
202011292353 METAR KPAE 292353Z AUTO 15006KT 10SM CLR 11/03 A3009 RMK AO2 SLP192 T01060028 10122 20061 56021=
202011292253 METAR KPAE 292253Z 16008KT 10SM CLR 12/03 A3010 RMK AO2 SLP194 T01170033=
202011292153 METAR KPAE 292153Z 10004KT 10SM CLR 12/03 A3012 RMK AO2 SLP203 T01170028=
202011292053 METAR KPAE 292053Z VRB03KT 10SM CLR 11/02 A3015 RMK AO2 SLP213 T01060022 58033=
202011291953 METAR KPAE 291953Z 11004KT 10SM CLR 09/02 A3019 RMK AO2 SLP226 T00940022=
202011291853 METAR KPAE 291853Z 00000KT 10SM CLR 08/03 A3023 RMK AO2 SLP240 T00780028=
202011291753 METAR KPAE 291753Z 17003KT 10SM CLR 06/02 A3025 RMK AO2 SLP248 T00610022 10061 20022 58006=
202011291653 METAR KPAE 291653Z 18003KT 10SM CLR 04/02 A3026 RMK AO2 SLP251 T00440022=
202011291553 METAR KPAE 291553Z 18003KT 10SM BKN048 03/01 A3027 RMK AO2 SLP254 T00280011=
202011291453 METAR KPAE 291453Z 00000KT 10SM BKN048 04/01 A3027 RMK AO2 SLP254 T00390011 56004=
202011291353 METAR KPAE 291353Z AUTO 11003KT 10SM OVC047 04/02 A3027 RMK AO2 SLP254 T00390022=
202011291253 METAR KPAE 291253Z AUTO 00000KT 10SM OVC046 04/03 A3028 RMK AO2 SLP257 T00390028=
202011291153 METAR KPAE 291153Z AUTO 00000KT 10SM OVC043 04/02 A3028 RMK AO2 SLP258 70009 T00390022 10050 20017 58017=
202011291053 METAR KPAE 291053Z AUTO 00000KT 10SM OVC039 03/03 A3030 RMK AO2 SLP264 T00330028=
202011290953 METAR KPAE 290953Z AUTO 12004KT 10SM FEW044 03/02 A3032 RMK AO2 SLP270 T00280022=
202011290917 SPECI KPAE 290917Z AUTO 17003KT 10SM SCT001 SCT044 02/02 A3033 RMK AO2 T00220017=
202011290906 SPECI KPAE 290906Z AUTO 00000KT 3SM R16R/3500VP6000FT BR BKN001 03/03 A3033 RMK AO2 T00280028=
202011290900 SPECI KPAE 290900Z AUTO VRB03KT 1SM R16R/2000V4000FT BR VV001 03/02 A3033 RMK AO2 T00280022=
202011290853 METAR KPAE 290853Z AUTO 15005KT 1/2SM R16R/1800V2200FT FG VV001 02/02 A3033 RMK AO2 SLP275 T00220022 58004=
202011290849 SPECI KPAE 290849Z AUTO 15004KT 3/4SM R16R/1800V2800FT BR VV001 03/02 A3034 RMK AO2=
202011290845 SPECI KPAE 290845Z AUTO 15005KT 1 3/4SM R16R/2000V4500FT BR SCT001 03/03 A3034 RMK AO2 T00280028=
202011290834 SPECI KPAE 290834Z AUTO 15003KT 10SM R16R/3500VP6000FT FEW001 03/03 A3034 RMK AO2 T00330028=
202011290827 SPECI KPAE 290827Z AUTO 12004KT 2 1/2SM R16R/4000VP6000FT BR SCT001 03/02 A3034 RMK AO2 T00280017=
202011290807 SPECI KPAE 290807Z AUTO 00000KT 1SM R16R/2800VP6000FT BR VV001 02/02 A3035 RMK AO2 T00220022=
202011290753 METAR KPAE 290753Z AUTO 15004KT 1/2SM R16R/2200V2800FT FG VV001 03/03 A3035 RMK AO2 SLP281 T00280028 400830028=
202011290747 SPECI KPAE 290747Z AUTO 15004KT 1/2SM R16R/1600V2400FT FG VV001 03/03 A3035 RMK AO2=
202011290703 SPECI KPAE 290703Z AUTO 00000KT 1/4SM R16R/1000V1400FT FG VV001 04/03 A3035 RMK AO2 T00390033=
202011290653 METAR KPAE 290653Z AUTO 10003KT 1/4SM R16R/1400V6000FT FG VV001 04/03 A3035 RMK AO2 SLP281 T00390033=
202011290649 SPECI KPAE 290649Z AUTO 10004KT 1/4SM R16R/2000VP6000FT FG VV001 04/03 A3035 RMK AO2=
202011290645 SPECI KPAE 290645Z AUTO 10004KT 3/4SM R16R/3500VP6000FT BR VV002 04/03 A3036 RMK AO2 T00390028=
202011290643 SPECI KPAE 290643Z AUTO 10004KT 1 1/2SM BR SCT003 04/03 A3036 RMK AO2 T00390028=
202011290553 METAR KPAE 290553Z AUTO 09006KT 10SM CLR 04/03 A3034 RMK AO2 SLP279 T00440028 10067 20039 58011=
202011290453 METAR KPAE 290453Z 00000KT 10SM CLR 04/03 A3036 RMK AO2 SLP285 T00390033=
202011290353 METAR KPAE 290353Z 00000KT 10SM CLR 04/04 A3037 RMK AO2 SLP287 T00440039=
202011290253 METAR KPAE 290253Z 00000KT 10SM CLR 05/04 A3038 RMK AO2 SLP290 T00500039 58001=
202011290237 SPECI KPAE 290237Z 06003KT 10SM CLR 06/05 A3037 RMK AO2 T00560050=
202011290230 SPECI KPAE 290230Z 04004KT 2SM BR FEW002 05/04 A3037 RMK AO2 T00500044=
202011290153 METAR KPAE 290153Z 01003KT 10SM CLR 04/03 A3039 RMK AO2 SLP295 T00440033=
202011290053 METAR KPAE 290053Z 00000KT 10SM CLR 06/04 A3039 RMK AO2 SLP293 T00560039=
202011282353 METAR KPAE 282353Z AUTO 00000KT 10SM SCT055 07/04 A3038 RMK AO2 SLP291 60000 T00670044 10083 20067 51002=
202011282253 METAR KPAE 282253Z 00000KT 10SM CLR 07/04 A3038 RMK AO2 RAE2156 SLP291 P0000 T00720044=
202011282153 METAR KPAE 282153Z 36003KT 10SM -RA BKN050 OVC060 08/05 A3038 RMK AO2 RAB47 SLP292 P0000 T00780050=
202011282100 SPECI KPAE 282100Z 33004KT 10SM SCT032 OVC042 08/05 A3038 RMK AO2 T00780050=
202011282053 METAR KPAE 282053Z 33005KT 10SM FEW008 BKN025 OVC042 07/04 A3038 RMK AO2 SLP289 60000 T00720044 51005=
202011281953 METAR KPAE 281953Z 33003KT 10SM FEW008 BKN025 OVC042 07/06 A3038 RMK AO2 RAE01 SLP289 P0000 T00720056=
202011281858 SPECI KPAE 281858Z 35004KT 10SM -RA SCT008 OVC021 07/06 A3037 RMK AO2 P0000 T00720056=
202011281853 METAR KPAE 281853Z 35004KT 8SM -RA BKN007 BKN016 OVC025 07/06 A3037 RMK AO2 RAB39 SLP289 P0000 T00720056=
202011281836 SPECI KPAE 281836Z 03005KT 10SM BKN007 BKN016 OVC025 07/06 A3037 RMK AO2 T00720056=
202011281800 SPECI KPAE 281800Z 00000KT 10SM SCT013 OVC027 07/06 A3036 RMK AO2 T00720061=
202011281753 METAR KPAE 281753Z 00000KT 10SM BKN008 OVC037 07/06 A3036 RMK AO2 RAE45 SLP284 P0002 60009 T00720056 10072 20067 51028=
202011281734 SPECI KPAE 281734Z 01003KT 4SM -RA BR BKN008 OVC037 07/06 A3035 RMK AO2 P0002 T00670061=
202011281727 SPECI KPAE 281727Z 01004KT 2 1/2SM -RA BR BKN008 OVC037 07/06 A3035 RMK AO2 P0002 T00670056=
202011281658 SPECI KPAE 281658Z 34004KT 6SM -RA BR BKN008 OVC037 07/06 A3033 RMK AO2 P0000 T00670056=
202011281653 METAR KPAE 281653Z 33004KT 2SM -RA BR BKN005 BKN010 OVC026 07/06 A3033 RMK AO2 SLP275 P0005 T00670056=
202011281558 SPECI KPAE 281558Z 00000KT 2SM -RA BR BKN005 BKN010 OVC026 07/06 A3031 RMK AO2 P0000 T00670061=
202011281553 METAR KPAE 281553Z 00000KT 2SM -RA BR SCT010 BKN015 OVC026 07/06 A3031 RMK AO2 RAB25 SLP267 P0001 T00720061=
202011281524 SPECI KPAE 281524Z 00000KT 2SM BR SCT010 BKN015 OVC041 07/06 A3029 RMK AO2 T00670061=
202011281453 METAR KPAE 281453Z 00000KT 8SM FEW026 OVC045 07/06 A3028 RMK AO2 SLP256 60001 T00670061 53010=
202011281420 SPECI KPAE 281420Z AUTO 00000KT 10SM FEW024 OVC043 07/06 A3026 RMK AO2 T00670061=
202011281353 METAR KPAE 281353Z AUTO 14004KT 10SM BKN020 OVC042 07/06 A3025 RMK AO2 RAE1258 SLP247 P0000 T00670061=
202011281318 SPECI KPAE 281318Z AUTO 00000KT 10SM FEW017 OVC041 07/06 A3025 RMK AO2 RAE1258 P0000 T00670061=
202011281253 METAR KPAE 281253Z AUTO 00000KT 5SM -RA BR BKN018 OVC025 07/06 A3025 RMK AO2 RAE01B13E29B53 SLP245 P0001 T00720061=
202011281217 SPECI KPAE 281217Z AUTO 00000KT 4SM -RA BR SCT011 BKN019 OVC026 07/06 A3024 RMK AO2 RAE01B13 P0000 T00670061=
202011281210 SPECI KPAE 281210Z AUTO 00000KT 4SM BR FEW003 BKN013 OVC026 07/06 A3024 RMK AO2 RAE01 P0000 T00670061=
202011281200 SPECI KPAE 281200Z AUTO 22003KT 3SM -RA BR FEW003 BKN009 OVC019 07/06 A3024 RMK AO2 P0000 T00670061=
202011281153 METAR KPAE 281153Z AUTO 00000KT 2 1/2SM -RA BR FEW003 BKN010 OVC016 07/06 A3024 RMK AO2 SLP242 P0002 60006 70006 T00670061 10089 20067 53012=
202011281145 SPECI KPAE 281145Z AUTO 00000KT 2 1/2SM R16R/5500VP6000FT -RA BR FEW003 SCT007 OVC013 07/06 A3024 RMK AO2 P0002 T00670061=
202011281129 SPECI KPAE 281129Z AUTO 00000KT 4SM -RA BR FEW003 BKN015 OVC021 07/06 A3024 RMK AO2 P0001 T00670061=
202011281053 METAR KPAE 281053Z AUTO 16003KT 4SM -RA BR BKN019 OVC025 07/06 A3023 RMK AO2 RAB51 SLP238 P0000 T00670061=
202011280953 METAR KPAE 280953Z AUTO 15004KT 10SM OVC022 07/06 A3021 RMK AO2 SLP232 T00670056=
202011280853 METAR KPAE 280853Z AUTO 18005KT 10SM OVC022 07/06 A3020 RMK AO2 RAE47 SLP230 P0003 60004 T00670056 51015=
202011280822 SPECI KPAE 280822Z AUTO 20006KT 7SM -RA SCT009 BKN026 OVC046 07/06 A3020 RMK AO2 P0002 T00670056=
202011280753 METAR KPAE 280753Z AUTO 24004KT 8SM -RA BKN010 OVC013 07/06 A3020 RMK AO2 RAB49 CIG 008V012 SLP227 P0000 T00720056 401110067=
202011280748 SPECI KPAE 280748Z AUTO 21003KT 6SM BR BKN013 OVC017 07/05 A3019 RMK AO2=
202011280653 METAR KPAE 280653Z AUTO 22008KT 10SM BKN018 OVC024 08/04 A3016 RMK AO2 RAB18E43 SLP214 P0001 T00780044=
202011280608 SPECI KPAE 280608Z AUTO 21010KT 10SM BKN026 OVC055 09/03 A3015 RMK AO2 PRESRR T00890033=
202011280553 METAR KPAE 280553Z AUTO 19013G17KT 10SM FEW028 OVC055 08/04 A3012 RMK AO2 SLP201 T00830039 10100 20078 53021=
202011280453 METAR KPAE 280453Z 17013G24KT 10SM SCT090 08/03 A3006 RMK AO2 PK WND 17033/0406 SLP182 T00830033=
202011280353 METAR KPAE 280353Z 17023G33KT 10SM CLR 08/03 A3004 RMK AO2 PK WND 18035/0335 SLP174 T00830033=
202011280253 METAR KPAE 280253Z 18018G26KT 10SM CLR 08/04 A3006 RMK AO2 PK WND 18026/0247 SLP181 T00830039 58028=
202011280153 METAR KPAE 280153Z 16013KT 10SM CLR 08/04 A3009 RMK AO2 SLP193 T00830039=
202011280053 METAR KPAE 280053Z 17011KT 10SM CLR 09/03 A3012 RMK AO2 SLP201 T00890033=
202011272353 METAR KPAE 272353Z 16008KT 10SM CLR 10/03 A3014 RMK AO2 SLP209 T01000033 10111 20078 56019=
202011272253 METAR KPAE 272253Z 16012KT 10SM CLR 11/03 A3015 RMK AO2 SLP212 T01060033=
202011272153 METAR KPAE 272153Z 16012KT 10SM CLR 11/03 A3017 RMK AO2 SLP218 T01060028=
202011272053 METAR KPAE 272053Z 16015KT 10SM CLR 10/03 A3020 RMK AO2 SLP228 T01000028 58026=
202011271953 METAR KPAE 271953Z 16013KT 10SM CLR 10/03 A3023 RMK AO2 SLP238 T01000033=
202011271853 METAR KPAE 271853Z 16007KT 10SM CLR 09/03 A3026 RMK AO2 SLP250 T00890033=
202011271753 METAR KPAE 271753Z 14007KT 10SM OVC035 08/04 A3028 RMK AO2 SLP256 T00780039 10078 20067 58007=
202011271653 METAR KPAE 271653Z VRB04KT 10SM OVC031 07/03 A3029 RMK AO2 SLP259 T00720033=
202011271553 METAR KPAE 271553Z 13004KT 10SM OVC031 07/03 A3029 RMK AO2 SLP261 T00720028=
202011271453 METAR KPAE 271453Z VRB03KT 10SM OVC030 07/03 A3030 RMK AO2 SLP263 T00720033 55002=
202011271449 SPECI KPAE 271449Z VRB04KT 10SM OVC030 07/03 A3030 RMK AO2=
202011271353 METAR KPAE 271353Z AUTO VRB04KT 10SM OVC028 07/03 A3030 RMK AO2 SLP264 T00720033=
202011271253 METAR KPAE 271253Z AUTO 15008KT 10SM OVC029 07/03 A3030 RMK AO2 SLP265 T00720033=
202011271153 METAR KPAE 271153Z AUTO VRB06KT 10SM OVC028 07/04 A3032 RMK AO2 SLP269 60000 70003 T00720039 10078 20067 58012=
202011271053 METAR KPAE 271053Z AUTO 15011KT 10SM OVC026 07/04 A3034 RMK AO2 SLP276 T00720039=
202011270953 METAR KPAE 270953Z AUTO 14009KT 10SM BKN027 OVC031 07/04 A3035 RMK AO2 SLP279 T00720039=
202011270853 METAR KPAE 270853Z AUTO 15009KT 10SM OVC025 07/04 A3035 RMK AO2 SLP282 60000 T00720044 56005=
202011270753 METAR KPAE 270753Z AUTO 15011KT 8SM OVC026 07/05 A3036 RMK AO2 SLP285 T00720050 400780056=
202011270653 METAR KPAE 270653Z AUTO 15007KT 8SM BKN016 OVC025 07/05 A3036 RMK AO2 RAB02E53 SLP284 P0000 T00720050=
202011270553 METAR KPAE 270553Z AUTO 15007KT 10SM OVC017 08/05 A3037 RMK AO2 SLP288 T00780050 10078 20072 55002=
202011270543 SPECI KPAE 270543Z AUTO 15008KT 10SM BKN014 OVC020 07/05 A3037 RMK AO2 T00720050=
202011270504 SPECI KPAE 270504Z AUTO 14005KT 10SM OVC015 08/05 A3037 RMK AO2 T00780050=
202011270453 METAR KPAE 270453Z AUTO 16009KT 10SM BKN013 OVC019 08/05 A3037 RMK AO2 SLP287 T00780050=
202011270432 SPECI KPAE 270432Z AUTO 16008KT 10SM OVC013 08/06 A3037 RMK AO2 T00780056=
202011270402 SPECI KPAE 270402Z 15007KT 10SM BKN015 OVC020 08/06 A3037 RMK AO2 T00780056=
202011270353 METAR KPAE 270353Z 15008KT 10SM BKN013 OVC019 08/06 A3038 RMK AO2 SLP289 T00780056=
202011270310 SPECI KPAE 270310Z 16009KT 10SM BKN013 OVC022 07/06 A3038 RMK AO2 T00720056=
202011270253 METAR KPAE 270253Z 16008KT 10SM BKN015 OVC022 07/06 A3038 RMK AO2 SLP290 T00720056 58007=
202011270236 SPECI KPAE 270236Z 16009KT 10SM FEW009 BKN017 OVC023 07/06 A3038 RMK AO2 T00720056=
202011270215 SPECI KPAE 270215Z 16011KT 10SM FEW012 BKN022 OVC070 07/06 A3038 RMK AO2 T00720056=
202011270153 METAR KPAE 270153Z 16010KT 10SM FEW022 BKN070 OVC080 07/06 A3038 RMK AO2 SLP291 T00720056=
202011270053 METAR KPAE 270053Z 15010KT 10SM BKN037 OVC080 08/06 A3040 RMK AO2 SLP297 T00780056=
202011270000 SPECI KPAE 270000Z 15007KT 10SM OVC037 08/06 A3040 RMK AO2 T00780056=
202011262353 METAR KPAE 262353Z 16007KT 10SM BKN018 OVC030 08/06 A3040 RMK AO2 SLP297 60003 T00780056 10078 20067 58002=
202011262253 METAR KPAE 262253Z 15008KT 10SM BKN018 OVC030 08/06 A3040 RMK AO2 RAB00E30 SLP297 P0001 T00780056=
202011262214 SPECI KPAE 262214Z 16006KT 10SM -RA SCT010 BKN019 OVC031 08/06 A3041 RMK AO2 RAB00 P0000 T00780061=
202011262200 SPECI KPAE 262200Z 18005KT 6SM -RA BR BKN010 BKN016 OVC021 08/06 A3041 RMK AO2 RAB00 P0000 T00780061=
202011262153 METAR KPAE 262153Z 17007KT 9SM BKN008 OVC014 08/06 A3041 RMK AO2 RAB06E17 SLP300 P0000 T00780056=
202011262106 SPECI KPAE 262106Z 17007KT 6SM -RA BR BKN008 OVC016 07/06 A3040 RMK AO2 RAB06 CIG 006V011 P0000 T00720056=
202011262053 METAR KPAE 262053Z 15007KT 10SM FEW010 BKN016 OVC034 08/06 A3040 RMK AO2 SLP299 60002 T00780056 58007=
202011261953 METAR KPAE 261953Z 17010KT 10SM BKN012 OVC036 08/06 A3041 RMK AO2 RAE23 SLP302 P0001 T00780061=
202011261904 SPECI KPAE 261904Z 18008KT 2SM -RA BR BKN006 OVC012 07/06 A3044 RMK AO2 P0001 T00670056=
202011261853 METAR KPAE 261853Z 17004KT 1 3/4SM R16R/5500VP6000FT -RA BR OVC006 07/06 A3044 RMK AO2 RAB39 CIG 003V011 SLP310 P0001 T00670056=
202011261753 METAR KPAE 261753Z 18003KT 3SM BR BKN008 BKN019 OVC031 07/06 A3042 RMK AO2 SLP306 T00670056 10067 20056 53014=
202011261717 SPECI KPAE 261717Z 17006KT 1 1/2SM BR BKN004 OVC015 07/06 A3041 RMK AO2 T00670056=
202011261653 METAR KPAE 261653Z 16005KT 1/2SM R16R/P6000FT FG BKN004 OVC015 06/06 A3040 RMK AO2 SLP299 T00610056=
202011261553 METAR KPAE 261553Z 15005KT 1/2SM R16R/P6000FT FG BKN003 OVC011 06/05 A3040 RMK AO2 SLP296 T00560050=
202011261509 SPECI KPAE 261509Z 15005KT 2SM BR BKN006 OVC011 06/05 A3038 RMK AO2 T00560050=
202011261506 SPECI KPAE 261506Z 15005KT 10SM FEW004 BKN009 OVC014 06/04 A3038 RMK AO2 CIG 005V011 T00560044=
202011261453 METAR KPAE 261453Z 14005KT 10SM FEW004 OVC015 06/04 A3038 RMK AO2 SLP291 T00560044 53005=
202011261444 SPECI KPAE 261444Z AUTO 15003KT 10SM FEW004 OVC014 06/05 A3038 RMK AO2 T00560050=
202011261411 SPECI KPAE 261411Z AUTO 15004KT 10SM SCT005 BKN015 OVC027 06/04 A3037 RMK AO2 T00560044=
202011261353 METAR KPAE 261353Z AUTO 16005KT 10SM BKN005 OVC027 06/04 A3037 RMK AO2 SLP286 T00560044=
202011261253 METAR KPAE 261253Z AUTO 15005KT 10SM BKN006 OVC029 06/04 A3036 RMK AO2 CIG 004V009 SLP284 T00610044=
202011261153 METAR KPAE 261153Z AUTO 16003KT 10SM OVC007 06/05 A3037 RMK AO2 CIG 006V011 SLP286 60000 70001 T00610050 10061 20056 51014=
202011261053 METAR KPAE 261053Z AUTO 15005KT 10SM OVC005 06/04 A3035 RMK AO2 RAE11 SLP281 P0000 T00610044=
202011261002 SPECI KPAE 261002Z AUTO 17003KT 10SM -RA BKN006 OVC013 06/05 A3035 RMK AO2 CIG 004V008 P0000 T00610050=
202011260953 METAR KPAE 260953Z AUTO 15004KT 10SM -RA BKN010 OVC018 06/04 A3035 RMK AO2 RAB41 CIG 007V014 SLP279 P0000 T00610044=
202011260946 SPECI KPAE 260946Z AUTO 15003KT 10SM -RA OVC012 06/04 A3034 RMK AO2 RAB41 P0000 T00610044=
202011260853 METAR KPAE 260853Z AUTO VRB03KT 10SM BKN023 OVC029 06/04 A3032 RMK AO2 SLP272 60000 T00560044 53008=
202011260803 SPECI KPAE 260803Z AUTO VRB04KT 10SM BKN020 BKN033 06/04 A3031 RMK AO2 T00560044=
202011260753 METAR KPAE 260753Z AUTO 14004KT 10SM SCT020 BKN033 06/04 A3031 RMK AO2 SLP265 T00560039 400890039=
202011260728 SPECI KPAE 260728Z AUTO VRB03KT 10SM FEW015 BKN033 06/04 A3030 RMK AO2 T00560044=
202011260705 SPECI KPAE 260705Z AUTO 14003KT 10SM BKN015 06/04 A3030 RMK AO2 T00610044=
202011260653 METAR KPAE 260653Z AUTO 00000KT 10SM FEW006 BKN013 06/04 A3031 RMK AO2 RAB09E27 SLP266 P0000 T00610044=
202011260635 SPECI KPAE 260635Z AUTO 00000KT 10SM SCT007 SCT011 BKN031 06/04 A3030 RMK AO2 RAB09E27 P0000 T00560044=
202011260611 SPECI KPAE 260611Z AUTO 15006KT 10SM -RA BKN009 BKN013 OVC019 06/04 A3029 RMK AO2 RAB09 CIG 007V012 P0000 T00610044=
202011260600 SPECI KPAE 260600Z AUTO 15005KT 10SM BKN010 OVC017 06/04 A3030 RMK AO2 CIG 007V011 T00610044=
202011260553 METAR KPAE 260553Z AUTO 15004KT 10SM SCT010 OVC017 06/04 A3030 RMK AO2 SLP263 T00610044 10078 20061 53008=
202011260526 SPECI KPAE 260526Z AUTO 15004KT 10SM BKN016 BKN036 OVC060 06/05 A3029 RMK AO2 T00610050=
202011260500 SPECI KPAE 260500Z AUTO 15005KT 10SM BKN033 OVC060 06/04 A3028 RMK AO2 T00610044=
202011260453 METAR KPAE 260453Z AUTO 15006KT 10SM BKN029 BKN034 OVC060 06/04 A3027 RMK AO2 SLP254 T00610044=
202011260448 SPECI KPAE 260448Z 15005KT 10SM BKN030 OVC065 06/04 A3027 RMK AO2=
202011260418 SPECI KPAE 260418Z 15006KT 10SM BKN025 06/04 A3026 RMK AO2 T00610044=
202011260353 METAR KPAE 260353Z 15006KT 10SM CLR 06/04 A3024 RMK AO2 SLP244 T00610044=
202011260305 SPECI KPAE 260305Z 14004KT 10SM FEW016 SCT022 OVC065 07/04 A3023 RMK AO2 T00670044=
202011260253 METAR KPAE 260253Z 14005KT 10SM SCT016 BKN025 OVC065 07/04 A3023 RMK AO2 SLP240 T00670044 51019=
202011260153 METAR KPAE 260153Z 14003KT 10SM OVC070 07/04 A3022 RMK AO2 SLP237 T00720044=
202011260053 METAR KPAE 260053Z VRB04KT 10SM OVC070 07/04 A3020 RMK AO2 SLP228 T00720039=
202011252353 METAR KPAE 252353Z 15004KT 10SM OVC070 08/03 A3017 RMK AO2 SLP220 T00780033 10089 20061 51022=
202011252253 METAR KPAE 252253Z 16007KT 10SM FEW020 BKN036 OVC070 08/03 A3015 RMK AO2 SLP214 T00780033=
202011252232 SPECI KPAE 252232Z 15004KT 10SM FEW019 SCT026 OVC035 08/04 A3015 RMK AO2 T00830039=
202011252153 METAR KPAE 252153Z 17006KT 10SM BKN015 BKN027 08/03 A3013 RMK AO2 SLP205 T00780033=
202011252053 METAR KPAE 252053Z 15005KT 10SM BKN015 BKN027 08/04 A3011 RMK AO2 SLP198 T00780039 51016=
202011251953 METAR KPAE 251953Z 17006KT 10SM SCT015 SCT046 OVC070 08/05 A3009 RMK AO2 SLP194 T00830050=
202011251853 METAR KPAE 251853Z 18008KT 10SM FEW008 FEW033 OVC070 07/04 A3008 RMK AO2 SLP189 T00670044=
202011251753 METAR KPAE 251753Z 18008KT 10SM SCT007 OVC030 06/04 A3006 RMK AO2 SLP182 60001 T00610044 10061 20039 53024=
202011251710 SPECI KPAE 251710Z 17005KT 10SM FEW007 BKN030 06/04 A3004 RMK AO2 T00560044=
202011251653 METAR KPAE 251653Z 17007KT 10SM BKN028 06/04 A3004 RMK AO2 SLP175 T00560044=
202011251553 METAR KPAE 251553Z 20003KT 10SM SCT008 BKN044 BKN075 04/04 A3001 RMK AO2 SLP165 T00440039=
202011251453 METAR KPAE 251453Z 19006KT 10SM OVC006 06/04 A2999 RMK AO2 RAE23 CIG 004V009 SLP158 P0001 60001 T00560044 53012=
202011251423 SPECI KPAE 251423Z AUTO 25003KT 10SM BKN008 OVC014 06/04 A2997 RMK AO2 RAE23 CIG 005V010 P0001 T00560044=
202011251353 METAR KPAE 251353Z AUTO 19005KT 10SM -RA OVC011 06/04 A2997 RMK AO2 RAB42 SLP151 P0000 T00560044=
202011251350 SPECI KPAE 251350Z AUTO 19004KT 10SM -RA OVC011 06/04 A2996 RMK AO2 RAB42 P0000=
202011251253 METAR KPAE 251253Z AUTO 20008KT 10SM OVC008 06/04 A2995 RMK AO2 CIG 004V009 SLP144 T00560044=
202011251235 SPECI KPAE 251235Z AUTO 18005KT 10SM BKN006 OVC011 06/04 A2995 RMK AO2 CIG 004V009 T00560044=
202011251153 METAR KPAE 251153Z AUTO 16008KT 10SM FEW008 BKN012 OVC017 06/04 A2994 RMK AO2 SLP141 70045 T00560044 10056 20039 50002=
202011251131 SPECI KPAE 251131Z AUTO 16008KT 10SM SCT008 BKN017 OVC110 05/04 A2994 RMK AO2 T00500044=
202011251100 SPECI KPAE 251100Z AUTO 16010KT 10SM FEW006 BKN085 OVC110 05/04 A2994 RMK AO2 T00500039=
202011251053 METAR KPAE 251053Z AUTO 15009KT 10SM OVC085 05/04 A2994 RMK AO2 SLP141 T00500039=
202011251003 SPECI KPAE 251003Z AUTO 16009KT 10SM SCT004 OVC085 05/04 A2993 RMK AO2 T00500039=
202011250953 METAR KPAE 250953Z AUTO 15010KT 10SM BKN004 OVC085 05/04 A2993 RMK AO2 SLP139 T00500039=
202011250853 METAR KPAE 250853Z AUTO 15006KT 3SM R16R/5500VP6000FT BR OVC002 04/04 A2993 RMK AO2 SLP138 T00440039 51006=
202011250849 SPECI KPAE 250849Z AUTO 15006KT 2 1/2SM R16R/3500VP6000FT BR OVC002 04/04 A2993 RMK AO2=
202011250843 SPECI KPAE 250843Z AUTO 15008KT 3/4SM R16R/2600V4500FT BR OVC002 04/04 A2993 RMK AO2 T00440039=
202011250832 SPECI KPAE 250832Z AUTO 15007KT 1 3/4SM R16R/4000V5000FT BR OVC002 04/04 A2993 RMK AO2 T00440039=
202011250827 SPECI KPAE 250827Z AUTO 15007KT 3SM R16R/3500V5000FT BR OVC002 04/04 A2993 RMK AO2 T00440039=
202011250818 SPECI KPAE 250818Z AUTO 15005KT 2SM R16R/3000V5500FT BR OVC002 04/04 A2994 RMK AO2 T00440039=
202011250812 SPECI KPAE 250812Z AUTO 14005KT 3/4SM R16R/3500V5500FT BR OVC002 04/04 A2993 RMK AO2 T00440039=
202011250801 SPECI KPAE 250801Z AUTO 14005KT 1 3/4SM R16R/4000VP6000FT BR OVC002 04/03 A2993 RMK AO2 T00440033=
202011250753 METAR KPAE 250753Z AUTO 14006KT 9SM R16R/5500VP6000FT OVC002 04/03 A2993 RMK AO2 SLP137 T00440033 401000039=
202011250739 SPECI KPAE 250739Z AUTO VRB03KT 10SM BKN002 04/03 A2993 RMK AO2 T00440033=
202011250730 SPECI KPAE 250730Z AUTO 11005KT 10SM SCT003 04/03 A2992 RMK AO2 T00390028=
202011250653 METAR KPAE 250653Z AUTO VRB03KT 10SM CLR 04/03 A2992 RMK AO2 SLP134 T00440033=
202011250553 METAR KPAE 250553Z AUTO 10006KT 10SM FEW001 BKN031 04/04 A2991 RMK AO2 SLP132 60020 T00440039 10061 20044 53009=
202011250542 SPECI KPAE 250542Z AUTO 10006KT 7SM FEW001 BKN031 BKN035 04/04 A2991 RMK AO2 T00440039=
202011250525 SPECI KPAE 250525Z AUTO 10004KT 10SM FEW003 BKN029 OVC033 05/04 A2990 RMK AO2 T00500044=
202011250516 SPECI KPAE 250516Z AUTO 10004KT 10SM FEW005 BKN031 OVC050 06/04 A2990 RMK AO2 T00560044=
202011250503 SPECI KPAE 250503Z AUTO 11006KT 10SM BKN027 OVC048 06/04 A2990 RMK AO2 T00560044=
202011250453 METAR KPAE 250453Z AUTO 10005KT 10SM SCT027 OVC048 06/04 A2989 RMK AO2 SLP125 T00560044=
202011250400 SPECI KPAE 250400Z VRB03KT 10SM SCT025 OVC039 06/04 A2989 RMK AO2 T00560044=
202011250353 METAR KPAE 250353Z 12004KT 10SM BKN005 OVC030 06/04 A2989 RMK AO2 RAE29 SLP124 P0001 T00560044=
202011250253 METAR KPAE 250253Z 10007KT 5SM -RA BR BKN005 OVC030 06/05 A2989 RMK AO2 SLP123 P0007 60019 T00560050 53014=
202011250153 METAR KPAE 250153Z 09005KT 6SM -RA BR BKN005 OVC017 06/05 A2987 RMK AO2 SLP118 P0007 T00560050=
202011250053 METAR KPAE 250053Z 01003KT 8SM -RA OVC007 06/05 A2986 RMK AO2 SLP113 P0005 T00610050=
202011250000 SPECI KPAE 250000Z 36007KT 6SM -RA BR OVC007 06/05 A2984 RMK AO2 P0001 T00610050=
202011242353 METAR KPAE 242353Z 36008KT 6SM -RA BR OVC013 06/05 A2984 RMK AO2 SLP108 P0024 60025 T00610050 10100 20061 55005=
202011242316 SPECI KPAE 242316Z 34009KT 2SM R16R/6000VP6000FT +RA BR BKN009 BKN023 OVC028 06/05 A2985 RMK AO2 P0015 T00610050=
202011242309 SPECI KPAE 242309Z 32008G17KT 1 3/4SM R16R/6000VP6000FT +RA BR BKN009 BKN023 OVC028 07/06 A2985 RMK AO2 P0008 T00670056=
202011242259 SPECI KPAE 242259Z 24007KT 10SM -RA BKN009 BKN023 OVC028 09/07 A2984 RMK AO2 P0001 T00890067=
202011242253 METAR KPAE 242253Z 23007G15KT 10SM -RA BKN010 OVC023 09/07 A2984 RMK AO2 SLP106 P0000 T00890067=
202011242218 SPECI KPAE 242218Z 17013G23KT 10SM -RA BKN010 OVC023 09/07 A2984 RMK AO2 P0000 T00940067=
202011242153 METAR KPAE 242153Z 16013G20KT 10SM -RA BKN020 BKN027 OVC046 09/07 A2984 RMK AO2 PK WND 18027/2059 RAE00B49 SLP106 P0000 T00940067=
202011242053 METAR KPAE 242053Z 17018G25KT 3SM -RA BR BKN010 OVC023 09/07 A2986 RMK AO2 PK WND 18031/2011 RAB20 SLP114 P0001 60001 T00890072 56038=
202011241953 METAR KPAE 241953Z 17017G29KT 5SM BR BKN011 OVC029 09/07 A2989 RMK AO2 PK WND 17032/1933 SLP123 T00940072=
202011241900 SPECI KPAE 241900Z 17018G26KT 10SM BKN014 OVC028 08/06 A2992 RMK AO2 PK WND 17026/1859 T00830061=
202011241853 METAR KPAE 241853Z 16019G28KT 5SM BR SCT011 OVC021 08/06 A2993 RMK AO2 PK WND 15028/1849 RAB05E32 PRESFR SLP137 P0000 T00780056=
202011241827 SPECI KPAE 241827Z 16015G21KT 5SM -RA BR SCT011 OVC021 08/06 A2996 RMK AO2 RAB05 P0000 T00780056=
202011241814 SPECI KPAE 241814Z 15015G20KT 2SM R16R/6000VP6000FT -RA BR SCT011 OVC021 08/06 A2996 RMK AO2 RAB05 P0000 T00780056=
202011241753 METAR KPAE 241753Z 14009KT 10SM OVC021 07/05 A2997 RMK AO2 SLP152 60000 T00720050 10072 20061 58019=
202011241727 SPECI KPAE 241727Z 16015G19KT 10SM SCT007 OVC020 07/05 A2998 RMK AO2 T00670050=
202011241700 SPECI KPAE 241700Z 14011G17KT 4SM BR BKN009 OVC016 07/05 A3000 RMK AO2 T00670050=
202011241653 METAR KPAE 241653Z 14007G18KT 100V180 2 1/2SM BR BKN011 OVC019 07/05 A3000 RMK AO2 RAB17E48 SLP160 P0000 T00670050=
202011241602 SPECI KPAE 241602Z 14009G16KT 10SM BKN011 OVC019 07/04 A3002 RMK AO2 T00670039=
202011241553 METAR KPAE 241553Z 14014KT 9SM SCT013 BKN019 OVC028 07/04 A3002 RMK AO2 RAB06E15 SLP168 P0000 T00670039=
202011241453 METAR KPAE 241453Z 15016G27KT 10SM SCT017 OVC028 07/03 A3003 RMK AO2 PK WND 15027/1445 SLP172 T00670033 57023=
202011241435 SPECI KPAE 241435Z 16016KT 10SM BKN028 BKN070 06/04 A3004 RMK AO2 PK WND 16026/1355 T00610039=
202011241353 METAR KPAE 241353Z 15018G24KT 10SM BKN035 BKN075 06/04 A3005 RMK AO2 SLP178 T00610039=
202011241253 METAR KPAE 241253Z 15013KT 10SM BKN040 BKN055 BKN065 07/03 A3008 RMK AO2 SLP189 T00670028=
202011241153 METAR KPAE 241153Z 14009KT 10SM BKN036 OVC065 07/03 A3010 RMK AO2 SLP195 70018 T00670033 10067 20061 58014=
202011241053 METAR KPAE 241053Z 15011G16KT 10SM BKN033 OVC070 07/04 A3012 RMK AO2 SLP202 T00670039=
202011240953 METAR KPAE 240953Z 15011KT 10SM SCT022 OVC060 07/04 A3013 RMK AO2 SLP206 T00670039=
202011240853 METAR KPAE 240853Z 15011KT 10SM BKN017 BKN024 OVC055 06/04 A3014 RMK AO2 SLP209 T00610044 56005=
202011240851 SPECI KPAE 240851Z 15011KT 10SM SCT019 BKN024 OVC055 06/04 A3014 RMK AO2=
202011240753 METAR KPAE 240753Z 14007KT 10SM OVC055 06/04 A3015 RMK AO2 SLP214 T00610044 400780044=
202011240713 SPECI KPAE 240713Z 15008KT 10SM SCT012 OVC060 06/04 A3016 RMK AO2 T00610044=
202011240653 METAR KPAE 240653Z 14005KT 10SM BKN013 OVC085 06/04 A3016 RMK AO2 SLP215 T00610044=
202011240627 SPECI KPAE 240627Z 15008KT 10SM FEW017 BKN070 OVC090 06/04 A3015 RMK AO2 T00610044=
202011240604 SPECI KPAE 240604Z 15008KT 10SM BKN019 BKN041 OVC080 06/04 A3015 RMK AO2 T00610044=
202011240553 METAR KPAE 240553Z 15009KT 10SM SCT021 BKN039 OVC080 06/04 A3016 RMK AO2 SLP215 T00610044 10072 20061 53010=
202011240453 METAR KPAE 240453Z 14006KT 10SM BKN039 OVC080 07/04 A3014 RMK AO2 SLP210 T00670044=
202011240353 METAR KPAE 240353Z 15005KT 10SM BKN039 OVC049 07/05 A3014 RMK AO2 SLP209 T00670050=
202011240253 METAR KPAE 240253Z 15006KT 10SM OVC046 07/04 A3013 RMK AO2 SLP206 T00670039 51013=
202011240153 METAR KPAE 240153Z 00000KT 10SM OVC044 07/04 A3012 RMK AO2 SLP202 T00670039=
202011240053 METAR KPAE 240053Z 00000KT 10SM OVC040 07/03 A3010 RMK AO2 SLP196 T00720033=
202011240005 SPECI KPAE 240005Z 00000KT 10SM SCT022 OVC036 07/04 A3009 RMK AO2 T00720039=
202011232353 METAR KPAE 232353Z 00000KT 10SM BKN022 OVC034 07/04 A3009 RMK AO2 SLP191 60003 T00720039 10078 20056 52021=
202011232314 SPECI KPAE 232314Z 00000KT 10SM BKN022 OVC030 07/03 A3008 RMK AO2 T00720033=
202011232253 METAR KPAE 232253Z VRB03KT 10SM OVC030 07/03 A3007 RMK AO2 RAE09 SLP184 P0000 T00720033=
202011232212 SPECI KPAE 232212Z 00000KT 10SM BKN028 BKN034 OVC070 07/04 A3006 RMK AO2 RAE09 P0000 T00720039=
202011232153 METAR KPAE 232153Z 00000KT 10SM -RA SCT004 BKN032 OVC060 07/03 A3005 RMK AO2 SLP177 P0000 T00720033=
202011232105 SPECI KPAE 232105Z 34003KT 10SM -RA SCT004 BKN032 OVC060 07/05 A3003 RMK AO2 P0000 T00720050=
202011232100 SPECI KPAE 232100Z 34003KT 10SM -RA OVC060 07/04 A3003 RMK AO2 P0000 T00670044=
202011232053 METAR KPAE 232053Z 00000KT 10SM -RA BKN007 BKN036 OVC046 07/04 A3003 RMK AO2 SLP170 P0001 60003 T00670044 53012=
202011232013 SPECI KPAE 232013Z 00000KT 10SM -RA BKN007 BKN036 OVC046 07/05 A3002 RMK AO2 P0001 T00670050=
202011231953 METAR KPAE 231953Z VRB03KT 10SM -RA SCT007 OVC034 06/05 A3001 RMK AO2 SLP164 P0002 T00610050=
202011231853 METAR KPAE 231853Z 17005KT 9SM -RA OVC005 06/05 A2999 RMK AO2 SLP159 P0000 T00610050=
202011231753 METAR KPAE 231753Z 15008KT 4SM -RA BR SCT003 BKN008 OVC013 06/04 A2997 RMK AO2 SLP153 P0000 60015 T00560044 10056 20044 53022=
202011231700 SPECI KPAE 231700Z VRB03KT 6SM -RA BR SCT003 BKN008 OVC013 05/04 A2995 RMK AO2 P0000 T00500039=
202011231653 METAR KPAE 231653Z 14004KT 2SM -RA BR BKN003 OVC016 05/04 A2995 RMK AO2 RAB01 SLP144 P0001 T00500039=
202011231620 SPECI KPAE 231620Z 12005KT 2SM -RA BR BKN003 OVC016 04/04 A2994 RMK AO2 RAB01 P0001 T00440039=
202011231601 SPECI KPAE 231601Z 11005KT 4SM -RA BR BKN003 OVC007 04/04 A2993 RMK AO2 RAB01 P0000 T00440039=
202011231553 METAR KPAE 231553Z 12005KT 4SM BR OVC005 04/04 A2993 RMK AO2 RAE13 CIG 003V009 SLP138 P0000 T00440039=
202011231533 SPECI KPAE 231533Z VRB05KT 6SM BR BKN007 OVC023 04/03 A2992 RMK AO2 RAE13 P0000 T00440033=
202011231514 SPECI KPAE 231514Z 12005KT 10SM SCT006 SCT017 OVC021 04/03 A2991 RMK AO2 RAE13 P0000 T00440033=
202011231453 METAR KPAE 231453Z 11007KT 10SM -RA SCT016 OVC024 04/03 A2991 RMK AO2 SLP130 P0000 60014 T00440033 53002=
202011231427 SPECI KPAE 231427Z AUTO 15008KT 6SM -RA BR BKN014 OVC033 04/03 A2990 RMK AO2 P0000 T00440028=
202011231353 METAR KPAE 231353Z AUTO 14008KT 7SM -RA FEW009 BKN019 OVC035 04/03 A2990 RMK AO2 SLP128 P0008 T00440028=
202011231253 METAR KPAE 231253Z AUTO 15007KT 100V160 5SM -RA BR FEW007 BKN013 OVC023 06/04 A2990 RMK AO2 SLP128 P0006 T00560039=
202011231233 SPECI KPAE 231233Z AUTO 15008KT 6SM -RA BR FEW008 SCT024 OVC029 06/04 A2989 RMK AO2 P0003 T00560039=
202011231218 SPECI KPAE 231218Z AUTO 15011KT 10SM -RA FEW009 SCT012 OVC037 06/04 A2989 RMK AO2 P0001 T00560039=
202011231211 SPECI KPAE 231211Z AUTO 16011KT 10SM -RA SCT011 BKN022 OVC047 06/04 A2989 RMK AO2 P0001 T00560039=
202011231202 SPECI KPAE 231202Z AUTO 15010KT 10SM -RA BKN009 BKN022 OVC037 06/04 A2988 RMK AO2 P0001 T00560039=
202011231153 METAR KPAE 231153Z AUTO 16013KT 10SM -RA SCT007 SCT015 OVC021 06/04 A2988 RMK AO2 RAB49 SLP121 P0000 60000 70004 T00560039 10061 20050 55004=
202011231149 SPECI KPAE 231149Z AUTO 15011KT 10SM -RA SCT007 SCT014 OVC021 06/04 A2988 RMK AO2 RAB49 P0000=
202011231102 SPECI KPAE 231102Z AUTO 15010KT 10SM BKN009 BKN021 OVC095 06/04 A2988 RMK AO2 CIG 006V014 T00610044=
202011231053 METAR KPAE 231053Z AUTO 16009KT 10SM SCT011 BKN021 OVC095 06/04 A2989 RMK AO2 SLP123 T00610044=
202011230953 METAR KPAE 230953Z AUTO 17008KT 10SM FEW008 OVC026 06/04 A2989 RMK AO2 SLP125 T00560044=
202011230853 METAR KPAE 230853Z AUTO 16007KT 10SM FEW008 OVC027 06/04 A2990 RMK AO2 SLP126 T00560044 58001=
202011230834 SPECI KPAE 230834Z AUTO 17007KT 10SM FEW008 BKN025 OVC029 06/04 A2990 RMK AO2 T00560044=
202011230817 SPECI KPAE 230817Z AUTO 17007KT 10SM SCT007 BKN014 OVC031 06/04 A2990 RMK AO2 T00560044=
202011230805 SPECI KPAE 230805Z AUTO 17007KT 10SM BKN007 OVC014 06/04 A2991 RMK AO2 CIG 003V011 T00560044=
202011230753 METAR KPAE 230753Z AUTO 16006KT 9SM BKN004 OVC010 06/04 A2991 RMK AO2 CIG 003V008 SLP129 T00560044 400780044=
202011230653 METAR KPAE 230653Z AUTO 15007KT 7SM OVC004 05/04 A2990 RMK AO2 SLP129 T00500044=
202011230638 SPECI KPAE 230638Z AUTO 15005KT 7SM OVC004 05/04 A2991 RMK AO2 T00500044=
202011230553 METAR KPAE 230553Z AUTO VRB03KT 10SM OVC006 05/04 A2990 RMK AO2 SLP128 60001 T00500039 10061 20050 58000=
202011230516 SPECI KPAE 230516Z AUTO 14004KT 10SM OVC008 05/03 A2991 RMK AO2 CIG 006V013 T00500033=
202011230453 METAR KPAE 230453Z 15004KT 10SM OVC012 06/03 A2990 RMK AO2 SLP129 T00560033=
202011230445 SPECI KPAE 230445Z 00000KT 10SM OVC014 06/03 A2990 RMK AO2 T00560033=
202011230353 METAR KPAE 230353Z 00000KT 10SM OVC020 06/03 A2991 RMK AO2 SLP130 T00560028=
202011230253 METAR KPAE 230253Z VRB04KT 10SM OVC023 06/03 A2990 RMK AO2 SLP129 60001 T00560028 58017=
202011230200 SPECI KPAE 230200Z VRB05KT 10SM OVC028 05/03 A2992 RMK AO2 T00500028=
202011230153 METAR KPAE 230153Z 15007KT 10SM SCT025 OVC035 05/03 A2992 RMK AO2 RAE47 SLP136 P0000 T00500028=
202011230053 METAR KPAE 230053Z 14004KT 10SM -RA FEW025 OVC033 06/03 A2994 RMK AO2 SLP142 P0001 T00560028=
202011222353 METAR KPAE 222353Z 15008KT 10SM -RA OVC035 06/02 A2995 RMK AO2 SLP146 P0001 60003 T00610022 10078 20061 53001=
202011222253 METAR KPAE 222253Z 17010KT 8SM -RA OVC042 07/02 A2995 RMK AO2 RAB26 SLP145 P0002 T00670022=
202011222153 METAR KPAE 222153Z 16006KT 10SM OVC060 07/02 A2994 RMK AO2 RAE17 SLP142 P0000 T00720022=
202011222053 METAR KPAE 222053Z 16007KT 10SM -RA SCT048 OVC060 08/01 A2995 RMK AO2 RAB51 SLP145 P0000 60000 T00780011 57013=
202011221953 METAR KPAE 221953Z 15008KT 10SM BKN075 OVC090 07/01 A2996 RMK AO2 SLP148 T00720006=
202011221853 METAR KPAE 221853Z 16008KT 10SM SCT030 OVC090 07/01 A2999 RMK AO2 SLP157 T00720006=
202011221753 METAR KPAE 221753Z 16009KT 10SM BKN100 07/01 A2999 RMK AO2 SLP160 T00670006 10072 20044 56009=
202011221653 METAR KPAE 221653Z 16009KT 10SM CLR 07/01 A3000 RMK AO2 SLP160 T00670006=
202011221553 METAR KPAE 221553Z 16007KT 10SM CLR 06/01 A3000 RMK AO2 SLP163 T00560011=
202011221453 METAR KPAE 221453Z 16007KT 10SM CLR 05/02 A3002 RMK AO2 SLP168 T00500017 58014=
202011221353 METAR KPAE 221353Z AUTO 15009KT 10SM CLR 06/01 A3003 RMK AO2 SLP172 T00560011=
202011221253 METAR KPAE 221253Z AUTO 15006KT 10SM CLR 07/00 A3005 RMK AO2 SLP178 T00670000=
202011221153 METAR KPAE 221153Z AUTO 18005KT 10SM CLR 07/00 A3006 RMK AO2 SLP182 T00670000 10072 20044 56029=
202011221053 METAR KPAE 221053Z AUTO VRB05KT 10SM CLR 07/01 A3007 RMK AO2 SLP185 T00670006=
202011220953 METAR KPAE 220953Z AUTO 10003KT 10SM CLR 06/01 A3010 RMK AO2 SLP195 T00610011=
202011220853 METAR KPAE 220853Z AUTO 00000KT 10SM CLR 06/01 A3015 RMK AO2 SLP212 T00610011 58022=
202011220753 METAR KPAE 220753Z AUTO 11004KT 10SM CLR 06/02 A3017 RMK AO2 SLP221 T00610017 401000044=
202011220653 METAR KPAE 220653Z AUTO 00000KT 10SM CLR 06/02 A3020 RMK AO2 SLP228 T00560022=
202011220553 METAR KPAE 220553Z AUTO 08004KT 10SM CLR 04/03 A3022 RMK AO2 SLP235 T00440033 10083 20044 56019=
202011220453 METAR KPAE 220453Z AUTO 36003KT 10SM CLR 05/04 A3023 RMK AO2 SLP240 T00500039=
202011220353 METAR KPAE 220353Z AUTO 00000KT 10SM CLR 06/04 A3025 RMK AO2 SLP245 T00610044=
202011220253 METAR KPAE 220253Z AUTO 03003KT 10SM CLR 07/04 A3027 RMK AO2 SLP254 T00670044 56028=
202011220153 METAR KPAE 220153Z AUTO 01003KT 10SM CLR 07/05 A3030 RMK AO2 SLP264 T00670050=
202011220053 METAR KPAE 220053Z AUTO 35003KT 10SM CLR 07/04 A3033 RMK AO2 SLP272 T00720044=
202011212353 METAR KPAE 212353Z AUTO 35003KT 10SM CLR 08/05 A3036 RMK AO2 SLP283 T00830050 10100 20078 58020=
202011212253 METAR KPAE 212253Z 34003KT 10SM CLR 09/06 A3038 RMK AO2 SLP289 T00890056=
202011212153 METAR KPAE 212153Z 34004KT 10SM CLR 10/06 A3040 RMK AO2 SLP295 T01000056=
202011212053 METAR KPAE 212053Z 01005KT 10SM CLR 09/06 A3042 RMK AO2 SLP302 T00940056 58019=
202011211953 METAR KPAE 211953Z 15003KT 10SM SCT011 09/06 A3044 RMK AO2 SLP309 T00890056=
202011211934 SPECI KPAE 211934Z 00000KT 10SM SCT010 09/06 A3045 RMK AO2 T00890056=
202011211853 METAR KPAE 211853Z 13003KT 10SM OVC010 08/06 A3046 RMK AO2 SLP317 T00830056=
202011211753 METAR KPAE 211753Z 18004KT 10SM OVC010 08/06 A3047 RMK AO2 SLP321 T00780061 10083 20044 50001=
202011211653 METAR KPAE 211653Z 12003KT 10SM BKN012 OVC040 07/06 A3048 RMK AO2 SLP324 T00720061=
202011211553 METAR KPAE 211553Z 00000KT 10SM BKN008 OVC037 07/06 A3047 RMK AO2 CIG 006V011 SLP321 T00670056=
202011211508 SPECI KPAE 211508Z 00000KT 10SM BKN004 BKN039 06/05 A3047 RMK AO2 T00610050=
202011211453 METAR KPAE 211453Z 12003KT 10SM FEW039 06/05 A3047 RMK AO2 SLP321 T00610050 51005=
202011211353 METAR KPAE 211353Z AUTO 00000KT 10SM BKN043 06/05 A3047 RMK AO2 SLP320 T00610050=
202011211253 METAR KPAE 211253Z AUTO 18003KT 5SM BR BKN036 05/04 A3047 RMK AO2 SLP321 T00500044=
202011211153 METAR KPAE 211153Z AUTO 00000KT 10SM SCT042 06/05 A3045 RMK AO2 SLP316 70002 T00610050 10083 20061 58001=
202011211053 METAR KPAE 211053Z AUTO 10004KT 10SM BKN041 07/06 A3045 RMK AO2 SLP315 T00720061=
202011210953 METAR KPAE 210953Z AUTO 00000KT 10SM SCT005 OVC032 07/06 A3046 RMK AO2 SLP316 T00720061=
202011210943 SPECI KPAE 210943Z AUTO 00000KT 10SM SCT005 OVC032 07/06 A3046 RMK AO2 T00720061=
202011210906 SPECI KPAE 210906Z AUTO 00000KT 10SM SCT028 OVC036 08/06 A3046 RMK AO2 T00780061=
202011210853 METAR KPAE 210853Z AUTO 00000KT 10SM FEW023 BKN028 OVC034 08/06 A3046 RMK AO2 SLP316 T00780061 51014=
202011210833 SPECI KPAE 210833Z AUTO 00000KT 10SM SCT009 BKN015 OVC022 08/06 A3045 RMK AO2 T00780061=
202011210807 SPECI KPAE 210807Z AUTO 26003KT 10SM BKN008 BKN013 OVC018 08/07 A3045 RMK AO2 CIG 006V011 T00830067=
202011210753 METAR KPAE 210753Z AUTO 23004KT 10SM BKN012 BKN016 OVC029 08/06 A3045 RMK AO2 SLP313 T00830061 400940067=
202011210738 SPECI KPAE 210738Z AUTO 22005KT 10SM OVC014 08/06 A3045 RMK AO2 T00830056=
202011210653 METAR KPAE 210653Z AUTO 18006KT 10SM OVC018 08/06 A3044 RMK AO2 SLP309 T00830056=
202011210632 SPECI KPAE 210632Z AUTO 17008KT 10SM BKN022 08/06 A3043 RMK AO2 T00830056=
202011210553 METAR KPAE 210553Z AUTO 17011KT 10SM CLR 08/05 A3042 RMK AO2 SLP303 T00830050 10094 20083 51009=
202011210533 SPECI KPAE 210533Z AUTO 17010KT 10SM SCT017 08/05 A3042 RMK AO2 T00830050=
202011210453 METAR KPAE 210453Z AUTO 18011KT 10SM BKN016 OVC080 09/06 A3041 RMK AO2 SLP302 T00890056=
202011210415 SPECI KPAE 210415Z 18013KT 10SM BKN017 OVC080 09/05 A3040 RMK AO2 T00890050=
202011210403 SPECI KPAE 210403Z 18013G19KT 10SM SCT018 OVC080 09/05 A3040 RMK AO2 T00890050=
202011210353 METAR KPAE 210353Z 17016G20KT 10SM BKN020 09/05 A3040 RMK AO2 SLP297 T00890050=
202011210253 METAR KPAE 210253Z 17012KT 10SM BKN020 09/06 A3039 RMK AO2 SLP294 T00890056 53002=
202011210207 SPECI KPAE 210207Z 17011KT 10SM BKN020 09/05 A3039 RMK AO2 T00890050=
202011210200 SPECI KPAE 210200Z 18012KT 10SM FEW085 09/05 A3039 RMK AO2 T00890050=
202011210153 METAR KPAE 210153Z 18014G21KT 10SM BKN022 09/05 A3039 RMK AO2 SLP292 T00890050=
202011210053 METAR KPAE 210053Z 17013G22KT 10SM BKN022 09/05 A3038 RMK AO2 SLP288 T00890050=
202011202353 METAR KPAE 202353Z 17012KT 10SM BKN022 09/05 A3038 RMK AO2 SLP291 T00890050 10094 20072 55004=
202011202253 METAR KPAE 202253Z 16010KT 10SM CLR 09/05 A3038 RMK AO2 SLP291 T00890050=
202011202153 METAR KPAE 202153Z 18014G18KT 10SM CLR 09/05 A3039 RMK AO2 SLP295 T00940050=
202011202053 METAR KPAE 202053Z 17012G23KT 10SM BKN095 09/05 A3039 RMK AO2 SLP296 T00890050 58011=
202011201953 METAR KPAE 201953Z 16012KT 10SM OVC075 08/04 A3041 RMK AO2 SLP301 T00830044=
202011201853 METAR KPAE 201853Z 16009KT 10SM FEW032 BKN070 OVC090 08/04 A3042 RMK AO2 SLP305 T00780044=
202011201753 METAR KPAE 201753Z 16011KT 10SM FEW034 BKN075 OVC095 07/05 A3043 RMK AO2 RAB02E22 SLP307 P0001 60002 T00720050 10072 20067 50007=
202011201653 METAR KPAE 201653Z 16011KT 10SM SCT007 BKN085 07/05 A3043 RMK AO2 SLP307 T00670050=
202011201614 SPECI KPAE 201614Z 16012KT 10SM FEW007 BKN030 BKN100 07/05 A3042 RMK AO2 T00670050=
202011201553 METAR KPAE 201553Z 16012KT 10SM FEW026 BKN030 OVC110 07/05 A3041 RMK AO2 SLP303 T00670050=
202011201453 METAR KPAE 201453Z 15009KT 10SM FEW040 BKN095 07/04 A3041 RMK AO2 RAE18 SLP299 P0000 60001 T00670044 58000=
202011201353 METAR KPAE 201353Z AUTO 17012KT 8SM -RA BKN046 OVC070 07/05 A3040 RMK AO2 RAB05E15B30 SLP299 P0001 T00720050=
202011201334 SPECI KPAE 201334Z AUTO 18011KT 10SM -RA SCT023 SCT028 OVC070 07/04 A3041 RMK AO2 RAB05E15B30 P0000 T00720044=
202011201319 SPECI KPAE 201319Z AUTO 18011KT 10SM FEW021 BKN025 OVC070 07/04 A3041 RMK AO2 RAB05E15 P0000 T00720044=
202011201253 METAR KPAE 201253Z AUTO 17010KT 10SM FEW032 SCT060 OVC080 07/04 A3041 RMK AO2 SLP301 T00720044=
202011201230 SPECI KPAE 201230Z AUTO 17009KT 10SM SCT028 BKN034 OVC095 07/04 A3041 RMK AO2 T00720044=
202011201200 SPECI KPAE 201200Z AUTO 15009KT 10SM SCT014 BKN026 OVC036 07/04 A3041 RMK AO2 T00720044=
202011201153 METAR KPAE 201153Z AUTO 16009KT 10SM BKN014 OVC026 07/04 A3041 RMK AO2 SLP300 70014 T00720044 10072 20067 51004=
202011201106 SPECI KPAE 201106Z AUTO 17005KT 10SM BKN012 OVC024 07/04 A3041 RMK AO2 T00720044=
202011201053 METAR KPAE 201053Z AUTO 17008KT 10SM FEW012 OVC024 07/04 A3041 RMK AO2 SLP300 T00670044=
202011201022 SPECI KPAE 201022Z AUTO 18010KT 10SM FEW014 BKN025 BKN110 07/04 A3040 RMK AO2 T00670044=
202011200953 METAR KPAE 200953Z AUTO 17009KT 10SM FEW012 FEW023 07/04 A3039 RMK AO2 SLP296 T00670044=
202011200942 SPECI KPAE 200942Z AUTO 17012KT 10SM FEW012 SCT029 07/04 A3039 RMK AO2 T00670044=
202011200934 SPECI KPAE 200934Z AUTO 16008KT 10SM SCT013 BKN028 07/04 A3039 RMK AO2 T00670044=
202011200853 METAR KPAE 200853Z AUTO VRB06KT 10SM BKN014 OVC026 07/04 A3039 RMK AO2 SLP295 T00670044 53008=
202011200804 SPECI KPAE 200804Z AUTO 15008KT 10SM FEW014 BKN026 OVC033 07/04 A3039 RMK AO2 T00720044=
202011200753 METAR KPAE 200753Z AUTO 16011KT 10SM FEW014 BKN031 OVC110 07/04 A3039 RMK AO2 SLP293 T00720044 400830050=
202011200653 METAR KPAE 200653Z AUTO 17011KT 10SM BKN095 BKN120 07/04 A3037 RMK AO2 SLP288 T00720044=
202011200553 METAR KPAE 200553Z AUTO 17011KT 10SM FEW013 OVC100 07/04 A3037 RMK AO2 SLP287 T00670044 10078 20061 53011=
202011200453 METAR KPAE 200453Z 15011KT 10SM FEW075 OVC100 06/04 A3036 RMK AO2 SLP283 T00610039=
202011200417 SPECI KPAE 200417Z 16012KT 10SM SCT025 SCT120 06/04 A3035 RMK AO2 T00610039=
202011200353 METAR KPAE 200353Z 15010KT 10SM SCT014 BKN028 BKN110 06/04 A3034 RMK AO2 SLP278 T00610039=
202011200253 METAR KPAE 200253Z 15008KT 10SM SCT015 BKN025 OVC110 07/04 A3034 RMK AO2 SLP276 T00670039 51014=
202011200226 SPECI KPAE 200226Z 14007KT 10SM BKN025 07/04 A3033 RMK AO2 T00720039=
202011200204 SPECI KPAE 200204Z 17009KT 10SM FEW027 SCT110 07/03 A3033 RMK AO2 T00670033=
202011200153 METAR KPAE 200153Z 16010KT 10SM BKN019 07/03 A3033 RMK AO2 SLP272 T00670033=
202011200053 METAR KPAE 200053Z 17008KT 10SM SCT015 BKN020 OVC026 08/04 A3031 RMK AO2 SLP267 T00780039=
202011192353 METAR KPAE 192353Z 18011KT 10SM SCT012 BKN021 OVC028 08/04 A3029 RMK AO2 SLP261 T00780039 10083 20067 52014=
202011192253 METAR KPAE 192253Z 19013KT 10SM OVC021 08/04 A3028 RMK AO2 SLP256 T00780039=
202011192153 METAR KPAE 192153Z 21011KT 10SM SCT018 BKN023 BKN029 08/04 A3026 RMK AO2 SLP251 T00830039=
202011192053 METAR KPAE 192053Z 16009KT 10SM BKN017 OVC021 08/04 A3025 RMK AO2 SLP247 T00780039 51011=
202011191953 METAR KPAE 191953Z 16008KT 10SM BKN017 OVC024 08/04 A3025 RMK AO2 SLP245 T00780044=
202011191903 SPECI KPAE 191903Z 16008KT 10SM FEW011 BKN023 OVC035 07/04 A3024 RMK AO2 T00720044=
202011191853 METAR KPAE 191853Z 16007KT 10SM FEW002 BKN011 OVC016 07/04 A3024 RMK AO2 SLP243 T00670044=
202011191810 SPECI KPAE 191810Z 17007KT 10SM BKN009 BKN019 OVC028 07/04 A3022 RMK AO2 T00670044=
202011191800 SPECI KPAE 191800Z 17011KT 10SM SCT016 OVC029 07/04 A3022 RMK AO2 T00670039=
202011191753 METAR KPAE 191753Z 17010KT 10SM BKN009 OVC024 07/04 A3022 RMK AO2 SLP235 60014 T00670039 10067 20050 51038=
202011191653 METAR KPAE 191653Z 15006KT 10SM BKN008 OVC024 06/04 A3019 RMK AO2 RAE41 CIG 006V012 SLP225 P0001 T00610044=
202011191553 METAR KPAE 191553Z 16005KT 5SM -RA BR BKN009 BKN028 OVC041 06/05 A3015 RMK AO2 SLP212 P0003 T00610050=
202011191520 SPECI KPAE 191520Z 21005G15KT 10SM -RA BKN009 BKN028 OVC041 06/04 A3012 RMK AO2 P0001 T00610044=
202011191453 METAR KPAE 191453Z 19006KT 4SM +RA BR SCT025 BKN032 OVC044 05/04 A3010 RMK AO2 RAB44 SLP197 P0008 60010 T00500039 53038=
202011191353 METAR KPAE 191353Z AUTO 20005KT 10SM SCT020 OVC046 06/04 A3006 RMK AO2 RAE22 SLP182 P0001 T00610044=
202011191306 SPECI KPAE 191306Z AUTO 22006KT 9SM -RA FEW008 BKN031 OVC038 06/05 A3003 RMK AO2 P0001 T00610050=
202011191253 METAR KPAE 191253Z AUTO 25006KT 8SM -RA BKN009 BKN018 OVC032 07/04 A3003 RMK AO2 RAB29 CIG 007V013 SLP171 P0001 T00670044=
202011191217 SPECI KPAE 191217Z AUTO 00000KT 10SM BKN010 OVC016 07/04 A3000 RMK AO2 T00670044=
202011191153 METAR KPAE 191153Z AUTO 21008KT 10SM SCT015 OVC020 07/04 A2999 RMK AO2 SLP159 70013 T00670044 10067 20061 52028=
202011191053 METAR KPAE 191053Z AUTO 20010KT 10SM SCT010 SCT015 OVC020 07/05 A2996 RMK AO2 SLP149 T00670050=
202011190953 METAR KPAE 190953Z AUTO 19010KT 10SM OVC012 07/04 A2993 RMK AO2 SLP139 T00670044=
202011190917 SPECI KPAE 190917Z AUTO 18012KT 10SM BKN013 OVC022 07/04 A2992 RMK AO2 T00670044=
202011190853 METAR KPAE 190853Z AUTO 18012KT 10SM SCT016 OVC024 07/04 A2991 RMK AO2 SLP130 T00670044 51030=
202011190753 METAR KPAE 190753Z AUTO 18014KT 10SM BKN025 BKN090 07/04 A2988 RMK AO2 SLP121 T00670039 400890061=
202011190724 SPECI KPAE 190724Z AUTO 18013KT 10SM FEW016 BKN024 OVC095 07/04 A2986 RMK AO2 T00670039=
202011190653 METAR KPAE 190653Z AUTO 16014G21KT 10SM CLR 07/04 A2985 RMK AO2 SLP110 T00670039=
202011190553 METAR KPAE 190553Z AUTO 16012G22KT 10SM SCT014 07/04 A2982 RMK AO2 SLP099 60000 T00670039 10078 20067 51015=
202011190549 SPECI KPAE 190549Z AUTO 16011G22KT 10SM SCT014 07/04 A2981 RMK AO2=
202011190453 METAR KPAE 190453Z AUTO 16013G19KT 10SM BKN013 07/04 A2979 RMK AO2 SLP089 T00720044=
202011190434 SPECI KPAE 190434Z 16010KT 10SM OVC011 07/05 A2979 RMK AO2 T00720050=
202011190353 METAR KPAE 190353Z 18015G22KT 10SM SCT014 BKN019 07/05 A2977 RMK AO2 SLP084 T00720050=
202011190253 METAR KPAE 190253Z 18016KT 10SM SCT016 BKN021 OVC110 07/04 A2975 RMK AO2 PK WND 18027/0154 SLP075 60000 T00720044 53033=
202011190216 SPECI KPAE 190216Z 19015G23KT 10SM BKN016 BKN110 07/04 A2973 RMK AO2 PK WND 18027/0154 T00720044=
202011190155 SPECI KPAE 190155Z 18019G27KT 10SM SCT014 BKN075 BKN110 07/04 A2971 RMK AO2 PK WND 18027/0154 T00720044=
202011190153 METAR KPAE 190153Z 18021G26KT 10SM BKN014 OVC020 07/04 A2971 RMK AO2 PK WND 20035/0057 SLP062 T00670044=
202011190100 SPECI KPAE 190100Z 18018G35KT 10SM BKN014 BKN020 08/05 A2967 RMK AO2 PK WND 20035/0057 T00780050=
202011190053 METAR KPAE 190053Z 19023G31KT 10SM BKN007 BKN014 OVC028 08/05 A2967 RMK AO2 PK WND 18031/0046 RAB27E37 SLP050 P0000 T00780050=
202011190024 SPECI KPAE 190024Z 18021G29KT 10SM BKN007 BKN014 OVC028 08/06 A2966 RMK AO2 PK WND 18030/0005 T00780056=
202011182353 METAR KPAE 182353Z 18023G29KT 10SM BKN018 OVC027 08/06 A2965 RMK AO2 PK WND 18029/2353 RAE02 SLP041 P0000 60004 T00780056 10089 20072 53016=
202011182253 METAR KPAE 182253Z 19016G24KT 10SM -RA SCT012 BKN016 OVC049 07/06 A2962 RMK AO2 PK WND 19029/2205 RAE15B32 SLP034 P0001 T00720056=
202011182214 SPECI KPAE 182214Z 19017G29KT 10SM -RA SCT012 BKN023 OVC090 08/06 A2962 RMK AO2 PK WND 19029/2205 P0000 T00780061=
202011182153 METAR KPAE 182153Z 19015KT 10SM -RA SCT010 BKN013 OVC050 08/06 A2961 RMK AO2 RAB02 SLP028 P0001 T00830061=
202011182111 SPECI KPAE 182111Z 18013KT 9SM -RA BKN010 BKN016 OVC033 08/07 A2960 RMK AO2 RAB02 P0000 T00830067=
202011182053 METAR KPAE 182053Z 18014G19KT 10SM SCT012 BKN017 OVC050 09/07 A2960 RMK AO2 SLP024 60002 T00890067 51005=
202011182048 SPECI KPAE 182048Z 17013KT 10SM SCT012 BKN017 OVC050 09/07 A2960 RMK AO2=
202011182033 SPECI KPAE 182033Z 17013KT 10SM BKN014 BKN020 OVC032 08/06 A2959 RMK AO2 T00830061=
202011181953 METAR KPAE 181953Z 17012KT 10SM BKN017 BKN024 OVC029 08/06 A2959 RMK AO2 RAE28 SLP020 P0001 T00830061=
202011181949 SPECI KPAE 181949Z 16013G20KT 10SM BKN019 OVC027 08/06 A2958 RMK AO2 RAE28 P0001=
202011181900 SPECI KPAE 181900Z 17015G23KT 10SM -RA FEW033 SCT050 OVC070 08/06 A2958 RMK AO2 P0001 T00780056=
202011181853 METAR KPAE 181853Z 16015G21KT 10SM -RA OVC024 08/06 A2958 RMK AO2 SLP018 P0001 T00780056=
202011181753 METAR KPAE 181753Z 15011KT 9SM -RA OVC024 08/06 A2958 RMK AO2 RAB1659 SLP016 P0002 60009 T00780056 10078 20067 53007=
202011181653 METAR KPAE 181653Z 14005KT 10SM OVC035 08/05 A2956 RMK AO2 SLP011 T00780050=
202011181553 METAR KPAE 181553Z 14003KT 10SM SCT039 OVC045 07/06 A2955 RMK AO2 RAE10 SLP007 P0000 T00720056=
202011181453 METAR KPAE 181453Z VRB03KT 10SM -RA SCT036 OVC046 07/05 A2955 RMK AO2 SLP009 P0001 60007 T00720050 58019=
202011181353 METAR KPAE 181353Z AUTO 15005KT 8SM -RA OVC035 07/06 A2957 RMK AO2 SLP015 P0005 T00720056=
202011181253 METAR KPAE 181253Z AUTO 14006KT 9SM -RA BKN037 OVC046 07/06 A2959 RMK AO2 RAB1156 SLP023 P0001 T00720056=
202011181153 METAR KPAE 181153Z AUTO 24005KT 10SM BKN038 OVC050 07/06 A2961 RMK AO2 RAB24E40 SLP028 P0000 60013 70041 T00720056 10089 20072 58018=
202011181053 METAR KPAE 181053Z AUTO 11008KT 10SM SCT044 BKN050 BKN080 07/06 A2963 RMK AO2 RAB37E51 SLP035 P0000 T00720056=
202011180953 METAR KPAE 180953Z AUTO 15013KT 10SM FEW047 SCT080 BKN100 07/05 A2965 RMK AO2 RAB0859E47 SLP042 P0001 T00720050=
202011180853 METAR KPAE 180853Z AUTO 19018KT 10SM FEW022 SCT090 BKN110 08/05 A2967 RMK AO2 PK WND 18026/0809 RAB20E35 SLP047 P0000 60012 T00780050 53005=
202011180753 METAR KPAE 180753Z AUTO 18017KT 10SM BKN100 08/05 A2965 RMK AO2 SLP041 T00780050 401560072=
202011180653 METAR KPAE 180653Z AUTO 18017G26KT 10SM FEW012 FEW065 SCT090 08/06 A2965 RMK AO2 PK WND 18028/0601 RAE39 SLP041 P0012 T00830061=
202011180648 SPECI KPAE 180648Z AUTO 19018G26KT 10SM FEW009 SCT019 BKN090 09/06 A2965 RMK AO2 PK WND 18028/0601 RAE39 P0012=
202011180632 SPECI KPAE 180632Z AUTO 18016KT 7SM -RA FEW009 BKN018 OVC024 08/07 A2965 RMK AO2 PK WND 18028/0601 P0012 T00830072=
202011180616 SPECI KPAE 180616Z AUTO 20010KT 3SM RA BR SCT018 BKN023 OVC043 09/07 A2965 RMK AO2 PK WND 18028/0601 P0009 T00890067=
202011180553 METAR KPAE 180553Z AUTO 19018G25KT 10SM -RA FEW020 BKN041 OVC047 09/07 A2963 RMK AO2 PK WND 18028/0531 RAB0458E27B49 SLP035 P0000 60014 T00890067 10111 20089 53040=
202011180543 SPECI KPAE 180543Z AUTO 18018G22KT 10SM FEW016 BKN036 OVC044 09/07 A2963 RMK AO2 PK WND 18028/0531 RAB0458E27 P0000 T00890067=
202011180501 SPECI KPAE 180501Z AUTO 20018G26KT 10SM -RA BKN017 BKN023 BKN120 09/07 A2960 RMK AO2 RAB0458 P0000 T00890067=
202011180453 METAR KPAE 180453Z 20020G31KT 10SM FEW017 SCT021 BKN030 09/06 A2960 RMK AO2 PK WND 20039/0434 RAE10 SLP022 P0002 T00890061=
202011180353 METAR KPAE 180353Z 19019KT 10SM -RA FEW014 BKN025 OVC045 09/08 A2954 RMK AO2 PK WND 18028/0341 RAB08 SLP002 P0003 T00940078=
202011180253 METAR KPAE 180253Z 16010KT 10SM SCT029 BKN034 OVC050 09/07 A2952 RMK AO2 LTG DSNT SE RAE11 SLP995 P0001 60009 T00940072 51025=
202011180153 METAR KPAE 180153Z 18017KT 10SM -RA OVC049 09/07 A2948 RMK AO2 LTG DSNT NE SLP984 P0006 T00940072=
202011180053 METAR KPAE 180053Z 20016G30KT 5SM -RA BR FEW023 BKN043 OVC110 10/08 A2948 RMK AO2 PK WND 20030/0049 RAB2358 SLP982 P0002 T01000078=
202011172353 METAR KPAE 172353Z 18021G25KT 10SM OVC047 11/08 A2944 RMK AO2 PK WND 17030/2329 RAB11E20 SLP970 P0000 60014 T01110083 10156 20111 53021=
202011172300 SPECI KPAE 172300Z 19020G26KT 10SM BKN016 BKN021 OVC027 12/09 A2942 RMK AO2 PK WND 19026/2257 T01170089=
202011172253 METAR KPAE 172253Z 20017KT 10SM FEW018 SCT025 BKN033 12/09 A2942 RMK AO2 SLP963 T01170089=
202011172213 SPECI KPAE 172213Z 16016G25KT 10SM FEW018 SCT025 BKN033 12/09 A2940 RMK AO2 T01220094=
202011172206 SPECI KPAE 172206Z 16016G25KT 10SM BKN018 BKN028 OVC095 12/09 A2940 RMK AO2 T01220094=
202011172153 METAR KPAE 172153Z 17017G23KT 10SM FEW018 SCT025 BKN033 12/09 A2940 RMK AO2 PK WND 18026/2143 RAE28 SLP954 P0000 T01170089=
202011172053 METAR KPAE 172053Z 18019G25KT 10SM -RA FEW026 SCT050 OVC075 12/09 A2938 RMK AO2 PK WND 17033/2040 RAB07 SLP948 P0013 60014 T01170094 53011=
202011172035 SPECI KPAE 172035Z 19018G29KT 2SM R16R/6000VP6000FT RA BR BKN018 BKN039 OVC055 12/09 A2937 RMK AO2 PK WND 20029/2032 RAB07 P0011 T01170094=
202011171953 METAR KPAE 171953Z 17017G24KT 10SM OVC046 14/08 A2934 RMK AO2 PK WND 15040/1907 RAB26E53 SLP934 P0000 T01440078=
202011171853 METAR KPAE 171853Z 17021G32KT 10SM FEW049 OVC060 15/07 A2931 RMK AO2 PK WND 16032/1850 RAE33 SLP926 P0001 T01500067=
202011171753 METAR KPAE 171753Z 16016G21KT 10SM -RA BKN065 OVC080 13/07 A2934 RMK AO2 PK WND 18031/1723 RAB1657 SLP937 P0000 60000 T01280067 10133 20111 51020=
202011171653 METAR KPAE 171653Z 17014KT 10SM BKN070 OVC085 12/06 A2934 RMK AO2 SLP936 T01170061=
202011171553 METAR KPAE 171553Z 17015G24KT 10SM BKN100 OVC110 13/06 A2934 RMK AO2 SLP934 T01280056=
202011171453 METAR KPAE 171453Z 14008KT 10SM FEW120 13/04 A2929 RMK AO2 SLP916 T01280039 57031=
202011171353 METAR KPAE 171353Z AUTO 12009KT 10SM CLR 12/04 A2931 RMK AO2 SLP926 T01220039=
202011171253 METAR KPAE 171253Z AUTO 12011G18KT 10SM CLR 11/04 A2935 RMK AO2 SLP940 T01110044=
202011171153 METAR KPAE 171153Z AUTO 11010KT 10SM CLR 11/04 A2938 RMK AO2 SLP950 70077 T01110044 10111 20094 56043=
202011171053 METAR KPAE 171053Z AUTO 11010G15KT 10SM CLR 11/04 A2942 RMK AO2 SLP965 T01060044=
202011170953 METAR KPAE 170953Z AUTO 11009G16KT 10SM CLR 11/04 A2946 RMK AO2 SLP976 T01060044=
202011170853 METAR KPAE 170853Z AUTO 12006KT 10SM CLR 11/04 A2951 RMK AO2 SLP994 T01060044 58036=
202011170753 METAR KPAE 170753Z AUTO 12005KT 10SM CLR 10/05 A2955 RMK AO2 SLP009 T01000050 401000067=
202011170653 METAR KPAE 170653Z AUTO 11007KT 10SM CLR 09/05 A2958 RMK AO2 SLP018 T00940050=
202011170553 METAR KPAE 170553Z AUTO 11009KT 10SM CLR 09/06 A2962 RMK AO2 SLP031 60019 T00940056 10094 20078 56025=
202011170453 METAR KPAE 170453Z AUTO 11006KT 10SM CLR 09/07 A2964 RMK AO2 SLP040 T00890067=
202011170353 METAR KPAE 170353Z 12009KT 10SM BKN055 08/07 A2966 RMK AO2 RAE0257 SLP045 P0000 T00830067=
202011170253 METAR KPAE 170253Z VRB05KT 10SM -RA BKN041 OVC055 08/07 A2969 RMK AO2 SLP057 P0002 60019 T00830067 56017=
202011170200 SPECI KPAE 170200Z 11004KT 9SM -RA OVC030 08/07 A2971 RMK AO2 P0001 T00830072=
202011170153 METAR KPAE 170153Z 11005KT 1 1/2SM -RA BR BKN004 OVC028 08/07 A2971 RMK AO2 SLP064 P0009 T00830072=
202011170053 METAR KPAE 170053Z 12006KT 1 3/4SM RA BR OVC004 08/07 A2973 RMK AO2 SLP068 P0008 T00780072=
202011162356 SPECI KPAE 162356Z 12009KT 1 3/4SM -RA BR OVC004 08/07 A2975 RMK AO2 P0000 T00780067=
202011162353 METAR KPAE 162353Z AUTO 12008KT 2SM -RA BR BKN004 OVC027 08/07 A2975 RMK AO2 SLP075 P0009 60055 T00780067 10078 20067 56039=
202011162259 SPECI KPAE 162259Z 11006KT 2SM -RA BR BKN004 OVC027 07/07 A2978 RMK AO2 P0001 T00720067=
202011162253 METAR KPAE 162253Z 11008KT 2SM -RA BR SCT012 OVC027 07/07 A2979 RMK AO2 SLP089 P0016 T00720067=
202011162229 SPECI KPAE 162229Z 10004KT 2 1/2SM RA BR BKN027 OVC033 08/07 A2980 RMK AO2 P0011 T00780067=
202011162216 SPECI KPAE 162216Z 08005KT 2 1/2SM RA BR OVC031 08/07 A2980 RMK AO2 P0008 T00780067=
202011162153 METAR KPAE 162153Z VRB05KT 4SM RA BR SCT003 BKN020 OVC050 08/07 A2981 RMK AO2 SLP096 P0013 T00780067=
202011162053 METAR KPAE 162053Z 05005KT 6SM -RA BR SCT003 BKN030 07/06 A2986 RMK AO2 SLP115 P0007 60017 T00720061 58050=
202011162024 SPECI KPAE 162024Z 05004KT 5SM -RA BR SCT003 BKN030 07/07 A2989 RMK AO2 P0004 T00720067=
202011161953 METAR KPAE 161953Z 05005KT 6SM -RA BR OVC050 07/06 A2991 RMK AO2 PRESFR SLP130 P0006 T00720061=
202011161853 METAR KPAE 161853Z 06006KT 10SM -RA OVC048 07/05 A2997 RMK AO2 SLP153 P0004 T00670050=
202011161753 METAR KPAE 161753Z 09003KT 10SM -RA BKN046 OVC055 07/05 A3001 RMK AO2 SLP165 P0003 60003 T00720050 10078 20067 56011=
202011161653 METAR KPAE 161653Z 10006KT 10SM -RA OVC050 07/04 A3002 RMK AO2 RAB00 SLP166 P0000 T00720039=
202011161553 METAR KPAE 161553Z 09006KT 10SM BKN039 BKN048 OVC065 08/03 A3004 RMK AO2 SLP174 T00780033=
202011161453 METAR KPAE 161453Z 10006KT 10SM SCT039 BKN055 07/04 A3005 RMK AO2 SLP177 T00720039 58017=
202011161353 METAR KPAE 161353Z AUTO 11006KT 10SM SCT016 OVC060 07/05 A3008 RMK AO2 SLP189 T00720050=
202011161330 SPECI KPAE 161330Z AUTO VRB03KT 10SM SCT018 OVC065 07/05 A3009 RMK AO2 T00720050=
202011161253 METAR KPAE 161253Z AUTO 11006KT 10SM OVC022 07/04 A3009 RMK AO2 SLP192 T00720044=
202011161153 METAR KPAE 161153Z AUTO 11004KT 10SM OVC026 07/05 A3010 RMK AO2 SLP195 60000 T00720050 10083 20072 58013=
202011161146 SPECI KPAE 161146Z AUTO 11005KT 10SM OVC028 07/05 A3010 RMK AO2 T00720050=
202011161053 METAR KPAE 161053Z AUTO VRB04KT 10SM FEW016 OVC034 08/06 A3012 RMK AO2 SLP201 T00780056=
202011160953 METAR KPAE 160953Z AUTO 11004KT 10SM SCT027 SCT038 BKN060 08/05 A3013 RMK AO2 SLP206 T00780050=
202011160853 METAR KPAE 160853Z AUTO 15006KT 10SM FEW017 OVC060 08/05 A3014 RMK AO2 RAB33E44 SLP208 P0000 60000 T00830050 51007=
202011160753 METAR KPAE 160753Z AUTO 15009KT 10SM BKN018 OVC024 08/05 A3014 RMK AO2 SLP207 T00830050 401110067=
202011160653 METAR KPAE 160653Z AUTO 16006KT 10SM SCT017 OVC023 08/06 A3013 RMK AO2 SLP205 T00830056=
202011160553 METAR KPAE 160553Z AUTO 16008KT 10SM BKN021 OVC027 09/06 A3012 RMK AO2 SLP201 T00890056 10100 20083 53010=
202011160453 METAR KPAE 160453Z 18011G18KT 10SM FEW018 BKN027 BKN034 09/06 A3011 RMK AO2 SLP197 T00890056=
202011160407 SPECI KPAE 160407Z 17007KT 10SM SCT020 SCT032 BKN095 09/06 A3010 RMK AO2 T00890056=
202011160353 METAR KPAE 160353Z 16008KT 10SM BKN018 BKN024 OVC100 09/06 A3010 RMK AO2 SLP193 T00890056=
202011160253 METAR KPAE 160253Z 16009KT 10SM BKN021 09/06 A3009 RMK AO2 SLP190 T00940061 51020=
202011160153 METAR KPAE 160153Z 16010KT 10SM BKN021 09/06 A3007 RMK AO2 SLP184 T00890056=
202011160121 SPECI KPAE 160121Z 18012KT 10SM BKN021 09/06 A3005 RMK AO2 T00890056=
202011160111 SPECI KPAE 160111Z 18009KT 10SM SCT020 09/06 A3005 RMK AO2 T00890056=
202011160053 METAR KPAE 160053Z 18011KT 10SM BKN021 09/06 A3005 RMK AO2 SLP176 T00890056=
202011160044 SPECI KPAE 160044Z 19008KT 10SM BKN021 09/06 A3005 RMK AO2 T00890056=
202011152353 METAR KPAE 152353Z 20008KT 10SM CLR 10/05 A3003 RMK AO2 SLP169 T01000050 10111 20089 51012=
202011152300 SPECI KPAE 152300Z 19010KT 10SM CLR 11/05 A3002 RMK AO2 T01060050=
202011152253 METAR KPAE 152253Z 19013G17KT 10SM BKN023 11/05 A3002 RMK AO2 SLP166 T01110050=
202011152153 METAR KPAE 152153Z 19015G24KT 10SM OVC023 11/06 A3000 RMK AO2 SLP161 T01060056=
202011152053 METAR KPAE 152053Z 18013KT 10SM BKN021 OVC095 11/06 A2999 RMK AO2 SLP157 T01060056 51013=
202011151953 METAR KPAE 151953Z 19013KT 10SM BKN021 OVC095 10/06 A2999 RMK AO2 SLP157 T01000056=
202011151929 SPECI KPAE 151929Z 20013G19KT 10SM BKN022 OVC090 09/06 A2999 RMK AO2 T00940056=
202011151853 METAR KPAE 151853Z 18020G25KT 10SM SCT015 BKN090 10/06 A2997 RMK AO2 SLP152 T01000056=
202011151806 SPECI KPAE 151806Z 19016KT 10SM SCT017 OVC095 09/06 A2995 RMK AO2 T00940056=
202011151753 METAR KPAE 151753Z 21012KT 10SM BKN018 OVC100 09/06 A2995 RMK AO2 SLP145 T00890056 10094 20072 53035=
202011151734 SPECI KPAE 151734Z 20014KT 10SM BKN019 OVC100 09/06 A2994 RMK AO2 T00890056=
202011151653 METAR KPAE 151653Z 19013KT 10SM BKN100 08/05 A2990 RMK AO2 SLP129 T00830050=
202011151553 METAR KPAE 151553Z 20014KT 10SM CLR 07/04 A2987 RMK AO2 SLP116 T00720044=
202011151453 METAR KPAE 151453Z 20012KT 10SM FEW014 BKN085 08/05 A2985 RMK AO2 SLP109 T00780050 51028=
202011151353 METAR KPAE 151353Z AUTO 21011KT 10SM FEW014 SCT019 OVC100 08/05 A2982 RMK AO2 SLP100 T00780050=
202011151325 SPECI KPAE 151325Z AUTO 21011KT 10SM SCT014 07/05 A2981 RMK AO2 T00720050=
202011151253 METAR KPAE 151253Z AUTO 23012G20KT 10SM BKN014 OVC090 08/06 A2980 RMK AO2 SLP094 T00780056=
202011151234 SPECI KPAE 151234Z AUTO 21015G22KT 10SM FEW009 OVC016 08/06 A2979 RMK AO2 T00830056=
202011151230 SPECI KPAE 151230Z AUTO 21015KT 10SM FEW010 OVC018 08/06 A2979 RMK AO2 T00830056=
202011151215 SPECI KPAE 151215Z AUTO 23008KT 10SM BKN010 OVC016 08/06 A2978 RMK AO2 CIG 008V014 T00780061=
202011151206 SPECI KPAE 151206Z AUTO 23009G16KT 10SM OVC008 08/06 A2977 RMK AO2 CIG 008V014 T00780061=
202011151153 METAR KPAE 151153Z AUTO 26009KT 10SM BKN010 OVC018 08/06 A2976 RMK AO2 PK WND 24027/1126 CIG 008V015 SLP080 60000 70025 T00780061 10083 20061 53022=
202011151053 METAR KPAE 151053Z AUTO 20016G21KT 10SM BKN014 OVC019 08/06 A2973 RMK AO2 SLP069 T00830061=
202011151024 SPECI KPAE 151024Z AUTO 21012G20KT 10SM BKN010 OVC016 08/07 A2972 RMK AO2 CIG 008V013 T00830067=
202011151011 SPECI KPAE 151011Z AUTO 19017G22KT 10SM OVC009 08/07 A2970 RMK AO2 CIG 007V013 T00830067=
202011150953 METAR KPAE 150953Z AUTO 19016G28KT 10SM OVC010 08/07 A2971 RMK AO2 PK WND 17028/0945 CIG 006V014 SLP062 T00830067=
202011150853 METAR KPAE 150853Z AUTO 18013G21KT 10SM BKN008 BKN012 07/06 A2970 RMK AO2 PK WND 15027/0802 CIG 007V010 SLP058 60000 T00720061 53002=
202011150753 METAR KPAE 150753Z AUTO 16016G23KT 10SM SCT019 SCT028 OVC070 07/05 A2968 RMK AO2 SLP052 T00670050 400780017=
202011150653 METAR KPAE 150653Z AUTO 15012G23KT 10SM OVC019 06/04 A2968 RMK AO2 RAB20E34 SLP052 P0000 T00610044=
202011150603 SPECI KPAE 150603Z AUTO 15016G21KT 10SM BKN021 BKN031 OVC039 06/04 A2969 RMK AO2 T00610039=
202011150553 METAR KPAE 150553Z AUTO 15013G21KT 10SM SCT023 BKN031 OVC040 06/04 A2969 RMK AO2 RAE23 SLP056 P0001 60022 T00610039 10061 20044 56012=
202011150453 METAR KPAE 150453Z 15008KT 5SM -RA BR SCT025 OVC035 06/04 A2970 RMK AO2 SLP061 P0001 T00560039=
202011150435 SPECI KPAE 150435Z VRB05KT 7SM -RA SCT028 OVC037 05/04 A2970 RMK AO2 P0001 T00500039=
202011150426 SPECI KPAE 150426Z 14007KT 8SM -RA BKN028 OVC033 05/04 A2970 RMK AO2 P0001 T00500039=
202011150353 METAR KPAE 150353Z 14008G16KT 10SM -RA FEW030 OVC046 05/04 A2970 RMK AO2 SLP061 P0001 T00500039=
202011150253 METAR KPAE 150253Z AUTO 15010KT 7SM -RA OVC027 05/03 A2973 RMK AO2 SLP069 P0008 60019 T00500033 56055=
202011150153 METAR KPAE 150153Z AUTO 12008KT 7SM -RA OVC028 05/03 A2973 RMK AO2 SLP072 P0007 T00500028=
202011150110 SPECI KPAE 150110Z AUTO 12009G16KT 6SM -RA BR OVC028 05/03 A2979 RMK AO2 PRESFR P0001 T00500028=
202011150053 METAR KPAE 150053Z AUTO 12007KT 100V160 7SM -RA OVC032 05/03 A2982 RMK AO2 PRESFR SLP102 P0004 T00500028=
202011150024 SPECI KPAE 150024Z AUTO 14007KT 080V170 7SM -RA OVC032 05/03 A2986 RMK AO2 P0002 T00500028=
202011142353 METAR KPAE 142353Z AUTO 15012G17KT 5SM -RA OVC026 06/02 A2989 RMK AO2 SLP125 P0003 60003 T00560022 10078 20056 56043=
202011142253 METAR KPAE 142253Z 15012G17KT 10SM -RA FEW031 BKN046 OVC055 07/02 A2993 RMK AO2 RAB34 SLP137 P0000 T00720017=
202011142153 METAR KPAE 142153Z 16009KT 10SM OVC060 08/02 A2997 RMK AO2 SLP151 T00780022=
202011142053 METAR KPAE 142053Z 16009G17KT 10SM FEW045 OVC085 08/02 A3002 RMK AO2 SLP168 T00780022 58020=
202011141953 METAR KPAE 141953Z 16012KT 10SM SCT014 07/03 A3005 RMK AO2 SLP178 T00720033=
202011141917 SPECI KPAE 141917Z 17012KT 10SM SCT014 07/03 A3007 RMK AO2 T00720033=
202011141853 METAR KPAE 141853Z 17010KT 10SM BKN013 07/03 A3008 RMK AO2 SLP188 T00670033=
202011141843 SPECI KPAE 141843Z 17012KT 10SM BKN013 07/03 A3008 RMK AO2 T00670033=
202011141836 SPECI KPAE 141836Z 17011KT 10SM SCT013 07/03 A3008 RMK AO2 T00670033=
202011141828 SPECI KPAE 141828Z 16013KT 10SM BKN013 06/03 A3008 RMK AO2 T00610033=
202011141753 METAR KPAE 141753Z 16010KT 10SM FEW009 06/03 A3008 RMK AO2 SLP190 T00560033 10056 20017 51017=
202011141656 SPECI KPAE 141656Z 15009KT 10SM SCT009 04/02 A3007 RMK AO2 T00440022=
202011141653 METAR KPAE 141653Z 15008KT 10SM SCT010 04/02 A3007 RMK AO2 SLP185 T00440022=
202011141553 METAR KPAE 141553Z 15007KT 10SM CLR 03/02 A3005 RMK AO2 SLP180 T00330022=
202011141453 METAR KPAE 141453Z 16007KT 10SM CLR 03/02 A3003 RMK AO2 SLP172 T00330017 51026=
202011141353 METAR KPAE 141353Z AUTO 16006KT 10SM CLR 03/02 A3001 RMK AO2 SLP165 T00330017=
202011141253 METAR KPAE 141253Z AUTO 19006KT 10SM CLR 02/01 A2998 RMK AO2 SLP156 T00220006=
202011141153 METAR KPAE 141153Z AUTO 17006KT 10SM SCT075 BKN100 BKN120 04/02 A2995 RMK AO2 SLP145 70021 T00390017 10050 20033 51023=
202011141053 METAR KPAE 141053Z AUTO 18007KT 10SM BKN075 04/02 A2994 RMK AO2 SLP139 T00440017=
202011140953 METAR KPAE 140953Z AUTO 16007KT 10SM FEW050 OVC075 04/02 A2991 RMK AO2 SLP130 T00440017=
202011140853 METAR KPAE 140853Z AUTO 16009KT 10SM BKN100 04/02 A2988 RMK AO2 SLP122 T00440017 51030=
202011140753 METAR KPAE 140753Z AUTO 15005KT 10SM CLR 05/02 A2986 RMK AO2 SLP115 T00500017 401060033=
202011140653 METAR KPAE 140653Z AUTO 14004KT 10SM CLR 04/02 A2983 RMK AO2 SLP102 T00440017=
202011140553 METAR KPAE 140553Z AUTO 16006KT 10SM CLR 04/01 A2979 RMK AO2 SLP091 60000 T00390011 10089 20033 53044=
202011140453 METAR KPAE 140453Z VRB04KT 10SM FEW120 04/01 A2975 RMK AO2 SLP075 T00440011=
202011140353 METAR KPAE 140353Z 20006KT 10SM SCT100 BKN120 06/02 A2970 RMK AO2 RAE0256 SLP060 P0000 T00560017=
202011140253 METAR KPAE 140253Z 19008KT 10SM -RA FEW080 06/02 A2966 RMK AO2 RAB46 SLP045 P0000 60000 T00610022 53039=
202011140153 METAR KPAE 140153Z 23007KT 10SM FEW120 07/01 A2962 RMK AO2 SLP031 T00670006=
202011140053 METAR KPAE 140053Z 27012G22KT 10SM FEW080 FEW120 07/01 A2958 RMK AO2 PK WND 29027/2359 SLP018 T00670006=
202011132353 METAR KPAE 132353Z 29014G20KT 10SM SCT045 09/01 A2954 RMK AO2 PRESRR SLP006 T00890011 10106 20078 53050=
202011132253 METAR KPAE 132253Z 24009KT 10SM SCT031 BKN039 OVC070 09/03 A2948 RMK AO2 LTG DSNT E SLP986 T00890028=
202011132153 METAR KPAE 132153Z 26003KT 10SM BKN030 BKN060 10/03 A2943 RMK AO2 SLP968 T01000033=
202011132053 METAR KPAE 132053Z 21009KT 10SM FEW024 SCT029 BKN035 10/05 A2939 RMK AO2 SLP954 T01000050 51050=
202011132035 SPECI KPAE 132035Z 21008KT 10SM FEW015 BKN024 BKN030 10/06 A2938 RMK AO2 LTG DSNT E T01000056=
202011131953 METAR KPAE 131953Z 19004KT 10SM FEW033 SCT040 BKN060 09/07 A2935 RMK AO2 SLP940 T00940072=
202011131853 METAR KPAE 131853Z 18006KT 10SM SCT060 09/07 A2930 RMK AO2 LTG DSNT E AND SE SLP925 T00890067=
202011131753 METAR KPAE 131753Z 21006KT 10SM SCT045 BKN070 BKN110 08/07 A2924 RMK AO2 WSHFT 1712 RAB13E46 SLP904 P0010 60021 T00780067 10083 20061 53021=
202011131737 SPECI KPAE 131737Z 24008G18KT 5SM -RA BR BKN006 BKN011 OVC031 08/07 A2924 RMK AO2 WSHFT 1712 RAB13 P0010 T00780067=
202011131730 SPECI KPAE 131730Z 24010G19KT 3SM -RA BR SCT006 BKN011 OVC031 08/07 A2923 RMK AO2 WSHFT 1712 RAB13 P0010 T00780067=
202011131727 SPECI KPAE 131727Z 25012G19KT 2SM -RA BR BKN006 BKN009 OVC031 08/07 A2923 RMK AO2 WSHFT 1712 RAB13 PRESRR P0009 T00780067=
202011131718 SPECI KPAE 131718Z 24012G21KT 1 3/4SM R16R/6000VP6000FT +RA BR OVC006 08/07 A2922 RMK AO2 RAB13 CIG 004V010 PRESRR P0007 T00830072=
202011131653 METAR KPAE 131653Z 18017KT 10SM OVC009 08/06 A2919 RMK AO2 PK WND 15026/1614 SLP886 T00780061=
202011131553 METAR KPAE 131553Z 17016KT 10SM OVC009 07/05 A2918 RMK AO2 PK WND 18029/1456 SLP883 T00720050=
202011131529 SPECI KPAE 131529Z 17012G21KT 10SM OVC009 07/06 A2917 RMK AO2 PK WND 18029/1456 T00720056=
202011131517 SPECI KPAE 131517Z 17015G22KT 10SM OVC014 07/06 A2918 RMK AO2 PK WND 18029/1456 T00720056=
202011131453 METAR KPAE 131453Z 17017G26KT 10SM BKN015 BKN020 OVC025 07/06 A2918 RMK AO2 PK WND 19032/1428 RAE01 SLP882 P0001 60011 T00720056 56028=
202011131353 METAR KPAE 131353Z AUTO 18017G24KT 10SM -RA BKN017 BKN027 OVC050 07/05 A2919 RMK AO2 PK WND 18034/1318 SLP886 P0007 T00670050=
202011131253 METAR KPAE 131253Z AUTO 17016G24KT 10SM -RA FEW013 BKN020 OVC027 07/05 A2921 RMK AO2 PK WND 18029/1240 SLP893 P0003 T00720050=
202011131202 SPECI KPAE 131202Z AUTO 15014G24KT 9SM -RA SCT022 OVC027 06/04 A2926 RMK AO2 P0001 T00610044=
202011131153 METAR KPAE 131153Z AUTO 16018G25KT 8SM -RA SCT025 BKN030 OVC037 06/04 A2926 RMK AO2 PK WND 16027/1140 SLP911 P0005 60021 70025 T00610044 10067 20056 56068=
202011131053 METAR KPAE 131053Z AUTO 15019G26KT 10SM -RA FEW022 SCT033 OVC042 06/04 A2932 RMK AO2 PK WND 15026/1048 PRESFR SLP930 P0008 T00610044=
202011130953 METAR KPAE 130953Z AUTO 14010G18KT 090V160 6SM -RA BR FEW031 OVC038 06/04 A2940 RMK AO2 SLP958 P0004 T00560044=
202011130853 METAR KPAE 130853Z AUTO 15012G17KT 10SM -RA SCT032 OVC042 06/04 A2947 RMK AO2 SLP981 P0001 60004 T00610044 56058=
202011130753 METAR KPAE 130753Z AUTO 14012G22KT 10SM -RA FEW029 BKN037 OVC045 06/04 A2953 RMK AO2 PRESFR SLP000 P0001 T00560039 400830033=
202011130653 METAR KPAE 130653Z AUTO 14007G17KT 100V160 10SM -RA FEW004 OVC036 06/04 A2959 RMK AO2 SLP021 P0002 T00560044=
202011130646 SPECI KPAE 130646Z AUTO 14010G17KT 090V160 10SM -RA FEW005 FEW009 OVC036 06/04 A2959 RMK AO2 P0002 T00560044=
202011130553 METAR KPAE 130553Z AUTO 15018G25KT 9SM -RA BKN032 OVC039 06/04 A2964 RMK AO2 PK WND 15027/0527 SLP041 P0002 60004 T00610044 10078 20061 58019=
202011130524 SPECI KPAE 130524Z AUTO 15016G23KT 10SM -RA FEW024 BKN030 OVC035 06/04 A2966 RMK AO2 PK WND 15026/0503 P0001 T00610044=
202011130453 METAR KPAE 130453Z AUTO 16018KT 10SM -RA BKN026 OVC035 06/04 A2968 RMK AO2 PK WND 17031/0412 SLP052 P0001 T00610044=
202011130353 METAR KPAE 130353Z 15016G22KT 10SM -RA OVC039 06/04 A2970 RMK AO2 SLP062 P0001 T00610039=
202011130253 METAR KPAE 130253Z 16013G19KT 10SM -RA FEW030 BKN046 OVC080 07/03 A2974 RMK AO2 PK WND 16028/0220 RAE07B30 SLP073 P0000 60000 T00670033 56029=
202011130153 METAR KPAE 130153Z 16016G26KT 10SM -RA BKN043 OVC075 07/03 A2976 RMK AO2 PK WND 16031/0122 RAB49 SLP080 P0000 T00670028=
202011130053 METAR KPAE 130053Z AUTO 17015G23KT 10SM BKN034 OVC044 07/02 A2979 RMK AO2 PK WND 18028/0027 RAB2355E09B30E44 SLP091 P0000 T00720022=
202011122353 METAR KPAE 122353Z AUTO 18012KT 10SM BKN036 OVC045 08/02 A2983 RMK AO2 PK WND 18027/2335 RAB2257E39 SLP102 P0000 60000 T00780022 10083 20056 58030=
202011122253 METAR KPAE 122253Z 17009KT 10SM BKN038 OVC050 08/01 A2986 RMK AO2 RAB04E36 SLP115 P0000 T00780006=
202011122153 METAR KPAE 122153Z 16012G18KT 10SM BKN060 OVC080 08/01 A2989 RMK AO2 SLP123 T00830006=
202011122053 METAR KPAE 122053Z 15012G18KT 10SM OVC050 08/00 A2992 RMK AO2 SLP133 T00830000 58028=
202011121953 METAR KPAE 121953Z 16010KT 10SM FEW032 BKN049 OVC080 07/01 A2996 RMK AO2 SLP147 T00720006=
202011121853 METAR KPAE 121853Z 15009KT 10SM FEW033 OVC041 07/01 A2998 RMK AO2 SLP156 T00720011=
202011121753 METAR KPAE 121753Z VRB05KT 10SM FEW041 OVC070 06/01 A3000 RMK AO2 SLP162 60000 T00560006 10056 20039 56016=
202011121653 METAR KPAE 121653Z VRB05KT 10SM BKN070 04/01 A3001 RMK AO2 SLP166 T00440006=
202011121553 METAR KPAE 121553Z 12005KT 10SM BKN039 04/01 A3003 RMK AO2 SLP172 T00390006=
202011121536 SPECI KPAE 121536Z 11006KT 10SM SCT028 OVC040 04/01 A3003 RMK AO2 T00390006=
202011121514 SPECI KPAE 121514Z 11005KT 10SM BKN025 BKN031 OVC038 04/01 A3004 RMK AO2 T00390006=
202011121453 METAR KPAE 121453Z 11004KT 10SM FEW021 FEW030 BKN038 04/01 A3005 RMK AO2 SLP179 60000 T00390006 58008=
202011121443 SPECI KPAE 121443Z 13003KT 10SM SCT024 SCT030 04/01 A3005 RMK AO2 T00390006=
202011121353 METAR KPAE 121353Z 12004KT 10SM BKN024 OVC030 04/01 A3006 RMK AO2 SLP184 T00390011=
202011121253 METAR KPAE 121253Z VRB03KT 10SM OVC028 04/01 A3008 RMK AO2 RAE11 SLP189 P0000 T00390011=
202011121248 SPECI KPAE 121248Z 11005KT 10SM OVC030 04/01 A3007 RMK AO2 RAE11 P0000=
202011121218 SPECI KPAE 121218Z 10004KT 10SM OVC028 04/01 A3008 RMK AO2 RAE11 P0000 T00390011=
202011121153 METAR KPAE 121153Z 15003KT 10SM -RA SCT027 OVC032 04/01 A3009 RMK AO2 RAB44 SLP193 P0000 60000 T00390006 10044 20033 56015=
202011121053 METAR KPAE 121053Z 12005KT 10SM OVC044 03/01 A3010 RMK AO2 SLP197 T00330006=
202011120953 METAR KPAE 120953Z 11003KT 10SM SCT046 OVC060 04/01 A3011 RMK AO2 SLP201 T00390006=
202011120853 METAR KPAE 120853Z VRB03KT 10SM FEW046 OVC065 04/01 A3013 RMK AO2 SLP208 T00390006 58014=
202011120753 METAR KPAE 120753Z VRB03KT 10SM OVC060 04/01 A3015 RMK AO2 SLP214 T00440006 400610011=
202011120653 METAR KPAE 120653Z 12004KT 10SM OVC060 04/01 A3016 RMK AO2 SLP218 T00440011=
202011120553 METAR KPAE 120553Z 11004KT 10SM OVC049 04/01 A3017 RMK AO2 SLP222 T00440011 10056 20044 56002=
202011120453 METAR KPAE 120453Z 11004KT 10SM OVC048 04/01 A3017 RMK AO2 SLP222 T00440011=
202011120353 METAR KPAE 120353Z 12003KT 10SM OVC046 06/01 A3017 RMK AO2 SLP221 T00560006=
202011120253 METAR KPAE 120253Z 11005KT 10SM OVC045 06/02 A3018 RMK AO2 SLP225 T00560017 56006=
202011120153 METAR KPAE 120153Z VRB03KT 10SM OVC047 05/02 A3019 RMK AO2 SLP228 T00500022=
202011120053 METAR KPAE 120053Z 11007KT 10SM OVC047 05/02 A3019 RMK AO2 SLP228 T00500017=
202011112353 METAR KPAE 112353Z 11004KT 10SM OVC046 06/02 A3020 RMK AO2 SLP232 T00560017 10061 20044 51008=
202011112253 METAR KPAE 112253Z 15003KT 10SM OVC046 06/02 A3019 RMK AO2 SLP229 T00610017=
202011112153 METAR KPAE 112153Z 13004KT 10SM FEW015 OVC045 06/01 A3018 RMK AO2 SLP225 T00560011=
202011112053 METAR KPAE 112053Z 15003KT 10SM SCT006 OVC044 06/02 A3018 RMK AO2 SLP223 T00560022 58002=
202011111956 SPECI KPAE 111956Z 00000KT 10SM SCT006 OVC044 06/02 A3019 RMK AO2 T00560017=
202011111953 METAR KPAE 111953Z 00000KT 10SM FEW015 OVC044 06/02 A3019 RMK AO2 SLP227 T00560022=
202011111912 SPECI KPAE 111912Z 00000KT 10SM BKN027 BKN036 OVC044 05/02 A3019 RMK AO2 T00500017=
202011111853 METAR KPAE 111853Z 00000KT 10SM FEW031 OVC044 05/03 A3019 RMK AO2 SLP229 T00500028=
202011111753 METAR KPAE 111753Z 00000KT 10SM FEW027 FEW035 OVC047 04/01 A3018 RMK AO2 SLP226 T00440011 10044 20011 53011=
202011111738 SPECI KPAE 111738Z 00000KT 10SM SCT029 OVC047 04/01 A3018 RMK AO2 T00440011=
202011111653 METAR KPAE 111653Z 00000KT 10SM OVC025 04/02 A3017 RMK AO2 SLP221 T00390017=
202011111553 METAR KPAE 111553Z 00000KT 10SM SCT028 SCT034 OVC046 03/02 A3016 RMK AO2 SLP217 T00330017 $=
202011111453 METAR KPAE 111453Z 00000KT OVC025 02/01 A3015 RMK AO2 SLP215 T00220011 53012 $=
202011111414 SPECI KPAE 111414Z AUTO 00000KT BKN029 BKN035 BKN045 02/01 A3014 RMK AO2 T00220006 $=
202011111353 METAR KPAE 111353Z AUTO 00000KT FEW030 SCT037 BKN045 02/01 A3014 RMK AO2 SLP210 T00220011 $=
202011111253 METAR KPAE 111253Z AUTO 00000KT OVC037 02/02 A3013 RMK AO2 SLP206 T00220017 $=
202011111153 METAR KPAE 111153Z AUTO 00000KT FEW039 02/01 A3012 RMK AO2 SLP203 70034 T00170006 10033 20011 51012 $=
202011111115 SPECI KPAE 111115Z AUTO 00000KT 10SM SCT027 02/01 A3011 RMK AO2 T00170011 $=
202011111053 METAR KPAE 111053Z AUTO 00000KT OVC028 03/02 A3011 RMK AO2 SLP199 T00280017 $=
202011110953 METAR KPAE 110953Z AUTO 20003KT OVC039 03/01 A3010 RMK AO2 SLP195 T00280011 $=
202011110853 METAR KPAE 110853Z AUTO 01004KT OVC038 03/01 A3008 RMK AO2 SLP191 T00280011 53006 $=
202011110753 METAR KPAE 110753Z AUTO 02004KT CLR 03/01 A3007 RMK AO2 SLP187 T00330011 400610028 $=
202011110653 METAR KPAE 110653Z AUTO 36003KT FEW016 BKN030 03/01 A3006 RMK AO2 SLP183 T00330011 $=
202011110649 SPECI KPAE 110649Z AUTO 35004KT SCT016 BKN030 03/01 A3006 RMK AO2 $=
202011110615 SPECI KPAE 110615Z AUTO 34003KT BKN017 03/02 A3006 RMK AO2 T00280017 $=
202011110553 METAR KPAE 110553Z AUTO VRB03KT FEW011 03/02 A3005 RMK AO2 SLP181 T00280017 10050 20028 53016 $=
202011110519 SPECI KPAE 110519Z AUTO 02004KT FEW011 SCT018 03/02 A3004 RMK AO2 T00330022 $=
202011110511 SPECI KPAE 110511Z AUTO 02005KT 10SM SCT012 BKN019 04/02 A3004 RMK AO2 T00390022 $=
202011110500 SPECI KPAE 110500Z AUTO 01005KT FEW012 04/02 A3003 RMK AO2 T00390022 $=
202011110453 METAR KPAE 110453Z AUTO 35004KT 10SM SCT011 BKN027 03/02 A3003 RMK AO2 SLP174 T00330017 $=
202011110353 METAR KPAE 110353Z 34004KT 10SM SCT011 OVC027 04/02 A3002 RMK AO2 SLP168 T00390022 $=
202011110253 METAR KPAE 110253Z 35006KT 10SM BKN006 BKN010 OVC022 04/03 A3000 RMK AO2 SLP164 T00440033 53010 $=
202011110200 SPECI KPAE 110200Z 33005KT 10SM BKN006 OVC015 05/04 A2999 RMK AO2 CIG 003V010 T00500039 $=
202011110153 METAR KPAE 110153Z 35005KT 10SM BKN004 BKN009 OVC017 05/04 A2999 RMK AO2 SLP159 T00500039 $=
202011110056 SPECI KPAE 110056Z 34003KT 10SM BKN004 BKN009 OVC017 05/04 A2998 RMK AO2 T00500039 $=
202011110053 METAR KPAE 110053Z VRB03KT 10SM SCT002 BKN007 OVC040 05/04 A2998 RMK AO2 SLP155 T00500039 $=
202011102359 SPECI KPAE 102359Z 32003KT 10SM SCT002 BKN007 OVC040 05/04 A2998 RMK AO2 T00500039 $=
202011102353 METAR KPAE 102353Z 33003KT 10SM BKN004 OVC028 05/04 A2997 RMK AO2 RAB2258E38 SLP153 P0001 60017 T00500039 10061 20050 53002 $=
202011102320 SPECI KPAE 102320Z 36004KT 10SM -RA BKN004 OVC028 05/04 A2997 RMK AO2 RAB2258 P0001 T00500039 $=
202011102312 SPECI KPAE 102312Z VRB03KT 10SM -RA BKN028 OVC035 05/04 A2996 RMK AO2 RAB2258 P0000 T00500039 $=
202011102253 METAR KPAE 102253Z 01006KT SCT037 BKN045 OVC065 06/03 A2996 RMK AO2 RAE2159 SLP149 P0000 T00560033 $=
202011102153 METAR KPAE 102153Z 04004KT 6SM -RA BR FEW003 BKN036 OVC043 06/04 A2996 RMK AO2 SLP148 P0005 T00610039 $=
202011102132 SPECI KPAE 102132Z 06003KT 5SM -RA BR FEW011 BKN034 OVC044 06/04 A2996 RMK AO2 P0004 T00560039 $=
202011102106 SPECI KPAE 102106Z 04003KT 3SM RA BR BKN008 BKN016 OVC028 05/04 A2996 RMK AO2 P0003 T00500039=
202011102053 METAR KPAE 102053Z 01004KT 3SM -RA BR BKN003 BKN008 OVC013 05/04 A2997 RMK AO2 SLP151 P0011 60011 T00500044 56006=
202011102003 SPECI KPAE 102003Z 16003KT -RA BKN005 BKN013 06/04 A2997 RMK AO2 P0001 T00560044=
202011102000 SPECI KPAE 102000Z 14003KT -RA BKN013 OVC018 06/04 A2997 RMK AO2 P0001 T00560044=
202011101953 METAR KPAE 101953Z 14004KT 4SM -RA BR BKN005 BKN013 OVC021 06/04 A2997 RMK AO2 RAE32B52 SLP152 P0000 T00560044=
202011101855 SPECI KPAE 101855Z 00000KT 4SM -RA BR BKN005 BKN013 OVC021 06/05 A2998 RMK AO2 P0000 T00610050 $=
202011101853 METAR KPAE 101853Z 00000KT 6SM -RA BR BKN004 06/05 A2998 RMK AO2 RAB50 SLP156 P0000 T00610050 $=
202011101753 METAR KPAE 101753Z 11007KT 10SM BKN004 05/04 A2999 RMK AO2 SLP159 60017 T00500039 10061 20044 51009 $=
202011101653 METAR KPAE 101653Z 10003KT 10SM BKN007 BKN030 OVC036 04/03 A2998 RMK AO2 RAE40 SLP156 P0003 T00440033 $=
202011101621 SPECI KPAE 101621Z 04003KT 10SM -RA BKN007 BKN015 OVC025 04/04 A2998 RMK AO2 P0003 T00440039 $=
202011101608 SPECI KPAE 101608Z 36004KT 10SM -RA FEW006 BKN016 OVC020 04/04 A2998 RMK AO2 P0002 T00440039 $=
202011101553 METAR KPAE 101553Z 20005KT 10SM -RA BKN007 OVC023 05/04 A2998 RMK AO2 SLP157 P0012 T00500039 $=
202011101518 SPECI KPAE 101518Z 26004KT RA BKN007 OVC023 05/04 A2998 RMK AO2 P0002 T00500039 $=
202011101453 METAR KPAE 101453Z 15006KT 10SM -RA BKN023 BKN030 OVC036 05/04 A2996 RMK AO2 RAB19 SLP149 P0002 60002 T00500039 58008 $=
202011101440 SPECI KPAE 101440Z AUTO 18007KT -RA SCT024 OVC038 05/03 A2996 RMK AO2 RAB19 P0001 T00500033 $=
202011101353 METAR KPAE 101353Z AUTO 15005KT BKN020 BKN026 OVC036 05/03 A2997 RMK AO2 RAB13E45 SLP153 P0000 T00500033 $=
202011101253 METAR KPAE 101253Z AUTO 17007KT OVC024 05/03 A2998 RMK AO2 SLP156 T00500028 $=
202011101153 METAR KPAE 101153Z AUTO 19006KT BKN018 OVC026 06/03 A2998 RMK AO2 SLP156 60001 70010 T00560028 10056 20033 51007 $=
202011101053 METAR KPAE 101053Z AUTO 24005KT BKN018 OVC023 05/03 A2998 RMK AO2 SLP155 T00500028 $=
202011101000 SPECI KPAE 101000Z AUTO 20008KT 10SM SCT008 SCT014 BKN022 04/03 A2998 RMK AO2 T00440033 $=
202011100953 METAR KPAE 100953Z AUTO 22008KT 10SM BKN008 BKN014 OVC030 04/03 A2997 RMK AO2 CIG 007V012 SLP153 T00440033 $=
202011100930 SPECI KPAE 100930Z AUTO 19010KT 10SM FEW008 BKN012 OVC031 04/03 A2996 RMK AO2 T00440033 $=
202011100853 METAR KPAE 100853Z AUTO 19012KT 10SM OVC009 04/03 A2996 RMK AO2 CIG 007V014 SLP149 60001 T00440033 55016 $=
202011100753 METAR KPAE 100753Z AUTO 16010KT 10SM OVC009 03/02 A2996 RMK AO2 CIG 006V012 SLP149 T00330022 400561006 $=
202011100727 SPECI KPAE 100727Z AUTO 15011KT 10SM OVC013 03/02 A2996 RMK AO2 T00330022 $=
202011100653 METAR KPAE 100653Z AUTO 16009KT 10SM BKN020 OVC025 03/02 A2998 RMK AO2 RAE26 SLP156 P0001 T00330022 $=
202011100553 METAR KPAE 100553Z AUTO 16011KT 10SM -RA SCT021 OVC026 03/02 A3001 RMK AO2 RAB0456UPB0457E07 SLP166 P0002 60009 T00280017 10050 20028 56019 $=
202011100544 SPECI KPAE 100544Z AUTO 16009KT 10SM -RA FEW021 OVC028 03/02 A3001 RMK AO2 RAB0456UPB0457E07 P0001 T00280017 $=
202011100531 SPECI KPAE 100531Z AUTO 16010KT 10SM -RA FEW006 SCT013 OVC030 03/02 A3001 RMK AO2 RAB0456UPB0457E07 P0001 T00280017 $=
202011100524 SPECI KPAE 100524Z AUTO 16010KT 10SM -RA FEW007 BKN012 OVC030 03/02 A3002 RMK AO2 RAB0456UPB0457E07 P0001 T00280017 $=
202011100453 METAR KPAE 100453Z 14009KT 10SM OVC006 03/02 A3002 RMK AO2 SLP171 T00280017 $=
202011100353 METAR KPAE 100353Z 15015G26KT 10SM OVC006 03/01 A3003 RMK AO2 PK WND 16026/0344 RAE11 CIG 005V009 SLP175 P0001 T00280011 $=
202011100318 SPECI KPAE 100318Z 14012G22KT 10SM BKN009 OVC019 03/01 A3006 RMK AO2 RAE11 CIG 007V012 P0001 T00330011 $=
202011100253 METAR KPAE 100253Z 15015G24KT 10SM -RA OVC012 03/01 A3006 RMK AO2 SLP186 P0006 60006 T00280011 56015 $=
202011100250 SPECI KPAE 100250Z 15016G24KT 10SM -RA OVC012 03/01 A3006 RMK AO2 P0006 $=
202011100217 SPECI KPAE 100217Z 15019G25KT 10SM -RA BKN024 OVC030 04/01 A3008 RMK AO2 P0001 T00390006 $=
202011100153 METAR KPAE 100153Z 15012G20KT 10SM -RA BKN030 OVC075 04/00 A3008 RMK AO2 RAE26B47 SLP192 P0000 T00390000 $=
202011100053 METAR KPAE 100053Z 15011G18KT 10SM -RA SCT036 SCT045 OVC060 05/M01 A3011 RMK AO2 RAB42 SLP200 P0000 T00501011 $=
202011092353 METAR KPAE 092353Z 15009G16KT BKN049 OVC060 05/M01 A3013 RMK AO2 SLP207 T00501011 10056 20028 57019 $=
202011092253 METAR KPAE 092253Z 15012KT BKN075 OVC090 06/M02 A3014 RMK AO2 SLP212 T00561022 $=
202011092153 METAR KPAE 092153Z 16007KT 10SM BKN065 OVC080 06/M02 A3017 RMK AO2 SLP222 T00561017 $=
202011092053 METAR KPAE 092053Z 17007KT 10SM BKN060 OVC090 05/M01 A3019 RMK AO2 SLP227 T00501011 58012 $=
202011091953 METAR KPAE 091953Z 15009KT 10SM OVC075 04/M01 A3020 RMK AO2 SLP232 T00441011 $=
202011091853 METAR KPAE 091853Z 16009KT 10SM OVC080 04/M02 A3021 RMK AO2 SLP235 T00391017 $=
202011091753 METAR KPAE 091753Z 16008KT 10SM OVC090 03/M02 A3022 RMK AO2 SLP238 T00281017 10028 21006 53003 $=
202011091653 METAR KPAE 091653Z 16006KT BKN110 02/M01 A3022 RMK AO2 SLP237 T00221011 $=
202011091553 METAR KPAE 091553Z 15006KT 10SM CLR 01/M02 A3021 RMK AO2 SLP236 T00111022 $=
202011091453 METAR KPAE 091453Z 15006KT CLR 01/M02 A3021 RMK AO2 SLP235 T00061017 50001 $=
202011091353 METAR KPAE 091353Z AUTO 15005KT 10SM CLR 01/M01 A3022 RMK AO2 SLP238 T00111011 $=
202011091253 METAR KPAE 091253Z AUTO 15004KT 10SM CLR 00/M03 A3021 RMK AO2 SLP235 T00001028 $=
202011091153 METAR KPAE 091153Z AUTO 15005KT CLR 01/M03 A3021 RMK AO2 SLP234 T00111028 10028 20000 51002 $=
202011091053 METAR KPAE 091053Z AUTO VRB03KT CLR 01/M03 A3021 RMK AO2 SLP232 T00061028 $=
202011090953 METAR KPAE 090953Z AUTO 15005KT CLR 01/M03 A3021 RMK AO2 SLP232 T00061033 $=
202011090853 METAR KPAE 090853Z AUTO 15004KT CLR 01/M04 A3020 RMK AO2 SLP231 T00061039 53003 $=
202011090753 METAR KPAE 090753Z AUTO 14003KT CLR 02/M04 A3019 RMK AO2 SLP229 T00221039 400830006 $=
202011090653 METAR KPAE 090653Z AUTO 00000KT 10SM CLR 02/M05 A3019 RMK AO2 SLP228 T00221050 $=
202011090553 METAR KPAE 090553Z AUTO 11005KT CLR 03/M04 A3019 RMK AO2 SLP228 T00281044 10072 20017 51009 $=
202011090453 METAR KPAE 090453Z AUTO 28003KT CLR 04/M06 A3019 RMK AO2 SLP227 T00391056 $=
202011090353 METAR KPAE 090353Z 32004KT 10SM CLR 05/M06 A3018 RMK AO2 SLP224 T00501061 $=
202011090253 METAR KPAE 090253Z 10SM CLR 05/M06 A3017 RMK AO2 SLP219 T00501061 51018 $=
202011090153 METAR KPAE 090153Z 29005KT CLR 04/M06 A3016 RMK AO2 SLP216 T00441061 $=
202011090053 METAR KPAE 090053Z 30007KT 10SM CLR 06/M07 A3014 RMK AO2 SLP209 T00561067 $=
202011082353 METAR KPAE 082353Z 31009KT 10SM CLR 07/M07 A3011 RMK AO2 SLP200 T00671072 10083 20061 53020 $=
202011082253 METAR KPAE 082253Z 33007KT CLR 08/M08 A3009 RMK AO2 SLP191 T00831078 $=
202011082153 METAR KPAE 082153Z 35010G14KT CLR 08/M07 A3006 RMK AO2 SLP182 T00831067 $=
202011082053 METAR KPAE 082053Z 35007G14KT 10SM CLR 08/M06 A3005 RMK AO2 SLP179 T00781061 51018 $=
202011081953 METAR KPAE 081953Z 34009KT 10SM CLR 07/M06 A3004 RMK AO2 SLP174 T00721056 $=
202011081853 METAR KPAE 081853Z 33008KT CLR 07/M06 A3002 RMK AO2 SLP171 T00671056 $=
202011081753 METAR KPAE 081753Z 35009G18KT 10SM CLR 06/M06 A3000 RMK AO2 SLP161 T00611056 10061 20039 51027 $=
202011081653 METAR KPAE 081653Z 33010KT 10SM CLR 05/M07 A2998 RMK AO2 SLP157 T00501067 $=
202011081553 METAR KPAE 081553Z 36010G16KT 10SM OVC120 04/M07 A2995 RMK AO2 SLP145 T00441072 $=
202011081453 METAR KPAE 081453Z 35010KT 10SM OVC110 04/M07 A2991 RMK AO2 SLP133 T00391067 53030 $=
202011081353 METAR KPAE 081353Z 35010G17KT 10SM SCT100 04/M07 A2989 RMK AO2 SLP124 T00441067 $=
202011081253 METAR KPAE 081253Z 36010G19KT 10SM CLR 04/M07 A2985 RMK AO2 SLP112 T00391067 $=
202011081153 METAR KPAE 081153Z 34015G21KT 10SM CLR 04/M07 A2982 RMK AO2 PK WND 36026/1111 SLP103 T00441067 10050 20044 53017 $=
202011081053 METAR KPAE 081053Z 35012G23KT 10SM CLR 04/M07 A2981 RMK AO2 SLP098 T00441067 $=
202011080953 METAR KPAE 080953Z 35009G22KT 10SM CLR 04/M07 A2979 RMK AO2 SLP090 T00441067 $=
202011080853 METAR KPAE 080853Z 36007KT 10SM CLR 04/M06 A2977 RMK AO2 SLP086 T00441061 53010 $=
202011080753 METAR KPAE 080753Z 35012G20KT CLR 04/M07 A2974 RMK AO2 SLP076 T00441067 400610011 $=
202011080653 METAR KPAE 080653Z 36008G17KT FEW100 04/M07 A2975 RMK AO2 SLP077 T00441067 $=
202011080553 METAR KPAE 080553Z 36010G17KT FEW085 05/M07 A2974 RMK AO2 SLP075 T00501067 10061 20044 51007 $=
202011080453 METAR KPAE 080453Z 35009G16KT 10SM CLR 05/M06 A2974 RMK AO2 SLP074 T00501056 $=
202011080353 METAR KPAE 080353Z 01007KT 10SM CLR 05/M04 A2973 RMK AO2 SLP071 T00501044 $=
202011080253 METAR KPAE 080253Z 01009G19KT 10SM FEW095 06/M03 A2972 RMK AO2 SLP069 T00561033 56005=
202011080201 SPECI KPAE 080201Z 36009G18KT 10SM OVC090 06/M02 A2972 RMK AO2 T00611017 $=
202011080153 METAR KPAE 080153Z 35009G20KT OVC090 06/M01 A2972 RMK AO2 SLP069 T00611011 $=
202011080053 METAR KPAE 080053Z 34005KT SCT028 SCT034 OVC095 06/01 A2973 RMK AO2 SLP071 T00560011 $=
202011072353 METAR KPAE 072353Z 35008KT FEW017 BKN034 OVC090 06/02 A2974 RMK AO2 SLP073 60000 T00560017 10056 20039 53003 $=
202011072253 METAR KPAE 072253Z 32008KT FEW012 BKN080 05/02 A2972 RMK AO2 SLP068 T00500017 $=
202011072235 SPECI KPAE 072235Z 30008KT SCT012 BKN030 OVC080 05/02 A2972 RMK AO2 T00500017 $=
202011072153 METAR KPAE 072153Z 35006KT 10SM BKN021 BKN029 OVC070 05/02 A2972 RMK AO2 SLP068 T00500017 $=
202011072117 SPECI KPAE 072117Z 34006KT 10SM BKN021 BKN029 OVC070 05/01 A2972 RMK AO2 T00500011 $=
202011072053 METAR KPAE 072053Z 32006KT 10SM OVC070 05/01 A2973 RMK AO2 SLP069 60000 T00500011 58010=
202011071953 METAR KPAE 071953Z 36003KT 10SM VCFG BKN037 OVC055 04/02 A2975 RMK AO2 RAB14E41 SLP077 VIS N 1/2 FG MOVING SOUTH P0000 T00390017 $=
202011071900 SPECI KPAE 071900Z 34004KT 10SM VCFG FEW002 BKN060 04/03 A2976 RMK AO2 VIS N 1/2 FG MOVING SOUTH T00390028 $=
202011071853 METAR KPAE 071853Z 36006KT 10SM VCFG BKN029 OVC060 04/03 A2976 RMK AO2 SLP081 VIS N 1/2 FG MOVING SOUTH T00390028 $=
202011071842 SPECI KPAE 071842Z 36005KT 10SM VCFG BKN029 OVC060 04/03 A2976 RMK AO2 VIS N 1/2 FG MOVING SOUTH T00390028 $=
202011071753 METAR KPAE 071753Z 01004KT 10SM BKN050 OVC060 05/01 A2976 RMK AO2 SLP080 T00500011 10056 20011 58010 $=
202011071653 METAR KPAE 071653Z 35004KT 10SM BKN037 05/03 A2977 RMK AO2 SLP085 T00500028 $=
202011071553 METAR KPAE 071553Z 00000KT 10SM BKN031 02/01 A2979 RMK AO2 SLP091 T00220011 $=
202011071453 METAR KPAE 071453Z 32003KT BKN030 02/01 A2979 RMK AO2 SLP091 T00170011 58004 $=
202011071353 METAR KPAE 071353Z AUTO 00000KT FEW024 02/01 A2980 RMK AO2 SLP094 T00170006 $=
202011071253 METAR KPAE 071253Z AUTO 00000KT CLR 03/02 A2980 RMK AO2 SLP095 T00280017 $=
202011071153 METAR KPAE 071153Z AUTO 33003KT CLR 03/02 A2980 RMK AO2 SLP093 T00280017 10050 20028 58007 $=
202011071053 METAR KPAE 071053Z AUTO 00000KT CLR 03/02 A2982 RMK AO2 SLP099 T00330022 $=
202011070953 METAR KPAE 070953Z AUTO 34003KT CLR 04/02 A2982 RMK AO2 SLP099 T00390022 $=
202011070853 METAR KPAE 070853Z AUTO 35004KT CLR 04/02 A2982 RMK AO2 SLP100 T00390022 56013 $=
202011070753 METAR KPAE 070753Z AUTO 36003KT CLR 04/02 A2983 RMK AO2 SLP103 T00440022 401000039 $=
202011070653 METAR KPAE 070653Z AUTO 36005KT CLR 05/02 A2984 RMK AO2 SLP109 T00500022 $=
202011070553 METAR KPAE 070553Z AUTO 35003KT SCT020 04/02 A2986 RMK AO2 SLP114 T00390022 10089 20039 56004 $=
202011070537 SPECI KPAE 070537Z AUTO 00000KT BKN021 04/03 A2985 RMK AO2 T00440028 $=
202011070528 SPECI KPAE 070528Z AUTO 01003KT SCT021 05/03 A2985 RMK AO2 T00500028 $=
202011070521 SPECI KPAE 070521Z AUTO 00000KT BKN021 06/03 A2986 RMK AO2 T00560028 $=
202011070453 METAR KPAE 070453Z AUTO 03004KT CLR 05/02 A2986 RMK AO2 SLP114 T00500022 $=
202011070353 METAR KPAE 070353Z 05004KT CLR 06/03 A2985 RMK AO2 SLP111 T00560028 $=
202011070253 METAR KPAE 070253Z 36003KT 10SM CLR 06/03 A2987 RMK AO2 SLP117 T00560028 50007=
202011070153 METAR KPAE 070153Z 35004KT 10SM CLR 06/02 A2987 RMK AO2 SLP118 T00560022=
202011070053 METAR KPAE 070053Z 33003KT 10SM CLR 07/02 A2986 RMK AO2 SLP113 T00720022=
202011062353 METAR KPAE 062353Z 33005KT 10SM CLR 09/02 A2985 RMK AO2 SLP109 T00890022 10100 20072 58003=
202011062253 METAR KPAE 062253Z 32010KT 10SM SCT026 09/03 A2985 RMK AO2 SLP110 T00940028=
202011062153 METAR KPAE 062153Z 34010G18KT 10SM OVC027 09/03 A2986 RMK AO2 SLP112 T00890028=
202011062053 METAR KPAE 062053Z 35009KT 10SM OVC024 09/03 A2986 RMK AO2 SLP112 T00890033 55008=
202011062036 SPECI KPAE 062036Z VRB06G16KT 10SM BKN024 09/03 A2986 RMK AO2 T00890033=
202011061953 METAR KPAE 061953Z 35010G20KT 10SM SCT022 09/03 A2986 RMK AO2 SLP112 T00890028=
202011061915 SPECI KPAE 061915Z 33012G16KT 10SM SCT022 09/03 A2987 RMK AO2 T00890033=
202011061853 METAR KPAE 061853Z 33012G16KT 10SM BKN020 08/03 A2988 RMK AO2 SLP120 T00830033=
202011061753 METAR KPAE 061753Z 33012G16KT 10SM OVC018 07/04 A2988 RMK AO2 SLP121 T00720039 10072 20067 50005=
202011061653 METAR KPAE 061653Z 34009G18KT 10SM OVC016 07/04 A2988 RMK AO2 SLP122 T00720039=
202011061553 METAR KPAE 061553Z 34010G18KT 10SM BKN017 07/04 A2988 RMK AO2 SLP120 T00720039=
202011061453 METAR KPAE 061453Z 34011G23KT 10SM BKN017 07/03 A2987 RMK AO2 SLP116 T00720033 55001=
202011061401 SPECI KPAE 061401Z AUTO 34011G23KT 10SM BKN015 07/04 A2984 RMK AO2 T00720039=
202011061353 METAR KPAE 061353Z AUTO 34013G25KT 10SM SCT015 07/04 A2984 RMK AO2 SLP107 T00720039=
202011061253 METAR KPAE 061253Z AUTO 34014G21KT 10SM FEW013 BKN110 07/04 A2986 RMK AO2 SLP114 T00720039=
202011061153 METAR KPAE 061153Z AUTO 33008KT 10SM SCT120 07/04 A2987 RMK AO2 SLP117 70013 T00720044 10072 20067 58005=
202011061053 METAR KPAE 061053Z AUTO 33006KT 10SM FEW012 BKN120 07/05 A2989 RMK AO2 SLP124 T00720050=
202011061033 SPECI KPAE 061033Z AUTO 34008KT 320V020 10SM SCT008 BKN120 07/05 A2988 RMK AO2 T00720050=
202011060953 METAR KPAE 060953Z AUTO 32006KT 10SM OVC007 07/06 A2989 RMK AO2 SLP122 T00720056=
202011060932 SPECI KPAE 060932Z AUTO 34006KT 10SM BKN008 OVC120 07/06 A2988 RMK AO2 CIG 007V012 T00720061=
202011060853 METAR KPAE 060853Z AUTO 35009G16KT 10SM BKN010 OVC014 07/06 A2988 RMK AO2 CIG 006V013 SLP121 T00720056 55003=
202011060836 SPECI KPAE 060836Z AUTO 34008G15KT 10SM BKN007 OVC013 07/06 A2989 RMK AO2 CIG 005V011 T00720056=
202011060826 SPECI KPAE 060826Z AUTO 35008KT 10SM SCT007 BKN010 OVC110 07/06 A2988 RMK AO2 CIG 008V013 T00720056=
202011060807 SPECI KPAE 060807Z AUTO 35009G16KT 10SM FEW007 OVC110 07/06 A2988 RMK AO2 T00720056=
202011060753 METAR KPAE 060753Z AUTO 36007KT 10SM OVC110 07/06 A2987 RMK AO2 SLP117 T00720056 401500061=
202011060653 METAR KPAE 060653Z AUTO 35009KT 10SM OVC110 07/06 A2986 RMK AO2 PRESFR SLP114 T00670056=
202011060618 SPECI KPAE 060618Z AUTO 36009KT 10SM FEW006 SCT080 OVC110 07/05 A2989 RMK AO2 T00670050=
202011060553 METAR KPAE 060553Z AUTO 01008KT 10SM OVC110 07/05 A2989 RMK AO2 SLP124 T00670050 10083 20061 56018=
202011060453 METAR KPAE 060453Z AUTO 02006KT 10SM OVC110 07/05 A2989 RMK AO2 SLP124 T00670050=
202011060353 METAR KPAE 060353Z 06004KT 10SM BKN110 07/04 A2991 RMK AO2 PRESFR SLP129 T00720044=
202011060253 METAR KPAE 060253Z 00000KT 10SM FEW120 07/06 A2994 RMK AO2 SLP142 T00720056 58019=
202011060153 METAR KPAE 060153Z 00000KT 10SM FEW120 07/06 A2996 RMK AO2 SLP147 T00720056=
202011060053 METAR KPAE 060053Z 15005KT 10SM SCT100 08/05 A2999 RMK AO2 SLP155 T00780050=
202011052353 METAR KPAE 052353Z AUTO 11009KT 10SM BKN100 08/06 A3000 RMK AO2 SLP160 60013 T00780056 10106 20078 58029=
202011052253 METAR KPAE 052253Z 10005KT 10SM FEW007 OVC046 08/07 A3003 RMK AO2 RAE37 SLP171 P0001 T00830072=
202011052214 SPECI KPAE 052214Z 11008KT 10SM -RA FEW007 OVC046 08/07 A3006 RMK AO2 P0000 T00830072=
202011052153 METAR KPAE 052153Z 10007KT 10SM -RA SCT007 BKN017 OVC044 09/07 A3006 RMK AO2 SLP180 P0004 T00890072=
202011052144 SPECI KPAE 052144Z 11007KT 10SM -RA SCT007 BKN017 OVC044 09/07 A3008 RMK AO2 P0003 T00890072=
202011052137 SPECI KPAE 052137Z 09006KT 10SM -RA FEW007 FEW017 OVC044 09/07 A3007 RMK AO2 P0003 T00890072=
202011052053 METAR KPAE 052053Z 00000KT 10SM -RA OVC045 09/06 A3009 RMK AO2 SLP189 P0006 60008 T00890056 58010=
202011052000 SPECI KPAE 052000Z 35003KT 10SM -RA OVC036 09/06 A3011 RMK AO2 P0001 T00890061=
202011051953 METAR KPAE 051953Z VRB04KT 10SM -RA SCT019 OVC026 09/07 A3011 RMK AO2 SLP198 P0002 T00940067=
202011051925 SPECI KPAE 051925Z 36005KT 10SM -RA SCT019 OVC026 09/08 A3011 RMK AO2 P0001 T00940078=
202011051918 SPECI KPAE 051918Z VRB05KT 10SM -RA FEW017 OVC035 09/07 A3011 RMK AO2 P0001 T00940072=
202011051853 METAR KPAE 051853Z 36005KT 10SM -RA SCT019 OVC026 10/07 A3011 RMK AO2 RAB48 SLP197 P0000 T01000072=
202011051753 METAR KPAE 051753Z VRB03KT 10SM OVC016 11/07 A3012 RMK AO2 SLP199 60000 T01060072 10139 20100 51010=
202011051737 SPECI KPAE 051737Z 02004KT 10SM OVC015 11/07 A3012 RMK AO2 T01060072=
202011051653 METAR KPAE 051653Z 02010KT 10SM OVC013 10/08 A3011 RMK AO2 RAB10E40 SLP194 P0000 T01000078=
202011051642 SPECI KPAE 051642Z 01007KT 10SM OVC015 10/08 A3010 RMK AO2 RAB10E40 P0000 T01000083=
202011051633 SPECI KPAE 051633Z 00000KT 10SM -RA BKN013 BKN025 OVC065 10/08 A3010 RMK AO2 RAB10 P0000 T01000083=
202011051601 SPECI KPAE 051601Z 20007KT 10SM BKN020 OVC100 13/09 A3009 RMK AO2 T01280094=
202011051553 METAR KPAE 051553Z 21009KT 10SM SCT007 OVC100 13/10 A3009 RMK AO2 RAE17 SLP189 P0000 T01280100=
202011051543 SPECI KPAE 051543Z 21012KT 10SM SCT007 OVC100 13/10 A3009 RMK AO2 RAE17 P0000 T01280100=
202011051453 METAR KPAE 051453Z 21014KT 10SM -RA BKN060 OVC075 13/09 A3008 RMK AO2 RAB21 SLP186 P0000 60000 T01280094 53009=
202011051353 METAR KPAE 051353Z AUTO 19015KT 10SM BKN100 13/10 A3006 RMK AO2 PK WND 18029/1254 SLP179 T01330100=
202011051253 METAR KPAE 051253Z AUTO 18018G27KT 10SM CLR 13/10 A3004 RMK AO2 PK WND 18027/1253 SLP172 T01330100=
202011051153 METAR KPAE 051153Z AUTO 19015KT 10SM CLR 14/09 A3005 RMK AO2 SLP175 70016 T01390094 10150 20139 53009=
202011051053 METAR KPAE 051053Z AUTO 20018G25KT 10SM CLR 14/11 A3004 RMK AO2 PK WND 20028/1019 SLP173 T01390106=
202011050953 METAR KPAE 050953Z AUTO 18021G30KT 10SM FEW013 14/12 A3002 RMK AO2 PK WND 19031/0857 SLP164 T01440117=
202011050853 METAR KPAE 050853Z AUTO 18018KT 10SM BKN090 14/12 A3002 RMK AO2 PK WND 20028/0800 SLP166 T01440117 51015=
202011050753 METAR KPAE 050753Z AUTO 19020G28KT 10SM CLR 15/12 A3002 RMK AO2 PK WND 18038/0703 SLP163 T01500122 401720144=
202011050726 SPECI KPAE 050726Z AUTO 19025G33KT 10SM FEW014 SCT023 15/13 A3000 RMK AO2 PK WND 18038/0703 T01500128=
202011050716 SPECI KPAE 050716Z AUTO 19026G37KT 10SM SCT014 SCT019 BKN024 15/13 A3000 RMK AO2 PK WND 18038/0703 T01500128=
202011050653 METAR KPAE 050653Z AUTO 19021G34KT 10SM BKN012 BKN019 OVC027 15/13 A3000 RMK AO2 PK WND 17037/0626 SLP159 T01500133=
202011050553 METAR KPAE 050553Z AUTO 18027G36KT 10SM BKN013 OVC019 15/13 A2998 RMK AO2 PK WND 19037/0504 RAE01 SLP150 P0000 60009 T01500133 10161 20150 56007=
202011050534 SPECI KPAE 050534Z AUTO 19023G34KT 10SM BKN013 OVC019 15/13 A2999 RMK AO2 PK WND 19037/0504 RAE01 P0000 T01500133=
202011050509 SPECI KPAE 050509Z AUTO 19025G37KT 10SM SCT013 OVC019 15/13 A2998 RMK AO2 PK WND 19037/0504 RAE01 P0000 T01500128=
202011050453 METAR KPAE 050453Z 20026G35KT 10SM -RA BKN013 OVC019 15/13 A2998 RMK AO2 PK WND 19036/0424 RAB10 SLP152 P0002 T01500133=
202011050353 METAR KPAE 050353Z 19022G29KT 10SM BKN012 OVC020 15/13 A2999 RMK AO2 PK WND 20034/0341 RAB0257E33 SLP153 P0000 T01500133=
202011050320 SPECI KPAE 050320Z 18017G27KT 10SM -RA SCT010 BKN014 OVC028 15/13 A2999 RMK AO2 PK WND 19032/0302 RAB0257 P0000 T01500133=
202011050253 METAR KPAE 050253Z 19026G34KT 10SM FEW012 BKN029 OVC046 16/13 A3000 RMK AO2 PK WND 19034/0248 RAB0159E16B44E53 SLP158 P0001 60007 T01560133 50000=
202011050209 SPECI KPAE 050209Z 19022G31KT 10SM -RA FEW018 BKN029 OVC048 16/13 A3000 RMK AO2 PK WND 19032/0155 RAB0159 P0001 T01560133=
202011050153 METAR KPAE 050153Z 19021G34KT 10SM SCT016 BKN044 OVC060 16/13 A3000 RMK AO2 PK WND 18035/0143 RAE21 SLP158 P0001 T01560133=
202011050053 METAR KPAE 050053Z 19022G30KT 10SM -RA FEW015 BKN025 OVC033 16/13 A3000 RMK AO2 PK WND 18030/0047 SLP159 P0005 T01560133=
202011042353 METAR KPAE 042353Z 18021G29KT 4SM -RA BR FEW014 BKN030 OVC042 16/13 A3000 RMK AO2 PK WND 18032/2254 RAB2256 SLP158 P0003 60003 T01560133 10172 20150 55006=
202011042253 METAR KPAE 042253Z 17022G29KT 10SM FEW016 BKN023 OVC060 17/13 A3000 RMK AO2 PK WND 18033/2230 SLP157 T01670128=
202011042241 SPECI KPAE 042241Z 18024G31KT 10SM FEW021 BKN030 OVC055 17/13 A3000 RMK AO2 PK WND 18033/2230 T01670128=
202011042153 METAR KPAE 042153Z 18024G31KT 10SM BKN020 OVC025 17/13 A3002 RMK AO2 PK WND 17034/2106 SLP163 T01670128=
202011042053 METAR KPAE 042053Z 19023G31KT 10SM BKN019 OVC025 17/13 A3002 RMK AO2 PK WND 17033/2038 SLP164 T01670133 53002=
202011041953 METAR KPAE 041953Z 18018G26KT 10SM BKN020 OVC025 16/13 A3002 RMK AO2 PK WND 18031/1907 SLP163 T01610133=
202011041927 SPECI KPAE 041927Z 17016G21KT 10SM FEW018 BKN025 OVC032 16/13 A3002 RMK AO2 PK WND 18031/1907 T01560133=
202011041853 METAR KPAE 041853Z 17018G25KT 10SM SCT014 BKN034 OVC046 16/13 A3001 RMK AO2 PK WND 18026/1828 SLP162 T01560133=
202011041800 SPECI KPAE 041800Z 16017KT 10SM SCT014 BKN034 OVC046 15/13 A3002 RMK AO2 T01500133=
202011041753 METAR KPAE 041753Z 16017KT 4SM BR BKN008 BKN016 OVC028 15/13 A3001 RMK AO2 PK WND 15027/1730 RAE06 SLP163 P0000 60004 T01500133 10150 20144 51016=
202011041653 METAR KPAE 041653Z 17014KT 4SM -RA BR BKN008 BKN014 OVC018 14/13 A3001 RMK AO2 PK WND 16028/1603 SLP163 P0001 T01440133=
202011041553 METAR KPAE 041553Z 17020G27KT 10SM -RA BKN008 BKN013 OVC018 14/13 A2999 RMK AO2 PK WND 16029/1500 SLP155 P0002 T01440133=
202011041453 METAR KPAE 041453Z 16019G29KT 10SM -RA BKN008 BKN013 OVC034 14/13 A2996 RMK AO2 PK WND 18030/1414 RAB13 SLP146 P0000 60001 T01440133 53014=
202011041353 METAR KPAE 041353Z AUTO 17018G31KT 10SM BKN013 OVC027 15/13 A2995 RMK AO2 PK WND 18032/1332 RAE30 SLP140 P0001 T01500133=
202011041338 SPECI KPAE 041338Z AUTO 17020G32KT 10SM FEW006 BKN010 OVC027 14/13 A2994 RMK AO2 PK WND 18032/1332 RAE30 CIG 008V013 P0001 T01440133=
202011041330 SPECI KPAE 041330Z AUTO 17020G29KT 10SM BKN008 BKN014 OVC035 14/13 A2994 RMK AO2 PK WND 19029/1320 RAE30 P0001 T01440133=
202011041253 METAR KPAE 041253Z AUTO 17018G26KT 10SM -RA SCT008 BKN012 OVC035 14/13 A2993 RMK AO2 PK WND 17028/1224 SLP134 P0000 T01440133=
202011041233 SPECI KPAE 041233Z AUTO 17018G28KT 10SM -RA SCT009 BKN013 OVC027 14/13 A2993 RMK AO2 PK WND 17028/1224 P0000 T01440133=
202011041223 SPECI KPAE 041223Z AUTO 17016G24KT 10SM -RA BKN012 BKN025 OVC039 14/13 A2993 RMK AO2 P0000 T01440133=
202011041153 METAR KPAE 041153Z AUTO 17017G26KT 10SM -RA SCT030 BKN036 OVC047 14/13 A2992 RMK AO2 PK WND 18032/1054 RAB49 SLP132 P0000 60002 70040 T01440133 10150 20139 51012=
202011041053 METAR KPAE 041053Z AUTO 18024G31KT 10SM FEW009 FEW014 SCT070 14/13 A2992 RMK AO2 PK WND 19032/1004 SLP130 T01440128=
202011040953 METAR KPAE 040953Z AUTO 18024G29KT 10SM FEW010 BKN100 14/13 A2991 RMK AO2 PK WND 18033/0856 SLP127 T01440128=
202011040927 SPECI KPAE 040927Z AUTO 18023G30KT 10SM SCT007 BKN075 BKN110 14/13 A2989 RMK AO2 PK WND 18033/0856 T01440133=
202011040853 METAR KPAE 040853Z AUTO 18026G32KT 10SM BKN008 OVC090 14/13 A2989 RMK AO2 PK WND 17033/0835 RAE01 CIG 006V010 SLP120 P0001 60002 T01440133 50000=
202011040753 METAR KPAE 040753Z AUTO 18017G25KT 10SM -RA BKN008 OVC022 14/13 A2990 RMK AO2 PK WND 18026/0715 RAB13 SLP124 P0001 T01390133 401390094=
202011040653 METAR KPAE 040653Z AUTO 17017G24KT 10SM BKN008 OVC022 14/13 A2989 RMK AO2 PK WND 17027/0625 RAB37E47 SLP123 P0000 T01390128=
202011040553 METAR KPAE 040553Z AUTO 17018G25KT 10SM OVC007 14/12 A2989 RMK AO2 PK WND 17027/0536 SLP121 T01390122 10139 20122 53000=
202011040453 METAR KPAE 040453Z AUTO 17018G27KT 10SM BKN006 13/12 A2988 RMK AO2 PK WND 18031/0356 CIG 004V009 SLP118 T01330122=
202011040353 METAR KPAE 040353Z 18019G26KT 10SM BKN007 13/12 A2988 RMK AO2 PK WND 18026/0335 SLP118 T01330117=
202011040253 METAR KPAE 040253Z 17010G20KT 10SM OVC007 13/12 A2989 RMK AO2 SLP121 T01280117 58001=
202011040153 METAR KPAE 040153Z 17009KT 10SM OVC006 13/12 A2990 RMK AO2 SLP126 T01280117=
202011040053 METAR KPAE 040053Z 19018KT 10SM BKN007 OVC012 13/11 A2990 RMK AO2 SLP123 T01280111=
202011032353 METAR KPAE 032353Z 17011KT 10SM OVC006 12/11 A2989 RMK AO2 SLP122 60004 T01220111 10122 20094 53002=
202011032253 METAR KPAE 032253Z 17013G20KT 10SM OVC006 12/11 A2988 RMK AO2 CIG 005V009 SLP119 T01170106=
202011032153 METAR KPAE 032153Z 16017G24KT 10SM OVC006 12/10 A2988 RMK AO2 PK WND 16026/2114 CIG 005V010 SLP120 T01170100=
202011032053 METAR KPAE 032053Z 16015G23KT 10SM BKN008 BKN012 OVC075 12/10 A2988 RMK AO2 RAB1958E19 CIG 005V010 SLP120 P0001 60004 T01170100 55004=
202011031953 METAR KPAE 031953Z 15012G19KT 10SM BKN008 OVC018 10/09 A2988 RMK AO2 RAB28E37 SLP118 P0000 T01000089=
202011031853 METAR KPAE 031853Z 15011G20KT 10SM BKN008 OVC018 09/08 A2989 RMK AO2 RAE46 SLP123 P0003 T00940083=
202011031753 METAR KPAE 031753Z 15012G22KT 10SM -RA BKN009 BKN070 OVC100 09/08 A2989 RMK AO2 SLP124 P0003 60034 T00940083 10122 20094 50011=
202011031653 METAR KPAE 031653Z 15011G18KT 10SM -RA BKN009 OVC033 09/08 A2990 RMK AO2 SLP124 P0014 T00940078=
202011031555 SPECI KPAE 031555Z 15011KT 10SM -RA BKN009 OVC033 10/08 A2989 RMK AO2 P0000 T01000078=
202011031553 METAR KPAE 031553Z 15010KT 10SM -RA OVC033 10/08 A2989 RMK AO2 SLP121 P0014 T01000078=
202011031453 METAR KPAE 031453Z 16015KT 10SM -RA FEW025 OVC060 11/07 A2986 RMK AO2 RAB28 SLP111 P0003 60003 T01060072 58006=
202011031353 METAR KPAE 031353Z AUTO 17011KT 10SM BKN070 OVC100 11/07 A2988 RMK AO2 SLP117 T01110067=
202011031253 METAR KPAE 031253Z AUTO 18016KT 10SM OVC110 12/07 A2988 RMK AO2 SLP118 T01220067=
202011031153 METAR KPAE 031153Z AUTO 16013KT 10SM CLR 11/07 A2988 RMK AO2 SLP117 T01110067 10133 20111 58016=
202011031053 METAR KPAE 031053Z AUTO 15013KT 10SM CLR 12/06 A2990 RMK AO2 SLP123 T01170061=
202011030953 METAR KPAE 030953Z AUTO 15014KT 10SM CLR 12/06 A2992 RMK AO2 SLP129 T01220061=
202011030853 METAR KPAE 030853Z AUTO 16014G24KT 10SM CLR 13/06 A2993 RMK AO2 SLP133 T01280056 58016=
202011030753 METAR KPAE 030753Z AUTO VRB06KT 10SM CLR 13/06 A2994 RMK AO2 SLP140 T01280056 401780050=
202011030653 METAR KPAE 030653Z AUTO 13006KT 10SM CLR 13/05 A2996 RMK AO2 SLP146 T01280050=
202011030553 METAR KPAE 030553Z AUTO 14006KT 10SM CLR 13/05 A2998 RMK AO2 SLP151 T01330050 10167 20133 58008=
202011030453 METAR KPAE 030453Z AUTO 15009KT 10SM CLR 14/04 A2998 RMK AO2 SLP153 T01440044=
202011030353 METAR KPAE 030353Z 15010KT 10SM CLR 15/04 A3000 RMK AO2 SLP159 T01500044=
202011030253 METAR KPAE 030253Z 17010KT 10SM CLR 15/04 A3000 RMK AO2 SLP160 T01500044 55004=
202011030153 METAR KPAE 030153Z 16010KT 10SM CLR 15/04 A3000 RMK AO2 SLP159 T01500039=
202011030053 METAR KPAE 030053Z 16012KT 10SM CLR 16/03 A2999 RMK AO2 SLP157 T01610033=
202011022353 METAR KPAE 022353Z 16008KT 10SM CLR 16/04 A3001 RMK AO2 SLP164 T01610039 10178 20128 56017=
202011022253 METAR KPAE 022253Z 15011KT 10SM CLR 17/04 A3002 RMK AO2 SLP167 T01720039=
202011022153 METAR KPAE 022153Z 17009KT 10SM CLR 17/04 A3003 RMK AO2 SLP170 T01720039=
202011022053 METAR KPAE 022053Z 16011KT 10SM CLR 17/04 A3006 RMK AO2 SLP182 T01720044 58021=
202011021953 METAR KPAE 021953Z 15007KT 10SM CLR 16/04 A3009 RMK AO2 SLP189 T01610039=
202011021853 METAR KPAE 021853Z 15011KT 10SM CLR 14/03 A3011 RMK AO2 SLP196 T01440028=
202011021753 METAR KPAE 021753Z 16005KT 10SM CLR 13/03 A3013 RMK AO2 SLP203 T01280033 10128 20056 58002=
202011021653 METAR KPAE 021653Z 14006KT 10SM CLR 10/03 A3014 RMK AO2 SLP207 T01000028=
202011021553 METAR KPAE 021553Z 19003KT 10SM CLR 07/03 A3015 RMK AO2 SLP211 T00720033=
202011021453 METAR KPAE 021453Z 15005KT 10SM CLR 08/03 A3013 RMK AO2 SLP206 T00780028 55005=
202011021353 METAR KPAE 021353Z AUTO VRB05KT 10SM CLR 08/03 A3013 RMK AO2 SLP204 T00830028=
202011021253 METAR KPAE 021253Z AUTO 00000KT 10SM CLR 07/03 A3014 RMK AO2 SLP207 T00720033=
202011021153 METAR KPAE 021153Z AUTO 19005KT 10SM CLR 07/03 A3015 RMK AO2 SLP211 T00720033 10094 20050 56003 $=
202011021053 METAR KPAE 021053Z AUTO 15004KT 10SM CLR 06/03 A3015 RMK AO2 SLP211 T00560028 $=
202011020953 METAR KPAE 020953Z AUTO 12004KT 10SM CLR 08/04 A3015 RMK AO2 SLP212 T00830039 $=
202011020853 METAR KPAE 020853Z AUTO 17004KT 10SM CLR 06/03 A3016 RMK AO2 SLP214 T00610033 56002 $=
202011020753 METAR KPAE 020753Z AUTO 18004KT 10SM CLR 07/03 A3016 RMK AO2 SLP215 T00670033 401390044 $=
202011020653 METAR KPAE 020653Z AUTO 14003KT 10SM CLR 08/04 A3016 RMK AO2 SLP215 T00780039 $=
202011020553 METAR KPAE 020553Z AUTO 00000KT 10SM CLR 08/04 A3016 RMK AO2 SLP216 T00780044 10117 20056 51006 $=
202011020453 METAR KPAE 020453Z AUTO 00000KT 10SM CLR 07/03 A3015 RMK AO2 SLP214 T00720033 $=
202011020353 METAR KPAE 020353Z 00000KT 10SM CLR 08/04 A3016 RMK AO2 SLP217 T00830039 $=
202011020253 METAR KPAE 020253Z 11003KT 10SM CLR 09/04 A3015 RMK AO2 SLP211 T00890044 58008 $=
202011020153 METAR KPAE 020153Z 00000KT 10SM CLR 08/04 A3016 RMK AO2 SLP216 T00830044 $=
202011020053 METAR KPAE 020053Z 00000KT 10SM CLR 10/05 A3017 RMK AO2 SLP218 T01000050 $=
202011012353 METAR KPAE 012353Z 33004KT 10SM CLR 12/06 A3017 RMK AO2 SLP218 T01170056 10139 20083 56015 $=
202011012253 METAR KPAE 012253Z 31003KT 10SM CLR 13/05 A3018 RMK AO2 SLP222 T01280050 $=
202011012153 METAR KPAE 012153Z 00000KT 10SM CLR 13/04 A3019 RMK AO2 SLP225 T01280044 $=
202011012053 METAR KPAE 012053Z VRB03KT 10SM CLR 12/04 A3021 RMK AO2 SLP233 T01170044 58013 $=
202011011953 METAR KPAE 011953Z 02003KT 10SM CLR 10/04 A3023 RMK AO2 SLP238 T01000044 $=
202011011853 METAR KPAE 011853Z 36005KT 10SM CLR 09/04 A3024 RMK AO2 SLP242 T00940044 $=
202011011753 METAR KPAE 011753Z 36006KT 10SM CLR 08/04 A3025 RMK AO2 SLP247 T00830044 10083 20044 58003 $=
202011011653 METAR KPAE 011653Z 35005KT 10SM CLR 07/04 A3026 RMK AO2 SLP251 T00720044 $=
202011011553 METAR KPAE 011553Z 01004KT 10SM CLR 06/04 A3026 RMK AO2 SLP251 T00610044 $=
202011011453 METAR KPAE 011453Z 00000KT 10SM CLR 04/03 A3026 RMK AO2 SLP251 T00440033 56009 $=
202011011353 METAR KPAE 011353Z 34003KT 10SM CLR 04/04 A3027 RMK AO2 SLP253 T00440039 $=
202011011253 METAR KPAE 011253Z 01007KT 10SM CLR 06/04 A3028 RMK AO2 SLP255 T00560039 $=
202011011153 METAR KPAE 011153Z 35004KT 10SM SCT005 06/04 A3029 RMK AO2 SLP260 T00560044 10067 20056 55002 $=
202011011148 SPECI KPAE 011148Z 35005KT 10SM FEW005 06/04 A3029 RMK AO2 $=
202011011053 METAR KPAE 011053Z 34006KT 10SM CLR 06/04 A3029 RMK AO2 SLP260 T00560044 $=
202011010953 METAR KPAE 010953Z 35004KT 10SM CLR 06/05 A3029 RMK AO2 SLP261 T00610050 $=
202011010853 METAR KPAE 010853Z 36007KT 10SM CLR 07/05 A3030 RMK AO2 SLP263 T00670050 58008 $=
202011010753 METAR KPAE 010753Z 35005KT 10SM CLR 07/05 A3031 RMK AO2 SLP266 T00670050 401110033 $=
202011010653 METAR KPAE 010653Z 36004KT 10SM CLR 07/06 A3032 RMK AO2 SLP270 T00670056 $=
202011010553 METAR KPAE 010553Z 35005KT 10SM CLR 07/06 A3032 RMK AO2 SLP272 T00670056 10100 20067 58008 $=
202011010453 METAR KPAE 010453Z 35004KT 10SM CLR 07/06 A3034 RMK AO2 SLP276 T00670056 $=
202011010353 METAR KPAE 010353Z 33003KT 10SM CLR 07/06 A3035 RMK AO2 SLP280 T00720056 $=
202011010253 METAR KPAE 010253Z 33003KT 10SM CLR 08/06 A3035 RMK AO2 SLP280 T00780056 56003 $=
202011010153 METAR KPAE 010153Z 35004KT 10SM CLR 08/06 A3035 RMK AO2 SLP281 T00830056 $=
202011010053 METAR KPAE 010053Z 34003KT 10SM CLR 09/05 A3035 RMK AO2 SLP280 T00890050 $=

# No short TAF reports from KPAE in databse.

###################################
#  large TAF from KPAE
###################################
202011302321 TAF KPAE 302321Z 0100/0124 24008KT P6SM SCT040 FM010300 29006KT
                       P6SM SCT200 FM010600 16004KT P6SM SCT050
                       FM011100 09003KT 4SM BR SCT004 BKN020 FM011900
                       02004KT P6SM SCT250=
202011301933 KPAE 301933Z 3020/0118 21012KT P6SM SCT015 SCT030
                      TEMPO 3020/3022 4SM -SHRA SCT010 OVC020 FM302200
                       31010KT P6SM VCSH SCT025 BKN050 FM010300
                       29006KT P6SM FEW060 SCT200 FM010600 16004KT
                       P6SM OVC050 FM011100 09003KT 4SM BR BKN020=
202011301732 TAF KPAE 301732Z 3018/0118 18017G25KT P6SM SCT025 BKN030
                      TEMPO 3018/3021 4SM -SHRA SCT010 OVC020 FM302100
                       31010KT P6SM VCSH SCT025 BKN050 FM010300
                       29006KT P6SM FEW060 SCT200 FM010600 16004KT
                       P6SM OVC050 FM011100 09003KT 4SM BR BKN020=
202011301358 KPAE 301358Z 3014/0112 16022G30KT P6SM -RA FEW010 BKN027 OVC035
                       FM301500 18017G25KT P6SM -SHRA SCT015 OVC025
                       FM301900 22014G23KT P6SM -SHRA BKN050 FM302100
                       31010KT P6SM -SHRA BKN050 FM010300 32006KT
                       P6SM FEW060 SCT200 FM010600 16004KT P6SM
                       OVC050=
202011301120 TAF KPAE 301120Z 3012/0112 22007G18KT 6SM -RA BR BKN040 BKN050
                       OVC060 FM301500 18017G25KT P6SM -SHRA SCT015
                       OVC025 FM301900 22014G23KT P6SM -SHRA BKN050
                       FM302100 31010KT P6SM -SHRA BKN050 FM010300
                       32006KT P6SM FEW060 SCT200 FM010600 16004KT
                       P6SM OVC050=
202011300525 TAF KPAE 300525Z 3006/0106 16008KT P6SM SCT080 SCT250 FM300900
                       16013G20KT P6SM -RA OVC050 FM301200 18017G25KT
                       5SM -RA BR OVC020 FM301500 18017G25KT P6SM
                       -SHRA SCT015 OVC025 FM301900 22014G23KT
                       P6SM -SHRA BKN050 FM302100 31010KT P6SM
                       -SHRA BKN050 FM010300 32006KT P6SM FEW060
                       SCT200=
202011292321 TAF KPAE 292321Z 3000/3024 16008KT P6SM SCT250 FM300300 16010KT
                       P6SM BKN080 BKN250 FM301000 16013G20KT P6SM
                       -RA OVC050 FM301200 16017G25KT 5SM -RA BR
                       OVC020 FM301500 18017G25KT P6SM -SHRA OVC025
                       FM301800 23014G23KT P6SM SCT030 BKN050 FM302100
                       31010KT P6SM -SHRA BKN030 BKN050=
202011291727 TAF KPAE 291727Z 2918/3018 16004KT P6SM SCT250 FM300000 15008KT
                       P6SM BKN080 BKN250 FM301000 16013G20KT P6SM
                       -RA OVC050 FM301200 16017G25KT 5SM -RA BR
                       OVC020 FM301500 18017G25KT P6SM -SHRA OVC025=
202011291412 KPAE 291412Z 2914/3012 11003KT P6SM OVC045 FM291800 11003KT 4SM
                       BR SCT003 BKN250 FM292100 15007KT P6SM BKN090
                       BKN250 FM300300 15009KT P6SM OVC080 FM301000
                       16018G27KT 6SM -RA OVC015=
202011291352 KPAE 291352Z 2914/3012 00000KT P6SM OVC045
                      TEMPO 2914/2915 2SM BR VV002 FM291800 11003KT
                       4SM BR SCT003 BKN250 FM292100 15007KT P6SM
                       BKN090 BKN250 FM300300 15009KT P6SM OVC080
                       FM301000 16018G27KT 6SM -RA OVC015=
202011291140 TAF KPAE 291140Z 2912/3012 00000KT P6SM OVC040
                      TEMPO 2912/2915 2SM BR VV002 FM291800 11003KT
                       4SM BR SCT003 BKN250 FM292100 15007KT P6SM
                       BKN090 BKN250 FM300300 15009KT P6SM OVC080
                       FM301000 16018G27KT 6SM -RA OVC015=
202011290857 KPAE 290857Z 2909/3006 12004KT 2SM BR SCT001 FM291300 11003KT 4SM
                       BR SCT003 BKN250
                      TEMPO 2913/2917 1/2SM FG OVC003 FM291800
                       14005KT P6SM BKN250 FM292100 15007KT P6SM
                       BKN090 BKN250 FM300300 15009KT P6SM OVC080=
202011290729 KPAE 290729Z 2907/3006 10004KT 3/4SM BR VV002 FM291300 11003KT
                       4SM BR SCT003 BKN250
                      TEMPO 2913/2917 1/2SM FG OVC003 FM291800
                       14005KT P6SM BKN250 FM292100 15007KT P6SM
                       BKN090 BKN250 FM300300 15009KT P6SM OVC080=
202011290652 KPAE 290652Z 2907/3006 10004KT 3/4SM BR VV002 FM291300 11003KT
                       4SM BR SCT003 BKN250
                      TEMPO 2913/2917 1/2SM FG OVC003 FM291800
                       14005KT P6SM BKN250 FM292100 15007KT P6SM
                       BKN090 BKN250 FM300300 15009KT P6SM OVC080=
202011290520 TAF KPAE 290520Z 2906/3006 00000KT P6SM SCT050 BKN250 FM291300
                       11003KT 4SM BR SCT003 BKN250
                      TEMPO 2913/2917 1/2SM FG OVC003 FM291800
                       14005KT P6SM BKN250 FM292100 15007KT P6SM
                       BKN090 BKN250 FM300300 15009KT P6SM OVC080=
202011282320 TAF KPAE 282320Z 2900/2924 00000KT P6SM SCT050 BKN250 FM291300
                       11003KT 4SM BR SCT003 BKN250
                      TEMPO 2913/2917 1/2SM FG OVC003 FM291800
                       14005KT P6SM BKN250 FM292100 15007KT P6SM
                       BKN090 BKN250=
202011281721 TAF KPAE 281721Z 2818/2918 34004KT P6SM SCT008 OVC035
                      TEMPO 2818/2820 4SM -SHRA BR BKN008 OVC035
                       FM282000 09003KT P6SM OVC015 FM290100 05003KT
                       P6SM BKN250 FM291300 11003KT 4SM BR SCT003
                       BKN250
                      TEMPO 2913/2917 1/2SM FG OVC003=
202011281513 KPAE 281513Z 2815/2912 VRB03KT P6SM SCT020 OVC045
                      TEMPO 2815/2818 5SM -SHRA BR OVC020 FM290100
                       09003KT P6SM SCT050=
202011281155 TAF KPAE 281155Z 2812/2912 00000KT 4SM -RA BR FEW003 BKN015 OVC021
                       FM281400 17004KT 5SM BR OVC012 FM282000
                       06003KT P6SM OVC025 FM290100 09003KT P6SM
                       SCT050=
202011280700 KPAE 280700Z 2807/2906 22008KT 6SM -RA BKN018 OVC024 FM281100 16005KT
                       6SM -RA OVC012 FM282000 VRB03KT P6SM OVC025
                       FM290100 VRB03KT P6SM SCT050=
202011280527 TAF KPAE 280527Z 2806/2906 18012KT P6SM -RA OVC025 FM281100 16005KT
                       6SM -RA OVC012 FM282000 VRB03KT P6SM OVC025
                       FM290100 VRB03KT P6SM SCT050=
202011280444 KPAE 280444Z 2805/2824 17018G30KT P6SM BKN050 OVC100 FM280800 18012KT
                       P6SM -RA BKN025 OVC050 FM281100 18008KT
                       6SM -RA OVC012 FM281500 18005KT P6SM BKN015
                       OVC030=
202011272320 TAF KPAE 272320Z 2800/2824 16012KT P6SM FEW050 BKN250 FM280500
                       17012G18KT P6SM BKN050 OVC100 FM280800 18012KT
                       P6SM -RA BKN025 OVC050 FM281100 18008KT
                       6SM -RA OVC012 FM281500 18005KT P6SM BKN015
                       OVC030=
202011271725 TAF KPAE 271725Z 2718/2818 14004KT P6SM OVC030
                      TEMPO 2718/2720 SCT030 BKN100 FM272000 17008KT
                       P6SM FEW040 SCT100 BKN250 FM280500 17012G18KT
                       P6SM BKN050 OVC100 FM280800 18012KT P6SM
                       -RA BKN025 OVC050 FM281100 18008KT 6SM -RA
                       OVC012 FM281500 18005KT P6SM BKN015 OVC030=
202011271138 TAF KPAE 271138Z 2712/2812 16005KT P6SM BKN045 FM271800 17012KT
                       P6SM BKN200 FM280700 17012KT 6SM -RA BKN030
                       OVC050=
202011270909 KPAE 270909Z 2709/2806 16009KT P6SM SCT012 BKN022 FM271200 16005KT
                       P6SM BKN045 FM271800 17012KT P6SM BKN200
                       FM280500 17012KT 6SM -RA BKN030 OVC050=
202011270520 TAF KPAE 270520Z 2706/2806 16009KT P6SM SCT012 BKN022
                      TEMPO 2706/2710 BKN012 FM271100 16005KT P6SM
                       BKN045 FM271800 17012KT P6SM BKN200 FM280500
                       17012KT 6SM -RA BKN030 OVC050=
202011262333 TAF KPAE 262333Z 2700/2724 16008KT P6SM BKN020 OVC030 FM270200
                       16008KT P6SM BKN035 FM271500 16005KT P6SM
                       BKN025 FM271900 17005KT P6SM BKN200=
202011261726 TAF KPAE 261726Z 2618/2718 16005KT 4SM BR BKN005 OVC015
                      TEMPO 2618/2620 1/2SM -DZ FG BKN003 FM262100
                       17008KT P6SM BKN010 OVC025 FM262300 16008KT
                       P6SM BKN035=
202011261616 KPAE 261616Z 2616/2712 15005KT P6SM BKN010 OVC025
                      TEMPO 2616/2618 1/2SM FG BKN004 FM262200
                       19011KT P6SM BKN035=
202011261123 TAF KPAE 261123Z 2612/2712 15006KT P6SM OVC005 FM261500 18005KT
                       P6SM BKN015 OVC025 FM262200 19011KT P6SM
                       BKN035=
202011260520 TAF KPAE 260520Z 2606/2706 15006KT P6SM SCT015 BKN025 FM261500
                       VRB04KT P6SM OVC020 FM262200 19011KT P6SM
                       BKN035=
202011252320 TAF KPAE 252320Z 2600/2624 16006KT P6SM BKN040 FM260900 15005KT
                       P6SM BKN020 FM262200 18005KT P6SM BKN040=
202011252100 KPAE 252100Z 2521/2618 15005KT P6SM SCT015 BKN030
                      TEMPO 2521/2601 BKN015 BKN030 FM260900 18005KT
                       P6SM BKN015=
202011251936 KPAE 251936Z 2520/2618 18007KT P6SM SCT030 BKN050 FM252300 VRB04KT
                       P6SM BKN030 FM260900 18005KT P6SM BKN015=
202011251720 TAF KPAE 251720Z 2518/2618 18006KT P6SM BKN025
                      TEMPO 2522/2602 SCT030 FM260900 18005KT P6SM
                       OVC010 FM261700 18005KT P6SM BKN015=
202011251122 TAF KPAE 251122Z 2512/2612 18010KT P6SM VCSH BKN015 OVC030 FM252000
                       19007KT P6SM BKN025 FM260600 VRB03KT P6SM
                       OVC015=
202011250818 KPAE 250818Z 2508/2606 30008KT P6SM -DZ BKN004 BKN015 OVC030
                      TEMPO 2508/2510 1SM BR FM251200 18008KT P6SM
                       OVC015 FM252000 16006KT P6SM BKN025=
202011250520 TAF KPAE 250520Z 2506/2606 30008KT P6SM -SHRA BKN015 OVC030 FM251200
                       18008KT P6SM OVC015 FM252000 16006KT P6SM
                       BKN025=
202011242320 TAF KPAE 242320Z 2500/2524 28010KT 5SM -RA BR BKN015 OVC025
                      TEMPO 2500/2503 3SM RA BR OVC008 FM250300
                       30008KT P6SM -SHRA BKN015 OVC030 FM251200
                       18008KT P6SM OVC015 FM252000 16006KT P6SM
                       BKN025=
202011241720 TAF KPAE 241720Z 2418/2518 15015G25KT P6SM SCT010 OVC020
                      TEMPO 2418/2422 3SM -DZ BR BKN010 OVC020
                       FM242200 18015G25KT 5SM -RA BR OVC015 FM250200
                       23010KT P6SM -SHRA BKN015 FM251200 18008KT
                       P6SM BKN020=
202011241120 TAF KPAE 241120Z 2412/2512 18008KT P6SM OVC035 FM242200 18012G22KT
                       5SM -RA BR OVC025 FM250300 19010KT P6SM
                       -SHRA BKN015=
202011240520 TAF KPAE 240520Z 2406/2506 14004KT P6SM BKN035 OVC050 FM241200
                       18008KT P6SM OVC035 FM242100 18012G22KT
                       5SM -RA BR OVC025=
202011232320 TAF KPAE 232320Z 2400/2424 VRB03KT P6SM BKN025 OVC040 FM241200
                       18008KT P6SM OVC035 FM242100 18012G22KT
                       5SM -RA BR OVC025=
202011231720 TAF KPAE 231720Z 2318/2418 VRB04KT P6SM SCT008 OVC020
                      TEMPO 2318/2322 4SM -SHRA BR BKN005 OVC015
                       FM232200 VRB04KT P6SM VCSH BKN015 BKN030
                       FM240600 16006KT P6SM BKN025 FM241200 16008KT
                       P6SM OVC025=
202011231121 TAF KPAE 231121Z 2312/2412 14010KT P6SM SCT012 BKN035 OVC060
                      TEMPO 2312/2316 -RA BKN009 OVC022 FM231600
                       17008KT P6SM -RA OVC018 FM232100 20007KT
                       P6SM VCSH BKN022 FM240400 15006KT P6SM BKN030=
202011230534 TAF KPAE 230534Z 2306/2406 15004KT P6SM OVC008
                      TEMPO 2306/2310 5SM -RA BR OVC005 FM231000
                       17006KT P6SM OVC007 FM231500 16006KT 6SM
                       -RA BR OVC010 FM240000 18003KT P6SM BKN020=
202011230258 KPAE 230258Z 2303/2324 16007KT P6SM OVC025 FM230700 16008KT 6SM
                       -RA BR OVC015 FM231400 15006KT P6SM OVC015=
202011222333 TAF KPAE 222333Z 2300/2324 17007KT P6SM -RA OVC045 FM230300 16007KT
                       P6SM OVC025 FM230700 16008KT 6SM -RA BR
                       OVC015 FM231400 15006KT P6SM OVC015=
202011221725 TAF KPAE 221725Z 2218/2318 14007KT P6SM OVC100 FM222100 17007KT
                       P6SM VCSH OVC050 FM230000 16007KT P6SM OVC025
                       FM230740 16008KT 6SM -RA BR OVC015 FM231400
                       15006KT P6SM OVC015=
202011221125 TAF KPAE 221125Z 2212/2312 VRB04KT P6SM BKN150 FM221700 14007KT
                       P6SM OVC100 FM222100 17007KT P6SM VCSH OVC050
                       FM230200 16007KT P6SM -RA OVC025 FM230700
                       16008KT 6SM -RA BR OVC015=
202011220520 TAF KPAE 220520Z 2206/2306 00000KT P6SM BKN250 FM221400 14007KT
                       P6SM BKN080 FM221900 17009KT P6SM VCSH OVC050
                       FM230300 16006KT P6SM OVC015=
202011212340 TAF KPAE 212340Z 2200/2224 36005KT P6SM SCT050 BKN200 FM220300
                       04005KT P6SM BKN200 FM221400 14007KT P6SM
                       BKN080 FM221900 17009KT P6SM VCSH OVC050=
202011211745 TAF KPAE 211745Z 2118/2218 VRB03KT P6SM BKN012 OVC040 FM212200
                       36005KT P6SM SCT050 BKN200 FM220300 04005KT
                       P6SM BKN200=
202011211126 TAF KPAE 211126Z 2112/2212 11004KT P6SM SCT007 BKN035
                      TEMPO 2112/2116 BKN006 FM211800 VRB03KT P6SM
                       SCT030 BKN050 FM212200 36005KT P6SM SCT050
                       BKN200 FM220300 04005KT P6SM BKN200=
202011210535 TAF KPAE 210535Z 2106/2206 18013KT P6SM BKN017 OVC080 FM210800
                       16007KT P6SM OVC022 FM211100 14004KT P6SM
                       OVC015 FM211800 VRB03KT P6SM SCT030 OVC050
                       FM212200 36003KT P6SM BKN250=
202011202335 TAF KPAE 202335Z 2100/2124 16010KT P6SM BKN035 BKN060 FM210700
                       16007KT P6SM OVC022 FM211100 14004KT P6SM
                       OVC015 FM211800 VRB03KT P6SM SCT030 OVC050=
202011201725 TAF KPAE 201725Z 2018/2118 17010KT P6SM VCSH SCT012 BKN060 FM202000
                       17012KT P6SM VCSH BKN030 BKN050 FM210200
                       17010KT P6SM BKN035 BKN060 FM210700 16007KT
                       P6SM OVC022 FM211100 14004KT P6SM OVC012=
202011201128 TAF KPAE 201128Z 2012/2112 17010KT P6SM VCSH SCT012 OVC025
                      TEMPO 2012/2016 BKN012 OVC020 FM202000 17012KT
                       P6SM VCSH BKN030 BKN050 FM210200 17010KT
                       P6SM BKN035 BKN060 FM210700 16007KT P6SM
                       OVC022 FM211100 14004KT P6SM OVC012=
202011200532 TAF KPAE 200532Z 2006/2106 16012KT P6SM VCSH SCT025 BKN090
                      TEMPO 2006/2010 BKN022 FM201000 17011KT P6SM
                       OVC020 FM202000 17012KT P6SM OVC035 FM210200
                       17010KT P6SM OVC050=
202011192320 TAF KPAE 192320Z 2000/2024 19013KT P6SM VCSH OVC020 FM200300 17012KT
                       P6SM VCSH BKN035 FM201000 17011KT P6SM -SHRA
                       OVC025=
202011191720 TAF KPAE 191720Z 1918/2018 17008G15KT P6SM -SHRA SCT008 OVC025
                       TEMPO 1918/1922 BKN008 OVC025 FM192200 18012G18KT
                       P6SM VCSH SCT030 OVC050 FM200300 17012KT
                       P6SM BKN035 FM201000 17011KT P6SM OVC025=
202011191130 TAF KPAE 191130Z 1912/2012 19010KT P6SM BKN020 BKN070 FM191600
                       19011KT P6SM VCSH BKN025 BKN050 FM192200
                       18012G18KT P6SM VCSH SCT030 OVC050 FM200300
                       17012KT P6SM BKN035 FM200700 17011KT P6SM
                       OVC025=
202011190529 TAF KPAE 190529Z 1906/2006 18012G20KT P6SM BKN015 OVC100 FM191600
                       18008KT P6SM BKN025 BKN050 FM191900 18012G20KT
                       P6SM SCT030 OVC100=
202011190050 KPAE 190050Z 1901/1924 18018G29KT P6SM -RA BKN007 BKN015 OVC030
                       FM190300 19012KT P6SM -SHRA BKN040 FM190800
                       19009KT P6SM OVC035 FM191800 18012KT P6SM
                       -SHRA OVC025=
202011182320 TAF KPAE 182320Z 1900/1924 10014G25KT P6SM -RA SCT012 BKN015 OVC050
                       FM190300 19012KT P6SM -SHRA BKN040 FM190800
                       19009KT P6SM OVC035 FM191800 18012KT P6SM
                       -SHRA OVC025=
202011181740 TAF KPAE 181740Z 1818/1918 14007KT P6SM -RA SCT025 OVC035 FM182000
                       17010G17KT P6SM -RA OVC025 FM190300 19012KT
                       P6SM -SHRA BKN040 FM190800 19009KT P6SM
                       OVC035=
202011181123 TAF KPAE 181123Z 1812/1912 16010KT P6SM VCSH SCT040 BKN060 FM181400
                       16010KT 5SM SHRA BKN030 BKN050 FM181700
                       18014G22KT 5SM SHRA BKN020 OVC040 FM190300
                       19012KT P6SM BKN040 FM190800 19009KT P6SM
                       OVC035=
202011180520 TAF KPAE 180520Z 1806/1906 20012KT P6SM VCSH BKN035 BKN050 FM181400
                       16010KT 5SM SHRA BKN035 BKN050 FM181700
                       18014G22KT 5SM SHRA BKN025 OVC040 FM190300
                       19012KT P6SM BKN040=
202011180323 KPAE 180323Z 1803/1824 18012KT P6SM SCT025 BKN035 OVC050
                      TEMPO 1803/1806 -SHRA FM180600 20012KT P6SM
                       VCSH BKN035 BKN050 FM181400 18010KT P6SM
                       SHRA BKN035 BKN050=
202011172321 TAF KPAE 172321Z 1800/1824 18017G27KT P6SM SCT020 BKN040
                      TEMPO 1800/1804 -SHRA BKN020 OVC040 FM180600
                       20012KT P6SM -SHRA BKN020 BKN050 FM181500
                       18010KT P6SM VCSH BKN035 BKN060=
202011171720 TAF KPAE 171720Z 1718/1818 17017G27KT P6SM -RA SCT020 OVC040 FM172100
                       18022G32KT 5SM -SHRA OVC025 FM180300 20015G25KT
                       P6SM -SHRA BKN025 FM180900 18012KT P6SM
                       VCSH BKN030 FM181700 18012KT P6SM -SHRA
                       BKN030=
202011171120 TAF KPAE 171120Z 1712/1812 12012KT P6SM SCT050 BKN120 FM171800
                       15015G25KT 5SM -RA SCT025 OVC040 FM172100
                       18022G30KT 5SM -RA OVC025 FM180300 20012KT
                       P6SM -SHRA BKN025 FM180900 17013KT P6SM
                       OVC020=
202011170520 TAF KPAE 170520Z 1706/1806 12007KT P6SM SCT015 OVC040 FM170800
                       12012KT P6SM BKN050 BKN120 FM171800 15015G25KT
                       5SM -RA SCT025 OVC040 FM172100 18020G30KT
                       5SM -RA OVC025 FM180300 20012G22KT P6SM
                       -SHRA BKN025=
202011170333 KPAE 170333Z 1704/1724 12007KT P6SM SCT015 OVC040 FM170800 12012KT
                       P6SM BKN050 BKN120 FM171600 15012G22KT P6SM
                       -RA SCT020 OVC040 FM172000 18017G27KT P6SM
                       -RA OVC020 FM172300 20012G22KT P6SM -SHRA
                       BKN020=
202011162320 TAF KPAE 162320Z 1700/1724 12007KT 5SM -RA BR SCT004 OVC025
                      TEMPO 1700/1704 2SM -RA BR BKN004 OVC020
                       FM170400 12007KT P6SM SCT015 OVC040 FM170800
                       12012KT P6SM BKN050 BKN120 FM171600 15012G22KT
                       P6SM -RA SCT020 OVC040 FM172000 18017G27KT
                       P6SM -RA OVC020 FM172300 20012G22KT P6SM
                       -SHRA BKN020=
202011161720 TAF KPAE 161720Z 1618/1718 10006KT P6SM -RA OVC030
                      TEMPO 1620/1624 5SM -RA OVC020 FM170200 12006KT
                       P6SM SCT020 OVC050 FM170800 12008KT P6SM
                       BKN050 BKN120 FM171700 12010KT P6SM -RA
                       OVC040=
202011161120 TAF KPAE 161120Z 1612/1712 14004KT P6SM SCT015 OVC030 FM161500
                       11005KT P6SM BKN025 OVC060 FM161900 09005KT
                       P6SM -RA OVC025 FM162300 06005KT 5SM -RA
                       OVC010 FM170400 13007KT P6SM BKN020 OVC100
                       FM170900 12006KT P6SM OVC010=
202011160552 TAF KPAE 160552Z 1606/1706 16005KT P6SM SCT020 BKN100
                      TEMPO 1606/1609 BKN020 OVC100 FM160900 14004KT
                       P6SM BKN020 OVC050 FM161500 11005KT P6SM
                       BKN025 OVC060 FM161900 09005KT P6SM -RA
                       OVC025 FM162300 06005KT 5SM -RA OVC015 FM170400
                       13007KT P6SM BKN050 OVC100=
202011160215 KPAE 160215Z 1602/1624 18010KT P6SM SCT020 SCT100
                      TEMPO 1602/1606 BKN020 BKN100 FM160600 15006KT
                       P6SM OVC020 FM161500 10004KT P6SM OVC050
                       FM161900 11005KT P6SM OVC025 FM162200 09007KT
                       4SM -RA BR OVC007=
202011152346 TAF KPAE 152346Z 1600/1624 19010KT P6SM SKC FM160600 15006KT P6SM
                       OVC020 FM161500 10004KT P6SM OVC050 FM161900
                       11005KT P6SM OVC025 FM162200 09007KT 4SM
                       -RA BR OVC007=
202011152203 KPAE 152203Z 1522/1618 19015G24KT P6SM OVC023 FM160000 17008KT
                       P6SM OVC040 FM160600 15006KT P6SM OVC020
                       FM161500 10004KT P6SM OVC050=
202011151725 TAF KPAE 151725Z 1518/1618 19013G20KT P6SM BKN100 FM160000 17008KT
                       P6SM OVC040 FM160600 15006KT P6SM OVC020
                       FM161500 10004KT P6SM OVC050=
202011151120 TAF KPAE 151120Z 1512/1612 18015G25KT P6SM OVC015 FM151700 21010G18KT
                       P6SM VCSH BKN020 OVC050 FM160000 17008KT
                       P6SM OVC030 FM160600 15006KT P6SM OVC020=
202011150527 TAF KPAE 150527Z 1506/1606 14010G18KT P6SM -RA BKN030 OVC045 FM150800
                       16012G22KT P6SM OVC025 FM151200 18015G25KT
                       P6SM OVC050 FM152100 21010G18KT P6SM VCSH
                       BKN035 OVC050=
202011150205 KPAE 150205Z 1502/1524 13010G20KT P6SM -RA OVC028 FM150800 15014G22KT
                       P6SM OVC020 FM151800 20015G25KT P6SM BKN030
                       OVC050=
202011142325 TAF KPAE 142325Z 1500/1524 15012G17KT P6SM -RA FEW030 BKN045 OVC060
                       FM150300 13013G15KT 6SM -RA OVC020 FM151200
                       18015G25KT P6SM -RA OVC040 FM151800 20015G20KT
                       4SM -RA OVC025=
202011141857 KPAE 141857Z 1419/1518 17010KT P6SM BKN013 FM150100 15012KT P6SM
                       -RA OVC025 FM150700 17013KT P6SM OVC020
                       FM151200 18015G20KT P6SM -RA OVC050=
202011141738 TAF KPAE 141738Z 1418/1518 15010KT P6SM SCT010 OVC200 FM150100
                       15012KT P6SM -RA OVC025 FM150700 17013KT
                       P6SM OVC020 FM151200 18015G20KT P6SM -RA
                       OVC050=
202011141120 TAF KPAE 141120Z 1412/1512 19008KT P6SM SCT040 BKN070 FM141800
                       17012KT P6SM SCT030 BKN050 FM150100 15012KT
                       P6SM -RA OVC025 FM150700 17013KT P6SM OVC020=
202011140520 TAF KPAE 140520Z 1406/1506 19008KT P6SM FEW025 SCT090 BKN200 FM140900
                       19008KT P6SM SCT040 BKN090 FM141800 17012KT
                       P6SM BKN050 FM150100 15012KT P6SM -RA OVC025=
202011132327 TAF KPAE 132327Z 1400/1424 24009KT P6SM SCT030 BKN040 OVC070 FM140100
                       30015G25KT P6SM BKN045 FM140600 24010KT
                       P6SM OVC050 FM141800 18010KT P6SM OVC050=
202011132119 KPAE 132119Z 1321/1418 21009KT P6SM FEW024 SCT029 BKN035 FM132200
                       27013G22KT 5SM -SHRA BKN009 BKN020 FM140100
                       30015G25KT P6SM VCSH BKN045 FM140600 24010KT
                       P6SM OVC050=
202011132012 KPAE 132012Z 1320/1418 19007G20KT P6SM FEW035 SCT040 BKN060 FM132200
                       27013G22KT 2SM -SHRA BKN009 BKN020 FM140100
                       30015G25KT P6SM VCSH BKN045 FM140600 24010KT
                       P6SM OVC050=
202011131817 KPAE 131817Z 1318/1418 21006G20KT P6SM SCT045 BKN070 BKN110 FM132200
                       27013G22KT 2SM -SHRA BKN009 BKN020 FM140100
                       30015G25KT P6SM VCSH BKN045 FM140600 24010KT
                       P6SM OVC050=
202011131747 TAF KPAE 131747Z 1318/1418 25012G19KT 3SM -RA BR SCT006 BKN009
                       OVC030 FM132200 27013G22KT 2SM -SHRA BKN009
                       BKN020 FM140100 30015G25KT P6SM VCSH BKN045
                       FM140600 24010KT P6SM OVC050=
202011131529 KPAE 131529Z 1315/1412 17015G22KT P6SM OVC014 FM132100 27011G20KT
                       6SM -SHRA SCT009 BKN020 FM140000 30015G25KT
                       P6SM VCSH BKN045 FM140600 24010KT P6SM OVC050=
202011131121 TAF KPAE 131121Z 1312/1412 15019G25KT 4SM -RA FEW020 OVC040 FM131400
                       18010G20KT 4SM -RA BKN007 OVC010 FM132100
                       27011G20KT 6SM -SHRA SCT009 BKN020 FM140000
                       30015G25KT P6SM VCSH BKN045 FM140600 24010KT
                       P6SM OVC050=
202011130520 TAF KPAE 130520Z 1306/1406 16015G20KT 6SM -RA BR OVC040 FM130900
                       17013KT 4SM -RA OVC015 FM131400 18010G18KT
                       4SM -RA BKN007 OVC010 FM132100 27011G20KT
                       P6SM -SHRA SCT009 BKN020 FM140000 30015G25KT
                       P6SM VCSH BKN045=
202011130047 KPAE 130047Z 1301/1324 17015G20KT 6SM -RA BR OVC025 FM131100 17013KT
                       4SM -RA OVC015 FM131800 18010KT 4SM -RA
                       OVC007 FM132100 27011G20KT 4SM -RA OVC015=
202011122330 TAF KPAE 122330Z 1300/1324 17016G26KT 6SM -RA BR OVC020 FM131100
                       17013KT 4SM -RA OVC015 FM131800 18010KT
                       4SM -RA OVC007 FM132100 27011G20KT 4SM -RA
                       OVC015=
202011121732 TAF KPAE 121732Z 1218/1318 14008KT P6SM SCT030 OVC050 FM122200
                       17012G20KT P6SM -RA SCT025 OVC050 FM130100
                       17016G26KT 6SM -RA BR OVC016 FM130800 17013KT
                       4SM -RA OVC015=
202011121136 TAF KPAE 121136Z 1212/1312 12005KT P6SM OVC045 FM121800 16010KT
                       P6SM SCT030 OVC050 FM122100 17012G20KT P6SM
                       -RA BKN025 OVC050 FM130100 17016G26KT 6SM
                       -RA BR OVC016 FM130800 17013KT 4SM -RA OVC015=
202011120520 TAF KPAE 120520Z 1206/1306 12005KT P6SM OVC045 FM121200 14005KT
                       P6SM BKN050 OVC100 FM121800 16010KT P6SM
                       SCT030 OVC050 FM122100 17012G20KT P6SM -RA
                       BKN025 OVC050 FM130100 17016G26KT 6SM -RA
                       BR OVC016=
202011112320 TAF KPAE 112320Z 1200/1224 15003KT P6SM OVC045 FM121200 16004KT
                       P6SM BKN050 OVC100 FM121800 16010KT P6SM
                       SCT030 OVC050 FM122100 17012G20KT P6SM -RA
                       BKN025 OVC050=
202011111720 TAF KPAE 111720Z 1118/1218 VRB04KT P6SM OVC025 FM112000 VRB04KT
                       P6SM BKN050 FM120300 13006KT P6SM OVC050
                       FM121200 15004KT P6SM BKN050 OVC100=
202011111132 TAF KPAE 111132Z 1112/1212 VRB04KT P6SM OVC030
                      TEMPO 1114/1116 1/2SM FG FM111700 20004KT
                       P6SM OVC015 FM112000 VRB04KT P6SM SCT015
                       BKN035 FM120000 17004KT P6SM SCT025 BKN050
                       FM120600 12003KT P6SM OVC050=
202011110520 TAF KPAE 110520Z 1106/1206 34005KT P6SM SCT012 OVC027
                      TEMPO 1106/1110 BKN009 FM111000 VRB04KT P6SM
                       OVC009 FM111700 13004KT P6SM OVC012 FM112000
                       20004KT P6SM SCT015 BKN035 FM120000 17004KT
                       P6SM SCT025 BKN050=
202011110306 KPAE 110306Z 1103/1124 36006KT P6SM SCT010 OVC025
                      TEMPO 1103/1106 BKN006 OVC014 FM110600 02005KT
                       P6SM SCT007 OVC015 FM111200 13004KT P6SM
                       OVC012 FM112000 20004KT P6SM SCT025 BKN050=
202011102320 TAF KPAE 102320Z 1100/1124 36006KT P6SM -SHRA SCT030 BKN050
                      TEMPO 1100/1104 BKN030 FM110600 02005KT P6SM
                       SCT007 OVC015 FM111500 13004KT P6SM OVC015
                       FM112000 20004KT P6SM SCT025 BKN050=
202011101733 TAF KPAE 101733Z 1018/1118 VRB04KT P6SM VCSH BKN010 BKN030
                      TEMPO 1018/1021 -SHRA BKN007 FM102100 VRB04KT
                       P6SM VCSH BKN015 BKN025 FM102300 36004KT
                       P6SM VCSH BKN015 BKN025 FM110600 02005KT
                       P6SM OVC015 FM111200 13004KT P6SM OVC015=
202011101124 TAF KPAE 101124Z 1012/1112 24005KT P6SM BKN018 OVC025 FM101800
                       20006KT 5SM -SHRA OVC010 FM102300 34005KT
                       P6SM -SHRA OVC010 FM110200 36004KT P6SM
                       VCSH BKN025 FM110600 VRB03KT P6SM OVC025=
202011100520 TAF KPAE 100520Z 1006/1106 15013G22KT P6SM -SHRA SCT010 OVC017
                       TEMPO 1006/1010 BKN007 FM101000 22010KT
                       P6SM -SHRA BKN013 OVC025 FM101800 20006KT
                       P6SM -SHRA BKN018 OVC040 FM102300 34005KT
                       P6SM -SHRA BKN022 BKN040 FM110200 36004KT
                       P6SM VCSH BKN025=
202011092321 TAF KPAE 092321Z 1000/1024 15012KT P6SM SCT050 OVC080 FM100200
                       16008KT P6SM -RA SCT015 OVC025 FM100700
                       17010G20KT 6SM -RA OVC015 FM101000 22010KT
                       P6SM -SHRA BKN015 OVC020 FM101800 20006KT
                       P6SM -SHRA BKN020 OVC050=
202011091725 TAF KPAE 091725Z 0918/1018 16006KT P6SM OVC120 FM092300 16008KT
                       P6SM OVC050 FM100200 16008KT P6SM -RA SCT015
                       OVC025 FM100700 17010G20KT 6SM -RA OVC015
                       FM101000 22010KT P6SM -SHRA BKN015 OVC020=
202011091139 TAF KPAE 091139Z 0912/1012 VRB03KT P6SM SCT250 FM091800 16006KT
                       P6SM OVC100 FM092300 16008KT P6SM OVC050
                       FM100200 16008KT P6SM -RA SCT015 OVC025
                       FM100700 17010G20KT 6SM -RA OVC015=
202011090520 TAF KPAE 090520Z 0906/1006 VRB03KT P6SM SKC FM091200 VRB03KT P6SM
                       SCT250 FM091800 16006KT P6SM OVC100 FM092300
                       16008KT P6SM OVC050 FM100200 16008KT P6SM
                       -RA SCT015 OVC025=
202011082336 TAF KPAE 082336Z 0900/0924 34007KT P6SM SKC FM090400 00000KT P6SM
                       SKC FM091800 16006KT P6SM OVC100 FM092300
                       16008KT P6SM OVC050
                      PROB30 0923/0924 P6SM -SHRA OVC025=
202011081720 TAF KPAE 081720Z 0818/0918 35014G25KT P6SM SKC FM090000 35005KT
                       P6SM SKC FM091100 08002KT P6SM SCT250=
202011081135 TAF KPAE 081135Z 0812/0912 35012G25KT P6SM SKC FM090000 35005KT
                       P6SM SKC FM091100 08002KT P6SM SCT250=
202011080520 TAF KPAE 080520Z 0806/0906 36008KT P6SM SCT100 SCT250 FM081200
                       35005KT P6SM SCT250 FM090300 VRB03KT P6SM
                       SCT250=
202011080003 KPAE 080003Z 0800/0824 36012G18KT P6SM SCT025 BKN040 FM080600 36012G20KT
                       P6SM SCT250=
202011072355 TAF KPAE 072355Z 0800/0824 36012G20KT P6SM SCT040 FM080600 36014G22KT
                       P6SM SKC=
202011071724 TAF KPAE 071724Z 0718/0818 36006KT P6SM BKN035 FM072200 36012G20KT
                       P6SM SCT040 FM080600 36014G22KT P6SM SKC=
202011071120 TAF KPAE 071120Z 0712/0812 34004KT P6SM SCT015
                      TEMPO 0712/0715 5SM BR BKN015 FM071500 34006KT
                       P6SM BKN025 FM071800 36006KT P6SM BKN030
                       FM072200 36012G20KT P6SM SCT040 FM080600
                       36014G22KT P6SM SKC=
202011070520 TAF KPAE 070520Z 0706/0806 01004KT P6SM FEW250 FM071000 01003KT
                       P6SM BKN025 FM072000 32012G20KT P6SM BKN100=
202011062328 TAF KPAE 062328Z 0700/0724 34012G21KT P6SM FEW200 FM070200 33008KT
                       P6SM SKC FM071000 01003KT P6SM BKN025=
202011061728 TAF KPAE 061728Z 0618/0718 33014G24KT P6SM SCT015 OVC070 FM062200
                       34014G24KT P6SM FEW200 FM070200 33008KT
                       P6SM SKC FM071000 01003KT P6SM BKN015=
202011061408 KPAE 061408Z 0614/0712 33010G22KT P6SM SCT015 OVC070 FM062200 34015KT
                       P6SM FEW200 FM070500 33008KT P6SM SKC FM071000
                       01003KT P6SM BKN060=
202011061136 TAF KPAE 061136Z 0612/0712 33006KT P6SM FEW010 OVC070 FM062200
                       34015KT P6SM FEW200 FM070500 33008KT P6SM
                       SKC=
202011060520 TAF KPAE 060520Z 0606/0706 VRB04KT P6SM BKN110 FM061200 34015G20KT
                       P6SM SCT150 FM062200 34015KT P6SM FEW200
                       FM070500 33008KT P6SM SKC=
202011052340 TAF KPAE 052340Z 0600/0624 10008KT P6SM VCSH FEW007 OVC050 FM060200
                       09005KT P6SM OVC050 FM060600 36008KT P6SM
                       OVC080 FM061200 34015G20KT P6SM SCT150 FM062200
                       34015KT P6SM FEW200=
202011051729 TAF KPAE 051729Z 0518/0618 02010KT 6SM -RA OVC015 FM052300 05005KT
                       P6SM VCSH OVC020 FM060600 36011KT P6SM SCT020
                       OVC070 FM061500 34015KT P6SM BKN100=
202011051136 TAF KPAE 051136Z 0512/0612 20015G25KT P6SM -SHRA OVC015 FM051800
                       22012KT 5SM -RA OVC035 FM052300 05005KT
                       4SM -RA OVC020 FM060300 VRB03KT P6SM SCT020
                       OVC070=
202011050520 TAF KPAE 050520Z 0506/0606 20024G34KT P6SM -RA BKN010 OVC020 FM050900
                       20015KT 4SM -SHRA OVC010 FM051800 22012KT
                       5SM -RA OVC015 FM052300 05005KT 4SM -RA
                       OVC020 FM060300 VRB03KT P6SM SCT020 OVC035=
202011042328 TAF KPAE 042328Z 0500/0524 18022G32KT P6SM -SHRA OVC028 FM050100
                       20024G34KT 5SM -RA OVC025 FM050900 20015KT
                       4SM -SHRA OVC020 FM051800 22012KT 5SM -RA
                       OVC015 FM052300 05005KT 4SM -RA OVC020=
202011041736 TAF KPAE 041736Z 0418/0518 17015G30KT P6SM VCSH BKN008 OVC015
                      TEMPO 0418/0422 5SM -RA FM042200 18020G32KT
                       P6SM VCSH OVC020 FM050300 20018G28KT 5SM
                       -RA OVC025 FM051000 20013KT 4SM -SHRA OVC020=
202011041407 KPAE 041407Z 0414/0512 18018G30KT P6SM SCT015 OVC030
                      TEMPO 0414/0418 5SM -RA BR BKN015 OVC030
                       FM041900 20012G25KT P6SM -RA OVC020 FM042100
                       18015G25KT P6SM -RA OVC015 FM050400 21012G22KT
                       P6SM -SHRA BKN015 BKN030 FM051100 18012KT
                       P6SM VCSH BKN015 BKN030=
202011041139 TAF KPAE 041139Z 0412/0512 18024G31KT P6SM FEW009 FEW014 SCT070
                       FM041900 20012G25KT P6SM -RA OVC020 FM042100
                       18015G25KT P6SM -RA OVC015 FM050000 18020G28KT
                       4SM -RA OVC007=
202011041119 KPAE 041119Z 0411/0506 18022G30KT P6SM SCT020 BKN040 FM041200 18015G25KT
                       P6SM BKN020 OVC040 FM041900 20012G25KT P6SM
                       -RA OVC020 FM042100 18015G25KT P6SM -RA
                       OVC015 FM050000 18020G28KT 4SM -RA OVC007=
202011040520 TAF KPAE 040520Z 0406/0506 18018G25KT 6SM BR BKN007 FM040800 17015G21KT
                       P6SM OVC010 FM041300 18012G20KT P6SM OVC010
                       FM041900 20012G25KT P6SM -RA OVC020 FM042100
                       18020G30KT P6SM -RA OVC015 FM050000 18020G28KT
                       4SM -RA OVC007=
202011032325 TAF KPAE 032325Z 0400/0424 17012G20KT P6SM OVC006
                      TEMPO 0403/0406 4SM -SHRA FM040600 20012G20KT
                       P6SM OVC015 FM041300 18012G20KT P6SM OVC020
                       FM041900 20012G20KT P6SM -RA OVC020 FM042100
                       18020G30KT P6SM -RA OVC015=
202011031720 TAF KPAE 031720Z 0318/0418 16012G22KT P6SM BKN020 OVC040
                      TEMPO 0318/0320 BKN009 FM032000 18015G25KT
                       P6SM -SHRA OVC020 FM040000 20012KT P6SM
                       -SHRA BKN020 OVC040 FM041100 18012KT P6SM
                       -RA OVC020=
202011031120 TAF KPAE 031120Z 0312/0412 15014KT P6SM SCT040 OVC120 FM031600
                       16012G22KT 5SM -RA BR BKN020 OVC040 FM032000
                       18015G25KT 5SM -RA BR OVC015 FM040000 20012KT
                       P6SM -SHRA BKN020 OVC040 FM041100 18012KT
                       P6SM -RA OVC020=
202011030520 TAF KPAE 030520Z 0306/0406 15011KT P6SM BKN250 FM030900 16012KT
                       P6SM SCT015 BKN050 OVC200 FM031400 16012G18KT
                       P6SM -RA OVC015 FM032100 17012G20KT P6SM
                       -SHRA BKN025 FM040000 16010KT 4SM -SHRA
                       OVC010=
202011022321 TAF KPAE 022321Z 0300/0324 15011KT P6SM BKN250 FM030900 16012KT
                       P6SM SCT015 BKN050 OVC200
                      TEMPO 0311/0315 BKN015 FM031500 16012G18KT
                       P6SM -RA OVC015 FM032100 17012G20KT P6SM
                       -SHRA BKN025=
202011021724 TAF KPAE 021724Z 0218/0318 16006KT P6SM FEW250 FM022100 20005KT
                       P6SM SCT250 FM030900 16012KT P6SM SCT015
                       OVC200
                      TEMPO 0311/0315 BKN015 FM031500 16012KT P6SM
                       -RA OVC015=
202011021120 TAF KPAE 021120Z 0212/0312 15005KT P6SM SKC
                      TEMPO 0212/0216 2SM BR FM021800 16006KT P6SM
                       BKN250 FM030800 16012KT P6SM SCT015 OVC200
                       TEMPO 0308/0311 BKN015 FM031100 16012KT
                       P6SM -RA OVC015=
202011020520 TAF KPAE 020520Z 0206/0306 VRB03KT P6SM SKC FM021000 14004KT P6SM
                       SCT250 FM022000 18005KT P6SM BKN250=
202011012322 TAF KPAE 012322Z 0200/0224 VRB03KT P6SM SKC FM020600 14004KT P6SM
                       SCT250 FM022000 18005KT P6SM BKN250=
202011011723 TAF KPAE 011723Z 0118/0218 35005KT P6SM SKC FM020300 VRB03KT P6SM
                       SCT250 FM021000 15005KT P6SM BKN250=
202011011530 KPAE 011530Z 0116/0212 34006KT P6SM SKC FM020300 VRB03KT P6SM SCT250
                       FM021000 18007KT P6SM BKN250=
202011011120 TAF KPAE 011120Z 0112/0212 34006KT P6SM SKC
                      TEMPO 0112/0116 2SM BR FM020300 VRB03KT P6SM
                       SCT250 FM021000 18007KT P6SM BKN250=
202011010520 TAF KPAE 010520Z 0106/0206 35004KT P6SM SCT250=