##########################################################
# Query made at 02/15/2025 22:20:48 UTC
# Time interval: from 10/01/2020 00:00  to 10/31/2020 23:59  UTC
##########################################################

##########################################################
# KPAE, Everett, Snohomish County Airport (United States)
# WMO index: -----. WIGOS ID: Unknown
# Latitude 47-55-23N. Longitude 122-16-57W. Altitude 184 m.
##########################################################

###################################
#  METAR/SPECI from KPAE
###################################
202010312353 METAR KPAE 312353Z 34004KT 10SM CLR 10/05 A3036 RMK AO2 SLP284 T01000050 10111 20083 56011 $=
202010312253 METAR KPAE 312253Z 35005KT 10SM CLR 11/04 A3037 RMK AO2 SLP287 T01060044 $=
202010312153 METAR KPAE 312153Z 35004KT 10SM CLR 11/04 A3037 RMK AO2 SLP288 T01110044 $=
202010312053 METAR KPAE 312053Z 34005KT 10SM CLR 10/04 A3039 RMK AO2 SLP295 T01000044 58009 $=
202010311953 METAR KPAE 311953Z 36005KT 10SM CLR 09/03 A3041 RMK AO2 SLP301 T00940033 $=
202010311853 METAR KPAE 311853Z 36004KT 10SM CLR 09/04 A3043 RMK AO2 SLP307 T00940039 $=
202010311753 METAR KPAE 311753Z 05005KT 10SM CLR 08/03 A3042 RMK AO2 SLP303 T00830033 10083 20044 50012 $=
202010311653 METAR KPAE 311653Z 01003KT 10SM CLR 07/03 A3043 RMK AO2 SLP307 T00670028 $=
202010311553 METAR KPAE 311553Z 10005KT 10SM CLR 06/03 A3040 RMK AO2 SLP298 T00560028 $=
202010311453 METAR KPAE 311453Z 11003KT 10SM CLR 04/02 A3039 RMK AO2 SLP293 T00440022 51007 $=
202010311353 METAR KPAE 311353Z 10004KT 10SM CLR 04/03 A3038 RMK AO2 SLP292 T00440028 $=
202010311253 METAR KPAE 311253Z 10006KT 10SM CLR 05/03 A3037 RMK AO2 SLP287 T00500033=
202010311153 METAR KPAE 311153Z 00000KT 10SM CLR 05/04 A3036 RMK AO2 SLP284 70011 T00500039 10078 20033 51008=
202010311053 METAR KPAE 311053Z 00000KT 10SM CLR 04/03 A3035 RMK AO2 SLP281 T00440033=
202010310953 METAR KPAE 310953Z 00000KT 10SM CLR 04/03 A3035 RMK AO2 SLP280 T00440028=
202010310853 METAR KPAE 310853Z 00000KT 10SM CLR 04/03 A3034 RMK AO2 SLP277 T00440028 51017=
202010310753 METAR KPAE 310753Z 00000KT 10SM CLR 05/03 A3032 RMK AO2 SLP271 T00500033 401280050=
202010310653 METAR KPAE 310653Z 00000KT 10SM CLR 06/04 A3031 RMK AO2 SLP265 T00560039=
202010310553 METAR KPAE 310553Z 36003KT 10SM FEW060 08/04 A3029 RMK AO2 SLP258 T00780044 10111 20078 53019=
202010310453 METAR KPAE 310453Z 33004KT 10SM BKN036 08/04 A3026 RMK AO2 SLP249 T00830039=
202010310353 METAR KPAE 310353Z 34005KT 10SM OVC060 09/04 A3024 RMK AO2 SLP243 T00890039=
202010310253 METAR KPAE 310253Z 36005KT 10SM OVC060 09/04 A3023 RMK AO2 SLP238 T00940039 53026=
202010310153 METAR KPAE 310153Z 02003KT 10SM SCT048 SCT060 09/04 A3020 RMK AO2 SLP229 T00940039=
202010310053 METAR KPAE 310053Z 02006KT 10SM BKN046 10/04 A3017 RMK AO2 SLP218 T01000039=
202010302353 METAR KPAE 302353Z 35005KT 10SM BKN039 11/04 A3015 RMK AO2 SLP211 60001 T01110044 10128 20100 53017=
202010302253 METAR KPAE 302253Z 36005KT 10SM SCT042 12/04 A3013 RMK AO2 SLP204 T01170044=
202010302153 METAR KPAE 302153Z 08005KT 10SM CLR 12/06 A3012 RMK AO2 SLP200 T01170056=
202010302053 METAR KPAE 302053Z 15003KT 10SM BKN040 BKN049 11/07 A3010 RMK AO2 RAB1957E11 SLP195 P0001 60001 T01060072 51029=
202010301953 METAR KPAE 301953Z 16004KT 10SM FEW026 OVC033 11/08 A3009 RMK AO2 SLP192 T01060078=
202010301853 METAR KPAE 301853Z 00000KT 10SM OVC026 11/06 A3005 RMK AO2 SLP177 T01110061=
202010301753 METAR KPAE 301753Z 29005KT 10SM OVC029 11/06 A3001 RMK AO2 SLP164 60010 T01060061 10111 20100 51019=
202010301750 SPECI KPAE 301750Z VRB04KT 10SM OVC029 11/06 A3001 RMK AO2=
202010301653 METAR KPAE 301653Z VRB04KT 10SM FEW095 11/06 A2999 RMK AO2 SLP155 T01060061=
202010301553 METAR KPAE 301553Z 01008G15KT 10SM FEW035 SCT100 10/07 A2996 RMK AO2 SLP145 T01000067=
202010301453 METAR KPAE 301453Z 03004KT 10SM FEW003 SCT019 OVC036 11/09 A2993 RMK AO2 RAE47 SLP137 P0003 60010 T01060089 51040=
202010301353 METAR KPAE 301353Z AUTO 00000KT 10SM -RA OVC008 11/09 A2991 RMK AO2 RAE18B41 CIG 006V011 SLP128 P0001 T01060094=
202010301310 SPECI KPAE 301310Z AUTO 28006KT 10SM -RA BKN009 OVC014 11/09 A2989 RMK AO2 PRESRR P0000 T01060094 $=
202010301253 METAR KPAE 301253Z AUTO 22012KT 10SM -RA FEW006 BKN014 OVC035 11/09 A2985 RMK AO2 PK WND 20028/1218 RAB22 PRESFR SLP108 P0006 T01060089 $=
202010301234 SPECI KPAE 301234Z AUTO 24013G26KT 10SM -RA BKN014 BKN021 OVC055 11/08 A2987 RMK AO2 PK WND 20028/1218 RAB22 P0000 T01110083 $=
202010301153 METAR KPAE 301153Z AUTO 11/08 A2981 RMK AO2 PK WND 18038/1109 SLP096 70003 T01110078 10111 20094 58021 PWINO $=
202010301053 METAR KPAE 301053Z AUTO 18026G31KT 10SM BKN100 11/08 A2984 RMK AO2 PK WND 18033/1024 SLP104 T01060078=
202010300953 METAR KPAE 300953Z AUTO 17019G25KT 10SM BKN110 10/08 A2986 RMK AO2 PK WND 16026/0938 SLP110 T01000078=
202010300853 METAR KPAE 300853Z AUTO 17016G23KT 10SM CLR 09/07 A2987 RMK AO2 SLP117 T00940072 58036=
202010300753 METAR KPAE 300753Z AUTO 16013KT 10SM CLR 09/07 A2991 RMK AO2 SLP129 T00940072 401390094=
202010300653 METAR KPAE 300653Z AUTO 15008KT 10SM FEW029 09/07 A2996 RMK AO2 SLP146 T00940072=
202010300553 METAR KPAE 300553Z AUTO VRB03KT 10SM CLR 10/08 A2998 RMK AO2 SLP154 T01000083 10133 20100 58022=
202010300453 METAR KPAE 300453Z AUTO 11006KT 10SM CLR 10/08 A3000 RMK AO2 SLP161 T01000083=
202010300353 METAR KPAE 300353Z AUTO 10004KT 10SM CLR 11/08 A3003 RMK AO2 SLP171 T01060083=
202010300253 METAR KPAE 300253Z AUTO 11004KT 10SM CLR 11/08 A3005 RMK AO2 SLP176 T01060083 56016=
202010300153 METAR KPAE 300153Z AUTO 00000KT 10SM CLR 10/08 A3006 RMK AO2 SLP180 T01000078=
202010300053 METAR KPAE 300053Z AUTO 00000KT 10SM FEW043 12/08 A3007 RMK AO2 SLP185 T01220078=
202010292353 METAR KPAE 292353Z AUTO 17005KT 10SM BKN044 13/08 A3009 RMK AO2 SLP192 T01330083 10139 20111 56021=
202010292253 METAR KPAE 292253Z AUTO 15005KT 10SM SCT008 13/09 A3011 RMK AO2 SLP198 T01330089=
202010292207 SPECI KPAE 292207Z 17006KT 10SM SCT008 13/09 A3013 RMK AO2 T01330089=
202010292200 SPECI KPAE 292200Z 19007KT 10SM CLR 14/09 A3013 RMK AO2 T01390094=
202010292153 METAR KPAE 292153Z 17004KT 10SM SCT008 BKN012 13/09 A3014 RMK AO2 SLP206 T01330089=
202010292053 METAR KPAE 292053Z 16006KT 10SM SCT008 BKN012 13/09 A3016 RMK AO2 SLP213 T01280094 58015=
202010291953 METAR KPAE 291953Z 16006KT 10SM BKN006 OVC038 12/10 A3018 RMK AO2 SLP219 T01220100=
202010291853 METAR KPAE 291853Z 16006KT 5SM BR BKN005 OVC038 12/10 A3020 RMK AO2 SLP226 T01170100=
202010291753 METAR KPAE 291753Z 15003KT 5SM BR BKN003 OVC005 11/10 A3020 RMK AO2 SLP228 60003 T01110100 10117 20106 51003=
202010291653 METAR KPAE 291653Z 13003KT 5SM BR BKN005 OVC009 11/10 A3020 RMK AO2 RAB17E29 SLP228 P0000 T01110100=
202010291627 SPECI KPAE 291627Z 15005KT 3SM -RA BR OVC007 11/10 A3020 RMK AO2 RAB17 CIG 004V009 P0000 T01110100=
202010291553 METAR KPAE 291553Z 16006KT 3SM BR OVC003 11/10 A3020 RMK AO2 RAB1454E46 SLP226 P0001 T01060100=
202010291525 SPECI KPAE 291525Z 15006KT 3SM -RA BR OVC003 11/10 A3019 RMK AO2 RAB1454 P0001 T01060100=
202010291453 METAR KPAE 291453Z 15004KT 10SM BKN004 OVC014 11/10 A3019 RMK AO2 SLP225 60002 T01060100 50001=
202010291432 SPECI KPAE 291432Z 15005KT 10SM OVC004 11/10 A3020 RMK AO2 T01060100=
202010291353 METAR KPAE 291353Z 15007KT 10SM BKN005 OVC028 11/10 A3020 RMK AO2 RAE25 CIG 003V008 SLP227 P0001 T01060100=
202010291253 METAR KPAE 291253Z AUTO 15004KT 10SM -RA OVC005 11/10 A3019 RMK AO2 RAE31B43 SLP225 P0001 T01060100=
202010291231 SPECI KPAE 291231Z AUTO 15004KT 10SM OVC006 11/10 A3019 RMK AO2 RAE31 CIG 003V009 P0001 T01060100=
202010291221 SPECI KPAE 291221Z AUTO 16006KT 10SM -RA BKN004 BKN012 OVC018 11/10 A3019 RMK AO2 CIG 003V009 P0000 T01060100=
202010291214 SPECI KPAE 291214Z AUTO 16005KT 10SM -RA OVC006 11/10 A3019 RMK AO2 CIG 003V009 P0000 T01060100=
202010291153 METAR KPAE 291153Z AUTO 14004KT 10SM -RA OVC004 11/10 A3019 RMK AO2 RAB09E23B37 SLP224 P0001 60001 70001 T01060100 10117 20106 58001=
202010291133 SPECI KPAE 291133Z AUTO 16005KT 10SM BKN004 OVC009 11/10 A3019 RMK AO2 RAB09E23 CIG 003V007 P0000 T01110100=
202010291100 SPECI KPAE 291100Z AUTO 14005KT 10SM BKN006 BKN009 OVC018 11/10 A3019 RMK AO2 T01110100=
202010291053 METAR KPAE 291053Z AUTO 14003KT 10SM SCT008 OVC018 11/10 A3019 RMK AO2 SLP225 T01110100=
202010291023 SPECI KPAE 291023Z AUTO 15005KT 10SM SCT006 OVC017 11/10 A3019 RMK AO2 T01110100=
202010291010 SPECI KPAE 291010Z AUTO 17004KT 10SM BKN005 OVC015 11/10 A3019 RMK AO2 CIG 004V009 T01110100=
202010290953 METAR KPAE 290953Z AUTO 15005KT 10SM FEW009 OVC015 11/09 A3019 RMK AO2 SLP225 T01110094=
202010290923 SPECI KPAE 290923Z AUTO 15004KT 10SM FEW005 SCT010 OVC018 11/10 A3020 RMK AO2 T01110100=
202010290911 SPECI KPAE 290911Z AUTO 16004KT 10SM SCT005 BKN009 OVC020 11/10 A3019 RMK AO2 T01110100=
202010290853 METAR KPAE 290853Z AUTO 19003KT 10SM SCT006 OVC020 11/10 A3019 RMK AO2 SLP225 T01110100 52002=
202010290753 METAR KPAE 290753Z AUTO 15007KT 10SM OVC018 11/09 A3019 RMK AO2 SLP223 T01110094 401280078=
202010290709 SPECI KPAE 290709Z AUTO 16009KT 10SM BKN016 OVC023 12/09 A3018 RMK AO2 T01170094=
202010290653 METAR KPAE 290653Z AUTO 15006KT 10SM OVC014 11/09 A3019 RMK AO2 SLP223 T01110094=
202010290644 SPECI KPAE 290644Z AUTO 15007KT 10SM OVC014 11/09 A3019 RMK AO2 T01110094=
202010290553 METAR KPAE 290553Z AUTO 00000KT 10SM OVC017 11/09 A3018 RMK AO2 SLP222 T01110094 10117 20100 53003=
202010290453 METAR KPAE 290453Z AUTO 16006KT 10SM OVC015 12/10 A3018 RMK AO2 SLP220 T01170100=
202010290353 METAR KPAE 290353Z AUTO 17004KT 10SM FEW010 OVC015 12/10 A3018 RMK AO2 SLP220 T01170100=
202010290348 SPECI KPAE 290348Z AUTO 17004KT 10SM OVC013 12/10 A3018 RMK AO2=
202010290253 METAR KPAE 290253Z 18004KT 10SM OVC007 11/09 A3017 RMK AO2 SLP219 T01110094 56004=
202010290153 METAR KPAE 290153Z 22003KT 10SM OVC005 11/09 A3017 RMK AO2 SLP219 T01060094=
202010290053 METAR KPAE 290053Z 17008KT 10SM BKN006 11/08 A3017 RMK AO2 SLP218 T01060083=
202010290045 SPECI KPAE 290045Z 17006KT 10SM BKN006 10/08 A3017 RMK AO2 T01000083=
202010282353 METAR KPAE 282353Z 24006KT 10SM FEW006 11/08 A3018 RMK AO2 SLP222 T01060083 10128 20106 56011=
202010282301 SPECI KPAE 282301Z 24009KT 10SM FEW006 11/08 A3019 RMK AO2 T01110083=
202010282253 METAR KPAE 282253Z AUTO 24008KT 10SM CLR 11/08 A3019 RMK AO2 SLP225 T01110083=
202010282153 METAR KPAE 282153Z 23008KT 10SM FEW019 11/09 A3020 RMK AO2 SLP228 T01110089=
202010282053 METAR KPAE 282053Z 24007KT 10SM FEW017 12/09 A3021 RMK AO2 SLP233 T01220089 58017=
202010281953 METAR KPAE 281953Z 17008KT 10SM BKN015 12/08 A3023 RMK AO2 SLP239 T01220083=
202010281853 METAR KPAE 281853Z 17006KT 10SM OVC014 12/08 A3026 RMK AO2 SLP247 T01220078=
202010281753 METAR KPAE 281753Z 15004KT 10SM OVC011 11/08 A3026 RMK AO2 SLP249 T01110078 10111 20083 50001 $=
202010281653 METAR KPAE 281653Z 14005KT OVC011 09/07 A3027 RMK AO2 SLP253 T00940067 $=
202010281553 METAR KPAE 281553Z 14004KT 10SM OVC012 09/06 A3027 RMK AO2 SLP252 T00890061=
202010281535 SPECI KPAE 281535Z 15006KT 10SM OVC012 09/06 A3026 RMK AO2 T00890061=
202010281453 METAR KPAE 281453Z 17005KT 10SM OVC016 08/06 A3026 RMK AO2 SLP249 T00830061 58002=
202010281353 METAR KPAE 281353Z 15006KT 10SM OVC015 08/06 A3027 RMK AO2 SLP252 T00830061=
202010281253 METAR KPAE 281253Z AUTO 14003KT 10SM OVC012 08/07 A3027 RMK AO2 SLP253 T00830067=
202010281226 SPECI KPAE 281226Z AUTO 17004KT 10SM OVC010 09/07 A3027 RMK AO2 CIG 007V012 T00890072=
202010281153 METAR KPAE 281153Z AUTO 18008KT 10SM OVC007 08/07 A3027 RMK AO2 SLP251 T00830067 10100 20078 56005=
202010281128 SPECI KPAE 281128Z AUTO 17007KT 10SM BKN007 OVC046 08/06 A3026 RMK AO2 T00830061=
202010281119 SPECI KPAE 281119Z AUTO 16008KT 10SM SCT007 BKN046 08/06 A3026 RMK AO2 T00830061=
202010281053 METAR KPAE 281053Z AUTO 15008KT 10SM FEW047 08/06 A3027 RMK AO2 SLP253 T00830056=
202010280953 METAR KPAE 280953Z AUTO 17011KT 10SM FEW008 BKN048 09/06 A3027 RMK AO2 SLP252 T00890056=
202010280931 SPECI KPAE 280931Z AUTO 16009KT 10SM SCT008 OVC050 09/06 A3027 RMK AO2 T00890061=
202010280853 METAR KPAE 280853Z AUTO 17007KT 10SM OVC050 09/06 A3028 RMK AO2 SLP256 T00940061 56007=
202010280753 METAR KPAE 280753Z AUTO 18006KT 10SM OVC047 09/06 A3028 RMK AO2 SLP256 T00940056 401280067=
202010280653 METAR KPAE 280653Z AUTO 16007KT 10SM OVC050 09/06 A3029 RMK AO2 SLP260 T00940056=
202010280553 METAR KPAE 280553Z AUTO 16007KT 10SM SCT060 09/06 A3030 RMK AO2 SLP264 T00940056 10122 20094 55001=
202010280453 METAR KPAE 280453Z AUTO 15008KT 10SM FEW045 10/06 A3030 RMK AO2 SLP263 T01000056=
202010280353 METAR KPAE 280353Z 15009KT 10SM OVC042 11/05 A3030 RMK AO2 SLP263 T01060050=
202010280253 METAR KPAE 280253Z VRB03KT 10SM OVC046 11/05 A3031 RMK AO2 SLP265 T01110050 58005=
202010280153 METAR KPAE 280153Z VRB03KT 10SM OVC036 12/06 A3031 RMK AO2 SLP266 T01170056=
202010280053 METAR KPAE 280053Z 18005KT 10SM BKN038 11/06 A3032 RMK AO2 SLP269 T01060056=
202010272353 METAR KPAE 272353Z 23005KT 10SM CLR 12/05 A3032 RMK AO2 SLP270 T01220050 10128 20089 56011=
202010272253 METAR KPAE 272253Z 25007KT 10SM FEW039 13/05 A3034 RMK AO2 SLP274 T01280050=
202010272153 METAR KPAE 272153Z 24006KT 10SM BKN046 12/06 A3034 RMK AO2 SLP276 T01220056=
202010272053 METAR KPAE 272053Z VRB05KT 10SM SCT045 12/07 A3036 RMK AO2 SLP281 T01170067 58018=
202010271953 METAR KPAE 271953Z 17005KT 10SM FEW065 11/06 A3038 RMK AO2 SLP291 T01110056=
202010271853 METAR KPAE 271853Z 16004KT 10SM FEW019 OVC033 10/06 A3041 RMK AO2 SLP298 T01000056=
202010271753 METAR KPAE 271753Z 17005KT 10SM OVC036 09/04 A3041 RMK AO2 SLP301 T00890044 10089 20072 58001=
202010271653 METAR KPAE 271653Z 15005KT 10SM OVC035 08/04 A3042 RMK AO2 SLP304 T00830039=
202010271626 SPECI KPAE 271626Z 17004KT 10SM FEW023 SCT029 OVC040 08/03 A3042 RMK AO2 T00830033=
202010271619 SPECI KPAE 271619Z 17005KT 10SM BKN026 BKN032 OVC040 08/03 A3042 RMK AO2 T00780033=
202010271611 SPECI KPAE 271611Z 15004KT 10SM SCT023 OVC030 08/03 A3042 RMK AO2 T00780033=
202010271553 METAR KPAE 271553Z 10SM BKN021 OVC029 08/03 A3042 RMK AO2 SLP303 T00780033=
202010271453 METAR KPAE 271453Z 21003KT 10SM BKN027 OVC049 07/03 A3041 RMK AO2 SLP301 T00720033 55007=
202010271353 METAR KPAE 271353Z 00000KT 10SM BKN027 OVC049 07/03 A3040 RMK AO2 SLP299 T00720028=
202010271253 METAR KPAE 271253Z AUTO 12004KT 10SM OVC023 08/03 A3041 RMK AO2 SLP301 T00780028=
202010271153 METAR KPAE 271153Z AUTO 00000KT 10SM BKN025 OVC031 07/03 A3043 RMK AO2 SLP308 T00720028 10072 20067 55005=
202010271053 METAR KPAE 271053Z AUTO 12003KT 10SM BKN027 OVC036 07/02 A3043 RMK AO2 SLP308 T00720022=
202010271039 SPECI KPAE 271039Z AUTO 11004KT 10SM BKN029 OVC036 07/02 A3043 RMK AO2 T00720022=
202010270953 METAR KPAE 270953Z AUTO 11004KT 10SM OVC031 07/03 A3045 RMK AO2 SLP314 T00670028=
202010270853 METAR KPAE 270853Z AUTO 11003KT 10SM OVC027 07/03 A3045 RMK AO2 SLP314 T00720028 56005=
202010270753 METAR KPAE 270753Z AUTO 12004KT 10SM OVC025 07/03 A3045 RMK AO2 SLP314 T00670028 400780011=
202010270653 METAR KPAE 270653Z AUTO 11004KT 10SM OVC028 07/02 A3046 RMK AO2 SLP318 T00720022=
202010270553 METAR KPAE 270553Z AUTO 11005KT 10SM OVC026 07/02 A3046 RMK AO2 SLP319 T00670022 10078 20067 56003=
202010270453 METAR KPAE 270453Z AUTO 10004KT 10SM OVC026 07/02 A3046 RMK AO2 SLP320 T00720022=
202010270353 METAR KPAE 270353Z AUTO 00000KT 10SM OVC025 08/01 A3047 RMK AO2 SLP322 T00780011=
202010270253 METAR KPAE 270253Z 00000KT 10SM OVC027 07/02 A3047 RMK AO2 SLP324 T00670022 53001=
202010270241 SPECI KPAE 270241Z 00000KT 10SM OVC028 07/02 A3047 RMK AO2 T00670022=
202010270153 METAR KPAE 270153Z 00000KT 10SM FEW031 OVC041 07/02 A3046 RMK AO2 SLP320 T00670017=
202010270053 METAR KPAE 270053Z 00000KT 10SM OVC046 07/02 A3046 RMK AO2 SLP321 T00670017=
202010262353 METAR KPAE 262353Z 34004KT 10SM OVC045 07/01 A3047 RMK AO2 SLP323 T00720011 10078 20044 55004=
202010262253 METAR KPAE 262253Z 29003KT 10SM OVC043 07/01 A3047 RMK AO2 SLP321 T00720011=
202010262153 METAR KPAE 262153Z 36003KT 10SM OVC040 07/01 A3047 RMK AO2 SLP322 T00720011=
202010262053 METAR KPAE 262053Z VRB03KT 10SM OVC044 07/01 A3048 RMK AO2 SLP326 T00670011 58008=
202010261953 METAR KPAE 261953Z 02005KT 10SM OVC046 06/01 A3050 RMK AO2 SLP333 T00610006=
202010261853 METAR KPAE 261853Z 04004KT 10SM OVC050 06/M01 A3051 RMK AO2 SLP335 T00561006=
202010261753 METAR KPAE 261753Z VRB04KT 10SM OVC050 05/00 A3051 RMK AO2 SLP336 60000 T00500000 10050 20022 50004=
202010261653 METAR KPAE 261653Z 02003KT 10SM OVC050 04/01 A3051 RMK AO2 SLP337 T00390011=
202010261553 METAR KPAE 261553Z 00000KT 10SM OVC050 03/01 A3050 RMK AO2 SLP334 T00330006=
202010261453 METAR KPAE 261453Z 00000KT 10SM OVC055 02/01 A3049 RMK AO2 SLP332 60000 T00220006 55003=
202010261353 METAR KPAE 261353Z 00000KT 10SM OVC055 03/M01 A3049 RMK AO2 SLP330 T00281006=
202010261253 METAR KPAE 261253Z 08003KT 10SM OVC060 03/M01 A3050 RMK AO2 RAE50 SLP333 P0000 T00331011=
202010261153 METAR KPAE 261153Z 00000KT 10SM -RA OVC060 03/M01 A3050 RMK AO2 RAB41 SLP333 P0000 60000 T00331006 10033 20006 56009=
202010261053 METAR KPAE 261053Z 00000KT 10SM OVC070 03/M02 A3052 RMK AO2 SLP338 T00281017=
202010260953 METAR KPAE 260953Z 00000KT 10SM OVC075 03/M02 A3052 RMK AO2 SLP338 T00331022=
202010260853 METAR KPAE 260853Z 02005KT 10SM OVC090 03/M02 A3053 RMK AO2 SLP343 T00281022 53001=
202010260753 METAR KPAE 260753Z 36003KT 10SM CLR 02/M03 A3052 RMK AO2 SLP340 T00171033 400720000=
202010260653 METAR KPAE 260653Z 00000KT 10SM CLR 02/M03 A3053 RMK AO2 SLP343 T00171033=
202010260553 METAR KPAE 260553Z 36003KT 10SM CLR 02/M03 A3053 RMK AO2 SLP342 T00221033 10061 20017 56004=
202010260453 METAR KPAE 260453Z 02003KT 10SM CLR 03/M03 A3053 RMK AO2 SLP344 T00281033=
202010260353 METAR KPAE 260353Z 02005KT 10SM CLR 03/M03 A3053 RMK AO2 SLP344 T00331033=
202010260253 METAR KPAE 260253Z 35004KT 10SM CLR 03/M02 A3054 RMK AO2 SLP347 T00331022 53002=
202010260153 METAR KPAE 260153Z 34003KT 10SM CLR 03/M02 A3053 RMK AO2 SLP345 T00331022=
202010260053 METAR KPAE 260053Z 35003KT 10SM CLR 04/M03 A3053 RMK AO2 SLP344 T00441028=
202010252353 METAR KPAE 252353Z 34004KT 10SM CLR 06/M03 A3053 RMK AO2 SLP345 T00611033 10072 20039 56006=
202010252253 METAR KPAE 252253Z 33006KT 10SM CLR 07/M03 A3054 RMK AO2 SLP347 T00671033=
202010252153 METAR KPAE 252153Z 34006KT 10SM CLR 07/M03 A3054 RMK AO2 SLP346 T00671033=
202010252053 METAR KPAE 252053Z 34006KT 10SM CLR 06/M04 A3055 RMK AO2 SLP350 T00611039 58007=
202010251953 METAR KPAE 251953Z 34005KT 10SM CLR 06/M04 A3057 RMK AO2 SLP357 T00561039=
202010251853 METAR KPAE 251853Z 01004KT 10SM CLR 04/M03 A3058 RMK AO2 SLP359 T00441033=
202010251753 METAR KPAE 251753Z 02005KT 10SM CLR 04/M03 A3057 RMK AO2 SLP357 T00391033 10044 20000 51013=
202010251653 METAR KPAE 251653Z 01003KT 10SM CLR 03/M03 A3056 RMK AO2 SLP355 T00331033=
202010251553 METAR KPAE 251553Z 02006KT 10SM CLR 02/M03 A3056 RMK AO2 SLP355 T00221033=
202010251453 METAR KPAE 251453Z 02005KT 10SM CLR 01/M04 A3053 RMK AO2 SLP345 T00061039 51012=
202010251353 METAR KPAE 251353Z 36004KT 10SM CLR 01/M04 A3053 RMK AO2 SLP343 T00061044=
202010251253 METAR KPAE 251253Z AUTO 36004KT 10SM CLR 00/M04 A3051 RMK AO2 SLP337 T00001039=
202010251153 METAR KPAE 251153Z AUTO 35004KT 10SM CLR 01/M04 A3050 RMK AO2 SLP332 T00111039 10056 20006 51015=
202010251053 METAR KPAE 251053Z AUTO 01004KT 10SM CLR 02/M02 A3049 RMK AO2 SLP328 T00171022=
202010250953 METAR KPAE 250953Z AUTO 02003KT 10SM FEW060 02/M03 A3047 RMK AO2 SLP324 T00221028=
202010250853 METAR KPAE 250853Z AUTO 02003KT 10SM CLR 03/M02 A3045 RMK AO2 SLP317 T00281022 51017=
202010250753 METAR KPAE 250753Z AUTO 03003KT 10SM SCT065 04/M01 A3044 RMK AO2 SLP310 T00391006 400830039=
202010250653 METAR KPAE 250653Z AUTO 03004KT 10SM OVC070 04/M01 A3043 RMK AO2 SLP307 T00441006=
202010250553 METAR KPAE 250553Z AUTO 06004KT 10SM OVC070 06/M02 A3040 RMK AO2 SLP299 T00561017 10072 20044 51019=
202010250453 METAR KPAE 250453Z AUTO VRB03KT 10SM OVC075 04/M01 A3039 RMK AO2 SLP294 T00441006=
202010250353 METAR KPAE 250353Z AUTO 34003KT 10SM OVC070 05/M01 A3037 RMK AO2 SLP287 T00501011=
202010250253 METAR KPAE 250253Z AUTO 34004KT 10SM BKN075 05/M02 A3034 RMK AO2 SLP280 T00501017 51014=
202010250153 METAR KPAE 250153Z AUTO 33006KT 10SM BKN075 05/M03 A3033 RMK AO2 SLP275 T00501028=
202010250053 METAR KPAE 250053Z AUTO 32006KT 10SM BKN075 06/M03 A3032 RMK AO2 SLP271 T00611028=
202010242353 METAR KPAE 242353Z AUTO 34006KT 10SM FEW060 07/M02 A3030 RMK AO2 SLP265 T00721022 10083 20067 53016=
202010242253 METAR KPAE 242253Z AUTO 33006KT 10SM FEW055 07/M03 A3028 RMK AO2 SLP258 T00721028=
202010242153 METAR KPAE 242153Z 33009G16KT 10SM FEW070 08/M02 A3027 RMK AO2 SLP252 T00831022=
202010242053 METAR KPAE 242053Z 34010KT 10SM CLR 08/M02 A3025 RMK AO2 SLP248 T00781017 51010=
202010241953 METAR KPAE 241953Z VRB06KT 10SM CLR 08/00 A3025 RMK AO2 SLP247 T00830000=
202010241853 METAR KPAE 241853Z 34008KT 300V010 10SM FEW036 FEW050 08/00 A3024 RMK AO2 SLP243 T00780000=
202010241753 METAR KPAE 241753Z 35009KT 10SM BKN060 07/01 A3022 RMK AO2 SLP238 T00670006 10067 20039 53014=
202010241653 METAR KPAE 241653Z VRB06KT 10SM BKN039 06/01 A3021 RMK AO2 SLP234 T00610011=
202010241553 METAR KPAE 241553Z VRB04KT 10SM FEW027 OVC038 04/00 A3018 RMK AO2 SLP225 T00440000=
202010241548 SPECI KPAE 241548Z VRB05KT 10SM SCT026 OVC036 04/00 A3018 RMK AO2=
202010241518 SPECI KPAE 241518Z 34006KT 10SM BKN027 BKN035 OVC060 04/00 A3017 RMK AO2 T00440000=
202010241453 METAR KPAE 241453Z 35006KT 10SM SCT012 BKN035 04/00 A3016 RMK AO2 SLP215 T00440000 51030=
202010241353 METAR KPAE 241353Z 36004KT 10SM SCT012 BKN035 04/00 A3013 RMK AO2 SLP205 T00390000=
202010241253 METAR KPAE 241253Z 35007KT 10SM CLR 04/01 A3010 RMK AO2 SLP195 T00390006=
202010241153 METAR KPAE 241153Z 34005KT 10SM CLR 04/01 A3007 RMK AO2 SLP184 60001 70014 T00390011 10061 20039 53026=
202010241053 METAR KPAE 241053Z 31007KT 10SM OVC050 04/01 A3004 RMK AO2 SLP174 T00440006=
202010240953 METAR KPAE 240953Z 33007KT 10SM CLR 04/01 A3001 RMK AO2 SLP164 T00440006=
202010240853 METAR KPAE 240853Z 31006KT 10SM FEW030 SCT080 05/01 A2999 RMK AO2 SLP157 60001 T00500011 53021=
202010240827 SPECI KPAE 240827Z 31006KT 10SM SCT029 OVC080 05/02 A2997 RMK AO2 T00500017=
202010240819 SPECI KPAE 240819Z 31007KT 10SM BKN029 OVC075 05/02 A2997 RMK AO2 T00500017=
202010240753 METAR KPAE 240753Z 33007KT 10SM OVC032 06/02 A2995 RMK AO2 SLP145 T00560022 400830044=
202010240653 METAR KPAE 240653Z 34008KT 10SM SCT017 SCT060 OVC080 06/03 A2995 RMK AO2 RAE00 SLP144 P0001 T00560033=
202010240633 SPECI KPAE 240633Z 33011G17KT 10SM FEW010 SCT019 OVC070 06/03 A2994 RMK AO2 RAE00 P0001 T00560033=
202010240620 SPECI KPAE 240620Z 33008G17KT 10SM SCT006 BKN012 OVC019 06/04 A2994 RMK AO2 RAE00 P0001 T00560039=
202010240553 METAR KPAE 240553Z 33010G16KT 300V010 10SM -RA OVC006 06/04 A2992 RMK AO2 CIG 005V009 SLP136 P0000 60004 T00560044 10078 20056 52024=
202010240510 SPECI KPAE 240510Z 31011G17KT 10SM -RA OVC005 06/05 A2990 RMK AO2 CIG 001V007 P0000 T00560050=
202010240453 METAR KPAE 240453Z 32010G16KT 10SM -RA OVC003 06/05 A2990 RMK AO2 CIG 001V005 SLP128 P0003 T00610050=
202010240442 SPECI KPAE 240442Z 34009KT 10SM -RA OVC004 06/05 A2989 RMK AO2 CIG 001V007 P0002 T00610050=
202010240407 SPECI KPAE 240407Z 34007G17KT 9SM -RA SCT001 BKN005 OVC018 06/05 A2988 RMK AO2 P0001 T00560050=
202010240356 SPECI KPAE 240356Z 34009KT 3SM R16R/2600VP6000FT -RA BR BKN001 OVC017 06/05 A2987 RMK AO2 P0000 T00560050=
202010240353 METAR KPAE 240353Z 35009G14KT 1 1/4SM R16R/2600VP6000FT -RA BR BKN001 BKN014 OVC021 06/06 A2988 RMK AO2 RAB43 SLP120 P0001 T00560056=
202010240343 SPECI KPAE 240343Z 33007KT 3/4SM R16R/2000V3500FT -RA BR VV001 06/06 A2987 RMK AO2 RAB43 P0000 T00610056=
202010240328 SPECI KPAE 240328Z 35008KT 5SM BR OVC001 06/06 A2986 RMK AO2 T00610056=
202010240321 SPECI KPAE 240321Z 34007KT 2SM BR OVC001 06/06 A2986 RMK AO2 T00610056=
202010240301 SPECI KPAE 240301Z 34007KT 320V020 1/2SM R16R/1600V2800FT FG VV001 07/06 A2985 RMK AO2 T00670061=
202010240257 SPECI KPAE 240257Z 35006KT 1/4SM R16R/1600V2200FT FG VV001 07/06 A2985 RMK AO2 T00670061=
202010240253 METAR KPAE 240253Z 36005KT 1/2SM R16R/1800V2400FT FG VV001 07/06 A2985 RMK AO2 SLP111 T00670061 53013=
202010240249 SPECI KPAE 240249Z 35003KT 3/4SM R16R/2000VP6000FT BR BKN001 OVC017 07/06 A2985 RMK AO2=
202010240244 SPECI KPAE 240244Z 36004KT 1 1/2SM R16R/2200VP6000FT BR BKN002 BKN007 OVC018 07/06 A2984 RMK AO2 VIS 1/2V5 T00670061=
202010240217 SPECI KPAE 240217Z 03005KT 10SM BKN002 OVC010 07/06 A2984 RMK AO2 T00670056=
202010240155 SPECI KPAE 240155Z 35003KT 10SM OVC009 08/06 A2983 RMK AO2 T00780056=
202010240153 METAR KPAE 240153Z 36003KT 10SM OVC011 08/06 A2983 RMK AO2 SLP103 T00780056=
202010240053 METAR KPAE 240053Z AUTO 18004KT 10SM OVC011 08/05 A2980 RMK AO2 SLP095 T00780050=
202010232353 METAR KPAE 232353Z AUTO VRB04KT 10SM OVC014 08/04 A2981 RMK AO2 SLP098 60000 T00780039 10083 20050 56015=
202010232345 SPECI KPAE 232345Z AUTO 15004KT 10SM OVC014 08/04 A2981 RMK AO2 T00780039=
202010232253 METAR KPAE 232253Z AUTO 15007KT 10SM OVC018 08/03 A2982 RMK AO2 SLP100 T00780033=
202010232153 METAR KPAE 232153Z 16013KT 10SM OVC020 07/03 A2982 RMK AO2 SLP100 T00720028=
202010232053 METAR KPAE 232053Z 15010G19KT 10SM OVC025 07/03 A2986 RMK AO2 PK WND 18027/1956 SLP113 60000 T00720028 56035=
202010231953 METAR KPAE 231953Z 16017G32KT 10SM OVC027 08/03 A2988 RMK AO2 PK WND 18032/1946 SLP119 T00780028=
202010231932 SPECI KPAE 231932Z 17017G25KT 10SM OVC029 07/03 A2990 RMK AO2 T00720028=
202010231853 METAR KPAE 231853Z 15011G18KT 10SM FEW022 OVC035 06/03 A2992 RMK AO2 RAB07E23 SLP136 P0000 T00610033=
202010231753 METAR KPAE 231753Z 14011G16KT 10SM OVC040 05/03 A2996 RMK AO2 RAE14 PRESFR SLP149 P0000 60009 T00500033 10061 20044 58030=
202010231653 METAR KPAE 231653Z 14008G19KT 10SM -RA OVC046 05/03 A3000 RMK AO2 SLP161 P0004 T00500028=
202010231553 METAR KPAE 231553Z 14011KT 6SM -RA OVC055 06/02 A3005 RMK AO2 SLP177 P0002 T00560022=
202010231453 METAR KPAE 231453Z VRB04KT 10SM -RA OVC060 06/02 A3005 RMK AO2 SLP180 P0003 60003 T00560022 58031=
202010231353 METAR KPAE 231353Z 18008KT 10SM -RA BKN040 OVC048 06/02 A3010 RMK AO2 RAB33 SLP194 P0000 T00560017=
202010231253 METAR KPAE 231253Z AUTO 12004KT 10SM OVC065 05/01 A3011 RMK AO2 SLP200 T00500011=
202010231153 METAR KPAE 231153Z AUTO 15009KT 10SM OVC080 05/01 A3015 RMK AO2 SLP211 T00500011 10056 20044 58041=
202010231053 METAR KPAE 231053Z AUTO VRB03KT 10SM OVC110 05/01 A3019 RMK AO2 PRESFR SLP225 T00500011=
202010230953 METAR KPAE 230953Z AUTO VRB03KT 10SM OVC110 05/02 A3024 RMK AO2 SLP243 T00500017=
202010230853 METAR KPAE 230853Z AUTO 14003KT 10SM SCT110 04/02 A3027 RMK AO2 SLP254 T00440017 58020=
202010230753 METAR KPAE 230753Z AUTO 11007KT 10SM BKN120 05/03 A3030 RMK AO2 SLP265 T00500028 401060033=
202010230653 METAR KPAE 230653Z AUTO 12004KT 10SM CLR 05/03 A3031 RMK AO2 SLP268 T00500028=
202010230553 METAR KPAE 230553Z AUTO 10006KT 10SM CLR 05/03 A3033 RMK AO2 SLP274 T00500028 10089 20050 56010=
202010230453 METAR KPAE 230453Z AUTO 12003KT 10SM CLR 06/03 A3034 RMK AO2 SLP278 T00610033=
202010230353 METAR KPAE 230353Z AUTO 05004KT 10SM CLR 07/03 A3035 RMK AO2 SLP280 T00720033=
202010230253 METAR KPAE 230253Z 03003KT 10SM CLR 05/03 A3036 RMK AO2 SLP285 T00500033 58004=
202010230153 METAR KPAE 230153Z 00000KT 10SM CLR 07/04 A3037 RMK AO2 SLP288 T00670039=
202010230053 METAR KPAE 230053Z 00000KT 10SM CLR 08/04 A3037 RMK AO2 SLP288 T00780039=
202010222353 METAR KPAE 222353Z 33003KT 10SM CLR 09/03 A3037 RMK AO2 SLP289 T00890033 10106 20067 57008=
202010222253 METAR KPAE 222253Z 34003KT 10SM CLR 10/04 A3038 RMK AO2 SLP291 T01000039=
202010222153 METAR KPAE 222153Z 28005KT 10SM CLR 09/04 A3039 RMK AO2 SLP294 T00890044=
202010222053 METAR KPAE 222053Z 23004KT 10SM FEW016 09/05 A3040 RMK AO2 SLP297 T00890050 58006=
202010222018 SPECI KPAE 222018Z 27003KT 10SM FEW016 08/04 A3041 RMK AO2 T00830044=
202010221953 METAR KPAE 221953Z VRB03KT 10SM OVC015 09/04 A3041 RMK AO2 SLP301 T00890044=
202010221942 SPECI KPAE 221942Z 24003KT 10SM BKN015 08/04 A3041 RMK AO2 T00830044=
202010221853 METAR KPAE 221853Z 11003KT 10SM OVC013 08/04 A3042 RMK AO2 SLP304 T00830044=
202010221753 METAR KPAE 221753Z 00000KT 10SM OVC008 07/04 A3042 RMK AO2 CIG 007V012 SLP303 T00670044 10067 20039 51015=
202010221726 SPECI KPAE 221726Z 15003KT 10SM OVC006 07/05 A3041 RMK AO2 CIG 004V008 T00670050=
202010221700 SPECI KPAE 221700Z 17003KT 8SM OVC004 06/05 A3041 RMK AO2 T00610050=
202010221653 METAR KPAE 221653Z 00000KT 1/2SM R16R/P6000FT FG OVC004 06/05 A3041 RMK AO2 SLP301 T00610050=
202010221553 METAR KPAE 221553Z 00000KT 1/2SM R16R/P6000FT FG OVC002 05/04 A3040 RMK AO2 CIG 002V006 SLP297 T00500039=
202010221515 SPECI KPAE 221515Z 10004KT 1/2SM R16R/P6000FT FG VV002 04/03 A3038 RMK AO2 T00390028=
202010221453 METAR KPAE 221453Z 11005KT 10SM BKN003 04/03 A3037 RMK AO2 SLP289 T00390028 53008=
202010221428 SPECI KPAE 221428Z 11004KT 10SM BKN004 BKN009 04/03 A3037 RMK AO2 T00440028=
202010221400 SPECI KPAE 221400Z 00000KT 10SM BKN006 BKN018 04/03 A3036 RMK AO2 CIG 005V009 T00440028=
202010221353 METAR KPAE 221353Z 23003KT 10SM SCT006 OVC019 04/03 A3036 RMK AO2 SLP283 T00440033=
202010221330 SPECI KPAE 221330Z AUTO 00000KT 10SM SCT005 OVC019 05/04 A3035 RMK AO2 T00500039=
202010221256 SPECI KPAE 221256Z AUTO 00000KT 10SM BKN004 BKN020 04/03 A3035 RMK AO2 T00440033=
202010221253 METAR KPAE 221253Z AUTO VRB03KT 10SM SCT005 BKN020 04/03 A3035 RMK AO2 SLP280 T00440033=
202010221249 SPECI KPAE 221249Z AUTO 11004KT 10SM SCT005 BKN020 04/03 A3035 RMK AO2=
202010221206 SPECI KPAE 221206Z AUTO 00000KT 10SM SCT005 04/03 A3034 RMK AO2 T00390028=
202010221153 METAR KPAE 221153Z AUTO 00000KT 10SM CLR 04/03 A3034 RMK AO2 SLP277 70005 T00390028 10061 20033 51012=
202010221053 METAR KPAE 221053Z AUTO 11005KT 10SM CLR 04/03 A3033 RMK AO2 SLP275 T00390028=
202010220953 METAR KPAE 220953Z AUTO 11004KT 10SM CLR 04/03 A3032 RMK AO2 SLP271 T00440033=
202010220853 METAR KPAE 220853Z AUTO 11003KT 10SM CLR 04/03 A3030 RMK AO2 SLP265 T00440033 53007=
202010220753 METAR KPAE 220753Z AUTO 00000KT 10SM CLR 05/03 A3029 RMK AO2 SLP261 T00500033 401170050=
202010220653 METAR KPAE 220653Z AUTO 11004KT 10SM CLR 05/03 A3029 RMK AO2 SLP260 T00500033=
202010220553 METAR KPAE 220553Z AUTO 00000KT 10SM SCT014 06/03 A3028 RMK AO2 SLP258 T00560033 10089 20050 53015=
202010220544 SPECI KPAE 220544Z AUTO 00000KT 10SM BKN014 06/03 A3028 RMK AO2 T00560033=
202010220503 SPECI KPAE 220503Z AUTO 00000KT 10SM SCT016 07/03 A3027 RMK AO2 T00670033=
202010220453 METAR KPAE 220453Z AUTO 00000KT 10SM BKN016 07/03 A3027 RMK AO2 SLP251 T00670033=
202010220437 SPECI KPAE 220437Z AUTO 00000KT 10SM BKN017 07/04 A3026 RMK AO2 T00670039=
202010220406 SPECI KPAE 220406Z AUTO 00000KT 10SM SCT027 07/03 A3025 RMK AO2 T00720033=
202010220353 METAR KPAE 220353Z 00000KT 10SM BKN028 07/03 A3025 RMK AO2 SLP247 T00670033=
202010220253 METAR KPAE 220253Z 02003KT 10SM BKN030 BKN035 BKN065 07/04 A3024 RMK AO2 SLP241 T00720039 51014=
202010220153 METAR KPAE 220153Z 01006KT 10SM FEW024 BKN030 BKN038 08/04 A3022 RMK AO2 SLP237 T00830039=
202010220143 SPECI KPAE 220143Z 36003KT 10SM FEW023 BKN028 BKN037 08/04 A3022 RMK AO2 T00830039=
202010220053 METAR KPAE 220053Z 34004KT 10SM CLR 09/03 A3021 RMK AO2 SLP232 T00890028=
202010212353 METAR KPAE 212353Z 34006KT 10SM CLR 11/03 A3020 RMK AO2 SLP227 60004 T01060033 10117 20078 53012=
202010212253 METAR KPAE 212253Z 33008KT 10SM CLR 11/03 A3018 RMK AO2 SLP221 T01060033=
202010212153 METAR KPAE 212153Z 35009KT 10SM FEW029 11/03 A3017 RMK AO2 SLP218 T01060033=
202010212053 METAR KPAE 212053Z 36006KT 10SM BKN060 BKN075 11/04 A3016 RMK AO2 SLP215 60004 T01060044 51012=
202010211953 METAR KPAE 211953Z 33006KT 10SM BKN045 OVC050 09/04 A3015 RMK AO2 SLP213 T00940044=
202010211915 SPECI KPAE 211915Z 34008KT 10SM SCT022 BKN034 OVC060 09/05 A3015 RMK AO2 T00940050=
202010211853 METAR KPAE 211853Z 00000KT 10SM BKN021 BKN034 OVC042 08/06 A3014 RMK AO2 RAE1754B25E51 SLP210 P0004 T00830061=
202010211753 METAR KPAE 211753Z 25006KT 10SM -RA SCT022 BKN036 OVC050 08/03 A3012 RMK AO2 PK WND 29027/1726 LTG DSNT S AND SW RAB20 SLP203 P0001 60001 T00780033 10100 20072 53010=
202010211700 SPECI KPAE 211700Z 28004KT 10SM BKN026 BKN035 10/06 A3011 RMK AO2 LTG DSNT W T01000056=
202010211653 METAR KPAE 211653Z 28007KT 10SM SCT026 BKN035 10/06 A3011 RMK AO2 SLP197 T01000056=
202010211600 SPECI KPAE 211600Z VRB05KT 10SM SCT026 BKN060 09/05 A3011 RMK AO2 T00940050=
202010211553 METAR KPAE 211553Z 29007KT 10SM BKN022 BKN028 09/05 A3010 RMK AO2 SLP196 T00890050=
202010211453 METAR KPAE 211453Z 30005KT 10SM BKN022 BKN028 OVC041 09/05 A3009 RMK AO2 SLP192 T00890050 53010=
202010211353 METAR KPAE 211353Z 32006KT 10SM FEW022 FEW041 BKN050 08/04 A3008 RMK AO2 SLP189 T00830044=
202010211253 METAR KPAE 211253Z AUTO 31010G15KT 10SM FEW048 08/04 A3007 RMK AO2 SLP185 T00830039=
202010211153 METAR KPAE 211153Z AUTO VRB04KT 10SM FEW080 08/04 A3006 RMK AO2 SLP181 60006 70006 T00830044 10094 20078 56011=
202010211107 SPECI KPAE 211107Z AUTO 34007KT 10SM SCT022 SCT080 08/06 A3007 RMK AO2 T00830061=
202010211053 METAR KPAE 211053Z AUTO 33004KT 10SM BKN022 BKN070 08/06 A3007 RMK AO2 SLP183 T00830061=
202010211001 SPECI KPAE 211001Z AUTO 00000KT 10SM BKN022 BKN027 OVC050 09/07 A3008 RMK AO2 T00890072=
202010210953 METAR KPAE 210953Z AUTO VRB03KT 10SM SCT025 BKN042 OVC049 09/07 A3008 RMK AO2 RAB0858E42 SLP188 P0001 T00890067=
202010210916 SPECI KPAE 210916Z AUTO 21003KT 10SM -RA FEW012 SCT028 OVC047 09/08 A3009 RMK AO2 RAB0858 P0000 T00890078=
202010210900 SPECI KPAE 210900Z AUTO 23003KT 10SM -RA SCT013 BKN027 OVC046 09/08 A3010 RMK AO2 RAB0858 P0000 T00890078=
202010210853 METAR KPAE 210853Z AUTO 00000KT 10SM BKN011 BKN016 OVC046 09/08 A3010 RMK AO2 RAE41 CIG 009V013 SLP193 P0003 60005 T00890078 58002=
202010210819 SPECI KPAE 210819Z AUTO 28003KT 9SM -RA BKN010 BKN027 09/07 A3010 RMK AO2 P0002 T00890072=
202010210806 SPECI KPAE 210806Z AUTO VRB03KT 6SM -RA BR SCT011 BKN026 OVC043 09/07 A3009 RMK AO2 P0002 T00890072=
202010210753 METAR KPAE 210753Z AUTO VRB03KT 4SM -RA BR BKN011 BKN033 OVC055 09/07 A3010 RMK AO2 RAB0656 SLP194 P0002 T00890072 401390056=
202010210742 SPECI KPAE 210742Z AUTO 33004KT 9SM -RA BKN013 BKN029 OVC055 09/07 A3010 RMK AO2 RAB0656 P0000 T00890072=
202010210653 METAR KPAE 210653Z AUTO VRB04KT 10SM SCT045 BKN055 BKN070 09/07 A3010 RMK AO2 SLP195 T00940067=
202010210553 METAR KPAE 210553Z AUTO 00000KT 10SM SCT055 BKN070 09/07 A3010 RMK AO2 SLP194 T00940067 10128 20083 58007=
202010210453 METAR KPAE 210453Z AUTO 01005KT 10SM BKN070 09/07 A3011 RMK AO2 SLP198 T00890067=
202010210353 METAR KPAE 210353Z 36003KT 10SM SCT075 09/07 A3012 RMK AO2 SLP201 T00940072=
202010210253 METAR KPAE 210253Z 35003KT 10SM SCT050 BKN070 10/07 A3012 RMK AO2 SLP203 T01000067 55001=
202010210153 METAR KPAE 210153Z 00000KT 10SM OVC070 11/07 A3012 RMK AO2 SLP201 T01060067=
202010210053 METAR KPAE 210053Z 31003KT 10SM OVC075 11/07 A3012 RMK AO2 SLP201 T01110072=
202010202353 METAR KPAE 202353Z 29004KT 10SM SCT075 12/07 A3013 RMK AO2 SLP204 T01220067 10139 20106 56016=
202010202253 METAR KPAE 202253Z 29003KT 10SM BKN075 13/07 A3014 RMK AO2 SLP206 T01330072=
202010202153 METAR KPAE 202153Z VRB03KT 10SM FEW034 FEW043 SCT075 14/07 A3016 RMK AO2 SLP213 T01390072=
202010202053 METAR KPAE 202053Z 00000KT 10SM FEW032 SCT042 12/07 A3018 RMK AO2 SLP220 T01220072 58016=
202010201953 METAR KPAE 201953Z 32003KT 10SM FEW020 SCT031 BKN040 11/08 A3021 RMK AO2 SLP231 T01110078=
202010201853 METAR KPAE 201853Z 17004KT 10SM BKN015 BKN026 BKN031 12/07 A3022 RMK AO2 SLP234 T01170072=
202010201802 SPECI KPAE 201802Z VRB04KT 10SM BKN015 BKN036 OVC049 11/07 A3022 RMK AO2 T01110072=
202010201753 METAR KPAE 201753Z 19003KT 10SM FEW012 SCT019 BKN036 11/08 A3022 RMK AO2 SLP236 T01110078 10111 20056 50002=
202010201653 METAR KPAE 201653Z 17003KT 10SM SCT050 10/08 A3023 RMK AO2 SLP238 T01000078=
202010201553 METAR KPAE 201553Z 19004KT 10SM FEW039 BKN050 09/08 A3023 RMK AO2 SLP240 T00940078=
202010201453 METAR KPAE 201453Z 00000KT 10SM FEW039 07/06 A3022 RMK AO2 SLP234 T00670056 56006=
202010201353 METAR KPAE 201353Z 23003KT 10SM FEW039 SCT050 07/06 A3022 RMK AO2 SLP235 T00670061=
202010201253 METAR KPAE 201253Z AUTO 00000KT 10SM SCT055 07/06 A3022 RMK AO2 SLP236 T00720061=
202010201153 METAR KPAE 201153Z AUTO 00000KT 10SM FEW029 BKN049 08/06 A3023 RMK AO2 SLP240 70003 T00780061 10094 20072 50001=
202010201053 METAR KPAE 201053Z AUTO 11004KT 10SM FEW025 08/07 A3024 RMK AO2 SLP240 T00830067=
202010201048 SPECI KPAE 201048Z AUTO 11004KT 10SM FEW025 08/07 A3024 RMK AO2=
202010200953 METAR KPAE 200953Z AUTO 11004KT 10SM BKN026 08/07 A3023 RMK AO2 SLP239 T00830067=
202010200853 METAR KPAE 200853Z AUTO 00000KT 10SM CLR 08/06 A3023 RMK AO2 SLP238 T00780061 50003=
202010200753 METAR KPAE 200753Z AUTO 00000KT 10SM CLR 08/06 A3023 RMK AO2 SLP240 T00830061 401220078=
202010200653 METAR KPAE 200653Z AUTO 00000KT 10SM CLR 09/06 A3023 RMK AO2 SLP237 T00890061=
202010200553 METAR KPAE 200553Z AUTO 34004KT 10SM FEW020 08/06 A3022 RMK AO2 SLP235 60000 T00830061 10117 20083 53008=
202010200453 METAR KPAE 200453Z AUTO 00000KT 10SM CLR 09/07 A3021 RMK AO2 SLP232 T00940067=
202010200353 METAR KPAE 200353Z AUTO VRB04KT 10SM CLR 10/07 A3020 RMK AO2 SLP228 T01000072=
202010200253 METAR KPAE 200253Z 34004KT 10SM OVC070 11/07 A3019 RMK AO2 SLP226 60000 T01060072 53006=
202010200153 METAR KPAE 200153Z VRB03KT 10SM OVC070 11/08 A3019 RMK AO2 SLP223 T01060078=
202010200053 METAR KPAE 200053Z 03006KT 10SM FEW047 OVC055 11/08 A3017 RMK AO2 RAB26E50 SLP219 P0000 T01110078=
202010192353 METAR KPAE 192353Z 06006KT 10SM FEW032 BKN075 OVC090 12/08 A3018 RMK AO2 RAB17E44 SLP220 P0001 60003 T01170078 10122 20106 51002=
202010192253 METAR KPAE 192253Z 01004KT 10SM BKN030 OVC037 12/08 A3018 RMK AO2 RAB09E25 SLP220 P0000 T01220078=
202010192153 METAR KPAE 192153Z 00000KT 10SM OVC033 12/08 A3018 RMK AO2 SLP221 T01170078=
202010192100 SPECI KPAE 192100Z 36008KT 10SM BKN034 OVC041 12/08 A3018 RMK AO2 T01220083=
202010192053 METAR KPAE 192053Z 35008KT 10SM BKN015 OVC024 12/08 A3017 RMK AO2 SLP218 60002 T01170083 51001=
202010191953 METAR KPAE 191953Z 01006KT 10SM BKN015 OVC024 12/08 A3017 RMK AO2 SLP217 T01170083=
202010191907 SPECI KPAE 191907Z VRB04KT 10SM OVC014 12/09 A3018 RMK AO2 T01170094=
202010191853 METAR KPAE 191853Z 35006KT 10SM BKN015 OVC030 12/09 A3017 RMK AO2 RAE20 SLP219 P0002 T01170094=
202010191753 METAR KPAE 191753Z 34006KT 8SM -RA BKN003 BKN011 OVC020 11/09 A3017 RMK AO2 RAB50 SLP217 P0000 60000 T01060094 10122 20106 53014=
202010191740 SPECI KPAE 191740Z 35004KT 2SM BR BKN003 OVC011 11/10 A3017 RMK AO2 T01110100=
202010191731 SPECI KPAE 191731Z VRB06KT 1/2SM R16R/3500VP6000FT FG BKN002 OVC009 11/10 A3016 RMK AO2 T01110100=
202010191653 METAR KPAE 191653Z 35003KT 10SM BKN002 BKN009 OVC035 12/11 A3015 RMK AO2 SLP210 T01170106=
202010191553 METAR KPAE 191553Z 25003KT 10SM BKN002 BKN009 OVC033 12/11 A3014 RMK AO2 RAE1458 SLP208 P0000 T01170111=
202010191453 METAR KPAE 191453Z 21003KT 6SM -RA BR BKN007 OVC011 12/11 A3013 RMK AO2 RAB48 SLP202 P0000 60000 T01170106 51008=
202010191353 METAR KPAE 191353Z 20003KT 10SM BKN008 OVC015 12/11 A3013 RMK AO2 SLP202 T01170106=
202010191253 METAR KPAE 191253Z AUTO 22004KT 10SM OVC005 11/11 A3012 RMK AO2 SLP199 T01110106=
202010191202 SPECI KPAE 191202Z AUTO 19005KT 10SM OVC005 12/11 A3010 RMK AO2 CIG 004V010 T01170106=
202010191153 METAR KPAE 191153Z AUTO 20005KT 10SM BKN004 OVC011 12/11 A3010 RMK AO2 CIG 004V008 SLP194 60005 70022 T01170106 10122 20111 53002=
202010191130 SPECI KPAE 191130Z AUTO 22003KT 10SM BKN004 OVC011 12/11 A3010 RMK AO2 T01170106=
202010191115 SPECI KPAE 191115Z AUTO 00000KT 9SM BKN005 OVC010 11/11 A3010 RMK AO2 CIG 004V008 T01110111=
202010191053 METAR KPAE 191053Z AUTO 19007KT 10SM OVC010 12/11 A3011 RMK AO2 CIG 006V012 SLP194 T01170106=
202010190826 SPECI KPAE 190826Z AUTO 00000KT 4SM -RA BR OVC006 12/11 A3009 RMK AO2 CIG 004V010 P0003 T01170106=
202010190753 METAR KPAE 190753Z AUTO 07003KT 2 1/2SM -RA BR BKN006 OVC011 12/11 A3009 RMK AO2 RAB27 CIG 004V008 SLP188 P0000 T01170111 401440094=
202010190750 SPECI KPAE 190750Z AUTO 08003KT 2 1/2SM -RA BR BKN006 OVC011 12/11 A3009 RMK AO2 RAB27 CIG 004V008 P0000=
202010190739 SPECI KPAE 190739Z AUTO 10005KT 6SM -RA BR BKN004 BKN009 OVC012 12/11 A3008 RMK AO2 RAB27 P0000 T01170111=
202010190736 SPECI KPAE 190736Z AUTO 10004KT 5SM -RA BR SCT004 SCT009 OVC012 12/11 A3008 RMK AO2 RAB27 P0000 T01170111=
202010190702 SPECI KPAE 190702Z AUTO 06004KT 10SM OVC014 12/11 A3007 RMK AO2 T01220111=
202010190653 METAR KPAE 190653Z AUTO 00000KT 10SM OVC015 12/11 A3006 RMK AO2 SLP180 P0001 T01220111=
202010190639 SPECI KPAE 190639Z AUTO 00000KT 10SM FEW005 SCT009 OVC015 12/11 A3007 RMK AO2 P0001 T01220111=
202010190553 METAR KPAE 190553Z AUTO 03004KT 10SM OVC006 12/11 A3007 RMK AO2 RAB23E46 SLP182 P0000 60000 T01220111 10139 20122 50007=
202010190453 METAR KPAE 190453Z AUTO 36005KT 10SM OVC008 13/12 A3007 RMK AO2 SLP184 T01280117=
202010190437 SPECI KPAE 190437Z AUTO 36003KT 10SM OVC009 13/12 A3007 RMK AO2 T01280117=
202010190353 METAR KPAE 190353Z AUTO 00000KT 10SM OVC011 13/11 A3005 RMK AO2 SLP178 T01330111=
202010190253 METAR KPAE 190253Z 00000KT 10SM OVC012 13/11 A3005 RMK AO2 SLP176 T01330111 53003=
202010190153 METAR KPAE 190153Z 00000KT 10SM FEW005 BKN014 OVC027 13/12 A3005 RMK AO2 SLP175 T01330122=
202010190053 METAR KPAE 190053Z 02004KT 10SM BKN029 OVC043 13/12 A3004 RMK AO2 SLP172 T01330122=
202010182353 METAR KPAE 182353Z 01003KT 10SM FEW002 SCT017 OVC028 14/13 A3004 RMK AO2 SLP173 60004 T01390128 10144 20128 53008=
202010182329 SPECI KPAE 182329Z 02004KT 10SM SCT002 BKN028 14/13 A3003 RMK AO2 T01390128=
202010182257 SPECI KPAE 182257Z AUTO 03004KT 1SM R16R/P6000FT FG OVC002 13/13 A3003 RMK AO2 T01330133=
202010182253 METAR KPAE 182253Z AUTO 01004KT 3/4SM R16R/2200VP6000FT BR OVC002 14/13 A3003 RMK AO2 SLP169 P0001 T01390133=
202010182236 SPECI KPAE 182236Z 02004KT 1/2SM R16R/1600VP6000FT FG VV002 14/13 A3003 RMK AO2 P0001 T01390133=
202010182229 SPECI KPAE 182229Z 02005KT 1/4SM R16R/1800V3000FT FG VV002 13/13 A3003 RMK AO2 P0001 T01330133=
202010182222 SPECI KPAE 182222Z 02005KT 1/2SM R16R/1800V3000FT FG VV002 14/13 A3002 RMK AO2 P0001 T01390133=
202010182204 SPECI KPAE 182204Z 01005KT 1/4SM R16R/1800V3000FT FG VV002 13/13 A3002 RMK AO2 T01330128=
202010182201 SPECI KPAE 182201Z 36006KT 1/2SM R16R/1800V3000FT FG VV002 13/13 A3002 RMK AO2 T01330133=
202010182153 METAR KPAE 182153Z 01005KT 1SM R16R/2000VP6000FT BR BKN002 OVC006 13/13 A3002 RMK AO2 RAE18 SLP166 P0002 T01330133=
202010182053 METAR KPAE 182053Z 36004KT 1SM R16R/5000VP6000FT -RA BR BKN002 OVC006 13/13 A3001 RMK AO2 RAB45 SLP164 P0001 60001 T01330128 50004=
202010182041 SPECI KPAE 182041Z 35003KT 1SM R16R/P6000FT BR BKN002 OVC006 14/13 A3002 RMK AO2 T01390128=
202010181953 METAR KPAE 181953Z 16004KT 9SM OVC006 14/13 A3002 RMK AO2 SLP168 T01390128=
202010181853 METAR KPAE 181853Z 17005KT 10SM OVC007 13/12 A3002 RMK AO2 CIG 005V010 SLP167 T01330122=
202010181753 METAR KPAE 181753Z 18010KT 10SM OVC007 13/12 A3000 RMK AO2 CIG 006V010 SLP160 60013 T01280117 10128 20094 52006=
202010181653 METAR KPAE 181653Z 17010KT 10SM OVC007 12/11 A2999 RMK AO2 RAE32 SLP157 P0001 T01170111=
202010181559 SPECI KPAE 181559Z 17009KT 2SM -RA BR BKN007 BKN013 OVC032 11/11 A2999 RMK AO2 P0001 T01110106=
202010181557 SPECI KPAE 181557Z 17009KT 1 3/4SM -RA BR SCT007 BKN016 OVC032 11/11 A2999 RMK AO2 P0001 T01110106=
202010181553 METAR KPAE 181553Z 17010KT 2SM -RA BR BKN007 BKN016 OVC032 11/10 A2999 RMK AO2 SLP157 P0007 T01110100=
202010181528 SPECI KPAE 181528Z 17006KT 2SM -RA BR OVC009 11/09 A3000 RMK AO2 CIG 007V011 P0003 T01060089=
202010181520 SPECI KPAE 181520Z 15006KT 4SM -RA BR OVC009 10/09 A2999 RMK AO2 CIG 007V011 P0002 T01000089=
202010181500 SPECI KPAE 181500Z 15005KT 10SM -RA OVC012 10/09 A2999 RMK AO2 P0000 T01000089=
202010181453 METAR KPAE 181453Z 00000KT 10SM -RA OVC018 10/09 A2998 RMK AO2 RAE07B35 SLP154 P0000 60005 T01000089 55016=
202010181353 METAR KPAE 181353Z VRB03KT 10SM -RA OVC018 10/08 A2998 RMK AO2 SLP152 P0001 T01000083=
202010181253 METAR KPAE 181253Z 15009G15KT 8SM -RA OVC020 09/08 A2999 RMK AO2 SLP156 P0004 T00940083=
202010181153 METAR KPAE 181153Z VRB04KT 3SM -RA BR OVC021 09/08 A3003 RMK AO2 SLP171 P0002 60016 70017 T00940078 10117 20094 56025=
202010181053 METAR KPAE 181053Z 16015G20KT 10SM -RA OVC025 10/08 A3003 RMK AO2 SLP171 P0004 T01000083=
202010181037 SPECI KPAE 181037Z 15014KT 10SM -RA FEW008 OVC025 10/09 A3005 RMK AO2 P0003 T01000089=
202010181007 SPECI KPAE 181007Z 15013KT 4SM -RA BR BKN027 OVC034 10/08 A3006 RMK AO2 P0003 T01000083=
202010180953 METAR KPAE 180953Z 15010KT 5SM -RA BR SCT030 SCT037 OVC055 11/08 A3009 RMK AO2 SLP190 P0008 T01060083=
202010180853 METAR KPAE 180853Z 16009KT 4SM -RA BR BKN049 OVC060 11/08 A3011 RMK AO2 RAE0756B25 SLP196 P0002 60002 T01060083 55003=
202010180832 SPECI KPAE 180832Z 16010KT 7SM -RA SCT014 OVC047 11/08 A3011 RMK AO2 RAE0756B25 P0000 T01110083=
202010180811 SPECI KPAE 180811Z 16008KT 10SM OVC014 11/08 A3010 RMK AO2 RAE0756 P0000 T01110083=
202010180753 METAR KPAE 180753Z 16009KT 8SM -RA BKN016 OVC022 11/09 A3009 RMK AO2 RAB44 SLP189 P0000 T01060089 401220106=
202010180653 METAR KPAE 180653Z 15006KT 6SM BR FEW013 OVC026 11/09 A3011 RMK AO2 RAB33E46 SLP197 P0000 T01110089=
202010180614 SPECI KPAE 180614Z 00000KT 10SM FEW019 BKN029 OVC043 12/09 A3013 RMK AO2 T01170089=
202010180553 METAR KPAE 180553Z 11003KT 10SM FEW023 BKN033 OVC040 12/09 A3012 RMK AO2 SLP200 60000 T01170089 10122 20111 56022=
202010180453 METAR KPAE 180453Z 12005KT 10SM OVC046 11/09 A3014 RMK AO2 SLP207 T01110089=
202010180353 METAR KPAE 180353Z 00000KT 10SM SCT050 BKN065 OVC080 11/09 A3016 RMK AO2 RAB05E19 SLP214 P0000 T01110094=
202010180253 METAR KPAE 180253Z 02003KT 10SM OVC065 11/09 A3018 RMK AO2 RAB05E23 SLP222 P0000 60000 T01110089 55004=
202010180153 METAR KPAE 180153Z 15003KT 10SM BKN075 OVC100 12/08 A3017 RMK AO2 SLP219 T01220083=
202010180053 METAR KPAE 180053Z AUTO 00000KT 10SM BKN018 OVC080 12/09 A3019 RMK AO2 SLP223 T01170089=
202010172353 METAR KPAE 172353Z AUTO 24004KT 10SM OVC017 12/09 A3020 RMK AO2 SLP226 T01220089 10122 20111 50000=
202010172253 METAR KPAE 172253Z AUTO 20005KT 10SM OVC020 12/08 A3020 RMK AO2 SLP227 T01220083=
202010172200 SPECI KPAE 172200Z 23003KT 10SM OVC018 12/09 A3020 RMK AO2 T01220089=
202010172153 METAR KPAE 172153Z 21007KT 10SM OVC014 12/09 A3021 RMK AO2 SLP230 T01220089=
202010172053 METAR KPAE 172053Z 18008KT 10SM SCT010 BKN016 12/09 A3019 RMK AO2 SLP225 T01220089 50002=
202010172028 SPECI KPAE 172028Z 18010KT 10SM SCT012 BKN018 BKN023 12/09 A3019 RMK AO2 T01220089=
202010171953 METAR KPAE 171953Z 18008KT 10SM OVC010 12/09 A3020 RMK AO2 SLP228 T01170094=
202010171900 SPECI KPAE 171900Z 17010KT 10SM BKN010 OVC015 12/10 A3020 RMK AO2 T01220100=
202010171853 METAR KPAE 171853Z 19008KT 10SM BKN008 OVC010 11/09 A3020 RMK AO2 SLP228 T01110094=
202010171753 METAR KPAE 171753Z 19010KT 10SM BKN008 OVC014 11/10 A3019 RMK AO2 SLP224 60001 T01110100 10111 20106 51011=
202010171653 METAR KPAE 171653Z 17007KT 4SM BR OVC005 11/10 A3018 RMK AO2 CIG 004V009 SLP221 T01110100=
202010171553 METAR KPAE 171553Z 19007KT 2SM BR OVC006 11/10 A3018 RMK AO2 RAB02E12 SLP219 P0001 T01110100=
202010171453 METAR KPAE 171453Z 11003KT 1 3/4SM BR BKN005 OVC010 11/10 A3016 RMK AO2 SLP213 T01060100 50006=
202010171409 SPECI KPAE 171409Z 00000KT 1 3/4SM BR OVC007 11/10 A3015 RMK AO2 CIG 005V009 T01060100=
202010171405 SPECI KPAE 171405Z 00000KT 2SM BR VCFG OVC007 11/09 A3016 RMK AO2 CIG 005V009 T01060094=
202010171353 METAR KPAE 171353Z 00000KT 4SM BR VCFG OVC007 11/09 A3016 RMK AO2 CIG 005V010 SLP212 T01060094=
202010171321 SPECI KPAE 171321Z 17003KT 4SM BR VCFG BKN008 OVC012 11/10 A3015 RMK AO2 T01110100=
202010171310 SPECI KPAE 171310Z 18004KT 8SM VCFG BKN010 OVC018 11/10 A3015 RMK AO2 CIG 008V012 T01110100=
202010171253 METAR KPAE 171253Z 16003KT 10SM VCFG FEW008 OVC018 11/09 A3014 RMK AO2 SLP208 T01110094=
202010171246 SPECI KPAE 171246Z 00000KT 10SM VCFG SCT008 OVC018 11/09 A3014 RMK AO2 T01110094=
202010171153 METAR KPAE 171153Z 00000KT 10SM VCFG SCT004 BKN008 OVC029 11/09 A3014 RMK AO2 SLP205 70024 T01060094 10117 20106 53002=
202010171148 SPECI KPAE 171148Z 00000KT 10SM VCFG OVC006 11/09 A3014 RMK AO2 CIG 003V010=
202010171053 METAR KPAE 171053Z 00000KT 10SM VCFG OVC003 11/09 A3013 RMK AO2 SLP203 T01060094=
202010170953 METAR KPAE 170953Z VRB05KT 10SM VCFG OVC003 11/10 A3013 RMK AO2 SLP203 T01060100=
202010170937 SPECI KPAE 170937Z 36005KT 10SM VCFG BKN003 OVC008 11/10 A3012 RMK AO2 T01060100=
202010170909 SPECI KPAE 170909Z 34004KT 10SM VCFG BKN008 OVC029 11/10 A3012 RMK AO2 CIG 006V012 T01060100=
202010170902 SPECI KPAE 170902Z 35005KT 10SM VCFG SCT008 BKN028 OVC050 11/10 A3011 RMK AO2 T01110100=
202010170853 METAR KPAE 170853Z 36008KT 10SM VCFG FEW010 BKN028 OVC048 11/09 A3011 RMK AO2 SLP195 T01110094 53012=
202010170753 METAR KPAE 170753Z 35008KT 10SM VCFG OVC022 11/10 A3009 RMK AO2 SLP190 T01110100 401500111=
202010170653 METAR KPAE 170653Z 36007KT 10SM VCFG OVC022 11/10 A3009 RMK AO2 SLP188 T01110100=
202010170553 METAR KPAE 170553Z 01011G15KT 10SM VCFG FEW007 OVC019 12/11 A3007 RMK AO2 SLP183 60009 T01170106 10150 20117 53001=
202010170548 SPECI KPAE 170548Z 01008KT 10SM VCFG FEW007 OVC019 12/11 A3007 RMK AO2=
202010170453 METAR KPAE 170453Z 35008KT 10SM VCFG FEW010 SCT016 OVC024 13/12 A3007 RMK AO2 SLP182 T01280117=
202010170442 SPECI KPAE 170442Z 35009KT 10SM VCFG SCT007 BKN016 OVC024 13/12 A3007 RMK AO2 T01280117=
202010170435 SPECI KPAE 170435Z 35010G16KT 10SM VCFG SCT005 BKN009 OVC022 13/12 A3007 RMK AO2 T01280117=
202010170401 SPECI KPAE 170401Z 35008KT 10SM VCFG OVC004 13/13 A3007 RMK AO2 CIG 003V008 T01330128=
202010170353 METAR KPAE 170353Z 36007KT 10SM VCFG SCT001 BKN006 OVC015 14/13 A3007 RMK AO2 SLP182 T01390128=
202010170304 SPECI KPAE 170304Z 36005KT 10SM VCFG SCT001 BKN006 OVC015 14/13 A3007 RMK AO2 T01390133=
202010170253 METAR KPAE 170253Z 01006KT 2SM BR VCFG SCT001 BKN006 OVC015 14/13 A3007 RMK AO2 RAE53 SLP182 P0006 60009 T01390133 53001=
202010170153 METAR KPAE 170153Z 35006KT 2SM -RA BR VCFG SCT001 BKN006 OVC015 14/14 A3007 RMK AO2 RAB0054E01B27 SLP181 P0001 T01440139=
202010170053 METAR KPAE 170053Z 01005KT 1 1/2SM R16R/2600VP6000FT BR VCFG FEW001 SCT006 BKN012 14/14 A3006 RMK AO2 RAE53 SLP180 P0002 T01440139=
202010162353 METAR KPAE 162353Z 17004KT 1 1/2SM R16R/6000VP6000FT -RA BR BKN015 OVC022 15/14 A3007 RMK AO2 RAB15 SLP182 P0003 60015 T01500144 10150 20133 56007=
202010162331 SPECI KPAE 162331Z VRB04KT 2SM -RA BR BKN010 BKN024 15/14 A3007 RMK AO2 RAB15 P0000 T01500139=
202010162253 METAR KPAE 162253Z AUTO VRB04KT 10SM BKN038 OVC050 14/14 A3007 RMK AO2 RAE2154B14E50 SLP183 P0007 T01440139=
202010162242 SPECI KPAE 162242Z 15005KT 3SM -RA BR FEW025 BKN036 OVC050 14/13 A3007 RMK AO2 RAE2154B14 P0007 T01440133=
202010162225 SPECI KPAE 162225Z VRB06KT 1 3/4SM -RA BR SCT027 BKN035 OVC044 15/13 A3008 RMK AO2 RAE2154B14 P0003 T01500133=
202010162153 METAR KPAE 162153Z 15010KT 8SM -RA FEW030 BKN045 OVC060 14/13 A3007 RMK AO2 SLP183 P0005 T01440133=
202010162145 SPECI KPAE 162145Z 15010KT 4SM -RA BR FEW030 BKN045 OVC060 14/13 A3008 RMK AO2 P0005 T01440133=
202010162126 SPECI KPAE 162126Z 16009KT 2SM RA BR SCT045 OVC055 14/13 A3009 RMK AO2 P0004 T01440128=
202010162053 METAR KPAE 162053Z 16010KT 5SM -RA BR FEW035 OVC060 14/13 A3009 RMK AO2 RAB20 SLP189 P0000 60000 T01440128 58021=
202010162021 SPECI KPAE 162021Z 17010KT 10SM -RA BKN011 OVC070 14/12 A3011 RMK AO2 RAB20 P0000 T01440122=
202010162000 SPECI KPAE 162000Z 18011KT 10SM BKN008 OVC070 14/12 A3011 RMK AO2 T01390117=
202010161953 METAR KPAE 161953Z 18011KT 10SM BKN011 OVC070 14/12 A3011 RMK AO2 SLP196 T01390117=
202010161945 SPECI KPAE 161945Z 17012KT 10SM BKN011 OVC070 14/12 A3011 RMK AO2 T01390117=
202010161853 METAR KPAE 161853Z 17012G17KT 10SM OVC008 14/11 A3013 RMK AO2 SLP204 T01390111=
202010161831 SPECI KPAE 161831Z 17010KT 10SM OVC009 14/11 A3014 RMK AO2 T01390111=
202010161753 METAR KPAE 161753Z 16013KT 10SM OVC010 13/11 A3015 RMK AO2 SLP210 T01330106 10133 20117 58021=
202010161700 SPECI KPAE 161700Z 18013KT 10SM OVC012 13/09 A3017 RMK AO2 T01280094=
202010161653 METAR KPAE 161653Z 18014KT 10SM OVC016 13/09 A3016 RMK AO2 SLP214 T01280094=
202010161553 METAR KPAE 161553Z 17011KT 10SM OVC016 12/08 A3021 RMK AO2 SLP230 T01220083=
202010161453 METAR KPAE 161453Z 16014KT 10SM OVC019 12/07 A3021 RMK AO2 PRESFR SLP232 T01220072 58027=
202010161353 METAR KPAE 161353Z 16010KT 10SM BKN023 OVC070 12/07 A3025 RMK AO2 SLP244 T01220067=
202010161307 SPECI KPAE 161307Z AUTO 17009KT 10SM BKN021 OVC050 12/06 A3027 RMK AO2 T01220061=
202010161253 METAR KPAE 161253Z AUTO 17010KT 10SM FEW021 BKN055 OVC070 12/07 A3028 RMK AO2 SLP254 T01220067=
202010161153 METAR KPAE 161153Z AUTO 15010KT 10SM SCT049 BKN065 OVC080 12/07 A3030 RMK AO2 RAB39E49 SLP260 P0000 60000 T01220072 10122 20117 58028=
202010161053 METAR KPAE 161053Z AUTO 14007KT 10SM BKN045 OVC050 12/07 A3034 RMK AO2 SLP274 T01220072=
202010160953 METAR KPAE 160953Z AUTO 16009KT 10SM BKN049 OVC060 12/07 A3036 RMK AO2 SLP282 T01220072=
202010160853 METAR KPAE 160853Z AUTO 14007KT 10SM BKN049 OVC070 12/08 A3038 RMK AO2 SLP289 T01170078 58016=
202010160753 METAR KPAE 160753Z AUTO 13004KT 10SM OVC046 12/08 A3041 RMK AO2 SLP297 T01170078 401500078=
202010160653 METAR KPAE 160653Z AUTO 12003KT 10SM BKN049 OVC060 12/08 A3042 RMK AO2 SLP303 T01220078=
202010160553 METAR KPAE 160553Z AUTO 11004KT 10SM OVC050 12/08 A3043 RMK AO2 SLP306 T01220078 10144 20117 58018=
202010160453 METAR KPAE 160453Z AUTO 00000KT 10SM OVC055 12/08 A3045 RMK AO2 SLP312 T01220083=
202010160353 METAR KPAE 160353Z AUTO 00000KT 10SM BKN065 OVC080 12/08 A3047 RMK AO2 SLP319 T01220083=
202010160253 METAR KPAE 160253Z 02004KT 10SM OVC065 12/08 A3049 RMK AO2 SLP324 T01170078 56008=
202010160153 METAR KPAE 160153Z 00000KT 10SM OVC070 12/08 A3049 RMK AO2 SLP327 T01170078=
202010160053 METAR KPAE 160053Z 32004KT 10SM OVC075 13/07 A3049 RMK AO2 SLP327 T01280067=
202010152353 METAR KPAE 152353Z 00000KT 10SM BKN075 OVC120 14/06 A3051 RMK AO2 SLP333 T01390061 10150 20111 56023=
202010152253 METAR KPAE 152253Z 32006KT 10SM SCT085 OVC110 14/07 A3054 RMK AO2 SLP342 T01390067=
202010152153 METAR KPAE 152153Z 00000KT 10SM BKN100 14/06 A3054 RMK AO2 SLP344 T01390061=
202010152053 METAR KPAE 152053Z 05003KT 10SM OVC110 13/06 A3058 RMK AO2 SLP357 T01330061 58012=
202010151953 METAR KPAE 151953Z 34004KT 10SM OVC110 13/07 A3060 RMK AO2 SLP364 T01280067=
202010151853 METAR KPAE 151853Z 35004KT 10SM SCT021 12/07 A3061 RMK AO2 SLP367 T01220072=
202010151753 METAR KPAE 151753Z 20003KT 10SM SCT021 SCT025 11/07 A3061 RMK AO2 SLP368 T01110067 10122 20078 51008=
202010151745 SPECI KPAE 151745Z 00000KT 10SM BKN021 BKN025 12/07 A3062 RMK AO2 T01170067=
202010151653 METAR KPAE 151653Z 05005KT 10SM CLR 12/07 A3061 RMK AO2 SLP368 T01170067=
202010151553 METAR KPAE 151553Z 00000KT 10SM FEW022 11/08 A3061 RMK AO2 SLP367 T01060078=
202010151453 METAR KPAE 151453Z 00000KT 10SM CLR 09/07 A3059 RMK AO2 SLP361 T00890067 50006=
202010151353 METAR KPAE 151353Z 11004KT 10SM FEW031 BKN044 09/07 A3059 RMK AO2 SLP362 T00890067=
202010151346 SPECI KPAE 151346Z 00000KT 10SM SCT031 BKN044 09/07 A3059 RMK AO2 T00940067=
202010151302 SPECI KPAE 151302Z AUTO 00000KT 10SM BKN024 08/06 A3059 RMK AO2 T00830061=
202010151253 METAR KPAE 151253Z AUTO 00000KT 10SM SCT025 BKN043 09/06 A3058 RMK AO2 SLP358 T00890061=
202010151153 METAR KPAE 151153Z AUTO 00000KT 10SM SCT042 BKN050 BKN060 09/06 A3057 RMK AO2 SLP355 70038 T00890061 10100 20089 50005=
202010151053 METAR KPAE 151053Z AUTO 00000KT 10SM FEW023 OVC034 10/06 A3058 RMK AO2 SLP355 T01000061=
202010150953 METAR KPAE 150953Z AUTO 00000KT 10SM OVC033 09/07 A3057 RMK AO2 SLP354 T00940072=
202010150853 METAR KPAE 150853Z AUTO 00000KT 10SM BKN033 OVC043 09/07 A3056 RMK AO2 SLP349 T00940072 51013=
202010150753 METAR KPAE 150753Z AUTO 36003KT 10SM FEW041 09/07 A3055 RMK AO2 SLP346 T00890072 401500089=
202010150653 METAR KPAE 150653Z AUTO 36004KT 10SM CLR 10/07 A3054 RMK AO2 SLP342 T01000072=
202010150553 METAR KPAE 150553Z AUTO 34004KT 10SM SCT045 10/07 A3052 RMK AO2 SLP337 T01000067 10133 20089 53012=
202010150453 METAR KPAE 150453Z AUTO 34008KT 10SM CLR 10/06 A3050 RMK AO2 SLP331 T01000061=
202010150353 METAR KPAE 150353Z AUTO 02004KT 10SM CLR 10/07 A3050 RMK AO2 SLP330 T01000067=
202010150253 METAR KPAE 150253Z 35005KT 10SM CLR 10/06 A3049 RMK AO2 SLP326 T01000061 53012=
202010150153 METAR KPAE 150153Z 33004KT 10SM SCT075 11/07 A3047 RMK AO2 SLP321 T01060067=
202010150053 METAR KPAE 150053Z 36005KT 10SM SCT060 12/07 A3045 RMK AO2 SLP314 T01220072=
202010142353 METAR KPAE 142353Z 35005KT 10SM SCT050 13/07 A3045 RMK AO2 SLP313 T01280072 10150 20111 51008=
202010142253 METAR KPAE 142253Z 34003KT 10SM OVC048 13/07 A3045 RMK AO2 SLP313 T01280072=
202010142153 METAR KPAE 142153Z 36007KT 10SM FEW023 BKN028 BKN060 14/08 A3044 RMK AO2 SLP308 T01390078=
202010142053 METAR KPAE 142053Z 01005KT 10SM BKN026 13/07 A3043 RMK AO2 SLP304 T01280072 51006=
202010142018 SPECI KPAE 142018Z 00000KT 10SM FEW020 BKN024 OVC060 13/08 A3042 RMK AO2 T01330083=
202010141953 METAR KPAE 141953Z 00000KT 10SM SCT015 13/08 A3042 RMK AO2 SLP302 T01280078=
202010141951 SPECI KPAE 141951Z 00000KT 10SM SCT015 SCT031 13/08 A3042 RMK AO2=
202010141853 METAR KPAE 141853Z VRB03KT 10SM SCT013 BKN019 BKN060 12/08 A3041 RMK AO2 SLP297 T01220083=
202010141851 SPECI KPAE 141851Z VRB03KT 10SM SCT013 BKN019 OVC060 12/08 A3041 RMK AO2=
202010141813 SPECI KPAE 141813Z 16005KT 10SM BKN008 OVC021 12/09 A3040 RMK AO2 T01170094=
202010141800 SPECI KPAE 141800Z 00000KT 10SM FEW011 BKN016 OVC021 11/09 A3040 RMK AO2 T01110089=
202010141753 METAR KPAE 141753Z 15003KT 10SM BKN008 BKN055 11/09 A3039 RMK AO2 SLP293 60038 T01110089 10111 20094 53022=
202010141713 SPECI KPAE 141713Z 16007KT 10SM BKN008 BKN055 11/08 A3037 RMK AO2 T01060083=
202010141653 METAR KPAE 141653Z 10009KT 10SM SCT006 BKN060 11/09 A3036 RMK AO2 SLP282 T01110089=
202010141553 METAR KPAE 141553Z 11005KT 10SM SCT011 BKN047 10/09 A3033 RMK AO2 RAE30 SLP273 P0008 T01000089=
202010141517 SPECI KPAE 141517Z 10005KT 4SM -RA BR FEW028 BKN047 OVC060 10/09 A3031 RMK AO2 P0008 T01000089=
202010141504 SPECI KPAE 141504Z 11004KT 3SM RA BR SCT007 BKN027 OVC037 09/09 A3032 RMK AO2 P0006 T00940089=
202010141453 METAR KPAE 141453Z 04004KT 2SM R16R/5000VP6000FT +RA BR BKN007 OVC014 10/09 A3033 RMK AO2 RAB1354 SLP271 P0027 60030 T01000094 53020=
202010141440 SPECI KPAE 141440Z 00000KT 2SM R16R/2800VP6000FT RA BR BKN007 OVC023 10/09 A3032 RMK AO2 RAB1354 CIG 005V010 P0012 T01000094=
202010141428 SPECI KPAE 141428Z 00000KT 1 3/4SM +RA BR BKN007 OVC025 10/09 A3032 RMK AO2 RAB1354 CIG 005V011 P0006 T01000089=
202010141425 SPECI KPAE 141425Z 33003KT 2 1/2SM RA BR FEW007 SCT011 OVC025 10/09 A3032 RMK AO2 RAB1354 P0004 T01000089=
202010141353 METAR KPAE 141353Z 15004KT 10SM BKN025 OVC031 11/08 A3030 RMK AO2 RAE46 SLP260 P0001 T01060083=
202010141344 SPECI KPAE 141344Z AUTO VRB03KT 10SM -RA BKN027 OVC033 11/09 A3030 RMK AO2 P0001 T01060089=
202010141335 SPECI KPAE 141335Z AUTO 14005KT 9SM -RA SCT029 BKN034 OVC048 11/08 A3029 RMK AO2 P0000 T01060083=
202010141328 SPECI KPAE 141328Z AUTO 15007KT 8SM -RA BKN029 BKN034 OVC065 11/09 A3029 RMK AO2 P0000 T01060089=
202010141253 METAR KPAE 141253Z AUTO 15006KT 10SM -RA SCT055 OVC075 11/08 A3028 RMK AO2 SLP256 P0002 T01060083=
202010141153 METAR KPAE 141153Z AUTO 17005KT 10SM -RA SCT034 OVC060 11/08 A3027 RMK AO2 RAB43 SLP250 P0000 60000 70014 T01060083 10117 20100 52020=
202010141053 METAR KPAE 141053Z AUTO 16004KT 10SM OVC039 11/08 A3025 RMK AO2 SLP244 T01060078=
202010140953 METAR KPAE 140953Z AUTO VRB04KT 10SM BKN038 BKN045 11/08 A3023 RMK AO2 SLP235 T01110078=
202010140853 METAR KPAE 140853Z AUTO 15007KT 10SM BKN043 11/07 A3021 RMK AO2 SLP230 T01110072 53028=
202010140753 METAR KPAE 140753Z AUTO 09004KT 10SM BKN045 11/07 A3017 RMK AO2 SLP217 T01060072 401670089=
202010140653 METAR KPAE 140653Z AUTO 11007KT 10SM FEW025 BKN042 OVC090 12/07 A3015 RMK AO2 SLP208 T01170067=
202010140553 METAR KPAE 140553Z AUTO 08005KT 10SM FEW025 SCT075 BKN090 12/07 A3013 RMK AO2 SLP201 T01170067 10150 20117 52031=
202010140453 METAR KPAE 140453Z AUTO 10007KT 10SM SCT037 SCT050 BKN070 12/07 A3009 RMK AO2 SLP191 T01170072=
202010140353 METAR KPAE 140353Z 07004KT 10SM BKN050 OVC060 12/07 A3006 RMK AO2 SLP181 T01220067=
202010140253 METAR KPAE 140253Z 00000KT 10SM SCT037 BKN055 12/07 A3003 RMK AO2 SLP171 T01220067 51044=
202010140153 METAR KPAE 140153Z 30008KT 10SM BKN037 OVC070 12/08 A3000 RMK AO2 SLP159 T01220078=
202010140053 METAR KPAE 140053Z 36004KT 10SM BKN075 BKN090 12/08 A2997 RMK AO2 SLP148 T01220083=
202010132353 METAR KPAE 132353Z 23015G22KT 10SM CLR 15/06 A2990 RMK AO2 PK WND 22027/2303 SLP125 T01500061 10167 20139 53024=
202010132253 METAR KPAE 132253Z 22015G24KT 10SM CLR 16/04 A2985 RMK AO2 PK WND 21027/2236 SLP109 T01610044=
202010132153 METAR KPAE 132153Z 21017G22KT 10SM CLR 16/07 A2983 RMK AO2 PK WND 21028/2143 SLP102 T01610067=
202010132053 METAR KPAE 132053Z 21016G21KT 10SM CLR 17/07 A2983 RMK AO2 PK WND 20032/2017 SLP100 T01670072 53027=
202010131953 METAR KPAE 131953Z 21019G33KT 10SM CLR 16/09 A2978 RMK AO2 PK WND 19033/1948 SLP085 T01610089=
202010131853 METAR KPAE 131853Z 20020G27KT 10SM FEW014 SCT026 16/11 A2977 RMK AO2 PK WND 20027/1852 SLP081 T01560106=
202010131811 SPECI KPAE 131811Z 23007G17KT 200V260 10SM SCT008 BKN015 14/12 A2974 RMK AO2 T01390117=
202010131753 METAR KPAE 131753Z 22010G18KT 10SM BKN008 OVC013 14/12 A2974 RMK AO2 SLP073 60014 T01390117 10139 20089 53024=
202010131653 METAR KPAE 131653Z 20013G25KT 10SM BKN008 OVC013 14/12 A2971 RMK AO2 PK WND 18035/1633 CIG 007V010 PRESRR SLP062 T01390122=
202010131600 SPECI KPAE 131600Z 18023G30KT 10SM BKN003 OVC013 12/11 A2966 RMK AO2 PK WND 18029/1559 T01220111=
202010131553 METAR KPAE 131553Z 18022G30KT 10SM BKN003 BKN013 12/11 A2966 RMK AO2 PK WND 17032/1505 RAE00 SLP045 P0001 T01220111=
202010131543 SPECI KPAE 131543Z 18024G32KT 10SM BKN008 12/11 A2967 RMK AO2 PK WND 17032/1505 RAE00 P0001 T01220106=
202010131506 SPECI KPAE 131506Z 17020G32KT 10SM SCT005 12/10 A2967 RMK AO2 PK WND 17032/1505 RAE00 P0001 T01170100=
202010131455 SPECI KPAE 131455Z 15021G26KT 10SM -RA BKN005 11/09 A2967 RMK AO2 PK WND 15026/1455 CIG 003V009 P0001 T01060094=
202010131453 METAR KPAE 131453Z 15015G23KT 5SM -RA BR BKN002 OVC024 11/09 A2967 RMK AO2 RAE30B40 SLP048 P0002 60013 T01060094 58054=
202010131435 SPECI KPAE 131435Z 15010KT 5SM BR BKN002 OVC024 10/09 A2971 RMK AO2 RAE30 P0002 T01000089=
202010131433 SPECI KPAE 131433Z 14008KT 5SM BR BKN005 BKN031 OVC070 10/09 A2971 RMK AO2 RAE30 P0002 T01000089=
202010131414 SPECI KPAE 131414Z 15010G20KT 1/2SM R16R/P6000FT -RA FG BKN005 BKN031 OVC070 09/08 A2970 RMK AO2 PRESFR P0002 T00940083=
202010131353 METAR KPAE 131353Z 15010G15KT 6SM -RA BR BKN005 BKN045 OVC085 09/08 A2974 RMK AO2 SLP070 P0005 T00890083=
202010131340 SPECI KPAE 131340Z AUTO VRB05G15KT 8SM -RA BKN007 BKN035 OVC085 09/08 A2973 RMK AO2 P0004 T00890078=
202010131317 SPECI KPAE 131317Z AUTO 14007G17KT 100V170 5SM -RA BR SCT007 BKN035 OVC090 09/08 A2975 RMK AO2 PRESFR P0001 T00890078=
202010131253 METAR KPAE 131253Z AUTO 15011G19KT 7SM -RA FEW027 BKN040 OVC050 09/07 A2977 RMK AO2 SLP082 P0006 T00890072=
202010131153 METAR KPAE 131153Z AUTO 15011G22KT 9SM -RA BKN035 OVC042 09/07 A2983 RMK AO2 RAB02 SLP103 P0003 60015 70018 T00890067 10106 20089 56049=
202010131053 METAR KPAE 131053Z AUTO VRB06KT 10SM OVC035 09/07 A2988 RMK AO2 RAE03B30E50 SLP117 P0000 T00890067=
202010130953 METAR KPAE 130953Z AUTO 11010KT 10SM -RA OVC047 09/07 A2993 RMK AO2 PRESFR SLP134 P0002 T00890067=
202010130853 METAR KPAE 130853Z AUTO 11007KT 7SM -RA FEW034 OVC046 09/07 A2998 RMK AO2 SLP153 P0008 60010 T00940072 56034=
202010130753 METAR KPAE 130753Z AUTO 11008KT 9SM -RA OVC050 09/07 A3001 RMK AO2 RAB14 SLP164 P0002 T00940072 401440094=
202010130653 METAR KPAE 130653Z AUTO VRB04KT 10SM BKN075 OVC095 11/07 A3003 RMK AO2 SLP170 T01060067=
202010130553 METAR KPAE 130553Z AUTO 13004KT 10SM OVC110 10/07 A3008 RMK AO2 SLP187 T01000072 10139 20100 58021=
202010130453 METAR KPAE 130453Z AUTO 11007KT 10SM BKN120 11/08 A3013 RMK AO2 SLP203 T01060078=
202010130353 METAR KPAE 130353Z AUTO 11006KT 10SM CLR 11/08 A3014 RMK AO2 SLP208 T01110078=
202010130253 METAR KPAE 130253Z 12006KT 10SM CLR 12/07 A3014 RMK AO2 SLP209 T01170072 58014=
202010130153 METAR KPAE 130153Z 11005KT 10SM CLR 12/07 A3016 RMK AO2 SLP214 T01220072=
202010130053 METAR KPAE 130053Z 10003KT 10SM FEW032 13/07 A3017 RMK AO2 SLP219 T01330072=
202010122353 METAR KPAE 122353Z 11003KT 10SM SCT039 13/07 A3019 RMK AO2 SLP223 T01330072 10144 20106 58008=
202010122253 METAR KPAE 122253Z 17005KT 10SM FEW027 14/08 A3020 RMK AO2 SLP226 T01390078=
202010122153 METAR KPAE 122153Z 14003KT 10SM CLR 13/08 A3021 RMK AO2 SLP231 T01330083=
202010122137 SPECI KPAE 122137Z 00000KT 10SM FEW017 13/08 A3021 RMK AO2 T01330083=
202010122053 METAR KPAE 122053Z 00000KT 10SM BKN018 BKN025 OVC048 12/08 A3021 RMK AO2 SLP230 T01220083 50007=
202010121953 METAR KPAE 121953Z 07005KT 10SM SCT006 BKN023 OVC031 12/08 A3022 RMK AO2 SLP234 T01220078=
202010121855 SPECI KPAE 121855Z 10007KT 10SM SCT006 BKN023 OVC031 11/08 A3021 RMK AO2 T01110078=
202010121853 METAR KPAE 121853Z 11007KT 10SM BKN023 OVC031 11/08 A3021 RMK AO2 SLP229 T01110078=
202010121823 SPECI KPAE 121823Z 10007KT 10SM FEW008 OVC024 11/08 A3020 RMK AO2 T01060078=
202010121753 METAR KPAE 121753Z 10007KT 10SM BKN028 OVC035 11/08 A3019 RMK AO2 RAE32 SLP224 P0002 60003 T01060083 10106 20094 51031=
202010121653 METAR KPAE 121653Z 11005KT 10SM -RA OVC034 10/08 A3017 RMK AO2 RAB00E36B53 SLP218 P0001 T01000078=
202010121625 SPECI KPAE 121625Z 11005KT 10SM -RA SCT031 BKN049 OVC060 10/08 A3015 RMK AO2 RAB00 P0001 T01000078=
202010121553 METAR KPAE 121553Z 11006KT 10SM SCT019 OVC029 10/07 A3014 RMK AO2 RAB33E51 SLP205 P0000 T01000072=
202010121529 SPECI KPAE 121529Z 10006KT 10SM BKN021 OVC029 10/07 A3012 RMK AO2 T01000072=
202010121453 METAR KPAE 121453Z 07005KT 10SM SCT019 OVC032 10/07 A3009 RMK AO2 SLP192 T01000072 51039=
202010121353 METAR KPAE 121353Z 01005KT 10SM OVC036 10/07 A3007 RMK AO2 SLP182 T01000072=
202010121253 METAR KPAE 121253Z AUTO 35006KT 10SM FEW015 OVC032 10/08 A3002 RMK AO2 SLP167 T01000078=
202010121240 SPECI KPAE 121240Z AUTO 35005KT 10SM FEW013 SCT018 OVC030 10/08 A3001 RMK AO2 T01000078=
202010121211 SPECI KPAE 121211Z AUTO 02005KT 10SM FEW015 OVC029 10/08 A2999 RMK AO2 T01000078=
202010121153 METAR KPAE 121153Z AUTO 01007KT 10SM FEW017 OVC033 10/08 A2998 RMK AO2 SLP151 60004 70019 T01000078 10139 20100 51052=
202010121105 SPECI KPAE 121105Z AUTO 01007KT 10SM SCT021 OVC038 11/08 A2994 RMK AO2 T01060078=
202010121053 METAR KPAE 121053Z AUTO 36007G18KT 10SM BKN022 OVC040 11/08 A2993 RMK AO2 SLP135 T01110078=
202010120953 METAR KPAE 120953Z AUTO 34005KT 10SM BKN020 OVC028 11/09 A2990 RMK AO2 RAB13E39 SLP126 P0004 T01110089=
202010120929 SPECI KPAE 120929Z AUTO VRB06KT 4SM -RA BR BKN014 BKN020 OVC025 11/09 A2988 RMK AO2 RAB13 PRESRR P0004 T01110089=
202010120919 SPECI KPAE 120919Z AUTO 34007KT 310V010 6SM -RA BR SCT012 BKN022 OVC033 12/10 A2987 RMK AO2 RAB13 PRESRR P0002 T01170100=
202010120853 METAR KPAE 120853Z AUTO 17011KT 10SM FEW036 SCT047 OVC065 13/11 A2982 RMK AO2 PRESRR SLP098 T01280106 53049=
202010120839 SPECI KPAE 120839Z AUTO 16009KT 10SM FEW012 OVC060 13/11 A2980 RMK AO2 T01280106=
202010120753 METAR KPAE 120753Z AUTO 20015KT 10SM OVC018 14/11 A2975 RMK AO2 PK WND 18026/0655 SLP075 T01390111 401440078=
202010120725 SPECI KPAE 120725Z AUTO 20014KT 10SM SCT013 BKN023 BKN090 14/12 A2972 RMK AO2 PK WND 18026/0655 PRESRR T01390117=
202010120700 SPECI KPAE 120700Z AUTO 19017G26KT 10SM SCT014 BKN095 14/12 A2969 RMK AO2 PK WND 18026/0655 T01390117=
202010120653 METAR KPAE 120653Z AUTO 18020G26KT 10SM BKN014 BKN095 14/12 A2968 RMK AO2 PK WND 18026/0652 SLP051 T01390117=
202010120641 SPECI KPAE 120641Z AUTO 18020G24KT 10SM BKN014 OVC095 14/12 A2968 RMK AO2 T01390122=
202010120632 SPECI KPAE 120632Z AUTO 19014G19KT 10SM BKN015 OVC095 14/12 A2969 RMK AO2 T01390122=
202010120553 METAR KPAE 120553Z AUTO 19019G25KT 10SM CLR 14/11 A2967 RMK AO2 SLP047 60003 T01390111 10144 20111 53006=
202010120517 SPECI KPAE 120517Z AUTO 18015KT 10SM SCT010 14/12 A2965 RMK AO2 T01390122=
202010120453 METAR KPAE 120453Z AUTO 19010KT 10SM BKN009 OVC013 14/13 A2964 RMK AO2 CIG 007V012 SLP038 T01390128=
202010120353 METAR KPAE 120353Z AUTO 20011KT 10SM BKN008 OVC014 14/13 A2965 RMK AO2 RAB0259E13 SLP039 P0000 T01440133=
202010120253 METAR KPAE 120253Z 18017KT 10SM OVC006 14/13 A2965 RMK AO2 RAE0159 SLP041 P0000 60003 T01390128 56023=
202010120153 METAR KPAE 120153Z 18017G31KT 10SM -RA OVC008 13/12 A2966 RMK AO2 PK WND 18031/0145 CIG 006V010 SLP042 P0000 T01330122=
202010120053 METAR KPAE 120053Z 16017G21KT 3SM -RA BR BKN006 OVC020 12/11 A2968 RMK AO2 SLP050 P0003 T01220111=
202010112353 METAR KPAE 112353Z 14010G17KT 3SM -RA BR BKN006 OVC020 11/10 A2972 RMK AO2 SLP066 P0001 60012 T01110100 10111 20106 56052=
202010112314 SPECI KPAE 112314Z 14009G17KT 3SM -RA BR BKN008 OVC011 11/09 A2975 RMK AO2 P0000 T01060094=
202010112304 SPECI KPAE 112304Z 14009G20KT 6SM -RA BR SCT005 BKN014 OVC025 11/09 A2976 RMK AO2 P0000 T01060094=
202010112253 METAR KPAE 112253Z 15014G21KT 3SM -RA BR BKN010 BKN018 OVC047 11/09 A2977 RMK AO2 SLP082 P0002 T01060089=
202010112251 SPECI KPAE 112251Z 15015G21KT 3SM -RA BR BKN010 BKN018 OVC046 11/09 A2977 RMK AO2 P0001=
202010112215 SPECI KPAE 112215Z 14010G16KT 2 1/2SM -RA BR FEW009 BKN033 OVC047 11/09 A2980 RMK AO2 P0001 T01060094=
202010112153 METAR KPAE 112153Z 13007KT 4SM -RA BR FEW022 BKN045 OVC055 11/09 A2982 RMK AO2 SLP099 P0002 T01110094=
202010112053 METAR KPAE 112053Z 14007G15KT 10SM -RA BKN049 BKN060 OVC070 11/09 A2988 RMK AO2 SLP118 P0002 60007 T01060089 58041=
202010111953 METAR KPAE 111953Z 15009KT 10SM -RA FEW017 SCT050 OVC075 11/09 A2994 RMK AO2 SLP138 P0003 T01060089=
202010111853 METAR KPAE 111853Z 17009KT 9SM -RA FEW038 BKN048 OVC060 11/08 A3001 RMK AO2 RAB30 SLP163 P0002 T01110083=
202010111753 METAR KPAE 111753Z 16010KT 10SM FEW012 SCT027 11/08 A3000 RMK AO2 SLP160 T01110083 10111 20078 58008=
202010111713 SPECI KPAE 111713Z 15008KT 10SM SCT012 BKN120 11/08 A3001 RMK AO2 T01060083=
202010111653 METAR KPAE 111653Z 14008KT 10SM FEW012 BKN120 11/08 A3002 RMK AO2 SLP167 T01060083=
202010111649 SPECI KPAE 111649Z 14007KT 10SM SCT010 SCT015 BKN120 10/08 A3002 RMK AO2=
202010111553 METAR KPAE 111553Z 17006KT 10SM OVC014 10/08 A3003 RMK AO2 SLP169 T01000083=
202010111453 METAR KPAE 111453Z 17007KT 10SM BKN014 09/08 A3002 RMK AO2 SLP169 T00940078 51013=
202010111353 METAR KPAE 111353Z 16008KT 10SM SCT014 BKN070 09/08 A3002 RMK AO2 SLP166 T00890078=
202010111253 METAR KPAE 111253Z 19003KT 10SM OVC070 08/08 A3000 RMK AO2 SLP162 T00830078=
202010111153 METAR KPAE 111153Z 20004KT 10SM CLR 08/08 A2999 RMK AO2 SLP156 60003 70070 T00830078 10100 20083 51013=
202010111053 METAR KPAE 111053Z 16008KT 10SM BKN070 09/08 A2998 RMK AO2 SLP153 T00940083=
202010110953 METAR KPAE 110953Z 17008KT 10SM OVC075 10/08 A2997 RMK AO2 RAE04 SLP149 P0000 T01000083=
202010110853 METAR KPAE 110853Z 16006KT 10SM -RA BKN050 OVC070 10/08 A2995 RMK AO2 SLP142 P0003 60003 T01000083 51019=
202010110753 METAR KPAE 110753Z 18006KT 10SM -RA FEW050 BKN060 OVC080 10/08 A2994 RMK AO2 RAB38 SLP138 P0000 T01000078 401390094=
202010110653 METAR KPAE 110653Z 15007KT 10SM OVC100 10/07 A2991 RMK AO2 SLP129 T01000072=
202010110553 METAR KPAE 110553Z 18007KT 10SM FEW075 SCT100 BKN120 09/08 A2989 RMK AO2 SLP123 T00940078 10117 20094 52015=
202010110453 METAR KPAE 110453Z 15008KT 10SM SCT075 10/07 A2988 RMK AO2 SLP119 T01000072=
202010110353 METAR KPAE 110353Z VRB03KT 10SM FEW046 SCT080 10/07 A2986 RMK AO2 SLP111 T01000072=
202010110253 METAR KPAE 110253Z 15009KT 10SM OVC050 10/07 A2985 RMK AO2 SLP107 T01000072 51021=
202010110153 METAR KPAE 110153Z 15007KT 10SM BKN065 BKN080 10/08 A2982 RMK AO2 SLP100 T01000078=
202010110053 METAR KPAE 110053Z VRB03KT 10SM FEW085 11/09 A2981 RMK AO2 SLP095 T01060089=
202010102353 METAR KPAE 102353Z 11005KT 10SM SCT050 SCT065 12/09 A2978 RMK AO2 SLP085 60053 T01170089 10117 20100 52029=
202010102320 SPECI KPAE 102320Z 15004KT 10SM SCT060 11/09 A2977 RMK AO2 LTG DSNT SE T01110089=
202010102253 METAR KPAE 102253Z AUTO VRB03KT 10SM VCTS FEW005 SCT065 BKN075 11/09 A2976 RMK AO2 RAB06E15 SLP077 P0000 T01060094=
202010102153 METAR KPAE 102153Z 11006KT 10SM FEW005 BKN060 BKN090 11/09 A2972 RMK AO2 TSE01 SLP065 T01110094=
202010102107 SPECI KPAE 102107Z 11006KT 10SM FEW010 BKN100 BKN120 12/08 A2971 RMK AO2 LTG DSNT E AND SE TSE01 T01170083=
202010102100 SPECI KPAE 102100Z 06004KT 10SM TS FEW010 BKN100 BKN120 12/08 A2970 RMK AO2 T01170078=
202010102053 METAR KPAE 102053Z 05004KT 10SM TS BKN018 12/08 A2970 RMK AO2 RAE47 TSB46 SLP055 P0001 60053 T01170078 51016=
202010102029 SPECI KPAE 102029Z 03004KT 10SM VCTS -RA BKN018 11/09 A2968 RMK AO2 P0001 T01060089=
202010101953 METAR KPAE 101953Z 10004KT 4SM -RA BR BKN018 OVC046 11/09 A2966 RMK AO2 SLP045 P0025 T01060089=
202010101927 SPECI KPAE 101927Z 00000KT 4SM -RA BR SCT010 BKN034 OVC050 11/09 A2966 RMK AO2 VIS E 1 P0022 T01060094=
202010101853 METAR KPAE 101853Z VRB03KT 1 1/4SM R16R/4500VP6000FT +RA BR FEW003 BKN010 OVC028 11/09 A2965 RMK AO2 SLP039 P0027 T01060089=
202010101815 SPECI KPAE 101815Z 35003KT 1 1/2SM R16R/4500VP6000FT RA BR SCT003 BKN010 OVC022 11/10 A2964 RMK AO2 P0013 T01110100=
202010101800 SPECI KPAE 101800Z 00000KT 1SM R16R/3500V5000FT +RA BR BKN003 OVC013 11/10 A2963 RMK AO2 P0005 T01110100=
202010101753 METAR KPAE 101753Z 00000KT 1 3/4SM R16R/4000VP6000FT -RA BR BKN007 OVC017 11/11 A2963 RMK AO2 VIS 1 1/4V3 RAB37 SLP032 P0002 60014 T01110106 10133 20111 53029=
202010101653 METAR KPAE 101653Z 20013KT 10SM BKN009 BKN017 OVC030 12/11 A2959 RMK AO2 RAE31 SLP020 P0001 T01220106=
202010101553 METAR KPAE 101553Z 20013KT 10SM -RA BKN009 BKN024 OVC030 12/11 A2957 RMK AO2 SLP013 P0001 T01220111=
202010101538 SPECI KPAE 101538Z 20015KT 10SM -RA BKN009 BKN024 OVC030 12/11 A2957 RMK AO2 P0001 T01220111=
202010101517 SPECI KPAE 101517Z 19015G24KT 10SM -RA BKN014 OVC025 12/11 A2955 RMK AO2 P0001 T01220111=
202010101453 METAR KPAE 101453Z 19017KT 10SM -RA FEW010 OVC015 13/11 A2954 RMK AO2 PK WND 18026/1421 RAE29B45 SLP001 P0001 60010 T01280111 55001=
202010101441 SPECI KPAE 101441Z 20018G24KT 10SM BKN016 OVC100 13/12 A2953 RMK AO2 PK WND 18026/1421 RAE29 P0001 T01280117=
202010101353 METAR KPAE 101353Z 16012G19KT 10SM -RA FEW008 FEW022 OVC070 13/12 A2950 RMK AO2 SLP987 P0008 T01280117=
202010101253 METAR KPAE 101253Z AUTO 17015G21KT 8SM -RA FEW013 BKN065 OVC090 13/12 A2953 RMK AO2 SLP999 P0001 T01330117=
202010101228 SPECI KPAE 101228Z AUTO 17014G24KT 10SM -RA FEW009 BKN055 OVC090 13/12 A2953 RMK AO2 P0001 T01330117=
202010101222 SPECI KPAE 101222Z AUTO 16015G24KT 10SM -RA BKN012 BKN027 OVC080 13/12 A2953 RMK AO2 P0001 T01330117=
202010101153 METAR KPAE 101153Z AUTO 16016G22KT 10SM -RA BKN009 BKN016 OVC075 13/12 A2954 RMK AO2 CIG 006V012 SLP002 P0003 60014 70033 T01330122 10144 20133 56017=
202010101150 SPECI KPAE 101150Z AUTO 17015G22KT 10SM -RA BKN009 BKN016 OVC075 13/12 A2954 RMK AO2 CIG 006V013 P0003=
202010101128 SPECI KPAE 101128Z AUTO 16011KT 10SM -RA SCT009 BKN013 OVC075 13/12 A2955 RMK AO2 P0002 T01330122=
202010101053 METAR KPAE 101053Z AUTO 17012KT 10SM -RA SCT013 SCT032 OVC080 14/12 A2956 RMK AO2 SLP008 P0004 T01390122=
202010101041 SPECI KPAE 101041Z AUTO 17013KT 9SM -RA SCT013 BKN018 OVC080 14/12 A2957 RMK AO2 P0004 T01390122=
202010101028 SPECI KPAE 101028Z AUTO 16013G19KT 10SM -RA BKN013 OVC080 14/12 A2957 RMK AO2 P0002 T01390122=
202010100953 METAR KPAE 100953Z AUTO 17012G17KT 10SM -RA FEW009 OVC080 14/12 A2959 RMK AO2 SLP019 P0004 T01390122=
202010100900 SPECI KPAE 100900Z AUTO 18017KT 10SM -RA FEW008 BKN075 OVC090 14/13 A2962 RMK AO2 P0001 T01390128=
202010100853 METAR KPAE 100853Z AUTO 18017KT 10SM -RA OVC085 14/13 A2962 RMK AO2 PK WND 18027/0805 SLP029 P0000 60003 T01390128 56008=
202010100753 METAR KPAE 100753Z AUTO 19018KT 10SM -RA OVC080 14/12 A2962 RMK AO2 PK WND 18030/0659 SLP030 P0001 T01390122 401830139=
202010100653 METAR KPAE 100653Z AUTO 18019G30KT 10SM -RA FEW012 SCT050 OVC080 14/13 A2963 RMK AO2 PK WND 18032/0634 SLP030 P0002 T01440128=
202010100553 METAR KPAE 100553Z AUTO 20020G29KT 8SM -RA FEW010 BKN050 OVC090 14/13 A2965 RMK AO2 PK WND 20029/0551 SLP038 P0008 60019 T01440128 10178 20144 58015=
202010100512 SPECI KPAE 100512Z AUTO 19014KT 7SM -RA FEW020 BKN033 OVC060 14/13 A2966 RMK AO2 P0003 T01440133=
202010100453 METAR KPAE 100453Z AUTO 19011KT 5SM -RA BR SCT017 BKN022 OVC036 14/13 A2967 RMK AO2 SLP047 P0011 T01440133=
202010100411 SPECI KPAE 100411Z AUTO 22010KT 7SM -RA BKN021 BKN035 OVC060 16/13 A2968 RMK AO2 P0002 T01560133=
202010100353 METAR KPAE 100353Z AUTO 20008KT 10SM -RA FEW036 BKN060 OVC090 16/13 A2968 RMK AO2 RAB14 SLP049 P0000 T01560128=
202010100253 METAR KPAE 100253Z AUTO 16008KT 10SM BKN060 OVC110 17/12 A2969 RMK AO2 SLP053 T01670117 56015=
202010100153 METAR KPAE 100153Z AUTO 17010KT 10SM FEW110 17/12 A2970 RMK AO2 SLP056 T01720117=
202010100053 METAR KPAE 100053Z AUTO 17015KT 10SM BKN110 17/12 A2972 RMK AO2 SLP062 T01720117=
202010092353 METAR KPAE 092353Z AUTO 18014G19KT 10SM CLR 18/12 A2974 RMK AO2 SLP068 T01780117 10183 20161 56022=
202010092253 METAR KPAE 092253Z AUTO 18018G23KT 10SM SCT060 18/12 A2975 RMK AO2 SLP073 T01830117=
202010092153 METAR KPAE 092153Z 18018G25KT 10SM CLR 18/11 A2979 RMK AO2 PK WND 17027/2132 SLP084 T01780111=
202010092053 METAR KPAE 092053Z 17016G24KT 10SM FEW025 17/11 A2980 RMK AO2 PK WND 18028/2014 SLP091 T01720111 58012=
202010092033 SPECI KPAE 092033Z 18021G28KT 10SM FEW025 SCT030 17/11 A2982 RMK AO2 PK WND 18028/2014 T01720111=
202010091953 METAR KPAE 091953Z 17015G28KT 10SM BKN022 BKN029 17/12 A2983 RMK AO2 PK WND 18028/1946 SLP099 T01720117=
202010091908 SPECI KPAE 091908Z 18016G20KT 10SM SCT021 BKN032 17/12 A2983 RMK AO2 T01720122=
202010091853 METAR KPAE 091853Z 17013G20KT 10SM BKN016 OVC034 17/12 A2983 RMK AO2 SLP100 T01720122=
202010091753 METAR KPAE 091753Z 16014KT 10SM BKN019 BKN023 OVC033 16/12 A2984 RMK AO2 SLP103 T01610122 10161 20139 56010=
202010091746 SPECI KPAE 091746Z 16012KT 10SM BKN019 BKN025 BKN033 16/12 A2984 RMK AO2 T01610122=
202010091653 METAR KPAE 091653Z 17014KT 10SM FEW013 SCT022 16/12 A2985 RMK AO2 SLP107 T01610122=
202010091553 METAR KPAE 091553Z 16008KT 10SM FEW013 SCT019 BKN024 14/12 A2985 RMK AO2 SLP108 T01440122=
202010091453 METAR KPAE 091453Z 15007KT 10SM OVC020 14/12 A2987 RMK AO2 SLP115 T01440122 58007=
202010091400 SPECI KPAE 091400Z 15006KT 10SM FEW014 BKN025 OVC037 14/12 A2988 RMK AO2 T01440122=
202010091353 METAR KPAE 091353Z 14006KT 10SM FEW014 SCT019 OVC037 14/12 A2988 RMK AO2 SLP119 T01390122=
202010091337 SPECI KPAE 091337Z AUTO 15008KT 10SM SCT026 OVC035 14/12 A2989 RMK AO2 T01390122=
202010091253 METAR KPAE 091253Z AUTO 15007KT 10SM FEW016 OVC027 14/12 A2990 RMK AO2 SLP124 T01390122=
202010091226 SPECI KPAE 091226Z AUTO 16006KT 10SM BKN026 OVC034 14/12 A2990 RMK AO2 T01390122=
202010091153 METAR KPAE 091153Z AUTO 15009KT 10SM SCT037 SCT120 14/12 A2989 RMK AO2 SLP122 T01390117 10150 20139 58003=
202010091053 METAR KPAE 091053Z AUTO 14007KT 10SM FEW041 BKN110 14/12 A2990 RMK AO2 SLP126 T01390117=
202010090953 METAR KPAE 090953Z AUTO 15006KT 10SM SCT030 BKN034 BKN110 14/12 A2990 RMK AO2 SLP126 T01390117=
202010090853 METAR KPAE 090853Z AUTO 15009KT 10SM FEW022 14/12 A2990 RMK AO2 SLP124 T01390117 55004=
202010090753 METAR KPAE 090753Z AUTO 16011KT 10SM CLR 14/12 A2990 RMK AO2 SLP124 T01390117 401670128=
202010090653 METAR KPAE 090653Z AUTO 16010KT 10SM CLR 14/12 A2991 RMK AO2 SLP127 T01440117=
202010090553 METAR KPAE 090553Z AUTO 17007KT 10SM OVC045 15/12 A2991 RMK AO2 SLP129 T01500117 10150 20139 58001=
202010090453 METAR KPAE 090453Z AUTO 16006KT 10SM OVC047 15/12 A2992 RMK AO2 SLP131 T01500117=
202010090353 METAR KPAE 090353Z AUTO 14003KT 10SM OVC041 15/12 A2992 RMK AO2 SLP131 T01500122=
202010090253 METAR KPAE 090253Z 01003KT 10SM OVC043 14/12 A2992 RMK AO2 SLP130 T01390122 53001=
202010090153 METAR KPAE 090153Z 00000KT 10SM OVC039 15/12 A2992 RMK AO2 SLP130 T01500122=
202010090053 METAR KPAE 090053Z 01004KT 10SM OVC044 14/12 A2991 RMK AO2 SLP128 T01440122=
202010090000 SPECI KPAE 090000Z 03004KT 10SM BKN042 14/12 A2991 RMK AO2 T01390122=
202010082353 METAR KPAE 082353Z 01006KT 10SM FEW001 BKN026 OVC036 14/12 A2991 RMK AO2 SLP129 T01440122 10167 20133 58003=
202010082300 SPECI KPAE 082300Z 01006KT 10SM SCT003 BKN028 OVC036 13/12 A2993 RMK AO2 T01330122=
202010082253 METAR KPAE 082253Z 01007KT 10SM FEW001 OVC034 14/12 A2993 RMK AO2 SLP135 FG BANK NORTH OF AIRPORT MOVING SOUTH T01390122=
202010082153 METAR KPAE 082153Z 01004KT 10SM OVC022 15/12 A2992 RMK AO2 SLP130 T01500117=
202010082053 METAR KPAE 082053Z 00000KT 10SM BKN025 OVC040 16/12 A2992 RMK AO2 SLP132 T01560117 51006=
202010082044 SPECI KPAE 082044Z 24004KT 10SM SCT025 OVC040 16/12 A2992 RMK AO2 T01560117=
202010081953 METAR KPAE 081953Z 24004KT 10SM OVC016 15/11 A2992 RMK AO2 SLP132 T01500111=
202010081916 SPECI KPAE 081916Z 20008KT 10SM OVC015 14/11 A2992 RMK AO2 T01440111=
202010081900 SPECI KPAE 081900Z 19006KT 10SM OVC014 14/12 A2992 RMK AO2 T01390117=
202010081853 METAR KPAE 081853Z 21007KT 10SM OVC008 14/12 A2992 RMK AO2 SLP131 T01390117=
202010081753 METAR KPAE 081753Z 16008KT 10SM BKN007 OVC013 14/12 A2991 RMK AO2 SLP127 T01390117 10139 20128 51009=
202010081653 METAR KPAE 081653Z 19009KT 10SM OVC006 13/12 A2990 RMK AO2 SLP126 T01330122=
202010081639 SPECI KPAE 081639Z 17009KT 10SM OVC006 13/12 A2990 RMK AO2 T01330122=
202010081605 SPECI KPAE 081605Z 17008KT 3SM BR OVC004 13/12 A2989 RMK AO2 T01280122=
202010081553 METAR KPAE 081553Z 16008KT 2SM BR OVC004 13/13 A2989 RMK AO2 SLP120 T01280128=
202010081453 METAR KPAE 081453Z 18007KT 2SM BR OVC003 13/12 A2988 RMK AO2 SLP118 T01280122 53005=
202010081353 METAR KPAE 081353Z 19006KT 2SM BR OVC003 13/13 A2987 RMK AO2 SLP115 T01280128=
202010081334 SPECI KPAE 081334Z AUTO 18007KT 7SM OVC002 13/12 A2987 RMK AO2 T01280122=
202010081325 SPECI KPAE 081325Z AUTO 18007KT 4SM BR OVC001 13/13 A2987 RMK AO2 T01280128=
202010081317 SPECI KPAE 081317Z AUTO 18005KT 2 1/2SM BR OVC001 13/13 A2986 RMK AO2 T01280128=
202010081307 SPECI KPAE 081307Z AUTO 18006KT 1 3/4SM BR OVC001 13/13 A2986 RMK AO2 T01280128=
202010081253 METAR KPAE 081253Z AUTO 18006KT 1 3/4SM BR OVC002 13/13 A2986 RMK AO2 SLP110 T01280128=
202010081243 SPECI KPAE 081243Z AUTO 16007KT 1 3/4SM BR OVC002 13/13 A2986 RMK AO2 T01280128=
202010081216 SPECI KPAE 081216Z AUTO 17006KT 3SM BR OVC002 13/13 A2986 RMK AO2 T01280128=
202010081200 SPECI KPAE 081200Z AUTO 18007KT 2 1/2SM BR OVC002 13/13 A2986 RMK AO2 T01280128=
202010081153 METAR KPAE 081153Z AUTO 18005KT 1 3/4SM BR OVC002 13/13 A2987 RMK AO2 SLP113 T01280128 10144 20128 53002=
202010081133 SPECI KPAE 081133Z AUTO 19006KT 1SM R16R/5000V6000FT BR VV002 13/13 A2987 RMK AO2 T01280128=
202010081100 SPECI KPAE 081100Z AUTO 19007KT 3/4SM R16R/3500V4000FT BR VV002 13/13 A2986 RMK AO2 T01280128=
202010081053 METAR KPAE 081053Z AUTO 18006KT 1SM R16R/3500V4000FT BR OVC002 13/13 A2986 RMK AO2 SLP109 T01280128=
202010081040 SPECI KPAE 081040Z AUTO 20005KT 1 3/4SM R16R/4500VP6000FT BR OVC002 13/13 A2986 RMK AO2 T01280128=
202010081020 SPECI KPAE 081020Z AUTO 18010KT 4SM R16R/3000VP6000FT BR OVC002 13/13 A2986 RMK AO2 T01330128=
202010081017 SPECI KPAE 081017Z AUTO 18009KT 1SM R16R/1400VP6000FT BR VV002 13/13 A2986 RMK AO2 T01330128=
202010081014 SPECI KPAE 081014Z AUTO 19008KT 1/2SM R16R/1400VP6000FT FG VV001 13/13 A2986 RMK AO2 T01330128=
202010080953 METAR KPAE 080953Z AUTO 25004KT 1/4SM R16R/1000FT FG VV001 13/13 A2986 RMK AO2 SLP110 T01280128=
202010080942 SPECI KPAE 080942Z AUTO 24005KT 1/4SM R16R/1000V1600FT FG VV001 13/13 A2986 RMK AO2 T01330128=
202010080939 SPECI KPAE 080939Z AUTO 24006KT 1/4SM R16R/1000V3500FT FG OVC002 13/13 A2986 RMK AO2 T01330128=
202010080934 SPECI KPAE 080934Z AUTO 22007KT 1 3/4SM R16R/1400VP6000FT BR OVC002 14/13 A2986 RMK AO2 T01390133=
202010080927 SPECI KPAE 080927Z AUTO 20005KT 3SM R16R/5500VP6000FT BR OVC002 14/13 A2986 RMK AO2 T01390133=
202010080920 SPECI KPAE 080920Z AUTO 19007KT 2 1/2SM BR OVC002 14/13 A2986 RMK AO2 T01390133=
202010080900 SPECI KPAE 080900Z AUTO 18004KT 1SM R16R/2200V3500FT BR OVC002 14/13 A2986 RMK AO2 T01390133=
202010080853 METAR KPAE 080853Z AUTO 18005KT 1SM R16R/2400V3500FT BR OVC001 14/13 A2986 RMK AO2 SLP110 T01390133 53001=
202010080845 SPECI KPAE 080845Z AUTO 19004KT 1 3/4SM R16R/3000VP6000FT BR BKN001 OVC049 14/13 A2986 RMK AO2 T01390133=
202010080826 SPECI KPAE 080826Z AUTO 15006KT 3SM R16R/5500VP6000FT BR BKN001 OVC047 14/13 A2985 RMK AO2 T01390133=
202010080808 SPECI KPAE 080808Z AUTO 15006KT 2 1/2SM R16R/2800VP6000FT BR BKN001 BKN047 14/13 A2985 RMK AO2 T01390133=
202010080802 SPECI KPAE 080802Z AUTO VRB03KT 3SM BR SCT002 BKN047 14/13 A2985 RMK AO2 T01390133=
202010080753 METAR KPAE 080753Z AUTO VRB04KT 5SM BR FEW034 SCT047 14/13 A2985 RMK AO2 SLP108 T01390133 401670122=
202010080726 SPECI KPAE 080726Z AUTO 00000KT 5SM BR OVC032 14/13 A2986 RMK AO2 T01440133=
202010080704 SPECI KPAE 080704Z AUTO 00000KT 5SM BR BKN029 14/13 A2986 RMK AO2 T01390133=
202010080653 METAR KPAE 080653Z AUTO 00000KT 5SM BR SCT029 14/13 A2986 RMK AO2 SLP110 T01390133=
202010080553 METAR KPAE 080553Z AUTO 15003KT 5SM BR BKN032 14/13 A2986 RMK AO2 SLP109 T01390133 10161 20139 50000=
202010080453 METAR KPAE 080453Z AUTO 00000KT 6SM BR CLR 14/13 A2986 RMK AO2 SLP110 T01440133=
202010080353 METAR KPAE 080353Z AUTO 15003KT 7SM CLR 14/13 A2986 RMK AO2 SLP111 T01390133=
202010080253 METAR KPAE 080253Z 14004KT 7SM CLR 15/14 A2986 RMK AO2 SLP109 T01500139 55004=
202010080153 METAR KPAE 080153Z VRB03KT 6SM BR CLR 15/14 A2985 RMK AO2 SLP109 T01500139=
202010080053 METAR KPAE 080053Z 00000KT 3SM BR SCT001 16/13 A2986 RMK AO2 SLP111 VIS SW W NW 1 T01560133=
202010072353 METAR KPAE 072353Z 27003KT 4SM BR FEW003 SCT008 15/13 A2987 RMK AO2 SLP114 T01500133 10167 20128 56013=
202010072253 METAR KPAE 072253Z 00000KT 4SM HZ FEW003 SCT008 17/13 A2988 RMK AO2 SLP117 T01670133=
202010072237 SPECI KPAE 072237Z 00000KT 4SM HZ FEW003 SCT008 16/13 A2988 RMK AO2 T01610133=
202010072200 SPECI KPAE 072200Z 28003KT 6SM BR OVC007 15/13 A2989 RMK AO2 T01500133=
202010072153 METAR KPAE 072153Z 29003KT 2SM BR OVC002 15/13 A2989 RMK AO2 SLP120 T01500133=
202010072053 METAR KPAE 072053Z 00000KT 2SM BR OVC002 14/13 A2991 RMK AO2 SLP126 T01440133 58013=
202010072039 SPECI KPAE 072039Z 00000KT 2SM BR BKN002 14/13 A2991 RMK AO2 T01440133=
202010071953 METAR KPAE 071953Z 00000KT 1SM R16R/P6000FT BR BKN001 OVC003 14/13 A2992 RMK AO2 SLP131 T01390133=
202010071924 SPECI KPAE 071924Z 00000KT 1/4SM R16R/1200VP6000FT FG VV001 13/13 A2993 RMK AO2 T01330133=
202010071853 METAR KPAE 071853Z 00000KT M1/4SM R16R/0700V0800FT FG VV001 13/13 A2993 RMK AO2 SLP136 T01280128=
202010071753 METAR KPAE 071753Z 34005KT M1/4SM R16R/0500V0800FT FG VV001 13/12 A2994 RMK AO2 SLP139 T01280122 10133 20122 58002=
202010071653 METAR KPAE 071653Z 36005KT M1/4SM R16R/0600FT FG VV001 13/13 A2995 RMK AO2 SLP141 T01280128=
202010071553 METAR KPAE 071553Z 36004KT M1/4SM R16R/0400V0500FT FG BKN001 OVC110 13/13 A2995 RMK AO2 SLP142 T01280128=
202010071453 METAR KPAE 071453Z 36005KT M1/4SM R16R/0500V0600FT FG VV001 13/13 A2995 RMK AO2 SLP141 T01280128 55002=
202010071353 METAR KPAE 071353Z 36005KT 1/4SM R16R/1000V1400FT FG VV001 13/13 A2995 RMK AO2 SLP140 T01330128=
202010071313 SPECI KPAE 071313Z AUTO 01006KT 1/4SM R16R/1400V2000FT FG VV001 13/13 A2995 RMK AO2 T01330128=
202010071306 SPECI KPAE 071306Z AUTO 36005KT 3/4SM R16R/1800V2800FT BR VV001 13/13 A2995 RMK AO2 T01330128=
202010071253 METAR KPAE 071253Z AUTO 36003KT 1 3/4SM R16R/3000V5000FT BR OVC002 13/13 A2995 RMK AO2 SLP141 T01330128=
202010071204 SPECI KPAE 071204Z AUTO 34004KT 6SM BR OVC002 12/12 A2996 RMK AO2 T01220117=
202010071153 METAR KPAE 071153Z AUTO 34003KT 5SM BR OVC001 12/12 A2996 RMK AO2 SLP142 T01220117 10133 20122 56008=
202010071151 SPECI KPAE 071151Z AUTO 35003KT 4SM BR OVC001 12/12 A2996 RMK AO2=
202010071053 METAR KPAE 071053Z AUTO 00000KT 5SM BR OVC003 13/12 A2997 RMK AO2 SLP146 T01280122=
202010070953 METAR KPAE 070953Z AUTO 36003KT 7SM OVC004 13/12 A2998 RMK AO2 SLP151 T01280117=
202010070931 SPECI KPAE 070931Z AUTO 36004KT 7SM BKN005 12/12 A2999 RMK AO2 T01220117=
202010070907 SPECI KPAE 070907Z AUTO 36003KT 7SM FEW004 12/12 A2999 RMK AO2 T01220117=
202010070853 METAR KPAE 070853Z AUTO 35003KT 7SM CLR 12/12 A2999 RMK AO2 SLP155 T01220117 57008=
202010070753 METAR KPAE 070753Z AUTO 01004KT 10SM CLR 13/12 A3000 RMK AO2 SLP158 T01330122 401940111=
202010070653 METAR KPAE 070653Z AUTO 01004KT 10SM CLR 13/12 A3001 RMK AO2 SLP160 T01330117=
202010070553 METAR KPAE 070553Z AUTO 35005KT 10SM CLR 13/12 A3002 RMK AO2 SLP164 T01330117 10183 20133 58003=
202010070453 METAR KPAE 070453Z AUTO 34006KT 10SM CLR 14/12 A3002 RMK AO2 SLP166 T01390117=
202010070353 METAR KPAE 070353Z AUTO 35005KT 10SM CLR 14/12 A3003 RMK AO2 SLP167 T01390122=
202010070253 METAR KPAE 070253Z 34005KT 10SM CLR 15/12 A3003 RMK AO2 SLP167 T01500122 56008=
202010070153 METAR KPAE 070153Z 33004KT 10SM CLR 16/12 A3003 RMK AO2 SLP168 T01560122=
202010070053 METAR KPAE 070053Z 33003KT 10SM CLR 17/13 A3004 RMK AO2 SLP171 T01720128=
202010062353 METAR KPAE 062353Z 33007KT 10SM CLR 18/13 A3005 RMK AO2 SLP175 T01830128 10194 20133 56022=
202010062253 METAR KPAE 062253Z 35006KT 10SM CLR 19/13 A3007 RMK AO2 SLP180 T01940128=
202010062153 METAR KPAE 062153Z VRB06KT 10SM CLR 19/13 A3009 RMK AO2 SLP188 T01890128=
202010062053 METAR KPAE 062053Z 34005KT 10SM CLR 18/13 A3012 RMK AO2 SLP197 T01830128 58013=
202010061953 METAR KPAE 061953Z VRB05KT 10SM CLR 17/13 A3013 RMK AO2 SLP204 T01720128=
202010061853 METAR KPAE 061853Z 36005KT 10SM CLR 16/12 A3014 RMK AO2 SLP208 T01610122=
202010061753 METAR KPAE 061753Z 00000KT 10SM SCT001 13/12 A3015 RMK AO2 SLP211 T01330122 10133 20111 58002=
202010061742 SPECI KPAE 061742Z 00000KT 10SM SCT001 13/12 A3015 RMK AO2 T01280122=
202010061726 SPECI KPAE 061726Z 36003KT 3SM R16R/2800VP6000FT BR BKN001 13/12 A3015 RMK AO2 T01280122=
202010061724 SPECI KPAE 061724Z 35003KT 2SM R16R/1800VP6000FT BR BKN001 12/12 A3015 RMK AO2 T01220122=
202010061653 METAR KPAE 061653Z 35004KT M1/4SM R16R/0400V0500FT FG VV001 12/12 A3016 RMK AO2 SLP216 T01170117=
202010061553 METAR KPAE 061553Z 35003KT M1/4SM R16R/0400V0500FT FG VV001 11/11 A3017 RMK AO2 SLP217 T01110111=
202010061453 METAR KPAE 061453Z 00000KT 1/4SM R16R/1000V1600FT FG VV001 11/11 A3016 RMK AO2 SLP214 T01110111 58004=
202010061353 METAR KPAE 061353Z 00000KT 1/4SM R16R/1000V1600FT FG VV001 11/11 A3016 RMK AO2 SLP214 T01110111=
202010061253 METAR KPAE 061253Z AUTO 36004KT 1/4SM R16R/1000V1400FT FG VV001 12/11 A3017 RMK AO2 SLP216 T01170111=
202010061246 SPECI KPAE 061246Z AUTO 36003KT 1/4SM R16R/1400FT FG VV001 12/11 A3017 RMK AO2 T01170111=
202010061236 SPECI KPAE 061236Z AUTO 35004KT 1/2SM R16R/1400V1800FT FG VV001 12/11 A3017 RMK AO2 T01170111=
202010061226 SPECI KPAE 061226Z AUTO 01003KT 3/4SM R16R/1800V2400FT BR VV001 12/11 A3017 RMK AO2 T01170111=
202010061212 SPECI KPAE 061212Z AUTO 01003KT 1/2SM R16R/1600V2200FT FG VV001 12/11 A3017 RMK AO2 T01170111=
202010061153 METAR KPAE 061153Z AUTO 01004KT 1/4SM R16R/1000V1200FT FG VV001 12/12 A3017 RMK AO2 SLP216 T01170117 10122 20117 56008=
202010061132 SPECI KPAE 061132Z AUTO VRB03KT 1/4SM R16R/1400V2000FT FG VV001 12/12 A3017 RMK AO2 T01170117=
202010061117 SPECI KPAE 061117Z AUTO 36004KT 1/2SM R16R/1800V3000FT FG VV001 12/12 A3017 RMK AO2 T01170117=
202010061106 SPECI KPAE 061106Z AUTO 34004KT 1 3/4SM R16R/2800VP6000FT BR OVC001 12/12 A3017 RMK AO2 T01170117=
202010061053 METAR KPAE 061053Z AUTO 36003KT 3SM BR OVC001 12/12 A3017 RMK AO2 SLP218 T01170117=
202010061022 SPECI KPAE 061022Z AUTO 01003KT 2 1/2SM R16R/1400V2400FT BR OVC001 12/12 A3018 RMK AO2 T01170117=
202010061013 SPECI KPAE 061013Z AUTO 36003KT 1SM R16R/1200V1600FT BR VV001 12/12 A3018 RMK AO2 T01170117=
202010060953 METAR KPAE 060953Z AUTO 36004KT 1/4SM R16R/1000V1200FT FG VV001 12/12 A3019 RMK AO2 SLP222 T01170117=
202010060940 SPECI KPAE 060940Z AUTO 01004KT 1/4SM R16R/1200V1600FT FG VV001 12/12 A3019 RMK AO2 T01170117=
202010060921 SPECI KPAE 060921Z AUTO 36006KT 1/4SM R16R/1600V3000FT FG VV001 12/12 A3019 RMK AO2 T01170117=
202010060906 SPECI KPAE 060906Z AUTO 34006KT 1/4SM R16R/1400V2200FT FG VV001 12/11 A3019 RMK AO2 T01170111=
202010060853 METAR KPAE 060853Z AUTO 35007KT 1/4SM R16R/1600V6000FT FG VV001 12/11 A3020 RMK AO2 SLP225 T01170111 57006=
202010060837 SPECI KPAE 060837Z AUTO 35005KT 3/4SM R16R/3500VP6000FT BR VV001 12/11 A3020 RMK AO2 T01170111=
202010060824 SPECI KPAE 060824Z AUTO 35006KT 1 1/4SM R16R/6000VP6000FT BR OVC001 12/11 A3020 RMK AO2 T01170111=
202010060816 SPECI KPAE 060816Z AUTO 35007KT 3/4SM R16R/2400VP6000FT BR VV001 12/11 A3020 RMK AO2 T01170111=
202010060803 SPECI KPAE 060803Z AUTO 35006KT 1SM R16R/1400V2400FT BR VV001 12/11 A3020 RMK AO2 T01170111=
202010060756 SPECI KPAE 060756Z AUTO 35006KT 3/4SM R16R/1400V2200FT BR VV001 12/11 A3020 RMK AO2 T01170111=
202010060753 METAR KPAE 060753Z AUTO 35007KT 1SM R16R/1400VP6000FT BR VV001 12/11 A3020 RMK AO2 SLP227 T01170111 401720117=
202010060749 SPECI KPAE 060749Z AUTO 36007KT 1 1/2SM R16R/1600VP6000FT BR SCT001 12/11 A3020 RMK AO2=
202010060744 SPECI KPAE 060744Z AUTO 36005KT 4SM BR SCT001 12/11 A3020 RMK AO2 T01220111=
202010060653 METAR KPAE 060653Z AUTO VRB03KT 4SM BR CLR 12/12 A3021 RMK AO2 SLP230 T01220117=
202010060553 METAR KPAE 060553Z AUTO 00000KT 5SM BR CLR 12/12 A3021 RMK AO2 SLP233 T01220117 10167 20122 58004=
202010060453 METAR KPAE 060453Z AUTO 00000KT 7SM CLR 13/12 A3022 RMK AO2 SLP233 T01280117=
202010060353 METAR KPAE 060353Z 01003KT 9SM CLR 13/12 A3022 RMK AO2 SLP234 T01330117=
202010060253 METAR KPAE 060253Z 33004KT 9SM CLR 13/12 A3023 RMK AO2 SLP235 T01330117 55006=
202010060153 METAR KPAE 060153Z 00000KT 10SM CLR 14/12 A3022 RMK AO2 SLP235 T01440122=
202010060053 METAR KPAE 060053Z 33003KT 10SM CLR 16/12 A3023 RMK AO2 SLP235 T01560117=
202010052353 METAR KPAE 052353Z 35008KT 10SM CLR 17/12 A3024 RMK AO2 SLP241 T01670117 10172 20122 56013=
202010052253 METAR KPAE 052253Z 34005KT 10SM CLR 17/12 A3025 RMK AO2 SLP243 T01670122=
202010052153 METAR KPAE 052153Z VRB04KT 10SM SCT007 17/12 A3027 RMK AO2 SLP250 T01670122=
202010052056 SPECI KPAE 052056Z 01006KT 9SM SCT007 16/12 A3028 RMK AO2 T01560122=
202010052053 METAR KPAE 052053Z 01005KT 9SM SCT007 BKN011 15/12 A3028 RMK AO2 SLP254 T01500122 58004=
202010052025 SPECI KPAE 052025Z 36007KT 7SM SCT004 BKN010 16/12 A3029 RMK AO2 T01560122=
202010052003 SPECI KPAE 052003Z 36008KT 9SM OVC004 15/12 A3030 RMK AO2 T01500122=
202010051953 METAR KPAE 051953Z 36007KT 9SM BKN005 14/12 A3029 RMK AO2 SLP259 T01440122=
202010051928 SPECI KPAE 051928Z 01004KT 10SM BKN005 15/12 A3029 RMK AO2 T01500122=
202010051901 SPECI KPAE 051901Z 33005KT 3SM BR BKN002 14/12 A3029 RMK AO2 T01390122=
202010051853 METAR KPAE 051853Z VRB04KT 6SM BR OVC001 13/12 A3030 RMK AO2 SLP259 T01280122=
202010051820 SPECI KPAE 051820Z 36005KT 1/2SM R16R/4000VP6000FT FG VV001 13/12 A3030 RMK AO2 T01280122=
202010051816 SPECI KPAE 051816Z 36005KT 1 1/2SM R16R/3500VP6000FT BR OVC001 12/12 A3029 RMK AO2 VIS 3/4V4 T01220117=
202010051802 SPECI KPAE 051802Z 01005KT 3/4SM R16R/1600VP6000FT BR VV001 13/12 A3029 RMK AO2 T01280122=
202010051753 METAR KPAE 051753Z 35005KT 1/4SM R16R/1000V2600FT FG VV001 12/12 A3029 RMK AO2 SLP257 T01220122 10128 20117 53007=
202010051733 SPECI KPAE 051733Z 35003KT M1/4SM R16R/0500V1200FT FG VV001 12/12 A3029 RMK AO2 T01220117=
202010051701 SPECI KPAE 051701Z 00000KT M1/4SM R16R/1200V4000FT FG VV001 12/12 A3028 RMK AO2 T01220122=
202010051653 METAR KPAE 051653Z 00000KT M1/4SM R16R/0800V1800FT FG VV001 12/12 A3028 RMK AO2 SLP252 T01220122=
202010051553 METAR KPAE 051553Z VRB04KT M1/4SM R16R/0500FT FG VV001 12/12 A3027 RMK AO2 SLP250 T01220117=
202010051523 SPECI KPAE 051523Z VRB03KT 1/4SM R16R/0800V1200FT FG VV001 12/12 A3027 RMK AO2 T01220122=
202010051505 SPECI KPAE 051505Z 36004KT 1/4SM R16R/2000V4000FT FG VV001 12/12 A3027 RMK AO2 T01220122=
202010051453 METAR KPAE 051453Z VRB03KT 3/4SM R16R/2200V3500FT BR VV001 12/12 A3027 RMK AO2 SLP250 T01220117 53003=
202010051441 SPECI KPAE 051441Z 00000KT 1/2SM R16R/4000VP6000FT FG VV001 12/12 A3026 RMK AO2 T01220117=
202010051430 SPECI KPAE 051430Z VRB03KT 1/4SM R16R/5000VP6000FT FG VV001 12/12 A3026 RMK AO2 T01220122=
202010051401 SPECI KPAE 051401Z 34004KT 1/2SM R16R/2600VP6000FT FG VV001 12/12 A3026 RMK AO2 T01220122=
202010051353 METAR KPAE 051353Z 35006KT 1SM R16R/4500VP6000FT BR VV001 12/12 A3026 RMK AO2 SLP247 T01220122=
202010051344 SPECI KPAE 051344Z AUTO 35005KT 1SM R16R/P6000FT BR VV001 12/12 A3026 RMK AO2 T01220122=
202010051329 SPECI KPAE 051329Z AUTO 35005KT 1/4SM R16R/1000V2400FT FG VV001 12/12 A3026 RMK AO2 T01220122=
202010051315 SPECI KPAE 051315Z AUTO 36006KT 1/4SM R16R/0800V1000FT FG BKN001 OVC006 13/12 A3026 RMK AO2 T01280122=
202010051307 SPECI KPAE 051307Z AUTO 36007KT 1/4SM R16R/1000V4000FT FG BKN001 OVC006 13/12 A3026 RMK AO2 T01280122=
202010051303 SPECI KPAE 051303Z AUTO 36006KT 1 1/4SM R16R/1200VP6000FT BR BKN001 OVC006 13/12 A3026 RMK AO2 T01280122=
202010051257 SPECI KPAE 051257Z AUTO 36005KT 3SM R16R/1800VP6000FT BR BKN001 OVC006 13/12 A3026 RMK AO2 T01280122=
202010051253 METAR KPAE 051253Z AUTO 36004KT 1 1/2SM R16R/1600V5500FT BR BKN001 OVC006 13/12 A3026 RMK AO2 SLP246 T01280122=
202010051250 SPECI KPAE 051250Z AUTO 36005KT 1SM R16R/1400V2400FT BR VV001 13/12 A3026 RMK AO2=
202010051156 SPECI KPAE 051156Z AUTO 02005KT 1/4SM R16R/1200V2000FT FG VV001 13/12 A3026 RMK AO2 T01280122=
202010051153 METAR KPAE 051153Z AUTO 02004KT 1/2SM R16R/1400V3500FT FG VV001 13/12 A3026 RMK AO2 SLP247 T01280122 10144 20128 58001=
202010051142 SPECI KPAE 051142Z AUTO 02004KT 1/4SM R16R/1800V2600FT FG VV001 13/12 A3026 RMK AO2 T01280122=
202010051134 SPECI KPAE 051134Z AUTO 02004KT 1/2SM R16R/1600V4500FT FG VV001 13/13 A3026 RMK AO2 T01280128=
202010051127 SPECI KPAE 051127Z AUTO 02005KT 1/2SM R16R/1000V2200FT FG VV001 13/13 A3026 RMK AO2 T01280128=
202010051108 SPECI KPAE 051108Z AUTO 02005KT 1/4SM R16R/2200VP6000FT FG VV001 13/13 A3027 RMK AO2 T01280128=
202010051101 SPECI KPAE 051101Z AUTO 02005KT 1SM R16R/P6000FT BR VV001 13/12 A3027 RMK AO2 T01280122=
202010051059 SPECI KPAE 051059Z AUTO 02006KT 2SM BR BKN002 13/12 A3027 RMK AO2 T01280122=
202010051053 METAR KPAE 051053Z AUTO 02004KT 4SM BR SCT002 13/12 A3027 RMK AO2 SLP250 T01280122=
202010051042 SPECI KPAE 051042Z AUTO 01003KT 5SM BR SCT027 13/12 A3027 RMK AO2 T01280122=
202010051017 SPECI KPAE 051017Z AUTO 34003KT 5SM BR SCT012 OVC026 13/12 A3026 RMK AO2 T01330122=
202010050953 METAR KPAE 050953Z AUTO 00000KT 8SM OVC012 14/13 A3026 RMK AO2 SLP248 T01390128=
202010050853 METAR KPAE 050853Z AUTO 00000KT 7SM OVC014 13/13 A3026 RMK AO2 SLP248 T01330128 51009=
202010050803 SPECI KPAE 050803Z AUTO 00000KT 7SM OVC015 14/13 A3026 RMK AO2 T01390128=
202010050753 METAR KPAE 050753Z AUTO 00000KT 8SM BKN014 OVC026 14/13 A3025 RMK AO2 SLP245 T01390128 401610122=
202010050745 SPECI KPAE 050745Z AUTO 00000KT 8SM BKN014 OVC026 14/13 A3025 RMK AO2 T01390128=
202010050653 METAR KPAE 050653Z AUTO 00000KT 7SM BKN015 OVC023 14/13 A3025 RMK AO2 SLP243 T01390128=
202010050553 METAR KPAE 050553Z AUTO 00000KT 7SM OVC017 13/12 A3024 RMK AO2 SLP239 T01330122 10161 20133 53010=
202010050453 METAR KPAE 050453Z AUTO VRB03KT 9SM OVC018 14/12 A3023 RMK AO2 SLP235 T01440117=
202010050353 METAR KPAE 050353Z AUTO 00000KT 10SM OVC019 14/12 A3021 RMK AO2 SLP230 T01440122=
202010050253 METAR KPAE 050253Z 00000KT 10SM OVC022 14/12 A3021 RMK AO2 SLP228 T01440122 53008=
202010050153 METAR KPAE 050153Z 00000KT 10SM OVC025 14/12 A3019 RMK AO2 SLP222 T01440117=
202010050053 METAR KPAE 050053Z 00000KT 10SM OVC027 15/12 A3018 RMK AO2 SLP220 T01500117=
202010050046 SPECI KPAE 050046Z 00000KT 10SM OVC029 15/12 A3018 RMK AO2 T01500117=
202010042353 METAR KPAE 042353Z 00000KT 10SM OVC032 16/12 A3018 RMK AO2 SLP220 T01610117 10161 20139 51005=
202010042345 SPECI KPAE 042345Z 00000KT 10SM SCT025 OVC032 16/12 A3018 RMK AO2 T01610117=
202010042253 METAR KPAE 042253Z 00000KT 10SM OVC023 15/12 A3018 RMK AO2 SLP219 T01500117=
202010042200 SPECI KPAE 042200Z 06003KT 10SM FEW015 OVC021 14/12 A3017 RMK AO2 T01440122=
202010042153 METAR KPAE 042153Z 01003KT 7SM BKN009 OVC021 14/12 A3017 RMK AO2 SLP216 T01440117=
202010042053 METAR KPAE 042053Z 31003KT 6SM BR BKN009 OVC022 14/12 A3016 RMK AO2 SLP214 T01390122 53003=
202010041953 METAR KPAE 041953Z 00000KT 10SM BKN009 OVC022 14/12 A3015 RMK AO2 SLP211 T01440122=
202010041948 SPECI KPAE 041948Z VRB03KT 10SM BKN009 OVC022 14/12 A3015 RMK AO2=
202010041926 SPECI KPAE 041926Z 00000KT 10SM SCT010 OVC023 14/12 A3015 RMK AO2 T01440117=
202010041914 SPECI KPAE 041914Z 01003KT 10SM BKN010 BKN016 OVC023 14/12 A3016 RMK AO2 CIG 007V011 T01390117=
202010041853 METAR KPAE 041853Z 00000KT 10SM SCT002 BKN009 OVC014 14/12 A3016 RMK AO2 SLP211 T01390117=
202010041753 METAR KPAE 041753Z 07003KT 10SM SCT005 OVC014 14/12 A3015 RMK AO2 SLP209 T01390117 10139 20122 51013=
202010041653 METAR KPAE 041653Z 00000KT 2SM BR OVC005 12/12 A3014 RMK AO2 SLP208 T01220117=
202010041553 METAR KPAE 041553Z 32004KT 1/4SM R16R/5000VP6000FT FG VV001 13/12 A3012 RMK AO2 SLP201 T01280122=
202010041453 METAR KPAE 041453Z 34003KT 1/4SM R16R/1800V2800FT FG VV001 12/12 A3011 RMK AO2 SLP197 T01220122 53005=
202010041431 SPECI KPAE 041431Z 00000KT 1/4SM R16R/1800V4000FT FG VV001 12/12 A3011 RMK AO2 T01220122=
202010041419 SPECI KPAE 041419Z 00000KT 1/2SM R16R/1600V3000FT FG VV001 12/12 A3010 RMK AO2 T01220122=
202010041353 METAR KPAE 041353Z 00000KT 1/4SM R16R/1600V2000FT FG VV001 12/12 A3010 RMK AO2 SLP194 T01220122=
202010041346 SPECI KPAE 041346Z AUTO 36003KT 1/4SM R16R/1600V4000FT FG VV001 12/12 A3010 RMK AO2 T01220122=
202010041316 SPECI KPAE 041316Z AUTO 00000KT 3/4SM R16R/4000V5000FT BR VV002 12/12 A3010 RMK AO2 T01220122=
202010041301 SPECI KPAE 041301Z AUTO 00000KT 1/2SM R16R/3500VP6000FT FG VV001 12/12 A3010 RMK AO2 T01220122=
202010041253 METAR KPAE 041253Z AUTO 00000KT 3/4SM R16R/2400V5500FT BR VV002 12/12 A3010 RMK AO2 SLP193 T01220122=
202010041232 SPECI KPAE 041232Z AUTO 00000KT 3/4SM R16R/1800V4500FT BR VV001 12/12 A3009 RMK AO2 T01220122=
202010041223 SPECI KPAE 041223Z AUTO 00000KT 1/4SM R16R/1400V4500FT FG VV001 12/12 A3009 RMK AO2 T01220122=
202010041153 METAR KPAE 041153Z AUTO 01003KT 1/4SM R16R/1200V1600FT FG VV001 12/12 A3010 RMK AO2 SLP191 T01220122 10122 20122 55000=
202010041133 SPECI KPAE 041133Z AUTO 00000KT 1/4SM R16R/1200V1400FT FG VV001 12/12 A3010 RMK AO2 T01220122=
202010041122 SPECI KPAE 041122Z AUTO 33004KT 1/4SM R16R/1600V3500FT FG VV001 12/12 A3010 RMK AO2 T01220122=
202010041112 SPECI KPAE 041112Z AUTO 32004KT 1/2SM R16R/5000VP6000FT FG VV002 12/12 A3009 RMK AO2 T01220122=
202010041053 METAR KPAE 041053Z AUTO 00000KT 1 1/4SM BR OVC002 12/12 A3009 RMK AO2 SLP188 T01220122=
202010041040 SPECI KPAE 041040Z AUTO 00000KT 1 3/4SM BR OVC002 12/12 A3009 RMK AO2 T01220122=
202010041016 SPECI KPAE 041016Z AUTO 00000KT 3/4SM R16R/4000VP6000FT BR VV002 12/12 A3009 RMK AO2 T01220122=
202010041007 SPECI KPAE 041007Z AUTO 00000KT 1/2SM R16R/3000VP6000FT FG VV001 12/12 A3009 RMK AO2 T01220122=
202010040953 METAR KPAE 040953Z AUTO 00000KT 1/4SM R16R/1800V4000FT FG VV001 12/12 A3010 RMK AO2 SLP191 T01220122=
202010040936 SPECI KPAE 040936Z AUTO 00000KT 1/4SM R16R/1400V1800FT FG VV001 12/12 A3010 RMK AO2 T01220122=
202010040929 SPECI KPAE 040929Z AUTO 33003KT 1/4SM R16R/1400V2400FT FG VV001 12/12 A3010 RMK AO2 T01220122=
202010040853 METAR KPAE 040853Z AUTO 00000KT 3/4SM R16R/3500V6000FT BR VV002 12/12 A3010 RMK AO2 SLP191 T01220122 56001=
202010040809 SPECI KPAE 040809Z AUTO 00000KT 1SM R16R/3500VP6000FT BR VV002 12/12 A3009 RMK AO2 T01220122=
202010040753 METAR KPAE 040753Z AUTO 00000KT 3/4SM R16R/5000VP6000FT BR VV002 12/12 A3010 RMK AO2 SLP191 T01220122 401390111=
202010040653 METAR KPAE 040653Z AUTO 00000KT 1/2SM R16R/2000V2400FT FG VV002 12/12 A3009 RMK AO2 SLP191 T01220122=
202010040647 SPECI KPAE 040647Z AUTO 00000KT 1/2SM R16R/2000V2400FT FG VV002 12/12 A3009 RMK AO2=
202010040622 SPECI KPAE 040622Z AUTO 00000KT 1/4SM R16R/1400V4000FT FG VV001 12/12 A3009 RMK AO2 T01220122=
202010040602 SPECI KPAE 040602Z AUTO 00000KT 1/4SM R16R/1200V1600FT FG VV001 12/12 A3010 RMK AO2 T01220122=
202010040553 METAR KPAE 040553Z AUTO 00000KT 1/4SM R16R/1600V2600FT FG VV001 12/12 A3010 RMK AO2 SLP192 T01220122 10128 20122 51006=
202010040527 SPECI KPAE 040527Z AUTO 00000KT 1/4SM R16R/2000V2400FT FG VV001 12/12 A3009 RMK AO2 T01220122=
202010040506 SPECI KPAE 040506Z AUTO 33003KT 1/4SM R16R/1800V2200FT FG VV001 12/12 A3009 RMK AO2 T01220122=
202010040453 METAR KPAE 040453Z AUTO 33003KT 1/4SM R16R/2000V2600FT FG VV001 12/12 A3009 RMK AO2 SLP191 T01220122=
202010040449 SPECI KPAE 040449Z AUTO 33004KT 1/4SM R16R/2200V2600FT FG VV001 12/12 A3009 RMK AO2=
202010040353 METAR KPAE 040353Z AUTO 00000KT 1/4SM R16R/1600V1800FT FG VV001 13/12 A3008 RMK AO2 SLP185 T01280122=
202010040349 SPECI KPAE 040349Z AUTO 00000KT 1/4SM R16R/1600V1800FT FG VV001 12/12 A3008 RMK AO2=
202010040330 SPECI KPAE 040330Z 00000KT 1/4SM R16R/2000V3000FT FG VV001 12/12 A3007 RMK AO2 T01220122=
202010040253 METAR KPAE 040253Z 00000KT 1/4SM R16R/1400V2000FT FG VV001 12/12 A3007 RMK AO2 SLP184 T01220117 55002=
202010040153 METAR KPAE 040153Z 00000KT M1/4SM R16R/0600V0800FT FG VV001 12/12 A3007 RMK AO2 SLP183 T01220122=
202010040053 METAR KPAE 040053Z 26003KT M1/4SM R16R/0600V0800FT FG VV001 13/12 A3007 RMK AO2 SLP183 T01280122=
202010032353 METAR KPAE 032353Z 29004KT 1/4SM R16R/0700V1600FT FG VV001 13/13 A3008 RMK AO2 SLP185 T01280128 10133 20128 58003=
202010032347 SPECI KPAE 032347Z 29005KT 1/4SM R16R/1000V1600FT FG VV001 13/13 A3008 RMK AO2=
202010032253 METAR KPAE 032253Z 32003KT 1/4SM R16R/1400V2800FT FG OVC002 13/13 A3008 RMK AO2 SLP187 T01330128=
202010032245 SPECI KPAE 032245Z 30003KT 1/4SM R16R/1200V3000FT FG VV002 13/13 A3009 RMK AO2 T01330128=
202010032206 SPECI KPAE 032206Z 29003KT 1/4SM R16R/0800V1600FT FG VV001 13/13 A3009 RMK AO2 T01330128=
202010032153 METAR KPAE 032153Z 30004KT 1/4SM R16R/1200V3500FT FG VV001 13/13 A3009 RMK AO2 SLP188 T01330128=
202010032151 SPECI KPAE 032151Z 28005KT 1/4SM R16R/1400V3500FT FG VV001 13/13 A3009 RMK AO2=
202010032134 SPECI KPAE 032134Z 26003KT 1/4SM R16R/1600VP6000FT FG VV002 13/13 A3009 RMK AO2 T01330128=
202010032101 SPECI KPAE 032101Z 26003KT 1/4SM R16R/1200V3000FT FG OVC001 13/13 A3009 RMK AO2 T01330128=
202010032053 METAR KPAE 032053Z 26003KT 1/4SM R16R/0700V1200FT FG VV002 13/13 A3009 RMK AO2 SLP190 T01330128 58009=
202010032001 SPECI KPAE 032001Z 28004KT 1/4SM R16R/1400V2000FT FG OVC001 13/13 A3010 RMK AO2 T01330128=
202010031953 METAR KPAE 031953Z 27003KT 1/2SM R16R/1400V3000FT FG OVC001 13/13 A3010 RMK AO2 SLP194 T01330128=
202010031944 SPECI KPAE 031944Z 28003KT 3/4SM R16R/1400V2000FT BR OVC001 13/13 A3011 RMK AO2 T01280128=
202010031904 SPECI KPAE 031904Z 00000KT 3/4SM R16R/1800V2400FT BR VV001 13/13 A3011 RMK AO2 T01330133=
202010031853 METAR KPAE 031853Z 00000KT 1/4SM R16R/1200V2000FT FG VV001 13/13 A3012 RMK AO2 SLP198 T01280128=
202010031836 SPECI KPAE 031836Z 00000KT M1/4SM R16R/0500V0700FT FG VV001 13/13 A3012 RMK AO2 T01280128=
202010031825 SPECI KPAE 031825Z 27004KT 1/4SM R16R/0600V1400FT FG VV002 13/13 A3012 RMK AO2 T01280128=
202010031812 SPECI KPAE 031812Z 00000KT 1/2SM R16R/1400V2400FT FG VV002 13/13 A3012 RMK AO2 T01280128=
202010031804 SPECI KPAE 031804Z 00000KT 1/4SM R16R/1000V1400FT FG VV002 13/13 A3012 RMK AO2 T01280128=
202010031753 METAR KPAE 031753Z 00000KT 1/4SM R16R/1400V1800FT FG VV001 13/13 A3012 RMK AO2 SLP199 T01280128 10128 20111 58000=
202010031653 METAR KPAE 031653Z 02003KT M1/4SM R16R/1200FT FG VV001 12/12 A3013 RMK AO2 SLP202 T01220122=
202010031553 METAR KPAE 031553Z 00000KT M1/4SM R16R/0800V1400FT FG VV001 12/12 A3013 RMK AO2 SLP202 T01220117=
202010031453 METAR KPAE 031453Z 00000KT M1/4SM R16R/0800V1400FT FG VV001 12/12 A3012 RMK AO2 SLP200 T01170117 53003=
202010031353 METAR KPAE 031353Z 00000KT 1/4SM R16R/0800V1000FT FG VV001 12/12 A3011 RMK AO2 SLP196 T01170117=
202010031253 METAR KPAE 031253Z AUTO 00000KT M1/4SM R16R/0800V1000FT FG VV001 12/12 A3011 RMK AO2 SLP195 T01220122=
202010031153 METAR KPAE 031153Z AUTO 35004KT M1/4SM R16R/0600V0700FT FG VV001 12/12 A3011 RMK AO2 SLP195 T01220122 10150 20122 51000=
202010031106 SPECI KPAE 031106Z AUTO 35003KT 1/4SM R16R/1000V1200FT FG VV001 13/12 A3011 RMK AO2 T01280122=
202010031053 METAR KPAE 031053Z AUTO 36004KT 1/2SM R16R/0800V1200FT FG VV001 13/13 A3011 RMK AO2 SLP195 T01280128=
202010031051 SPECI KPAE 031051Z AUTO 36003KT 1/2SM R16R/0800V1000FT FG VV001 13/13 A3011 RMK AO2=
202010031038 SPECI KPAE 031038Z AUTO 36004KT 1/4SM R16R/1000V3000FT FG VV001 13/12 A3011 RMK AO2 T01280122=
202010031019 SPECI KPAE 031019Z AUTO 36003KT 1 3/4SM R16R/3000VP6000FT BR OVC001 13/12 A3011 RMK AO2 T01280122=
202010031007 SPECI KPAE 031007Z AUTO 35003KT 1/2SM R16R/1400V3000FT FG VV001 12/12 A3011 RMK AO2 T01220122=
202010031004 SPECI KPAE 031004Z AUTO 00000KT 1/4SM R16R/1400V2000FT FG VV001 13/13 A3011 RMK AO2 T01280128=
202010030953 METAR KPAE 030953Z AUTO 02004KT 1/4SM R16R/1600VP6000FT FG VV001 13/13 A3011 RMK AO2 SLP195 T01280128=
202010030949 SPECI KPAE 030949Z AUTO 01004KT 1/4SM R16R/2200VP6000FT FG VV001 13/13 A3011 RMK AO2=
202010030945 SPECI KPAE 030945Z AUTO 01004KT 1SM R16R/P6000FT BR VV001 13/12 A3011 RMK AO2 T01280122=
202010030943 SPECI KPAE 030943Z AUTO 01004KT 2SM BR SCT001 13/12 A3011 RMK AO2 T01280122=
202010030853 METAR KPAE 030853Z AUTO 02003KT 5SM BR CLR 13/12 A3011 RMK AO2 SLP195 T01330122 52002=
202010030753 METAR KPAE 030753Z AUTO 01003KT 7SM CLR 14/13 A3011 RMK AO2 SLP195 T01390128 402170122=
202010030653 METAR KPAE 030653Z AUTO 01003KT 8SM CLR 14/13 A3011 RMK AO2 SLP194 T01440128=
202010030553 METAR KPAE 030553Z AUTO 00000KT 10SM CLR 14/13 A3011 RMK AO2 SLP194 T01440128 10206 20144 51002=
202010030453 METAR KPAE 030453Z AUTO 00000KT 10SM CLR 16/13 A3010 RMK AO2 SLP194 T01560128=
202010030353 METAR KPAE 030353Z AUTO 00000KT 10SM CLR 16/13 A3010 RMK AO2 SLP193 T01560128=
202010030253 METAR KPAE 030253Z 00000KT 10SM CLR 17/13 A3010 RMK AO2 SLP191 T01670133 56003=
202010030153 METAR KPAE 030153Z 00000KT 10SM CLR 18/12 A3010 RMK AO2 SLP191 T01780122=
202010030053 METAR KPAE 030053Z 00000KT 10SM CLR 19/13 A3010 RMK AO2 SLP192 T01940128=
202010022353 METAR KPAE 022353Z 35004KT 10SM CLR 21/14 A3011 RMK AO2 SLP194 T02060139 10217 20139 56011=
202010022253 METAR KPAE 022253Z 36004KT 10SM CLR 21/14 A3012 RMK AO2 SLP197 T02110139=
202010022153 METAR KPAE 022153Z 01003KT 10SM CLR 21/14 A3012 RMK AO2 SLP199 T02060139=
202010022053 METAR KPAE 022053Z 34004KT 10SM VCFG CLR 19/14 A3014 RMK AO2 SLP205 T01940139 58007=
202010021953 METAR KPAE 021953Z 01005KT 10SM VCFG CLR 18/13 A3015 RMK AO2 SLP209 VCFG T01830133=
202010021853 METAR KPAE 021853Z 35003KT 5SM HZ FEW001 17/14 A3016 RMK AO2 SLP210 VCFG T01720139=
202010021753 METAR KPAE 021753Z 01004KT 2SM BR BKN001 14/13 A3016 RMK AO2 SLP213 T01390133 10139 20122 51005=
202010021739 SPECI KPAE 021739Z 01004KT 1/2SM R16R/1400VP6000FT FG VV001 13/13 A3016 RMK AO2 T01330133=
202010021731 SPECI KPAE 021731Z 36004KT 1/2SM R16R/1200V1600FT FG VV001 13/13 A3016 RMK AO2 T01330133=
202010021653 METAR KPAE 021653Z 02004KT 1/4SM R16R/1000V1200FT FG VV001 13/13 A3016 RMK AO2 SLP212 T01330128=
202010021553 METAR KPAE 021553Z 02004KT M1/4SM R16R/0500V0800FT FG VV001 13/13 A3015 RMK AO2 SLP210 T01330128=
202010021453 METAR KPAE 021453Z 02004KT M1/4SM R16R/0600FT FG VV001 13/12 A3015 RMK AO2 SLP208 T01280122 51001=
202010021353 METAR KPAE 021353Z 36003KT 1/4SM R16R/1000V1400FT FG VV001 13/12 A3015 RMK AO2 SLP208 T01280122=
202010021253 METAR KPAE 021253Z AUTO 36004KT 1/4SM R16R/0800V1000FT FG VV001 13/13 A3015 RMK AO2 SLP207 T01280128=
202010021153 METAR KPAE 021153Z AUTO 00000KT M1/4SM R16R/0700V0800FT FG VV001 13/12 A3014 RMK AO2 SLP207 T01280122 10139 20128 53001=
202010021055 SPECI KPAE 021055Z AUTO 02004KT 1/4SM R16R/1000V1600FT FG VV001 13/13 A3014 RMK AO2 T01280128=
202010021048 METAR KPAE 021048Z AUTO 01004KT 1/4SM R16R/1400V2400FT FG VV001 13/13 A3014 RMK AO2 SLP206 T01330128=
202010021047 SPECI KPAE 021047Z AUTO 01004KT 1/4SM R16R/1600V2800FT FG VV001 13/13 A3014 RMK AO2=
202010021036 SPECI KPAE 021036Z AUTO 36004KT 1 3/4SM R16R/2600VP6000FT BR OVC001 13/13 A3014 RMK AO2 T01330128=
202010021026 SPECI KPAE 021026Z AUTO 36003KT 3SM BR BKN001 13/12 A3014 RMK AO2 T01280122=
202010021018 SPECI KPAE 021018Z AUTO 35004KT 4SM BR BKN002 13/12 A3014 RMK AO2 T01280122=
202010021010 SPECI KPAE 021010Z AUTO 36003KT 5SM BR SCT002 13/12 A3014 RMK AO2 T01280122=
202010020953 METAR KPAE 020953Z AUTO 36003KT 6SM BR CLR 13/12 A3014 RMK AO2 SLP205 T01280122=
202010020853 METAR KPAE 020853Z AUTO 35003KT 7SM CLR 13/12 A3014 RMK AO2 SLP206 T01280117 58003=
202010020753 METAR KPAE 020753Z AUTO 36003KT 10SM CLR 13/12 A3015 RMK AO2 SLP207 T01330122 401940111=
202010020653 METAR KPAE 020653Z AUTO 00000KT 9SM CLR 13/12 A3015 RMK AO2 SLP208 T01330122=
202010020553 METAR KPAE 020553Z AUTO 35003KT 9SM CLR 14/13 A3015 RMK AO2 SLP210 T01390128 10189 20133 50002=
202010020453 METAR KPAE 020453Z AUTO 00000KT 10SM CLR 14/13 A3015 RMK AO2 SLP210 T01440128=
202010020353 METAR KPAE 020353Z 36003KT 10SM CLR 16/13 A3014 RMK AO2 SLP208 T01560128=
202010020253 METAR KPAE 020253Z 36003KT 10SM CLR 16/13 A3014 RMK AO2 SLP207 T01560128 56003=
202010020153 METAR KPAE 020153Z 34003KT 10SM CLR 16/13 A3014 RMK AO2 SLP207 T01610133=
202010020053 METAR KPAE 020053Z 36005KT 10SM CLR 17/13 A3015 RMK AO2 SLP207 T01720133=
202010012353 METAR KPAE 012353Z AUTO 34004KT 10SM CLR 18/12 A3015 RMK AO2 SLP209 T01830122 10194 20139 58011=
202010012253 METAR KPAE 012253Z AUTO 35006KT 10SM CLR 18/13 A3017 RMK AO2 SLP214 T01830133=
202010012153 METAR KPAE 012153Z 01004KT 10SM CLR 18/14 A3018 RMK AO2 SLP217 T01830139=
202010012053 METAR KPAE 012053Z VRB04KT 10SM CLR 19/14 A3018 RMK AO2 SLP220 T01940139 58012=
202010011953 METAR KPAE 011953Z 32003KT 10SM FEW001 17/14 A3020 RMK AO2 SLP227 T01720139=
202010011853 METAR KPAE 011853Z 00000KT 5SM HZ FEW001 17/14 A3021 RMK AO2 SLP229 VIS W NW N 1 T01670139=
202010011823 SPECI KPAE 011823Z 00000KT 5SM BR FEW001 16/13 A3022 RMK AO2 VIS W NW N 1 T01560133=
202010011813 SPECI KPAE 011813Z 00000KT 2SM BR SCT001 15/13 A3022 RMK AO2 VIS W NW N 1 T01500133=
202010011800 SPECI KPAE 011800Z VRB03KT 9SM BKN002 14/14 A3022 RMK AO2 T01440139=
202010011753 METAR KPAE 011753Z 00000KT 2SM BR SCT001 14/13 A3022 RMK AO2 SLP232 T01440133 10144 20122 50001=
202010011734 SPECI KPAE 011734Z 00000KT 1SM R16R/1400VP6000FT BR VV001 14/13 A3022 RMK AO2 T01390133=
202010011729 SPECI KPAE 011729Z 00000KT 1/2SM R16R/1200V1800FT FG VV001 13/13 A3022 RMK AO2 T01330133=
202010011653 METAR KPAE 011653Z 00000KT M1/4SM R16R/0600V1000FT FG VV001 13/13 A3022 RMK AO2 SLP233 T01280128=
202010011553 METAR KPAE 011553Z 02003KT M1/4SM R16R/0400V0500FT FG VV001 12/12 A3022 RMK AO2 SLP232 T01220122=
202010011453 METAR KPAE 011453Z 01004KT M1/4SM R16R/0400V0500FT FG VV001 13/12 A3022 RMK AO2 SLP231 T01280122 53004=
202010011353 METAR KPAE 011353Z 01006KT M1/4SM R16R/0500V0600FT FG VV001 12/12 A3021 RMK AO2 SLP228 T01220122=
202010011253 METAR KPAE 011253Z AUTO 34004KT M1/4SM R16R/0600V0700FT FG VV001 12/12 A3021 RMK AO2 SLP228 T01220122=
202010011153 METAR KPAE 011153Z AUTO 36008KT M1/4SM R16R/0600V0700FT FG VV001 13/12 A3021 RMK AO2 SLP228 T01280122 10150 20111 55001=
202010011132 SPECI KPAE 011132Z AUTO 36007KT M1/4SM R16R/0500V0700FT FG VV001 12/12 A3021 RMK AO2 T01220122=
202010011105 SPECI KPAE 011105Z AUTO 36003KT 1/4SM R16R/3500VP6000FT FG VV001 12/11 A3020 RMK AO2 T01170111=
202010011055 SPECI KPAE 011055Z AUTO 36003KT 3/4SM R16R/P6000FT BR VV001 12/12 A3020 RMK AO2 T01220117=
202010011053 METAR KPAE 011053Z AUTO 01003KT 1 1/4SM BR FEW002 12/12 A3020 RMK AO2 SLP225 T01220117=
202010010953 METAR KPAE 010953Z AUTO 00000KT 10SM FEW075 13/12 A3020 RMK AO2 SLP223 T01330122=
202010010853 METAR KPAE 010853Z AUTO 00000KT 6SM BR CLR 13/12 A3021 RMK AO2 SLP229 T01280122 58001=
202010010753 METAR KPAE 010753Z AUTO 34003KT 7SM CLR 13/12 A3021 RMK AO2 SLP229 T01280122 402330122=
202010010653 METAR KPAE 010653Z AUTO 35003KT 8SM CLR 13/13 A3022 RMK AO2 SLP231 T01330128=
202010010553 METAR KPAE 010553Z AUTO 36004KT 10SM CLR 15/13 A3021 RMK AO2 SLP230 T01500128 10217 20150 50006=
202010010453 METAR KPAE 010453Z 36004KT 10SM CLR 17/13 A3022 RMK AO2 SLP231 T01670133=
202010010353 METAR KPAE 010353Z 00000KT 10SM CLR 17/13 A3020 RMK AO2 SLP227 T01720133=
202010010253 METAR KPAE 010253Z 01003KT 10SM CLR 18/13 A3019 RMK AO2 SLP223 T01780133 55000=
202010010153 METAR KPAE 010153Z 33004KT 10SM CLR 18/14 A3019 RMK AO2 SLP221 T01830139=
202010010053 METAR KPAE 010053Z 00000KT 10SM CLR 20/14 A3019 RMK AO2 SLP221 T02000144=

# No short TAF reports from KPAE in databse.

###################################
#  large TAF from KPAE
###################################
202010312320 TAF KPAE 312320Z 0100/0124 35005KT P6SM FEW250 FM010500 VRB02KT
                       P6SM FEW250 FM011800 02004KT P6SM FEW250=
202010311732 TAF KPAE 311732Z 3118/0118 35004KT P6SM FEW250 FM010500 VRB02KT
                       P6SM FEW250=
202010311120 TAF KPAE 311120Z 3112/0112 VRB03KT P6SM SCT200
                      TEMPO 3112/3116 3SM BR FM311800 35005KT P6SM
                       SCT150=
202010310520 TAF KPAE 310520Z 3106/0106 33005KT P6SM BKN035 FM311200 VRB03KT
                       P6SM SCT040
                      TEMPO 3112/3116 3SM BR FM311800 35005KT P6SM
                       SCT150=
202010302321 TAF KPAE 302321Z 3100/3124 36008KT P6SM SCT040 FM310500 11003KT
                       P6SM SCT050 FM311200 06002KT P6SM SCT050
                       FM311800 36002KT 6SM BR SCT020=
202010301722 TAF KPAE 301722Z 3018/3118 VRB04KT P6SM SCT100 FM301900 34010KT
                       P6SM FEW090 FM302300 31008KT P6SM BKN050
                       FM310500 VRB03KT P6SM SCT050=
202010301343 KPAE 301343Z 3014/3112 29008KT P6SM -SHRA BKN008 OVC015 FM301600
                       32008KT P6SM -SHRA SCT008 BKN015 OVC030
                       FM301900 34008KT P6SM SCT020 BKN040 FM302300
                       34008KT P6SM BKN050 FM310500 VRB03KT P6SM
                       SCT050=
202010301141 TAF KPAE 301141Z 3012/3112 17020G30KT P6SM BKN100 FM301400 17020G30KT
                       P6SM -RA OVC035 FM301600 22012KT P6SM -SHRA
                       SCT010 BKN020 OVC040 FM301900 34008KT P6SM
                       SCT020 BKN040 FM302300 34008KT P6SM BKN050
                       FM310500 VRB03KT P6SM SCT050=
202010300539 TAF KPAE 300539Z 3006/3106 12008KT P6SM SCT100 BKN200 FM301200
                       15012G20KT P6SM -RA OVC035 FM301600 22012G20KT
                       P6SM -SHRA SCT010 BKN020 OVC040 FM302100
                       VRB03KT P6SM SCT020 BKN040 FM302300 34008KT
                       P6SM BKN050=
202010292325 TAF KPAE 292325Z 3000/3024 15005KT P6SM SCT008 FM300400 16004KT
                       P6SM SCT040 BKN120 OVC200 FM301000 16012G20KT
                       P6SM -RA OVC040 FM301500 19015G20KT 5SM
                       -RA OVC010 FM302200 28010KT P6SM BKN050=
202010291732 TAF KPAE 291732Z 2918/3018 13003KT 5SM BR BKN005 OVC009 FM292200
                       16004KT P6SM SCT020 BKN040 FM300400 16004KT
                       P6SM SCT040 BKN120 OVC200 FM301000 16012G18KT
                       P6SM -RA OVC040 FM301500 19015G25KT 5SM
                       -RA OVC015=
202010291138 TAF KPAE 291138Z 2912/3012 16004KT P6SM BKN004 OVC008 FM291600
                       16004KT P6SM SCT004 BKN008 OVC012 FM291900
                       16004KT P6SM OVC012 FM292200 16004KT P6SM
                       SCT020 BKN040 FM300400 16004KT P6SM SCT040
                       BKN120 OVC200 FM301000 16012G18KT P6SM -RA
                       OVC040=
202010290536 TAF KPAE 290536Z 2906/3006 16004KT P6SM OVC011 FM291000 16004KT
                       P6SM OVC008 FM291900 16004KT P6SM OVC012
                       FM292200 16004KT P6SM SCT020 BKN040 FM300400
                       16004KT P6SM SCT040 BKN120 OVC200=
202010290128 KPAE 290128Z 2901/2924 17008KT P6SM BKN006 FM290800 15006KT P6SM
                       OVC008 FM291700 15005KT 6SM BR OVC007 FM292200
                       22005KT P6SM OVC025=
202010282320 TAF KPAE 282320Z 2900/2924 23008KT P6SM FEW015 FM290800 15006KT
                       P6SM OVC008 FM291700 15005KT 6SM BR OVC007
                       FM292200 22005KT P6SM OVC025=
202010281722 TAF KPAE 281722Z 2818/2918 14004KT P6SM OVC012 FM282000 18006KT
                       P6SM SCT020 BKN040 FM290800 15006KT P6SM
                       OVC008=
202010281134 TAF KPAE 281134Z 2812/2912 16006KT P6SM OVC006 FM281700 18006KT
                       P6SM OVC011 FM281900 18006KT P6SM SCT020
                       BKN040 FM290800 15006KT P6SM OVC008=
202010280534 TAF KPAE 280534Z 2806/2906 15006KT P6SM SCT040 FM281100 18006KT
                       5SM BR OVC006 FM281700 18006KT P6SM OVC011
                       FM282000 18006KT P6SM SCT020 BKN040=
202010272322 TAF KPAE 272322Z 2800/2824 23005KT P6SM BKN045 FM280500 18006KT
                       P6SM OVC035 FM281000 16004KT P6SM OVC009
                       FM281700 17007KT P6SM OVC014 FM282200 18008KT
                       P6SM BKN030=
202010271728 TAF KPAE 271728Z 2718/2818 16004KT P6SM SCT025 BKN040 OVC060 FM281000
                       16004KT P6SM OVC009 FM281700 17007KT P6SM
                       OVC014=
202010271128 TAF KPAE 271128Z 2712/2812 12004KT P6SM OVC025 FM271700 16004KT
                       P6SM SCT025 BKN040 OVC060 FM281000 16004KT
                       P6SM OVC009=
202010270538 TAF KPAE 270538Z 2706/2806 VRB03KT P6SM OVC022 FM271900 16004KT
                       P6SM SCT025 BKN040 OVC070=
202010270301 KPAE 270301Z 2703/2724 00000KT P6SM SCT027 BKN045
                      TEMPO 2703/2707 BKN027 OVC045 FM271100 VRB03KT
                       6SM BR SCT007 FM271300 VRB03KT 5SM BR BKN005
                       FM271900 16004KT P6SM BKN035 BKN100=
202010262325 TAF KPAE 262325Z 2700/2724 35004KT P6SM BKN045 BKN100 FM270400
                       VRB02KT P6SM SCT050 BKN100 FM271100 VRB03KT
                       6SM BR SCT007 FM271300 VRB03KT 5SM BR BKN005
                       FM271900 16004KT P6SM BKN035 BKN100=
202010261731 TAF KPAE 261731Z 2618/2718 02003KT P6SM BKN050 FM262200 35004KT
                       P6SM SCT060 BKN100 FM270400 VRB02KT P6SM
                       SCT100 FM271200 VRB03KT P6SM SCT006 BKN050
                       FM271400 VRB03KT 5SM BR BKN005=
202010261141 TAF KPAE 261141Z 2612/2712 VRB03KT P6SM OVC060 FM262000 35004KT
                       P6SM BKN100 FM270500 06002KT P6SM OVC050=
202010260536 TAF KPAE 260536Z 2606/2706 02004KT P6SM SKC FM261000 VRB03KT P6SM
                       SCT060 FM262000 35004KT P6SM OVC250=
202010252322 TAF KPAE 252322Z 2600/2624 34006KT P6SM SKC FM260300 01003KT P6SM
                       SKC FM261000 VRB03KT P6SM BKN250 FM262000
                       35004KT P6SM OVC250=
202010251722 TAF KPAE 251722Z 2518/2618 01004KT P6SM SKC FM252100 36008KT P6SM
                       SKC FM260300 00000KT P6SM SKC FM261000 11003KT
                       P6SM BKN250=
202010251124 TAF KPAE 251124Z 2512/2612 02003KT P6SM SKC FM252000 36008KT P6SM
                       SKC FM260300 00000KT P6SM SKC=
202010250527 TAF KPAE 250527Z 2506/2606 35005KT P6SM BKN070 FM250800 36005KT
                       P6SM SKC FM251200 02003KT P6SM SKC FM252000
                       36008KT P6SM SKC=
202010242320 TAF KPAE 242320Z 2500/2524 35012KT P6SM FEW070 FM250400 36005KT
                       P6SM SKC FM251200 02003KT P6SM SKC=
202010241721 TAF KPAE 241721Z 2418/2518 VRB04KT P6SM BKN040 FM242000 35010KT
                       P6SM SCT060 FM250400 36005KT P6SM SKC=
202010241128 TAF KPAE 241128Z 2412/2512 31010KT P6SM OVC050 FM241800 02012G22KT
                       P6SM SCT060 FM250400 05005KT P6SM SKC=
202010240528 TAF KPAE 240528Z 2406/2506 33013KT P6SM -RA OVC005 FM241200 35014G22KT
                       4SM BR BKN030 FM241800 02012G22KT P6SM SCT040=
202010240307 KPAE 240307Z 2403/2424 34010KT 3SM BR BKN002 OVC015
                      TEMPO 2403/2406 1/2SM FG VV001 FM240600 36012KT
                       P6SM OVC015 FM240800 36014KT P6SM OVC025
                       FM241200 02014G22KT P6SM BKN030 FM241800
                       02012G22KT P6SM SCT040=
202010232321 TAF KPAE 232321Z 2400/2424 16013KT P6SM OVC020 FM240400 01006KT
                       6SM BR OVC015 FM241200 35003KT P6SM BKN050=
202010231725 TAF KPAE 231725Z 2318/2418 14012KT 6SM -RA OVC050 FM232100 15010KT
                       2SM -RA BR OVC010 FM240000 05005KT 2SM -RA
                       BR OVC007 FM240400 01006KT 6SM BR OVC015
                       FM241200 35003KT P6SM BKN050=
202010231133 TAF KPAE 231133Z 2312/2412 00000KT P6SM SCT200 FM231400 12006KT
                       4SM -RA BR OVC025 FM231800 14012KT 2SM -RA
                       BR OVC007 FM240400 01006KT 6SM BR OVC015=
202010230525 TAF KPAE 230525Z 2306/2406 00000KT P6SM SCT200 FM231400 12006KT
                       4SM -RA BR OVC025 FM231800 14008KT 2SM -RA
                       BR OVC007=
202010222326 TAF KPAE 222326Z 2300/2324 32004KT P6SM SCT200 FM230200 00000KT
                       P6SM SCT200 FM231400 12006KT 4SM -RA BR
                       OVC025 FM231800 14008KT 2SM -RA BR OVC007=
202010221729 TAF KPAE 221729Z 2218/2318 18004KT P6SM OVC004 FM221900 32003KT
                       P6SM SCT200 FM231400 12006KT P6SM OVC025=
202010221536 KPAE 221536Z 2216/2312 00000KT 2SM BR BKN004 BKN020
                      TEMPO 2216/2218 1/2SM FG VV002 FM221800 32004KT
                       P6SM SCT250=
202010221305 KPAE 221305Z 2213/2312 00000KT 5SM BR BKN004 BKN020 FM221800 32004KT
                       P6SM SCT250=
202010221126 TAF KPAE 221126Z 2212/2312 00000KT 5SM BR SCT004 FM221800 32004KT
                       P6SM SCT250=
202010220543 TAF KPAE 220543Z 2206/2306 00000KT P6SM FEW250 FM221400 00000KT
                       4SM BR SCT004 BKN020 FM221800 32004KT P6SM
                       SCT250=
202010212337 TAF KPAE 212337Z 2200/2224 34008KT P6SM SCT250 FM220200 00000KT
                       P6SM SCT050 SCT250 FM220600 00000KT P6SM
                       FEW250 FM221400 00000KT 4SM BR SCT004 BKN020
                       FM221800 32004KT P6SM SCT250=
202010211737 TAF KPAE 211737Z 2118/2218 21004KT P6SM BKN025 BKN035 FM212100
                       34006KT P6SM SCT025 BKN050 FM220200 00000KT
                       P6SM SCT050 SCT250 FM220600 00000KT P6SM
                       FEW250 FM221400 00000KT 4SM BR SCT004=
202010211304 KPAE 211304Z 2113/2212 33010KT P6SM VCSH SCT020 BKN050 FM211600
                       36006KT P6SM FEW020 BKN050 FM212100 36008KT
                       P6SM BKN050 FM220200 03008KT P6SM SCT050
                       SCT250 FM220600 06006KT P6SM FEW250=
202010211120 TAF KPAE 211120Z 2112/2212 33004KT P6SM VCSH BKN020 BKN070
                      TEMPO 2112/2116 -SHRA BKN010 FM211600 36006KT
                       P6SM FEW020 BKN050 FM212100 36008KT P6SM
                       BKN050 FM220200 03008KT P6SM SCT050 SCT250
                       FM220600 06006KT P6SM FEW250=
202010210752 KPAE 210752Z 2108/2206 01005KT P6SM VCSH SCT025 BKN050
                      TEMPO 2108/2112 -SHRA BKN015 FM211200 18007KT
                       P6SM OVC050 FM211800 32004KT P6SM VCSH SCT025
                       BKN040=
202010210523 TAF KPAE 210523Z 2106/2206 01005KT P6SM VCSH SCT040 BKN070 FM211200
                       18007KT P6SM OVC050 FM211800 32004KT P6SM
                       VCSH SCT025 BKN040=
202010202332 TAF KPAE 202332Z 2100/2124 31004KT P6SM BKN080 FM210600 24005KT
                       P6SM -SHRA SCT025 OVC040 FM211200 24005KT
                       P6SM -SHRA BKN025 OVC050 FM211800 32004KT
                       P6SM SCT025 BKN040=
202010201732 TAF KPAE 201732Z 2018/2118 18004KT P6SM SCT040 BKN050 FM210400
                       24005KT P6SM VCSH SCT025 OVC050 FM210800
                       24005KT P6SM VCSH BKN025 OVC050=
202010201121 TAF KPAE 201121Z 2012/2112 11004KT P6SM BKN025 FM202100 20008KT
                       P6SM OVC030 FM210300 20005KT P6SM VCSH SCT025
                       OVC050 FM210600 VRB05KT P6SM -SHRA OVC025=
202010200520 TAF KPAE 200520Z 2006/2106 VRB04KT P6SM SCT020 FM200900 16004KT
                       P6SM OVC010 FM202000 27004KT P6SM OVC040=
202010192340 TAF KPAE 192340Z 2000/2024 30007KT P6SM VCSH BKN030 OVC040 FM200600
                       VRB05KT P6SM OVC025 FM200900 16004KT P6SM
                       OVC010 FM202000 27004KT P6SM OVC040=
202010191730 TAF KPAE 191730Z 1918/2018 31004KT P6SM BKN002 BKN010 OVC035 FM192000
                       32008KT P6SM VCSH BKN015 OVC025 FM192200
                       30007KT P6SM VCSH BKN025 OVC040 FM200600
                       VRB05KT P6SM OVC015 FM200900 16004KT P6SM
                       OVC007=
202010190825 KPAE 190825Z 1908/2006 VRB04KT P6SM VCSH OVC008
                      TEMPO 1908/1911 2SM -SHRA BKN006 FM191100
                       18005KT P6SM OVC008 FM191700 26006KT P6SM
                       BKN015 FM192200 30007KT P6SM VCSH BKN025=
202010190520 TAF KPAE 190520Z 1906/2006 36005KT P6SM VCSH OVC008
                      TEMPO 1906/1909 -SHRA FM190900 18005KT P6SM
                       OVC008 FM191700 26006KT P6SM BKN015 FM192200
                       30007KT P6SM VCSH BKN025=
202010190110 KPAE 190110Z 1901/1924 02005KT P6SM SCT015 BKN025 OVC040 FM190800
                       18007KT P6SM SCT005 OVC015 FM191700 26006KT
                       P6SM BKN015 FM192200 30007KT P6SM BKN025=
202010182320 TAF KPAE 182320Z 1900/1924 02005KT 1SM BR BKN002 OVC010 FM190300
                       VRB04KT 3SM BR BKN005 BKN015 FM190800 18007KT
                       P6SM SCT005 OVC015 FM191700 26006KT P6SM
                       BKN015 FM192200 30007KT P6SM BKN025=
202010182057 KPAE 182057Z 1821/1918 33005KT 3SM -DZ BR SCT002 OVC006
                      TEMPO 1821/1824 1SM -DZ BR BKN002 OVC006
                       FM190000 33006KT P6SM -SHRA BKN010 OVC030
                       FM190700 33010KT P6SM VCSH BKN020 FM191700
                       33010KT P6SM BKN030=
202010181720 TAF KPAE 181720Z 1818/1918 18012KT P6SM SCT008 OVC015
                      TEMPO 1818/1820 5SM -RA BR BKN008 OVC015
                       FM182100 22012G22KT P6SM VCSH BKN025 OVC040
                       FM190000 25012KT P6SM -SHRA VCSH BKN030
                       FM190700 30010KT P6SM VCSH BKN020 FM191700
                       32010KT P6SM BKN030=
202010181126 TAF KPAE 181126Z 1812/1912 18012G18KT P6SM -RA SCT020 OVC025
                      TEMPO 1812/1816 5SM -RA BR OVC018 FM182000
                       21012G18KT P6SM -SHRA BKN020 OVC040 FM190000
                       VRB05KT P6SM -SHRA OVC020 FM190700 18008KT
                       P6SM VCSH SCT012 OVC020=
202010180903 KPAE 180903Z 1809/1906 18010KT 4SM -RA BR SCT015 OVC050 FM181200
                       18010KT 4SM -RA BR OVC015 FM181800 18010KT
                       P6SM -SHRA BKN015 OVC040 FM182100 21012KT
                       P6SM VCSH BKN025 BKN050=
202010180520 TAF KPAE 180520Z 1806/1906 15006KT P6SM VCSH SCT030 OVC045 FM180900
                       18010KT 5SM -RA BR OVC015 FM181800 18010KT
                       P6SM -SHRA BKN015 OVC040 FM182100 21012KT
                       P6SM VCSH BKN025 BKN050=
202010180219 KPAE 180219Z 1802/1824 16006KT P6SM -RA BKN050 OVC100 FM180700
                       18010KT 5SM -RA BR OVC015 FM181800 18010KT
                       P6SM -SHRA BKN015 OVC040 FM182100 21012KT
                       P6SM VCSH BKN025 BKN050=
202010172320 TAF KPAE 172320Z 1800/1824 19005KT P6SM -RA BKN020 OVC050 FM180900
                       18010KT 5SM -RA BR OVC015 FM181800 18010KT
                       P6SM -SHRA BKN015 OVC040 FM182100 21012KT
                       P6SM VCSH BKN025 BKN050=
202010171910 KPAE 171910Z 1719/1818 17010KT P6SM OVC012 FM172000 18008KT P6SM
                       BKN015 BKN050 OVC100 FM180000 18008KT P6SM
                       -RA BKN015 OVC040 FM181200 18008KT P6SM
                       -RA OVC012 FM181700 21008KT P6SM VCSH BKN025
                       BKN050=
202010171728 TAF KPAE 171728Z 1718/1818 17007KT P6SM BKN005 OVC015
                      TEMPO 1718/1720 3SM BR OVC005 FM172000 18008KT
                       P6SM BKN010 BKN050 OVC100 FM180000 18008KT
                       P6SM -RA BKN015 OVC040 FM181200 18008KT
                       P6SM -RA OVC012 FM181700 21008KT P6SM VCSH
                       BKN025 BKN050=
202010171120 TAF KPAE 171120Z 1712/1812 18005KT P6SM OVC005
                      TEMPO 1712/1716 OVC003 FM171800 20007KT P6SM
                       OVC012 FM172000 22006KT P6SM SCT020 BKN050
                       OVC100 FM180600 18010KT P6SM OVC020=
202010170520 TAF KPAE 170520Z 1706/1806 35006KT P6SM SCT010 OVC025
                      TEMPO 1706/1709 BKN010 FM170900 VRB04KT P6SM
                       OVC008 FM171800 20007KT P6SM OVC012 FM172000
                       22006KT P6SM SCT020 BKN050=
202010170137 KPAE 170137Z 1702/1724 36006KT P6SM SCT002 SCT006 OVC012
                      TEMPO 1702/1704 1 1/2SM -SHRA SCT002 BKN006
                       OVC012 FM170600 VRB04KT P6SM OVC006 FM171900
                       VRB04KT P6SM SCT020 BKN050=
202010162320 TAF KPAE 162320Z 1700/1724 30008KT P6SM SCT020 BKN040
                      TEMPO 1700/1703 4SM -SHRA BKN020 OVC040 FM170600
                       VRB04KT P6SM BKN015 FM171800 VRB04KT P6SM
                       SCT020 OVC100=
202010162241 KPAE 162241Z 1623/1718 VRB06KT 2SM -RA BR BKN025 OVC040 FM170000
                       30008KT P6SM -SHRA BKN015 OVC030 FM170600
                       VRB04KT P6SM BKN012 FM171200 00000KT P6SM
                       OVC012=
202010161723 TAF KPAE 161723Z 1618/1718 18015G22KT P6SM -RA OVC012 FM162100
                       21015G25KT P6SM -RA BKN012 OVC030 FM170000
                       30008KT P6SM -SHRA BKN015 OVC030 FM170600
                       VRB04KT P6SM BKN012 FM171200 00000KT P6SM
                       OVC012=
202010161316 KPAE 161316Z 1613/1712 17009KT P6SM BKN021 OVC050 FM161900 18016G24KT
                       2SM -RA BR OVC009 FM170300 28004KT P6SM
                       OVC025=
202010161120 TAF KPAE 161120Z 1612/1712 14007KT P6SM BKN045 OVC050 FM161900
                       18016G24KT 2SM -RA BR OVC009 FM170300 28004KT
                       P6SM OVC025=
202010160520 TAF KPAE 160520Z 1606/1706 VRB03KT P6SM OVC060 FM161100 17009KT
                       P6SM OVC035 FM161900 18016G24KT 5SM -RA
                       BR OVC009 FM162300 22010KT 4SM -SHRA BR
                       BKN012 OVC025 FM170300 31004KT P6SM OVC025=
202010152320 TAF KPAE 152320Z 1600/1624 35003KT P6SM BKN090 OVC200 FM160600
                       VRB04KT P6SM OVC060 FM161100 17009KT P6SM
                       OVC035 FM161600 17012G18KT 6SM -RA BR OVC018
                       FM161900 18016G24KT 5SM -RA BR OVC009 FM162300
                       22010KT 6SM -SHRA BR BKN012 OVC025=
202010151751 TAF KPAE 151751Z 1518/1618 VRB03KT P6SM SCT030 BKN045 FM152000
                       35003KT P6SM BKN120 BKN200 FM160700 15005KT
                       P6SM OVC050 FM161700 17012G18KT 6SM -RA
                       BR OVC020=
202010151409 KPAE 151409Z 1514/1612 VRB03KT P6SM SCT030 BKN045 FM152000 35003KT
                       P6SM BKN120 BKN200 FM160700 15005KT P6SM
                       OVC050=
202010151120 TAF KPAE 151120Z 1512/1612 VRB02KT 5SM BR OVC007 FM152000 35003KT
                       P6SM SCT010 BKN120 BKN200 FM160700 15005KT
                       P6SM OVC050=
202010150520 TAF KPAE 150520Z 1506/1606 34008KT P6SM SKC FM151000 07003KT P6SM
                       SCT010 BKN050 FM151300 VRB02KT 5SM BR OVC007
                       FM152000 35003KT P6SM SCT010 BKN120 BKN200
                       FM160300 VRB02KT P6SM OVC050=
202010142322 TAF KPAE 142322Z 1500/1524 34005KT P6SM BKN045 BKN070 FM150200
                       35005KT P6SM SCT045 BKN200 FM151000 VRB03KT
                       P6SM SCT010 BKN050 FM151300 VRB03KT 5SM
                       BR OVC007 FM151900 36005KT P6SM SCT010 BKN120
                       BKN200=
202010141734 TAF KPAE 141734Z 1418/1518 16006KT P6SM VCSH SCT012 BKN040
                      TEMPO 1418/1421 BKN010 FM142100 30005KT P6SM
                       BKN045 BKN070 FM150200 34005KT P6SM SCT045
                       BKN200 FM151000 VRB03KT P6SM SCT010 BKN030
                       FM151300 VRB03KT 5SM BR OVC006=
202010141436 KPAE 141436Z 1415/1512 VRB05KT P6SM SCT010 BKN035
                      TEMPO 1415/1418 2SM RA BR OVC008 FM142000
                       30005KT P6SM BKN045 BKN070 FM150200 35003KT
                       P6SM OVC050 FM151000 VRB03KT P6SM OVC025=
202010141120 TAF KPAE 141120Z 1412/1512 VRB05KT P6SM BKN040 BKN045 FM142000
                       30005KT P6SM BKN045 BKN070 FM150200 35003KT
                       P6SM OVC050 FM151000 VRB03KT P6SM OVC025=
202010140532 TAF KPAE 140532Z 1406/1506 10007KT P6SM VCSH SCT035 SCT050 BKN070
                       FM140800 22011KT P6SM VCSH BKN040 FM141300
                       19008KT P6SM OVC030 FM142000 32005KT P6SM
                       BKN045 BKN070 FM150200 35003KT P6SM OVC050=
202010132323 TAF KPAE 132323Z 1400/1424 21017G22KT P6SM VCSH SCT035 BKN070 FM140400
                       23013G20KT P6SM VCSH BKN045 FM140800 22011KT
                       P6SM VCSH BKN040 FM141300 19008KT P6SM OVC030
                       FM142000 32005KT P6SM BKN045 BKN070=
202010132101 KPAE 132101Z 1321/1418 22015G25KT P6SM VCSH BKN035 BKN200 FM140400
                       23013G20KT P6SM -RA BKN025 OVC050 FM140700
                       22011KT P6SM -SHRA BKN030=
202010131720 TAF KPAE 131720Z 1318/1418 18020G30KT P6SM VCSH SCT005 OVC015 WS020/21040KT
                       TEMPO 1318/1321 BKN005 FM132100 23015G25KT
                       6SM -SHRA BR BKN015 OVC040 FM140400 23013G20KT
                       P6SM -RA BKN025 OVC050 FM140700 22011KT
                       P6SM -SHRA BKN030=
202010131428 KPAE 131428Z 1314/1412 16014G22KT 3SM -RA BR BKN008 OVC025 FM132100
                       23015G25KT 6SM -SHRA BR BKN025 OVC040 FM140400
                       23013KT P6SM -RA BKN025 OVC050 FM140700
                       22011KT P6SM -SHRA OVC050=
202010131122 TAF KPAE 131122Z 1312/1412 13011KT 6SM -RA BR OVC025 FM131600 19014G22KT
                       5SM -RA BR OVC008 FM132100 23015G25KT 6SM
                       -SHRA BR BKN025 OVC040 FM140400 23013KT
                       P6SM -RA BKN025 OVC050 FM140700 22011KT
                       P6SM -SHRA OVC050=
202010130520 TAF KPAE 130520Z 1306/1406 12007KT P6SM SCT050 OVC090 FM131000
                       14011KT 6SM -RA BR OVC015 FM131600 19014G22KT
                       5SM RA BR OVC008 FM132100 23015G25KT 6SM
                       -SHRA BR BKN025 OVC040 FM140400 23013KT
                       P6SM -RA BKN025 OVC050=
202010122330 TAF KPAE 122330Z 1300/1324 14003KT P6SM SCT030 BKN200 FM130500
                       14008KT P6SM BKN050 OVC080 FM131000 14010KT
                       6SM -RA BR OVC015 FM131600 19014G22KT 5SM
                       RA BR OVC008 FM132100 23015G25KT 6SM -SHRA
                       BR BKN025 OVC040=
202010121728 TAF KPAE 121728Z 1218/1318 11005KT P6SM VCSH BKN035 BKN050 FM122100
                       16006KT P6SM SCT045 BKN100 FM130500 14008KT
                       P6SM BKN040 OVC080 FM131000 14010KT 6SM
                       -RA BR OVC015 FM131600 19014G22KT 5SM RA
                       BR OVC008=
202010121131 TAF KPAE 121131Z 1212/1312 01007KT P6SM SCT030 BKN045 FM121700
                       16006KT P6SM SCT025 BKN040 FM122100 16006KT
                       P6SM SCT045 BKN120 OVC200 FM131000 13006KT
                       6SM -RA BR OVC015=
202010120526 TAF KPAE 120526Z 1206/1306 19015G25KT P6SM VCSH SCT006 BKN014 OVC030
                       FM120700 19015G25KT P6SM SCT030 BKN045 FM121400
                       19010KT P6SM BKN020 OVC035 FM121700 16006KT
                       P6SM SCT025 BKN040 FM122100 16006KT P6SM
                       SCT045 BKN120 OVC200=
202010112335 TAF KPAE 112335Z 1200/1224 16012KT 3SM -RA BR BKN006 OVC010 FM120300
                       19015G25KT P6SM -SHRA SCT006 BKN014 OVC030
                       FM120700 19015G25KT P6SM SCT030 BKN045 FM121400
                       19010KT P6SM BKN020 OVC035 FM121700 16006KT
                       P6SM SCT025 BKN040 FM122100 16006KT P6SM
                       SCT045 BKN120 OVC200=
202010111739 TAF KPAE 111739Z 1118/1218 16008KT P6SM -RA SCT025 OVC045 FM112200
                       16008KT 5SM -RA BR SCT006 BKN010 OVC020
                       FM120200 19015G25KT P6SM -SHRA SCT006 BKN014
                       OVC030 FM120700 19015G25KT P6SM SCT030 BKN045
                       FM121400 19010KT P6SM BKN020 OVC035=
202010111122 TAF KPAE 111122Z 1112/1212 18008KT P6SM SCT006 OVC035 FM111900
                       18012KT 2SM -RA BKN007 OVC015 FM120200 17012G20KT
                       4SM -RA BR OVC015=
202010110528 TAF KPAE 110528Z 1106/1206 18008KT P6SM VCSH SCT040 OVC120 FM111200
                       18008KT P6SM SCT006 OVC035 FM111900 18012KT
                       2SM -RA BKN007 OVC015 FM120200 17012G19KT
                       4SM -RA BR OVC015=
202010102333 TAF KPAE 102333Z 1100/1124 VRB03KT P6SM SCT010 BKN060 FM110400
                       18008KT P6SM SCT025 BKN050 FM111100 18008KT
                       P6SM -RA SCT006 OVC011 FM111900 18008KT
                       2SM -RA OVC006=
202010101740 TAF KPAE 101740Z 1018/1118 20012G20KT P6SM BKN008 OVC015 FM102000
                       20012KT 4SM -SHRA SCT004 BKN008 OVC015 FM102300
                       18008KT P6SM SCT010 BKN020 OVC030 FM110300
                       18008KT P6SM SCT020 BKN040 FM111100 18008KT
                       P6SM OVC008=
202010101140 TAF KPAE 101140Z 1012/1112 18014G22KT 6SM -RA SCT010 BKN015 OVC080
                       FM101400 18012G20KT 6SM -RA BKN010 OVC050
                       FM101900 22012G20KT 6SM -SHRA BR SCT020
                       OVC040 FM110100 24011KT P6SM -SHRA OVC070=
202010100520 TAF KPAE 100520Z 1006/1106 18016G24KT 5SM -RA SCT015 OVC020 FM101300
                       18012G20KT 4SM -RA BKN010 OVC020 FM101700
                       22012G20KT 6SM -SHRA BR BKN020 OVC040=
202010092330 TAF KPAE 092330Z 1000/1024 18016G24KT P6SM SCT050 BKN120 OVC250
                       FM100500 18016G24KT P6SM -RA OVC045 FM101100
                       18016G24KT 5SM -RA BKN011 OVC020 FM101700
                       22012G20KT P6SM -SHRA SCT020 BKN035 BKN050
                       FM102300 22010KT 4SM -SHRA SCT008 BKN015
                       OVC030=
202010091720 TAF KPAE 091720Z 0918/1018 17014KT P6SM FEW013 SCT022 FM092100
                       18014G24KT P6SM OVC050 FM100500 18015G22KT
                       4SM -RA BR OVC015 FM101600 21015G20KT 4SM
                       -RA OVC015=
202010091137 TAF KPAE 091137Z 0912/1012 16006KT P6SM SCT015 OVC040 FM092100
                       18014G24KT P6SM OVC050 FM100500 18015G22KT
                       4SM -RA BR OVC015=
202010090524 TAF KPAE 090524Z 0906/1006 01006KT P6SM OVC040 FM091000 17007KT
                       6SM BR OVC015 FM092100 18014G21KT P6SM OVC050=
202010082330 TAF KPAE 082330Z 0900/0924 01006KT P6SM FEW001 BKN028 OVC035 FM091000
                       17007KT 6SM BR OVC015 FM092100 18014G21KT
                       P6SM OVC050=
202010081727 TAF KPAE 081727Z 0818/0918 19009KT P6SM OVC006 FM082200 21008KT
                       P6SM OVC040 FM090700 17007KT P6SM OVC015
                       FM091300 16010KT 6SM BR OVC015=
202010081439 KPAE 081439Z 0815/0912 19006KT 2SM BR OVC003 FM082000 20008KT P6SM
                       OVC015 FM082200 21008KT P6SM OVC040 FM090700
                       17007KT P6SM OVC015=
202010081350 KPAE 081350Z 0814/0912 21006KT 6SM BR OVC002 FM082000 20008KT P6SM
                       OVC015 FM082200 21008KT P6SM OVC040 FM090700
                       17007KT P6SM OVC015=
202010081330 KPAE 081330Z 0814/0912 21006KT 3SM BR OVC001 FM082000 20008KT P6SM
                       OVC015 FM082200 21008KT P6SM OVC040 FM090700
                       17007KT P6SM OVC015=
202010081122 TAF KPAE 081122Z 0812/0912 21006KT 1SM BR OVC002 FM082000 20008KT
                       P6SM OVC015 FM082200 21008KT P6SM OVC040
                       FM090700 17007KT P6SM OVC015=
202010080908 KPAE 080908Z 0809/0906 21006KT 1SM BR OVC002 FM082000 20008KT P6SM
                       OVC015=
202010080531 TAF KPAE 080531Z 0806/0906 VRB03KT 6SM BR FEW003 SCT007 FM080800
                       21006KT P6SM OVC007 FM081200 19006KT 2SM
                       BR OVC002 FM082000 20008KT P6SM OVC015=
202010072322 TAF KPAE 072322Z 0800/0824 VRB03KT 4SM HZ FEW003 SCT008 FM080800
                       21006KT P6SM OVC007 FM081400 19006KT 2SM
                       BR OVC002 FM082000 20008KT P6SM OVC015=
202010071731 TAF KPAE 071731Z 0718/0818 36005KT 1/4SM FG VV001 FM072100 32004KT
                       6SM BR FEW003 SCT200 FM080100 27006KT P6SM
                       SCT120 BKN200 FM080800 21006KT P6SM OVC007
                       FM081400 19006KT 2SM BR OVC001=
202010071137 TAF KPAE 071137Z 0712/0812 00000KT 4SM BR OVC003 FM071300 00000KT
                       1/2SM FG OVC003
                      TEMPO 0714/0717 1/4SM FG VV002 FM072000 28004KT
                       P6SM FEW003 SCT200 FM072300 21006KT P6SM
                       SCT120 BKN200 FM080800 21006KT P6SM OVC007=
202010070534 TAF KPAE 070534Z 0706/0806 34004KT P6SM SKC FM070700 00000KT 2SM
                       BR SCT001 FM070900 00000KT 1/2SM FG VV001
                       FM071900 VRB04KT P6SM FEW003 SCT200 FM072200
                       21006KT P6SM SCT120 BKN200=
202010062335 TAF KPAE 062335Z 0700/0724 VRB06KT P6SM SKC FM070600 00000KT 4SM
                       BR SCT001 FM070900 00000KT 1/2SM FG VV001
                       FM071900 VRB04KT P6SM FEW003 SCT200 FM072200
                       21006KT P6SM SCT120 BKN200=
202010061909 KPAE 061909Z 0619/0718 36005KT P6SM SCT200 FM070600 00000KT 4SM
                       BR SCT001 FM070900 00000KT 1/2SM FG VV001=
202010061721 TAF KPAE 061721Z 0618/0718 36003KT 1/4SM FG VV001
                      TEMPO 0618/0620 5SM BR SCT004 FM062000 36005KT
                       P6SM SCT005 SCT200 FM062200 33005KT P6SM
                       SCT200 FM070600 00000KT 4SM BR SCT001 FM070900
                       00000KT 1/2SM FG VV001=
202010061127 TAF KPAE 061127Z 0612/0712 36003KT 2SM BR OVC001
                      TEMPO 0612/0616 1/4SM FG VV001 FM061900 36005KT
                       P6SM SCT005 FM062100 33005KT P6SM SCT200
                       FM070400 00000KT 1SM BR OVC001=
202010060803 KPAE 060803Z 0608/0706 34004KT 4SM BR SCT001
                      TEMPO 0608/0612 1SM BR VV001 FM061200 36003KT
                       1SM BR OVC001 FM061900 36005KT P6SM SCT005
                       FM062100 33005KT P6SM SCT200=
202010060524 TAF KPAE 060524Z 0606/0706 34002KT P6SM SCT200 FM060900 02004KT
                       5SM BR SCT003 FM061200 36003KT 1SM BR OVC001
                       FM061900 36005KT P6SM SCT005 FM062100 33005KT
                       P6SM SCT200=
202010052323 TAF KPAE 052323Z 0600/0624 34002KT P6SM SCT200 FM060900 02004KT
                       5SM BR SCT003 FM061200 36003KT 1SM BR OVC001
                       FM061900 36005KT 6SM BR SCT005 FM062100
                       33005KT P6SM SCT200=
202010051725 TAF KPAE 051725Z 0518/0618 02004KT 1/4SM FG VV001
                      TEMPO 0518/0521 4SM BR BKN008 FM052100 34007KT
                       P6SM SCT015 FM052300 34002KT P6SM SCT200
                       FM060900 02004KT 3SM BR BKN003=
202010051641 KPAE 051641Z 0517/0612 02004KT 1/4SM FG VV001
                      TEMPO 0517/0519 4SM BR BKN006 FM051900 36006KT
                       5SM BR BKN008 BKN015 FM052000 34007KT P6SM
                       SCT025 FM060200 34002KT P6SM SCT250=
202010051134 TAF KPAE 051134Z 0512/0612 02004KT 2SM BR OVC010
                      TEMPO 0512/0516 1/4SM FG VV001 FM051800 36006KT
                       4SM BR OVC007 FM052000 34007KT P6SM SCT025
                       FM060200 34002KT P6SM SCT250=
202010050525 TAF KPAE 050525Z 0506/0606 00000KT P6SM OVC020 FM050900 00000KT
                       2SM BR OVC010 FM051200 00000KT 1/2SM FG
                       OVC003 FM051900 36006KT P6SM SCT011 BKN025
                       FM052200 36007KT P6SM SCT025 FM060200 34002KT
                       P6SM SCT250=
202010042320 TAF KPAE 042320Z 0500/0524 36003KT P6SM OVC025 FM050600 00000KT
                       4SM BR SCT005 OVC015 FM050900 00000KT 1/2SM
                       FG OVC002 FM052000 36006KT P6SM SCT011 BKN020
                       FM052200 36007KT P6SM SCT025=
202010041929 KPAE 041929Z 0419/0518 36004KT P6SM BKN010 BKN015 OVC023 FM042300
                       32004KT P6SM BKN015 OVC025 FM050700 00000KT
                       2SM BR OVC004 FM051000 00000KT 1/2SM FG
                       OVC002=
202010041723 TAF KPAE 041723Z 0418/0518 VRB04KT 2SM BR OVC005 FM042000 31004KT
                       4SM BR OVC008 FM042300 32004KT 6SM BR OVC015
                       FM050700 00000KT 2SM BR OVC004 FM051000
                       00000KT 1/2SM FG OVC002=
202010041126 TAF KPAE 041126Z 0412/0512 33002KT 1/2SM FG OVC002 FM042000 31004KT
                       4SM BR OVC004 FM042300 32004KT 4SM BR OVC015
                       FM050700 00000KT 2SM BR OVC004=
202010040527 TAF KPAE 040527Z 0406/0506 33002KT 1/4SM FG VV001 FM042000 18004KT
                       4SM BR OVC004 FM042200 18004KT 4SM BR OVC015
                       FM050200 00000KT 1/2SM FG OVC015=
202010040112 KPAE 040112Z 0401/0424 VRB04KT 1/4SM FG VV001 FM042000 18004KT
                       4SM BR OVC004 FM042200 18004KT P6SM OVC015=
202010032322 TAF KPAE 032322Z 0400/0424 VRB04KT 1/4SM FG OVC002
                      TEMPO 0400/0404 2SM BR SCT002 FM042000 18004KT
                       4SM BR OVC004 FM042200 18004KT P6SM OVC015=
202010032146 KPAE 032146Z 0322/0418 28004KT 1/4SM FG OVC002=
202010032024 KPAE 032024Z 0320/0418 28004KT 1/4SM FG OVC001 FM032200 30004KT
                       P6SM BKN012 FM032300 31004KT P6SM SKC FM040900
                       30002KT 1/2SM FG OVC002=
202010031720 TAF KPAE 031720Z 0318/0418 00000KT 1/4SM FG VV001 FM031900 00000KT
                       1SM BR OVC003 FM032100 30004KT P6SM SKC
                       FM040900 30002KT 1/2SM FG OVC002=
202010031136 TAF KPAE 031136Z 0312/0412 00000KT 1/4SM FG VV001 FM031900 00000KT
                       1SM BR OVC003 FM032100 30004KT P6SM SKC
                       FM040900 30002KT 4SM BR OVC004=
202010030521 TAF KPAE 030521Z 0306/0406 35002KT P6SM SKC FM031100 00000KT 1/2SM
                       FG OVC001 FM031900 00000KT 1SM BR OVC003
                       FM032000 30004KT P6SM SKC=
202010022320 TAF KPAE 022320Z 0300/0324 35004KT P6SM SKC FM031100 00000KT 1/2SM
                       FG OVC001 FM031900 00000KT 1SM BR OVC003
                       FM032000 30004KT P6SM SKC=
202010021909 KPAE 021909Z 0219/0318 35003KT 5SM HZ FEW001 FM022000 33004KT P6SM
                       SCT250 FM031100 00000KT 1/2SM FG OVC001=
202010021720 TAF KPAE 021720Z 0218/0318 36004KT 1/4SM FG VV001 FM021900 36004KT
                       1SM BR BKN002 FM022000 33004KT P6SM SCT250
                       FM031100 00000KT 1/2SM FG OVC001=
202010021127 TAF KPAE 021127Z 0212/0312 00000KT 1/4SM FG VV001 FM021800 VRB03KT
                       2SM BR BKN002 FM022000 33004KT P6SM SCT250
                       FM031000 00000KT 2SM BR OVC004=
202010020523 TAF KPAE 020523Z 0206/0306 VRB03KT P6SM BKN250 FM021000 00000KT
                       3SM BR BKN003 FM021200 00000KT 1/4SM FG
                       VV001 FM021800 VRB03KT 2SM BR BKN002 FM022000
                       33003KT P6SM SCT250=
202010012325 TAF KPAE 012325Z 0200/0224 35005KT P6SM BKN250 FM020300 00000KT
                       P6SM BKN250 FM021000 00000KT 3SM BR BKN003
                       FM021200 00000KT 1/4SM FG VV001 FM021800
                       VRB03KT 2SM BR BKN002 FM022000 33003KT P6SM
                       SCT250=
202010011921 KPAE 011921Z 0119/0218 00000KT 5SM HZ FEW001 BKN250 FM012000 33005KT
                       P6SM BKN250 FM020300 VRB03KT P6SM SCT200
                       FM021000 00000KT 3SM BR BKN003 FM021200
                       00000KT 1/4SM FG VV001=
202010011720 TAF KPAE 011720Z 0118/0218 00000KT 1/4SM FG VV001 FM011900 VRB03KT
                       1SM BR OVC003 FM012000 33005KT P6SM SCT200
                       FM020300 VRB03KT P6SM SCT200 FM021000 00000KT
                       3SM BR BKN003 FM021200 00000KT 1/4SM FG
                       VV001=
202010011252 KPAE 011252Z 0113/0212 36006KT 1SM BR OVC002
                      TEMPO 0113/0116 1/4SM FG FM011900 34004KT
                       P6SM SCT200 FM020900 00000KT 4SM BR OVC007=
202010011125 TAF KPAE 011125Z 0112/0212 VRB03KT 2SM BR OVC002
                      TEMPO 0112/0116 1/2SM FG FM012000 34004KT
                       P6SM SCT200 FM020900 00000KT 4SM BR OVC007=
202010010527 TAF KPAE 010527Z 0106/0206 VRB04KT P6SM SCT060 BKN200 FM011000
                       VRB03KT 4SM BR OVC005 FM012000 33004KT P6SM
                       SCT200 FM020300 00000KT P6SM SCT200=