##########################################################
# Query made at 02/15/2025 22:23:08 UTC
# Time interval: from 12/01/2020 00:00  to 12/31/2020 23:59  UTC
##########################################################

##########################################################
# KPAE, Everett, Snohomish County Airport (United States)
# WMO index: -----. WIGOS ID: Unknown
# Latitude 47-55-23N. Longitude 122-16-57W. Altitude 184 m.
##########################################################

###################################
#  METAR/SPECI from KPAE
###################################
202012312353 METAR KPAE 312353Z 16010KT 10SM OVC021 08/06 A3010 RMK AO2 SLP193 60000 T00830056 10089 20072 53012=
202012312300 SPECI KPAE 312300Z 18008KT 10SM OVC025 09/06 A3009 RMK AO2 T00890061=
202012312253 METAR KPAE 312253Z 17012KT 10SM BKN008 BKN013 OVC020 09/06 A3008 RMK AO2 SLP188 T00890061=
202012312156 SPECI KPAE 312156Z 18010KT 10SM BKN008 BKN013 OVC020 09/07 A3006 RMK AO2 T00890067=
202012312153 METAR KPAE 312153Z 18010KT 5SM BR FEW009 BKN013 OVC020 09/07 A3006 RMK AO2 RAB19E28 SLP182 P0000 T00890067=
202012312053 METAR KPAE 312053Z 19008KT 5SM BR BKN005 BKN009 OVC013 08/07 A3006 RMK AO2 SLP181 60000 T00830072 50011=
202012312000 SPECI KPAE 312000Z 20008KT 5SM BR BKN005 BKN009 OVC013 08/07 A3006 RMK AO2 T00830072=
202012311953 METAR KPAE 311953Z 20009KT 1 3/4SM BR BKN005 BKN009 OVC013 08/07 A3007 RMK AO2 RAB00E09 SLP184 P0000 T00830072=
202012311930 SPECI KPAE 311930Z 19007KT 1 3/4SM BR OVC004 08/07 A3006 RMK AO2 RAB00E09 P0000 T00830072=
202012311909 SPECI KPAE 311909Z 19004KT 2SM R16R/5000VP6000FT BR BKN003 OVC012 08/07 A3006 RMK AO2 RAB00E09 P0000 T00780072=
202012311905 SPECI KPAE 311905Z 19004KT 1 3/4SM R16R/5000VP6000FT -RA BR SCT003 BKN008 OVC015 08/07 A3006 RMK AO2 RAB00 P0000 T00780072=
202012311856 SPECI KPAE 311856Z 18005KT 1 3/4SM R16R/5500VP6000FT BR FEW003 BKN013 OVC018 08/07 A3006 RMK AO2 T00780072=
202012311853 METAR KPAE 311853Z 19005KT 2SM R16R/5500VP6000FT BR BKN005 BKN009 OVC016 08/07 A3006 RMK AO2 RAB11E28 SLP181 P0000 T00780067=
202012311800 SPECI KPAE 311800Z 21006KT 10SM BKN003 OVC049 07/07 A3003 RMK AO2 T00720067=
202012311753 METAR KPAE 311753Z 23005KT 10SM BKN009 BKN043 OVC049 07/07 A3003 RMK AO2 SLP171 60002 T00720067 10083 20072 53042=
202012311653 METAR KPAE 311653Z 21004KT 10SM BKN005 OVC018 07/07 A2998 RMK AO2 RAB17E26 SLP155 P0001 T00720067=
202012311553 METAR KPAE 311553Z 22008KT 9SM BKN005 OVC018 08/07 A2994 RMK AO2 RAB15E48 SLP141 P0001 T00780072=
202012311453 METAR KPAE 311453Z 20008KT 5SM BR OVC005 08/07 A2990 RMK AO2 SLP128 T00830072 53039=
202012311353 METAR KPAE 311353Z AUTO 19012KT 3SM BR OVC006 08/07 A2986 RMK AO2 SLP113 T00830072=
202012311303 SPECI KPAE 311303Z AUTO 20015G21KT 8SM OVC009 08/07 A2983 RMK AO2 T00830067=
202012311253 METAR KPAE 311253Z AUTO 19015G22KT 10SM OVC010 08/07 A2982 RMK AO2 SLP101 T00830067=
202012311153 METAR KPAE 311153Z AUTO 20015G24KT 10SM OVC011 08/07 A2978 RMK AO2 PK WND 19029/1059 SLP088 60000 70023 T00830067 10083 20072 53021=
202012311053 METAR KPAE 311053Z AUTO 18023G29KT 10SM BKN010 OVC015 08/06 A2975 RMK AO2 PK WND 17035/1022 SLP076 T00830061=
202012311039 SPECI KPAE 311039Z AUTO 17019G29KT 10SM BKN011 OVC015 08/06 A2974 RMK AO2 PK WND 17035/1022 T00780061=
202012311027 SPECI KPAE 311027Z AUTO 18022G35KT 10SM BKN009 OVC016 08/06 A2973 RMK AO2 PK WND 17035/1022 CIG 007V012 T00780061=
202012311017 SPECI KPAE 311017Z AUTO 18023G32KT 10SM BKN010 BKN013 OVC018 08/06 A2973 RMK AO2 PK WND 18032/1016 CIG 006V010 T00780061=
202012310953 METAR KPAE 310953Z AUTO 17020G29KT 10SM BKN009 OVC016 08/06 A2972 RMK AO2 PK WND 18033/0941 CIG 005V014 SLP066 T00780061=
202012310948 SPECI KPAE 310948Z AUTO 17020G33KT 10SM SCT008 OVC011 08/06 A2972 RMK AO2 PK WND 18033/0941=
202012310940 SPECI KPAE 310940Z AUTO 17022G32KT 10SM OVC010 08/06 A2972 RMK AO2 PK WND 16032/0939 CIG 005V015 T00780061=
202012310853 METAR KPAE 310853Z AUTO 17019G28KT 10SM BKN009 OVC015 08/06 A2972 RMK AO2 PK WND 15029/0822 CIG 006V012 SLP067 60000 T00780061 53002=
202012310832 SPECI KPAE 310832Z AUTO 17017G28KT 8SM SCT008 BKN012 OVC018 07/06 A2972 RMK AO2 PK WND 15029/0822 T00720061=
202012310812 SPECI KPAE 310812Z AUTO 17016G24KT 6SM BR BKN008 OVC014 07/06 A2972 RMK AO2 T00720061=
202012310753 METAR KPAE 310753Z AUTO 17017G26KT 10SM OVC010 07/06 A2972 RMK AO2 PK WND 17028/0657 CIG 006V014 SLP065 T00720056 400780044=
202012310706 SPECI KPAE 310706Z AUTO 17018G28KT 10SM BKN009 OVC016 07/06 A2971 RMK AO2 PK WND 17028/0657 CIG 007V012 T00720056=
202012310653 METAR KPAE 310653Z AUTO 17017G28KT 10SM BKN012 OVC018 07/06 A2971 RMK AO2 PK WND 16031/0617 RAB0559E41 SLP063 P0000 T00720056=
202012310626 SPECI KPAE 310626Z AUTO 16022G31KT 6SM -RA BR FEW009 BKN014 OVC100 07/06 A2971 RMK AO2 PK WND 16031/0617 RAB0559 P0000 T00720056=
202012310618 SPECI KPAE 310618Z AUTO 16022G31KT 6SM -RA BR SCT009 BKN029 OVC100 07/06 A2971 RMK AO2 PK WND 16031/0617 RAB0559 P0000 T00720056=
202012310553 METAR KPAE 310553Z AUTO 17017G28KT 10SM SCT011 BKN032 OVC100 07/05 A2972 RMK AO2 PK WND 16032/0520 SLP065 60003 T00720050 10078 20067 53002=
202012310508 SPECI KPAE 310508Z AUTO 17018G29KT 10SM SCT012 BKN100 07/05 A2970 RMK AO2 PK WND 15030/0456 T00720050=
202012310453 METAR KPAE 310453Z AUTO 16021G29KT 10SM SCT012 BKN026 BKN095 07/05 A2970 RMK AO2 PK WND 16029/0444 SLP058 T00720050=
202012310353 METAR KPAE 310353Z 17016G24KT 10SM BKN018 07/05 A2971 RMK AO2 PK WND 17027/0340 RAE0256 SLP063 P0000 T00720050=
202012310311 SPECI KPAE 310311Z 15017G26KT 10SM BKN025 OVC030 07/04 A2970 RMK AO2 PK WND 15026/0311 RAE0256 P0000 T00720044=
202012310253 METAR KPAE 310253Z 14008KT 10SM -RA SCT030 OVC039 07/04 A2971 RMK AO2 SLP063 P0002 60003 T00670044 55007=
202012310153 METAR KPAE 310153Z 15013KT 8SM -RA FEW040 OVC048 07/04 A2970 RMK AO2 RAB28 SLP060 P0001 T00670039=
202012310053 METAR KPAE 310053Z 15012KT 10SM FEW042 BKN050 07/04 A2971 RMK AO2 RAE34 SLP062 P0000 T00670039=
202012302353 METAR KPAE 302353Z 14014KT 10SM -RA SCT039 OVC048 07/04 A2973 RMK AO2 RAE2254B09E22B24 SLP070 P0001 60010 T00670044 10072 20050 56028=
202012302300 SPECI KPAE 302300Z 14008G19KT 10SM BKN035 BKN043 OVC085 07/04 A2976 RMK AO2 RAE2254 P0000 T00670044=
202012302253 METAR KPAE 302253Z 15012G19KT 10SM -RA BKN029 OVC042 07/04 A2976 RMK AO2 RAE01B32 SLP082 P0000 T00670044=
202012302153 METAR KPAE 302153Z 15011KT 9SM -RA FEW020 BKN024 OVC033 07/04 A2977 RMK AO2 SLP086 P0000 T00670044=
202012302053 METAR KPAE 302053Z 15009KT 9SM -RA SCT020 BKN026 OVC031 06/04 A2981 RMK AO2 RAE00B27 SLP099 P0002 60009 T00560044 56026=
202012301953 METAR KPAE 301953Z 12007KT 090V170 8SM -RA OVC007 06/04 A2982 RMK AO2 RAE1857B43 CIG 005V011 PRESFR SLP102 P0000 T00560044=
202012301853 METAR KPAE 301853Z 15008KT 10SM -RA BKN006 BKN016 OVC037 05/04 A2986 RMK AO2 SLP114 P0007 T00500039=
202012301826 SPECI KPAE 301826Z 16012KT 6SM -RA BR SCT009 BKN012 OVC028 05/04 A2987 RMK AO2 P0006 T00500039=
202012301800 SPECI KPAE 301800Z 15012G18KT 3SM -RA BR SCT014 BKN020 OVC027 05/03 A2989 RMK AO2 P0001 T00500033=
202012301753 METAR KPAE 301753Z 15011KT 4SM -RA BR BKN012 BKN022 OVC080 05/03 A2989 RMK AO2 RAB19 SLP126 P0003 60010 T00500033 10056 20050 55025=
202012301700 SPECI KPAE 301700Z 16010G21KT 10SM BKN012 BKN022 OVC080 06/04 A2987 RMK AO2 T00560039=
202012301653 METAR KPAE 301653Z 15013G21KT 10SM BKN005 OVC022 06/04 A2984 RMK AO2 RAE50 SLP109 P0004 T00560039=
202012301553 METAR KPAE 301553Z 15010KT 2SM -RA BR BKN004 BKN007 OVC035 05/04 A2996 RMK AO2 RAB28 SLP147 P0001 T00500039=
202012301534 SPECI KPAE 301534Z 15011KT 1SM R16R/P6000FT -RA BR BKN004 OVC035 05/04 A2995 RMK AO2 RAB28 P0001 T00500039=
202012301529 SPECI KPAE 301529Z 16012KT 2 1/2SM -RA BR BKN004 OVC014 05/04 A2995 RMK AO2 RAB28 P0001 T00500039=
202012301453 METAR KPAE 301453Z 14014G21KT 9SM BKN008 OVC014 05/04 A2997 RMK AO2 RAE31B37E46 SLP151 P0001 60002 T00500039 58021=
202012301450 SPECI KPAE 301450Z 15018KT 10SM BKN008 OVC014 05/04 A2997 RMK AO2 RAE31B37E46 P0001=
202012301432 SPECI KPAE 301432Z AUTO 16015G22KT 10SM BKN010 OVC016 05/04 A2999 RMK AO2 RAE31 P0001 T00500039=
202012301424 SPECI KPAE 301424Z AUTO 16017G22KT 10SM -RA SCT010 BKN016 OVC021 06/04 A3000 RMK AO2 P0001 T00560039=
202012301410 SPECI KPAE 301410Z AUTO 16014G21KT 10SM -RA SCT008 BKN014 OVC020 06/04 A3000 RMK AO2 P0001 T00560039=
202012301353 METAR KPAE 301353Z AUTO 16012KT 10SM -RA BKN008 BKN016 OVC023 05/04 A3001 RMK AO2 SLP165 P0001 T00500039=
202012301338 SPECI KPAE 301338Z AUTO 15012KT 10SM -RA FEW009 BKN023 OVC036 06/04 A3002 RMK AO2 P0001 T00560039=
202012301306 SPECI KPAE 301306Z AUTO 17013G20KT 10SM -RA FEW009 BKN014 OVC020 06/04 A3003 RMK AO2 P0001 T00560039=
202012301259 SPECI KPAE 301259Z AUTO 16012G20KT 10SM -RA FEW004 SCT010 OVC016 06/04 A3003 RMK AO2 P0001 T00560044=
202012301253 METAR KPAE 301253Z AUTO 16016G20KT 10SM -RA SCT004 BKN008 OVC018 06/04 A3003 RMK AO2 RAE1159B19 SLP172 P0000 T00560044=
202012301249 SPECI KPAE 301249Z AUTO 17012G22KT 10SM -RA SCT004 BKN008 OVC020 06/04 A3003 RMK AO2 RAE1159B19 P0000=
202012301230 SPECI KPAE 301230Z AUTO 16016KT 10SM -RA BKN004 OVC011 05/04 A3003 RMK AO2 RAE1159B19 CIG 003V008 P0000 T00500039=
202012301209 SPECI KPAE 301209Z AUTO 16016G23KT 10SM FEW004 BKN007 OVC022 05/04 A3004 RMK AO2 RAE1159 P0000 T00500039=
202012301153 METAR KPAE 301153Z AUTO 16015G20KT 9SM -RA SCT007 BKN013 OVC020 05/04 A3004 RMK AO2 SLP177 P0000 60008 70026 T00500039 10050 20044 56022=
202012301133 SPECI KPAE 301133Z AUTO 15014G24KT 10SM -RA FEW006 BKN015 OVC021 05/04 A3005 RMK AO2 P0000 T00500039=
202012301106 SPECI KPAE 301106Z AUTO 15015G20KT 8SM -RA SCT003 BKN010 OVC013 05/04 A3006 RMK AO2 CIG 008V012 P0000 T00500039=
202012301053 METAR KPAE 301053Z AUTO 15010G22KT 6SM -RA BR BKN003 OVC016 04/04 A3007 RMK AO2 PK WND 17026/1007 RAB18 SLP186 P0001 T00440039=
202012301031 SPECI KPAE 301031Z AUTO 16017G21KT 5SM -RA BR BKN004 BKN027 OVC035 04/03 A3008 RMK AO2 PK WND 17026/1007 RAB18 P0000 T00440033=
202012301024 SPECI KPAE 301024Z AUTO 16017KT 6SM -RA BR BKN006 BKN027 BKN035 04/03 A3008 RMK AO2 PK WND 17026/1007 RAB18 P0000 T00440033=
202012301006 SPECI KPAE 301006Z AUTO 17020G26KT 10SM FEW006 SCT013 BKN120 04/03 A3008 RMK AO2 PK WND 17026/0958 T00440033=
202012300959 SPECI KPAE 300959Z AUTO 17017G26KT 10SM SCT004 BKN011 BKN120 05/04 A3007 RMK AO2 PK WND 17026/0958 T00500039=
202012300953 METAR KPAE 300953Z AUTO 16016G26KT 10SM BKN004 BKN011 BKN120 04/03 A3007 RMK AO2 PK WND 16027/0926 RAE27 CIG 002V009 SLP187 P0001 T00440033=
202012300853 METAR KPAE 300853Z AUTO 16012KT 3SM -RA BR BKN002 OVC007 04/04 A3011 RMK AO2 RAE03B25 SLP200 P0000 60006 T00440039 58013=
202012300845 SPECI KPAE 300845Z AUTO 16013KT 3SM BR OVC001 04/04 A3011 RMK AO2 RAE03B25E37 P0000 T00440039=
202012300753 METAR KPAE 300753Z AUTO 15013KT 8SM -RA BKN004 OVC013 04/03 A3012 RMK AO2 SLP206 P0004 T00440033 400500028=
202012300743 SPECI KPAE 300743Z AUTO 15011KT 8SM -RA SCT004 BKN011 OVC019 04/03 A3013 RMK AO2 P0004 T00440033=
202012300722 SPECI KPAE 300722Z AUTO 15011KT 9SM -RA FEW005 BKN021 OVC030 04/03 A3014 RMK AO2 P0002 T00440033=
202012300653 METAR KPAE 300653Z AUTO 15011KT 10SM -RA FEW004 OVC030 04/03 A3014 RMK AO2 SLP209 P0002 T00440033=
202012300650 SPECI KPAE 300650Z AUTO 15012KT 10SM -RA FEW004 BKN030 OVC046 05/03 A3014 RMK AO2 P0002=
202012300643 SPECI KPAE 300643Z AUTO 15010G15KT 10SM -RA BKN028 BKN035 OVC045 05/03 A3013 RMK AO2 P0002 T00500033=
202012300553 METAR KPAE 300553Z AUTO 15009KT 10SM -RA FEW006 BKN035 OVC045 04/03 A3015 RMK AO2 SLP214 P0001 60018 T00440033 10044 20033 58018=
202012300551 SPECI KPAE 300551Z AUTO 15010KT 10SM -RA FEW006 BKN035 OVC043 04/03 A3015 RMK AO2 P0001=
202012300515 SPECI KPAE 300515Z AUTO 15008KT 10SM -RA BKN028 OVC039 04/03 A3016 RMK AO2 P0000 T00440033=
202012300453 METAR KPAE 300453Z AUTO 14006KT 10SM -RA FEW025 OVC042 04/03 A3017 RMK AO2 SLP220 P0004 T00390028=
202012300353 METAR KPAE 300353Z 15009KT 5SM -RA BR FEW022 OVC034 03/02 A3019 RMK AO2 SLP228 P0009 T00330022=
202012300253 METAR KPAE 300253Z 15009KT 7SM -RA OVC038 04/01 A3020 RMK AO2 SLP232 P0004 60004 T00440011 58015=
202012300153 METAR KPAE 300153Z 18006KT 10SM -RA SCT055 OVC070 04/01 A3022 RMK AO2 SLP240 P0000 T00440011=
202012300053 METAR KPAE 300053Z 14004KT 10SM -RA BKN048 OVC070 04/00 A3023 RMK AO2 RAE07B24 SLP242 P0000 T00440000=
202012292353 METAR KPAE 292353Z 14005KT 10SM -RA BKN051 OVC075 04/00 A3025 RMK AO2 RAB44 SLP247 P0000 60000 T00440000 10044 20033 57005=
202012292253 METAR KPAE 292253Z 10005KT 10SM OVC080 04/01 A3025 RMK AO2 SLP247 T00440006=
202012292153 METAR KPAE 292153Z 15005KT 10SM OVC095 04/00 A3026 RMK AO2 SLP250 T00440000=
202012292053 METAR KPAE 292053Z VRB04KT 10SM SCT018 BKN120 04/M01 A3026 RMK AO2 SLP252 T00391006 58007=
202012291953 METAR KPAE 291953Z 15005KT 10SM BKN015 03/M01 A3028 RMK AO2 SLP256 T00331011=
202012291853 METAR KPAE 291853Z 15007KT 10SM BKN015 04/M01 A3028 RMK AO2 SLP257 T00391006=
202012291753 METAR KPAE 291753Z 15006KT 10SM OVC013 03/00 A3028 RMK AO2 SLP259 T00330000 10039 20028 53008=
202012291653 METAR KPAE 291653Z 15007KT 10SM OVC012 03/M01 A3026 RMK AO2 SLP253 T00281006=
202012291553 METAR KPAE 291553Z 15006KT 10SM OVC013 03/00 A3027 RMK AO2 SLP256 T00280000=
202012291453 METAR KPAE 291453Z 00000KT 10SM OVC014 03/00 A3026 RMK AO2 SLP252 T00280000 53014=
202012291353 METAR KPAE 291353Z AUTO 11003KT 10SM OVC013 03/01 A3024 RMK AO2 SLP243 T00330011=
202012291253 METAR KPAE 291253Z AUTO 00000KT 10SM OVC010 03/02 A3023 RMK AO2 SLP241 T00330017=
202012291153 METAR KPAE 291153Z AUTO 17003KT 10SM OVC011 03/02 A3022 RMK AO2 SLP237 T00330017 10050 20033 50005=
202012291053 METAR KPAE 291053Z AUTO 00000KT 9SM OVC011 04/02 A3022 RMK AO2 SLP239 T00390022=
202012290953 METAR KPAE 290953Z AUTO 00000KT 8SM OVC012 04/03 A3022 RMK AO2 SLP237 T00440028=
202012290932 SPECI KPAE 290932Z AUTO 00000KT 9SM OVC011 04/03 A3021 RMK AO2 T00440028=
202012290900 SPECI KPAE 290900Z AUTO 12003KT 9SM BKN009 OVC012 04/03 A3020 RMK AO2 CIG 007V012 T00440028=
202012290853 METAR KPAE 290853Z AUTO 00000KT 9SM OVC012 04/03 A3020 RMK AO2 SLP232 T00440028 51008=
202012290753 METAR KPAE 290753Z AUTO 00000KT 9SM OVC013 05/03 A3020 RMK AO2 SLP230 T00500033 400610000=
202012290653 METAR KPAE 290653Z AUTO 00000KT 8SM FEW006 OVC014 05/03 A3019 RMK AO2 SLP228 T00500033=
202012290624 SPECI KPAE 290624Z AUTO 00000KT 8SM SCT007 OVC013 05/03 A3018 RMK AO2 T00500033=
202012290615 SPECI KPAE 290615Z AUTO 00000KT 9SM BKN007 OVC013 05/03 A3018 RMK AO2 T00500033=
202012290608 SPECI KPAE 290608Z AUTO 00000KT 9SM SCT007 OVC013 05/04 A3017 RMK AO2 T00500039=
202012290553 METAR KPAE 290553Z AUTO 00000KT 10SM OVC013 05/03 A3018 RMK AO2 SLP224 T00500033 10056 20044 51008=
202012290533 SPECI KPAE 290533Z AUTO 00000KT 9SM SCT004 OVC013 05/04 A3018 RMK AO2 T00500039=
202012290510 SPECI KPAE 290510Z AUTO 34003KT 9SM OVC004 05/04 A3018 RMK AO2 CIG 003V008 T00500039=
202012290453 METAR KPAE 290453Z AUTO 00000KT 10SM OVC007 05/04 A3017 RMK AO2 SLP223 T00500039=
202012290353 METAR KPAE 290353Z 36004KT 10SM OVC007 05/03 A3017 RMK AO2 SLP221 T00500033=
202012290314 SPECI KPAE 290314Z 36003KT 10SM OVC007 05/03 A3016 RMK AO2 T00500033=
202012290253 METAR KPAE 290253Z 36003KT 10SM OVC012 05/03 A3015 RMK AO2 SLP216 T00500033 51009=
202012290153 METAR KPAE 290153Z 01007KT 10SM OVC010 05/03 A3015 RMK AO2 SLP215 T00500033=
202012290053 METAR KPAE 290053Z 34004KT 10SM OVC014 05/03 A3013 RMK AO2 SLP209 T00500033=
202012282353 METAR KPAE 282353Z 35004KT 10SM OVC013 05/02 A3013 RMK AO2 SLP206 T00500022 10061 20022 53005=
202012282324 SPECI KPAE 282324Z 34004KT 10SM BKN013 05/02 A3012 RMK AO2 T00500022=
202012282253 METAR KPAE 282253Z 34006KT 10SM FEW011 06/02 A3011 RMK AO2 SLP201 T00560022=
202012282153 METAR KPAE 282153Z 34005KT 10SM CLR 06/02 A3011 RMK AO2 SLP199 T00560017=
202012282053 METAR KPAE 282053Z 36006KT 10SM R16R/5000VP6000FT FEW007 06/02 A3011 RMK AO2 SLP200 T00560017 58002=
202012281953 METAR KPAE 281953Z 36005KT 10SM VCFG SCT001 SCT010 04/02 A3011 RMK AO2 SLP201 T00390022=
202012281853 METAR KPAE 281853Z 36005KT 10SM VCFG SCT001 04/02 A3012 RMK AO2 SLP202 T00390017=
202012281805 SPECI KPAE 281805Z 36003KT 10SM VCFG SCT001 03/02 A3012 RMK AO2 T00280022=
202012281753 METAR KPAE 281753Z 00000KT M1/4SM R16R/0500VP6000FT FG VV001 02/02 A3011 RMK AO2 SLP203 T00220022 10028 20000 53007=
202012281653 METAR KPAE 281653Z 34005KT 1/4SM R16R/0500FT FG OVC001 02/02 A3010 RMK AO2 SLP197 T00220017=
202012281631 SPECI KPAE 281631Z 02005KT 1/4SM R16R/0700V1400FT FG OVC001 02/01 A3009 RMK AO2 T00220011=
202012281612 SPECI KPAE 281612Z 00000KT 10SM R16R/0400V2400FT SCT001 01/01 A3009 RMK AO2 T00060006=
202012281558 SPECI KPAE 281558Z 00000KT 1/4SM R16R/0500V2000FT FG VV001 02/01 A3009 RMK AO2 T00170011=
202012281553 METAR KPAE 281553Z 00000KT 10SM R16R/1400VP6000FT BKN001 02/01 A3009 RMK AO2 SLP195 T00170006=
202012281550 SPECI KPAE 281550Z 02003KT 1SM R16R/1800VP6000FT BR VV001 01/01 A3009 RMK AO2=
202012281548 SPECI KPAE 281548Z 36003KT 2 1/2SM R16R/6000VP6000FT BR SCT001 01/00 A3009 RMK AO2=
202012281453 METAR KPAE 281453Z 01003KT 10SM CLR 02/01 A3009 RMK AO2 SLP195 T00170011 52004=
202012281353 METAR KPAE 281353Z AUTO 35006KT 10SM SCT003 02/01 A3009 RMK AO2 SLP194 T00220011=
202012281322 SPECI KPAE 281322Z AUTO 02004KT 10SM SCT001 02/02 A3009 RMK AO2 T00220017=
202012281314 SPECI KPAE 281314Z AUTO 01004KT 4SM BR BKN001 02/01 A3009 RMK AO2 T00170011=
202012281312 SPECI KPAE 281312Z AUTO 01005KT 1 1/2SM BR BKN001 02/01 A3009 RMK AO2 T00170011=
202012281253 METAR KPAE 281253Z AUTO 01003KT 1/4SM R16R/1000V2400FT FG VV001 02/02 A3009 RMK AO2 SLP193 T00220017=
202012281238 SPECI KPAE 281238Z AUTO 36004KT 3/4SM R16R/5500VP6000FT BR VV001 02/02 A3008 RMK AO2 T00220017=
202012281236 SPECI KPAE 281236Z AUTO 01003KT 2SM BR SCT001 02/02 A3008 RMK AO2 T00220017=
202012281153 METAR KPAE 281153Z AUTO 01004KT 10SM CLR 02/01 A3008 RMK AO2 SLP191 70002 T00220006 10061 20017 53007=
202012281053 METAR KPAE 281053Z AUTO 05004KT 10SM CLR 03/01 A3007 RMK AO2 SLP188 T00330006=
202012280953 METAR KPAE 280953Z AUTO 06004KT 10SM CLR 03/01 A3007 RMK AO2 SLP184 T00280006=
202012280853 METAR KPAE 280853Z AUTO 05003KT 10SM CLR 04/M01 A3006 RMK AO2 SLP182 T00441011 52002=
202012280753 METAR KPAE 280753Z AUTO 08005KT 10SM CLR 05/M02 A3006 RMK AO2 SLP181 T00501017 400940044=
202012280653 METAR KPAE 280653Z AUTO 08005KT 10SM CLR 06/M01 A3006 RMK AO2 SLP181 T00561011=
202012280553 METAR KPAE 280553Z AUTO 09007KT 10SM CLR 06/M01 A3006 RMK AO2 SLP180 T00561011 10078 20044 51005=
202012280453 METAR KPAE 280453Z AUTO 10006KT 10SM CLR 06/00 A3005 RMK AO2 SLP180 T00610000=
202012280353 METAR KPAE 280353Z 00000KT 10SM CLR 06/01 A3005 RMK AO2 SLP178 T00610011=
202012280253 METAR KPAE 280253Z 00000KT 10SM CLR 05/03 A3004 RMK AO2 SLP177 T00500028 50002=
202012280153 METAR KPAE 280153Z 00000KT 10SM CLR 06/03 A3004 RMK AO2 SLP176 T00560033=
202012280053 METAR KPAE 280053Z 00000KT 10SM CLR 06/03 A3004 RMK AO2 SLP176 T00560033=
202012272353 METAR KPAE 272353Z 00000KT 10SM CLR 08/04 A3004 RMK AO2 SLP173 60001 T00780044 10094 20061 56003=
202012272253 METAR KPAE 272253Z 00000KT 10SM OVC090 08/04 A3004 RMK AO2 SLP175 T00780044=
202012272153 METAR KPAE 272153Z AUTO VRB03KT 10SM OVC050 09/04 A3004 RMK AO2 SLP174 T00890039=
202012272053 METAR KPAE 272053Z AUTO 11006KT 10SM OVC050 08/03 A3005 RMK AO2 SLP177 60001 T00780033 58019=
202012271953 METAR KPAE 271953Z AUTO 04005KT 10SM OVC050 07/04 A3007 RMK AO2 RAE53 SLP184 P0000 T00670044=
202012271853 METAR KPAE 271853Z AUTO 15003KT 10SM -RA FEW039 BKN049 OVC060 06/04 A3010 RMK AO2 SLP194 P0001 T00610044=
202012271753 METAR KPAE 271753Z AUTO 17003KT 10SM -RA BKN048 OVC060 06/04 A3010 RMK AO2 RAB27 SLP197 P0001 60001 T00610039 10067 20056 53007=
202012271653 METAR KPAE 271653Z AUTO 16003KT 10SM OVC070 06/04 A3009 RMK AO2 RAE1559B15E32 SLP193 P0000 T00560039=
202012271553 METAR KPAE 271553Z AUTO VRB03KT 10SM -RA BKN065 OVC080 06/03 A3008 RMK AO2 RAB05E24B48 SLP189 P0000 T00610033=
202012271453 METAR KPAE 271453Z AUTO 11006KT 10SM BKN035 BKN047 OVC075 06/03 A3008 RMK AO2 SLP189 T00610033 55003=
202012271353 METAR KPAE 271353Z AUTO VRB04KT 10SM OVC030 06/03 A3008 RMK AO2 SLP188 T00610033=
202012271253 METAR KPAE 271253Z AUTO 12006KT 10SM OVC031 06/03 A3008 RMK AO2 SLP188 T00610033=
202012271153 METAR KPAE 271153Z AUTO VRB05KT 10SM OVC034 06/03 A3009 RMK AO2 SLP192 60001 70001 T00610033 10072 20056 53001=
202012271053 METAR KPAE 271053Z AUTO 12007KT 10SM OVC042 06/03 A3008 RMK AO2 RAB06E29 SLP190 P0000 T00560033=
202012270953 METAR KPAE 270953Z AUTO 11009KT 10SM FEW036 OVC048 06/03 A3008 RMK AO2 RAB05E27 SLP190 P0000 T00560033=
202012270853 METAR KPAE 270853Z AUTO 11009KT 10SM OVC038 06/04 A3009 RMK AO2 RAB0759E52 SLP192 P0001 60001 T00610039 50000=
202012270753 METAR KPAE 270753Z AUTO 15009KT 10SM FEW028 OVC046 07/03 A3010 RMK AO2 RAE53 SLP197 P0000 T00670028 400830039=
202012270653 METAR KPAE 270653Z AUTO 14007KT 10SM -RA OVC070 07/02 A3009 RMK AO2 RAB51 SLP193 P0000 T00670022=
202012270553 METAR KPAE 270553Z AUTO VRB06KT 10SM BKN090 OVC110 07/02 A3009 RMK AO2 SLP191 60000 T00670022 10078 20061 51005=
202012270453 METAR KPAE 270453Z AUTO 14010KT 10SM BKN034 OVC045 07/03 A3009 RMK AO2 RAB20E31 SLP191 P0000 T00670028=
202012270353 METAR KPAE 270353Z AUTO 15012KT 10SM FEW029 SCT043 OVC120 07/03 A3008 RMK AO2 SLP190 T00670028=
202012270253 METAR KPAE 270253Z AUTO 17013KT 10SM CLR 07/03 A3007 RMK AO2 SLP186 T00670028 53015=
202012270153 METAR KPAE 270153Z AUTO 17012KT 10SM CLR 07/03 A3006 RMK AO2 SLP182 T00670028=
202012270053 METAR KPAE 270053Z AUTO 18013KT 10SM CLR 07/03 A3004 RMK AO2 SLP175 T00720028=
202012262353 METAR KPAE 262353Z AUTO 19015KT 10SM CLR 08/02 A3003 RMK AO2 SLP171 T00780022 10083 20072 53029=
202012262253 METAR KPAE 262253Z 20015KT 10SM FEW019 08/04 A2999 RMK AO2 SLP160 T00780039=
202012262153 METAR KPAE 262153Z 19015G24KT 10SM CLR 08/04 A2996 RMK AO2 PK WND 18033/2057 SLP148 T00830044=
202012262106 SPECI KPAE 262106Z 18020G33KT 10SM SCT015 08/04 A2994 RMK AO2 PK WND 18033/2057 T00780044=
202012262053 METAR KPAE 262053Z 18019G27KT 10SM BKN017 08/04 A2994 RMK AO2 PK WND 18030/2035 SLP142 T00780044 52014=
202012261953 METAR KPAE 261953Z 18019G28KT 10SM OVC015 08/04 A2993 RMK AO2 PK WND 20029/1858 SLP137 T00780044=
202012261853 METAR KPAE 261853Z 19022G30KT 10SM BKN020 08/04 A2991 RMK AO2 PK WND 19030/1852 SLP131 T00780039=
202012261753 METAR KPAE 261753Z 19020KT 10SM SCT022 BKN029 OVC090 08/04 A2990 RMK AO2 PK WND 18030/1721 SLP127 60000 T00780039 10078 20072 53044=
202012261734 SPECI KPAE 261734Z 18021G29KT 10SM BKN024 BKN120 08/04 A2988 RMK AO2 PK WND 18030/1721 T00780039=
202012261717 SPECI KPAE 261717Z 18023G27KT 10SM SCT023 SCT027 BKN120 08/04 A2986 RMK AO2 PK WND 17028/1716 T00780039=
202012261653 METAR KPAE 261653Z 18019G29KT 10SM BKN023 OVC028 07/04 A2985 RMK AO2 PK WND 18029/1556 SLP110 T00720039=
202012261628 SPECI KPAE 261628Z 18025G29KT 10SM BKN024 BKN028 07/04 A2982 RMK AO2 PK WND 18029/1556 T00720044=
202012261553 METAR KPAE 261553Z 18022G30KT 10SM SCT016 BKN120 07/04 A2980 RMK AO2 PK WND 19031/1527 SLP095 T00720044=
202012261453 METAR KPAE 261453Z 18021G28KT 10SM SCT018 BKN023 BKN110 07/04 A2977 RMK AO2 PK WND 19033/1434 SLP082 60000 T00720044 51009=
202012261450 SPECI KPAE 261450Z 17018G28KT 10SM SCT017 SCT023 BKN110 07/04 A2977 RMK AO2 PK WND 19033/1434=
202012261440 SPECI KPAE 261440Z AUTO 18021G33KT 10SM SCT019 BKN024 BKN100 07/04 A2976 RMK AO2 PK WND 19033/1434 T00720044=
202012261417 SPECI KPAE 261417Z AUTO 18019G29KT 10SM SCT017 BKN100 07/04 A2975 RMK AO2 PK WND 18029/1414 T00720044=
202012261353 METAR KPAE 261353Z AUTO 17016KT 10SM BKN018 BKN024 OVC095 07/05 A2974 RMK AO2 PK WND 16026/1315 SLP075 T00720050=
202012261346 SPECI KPAE 261346Z AUTO 17014G25KT 10SM BKN019 BKN024 OVC095 07/05 A2974 RMK AO2 PK WND 16026/1315 T00720050=
202012261315 SPECI KPAE 261315Z AUTO 16021G26KT 10SM SCT019 BKN050 OVC070 07/05 A2974 RMK AO2 PK WND 16026/1315 T00720050=
202012261253 METAR KPAE 261253Z AUTO 16014G21KT 10SM BKN019 OVC034 07/05 A2974 RMK AO2 RAE1159B19E28 SLP073 P0000 T00720050=
202012261227 SPECI KPAE 261227Z AUTO 16012KT 9SM -RA BKN021 BKN026 OVC033 07/04 A2972 RMK AO2 RAE1159B19 P0000 T00720044=
202012261153 METAR KPAE 261153Z AUTO 16014KT 10SM -RA FEW018 OVC034 07/04 A2971 RMK AO2 RAB50 SLP062 P0000 60005 70035 T00720044 10072 20039 53016=
202012261053 METAR KPAE 261053Z AUTO 15015KT 10SM BKN034 OVC045 06/04 A2969 RMK AO2 SLP055 T00610039=
202012260953 METAR KPAE 260953Z AUTO 12010KT 10SM FEW035 BKN042 BKN055 05/03 A2967 RMK AO2 SLP049 T00500028=
202012260853 METAR KPAE 260853Z AUTO 12009G17KT 10SM FEW027 OVC050 04/03 A2966 RMK AO2 SLP046 60005 T00440028 51011=
202012260830 SPECI KPAE 260830Z AUTO 12009G17KT 10SM SCT027 BKN043 OVC050 04/03 A2966 RMK AO2 T00440028=
202012260753 METAR KPAE 260753Z AUTO 11011KT 10SM FEW002 BKN028 OVC055 04/03 A2964 RMK AO2 RAE30 SLP040 P0001 T00440033 400890039=
202012260746 SPECI KPAE 260746Z AUTO 11012KT 10SM FEW002 BKN028 OVC050 04/03 A2964 RMK AO2 RAE30 P0001 T00440033=
202012260653 METAR KPAE 260653Z AUTO 13007G16KT 6SM -RA BR FEW026 OVC038 04/03 A2965 RMK AO2 SLP042 P0004 T00440033=
202012260553 METAR KPAE 260553Z AUTO 11011KT 10SM -RA FEW030 OVC037 04/03 A2963 RMK AO2 SLP035 P0002 60030 T00440028 10078 20039 53002=
202012260453 METAR KPAE 260453Z AUTO 10011KT 10SM -RA FEW003 BKN039 04/03 A2962 RMK AO2 SLP032 P0004 T00390028=
202012260353 METAR KPAE 260353Z 11013G19KT 6SM -RA BR FEW003 BKN039 04/03 A2961 RMK AO2 SLP029 P0010 T00390028=
202012260302 SPECI KPAE 260302Z 11009KT 8SM -RA SCT003 OVC042 04/03 A2962 RMK AO2 P0001 T00440033=
202012260253 METAR KPAE 260253Z 12009KT 8SM -RA SCT036 OVC042 04/03 A2962 RMK AO2 SLP033 P0005 60014 T00440033 56013=
202012260153 METAR KPAE 260153Z 11012G17KT 8SM -RA OVC050 05/03 A2962 RMK AO2 SLP033 P0006 T00500028=
202012260053 METAR KPAE 260053Z 15008G17KT 9SM -RA OVC055 06/03 A2965 RMK AO2 SLP042 P0003 T00560028=
202012252353 METAR KPAE 252353Z 15012KT 10SM -RA BKN060 BKN075 OVC090 08/00 A2966 RMK AO2 RAB46 SLP046 P0000 60000 T00780000 10089 20078 56027=
202012252253 METAR KPAE 252253Z VRB04KT 10SM OVC090 09/M03 A2968 RMK AO2 SLP051 T00891033=
202012252153 METAR KPAE 252153Z VRB05KT 10SM BKN110 09/M03 A2969 RMK AO2 SLP057 T00891028=
202012252053 METAR KPAE 252053Z 15006KT 10SM BKN110 09/M02 A2974 RMK AO2 SLP073 T00891022 58031=
202012251953 METAR KPAE 251953Z VRB05KT 10SM OVC085 08/M02 A2977 RMK AO2 SLP084 T00831017=
202012251853 METAR KPAE 251853Z 12004KT 10SM OVC090 08/M02 A2981 RMK AO2 SLP098 T00831017=
202012251753 METAR KPAE 251753Z VRB05KT 10SM OVC095 08/M01 A2984 RMK AO2 SLP106 60000 T00831011 10083 20061 55007=
202012251653 METAR KPAE 251653Z 11008KT 10SM OVC060 07/M01 A2983 RMK AO2 RAE34 SLP105 P0000 T00721011=
202012251553 METAR KPAE 251553Z 11009KT 10SM -RA BKN060 OVC080 07/M02 A2985 RMK AO2 RAB53 SLP109 P0000 T00721017=
202012251453 METAR KPAE 251453Z 12008KT 10SM BKN060 BKN075 07/M03 A2986 RMK AO2 SLP112 T00721028 56009=
202012251353 METAR KPAE 251353Z AUTO 23005KT 10SM BKN050 OVC055 07/M03 A2987 RMK AO2 SLP117 T00671028=
202012251253 METAR KPAE 251253Z AUTO 11009KT 10SM OVC050 06/M03 A2987 RMK AO2 SLP116 T00611033=
202012251153 METAR KPAE 251153Z AUTO 12010KT 10SM BKN070 06/M04 A2988 RMK AO2 SLP121 T00611039 10061 20050 58009=
202012251053 METAR KPAE 251053Z AUTO 16005KT 10SM FEW075 BKN120 05/M04 A2991 RMK AO2 SLP131 T00501039=
202012250953 METAR KPAE 250953Z AUTO VRB06KT 10SM CLR 06/M04 A2992 RMK AO2 SLP133 T00561039=
202012250853 METAR KPAE 250853Z AUTO 11010KT 10SM CLR 06/M04 A2991 RMK AO2 SLP131 T00561039 58018=
202012250753 METAR KPAE 250753Z AUTO 11011KT 10SM CLR 06/M03 A2994 RMK AO2 SLP140 T00611033 400721022=
202012250653 METAR KPAE 250653Z AUTO 11009KT 10SM CLR 06/M03 A2995 RMK AO2 SLP145 T00611033=
202012250553 METAR KPAE 250553Z AUTO 12010KT 10SM CLR 06/M03 A2996 RMK AO2 SLP150 T00561033 10067 20056 57020=
202012250453 METAR KPAE 250453Z AUTO 11007KT 10SM CLR 06/M03 A2998 RMK AO2 SLP158 T00561028=
202012250353 METAR KPAE 250353Z VRB05KT 10SM CLR 06/M02 A3001 RMK AO2 SLP165 T00561022=
202012250253 METAR KPAE 250253Z 12005KT 10SM CLR 06/M02 A3002 RMK AO2 SLP172 T00561017 56010=
202012250153 METAR KPAE 250153Z 12009KT 10SM CLR 06/M02 A3003 RMK AO2 SLP174 T00611017=
202012250053 METAR KPAE 250053Z VRB05KT 10SM CLR 07/M02 A3005 RMK AO2 SLP180 T00671017=
202012242353 METAR KPAE 242353Z VRB03KT 10SM CLR 07/M01 A3006 RMK AO2 SLP182 T00671011 10072 20033 56021=
202012242253 METAR KPAE 242253Z VRB04KT 10SM CLR 07/M01 A3007 RMK AO2 SLP188 T00671011=
202012242153 METAR KPAE 242153Z 15007KT 10SM CLR 07/M03 A3009 RMK AO2 SLP194 T00721028=
202012242053 METAR KPAE 242053Z 16009KT 10SM CLR 07/M04 A3012 RMK AO2 SLP204 T00671039 58016=
202012241953 METAR KPAE 241953Z VRB04KT 10SM CLR 07/M04 A3014 RMK AO2 SLP211 T00671039=
202012241853 METAR KPAE 241853Z 15010KT 10SM CLR 04/M03 A3016 RMK AO2 SLP219 T00441033=
202012241753 METAR KPAE 241753Z 15009KT 10SM CLR 03/M03 A3017 RMK AO2 SLP220 I6000 T00331033 10033 21022 55002=
202012241653 METAR KPAE 241653Z 22003KT 10SM CLR 02/M03 A3016 RMK AO2 SLP219 T00171033=
202012241553 METAR KPAE 241553Z VRB03KT 10SM CLR M01/M04 A3015 RMK AO2 SLP217 T10061039=
202012241453 METAR KPAE 241453Z 00000KT 10SM CLR 00/M04 A3017 RMK AO2 SLP223 I3000 T00001039 56012=
202012241353 METAR KPAE 241353Z AUTO 00000KT 10SM CLR 00/M03 A3018 RMK AO2 SLP227 T00001028=
202012241253 METAR KPAE 241253Z AUTO 10005KT 10SM CLR M01/M02 A3019 RMK AO2 SLP228 I1000 T10061022=
202012241221 SPECI KPAE 241221Z AUTO 00000KT 3SM R16R/4000VP6000FT BR CLR M02/M02 A3021 RMK AO2 T10171022=
202012241216 SPECI KPAE 241216Z AUTO 03003KT 1 1/4SM R16R/1600VP6000FT BR CLR M02/M02 A3021 RMK AO2 T10171022=
202012241205 SPECI KPAE 241205Z AUTO 36003KT 1/2SM R16R/2000VP6000FT FZFG VV001 M02/M02 A3021 RMK AO2 T10171022=
202012241153 METAR KPAE 241153Z AUTO 00000KT 1/4SM R16R/3000VP6000FT FZFG VV001 M02/M02 A3021 RMK AO2 SLP236 T10171022 10028 21017 58005=
202012241134 SPECI KPAE 241134Z AUTO 00000KT 1/4SM R16R/1600V3500FT FZFG VV001 M01/M01 A3021 RMK AO2 T10061011=
202012241126 SPECI KPAE 241126Z AUTO 00000KT 1 3/4SM R16R/2600VP6000FT BR BKN001 00/M01 A3021 RMK AO2 T00001006=
202012241122 SPECI KPAE 241122Z AUTO 00000KT 8SM BKN001 00/M01 A3022 RMK AO2 T00001006=
202012241114 SPECI KPAE 241114Z AUTO 00000KT 10SM SCT001 00/M01 A3022 RMK AO2 T00001011=
202012241053 METAR KPAE 241053Z AUTO 36003KT 10SM CLR 01/M02 A3022 RMK AO2 SLP238 T00061022=
202012240953 METAR KPAE 240953Z AUTO 00000KT 10SM CLR 01/M02 A3023 RMK AO2 SLP242 T00061022=
202012240853 METAR KPAE 240853Z AUTO 02003KT 10SM CLR 00/M02 A3023 RMK AO2 SLP240 T00001022 55014=
202012240753 METAR KPAE 240753Z AUTO 11003KT 10SM CLR 00/M03 A3022 RMK AO2 SLP240 T00001028 400501006=
202012240653 METAR KPAE 240653Z AUTO VRB05KT 10SM CLR 03/M02 A3024 RMK AO2 SLP245 T00281017=
202012240553 METAR KPAE 240553Z AUTO 12003KT 10SM CLR 02/M02 A3027 RMK AO2 SLP255 T00171017 10033 20006 58030=
202012240453 METAR KPAE 240453Z AUTO 10005KT 10SM CLR 03/M02 A3030 RMK AO2 SLP266 T00281022=
202012240353 METAR KPAE 240353Z 00000KT 10SM CLR 01/M02 A3033 RMK AO2 SLP277 T00111017=
202012240253 METAR KPAE 240253Z 04003KT 10SM CLR 02/M01 A3036 RMK AO2 SLP286 T00221006 58015=
202012240153 METAR KPAE 240153Z 02004KT 10SM CLR 02/M01 A3038 RMK AO2 SLP294 T00171006=
202012240053 METAR KPAE 240053Z 34004KT 10SM CLR 02/M02 A3039 RMK AO2 SLP298 T00171017=
202012232353 METAR KPAE 232353Z 33003KT 10SM CLR 03/M01 A3040 RMK AO2 SLP301 T00281011 10050 20011 56023=
202012232253 METAR KPAE 232253Z 02005KT 10SM CLR 03/M01 A3042 RMK AO2 SLP307 T00331006=
202012232153 METAR KPAE 232153Z VRB04KT 10SM CLR 04/M02 A3044 RMK AO2 SLP313 T00441017=
202012232053 METAR KPAE 232053Z 07004KT 10SM CLR 04/M02 A3047 RMK AO2 SLP323 T00391022 58016=
202012231953 METAR KPAE 231953Z VRB03KT 10SM CLR 03/M01 A3050 RMK AO2 SLP334 T00331006=
202012231853 METAR KPAE 231853Z 34003KT 10SM CLR 02/M02 A3052 RMK AO2 SLP342 T00171022=
202012231753 METAR KPAE 231753Z 11005KT 10SM CLR 01/M03 A3052 RMK AO2 SLP340 T00111028 10011 20000 58002=
202012231653 METAR KPAE 231653Z 11005KT 10SM CLR 01/M03 A3052 RMK AO2 SLP340 T00061028=
202012231553 METAR KPAE 231553Z 10005KT 10SM CLR 01/M03 A3052 RMK AO2 SLP343 T00061028=
202012231453 METAR KPAE 231453Z 10006KT 10SM CLR 00/M03 A3052 RMK AO2 SLP342 T00001028 58005=
202012231353 METAR KPAE 231353Z AUTO 00000KT 10SM CLR 00/M02 A3054 RMK AO2 SLP347 T00001022=
202012231253 METAR KPAE 231253Z AUTO 10005KT 10SM CLR 00/M02 A3054 RMK AO2 SLP349 T00001022=
202012231153 METAR KPAE 231153Z AUTO 10006KT 10SM CLR 01/M02 A3054 RMK AO2 SLP347 T00061017 10017 20006 58002=
202012231053 METAR KPAE 231053Z AUTO 11007KT 10SM CLR 01/M02 A3055 RMK AO2 SLP349 T00061017=
202012230953 METAR KPAE 230953Z AUTO 11008KT 10SM CLR 01/M01 A3055 RMK AO2 SLP349 T00061011=
202012230853 METAR KPAE 230853Z AUTO 11008KT 10SM CLR 01/M01 A3054 RMK AO2 SLP349 T00061011 50009=
202012230753 METAR KPAE 230753Z AUTO 10007KT 10SM CLR 01/M01 A3055 RMK AO2 SLP350 T00111006 400670011=
202012230653 METAR KPAE 230653Z AUTO 11006KT 10SM CLR 01/M01 A3054 RMK AO2 SLP349 T00111006=
202012230553 METAR KPAE 230553Z AUTO 10007KT 10SM CLR 02/00 A3052 RMK AO2 SLP339 T00170000 10050 20017 51015=
202012230453 METAR KPAE 230453Z AUTO 11005KT 10SM CLR 02/01 A3052 RMK AO2 SLP339 T00220006=
202012230353 METAR KPAE 230353Z 11005KT 10SM CLR 02/01 A3049 RMK AO2 SLP332 T00220006=
202012230253 METAR KPAE 230253Z 15003KT 10SM SCT034 03/01 A3047 RMK AO2 SLP324 T00280006 52027=
202012230153 METAR KPAE 230153Z 00000KT 10SM BKN034 04/01 A3045 RMK AO2 SLP314 T00440006=
202012230053 METAR KPAE 230053Z 15004KT 10SM BKN033 05/01 A3042 RMK AO2 SLP304 T00500011=
202012222353 METAR KPAE 222353Z 10005KT 10SM BKN033 05/01 A3039 RMK AO2 SLP295 T00500011 10067 20044 53020=
202012222253 METAR KPAE 222253Z 06003KT 10SM FEW014 SCT026 06/01 A3036 RMK AO2 SLP286 T00560011=
202012222153 METAR KPAE 222153Z 21003KT 10SM FEW014 SCT026 OVC034 06/01 A3035 RMK AO2 SLP283 T00610011=
202012222053 METAR KPAE 222053Z 29004KT 10SM FEW015 SCT022 BKN032 05/01 A3033 RMK AO2 SLP275 T00500011 52027=
202012222016 SPECI KPAE 222016Z VRB03KT 10SM SCT020 BKN026 06/02 A3030 RMK AO2 T00610017=
202012221953 METAR KPAE 221953Z 29005KT 10SM FEW009 06/01 A3029 RMK AO2 SLP263 T00560011=
202012221941 SPECI KPAE 221941Z VRB03KT 10SM FEW009 06/03 A3029 RMK AO2 T00560028=
202012221853 METAR KPAE 221853Z 26005KT 10SM FEW029 05/02 A3029 RMK AO2 SLP261 T00500022=
202012221753 METAR KPAE 221753Z VRB03KT 10SM SCT029 05/02 A3025 RMK AO2 SLP248 T00500022 10056 20033 51035=
202012221653 METAR KPAE 221653Z 00000KT 10SM FEW041 05/02 A3022 RMK AO2 SLP238 T00500017=
202012221553 METAR KPAE 221553Z 29005KT 10SM OVC041 04/02 A3018 RMK AO2 SLP225 T00390022=
202012221453 METAR KPAE 221453Z 27004KT 10SM OVC039 04/02 A3014 RMK AO2 SLP212 T00390017 51042=
202012221353 METAR KPAE 221353Z AUTO 23003KT 10SM BKN040 OVC047 04/01 A3010 RMK AO2 SLP199 T00390011=
202012221253 METAR KPAE 221253Z AUTO 19005KT 10SM OVC046 03/02 A3006 RMK AO2 SLP186 T00330017=
202012221153 METAR KPAE 221153Z AUTO 34003KT 10SM OVC041 04/02 A3002 RMK AO2 SLP170 60005 70181 T00440017 10044 20022 51044=
202012221106 SPECI KPAE 221106Z AUTO 32006KT 10SM SCT024 OVC038 04/02 A3000 RMK AO2 T00440017=
202012221053 METAR KPAE 221053Z AUTO VRB06KT 10SM FEW021 BKN025 OVC036 04/02 A2999 RMK AO2 SLP159 T00440022=
202012220953 METAR KPAE 220953Z AUTO 30003KT 10SM OVC029 04/02 A2994 RMK AO2 RAE0859B23E50 SLP143 P0000 T00390022=
202012220903 SPECI KPAE 220903Z AUTO 27007KT 10SM FEW009 SCT014 OVC026 03/02 A2989 RMK AO2 RAE0859 P0000 T00330017=
202012220853 METAR KPAE 220853Z AUTO 26005KT 9SM -RA SCT009 BKN014 OVC025 03/02 A2988 RMK AO2 UPE0754RAB0754 SLP123 P0005 60005 T00330017 53041=
202012220837 SPECI KPAE 220837Z AUTO 26006KT 5SM -RA BR SCT009 BKN014 OVC020 03/02 A2987 RMK AO2 UPE0754RAB0754 P0004 T00330017=
202012220830 SPECI KPAE 220830Z AUTO 28004KT 4SM -RA BR BKN013 OVC020 03/02 A2987 RMK AO2 UPE0754RAB0754 PRESRR P0004 T00330017=
202012220753 METAR KPAE 220753Z AUTO 18005KT 9SM UP FEW006 BKN024 OVC034 02/02 A2983 RMK AO2 UPB49 SLP106 P0000 T00220017 401220006=
202012220653 METAR KPAE 220653Z AUTO 21011KT 10SM SCT003 SCT011 OVC050 02/01 A2979 RMK AO2 SLP090 T00220011=
202012220651 SPECI KPAE 220651Z AUTO 21011KT 10SM SCT003 SCT011 OVC050 02/01 A2979 RMK AO2=
202012220553 METAR KPAE 220553Z AUTO 22012KT 10SM BKN003 OVC060 03/02 A2976 RMK AO2 SLP081 60030 T00280017 10039 20006 53035=
202012220538 SPECI KPAE 220538Z AUTO 22011G18KT 10SM SCT003 SCT026 OVC060 03/02 A2974 RMK AO2 T00280017=
202012220453 METAR KPAE 220453Z AUTO VRB04KT 10SM OVC048 03/01 A2971 RMK AO2 RAE27 SLP064 P0000 T00330011=
202012220422 SPECI KPAE 220422Z VRB03KT 10SM -RA OVC044 02/01 A2970 RMK AO2 P0000 T00220011=
202012220355 SPECI KPAE 220355Z 36003KT 10SM -RA BKN006 OVC030 02/01 A2968 RMK AO2 P0000 T00170006=
202012220353 METAR KPAE 220353Z 34004KT 1SM R16R/P6000FT -RA BR SCT006 OVC030 02/01 A2968 RMK AO2 RAB25SNE25 SLP055 P0003 T00170006=
202012220331 SPECI KPAE 220331Z 32005KT 1SM R16R/P6000FT -RA BR OVC005 01/00 A2967 RMK AO2 RAB25SNE25 CIG 003V008 P0002 T00110000=
202012220253 METAR KPAE 220253Z 36005KT 1SM R16R/5500VP6000FT -SN BR OVC002 01/M01 A2965 RMK AO2 SLP046 P0011 60027 T00061006 53035=
202012220153 METAR KPAE 220153Z 34007KT 1 1/4SM -SN BR OVC002 01/00 A2961 RMK AO2 SLP032 P0007 T00060000=
202012220053 METAR KPAE 220053Z 31010G17KT 2 1/2SM -SN BR OVC004 01/00 A2958 RMK AO2 RAE28SNB28 SLP020 P0009 T00110000=
202012212355 SPECI KPAE 212355Z 34009G18KT 2SM RA BR OVC004 03/02 A2955 RMK AO2 P0001 T00280017=
202012212353 METAR KPAE 212353Z 33012G18KT 1SM R16R/P6000FT RA BR OVC001 03/02 A2955 RMK AO2 SLP009 P0010 60117 T00280017 10122 20028 55004=
202012212312 SPECI KPAE 212312Z 34010G21KT 1SM R16R/P6000FT RA BR OVC001 03/02 A2954 RMK AO2 P0004 T00280022=
202012212253 METAR KPAE 212253Z 34010G17KT 1SM R16R/P6000FT RA BR OVC002 03/03 A2954 RMK AO2 SLP007 P0030 T00330028=
202012212157 SPECI KPAE 212157Z VRB06G16KT 1SM R16R/5500VP6000FT RA BR OVC003 04/04 A2950 RMK AO2 PRESFR P0002 T00440039=
202012212155 SPECI KPAE 212155Z 36007G16KT 3/4SM R16R/5500VP6000FT RA BR BKN003 OVC010 04/04 A2950 RMK AO2 PRESFR P0001 T00440039=
202012212153 METAR KPAE 212153Z 36009G17KT 1SM R16R/6000VP6000FT RA BR BKN005 OVC010 05/04 A2952 RMK AO2 PRESFR SLP997 P0044 T00500039=
202012212053 METAR KPAE 212053Z 32006KT 1SM R16R/5500VP6000FT +RA BR BKN003 OVC015 06/06 A2956 RMK AO2 SLP012 P0031 60033 T00610056 55015=
202012212050 SPECI KPAE 212050Z 34006KT 1/4SM R16R/4500VP6000FT +RA BR SCT003 BKN008 OVC020 06/06 A2956 RMK AO2 P0029=
202012212024 SPECI KPAE 212024Z 30008KT 270V330 1/4SM R16R/4000VP6000FT RA FG BKN002 OVC008 07/07 A2956 RMK AO2 P0007 T00720067=
202012211953 METAR KPAE 211953Z 24009G16KT 1/4SM R16R/1200V2600FT -RA FG BKN001 OVC013 09/08 A2957 RMK AO2 PK WND 19036/1923 WSHFT 1932 RAB48 SLP014 P0001 T00890083=
202012211950 SPECI KPAE 211950Z 24010G16KT 2SM R16R/1200V1600FT -RA BR FEW001 BKN008 OVC013 09/08 A2957 RMK AO2 PK WND 19036/1923 WSHFT 1932 RAB48 P0001=
202012211853 METAR KPAE 211853Z 17020G30KT 2SM BR BKN005 BKN015 OVC065 11/09 A2960 RMK AO2 PK WND 17030/1846 RAE34 SLP026 P0001 T01060089=
202012211753 METAR KPAE 211753Z 16016G21KT 2SM -RA BR BKN005 BKN015 OVC065 08/07 A2964 RMK AO2 PRESFR SLP040 P0001 60029 T00780067 10078 20056 56036=
202012211717 SPECI KPAE 211717Z 17010KT 2SM -RA BR BKN005 BKN015 OVC065 07/06 A2968 RMK AO2 P0001 T00670061=
202012211712 SPECI KPAE 211712Z 16009KT 4SM -RA BR SCT007 BKN015 OVC065 07/06 A2969 RMK AO2 P0001 T00670061=
202012211658 SPECI KPAE 211658Z 16009KT 3SM -RA BR FEW015 BKN032 OVC085 07/06 A2969 RMK AO2 P0000 T00670056=
202012211653 METAR KPAE 211653Z 15010KT 2SM -RA BR BKN005 BKN029 OVC085 06/06 A2969 RMK AO2 PRESFR SLP056 P0007 T00610056=
202012211650 SPECI KPAE 211650Z 15013KT 1 3/4SM RA BR BKN005 BKN018 OVC024 06/06 A2969 RMK AO2 PRESFR P0006=
202012211642 SPECI KPAE 211642Z 15013KT 2SM -RA BR BKN005 BKN018 OVC024 06/06 A2971 RMK AO2 P0004 T00610056=
202012211557 SPECI KPAE 211557Z 20003KT 7SM -RA BKN005 BKN018 OVC024 06/05 A2975 RMK AO2 P0001 T00610050=
202012211553 METAR KPAE 211553Z 00000KT 2SM -RA BR BKN001 BKN037 OVC060 06/05 A2975 RMK AO2 RAE06B11 SLP076 P0006 T00610050=
202012211508 SPECI KPAE 211508Z VRB03KT 2SM BR BKN001 BKN037 OVC060 06/05 A2977 RMK AO2 RAE06 P0000 T00560050=
202012211459 SPECI KPAE 211459Z 12004KT 2SM -RA BR SCT004 BKN024 OVC027 06/05 A2977 RMK AO2 P0000 T00560050=
202012211453 METAR KPAE 211453Z VRB05KT 5SM -RA BR SCT004 BKN024 OVC032 06/05 A2977 RMK AO2 PRESFR SLP083 P0005 60015 T00560050 58040=
202012211441 SPECI KPAE 211441Z AUTO VRB04KT 4SM -RA BR BKN004 BKN011 OVC025 06/05 A2979 RMK AO2 P0005 T00560050=
202012211430 SPECI KPAE 211430Z AUTO 10004KT 8SM -RA SCT004 BKN025 OVC040 06/05 A2981 RMK AO2 P0004 T00610050=
202012211410 SPECI KPAE 211410Z AUTO 12006KT 7SM -RA BKN005 BKN048 OVC070 06/05 A2980 RMK AO2 P0002 T00610050=
202012211400 SPECI KPAE 211400Z AUTO 11007KT 8SM -RA BKN004 BKN008 OVC039 06/05 A2981 RMK AO2 P0001 T00610050 $=
202012211353 METAR KPAE 211353Z AUTO 10008KT 8SM -RA OVC006 06/05 A2982 RMK AO2 CIG 003V012 SLP099 P0003 T00610050 $=
202012211301 SPECI KPAE 211301Z AUTO 00000KT 6SM -RA BR BKN006 BKN029 OVC041 07/06 A2988 RMK AO2 P0001 T00670056 $=
202012211253 METAR KPAE 211253Z AUTO 00000KT 9SM -RA FEW003 BKN030 OVC037 07/06 A2989 RMK AO2 SLP124 P0007 T00670056 $=
202012211250 SPECI KPAE 211250Z AUTO 00000KT 9SM -RA FEW007 BKN030 OVC037 07/06 A2989 RMK AO2 P0006 $=
202012211241 SPECI KPAE 211241Z AUTO 00000KT 8SM -RA FEW019 SCT024 OVC037 07/05 A2989 RMK AO2 P0006 T00670050 $=
202012211222 SPECI KPAE 211222Z AUTO 00000KT 10SM -RA FEW019 BKN023 OVC037 07/05 A2990 RMK AO2 P0003 T00670050 $=
202012211153 METAR KPAE 211153Z AUTO 00000KT 4SM -RA BR OVC033 06/06 A2993 RMK AO2 SLP136 P0012 60022 70027 T00610056 10078 20061 56043 $=
202012211115 SPECI KPAE 211115Z AUTO 00000KT 6SM -RA BR FEW006 OVC035 07/06 A2996 RMK AO2 P0004 T00670061 $=
202012211053 METAR KPAE 211053Z AUTO VRB03KT 6SM -RA BR OVC037 07/06 A2997 RMK AO2 SLP150 P0006 T00670056 $=
202012211030 SPECI KPAE 211030Z AUTO VRB03KT 7SM -RA SCT029 OVC037 07/06 A3000 RMK AO2 P0003 T00720056 $=
202012211007 SPECI KPAE 211007Z AUTO 11004KT 5SM -RA BR FEW003 BKN029 OVC043 07/06 A3000 RMK AO2 P0001 T00720061 $=
202012210953 METAR KPAE 210953Z AUTO 11006KT 8SM -RA FEW003 OVC047 07/06 A3000 RMK AO2 SLP161 P0002 T00720056 $=
202012210853 METAR KPAE 210853Z AUTO 00000KT 9SM -RA OVC043 07/06 A3005 RMK AO2 SLP180 P0002 60002 T00670056 57021 $=
202012210753 METAR KPAE 210753Z AUTO 00000KT 10SM -RA FEW021 BKN046 OVC065 07/06 A3008 RMK AO2 RAB52 SLP189 P0000 T00670056 401170067 $=
202012210715 SPECI KPAE 210715Z AUTO 00000KT 10SM SCT025 BKN050 OVC065 07/06 A3008 RMK AO2 T00720056 $=
202012210653 METAR KPAE 210653Z AUTO 04003KT 10SM BKN025 BKN041 OVC070 07/06 A3009 RMK AO2 SLP193 T00720061 $=
202012210639 SPECI KPAE 210639Z AUTO 01003KT 10SM BKN026 BKN042 OVC065 07/06 A3010 RMK AO2 T00720061 $=
202012210625 SPECI KPAE 210625Z AUTO 02004KT 10SM SCT026 SCT046 OVC065 07/06 A3011 RMK AO2 T00720056 $=
202012210616 SPECI KPAE 210616Z AUTO 01005KT 10SM FEW003 BKN026 OVC060 07/06 A3011 RMK AO2 T00720061 $=
202012210553 METAR KPAE 210553Z AUTO 00000KT 10SM FEW003 BKN045 OVC070 08/07 A3012 RMK AO2 SLP202 60000 T00780067 10089 20078 56006 $=
202012210524 SPECI KPAE 210524Z AUTO 33004KT 10SM OVC029 08/07 A3013 RMK AO2 T00780067 $=
202012210510 SPECI KPAE 210510Z AUTO 00000KT 10SM SCT020 OVC031 08/07 A3012 RMK AO2 T00780067 $=
202012210453 METAR KPAE 210453Z 00000KT 10SM SCT008 OVC019 08/07 A3012 RMK AO2 SLP203 T00780072 $=
202012210435 SPECI KPAE 210435Z 35003KT 5SM BR SCT001 OVC008 08/07 A3013 RMK AO2 T00780072 $=
202012210359 SPECI KPAE 210359Z 35004KT 1 1/4SM R16R/4500VP6000FT BR OVC001 08/07 A3013 RMK AO2 T00780072 $=
202012210353 METAR KPAE 210353Z 36004KT 1/2SM R16R/4500VP6000FT FG OVC001 08/07 A3012 RMK AO2 RAB15E34 SLP203 P0000 T00780072 $=
202012210321 SPECI KPAE 210321Z 00000KT 1/2SM R16R/P6000FT -RA FG BKN001 BKN005 OVC015 08/07 A3013 RMK AO2 RAB15 P0000 T00830072 $=
202012210319 SPECI KPAE 210319Z 00000KT 5SM -RA BR BKN001 BKN005 OVC015 08/07 A3013 RMK AO2 RAB15 P0000 T00830072 $=
202012210309 SPECI KPAE 210309Z 34004KT 10SM FEW003 BKN009 OVC034 08/07 A3014 RMK AO2 T00830067 $=
202012210301 SPECI KPAE 210301Z 29005KT 10SM FEW009 BKN019 OVC035 08/07 A3014 RMK AO2 T00830067 $=
202012210253 METAR KPAE 210253Z 00000KT 10SM BKN015 OVC019 08/07 A3014 RMK AO2 SLP207 T00830067 58006 $=
202012210153 METAR KPAE 210153Z 00000KT 10SM BKN015 OVC021 09/07 A3015 RMK AO2 SLP210 T00890067 $=
202012210053 METAR KPAE 210053Z 16006KT 10SM OVC028 09/07 A3015 RMK AO2 SLP212 T00890067 $=
202012202355 SPECI KPAE 202355Z VRB03KT 10SM OVC021 09/07 A3015 RMK AO2 T00890067 $=
202012202353 METAR KPAE 202353Z 15003KT 10SM SCT023 09/07 A3015 RMK AO2 SLP213 60001 T00890067 10094 20078 52004 $=
202012202253 METAR KPAE 202253Z 18005KT 10SM SCT022 09/07 A3015 RMK AO2 SLP210 T00890067 $=
202012202153 METAR KPAE 202153Z 17005KT 10SM SCT020 09/07 A3014 RMK AO2 SLP208 T00890067 $=
202012202150 SPECI KPAE 202150Z 17007KT 10SM SCT018 09/07 A3014 RMK AO2 $=
202012202053 METAR KPAE 202053Z 19008KT 10SM SCT009 OVC016 09/07 A3015 RMK AO2 SLP213 60001 T00890072 $=
202012202024 SPECI KPAE 202024Z 18010KT 10SM SCT009 OVC014 09/07 A3016 RMK AO2 T00890072 $=
202012201953 METAR KPAE 201953Z 18008KT 10SM OVC009 09/07 A3016 RMK AO2 SLP214 T00890072=
202012201853 METAR KPAE 201853Z VRB03KT 10SM OVC009 08/07 A3015 RMK AO2 RAE19 CIG 004V015 SLP213 P0001 T00830072=
202012201834 SPECI KPAE 201834Z 10007KT 4SM BR BKN009 OVC014 08/07 A3014 RMK AO2 RAE19 P0001 T00830072=
202012201800 SPECI KPAE 201800Z 12005KT 1 3/4SM -RA BR SCT004 OVC014 08/07 A3014 RMK AO2 P0000 T00780072=
202012201753 METAR KPAE 201753Z 11005KT 2SM -RA BR BKN010 OVC021 08/07 A3014 RMK AO2 RAB08 SLP209 P0002 60004 T00780072 10111 20078 51021=
202012201653 METAR KPAE 201653Z 10004KT 2SM BR BKN014 OVC021 08/07 A3011 RMK AO2 SLP199 T00830067=
202012201649 SPECI KPAE 201649Z 08005KT 3SM BR SCT014 OVC020 08/07 A3011 RMK AO2=
202012201640 SPECI KPAE 201640Z 10005KT 2 1/2SM BR BKN014 OVC020 08/06 A3010 RMK AO2 T00830061=
202012201553 METAR KPAE 201553Z 07004KT 9SM BKN014 OVC021 09/06 A3008 RMK AO2 SLP188 T00890061=
202012201510 SPECI KPAE 201510Z 02006KT 10SM SCT014 OVC026 09/06 A3006 RMK AO2 T00890061=
202012201453 METAR KPAE 201453Z 01006KT 10SM BKN014 OVC030 09/06 A3006 RMK AO2 SLP181 60002 T00890061 53017=
202012201451 SPECI KPAE 201451Z 02007KT 10SM BKN014 OVC030 09/06 A3006 RMK AO2=
202012201353 METAR KPAE 201353Z 03006KT 10SM OVC032 09/06 A3003 RMK AO2 SLP172 T00940061=
202012201326 SPECI KPAE 201326Z 36008KT 10SM BKN030 OVC035 09/06 A3002 RMK AO2 T00890061=
202012201253 METAR KPAE 201253Z 36011KT 10SM FEW018 BKN027 BKN035 09/07 A3001 RMK AO2 RAB06E31 SLP164 P0002 T00940067=
202012201153 METAR KPAE 201153Z 00000KT 10SM FEW013 BKN022 OVC030 11/09 A3001 RMK AO2 SLP164 70017 T01110089 10117 20089 53037=
202012201146 SPECI KPAE 201146Z 22003KT 10SM SCT013 BKN018 OVC024 11/09 A3000 RMK AO2 T01110089=
202012201102 SPECI KPAE 201102Z 23011G16KT 10SM BKN014 BKN022 12/09 A2998 RMK AO2 PRESRR T01170094=
202012201053 METAR KPAE 201053Z 21013G18KT 10SM FEW015 SCT022 SCT100 12/09 A2997 RMK AO2 PK WND 20026/0958 PRESRR SLP150 T01170089=
202012200953 METAR KPAE 200953Z 19019G25KT 10SM BKN100 12/09 A2991 RMK AO2 PK WND 17028/0940 SLP129 T01170094=
202012200853 METAR KPAE 200853Z 20011KT 10SM FEW012 SCT110 11/09 A2990 RMK AO2 SLP126 T01110094 53013=
202012200842 SPECI KPAE 200842Z 20011G20KT 10SM FEW009 SCT014 SCT110 11/09 A2990 RMK AO2 T01110094=
202012200753 METAR KPAE 200753Z 20015G23KT 10SM OVC005 11/09 A2988 RMK AO2 PK WND 18029/0704 SLP118 T01060094 401060067=
202012200653 METAR KPAE 200653Z 17020G29KT 10SM OVC006 10/09 A2983 RMK AO2 PK WND 17030/0617 CIG 004V008 SLP103 T01000089=
202012200553 METAR KPAE 200553Z 17012G21KT 9SM OVC005 09/08 A2986 RMK AO2 RAE09 SLP113 P0000 60006 T00890078 10089 20072 56013=
202012200453 METAR KPAE 200453Z 16011G19KT 6SM -RA BR BKN009 OVC014 08/07 A2987 RMK AO2 SLP119 P0002 T00780067=
202012200400 SPECI KPAE 200400Z VRB06KT 6SM -RA BR BKN009 OVC014 08/07 A2987 RMK AO2 P0001 T00780067=
202012200353 METAR KPAE 200353Z VRB06KT 5SM -RA BR FEW007 OVC014 08/07 A2988 RMK AO2 SLP121 P0002 T00780067=
202012200253 METAR KPAE 200253Z 16013G21KT 10SM -RA BKN021 BKN028 OVC046 08/06 A2990 RMK AO2 SLP127 P0001 60002 T00830061 56034=
202012200215 SPECI KPAE 200215Z 15013KT 10SM -RA BKN009 BKN018 OVC060 08/07 A2992 RMK AO2 P0001 T00780067=
202012200208 SPECI KPAE 200208Z 15014KT 10SM -RA SCT009 BKN035 OVC047 08/07 A2991 RMK AO2 P0000 T00780067=
202012200155 SPECI KPAE 200155Z 16015KT 10SM -RA BKN009 BKN018 OVC060 08/06 A2993 RMK AO2 P0000 T00780061=
202012200153 METAR KPAE 200153Z 16014KT 10SM -RA SCT022 BKN040 OVC100 08/06 A2993 RMK AO2 SLP139 P0000 T00780061=
202012200053 METAR KPAE 200053Z 16018KT 10SM -RA SCT022 BKN040 OVC100 08/06 A2996 RMK AO2 SLP150 P0001 T00780056=
202012200000 SPECI KPAE 200000Z 15011G17KT 10SM -RA FEW028 BKN038 OVC050 07/05 A3000 RMK AO2 P0000 T00720050=
202012192353 METAR KPAE 192353Z 15012G21KT 9SM -RA BKN005 BKN015 OVC029 07/05 A3000 RMK AO2 SLP162 P0001 60010 T00720050 10078 20067 56059=
202012192253 METAR KPAE 192253Z 14010G18KT 100V170 6SM -RA BR BKN005 BKN013 OVC044 07/05 A3006 RMK AO2 RAE39B47 SLP181 P0000 T00670050=
202012192244 SPECI KPAE 192244Z 14007KT 10SM BKN013 OVC042 07/05 A3007 RMK AO2 RAE39 P0000 T00670050=
202012192235 SPECI KPAE 192235Z 14008G15KT 8SM -RA FEW007 BKN016 OVC044 07/05 A3008 RMK AO2 P0000 T00670050=
202012192153 METAR KPAE 192153Z 14009G18KT 7SM -RA FEW021 FEW027 OVC037 07/05 A3012 RMK AO2 SLP202 P0005 T00670050=
202012192053 METAR KPAE 192053Z 16012KT 4SM -RA FEW027 OVC033 07/04 A3018 RMK AO2 RAB20 SLP222 P0004 60004 T00720044 58002=
202012192049 SPECI KPAE 192049Z 16011KT 4SM -RA SCT027 OVC033 07/04 A3018 RMK AO2 RAB20 P0004=
202012192008 SPECI KPAE 192008Z 16010KT 10SM BKN029 OVC075 08/03 A3019 RMK AO2 T00780033=
202012191953 METAR KPAE 191953Z 17010KT 10SM SCT029 BKN090 OVC100 08/04 A3019 RMK AO2 SLP228 T00780039=
202012191853 METAR KPAE 191853Z 15009KT 10SM FEW034 BKN120 07/04 A3018 RMK AO2 SLP224 T00720044=
202012191753 METAR KPAE 191753Z 15012KT 10SM CLR 07/04 A3019 RMK AO2 SLP227 60001 T00720044 10078 20067 58012=
202012191653 METAR KPAE 191653Z 15008KT 10SM OVC018 07/04 A3020 RMK AO2 SLP228 T00670044=
202012191553 METAR KPAE 191553Z 15008KT 10SM OVC018 07/05 A3023 RMK AO2 SLP239 T00670050=
202012191453 METAR KPAE 191453Z 16009KT 10SM BKN022 BKN029 07/05 A3023 RMK AO2 SLP239 60001 T00670050 50019=
202012191353 METAR KPAE 191353Z AUTO 12004KT 10SM OVC017 07/06 A3023 RMK AO2 RAE1257 SLP240 P0000 T00670056=
202012191337 SPECI KPAE 191337Z AUTO 11007KT 10SM FEW005 OVC016 07/06 A3022 RMK AO2 RAE1257 P0000 T00670056=
202012191314 SPECI KPAE 191314Z AUTO 11007KT 5SM BR FEW005 OVC012 07/06 A3021 RMK AO2 RAE1257 P0000 T00670056=
202012191253 METAR KPAE 191253Z AUTO VRB05KT 4SM -RA BR BKN012 OVC020 07/06 A3020 RMK AO2 RAB24 SLP228 P0001 T00670056=
202012191200 SPECI KPAE 191200Z AUTO VRB05KT 10SM BKN022 OVC031 08/05 A3018 RMK AO2 T00780050=
202012191153 METAR KPAE 191153Z AUTO 11004KT 10SM SCT022 OVC031 08/04 A3017 RMK AO2 SLP218 70012 T00780044 10083 20078 51038=
202012191053 METAR KPAE 191053Z AUTO 00000KT 10SM OVC034 08/04 A3016 RMK AO2 SLP215 T00830039=
202012190953 METAR KPAE 190953Z AUTO 35010KT 10SM OVC041 08/04 A3011 RMK AO2 PRESRR SLP200 T00830039=
202012190900 SPECI KPAE 190900Z AUTO 36007KT 10SM SCT017 OVC042 08/06 A3006 RMK AO2 T00830056=
202012190853 METAR KPAE 190853Z AUTO 36008KT 10SM BKN018 BKN044 OVC055 08/06 A3005 RMK AO2 SLP180 T00830056 51045=
202012190753 METAR KPAE 190753Z AUTO 23005KT 9SM FEW004 BKN017 OVC022 08/07 A3003 RMK AO2 SLP173 T00780067 400940061=
202012190747 SPECI KPAE 190747Z AUTO 21005KT 10SM SCT004 SCT009 OVC020 08/07 A3003 RMK AO2=
202012190725 SPECI KPAE 190725Z AUTO 23006KT 4SM BR OVC004 08/07 A3000 RMK AO2 CIG 003V008 T00780067=
202012190653 METAR KPAE 190653Z AUTO 20009KT 3SM BR OVC006 08/07 A2997 RMK AO2 CIG 005V010 PRESRR SLP151 T00780067=
202012190632 SPECI KPAE 190632Z AUTO 20013KT 10SM BKN009 OVC014 08/06 A2994 RMK AO2 CIG 006V012 T00780061=
202012190621 SPECI KPAE 190621Z AUTO 18012KT 10SM BKN013 OVC021 08/06 A2993 RMK AO2 T00780061=
202012190553 METAR KPAE 190553Z AUTO 18016KT 10SM OVC020 08/06 A2992 RMK AO2 PK WND 19028/0508 SLP133 60003 T00780056 10094 20078 51013=
202012190453 METAR KPAE 190453Z AUTO 18014G25KT 10SM OVC019 08/06 A2991 RMK AO2 PK WND 17026/0420 SLP132 T00830056=
202012190353 METAR KPAE 190353Z 18023G33KT 10SM BKN029 OVC034 08/05 A2989 RMK AO2 PK WND 19042/0319 SLP123 T00830050=
202012190253 METAR KPAE 190253Z 19024G32KT 10SM SCT022 OVC039 08/06 A2988 RMK AO2 PK WND 19032/0252 RAE26 SLP120 P0000 60003 T00830056 58018=
202012190153 METAR KPAE 190153Z 17008KT 10SM -RA SCT024 OVC028 08/05 A2992 RMK AO2 RAE12B28 SLP134 P0003 T00830050=
202012190053 METAR KPAE 190053Z 16010KT 4SM -RA SCT024 OVC028 08/06 A2993 RMK AO2 PK WND 17033/2359 RAB17 SLP138 P0000 T00830056=
202012182353 METAR KPAE 182353Z 17023G33KT 10SM BKN039 BKN060 09/05 A2993 RMK AO2 PK WND 18037/2336 SLP139 60001 T00890050 10094 20061 58045=
202012182313 SPECI KPAE 182313Z 18019G30KT 10SM SCT024 09/04 A2996 RMK AO2 PK WND 18030/2308 T00890044=
202012182253 METAR KPAE 182253Z 18023G31KT 10SM BKN025 09/04 A2998 RMK AO2 PK WND 18031/2253 SLP153 T00940044=
202012182153 METAR KPAE 182153Z 16016G22KT 10SM OVC026 08/03 A3003 RMK AO2 PK WND 17027/2142 SLP173 T00830033=
202012182053 METAR KPAE 182053Z 16013KT 10SM BKN029 BKN034 07/04 A3007 RMK AO2 SLP185 60001 T00720044 58026=
202012181953 METAR KPAE 181953Z 15014KT 10SM BKN028 OVC035 07/04 A3011 RMK AO2 SLP198 T00670039=
202012181919 SPECI KPAE 181919Z 15011G20KT 10SM OVC028 07/04 A3012 RMK AO2 T00670039=
202012181853 METAR KPAE 181853Z 14009G21KT 110V170 10SM OVC030 06/04 A3014 RMK AO2 SLP208 P0001 T00610044=
202012181800 SPECI KPAE 181800Z 14012G18KT 10SM OVC031 06/04 A3015 RMK AO2 P0001 T00610044=
202012181753 METAR KPAE 181753Z 15010G17KT 10SM BKN009 OVC047 06/04 A3015 RMK AO2 RAE44 SLP212 P0003 60008 T00610044 10067 20061 56006=
202012181724 SPECI KPAE 181724Z 16012G20KT 5SM -RA BR BKN009 OVC047 06/04 A3015 RMK AO2 P0003 T00610044=
202012181653 METAR KPAE 181653Z 16014G23KT 10SM -RA BKN012 OVC047 06/04 A3015 RMK AO2 SLP214 P0001 T00610044=
202012181600 SPECI KPAE 181600Z 16015G22KT 10SM -RA BKN012 OVC047 06/05 A3015 RMK AO2 P0000 T00610050=
202012181553 METAR KPAE 181553Z 17015G22KT 10SM -RA OVC048 06/04 A3015 RMK AO2 SLP213 P0001 T00610044=
202012181453 METAR KPAE 181453Z 16011KT 10SM -RA FEW009 SCT028 OVC038 07/05 A3017 RMK AO2 SLP219 P0003 60003 T00670050 50004=
202012181353 METAR KPAE 181353Z AUTO 16012KT 10SM -RA FEW014 OVC050 07/04 A3017 RMK AO2 RAB28 SLP219 P0000 T00670044=
202012181253 METAR KPAE 181253Z AUTO 17010G19KT 10SM SCT012 SCT033 OVC075 07/04 A3016 RMK AO2 SLP215 T00670044=
202012181250 SPECI KPAE 181250Z AUTO 17014KT 10SM SCT012 OVC075 07/04 A3016 RMK AO2=
202012181204 SPECI KPAE 181204Z AUTO 17012G21KT 10SM BKN010 BKN055 OVC095 07/05 A3015 RMK AO2 T00670050=
202012181153 METAR KPAE 181153Z AUTO 16014G21KT 10SM SCT009 BKN036 OVC095 07/05 A3016 RMK AO2 RAE02 SLP215 P0000 60002 70016 T00670050 10072 20067 58009=
202012181143 SPECI KPAE 181143Z AUTO 16012KT 10SM BKN010 OVC070 07/05 A3016 RMK AO2 RAE02 P0000 T00670050=
202012181128 SPECI KPAE 181128Z AUTO 17014G20KT 10SM BKN009 BKN015 OVC095 07/05 A3016 RMK AO2 RAE02 CIG 006V011 P0000 T00670050=
202012181114 SPECI KPAE 181114Z AUTO 17014G21KT 10SM SCT009 BKN015 OVC100 07/05 A3017 RMK AO2 RAE02 P0000 T00670050=
202012181112 SPECI KPAE 181112Z AUTO 17012G21KT 10SM SCT012 OVC095 07/05 A3017 RMK AO2 RAE02 P0000 T00670050=
202012181102 SPECI KPAE 181102Z AUTO 16013G20KT 10SM BKN012 BKN047 OVC100 07/05 A3017 RMK AO2 RAE02 P0000 T00670050=
202012181053 METAR KPAE 181053Z AUTO 16014G20KT 10SM -RA SCT010 BKN060 OVC110 07/05 A3017 RMK AO2 SLP219 P0001 T00670050=
202012181011 SPECI KPAE 181011Z AUTO 16010KT 10SM -RA SCT010 SCT014 OVC044 07/05 A3018 RMK AO2 P0001 T00670050=
202012180958 SPECI KPAE 180958Z AUTO 17010KT 10SM -RA SCT009 BKN016 OVC050 07/05 A3018 RMK AO2 P0001 T00670050=
202012180953 METAR KPAE 180953Z AUTO 17010KT 10SM -RA SCT011 BKN050 OVC070 07/05 A3018 RMK AO2 SLP224 P0000 T00670050=
202012180914 SPECI KPAE 180914Z AUTO 18013KT 10SM -RA FEW009 SCT014 OVC045 07/05 A3018 RMK AO2 P0000 T00670050=
202012180853 METAR KPAE 180853Z AUTO 18012KT 10SM -RA BKN010 OVC014 07/05 A3018 RMK AO2 SLP224 P0001 60001 T00670050 51006=
202012180753 METAR KPAE 180753Z AUTO 16007KT 10SM -RA OVC012 07/05 A3018 RMK AO2 RAB27 SLP223 P0000 T00670050 400890061=
202012180719 SPECI KPAE 180719Z AUTO 16007KT 10SM BKN012 OVC028 07/05 A3018 RMK AO2 T00670050=
202012180704 SPECI KPAE 180704Z AUTO 16006KT 10SM SCT010 BKN026 OVC032 07/05 A3018 RMK AO2 T00670050=
202012180653 METAR KPAE 180653Z AUTO 16006KT 10SM BKN010 OVC022 07/05 A3018 RMK AO2 CIG 008V014 SLP222 T00670050=
202012180639 SPECI KPAE 180639Z AUTO 15006KT 10SM BKN010 OVC020 07/06 A3018 RMK AO2 CIG 008V014 T00670056=
202012180553 METAR KPAE 180553Z AUTO 00000KT 10SM SCT009 OVC021 07/06 A3016 RMK AO2 RAB0454E49 SLP217 P0003 60006 T00720056 10078 20072 53017=
202012180515 SPECI KPAE 180515Z AUTO 15004KT 7SM -RA SCT007 OVC013 07/06 A3016 RMK AO2 RAB0454 P0001 T00720061=
202012180453 METAR KPAE 180453Z AUTO VRB03KT 9SM OVC012 07/06 A3015 RMK AO2 RAB35E45 SLP211 P0000 T00720056=
202012180422 SPECI KPAE 180422Z 00000KT 10SM SCT006 BKN010 OVC021 07/06 A3013 RMK AO2 T00720061=
202012180353 METAR KPAE 180353Z 00000KT 10SM FEW009 BKN017 OVC022 07/06 A3011 RMK AO2 RAE17 SLP200 P0000 T00720061=
202012180349 SPECI KPAE 180349Z 09003KT 10SM FEW007 BKN011 OVC019 07/06 A3011 RMK AO2 RAE17 P0000=
202012180253 METAR KPAE 180253Z 00000KT 9SM -RA FEW008 BKN015 OVC029 07/06 A3009 RMK AO2 RAB14 SLP191 P0001 60003 T00720061 51017=
202012180250 SPECI KPAE 180250Z 10003KT 9SM -RA FEW008 BKN015 OVC029 07/06 A3008 RMK AO2 RAB14 P0001=
202012180153 METAR KPAE 180153Z 10004KT 10SM OVC027 08/06 A3005 RMK AO2 SLP180 T00780061=
202012180138 SPECI KPAE 180138Z 09003KT 10SM BKN029 OVC035 08/06 A3006 RMK AO2 T00780056=
202012180053 METAR KPAE 180053Z 06005KT 10SM OVC045 08/06 A3003 RMK AO2 RAE26 SLP173 P0002 T00780056=
202012180000 SPECI KPAE 180000Z 09004KT 5SM -RA BR FEW026 OVC037 08/06 A3001 RMK AO2 P0000 T00780056=
202012172353 METAR KPAE 172353Z 09003KT 5SM -RA BR FEW012 BKN028 OVC050 08/06 A3001 RMK AO2 RAB11E20B38 SLP166 P0002 60002 T00780056 10089 20072 53027=
202012172253 METAR KPAE 172253Z 07003KT 10SM FEW012 BKN022 OVC031 08/05 A2998 RMK AO2 SLP155 T00830050=
202012172153 METAR KPAE 172153Z 06003KT 10SM FEW007 BKN023 OVC027 08/06 A2995 RMK AO2 SLP145 T00830056=
202012172125 SPECI KPAE 172125Z 35003KT 10SM BKN023 OVC055 08/05 A2994 RMK AO2 T00830050=
202012172053 METAR KPAE 172053Z 32003KT 10SM SCT021 BKN044 OVC055 09/05 A2993 RMK AO2 SLP138 60000 T00890050 53014=
202012171953 METAR KPAE 171953Z 15003KT 10SM FEW024 BKN040 OVC070 08/06 A2991 RMK AO2 RAB03E30 SLP129 P0000 T00830056=
202012171936 SPECI KPAE 171936Z VRB03KT 10SM SCT025 BKN040 OVC075 08/06 A2990 RMK AO2 RAB03E30 P0000 T00830056=
202012171853 METAR KPAE 171853Z 20004KT 10SM SCT024 BKN029 OVC060 07/06 A2989 RMK AO2 SLP124 T00720061=
202012171842 SPECI KPAE 171842Z 16008KT 10SM SCT024 BKN029 OVC055 07/06 A2988 RMK AO2 T00720061=
202012171839 SPECI KPAE 171839Z 19007KT 140V250 10SM SCT024 BKN030 OVC055 07/06 A2988 RMK AO2 T00720061=
202012171753 METAR KPAE 171753Z 14007KT 10SM FEW008 BKN020 OVC029 07/06 A2984 RMK AO2 RAE34 SLP108 P0002 60006 T00670056 10072 20061 51040=
202012171703 SPECI KPAE 171703Z 15005KT 2SM -RA BR BKN009 BKN014 OVC020 07/06 A2982 RMK AO2 P0001 T00670056=
202012171656 SPECI KPAE 171656Z 15005KT 2 1/2SM -RA BR FEW009 BKN014 OVC020 07/06 A2981 RMK AO2 P0000 T00720056=
202012171653 METAR KPAE 171653Z 16005KT 5SM -RA BR BKN009 OVC016 07/06 A2981 RMK AO2 SLP095 P0002 T00720056=
202012171553 METAR KPAE 171553Z 18010KT 10SM -RA OVC009 07/05 A2976 RMK AO2 SLP080 P0001 T00670050=
202012171519 SPECI KPAE 171519Z 19011KT 10SM -RA OVC009 07/05 A2974 RMK AO2 P0001 T00670050=
202012171453 METAR KPAE 171453Z 19012KT 10SM -RA OVC010 07/05 A2972 RMK AO2 SLP067 P0001 60001 T00670050 53036=
202012171353 METAR KPAE 171353Z AUTO 20016G21KT 10SM -RA OVC013 07/04 A2969 RMK AO2 PK WND 20029/1324 RAB40 SLP055 P0000 T00670044=
202012171253 METAR KPAE 171253Z AUTO 18023G33KT 10SM OVC014 06/04 A2963 RMK AO2 PK WND 19034/1240 RAE02B36E47 SLP034 P0000 T00610039=
202012171153 METAR KPAE 171153Z AUTO 17018G32KT 10SM -RA FEW016 BKN022 OVC034 07/04 A2961 RMK AO2 PK WND 16035/1101 RAB17 SLP030 P0000 60000 70034 T00670039 10089 20067 50013=
202012171135 SPECI KPAE 171135Z AUTO 17017G28KT 10SM -RA SCT025 BKN035 OVC045 07/04 A2962 RMK AO2 PK WND 16035/1101 RAB17 P0000 T00670039=
202012171053 METAR KPAE 171053Z AUTO 18023G31KT 10SM BKN023 OVC029 07/03 A2962 RMK AO2 PK WND 18037/1014 SLP032 T00720033=
202012170953 METAR KPAE 170953Z AUTO 18022G31KT 10SM FEW023 BKN029 BKN035 07/03 A2961 RMK AO2 PK WND 18033/0912 SLP029 T00720033=
202012170853 METAR KPAE 170853Z AUTO 19028G40KT 10SM CLR 07/03 A2957 RMK AO2 PK WND 20040/0847 SLP016 T00720033 51021=
202012170753 METAR KPAE 170753Z AUTO 19028G36KT 10SM CLR 07/04 A2956 RMK AO2 PK WND 18036/0749 SLP011 T00720044 400890072=
202012170653 METAR KPAE 170653Z AUTO 19021G35KT 10SM CLR 08/05 A2954 RMK AO2 PK WND 17035/0648 SLP005 T00780050=
202012170616 SPECI KPAE 170616Z AUTO 18020G28KT 10SM SCT014 SCT019 08/06 A2953 RMK AO2 PK WND 17029/0602 T00830061=
202012170605 SPECI KPAE 170605Z AUTO 18020G29KT 10SM BKN012 BKN019 09/07 A2952 RMK AO2 PK WND 17029/0602 T00890067=
202012170553 METAR KPAE 170553Z AUTO 18020G28KT 10SM FEW009 SCT013 BKN021 09/07 A2951 RMK AO2 PK WND 16029/0520 RAB08E30 SLP995 P0002 60015 T00890067 10089 20072 53005=
202012170550 SPECI KPAE 170550Z AUTO 17020G27KT 10SM FEW009 BKN013 BKN021 09/07 A2951 RMK AO2 PK WND 16029/0520 RAB08E30 P0002=
202012170545 SPECI KPAE 170545Z AUTO 18017G26KT 10SM SCT013 BKN023 BKN039 09/07 A2951 RMK AO2 PK WND 16029/0520 RAB08E30 P0002 T00890072=
202012170534 SPECI KPAE 170534Z AUTO 16015G25KT 10SM FEW012 SCT020 BKN034 09/07 A2951 RMK AO2 PK WND 16029/0520 RAB08E30 P0002 T00890072=
202012170453 METAR KPAE 170453Z AUTO 17016G24KT 10SM FEW011 SCT015 OVC024 09/07 A2951 RMK AO2 PK WND 16026/0428 RAB0354E01B13E28 SLP993 P0000 T00890067=
202012170402 SPECI KPAE 170402Z 15014G22KT 10SM FEW019 BKN027 OVC060 08/06 A2950 RMK AO2 RAB0354E01 P0000 T00780061=
202012170353 METAR KPAE 170353Z 14012G18KT 10SM FEW020 SCT027 OVC032 08/06 A2950 RMK AO2 RAE27 SLP990 P0002 T00780061=
202012170253 METAR KPAE 170253Z 15015G21KT 4SM -RA BR FEW021 SCT025 OVC030 07/06 A2950 RMK AO2 SLP990 P0003 60011 T00720056 55023=
202012170153 METAR KPAE 170153Z 14010G23KT 110V180 8SM -RA SCT037 OVC046 07/06 A2949 RMK AO2 SLP989 P0004 T00720056=
202012170053 METAR KPAE 170053Z 13008KT 8SM -RA OVC040 08/06 A2954 RMK AO2 SLP004 P0004 T00780056=
202012162353 METAR KPAE 162353Z 12012G18KT 10SM -RA SCT060 OVC080 08/06 A2957 RMK AO2 SLP014 P0002 60019 T00780056 10089 20078 58068=
202012162253 METAR KPAE 162253Z 14008G15KT 100V170 5SM -RA BR BKN041 OVC050 08/06 A2963 RMK AO2 SLP037 P0011 T00780056=
202012162153 METAR KPAE 162153Z 14009G16KT 4SM RA BKN041 OVC050 08/05 A2972 RMK AO2 SLP064 P0006 T00830050=
202012162053 METAR KPAE 162053Z 15007KT 10SM -RA SCT030 OVC041 09/04 A2977 RMK AO2 RAB47 SLP083 P0000 60000 T00890044 58061=
202012161953 METAR KPAE 161953Z 11008KT 10SM SCT050 BKN060 09/04 A2983 RMK AO2 PRESFR SLP104 T00890039=
202012161853 METAR KPAE 161853Z VRB06KT 10SM CLR 09/04 A2991 RMK AO2 SLP131 T00890039=
202012161753 METAR KPAE 161753Z 15011KT 10SM OVC037 08/04 A2995 RMK AO2 SLP145 T00830044 10083 20072 56024=
202012161653 METAR KPAE 161653Z 15009KT 10SM BKN036 OVC045 08/05 A2997 RMK AO2 SLP152 T00830050=
202012161553 METAR KPAE 161553Z 15011KT 10SM OVC046 08/05 A2999 RMK AO2 SLP157 T00780050=
202012161453 METAR KPAE 161453Z 16014KT 10SM SCT008 OVC055 07/05 A3003 RMK AO2 SLP170 T00720050 58023=
202012161353 METAR KPAE 161353Z AUTO 16014G25KT 10SM SCT008 07/06 A3006 RMK AO2 SLP181 T00720056=
202012161253 METAR KPAE 161253Z AUTO 16010KT 10SM OVC007 07/06 A3007 RMK AO2 SLP185 T00720056=
202012161153 METAR KPAE 161153Z AUTO 17011KT 10SM OVC007 07/06 A3009 RMK AO2 SLP193 70004 T00720056 10078 20072 58007=
202012161053 METAR KPAE 161053Z AUTO 17011KT 10SM OVC007 07/06 A3012 RMK AO2 CIG 007V012 SLP201 T00720056=
202012161039 SPECI KPAE 161039Z AUTO 17014KT 10SM BKN009 OVC015 08/06 A3012 RMK AO2 CIG 007V011 T00780056=
202012160953 METAR KPAE 160953Z AUTO 18012G20KT 10SM OVC012 08/06 A3012 RMK AO2 SLP201 T00780056=
202012160853 METAR KPAE 160853Z AUTO 19012KT 10SM BKN011 OVC017 08/06 A3011 RMK AO2 SLP201 T00780056 51005=
202012160753 METAR KPAE 160753Z AUTO 19011KT 10SM OVC013 08/06 A3011 RMK AO2 SLP200 T00780056 400830050=
202012160736 SPECI KPAE 160736Z AUTO 19010KT 10SM OVC014 08/06 A3012 RMK AO2 T00780056=
202012160653 METAR KPAE 160653Z AUTO 18007KT 10SM OVC018 08/05 A3011 RMK AO2 SLP200 T00780050=
202012160631 SPECI KPAE 160631Z AUTO 17007KT 10SM BKN021 BKN120 08/04 A3011 RMK AO2 T00780044=
202012160553 METAR KPAE 160553Z AUTO 19008G17KT 10SM SCT018 BKN120 08/05 A3010 RMK AO2 SLP195 60000 T00780050 10083 20072 51014=
202012160522 SPECI KPAE 160522Z AUTO 19015KT 10SM BKN016 OVC120 08/05 A3008 RMK AO2 T00780050=
202012160501 SPECI KPAE 160501Z AUTO 19011KT 10SM BKN014 OVC120 08/05 A3008 RMK AO2 T00780050=
202012160453 METAR KPAE 160453Z AUTO 19015KT 10SM SCT014 OVC110 08/05 A3008 RMK AO2 SLP190 T00780050=
202012160441 SPECI KPAE 160441Z 18015KT 10SM SCT016 OVC110 08/05 A3008 RMK AO2 T00780050=
202012160353 METAR KPAE 160353Z 20016KT 10SM BKN017 OVC023 08/06 A3008 RMK AO2 SLP189 T00830056=
202012160253 METAR KPAE 160253Z 19011KT 10SM BKN018 BKN024 OVC028 08/06 A3006 RMK AO2 SLP181 60000 T00780056 51015=
202012160225 SPECI KPAE 160225Z 19011KT 10SM BKN015 BKN023 OVC090 08/06 A3006 RMK AO2 T00780056=
202012160203 SPECI KPAE 160203Z 20015KT 10SM FEW020 BKN090 OVC120 07/05 A3005 RMK AO2 T00720050=
202012160153 METAR KPAE 160153Z 19014KT 10SM SCT018 BKN025 OVC120 07/05 A3005 RMK AO2 SLP180 T00720050=
202012160100 SPECI KPAE 160100Z 17011KT 10SM BKN021 BKN027 OVC035 08/06 A3004 RMK AO2 T00780056=
202012160053 METAR KPAE 160053Z 17007KT 10SM BKN013 OVC021 08/06 A3004 RMK AO2 RAE07 SLP175 P0000 T00780056=
202012152355 SPECI KPAE 152355Z 19012KT 10SM -RA BKN013 OVC021 08/06 A3001 RMK AO2 P0000 T00830061=
202012152353 METAR KPAE 152353Z 19013KT 10SM -RA FEW013 OVC021 08/06 A3001 RMK AO2 RAE2256B19 SLP166 P0000 60001 T00830061 10083 20061 53012=
202012152253 METAR KPAE 152253Z 19011KT 10SM -RA BKN008 OVC013 08/06 A2999 RMK AO2 RAB14 SLP159 P0001 T00830061=
202012152153 METAR KPAE 152153Z 19009KT 10SM OVC009 08/06 A2999 RMK AO2 SLP159 T00780056=
202012152053 METAR KPAE 152053Z 19009KT 10SM OVC009 07/06 A2998 RMK AO2 SLP154 T00720056 51013=
202012151953 METAR KPAE 151953Z 19014KT 10SM OVC007 07/06 A2998 RMK AO2 SLP153 T00720056=
202012151853 METAR KPAE 151853Z 18016G21KT 10SM BKN007 OVC011 07/06 A2995 RMK AO2 PK WND 16027/1822 SLP145 T00670056=
202012151753 METAR KPAE 151753Z 16015G22KT 10SM BKN008 OVC015 06/05 A2994 RMK AO2 CIG 005V011 SLP140 60003 T00610050 10067 20050 56007=
202012151653 METAR KPAE 151653Z 16014KT 5SM BR BKN005 OVC020 06/04 A2994 RMK AO2 RAE40 SLP140 P0001 T00560044=
202012151553 METAR KPAE 151553Z 15011KT 4SM -RA BR BKN004 BKN007 05/04 A2994 RMK AO2 SLP144 P0001 T00500039=
202012151453 METAR KPAE 151453Z 15008G16KT 4SM -RA BR OVC007 06/04 A2996 RMK AO2 RAE1357B12 SLP147 P0000 60001 T00560039 55015=
202012151402 SPECI KPAE 151402Z AUTO 16014KT 10SM BKN009 OVC035 05/03 A2996 RMK AO2 RAE1357 P0000 T00500033=
202012151353 METAR KPAE 151353Z AUTO 17012G22KT 10SM -RA SCT011 OVC036 06/03 A2995 RMK AO2 RAB1255E10B36 SLP146 P0000 T00560033=
202012151253 METAR KPAE 151253Z AUTO 16012KT 10SM BKN032 OVC042 07/02 A2998 RMK AO2 RAE52 SLP154 P0001 T00670022=
202012151153 METAR KPAE 151153Z AUTO 16014KT 10SM -RA SCT038 BKN065 OVC110 07/02 A3000 RMK AO2 RAB52 SLP162 P0000 60001 70009 T00670017 10067 20056 57031=
202012151053 METAR KPAE 151053Z AUTO 14009KT 10SM FEW036 SCT049 OVC070 07/02 A3003 RMK AO2 RAB16E29 SLP173 P0000 T00670017=
202012150953 METAR KPAE 150953Z AUTO 15012G16KT 10SM BKN032 OVC049 06/02 A3006 RMK AO2 RAB0859E09 SLP183 P0000 T00560022=
202012150853 METAR KPAE 150853Z AUTO 15011KT 10SM SCT030 BKN065 OVC080 06/03 A3009 RMK AO2 RAE17 SLP194 P0000 60001 T00560028 58028=
202012150753 METAR KPAE 150753Z AUTO 15010KT 10SM -RA FEW037 BKN075 OVC090 06/03 A3014 RMK AO2 RAB04 SLP209 P0001 T00560028 400720056=
202012150653 METAR KPAE 150653Z AUTO 15013KT 10SM FEW040 SCT050 BKN110 06/03 A3016 RMK AO2 SLP216 T00610028=
202012150553 METAR KPAE 150553Z AUTO 15013KT 10SM FEW046 BKN110 06/03 A3018 RMK AO2 SLP222 T00610028 10072 20056 58008=
202012150453 METAR KPAE 150453Z AUTO 16012KT 10SM FEW049 FEW120 06/03 A3019 RMK AO2 SLP227 T00610033=
202012150353 METAR KPAE 150353Z 16008KT 10SM FEW050 06/03 A3021 RMK AO2 SLP232 T00610033=
202012150253 METAR KPAE 150253Z 16010KT 10SM CLR 06/03 A3020 RMK AO2 SLP231 T00610033 57010=
202012150153 METAR KPAE 150153Z 16012KT 10SM CLR 06/03 A3021 RMK AO2 SLP233 T00610033=
202012150053 METAR KPAE 150053Z 17010KT 10SM SCT075 BKN100 07/03 A3023 RMK AO2 SLP238 T00670033=
202012142353 METAR KPAE 142353Z AUTO 14006KT 10SM FEW038 FEW048 07/06 A3023 RMK AO2 SLP241 60005 T00720056 10072 20067 58003=
202012142253 METAR KPAE 142253Z 15005KT 10SM FEW009 FEW021 BKN037 07/05 A3024 RMK AO2 SLP243 T00720050=
202012142153 METAR KPAE 142153Z 18008KT 10SM BKN006 OVC015 07/06 A3024 RMK AO2 SLP242 T00670056=
202012142053 METAR KPAE 142053Z 16005KT 5SM BR BKN006 BKN025 OVC040 07/05 A3024 RMK AO2 RAE1954B15E44 SLP244 P0004 60005 T00670050 58001=
202012142017 SPECI KPAE 142017Z 17005KT 5SM R16R/6000VP6000FT -RA BR BKN006 BKN025 OVC040 07/06 A3025 RMK AO2 RAE1954B15 P0001 T00670061=
202012142013 SPECI KPAE 142013Z 17005KT 5SM BR SCT007 BKN022 OVC041 07/06 A3025 RMK AO2 RAE1954 P0000 T00720056=
202012141953 METAR KPAE 141953Z 17006KT 5SM -RA BR BKN006 BKN025 OVC040 07/06 A3025 RMK AO2 RAB1855 SLP246 P0001 T00720061=
202012141853 METAR KPAE 141853Z 17004KT 10SM OVC006 07/06 A3025 RMK AO2 CIG 005V009 SLP248 T00670056=
202012141753 METAR KPAE 141753Z 18005KT 5SM BR OVC005 07/06 A3025 RMK AO2 CIG 003V008 SLP245 60003 T00670056 10067 20056 53022=
202012141700 SPECI KPAE 141700Z 14003KT 1SM R16R/P6000FT BR BKN002 OVC026 06/06 A3023 RMK AO2 T00610056=
202012141653 METAR KPAE 141653Z 16004KT 1SM R16R/P6000FT BR OVC005 06/06 A3023 RMK AO2 RAE23 SLP239 P0002 T00560056=
202012141553 METAR KPAE 141553Z 00000KT 1SM R16R/5500VP6000FT -RA BR OVC005 06/05 A3020 RMK AO2 RAB37 CIG 001V008 SLP230 P0000 T00560050=
202012141541 SPECI KPAE 141541Z 00000KT 1SM R16R/P6000FT -RA BR FEW001 BKN005 OVC047 06/05 A3020 RMK AO2 RAB37 P0000 T00560050=
202012141453 METAR KPAE 141453Z 11004KT 10SM OVC005 06/05 A3018 RMK AO2 RAE11 SLP224 P0000 60001 T00610050 51015=
202012141353 METAR KPAE 141353Z AUTO 00000KT 10SM -RA OVC007 06/06 A3017 RMK AO2 RAB22 CIG 004V009 SLP221 P0001 T00610056=
202012141331 SPECI KPAE 141331Z AUTO 21004KT 10SM -RA BKN007 OVC012 07/05 A3016 RMK AO2 RAB22 CIG 005V009 P0000 T00670050=
202012141312 SPECI KPAE 141312Z AUTO 20006KT 10SM BKN010 OVC014 07/05 A3016 RMK AO2 CIG 006V012 T00670050=
202012141253 METAR KPAE 141253Z AUTO 20005KT 10SM BKN009 OVC014 06/06 A3015 RMK AO2 CIG 006V012 SLP214 T00610056=
202012141242 SPECI KPAE 141242Z AUTO 20006KT 10SM BKN009 OVC014 06/06 A3015 RMK AO2 CIG 006V012 T00610056=
202012141235 SPECI KPAE 141235Z AUTO 20006KT 10SM SCT009 OVC014 06/05 A3015 RMK AO2 T00610050=
202012141216 SPECI KPAE 141216Z AUTO 18005KT 10SM SCT007 OVC015 06/05 A3014 RMK AO2 T00610050=
202012141153 METAR KPAE 141153Z AUTO 19006KT 10SM BKN007 OVC016 06/05 A3014 RMK AO2 CIG 005V010 SLP208 70006 T00610050 10061 20050 51014=
202012141055 SPECI KPAE 141055Z AUTO 16006KT 10SM BKN009 OVC013 06/05 A3013 RMK AO2 CIG 006V011 T00610050=
202012141053 METAR KPAE 141053Z AUTO 15007KT 10SM BKN010 OVC013 06/05 A3013 RMK AO2 CIG 006V013 SLP206 T00610050=
202012140953 METAR KPAE 140953Z AUTO 16009KT 10SM OVC007 06/04 A3011 RMK AO2 SLP199 T00610044=
202012140853 METAR KPAE 140853Z AUTO 16007KT 10SM OVC009 06/04 A3010 RMK AO2 CIG 007V013 SLP195 T00560039 52016=
202012140753 METAR KPAE 140753Z AUTO 16008KT 10SM BKN008 BKN017 OVC032 06/04 A3008 RMK AO2 CIG 007V011 SLP189 T00560039 400610033=
202012140720 SPECI KPAE 140720Z AUTO 18006KT 10SM BKN008 BKN017 OVC110 06/04 A3008 RMK AO2 T00560039=
202012140653 METAR KPAE 140653Z AUTO 15010KT 10SM FEW008 BKN017 OVC027 06/04 A3006 RMK AO2 SLP184 T00560039=
202012140633 SPECI KPAE 140633Z AUTO 16008KT 10SM SCT008 BKN017 OVC027 06/04 A3006 RMK AO2 T00560039=
202012140610 SPECI KPAE 140610Z AUTO 16009KT 10SM BKN009 BKN027 OVC085 05/03 A3006 RMK AO2 T00500033=
202012140553 METAR KPAE 140553Z AUTO 15010KT 10SM BKN012 BKN050 OVC075 06/04 A3005 RMK AO2 RAB0458E17 SLP179 P0000 60000 T00560039 10056 20044 53019=
202012140516 SPECI KPAE 140516Z AUTO 15011KT 10SM -RA SCT016 BKN080 OVC095 05/03 A3003 RMK AO2 RAB0458 P0000 T00500033=
202012140453 METAR KPAE 140453Z AUTO 15008KT 10SM SCT010 BKN022 05/03 A3003 RMK AO2 SLP172 T00500033=
202012140353 METAR KPAE 140353Z 16010KT 10SM SCT010 BKN022 04/03 A3001 RMK AO2 SLP166 T00440033=
202012140253 METAR KPAE 140253Z VRB03KT 10SM OVC024 05/03 A2999 RMK AO2 SLP160 60000 T00500028 53007=
202012140238 SPECI KPAE 140238Z VRB05KT 10SM BKN026 BKN095 04/03 A2999 RMK AO2 T00440028=
202012140220 SPECI KPAE 140220Z VRB04KT 10SM SCT024 BKN095 05/03 A2998 RMK AO2 T00500028=
202012140153 METAR KPAE 140153Z VRB04KT 10SM FEW009 OVC024 05/03 A2998 RMK AO2 RAB22E37 SLP154 P0000 T00500028=
202012140053 METAR KPAE 140053Z VRB04KT 10SM SCT012 OVC023 05/03 A2997 RMK AO2 SLP153 T00500033=
202012140008 SPECI KPAE 140008Z AUTO 11007KT 10SM OVC022 06/03 A2996 RMK AO2 T00560033 $=
202012132353 METAR KPAE 132353Z AUTO 12006KT 10SM 06/03 A2996 RMK AO2 SLP147 60005 T00560033 10056 20039 $=
202012132253 METAR KPAE 132253Z VRB06KT 10SM OVC019 06/03 A2994 RMK AO2 SLP144 T00560033=
202012132153 METAR KPAE 132153Z VRB06G17KT 10SM OVC015 05/03 A2993 RMK AO2 SLP140 T00500028=
202012132053 METAR KPAE 132053Z 13005KT 10SM OVC021 04/02 A2993 RMK AO2 RAE20 SLP139 P0000 60005 T00440022 51001=
202012131953 METAR KPAE 131953Z 14010G18KT 10SM -RA BKN026 OVC033 04/02 A2993 RMK AO2 SLP139 P0002 T00390017=
202012131853 METAR KPAE 131853Z 14009G16KT 10SM -RA BKN029 OVC035 04/02 A2994 RMK AO2 SLP143 P0003 T00390017=
202012131813 SPECI KPAE 131813Z VRB06KT 10SM -RA BKN029 OVC035 04/01 A2994 RMK AO2 P0001 T00390011=
202012131753 METAR KPAE 131753Z 15008G15KT 10SM -RA BKN031 OVC038 04/01 A2993 RMK AO2 RAB15 SLP139 P0000 60001 T00440011 10044 20033 53007=
202012131738 SPECI KPAE 131738Z VRB06KT 10SM -RA SCT026 OVC032 04/01 A2993 RMK AO2 RAB15 P0000 T00440011=
202012131653 METAR KPAE 131653Z 12004KT 10SM OVC028 04/01 A2992 RMK AO2 RAB15E41 SLP135 P0001 T00390011=
202012131645 SPECI KPAE 131645Z VRB03KT 10SM BKN028 OVC036 04/01 A2992 RMK AO2 RAB15E41 P0001 T00390011=
202012131553 METAR KPAE 131553Z 12005KT 10SM OVC030 04/01 A2991 RMK AO2 SLP132 T00390011=
202012131525 SPECI KPAE 131525Z VRB03KT 10SM OVC029 04/02 A2991 RMK AO2 T00390017=
202012131504 SPECI KPAE 131504Z 14004KT 10SM OVC030 03/01 A2991 RMK AO2 T00330011=
202012131453 METAR KPAE 131453Z VRB04KT 10SM OVC028 03/02 A2991 RMK AO2 SLP132 60000 T00330017 55007=
202012131418 SPECI KPAE 131418Z 11004KT 10SM BKN026 OVC032 03/01 A2991 RMK AO2 T00330011=
202012131403 SPECI KPAE 131403Z 10006KT 10SM SCT024 OVC032 03/01 A2990 RMK AO2 T00330011=
202012131353 METAR KPAE 131353Z VRB03KT 10SM BKN026 OVC034 03/01 A2990 RMK AO2 SLP131 T00330011=
202012131329 SPECI KPAE 131329Z VRB04KT 10SM BKN027 OVC038 03/01 A2992 RMK AO2 T00330011=
202012131253 METAR KPAE 131253Z 15009KT 10SM OVC042 03/01 A2992 RMK AO2 RAE1157B37E46 SLP135 P0000 T00330011=
202012131153 METAR KPAE 131153Z 12010G15KT 10SM -RA OVC050 04/00 A2993 RMK AO2 SLP138 P0001 60002 70002 T00390000 10061 20033 58003=
202012131053 METAR KPAE 131053Z 15011KT 10SM -RA BKN033 OVC045 04/00 A2993 RMK AO2 RAB02 SLP140 P0001 T00390000=
202012131051 SPECI KPAE 131051Z 16011KT 10SM -RA BKN033 OVC045 04/00 A2994 RMK AO2 RAB02 P0001=
202012131042 SPECI KPAE 131042Z 16015G20KT 10SM -RA BKN028 OVC047 04/00 A2994 RMK AO2 RAB02 P0001 T00390000=
202012130953 METAR KPAE 130953Z 16012KT 10SM BKN050 OVC065 06/M03 A2994 RMK AO2 SLP140 T00561028=
202012130853 METAR KPAE 130853Z 15010G15KT 10SM BKN110 06/M04 A2992 RMK AO2 SLP136 T00561039 58005=
202012130753 METAR KPAE 130753Z 15007KT 10SM CLR 06/M04 A2993 RMK AO2 SLP139 T00561039 400670000=
202012130653 METAR KPAE 130653Z 19005KT 10SM CLR 04/M02 A2994 RMK AO2 SLP143 T00441022=
202012130553 METAR KPAE 130553Z 11012KT 10SM CLR 04/M03 A2994 RMK AO2 SLP143 T00441033 10050 20028 58041=
202012130453 METAR KPAE 130453Z 11008KT 10SM CLR 03/M01 A2999 RMK AO2 SLP158 T00331006=
202012130353 METAR KPAE 130353Z 12007KT 10SM CLR 04/M01 A3003 RMK AO2 SLP172 T00391011=
202012130253 METAR KPAE 130253Z 12005KT 10SM CLR 04/M01 A3006 RMK AO2 SLP185 T00391006 58013=
202012130153 METAR KPAE 130153Z 10004KT 10SM CLR 04/M01 A3008 RMK AO2 SLP192 T00391006=
202012130053 METAR KPAE 130053Z 10003KT 10SM CLR 04/M01 A3009 RMK AO2 SLP196 T00391006=
202012122353 METAR KPAE 122353Z 00000KT 10SM CLR 05/M01 A3010 RMK AO2 SLP197 T00501006 10067 20017 56018=
202012122253 METAR KPAE 122253Z 35003KT 10SM CLR 06/01 A3011 RMK AO2 SLP202 T00560011=
202012122153 METAR KPAE 122153Z 10003KT 10SM CLR 06/M01 A3013 RMK AO2 SLP207 T00611011=
202012122053 METAR KPAE 122053Z 10004KT 10SM CLR 06/00 A3015 RMK AO2 SLP216 T00560000 58025=
202012121953 METAR KPAE 121953Z 10004KT 10SM CLR 04/00 A3018 RMK AO2 SLP226 T00390000=
202012121853 METAR KPAE 121853Z 15003KT 10SM CLR 03/00 A3021 RMK AO2 SLP235 T00280000=
202012121753 METAR KPAE 121753Z VRB03KT 10SM VCFG CLR 02/M01 A3023 RMK AO2 SLP242 T00171006 10017 20000 56004=
202012121653 METAR KPAE 121653Z VRB04KT 10SM VCFG CLR 01/M01 A3023 RMK AO2 SLP243 T00061006=
202012121553 METAR KPAE 121553Z 11008KT 10SM CLR 00/M01 A3023 RMK AO2 SLP243 T00001011=
202012121453 METAR KPAE 121453Z 11007KT 10SM FEW022 01/M01 A3024 RMK AO2 SLP246 T00061006 51009=
202012121406 SPECI KPAE 121406Z 06003KT 10SM SCT023 BKN030 01/01 A3024 RMK AO2 T00110006=
202012121353 METAR KPAE 121353Z 05004KT 10SM FEW001 BKN023 BKN028 02/01 A3024 RMK AO2 SLP244 T00170006=
202012121345 SPECI KPAE 121345Z 05005KT 7SM SCT001 OVC022 02/01 A3023 RMK AO2 T00170006=
202012121341 SPECI KPAE 121341Z 06005KT 2SM R16R/2200VP6000FT BR BKN001 OVC022 01/01 A3023 RMK AO2 T00110006=
202012121334 SPECI KPAE 121334Z 06003KT 1/2SM R16R/1200V3000FT FG VV001 01/01 A3023 RMK AO2 T00060006=
202012121300 SPECI KPAE 121300Z 01004KT 1/4SM R16R/1200V1400FT FG VV001 01/01 A3022 RMK AO2 T00110006=
202012121253 METAR KPAE 121253Z 36004KT 1/4SM R16R/1200V2600FT FG VV001 01/01 A3023 RMK AO2 SLP241 T00110006=
202012121233 SPECI KPAE 121233Z 36003KT 1/2SM R16R/1800V5000FT FG VV001 02/01 A3022 RMK AO2 T00170011=
202012121215 SPECI KPAE 121215Z 03005KT 1/4SM R16R/1400V2600FT FG VV001 02/01 A3022 RMK AO2 T00170011=
202012121153 METAR KPAE 121153Z 00000KT 1/4SM R16R/1400V1600FT FG VV001 02/02 A3021 RMK AO2 SLP236 T00170017 10033 20011 51018=
202012121148 SPECI KPAE 121148Z 00000KT 1/4SM R16R/1400V2200FT FG VV001 02/02 A3021 RMK AO2=
202012121139 SPECI KPAE 121139Z 03003KT 3/4SM R16R/2000VP6000FT BR VV001 02/02 A3021 RMK AO2 T00170017=
202012121131 SPECI KPAE 121131Z 36003KT 1 3/4SM R16R/5500VP6000FT BR OVC002 02/02 A3021 RMK AO2 T00170017=
202012121118 SPECI KPAE 121118Z 03003KT 7SM OVC002 02/02 A3021 RMK AO2 T00170017=
202012121110 SPECI KPAE 121110Z 00000KT 2SM R16R/4500VP6000FT BR OVC002 02/02 A3021 RMK AO2 T00170017=
202012121100 SPECI KPAE 121100Z 00000KT 1/2SM R16R/2200V5500FT FG VV002 02/02 A3020 RMK AO2 T00170017=
202012121053 METAR KPAE 121053Z 00000KT 1/2SM R16R/1800V2800FT FG VV001 02/01 A3020 RMK AO2 SLP232 T00170011=
202012121049 SPECI KPAE 121049Z 36004KT 3/4SM R16R/1800V3500FT BR OVC001 02/01 A3020 RMK AO2=
202012121045 SPECI KPAE 121045Z 02004KT 2SM R16R/1800VP6000FT BR OVC001 02/01 A3020 RMK AO2 T00170011=
202012121035 SPECI KPAE 121035Z 02003KT 10SM R16R/1600VP6000FT OVC003 02/01 A3019 RMK AO2 CIG 001V006 T00170011=
202012120953 METAR KPAE 120953Z 03005KT 10SM SCT003 BKN007 01/01 A3018 RMK AO2 SLP223 T00110006=
202012120943 SPECI KPAE 120943Z 35005KT 9SM SCT001 01/01 A3017 RMK AO2 T00110006=
202012120935 SPECI KPAE 120935Z 36004KT 2SM BR BKN001 01/01 A3017 RMK AO2 T00110011=
202012120916 SPECI KPAE 120916Z 35004KT 3/4SM R16R/1400V2400FT BR VV001 02/01 A3017 RMK AO2 T00170011=
202012120910 SPECI KPAE 120910Z 00000KT 2SM R16R/1400VP6000FT BR OVC001 02/01 A3017 RMK AO2 T00170011=
202012120853 METAR KPAE 120853Z 01003KT 10SM BKN003 02/01 A3016 RMK AO2 SLP218 T00170006 51006=
202012120849 SPECI KPAE 120849Z 36004KT 10SM SCT003 01/01 A3016 RMK AO2=
202012120838 SPECI KPAE 120838Z 02004KT 4SM BR CLR 01/01 A3016 RMK AO2 T00110006=
202012120828 SPECI KPAE 120828Z 00000KT 1 3/4SM BR CLR 02/01 A3016 RMK AO2 T00170006=
202012120753 METAR KPAE 120753Z 02005KT 9SM SCT002 02/02 A3015 RMK AO2 SLP214 T00220017 400670022=
202012120734 SPECI KPAE 120734Z 04003KT 6SM BR BKN002 02/02 A3015 RMK AO2 T00220017=
202012120700 SPECI KPAE 120700Z 36003KT 6SM BR SCT001 03/02 A3014 RMK AO2 T00280022=
202012120653 METAR KPAE 120653Z 01004KT 5SM BR BKN002 03/02 A3014 RMK AO2 SLP210 T00280022=
202012120619 SPECI KPAE 120619Z 35003KT 4SM BR OVC002 03/02 A3013 RMK AO2 T00280022=
202012120553 METAR KPAE 120553Z 00000KT 5SM BR OVC001 03/03 A3013 RMK AO2 SLP207 T00330028 10056 20028 53010=
202012120532 SPECI KPAE 120532Z 35005KT 7SM BKN003 03/03 A3013 RMK AO2 T00330028=
202012120515 SPECI KPAE 120515Z 01005KT 9SM SCT003 03/03 A3013 RMK AO2 T00330028=
202012120503 SPECI KPAE 120503Z 36005KT 7SM BKN003 03/03 A3013 RMK AO2 T00330028=
202012120453 METAR KPAE 120453Z 34004KT 9SM BKN001 03/03 A3013 RMK AO2 SLP205 T00330028=
202012120440 SPECI KPAE 120440Z 35005KT 4SM BR OVC001 03/03 A3011 RMK AO2 T00330028=
202012120433 SPECI KPAE 120433Z 35005KT 2 1/2SM BR OVC001 04/03 A3011 RMK AO2 T00390033=
202012120407 SPECI KPAE 120407Z 01004KT 3SM BR OVC001 04/03 A3010 RMK AO2 T00390033=
202012120353 METAR KPAE 120353Z 02006KT 8SM BKN003 04/03 A3010 RMK AO2 CIG 001V007 SLP197 T00390033=
202012120307 SPECI KPAE 120307Z 33003KT 9SM BKN005 03/02 A3010 RMK AO2 T00330022=
202012120253 METAR KPAE 120253Z 35003KT 10SM FEW005 03/02 A3009 RMK AO2 SLP194 T00280017 53010=
202012120153 METAR KPAE 120153Z 32003KT 10SM CLR 03/02 A3008 RMK AO2 SLP189 T00330017=
202012120053 METAR KPAE 120053Z 00000KT 10SM SCT013 03/02 A3007 RMK AO2 SLP186 T00330022=
202012120035 SPECI KPAE 120035Z AUTO 00000KT 10SM BKN011 04/02 A3006 RMK AO2 T00440022=
202012112353 METAR KPAE 112353Z AUTO 27003KT 10SM CLR 06/02 A3006 RMK AO2 SLP183 T00560017 10067 20050 53002=
202012112253 METAR KPAE 112253Z 18005KT 10SM FEW020 06/02 A3005 RMK AO2 SLP179 T00610017=
202012112234 SPECI KPAE 112234Z 16007KT 10SM SCT022 07/02 A3005 RMK AO2 T00670017=
202012112153 METAR KPAE 112153Z 16003KT 10SM BKN022 06/02 A3005 RMK AO2 SLP178 T00610022=
202012112059 SPECI KPAE 112059Z 15003KT 10SM BKN022 06/03 A3005 RMK AO2 T00560028=
202012112053 METAR KPAE 112053Z 17005KT 10SM BKN014 BKN022 06/03 A3005 RMK AO2 SLP180 T00560028 58006=
202012111953 METAR KPAE 111953Z 15007KT 10SM BKN010 OVC019 06/03 A3007 RMK AO2 SLP186 T00560028=
202012111945 SPECI KPAE 111945Z 17005KT 10SM BKN013 OVC020 06/03 A3007 RMK AO2 T00560028=
202012111935 SPECI KPAE 111935Z 15006KT 10SM SCT013 OVC020 06/03 A3007 RMK AO2 T00560028=
202012111924 SPECI KPAE 111924Z 15005KT 10SM BKN014 OVC021 06/03 A3007 RMK AO2 T00560028=
202012111853 METAR KPAE 111853Z 18007KT 10SM SCT010 BKN016 OVC023 06/03 A3008 RMK AO2 SLP188 T00560028=
202012111800 SPECI KPAE 111800Z 17006KT 10SM OVC013 05/03 A3007 RMK AO2 T00500028=
202012111753 METAR KPAE 111753Z 18007KT 10SM OVC015 05/03 A3007 RMK AO2 SLP187 60000 T00500028 10050 20044 53011=
202012111700 SPECI KPAE 111700Z 18011KT 10SM OVC015 05/02 A3006 RMK AO2 T00500022=
202012111653 METAR KPAE 111653Z 19010KT 10SM OVC013 05/02 A3005 RMK AO2 SLP181 T00500022=
202012111630 SPECI KPAE 111630Z 19014KT 10SM OVC018 05/02 A3005 RMK AO2 T00500022=
202012111553 METAR KPAE 111553Z 17006KT 10SM OVC014 04/03 A3004 RMK AO2 SLP176 T00440028=
202012111453 METAR KPAE 111453Z 17009KT 10SM BKN014 OVC021 05/03 A3004 RMK AO2 SLP176 60000 T00500028 53002=
202012111353 METAR KPAE 111353Z AUTO 15009KT 10SM BKN012 OVC019 05/03 A3003 RMK AO2 SLP173 T00500028=
202012111253 METAR KPAE 111253Z AUTO 15008KT 10SM OVC011 05/03 A3003 RMK AO2 RAB18E31 SLP173 P0000 T00500028=
202012111205 SPECI KPAE 111205Z AUTO 16009KT 10SM BKN011 OVC017 05/03 A3004 RMK AO2 T00500028=
202012111153 METAR KPAE 111153Z AUTO 15009KT 10SM OVC015 05/03 A3003 RMK AO2 SLP173 60000 70001 T00500028 10050 20044 50002=
202012111053 METAR KPAE 111053Z AUTO 17008KT 10SM OVC011 05/03 A3004 RMK AO2 SLP175 T00500033=
202012110953 METAR KPAE 110953Z AUTO 16009KT 10SM OVC012 05/03 A3003 RMK AO2 SLP172 T00500033=
202012110853 METAR KPAE 110853Z AUTO 18011KT 10SM OVC010 05/03 A3003 RMK AO2 SLP171 60000 T00500033 51006=
202012110807 SPECI KPAE 110807Z AUTO 18009KT 10SM OVC012 05/03 A3003 RMK AO2 T00500033=
202012110755 SPECI KPAE 110755Z AUTO 18009KT 10SM FEW009 OVC015 05/03 A3002 RMK AO2 T00500033=
202012110753 METAR KPAE 110753Z AUTO 18009KT 10SM FEW010 OVC015 05/03 A3002 RMK AO2 SLP170 T00500033 400670022=
202012110726 SPECI KPAE 110726Z AUTO 17008KT 10SM OVC010 05/03 A3002 RMK AO2 CIG 006V014 T00500033=
202012110653 METAR KPAE 110653Z AUTO 16010KT 10SM BKN007 OVC015 04/03 A3001 RMK AO2 RAB42E51 CIG 005V010 SLP167 P0000 T00440033=
202012110553 METAR KPAE 110553Z AUTO 16010KT 10SM OVC007 04/03 A3001 RMK AO2 RAE30 CIG 006V011 SLP165 P0001 60001 T00440028 10067 20044 51010=
202012110503 SPECI KPAE 110503Z AUTO 17010KT 10SM -RA OVC009 05/03 A3000 RMK AO2 P0001 T00500028=
202012110453 METAR KPAE 110453Z 17011KT 10SM -RA OVC011 05/03 A3000 RMK AO2 RAB37 SLP163 P0000 T00500028=
202012110416 SPECI KPAE 110416Z 17009KT 10SM BKN012 OVC065 05/03 A2999 RMK AO2 T00500028=
202012110353 METAR KPAE 110353Z 17009KT 10SM FEW012 OVC065 05/03 A2999 RMK AO2 SLP159 T00500028=
202012110253 METAR KPAE 110253Z 18013KT 10SM SCT005 OVC075 05/03 A2998 RMK AO2 SLP154 T00500028 51012=
202012110203 SPECI KPAE 110203Z 16008KT 10SM SCT005 OVC075 06/04 A2997 RMK AO2 T00560039=
202012110153 METAR KPAE 110153Z 16010KT 10SM OVC075 06/04 A2997 RMK AO2 SLP152 T00560039=
202012110053 METAR KPAE 110053Z 18006KT 10SM CLR 05/03 A2996 RMK AO2 SLP149 T00500033=
202012102353 METAR KPAE 102353Z 14004KT 10SM CLR 07/02 A2994 RMK AO2 SLP142 T00670017 10067 20044 55001=
202012102253 METAR KPAE 102253Z 18004KT 10SM CLR 06/03 A2993 RMK AO2 SLP138 T00610028=
202012102153 METAR KPAE 102153Z 25009KT 10SM CLR 06/03 A2993 RMK AO2 SLP139 T00560033=
202012102053 METAR KPAE 102053Z VRB03KT 10SM BKN110 06/01 A2994 RMK AO2 SLP144 T00560011 58031=
202012101953 METAR KPAE 101953Z 12004KT 10SM OVC100 05/02 A2999 RMK AO2 SLP160 T00500017=
202012101853 METAR KPAE 101853Z 18003KT 10SM BKN120 05/02 A3002 RMK AO2 SLP171 T00500022=
202012101753 METAR KPAE 101753Z 00000KT 10SM SCT120 04/02 A3004 RMK AO2 SLP175 T00440017 10044 20022 56009=
202012101706 SPECI KPAE 101706Z 00000KT 10SM FEW006 FEW120 03/01 A3003 RMK AO2 T00330011=
202012101653 METAR KPAE 101653Z 00000KT 10SM CLR 03/01 A3004 RMK AO2 SLP175 T00330011=
202012101553 METAR KPAE 101553Z 14003KT 10SM SCT120 03/01 A3004 RMK AO2 SLP177 T00330011=
202012101453 METAR KPAE 101453Z 11006KT 10SM CLR 03/01 A3006 RMK AO2 SLP184 T00330011 58035=
202012101353 METAR KPAE 101353Z AUTO 12005KT 10SM CLR 03/02 A3010 RMK AO2 SLP198 T00280017=
202012101253 METAR KPAE 101253Z AUTO 15006KT 10SM CLR 03/02 A3014 RMK AO2 SLP211 T00330017=
202012101233 SPECI KPAE 101233Z AUTO 15008KT 10SM FEW007 03/02 A3015 RMK AO2 T00330017=
202012101153 METAR KPAE 101153Z AUTO 12004KT 10SM CLR 03/02 A3017 RMK AO2 SLP220 70004 T00330022 10061 20028 58030=
202012101053 METAR KPAE 101053Z AUTO 11006KT 10SM CLR 03/02 A3021 RMK AO2 SLP233 T00330022=
202012100953 METAR KPAE 100953Z AUTO 10006KT 10SM CLR 04/03 A3023 RMK AO2 SLP241 T00390028=
202012100853 METAR KPAE 100853Z AUTO 10003KT 10SM CLR 03/02 A3026 RMK AO2 SLP251 T00330022 58017=
202012100753 METAR KPAE 100753Z AUTO 00000KT 10SM CLR 04/03 A3029 RMK AO2 SLP259 T00440033 400890044=
202012100653 METAR KPAE 100653Z AUTO 11004KT 10SM CLR 05/04 A3030 RMK AO2 SLP263 T00500039=
202012100553 METAR KPAE 100553Z AUTO 08005KT 10SM CLR 06/04 A3031 RMK AO2 SLP268 T00560039 10078 20056 58008=
202012100453 METAR KPAE 100453Z AUTO 09005KT 10SM CLR 06/04 A3032 RMK AO2 SLP271 T00560039=
202012100353 METAR KPAE 100353Z 06005KT 10SM SCT010 OVC039 07/05 A3033 RMK AO2 SLP275 T00670050=
202012100300 SPECI KPAE 100300Z 04003KT 10SM SCT010 OVC039 07/06 A3034 RMK AO2 T00720056=
202012100253 METAR KPAE 100253Z 03003KT 10SM SCT011 BKN017 OVC032 07/05 A3034 RMK AO2 SLP276 T00720050 58000=
202012100153 METAR KPAE 100153Z 00000KT 10SM SCT014 BKN022 OVC027 07/06 A3034 RMK AO2 SLP277 T00720056=
202012100053 METAR KPAE 100053Z 36003KT 10SM SCT011 BKN019 BKN027 07/06 A3034 RMK AO2 SLP276 T00720056=
202012092353 METAR KPAE 092353Z VRB04KT 10SM SCT007 BKN015 OVC024 08/05 A3034 RMK AO2 SLP276 60003 T00780050 10089 20067 53007=
202012092253 METAR KPAE 092253Z 00000KT 10SM SCT007 BKN028 09/06 A3032 RMK AO2 SLP270 T00890056=
202012092240 SPECI KPAE 092240Z 29003KT 10SM BKN028 09/05 A3032 RMK AO2 T00890050=
202012092153 METAR KPAE 092153Z 00000KT 10SM OVC080 08/06 A3032 RMK AO2 RAE29 SLP270 P0002 T00830061=
202012092123 SPECI KPAE 092123Z VRB03KT 10SM -RA SCT007 BKN049 OVC080 08/06 A3031 RMK AO2 P0002 T00780061=
202012092055 SPECI KPAE 092055Z 00000KT 7SM -RA BKN004 OVC011 07/06 A3032 RMK AO2 P0001 T00720061=
202012092053 METAR KPAE 092053Z 18003KT 1SM R16R/P6000FT -RA BR OVC002 07/06 A3032 RMK AO2 RAB27 SLP270 P0001 60001 T00720061 51002=
202012092026 SPECI KPAE 092026Z 22005KT 1SM R16R/5500VP6000FT BR OVC002 07/06 A3032 RMK AO2 T00670061=
202012092012 SPECI KPAE 092012Z 22007KT 2SM BR BKN005 OVC009 07/06 A3032 RMK AO2 T00670061=
202012092008 SPECI KPAE 092008Z 22007KT 3SM BR OVC004 07/06 A3032 RMK AO2 T00670061=
202012091953 METAR KPAE 091953Z 18008KT 2SM R16R/5000VP6000FT BR BKN005 OVC009 07/06 A3032 RMK AO2 SLP269 T00720061=
202012091942 SPECI KPAE 091942Z 20008KT 2SM BR BKN005 OVC012 07/06 A3032 RMK AO2 CIG 004V008 T00720061=
202012091853 METAR KPAE 091853Z 17006KT 10SM BKN007 OVC022 08/06 A3032 RMK AO2 RAE12 CIG 005V011 SLP271 P0000 T00780061=
202012091753 METAR KPAE 091753Z 16007KT 10SM -RA BKN006 OVC012 07/06 A3031 RMK AO2 RAE07B48 SLP268 P0000 60001 T00720061 10078 20072 51016=
202012091700 SPECI KPAE 091700Z 15008KT 2 1/2SM -RA BR BKN007 BKN012 OVC018 07/06 A3030 RMK AO2 P0000 T00720061=
202012091658 SPECI KPAE 091658Z 16007KT 3SM -RA BR SCT007 BKN012 OVC018 07/06 A3030 RMK AO2 P0000 T00720061=
202012091653 METAR KPAE 091653Z 16008KT 2 1/2SM -RA BR OVC007 07/06 A3030 RMK AO2 RAB14 SLP263 P0001 T00720061=
202012091602 SPECI KPAE 091602Z VRB03KT 2 1/2SM BR OVC007 07/06 A3029 RMK AO2 T00720061=
202012091553 METAR KPAE 091553Z 12004KT 9SM OVC007 07/06 A3028 RMK AO2 SLP258 T00720061=
202012091453 METAR KPAE 091453Z 10006KT 7SM OVC007 07/06 A3027 RMK AO2 SLP252 60000 T00720061 53015=
202012091353 METAR KPAE 091353Z AUTO 07003KT 10SM OVC007 08/06 A3025 RMK AO2 CIG 006V011 SLP246 T00780061=
202012091253 METAR KPAE 091253Z AUTO 00000KT 10SM OVC005 08/06 A3023 RMK AO2 RAB15E30 SLP240 P0000 T00780061=
202012091153 METAR KPAE 091153Z AUTO 00000KT 10SM OVC007 07/06 A3022 RMK AO2 SLP237 60005 70052 T00720061 10083 20072 51018=
202012091053 METAR KPAE 091053Z AUTO 34004KT 10SM OVC008 07/06 A3021 RMK AO2 SLP233 T00720061=
202012090953 METAR KPAE 090953Z AUTO 32005KT 10SM OVC007 08/07 A3018 RMK AO2 CIG 004V011 SLP222 T00780067=
202012090917 SPECI KPAE 090917Z AUTO 31007KT 10SM OVC005 08/07 A3017 RMK AO2 CIG 002V008 T00780067=
202012090853 METAR KPAE 090853Z AUTO 33006KT 10SM OVC004 08/07 A3017 RMK AO2 SLP217 60005 T00780072 53012=
202012090753 METAR KPAE 090753Z AUTO 35007KT 7SM R16R/4500VP6000FT OVC002 08/07 A3014 RMK AO2 RAE38 SLP209 P0001 T00830072 401060078=
202012090748 SPECI KPAE 090748Z AUTO 36006KT 3SM R16R/4500VP6000FT BR OVC002 08/07 A3014 RMK AO2 RAE38 P0001=
202012090741 SPECI KPAE 090741Z AUTO 36005KT 1 3/4SM BR BKN003 OVC009 08/08 A3014 RMK AO2 VIS 1 1/4V5 RAE38 P0001 T00780078=
202012090724 SPECI KPAE 090724Z AUTO 01005KT 10SM -RA BKN003 OVC050 08/07 A3014 RMK AO2 P0001 T00780072=
202012090653 METAR KPAE 090653Z AUTO 35005KT 10SM -RA OVC005 08/07 A3014 RMK AO2 CIG 003V010 SLP208 P0004 T00780072=
202012090627 SPECI KPAE 090627Z AUTO 33008KT 4SM -RA BR BKN005 BKN023 OVC033 08/07 A3014 RMK AO2 P0003 T00780072=
202012090553 METAR KPAE 090553Z AUTO 32007KT 10SM -RA SCT003 SCT014 OVC031 08/07 A3013 RMK AO2 RAB23 SLP205 P0000 60026 T00780072 10083 20078 53013=
202012090507 SPECI KPAE 090507Z AUTO 32005KT 7SM BKN004 OVC016 08/07 A3011 RMK AO2 T00780072=
202012090500 SPECI KPAE 090500Z AUTO 32004KT 8SM SCT004 BKN015 OVC028 08/07 A3010 RMK AO2 T00780072=
202012090453 METAR KPAE 090453Z AUTO 33004KT 2SM BR BKN002 OVC010 08/07 A3011 RMK AO2 RAE0354B28E46 SLP196 P0001 T00780072=
202012090429 SPECI KPAE 090429Z 34005KT 2SM -RA BR BKN002 OVC010 08/07 A3010 RMK AO2 RAE0354B28 P0000 T00780072=
202012090420 SPECI KPAE 090420Z 34005KT 2SM BR SCT002 OVC010 08/07 A3010 RMK AO2 RAE0354 P0000 T00780072=
202012090356 SPECI KPAE 090356Z 34006KT 1SM R16R/5500VP6000FT BR VV001 08/07 A3009 RMK AO2 RAE54 P0000 T00780072=
202012090353 METAR KPAE 090353Z 32006KT 1SM R16R/4500VP6000FT -RA BR OVC002 08/07 A3009 RMK AO2 SLP192 P0001 T00780072=
202012090253 METAR KPAE 090253Z 34004KT 1SM R16R/P6000FT -RA BR OVC002 08/08 A3009 RMK AO2 SLP192 P0010 60024 T00780078 58004=
202012090153 METAR KPAE 090153Z 35006KT 1SM R16R/P6000FT -RA BR VV002 08/08 A3010 RMK AO2 SLP195 P0007 T00830078=
202012090108 SPECI KPAE 090108Z 34006KT 1SM R16R/4000VP6000FT -RA BR VV002 08/08 A3011 RMK AO2 P0002 T00830078=
202012090056 SPECI KPAE 090056Z 33008KT 2SM -RA BR OVC002 08/08 A3011 RMK AO2 P0000 T00830078=
202012090053 METAR KPAE 090053Z 33008KT 1/2SM R16R/5500VP6000FT -RA FG VV002 08/08 A3011 RMK AO2 SLP197 P0007 T00830078=
202012082353 METAR KPAE 082353Z 34007KT 1/2SM R16R/3000VP6000FT -RA FG VV002 08/08 A3010 RMK AO2 SLP196 P0007 60019 T00830083 10100 20083 56009=
202012082256 SPECI KPAE 082256Z 34004KT 1SM R16R/5500VP6000FT -RA BR OVC003 09/08 A3011 RMK AO2 P0000 T00890083=
202012082253 METAR KPAE 082253Z 35006KT 3/4SM R16R/1600V2200FT -RA BR OVC003 09/08 A3010 RMK AO2 RAB16 SLP196 P0004 T00890083=
202012082153 METAR KPAE 082153Z 30004KT 3/4SM R16R/1600V2200FT BR VV002 09/09 A3012 RMK AO2 RAB29E50 SLP202 P0001 T00940089=
202012082110 SPECI KPAE 082110Z 26006KT 1/2SM R16R/0600V1000FT FG VV001 09/09 A3013 RMK AO2 T00940089=
202012082059 SPECI KPAE 082059Z 31005KT 1/2SM R16R/1000V4000FT FG VV001 09/09 A3013 RMK AO2 T00940089=
202012082053 METAR KPAE 082053Z 29005KT 1SM R16R/2400VP6000FT BR OVC002 09/09 A3013 RMK AO2 RAE20B30E43 SLP205 P0001 60007 T00940089 58019=
202012082022 SPECI KPAE 082022Z 28005KT 1SM R16R/0700V1600FT BR OVC002 09/09 A3015 RMK AO2 RAE20 P0000 T00940089=
202012081953 METAR KPAE 081953Z 22004KT 1SM R16R/P6000FT -RA BR OVC002 10/09 A3016 RMK AO2 SLP213 P0003 T01000089=
202012081907 SPECI KPAE 081907Z 00000KT 1SM R16R/P6000FT -RA BR OVC002 09/09 A3017 RMK AO2 P0001 T00940089=
202012081853 METAR KPAE 081853Z 00000KT 2SM R16R/4000VP6000FT -RA BR OVC003 10/09 A3017 RMK AO2 RAB1754 SLP219 P0003 T01000089=
202012081753 METAR KPAE 081753Z 00000KT 1 3/4SM BR BKN003 OVC009 09/09 A3019 RMK AO2 RAE51 SLP223 P0002 60002 T00940089 10100 20089 55003=
202012081724 SPECI KPAE 081724Z 19003KT 1 3/4SM -RA BR BKN003 OVC009 09/09 A3019 RMK AO2 P0001 T00940089=
202012081655 SPECI KPAE 081655Z 18006KT 5SM -RA BR BKN003 OVC009 09/08 A3018 RMK AO2 P0000 T00940083=
202012081653 METAR KPAE 081653Z 18006KT 6SM -RA BR OVC005 09/09 A3018 RMK AO2 RAB48 SLP222 P0000 T00940089=
202012081553 METAR KPAE 081553Z 17007KT 10SM OVC006 09/08 A3018 RMK AO2 SLP221 T00940083=
202012081453 METAR KPAE 081453Z 18007KT 10SM OVC007 09/08 A3020 RMK AO2 SLP226 60000 T00940083 53013=
202012081353 METAR KPAE 081353Z AUTO 17007KT 10SM OVC007 09/08 A3017 RMK AO2 CIG 006V012 SLP218 T00940083=
202012081253 METAR KPAE 081253Z AUTO 16013KT 10SM OVC005 09/08 A3016 RMK AO2 RAB40E50 CIG 005V010 SLP215 P0000 T00890078=
202012081153 METAR KPAE 081153Z AUTO VRB06KT 10SM OVC005 09/07 A3016 RMK AO2 RAB1058E10 SLP212 P0000 60000 T00890072 10117 20089 50002=
202012081053 METAR KPAE 081053Z AUTO 16007G16KT 10SM OVC008 09/07 A3016 RMK AO2 SLP215 T00890072=
202012081038 SPECI KPAE 081038Z AUTO 16013G19KT 10SM OVC009 09/07 A3016 RMK AO2 T00940072=
202012080953 METAR KPAE 080953Z AUTO 16010G21KT 10SM BKN010 OVC022 09/07 A3016 RMK AO2 SLP213 T00940067=
202012080944 SPECI KPAE 080944Z AUTO 18013G20KT 10SM BKN011 BKN014 OVC022 09/07 A3015 RMK AO2 T00940067=
202012080910 SPECI KPAE 080910Z AUTO 16016G22KT 10SM SCT013 BKN024 OVC075 09/07 A3014 RMK AO2 T00940067=
202012080853 METAR KPAE 080853Z AUTO 18012G22KT 10SM FEW023 OVC070 09/06 A3015 RMK AO2 PK WND 18035/0829 SLP211 T00940061 53000=
202012080753 METAR KPAE 080753Z AUTO 18020G29KT 10SM OVC085 11/05 A3013 RMK AO2 PK WND 18030/0702 SLP205 T01060050 401280072=
202012080453 METAR KPAE 080453Z 16016KT 10SM FEW032 BKN095 12/03 A3015 RMK AO2 PK WND 18031/0430 SLP210 T01170028=
202012080353 METAR KPAE 080353Z 18015G21KT 10SM OVC033 12/03 A3015 RMK AO2 SLP212 T01220028=
202012080253 METAR KPAE 080253Z 15011KT 10SM BKN037 BKN049 11/03 A3017 RMK AO2 SLP217 T01110033 58015=
202012080153 METAR KPAE 080153Z 17017G23KT 10SM FEW044 OVC060 11/03 A3019 RMK AO2 SLP224 T01110033=
202012080053 METAR KPAE 080053Z 16017KT 10SM OVC060 12/03 A3020 RMK AO2 SLP227 T01170033=
202012072353 METAR KPAE 072353Z 16013KT 10SM BKN080 OVC095 12/03 A3021 RMK AO2 SLP232 T01220028 10128 20089 55009=
202012072253 METAR KPAE 072253Z 16014KT 10SM BKN090 OVC110 12/04 A3020 RMK AO2 SLP229 T01170039=
202012072153 METAR KPAE 072153Z 16011KT 10SM BKN095 BKN120 13/03 A3023 RMK AO2 SLP237 T01280033=
202012072053 METAR KPAE 072053Z 16009KT 10SM BKN100 13/03 A3024 RMK AO2 SLP241 T01280033 58025=
202012071953 METAR KPAE 071953Z VRB06KT 10SM FEW080 OVC100 11/03 A3027 RMK AO2 SLP254 T01060033=
202012071853 METAR KPAE 071853Z 15011KT 10SM OVC085 10/03 A3031 RMK AO2 SLP264 T01000028=
202012071753 METAR KPAE 071753Z 16011KT 10SM OVC090 09/03 A3031 RMK AO2 SLP267 T00890028 10094 20072 58009=
202012071653 METAR KPAE 071653Z 14008G15KT 100V160 10SM OVC090 09/03 A3034 RMK AO2 SLP275 T00890033=
202012071553 METAR KPAE 071553Z 15009G14KT 10SM OVC090 08/03 A3034 RMK AO2 SLP276 T00830033=
202012071453 METAR KPAE 071453Z 14007G14KT 10SM BKN095 BKN110 08/04 A3034 RMK AO2 SLP276 T00780039 58005=
202012071353 METAR KPAE 071353Z AUTO 15011G15KT 10SM OVC100 08/03 A3035 RMK AO2 SLP278 T00780033=
202012071253 METAR KPAE 071253Z AUTO 15007KT 10SM OVC100 07/03 A3035 RMK AO2 SLP280 T00720033=
202012071153 METAR KPAE 071153Z AUTO 14007KT 10SM BKN110 08/04 A3035 RMK AO2 SLP281 T00780039 10089 20072 58014=
202012071053 METAR KPAE 071053Z AUTO VRB05KT 10SM OVC100 08/04 A3037 RMK AO2 SLP287 T00780039=
202012070953 METAR KPAE 070953Z AUTO 15007KT 10SM OVC110 08/04 A3038 RMK AO2 SLP290 T00780044=
202012070853 METAR KPAE 070853Z AUTO 15009KT 10SM CLR 08/04 A3040 RMK AO2 SLP295 T00780044 58018=
202012070753 METAR KPAE 070753Z AUTO VRB05KT 10SM CLR 08/05 A3042 RMK AO2 SLP302 T00830050 401110078=
202012070653 METAR KPAE 070653Z AUTO VRB05KT 10SM CLR 09/06 A3043 RMK AO2 SLP308 T00890056=
202012070553 METAR KPAE 070553Z AUTO 15006KT 10SM CLR 08/06 A3045 RMK AO2 SLP313 T00830056 10100 20083 56004=
202012070453 METAR KPAE 070453Z 15007KT 10SM CLR 09/06 A3046 RMK AO2 SLP316 T00890056=
202012070353 METAR KPAE 070353Z 15009KT 10SM CLR 09/06 A3045 RMK AO2 SLP314 T00890056=
202012070253 METAR KPAE 070253Z 16009KT 10SM CLR 09/06 A3046 RMK AO2 SLP318 T00940056 55004=
202012070153 METAR KPAE 070153Z 15008KT 10SM CLR 09/06 A3046 RMK AO2 SLP317 T00940056=
202012070053 METAR KPAE 070053Z 16009KT 10SM CLR 10/06 A3047 RMK AO2 SLP320 T01000056=
202012062353 METAR KPAE 062353Z 16011KT 10SM FEW024 10/06 A3048 RMK AO2 SLP322 T01000061 10111 20089 50006=
202012062346 SPECI KPAE 062346Z 16009KT 10SM SCT024 11/06 A3048 RMK AO2 T01060061=
202012062253 METAR KPAE 062253Z 16007G16KT 10SM OVC021 11/07 A3048 RMK AO2 SLP325 T01060067=
202012062200 SPECI KPAE 062200Z 17011KT 10SM BKN017 11/07 A3047 RMK AO2 T01110072=
202012062153 METAR KPAE 062153Z 17010KT 10SM OVC013 11/07 A3046 RMK AO2 SLP316 T01060072=
202012062053 METAR KPAE 062053Z 17012KT 10SM OVC013 11/08 A3046 RMK AO2 SLP316 T01060078 53011=
202012062032 SPECI KPAE 062032Z 16012G17KT 10SM OVC013 10/08 A3045 RMK AO2 T01000078=
202012061953 METAR KPAE 061953Z 16010KT 10SM OVC009 09/08 A3043 RMK AO2 SLP307 T00940078=
202012061853 METAR KPAE 061853Z 15009KT 3SM BR OVC003 09/08 A3045 RMK AO2 SLP312 T00890078=
202012061753 METAR KPAE 061753Z 16011KT 3SM BR OVC003 09/07 A3042 RMK AO2 SLP305 60000 T00890072 10089 20083 53023=
202012061744 SPECI KPAE 061744Z 16008KT 3SM BR OVC003 08/07 A3042 RMK AO2 T00830072=
202012061737 SPECI KPAE 061737Z 16010KT 2 1/2SM BR OVC003 08/07 A3041 RMK AO2 T00830072=
202012061653 METAR KPAE 061653Z 16011KT 4SM BR OVC004 08/07 A3040 RMK AO2 SLP296 T00830072=
202012061600 SPECI KPAE 061600Z 15009KT 3SM BR OVC004 08/07 A3038 RMK AO2 T00830072=
202012061553 METAR KPAE 061553Z 16010KT 2 1/2SM BR OVC004 08/07 A3037 RMK AO2 RAB12E28 SLP288 P0000 T00830072=
202012061516 SPECI KPAE 061516Z 18010KT 2 1/2SM -RA BR OVC004 08/07 A3036 RMK AO2 RAB12 P0000 T00830072=
202012061453 METAR KPAE 061453Z 18012KT 8SM OVC004 08/07 A3035 RMK AO2 SLP281 T00830072 53030=
202012061420 SPECI KPAE 061420Z 18011KT 10SM OVC004 08/07 A3033 RMK AO2 PRESRR T00830072=
202012061353 METAR KPAE 061353Z 17013G22KT 10SM OVC005 08/07 A3030 RMK AO2 SLP262 T00830067=
202012061253 METAR KPAE 061253Z 17016G25KT 9SM BKN008 BKN060 OVC120 08/07 A3026 RMK AO2 SLP249 T00830067=
202012061235 SPECI KPAE 061235Z 17014G22KT 10SM FEW009 BKN029 OVC120 09/07 A3026 RMK AO2 T00890067=
202012061223 SPECI KPAE 061223Z 17016G24KT 10SM BKN029 BKN042 OVC060 09/07 A3026 RMK AO2 T00890067=
202012061153 METAR KPAE 061153Z 19017KT 10SM OVC041 09/06 A3025 RMK AO2 SLP244 T00890056 10100 20083 53025=
202012061053 METAR KPAE 061053Z 17008KT 10SM OVC060 09/M01 A3022 RMK AO2 SLP235 T00891006=
202012060953 METAR KPAE 060953Z 16006KT 10SM BKN065 09/M01 A3019 RMK AO2 SLP225 T00941006=
202012060853 METAR KPAE 060853Z 15007KT 10SM OVC075 09/M02 A3018 RMK AO2 SLP219 T00941017 53024=
202012060753 METAR KPAE 060753Z 12006KT 10SM OVC075 09/M02 A3015 RMK AO2 SLP210 T00891017 401500028=
202012060653 METAR KPAE 060653Z VRB05KT 10SM OVC080 09/M02 A3013 RMK AO2 SLP203 T00941022=
202012060553 METAR KPAE 060553Z 14004KT 10SM FEW055 SCT090 OVC110 09/M02 A3010 RMK AO2 SLP196 T00941022 10133 20089 53012=
202012060453 METAR KPAE 060453Z VRB05KT 10SM SCT080 10/M03 A3009 RMK AO2 SLP191 T01001028=
202012060353 METAR KPAE 060353Z 12006KT 10SM CLR 10/M02 A3007 RMK AO2 SLP184 T01001022=
202012060253 METAR KPAE 060253Z 11006KT 10SM CLR 11/M03 A3007 RMK AO2 SLP184 T01061033 51014=
202012060153 METAR KPAE 060153Z VRB06G15KT 10SM CLR 11/M03 A3006 RMK AO2 SLP181 T01111028=
202012060053 METAR KPAE 060053Z 15006KT 10SM CLR 12/00 A3004 RMK AO2 SLP175 T01220000=
202012052353 METAR KPAE 052353Z 15006KT 10SM CLR 13/00 A3002 RMK AO2 SLP168 T01330000 10150 20100 55003=
202012052253 METAR KPAE 052253Z 18008KT 10SM CLR 13/01 A3002 RMK AO2 SLP167 T01330011=
202012052153 METAR KPAE 052153Z 17009KT 10SM CLR 14/M01 A3002 RMK AO2 SLP167 T01441006=
202012052053 METAR KPAE 052053Z 17009KT 10SM CLR 14/01 A3003 RMK AO2 SLP172 T01440006 58020=
202012051953 METAR KPAE 051953Z 15007KT 10SM CLR 13/00 A3005 RMK AO2 SLP179 T01280000=
202012051853 METAR KPAE 051853Z 15007KT 10SM CLR 11/00 A3008 RMK AO2 SLP188 T01110000=
202012051753 METAR KPAE 051753Z 00000KT 10SM CLR 10/01 A3009 RMK AO2 SLP194 T01000011 10100 20039 56003=
202012051653 METAR KPAE 051653Z 22003KT 10SM CLR 07/01 A3010 RMK AO2 SLP194 T00720006=
202012051553 METAR KPAE 051553Z 11004KT 10SM CLR 09/M01 A3008 RMK AO2 SLP190 T00941011=
202012051453 METAR KPAE 051453Z 00000KT 10SM CLR 05/02 A3010 RMK AO2 SLP196 T00500022 55008=
202012051353 METAR KPAE 051353Z 00000KT 10SM CLR 05/04 A3010 RMK AO2 SLP196 T00500039=
202012051253 METAR KPAE 051253Z 13006KT 10SM CLR 09/M01 A3009 RMK AO2 SLP191 T00941006=
202012051153 METAR KPAE 051153Z VRB06KT 10SM CLR 10/00 A3013 RMK AO2 SLP204 T01000000 10100 20028 58035=
202012051053 METAR KPAE 051053Z 13006KT 10SM CLR 08/00 A3017 RMK AO2 SLP218 T00830000=
202012050953 METAR KPAE 050953Z 10007KT 10SM CLR 06/00 A3020 RMK AO2 SLP229 T00560000=
202012050853 METAR KPAE 050853Z 00000KT 10SM CLR 03/M01 A3023 RMK AO2 SLP241 T00331006 58023=
202012050753 METAR KPAE 050753Z 00000KT 10SM CLR 06/01 A3026 RMK AO2 SLP249 T00610006 401170033=
202012050653 METAR KPAE 050653Z 10004KT 10SM CLR 06/01 A3029 RMK AO2 SLP261 T00560011=
202012050553 METAR KPAE 050553Z 00000KT 10SM CLR 06/02 A3030 RMK AO2 SLP265 T00560017 10094 20033 56013=
202012050453 METAR KPAE 050453Z 00000KT 10SM CLR 06/02 A3032 RMK AO2 SLP270 T00560017=
202012050353 METAR KPAE 050353Z 00000KT 10SM CLR 06/02 A3033 RMK AO2 SLP273 T00610017=
202012050253 METAR KPAE 050253Z 03003KT 10SM CLR 07/02 A3034 RMK AO2 SLP278 T00670022 58003=
202012050153 METAR KPAE 050153Z 01005KT 10SM CLR 06/02 A3036 RMK AO2 SLP284 T00610022=
202012050053 METAR KPAE 050053Z 35005KT 10SM CLR 07/02 A3036 RMK AO2 SLP284 T00670017=
202012042353 METAR KPAE 042353Z 33003KT 10SM CLR 09/02 A3035 RMK AO2 SLP280 T00940017 10117 20072 56022=
202012042253 METAR KPAE 042253Z 03003KT 10SM CLR 12/01 A3036 RMK AO2 SLP283 T01170011=
202012042153 METAR KPAE 042153Z 01004KT 10SM CLR 11/03 A3039 RMK AO2 SLP294 T01060028=
202012042053 METAR KPAE 042053Z 05003KT 10SM CLR 11/02 A3042 RMK AO2 SLP303 T01110022 58019=
202012041953 METAR KPAE 041953Z 05004KT 10SM CLR 10/02 A3045 RMK AO2 SLP313 T01000022=
202012041853 METAR KPAE 041853Z 02003KT 10SM CLR 09/02 A3047 RMK AO2 SLP321 T00940022=
202012041753 METAR KPAE 041753Z 18003KT 10SM CLR 07/02 A3047 RMK AO2 SLP323 T00720017 10072 20039 58004=
202012041653 METAR KPAE 041653Z 00000KT 10SM CLR 06/01 A3049 RMK AO2 SLP327 T00560011=
202012041553 METAR KPAE 041553Z 11007KT 10SM CLR 04/01 A3048 RMK AO2 SLP326 T00440006=
202012041453 METAR KPAE 041453Z 11003KT 10SM FEW036 05/01 A3049 RMK AO2 SLP327 T00500011 53012=
202012041353 METAR KPAE 041353Z AUTO 00000KT 10SM BKN039 05/01 A3048 RMK AO2 SLP324 T00500006=
202012041253 METAR KPAE 041253Z AUTO 13004KT 10SM FEW033 06/01 A3045 RMK AO2 SLP315 T00610011=
202012041153 METAR KPAE 041153Z AUTO 11004KT 10SM OVC040 07/01 A3045 RMK AO2 SLP314 T00720011 10083 20044 58001=
202012041053 METAR KPAE 041053Z AUTO 00000KT 10SM OVC039 07/01 A3046 RMK AO2 SLP318 T00670011=
202012040953 METAR KPAE 040953Z AUTO 11005KT 10SM OVC038 07/01 A3046 RMK AO2 SLP317 T00670011=
202012040853 METAR KPAE 040853Z AUTO VRB03KT 10SM OVC039 06/01 A3046 RMK AO2 SLP317 T00560006 51011=
202012040753 METAR KPAE 040753Z AUTO 16003KT 10SM SCT038 06/00 A3045 RMK AO2 SLP316 T00560000 400940028=
202012040653 METAR KPAE 040653Z AUTO 14004KT 10SM FEW039 08/01 A3044 RMK AO2 SLP309 T00830006=
202012040553 METAR KPAE 040553Z AUTO VRB04KT 10SM CLR 08/M01 A3042 RMK AO2 SLP305 T00781006 10094 20072 50013=
202012040453 METAR KPAE 040453Z 14005KT 10SM OVC065 09/M01 A3042 RMK AO2 SLP305 T00891006=
202012040353 METAR KPAE 040353Z 16004KT 10SM FEW047 BKN070 09/00 A3041 RMK AO2 SLP300 T00890000=
202012040253 METAR KPAE 040253Z VRB03KT 10SM OVC070 09/01 A3038 RMK AO2 SLP292 T00890006 53016=
202012040153 METAR KPAE 040153Z 15004KT 10SM OVC085 09/00 A3036 RMK AO2 SLP286 T00890000=
202012040053 METAR KPAE 040053Z 15004KT 10SM OVC090 08/00 A3034 RMK AO2 SLP278 T00830000=
202012032353 METAR KPAE 032353Z 15007KT 10SM BKN110 09/00 A3034 RMK AO2 SLP276 T00890000 10094 20083 53013=
202012032253 METAR KPAE 032253Z 18006KT 10SM FEW055 OVC090 09/01 A3032 RMK AO2 SLP270 T00890006=
202012032153 METAR KPAE 032153Z 17006KT 10SM SCT110 09/M01 A3030 RMK AO2 SLP263 T00941006=
202012032053 METAR KPAE 032053Z 16006KT 10SM CLR 09/M01 A3030 RMK AO2 SLP262 T00891006 50001=
202012031953 METAR KPAE 031953Z VRB05KT 10SM CLR 09/M01 A3030 RMK AO2 SLP263 T00941011=
202012031853 METAR KPAE 031853Z 18005KT 10SM CLR 08/M01 A3031 RMK AO2 SLP265 T00831011=
202012031753 METAR KPAE 031753Z 16005KT 10SM CLR 08/M02 A3029 RMK AO2 SLP261 T00831022 10083 20028 53021=
202012031653 METAR KPAE 031653Z 10005KT 10SM CLR 07/M03 A3027 RMK AO2 SLP251 T00721033=
202012031553 METAR KPAE 031553Z 00000KT 10SM CLR 04/M03 A3025 RMK AO2 SLP246 T00441028=
202012031453 METAR KPAE 031453Z 00000KT 10SM CLR 03/M03 A3023 RMK AO2 SLP240 T00281033 53005=
202012031353 METAR KPAE 031353Z AUTO 00000KT 10SM CLR 06/M04 A3022 RMK AO2 SLP234 T00611039=
202012031253 METAR KPAE 031253Z AUTO 10005KT 10SM FEW120 06/M03 A3021 RMK AO2 SLP233 T00561033=
202012031153 METAR KPAE 031153Z AUTO 10005KT 10SM CLR 06/M04 A3021 RMK AO2 SLP233 T00561039 10067 20028 58002=
202012031053 METAR KPAE 031053Z AUTO 00000KT 10SM CLR 03/M04 A3023 RMK AO2 SLP240 T00331039=
202012030953 METAR KPAE 030953Z AUTO 00000KT 10SM CLR 04/M04 A3022 RMK AO2 SLP237 T00441039=
202012030853 METAR KPAE 030853Z AUTO 00000KT 10SM CLR 04/M03 A3022 RMK AO2 SLP235 T00391033 53004=
202012030753 METAR KPAE 030753Z AUTO 16003KT 10SM CLR 04/M03 A3021 RMK AO2 SLP231 T00391033 401500006=
202012030653 METAR KPAE 030653Z AUTO 00000KT 10SM CLR 04/M02 A3020 RMK AO2 SLP231 T00391017=
202012030553 METAR KPAE 030553Z AUTO 00000KT 10SM CLR 06/M04 A3021 RMK AO2 SLP231 T00611039 10133 20056 53009=
202012030453 METAR KPAE 030453Z 15006KT 10SM CLR 09/M04 A3020 RMK AO2 SLP228 T00941039=
202012030353 METAR KPAE 030353Z 12006KT 10SM CLR 09/M04 A3018 RMK AO2 SLP225 T00941044=
202012030253 METAR KPAE 030253Z 14003KT 10SM CLR 10/M04 A3018 RMK AO2 SLP222 T01001039 55001=
202012030153 METAR KPAE 030153Z VRB04KT 10SM CLR 12/M05 A3017 RMK AO2 SLP220 T01171050=
202012030053 METAR KPAE 030053Z VRB03KT 10SM CLR 11/M01 A3017 RMK AO2 SLP221 T01061011=
202012022353 METAR KPAE 022353Z 13003KT 10SM CLR 13/M02 A3018 RMK AO2 SLP222 T01331017 10150 20094 56007=
202012022253 METAR KPAE 022253Z 17003KT 10SM CLR 15/M03 A3018 RMK AO2 SLP222 T01501028=
202012022153 METAR KPAE 022153Z VRB05KT 10SM CLR 15/M03 A3019 RMK AO2 SLP225 T01501033=
202012022053 METAR KPAE 022053Z 00000KT 10SM CLR 14/M03 A3020 RMK AO2 SLP228 T01391028 58016=
202012021953 METAR KPAE 021953Z 00000KT 10SM CLR 13/M03 A3021 RMK AO2 SLP232 T01331028=
202012021853 METAR KPAE 021853Z 15003KT 10SM CLR 11/M02 A3024 RMK AO2 SLP242 T01111017=
202012021753 METAR KPAE 021753Z 00000KT 10SM CLR 09/02 A3025 RMK AO2 SLP245 T00940017 10094 20006 56005=
202012021653 METAR KPAE 021653Z 00000KT 10SM CLR 03/01 A3025 RMK AO2 SLP249 T00330011=
202012021553 METAR KPAE 021553Z 00000KT 10SM CLR 02/M01 A3025 RMK AO2 SLP249 T00171006=
202012021453 METAR KPAE 021453Z 00000KT 10SM CLR 02/M01 A3026 RMK AO2 SLP252 T00221006 56019=
202012021353 METAR KPAE 021353Z AUTO 36004KT 10SM CLR 02/01 A3028 RMK AO2 SLP257 T00220011=
202012021253 METAR KPAE 021253Z AUTO 01005KT 10SM CLR 02/01 A3029 RMK AO2 SLP262 T00220011=
202012021153 METAR KPAE 021153Z AUTO 00000KT 10SM CLR 01/01 A3032 RMK AO2 SLP271 T00060006 10033 20006 58022=
202012021053 METAR KPAE 021053Z AUTO 01003KT 10SM CLR 02/01 A3034 RMK AO2 SLP279 T00170011=
202012020953 METAR KPAE 020953Z AUTO 36003KT 10SM CLR 02/01 A3036 RMK AO2 SLP284 T00170006=
202012020853 METAR KPAE 020853Z AUTO 02004KT 10SM CLR 02/01 A3038 RMK AO2 SLP292 T00220011 58020=
202012020753 METAR KPAE 020753Z AUTO 02005KT 10SM CLR 03/02 A3041 RMK AO2 SLP303 T00280017 400720017=
202012020653 METAR KPAE 020653Z AUTO 00000KT 10SM CLR 03/02 A3043 RMK AO2 SLP308 T00280017=
202012020553 METAR KPAE 020553Z AUTO 01004KT 10SM CLR 03/02 A3044 RMK AO2 SLP312 T00330022 10061 20033 56016=
202012020453 METAR KPAE 020453Z AUTO 03005KT 10SM CLR 04/02 A3046 RMK AO2 SLP318 T00390022=
202012020353 METAR KPAE 020353Z 35004KT 10SM CLR 04/02 A3047 RMK AO2 SLP323 T00390022=
202012020253 METAR KPAE 020253Z 36008KT 10SM CLR 04/03 A3049 RMK AO2 SLP329 T00440028 56012=
202012020153 METAR KPAE 020153Z 36006KT 10SM CLR 05/02 A3050 RMK AO2 SLP333 T00500022=
202012020053 METAR KPAE 020053Z 35007KT 10SM CLR 06/02 A3051 RMK AO2 SLP335 T00560022=
202012012353 METAR KPAE 012353Z AUTO 35006KT 10SM CLR 06/02 A3052 RMK AO2 SLP340 T00610022 10072 20050 56019=
202012012253 METAR KPAE 012253Z 34005KT 10SM CLR 07/02 A3053 RMK AO2 SLP344 T00670017=
202012012153 METAR KPAE 012153Z 34005KT 10SM CLR 07/03 A3056 RMK AO2 SLP352 T00720028=
202012012053 METAR KPAE 012053Z 35006KT 10SM CLR 07/02 A3058 RMK AO2 SLP359 T00670022 58016=
202012011953 METAR KPAE 011953Z 02003KT 10SM CLR 07/02 A3060 RMK AO2 SLP365 T00670022=
202012011853 METAR KPAE 011853Z 02005KT 10SM CLR 06/02 A3062 RMK AO2 SLP371 T00560022=
202012011753 METAR KPAE 011753Z 36004KT 10SM CLR 06/03 A3063 RMK AO2 SLP375 T00560028 10056 20017 53011=
202012011653 METAR KPAE 011653Z VRB03KT 10SM FEW010 04/02 A3061 RMK AO2 SLP370 T00440022=
202012011553 METAR KPAE 011553Z 00000KT 10SM SCT024 03/02 A3059 RMK AO2 SLP364 T00330017=
202012011453 METAR KPAE 011453Z 00000KT 10SM BKN024 02/01 A3059 RMK AO2 SLP365 T00220011 50004=
202012011353 METAR KPAE 011353Z AUTO 10003KT 10SM BKN022 04/02 A3060 RMK AO2 SLP365 T00440022=
202012011253 METAR KPAE 011253Z AUTO 00000KT 10SM OVC025 04/02 A3060 RMK AO2 SLP365 T00390017=
202012011229 SPECI KPAE 011229Z AUTO 10004KT 10SM BKN026 03/02 A3059 RMK AO2 T00330017=
202012011153 METAR KPAE 011153Z AUTO 16003KT 10SM CLR 03/02 A3058 RMK AO2 SLP360 70021 T00280017 10072 20022 51018=
202012011053 METAR KPAE 011053Z AUTO 10003KT 10SM BKN033 04/02 A3057 RMK AO2 SLP356 T00440022=
202012010953 METAR KPAE 010953Z AUTO 12003KT 10SM BKN034 05/03 A3056 RMK AO2 SLP351 T00500033=
202012010853 METAR KPAE 010853Z AUTO 28004KT 10SM FEW039 OVC050 06/03 A3053 RMK AO2 SLP341 T00560033 53019=
202012010753 METAR KPAE 010753Z AUTO 25004KT 10SM BKN034 BKN044 06/02 A3051 RMK AO2 SLP335 T00560017 401060056=
202012010653 METAR KPAE 010653Z AUTO 02003KT 10SM OVC043 07/01 A3049 RMK AO2 SLP327 T00670011=
202012010553 METAR KPAE 010553Z AUTO 00000KT 10SM OVC055 07/01 A3047 RMK AO2 SLP322 T00720006 10094 20056 53032=
202012010453 METAR KPAE 010453Z 00000KT 10SM SCT060 06/M01 A3044 RMK AO2 SLP310 T00561006=
202012010353 METAR KPAE 010353Z 00000KT 10SM CLR 07/00 A3041 RMK AO2 SLP300 T00720000=
202012010253 METAR KPAE 010253Z 00000KT 10SM CLR 07/M01 A3038 RMK AO2 SLP289 T00671006 51029=
202012010153 METAR KPAE 010153Z 36003KT 10SM BKN041 BKN049 07/01 A3035 RMK AO2 SLP280 T00720011=
202012010053 METAR KPAE 010053Z 02003KT 10SM SCT033 08/01 A3033 RMK AO2 SLP273 T00780006=

# No short TAF reports from KPAE in databse.

###################################
#  large TAF from KPAE
###################################
202012312323 TAF KPAE 312323Z 0100/0124 18008KT P6SM BKN008 OVC020 FM010800
                       15010KT 6SM -RA OVC010 FM011400 16014G21KT
                       4SM -RA OVC015 FM011800 16016G23KT 4SM -RA
                       OVC050=
202012311720 TAF KPAE 311720Z 3118/0118 22008KT 6SM BR BKN005 OVC020 FM312200
                       18008KT P6SM SCT012 OVC020 FM010800 15010KT
                       6SM -RA OVC010 FM011400 16014G21KT P6SM
                       -RA OVC015=
202012311506 KPAE 311506Z 3115/0112 20010KT 5SM BR VCSH BKN008 OVC020 FM311700
                       17012KT 6SM BR VCSH BKN014 OVC025 FM312200
                       18008KT P6SM SCT012 OVC020 FM010800 15010KT
                       P6SM -RA OVC015=
202012311137 TAF KPAE 311137Z 3112/0112 18018G28KT P6SM VCSH BKN010 OVC020 FM311600
                       17012G18KT P6SM VCSH BKN014 OVC025 FM312200
                       18008KT P6SM SCT012 OVC020 FM010800 15010KT
                       P6SM -RA OVC015=
202012310520 TAF KPAE 310520Z 3106/0106 15014G24KT P6SM BKN020 OVC030 FM311000
                       15012KT P6SM BKN012 OVC020 FM311400 17008KT
                       P6SM VCSH BKN006 OVC012 FM312000 17008KT
                       P6SM VCSH SCT006 BKN012 OVC020=
202012310222 KPAE 310222Z 3102/3124 15014KT P6SM -RA OVC040 FM310800 17012KT
                       P6SM -SHRA SCT006 BKN012 OVC020 FM311400
                       VRB06KT P6SM VCSH BKN006 OVC012 FM312000
                       15008KT P6SM VCSH SCT006 BKN012 OVC020=
202012302320 TAF KPAE 302320Z 3100/3124 15012G19KT 6SM -SHRA BR BKN025 OVC040
                       FM310300 17011G18KT 5SM -RA BR OVC007 FM311400
                       VRB06KT P6SM VCSH BKN010 OVC035=
202012301841 KPAE 301841Z 3019/3118 16012G20KT 5SM -RA BR SCT009 BKN012 FM302200
                       17015G25KT 6SM -SHRA BR OVC012 FM310600
                       17015G25KT 5SM -RA BR OVC007 FM311400 18009KT
                       P6SM VCSH BKN010 OVC035=
202012301720 TAF KPAE 301720Z 3018/3118 16015G25KT 2SM -RA BR OVC005 FM302200
                       17015G25KT 6SM -SHRA BR OVC012 FM310600
                       17015G25KT 5SM -RA BR OVC007 FM311400 18009KT
                       P6SM VCSH BKN010 OVC035=
202012301132 TAF KPAE 301132Z 3012/3112 15014G21KT 6SM -RA BR SCT005 OVC012
                       TEMPO 3012/3016 3SM -RA BR OVC004 FM301600
                       16015G25KT 5SM -RA BR OVC008 FM302200 17015G25KT
                       6SM -RA BR OVC012 FM310600 17015G25KT 5SM
                       -RA BR OVC007=
202012300642 KPAE 300642Z 3007/3106 15010KT P6SM -RA SCT008 OVC030
                      TEMPO 3007/3011 5SM -RA BR BKN007 OVC022
                       FM301100 15012G18KT 6SM -RA BR OVC012 WS020/18040KT
                       FM301800 17015G25KT 6SM -RA OVC014=
202012300522 TAF KPAE 300522Z 3006/3106 15010KT P6SM -RA OVC015 FM300800 15012G18KT
                       6SM -RA BR OVC008 FM301200 16015G25KT 6SM
                       -RA OVC020=
202012292320 TAF KPAE 292320Z 3000/3024 10005KT P6SM OVC080 FM300400 15010KT
                       P6SM -RA OVC015 FM300800 15012G18KT 6SM
                       -RA BR OVC008 FM301200 16015G25KT 6SM -RA
                       OVC020=
202012291726 TAF KPAE 291726Z 2918/3018 15007KT P6SM OVC012 FM292200 16006KT
                       P6SM BKN022 OVC040 FM300400 15010KT P6SM
                       -RA OVC015 FM300800 15012G18KT 6SM -RA BR
                       OVC008 FM301200 16015G25KT 6SM -RA OVC015=
202012291128 TAF KPAE 291128Z 2912/3012 VRB03KT P6SM OVC011 FM291800 15005KT
                       P6SM BKN015 OVC050 FM292200 16006KT P6SM
                       BKN022 OVC040 FM300400 15010KT P6SM -RA
                       OVC015 FM300800 15012G18KT 6SM -RA BR OVC008=
202012290520 TAF KPAE 290520Z 2906/3006 36003KT P6SM OVC007 FM291200 VRB02KT
                       1/2SM FG OVC002 FM291700 15003KT 2SM BR
                       OVC002 FM292200 16006KT P6SM OVC015=
202012290330 KPAE 290330Z 2904/2924 36003KT P6SM OVC007 FM291200 VRB02KT 1/2SM
                       FG OVC002 FM291700 15003KT 2SM BR OVC002
                       FM292200 16006KT P6SM OVC015=
202012282325 TAF KPAE 282325Z 2900/2924 34006KT P6SM FEW010 FM290500 VRB02KT
                       3SM BR SCT250 FM291200 VRB02KT 1/4SM FZFG
                       OVC002 FM291700 15003KT 2SM BR OVC002 FM292200
                       16006KT P6SM OVC015=
202012282027 KPAE 282027Z 2820/2918 36005KT P6SM SCT001 SCT010 FM290500 VRB02KT
                       3SM BR SCT250 FM291200 VRB02KT 1/4SM FZFG
                       SCT250 FM291700 15003KT 2SM BR OVC002=
202012281724 TAF KPAE 281724Z 2818/2918 34005KT 1/4SM FG OVC001 FM282100 VRB03KT
                       P6SM SCT250 FM290500 VRB02KT 3SM BR SCT250
                       FM291200 VRB02KT 1/4SM FZFG SCT250 FM291700
                       15003KT 2SM BR OVC002=
202012281446 KPAE 281446Z 2815/2912 35006KT P6SM VCFG FEW003 SCT250
                      TEMPO 2815/2817 1/2SM FG VV002 FM281800 36004KT
                       P6SM SCT250 FM290200 VRB03KT P6SM SCT250=
202012281248 KPAE 281248Z 2813/2912 03004KT 2SM BR SCT001
                      TEMPO 2813/2817 1/2SM FG VV001 FM281800 36004KT
                       P6SM SCT250 FM290200 VRB03KT P6SM SCT250=
202012281125 TAF KPAE 281125Z 2812/2912 03004KT P6SM SCT250 FM290200 VRB03KT
                       P6SM SCT250=
202012280523 TAF KPAE 280523Z 2806/2906 VRB03KT P6SM SCT250
                      TEMPO 2813/2816 4SM BR SCT020 FM281900 02004KT
                       P6SM SCT250 FM290200 VRB03KT P6SM SCT250=
202012272330 TAF KPAE 272330Z 2800/2824 VRB04KT P6SM SCT050 BKN100 FM280200
                       04003KT P6SM SCT250 FM281400 02003KT 4SM
                       BR SCT020 FM281900 02004KT P6SM SCT250=
202012271726 TAF KPAE 271726Z 2718/2818 14004KT P6SM -RA SCT040 OVC070 FM271900
                       12004KT P6SM BKN070 OVC090 FM272300 03005KT
                       P6SM SCT050 BKN100 FM280200 04003KT P6SM
                       SCT250 FM281400 02003KT 4SM BR SCT020=
202012271124 TAF KPAE 271124Z 2712/2812 12007KT P6SM BKN040 OVC080
                      TEMPO 2714/2718 -RA BKN030 OVC050 FM272200
                       03005KT P6SM SCT050 BKN100 FM280200 04003KT
                       P6SM SCT250=
202012270808 KPAE 270808Z 2708/2806 15009KT P6SM VCSH BKN040 OVC080 FM271600
                       12007KT P6SM SCT040 BKN080 FM272200 03005KT
                       P6SM SCT050 BKN100 FM280200 VRB03KT P6SM
                       SCT250=
202012270528 TAF KPAE 270528Z 2706/2806 17012KT P6SM VCSH SCT030 BKN050 FM270800
                       15010KT P6SM -SHRA BKN020 OVC040 FM271500
                       14006KT P6SM OVC030 FM271900 12007KT P6SM
                       SCT030 OVC050 FM272200 03005KT P6SM SCT050
                       BKN100 FM280200 VRB03KT P6SM SCT250=
202012262328 TAF KPAE 262328Z 2700/2724 19014G22KT P6SM SCT025 BKN050 FM270200
                       17009KT P6SM BKN050 FM270600 15009KT P6SM
                       -SHRA BKN020 OVC040 FM271500 14009KT P6SM
                       OVC030 FM272100 02007KT P6SM OVC050=
202012261727 TAF KPAE 261727Z 2618/2718 18015G29KT P6SM SCT025 BKN040
                      TEMPO 2618/2621 -SHRA SCT015 OVC025 FM262200
                       19014G22KT P6SM SCT025 BKN050 FM270200 17009KT
                       P6SM BKN050 FM270600 15009KT P6SM -SHRA
                       BKN025 BKN050 FM271200 14009KT P6SM OVC015=
202012261125 TAF KPAE 261125Z 2612/2712 17015G23KT P6SM SCT035 BKN060
                      TEMPO 2612/2616 -SHRA BKN030 OVC050 FM261600
                       18015G25KT P6SM SCT025 BKN050
                      TEMPO 2616/2620 -SHRA BKN025 OVC050 FM262200
                       19014G22KT P6SM SCT050 BKN100 FM270200 17010KT
                       P6SM SCT050 BKN100 FM270600 15005KT P6SM
                       -SHRA BKN025 BKN050=
202012260520 TAF KPAE 260520Z 2606/2706 14012G22KT P6SM -RA SCT005 OVC035
                      TEMPO 2609/2612 4SM RA BR OVC005 FM261200
                       17015G23KT P6SM -RA OVC025 FM262100 19014G21KT
                       P6SM BKN050 FM270100 18010KT P6SM OVC050=
202012252324 TAF KPAE 252324Z 2600/2624 15010KT P6SM -RA OVC060 FM260600 14012G22KT
                       P6SM -RA OVC035
                      TEMPO 2609/2612 5SM RA BR OVC025 FM261200
                       17015G23KT P6SM -RA OVC025 FM262100 19014G21KT
                       P6SM BKN050=
202012251720 TAF KPAE 251720Z 2518/2618 12010KT P6SM OVC060 FM252100 15010KT
                       P6SM -RA OVC050 FM260600 14012G22KT P6SM
                       -RA OVC035
                      TEMPO 2609/2612 5SM RA BR OVC025 FM261200
                       17015G23KT P6SM -RA OVC025=
202012251120 TAF KPAE 251120Z 2512/2612 15005KT P6SM BKN100 OVC150 FM251500
                       14008KT P6SM BKN050 OVC100 FM251800 14012KT
                       P6SM -RA OVC040 FM260600 14012G22KT P6SM
                       -RA OVC035
                      TEMPO 2609/2612 5SM RA BR OVC025=
202012250520 TAF KPAE 250520Z 2506/2606 VRB03KT P6SM BKN250 FM251000 13007KT
                       P6SM OVC120 FM252000 14009KT P6SM VCSH OVC060
                       FM252200 15008KT P6SM -RA OVC030 FM260100
                       15011KT P6SM -SHRA OVC010=
202012250013 TAF KPAE 250013Z 2500/2524 VRB03KT P6SM BKN250 FM251000 13004KT
                       P6SM OVC120 FM252000 14006KT P6SM VCSH OVC060
                       FM252200 15008KT P6SM -RA OVC030=
202012241748 TAF KPAE 241748Z 2418/2518 VRB04KT P6SM SCT250 FM250000 13006KT
                       P6SM OVC250 FM251000 13008KT P6SM OVC120=
202012241120 TAF KPAE 241120Z 2412/2512 VRB03KT P6SM SKC FM241800 09005KT P6SM
                       SCT250 FM250000 13006KT P6SM OVC250 FM251000
                       13008KT P6SM OVC120=
202012240520 TAF KPAE 240520Z 2406/2506 VRB03KT P6SM SKC FM241100 12004KT P6SM
                       FEW250
                      TEMPO 2413/2416 6SM BR FM241800 14005KT P6SM
                       SCT250=
202012232330 TAF KPAE 232330Z 2400/2424 02005KT P6SM SKC FM241500 12004KT 6SM
                       BR SKC FM241800 14005KT P6SM SKC=
202012231720 TAF KPAE 231720Z 2318/2418 11005KT P6SM SKC FM232000 03004KT P6SM
                       FEW250 FM241500 12004KT P6SM SKC=
202012231120 TAF KPAE 231120Z 2312/2412 11006KT P6SM BKN250 FM232000 03004KT
                       P6SM FEW250=
202012230528 TAF KPAE 230528Z 2306/2406 11004KT P6SM FEW250 FM230800 VRB03KT
                       6SM BR FEW250 FM231200 VRB03KT 2SM BR FEW250
                       FM232100 04003KT P6SM SKC=
202012222337 TAF KPAE 222337Z 2300/2324 06003KT P6SM FEW014 SCT026 FM231000
                       VRB03KT 6SM BR BKN250 FM231500 VRB03KT 2SM
                       BR BKN250 FM232100 04003KT P6SM BKN250=
202012221724 TAF KPAE 221724Z 2218/2318 VRB04KT P6SM FEW040 FM222200 04006KT
                       P6SM SKC FM231000 VRB03KT 6SM BR BKN250=
202012221647 KPAE 221647Z 2217/2312 29005KT P6SM OVC040 FM222200 VRB04KT P6SM
                       SCT040 FM230400 04006KT P6SM SKC=
202012221120 TAF KPAE 221120Z 2212/2312 30005KT P6SM BKN030 FM222200 VRB04KT
                       P6SM SCT040 FM230400 04006KT P6SM SKC=
202012220914 KPAE 220914Z 2209/2306 27007KT P6SM SCT015 OVC025 FM221600 21006KT
                       P6SM BKN030 FM222200 VRB04KT P6SM SCT040
                       FM230400 04006KT P6SM SKC=
202012220621 KPAE 220621Z 2206/2306 22012KT P6SM SCT003 OVC060
                      TEMPO 2206/2209 3SM BR BKN003 OVC060 FM220900
                       28007KT 3SM BR BKN005 BKN050 FM221500 32004KT
                       6SM BR OVC010 FM221800 32006KT P6SM BKN015
                       FM222100 32006KT P6SM SCT020 FM230300 VRB03KT
                       P6SM BKN015=
202012220520 TAF KPAE 220520Z 2206/2306 34010G22KT P6SM -RA OVC045 FM220900
                       28007KT 3SM BR SCT005 SCT050 FM221500 32004KT
                       6SM BR OVC010=
202012212327 TAF KPAE 212327Z 2200/2224 34010G22KT 1SM RA BR OVC002 FM220600
                       28007KT P6SM OVC012 FM221500 32004KT 6SM
                       BR OVC010=
202012211736 TAF KPAE 211736Z 2118/2218 16010G20KT 2SM -RA BR BKN005 OVC015
                       FM212000 35010KT 2SM -SHRA BR OVC007 FM220000
                       28010KT 2SM -SHRA OVC007 FM220600 28007KT
                       P6SM OVC012 FM221500 32004KT P6SM OVC050=
202012211521 KPAE 211521Z 2115/2212 VRB04KT 2SM -RA BR BKN001 BKN030 OVC040
                       FM211700 16010G20KT 2SM -RA BR BKN005 OVC015
                       FM212000 35010KT 2SM -SHRA BR OVC007 FM220000
                       28010KT 2SM -SHRA OVC007 FM220600 28007KT
                       P6SM OVC012=
202012211319 KPAE 211319Z 2113/2212 00000KT 6SM -RA BR BKN006 BKN029 OVC040
                       FM211600 16010KT 2SM -RA BR BKN005 OVC015
                       FM212000 35010KT 2SM -SHRA BR OVC007 FM220000
                       28010KT 2SM -SHRA OVC007 FM220600 28007KT
                       P6SM OVC012=
202012211133 TAF KPAE 211133Z 2112/2212 VRB03KT 6SM -RA BR OVC035
                      TEMPO 2112/2116 SCT008 BKN020 FM211600 16010KT
                       2SM -RA BR OVC015 FM212000 35010KT 2SM -SHRA
                       BR OVC007 FM220000 28010KT 2SM -SHRA OVC007
                       FM220600 28007KT P6SM OVC012=
202012210523 TAF KPAE 210523Z 2106/2206 00000KT P6SM SCT020 OVC030
                      TEMPO 2108/2110 -RA BKN020 FM211000 19006KT
                       4SM RA BR OVC008 FM211800 30008KT 3SM RA
                       BR OVC007=
202012210327 KPAE 210327Z 2103/2124 VRB03KT P6SM -RA OVC020
                      TEMPO 2103/2105 1/2SM -RA FG BKN001 OVC015
                       FM210700 06005KT 5SM RA BR OVC012 FM211200
                       19006KT 4SM RA BR OVC008 FM211800 30008KT
                       3SM RA BR OVC007=
202012202336 TAF KPAE 202336Z 2100/2124 17006KT P6SM SCT022 OVC060 FM210400
                       12004KT P6SM -RA OVC027 FM210700 06005KT
                       5SM RA BR OVC012 FM211200 19006KT 4SM RA
                       BR OVC008 FM211800 30008KT 3SM RA BR OVC007=
202012201740 TAF KPAE 201740Z 2018/2118 VRB05KT P6SM VCSH BKN015 OVC025
                      TEMPO 2018/2021 3SM BR FM202100 17006KT P6SM
                       OVC025 FM210300 12004KT P6SM -RA OVC022
                       FM210700 04003KT 5SM RA BR OVC012 FM211200
                       15006KT 4SM RA BR OVC008=
202012201454 KPAE 201454Z 2015/2112 03006KT P6SM VCSH OVC030
                      TEMPO 2015/2018 -SHRA BKN015 FM201800 19008KT
                       P6SM OVC050 FM210200 19004KT P6SM OVC025
                       FM210300 12004KT P6SM -RA OVC050 FM210500
                       04003KT 6SM -RA BR OVC015=
202012201126 TAF KPAE 201126Z 2012/2112 23011G16KT P6SM BKN014 BKN022 FM201400
                       21011KT P6SM SCT020 OVC100 FM201800 19008KT
                       P6SM OVC050 FM210200 19004KT P6SM OVC025
                       FM210300 12004KT P6SM -RA OVC050 FM210500
                       04003KT 6SM -RA BR OVC015=
202012200709 KPAE 200709Z 2007/2106 17020G29KT P6SM OVC006 FM200900 20012KT
                       P6SM OVC010 FM201700 18010KT P6SM VCSH SCT025
                       OVC035 FM202100 21008KT P6SM BKN040 FM210300
                       VRB05KT 6SM -RA BR OVC007=
202012200520 TAF KPAE 200520Z 2006/2106 18007KT 4SM RA BR SCT007 OVC015 FM200900
                       20008KT P6SM -SHRA BKN015 OVC022 FM201700
                       18010KT P6SM VCSH SCT025 OVC035 FM202100
                       21008KT P6SM BKN040 FM210300 VRB05KT 6SM
                       -RA BR OVC007=
202012200054 KPAE 200054Z 2001/2024 15014G22KT 6SM -RA BR SCT012 OVC027
                      TEMPO 2001/2003 4SM RA BR BKN012 OVC024 FM200300
                       18013G22KT 4SM RA BR OVC012 FM200900 21014G22KT
                       P6SM -SHRA OVC008 FM201500 18010KT P6SM
                       VCSH BKN014 BKN035 FM202000 21008KT P6SM
                       BKN035=
202012192320 TAF KPAE 192320Z 2000/2024 17011KT 6SM -RA BR SCT007 OVC018
                      TEMPO 2000/2002 4SM RA BR OVC006 FM200200
                       18013G22KT 4SM RA BR OVC009 FM200900 21014G22KT
                       P6SM -SHRA OVC008 FM201500 18010KT P6SM
                       VCSH BKN014 BKN035 FM202000 21008KT P6SM
                       BKN035=
202012191739 TAF KPAE 191739Z 1918/2018 17012KT P6SM BKN025 OVC040 FM192100
                       17014G22KT 6SM -RA BR OVC022 FM200200 18015G27KT
                       4SM RA BR OVC012 FM200900 19012KT P6SM -SHRA
                       OVC008 FM201700 18010KT P6SM VCSH BKN014
                       BKN035=
202012191124 TAF KPAE 191124Z 1912/2012 00000KT P6SM VCSH SCT020 OVC035
                      TEMPO 1912/1915 -SHRA BKN020 FM191500 17012KT
                       P6SM BKN025 OVC040 FM192200 17014G22KT 6SM
                       -RA BR OVC025 FM200300 18015G27KT 4SM -RA
                       BR OVC012 FM200900 19012KT P6SM OVC008=
202012190520 TAF KPAE 190520Z 1906/2006 18020G30KT 6SM -RA BR BKN025 OVC035
                       FM190900 28011KT 6SM -SHRA BR OVC030 FM191500
                       17012KT P6SM VCSH BKN025 OVC040 FM192100
                       17014G22KT 6SM -RA BR OVC025 FM200300 18015G27KT
                       4SM -RA BR OVC012=
202012182337 TAF KPAE 182337Z 1900/1924 17022G32KT 6SM -RA OVC022 FM190200 17020G30KT
                       5SM -RA BR OVC015 FM190700 22011KT 6SM -SHRA
                       BR BKN022 OVC040 FM191400 17012KT P6SM VCSH
                       BKN025 OVC040 FM192100 17014G22KT 6SM RA
                       BR OVC013=
202012181732 TAF KPAE 181732Z 1818/1918 16014G22KT P6SM -RA BKN012 OVC035 FM182100
                       17016G26KT P6SM VCSH OVC025 FM190200 17020G30KT
                       6SM -RA BR OVC018 FM190700 22012KT 6SM -SHRA
                       BR BKN022 OVC040 FM191400 17012KT P6SM VCSH
                       OVC020=
202012181131 TAF KPAE 181131Z 1812/1912 16014G20KT P6SM -RA VCSH SCT010 BKN060
                       OVC110 FM181800 16014G22KT P6SM OVC025 FM182300
                       17017G27KT P6SM -RA OVC020 FM190500 18015G25KT
                       6SM -SHRA BR OVC015=
202012180805 KPAE 180805Z 1808/1906 16007KT P6SM -RA OVC012 FM181200 16010KT
                       P6SM VCSH OVC015 FM181800 16014G22KT P6SM
                       OVC025 FM182300 17017G27KT P6SM -RA OVC020
                       FM190500 18015G25KT 6SM -SHRA BR OVC015=
202012180520 TAF KPAE 180520Z 1806/1906 VRB03KT P6SM VCSH SCT009 OVC018 FM180800
                       VRB04KT P6SM OVC012 FM181200 16010KT P6SM
                       VCSH OVC015 FM181800 16014G22KT P6SM OVC025
                       FM182300 17017G27KT P6SM -RA OVC020 FM190500
                       18015G25KT 6SM -SHRA BR OVC015=
202012180213 KPAE 180213Z 1802/1824 VRB03KT P6SM VCSH OVC028
                      TEMPO 1802/1806 5SM -SHRA FM180800 19008KT
                       P6SM OVC020 FM181200 16010KT P6SM -SHRA
                       OVC020 FM181600 16014G22KT P6SM -SHRA OVC020
                       FM182200 17015G25KT 6SM -RA OVC020=
202012172320 TAF KPAE 172320Z 1800/1824 07003KT P6SM FEW010 BKN020 OVC030 FM180600
                       19008KT P6SM OVC020 FM181200 16010KT P6SM
                       -SHRA OVC020 FM181600 16014G22KT P6SM -SHRA
                       OVC020 FM182200 17015G25KT 6SM -RA OVC020=
202012171751 TAF KPAE 171751Z 1718/1818 16005KT 6SM -RA BR BKN009 OVC015 FM172200
                       29011KT P6SM OVC025 FM180100 25009KT P6SM
                       OVC020 FM180600 19008KT P6SM OVC020 FM181200
                       16010KT P6SM -SHRA OVC020=
202012171437 KPAE 171437Z 1715/1812 20016G21KT P6SM -SHRA OVC013 FM171700 23007KT
                       P6SM -SHRA OVC020 FM172200 29011KT P6SM
                       OVC025 FM180100 31009KT P6SM OVC020=
202012171123 TAF KPAE 171123Z 1712/1812 18023G31KT P6SM -SHRA BKN023 OVC029
                       FM171700 23007KT P6SM -SHRA OVC020 FM172200
                       29011KT P6SM OVC025 FM180100 31009KT P6SM
                       OVC020=
202012170520 TAF KPAE 170520Z 1706/1806 15012G20KT 6SM -SHRA OVC025 FM171200
                       17017G25KT 5SM -RA BR OVC015 FM171700 23007KT
                       6SM BR VCSH OVC015 FM172200 29011KT P6SM
                       OVC025 FM180100 31009KT P6SM VCSH BKN030=
202012162321 TAF KPAE 162321Z 1700/1724 15015G20KT 6SM -RA BKN040 FM170300 17018G26KT
                       5SM -RA BR OVC020 FM170900 18017G24KT 5SM
                       -RA BR OVC010 FM171500 19013KT P6SM OVC025
                       FM171800 25007KT 6SM BR OVC015=
202012161724 TAF KPAE 161724Z 1618/1718 16010KT P6SM OVC045 FM162300 15015G20KT
                       P6SM -RA OVC025 FM170300 17018G26KT 5SM
                       -RA BR OVC007 FM170900 18017G24KT 5SM -RA
                       BR OVC010 FM171500 19013KT P6SM OVC025=
202012161414 KPAE 161414Z 1614/1712 17013G22KT P6SM SCT008 BKN080
                      TEMPO 1614/1616 BKN008 OVC080 FM161700 16010KT
                       P6SM BKN035 OVC070 FM162300 15015G20KT P6SM
                       -RA OVC025 FM170300 17018G26KT 5SM -RA BR
                       OVC007=
202012161128 TAF KPAE 161128Z 1612/1712 17012KT P6SM OVC007 FM161500 17012KT
                       P6SM BKN020 OVC035 FM161700 16010KT P6SM
                       BKN035 OVC070 FM162300 15015G20KT P6SM -RA
                       OVC025 FM170300 17018G26KT 5SM -RA BR OVC007=
202012160528 TAF KPAE 160528Z 1606/1706 20012G20KT P6SM VCSH SCT015 BKN100
                      TEMPO 1606/1609 OVC015 FM161200 16010KT P6SM
                       OVC015 FM162300 15015G20KT P6SM -RA OVC010
                       FM170300 17019G26KT 6SM -RA BR OVC007=
202012160006 KPAE 160006Z 1600/1624 19015G20KT P6SM -RA BKN015 OVC020 FM161200
                       16010KT P6SM OVC015 FM162200 15015G20KT
                       P6SM -RA OVC030=
202012152327 TAF KPAE 152327Z 1600/1624 19015G20KT P6SM -RA BKN008 OVC013 FM161200
                       16010KT P6SM OVC015 FM162200 15015G20KT
                       P6SM -RA OVC030=
202012152100 KPAE 152100Z 1521/1618 19010G20KT P6SM OVC009 FM152300 19010KT
                       P6SM BKN020 OVC050 FM161200 16010KT P6SM
                       OVC015=
202012151721 TAF KPAE 151721Z 1518/1618 16014KT 4SM -RA BR BKN005 OVC020 FM152000
                       17015G20KT 2SM -RA OVC004 FM152300 19010KT
                       P6SM BKN020 OVC050 FM161200 16010KT P6SM
                       OVC015=
202012151125 TAF KPAE 151125Z 1512/1612 14010KT P6SM SCT035 OVC070
                      TEMPO 1512/1514 -RA BKN035 OVC070 FM151400
                       15014G22KT P6SM -RA BKN020 OVC040 FM152300
                       19010KT P6SM BKN025 OVC050=
202012151009 KPAE 151009Z 1510/1606 15012G16KT P6SM SCT030 OVC070
                      TEMPO 1510/1512 -RA BKN030 OVC050 FM151200
                       14012KT P6SM BKN020 OVC035 FM151400 15015G22KT
                       6SM -RA OVC007 FM151900 17015KT 4SM -RA
                       BR OVC007 FM160200 19008KT P6SM OVC025=
202012150522 TAF KPAE 150522Z 1506/1606 16013KT P6SM -RA FEW050 OVC200 FM150700
                       15010KT P6SM VCSH OVC070 FM150900 14012KT
                       P6SM BKN020 OVC035 FM151200 15015G22KT 6SM
                       -RA OVC007 FM151900 17015KT 4SM -RA BR OVC007
                       FM160200 19008KT P6SM OVC025=
202012142333 TAF KPAE 142333Z 1500/1524 15005KT P6SM FEW009 BKN020 FM150500
                       16013KT P6SM -RA BKN020 OVC035 FM151200
                       15015G22KT 6SM -RA OVC007 FM151900 17015KT
                       4SM -RA BR OVC007=
202012141737 TAF KPAE 141737Z 1418/1518 14003KT 1SM BR BKN002 OVC026 FM141900
                       19008KT P6SM BKN015 FM150000 17008KT P6SM
                       BKN050 FM151000 16013KT P6SM -RA BKN020
                       OVC035 FM151200 15015G20KT 6SM -RA OVC007=
202012141126 TAF KPAE 141126Z 1412/1512 16006KT P6SM BKN008 OVC013 FM141900
                       19008KT P6SM BKN015 OVC030 FM150000 17008KT
                       P6SM BKN050 FM151000 16013KT P6SM -RA BKN020
                       OVC035=
202012140524 TAF KPAE 140524Z 1406/1506 16008KT P6SM VCSH SCT015 BKN080
                      TEMPO 1406/1410 -SHRA BKN015 OVC080 FM141000
                       17008KT P6SM SCT010 BKN020 FM141200 17004KT
                       P6SM OVC012 FM142300 17004KT P6SM BKN030
                       FM150000 17008KT P6SM BKN050=
202012132330 TAF KPAE 132330Z 1400/1424 14006KT P6SM -SHRA BKN020 FM140400 19008KT
                       P6SM VCSH BKN015 FM141200 17004KT P6SM OVC012
                       FM142300 17004KT P6SM BKN030=
202012131726 TAF KPAE 131726Z 1318/1418 14009KT P6SM -RA OVC022 FM132300 16010KT
                       4SM -SHRA BR OVC015 FM140600 19008KT P6SM
                       VCSH OVC015 FM141700 17004KT P6SM OVC015=
202012131122 TAF KPAE 131122Z 1312/1412 15011KT P6SM -RA BKN030 OVC045 FM131500
                       14011KT P6SM -RA OVC022 FM132000 15008KT
                       4SM -SHRA BR OVC010 FM140600 17008KT P6SM
                       OVC010=
202012130522 TAF KPAE 130522Z 1306/1406 12007KT P6SM BKN250 FM130700 13008KT
                       P6SM BKN150 OVC250 FM131100 14012KT P6SM
                       -RA BKN050 OVC070 FM131500 14011KT 6SM -RA
                       OVC022 FM132000 15008KT 4SM -RA OVC010=
202012122328 TAF KPAE 122328Z 1300/1324 VRB04KT P6SM SCT250 FM130300 VRB04KT
                       P6SM BKN250 FM130700 13008KT P6SM BKN150
                       OVC250 FM131100 14012KT P6SM -RA BKN050
                       OVC070 FM131500 14011KT 6SM -RA OVC022=
202012121725 TAF KPAE 121725Z 1218/1318 14004KT P6SM SCT250 FM130400 13008KT
                       P6SM BKN250 FM130800 13010KT P6SM BKN150
                       OVC250 FM131200 14012KT P6SM -RA BKN050
                       OVC070=
202012121450 KPAE 121450Z 1215/1312 06003KT P6SM VCFG FEW001 BKN030
                      TEMPO 1215/1217 1/2SM FG VV001 FM121800 03004KT
                       P6SM FEW250 FM130600 10005KT P6SM BKN250
                       FM130900 13006KT P6SM BKN150 OVC250=
202012121122 TAF KPAE 121122Z 1212/1312 00000KT 2SM BR OVC003
                      TEMPO 1212/1214 1/2SM FG VV001 FM121700 03004KT
                       4SM BR BKN005 FM121800 03004KT P6SM FEW250
                       FM130600 10005KT P6SM BKN250 FM130900 13006KT
                       P6SM BKN150 OVC250=
202012121005 KPAE 121005Z 1210/1306 03005KT P6SM SCT003 BKN007
                      TEMPO 1210/1214 1SM BR VV002 FM122000 VRB04KT
                       P6SM FEW250=
202012120520 TAF KPAE 120520Z 1206/1306 02004KT P6SM SCT003
                      TEMPO 1206/1210 2SM BR BKN003 FM121000 02003KT
                       2SM BR BKN003 FM122000 VRB04KT P6SM FEW250=
202012120427 KPAE 120427Z 1204/1224 02004KT 3SM BR OVC001 FM121300 02003KT 3SM
                       BR BKN004 FM121900 VRB04KT P6SM FEW250=
202012112328 TAF KPAE 112328Z 1200/1224 18006KT P6SM SCT025 FM120100 03004KT
                       P6SM SCT030 FM121300 02003KT 3SM BR BKN004
                       FM121900 VRB04KT P6SM FEW250=
202012112103 KPAE 112103Z 1121/1218 18006KT P6SM VCSH BKN025 FM112300 VRB04KT
                       P6SM SCT050 FM121300 02003KT 3SM BR BKN004=
202012111731 TAF KPAE 111731Z 1118/1218 19010KT P6SM OVC015 FM112000 18006KT
                       P6SM VCSH FEW020 BKN060 FM112300 VRB04KT
                       P6SM SCT050 FM121300 02003KT 3SM BR BKN004=
202012111128 TAF KPAE 111128Z 1112/1212 17010KT P6SM OVC011 FM111700 19007KT
                       P6SM VCSH BKN020 BKN050 FM112300 35004KT
                       P6SM SCT050 OVC060=
202012110533 TAF KPAE 110533Z 1106/1206 17009KT P6SM -RA BKN009 OVC070
                      TEMPO 1106/1109 -SHRA OVC012 FM110900 17010KT
                       P6SM OVC012 FM111700 19007KT P6SM VCSH BKN020
                       BKN050 FM112100 18004KT P6SM SCT050 BKN100=
202012102326 TAF KPAE 102326Z 1100/1124 18005KT P6SM SCT050 OVC100 FM110300
                       17010KT P6SM SCT020 OVC050 FM110700 17010KT
                       P6SM -RA OVC015 FM111200 17008KT P6SM OVC010
                       FM111700 19007KT P6SM -SHRA OVC015=
202012101735 TAF KPAE 101735Z 1018/1118 13005KT P6SM SCT030 OVC100 FM102100
                       18005KT P6SM SCT050 OVC100 FM110300 17010KT
                       P6SM SCT020 OVC050 FM110900 17010KT P6SM
                       -RA OVC015=
202012101138 TAF KPAE 101138Z 1012/1112 11006KT P6SM SCT030
                      TEMPO 1013/1016 6SM BR BKN015 OVC060 FM101600
                       13005KT P6SM SCT010 BKN030 OVC100 FM102100
                       18004KT P6SM SCT050 OVC100=
202012100541 TAF KPAE 100541Z 1006/1106 06005KT P6SM SCT010 OVC040 FM100800
                       10004KT 5SM BR SCT005 OVC020 FM101600 13005KT
                       P6SM SCT010 BKN030 OVC100 FM102100 18004KT
                       P6SM SCT050 OVC100=
202012092320 TAF KPAE 092320Z 1000/1024 23004KT P6SM SCT015 OVC025 FM100100
                       VRB03KT P6SM SCT020 OVC030 FM100800 10004KT
                       5SM BR SCT005 OVC020 FM101600 13005KT P6SM
                       SCT010 BKN030 OVC100=
202012092020 KPAE 092020Z 0920/1018 20006KT P6SM OVC015
                      TEMPO 0920/0922 2SM -RA BR OVC005 FM100000
                       23004KT P6SM SCT015 OVC025 FM101000 10003KT
                       P6SM BKN030 OVC100=
202012091721 TAF KPAE 091721Z 0918/1018 18008KT P6SM OVC010
                      TEMPO 0918/0920 3SM -RA BR OVC007 FM092000
                       17006KT P6SM OVC015 FM100000 23004KT P6SM
                       SCT015 OVC025 FM101000 10003KT P6SM BKN030
                       OVC100=
202012091140 TAF KPAE 091140Z 0912/1012 34004KT P6SM OVC008 FM091700 18008KT
                       P6SM OVC010 FM092000 17011KT P6SM OVC015
                       FM101000 10003KT P6SM SCT250=
202012090540 TAF KPAE 090540Z 0906/1006 34005KT 5SM -RA BR BKN004 OVC015 FM090900
                       27006KT 3SM -RA BR OVC007 FM091200 22006KT
                       P6SM OVC008 FM091800 18008KT P6SM OVC015=
202012082323 TAF KPAE 082323Z 0900/0924 VRB04KT 1SM -RA BR OVC005 FM090700 27006KT
                       3SM -RA BR OVC007 FM091200 22006KT P6SM
                       OVC015 FM091800 18008KT P6SM OVC010=
202012082006 KPAE 082006Z 0820/0918 VRB04KT 2SM -RA BR OVC005 FM090500 21006KT
                       4SM -RA BR OVC007 FM091200 22006KT P6SM
                       OVC015=
202012081725 TAF KPAE 081725Z 0818/0918 15010KT 4SM -RA BKN004 OVC010 FM082100
                       VRB04KT 4SM -RA OVC007 FM090500 21006KT
                       4SM -RA BR OVC007 FM091200 22006KT P6SM
                       OVC015=
202012081147 TAF KPAE 081147Z 0812/0912 15015G25KT P6SM -RA OVC009 FM081400
                       15010KT 3SM -RA BKN006 OVC010 FM082100 VRB04KT
                       4SM -RA OVC007=
202012080533 TAF KPAE 080533Z 0806/0906 18015G21KT P6SM OVC035 FM080800 15015G25KT
                       P6SM -RA OVC030 FM081400 15010KT 3SM -RA
                       BKN006 OVC010 FM082100 VRB04KT 4SM -RA OVC007=
202012072320 TAF KPAE 072320Z 0800/0824 15009KT P6SM OVC090 FM080700 15014G23KT
                       P6SM -RA OVC045 FM081400 15010KT 3SM -RA
                       BKN006 OVC010=
202012071721 TAF KPAE 071721Z 0718/0818 15006KT P6SM OVC090 FM080900 15014G23KT
                       P6SM -RA OVC045 FM081400 15012KT 3SM -RA
                       BKN006 OVC010=
202012071134 TAF KPAE 071134Z 0712/0812 15006KT P6SM OVC100 FM080900 15012KT
                       P6SM -RA OVC045 FM081100 15012KT 3SM -RA
                       BKN006 OVC010=
202012070535 TAF KPAE 070535Z 0706/0806 16006KT P6SM FEW050 BKN250 FM071300
                       15006KT P6SM OVC100=
202012070045 KPAE 070045Z 0701/0724 16010KT P6SM FEW025 BKN040 FM070300 15007KT
                       P6SM BKN050 FM071300 14008KT P6SM BKN100=
202012062341 TAF KPAE 062341Z 0700/0724 16008KT P6SM BKN025 FM070300 15007KT
                       P6SM BKN050 FM071300 14008KT P6SM BKN100=
202012061737 TAF KPAE 061737Z 0618/0718 16012KT 4SM BR BKN004 OVC020 FM061900
                       18012KT P6SM BKN009 OVC025 FM062300 18006KT
                       P6SM BKN050 FM070500 14004KT P6SM SCT100
                       BKN250=
202012061412 KPAE 061412Z 0614/0712 18012G18KT P6SM OVC005 FM061600 18012KT
                       P6SM SCT006 BKN012 OVC020 FM061900 18012KT
                       P6SM SCT012 BKN022 OVC040 FM062200 18006KT
                       P6SM BKN050 FM070500 14004KT P6SM SCT100
                       BKN250=
202012061138 TAF KPAE 061138Z 0612/0712 18012KT P6SM BKN040 OVC060 FM061600
                       18008KT P6SM SCT012 BKN022 OVC040 FM062200
                       18006KT P6SM BKN050 FM070500 14004KT P6SM
                       SCT100 BKN250=
202012060531 TAF KPAE 060531Z 0606/0706 12006KT P6SM BKN100 OVC200 FM060900
                       15014KT P6SM -RA BKN040 OVC060 FM061200
                       17008KT P6SM OVC015 FM062100 18006KT P6SM
                       OVC030 FM070000 16005KT P6SM BKN050=
202012052339 TAF KPAE 052339Z 0600/0624 17008KT P6SM SKC FM060200 16010KT P6SM
                       SCT100 OVC200 FM060800 15014KT P6SM -RA
                       BKN040 OVC060 FM061200 17008KT P6SM OVC015
                       FM062300 18006KT P6SM OVC030=
202012051720 TAF KPAE 051720Z 0518/0618 17004KT P6SM SCT250 FM060200 15014KT
                       P6SM SCT100 OVC200 FM060800 15014KT P6SM
                       -RA BKN040 OVC060 FM061400 17008KT P6SM
                       OVC015=
202012051127 TAF KPAE 051127Z 0512/0612 12008KT P6SM SKC FM060100 15014KT P6SM
                       SCT100 OVC200 FM060800 15014KT P6SM -RA
                       BKN040 OVC060=
202012050544 TAF KPAE 050544Z 0506/0606 VRB03KT P6SM SKC FM060100 12010KT P6SM
                       SCT100 OVC200=
202012042343 TAF KPAE 042343Z 0500/0524 03004KT P6SM SKC FM050500 11005KT P6SM
                       SKC FM051800 16007KT P6SM SCT250=
202012041724 TAF KPAE 041724Z 0418/0518 VRB03KT P6SM SKC FM050500 11004KT P6SM
                       SKC=
202012041133 TAF KPAE 041133Z 0412/0512 VRB03KT P6SM BKN035 FM041800 VRB03KT
                       P6SM SKC FM050900 10008KT P6SM SKC=
202012040537 TAF KPAE 040537Z 0406/0506 14005KT P6SM OVC050 FM041000 VRB03KT
                       P6SM SCT050 FM041800 35004KT P6SM FEW250=
202012032329 TAF KPAE 032329Z 0400/0424 18005KT P6SM FEW060 BKN090 OVC150 FM040800
                       VRB03KT P6SM SCT070 SCT250 FM041800 36003KT
                       P6SM SKC=
202012031723 TAF KPAE 031723Z 0318/0418 12005KT P6SM SCT150 BKN250 FM032100
                       14006KT P6SM BKN120 OVC200 FM040800 VRB03KT
                       P6SM SCT040 SCT250=
202012031131 TAF KPAE 031131Z 0312/0412 00000KT P6SM BKN250 FM032100 14006KT
                       P6SM BKN120 OVC200 FM040800 VRB03KT P6SM
                       BKN250=
202012030520 TAF KPAE 030520Z 0306/0406 12003KT P6SM BKN250 FM031200 13004KT
                       P6SM BKN120 BKN250 FM032100 16003KT P6SM
                       SCT070 OVC110=
202012022322 TAF KPAE 022322Z 0300/0324 12003KT P6SM BKN250 FM031200 13004KT
                       P6SM BKN120 BKN250=
202012021721 TAF KPAE 021721Z 0218/0318 00000KT P6SM SKC FM022000 14005KT P6SM
                       SKC FM031200 13004KT P6SM BKN100 BKN250=
202012021120 TAF KPAE 021120Z 0212/0312 04003KT P6SM SKC FM021500 10004KT P6SM
                       SKC FM022000 15008KT P6SM SKC FM030300 14003KT
                       P6SM SKC=
202012020604 TAF KPAE 020604Z 0206/0306 04003KT P6SM SKC FM021700 12004KT P6SM
                       SKC=
202012012327 TAF KPAE 012327Z 0200/0224 34004KT P6SM SCT250 FM020300 04003KT
                       P6SM SKC FM021700 12004KT P6SM SKC=
202012011723 TAF KPAE 011723Z 0118/0218 00000KT P6SM SCT010 FM011900 02004KT
                       P6SM SCT250 FM020300 04003KT P6SM SKC=
202012011407 KPAE 011407Z 0114/0212 09003KT P6SM SCT004 BKN020 FM011900 02004KT
                       P6SM SCT250 FM020300 04003KT P6SM SKC=
202012011120 TAF KPAE 011120Z 0112/0212 09003KT 4SM BR SCT004 BKN020 FM011900
                       02004KT P6SM SCT250 FM020300 04003KT P6SM
                       SKC=
202012010520 TAF KPAE 010520Z 0106/0206 16004KT P6SM SCT050 FM011100 09003KT
                       4SM BR SCT004 BKN020 FM011900 02004KT P6SM
                       SCT250=