##########################################################
# Query made at 02/15/2025 22:34:41 UTC
# Time interval: from 10/01/2021 00:00  to 10/31/2021 23:59  UTC
##########################################################

##########################################################
# KPAE, Everett, Snohomish County Airport (United States)
# WMO index: -----. WIGOS ID: Unknown
# Latitude 47-55-23N. Longitude 122-16-57W. Altitude 184 m.
##########################################################

###################################
#  METAR/SPECI from KPAE
###################################
202110312353 METAR KPAE 312353Z 01006KT 10SM CLR 11/M01 A2998 RMK AO2 SLP156 T01111011 10128 20078 56007=
202110312253 METAR KPAE 312253Z 35004KT 10SM CLR 11/M02 A2999 RMK AO2 SLP158 T01111022=
202110312153 METAR KPAE 312153Z 32005KT 10SM CLR 12/M06 A2999 RMK AO2 SLP156 T01221056=
202110312053 METAR KPAE 312053Z 36005KT 10SM CLR 12/M04 A3000 RMK AO2 SLP163 T01221039 58019=
202110311953 METAR KPAE 311953Z 36005KT 10SM CLR 12/01 A3003 RMK AO2 SLP172 T01170006=
202110311853 METAR KPAE 311853Z 00000KT 10SM CLR 11/M01 A3006 RMK AO2 SLP181 T01061011=
202110311753 METAR KPAE 311753Z 02005KT 10SM CLR 09/01 A3006 RMK AO2 SLP183 T00890011 10100 20006 50004=
202110311653 METAR KPAE 311653Z 00000KT 10SM CLR 07/00 A3006 RMK AO2 SLP184 T00720000=
202110311553 METAR KPAE 311553Z 00000KT 10SM CLR 04/01 A3006 RMK AO2 SLP183 T00390006=
202110311453 METAR KPAE 311453Z 02003KT 10SM CLR 02/00 A3005 RMK AO2 SLP180 T00220000 53001=
202110311353 METAR KPAE 311353Z 00000KT 10SM CLR 02/01 A3004 RMK AO2 SLP178 T00170006=
202110311253 METAR KPAE 311253Z AUTO 00000KT 10SM CLR 03/01 A3005 RMK AO2 SLP179 T00280006=
202110311153 METAR KPAE 311153Z AUTO 01003KT 10SM CLR 03/00 A3005 RMK AO2 SLP177 T00330000 10061 20028 58007=
202110311053 METAR KPAE 311053Z AUTO 01003KT 10SM CLR 03/00 A3005 RMK AO2 SLP180 T00280000=
202110310953 METAR KPAE 310953Z AUTO 02005KT 10SM CLR 05/01 A3007 RMK AO2 SLP184 T00500006=
202110310853 METAR KPAE 310853Z AUTO 02003KT 10SM CLR 03/01 A3007 RMK AO2 SLP185 T00330011 58003=
202110310753 METAR KPAE 310753Z AUTO 00000KT 10SM CLR 04/01 A3007 RMK AO2 SLP186 T00390011 401060033=
202110310653 METAR KPAE 310653Z AUTO 01003KT 10SM CLR 05/02 A3007 RMK AO2 SLP187 T00500017=
202110310553 METAR KPAE 310553Z AUTO 02004KT 10SM CLR 06/02 A3008 RMK AO2 SLP187 T00610022 10100 20061 55004=
202110310453 METAR KPAE 310453Z AUTO 01006KT 10SM CLR 07/03 A3007 RMK AO2 SLP187 T00670028=
202110310353 METAR KPAE 310353Z 36004KT 10SM CLR 07/03 A3008 RMK AO2 SLP190 T00670033=
202110310253 METAR KPAE 310253Z 36004KT 10SM CLR 07/01 A3009 RMK AO2 SLP193 T00720006 57006=
202110310153 METAR KPAE 310153Z 35003KT 10SM CLR 07/01 A3009 RMK AO2 SLP194 T00670006=
202110310053 METAR KPAE 310053Z 34003KT 10SM CLR 08/00 A3010 RMK AO2 SLP196 T00830000=
202110302353 METAR KPAE 302353Z 35005KT 10SM CLR 10/00 A3011 RMK AO2 SLP197 T01000000 10106 20061 56015=
202110302253 METAR KPAE 302253Z 34007KT 10SM CLR 11/M01 A3011 RMK AO2 SLP199 T01061006=
202110302153 METAR KPAE 302153Z 35008KT 10SM CLR 10/M01 A3013 RMK AO2 SLP205 T01001011=
202110302053 METAR KPAE 302053Z 33007G15KT 10SM CLR 09/01 A3015 RMK AO2 SLP213 T00940006 58015=
202110301953 METAR KPAE 301953Z 35008KT 10SM CLR 09/01 A3017 RMK AO2 SLP219 T00890011=
202110301853 METAR KPAE 301853Z 35007KT 10SM CLR 08/01 A3019 RMK AO2 SLP226 T00780011=
202110301753 METAR KPAE 301753Z 35009KT 10SM CLR 06/00 A3019 RMK AO2 SLP229 T00610000 10061 20033 50002=
202110301653 METAR KPAE 301653Z 35007KT 10SM CLR 05/02 A3020 RMK AO2 SLP231 T00500017=
202110301553 METAR KPAE 301553Z 35005KT 10SM CLR 04/02 A3020 RMK AO2 SLP229 T00440017=
202110301453 METAR KPAE 301453Z 34006KT 10SM CLR 03/02 A3019 RMK AO2 SLP227 T00330017 58006=
202110301353 METAR KPAE 301353Z 34006KT 10SM CLR 03/02 A3020 RMK AO2 SLP229 T00330022=
202110301253 METAR KPAE 301253Z AUTO 34007KT 10SM CLR 04/03 A3020 RMK AO2 SLP230 T00390028=
202110301211 SPECI KPAE 301211Z AUTO 34006KT 10SM FEW006 04/03 A3021 RMK AO2 T00390028=
202110301153 METAR KPAE 301153Z AUTO 36007KT 10SM CLR 04/03 A3021 RMK AO2 SLP232 70007 T00390028 10050 20033 56008=
202110301053 METAR KPAE 301053Z AUTO 36007KT 10SM CLR 04/03 A3021 RMK AO2 SLP234 T00390033=
202110300953 METAR KPAE 300953Z AUTO 35006KT 10SM FEW007 04/03 A3022 RMK AO2 SLP237 T00390028=
202110300901 SPECI KPAE 300901Z AUTO 35005KT 10SM FEW005 04/03 A3023 RMK AO2 T00390028=
202110300853 METAR KPAE 300853Z AUTO 35005KT 10SM CLR 04/03 A3023 RMK AO2 SLP240 T00390028 58008=
202110300753 METAR KPAE 300753Z AUTO 34004KT 10SM CLR 04/02 A3025 RMK AO2 SLP246 T00390022 401000039=
202110300653 METAR KPAE 300653Z AUTO 02006KT 10SM CLR 05/02 A3026 RMK AO2 SLP249 T00500022=
202110300553 METAR KPAE 300553Z AUTO 35005KT 10SM CLR 05/02 A3026 RMK AO2 SLP248 T00500022 10094 20044 51010=
202110300453 METAR KPAE 300453Z 33003KT 10SM CLR 06/02 A3025 RMK AO2 SLP248 T00560022=
202110300353 METAR KPAE 300353Z 36004KT 10SM CLR 06/03 A3024 RMK AO2 SLP242 T00560028=
202110300253 METAR KPAE 300253Z 01005KT 10SM CLR 07/02 A3023 RMK AO2 SLP239 T00670022 51011=
202110300153 METAR KPAE 300153Z 32004KT 10SM CLR 07/03 A3023 RMK AO2 SLP239 T00670028=
202110300053 METAR KPAE 300053Z 34004KT 10SM CLR 08/03 A3021 RMK AO2 SLP233 T00780028=
202110292353 METAR KPAE 292353Z 01006KT 10SM BKN045 09/03 A3019 RMK AO2 SLP227 T00940033 10100 20083 53008=
202110292253 METAR KPAE 292253Z 01007KT 10SM OVC046 10/03 A3018 RMK AO2 SLP222 T01000028=
202110292153 METAR KPAE 292153Z VRB05KT 10SM FEW046 09/02 A3017 RMK AO2 SLP219 T00940022=
202110292100 SPECI KPAE 292100Z 36007KT 10SM OVC030 09/04 A3017 RMK AO2 T00890039=
202110292053 METAR KPAE 292053Z VRB04KT 10SM FEW013 BKN023 OVC030 09/04 A3017 RMK AO2 SLP218 T00890039 51016=
202110291953 METAR KPAE 291953Z 34004KT 10SM FEW013 BKN021 OVC030 08/06 A3016 RMK AO2 SLP215 T00830056=
202110291915 SPECI KPAE 291915Z 36006KT 10SM BKN026 OVC046 09/05 A3015 RMK AO2 T00890050=
202110291853 METAR KPAE 291853Z 03005KT 10SM SCT025 OVC047 09/04 A3014 RMK AO2 SLP209 T00890044=
202110291830 SPECI KPAE 291830Z 02005KT 10SM SCT023 BKN047 08/06 A3014 RMK AO2 T00830056=
202110291800 SPECI KPAE 291800Z VRB05KT 10SM BKN025 BKN030 09/06 A3013 RMK AO2 T00890056=
202110291753 METAR KPAE 291753Z VRB05KT 10SM FEW006 BKN012 BKN018 09/06 A3012 RMK AO2 SLP202 60007 T00890061 10089 20072 53014=
202110291727 SPECI KPAE 291727Z 02006KT 10SM FEW006 BKN012 BKN018 08/07 A3011 RMK AO2 T00830067=
202110291718 SPECI KPAE 291718Z 36005KT 10SM SCT008 BKN018 BKN029 08/07 A3011 RMK AO2 T00830067=
202110291706 SPECI KPAE 291706Z 02005KT 10SM FEW006 BKN012 OVC028 08/07 A3011 RMK AO2 T00830072=
202110291701 SPECI KPAE 291701Z 35005KT 10SM FEW006 SCT012 OVC030 08/07 A3011 RMK AO2 T00830072=
202110291653 METAR KPAE 291653Z 01005KT 10SM FEW006 BKN028 OVC033 08/07 A3010 RMK AO2 SLP195 T00830072=
202110291649 SPECI KPAE 291649Z 01004KT 10SM FEW006 BKN028 OVC033 08/07 A3010 RMK AO2=
202110291637 SPECI KPAE 291637Z 35003KT 10SM BKN028 OVC034 08/07 A3010 RMK AO2 T00780067=
202110291605 SPECI KPAE 291605Z 00000KT 10SM BKN031 OVC039 08/07 A3008 RMK AO2 T00780067=
202110291553 METAR KPAE 291553Z 31004KT 10SM BKN029 OVC037 08/07 A3008 RMK AO2 SLP188 T00780067=
202110291510 SPECI KPAE 291510Z 34003KT 10SM BKN029 OVC035 08/07 A3006 RMK AO2 T00780067=
202110291453 METAR KPAE 291453Z 03004KT 10SM BKN030 OVC037 08/06 A3005 RMK AO2 RAB00E35 SLP176 P0002 60007 T00780061 53011=
202110291416 SPECI KPAE 291416Z 03004KT 9SM -RA FEW025 OVC034 08/07 A3003 RMK AO2 RAB00 P0002 T00780067=
202110291353 METAR KPAE 291353Z 01003KT 10SM OVC025 08/07 A3003 RMK AO2 RAE42 SLP170 P0000 T00780067=
202110291334 SPECI KPAE 291334Z AUTO 01005KT 10SM -RA BKN027 OVC039 08/07 A3002 RMK AO2 P0000 T00780067=
202110291253 METAR KPAE 291253Z AUTO 01005KT 10SM -RA SCT026 BKN045 OVC055 08/07 A3002 RMK AO2 SLP166 P0005 T00780067=
202110291238 SPECI KPAE 291238Z AUTO 04004KT 10SM -RA SCT024 SCT029 OVC050 08/07 A3001 RMK AO2 P0004 T00780067=
202110291228 SPECI KPAE 291228Z AUTO 02005KT 10SM -RA FEW004 BKN026 OVC042 07/07 A3001 RMK AO2 P0004 T00720067=
202110291153 METAR KPAE 291153Z AUTO 36005KT 6SM -RA BR FEW006 OVC048 08/07 A3001 RMK AO2 SLP165 P0006 60050 70140 T00780072 10089 20072 53007=
202110291142 SPECI KPAE 291142Z AUTO 01006KT 9SM -RA SCT004 OVC050 08/07 A3001 RMK AO2 P0004 T00780067=
202110291053 METAR KPAE 291053Z AUTO 35006KT 6SM -RA BR BKN002 OVC011 08/07 A3000 RMK AO2 SLP158 P0006 T00780072=
202110291036 SPECI KPAE 291036Z AUTO 34007KT 3SM -RA BR OVC002 08/08 A3000 RMK AO2 P0005 T00780078=
202110290953 METAR KPAE 290953Z AUTO 34008KT 1SM R16R/P6000FT -RA BR OVC004 08/08 A3000 RMK AO2 SLP158 P0008 T00830078=
202110290946 SPECI KPAE 290946Z AUTO 35007KT 1 3/4SM -RA BR BKN003 OVC017 08/08 A2999 RMK AO2 P0007 T00830078=
202110290939 SPECI KPAE 290939Z AUTO 35006KT 5SM -RA BR BKN003 BKN037 OVC043 08/08 A2999 RMK AO2 P0007 T00780078=
202110290853 METAR KPAE 290853Z AUTO 34004KT 5SM -RA BR FEW002 BKN036 OVC046 08/08 A2999 RMK AO2 SLP157 P0010 60030 T00830078 55000=
202110290843 SPECI KPAE 290843Z AUTO 35004KT 4SM -RA BR SCT002 SCT007 OVC034 08/08 A2999 RMK AO2 P0009 T00830078=
202110290823 SPECI KPAE 290823Z AUTO VRB04KT 5SM -RA BR BKN002 BKN007 OVC050 08/08 A3000 RMK AO2 P0005 T00830078=
202110290802 SPECI KPAE 290802Z AUTO VRB04KT 4SM -RA BR SCT002 OVC055 08/08 A2999 RMK AO2 P0002 T00830083=
202110290753 METAR KPAE 290753Z AUTO 35005KT 5SM -RA BR BKN002 OVC046 08/08 A2999 RMK AO2 SLP155 P0009 T00830083 401500072=
202110290737 SPECI KPAE 290737Z AUTO 34004KT 4SM -RA BR BKN003 OVC040 09/08 A2999 RMK AO2 P0006 T00890083=
202110290653 METAR KPAE 290653Z AUTO 35004KT 5SM -RA BR FEW002 SCT018 OVC047 09/08 A2999 RMK AO2 SLP156 P0011 T00890083=
202110290643 SPECI KPAE 290643Z AUTO 36004KT 5SM -RA BR SCT003 SCT018 OVC045 09/08 A2999 RMK AO2 P0010 T00890083=
202110290553 METAR KPAE 290553Z AUTO 29005KT 4SM -RA BR BKN003 BKN013 OVC018 09/09 A2999 RMK AO2 SLP157 P0012 60068 T00890089 10117 20089 53010=
202110290453 METAR KPAE 290453Z 32006KT 4SM RA BR BKN002 OVC015 09/09 A2998 RMK AO2 SLP154 P0015 T00940089=
202110290445 SPECI KPAE 290445Z 32005KT 4SM RA BR BKN002 OVC013 09/09 A2998 RMK AO2 P0014 T00940094=
202110290435 SPECI KPAE 290435Z 32006KT 3SM RA BR BKN001 BKN007 OVC013 09/09 A2998 RMK AO2 P0012 T00940094=
202110290427 SPECI KPAE 290427Z 31007KT 3SM RA BR BKN002 BKN012 OVC018 10/09 A2998 RMK AO2 P0009 T01000094=
202110290415 SPECI KPAE 290415Z 32007KT 3SM RA BR SCT002 BKN012 OVC034 10/09 A2997 RMK AO2 P0006 T01000094=
202110290404 SPECI KPAE 290404Z 33005KT 3SM R16R/5500VP6000FT RA BR SCT002 BKN016 OVC032 10/10 A2997 RMK AO2 P0003 T01000100=
202110290356 SPECI KPAE 290356Z 33004KT 3SM R16R/2400VP6000FT -RA BR SCT002 BKN014 OVC033 10/09 A2997 RMK AO2 P0001 T01000094=
202110290353 METAR KPAE 290353Z 32004KT 2SM R16R/2400VP6000FT -RA BR BKN004 BKN014 OVC049 10/10 A2997 RMK AO2 SLP148 P0011 T01000100=
202110290349 SPECI KPAE 290349Z 32004KT 2SM R16R/2400VP6000FT -RA BR BKN004 BKN014 OVC049 10/10 A2996 RMK AO2 P0011=
202110290253 METAR KPAE 290253Z 36004KT 3SM -RA BR BKN004 BKN014 OVC049 10/10 A2994 RMK AO2 SLP140 P0007 60030 T01000100 51003=
202110290240 SPECI KPAE 290240Z 35003KT 1 3/4SM -RA BR BKN004 BKN007 OVC016 10/10 A2994 RMK AO2 P0005 T01000100=
202110290233 SPECI KPAE 290233Z 36005KT 1 3/4SM -RA BR SCT004 BKN013 OVC021 10/10 A2994 RMK AO2 P0004 T01000100=
202110290216 SPECI KPAE 290216Z 35005KT 1 3/4SM -RA BR OVC004 10/10 A2995 RMK AO2 VIS 1V4 P0002 T01000100=
202110290153 METAR KPAE 290153Z 34006KT 4SM RA BR BKN002 OVC008 10/10 A2994 RMK AO2 SLP141 P0011 T01000100=
202110290148 SPECI KPAE 290148Z 33006KT 4SM RA BR BKN002 OVC008 10/10 A2995 RMK AO2 P0009=
202110290132 SPECI KPAE 290132Z 35006G18KT 2SM RA BR OVC002 11/10 A2993 RMK AO2 P0007 T01060100=
202110290106 SPECI KPAE 290106Z 35007KT 1 1/2SM -RA BR OVC002 11/11 A2993 RMK AO2 P0002 T01060106=
202110290053 METAR KPAE 290053Z 35008KT 1/2SM R16R/1800VP6000FT RA FG VV002 11/11 A2993 RMK AO2 SLP138 P0012 T01060106=
202110290000 SPECI KPAE 290000Z 34006KT 1/2SM R16R/P6000FT -RA FG OVC002 12/11 A2993 RMK AO2 P0002 T01170111=
202110282353 METAR KPAE 282353Z 34006KT 1/4SM R16R/P6000FT -RA FG OVC002 12/12 A2993 RMK AO2 SLP136 P0008 60018 T01170117 10150 20117 53000=
202110282253 METAR KPAE 282253Z 27008G16KT 250V330 1/4SM R16R/1800V4500FT -RA FG OVC002 13/13 A2992 RMK AO2 SLP132 P0004 T01280128=
202110282244 SPECI KPAE 282244Z 24011G20KT 1/2SM R16R/1600VP6000FT -RA FG OVC002 13/13 A2992 RMK AO2 P0003 T01330133=
202110282240 SPECI KPAE 282240Z 25012G20KT 1 3/4SM R16R/1600VP6000FT -RA BR BKN008 OVC055 14/13 A2991 RMK AO2 P0002 T01390133=
202110282153 METAR KPAE 282153Z 19015G27KT 10SM -RA BKN008 BKN021 OVC095 15/14 A2991 RMK AO2 PK WND 19027/2144 SLP128 P0003 T01500139=
202110282053 METAR KPAE 282053Z 19015G29KT 10SM -RA BKN008 BKN021 OVC095 15/14 A2993 RMK AO2 PK WND 19033/2012 RAE1959B20 SLP134 P0001 60003 T01500139 58007=
202110281953 METAR KPAE 281953Z 18018G26KT 10SM -RA BKN008 BKN060 OVC090 15/14 A2994 RMK AO2 PK WND 18034/1902 SLP139 P0001 T01500139=
202110281853 METAR KPAE 281853Z 19021G30KT 10SM -RA BKN008 OVC080 14/13 A2997 RMK AO2 PK WND 19031/1837 RAB1759 CIG 006V010 SLP149 P0001 T01440133=
202110281753 METAR KPAE 281753Z 19018G30KT 10SM OVC008 14/13 A2995 RMK AO2 PK WND 17032/1741 CIG 006V010 SLP142 60004 T01390133 10144 20078 58000=
202110281653 METAR KPAE 281653Z 18021G32KT 10SM OVC006 14/13 A2996 RMK AO2 PK WND 19032/1646 CIG 005V010 SLP145 T01390128=
202110281600 SPECI KPAE 281600Z 17019G27KT 4SM BR BKN005 OVC017 13/12 A2996 RMK AO2 PK WND 17027/1556 T01280122=
202110281553 METAR KPAE 281553Z 18019G25KT 2SM BR BKN004 OVC010 13/12 A2996 RMK AO2 PK WND 17029/1524 RAE23 SLP146 P0001 T01280122=
202110281453 METAR KPAE 281453Z 16017G28KT 1 1/2SM -RA BR BKN004 OVC018 11/11 A2995 RMK AO2 PK WND 16028/1451 CIG 002V008 SLP142 P0000 60003 T01110106 56020=
202110281402 SPECI KPAE 281402Z 16010KT 2SM -RA BR BKN004 OVC012 10/09 A2997 RMK AO2 P0000 T01000094=
202110281353 METAR KPAE 281353Z 15011G19KT 2 1/2SM -RA BR SCT004 OVC012 10/09 A2997 RMK AO2 SLP148 P0001 T01000094=
202110281340 SPECI KPAE 281340Z AUTO 15011KT 2 1/2SM -RA BR FEW005 BKN013 OVC023 10/09 A2997 RMK AO2 P0001 T01000094=
202110281337 SPECI KPAE 281337Z AUTO 15010G18KT 3SM -RA BR BKN013 OVC023 10/09 A2997 RMK AO2 P0001 T01000094=
202110281324 SPECI KPAE 281324Z AUTO 14007KT 4SM -RA BR FEW015 OVC023 10/09 A2998 RMK AO2 P0001 T01000089=
202110281253 METAR KPAE 281253Z AUTO 14008G15KT 2 1/2SM -RA BR BKN025 OVC036 09/08 A2999 RMK AO2 SLP156 P0002 T00890083=
202110281241 SPECI KPAE 281241Z AUTO VRB06KT 2 1/2SM -RA BR BKN027 OVC037 09/08 A2999 RMK AO2 P0002 T00890078=
202110281153 METAR KPAE 281153Z AUTO 11007KT 3SM -RA BR FEW006 OVC024 08/07 A3001 RMK AO2 SLP164 P0003 60009 70014 T00780072 10083 20072 56019=
202110281136 SPECI KPAE 281136Z AUTO 11007KT 2 1/2SM -RA BR FEW006 OVC022 08/07 A3001 RMK AO2 P0002 T00780072=
202110281100 SPECI KPAE 281100Z AUTO 12006KT 2 1/2SM -RA BR FEW003 BKN014 OVC029 08/07 A3003 RMK AO2 P0000 T00780072=
202110281053 METAR KPAE 281053Z AUTO 11006G18KT 3SM -RA BR SCT003 BKN014 OVC032 08/07 A3003 RMK AO2 SLP171 P0001 T00780072=
202110281014 SPECI KPAE 281014Z AUTO 12007KT 4SM -RA BR BKN003 BKN025 OVC036 07/07 A3005 RMK AO2 P0000 T00720067=
202110281004 SPECI KPAE 281004Z AUTO 12007KT 4SM -RA BR FEW003 OVC036 08/07 A3006 RMK AO2 P0000 T00780067=
202110280953 METAR KPAE 280953Z AUTO 11007G15KT 4SM -RA BR OVC038 08/07 A3007 RMK AO2 SLP184 P0002 T00780067=
202110280853 METAR KPAE 280853Z AUTO 11008KT 6SM -RA BR OVC036 08/07 A3013 RMK AO2 RAE0756B22 SLP205 P0000 60003 T00780067 56029=
202110280753 METAR KPAE 280753Z AUTO 11009KT 10SM -RA OVC035 08/07 A3015 RMK AO2 SLP211 P0001 T00780067 401220061=
202110280653 METAR KPAE 280653Z AUTO 10009KT 10SM -RA OVC055 08/07 A3019 RMK AO2 SLP224 P0002 T00830072=
202110280553 METAR KPAE 280553Z AUTO VRB04KT 9SM -RA FEW006 OVC050 08/08 A3022 RMK AO2 SLP235 P0004 60005 T00830078 10111 20083 58011=
202110280453 METAR KPAE 280453Z 14010G16KT 10SM -RA FEW009 OVC050 09/07 A3024 RMK AO2 RAB0357 SLP243 P0000 T00890072=
202110280448 SPECI KPAE 280448Z 14009G16KT 10SM -RA FEW009 OVC050 09/07 A3024 RMK AO2 RAB0357 P0000=
202110280353 METAR KPAE 280353Z 15011KT 10SM OVC070 09/08 A3025 RMK AO2 RAE37 SLP246 P0001 T00890078=
202110280253 METAR KPAE 280253Z 17011G19KT 10SM -RA OVC060 09/07 A3025 RMK AO2 RAB01E27B44 SLP247 P0000 60000 T00940072 53004=
202110280153 METAR KPAE 280153Z 18013KT 10SM BKN075 OVC090 11/07 A3025 RMK AO2 RAB24E34 SLP244 P0000 T01060067=
202110280100 SPECI KPAE 280100Z 19014KT 10SM FEW020 OVC100 11/07 A3025 RMK AO2 T01110067=
202110280053 METAR KPAE 280053Z 19013G20KT 10SM BKN025 BKN030 11/07 A3025 RMK AO2 SLP244 T01110067=
202110272353 METAR KPAE 272353Z 20013KT 10SM BKN027 BKN043 11/07 A3024 RMK AO2 SLP243 T01110067 10122 20100 51003=
202110272341 SPECI KPAE 272341Z 19011KT 10SM SCT024 BKN029 BKN085 12/07 A3025 RMK AO2 T01170067=
202110272253 METAR KPAE 272253Z 17009KT 10SM SCT025 12/07 A3024 RMK AO2 SLP243 T01170067=
202110272153 METAR KPAE 272153Z 18015KT 10SM BKN021 12/07 A3024 RMK AO2 SLP241 T01170067=
202110272053 METAR KPAE 272053Z 21014G22KT 10SM BKN021 12/07 A3023 RMK AO2 SLP240 T01170072 51004=
202110271953 METAR KPAE 271953Z 20013KT 10SM FEW021 11/07 A3022 RMK AO2 SLP236 T01110067=
202110271853 METAR KPAE 271853Z 19011KT 10SM SCT021 11/07 A3022 RMK AO2 SLP235 T01110067=
202110271823 SPECI KPAE 271823Z 18013G22KT 10SM FEW020 11/07 A3022 RMK AO2 T01060067=
202110271753 METAR KPAE 271753Z 19011KT 10SM BKN019 BKN023 10/07 A3021 RMK AO2 SLP232 T01000072 10100 20061 51023=
202110271653 METAR KPAE 271653Z 17008KT 10SM BKN015 OVC020 09/07 A3020 RMK AO2 SLP227 T00940072=
202110271553 METAR KPAE 271553Z 17007KT 10SM BKN018 09/07 A3017 RMK AO2 SLP217 T00940067=
202110271453 METAR KPAE 271453Z 18012KT 10SM BKN018 08/07 A3014 RMK AO2 SLP209 T00830067 51031=
202110271353 METAR KPAE 271353Z 17007KT 10SM FEW095 08/06 A3011 RMK AO2 SLP199 T00780061=
202110271253 METAR KPAE 271253Z AUTO 18007KT 10SM CLR 07/05 A3009 RMK AO2 SLP190 T00670050=
202110271153 METAR KPAE 271153Z AUTO 18008KT 10SM CLR 07/06 A3005 RMK AO2 SLP177 60003 70008 T00670056 10100 20067 51035=
202110271053 METAR KPAE 271053Z AUTO 16007KT 10SM CLR 08/06 A3001 RMK AO2 SLP165 T00780056=
202110270953 METAR KPAE 270953Z AUTO 17006KT 10SM CLR 08/06 A2998 RMK AO2 SLP154 T00780056=
202110270853 METAR KPAE 270853Z AUTO 15007KT 10SM FEW075 BKN095 08/07 A2994 RMK AO2 SLP142 60003 T00830067 51032=
202110270827 SPECI KPAE 270827Z AUTO 15006KT 10SM FEW029 BKN095 09/07 A2995 RMK AO2 T00890067=
202110270802 SPECI KPAE 270802Z AUTO 15006KT 10SM BKN029 09/07 A2994 RMK AO2 PRESRR T00890067=
202110270753 METAR KPAE 270753Z AUTO 15004KT 10SM SCT029 SCT100 08/06 A2992 RMK AO2 RAE21 PRESRR SLP134 P0001 T00830061 401280083=
202110270653 METAR KPAE 270653Z AUTO 32003KT 7SM -RA BKN037 OVC049 09/07 A2988 RMK AO2 RAB35 SLP120 P0002 T00940072=
202110270640 SPECI KPAE 270640Z AUTO 18007KT 10SM -RA SCT023 BKN035 OVC049 09/07 A2988 RMK AO2 RAB35 P0000 T00940067=
202110270553 METAR KPAE 270553Z AUTO 21009KT 10SM OVC018 10/07 A2985 RMK AO2 SLP109 T01000072 10117 20094 53041=
202110270453 METAR KPAE 270453Z AUTO 22011G21KT 10SM BKN017 OVC022 10/07 A2980 RMK AO2 PK WND 20026/0354 SLP092 T01000072=
202110270440 SPECI KPAE 270440Z AUTO 21013KT 10SM BKN019 BKN023 OVC075 10/07 A2979 RMK AO2 PK WND 20026/0354 T01000067=
202110270353 METAR KPAE 270353Z 20015G25KT 10SM SCT070 BKN100 10/07 A2974 RMK AO2 PK WND 18033/0303 SLP073 T01000067=
202110270253 METAR KPAE 270253Z 18021G31KT 10SM BKN090 BKN120 11/07 A2972 RMK AO2 PK WND 20043/0159 SLP067 T01060072 53015=
202110270153 METAR KPAE 270153Z 19031G37KT 10SM OVC100 11/07 A2971 RMK AO2 PK WND 18042/0143 SLP062 T01060067=
202110270053 METAR KPAE 270053Z 17017G30KT 10SM CLR 11/07 A2969 RMK AO2 PK WND 19037/0022 SLP055 T01110072=
202110262353 METAR KPAE 262353Z 19022G36KT 10SM FEW022 SCT085 12/08 A2968 RMK AO2 PK WND 17036/2349 SLP051 60005 T01170078 10128 20094 53008=
202110262253 METAR KPAE 262253Z 17019G35KT 10SM SCT014 BKN055 OVC070 12/09 A2966 RMK AO2 PK WND 19035/2251 RAB20E40 SLP044 P0000 T01170089=
202110262205 SPECI KPAE 262205Z 17018G27KT 10SM SCT016 SCT049 BKN060 13/10 A2966 RMK AO2 PK WND 15028/2155 T01280100=
202110262153 METAR KPAE 262153Z 17018G29KT 10SM BKN016 BKN021 BKN070 12/10 A2965 RMK AO2 PK WND 18029/2152 RAE49 SLP041 P0001 T01220100=
202110262053 METAR KPAE 262053Z 15011G22KT 5SM -RA BR OVC027 11/08 A2966 RMK AO2 RAE07B53 SLP043 P0000 60004 T01060083 56009=
202110261953 METAR KPAE 261953Z 15009KT 8SM -RA BKN027 OVC038 10/08 A2966 RMK AO2 SLP046 P0002 T01000078=
202110261949 SPECI KPAE 261949Z 15009G19KT 10SM -RA FEW024 BKN029 OVC038 11/08 A2966 RMK AO2 P0002=
202110261853 METAR KPAE 261853Z VRB04KT 6SM -RA BR BKN037 OVC045 09/07 A2968 RMK AO2 RAB15 SLP053 P0002 T00940072=
202110261753 METAR KPAE 261753Z 10007KT 10SM OVC035 09/07 A2969 RMK AO2 RAB14E32 SLP056 P0000 60000 T00940072 10100 20094 58012=
202110261653 METAR KPAE 261653Z VRB06KT 10SM OVC034 09/07 A2971 RMK AO2 RAB14E23 SLP063 P0000 T00940072=
202110261553 METAR KPAE 261553Z 15009G18KT 10SM FEW018 BKN041 OVC050 09/07 A2972 RMK AO2 SLP067 T00940072=
202110261453 METAR KPAE 261453Z 17013G18KT 10SM BKN055 OVC080 09/07 A2973 RMK AO2 RAB13E26 SLP068 P0000 60000 T00940072 51007=
202110261353 METAR KPAE 261353Z 17011KT 10SM FEW011 SCT043 OVC100 09/07 A2972 RMK AO2 SLP067 T00940072=
202110261253 METAR KPAE 261253Z 17012G23KT 10SM BKN075 OVC090 09/07 A2972 RMK AO2 SLP066 T00940072=
202110261153 METAR KPAE 261153Z 17015G23KT 10SM FEW020 BKN090 BKN110 09/07 A2971 RMK AO2 SLP061 60000 70010 T00940072 10100 20094 51006=
202110261053 METAR KPAE 261053Z 16013G20KT 10SM SCT011 BKN031 BKN041 09/08 A2970 RMK AO2 RAB10E21 SLP059 P0000 T00940078=
202110261001 SPECI KPAE 261001Z 18018G25KT 10SM SCT016 SCT031 BKN042 09/07 A2970 RMK AO2 T00940072=
202110260953 METAR KPAE 260953Z 18015G25KT 10SM BKN017 BKN035 BKN042 09/07 A2970 RMK AO2 RAB03E15 SLP057 P0000 T00940072=
202110260853 METAR KPAE 260853Z 18017G27KT 10SM FEW026 SCT070 BKN090 10/07 A2969 RMK AO2 PK WND 18034/0808 SLP055 T01000072 53021=
202110260753 METAR KPAE 260753Z 18022G31KT 10SM FEW014 BKN110 10/07 A2966 RMK AO2 PK WND 18034/0703 SLP044 T01000072 401330094=
202110260653 METAR KPAE 260653Z 18022G30KT 10SM BKN110 10/07 A2964 RMK AO2 PK WND 18033/0634 SLP037 T01000072=
202110260628 SPECI KPAE 260628Z 18022G33KT 10SM FEW016 OVC100 10/08 A2963 RMK AO2 PK WND 18033/0626 T01000078=
202110260609 SPECI KPAE 260609Z 18022G33KT 10SM SCT014 BKN019 BKN027 10/08 A2963 RMK AO2 PK WND 19033/0607 T01000078=
202110260553 METAR KPAE 260553Z 18018G31KT 10SM BKN012 BKN028 BKN120 10/08 A2963 RMK AO2 PK WND 18031/0546 SLP033 60003 T01000078 10111 20100 52014=
202110260453 METAR KPAE 260453Z 17017G27KT 10SM SCT013 SCT120 10/08 A2961 RMK AO2 PK WND 18028/0422 SLP026 T01000078=
202110260445 SPECI KPAE 260445Z 18020G28KT 10SM SCT010 BKN015 BKN095 10/08 A2960 RMK AO2 PK WND 18028/0422 T01000078=
202110260353 METAR KPAE 260353Z 17015G27KT 10SM BKN012 BKN021 OVC100 10/08 A2959 RMK AO2 PK WND 16032/0258 SLP019 T01000083=
202110260351 SPECI KPAE 260351Z 17019G27KT 10SM BKN012 BKN019 OVC110 10/08 A2959 RMK AO2 PK WND 16032/0258=
202110260323 SPECI KPAE 260323Z 17015G27KT 10SM SCT014 SCT018 BKN026 10/08 A2958 RMK AO2 PK WND 16032/0258 T01000078=
202110260315 SPECI KPAE 260315Z 17018G29KT 10SM SCT014 BKN100 10/08 A2957 RMK AO2 PK WND 16032/0258 T01000078=
202110260253 METAR KPAE 260253Z 17017G30KT 10SM BKN016 OVC100 10/08 A2956 RMK AO2 PK WND 15030/0250 SLP009 60003 T01000078 51013=
202110260153 METAR KPAE 260153Z 17015G26KT 10SM SCT017 BKN029 BKN033 10/08 A2954 RMK AO2 PK WND 16030/0118 RAE33 SLP003 P0001 T01000083=
202110260148 SPECI KPAE 260148Z 17019G26KT 10SM SCT017 BKN029 OVC043 10/08 A2954 RMK AO2 PK WND 16030/0118 RAE33 P0001=
202110260125 SPECI KPAE 260125Z 16017G30KT 10SM -RA SCT017 BKN030 OVC095 10/08 A2952 RMK AO2 PK WND 16030/0118 P0000 T01000078=
202110260053 METAR KPAE 260053Z 17019G27KT 8SM -RA SCT017 BKN022 OVC050 10/08 A2952 RMK AO2 PK WND 15033/0018 RAB2354 SLP995 P0002 T01000078=
202110252353 METAR KPAE 252353Z 17019G29KT 10SM BKN030 OVC038 11/07 A2948 RMK AO2 PK WND 16032/2257 RAE21 SLP984 P0001 60005 T01110072 10133 20106 51022=
202110252253 METAR KPAE 252253Z AUTO 17015G23KT 10SM -RA BKN030 OVC039 11/07 A2947 RMK AO2 PK WND 16030/2213 SLP978 P0001 T01110072=
202110252153 METAR KPAE 252153Z 16018G30KT 6SM -RA FEW035 BKN046 OVC060 11/08 A2944 RMK AO2 PK WND 17035/2055 SLP967 P0003 T01110078=
202110252053 METAR KPAE 252053Z 18021G31KT 10SM -RA BKN040 OVC047 13/05 A2942 RMK AO2 PK WND 18035/2027 RAB08E17B53 SLP960 P0000 60000 T01280050 51022=
202110251953 METAR KPAE 251953Z 17015G27KT 10SM OVC042 13/04 A2940 RMK AO2 PK WND 19037/1928 SLP956 T01280044=
202110251853 METAR KPAE 251853Z 16019G32KT 10SM BKN045 OVC055 13/04 A2938 RMK AO2 PK WND 15037/1818 SLP947 T01330039=
202110251753 METAR KPAE 251753Z 16020G30KT 10SM OVC051 13/04 A2935 RMK AO2 PK WND 16038/1730 SLP937 60002 T01280039 10128 20106 51010=
202110251653 METAR KPAE 251653Z 14010G16KT 10SM OVC046 11/05 A2935 RMK AO2 PK WND 14028/1606 RAE23 SLP938 P0000 T01110050=
202110251553 METAR KPAE 251553Z 16015G25KT 10SM -RA FEW044 BKN055 OVC070 11/04 A2933 RMK AO2 PK WND 16035/1522 RAB05 SLP933 P0001 T01110044=
202110251453 METAR KPAE 251453Z 16016G35KT 10SM OVC051 12/03 A2932 RMK AO2 PK WND 18035/1446 RAE13 SLP928 P0000 60001 T01220033 53016=
202110251353 METAR KPAE 251353Z 16014G32KT 10SM -RA FEW055 BKN080 OVC100 12/04 A2930 RMK AO2 PK WND 15035/1338 SLP922 P0000 T01170039=
202110251253 METAR KPAE 251253Z AUTO 15020G35KT 10SM -RA OVC060 12/03 A2928 RMK AO2 PK WND 16035/1246 SLP914 P0001 T01170033=
202110251153 METAR KPAE 251153Z AUTO 16014G28KT 10SM -RA BKN055 OVC070 12/04 A2927 RMK AO2 PK WND 15028/1150 RAB1055 SLP911 P0000 60000 70044 T01170039 10128 20111 51016=
202110251053 METAR KPAE 251053Z AUTO 16017G29KT 10SM OVC065 12/03 A2926 RMK AO2 PK WND 15033/1026 SLP908 T01220028=
202110250953 METAR KPAE 250953Z AUTO 16014G30KT 10SM FEW055 OVC080 12/03 A2925 RMK AO2 PK WND 17033/0855 RAE0856 SLP904 P0000 T01220028=
202110250853 METAR KPAE 250853Z AUTO 15020G31KT 10SM -RA SCT055 OVC075 13/02 A2922 RMK AO2 PK WND 15031/0853 RAB00E10B45 SLP895 P0000 60000 T01280022 53007=
202110250753 METAR KPAE 250753Z AUTO 15016G25KT 10SM SCT060 BKN080 OVC110 13/02 A2921 RMK AO2 PK WND 17026/0738 SLP890 T01280022 401330094=
202110250653 METAR KPAE 250653Z AUTO 15015G25KT 10SM BKN060 OVC075 13/03 A2921 RMK AO2 PK WND 15027/0610 RAB14E52 SLP891 P0000 T01280028=
202110250553 METAR KPAE 250553Z AUTO 15011G25KT 10SM BKN075 OVC095 12/03 A2920 RMK AO2 RAB25E40 SLP888 P0000 60000 T01220033 10122 20106 53018=
202110250453 METAR KPAE 250453Z AUTO 15012KT 10SM BKN075 12/04 A2918 RMK AO2 SLP881 T01170039=
202110250353 METAR KPAE 250353Z VRB06KT 10SM OVC080 11/06 A2916 RMK AO2 SLP875 T01060056=
202110250253 METAR KPAE 250253Z VRB05KT 10SM SCT060 BKN075 OVC100 11/06 A2915 RMK AO2 SLP869 T01110056 52010=
202110250153 METAR KPAE 250153Z 11007KT 10SM OVC085 11/06 A2913 RMK AO2 SLP863 T01060061=
202110250053 METAR KPAE 250053Z 10SM SCT080 11/06 A2913 RMK AO2 SLP865 T01110061=
202110242353 METAR KPAE 242353Z 14010G19KT 10SM CLR 11/06 A2912 RMK AO2 PK WND 17040/2300 SLP859 60031 T01110061 10122 20100 51012=
202110242253 METAR KPAE 242253Z 17018G35KT 10SM SCT075 BKN100 11/05 A2910 RMK AO2 PK WND 17053/2218 RAE37 SLP854 P0009 T01060050=
202110242153 METAR KPAE 242153Z 19025G36KT 3SM -RA FEW019 BKN050 OVC060 11/08 A2912 RMK AO2 PK WND 15036/2149 PRESRR SLP861 P0010 T01060078=
202110242131 SPECI KPAE 242131Z 19013G22KT 4SM -RA BR OVC055 11/08 A2908 RMK AO2 PK WND 22036/2055 P0007 T01060083=
202110242120 SPECI KPAE 242120Z 19016G27KT 2 1/2SM -RA OVC050 11/08 A2908 RMK AO2 PK WND 22036/2055 P0007 T01060078=
202110242053 METAR KPAE 242053Z 20022G32KT 3SM RA FEW039 BKN049 OVC055 12/08 A2908 RMK AO2 PK WND 18032/2048 RAB25 PRESRR SLP847 P0006 60012 T01170083 55002=
202110241953 METAR KPAE 241953Z 14009G21KT 10SM OVC065 12/08 A2902 RMK AO2 RAE33 SLP827 P0000 T01220083=
202110241853 METAR KPAE 241853Z 11011G20KT 10SM -RA OVC060 11/08 A2905 RMK AO2 SLP836 P0006 T01110083=
202110241753 METAR KPAE 241753Z 16007KT 6SM -RA OVC051 11/08 A2909 RMK AO2 SLP849 P0010 60013 T01110083 10133 20106 55001=
202110241653 METAR KPAE 241653Z 14008KT 9SM -RA BKN065 OVC080 13/07 A2906 RMK AO2 SLP839 P0001 T01280067=
202110241553 METAR KPAE 241553Z 15009G16KT 9SM -RA OVC060 13/06 A2907 RMK AO2 RAB15 SLP842 P0001 T01280061=
202110241453 METAR KPAE 241453Z 12003KT 10SM FEW060 FEW075 OVC110 12/05 A2909 RMK AO2 SLP849 60001 T01220050 56066=
202110241353 METAR KPAE 241353Z 10009KT 10SM FEW055 SCT070 OVC090 12/05 A2914 RMK AO2 RAE02B35E46 SLP866 P0000 T01220050=
202110241253 METAR KPAE 241253Z AUTO 09011G18KT 10SM -RA FEW060 BKN080 OVC100 11/07 A2920 RMK AO2 PRESFR SLP888 P0001 T01110067=
202110241153 METAR KPAE 241153Z AUTO VRB03KT 10SM -RA OVC060 11/06 A2929 RMK AO2 PRESFR SLP917 P0001 60001 70001 T01060061 10122 20094 56042=
202110241053 METAR KPAE 241053Z AUTO 10011G19KT 10SM -RA FEW055 BKN070 OVC100 12/06 A2931 RMK AO2 RAB37 SLP924 P0000 T01170056=
202110240953 METAR KPAE 240953Z AUTO 10013G23KT 10SM CLR 11/06 A2936 RMK AO2 SLP942 T01060056=
202110240853 METAR KPAE 240853Z AUTO 11012G21KT 10SM SCT090 10/06 A2941 RMK AO2 SLP960 60000 T01000061 58040=
202110240753 METAR KPAE 240753Z AUTO 12007KT 10SM BKN085 09/08 A2946 RMK AO2 SLP977 T00940078 401220089=
202110240653 METAR KPAE 240653Z AUTO 11007KT 10SM BKN055 OVC080 09/08 A2951 RMK AO2 RAE0558 SLP992 P0000 T00940083=
202110240553 METAR KPAE 240553Z AUTO 11008KT 10SM -RA OVC065 09/09 A2953 RMK AO2 RAB49 SLP000 P0000 60000 T00940089 10117 20094 58028=
202110240453 METAR KPAE 240453Z AUTO 12004KT 10SM OVC075 10/09 A2957 RMK AO2 SLP013 T01000089=
202110240440 SPECI KPAE 240440Z AUTO 15005KT 10SM FEW004 OVC070 10/09 A2958 RMK AO2 T01000094=
202110240422 SPECI KPAE 240422Z AUTO VRB03KT 10SM FEW026 BKN075 11/09 A2958 RMK AO2 T01060094=
202110240402 SPECI KPAE 240402Z AUTO 14004KT 10SM FEW018 BKN028 OVC049 11/09 A2959 RMK AO2 T01060094=
202110240353 METAR KPAE 240353Z VRB05KT 10SM FEW017 SCT025 OVC060 11/09 A2960 RMK AO2 RAE10B26E43 SLP023 P0000 T01060094=
202110240253 METAR KPAE 240253Z 14005KT 10SM -RA BKN060 11/09 A2962 RMK AO2 RAB46 SLP030 P0000 60000 T01060094 58007=
202110240153 METAR KPAE 240153Z 15009KT 10SM BKN047 12/09 A2963 RMK AO2 RAB22E31 SLP034 P0000 T01170089=
202110240111 SPECI KPAE 240111Z 15010KT 10SM SCT019 OVC044 12/09 A2964 RMK AO2 T01170089=
202110240053 METAR KPAE 240053Z 16009KT 10SM BKN019 OVC043 12/09 A2964 RMK AO2 SLP038 T01170089=
202110232353 METAR KPAE 232353Z 15009KT 10SM BKN024 BKN031 OVC043 12/08 A2964 RMK AO2 SLP036 60000 T01170083 10122 20111 56007=
202110232300 SPECI KPAE 232300Z 15007KT 10SM OVC025 12/08 A2964 RMK AO2 T01170078=
202110232253 METAR KPAE 232253Z 15008G14KT 10SM SCT017 BKN030 12/08 A2964 RMK AO2 RAB2157E30 SLP039 P0000 T01170078=
202110232153 METAR KPAE 232153Z 15008KT 10SM SCT017 BKN030 12/08 A2965 RMK AO2 RAB05E19 SLP040 P0000 T01170078=
202110232053 METAR KPAE 232053Z 16008KT 10SM SCT018 OVC030 11/08 A2966 RMK AO2 RAB19E32 SLP043 P0000 60000 T01110078 58003=
202110232029 SPECI KPAE 232029Z 17013G19KT 10SM -RA BKN015 OVC065 11/08 A2966 RMK AO2 RAB19 P0000 T01110078=
202110231953 METAR KPAE 231953Z 16011KT 10SM OVC035 12/07 A2967 RMK AO2 SLP047 T01170067=
202110231853 METAR KPAE 231853Z 15011KT 10SM OVC037 12/07 A2967 RMK AO2 RAB28E42 SLP046 P0000 T01170067=
202110231753 METAR KPAE 231753Z 14008G18KT 10SM SCT036 OVC046 11/07 A2967 RMK AO2 SLP046 60000 T01110067 10111 20089 56005=
202110231653 METAR KPAE 231653Z 15009KT 10SM OVC037 11/06 A2968 RMK AO2 SLP049 T01110061=
202110231553 METAR KPAE 231553Z 11006KT 10SM OVC046 10/07 A2967 RMK AO2 RAE1459 SLP047 P0000 T01000067=
202110231453 METAR KPAE 231453Z VRB06KT 10SM -RA BKN065 OVC080 09/07 A2968 RMK AO2 RAB48 SLP052 P0000 60000 T00940067 56009=
202110231353 METAR KPAE 231353Z 11009G15KT 10SM FEW046 OVC100 09/07 A2968 RMK AO2 SLP052 T00940067=
202110231253 METAR KPAE 231253Z AUTO VRB04KT 10SM OVC055 10/07 A2970 RMK AO2 SLP057 T01000067=
202110231153 METAR KPAE 231153Z AUTO 11007KT 10SM BKN041 OVC048 09/07 A2971 RMK AO2 RAB1056E10 SLP061 P0000 60000 70004 T00940067 10100 20094 58010=
202110231053 METAR KPAE 231053Z AUTO VRB04KT 10SM BKN043 OVC055 10/06 A2972 RMK AO2 SLP066 T01000061=
202110230953 METAR KPAE 230953Z AUTO VRB05KT 10SM FEW047 BKN070 OVC080 10/07 A2973 RMK AO2 SLP069 T01000067=
202110230853 METAR KPAE 230853Z AUTO 15007KT 10SM BKN041 BKN050 BKN060 10/07 A2974 RMK AO2 SLP071 T01000072 56011=
202110230753 METAR KPAE 230753Z AUTO VRB06KT 10SM FEW047 SCT055 10/08 A2975 RMK AO2 SLP075 T01000078 401280094=
202110230653 METAR KPAE 230653Z AUTO 15010KT 10SM CLR 10/08 A2976 RMK AO2 SLP078 T01000078=
202110230553 METAR KPAE 230553Z AUTO 15010KT 10SM SCT041 10/08 A2977 RMK AO2 SLP082 T01000083 10122 20100 50000=
202110230453 METAR KPAE 230453Z 16009KT 10SM CLR 10/08 A2978 RMK AO2 SLP084 T01000083=
202110230353 METAR KPAE 230353Z 18013KT 10SM CLR 11/08 A2977 RMK AO2 SLP083 T01060078=
202110230253 METAR KPAE 230253Z 17009KT 10SM SCT012 11/08 A2977 RMK AO2 SLP082 T01060083 53007=
202110230153 METAR KPAE 230153Z 18011KT 10SM SCT060 11/08 A2976 RMK AO2 SLP079 T01060083=
202110230135 SPECI KPAE 230135Z 18011KT 10SM FEW017 BKN055 11/09 A2976 RMK AO2 T01110089=
202110230053 METAR KPAE 230053Z 18013KT 10SM BKN017 OVC070 12/09 A2975 RMK AO2 SLP074 T01170094=
202110222353 METAR KPAE 222353Z 18010KT 10SM BKN014 BKN070 OVC085 12/10 A2975 RMK AO2 RAB03E47 SLP075 P0001 60001 T01220100 10128 20117 55001=
202110222253 METAR KPAE 222253Z AUTO 20012KT 10SM BKN014 BKN070 OVC085 12/09 A2974 RMK AO2 RAB32E51 SLP073 P0000 T01220094=
202110222228 SPECI KPAE 222228Z 19012KT 10SM BKN014 BKN075 OVC090 13/10 A2974 RMK AO2 T01280100=
202110222215 SPECI KPAE 222215Z 19009G18KT 10SM FEW014 BKN019 OVC090 12/09 A2974 RMK AO2 T01220094=
202110222156 SPECI KPAE 222156Z 19013KT 10SM BKN014 BKN022 OVC080 13/10 A2975 RMK AO2 T01280100=
202110222153 METAR KPAE 222153Z 18011KT 10SM FEW004 SCT010 13/10 A2975 RMK AO2 SLP073 T01280100=
202110222138 SPECI KPAE 222138Z 18008KT 10SM FEW004 SCT010 13/10 A2974 RMK AO2 T01280100=
202110222053 METAR KPAE 222053Z 16009KT 10SM FEW004 SCT010 BKN029 12/10 A2975 RMK AO2 RAB18E29 SLP075 P0000 60000 T01220100 58009=
202110221956 SPECI KPAE 221956Z 19013KT 10SM SCT010 BKN029 OVC041 12/09 A2977 RMK AO2 T01220094=
202110221953 METAR KPAE 221953Z 18012KT 10SM BKN012 BKN021 OVC029 12/09 A2977 RMK AO2 RAB16E32 SLP082 P0000 T01220094=
202110221924 SPECI KPAE 221924Z 18011KT 8SM -RA BKN012 BKN021 OVC029 12/10 A2978 RMK AO2 RAB16 P0000 T01170100=
202110221853 METAR KPAE 221853Z 16010KT 10SM SCT008 BKN021 OVC030 12/10 A2978 RMK AO2 RAE03 SLP085 P0000 T01220100=
202110221753 METAR KPAE 221753Z 16008KT 10SM -RA FEW020 BKN070 12/10 A2978 RMK AO2 SLP085 P0001 60003 T01170100 10117 20111 58001=
202110221653 METAR KPAE 221653Z 18010KT 6SM -RA BR BKN046 OVC060 11/10 A2979 RMK AO2 SLP087 P0002 T01110100=
202110221553 METAR KPAE 221553Z 16009KT 10SM -RA FEW033 OVC055 11/10 A2979 RMK AO2 RAB41 SLP089 P0000 T01110100=
202110221453 METAR KPAE 221453Z 17008KT 10SM FEW009 BKN046 OVC100 11/10 A2978 RMK AO2 SLP085 T01110100 51006=
202110221353 METAR KPAE 221353Z 18013KT 10SM FEW011 FEW060 SCT120 11/10 A2977 RMK AO2 SLP081 T01110100=
202110221314 SPECI KPAE 221314Z AUTO 17010G21KT 10SM SCT015 OVC050 12/10 A2978 RMK AO2 T01170100 $=
202110221253 METAR KPAE 221253Z AUTO 16011KT 10SM BKN015 OVC050 12/10 A2978 RMK AO2 SLP082 T01170100 $=
202110221244 SPECI KPAE 221244Z AUTO 16008KT 10SM BKN015 OVC055 12/10 A2978 RMK AO2 T01170100 $=
202110221153 METAR KPAE 221153Z AUTO 15010G15KT 10SM CLR 12/10 A2976 RMK AO2 SLP077 60016 70043 T01170100 10122 20111 56006 $=
202110221053 METAR KPAE 221053Z AUTO 15007KT 10SM CLR 12/11 A2977 RMK AO2 SLP080 T01170106 $=
202110220953 METAR KPAE 220953Z AUTO 15009KT 10SM BKN049 12/11 A2977 RMK AO2 RAE22 SLP078 P0001 T01170106 $=
202110220853 METAR KPAE 220853Z AUTO 16015G23KT 8SM -RA FEW009 BKN055 OVC070 12/11 A2978 RMK AO2 SLP083 P0005 60015 T01170111 56007 $=
202110220825 SPECI KPAE 220825Z AUTO 14008G16KT 8SM -RA SCT013 BKN019 OVC047 12/11 A2978 RMK AO2 P0003 T01220111 $=
202110220753 METAR KPAE 220753Z AUTO VRB04KT 5SM RA BR FEW036 BKN055 OVC070 12/11 A2979 RMK AO2 SLP085 P0004 T01170111 402060100 $=
202110220712 SPECI KPAE 220712Z AUTO 16011KT 9SM -RA SCT009 BKN060 OVC070 12/11 A2980 RMK AO2 P0001 T01220111 $=
202110220653 METAR KPAE 220653Z AUTO 14011KT 8SM -RA FEW018 BKN055 OVC070 12/11 A2980 RMK AO2 SLP090 P0006 T01220111 $=
202110220632 SPECI KPAE 220632Z AUTO 15010KT 6SM -RA BR FEW007 SCT015 OVC060 12/11 A2981 RMK AO2 P0005 T01220111 $=
202110220624 SPECI KPAE 220624Z AUTO 15010G18KT 4SM -RA BR SCT012 BKN019 OVC055 12/11 A2981 RMK AO2 P0004 T01220111 $=
202110220553 METAR KPAE 220553Z AUTO 15012G18KT 4SM -RA BR FEW014 BKN060 OVC070 12/11 A2981 RMK AO2 SLP094 P0008 60027 T01220111 10194 20122 51015 $=
202110220453 METAR KPAE 220453Z AUTO 15011G20KT 10SM -RA OVC070 12/11 A2979 RMK AO2 PK WND 18027/0354 SLP089 P0009 T01220111 $=
202110220353 METAR KPAE 220353Z AUTO 20018G26KT 5SM RA BR FEW044 OVC070 12/11 A2981 RMK AO2 PK WND 21028/0314 SLP093 P0009 T01220111 $=
202110220253 METAR KPAE 220253Z 20015G23KT 10SM -RA BKN075 OVC090 13/10 A2977 RMK AO2 PK WND 19029/0206 RAB0159 SLP079 P0001 60001 T01280100 53030 $=
202110220153 METAR KPAE 220153Z 20015KT 10SM BKN070 OVC085 15/09 A2975 RMK AO2 WSHFT 0051 SLP075 T01500089 $=
202110220108 SPECI KPAE 220108Z 23013G23KT 10SM BKN075 17/07 A2971 RMK AO2 WSHFT 0051 PRESRR T01720067 $=
202110220053 METAR KPAE 220053Z 17015G23KT 10SM OVC075 19/05 A2968 RMK AO2 RAE08 SLP050 P0000 T01940050 $=
202110212353 METAR KPAE 212353Z 13008G17KT 090V160 10SM -RA BKN075 OVC100 19/04 A2967 RMK AO2 RAB53 SLP047 P0000 60000 T01940044 10206 20167 56031 $=
202110212253 METAR KPAE 212253Z 13009G22KT 090V160 10SM FEW035 SCT085 BKN100 20/04 A2968 RMK AO2 SLP048 T02000044 $=
202110212153 METAR KPAE 212153Z 13009G26KT 100V160 10SM OVC095 20/04 A2973 RMK AO2 PK WND 15029/2120 SLP066 T02000039 $=
202110212053 METAR KPAE 212053Z 12009KT 10SM CLR 20/06 A2977 RMK AO2 SLP079 T02000056 57019 $=
202110211953 METAR KPAE 211953Z 11011G19KT 10SM OVC080 19/06 A2978 RMK AO2 SLP083 T01890056 $=
202110211853 METAR KPAE 211853Z 11010KT 10SM OVC080 17/06 A2981 RMK AO2 SLP095 T01720056=
202110211753 METAR KPAE 211753Z 12008G18KT 10SM SCT075 BKN120 17/05 A2983 RMK AO2 SLP099 T01670050 10167 20106 58017=
202110211653 METAR KPAE 211653Z 11010KT 10SM SCT120 16/04 A2985 RMK AO2 SLP107 T01560044=
202110211553 METAR KPAE 211553Z 11011G20KT 10SM CLR 14/04 A2987 RMK AO2 SLP113 T01440044=
202110211453 METAR KPAE 211453Z 11008KT 10SM CLR 13/04 A2987 RMK AO2 SLP117 T01280039 58003=
202110211353 METAR KPAE 211353Z 11009KT 10SM CLR 12/04 A2989 RMK AO2 SLP122 T01220039=
202110211253 METAR KPAE 211253Z AUTO 13004KT 10SM CLR 11/04 A2990 RMK AO2 SLP125 T01110044=
202110211153 METAR KPAE 211153Z AUTO 12009KT 10SM FEW060 11/05 A2988 RMK AO2 SLP120 70017 T01060050 10111 20100 58022=
202110211053 METAR KPAE 211053Z AUTO 11009G17KT 10SM CLR 10/06 A2991 RMK AO2 SLP127 T01000056=
202110210953 METAR KPAE 210953Z AUTO 12008KT 10SM CLR 11/06 A2993 RMK AO2 SLP136 T01060061=
202110210853 METAR KPAE 210853Z AUTO 10012KT 10SM FEW060 10/07 A2995 RMK AO2 PK WND 08029/0818 SLP142 T01000067 58016=
202110210753 METAR KPAE 210753Z AUTO 11009KT 10SM CLR 11/07 A2997 RMK AO2 SLP150 T01060067 401560094=
202110210653 METAR KPAE 210653Z AUTO 10008KT 10SM SCT065 OVC080 11/07 A2998 RMK AO2 SLP154 T01060072=
202110210553 METAR KPAE 210553Z AUTO VRB06KT 10SM SCT070 OVC100 11/07 A3000 RMK AO2 SLP159 T01110067 10133 20106 50001=
202110210453 METAR KPAE 210453Z AUTO VRB03KT 10SM SCT060 BKN090 OVC100 12/06 A3001 RMK AO2 SLP162 T01170061=
202110210353 METAR KPAE 210353Z 11007KT 10SM CLR 11/07 A2999 RMK AO2 SLP157 T01060067=
202110210253 METAR KPAE 210253Z VRB04KT 10SM FEW120 12/07 A2999 RMK AO2 SLP157 T01170067 53011=
202110210153 METAR KPAE 210153Z VRB04KT 10SM SCT050 SCT055 13/07 A2998 RMK AO2 SLP152 T01280067=
202110210053 METAR KPAE 210053Z 18011KT 10SM FEW070 13/06 A2997 RMK AO2 SLP150 T01280061=
202110202353 METAR KPAE 202353Z 19015G22KT 10SM FEW090 13/06 A2996 RMK AO2 SLP145 T01330061 10156 20117 51017=
202110202253 METAR KPAE 202253Z AUTO 18018G28KT 10SM FEW038 SCT060 14/07 A2995 RMK AO2 PK WND 20029/2200 SLP142 T01390067=
202110202153 METAR KPAE 202153Z 19015G24KT 10SM SCT037 BKN049 OVC060 14/07 A2993 RMK AO2 SLP135 T01440072=
202110202053 METAR KPAE 202053Z 18014G29KT 10SM SCT046 OVC060 13/08 A2991 RMK AO2 PK WND 19030/2034 SLP128 T01330078 51033=
202110201953 METAR KPAE 201953Z 17013G25KT 10SM FEW024 BKN045 OVC080 14/09 A2988 RMK AO2 PK WND 17030/1942 SLP120 T01390094=
202110201853 METAR KPAE 201853Z 16017G23KT 10SM SCT014 BKN037 OVC055 12/09 A2986 RMK AO2 PK WND 15027/1833 SLP110 T01220094=
202110201753 METAR KPAE 201753Z 17016G26KT 10SM SCT016 BKN034 OVC047 12/09 A2981 RMK AO2 PK WND 18026/1730 RAE28 SLP095 P0001 60017 T01170094 10122 20106 53033=
202110201653 METAR KPAE 201653Z 16014G23KT 10SM -RA SCT047 BKN055 OVC070 12/09 A2978 RMK AO2 SLP084 P0000 T01170094=
202110201553 METAR KPAE 201553Z 15012KT 6SM -RA BR SCT055 OVC070 11/09 A2974 RMK AO2 SLP071 P0002 T01110094=
202110201453 METAR KPAE 201453Z 15007KT 5SM -RA BR FEW032 SCT047 OVC055 11/09 A2971 RMK AO2 SLP062 P0008 60014 T01060089 53023=
202110201353 METAR KPAE 201353Z 12007KT 6SM -RA BR OVC055 11/09 A2967 RMK AO2 SLP048 P0006 T01060089=
202110201253 METAR KPAE 201253Z AUTO 16009KT 10SM -RA OVC070 11/08 A2966 RMK AO2 RAB1155 SLP043 P0000 T01110083=
202110201153 METAR KPAE 201153Z AUTO 21012G21KT 10SM BKN070 BKN085 OVC110 12/08 A2964 RMK AO2 RAB21E50 SLP037 P0001 60001 70001 T01220078 10139 20094 53016=
202110201053 METAR KPAE 201053Z AUTO 20015G21KT 10SM BKN070 OVC095 13/06 A2962 RMK AO2 SLP030 T01330061=
202110200953 METAR KPAE 200953Z AUTO 16005KT 10SM CLR 11/08 A2960 RMK AO2 SLP023 T01060083=
202110200853 METAR KPAE 200853Z AUTO 25005KT 10SM CLR 10/07 A2960 RMK AO2 SLP022 T01000072 56015=
202110200753 METAR KPAE 200753Z AUTO 00000KT 10SM CLR 11/07 A2960 RMK AO2 SLP024 T01060072 401560061=
202110200653 METAR KPAE 200653Z AUTO 06003KT 10SM CLR 11/07 A2962 RMK AO2 SLP031 T01110072=
202110200553 METAR KPAE 200553Z AUTO 00000KT 10SM CLR 11/07 A2964 RMK AO2 SLP037 T01060072 10144 20100 58017=
202110200453 METAR KPAE 200453Z AUTO 00000KT 10SM CLR 12/06 A2966 RMK AO2 SLP044 T01170056=
202110200353 METAR KPAE 200353Z 00000KT 10SM CLR 13/05 A2968 RMK AO2 SLP051 T01280050=
202110200253 METAR KPAE 200253Z 10006KT 10SM CLR 13/06 A2969 RMK AO2 SLP055 T01280056 56015=
202110200153 METAR KPAE 200153Z 00000KT 10SM CLR 13/06 A2971 RMK AO2 SLP060 T01330061=
202110200053 METAR KPAE 200053Z VRB03KT 10SM CLR 14/06 A2972 RMK AO2 SLP064 T01390061=
202110192353 METAR KPAE 192353Z 10007KT 10SM CLR 14/07 A2974 RMK AO2 SLP070 T01440067 10156 20111 58026=
202110192253 METAR KPAE 192253Z VRB04KT 10SM CLR 15/06 A2978 RMK AO2 SLP083 T01500056=
202110192153 METAR KPAE 192153Z 16006KT 10SM CLR 15/05 A2980 RMK AO2 SLP093 T01500050=
202110192053 METAR KPAE 192053Z 17006KT 10SM CLR 14/06 A2982 RMK AO2 SLP097 T01440056 56020=
202110191953 METAR KPAE 191953Z 16006KT 10SM CLR 14/06 A2983 RMK AO2 SLP102 T01440061=
202110191853 METAR KPAE 191853Z 16006KT 10SM CLR 13/06 A2985 RMK AO2 SLP109 T01280056=
202110191753 METAR KPAE 191753Z 15007KT 10SM CLR 12/07 A2987 RMK AO2 SLP117 T01170067 10117 20061 58008=
202110191653 METAR KPAE 191653Z VRB03KT 10SM CLR 10/07 A2989 RMK AO2 SLP122 T01000072=
202110191553 METAR KPAE 191553Z VRB03KT 9SM CLR 09/08 A2990 RMK AO2 SLP126 T00940078=
202110191453 METAR KPAE 191453Z VRB03KT 7SM CLR 08/07 A2990 RMK AO2 SLP127 T00830072 55007=
202110191353 METAR KPAE 191353Z VRB03KT 10SM CLR 08/07 A2990 RMK AO2 SLP126 T00780067=
202110191253 METAR KPAE 191253Z AUTO 19003KT 10SM CLR 06/06 A2991 RMK AO2 SLP132 T00610056=
202110191153 METAR KPAE 191153Z AUTO 15005KT 10SM CLR 08/07 A2992 RMK AO2 SLP134 T00830067 10106 20072 56017=
202110191053 METAR KPAE 191053Z AUTO 11004KT 10SM FEW037 08/06 A2993 RMK AO2 SLP138 T00830061=
202110190953 METAR KPAE 190953Z AUTO 00000KT 10SM BKN038 09/06 A2995 RMK AO2 SLP143 T00890061=
202110190853 METAR KPAE 190853Z AUTO 11003KT 10SM OVC037 09/06 A2997 RMK AO2 SLP150 T00940061 58006=
202110190753 METAR KPAE 190753Z AUTO 00000KT 10SM OVC037 09/07 A2998 RMK AO2 SLP153 T00940067 401220083=
202110190653 METAR KPAE 190653Z AUTO 25006KT 10SM OVC038 10/07 A2999 RMK AO2 SLP155 T01000067=
202110190553 METAR KPAE 190553Z AUTO 00000KT 10SM OVC039 11/06 A2999 RMK AO2 SLP156 T01060061 10111 20100 56004=
202110190453 METAR KPAE 190453Z AUTO 12004KT 10SM OVC042 11/06 A3000 RMK AO2 SLP159 T01060061=
202110190353 METAR KPAE 190353Z 11005KT 10SM OVC045 11/06 A3000 RMK AO2 SLP159 T01060061=
202110190253 METAR KPAE 190253Z 00000KT 10SM OVC055 10/07 A3000 RMK AO2 SLP161 T01000067 58000=
202110190153 METAR KPAE 190153Z 00000KT 10SM BKN030 10/07 A3001 RMK AO2 SLP162 T01000067=
202110190053 METAR KPAE 190053Z 34003KT 10SM BKN035 11/07 A3001 RMK AO2 SLP162 T01060067=
202110182353 METAR KPAE 182353Z 34003KT 10SM BKN034 OVC050 11/06 A3000 RMK AO2 SLP162 T01110056 10122 20100 58000=
202110182253 METAR KPAE 182253Z 33003KT 10SM OVC050 12/06 A3001 RMK AO2 SLP162 T01170061=
202110182153 METAR KPAE 182153Z 35004KT 10SM OVC055 12/06 A3000 RMK AO2 SLP161 T01170056=
202110182053 METAR KPAE 182053Z 35004KT 10SM OVC055 12/06 A3000 RMK AO2 SLP161 T01170056 53001=
202110181953 METAR KPAE 181953Z VRB04KT 10SM FEW010 12/05 A3000 RMK AO2 SLP160 T01170050=
202110181853 METAR KPAE 181853Z 33004KT 10SM CLR 11/05 A3000 RMK AO2 SLP161 T01110050=
202110181753 METAR KPAE 181753Z 02004KT 10SM FEW010 11/06 A3000 RMK AO2 SLP161 T01060056 10106 20083 53005=
202110181703 SPECI KPAE 181703Z 35003KT 10SM SCT009 09/06 A3000 RMK AO2 T00890061=
202110181653 METAR KPAE 181653Z 36004KT 10SM FEW011 09/06 A3000 RMK AO2 SLP160 T00890061=
202110181615 SPECI KPAE 181615Z 36003KT 10SM FEW009 SCT016 BKN060 08/07 A2999 RMK AO2 T00830067=
202110181604 SPECI KPAE 181604Z 36003KT 10SM SCT009 BKN015 OVC060 09/07 A2999 RMK AO2 T00890067=
202110181556 SPECI KPAE 181556Z 00000KT 10SM BKN009 OVC015 09/07 A2999 RMK AO2 CIG 008V013 T00890072=
202110181553 METAR KPAE 181553Z 34003KT 10SM SCT010 OVC015 09/07 A2999 RMK AO2 SLP156 T00890072=
202110181551 SPECI KPAE 181551Z 00000KT 10SM SCT010 OVC015 09/07 A2999 RMK AO2=
202110181514 SPECI KPAE 181514Z 00000KT 10SM BKN013 OVC017 08/07 A2998 RMK AO2 T00830067=
202110181453 METAR KPAE 181453Z 34004KT 10SM FEW010 OVC015 08/07 A2997 RMK AO2 SLP151 T00830067 51020=
202110181353 METAR KPAE 181353Z 31004KT 10SM OVC011 08/07 A2995 RMK AO2 SLP142 T00830072=
202110181326 SPECI KPAE 181326Z AUTO 32004KT 10SM OVC010 08/07 A2993 RMK AO2 CIG 005V013 T00830072=
202110181253 METAR KPAE 181253Z AUTO 33003KT 10SM OVC008 08/07 A2991 RMK AO2 CIG 005V010 SLP131 T00830072=
202110181153 METAR KPAE 181153Z AUTO 32003KT 10SM OVC006 08/08 A2989 RMK AO2 CIG 005V009 SLP125 60000 70003 T00830078 10089 20083 53010=
202110181140 SPECI KPAE 181140Z AUTO 34004KT 10SM OVC006 09/08 A2989 RMK AO2 CIG 003V009 T00890078=
202110181127 SPECI KPAE 181127Z AUTO VRB05KT 10SM OVC004 09/08 A2989 RMK AO2 CIG 003V007 T00890078=
202110181053 METAR KPAE 181053Z AUTO 02003KT 10SM BKN005 OVC011 09/08 A2987 RMK AO2 CIG 004V007 SLP117 T00890078=
202110181007 SPECI KPAE 181007Z AUTO 35003KT 10SM FEW003 BKN009 OVC060 08/08 A2987 RMK AO2 T00830078=
202110181003 SPECI KPAE 181003Z AUTO 34003KT 10SM FEW003 SCT010 OVC060 08/08 A2987 RMK AO2 T00830078=
202110180953 METAR KPAE 180953Z AUTO 00000KT 10SM BKN060 09/08 A2987 RMK AO2 SLP115 T00890078=
202110180939 SPECI KPAE 180939Z AUTO 02004KT 10SM SCT007 OVC060 09/08 A2986 RMK AO2 T00890078=
202110180853 METAR KPAE 180853Z AUTO 34003KT 10SM BKN007 OVC012 09/08 A2986 RMK AO2 CIG 004V008 SLP114 60000 T00890078 51013=
202110180842 SPECI KPAE 180842Z AUTO 36003KT 10SM FEW006 BKN010 OVC060 09/08 A2986 RMK AO2 T00890078=
202110180753 METAR KPAE 180753Z AUTO 32003KT 10SM BKN009 OVC038 09/07 A2985 RMK AO2 RAB14E23 SLP111 P0000 T00890072 401390083=
202110180744 SPECI KPAE 180744Z AUTO 34003KT 10SM SCT009 OVC038 09/07 A2985 RMK AO2 RAB14E23 P0000 T00890072=
202110180653 METAR KPAE 180653Z AUTO 31004KT 10SM OVC039 09/07 A2984 RMK AO2 SLP106 T00890072=
202110180553 METAR KPAE 180553Z AUTO 33003KT 10SM SCT030 OVC034 09/08 A2982 RMK AO2 SLP100 60003 T00890078 10094 20083 53011=
202110180542 SPECI KPAE 180542Z AUTO 34004KT 10SM OVC032 09/08 A2982 RMK AO2 T00890078=
202110180453 METAR KPAE 180453Z AUTO 35004KT 10SM OVC028 09/08 A2981 RMK AO2 RAB00E10 SLP095 P0000 T00890078=
202110180353 METAR KPAE 180353Z 33005KT 10SM OVC027 09/08 A2980 RMK AO2 RAE48 SLP091 P0001 T00890078=
202110180253 METAR KPAE 180253Z 33005KT 10SM -RA OVC024 09/08 A2979 RMK AO2 RAB19 SLP088 P0002 60002 T00890078 53022=
202110180153 METAR KPAE 180153Z 34005KT 10SM FEW007 OVC020 09/08 A2976 RMK AO2 SLP076 T00890078=
202110180053 METAR KPAE 180053Z 34005KT 10SM FEW009 OVC018 09/07 A2974 RMK AO2 SLP072 T00940072=
202110180033 SPECI KPAE 180033Z 34008G15KT 10SM FEW009 OVC018 09/07 A2974 RMK AO2 T00940072=
202110180000 SPECI KPAE 180000Z 35006KT 10SM OVC017 09/07 A2972 RMK AO2 T00940072=
202110172353 METAR KPAE 172353Z 34008KT 10SM SCT008 OVC011 09/07 A2972 RMK AO2 SLP066 T00940072 10128 20094 51011=
202110172253 METAR KPAE 172253Z 35006KT 10SM SCT008 OVC011 10/08 A2972 RMK AO2 SLP063 T01000083=
202110172214 SPECI KPAE 172214Z 35006KT 10SM OVC007 11/08 A2971 RMK AO2 T01060083=
202110172200 SPECI KPAE 172200Z 34004KT 10SM SCT010 OVC015 11/08 A2970 RMK AO2 T01060083=
202110172153 METAR KPAE 172153Z 35007KT 10SM OVC009 11/08 A2970 RMK AO2 SLP059 T01060083=
202110172053 METAR KPAE 172053Z 34005KT 10SM OVC009 11/09 A2969 RMK AO2 SLP054 T01060089 58002=
202110172033 SPECI KPAE 172033Z 35006KT 10SM OVC008 11/09 A2969 RMK AO2 T01060089=
202110172026 SPECI KPAE 172026Z 35006KT 10SM OVC010 11/09 A2969 RMK AO2 T01060089=
202110171953 METAR KPAE 171953Z 33007KT 10SM OVC008 11/09 A2969 RMK AO2 SLP055 T01110089=
202110171904 SPECI KPAE 171904Z 35007KT 10SM BKN002 OVC010 11/10 A2969 RMK AO2 T01110100=
202110171853 METAR KPAE 171853Z 36005KT 10SM FEW001 BKN005 OVC031 12/11 A2969 RMK AO2 SLP054 T01170106=
202110171839 SPECI KPAE 171839Z 36006KT 10SM FEW001 BKN008 OVC055 12/11 A2969 RMK AO2 T01220106=
202110171813 SPECI KPAE 171813Z 28003KT 10SM FEW001 OVC055 12/10 A2969 RMK AO2 T01220100=
202110171753 METAR KPAE 171753Z 28004KT 10SM SCT045 OVC055 12/10 A2969 RMK AO2 SLP055 T01220100 10128 20117 55002=
202110171653 METAR KPAE 171653Z 14005KT 10SM FEW045 OVC055 13/09 A2969 RMK AO2 SLP054 T01280089=
202110171553 METAR KPAE 171553Z 15006KT 10SM OVC050 12/08 A2970 RMK AO2 SLP056 T01220083=
202110171453 METAR KPAE 171453Z 14005KT 10SM FEW047 BKN055 13/08 A2970 RMK AO2 SLP057 T01280083 56007=
202110171353 METAR KPAE 171353Z 18006KT 10SM CLR 12/08 A2971 RMK AO2 SLP059 T01170078=
202110171253 METAR KPAE 171253Z AUTO VRB04KT 10SM CLR 13/08 A2971 RMK AO2 SLP060 T01280078=
202110171153 METAR KPAE 171153Z AUTO 14007KT 10SM CLR 13/08 A2972 RMK AO2 SLP064 T01280078 10144 20128 57018=
202110171053 METAR KPAE 171053Z AUTO 14007KT 10SM OVC055 13/08 A2974 RMK AO2 SLP069 T01330078=
202110170953 METAR KPAE 170953Z AUTO 15009KT 10SM OVC047 13/08 A2976 RMK AO2 SLP076 T01330083=
202110170853 METAR KPAE 170853Z AUTO 15010KT 10SM CLR 13/08 A2978 RMK AO2 SLP081 T01330083 56015=
202110170753 METAR KPAE 170753Z AUTO 15008KT 10SM OVC047 14/08 A2979 RMK AO2 SLP085 T01390083 401830111=
202110170653 METAR KPAE 170653Z AUTO 14009KT 10SM FEW050 14/08 A2981 RMK AO2 SLP091 T01440083=
202110170553 METAR KPAE 170553Z AUTO 15009KT 10SM CLR 14/09 A2982 RMK AO2 SLP097 T01440089 10172 20144 58009=
202110170453 METAR KPAE 170453Z AUTO 15010KT 10SM SCT050 14/09 A2983 RMK AO2 SLP102 T01440089=
202110170353 METAR KPAE 170353Z 15010KT 10SM CLR 15/09 A2984 RMK AO2 SLP104 T01500089=
202110170253 METAR KPAE 170253Z 16013KT 10SM CLR 16/09 A2985 RMK AO2 SLP107 T01560094 56008=
202110170153 METAR KPAE 170153Z 15013KT 10SM CLR 16/09 A2985 RMK AO2 SLP108 T01560089=
202110170053 METAR KPAE 170053Z 18012G21KT 10SM CLR 16/09 A2986 RMK AO2 SLP111 T01610089=
202110162353 METAR KPAE 162353Z 17013G20KT 10SM BKN034 17/09 A2987 RMK AO2 SLP114 T01720094 10183 20144 56020=
202110162253 METAR KPAE 162253Z 18017KT 10SM SCT070 18/09 A2989 RMK AO2 SLP121 T01780094=
202110162153 METAR KPAE 162153Z 18015KT 10SM FEW038 SCT065 SCT075 18/09 A2991 RMK AO2 SLP126 T01780094=
202110162053 METAR KPAE 162053Z 17013G26KT 10SM FEW065 BKN080 18/09 A2993 RMK AO2 PK WND 18028/2007 SLP135 T01780089 58018=
202110161953 METAR KPAE 161953Z 18018G24KT 10SM OVC085 17/09 A2996 RMK AO2 SLP146 T01670094=
202110161853 METAR KPAE 161853Z 16014G22KT 10SM SCT030 OVC080 15/08 A2998 RMK AO2 SLP153 T01500083=
202110161753 METAR KPAE 161753Z 16014KT 10SM FEW031 BKN050 OVC075 14/08 A2999 RMK AO2 SLP155 T01440083 10144 20117 56004=
202110161653 METAR KPAE 161653Z 15013G22KT 10SM BKN031 OVC075 14/08 A2999 RMK AO2 SLP155 T01390078=
202110161553 METAR KPAE 161553Z 15013KT 10SM BKN030 OVC036 13/08 A3000 RMK AO2 SLP157 T01330078=
202110161455 SPECI KPAE 161455Z 15014KT 10SM SCT028 BKN036 OVC075 13/08 A3000 RMK AO2 T01280078=
202110161453 METAR KPAE 161453Z 15012G21KT 10SM OVC028 13/08 A3000 RMK AO2 SLP160 T01280078 58014=
202110161353 METAR KPAE 161353Z 15012G19KT 10SM OVC028 12/08 A3002 RMK AO2 SLP166 T01220083=
202110161331 SPECI KPAE 161331Z AUTO 14011G21KT 10SM OVC029 12/08 A3002 RMK AO2 T01220078=
202110161253 METAR KPAE 161253Z AUTO 15011G17KT 10SM OVC034 12/08 A3003 RMK AO2 SLP170 T01220083=
202110161153 METAR KPAE 161153Z AUTO VRB05KT 10SM OVC039 12/08 A3004 RMK AO2 RAE04 SLP174 P0000 60010 70071 T01220083 10122 20111 58014=
202110161053 METAR KPAE 161053Z AUTO 15010KT 10SM -RA SCT038 BKN065 OVC085 12/09 A3006 RMK AO2 RAE00B23 SLP181 P0001 T01170089=
202110160953 METAR KPAE 160953Z AUTO 16012KT 10SM -RA FEW050 OVC100 12/09 A3008 RMK AO2 RAE12B50 SLP187 P0000 T01170089=
202110160853 METAR KPAE 160853Z AUTO 14007KT 110V170 10SM -RA SCT055 SCT075 OVC095 12/09 A3009 RMK AO2 SLP189 P0001 60009 T01170089 58012=
202110160753 METAR KPAE 160753Z AUTO 6SM -RA BR BKN075 OVC090 11/09 A3011 RMK AO2 SLP197 P0004 T01110094 401330106=
202110160653 METAR KPAE 160653Z AUTO 14006KT 9SM -RA OVC090 12/09 A3010 RMK AO2 SLP194 P0004 T01170094=
202110160553 METAR KPAE 160553Z AUTO 15012KT 9SM -RA FEW060 OVC085 12/09 A3012 RMK AO2 SLP201 P0001 60028 T01170094 10133 20117 53006=
202110160453 METAR KPAE 160453Z AUTO 14009G17KT 10SM -RA OVC090 12/09 A3011 RMK AO2 SLP195 P0006 T01170094=
202110160353 METAR KPAE 160353Z 15011KT 8SM -RA OVC080 12/09 A3011 RMK AO2 SLP197 P0004 T01170094=
202110160253 METAR KPAE 160253Z 15011G21KT 7SM -RA OVC085 12/09 A3010 RMK AO2 SLP194 P0007 60017 T01170094 56003=
202110160153 METAR KPAE 160153Z 15012G19KT 10SM -RA SCT055 OVC095 12/09 A3010 RMK AO2 SLP194 P0003 T01220089=
202110160053 METAR KPAE 160053Z 15014KT 6SM -RA OVC090 12/09 A3010 RMK AO2 SLP195 P0007 T01220094=
202110152353 METAR KPAE 152353Z 15012KT 7SM -RA OVC085 12/10 A3011 RMK AO2 SLP198 P0007 60025 T01220100 10128 20111 58007=
202110152253 METAR KPAE 152253Z 15010KT 7SM -RA FEW029 OVC060 12/10 A3012 RMK AO2 SLP201 P0007 T01220100=
202110152153 METAR KPAE 152153Z 14009G19KT 8SM -RA FEW029 SCT060 OVC095 12/09 A3013 RMK AO2 SLP203 P0005 T01220094=
202110152053 METAR KPAE 152053Z 15013KT 8SM -RA FEW060 OVC100 12/09 A3014 RMK AO2 SLP206 P0003 60006 T01220089 58003=
202110151953 METAR KPAE 151953Z 15015G22KT 10SM -RA SCT032 BKN080 OVC100 12/09 A3014 RMK AO2 SLP207 P0002 T01170094=
202110151853 METAR KPAE 151853Z 14011KT 10SM -RA SCT032 BKN080 OVC100 12/09 A3015 RMK AO2 SLP210 P0001 T01170094=
202110151753 METAR KPAE 151753Z 16014G21KT 10SM -RA FEW047 OVC095 11/09 A3014 RMK AO2 SLP209 P0004 60008 T01110094 10111 20106 51006=
202110151653 METAR KPAE 151653Z 16015G22KT 8SM -RA FEW065 OVC080 11/09 A3014 RMK AO2 SLP208 P0002 T01110094=
202110151553 METAR KPAE 151553Z 15013G21KT 10SM -RA SCT035 OVC070 11/09 A3014 RMK AO2 RAB07 SLP207 P0001 T01110094=
202110151526 SPECI KPAE 151526Z 16014KT 10SM -RA FEW007 OVC085 11/09 A3013 RMK AO2 RAB07 P0000 T01060094=
202110151453 METAR KPAE 151453Z 15013KT 10SM BKN009 BKN013 OVC095 11/09 A3013 RMK AO2 RAE51 SLP203 P0000 60001 T01060094 55001=
202110151353 METAR KPAE 151353Z 15012G24KT 10SM -RA BKN009 BKN060 OVC095 11/09 A3012 RMK AO2 RAB32 SLP199 P0001 T01060094=
202110151351 SPECI KPAE 151351Z 15016G24KT 10SM -RA BKN009 BKN060 OVC095 11/09 A3012 RMK AO2 RAB32 P0001=
202110151253 METAR KPAE 151253Z AUTO 15015KT 10SM SCT007 BKN080 OVC090 11/09 A3012 RMK AO2 RAE1157 SLP202 P0000 T01060094=
202110151232 SPECI KPAE 151232Z AUTO 16016G25KT 10SM FEW007 SCT012 OVC090 11/09 A3013 RMK AO2 RAE1157 P0000 T01060094=
202110151153 METAR KPAE 151153Z AUTO 16015G22KT 10SM -RA BKN009 BKN020 OVC100 11/10 A3013 RMK AO2 SLP204 P0000 60002 70003 T01060100 10117 20106 58010=
202110151053 METAR KPAE 151053Z AUTO 16012G18KT 3SM -RA BR BKN007 BKN022 OVC030 11/10 A3015 RMK AO2 SLP209 P0002 T01060100=
202110151047 SPECI KPAE 151047Z AUTO 17010KT 3SM -RA BR BKN007 BKN024 OVC032 11/10 A3015 RMK AO2 P0002=
202110151027 SPECI KPAE 151027Z AUTO 17011KT 3SM -RA BR FEW008 BKN040 OVC095 11/09 A3015 RMK AO2 P0001 T01060094=
202110150953 METAR KPAE 150953Z AUTO 16012G19KT 10SM -RA BKN075 OVC090 11/09 A3016 RMK AO2 RAB29 SLP213 P0000 T01110094=
202110150853 METAR KPAE 150853Z AUTO 16011G21KT 10SM FEW075 OVC100 11/09 A3016 RMK AO2 SLP214 T01110094 58007=
202110150836 SPECI KPAE 150836Z AUTO 16010KT 10SM FEW011 BKN070 OVC110 11/09 A3016 RMK AO2 T01110094=
202110150753 METAR KPAE 150753Z AUTO 15013G20KT 10SM BKN012 OVC110 11/09 A3017 RMK AO2 SLP216 T01110094 401220072=
202110150734 SPECI KPAE 150734Z AUTO 16012G19KT 10SM SCT010 OVC110 11/09 A3017 RMK AO2 T01110094=
202110150653 METAR KPAE 150653Z AUTO 16012KT 10SM BKN013 BKN017 11/09 A3018 RMK AO2 SLP221 T01110094=
202110150553 METAR KPAE 150553Z AUTO 18011KT 10SM OVC012 12/09 A3018 RMK AO2 SLP223 T01170094 10122 20117 58001=
202110150453 METAR KPAE 150453Z AUTO 18012KT 10SM BKN013 OVC019 12/09 A3019 RMK AO2 SLP224 T01170094=
202110150407 SPECI KPAE 150407Z AUTO 18012KT 10SM OVC013 12/09 A3019 RMK AO2 T01170094=
202110150400 SPECI KPAE 150400Z AUTO 19011KT 10SM OVC015 12/09 A3019 RMK AO2 T01170094=
202110150353 METAR KPAE 150353Z AUTO 18010KT 10SM BKN013 12/09 A3019 RMK AO2 SLP224 T01170094=
202110150300 SPECI KPAE 150300Z 18009KT 10SM BKN013 12/09 A3019 RMK AO2 T01170094=
202110150253 METAR KPAE 150253Z 18007KT 10SM OVC015 12/09 A3019 RMK AO2 SLP223 T01170094 51002=
202110150221 SPECI KPAE 150221Z 17006KT 10SM BKN022 12/09 A3018 RMK AO2 T01170094=
202110150153 METAR KPAE 150153Z 17009KT 10SM FEW016 12/09 A3018 RMK AO2 SLP221 T01170089=
202110150144 SPECI KPAE 150144Z 16008KT 10SM SCT019 12/09 A3018 RMK AO2 T01170089=
202110150053 METAR KPAE 150053Z 18009KT 10SM BKN016 OVC028 12/09 A3019 RMK AO2 SLP225 T01220094=
202110142353 METAR KPAE 142353Z 16008KT 10SM SCT025 OVC044 12/09 A3018 RMK AO2 SLP221 T01170094 10117 20078 58003=
202110142307 SPECI KPAE 142307Z 12004KT 10SM BKN013 OVC037 11/09 A3018 RMK AO2 T01110094=
202110142300 SPECI KPAE 142300Z VRB06KT 10SM OVC037 11/09 A3018 RMK AO2 T01060094=
202110142253 METAR KPAE 142253Z 11007KT 10SM BKN013 OVC037 11/09 A3018 RMK AO2 SLP222 T01060089=
202110142210 SPECI KPAE 142210Z 11007KT 10SM SCT003 BKN013 OVC029 10/09 A3018 RMK AO2 T01000089=
202110142153 METAR KPAE 142153Z 11008KT 10SM SCT003 BKN009 OVC016 10/09 A3018 RMK AO2 SLP223 T01000089=
202110142133 SPECI KPAE 142133Z 11006KT 10SM BKN003 OVC009 10/09 A3019 RMK AO2 T01000089=
202110142053 METAR KPAE 142053Z 11005KT 10SM BKN009 OVC016 10/09 A3019 RMK AO2 SLP224 T01000089 50002=
202110141953 METAR KPAE 141953Z 11005KT 8SM OVC006 09/09 A3019 RMK AO2 CIG 003V007 SLP226 T00940089=
202110141853 METAR KPAE 141853Z VRB04KT 1 1/2SM BR OVC003 09/08 A3019 RMK AO2 SLP225 T00890083=
202110141753 METAR KPAE 141753Z 11006KT 1/2SM R16R/P6000FT FG OVC002 08/07 A3018 RMK AO2 RAB03E15 SLP223 P0000 60001 T00780072 10078 20072 51014=
202110141653 METAR KPAE 141653Z 11005KT 3/4SM R16R/P6000FT BR OVC002 08/07 A3018 RMK AO2 SLP221 T00780072=
202110141553 METAR KPAE 141553Z 11006KT 1/2SM R16R/P6000FT FG OVC002 07/07 A3016 RMK AO2 RAB16E30 SLP215 P0001 T00720067=
202110141543 SPECI KPAE 141543Z 11007KT 3/4SM R16R/P6000FT BR OVC002 07/07 A3015 RMK AO2 RAB16E30 P0001 T00720067=
202110141506 SPECI KPAE 141506Z 15004KT 1 1/2SM BR BKN004 OVC010 08/07 A3015 RMK AO2 CIG 003V007 T00780072=
202110141453 METAR KPAE 141453Z VRB05KT 2 1/2SM BR BKN004 OVC009 08/07 A3014 RMK AO2 VIS 1 3/4V3 CIG 003V007 SLP208 T00780067 53010=
202110141439 SPECI KPAE 141439Z 14005KT 2 1/2SM BR BKN004 OVC009 08/07 A3014 RMK AO2 T00780067=
202110141435 SPECI KPAE 141435Z 15006KT 2 1/2SM BR OVC007 08/07 A3014 RMK AO2 T00780067=
202110141353 METAR KPAE 141353Z 14007KT 3SM BR OVC007 07/07 A3013 RMK AO2 SLP204 T00720067=
202110141301 SPECI KPAE 141301Z AUTO 14005KT 10SM BKN009 OVC014 08/06 A3012 RMK AO2 CIG 006V012 T00780061=
202110141253 METAR KPAE 141253Z AUTO VRB04KT 10SM SCT007 OVC012 08/06 A3012 RMK AO2 SLP200 T00780061=
202110141245 SPECI KPAE 141245Z AUTO 14007KT 10SM OVC014 08/06 A3012 RMK AO2 T00780061=
202110141153 METAR KPAE 141153Z AUTO VRB04KT 10SM OVC016 08/06 A3011 RMK AO2 SLP197 60002 70004 T00780056 10083 20078 57002=
202110141053 METAR KPAE 141053Z AUTO VRB04KT 10SM OVC017 08/06 A3011 RMK AO2 SLP197 T00780056=
202110140953 METAR KPAE 140953Z AUTO VRB04KT 10SM OVC017 08/06 A3011 RMK AO2 SLP199 T00780056=
202110140853 METAR KPAE 140853Z AUTO VRB04KT 10SM OVC029 08/06 A3011 RMK AO2 SLP199 60002 T00780061 53001=
202110140835 SPECI KPAE 140835Z AUTO 14006KT 10SM BKN028 OVC060 08/06 A3011 RMK AO2 T00780061=
202110140753 METAR KPAE 140753Z AUTO 15011KT 10SM SCT032 OVC060 08/06 A3011 RMK AO2 RAE35 SLP199 P0002 T00780061 401060061=
202110140719 SPECI KPAE 140719Z AUTO 15009G16KT 9SM -RA FEW026 BKN031 OVC060 08/06 A3011 RMK AO2 P0001 T00780061=
202110140707 SPECI KPAE 140707Z AUTO 15009KT 9SM -RA FEW014 BKN026 OVC031 08/06 A3011 RMK AO2 P0001 T00830061=
202110140653 METAR KPAE 140653Z AUTO 15009KT 10SM -RA BKN031 OVC048 08/07 A3011 RMK AO2 SLP198 P0000 T00830067=
202110140553 METAR KPAE 140553Z AUTO 15009KT 10SM -RA BKN037 BKN055 OVC080 08/06 A3011 RMK AO2 RAB53 SLP199 P0000 60000 T00830056 10100 20083 53004=
202110140453 METAR KPAE 140453Z AUTO VRB06KT 10SM OVC075 09/05 A3011 RMK AO2 SLP197 T00890050=
202110140353 METAR KPAE 140353Z AUTO VRB04KT 10SM FEW036 OVC080 08/05 A3010 RMK AO2 SLP195 T00830050=
202110140253 METAR KPAE 140253Z 11004KT 10SM OVC080 09/05 A3010 RMK AO2 SLP195 T00890050 55002=
202110140153 METAR KPAE 140153Z 11006KT 10SM SCT060 OVC075 09/06 A3010 RMK AO2 SLP195 T00890056=
202110140053 METAR KPAE 140053Z 00000KT 10SM FEW020 SCT060 OVC080 09/05 A3010 RMK AO2 SLP194 T00940050=
202110132353 METAR KPAE 132353Z 16004KT 10SM FEW020 SCT030 OVC090 10/04 A3010 RMK AO2 SLP196 T01000044 10106 20072 55000=
202110132253 METAR KPAE 132253Z 17003KT 10SM FEW030 SCT050 OVC100 10/03 A3010 RMK AO2 SLP195 T01000033=
202110132153 METAR KPAE 132153Z 20003KT 10SM BKN046 10/04 A3010 RMK AO2 SLP194 T01000039=
202110132053 METAR KPAE 132053Z VRB05KT 10SM BKN046 11/03 A3010 RMK AO2 SLP196 T01060033 50007=
202110131953 METAR KPAE 131953Z 27004KT 10SM FEW009 SCT013 OVC025 09/05 A3011 RMK AO2 SLP197 T00940050=
202110131853 METAR KPAE 131853Z 26004KT 10SM FEW009 SCT013 OVC025 08/06 A3009 RMK AO2 SLP192 T00780056=
202110131753 METAR KPAE 131753Z 00000KT 10SM SCT005 BKN009 OVC026 08/06 A3008 RMK AO2 SLP189 60002 T00780056 10078 20061 51012=
202110131738 SPECI KPAE 131738Z 00000KT 10SM SCT005 BKN009 OVC026 07/05 A3008 RMK AO2 T00720050=
202110131731 SPECI KPAE 131731Z 00000KT 10SM SCT009 BKN018 OVC026 07/05 A3008 RMK AO2 T00720050=
202110131653 METAR KPAE 131653Z 34004KT 10SM BKN009 OVC028 07/06 A3007 RMK AO2 SLP187 T00720056=
202110131624 SPECI KPAE 131624Z VRB03KT 10SM BKN009 OVC028 07/06 A3007 RMK AO2 T00720056=
202110131553 METAR KPAE 131553Z 31003KT 10SM SCT009 OVC028 07/06 A3007 RMK AO2 SLP184 T00670056=
202110131453 METAR KPAE 131453Z 28004KT 10SM BKN005 BKN009 07/06 A3005 RMK AO2 SLP178 60002 T00670056 53016=
202110131425 SPECI KPAE 131425Z 24004KT 10SM BKN005 BKN009 07/06 A3004 RMK AO2 T00670056=
202110131353 METAR KPAE 131353Z 24004KT 10SM SCT012 BKN039 OVC065 07/06 A3003 RMK AO2 SLP173 T00670056=
202110131337 SPECI KPAE 131337Z AUTO 25004KT 10SM FEW010 BKN039 OVC070 07/06 A3003 RMK AO2 T00670056=
202110131326 SPECI KPAE 131326Z AUTO 24004KT 10SM SCT008 BKN024 OVC035 07/06 A3003 RMK AO2 T00670056=
202110131319 SPECI KPAE 131319Z AUTO 25004KT 10SM SCT010 BKN024 OVC037 07/06 A3002 RMK AO2 T00670056=
202110131316 SPECI KPAE 131316Z AUTO 25004KT 10SM BKN008 BKN025 OVC037 07/06 A3002 RMK AO2 CIG 006V012 T00670056=
202110131253 METAR KPAE 131253Z AUTO 25005KT 10SM FEW004 OVC010 07/06 A3001 RMK AO2 RAE26 CIG 005V012 SLP166 P0002 T00670056=
202110131216 SPECI KPAE 131216Z AUTO 23006KT 9SM -RA OVC004 07/06 A3000 RMK AO2 P0002 T00670061=
202110131153 METAR KPAE 131153Z AUTO 25003KT 4SM -RA BR BKN005 OVC009 07/06 A3000 RMK AO2 CIG 003V008 SLP161 P0003 60006 70010 T00670061 10067 20061 53008=
202110131053 METAR KPAE 131053Z AUTO 15005KT 6SM -RA BR BKN006 OVC012 07/06 A2999 RMK AO2 CIG 004V009 SLP156 P0002 T00670056=
202110131043 SPECI KPAE 131043Z AUTO 16004KT 5SM -RA BR BKN006 OVC014 07/06 A2999 RMK AO2 P0001 T00670056=
202110131029 SPECI KPAE 131029Z AUTO 16004KT 5SM -RA BR SCT005 OVC013 07/06 A2999 RMK AO2 P0001 T00670056=
202110130953 METAR KPAE 130953Z AUTO VRB04KT 10SM -RA FEW009 BKN018 OVC042 07/06 A2998 RMK AO2 RAE01B46 SLP154 P0000 T00670056=
202110130942 SPECI KPAE 130942Z AUTO 15006KT 10SM SCT009 SCT013 OVC018 07/06 A2999 RMK AO2 RAE01 P0000 T00670056=
202110130853 METAR KPAE 130853Z AUTO 15007KT 5SM -RA BR OVC009 07/06 A2998 RMK AO2 CIG 008V013 SLP152 P0001 60001 T00670056 50002=
202110130753 METAR KPAE 130753Z AUTO 15004KT 10SM -RA BKN008 OVC012 07/06 A2998 RMK AO2 RAE0659B45 CIG 005V010 SLP154 P0000 T00670056 400940033=
202110130653 METAR KPAE 130653Z AUTO 16007KT 8SM -RA BKN005 OVC015 07/06 A2997 RMK AO2 RAE07B42 SLP152 P0000 T00670056=
202110130601 SPECI KPAE 130601Z AUTO 16007KT 10SM -RA FEW009 OVC021 07/05 A2997 RMK AO2 P0000 T00670050=
202110130553 METAR KPAE 130553Z AUTO 16008KT 9SM -RA FEW012 OVC021 07/05 A2997 RMK AO2 RAB30 SLP152 P0001 60004 T00670050 10089 20067 58006=
202110130453 METAR KPAE 130453Z AUTO 16006KT 10SM BKN019 OVC030 07/05 A2998 RMK AO2 RAE24 SLP155 P0000 T00720050=
202110130437 SPECI KPAE 130437Z AUTO 18005KT 10SM BKN021 BKN028 OVC037 07/05 A2998 RMK AO2 RAE24 P0000 T00720050=
202110130353 METAR KPAE 130353Z 15004KT 10SM -RA SCT029 SCT035 OVC044 07/04 A2998 RMK AO2 RAB28 SLP156 P0000 T00720044=
202110130253 METAR KPAE 130253Z 16008KT 10SM SCT044 BKN055 OVC110 07/04 A2999 RMK AO2 RAE14 SLP158 P0000 60003 T00720039 58012=
202110130153 METAR KPAE 130153Z 17010KT 10SM -RA FEW031 BKN042 OVC049 08/03 A3001 RMK AO2 SLP163 P0003 T00780033=
202110130053 METAR KPAE 130053Z 15010G19KT 10SM -RA OVC044 09/03 A3002 RMK AO2 RAB27 SLP167 P0000 T00890028=
202110122353 METAR KPAE 122353Z 15011KT 10SM OVC060 09/03 A3002 RMK AO2 RAE51 SLP170 P0000 60000 T00890028 10094 20061 56012=
202110122253 METAR KPAE 122253Z 16011KT 10SM -RA BKN049 OVC065 09/02 A3003 RMK AO2 RAB42 SLP173 P0000 T00940022=
202110122153 METAR KPAE 122153Z 17011G18KT 10SM BKN055 OVC070 09/02 A3005 RMK AO2 SLP178 T00940022=
202110122053 METAR KPAE 122053Z 16011G18KT 10SM OVC095 09/02 A3006 RMK AO2 SLP182 T00940022 58027=
202110121953 METAR KPAE 121953Z 16010G18KT 10SM OVC100 09/02 A3010 RMK AO2 SLP194 T00890022=
202110121853 METAR KPAE 121853Z 15012KT 10SM OVC100 08/02 A3011 RMK AO2 SLP201 T00780017=
202110121753 METAR KPAE 121753Z 15010G16KT 10SM OVC110 06/02 A3014 RMK AO2 SLP210 T00610017 10061 20033 58018=
202110121653 METAR KPAE 121653Z 15011KT 10SM OVC110 05/02 A3016 RMK AO2 SLP219 T00500022=
202110121553 METAR KPAE 121553Z 14007KT 10SM OVC110 04/02 A3018 RMK AO2 SLP224 T00390017=
202110121453 METAR KPAE 121453Z VRB04KT 10SM CLR 04/02 A3020 RMK AO2 SLP229 T00390017 56013=
202110121353 METAR KPAE 121353Z 15006KT 10SM CLR 04/02 A3020 RMK AO2 SLP230 T00390022=
202110121253 METAR KPAE 121253Z AUTO 15007KT 10SM CLR 03/02 A3022 RMK AO2 SLP235 T00330022=
202110121153 METAR KPAE 121153Z AUTO 14004KT 10SM CLR 04/03 A3024 RMK AO2 SLP242 T00390028 10067 20033 56010=
202110121053 METAR KPAE 121053Z AUTO 15006KT 10SM CLR 04/03 A3024 RMK AO2 SLP243 T00390028=
202110120953 METAR KPAE 120953Z AUTO VRB03KT 10SM CLR 05/03 A3025 RMK AO2 SLP248 T00500033=
202110120853 METAR KPAE 120853Z AUTO 11004KT 10SM CLR 05/03 A3027 RMK AO2 SLP252 T00500033 58002=
202110120753 METAR KPAE 120753Z AUTO 00000KT 10SM CLR 06/04 A3027 RMK AO2 SLP254 T00560039 401110044=
202110120653 METAR KPAE 120653Z AUTO 00000KT 10SM CLR 06/04 A3027 RMK AO2 SLP254 T00610044=
202110120553 METAR KPAE 120553Z AUTO 11003KT 10SM CLR 07/04 A3027 RMK AO2 SLP255 T00670044 10100 20056 58006=
202110120453 METAR KPAE 120453Z AUTO 00000KT 10SM CLR 06/03 A3028 RMK AO2 SLP257 T00610028=
202110120353 METAR KPAE 120353Z 00000KT 10SM CLR 06/03 A3029 RMK AO2 SLP259 T00610028=
202110120253 METAR KPAE 120253Z 00000KT 10SM CLR 07/04 A3029 RMK AO2 SLP261 T00670039 53005=
202110120153 METAR KPAE 120153Z 36003KT 10SM CLR 08/05 A3029 RMK AO2 SLP259 T00830050=
202110120053 METAR KPAE 120053Z 33003KT 10SM FEW050 10/05 A3028 RMK AO2 SLP256 T01000050=
202110112353 METAR KPAE 112353Z 28003KT 10SM FEW050 10/04 A3028 RMK AO2 SLP255 T01000044 10111 20078 55000=
202110112253 METAR KPAE 112253Z AUTO 33005KT 10SM CLR 11/04 A3027 RMK AO2 SLP252 T01060039=
202110112153 METAR KPAE 112153Z 30006KT 10SM CLR 11/03 A3027 RMK AO2 SLP252 T01060028=
202110112053 METAR KPAE 112053Z 02004KT 10SM FEW016 BKN051 10/04 A3028 RMK AO2 SLP255 T01000039 58000=
202110112000 SPECI KPAE 112000Z 01005KT 10SM FEW016 BKN051 09/04 A3029 RMK AO2 T00940044=
202110111953 METAR KPAE 111953Z 36004KT 10SM FEW012 BKN021 09/04 A3029 RMK AO2 SLP258 T00940044=
202110111853 METAR KPAE 111853Z 31006KT 10SM FEW012 BKN021 09/05 A3028 RMK AO2 SLP257 T00890050=
202110111815 SPECI KPAE 111815Z 33003KT 10SM FEW013 BKN019 OVC029 08/04 A3028 RMK AO2 T00780044=
202110111753 METAR KPAE 111753Z 01005KT 10SM FEW015 SCT031 OVC047 08/04 A3028 RMK AO2 SLP255 T00830044 10083 20044 51010=
202110111653 METAR KPAE 111653Z 32005KT 10SM FEW023 SCT044 08/04 A3027 RMK AO2 SLP253 T00830044=
202110111553 METAR KPAE 111553Z 35003KT 10SM CLR 07/05 A3027 RMK AO2 SLP252 T00720050=
202110111453 METAR KPAE 111453Z 34004KT 10SM CLR 06/04 A3025 RMK AO2 SLP246 T00560039 51009=
202110111353 METAR KPAE 111353Z 00000KT 10SM CLR 05/04 A3024 RMK AO2 SLP243 T00500039=
202110111253 METAR KPAE 111253Z AUTO 36003KT 10SM CLR 06/04 A3023 RMK AO2 SLP239 T00610044=
202110111153 METAR KPAE 111153Z AUTO 00000KT 10SM SCT050 07/04 A3022 RMK AO2 SLP235 60002 70010 T00670044 10083 20061 51006=
202110111053 METAR KPAE 111053Z AUTO 36003KT 10SM OVC055 07/06 A3021 RMK AO2 SLP233 T00720056=
202110110953 METAR KPAE 110953Z AUTO 01003KT 10SM FEW030 FEW046 OVC055 07/06 A3021 RMK AO2 RAB01E10 SLP233 P0000 T00720061=
202110110853 METAR KPAE 110853Z AUTO 32004KT 10SM OVC040 07/06 A3020 RMK AO2 RAE18 SLP229 P0001 60002 T00720056 52005=
202110110753 METAR KPAE 110753Z AUTO 32005KT 10SM -RA OVC042 07/04 A3020 RMK AO2 RAB29 SLP227 P0001 T00670044 401220067=
202110110653 METAR KPAE 110653Z AUTO 33007KT 10SM BKN036 OVC046 08/05 A3019 RMK AO2 SLP225 T00830050=
202110110553 METAR KPAE 110553Z AUTO VRB03KT 10SM OVC032 08/04 A3018 RMK AO2 SLP223 T00830044 10111 20078 50008=
202110110516 SPECI KPAE 110516Z AUTO 30007KT 10SM SCT031 BKN070 08/04 A3018 RMK AO2 T00780039=
202110110509 SPECI KPAE 110509Z AUTO 29007KT 10SM BKN029 BKN070 08/04 A3018 RMK AO2 T00780044=
202110110453 METAR KPAE 110453Z AUTO VRB03KT 10SM FEW029 OVC070 08/05 A3019 RMK AO2 SLP224 T00830050=
202110110353 METAR KPAE 110353Z 00000KT 10SM BKN060 08/05 A3017 RMK AO2 SLP219 T00830050=
202110110253 METAR KPAE 110253Z 34007G15KT 10SM CLR 08/04 A3016 RMK AO2 SLP215 T00830044 50002=
202110110153 METAR KPAE 110153Z 32005KT 10SM SCT034 BKN060 09/05 A3017 RMK AO2 SLP217 T00890050=
202110110053 METAR KPAE 110053Z 34004KT 10SM SCT030 BKN070 10/04 A3016 RMK AO2 SLP214 T01000044=
202110102353 METAR KPAE 102353Z 36005KT 10SM SCT036 BKN047 OVC065 11/04 A3015 RMK AO2 SLP212 60006 T01110039 10122 20083 55004=
202110102253 METAR KPAE 102253Z VRB03KT 10SM CLR 12/04 A3015 RMK AO2 SLP211 T01170044=
202110102153 METAR KPAE 102153Z 01003KT 10SM FEW009 SCT030 11/06 A3016 RMK AO2 SLP215 T01110061=
202110102102 SPECI KPAE 102102Z 00000KT 10SM FEW009 SCT030 11/04 A3017 RMK AO2 T01110044=
202110102053 METAR KPAE 102053Z VRB05KT 10SM BKN039 11/06 A3017 RMK AO2 SLP217 60006 T01060056 58001=
202110101953 METAR KPAE 101953Z 17008KT 10SM SCT008 BKN031 OVC050 10/07 A3018 RMK AO2 RAE24 SLP221 P0002 T01000072=
202110101853 METAR KPAE 101853Z 18004KT 5SM -RA SCT008 BKN034 OVC055 09/06 A3018 RMK AO2 RAE10B26 SLP223 P0004 T00890061=
202110101812 SPECI KPAE 101812Z 14005KT 5SM HZ SCT008 BKN034 OVC055 09/06 A3017 RMK AO2 LTG DSNT W RAE10 P0001 T00890056=
202110101753 METAR KPAE 101753Z 18005KT 3SM R16R/5500VP6000FT -RA BR FEW017 OVC038 09/07 A3017 RMK AO2 RAB35 SLP217 P0002 60002 T00890067 10100 20072 51016=
202110101653 METAR KPAE 101653Z 16007KT 10SM FEW046 BKN085 08/07 A3016 RMK AO2 SLP213 T00830067=
202110101553 METAR KPAE 101553Z 00000KT 10SM FEW009 SCT022 09/06 A3014 RMK AO2 SLP207 T00890061=
202110101453 METAR KPAE 101453Z 32004KT 10SM FEW009 SCT060 08/04 A3012 RMK AO2 SLP202 T00830039 51014=
202110101353 METAR KPAE 101353Z 00000KT 10SM SCT060 09/02 A3011 RMK AO2 SLP198 T00890022=
202110101253 METAR KPAE 101253Z AUTO 03005KT 10SM SCT060 BKN080 09/03 A3009 RMK AO2 SLP191 T00940028=
202110101153 METAR KPAE 101153Z AUTO 35006G16KT 10SM OVC046 10/04 A3008 RMK AO2 RAB07E21 SLP187 P0001 60007 70021 T01000044 10117 20094 53013=
202110101053 METAR KPAE 101053Z AUTO 35009KT 10SM OVC037 09/06 A3006 RMK AO2 RAB32E48 SLP178 P0000 T00940061=
202110100953 METAR KPAE 100953Z AUTO 36011G20KT 10SM OVC039 10/06 A3005 RMK AO2 RAE02 SLP175 P0000 T01000061=
202110100906 SPECI KPAE 100906Z AUTO VRB04KT 10SM OVC030 09/08 A3004 RMK AO2 RAE02 P0000 T00940078=
202110100853 METAR KPAE 100853Z AUTO 02005KT 5SM -RA BR BKN027 OVC031 09/07 A3004 RMK AO2 RAB04 SLP174 P0006 60006 T00940072 53012=
202110100829 SPECI KPAE 100829Z AUTO VRB04G18KT 4SM -RA BR FEW002 SCT007 OVC022 09/08 A3005 RMK AO2 RAB04 P0006 T00940078=
202110100817 SPECI KPAE 100817Z AUTO 28009G17KT 250V310 2SM RA BR SCT003 OVC010 11/10 A3003 RMK AO2 RAB04 CIG 006V014 P0005 T01060100=
202110100810 SPECI KPAE 100810Z AUTO 25008KT 3SM RA BR FEW005 OVC010 11/10 A3003 RMK AO2 RAB04 CIG 007V012 P0002 T01110100=
202110100753 METAR KPAE 100753Z AUTO 20012G19KT 10SM BKN009 OVC022 11/09 A3002 RMK AO2 PK WND 19029/0657 CIG 007V012 SLP166 T01110094 401330061=
202110100724 SPECI KPAE 100724Z AUTO 18017KT 10SM OVC008 11/10 A3000 RMK AO2 PK WND 19029/0657 CIG 007V013 T01110100=
202110100653 METAR KPAE 100653Z AUTO 17016G30KT 10SM BKN012 BKN090 11/09 A2999 RMK AO2 PK WND 19041/0600 SLP155 T01110094=
202110100641 SPECI KPAE 100641Z AUTO 17016G37KT 10SM SCT012 BKN090 11/09 A2999 RMK AO2 PK WND 19041/0600 T01110094=
202110100553 METAR KPAE 100553Z AUTO 18023G37KT 10SM BKN014 OVC100 12/09 A3001 RMK AO2 PK WND 18037/0551 SLP162 60012 T01170094 10122 20111 56019=
202110100535 SPECI KPAE 100535Z AUTO 17017G35KT 10SM SCT013 OVC100 12/09 A3001 RMK AO2 PK WND 18035/0527 T01170094=
202110100520 SPECI KPAE 100520Z AUTO 18022G31KT 10SM BKN013 OVC085 12/09 A3001 RMK AO2 PK WND 19032/0500 PRESFR T01170094=
202110100512 SPECI KPAE 100512Z AUTO 17017G29KT 10SM BKN015 BKN090 BKN110 12/09 A3003 RMK AO2 PK WND 19032/0500 T01170094=
202110100453 METAR KPAE 100453Z AUTO 17018G33KT 10SM FEW015 SCT075 BKN120 12/09 A3003 RMK AO2 PK WND 18033/0447 PRESRR SLP170 T01170094=
202110100353 METAR KPAE 100353Z 17013KT 10SM OVC095 12/10 A3006 RMK AO2 SLP182 T01170100=
202110100253 METAR KPAE 100253Z 16013G22KT 10SM SCT025 OVC080 11/10 A3007 RMK AO2 PK WND 16027/0155 RAE49 SLP186 P0002 60012 T01110100 57018=
202110100153 METAR KPAE 100153Z 16016G26KT 8SM -RA FEW021 OVC033 11/10 A3009 RMK AO2 PK WND 16027/0057 SLP191 P0005 T01110100=
202110100053 METAR KPAE 100053Z 16015G24KT 6SM -RA BR SCT025 OVC080 11/09 A3011 RMK AO2 PK WND 16027/2359 SLP199 P0005 T01110094=
202110092353 METAR KPAE 092353Z 17015G23KT 7SM -RA OVC085 12/09 A3013 RMK AO2 RAB2257 SLP204 P0002 60002 T01220089 10133 20106 56015=
202110092253 METAR KPAE 092253Z 17015G24KT 10SM OVC095 13/08 A3014 RMK AO2 PK WND 16027/2220 SLP209 T01330078=
202110092153 METAR KPAE 092153Z 16017G23KT 10SM SCT044 OVC080 13/08 A3015 RMK AO2 PK WND 15028/2119 SLP213 T01280078=
202110092117 SPECI KPAE 092117Z 16016G25KT 10SM SCT022 OVC080 13/08 A3016 RMK AO2 T01330078=
202110092053 METAR KPAE 092053Z 18014G20KT 10SM BKN021 OVC031 13/07 A3017 RMK AO2 SLP219 T01280072 58013=
202110092003 SPECI KPAE 092003Z 17012G21KT 10SM OVC028 12/07 A3018 RMK AO2 T01220067=
202110091953 METAR KPAE 091953Z 15010G20KT 10SM OVC030 12/07 A3019 RMK AO2 SLP224 T01170067=
202110091853 METAR KPAE 091853Z 15011G17KT 10SM OVC039 11/06 A3021 RMK AO2 SLP231 T01110056=
202110091753 METAR KPAE 091753Z 16009KT 10SM OVC036 11/05 A3021 RMK AO2 SLP232 T01060050 10106 20067 50000=
202110091653 METAR KPAE 091653Z 15009KT 10SM OVC034 10/04 A3021 RMK AO2 SLP233 T01000044=
202110091553 METAR KPAE 091553Z 14008KT 10SM BKN037 09/04 A3021 RMK AO2 SLP232 T00890044=
202110091453 METAR KPAE 091453Z 15006KT 10SM OVC034 08/04 A3021 RMK AO2 SLP232 T00830039 53009=
202110091353 METAR KPAE 091353Z 15008KT 10SM OVC033 08/03 A3020 RMK AO2 SLP229 T00780033=
202110091253 METAR KPAE 091253Z AUTO 15007KT 10SM OVC035 07/03 A3019 RMK AO2 SLP226 T00670028=
202110091153 METAR KPAE 091153Z AUTO VRB05KT 10SM BKN038 07/03 A3018 RMK AO2 SLP223 T00670028 10089 20061 51008=
202110091053 METAR KPAE 091053Z AUTO VRB05KT 10SM CLR 07/03 A3018 RMK AO2 SLP222 T00670033=
202110090953 METAR KPAE 090953Z AUTO VRB05KT 10SM CLR 07/04 A3017 RMK AO2 SLP220 T00720039=
202110090853 METAR KPAE 090853Z AUTO VRB05KT 10SM CLR 08/04 A3016 RMK AO2 SLP214 T00780044 51013=
202110090753 METAR KPAE 090753Z AUTO 14004KT 10SM CLR 08/05 A3015 RMK AO2 SLP211 T00830050 401330050=
202110090653 METAR KPAE 090653Z AUTO 11005KT 10SM CLR 08/06 A3013 RMK AO2 SLP206 T00830056=
202110090553 METAR KPAE 090553Z AUTO 10005KT 10SM CLR 09/05 A3012 RMK AO2 SLP201 T00890050 10122 20083 53010=
202110090453 METAR KPAE 090453Z AUTO 00000KT 10SM CLR 09/05 A3011 RMK AO2 SLP198 T00890050=
202110090353 METAR KPAE 090353Z 00000KT 10SM CLR 09/04 A3009 RMK AO2 SLP193 T00890044=
202110090253 METAR KPAE 090253Z 00000KT 10SM CLR 09/04 A3009 RMK AO2 SLP192 T00940044 53008=
202110090153 METAR KPAE 090153Z 00000KT 10SM CLR 10/04 A3008 RMK AO2 SLP188 T01000039=
202110090053 METAR KPAE 090053Z 00000KT 10SM CLR 12/04 A3007 RMK AO2 SLP186 T01170039=
202110082353 METAR KPAE 082353Z 28004KT 10SM CLR 12/04 A3006 RMK AO2 SLP183 T01220039 10133 20083 53006=
202110082253 METAR KPAE 082253Z 30004KT 10SM CLR 13/04 A3005 RMK AO2 SLP178 T01280039=
202110082153 METAR KPAE 082153Z VRB04KT 10SM CLR 12/05 A3005 RMK AO2 SLP176 T01220050=
202110082053 METAR KPAE 082053Z 31005KT 10SM SCT014 12/07 A3005 RMK AO2 SLP177 T01220067 51002=
202110081953 METAR KPAE 081953Z 30003KT 10SM SCT014 OVC095 11/07 A3005 RMK AO2 SLP177 T01060072=
202110081900 SPECI KPAE 081900Z 00000KT 10SM SCT009 OVC095 10/07 A3005 RMK AO2 T01000072=
202110081853 METAR KPAE 081853Z 00000KT 10SM BKN009 10/07 A3005 RMK AO2 SLP176 T01000072=
202110081800 SPECI KPAE 081800Z 00000KT 9SM OVC004 08/07 A3004 RMK AO2 T00830072=
202110081753 METAR KPAE 081753Z 19003KT 4SM BR BKN004 OVC100 08/07 A3004 RMK AO2 SLP176 T00830072 10083 20050 51012=
202110081708 SPECI KPAE 081708Z 25003KT 1 1/2SM BR OVC002 07/07 A3004 RMK AO2 T00720067=
202110081659 SPECI KPAE 081659Z 00000KT 1/2SM R16R/P6000FT FG OVC002 07/07 A3004 RMK AO2 T00720072=
202110081652 METAR KPAE 081652Z 00000KT 1 1/2SM R16R/4500VP6000FT BR OVC002 07/07 A3004 RMK AO2 SLP174 T00720072=
202110081651 SPECI KPAE 081651Z 00000KT 1SM R16R/3000VP6000FT BR VV002 07/07 A3004 RMK AO2=
202110081641 SPECI KPAE 081641Z 00000KT 1/4SM R16R/1600V3500FT FG VV002 07/07 A3003 RMK AO2 T00670067=
202110081623 SPECI KPAE 081623Z 00000KT 1/4SM R16R/1400V1800FT FG VV002 07/07 A3003 RMK AO2 T00670067=
202110081555 SPECI KPAE 081555Z 00000KT 1/4SM R16R/1000V1200FT FG VV002 06/06 A3002 RMK AO2 T00610056=
202110081553 METAR KPAE 081553Z 00000KT 1/2SM R16R/1000V1200FT VCFG OVC001 06/06 A3002 RMK AO2 SLP170 T00560056=
202110081529 SPECI KPAE 081529Z 15003KT 1/2SM R16R/1200V1400FT VCFG BKN001 OVC005 05/05 A3002 RMK AO2 T00500050=
202110081511 SPECI KPAE 081511Z 17003KT 1/4SM R16R/1400V1800FT VCFG VV002 05/04 A3002 RMK AO2 T00500044=
202110081458 SPECI KPAE 081458Z 00000KT 1/4SM R16R/2200V3500FT VCFG VV001 05/04 A3001 RMK AO2 T00500044=
202110081453 METAR KPAE 081453Z 00000KT 1SM R16R/2400V5500FT VCFG VV002 05/04 A3001 RMK AO2 SLP164 T00500044 56000=
202110081446 SPECI KPAE 081446Z VRB03KT 1SM R16R/2800VP6000FT VCFG OVC001 06/05 A3001 RMK AO2 T00560050=
202110081353 METAR KPAE 081353Z AUTO 15004KT 10SM SCT110 06/05 A3001 RMK AO2 SLP164 T00560050=
202110081253 METAR KPAE 081253Z AUTO 00000KT 6SM BR CLR 06/06 A3001 RMK AO2 SLP163 T00610056=
202110081239 SPECI KPAE 081239Z AUTO 00000KT 4SM BR FEW005 06/06 A3001 RMK AO2 T00610056=
202110081235 SPECI KPAE 081235Z AUTO 00000KT 1 1/4SM BR FEW005 06/06 A3001 RMK AO2 T00610056=
202110081233 SPECI KPAE 081233Z AUTO 00000KT 3/4SM R16R/P6000FT BR VV005 06/06 A3001 RMK AO2 T00610056=
202110081226 SPECI KPAE 081226Z AUTO 00000KT 1/2SM R16R/2200VP6000FT FG VV004 06/06 A3001 RMK AO2 T00610056=
202110081219 SPECI KPAE 081219Z AUTO 00000KT 1SM R16R/2200V3000FT BR VV002 06/06 A3001 RMK AO2 VIS 1/2V5 T00610056=
202110081214 SPECI KPAE 081214Z AUTO 00000KT 2SM R16R/2600V4000FT BR SCT001 06/06 A3001 RMK AO2 VIS 1/2V5 T00610056=
202110081210 SPECI KPAE 081210Z AUTO 00000KT 3SM R16R/2800V5000FT BR BKN001 06/06 A3001 RMK AO2 T00610056=
202110081205 SPECI KPAE 081205Z AUTO 00000KT 1SM R16R/3000V5000FT BR VV001 06/06 A3001 RMK AO2 T00610056=
202110081153 METAR KPAE 081153Z AUTO 00000KT 1/4SM R16R/1800V4000FT FG VV001 06/06 A3001 RMK AO2 SLP164 T00610056 10072 20050 50002=
202110081148 SPECI KPAE 081148Z AUTO 00000KT 1/4SM R16R/1400V3500FT FG VV001 06/06 A3001 RMK AO2=
202110081139 SPECI KPAE 081139Z AUTO 00000KT 1/4SM R16R/0800V1600FT FG VV001 06/06 A3001 RMK AO2 T00560056=
202110081104 SPECI KPAE 081104Z AUTO 00000KT M1/4SM R16R/0700V1400FT FG VV001 06/06 A3001 RMK AO2 T00610061=
202110081053 METAR KPAE 081053Z AUTO 00000KT 1/4SM R16R/0700V1200FT FG VV002 06/06 A3000 RMK AO2 SLP162 T00610061=
202110081048 SPECI KPAE 081048Z AUTO 00000KT 3/4SM R16R/1000V6000FT BR VV003 06/06 A3000 RMK AO2=
202110081046 SPECI KPAE 081046Z AUTO 00000KT 2SM R16R/1000VP6000FT BR FEW004 07/06 A3000 RMK AO2 T00670056=
202110080953 METAR KPAE 080953Z AUTO 00000KT 10SM CLR 07/06 A3000 RMK AO2 SLP161 T00670056=
202110080853 METAR KPAE 080853Z AUTO 00000KT 10SM CLR 06/06 A3000 RMK AO2 SLP162 T00610056 56008=
202110080753 METAR KPAE 080753Z AUTO 00000KT 6SM BR CLR 05/04 A3001 RMK AO2 SLP164 T00500044 401280050=
202110080653 METAR KPAE 080653Z AUTO 00000KT 10SM CLR 07/06 A3002 RMK AO2 SLP166 T00670056=
202110080553 METAR KPAE 080553Z AUTO 00000KT 10SM CLR 07/05 A3003 RMK AO2 SLP170 T00670050 10122 20067 57010=
202110080453 METAR KPAE 080453Z AUTO 00000KT 10SM CLR 07/06 A3004 RMK AO2 SLP175 T00720056=
202110080353 METAR KPAE 080353Z 00000KT 10SM CLR 08/06 A3005 RMK AO2 SLP177 T00780056=
202110080253 METAR KPAE 080253Z 00000KT 10SM CLR 08/06 A3006 RMK AO2 SLP181 T00830061 56006=
202110080153 METAR KPAE 080153Z 33004KT 10SM CLR 09/06 A3006 RMK AO2 SLP182 T00940061=
202110080053 METAR KPAE 080053Z 34004KT 10SM CLR 11/06 A3007 RMK AO2 SLP184 T01110056=
202110072353 METAR KPAE 072353Z 35006KT 10SM CLR 12/04 A3008 RMK AO2 SLP187 T01220044 10128 20089 56019=
202110072253 METAR KPAE 072253Z AUTO VRB04KT 10SM CLR 13/04 A3009 RMK AO2 SLP192 T01280044=
202110072153 METAR KPAE 072153Z 36005KT 10SM CLR 12/04 A3011 RMK AO2 SLP198 T01220044=
202110072103 SPECI KPAE 072103Z 33005KT 10SM FEW006 12/06 A3013 RMK AO2 T01170056=
202110072053 METAR KPAE 072053Z 35005KT 10SM CLR 12/06 A3014 RMK AO2 SLP207 T01170056 58016=
202110071953 METAR KPAE 071953Z 34004KT 10SM CLR 11/06 A3015 RMK AO2 SLP213 T01110061=
202110071905 SPECI KPAE 071905Z 00000KT 10SM SCT013 11/06 A3017 RMK AO2 T01060061=
202110071853 METAR KPAE 071853Z 00000KT 10SM BKN011 10/06 A3017 RMK AO2 SLP219 T01000061=
202110071823 SPECI KPAE 071823Z 32006KT 10SM FEW006 BKN011 09/06 A3018 RMK AO2 T00940061=
202110071800 SPECI KPAE 071800Z VRB05KT 10SM BKN011 09/06 A3018 RMK AO2 T00940061=
202110071753 METAR KPAE 071753Z VRB03KT 10SM FEW002 SCT009 09/06 A3018 RMK AO2 SLP222 T00940061 10094 20056 58004=
202110071653 METAR KPAE 071653Z 34004KT 10SM FEW002 SCT009 09/07 A3019 RMK AO2 SLP224 T00890067=
202110071632 SPECI KPAE 071632Z 36004KT 10SM FEW002 SCT009 09/07 A3019 RMK AO2 T00890067=
202110071600 SPECI KPAE 071600Z 35003KT 10SM CLR 08/06 A3019 RMK AO2 T00830061=
202110071553 METAR KPAE 071553Z 35003KT 10SM SCT007 BKN013 08/06 A3019 RMK AO2 SLP226 T00780061=
202110071507 SPECI KPAE 071507Z 00000KT 10SM SCT007 BKN013 07/06 A3019 RMK AO2 T00720061=
202110071459 SPECI KPAE 071459Z 00000KT 10SM BKN007 BKN013 06/06 A3019 RMK AO2 T00610056=
202110071453 METAR KPAE 071453Z 00000KT 10SM SCT007 SCT013 06/05 A3019 RMK AO2 SLP227 T00610050 53003=
202110071436 SPECI KPAE 071436Z 00000KT 10SM SCT012 06/04 A3019 RMK AO2 T00610044=
202110071353 METAR KPAE 071353Z 00000KT 10SM BKN010 07/06 A3019 RMK AO2 SLP225 T00670056=
202110071328 SPECI KPAE 071328Z AUTO 00000KT 10SM BKN010 07/06 A3019 RMK AO2 T00670056=
202110071253 METAR KPAE 071253Z AUTO 36003KT 10SM SCT010 07/06 A3019 RMK AO2 SLP224 T00670061=
202110071153 METAR KPAE 071153Z AUTO 00000KT 10SM FEW006 BKN010 07/07 A3019 RMK AO2 CIG 008V013 SLP223 70002 T00720067 10083 20072 52000=
202110071121 SPECI KPAE 071121Z AUTO 00000KT 10SM BKN006 OVC065 07/07 A3018 RMK AO2 T00720067=
202110071108 SPECI KPAE 071108Z AUTO 00000KT 10SM SCT006 BKN060 07/07 A3018 RMK AO2 T00720067=
202110071053 METAR KPAE 071053Z AUTO 00000KT 10SM BKN060 07/07 A3019 RMK AO2 SLP224 T00720067=
202110070953 METAR KPAE 070953Z AUTO 00000KT 10SM FEW003 BKN060 08/07 A3019 RMK AO2 SLP223 T00780072=
202110070911 SPECI KPAE 070911Z AUTO 02003KT 10SM BKN002 BKN010 08/07 A3019 RMK AO2 T00830072=
202110070903 SPECI KPAE 070903Z AUTO 01005KT 9SM SCT002 BKN010 BKN060 08/07 A3019 RMK AO2 CIG 008V013 T00830072=
202110070853 METAR KPAE 070853Z AUTO 35003KT 10SM BKN003 BKN010 08/08 A3019 RMK AO2 SLP223 T00830078 51004=
202110070846 SPECI KPAE 070846Z AUTO 35003KT 9SM SCT003 BKN010 OVC060 08/08 A3019 RMK AO2 CIG 008V013 T00830078=
202110070835 SPECI KPAE 070835Z AUTO 00000KT 9SM BKN002 BKN010 OVC055 08/08 A3019 RMK AO2 T00830078=
202110070803 SPECI KPAE 070803Z AUTO 00000KT 10SM FEW004 OVC050 08/07 A3018 RMK AO2 T00830072=
202110070753 METAR KPAE 070753Z AUTO 00000KT 10SM OVC050 08/07 A3018 RMK AO2 SLP223 T00830072 401390072=
202110070740 SPECI KPAE 070740Z AUTO 00000KT 10SM SCT007 OVC050 08/07 A3018 RMK AO2 T00780072=
202110070722 SPECI KPAE 070722Z AUTO 00000KT 10SM BKN006 BKN050 08/07 A3018 RMK AO2 T00780072=
202110070706 SPECI KPAE 070706Z AUTO 32003KT 10SM FEW005 OVC050 08/07 A3018 RMK AO2 T00780072=
202110070653 METAR KPAE 070653Z AUTO 33003KT 10SM OVC050 08/07 A3018 RMK AO2 SLP221 T00780072=
202110070553 METAR KPAE 070553Z AUTO 28003KT 10SM BKN050 07/07 A3017 RMK AO2 SLP220 60002 T00720067 10133 20072 51010=
202110070506 SPECI KPAE 070506Z AUTO 01003KT 10SM FEW007 BKN050 OVC075 08/07 A3017 RMK AO2 T00830072=
202110070453 METAR KPAE 070453Z AUTO 05003KT 10SM BKN048 BKN055 OVC080 09/07 A3016 RMK AO2 RAE45 SLP216 P0001 T00890072=
202110070400 SPECI KPAE 070400Z AUTO 06004KT 6SM -RA BR FEW006 BKN037 OVC050 09/08 A3015 RMK AO2 P0000 T00890078=
202110070353 METAR KPAE 070353Z AUTO 01003KT 8SM -RA BKN009 BKN025 OVC030 09/08 A3015 RMK AO2 RAB50 SLP213 P0001 T00890078=
202110070253 METAR KPAE 070253Z 33006KT 10SM SCT004 BKN009 OVC019 09/08 A3014 RMK AO2 LTG DSNT NE RAE26 SLP209 P0000 60000 T00890083 53016=
202110070230 SPECI KPAE 070230Z 33008KT 10SM SCT004 BKN009 OVC019 09/08 A3014 RMK AO2 LTG DSNT N AND NE RAE26 P0000 T00890083=
202110070215 SPECI KPAE 070215Z 31009KT 10SM VCTS -RA SCT004 BKN009 OVC019 09/08 A3013 RMK AO2 P0000 T00890083=
202110070200 SPECI KPAE 070200Z 31008KT 10SM -RA SCT004 BKN009 OVC019 10/08 A3012 RMK AO2 P0000 T01000078=
202110070153 METAR KPAE 070153Z 30006G16KT 10SM -RA FEW004 BKN010 BKN019 10/08 A3012 RMK AO2 RAB49 SLP200 P0000 T01000078=
202110070148 SPECI KPAE 070148Z 28012G16KT 10SM SCT015 BKN024 OVC038 11/08 A3011 RMK AO2=
202110070053 METAR KPAE 070053Z 14008G15KT 100V160 10SM SCT029 BKN045 OVC060 12/07 A3009 RMK AO2 SLP192 T01220072=
202110062353 METAR KPAE 062353Z 15007KT 10SM FEW026 SCT045 OVC055 13/07 A3010 RMK AO2 SLP192 T01330067 10139 20100 56001=
202110062253 METAR KPAE 062253Z 18007KT 10SM FEW026 OVC055 13/07 A3010 RMK AO2 SLP194 T01280072=
202110062153 METAR KPAE 062153Z 18007KT 10SM FEW029 BKN044 BKN050 13/06 A3009 RMK AO2 SLP192 T01280061=
202110062109 SPECI KPAE 062109Z 18010KT 10SM SCT029 BKN037 13/06 A3010 RMK AO2 T01280061=
202110062053 METAR KPAE 062053Z 17007KT 10SM BKN028 BKN036 OVC047 13/07 A3010 RMK AO2 SLP194 T01330067 50001=
202110061953 METAR KPAE 061953Z 18006KT 10SM FEW014 SCT023 SCT031 12/08 A3010 RMK AO2 SLP194 T01170078=
202110061904 SPECI KPAE 061904Z 24005KT 10SM FEW015 BKN020 BKN028 11/08 A3011 RMK AO2 T01060083=
202110061853 METAR KPAE 061853Z 24007KT 10SM SCT017 BKN100 11/08 A3011 RMK AO2 SLP196 T01110083=
202110061831 SPECI KPAE 061831Z 22006KT 10SM SCT010 SCT018 BKN100 11/08 A3011 RMK AO2 T01060078=
202110061753 METAR KPAE 061753Z 24006KT 10SM BKN014 10/08 A3010 RMK AO2 SLP194 T01000078 10106 20083 53015=
202110061743 SPECI KPAE 061743Z 24008KT 10SM BKN014 10/08 A3010 RMK AO2 T01000078=
202110061653 METAR KPAE 061653Z 21011KT 10SM OVC018 10/07 A3008 RMK AO2 SLP189 T01000072=
202110061645 SPECI KPAE 061645Z 21013KT 10SM BKN015 OVC020 10/07 A3008 RMK AO2 T01000072=
202110061602 SPECI KPAE 061602Z 18008KT 10SM BKN013 OVC020 11/07 A3006 RMK AO2 T01060072=
202110061553 METAR KPAE 061553Z 19010KT 10SM FEW012 BKN023 OVC031 11/07 A3006 RMK AO2 SLP180 T01060072=
202110061534 SPECI KPAE 061534Z 18012KT 10SM FEW012 FEW023 OVC031 09/07 A3006 RMK AO2 T00940067=
202110061514 SPECI KPAE 061514Z 17011KT 10SM SCT013 BKN029 OVC034 09/07 A3006 RMK AO2 T00940067=
202110061453 METAR KPAE 061453Z 18009KT 10SM OVC013 09/07 A3006 RMK AO2 SLP179 T00940067 53020=
202110061414 SPECI KPAE 061414Z 19009KT 10SM BKN015 09/06 A3004 RMK AO2 T00890061=
202110061353 METAR KPAE 061353Z 18011KT 10SM CLR 09/06 A3002 RMK AO2 SLP169 T00890056=
202110061253 METAR KPAE 061253Z AUTO 17009KT 10SM FEW060 FEW100 09/06 A3002 RMK AO2 SLP165 T00890056=
202110061153 METAR KPAE 061153Z AUTO 17011G19KT 10SM CLR 09/06 A2999 RMK AO2 RAE06 SLP158 P0000 60000 70017 T00940056 10100 20094 50002=
202110061053 METAR KPAE 061053Z AUTO 16013G21KT 10SM -RA SCT037 OVC049 10/06 A3000 RMK AO2 RAB04E16B49 SLP158 P0000 T01000056=
202110060953 METAR KPAE 060953Z AUTO 15011G21KT 10SM BKN045 OVC050 10/05 A2999 RMK AO2 SLP158 T01000050=
202110060853 METAR KPAE 060853Z AUTO 14007KT 10SM OVC055 09/06 A2999 RMK AO2 SLP155 T00940061 51004=
202110060753 METAR KPAE 060753Z AUTO 14005KT 10SM FEW042 SCT055 09/07 A2999 RMK AO2 SLP155 T00940067 401330094=
202110060653 METAR KPAE 060653Z AUTO VRB05KT 10SM BKN037 BKN047 OVC055 09/07 A2998 RMK AO2 SLP153 T00940072=
202110060553 METAR KPAE 060553Z AUTO 15011KT 10SM CLR 09/07 A2997 RMK AO2 SLP151 T00940072 10122 20094 53004=
202110060453 METAR KPAE 060453Z AUTO 15009KT 10SM CLR 09/08 A2997 RMK AO2 SLP149 T00940078=
202110060353 METAR KPAE 060353Z AUTO 15011KT 10SM CLR 10/08 A2997 RMK AO2 SLP148 T01000078=
202110060253 METAR KPAE 060253Z 14009KT 10SM CLR 10/08 A2996 RMK AO2 SLP146 T01000078 53015=
202110060153 METAR KPAE 060153Z 15012G22KT 10SM CLR 11/08 A2994 RMK AO2 SLP141 T01060078=
202110060053 METAR KPAE 060053Z 16011KT 10SM FEW065 FEW090 12/08 A2993 RMK AO2 SLP134 T01170078=
202110052353 METAR KPAE 052353Z 15015G22KT 10SM OVC070 12/07 A2992 RMK AO2 RAB00E09 SLP131 P0000 60000 T01220072 10133 20122 53015=
202110052253 METAR KPAE 052253Z 16012G23KT 10SM OVC065 13/08 A2990 RMK AO2 PK WND 17026/2202 SLP126 T01280078=
202110052153 METAR KPAE 052153Z 17015G23KT 10SM OVC060 13/08 A2988 RMK AO2 PK WND 18028/2102 SLP120 T01280078=
202110052053 METAR KPAE 052053Z 18018G26KT 10SM OVC060 13/08 A2987 RMK AO2 PK WND 19026/2052 SLP116 T01280083 51023=
202110051953 METAR KPAE 051953Z 17014G26KT 10SM BKN014 OVC022 12/09 A2987 RMK AO2 PK WND 19029/1916 SLP116 T01220094=
202110051902 SPECI KPAE 051902Z 18016G23KT 10SM BKN014 OVC022 12/10 A2985 RMK AO2 T01220100=
202110051853 METAR KPAE 051853Z 18016G22KT 10SM BKN015 BKN022 12/10 A2984 RMK AO2 PK WND 18029/1829 SLP106 T01220100=
202110051800 SPECI KPAE 051800Z 16013G26KT 10SM BKN016 OVC021 13/11 A2981 RMK AO2 T01280106=
202110051753 METAR KPAE 051753Z 16017G26KT 10SM FEW016 SCT028 OVC038 13/11 A2981 RMK AO2 PK WND 17033/1728 SLP093 60017 T01280106 10133 20111 51020=
202110051653 METAR KPAE 051653Z 15012G23KT 9SM FEW016 SCT028 OVC037 12/10 A2979 RMK AO2 PK WND 14026/1639 RAE30 SLP087 P0000 T01170100=
202110051553 METAR KPAE 051553Z 14010G19KT 10SM -RA BKN030 OVC039 11/09 A2977 RMK AO2 SLP082 P0003 T01110094=
202110051542 SPECI KPAE 051542Z 15014G22KT 10SM -RA BKN034 OVC043 11/09 A2977 RMK AO2 P0003 T01110094=
202110051510 SPECI KPAE 051510Z 19008KT 5SM -RA BR BKN027 BKN042 OVC080 11/10 A2976 RMK AO2 P0002 T01110100=
202110051453 METAR KPAE 051453Z 16015G24KT 4SM -RA BR BKN042 BKN065 OVC075 12/11 A2975 RMK AO2 SLP073 P0011 60014 T01170106 50000=
202110051353 METAR KPAE 051353Z AUTO 16007KT 4SM -RA BR BKN055 OVC070 13/11 A2975 RMK AO2 RAB16 SLP073 P0003 T01280111=
202110051327 SPECI KPAE 051327Z AUTO 16009KT 10SM -RA SCT025 OVC070 13/11 A2975 RMK AO2 RAB16 P0000 T01330106=
202110051253 METAR KPAE 051253Z AUTO 16009KT 10SM BKN026 OVC032 13/11 A2975 RMK AO2 SLP074 T01330106=
202110051153 METAR KPAE 051153Z AUTO 15008KT 10SM OVC021 13/10 A2974 RMK AO2 SLP071 T01280100 10133 20111 58008=
202110051101 SPECI KPAE 051101Z AUTO 14008KT 10SM BKN023 BKN032 12/10 A2975 RMK AO2 T01220100=
202110051053 METAR KPAE 051053Z AUTO 15008KT 10SM FEW023 SCT028 BKN035 12/10 A2975 RMK AO2 SLP074 T01220100=
202110050953 METAR KPAE 050953Z AUTO VRB04KT 10SM FEW025 SCT034 SCT042 12/10 A2977 RMK AO2 SLP079 T01170100=
202110050853 METAR KPAE 050853Z AUTO 14006KT 10SM FEW027 SCT044 12/10 A2977 RMK AO2 SLP080 T01170100 58009=
202110050753 METAR KPAE 050753Z AUTO 14005KT 10SM CLR 12/10 A2978 RMK AO2 SLP083 T01170100 401610089=
202110050653 METAR KPAE 050653Z AUTO VRB05KT 10SM CLR 12/09 A2979 RMK AO2 SLP087 T01170094=
202110050553 METAR KPAE 050553Z AUTO 11004KT 10SM CLR 12/08 A2980 RMK AO2 SLP090 T01170083 10144 20111 55006=
202110050453 METAR KPAE 050453Z AUTO 10004KT 10SM CLR 12/08 A2979 RMK AO2 SLP089 T01170083=
202110050353 METAR KPAE 050353Z 00000KT 10SM CLR 11/09 A2981 RMK AO2 SLP094 T01110094=
202110050253 METAR KPAE 050253Z 02004KT 10SM BKN120 12/09 A2982 RMK AO2 SLP097 T01220089 58013=
202110050153 METAR KPAE 050153Z 01003KT 10SM CLR 12/08 A2983 RMK AO2 SLP102 T01220083=
202110050053 METAR KPAE 050053Z 33003KT 10SM CLR 13/09 A2984 RMK AO2 SLP105 T01330089=
202110042353 METAR KPAE 042353Z 34003KT 10SM CLR 14/08 A2985 RMK AO2 SLP110 T01440083 10161 20117 56022=
202110042253 METAR KPAE 042253Z 36005KT 10SM FEW030 16/08 A2987 RMK AO2 SLP114 T01560078=
202110042153 METAR KPAE 042153Z VRB03KT 10SM SCT022 15/08 A2989 RMK AO2 SLP121 T01500078=
202110042053 METAR KPAE 042053Z VRB04KT 10SM FEW024 14/08 A2992 RMK AO2 SLP133 T01440083 58020=
202110041953 METAR KPAE 041953Z VRB04KT 10SM FEW017 14/09 A2996 RMK AO2 SLP145 T01390089=
202110041906 SPECI KPAE 041906Z VRB03KT 10SM FEW011 13/09 A2998 RMK AO2 T01280089=
202110041853 METAR KPAE 041853Z 34005KT 10SM SCT011 BKN017 13/09 A2998 RMK AO2 SLP153 T01280089=
202110041849 SPECI KPAE 041849Z VRB04KT 10SM SCT011 SCT017 13/09 A2998 RMK AO2=
202110041753 METAR KPAE 041753Z 35003KT 10SM SCT010 OVC016 12/09 A2999 RMK AO2 SLP158 T01170089 10117 20089 57004=
202110041735 SPECI KPAE 041735Z VRB04KT 10SM FEW010 BKN015 BKN039 12/09 A3000 RMK AO2 T01170089=
202110041653 METAR KPAE 041653Z 35003KT 10SM SCT018 OVC039 11/08 A3000 RMK AO2 SLP159 T01060083=
202110041619 SPECI KPAE 041619Z 33003KT 10SM BKN018 OVC039 10/08 A3000 RMK AO2 T01000083=
202110041553 METAR KPAE 041553Z VRB03KT 10SM OVC040 10/08 A3000 RMK AO2 SLP161 T01000083=
202110041456 SPECI KPAE 041456Z 36005KT 10SM FEW018 OVC040 09/07 A3001 RMK AO2 T00940072=
202110041453 METAR KPAE 041453Z 01004KT 10SM BKN022 OVC032 09/07 A3001 RMK AO2 SLP162 T00940072 58005=
202110041431 SPECI KPAE 041431Z 35003KT 10SM BKN022 OVC040 09/07 A3001 RMK AO2 T00890072=
202110041353 METAR KPAE 041353Z 35003KT 10SM OVC040 09/07 A3002 RMK AO2 SLP167 T00890072=
202110041253 METAR KPAE 041253Z AUTO 34004KT 10SM OVC040 09/07 A3003 RMK AO2 SLP169 T00940072=
202110041153 METAR KPAE 041153Z AUTO 35005KT 10SM OVC040 09/07 A3002 RMK AO2 SLP167 T00940072 10100 20094 58008=
202110041053 METAR KPAE 041053Z AUTO 34004KT 10SM OVC040 09/06 A3003 RMK AO2 SLP170 T00940061=
202110041014 SPECI KPAE 041014Z AUTO 34003KT 10SM SCT029 OVC039 09/06 A3004 RMK AO2 T00940056=
202110040953 METAR KPAE 040953Z AUTO 34005KT 10SM BKN029 OVC039 10/06 A3004 RMK AO2 SLP173 T01000061=
202110040853 METAR KPAE 040853Z AUTO 33003KT 10SM OVC040 09/07 A3005 RMK AO2 SLP175 T00940067 58013=
202110040753 METAR KPAE 040753Z AUTO 34004KT 10SM OVC043 10/07 A3006 RMK AO2 SLP181 T01000067 401330094=
202110040653 METAR KPAE 040653Z AUTO 35008KT 10SM BKN043 10/07 A3007 RMK AO2 SLP184 T01000072=
202110040553 METAR KPAE 040553Z AUTO 35005KT 10SM OVC044 10/07 A3009 RMK AO2 SLP189 T01000067 10128 20100 56007=
202110040453 METAR KPAE 040453Z AUTO 34005KT 10SM OVC041 11/06 A3009 RMK AO2 SLP192 T01060056=
202110040353 METAR KPAE 040353Z AUTO 35006KT 10SM OVC036 11/08 A3010 RMK AO2 SLP192 T01110083=
202110040253 METAR KPAE 040253Z 34003KT 10SM OVC030 11/09 A3011 RMK AO2 SLP196 T01110089 56012=
202110040153 METAR KPAE 040153Z 33004KT 10SM OVC034 12/08 A3012 RMK AO2 SLP199 T01170083=
202110040053 METAR KPAE 040053Z 00000KT 10SM OVC035 12/07 A3012 RMK AO2 SLP200 T01220072=
202110032353 METAR KPAE 032353Z 36004KT 10SM OVC031 13/07 A3014 RMK AO2 SLP207 T01280072 10133 20117 58008=
202110032253 METAR KPAE 032253Z 35004KT 10SM BKN023 OVC038 13/08 A3016 RMK AO2 SLP213 T01280078=
202110032228 SPECI KPAE 032228Z 01006KT 10SM BKN022 OVC036 13/08 A3016 RMK AO2 T01280078=
202110032153 METAR KPAE 032153Z 35007KT 10SM FEW021 OVC036 12/08 A3017 RMK AO2 SLP215 T01220078=
202110032135 SPECI KPAE 032135Z 35008KT 10SM SCT020 OVC036 12/08 A3017 RMK AO2 T01220078=
202110032108 SPECI KPAE 032108Z 35008KT 10SM BKN020 OVC037 13/07 A3017 RMK AO2 T01280072=
202110032053 METAR KPAE 032053Z 34007KT 10SM FEW019 OVC037 13/08 A3017 RMK AO2 SLP216 T01280078 56005=
202110032051 SPECI KPAE 032051Z 33006KT 10SM SCT019 BKN033 OVC040 13/07 A3017 RMK AO2=
202110032002 SPECI KPAE 032002Z 35005KT 10SM OVC014 13/08 A3018 RMK AO2 T01280078=
202110031953 METAR KPAE 031953Z 34006KT 10SM OVC018 13/08 A3018 RMK AO2 SLP220 T01280078=
202110031853 METAR KPAE 031853Z 35007KT 10SM OVC019 12/07 A3019 RMK AO2 SLP221 T01170072=
202110031753 METAR KPAE 031753Z 34007KT 10SM OVC020 12/07 A3018 RMK AO2 SLP221 T01170072 10133 20106 51009=
202110031653 METAR KPAE 031653Z 35008KT 10SM OVC020 11/08 A3018 RMK AO2 SLP219 T01110078=
202110031553 METAR KPAE 031553Z 36008KT 10SM OVC018 11/09 A3017 RMK AO2 SLP215 T01060089=
202110031453 METAR KPAE 031453Z 01003KT 1 1/4SM BR OVC006 11/10 A3016 RMK AO2 CIG 003V009 SLP211 T01060100 53011=
202110031449 SPECI KPAE 031449Z 01006KT 1 3/4SM BR OVC007 11/10 A3015 RMK AO2 CIG 003V009=
202110031428 SPECI KPAE 031428Z 34005KT 10SM BKN007 OVC010 11/09 A3015 RMK AO2 T01110094=
202110031407 SPECI KPAE 031407Z 00000KT 8SM OVC013 12/10 A3014 RMK AO2 T01170100=
202110031353 METAR KPAE 031353Z 25003KT 10SM OVC015 12/09 A3014 RMK AO2 SLP208 T01170094=
202110031253 METAR KPAE 031253Z AUTO 18003KT 10SM OVC016 13/08 A3013 RMK AO2 SLP202 T01280078=
202110031153 METAR KPAE 031153Z AUTO 16007KT 10SM OVC015 13/07 A3012 RMK AO2 SLP200 60000 T01330067 10144 20128 53003=
202110031053 METAR KPAE 031053Z AUTO 15010KT 10SM OVC016 13/06 A3012 RMK AO2 SLP198 T01280061=
202110031034 SPECI KPAE 031034Z AUTO 15010G15KT 10SM BKN018 OVC085 13/07 A3012 RMK AO2 T01280067=
202110030953 METAR KPAE 030953Z AUTO 16013G21KT 10SM OVC075 13/07 A3011 RMK AO2 SLP197 T01280067=
202110030853 METAR KPAE 030853Z AUTO 15014G22KT 10SM OVC080 13/05 A3011 RMK AO2 RAE05B23E33 SLP197 P0000 60000 T01280050 50000=
202110030753 METAR KPAE 030753Z AUTO 15011KT 10SM -RA OVC075 13/06 A3012 RMK AO2 RAB46 SLP199 P0000 T01280056 401560083=
202110030653 METAR KPAE 030653Z AUTO 16011KT 10SM OVC080 14/06 A3011 RMK AO2 SLP197 T01390061=
202110030553 METAR KPAE 030553Z AUTO 15009KT 10SM OVC080 14/09 A3011 RMK AO2 SLP196 T01440089 10150 20139 58005=
202110030453 METAR KPAE 030453Z AUTO VRB04KT 10SM OVC085 14/11 A3012 RMK AO2 SLP200 T01440106=
202110030353 METAR KPAE 030353Z 11004KT 10SM BKN090 OVC100 14/10 A3012 RMK AO2 SLP202 T01440100=
202110030253 METAR KPAE 030253Z 10004KT 10SM OVC090 14/09 A3013 RMK AO2 SLP203 T01440094 56007=
202110030153 METAR KPAE 030153Z 04003KT 10SM OVC090 14/10 A3014 RMK AO2 SLP205 T01390100=
202110030053 METAR KPAE 030053Z 00000KT 10SM FEW100 14/11 A3014 RMK AO2 SLP206 T01390106=
202110022353 METAR KPAE 022353Z 34003KT 10SM SCT110 14/11 A3015 RMK AO2 SLP210 T01440106 10156 20106 58010=
202110022253 METAR KPAE 022253Z AUTO 36004KT 10SM CLR 15/11 A3016 RMK AO2 SLP214 T01500106=
202110022153 METAR KPAE 022153Z 32005KT 10SM CLR 14/11 A3018 RMK AO2 SLP219 T01440106=
202110022053 METAR KPAE 022053Z 35004KT 10SM CLR 14/11 A3018 RMK AO2 SLP221 T01440106 56013=
202110021931 SPECI KPAE 021931Z 17003KT 10SM FEW007 FEW012 SCT110 13/10 A3020 RMK AO2 T01330100=
202110021920 SPECI KPAE 021920Z VRB03KT 10SM SCT007 BKN012 BKN110 13/10 A3020 RMK AO2 T01330100=
202110021900 SPECI KPAE 021900Z 00000KT 6SM BR SCT003 OVC007 12/11 A3020 RMK AO2 CIG 006V009 T01220106=
202110021853 METAR KPAE 021853Z 00000KT 6SM BR BKN003 BKN007 OVC110 12/11 A3020 RMK AO2 SLP229 T01170106=
202110021807 SPECI KPAE 021807Z 26003KT 1/2SM R16R/P6000FT FG OVC002 11/10 A3022 RMK AO2 T01060100=
202110021800 SPECI KPAE 021800Z 25003KT 2SM FG OVC002 11/10 A3022 RMK AO2 T01060100=
202110021753 METAR KPAE 021753Z 27004KT 1/2SM R16R/5500VP6000FT FG OVC002 11/10 A3022 RMK AO2 SLP235 T01060100 10111 20083 57005=
202110021700 SPECI KPAE 021700Z 16004KT 2SM BR OVC004 11/10 A3022 RMK AO2 T01060100=
202110021653 METAR KPAE 021653Z 17003KT 1 1/4SM FG OVC003 11/10 A3022 RMK AO2 SLP235 T01060100=
202110021613 SPECI KPAE 021613Z 00000KT 1 1/4SM FG OVC002 10/10 A3023 RMK AO2 T01000100=
202110021606 SPECI KPAE 021606Z 00000KT 2 1/2SM FG OVC002 10/10 A3023 RMK AO2 T01000100=
202110021553 METAR KPAE 021553Z 00000KT 1 1/4SM R16R/4500VP6000FT FG OVC002 10/10 A3023 RMK AO2 SLP240 T01000100=
202110021538 SPECI KPAE 021538Z 00000KT 1/2SM R16R/1400V3000FT FG BKN002 10/10 A3024 RMK AO2 T01000100=
202110021500 SPECI KPAE 021500Z 00000KT 1/4SM R16R/0800V1000FT FG BKN002 09/09 A3023 RMK AO2 T00940094=
202110021453 METAR KPAE 021453Z 00000KT 1/2SM R16R/0800V1400FT FG BKN003 BKN095 OVC120 09/09 A3024 RMK AO2 SLP241 T00940094 53001=
202110021444 SPECI KPAE 021444Z 00000KT 1/2SM R16R/1000V1600FT FG BKN003 BKN095 OVC120 09/09 A3024 RMK AO2 T00940089=
202110021433 SPECI KPAE 021433Z 00000KT 1/2SM R16R/1800VP6000FT FG BKN003 BKN095 OVC120 09/09 A3024 RMK AO2 T00940089=
202110021425 SPECI KPAE 021425Z 29003KT 2SM R16R/5000VP6000FT BCFG SCT003 BKN095 OVC120 09/09 A3024 RMK AO2 T00890089=
202110021400 SPECI KPAE 021400Z 00000KT 2SM BCFG FEW090 SCT120 09/08 A3023 RMK AO2 T00890083=
202110021353 METAR KPAE 021353Z 17003KT 10SM FEW090 SCT110 09/08 A3023 RMK AO2 SLP240 T00890083=
202110021319 SPECI KPAE 021319Z AUTO VRB04KT 10SM SCT001 09/08 A3023 RMK AO2 T00890083=
202110021300 SPECI KPAE 021300Z AUTO VRB03KT 3SM R16R/2200VP6000FT BR OVC002 09/09 A3023 RMK AO2 T00890089=
202110021253 METAR KPAE 021253Z AUTO VRB04KT 1SM R16R/2200V5500FT BR VV002 09/08 A3023 RMK AO2 SLP238 T00890083=
202110021248 SPECI KPAE 021248Z AUTO 15005KT 3/4SM R16R/1800V5500FT BR VV002 09/09 A3023 RMK AO2=
202110021237 SPECI KPAE 021237Z AUTO 15003KT 3/4SM R16R/1600V2200FT BR VV002 09/08 A3024 RMK AO2 T00890083=
202110021222 SPECI KPAE 021222Z AUTO 00000KT 1/2SM R16R/1400V2800FT FG VV001 09/09 A3024 RMK AO2 T00890089=
202110021153 METAR KPAE 021153Z AUTO 10004KT 1/4SM R16R/1000V1200FT FG VV001 09/09 A3024 RMK AO2 SLP242 T00890089 10106 20083 55004=
202110021150 SPECI KPAE 021150Z AUTO 11003KT 1/4SM R16R/1000FT FG VV001 09/09 A3024 RMK AO2=
202110021053 METAR KPAE 021053Z AUTO 36003KT M1/4SM R16R/0600V0700FT FG VV001 09/09 A3025 RMK AO2 SLP245 T00940094=
202110021042 SPECI KPAE 021042Z AUTO 29003KT M1/4SM R16R/0600V0800FT FG VV001 09/09 A3025 RMK AO2 T00940089=
202110020953 METAR KPAE 020953Z AUTO 00000KT 1/4SM R16R/1000V1600FT FG VV001 08/08 A3025 RMK AO2 SLP246 T00830083=
202110020919 SPECI KPAE 020919Z AUTO 00000KT 1/4SM R16R/1000V1200FT FG VV001 09/09 A3026 RMK AO2 T00890089=
202110020908 SPECI KPAE 020908Z AUTO 00000KT 1/4SM R16R/1000V1200FT FG VV002 09/09 A3026 RMK AO2 T00890089=
202110020858 SPECI KPAE 020858Z AUTO 11005KT 1/4SM R16R/1200VP6000FT FG VV003 09/08 A3025 RMK AO2 T00890083=
202110020851 METAR KPAE 020851Z AUTO 11005KT 1SM R16R/P6000FT BR VV004 09/08 A3025 RMK AO2 SLP246 T00940083 58009=
202110020850 SPECI KPAE 020850Z AUTO 11004KT 1SM R16R/4500VP6000FT BR VV004 09/09 A3025 RMK AO2=
202110020833 SPECI KPAE 020833Z AUTO 11003KT 1/4SM R16R/1800V5500FT FG VV002 09/09 A3025 RMK AO2 T00940094=
202110020753 METAR KPAE 020753Z AUTO 00000KT 1/4SM R16R/0800V1400FT FG VV001 09/09 A3027 RMK AO2 SLP251 T00940094 401500083=
202110020750 SPECI KPAE 020750Z AUTO 00000KT 1/4SM R16R/1000V1400FT FG VV001 09/09 A3027 RMK AO2=
202110020743 SPECI KPAE 020743Z AUTO 00000KT 1/2SM R16R/1200V2000FT FG VV001 09/09 A3027 RMK AO2 T00940094=
202110020737 SPECI KPAE 020737Z AUTO 01003KT 1 3/4SM R16R/1600VP6000FT BR OVC001 09/09 A3027 RMK AO2 T00940089=
202110020722 SPECI KPAE 020722Z AUTO 00000KT 7SM BKN001 09/08 A3028 RMK AO2 T00940083=
202110020713 SPECI KPAE 020713Z AUTO 34003KT 7SM SCT001 SCT010 09/08 A3028 RMK AO2 T00890083=
202110020653 METAR KPAE 020653Z AUTO 00000KT 9SM CLR 09/08 A3028 RMK AO2 SLP255 T00890083=
202110020553 METAR KPAE 020553Z AUTO 09003KT 10SM CLR 10/09 A3026 RMK AO2 SLP247 T01000089 10133 20094 58007=
202110020453 METAR KPAE 020453Z 00000KT 10SM CLR 10/09 A3027 RMK AO2 SLP251 T01000089=
202110020353 METAR KPAE 020353Z 00000KT 10SM CLR 10/09 A3028 RMK AO2 SLP255 T01000089=
202110020253 METAR KPAE 020253Z 34003KT 10SM CLR 11/09 A3028 RMK AO2 SLP255 T01060089 56006=
202110020153 METAR KPAE 020153Z 35004KT 10SM CLR 11/08 A3028 RMK AO2 SLP254 T01110083=
202110020053 METAR KPAE 020053Z VRB04KT 10SM CLR 13/08 A3028 RMK AO2 SLP255 T01280083=
202110012353 METAR KPAE 012353Z 35005KT 10SM CLR 13/08 A3030 RMK AO2 SLP261 T01330083 10150 20122 58012=
202110012253 METAR KPAE 012253Z 35005KT 10SM CLR 14/08 A3031 RMK AO2 SLP265 T01440083=
202110012153 METAR KPAE 012153Z 36007KT 10SM CLR 14/08 A3033 RMK AO2 SLP269 T01440083=
202110012053 METAR KPAE 012053Z 33006KT 10SM CLR 14/09 A3033 RMK AO2 SLP272 T01440089 58007=
202110011953 METAR KPAE 011953Z VRB05KT 10SM CLR 14/09 A3035 RMK AO2 SLP277 T01390094=
202110011853 METAR KPAE 011853Z 34005KT 10SM FEW015 13/09 A3036 RMK AO2 SLP281 T01280094=
202110011753 METAR KPAE 011753Z 34006KT 10SM BKN011 12/09 A3036 RMK AO2 SLP281 T01220094 10128 20083 51002=
202110011728 SPECI KPAE 011728Z VRB04KT 10SM BKN011 13/09 A3035 RMK AO2 T01280094=
202110011721 SPECI KPAE 011721Z VRB05KT 10SM SCT010 12/09 A3035 RMK AO2 T01220094=
202110011707 SPECI KPAE 011707Z 36005KT 10SM BKN011 12/10 A3035 RMK AO2 T01170100=
202110011653 METAR KPAE 011653Z 34006KT 10SM FEW001 12/09 A3036 RMK AO2 SLP281 T01170094=
202110011648 SPECI KPAE 011648Z 34008KT 10SM FEW001 11/09 A3035 RMK AO2=
202110011635 SPECI KPAE 011635Z 36006KT 10SM BCFG CLR 11/09 A3035 RMK AO2 T01110094=
202110011618 METAR KPAE 011618Z COR 34004KT 10SM BCFG CLR 11/09 A3035 RMK AO2 SLP278 T01110094=
202110011553 METAR KPAE 011553Z 34004KT 10SM CLR 11/09 A3035 RMK AO2 SLP278 T01110094=
202110011453 METAR KPAE 011453Z 00000KT 10SM CLR 09/08 A3035 RMK AO2 SLP277 T00890083 53003=
202110011353 METAR KPAE 011353Z 00000KT 10SM CLR 09/08 A3033 RMK AO2 SLP273 T00940083=
202110011253 METAR KPAE 011253Z AUTO 13003KT 10SM CLR 10/09 A3033 RMK AO2 SLP273 T01000089=
202110011153 METAR KPAE 011153Z AUTO 00000KT 10SM BKN055 10/09 A3034 RMK AO2 SLP274 70090 T01000089 10122 20100 51007=
202110011053 METAR KPAE 011053Z AUTO 00000KT 10SM FEW029 SCT036 BKN049 11/09 A3033 RMK AO2 SLP272 T01060094=
202110010953 METAR KPAE 010953Z AUTO 11003KT 10SM FEW041 OVC049 11/09 A3032 RMK AO2 SLP269 T01060094=
202110010853 METAR KPAE 010853Z AUTO 00000KT 10SM OVC055 11/10 A3031 RMK AO2 SLP266 T01110100 51012=
202110010844 SPECI KPAE 010844Z AUTO 10003KT 10SM FEW019 BKN049 OVC055 11/10 A3031 RMK AO2 T01110100=
202110010804 SPECI KPAE 010804Z AUTO 00000KT 9SM BKN017 OVC070 10/10 A3031 RMK AO2 T01000100=
202110010753 METAR KPAE 010753Z AUTO 00000KT 9SM SCT016 BKN070 10/09 A3030 RMK AO2 SLP262 T01000094 401500100=
202110010713 SPECI KPAE 010713Z AUTO 00000KT 10SM SCT028 BKN047 11/10 A3029 RMK AO2 T01110100=
202110010653 METAR KPAE 010653Z AUTO 15003KT 10SM BKN028 11/11 A3029 RMK AO2 SLP259 T01110106=
202110010553 METAR KPAE 010553Z AUTO 15004KT 10SM OVC027 12/11 A3028 RMK AO2 SLP254 T01170106 10133 20117 51012=
202110010453 METAR KPAE 010453Z VRB03KT 10SM BKN025 12/11 A3027 RMK AO2 SLP251 T01170111=
202110010353 METAR KPAE 010353Z 00000KT 10SM BKN075 12/11 A3025 RMK AO2 SLP244 T01220106=
202110010253 METAR KPAE 010253Z 15005KT 10SM FEW030 12/11 A3024 RMK AO2 SLP240 T01220111 53009=
202110010153 METAR KPAE 010153Z 16006KT 10SM OVC030 12/11 A3023 RMK AO2 SLP237 T01220106=
202110010106 SPECI KPAE 010106Z 14004KT 10SM FEW007 BKN022 BKN028 13/11 A3022 RMK AO2 T01280111=
202110010053 METAR KPAE 010053Z 15009KT 10SM SCT011 BKN021 13/11 A3021 RMK AO2 SLP231 T01280111=

# No short TAF reports from KPAE in databse.

###################################
#  large TAF from KPAE
###################################
202110312324 TAF KPAE 312324Z 0100/0124 34005KT P6SM SKC FM010300 VRB04KT P6SM
                       SKC FM011600 10005KT P6SM BKN200 FM012100
                       16008KT P6SM -RA BKN060 OVC100=
202110311728 TAF KPAE 311728Z 3118/0118 03005KT P6SM SKC FM010200 VRB03KT P6SM
                       SKC FM011400 VRB03KT P6SM SCT250=
202110311128 TAF KPAE 311128Z 3112/0112 03005KT P6SM SKC FM010200 05003KT P6SM
                       SKC=
202110310530 TAF KPAE 310530Z 3106/0106 02005KT P6SM SKC FM312000 34005KT P6SM
                       SKC=
202110302322 TAF KPAE 302322Z 3100/3124 35008KT P6SM SKC FM310300 02004KT P6SM
                       SKC FM312000 34006KT P6SM FEW250=
202110301722 TAF KPAE 301722Z 3018/3118 35010KT P6SM SKC FM310200 01005KT P6SM
                       SKC=
202110301125 TAF KPAE 301125Z 3012/3112 35007KT P6SM SKC FM310500 03005KT P6SM
                       SKC=
202110300523 TAF KPAE 300523Z 3006/3106 35004KT P6SM SKC FM301800 36004KT P6SM
                       SKC=
202110300150 KPAE 300150Z 3002/3024 36006KT P6SM FEW050 FM300500 01004KT P6SM
                       SKC FM301800 36004KT P6SM SKC=
202110292320 TAF KPAE 292320Z 3000/3024 36007KT P6SM OVC030 FM300500 01003KT
                       P6SM SCT050 FM301800 36004KT P6SM SKC=
202110291720 TAF KPAE 291720Z 2918/3018 VRB04KT P6SM BKN030 OVC040 FM292100
                       35005KT P6SM SCT050 FM300000 35003KT P6SM
                       SCT050=
202110291136 TAF KPAE 291136Z 2912/3012 35005KT 5SM -RA BR SCT002 OVC007 FM291700
                       32005KT P6SM SCT010 OVC015 FM292100 35005KT
                       P6SM SCT050=
202110290531 TAF KPAE 290531Z 2906/3006 32005KT 3SM RA BR BKN002 OVC015 FM290900
                       32005KT 3SM -RA BR SCT005 OVC007 FM292000
                       32005KT P6SM BKN015 FM292200 34005KT P6SM
                       SCT035=
202110290019 KPAE 290019Z 2900/2924 34006KT 2SM -RA BR BKN008 BKN020
                      TEMPO 2900/2904 1/2SM RA FG BKN002 OVC007
                       FM290400 35005KT 2SM RA BR OVC005 FM290900
                       32005KT 3SM -RA BR OVC010 FM291700 31003KT
                       4SM BR OVC007 FM292000 32005KT P6SM BKN015=
202110282320 TAF KPAE 282320Z 2900/2924 18011G26KT 2SM RA BR BKN008 BKN020 FM290300
                       23005KT 3SM -RA BR OVC007 FM290900 25005KT
                       3SM -RA BR OVC010 FM291700 31003KT 4SM BR
                       OVC007 FM292000 32005KT P6SM BKN015=
202110281720 TAF KPAE 281720Z 2818/2918 17015G25KT 4SM RA BR BKN005 OVC015 FM282200
                       18011G22KT 1 1/2SM RA BR OVC009 FM290300
                       23005KT 3SM -RA BR OVC007 FM291700 31003KT
                       4SM BR OVC007=
202110281131 TAF KPAE 281131Z 2812/2912 13007G17KT 3SM -RA BR SCT005 OVC015
                       FM281500 17015G25KT 4SM RA BR OVC015 FM282200
                       18011G22KT 3SM -RA BR OVC015 FM290300 29005KT
                       3SM -RA BR OVC007=
202110280539 TAF KPAE 280539Z 2806/2906 13011G17KT P6SM -RA SCT010 OVC035 FM280700
                       13011G17KT 4SM -RA BR OVC010 FM281500 17015G20KT
                       4SM RA BR OVC015 FM282200 18011G19KT 3SM
                       -RA BR OVC015=
202110272323 TAF KPAE 272323Z 2800/2824 17009KT P6SM SCT025 BKN035 FM280400
                       11005KT 5SM -RA BR OVC020 FM280700 13007KT
                       4SM -RA BR OVC010 FM281500 17010G20KT 4SM
                       RA BR OVC015 FM282100 18015G25KT 3SM -RA
                       BR OVC015=
202110272107 KPAE 272107Z 2721/2818 21014G22KT P6SM BKN021 FM280400 11005KT
                       5SM -RA BR OVC020 FM280700 13007KT 4SM -RA
                       BR OVC010 FM281500 17010G20KT 4SM RA BR
                       OVC015=
202110271733 TAF KPAE 271733Z 2718/2818 17008KT P6SM BKN015 OVC020 FM272300
                       18005KT P6SM -RA SCT020 OVC050 FM280400
                       11005KT 5SM -RA BR OVC020 FM280700 13007KT
                       4SM -RA BR OVC010 FM281500 17010G20KT 4SM
                       RA BR OVC015=
202110271503 KPAE 271503Z 2715/2812 18012KT P6SM BKN018 FM272300 18005KT P6SM
                       -RA SCT020 OVC050 FM280400 11005KT 5SM -RA
                       BR OVC020 FM280700 13007KT 4SM -RA BR OVC010=
202110271120 TAF KPAE 271120Z 2712/2812 16007KT P6SM SKC FM272300 18005KT P6SM
                       -RA SCT020 OVC050 FM280400 11005KT 5SM -RA
                       BR OVC020 FM280700 13007KT 4SM -RA BR OVC010=
202110270534 TAF KPAE 270534Z 2706/2806 22011G21KT P6SM SCT015 BKN100
                      TEMPO 2706/2710 -SHRA BKN015 OVC060 FM271000
                       19010KT P6SM SCT020 BKN080 FM272300 18005KT
                       P6SM -RA SCT020 OVC050 FM280400 11006KT
                       5SM -RA BR OVC020=
202110262320 TAF KPAE 262320Z 2700/2724 17018G30KT P6SM SCT015 SCT050 FM270500
                       18012KT P6SM VCSH SCT020 OVC035 FM270900
                       19008KT P6SM BKN020 OVC035 FM271400 18005KT
                       P6SM OVC025 FM272100 19009KT P6SM OVC050=
202110261720 TAF KPAE 261720Z 2618/2718 17012G20KT P6SM OVC035 FM262200 19014G24KT
                       P6SM -SHRA SCT020 OVC035 FM270900 19008KT
                       P6SM BKN020 OVC035 FM271400 18005KT P6SM
                       OVC025=
202110261139 TAF KPAE 261139Z 2612/2712 17012G20KT P6SM -RA SCT020 BKN035 OVC050
                       FM262200 19014G24KT P6SM -SHRA SCT020 OVC035
                       FM270900 19008KT P6SM BKN020 OVC035=
202110260545 TAF KPAE 260545Z 2606/2706 17015G25KT P6SM SCT050 BKN100 FM260900
                       17012G20KT P6SM SCT025 BKN050 OVC100 FM261700
                       17012G20KT P6SM -RA SCT025 OVC040 FM270000
                       19014G24KT P6SM -SHRA SCT025 OVC040=
202110252320 TAF KPAE 252320Z 2600/2624 16016G28KT P6SM -RA OVC030 FM260700
                       18012KT P6SM -SHRA SCT020 OVC030 FM261800
                       17013G22KT 6SM -SHRA BR OVC020=
202110251720 TAF KPAE 251720Z 2518/2618 16016G28KT P6SM -RA OVC045 FM260700
                       18012KT P6SM -SHRA SCT025 BKN040 OVC060=
202110251140 TAF KPAE 251140Z 2512/2612 16018G30KT P6SM SCT045 OVC070 FM251800
                       16018G30KT P6SM -RA OVC045 FM260700 18012KT
                       P6SM -SHRA SCT025 BKN040 OVC060=
202110250542 TAF KPAE 250542Z 2506/2606 16012G20KT P6SM SCT050 BKN100 FM251100
                       16015G25KT P6SM -RA OVC045 FM251800 16022G32KT
                       P6SM -RA OVC045=
202110242326 TAF KPAE 242326Z 2500/2524 16020G32KT P6SM VCSH OVC040 FM250600
                       17016G25KT P6SM VCSH OVC030 FM251200 17017G26KT
                       P6SM -RA OVC030=
202110241720 TAF KPAE 241720Z 2418/2518 15009KT P6SM -RA OVC060 FM241900 12014G24KT
                       5SM -RA BR OVC060 FM242300 16022G32KT P6SM
                       -SHRA OVC040 FM250600 17016G25KT P6SM VCSH
                       OVC030=
202110241131 TAF KPAE 241131Z 2412/2512 12014G24KT P6SM -RA OVC060 FM242300
                       16022G32KT P6SM -SHRA OVC040=
202110240605 TAF KPAE 240605Z 2406/2506 11008KT P6SM SCT025 BKN070
                      TEMPO 2406/2409 -SHRA BKN025 OVC070 FM241100
                       13011KT P6SM -RA BKN050 OVC100 FM241800
                       16015G24KT P6SM -RA OVC040=
202110232320 TAF KPAE 232320Z 2400/2424 18009KT P6SM SCT015 OVC030 FM240300
                       16006KT P6SM BKN040 FM241100 13011KT P6SM
                       -RA BKN050 OVC100 FM241800 16015G24KT P6SM
                       -RA OVC040=
202110231720 TAF KPAE 231720Z 2318/2418 16011KT P6SM -RA OVC035 FM232200 18009KT
                       P6SM VCSH BKN015 OVC030 FM240300 16006KT
                       P6SM BKN040 FM241100 13011KT P6SM -RA BKN050
                       OVC100=
202110231132 TAF KPAE 231132Z 2312/2412 VRB04KT P6SM -RA BKN040 OVC060 FM231600
                       16011KT 5SM -RA BR SCT015 OVC030 FM232200
                       18009KT P6SM VCSH BKN015 OVC030 FM240300
                       16008KT P6SM BKN040 FM241100 13011KT P6SM
                       -RA BKN050 OVC100=
202110230527 TAF KPAE 230527Z 2306/2406 17010KT P6SM SCT015 BKN060 FM231200
                       16009KT P6SM -RA BKN020 OVC050 FM231600
                       17012KT 5SM -RA BR OVC015 FM232200 18011KT
                       P6SM VCSH SCT020 BKN040 FM240300 16008KT
                       P6SM BKN050=
202110222322 TAF KPAE 222322Z 2300/2324 20010KT P6SM VCSH SCT015 OVC040
                      TEMPO 2300/2304 -SHRA BKN015 OVC040 FM230900
                       18006KT P6SM BKN020 BKN050 FM231600 18008KT
                       5SM -RA BR BKN018 OVC030 FM232200 21010KT
                       P6SM VCSH SCT020 BKN040=
202110221720 TAF KPAE 221720Z 2218/2318 18010KT P6SM OVC050
                      TEMPO 2218/2222 5SM -SHRA BR OVC035 FM231000
                       16008KT P6SM SCT020 OVC040
                      TEMPO 2312/2316 -RA BKN020 OVC040 FM231600
                       18010KT 5SM -RA BR BKN020 OVC040=
202110221127 TAF KPAE 221127Z 2212/2312 15008KT P6SM VCSH SCT010 OVC050 FM221500
                       17010KT 6SM -RA BR BKN012 OVC030 FM222300
                       18009KT P6SM VCSH SCT020 BKN040 FM231000
                       16012KT P6SM -RA OVC025=
202110220528 TAF KPAE 220528Z 2206/2306 19010G18KT 4SM RA BR SCT020 OVC040 FM220700
                       18010KT 6SM -RA BR OVC025 FM221200 17006KT
                       6SM -RA BR BKN020 OVC030 FM221900 19008KT
                       P6SM VCSH BKN030 OVC040 FM230200 18007KT
                       P6SM VCSH BKN040=
202110220347 KPAE 220347Z 2204/2224 19010G18KT P6SM -RA OVC040 FM220600 16008KT
                       6SM RA BR OVC022 FM221200 17006KT 6SM -RA
                       BR OVC015 FM221900 19008KT P6SM -SHRA BKN018
                       OVC035=
202110220109 KPAE 220109Z 2201/2224 17012G20KT P6SM -RA OVC060 FM220200 16010G18KT
                       P6SM -RA OVC040 FM220500 16008KT 6SM RA
                       BR OVC022 FM221200 17006KT 6SM -RA BR OVC015
                       FM221900 19008KT P6SM -SHRA BKN018 OVC035=
202110212339 TAF KPAE 212339Z 2200/2224 13012G20KT P6SM VCSH OVC060 FM220200
                       16010G18KT P6SM -RA OVC040 FM220500 16008KT
                       6SM RA BR OVC022 FM221200 17006KT 6SM -RA
                       BR OVC015 FM221900 19008KT P6SM -SHRA BKN018
                       OVC035=
202110212006 KPAE 212006Z 2120/2218 11011G18KT P6SM BKN080 OVC100 FM220000 15013G20KT
                       P6SM OVC060 FM220300 16010G18KT P6SM -RA
                       OVC040 FM220600 16008KT P6SM -RA OVC025=
202110211741 TAF KPAE 211741Z 2118/2218 15012G22KT P6SM SCT080 OVC100 FM220100
                       16010KT P6SM -RA OVC040 FM220600 16008KT
                       P6SM -RA OVC025=
202110211126 TAF KPAE 211126Z 2112/2212 12010KT P6SM BKN100 FM211800 15012G22KT
                       P6SM SCT080 OVC100 FM220100 16010KT P6SM
                       -RA OVC040 FM220600 16008KT P6SM -RA OVC025=
202110210529 TAF KPAE 210529Z 2106/2206 VRB03KT P6SM BKN080 BKN120 FM210900
                       10005KT P6SM BKN070 BKN100 FM211800 15012KT
                       P6SM BKN070 OVC100 FM220100 16010KT P6SM
                       -RA OVC040=
202110210232 KPAE 210232Z 2103/2124 17006KT P6SM BKN050 BKN100 FM210900 10005KT
                       P6SM BKN050 FM211800 15010KT P6SM BKN070
                       OVC120=
202110202320 TAF KPAE 202320Z 2100/2124 17014G22KT P6SM VCSH SCT030 BKN050 FM210300
                       16009KT P6SM BKN045 BKN100 FM210900 10005KT
                       P6SM BKN050 FM211800 15010KT P6SM BKN070
                       OVC120=
202110201732 TAF KPAE 201732Z 2018/2118 17012G22KT 6SM -RA BR OVC050 FM202200
                       17012G18KT P6SM -SHRA SCT025 OVC050 FM210200
                       16009KT P6SM BKN045 BKN100 FM210900 11004KT
                       P6SM OVC070=
202110201146 TAF KPAE 201146Z 2012/2112 19012G20KT P6SM -RA BKN050 OVC070 FM201600
                       20013G21KT P6SM -RA SCT020 OVC040 FM201800
                       18015G22KT 6SM -RA BR BKN018 OVC030 FM202200
                       17012G18KT P6SM -SHRA SCT015 OVC035 FM210200
                       16011KT P6SM BKN045 BKN100 FM210900 11004KT
                       P6SM OVC040=
202110200526 TAF KPAE 200526Z 2006/2106 VRB03KT P6SM SCT120 BKN200 FM201200
                       18009KT P6SM OVC070 FM201600 17013G21KT
                       P6SM -RA SCT020 OVC040 FM201800 18015G22KT
                       6SM -RA BR BKN018 OVC030 FM202200 17012G18KT
                       P6SM -SHRA SCT015 OVC035 FM210200 16011KT
                       P6SM BKN045 BKN100=
202110192320 TAF KPAE 192320Z 2000/2024 16005KT P6SM SCT200 FM200500 VRB03KT
                       P6SM SCT150 FM201500 17009G21KT P6SM -RA
                       SCT015 OVC050 FM202200 17011G22KT P6SM SCT015
                       OVC035=
202110191721 TAF KPAE 191721Z 1918/2018 VRB05KT P6SM SCT200 FM201000 14006KT
                       P6SM OVC120 FM201500 17009G19KT P6SM -RA
                       OVC050=
202110191130 TAF KPAE 191130Z 1912/2012 11006KT P6SM SCT002 SCT040
                      TEMPO 1914/1916 6SM BR FM191600 11006KT P6SM
                       SCT200 FM201000 11006KT P6SM OVC120=
202110190538 TAF KPAE 190538Z 1906/2006 12006KT P6SM OVC040 FM191200 00000KT
                       P6SM SCT045 FM191400 00000KT 5SM BR SCT002
                       FM191600 11006KT P6SM SCT200=
202110182334 TAF KPAE 182334Z 1900/1924 33002KT P6SM OVC050 FM190500 VRB02KT
                       P6SM SCT050 FM191500 10002KT P6SM SCT005
                       BKN020 FM191900 VRB03KT P6SM SCT250=
202110181724 TAF KPAE 181724Z 1818/1918 35003KT P6SM SCT010 BKN050 FM182100
                       31003KT P6SM BKN050 FM190100 VRB03KT P6SM
                       SCT040 FM191500 05003KT P6SM SCT005 BKN020=
202110181126 TAF KPAE 181126Z 1812/1912 36003KT P6SM SCT005 OVC010
                      TEMPO 1813/1816 2SM -DZ BR BKN005 FM181800
                       34003KT P6SM SCT007 OVC015 FM182200 31005KT
                       P6SM SCT020 BKN035 FM190100 VRB03KT P6SM
                       SCT040=
202110180907 KPAE 180907Z 1809/1906 34005KT P6SM SCT007 OVC015 FM181200 VRB03KT
                       4SM -DZ BR SCT004 BKN008 OVC015
                      TEMPO 1813/1817 2SM BR FM181800 28004KT P6SM
                       SCT006 BKN012 OVC020 FM182100 31005KT P6SM
                       SCT020 BKN035 FM190100 VRB03KT P6SM SCT040=
202110180524 TAF KPAE 180524Z 1806/1906 34005KT P6SM VCSH OVC030 FM181000 VRB03KT
                       4SM -DZ BR SCT004 BKN008 OVC015
                      TEMPO 1813/1817 2SM BR FM181800 28004KT P6SM
                       SCT006 BKN012 OVC020 FM182100 31005KT P6SM
                       SCT020 BKN035 FM190100 VRB03KT P6SM SCT040=
202110172333 TAF KPAE 172333Z 1800/1824 33006KT P6SM -SHRA SCT006 BKN011 OVC020
                       FM180600 33006KT 3SM -DZ BR SCT003 BKN006
                       OVC011 FM181000 VRB03KT P6SM SCT004 BKN008
                       OVC015 FM181300 VRB03KT P6SM SCT006 BKN012
                       OVC020 FM182000 VRB03KT P6SM SCT020 BKN035=
202110172005 KPAE 172005Z 1720/1818 33006KT P6SM OVC008 FM180000 33006KT P6SM
                       -SHRA SCT006 BKN011 OVC020 FM180400 33006KT
                       3SM -DZ BR SCT003 BKN006 OVC011 FM181000
                       VRB03KT P6SM SCT004 BKN008 OVC015=
202110171741 TAF KPAE 171741Z 1718/1818 14006KT P6SM OVC050 FM180000 VRB03KT
                       P6SM -SHRA SCT025 OVC040 FM180500 VRB03KT
                       P6SM SCT006 BKN011 OVC020 FM180800 VRB03KT
                       3SM -DZ BR SCT003 BKN006 OVC011 FM181500
                       VRB03KT P6SM SCT004 BKN008 OVC015=
202110171128 TAF KPAE 171128Z 1712/1812 15008KT P6SM BKN050 OVC120 FM171600
                       16009KT P6SM OVC050 FM172000 26011KT P6SM
                       OVC040
                      TEMPO 1723/1803 -SHRA OVC030 FM180400 32007KT
                       6SM -RA BR OVC022 FM181000 34004KT 4SM -DZ
                       BR OVC015=
202110170528 TAF KPAE 170528Z 1706/1806 15010KT P6SM SCT050 BKN120 FM170900
                       16008KT P6SM BKN050 OVC080 FM171500 16009KT
                       P6SM BKN025 OVC050 FM172000 26011KT P6SM
                       VCSH BKN028 OVC035
                      TEMPO 1722/1802 -SHRA OVC025 FM180300 32005KT
                       P6SM VCSH OVC020=
202110162327 TAF KPAE 162327Z 1700/1724 16014KT P6SM SCT070 BKN200 FM170800
                       16008KT P6SM BKN050 OVC080 FM171500 16008KT
                       P6SM SCT011 OVC020 FM171800 19008KT P6SM
                       -SHRA SCT006 BKN011 OVC020=
202110161741 TAF KPAE 161741Z 1618/1718 15012G20KT P6SM BKN035 OVC070 FM162200
                       15012G20KT P6SM BKN060 OVC150 FM170300 15008KT
                       P6SM SCT070 OVC150 FM171000 15008KT P6SM
                       BKN050 OVC080=
202110161120 TAF KPAE 161120Z 1612/1712 15010KT P6SM -RA SCT040 BKN070 OVC090
                       FM161600 19012KT P6SM SCT020 BKN050 OVC100
                       FM162300 19015G20KT 6SM -RA BKN022 OVC040
                       FM170300 16008KT P6SM OVC050=
202110160858 KPAE 160858Z 1609/1706 14010KT P6SM -RA SCT060 SCT080 OVC100 FM161600
                       19012KT P6SM SCT020 BKN050 OVC100 FM162300
                       19012KT P6SM -RA BKN022 OVC040 FM170300
                       16008KT P6SM OVC050=
202110160522 TAF KPAE 160522Z 1606/1706 14010G20KT P6SM -RA OVC090
                      TEMPO 1606/1607 -RA SCT025 OVC040 FM160700
                       17012G22KT P6SM -RA BKN022 OVC040 FM161600
                       19012KT P6SM SCT020 BKN050 OVC100 FM162300
                       19012KT P6SM -RA BKN022 OVC040 FM170300
                       16008KT P6SM OVC050=
202110152323 TAF KPAE 152323Z 1600/1624 17012G22KT P6SM BKN040 OVC070
                      TEMPO 1603/1607 -RA SCT025 OVC040 FM160700
                       17012G22KT P6SM -RA BKN022 OVC040 FM161600
                       19012KT P6SM SCT020 BKN050 OVC100 FM162300
                       19012KT P6SM -RA BKN022 OVC040=
202110151720 TAF KPAE 151720Z 1518/1618 16014G22KT P6SM -RA SCT025 OVC050
                      TEMPO 1518/1522 5SM -RA BR BKN025 OVC040
                       FM160600 18012G22KT P6SM -RA BKN025 OVC040=
202110151125 TAF KPAE 151125Z 1512/1612 16015G20KT 3SM -RA BR BKN007 BKN022
                       OVC030 FM151900 16011KT P6SM VCSH OVC015
                       FM160300 16015KT P6SM -RA OVC040 FM160900
                       15010KT P6SM -RA OVC050=
202110150520 TAF KPAE 150520Z 1506/1606 18012KT P6SM VCSH OVC015 FM151200 15010KT
                       P6SM VCSH OVC005 FM151900 16011KT P6SM VCSH
                       OVC015 FM160300 16010KT P6SM -RA OVC040=
202110142335 TAF KPAE 142335Z 1500/1524 12005KT P6SM VCSH BKN015 OVC035 FM150600
                       15007KT P6SM VCSH SCT010 OVC015 FM151200
                       15010KT P6SM VCSH OVC005 FM151900 16011KT
                       P6SM VCSH OVC015=
202110141733 TAF KPAE 141733Z 1418/1518 13005KT 4SM BR VCSH OVC010
                      TEMPO 1418/1420 3/4SM BR OVC002 FM142000
                       13005KT P6SM VCSH BKN020 OVC045 FM150600
                       15010KT P6SM -SHRA SCT010 OVC020=
202110141515 KPAE 141515Z 1415/1512 VRB04KT 3SM BR VCSH OVC010
                      TEMPO 1415/1416 1 1/2SM BR OVC004 FM141600
                       18005KT P6SM VCSH OVC010 FM150000 15006KT
                       P6SM OVC020 FM150600 15010KT P6SM OVC030=
202110141122 TAF KPAE 141122Z 1412/1512 VRB04KT P6SM VCSH OVC015
                      TEMPO 1412/1416 -SHRA OVC007 FM141600 18005KT
                       P6SM OVC010 FM150000 15006KT P6SM OVC020
                       FM150600 15010KT P6SM OVC030=
202110140858 KPAE 140858Z 1409/1506 15005KT P6SM VCSH OVC030 FM141100 16006KT
                       P6SM VCSH OVC015
                      TEMPO 1412/1416 -SHRA OVC007 FM141600 18005KT
                       P6SM OVC010 FM150000 15006KT P6SM OVC020=
202110140520 TAF KPAE 140520Z 1406/1506 VRB06KT P6SM VCSH OVC080 FM141100 16006KT
                       P6SM VCSH OVC015
                      TEMPO 1412/1416 -SHRA OVC007 FM141600 18005KT
                       P6SM OVC010 FM150000 15006KT P6SM OVC020=
202110132336 TAF KPAE 132336Z 1400/1424 21005KT P6SM SCT030 BKN050 FM140600
                       17005KT P6SM VCSH OVC025 FM141100 16006KT
                       P6SM VCSH OVC015
                      TEMPO 1412/1416 -SHRA OVC007 FM141600 18005KT
                       P6SM OVC010=
202110131720 TAF KPAE 131720Z 1318/1418 VRB03KT P6SM BKN010 OVC030 FM131900
                       26004KT P6SM SCT020 BKN050 FM140000 21005KT
                       P6SM BKN050 FM140600 17005KT P6SM VCSH OVC025
                       FM141100 16006KT P6SM VCSH OVC015=
202110131348 KPAE 131348Z 1314/1412 25004KT P6SM VCSH FEW010 BKN040 OVC070 FM131500
                       19003KT P6SM FEW015 BKN045
                      TEMPO 1315/1319 BKN015 FM131900 19004KT P6SM
                       BKN050 FM140300 17005KT P6SM VCSH OVC025=
202110131120 TAF KPAE 131120Z 1312/1412 15005KT 6SM -SHRA BKN006 OVC012 FM131500
                       19003KT P6SM VCSH OVC012 FM131800 19004KT
                       P6SM OVC020 FM132000 24003KT P6SM SCT025
                       BKN050 FM140300 17005KT P6SM VCSH OVC025=
202110130822 KPAE 130822Z 1308/1406 16004KT P6SM -SHRA BKN008 OVC012 FM131200
                       VRB04KT P6SM VCSH BKN006 OVC020 FM132100
                       27003KT P6SM BKN050=
202110130526 TAF KPAE 130526Z 1306/1406 16004KT P6SM -SHRA BKN019 OVC030 FM131200
                       VRB04KT P6SM VCSH BKN009 OVC020 FM132100
                       27003KT P6SM BKN050=
202110122335 TAF KPAE 122335Z 1300/1324 16014KT P6SM -RA OVC050 FM130500 VRB04KT
                       5SM -SHRA BKN015 OVC030 FM131200 VRB04KT
                       P6SM VCSH BKN009 OVC020 FM132100 27003KT
                       P6SM BKN050=
202110121742 TAF KPAE 121742Z 1218/1318 16011KT P6SM OVC120 FM122100 16014KT
                       P6SM OVC060 FM130100 22008KT 5SM -RA BR
                       OVC030 FM130500 VRB04KT 5SM -SHRA BKN015
                       OVC030 FM131100 VRB04KT P6SM VCSH BKN012
                       OVC020=
202110121120 TAF KPAE 121120Z 1212/1312 14006KT P6SM SCT200 FM121800 16006KT
                       P6SM BKN150 FM122100 16014KT P6SM OVC060
                       FM130200 22008KT 5SM -RA BR OVC030 FM130500
                       VRB04KT 5SM -SHRA BKN012 OVC030 FM131100
                       VRB04KT P6SM VCSH BKN012 BKN030=
202110120520 TAF KPAE 120520Z 1206/1306 00000KT P6SM SKC FM121100 00000KT P6SM
                       SCT005 BKN200 FM121800 16006KT P6SM OVC120
                       FM122100 16012KT P6SM OVC060=
202110112320 TAF KPAE 112320Z 1200/1224 30006KT P6SM SCT050 FM120300 04005KT
                       P6SM SKC FM121100 14004KT P6SM SCT008 SCT120
                       BKN200 FM121800 15006KT P6SM SCT015 BKN100
                       OVC200=
202110111732 TAF KPAE 111732Z 1118/1218 32005KT P6SM FEW020 SCT045 FM112200
                       33005KT P6SM SCT050 FM120300 04004KT P6SM
                       SKC FM121100 14004KT P6SM SCT008 SCT120
                       BKN200 FM121600 15006KT P6SM SCT015 BKN120
                       OVC200=
202110111120 TAF KPAE 111120Z 1112/1212 35004KT P6SM BKN050 FM112100 35007KT
                       P6SM SCT050 FM120300 04004KT P6SM SKC FM121100
                       14004KT P6SM SCT008 SCT120 BKN200=
202110110520 TAF KPAE 110520Z 1106/1206 VRB04KT P6SM VCSH BKN050 FM111000 VRB04KT
                       P6SM BKN030 FM112100 32005KT P6SM SCT040
                       FM120500 00000KT P6SM BKN250=
202110102339 TAF KPAE 102339Z 1100/1124 VRB05KT P6SM VCSH SCT020 BKN090 FM110300
                       01003KT P6SM VCSH BKN070 FM111200 35003KT
                       P6SM OVC020 FM111900 34004KT P6SM BKN050=
202110101736 TAF KPAE 101736Z 1018/1118 16007KT P6SM -SHRA FEW045 BKN080 FM102200
                       VRB06KT P6SM VCSH SCT025 BKN070 FM110300
                       VRB03KT P6SM VCSH BKN040 FM111200 35003KT
                       P6SM OVC020=
202110101120 TAF KPAE 101120Z 1012/1112 34008KT P6SM VCSH SCT020 BKN035
                      TEMPO 1012/1016 5SM -SHRA BR BKN020 OVC035
                       FM101800 32008KT P6SM VCSH SCT025 BKN040
                       FM110300 VRB04KT P6SM VCSH BKN025 BKN040=
202110100906 KPAE 100906Z 1009/1106 VRB05KT P6SM -SHRA BKN020 OVC040 FM110500
                       VRB04KT P6SM VCSH OVC020=
202110100522 TAF KPAE 100522Z 1006/1106 18017G27KT P6SM -RA SCT020 OVC040
                      TEMPO 1006/1009 3SM -RA BR BKN015 OVC030
                       FM100900 23012G20KT P6SM -SHRA BKN015 OVC030
                       FM101600 28010KT P6SM -SHRA BKN020 OVC040
                       FM110500 VRB04KT P6SM VCSH OVC020=
202110092340 TAF KPAE 092340Z 1000/1024 17012G25KT P6SM -RA BKN040 OVC090 FM100100
                       16014G22KT 6SM -RA BR OVC035 FM100500 21015G25KT
                       P6SM -SHRA BKN025 FM101100 21012G20KT P6SM
                       -SHRA OVC035 FM101500 23008KT P6SM VCSH
                       BKN040 FM101800 26008KT P6SM VCSH BKN050=
202110091736 TAF KPAE 091736Z 0918/1018 15009KT P6SM BKN035 BKN060 OVC170 FM092100
                       16010KT P6SM OVC035 FM100000 18012G20KT
                       6SM -RA BR OVC025 FM100600 21012G25KT P6SM
                       -SHRA BKN025 FM101100 21012G20KT P6SM -SHRA
                       OVC035 FM101500 23008KT P6SM VCSH BKN040=
202110091121 TAF KPAE 091121Z 0912/1012 14007KT P6SM BKN040 BKN200 FM091600
                       16007KT P6SM BKN040 BKN120 OVC200 FM092100
                       18012KT P6SM OVC040 FM100000 18012G20KT
                       6SM -RA BR OVC025 FM100600 21012KT P6SM
                       VCSH BKN030 FM101100 VRB04KT P6SM -SHRA
                       OVC020=
202110091105 KPAE 091105Z 0911/1006 VRB04KT P6SM SCT040 BKN200 FM091500 15006KT
                       P6SM SCT015 BKN040 OVC100 FM092100 18012KT
                       P6SM SCT025 OVC040 FM100000 18012G20KT 6SM
                       -RA BR OVC025 FM100500 25012KT P6SM VCSH
                       BKN025=
202110090520 TAF KPAE 090520Z 0906/1006 00000KT P6SM SCT250 FM091100 14003KT
                       1/2SM FG VV002 FM091500 14006KT 3SM BR OVC002
                       FM091700 16007KT P6SM SCT060 OVC100 FM092100
                       16007KT P6SM SCT030 OVC050=
202110090317 KPAE 090317Z 0903/0924 00000KT P6SM SCT250 FM091100 14003KT 1/2SM
                       FG OVC001 FM091500 14006KT 3SM BR OVC002
                       FM091700 16007KT P6SM SCT060 OVC100 FM092100
                       16007KT P6SM SCT030 OVC050=
202110082338 TAF KPAE 082338Z 0900/0924 30004KT P6SM SCT100 FM090300 33003KT
                       P6SM SCT250 FM090700 VRB02KT 3SM BR OVC010
                       FM091100 14003KT 2SM BR BKN005 OVC035 FM092100
                       16007KT P6SM SCT030 OVC050=
202110081957 KPAE 081957Z 0820/0918 30003KT P6SM SCT015 OVC090 FM090300 00000KT
                       P6SM SKC FM090900 31001KT 3SM BR OVC070
                       FM091100 15003KT 3SM BR OVC035=
202110081736 TAF KPAE 081736Z 0818/0918 29004KT 1/2SM FG OVC004 FM082000 31002KT
                       P6SM FEW120 OVC200 FM090300 00000KT P6SM
                       SKC FM090900 VRB02KT 3SM BR BKN001=
202110081608 KPAE 081608Z 0816/0912 00000KT 1/4SM FG BKN001 BKN004 BKN120 FM081800
                       29004KT P6SM FEW120 SCT250 FM090300 00000KT
                       P6SM SKC=
202110081507 KPAE 081507Z 0815/0912 00000KT 2SM BR FEW004 BKN100 BKN250
                      TEMPO 0815/0816 1/4SM FG BKN001 FM081800
                       29004KT P6SM FEW120 SCT250 FM090300 00000KT
                       P6SM SKC=
202110081239 KPAE 081239Z 0813/0912 00000KT 2SM BR FEW004 BKN100 BKN250
                      TEMPO 0813/0816 1/2SM FG BKN004 FM081800
                       29004KT P6SM FEW120 SCT250 FM090300 00000KT
                       P6SM SKC=
202110081127 TAF KPAE 081127Z 0812/0912 00000KT P6SM BKN100 BKN200 FM082000
                       29004KT P6SM FEW120 SCT250 FM090300 00000KT
                       P6SM SKC=
202110080902 TAF AMD KPAE 080902Z 0809/0906 00000KT P6SM SCT120 BKN250 FM081200
                       00000KT P6SM BKN100 BKN200 FM082000 30004KT
                       P6SM FEW120 SCT250 FM090400 00000KT P6SM
                       SCT250=
202110080523 TAF KPAE 080523Z 0806/0906 00000KT P6SM SCT250 FM081200 00000KT
                       P6SM BKN100 BKN200 FM082000 30004KT P6SM
                       FEW120 SCT250 FM090400 00000KT P6SM SCT250=
202110072340 TAF KPAE 072340Z 0800/0824 32005KT P6SM SCT030 SCT200 FM080400
                       00000KT P6SM SCT120 BKN200 FM081200 VRB03KT
                       P6SM BKN100 OVC200 FM082000 31004KT P6SM
                       SCT120 BKN200=
202110071726 TAF KPAE 071726Z 0718/0818 34004KT P6SM SCT012 SCT025
                      TEMPO 0718/0720 BKN012 FM072100 32005KT P6SM
                       SCT030 SCT200 FM080400 00000KT P6SM SCT120
                       BKN200 FM081200 VRB03KT P6SM BKN100 OVC200=
202110071409 KPAE 071409Z 0714/0812 VRB02KT P6SM SCT010 BKN060
                      TEMPO 0714/0718 BKN008 FM071800 33004KT P6SM
                       SCT008 BKN020 FM072100 32005KT P6SM SCT030
                       SCT250 FM080400 00000KT P6SM SCT150 BKN250=
202110071127 TAF KPAE 071127Z 0712/0812 00000KT 6SM BR SCT003 BKN060 FM071400
                       VRB03KT 1/2SM FG OVC003 FM071800 33004KT
                       P6SM SCT008 BKN020 FM072100 32005KT P6SM
                       SCT030 SCT250 FM080400 00000KT P6SM SCT150
                       BKN250=
202110070903 KPAE 070903Z 0709/0806 VRB03KT P6SM BKN003 BKN010 FM071000 VRB03KT
                       1/2SM FG OVC003 FM071800 33004KT 6SM BR
                       SCT008 OVC010 FM072100 32005KT P6SM SCT030
                       FM080300 00000KT P6SM SCT150 SCT250=
202110070527 TAF KPAE 070527Z 0706/0806 05003KT P6SM VCSH SCT007 BKN050
                      TEMPO 0706/0709 4SM BR BKN007 FM070900 VRB03KT
                       1/2SM FG OVC003 FM071800 33004KT 6SM BR
                       SCT008 OVC010 FM072100 32005KT P6SM SCT030
                       FM080300 00000KT P6SM SCT150 SCT250=
202110070204 KPAE 070204Z 0702/0724 30008G15KT P6SM -SHRA SCT004 BKN008 OVC030
                       FM070400 00000KT P6SM VCSH SCT015 BKN030
                       FM070600 VRB03KT P6SM BKN040 FM071000 32004KT
                       P6SM SCT030 FM071200 34003KT P6SM BKN030
                       TEMPO 0712/0716 OVC015=
202110062320 TAF KPAE 062320Z 0700/0724 VRB04KT P6SM VCSH BKN040 FM070300 00000KT
                       P6SM VCSH BKN030 FM070600 VRB03KT P6SM BKN040
                       FM071000 32004KT P6SM SCT030 FM071200 34003KT
                       P6SM BKN030
                      TEMPO 0712/0716 OVC015=
202110061758 TAF KPAE 061758Z 0618/0718 24008KT P6SM BKN015 FM062000 20005KT
                       P6SM VCSH BKN050 FM062300 VRB04KT P6SM VCSH
                       BKN040 FM070300 00000KT P6SM VCSH BKN030
                       FM070600 VRB03KT P6SM BKN040 FM071000 32004KT
                       P6SM SCT030 FM071200 34003KT P6SM BKN030
                       TEMPO 0712/0716 OVC015=
202110061500 KPAE 061500Z 0615/0712 18009KT P6SM OVC012 FM061700 21007KT P6SM
                       VCSH BKN050 FM070300 30007KT P6SM VCSH BKN030=
202110061120 TAF KPAE 061120Z 0612/0712 17012G20KT P6SM -SHRA BKN040 BKN080
                       FM061700 21007KT P6SM VCSH BKN050 FM070300
                       30007KT P6SM VCSH BKN030=
202110060533 TAF KPAE 060533Z 0606/0706 16008KT P6SM SCT040 FM060900 16008KT
                       P6SM VCSH SCT025 BKN040 FM061700 19009KT
                       P6SM BKN040=
202110052335 TAF KPAE 052335Z 0600/0624 16013G25KT P6SM VCSH SCT020 OVC050 FM060400
                       18012G20KT P6SM BKN025 BKN050 FM061600 18009KT
                       P6SM OVC050=
202110051741 TAF KPAE 051741Z 0518/0618 15012G25KT P6SM -SHRA SCT015 BKN035
                       FM052100 22012G22KT P6SM -SHRA BKN025 BKN050
                       FM060400 18012G20KT P6SM BKN025 BKN050 FM061600
                       18009KT P6SM OVC050=
202110051220 KPAE 051220Z 0512/0612 15008KT P6SM OVC022 FM051400 16010KT P6SM
                       -RA OVC022 FM051800 18014G22KT 5SM RA OVC018
                       FM052100 22012G22KT P6SM -SHRA BKN025 BKN050
                       FM060400 18012G20KT P6SM BKN025 BKN050=
202110051120 TAF KPAE 051120Z 0512/0612 15008KT P6SM OVC035 FM051400 16010KT
                       P6SM -RA OVC030 FM051800 18014G22KT 5SM
                       RA OVC020 FM052100 22012G22KT P6SM -SHRA
                       BKN025 BKN050 FM060400 18012G20KT P6SM BKN025
                       BKN050=
202110050520 TAF KPAE 050520Z 0506/0606 12004KT P6SM SCT040 OVC200 FM051000
                       14006KT P6SM BKN040 OVC120 FM051400 16010KT
                       P6SM -RA OVC030 FM051800 18014G22KT 5SM
                       RA OVC020 FM052100 22012G22KT P6SM -SHRA
                       BKN025 BKN050 FM060400 18012G20KT P6SM BKN025
                       BKN050=
202110042320 TAF KPAE 042320Z 0500/0524 36005KT P6SM FEW030 FM051000 00000KT
                       P6SM OVC040 FM051600 15005KT 4SM -RA OVC030
                       FM052100 18015KT 6SM -RA OVC040=
202110041723 TAF KPAE 041723Z 0418/0518 35003KT P6SM SCT018 OVC040 FM042000
                       30004KT P6SM SCT050 BKN250 FM050300 00000KT
                       P6SM BKN250 FM051000 00000KT P6SM OVC040
                       FM051600 15005KT 4SM -RA OVC010=
202110041122 TAF KPAE 041122Z 0412/0512 34004KT P6SM SCT025 OVC040
                      TEMPO 0412/0416 OVC025 FM042000 30004KT P6SM
                       SCT050 BKN250 FM050300 00000KT P6SM BKN250
                       FM051000 00000KT P6SM BKN040 BKN250=
202110041008 KPAE 041008Z 0410/0506 34005KT P6SM BKN025 OVC040
                      TEMPO 0413/0417 2SM BR BKN005 OVC025 FM042200
                       30004KT P6SM SCT020 BKN250 FM050300 00000KT
                       P6SM BKN250=
202110040520 TAF KPAE 040520Z 0406/0506 34005KT P6SM OVC040 FM041000 01005KT
                       P6SM BKN008 OVC010 FM041200 36003KT 3SM
                       BR OVC005
                      TEMPO 0412/0416 1/2SM FG OVC002 FM041900
                       32004KT P6SM BKN011 BKN250 FM042200 30004KT
                       P6SM SCT020 BKN250 FM050300 00000KT P6SM
                       BKN250=
202110040308 KPAE 040308Z 0403/0424 34005KT P6SM OVC030 FM041000 01005KT P6SM
                       BKN008 OVC010 FM041200 36003KT 3SM BR OVC005
                       TEMPO 0412/0416 1/2SM FG OVC002 FM041900
                       32004KT P6SM BKN011 BKN250 FM042200 33004KT
                       P6SM SCT020 BKN250=
202110032322 TAF KPAE 032322Z 0400/0424 35004KT P6SM BKN023 OVC040 FM040300
                       01005KT P6SM OVC015 FM041000 01005KT P6SM
                       BKN008 OVC010 FM041200 36003KT 3SM BR OVC005
                       TEMPO 0412/0416 1/2SM FG OVC002 FM041900
                       32004KT P6SM BKN011 BKN250 FM042200 33004KT
                       P6SM SCT020 BKN250=
202110032243 KPAE 032243Z 0323/0418 01006KT P6SM BKN022 OVC035 FM040200 00000KT
                       P6SM BKN050 BKN250 FM041000 00000KT P6SM
                       BKN007 BKN250 FM041200 00000KT 2SM BR OVC004=
202110031721 TAF KPAE 031721Z 0318/0418 35008KT P6SM OVC020 FM032100 34004KT
                       P6SM SCT025 BKN035 FM040200 00000KT P6SM
                       BKN050 BKN250 FM041000 00000KT P6SM BKN007
                       BKN250 FM041200 00000KT 2SM BR OVC004=
202110031502 KPAE 031502Z 0315/0412 01003KT 3SM BR BKN006 OVC010
                      TEMPO 0315/0318 1SM BR OVC006 FM031800 35004KT
                       P6SM BKN010 OVC020 FM032100 31004KT P6SM
                       SCT025 BKN035 FM040200 00000KT P6SM BKN050
                       BKN250 FM041000 00000KT P6SM BKN007 BKN250=
202110031120 TAF KPAE 031120Z 0312/0412 16008KT P6SM OVC015
                      TEMPO 0314/0318 -RA FM032100 31004KT P6SM
                       SCT025 BKN035 FM040200 00000KT P6SM BKN050
                       BKN250 FM041000 00000KT P6SM BKN007 BKN250=
202110030527 TAF KPAE 030527Z 0306/0406 VRB03KT P6SM OVC080 FM030800 18005KT
                       P6SM FEW030 OVC060 FM031300 18005KT P6SM
                       -RA OVC030 FM031500 21005KT P6SM -RA BKN012
                       OVC030 FM031800 VRB04KT P6SM OVC012 FM032100
                       33004KT P6SM SCT025 BKN035 FM040200 00000KT
                       P6SM BKN050 BKN250=
202110022324 TAF KPAE 022324Z 0300/0324 36004KT P6SM FEW030 SCT120 BKN250 FM030800
                       18005KT P6SM FEW030 OVC070 FM031300 18005KT
                       P6SM -RA OVC030 FM031500 21005KT P6SM -RA
                       BKN012 OVC030 FM031800 VRB04KT P6SM OVC012
                       FM032100 33004KT P6SM SCT025 BKN035=
202110021907 KPAE 021907Z 0219/0318 00000KT 6SM BR SCT003 OVC007 FM022000 25005KT
                       P6SM BKN100 OVC200 FM030300 VRB03KT P6SM
                       OVC100 FM030900 16004KT P6SM OVC080 FM031500
                       33005KT P6SM SCT012 BKN030 OVC060=
202110021723 TAF KPAE 021723Z 0218/0318 16004KT 2SM BR OVC004 FM022000 25005KT
                       P6SM BKN100 OVC200 FM030300 VRB03KT P6SM
                       OVC100 FM030900 16004KT P6SM OVC080 FM031500
                       33005KT P6SM SCT012 BKN030 OVC060=
202110021313 KPAE 021313Z 0213/0312 VRB03KT 3SM BR OVC002
                      TEMPO 0213/0217 1/2SM FG VV001 FM021800 18003KT
                       P6SM BKN005 FM022000 25005KT P6SM BKN120
                       OVC200 FM030300 VRB03KT P6SM OVC100 FM030900
                       16004KT P6SM OVC080=
202110021121 TAF KPAE 021121Z 0212/0312 00000KT 1/4SM FG VV001 FM021800 18003KT
                       4SM BR OVC004 FM022000 25005KT P6SM BKN120
                       OVC200 FM030300 VRB03KT P6SM OVC100 FM030900
                       16004KT P6SM OVC080=
202110020824 KPAE 020824Z 0208/0306 00000KT 4SM BR SCT001 BKN200
                      TEMPO 0208/0211 1/4SM FG VV001 FM021200 VRB03KT
                       P6SM BKN120 OVC200 FM021900 25005KT P6SM
                       BKN120 OVC200 FM030300 VRB03KT P6SM OVC100=
202110020525 TAF KPAE 020525Z 0206/0306 00000KT P6SM BKN200 FM021200 VRB03KT
                       P6SM BKN120 OVC200 FM021900 25005KT P6SM
                       BKN120 OVC200 FM030300 VRB03KT P6SM OVC100=
202110012321 TAF KPAE 012321Z 0200/0224 33006KT P6SM SCT030 BKN200 FM020300
                       00000KT P6SM BKN200 FM021200 VRB03KT P6SM
                       BKN120 OVC200 FM021900 23005KT P6SM BKN120
                       OVC200=
202110011724 TAF KPAE 011724Z 0118/0218 36005KT P6SM SCT012 SCT035
                      TEMPO 0118/0120 BKN012 FM012100 33006KT P6SM
                       SCT035 SCT250 FM020300 00000KT P6SM BKN200
                       FM021200 VRB03KT P6SM BCFG SCT005 BKN120=
202110011121 TAF KPAE 011121Z 0112/0212 00000KT P6SM SCT020 BKN050
                      TEMPO 0112/0115 BKN020 OVC050 FM011500 VRB03KT
                       P6SM OVC020 FM012100 33006KT P6SM SCT030
                       SCT250 FM020300 00000KT P6SM BKN200=
202110010900 KPAE 010900Z 0109/0206 00000KT P6SM OVC040 FM011200 00000KT P6SM
                       BKN015 FM012100 33006KT P6SM SCT030 SCT250
                       FM020300 00000KT P6SM BKN200=
202110010524 TAF KPAE 010524Z 0106/0206 VRB03KT P6SM OVC025 FM010900 VRB03KT
                       P6SM OVC012 FM011200 VRB03KT P6SM OVC007
                       FM012100 33006KT P6SM SCT030 SCT250 FM020300
                       00000KT P6SM BKN200=