##########################################################
# Query made at 02/15/2025 22:25:28 UTC
# Time interval: from 02/01/2021 00:00  to 02/28/2021 23:59  UTC
##########################################################

##########################################################
# KPAE, Everett, Snohomish County Airport (United States)
# WMO index: -----. WIGOS ID: Unknown
# Latitude 47-55-23N. Longitude 122-16-57W. Altitude 184 m.
##########################################################

###################################
#  METAR/SPECI from KPAE
###################################
202102282353 METAR KPAE 282353Z 17014KT 10SM BKN026 BKN038 10/04 A3022 RMK AO2 SLP237 T01000044 10106 20067 56020=
202102282253 METAR KPAE 282253Z 17010KT 10SM BKN026 09/04 A3024 RMK AO2 SLP243 T00940039=
202102282153 METAR KPAE 282153Z 15013KT 10SM BKN020 BKN026 OVC048 09/04 A3026 RMK AO2 SLP250 T00940044=
202102282100 SPECI KPAE 282100Z 17010KT 10SM OVC016 08/04 A3028 RMK AO2 T00830044=
202102282053 METAR KPAE 282053Z 16010KT 10SM OVC013 08/04 A3028 RMK AO2 SLP257 T00830044 58008=
202102281953 METAR KPAE 281953Z 16009KT 10SM OVC013 08/04 A3030 RMK AO2 SLP263 T00780039=
202102281900 SPECI KPAE 281900Z 18010KT 10SM OVC013 07/04 A3031 RMK AO2 T00720044=
202102281853 METAR KPAE 281853Z 16010KT 10SM OVC009 07/04 A3031 RMK AO2 SLP265 T00720039=
202102281827 SPECI KPAE 281827Z 16009KT 10SM OVC009 07/04 A3030 RMK AO2 T00720044=
202102281819 SPECI KPAE 281819Z 17009G17KT 10SM OVC011 07/04 A3030 RMK AO2 T00670044=
202102281753 METAR KPAE 281753Z 16010KT 10SM OVC009 07/04 A3031 RMK AO2 SLP266 T00670044 10067 20039 51007=
202102281723 SPECI KPAE 281723Z 17008KT 10SM OVC009 06/04 A3031 RMK AO2 T00610044=
202102281705 SPECI KPAE 281705Z 16010KT 10SM OVC010 06/04 A3030 RMK AO2 T00610044=
202102281653 METAR KPAE 281653Z 16009KT 10SM OVC009 06/04 A3030 RMK AO2 SLP265 T00560039=
202102281553 METAR KPAE 281553Z 16011KT 10SM OVC009 05/04 A3029 RMK AO2 SLP262 T00500039=
202102281453 METAR KPAE 281453Z 15009KT 10SM OVC007 04/03 A3028 RMK AO2 SLP259 T00440033 50004=
202102281404 SPECI KPAE 281404Z AUTO 15007KT 10SM OVC005 04/03 A3029 RMK AO2 CIG 003V007 T00440033=
202102281353 METAR KPAE 281353Z AUTO 14007KT 080V190 10SM OVC004 04/03 A3029 RMK AO2 CIG 003V007 SLP261 T00440033=
202102281253 METAR KPAE 281253Z AUTO 15009KT 4SM BR OVC003 04/03 A3028 RMK AO2 SLP258 T00390033=
202102281232 SPECI KPAE 281232Z AUTO 15006KT 3SM BR OVC003 04/03 A3028 RMK AO2 T00390028=
202102281153 METAR KPAE 281153Z AUTO 15010KT 2 1/2SM BR OVC003 04/03 A3027 RMK AO2 SLP255 60002 70002 T00390028 10056 20039 57005=
202102281138 SPECI KPAE 281138Z AUTO 15010KT 2 1/2SM BR OVC004 04/03 A3027 RMK AO2 T00440033=
202102281053 METAR KPAE 281053Z AUTO 16009KT 9SM BKN006 OVC010 04/03 A3028 RMK AO2 RAE43 SLP256 P0001 T00440033=
202102281034 SPECI KPAE 281034Z AUTO 16009KT 9SM -RA BKN009 OVC013 04/03 A3028 RMK AO2 P0001 T00440028=
202102281022 SPECI KPAE 281022Z AUTO 16010KT 9SM -RA OVC010 04/03 A3028 RMK AO2 P0000 T00440028=
202102280953 METAR KPAE 280953Z AUTO 16008KT 10SM -RA BKN009 OVC013 04/03 A3028 RMK AO2 RAE28B52 CIG 006V010 SLP258 P0001 T00440028=
202102280933 SPECI KPAE 280933Z AUTO 16007KT 10SM FEW008 OVC014 04/03 A3029 RMK AO2 RAE28 P0001 T00440028=
202102280914 SPECI KPAE 280914Z AUTO 16007KT 10SM -RA BKN015 OVC049 04/03 A3028 RMK AO2 P0001 T00440028=
202102280853 METAR KPAE 280853Z AUTO 18009KT 10SM -RA OVC045 04/02 A3029 RMK AO2 RAB17 SLP259 P0000 60000 T00440022 58001=
202102280753 METAR KPAE 280753Z AUTO 18011KT 10SM BKN060 OVC075 05/01 A3029 RMK AO2 RAB01E24 SLP259 P0000 T00500011 400780028=
202102280653 METAR KPAE 280653Z AUTO 19009KT 10SM BKN055 OVC070 06/01 A3029 RMK AO2 SLP261 T00560011=
202102280553 METAR KPAE 280553Z AUTO 19007KT 10SM BKN055 OVC070 06/01 A3029 RMK AO2 SLP259 T00560011 10072 20056 53005=
202102280453 METAR KPAE 280453Z AUTO 18007KT 10SM OVC060 06/01 A3027 RMK AO2 SLP255 T00610006=
202102280353 METAR KPAE 280353Z 14005KT 10SM BKN047 OVC060 06/M01 A3027 RMK AO2 SLP255 T00611006=
202102280253 METAR KPAE 280253Z VRB03KT 10SM SCT045 OVC065 07/M01 A3027 RMK AO2 SLP255 T00671011 55000=
202102280153 METAR KPAE 280153Z 16005KT 10SM OVC080 07/M01 A3026 RMK AO2 SLP252 T00671011=
202102280053 METAR KPAE 280053Z 18008KT 10SM OVC090 07/M01 A3026 RMK AO2 SLP252 T00721006=
202102272353 METAR KPAE 272353Z 19008KT 10SM FEW038 BKN100 07/M02 A3027 RMK AO2 SLP254 T00721017 10078 20050 51001=
202102272253 METAR KPAE 272253Z 20013KT 10SM SCT033 OVC047 07/M01 A3027 RMK AO2 SLP254 T00721006=
202102272200 SPECI KPAE 272200Z VRB06KT 10SM BKN037 BKN045 07/M01 A3027 RMK AO2 T00671006=
202102272153 METAR KPAE 272153Z 23007KT 10SM BKN029 07/M01 A3027 RMK AO2 SLP254 T00671011=
202102272053 METAR KPAE 272053Z 00000KT 10SM BKN029 07/M02 A3027 RMK AO2 SLP254 T00721017 51007=
202102271953 METAR KPAE 271953Z 24005KT 10SM BKN029 07/00 A3027 RMK AO2 SLP254 T00670000=
202102271853 METAR KPAE 271853Z VRB03KT 10SM SCT037 06/M01 A3026 RMK AO2 SLP250 T00561006=
202102271753 METAR KPAE 271753Z 35004KT 10SM SCT037 06/M01 A3025 RMK AO2 SLP246 T00611006 10061 20028 51021=
202102271653 METAR KPAE 271653Z 35006KT 10SM CLR 05/00 A3023 RMK AO2 SLP242 T00500000=
202102271553 METAR KPAE 271553Z 35006KT 10SM CLR 04/M02 A3020 RMK AO2 SLP231 T00391017=
202102271453 METAR KPAE 271453Z 32005KT 10SM SCT040 03/M02 A3018 RMK AO2 SLP225 T00331017 53025=
202102271353 METAR KPAE 271353Z AUTO 33006KT 10SM BKN038 03/M02 A3016 RMK AO2 SLP217 T00331017=
202102271253 METAR KPAE 271253Z AUTO 32006KT 10SM OVC040 04/M02 A3013 RMK AO2 SLP206 T00391017=
202102271153 METAR KPAE 271153Z AUTO 33004KT 10SM OVC035 04/M01 A3011 RMK AO2 SLP198 70017 T00441011 10044 20033 51026=
202102271053 METAR KPAE 271053Z AUTO 31007KT 10SM OVC034 04/M01 A3008 RMK AO2 SLP189 T00441011=
202102270953 METAR KPAE 270953Z AUTO 33008G17KT 10SM OVC031 04/M01 A3007 RMK AO2 SLP187 T00441011=
202102270853 METAR KPAE 270853Z AUTO 30007KT 10SM FEW042 BKN049 BKN080 03/M01 A3003 RMK AO2 SLP172 T00331011 53022=
202102270753 METAR KPAE 270753Z AUTO 33007KT 10SM OVC050 04/M02 A3000 RMK AO2 SLP162 T00441017 400940028=
202102270653 METAR KPAE 270653Z AUTO 35007G14KT 10SM BKN060 OVC070 04/01 A2998 RMK AO2 SLP155 T00440006=
202102270553 METAR KPAE 270553Z AUTO 30005KT 10SM SCT027 BKN044 BKN055 04/01 A2996 RMK AO2 RAE27UPB06E08 SLP150 P0004 60012 T00390011 10078 20028 50012=
202102270530 SPECI KPAE 270530Z AUTO 00000KT 10SM BKN021 OVC026 03/01 A2996 RMK AO2 RAE27UPB06E08 P0004 T00330011=
202102270515 SPECI KPAE 270515Z AUTO 20005KT 7SM VCTS RA BKN021 OVC026 03/01 A2996 RMK AO2 UPB06E08 P0002 T00330011=
202102270453 METAR KPAE 270453Z 35005G22KT 6SM -RA BR FEW014 BKN019 OVC026 03/02 A2996 RMK AO2 PK WND 33032/0441 LTG DSNT S SLP150 P0008 T00330017=
202102270353 METAR KPAE 270353Z AUTO 31011G24KT 280V350 10SM -RA FEW015 BKN036 OVC070 05/00 A2994 RMK AO2 PK WND 31030/0341 LTG DSNT NW RAB42 SLP142 P0000 T00500000=
202102270253 METAR KPAE 270253Z AUTO 31008G20KT 270V360 10SM OVC070 06/M01 A2993 RMK AO2 SLP138 T00611011 55007=
202102270153 METAR KPAE 270153Z 32008KT 10SM BKN085 OVC100 07/M01 A2993 RMK AO2 SLP138 T00671006=
202102270053 METAR KPAE 270053Z 32008KT 10SM SCT020 BKN036 07/01 A2994 RMK AO2 SLP141 T00720006=
202102262353 METAR KPAE 262353Z 18004KT 10SM SCT036 BKN045 OVC070 07/00 A2995 RMK AO2 RAB18E30 SLP146 P0000 60000 T00720000 10094 20061 56011=
202102262253 METAR KPAE 262253Z 20012KT 10SM FEW038 BKN049 OVC070 07/00 A2996 RMK AO2 RAB28E50 SLP150 P0000 T00720000=
202102262153 METAR KPAE 262153Z 28005KT 10SM FEW065 OVC085 08/M03 A2996 RMK AO2 SLP149 T00831028=
202102262053 METAR KPAE 262053Z 24007KT 10SM OVC070 08/M01 A2998 RMK AO2 SLP156 T00831006 50001=
202102261953 METAR KPAE 261953Z VRB05KT 10SM BKN065 BKN090 08/M02 A2999 RMK AO2 SLP157 T00831017=
202102261853 METAR KPAE 261853Z 30013G19KT 10SM SCT041 OVC055 07/M01 A3000 RMK AO2 SLP161 T00671011=
202102261753 METAR KPAE 261753Z 29006KT 10SM OVC055 06/M01 A2998 RMK AO2 SLP157 60005 T00611006 10061 20033 51031=
202102261653 METAR KPAE 261653Z 31009G24KT 10SM OVC060 06/M01 A2996 RMK AO2 SLP149 T00561011=
202102261553 METAR KPAE 261553Z 30010G20KT 270V330 10SM OVC060 05/M01 A2993 RMK AO2 SLP138 T00501006=
202102261453 METAR KPAE 261453Z 28011G19KT 10SM BKN049 OVC055 04/00 A2989 RMK AO2 RAE19 SLP125 P0004 60005 T00440000 53014=
202102261353 METAR KPAE 261353Z AUTO 32015G23KT 10SM -RA SCT017 BKN045 OVC060 04/01 A2988 RMK AO2 RAB44 SLP121 P0000 T00390006=
202102261303 SPECI KPAE 261303Z AUTO 29009G17KT 10SM SCT021 BKN048 OVC110 04/01 A2985 RMK AO2 T00390006=
202102261253 METAR KPAE 261253Z AUTO VRB06G22KT 10SM FEW017 BKN022 OVC110 04/01 A2985 RMK AO2 RAE35 SLP112 P0001 T00390006=
202102261215 SPECI KPAE 261215Z AUTO VRB05KT 10SM -RA SCT012 BKN023 OVC035 04/01 A2984 RMK AO2 P0001 T00390011=
202102261206 SPECI KPAE 261206Z AUTO 29010G17KT 8SM -RA BKN014 OVC021 04/02 A2985 RMK AO2 P0001 T00390017=
202102261153 METAR KPAE 261153Z AUTO 00000KT 10SM -RA SCT013 OVC021 03/02 A2985 RMK AO2 RAE16B29 SLP111 P0004 60013 70018 T00330017 10044 20033 56024=
202102261140 SPECI KPAE 261140Z AUTO 00000KT 7SM -RA FEW013 BKN019 OVC033 04/02 A2985 RMK AO2 RAE16B29 P0003 T00390017=
202102261117 SPECI KPAE 261117Z AUTO VRB03KT 10SM FEW017 BKN032 OVC055 03/02 A2986 RMK AO2 RAE16 P0002 T00330022=
202102261053 METAR KPAE 261053Z AUTO 26009KT 8SM -RA FEW012 SCT019 OVC029 03/02 A2986 RMK AO2 RAE17B38 SLP115 P0004 T00330017=
202102261022 SPECI KPAE 261022Z AUTO 17005KT 10SM BKN044 BKN070 OVC085 03/02 A2986 RMK AO2 RAE17 P0003 T00330017=
202102260959 SPECI KPAE 260959Z AUTO 01006KT 4SM RA BR FEW009 OVC015 03/02 A2989 RMK AO2 P0002 T00330022=
202102260953 METAR KPAE 260953Z AUTO 32006KT 4SM -RA BR BKN010 BKN015 OVC022 04/02 A2990 RMK AO2 RAB04 SLP128 P0004 T00390022=
202102260906 SPECI KPAE 260906Z AUTO 22004KT 10SM -RA SCT017 BKN023 OVC070 04/02 A2990 RMK AO2 RAB04 P0000 T00390022=
202102260853 METAR KPAE 260853Z AUTO 24004KT 10SM FEW025 SCT042 OVC075 04/02 A2992 RMK AO2 RAE44 PRESRR SLP135 P0001 60001 T00390022 56023=
202102260834 SPECI KPAE 260834Z AUTO 15009KT 10SM -RA BKN031 OVC080 04/02 A2988 RMK AO2 P0001 T00440017=
202102260827 SPECI KPAE 260827Z AUTO 16011KT 9SM -RA OVC029 04/02 A2989 RMK AO2 PRESFR P0001 T00390017=
202102260753 METAR KPAE 260753Z AUTO 18008KT 10SM -RA BKN050 OVC070 04/02 A2993 RMK AO2 RAB52 SLP140 P0000 T00440017 400610028=
202102260653 METAR KPAE 260653Z AUTO 18010KT 10SM OVC075 04/02 A2997 RMK AO2 SLP152 T00390017=
202102260553 METAR KPAE 260553Z AUTO 17008KT 10SM BKN060 OVC080 03/02 A2999 RMK AO2 SLP159 60002 T00330022 10056 20033 58010=
202102260453 METAR KPAE 260453Z 17008KT 10SM FEW014 BKN070 04/02 A3000 RMK AO2 SLP163 T00390017=
202102260436 SPECI KPAE 260436Z 18008KT 10SM SCT012 SCT041 BKN070 04/02 A3001 RMK AO2 T00390022=
202102260429 SPECI KPAE 260429Z 19009KT 10SM FEW010 BKN014 BKN041 04/02 A3001 RMK AO2 T00440022=
202102260411 SPECI KPAE 260411Z 18006KT 10SM SCT010 BKN015 OVC042 05/03 A3002 RMK AO2 T00500028=
202102260353 METAR KPAE 260353Z 18007KT 10SM BKN042 OVC065 05/03 A3002 RMK AO2 SLP170 T00500033=
202102260253 METAR KPAE 260253Z 16005KT 10SM FEW024 SCT060 OVC100 05/03 A3002 RMK AO2 RAE47 SLP170 P0002 60002 T00500028 58008=
202102260153 METAR KPAE 260153Z 15009KT 10SM -RA FEW047 BKN060 OVC095 05/03 A3002 RMK AO2 SLP172 P0000 T00500028=
202102260053 METAR KPAE 260053Z 16005KT 10SM -RA FEW036 BKN055 OVC070 06/03 A3006 RMK AO2 RAE26B47 SLP182 P0000 T00560028=
202102252353 METAR KPAE 252353Z 10003KT 10SM -RA BKN055 BKN075 OVC085 06/02 A3005 RMK AO2 RAE2254B14 SLP178 P0001 60002 T00560017 10061 20050 58005=
202102252253 METAR KPAE 252253Z 34003KT 10SM -RA SCT032 BKN040 OVC080 06/02 A3006 RMK AO2 RAB19 SLP184 P0001 T00560017=
202102252153 METAR KPAE 252153Z 05004KT 10SM SCT012 BKN060 OVC080 06/02 A3005 RMK AO2 RAE2059B42E52 SLP179 P0000 T00610022=
202102252053 METAR KPAE 252053Z 30006KT 10SM -RA FEW018 BKN035 OVC070 06/03 A3006 RMK AO2 RAB41 SLP184 P0000 60000 T00560028 55006=
202102252048 SPECI KPAE 252048Z 25006KT 10SM -RA SCT018 BKN033 OVC055 06/03 A3006 RMK AO2 RAB41 P0000=
202102251953 METAR KPAE 251953Z 17005KT 10SM FEW009 BKN018 OVC024 06/03 A3007 RMK AO2 RAE05B32E42 SLP185 P0000 T00610028=
202102251907 SPECI KPAE 251907Z 17005KT 10SM BKN005 BKN038 OVC050 06/04 A3008 RMK AO2 RAE05 P0000 T00610039=
202102251900 SPECI KPAE 251900Z 17005KT 10SM -RA FEW014 BKN038 OVC050 06/04 A3008 RMK AO2 P0000 T00560039=
202102251853 METAR KPAE 251853Z 16007KT 10SM -RA BKN007 BKN034 OVC070 06/04 A3008 RMK AO2 RAB22 SLP190 P0000 T00560039=
202102251753 METAR KPAE 251753Z 17011KT 10SM BKN005 BKN031 OVC060 05/03 A3010 RMK AO2 SLP195 60001 T00500033 10050 20028 58002=
202102251708 SPECI KPAE 251708Z 17010KT 10SM BKN005 OVC028 04/03 A3011 RMK AO2 T00390028=
202102251700 SPECI KPAE 251700Z 17010KT 10SM FEW005 BKN026 OVC034 04/03 A3011 RMK AO2 T00390028=
202102251653 METAR KPAE 251653Z 16011KT 10SM BKN005 BKN024 OVC029 04/03 A3011 RMK AO2 RAB24E41 SLP200 P0000 T00390028=
202102251553 METAR KPAE 251553Z 17011KT 10SM OVC006 03/02 A3011 RMK AO2 RAE02 SLP202 P0000 T00330022=
202102251544 SPECI KPAE 251544Z 18011KT 10SM OVC006 03/02 A3011 RMK AO2 RAE02 P0000 T00330022=
202102251453 METAR KPAE 251453Z 19014KT 10SM -RA BKN011 BKN017 OVC024 03/02 A3010 RMK AO2 UPB09E30RAB12 SLP197 P0001 60001 T00330017 51010=
202102251353 METAR KPAE 251353Z AUTO 18015G23KT 10SM OVC007 03/02 A3010 RMK AO2 PK WND 18033/1305 UPE28 CIG 005V011 SLP196 P0000 T00280017=
202102251253 METAR KPAE 251253Z AUTO 18024G32KT 7SM UP BKN009 OVC014 03/01 A3007 RMK AO2 PK WND 19032/1218 RAE13B37E46UPB46 CIG 006V011 PRESFR SLP188 P0000 T00280011=
202102251230 SPECI KPAE 251230Z AUTO 18021G31KT 10SM BKN010 OVC014 03/01 A3010 RMK AO2 PK WND 19032/1218 RAE13 CIG 006V012 P0000 T00280011=
202102251153 METAR KPAE 251153Z AUTO 18020G30KT 10SM -RA BKN009 OVC014 03/01 A3012 RMK AO2 PK WND 18033/1104 SLP202 P0001 60001 70001 T00330011 10050 20033 58049=
202102251130 SPECI KPAE 251130Z AUTO 17020G32KT 10SM -RA OVC013 03/02 A3014 RMK AO2 PK WND 18033/1104 P0001 T00330017=
202102251053 METAR KPAE 251053Z AUTO 18021G29KT 10SM -RA BKN017 OVC036 04/01 A3017 RMK AO2 PK WND 18029/1053 RAB0956 PRESFR SLP219 P0000 T00390011=
202102251041 SPECI KPAE 251041Z AUTO 17019G26KT 10SM -RA BKN019 BKN033 OVC048 04/01 A3019 RMK AO2 PK WND 20029/1020 RAB0956 PRESFR P0000 T00390011=
202102250953 METAR KPAE 250953Z AUTO 16014KT 10SM FEW023 SCT045 OVC055 04/00 A3023 RMK AO2 RAB33E49 SLP240 P0000 T00440000=
202102250853 METAR KPAE 250853Z AUTO 15015KT 10SM BKN060 OVC080 05/M01 A3027 RMK AO2 PK WND 15030/0807 RAE20 SLP253 P0000 60000 T00501006 58037=
202102250753 METAR KPAE 250753Z AUTO 15010G17KT 10SM -RA OVC048 04/00 A3032 RMK AO2 RAB51 SLP270 P0000 T00440000 400670011=
202102250653 METAR KPAE 250653Z AUTO 15012KT 10SM BKN070 OVC080 04/00 A3034 RMK AO2 SLP278 T00440000=
202102250553 METAR KPAE 250553Z AUTO 15009KT 10SM OVC095 05/M01 A3038 RMK AO2 SLP291 T00501006 10061 20044 58036=
202102250453 METAR KPAE 250453Z VRB06KT 10SM BKN110 05/00 A3043 RMK AO2 SLP307 T00500000=
202102250353 METAR KPAE 250353Z 15009KT 10SM CLR 05/M01 A3046 RMK AO2 SLP319 T00501006=
202102250253 METAR KPAE 250253Z 18005KT 10SM CLR 06/M01 A3048 RMK AO2 SLP329 T00561006 56020=
202102250153 METAR KPAE 250153Z 17008KT 10SM CLR 06/M01 A3050 RMK AO2 SLP333 T00561006=
202102250053 METAR KPAE 250053Z 26003KT 10SM CLR 04/00 A3052 RMK AO2 SLP341 T00440000=
202102242353 METAR KPAE 242353Z 00000KT 10SM FEW026 06/00 A3054 RMK AO2 SLP349 T00560000 10067 20039 58011=
202102242253 METAR KPAE 242253Z 00000KT 10SM FEW050 06/00 A3056 RMK AO2 SLP355 T00610000=
202102242153 METAR KPAE 242153Z 29006KT 10SM SCT027 06/00 A3057 RMK AO2 SLP358 T00560000=
202102242053 METAR KPAE 242053Z VRB03KT 10SM BKN022 OVC027 06/01 A3058 RMK AO2 SLP360 T00560006 58000=
202102241953 METAR KPAE 241953Z VRB05KT 10SM SCT021 OVC026 04/00 A3059 RMK AO2 SLP364 T00440000=
202102241853 METAR KPAE 241853Z 29004KT 10SM BKN014 BKN021 04/01 A3059 RMK AO2 SLP364 T00390006=
202102241753 METAR KPAE 241753Z 10003KT 10SM SCT007 BKN013 03/01 A3058 RMK AO2 SLP360 T00330011 10039 20011 51013=
202102241700 SPECI KPAE 241700Z 00000KT 10SM FEW022 03/01 A3057 RMK AO2 T00330011=
202102241653 METAR KPAE 241653Z 00000KT 10SM OVC021 03/01 A3057 RMK AO2 SLP357 T00330006=
202102241553 METAR KPAE 241553Z 19004KT 10SM OVC021 02/01 A3055 RMK AO2 SLP352 T00170006=
202102241453 METAR KPAE 241453Z 15005KT 10SM OVC021 01/00 A3054 RMK AO2 SLP347 T00110000 51013=
202102241353 METAR KPAE 241353Z AUTO 14004KT 10SM BKN023 01/M01 A3053 RMK AO2 SLP344 T00111006=
202102241253 METAR KPAE 241253Z AUTO VRB03KT 10SM OVC016 02/00 A3052 RMK AO2 SLP340 T00170000=
202102241153 METAR KPAE 241153Z AUTO VRB03KT 10SM BKN020 OVC036 02/00 A3050 RMK AO2 SLP332 70003 T00170000 10022 20011 51026=
202102241122 SPECI KPAE 241122Z AUTO 13003KT 10SM SCT020 BKN027 OVC033 02/00 A3048 RMK AO2 T00170000=
202102241053 METAR KPAE 241053Z AUTO 13003KT 10SM SCT022 BKN033 OVC042 02/00 A3048 RMK AO2 SLP325 T00170000=
202102240953 METAR KPAE 240953Z AUTO 00000KT 10SM OVC035 02/00 A3045 RMK AO2 SLP316 T00220000=
202102240853 METAR KPAE 240853Z AUTO 02003KT 10SM BKN055 02/M01 A3042 RMK AO2 SLP307 T00171006 53022=
202102240753 METAR KPAE 240753Z AUTO 28004KT 10SM BKN060 01/M01 A3039 RMK AO2 SLP297 T00111006 400720006=
202102240653 METAR KPAE 240653Z AUTO 00000KT 10SM SCT080 OVC095 02/M01 A3038 RMK AO2 SLP292 T00171006=
202102240553 METAR KPAE 240553Z AUTO 28007KT 10SM SCT046 OVC075 02/M01 A3036 RMK AO2 SLP284 60001 T00171006 10072 20006 51024=
202102240500 SPECI KPAE 240500Z AUTO 32003KT 10SM OVC065 02/M01 A3034 RMK AO2 T00171006=
202102240453 METAR KPAE 240453Z 31004KT 3SM HZ BKN004 BKN029 OVC070 02/M01 A3033 RMK AO2 SNB0358E33 SLP277 P0001 T00171011=
202102240437 SPECI KPAE 240437Z 31003KT 3SM BR BKN004 BKN029 OVC070 01/00 A3033 RMK AO2 SNB0358E33 P0001 T00060000=
202102240428 SPECI KPAE 240428Z 00000KT 3SM -SN BR SCT002 BKN032 OVC070 01/00 A3032 RMK AO2 SNB0358 P0001 T00110000=
202102240353 METAR KPAE 240353Z 03008G17KT 7SM BKN002 BKN012 OVC026 01/00 A3031 RMK AO2 RAB0256E21UPB06E10B21E22SNB29E39 SLP269 P0000 T00110000=
202102240320 SPECI KPAE 240320Z 02014G24KT 10SM -RA BKN004 OVC010 01/00 A3029 RMK AO2 RAB0256UPB06E10 P0000 T00110000=
202102240313 SPECI KPAE 240313Z 35014G23KT 10SM -RA FEW004 BKN008 OVC048 02/01 A3030 RMK AO2 RAB0256UPB06E10 P0000 T00220006=
202102240259 SPECI KPAE 240259Z 34012G25KT 10SM -RA FEW008 BKN020 OVC070 03/00 A3029 RMK AO2 RAB56 P0000 T00280000=
202102240253 METAR KPAE 240253Z 34015G23KT 10SM SCT020 SCT049 OVC070 03/00 A3028 RMK AO2 SLP260 T00280000 53012=
202102240153 METAR KPAE 240153Z 33007KT 10SM FEW090 05/M01 A3025 RMK AO2 SLP250 T00501011=
202102240053 METAR KPAE 240053Z 01010KT 10SM FEW028 SCT034 BKN095 06/01 A3025 RMK AO2 SLP247 T00610011=
202102232353 METAR KPAE 232353Z 35010G19KT 320V030 10SM FEW030 07/00 A3025 RMK AO2 SLP246 60001 T00720000 10072 20044 56011=
202102232253 METAR KPAE 232253Z 36008KT 10SM SCT035 SCT110 07/01 A3025 RMK AO2 SLP246 T00720011=
202102232153 METAR KPAE 232153Z 25006KT 10SM FEW015 BKN080 OVC100 06/02 A3026 RMK AO2 RAB00E42 SLP250 P0001 T00610017=
202102232112 SPECI KPAE 232112Z 35004KT 8SM -RA SCT020 BKN026 OVC070 06/03 A3027 RMK AO2 RAB00 P0000 T00560028=
202102232053 METAR KPAE 232053Z 32004KT 10SM SCT032 BKN055 OVC065 05/02 A3028 RMK AO2 SLP258 60000 T00500022 56009=
202102231953 METAR KPAE 231953Z 25003KT 10SM FEW017 BKN043 OVC055 06/02 A3029 RMK AO2 RAB34E51 SLP262 P0000 T00560022=
202102231853 METAR KPAE 231853Z 17007KT 10SM SCT030 BKN090 06/02 A3029 RMK AO2 SLP261 T00610022=
202102231753 METAR KPAE 231753Z 16007KT 10SM SCT033 BKN042 OVC110 04/02 A3031 RMK AO2 RAB1654E27 SLP266 P0001 60001 T00440017 10044 20017 50004=
202102231653 METAR KPAE 231653Z 18008KT 10SM BKN055 BKN075 OVC090 04/02 A3031 RMK AO2 RAE1558 SLP267 P0000 T00390017=
202102231553 METAR KPAE 231553Z 16008KT 10SM -RA BKN060 OVC080 03/01 A3030 RMK AO2 RAB46 SLP264 P0000 T00330011=
202102231453 METAR KPAE 231453Z 16009KT 10SM FEW029 BKN090 OVC110 03/01 A3029 RMK AO2 RAB19E31 SLP262 P0000 60000 T00330011 50002=
202102231353 METAR KPAE 231353Z AUTO 15008KT 10SM FEW029 BKN070 03/01 A3030 RMK AO2 SLP263 T00280011=
202102231253 METAR KPAE 231253Z AUTO 15005KT 10SM BKN032 03/01 A3030 RMK AO2 SLP264 T00280006=
202102231153 METAR KPAE 231153Z AUTO 17005KT 10SM FEW065 SCT100 03/01 A3029 RMK AO2 SLP261 70030 T00280006 10061 20028 50004=
202102231053 METAR KPAE 231053Z AUTO 00000KT 10SM SCT090 BKN110 04/01 A3029 RMK AO2 SLP260 T00390011=
202102230953 METAR KPAE 230953Z AUTO VRB03KT 10SM SCT085 03/01 A3029 RMK AO2 SLP261 T00330011=
202102230853 METAR KPAE 230853Z AUTO 10005KT 10SM SCT060 SCT085 04/00 A3028 RMK AO2 SLP256 T00440000 51020=
202102230753 METAR KPAE 230753Z AUTO 00000KT 10SM FEW030 SCT050 05/00 A3027 RMK AO2 SLP254 T00500000 400940044=
202102230653 METAR KPAE 230653Z AUTO 15004KT 10SM SCT090 SCT100 05/01 A3024 RMK AO2 SLP242 T00500011=
202102230553 METAR KPAE 230553Z AUTO 29009G17KT 10SM CLR 06/00 A3022 RMK AO2 SLP235 T00560000 10072 20050 53025=
202102230453 METAR KPAE 230453Z 10SM SCT070 06/M01 A3018 RMK AO2 SLP224 T00611006=
202102230353 METAR KPAE 230353Z 22008KT 190V250 10SM SCT034 BKN048 06/01 A3016 RMK AO2 SLP216 T00560011=
202102230253 METAR KPAE 230253Z VRB03KT 10SM OVC031 06/02 A3014 RMK AO2 SLP209 T00610022 53021=
202102230153 METAR KPAE 230153Z VRB05KT 10SM OVC014 07/04 A3011 RMK AO2 SLP199 T00670039=
202102230132 SPECI KPAE 230132Z 35007KT 320V030 10SM BKN014 OVC034 07/04 A3010 RMK AO2 T00670044=
202102230053 METAR KPAE 230053Z 36007KT 10SM FEW015 OVC040 07/05 A3008 RMK AO2 SLP189 T00720050=
202102222356 SPECI KPAE 222356Z 31009KT 10SM FEW013 BKN039 07/05 A3008 RMK AO2 T00720050=
202102222353 METAR KPAE 222353Z 31008KT 10SM BKN003 OVC009 07/05 A3007 RMK AO2 RAE20 SLP186 P0006 60020 T00720050 10094 20072 50004=
202102222308 SPECI KPAE 222308Z 32011G21KT 3SM R16R/6000VP6000FT RA BR BKN003 OVC007 08/07 A3008 RMK AO2 P0006 T00780067=
202102222255 SPECI KPAE 222255Z 31007G18KT 1 3/4SM R16R/6000VP6000FT +RA BR BKN003 BKN009 OVC025 08/07 A3008 RMK AO2 P0001 T00780072=
202102222253 METAR KPAE 222253Z 32011G18KT 2SM R16R/6000VP6000FT -RA BR BKN005 OVC012 08/07 A3008 RMK AO2 RAB22 SLP189 P0007 T00830072=
202102222157 SPECI KPAE 222157Z 21010KT 10SM OVC009 09/08 A3007 RMK AO2 T00940083=
202102222153 METAR KPAE 222153Z 20011KT 10SM OVC010 09/08 A3007 RMK AO2 CIG 007V014 SLP184 T00940083=
202102222053 METAR KPAE 222053Z 18011KT 10SM BKN008 BKN017 OVC022 09/08 A3006 RMK AO2 RAE48 PRESFR SLP182 P0004 60007 T00940078 58030=
202102221955 SPECI KPAE 221955Z 22008KT 4SM -RA BR BKN008 BKN017 OVC022 09/08 A3014 RMK AO2 P0000 T00890078=
202102221953 METAR KPAE 221953Z 21009KT 10SM -RA BKN008 BKN017 OVC022 09/08 A3014 RMK AO2 RAE1856B28 SLP208 P0002 T00890078=
202102221903 SPECI KPAE 221903Z 20012KT 10SM OVC006 09/08 A3013 RMK AO2 RAE1856 P0000 T00890078=
202102221853 METAR KPAE 221853Z 20010KT 10SM -RA BKN009 OVC016 09/08 A3013 RMK AO2 CIG 006V011 SLP204 P0001 T00890078=
202102221753 METAR KPAE 221753Z 19011KT 6SM -RA BR OVC006 09/08 A3015 RMK AO2 SLP213 P0005 60010 T00890078 10089 20089 58007=
202102221653 METAR KPAE 221653Z 19013KT 10SM -RA OVC004 09/08 A3017 RMK AO2 SLP217 P0003 T00890078=
202102221616 SPECI KPAE 221616Z 18010KT 6SM -RA BR OVC004 09/08 A3016 RMK AO2 P0001 T00890078=
202102221553 METAR KPAE 221553Z 19009KT 10SM -RA BKN009 OVC017 09/08 A3017 RMK AO2 SLP217 P0001 T00890078=
202102221453 METAR KPAE 221453Z 20012KT 10SM -RA BKN009 OVC014 09/08 A3018 RMK AO2 RAE04B26 SLP220 P0000 60001 T00890078 58003=
202102221353 METAR KPAE 221353Z AUTO 19011KT 10SM -RA OVC007 09/08 A3018 RMK AO2 RAB00E12B53 SLP222 P0000 T00890078=
202102221253 METAR KPAE 221253Z AUTO 20009KT 10SM OVC007 09/08 A3019 RMK AO2 RAE1154 SLP225 P0001 T00890078=
202102221153 METAR KPAE 221153Z AUTO 20014KT 10SM -RA OVC008 09/08 A3018 RMK AO2 RAE20B37 SLP223 P0000 60005 70005 T00890078 10094 20089 58003=
202102221053 METAR KPAE 221053Z AUTO 20014KT 10SM -RA OVC008 09/08 A3020 RMK AO2 RAB13 SLP229 P0001 T00940078=
202102221008 SPECI KPAE 221008Z AUTO 20013KT 10SM OVC009 09/08 A3020 RMK AO2 T00940078=
202102220953 METAR KPAE 220953Z AUTO 21017G28KT 10SM OVC010 09/08 A3019 RMK AO2 PK WND 20033/0942 SLP226 T00940078=
202102220853 METAR KPAE 220853Z AUTO 20016G28KT 10SM OVC010 09/08 A3019 RMK AO2 PK WND 19031/0836 CIG 009V015 SLP226 60004 T00940078 55001=
202102220844 SPECI KPAE 220844Z AUTO 20019G31KT 10SM OVC010 09/07 A3018 RMK AO2 PK WND 19031/0836 CIG 009V013 T00940072=
202102220810 SPECI KPAE 220810Z AUTO 20019G28KT 10SM OVC009 09/07 A3019 RMK AO2 PK WND 19028/0802 T00890072=
202102220753 METAR KPAE 220753Z AUTO 19023G31KT 10SM OVC010 09/07 A3018 RMK AO2 PK WND 18033/0729 RAE08B44E53 CIG 007V014 SLP222 P0000 T00890072 401000050=
202102220653 METAR KPAE 220653Z AUTO 18020G28KT 9SM -RA OVC010 09/07 A3020 RMK AO2 PK WND 18036/0611 SLP227 P0004 T00890072=
202102220553 METAR KPAE 220553Z AUTO 18026G33KT 10SM -RA OVC009 09/07 A3019 RMK AO2 PK WND 19040/0455 RAB40 CIG 007V011 SLP227 P0000 60000 T00890072 10100 20089 55015=
202102220544 SPECI KPAE 220544Z AUTO 18024G32KT 10SM -RA BKN009 OVC014 09/07 A3019 RMK AO2 PK WND 19040/0455 RAB40 CIG 007V011 P0000 T00890072=
202102220510 SPECI KPAE 220510Z AUTO 19026G39KT 10SM BKN013 OVC080 09/07 A3020 RMK AO2 PK WND 19040/0455 T00940067=
202102220453 METAR KPAE 220453Z 19026G38KT 10SM SCT013 OVC090 09/07 A3019 RMK AO2 PK WND 19038/0426 SLP225 T00940067=
202102220353 METAR KPAE 220353Z 18022G30KT 10SM OVC016 09/07 A3020 RMK AO2 PK WND 20031/0300 SLP229 T00940067=
202102220253 METAR KPAE 220253Z 19022G29KT 10SM OVC013 09/07 A3024 RMK AO2 PK WND 19029/0251 SLP242 T00940067 58009=
202102220228 SPECI KPAE 220228Z 19015G22KT 10SM OVC014 09/07 A3025 RMK AO2 T00940067=
202102220153 METAR KPAE 220153Z 18018G22KT 10SM OVC018 10/07 A3024 RMK AO2 PK WND 20026/0102 SLP243 T01000067=
202102220053 METAR KPAE 220053Z 19016G23KT 10SM OVC015 10/07 A3027 RMK AO2 PK WND 18028/0017 SLP252 T01000067=
202102212353 METAR KPAE 212353Z 19017G25KT 10SM BKN018 OVC025 10/07 A3026 RMK AO2 SLP252 T01000067 10100 20078 56010=
202102212253 METAR KPAE 212253Z 19014G23KT 10SM OVC015 10/07 A3027 RMK AO2 PK WND 19027/2229 SLP252 T01000067=
202102212153 METAR KPAE 212153Z 19017G24KT 10SM BKN012 09/07 A3027 RMK AO2 SLP252 T00940067=
202102212053 METAR KPAE 212053Z 19013KT 10SM BKN012 09/06 A3030 RMK AO2 SLP262 T00890061 53006=
202102211953 METAR KPAE 211953Z 20015G24KT 10SM BKN014 OVC075 09/06 A3029 RMK AO2 SLP259 T00890056=
202102211853 METAR KPAE 211853Z 19016G25KT 10SM OVC009 08/05 A3028 RMK AO2 SLP257 T00830050=
202102211753 METAR KPAE 211753Z 19018KT 10SM OVC009 08/06 A3028 RMK AO2 SLP256 60000 T00780056 10078 20056 53006=
202102211653 METAR KPAE 211653Z 19015KT 10SM OVC009 07/06 A3029 RMK AO2 SLP259 T00720056=
202102211553 METAR KPAE 211553Z 18016G24KT 10SM OVC006 07/05 A3025 RMK AO2 RAE06B23E32 SLP245 P0000 T00720050=
202102211453 METAR KPAE 211453Z 19014KT 10SM -RA OVC008 07/05 A3026 RMK AO2 RAB53 SLP250 P0000 60000 T00670050 50000=
202102211353 METAR KPAE 211353Z AUTO 19013KT 10SM OVC008 07/04 A3027 RMK AO2 SLP252 T00670044=
202102211305 SPECI KPAE 211305Z AUTO 18015KT 10SM OVC009 06/04 A3027 RMK AO2 T00610044=
202102211253 METAR KPAE 211253Z AUTO 18018KT 10SM OVC010 06/04 A3027 RMK AO2 SLP253 T00610044=
202102211153 METAR KPAE 211153Z AUTO 17015G23KT 10SM OVC010 06/04 A3026 RMK AO2 SLP250 70001 T00560039 10056 20050 56013=
202102211141 SPECI KPAE 211141Z AUTO 17015G23KT 10SM OVC010 06/04 A3026 RMK AO2 CIG 007V013 T00560039=
202102211131 SPECI KPAE 211131Z AUTO 17014G23KT 10SM OVC009 06/04 A3026 RMK AO2 CIG 007V013 T00560039=
202102211115 SPECI KPAE 211115Z AUTO 17017G24KT 10SM OVC010 05/04 A3026 RMK AO2 CIG 006V013 T00500039=
202102211053 METAR KPAE 211053Z AUTO 16016G25KT 6SM BR OVC007 05/03 A3028 RMK AO2 CIG 005V010 SLP257 T00500033=
202102211005 SPECI KPAE 211005Z AUTO 17016G23KT 9SM BKN009 OVC016 05/03 A3027 RMK AO2 CIG 007V012 T00500033=
202102210953 METAR KPAE 210953Z AUTO 16015G24KT 10SM OVC011 05/03 A3027 RMK AO2 PK WND 17027/0926 SLP254 T00500033=
202102210907 SPECI KPAE 210907Z AUTO 16017G24KT 10SM BKN013 OVC020 06/03 A3029 RMK AO2 T00560028=
202102210853 METAR KPAE 210853Z AUTO 17015G23KT 10SM OVC015 06/03 A3030 RMK AO2 PK WND 18031/0805 SLP263 T00560028 58006=
202102210838 SPECI KPAE 210838Z AUTO 17017G22KT 10SM BKN015 OVC110 06/03 A3030 RMK AO2 PK WND 18031/0805 T00560028=
202102210753 METAR KPAE 210753Z AUTO 17016G24KT 10SM OVC014 06/03 A3030 RMK AO2 SLP264 T00560028 400830017=
202102210722 SPECI KPAE 210722Z AUTO 16015G22KT 10SM OVC014 06/03 A3031 RMK AO2 T00560028=
202102210653 METAR KPAE 210653Z AUTO 17017G23KT 10SM OVC015 06/03 A3033 RMK AO2 PK WND 18028/0620 SLP272 T00560028=
202102210553 METAR KPAE 210553Z AUTO 18021G30KT 10SM BKN017 OVC070 06/02 A3032 RMK AO2 PK WND 18030/0550 SLP271 60001 T00560022 10072 20056 56000=
202102210453 METAR KPAE 210453Z AUTO 19016KT 10SM BKN018 OVC090 06/02 A3033 RMK AO2 SLP274 T00560022=
202102210417 SPECI KPAE 210417Z 18017KT 10SM BKN018 OVC110 06/02 A3031 RMK AO2 T00560022=
202102210353 METAR KPAE 210353Z 19013KT 10SM OVC110 06/02 A3031 RMK AO2 SLP268 T00560022=
202102210303 SPECI KPAE 210303Z 18010KT 10SM FEW020 BKN040 OVC110 06/02 A3032 RMK AO2 T00560022=
202102210253 METAR KPAE 210253Z 19011KT 10SM SCT020 BKN026 OVC041 06/03 A3032 RMK AO2 RAE50 SLP271 P0001 60001 T00560028 53005=
202102210153 METAR KPAE 210153Z 08006KT 10SM -RA OVC026 07/02 A3031 RMK AO2 RAB44 SLP269 P0000 T00670022=
202102210053 METAR KPAE 210053Z 05004KT 10SM SCT031 SCT044 07/01 A3030 RMK AO2 SLP265 T00670011=
202102202353 METAR KPAE 202353Z 00000KT 10SM FEW029 SCT048 OVC055 07/01 A3030 RMK AO2 SLP266 T00670011 10083 20050 53008=
202102202253 METAR KPAE 202253Z 24005KT 10SM BKN030 07/01 A3029 RMK AO2 SLP262 T00720011=
202102202153 METAR KPAE 202153Z 17008KT 10SM FEW030 07/01 A3028 RMK AO2 SLP256 T00720011=
202102202053 METAR KPAE 202053Z 19011KT 10SM SCT020 BKN030 08/01 A3028 RMK AO2 SLP256 T00780011 51008=
202102201953 METAR KPAE 201953Z 19012KT 10SM FEW020 SCT027 BKN032 07/02 A3027 RMK AO2 SLP253 T00720017=
202102201913 SPECI KPAE 201913Z 18010KT 10SM SCT008 BKN018 BKN090 07/02 A3026 RMK AO2 T00670017=
202102201853 METAR KPAE 201853Z 20008KT 10SM SCT008 BKN014 06/02 A3026 RMK AO2 SLP251 T00610022=
202102201753 METAR KPAE 201753Z 18008KT 10SM SCT008 BKN014 05/02 A3025 RMK AO2 SLP248 T00500022 10056 20017 51026=
202102201746 SPECI KPAE 201746Z 16004KT 10SM SCT008 BKN014 06/02 A3025 RMK AO2 T00560017=
202102201653 METAR KPAE 201653Z 17005KT 10SM SCT021 04/03 A3023 RMK AO2 SLP242 T00440028=
202102201553 METAR KPAE 201553Z 00000KT 10SM FEW020 03/02 A3020 RMK AO2 SLP231 T00330022=
202102201453 METAR KPAE 201453Z 00000KT 10SM FEW024 03/01 A3017 RMK AO2 SLP222 T00280011 53013=
202102201444 SPECI KPAE 201444Z AUTO 00000KT 10SM FEW026 03/02 A3017 RMK AO2 T00280017=
202102201404 SPECI KPAE 201404Z AUTO 17005KT 10SM SCT004 BKN029 03/02 A3016 RMK AO2 T00280017=
202102201353 METAR KPAE 201353Z AUTO 00000KT 10SM BKN004 BKN028 02/02 A3015 RMK AO2 SLP214 T00220017=
202102201351 SPECI KPAE 201351Z AUTO 00000KT 10SM BKN004 BKN028 02/02 A3015 RMK AO2=
202102201337 SPECI KPAE 201337Z AUTO 16003KT 10SM SCT004 BKN029 03/02 A3014 RMK AO2 T00330022=
202102201311 SPECI KPAE 201311Z AUTO 19004KT 10SM OVC004 03/02 A3014 RMK AO2 T00280022=
202102201253 METAR KPAE 201253Z AUTO 19004KT 10SM OVC005 04/03 A3013 RMK AO2 SLP208 T00390033=
202102201216 SPECI KPAE 201216Z AUTO 22006KT 10SM BKN008 BKN033 OVC060 04/03 A3012 RMK AO2 T00390033=
202102201153 METAR KPAE 201153Z AUTO 23005KT 10SM FEW006 OVC060 03/02 A3011 RMK AO2 SLP201 60000 T00330022 10044 20033 53007=
202102201146 SPECI KPAE 201146Z AUTO 19004KT 10SM SCT006 BKN065 OVC110 03/03 A3011 RMK AO2 T00330028=
202102201132 SPECI KPAE 201132Z AUTO 18005KT 10SM BKN006 BKN031 OVC080 04/03 A3010 RMK AO2 CIG 005V017 T00390028=
202102201053 METAR KPAE 201053Z AUTO 19004KT 10SM SCT007 BKN060 OVC080 04/03 A3010 RMK AO2 RAB37E52 SLP195 P0000 T00390033=
202102201020 SPECI KPAE 201020Z AUTO 17004KT 10SM SCT008 BKN075 OVC090 04/03 A3010 RMK AO2 T00390028=
202102200953 METAR KPAE 200953Z AUTO 15006KT 10SM OVC008 04/03 A3010 RMK AO2 CIG 005V010 SLP194 T00390028=
202102200853 METAR KPAE 200853Z AUTO 10005KT 10SM OVC006 04/03 A3009 RMK AO2 SLP193 T00390028 53010=
202102200753 METAR KPAE 200753Z AUTO 00000KT 10SM BKN008 OVC012 04/03 A3008 RMK AO2 CIG 005V010 SLP188 T00440028 400890039=
202102200722 SPECI KPAE 200722Z AUTO 15005KT 10SM BKN007 BKN012 OVC021 04/03 A3008 RMK AO2 CIG 006V011 T00440028=
202102200709 SPECI KPAE 200709Z AUTO 15006KT 10SM SCT007 OVC021 04/03 A3007 RMK AO2 T00440028=
202102200653 METAR KPAE 200653Z AUTO 17006KT 10SM BKN006 BKN010 OVC021 04/03 A3007 RMK AO2 SLP188 T00440028=
202102200553 METAR KPAE 200553Z AUTO 15006KT 10SM BKN007 04/03 A3006 RMK AO2 SLP183 60000 T00440028 10072 20039 53012=
202102200545 SPECI KPAE 200545Z AUTO 15006KT 10SM SCT006 04/03 A3006 RMK AO2 T00440028=
202102200520 SPECI KPAE 200520Z AUTO 18007KT 10SM SCT023 SCT075 04/03 A3005 RMK AO2 T00440028=
202102200512 SPECI KPAE 200512Z AUTO 17007KT 10SM BKN023 BKN075 04/03 A3005 RMK AO2 T00440028=
202102200453 METAR KPAE 200453Z 16005KT 10SM SCT080 04/03 A3004 RMK AO2 SLP177 T00440028=
202102200353 METAR KPAE 200353Z 17007KT 10SM FEW012 BKN070 OVC085 05/03 A3003 RMK AO2 SLP174 T00500028=
202102200253 METAR KPAE 200253Z 17008KT 10SM FEW016 FEW043 OVC065 05/02 A3003 RMK AO2 RAB07E17 SLP172 P0000 60000 T00500022 53000=
202102200153 METAR KPAE 200153Z 17009KT 10SM OVC070 06/02 A3002 RMK AO2 SLP168 T00560017=
202102200053 METAR KPAE 200053Z 16013KT 10SM SCT055 OVC070 06/02 A3002 RMK AO2 SLP168 T00610017=
202102192353 METAR KPAE 192353Z 17011KT 10SM BKN075 OVC100 07/01 A3003 RMK AO2 SLP170 T00720006 10089 20061 56009=
202102192253 METAR KPAE 192253Z 18012KT 10SM FEW028 07/01 A3003 RMK AO2 SLP173 T00720011=
202102192153 METAR KPAE 192153Z 19010KT 10SM FEW028 08/02 A3004 RMK AO2 SLP175 T00780017=
202102192053 METAR KPAE 192053Z 18010KT 10SM SCT024 08/02 A3005 RMK AO2 SLP179 T00780022 58014=
202102192028 SPECI KPAE 192028Z 20010G20KT 10SM SCT022 07/02 A3006 RMK AO2 T00720022=
202102192000 SPECI KPAE 192000Z 20012KT 10SM BKN023 07/02 A3008 RMK AO2 T00720022=
202102191953 METAR KPAE 191953Z 19011KT 10SM OVC013 07/02 A3008 RMK AO2 SLP189 T00720022=
202102191853 METAR KPAE 191853Z 19012KT 10SM OVC013 07/03 A3008 RMK AO2 SLP190 T00670028=
202102191811 SPECI KPAE 191811Z 19016G20KT 10SM OVC013 06/02 A3009 RMK AO2 T00610022=
202102191800 SPECI KPAE 191800Z 19010KT 10SM OVC018 06/03 A3009 RMK AO2 T00610028=
202102191753 METAR KPAE 191753Z 19010KT 10SM OVC013 06/02 A3009 RMK AO2 SLP194 60000 T00610022 10061 20044 51012=
202102191653 METAR KPAE 191653Z 20009KT 10SM OVC013 05/03 A3009 RMK AO2 SLP192 T00500028=
202102191553 METAR KPAE 191553Z 19010KT 10SM OVC007 06/03 A3006 RMK AO2 SLP184 T00560033=
202102191453 METAR KPAE 191453Z 21007KT 10SM SCT011 OVC017 05/03 A3006 RMK AO2 SLP182 60000 T00500033 51009=
202102191353 METAR KPAE 191353Z AUTO 19008KT 10SM OVC025 04/03 A3005 RMK AO2 RAB18E27 SLP181 P0000 T00440028=
202102191253 METAR KPAE 191253Z AUTO 19008KT 10SM OVC024 05/03 A3005 RMK AO2 SLP179 T00500033=
202102191153 METAR KPAE 191153Z AUTO 17006KT 10SM OVC025 06/03 A3003 RMK AO2 SLP171 60000 70001 T00560033 10061 20044 51009=
202102191122 SPECI KPAE 191122Z AUTO 18009KT 10SM BKN026 OVC034 06/04 A3002 RMK AO2 T00560039=
202102191053 METAR KPAE 191053Z AUTO 18008KT 10SM SCT027 OVC033 06/04 A3002 RMK AO2 SLP169 T00560039=
202102191001 SPECI KPAE 191001Z AUTO 21005KT 10SM SCT008 OVC027 06/04 A3002 RMK AO2 T00610044=
202102190953 METAR KPAE 190953Z AUTO 21010KT 10SM BKN008 OVC027 06/04 A3002 RMK AO2 CIG 005V011 SLP170 T00610044=
202102190853 METAR KPAE 190853Z AUTO 21012KT 10SM OVC007 06/04 A3000 RMK AO2 RAB40E50 SLP162 P0000 60000 T00610044 53014=
202102190753 METAR KPAE 190753Z AUTO 21011KT 10SM OVC008 06/04 A2998 RMK AO2 SLP157 T00610044 400720022=
202102190653 METAR KPAE 190653Z AUTO 18011KT 10SM OVC006 06/04 A2997 RMK AO2 SLP152 T00610044=
202102190553 METAR KPAE 190553Z AUTO 16009KT 10SM OVC006 04/02 A2996 RMK AO2 SLP148 60000 T00440022 10061 20033 51003=
202102190500 SPECI KPAE 190500Z AUTO VRB03KT 10SM OVC008 03/02 A2996 RMK AO2 T00330017=
202102190453 METAR KPAE 190453Z AUTO 00000KT 10SM OVC010 03/02 A2996 RMK AO2 SLP149 T00330017=
202102190407 SPECI KPAE 190407Z VRB05KT 10SM OVC010 04/02 A2996 RMK AO2 T00390017=
202102190400 SPECI KPAE 190400Z 15010G14KT 10SM OVC009 04/02 A2996 RMK AO2 T00390017=
202102190353 METAR KPAE 190353Z 15010G16KT 10SM OVC010 03/02 A2995 RMK AO2 SLP148 T00330017=
202102190306 SPECI KPAE 190306Z 13007G15KT 8SM OVC013 03/02 A2995 RMK AO2 T00330017=
202102190253 METAR KPAE 190253Z 14009G18KT 8SM OVC015 04/01 A2995 RMK AO2 SLP147 60000 T00390011 55002=
202102190153 METAR KPAE 190153Z 14013G19KT 10SM OVC025 04/01 A2994 RMK AO2 SLP143 T00440006=
202102190053 METAR KPAE 190053Z 14006KT 10SM OVC038 06/01 A2994 RMK AO2 RAB09E46 SLP143 P0000 T00560006=
202102182353 METAR KPAE 182353Z 15011G18KT 10SM OVC043 06/00 A2996 RMK AO2 SLP148 60001 T00610000 10072 20044 56023=
202102182253 METAR KPAE 182253Z 15010KT 10SM BKN040 BKN090 OVC100 07/01 A2997 RMK AO2 RAB10E36 SLP153 P0001 T00670011=
202102182153 METAR KPAE 182153Z 16009KT 10SM FEW040 BKN051 OVC085 07/01 A3000 RMK AO2 SLP164 T00720006=
202102182053 METAR KPAE 182053Z VRB04KT 10SM BKN028 BKN044 OVC070 06/01 A3003 RMK AO2 RAE1959 SLP171 P0000 60000 T00610006 58024=
202102181953 METAR KPAE 181953Z 15007KT 10SM -RA BKN028 OVC070 05/01 A3007 RMK AO2 SLP186 P0000 T00500006=
202102181853 METAR KPAE 181853Z 16016G20KT 10SM -RA BKN047 OVC055 06/M02 A3009 RMK AO2 RAB53 SLP194 P0000 T00561017=
202102181753 METAR KPAE 181753Z 15005KT 10SM OVC055 05/M02 A3010 RMK AO2 SLP197 T00501022 10050 20033 56013=
202102181653 METAR KPAE 181653Z 14004KT 10SM OVC110 04/M03 A3010 RMK AO2 SLP199 T00441033=
202102181553 METAR KPAE 181553Z VRB05KT 10SM OVC110 04/M03 A3010 RMK AO2 SLP198 T00441033=
202102181453 METAR KPAE 181453Z 14005KT 10SM SCT090 OVC110 04/M03 A3014 RMK AO2 SLP210 T00391033 56023=
202102181353 METAR KPAE 181353Z AUTO 11007KT 10SM OVC110 04/M04 A3015 RMK AO2 SLP215 T00391039=
202102181253 METAR KPAE 181253Z AUTO 12007KT 10SM CLR 03/M03 A3017 RMK AO2 SLP220 T00331028=
202102181153 METAR KPAE 181153Z AUTO 12003KT 10SM CLR 03/M03 A3021 RMK AO2 SLP233 T00331028 10033 20022 58026=
202102181053 METAR KPAE 181053Z AUTO VRB06KT 10SM CLR 03/M02 A3024 RMK AO2 SLP244 T00331022=
202102180953 METAR KPAE 180953Z AUTO 12008KT 10SM CLR 03/M02 A3027 RMK AO2 SLP253 T00281017=
202102180853 METAR KPAE 180853Z AUTO 11010KT 10SM CLR 03/M01 A3028 RMK AO2 SLP259 T00331011 58013=
202102180753 METAR KPAE 180753Z AUTO 12005KT 10SM CLR 02/M01 A3032 RMK AO2 SLP271 T00221006 400670022=
202102180653 METAR KPAE 180653Z AUTO VRB03KT 10SM CLR 03/M01 A3032 RMK AO2 SLP272 T00281006=
202102180553 METAR KPAE 180553Z AUTO 11008KT 10SM CLR 03/M01 A3032 RMK AO2 SLP274 T00281006 10067 20028 56009=
202102180453 METAR KPAE 180453Z 10005KT 10SM CLR 03/M01 A3033 RMK AO2 SLP275 T00331006=
202102180353 METAR KPAE 180353Z 10004KT 10SM CLR 04/M01 A3034 RMK AO2 SLP280 T00391011=
202102180253 METAR KPAE 180253Z 00000KT 10SM CLR 03/M01 A3035 RMK AO2 SLP284 T00331011 55002=
202102180153 METAR KPAE 180153Z 00000KT 10SM CLR 04/M01 A3035 RMK AO2 SLP283 T00391011=
202102180053 METAR KPAE 180053Z 00000KT 10SM CLR 06/M01 A3035 RMK AO2 SLP280 T00561011=
202102172353 METAR KPAE 172353Z 00000KT 10SM CLR 07/M01 A3036 RMK AO2 SLP285 T00671006 10067 20044 53002=
202102172253 METAR KPAE 172253Z 00000KT 10SM BKN033 BKN048 06/M01 A3036 RMK AO2 SLP284 T00611011=
202102172224 SPECI KPAE 172224Z VRB03KT 10SM SCT030 BKN035 BKN049 07/M01 A3035 RMK AO2 T00671006=
202102172153 METAR KPAE 172153Z 26005KT 10SM OVC028 06/00 A3034 RMK AO2 SLP280 T00610000=
202102172125 SPECI KPAE 172125Z 00000KT 10SM BKN028 BKN033 06/00 A3035 RMK AO2 T00610000=
202102172053 METAR KPAE 172053Z 28004KT 10SM FEW028 BKN033 06/00 A3035 RMK AO2 SLP283 T00610000 50001=
202102171953 METAR KPAE 171953Z 29005KT 10SM FEW026 SCT035 06/00 A3036 RMK AO2 SLP287 T00560000=
202102171853 METAR KPAE 171853Z 00000KT 10SM SCT047 06/00 A3036 RMK AO2 SLP284 T00560000=
202102171753 METAR KPAE 171753Z 00000KT 10SM FEW038 BKN050 05/M01 A3035 RMK AO2 SLP281 T00501006 10050 20022 53024=
202102171653 METAR KPAE 171653Z 00000KT 10SM OVC040 03/01 A3033 RMK AO2 SLP274 T00330011=
202102171553 METAR KPAE 171553Z 31003KT 10SM FEW035 SCT050 03/M01 A3029 RMK AO2 SLP263 T00281006=
202102171500 SPECI KPAE 171500Z 34005KT 10SM OVC051 04/M01 A3028 RMK AO2 T00391011=
202102171453 METAR KPAE 171453Z 35004KT 10SM OVC049 04/M01 A3028 RMK AO2 SLP257 T00391011 51013=
202102171353 METAR KPAE 171353Z AUTO 00000KT 10SM FEW012 BKN055 04/02 A3027 RMK AO2 SLP254 T00390022=
202102171350 SPECI KPAE 171350Z AUTO 00000KT 10SM SCT012 BKN060 03/02 A3027 RMK AO2=
202102171327 SPECI KPAE 171327Z AUTO 00000KT 10SM BKN012 OVC018 03/02 A3026 RMK AO2 T00280017=
202102171315 SPECI KPAE 171315Z AUTO 00000KT 9SM SCT010 BKN017 BKN023 02/01 A3025 RMK AO2 T00220011=
202102171253 METAR KPAE 171253Z AUTO 00000KT 10SM SCT012 03/02 A3024 RMK AO2 SLP243 T00330022=
202102171238 SPECI KPAE 171238Z AUTO 11003KT 10SM BKN012 BKN017 BKN037 04/02 A3023 RMK AO2 T00390022=
202102171153 METAR KPAE 171153Z AUTO 00000KT 10SM BKN019 OVC032 03/02 A3021 RMK AO2 SLP235 60002 70016 T00280017 10061 20022 51012=
202102171130 SPECI KPAE 171130Z AUTO 18003KT 10SM SCT019 BKN027 OVC065 03/02 A3021 RMK AO2 T00280017=
202102171053 METAR KPAE 171053Z AUTO 25003KT 10SM FEW021 SCT030 BKN060 03/02 A3021 RMK AO2 RAE0959 SLP234 P0000 T00330022=
202102170953 METAR KPAE 170953Z AUTO 22004KT 6SM -RA SCT029 BKN036 OVC075 05/02 A3020 RMK AO2 RAB39 SLP228 P0002 T00500022=
202102170853 METAR KPAE 170853Z AUTO 31003KT 10SM OVC085 04/01 A3018 RMK AO2 SLP223 T00440011 53019=
202102170808 SPECI KPAE 170808Z AUTO 00000KT 10SM SCT024 SCT050 OVC065 04/02 A3016 RMK AO2 T00390017=
202102170753 METAR KPAE 170753Z AUTO 16004KT 10SM BKN024 BKN060 OVC080 04/02 A3016 RMK AO2 SLP216 T00390017 400780022=
202102170653 METAR KPAE 170653Z AUTO 00000KT 10SM FEW026 OVC065 06/02 A3013 RMK AO2 SLP208 T00560017=
202102170621 SPECI KPAE 170621Z AUTO 00000KT 10SM SCT027 BKN050 OVC070 05/01 A3013 RMK AO2 T00500011=
202102170613 SPECI KPAE 170613Z AUTO 00000KT 10SM BKN027 BKN050 OVC070 06/01 A3012 RMK AO2 T00610011=
202102170553 METAR KPAE 170553Z AUTO 10003KT 10SM FEW027 BKN075 OVC090 06/01 A3012 RMK AO2 SLP204 T00610011 10072 20056 53015=
202102170453 METAR KPAE 170453Z 00000KT 10SM BKN095 06/02 A3010 RMK AO2 SLP196 T00560017=
202102170353 METAR KPAE 170353Z 27006KT 10SM BKN075 06/02 A3008 RMK AO2 SLP190 T00560017=
202102170309 SPECI KPAE 170309Z 10SM SCT028 OVC075 06/02 A3008 RMK AO2 T00610017=
202102170253 METAR KPAE 170253Z VRB03KT 10SM BKN028 BKN034 OVC080 06/02 A3008 RMK AO2 LTG DSNT SE SLP190 T00610022 53004=
202102170237 SPECI KPAE 170237Z 30003KT 10SM BKN026 BKN034 07/02 A3008 RMK AO2 T00670022=
202102170153 METAR KPAE 170153Z 00000KT 10SM BKN030 06/03 A3007 RMK AO2 SLP187 T00610033=
202102170053 METAR KPAE 170053Z 00000KT 10SM SCT029 OVC035 07/03 A3007 RMK AO2 SLP186 T00720028=
202102162353 METAR KPAE 162353Z AUTO 00000KT 10SM FEW023 BKN085 07/04 A3007 RMK AO2 SLP186 T00720039 10078 20044 50003=
202102162346 SPECI KPAE 162346Z AUTO 00000KT 10SM FEW023 BKN085 07/03 A3007 RMK AO2 T00720033=
202102162253 METAR KPAE 162253Z AUTO 29005KT 10SM OVC025 07/02 A3007 RMK AO2 SLP186 T00670022=
202102162226 SPECI KPAE 162226Z AUTO 00000KT 10SM BKN026 OVC075 08/02 A3006 RMK AO2 T00780022=
202102162153 METAR KPAE 162153Z AUTO 00000KT 10SM BKN085 07/03 A3006 RMK AO2 SLP184 T00720028=
202102162055 SPECI KPAE 162055Z 24003KT 10SM FEW120 06/03 A3006 RMK AO2 T00560033=
202102162053 METAR KPAE 162053Z 24005KT 10SM BKN025 OVC060 06/03 A3006 RMK AO2 SLP184 T00560033 50010=
202102161953 METAR KPAE 161953Z 28003KT 10SM BKN025 OVC060 05/03 A3006 RMK AO2 SLP185 T00500028=
202102161853 METAR KPAE 161853Z 19003KT 10SM BKN025 OVC060 05/03 A3005 RMK AO2 SLP182 T00500033=
202102161753 METAR KPAE 161753Z 24004KT 10SM OVC020 04/03 A3003 RMK AO2 SLP174 60014 T00440028 10050 20022 51026=
202102161653 METAR KPAE 161653Z 27003KT 10SM SCT008 OVC026 04/03 A3001 RMK AO2 SLP168 T00440028=
202102161555 SPECI KPAE 161555Z 24004KT 10SM OVC009 04/04 A2998 RMK AO2 T00440039=
202102161553 METAR KPAE 161553Z VRB05KT 1SM R16R/P6000FT BR OVC009 04/04 A2998 RMK AO2 RAE16 SLP157 P0000 T00390039=
202102161507 SPECI KPAE 161507Z 15004KT 1SM R16R/P6000FT -RA BR OVC009 03/03 A2997 RMK AO2 P0000 T00330028=
202102161453 METAR KPAE 161453Z 18007KT 9SM -RA OVC009 04/03 A2995 RMK AO2 SLP147 P0008 60014 T00390028 51012=
202102161440 SPECI KPAE 161440Z AUTO 16005KT 2 1/2SM -RA BR OVC013 03/03 A2995 RMK AO2 P0008 T00330028=
202102161433 SPECI KPAE 161433Z AUTO 15005KT 2 1/2SM -RA BR SCT011 OVC017 03/02 A2995 RMK AO2 P0007 T00330022=
202102161406 SPECI KPAE 161406Z AUTO 23009KT 3SM -RA BR FEW003 SCT012 OVC021 04/03 A2995 RMK AO2 P0004 T00390028=
202102161358 SPECI KPAE 161358Z AUTO 18007KT 2 1/2SM RA BR SCT003 BKN010 OVC016 02/02 A2995 RMK AO2 P0002 T00220017=
202102161353 METAR KPAE 161353Z AUTO 20007KT 4SM -RA BR BKN002 BKN010 OVC016 02/02 A2995 RMK AO2 UPB11E12 SLP146 P0003 T00220017=
202102161253 METAR KPAE 161253Z AUTO 18006KT 6SM -RA BR OVC004 02/02 A2993 RMK AO2 SLP140 P0003 T00220022=
202102161153 METAR KPAE 161153Z AUTO 16006KT 8SM -RA BKN002 OVC017 03/02 A2992 RMK AO2 RAB02E11B29UPB11E13 SLP135 P0001 60007 70019 T00280022 10028 20017 51001=
202102161151 SPECI KPAE 161151Z AUTO 17006KT 7SM -RA BKN002 OVC017 03/02 A2992 RMK AO2 RAB02E11B29UPB11E13 P0001=
202102161122 SPECI KPAE 161122Z AUTO 18007KT 6SM BR SCT001 BKN012 OVC019 02/02 A2992 RMK AO2 RAB02E11UPB11E13 P0000 T00220017=
202102161115 SPECI KPAE 161115Z AUTO 18006KT 4SM BR SCT001 OVC017 02/02 A2992 RMK AO2 RAB02E11UPB11E13 P0000 T00220017=
202102161106 SPECI KPAE 161106Z AUTO 16007KT 2 1/2SM -RA BR SCT001 OVC019 02/02 A2992 RMK AO2 RAB02 P0000 T00220017=
202102161053 METAR KPAE 161053Z AUTO 16006KT 2 1/2SM R16R/6000VP6000FT BR BKN002 OVC020 02/02 A2992 RMK AO2 SLP136 T00220017=
202102161039 SPECI KPAE 161039Z AUTO 16007KT 2 1/2SM BR BKN002 OVC010 02/02 A2992 RMK AO2 T00220017=
202102161024 SPECI KPAE 161024Z AUTO 15006KT 4SM BR BKN002 OVC012 02/02 A2992 RMK AO2 T00220017=
202102160953 METAR KPAE 160953Z AUTO 16006KT 7SM FEW003 OVC007 02/02 A2991 RMK AO2 RAE22 SLP134 P0003 T00220017=
202102160916 SPECI KPAE 160916Z AUTO 16005KT 4SM -RA BR FEW003 BKN009 OVC014 02/02 A2990 RMK AO2 P0003 T00220017=
202102160906 SPECI KPAE 160906Z AUTO 16005KT 2 1/2SM -RA BR FEW003 OVC008 02/02 A2990 RMK AO2 P0002 T00220017=
202102160853 METAR KPAE 160853Z AUTO 16005KT 4SM -RA BR FEW003 OVC008 02/02 A2990 RMK AO2 RAB0756 SLP129 P0003 60003 T00220017 51030=
202102160839 SPECI KPAE 160839Z AUTO 16004KT 2 1/2SM -RA BR OVC008 02/01 A2989 RMK AO2 RAB0756 P0003 T00220011=
202102160822 SPECI KPAE 160822Z AUTO 16004KT 4SM -RA BR OVC008 02/01 A2989 RMK AO2 RAB0756 P0002 T00220011=
202102160753 METAR KPAE 160753Z AUTO 17005KT 6SM BR OVC010 02/01 A2987 RMK AO2 SLP120 T00220011 400390000=
202102160653 METAR KPAE 160653Z AUTO 00000KT 10SM OVC014 02/02 A2984 RMK AO2 SLP109 T00220017=
202102160644 SPECI KPAE 160644Z AUTO 00000KT 10SM OVC014 02/02 A2983 RMK AO2 T00220017=
202102160553 METAR KPAE 160553Z AUTO 00000KT 10SM FEW003 BKN019 OVC050 02/02 A2981 RMK AO2 SLP098 60002 T00220017 10039 20022 53032=
202102160527 SPECI KPAE 160527Z AUTO 01006KT 10SM SCT002 OVC050 02/02 A2978 RMK AO2 T00220017=
202102160502 SPECI KPAE 160502Z AUTO 02006KT 7SM OVC002 02/02 A2977 RMK AO2 T00220017=
202102160453 METAR KPAE 160453Z 02008KT 2SM R16R/4000VP6000FT BR OVC002 02/02 A2977 RMK AO2 SLP085 T00220017=
202102160416 SPECI KPAE 160416Z 36006KT 2SM R16R/4000VP6000FT BR BKN003 OVC008 03/02 A2975 RMK AO2 T00280022=
202102160353 METAR KPAE 160353Z 36006KT 1/2SM R16R/3500VP6000FT FG VV001 03/02 A2974 RMK AO2 SLP077 T00280022=
202102160345 SPECI KPAE 160345Z 35004KT 1/4SM R16R/1200VP6000FT FG VV001 03/02 A2974 RMK AO2 T00280022=
202102160253 METAR KPAE 160253Z 35007KT 1/4SM R16R/1200FT FG VV001 03/02 A2971 RMK AO2 SLP065 60002 T00280022 53038=
202102160153 METAR KPAE 160153Z 34006KT 1/4SM R16R/1000V1200FT FG VV001 03/02 A2966 RMK AO2 RAE23UPB23E25 SLP050 P0001 T00280022=
202102160053 METAR KPAE 160053Z 35004KT M1/4SM R16R/0800V1000FT -RA FG VV001 03/03 A2963 RMK AO2 RAB13 SLP037 P0001 T00280028=
202102152353 METAR KPAE 152353Z 00000KT M1/4SM R16R/0800V1000FT FG VV001 04/03 A2960 RMK AO2 RAE17 SLP026 P0001 60005 T00390028 10039 20011 53018=
202102152253 METAR KPAE 152253Z 00000KT 1/4SM R16R/1000V1200FT -RA FG VV001 04/03 A2957 RMK AO2 RAE02B29 SLP017 P0001 T00390033=
202102152237 SPECI KPAE 152237Z 00000KT M1/4SM R16R/0700V0800FT -RA FG OVC001 04/03 A2956 RMK AO2 RAE02B29 P0000 T00390033=
202102152233 SPECI KPAE 152233Z 00000KT M1/4SM R16R/0700V1000FT -RA FG OVC002 04/03 A2956 RMK AO2 RAE02B29 P0000 T00390033=
202102152153 METAR KPAE 152153Z 16004KT 1SM R16R/P6000FT -RA BR OVC003 03/03 A2954 RMK AO2 RAB2058UPB04E14 SLP008 P0002 T00330028=
202102152116 SPECI KPAE 152116Z 14005KT 1/2SM R16R/4000VP6000FT -RA FG OVC002 03/02 A2954 RMK AO2 RAB2058UPB04E14 P0000 T00280017=
202102152053 METAR KPAE 152053Z VRB04KT 1SM R16R/6000VP6000FT BR OVC002 02/02 A2954 RMK AO2 RAE1958B24E43UPB08E19B40E41 SLP008 P0001 60001 T00220017 56002=
202102151953 METAR KPAE 151953Z 13004KT 1SM R16R/5500VP6000FT -RA BR OVC002 01/01 A2954 RMK AO2 UPB21E47RAB23 SLP008 P0000 T00110006=
202102151853 METAR KPAE 151853Z 12007KT 1SM R16R/P6000FT BR OVC003 01/00 A2954 RMK AO2 SLP009 T00110000=
202102151824 SPECI KPAE 151824Z 11006KT 1 3/4SM R16R/4500VP6000FT BR OVC002 01/00 A2954 RMK AO2 T00060000=
202102151811 SPECI KPAE 151811Z 11007KT 3SM BR OVC004 01/00 A2955 RMK AO2 CIG 002V006 T00060000=
202102151753 METAR KPAE 151753Z 11008KT 1SM R16R/5000VP6000FT BR OVC003 01/00 A2955 RMK AO2 CIG 002V007 SLP010 60005 I1000 I6011 T00060000 10006 20000 50005=
202102151707 SPECI KPAE 151707Z 12009KT 1SM R16R/5500VP6000FT BR OVC003 00/M01 A2955 RMK AO2 CIG 002V005 I1000 T00001006=
202102151700 SPECI KPAE 151700Z 11009KT 3SM BR OVC003 00/M01 A2955 RMK AO2 CIG 002V006 I1000 T00001006=
202102151653 METAR KPAE 151653Z 11009KT 1SM R16R/P6000FT BR OVC003 00/M01 A2955 RMK AO2 SLP012 I1001 T00001006=
202102151556 SPECI KPAE 151556Z 11009KT 1SM R16R/P6000FT BR BKN003 BKN008 OVC014 00/M01 A2953 RMK AO2 I1001 T00001006=
202102151553 METAR KPAE 151553Z 11008KT 2SM BR FEW003 OVC017 00/M01 A2953 RMK AO2 SLP006 I1006 T00001006=
202102151535 SPECI KPAE 151535Z 12006KT 2SM BR FEW003 OVC017 01/M01 A2953 RMK AO2 I1006 T00061006=
202102151453 METAR KPAE 151453Z VRB05KT 3SM BR FEW003 OVC017 00/M01 A2953 RMK AO2 FZRAE1359 SLP006 P0000 60005 I1002 I3004 T00001006 56008=
202102151441 SPECI KPAE 151441Z AUTO 12008KT 2 1/2SM BR FEW003 OVC018 00/M01 A2953 RMK AO2 FZRAE1359 P0000 I1002 T00001006=
202102151405 SPECI KPAE 151405Z AUTO 12007KT 8SM FEW003 OVC020 00/M01 A2954 RMK AO2 FZRAE1359 P0000 I1000 T00001011=
202102151353 METAR KPAE 151353Z AUTO 12010KT 9SM -FZRA FEW003 OVC019 00/M01 A2954 RMK AO2 UPE1255B38E44FZRAB1255E33B44 SLP007 P0003 I1001 T00001011=
202102151350 SPECI KPAE 151350Z AUTO 12012KT 9SM -FZRA FEW003 BKN019 OVC030 00/M01 A2954 RMK AO2 UPE1255B38E44FZRAB1255E33B44 P0003 I1001=
202102151339 SPECI KPAE 151339Z AUTO 12011KT 10SM UP SCT004 BKN019 OVC030 00/M01 A2954 RMK AO2 UPE1255B38FZRAB1255E33 P0002 I1001 T00001011=
202102151301 SPECI KPAE 151301Z AUTO 11010KT 7SM -FZRA SCT002 BKN020 OVC033 00/M01 A2955 RMK AO2 UPE1255FZRAB1255 P0001 I1000 T00001011=
202102151253 METAR KPAE 151253Z AUTO 11008KT 8SM UP SCT002 BKN018 OVC065 00/M01 A2956 RMK AO2 RAE28UPB07E09B28 SLP013 P0002 I1001 T00001011=
202102151236 SPECI KPAE 151236Z AUTO 11010KT 10SM UP FEW004 BKN037 OVC065 00/M01 A2956 RMK AO2 RAE28UPB07E09B28 P0002 I1000 T00001006=
202102151229 SPECI KPAE 151229Z AUTO 12010KT 8SM UP FEW004 BKN027 OVC065 00/M01 A2956 RMK AO2 RAE28UPB07E09B28 P0002 I1000 T00001006=
202102151153 METAR KPAE 151153Z AUTO 13005KT 10SM -RA BKN018 OVC034 01/M01 A2958 RMK AO2 RAE05B27UPB05E27 SLP022 P0002 60010 70026 T00061006 10011 20000 56023=
202102151126 SPECI KPAE 151126Z AUTO 13006KT 10SM UP FEW003 SCT019 OVC044 01/M01 A2958 RMK AO2 RAE05UPB05 P0000 T00061006=
202102151107 SPECI KPAE 151107Z AUTO VRB05KT 10SM UP FEW003 BKN020 OVC039 00/M01 A2960 RMK AO2 RAE05UPB05 P0000 T00001006=
202102151053 METAR KPAE 151053Z AUTO 11010KT 9SM -RA BKN022 BKN026 OVC033 01/M01 A2960 RMK AO2 SLP027 P0003 T00061006=
202102151024 SPECI KPAE 151024Z AUTO 12008G16KT 090V150 10SM -RA SCT016 OVC024 01/M01 A2961 RMK AO2 P0001 T00061006=
202102150953 METAR KPAE 150953Z AUTO VRB06KT 7SM -RA BKN012 OVC019 01/M01 A2962 RMK AO2 UPB20E29 SLP037 P0002 T00061006=
202102150908 SPECI KPAE 150908Z AUTO 14005KT 10SM -RA FEW005 BKN012 OVC021 01/M01 A2964 RMK AO2 P0000 T00061006=
202102150853 METAR KPAE 150853Z AUTO VRB06G15KT 10SM -RA FEW012 BKN021 OVC060 01/M01 A2965 RMK AO2 UPB22E36B50E52RAB24 SLP046 P0001 60003 T00061006 58018=
202102150843 SPECI KPAE 150843Z AUTO 14008G15KT 110V170 10SM -RA FEW012 BKN021 OVC055 01/M01 A2966 RMK AO2 UPB22E36RAB24 P0001 T00061006=
202102150820 SPECI KPAE 150820Z AUTO 14009G16KT 7SM SCT004 BKN012 OVC021 01/M01 A2967 RMK AO2 T00061006=
202102150800 SPECI KPAE 150800Z AUTO VRB06KT 4SM BR BKN004 BKN010 OVC013 01/M01 A2967 RMK AO2 T00061006=
202102150753 METAR KPAE 150753Z AUTO 13005KT 4SM BR BKN005 OVC010 01/M01 A2967 RMK AO2 RAE37UPB35E36 SLP053 P0001 T00061006 400061022=
202102150736 SPECI KPAE 150736Z AUTO VRB06KT 6SM -RA BR BKN005 OVC012 01/M01 A2967 RMK AO2 UPB35E36 CIG 004V010 P0001 T00061006=
202102150704 SPECI KPAE 150704Z AUTO VRB05KT 8SM -RA FEW003 OVC014 01/M01 A2968 RMK AO2 P0001 T00061006=
202102150653 METAR KPAE 150653Z AUTO 13006KT 9SM -RA OVC017 01/M01 A2969 RMK AO2 UPB0558E00RAB00 SLP059 P0001 T00061006=
202102150553 METAR KPAE 150553Z AUTO 14010G16KT 4SM BR SCT004 SCT011 OVC028 01/M01 A2970 RMK AO2 FZRAE12 SLP065 P0000 60001 I1001 I6007 T00061006 10006 20000 56004=
202102150542 SPECI KPAE 150542Z AUTO 14008KT 5SM BR SCT003 BKN008 OVC026 01/M01 A2971 RMK AO2 FZRAE12 P0000 I1001 T00061006=
202102150533 SPECI KPAE 150533Z AUTO 13009KT 6SM BR SCT003 SCT008 OVC029 01/M01 A2971 RMK AO2 FZRAE12 P0000 I1001 T00061006=
202102150512 SPECI KPAE 150512Z AUTO 13007KT 100V160 3SM BR BKN003 BKN020 OVC031 01/M01 A2971 RMK AO2 FZRAE12 P0000 I1001 T00061006=
202102150500 SPECI KPAE 150500Z AUTO VRB06KT 2 1/2SM -FZRA BR BKN003 OVC018 01/M01 A2970 RMK AO2 P0000 I1001 T00061006=
202102150453 METAR KPAE 150453Z 13005KT 1 1/2SM -FZRA BR BKN003 OVC027 00/M01 A2970 RMK AO2 FZRAB24E33B41 SLP064 P0001 I1002 T00001006=
202102150439 SPECI KPAE 150439Z 14006KT 1 1/2SM BR BKN003 OVC027 00/M01 A2971 RMK AO2 FZRAB24E33 P0000 I1002 T00001006=
202102150430 SPECI KPAE 150430Z 13005KT 1 1/2SM -FZRA BR BKN003 OVC027 00/M01 A2971 RMK AO2 FZRAB24 P0000 I1001 T00001006=
202102150413 SPECI KPAE 150413Z VRB06KT 1 1/2SM BR BKN003 OVC027 01/M01 A2971 RMK AO2 T00061006=
202102150403 SPECI KPAE 150403Z 12006KT 1 1/2SM BR SCT003 OVC027 01/M01 A2971 RMK AO2 T00061006=
202102150400 SPECI KPAE 150400Z 13006KT 3SM BR BKN003 OVC029 01/M01 A2971 RMK AO2 T00061006=
202102150353 METAR KPAE 150353Z VRB05G14KT 1 1/2SM BR BKN003 OVC030 01/M01 A2972 RMK AO2 SLP069 I1002 T00061006=
202102150253 METAR KPAE 150253Z 12007KT 1 1/2SM BR BKN003 BKN028 OVC035 00/M01 A2974 RMK AO2 SLP076 I1001 I3002 T00001011 56025=
202102150200 SPECI KPAE 150200Z 12009KT 1 1/2SM BR BKN003 BKN028 OVC035 00/M01 A2975 RMK AO2 T00001011=
202102150153 METAR KPAE 150153Z 12009KT 3SM BR BKN004 OVC016 00/M01 A2975 RMK AO2 SLP081 I1001 T00001011=
202102150053 METAR KPAE 150053Z 12008KT 3SM BR BKN004 OVC016 00/M02 A2978 RMK AO2 SLP090 T00001017=
202102150003 SPECI KPAE 150003Z 11010KT 3SM BR BKN004 OVC016 00/M02 A2981 RMK AO2 T00001017=
202102150000 SPECI KPAE 150000Z 12009KT 8SM FEW004 FEW016 OVC031 00/M02 A2981 RMK AO2 T00001017=
202102142353 METAR KPAE 142353Z 11010KT 2SM BR BKN008 OVC027 00/M02 A2981 RMK AO2 UPB26E28SNE26 SLP101 P0002 60011 T00001017 10000 21017 56020=
202102142304 SPECI KPAE 142304Z 11009KT 2SM -SN BR BKN008 OVC027 M01/M02 A2983 RMK AO2 P0001 T10061017=
202102142257 SPECI KPAE 142257Z 11009KT 3SM -SN BR OVC027 M01/M02 A2982 RMK AO2 P0001 T10061017=
202102142253 METAR KPAE 142253Z 11010KT 1SM R16R/P6000FT -SN BR OVC027 M01/M02 A2982 RMK AO2 SLP106 P0003 T10061017=
202102142200 SPECI KPAE 142200Z VRB04KT 1SM R16R/5500VP6000FT -SN BR FEW005 OVC025 M01/M02 A2984 RMK AO2 P0000 T10061017=
202102142153 METAR KPAE 142153Z VRB04KT 2SM R16R/6000VP6000FT -SN BR BKN005 BKN037 OVC047 M01/M02 A2984 RMK AO2 SLP112 P0001 T10061017=
202102142100 SPECI KPAE 142100Z 12009G15KT 2 1/2SM -SN BR BKN005 BKN037 OVC047 M01/M02 A2987 RMK AO2 P0000 T10111022=
202102142053 METAR KPAE 142053Z 11010KT 1/2SM R16R/P6000FT -SN FZFG VV013 M01/M02 A2987 RMK AO2 SLP122 P0001 60005 T10111022 58012=
202102141953 METAR KPAE 141953Z 12008KT 1/2SM R16R/3000V3500FT SN FZFG VV013 M01/M02 A2992 RMK AO2 SLP137 P0003 T10111022=
202102141951 SPECI KPAE 141951Z 12006KT 1/2SM R16R/3000V4000FT SN FZFG VV013 M01/M02 A2992 RMK AO2 P0003=
202102141940 SPECI KPAE 141940Z VRB04KT 3/4SM R16R/3500VP6000FT -SN BR BKN015 OVC026 M01/M02 A2992 RMK AO2 P0002 T10111022=
202102141853 METAR KPAE 141853Z 11009KT 1 1/2SM -SN BR OVC029 M02/M03 A2991 RMK AO2 SLP134 P0001 T10171028=
202102141839 SPECI KPAE 141839Z 12008G15KT 1 1/4SM -SN BR OVC027 M02/M03 A2991 RMK AO2 P0001 T10171028=
202102141802 SPECI KPAE 141802Z 12008KT 3/4SM R16R/4000VP6000FT -SN BR OVC024 M02/M03 A2993 RMK AO2 P0000 T10171033=
202102141753 METAR KPAE 141753Z 12008KT 1SM R16R/5500VP6000FT -SN BR OVC024 M02/M03 A2992 RMK AO2 SLP140 P0002 60004 T10171033 11011 21022 58003=
202102141653 METAR KPAE 141653Z 12008G14KT 3/4SM R16R/5000VP6000FT -SN BR BKN017 OVC023 M02/M03 A2993 RMK AO2 SLP142 P0002 T10171033=
202102141553 METAR KPAE 141553Z VRB05KT 1SM R16R/P6000FT -SN OVC021 M02/M04 A2993 RMK AO2 SNB05 SLP142 P0000 T10171044=
202102141537 SPECI KPAE 141537Z 12007KT 1SM R16R/P6000FT -SN OVC025 M02/M04 A2992 RMK AO2 SNB05 P0000 T10171044=
202102141528 SPECI KPAE 141528Z 12005KT 2 1/2SM -SN OVC029 M02/M05 A2993 RMK AO2 SNB05 P0000 T10171050=
202102141453 METAR KPAE 141453Z VRB06KT 10SM SCT028 OVC041 M01/M05 A2993 RMK AO2 SLP143 T10111050 55014=
202102141353 METAR KPAE 141353Z AUTO 12007KT 10SM OVC027 M01/M06 A2993 RMK AO2 SLP141 T10111056=
202102141253 METAR KPAE 141253Z AUTO 12009KT 10SM OVC026 M01/M06 A2995 RMK AO2 SLP148 T10111061=
202102141153 METAR KPAE 141153Z AUTO 11009KT 10SM OVC022 M01/M07 A2997 RMK AO2 SLP157 70036 T10111067 11011 21017 58006=
202102141053 METAR KPAE 141053Z AUTO 12007KT 10SM BKN029 OVC037 M01/M07 A2999 RMK AO2 SLP162 T10111067=
202102140953 METAR KPAE 140953Z AUTO 12007KT 10SM OVC035 M02/M06 A2999 RMK AO2 SLP161 T10171061=
202102140853 METAR KPAE 140853Z AUTO 12007KT 10SM OVC035 M02/M07 A2999 RMK AO2 SLP163 T10171067 58002=
202102140753 METAR KPAE 140753Z AUTO 11007KT 10SM OVC030 M02/M07 A3001 RMK AO2 SLP170 T10171067 410171044=
202102140653 METAR KPAE 140653Z AUTO 12007KT 10SM OVC031 M02/M06 A3002 RMK AO2 SLP175 T10171061=
202102140613 SPECI KPAE 140613Z AUTO 11007KT 10SM SCT024 OVC034 M02/M06 A2999 RMK AO2 T10171061=
202102140553 METAR KPAE 140553Z AUTO 12007KT 10SM OVC023 M02/M06 A3000 RMK AO2 SLP166 60002 T10171061 11017 21022 51008=
202102140453 METAR KPAE 140453Z 12007KT 10SM OVC026 M02/M05 A2999 RMK AO2 SLP164 T10171050=
202102140353 METAR KPAE 140353Z 12004KT 10SM OVC025 M02/M04 A2999 RMK AO2 SLP162 T10221044=
202102140253 METAR KPAE 140253Z 14005KT 9SM BKN004 BKN024 OVC060 M02/M05 A2997 RMK AO2 SNE47 SLP157 P0001 60002 T10221050 51014=
202102140230 SPECI KPAE 140230Z 13006KT 5SM -SN BR BKN004 BKN024 OVC060 M02/M04 A2996 RMK AO2 P0001 T10221044=
202102140153 METAR KPAE 140153Z 14005KT 2 1/2SM -SN BR BKN004 OVC011 M02/M04 A2995 RMK AO2 SLP151 P0000 T10221044=
202102140150 SPECI KPAE 140150Z 14007KT 090V180 2 1/2SM -SN BR BKN004 OVC011 M02/M04 A2995 RMK AO2 P0000=
202102140136 SPECI KPAE 140136Z VRB05KT 1SM R16R/P6000FT -SN BR BKN004 OVC011 M02/M04 A2994 RMK AO2 P0000 T10221039=
202102140100 SPECI KPAE 140100Z VRB04KT 1/2SM R16R/4500V5500FT SN FZFG BKN004 OVC011 M02/M04 A2993 RMK AO2 P0000 T10171039=
202102140053 METAR KPAE 140053Z 14004KT 1/2SM R16R/4000V5000FT SN FZFG SCT007 OVC011 M02/M04 A2993 RMK AO2 SLP143 P0001 T10171039=
202102140034 SPECI KPAE 140034Z 14005KT 3/4SM R16R/5000VP6000FT -SN BR SCT007 BKN014 OVC024 M02/M03 A2992 RMK AO2 P0000 T10171033=
202102140027 SPECI KPAE 140027Z 13003KT 1SM R16R/5500VP6000FT -SN BR BKN007 BKN014 OVC022 M02/M03 A2992 RMK AO2 P0000 T10171033=
202102132353 METAR KPAE 132353Z 15010KT 2SM -SN BR BKN007 BKN015 OVC022 M02/M03 A2991 RMK AO2 SNB26 SLP136 P0000 60015 I6000 T10171033 11017 21033 51029=
202102132331 SPECI KPAE 132331Z VRB04KT 1 3/4SM -SN BR BKN007 BKN012 OVC019 M02/M03 A2990 RMK AO2 SNB26 P0000 T10171033=
202102132253 METAR KPAE 132253Z VRB06KT 8SM BKN008 OVC020 M02/M03 A2988 RMK AO2 SNE51 SLP127 P0002 T10171033=
202102132251 SPECI KPAE 132251Z 14006KT 7SM BKN008 OVC020 M02/M03 A2988 RMK AO2 SNE51 P0001=
202102132245 SPECI KPAE 132245Z VRB06KT 2SM -SN BR BKN014 BKN024 OVC031 M02/M03 A2988 RMK AO2 P0001 T10171033=
202102132153 METAR KPAE 132153Z 12005KT 1/2SM R16R/4000V5500FT SN FZFG BKN014 BKN024 OVC031 M02/M03 A2985 RMK AO2 SLP117 P0003 T10171033=
202102132123 SPECI KPAE 132123Z 14007G17KT 1/2SM R16R/4500VP6000FT -SN FZFG BKN014 OVC033 M02/M04 A2984 RMK AO2 P0001 T10171039=
202102132100 SPECI KPAE 132100Z 14009G17KT 3/4SM R16R/3500V6000FT -SN BR FEW007 BKN017 OVC033 M02/M03 A2982 RMK AO2 P0000 T10221033=
202102132053 METAR KPAE 132053Z 14006KT 1 1/2SM R16R/5500VP6000FT SN BR BKN033 OVC042 M02/M04 A2982 RMK AO2 UPE05FZRAB05E16SNB16 SLP107 P0002 60010 I1000 I3000 T10221039 51027=
202102132015 SPECI KPAE 132015Z 12010KT 1 3/4SM UP BR OVC037 M03/M04 A2981 RMK AO2 UPE05FZRAB05 P0001 I1000 T10281039=
202102132011 SPECI KPAE 132011Z 12008KT 2SM -FZRA BR OVC037 M03/M04 A2981 RMK AO2 UPE05FZRAB05 P0001 I1000 T10281039=
202102131953 METAR KPAE 131953Z 12010KT 1 1/2SM UP BR BKN033 OVC042 M03/M04 A2981 RMK AO2 UPB43SNE43 SLP100 P0004 I1000 T10281039=
202102131853 METAR KPAE 131853Z 12007KT 1 3/4SM R16R/6000VP6000FT -SN BR SCT028 OVC037 M03/M04 A2978 RMK AO2 UPB1755E07FZRAB07E10SNB10 SLP090 P0004 I1000 T10331044=
202102131810 SPECI KPAE 131810Z 12008KT 1 3/4SM -SN BR FEW005 OVC042 M03/M04 A2975 RMK AO2 UPB1755E07FZRAB07E10SNB10 P0001 I1000 T10331044=
202102131753 METAR KPAE 131753Z 12007KT 1 3/4SM BR OVC042 M03/M05 A2974 RMK AO2 SNE53 SLP079 P0002 60019 T10331050 11033 21039 51026=
202102131708 SPECI KPAE 131708Z 12009KT 1SM R16R/P6000FT -SN BR BKN025 BKN036 OVC043 M04/M06 A2972 RMK AO2 P0001 T10391056=
202102131653 METAR KPAE 131653Z 12008KT 1/2SM R16R/5500VP6000FT -SN FZFG VV020 M04/M06 A2972 RMK AO2 SLP070 P0006 T10391056=
202102131646 SPECI KPAE 131646Z 12009KT 1/2SM R16R/4500V5500FT -SN FZFG VV017 M04/M06 A2971 RMK AO2 P0005 T10391056=
202102131553 METAR KPAE 131553Z 12005KT 3/4SM R16R/5000V6000FT -SN BR VV012 M03/M05 A2969 RMK AO2 SLP062 P0002 T10331050=
202102131453 METAR KPAE 131453Z VRB05KT 3/4SM R16R/P6000FT -SN BR VV012 M03/M05 A2966 RMK AO2 SLP052 P0005 60009 T10331050 51016=
202102131448 SPECI KPAE 131448Z 12006KT 3/4SM R16R/6000VP6000FT -SN BR VV011 M03/M05 A2966 RMK AO2 P0004=
202102131414 SPECI KPAE 131414Z VRB04KT 1/2SM R16R/4500V5500FT -SN FZFG VV009 M04/M05 A2965 RMK AO2 P0002 T10391050=
202102131353 METAR KPAE 131353Z 14003KT 3/4SM R16R/P6000FT -SN BR VV010 M04/M05 A2964 RMK AO2 SLP044 P0003 T10391050=
202102131344 SPECI KPAE 131344Z VRB04KT 3/4SM R16R/P6000FT -SN BR VV010 M04/M05 A2963 RMK AO2 P0003 T10391050=
202102131328 SPECI KPAE 131328Z 11008KT 1/2SM R16R/5500V6000FT SN FZFG VV009 M04/M06 A2962 RMK AO2 P0002 T10391056=
202102131306 SPECI KPAE 131306Z VRB04KT 3/4SM R16R/5500VP6000FT -SN BR VV012 M04/M06 A2962 RMK AO2 P0001 T10391056=
202102131253 METAR KPAE 131253Z VRB06KT 1SM R16R/P6000FT -SN BR VV014 M04/M06 A2962 RMK AO2 SLP036 P0001 T10391056=
202102131205 SPECI KPAE 131205Z 11012G17KT 1 1/4SM -SN BR OVC015 M04/M06 A2961 RMK AO2 P0000 T10391061=
202102131153 METAR KPAE 131153Z 12007G17KT 1SM R16R/P6000FT -SN BR VV014 M04/M06 A2962 RMK AO2 SLP036 P0002 60013 70017 T10391061 11039 21044 56027=
202102131150 SPECI KPAE 131150Z 11009KT 1SM R16R/P6000FT -SN BR VV013 M04/M06 A2962 RMK AO2 P0002=
202102131053 METAR KPAE 131053Z 11011G21KT 1 3/4SM -SN BR OVC019 M04/M07 A2965 RMK AO2 PRESFR SLP047 P0000 T10441067=
202102130953 METAR KPAE 130953Z 11010G18KT 1 1/4SM -SN BR FEW007 OVC019 M04/M06 A2970 RMK AO2 SLP064 P0001 T10441061=
202102130946 SPECI KPAE 130946Z 11010G15KT 1 1/2SM -SN BR FEW007 OVC019 M04/M06 A2970 RMK AO2 P0001 T10441061=
202102130901 SPECI KPAE 130901Z 11012G18KT 1 1/4SM -SN BR OVC016 M04/M06 A2973 RMK AO2 P0000 T10441061=
202102130853 METAR KPAE 130853Z 11012G18KT 1SM R16R/P6000FT -SN BR VV014 M04/M06 A2974 RMK AO2 SLP077 P0002 60010 T10441061 58034=
202102130839 SPECI KPAE 130839Z 11012G19KT 1SM R16R/P6000FT -SN BR FEW006 OVC014 M04/M06 A2975 RMK AO2 P0002 T10441061=
202102130834 SPECI KPAE 130834Z 10013KT 3/4SM R16R/P6000FT -SN BR FEW007 OVC015 M04/M06 A2975 RMK AO2 P0001 T10441061=
202102130819 SPECI KPAE 130819Z 11010G17KT 1SM R16R/P6000FT -SN BR FEW005 OVC014 M04/M06 A2976 RMK AO2 P0001 T10441061=
202102130753 METAR KPAE 130753Z 12007KT 1SM R16R/P6000FT -SN BR VV012 M04/M06 A2978 RMK AO2 SLP090 P0003 T10441061 400001044=
202102130727 SPECI KPAE 130727Z 11009G17KT 3/4SM R16R/P6000FT -SN BR VV012 M04/M06 A2979 RMK AO2 P0002 T10441061=
202102130709 SPECI KPAE 130709Z 12007KT 1SM R16R/P6000FT -SN BR VV012 M04/M06 A2980 RMK AO2 P0001 T10391056=
202102130653 METAR KPAE 130653Z 11009KT 3/4SM R16R/P6000FT -SN BR VV010 M04/M06 A2981 RMK AO2 SLP103 P0005 T10391056=
202102130553 METAR KPAE 130553Z VRB03KT 3/4SM R16R/P6000FT -SN BR VV011 M04/M06 A2984 RMK AO2 SLP111 P0003 60004 T10391056 11006 21039 56018=
202102130537 SPECI KPAE 130537Z VRB05KT 1SM R16R/P6000FT -SN BR VV013 M04/M06 A2984 RMK AO2 P0002 T10391061=
202102130505 SPECI KPAE 130505Z VRB03KT 1 3/4SM -SN OVC026 M03/M06 A2985 RMK AO2 P0000 T10331061=
202102130456 SPECI KPAE 130456Z VRB05KT 1 3/4SM -SN OVC030 M03/M06 A2986 RMK AO2 P0000 T10331061=
202102130453 METAR KPAE 130453Z VRB06KT 3SM -SN BKN009 OVC027 M03/M06 A2986 RMK AO2 SLP119 P0001 T10331061=
202102130424 SPECI KPAE 130424Z 10005KT 3SM -SN BR BKN009 OVC027 M03/M05 A2987 RMK AO2 P0001 T10281050=
202102130408 SPECI KPAE 130408Z 10005KT 3SM -SN BR OVC011 M03/M06 A2988 RMK AO2 P0001 T10331056=
202102130400 SPECI KPAE 130400Z 15003KT 2SM -SN BR BKN009 BKN015 OVC029 M03/M06 A2989 RMK AO2 P0000 T10331056=
202102130353 METAR KPAE 130353Z 15005KT 3SM -SN OVC032 M03/M06 A2989 RMK AO2 SLP130 P0000 T10281056=
202102130318 SPECI KPAE 130318Z 10003KT 3SM -SN OVC032 M03/M06 A2991 RMK AO2 P0000 T10281061=
202102130304 SPECI KPAE 130304Z 17003KT 2 1/2SM -SN OVC028 M03/M06 A2992 RMK AO2 P0000 T10281061=
202102130253 METAR KPAE 130253Z 14003KT 3SM -SN OVC032 M02/M06 A2992 RMK AO2 SNB32 SLP137 P0000 60000 T10221061 56025=
202102130153 METAR KPAE 130153Z 12006KT 10SM OVC044 M01/M11 A2994 RMK AO2 SLP146 T10111111=
202102130053 METAR KPAE 130053Z 10009KT 10SM BKN048 OVC060 M01/M12 A2996 RMK AO2 SLP153 T10111117=
202102122353 METAR KPAE 122353Z AUTO 10008KT 10SM BKN075 OVC085 M01/M11 A2999 RMK AO2 SLP164 T10061106 10000 21017 56023=
202102122253 METAR KPAE 122253Z 10009KT 10SM OVC095 M01/M10 A3001 RMK AO2 SLP170 T10061100=
202102122153 METAR KPAE 122153Z 09011G19KT 10SM OVC095 M01/M10 A3004 RMK AO2 SLP178 T10111100=
202102122053 METAR KPAE 122053Z 10011G17KT 10SM OVC100 M01/M10 A3006 RMK AO2 SLP187 T10111100 58005=
202102121953 METAR KPAE 121953Z 09010G16KT 10SM OVC048 00/M11 A3007 RMK AO2 SLP189 T00001106=
202102121853 METAR KPAE 121853Z 10012G17KT 10SM OVC049 M02/M12 A3007 RMK AO2 SLP190 T10171117=
202102121753 METAR KPAE 121753Z 09008KT 10SM BKN040 OVC048 M02/M11 A3008 RMK AO2 SLP192 T10171111 11011 21017 58001=
202102121653 METAR KPAE 121653Z 10008KT 10SM BKN039 OVC049 M02/M11 A3008 RMK AO2 SLP194 T10171111=
202102121553 METAR KPAE 121553Z VRB03KT 10SM OVC040 M02/M12 A3008 RMK AO2 SLP194 T10171117=
202102121453 METAR KPAE 121453Z 01003KT 10SM OVC047 M02/M08 A3008 RMK AO2 SLP192 T10171078 53014=
202102121353 METAR KPAE 121353Z AUTO 01005KT 10SM OVC045 M01/M09 A3007 RMK AO2 SLP190 T10111094=
202102121253 METAR KPAE 121253Z AUTO 06007KT 10SM OVC047 M01/M12 A3004 RMK AO2 SLP178 T10111122=
202102121153 METAR KPAE 121153Z AUTO 05009KT 10SM OVC048 M01/M11 A3004 RMK AO2 SLP178 T10111111 11011 21017 50002=
202102121053 METAR KPAE 121053Z AUTO 06006KT 10SM BKN050 BKN060 OVC075 M01/M11 A3004 RMK AO2 SLP179 T10111111=
202102120953 METAR KPAE 120953Z AUTO VRB04KT 10SM OVC050 M02/M08 A3005 RMK AO2 SLP181 T10171078=
202102120853 METAR KPAE 120853Z AUTO 03004KT 10SM OVC050 M02/M07 A3003 RMK AO2 SLP176 T10171072 50001=
202102120753 METAR KPAE 120753Z AUTO 04004KT 10SM BKN055 OVC085 M01/M08 A3003 RMK AO2 SLP177 T10111083 400001022=
202102120653 METAR KPAE 120653Z AUTO 01003KT 10SM FEW041 BKN060 OVC085 M02/M06 A3004 RMK AO2 SLP179 T10171061=
202102120553 METAR KPAE 120553Z AUTO VRB06KT 10SM OVC060 M01/M08 A3003 RMK AO2 SLP175 60000 T10111078 11006 21022 55000=
202102120453 METAR KPAE 120453Z 05007KT 360V080 10SM FEW044 BKN055 OVC070 M01/M08 A3002 RMK AO2 SLP173 T10111083=
202102120353 METAR KPAE 120353Z 36005KT 4SM HZ FEW032 BKN050 OVC070 M02/M06 A3002 RMK AO2 SNE51 SLP173 P0000 T10171056=
202102120253 METAR KPAE 120253Z 05006KT 4SM -SN OVC046 M02/M06 A3003 RMK AO2 SNB21 SLP176 P0000 60000 T10171061 55002=
202102120153 METAR KPAE 120153Z 05009KT 9SM FEW029 OVC044 M01/M07 A3003 RMK AO2 SLP174 T10061067=
202102120053 METAR KPAE 120053Z 36006KT 10SM OVC065 M01/M07 A3003 RMK AO2 SLP176 T10061072=
202102112353 METAR KPAE 112353Z 35005KT 10SM OVC060 M01/M07 A3004 RMK AO2 SLP178 T10061072 10000 21011 56010=
202102112253 METAR KPAE 112253Z 35007KT 10SM FEW055 OVC085 M01/M07 A3004 RMK AO2 SLP180 T10061067=
202102112153 METAR KPAE 112153Z 34009G14KT 10SM OVC070 M01/M07 A3005 RMK AO2 SLP184 T10061067=
202102112053 METAR KPAE 112053Z 36009KT 10SM OVC065 M01/M06 A3007 RMK AO2 SLP188 T10061061 57010=
202102111953 METAR KPAE 111953Z 36008KT 10SM OVC080 M01/M06 A3007 RMK AO2 SLP191 T10061056=
202102111853 METAR KPAE 111853Z 01007KT 10SM OVC065 M01/M06 A3009 RMK AO2 SLP194 T10061056=
202102111753 METAR KPAE 111753Z 35010KT 10SM BKN050 OVC060 M01/M05 A3010 RMK AO2 SLP197 T10061050 11006 21011 56005=
202102111653 METAR KPAE 111653Z 36005KT 10SM BKN060 OVC075 M01/M05 A3010 RMK AO2 SLP200 T10111050=
202102111553 METAR KPAE 111553Z 36007KT 10SM OVC070 M01/M06 A3010 RMK AO2 SLP198 T10111056=
202102111453 METAR KPAE 111453Z 35008KT 10SM OVC075 M01/M05 A3011 RMK AO2 SLP202 T10111050 58014=
202102111353 METAR KPAE 111353Z AUTO 01004KT 10SM OVC065 M01/M04 A3013 RMK AO2 SLP210 T10111044=
202102111253 METAR KPAE 111253Z AUTO 35005KT 10SM FEW038 SCT060 OVC075 M01/M04 A3014 RMK AO2 SLP213 T10111044=
202102111153 METAR KPAE 111153Z AUTO 35005KT 10SM BKN038 OVC070 M01/M04 A3015 RMK AO2 SLP216 T10111039 10000 21017 58007=
202102111053 METAR KPAE 111053Z AUTO 35006KT 10SM OVC048 M01/M04 A3016 RMK AO2 SLP220 T10111039=
202102110953 METAR KPAE 110953Z AUTO 36005KT 10SM FEW037 OVC050 M01/M04 A3017 RMK AO2 SLP223 T10061039=
202102110853 METAR KPAE 110853Z AUTO 36005KT 9SM OVC050 M01/M03 A3017 RMK AO2 SLP224 T10061033 53003=
202102110753 METAR KPAE 110753Z AUTO 36005KT 10SM OVC070 M01/M03 A3017 RMK AO2 SLP222 T10061033 400441022=
202102110653 METAR KPAE 110653Z AUTO 36007KT 10SM OVC070 00/M03 A3017 RMK AO2 SLP221 T00001028=
202102110553 METAR KPAE 110553Z AUTO 35004KT 10SM OVC070 00/M03 A3016 RMK AO2 SLP221 T00001028 10039 20000 55002=
202102110453 METAR KPAE 110453Z 02005KT 10SM OVC070 01/M02 A3015 RMK AO2 SLP216 T00111022=
202102110353 METAR KPAE 110353Z 02005KT 10SM OVC070 02/M02 A3016 RMK AO2 SLP219 T00171017=
202102110253 METAR KPAE 110253Z 02005KT 10SM SCT040 OVC055 02/M02 A3017 RMK AO2 SLP223 T00171017 50001=
202102110153 METAR KPAE 110153Z 01004KT 10SM OVC070 02/M02 A3017 RMK AO2 SLP223 T00221017=
202102110053 METAR KPAE 110053Z 35003KT 10SM OVC070 03/M02 A3017 RMK AO2 SLP222 T00281017=
202102102353 METAR KPAE 102353Z 14004KT 10SM SCT032 OVC075 04/M04 A3017 RMK AO2 SLP222 T00391039 10044 20000 55003=
202102102253 METAR KPAE 102253Z 11003KT 10SM SCT026 OVC070 04/M03 A3017 RMK AO2 SLP222 T00391033=
202102102153 METAR KPAE 102153Z 00000KT 10SM FEW026 BKN051 OVC075 04/M02 A3017 RMK AO2 SLP224 T00391022=
202102102053 METAR KPAE 102053Z 00000KT 10SM FEW026 BKN070 03/M03 A3018 RMK AO2 SLP225 T00331033 50000=
202102101953 METAR KPAE 101953Z 16005KT 10SM OVC070 03/M02 A3019 RMK AO2 SLP230 T00331022=
202102101853 METAR KPAE 101853Z 16006KT 10SM BKN070 02/M02 A3019 RMK AO2 SLP228 T00171022=
202102101753 METAR KPAE 101753Z 15005KT 10SM SCT060 00/M03 A3018 RMK AO2 SLP224 T00001028 10000 21017 50004=
202102101653 METAR KPAE 101653Z 15006KT 10SM BKN039 OVC060 M01/M03 A3018 RMK AO2 SLP226 T10111033=
202102101553 METAR KPAE 101553Z 17004KT 10SM OVC060 M02/M04 A3017 RMK AO2 SLP224 T10171039=
202102101453 METAR KPAE 101453Z AUTO VRB03KT 10SM CLR M02/M04 A3016 RMK AO2 SLP220 T10171039 51003=
202102101353 METAR KPAE 101353Z AUTO 11006KT 10SM BKN055 M02/M04 A3016 RMK AO2 SLP220 T10171044=
202102101253 METAR KPAE 101253Z AUTO 00000KT 10SM CLR M02/M04 A3017 RMK AO2 SLP222 T10171039=
202102101153 METAR KPAE 101153Z AUTO 00000KT 10SM CLR M02/M04 A3015 RMK AO2 SLP217 T10171039 10011 21022 56000=
202102101053 METAR KPAE 101053Z AUTO 00000KT 10SM CLR M02/M04 A3016 RMK AO2 SLP217 T10171039=
202102100953 METAR KPAE 100953Z AUTO 00000KT 10SM CLR M01/M04 A3015 RMK AO2 SLP216 T10061044=
202102100853 METAR KPAE 100853Z AUTO 11004KT 10SM CLR 00/M04 A3016 RMK AO2 SLP217 T00001044 58004=
202102100753 METAR KPAE 100753Z AUTO 00000KT 10SM SCT055 00/M04 A3017 RMK AO2 SLP221 T00001044 400391011=
202102100653 METAR KPAE 100653Z AUTO 36003KT 10SM OVC055 01/M05 A3017 RMK AO2 SLP222 T00061050=
202102100553 METAR KPAE 100553Z AUTO 04003KT 10SM OVC060 01/M06 A3017 RMK AO2 SLP221 T00111056 10028 20011 58001=
202102100453 METAR KPAE 100453Z AUTO 01004KT 10SM OVC060 01/M06 A3017 RMK AO2 SLP222 T00111061=
202102100353 METAR KPAE 100353Z 02005KT 10SM OVC060 01/M04 A3017 RMK AO2 SLP223 T00111044=
202102100253 METAR KPAE 100253Z 01005KT 10SM CLR 01/M04 A3017 RMK AO2 SLP222 T00111039 53003=
202102100153 METAR KPAE 100153Z 35004KT 10SM OVC060 02/M03 A3016 RMK AO2 SLP220 T00171033=
202102100053 METAR KPAE 100053Z 35004KT 10SM SCT060 02/M03 A3016 RMK AO2 SLP219 T00171033=
202102092353 METAR KPAE 092353Z AUTO 35007KT 10SM CLR 03/M04 A3016 RMK AO2 SLP218 T00281039 10039 20011 55001=
202102092253 METAR KPAE 092253Z 35006KT 10SM CLR 04/M03 A3016 RMK AO2 SLP217 T00391033=
202102092153 METAR KPAE 092153Z 36006KT 10SM CLR 03/M03 A3016 RMK AO2 SLP217 T00331033=
202102092053 METAR KPAE 092053Z VRB04KT 10SM CLR 03/M03 A3016 RMK AO2 SLP219 T00331033 50001=
202102091953 METAR KPAE 091953Z 33006KT 10SM CLR 03/M03 A3017 RMK AO2 SLP222 T00281028=
202102091853 METAR KPAE 091853Z 01005KT 10SM FEW047 02/M03 A3017 RMK AO2 SLP221 T00221028=
202102091753 METAR KPAE 091753Z 35005KT 10SM CLR 01/M02 A3016 RMK AO2 SLP218 T00111022 10011 21011 53017=
202102091653 METAR KPAE 091653Z 36005KT 10SM CLR 01/M02 A3014 RMK AO2 SLP211 T00061022=
202102091553 METAR KPAE 091553Z 36003KT 10SM SCT065 M01/M03 A3012 RMK AO2 SLP207 T10061028=
202102091453 METAR KPAE 091453Z 34003KT 10SM OVC070 M01/M02 A3011 RMK AO2 SLP201 T10061022 53002=
202102091353 METAR KPAE 091353Z AUTO 00000KT 10SM OVC070 M01/M02 A3010 RMK AO2 SLP200 T10061017=
202102091253 METAR KPAE 091253Z AUTO 34003KT 10SM FEW005 OVC070 00/M02 A3010 RMK AO2 SLP200 T00001017=
202102091153 METAR KPAE 091153Z AUTO 35003KT 10SM OVC070 00/M02 A3010 RMK AO2 SLP198 60000 70005 T00001017 10022 20000 53000=
202102091053 METAR KPAE 091053Z AUTO 36004KT 10SM OVC070 01/M02 A3010 RMK AO2 SLP199 T00061017=
202102090953 METAR KPAE 090953Z AUTO 02005KT 10SM OVC065 01/M02 A3010 RMK AO2 SLP197 T00061017=
202102090853 METAR KPAE 090853Z AUTO 36005KT 10SM OVC060 01/M02 A3010 RMK AO2 SLP198 60000 T00111017 53004=
202102090753 METAR KPAE 090753Z AUTO 36005KT 10SM OVC055 02/M01 A3009 RMK AO2 SLP196 T00171006 400560000=
202102090653 METAR KPAE 090653Z AUTO 03004KT 10SM OVC055 02/00 A3009 RMK AO2 UPB40E53 SLP196 P0000 T00170000=
202102090553 METAR KPAE 090553Z AUTO 01003KT 10SM OVC049 02/M01 A3009 RMK AO2 SNB34E43 SLP194 P0000 60000 T00221011 10050 20022 53006=
202102090453 METAR KPAE 090453Z 02003KT 10SM OVC044 03/M01 A3008 RMK AO2 SLP190 T00281011=
202102090353 METAR KPAE 090353Z 06004KT 10SM FEW050 OVC070 03/M02 A3007 RMK AO2 SLP189 T00281017=
202102090253 METAR KPAE 090253Z 06003KT 10SM FEW055 OVC070 02/M01 A3007 RMK AO2 SLP188 T00221006 53003=
202102090153 METAR KPAE 090153Z 05005KT 10SM OVC070 03/M01 A3006 RMK AO2 SLP186 T00281006=
202102090053 METAR KPAE 090053Z 35004KT 10SM FEW027 BKN075 03/M01 A3006 RMK AO2 SLP184 T00331011=
202102090037 SPECI KPAE 090037Z 33003KT 10SM FEW025 03/M01 A3006 RMK AO2 T00331011=
202102082353 METAR KPAE 082353Z AUTO 34003KT 10SM SCT013 BKN022 OVC047 06/00 A3006 RMK AO2 SLP184 60005 T00560000 10056 20011 56002=
202102082311 SPECI KPAE 082311Z 00000KT 10SM SCT013 BKN022 OVC047 04/M01 A3006 RMK AO2 T00441011=
202102082253 METAR KPAE 082253Z 10003KT 10SM BKN013 BKN022 OVC065 04/M01 A3006 RMK AO2 SLP185 T00441006=
202102082153 METAR KPAE 082153Z 32003KT 10SM OVC022 04/01 A3006 RMK AO2 SLP185 T00440006=
202102082053 METAR KPAE 082053Z VRB03KT 10SM FEW009 SCT044 04/00 A3007 RMK AO2 SLP186 60005 T00440000 50000=
202102081953 METAR KPAE 081953Z VRB04KT 5SM BR FEW005 SCT009 OVC029 03/02 A3008 RMK AO2 SNE39 SLP190 P0003 T00330017=
202102081936 SPECI KPAE 081936Z 36003KT 5SM -SN BR VCFG FEW005 SCT009 OVC029 02/01 A3008 RMK AO2 P0003 T00170006=
202102081853 METAR KPAE 081853Z 00000KT 1 1/4SM -SN BR VCFG BKN004 OVC007 01/00 A3007 RMK AO2 SNB13 SLP188 P0002 T00110000=
202102081820 SPECI KPAE 081820Z 35004KT 1 3/4SM -SN BR VCFG BKN004 OVC007 01/00 A3007 RMK AO2 SNB13 P0000 T00110000=
202102081753 METAR KPAE 081753Z 36004KT 10SM VCFG SCT001 BKN007 02/02 A3007 RMK AO2 SLP186 T00220017 10022 20000 53012=
202102081700 SPECI KPAE 081700Z 00000KT 8SM VCFG FEW001 BKN013 OVC044 01/01 A3005 RMK AO2 T00110006=
202102081653 METAR KPAE 081653Z 00000KT 6SM R16R/2600VP6000FT BR BKN001 OVC034 01/01 A3005 RMK AO2 SLP181 T00110011=
202102081650 SPECI KPAE 081650Z 00000KT 4SM R16R/2200VP6000FT BR BKN001 OVC034 01/01 A3005 RMK AO2=
202102081603 SPECI KPAE 081603Z 15003KT 1/2SM R16R/1800V2400FT FG BKN001 OVC034 00/00 A3004 RMK AO2 T00000000=
202102081555 SPECI KPAE 081555Z 15003KT 1/4SM R16R/2000V3000FT FG SCT001 OVC034 00/00 A3004 RMK AO2 T00000000=
202102081553 METAR KPAE 081553Z 16003KT 1/2SM R16R/1800V3000FT FG BKN001 OVC034 00/M01 A3004 RMK AO2 SLP178 T00001006=
202102081535 SPECI KPAE 081535Z 14003KT 1/2SM R16R/1000V1600FT FG VV001 00/M01 A3004 RMK AO2 T00001006=
202102081527 SPECI KPAE 081527Z 13003KT 1/2SM R16R/1000V1600FT FG BKN002 BKN035 00/M01 A3004 RMK AO2 T00001006=
202102081520 SPECI KPAE 081520Z 15005KT 1/2SM R16R/1400VP6000FT FG FEW002 SCT035 00/M01 A3004 RMK AO2 T00001006=
202102081513 SPECI KPAE 081513Z 14003KT 1SM R16R/2800VP6000FT BR VV001 00/M01 A3003 RMK AO2 T00001006=
202102081503 SPECI KPAE 081503Z 00000KT 1SM R16R/2600V4000FT BR FEW001 SCT048 01/M01 A3003 RMK AO2 T00061006=
202102081453 METAR KPAE 081453Z 15004KT 8SM R16R/3000V5000FT SCT042 00/M01 A3003 RMK AO2 SLP174 T00001011 53007=
202102081442 SPECI KPAE 081442Z AUTO 00000KT 3SM R16R/3500VP6000FT BR FEW023 BKN043 BKN070 01/00 A3003 RMK AO2 T00060000=
202102081433 SPECI KPAE 081433Z AUTO 00000KT 1 1/4SM R16R/1600V3500FT BR FEW001 BKN041 OVC065 01/01 A3003 RMK AO2 T00060006=
202102081426 SPECI KPAE 081426Z AUTO 00000KT 3/4SM R16R/1200V2400FT BR SCT001 BKN023 OVC065 01/00 A3003 RMK AO2 T00060000=
202102081420 SPECI KPAE 081420Z AUTO 16003KT 1/2SM R16R/1200V1800FT FG BKN001 BKN023 OVC065 01/00 A3003 RMK AO2 T00060000=
202102081353 METAR KPAE 081353Z AUTO 17004KT 1/4SM R16R/1000V1200FT FG VV001 01/00 A3002 RMK AO2 SLP170 T00060000=
202102081345 SPECI KPAE 081345Z AUTO 16004KT 1/4SM R16R/1200V1600FT FG VV001 01/00 A3002 RMK AO2 T00060000=
202102081335 SPECI KPAE 081335Z AUTO 15005KT 1/2SM R16R/1400V1800FT FG VV001 01/00 A3001 RMK AO2 T00060000=
202102081328 SPECI KPAE 081328Z AUTO 15004KT 1/2SM R16R/1600V2600FT FG VV002 01/00 A3001 RMK AO2 T00060000=
202102081318 SPECI KPAE 081318Z AUTO 15004KT 3/4SM R16R/2400V3500FT BR SCT001 BKN007 OVC036 01/00 A3001 RMK AO2 T00060000=
202102081314 SPECI KPAE 081314Z AUTO 16004KT 1 3/4SM R16R/3000V4000FT BR BKN001 BKN028 OVC036 01/00 A3001 RMK AO2 T00060000=
202102081253 METAR KPAE 081253Z AUTO 16003KT 5SM R16R/2800V4000FT BR FEW001 OVC035 01/00 A3001 RMK AO2 SLP167 T00110000=
202102081249 SPECI KPAE 081249Z AUTO 15003KT 5SM R16R/3000V4000FT BR FEW001 BKN035 01/00 A3001 RMK AO2=
202102081153 METAR KPAE 081153Z AUTO 00000KT 10SM BKN036 OVC065 02/01 A3000 RMK AO2 SLP163 60000 70002 T00170006 10039 20006 53002=
202102081053 METAR KPAE 081053Z AUTO 00000KT 10SM BKN070 01/M01 A2999 RMK AO2 SLP161 T00061006=
202102080953 METAR KPAE 080953Z AUTO 00000KT 10SM SCT038 02/00 A2999 RMK AO2 SLP160 T00170000=
202102080904 SPECI KPAE 080904Z AUTO 32003KT 10SM SCT027 BKN035 OVC085 02/00 A2999 RMK AO2 T00170000=
202102080853 METAR KPAE 080853Z AUTO 33004KT 10SM BKN027 OVC085 02/00 A2999 RMK AO2 SLP160 60000 T00220000 51005=
202102080835 SPECI KPAE 080835Z AUTO 31005KT 10SM OVC028 02/01 A2999 RMK AO2 T00220006=
202102080756 SPECI KPAE 080756Z AUTO 31006KT 10SM SCT016 BKN030 OVC040 03/00 A2998 RMK AO2 T00280000=
202102080753 METAR KPAE 080753Z AUTO 31006G16KT 10SM BKN014 BKN022 OVC036 03/00 A2998 RMK AO2 RAB28E49 SLP157 P0000 T00280000 400720022=
202102080653 METAR KPAE 080653Z AUTO 30004KT 10SM SCT022 BKN026 OVC090 04/00 A2998 RMK AO2 SLP155 T00390000=
202102080553 METAR KPAE 080553Z AUTO 00000KT 10SM FEW049 FEW060 OVC085 04/M01 A2997 RMK AO2 SLP154 60002 T00391006 10050 20039 53005=
202102080500 SPECI KPAE 080500Z AUTO VRB03KT 10SM SCT049 BKN060 OVC090 04/M01 A2997 RMK AO2 T00391006=
202102080453 METAR KPAE 080453Z 31005KT 10SM BKN026 OVC085 04/00 A2996 RMK AO2 SLP152 T00390000=
202102080353 METAR KPAE 080353Z 31003KT 10SM BKN026 OVC085 04/01 A2996 RMK AO2 RAB04E19 SLP149 P0000 T00440006=
202102080302 SPECI KPAE 080302Z 00000KT 10SM FEW017 SCT025 OVC037 04/01 A2996 RMK AO2 T00440011=
202102080253 METAR KPAE 080253Z 35003KT 10SM FEW017 BKN025 OVC060 04/01 A2996 RMK AO2 SLP150 60002 T00440011 51002=
202102080246 SPECI KPAE 080246Z 35003KT 10SM SCT017 BKN023 OVC060 05/01 A2996 RMK AO2 T00500011=
202102080153 METAR KPAE 080153Z 00000KT 10SM FEW035 SCT070 OVC085 04/01 A2995 RMK AO2 RAE13 SLP148 P0001 T00390011=
202102080053 METAR KPAE 080053Z VRB04KT 9SM -RA FEW016 BKN031 OVC044 04/01 A2996 RMK AO2 RAB06 SLP149 P0001 T00440006=
202102080012 SPECI KPAE 080012Z 00000KT 10SM -RA BKN029 OVC055 04/01 A2996 RMK AO2 RAB06 P0000 T00440006=
202102072353 METAR KPAE 072353Z 01006KT 10SM FEW034 BKN055 OVC070 04/00 A2995 RMK AO2 RAE01B18E28 SLP146 P0000 60000 T00440000 10072 20044 56015=
202102072253 METAR KPAE 072253Z 33004KT 10SM -RA FEW031 BKN037 OVC045 06/M02 A2996 RMK AO2 RAB46 SLP148 P0000 T00611022=
202102072153 METAR KPAE 072153Z 00000KT 10SM BKN075 07/02 A2997 RMK AO2 SLP153 T00720017=
202102072112 SPECI KPAE 072112Z 22004KT 10SM SCT027 SCT080 BKN100 07/02 A2999 RMK AO2 T00720017=
202102072053 METAR KPAE 072053Z 28004KT 10SM BKN028 06/02 A3000 RMK AO2 SLP161 T00610017 58009=
202102071953 METAR KPAE 071953Z 21006KT 10SM FEW020 07/02 A3002 RMK AO2 SLP169 T00670017=
202102071853 METAR KPAE 071853Z 18009KT 10SM SCT030 06/02 A3003 RMK AO2 SLP170 T00610022=
202102071753 METAR KPAE 071753Z 16008KT 10SM CLR 05/02 A3002 RMK AO2 SLP170 T00500017 10050 20022 58002=
202102071653 METAR KPAE 071653Z 20006KT 10SM CLR 04/02 A3003 RMK AO2 SLP173 T00390017=
202102071553 METAR KPAE 071553Z 16003KT 10SM BKN039 03/01 A3003 RMK AO2 SLP172 T00280006=
202102071453 METAR KPAE 071453Z 16005KT 10SM CLR 03/01 A3003 RMK AO2 SLP172 T00280006 51003=
202102071353 METAR KPAE 071353Z AUTO 16011KT 10SM CLR 03/01 A3003 RMK AO2 SLP172 T00330006=
202102071253 METAR KPAE 071253Z AUTO 16005KT 10SM FEW036 03/01 A3002 RMK AO2 SLP169 T00330006=
202102071153 METAR KPAE 071153Z AUTO 15007KT 10SM FEW034 SCT065 04/02 A3002 RMK AO2 SLP169 70001 T00440017 10067 20039 51004=
202102071053 METAR KPAE 071053Z AUTO VRB04KT 10SM OVC065 05/02 A3002 RMK AO2 SLP167 T00500017=
202102070953 METAR KPAE 070953Z AUTO 19006KT 10SM BKN044 OVC075 06/M01 A3002 RMK AO2 SLP167 T00561006=
202102070853 METAR KPAE 070853Z AUTO 26004KT 10SM BKN041 06/M01 A3001 RMK AO2 SLP164 T00561006 50003=
202102070753 METAR KPAE 070753Z AUTO VRB03KT 10SM OVC032 06/01 A3001 RMK AO2 SLP166 T00610011 400890056=
202102070741 SPECI KPAE 070741Z AUTO 31005KT 10SM FEW026 OVC032 06/01 A3001 RMK AO2 T00610006=
202102070718 SPECI KPAE 070718Z AUTO 00000KT 10SM BKN026 OVC032 07/02 A3001 RMK AO2 T00670022=
202102070653 METAR KPAE 070653Z AUTO 21003KT 10SM FEW024 OVC034 06/02 A3000 RMK AO2 SLP161 T00610017=
202102070604 SPECI KPAE 070604Z AUTO 33007KT 10SM OVC031 07/02 A3000 RMK AO2 T00670017=
202102070553 METAR KPAE 070553Z AUTO 30006KT 10SM BKN029 OVC035 07/02 A3000 RMK AO2 SLP162 T00670017 10089 20067 53010=
202102070453 METAR KPAE 070453Z 35004KT 10SM BKN024 OVC030 07/03 A2999 RMK AO2 SLP158 T00670033=
202102070353 METAR KPAE 070353Z 36006KT 10SM BKN027 BKN049 07/03 A2997 RMK AO2 SLP152 T00670033=
202102070328 SPECI KPAE 070328Z 34008KT 10SM SCT026 BKN045 OVC055 07/03 A2997 RMK AO2 T00720028=
202102070253 METAR KPAE 070253Z VRB04KT 10SM OVC024 07/03 A2997 RMK AO2 SLP152 T00720033 51010=
202102070153 METAR KPAE 070153Z 00000KT 10SM FEW024 BKN030 07/04 A2996 RMK AO2 SLP150 T00720039=
202102070108 SPECI KPAE 070108Z 33008G14KT 280V350 10SM FEW026 BKN033 08/04 A2995 RMK AO2 T00780039=
202102070101 SPECI KPAE 070101Z 31007KT 10SM BKN028 BKN033 08/04 A2995 RMK AO2 T00780039=
202102070053 METAR KPAE 070053Z 27005KT 10SM SCT025 BKN031 08/04 A2995 RMK AO2 SLP145 T00830039=
202102062353 METAR KPAE 062353Z 26006KT 10SM FEW026 SCT060 SCT075 08/04 A2994 RMK AO2 SLP141 60001 T00830044 10083 20056 53003=
202102062300 SPECI KPAE 062300Z 29005KT 10SM FEW027 BKN060 BKN075 08/05 A2993 RMK AO2 T00830050=
202102062253 METAR KPAE 062253Z VRB05KT 10SM BKN009 BKN016 OVC021 08/05 A2993 RMK AO2 SLP138 T00830050=
202102062153 METAR KPAE 062153Z 00000KT 5SM BR BKN007 OVC027 07/06 A2993 RMK AO2 RAB37E50 SLP137 P0000 T00720061=
202102062053 METAR KPAE 062053Z 21009KT 10SM BKN007 OVC028 07/06 A2993 RMK AO2 SLP138 60001 T00720056 56020=
202102061953 METAR KPAE 061953Z 19009KT 3SM BR OVC006 07/05 A2994 RMK AO2 SLP141 T00670050=
202102061853 METAR KPAE 061853Z 19016KT 5SM BR OVC008 06/04 A2997 RMK AO2 PK WND 20030/1808 RAE26 SLP151 P0001 T00610044=
202102061753 METAR KPAE 061753Z 20018G26KT 9SM -RA OVC009 06/04 A2999 RMK AO2 PK WND 19026/1750 RAE1656B40 SLP158 P0000 60000 T00560039 10061 20056 56013=
202102061730 SPECI KPAE 061730Z 19018KT 10SM OVC009 06/04 A2999 RMK AO2 RAE1656 P0000 T00610039=
202102061653 METAR KPAE 061653Z 19014G21KT 10SM -RA OVC013 06/03 A3000 RMK AO2 RAB45 SLP162 P0000 T00610033=
202102061553 METAR KPAE 061553Z 19017KT 10SM BKN017 OVC025 06/03 A3001 RMK AO2 SLP165 T00610033=
202102061453 METAR KPAE 061453Z 19015KT 10SM BKN018 OVC024 06/03 A3003 RMK AO2 PK WND 18027/1443 SLP172 T00560028 58033=
202102061353 METAR KPAE 061353Z 18016G22KT 10SM BKN018 OVC060 06/03 A3006 RMK AO2 SLP183 T00610028=
202102061326 SPECI KPAE 061326Z 18015KT 10SM BKN020 OVC055 06/03 A3009 RMK AO2 T00610028=
202102061253 METAR KPAE 061253Z 18014KT 10SM FEW020 OVC060 06/03 A3011 RMK AO2 SLP198 T00610028=
202102061201 SPECI KPAE 061201Z 18010KT 10SM FEW016 OVC070 06/03 A3013 RMK AO2 T00560033=
202102061153 METAR KPAE 061153Z 18011KT 10SM BKN016 OVC070 06/03 A3013 RMK AO2 SLP206 70010 T00560033 10067 20056 58016=
202102061125 SPECI KPAE 061125Z 18012KT 10SM BKN015 OVC019 06/04 A3015 RMK AO2 T00560039=
202102061110 SPECI KPAE 061110Z 17008KT 8SM SCT006 BKN013 OVC019 06/04 A3015 RMK AO2 T00560044=
202102061053 METAR KPAE 061053Z 18010KT 4SM BR BKN006 OVC013 06/04 A3016 RMK AO2 CIG 004V008 SLP216 T00560044=
202102061029 SPECI KPAE 061029Z 18011KT 4SM BR BKN007 OVC013 06/04 A3017 RMK AO2 CIG 006V011 T00560044=
202102061025 SPECI KPAE 061025Z 18010KT 4SM BR OVC011 06/04 A3017 RMK AO2 T00560044=
202102061002 SPECI KPAE 061002Z 18011KT 8SM OVC009 06/04 A3018 RMK AO2 CIG 006V012 T00610044=
202102060953 METAR KPAE 060953Z 17008KT 8SM OVC010 06/04 A3018 RMK AO2 CIG 006V012 SLP221 T00610044=
202102060853 METAR KPAE 060853Z 17009KT 9SM OVC006 06/04 A3020 RMK AO2 SLP230 T00610044 58013=
202102060753 METAR KPAE 060753Z 17004KT 10SM BKN008 OVC016 06/05 A3023 RMK AO2 CIG 005V012 SLP239 T00610050 400830061=
202102060653 METAR KPAE 060653Z 21006KT 10SM OVC008 07/05 A3024 RMK AO2 CIG 007V012 SLP243 T00670050=
202102060646 SPECI KPAE 060646Z 19008KT 10SM OVC008 07/05 A3024 RMK AO2 CIG 007V012 T00670050=
202102060553 METAR KPAE 060553Z 19007KT 10SM OVC011 07/06 A3024 RMK AO2 CIG 006V013 SLP243 T00670056 10078 20067 56001=
202102060548 SPECI KPAE 060548Z 20007KT 10SM OVC011 07/06 A3024 RMK AO2 CIG 006V014=
202102060533 SPECI KPAE 060533Z 20006KT 10SM BKN009 OVC014 07/06 A3024 RMK AO2 CIG 006V010 T00670056=
202102060527 SPECI KPAE 060527Z 20007KT 10SM FEW007 OVC015 07/06 A3024 RMK AO2 T00670056=
202102060453 METAR KPAE 060453Z 19008KT 10SM OVC015 07/06 A3024 RMK AO2 SLP242 T00720056=
202102060415 SPECI KPAE 060415Z 20010KT 10SM FEW010 OVC015 07/06 A3024 RMK AO2 T00720056=
202102060353 METAR KPAE 060353Z 20008KT 10SM OVC014 07/06 A3024 RMK AO2 SLP245 T00720056=
202102060253 METAR KPAE 060253Z 19010KT 10SM BKN009 BKN017 OVC047 08/06 A3024 RMK AO2 SLP245 T00780061 58004=
202102060153 METAR KPAE 060153Z 16007KT 10SM BKN009 OVC050 08/06 A3025 RMK AO2 SLP248 T00780061=
202102060053 METAR KPAE 060053Z 16006KT 10SM BKN009 OVC050 08/06 A3026 RMK AO2 SLP249 T00780056=
202102052353 METAR KPAE 052353Z 00000KT 10SM BKN009 BKN021 OVC060 08/06 A3026 RMK AO2 SLP249 60002 T00780061 10083 20072 56006=
202102052253 METAR KPAE 052253Z VRB03KT 10SM BKN007 BKN030 OVC060 08/06 A3026 RMK AO2 RAB03E23 SLP249 P0001 T00780056=
202102052200 SPECI KPAE 052200Z 10004KT 5SM BR SCT007 BKN009 OVC021 07/06 A3027 RMK AO2 T00720056=
202102052153 METAR KPAE 052153Z 05003KT 5SM BR BKN004 BKN018 OVC025 07/06 A3027 RMK AO2 RAB10E21 SLP252 P0000 T00720056=
202102052053 METAR KPAE 052053Z 01006KT 10SM BKN004 BKN030 OVC043 07/05 A3027 RMK AO2 SLP255 60001 T00720050 51018=
202102052031 SPECI KPAE 052031Z 02005KT 10SM BKN004 BKN030 OVC043 07/06 A3027 RMK AO2 T00720061=
202102052008 SPECI KPAE 052008Z 01006KT 10SM FEW009 BKN018 OVC035 07/06 A3026 RMK AO2 T00720056=
202102051953 METAR KPAE 051953Z 01005KT 5SM BR BKN009 OVC021 07/06 A3026 RMK AO2 RAB1859E13 SLP251 P0001 T00720056=
202102051853 METAR KPAE 051853Z VRB04KT 9SM BKN009 OVC021 08/05 A3025 RMK AO2 SLP247 T00780050=
202102051753 METAR KPAE 051753Z 00000KT 10SM BKN009 OVC046 08/06 A3022 RMK AO2 SLP237 60008 T00780061 10078 20067 51032=
202102051729 SPECI KPAE 051729Z 00000KT 10SM BKN009 OVC046 07/07 A3021 RMK AO2 T00720067=
202102051706 SPECI KPAE 051706Z 01004KT 10SM SCT009 BKN042 07/06 A3020 RMK AO2 T00720061=
202102051656 SPECI KPAE 051656Z 32004KT 10SM BKN009 BKN026 BKN042 07/06 A3020 RMK AO2 CIG 006V011 T00670061=
202102051653 METAR KPAE 051653Z 33004KT 10SM FEW028 BKN038 OVC055 07/06 A3020 RMK AO2 RAB00E17 SLP228 P0000 T00670061=
202102051553 METAR KPAE 051553Z 33009G16KT 10SM FEW028 BKN038 OVC055 07/06 A3016 RMK AO2 RAB08E17B36E51 SLP217 P0000 T00720056=
202102051458 SPECI KPAE 051458Z 34004KT 10SM OVC009 07/06 A3013 RMK AO2 T00720056=
202102051453 METAR KPAE 051453Z 34008G15KT 10SM OVC010 07/06 A3012 RMK AO2 RAE08 CIG 007V012 SLP204 P0000 60008 T00720056 53021=
202102051353 METAR KPAE 051353Z 00000KT 8SM -RA OVC008 07/06 A3009 RMK AO2 CIG 006V011 SLP191 P0002 T00720056=
202102051349 SPECI KPAE 051349Z 00000KT 8SM -RA OVC008 07/06 A3009 RMK AO2 CIG 006V011 P0001=
202102051310 SPECI KPAE 051310Z 16005KT 8SM -RA BKN014 OVC020 07/06 A3007 RMK AO2 P0001 T00670056=
202102051253 METAR KPAE 051253Z 18006KT 6SM -RA BR BKN021 OVC027 07/06 A3006 RMK AO2 SLP183 P0006 T00670056=
202102051233 SPECI KPAE 051233Z 17007KT 4SM -RA BR OVC029 07/06 A3006 RMK AO2 P0005 T00670056=
202102051153 METAR KPAE 051153Z 19006KT 4SM -RA BR BKN033 OVC040 07/06 A3006 RMK AO2 SLP183 P0005 60031 70048 T00670056 10078 20061 55010=
202102051053 METAR KPAE 051053Z 18009KT 10SM -RA FEW032 OVC043 07/05 A3005 RMK AO2 SLP180 P0003 T00670050=
202102050953 METAR KPAE 050953Z 18009KT 8SM -RA FEW019 SCT026 OVC042 07/05 A3007 RMK AO2 SLP186 P0003 T00670050=
202102050934 SPECI KPAE 050934Z 17007KT 10SM -RA FEW021 SCT028 OVC042 07/06 A3008 RMK AO2 P0002 T00670056=
202102050901 SPECI KPAE 050901Z 16006KT 5SM -RA BR BKN021 OVC027 07/06 A3010 RMK AO2 P0001 T00670056=
202102050853 METAR KPAE 050853Z 16007KT 5SM -RA BR SCT021 OVC030 07/06 A3009 RMK AO2 SLP193 P0008 60020 T00670056 58010=
202102050753 METAR KPAE 050753Z 18008KT 4SM -RA BR OVC019 07/06 A3012 RMK AO2 SLP203 P0007 T00720061 400780044=
202102050653 METAR KPAE 050653Z 19011KT 7SM -RA SCT007 BKN019 OVC024 07/06 A3012 RMK AO2 SLP204 P0005 T00720061=
202102050619 SPECI KPAE 050619Z 20008KT 6SM -RA BR BKN007 OVC013 08/07 A3013 RMK AO2 P0002 T00780067=
202102050600 SPECI KPAE 050600Z 18006KT 4SM -RA BR SCT007 BKN012 OVC022 07/07 A3014 RMK AO2 P0001 T00720067=
202102050553 METAR KPAE 050553Z 18006KT 5SM -RA BR FEW010 BKN017 OVC022 07/07 A3015 RMK AO2 SLP212 P0006 60008 T00720067 10078 20061 58018=
202102050531 SPECI KPAE 050531Z 17006KT 5SM -RA BR BKN019 BKN029 OVC037 07/07 A3016 RMK AO2 P0004 T00720067=
202102050453 METAR KPAE 050453Z 17007KT 9SM -RA FEW004 SCT019 OVC048 07/07 A3019 RMK AO2 RAB23 SLP225 P0000 T00720067=
202102050446 SPECI KPAE 050446Z 17007KT 10SM -RA FEW004 BKN048 OVC075 07/07 A3019 RMK AO2 RAB23 P0000 T00720067=
202102050357 SPECI KPAE 050357Z 17008KT 10SM BKN005 BKN020 OVC046 07/06 A3020 RMK AO2 T00720061=
202102050353 METAR KPAE 050353Z 18010KT 2SM BR SCT005 BKN020 OVC046 07/06 A3020 RMK AO2 SLP231 T00720061=
202102050300 SPECI KPAE 050300Z 17010KT 2SM BR OVC003 07/06 A3022 RMK AO2 T00720061=
202102050253 METAR KPAE 050253Z 17010KT 1SM R16R/P6000FT BR OVC003 07/06 A3022 RMK AO2 RAE0159 CIG 001V006 SLP238 P0000 60002 T00670061 58022=
202102050203 SPECI KPAE 050203Z 16009KT 1SM R16R/P6000FT BR OVC003 07/06 A3025 RMK AO2 RAE0159 P0000 T00670056=
202102050156 SPECI KPAE 050156Z 17008KT 6SM -RA BR OVC003 07/06 A3025 RMK AO2 P0000 T00670056=
202102050153 METAR KPAE 050153Z 16009KT 2SM -RA BR BKN006 OVC009 07/06 A3025 RMK AO2 RAE12B30 SLP246 P0001 T00670056=
202102050053 METAR KPAE 050053Z 16010KT 2SM -RA BR BKN006 OVC009 06/05 A3027 RMK AO2 RAB2359 SLP256 P0001 T00610050=
202102050014 SPECI KPAE 050014Z 16012KT 2SM -RA BR OVC005 06/05 A3028 RMK AO2 RAB2359 P0001 T00610050=
202102042353 METAR KPAE 042353Z 16010KT 2SM BR OVC004 06/05 A3029 RMK AO2 RAE19 CIG 004V007 SLP260 P0000 60004 T00610050 10061 20050 56023=
202102042253 METAR KPAE 042253Z 16009KT 6SM -RA BR BKN007 BKN016 OVC037 06/04 A3031 RMK AO2 SLP268 P0000 T00610044=
202102042153 METAR KPAE 042153Z 18010KT 8SM -RA BKN007 OVC016 06/04 A3033 RMK AO2 RAB38 SLP275 P0001 T00610044=
202102042053 METAR KPAE 042053Z 18008KT 10SM BKN005 OVC013 06/04 A3036 RMK AO2 RAE35 SLP284 P0001 60003 T00610044 58009=
202102041953 METAR KPAE 041953Z 18007KT 7SM -RA OVC005 06/04 A3038 RMK AO2 SLP290 P0000 T00610044=
202102041900 SPECI KPAE 041900Z 15003KT 7SM -RA BKN008 OVC012 06/04 A3039 RMK AO2 CIG 005V010 P0000 T00560039=
202102041853 METAR KPAE 041853Z 00000KT 7SM -RA BKN004 OVC060 06/04 A3040 RMK AO2 SLP297 P0002 T00560039=
202102041800 SPECI KPAE 041800Z 15005KT 8SM -RA BKN004 BKN048 OVC055 05/04 A3039 RMK AO2 P0000 T00500039=
202102041753 METAR KPAE 041753Z 15006KT 4SM -RA BR BKN006 OVC060 05/04 A3039 RMK AO2 SLP294 P0001 60005 T00500039 10050 20044 53001=
202102041729 SPECI KPAE 041729Z VRB04KT 4SM -RA BR BKN006 OVC060 05/04 A3038 RMK AO2 P0000 T00500039=
202102041653 METAR KPAE 041653Z 14005KT 4SM -RA BR SCT005 BKN017 OVC031 05/04 A3038 RMK AO2 RAB1556 SLP291 P0002 T00500039=
202102041631 SPECI KPAE 041631Z 15004KT 4SM -RA BR FEW017 OVC023 05/03 A3038 RMK AO2 RAB1556 P0001 T00500033=
202102041553 METAR KPAE 041553Z 16003KT 10SM OVC065 05/03 A3038 RMK AO2 RAE15 SLP292 P0001 T00500033=
202102041453 METAR KPAE 041453Z 18004KT 9SM -RA OVC033 04/04 A3038 RMK AO2 RAE03B42 SLP292 P0000 60001 T00440039 53006=
202102041436 SPECI KPAE 041436Z AUTO 18005KT 10SM SCT009 BKN033 OVC060 04/04 A3037 RMK AO2 RAE03 P0000 T00440039=
202102041353 METAR KPAE 041353Z AUTO 16004KT 10SM -RA OVC009 05/04 A3037 RMK AO2 SLP287 P0001 T00500039=
202102041338 SPECI KPAE 041338Z AUTO 17004KT 10SM -RA BKN009 OVC044 05/04 A3036 RMK AO2 P0001 T00500039=
202102041324 SPECI KPAE 041324Z AUTO 16004KT 10SM -RA SCT009 OVC048 05/03 A3037 RMK AO2 P0001 T00500033=
202102041317 SPECI KPAE 041317Z AUTO 16005KT 10SM -RA FEW011 SCT014 OVC050 05/04 A3037 RMK AO2 P0001 T00500039=
202102041253 METAR KPAE 041253Z AUTO 17004KT 10SM -RA BKN011 OVC060 05/04 A3037 RMK AO2 RAB42 SLP288 P0000 T00500039=
202102041236 SPECI KPAE 041236Z AUTO 16004KT 10SM BKN011 OVC060 05/04 A3037 RMK AO2 T00500039=
202102041153 METAR KPAE 041153Z AUTO 17005KT 10SM BKN009 OVC060 05/03 A3036 RMK AO2 CIG 006V013 SLP285 T00500033 10050 20044 56004=
202102041136 SPECI KPAE 041136Z AUTO 16005KT 10SM OVC009 05/03 A3037 RMK AO2 CIG 007V011 T00500033=
202102041120 SPECI KPAE 041120Z AUTO 16006KT 10SM FEW006 BKN011 OVC018 05/03 A3037 RMK AO2 T00500033=
202102041053 METAR KPAE 041053Z AUTO 16005KT 10SM OVC005 05/03 A3036 RMK AO2 CIG 004V008 SLP286 T00500033=
202102041028 SPECI KPAE 041028Z AUTO 16005KT 10SM OVC005 05/04 A3037 RMK AO2 T00500039=
202102040959 SPECI KPAE 040959Z AUTO 17004KT 10SM BKN004 OVC011 05/04 A3037 RMK AO2 T00500039=
202102040953 METAR KPAE 040953Z AUTO 16005KT 10SM SCT006 OVC011 05/04 A3036 RMK AO2 SLP285 T00500039=
202102040940 SPECI KPAE 040940Z AUTO 16005KT 10SM BKN011 BKN019 OVC060 05/04 A3037 RMK AO2 T00500039=
202102040902 SPECI KPAE 040902Z AUTO 16007KT 10SM SCT011 OVC018 04/03 A3037 RMK AO2 T00440033=
202102040853 METAR KPAE 040853Z AUTO 16006KT 10SM OVC014 04/03 A3037 RMK AO2 SLP289 T00440033 51008=
202102040838 SPECI KPAE 040838Z AUTO 16004KT 10SM BKN014 BKN110 04/03 A3037 RMK AO2 T00440033=
202102040753 METAR KPAE 040753Z AUTO 15006KT 10SM CLR 04/03 A3037 RMK AO2 SLP288 T00440028 400830033=
202102040653 METAR KPAE 040653Z AUTO 18006KT 10SM BKN049 OVC060 05/03 A3036 RMK AO2 SLP285 T00500033=
202102040553 METAR KPAE 040553Z AUTO 20006KT 10SM BKN055 04/03 A3035 RMK AO2 SLP281 60000 T00440028 10072 20039 52015=
202102040519 SPECI KPAE 040519Z AUTO 18007KT 10SM SCT029 BKN042 OVC055 05/03 A3034 RMK AO2 T00500033=
202102040508 SPECI KPAE 040508Z AUTO 18004KT 10SM BKN029 BKN039 OVC060 06/03 A3034 RMK AO2 T00560033=
202102040453 METAR KPAE 040453Z 16003KT 10SM BKN030 BKN035 OVC060 06/03 A3034 RMK AO2 RAB32E44 SLP277 P0000 T00560028=
202102040353 METAR KPAE 040353Z 15004KT 10SM FEW024 06/02 A3032 RMK AO2 RAB13E27 SLP270 P0000 T00610017=
202102040253 METAR KPAE 040253Z 17003KT 10SM FEW024 05/02 A3031 RMK AO2 SLP267 T00500022 51016=
202102040153 METAR KPAE 040153Z 16003KT 10SM FEW024 04/01 A3029 RMK AO2 SLP263 T00390011=
202102040053 METAR KPAE 040053Z AUTO 00000KT 10SM FEW028 06/02 A3028 RMK AO2 SLP256 T00610017=
202102032353 METAR KPAE 032353Z 27005KT 10SM SCT022 07/03 A3026 RMK AO2 SLP250 T00720028 10083 20056 53027=
202102032300 SPECI KPAE 032300Z VRB03KT 10SM CLR 07/02 A3023 RMK AO2 T00720022=
202102032253 METAR KPAE 032253Z VRB04KT 10SM SCT018 BKN023 07/02 A3023 RMK AO2 SLP240 T00720017=
202102032153 METAR KPAE 032153Z VRB04KT 10SM SCT018 BKN023 08/01 A3020 RMK AO2 SLP228 T00780011=
202102032106 SPECI KPAE 032106Z 36005KT 10SM SCT018 BKN023 07/02 A3018 RMK AO2 T00670017=
202102032053 METAR KPAE 032053Z 36006KT 10SM FEW018 BKN023 07/03 A3018 RMK AO2 SLP223 T00720028 51031=
202102032000 SPECI KPAE 032000Z 35005KT 10SM FEW017 07/02 A3015 RMK AO2 T00670022=
202102031953 METAR KPAE 031953Z 01006KT 10SM SCT010 BKN015 07/02 A3014 RMK AO2 SLP212 T00670022=
202102031856 SPECI KPAE 031856Z 36005KT 10SM SCT010 BKN015 06/02 A3013 RMK AO2 T00610022=
202102031853 METAR KPAE 031853Z 34006KT 10SM SCT015 06/02 A3012 RMK AO2 SLP205 T00610022=
202102031753 METAR KPAE 031753Z 34008KT 10SM FEW006 06/02 A3008 RMK AO2 SLP191 60000 T00560022 10056 20033 51036=
202102031740 SPECI KPAE 031740Z 33007KT 10SM FEW006 05/03 A3007 RMK AO2 T00500028=
202102031653 METAR KPAE 031653Z 33005KT 10SM BKN006 OVC010 04/03 A3005 RMK AO2 SLP181 T00390028=
202102031624 SPECI KPAE 031624Z 35003KT 10SM SCT005 OVC007 04/03 A3003 RMK AO2 T00390028=
202102031553 METAR KPAE 031553Z 35005KT 10SM BKN010 BKN060 03/02 A3001 RMK AO2 SLP168 T00330022=
202102031453 METAR KPAE 031453Z 35005KT 10SM FEW049 BKN060 03/02 A2998 RMK AO2 RAB27E36 SLP155 P0000 60000 T00330022 53045=
202102031353 METAR KPAE 031353Z AUTO 00000KT 10SM OVC041 03/02 A2993 RMK AO2 SLP139 T00330022=
202102031253 METAR KPAE 031253Z AUTO 02005KT 10SM OVC050 04/02 A2988 RMK AO2 SLP121 T00390017=
202102031153 METAR KPAE 031153Z AUTO 06004KT 10SM SCT043 OVC050 04/02 A2984 RMK AO2 RAB06E16 SLP108 P0000 60000 70023 T00440017 10050 20033 53011=
202102031053 METAR KPAE 031053Z AUTO 06004KT 10SM FEW037 OVC047 04/02 A2982 RMK AO2 RAB0959E26 SLP103 P0000 T00440017=
202102030953 METAR KPAE 030953Z AUTO 10006KT 10SM BKN035 OVC044 05/02 A2981 RMK AO2 SLP098 T00500017=
202102030853 METAR KPAE 030853Z AUTO 00000KT 10SM BKN033 BKN043 OVC055 04/02 A2981 RMK AO2 SLP096 60000 T00390022 53003=
202102030753 METAR KPAE 030753Z AUTO 11005KT 10SM FEW120 03/02 A2980 RMK AO2 SLP094 T00330022 400720033=
202102030653 METAR KPAE 030653Z AUTO VRB06KT 10SM CLR 03/02 A2979 RMK AO2 RAE0557 SLP092 P0000 T00330022=
202102030615 SPECI KPAE 030615Z AUTO VRB04KT 10SM FEW016 SCT022 BKN038 04/02 A2979 RMK AO2 RAE0557 P0000 T00390022=
202102030553 METAR KPAE 030553Z AUTO VRB06KT 10SM -RA SCT017 OVC021 04/02 A2980 RMK AO2 SLP093 P0002 60009 T00390022 10056 20039 55002=
202102030453 METAR KPAE 030453Z 14008KT 10SM -RA FEW009 BKN020 OVC031 04/02 A2979 RMK AO2 SLP092 P0002 T00390022=
202102030429 SPECI KPAE 030429Z VRB06G14KT 8SM -RA FEW007 BKN018 OVC028 04/02 A2979 RMK AO2 P0001 T00390022=
202102030419 SPECI KPAE 030419Z 14009KT 7SM -RA BKN013 BKN018 OVC030 04/02 A2979 RMK AO2 P0001 T00390022=
202102030414 SPECI KPAE 030414Z 14009G19KT 8SM -RA FEW010 BKN015 OVC030 04/02 A2979 RMK AO2 P0001 T00390022=
202102030400 SPECI KPAE 030400Z 15012G15KT 9SM -RA FEW011 SCT019 OVC030 04/02 A2979 RMK AO2 P0000 T00390022=
202102030353 METAR KPAE 030353Z 14008G15KT 10SM -RA SCT009 SCT017 OVC024 04/02 A2979 RMK AO2 SLP091 P0005 T00440022=
202102030321 SPECI KPAE 030321Z 15012G19KT 5SM -RA BR SCT009 SCT017 OVC024 04/02 A2980 RMK AO2 P0003 T00440022=
202102030253 METAR KPAE 030253Z 14007KT 9SM -RA FEW026 BKN041 OVC060 04/02 A2980 RMK AO2 RAB17 SLP095 P0000 60000 T00440022 50002=
202102030153 METAR KPAE 030153Z 15013KT 10SM FEW029 SCT037 04/02 A2981 RMK AO2 SLP098 T00440022=
202102030053 METAR KPAE 030053Z 17015G26KT 10SM FEW009 05/02 A2980 RMK AO2 PK WND 19028/2354 SLP093 T00500022=
202102022353 METAR KPAE 022353Z 18023G31KT 10SM FEW080 BKN090 BKN110 06/02 A2979 RMK AO2 PK WND 18031/2353 SLP093 60006 T00560022 10061 20044 56004=
202102022308 SPECI KPAE 022308Z 19016G22KT 10SM SCT016 BKN085 OVC100 06/03 A2979 RMK AO2 T00560028=
202102022253 METAR KPAE 022253Z 19019G28KT 10SM BKN014 BKN020 06/03 A2980 RMK AO2 PK WND 18028/2246 SLP093 T00560028=
202102022244 SPECI KPAE 022244Z 19017G24KT 10SM BKN014 BKN020 06/03 A2979 RMK AO2 T00560028=
202102022153 METAR KPAE 022153Z 18017KT 10SM BKN009 BKN044 OVC050 06/03 A2979 RMK AO2 SLP090 T00610033=
202102022053 METAR KPAE 022053Z 19014G21KT 10SM BKN009 BKN047 OVC060 06/04 A2981 RMK AO2 RAB11E46 SLP096 P0000 60006 T00610039 58003=
202102022000 SPECI KPAE 022000Z 20015KT 10SM BKN009 OVC017 05/03 A2982 RMK AO2 T00500033=
202102021953 METAR KPAE 021953Z 20016KT 2SM BR BKN006 BKN009 OVC014 05/03 A2982 RMK AO2 RAE12 SLP101 P0001 T00500033=
202102021853 METAR KPAE 021853Z 20011KT 2SM -RA BR BKN006 BKN009 OVC014 04/03 A2983 RMK AO2 SLP102 P0005 T00440033=
202102021753 METAR KPAE 021753Z 19011KT 3SM -RA BR SCT006 BKN009 OVC016 04/03 A2982 RMK AO2 RAE07B31 SLP099 P0001 60008 T00440033 10056 20044 53001=
202102021653 METAR KPAE 021653Z 19010KT 9SM -RA FEW003 BKN008 OVC034 05/03 A2982 RMK AO2 SLP099 P0006 T00500033=
202102021553 METAR KPAE 021553Z VRB04KT 10SM -RA FEW003 BKN008 OVC036 05/04 A2981 RMK AO2 RAB08 SLP097 P0001 T00500039=
202102021453 METAR KPAE 021453Z 16008KT 10SM SCT009 BKN020 OVC060 06/03 A2981 RMK AO2 SLP098 60000 T00560033 55001=
202102021418 SPECI KPAE 021418Z AUTO 15007KT 10SM SCT009 BKN017 OVC080 05/03 A2981 RMK AO2 T00500033=
202102021405 SPECI KPAE 021405Z AUTO 15007KT 10SM FEW012 BKN019 OVC090 05/03 A2981 RMK AO2 T00500033=
202102021353 METAR KPAE 021353Z AUTO 16008KT 10SM BKN014 OVC020 05/03 A2981 RMK AO2 SLP096 T00500033=
202102021334 SPECI KPAE 021334Z AUTO 15006KT 10SM OVC014 05/03 A2981 RMK AO2 T00500033=
202102021253 METAR KPAE 021253Z AUTO 15007KT 10SM FEW012 OVC019 05/03 A2982 RMK AO2 RAE13 SLP100 P0000 T00500033=
202102021201 SPECI KPAE 021201Z AUTO 17006KT 10SM -RA FEW010 OVC015 05/03 A2982 RMK AO2 P0000 T00500028=
202102021153 METAR KPAE 021153Z AUTO 17005KT 10SM -RA OVC013 05/03 A2982 RMK AO2 RAB47 SLP100 P0000 60006 70063 T00500028 10072 20050 51024=
202102021112 SPECI KPAE 021112Z AUTO 18007KT 10SM FEW009 OVC014 06/03 A2981 RMK AO2 T00560033=
202102021053 METAR KPAE 021053Z AUTO 19008KT 10SM FEW010 OVC017 06/03 A2981 RMK AO2 SLP096 T00560033=
202102021045 SPECI KPAE 021045Z AUTO 19009KT 10SM FEW010 OVC017 06/03 A2981 RMK AO2 T00560033=
202102021023 SPECI KPAE 021023Z AUTO 19009KT 10SM OVC013 06/03 A2980 RMK AO2 T00560033=
202102020953 METAR KPAE 020953Z AUTO 20008KT 10SM OVC018 06/04 A2977 RMK AO2 RAB25E35 SLP085 P0000 T00610039=
202102020941 SPECI KPAE 020941Z AUTO 20010KT 10SM BKN016 BKN022 OVC065 06/04 A2977 RMK AO2 RAB25E35 P0000 T00610039=
202102020753 METAR KPAE 020753Z AUTO 19014KT 10SM BKN039 BKN060 OVC090 07/06 A2972 RMK AO2 RAE0655B14E29 SLP065 P0001 T00720056 400940061=
202102020653 METAR KPAE 020653Z AUTO 20012KT 10SM -RA OVC047 07/06 A2969 RMK AO2 SLP055 P0005 T00720056=
202102020617 SPECI KPAE 020617Z AUTO 21012KT 10SM -RA SCT007 BKN033 OVC050 07/06 A2968 RMK AO2 P0003 T00720061=
202102020553 METAR KPAE 020553Z AUTO 21011KT 4SM -RA BR SCT006 BKN017 OVC030 07/06 A2967 RMK AO2 SLP047 P0011 60020 T00720061 10089 20072 53004=
202102020542 SPECI KPAE 020542Z AUTO 22012KT 2 1/2SM RA BR SCT005 BKN017 OVC025 07/06 A2966 RMK AO2 P0008 T00720061=
202102020531 SPECI KPAE 020531Z AUTO 21010KT 3SM RA BR BKN005 BKN014 OVC036 08/07 A2966 RMK AO2 P0003 T00780072=
202102020519 SPECI KPAE 020519Z AUTO 16007KT 10SM -RA FEW004 BKN027 OVC039 08/07 A2965 RMK AO2 P0000 T00830072=
202102020500 SPECI KPAE 020500Z AUTO 16009KT 10SM -RA BKN035 OVC043 08/07 A2965 RMK AO2 P0000 T00830067=
202102020453 METAR KPAE 020453Z 16010KT 10SM -RA BKN003 BKN050 OVC070 08/07 A2965 RMK AO2 SLP041 P0001 T00830067=
202102020413 SPECI KPAE 020413Z 15009KT 10SM -RA BKN003 BKN050 OVC070 08/07 A2964 RMK AO2 P0000 T00830067=
202102020400 SPECI KPAE 020400Z 15009KT 10SM -RA BKN041 BKN050 OVC080 08/07 A2964 RMK AO2 P0000 T00830067=
202102020353 METAR KPAE 020353Z 15008KT 10SM -RA BKN003 OVC050 08/07 A2965 RMK AO2 SLP040 P0002 T00780067=
202102020253 METAR KPAE 020253Z 15006KT 9SM -RA OVC041 08/07 A2966 RMK AO2 SLP043 P0004 60006 T00830067 56013=
202102020200 SPECI KPAE 020200Z 15007KT 10SM -RA OVC050 08/07 A2967 RMK AO2 P0000 T00830072=
202102020153 METAR KPAE 020153Z 15008KT 10SM -RA BKN007 BKN037 OVC080 08/07 A2967 RMK AO2 SLP047 P0000 T00830072=
202102020053 METAR KPAE 020053Z 16008KT 10SM -RA BKN007 BKN037 OVC080 09/07 A2968 RMK AO2 RAE00B01 SLP052 P0002 T00890072=
202102020000 SPECI KPAE 020000Z VRB05KT 10SM BKN007 BKN037 OVC080 09/08 A2969 RMK AO2 RAE00 P0000 T00890078=
202102012353 METAR KPAE 012353Z AUTO 15007KT 10SM -RA BKN009 BKN049 OVC065 09/08 A2969 RMK AO2 SLP057 P0001 60017 T00890078 10094 20089 58008=
202102012312 SPECI KPAE 012312Z 15010KT 10SM -RA BKN009 BKN049 OVC065 09/08 A2970 RMK AO2 P0001 T00890078=
202102012253 METAR KPAE 012253Z 16010KT 10SM -RA FEW016 OVC048 09/07 A2971 RMK AO2 SLP061 P0003 T00890072=
202102012153 METAR KPAE 012153Z 17011KT 9SM -RA FEW030 OVC040 09/07 A2972 RMK AO2 SLP066 P0006 T00890072=
202102012053 METAR KPAE 012053Z 16008KT 8SM -RA FEW016 BKN049 OVC060 09/08 A2972 RMK AO2 SLP066 P0002 60007 T00940078 58011=
202102011953 METAR KPAE 011953Z 16009KT 8SM -RA FEW023 BKN042 OVC050 09/07 A2974 RMK AO2 SLP073 P0003 T00890072=
202102011853 METAR KPAE 011853Z 15009KT 10SM -RA SCT045 OVC055 09/07 A2975 RMK AO2 SLP075 P0002 T00890067=
202102011753 METAR KPAE 011753Z 16010KT 8SM -RA BKN051 OVC060 09/07 A2975 RMK AO2 SLP077 P0005 60020 T00890067 10089 20067 56004=
202102011730 SPECI KPAE 011730Z 15009KT 7SM -RA BKN051 OVC060 09/07 A2975 RMK AO2 P0003 T00890067=
202102011653 METAR KPAE 011653Z 15010KT 8SM -RA BKN047 OVC055 08/07 A2975 RMK AO2 SLP078 P0002 T00830067=
202102011553 METAR KPAE 011553Z 14007KT 100V160 10SM -RA FEW040 OVC050 08/07 A2976 RMK AO2 SLP079 P0002 T00830067=
202102011453 METAR KPAE 011453Z VRB05KT 10SM -RA FEW036 OVC047 08/07 A2976 RMK AO2 SLP081 P0002 60011 T00830067 56016=
202102011353 METAR KPAE 011353Z AUTO VRB05KT 10SM -RA OVC047 08/07 A2978 RMK AO2 SLP086 P0004 T00780067 $=
202102011253 METAR KPAE 011253Z AUTO VRB06KT 8SM -RA OVC046 08/06 A2979 RMK AO2 SLP090 P0005 T00780061 $=
202102011153 METAR KPAE 011153Z AUTO 13003KT 7SM -RA BKN035 OVC042 07/06 A2981 RMK AO2 SLP098 P0005 60021 70053 T00670056 10072 20061 58013 $=
202102011053 METAR KPAE 011053Z AUTO 12005KT 8SM -RA OVC044 07/06 A2983 RMK AO2 SLP105 P0006 T00670056 $=
202102010953 METAR KPAE 010953Z AUTO VRB03KT 6SM -RA BR FEW035 OVC045 06/05 A2984 RMK AO2 SLP109 P0004 T00610050 $=
202102010853 METAR KPAE 010853Z AUTO 09004KT 6SM -RA BR FEW003 FEW015 OVC044 06/05 A2985 RMK AO2 SLP111 P0002 60006 T00610050 58018 $=
202102010813 SPECI KPAE 010813Z AUTO 11004KT 5SM -RA BR FEW003 SCT030 OVC044 06/05 A2987 RMK AO2 P0000 T00610050 $=
202102010753 METAR KPAE 010753Z AUTO 10005KT 5SM -RA BR BKN040 OVC046 06/05 A2987 RMK AO2 SLP118 P0003 T00610050 400940061 $=
202102010715 SPECI KPAE 010715Z AUTO 12004KT 3SM -RA BR FEW003 SCT019 OVC035 06/05 A2989 RMK AO2 P0001 T00610050 $=
202102010703 SPECI KPAE 010703Z AUTO 10004KT 4SM -RA BR FEW003 BKN019 OVC035 06/05 A2989 RMK AO2 P0000 T00610050 $=
202102010653 METAR KPAE 010653Z AUTO 00000KT 5SM -RA BR BKN019 OVC035 06/06 A2990 RMK AO2 RAE23B53 SLP128 P0001 T00610056 $=
202102010553 METAR KPAE 010553Z AUTO 00000KT 5SM -RA BR SCT021 OVC043 06/05 A2990 RMK AO2 SLP129 P0002 60012 T00610050 10067 20061 56001 $=
202102010531 SPECI KPAE 010531Z AUTO 15003KT 6SM -RA BR SCT003 BKN020 OVC043 06/05 A2990 RMK AO2 P0000 T00610050 $=
202102010453 METAR KPAE 010453Z 16005KT 3SM -RA BR OVC003 06/06 A2990 RMK AO2 SLP129 P0003 T00610056 $=
202102010425 SPECI KPAE 010425Z 17004KT 3SM -RA BR BKN003 OVC022 06/06 A2990 RMK AO2 P0002 T00610056 $=
202102010414 SPECI KPAE 010414Z VRB04KT 4SM -RA BR SCT003 BKN022 OVC032 06/06 A2990 RMK AO2 P0001 T00610056 $=
202102010353 METAR KPAE 010353Z 15003KT 6SM -RA BR BKN004 OVC024 06/05 A2990 RMK AO2 RAE28B45 SLP127 P0002 T00610050 $=
202102010253 METAR KPAE 010253Z 16004KT 8SM -RA BKN004 OVC024 06/06 A2991 RMK AO2 SLP130 P0002 60005 T00610056 50008 $=
202102010153 METAR KPAE 010153Z 17006KT 7SM -RA BKN004 OVC024 06/05 A2991 RMK AO2 SLP131 P0002 T00610050 $=
202102010053 METAR KPAE 010053Z 16006KT 10SM -RA BKN004 OVC018 07/06 A2989 RMK AO2 RAB32 SLP125 P0001 T00670056 $=
202102010025 SPECI KPAE 010025Z 15008KT 10SM BKN004 OVC018 07/06 A2989 RMK AO2 T00670056 $=

# No short TAF reports from KPAE in databse.

###################################
#  large TAF from KPAE
###################################
202102282334 TAF KPAE 282334Z 0100/0124 15008KT P6SM BKN025 BKN100
                      TEMPO 0101/0105 SCT030 BKN100 FM010500 15005KT
                       P6SM BKN050 BKN100 FM011400 15006KT P6SM
                       SCT050 BKN120 OVC200 FM012000 18009KT P6SM
                       SCT120 BKN200=
202102281723 TAF KPAE 281723Z 2818/0118 16009KT P6SM OVC012 FM010000 15008KT
                       P6SM BKN025 FM010600 15005KT P6SM OVC040
                       FM011400 15006KT P6SM BKN050 BKN100=
202102281133 TAF KPAE 281133Z 2812/0112 16009KT 6SM -RA BR BKN006 OVC010 FM281800
                       16009KT P6SM VCSH SCT009 OVC015 FM010000
                       15008KT P6SM BKN020 FM010500 15005KT P6SM
                       OVC040=
202102280520 TAF KPAE 280520Z 2806/0106 14005KT P6SM BKN040 OVC060 FM280700
                       15008KT P6SM -RA OVC020 FM281800 16009KT
                       P6SM VCSH SCT009 OVC015 FM010000 15008KT
                       P6SM BKN020 FM010500 15005KT P6SM OVC040=
202102272333 TAF KPAE 272333Z 2800/2824 18006KT P6SM SCT035 BKN050 OVC200 FM280400
                       16006KT P6SM BKN030 OVC060 FM280700 16008KT
                       P6SM -SHRA OVC020 FM281800 17007KT P6SM
                       BKN015 OVC025=
202102271731 TAF KPAE 271731Z 2718/2818 VRB03KT P6SM SCT040 BKN200 FM272100
                       18006KT P6SM SCT060 BKN120 BKN200 FM280400
                       18006KT P6SM BKN035 OVC060 FM280900 18006KT
                       P6SM -SHRA OVC020=
202102271132 TAF KPAE 271132Z 2712/2812 32008KT P6SM BKN035 FM271700 VRB03KT
                       P6SM SCT050 FM272100 18006KT P6SM SCT060
                       BKN120 BKN200 FM280400 18006KT P6SM SCT035
                       OVC060 FM280900 18006KT P6SM -SHRA OVC020=
202102270531 TAF KPAE 270531Z 2706/2806 VRB04KT P6SM -SHRA FEW015 BKN025 OVC040
                       FM270800 33010KT P6SM BKN030 FM271300 35005KT
                       P6SM BKN022 FM271900 18007KT P6SM BKN035
                       BKN050 FM280500 18007KT P6SM VCSH OVC025=
202102270405 KPAE 270405Z 2704/2724 31011G24KT P6SM -RA FEW015 BKN035 OVC070
                       TEMPO 2704/2706 -TSRA BKN030CB FM270600
                       32006KT 6SM -SHRA BR OVC030 FM271300 35005KT
                       P6SM BKN022 FM271900 18007KT P6SM BKN035
                       BKN050=
202102270402 KPAE 270402Z 2704/2724 31011G24KT P6SM -RA FEW015 BKN035 OVC070
                       FM270600 32006KT 6SM -SHRA BR OVC030 FM271300
                       35005KT P6SM BKN022 FM271900 18007KT P6SM
                       BKN035 BKN050=
202102270306 KPAE 270306Z 2703/2724 31008G20KT P6SM -SHRA SCT025 OVC070 FM270600
                       32006KT 6SM -SHRA BR OVC030 FM271300 35005KT
                       P6SM BKN022 FM271900 18007KT P6SM BKN035
                       BKN050=
202102262335 TAF KPAE 262335Z 2700/2724 20010KT P6SM VCSH BKN040 BKN060 FM270600
                       32006KT 6SM -SHRA BR OVC030 FM271300 35005KT
                       P6SM BKN022 FM271900 18007KT P6SM BKN035
                       BKN050=
202102261727 TAF KPAE 261727Z 2618/2718 31012G20KT P6SM VCSH BKN040 BKN060 FM262100
                       31010KT P6SM VCSH BKN040 FM270600 32006KT
                       6SM -SHRA BR OVC030 FM271300 35005KT P6SM
                       SCT035=
202102261140 TAF KPAE 261140Z 2612/2712 24008G20KT P6SM -SHRA FEW017 OVC030
                       FM261300 30011KT 5SM -SHRA BR BKN020 OVC040
                       FM261800 28008KT P6SM VCSH BKN035 FM270600
                       32004KT 6SM -SHRA BR OVC025=
202102260539 TAF KPAE 260539Z 2606/2706 22012KT P6SM -SHRA OVC022 FM260900 23014G20KT
                       6SM -SHRA BR OVC018 FM261300 30011KT 5SM
                       -SHRA BR BKN020 OVC040 FM261800 31009KT
                       P6SM VCSH BKN035=
202102252335 TAF KPAE 252335Z 2600/2624 VRB06KT 6SM -SHRA BKN025 OVC040 FM260400
                       22012KT P6SM -SHRA OVC022 FM260900 23014G20KT
                       6SM -SHRA BR OVC018 FM261300 30011KT 5SM
                       -SHRA BR BKN020 OVC040 FM261800 31009KT
                       P6SM VCSH BKN035=
202102251734 TAF KPAE 251734Z 2518/2618 18010G18KT P6SM VCSH SCT005 BKN025
                      TEMPO 2518/2522 -SHRA BKN006 OVC020 FM252200
                       22012G20KT 6SM -SHRA OVC022 FM260000 30012G18KT
                       6SM -SHRA BKN025 OVC040 FM260400 22012KT
                       P6SM VCSH OVC025 FM261200 28011KT 5SM -SHRA
                       BR BKN020 OVC040=
202102251139 TAF KPAE 251139Z 2512/2612 18015G25KT P6SM -RA BKN015 OVC025 FM251600
                       21020G30KT P6SM VCSH BKN028 FM252100 25015G28KT
                       5SM -SHRA OVC030 FM260200 22012KT P6SM VCSH
                       OVC025=
202102250520 TAF KPAE 250520Z 2506/2606 16009KT P6SM OVC100 FM250900 17012KT
                       P6SM -RA BKN030 OVC050 FM251200 16015G25KT
                       P6SM -RA OVC025 FM251600 21020G30KT P6SM
                       VCSH BKN028 FM252100 25015G28KT 6SM -SHRA
                       OVC030=
202102242320 TAF KPAE 242320Z 2500/2524 00000KT P6SM FEW050 OVC250 FM250300
                       16007KT P6SM BKN100 OVC250 FM250900 17012KT
                       P6SM OVC050 FM251100 16015G25KT P6SM -RA
                       OVC025 FM251900 20020G30KT P6SM -SHRA OVC015=
202102241731 TAF KPAE 241731Z 2418/2518 VRB04KT P6SM SCT022 FM242000 20004KT
                       P6SM SCT030 SCT250 FM250300 16007KT P6SM
                       BKN100 OVC250 FM250900 17012KT P6SM OVC050
                       FM251100 16015G25KT P6SM -RA OVC025=
202102241122 TAF KPAE 241122Z 2412/2512 VRB04KT P6SM BKN035 FM241800 20005KT
                       P6SM SCT250 FM250300 15010KT P6SM OVC100=
202102240521 TAF KPAE 240521Z 2406/2506 35005KT 6SM -SHRA BR OVC030 FM240800
                       VRB04KT P6SM VCSH SCT015 OVC030 FM241000
                       VRB04KT P6SM BKN025 FM241800 20005KT P6SM
                       SCT025 SCT250=
202102240439 KPAE 240439Z 2405/2424 35005KT 3SM -SHSNRA SCT005 OVC035 FM240800
                       VRB04KT 6SM BR VCSH SCT015 OVC030 FM241000
                       VRB04KT P6SM BKN025 FM241800 20005KT P6SM
                       SCT025 SCT250=
202102240326 KPAE 240326Z 2403/2424 02014G24KT P6SM -SHRA BKN005 OVC010 FM240500
                       VRB04KT P6SM -SHRA SCT015 OVC030 FM241000
                       VRB04KT P6SM BKN025 FM241800 20005KT P6SM
                       SCT025 SCT250=
202102232323 TAF KPAE 232323Z 2400/2424 36008KT P6SM VCSH SCT035 SCT110
                      TEMPO 2400/2404 -SHRA BKN030 FM240600 VRB04KT
                       P6SM BKN050 FM240800 VRB04KT P6SM BKN025
                       FM241800 20005KT P6SM SCT025 SCT250=
202102232117 KPAE 232117Z 2321/2418 35004KT P6SM -SHRA SCT020 BKN026 OVC070
                       FM240000 33005KT P6SM VCSH BKN030 FM240600
                       36004KT P6SM BKN050 FM240800 VRB04KT P6SM
                       BKN025=
202102231735 TAF KPAE 231735Z 2318/2418 18008KT P6SM -SHRA SCT030 BKN060 OVC090
                       FM232000 30007KT P6SM -SHRA BKN030 OVC060
                       FM240000 33005KT P6SM VCSH BKN030 FM240600
                       36004KT P6SM BKN050 FM240800 VRB04KT P6SM
                       BKN025=
202102231127 TAF KPAE 231127Z 2312/2412 21009KT P6SM BKN035 BKN080 FM232000
                       30007KT P6SM -SHRA BKN030 OVC060 FM240400
                       33005KT P6SM VCSH BKN030 FM240600 36004KT
                       P6SM BKN050=
202102230520 TAF KPAE 230520Z 2306/2406 23006KT P6SM SCT050 BKN100 FM231100
                       21009KT P6SM BKN035 FM232000 30007KT P6SM
                       -SHRA BKN040 OVC060 FM240400 VRB04KT P6SM
                       VCSH BKN030=
202102230027 KPAE 230027Z 2300/2324 31008KT P6SM FEW015 BKN040 FM230600 23006KT
                       P6SM SCT050 BKN100 FM232000 31007KT P6SM
                       VCSH BKN050 BKN100=
202102222322 TAF KPAE 222322Z 2300/2324 31010G18KT P6SM -SHRA SCT005 BKN025
                       TEMPO 2300/2302 3SM SHRA BKN005 OVC025 FM230400
                       29008KT P6SM VCSH BKN035 FM230600 23006KT
                       P6SM SCT050 BKN100 FM232000 31007KT P6SM
                       VCSH BKN050 BKN100=
202102221720 TAF KPAE 221720Z 2218/2318 19013G20KT P6SM -RA OVC004 FM222300
                       31014G22KT 6SM -RA OVC009 FM230400 29008KT
                       P6SM VCSH BKN030 FM230600 23006KT P6SM SCT050
                       BKN100=
202102221129 TAF KPAE 221129Z 2212/2312 19014G22KT P6SM -RA OVC008 FM221600
                       19013G21KT 4SM -RA OVC007 FM222300 31014G22KT
                       6SM -RA OVC015 FM230400 23012KT P6SM VCSH
                       BKN030 FM230600 23010KT P6SM OVC050=
202102220521 KPAE 220521Z 2206/2306 19025G39KT 6SM -RA OVC015 FM221000 19018G25KT
                       5SM -RA BR OVC010 FM221600 19013G21KT 4SM
                       -RA OVC008 FM222300 31014G22KT 6SM -RA OVC015
                       FM230400 23012KT P6SM VCSH BKN030=
202102220520 TAF KPAE 220520Z 2206/2306 19020G28KT 6SM -RA OVC015 FM221000 19018G25KT
                       5SM -RA BR OVC010 FM221600 19013G21KT 4SM
                       -RA OVC008 FM222300 31014G22KT 6SM -RA OVC015
                       FM230400 23012KT P6SM VCSH BKN030=
202102212334 TAF KPAE 212334Z 2200/2224 19017G24KT 6SM -RA OVC015 FM220800 19018G25KT
                       5SM -RA BR OVC007 FM221600 19013G21KT 4SM
                       -RA OVC007 FM222300 28014G22KT 6SM -RA OVC015=
202102211724 TAF KPAE 211724Z 2118/2218 19015G21KT P6SM VCSH OVC009 FM212100
                       19017G24KT 6SM -RA OVC015 FM220800 19018G25KT
                       5SM -RA BR OVC007 FM221600 19013G21KT 4SM
                       -RA OVC007=
202102211122 TAF KPAE 211122Z 2112/2212 16015G25KT P6SM -RA OVC010
                      TEMPO 2112/2116 OVC007 FM212100 19017G24KT
                       6SM -RA OVC015 FM220800 19018G25KT 5SM -RA
                       BR OVC007=
202102210520 TAF KPAE 210520Z 2106/2206 17014G20KT P6SM -RA OVC020 FM211200
                       17015G22KT P6SM -RA OVC015 FM212100 19017G24KT
                       6SM -RA OVC015=
202102202331 TAF KPAE 202331Z 2100/2124 24005KT P6SM VCSH SCT035 OVC100 FM210500
                       17012G18KT P6SM -RA OVC025 FM210900 17015G22KT
                       P6SM -RA OVC015 FM212000 19017G24KT 6SM
                       -RA OVC015=
202102202108 KPAE 202108Z 2021/2118 19011KT P6SM SCT020 BKN030 FM202200 20013KT
                       P6SM VCSH SCT035 OVC050 FM210500 17012G18KT
                       P6SM -RA OVC025 FM210900 17015G22KT P6SM
                       -RA OVC015=
202102201723 TAF KPAE 201723Z 2018/2118 17005KT P6SM SCT020 BKN050 FM202200
                       20010KT P6SM -SHRA SCT035 OVC050 FM210500
                       17012G18KT P6SM -RA OVC025 FM210900 17015G22KT
                       P6SM -RA OVC015=
202102201533 KPAE 201533Z 2016/2112 00000KT P6SM SCT025 BKN050 FM201700 20008KT
                       P6SM BKN050 FM202200 20010KT P6SM -SHRA
                       SCT035 OVC050 FM210500 17012G18KT P6SM -RA
                       OVC025 FM210900 17015G22KT P6SM -RA OVC015=
202102201258 KPAE 201258Z 2013/2112 VRB05KT P6SM OVC005 FM201700 20008KT P6SM
                       OVC050 FM202200 20010KT P6SM -SHRA SCT035
                       OVC050 FM210500 17012G18KT P6SM -RA OVC025
                       FM210900 17015G22KT P6SM -RA OVC015=
202102201124 TAF KPAE 201124Z 2012/2112 VRB05KT P6SM VCSH SCT007 OVC060 FM201700
                       20008KT P6SM OVC050 FM202200 20010KT P6SM
                       -SHRA SCT035 OVC050 FM210500 17012G18KT
                       P6SM -RA OVC025 FM210900 17015G22KT P6SM
                       -RA OVC015=
202102200900 KPAE 200900Z 2009/2106 VRB05KT P6SM VCSH OVC006 FM201700 20008KT
                       P6SM BKN020 OVC050 FM202100 20010KT P6SM
                       SCT035 OVC050 FM210500 17012G18KT P6SM -RA
                       OVC027=
202102200520 TAF KPAE 200520Z 2006/2106 19008KT P6SM VCSH SCT018 OVC050
                      TEMPO 2006/2010 -SHRA OVC015 FM201000 VRB05KT
                       P6SM -SHRA OVC012 FM201700 20008KT P6SM
                       BKN020 OVC050 FM202100 20010KT P6SM SCT035
                       OVC050 FM210500 17012G18KT P6SM -RA OVC027=
202102192321 TAF KPAE 192321Z 2000/2024 18012KT P6SM VCSH SCT025 BKN050 FM200600
                       19008KT P6SM VCSH OVC020 FM201000 VRB05KT
                       P6SM -SHRA OVC012 FM201500 20008KT P6SM
                       SCT020 OVC050 FM201900 20012KT P6SM OVC050=
202102191720 TAF KPAE 191720Z 1918/2018 20009KT P6SM VCSH OVC013 FM192200 19012KT
                       P6SM VCSH OVC050 FM200400 17008KT P6SM VCSH
                       OVC025 FM200600 18009KT P6SM OVC012=
202102191124 TAF KPAE 191124Z 1912/2012 19010KT P6SM VCSH SCT010 OVC020 FM191800
                       18011KT P6SM VCSH SCT015 OVC030 FM192200
                       19012KT P6SM VCSH OVC050 FM200400 17008KT
                       P6SM VCSH OVC025=
202102190520 TAF KPAE 190520Z 1906/2006 16010KT P6SM VCSH OVC009 FM191200 19010KT
                       P6SM VCSH OVC010 FM191800 18011KT P6SM VCSH
                       BKN015 OVC035 FM192200 19012KT P6SM VCSH
                       BKN030 OVC050 FM200400 17008KT P6SM OVC027=
202102182324 TAF KPAE 182324Z 1900/1924 15010KT P6SM BKN040 OVC100 FM190200
                       15009KT 4SM -RA BR OVC020 FM190500 18012KT
                       6SM -SHRA BR OVC015 FM191200 19008KT P6SM
                       OVC050 FM191800 18010KT P6SM BKN050=
202102181725 TAF KPAE 181725Z 1818/1918 14004KT P6SM OVC110 FM182200 15010KT
                       4SM -RA BR OVC020 FM190500 18012G18KT 6SM
                       -SHRA BR OVC015 FM191200 19008KT P6SM OVC050=
202102181128 TAF KPAE 181128Z 1812/1912 12006KT P6SM OVC150 FM181800 16012G19KT
                       P6SM -RA OVC040 FM182200 19012G19KT 4SM
                       -RA BR OVC020 FM190500 18012G18KT 6SM -SHRA
                       BR OVC015=
202102180606 KPAE 180606Z 1806/1906 00000KT P6SM SCT120 OVC200 FM181200 12006KT
                       P6SM BKN050 OVC100 FM181800 16012G22KT P6SM
                       -RA OVC040 FM182200 19012G22KT 5SM -RA BR
                       BKN020 OVC040=
202102172320 TAF KPAE 172320Z 1800/1824 VRB03KT P6SM SCT035 BKN250 FM180600
                       00000KT P6SM SCT120 OVC200 FM181200 12006KT
                       P6SM BKN050 OVC100 FM181800 16012G22KT P6SM
                       -RA OVC040 FM182200 19012G22KT 5SM -RA BR
                       BKN020 OVC040=
202102171720 TAF KPAE 171720Z 1718/1818 VRB03KT P6SM VCSH BKN040 FM172200 35005KT
                       P6SM SCT040 FM180300 04004KT P6SM BKN250
                       FM181500 18006KT P6SM OVC100=
202102171120 TAF KPAE 171120Z 1712/1812 VRB03KT P6SM SCT020 BKN060
                      TEMPO 1712/1716 BKN020 OVC060 FM172200 34005KT
                       P6SM SCT050 FM180300 12003KT P6SM BKN250=
202102170520 TAF KPAE 170520Z 1706/1806 VRB04KT P6SM VCSH SCT030 OVC050 FM171200
                       16006KT P6SM OVC015 FM171700 VRB03KT P6SM
                       BKN020 FM172200 32005KT P6SM SCT030=
202102170329 KPAE 170329Z 1703/1724 VRB04KT P6SM VCSH SCT030 OVC050 FM171200
                       16006KT P6SM OVC015 FM171700 VRB03KT P6SM
                       BKN020 FM172200 32005KT P6SM SCT030=
202102162323 TAF KPAE 162323Z 1700/1724 27007KT P6SM -SHRA BKN022 OVC040
                      TEMPO 1700/1704 4SM SHRA BR OVC015 FM171200
                       16006KT P6SM OVC015 FM171700 VRB03KT P6SM
                       BKN020 FM172200 32005KT P6SM SCT030=
202102162114 KPAE 162114Z 1621/1718 27007KT P6SM SCT030 FM170200 32010KT P6SM
                       VCSH SCT025 BKN050 FM170900 19008KT P6SM
                       BKN020 OVC040 FM171200 VRB03KT P6SM OVC015
                       FM171700 VRB03KT P6SM BKN020=
202102161720 TAF KPAE 161720Z 1618/1718 27007KT P6SM VCSH OVC025 FM162000 32010KT
                       P6SM -SHRA OVC020 FM170200 32010KT P6SM
                       VCSH BKN025 BKN050 FM170900 19008KT P6SM
                       BKN020 OVC040 FM171200 VRB03KT P6SM OVC015
                       FM171700 VRB03KT P6SM BKN020=
202102161127 TAF KPAE 161127Z 1612/1712 16006KT 6SM -SHRA BR SCT002 OVC020
                      TEMPO 1612/1616 2SM -SHRA BKN002 OVC020 FM161800
                       25006KT P6SM -SHRA SCT010 OVC020 FM162100
                       31005KT P6SM BKN020 OVC050 FM170100 30004KT
                       P6SM SCT025 BKN050 FM171000 VRB04KT P6SM
                       BKN015 OVC025=
202102160958 KPAE 160958Z 1610/1706 16006KT P6SM FEW003 OVC007
                      TEMPO 1610/1614 1SM BR BKN003 OVC007 FM162000
                       26006KT P6SM SCT010 OVC020=
202102160601 KPAE 160601Z 1606/1706 00000KT P6SM SCT003 BKN019 OVC050
                      TEMPO 1606/1609 2SM BR BKN002 OVC019 FM160900
                       19004KT 1/2SM FG VCSH OVC003 FM162000 26006KT
                       P6SM SCT010 OVC020=
202102160520 TAF KPAE 160520Z 1606/1706 35006KT 1/2SM -SHRA FG OVC002 FM160900
                       19004KT 1/2SM FG VCSH OVC003 FM162000 26006KT
                       P6SM SCT010 OVC020=
202102160245 KPAE 160245Z 1603/1624 35006KT 1/2SM -SHRA FG OVC002 FM160900 19004KT
                       1/2SM FG VCSH OVC003 FM162000 26006KT P6SM
                       SCT010 OVC020=
202102152328 TAF KPAE 152328Z 1600/1624 13010KT 2SM -RA BR BKN005 OVC015
                      TEMPO 1600/1602 1/2SM FG VV001 FM160200 32005KT
                       2SM -RA BR OVC007 FM160800 20004KT 4SM BR
                       VCSH OVC005 FM161100 20008KT 1SM BR VCSH
                       OVC010 FM162000 26006KT P6SM SCT010 OVC020=
202102151733 TAF KPAE 151733Z 1518/1618 13010KT 4SM -RA BKN007 OVC015
                      TEMPO 1518/1522 2SM BR OVC003 FM160200 32005KT
                       4SM -RA BR SCT007 OVC015 FM160800 20004KT
                       P6SM -RA OVC007 FM161100 20008KT 4SM BR
                       VCSH OVC010=
202102151120 TAF KPAE 151120Z 1512/1612 11010KT P6SM -RA SCT015 BKN020 OVC035
                       FM151500 15010KT 4SM -RA BKN007 OVC015 FM160200
                       32005KT 4SM -RA BR SCT007 OVC015 FM160800
                       17004KT P6SM -RA BKN007 OVC015=
202102150919 KPAE 150919Z 1509/1606 14007KT P6SM -RA FEW005 SCT012 OVC020
                      TEMPO 1509/1513 4SM -RASN SCT005 OVC012 FM151300
                       15010KT 4SM -RA OVC007 FM160200 32004KT
                       2SM -RA BR OVC003=
202102150608 KPAE 150608Z 1506/1606 14010G16KT 6SM BR SCT004 SCT011 OVC028
                      TEMPO 1506/1508 2SM -RA BR BKN004 OVC011
                       FM150800 13005KT 1SM -RA BR OVC003 FM151200
                       15010KT 4SM -RA OVC007 FM160200 VRB04KT
                       2SM -RA BR OVC003=
202102150520 TAF KPAE 150520Z 1506/1606 14006KT 1SM -FZRA BR BKN003 OVC025 FM150800
                       13005KT 1SM -RA BR OVC003 FM151200 15010KT
                       4SM -RA OVC007 FM160200 VRB04KT 2SM -RA
                       BR OVC003=
202102150309 KPAE 150309Z 1503/1524 12008KT 1SM BR BKN003 BKN025 OVC035 FM150600
                       14008KT 1SM BR OVC004 FM151200 15010KT 4SM
                       -RA OVC007=
202102150122 KPAE 150122Z 1501/1524 12008KT 3SM BR BKN004 OVC016 FM150600 14008KT
                       1SM -RA OVC004 FM151200 15010KT 4SM -RA
                       OVC007=
202102142329 TAF KPAE 142329Z 1500/1524 15008KT 5SM -SNPL OVC010 FM151200 15010KT
                       4SM -RA OVC007=
202102141730 TAF KPAE 141730Z 1418/1518 12008G14KT 3/4SM -SN BR BKN017 OVC023
                       FM150000 15008KT 5SM -SNPL OVC010 FM151600
                       15010KT 4SM -RA OVC007=
202102141128 TAF KPAE 141128Z 1412/1512 12007KT P6SM VCSH OVC025
                      TEMPO 1412/1416 5SM -SHSN OVC015 FM141600
                       13007KT 4SM -SN OVC015 FM150000 13008KT
                       5SM -SNPL OVC010=
202102140623 KPAE 140623Z 1406/1506 11006KT P6SM SCT023 OVC035
                      TEMPO 1406/1410 OVC023 FM141000 12004KT P6SM
                       OVC025 FM141200 13006KT P6SM OVC015 FM141700
                       13007KT 4SM -SN OVC007 FM142100 13008KT
                       5SM -RA BR OVC010=
202102140520 TAF KPAE 140520Z 1406/1506 12004KT P6SM OVC025 FM141200 13006KT
                       P6SM OVC015 FM141700 13007KT 4SM -SN OVC007
                       FM142100 13008KT 5SM -RA BR OVC010=
202102132320 TAF KPAE 132320Z 1400/1424 14006KT P6SM VCSH BKN008 OVC020
                      TEMPO 1400/1403 2SM -SHSN OVC007 FM140300
                       09005KT P6SM VCSH SCT010 OVC020 FM141200
                       13006KT 5SM BR OVC010 FM141500 13007KT 4SM
                       -SN OVC007 FM142100 13008KT 5SM -RA BR OVC010=
202102131733 TAF KPAE 131733Z 1318/1418 11008KT 1 1/2SM -SN BR OVC025
                      TEMPO 1318/1320 1/2SM SN VV010 FM132000 11006KT
                       2SM -SHSN OVC010 FM140100 10005KT P6SM VCSH
                       OVC015=
202102131123 TAF KPAE 131123Z 1312/1412 11010G20KT 1 1/2SM -SN BR OVC015
                      TEMPO 1312/1316 1/2SM SN VV008 FM132000 11006KT
                       3SM -SHSN OVC020 FM140100 13005KT P6SM VCSH
                       BKN025 OVC040=
202102130520 TAF KPAE 130520Z 1306/1406 13007KT 3SM -SN SCT009 OVC018
                      TEMPO 1306/1310 1 1/2SM -SN BKN009 OVC015
                       FM131000 09009KT 1SM -SN OVC008 FM132000
                       11006KT 3SM -SN OVC015 FM140100 13005KT
                       5SM -SHSN BKN020 OVC040 FM140500 10004KT
                       6SM BR BKN030 BKN050=
202102122327 TAF KPAE 122327Z 1300/1324 08010KT P6SM SCT035 OVC050 FM130600
                       10007KT 5SM -SN OVC025 FM131100 03010KT
                       1SM -SN OVC010 FM132000 11006KT 3SM -SN
                       OVC015=
202102121723 TAF KPAE 121723Z 1218/1318 07010KT P6SM SCT035 OVC050 FM130600
                       03010KT 5SM -SN OVC030 FM131100 03010KT
                       1SM -SN OVC010=
202102121141 TAF KPAE 121141Z 1212/1312 07010KT P6SM OVC050 FM130700 03010KT
                       5SM -SN OVC030 FM131100 03010KT 1SM -SN
                       OVC006=
202102120520 TAF KPAE 120520Z 1206/1306 02008KT P6SM OVC050
                      TEMPO 1206/1209 6SM -SN FM120900 05005KT
                       P6SM VCSH OVC050 FM121900 04006KT P6SM OVC060
                       FM130100 08007KT P6SM OVC050 FM130500 12010KT
                       P6SM VCSH OVC045=
202102112320 TAF KPAE 112320Z 1200/1224 36006KT P6SM SCT050 OVC080 FM120200
                       03009KT P6SM OVC050 FM120800 05005KT P6SM
                       VCSH OVC050
                      PROB30 1210/1216 -SN OVC030=
202102111733 TAF KPAE 111733Z 1118/1218 36006KT P6SM OVC060 FM112000 03009KT
                       P6SM OVC050 FM120200 05007KT P6SM VCSH OVC050
                       PROB30 1210/1216 -SN OVC030=
202102111124 TAF KPAE 111124Z 1112/1212 36006KT P6SM VCSH OVC050 FM111800 09009KT
                       P6SM OVC050 FM112200 10012G18KT P6SM OVC050=
202102110902 KPAE 110902Z 1109/1206 36006KT P6SM -SN OVC060 FM111200 03012G20KT
                       P6SM OVC045=
202102110522 TAF KPAE 110522Z 1106/1206 03008KT P6SM OVC070 FM111200 03012G20KT
                       P6SM OVC045=
202102102322 TAF KPAE 102322Z 1100/1124 VRB04KT P6SM -SHSN OVC040 FM110300 33008KT
                       P6SM OVC040
                      TEMPO 1103/1107 4SM -SN OVC025 FM110800 36012G22KT
                       P6SM BKN030
                      TEMPO 1108/1112 -SHSN FM111900 12012G18KT
                       P6SM BKN040=
202102101720 TAF KPAE 101720Z 1018/1118 16006KT P6SM BKN040 FM102200 01008KT
                       P6SM -SHSN BKN040 FM110400 01012KT P6SM
                       SCT040 FM111600 01012G18KT P6SM BKN040=
202102101404 KPAE 101404Z 1014/1112 VRB05KT P6SM BKN050 FM101800 34012KT P6SM
                       SCT050 FM110100 33008KT P6SM OVC050=
202102101126 TAF KPAE 101126Z 1012/1112 00000KT P6SM SCT050 FM101800 34012KT
                       P6SM SCT050 FM110100 33008KT P6SM OVC050=
202102100520 TAF KPAE 100520Z 1006/1106 36006KT P6SM SCT050 FM101800 36012KT
                       P6SM BKN050=
202102092320 TAF KPAE 092320Z 1000/1024 36006KT P6SM SCT050 FM101800 36012KT
                       P6SM BKN050=
202102091722 TAF KPAE 091722Z 0918/1018 36005KT P6SM SCT030 FM092200 36003KT
                       P6SM BKN050 FM100500 00000KT P6SM SCT050
                       SCT200=
202102091417 KPAE 091417Z 0914/1012 35004KT P6SM FEW005 BKN070 FM091700 35004KT
                       P6SM BKN040 FM092200 36003KT P6SM SCT050
                       FM100500 00000KT P6SM SCT250=
202102091135 TAF KPAE 091135Z 0912/1012 36004KT P6SM SCT030 BKN070 FM091700
                       35004KT P6SM BKN040 FM092200 36003KT P6SM
                       SCT050 FM100500 00000KT P6SM SCT250=
202102090520 TAF KPAE 090520Z 0906/1006 VRB03KT P6SM SCT050 BKN070 FM090900
                       VRB03KT P6SM SCT020 OVC040 FM091900 35004KT
                       P6SM SCT025 OVC050 FM100200 VRB03KT P6SM
                       SCT050 BKN100=
202102082324 TAF KPAE 082324Z 0900/0924 VRB03KT P6SM SCT015 BKN020 OVC050 FM090200
                       VRB03KT P6SM SCT020 BKN050 FM090900 VRB03KT
                       P6SM SCT010 OVC025 FM091900 VRB03KT P6SM
                       SCT015 OVC050=
202102081829 KPAE 081829Z 0818/0918 VRB03KT 6SM BR SCT004 OVC015
                      TEMPO 0818/0820 2SM -SN BR BKN004 FM082000
                       31003KT P6SM SCT015 BKN050 FM091000 VRB03KT
                       P6SM OVC015 FM091400 VRB02KT 4SM BR SCT001
                       OVC010=
202102081727 TAF KPAE 081727Z 0818/0918 VRB03KT P6SM SCT001 OVC015 FM082000
                       31003KT P6SM SCT015 BKN050 FM091000 VRB03KT
                       P6SM OVC015 FM091400 VRB02KT 4SM BR SCT001
                       OVC010=
202102081350 KPAE 081350Z 0814/0912 16004KT 5SM BR VCSH SCT001 OVC035
                      TEMPO 0814/0816 1/2SM FG OVC001 FM081700
                       VRB03KT P6SM BKN060 FM091000 VRB03KT P6SM
                       BKN030=
202102081126 TAF KPAE 081126Z 0812/0912 VRB03KT P6SM VCSH SCT030 BKN070 FM081700
                       VRB03KT P6SM BKN060 FM091000 VRB03KT P6SM
                       BKN030=
202102080543 KPAE 080543Z 0806/0906 VRB03KT P6SM VCSH SCT025 OVC060
                      TEMPO 0806/0809 -RA BKN025 FM080900 VRB02KT
                       P6SM VCSH OVC035 FM081200 36003KT P6SM OVC050=
202102080520 TAF KPAE 080520Z 0806/0906 VRB03KT P6SM VCSH BKN025 OVC060 FM080900
                       VRB02KT P6SM VCSH OVC035 FM081200 36003KT
                       P6SM OVC050=
202102080302 KPAE 080302Z 0803/0824 35004KT P6SM -RA FEW015 BKN025 OVC060 FM080800
                       23004KT P6SM VCSH OVC025=
202102072320 TAF KPAE 072320Z 0800/0824 30006KT P6SM VCSH OVC050 FM080200 33004KT
                       4SM -RA OVC020 FM080800 23004KT P6SM VCSH
                       OVC025=
202102071732 TAF KPAE 071732Z 0718/0818 23005KT P6SM SCT050 FM072200 30006KT
                       P6SM VCSH OVC050 FM080200 33004KT 4SM -RA
                       OVC020 FM080800 23004KT P6SM VCSH OVC025=
202102071135 TAF KPAE 071135Z 0712/0812 25005KT P6SM VCSH FEW025 OVC050 FM072200
                       30006KT P6SM VCSH OVC050 FM080200 33004KT
                       P6SM -SHRA OVC050 FM080800 23004KT P6SM
                       VCSH OVC025=
202102070520 TAF KPAE 070520Z 0706/0806 34008KT P6SM OVC025 FM071100 24007KT
                       P6SM SCT015 OVC035 FM072100 30006KT P6SM
                       -SHRA OVC050 FM080200 33004KT P6SM OVC050=
202102062320 TAF KPAE 062320Z 0700/0724 29006KT P6SM BKN025 OVC050 FM070600
                       25008KT P6SM SCT015 OVC025=
202102061737 TAF KPAE 061737Z 0618/0718 19018G28KT P6SM -RA BKN010 OVC025 FM062200
                       27015G22KT P6SM -RA OVC025 FM070300 25012KT
                       P6SM SCT015 OVC025=
202102061602 KPAE 061602Z 0616/0712 19018G28KT P6SM -RA BKN015 OVC025 FM062200
                       27015G22KT P6SM -RA OVC025 FM070300 25012KT
                       P6SM SCT015 OVC025=
202102061125 TAF KPAE 061125Z 0612/0712 18010KT 4SM BR BKN006 OVC013 FM061300
                       19013G21KT 4SM -RA BR SCT010 OVC015 FM062200
                       27011KT P6SM -RA OVC015 FM070200 25008KT
                       P6SM SCT015 OVC025=
202102060520 TAF KPAE 060520Z 0606/0706 21008KT P6SM SCT010 OVC015 FM061300
                       19013G21KT 4SM -RA BR SCT010 OVC015 FM062200
                       27011KT P6SM -RA OVC015 FM070200 25008KT
                       P6SM SCT015 OVC025=
202102052331 TAF KPAE 052331Z 0600/0624 32007KT P6SM BKN007 OVC030 FM060300
                       21006KT P6SM SCT010 OVC015 FM061300 19010G19KT
                       4SM -RA BR SCT010 OVC015 FM062200 27011KT
                       P6SM -RA OVC015=
202102051728 TAF KPAE 051728Z 0518/0618 32006KT P6SM VCSH SCT010 OVC025 FM052000
                       32007KT P6SM SCT007 OVC025 FM060300 21006KT
                       P6SM OVC020 FM061300 19010G19KT P6SM -RA
                       OVC015=
202102051321 KPAE 051321Z 0513/0612 16005KT P6SM -RA BKN014 OVC020 FM051600
                       22006KT P6SM VCSH OVC025 FM052000 19007KT
                       P6SM SCT007 OVC025=
202102051136 TAF KPAE 051136Z 0512/0612 18009KT P6SM -RA VCSH FEW030 OVC045
                       FM051600 22006KT P6SM VCSH OVC025 FM052000
                       19007KT P6SM SCT007 OVC025=
202102050608 KPAE 050608Z 0506/0606 18006KT 4SM -RA BR SCT007 BKN012 OVC022
                       FM051200 27007KT P6SM VCSH OVC015 FM051600
                       22006KT P6SM OVC010 FM052000 19007KT P6SM
                       SCT007 OVC015=
202102050520 TAF KPAE 050520Z 0506/0606 19010KT P6SM -RA OVC005 FM051200 27007KT
                       P6SM VCSH OVC015 FM051600 22006KT P6SM OVC010
                       FM052000 19007KT P6SM SCT007 OVC015=
202102050300 KPAE 050300Z 0503/0524 17009KT 3SM BR OVC007
                      TEMPO 0503/0504 1SM -RA BR OVC003 FM050400
                       20012KT P6SM -RA OVC005 FM051400 27007KT
                       P6SM OVC015=
202102050147 KPAE 050147Z 0502/0524 17009KT 3SM -RA BR BKN007 OVC015 FM050300
                       20012KT P6SM -RA OVC009 FM051400 27007KT
                       P6SM OVC015=
202102042325 TAF KPAE 042325Z 0500/0524 17009KT 6SM -RA BKN007 OVC015 FM050300
                       20012KT P6SM -RA OVC009 FM051400 27007KT
                       P6SM OVC015=
202102041723 TAF KPAE 041723Z 0418/0518 17007KT P6SM -RA SCT005 OVC015 FM050300
                       20012KT P6SM -RA OVC010 FM051400 27007KT
                       P6SM OVC015=
202102041140 TAF KPAE 041140Z 0412/0512 16006KT P6SM FEW006 BKN011 OVC018 FM041800
                       17009KT P6SM -RA OVC008 FM050300 20012KT
                       P6SM -RA OVC010=
202102041004 KPAE 041004Z 0410/0506 17004KT P6SM BKN004 OVC011 FM041500 17009KT
                       P6SM -RA OVC008=
202102040520 TAF KPAE 040520Z 0406/0506 18006KT P6SM BKN030 OVC250 FM040800
                       17008KT P6SM OVC025 FM041300 17009KT P6SM
                       -RA OVC015=
202102040259 KPAE 040259Z 0403/0424 18006KT P6SM BKN035 OVC250 FM040800 17008KT
                       P6SM OVC025 FM041200 17009KT P6SM -RA OVC015=
202102032321 TAF KPAE 032321Z 0400/0424 VRB03KT P6SM FEW020 BKN250 FM040100
                       18006KT P6SM BKN030 OVC250 FM040800 17008KT
                       P6SM OVC025 FM041200 17009KT P6SM -RA OVC015=
202102032113 KPAE 032113Z 0321/0418 34005KT P6SM SCT020 BKN050 FM032300 20005KT
                       P6SM SCT020 OVC050 FM040600 16006KT P6SM
                       OVC025=
202102031720 TAF KPAE 031720Z 0318/0418 33005KT P6SM SCT010 BKN080
                      TEMPO 0318/0320 BKN006 BKN010 FM032000 34003KT
                       P6SM OVC050 FM032300 20005KT P6SM SCT025
                       OVC050 FM040600 16006KT P6SM OVC025=
202102031140 TAF KPAE 031140Z 0312/0412 06004KT P6SM VCSH SCT035 OVC045 FM031700
                       34003KT P6SM OVC050 FM032300 20005KT P6SM
                       SCT025 OVC050 FM040600 16006KT P6SM OVC025=
202102030520 TAF KPAE 030520Z 0306/0406 17014KT P6SM -RA OVC025 FM031300 02004KT
                       P6SM OVC025 FM031800 34003KT P6SM OVC040=
202102022322 TAF KPAE 022322Z 0300/0324 18016G25KT P6SM BKN015 OVC020 FM030300
                       17014KT P6SM OVC010 FM030700 16010KT P6SM
                       OVC020 FM031200 02004KT P6SM OVC035 FM031800
                       34003KT P6SM OVC015=
202102021730 TAF KPAE 021730Z 0218/0318 VRB04KT 6SM -RA FEW003 BKN008 OVC035
                       FM022100 19012KT 6SM -RA OVC010 FM030000
                       18011KT P6SM -RA OVC020 FM030700 16010KT
                       P6SM OVC025=
202102021145 TAF KPAE 021145Z 0212/0312 17009KT 5SM -RA OVC015 FM021500 17008KT
                       6SM -RA OVC015 FM022100 19012KT P6SM -RA
                       OVC025 FM030700 16010KT P6SM OVC025=
202102020520 TAF KPAE 020520Z 0206/0306 17009KT 5SM -RA OVC015 FM021500 17008KT
                       6SM -RA OVC015 FM022100 19012KT P6SM -RA
                       OVC025=
202102020353 KPAE 020353Z 0204/0224 17009KT P6SM -RA OVC040 FM021500 17008KT
                       6SM -RA OVC015 FM022100 19012KT P6SM -RA
                       OVC025=
202102012339 TAF KPAE 012339Z 0200/0224 16008KT P6SM -RA BKN009 BKN040 OVC060
                       FM020300 17009KT 5SM -RA OVC020 FM021500
                       17008KT 4SM -RA OVC007 FM021900 18010KT
                       4SM BR OVC015 FM022100 19012KT 6SM -RA OVC025=
202102011737 TAF KPAE 011737Z 0118/0218 18005KT P6SM -RA BKN045 OVC050 FM012200
                       16008KT 3SM -RA BR OVC020 FM020200 17010G16KT
                       5SM -RA OVC015 FM021000 18007KT 6SM BR VCSH
                       OVC030=
202102011140 TAF KPAE 011140Z 0112/0212 12004KT 5SM -RA BR SCT020 OVC045 FM011400
                       18005KT 3SM -RA BR OVC020 FM020200 17010G16KT
                       6SM -RA OVC015=
202102010726 KPAE 010726Z 0107/0206 12004KT 3SM -RA BR SCT005 BKN025 OVC035
                       FM011000 16010KT 3SM -RA BR OVC007 FM012100
                       16009KT 4SM -RA BR OVC015 FM020200 17010G16KT
                       6SM -RA OVC015=
202102010520 TAF KPAE 010520Z 0106/0206 15004KT 3SM -RA BR BKN003 OVC020 FM011800
                       16010KT 3SM -RA BR OVC007 FM012100 16009KT
                       4SM -RA BR OVC015 FM020200 17010G16KT 6SM
                       -RA OVC015=
202102010300 KPAE 010300Z 0103/0124 15004KT P6SM -RA BKN004 OVC025 FM011800
                       16010KT 3SM -RA BR OVC007 FM012100 16009KT
                       4SM -RA BR OVC015=