##########################################################
# Query made at 02/15/2025 22:30:03 UTC
# Time interval: from 06/01/2021 00:00  to 06/30/2021 23:59  UTC
##########################################################

##########################################################
# KPAE, Everett, Snohomish County Airport (United States)
# WMO index: -----. WIGOS ID: Unknown
# Latitude 47-55-23N. Longitude 122-16-57W. Altitude 184 m.
##########################################################

###################################
#  METAR/SPECI from KPAE
###################################
202106302353 METAR KPAE 302353Z 29007KT 10SM CLR 24/16 A2990 RMK AO2 SLP121 T02390156 10244 20189 56003=
202106302253 METAR KPAE 302253Z 25008KT 10SM CLR 23/15 A2990 RMK AO2 SLP122 T02330150=
202106302153 METAR KPAE 302153Z 26008KT 10SM CLR 24/15 A2990 RMK AO2 SLP122 T02390150=
202106302053 METAR KPAE 302053Z 28006KT 10SM SCT024 22/15 A2991 RMK AO2 SLP124 T02220150 58002=
202106301953 METAR KPAE 301953Z 16008KT 10SM OVC020 21/14 A2991 RMK AO2 SLP125 T02110144=
202106301853 METAR KPAE 301853Z 16008KT 10SM OVC017 19/14 A2992 RMK AO2 SLP129 T01940144=
202106301753 METAR KPAE 301753Z 18010KT 10SM OVC017 19/14 A2992 RMK AO2 SLP128 T01890144 10189 20161 51008=
202106301653 METAR KPAE 301653Z 20009KT 10SM OVC015 18/14 A2991 RMK AO2 SLP126 T01830139=
202106301553 METAR KPAE 301553Z 19007KT 10SM OVC015 18/14 A2990 RMK AO2 SLP124 T01780139=
202106301453 METAR KPAE 301453Z 20008KT 10SM OVC015 18/14 A2989 RMK AO2 SLP119 T01780139 51005=
202106301448 SPECI KPAE 301448Z 20008KT 10SM BKN015 18/14 A2989 RMK AO2=
202106301440 SPECI KPAE 301440Z 19009KT 10SM BKN014 17/14 A2989 RMK AO2 T01720139=
202106301424 SPECI KPAE 301424Z 19008KT 10SM SCT012 17/14 A2989 RMK AO2 T01720139=
202106301353 METAR KPAE 301353Z 20005KT 10SM BKN012 17/14 A2989 RMK AO2 SLP119 T01670139=
202106301332 SPECI KPAE 301332Z 19005KT 10SM BKN011 17/14 A2989 RMK AO2 T01670139=
202106301253 METAR KPAE 301253Z 21004KT 10SM CLR 16/14 A2988 RMK AO2 SLP115 T01610139=
202106301153 METAR KPAE 301153Z 20005KT 10SM CLR 16/13 A2986 RMK AO2 SLP110 T01610133 10189 20161 51005=
202106301053 METAR KPAE 301053Z 22003KT 10SM CLR 16/13 A2985 RMK AO2 SLP106 T01610133=
202106300953 METAR KPAE 300953Z 23003KT 10SM CLR 16/13 A2986 RMK AO2 SLP107 T01610133=
202106300853 METAR KPAE 300853Z 19008KT 10SM CLR 17/14 A2985 RMK AO2 SLP104 T01720139 51007=
202106300753 METAR KPAE 300753Z 17009KT 10SM CLR 18/14 A2985 RMK AO2 SLP104 T01830139 402720161=
202106300653 METAR KPAE 300653Z 01004KT 10SM CLR 17/15 A2984 RMK AO2 SLP101 T01670150=
202106300553 METAR KPAE 300553Z 00000KT 10SM CLR 17/15 A2983 RMK AO2 SLP097 T01720150 10233 20172 53025=
202106300453 METAR KPAE 300453Z 01006KT 10SM CLR 19/15 A2980 RMK AO2 SLP087 T01890150=
202106300353 METAR KPAE 300353Z 02007KT 10SM CLR 21/16 A2977 RMK AO2 SLP076 T02060156=
202106300253 METAR KPAE 300253Z 02006KT 10SM CLR 22/16 A2975 RMK AO2 SLP071 T02170156 55001=
202106300153 METAR KPAE 300153Z 35006KT 10SM CLR 21/16 A2975 RMK AO2 SLP069 T02110156=
202106300053 METAR KPAE 300053Z 35008KT 10SM CLR 22/16 A2975 RMK AO2 SLP071 T02170156=
202106292353 METAR KPAE 292353Z 35007KT 10SM CLR 23/16 A2976 RMK AO2 SLP073 T02280161 10272 20222 57007=
202106292253 METAR KPAE 292253Z 36007KT 10SM CLR 24/17 A2976 RMK AO2 SLP074 T02440167=
202106292153 METAR KPAE 292153Z 28006KT 10SM CLR 27/17 A2977 RMK AO2 SLP076 T02720172=
202106292053 METAR KPAE 292053Z 26009KT 10SM CLR 26/17 A2978 RMK AO2 SLP078 T02610167 58006=
202106291953 METAR KPAE 291953Z 24010KT 10SM R16R/3500VP6000FT CLR 24/16 A2978 RMK AO2 SLP081 T02440161=
202106291853 METAR KPAE 291853Z 24008KT 10SM CLR 23/16 A2979 RMK AO2 SLP083 T02330161=
202106291753 METAR KPAE 291753Z 24009KT 10SM CLR 22/16 A2979 RMK AO2 SLP083 T02220156 10228 20183 58011=
202106291653 METAR KPAE 291653Z 23008KT 10SM CLR 22/16 A2980 RMK AO2 SLP087 T02170161=
202106291553 METAR KPAE 291553Z VRB04KT 10SM CLR 20/16 A2982 RMK AO2 SLP092 T02000156=
202106291453 METAR KPAE 291453Z 26004KT 10SM CLR 19/16 A2983 RMK AO2 SLP094 T01940156 51005=
202106291353 METAR KPAE 291353Z 16007KT 10SM CLR 19/16 A2982 RMK AO2 SLP093 T01890156=
202106291253 METAR KPAE 291253Z AUTO 18006KT 10SM CLR 18/16 A2982 RMK AO2 SLP092 T01830156=
202106291153 METAR KPAE 291153Z AUTO 17007KT 10SM CLR 19/16 A2981 RMK AO2 SLP089 T01890156 10300 20189 51023=
202106291053 METAR KPAE 291053Z AUTO 18009KT 10SM CLR 21/16 A2979 RMK AO2 SLP083 T02060156=
202106290953 METAR KPAE 290953Z AUTO 18006KT 10SM CLR 22/15 A2977 RMK AO2 SLP073 T02170150=
202106290853 METAR KPAE 290853Z AUTO 00000KT 10SM CLR 24/14 A2974 RMK AO2 SLP065 T02390144 53014=
202106290753 METAR KPAE 290753Z AUTO 36006KT 10SM CLR 26/14 A2972 RMK AO2 SLP058 T02610139 403780244=
202106290653 METAR KPAE 290653Z AUTO 36007KT 10SM CLR 28/16 A2971 RMK AO2 SLP053 T02780156=
202106290553 METAR KPAE 290553Z AUTO 01004KT 10SM CLR 30/14 A2970 RMK AO2 SLP051 T03000144 10378 20294 53004=
202106290453 METAR KPAE 290453Z AUTO 02005KT 10SM CLR 32/14 A2969 RMK AO2 SLP049 T03170144=
202106290353 METAR KPAE 290353Z 36005KT 10SM CLR 32/15 A2968 RMK AO2 SLP045 T03220150=
202106290253 METAR KPAE 290253Z 35007KT 10SM CLR 34/17 A2969 RMK AO2 SLP047 T03440167 56010=
202106290153 METAR KPAE 290153Z 34005KT 10SM CLR 36/18 A2969 RMK AO2 SLP047 T03560178=
202106290053 METAR KPAE 290053Z 35006KT 10SM CLR 37/18 A2970 RMK AO2 SLP052 T03670178=
202106282353 METAR KPAE 282353Z 35006KT 10SM CLR 38/17 A2972 RMK AO2 SLP057 T03780172 10378 20300 58016=
202106282253 METAR KPAE 282253Z 35007KT 10SM CLR 37/16 A2974 RMK AO2 SLP063 T03720156=
202106282153 METAR KPAE 282153Z 35005KT 10SM CLR 37/17 A2975 RMK AO2 SLP069 T03670167=
202106282053 METAR KPAE 282053Z 36007KT 10SM CLR 35/17 A2977 RMK AO2 SLP073 T03500167 58014=
202106281953 METAR KPAE 281953Z 36007KT 10SM CLR 33/17 A2978 RMK AO2 SLP079 T03330167=
202106281853 METAR KPAE 281853Z 35007KT 10SM CLR 32/17 A2980 RMK AO2 SLP084 T03220167=
202106281753 METAR KPAE 281753Z 36008KT 10SM CLR 30/16 A2981 RMK AO2 SLP089 T03000161 10306 20244 57005=
202106281653 METAR KPAE 281653Z 36005KT 10SM CLR 29/17 A2981 RMK AO2 SLP091 T02940167=
202106281553 METAR KPAE 281553Z 36006KT 10SM CLR 29/15 A2982 RMK AO2 SLP092 T02890150=
202106281453 METAR KPAE 281453Z 03006KT 10SM CLR 27/16 A2983 RMK AO2 SLP093 T02720161 51003=
202106281353 METAR KPAE 281353Z 06003KT 10SM CLR 27/16 A2983 RMK AO2 SLP093 T02670156=
202106281253 METAR KPAE 281253Z AUTO 00000KT 10SM CLR 24/16 A2982 RMK AO2 SLP092 T02440161=
202106281153 METAR KPAE 281153Z AUTO 36004KT 10SM CLR 25/16 A2982 RMK AO2 SLP090 T02500156 10278 20250 56005=
202106281053 METAR KPAE 281053Z AUTO 04003KT 10SM CLR 27/16 A2982 RMK AO2 SLP091 T02670156=
202106280953 METAR KPAE 280953Z AUTO 04003KT 10SM CLR 27/17 A2983 RMK AO2 SLP093 T02670167=
202106280853 METAR KPAE 280853Z AUTO 01003KT 10SM CLR 26/14 A2983 RMK AO2 SLP095 T02610144 51005=
202106280753 METAR KPAE 280753Z AUTO 01003KT 10SM CLR 27/14 A2983 RMK AO2 SLP093 T02720144 403500222=
202106280653 METAR KPAE 280653Z AUTO 36004KT 10SM CLR 27/15 A2982 RMK AO2 SLP092 T02720150=
202106280553 METAR KPAE 280553Z AUTO 36003KT 10SM CLR 28/14 A2982 RMK AO2 SLP091 T02780144 10350 20278 53003=
202106280453 METAR KPAE 280453Z AUTO 36004KT 10SM CLR 28/15 A2981 RMK AO2 SLP088 T02830150=
202106280353 METAR KPAE 280353Z 35004KT 10SM CLR 30/16 A2980 RMK AO2 SLP086 T03000161=
202106280253 METAR KPAE 280253Z 35006KT 10SM CLR 32/17 A2981 RMK AO2 SLP088 T03220172 56012=
202106280153 METAR KPAE 280153Z 34007KT 10SM CLR 34/19 A2981 RMK AO2 SLP090 T03390189=
202106280053 METAR KPAE 280053Z 35007KT 10SM CLR 34/18 A2982 RMK AO2 SLP092 T03440183=
202106272353 METAR KPAE 272353Z 35008KT 10SM CLR 34/18 A2984 RMK AO2 SLP098 T03440183 10350 20294 56018=
202106272253 METAR KPAE 272253Z 36006KT 10SM CLR 35/19 A2986 RMK AO2 SLP105 T03500189=
202106272153 METAR KPAE 272153Z 34007KT 10SM CLR 34/18 A2988 RMK AO2 SLP111 T03440183=
202106272053 METAR KPAE 272053Z 36007KT 10SM CLR 33/18 A2990 RMK AO2 SLP118 T03330178 58017=
202106271953 METAR KPAE 271953Z 34008KT 310V010 10SM CLR 32/18 A2992 RMK AO2 SLP125 T03220178=
202106271853 METAR KPAE 271853Z 34003KT 10SM CLR 31/18 A2994 RMK AO2 SLP133 T03110178=
202106271753 METAR KPAE 271753Z 35007KT 10SM CLR 29/17 A2995 RMK AO2 SLP135 T02940172 10294 20228 58004=
202106271653 METAR KPAE 271653Z VRB06KT 10SM CLR 27/17 A2996 RMK AO2 SLP141 T02670172=
202106271553 METAR KPAE 271553Z 36006KT 10SM CLR 25/17 A2997 RMK AO2 SLP142 T02500167=
202106271453 METAR KPAE 271453Z 01006KT 10SM CLR 25/16 A2996 RMK AO2 SLP140 T02500161 53001=
202106271353 METAR KPAE 271353Z 02004KT 10SM CLR 24/16 A2996 RMK AO2 SLP139 T02390156=
202106271253 METAR KPAE 271253Z AUTO 36005KT 10SM CLR 24/16 A2996 RMK AO2 SLP139 T02390161=
202106271153 METAR KPAE 271153Z AUTO 01003KT 10SM CLR 24/16 A2996 RMK AO2 SLP138 T02440156 10272 20222 52001=
202106271053 METAR KPAE 271053Z AUTO 02003KT 10SM CLR 23/15 A2996 RMK AO2 SLP139 T02280150=
202106270953 METAR KPAE 270953Z AUTO 01004KT 10SM CLR 23/14 A2996 RMK AO2 SLP139 T02330144=
202106270853 METAR KPAE 270853Z AUTO 34005KT 10SM CLR 22/16 A2996 RMK AO2 SLP138 T02220161 55001=
202106270753 METAR KPAE 270753Z AUTO 02006KT 10SM CLR 27/15 A2995 RMK AO2 SLP134 T02720150 403500206=
202106270653 METAR KPAE 270653Z AUTO 00000KT 10SM CLR 27/16 A2996 RMK AO2 SLP139 T02670156=
202106270553 METAR KPAE 270553Z AUTO 35006KT 10SM CLR 27/16 A2996 RMK AO2 SLP139 T02720156 10344 20272 53005=
202106270453 METAR KPAE 270453Z AUTO 35004KT 10SM CLR 28/16 A2995 RMK AO2 SLP135 T02830156=
202106270353 METAR KPAE 270353Z AUTO 33004KT 10SM CLR 29/17 A2994 RMK AO2 SLP133 T02890167=
202106270253 METAR KPAE 270253Z 35006KT 10SM CLR 31/17 A2994 RMK AO2 SLP134 T03110167 56009=
202106270153 METAR KPAE 270153Z 35007KT 330V030 10SM CLR 33/17 A2994 RMK AO2 SLP134 T03280172=
202106270053 METAR KPAE 270053Z 34007KT 10SM CLR 34/17 A2996 RMK AO2 SLP138 T03390167=
202106262353 METAR KPAE 262353Z 34009KT 10SM CLR 34/17 A2997 RMK AO2 SLP144 T03440167 10350 20294 58013=
202106262253 METAR KPAE 262253Z 33005KT 10SM CLR 35/17 A2999 RMK AO2 SLP149 T03500167=
202106262153 METAR KPAE 262153Z 34006KT 10SM CLR 34/17 A3000 RMK AO2 SLP153 T03390172=
202106262053 METAR KPAE 262053Z 01007KT 10SM CLR 32/18 A3001 RMK AO2 SLP157 T03220178 58008=
202106261953 METAR KPAE 261953Z 34006KT 10SM CLR 32/17 A3002 RMK AO2 SLP160 T03170167=
202106261853 METAR KPAE 261853Z VRB05KT 10SM CLR 31/17 A3003 RMK AO2 SLP163 T03060167=
202106261753 METAR KPAE 261753Z 35003KT 10SM CLR 29/17 A3004 RMK AO2 SLP165 T02940172 10294 20217 58003=
202106261653 METAR KPAE 261653Z 36004KT 10SM CLR 28/17 A3004 RMK AO2 SLP167 T02780172=
202106261553 METAR KPAE 261553Z 36004KT 10SM CLR 27/18 A3004 RMK AO2 SLP168 T02670178=
202106261453 METAR KPAE 261453Z 00000KT 10SM CLR 26/17 A3005 RMK AO2 SLP169 T02560172 51009=
202106261353 METAR KPAE 261353Z 09003KT 10SM CLR 24/17 A3004 RMK AO2 SLP167 T02390167=
202106261253 METAR KPAE 261253Z AUTO 09007KT 10SM CLR 22/17 A3003 RMK AO2 SLP165 T02170167=
202106261153 METAR KPAE 261153Z AUTO 11005KT 10SM CLR 22/17 A3002 RMK AO2 SLP160 T02170167 10244 20206 51009=
202106261053 METAR KPAE 261053Z AUTO 00000KT 10SM CLR 21/17 A3001 RMK AO2 SLP158 T02110167=
202106260953 METAR KPAE 260953Z AUTO 00000KT 10SM CLR 22/13 A3000 RMK AO2 SLP156 T02170133=
202106260853 METAR KPAE 260853Z AUTO 00000KT 10SM CLR 23/14 A2999 RMK AO2 SLP152 T02280139 58001=
202106260753 METAR KPAE 260753Z AUTO 00000KT 10SM CLR 22/13 A3000 RMK AO2 SLP154 T02220133 402890156=
202106260653 METAR KPAE 260653Z AUTO 01003KT 10SM CLR 24/13 A2999 RMK AO2 SLP152 T02390128=
202106260553 METAR KPAE 260553Z AUTO 00000KT 10SM CLR 24/13 A2999 RMK AO2 SLP153 T02440133 10289 20239 53005=
202106260453 METAR KPAE 260453Z 00000KT 10SM CLR 24/14 A2999 RMK AO2 SLP150 T02440139=
202106260353 METAR KPAE 260353Z 00000KT 10SM CLR 26/14 A2997 RMK AO2 SLP146 T02610139=
202106260253 METAR KPAE 260253Z 00000KT 10SM CLR 28/14 A2998 RMK AO2 SLP147 T02780139 56009=
202106260153 METAR KPAE 260153Z 35005KT 10SM CLR 28/14 A2998 RMK AO2 SLP149 T02830139=
202106260053 METAR KPAE 260053Z 35008KT 10SM CLR 29/14 A3000 RMK AO2 SLP153 T02890139=
202106252353 METAR KPAE 252353Z VRB05KT 10SM CLR 28/16 A3001 RMK AO2 SLP158 T02780156 10283 20217 58013=
202106252253 METAR KPAE 252253Z VRB05KT 10SM CLR 27/16 A3003 RMK AO2 SLP164 T02720156=
202106252153 METAR KPAE 252153Z VRB06KT 10SM CLR 27/17 A3003 RMK AO2 SLP167 T02720167=
202106252053 METAR KPAE 252053Z 33007KT 300V360 10SM CLR 26/17 A3005 RMK AO2 SLP171 T02610167 56010=
202106251953 METAR KPAE 251953Z 01006KT 10SM CLR 25/16 A3005 RMK AO2 SLP173 T02500156=
202106251853 METAR KPAE 251853Z 01007KT 10SM CLR 24/16 A3006 RMK AO2 SLP176 T02390156=
202106251753 METAR KPAE 251753Z 36010KT 10SM CLR 22/16 A3008 RMK AO2 SLP183 T02170156 10222 20156 50003=
202106251653 METAR KPAE 251653Z 36007KT 10SM CLR 21/15 A3008 RMK AO2 SLP183 T02110150=
202106251553 METAR KPAE 251553Z 36007KT 10SM CLR 19/15 A3007 RMK AO2 SLP181 T01940150=
202106251453 METAR KPAE 251453Z VRB05KT 10SM CLR 18/14 A3007 RMK AO2 SLP179 T01780144 51003=
202106251353 METAR KPAE 251353Z AUTO 01005KT 10SM CLR 17/13 A3007 RMK AO2 SLP178 T01720128=
202106251253 METAR KPAE 251253Z AUTO 33003KT 10SM CLR 17/13 A3006 RMK AO2 SLP177 T01670128=
202106251153 METAR KPAE 251153Z AUTO 00000KT 10SM CLR 16/13 A3006 RMK AO2 SLP177 T01610128 10172 20161 53001=
202106251053 METAR KPAE 251053Z AUTO 32003KT 10SM CLR 17/13 A3006 RMK AO2 SLP174 T01670128=
202106250953 METAR KPAE 250953Z AUTO 00000KT 10SM CLR 17/13 A3006 RMK AO2 SLP175 T01720128=
202106250853 METAR KPAE 250853Z AUTO 36003KT 10SM CLR 17/13 A3006 RMK AO2 SLP175 T01670128 50000=
202106250753 METAR KPAE 250753Z AUTO 00000KT 10SM CLR 16/12 A3006 RMK AO2 SLP178 T01610122 402440128=
202106250653 METAR KPAE 250653Z AUTO 33003KT 10SM CLR 17/12 A3006 RMK AO2 SLP177 T01670122=
202106250553 METAR KPAE 250553Z AUTO 36004KT 10SM CLR 17/12 A3006 RMK AO2 SLP176 T01720122 10239 20172 53002=
202106250453 METAR KPAE 250453Z AUTO 35007KT 10SM CLR 18/13 A3006 RMK AO2 SLP175 T01780128=
202106250353 METAR KPAE 250353Z 35006KT 10SM CLR 19/13 A3005 RMK AO2 SLP173 T01940133=
202106250253 METAR KPAE 250253Z VRB05KT 10SM CLR 22/14 A3005 RMK AO2 SLP174 T02220139 55001=
202106250153 METAR KPAE 250153Z 34005KT 10SM CLR 23/14 A3005 RMK AO2 SLP172 T02330139=
202106250053 METAR KPAE 250053Z 33006KT 10SM CLR 23/14 A3005 RMK AO2 SLP174 T02280139=
202106242353 METAR KPAE 242353Z 36005KT 10SM CLR 23/14 A3005 RMK AO2 SLP175 T02280139 10244 20200 58005=
202106242253 METAR KPAE 242253Z 30006KT 10SM CLR 24/14 A3006 RMK AO2 SLP178 T02440144=
202106242153 METAR KPAE 242153Z 25006KT 10SM CLR 23/15 A3007 RMK AO2 SLP179 T02330150=
202106242053 METAR KPAE 242053Z VRB06KT 10SM CLR 23/14 A3007 RMK AO2 SLP180 T02330144 58005=
202106241953 METAR KPAE 241953Z 28005KT 10SM CLR 22/13 A3007 RMK AO2 SLP182 T02220133=
202106241853 METAR KPAE 241853Z 28007KT 10SM CLR 21/13 A3009 RMK AO2 SLP186 T02110133=
202106241753 METAR KPAE 241753Z 28006KT 10SM CLR 20/13 A3009 RMK AO2 SLP187 T02000133 10200 20133 51003=
202106241653 METAR KPAE 241653Z 00000KT 10SM CLR 20/13 A3008 RMK AO2 SLP184 T02000133=
202106241553 METAR KPAE 241553Z 31003KT 10SM CLR 18/13 A3009 RMK AO2 SLP186 T01830133=
202106241453 METAR KPAE 241453Z 00000KT 10SM CLR 16/13 A3008 RMK AO2 SLP184 T01610128 53008=
202106241353 METAR KPAE 241353Z 00000KT 10SM FEW003 14/13 A3007 RMK AO2 SLP181 T01390128=
202106241318 SPECI KPAE 241318Z AUTO 36003KT 10SM SCT002 SCT050 13/13 A3006 RMK AO2 T01330128=
202106241253 METAR KPAE 241253Z AUTO 06004KT 10SM OVC002 13/12 A3006 RMK AO2 SLP177 T01330122=
202106241153 METAR KPAE 241153Z AUTO 36004KT 10SM BKN002 BKN060 13/12 A3005 RMK AO2 SLP176 T01280122 10150 20128 53007=
202106241145 SPECI KPAE 241145Z AUTO 34004KT 10SM SCT002 BKN060 13/12 A3005 RMK AO2 T01280122=
202106241053 METAR KPAE 241053Z AUTO VRB03KT 10SM CLR 13/12 A3005 RMK AO2 SLP173 T01330117=
202106240953 METAR KPAE 240953Z AUTO 00000KT 10SM CLR 15/12 A3004 RMK AO2 SLP169 T01500122=
202106240853 METAR KPAE 240853Z AUTO 02003KT 10SM BKN050 14/12 A3003 RMK AO2 SLP169 T01440122 53010=
202106240753 METAR KPAE 240753Z AUTO 00000KT 10SM CLR 15/12 A3002 RMK AO2 SLP164 T01500122 402170117=
202106240653 METAR KPAE 240653Z AUTO 01004KT 10SM CLR 14/12 A3001 RMK AO2 SLP160 T01440122=
202106240553 METAR KPAE 240553Z AUTO 36005KT 10SM CLR 14/12 A3000 RMK AO2 SLP159 T01440117 10217 20144 51010=
202106240453 METAR KPAE 240453Z AUTO 35006KT 10SM CLR 16/12 A3000 RMK AO2 SLP157 T01560122=
202106240353 METAR KPAE 240353Z AUTO 35005KT 10SM CLR 17/13 A2998 RMK AO2 SLP152 T01720128=
202106240253 METAR KPAE 240253Z 36005KT 10SM CLR 18/13 A2997 RMK AO2 SLP148 T01830128 53003=
202106240153 METAR KPAE 240153Z 35006KT 10SM CLR 19/13 A2997 RMK AO2 SLP147 T01940133=
202106240053 METAR KPAE 240053Z 36006KT 10SM CLR 21/14 A2996 RMK AO2 SLP145 T02060139=
202106232353 METAR KPAE 232353Z 29007KT 10SM CLR 21/14 A2996 RMK AO2 SLP145 T02110139 10217 20144 58005=
202106232253 METAR KPAE 232253Z 25008KT 10SM CLR 22/14 A2997 RMK AO2 SLP147 T02170139=
202106232153 METAR KPAE 232153Z 24007KT 10SM CLR 20/13 A2997 RMK AO2 SLP149 T02000133=
202106232053 METAR KPAE 232053Z 25009KT 10SM CLR 18/13 A2998 RMK AO2 SLP150 T01830128 51003=
202106231953 METAR KPAE 231953Z 25009KT 10SM CLR 17/12 A2998 RMK AO2 SLP150 T01720122=
202106231912 SPECI KPAE 231912Z 21009KT 10SM CLR 18/12 A2997 RMK AO2 T01830122=
202106231853 METAR KPAE 231853Z 20008KT 10SM OVC017 17/12 A2998 RMK AO2 SLP149 T01670122=
202106231810 SPECI KPAE 231810Z 24007KT 10SM FEW008 OVC013 15/12 A2997 RMK AO2 T01500117=
202106231753 METAR KPAE 231753Z 26008KT 10SM OVC009 14/12 A2997 RMK AO2 SLP147 T01440117 10144 20128 53010=
202106231653 METAR KPAE 231653Z 25008KT 10SM OVC009 14/12 A2996 RMK AO2 SLP144 T01390122=
202106231553 METAR KPAE 231553Z 25005KT 10SM OVC006 14/12 A2995 RMK AO2 SLP140 T01390122=
202106231453 METAR KPAE 231453Z 16007KT 10SM OVC006 14/12 A2994 RMK AO2 SLP137 T01390117 53013=
202106231353 METAR KPAE 231353Z 20008KT 10SM OVC006 13/12 A2992 RMK AO2 SLP129 T01330122=
202106231253 METAR KPAE 231253Z 17006KT 10SM OVC007 13/12 A2991 RMK AO2 SLP127 T01330122=
202106231235 SPECI KPAE 231235Z 20007KT 10SM OVC005 13/12 A2991 RMK AO2 CIG 005V009 T01330122=
202106231153 METAR KPAE 231153Z 19003KT 9SM OVC002 13/13 A2990 RMK AO2 SLP123 T01280128 10150 20117 51013=
202106231053 METAR KPAE 231053Z 00000KT 3SM BR OVC003 12/12 A2989 RMK AO2 SLP120 T01220122=
202106231030 SPECI KPAE 231030Z 01003KT 1SM R16R/P6000FT BR VV003 12/12 A2989 RMK AO2 T01220117=
202106231022 SPECI KPAE 231022Z 31003KT 1 3/4SM R16R/1600VP6000FT BR SCT002 12/12 A2989 RMK AO2 T01170117=
202106230953 METAR KPAE 230953Z 01003KT 9SM R16R/2600VP6000FT FEW001 13/12 A2988 RMK AO2 SLP116 T01280122=
202106230930 SPECI KPAE 230930Z 00000KT 10SM SCT001 13/12 A2988 RMK AO2 T01280122=
202106230908 SPECI KPAE 230908Z VRB04KT 9SM BKN001 13/12 A2987 RMK AO2 T01280122=
202106230853 METAR KPAE 230853Z 01005KT 10SM FEW002 13/12 A2986 RMK AO2 SLP111 T01280122 53007=
202106230837 SPECI KPAE 230837Z 01005KT 10SM FEW002 13/12 A2986 RMK AO2 T01330122=
202106230753 METAR KPAE 230753Z 34003KT 10SM CLR 13/13 A2986 RMK AO2 SLP108 T01330128 402440133=
202106230653 METAR KPAE 230653Z 02004KT 10SM CLR 15/13 A2985 RMK AO2 SLP106 T01500133=
202106230553 METAR KPAE 230553Z 02005KT 10SM CLR 16/12 A2984 RMK AO2 SLP104 T01560122 10239 20156 51006=
202106230453 METAR KPAE 230453Z 36005KT 10SM CLR 16/12 A2984 RMK AO2 SLP104 T01560122=
202106230353 METAR KPAE 230353Z 36007KT 10SM CLR 17/13 A2983 RMK AO2 SLP100 T01670128=
202106230253 METAR KPAE 230253Z 35007KT 10SM CLR 19/13 A2982 RMK AO2 SLP097 T01940128 55005=
202106230153 METAR KPAE 230153Z 34007KT 10SM CLR 22/13 A2982 RMK AO2 SLP096 T02170133=
202106230053 METAR KPAE 230053Z 35006KT 10SM CLR 23/14 A2983 RMK AO2 SLP098 T02330144=
202106222353 METAR KPAE 222353Z 28007KT 10SM CLR 23/16 A2984 RMK AO2 SLP101 T02330156 10244 20183 58012=
202106222253 METAR KPAE 222253Z VRB05KT 10SM CLR 23/15 A2986 RMK AO2 SLP107 T02330150=
202106222153 METAR KPAE 222153Z 26008KT 10SM CLR 23/15 A2987 RMK AO2 SLP110 T02280150=
202106222053 METAR KPAE 222053Z 25009KT 10SM CLR 22/14 A2987 RMK AO2 SLP113 T02170144 56007=
202106221953 METAR KPAE 221953Z 24010KT 10SM CLR 21/14 A2988 RMK AO2 SLP115 T02060139=
202106221853 METAR KPAE 221853Z 24009KT 10SM CLR 19/14 A2989 RMK AO2 SLP117 T01940144=
202106221753 METAR KPAE 221753Z 25010KT 10SM CLR 18/14 A2989 RMK AO2 SLP121 T01830144 10189 20167 50004=
202106221653 METAR KPAE 221653Z 25007KT 10SM CLR 18/14 A2990 RMK AO2 SLP120 T01830144=
202106221553 METAR KPAE 221553Z 24009KT 10SM CLR 17/14 A2990 RMK AO2 SLP121 T01720139=
202106221453 METAR KPAE 221453Z 29004KT 10SM CLR 17/14 A2988 RMK AO2 SLP115 T01720139 53009=
202106221353 METAR KPAE 221353Z 00000KT 10SM CLR 17/13 A2987 RMK AO2 SLP112 T01670133=
202106221253 METAR KPAE 221253Z AUTO 00000KT 10SM CLR 18/11 A2986 RMK AO2 SLP107 T01780111=
202106221153 METAR KPAE 221153Z AUTO 00000KT 10SM CLR 17/11 A2986 RMK AO2 SLP106 T01720106 10206 20167 51005=
202106221053 METAR KPAE 221053Z AUTO 00000KT 10SM CLR 19/11 A2985 RMK AO2 SLP104 T01890106=
202106220953 METAR KPAE 220953Z AUTO 19003KT 10SM CLR 17/11 A2985 RMK AO2 SLP103 T01720106=
202106220853 METAR KPAE 220853Z AUTO VRB04KT 10SM CLR 20/10 A2984 RMK AO2 SLP100 T02000100 58002=
202106220753 METAR KPAE 220753Z AUTO 02004KT 10SM CLR 21/09 A2984 RMK AO2 SLP102 T02060094 402830150=
202106220653 METAR KPAE 220653Z AUTO 35003KT 10SM CLR 20/09 A2985 RMK AO2 SLP103 T02000094=
202106220553 METAR KPAE 220553Z AUTO 36007KT 10SM CLR 21/09 A2985 RMK AO2 SLP103 T02060094 10278 20206 53006=
202106220453 METAR KPAE 220453Z AUTO 36004KT 10SM CLR 21/12 A2984 RMK AO2 SLP101 T02110122=
202106220353 METAR KPAE 220353Z 35004KT 10SM CLR 23/14 A2983 RMK AO2 SLP096 T02280139=
202106220253 METAR KPAE 220253Z VRB04KT 10SM CLR 26/14 A2983 RMK AO2 SLP097 T02610144 56008=
202106220153 METAR KPAE 220153Z 36005KT 10SM CLR 27/14 A2983 RMK AO2 SLP098 T02720144=
202106220053 METAR KPAE 220053Z 34006KT 10SM CLR 27/14 A2984 RMK AO2 SLP102 T02670144=
202106212353 METAR KPAE 212353Z 36006KT 10SM CLR 27/14 A2986 RMK AO2 SLP106 T02720144 10283 20228 58010=
202106212253 METAR KPAE 212253Z VRB06KT 10SM CLR 27/15 A2987 RMK AO2 SLP110 T02720150=
202106212153 METAR KPAE 212153Z 36005KT 10SM CLR 26/15 A2988 RMK AO2 SLP114 T02610150=
202106212053 METAR KPAE 212053Z 36008KT 10SM CLR 26/14 A2989 RMK AO2 SLP117 T02610139 58008=
202106211953 METAR KPAE 211953Z VRB05KT 10SM CLR 26/14 A2990 RMK AO2 SLP121 T02560144=
202106211853 METAR KPAE 211853Z 01005KT 10SM CLR 24/13 A2991 RMK AO2 SLP124 T02440133=
202106211753 METAR KPAE 211753Z 01006KT 10SM CLR 23/13 A2991 RMK AO2 SLP125 T02280128 10228 20161 58007=
202106211653 METAR KPAE 211653Z 36006KT 10SM CLR 21/13 A2992 RMK AO2 SLP128 T02110128=
202106211553 METAR KPAE 211553Z 35006KT 10SM CLR 19/12 A2993 RMK AO2 SLP131 T01940122=
202106211453 METAR KPAE 211453Z 36005KT 10SM CLR 19/11 A2993 RMK AO2 SLP133 T01940111 50002=
202106211353 METAR KPAE 211353Z 35004KT 10SM CLR 18/11 A2993 RMK AO2 SLP133 T01780106=
202106211253 METAR KPAE 211253Z AUTO 36004KT 10SM CLR 17/10 A2993 RMK AO2 SLP132 T01670100=
202106211153 METAR KPAE 211153Z AUTO 36003KT 10SM CLR 16/11 A2993 RMK AO2 SLP131 T01610106 10189 20150 55002=
202106211053 METAR KPAE 211053Z AUTO 35003KT 10SM CLR 16/10 A2992 RMK AO2 SLP129 T01610100=
202106210953 METAR KPAE 210953Z AUTO 35003KT 10SM CLR 16/10 A2993 RMK AO2 SLP132 T01610100=
202106210853 METAR KPAE 210853Z AUTO 36003KT 10SM CLR 17/11 A2993 RMK AO2 SLP133 T01670106 56006=
202106210753 METAR KPAE 210753Z AUTO 36005KT 10SM CLR 17/11 A2994 RMK AO2 SLP136 T01670106 402440122=
202106210653 METAR KPAE 210653Z AUTO 35005KT 10SM CLR 17/11 A2994 RMK AO2 SLP137 T01720106=
202106210553 METAR KPAE 210553Z AUTO 35003KT 10SM CLR 19/11 A2995 RMK AO2 SLP140 T01890111 10244 20189 53003=
202106210453 METAR KPAE 210453Z AUTO 36003KT 10SM CLR 20/11 A2995 RMK AO2 SLP139 T02000111=
202106210353 METAR KPAE 210353Z 33004KT 10SM CLR 21/12 A2994 RMK AO2 SLP137 T02110117=
202106210253 METAR KPAE 210253Z 33005KT 10SM CLR 23/12 A2994 RMK AO2 SLP137 T02280122 56011=
202106210153 METAR KPAE 210153Z 34008KT 10SM CLR 24/12 A2995 RMK AO2 SLP139 T02390122=
202106210053 METAR KPAE 210053Z 34006KT 10SM CLR 24/13 A2996 RMK AO2 SLP143 T02390128=
202106202353 METAR KPAE 202353Z 33009G15KT 300V010 10SM CLR 24/13 A2998 RMK AO2 SLP148 T02390128 10244 20189 58015=
202106202253 METAR KPAE 202253Z 34009KT 10SM CLR 24/13 A2999 RMK AO2 SLP154 T02390128=
202106202153 METAR KPAE 202153Z 34009KT 10SM CLR 23/13 A3001 RMK AO2 SLP159 T02280128=
202106202053 METAR KPAE 202053Z 36010G16KT 10SM CLR 23/12 A3002 RMK AO2 SLP163 T02280122 58008=
202106201953 METAR KPAE 201953Z 36008KT 10SM CLR 22/13 A3003 RMK AO2 SLP167 T02170128=
202106201853 METAR KPAE 201853Z 01007KT 10SM CLR 21/13 A3005 RMK AO2 SLP173 T02060133=
202106201753 METAR KPAE 201753Z 01008KT 10SM CLR 19/13 A3005 RMK AO2 SLP173 T01890133 10189 20122 58001=
202106201653 METAR KPAE 201653Z 34006KT 10SM CLR 17/13 A3005 RMK AO2 SLP176 T01720133=
202106201553 METAR KPAE 201553Z 36007KT 10SM FEW008 16/12 A3005 RMK AO2 SLP175 T01560122=
202106201453 METAR KPAE 201453Z 36008KT 10SM FEW004 14/12 A3005 RMK AO2 SLP174 T01440117 55001=
202106201405 SPECI KPAE 201405Z 36005KT 10SM FEW004 13/12 A3005 RMK AO2 T01330117=
202106201353 METAR KPAE 201353Z VRB04KT 10SM CLR 13/12 A3005 RMK AO2 SLP173 T01330117=
202106201322 SPECI KPAE 201322Z 35005KT 10SM SCT002 12/12 A3005 RMK AO2 T01220117=
202106201253 METAR KPAE 201253Z 35006KT 10SM OVC002 12/12 A3004 RMK AO2 SLP171 T01220117=
202106201201 SPECI KPAE 201201Z VRB04KT 10SM BKN002 12/12 A3005 RMK AO2 T01220117=
202106201153 METAR KPAE 201153Z 35005KT 10SM SCT003 12/12 A3005 RMK AO2 SLP175 T01220117 10150 20122 56001=
202106201053 METAR KPAE 201053Z VRB05KT 10SM CLR 13/12 A3005 RMK AO2 SLP175 T01280117=
202106200953 METAR KPAE 200953Z 01009G15KT 10SM FEW048 OVC060 13/12 A3005 RMK AO2 SLP176 T01330117=
202106200853 METAR KPAE 200853Z 35007KT 10SM BKN050 OVC070 13/12 A3006 RMK AO2 SLP177 T01330117 53004=
202106200753 METAR KPAE 200753Z 36007KT 10SM OVC050 14/12 A3005 RMK AO2 SLP175 T01390117 402170106=
202106200653 METAR KPAE 200653Z 35007KT 10SM OVC050 14/11 A3005 RMK AO2 SLP174 T01390111=
202106200553 METAR KPAE 200553Z 34005KT 10SM OVC055 15/12 A3004 RMK AO2 SLP173 T01500117 10217 20150 53001=
202106200453 METAR KPAE 200453Z 02005KT 10SM OVC055 16/12 A3004 RMK AO2 SLP172 T01560117=
202106200353 METAR KPAE 200353Z 36005KT 10SM CLR 17/11 A3004 RMK AO2 SLP170 T01720111=
202106200253 METAR KPAE 200253Z 36006KT 10SM CLR 17/11 A3004 RMK AO2 SLP171 T01720111 56011=
202106200153 METAR KPAE 200153Z VRB04KT 10SM SCT050 18/11 A3004 RMK AO2 SLP172 T01830111=
202106200053 METAR KPAE 200053Z 36006KT 10SM BKN055 20/11 A3006 RMK AO2 SLP177 T02000111=
202106192353 METAR KPAE 192353Z 03007KT 10SM OVC060 20/10 A3007 RMK AO2 SLP182 T02000100 10206 20161 58011=
202106192253 METAR KPAE 192253Z 02006KT 10SM OVC040 20/10 A3009 RMK AO2 SLP187 T02000100=
202106192153 METAR KPAE 192153Z 36005KT 10SM OVC039 20/10 A3010 RMK AO2 SLP190 T02000100=
202106192053 METAR KPAE 192053Z 00000KT 10SM OVC043 19/10 A3011 RMK AO2 SLP194 T01940100 58004=
202106191953 METAR KPAE 191953Z 29004KT 10SM OVC047 18/10 A3012 RMK AO2 SLP197 T01780100=
202106191853 METAR KPAE 191853Z 29005KT 10SM OVC050 17/11 A3012 RMK AO2 SLP197 T01720111=
202106191753 METAR KPAE 191753Z VRB03KT 10SM OVC060 17/11 A3012 RMK AO2 SLP198 T01670106 10167 20111 58005=
202106191653 METAR KPAE 191653Z 34005KT 10SM BKN095 16/11 A3012 RMK AO2 SLP200 T01610106=
202106191553 METAR KPAE 191553Z 02006KT 10SM CLR 14/10 A3013 RMK AO2 SLP204 T01390100=
202106191453 METAR KPAE 191453Z 04004KT 10SM CLR 13/09 A3013 RMK AO2 SLP204 T01330094 51007=
202106191353 METAR KPAE 191353Z 05004KT 10SM CLR 12/09 A3013 RMK AO2 SLP203 T01220094=
202106191319 SPECI KPAE 191319Z AUTO 06004KT 10SM SCT007 12/09 A3013 RMK AO2 T01170094=
202106191253 METAR KPAE 191253Z AUTO 07005KT 10SM OVC007 11/09 A3012 RMK AO2 SLP199 T01110089=
202106191153 METAR KPAE 191153Z AUTO 06005KT 10SM OVC008 11/09 A3011 RMK AO2 SLP197 T01110089 10128 20106 51003=
202106191053 METAR KPAE 191053Z AUTO 02006KT 10SM BKN008 11/09 A3011 RMK AO2 SLP197 T01110094=
202106191042 SPECI KPAE 191042Z AUTO 01005KT 10SM BKN008 11/09 A3011 RMK AO2 T01110094=
202106191000 SPECI KPAE 191000Z AUTO 01006KT 10SM FEW008 11/09 A3011 RMK AO2 T01060089=
202106190953 METAR KPAE 190953Z AUTO 01006KT 10SM CLR 11/09 A3011 RMK AO2 SLP196 T01110089=
202106190853 METAR KPAE 190853Z AUTO 02005KT 10SM CLR 11/09 A3011 RMK AO2 SLP194 T01110089 55001=
202106190753 METAR KPAE 190753Z AUTO 01005KT 10SM CLR 12/09 A3010 RMK AO2 SLP192 T01170089 401780117=
202106190653 METAR KPAE 190653Z AUTO 02006KT 10SM CLR 12/09 A3010 RMK AO2 SLP194 T01220089=
202106190553 METAR KPAE 190553Z AUTO 36009KT 10SM CLR 12/09 A3011 RMK AO2 SLP195 T01220089 10167 20122 53007=
202106190453 METAR KPAE 190453Z AUTO 36008KT 10SM FEW070 12/09 A3010 RMK AO2 SLP192 T01220089=
202106190353 METAR KPAE 190353Z 36007KT 10SM FEW070 13/09 A3009 RMK AO2 SLP188 T01280089=
202106190253 METAR KPAE 190253Z 02011G16KT 10SM BKN075 14/09 A3009 RMK AO2 SLP188 T01390094 55004=
202106190153 METAR KPAE 190153Z 01010G17KT 10SM CLR 15/11 A3009 RMK AO2 SLP188 T01500106=
202106190053 METAR KPAE 190053Z 36010G15KT 10SM CLR 16/11 A3009 RMK AO2 SLP190 T01610106=
202106182353 METAR KPAE 182353Z 35008G16KT 10SM CLR 16/11 A3010 RMK AO2 SLP193 T01610106 10178 20150 56009=
202106182253 METAR KPAE 182253Z 35011G18KT 10SM CLR 17/10 A3010 RMK AO2 SLP193 T01720100=
202106182153 METAR KPAE 182153Z 35010G17KT 10SM CLR 18/09 A3011 RMK AO2 SLP196 T01780094=
202106182053 METAR KPAE 182053Z 35012G17KT 10SM CLR 17/09 A3013 RMK AO2 SLP200 T01670094 58005=
202106181953 METAR KPAE 181953Z 36009KT 10SM CLR 17/10 A3013 RMK AO2 SLP203 T01670100=
202106181853 METAR KPAE 181853Z 35008KT 330V050 10SM CLR 16/10 A3013 RMK AO2 SLP203 T01610100=
202106181753 METAR KPAE 181753Z 36009KT 10SM CLR 16/10 A3014 RMK AO2 SLP206 T01560100 10156 20122 58003=
202106181653 METAR KPAE 181653Z 02008KT 10SM CLR 14/09 A3015 RMK AO2 SLP208 T01440094=
202106181553 METAR KPAE 181553Z 36006KT 10SM CLR 14/09 A3015 RMK AO2 SLP210 T01390094=
202106181453 METAR KPAE 181453Z 35008KT 10SM CLR 13/09 A3015 RMK AO2 SLP208 T01330094 53007=
202106181353 METAR KPAE 181353Z 01007KT 10SM CLR 13/09 A3014 RMK AO2 SLP205 T01280089=
202106181253 METAR KPAE 181253Z AUTO 01005KT 10SM CLR 12/08 A3013 RMK AO2 SLP201 T01220078=
202106181153 METAR KPAE 181153Z AUTO 36005KT 10SM CLR 12/08 A3013 RMK AO2 SLP200 T01220078 10139 20122 55000=
202106181053 METAR KPAE 181053Z AUTO 36009KT 10SM CLR 13/07 A3012 RMK AO2 SLP196 T01280072=
202106180953 METAR KPAE 180953Z AUTO 02007KT 10SM CLR 13/08 A3012 RMK AO2 SLP197 T01280083=
202106180853 METAR KPAE 180853Z AUTO 02007KT 10SM CLR 13/09 A3013 RMK AO2 SLP200 T01280089 58001=
202106180753 METAR KPAE 180753Z AUTO 01008KT 10SM CLR 13/09 A3013 RMK AO2 SLP203 T01330094 402280106=
202106180653 METAR KPAE 180653Z AUTO 01007KT 10SM CLR 13/09 A3013 RMK AO2 SLP203 T01330094=
202106180553 METAR KPAE 180553Z AUTO 01010KT 10SM CLR 14/09 A3013 RMK AO2 SLP202 T01390094 10222 20139 53003=
202106180453 METAR KPAE 180453Z AUTO 01008KT 10SM CLR 14/08 A3012 RMK AO2 SLP199 T01440083=
202106180353 METAR KPAE 180353Z AUTO 36009KT 10SM CLR 15/08 A3012 RMK AO2 SLP198 T01500078=
202106180253 METAR KPAE 180253Z 35007KT 10SM CLR 16/08 A3012 RMK AO2 SLP198 T01610083 58012=
202106180153 METAR KPAE 180153Z 35009KT 10SM CLR 19/08 A3013 RMK AO2 SLP203 T01890078=
202106180053 METAR KPAE 180053Z 01007KT 10SM CLR 22/08 A3015 RMK AO2 SLP208 T02170078=
202106172353 METAR KPAE 172353Z 36008KT 10SM CLR 22/08 A3015 RMK AO2 SLP210 T02170083 10228 20178 58011=
202106172253 METAR KPAE 172253Z VRB06KT 10SM CLR 22/09 A3017 RMK AO2 SLP215 T02220089=
202106172153 METAR KPAE 172153Z VRB05KT 10SM CLR 22/11 A3018 RMK AO2 SLP218 T02220106=
202106172053 METAR KPAE 172053Z VRB05KT 10SM CLR 21/11 A3019 RMK AO2 SLP221 T02110106 58010=
202106171953 METAR KPAE 171953Z 30005KT 10SM CLR 21/12 A3020 RMK AO2 SLP227 T02060117=
202106171853 METAR KPAE 171853Z VRB04KT 10SM CLR 19/09 A3021 RMK AO2 SLP228 T01940094=
202106171753 METAR KPAE 171753Z 32005KT 10SM CLR 18/11 A3022 RMK AO2 SLP231 T01780111 10178 20106 50003=
202106171653 METAR KPAE 171653Z 01005KT 10SM CLR 17/11 A3022 RMK AO2 SLP232 T01670106=
202106171553 METAR KPAE 171553Z 36005KT 10SM CLR 16/10 A3021 RMK AO2 SLP230 T01560100=
202106171453 METAR KPAE 171453Z 36004KT 10SM CLR 14/10 A3021 RMK AO2 SLP229 T01390100 51004=
202106171353 METAR KPAE 171353Z 35003KT 10SM CLR 13/10 A3021 RMK AO2 SLP229 T01280100=
202106171253 METAR KPAE 171253Z AUTO 00000KT 10SM CLR 12/09 A3020 RMK AO2 SLP226 T01170094=
202106171153 METAR KPAE 171153Z AUTO 36003KT 10SM CLR 12/09 A3020 RMK AO2 SLP225 T01170089 10133 20111 56003=
202106171053 METAR KPAE 171053Z AUTO 36003KT 10SM CLR 12/09 A3020 RMK AO2 SLP225 T01170094=
202106170953 METAR KPAE 170953Z AUTO 35003KT 10SM CLR 12/10 A3020 RMK AO2 SLP226 T01170100=
202106170853 METAR KPAE 170853Z AUTO 36003KT 10SM CLR 12/10 A3021 RMK AO2 SLP228 T01220100 56006=
202106170753 METAR KPAE 170753Z AUTO 36004KT 10SM CLR 13/09 A3021 RMK AO2 SLP230 T01280094 402060106=
202106170653 METAR KPAE 170653Z AUTO 35006KT 10SM CLR 13/09 A3022 RMK AO2 SLP232 T01280089=
202106170553 METAR KPAE 170553Z AUTO 35005KT 10SM CLR 14/09 A3022 RMK AO2 SLP234 T01390089 10206 20139 58003=
202106170453 METAR KPAE 170453Z AUTO 35004KT 10SM CLR 15/08 A3023 RMK AO2 SLP236 T01500078=
202106170353 METAR KPAE 170353Z 34004KT 10SM CLR 16/09 A3023 RMK AO2 SLP236 T01610089=
202106170253 METAR KPAE 170253Z 35006KT 10SM CLR 18/09 A3023 RMK AO2 SLP237 T01830089 56015=
202106170153 METAR KPAE 170153Z 35007KT 10SM CLR 19/09 A3024 RMK AO2 SLP240 T01940094=
202106170053 METAR KPAE 170053Z 35008KT 10SM CLR 20/09 A3026 RMK AO2 SLP246 T02000094=
202106162353 METAR KPAE 162353Z 33009KT 10SM CLR 19/09 A3028 RMK AO2 SLP252 T01940094 10200 20167 56014=
202106162253 METAR KPAE 162253Z 35007KT 300V010 10SM CLR 20/11 A3029 RMK AO2 SLP256 T02000106=
202106162153 METAR KPAE 162153Z 36009KT 10SM CLR 19/09 A3030 RMK AO2 SLP261 T01890094=
202106162053 METAR KPAE 162053Z VRB06KT 10SM CLR 18/09 A3032 RMK AO2 SLP267 T01830094 56013=
202106161953 METAR KPAE 161953Z 01005KT 10SM CLR 17/09 A3033 RMK AO2 SLP271 T01720094=
202106161853 METAR KPAE 161853Z 36005KT 10SM CLR 17/09 A3035 RMK AO2 SLP276 T01720094=
202106161753 METAR KPAE 161753Z VRB06KT 10SM CLR 17/11 A3036 RMK AO2 SLP280 T01720106 10172 20106 58006=
202106161653 METAR KPAE 161653Z 32004KT 10SM SCT020 15/11 A3038 RMK AO2 SLP287 T01500111=
202106161601 SPECI KPAE 161601Z 00000KT 10SM BKN013 14/11 A3038 RMK AO2 T01390106=
202106161553 METAR KPAE 161553Z 34003KT 10SM SCT013 14/11 A3038 RMK AO2 SLP289 T01390111=
202106161536 SPECI KPAE 161536Z 31003KT 10SM SCT015 14/11 A3038 RMK AO2 T01390106=
202106161519 SPECI KPAE 161519Z 33003KT 10SM BKN015 13/11 A3038 RMK AO2 T01330106=
202106161453 METAR KPAE 161453Z 34004KT 10SM BKN012 13/11 A3038 RMK AO2 SLP286 T01330106 50000=
202106161442 SPECI KPAE 161442Z 35004KT 10SM BKN012 13/11 A3038 RMK AO2 T01330106=
202106161353 METAR KPAE 161353Z 00000KT 10SM FEW050 13/10 A3038 RMK AO2 SLP288 T01280100=
202106161253 METAR KPAE 161253Z 00000KT 10SM SCT040 12/10 A3038 RMK AO2 SLP287 T01170100=
202106161205 SPECI KPAE 161205Z 20003KT 10SM SCT014 11/09 A3038 RMK AO2 T01110094=
202106161153 METAR KPAE 161153Z 22003KT 10SM BKN013 12/10 A3038 RMK AO2 SLP286 70032 T01170100 10133 20111 53006=
202106161123 SPECI KPAE 161123Z 00000KT 10SM BKN013 11/09 A3037 RMK AO2 T01110094=
202106161116 SPECI KPAE 161116Z 00000KT 10SM BKN015 11/09 A3037 RMK AO2 T01110094=
202106161053 METAR KPAE 161053Z 00000KT 10SM FEW016 12/09 A3037 RMK AO2 SLP282 T01170094=
202106161021 SPECI KPAE 161021Z 00000KT 10SM FEW014 12/09 A3037 RMK AO2 T01170094=
202106161014 SPECI KPAE 161014Z 20004KT 10SM BKN014 12/09 A3036 RMK AO2 T01170094=
202106160953 METAR KPAE 160953Z 20005KT 10SM SCT013 BKN070 12/09 A3036 RMK AO2 SLP280 T01170094=
202106160853 METAR KPAE 160853Z 16005KT 10SM FEW070 12/09 A3036 RMK AO2 SLP280 T01220094 51007=
202106160753 METAR KPAE 160753Z 18008KT 10SM BKN070 12/09 A3036 RMK AO2 SLP278 T01220094 402000117=
202106160653 METAR KPAE 160653Z 16007KT 10SM CLR 13/09 A3035 RMK AO2 SLP275 T01330094=
202106160553 METAR KPAE 160553Z 19009KT 10SM CLR 13/09 A3034 RMK AO2 SLP272 60032 T01330094 10178 20128 51021=
202106160453 METAR KPAE 160453Z 23005KT 10SM FEW036 13/10 A3032 RMK AO2 SLP267 T01330100=
202106160353 METAR KPAE 160353Z 20008KT 10SM BKN065 BKN085 15/10 A3029 RMK AO2 RAE0256 SLP257 P0000 T01500100=
202106160253 METAR KPAE 160253Z 20009KT 10SM -RA OVC065 16/12 A3028 RMK AO2 SLP251 P0015 60032 T01610122 51016=
202106160239 SPECI KPAE 160239Z 18006KT 10SM -RA OVC065 16/13 A3027 RMK AO2 P0015 T01560128=
202106160224 SPECI KPAE 160224Z 20005KT 10SM VCTS -RA SCT046 OVC065 16/13 A3027 RMK AO2 P0015 T01560128=
202106160156 SPECI KPAE 160156Z 23010G16KT 5SM R16R/5000VP6000FT +RA BR SCT027 BKN035 OVC070 14/12 A3026 RMK AO2 P0006 T01440122=
202106160153 METAR KPAE 160153Z 26009KT 1SM R16R/6000VP6000FT +RA BR SCT027 BKN046 OVC070 14/12 A3026 RMK AO2 VIS 1/2V5 RAB07 SLP248 P0017 T01440122=
202106160149 SPECI KPAE 160149Z 28005KT 1 1/2SM R16R/6000VP6000FT +RA FEW029 BKN070 OVC085 15/12 A3026 RMK AO2 RAB07 P0012=
202106160053 METAR KPAE 160053Z 21009KT 10SM OVC090 17/09 A3025 RMK AO2 SLP241 T01720094=
202106160000 SPECI KPAE 160000Z 21014G18KT 10SM FEW047 SCT055 BKN100 18/09 A3023 RMK AO2 T01780094=
202106152353 METAR KPAE 152353Z 21010KT 10SM VCTS FEW049 BKN090 BKN110 18/09 A3023 RMK AO2 SLP235 T01780094 10200 20172 53017=
202106152345 SPECI KPAE 152345Z 20011KT 10SM VCTS FEW049 BKN090 18/09 A3023 RMK AO2 T01830094=
202106152253 METAR KPAE 152253Z 21012KT 10SM FEW060 BKN100 19/09 A3021 RMK AO2 SLP229 T01940089=
202106152153 METAR KPAE 152153Z 22011G17KT 10SM FEW048 BKN080 19/08 A3019 RMK AO2 SLP222 T01890078=
202106152053 METAR KPAE 152053Z 22010KT 10SM BKN110 19/08 A3018 RMK AO2 SLP217 T01890083 51010=
202106151953 METAR KPAE 151953Z 24012KT 10SM BKN044 OVC060 18/08 A3017 RMK AO2 SLP214 T01830083=
202106151853 METAR KPAE 151853Z 18015KT 10SM FEW035 18/08 A3016 RMK AO2 SLP212 T01830083=
202106151753 METAR KPAE 151753Z 19011G19KT 10SM SCT028 17/09 A3015 RMK AO2 SLP207 T01720089 10178 20122 53012=
202106151701 SPECI KPAE 151701Z 18012KT 10SM SCT028 17/09 A3014 RMK AO2 T01670094=
202106151653 METAR KPAE 151653Z 18013KT 10SM BKN028 16/09 A3014 RMK AO2 SLP205 T01610094=
202106151553 METAR KPAE 151553Z 18010KT 10SM CLR 15/10 A3012 RMK AO2 SLP198 T01500100=
202106151453 METAR KPAE 151453Z 16011KT 10SM FEW070 14/11 A3011 RMK AO2 SLP195 T01440106 51009=
202106151353 METAR KPAE 151353Z 17008KT 10SM FEW046 13/11 A3011 RMK AO2 SLP193 T01280106=
202106151253 METAR KPAE 151253Z AUTO 17008KT 10SM BKN041 12/11 A3010 RMK AO2 SLP190 T01220106=
202106151153 METAR KPAE 151153Z AUTO 16006KT 10SM SCT050 OVC065 13/11 A3008 RMK AO2 RAB31E53 SLP186 P0001 60001 70015 T01280106 10161 20117 53007=
202106151053 METAR KPAE 151053Z AUTO 16005KT 10SM SCT050 12/10 A3007 RMK AO2 SLP183 T01220100=
202106150953 METAR KPAE 150953Z AUTO 18004KT 10SM SCT070 BKN080 13/11 A3006 RMK AO2 SLP179 T01330106=
202106150853 METAR KPAE 150853Z AUTO 17003KT 10SM BKN060 13/12 A3006 RMK AO2 SLP180 T01330117 50001=
202106150753 METAR KPAE 150753Z AUTO 00000KT 10SM FEW060 SCT085 12/12 A3006 RMK AO2 SLP180 T01220117 401830122=
202106150653 METAR KPAE 150653Z AUTO 00000KT 10SM OVC075 14/13 A3006 RMK AO2 SLP180 T01390128=
202106150553 METAR KPAE 150553Z AUTO 15004KT 10SM FEW070 16/13 A3006 RMK AO2 SLP178 T01610133 10183 20139 50003=
202106150453 METAR KPAE 150453Z AUTO 00000KT 10SM FEW043 15/13 A3007 RMK AO2 SLP181 T01500128=
202106150353 METAR KPAE 150353Z 20004KT 10SM SCT038 BKN110 16/13 A3005 RMK AO2 SLP176 T01610133=
202106150253 METAR KPAE 150253Z 17006KT 10SM FEW022 SCT100 18/12 A3005 RMK AO2 SLP175 T01780122 53000=
202106150153 METAR KPAE 150153Z 17008KT 10SM BKN110 18/13 A3005 RMK AO2 SLP175 T01830133=
202106150053 METAR KPAE 150053Z 15007KT 10SM FEW075 OVC100 18/13 A3005 RMK AO2 SLP174 T01780128=
202106142353 METAR KPAE 142353Z VRB06KT 10SM SCT075 OVC100 17/13 A3005 RMK AO2 RAB40E53 SLP174 P0000 60003 T01720133 10178 20139 50006=
202106142253 METAR KPAE 142253Z 16009KT 10SM FEW050 OVC100 18/13 A3005 RMK AO2 SLP175 T01780133=
202106142200 SPECI KPAE 142200Z 21005KT 10SM SCT006 BKN011 OVC044 17/15 A3005 RMK AO2 T01720150=
202106142153 METAR KPAE 142153Z 22005KT 10SM SCT006 BKN019 OVC044 17/15 A3005 RMK AO2 SLP174 T01670150=
202106142053 METAR KPAE 142053Z 00000KT 10SM SCT002 BKN006 OVC012 16/14 A3003 RMK AO2 RAE1954B33E44 SLP168 P0000 60003 T01560144 51006=
202106142041 SPECI KPAE 142041Z 22003KT 10SM -RA SCT002 BKN006 OVC012 16/14 A3004 RMK AO2 RAE1954B33 P0000 T01560144=
202106142029 SPECI KPAE 142029Z 23007KT 2SM BR SCT002 SCT006 OVC012 15/14 A3005 RMK AO2 RAE1954 P0000 T01500139=
202106141953 METAR KPAE 141953Z 00000KT 2SM R16R/3000VP6000FT -RA BR BKN002 BKN009 OVC018 15/14 A3003 RMK AO2 SLP167 P0001 T01500144=
202106141900 SPECI KPAE 141900Z 00000KT 2SM -RA BR BKN002 OVC009 14/14 A3003 RMK AO2 P0000 T01440139=
202106141853 METAR KPAE 141853Z 22003KT 1SM R16R/P6000FT -RA BR BKN002 OVC009 14/14 A3004 RMK AO2 RAB23 SLP170 P0002 T01440139=
202106141822 SPECI KPAE 141822Z 28004KT 1SM R16R/P6000FT BR BKN004 OVC009 14/14 A3003 RMK AO2 T01440139=
202106141800 SPECI KPAE 141800Z 00000KT 4SM BR OVC009 15/14 A3002 RMK AO2 T01500139=
202106141753 METAR KPAE 141753Z 00000KT 1SM R16R/P6000FT BR BKN003 OVC023 15/14 A3001 RMK AO2 SLP162 60011 T01500139 10156 20139 51008=
202106141653 METAR KPAE 141653Z 00000KT 1SM R16R/P6000FT BR OVC002 14/14 A3001 RMK AO2 RAE14 CIG 001V005 SLP162 P0001 T01440139=
202106141626 SPECI KPAE 141626Z 00000KT 1SM R16R/P6000FT BR BKN003 OVC007 14/14 A3000 RMK AO2 RAE14 P0001 T01440139=
202106141600 SPECI KPAE 141600Z 26005KT 1 1/2SM R16R/4000VP6000FT -RA BR BKN005 BKN011 OVC019 14/14 A3001 RMK AO2 P0001 T01440139=
202106141553 METAR KPAE 141553Z 26004KT 3SM R16R/4000VP6000FT -RA BR BKN005 OVC034 14/14 A3001 RMK AO2 RAB30 SLP160 P0003 T01440139=
202106141453 METAR KPAE 141453Z 27004KT 3SM BR BKN005 OVC024 14/14 A2999 RMK AO2 RAE43 SLP155 P0004 60007 T01440139 53010=
202106141359 SPECI KPAE 141359Z 22007KT 3SM -RA BR BKN005 OVC019 14/13 A2999 RMK AO2 P0001 T01390133=
202106141350 METAR KPAE 141350Z 22008KT 2 1/2SM -RA BR BKN005 OVC021 14/13 A2999 RMK AO2 VIS 1 3/4V4 RAB1259E08B16 SLP152 P0002 T01390133=
202106141349 SPECI KPAE 141349Z 22008KT 2 1/2SM -RA BR BKN005 OVC021 14/14 A2998 RMK AO2 VIS 1 3/4V4 RAB1259E08B16 P0002=
202106141324 SPECI KPAE 141324Z AUTO 18005KT 5SM -RA BR FEW002 SCT015 OVC022 14/14 A2997 RMK AO2 RAB1259E08B16 P0000 T01440139=
202106141308 SPECI KPAE 141308Z AUTO 21004KT 8SM BKN001 BKN015 OVC024 14/14 A2997 RMK AO2 RAB1259E08 P0000 T01390139=
202106141304 SPECI KPAE 141304Z AUTO 21006KT 2SM R16R/4500VP6000FT -RA BR SCT001 BKN015 OVC022 14/14 A2997 RMK AO2 RAB1259 P0000 T01390139=
202106141300 SPECI KPAE 141300Z AUTO 22005KT 1/2SM R16R/1400VP6000FT -RA FG BKN001 OVC014 14/14 A2997 RMK AO2 RAB1259 P0000 T01390139=
202106141253 METAR KPAE 141253Z AUTO 24005KT 1/2SM R16R/1000V2000FT FG BKN001 OVC014 14/14 A2996 RMK AO2 RAB1156E26 SLP146 P0001 T01390139=
202106141245 SPECI KPAE 141245Z AUTO 24004KT 1/2SM R16R/1400V1600FT FG SCT001 BKN008 OVC014 14/14 A2996 RMK AO2 RAB1156E26 P0001 T01440139=
202106141240 SPECI KPAE 141240Z AUTO 24004KT 1/4SM R16R/1200V2400FT FG SCT003 BKN009 OVC014 14/14 A2996 RMK AO2 RAB1156E26 P0001 T01440139=
202106141233 SPECI KPAE 141233Z AUTO 24004KT 1 3/4SM R16R/1400V3500FT BR FEW003 BKN009 OVC014 14/14 A2996 RMK AO2 RAB1156E26 P0001 T01440144=
202106141216 SPECI KPAE 141216Z AUTO 23003KT 5SM R16R/6000VP6000FT -RA BR FEW004 OVC009 15/14 A2996 RMK AO2 RAB1156 CIG 005V012 P0000 T01500144=
202106141153 METAR KPAE 141153Z AUTO 16004KT 9SM SCT004 BKN010 OVC031 15/14 A2996 RMK AO2 CIG 007V012 SLP144 60002 70040 T01500144 10161 20150 51006=
202106141150 SPECI KPAE 141150Z AUTO 17005KT 9SM SCT004 BKN008 OVC031 15/14 A2996 RMK AO2 CIG 006V011=
202106141142 SPECI KPAE 141142Z AUTO 15004KT 10SM SCT004 BKN026 OVC031 15/14 A2996 RMK AO2 T01500144=
202106141132 SPECI KPAE 141132Z AUTO 11003KT 10SM FEW006 SCT026 OVC033 15/14 A2995 RMK AO2 T01500144=
202106141127 SPECI KPAE 141127Z AUTO 00000KT 10SM BKN027 OVC033 15/14 A2995 RMK AO2 T01500144=
202106141113 SPECI KPAE 141113Z AUTO 16004KT 10SM OVC032 15/14 A2995 RMK AO2 T01500144=
202106141106 SPECI KPAE 141106Z AUTO 17005KT 10SM BKN029 OVC035 15/14 A2995 RMK AO2 T01500144=
202106141053 METAR KPAE 141053Z AUTO 17004KT 10SM SCT029 BKN034 OVC065 15/14 A2995 RMK AO2 SLP140 T01500144=
202106141020 SPECI KPAE 141020Z AUTO 19004KT 10SM FEW027 BKN080 15/14 A2994 RMK AO2 T01500144=
202106140953 METAR KPAE 140953Z AUTO 19004KT 10SM FEW008 OVC027 15/14 A2994 RMK AO2 SLP137 T01500144=
202106140946 SPECI KPAE 140946Z AUTO 21004KT 10SM FEW008 OVC027 15/14 A2994 RMK AO2 T01500144=
202106140916 SPECI KPAE 140916Z AUTO 16003KT 10SM BKN007 BKN120 15/14 A2994 RMK AO2 CIG 005V011 T01500144=
202106140904 SPECI KPAE 140904Z AUTO 17005KT 10SM SCT007 BKN120 16/14 A2994 RMK AO2 T01560144=
202106140853 METAR KPAE 140853Z AUTO 17007KT 10SM BKN007 OVC120 15/14 A2994 RMK AO2 RAE03 CIG 004V011 SLP136 P0000 60002 T01500144 53004=
202106140838 SPECI KPAE 140838Z AUTO 17004KT 10SM FEW005 BKN009 OVC120 15/14 A2994 RMK AO2 RAE03 CIG 007V011 P0000 T01500144=
202106140821 SPECI KPAE 140821Z AUTO 18005KT 10SM FEW004 SCT027 BKN110 15/14 A2995 RMK AO2 RAE03 P0000 T01500144=
202106140753 METAR KPAE 140753Z AUTO 10005KT 10SM -RA SCT048 SCT070 OVC090 16/14 A2991 RMK AO2 RAB06 SLP128 P0002 T01560144 402000144=
202106140716 SPECI KPAE 140716Z AUTO 19005KT 8SM -RA SCT005 BKN070 OVC110 16/15 A2995 RMK AO2 RAB06 P0001 T01560150=
202106140653 METAR KPAE 140653Z AUTO 18003KT 10SM BKN110 16/15 A2994 RMK AO2 SLP138 T01560150=
202106140553 METAR KPAE 140553Z AUTO 00000KT 10SM SCT120 16/15 A2993 RMK AO2 SLP132 60013 T01560150 10172 20156 56003=
202106140502 SPECI KPAE 140502Z AUTO 20006KT 10SM FEW004 OVC110 16/16 A2994 RMK AO2 T01610156=
202106140453 METAR KPAE 140453Z AUTO 18004KT 10SM OVC110 16/15 A2994 RMK AO2 SLP136 T01610150=
202106140353 METAR KPAE 140353Z AUTO 14003KT 10SM BKN110 16/15 A2992 RMK AO2 RAE31 SLP129 P0000 T01610150=
202106140253 METAR KPAE 140253Z 16006KT 5SM -RA BR FEW005 OVC090 17/16 A2993 RMK AO2 SLP135 P0002 60013 T01670156 50003=
202106140153 METAR KPAE 140153Z VRB05KT 5SM -RA BR FEW005 SCT070 OVC090 17/15 A2994 RMK AO2 SLP136 P0006 T01670150=
202106140055 SPECI KPAE 140055Z 10003KT 5SM -RA BR FEW002 OVC090 17/16 A2993 RMK AO2 P0000 T01720156=
202106140053 METAR KPAE 140053Z 11003KT 2 1/2SM -RA BR FEW002 OVC009 17/16 A2993 RMK AO2 SLP132 P0005 T01720156=
202106140019 SPECI KPAE 140019Z VRB03KT 2 1/2SM -RA BR FEW002 OVC085 17/16 A2993 RMK AO2 P0002 T01720161=
202106140003 SPECI KPAE 140003Z VRB03KT 3SM -RA BR OVC085 17/16 A2992 RMK AO2 P0001 T01720161=
202106132353 METAR KPAE 132353Z 11004KT 2 1/2SM -RA BR FEW070 OVC085 17/16 A2992 RMK AO2 SLP132 P0013 60020 T01720161 10200 20156 51012=
202106132316 SPECI KPAE 132316Z 00000KT 2 1/2SM RA BR FEW055 BKN075 OVC090 17/16 A2992 RMK AO2 P0005 T01670156=
202106132256 SPECI KPAE 132256Z 00000KT 3SM -RA BR FEW060 BKN075 OVC090 17/15 A2991 RMK AO2 P0001 T01670150=
202106132253 METAR KPAE 132253Z 00000KT 2 1/2SM RA BR FEW055 BKN075 OVC090 17/16 A2991 RMK AO2 SLP128 P0006 T01670156=
202106132153 METAR KPAE 132153Z 26004KT 10SM -RA OVC090 17/15 A2990 RMK AO2 RAB2059 SLP125 P0001 T01670150=
202106132053 METAR KPAE 132053Z 23005KT 10SM BKN090 BKN110 18/14 A2989 RMK AO2 SLP119 T01830144 56008=
202106131953 METAR KPAE 131953Z VRB03KT 10SM FEW013 18/15 A2989 RMK AO2 SLP120 T01830150=
202106131921 SPECI KPAE 131921Z 00000KT 10SM FEW013 19/16 A2989 RMK AO2 T01890156=
202106131853 METAR KPAE 131853Z 00000KT 10SM BKN005 OVC013 17/14 A2990 RMK AO2 SLP122 T01720144=
202106131753 METAR KPAE 131753Z 19003KT 10SM BKN006 16/14 A2991 RMK AO2 RAE33 SLP128 P0001 60005 T01560139 10156 20144 51008=
202106131730 SPECI KPAE 131730Z 21005KT 10SM -RA BKN006 15/14 A2992 RMK AO2 P0001 T01500139=
202106131653 METAR KPAE 131653Z VRB04KT 10SM -RA SCT014 OVC033 14/13 A2990 RMK AO2 SLP124 P0001 T01440133=
202106131600 SPECI KPAE 131600Z 17008KT 10SM -RA SCT014 OVC033 15/13 A2992 RMK AO2 P0000 T01500133=
202106131553 METAR KPAE 131553Z 16007KT 10SM -RA SCT014 BKN026 14/13 A2991 RMK AO2 SLP128 P0001 T01440133=
202106131512 SPECI KPAE 131512Z 17008KT 10SM -RA SCT014 BKN026 14/13 A2990 RMK AO2 P0001 T01440133=
202106131453 METAR KPAE 131453Z 15006KT 7SM -RA FEW044 OVC060 15/13 A2989 RMK AO2 RAE04B26 SLP119 P0002 60002 T01500133 51017=
202106131353 METAR KPAE 131353Z 19009KT 10SM -RA SCT036 BKN075 OVC100 15/13 A2988 RMK AO2 RAB1254 SLP115 P0000 T01500128=
202106131318 SPECI KPAE 131318Z 20008KT 10SM -RA SCT015 SCT020 OVC034 15/14 A2987 RMK AO2 RAB1254 P0000 T01500139=
202106131309 SPECI KPAE 131309Z 20011KT 10SM -RA BKN013 BKN021 OVC034 15/14 A2987 RMK AO2 RAB1254 P0000 T01500139=
202106131253 METAR KPAE 131253Z 21010KT 10SM FEW011 BKN034 OVC047 16/14 A2987 RMK AO2 RAE1158 SLP113 P0000 T01560139=
202106131153 METAR KPAE 131153Z 13005KT 10SM -RA OVC110 16/14 A2984 RMK AO2 SLP102 P0001 60018 70019 T01560139 10161 20144 58007=
202106131053 METAR KPAE 131053Z VRB06KT 10SM -RA OVC100 15/14 A2984 RMK AO2 SLP103 P0001 T01500139=
202106130953 METAR KPAE 130953Z 12009KT 10SM -RA FEW047 OVC095 14/14 A2985 RMK AO2 SLP107 P0006 T01440139=
202106130853 METAR KPAE 130853Z 14006KT 9SM -RA OVC085 15/13 A2986 RMK AO2 SLP109 P0004 60010 T01500133 50006=
202106130753 METAR KPAE 130753Z 16006KT 10SM -RA OVC080 15/13 A2986 RMK AO2 SLP111 P0004 T01500133 402220111=
202106130653 METAR KPAE 130653Z 18003KT 10SM -RA OVC085 16/13 A2986 RMK AO2 SLP109 P0002 T01560128=
202106130553 METAR KPAE 130553Z 08003KT 10SM -RA OVC085 16/12 A2984 RMK AO2 SLP103 P0001 60001 T01560122 10217 20156 53004=
202106130453 METAR KPAE 130453Z 26007KT 10SM -RA OVC090 17/11 A2984 RMK AO2 RAB20 SLP105 P0000 T01670111=
202106130353 METAR KPAE 130353Z 28005KT 10SM FEW075 OVC095 18/09 A2982 RMK AO2 SLP096 T01830089=
202106130253 METAR KPAE 130253Z 02005KT 10SM SCT120 19/09 A2983 RMK AO2 SLP100 T01940089 58030=
202106130153 METAR KPAE 130153Z 34003KT 10SM FEW120 20/09 A2986 RMK AO2 SLP112 T02000089=
202106130053 METAR KPAE 130053Z VRB03KT 10SM CLR 21/09 A2990 RMK AO2 SLP122 T02060089=
202106122353 METAR KPAE 122353Z 28006KT 10SM CLR 22/09 A2992 RMK AO2 SLP130 T02170089 10222 20167 58020=
202106122253 METAR KPAE 122253Z 24011KT 10SM CLR 22/08 A2994 RMK AO2 SLP137 T02220083=
202106122153 METAR KPAE 122153Z 27008KT 10SM CLR 21/09 A2996 RMK AO2 SLP145 T02060094=
202106122138 SPECI KPAE 122138Z 25006KT 10SM CLR 21/09 A2996 RMK AO2 T02110094=
202106122053 METAR KPAE 122053Z 25006KT 10SM CLR 19/10 A2998 RMK AO2 SLP151 T01890100 56018=
202106121953 METAR KPAE 121953Z 29007KT 10SM SCT040 19/11 A3000 RMK AO2 SLP156 T01890106=
202106121853 METAR KPAE 121853Z 00000KT 10SM SCT029 18/11 A3001 RMK AO2 SLP161 T01780111=
202106121753 METAR KPAE 121753Z 00000KT 10SM SCT029 18/10 A3003 RMK AO2 SLP169 T01780100 10178 20111 50000=
202106121653 METAR KPAE 121653Z 14004KT 10SM FEW002 16/10 A3004 RMK AO2 SLP172 T01610100=
202106121553 METAR KPAE 121553Z VRB05KT 10SM FEW002 15/11 A3004 RMK AO2 SLP173 T01500106=
202106121456 SPECI KPAE 121456Z 15008KT 10SM FEW002 13/11 A3003 RMK AO2 T01330106=
202106121453 METAR KPAE 121453Z 15008KT 10SM BCFG CLR 13/11 A3003 RMK AO2 SLP170 T01330106 53012=
202106121353 METAR KPAE 121353Z VRB06KT 10SM BCFG FEW001 12/11 A3002 RMK AO2 SLP165 T01220111=
202106121253 METAR KPAE 121253Z AUTO 17006KT 10SM FEW001 11/11 A3001 RMK AO2 SLP163 T01110106=
202106121245 SPECI KPAE 121245Z AUTO 16008KT 10SM SCT001 11/11 A3001 RMK AO2 T01110106=
202106121215 SPECI KPAE 121215Z AUTO 16007KT 5SM R16R/3000VP6000FT BR BKN001 11/11 A3000 RMK AO2 T01110111=
202106121153 METAR KPAE 121153Z AUTO 15005KT 10SM FEW005 12/11 A3000 RMK AO2 SLP158 60016 70025 T01170111 10133 20111 53012=
202106121053 METAR KPAE 121053Z AUTO 16009KT 10SM FEW003 BKN050 12/11 A2998 RMK AO2 SLP153 T01220111=
202106121022 SPECI KPAE 121022Z AUTO 15005KT 10SM FEW003 OVC047 12/11 A2998 RMK AO2 T01220111=
202106120953 METAR KPAE 120953Z AUTO VRB05KT 10SM OVC039 12/11 A2997 RMK AO2 SLP149 T01220111=
202106120853 METAR KPAE 120853Z AUTO 12005KT 10SM FEW028 BKN033 OVC044 12/11 A2996 RMK AO2 SLP146 60016 T01220111 51005=
202106120820 SPECI KPAE 120820Z AUTO 11005KT 10SM FEW029 BKN045 OVC060 12/11 A2996 RMK AO2 T01220111=
202106120753 METAR KPAE 120753Z AUTO 00000KT 10SM BKN029 BKN048 12/11 A2996 RMK AO2 RAE02 SLP145 P0001 T01220106 401560117=
202106120653 METAR KPAE 120653Z AUTO 19004KT 10SM -RA FEW005 SCT050 OVC075 12/12 A2996 RMK AO2 SLP144 P0015 T01220117=
202106120632 SPECI KPAE 120632Z AUTO 23005KT 3SM RA BR FEW002 SCT033 OVC047 12/12 A2996 RMK AO2 P0011 T01220117=
202106120553 METAR KPAE 120553Z AUTO 00000KT 9SM -RA SCT039 BKN055 OVC090 13/11 A2995 RMK AO2 RAB50 SLP141 P0001 60003 T01330111 10139 20128 53001=
202106120453 METAR KPAE 120453Z AUTO 00000KT 10SM FEW050 SCT080 13/10 A2994 RMK AO2 RAB0357E09 SLP139 P0000 T01330100=
202106120353 METAR KPAE 120353Z VRB03KT 10SM OVC080 13/11 A2994 RMK AO2 RAB04E20 SLP138 P0001 T01330106=
202106120253 METAR KPAE 120253Z 12003KT 10SM FEW039 SCT055 OVC070 14/11 A2995 RMK AO2 RAB26E52 SLP140 P0001 60001 T01390106 53003=
202106120153 METAR KPAE 120153Z VRB06KT 10SM BKN040 OVC060 13/11 A2994 RMK AO2 RAE16 SLP139 P0000 T01330111=
202106120053 METAR KPAE 120053Z 14006KT 10SM -RA FEW036 OVC044 13/11 A2994 RMK AO2 RAB2359E12B52 SLP138 P0000 T01280106=
202106112353 METAR KPAE 112353Z VRB04KT 10SM SCT006 BKN055 OVC085 13/11 A2994 RMK AO2 RAE2255 SLP137 P0000 60006 T01330106 10156 20122 51004=
202106112257 SPECI KPAE 112257Z 16007KT 10SM SCT006 BKN055 OVC085 13/11 A2994 RMK AO2 RAE55 P0000 T01280106=
202106112253 METAR KPAE 112253Z 15005KT 10SM -RA FEW055 BKN075 OVC085 13/10 A2994 RMK AO2 RAB2154 SLP137 P0002 T01280100=
202106112153 METAR KPAE 112153Z 15006KT 10SM BKN055 OVC070 13/10 A2993 RMK AO2 RAE27 SLP135 P0000 T01330100=
202106112053 METAR KPAE 112053Z VRB04KT 10SM -RA OVC055 13/10 A2993 RMK AO2 SLP133 P0002 60004 T01280100 58002=
202106111953 METAR KPAE 111953Z 18007KT 10SM -RA BKN055 OVC070 12/09 A2993 RMK AO2 SLP134 P0002 T01220094=
202106111853 METAR KPAE 111853Z 16009KT 9SM -RA OVC055 13/08 A2994 RMK AO2 SLP139 P0000 T01280078=
202106111753 METAR KPAE 111753Z 15010G16KT 10SM -RA FEW040 BKN060 OVC070 16/06 A2993 RMK AO2 RAB42 SLP135 P0000 60000 T01560061 10156 20117 56002=
202106111653 METAR KPAE 111653Z 24006KT 10SM OVC070 14/07 A2993 RMK AO2 SLP135 T01440067=
202106111553 METAR KPAE 111553Z 20012KT 10SM SCT080 15/06 A2994 RMK AO2 SLP136 T01500061=
202106111453 METAR KPAE 111453Z 16010KT 10SM BKN110 14/04 A2994 RMK AO2 SLP137 T01390044 55003=
202106111353 METAR KPAE 111353Z 14004KT 10SM OVC090 13/04 A2993 RMK AO2 SLP135 T01280039=
202106111253 METAR KPAE 111253Z 12008KT 10SM OVC110 12/05 A2994 RMK AO2 SLP137 T01220050=
202106111153 METAR KPAE 111153Z 11006KT 10SM BKN100 OVC110 12/05 A2995 RMK AO2 SLP140 T01220050 10150 20122 56023=
202106111053 METAR KPAE 111053Z 11007KT 10SM OVC110 12/05 A2997 RMK AO2 SLP147 T01220050=
202106110953 METAR KPAE 110953Z 10009KT 10SM BKN120 12/06 A2999 RMK AO2 SLP156 T01220056=
202106110853 METAR KPAE 110853Z 09005KT 10SM CLR 13/06 A3002 RMK AO2 SLP163 T01280056 58026=
202106110753 METAR KPAE 110753Z 11005KT 10SM CLR 13/06 A3005 RMK AO2 SLP175 T01330056 401830089=
202106110653 METAR KPAE 110653Z 11003KT 10SM CLR 14/04 A3007 RMK AO2 SLP182 T01440044=
202106110553 METAR KPAE 110553Z 16007KT 10SM CLR 14/04 A3009 RMK AO2 SLP191 T01440044 10183 20144 58005=
202106110453 METAR KPAE 110453Z 16007KT 10SM CLR 15/04 A3010 RMK AO2 SLP193 T01500044=
202106110353 METAR KPAE 110353Z 20006KT 10SM CLR 16/04 A3011 RMK AO2 SLP196 T01560044=
202106110253 METAR KPAE 110253Z 20005KT 10SM CLR 16/04 A3011 RMK AO2 SLP196 T01610039 56007=
202106110153 METAR KPAE 110153Z 22007KT 10SM SCT030 17/04 A3012 RMK AO2 SLP199 T01670044=
202106110053 METAR KPAE 110053Z 19009KT 10SM FEW060 18/04 A3012 RMK AO2 SLP200 T01780039=
202106102353 METAR KPAE 102353Z 18009G19KT 10SM SCT030 BKN055 18/04 A3013 RMK AO2 SLP203 60000 T01780044 10183 20133 58008=
202106102253 METAR KPAE 102253Z VRB03KT 10SM SCT030 BKN051 17/06 A3014 RMK AO2 SLP208 T01720056=
202106102153 METAR KPAE 102153Z VRB04KT 10SM BKN049 OVC060 16/04 A3015 RMK AO2 SLP209 T01610044=
202106102053 METAR KPAE 102053Z 19007KT 10SM FEW049 BKN065 17/04 A3016 RMK AO2 RAB10E31 SLP211 P0000 60000 T01670039 58001=
202106101953 METAR KPAE 101953Z 20007KT 10SM BKN065 15/06 A3016 RMK AO2 SLP213 T01500061=
202106101853 METAR KPAE 101853Z 25005KT 10SM FEW027 BKN034 OVC060 14/07 A3016 RMK AO2 SLP215 T01390072=
202106101753 METAR KPAE 101753Z 19011KT 10SM SCT024 OVC032 13/07 A3016 RMK AO2 SLP214 T01330067 10139 20094 50001=
202106101653 METAR KPAE 101653Z 19005KT 10SM BKN019 BKN037 12/07 A3016 RMK AO2 SLP215 T01220067=
202106101642 SPECI KPAE 101642Z VRB05KT 10SM BKN019 BKN037 13/07 A3016 RMK AO2 T01280072=
202106101635 SPECI KPAE 101635Z VRB04KT 10SM SCT019 SCT024 BKN037 13/07 A3016 RMK AO2 T01330072=
202106101553 METAR KPAE 101553Z 16005KT 10SM BKN019 BKN025 OVC032 13/08 A3016 RMK AO2 SLP213 T01280078=
202106101453 METAR KPAE 101453Z 11003KT 10SM SCT028 BKN065 11/07 A3016 RMK AO2 SLP212 T01110072 51005=
202106101353 METAR KPAE 101353Z 10004KT 10SM FEW015 OVC060 11/07 A3015 RMK AO2 SLP210 T01060067=
202106101253 METAR KPAE 101253Z AUTO VRB03KT 10SM OVC055 10/07 A3015 RMK AO2 SLP209 T01000067=
202106101153 METAR KPAE 101153Z AUTO 32003KT 10SM OVC046 10/07 A3014 RMK AO2 SLP207 60000 T01000067 10106 20089 51012=
202106101053 METAR KPAE 101053Z AUTO 33003KT 10SM FEW050 OVC070 09/07 A3013 RMK AO2 RAB0954E29 SLP203 P0000 T00940072=
202106100953 METAR KPAE 100953Z AUTO 34003KT 10SM OVC046 10/07 A3013 RMK AO2 RAB25E46 SLP201 P0000 T01000072=
202106100853 METAR KPAE 100853Z AUTO 35003KT 10SM BKN047 OVC060 11/07 A3011 RMK AO2 SLP195 T01060072 53001=
202106100753 METAR KPAE 100753Z AUTO 34004KT 10SM BKN055 OVC070 10/07 A3010 RMK AO2 SLP194 T01000072 401780083=
202106100653 METAR KPAE 100653Z AUTO 01004KT 10SM FEW050 10/07 A3011 RMK AO2 SLP194 T01000072=
202106100553 METAR KPAE 100553Z AUTO 34006KT 10SM CLR 11/08 A3010 RMK AO2 SLP195 T01060078 10178 20106 58002=
202106100453 METAR KPAE 100453Z AUTO 34007KT 10SM SCT075 11/07 A3012 RMK AO2 SLP201 T01110072=
202106100353 METAR KPAE 100353Z 35010KT 10SM CLR 12/07 A3012 RMK AO2 SLP199 T01170072=
202106100253 METAR KPAE 100253Z 35006KT 10SM CLR 13/07 A3011 RMK AO2 SLP196 T01330067 53003=
202106100153 METAR KPAE 100153Z 34009KT 10SM CLR 15/06 A3010 RMK AO2 SLP194 T01500061=
202106100053 METAR KPAE 100053Z 35010KT 10SM CLR 16/07 A3010 RMK AO2 SLP193 T01610067=
202106092355 SPECI KPAE 092355Z 29009KT 10SM CLR 17/04 A3010 RMK AO2 T01720039=
202106092353 METAR KPAE 092353Z AUTO 29008KT 10SM CLR 18/04 A3010 RMK AO2 SLP193 T01780039 10178 20133 56007=
202106092253 METAR KPAE 092253Z AUTO 28009KT 10SM CLR 17/04 A3011 RMK AO2 SLP195 T01720039=
202106092153 METAR KPAE 092153Z VRB06KT 10SM FEW055 17/04 A3011 RMK AO2 SLP197 T01720044=
202106092053 METAR KPAE 092053Z 24008KT 10SM CLR 17/05 A3012 RMK AO2 SLP200 T01670050 58006=
202106091953 METAR KPAE 091953Z 25005KT 10SM FEW055 16/06 A3013 RMK AO2 SLP203 T01560056=
202106091853 METAR KPAE 091853Z 23008KT 10SM SCT020 15/06 A3014 RMK AO2 SLP206 T01500061=
202106091753 METAR KPAE 091753Z 24006KT 10SM CLR 14/08 A3014 RMK AO2 SLP206 T01390078 10139 20083 50001=
202106091653 METAR KPAE 091653Z 24004KT 10SM SCT022 13/08 A3014 RMK AO2 SLP207 T01280078=
202106091553 METAR KPAE 091553Z 23008KT 10SM BKN022 OVC030 11/08 A3014 RMK AO2 SLP209 T01110078=
202106091453 METAR KPAE 091453Z 16008KT 10SM SCT015 12/07 A3014 RMK AO2 SLP206 T01170067 53009=
202106091420 SPECI KPAE 091420Z 16004KT 10SM SCT015 11/07 A3013 RMK AO2 T01060067=
202106091353 METAR KPAE 091353Z 15004KT 10SM BKN016 10/06 A3013 RMK AO2 SLP202 T01000061=
202106091339 SPECI KPAE 091339Z AUTO VRB04KT 10SM BKN016 10/06 A3013 RMK AO2 T01000061=
202106091253 METAR KPAE 091253Z AUTO 00000KT 10SM CLR 09/06 A3012 RMK AO2 SLP199 T00940061=
202106091153 METAR KPAE 091153Z AUTO 18005KT 10SM FEW065 10/06 A3011 RMK AO2 SLP196 T01000061 10133 20094 51005=
202106091120 SPECI KPAE 091120Z AUTO 18005KT 10SM SCT018 OVC065 10/06 A3011 RMK AO2 T01000061=
202106091053 METAR KPAE 091053Z AUTO 19004KT 10SM BKN018 BKN070 11/07 A3011 RMK AO2 SLP196 T01060072=
202106090953 METAR KPAE 090953Z AUTO 00000KT 10SM FEW020 OVC070 11/08 A3011 RMK AO2 SLP195 T01060078=
202106090853 METAR KPAE 090853Z AUTO 01005KT 10SM SCT032 BKN065 11/07 A3010 RMK AO2 SLP191 T01110072 53002=
202106090753 METAR KPAE 090753Z AUTO 01004KT 10SM FEW022 BKN039 OVC070 12/08 A3009 RMK AO2 SLP189 T01170078 401830072=
202106090715 SPECI KPAE 090715Z AUTO VRB03KT 10SM SCT029 OVC070 13/07 A3009 RMK AO2 T01280072=
202106090653 METAR KPAE 090653Z AUTO 10005KT 10SM BKN029 OVC070 13/07 A3009 RMK AO2 SLP189 T01280072=
202106090610 SPECI KPAE 090610Z AUTO 10007KT 10SM OVC029 13/07 A3009 RMK AO2 T01280072=
202106090600 SPECI KPAE 090600Z AUTO VRB04KT 10SM BKN030 OVC060 13/07 A3009 RMK AO2 T01330072=
202106090553 METAR KPAE 090553Z AUTO 08003KT 10SM BKN028 BKN060 OVC080 13/07 A3009 RMK AO2 SLP189 60000 T01330067 10183 20122 51016=
202106090453 METAR KPAE 090453Z AUTO 11003KT 10SM BKN060 OVC080 13/07 A3008 RMK AO2 SLP187 T01280072=
202106090353 METAR KPAE 090353Z 28004KT 10SM OVC060 12/08 A3006 RMK AO2 RAE04 SLP180 P0000 T01220083=
202106090253 METAR KPAE 090253Z 29007KT 10SM -RA BKN060 OVC075 13/06 A3004 RMK AO2 RAB45 SLP174 P0000 60000 T01280061 53019=
202106090153 METAR KPAE 090153Z 35008KT 10SM OVC070 15/07 A3001 RMK AO2 SLP162 T01500072=
202106090053 METAR KPAE 090053Z 35005KT 10SM FEW085 18/05 A2999 RMK AO2 SLP154 T01780050=
202106082353 METAR KPAE 082353Z 36006KT 10SM CLR 18/06 A2998 RMK AO2 SLP153 T01780061 10178 20139 53000=
202106082253 METAR KPAE 082253Z 27007KT 10SM CLR 18/04 A2998 RMK AO2 SLP152 T01780039=
202106082153 METAR KPAE 082153Z 30007KT 10SM CLR 17/06 A2997 RMK AO2 SLP150 T01720061=
202106082053 METAR KPAE 082053Z 28005KT 10SM FEW085 17/04 A2998 RMK AO2 SLP153 T01720044 50003=
202106081953 METAR KPAE 081953Z VRB04KT 10SM BKN070 BKN090 16/06 A2999 RMK AO2 SLP154 T01610056=
202106081853 METAR KPAE 081853Z VRB03KT 10SM BKN075 15/07 A2998 RMK AO2 SLP153 T01500067=
202106081753 METAR KPAE 081753Z VRB03KT 10SM FEW095 14/08 A2997 RMK AO2 SLP151 T01390083 10139 20072 51001=
202106081653 METAR KPAE 081653Z 27005KT 10SM BKN090 13/08 A2997 RMK AO2 SLP151 T01330083=
202106081553 METAR KPAE 081553Z 00000KT 10SM FEW095 12/07 A2997 RMK AO2 SLP150 T01170072=
202106081453 METAR KPAE 081453Z 31004KT 10SM CLR 11/08 A2997 RMK AO2 SLP149 T01060078 51008=
202106081353 METAR KPAE 081353Z 00000KT 10SM BKN085 09/07 A2997 RMK AO2 SLP147 T00940072=
202106081253 METAR KPAE 081253Z AUTO 00000KT 10SM FEW085 08/07 A2996 RMK AO2 SLP145 T00830067=
202106081153 METAR KPAE 081153Z AUTO 00000KT 10SM CLR 08/06 A2995 RMK AO2 SLP141 70011 T00780061 10106 20078 51001=
202106081053 METAR KPAE 081053Z AUTO 00000KT 10SM SCT110 09/06 A2995 RMK AO2 SLP141 T00890061=
202106080953 METAR KPAE 080953Z AUTO 00000KT 10SM OVC110 10/07 A2995 RMK AO2 SLP141 T01000067=
202106080853 METAR KPAE 080853Z AUTO 35005KT 10SM CLR 09/07 A2994 RMK AO2 SLP139 T00940072 58001=
202106080753 METAR KPAE 080753Z AUTO VRB04KT 10SM CLR 09/06 A2995 RMK AO2 SLP142 T00940061 401560072=
202106080653 METAR KPAE 080653Z AUTO 36005KT 10SM CLR 10/06 A2995 RMK AO2 SLP143 T01000056=
202106080553 METAR KPAE 080553Z AUTO 36003KT 10SM CLR 11/06 A2994 RMK AO2 SLP140 T01060056 10156 20106 53005=
202106080453 METAR KPAE 080453Z AUTO 35004KT 10SM CLR 11/07 A2994 RMK AO2 SLP138 T01110067=
202106080353 METAR KPAE 080353Z AUTO 36004KT 10SM CLR 12/06 A2992 RMK AO2 SLP134 T01220061=
202106080253 METAR KPAE 080253Z 00000KT 10SM CLR 14/04 A2993 RMK AO2 SLP135 T01440044 55004=
202106080153 METAR KPAE 080153Z VRB03KT 10SM CLR 16/03 A2993 RMK AO2 SLP135 T01560033=
202106080053 METAR KPAE 080053Z 27006KT 10SM CLR 16/03 A2993 RMK AO2 SLP135 T01560028=
202106072353 METAR KPAE 072353Z 32006KT 10SM FEW038 15/05 A2994 RMK AO2 SLP139 T01500050 10156 20106 58009=
202106072253 METAR KPAE 072253Z 29006KT 10SM SCT038 BKN046 BKN055 16/07 A2995 RMK AO2 SLP144 T01560067=
202106072153 METAR KPAE 072153Z 00000KT 10SM BKN055 14/06 A2995 RMK AO2 SLP144 T01440061=
202106072100 SPECI KPAE 072100Z 27004KT 10SM SCT029 BKN036 OVC046 12/08 A2996 RMK AO2 T01220078=
202106072053 METAR KPAE 072053Z 28006KT 10SM FEW017 BKN024 OVC049 12/07 A2997 RMK AO2 SLP149 T01170072 58002=
202106071953 METAR KPAE 071953Z VRB05KT 10SM FEW017 BKN024 BKN034 12/06 A2997 RMK AO2 SLP150 T01220061=
202106071853 METAR KPAE 071853Z VRB04KT 10SM SCT025 BKN031 OVC049 11/07 A2997 RMK AO2 SLP151 T01060072=
202106071851 SPECI KPAE 071851Z 25004KT 10SM SCT025 OVC031 11/07 A2997 RMK AO2=
202106071835 SPECI KPAE 071835Z 00000KT 10SM BKN025 OVC044 11/06 A2998 RMK AO2 T01110056=
202106071808 SPECI KPAE 071808Z 19006KT 10SM SCT025 OVC040 11/06 A2998 RMK AO2 T01060061=
202106071753 METAR KPAE 071753Z 19009KT 10SM SCT010 BKN029 11/07 A2998 RMK AO2 SLP152 60011 T01060067 10111 20072 50007=
202106071653 METAR KPAE 071653Z 18007KT 10SM SCT016 BKN022 OVC038 09/07 A2998 RMK AO2 SLP153 T00940067=
202106071553 METAR KPAE 071553Z 19007KT 10SM BKN008 OVC018 09/07 A2997 RMK AO2 RAE16 SLP149 P0001 T00890072=
202106071453 METAR KPAE 071453Z 19006KT 6SM -RA BR BKN009 OVC018 08/07 A2995 RMK AO2 RAB50 SLP144 P0000 60010 T00780067 53022=
202106071353 METAR KPAE 071353Z 23004KT 10SM FEW019 BKN027 OVC040 08/07 A2993 RMK AO2 RAE09 SLP136 P0000 T00780067=
202106071325 SPECI KPAE 071325Z AUTO 00000KT 10SM SCT005 BKN028 OVC038 08/07 A2991 RMK AO2 RAE09 P0000 T00780067=
202106071305 SPECI KPAE 071305Z AUTO 00000KT 10SM -RA BKN006 BKN020 OVC034 08/07 A2991 RMK AO2 CIG 004V009 P0000 T00780067=
202106071239 SPECI KPAE 071239Z AUTO 18004KT 5SM RA BR SCT005 BKN011 OVC016 07/07 A2990 RMK AO2 RAB04 P0008 T00720067=
202106071212 SPECI KPAE 071212Z AUTO VRB03KT 7SM -RA SCT018 BKN028 OVC034 07/06 A2989 RMK AO2 RAB04 P0001 T00720061=
202106071153 METAR KPAE 071153Z AUTO VRB04KT 10SM FEW028 BKN033 OVC070 07/06 A2989 RMK AO2 SLP122 60015 70040 T00720061 10094 20072 52008=
202106071053 METAR KPAE 071053Z AUTO 14005KT 10SM FEW021 SCT049 SCT060 07/06 A2988 RMK AO2 RAB10E32 SLP119 P0002 T00720056=
202106071023 SPECI KPAE 071023Z AUTO 12005KT 9SM -RA FEW017 BKN031 OVC040 07/06 A2987 RMK AO2 RAB10 P0002 T00720061=
202106071014 SPECI KPAE 071014Z AUTO VRB04KT 9SM -RA FEW017 BKN027 OVC034 07/06 A2987 RMK AO2 RAB10 P0001 T00720061=
202106070853 METAR KPAE 070853Z AUTO VRB06KT 10SM SCT042 BKN075 OVC090 07/05 A2986 RMK AO2 RAE10 SLP113 P0003 60013 T00720050 51004=
202106070753 METAR KPAE 070753Z AUTO 15013KT 5SM -RA BR OVC039 08/06 A2985 RMK AO2 RAB0654 SLP111 P0008 T00780056 401170078=
202106070739 SPECI KPAE 070739Z AUTO 17009KT 9SM -RA FEW015 SCT026 OVC037 08/07 A2986 RMK AO2 RAB0654 P0005 T00830067=
202106070720 SPECI KPAE 070720Z AUTO 16012KT 9SM -RA FEW013 BKN022 OVC033 08/07 A2986 RMK AO2 RAB0654 P0003 T00830067=
202106070653 METAR KPAE 070653Z AUTO 15009KT 10SM SCT033 OVC065 08/07 A2986 RMK AO2 RAE16 SLP112 P0002 T00830072=
202106070553 METAR KPAE 070553Z AUTO 17012G25KT 8SM -RA FEW009 BKN039 OVC085 09/08 A2985 RMK AO2 RAB44 SLP109 P0001 60017 T00940078 10117 20094 53003=
202106070512 SPECI KPAE 070512Z AUTO 14010G18KT 10SM SCT006 OVC085 09/08 A2984 RMK AO2 T00940083=
202106070453 METAR KPAE 070453Z AUTO 15010KT 10SM OVC090 09/08 A2984 RMK AO2 SLP107 T00940083=
202106070410 SPECI KPAE 070410Z AUTO 16011KT 10SM FEW007 BKN090 09/08 A2984 RMK AO2 T00940083=
202106070355 SPECI KPAE 070355Z AUTO 15012KT 10SM BKN009 OVC090 09/08 A2984 RMK AO2 CIG 006V012 T00940083=
202106070353 METAR KPAE 070353Z 15010KT 10SM SCT011 BKN100 09/08 A2984 RMK AO2 SLP107 T00940083=
202106070253 METAR KPAE 070253Z 15008KT 10SM FEW012 SCT021 BKN120 10/08 A2984 RMK AO2 RAE39 SLP106 P0012 60016 T01000078 56013=
202106070232 SPECI KPAE 070232Z 15011KT 10SM -RA FEW006 SCT012 BKN021 10/08 A2984 RMK AO2 P0012 T01000083=
202106070219 SPECI KPAE 070219Z 10009G17KT 050V150 3SM RA BR BKN008 BKN015 OVC032 10/08 A2984 RMK AO2 P0012 T01000083=
202106070155 SPECI KPAE 070155Z 15008KT 4SM RA BR FEW008 BKN018 OVC028 10/09 A2985 RMK AO2 P0001 T01000089=
202106070153 METAR KPAE 070153Z 15005KT 4SM -RA BR BKN011 BKN020 OVC035 10/09 A2985 RMK AO2 RAE03B30 SLP109 P0002 T01000089=
202106070053 METAR KPAE 070053Z VRB05KT 10SM -RA BKN023 BKN039 OVC075 11/08 A2986 RMK AO2 RAB38 SLP112 P0002 T01060083=
202106062353 METAR KPAE 062353Z 18011KT 10SM BKN017 BKN027 OVC065 11/07 A2988 RMK AO2 RAE10 SLP119 P0000 60003 T01110072 10117 20100 58011=
202106062300 SPECI KPAE 062300Z 16010KT 10SM -RA BKN017 BKN027 OVC065 10/07 A2988 RMK AO2 P0000 T01000072=
202106062253 METAR KPAE 062253Z 17008KT 10SM -RA BKN014 BKN026 OVC060 11/08 A2989 RMK AO2 SLP122 P0001 T01060078=
202106062241 SPECI KPAE 062241Z 16008KT 10SM -RA BKN014 BKN026 OVC060 10/08 A2989 RMK AO2 P0001 T01000078=
202106062155 SPECI KPAE 062155Z 18013KT 10SM -RA FEW027 SCT036 OVC050 10/07 A2990 RMK AO2 P0000 T01000072=
202106062153 METAR KPAE 062153Z 19013KT 10SM -RA BKN014 BKN036 OVC050 10/07 A2990 RMK AO2 SLP128 P0002 T01000072=
202106062053 METAR KPAE 062053Z 17009KT 10SM -RA BKN014 BKN036 OVC050 11/07 A2991 RMK AO2 RAB23 SLP130 P0000 60000 T01110067 56012=
202106061953 METAR KPAE 061953Z 17008KT 10SM SCT022 BKN070 OVC085 11/06 A2991 RMK AO2 SLP131 T01110056=
202106061900 SPECI KPAE 061900Z 19012KT 10SM SCT018 BKN050 OVC065 11/07 A2993 RMK AO2 T01060067=
202106061853 METAR KPAE 061853Z 16008KT 10SM BKN018 BKN024 11/07 A2993 RMK AO2 SLP137 T01060067=
202106061753 METAR KPAE 061753Z 18010KT 10SM BKN018 BKN024 10/07 A2995 RMK AO2 RAB08E29 SLP142 P0000 60005 T01000067 10100 20078 58019=
202106061653 METAR KPAE 061653Z 16008KT 10SM BKN018 BKN024 09/07 A2997 RMK AO2 SLP149 T00940072=
202106061628 SPECI KPAE 061628Z 16009KT 10SM BKN018 BKN024 09/07 A2998 RMK AO2 T00940072=
202106061553 METAR KPAE 061553Z 16010KT 10SM BKN013 BKN018 OVC028 09/07 A2999 RMK AO2 RAE1454 SLP157 P0000 T00890072=
202106061453 METAR KPAE 061453Z VRB05KT 10SM -RA BKN013 BKN018 OVC028 09/07 A3000 RMK AO2 RAB17 SLP161 P0001 60005 T00890072 58011=
202106061353 METAR KPAE 061353Z 11005KT 10SM BKN013 BKN018 OVC028 08/07 A3002 RMK AO2 RAB04E47 SLP166 P0001 T00830072=
202106061306 SPECI KPAE 061306Z 11005KT 6SM -RA BR FEW020 BKN026 OVC032 08/07 A3003 RMK AO2 RAB04 P0000 T00830067=
202106061253 METAR KPAE 061253Z 11005KT 10SM FEW023 BKN031 OVC041 08/07 A3003 RMK AO2 RAE53 SLP170 P0003 T00780067=
202106061153 METAR KPAE 061153Z 11006KT 10SM -RA SCT026 BKN033 OVC042 08/07 A3004 RMK AO2 RAB1057 SLP173 P0003 60012 70068 T00830067 10094 20078 57015=
202106061125 SPECI KPAE 061125Z 12006KT 7SM -RA OVC032 08/07 A3004 RMK AO2 RAB1057 P0001 T00780067=
202106061100 SPECI KPAE 061100Z 10006KT 10SM -RA BKN029 BKN034 OVC050 08/07 A3005 RMK AO2 RAB1057 P0000 T00780067=
202106061053 METAR KPAE 061053Z 11006KT 10SM BKN031 OVC055 08/07 A3005 RMK AO2 SLP179 T00780067=
202106060953 METAR KPAE 060953Z 12007KT 10SM OVC031 08/07 A3006 RMK AO2 RAE40 SLP182 P0002 T00830072=
202106060853 METAR KPAE 060853Z 12005KT 7SM -RA FEW026 OVC038 09/08 A3008 RMK AO2 RAE0756B22 SLP187 P0003 60007 T00890078 58003=
202106060817 SPECI KPAE 060817Z 10SM FEW007 SCT022 OVC035 09/08 A3008 RMK AO2 RAE0756 P0000 T00890078=
202106060800 SPECI KPAE 060800Z 11004KT 10SM FEW004 BKN017 OVC036 09/08 A3009 RMK AO2 RAE0756 P0000 T00890078=
202106060753 METAR KPAE 060753Z 11006KT 10SM -RA FEW011 BKN018 OVC036 09/08 A3009 RMK AO2 RAB11 SLP191 P0004 T00890078 401440089=
202106060743 SPECI KPAE 060743Z 11005KT 7SM -RA FEW009 BKN019 OVC036 09/08 A3009 RMK AO2 RAB11 P0003 T00890078=
202106060715 SPECI KPAE 060715Z 08004KT 10SM -RA BKN019 OVC035 09/07 A3009 RMK AO2 RAB11 P0000 T00940072=
202106060653 METAR KPAE 060653Z 06004KT 10SM OVC036 09/07 A3009 RMK AO2 SLP191 T00940072=
202106060553 METAR KPAE 060553Z 02004KT 10SM BKN042 OVC050 09/07 A3009 RMK AO2 RAE31 SLP190 P0001 60037 T00940072 10111 20089 53006=
202106060453 METAR KPAE 060453Z 00000KT 6SM -RA BR OVC040 09/08 A3008 RMK AO2 SLP188 P0005 T00940078=
202106060353 METAR KPAE 060353Z 00000KT 4SM -RA BR FEW037 OVC046 09/08 A3008 RMK AO2 SLP186 P0010 T00940078=
202106060253 METAR KPAE 060253Z 03004KT 4SM -RA FEW029 BKN035 OVC046 10/07 A3007 RMK AO2 SLP184 P0011 60021 T01000072 51010=
202106060153 METAR KPAE 060153Z 00000KT 4SM R16R/5000VP6000FT RA BR FEW029 BKN035 OVC046 10/08 A3007 RMK AO2 RAB21 SLP182 P0006 T01000083=
202106060053 METAR KPAE 060053Z VRB03KT 10SM OVC030 11/08 A3005 RMK AO2 RAE37 SLP178 P0004 T01060083=
202106052353 METAR KPAE 052353Z 01004KT 5SM RA BR OVC037 10/08 A3004 RMK AO2 RAB19 SLP174 P0004 60017 T01000083 10144 20100 51011=
202106052253 METAR KPAE 052253Z 01009KT 10SM OVC035 12/09 A3003 RMK AO2 SLP171 T01170089=
202106052201 SPECI KPAE 052201Z 02004KT 10SM SCT009 BKN018 OVC037 11/09 A3003 RMK AO2 T01110089=
202106052153 METAR KPAE 052153Z VRB04KT 10SM OVC037 11/09 A3002 RMK AO2 RAB17E51 SLP167 P0001 T01110089=
202106052053 METAR KPAE 052053Z 36007KT 10SM SCT010 BKN046 BKN060 12/10 A3001 RMK AO2 RAE32 SLP161 P0005 60012 T01220100 51014=
202106052037 SPECI KPAE 052037Z 36007KT 10SM SCT005 BKN009 OVC055 12/09 A3001 RMK AO2 RAE32 P0005 T01220094=
202106051953 METAR KPAE 051953Z 34006KT 4SM RA BR BKN004 BKN035 OVC048 10/09 A3000 RMK AO2 SLP160 P0006 T01000094=
202106051900 SPECI KPAE 051900Z 36010KT 10SM -RA BKN009 BKN035 OVC048 12/10 A2998 RMK AO2 P0000 T01170100=
202106051853 METAR KPAE 051853Z 36011KT 10SM -RA BKN012 BKN035 OVC045 12/11 A2998 RMK AO2 RAB22 SLP152 P0001 T01170106=
202106051831 SPECI KPAE 051831Z 01007KT 10SM -RA BKN012 BKN035 OVC045 12/10 A2997 RMK AO2 RAB22 P0000 T01220100=
202106051800 SPECI KPAE 051800Z 33006KT 10SM BKN015 BKN020 13/10 A2997 RMK AO2 T01330100=
202106051753 METAR KPAE 051753Z VRB04KT 10SM FEW004 BKN014 OVC044 14/11 A2997 RMK AO2 SLP146 60002 T01440106 10144 20106 50001=
202106051739 SPECI KPAE 051739Z 35004KT 10SM FEW004 BKN014 OVC044 12/10 A2997 RMK AO2 T01220100=
202106051653 METAR KPAE 051653Z VRB03KT 10SM BKN009 OVC019 12/09 A2997 RMK AO2 SLP147 T01170094=
202106051553 METAR KPAE 051553Z 00000KT 10SM FEW005 OVC009 11/09 A2996 RMK AO2 RAB12E48 CIG 008V013 SLP146 P0002 T01060094=
202106051453 METAR KPAE 051453Z VRB03KT 10SM FEW002 OVC014 11/09 A2995 RMK AO2 SLP141 60000 T01060094 51007=
202106051451 SPECI KPAE 051451Z 00000KT 10SM OVC014 11/09 A2995 RMK AO2=
202106051353 METAR KPAE 051353Z 22009KT 10SM OVC021 12/07 A2994 RMK AO2 RAE1256 SLP137 P0000 T01220072=
202106051253 METAR KPAE 051253Z AUTO 18009KT 10SM -RA OVC023 12/08 A2993 RMK AO2 RAB43 SLP133 P0000 T01220078=
202106051153 METAR KPAE 051153Z AUTO 17007KT 10SM OVC021 12/07 A2993 RMK AO2 RAB1057E06 SLP132 P0000 60000 T01220072 10156 20122 58001=
202106051053 METAR KPAE 051053Z AUTO 20011G19KT 10SM BKN020 OVC027 13/08 A2993 RMK AO2 SLP134 T01280078=
202106051043 SPECI KPAE 051043Z AUTO 20012KT 10SM SCT024 BKN029 OVC035 13/07 A2993 RMK AO2 T01280067=
202106050953 METAR KPAE 050953Z AUTO 20011KT 10SM BKN090 13/03 A2993 RMK AO2 SLP134 T01330033=
202106050853 METAR KPAE 050853Z AUTO 19008KT 10SM BKN075 OVC095 14/04 A2993 RMK AO2 RAB28E38 SLP134 P0000 60000 T01390044 56010=
202106050753 METAR KPAE 050753Z AUTO 21009KT 10SM FEW085 14/03 A2994 RMK AO2 SLP137 T01440033 402000111=
202106050653 METAR KPAE 050653Z AUTO 20010KT 10SM CLR 16/05 A2994 RMK AO2 SLP139 T01560050=
202106050553 METAR KPAE 050553Z AUTO 20006KT 10SM SCT075 SCT090 16/08 A2996 RMK AO2 SLP144 T01560078 10200 20156 56014=
202106050453 METAR KPAE 050453Z 20009KT 10SM OVC090 18/07 A2998 RMK AO2 SLP149 T01780067=
202106050353 METAR KPAE 050353Z 18010KT 10SM BKN055 OVC100 18/07 A2998 RMK AO2 SLP149 T01830072=
202106050253 METAR KPAE 050253Z 00000KT 10SM BKN050 18/08 A3000 RMK AO2 SLP159 T01780078 56014=
202106050153 METAR KPAE 050153Z VRB03KT 10SM SCT060 19/08 A3001 RMK AO2 SLP161 T01890078=
202106050053 METAR KPAE 050053Z VRB04KT 10SM FEW046 BKN110 19/08 A3003 RMK AO2 SLP167 T01940078=
202106042353 METAR KPAE 042353Z 32004KT 10SM OVC110 18/08 A3005 RMK AO2 SLP174 T01780083 10194 20144 58018=
202106042253 METAR KPAE 042253Z VRB05KT 10SM FEW080 OVC120 18/08 A3007 RMK AO2 SLP180 T01830083=
202106042153 METAR KPAE 042153Z 23008KT 10SM OVC100 17/08 A3009 RMK AO2 SLP189 T01670083=
202106042053 METAR KPAE 042053Z 25008KT 10SM SCT095 SCT110 17/09 A3010 RMK AO2 SLP192 T01720089 58002=
202106041953 METAR KPAE 041953Z 28007KT 10SM CLR 16/09 A3010 RMK AO2 SLP194 T01610094=
202106041853 METAR KPAE 041853Z 27007KT 10SM BKN110 16/09 A3010 RMK AO2 SLP194 T01610089=
202106041753 METAR KPAE 041753Z 23007KT 10SM FEW060 15/09 A3011 RMK AO2 SLP195 T01500094 10150 20111 53005=
202106041700 SPECI KPAE 041700Z 27007KT 10SM OVC050 13/09 A3010 RMK AO2 T01330094=
202106041653 METAR KPAE 041653Z 25005KT 10SM BKN018 13/09 A3010 RMK AO2 SLP193 T01330094=
202106041553 METAR KPAE 041553Z VRB03KT 10SM BKN018 13/07 A3009 RMK AO2 SLP191 T01280072=
202106041453 METAR KPAE 041453Z 20003KT 10SM OVC019 12/07 A3009 RMK AO2 SLP189 T01170067 53012=
202106041353 METAR KPAE 041353Z 00000KT 10SM OVC018 12/06 A3008 RMK AO2 SLP184 T01170061=
202106041253 METAR KPAE 041253Z AUTO 11003KT 10SM FEW020 OVC027 12/06 A3006 RMK AO2 SLP177 T01170061=
202106041203 SPECI KPAE 041203Z AUTO 07003KT 10SM BKN026 BKN050 11/06 A3006 RMK AO2 T01110061=
202106041153 METAR KPAE 041153Z AUTO 05003KT 10SM SCT024 BKN050 11/06 A3005 RMK AO2 SLP177 T01110061 10122 20111 51009=
202106041053 METAR KPAE 041053Z AUTO 06006KT 10SM BKN044 11/06 A3005 RMK AO2 SLP173 T01110061=
202106040953 METAR KPAE 040953Z AUTO 36004KT 10SM CLR 11/06 A3004 RMK AO2 SLP170 T01110061=
202106040853 METAR KPAE 040853Z AUTO 02006KT 10SM FEW060 11/07 A3003 RMK AO2 SLP166 T01110067 51013=
202106040753 METAR KPAE 040753Z AUTO 01006KT 10SM SCT038 BKN060 11/08 A3002 RMK AO2 SLP164 T01110078 402280111=
202106040653 METAR KPAE 040653Z AUTO 35012G18KT 10SM OVC037 11/09 A3001 RMK AO2 SLP161 T01110089=
202106040553 METAR KPAE 040553Z AUTO 36009KT 10SM BKN039 OVC050 12/09 A2999 RMK AO2 SLP153 T01220089 10194 20122 53006=
202106040453 METAR KPAE 040453Z 36007KT 10SM BKN034 OVC055 13/09 A2998 RMK AO2 SLP151 T01280094=
202106040353 METAR KPAE 040353Z 36011G21KT 10SM SCT035 OVC045 13/09 A2997 RMK AO2 SLP147 T01280094=
202106040253 METAR KPAE 040253Z 01010G15KT 10SM CLR 14/10 A2997 RMK AO2 SLP146 T01390100 55002=
202106040153 METAR KPAE 040153Z 36009G17KT 10SM CLR 15/11 A2997 RMK AO2 SLP146 T01500106=
202106040053 METAR KPAE 040053Z 36011G19KT 10SM CLR 18/11 A2996 RMK AO2 SLP144 T01780106=
202106032353 METAR KPAE 032353Z 35007KT 10SM CLR 18/12 A2997 RMK AO2 SLP148 T01780122 10228 20172 58006=
202106032253 METAR KPAE 032253Z 36010KT 10SM CLR 18/12 A2999 RMK AO2 SLP154 T01830122=
202106032153 METAR KPAE 032153Z 34008KT 10SM CLR 19/13 A2999 RMK AO2 SLP154 T01890128=
202106032053 METAR KPAE 032053Z 31007KT 10SM CLR 22/14 A2999 RMK AO2 SLP153 T02220139 58006=
202106031953 METAR KPAE 031953Z 25007KT 10SM CLR 21/13 A3000 RMK AO2 SLP156 T02110133=
202106031853 METAR KPAE 031853Z 27008KT 10SM CLR 20/13 A3000 RMK AO2 SLP158 T02000133=
202106031753 METAR KPAE 031753Z 29007KT 10SM CLR 19/13 A3001 RMK AO2 SLP160 T01940133 10200 20144 51004=
202106031653 METAR KPAE 031653Z 26004KT 10SM FEW060 18/13 A3001 RMK AO2 SLP160 T01830128=
202106031553 METAR KPAE 031553Z 27005KT 10SM FEW060 17/13 A3001 RMK AO2 SLP161 T01720128=
202106031453 METAR KPAE 031453Z 00000KT 10SM CLR 17/12 A3000 RMK AO2 SLP157 T01670122 50007=
202106031353 METAR KPAE 031353Z 00000KT 10SM CLR 16/12 A3000 RMK AO2 SLP156 T01610117=
202106031253 METAR KPAE 031253Z AUTO 12003KT 10SM CLR 15/11 A2998 RMK AO2 SLP151 T01500111=
202106031153 METAR KPAE 031153Z AUTO VRB03KT 10SM OVC060 15/11 A2998 RMK AO2 SLP149 T01500111 10161 20144 53003=
202106031053 METAR KPAE 031053Z AUTO 06005KT 10SM CLR 14/11 A2997 RMK AO2 SLP146 T01440111=
202106030953 METAR KPAE 030953Z AUTO 05004KT 10SM CLR 15/11 A2996 RMK AO2 SLP144 T01500111=
202106030853 METAR KPAE 030853Z AUTO VRB03KT 10SM CLR 15/11 A2997 RMK AO2 SLP145 T01500111 53007=
202106030753 METAR KPAE 030753Z AUTO 01005KT 10SM CLR 15/11 A2996 RMK AO2 SLP142 T01500111 402670144=
202106030653 METAR KPAE 030653Z AUTO 02006KT 10SM CLR 16/11 A2995 RMK AO2 SLP139 T01610111=
202106030553 METAR KPAE 030553Z AUTO 02006KT 10SM BKN065 16/12 A2995 RMK AO2 SLP138 T01610117 10211 20150 53007=
202106030453 METAR KPAE 030453Z AUTO 36011G18KT 10SM CLR 16/12 A2994 RMK AO2 SLP136 T01560117=
202106030353 METAR KPAE 030353Z 01010KT 10SM CLR 15/12 A2993 RMK AO2 SLP133 T01500117=
202106030253 METAR KPAE 030253Z 36010G16KT 10SM CLR 17/12 A2993 RMK AO2 SLP132 T01670122 55000=
202106030153 METAR KPAE 030153Z 36009G17KT 340V060 10SM CLR 19/12 A2992 RMK AO2 SLP129 T01890122=
202106030053 METAR KPAE 030053Z 36010G16KT 10SM CLR 21/12 A2992 RMK AO2 SLP129 T02060122=
202106022353 METAR KPAE 022353Z 36009G17KT 10SM CLR 21/13 A2993 RMK AO2 SLP132 T02110128 10267 20211 58012=
202106022253 METAR KPAE 022253Z 36010G17KT 320V030 10SM CLR 22/13 A2994 RMK AO2 SLP136 T02220128=
202106022153 METAR KPAE 022153Z 35011KT 10SM CLR 22/13 A2996 RMK AO2 SLP142 T02170133=
202106022053 METAR KPAE 022053Z 30007KT 10SM CLR 26/13 A2996 RMK AO2 SLP143 T02610133 58002=
202106021953 METAR KPAE 021953Z VRB05KT 10SM CLR 26/13 A2997 RMK AO2 SLP144 T02560133=
202106021853 METAR KPAE 021853Z 31006KT 10SM CLR 26/13 A2997 RMK AO2 SLP145 T02560128=
202106021753 METAR KPAE 021753Z VRB05KT 10SM CLR 24/13 A2997 RMK AO2 SLP145 T02440133 10244 20144 51006=
202106021653 METAR KPAE 021653Z 29004KT 10SM CLR 23/14 A2997 RMK AO2 SLP145 T02330144=
202106021553 METAR KPAE 021553Z 00000KT 10SM CLR 23/13 A2996 RMK AO2 SLP140 T02280133=
202106021453 METAR KPAE 021453Z 00000KT 10SM CLR 19/13 A2995 RMK AO2 SLP139 T01940128 53012=
202106021353 METAR KPAE 021353Z 00000KT 10SM CLR 18/13 A2994 RMK AO2 SLP134 T01830128=
202106021253 METAR KPAE 021253Z AUTO 00000KT 10SM CLR 16/12 A2992 RMK AO2 SLP129 T01560117=
202106021153 METAR KPAE 021153Z AUTO 00000KT 10SM CLR 16/12 A2992 RMK AO2 SLP127 T01560117 10189 20156 53004=
202106021053 METAR KPAE 021053Z AUTO VRB03KT 10SM CLR 17/12 A2990 RMK AO2 SLP122 T01720117=
202106020953 METAR KPAE 020953Z AUTO 03004KT 10SM CLR 17/12 A2990 RMK AO2 SLP123 T01670117=
202106020853 METAR KPAE 020853Z AUTO 36004KT 10SM CLR 18/12 A2990 RMK AO2 SLP123 T01830117 55000=
202106020753 METAR KPAE 020753Z AUTO 01004KT 10SM CLR 18/12 A2989 RMK AO2 SLP119 T01830117 402720133=
202106020653 METAR KPAE 020653Z AUTO 35005KT 10SM CLR 18/12 A2990 RMK AO2 SLP122 T01830117=
202106020553 METAR KPAE 020553Z AUTO 36009KT 10SM CLR 18/12 A2990 RMK AO2 SLP124 T01780117 10267 20178 55001=
202106020453 METAR KPAE 020453Z AUTO 36005KT 10SM CLR 20/13 A2990 RMK AO2 SLP124 T02000128=
202106020353 METAR KPAE 020353Z 35003KT 10SM CLR 22/13 A2990 RMK AO2 SLP122 T02220133=
202106020253 METAR KPAE 020253Z 34005KT 10SM CLR 24/13 A2991 RMK AO2 SLP124 T02440133 56017=
202106020153 METAR KPAE 020153Z 33006KT 10SM CLR 26/13 A2992 RMK AO2 SLP129 T02560133=
202106020053 METAR KPAE 020053Z 34007KT 10SM CLR 26/13 A2994 RMK AO2 SLP135 T02610133=
202106012353 METAR KPAE 012353Z 35008KT 320V020 10SM CLR 26/13 A2996 RMK AO2 SLP141 T02610133 10272 20206 58023=
202106012253 METAR KPAE 012253Z 34006KT 10SM CLR 26/13 A2998 RMK AO2 SLP150 T02610133=
202106012153 METAR KPAE 012153Z 35008KT 330V030 10SM CLR 25/13 A3000 RMK AO2 SLP157 T02500128=
202106012053 METAR KPAE 012053Z 33008G15KT 310V010 10SM CLR 24/13 A3003 RMK AO2 SLP166 T02390133 58019=
202106011953 METAR KPAE 011953Z 34007KT 10SM CLR 23/13 A3005 RMK AO2 SLP174 T02330133=
202106011853 METAR KPAE 011853Z 34007KT 10SM CLR 23/13 A3007 RMK AO2 SLP180 T02280128=
202106011753 METAR KPAE 011753Z VRB05KT 10SM CLR 21/13 A3008 RMK AO2 SLP185 T02060133 10206 20139 58011=
202106011653 METAR KPAE 011653Z 35005KT 10SM CLR 18/12 A3010 RMK AO2 SLP190 T01830122=
202106011553 METAR KPAE 011553Z 34004KT 10SM CLR 18/12 A3011 RMK AO2 SLP194 T01830117=
202106011453 METAR KPAE 011453Z 02005KT 10SM CLR 18/12 A3012 RMK AO2 SLP196 T01780117 56002=
202106011353 METAR KPAE 011353Z 00000KT 10SM CLR 16/12 A3012 RMK AO2 SLP197 T01610117=
202106011253 METAR KPAE 011253Z AUTO 02004KT 10SM CLR 14/11 A3012 RMK AO2 SLP198 T01440111=
202106011153 METAR KPAE 011153Z AUTO 02003KT 10SM CLR 14/11 A3012 RMK AO2 SLP199 T01440111 10167 20133 58009=
202106011053 METAR KPAE 011053Z AUTO 00000KT 10SM CLR 14/11 A3014 RMK AO2 SLP205 T01390106=
202106010953 METAR KPAE 010953Z AUTO 02006KT 10SM CLR 15/11 A3015 RMK AO2 SLP206 T01500106=
202106010853 METAR KPAE 010853Z AUTO 00000KT 10SM CLR 14/11 A3015 RMK AO2 SLP208 T01440111 56011=
202106010753 METAR KPAE 010753Z AUTO 01003KT 10SM CLR 14/11 A3016 RMK AO2 SLP211 T01440111 402390111=
202106010653 METAR KPAE 010653Z AUTO 34003KT 10SM CLR 16/12 A3018 RMK AO2 SLP217 T01560117=
202106010553 METAR KPAE 010553Z AUTO 35006KT 10SM CLR 16/11 A3019 RMK AO2 SLP220 T01610111 10239 20161 51006=
202106010453 METAR KPAE 010453Z AUTO 34005KT 10SM CLR 18/10 A3019 RMK AO2 SLP220 T01780100=
202106010353 METAR KPAE 010353Z 34005KT 10SM CLR 18/10 A3017 RMK AO2 SLP216 T01830100=
202106010253 METAR KPAE 010253Z 35006KT 10SM CLR 20/10 A3017 RMK AO2 SLP215 T02000100 56005=
202106010153 METAR KPAE 010153Z 34008KT 10SM CLR 22/10 A3017 RMK AO2 SLP215 T02170100=
202106010053 METAR KPAE 010053Z 34006KT 10SM CLR 23/10 A3017 RMK AO2 SLP215 T02330100=

# No short TAF reports from KPAE in databse.

###################################
#  large TAF from KPAE
###################################
202106302339 TAF KPAE 302339Z 0100/0124 25008KT P6SM SKC FM010200 34007KT P6SM
                       SKC FM011100 02005KT P6SM OVC015 FM011600
                       21005KT P6SM OVC015 FM012300 26006KT P6SM
                       SCT025=
202106301724 TAF KPAE 301724Z 3018/0118 20009KT P6SM OVC015 FM301900 24008KT
                       P6SM SKC FM010200 34007KT P6SM SKC FM011100
                       23004KT P6SM OVC020=
202106301137 TAF KPAE 301137Z 3012/0112 22004KT P6SM SKC FM301400 20005KT P6SM
                       BKN012 FM301700 24007KT P6SM SCT015 FM301900
                       24008KT P6SM SKC FM010200 34007KT P6SM SKC
                       FM011100 35006KT P6SM OVC020=
202106300541 TAF KPAE 300541Z 3006/0106 01006KT P6SM SKC FM301300 20005KT P6SM
                       BKN012 FM301700 24007KT P6SM SCT015 FM301900
                       24008KT P6SM SKC=
202106292326 TAF KPAE 292326Z 3000/3024 36008KT P6SM SKC FM301300 20005KT P6SM
                       BKN012 FM301900 24007KT P6SM SCT015=
202106291735 TAF KPAE 291735Z 2918/3018 23008KT P6SM SKC FM300300 33008KT P6SM
                       SKC FM301300 20005KT P6SM BKN012=
202106291132 TAF KPAE 291132Z 2912/3012 18009KT P6SM SKC FM291800 28010KT P6SM
                       SKC FM300600 19010KT P6SM SKC=
202106290535 TAF KPAE 290535Z 2906/3006 36005KT P6SM SKC FM291800 25010KT P6SM
                       SKC=
202106282355 TAF KPAE 282355Z 2900/2924 10005KT P6SM SKC FM290100 33007KT P6SM
                       SKC FM290600 20010KT P6SM SKC=
202106281728 TAF KPAE 281728Z 2818/2918 36006KT P6SM SKC FM282100 10005KT P6SM
                       SKC FM290100 33007KT P6SM SKC FM290600 20010KT
                       P6SM SKC=
202106281120 TAF KPAE 281120Z 2812/2912 02006KT P6SM SKC FM281800 36010KT P6SM
                       SKC FM282100 10005KT P6SM SKC FM290100 33007KT
                       P6SM SKC FM290600 20010KT P6SM SKC=
202106280543 TAF KPAE 280543Z 2806/2906 02006KT P6SM SKC FM281800 36010KT P6SM
                       SKC=
202106272320 TAF KPAE 272320Z 2800/2824 36006KT P6SM SKC FM280600 02006KT P6SM
                       SKC FM281800 36010KT P6SM SKC=
202106271720 TAF KPAE 271720Z 2718/2818 34008KT P6SM SKC FM280600 02006KT P6SM
                       SKC=
202106271120 TAF KPAE 271120Z 2712/2812 00000KT P6SM SKC FM271800 34012G18KT
                       P6SM SKC FM280600 04006KT P6SM SKC=
202106270551 TAF KPAE 270551Z 2706/2806 35007KT P6SM SKC FM270900 00000KT P6SM
                       SKC FM271700 02007KT P6SM SKC=
202106262329 TAF KPAE 262329Z 2700/2724 35007KT P6SM SKC FM270900 00000KT P6SM
                       SKC FM271700 02007KT P6SM SKC=
202106261731 TAF KPAE 261731Z 2618/2718 36007KT P6SM SKC FM270400 00000KT P6SM
                       SKC=
202106261123 TAF KPAE 261123Z 2612/2712 03003KT P6SM SKC FM261700 35007KT P6SM
                       SKC FM270400 00000KT P6SM SKC=
202106260522 TAF KPAE 260522Z 2606/2706 03003KT P6SM SKC FM261700 35007KT P6SM
                       SKC=
202106252328 TAF KPAE 252328Z 2600/2624 33007KT P6SM SCT250 FM260600 03003KT
                       P6SM SKC FM261700 35007KT P6SM SKC=
202106251731 TAF KPAE 251731Z 2518/2618 36005KT P6SM SCT250 FM252200 32007KT
                       P6SM SCT250 FM260600 VRB03KT P6SM SKC=
202106251125 TAF KPAE 251125Z 2512/2612 36003KT P6SM SCT250 FM251900 31006KT
                       P6SM SCT250 FM260400 VRB03KT P6SM SKC=
202106250520 TAF KPAE 250520Z 2506/2606 33007KT P6SM SCT250 FM250800 36003KT
                       P6SM SCT250 FM251900 31006KT P6SM SCT250=
202106242328 TAF KPAE 242328Z 2500/2524 33005KT P6SM SCT250 FM251200 36003KT
                       P6SM SCT250 FM251900 31005KT P6SM SCT250=
202106241736 TAF KPAE 241736Z 2418/2518 29005KT P6SM SCT250 FM242200 32006KT
                       P6SM SCT250 FM251200 35003KT P6SM SCT250=
202106241133 TAF KPAE 241133Z 2412/2512 25003KT P6SM BKN050 FM242000 29005KT
                       P6SM BKN250=
202106240520 TAF KPAE 240520Z 2406/2506 25008KT P6SM SKC FM241200 25003KT P6SM
                       BKN050 FM242000 29005KT P6SM BKN250=
202106232320 TAF KPAE 232320Z 2400/2424 25008KT P6SM SKC FM241200 25003KT P6SM
                       BKN050 FM242000 29005KT P6SM BKN250=
202106231727 TAF KPAE 231727Z 2318/2418 20006KT P6SM OVC010 FM231900 25006KT
                       P6SM SCT100 FM240100 36005KT P6SM SCT250
                       FM241200 25003KT P6SM BKN015=
202106231122 TAF KPAE 231122Z 2312/2412 VRB03KT 5SM BR OVC003
                      TEMPO 2312/2316 1SM BR VV002 FM231700 20006KT
                       P6SM BKN008 FM231900 25006KT P6SM SCT250
                       FM240100 36005KT P6SM SCT250=
202106231045 KPAE 231045Z 2311/2406 01003KT P6SM VCFG SCT003
                      TEMPO 2311/2313 1SM BR VV003 FM231300 VRB03KT
                       P6SM OVC003 FM231700 20005KT P6SM BKN008
                       FM231900 25006KT P6SM SCT250 FM240100 36005KT
                       P6SM SCT250=
202106230520 TAF KPAE 230520Z 2306/2406 36005KT P6SM FEW250 FM230900 07004KT
                       P6SM FEW250 FM231200 19006KT P6SM OVC008
                       FM231700 20006KT P6SM BKN012 FM231900 25006KT
                       P6SM SCT250 FM240100 36005KT P6SM SCT250=
202106222320 TAF KPAE 222320Z 2300/2324 27007KT P6SM SCT200 FM230600 22007KT
                       P6SM BKN200 FM230900 20007KT P6SM SCT012
                       TEMPO 2309/2312 BKN012 FM231200 21010KT
                       P6SM OVC012 FM231700 20010KT P6SM BKN015
                       TEMPO 2318/2320 SCT020 FM232000 23006KT
                       P6SM SKC=
202106221734 TAF KPAE 221734Z 2218/2318 25008KT P6SM SKC FM231200 21010KT P6SM
                       OVC015 FM231700 20010KT P6SM BKN018=
202106221125 TAF KPAE 221125Z 2212/2312 VRB03KT P6SM FEW250 FM221900 25007KT
                       P6SM SCT250 FM230300 35006KT P6SM SCT250=
202106220523 TAF KPAE 220523Z 2206/2306 36004KT P6SM SKC FM221800 25007KT P6SM
                       SCT250 FM230400 35006KT P6SM SCT250=
202106212320 TAF KPAE 212320Z 2200/2224 33007KT P6SM SKC FM220900 VRB04KT P6SM
                       SCT250 FM221400 19006KT P6SM SCT250 FM221800
                       25007KT P6SM SCT250=
202106211720 TAF KPAE 211720Z 2118/2218 33007KT P6SM SKC FM220900 VRB04KT P6SM
                       SCT250 FM221400 19006KT P6SM SCT250=
202106211121 TAF KPAE 211121Z 2112/2212 36004KT P6SM SKC FM211800 33009KT P6SM
                       SKC FM220900 VRB04KT P6SM SCT250=
202106210522 TAF KPAE 210522Z 2106/2206 01004KT P6SM FEW250 FM211800 33009KT
                       P6SM SKC=
202106202320 TAF KPAE 202320Z 2100/2124 35008KT P6SM SKC FM210400 VRB03KT P6SM
                       SKC FM211800 33005KT P6SM SKC=
202106201720 TAF KPAE 201720Z 2018/2118 35008KT P6SM SKC FM210400 VRB03KT P6SM
                       SKC=
202106201412 KPAE 201412Z 2014/2112 35005KT P6SM SCT005
                      TEMPO 2014/2016 BKN002 FM201600 35008KT P6SM
                       SKC FM210800 VRB03KT P6SM SKC=
202106201338 KPAE 201338Z 2014/2112 35005KT P6SM BKN002 FM201600 35008KT P6SM
                       SKC FM210800 VRB03KT P6SM SKC=
202106201128 TAF KPAE 201128Z 2012/2112 36005KT P6SM FEW050 FM201300 VRB03KT
                       P6SM OVC012 FM201600 35004KT P6SM SCT020
                       FM201800 35008KT P6SM SKC FM210800 VRB03KT
                       P6SM SKC=
202106200521 TAF KPAE 200521Z 2006/2106 36005KT P6SM OVC050 FM201000 VRB03KT
                       P6SM OVC012 FM201700 35004KT P6SM SCT020
                       FM201900 35008KT P6SM SKC=
202106192320 TAF KPAE 192320Z 2000/2024 35007KT P6SM SCT040 BKN250
                      TEMPO 2000/2004 OVC040 FM200600 VRB03KT P6SM
                       BKN250 FM201000 VRB03KT P6SM OVC020 FM201600
                       35004KT P6SM SCT025 SCT250 FM202000 35006KT
                       P6SM SCT250=
202106191720 TAF KPAE 191720Z 1918/2018 33005KT P6SM SCT090 BKN250 FM192100
                       32005KT P6SM BKN250 FM200000 35007KT P6SM
                       BKN250 FM200600 VRB03KT P6SM BKN250 FM201000
                       VRB03KT P6SM OVC020 FM201600 35004KT P6SM
                       SCT025 SCT250=
202106191123 TAF KPAE 191123Z 1912/2012 01004KT P6SM BKN008
                      TEMPO 1912/1913 BKN008 FM191500 VRB04KT P6SM
                       SCT200 FM191800 29005KT P6SM BKN250 FM192100
                       32005KT P6SM BKN250 FM200000 33006KT P6SM
                       BKN250=
202106190522 TAF KPAE 190522Z 1906/2006 35009KT P6SM FEW070 FM190800 01004KT
                       P6SM SCT200 FM191800 29005KT P6SM BKN250
                       FM192100 32005KT P6SM BKN100=
202106182339 TAF KPAE 182339Z 1900/1924 35009KT P6SM SCT250 FM190800 01004KT
                       P6SM SCT200 FM191800 29005KT P6SM BKN100=
202106181729 TAF KPAE 181729Z 1818/1918 02008KT P6SM SCT250 FM182100 35007KT
                       P6SM SCT200 FM190800 01004KT P6SM SCT200=
202106181120 TAF KPAE 181120Z 1812/1912 02007KT P6SM SKC FM181300 01004KT P6SM
                       SKC
                      TEMPO 1813/1816 SCT020 FM181700 32003KT P6SM
                       SCT200 FM182100 35007KT P6SM SCT200 FM190600
                       01004KT P6SM SCT200=
202106180537 TAF KPAE 180537Z 1806/1906 01008KT P6SM SCT200 FM180900 01004KT
                       P6SM SCT200
                      TEMPO 1813/1816 SCT010 FM181700 32003KT P6SM
                       SKC FM182100 35007KT P6SM BKN200=
202106172327 TAF KPAE 172327Z 1800/1824 VRB06KT P6SM SKC FM180900 01004KT P6SM
                       SCT200 FM181700 34003KT P6SM SKC=
202106171727 TAF KPAE 171727Z 1718/1818 01005KT P6SM SKC FM172100 33008KT P6SM
                       SKC FM180800 01004KT P6SM SCT200 FM181700
                       34003KT P6SM SKC=
202106171120 TAF KPAE 171120Z 1712/1812 36003KT P6SM SKC FM171800 36005KT P6SM
                       SKC FM180700 01004KT P6SM SCT200=
202106170532 TAF KPAE 170532Z 1706/1806 34008KT P6SM SKC FM170900 00000KT P6SM
                       SKC FM171800 33005KT P6SM SKC=
202106162327 TAF KPAE 162327Z 1700/1724 34008KT P6SM SKC FM170600 00000KT P6SM
                       SKC FM171800 33005KT P6SM SKC=
202106161721 TAF KPAE 161721Z 1618/1718 VRB04KT P6SM SCT040 FM162100 34008KT
                       P6SM SKC=
202106161318 KPAE 161318Z 1613/1712 VRB04KT P6SM SCT015 BKN040 FM161600 VRB04KT
                       P6SM SCT040 FM162100 34008KT P6SM SKC=
202106161126 TAF KPAE 161126Z 1612/1712 VRB04KT P6SM BKN015 OVC035 FM161700
                       VRB04KT P6SM SCT015 BKN035 FM161900 VRB04KT
                       P6SM SCT040 FM162100 34008KT P6SM SKC=
202106160537 TAF KPAE 160537Z 1606/1706 24006KT P6SM SCT050 FM161100 VRB04KT
                       P6SM BKN018 FM161700 VRB04KT P6SM SCT030
                       FM162100 34008KT P6SM SKC=
202106152320 TAF KPAE 152320Z 1600/1624 22012KT P6SM VCSH BKN050 BKN090 FM160600
                       27007KT P6SM SCT050 FM161200 VRB04KT P6SM
                       BKN018 FM161800 VRB04KT P6SM SCT030=
202106151720 TAF KPAE 151720Z 1518/1618 18012KT P6SM SCT030 BKN050 BKN200
                      TEMPO 1518/1522 BKN028 BKN050 FM152200 21010KT
                       P6SM -SHRA BKN030 BKN050 FM160200 24008KT
                       P6SM BKN050 FM161100 VRB04KT P6SM BKN025
                       FM161700 VRB04KT P6SM SCT030=
202106151133 TAF KPAE 151133Z 1512/1612 15006KT P6SM BKN050 BKN250 FM152200
                       19006KT P6SM -SHRA SCT025 OVC040 FM160200
                       19006KT P6SM BKN050 FM160600 24006KT P6SM
                       -SHRA BKN020 OVC035=
202106150533 TAF KPAE 150533Z 1506/1606 VRB03KT P6SM BKN050 FM151000 VRB03KT
                       P6SM SCT050 FM151400 18006KT P6SM BKN040
                       FM152100 18006KT P6SM -SHRA BKN040 BKN060
                       FM160100 20006KT P6SM BKN050 FM160500 24006KT
                       P6SM -SHRA BKN025 OVC040=
202106142326 TAF KPAE 142326Z 1500/1524 19008KT P6SM -SHRA SCT050 OVC100 FM150300
                       18004KT P6SM SCT050 OVC100 FM151200 18005KT
                       5SM BR SCT005 OVC015 FM151900 22008KT P6SM
                       VCTS BKN050CB=
202106141901 KPAE 141901Z 1419/1518 23006KT P6SM -SHRA SCT009 OVC025
                      TEMPO 1419/1421 1SM -SHRA BR BKN002 OVC009
                       FM142100 19008KT P6SM -SHRA OVC035 FM150300
                       18004KT P6SM OVC100 FM151100 18005KT 5SM
                       BR SCT015 OVC025=
202106141734 TAF KPAE 141734Z 1418/1518 VRB03KT 3SM BR VCSH OVC002 FM141900
                       23006KT P6SM VCSH SCT009 OVC015 FM142100
                       19008KT P6SM -SHRA OVC035 FM150300 18004KT
                       P6SM OVC100 FM151100 18005KT 5SM BR SCT015
                       OVC025=
202106141245 KPAE 141245Z 1413/1512 18005KT P6SM FEW005 BKN025 OVC040
                      TEMPO 1413/1414 1/2SM FG FM141400 19005KT
                       6SM BR VCSH OVC009 FM142100 19008KT P6SM
                       VCSH OVC030 FM150300 18004KT P6SM OVC100
                       FM151000 18005KT P6SM BKN050=
202106141120 TAF KPAE 141120Z 1412/1512 18005KT P6SM FEW005 BKN025 OVC040 FM141400
                       19005KT 6SM BR VCSH OVC009 FM142100 19008KT
                       P6SM VCSH OVC030 FM150300 18004KT P6SM OVC100
                       FM151000 18005KT P6SM BKN050=
202106140835 KPAE 140835Z 1409/1506 18005KT P6SM FEW004 SCT027 BKN110 FM141400
                       VRB03KT 6SM -SHRA BR OVC009 FM142100 19008KT
                       P6SM -SHRA OVC030 FM150300 18004KT P6SM
                       OVC100=
202106140543 TAF KPAE 140543Z 1406/1506 20006KT P6SM FEW004 OVC110 FM141400
                       VRB03KT 6SM -SHRA BR OVC009 FM142100 19008KT
                       P6SM -SHRA OVC030 FM150300 18004KT P6SM
                       OVC100=
202106132324 TAF KPAE 132324Z 1400/1424 VRB04KT 3SM -RA FEW015 OVC060 FM140500
                       VRB04KT 6SM -SHRA OVC050 FM141400 VRB03KT
                       P6SM -SHRA OVC020 FM142100 19008KT P6SM
                       -SHRA OVC040=
202106131733 TAF KPAE 131733Z 1318/1418 18008KT P6SM -RA BKN015 OVC030 FM132000
                       18010KT 6SM -RA OVC025 FM140200 17008KT
                       P6SM -SHRA SCT020 OVC050 FM140800 16004KT
                       P6SM -SHRA OVC020=
202106131317 KPAE 131317Z 1313/1412 18008KT P6SM -RA BKN015 OVC030 FM132000
                       18008KT 3SM -RA BR SCT004 BKN008 OVC015
                       FM140200 18008KT P6SM -SHRA SCT020 BKN040
                       OVC060 FM140800 18008KT P6SM -SHRA BKN012
                       OVC020=
202106131140 TAF KPAE 131140Z 1312/1412 15008KT P6SM -RA OVC070 FM131700 15008KT
                       P6SM -RA OVC040 FM132000 15008KT 3SM -RA
                       BR SCT004 BKN008 OVC015 FM140200 18008KT
                       P6SM -SHRA SCT020 BKN040 OVC060 FM140800
                       18008KT P6SM -SHRA BKN012 OVC020=
202106130930 KPAE 130930Z 1310/1406 15008KT P6SM -RA OVC070 FM131300 15008KT
                       P6SM -RA OVC040 FM131800 15008KT 3SM -RA
                       BR SCT005 BKN010 OVC020 FM132200 18008KT
                       P6SM VCSH BKN012 OVC022 FM140200 18008KT
                       P6SM -SHRA SCT020 BKN040 OVC060=
202106130529 TAF KPAE 130529Z 1306/1406 24006KT P6SM -RA OVC070 FM130900 19006KT
                       P6SM -RA OVC040 FM131300 15008KT 5SM -RA
                       BR SCT010 OVC020 FM131600 15008KT 3SM -RA
                       BR SCT005 BKN010 OVC020 FM132200 18008KT
                       P6SM VCSH BKN012 OVC022 FM140200 18008KT
                       P6SM -SHRA SCT020 BKN040 OVC060=
202106122334 TAF KPAE 122334Z 1300/1324 25008KT P6SM SCT040 BKN200 FM130200
                       34006KT P6SM BKN120 OVC200 FM130500 16006KT
                       P6SM -RA BKN040 OVC070 FM131100 15006KT
                       5SM -RA OVC025 FM131500 12005KT 3SM -RA
                       BR SCT008 OVC010 FM132200 20007KT 6SM -SHRA
                       BR SCT010 OVC020=
202106121724 TAF KPAE 121724Z 1218/1318 21008KT P6SM SCT040 BKN200 FM130200
                       33006KT P6SM BKN120 OVC200 FM130500 17006KT
                       P6SM -RA BKN040 OVC070 FM131000 15006KT
                       4SM -RA OVC025 FM131500 12005KT 3SM -RA
                       BR SCT008 OVC010=
202106121139 TAF KPAE 121139Z 1212/1312 15006KT P6SM SCT035 BKN050 FM121900
                       22006KT P6SM SCT050 BKN200 FM130000 34006KT
                       P6SM BKN100 OVC200 FM130600 VRB03KT P6SM
                       -RA OVC040=
202106120532 TAF KPAE 120532Z 1206/1306 VRB03KT P6SM -SHRA BKN035 OVC060 FM120900
                       VRB03KT P6SM SCT035 BKN060 FM121900 22006KT
                       P6SM SCT060 SCT200 FM130000 34006KT P6SM
                       SCT050 BKN200 FM130500 34006KT P6SM BKN080
                       OVC200=
202106112337 TAF KPAE 112337Z 1200/1224 17007KT P6SM VCSH SCT010 BKN040 OVC060
                       FM120400 17005KT P6SM VCSH OVC040 FM120900
                       16006KT P6SM OVC035 FM121900 18006KT P6SM
                       SCT040 BKN200 FM122200 22006KT P6SM SCT050
                       SCT200=
202106111720 TAF KPAE 111720Z 1118/1218 20012KT P6SM -SHRA BKN050 OVC080 FM112100
                       19010G18KT P6SM -SHRA BKN035 OVC050 FM120100
                       19009KT P6SM VCSH OVC040 FM120900 14005KT
                       P6SM OVC035=
202106111120 TAF KPAE 111120Z 1112/1212 11007KT P6SM OVC110 FM111400 13006KT
                       P6SM SCT040 OVC100 FM111700 17012KT P6SM
                       BKN035 OVC050 FM120000 19009KT P6SM OVC050
                       FM120600 14005KT P6SM OVC050=
202106110525 TAF KPAE 110525Z 1106/1206 16006KT P6SM SKC FM110900 16006KT P6SM
                       SCT040 OVC100 FM111700 17012KT P6SM BKN035
                       OVC050 FM120000 19009KT P6SM OVC050=
202106102327 TAF KPAE 102327Z 1100/1124 18005KT P6SM SCT030 BKN050 BKN200 FM110400
                       18005KT P6SM SCT050 OVC200 FM110900 16006KT
                       P6SM SCT040 OVC100 FM111700 17012G20KT P6SM
                       -SHRA BKN035 OVC050=
202106101734 TAF KPAE 101734Z 1018/1118 18007KT P6SM SCT022 BKN035 BKN060
                      TEMPO 1018/1020 BKN018 FM102000 23008KT P6SM
                       SCT030 BKN050 FM110100 18005KT P6SM OVC100
                       FM110900 16006KT P6SM BKN050 OVC090=
202106101121 TAF KPAE 101121Z 1012/1112 33004KT P6SM FEW050 OVC070 FM101500
                       18007KT P6SM BKN035 BKN080 FM102000 21010KT
                       P6SM BKN050 FM110300 18005KT P6SM OVC100=
202106100522 TAF KPAE 100522Z 1006/1106 34006KT P6SM SCT070 FM101000 VRB04KT
                       P6SM SCT025 BKN120 FM101500 18007KT P6SM
                       BKN035 BKN080 FM102000 21010KT P6SM BKN050
                       FM110000 21008KT P6SM OVC100=
202106092322 TAF KPAE 092322Z 1000/1024 30006KT P6SM SCT050 FM100200 36006KT
                       P6SM SCT050 FM101000 VRB04KT P6SM SCT025
                       BKN200 FM101500 18007KT P6SM BKN035 BKN080
                       FM102000 21010KT P6SM SCT050 BKN200=
202106091724 TAF KPAE 091724Z 0918/1018 23007KT P6SM SCT025 SCT060 FM092200
                       25006KT P6SM VCSH BKN045 BKN100 FM100200
                       36006KT P6SM SCT050 SCT100 FM101100 18006KT
                       P6SM SCT020 BKN200 FM101500 18008KT P6SM
                       BKN035 BKN080=
202106091120 TAF KPAE 091120Z 0912/1012 18006KT P6SM SCT018 BKN060
                      TEMPO 0912/0915 BKN018 BKN060 FM091800 22007KT
                       P6SM SCT030 BKN100 FM100000 VRB04KT P6SM
                       VCSH BKN050 BKN100 FM100600 VRB04KT P6SM
                       SCT050 SCT100 FM101100 18006KT P6SM SCT020
                       BKN200=
202106090520 TAF KPAE 090520Z 0906/1006 11003KT P6SM BKN070 FM091300 18005KT
                       P6SM BKN050 FM091900 25006KT P6SM SCT100=
202106082320 TAF KPAE 082320Z 0900/0924 30007KT P6SM SCT050 SCT100 FM090600
                       VRB04KT P6SM BKN100 FM091300 18005KT P6SM
                       BKN050 FM091900 25006KT P6SM SCT100=
202106081721 TAF KPAE 081721Z 0818/0918 VRB03KT P6SM BKN090 FM082300 32005KT
                       P6SM VCSH BKN060 BKN120 FM090600 18006KT
                       P6SM BKN100 FM091300 18005KT P6SM BKN050=
202106081120 TAF KPAE 081120Z 0812/0912 VRB03KT P6SM BKN090 FM081600 VRB03KT
                       P6SM SCT150 FM090200 VRB03KT P6SM BKN060
                       BKN150 FM090600 18006KT P6SM SCT150=
202106080538 TAF KPAE 080538Z 0806/0906 35006KT P6SM BKN150=
202106072338 TAF KPAE 072338Z 0800/0824 29006KT P6SM SCT035 BKN045 BKN060 FM080100
                       34004KT P6SM SCT050 BKN100 FM080300 01002KT
                       P6SM SCT050 BKN100 FM081200 01002KT P6SM
                       SCT040 BKN050 FM081800 33003KT P6SM BKN100=
202106071734 TAF KPAE 071734Z 0718/0818 18008KT P6SM VCSH SCT016 BKN020 OVC035
                       FM072000 22006KT P6SM SCT025 BKN040 FM080100
                       27004KT P6SM SCT050 BKN100 FM080300 34002KT
                       P6SM SCT050 BKN100 FM081200 36003KT P6SM
                       OVC050=
202106071137 TAF KPAE 071137Z 0712/0812 16006KT P6SM -SHRA SCT015 BKN025 OVC040
                       FM071800 18008KT P6SM SCT025 BKN040 FM080100
                       34008KT P6SM SCT050 BKN100=
202106070540 TAF KPAE 070540Z 0706/0806 16010KT P6SM SCT010 OVC080 FM070800
                       16010KT P6SM -SHRA BKN020 OVC040 FM071200
                       16006KT P6SM SCT008 BKN014 OVC020 FM071800
                       24006KT P6SM SCT025 BKN040 FM080100 34008KT
                       P6SM SCT050 BKN100=
202106062339 TAF KPAE 062339Z 0700/0724 17012KT P6SM -RA BKN017 BKN025 OVC060
                       FM070100 18011KT 4SM -RA FEW020 OVC035 FM070400
                       19012KT P6SM -SHRA SCT020 BKN035 BKN050
                       FM071000 19012KT P6SM -SHRA BKN020 OVC030
                       FM071200 17004KT P6SM OVC015 FM072000 24005KT
                       P6SM BKN050=
202106061728 TAF KPAE 061728Z 0618/0718 17006KT P6SM BKN018 BKN025 FM061900
                       17012KT P6SM -RA SCT020 OVC030 FM062100
                       17012KT 4SM -RA OVC020 FM070400 19012KT
                       P6SM -SHRA SCT020 BKN035 BKN050 FM071000
                       19012KT P6SM BKN020 OVC030 FM071200 17004KT
                       P6SM OVC015=
202106061132 TAF KPAE 061132Z 0612/0712 13006KT P6SM -SHRA OVC035 FM061500 17006KT
                       P6SM SCT035 BKN060 BKN100 FM061900 17010KT
                       P6SM -RA OVC040 FM062200 17010KT 4SM -RA
                       OVC020 FM070400 19012KT P6SM -SHRA SCT020
                       BKN035 BKN050 FM071000 19012KT P6SM BKN020
                       OVC030=
202106060541 TAF KPAE 060541Z 0606/0706 VRB03KT P6SM -SHRA OVC035 FM061300 17006KT
                       P6SM SCT035 BKN060 BKN100 FM061900 17010KT
                       P6SM -RA OVC040 FM062200 17010KT 4SM -RA
                       OVC020 FM070400 19012KT P6SM -SHRA SCT020
                       BKN035 BKN050=
202106052339 TAF KPAE 052339Z 0600/0624 01009KT P6SM -RA SCT010 OVC035 FM060400
                       06010KT P6SM SCT010 BKN040 OVC060 FM060500
                       18008KT P6SM OVC050 FM061200 17006KT P6SM
                       OVC035 FM062200 20010KT 4SM -RA OVC025=
202106052111 KPAE 052111Z 0521/0618 35007KT P6SM -SHRA SCT010 BKN040 OVC060
                       FM060500 19010KT P6SM OVC050 FM061200 17007KT
                       P6SM OVC020=
202106052018 KPAE 052018Z 0520/0618 34006KT 4SM RA BR BKN004 BKN035 OVC040 FM052200
                       29010G20KT 5SM -RA SCT030 OVC050 FM060500
                       19010KT P6SM OVC050 FM061200 17007KT P6SM
                       OVC020=
202106051724 TAF KPAE 051724Z 0518/0618 VRB03KT P6SM -SHRA BKN009 OVC020 FM052000
                       30008KT P6SM BKN030 FM052100 29010G20KT
                       5SM -RA SCT030 OVC050 FM060500 19010KT P6SM
                       OVC050 FM061200 17007KT P6SM OVC020=
202106051121 TAF KPAE 051121Z 0512/0612 18011KT P6SM -SHRA OVC020 FM052000 29010G20KT
                       5SM -RA SCT030 OVC050 FM060500 19008KT P6SM
                       OVC050=
202106050522 TAF KPAE 050522Z 0506/0606 22005KT P6SM OVC090 FM050700 17008KT
                       P6SM OVC070 FM050800 17008KT P6SM OVC035
                       FM051100 18011KT 5SM -SHRA OVC020 FM052100
                       29010G20KT P6SM -SHRA OVC050=
202106042338 TAF KPAE 042338Z 0500/0524 22005KT P6SM FEW080 BKN120 FM050700
                       17008KT P6SM OVC070 FM050800 17008KT P6SM
                       OVC035 FM051200 18011KT 5SM -SHRA OVC020
                       FM052100 26010G20KT P6SM -SHRA OVC050=
202106041738 TAF KPAE 041738Z 0418/0518 24008KT P6SM OVC050 FM041900 22008KT
                       P6SM BKN120 FM050700 17012KT P6SM OVC035
                       FM051100 18011KT P6SM -SHRA OVC025=
202106041243 KPAE 041243Z 0413/0512 07003KT P6SM BKN025 BKN050 FM041700 24008KT
                       P6SM BKN120 FM050700 17011KT P6SM OVC035=
202106041128 TAF KPAE 041128Z 0412/0512 13005KT P6SM SCT050 FM041700 24008KT
                       P6SM BKN120 FM050700 17011KT P6SM OVC035=
202106040524 TAF KPAE 040524Z 0406/0506 01008KT P6SM SKC FM041200 18008KT P6SM
                       BKN120 FM041900 24008KT P6SM BKN120=
202106032340 TAF KPAE 032340Z 0400/0424 36010KT P6SM SCT250 FM040600 01008KT
                       P6SM SKC FM041200 18008KT P6SM BKN120 FM041900
                       24008KT P6SM BKN120=
202106031738 TAF KPAE 031738Z 0318/0418 26006KT P6SM FEW060 FM032300 33010KT
                       P6SM SKC FM040600 01008KT P6SM SKC FM041500
                       18008KT P6SM BKN120=
202106031135 TAF KPAE 031135Z 0312/0412 05006KT P6SM SKC FM031300 VRB03KT P6SM
                       SCT010 BKN045 FM031800 26006KT P6SM SCT045
                       FM032300 35012KT P6SM SKC=
202106030534 TAF KPAE 030534Z 0306/0406 36010KT P6SM SCT250 FM030700 02006KT
                       P6SM SKC FM031100 17006KT P6SM SKC FM031300
                       18006KT P6SM OVC008 FM031700 23006KT P6SM
                       BKN012 BKN030 FM031900 26006KT P6SM SCT040
                       FM032300 35012KT P6SM SKC=
202106022320 TAF KPAE 022320Z 0300/0324 36010G17KT P6SM FEW250 FM030700 02006KT
                       P6SM SKC FM031200 17006KT P6SM SKC FM031500
                       18006KT P6SM OVC010 FM031800 23006KT P6SM
                       BKN015 BKN030 FM032000 26007KT P6SM SCT040=
202106021720 TAF KPAE 021720Z 0218/0318 29005KT P6SM SKC FM022100 35008KT P6SM
                       SKC FM031100 17006KT P6SM SKC=
202106021126 TAF KPAE 021126Z 0212/0312 VRB03KT P6SM SKC FM022100 35006KT P6SM
                       SKC FM031100 17006KT P6SM SKC=
202106020539 TAF KPAE 020539Z 0206/0306 36006KT P6SM SKC FM021500 VRB03KT P6SM
                       SKC FM022100 35006KT P6SM SCT250=
202106012324 TAF KPAE 012324Z 0200/0224 36006KT P6SM SKC FM020700 VRB03KT P6SM
                       SKC FM021500 29005KT P6SM SKC FM022100 30006KT
                       P6SM SCT250=
202106011725 TAF KPAE 011725Z 0118/0218 36006KT P6SM SKC FM021500 29005KT P6SM
                       SKC=
202106011124 TAF KPAE 011124Z 0112/0212 36006KT P6SM SCT250=
202106010522 TAF KPAE 010522Z 0106/0206 36006KT P6SM SCT250=