##########################################################
# Query made at 02/15/2025 22:35:50 UTC
# Time interval: from 11/01/2021 00:00  to 11/30/2021 23:59  UTC
##########################################################

##########################################################
# KPAE, Everett, Snohomish County Airport (United States)
# WMO index: -----. WIGOS ID: Unknown
# Latitude 47-55-23N. Longitude 122-16-57W. Altitude 184 m.
##########################################################

###################################
#  METAR/SPECI from KPAE
###################################
202111302353 METAR KPAE 302353Z 17016G26KT 10SM BKN018 OVC070 11/09 A3018 RMK AO2 PK WND 16027/2318 RAE2257 SLP221 P0000 60004 T01110089 10117 20100 53009=
202111302253 METAR KPAE 302253Z 18020G26KT 10SM -RA BKN017 BKN055 OVC075 11/09 A3015 RMK AO2 PK WND 19031/2156 RAB38 SLP211 P0001 T01110089=
202111302153 METAR KPAE 302153Z 17019G32KT 10SM OVC017 11/08 A3013 RMK AO2 PK WND 18032/2153 RAE2056B18E47 SLP204 P0000 T01110083=
202111302053 METAR KPAE 302053Z 17014G28KT 10SM -RA OVC008 11/09 A3015 RMK AO2 PK WND 18030/2039 RAB1957 SLP212 P0000 60003 T01060089 58012=
202111302028 SPECI KPAE 302028Z 16016G26KT 10SM -RA OVC008 11/09 A3016 RMK AO2 PK WND 16027/1957 RAB1957 P0000 T01060089=
202111301953 METAR KPAE 301953Z 18022G29KT 10SM OVC011 11/08 A3017 RMK AO2 PK WND 18034/1915 RAE52 SLP216 P0002 T01060083=
202111301853 METAR KPAE 301853Z 17019G32KT 10SM -RA SCT014 BKN019 OVC070 11/08 A3018 RMK AO2 PK WND 19032/1845 SLP222 P0001 T01060083=
202111301808 SPECI KPAE 301808Z 19016G24KT 5SM -RA BR SCT015 BKN022 OVC055 10/08 A3020 RMK AO2 PK WND 17026/1756 P0000 T01000083=
202111301753 METAR KPAE 301753Z 18018G27KT 7SM -RA FEW024 BKN060 OVC070 11/07 A3019 RMK AO2 PK WND 21032/1733 RAB06 SLP223 P0000 60001 T01060072 10117 20100 53024=
202111301653 METAR KPAE 301653Z 18014KT 10SM OVC065 10/08 A3017 RMK AO2 PK WND 19032/1555 RAE52 SLP217 P0001 T01000078=
202111301553 METAR KPAE 301553Z 19024G36KT 10SM -RA OVC070 11/07 A3013 RMK AO2 PK WND 18037/1505 RAB47 SLP205 P0000 T01110072=
202111301453 METAR KPAE 301453Z 19022G30KT 10SM FEW060 OVC080 11/08 A3012 RMK AO2 PK WND 19035/1357 RAB1356E02 SLP199 P0000 60000 T01110078 53007=
202111301353 METAR KPAE 301353Z AUTO 17020G33KT 10SM OVC080 12/09 A3009 RMK AO2 PK WND 17033/1350 SLP190 T01170089=
202111301253 METAR KPAE 301253Z AUTO 17014G24KT 10SM SCT055 BKN070 OVC085 12/10 A3011 RMK AO2 PK WND 17027/1155 SLP196 T01170100=
202111301153 METAR KPAE 301153Z AUTO 16017G25KT 10SM FEW007 BKN080 OVC095 12/10 A3009 RMK AO2 PK WND 18027/1143 SLP191 T01170100 10122 20117 58013=
202111301111 SPECI KPAE 301111Z AUTO 17015G25KT 10SM SCT005 OVC100 12/11 A3011 RMK AO2 PK WND 15026/1056 T01170106=
202111301053 METAR KPAE 301053Z AUTO 16016G25KT 10SM BKN006 OVC100 12/11 A3013 RMK AO2 PK WND 15029/1037 CIG 003V010 SLP205 T01170106=
202111301049 SPECI KPAE 301049Z AUTO 17015G25KT 10SM BKN006 OVC100 12/11 A3014 RMK AO2 PK WND 15029/1037 CIG 003V010=
202111300953 METAR KPAE 300953Z AUTO 16016KT 10SM FEW007 SCT032 OVC100 12/11 A3013 RMK AO2 SLP204 T01170106=
202111300853 METAR KPAE 300853Z AUTO 16011KT 10SM FEW009 BKN034 OVC041 12/11 A3017 RMK AO2 SLP217 T01220106 58004=
202111300836 SPECI KPAE 300836Z AUTO 17010G20KT 10SM FEW011 BKN033 OVC040 12/11 A3017 RMK AO2 T01220106=
202111300824 SPECI KPAE 300824Z AUTO 16013G21KT 10SM SCT011 BKN028 OVC035 12/11 A3016 RMK AO2 T01220106=
202111300810 SPECI KPAE 300810Z AUTO 17013G22KT 10SM BKN011 OVC110 12/11 A3017 RMK AO2 T01220106=
202111300753 METAR KPAE 300753Z AUTO 17014G20KT 10SM SCT008 OVC120 12/11 A3017 RMK AO2 SLP217 T01220106 401280106=
202111300745 SPECI KPAE 300745Z AUTO 17012KT 10SM SCT008 OVC120 12/11 A3017 RMK AO2 T01220106=
202111300721 SPECI KPAE 300721Z AUTO 17014G21KT 10SM BKN009 OVC120 12/11 A3018 RMK AO2 T01220106=
202111300711 SPECI KPAE 300711Z AUTO 18016G24KT 10SM BKN010 BKN055 OVC120 12/10 A3018 RMK AO2 T01220100=
202111300653 METAR KPAE 300653Z AUTO 18016G23KT 10SM FEW010 SCT055 OVC110 12/10 A3019 RMK AO2 SLP225 T01220100=
202111300553 METAR KPAE 300553Z AUTO 17016G27KT 10SM SCT016 12/09 A3018 RMK AO2 PK WND 17027/0547 SLP221 T01220094 10122 20117 57011=
202111300453 METAR KPAE 300453Z AUTO 16009KT 10SM BKN028 BKN035 OVC046 12/09 A3019 RMK AO2 SLP225 T01220094=
202111300353 METAR KPAE 300353Z 15010KT 10SM FEW036 12/09 A3020 RMK AO2 SLP229 T01220094=
202111300253 METAR KPAE 300253Z 16009KT 10SM CLR 12/09 A3021 RMK AO2 SLP232 T01220089 56004=
202111300153 METAR KPAE 300153Z 17012KT 10SM CLR 12/09 A3022 RMK AO2 SLP233 T01220089=
202111300053 METAR KPAE 300053Z 18013KT 10SM FEW043 12/09 A3021 RMK AO2 SLP231 T01220089=
202111292353 METAR KPAE 292353Z 16008KT 10SM SCT017 12/09 A3023 RMK AO2 SLP237 T01220094 10128 20117 56002=
202111292253 METAR KPAE 292253Z 16009KT 10SM OVC021 13/09 A3023 RMK AO2 SLP238 T01280094=
202111292153 METAR KPAE 292153Z 15006KT 10SM BKN012 OVC018 12/10 A3023 RMK AO2 SLP237 T01220100=
202111292055 SPECI KPAE 292055Z 15007KT 10SM BKN012 OVC018 12/10 A3023 RMK AO2 T01220100=
202111292053 METAR KPAE 292053Z 16007KT 10SM OVC008 12/10 A3023 RMK AO2 SLP239 T01220100 50003=
202111291953 METAR KPAE 291953Z 18008KT 10SM BKN007 12/10 A3025 RMK AO2 SLP244 T01170100=
202111291853 METAR KPAE 291853Z 20007KT 10SM BKN007 12/10 A3025 RMK AO2 SLP245 T01170100=
202111291753 METAR KPAE 291753Z 16010KT 10SM BKN007 12/10 A3022 RMK AO2 SLP235 T01170100 10117 20106 51013=
202111291707 SPECI KPAE 291707Z 17005KT 10SM BKN007 11/10 A3022 RMK AO2 T01110100=
202111291700 SPECI KPAE 291700Z 18009KT 10SM BKN012 11/10 A3022 RMK AO2 T01110100=
202111291653 METAR KPAE 291653Z 17008KT 10SM BKN007 11/10 A3022 RMK AO2 SLP234 T01110100=
202111291553 METAR KPAE 291553Z 18004KT 10SM BKN007 OVC013 11/10 A3022 RMK AO2 SLP233 T01110100=
202111291544 SPECI KPAE 291544Z 00000KT 10SM BKN007 OVC013 11/10 A3021 RMK AO2 T01110100=
202111291535 SPECI KPAE 291535Z 15003KT 10SM SCT007 BKN012 11/10 A3021 RMK AO2 T01110100=
202111291527 SPECI KPAE 291527Z 16004KT 10SM SCT008 SCT014 11/10 A3020 RMK AO2 T01110100=
202111291500 SPECI KPAE 291500Z 15008KT 10SM FEW015 11/10 A3018 RMK AO2 T01110100=
202111291453 METAR KPAE 291453Z 15010KT 10SM BKN015 11/10 A3018 RMK AO2 SLP222 T01110100 53007=
202111291422 SPECI KPAE 291422Z AUTO 16007KT 10SM BKN015 BKN020 11/10 A3019 RMK AO2 T01060100=
202111291353 METAR KPAE 291353Z AUTO 15010KT 10SM FEW120 11/10 A3017 RMK AO2 SLP216 T01110100=
202111291326 SPECI KPAE 291326Z AUTO 15010KT 10SM SCT010 11/09 A3017 RMK AO2 T01110094=
202111291305 SPECI KPAE 291305Z AUTO 15010KT 10SM BKN010 OVC014 11/10 A3018 RMK AO2 CIG 007V012 T01110100=
202111291253 METAR KPAE 291253Z AUTO 16006KT 10SM BKN008 OVC013 11/10 A3018 RMK AO2 CIG 007V011 SLP220 T01110100=
202111291153 METAR KPAE 291153Z AUTO 16008KT 10SM OVC009 11/10 A3016 RMK AO2 CIG 006V012 SLP215 70036 T01110100 10111 20106 58005=
202111291137 SPECI KPAE 291137Z AUTO 16009KT 10SM OVC009 11/10 A3017 RMK AO2 CIG 006V013 T01110100=
202111291059 SPECI KPAE 291059Z AUTO 16007KT 10SM FEW008 OVC014 11/10 A3019 RMK AO2 T01110100=
202111291053 METAR KPAE 291053Z AUTO 16009KT 10SM BKN015 11/10 A3019 RMK AO2 SLP223 T01110100=
202111291024 SPECI KPAE 291024Z AUTO 17008KT 10SM SCT009 BKN015 11/10 A3019 RMK AO2 T01060100=
202111291013 SPECI KPAE 291013Z AUTO 18009KT 10SM BKN010 11/10 A3019 RMK AO2 CIG 006V012 T01110100=
202111290957 SPECI KPAE 290957Z AUTO 17008KT 10SM FEW008 SCT011 11/10 A3018 RMK AO2 T01060100=
202111290953 METAR KPAE 290953Z AUTO 17008KT 10SM BKN011 11/10 A3018 RMK AO2 SLP220 T01060100=
202111290853 METAR KPAE 290853Z AUTO 17008KT 10SM OVC010 11/10 A3018 RMK AO2 CIG 005V015 SLP220 T01110100 50002=
202111290837 SPECI KPAE 290837Z AUTO 18008KT 10SM OVC010 11/10 A3018 RMK AO2 CIG 006V013 T01110100=
202111290817 SPECI KPAE 290817Z AUTO 18005KT 6SM BR BKN009 OVC013 11/11 A3018 RMK AO2 CIG 006V011 T01110106=
202111290753 METAR KPAE 290753Z AUTO 19008KT 10SM OVC012 11/10 A3018 RMK AO2 SLP221 T01110100 401390111=
202111290739 SPECI KPAE 290739Z AUTO 18006KT 10SM FEW005 BKN013 OVC019 11/11 A3018 RMK AO2 T01110106=
202111290722 SPECI KPAE 290722Z AUTO 18007KT 10SM FEW005 BKN016 OVC021 11/11 A3018 RMK AO2 T01110106=
202111290653 METAR KPAE 290653Z AUTO 19007KT 6SM BR SCT005 OVC014 11/11 A3018 RMK AO2 SLP221 T01110106=
202111290614 SPECI KPAE 290614Z AUTO 19008KT 3SM BR BKN005 OVC010 11/11 A3018 RMK AO2 T01110106=
202111290553 METAR KPAE 290553Z AUTO 19007KT 5SM BR OVC004 11/11 A3017 RMK AO2 RAE0456 SLP218 P0001 60006 T01110106 10122 20111 51008=
202111290517 SPECI KPAE 290517Z AUTO 19008KT 4SM BR OVC004 12/11 A3017 RMK AO2 RAE0456 P0001 T01170111=
202111290459 SPECI KPAE 290459Z AUTO 18008KT 2 1/2SM BR OVC005 12/11 A3016 RMK AO2 RAE56 P0001 T01170111=
202111290453 METAR KPAE 290453Z 18008KT 3SM -RA BR OVC003 12/11 A3016 RMK AO2 RAB46 SLP215 P0000 T01170111=
202111290400 SPECI KPAE 290400Z 19006KT 3SM BR OVC003 12/11 A3016 RMK AO2 T01170111=
202111290353 METAR KPAE 290353Z 18006KT 2SM BR OVC002 12/11 A3015 RMK AO2 RAE19 SLP211 P0001 T01170111=
202111290253 METAR KPAE 290253Z 19006KT 2SM -RA BR OVC003 12/11 A3015 RMK AO2 SLP208 P0002 60004 T01170111 51018=
202111290153 METAR KPAE 290153Z 21009KT 2SM -RA BR OVC002 12/11 A3013 RMK AO2 RAB06 SLP204 P0002 T01170111=
202111290121 SPECI KPAE 290121Z 21012KT 2 1/2SM -RA BR BKN005 OVC009 12/11 A3013 RMK AO2 RAB06 P0000 T01170111=
202111290053 METAR KPAE 290053Z 20009KT 10SM BKN005 OVC009 12/11 A3011 RMK AO2 SLP197 T01170111=
202111282353 METAR KPAE 282353Z 20016G24KT 10SM BKN005 OVC019 12/11 A3009 RMK AO2 SLP190 60027 T01220111 10122 20117 53009=
202111282253 METAR KPAE 282253Z 19016KT 10SM BKN005 OVC019 12/11 A3007 RMK AO2 RAE27 SLP182 P0001 T01220111=
202111282153 METAR KPAE 282153Z 19015KT 8SM -RA BKN008 BKN048 OVC070 12/11 A3006 RMK AO2 SLP180 P0008 T01170106=
202111282053 METAR KPAE 282053Z 19016G26KT 3SM -RA BR BKN008 OVC050 12/11 A3007 RMK AO2 PK WND 19029/2026 SLP181 P0009 60018 T01170106 50004=
202111282013 SPECI KPAE 282013Z 19020G29KT 1 3/4SM -RA BR BKN033 OVC045 12/11 A3006 RMK AO2 PK WND 20029/2004 P0003 T01170106=
202111282007 SPECI KPAE 282007Z 19020G29KT 3SM -RA BR SCT008 BKN032 OVC070 12/11 A3007 RMK AO2 PK WND 20029/2004 P0002 T01170106=
202111281959 SPECI KPAE 281959Z 19019G26KT 2SM -RA BR SCT008 BKN027 OVC047 12/11 A3007 RMK AO2 PK WND 19026/1955 P0001 T01170106=
202111281953 METAR KPAE 281953Z 19019KT 1 3/4SM -RA BR BKN033 OVC045 12/11 A3007 RMK AO2 PK WND 19030/1903 SLP183 P0006 T01170106=
202111281926 SPECI KPAE 281926Z 18019G25KT 1 3/4SM -RA BR BKN033 OVC045 12/11 A3007 RMK AO2 PK WND 19030/1903 P0003 T01170106=
202111281900 SPECI KPAE 281900Z 18018KT 2SM -RA BR BKN036 OVC045 12/11 A3006 RMK AO2 P0001 T01170106=
202111281853 METAR KPAE 281853Z 19017KT 2SM -RA BR SCT018 BKN024 OVC030 12/11 A3006 RMK AO2 PK WND 18029/1822 SLP179 P0003 T01170106=
202111281753 METAR KPAE 281753Z 19017G26KT 2SM R16R/6000VP6000FT -RA BR SCT018 BKN024 OVC030 12/10 A3005 RMK AO2 PK WND 20032/1739 RAB29 SLP177 P0001 60003 T01220100 10139 20122 53023=
202111281741 SPECI KPAE 281741Z 19022G32KT 2SM -RA BKN024 OVC041 13/09 A3005 RMK AO2 PK WND 20032/1739 RAB29 P0000 T01280094=
202111281700 SPECI KPAE 281700Z 18021G28KT 10SM OVC027 13/09 A3002 RMK AO2 PK WND 19028/1656 T01330089=
202111281653 METAR KPAE 281653Z 19019G35KT 10SM SCT027 13/09 A3002 RMK AO2 PK WND 18038/1602 SLP166 T01330089=
202111281553 METAR KPAE 281553Z 19027G38KT 10SM SCT027 13/09 A2999 RMK AO2 PK WND 20042/1536 SLP157 T01330094=
202111281453 METAR KPAE 281453Z 18025G39KT 10SM FEW025 SCT065 14/10 A2999 RMK AO2 PK WND 18041/1355 SLP154 60002 T01390100 50002=
202111281442 SPECI KPAE 281442Z 18024G38KT 10SM SCT025 BKN060 14/10 A2999 RMK AO2 PK WND 18041/1355 T01390100=
202111281413 SPECI KPAE 281413Z 18026G40KT 9SM FEW022 BKN027 OVC060 14/10 A2999 RMK AO2 PK WND 18041/1355 T01390100=
202111281353 METAR KPAE 281353Z 19022G35KT 10SM BKN032 BKN055 OVC070 14/11 A3000 RMK AO2 PK WND 19041/1324 RAE14 SLP157 P0001 T01390106=
202111281313 SPECI KPAE 281313Z 19027G39KT 8SM -RA FEW016 BKN032 OVC045 14/11 A3000 RMK AO2 PK WND 20039/1309 P0001 T01390106=
202111281253 METAR KPAE 281253Z 19025G34KT 4SM -RA BR FEW016 BKN027 OVC047 13/11 A3001 RMK AO2 PK WND 19039/1221 RAB08 SLP163 P0001 T01330111=
202111281153 METAR KPAE 281153Z 18021G38KT 6SM BR FEW013 SCT018 OVC024 13/12 A2998 RMK AO2 PK WND 18039/1128 RAB00E52 SLP153 P0000 60000 70017 T01330117 10139 20133 56003=
202111281053 METAR KPAE 281053Z 18021G35KT 9SM SCT019 BKN024 OVC029 13/12 A2999 RMK AO2 PK WND 18040/0957 RAB17E36 SLP157 P0000 T01330117=
202111280953 METAR KPAE 280953Z 17026G42KT 10SM BKN018 14/11 A2997 RMK AO2 PK WND 18042/0952 SLP149 T01390111=
202111280853 METAR KPAE 280853Z 17021G35KT 10SM BKN015 OVC023 14/11 A2999 RMK AO2 PK WND 16035/0852 SLP156 T01390111 51032=
202111280753 METAR KPAE 280753Z 17017G30KT 10SM OVC013 14/12 A2996 RMK AO2 PK WND 18047/0720 SLP147 T01390122 401390078=
202111280718 SPECI KPAE 280718Z 18028G41KT 10SM BKN010 BKN014 14/12 A2992 RMK AO2 PK WND 18043/0705 CIG 007V012 T01390122=
202111280653 METAR KPAE 280653Z 18026G36KT 10SM OVC009 14/13 A2993 RMK AO2 PK WND 18040/0628 CIG 007V012 SLP137 T01390128=
202111280553 METAR KPAE 280553Z 18021G35KT 10SM BKN009 BKN015 14/12 A2989 RMK AO2 PK WND 19042/0524 CIG 007V012 SLP123 60001 T01390122 10139 20106 50006=
202111280543 SPECI KPAE 280543Z 18022G39KT 10SM BKN010 BKN013 14/12 A2989 RMK AO2 PK WND 19042/0524 CIG 007V011 T01390122=
202111280453 METAR KPAE 280453Z 17027G37KT 10SM OVC008 13/12 A2990 RMK AO2 PK WND 17039/0405 CIG 005V010 SLP126 T01330122=
202111280353 METAR KPAE 280353Z 18023G37KT 10SM OVC008 13/12 A2989 RMK AO2 PK WND 18037/0350 RAE0255 CIG 006V012 SLP121 P0000 T01330122=
202111280345 SPECI KPAE 280345Z 18026G37KT 10SM BKN008 OVC012 13/12 A2989 RMK AO2 PK WND 16037/0342 RAE0255 CIG 006V011 P0000 T01330122=
202111280253 METAR KPAE 280253Z 17019G30KT 10SM -RA OVC003 13/12 A2988 RMK AO2 PK WND 17036/0218 RAE21B40 SLP117 P0001 60001 T01280117 55014=
202111280153 METAR KPAE 280153Z 17017G28KT 10SM -RA BKN003 OVC009 12/11 A2987 RMK AO2 PK WND 16035/0137 RAB52 SLP117 P0000 T01170111=
202111280053 METAR KPAE 280053Z 15015G25KT 10SM BKN004 OVC013 11/11 A2989 RMK AO2 SLP124 T01110106=
202111272353 METAR KPAE 272353Z 15014G25KT 3SM BR BKN004 11/10 A2992 RMK AO2 RAB25E45 SLP132 P0001 60007 T01060100 10111 20089 58020=
202111272304 SPECI KPAE 272304Z 14007KT 100V160 8SM BKN004 10/09 A2994 RMK AO2 T01000089=
202111272253 METAR KPAE 272253Z 14007KT 10SM FEW004 BKN016 OVC032 10/09 A2994 RMK AO2 RAB2156E46 SLP142 P0000 T01000089=
202111272217 SPECI KPAE 272217Z 14007G16KT 100V170 4SM -RA BR BKN017 BKN026 OVC034 10/09 A2995 RMK AO2 RAB2156 P0000 T01000089=
202111272153 METAR KPAE 272153Z 14006KT 10SM OVC040 10/09 A2996 RMK AO2 RAE03B23E41 SLP147 P0001 T01000089=
202111272053 METAR KPAE 272053Z VRB06KT 10SM -RA SCT033 SCT048 10/09 A2998 RMK AO2 RAE09B39 SLP153 P0000 60005 T01000089 58031=
202111271953 METAR KPAE 271953Z VRB04KT 10SM -RA BKN060 OVC100 10/08 A3001 RMK AO2 RAB15 SLP165 P0002 T01000083=
202111271853 METAR KPAE 271853Z 13007KT 100V180 10SM FEW032 SCT050 OVC065 09/08 A3005 RMK AO2 RAE52 SLP176 P0003 T00940078=
202111271826 SPECI KPAE 271826Z VRB04KT 5SM -RA BR SCT028 SCT048 OVC070 09/08 A3006 RMK AO2 P0002 T00890078=
202111271753 METAR KPAE 271753Z 14006KT 10SM -RA BKN027 BKN055 OVC075 09/08 A3007 RMK AO2 SLP184 P0001 60009 T00890078 10089 20083 55006=
202111271653 METAR KPAE 271653Z VRB05KT 5SM -RA BR OVC023 08/07 A3007 RMK AO2 SLP184 P0004 T00830072=
202111271553 METAR KPAE 271553Z VRB03KT 7SM -RA BKN018 BKN026 OVC034 08/08 A3008 RMK AO2 SLP187 P0003 T00830078=
202111271453 METAR KPAE 271453Z 14007KT 10SM -RA BKN026 OVC065 08/07 A3009 RMK AO2 RAB30 SLP191 P0001 60001 T00830072 56018=
202111271353 METAR KPAE 271353Z AUTO 15007KT 10SM OVC025 08/07 A3010 RMK AO2 RAE16 SLP194 P0000 T00830067=
202111271253 METAR KPAE 271253Z AUTO VRB03KT 10SM -RA OVC029 08/07 A3012 RMK AO2 RAB27 SLP201 P0000 T00830072=
202111271153 METAR KPAE 271153Z AUTO 00000KT 10SM OVC029 08/07 A3014 RMK AO2 RAE1057 SLP209 P0000 60000 70013 T00830072 10089 20078 58015=
202111271053 METAR KPAE 271053Z AUTO 11006KT 10SM -RA BKN018 OVC025 08/07 A3017 RMK AO2 RAB48 SLP217 P0000 T00830072=
202111270953 METAR KPAE 270953Z AUTO 10006KT 10SM OVC016 08/07 A3018 RMK AO2 SLP222 T00830072=
202111270937 SPECI KPAE 270937Z AUTO 10005KT 10SM OVC015 08/07 A3018 RMK AO2 T00830072=
202111270913 SPECI KPAE 270913Z AUTO VRB03KT 10SM BKN013 OVC020 09/07 A3018 RMK AO2 T00890072=
202111270853 METAR KPAE 270853Z AUTO VRB03KT 10SM SCT011 OVC024 08/07 A3019 RMK AO2 SLP224 T00830072 58004=
202111270846 SPECI KPAE 270846Z AUTO 11004KT 10SM SCT011 OVC024 08/07 A3019 RMK AO2 T00830072=
202111270753 METAR KPAE 270753Z AUTO 15004KT 7SM OVC013 08/07 A3020 RMK AO2 SLP228 T00780072 400940072=
202111270742 SPECI KPAE 270742Z AUTO 14004KT 7SM OVC013 08/07 A3020 RMK AO2 T00780072=
202111270653 METAR KPAE 270653Z AUTO 14005KT 10SM BKN028 BKN033 08/07 A3019 RMK AO2 SLP225 T00780072=
202111270553 METAR KPAE 270553Z AUTO 14005KT 9SM CLR 08/07 A3020 RMK AO2 SLP229 T00780067 10083 20072 51000=
202111270500 SPECI KPAE 270500Z AUTO 14004KT 9SM CLR 08/07 A3020 RMK AO2 T00780067=
202111270453 METAR KPAE 270453Z AUTO 15003KT 9SM OVC028 08/07 A3020 RMK AO2 SLP227 T00780067=
202111270353 METAR KPAE 270353Z 00000KT 10SM OVC028 08/07 A3020 RMK AO2 SLP230 T00780067=
202111270253 METAR KPAE 270253Z 00000KT 10SM OVC026 08/07 A3020 RMK AO2 SLP228 T00780067 58005=
202111270153 METAR KPAE 270153Z 34003KT 10SM OVC022 08/07 A3022 RMK AO2 SLP236 T00780067=
202111270053 METAR KPAE 270053Z 30004KT 10SM OVC024 08/07 A3023 RMK AO2 SLP238 T00830067=
202111262353 METAR KPAE 262353Z 35003KT 10SM OVC023 08/07 A3022 RMK AO2 SLP234 60007 T00830067 10094 20083 55002=
202111262253 METAR KPAE 262253Z 02003KT 8SM FEW010 OVC021 09/07 A3021 RMK AO2 SLP233 T00890072=
202111262153 METAR KPAE 262153Z 36006KT 5SM BR FEW010 OVC019 09/07 A3022 RMK AO2 SLP234 T00890072=
202111262053 METAR KPAE 262053Z 02005KT 10SM FEW007 BKN016 OVC038 08/07 A3022 RMK AO2 RAE1959 SLP236 P0001 60007 T00830072 51002=
202111262040 SPECI KPAE 262040Z 01004KT 9SM FEW004 SCT027 OVC036 08/08 A3021 RMK AO2 RAE1959 P0001 T00830078=
202111261953 METAR KPAE 261953Z 36006KT 3/4SM R16R/5000VP6000FT -RA BR OVC002 08/08 A3022 RMK AO2 RAB24 SLP234 P0004 T00830078=
202111261921 SPECI KPAE 261921Z VRB04KT 3/4SM R16R/4000V5500FT BR OVC003 09/08 A3022 RMK AO2 P0001 T00890083=
202111261853 METAR KPAE 261853Z 22005KT 1SM R16R/6000VP6000FT BR OVC004 09/08 A3021 RMK AO2 RAE15B32E42 SLP233 P0002 T00890083=
202111261753 METAR KPAE 261753Z 21003KT 3/4SM R16R/4000V5000FT -RA BR OVC002 09/08 A3020 RMK AO2 RAB38 SLP227 P0001 60006 T00890083 10089 20083 53019=
202111261717 SPECI KPAE 261717Z 19006KT 1SM R16R/5000VP6000FT BR OVC002 09/08 A3018 RMK AO2 T00890083=
202111261700 SPECI KPAE 261700Z 17004KT 10SM BCFG BKN003 OVC023 09/08 A3017 RMK AO2 T00890083=
202111261653 METAR KPAE 261653Z 18005KT 1SM R16R/P6000FT BCFG BKN002 09/08 A3017 RMK AO2 RAE25 SLP220 P0000 T00890083=
202111261635 SPECI KPAE 261635Z 16003KT 1SM R16R/P6000FT BCFG BKN002 09/08 A3017 RMK AO2 RAE25 P0000 T00890083=
202111261620 SPECI KPAE 261620Z 17005KT 1/4SM R16R/1800V3500FT -RA FG VV002 08/08 A3016 RMK AO2 P0000 T00830083=
202111261553 METAR KPAE 261553Z 20006KT 1/4SM R16R/1600V2200FT -RA FG VV002 08/08 A3016 RMK AO2 RAE09B49 SLP215 P0001 T00830083=
202111261546 SPECI KPAE 261546Z 19003KT M1/4SM R16R/1200V2200FT FG VV001 08/08 A3016 RMK AO2 RAE09 P0001 T00830083=
202111261520 SPECI KPAE 261520Z 25006KT 1/4SM R16R/1200V1600FT FG VV001 08/08 A3015 RMK AO2 RAE09 P0001 T00830078=
202111261511 SPECI KPAE 261511Z 25006KT 1/4SM R16R/1400V2600FT FG VV002 08/08 A3015 RMK AO2 RAE09 P0001 T00830078=
202111261453 METAR KPAE 261453Z AUTO 22007KT 1 1/4SM R16R/4500VP6000FT -RA BR OVC002 08/08 A3014 RMK AO2 SLP209 P0002 60004 T00830083 53010=
202111261405 SPECI KPAE 261405Z AUTO 21009KT 1 1/2SM -RA BR OVC002 08/08 A3013 RMK AO2 P0000 T00830078=
202111261353 METAR KPAE 261353Z AUTO 20009KT 2SM -RA BR OVC002 08/08 A3013 RMK AO2 SLP204 P0001 T00830078=
202111261253 METAR KPAE 261253Z AUTO 18008KT 2SM -RA BR OVC003 08/08 A3012 RMK AO2 RAB26 SLP201 P0001 T00830078=
202111261215 SPECI KPAE 261215Z AUTO 19011KT 2 1/2SM BR OVC003 08/08 A3011 RMK AO2 T00830078=
202111261153 METAR KPAE 261153Z AUTO 20008KT 9SM OVC004 08/08 A3011 RMK AO2 SLP197 60000 70040 T00830078 10083 20072 53005=
202111261138 SPECI KPAE 261138Z AUTO 19007G16KT 10SM OVC004 08/08 A3010 RMK AO2 T00830078=
202111261053 METAR KPAE 261053Z AUTO 19011KT 10SM OVC006 08/07 A3010 RMK AO2 SLP194 T00830072=
202111260953 METAR KPAE 260953Z AUTO 19012KT 10SM OVC006 08/07 A3010 RMK AO2 SLP193 T00830072=
202111260853 METAR KPAE 260853Z AUTO 19012KT 10SM OVC008 08/07 A3009 RMK AO2 SLP192 60000 T00830067 55004=
202111260753 METAR KPAE 260753Z AUTO 17013G25KT 10SM BKN008 OVC100 08/07 A3008 RMK AO2 PK WND 17029/0732 SLP187 T00780067 400830050=
202111260653 METAR KPAE 260653Z AUTO 15011G18KT 10SM BKN007 OVC011 08/06 A3010 RMK AO2 RAE20 CIG 005V009 SLP195 P0000 T00780061=
202111260633 SPECI KPAE 260633Z AUTO 15014G21KT 10SM BKN009 OVC100 07/06 A3010 RMK AO2 RAE20 CIG 005V016 P0000 T00720061=
202111260619 SPECI KPAE 260619Z AUTO 16013KT 10SM -RA SCT009 BKN080 OVC100 07/06 A3010 RMK AO2 P0000 T00720061=
202111260553 METAR KPAE 260553Z AUTO 15014G21KT 7SM -RA FEW016 BKN070 OVC080 07/06 A3010 RMK AO2 RAB30 SLP196 P0001 60029 T00720056 10083 20067 58006=
202111260544 SPECI KPAE 260544Z AUTO 15015G24KT 5SM -RA BR SCT019 OVC065 07/06 A3010 RMK AO2 RAB30 P0001 T00720056=
202111260516 SPECI KPAE 260516Z AUTO 15012G21KT 10SM BKN019 OVC085 07/06 A3012 RMK AO2 T00670056=
202111260453 METAR KPAE 260453Z 15020G26KT 10SM SCT090 OVC110 07/05 A3011 RMK AO2 PK WND 14033/0409 RAE30 SLP200 P0001 T00670050=
202111260353 METAR KPAE 260353Z 16019G27KT 5SM -RA BR OVC070 07/05 A3012 RMK AO2 PK WND 15033/0317 SLP202 P0010 T00670050=
202111260253 METAR KPAE 260253Z 16021G30KT 5SM -RA BR OVC060 07/05 A3012 RMK AO2 PK WND 17035/0216 SLP203 P0004 60017 T00670050 55003=
202111260153 METAR KPAE 260153Z 17020G36KT 5SM -RA OVC070 07/04 A3012 RMK AO2 PK WND 16036/0151 SLP201 P0006 T00720044=
202111260053 METAR KPAE 260053Z 16018G28KT 9SM -RA FEW032 SCT065 OVC075 07/04 A3012 RMK AO2 PK WND 17028/0049 SLP203 P0007 T00720044=
202111252353 METAR KPAE 252353Z 15011G19KT 10SM -RA SCT035 SCT060 OVC080 08/04 A3013 RMK AO2 SLP206 P0005 60006 T00780039 10083 20067 56009=
202111252253 METAR KPAE 252253Z 15012KT 8SM -RA BKN040 OVC048 08/04 A3014 RMK AO2 RAB06 SLP208 P0001 T00780044=
202111252153 METAR KPAE 252153Z 16015G23KT 10SM SCT055 BKN070 OVC085 08/04 A3014 RMK AO2 SLP210 T00830039=
202111252053 METAR KPAE 252053Z 16012KT 10SM FEW070 BKN090 OVC110 08/04 A3016 RMK AO2 SLP214 60000 T00780039 56018=
202111251953 METAR KPAE 251953Z 17010KT 10SM FEW055 OVC090 07/04 A3016 RMK AO2 SLP217 T00720044=
202111251853 METAR KPAE 251853Z 15013G21KT 10SM OVC090 07/04 A3017 RMK AO2 RAE22 SLP218 P0000 T00670044=
202111251753 METAR KPAE 251753Z 17011G19KT 10SM -RA FEW050 BKN060 OVC075 07/05 A3021 RMK AO2 PK WND 14026/1654 RAB36 SLP232 P0000 60005 T00670050 10067 20050 55003=
202111251653 METAR KPAE 251653Z 14016G27KT 10SM FEW060 OVC095 06/04 A3017 RMK AO2 PK WND 17029/1641 RAE39 SLP221 P0002 T00610039=
202111251553 METAR KPAE 251553Z 14012G20KT 10SM -RA FEW040 BKN080 OVC095 06/04 A3020 RMK AO2 RAB35 SLP231 P0000 T00610039=
202111251453 METAR KPAE 251453Z 16012G18KT 10SM BKN042 OVC070 06/04 A3022 RMK AO2 PK WND 15026/1422 SLP236 60003 T00610039 55015=
202111251353 METAR KPAE 251353Z AUTO 15011G20KT 10SM FEW039 BKN075 OVC100 06/03 A3020 RMK AO2 RAB1255E11 SLP230 P0000 T00560033=
202111251253 METAR KPAE 251253Z AUTO 14016G26KT 10SM FEW035 BKN070 OVC090 06/03 A3023 RMK AO2 PK WND 15028/1234 RAE50 SLP240 P0003 T00560033=
202111251153 METAR KPAE 251153Z AUTO 15017G26KT 6SM -RA FEW042 OVC075 06/03 A3026 RMK AO2 PK WND 16026/1152 SLP251 P0005 60014 70017 T00560028 10061 20050 58009=
202111251053 METAR KPAE 251053Z AUTO 14007G16KT 070V160 6SM -RA SCT035 SCT050 OVC075 06/03 A3028 RMK AO2 SLP256 P0004 T00560028=
202111250953 METAR KPAE 250953Z AUTO VRB06G14KT 10SM -RA OVC038 06/03 A3029 RMK AO2 SLP261 P0002 T00560033=
202111250853 METAR KPAE 250853Z AUTO VRB04KT 10SM -RA OVC045 06/03 A3029 RMK AO2 RAE01B51 SLP260 P0000 60003 T00560033 58016=
202111250753 METAR KPAE 250753Z AUTO 15007KT 10SM -RA OVC046 06/03 A3031 RMK AO2 RAE17B35 SLP266 P0002 T00560028 400720028=
202111250653 METAR KPAE 250653Z AUTO 14005KT 10SM -RA OVC055 06/03 A3033 RMK AO2 SLP274 P0001 T00560028=
202111250553 METAR KPAE 250553Z AUTO 14007KT 10SM -RA SCT060 OVC085 06/03 A3034 RMK AO2 SLP277 P0003 60003 T00610028 10072 20061 58001=
202111250453 METAR KPAE 250453Z 14009G14KT 10SM -RA OVC070 07/03 A3036 RMK AO2 RAB50 SLP283 P0000 T00670028=
202111250353 METAR KPAE 250353Z 14006KT 10SM OVC075 07/02 A3035 RMK AO2 SLP283 T00670022=
202111250253 METAR KPAE 250253Z VRB06KT 10SM OVC075 07/02 A3034 RMK AO2 SLP279 T00720017 58008=
202111250153 METAR KPAE 250153Z 15009KT 10SM OVC085 07/02 A3035 RMK AO2 SLP282 T00720017=
202111250053 METAR KPAE 250053Z 15004KT 10SM OVC100 07/02 A3036 RMK AO2 SLP286 T00720022=
202111242353 METAR KPAE 242353Z 15007KT 10SM OVC100 07/02 A3037 RMK AO2 SLP287 T00720022 10072 20050 55002=
202111242253 METAR KPAE 242253Z 14006KT 10SM OVC100 07/02 A3035 RMK AO2 SLP282 T00720017=
202111242153 METAR KPAE 242153Z VRB06KT 10SM OVC110 07/02 A3036 RMK AO2 SLP284 T00720022=
202111242053 METAR KPAE 242053Z 16009KT 10SM OVC110 07/02 A3037 RMK AO2 SLP288 T00720022 58021=
202111241953 METAR KPAE 241953Z 15010KT 10SM CLR 07/02 A3041 RMK AO2 SLP299 T00670022=
202111241853 METAR KPAE 241853Z VRB04KT 10SM CLR 06/02 A3043 RMK AO2 SLP310 T00560022=
202111241753 METAR KPAE 241753Z 14005KT 10SM FEW030 05/02 A3044 RMK AO2 SLP311 T00500022 10050 20028 51014=
202111241653 METAR KPAE 241653Z VRB05KT 10SM FEW024 SCT029 04/02 A3042 RMK AO2 SLP307 T00440022=
202111241553 METAR KPAE 241553Z 15006KT 10SM BKN022 03/02 A3041 RMK AO2 SLP302 T00330022=
202111241507 SPECI KPAE 241507Z 15007KT 10SM BKN010 03/02 A3040 RMK AO2 T00330017=
202111241453 METAR KPAE 241453Z 14007KT 10SM BKN008 03/02 A3040 RMK AO2 SLP297 T00330022 53007=
202111241429 SPECI KPAE 241429Z 15007KT 10SM FEW007 03/02 A3039 RMK AO2 T00330017=
202111241353 METAR KPAE 241353Z VRB03KT 10SM FEW036 03/02 A3039 RMK AO2 SLP295 T00330017=
202111241253 METAR KPAE 241253Z 00000KT 10SM SCT033 04/02 A3038 RMK AO2 SLP290 T00390022=
202111241153 METAR KPAE 241153Z 11004KT 10SM CLR 03/02 A3038 RMK AO2 SLP290 70036 T00280022 10056 20028 51010=
202111241053 METAR KPAE 241053Z 11004KT 10SM CLR 04/03 A3037 RMK AO2 SLP288 T00440028=
202111241027 SPECI KPAE 241027Z 15004KT 10SM SCT010 04/03 A3038 RMK AO2 T00440028=
202111241013 SPECI KPAE 241013Z 15004KT 10SM BKN010 OVC040 04/03 A3037 RMK AO2 T00440028=
202111240953 METAR KPAE 240953Z 00000KT 10SM BKN041 OVC055 04/03 A3037 RMK AO2 SLP286 T00440028=
202111240853 METAR KPAE 240853Z 21003KT 10SM SCT048 BKN060 OVC075 04/03 A3034 RMK AO2 SLP279 T00440033 52016=
202111240753 METAR KPAE 240753Z 15007KT 10SM OVC065 06/03 A3033 RMK AO2 SLP274 T00560033 400940056=
202111240653 METAR KPAE 240653Z 15006KT 10SM BKN060 06/03 A3031 RMK AO2 SLP268 T00560033=
202111240553 METAR KPAE 240553Z 17003KT 10SM FEW032 BKN060 06/04 A3030 RMK AO2 SLP263 T00560039 10083 20056 53029=
202111240453 METAR KPAE 240453Z 15005KT 10SM BKN044 06/03 A3027 RMK AO2 SLP252 T00560033=
202111240353 METAR KPAE 240353Z 11004KT 10SM FEW038 06/03 A3024 RMK AO2 SLP242 T00610033=
202111240253 METAR KPAE 240253Z 09003KT 10SM FEW029 07/04 A3021 RMK AO2 SLP233 T00720039 51019=
202111240153 METAR KPAE 240153Z 14006KT 10SM BKN034 BKN040 08/04 A3020 RMK AO2 SLP230 T00780044=
202111240110 SPECI KPAE 240110Z 11004KT 10SM BKN032 08/04 A3018 RMK AO2 T00780039=
202111240053 METAR KPAE 240053Z 00000KT 10SM BKN029 BKN036 08/03 A3017 RMK AO2 SLP220 T00830028=
202111232353 METAR KPAE 232353Z 00000KT 10SM FEW029 07/03 A3015 RMK AO2 SLP214 T00670033 10094 20067 52029=
202111232253 METAR KPAE 232253Z 00000KT 10SM FEW028 SCT035 08/02 A3012 RMK AO2 SLP203 T00830022=
202111232153 METAR KPAE 232153Z 16005KT 10SM SCT039 09/04 A3010 RMK AO2 SLP194 T00890044=
202111232100 SPECI KPAE 232100Z VRB03KT 10SM FEW024 SCT034 09/04 A3007 RMK AO2 T00890039=
202111232053 METAR KPAE 232053Z VRB04KT 10SM SCT010 OVC026 09/03 A3007 RMK AO2 SLP183 T00890033 51024=
202111231953 METAR KPAE 231953Z 21006KT 10SM SCT010 OVC029 08/05 A3005 RMK AO2 SLP178 T00780050=
202111231940 SPECI KPAE 231940Z 19008KT 10SM SCT010 OVC029 07/05 A3005 RMK AO2 T00720050=
202111231900 SPECI KPAE 231900Z 19007KT 10SM BKN008 OVC031 07/06 A3004 RMK AO2 T00670056=
202111231853 METAR KPAE 231853Z 21008KT 10SM OVC003 07/05 A3004 RMK AO2 SLP174 T00670050=
202111231753 METAR KPAE 231753Z 23007KT 10SM OVC003 07/06 A3000 RMK AO2 SLP160 60036 T00670056 10067 20061 53040=
202111231746 SPECI KPAE 231746Z 22008KT 10SM OVC003 07/06 A2999 RMK AO2 T00670056=
202111231739 SPECI KPAE 231739Z 24008KT 10SM BKN006 OVC038 07/05 A2999 RMK AO2 T00670050=
202111231653 METAR KPAE 231653Z 28008G23KT 10SM OVC036 07/04 A2995 RMK AO2 SLP146 T00670039=
202111231553 METAR KPAE 231553Z VRB05KT 10SM FEW014 SCT039 OVC070 07/04 A2991 RMK AO2 SLP132 T00670039=
202111231546 SPECI KPAE 231546Z 31008KT 10SM SCT014 BKN047 OVC070 07/04 A2991 RMK AO2 T00670044=
202111231453 METAR KPAE 231453Z 31004KT 10SM SCT008 BKN013 OVC035 06/05 A2988 RMK AO2 RAE52 SLP120 P0005 60036 T00610050 53018=
202111231446 SPECI KPAE 231446Z AUTO 00000KT 10SM -RA BKN009 BKN013 OVC035 06/05 A2987 RMK AO2 P0005 T00610050=
202111231427 SPECI KPAE 231427Z AUTO VRB03KT 8SM -RA BKN010 BKN017 OVC023 06/05 A2987 RMK AO2 P0005 T00610050=
202111231353 METAR KPAE 231353Z AUTO VRB04KT 5SM -RA BR BKN015 OVC023 06/04 A2986 RMK AO2 SLP113 P0013 T00610044=
202111231324 SPECI KPAE 231324Z AUTO 32008KT 5SM -RA BR FEW003 BKN021 OVC028 06/04 A2985 RMK AO2 P0007 T00610039=
202111231311 SPECI KPAE 231311Z AUTO 30008KT 6SM -RA BR FEW005 BKN012 OVC028 06/05 A2984 RMK AO2 P0005 T00610050=
202111231257 SPECI KPAE 231257Z AUTO 30004KT 2 1/2SM RA BR FEW003 BKN008 OVC027 06/06 A2984 RMK AO2 P0002 T00610056=
202111231253 METAR KPAE 231253Z AUTO 27005KT 3SM RA BR SCT003 BKN010 OVC028 07/06 A2984 RMK AO2 SLP106 P0018 T00670056=
202111231237 SPECI KPAE 231237Z AUTO 24005KT 3SM RA BR SCT003 BKN007 OVC027 07/05 A2983 RMK AO2 P0013 T00670050=
202111231226 SPECI KPAE 231226Z AUTO 26006KT 2 1/2SM RA BR BKN003 BKN025 OVC032 07/06 A2983 RMK AO2 VIS 2V3 P0009 T00670061=
202111231217 SPECI KPAE 231217Z AUTO 22007KT 4SM RA BR SCT005 BKN025 OVC033 07/06 A2983 RMK AO2 P0005 T00670061=
202111231210 SPECI KPAE 231210Z AUTO 22006KT 5SM -RA BR FEW005 SCT028 OVC033 07/06 A2983 RMK AO2 P0003 T00670061=
202111231153 METAR KPAE 231153Z AUTO 20008KT 5SM -RA BR OVC033 07/06 A2982 RMK AO2 SLP101 P0010 60020 70020 T00670061 10078 20067 56004=
202111231139 SPECI KPAE 231139Z AUTO 20008KT 4SM -RA BR SCT005 OVC033 07/06 A2982 RMK AO2 P0008 T00670061=
202111231053 METAR KPAE 231053Z AUTO 20011KT 4SM RA BR OVC007 07/06 A2983 RMK AO2 CIG 005V011 SLP103 P0010 T00720061=
202111231031 SPECI KPAE 231031Z AUTO 21007KT 5SM -RA BR OVC009 07/06 A2983 RMK AO2 CIG 006V011 P0005 T00720061=
202111230953 METAR KPAE 230953Z AUTO 18011KT 10SM -RA BKN012 OVC017 08/06 A2983 RMK AO2 RAB51 SLP102 P0000 T00780061=
202111230944 SPECI KPAE 230944Z AUTO 18011KT 10SM BKN011 OVC017 08/06 A2983 RMK AO2 T00780061=
202111230936 SPECI KPAE 230936Z AUTO 17008KT 10SM SCT009 OVC015 08/06 A2983 RMK AO2 T00780061=
202111230900 SPECI KPAE 230900Z AUTO 17007KT 10SM OVC009 08/06 A2984 RMK AO2 CIG 007V012 T00780061=
202111230853 METAR KPAE 230853Z AUTO 16006KT 10SM OVC011 08/06 A2984 RMK AO2 SLP105 T00780061 56008=
202111230753 METAR KPAE 230753Z AUTO 16011KT 10SM BKN011 BKN014 OVC095 08/06 A2985 RMK AO2 CIG 008V012 SLP112 T00780061 400780022=
202111230745 SPECI KPAE 230745Z AUTO 16011G20KT 10SM BKN011 BKN019 OVC100 08/06 A2985 RMK AO2 T00780061=
202111230731 SPECI KPAE 230731Z AUTO 18016G21KT 10SM FEW009 FEW019 OVC100 08/06 A2985 RMK AO2 T00780061=
202111230718 SPECI KPAE 230718Z AUTO 18012KT 10SM SCT009 BKN020 OVC110 08/06 A2986 RMK AO2 T00780061=
202111230653 METAR KPAE 230653Z AUTO 16009KT 10SM OVC010 08/06 A2986 RMK AO2 CIG 008V012 SLP113 T00780061=
202111230553 METAR KPAE 230553Z AUTO 18008KT 10SM OVC011 08/06 A2987 RMK AO2 SLP119 T00780056 10078 20067 57012=
202111230453 METAR KPAE 230453Z AUTO 16010G18KT 10SM OVC012 08/06 A2988 RMK AO2 SLP122 T00780056=
202111230442 SPECI KPAE 230442Z 15012G23KT 10SM BKN012 08/06 A2989 RMK AO2 T00780056=
202111230353 METAR KPAE 230353Z 16017G23KT 10SM CLR 08/05 A2990 RMK AO2 SLP127 T00780050=
202111230253 METAR KPAE 230253Z 15014G20KT 10SM OVC007 07/06 A2991 RMK AO2 SLP131 T00720056 58023=
202111230153 METAR KPAE 230153Z 16012KT 10SM OVC004 07/06 A2995 RMK AO2 SLP145 T00720061=
202111230100 SPECI KPAE 230100Z 16011G20KT 10SM OVC004 07/06 A2997 RMK AO2 T00670056=
202111230053 METAR KPAE 230053Z 16013KT 10SM BKN006 OVC013 07/06 A2998 RMK AO2 SLP154 T00670056=
202111222353 METAR KPAE 222353Z 15015G26KT 10SM BKN006 OVC013 07/05 A2998 RMK AO2 PK WND 16026/2346 RAE2256 SLP156 P0000 60000 T00670050 10078 20061 56010=
202111222253 METAR KPAE 222253Z 16015G24KT 10SM -RA BKN013 OVC060 07/05 A2998 RMK AO2 PK WND 18026/2233 RAB33 SLP156 P0000 T00670050=
202111222153 METAR KPAE 222153Z 16018G28KT 10SM OVC055 08/04 A2999 RMK AO2 PK WND 16031/2124 SLP159 T00780039=
202111222053 METAR KPAE 222053Z 16019G28KT 10SM OVC065 08/02 A3001 RMK AO2 PK WND 15030/2034 SLP165 T00780017 58022=
202111221953 METAR KPAE 221953Z 16016G25KT 10SM FEW021 OVC065 08/02 A3003 RMK AO2 SLP174 T00780022=
202111221853 METAR KPAE 221853Z 14010G19KT 10SM OVC060 07/02 A3007 RMK AO2 SLP187 T00670022=
202111221753 METAR KPAE 221753Z VRB06G17KT 10SM OVC060 07/02 A3008 RMK AO2 SLP188 T00670022 10072 20033 51005=
202111221653 METAR KPAE 221653Z 16011G19KT 10SM OVC090 07/02 A3008 RMK AO2 SLP188 T00670022=
202111221553 METAR KPAE 221553Z 18014KT 10SM CLR 06/01 A3008 RMK AO2 SLP190 T00610006=
202111221453 METAR KPAE 221453Z 16012KT 10SM CLR 05/01 A3006 RMK AO2 PK WND 16026/1359 SLP183 T00500011 56016=
202111221353 METAR KPAE 221353Z 16016G25KT 10SM CLR 04/01 A3007 RMK AO2 SLP186 T00440011=
202111221253 METAR KPAE 221253Z 15011KT 10SM CLR 04/01 A3010 RMK AO2 SLP197 T00390011=
202111221153 METAR KPAE 221153Z VRB03KT 10SM CLR 03/01 A3011 RMK AO2 SLP200 60001 70001 T00330006 10050 20022 53000=
202111221053 METAR KPAE 221053Z 18004KT 10SM CLR 04/01 A3010 RMK AO2 PRESRR SLP195 P0001 T00440011=
202111220953 METAR KPAE 220953Z 15009KT 3SM BR FEW001 02/02 A3009 RMK AO2 SNB29E42 SLP194 P0000 T00220017=
202111220946 SPECI KPAE 220946Z 19007KT 6SM R16R/6000VP6000FT BR SCT001 02/02 A3009 RMK AO2 SNB29E42 P0000 T00220022=
202111220938 SPECI KPAE 220938Z 17005KT 2SM R16R/4000VP6000FT -SN BR SCT001 02/02 A3009 RMK AO2 SNB29 P0000 T00220022=
202111220925 SPECI KPAE 220925Z 19007KT 3/4SM R16R/2200V4000FT BR VV001 03/02 A3009 RMK AO2 T00280022=
202111220922 SPECI KPAE 220922Z 19008KT 1 3/4SM R16R/2200VP6000FT BR FEW002 03/03 A3009 RMK AO2 T00280028=
202111220853 METAR KPAE 220853Z 14006KT 10SM CLR 03/02 A3011 RMK AO2 SLP199 T00330022 58021=
202111220753 METAR KPAE 220753Z 10SM CLR 03/01 A3015 RMK AO2 SLP213 T00280011 400830017=
202111220653 METAR KPAE 220653Z 00000KT 10SM CLR 03/02 A3017 RMK AO2 SLP219 T00280017=
202111220553 METAR KPAE 220553Z 11003KT 10SM CLR 04/02 A3017 RMK AO2 SLP221 T00440022 10061 20022 58019=
202111220453 METAR KPAE 220453Z 00000KT 10SM CLR 04/02 A3019 RMK AO2 SLP229 T00390022=
202111220353 METAR KPAE 220353Z 00000KT 10SM R16R/4500VP6000FT CLR 02/01 A3021 RMK AO2 SLP236 T00220011=
202111220253 METAR KPAE 220253Z 00000KT 10SM R16R/4000VP6000FT CLR 04/02 A3023 RMK AO2 SLP241 T00390017 58021=
202111220153 METAR KPAE 220153Z 00000KT 10SM CLR 04/02 A3026 RMK AO2 SLP251 T00390022=
202111220053 METAR KPAE 220053Z 00000KT 10SM CLR 05/03 A3028 RMK AO2 SLP260 T00500028=
202111212353 METAR KPAE 212353Z 34003KT 10SM CLR 06/02 A3029 RMK AO2 SLP262 T00610022 10083 20044 58013=
202111212253 METAR KPAE 212253Z 00000KT 10SM CLR 07/03 A3031 RMK AO2 SLP267 T00720028=
202111212153 METAR KPAE 212153Z 00000KT 10SM CLR 08/02 A3032 RMK AO2 SLP269 T00830017=
202111212053 METAR KPAE 212053Z 16005KT 10SM CLR 07/02 A3033 RMK AO2 SLP275 T00670017 58026=
202111211953 METAR KPAE 211953Z VRB03KT 10SM VCFG CLR 06/02 A3035 RMK AO2 SLP283 T00560022=
202111211853 METAR KPAE 211853Z VRB05KT 10SM VCFG CLR 06/01 A3039 RMK AO2 SLP294 T00560011=
202111211753 METAR KPAE 211753Z 00000KT 10SM CLR 04/02 A3041 RMK AO2 SLP301 T00440017 10044 20017 58007=
202111211653 METAR KPAE 211653Z 12004KT 10SM CLR 04/01 A3041 RMK AO2 SLP303 T00390011=
202111211553 METAR KPAE 211553Z 00000KT 10SM CLR 03/01 A3043 RMK AO2 SLP309 T00280006=
202111211453 METAR KPAE 211453Z 00000KT 10SM CLR 02/00 A3043 RMK AO2 SLP309 T00220000 58011=
202111211353 METAR KPAE 211353Z 00000KT 10SM CLR 02/01 A3044 RMK AO2 SLP313 T00170006=
202111211253 METAR KPAE 211253Z 00000KT 10SM CLR 03/01 A3045 RMK AO2 SLP316 T00280011=
202111211153 METAR KPAE 211153Z 07003KT 10SM CLR 03/01 A3046 RMK AO2 SLP319 70003 T00280011 10056 20022 56010=
202111211053 METAR KPAE 211053Z 00000KT 10SM CLR 04/02 A3046 RMK AO2 SLP320 T00390022=
202111210953 METAR KPAE 210953Z 10SM CLR 04/03 A3048 RMK AO2 SLP326 T00440028=
202111210853 METAR KPAE 210853Z 10007KT 10SM OVC110 04/03 A3049 RMK AO2 SLP330 T00390028 58014=
202111210753 METAR KPAE 210753Z 10009KT 10SM BKN110 05/02 A3052 RMK AO2 SLP339 T00500022 400780039=
202111210653 METAR KPAE 210653Z 00000KT 10SM FEW120 06/04 A3053 RMK AO2 SLP343 T00560039=
202111210553 METAR KPAE 210553Z 00000KT 8SM CLR 05/04 A3053 RMK AO2 SLP344 T00500039 10061 20039 51007=
202111210453 METAR KPAE 210453Z 12003KT 9SM CLR 05/04 A3053 RMK AO2 SLP344 T00500039=
202111210353 METAR KPAE 210353Z 00000KT 10SM CLR 04/03 A3052 RMK AO2 SLP340 T00390033=
202111210253 METAR KPAE 210253Z 00000KT 10SM CLR 04/03 A3051 RMK AO2 SLP337 T00440028 56004=
202111210153 METAR KPAE 210153Z 00000KT 10SM CLR 04/03 A3051 RMK AO2 SLP338 T00440028=
202111210053 METAR KPAE 210053Z 21003KT 10SM CLR 06/04 A3052 RMK AO2 SLP341 T00560039=
202111202353 METAR KPAE 202353Z 20003KT 10SM CLR 06/04 A3053 RMK AO2 SLP342 T00610039 10078 20056 51002=
202111202253 METAR KPAE 202253Z 24003KT 10SM FEW020 07/04 A3052 RMK AO2 SLP341 T00670039=
202111202153 METAR KPAE 202153Z 24004KT 10SM FEW007 BKN017 BKN024 07/04 A3053 RMK AO2 SLP344 T00670044=
202111202113 SPECI KPAE 202113Z 26005KT 10SM SCT009 BKN017 BKN024 07/05 A3053 RMK AO2 T00720050=
202111202108 SPECI KPAE 202108Z 25005KT 10SM BKN009 BKN017 OVC024 08/05 A3052 RMK AO2 CIG 007V012 T00780050=
202111202053 METAR KPAE 202053Z 26006KT 10SM FEW007 BKN017 07/04 A3052 RMK AO2 SLP339 T00670044 51004=
202111201953 METAR KPAE 201953Z 17003KT 10SM BKN011 OVC023 07/04 A3051 RMK AO2 SLP335 T00720039=
202111201929 SPECI KPAE 201929Z 19004KT 10SM BKN011 OVC019 07/04 A3051 RMK AO2 T00720044=
202111201856 SPECI KPAE 201856Z 16004KT 10SM BKN008 BKN022 07/04 A3052 RMK AO2 T00670039=
202111201853 METAR KPAE 201853Z 16003KT 10SM BKN010 BKN022 07/04 A3052 RMK AO2 CIG 007V012 SLP339 T00670039=
202111201838 SPECI KPAE 201838Z 00000KT 10SM BKN008 07/04 A3052 RMK AO2 CIG 007V013 T00670044=
202111201816 SPECI KPAE 201816Z 18005KT 10SM FEW004 BKN041 06/05 A3051 RMK AO2 T00610050=
202111201753 METAR KPAE 201753Z 16005KT 9SM SCT044 06/04 A3051 RMK AO2 RAE05B23E34 SLP335 P0000 60003 T00560044 10061 20039 51010=
202111201653 METAR KPAE 201653Z 17003KT 9SM -RA FEW031 OVC042 06/04 A3050 RMK AO2 SLP332 P0001 T00560044=
202111201600 SPECI KPAE 201600Z 16006KT 6SM -RA BR OVC034 04/04 A3049 RMK AO2 P0000 T00440039=
202111201553 METAR KPAE 201553Z 16008KT 8SM -RA FEW001 BKN029 04/04 A3049 RMK AO2 RAB19E45B48 SLP329 P0001 T00440039=
202111201545 SPECI KPAE 201545Z 15007KT 8SM SCT029 OVC035 04/03 A3049 RMK AO2 RAB19E45 P0001 T00440033=
202111201528 SPECI KPAE 201528Z 17004KT 8SM -RA BKN029 OVC037 04/03 A3049 RMK AO2 RAB19 P0000 T00440033=
202111201453 METAR KPAE 201453Z 16005KT 10SM OVC036 04/03 A3048 RMK AO2 RAE1354B17E28 SLP324 P0000 60001 T00440033 53009=
202111201353 METAR KPAE 201353Z AUTO 15007KT 10SM -RA BKN041 OVC050 04/02 A3047 RMK AO2 RAB05 SLP321 P0001 T00390022=
202111201335 SPECI KPAE 201335Z AUTO 12003KT 10SM -RA FEW008 SCT030 OVC037 04/02 A3046 RMK AO2 RAB05 P0000 T00390022=
202111201327 SPECI KPAE 201327Z AUTO 11004KT 10SM -RA SCT008 BKN018 OVC039 04/02 A3046 RMK AO2 RAB05 P0000 T00440022=
202111201253 METAR KPAE 201253Z AUTO 00000KT 10SM SCT016 BKN025 OVC050 04/02 A3045 RMK AO2 SLP317 T00440022=
202111201238 SPECI KPAE 201238Z AUTO 00000KT 10SM SCT020 BKN026 BKN050 04/02 A3045 RMK AO2 T00390022=
202111201153 METAR KPAE 201153Z AUTO 00000KT 10SM SCT049 OVC060 04/02 A3045 RMK AO2 SLP315 70005 T00440022 10050 20039 53011=
202111201053 METAR KPAE 201053Z AUTO 00000KT 10SM OVC055 04/02 A3043 RMK AO2 SLP310 T00440022=
202111200953 METAR KPAE 200953Z AUTO 00000KT 10SM OVC055 04/02 A3042 RMK AO2 SLP306 T00440022=
202111200853 METAR KPAE 200853Z AUTO 11006KT 10SM BKN048 OVC055 04/02 A3042 RMK AO2 SLP304 T00390022 53008=
202111200835 SPECI KPAE 200835Z AUTO 11005KT 10SM SCT027 SCT032 OVC047 04/02 A3041 RMK AO2 T00390022=
202111200811 SPECI KPAE 200811Z AUTO 10005KT 10SM BKN023 OVC050 04/02 A3041 RMK AO2 T00440022=
202111200753 METAR KPAE 200753Z AUTO 09003KT 10SM OVC050 04/02 A3040 RMK AO2 SLP300 T00440022 400720039=
202111200653 METAR KPAE 200653Z AUTO 10005KT 10SM OVC049 04/02 A3040 RMK AO2 SLP298 T00440022=
202111200636 SPECI KPAE 200636Z AUTO 11005KT 10SM SCT026 OVC048 04/02 A3040 RMK AO2 T00440022=
202111200553 METAR KPAE 200553Z AUTO 11005KT 10SM BKN029 OVC042 05/03 A3039 RMK AO2 RAE20B23E41 SLP296 P0000 60000 T00500028 10067 20050 51013=
202111200544 SPECI KPAE 200544Z AUTO 10005KT 10SM BKN029 OVC040 05/03 A3039 RMK AO2 RAE20B23E41 P0000 T00500028=
202111200522 SPECI KPAE 200522Z AUTO 10004KT 10SM BKN033 OVC040 05/03 A3039 RMK AO2 RAE20 P0000 T00500028=
202111200453 METAR KPAE 200453Z 00000KT 10SM -RA OVC026 06/03 A3039 RMK AO2 RAB44 SLP294 P0000 T00560033=
202111200353 METAR KPAE 200353Z 10004KT 10SM SCT026 OVC045 06/03 A3037 RMK AO2 SLP287 T00610028=
202111200253 METAR KPAE 200253Z 16004KT 10SM SCT028 OVC036 06/03 A3035 RMK AO2 SLP283 T00610028 51018=
202111200153 METAR KPAE 200153Z 16004KT 10SM SCT028 OVC036 06/03 A3034 RMK AO2 SLP277 T00610028=
202111200053 METAR KPAE 200053Z 16004KT 10SM SCT028 OVC036 06/03 A3032 RMK AO2 SLP271 T00610033=
202111192353 METAR KPAE 192353Z 16003KT 10SM BKN027 OVC038 07/01 A3030 RMK AO2 SLP264 T00670011 10072 20050 53018=
202111192321 SPECI KPAE 192321Z 00000KT 10SM OVC028 07/02 A3029 RMK AO2 T00670017=
202111192253 METAR KPAE 192253Z 00000KT 10SM OVC030 07/01 A3028 RMK AO2 SLP257 T00670011=
202111192153 METAR KPAE 192153Z 00000KT 10SM BKN018 07/02 A3026 RMK AO2 SLP252 T00670017=
202111192119 SPECI KPAE 192119Z 01004KT 10SM BKN018 07/02 A3025 RMK AO2 T00670022=
202111192053 METAR KPAE 192053Z 02003KT 10SM SCT018 07/02 A3024 RMK AO2 SLP245 T00720022 51016=
202111191953 METAR KPAE 191953Z 34005KT 10SM SCT010 06/03 A3022 RMK AO2 SLP238 T00610028=
202111191943 SPECI KPAE 191943Z VRB04KT 10SM SCT010 07/03 A3022 RMK AO2 T00670033=
202111191853 METAR KPAE 191853Z 34005KT 10SM BKN012 06/03 A3020 RMK AO2 SLP229 T00560033=
202111191840 SPECI KPAE 191840Z 34003KT 10SM BKN012 06/03 A3018 RMK AO2 T00560033=
202111191823 SPECI KPAE 191823Z 32006KT 10SM OVC009 05/03 A3018 RMK AO2 T00500033=
202111191800 SPECI KPAE 191800Z 33004KT 10SM OVC013 05/03 A3016 RMK AO2 T00500033=
202111191753 METAR KPAE 191753Z VRB04KT 10SM BKN008 OVC013 05/03 A3015 RMK AO2 SLP214 60005 T00500033 10050 20044 51041=
202111191738 SPECI KPAE 191738Z 33006KT 10SM OVC013 05/03 A3014 RMK AO2 T00500033=
202111191703 SPECI KPAE 191703Z VRB05KT 10SM BKN009 OVC014 05/04 A3012 RMK AO2 CIG 007V011 T00500039=
202111191653 METAR KPAE 191653Z 31007KT 10SM OVC013 05/03 A3012 RMK AO2 SLP203 T00500033=
202111191611 SPECI KPAE 191611Z 34009G18KT 10SM OVC012 05/03 A3009 RMK AO2 T00500033=
202111191600 SPECI KPAE 191600Z 33006KT 10SM SCT009 OVC016 05/04 A3008 RMK AO2 T00500039=
202111191553 METAR KPAE 191553Z 33007G14KT 10SM BKN009 OVC016 05/03 A3008 RMK AO2 SLP188 T00500033=
202111191453 METAR KPAE 191453Z 33010G15KT 10SM BKN008 OVC015 05/04 A3003 RMK AO2 CIG 005V011 SLP172 60005 T00500039 51024=
202111191450 SPECI KPAE 191450Z AUTO 35007G17KT 10SM BKN008 OVC017 05/04 A3003 RMK AO2 CIG 005V011=
202111191438 SPECI KPAE 191438Z AUTO 34009G17KT 10SM BKN010 OVC018 05/04 A3002 RMK AO2 CIG 007V015 T00500039=
202111191353 METAR KPAE 191353Z AUTO 35008G16KT 10SM BKN009 BKN014 OVC046 04/04 A2999 RMK AO2 RAE21 SLP160 P0001 T00440039=
202111191339 SPECI KPAE 191339Z AUTO 33010G18KT 10SM FEW006 BKN011 OVC045 04/04 A2999 RMK AO2 RAE21 P0001 T00440039=
202111191329 SPECI KPAE 191329Z AUTO 34011G20KT 10SM BKN010 OVC013 04/04 A2998 RMK AO2 RAE21 CIG 006V010 P0001 T00440039=
202111191253 METAR KPAE 191253Z AUTO 33010G17KT 300V010 9SM -RA OVC006 04/04 A2996 RMK AO2 CIG 003V009 SLP148 P0004 T00440039=
202111191153 METAR KPAE 191153Z AUTO 35009G18KT 8SM -RA OVC004 04/04 A2992 RMK AO2 RAB31 CIG 002V006 SLP137 P0001 60008 70025 T00440039 10050 20039 53010=
202111191053 METAR KPAE 191053Z AUTO 34012G19KT 9SM OVC004 04/03 A2991 RMK AO2 RAE46 CIG 001V006 SLP133 P0002 T00390033=
202111191021 SPECI KPAE 191021Z AUTO 34006KT 3SM -RA BR OVC002 04/03 A2991 RMK AO2 P0002 T00390033=
202111190953 METAR KPAE 190953Z AUTO 33008KT 4SM -RA BR OVC001 04/04 A2990 RMK AO2 SLP127 P0003 T00390039=
202111190948 SPECI KPAE 190948Z AUTO 34007G17KT 3SM -RA BR OVC001 04/03 A2989 RMK AO2 P0003=
202111190940 SPECI KPAE 190940Z AUTO 35010G18KT 2 1/2SM -RA BR OVC001 04/03 A2989 RMK AO2 P0003 T00390033=
202111190932 SPECI KPAE 190932Z AUTO 35010G18KT 1 3/4SM R16R/3500VP6000FT -RA BR OVC001 04/03 A2989 RMK AO2 VIS 1 1/4V2 1/2 P0002 T00390033=
202111190853 METAR KPAE 190853Z AUTO 35008KT 1/2SM R16R/3500VP6000FT -RA FG VV001 04/04 A2988 RMK AO2 RAB33 SLP123 P0001 60002 T00440039 53004=
202111190841 SPECI KPAE 190841Z AUTO 34008KT 1/2SM R16R/2400V3500FT -RA FG VV001 04/04 A2989 RMK AO2 RAB33 P0000 T00440039=
202111190834 SPECI KPAE 190834Z AUTO 33006G14KT 1/4SM R16R/1800V3000FT -RA FG VV001 04/04 A2989 RMK AO2 RAB33 P0000 T00440039=
202111190753 METAR KPAE 190753Z AUTO 36006KT 1/4SM R16R/1200V1600FT FG VV001 04/04 A2988 RMK AO2 RAE0656 SLP120 P0001 T00440044 400720044=
202111190735 SPECI KPAE 190735Z AUTO 35007KT 1/4SM R16R/1000V1400FT FG VV001 04/04 A2988 RMK AO2 RAE0656 P0001 T00440044=
202111190725 SPECI KPAE 190725Z AUTO 35007KT 1/4SM R16R/1000V2600FT FG VV001 04/04 A2988 RMK AO2 RAE0656 P0001 T00440044=
202111190704 SPECI KPAE 190704Z AUTO 35008KT 1/4SM R16R/1200V1800FT FG VV001 04/04 A2988 RMK AO2 RAE0656 P0000 T00440044=
202111190653 METAR KPAE 190653Z AUTO 34006KT 1/4SM R16R/1600V2400FT -RA FG VV001 04/04 A2987 RMK AO2 RAB36 SLP119 P0000 T00440044=
202111190609 SPECI KPAE 190609Z AUTO 34005KT 1/2SM R16R/1800V3000FT FG VV001 05/04 A2987 RMK AO2 T00500044=
202111190602 SPECI KPAE 190602Z AUTO 35005KT 1/4SM R16R/1800V3000FT FG VV001 05/04 A2987 RMK AO2 T00500044=
202111190553 METAR KPAE 190553Z AUTO 34003KT 1/2SM R16R/2200V2600FT FG VV001 05/04 A2987 RMK AO2 SLP118 60012 T00500044 10050 20044 53002=
202111190542 SPECI KPAE 190542Z AUTO 35003KT 3/4SM R16R/2800VP6000FT BR VV001 05/04 A2987 RMK AO2 T00500044=
202111190534 SPECI KPAE 190534Z AUTO 03004KT 1 3/4SM BR BKN002 OVC009 05/04 A2987 RMK AO2 T00500044=
202111190521 SPECI KPAE 190521Z AUTO 01007KT 6SM BR BKN003 BKN026 OVC033 04/04 A2987 RMK AO2 T00440039=
202111190453 METAR KPAE 190453Z AUTO 01004KT 10SM FEW003 OVC033 04/03 A2986 RMK AO2 RAE0357B19E27 SLP115 P0000 T00440033=
202111190353 METAR KPAE 190353Z 07005KT 10SM -RA FEW030 OVC037 04/03 A2986 RMK AO2 RAB19 SLP114 P0003 T00440033=
202111190326 SPECI KPAE 190326Z 11004KT 9SM -RA SCT002 OVC033 04/03 A2986 RMK AO2 RAB19 P0000 T00440033=
202111190253 METAR KPAE 190253Z 09006KT 10SM OVC033 04/03 A2986 RMK AO2 RAE13 SLP116 P0000 60009 T00440033 58007=
202111190153 METAR KPAE 190153Z 10006KT 9SM -RA SCT026 OVC040 05/03 A2988 RMK AO2 SLP121 P0004 T00500033=
202111190053 METAR KPAE 190053Z 00000KT 10SM -RA BKN030 OVC034 05/04 A2989 RMK AO2 SLP125 P0005 T00500039=
202111182353 METAR KPAE 182353Z 01006KT 5SM -RA BR OVC034 04/03 A2989 RMK AO2 SLP123 P0004 60005 T00440033 10072 20044 58003=
202111182253 METAR KPAE 182253Z 00000KT 8SM -RA BKN032 OVC042 05/03 A2991 RMK AO2 SLP132 P0001 T00500028=
202111182153 METAR KPAE 182153Z 01008KT 10SM -RA SCT055 BKN070 OVC080 06/03 A2988 RMK AO2 RAB18 SLP121 P0000 T00560028=
202111182053 METAR KPAE 182053Z VRB04KT 10SM SCT055 OVC085 06/01 A2990 RMK AO2 SLP126 T00560011 58008=
202111181953 METAR KPAE 181953Z 34005KT 10SM BKN090 BKN110 06/01 A2992 RMK AO2 SLP133 T00610011=
202111181853 METAR KPAE 181853Z 36004KT 10SM OVC110 06/01 A2993 RMK AO2 SLP137 T00610011=
202111181753 METAR KPAE 181753Z VRB03KT 10SM BKN110 07/M03 A2992 RMK AO2 SLP135 T00721028 10072 20061 56000=
202111181653 METAR KPAE 181653Z 00000KT 10SM FEW120 07/M03 A2992 RMK AO2 SLP135 T00671033=
202111181553 METAR KPAE 181553Z 10006KT 10SM OVC100 07/M04 A2992 RMK AO2 SLP134 T00671039=
202111181453 METAR KPAE 181453Z 00000KT 10SM BKN065 OVC095 07/M04 A2992 RMK AO2 SLP135 T00671044 56015=
202111181353 METAR KPAE 181353Z AUTO 12006KT 10SM OVC070 07/M05 A2994 RMK AO2 SLP140 T00671050=
202111181253 METAR KPAE 181253Z AUTO 11008KT 10SM OVC085 07/M06 A2995 RMK AO2 SLP145 T00671056=
202111181153 METAR KPAE 181153Z AUTO 10SM OVC090 07/M06 A2997 RMK AO2 SLP151 T00721061 10072 20061 56009=
202111181053 METAR KPAE 181053Z AUTO 11006KT 10SM OVC095 06/M06 A2997 RMK AO2 SLP152 T00611056=
202111180953 METAR KPAE 180953Z AUTO 11007KT 10SM OVC110 06/M06 A2997 RMK AO2 SLP153 T00611056=
202111180853 METAR KPAE 180853Z AUTO 11008KT 10SM OVC110 06/M06 A3000 RMK AO2 SLP160 T00611061 58018=
202111180753 METAR KPAE 180753Z AUTO 11007KT 10SM BKN120 06/M06 A3002 RMK AO2 SLP169 T00611061 400721006=
202111180653 METAR KPAE 180653Z AUTO 11008KT 10SM CLR 06/M06 A3003 RMK AO2 SLP173 T00611061=
202111180553 METAR KPAE 180553Z AUTO 11007KT 10SM CLR 06/M06 A3005 RMK AO2 SLP180 T00611061 10061 20044 57016=
202111180453 METAR KPAE 180453Z 10007KT 10SM CLR 06/M06 A3007 RMK AO2 SLP187 T00611056=
202111180353 METAR KPAE 180353Z 10006KT 10SM CLR 06/M04 A3008 RMK AO2 SLP191 T00611044=
202111180253 METAR KPAE 180253Z 10006KT 10SM CLR 06/M04 A3010 RMK AO2 SLP197 T00611039 56020=
202111180153 METAR KPAE 180153Z 02003KT 10SM CLR 05/01 A3012 RMK AO2 SLP203 T00500011=
202111180053 METAR KPAE 180053Z 01004KT 10SM CLR 05/01 A3014 RMK AO2 SLP210 T00500011=
202111172353 METAR KPAE 172353Z 01004KT 10SM CLR 05/01 A3016 RMK AO2 SLP217 T00500011 10072 20039 56034=
202111172253 METAR KPAE 172253Z 36004KT 10SM CLR 06/01 A3019 RMK AO2 SLP226 T00610011=
202111172153 METAR KPAE 172153Z 35004KT 10SM CLR 06/01 A3022 RMK AO2 SLP239 T00610006=
202111172053 METAR KPAE 172053Z 01005KT 10SM CLR 06/00 A3026 RMK AO2 SLP252 T00610000 58036=
202111171953 METAR KPAE 171953Z VRB06KT 10SM CLR 07/M01 A3030 RMK AO2 SLP265 T00721011=
202111171853 METAR KPAE 171853Z 03004KT 10SM CLR 05/M01 A3035 RMK AO2 SLP283 T00501006=
202111171753 METAR KPAE 171753Z 10007KT 10SM CLR 04/M02 A3037 RMK AO2 SLP289 T00391022 10039 21006 58011=
202111171653 METAR KPAE 171653Z 03004KT 10SM CLR 02/M02 A3039 RMK AO2 SLP295 T00171017=
202111171553 METAR KPAE 171553Z 01004KT 10SM CLR 00/M02 A3039 RMK AO2 SLP296 T00001017=
202111171453 METAR KPAE 171453Z 00000KT 10SM CLR 00/M02 A3040 RMK AO2 SLP301 T00001017 58015=
202111171353 METAR KPAE 171353Z AUTO 00000KT 10SM CLR 01/M02 A3042 RMK AO2 SLP308 T00111022=
202111171253 METAR KPAE 171253Z AUTO 06003KT 10SM CLR 01/M02 A3043 RMK AO2 SLP311 T00111017=
202111171153 METAR KPAE 171153Z AUTO 03004KT 10SM CLR 01/M02 A3045 RMK AO2 SLP316 70002 T00111017 10028 20011 56011=
202111171053 METAR KPAE 171053Z AUTO 09004KT 10SM CLR 02/M01 A3045 RMK AO2 SLP316 T00171011=
202111170953 METAR KPAE 170953Z AUTO 10006KT 10SM CLR 01/M01 A3046 RMK AO2 SLP321 T00111006=
202111170853 METAR KPAE 170853Z AUTO 10008KT 10SM CLR 02/M01 A3048 RMK AO2 SLP327 T00171006 50001=
202111170753 METAR KPAE 170753Z AUTO 10007KT 10SM CLR 02/00 A3049 RMK AO2 SLP330 T00170000 400830017=
202111170653 METAR KPAE 170653Z AUTO 11006KT 10SM CLR 02/00 A3049 RMK AO2 SLP328 T00220000=
202111170553 METAR KPAE 170553Z AUTO 10006KT 10SM CLR 03/01 A3048 RMK AO2 SLP326 T00280011 10061 20028 53014=
202111170453 METAR KPAE 170453Z 10006KT 10SM CLR 03/02 A3047 RMK AO2 SLP322 T00330017=
202111170353 METAR KPAE 170353Z 10007KT 10SM CLR 04/02 A3045 RMK AO2 SLP315 T00390022=
202111170253 METAR KPAE 170253Z 10006KT 10SM CLR 04/02 A3044 RMK AO2 SLP313 T00390017 51013=
202111170153 METAR KPAE 170153Z 10005KT 10SM CLR 04/02 A3043 RMK AO2 SLP309 T00390022=
202111170053 METAR KPAE 170053Z 11005KT 10SM CLR 04/03 A3041 RMK AO2 SLP302 T00440028=
202111162353 METAR KPAE 162353Z 00000KT 10SM CLR 06/02 A3040 RMK AO2 SLP298 60001 T00610017 10083 20056 52012=
202111162253 METAR KPAE 162253Z 00000KT 10SM FEW050 07/02 A3039 RMK AO2 SLP293 T00720017=
202111162153 METAR KPAE 162153Z 02005KT 10SM FEW011 BKN033 06/02 A3038 RMK AO2 RAB29E50 SLP291 P0001 T00610017=
202111162120 SPECI KPAE 162120Z 04006KT 10SM SCT011 BKN016 OVC033 06/03 A3038 RMK AO2 T00610028=
202111162112 SPECI KPAE 162112Z 02008G18KT 10SM FEW009 BKN012 OVC033 06/03 A3037 RMK AO2 T00610033=
202111162053 METAR KPAE 162053Z 24006KT 10SM SCT031 SCT044 BKN060 08/02 A3036 RMK AO2 SLP285 T00830022 51006=
202111161953 METAR KPAE 161953Z VRB04KT 10SM CLR 07/02 A3036 RMK AO2 SLP284 T00720022=
202111161853 METAR KPAE 161853Z 23005KT 10SM FEW046 07/03 A3036 RMK AO2 SLP285 T00670028=
202111161753 METAR KPAE 161753Z 17009KT 10SM BKN041 OVC050 06/03 A3035 RMK AO2 RAE13 SLP280 P0000 60001 T00560033 10056 20039 51018=
202111161653 METAR KPAE 161653Z 16008KT 10SM -RA OVC045 04/03 A3034 RMK AO2 RAE19B43 SLP277 P0001 T00440028=
202111161553 METAR KPAE 161553Z 24008KT 8SM -RA FEW012 OVC050 04/02 A3032 RMK AO2 RAB1458 PRESRR SLP270 P0000 T00440022=
202111161453 METAR KPAE 161453Z 18006KT 10SM OVC060 04/02 A3029 RMK AO2 SLP262 T00390022 53016=
202111161353 METAR KPAE 161353Z 16007KT 10SM OVC075 04/02 A3027 RMK AO2 SLP254 T00390017=
202111161253 METAR KPAE 161253Z 15007KT 10SM OVC080 04/02 A3025 RMK AO2 SLP248 T00390017=
202111161153 METAR KPAE 161153Z 16005KT 10SM BKN036 OVC070 04/02 A3024 RMK AO2 SLP244 60000 70092 T00440017 10044 20033 51018=
202111161053 METAR KPAE 161053Z 16006KT 10SM BKN035 OVC065 04/02 A3024 RMK AO2 RAB23E36 SLP242 P0000 T00440017=
202111160953 METAR KPAE 160953Z 16008KT 10SM SCT075 BKN090 OVC110 04/02 A3022 RMK AO2 RAB42E52 SLP235 P0000 T00440017=
202111160853 METAR KPAE 160853Z VRB04KT 10SM FEW070 BKN110 04/02 A3019 RMK AO2 SLP226 T00440017 51032=
202111160753 METAR KPAE 160753Z 15004KT 10SM BKN035 OVC070 04/02 A3017 RMK AO2 SLP219 T00440017 401440033=
202111160653 METAR KPAE 160653Z 18008KT 10SM CLR 03/02 A3012 RMK AO2 SLP202 T00330017=
202111160553 METAR KPAE 160553Z 18007KT 10SM FEW037 FEW045 FEW100 04/02 A3009 RMK AO2 SLP192 60000 T00440017 10072 20039 51057=
202111160453 METAR KPAE 160453Z 20005KT 10SM SCT048 05/02 A3004 RMK AO2 SLP173 T00500022=
202111160353 METAR KPAE 160353Z 17010KT 10SM FEW060 06/02 A2998 RMK AO2 SLP155 T00560022=
202111160253 METAR KPAE 160253Z 30014G20KT 270V330 10SM FEW090 06/00 A2992 RMK AO2 SLP134 60000 T00610000 51052=
202111160153 METAR KPAE 160153Z 10SM FEW020 06/M01 A2989 RMK AO2 PRESRR SLP122 T00611006=
202111160053 METAR KPAE 160053Z 20005KT 10SM SCT015 07/02 A2982 RMK AO2 RAB06E22 SLP098 P0000 T00720017=
202111152353 METAR KPAE 152353Z VRB04KT 10SM BKN009 OVC060 07/02 A2977 RMK AO2 RAE07 SLP081 P0000 60066 T00720017 10133 20067 53083=
202111152253 METAR KPAE 152253Z 8SM -RA BKN008 OVC050 08/04 A2969 RMK AO2 PRESRR SLP054 P0004 T00780039=
202111152200 SPECI KPAE 152200Z 36004KT 4SM -RA BR BKN007 BKN030 OVC039 07/05 A2958 RMK AO2 P0001 T00720050=
202111152153 METAR KPAE 152153Z 04004KT 1 1/2SM R16R/0400VP6000FT -RA BR BKN007 BKN011 OVC018 07/05 A2958 RMK AO2 PK WND 34027/2105 SLP016 P0028 T00720050=
202111152056 SPECI KPAE 152056Z 1 1/2SM R16R/5500VP6000FT -RA BR BKN007 OVC010 08/07 A2952 RMK AO2 P0001 T00830072=
202111152053 METAR KPAE 152053Z VRB05G18KT 4SM -RA BR BKN009 BKN013 OVC038 08/07 A2952 RMK AO2 PK WND 17046/1959 WSHFT 2027 RAE32B46 SLP995 P0002 60034 T00830072 55008=
202111152041 SPECI KPAE 152041Z 31011G30KT 10SM SCT010 BKN013 OVC038 11/10 A2950 RMK AO2 PK WND 17046/1959 WSHFT 2027 RAE32 PRESRR P0001 T01110100=
202111152028 SPECI KPAE 152028Z 19022G40KT 7SM -RA BKN013 BKN038 OVC050 12/11 A2947 RMK AO2 PK WND 17046/1959 PRESRR P0001 T01220111=
202111151953 METAR KPAE 151953Z 17027G39KT 3SM -RA BR SCT070 OVC090 13/11 A2944 RMK AO2 PK WND 18045/1930 SLP967 P0008 T01280106=
202111151853 METAR KPAE 151853Z 17021G36KT 3SM RA BR OVC065 13/11 A2947 RMK AO2 PK WND 18039/1840 SLP978 P0024 T01280106=
202111151813 SPECI KPAE 151813Z 18027G39KT 4SM RA FEW029 BKN047 OVC070 13/11 A2953 RMK AO2 PK WND 18039/1811 P0010 T01330106=
202111151758 SPECI KPAE 151758Z 18020G30KT 2 1/2SM RA SCT029 BKN035 OVC070 13/11 A2953 RMK AO2 PK WND 18030/1756 P0003 T01330106=
202111151753 METAR KPAE 151753Z 18020G30KT 3SM RA BKN029 OVC035 13/11 A2954 RMK AO2 PK WND 19038/1654 SLP002 P0018 60026 T01330106 10144 20122 56027=
202111151715 SPECI KPAE 151715Z 19026G35KT 3SM -RA BKN030 OVC036 13/10 A2956 RMK AO2 PK WND 19038/1654 P0005 T01330100=
202111151708 SPECI KPAE 151708Z 18023G35KT 2SM RA OVC030 13/10 A2956 RMK AO2 PK WND 19038/1654 P0004 T01330100=
202111151653 METAR KPAE 151653Z 18025G34KT 5SM -RA OVC030 14/09 A2956 RMK AO2 PK WND 18037/1642 RAB35 SLP009 P0003 T01390094=
202111151610 SPECI KPAE 151610Z 16019G33KT 10SM BKN030 OVC036 14/09 A2958 RMK AO2 PK WND 17033/1607 T01440089=
202111151553 METAR KPAE 151553Z 16020G30KT 10SM BKN029 OVC038 14/09 A2958 RMK AO2 PK WND 17039/1521 SLP017 T01440089=
202111151453 METAR KPAE 151453Z 17023G42KT 10SM BKN027 OVC036 13/10 A2962 RMK AO2 PK WND 14042/1446 RAE51 PRESFR SLP030 P0001 60005 T01330100 58044=
202111151442 SPECI KPAE 151442Z 16019G32KT 3SM -RA BR FEW019 BKN027 OVC034 13/11 A2964 RMK AO2 PK WND 15032/1434 P0001 T01280106=
202111151434 SPECI KPAE 151434Z 16019G32KT 2 1/2SM -RA BR FEW019 BKN027 OVC036 13/11 A2965 RMK AO2 PK WND 15032/1434 P0001 T01280106=
202111151404 SPECI KPAE 151404Z 16017G29KT 5SM -RA BR FEW019 BKN025 OVC033 13/11 A2966 RMK AO2 PK WND 15029/1356 P0000 T01280106=
202111151353 METAR KPAE 151353Z 17018G31KT 2 1/2SM -RA BR SCT019 OVC025 13/11 A2968 RMK AO2 PK WND 19036/1258 SLP050 P0002 T01280111=
202111151253 METAR KPAE 151253Z 16018G27KT 5SM -RA BR OVC020 13/11 A2973 RMK AO2 PK WND 18034/1204 SLP067 P0002 T01330111=
202111151153 METAR KPAE 151153Z 18019G29KT 5SM -RA BR FEW013 SCT018 OVC026 13/12 A2975 RMK AO2 PK WND 17038/1104 SLP075 P0002 60007 70008 T01280117 10139 20128 58017=
202111151133 SPECI KPAE 151133Z 17018G31KT 3SM -RA BR FEW012 BKN024 OVC032 13/12 A2976 RMK AO2 PK WND 17038/1104 P0002 T01280117=
202111151115 SPECI KPAE 151115Z 17020G34KT 2 1/2SM -RA BR FEW012 BKN028 OVC036 13/12 A2976 RMK AO2 PK WND 17038/1104 P0001 T01280117=
202111151053 METAR KPAE 151053Z 17020G36KT 5SM -RA BR FEW022 SCT028 OVC033 13/12 A2977 RMK AO2 PK WND 17036/1048 SLP080 P0000 T01330117=
202111151046 SPECI KPAE 151046Z 17023G32KT 8SM -RA FEW024 OVC030 13/12 A2977 RMK AO2 PK WND 17036/1018 P0000 T01330117=
202111151016 SPECI KPAE 151016Z 17019G28KT 5SM -RA BR FEW009 BKN022 OVC036 13/12 A2978 RMK AO2 PK WND 17033/0957 P0000 T01280117=
202111150953 METAR KPAE 150953Z 17020G31KT 3SM -RA BR SCT009 BKN013 OVC034 13/12 A2979 RMK AO2 PK WND 18034/0941 SLP086 P0002 T01330122=
202111150937 SPECI KPAE 150937Z 17021G33KT 3SM -RA BR SCT009 BKN013 OVC022 13/12 A2979 RMK AO2 PK WND 18033/0931 P0001 T01330122=
202111150920 SPECI KPAE 150920Z 17017G29KT 2 1/2SM -RA BR BKN008 OVC014 13/12 A2979 RMK AO2 PK WND 16032/0901 P0001 T01330122=
202111150910 SPECI KPAE 150910Z 17019G32KT 3SM -RA BR BKN010 OVC016 13/12 A2980 RMK AO2 PK WND 16032/0901 P0000 T01330122=
202111150858 SPECI KPAE 150858Z 17021G30KT 2 1/2SM -RA BR BKN008 OVC014 13/12 A2980 RMK AO2 PK WND 18030/0855 P0000 T01330122=
202111150853 METAR KPAE 150853Z 18024G30KT 3SM -RA BR BKN010 OVC030 13/12 A2980 RMK AO2 PK WND 18034/0825 SLP092 P0002 60003 T01330122 58006=
202111150838 SPECI KPAE 150838Z 18022G33KT 4SM -RA BR BKN010 OVC030 13/12 A2981 RMK AO2 PK WND 18034/0825 P0001 T01330122=
202111150828 SPECI KPAE 150828Z 17018G34KT 4SM -RA BR BKN008 OVC015 13/12 A2981 RMK AO2 PK WND 18034/0825 P0001 T01330122=
202111150810 SPECI KPAE 150810Z 17018G33KT 3SM -RA BR FEW006 BKN010 OVC015 13/13 A2981 RMK AO2 PK WND 17033/0801 P0001 T01330128=
202111150803 SPECI KPAE 150803Z 17019G33KT 3SM -RA BR BKN008 BKN013 OVC023 14/13 A2981 RMK AO2 PK WND 17033/0801 P0000 T01390128=
202111150753 METAR KPAE 150753Z 17019G29KT 2 1/2SM -RA BR FEW007 BKN010 OVC021 14/13 A2982 RMK AO2 PK WND 17038/0654 RAB0656E20B35 SLP096 P0001 T01390128 401560122=
202111150745 SPECI KPAE 150745Z 17018G28KT 3SM -RA BR BKN007 BKN013 OVC032 14/13 A2982 RMK AO2 PK WND 17038/0654 RAB0656E20B35 P0001 T01390128=
202111150721 SPECI KPAE 150721Z 17018G31KT 9SM BKN011 OVC019 14/13 A2981 RMK AO2 PK WND 17038/0654 RAB0656E20 P0000 T01390128=
202111150653 METAR KPAE 150653Z 18023G32KT 5SM BR BKN009 OVC016 14/13 A2982 RMK AO2 PK WND 19034/0559 RAE51 CIG 006V012 SLP098 P0000 T01390128=
202111150553 METAR KPAE 150553Z 18018G37KT 4SM -RA BR BKN009 BKN013 OVC028 14/13 A2983 RMK AO2 PK WND 17039/0526 RAB29 SLP099 P0001 60001 T01390128 10150 20139 58001=
202111150453 METAR KPAE 150453Z 18023G38KT 6SM BR OVC008 14/13 A2983 RMK AO2 PK WND 17038/0444 RAE34 CIG 006V012 SLP101 P0000 T01390128=
202111150353 METAR KPAE 150353Z 19022G36KT 4SM -RA BR BKN008 OVC013 14/13 A2984 RMK AO2 PK WND 19038/0339 RAB40 SLP103 P0000 T01390133=
202111150315 SPECI KPAE 150315Z 18022G31KT 7SM BKN008 OVC016 14/13 A2983 RMK AO2 PK WND 17032/0304 T01440133=
202111150253 METAR KPAE 150253Z 17021G35KT 7SM SCT009 BKN012 OVC020 14/13 A2983 RMK AO2 PK WND 18043/0200 SLP101 T01440133 56011=
202111150153 METAR KPAE 150153Z 18025G33KT 10SM BKN008 OVC016 14/13 A2983 RMK AO2 PK WND 18046/0131 SLP102 T01440133=
202111150053 METAR KPAE 150053Z 18029G40KT 10SM BKN008 OVC075 15/13 A2984 RMK AO2 PK WND 18044/0001 SLP105 T01500133=
202111142353 METAR KPAE 142353Z 18028G40KT 10SM OVC008 15/13 A2986 RMK AO2 PK WND 18041/2255 SLP112 T01500133 10156 20144 55006=
202111142253 METAR KPAE 142253Z 18024G33KT 10SM OVC007 16/14 A2986 RMK AO2 PK WND 17045/2211 SLP110 T01560139=
202111142153 METAR KPAE 142153Z 18024G48KT 10SM BKN007 OVC016 16/14 A2987 RMK AO2 PK WND 17049/2115 SLP113 T01560139=
202111142053 METAR KPAE 142053Z 18024G36KT 10SM BKN007 OVC013 15/13 A2988 RMK AO2 PK WND 18038/2042 SLP119 T01500133 58002=
202111142038 SPECI KPAE 142038Z 17018G35KT 10SM BKN007 OVC013 15/13 A2989 RMK AO2 PK WND 18038/2016 T01500133=
202111141953 METAR KPAE 141953Z 18026G39KT 10SM OVC011 15/13 A2989 RMK AO2 PK WND 19045/1854 CIG 008V013 SLP121 T01500133=
202111141853 METAR KPAE 141853Z 18026G40KT 10SM OVC010 15/13 A2989 RMK AO2 PK WND 18043/1755 SLP121 T01500128=
202111141753 METAR KPAE 141753Z 18028G48KT 10SM BKN012 OVC018 14/13 A2989 RMK AO2 PK WND 17048/1744 SLP122 T01440128 10144 20133 51009=
202111141653 METAR KPAE 141653Z 18027G42KT 10SM BKN011 BKN016 OVC080 14/12 A2989 RMK AO2 PK WND 19046/1638 SLP121 T01390122=
202111141553 METAR KPAE 141553Z 18034G44KT 10SM BKN011 OVC016 14/12 A2988 RMK AO2 PK WND 17048/1519 CIG 008V012 SLP117 T01390122=
202111141453 METAR KPAE 141453Z 18029G44KT 10SM OVC012 14/12 A2986 RMK AO2 PK WND 17050/1416 SLP112 T01390122 58005=
202111141353 METAR KPAE 141353Z AUTO 17023G44KT 10SM OVC012 14/12 A2987 RMK AO2 PK WND 17047/1309 SLP114 T01390117=
202111141253 METAR KPAE 141253Z AUTO 19029G43KT 10SM BKN013 13/12 A2988 RMK AO2 PK WND 19048/1159 SLP117 T01330117=
202111141153 METAR KPAE 141153Z AUTO 18033G43KT 10SM OVC013 13/12 A2987 RMK AO2 PK WND 18051/1105 SLP117 60000 70010 T01330117 10139 20100 58013=
202111141053 METAR KPAE 141053Z AUTO 18029G47KT 10SM BKN012 OVC018 14/12 A2989 RMK AO2 PK WND 16047/1045 SLP120 T01390117=
202111140953 METAR KPAE 140953Z AUTO 18015G24KT 10SM OVC010 13/12 A2992 RMK AO2 PK WND 19034/0857 SLP131 T01330122=
202111140907 SPECI KPAE 140907Z AUTO 19018G34KT 10SM OVC011 13/12 A2991 RMK AO2 PK WND 19034/0857 CIG 008V013 T01330117=
202111140853 METAR KPAE 140853Z AUTO 19020G32KT 10SM BKN009 OVC013 13/12 A2991 RMK AO2 PK WND 18036/0839 CIG 007V011 PRESRR SLP130 60000 T01330117 53001=
202111140851 SPECI KPAE 140851Z AUTO 19019G32KT 10SM BKN009 OVC013 13/12 A2990 RMK AO2 PK WND 18036/0839 CIG 007V011=
202111140815 SPECI KPAE 140815Z AUTO 18019G33KT 10SM BKN010 BKN015 OVC095 13/12 A2991 RMK AO2 PK WND 17034/0801 CIG 007V014 T01280117=
202111140753 METAR KPAE 140753Z AUTO 18017G26KT 10SM BKN008 OVC014 12/11 A2989 RMK AO2 PK WND 16026/0700 CIG 005V012 SLP123 T01220111 401220067=
202111140653 METAR KPAE 140653Z AUTO 17015G24KT 10SM OVC006 11/11 A2991 RMK AO2 PK WND 16028/0612 RAE06 CIG 004V011 SLP129 P0000 T01110106=
202111140553 METAR KPAE 140553Z AUTO 16018G25KT 10SM -RA OVC007 10/09 A2991 RMK AO2 PK WND 15029/0541 RAB50 CIG 004V010 SLP132 P0000 60010 T01000089 10100 20078 56022=
202111140532 SPECI KPAE 140532Z AUTO 16017G24KT 10SM BKN005 OVC009 09/09 A2992 RMK AO2 CIG 003V007 T00940089=
202111140500 SPECI KPAE 140500Z AUTO 15013G24KT 9SM BKN004 OVC010 08/08 A2992 RMK AO2 T00830078=
202111140453 METAR KPAE 140453Z 16014G24KT 9SM BKN020 OVC027 08/08 A2991 RMK AO2 PK WND 14026/0438 RAE25 SLP132 P0000 T00830078=
202111140353 METAR KPAE 140353Z 15013G20KT 8SM -RA BKN020 OVC027 08/07 A2996 RMK AO2 SLP147 P0003 T00830072=
202111140341 SPECI KPAE 140341Z 15009G17KT 6SM -RA BR SCT021 BKN028 OVC035 08/07 A2996 RMK AO2 P0003 T00830067=
202111140253 METAR KPAE 140253Z VRB06G16KT 10SM -RA BKN034 OVC049 08/06 A2998 RMK AO2 SLP155 P0004 60007 T00780061 58052=
202111140153 METAR KPAE 140153Z VRB04KT 10SM -RA OVC055 08/06 A3007 RMK AO2 SLP184 P0003 T00780061=
202111140053 METAR KPAE 140053Z 11009KT 8SM -RA OVC070 08/07 A3011 RMK AO2 RAB20 SLP197 P0000 T00780067=
202111132353 METAR KPAE 132353Z 14006KT 10SM OVC090 08/07 A3014 RMK AO2 SLP207 T00830067 10089 20078 56040=
202111132253 METAR KPAE 132253Z 15003KT 10SM OVC095 08/06 A3017 RMK AO2 PRESFR SLP218 T00830061=
202111132153 METAR KPAE 132153Z 20004KT 10SM OVC110 09/07 A3021 RMK AO2 SLP233 T00890067=
202111132053 METAR KPAE 132053Z 00000KT 10SM OVC100 08/07 A3026 RMK AO2 SLP248 T00830067 58026=
202111131953 METAR KPAE 131953Z 00000KT 10SM OVC100 08/07 A3029 RMK AO2 SLP260 T00830067=
202111131853 METAR KPAE 131853Z 19003KT 10SM OVC100 08/06 A3032 RMK AO2 SLP270 T00830061=
202111131836 SPECI KPAE 131836Z 00000KT 10SM FEW005 BKN100 08/06 A3032 RMK AO2 T00780061=
202111131755 SPECI KPAE 131755Z 08003KT 9SM SCT003 BKN008 OVC110 08/07 A3034 RMK AO2 T00780072=
202111131753 METAR KPAE 131753Z 09004KT 9SM BKN003 BKN008 OVC110 08/07 A3034 RMK AO2 SLP275 T00780072 10083 20067 58003=
202111131653 METAR KPAE 131653Z 11004KT 1/2SM R16R/P6000FT FG VV001 07/07 A3035 RMK AO2 SLP278 T00720067=
202111131618 SPECI KPAE 131618Z 11005KT 1/2SM R16R/P6000FT FG VV001 07/07 A3033 RMK AO2 T00720067=
202111131600 SPECI KPAE 131600Z 11005KT 10SM BCFG FEW120 07/06 A3033 RMK AO2 T00720061=
202111131553 METAR KPAE 131553Z 00000KT 10SM BCFG BKN003 07/06 A3034 RMK AO2 SLP275 T00720061=
202111131453 METAR KPAE 131453Z 18003KT 10SM CLR 07/06 A3034 RMK AO2 SLP278 T00670061 55000=
202111131353 METAR KPAE 131353Z AUTO 00000KT 10SM CLR 07/06 A3034 RMK AO2 SLP276 T00670056=
202111131253 METAR KPAE 131253Z AUTO 10003KT 10SM CLR 08/06 A3035 RMK AO2 SLP278 T00780061=
202111131153 METAR KPAE 131153Z AUTO 09004KT 10SM CLR 08/07 A3034 RMK AO2 SLP278 70086 T00830067 10100 20078 50002=
202111131053 METAR KPAE 131053Z AUTO 11003KT 10SM BKN060 08/06 A3037 RMK AO2 SLP286 T00830061=
202111130953 METAR KPAE 130953Z AUTO 07003KT 10SM CLR 09/06 A3035 RMK AO2 SLP281 T00890061=
202111130853 METAR KPAE 130853Z AUTO 05005KT 10SM OVC032 09/06 A3034 RMK AO2 SLP275 T00940061 51016=
202111130753 METAR KPAE 130753Z AUTO 07003KT 10SM FEW049 09/06 A3033 RMK AO2 SLP272 T00890061 401440089=
202111130653 METAR KPAE 130653Z AUTO 03003KT 10SM OVC032 10/07 A3032 RMK AO2 SLP268 T01000072=
202111130553 METAR KPAE 130553Z AUTO VRB03KT 10SM BKN034 09/07 A3029 RMK AO2 SLP259 60001 T00940072 10111 20094 53019=
202111130500 SPECI KPAE 130500Z AUTO 00000KT 10SM BKN033 10/08 A3027 RMK AO2 T01000078=
202111130453 METAR KPAE 130453Z 00000KT 10SM SCT005 BKN022 OVC033 10/08 A3027 RMK AO2 SLP250 T01000083=
202111130400 SPECI KPAE 130400Z 35004KT 10SM SCT005 BKN022 OVC033 10/09 A3025 RMK AO2 T01000094=
202111130353 METAR KPAE 130353Z 34005KT 10SM BKN006 10/09 A3026 RMK AO2 RAB09E43 SLP246 P0001 T01000089=
202111130323 SPECI KPAE 130323Z 32007KT 3SM -RA BR BKN005 OVC012 11/10 A3025 RMK AO2 RAB09 P0001 T01060100=
202111130315 SPECI KPAE 130315Z 28006KT 2 1/2SM R16R/6000VP6000FT -RA BR BKN003 OVC010 11/10 A3024 RMK AO2 RAB09 P0000 T01060100=
202111130253 METAR KPAE 130253Z 24004KT 9SM BKN005 11/11 A3023 RMK AO2 RAB17E23B32E42 SLP239 P0000 60000 T01110106 53022=
202111130230 SPECI KPAE 130230Z 21006KT 10SM BKN005 11/11 A3023 RMK AO2 RAB17E23 P0000 T01110106=
202111130205 SPECI KPAE 130205Z 21004KT 10SM FEW009 BKN016 OVC023 11/10 A3021 RMK AO2 T01110100=
202111130153 METAR KPAE 130153Z 21006KT 10SM SCT010 BKN016 OVC021 11/10 A3021 RMK AO2 SLP231 T01110100=
202111130138 SPECI KPAE 130138Z 00000KT 10SM FEW009 BKN018 OVC023 11/10 A3019 RMK AO2 T01110100=
202111130053 METAR KPAE 130053Z 17004KT 10SM BKN015 OVC030 11/10 A3018 RMK AO2 SLP220 T01110100=
202111122353 METAR KPAE 122353Z 17007KT 10SM SCT005 BKN015 11/10 A3017 RMK AO2 RAE2259 SLP216 P0000 60063 T01110100 10122 20106 53005=
202111122310 SPECI KPAE 122310Z 14006KT 6SM BR SCT005 BKN015 11/10 A3016 RMK AO2 RAE2259 P0000 T01110100=
202111122300 SPECI KPAE 122300Z VRB04KT 10SM BKN005 OVC015 11/10 A3016 RMK AO2 RAE2259 P0000 T01110100=
202111122253 METAR KPAE 122253Z VRB05KT 2SM -RA BR BKN005 OVC015 11/10 A3016 RMK AO2 SLP212 P0003 T01110100=
202111122153 METAR KPAE 122153Z 10010KT 2SM RA BR BKN005 OVC015 11/10 A3014 RMK AO2 SLP208 P0022 T01060100=
202111122053 METAR KPAE 122053Z VRB05KT 2SM -RA BR BKN005 OVC015 11/11 A3015 RMK AO2 SLP212 P0020 60038 T01110106 53012=
202111122000 SPECI KPAE 122000Z 07006KT 2 1/2SM RA BR FEW005 BKN023 OVC029 12/11 A3013 RMK AO2 P0003 T01170111=
202111121953 METAR KPAE 121953Z 08003KT 2SM RA BR OVC008 12/11 A3014 RMK AO2 SLP205 P0013 T01170111=
202111121946 SPECI KPAE 121946Z 08005KT 3SM RA BR OVC008 12/11 A3013 RMK AO2 P0012 T01170111=
202111121920 SPECI KPAE 121920Z 02004KT 2 1/2SM RA BR OVC008 12/11 A3014 RMK AO2 P0004 T01170111=
202111121853 METAR KPAE 121853Z 07005KT 3SM -RA BR BKN007 OVC019 12/11 A3013 RMK AO2 SLP203 P0005 T01220111=
202111121841 SPECI KPAE 121841Z 01003KT 4SM -RA BR BKN007 OVC019 12/11 A3014 RMK AO2 P0004 T01220111=
202111121755 SPECI KPAE 121755Z 10003KT 2SM -RA BR BKN007 OVC019 12/12 A3012 RMK AO2 P0000 T01220117=
202111121753 METAR KPAE 121753Z 11003KT 1SM R16R/P6000FT -RA BR BKN007 OVC019 12/12 A3012 RMK AO2 SLP199 P0006 60022 T01220117 10144 20122 51012=
202111121653 METAR KPAE 121653Z 26004KT 1SM R16R/P6000FT -RA BR OVC002 13/12 A3011 RMK AO2 SLP195 P0008 T01280122=
202111121637 SPECI KPAE 121637Z 21006KT 1SM R16R/P6000FT -RA BR OVC005 13/12 A3010 RMK AO2 P0005 T01280122=
202111121627 SPECI KPAE 121627Z 22005KT 4SM -RA BR FEW007 BKN014 OVC020 13/12 A3010 RMK AO2 P0004 T01280122=
202111121620 SPECI KPAE 121620Z 20009KT 3SM -RA BR FEW005 OVC016 13/12 A3010 RMK AO2 P0003 T01280122=
202111121606 SPECI KPAE 121606Z 20007KT 1 1/4SM R16R/6000VP6000FT -RA BR SCT005 OVC010 12/12 A3010 RMK AO2 P0002 T01220122=
202111121553 METAR KPAE 121553Z 21006KT 1 1/2SM -RA BR OVC004 12/12 A3010 RMK AO2 SLP193 P0003 T01220122=
202111121510 SPECI KPAE 121510Z 25003KT 1 3/4SM R16R/5500VP6000FT -RA BR OVC004 13/12 A3008 RMK AO2 P0001 T01280122=
202111121506 SPECI KPAE 121506Z 28004KT 2SM -RA BR OVC005 13/13 A3010 RMK AO2 CIG 002V007 P0001 T01280128=
202111121453 METAR KPAE 121453Z 22005KT 3SM -RA BR OVC005 13/13 A3008 RMK AO2 RAE1357B29 PRESRR SLP188 P0002 60005 T01330128 51010=
202111121449 SPECI KPAE 121449Z 20006KT 3SM -RA BR OVC005 13/13 A3007 RMK AO2 RAE1357B29 P0001=
202111121440 SPECI KPAE 121440Z AUTO 20008KT 2 1/2SM -RA BR OVC005 13/13 A3006 RMK AO2 RAE1357B29 P0001 T01330128=
202111121353 METAR KPAE 121353Z AUTO 20010G20KT 3SM -RA BR OVC005 13/13 A3006 RMK AO2 RAE03B17 SLP182 P0002 T01330128=
202111121309 SPECI KPAE 121309Z AUTO 20013G19KT 10SM OVC009 14/13 A3006 RMK AO2 RAE03 P0000 T01390128=
202111121253 METAR KPAE 121253Z AUTO 21011G24KT 10SM -RA OVC010 14/13 A3005 RMK AO2 PK WND 18035/1235 RAB19 CIG 008V013 SLP177 P0001 T01390128=
202111121153 METAR KPAE 121153Z AUTO 19013G26KT 10SM OVC008 14/13 A3002 RMK AO2 PK WND 19026/1147 CIG 007V014 SLP167 60008 70048 T01390128 10139 20133 58002=
202111121053 METAR KPAE 121053Z AUTO 18014G23KT 10SM OVC007 14/13 A3004 RMK AO2 CIG 005V012 SLP174 T01390128=
202111121006 SPECI KPAE 121006Z AUTO 18017G22KT 10SM BKN005 OVC010 13/13 A3003 RMK AO2 CIG 003V007 T01330128=
202111120953 METAR KPAE 120953Z AUTO 17013G21KT 10SM BKN004 OVC008 13/13 A3003 RMK AO2 RAE36 SLP168 P0004 T01330128=
202111120919 SPECI KPAE 120919Z AUTO 17014G25KT 7SM -RA BKN006 OVC032 13/13 A3001 RMK AO2 P0004 T01330128=
202111120853 METAR KPAE 120853Z AUTO 18014G22KT 8SM -RA OVC004 13/13 A3003 RMK AO2 PK WND 15029/0818 CIG 003V008 SLP168 P0003 60004 T01330133 53002=
202111120812 SPECI KPAE 120812Z AUTO 17015G25KT 10SM -RA OVC005 13/13 A3002 RMK AO2 P0001 T01330128=
202111120753 METAR KPAE 120753Z AUTO 17014G28KT 5SM -RA BR OVC003 13/13 A3000 RMK AO2 PK WND 16030/0712 RAB37 SLP161 P0001 T01330128 401390067=
202111120724 SPECI KPAE 120724Z AUTO 16017G27KT 10SM OVC004 13/13 A3001 RMK AO2 PK WND 16030/0712 CIG 003V007 T01330128=
202111120705 SPECI KPAE 120705Z AUTO 15018G27KT 10SM OVC006 14/13 A3001 RMK AO2 PK WND 16027/0704 CIG 003V010 T01390128=
202111120653 METAR KPAE 120653Z AUTO 17015G30KT 10SM BKN004 OVC009 14/13 A3001 RMK AO2 PK WND 16030/0647 CIG 003V007 SLP163 T01390128=
202111120553 METAR KPAE 120553Z AUTO 15015G24KT 10SM BKN004 BKN008 OVC014 13/12 A3002 RMK AO2 PK WND 16033/0521 SLP166 60008 T01280122 10128 20100 55003=
202111120527 SPECI KPAE 120527Z AUTO 16019G33KT 9SM SCT005 OVC012 13/12 A3001 RMK AO2 PK WND 16033/0521 T01280122=
202111120520 SPECI KPAE 120520Z AUTO 16023G31KT 9SM SCT005 BKN009 OVC090 13/12 A3001 RMK AO2 PK WND 15031/0519 CIG 007V012 T01280122=
202111120512 SPECI KPAE 120512Z AUTO 16017G28KT 9SM SCT004 BKN011 OVC100 13/12 A3001 RMK AO2 PK WND 15028/0504 CIG 007V015 T01280122=
202111120453 METAR KPAE 120453Z 16017G32KT 10SM FEW005 BKN009 OVC100 13/12 A3000 RMK AO2 PK WND 16032/0451 CIG 008V012 SLP159 T01280122=
202111120353 METAR KPAE 120353Z 15013G22KT 7SM BKN007 11/11 A3002 RMK AO2 RAE24 SLP169 P0001 T01110106=
202111120302 SPECI KPAE 120302Z 14009G22KT 100V170 3SM -RA BR BKN007 11/10 A3002 RMK AO2 P0000 T01060100=
202111120300 SPECI KPAE 120300Z 14009G18KT 100V160 4SM -RA BR OVC002 11/10 A3002 RMK AO2 P0000 T01060100=
202111120253 METAR KPAE 120253Z 14007G16KT 100V170 3SM -RA BR BKN007 11/10 A3003 RMK AO2 RAE09B25 SLP170 P0001 60007 T01060100 58013=
202111120153 METAR KPAE 120153Z VRB04KT 3SM -RA BR BKN007 OVC017 11/10 A3004 RMK AO2 SLP174 P0004 T01060100=
202111120053 METAR KPAE 120053Z 14007KT 110V180 3SM -RA BR BKN007 OVC017 11/10 A3007 RMK AO2 SLP184 P0002 T01060100=
202111112356 SPECI KPAE 112356Z 14007KT 3SM -RA BR BKN007 OVC017 11/09 A3007 RMK AO2 P0000 T01060094=
202111112353 METAR KPAE 112353Z 14008KT 1/2SM R16R/P6000FT -RA FG BKN003 OVC007 11/09 A3007 RMK AO2 SLP183 P0001 60032 T01060094 10106 20083 58020=
202111112253 METAR KPAE 112253Z 12010G18KT 090V160 3/4SM R16R/P6000FT -RA BR BKN003 OVC028 09/09 A3008 RMK AO2 PRESFR SLP186 P0007 T00940089=
202111112153 METAR KPAE 112153Z VRB06G16KT 2SM RA BR BKN009 OVC031 10/09 A3012 RMK AO2 SLP201 P0021 T01000089=
202111112053 METAR KPAE 112053Z 11004KT 2SM -RA BR OVC003 10/09 A3013 RMK AO2 RAB16 SLP203 P0003 60003 T01000094 56014=
202111112000 SPECI KPAE 112000Z VRB04KT 1SM R16R/P6000FT BR OVC003 09/08 A3014 RMK AO2 T00890083=
202111111953 METAR KPAE 111953Z 12005KT 1/2SM R16R/5000VP6000FT FG BKN003 OVC008 09/08 A3014 RMK AO2 SLP209 T00890083=
202111111932 SPECI KPAE 111932Z VRB04KT 3/4SM R16R/P6000FT BR BKN003 OVC010 09/08 A3014 RMK AO2 T00890083=
202111111925 SPECI KPAE 111925Z VRB03KT 1SM R16R/P6000FT BR BKN003 OVC010 09/08 A3014 RMK AO2 T00890083=
202111111907 SPECI KPAE 111907Z 11009KT 1/2SM R16R/P6000FT FG BKN003 OVC010 08/08 A3015 RMK AO2 T00830078=
202111111900 SPECI KPAE 111900Z 11007KT 1SM R16R/P6000FT BR BKN003 OVC010 08/08 A3015 RMK AO2 T00830078=
202111111853 METAR KPAE 111853Z 11008KT 1/2SM R16R/P6000FT FG OVC002 08/08 A3015 RMK AO2 RAB02E34 SLP212 P0000 T00830078=
202111111753 METAR KPAE 111753Z 11006KT 1SM R16R/P6000FT BR OVC004 08/08 A3017 RMK AO2 SLP218 T00830078 10083 20067 53008=
202111111653 METAR KPAE 111653Z 11007KT 2SM R16R/6000VP6000FT BR OVC004 08/07 A3015 RMK AO2 SLP214 T00780072=
202111111553 METAR KPAE 111553Z 10007KT 2SM BR OVC008 07/07 A3015 RMK AO2 SLP211 T00720067=
202111111546 SPECI KPAE 111546Z 10007KT 2SM BR OVC008 07/07 A3015 RMK AO2 T00720067=
202111111453 METAR KPAE 111453Z 11007KT 3SM BR OVC009 07/07 A3014 RMK AO2 SLP210 T00720067 50007=
202111111353 METAR KPAE 111353Z AUTO 10007KT 10SM OVC012 07/06 A3015 RMK AO2 SLP212 T00720061=
202111111325 SPECI KPAE 111325Z AUTO 11009KT 10SM OVC014 07/06 A3014 RMK AO2 T00720061=
202111111253 METAR KPAE 111253Z AUTO 11008KT 10SM OVC015 07/06 A3014 RMK AO2 SLP207 T00670061=
202111111153 METAR KPAE 111153Z AUTO VRB06KT 8SM BKN016 OVC021 07/06 A3012 RMK AO2 SLP202 60005 70007 T00670061 10072 20067 53002=
202111111053 METAR KPAE 111053Z AUTO 11010KT 10SM OVC022 07/06 A3011 RMK AO2 SLP198 T00670056=
202111110953 METAR KPAE 110953Z AUTO VRB05KT 10SM BKN026 OVC032 07/06 A3011 RMK AO2 RAE15 SLP199 P0000 T00720056=
202111110948 SPECI KPAE 110948Z AUTO VRB05KT 10SM BKN026 OVC032 07/06 A3011 RMK AO2 RAE15 P0000=
202111110853 METAR KPAE 110853Z AUTO 13005KT 10SM -RA SCT034 BKN080 OVC100 07/05 A3010 RMK AO2 RAE09B34 SLP193 P0001 60005 T00720050 58018=
202111110753 METAR KPAE 110753Z AUTO VRB04KT 6SM -RA OVC036 07/04 A3012 RMK AO2 SLP201 P0004 T00720039 401000061=
202111110653 METAR KPAE 110653Z AUTO 14004KT 10SM -RA OVC046 07/03 A3013 RMK AO2 RAB12 SLP206 P0000 T00720033=
202111110553 METAR KPAE 110553Z AUTO 11007KT 10SM BKN050 OVC060 07/03 A3015 RMK AO2 RAE0456 SLP213 P0000 60002 T00720033 10094 20067 58018=
202111110453 METAR KPAE 110453Z 11006KT 10SM -RA OVC060 07/04 A3017 RMK AO2 SLP221 P0002 T00670039=
202111110353 METAR KPAE 110353Z 10008KT 10SM -RA BKN055 OVC070 07/03 A3019 RMK AO2 RAB39 SLP226 P0000 T00720033=
202111110253 METAR KPAE 110253Z 10008KT 10SM BKN075 OVC100 08/03 A3020 RMK AO2 SLP231 T00780033 56023=
202111110153 METAR KPAE 110153Z 10007KT 10SM OVC075 08/03 A3022 RMK AO2 SLP237 T00830033=
202111110053 METAR KPAE 110053Z 12004KT 10SM BKN080 09/03 A3025 RMK AO2 SLP246 T00890033=
202111102353 METAR KPAE 102353Z 11005KT 10SM BKN080 BKN120 09/04 A3027 RMK AO2 SLP253 T00940039 10100 20072 57008=
202111102253 METAR KPAE 102253Z 11005KT 10SM SCT030 09/04 A3027 RMK AO2 SLP255 T00940039=
202111102153 METAR KPAE 102153Z 27006KT 10SM SCT031 BKN040 BKN049 09/04 A3030 RMK AO2 SLP263 T00940044=
202111102053 METAR KPAE 102053Z 15004KT 10SM BKN026 BKN032 09/04 A3029 RMK AO2 SLP260 T00940039 58010=
202111101953 METAR KPAE 101953Z 17008KT 10SM BKN021 09/04 A3030 RMK AO2 SLP265 T00940044=
202111101853 METAR KPAE 101853Z 16008KT 10SM OVC017 08/04 A3033 RMK AO2 SLP272 T00780039=
202111101815 SPECI KPAE 101815Z 15007KT 10SM OVC015 08/04 A3033 RMK AO2 T00780044=
202111101801 SPECI KPAE 101801Z 17009KT 10SM OVC013 07/04 A3032 RMK AO2 T00720044=
202111101753 METAR KPAE 101753Z 18007KT 10SM OVC015 07/04 A3032 RMK AO2 SLP271 T00720044 10072 20061 51013=
202111101653 METAR KPAE 101653Z 16009KT 10SM BKN016 07/04 A3031 RMK AO2 SLP268 T00720044=
202111101632 SPECI KPAE 101632Z VRB06KT 10SM OVC016 07/04 A3031 RMK AO2 T00670044=
202111101553 METAR KPAE 101553Z 15005KT 10SM OVC010 07/04 A3030 RMK AO2 SLP264 T00670044=
202111101453 METAR KPAE 101453Z 15007KT 10SM BKN010 OVC015 06/04 A3028 RMK AO2 SLP258 T00610044 51013=
202111101439 SPECI KPAE 101439Z 15007KT 10SM BKN013 OVC022 06/04 A3028 RMK AO2 T00610044=
202111101419 SPECI KPAE 101419Z AUTO 14007KT 10SM SCT011 OVC022 06/04 A3028 RMK AO2 T00610044=
202111101353 METAR KPAE 101353Z AUTO VRB05KT 10SM BKN012 OVC018 06/04 A3027 RMK AO2 SLP254 T00610044=
202111101253 METAR KPAE 101253Z AUTO VRB03KT 10SM BKN011 OVC021 06/04 A3026 RMK AO2 SLP250 T00610044=
202111101153 METAR KPAE 101153Z AUTO 00000KT 10SM OVC012 07/04 A3024 RMK AO2 SLP245 70029 T00670044 10067 20061 53012=
202111101128 SPECI KPAE 101128Z AUTO 15006KT 10SM OVC013 07/04 A3024 RMK AO2 T00670044=
202111101053 METAR KPAE 101053Z AUTO 17005KT 10SM OVC017 06/04 A3023 RMK AO2 SLP239 T00610044=
202111100953 METAR KPAE 100953Z AUTO 16010KT 10SM OVC015 06/04 A3022 RMK AO2 SLP235 T00610044=
202111100936 SPECI KPAE 100936Z AUTO 16008KT 10SM OVC015 06/04 A3022 RMK AO2 T00610044=
202111100853 METAR KPAE 100853Z AUTO 18007KT 10SM BKN013 OVC020 06/04 A3021 RMK AO2 SLP233 T00610044 51024=
202111100836 SPECI KPAE 100836Z AUTO 16007KT 10SM BKN015 OVC022 06/04 A3021 RMK AO2 T00610044=
202111100826 SPECI KPAE 100826Z AUTO 17006KT 10SM BKN013 OVC020 06/04 A3020 RMK AO2 T00610044=
202111100802 SPECI KPAE 100802Z AUTO 16009KT 10SM BKN015 OVC021 06/04 A3019 RMK AO2 T00610044=
202111100753 METAR KPAE 100753Z AUTO 16007KT 10SM OVC013 06/04 A3019 RMK AO2 SLP224 T00610044 401220056=
202111100724 SPECI KPAE 100724Z AUTO 16009KT 10SM BKN013 06/04 A3017 RMK AO2 T00610044=
202111100653 METAR KPAE 100653Z AUTO VRB05KT 10SM BKN017 06/04 A3016 RMK AO2 SLP217 T00610044=
202111100609 SPECI KPAE 100609Z AUTO 16010KT 10SM SCT013 OVC020 07/04 A3015 RMK AO2 T00670044=
202111100553 METAR KPAE 100553Z AUTO 16010KT 10SM OVC014 07/04 A3014 RMK AO2 SLP208 60006 T00670044 10072 20067 53028=
202111100543 SPECI KPAE 100543Z AUTO 16008KT 10SM BKN012 OVC023 07/04 A3014 RMK AO2 T00670044=
202111100453 METAR KPAE 100453Z 15012KT 10SM OVC017 07/05 A3011 RMK AO2 RAE10 SLP199 P0000 T00670050=
202111100424 SPECI KPAE 100424Z 18010KT 10SM BKN015 OVC023 07/05 A3009 RMK AO2 RAE10 P0000 T00670050=
202111100353 METAR KPAE 100353Z 19006KT 5SM -RA BR OVC012 07/06 A3008 RMK AO2 RAB0259 SLP188 P0006 T00670056=
202111100253 METAR KPAE 100253Z 19013KT 10SM BKN014 OVC023 07/05 A3006 RMK AO2 RAB25E31 SLP180 P0000 60000 T00720050 53030=
202111100235 SPECI KPAE 100235Z 20007KT 10SM OVC013 07/05 A3004 RMK AO2 RAB25E31 P0000 T00670050=
202111100207 SPECI KPAE 100207Z 19011KT 10SM BKN017 BKN090 OVC110 07/04 A3003 RMK AO2 T00670044=
202111100153 METAR KPAE 100153Z 19012KT 10SM FEW021 SCT050 OVC095 07/04 A3001 RMK AO2 PK WND 20027/0109 SLP166 T00670039=
202111100053 METAR KPAE 100053Z 19017G24KT 10SM FEW021 BKN090 OVC120 07/04 A2998 RMK AO2 PK WND 18028/0007 RAE2356 SLP156 P0000 T00670039=
202111100003 SPECI KPAE 100003Z 19018G27KT 10SM FEW020 SCT025 BKN032 07/05 A2997 RMK AO2 PK WND 20027/0003 RAE2356 P0000 T00720050=
202111092353 METAR KPAE 092353Z 19018G26KT 10SM -RA FEW019 BKN025 OVC033 07/06 A2996 RMK AO2 PK WND 21029/2259 RAE23B47 SLP150 P0003 60022 T00720056 10106 20056 51031=
202111092326 SPECI KPAE 092326Z 20010KT 10SM SCT020 BKN026 OVC031 07/05 A2997 RMK AO2 PK WND 21029/2259 RAE23 P0003 T00720050=
202111092253 METAR KPAE 092253Z 20021G37KT 6SM -RA SCT039 BKN049 OVC100 08/04 A2994 RMK AO2 PK WND 19037/2252 RAE08B45 SLP141 P0002 T00780039=
202111092213 SPECI KPAE 092213Z 18019G31KT 10SM SCT022 07/04 A2990 RMK AO2 PK WND 18032/2202 RAE08 P0002 T00720039=
202111092206 SPECI KPAE 092206Z 17021G32KT 10SM -RA BKN024 BKN036 07/04 A2990 RMK AO2 PK WND 18032/2202 P0002 T00670044=
202111092153 METAR KPAE 092153Z 20020G32KT 2 1/2SM R16R/5500VP6000FT +RA BR FEW016 BKN028 OVC070 06/04 A2992 RMK AO2 PK WND 21032/2150 SLP135 P0015 T00560039=
202111092125 SPECI KPAE 092125Z 20013G29KT 5SM R16R/5000VP6000FT RA BR BKN025 BKN033 OVC065 06/04 A2990 RMK AO2 PK WND 19031/2056 P0009 T00560039=
202111092118 SPECI KPAE 092118Z 24016G27KT 2SM R16R/6000VP6000FT RA BKN027 OVC033 07/03 A2991 RMK AO2 PK WND 19031/2056 VIS 1 1/4V4 PRESRR P0005 T00670033=
202111092100 SPECI KPAE 092100Z 21016G31KT 5SM -RA BKN032 BKN040 OVC049 07/04 A2988 RMK AO2 PK WND 19031/2056 P0001 T00720039=
202111092053 METAR KPAE 092053Z 21013G23KT 9SM -RA BKN029 08/04 A2987 RMK AO2 PK WND 20045/2029 RAB22 SLP117 P0002 60002 T00780039 51027=
202111092003 SPECI KPAE 092003Z 21018G28KT 10SM BKN029 10/03 A2985 RMK AO2 PK WND 20028/1956 T01000033=
202111091953 METAR KPAE 091953Z 19021G29KT 10SM FEW029 SCT037 11/03 A2985 RMK AO2 PK WND 18041/1854 SLP108 T01060033=
202111091853 METAR KPAE 091853Z 19022G32KT 10SM FEW033 FEW039 09/02 A2983 RMK AO2 PK WND 21032/1846 SLP103 T00940022=
202111091753 METAR KPAE 091753Z 20014G24KT 10SM FEW020 09/02 A2979 RMK AO2 PK WND 20039/1718 SLP090 60001 T00940022 10094 20072 53035=
202111091700 SPECI KPAE 091700Z 20018G32KT 10SM FEW020 08/02 A2975 RMK AO2 PK WND 21032/1657 T00830022=
202111091653 METAR KPAE 091653Z 20018G39KT 10SM BKN021 BKN026 08/03 A2975 RMK AO2 PK WND 19039/1649 SLP074 T00830028=
202111091603 SPECI KPAE 091603Z 22010G23KT 10SM BKN021 BKN026 08/04 A2971 RMK AO2 T00830044=
202111091553 METAR KPAE 091553Z 22015G24KT 10SM BKN021 OVC047 08/04 A2970 RMK AO2 PK WND 19043/1459 PRESRR SLP057 T00830044=
202111091549 SPECI KPAE 091549Z 22016G28KT 10SM BKN021 BKN047 OVC060 08/04 A2969 RMK AO2 PK WND 19043/1459 PRESRR=
202111091512 SPECI KPAE 091512Z 19024G35KT 10SM FEW013 FEW020 08/05 A2957 RMK AO2 PK WND 19043/1459 T00780050=
202111091501 SPECI KPAE 091501Z 19023G43KT 10SM SCT013 BKN019 08/05 A2956 RMK AO2 PK WND 19043/1459 PRESRR T00830050=
202111091453 METAR KPAE 091453Z 19022G30KT 10SM BKN013 BKN019 08/06 A2954 RMK AO2 PK WND 20034/1434 RAE00 SLP003 P0000 60001 T00830061 53038=
202111091444 SPECI KPAE 091444Z 18020G31KT 10SM BKN013 OVC065 09/06 A2953 RMK AO2 PK WND 20034/1434 RAE00 P0000 T00890061=
202111091353 METAR KPAE 091353Z AUTO 14007G18KT 10SM -RA OVC026 08/05 A2946 RMK AO2 RAB43 SLP976 P0000 T00830050=
202111091326 SPECI KPAE 091326Z AUTO 14008G17KT 10SM OVC029 08/05 A2942 RMK AO2 T00830050=
202111091253 METAR KPAE 091253Z AUTO 14008G19KT 110V170 10SM OVC033 08/05 A2941 RMK AO2 RAE33 SLP961 P0001 T00780050=
202111091153 METAR KPAE 091153Z AUTO 14008G18KT 100V170 9SM -RA SCT040 OVC048 07/06 A2942 RMK AO2 SLP964 P0003 60016 70016 T00720056 10122 20072 58016=
202111091053 METAR KPAE 091053Z AUTO 14010G17KT 9SM -RA OVC047 08/05 A2945 RMK AO2 SLP972 P0008 T00780050=
202111090953 METAR KPAE 090953Z AUTO 16014G23KT 7SM -RA OVC038 09/04 A2947 RMK AO2 PK WND 18035/0856 SLP979 P0005 T00890039=
202111090853 METAR KPAE 090853Z AUTO 16014KT 9SM -RA OVC042 11/03 A2947 RMK AO2 PK WND 17037/0832 SLP980 P0000 60000 T01060028 56027=
202111090753 METAR KPAE 090753Z AUTO 17010G24KT 10SM -RA BKN050 OVC070 12/01 A2949 RMK AO2 RAB32 SLP986 P0000 T01170011 401220056=
202111090653 METAR KPAE 090653Z AUTO VRB04KT 10SM OVC110 11/M03 A2952 RMK AO2 SLP995 T01061028=
202111090553 METAR KPAE 090553Z AUTO 11011KT 10SM CLR 10/M03 A2955 RMK AO2 SLP008 T01001028 10100 20089 56062=
202111090453 METAR KPAE 090453Z AUTO 10012KT 10SM CLR 10/M02 A2961 RMK AO2 SLP029 T01001022=
202111090353 METAR KPAE 090353Z 11012KT 10SM CLR 09/M02 A2967 RMK AO2 PRESFR SLP051 T00941017=
202111090253 METAR KPAE 090253Z 11010KT 10SM CLR 09/M01 A2974 RMK AO2 SLP073 T00941011 56029=
202111090153 METAR KPAE 090153Z VRB05KT 10SM CLR 09/M01 A2976 RMK AO2 SLP080 T00941011=
202111090053 METAR KPAE 090053Z 11012G19KT 10SM CLR 10/M01 A2978 RMK AO2 SLP085 T01001006=
202111082353 METAR KPAE 082353Z 10009G16KT 10SM CLR 10/01 A2983 RMK AO2 SLP101 T01000006 10106 20083 58040=
202111082253 METAR KPAE 082253Z VRB04KT 10SM CLR 11/02 A2988 RMK AO2 SLP121 T01060022=
202111082153 METAR KPAE 082153Z VRB05KT 10SM CLR 11/01 A2991 RMK AO2 SLP129 T01060011=
202111082053 METAR KPAE 082053Z VRB05KT 10SM CLR 11/02 A2995 RMK AO2 SLP143 T01060017 58031=
202111081953 METAR KPAE 081953Z 11008KT 10SM CLR 11/02 A2998 RMK AO2 SLP153 T01060017=
202111081853 METAR KPAE 081853Z 15008KT 10SM CLR 10/01 A3002 RMK AO2 SLP168 T01000011=
202111081753 METAR KPAE 081753Z 11009KT 10SM CLR 08/03 A3004 RMK AO2 SLP175 T00830028 10083 20056 58020=
202111081653 METAR KPAE 081653Z 14006KT 10SM CLR 07/02 A3007 RMK AO2 SLP185 T00670022=
202111081553 METAR KPAE 081553Z 11006KT 10SM BKN060 06/02 A3009 RMK AO2 SLP194 T00560022=
202111081453 METAR KPAE 081453Z AUTO VRB04KT 10SM BKN110 06/02 A3010 RMK AO2 SLP197 T00610022 56003=
202111081353 METAR KPAE 081353Z AUTO 15009KT 10SM BKN110 06/02 A3010 RMK AO2 SLP196 T00610017=
202111081253 METAR KPAE 081253Z AUTO 16010KT 10SM CLR 06/02 A3010 RMK AO2 SLP196 T00610022=
202111081231 SPECI KPAE 081231Z AUTO 10SM FEW017 06/03 A3010 RMK AO2 T00560028=
202111081153 METAR KPAE 081153Z AUTO 15009KT 10SM BKN015 06/03 A3011 RMK AO2 SLP199 70011 T00610028 10061 20056 50004=
202111081146 SPECI KPAE 081146Z AUTO 16008KT 10SM BKN015 06/03 A3011 RMK AO2 T00560028=
202111081135 SPECI KPAE 081135Z AUTO 16010KT 10SM SCT015 06/03 A3011 RMK AO2 T00560028=
202111081101 SPECI KPAE 081101Z AUTO 16008KT 10SM BKN015 BKN032 OVC050 06/03 A3012 RMK AO2 T00610033=
202111081053 METAR KPAE 081053Z AUTO 15010KT 10SM SCT016 BKN032 OVC049 06/03 A3012 RMK AO2 SLP201 T00610033=
202111080953 METAR KPAE 080953Z AUTO 16015G22KT 10SM FEW012 06/03 A3010 RMK AO2 SLP197 T00610033=
202111080853 METAR KPAE 080853Z AUTO 17013KT 10SM SCT012 06/03 A3010 RMK AO2 SLP195 T00610033 51005=
202111080805 SPECI KPAE 080805Z AUTO 16012KT 10SM SCT012 06/03 A3010 RMK AO2 T00610033=
202111080753 METAR KPAE 080753Z AUTO 16012G19KT 10SM BKN014 06/04 A3010 RMK AO2 SLP195 T00610039 400720044=
202111080743 SPECI KPAE 080743Z AUTO 16011KT 10SM BKN014 BKN024 OVC029 06/04 A3010 RMK AO2 T00610039=
202111080710 SPECI KPAE 080710Z AUTO 16012KT 10SM FEW014 BKN027 OVC033 06/04 A3009 RMK AO2 T00610039=
202111080653 METAR KPAE 080653Z AUTO 16012KT 10SM FEW014 FEW027 BKN033 06/03 A3010 RMK AO2 SLP195 T00560033=
202111080553 METAR KPAE 080553Z AUTO 17015G23KT 10SM CLR 06/04 A3008 RMK AO2 PK WND 16027/0525 SLP190 60000 T00560039 10061 20050 53013=
202111080501 SPECI KPAE 080501Z AUTO 18019G26KT 10SM FEW009 06/04 A3006 RMK AO2 PK WND 18026/0500 T00560039=
202111080453 METAR KPAE 080453Z 18016KT 10SM FEW011 06/04 A3007 RMK AO2 SLP185 T00560039=
202111080401 SPECI KPAE 080401Z 18018G25KT 10SM BKN011 06/04 A3005 RMK AO2 T00560039=
202111080353 METAR KPAE 080353Z 17013G19KT 10SM SCT013 SCT017 BKN023 06/04 A3005 RMK AO2 SLP180 T00560039=
202111080351 SPECI KPAE 080351Z 17012G19KT 10SM SCT013 SCT017 BKN023 05/03 A3005 RMK AO2=
202111080253 METAR KPAE 080253Z 18013G22KT 10SM CLR 05/03 A3004 RMK AO2 SLP178 60000 T00500028 55001=
202111080153 METAR KPAE 080153Z 17013KT 10SM FEW015 SCT110 06/03 A3004 RMK AO2 PK WND 19026/0115 RAB02E16 SLP176 P0000 T00560033=
202111080053 METAR KPAE 080053Z 18015G24KT 10SM OVC020 06/03 A3005 RMK AO2 SLP179 T00610033=
202111080000 SPECI KPAE 080000Z 16011KT 10SM SCT019 BKN033 OVC041 06/03 A3003 RMK AO2 T00610028=
202111072353 METAR KPAE 072353Z 17013KT 10SM BKN017 OVC032 06/03 A3003 RMK AO2 PK WND 17026/2319 SLP173 60009 T00610028 10072 20056 51007=
202111072253 METAR KPAE 072253Z 18012G23KT 10SM BKN017 BKN037 07/04 A3003 RMK AO2 PK WND 18032/2219 SLP172 T00670039=
202111072153 METAR KPAE 072153Z 18018G32KT 10SM BKN017 OVC023 07/04 A3001 RMK AO2 PK WND 19032/2150 RAE11 SLP167 P0001 T00670039=
202111072110 SPECI KPAE 072110Z 18015G22KT 10SM -RA SCT014 BKN020 OVC033 06/04 A3001 RMK AO2 P0001 T00610044=
202111072053 METAR KPAE 072053Z 18015KT 8SM -RA SCT018 BKN033 OVC043 06/04 A3001 RMK AO2 PK WND 17032/2024 RAB1956 SLP165 P0007 60008 T00610039 56009=
202111072023 SPECI KPAE 072023Z 18019G31KT 5SM -RA SCT023 OVC027 07/04 A3001 RMK AO2 PK WND 18031/2023 RAB1956 P0003 T00670039=
202111072000 SPECI KPAE 072000Z 17015G24KT 9SM -RA FEW025 BKN044 OVC070 07/03 A3001 RMK AO2 RAB1956 P0000 T00720033=
202111071953 METAR KPAE 071953Z 17014G22KT 10SM BKN012 BKN025 OVC042 07/03 A3001 RMK AO2 RAE33 SLP165 P0001 T00720033=
202111071853 METAR KPAE 071853Z 17013G22KT 10SM -RA BKN012 BKN027 OVC033 06/03 A3003 RMK AO2 PK WND 15028/1801 RAE03B44 SLP172 P0000 T00610033=
202111071844 SPECI KPAE 071844Z 17012G19KT 10SM -RA BKN012 BKN027 OVC033 06/03 A3003 RMK AO2 PK WND 15028/1801 RAE03B44 P0000 T00610033=
202111071753 METAR KPAE 071753Z 16017G25KT 10SM -RA BKN009 BKN024 06/03 A3004 RMK AO2 PK WND 17026/1730 RAE1654B25 SLP175 P0001 60002 T00610033 10061 20050 53003=
202111071711 SPECI KPAE 071711Z 16016G22KT 10SM BKN009 BKN024 06/03 A3003 RMK AO2 RAE1654 P0000 T00560033=
202111071655 SPECI KPAE 071655Z 16015G29KT 10SM FEW009 SCT012 BKN018 06/03 A3002 RMK AO2 RAE54 P0000 T00560033=
202111071653 METAR KPAE 071653Z 16018G29KT 10SM -RA OVC009 06/03 A3002 RMK AO2 PK WND 18029/1652 RAE05B44 SLP170 P0000 T00560033=
202111071607 SPECI KPAE 071607Z 17015G26KT 10SM OVC009 06/03 A3003 RMK AO2 PK WND 16026/1602 RAE05 P0000 T00560033=
202111071553 METAR KPAE 071553Z 17011G21KT 7SM -RA BKN016 OVC022 05/03 A3003 RMK AO2 RAE1456B14 SLP173 P0001 T00500033=
202111071541 SPECI KPAE 071541Z 17013KT 6SM -RA BR BKN014 BKN019 OVC028 05/03 A3003 RMK AO2 RAE1456B14 P0001 T00500033=
202111071453 METAR KPAE 071453Z 17012KT 10SM -RA BKN015 OVC021 05/03 A3003 RMK AO2 RAB04E13B41 SLP172 P0000 60000 T00500033 51005=
202111071406 SPECI KPAE 071406Z AUTO 16011KT 10SM -RA FEW021 BKN029 BKN035 05/03 A3003 RMK AO2 RAB04 P0000 T00500033=
202111071353 METAR KPAE 071353Z AUTO 16010KT 10SM FEW015 SCT021 BKN030 05/03 A3003 RMK AO2 SLP172 T00500033=
202111071342 SPECI KPAE 071342Z AUTO 16012KT 10SM FEW014 SCT020 BKN032 05/03 A3002 RMK AO2 T00500033=
202111071253 METAR KPAE 071253Z AUTO 15013G19KT 10SM BKN020 OVC025 05/03 A3002 RMK AO2 RAB20E33 SLP168 P0000 T00500033=
202111071153 METAR KPAE 071153Z AUTO 17012KT 10SM FEW010 SCT022 OVC027 05/03 A3001 RMK AO2 PK WND 17026/1112 SLP166 60001 70027 T00500033 10050 20044 51002=
202111071148 SPECI KPAE 071148Z AUTO 16014G21KT 10SM FEW010 SCT014 OVC027 05/03 A3001 RMK AO2 PK WND 17026/1112=
202111071053 METAR KPAE 071053Z AUTO 17015G24KT 10SM OVC012 04/03 A3001 RMK AO2 PK WND 19028/1010 SLP165 T00440028=
202111071028 SPECI KPAE 071028Z AUTO 18017KT 10SM BKN012 BKN025 04/03 A3001 RMK AO2 PK WND 19028/1010 T00440028=
202111071012 SPECI KPAE 071012Z AUTO 18020G28KT 10SM SCT012 BKN017 OVC095 04/03 A3001 RMK AO2 PK WND 19028/1010 T00440028=
202111070953 METAR KPAE 070953Z AUTO 18016G26KT 10SM SCT015 SCT041 BKN095 04/03 A3001 RMK AO2 PK WND 18026/0944 RAB07E45 SLP164 P0001 T00440028=
202111070946 SPECI KPAE 070946Z AUTO 18020G26KT 10SM FEW013 SCT021 BKN100 04/03 A3001 RMK AO2 PK WND 18026/0944 RAB07E45 P0001 T00440028=
202111070923 SPECI KPAE 070923Z AUTO 18017G25KT 10SM -RA FEW013 BKN021 BKN028 05/03 A3001 RMK AO2 PK WND 18026/0855 RAB07 P0000 T00500033=
202111070853 METAR KPAE 070853Z AUTO 18018G24KT 10SM FEW027 05/03 A3000 RMK AO2 PK WND 18026/0805 SLP163 60000 T00500028 53006=
202111070753 METAR KPAE 070753Z AUTO 17014G23KT 10SM SCT090 BKN110 05/03 A2999 RMK AO2 RAB10E25 SLP159 P0000 T00500033 400830050=
202111070653 METAR KPAE 070653Z AUTO 19016KT 10SM SCT014 BKN075 OVC110 05/03 A3000 RMK AO2 PK WND 18027/0625 RAB21E31 SLP160 P0000 T00500033=
202111070553 METAR KPAE 070553Z AUTO 18017G27KT 10SM FEW009 SCT025 BKN075 05/03 A2999 RMK AO2 PK WND 17028/0535 RAE00 SLP158 P0000 60010 T00500033 10067 20050 53019=
202111070544 SPECI KPAE 070544Z AUTO 19020G28KT 10SM SCT009 BKN075 05/03 A2998 RMK AO2 PK WND 17028/0535 RAE00 P0000 T00500033=
202111070527 SPECI KPAE 070527Z AUTO 18018G25KT 10SM BKN009 BKN090 05/04 A2997 RMK AO2 PK WND 17027/0454 RAE00 CIG 007V013 P0000 T00500039=
202111070453 METAR KPAE 070453Z AUTO 18018G30KT 10SM -RA SCT014 BKN032 OVC065 05/03 A2996 RMK AO2 PK WND 19031/0422 RAE16B18 SLP149 P0004 T00500033=
202111070446 SPECI KPAE 070446Z AUTO 17014G27KT 8SM -RA FEW010 SCT014 OVC032 05/03 A2995 RMK AO2 PK WND 19031/0422 RAE16B18 P0004 T00500033=
202111070417 SPECI KPAE 070417Z AUTO 18019KT 10SM BKN014 BKN023 OVC048 05/03 A2995 RMK AO2 PK WND 19027/0414 RAE16 P0000 T00500033=
202111070353 METAR KPAE 070353Z 18021G31KT 10SM -RA SCT014 BKN070 OVC090 05/03 A2994 RMK AO2 PK WND 17031/0351 RAE04B53 SLP142 P0000 T00500033=
202111070253 METAR KPAE 070253Z 17015G24KT 10SM -RA FEW095 SCT110 05/03 A2993 RMK AO2 PK WND 16028/0236 RAE0157B51 SLP137 P0000 60006 T00500033 53005=
202111070153 METAR KPAE 070153Z 16016G22KT 10SM -RA FEW015 BKN040 OVC060 05/03 A2992 RMK AO2 PK WND 18028/0142 RAB01 SLP135 P0003 T00500028=
202111070100 SPECI KPAE 070100Z 15019G26KT 10SM FEW018 SCT031 SCT100 05/03 A2991 RMK AO2 PK WND 16026/0059 T00500033=
202111070053 METAR KPAE 070053Z 16016G25KT 10SM BKN020 BKN046 OVC085 06/03 A2991 RMK AO2 PK WND 16029/0042 RAE53 SLP131 P0003 T00560033=
202111070006 SPECI KPAE 070006Z 16018G24KT 8SM -RA BKN020 BKN046 OVC085 07/03 A2991 RMK AO2 P0001 T00670033=
202111062353 METAR KPAE 062353Z 17013G22KT 10SM -RA SCT030 BKN050 OVC070 07/03 A2991 RMK AO2 RAB49 SLP132 P0000 60003 T00670033 10083 20061 53014=
202111062253 METAR KPAE 062253Z 16013G27KT 10SM SCT019 SCT040 07/03 A2989 RMK AO2 PK WND 17029/2217 RAE05 SLP125 P0000 T00720033=
202111062153 METAR KPAE 062153Z 19019G28KT 10SM -RA BKN019 BKN024 07/04 A2989 RMK AO2 PK WND 19029/2056 RAB24 SLP123 P0002 T00720044=
202111062053 METAR KPAE 062053Z 18021G30KT 10SM BKN019 08/04 A2987 RMK AO2 PK WND 18032/2030 SLP118 60001 T00830044 51007=
202111061953 METAR KPAE 061953Z 18018G24KT 10SM BKN019 BKN055 07/05 A2986 RMK AO2 PK WND 18032/1913 RAB03E34 SLP114 P0001 T00720050=
202111061853 METAR KPAE 061853Z 19018G27KT 10SM SCT009 BKN015 OVC031 07/05 A2986 RMK AO2 PK WND 17027/1846 RAE21 SLP115 P0000 T00720050=
202111061809 SPECI KPAE 061809Z 17015G25KT 9SM -RA SCT009 BKN015 OVC031 06/04 A2985 RMK AO2 P0000 T00610044=
202111061753 METAR KPAE 061753Z 18021G28KT 7SM -RA FEW009 BKN014 OVC029 06/04 A2985 RMK AO2 PK WND 18029/1742 SLP111 P0007 60013 T00610044 10078 20061 53003=
202111061703 SPECI KPAE 061703Z 16014G22KT 5SM -RA BR FEW009 BKN017 OVC033 06/04 A2985 RMK AO2 P0001 T00610044=
202111061653 METAR KPAE 061653Z 15012G16KT 3SM RA BR FEW026 BKN033 OVC075 06/04 A2985 RMK AO2 RAB04 SLP110 P0004 T00610039=
202111061553 METAR KPAE 061553Z VRB04KT 10SM BKN034 BKN042 OVC050 06/04 A2984 RMK AO2 RAE37 SLP106 P0002 T00610039=
202111061453 METAR KPAE 061453Z VRB03KT 9SM -RA SCT033 BKN040 OVC060 07/03 A2984 RMK AO2 RAB45 SLP107 P0000 60000 T00670028 58004=
202111061353 METAR KPAE 061353Z VRB06KT 10SM FEW039 OVC060 07/03 A2984 RMK AO2 RAB1257E08 SLP109 P0000 T00720028=
202111061312 SPECI KPAE 061312Z AUTO VRB04KT 10SM SCT025 BKN039 OVC060 07/03 A2984 RMK AO2 RAB1257E08 P0000 T00720028=
202111061253 METAR KPAE 061253Z AUTO 16007KT 10SM OVC027 07/03 A2985 RMK AO2 SLP111 T00720028=
202111061232 SPECI KPAE 061232Z AUTO 15008KT 10SM BKN028 OVC033 07/02 A2986 RMK AO2 T00720022=
202111061153 METAR KPAE 061153Z AUTO 15010KT 10SM OVC037 08/02 A2985 RMK AO2 RAB13E31 SLP110 P0000 60000 70007 T00780022 10078 20056 58003=
202111061053 METAR KPAE 061053Z AUTO 18008KT 10SM SCT037 OVC045 08/02 A2987 RMK AO2 SLP115 T00780022=
202111060953 METAR KPAE 060953Z AUTO 15010KT 10SM OVC055 07/01 A2986 RMK AO2 SLP112 T00720011=
202111060853 METAR KPAE 060853Z AUTO 16009KT 10SM SCT075 07/02 A2986 RMK AO2 SLP113 T00670017 55004=
202111060753 METAR KPAE 060753Z AUTO 14007G18KT 10SM OVC110 06/02 A2985 RMK AO2 SLP110 T00560022 401060056=
202111060653 METAR KPAE 060653Z AUTO 14007KT 10SM FEW110 06/02 A2987 RMK AO2 SLP117 T00560022=
202111060553 METAR KPAE 060553Z AUTO VRB06KT 10SM CLR 06/03 A2987 RMK AO2 SLP118 60000 T00610028 10094 20056 56016=
202111060453 METAR KPAE 060453Z 11006KT 10SM CLR 06/03 A2988 RMK AO2 SLP122 T00560033=
202111060353 METAR KPAE 060353Z 12007KT 10SM CLR 06/04 A2990 RMK AO2 SLP126 T00610039=
202111060253 METAR KPAE 060253Z 11004KT 10SM CLR 08/03 A2992 RMK AO2 SLP133 60000 T00780033 56009=
202111060153 METAR KPAE 060153Z 16014KT 10SM SCT075 08/04 A2993 RMK AO2 SLP136 T00780039=
202111060053 METAR KPAE 060053Z 14005KT 10SM CLR 08/04 A2994 RMK AO2 PK WND 17028/2357 RAB04E31 SLP140 P0000 T00830044=
202111052353 METAR KPAE 052353Z 18018G26KT 10SM OVC075 09/04 A2995 RMK AO2 PK WND 17027/2257 SLP143 T00940039 10106 20083 56007=
202111052253 METAR KPAE 052253Z 16016G27KT 10SM BKN100 10/03 A2995 RMK AO2 PK WND 15027/2232 SLP143 T01000033=
202111052153 METAR KPAE 052153Z 17014G23KT 10SM FEW025 10/03 A2996 RMK AO2 PK WND 18028/2100 SLP148 T01000033=
202111052133 SPECI KPAE 052133Z 18015G26KT 10SM FEW025 11/03 A2997 RMK AO2 PK WND 18028/2100 T01060033=
202111052053 METAR KPAE 052053Z 19016G24KT 10SM BKN024 11/04 A2997 RMK AO2 PK WND 19027/2040 SLP150 T01060044 50009=
202111051953 METAR KPAE 051953Z 19015G25KT 10SM BKN016 09/04 A2997 RMK AO2 SLP150 T00940044=
202111051853 METAR KPAE 051853Z 19013G23KT 10SM BKN016 09/05 A2996 RMK AO2 PK WND 18026/1806 SLP148 T00940050=
202111051802 SPECI KPAE 051802Z 19019G23KT 10SM BKN016 08/05 A2994 RMK AO2 T00830050=
202111051753 METAR KPAE 051753Z 19013G24KT 10SM SCT016 08/05 A2994 RMK AO2 PK WND 18026/1727 SLP140 60007 T00830050 10100 20078 51034=
202111051714 SPECI KPAE 051714Z 20019KT 10SM BKN016 08/05 A2993 RMK AO2 T00780050=
202111051653 METAR KPAE 051653Z 19017G24KT 10SM SCT016 08/05 A2992 RMK AO2 PK WND 19026/1636 SLP132 T00780050=
202111051615 SPECI KPAE 051615Z 18017G23KT 10SM SCT023 08/06 A2990 RMK AO2 T00830056=
202111051607 SPECI KPAE 051607Z 18012KT 10SM FEW016 BKN023 08/06 A2989 RMK AO2 T00830061=
202111051553 METAR KPAE 051553Z 17013G25KT 10SM SCT018 SCT027 BKN041 08/06 A2988 RMK AO2 RAE22 SLP118 P0002 T00830056=
202111051453 METAR KPAE 051453Z 15010G17KT 8SM -RA BKN036 OVC045 08/06 A2984 RMK AO2 SLP106 P0003 60005 T00830061 55007=
202111051353 METAR KPAE 051353Z VRB05KT 9SM -RA OVC046 09/05 A2981 RMK AO2 RAB1257 SLP095 P0002 T00890050=
202111051253 METAR KPAE 051253Z AUTO 13004KT 10SM BKN060 OVC080 10/04 A2982 RMK AO2 RAE44 SLP100 P0000 T01000044=
202111051153 METAR KPAE 051153Z AUTO 12004KT 10SM -RA FEW046 SCT060 OVC080 09/05 A2986 RMK AO2 RAE36B52 SLP112 P0000 60000 70030 T00940050 10094 20078 58025=
202111051053 METAR KPAE 051053Z AUTO 14008G17KT 10SM -RA SCT055 BKN070 OVC090 09/04 A2989 RMK AO2 RAB32 SLP123 P0000 T00890044=
202111050953 METAR KPAE 050953Z AUTO VRB05KT 10SM FEW043 SCT060 BKN120 09/04 A2991 RMK AO2 SLP130 T00890044=
202111050853 METAR KPAE 050853Z AUTO VRB04KT 10SM SCT048 08/05 A2994 RMK AO2 SLP138 T00830050 58011=
202111050753 METAR KPAE 050753Z AUTO 13006KT 10SM BKN060 08/06 A2995 RMK AO2 SLP144 T00830056 401390083=
202111050653 METAR KPAE 050653Z AUTO 15010G17KT 10SM BKN031 09/06 A2996 RMK AO2 SLP146 T00890056=
202111050553 METAR KPAE 050553Z AUTO 17014G23KT 10SM CLR 08/06 A2997 RMK AO2 SLP150 60001 T00830061 10111 20083 50007=
202111050453 METAR KPAE 050453Z 18015G26KT 10SM CLR 08/06 A2997 RMK AO2 PK WND 18027/0427 SLP152 T00830056=
202111050353 METAR KPAE 050353Z 18018KT 10SM CLR 09/05 A2997 RMK AO2 PK WND 18036/0258 SLP148 T00940050=
202111050253 METAR KPAE 050253Z 21018G30KT 10SM FEW020 09/06 A2995 RMK AO2 PK WND 21030/0253 SLP142 60001 T00940061 51046=
202111050153 METAR KPAE 050153Z 20013G23KT 10SM SCT009 BKN016 BKN080 10/07 A2992 RMK AO2 PK WND 20030/0135 SLP132 T01000067=
202111050112 SPECI KPAE 050112Z 21013G24KT 10SM SCT009 BKN016 BKN080 11/07 A2988 RMK AO2 T01060072=
202111050105 SPECI KPAE 050105Z 21012G25KT 10SM SCT022 SCT075 BKN090 11/07 A2987 RMK AO2 T01110072=
202111050053 METAR KPAE 050053Z 19014G22KT 10SM SCT009 BKN016 BKN080 11/08 A2986 RMK AO2 PK WND 20034/2359 RAB13E43 SLP111 P0001 T01110078=
202111042353 METAR KPAE 042353Z 21012G25KT 10SM BKN009 OVC016 11/09 A2981 RMK AO2 PK WND 20027/2300 RAE34 SLP095 P0002 60002 T01110089 10139 20111 53057=
202111042253 METAR KPAE 042253Z 20016G26KT 10SM -RA BKN009 OVC013 12/09 A2974 RMK AO2 PK WND 18031/2204 RAB43 PRESRR SLP071 P0000 T01170094=
202111042153 METAR KPAE 042153Z 18019G30KT 10SM OVC009 14/12 A2965 RMK AO2 PK WND 18037/2138 SLP038 T01390117=
202111042053 METAR KPAE 042053Z 18025G32KT 10SM BKN009 OVC019 14/12 A2964 RMK AO2 PK WND 19032/2052 SLP036 60000 T01390122 51016=
202111041953 METAR KPAE 041953Z 16018G29KT 10SM OVC009 13/12 A2963 RMK AO2 PK WND 15029/1953 SLP035 T01280117=
202111041934 SPECI KPAE 041934Z 16016G28KT 10SM OVC009 13/12 A2963 RMK AO2 PK WND 18028/1927 T01280117=
202111041919 SPECI KPAE 041919Z 17016G24KT 10SM OVC010 13/12 A2963 RMK AO2 PK WND 15026/1907 T01280117=
202111041853 METAR KPAE 041853Z 16018G25KT 9SM BKN009 OVC018 12/11 A2962 RMK AO2 PK WND 15031/1841 RAE32 SLP028 P0000 T01220111=
202111041836 SPECI KPAE 041836Z 16015G25KT 7SM BKN009 OVC018 12/11 A2961 RMK AO2 PK WND 16030/1801 RAE32 P0000 T01170111=
202111041753 METAR KPAE 041753Z 15016G25KT 6SM -RA BR FEW009 BKN023 OVC039 12/11 A2959 RMK AO2 SLP021 P0005 60027 T01170106 10128 20111 53007=
202111041653 METAR KPAE 041653Z VRB05KT 3SM -RA BR BKN060 OVC070 12/11 A2955 RMK AO2 SLP007 P0011 T01170106=
202111041553 METAR KPAE 041553Z 15016G24KT 3SM RA BR FEW040 OVC060 12/10 A2957 RMK AO2 SLP014 P0009 T01220100=
202111041551 SPECI KPAE 041551Z 15015G24KT 2 1/2SM RA BR FEW039 OVC060 12/10 A2957 RMK AO2 P0008=
202111041453 METAR KPAE 041453Z 15012KT 10SM -RA BKN055 OVC070 12/09 A2957 RMK AO2 SLP012 P0001 60002 T01220094 56019=
202111041353 METAR KPAE 041353Z 15010G18KT 10SM -RA BKN055 OVC070 12/09 A2959 RMK AO2 RAB39 SLP019 P0001 T01220094=
202111041253 METAR KPAE 041253Z AUTO 12005KT 10SM BKN065 12/10 A2961 RMK AO2 SLP026 T01170100=
202111041153 METAR KPAE 041153Z AUTO 15012KT 10SM BKN050 13/10 A2963 RMK AO2 RAE08 SLP032 P0000 60026 70054 T01280100 10128 20117 56008=
202111041053 METAR KPAE 041053Z AUTO 14013G20KT 7SM -RA BKN038 OVC050 12/11 A2963 RMK AO2 RAB20 SLP032 P0001 T01170106=
202111040953 METAR KPAE 040953Z AUTO 14008KT 100V160 10SM SCT060 BKN080 OVC100 12/11 A2964 RMK AO2 RAE52 SLP035 P0005 T01170106=
202111040853 METAR KPAE 040853Z AUTO 14009KT 10SM -RA SCT031 SCT055 OVC075 12/10 A2965 RMK AO2 WSHFT 0828 SLP039 P0011 60020 T01170100 56006=
202111040848 SPECI KPAE 040848Z AUTO 15010KT 5SM -RA BR SCT030 BKN050 OVC075 12/11 A2966 RMK AO2 WSHFT 0828 P0011=
202111040753 METAR KPAE 040753Z AUTO 12011G20KT 8SM -RA SCT060 OVC075 12/09 A2963 RMK AO2 SLP034 P0003 T01170094 401500100=
202111040653 METAR KPAE 040653Z AUTO 11009G20KT 7SM -RA OVC085 13/11 A2967 RMK AO2 SLP046 P0006 T01280106=
202111040553 METAR KPAE 040553Z AUTO 15010G16KT 9SM -RA OVC080 12/11 A2972 RMK AO2 SLP064 P0007 60028 T01170106 10133 20117 56021=
202111040453 METAR KPAE 040453Z AUTO VRB04KT 4SM RA BR FEW038 OVC050 12/11 A2973 RMK AO2 SLP068 P0012 T01170106=
202111040353 METAR KPAE 040353Z 15004KT 10SM -RA OVC090 12/11 A2975 RMK AO2 SLP076 P0002 T01220106=
202111040253 METAR KPAE 040253Z 11006KT 10SM -RA BKN050 OVC095 13/09 A2978 RMK AO2 RAE04B20 SLP085 P0001 60007 T01280094 58049=
202111040153 METAR KPAE 040153Z 10004KT 5SM -RA BR OVC048 12/11 A2984 RMK AO2 SLP104 P0004 T01170111=
202111040053 METAR KPAE 040053Z 00000KT 9SM -RA OVC047 12/10 A2989 RMK AO2 RAE05B29 SLP121 P0002 T01220100=
202111032353 METAR KPAE 032353Z 19004KT 10SM -RA BKN049 OVC060 13/10 A2993 RMK AO2 RAB2258E30B51 SLP135 P0000 60000 T01280100 10150 20111 56016=
202111032253 METAR KPAE 032253Z 21008KT 10SM BKN055 OVC095 14/09 A2995 RMK AO2 SLP143 T01390094=
202111032153 METAR KPAE 032153Z 21005KT 10SM BKN060 BKN075 OVC100 15/09 A2995 RMK AO2 RAB14E36 SLP141 P0000 T01500094=
202111032053 METAR KPAE 032053Z 23006KT 10SM OVC065 15/08 A2998 RMK AO2 SLP151 T01500083 58020=
202111031953 METAR KPAE 031953Z 10SM OVC055 14/07 A2999 RMK AO2 SLP157 T01390072=
202111031853 METAR KPAE 031853Z 00000KT 10SM OVC060 12/07 A3003 RMK AO2 SLP169 T01220072=
202111031753 METAR KPAE 031753Z 17005KT 10SM FEW060 SCT090 12/06 A3004 RMK AO2 SLP172 T01170061 10122 20106 55009=
202111031653 METAR KPAE 031653Z 11007KT 10SM SCT065 BKN075 12/06 A3003 RMK AO2 SLP171 T01170061=
202111031553 METAR KPAE 031553Z 11010KT 10SM CLR 11/06 A3005 RMK AO2 SLP175 T01110056=
202111031453 METAR KPAE 031453Z 11008KT 10SM CLR 11/06 A3007 RMK AO2 SLP183 T01060061 58009=
202111031353 METAR KPAE 031353Z 11010KT 10SM FEW060 11/06 A3009 RMK AO2 SLP191 T01060061=
202111031253 METAR KPAE 031253Z AUTO 11008KT 10SM SCT060 11/06 A3010 RMK AO2 SLP195 T01060061=
202111031153 METAR KPAE 031153Z AUTO 12007KT 10SM CLR 11/06 A3009 RMK AO2 RAB23E32 SLP193 P0000 60000 70013 T01060061 10111 20100 58014=
202111031053 METAR KPAE 031053Z AUTO VRB05KT 10SM FEW060 SCT110 11/06 A3012 RMK AO2 SLP200 T01060061=
202111030953 METAR KPAE 030953Z AUTO 11009KT 10SM BKN100 BKN110 11/07 A3012 RMK AO2 SLP201 T01060067=
202111030853 METAR KPAE 030853Z AUTO 11009KT 10SM BKN100 10/07 A3014 RMK AO2 SLP207 T01000067 50004=
202111030753 METAR KPAE 030753Z AUTO VRB05KT 10SM OVC100 10/07 A3014 RMK AO2 SLP209 T01000067 401060072=
202111030653 METAR KPAE 030653Z AUTO 11009KT 10SM BKN095 10/07 A3013 RMK AO2 SLP205 T01000072=
202111030553 METAR KPAE 030553Z AUTO 12006KT 10SM FEW065 BKN110 10/07 A3012 RMK AO2 SLP203 60000 T01000072 10100 20089 50002=
202111030453 METAR KPAE 030453Z AUTO 15007KT 10SM FEW060 BKN085 BKN110 10/07 A3014 RMK AO2 SLP207 T01000072=
202111030353 METAR KPAE 030353Z AUTO 12007G15KT 090V150 10SM FEW060 SCT120 10/07 A3011 RMK AO2 SLP198 T01000067=
202111030253 METAR KPAE 030253Z VRB05KT 10SM FEW036 BKN050 BKN060 09/08 A3012 RMK AO2 SLP201 60000 T00940078 56012=
202111030153 METAR KPAE 030153Z 11008G17KT 10SM SCT039 BKN050 OVC060 09/08 A3012 RMK AO2 SLP202 T00940078=
202111030053 METAR KPAE 030053Z 11010G18KT 10SM OVC060 09/08 A3014 RMK AO2 RAE29 SLP208 P0000 T00890078=
202111022353 METAR KPAE 022353Z 12008G15KT 10SM -RA FEW003 OVC065 09/08 A3015 RMK AO2 SLP212 P0001 60013 T00890078 10100 20089 58001=
202111022253 METAR KPAE 022253Z VRB05KT 10SM -RA SCT049 OVC065 09/08 A3016 RMK AO2 SLP216 P0002 T00940078=
202111022153 METAR KPAE 022153Z VRB03KT 10SM -RA BKN050 OVC055 09/08 A3017 RMK AO2 SLP218 P0004 T00940078=
202111022053 METAR KPAE 022053Z 10006KT 10SM -RA OVC060 09/08 A3016 RMK AO2 SLP214 P0002 60006 T00940078 58006=
202111021953 METAR KPAE 021953Z 10007KT 6SM -RA OVC050 10/07 A3015 RMK AO2 SLP213 P0004 T01000072=
202111021853 METAR KPAE 021853Z 22006KT 10SM -RA OVC070 09/07 A3019 RMK AO2 RAB23 SLP227 P0000 T00940072=
202111021753 METAR KPAE 021753Z 17004KT 10SM OVC090 09/07 A3018 RMK AO2 SLP221 T00940067 10100 20078 52015=
202111021653 METAR KPAE 021653Z 15006KT 10SM OVC120 09/07 A3016 RMK AO2 SLP215 T00940067=
202111021553 METAR KPAE 021553Z 15006KT 10SM BKN120 08/06 A3015 RMK AO2 SLP211 T00830061=
202111021453 METAR KPAE 021453Z 12004KT 10SM CLR 08/06 A3013 RMK AO2 SLP206 T00830061 58005=
202111021353 METAR KPAE 021353Z 00000KT 10SM CLR 09/06 A3014 RMK AO2 SLP210 T00890061=
202111021253 METAR KPAE 021253Z 00000KT 10SM FEW027 08/06 A3015 RMK AO2 SLP213 T00830061=
202111021153 METAR KPAE 021153Z 11004KT 10SM BKN041 08/06 A3015 RMK AO2 SLP211 70005 T00780061 10094 20072 51004=
202111021053 METAR KPAE 021053Z 12004KT 10SM CLR 07/06 A3015 RMK AO2 SLP210 T00720056=
202111020953 METAR KPAE 020953Z 15010KT 10SM CLR 09/06 A3014 RMK AO2 SLP210 T00890061=
202111020853 METAR KPAE 020853Z 14004KT 10SM CLR 08/06 A3014 RMK AO2 SLP207 T00830061 53016=
202111020753 METAR KPAE 020753Z 14009G15KT 10SM CLR 09/06 A3012 RMK AO2 SLP201 T00890061 401390033=
202111020653 METAR KPAE 020653Z 15012G20KT 10SM CLR 09/06 A3010 RMK AO2 SLP195 T00890056=
202111020553 METAR KPAE 020553Z 15012G17KT 10SM CLR 09/06 A3009 RMK AO2 SLP190 60000 T00890056 10094 20089 51023=
202111020506 SPECI KPAE 020506Z 14009G17KT 10SM FEW027 09/06 A3008 RMK AO2 T00890056=
202111020453 METAR KPAE 020453Z 14009KT 10SM BKN028 09/06 A3007 RMK AO2 SLP185 T00890056=
202111020436 SPECI KPAE 020436Z 15007KT 10SM BKN029 09/06 A3006 RMK AO2 T00940056=
202111020404 SPECI KPAE 020404Z 15010G15KT 10SM SCT028 09/06 A3005 RMK AO2 T00890056=
202111020353 METAR KPAE 020353Z 14008KT 10SM BKN028 09/06 A3004 RMK AO2 SLP175 T00890056=
202111020253 METAR KPAE 020253Z 15011KT 10SM OVC030 09/06 A3002 RMK AO2 SLP168 60000 T00890061 53023=
202111020153 METAR KPAE 020153Z 15008KT 10SM OVC031 09/06 A3000 RMK AO2 SLP160 T00940061=
202111020053 METAR KPAE 020053Z 15007KT 110V170 10SM OVC032 09/07 A2998 RMK AO2 RAE14 SLP153 P0000 T00890067=
202111012353 METAR KPAE 012353Z 15012G17KT 4SM -RA BKN041 BKN060 OVC075 09/06 A2995 RMK AO2 SLP146 P0002 60005 T00890061 10139 20089 51020=
202111012253 METAR KPAE 012253Z 15008KT 9SM -RA FEW044 BKN060 OVC075 11/06 A2994 RMK AO2 SLP139 P0002 T01060056=
202111012153 METAR KPAE 012153Z 20005KT 10SM -RA OVC050 10/06 A2991 RMK AO2 SLP130 P0001 T01000061=
202111012053 METAR KPAE 012053Z 22006KT 10SM -RA BKN050 OVC070 11/04 A2989 RMK AO2 SLP124 P0000 60000 T01110039 55000=
202111011953 METAR KPAE 011953Z 14007KT 10SM -RA BKN080 OVC090 14/00 A2988 RMK AO2 RAB45 SLP118 P0000 T01390000=
202111011853 METAR KPAE 011853Z VRB04KT 10SM BKN110 13/M02 A2989 RMK AO2 SLP122 T01331017=
202111011753 METAR KPAE 011753Z VRB05KT 10SM CLR 12/M03 A2989 RMK AO2 SLP124 T01221028 10122 20033 58002 $=
202111011653 METAR KPAE 011653Z VRB03KT 10SM CLR 11/M03 A2990 RMK AO2 SLP125 T01061033 $=
202111011553 METAR KPAE 011553Z VRB04KT 10SM CLR 11/M04 A2990 RMK AO2 SLP126 T01061044 $=
202111011453 METAR KPAE 011453Z 11003KT 10SM CLR 09/M05 A2990 RMK AO2 SLP126 T00941050 56009 $=
202111011353 METAR KPAE 011353Z VRB04KT 10SM CLR 09/M06 A2991 RMK AO2 SLP128 T00891056 $=
202111011253 METAR KPAE 011253Z 11003KT 10SM CLR 06/M04 A2991 RMK AO2 SLP132 T00561039 $=
202111011153 METAR KPAE 011153Z 21003KT 10SM CLR 04/M02 A2993 RMK AO2 SLP136 T00391022 10089 20039 57012=
202111011053 METAR KPAE 011053Z 09004KT 10SM CLR 06/M03 A2993 RMK AO2 SLP137 T00611033=
202111010953 METAR KPAE 010953Z 00000KT 10SM CLR 07/M04 A2995 RMK AO2 SLP145 T00721039=
202111010853 METAR KPAE 010853Z 10005KT 10SM CLR 08/M03 A2996 RMK AO2 SLP147 T00781028 58006=
202111010753 METAR KPAE 010753Z 01004KT 10SM CLR 06/M02 A2997 RMK AO2 SLP151 T00561022 401280006=
202111010653 METAR KPAE 010653Z 10006KT 10SM CLR 07/M01 A2998 RMK AO2 SLP153 T00671006=
202111010553 METAR KPAE 010553Z 00000KT 10SM CLR 05/00 A2998 RMK AO2 SLP155 T00500000 10111 20050 53001=
202111010453 METAR KPAE 010453Z 00000KT 10SM CLR 06/M01 A2998 RMK AO2 SLP154 T00611006=
202111010353 METAR KPAE 010353Z 00000KT 10SM CLR 08/M01 A2997 RMK AO2 SLP152 T00781011=
202111010253 METAR KPAE 010253Z 00000KT 10SM CLR 08/M01 A2998 RMK AO2 SLP155 T00831011 56002=
202111010153 METAR KPAE 010153Z 00000KT 10SM CLR 08/M01 A2998 RMK AO2 SLP155 T00781006=
202111010053 METAR KPAE 010053Z 34003KT 10SM CLR 09/M02 A2998 RMK AO2 SLP154 T00891017=

# No short TAF reports from KPAE in databse.

###################################
#  large TAF from KPAE
###################################
202111302340 TAF KPAE 302340Z 0100/0124 18020G26KT P6SM -RA BKN017 BKN060 OVC080
                       FM010400 18012G20KT P6SM -RA OVC015 FM011000
                       18012KT P6SM VCSH OVC020 FM012100 20012KT
                       P6SM BKN025 BKN050=
202111301849 KPAE 301849Z 3019/0118 19016G24KT 5SM -RA BR SCT015 BKN022 OVC060
                       FM302200 17015G25KT 5SM -RA BR OVC012 FM010900
                       18014G22KT P6SM VCSH BKN014=
202111301720 TAF KPAE 301720Z 3018/0118 18014KT P6SM -RA SCT025 OVC070
                      TEMPO 3018/3022 BKN020 FM302200 17015G25KT
                       5SM -RA BR OVC012 FM010900 18014G22KT P6SM
                       VCSH BKN014=
202111301445 KPAE 301445Z 3015/0112 16018G28KT P6SM VCSH SCT015 OVC035
                      TEMPO 3015/3018 6SM -RA BR BKN015 OVC025
                       FM301800 17015G25KT 6SM -RA BR OVC015 FM302200
                       17015G25KT 5SM -RA BR OVC012 FM010900 18014G22KT
                       P6SM VCSH BKN014=
202111301120 TAF KPAE 301120Z 3012/0112 16014G24KT P6SM VCSH SCT008 OVC025
                      TEMPO 3012/3015 6SM -RA BR BKN007 OVC022
                       FM301500 17013G22KT 6SM -RA BR OVC009 FM302200
                       17012G22KT 4SM -RA BR OVC010 FM010900 18014G22KT
                       P6SM VCSH BKN014=
202111300520 TAF KPAE 300520Z 3006/0106 15010KT P6SM SCT035 FM300900 17006KT
                       P6SM OVC015 FM301200 18009KT P6SM -RA OVC012
                       FM302100 17012G22KT 4SM -RA BR OVC010=
202111292325 TAF KPAE 292325Z 3000/3024 16009KT P6SM OVC021 FM300900 17006KT
                       P6SM OVC015 FM301200 18009KT P6SM -RA OVC012
                       FM302100 17012G22KT 4SM -RA BR OVC010=
202111291720 TAF KPAE 291720Z 2918/3018 18009KT P6SM BKN012 OVC050 FM292100
                       17008KT P6SM BKN020 BKN050 FM292300 17008KT
                       P6SM OVC050 FM301000 17006KT P6SM OVC020
                       FM301500 18009KT P6SM -RA OVC020=
202111291255 KPAE 291255Z 2913/3012 16007KT P6SM OVC009 FM291600 16006KT P6SM
                       OVC015 FM292100 17008KT P6SM BKN020 BKN050
                       FM292300 17008KT P6SM OVC050 FM301000 17006KT
                       P6SM OVC025=
202111291132 TAF KPAE 291132Z 2912/3012 16007KT P6SM SCT006 OVC013 FM291900
                       18007KT P6SM OVC007 FM292100 18008KT P6SM
                       BKN020 BKN050 FM292300 18008KT P6SM OVC050
                       FM301000 17006KT P6SM OVC025=
202111290540 TAF KPAE 290540Z 2906/3006 19008KT 4SM BR OVC004 FM291200 18006KT
                       P6SM OVC007 FM291900 18007KT P6SM OVC007
                       FM292100 18008KT P6SM BKN020 BKN050=
202111282322 TAF KPAE 282322Z 2900/2924 19012KT P6SM BKN004 OVC019 FM290300
                       18006KT P6SM OVC007 FM292100 18008KT P6SM
                       BKN020 BKN050=
202111282107 KPAE 282107Z 2821/2918 19015G25KT 4SM -RA BR SCT008 BKN030 OVC050
                       TEMPO 2821/2823 1 1/2SM -RA BR BKN008 OVC030
                       FM282300 19013G22KT 5SM -RA BR OVC015 FM290300
                       18006KT P6SM OVC010=
202111281722 KPAE 281722Z 2818/2918 19018G32KT P6SM SCT025 BKN050 OVC150
                      TEMPO 2818/2820 -RA BKN025 OVC050 FM282000
                       19015G25KT P6SM -RA BKN020 OVC040 FM282200
                       19013G22KT 5SM -RA BR OVC015 FM290300 18006KT
                       P6SM OVC010=
202111281721 TAF KPAE 281721Z 2818/2918 19018G32KT P6SM FEW025 SCT050 BKN150
                       FM282000 19015G25KT P6SM -RA SCT020 BKN040
                       OVC070 FM282200 19013G22KT 5SM -RA BR OVC015
                       FM290300 18006KT P6SM OVC010=
202111281603 KPAE 281603Z 2816/2912 19024G38KT P6SM SCT027 BKN060 OVC150 FM281800
                       18018G28KT P6SM -RA BKN035 OVC060 FM282000
                       19014KT 3SM RA BR OVC015 FM290000 21006KT
                       P6SM OVC015 FM290700 16006KT 6SM BR OVC009=
202111281126 TAF KPAE 281126Z 2812/2912 18020G32KT P6SM BKN023 OVC025 FM281800
                       19012KT 3SM RA BR OVC015 FM290000 21006KT
                       P6SM OVC015 FM290700 16006KT 6SM BR OVC009=
202111280520 TAF KPAE 280520Z 2806/2906 18025G35KT P6SM OVC012
                      TEMPO 2806/2809 4SM -RA BR OVC008 FM280900
                       19020G30KT P6SM BKN015 OVC030 FM281800 19012KT
                       5SM -RA BR OVC015 FM290000 21006KT P6SM
                       OVC015=
202111280231 KPAE 280231Z 2803/2824 17017G28KT P6SM -RA SCT005 OVC015
                      TEMPO 2803/2805 4SM -RA BR BKN003 OVC010
                       FM280500 18014G24KT P6SM BKN015 OVC040 FM280800
                       19018G28KT P6SM BKN020 BKN040 OVC100 FM281800
                       19015G23KT 5SM -RA BR OVC015=
202111272320 TAF KPAE 272320Z 2800/2824 15010KT P6SM FEW005 BKN015 OVC030
                      TEMPO 2800/2804 4SM -RA BR BKN005 OVC015
                       FM280500 18014G24KT P6SM BKN015 OVC040 FM280800
                       19018G28KT P6SM BKN020 BKN040 OVC100 FM281800
                       19015G23KT 5SM -RA BR OVC015=
202111271859 KPAE 271859Z 2719/2818 13008KT P6SM SCT030 BKN050 OVC070
                      TEMPO 2719/2722 -RA BKN030 OVC050 FM272200
                       16010KT 4SM -RA BR OVC015 FM280500 18014G24KT
                       6SM -RA OVC015 FM280800 19018G28KT P6SM
                       BKN020 BKN040 OVC100=
202111271724 TAF KPAE 271724Z 2718/2818 14006KT 5SM -RA BR OVC025 FM272200 16010KT
                       4SM -RA BR OVC015 FM280500 18014G24KT 6SM
                       -RA OVC015 FM280800 19018G28KT P6SM BKN020
                       BKN040 OVC100=
202111271136 TAF KPAE 271136Z 2712/2812 15007KT P6SM OVC015 FM271600 16008KT
                       P6SM -RA OVC015 FM272000 18012KT 5SM -RA
                       BR OVC012 FM280300 18015G25KT P6SM VCSH
                       BKN015 BKN040 OVC100=
202111270520 TAF KPAE 270520Z 2706/2806 15005KT P6SM SCT020 OVC100
                      TEMPO 2706/2710 BKN020 OVC040 FM271000 15007KT
                       P6SM OVC015 FM271600 16008KT P6SM -RA OVC015
                       FM272000 18012KT 5SM -RA BR OVC012 FM280400
                       18015G25KT P6SM VCSH BKN015 BKN040 OVC100=
202111262320 TAF KPAE 262320Z 2700/2724 32005KT P6SM SCT010 BKN020 FM270400
                       VRB03KT P6SM BKN025
                      TEMPO 2704/2708 3SM BR OVC015 FM271400 14006KT
                       5SM -RA BR OVC015 FM271800 15009KT 4SM -RA
                       BR OVC015=
202111262003 KPAE 262003Z 2620/2718 28006KT P6SM OVC020
                      TEMPO 2620/2623 3/4SM -RA BR OVC003 FM262300
                       32005KT P6SM BKN025 FM270400 VRB03KT P6SM
                       BKN025
                      TEMPO 2704/2708 1/2SM FG OVC010 FM271000
                       11004KT 4SM BR OVC020 FM271400 14006KT 5SM
                       -RA BR OVC015=
202111261910 KPAE 261910Z 2619/2718 18007KT P6SM SCT005 OVC020
                      TEMPO 2619/2620 1SM BR OVC003 FM262000 28006KT
                       P6SM OVC020 FM262300 32005KT P6SM BKN025
                       FM270400 VRB03KT P6SM BKN025
                      TEMPO 2704/2708 1/2SM FG OVC010 FM271000
                       11004KT 4SM BR OVC020 FM271400 14006KT 5SM
                       -RA BR OVC015=
202111261726 TAF KPAE 261726Z 2618/2718 18007KT P6SM SCT005 OVC020
                      TEMPO 2618/2620 5SM BR OVC003 FM262000 28006KT
                       P6SM OVC020 FM262300 32005KT P6SM BKN025
                       FM270400 VRB03KT P6SM BKN025
                      TEMPO 2704/2708 1/2SM FG OVC010 FM271000
                       11004KT 4SM BR OVC020 FM271400 14006KT 5SM
                       -RA BR OVC015=
202111261528 KPAE 261528Z 2615/2712 21010KT 2SM -SHRA BKN002 BKN025
                      TEMPO 2615/2618 1/4SM FG VV001 FM261800 22007KT
                       5SM BR OVC009 FM262000 23006KT P6SM OVC020
                       FM262300 30005KT P6SM BKN025 FM270400 09003KT
                       P6SM BKN025=
202111261446 KPAE 261446Z 2615/2712 21010KT 2SM -SHRA BKN002 BKN025 FM261800
                       22007KT 5SM BR OVC009 FM262000 23006KT P6SM
                       OVC020 FM262300 30005KT P6SM BKN025 FM270400
                       09003KT P6SM BKN025=
202111261134 TAF KPAE 261134Z 2612/2712 19012KT 5SM -SHRA OVC006 FM261300 19011KT
                       P6SM -SHRA BKN009 BKN025 FM261900 22006KT
                       P6SM OVC019 FM262300 30005KT P6SM BKN025
                       FM270400 09003KT P6SM BKN025=
202111260532 TAF KPAE 260532Z 2606/2706 15012G20KT P6SM -SHRA BKN020 OVC080
                       FM261100 18012KT 5SM -SHRA BKN009 BKN025
                       FM261400 18009KT 6SM BR OVC019 FM261800
                       18006KT P6SM SCT025 BKN050=
202111252320 TAF KPAE 252320Z 2600/2624 15012G22KT P6SM -RA SCT025 OVC040
                      TEMPO 2600/2603 5SM -RA BR BKN025 OVC040
                       FM260300 18012G22KT 5SM RA BR OVC022 FM260600
                       21008KT P6SM -SHRA BKN020 BKN040 FM261200
                       18006KT P6SM BKN025 BKN050 FM261800 18006KT
                       P6SM SCT025 BKN050=
202111251720 TAF KPAE 251720Z 2518/2618 15017G27KT P6SM BKN040 OVC080 FM252100
                       15017G27KT P6SM -RA SCT025 OVC040
                      TEMPO 2521/2601 5SM -RA BR BKN025 OVC040
                       FM260100 18012G22KT 5SM RA BR OVC022 FM260500
                       21008KT P6SM -SHRA BKN020 BKN040 FM261200
                       18006KT P6SM BKN025 BKN050 FM261700 18006KT
                       P6SM SCT025 BKN050=
202111251131 TAF KPAE 251131Z 2512/2612 14010G16KT P6SM -RA SCT030 SCT050 OVC070
                       FM251300 15012KT P6SM -RA SCT015 OVC050
                       FM252300 16014KT 6SM -RA BR OVC025 FM260600
                       16012KT 6SM -RA BR OVC015=
202111250520 TAF KPAE 250520Z 2506/2606 14006KT P6SM OVC070 FM251000 15010KT
                       P6SM -RA SCT015 OVC050 FM252200 16014KT
                       6SM -RA BR OVC025=
202111242321 TAF KPAE 242321Z 2500/2524 14006KT P6SM OVC100 FM250600 14006KT
                       P6SM OVC070 FM251000 15010KT P6SM -RA SCT015
                       OVC050=
202111241721 TAF KPAE 241721Z 2418/2518 16005KT P6SM SCT030 BKN200 FM242100
                       17005KT P6SM BKN120 OVC200 FM250600 14006KT
                       P6SM OVC070 FM251000 15010KT P6SM -RA SCT015
                       OVC050=
202111241504 KPAE 241504Z 2415/2512 15004KT P6SM SCT008 BKN040
                      TEMPO 2415/2418 BKN008 OVC040 FM241800 17008KT
                       P6SM SCT025 OVC070 FM250500 16008KT P6SM
                       -SHRA OVC050=
202111241123 TAF KPAE 241123Z 2412/2512 15004KT P6SM SCT025 FM241700 17008KT
                       P6SM SCT025 OVC070 FM250500 16008KT P6SM
                       -SHRA OVC050=
202111240520 TAF KPAE 240520Z 2406/2506 11004KT P6SM BKN045 FM240900 17004KT
                       P6SM OVC025 FM241600 17011KT P6SM SCT025
                       BKN050 FM250500 16008KT P6SM VCSH BKN050=
202111232335 TAF KPAE 232335Z 2400/2424 VRB04KT P6SM VCSH SCT030 BKN050 FM240200
                       15003KT P6SM OVC050 FM241500 15006KT P6SM
                       OVC050=
202111232104 KPAE 232104Z 2321/2418 VRB04KT P6SM VCSH SCT030 BKN050 FM232200
                       32008KT P6SM OVC050 FM240800 15003KT P6SM
                       OVC050 FM241500 15006KT P6SM OVC050=
202111231835 KPAE 231835Z 2319/2418 23007KT P6SM VCSH OVC005 FM232200 32008KT
                       P6SM OVC050 FM240800 15003KT P6SM OVC050
                       FM241500 15006KT P6SM OVC050=
202111231743 TAF KPAE 231743Z 2318/2418 28010G20KT P6SM VCSH SCT015 OVC035
                      TEMPO 2318/2319 6SM SHRA BR BKN010 OVC025
                       FM232200 32008KT P6SM OVC050 FM240800 15003KT
                       P6SM OVC050 FM241500 15006KT P6SM OVC050=
202111231120 TAF KPAE 231120Z 2312/2412 19011KT 6SM -RA BR OVC007 FM231600 23008KT
                       P6SM OVC025 FM232200 26007KT P6SM OVC050=
202111231110 KPAE 231110Z 2311/2406 19011KT P6SM -RA OVC007 FM231600 23008KT
                       P6SM OVC025 FM232200 26007KT P6SM OVC050=
202111230759 KPAE 230759Z 2308/2406 16011KT P6SM BKN010 FM231100 19011KT P6SM
                       -SHRA OVC015 FM231600 23008KT P6SM OVC025
                       FM232200 26007KT P6SM OVC050=
202111230520 TAF KPAE 230520Z 2306/2406 16017G23KT P6SM OVC007 FM231100 19011KT
                       P6SM -SHRA OVC015 FM231600 23008KT P6SM
                       OVC025 FM232200 26007KT P6SM OVC050=
202111230127 KPAE 230127Z 2301/2324 16011G20KT P6SM OVC004 FM230300 17014KT
                       P6SM -RA BKN015 OVC025 FM231600 23006KT
                       P6SM -SHRA OVC050=
202111222323 TAF KPAE 222323Z 2300/2324 16015G25KT P6SM -RA BKN015 OVC060 FM230300
                       17014KT P6SM -RA BKN015 OVC025 FM231600
                       23006KT P6SM -SHRA OVC050=
202111222015 KPAE 222015Z 2220/2318 16015G25KT P6SM SCT020 OVC060 FM222200 15011KT
                       P6SM -RA OVC035 FM230300 17014KT P6SM -RA
                       BKN015 OVC025=
202111221729 TAF KPAE 221729Z 2218/2318 16011KT P6SM SCT005 FM221900 15006KT
                       P6SM BKN050 OVC100 FM222200 15010KT P6SM
                       -RA OVC035 FM230300 17012KT P6SM -RA BKN015
                       OVC025=
202111221449 KPAE 221449Z 2215/2312 16011KT P6SM SCT005 FM221900 15006KT P6SM
                       BKN050 OVC100 FM222200 15010KT P6SM -RA
                       OVC035 FM230300 17012KT P6SM -RA BKN015
                       OVC025=
202111221343 KPAE 221343Z 2214/2312 00000KT P6SM SCT005 FM221900 15006KT P6SM
                       BKN050 OVC100 FM222200 15010KT P6SM -RA
                       OVC035 FM230300 17012KT P6SM -RA BKN015
                       OVC025=
202111221120 TAF KPAE 221120Z 2212/2312 00000KT 3SM BR SCT001 FM221500 15006KT
                       P6SM SCT005 BKN120 OVC200 FM221900 15006KT
                       P6SM BKN070 OVC120 FM222200 15010KT P6SM
                       -RA OVC035 FM230300 17012KT P6SM -RA BKN015
                       OVC025=
202111221016 KPAE 221016Z 2210/2306 00000KT 3SM BR SCT001 FM221500 15006KT P6SM
                       SCT005 BKN120 OVC200 FM221900 15006KT P6SM
                       BKN070 OVC120 FM222200 15010KT P6SM -RA
                       OVC035 FM230300 17012KT P6SM -RA BKN012
                       OVC020=
202111220522 TAF KPAE 220522Z 2206/2306 00000KT P6SM SCT200 FM221300 15006KT
                       P6SM BCFG SCT005 BKN120 OVC200 FM221900
                       15006KT P6SM BKN070 OVC120 FM222200 15010KT
                       P6SM -RA OVC035 FM230300 17012KT P6SM -RA
                       BKN012 OVC020=
202111212338 TAF KPAE 212338Z 2200/2224 04004KT P6SM BKN120 BKN200 FM220400
                       05003KT P6SM SCT120 BKN200 FM221300 15006KT
                       P6SM BCFG SCT005 BKN120 OVC200 FM221900
                       17006KT P6SM BKN070 OVC120=
202111211738 TAF KPAE 211738Z 2118/2218 VRB03KT P6SM BCFG SCT005 BKN120 BKN200
                       FM212000 04004KT P6SM BKN120 BKN200 FM220400
                       05003KT P6SM SCT120 BKN200 FM221300 15006KT
                       P6SM SCT005 BKN120 OVC200=
202111211446 KPAE 211446Z 2115/2212 VRB03KT P6SM BCFG SCT005 BKN200
                      TEMPO 2115/2117 6SM BR BKN005 FM211900 02004KT
                       P6SM BKN200=
202111211120 TAF KPAE 211120Z 2112/2212 VRB03KT P6SM BCFG SCT005 BKN200
                      TEMPO 2113/2117 5SM BR BKN004 FM211900 02004KT
                       P6SM BKN200=
202111210520 TAF KPAE 210520Z 2106/2206 VRB03KT P6SM SCT120 BKN200 FM211200
                       VRB03KT P6SM BCFG SCT005 BKN200
                      TEMPO 2113/2117 5SM BR BKN004 FM211900 02004KT
                       P6SM BKN200=
202111202320 TAF KPAE 202320Z 2100/2124 24004KT P6SM SCT022 BKN200 FM210400
                       VRB03KT P6SM SCT120 BKN200 FM211200 VRB02KT
                       P6SM BCFG SCT005 BKN200
                      TEMPO 2113/2117 5SM BR BKN004 FM211900 02004KT
                       P6SM SCT010 BKN200=
202111202104 KPAE 202104Z 2021/2118 VRB04KT P6SM BKN018 BKN200 FM202200 VRB04KT
                       P6SM SCT022 BKN200 FM210400 03003KT P6SM
                       SCT120 BKN200 FM211200 VRB02KT P6SM BCFG
                       SCT005 BKN200=
202111201905 KPAE 201905Z 2019/2118 18004KT P6SM BKN012 BKN035 FM202100 VRB04KT
                       P6SM SCT020 BKN200 FM210000 03003KT P6SM
                       SCT120 BKN200 FM211200 VRB02KT P6SM BCFG
                       SCT005 BKN200=
202111201722 TAF KPAE 201722Z 2018/2118 18004KT P6SM VCSH BKN035 FM202200 VRB04KT
                       P6SM SCT040 BKN200 FM210000 03003KT P6SM
                       SCT120 BKN200 FM211200 VRB02KT P6SM BCFG
                       SCT005 BKN200=
202111201303 KPAE 201303Z 2013/2112 00000KT P6SM VCSH SCT016 BKN025 OVC050
                      TEMPO 2013/2015 -SHRA FM201800 18004KT P6SM
                       SCT020 BKN040 FM202200 VRB04KT P6SM SCT040
                       FM210000 03003KT P6SM SCT120=
202111201120 TAF KPAE 201120Z 2012/2112 18004KT P6SM OVC060 FM201800 18004KT
                       P6SM SCT020 BKN040 FM202200 VRB04KT P6SM
                       SCT040 FM210000 03003KT P6SM SCT120=
202111200520 TAF KPAE 200520Z 2006/2106 12004KT P6SM OVC025 FM201000 00000KT
                       P6SM BKN020 BKN040 FM201800 VRB04KT P6SM
                       SCT020 BKN040 FM202200 VRB04KT P6SM SCT040=
202111192322 TAF KPAE 192322Z 2000/2024 VRB03KT P6SM BKN030 FM200400 14004KT
                       P6SM OVC025 FM200900 15004KT P6SM OVC015
                       FM202000 18005KT P6SM BKN027 FM202300 VRB03KT
                       P6SM BKN035 BKN200=
202111191729 TAF KPAE 191729Z 1918/2018 VRB04KT P6SM BKN010 OVC018 FM192100
                       24006KT P6SM SCT017 BKN035 FM200000 19005KT
                       P6SM BKN040 FM200600 15004KT P6SM OVC015=
202111191450 KPAE 191450Z 1915/2012 34009G17KT P6SM BKN010 OVC018 FM192000 33008KT
                       P6SM SCT015 SCT025 BKN050 FM192200 VRB04KT
                       P6SM OVC050 FM200600 15004KT P6SM OVC012=
202111191121 TAF KPAE 191121Z 1912/2012 34012G19KT P6SM -RA OVC004 FM191500
                       33010KT P6SM BKN008 BKN020 OVC050 FM192000
                       33008KT P6SM SCT015 SCT025 BKN050 FM192200
                       VRB04KT P6SM OVC050 FM200600 15004KT P6SM
                       OVC012=
202111190915 KPAE 190915Z 1909/2006 35010KT 2SM -RA BKN008 OVC015
                      TEMPO 1909/1912 1/2SM -RA FG VV001 FM191500
                       33010KT P6SM VCSH BKN020 OVC050 FM192000
                       33008KT P6SM SCT025 BKN050 FM200200 16003KT
                       P6SM BKN050=
202111190702 KPAE 190702Z 1907/2006 34006KT 1SM BR BKN003 BKN026 OVC035
                      TEMPO 1907/1908 1/4SM FG VV001 FM190800 36012G22KT
                       5SM -RA BKN008 OVC015 FM191500 33010KT P6SM
                       VCSH BKN020 OVC050 FM192000 33008KT P6SM
                       SCT025 BKN050 FM200200 16003KT P6SM BKN050=
202111190536 KPAE 190536Z 1906/2006 01007KT 6SM BR BKN003 BKN026 OVC035 FM190800
                       36012G22KT 5SM -RA BKN008 OVC015 FM191500
                       33010KT P6SM VCSH BKN020 OVC050 FM192000
                       33008KT P6SM SCT025 BKN050 FM200200 16003KT
                       P6SM BKN050=
202111190520 TAF KPAE 190520Z 1906/2006 01008KT 6SM -RA BR SCT025 OVC035 FM190800
                       36012G22KT 5SM -RA BKN008 OVC015 FM191500
                       33010KT P6SM VCSH BKN020 OVC050 FM192000
                       33008KT P6SM SCT025 BKN050 FM200200 16003KT
                       P6SM BKN050=
202111182320 TAF KPAE 182320Z 1900/1924 01008KT 5SM -RA BR OVC035
                      TEMPO 1900/1904 3SM RA BR OVC020 FM190400
                       36012G20KT 4SM RA BR OVC015 FM190800 36012G22KT
                       5SM -RA BKN008 OVC015 FM191500 33010KT P6SM
                       VCSH BKN020 OVC050 FM192000 33008KT P6SM
                       SCT025 BKN050=
202111181722 TAF KPAE 181722Z 1818/1918 02005KT P6SM OVC090 FM182100 04005KT
                       P6SM VCSH SCT025 OVC050 FM182300 01005KT
                       P6SM -RA OVC022 FM190600 33007KT 2SM -RA
                       OVC012 FM191200 32010KT P6SM VCSH BKN020
                       OVC050=
202111181120 TAF KPAE 181120Z 1812/1912 11006KT P6SM OVC100 FM181500 VRB04KT
                       P6SM OVC100 FM181800 02005KT P6SM OVC090
                       FM182100 04005KT P6SM VCSH SCT025 OVC050
                       FM182300 01005KT P6SM -RA OVC022 FM190600
                       33007KT 2SM -RA OVC012=
202111180520 TAF KPAE 180520Z 1806/1906 10006KT P6SM SKC FM181100 12004KT P6SM
                       OVC090 FM181500 09005KT P6SM OVC050 FM182000
                       VRB04KT P6SM VCSH OVC040 FM182300 02003KT
                       6SM -RA BR OVC025=
202111172320 TAF KPAE 172320Z 1800/1824 03004KT P6SM SKC FM181100 12004KT P6SM
                       OVC090 FM181500 09005KT P6SM OVC050 FM182000
                       VRB04KT P6SM VCSH OVC040=
202111171727 TAF KPAE 171727Z 1718/1818 03004KT P6SM SKC FM181100 12004KT P6SM
                       OVC090 FM181500 09005KT P6SM OVC050=
202111171438 KPAE 171438Z 1715/1812 VRB03KT 6SM BR FEW002 SCT250
                      TEMPO 1715/1717 1/2SM FG VV002 FM171700 04004KT
                       P6SM BKN250 FM181100 12004KT P6SM OVC090=
202111171135 TAF KPAE 171135Z 1712/1812 10004KT 6SM BR FEW002 SCT250
                      TEMPO 1712/1714 1/2SM FG VV002 FM171400 08004KT
                       1/2SM FG VV002 FM171700 04004KT P6SM BKN250
                       FM181100 12004KT P6SM OVC090=
202111170755 KPAE 170755Z 1708/1806 04004KT P6SM SKC
                      TEMPO 1709/1713 1SM BR SCT002 FM171300 08004KT
                       1/2SM FG VV002 FM171500 06004KT P6SM SKC=
202111170520 TAF KPAE 170520Z 1706/1806 04004KT P6SM SKC FM171500 06004KT P6SM
                       SKC=
202111162334 TAF KPAE 162334Z 1700/1724 VRB03KT P6SM SCT050 FM170400 04004KT
                       P6SM SKC FM171500 06004KT P6SM SKC=
202111161724 TAF KPAE 161724Z 1618/1718 24008KT P6SM VCSH SCT015 OVC050 FM162100
                       33005KT P6SM SCT050 FM170400 04004KT P6SM
                       SKC FM171500 06004KT P6SM SKC=
202111161654 KPAE 161654Z 1617/1712 24008KT P6SM VCSH SCT015 OVC050 FM162100
                       33005KT P6SM SCT050 FM170400 00000KT P6SM
                       SKC=
202111161457 KPAE 161457Z 1615/1712 16007KT P6SM VCSH SCT035 OVC060
                      TEMPO 1615/1617 -RA BKN030 FM161700 24008KT
                       P6SM VCSH OVC040 FM162100 33005KT P6SM SCT050
                       FM170400 00000KT P6SM SKC=
202111161131 TAF KPAE 161131Z 1612/1712 26010KT P6SM VCSH SCT035 OVC060
                      TEMPO 1612/1616 -RA BKN030 FM161600 24008KT
                       P6SM VCSH OVC040 FM162100 33005KT P6SM SCT050
                       FM170400 00000KT P6SM SKC=
202111160520 TAF KPAE 160520Z 1606/1706 29011KT P6SM SCT025 SCT060 FM160800
                       26010KT P6SM VCSH SCT025 BKN050 FM161400
                       23008KT P6SM VCSH BKN035 FM162100 33005KT
                       P6SM SCT040 SCT250 FM170200 VRB03KT P6SM
                       SCT250=
202111152337 TAF KPAE 152337Z 1600/1624 32010KT P6SM VCSH SCT007 BKN035
                      TEMPO 1600/1604 5SM -SHRA BR BKN007 OVC020
                       FM160400 29011KT P6SM -SHRA SCT015 OVC025
                       FM160800 26010KT P6SM VCSH BKN025 FM161400
                       23008KT P6SM VCSH BKN035 FM162100 33005KT
                       P6SM BKN050=
202111152054 KPAE 152054Z 1521/1618 31018G25KT 6SM -RA BR OVC025
                      TEMPO 1521/1523 2SM RA BR OVC012 FM152300
                       29014G22KT 4SM -SHRA BR OVC015 FM160300
                       29015G24KT P6SM -SHRA SCT015 OVC025 FM160800
                       26010KT P6SM VCSH BKN030=
202111151730 TAF KPAE 151730Z 1518/1618 19025G35KT 6SM -RA BR OVC025
                      TEMPO 1518/1522 2SM RA BR OVC012 FM152200
                       23020G30KT 4SM -SHRA BR OVC015 FM160200
                       29015G24KT P6SM -SHRA SCT015 OVC025 FM160800
                       26010KT P6SM VCSH BKN030=
202111151120 TAF KPAE 151120Z 1512/1612 17020G35KT 5SM -RA BR FEW020 SCT030
                       FM151600 19025G35KT 6SM -RA BR OVC020 FM152000
                       23017G26KT 4SM -RA BR OVC015 FM160200 27011KT
                       P6SM SCT015 OVC025 FM160600 26010KT P6SM
                       BKN050=
202111150520 TAF KPAE 150520Z 1506/1606 19025G36KT 5SM -RA BR OVC007 FM150900
                       19020G30KT 6SM -RA BR SCT007 OVC015 FM151600
                       19025G35KT 6SM -RA BR OVC020 FM152000 23017G26KT
                       4SM -RA BR OVC015 FM160200 27011KT P6SM
                       SCT015 OVC025=
202111142332 TAF KPAE 142332Z 1500/1524 19025G36KT P6SM VCSH OVC007 FM150900
                       19020G30KT 6SM -RA BR SCT007 OVC015 FM151600
                       19025G40KT 6SM -RA BR OVC020=
202111141740 TAF KPAE 141740Z 1418/1518 19025G36KT P6SM VCSH OVC012 FM142300
                       20017G26KT 4SM -RA BR OVC010 FM150900 19020G30KT
                       6SM -RA BR SCT010 OVC020 FM151600 19025G40KT
                       6SM -RA BR OVC020=
202111141121 TAF KPAE 141121Z 1412/1512 18030G45KT P6SM BKN012 OVC020 FM141300
                       19017G30KT 5SM BR OVC010 FM142000 20017G26KT
                       4SM -RA BR OVC010 FM150200 19014G23KT 6SM
                       -RA BR SCT010 OVC020=
202111140520 TAF KPAE 140520Z 1406/1506 15013G22KT 6SM -RA BR OVC020 FM140800
                       19015G25KT 5SM RA BR OVC010 FM141300 19017G27KT
                       5SM -RA BR OVC008 FM142000 20017G26KT 4SM
                       -RA BR OVC010 FM150200 19014G23KT 6SM -RA
                       BR SCT010 OVC020=
202111132320 TAF KPAE 132320Z 1400/1424 15005KT P6SM -RA BKN035 OVC090 FM140200
                       15010KT 6SM -RA BR OVC020 FM140800 19015G25KT
                       5SM RA BR OVC010 FM141300 19017G27KT 5SM
                       -RA BR OVC008 FM142000 20017G26KT 4SM -RA
                       BR OVC010=
202111131739 TAF KPAE 131739Z 1318/1418 11004KT P6SM SCT005 BKN060
                      TEMPO 1318/1319 1SM BR BKN004 FM132200 15005KT
                       P6SM -RA OVC035 FM140200 15010KT 6SM -RA
                       BR OVC020 FM140800 19015G25KT 5SM RA BR
                       OVC010 FM141300 19017G27KT 5SM -RA BR OVC008=
202111131556 KPAE 131556Z 1316/1412 VRB04KT P6SM SCT008 BKN070 OVC120
                      TEMPO 1316/1318 BKN004 FM131800 VRB04KT P6SM
                       SCT010 BKN060 FM132200 15005KT P6SM -RA
                       OVC035 FM140200 15010KT 6SM -RA BR OVC020
                       FM140900 19015G25KT 6SM -RA BR OVC015=
202111131533 KPAE 131533Z 1316/1412 VRB04KT P6SM SCT008 BKN070 OVC120 FM131700
                       VRB04KT P6SM SCT010 BKN060 FM132200 15005KT
                       P6SM -RA OVC035 FM140200 15010KT 6SM -RA
                       BR OVC020 FM140900 19015G25KT 6SM -RA BR
                       OVC015=
202111131120 TAF KPAE 131120Z 1312/1412 VRB04KT P6SM BKN060 FM131400 10005KT
                       P6SM OVC007 FM131700 VRB04KT P6SM SCT010
                       BKN030 FM132100 15005KT P6SM -RA OVC030
                       FM140200 15010KT 6SM -RA BR OVC020 FM140900
                       19015G25KT 6SM -RA BR OVC015=
202111130520 TAF KPAE 130520Z 1306/1406 VRB04KT P6SM SCT007 OVC025 FM131400
                       17005KT P6SM OVC007 FM131700 VRB04KT P6SM
                       SCT010 BKN030 FM132100 15005KT P6SM -RA
                       OVC030 FM140200 15010KT 6SM -RA BR OVC020=
202111130256 KPAE 130256Z 1303/1324 VRB04KT 5SM BR BKN005 OVC015 FM130500 20006KT
                       P6SM OVC025 FM131400 17007KT P6SM BKN030
                       OVC060 FM131700 VRB04KT P6SM BKN030 OVC050
                       FM132100 15005KT P6SM -RA OVC030=
202111122320 TAF KPAE 122320Z 1300/1324 VRB04KT 5SM BR BKN005 OVC015 FM130100
                       18007KT P6SM VCSH OVC020 FM130500 20006KT
                       P6SM OVC025 FM131400 17007KT P6SM BKN030
                       OVC060 FM131700 VRB04KT P6SM BKN030 OVC050
                       FM132100 15005KT P6SM -RA OVC030=
202111122106 KPAE 122106Z 1221/1318 19008KT 2SM -RA BR BKN005 OVC015 FM130000
                       18007KT P6SM -SHRA OVC020 FM130500 20006KT
                       P6SM VCSH OVC025 FM131400 17007KT P6SM BKN030
                       OVC060=
202111122017 KPAE 122017Z 1220/1318 18006KT 3SM -RA BR SCT004 BKN020 FM122100
                       19008KT 5SM -RA BR BKN020 OVC030 FM130000
                       18007KT P6SM -SHRA OVC022 FM130500 20006KT
                       P6SM VCSH OVC025 FM131400 17007KT P6SM BKN030
                       OVC060=
202111121725 TAF KPAE 121725Z 1218/1318 18006KT 3SM -RA BR BKN004 OVC015 FM122100
                       19008KT 5SM -RA BR BKN014 OVC025 FM130000
                       18007KT P6SM -SHRA OVC022 FM130500 20006KT
                       P6SM VCSH OVC025 FM131400 17007KT P6SM BKN030
                       OVC060=
202111121120 TAF KPAE 121120Z 1212/1312 17012G21KT 5SM BR BKN005 OVC015 FM121300
                       18015G21KT 5SM -RA BR OVC009 FM122000 19008KT
                       4SM -RA BR OVC020 FM130000 18010KT P6SM
                       OVC030 FM130300 26005KT P6SM OVC025=
202111120520 TAF KPAE 120520Z 1206/1306 15013G22KT P6SM -RA BKN009 OVC015 FM121200
                       17012KT 5SM -RA BR OVC015 FM122000 19008KT
                       P6SM VCSH SCT015 OVC020 FM130000 18010KT
                       P6SM OVC030=
202111112336 TAF KPAE 112336Z 1200/1224 13010KT 1SM -RA BR OVC008
                      TEMPO 1200/1202 RA BKN003 FM120200 15011KT
                       3SM -RA BR OVC010 FM121200 17012KT 5SM -RA
                       BR OVC015=
202111111736 TAF KPAE 111736Z 1118/1218 12008KT 2SM -RA BR OVC004 FM112200 15010KT
                       1 1/2SM -RA BR OVC008 FM120200 16011KT 3SM
                       -RA BR OVC010 FM120800 17013KT 6SM -RA BR
                       OVC015=
202111111120 TAF KPAE 111120Z 1112/1212 10010KT P6SM OVC020 FM111400 13005KT
                       P6SM OVC020 FM111800 12012KT 5SM -RA BR
                       OVC015 FM112200 15010KT 2SM -RA BR OVC010
                       FM120200 16011KT 6SM -RA BR OVC015=
202111110520 TAF KPAE 110520Z 1106/1206 12008KT P6SM -RA BKN050 OVC080 FM110700
                       10012G20KT P6SM -RA OVC050 FM111400 10012G20KT
                       P6SM -RA OVC040 FM111800 12012KT 5SM -RA
                       BR OVC015 FM112200 15010KT 5SM -RA BR OVC010=
202111102322 TAF KPAE 102322Z 1100/1124 10007KT P6SM FEW030 BKN090 OVC200 FM110300
                       12008KT P6SM BKN050 OVC080 FM110700 10012G20KT
                       P6SM -RA OVC050 FM111400 10012G20KT P6SM
                       -RA OVC040 FM111800 12012KT 5SM -RA BR OVC015=
202111101805 KPAE 101805Z 1018/1118 16006KT P6SM BKN015 FM102100 13006KT P6SM
                       SCT025 BKN150 FM110200 13006KT P6SM BKN050
                       OVC080 FM110600 12005KT P6SM RA OVC015=
202111101720 TAF KPAE 101720Z 1018/1118 16006KT P6SM SCT025 BKN040 OVC070 FM102200
                       13006KT P6SM SCT050 BKN150 FM110200 13006KT
                       P6SM BKN050 OVC080 FM110600 12005KT P6SM
                       RA OVC015=
202111101136 KPAE 101136Z 1012/1112 17006KT P6SM OVC013 FM101400 16006KT P6SM
                       BKN025 OVC040 FM101700 16006KT P6SM SCT025
                       BKN040 OVC070 FM102200 13006KT P6SM SCT050
                       BKN150 FM110400 13006KT P6SM BKN050 OVC080
                       FM110800 12005KT P6SM RA OVC015=
202111101134 TAF KPAE 101134Z 1012/1112 17006KT P6SM OVC020 FM101400 16006KT
                       P6SM BKN025 OVC040 FM101700 16006KT P6SM
                       SCT025 BKN040 OVC070 FM102200 13006KT P6SM
                       SCT050 BKN150 FM110400 13006KT P6SM BKN050
                       OVC080 FM110800 12005KT P6SM RA OVC015=
202111100520 TAF KPAE 100520Z 1006/1106 16012KT P6SM BKN015 OVC030 FM101200
                       16012KT P6SM SCT015 BKN025 OVC040 FM101700
                       16006KT P6SM SCT025 BKN040 OVC070 FM102200
                       13006KT P6SM SCT050 BKN150 FM110400 13006KT
                       P6SM BKN050 OVC080=
202111092321 TAF KPAE 092321Z 1000/1024 19017G27KT P6SM SCT035 BKN050
                      TEMPO 1000/1003 4SM SHRA OVC035 FM100300
                       22012G22KT P6SM -SHRA BKN030 FM100900 18012KT
                       P6SM VCSH OVC030 FM101800 18010KT P6SM BKN040=
202111092115 KPAE 092115Z 0921/1018 21017G30KT P6SM BKN035 BKN050
                      TEMPO 0921/1001 4SM SHRA OVC025 FM100300
                       19012G22KT P6SM -SHRA SCT025 OVC040 FM100900
                       17012KT P6SM VCSH OVC030 FM101300 18005KT
                       P6SM OVC025=
202111091737 TAF KPAE 091737Z 0918/1018 20016G30KT P6SM -SHRA FEW020 OVC035
                       FM092100 20018G30KT P6SM -RA OVC040 FM100300
                       20012KT P6SM -SHRA SCT025 OVC040 FM100900
                       18007KT P6SM VCSH OVC030 FM101400 17006KT
                       P6SM BKN025=
202111091140 TAF KPAE 091140Z 0912/1012 14014G24KT 6SM -RA OVC045 FM091500 20016G27KT
                       P6SM -SHRA OVC035 FM092100 20018G30KT P6SM
                       -RA OVC040 FM100300 20012KT P6SM -SHRA SCT025
                       OVC040 FM100900 18007KT P6SM VCSH OVC030=
202111090523 TAF KPAE 090523Z 0906/1006 12014G20KT P6SM OVC100 FM090900 14014G24KT
                       6SM -RA OVC045 FM091500 20016G26KT P6SM
                       -SHRA OVC035 FM100300 20012KT P6SM SCT025
                       BKN040 OVC060=
202111082321 TAF KPAE 082321Z 0900/0924 13009KT P6SM OVC200 FM090400 14010KT
                       P6SM OVC150 WS015/12030KT FM090800 14012G20KT
                       6SM -RA BKN050 OVC080 FM091500 20012G20KT
                       P6SM -SHRA OVC030=
202111081737 TAF KPAE 081737Z 0818/0918 16010KT P6SM SCT015 BKN050 FM081900
                       16012KT P6SM SCT120 SCT250 FM082300 15012G18KT
                       P6SM OVC200 FM090700 12012G20KT 6SM -RA
                       BKN050 OVC080 FM091300 20012G20KT P6SM -SHRA
                       OVC035=
202111081415 KPAE 081415Z 0814/0912 16010KT P6SM SCT015 BKN050 FM081900 16012KT
                       P6SM SCT120 SCT250 FM082300 15012G18KT P6SM
                       OVC200 FM090700 12012G20KT P6SM -RA BKN050
                       OVC080=
202111081133 TAF KPAE 081133Z 0812/0912 16010KT P6SM SCT015 OVC050
                      TEMPO 0812/0815 BKN015 FM081900 16012KT P6SM
                       SCT120 SCT250 FM082300 15012G18KT P6SM OVC200
                       FM090700 12012G20KT P6SM -RA BKN050 OVC080=
202111080903 KPAE 080903Z 0809/0906 17012KT P6SM VCSH SCT012 BKN030 FM081200
                       18010KT P6SM VCSH SCT015 BKN020 FM081700
                       16009KT P6SM BKN050 OVC100 FM082100 15009KT
                       P6SM OVC200=
202111080520 TAF KPAE 080520Z 0806/0906 18015G25KT P6SM VCSH SCT011 BKN030 FM081200
                       18010KT P6SM VCSH SCT015 BKN020 FM081700
                       16009KT P6SM BKN050 OVC100 FM082100 15009KT
                       P6SM OVC200=
202111072338 TAF KPAE 072338Z 0800/0824 17014G23KT P6SM -SHRA BKN020 OVC035
                       FM080400 18012G18KT P6SM VCSH BKN030 FM080900
                       17009KT P6SM BKN035 FM081700 16009KT P6SM
                       BKN050 OVC100 FM082100 15009KT P6SM BKN120
                       OVC200=
202111071727 TAF KPAE 071727Z 0718/0818 18016G25KT P6SM -SHRA BKN012 OVC025
                       FM072100 17018G28KT 6SM -SHRA BR OVC018
                       FM080200 18012G18KT P6SM -SHRA BKN025 OVC030
                       FM080900 17009KT P6SM BKN035 FM081700 16009KT
                       P6SM BKN050 OVC100=
202111071120 TAF KPAE 071120Z 0712/0812 18016G25KT P6SM -SHRA BKN012 OVC025
                       FM072100 17018G28KT 6SM -RA BR OVC018 FM080200
                       18015KT P6SM -SHRA BKN035=
202111070526 TAF KPAE 070526Z 0706/0806 18016G25KT P6SM -SHRA SCT015 BKN035
                       FM072100 17018G28KT 6SM -RA BR OVC018 FM080100
                       18015KT P6SM -SHRA BKN035=
202111070427 KPAE 070427Z 0704/0724 18014G22KT P6SM -RA BKN015 OVC025
                      TEMPO 0704/0705 3SM RA BR FM071500 19012G18KT
                       6SM -RA BR OVC022 FM071900 17014G22KT 6SM
                       -RA BR OVC017=
202111062328 TAF KPAE 062328Z 0700/0724 16013G27KT P6SM -SHRA SCT019 SCT040
                       FM070500 18014G22KT P6SM -SHRA OVC025 FM071500
                       19012G18KT 6SM -RA BR OVC022 FM071900 17014G22KT
                       6SM -RA BR OVC017=
202111061723 TAF KPAE 061723Z 0618/0718 18014G22KT P6SM -RA SCT015 OVC035
                      TEMPO 0618/0621 5SM -RA BR BKN015 OVC030
                       FM062100 18015G25KT P6SM -SHRA BKN025 BKN040
                       FM070500 18010KT P6SM -SHRA OVC030 FM071500
                       19010G18KT 6SM -RA BR OVC022=
202111061136 TAF KPAE 061136Z 0612/0712 18010KT P6SM -RA SCT035 OVC045 FM061700
                       18017G25KT 6SM -RA BR OVC025 FM061900 18015G25KT
                       P6SM -SHRA BKN025 BKN040 FM070500 18010KT
                       P6SM -SHRA OVC040=
202111060541 TAF KPAE 060541Z 0606/0706 16010KT P6SM SCT050 SCT200 FM060900
                       14009KT P6SM BKN060 OVC100 FM061200 16014G22KT
                       6SM -RA BR OVC030 FM061500 18017G25KT 6SM
                       -RA BR OVC022 FM061900 18015G25KT P6SM -SHRA
                       BKN025 BKN040=
202111052340 TAF KPAE 052340Z 0600/0624 18012G18KT P6SM VCSH BKN030 OVC050 FM060200
                       16010KT P6SM SCT050 SCT200 FM060900 14009KT
                       P6SM BKN060 OVC100 FM061200 16014G22KT 6SM
                       -RA BR OVC030 FM061500 18017G25KT 6SM -RA
                       BR OVC022 FM061900 18015G25KT P6SM -SHRA
                       BKN025 BKN040=
202111051741 TAF KPAE 051741Z 0518/0618 18014G22KT P6SM VCSH SCT015 BKN035 FM052200
                       18012KT P6SM VCSH BKN030 OVC050 FM060200
                       16006KT P6SM SCT050 SCT200 FM060900 14009KT
                       P6SM BKN060 OVC100 FM061200 16014G22KT 6SM
                       -RA BR OVC030=
202111051123 TAF KPAE 051123Z 0512/0612 16009G18KT P6SM VCSH SCT050 OVC080 FM051330
                       18013G20KT 6SM -RA BR OVC030 FM052200 18012KT
                       P6SM -SHRA BKN030 OVC050 FM060200 16006KT
                       P6SM SCT050 OVC080=
202111050537 TAF KPAE 050537Z 0506/0606 18015G25KT P6SM VCSH SCT030 FM051100
                       16014G22KT P6SM BKN035 FM051500 18013G20KT
                       6SM -RA BR OVC020 FM051700 18012G18KT 6SM
                       -RA BR OVC012 FM052200 18012KT P6SM -SHRA
                       BKN022 BKN040=
202111042336 TAF KPAE 042336Z 0500/0524 20017G27KT P6SM -SHRA BKN020 BKN040
                       TEMPO 0500/0502 6SM SHRA BR OVC008 FM050600
                       19012KT P6SM VCSH BKN030 FM051100 16014G22KT
                       P6SM BKN035 FM051500 18013G20KT 6SM -RA
                       BR OVC020 FM051700 18012G18KT 6SM -RA BR
                       OVC012 FM052200 18012KT P6SM -SHRA BKN022
                       BKN040=
202111041859 KPAE 041859Z 0419/0518 17014G24KT P6SM -SHRA SCT012 OVC035
                      TEMPO 0419/0421 BKN008 FM042100 20017G27KT
                       P6SM -SHRA BKN020 BKN040 FM050600 19012KT
                       P6SM VCSH BKN030 FM051100 16012G18KT P6SM
                       BKN035 FM051500 18012G18KT 6SM -RA BR OVC020=
202111041727 TAF KPAE 041727Z 0418/0518 17011KT P6SM -RA OVC035 FM042100 20017G27KT
                       P6SM -SHRA BKN025 BKN050 FM050600 19012KT
                       P6SM VCSH BKN030 FM051100 16012G18KT P6SM
                       BKN035 FM051500 18012G18KT 6SM -RA BR OVC020=
202111041136 TAF KPAE 041136Z 0412/0512 14013G21KT 6SM -RA BR BKN035 OVC050
                       FM041700 15015G25KT P6SM -RA OVC030 FM042100
                       20017G27KT P6SM -SHRA BKN025 BKN050 FM050500
                       19010KT P6SM OVC050=
202111040523 TAF KPAE 040523Z 0406/0506 VRB04KT 4SM RA BR SCT035 OVC050 FM041000
                       12012KT P6SM -RA OVC040 FM041700 15015G25KT
                       P6SM -RA OVC030 FM042100 20017G27KT P6SM
                       -SHRA BKN025 BKN050=
202111032320 TAF KPAE 032320Z 0400/0424 21007KT P6SM -RA OVC040 FM040500 12006KT
                       P6SM BKN050 OVC090 FM041000 12012KT P6SM
                       -RA OVC040 FM041700 15015G25KT P6SM -RA
                       OVC030 FM042100 20017G27KT P6SM -SHRA BKN025
                       BKN050=
202111031720 TAF KPAE 031720Z 0318/0418 12007KT P6SM VCSH BKN050 OVC090 FM040400
                       14012G22KT P6SM -RA OVC040 FM041700 18017G27KT
                       P6SM -SHRA BKN030=
202111031132 TAF KPAE 031132Z 0312/0412 13008KT P6SM BKN100 OVC200 FM040400
                       15012G20KT P6SM -RA OVC045=
202111030536 TAF KPAE 030536Z 0306/0406 13008KT P6SM BKN100 OVC200 FM040400
                       15012G20KT P6SM OVC100=
202111030302 KPAE 030302Z 0303/0324 11006KT 6SM -RA BR SCT030 OVC060 FM030800
                       15008KT P6SM SCT050 BKN100 FM031500 13006KT
                       P6SM SCT060 BKN100=
202111022321 TAF KPAE 022321Z 0300/0324 14005KT P6SM -RA FEW010 SCT050 OVC070
                       FM030200 15012G20KT P6SM -RA SCT005 OVC035
                       TEMPO 0302/0305 3SM -RA BR BKN005 OVC035
                       FM030800 15008KT P6SM SCT050 BKN100=
202111021723 TAF KPAE 021723Z 0218/0318 15006KT P6SM OVC100 FM030100 15012G20KT
                       P6SM -RA OVC035 FM030900 15008KT P6SM SCT050
                       BKN100=
202111021130 TAF KPAE 021130Z 0212/0312 15008KT P6SM BKN150 OVC250 FM022100
                       15008KT P6SM OVC100 FM030100 15012G20KT
                       P6SM -RA OVC035 FM030900 15008KT P6SM SCT050
                       BKN100=
202111020541 TAF KPAE 020541Z 0206/0306 15008KT P6SM SCT025 BKN050 OVC100 FM021500
                       15008KT P6SM SCT050 BKN100 OVC200 FM030100
                       15012G20KT P6SM -RA OVC035=
202111012320 TAF KPAE 012320Z 0200/0224 16010KT P6SM -RA BKN050 OVC070 FM020300
                       15005KT P6SM VCSH OVC030 FM021200 12004KT
                       P6SM OVC030
                      TEMPO 0213/0216 3SM BR BKN010 OVC020 FM021600
                       15005KT P6SM BKN040=
202111011750 TAF KPAE 011750Z 0118/0218 13005KT P6SM FEW200 FM012200 16010KT
                       P6SM -RA BKN050 OVC100 FM020300 15005KT
                       P6SM OVC020 FM021200 12004KT P6SM OVC030
                       TEMPO 0213/0216 3SM BR BKN010 OVC020 FM021600
                       VRB04KT P6SM BKN040=
202111011123 TAF KPAE 011123Z 0112/0212 09004KT P6SM SKC FM011600 13005KT P6SM
                       SCT200 FM012100 16008KT P6SM -RA BKN050
                       OVC100 FM020300 15005KT P6SM OVC020=
202111010530 TAF KPAE 010530Z 0106/0206 VRB04KT P6SM SKC FM011600 13005KT P6SM
                       SCT200 FM012100 16008KT P6SM -RA BKN060
                       OVC100 FM020300 16007KT P6SM OVC035=