##########################################################
# Query made at 02/15/2025 22:31:12 UTC
# Time interval: from 07/01/2021 00:00  to 07/31/2021 23:59  UTC
##########################################################

##########################################################
# KPAE, Everett, Snohomish County Airport (United States)
# WMO index: -----. WIGOS ID: Unknown
# Latitude 47-55-23N. Longitude 122-16-57W. Altitude 184 m.
##########################################################

###################################
#  METAR/SPECI from KPAE
###################################
202107312353 METAR KPAE 312353Z 06007KT 040V100 10SM CLR 18/13 A3005 RMK AO2 SLP172 T01830128 10200 20161 58005=
202107312253 METAR KPAE 312253Z 35005KT 10SM CLR 19/13 A3005 RMK AO2 SLP172 T01940133=
202107312153 METAR KPAE 312153Z 32004KT 10SM FEW110 19/13 A3008 RMK AO2 SLP181 T01940128=
202107312053 METAR KPAE 312053Z 01005KT 10SM FEW120 20/13 A3006 RMK AO2 SLP177 T02000128 58008=
202107311953 METAR KPAE 311953Z 29003KT 10SM CLR 18/13 A3008 RMK AO2 SLP181 T01830128=
202107311853 METAR KPAE 311853Z 31003KT 10SM SCT100 BKN120 17/12 A3008 RMK AO2 SLP185 T01670122=
202107311753 METAR KPAE 311753Z 35007G17KT 10SM FEW070 SCT090 BKN110 16/12 A3009 RMK AO2 RAB08E18 SLP186 P0000 60000 T01610117 10178 20156 53013=
202107311653 METAR KPAE 311653Z 36004KT 10SM SCT120 18/12 A3007 RMK AO2 SLP181 T01780117=
202107311553 METAR KPAE 311553Z 05005KT 10SM CLR 17/12 A3006 RMK AO2 SLP177 T01670117=
202107311453 METAR KPAE 311453Z 01005KT 10SM FEW090 FEW110 17/11 A3005 RMK AO2 SLP172 T01670111 51014=
202107311353 METAR KPAE 311353Z 04005KT 10SM FEW120 17/11 A3004 RMK AO2 SLP169 T01670111=
202107311253 METAR KPAE 311253Z AUTO 06004KT 10SM CLR 17/11 A3002 RMK AO2 SLP162 T01720111=
202107311153 METAR KPAE 311153Z AUTO 00000KT 10SM CLR 17/11 A3001 RMK AO2 SLP157 T01720111 10222 20172 53009=
202107311053 METAR KPAE 311053Z AUTO 36004KT 10SM CLR 18/11 A2999 RMK AO2 SLP150 T01830111=
202107310953 METAR KPAE 310953Z AUTO 02006KT 10SM CLR 21/08 A2998 RMK AO2 SLP147 T02110083=
202107310853 METAR KPAE 310853Z AUTO 05005KT 10SM CLR 22/08 A2998 RMK AO2 SLP148 T02170083 58006=
202107310753 METAR KPAE 310753Z AUTO 03005KT 10SM CLR 22/09 A2999 RMK AO2 SLP152 T02220089 402940139=
202107310653 METAR KPAE 310653Z AUTO 03004KT 10SM CLR 22/09 A3000 RMK AO2 SLP155 T02170094=
202107310553 METAR KPAE 310553Z AUTO 35005KT 10SM CLR 21/09 A3000 RMK AO2 SLP155 T02110094 10294 20194 53007=
202107310453 METAR KPAE 310453Z AUTO 35008KT 10SM CLR 20/11 A2999 RMK AO2 SLP151 T02000106=
202107310353 METAR KPAE 310353Z 01007KT 10SM CLR 21/12 A2999 RMK AO2 SLP152 T02060117=
202107310253 METAR KPAE 310253Z 35006KT 10SM CLR 23/12 A2998 RMK AO2 SLP147 T02330117 55000=
202107310153 METAR KPAE 310153Z VRB06KT 10SM CLR 27/12 A2997 RMK AO2 SLP144 T02670122=
202107310053 METAR KPAE 310053Z 35007KT 10SM CLR 28/13 A2997 RMK AO2 SLP145 T02830128=
202107302353 METAR KPAE 302353Z 35008G15KT 10SM CLR 29/13 A2998 RMK AO2 SLP148 T02890128 10294 20228 56011=
202107302253 METAR KPAE 302253Z 34007G15KT 10SM CLR 29/13 A2998 RMK AO2 SLP150 T02890128=
202107302153 METAR KPAE 302153Z 34006KT 10SM CLR 28/13 A3000 RMK AO2 SLP155 T02830128=
202107302053 METAR KPAE 302053Z 01007KT 10SM CLR 27/12 A3001 RMK AO2 SLP159 T02670122 58010=
202107301953 METAR KPAE 301953Z 35007KT 10SM CLR 26/12 A3002 RMK AO2 SLP163 T02560117=
202107301853 METAR KPAE 301853Z 01006KT 10SM CLR 24/13 A3004 RMK AO2 SLP168 T02440133=
202107301753 METAR KPAE 301753Z 36005KT 10SM CLR 23/13 A3004 RMK AO2 SLP169 T02280128 10228 20139 58001=
202107301653 METAR KPAE 301653Z 35005KT 10SM CLR 21/13 A3004 RMK AO2 SLP172 T02060128=
202107301553 METAR KPAE 301553Z 04003KT 10SM CLR 18/12 A3005 RMK AO2 SLP173 T01830122=
202107301453 METAR KPAE 301453Z 35003KT 10SM CLR 16/12 A3004 RMK AO2 SLP172 T01610122 53009=
202107301353 METAR KPAE 301353Z 35006KT 10SM CLR 14/12 A3003 RMK AO2 SLP167 T01440122=
202107301253 METAR KPAE 301253Z AUTO 01004KT 10SM CLR 14/13 A3002 RMK AO2 SLP163 T01390128=
202107301153 METAR KPAE 301153Z AUTO 01004KT 10SM CLR 15/13 A3002 RMK AO2 SLP161 T01500133 10194 20139 51001=
202107301053 METAR KPAE 301053Z AUTO 03005KT 10SM CLR 14/13 A3002 RMK AO2 SLP161 T01440133=
202107300953 METAR KPAE 300953Z AUTO 01006KT 10SM CLR 15/13 A3002 RMK AO2 SLP162 T01500128=
202107300853 METAR KPAE 300853Z AUTO 02005KT 10SM CLR 17/12 A3001 RMK AO2 SLP160 T01720117 58003=
202107300753 METAR KPAE 300753Z AUTO 05006KT 10SM CLR 18/12 A3002 RMK AO2 SLP162 T01830117 402830144=
202107300653 METAR KPAE 300653Z AUTO 04005KT 10SM CLR 19/12 A3002 RMK AO2 SLP162 T01940117=
202107300553 METAR KPAE 300553Z AUTO 01005KT 10SM CLR 18/12 A3002 RMK AO2 SLP163 T01830122 10283 20172 51006=
202107300453 METAR KPAE 300453Z AUTO 36007G16KT 10SM CLR 17/13 A3002 RMK AO2 SLP163 T01720128=
202107300353 METAR KPAE 300353Z AUTO 36009G16KT 10SM CLR 18/13 A3001 RMK AO2 SLP160 T01780128=
202107300253 METAR KPAE 300253Z 02007KT 10SM CLR 19/13 A3000 RMK AO2 SLP158 T01890133 56007=
202107300153 METAR KPAE 300153Z 35007G15KT 10SM CLR 22/13 A3001 RMK AO2 SLP160 T02170133=
202107300053 METAR KPAE 300053Z 35008KT 10SM CLR 27/12 A3001 RMK AO2 SLP159 T02670117=
202107292353 METAR KPAE 292353Z 34008KT 10SM CLR 28/11 A3002 RMK AO2 SLP164 T02830111 10283 20233 58014=
202107292253 METAR KPAE 292253Z 36008KT 10SM CLR 27/13 A3004 RMK AO2 SLP169 T02720128=
202107292153 METAR KPAE 292153Z 35007KT 10SM CLR 26/12 A3005 RMK AO2 SLP174 T02610117=
202107292053 METAR KPAE 292053Z 36008KT 10SM CLR 26/13 A3007 RMK AO2 SLP178 T02560128 58015=
202107291953 METAR KPAE 291953Z 32007KT 290V360 10SM CLR 24/13 A3008 RMK AO2 SLP184 T02440133=
202107291853 METAR KPAE 291853Z 32005KT 10SM CLR 24/13 A3010 RMK AO2 SLP191 T02440133=
202107291753 METAR KPAE 291753Z 01005KT 10SM CLR 23/12 A3011 RMK AO2 SLP194 T02330122 10233 20144 58001=
202107291653 METAR KPAE 291653Z 01005KT 10SM CLR 22/12 A3012 RMK AO2 SLP195 T02220122=
202107291553 METAR KPAE 291553Z 00000KT 10SM CLR 21/13 A3012 RMK AO2 SLP197 T02060128=
202107291453 METAR KPAE 291453Z 00000KT 10SM CLR 19/13 A3012 RMK AO2 SLP195 T01940128 51008=
202107291353 METAR KPAE 291353Z 00000KT 10SM CLR 16/13 A3011 RMK AO2 SLP193 T01610128=
202107291253 METAR KPAE 291253Z AUTO 00000KT 10SM CLR 15/13 A3010 RMK AO2 SLP189 T01500128=
202107291153 METAR KPAE 291153Z AUTO 34003KT 10SM CLR 14/12 A3009 RMK AO2 SLP187 T01440117 10178 20144 51002=
202107291053 METAR KPAE 291053Z AUTO 02003KT 10SM CLR 16/12 A3009 RMK AO2 SLP187 T01560122=
202107290953 METAR KPAE 290953Z AUTO 05005KT 10SM CLR 17/12 A3009 RMK AO2 SLP186 T01720122=
202107290853 METAR KPAE 290853Z AUTO 04005KT 10SM CLR 17/13 A3009 RMK AO2 SLP185 T01720128 58002=
202107290753 METAR KPAE 290753Z AUTO 07004KT 10SM CLR 17/13 A3009 RMK AO2 SLP187 T01720128 402780133=
202107290653 METAR KPAE 290653Z AUTO 06006KT 10SM CLR 18/13 A3010 RMK AO2 SLP189 T01780128=
202107290553 METAR KPAE 290553Z AUTO 36006KT 10SM CLR 17/13 A3009 RMK AO2 SLP187 T01720133 10278 20167 53006=
202107290453 METAR KPAE 290453Z AUTO 36007G21KT 10SM CLR 17/13 A3009 RMK AO2 SLP187 T01720133=
202107290353 METAR KPAE 290353Z 36010KT 10SM CLR 17/13 A3008 RMK AO2 SLP183 T01720133=
202107290253 METAR KPAE 290253Z 01007KT 10SM CLR 20/10 A3008 RMK AO2 SLP183 T02000100 55007=
202107290153 METAR KPAE 290153Z 35007KT 10SM CLR 25/10 A3007 RMK AO2 SLP181 T02500100=
202107290053 METAR KPAE 290053Z 28007KT 10SM CLR 27/09 A3008 RMK AO2 SLP183 T02720094=
202107282353 METAR KPAE 282353Z VRB04KT 10SM CLR 27/08 A3010 RMK AO2 SLP188 T02720078 10272 20222 58012=
202107282253 METAR KPAE 282253Z 01006KT 10SM CLR 27/09 A3011 RMK AO2 SLP193 T02670089=
202107282153 METAR KPAE 282153Z VRB03KT 10SM CLR 25/11 A3012 RMK AO2 SLP198 T02500106=
202107282053 METAR KPAE 282053Z 25004KT 10SM CLR 23/11 A3013 RMK AO2 SLP201 T02330106 58005=
202107281953 METAR KPAE 281953Z 30005KT 10SM CLR 23/11 A3014 RMK AO2 SLP204 T02330106=
202107281853 METAR KPAE 281853Z 29004KT 10SM CLR 23/10 A3015 RMK AO2 SLP206 T02330100=
202107281753 METAR KPAE 281753Z 01006KT 10SM CLR 22/10 A3015 RMK AO2 SLP207 T02220100 10222 20133 58003=
202107281653 METAR KPAE 281653Z 01004KT 10SM CLR 21/09 A3016 RMK AO2 SLP211 T02110094=
202107281553 METAR KPAE 281553Z 06005KT 10SM CLR 19/09 A3016 RMK AO2 SLP210 T01940094=
202107281453 METAR KPAE 281453Z 01003KT 10SM CLR 16/11 A3016 RMK AO2 SLP210 T01610106 53007=
202107281353 METAR KPAE 281353Z 01005KT 10SM CLR 14/11 A3015 RMK AO2 SLP207 T01440106=
202107281253 METAR KPAE 281253Z AUTO 00000KT 10SM CLR 14/09 A3014 RMK AO2 SLP204 T01390089=
202107281153 METAR KPAE 281153Z AUTO VRB03KT 10SM CLR 16/05 A3014 RMK AO2 SLP202 T01560050 10172 20156 50001=
202107281053 METAR KPAE 281053Z AUTO 05004KT 10SM CLR 17/06 A3014 RMK AO2 SLP204 T01670056=
202107280953 METAR KPAE 280953Z AUTO 06003KT 10SM CLR 17/06 A3014 RMK AO2 SLP203 T01670056=
202107280853 METAR KPAE 280853Z AUTO 05005KT 10SM CLR 17/07 A3013 RMK AO2 SLP201 T01670072 53006=
202107280753 METAR KPAE 280753Z AUTO 06006KT 10SM CLR 17/09 A3012 RMK AO2 SLP199 T01670089 402560144=
202107280653 METAR KPAE 280653Z AUTO 01006KT 10SM CLR 17/08 A3012 RMK AO2 SLP198 T01720083=
202107280553 METAR KPAE 280553Z AUTO 36007KT 10SM CLR 17/09 A3011 RMK AO2 SLP195 T01670094 10250 20167 51013=
202107280453 METAR KPAE 280453Z AUTO 35007KT 10SM CLR 17/11 A3010 RMK AO2 SLP191 T01670106=
202107280353 METAR KPAE 280353Z AUTO 02005KT 10SM CLR 18/12 A3009 RMK AO2 SLP187 T01780122=
202107280253 METAR KPAE 280253Z 35007KT 10SM CLR 21/12 A3007 RMK AO2 SLP182 T02060117 53001=
202107280153 METAR KPAE 280153Z 34007KT 10SM CLR 23/12 A3007 RMK AO2 SLP179 T02330122=
202107280053 METAR KPAE 280053Z 34005KT 10SM CLR 24/13 A3007 RMK AO2 SLP180 T02440128=
202107272353 METAR KPAE 272353Z 36007KT 10SM CLR 24/13 A3007 RMK AO2 SLP181 T02440128 10256 20194 58003=
202107272253 METAR KPAE 272253Z 02006KT 10SM CLR 24/13 A3008 RMK AO2 SLP183 T02440128=
202107272153 METAR KPAE 272153Z 32007KT 300V010 10SM CLR 24/13 A3008 RMK AO2 SLP182 T02440133=
202107272053 METAR KPAE 272053Z 32004KT 10SM CLR 23/14 A3008 RMK AO2 SLP184 T02330139 50001=
202107271953 METAR KPAE 271953Z 31005KT 10SM CLR 21/14 A3008 RMK AO2 SLP184 T02110139=
202107271853 METAR KPAE 271853Z VRB05KT 10SM CLR 21/14 A3008 RMK AO2 SLP183 T02060139=
202107271753 METAR KPAE 271753Z 29004KT 10SM FEW015 19/14 A3008 RMK AO2 SLP183 T01940139 10194 20144 51005=
202107271736 SPECI KPAE 271736Z VRB03KT 10SM SCT015 19/14 A3008 RMK AO2 T01890139=
202107271653 METAR KPAE 271653Z 35003KT 10SM BKN015 19/14 A3008 RMK AO2 SLP183 T01890139=
202107271630 SPECI KPAE 271630Z 32003KT 10SM BKN015 18/13 A3007 RMK AO2 T01780133=
202107271553 METAR KPAE 271553Z 02004KT 10SM SCT018 17/14 A3007 RMK AO2 SLP181 T01720139=
202107271453 METAR KPAE 271453Z VRB03KT 10SM SCT018 17/13 A3006 RMK AO2 SLP179 T01720133 51012=
202107271353 METAR KPAE 271353Z 06003KT 10SM CLR 16/13 A3005 RMK AO2 SLP175 T01560133=
202107271253 METAR KPAE 271253Z AUTO 00000KT 10SM CLR 14/13 A3004 RMK AO2 SLP170 T01440128=
202107271153 METAR KPAE 271153Z AUTO 02003KT 10SM CLR 14/13 A3003 RMK AO2 SLP166 T01440128 10167 20144 51003=
202107271053 METAR KPAE 271053Z AUTO VRB03KT 10SM CLR 14/13 A3003 RMK AO2 SLP165 T01440133=
202107270953 METAR KPAE 270953Z AUTO 04005KT 10SM CLR 15/13 A3002 RMK AO2 SLP164 T01500133=
202107270853 METAR KPAE 270853Z AUTO VRB04KT 10SM CLR 16/13 A3002 RMK AO2 SLP162 T01560133 53005=
202107270753 METAR KPAE 270753Z AUTO 01004KT 10SM CLR 16/13 A3001 RMK AO2 SLP161 T01560133 402330128=
202107270653 METAR KPAE 270653Z AUTO VRB04KT 10SM CLR 16/13 A3000 RMK AO2 SLP157 T01610133=
202107270553 METAR KPAE 270553Z AUTO 02007KT 10SM CLR 17/13 A3000 RMK AO2 SLP157 T01670133 10211 20161 53007=
202107270453 METAR KPAE 270453Z AUTO 01007KT 10SM CLR 17/13 A2999 RMK AO2 SLP154 T01670133=
202107270353 METAR KPAE 270353Z 36012G18KT 10SM CLR 17/13 A2998 RMK AO2 SLP151 T01670133=
202107270253 METAR KPAE 270253Z 36012G21KT 10SM CLR 17/13 A2998 RMK AO2 SLP151 T01670133 55004=
202107270153 METAR KPAE 270153Z 35010G20KT 10SM CLR 18/13 A2998 RMK AO2 SLP150 T01780133=
202107270053 METAR KPAE 270053Z 02007KT 10SM CLR 21/13 A2998 RMK AO2 SLP151 T02110133=
202107262353 METAR KPAE 262353Z 35010G17KT 10SM CLR 21/13 A2999 RMK AO2 SLP154 T02110133 10233 20200 58012=
202107262253 METAR KPAE 262253Z 35007KT 10SM CLR 23/13 A3000 RMK AO2 SLP158 T02280128=
202107262153 METAR KPAE 262153Z 35010G16KT 10SM CLR 22/13 A3002 RMK AO2 SLP162 T02170128=
202107262053 METAR KPAE 262053Z 35008G16KT 10SM CLR 21/13 A3003 RMK AO2 SLP166 T02110128 58006=
202107261953 METAR KPAE 261953Z 36008KT 10SM CLR 21/13 A3003 RMK AO2 SLP168 T02110128=
202107261853 METAR KPAE 261853Z VRB04KT 10SM CLR 21/13 A3004 RMK AO2 SLP172 T02060128=
202107261753 METAR KPAE 261753Z 01005KT 10SM CLR 20/12 A3005 RMK AO2 SLP172 T02000122 10206 20128 58002=
202107261653 METAR KPAE 261653Z 01003KT 10SM CLR 19/13 A3005 RMK AO2 SLP175 T01890128=
202107261553 METAR KPAE 261553Z 04004KT 10SM CLR 17/12 A3005 RMK AO2 SLP175 T01720122=
202107261453 METAR KPAE 261453Z 06006KT 10SM FEW004 15/12 A3005 RMK AO2 SLP175 T01500122 53007=
202107261353 METAR KPAE 261353Z 05004KT 10SM SCT004 13/12 A3004 RMK AO2 SLP171 T01330122=
202107261253 METAR KPAE 261253Z AUTO 02005KT 10SM OVC004 13/12 A3003 RMK AO2 SLP168 T01280122=
202107261153 METAR KPAE 261153Z AUTO 02007KT 10SM OVC006 13/12 A3004 RMK AO2 SLP170 T01330122 10150 20133 58001=
202107261102 SPECI KPAE 261102Z AUTO 05007KT 10SM BKN007 BKN060 13/12 A3004 RMK AO2 T01330122=
202107261053 METAR KPAE 261053Z AUTO 05006KT 10SM SCT006 BKN060 13/12 A3004 RMK AO2 SLP170 T01330122=
202107261043 SPECI KPAE 261043Z AUTO 04006KT 10SM BKN006 BKN060 13/12 A3004 RMK AO2 T01330122=
202107261033 SPECI KPAE 261033Z AUTO 02005KT 10SM SCT007 13/12 A3004 RMK AO2 T01330122=
202107261026 SPECI KPAE 261026Z AUTO 02007KT 10SM BKN007 13/12 A3004 RMK AO2 T01330122=
202107260953 METAR KPAE 260953Z AUTO 03005KT 10SM FEW008 13/12 A3004 RMK AO2 SLP171 T01330117=
202107260853 METAR KPAE 260853Z AUTO 02005KT 10SM FEW007 14/12 A3004 RMK AO2 SLP170 T01390122 51000=
202107260835 SPECI KPAE 260835Z AUTO 02008KT 10SM FEW007 14/12 A3004 RMK AO2 T01390122=
202107260753 METAR KPAE 260753Z AUTO 01007KT 10SM CLR 14/12 A3004 RMK AO2 SLP170 T01390122 402330139=
202107260653 METAR KPAE 260653Z AUTO 02007KT 10SM CLR 14/12 A3004 RMK AO2 SLP170 T01440117=
202107260553 METAR KPAE 260553Z AUTO 01008G16KT 10SM CLR 15/12 A3004 RMK AO2 SLP170 T01500117 10194 20150 50004=
202107260453 METAR KPAE 260453Z AUTO 02010G17KT 10SM CLR 16/12 A3004 RMK AO2 SLP172 T01610122=
202107260353 METAR KPAE 260353Z 36008G20KT 10SM CLR 16/12 A3003 RMK AO2 SLP169 T01610122=
202107260253 METAR KPAE 260253Z 36015G22KT 10SM CLR 17/12 A3003 RMK AO2 PK WND 36028/0222 SLP166 T01670122 56008=
202107260153 METAR KPAE 260153Z 36013G23KT 10SM CLR 18/12 A3003 RMK AO2 SLP167 T01780122=
202107260053 METAR KPAE 260053Z 35013G26KT 10SM CLR 18/12 A3004 RMK AO2 PK WND 01026/0051 SLP170 T01780122=
202107252353 METAR KPAE 252353Z 35012G21KT 10SM CLR 19/12 A3005 RMK AO2 SLP174 T01890122 10233 20189 58013=
202107252253 METAR KPAE 252253Z 35013G22KT 10SM CLR 21/12 A3007 RMK AO2 SLP179 T02060122=
202107252153 METAR KPAE 252153Z 01011G20KT 10SM CLR 21/12 A3008 RMK AO2 SLP184 T02060122=
202107252053 METAR KPAE 252053Z VRB06KT 10SM CLR 23/12 A3009 RMK AO2 SLP186 T02330122 58009=
202107251953 METAR KPAE 251953Z VRB06KT 10SM CLR 23/12 A3010 RMK AO2 SLP190 T02280122=
202107251853 METAR KPAE 251853Z 02005KT 10SM CLR 22/12 A3011 RMK AO2 SLP194 T02170122=
202107251753 METAR KPAE 251753Z VRB05KT 10SM CLR 20/12 A3012 RMK AO2 SLP196 T02000122 10200 20139 58002=
202107251653 METAR KPAE 251653Z 01005KT 10SM CLR 18/12 A3013 RMK AO2 SLP202 T01830122=
202107251553 METAR KPAE 251553Z 01007KT 10SM CLR 16/12 A3013 RMK AO2 SLP201 T01610117=
202107251453 METAR KPAE 251453Z VRB04KT 10SM CLR 16/11 A3012 RMK AO2 SLP199 T01610111 53009=
202107251353 METAR KPAE 251353Z 01007KT 10SM CLR 14/11 A3011 RMK AO2 SLP194 T01440111=
202107251253 METAR KPAE 251253Z AUTO 03005KT 10SM CLR 14/12 A3010 RMK AO2 SLP191 T01390117=
202107251153 METAR KPAE 251153Z AUTO 03004KT 10SM CLR 14/12 A3009 RMK AO2 SLP188 T01440117 10167 20144 53000=
202107251053 METAR KPAE 251053Z AUTO VRB05KT 10SM CLR 14/12 A3009 RMK AO2 SLP188 T01440117=
202107250953 METAR KPAE 250953Z AUTO 02003KT 10SM CLR 15/12 A3009 RMK AO2 SLP188 T01500117=
202107250853 METAR KPAE 250853Z AUTO 02007KT 10SM CLR 15/12 A3009 RMK AO2 SLP187 T01500117 58000=
202107250753 METAR KPAE 250753Z AUTO 04004KT 10SM CLR 16/12 A3010 RMK AO2 SLP189 T01560122 402500133=
202107250653 METAR KPAE 250653Z AUTO 02007KT 10SM CLR 16/12 A3009 RMK AO2 SLP189 T01610122=
202107250553 METAR KPAE 250553Z AUTO 36009G19KT 10SM CLR 16/12 A3009 RMK AO2 SLP188 T01560122 10222 20156 53001=
202107250453 METAR KPAE 250453Z AUTO 01008KT 10SM CLR 16/12 A3009 RMK AO2 SLP188 T01610122=
202107250353 METAR KPAE 250353Z 01007G18KT 10SM CLR 17/12 A3009 RMK AO2 SLP188 T01670122=
202107250253 METAR KPAE 250253Z 36008KT 10SM CLR 18/13 A3009 RMK AO2 SLP188 T01830128 56015=
202107250153 METAR KPAE 250153Z VRB04KT 10SM CLR 21/13 A3009 RMK AO2 SLP189 T02060133=
202107250053 METAR KPAE 250053Z 35009KT 10SM CLR 21/13 A3011 RMK AO2 SLP197 T02110133=
202107242353 METAR KPAE 242353Z 34009KT 10SM CLR 22/13 A3013 RMK AO2 SLP202 T02220128 10250 20200 56011=
202107242253 METAR KPAE 242253Z 36008G17KT 10SM CLR 23/13 A3014 RMK AO2 SLP205 T02330128=
202107242153 METAR KPAE 242153Z 35008G15KT 10SM CLR 24/12 A3015 RMK AO2 SLP208 T02390122=
202107242053 METAR KPAE 242053Z 35006KT 10SM CLR 24/13 A3017 RMK AO2 SLP212 T02440128 58012=
202107241953 METAR KPAE 241953Z 31007KT 10SM CLR 23/13 A3018 RMK AO2 SLP217 T02330133=
202107241853 METAR KPAE 241853Z VRB04KT 10SM CLR 22/13 A3019 RMK AO2 SLP221 T02220133=
202107241753 METAR KPAE 241753Z 02005KT 10SM CLR 20/14 A3020 RMK AO2 SLP225 T02000139 10200 20133 58005=
202107241653 METAR KPAE 241653Z 36007KT 10SM CLR 18/13 A3021 RMK AO2 SLP230 T01780133=
202107241553 METAR KPAE 241553Z 36008KT 10SM CLR 16/13 A3022 RMK AO2 SLP231 T01610133=
202107241453 METAR KPAE 241453Z 35005KT 10SM FEW003 14/13 A3022 RMK AO2 SLP231 T01440133 53003=
202107241353 METAR KPAE 241353Z 36005KT 10SM SCT002 14/13 A3021 RMK AO2 SLP228 T01390133=
202107241344 SPECI KPAE 241344Z 35004KT 10SM SCT002 14/13 A3021 RMK AO2 T01390133=
202107241306 SPECI KPAE 241306Z AUTO 35005KT 3SM R16R/2600VP6000FT BR OVC001 13/13 A3020 RMK AO2 T01330133=
202107241300 SPECI KPAE 241300Z AUTO 35006KT 1 1/4SM R16R/1600VP6000FT BR OVC001 13/13 A3020 RMK AO2 VIS 1/2V2 1/2 T01330133=
202107241253 METAR KPAE 241253Z AUTO VRB05KT 2SM R16R/1600V2400FT BR OVC001 13/13 A3020 RMK AO2 VIS 1V5 SLP225 T01330133=
202107241236 SPECI KPAE 241236Z AUTO 35004KT 8SM BKN001 13/13 A3020 RMK AO2 T01330133=
202107241224 SPECI KPAE 241224Z AUTO 35005KT 10SM BKN002 13/13 A3020 RMK AO2 T01330128=
202107241201 SPECI KPAE 241201Z AUTO VRB03KT 10SM FEW003 14/13 A3021 RMK AO2 T01390128=
202107241153 METAR KPAE 241153Z AUTO 36005KT 10SM CLR 14/13 A3021 RMK AO2 SLP227 T01390133 10167 20139 56005=
202107241053 METAR KPAE 241053Z AUTO 36003KT 10SM CLR 14/13 A3021 RMK AO2 SLP228 T01440133=
202107240953 METAR KPAE 240953Z AUTO 36006KT 10SM CLR 16/14 A3022 RMK AO2 SLP230 T01560139=
202107240853 METAR KPAE 240853Z AUTO 36006KT 10SM CLR 15/14 A3022 RMK AO2 SLP232 T01500139 54000=
202107240753 METAR KPAE 240753Z AUTO 35008G16KT 10SM CLR 16/13 A3022 RMK AO2 SLP231 T01560133 402390128=
202107240653 METAR KPAE 240653Z AUTO 36006KT 10SM CLR 16/13 A3022 RMK AO2 SLP232 T01610133=
202107240553 METAR KPAE 240553Z AUTO 01005KT 10SM CLR 17/13 A3022 RMK AO2 SLP232 T01670133 10233 20161 56002=
202107240453 METAR KPAE 240453Z 04005KT 10SM CLR 16/13 A3022 RMK AO2 SLP234 T01610133=
202107240353 METAR KPAE 240353Z 02005KT 10SM CLR 17/13 A3023 RMK AO2 SLP234 T01720133=
202107240253 METAR KPAE 240253Z 34008KT 10SM CLR 19/13 A3023 RMK AO2 SLP235 T01890133 56010=
202107240153 METAR KPAE 240153Z 35009G15KT 10SM CLR 21/12 A3023 RMK AO2 SLP234 T02110122=
202107240053 METAR KPAE 240053Z 35007KT 10SM CLR 23/11 A3024 RMK AO2 SLP239 T02280111=
202107232353 METAR KPAE 232353Z 35008KT 10SM CLR 23/10 A3026 RMK AO2 SLP245 T02330100 10239 20189 58007=
202107232253 METAR KPAE 232253Z 28008KT 10SM CLR 23/08 A3028 RMK AO2 SLP250 T02330083=
202107232153 METAR KPAE 232153Z 28007KT 10SM CLR 23/09 A3028 RMK AO2 SLP252 T02280089=
202107232053 METAR KPAE 232053Z 32005KT 10SM CLR 22/08 A3028 RMK AO2 SLP252 T02220078 58004=
202107231953 METAR KPAE 231953Z VRB03KT 10SM CLR 21/08 A3029 RMK AO2 SLP255 T02060083=
202107231853 METAR KPAE 231853Z 28006KT 10SM CLR 20/09 A3029 RMK AO2 SLP256 T02000094=
202107231753 METAR KPAE 231753Z VRB05KT 10SM CLR 20/09 A3029 RMK AO2 SLP257 T02000094 10200 20128 51008=
202107231653 METAR KPAE 231653Z 00000KT 10SM CLR 18/09 A3029 RMK AO2 SLP255 T01780089=
202107231553 METAR KPAE 231553Z 01003KT 10SM CLR 16/09 A3028 RMK AO2 SLP254 T01610089=
202107231453 METAR KPAE 231453Z 08004KT 10SM FEW120 15/08 A3027 RMK AO2 SLP249 T01500083 52011=
202107231353 METAR KPAE 231353Z 05005KT 10SM CLR 14/08 A3026 RMK AO2 SLP245 T01390083=
202107231253 METAR KPAE 231253Z AUTO 04004KT 10SM FEW110 13/08 A3025 RMK AO2 SLP241 T01280083=
202107231153 METAR KPAE 231153Z AUTO 05004KT 10SM FEW110 13/09 A3023 RMK AO2 SLP237 T01280089 10133 20128 51007=
202107231053 METAR KPAE 231053Z AUTO 01004KT 10SM CLR 13/09 A3023 RMK AO2 SLP236 T01280089=
202107230953 METAR KPAE 230953Z AUTO 02004KT 10SM CLR 13/09 A3022 RMK AO2 SLP232 T01280089=
202107230853 METAR KPAE 230853Z AUTO 02005KT 10SM CLR 13/09 A3021 RMK AO2 SLP230 T01330089 53008=
202107230753 METAR KPAE 230753Z AUTO 01006KT 10SM CLR 13/09 A3020 RMK AO2 SLP226 T01330089 402170122=
202107230653 METAR KPAE 230653Z AUTO 36009G15KT 10SM CLR 13/09 A3020 RMK AO2 SLP224 T01330089=
202107230553 METAR KPAE 230553Z AUTO 02007KT 10SM CLR 13/09 A3019 RMK AO2 SLP221 T01330094 10211 20133 53010=
202107230453 METAR KPAE 230453Z 36008KT 10SM CLR 14/09 A3018 RMK AO2 SLP219 T01390094=
202107230353 METAR KPAE 230353Z 35006KT 10SM CLR 15/09 A3016 RMK AO2 SLP212 T01500094=
202107230253 METAR KPAE 230253Z 34005KT 10SM CLR 17/09 A3016 RMK AO2 SLP211 T01720094 55003=
202107230153 METAR KPAE 230153Z VRB05KT 10SM CLR 20/09 A3016 RMK AO2 SLP210 T02000089=
202107230053 METAR KPAE 230053Z 35006KT 10SM CLR 21/07 A3016 RMK AO2 SLP212 T02110072=
202107222353 METAR KPAE 222353Z 35008KT 10SM CLR 21/06 A3016 RMK AO2 SLP213 T02110061 10217 20172 58009=
202107222253 METAR KPAE 222253Z VRB05KT 10SM CLR 21/08 A3018 RMK AO2 SLP218 T02110083=
202107222153 METAR KPAE 222153Z VRB06KT 10SM CLR 21/09 A3018 RMK AO2 SLP219 T02110094=
202107222053 METAR KPAE 222053Z 33004KT 10SM CLR 19/10 A3019 RMK AO2 SLP223 T01940100 58004=
202107221953 METAR KPAE 221953Z VRB04KT 10SM FEW025 19/10 A3020 RMK AO2 SLP227 T01890100=
202107221853 METAR KPAE 221853Z 29008KT 10SM FEW025 18/10 A3020 RMK AO2 SLP227 T01830100=
202107221753 METAR KPAE 221753Z 36004KT 10SM SCT025 18/10 A3020 RMK AO2 SLP227 T01780100 10178 20122 50001=
202107221653 METAR KPAE 221653Z 28003KT 10SM SCT020 16/10 A3021 RMK AO2 SLP227 T01610100=
202107221553 METAR KPAE 221553Z VRB04KT 10SM CLR 16/10 A3020 RMK AO2 SLP227 T01560100=
202107221453 METAR KPAE 221453Z VRB04KT 10SM CLR 14/10 A3020 RMK AO2 SLP225 T01390100 53007=
202107221353 METAR KPAE 221353Z VRB04KT 10SM CLR 13/10 A3019 RMK AO2 SLP223 T01330100=
202107221253 METAR KPAE 221253Z AUTO 36007KT 10SM CLR 12/09 A3018 RMK AO2 SLP218 T01220094=
202107221153 METAR KPAE 221153Z AUTO 35006KT 10SM OVC049 13/10 A3018 RMK AO2 SLP218 T01280100 10144 20128 53003=
202107221053 METAR KPAE 221053Z AUTO 35006KT 10SM OVC049 13/09 A3017 RMK AO2 SLP216 T01330094=
202107220953 METAR KPAE 220953Z AUTO 35006KT 10SM SCT046 OVC065 13/09 A3017 RMK AO2 SLP215 T01330094=
202107220853 METAR KPAE 220853Z AUTO 35008G17KT 10SM SCT050 OVC060 13/10 A3017 RMK AO2 SLP216 T01330100 51002=
202107220753 METAR KPAE 220753Z AUTO 36010KT 10SM OVC046 14/10 A3016 RMK AO2 SLP214 T01390100 401940133=
202107220653 METAR KPAE 220653Z AUTO 34005KT 10SM BKN055 BKN080 14/09 A3017 RMK AO2 SLP215 T01390094=
202107220553 METAR KPAE 220553Z AUTO 36008G18KT 10SM OVC049 14/09 A3016 RMK AO2 SLP214 T01390094 10194 20139 53006=
202107220453 METAR KPAE 220453Z AUTO 01006KT 10SM OVC050 14/09 A3015 RMK AO2 SLP211 T01440094=
202107220353 METAR KPAE 220353Z AUTO 35005KT 10SM OVC050 16/09 A3014 RMK AO2 SLP206 T01560089=
202107220253 METAR KPAE 220253Z 35007KT 10SM OVC055 16/09 A3014 RMK AO2 SLP206 T01610094 56006=
202107220153 METAR KPAE 220153Z 34005KT 10SM BKN060 17/09 A3015 RMK AO2 SLP208 T01670089=
202107220053 METAR KPAE 220053Z 34006KT 10SM BKN065 18/09 A3015 RMK AO2 SLP210 T01830094=
202107212353 METAR KPAE 212353Z 33007KT 10SM CLR 18/09 A3016 RMK AO2 SLP213 T01830094 10189 20139 58005=
202107212253 METAR KPAE 212253Z VRB05KT 10SM CLR 18/09 A3017 RMK AO2 SLP217 T01830089=
202107212211 SPECI KPAE 212211Z VRB04KT 10SM FEW029 18/10 A3018 RMK AO2 T01830100=
202107212153 METAR KPAE 212153Z VRB04KT 10SM BKN028 BKN055 18/10 A3018 RMK AO2 SLP218 T01780100=
202107212151 SPECI KPAE 212151Z VRB04KT 10SM BKN028 BKN040 BKN055 18/10 A3018 RMK AO2=
202107212058 SPECI KPAE 212058Z 34004KT 10SM SCT009 BKN013 BKN021 16/11 A3018 RMK AO2 T01560111=
202107212053 METAR KPAE 212053Z 35004KT 10SM BKN013 BKN021 OVC036 15/11 A3019 RMK AO2 SLP222 T01500111 51004=
202107211953 METAR KPAE 211953Z 33004KT 10SM SCT009 BKN013 OVC036 14/12 A3018 RMK AO2 SLP221 T01440117=
202107211930 SPECI KPAE 211930Z 30004KT 10SM OVC014 14/11 A3018 RMK AO2 T01440111=
202107211853 METAR KPAE 211853Z 00000KT 10SM OVC015 14/11 A3018 RMK AO2 SLP220 T01440111=
202107211753 METAR KPAE 211753Z 29005KT 10SM OVC017 14/11 A3017 RMK AO2 SLP218 T01390106 10150 20133 51010=
202107211653 METAR KPAE 211653Z 04004KT 10SM OVC018 14/10 A3017 RMK AO2 SLP216 T01440100=
202107211553 METAR KPAE 211553Z 04003KT 10SM OVC015 14/10 A3016 RMK AO2 SLP212 T01390100=
202107211453 METAR KPAE 211453Z 00000KT 10SM FEW018 BKN023 OVC035 14/10 A3014 RMK AO2 SLP206 T01390100 53006=
202107211353 METAR KPAE 211353Z 03004KT 10SM OVC034 14/10 A3013 RMK AO2 SLP203 T01390100=
202107211253 METAR KPAE 211253Z 03005KT 10SM OVC032 14/10 A3013 RMK AO2 SLP202 T01390100=
202107211153 METAR KPAE 211153Z 01005KT 10SM OVC032 14/09 A3013 RMK AO2 SLP200 70001 T01390089 10139 20133 53006=
202107211053 METAR KPAE 211053Z 36006KT 10SM OVC031 14/09 A3012 RMK AO2 SLP198 T01390089=
202107210953 METAR KPAE 210953Z 36008KT 10SM OVC030 14/09 A3011 RMK AO2 SLP194 T01390089=
202107210853 METAR KPAE 210853Z VRB06KT 10SM BKN030 OVC046 14/09 A3011 RMK AO2 SLP194 T01390094 53001=
202107210753 METAR KPAE 210753Z 36008KT 10SM OVC033 14/10 A3010 RMK AO2 SLP192 T01390100 402000133=
202107210653 METAR KPAE 210653Z 36007G15KT 10SM OVC034 14/10 A3010 RMK AO2 SLP194 T01390100=
202107210553 METAR KPAE 210553Z 01007KT 10SM BKN036 13/11 A3011 RMK AO2 SLP194 T01330106 10200 20133 56001=
202107210453 METAR KPAE 210453Z 01008KT 10SM CLR 13/11 A3011 RMK AO2 SLP195 T01330106=
202107210353 METAR KPAE 210353Z 36006KT 10SM CLR 14/11 A3010 RMK AO2 SLP193 T01440106=
202107210253 METAR KPAE 210253Z 36009KT 10SM OVC031 17/10 A3011 RMK AO2 SLP194 T01670100 56014=
202107210153 METAR KPAE 210153Z 35006KT 10SM OVC031 18/10 A3012 RMK AO2 SLP198 T01780100=
202107210130 SPECI KPAE 210130Z 35006KT 10SM OVC031 18/11 A3013 RMK AO2 T01830106=
202107210120 SPECI KPAE 210120Z 36007KT 10SM OVC029 18/11 A3013 RMK AO2 T01830106=
202107210053 METAR KPAE 210053Z 28006KT 10SM OVC034 19/12 A3014 RMK AO2 SLP204 T01890122=
202107210001 SPECI KPAE 210001Z 18003KT 10SM OVC033 19/11 A3015 RMK AO2 T01890111=
202107202353 METAR KPAE 202353Z 00000KT 10SM OVC029 18/12 A3015 RMK AO2 SLP208 60001 T01830117 10183 20139 58014=
202107202253 METAR KPAE 202253Z 22005KT 10SM SCT014 OVC029 18/13 A3016 RMK AO2 SLP214 T01780128=
202107202246 SPECI KPAE 202246Z 24005KT 10SM OVC029 18/13 A3017 RMK AO2 T01780128=
202107202233 SPECI KPAE 202233Z 24005KT 10SM FEW016 OVC031 17/13 A3017 RMK AO2 T01720128=
202107202153 METAR KPAE 202153Z 28004KT 10SM BKN018 BKN022 OVC035 17/13 A3018 RMK AO2 SLP218 T01720128=
202107202053 METAR KPAE 202053Z 22004KT 10SM OVC018 16/13 A3019 RMK AO2 SLP222 60001 T01560128 58001=
202107201953 METAR KPAE 201953Z 27005KT 3SM BR BKN008 OVC011 16/13 A3020 RMK AO2 SLP224 T01560133=
202107201900 SPECI KPAE 201900Z 30003KT 4SM BR BKN008 OVC012 14/13 A3020 RMK AO2 CIG 005V010 T01440133=
202107201853 METAR KPAE 201853Z 29005KT 1 1/2SM BR BKN006 OVC010 14/13 A3020 RMK AO2 RAB39E50 SLP226 P0001 T01440128=
202107201829 SPECI KPAE 201829Z 32005KT 1 1/2SM BR OVC005 14/13 A3020 RMK AO2 T01440133=
202107201753 METAR KPAE 201753Z 36006KT 1 1/2SM BR OVC003 14/13 A3019 RMK AO2 SLP225 60000 T01390133 10150 20133 50003=
202107201653 METAR KPAE 201653Z 36006KT 1/2SM R16R/P6000FT FG OVC002 14/13 A3020 RMK AO2 RAB1555E08 SLP225 P0000 T01390133=
202107201643 SPECI KPAE 201643Z 36006KT 1/2SM R16R/P6000FT FG OVC002 13/13 A3020 RMK AO2 RAB1555E08 P0000 T01330133=
202107201559 SPECI KPAE 201559Z 35005KT 1/4SM R16R/1200V2200FT -RA FG VV001 14/13 A3019 RMK AO2 RAB55 P0000 T01390133=
202107201556 SPECI KPAE 201556Z 35006KT 1/2SM R16R/1200V2200FT -RA FG VV001 14/13 A3019 RMK AO2 RAB55 P0000 T01390133=
202107201553 METAR KPAE 201553Z 35005KT 1/2SM R16R/1000V3500FT FG OVC002 14/13 A3019 RMK AO2 RAB1455E06 SLP223 P0000 T01390133=
202107201527 SPECI KPAE 201527Z 02005KT 2SM BR BKN002 OVC008 14/13 A3019 RMK AO2 RAB1455E06 P0000 T01440133=
202107201517 SPECI KPAE 201517Z 36003KT 3SM BR OVC008 14/14 A3019 RMK AO2 RAB1455E06 P0000 T01440139=
202107201500 SPECI KPAE 201500Z 02005KT 2SM -RA BR FEW008 OVC012 14/13 A3019 RMK AO2 RAB1455 P0000 T01440133=
202107201453 METAR KPAE 201453Z 02005KT 2 1/2SM BR OVC008 14/13 A3019 RMK AO2 SLP221 T01440133 53009=
202107201449 SPECI KPAE 201449Z 3SM BR BKN008 OVC013 14/13 A3019 RMK AO2=
202107201442 SPECI KPAE 201442Z 2 1/2SM BR FEW008 OVC013 14/13 A3019 RMK AO2 T01440133=
202107201353 METAR KPAE 201353Z 05004KT 10SM OVC013 15/12 A3018 RMK AO2 SLP216 T01500122=
202107201324 SPECI KPAE 201324Z AUTO 06005KT 10SM OVC014 14/12 A3017 RMK AO2 T01440122=
202107201253 METAR KPAE 201253Z AUTO 02005KT 10SM FEW009 OVC017 14/13 A3016 RMK AO2 SLP212 T01440128=
202107201211 SPECI KPAE 201211Z AUTO VRB04KT 10SM SCT008 BKN023 OVC035 14/13 A3016 RMK AO2 T01440128=
202107201153 METAR KPAE 201153Z AUTO 05005KT 10SM BKN008 OVC035 14/12 A3016 RMK AO2 SLP211 T01440122 10150 20139 51004=
202107201053 METAR KPAE 201053Z AUTO 10SM OVC008 14/13 A3016 RMK AO2 SLP210 T01440128=
202107201020 SPECI KPAE 201020Z AUTO 06003KT 10SM BKN007 14/13 A3015 RMK AO2 T01440128=
202107201009 SPECI KPAE 201009Z AUTO 04005KT 10SM SCT007 14/13 A3015 RMK AO2 T01390128=
202107200953 METAR KPAE 200953Z AUTO 05004KT 10SM CLR 14/13 A3015 RMK AO2 SLP206 T01390128=
202107200923 SPECI KPAE 200923Z AUTO 05005KT 10SM FEW005 14/13 A3015 RMK AO2 T01390128=
202107200853 METAR KPAE 200853Z AUTO 02004KT 10SM CLR 14/13 A3015 RMK AO2 SLP206 T01390128 53009=
202107200753 METAR KPAE 200753Z AUTO 02005KT 10SM CLR 14/13 A3013 RMK AO2 SLP202 T01390128 402390133=
202107200731 SPECI KPAE 200731Z AUTO 36005KT 10SM FEW005 14/13 A3013 RMK AO2 T01390128=
202107200653 METAR KPAE 200653Z AUTO 36008KT 10SM CLR 14/13 A3012 RMK AO2 SLP199 T01440128=
202107200553 METAR KPAE 200553Z AUTO 36010KT 10SM CLR 15/12 A3012 RMK AO2 SLP196 T01500122 10228 20150 51006=
202107200453 METAR KPAE 200453Z AUTO 36008G17KT 10SM CLR 16/11 A3012 RMK AO2 SLP196 T01560106=
202107200353 METAR KPAE 200353Z 36008G15KT 10SM CLR 16/08 A3011 RMK AO2 SLP194 T01610083=
202107200253 METAR KPAE 200253Z 36010KT 10SM CLR 18/09 A3010 RMK AO2 SLP191 T01780089 55000=
202107200153 METAR KPAE 200153Z 35008KT 10SM CLR 20/09 A3010 RMK AO2 SLP189 T02000089=
202107200053 METAR KPAE 200053Z 35009G16KT 10SM CLR 22/08 A3010 RMK AO2 SLP189 T02220083=
202107192353 METAR KPAE 192353Z 35010KT 10SM CLR 23/09 A3010 RMK AO2 SLP191 T02280094 10239 20206 57007=
202107192253 METAR KPAE 192253Z 35008KT 10SM CLR 23/09 A3011 RMK AO2 SLP193 T02280089=
202107192153 METAR KPAE 192153Z 33005KT 10SM CLR 23/10 A3011 RMK AO2 SLP195 T02330100=
202107192053 METAR KPAE 192053Z 30007KT 10SM CLR 23/10 A3012 RMK AO2 SLP197 T02330100 56007=
202107191953 METAR KPAE 191953Z 26006KT 10SM CLR 23/10 A3012 RMK AO2 SLP199 T02280100=
202107191853 METAR KPAE 191853Z 28005KT 10SM CLR 21/09 A3013 RMK AO2 SLP201 T02110094=
202107191753 METAR KPAE 191753Z VRB04KT 10SM CLR 20/11 A3014 RMK AO2 SLP206 T02000106 10206 20139 58001=
202107191653 METAR KPAE 191653Z 26006KT 10SM CLR 19/10 A3015 RMK AO2 SLP207 T01940100=
202107191553 METAR KPAE 191553Z 01004KT 10SM CLR 18/10 A3015 RMK AO2 SLP207 T01830100=
202107191453 METAR KPAE 191453Z VRB03KT 10SM CLR 17/09 A3015 RMK AO2 SLP206 T01670094 53004=
202107191353 METAR KPAE 191353Z 03004KT 10SM CLR 15/08 A3014 RMK AO2 SLP204 T01500083=
202107191253 METAR KPAE 191253Z AUTO 05004KT 10SM CLR 14/08 A3013 RMK AO2 SLP202 T01390083=
202107191153 METAR KPAE 191153Z AUTO 04003KT 10SM CLR 14/08 A3013 RMK AO2 SLP202 T01390083 10144 20133 53005=
202107191053 METAR KPAE 191053Z AUTO 00000KT 10SM CLR 14/09 A3012 RMK AO2 SLP199 T01390089=
202107190953 METAR KPAE 190953Z AUTO 05003KT 10SM CLR 14/09 A3012 RMK AO2 SLP197 T01440089=
202107190853 METAR KPAE 190853Z AUTO 02004KT 10SM CLR 14/09 A3012 RMK AO2 SLP197 T01390094 56001=
202107190753 METAR KPAE 190753Z AUTO 35007KT 10SM CLR 14/09 A3012 RMK AO2 SLP197 T01440089 402330122=
202107190653 METAR KPAE 190653Z AUTO 36009KT 10SM CLR 14/09 A3012 RMK AO2 SLP197 T01440094=
202107190553 METAR KPAE 190553Z AUTO 36005KT 10SM CLR 14/10 A3012 RMK AO2 SLP199 T01440100 10222 20144 53004=
202107190453 METAR KPAE 190453Z AUTO 35004KT 10SM CLR 15/10 A3012 RMK AO2 SLP197 T01500100=
202107190353 METAR KPAE 190353Z VRB03KT 10SM CLR 17/09 A3011 RMK AO2 SLP194 T01670094=
202107190253 METAR KPAE 190253Z 10SM CLR 18/10 A3011 RMK AO2 SLP195 T01830100 56005=
202107190153 METAR KPAE 190153Z 34006KT 10SM CLR 21/11 A3011 RMK AO2 SLP195 T02060111=
202107190053 METAR KPAE 190053Z 36008KT 10SM CLR 22/11 A3012 RMK AO2 SLP197 T02170106=
202107182353 METAR KPAE 182353Z 35008KT 10SM CLR 22/11 A3013 RMK AO2 SLP201 T02170106 10233 20183 58011=
202107182253 METAR KPAE 182253Z 35007KT 10SM CLR 22/11 A3014 RMK AO2 SLP204 T02170111=
202107182153 METAR KPAE 182153Z 32007KT 10SM CLR 23/11 A3015 RMK AO2 SLP209 T02280111=
202107182053 METAR KPAE 182053Z 36006KT 10SM CLR 22/11 A3016 RMK AO2 SLP211 T02170111 58007=
202107181953 METAR KPAE 181953Z VRB04KT 10SM CLR 21/11 A3018 RMK AO2 SLP217 T02110111=
202107181853 METAR KPAE 181853Z VRB04KT 10SM CLR 20/11 A3018 RMK AO2 SLP220 T02000106=
202107181753 METAR KPAE 181753Z 28006KT 10SM CLR 19/11 A3018 RMK AO2 SLP219 T01890111 10189 20122 50003=
202107181653 METAR KPAE 181653Z 00000KT 10SM CLR 18/11 A3018 RMK AO2 SLP220 T01780106=
202107181553 METAR KPAE 181553Z 06004KT 10SM FEW041 16/10 A3018 RMK AO2 SLP219 T01610100=
202107181453 METAR KPAE 181453Z 36003KT 10SM FEW045 16/10 A3017 RMK AO2 SLP216 T01560100 53006=
202107181353 METAR KPAE 181353Z 00000KT 10SM BKN045 14/09 A3017 RMK AO2 SLP215 T01440094=
202107181253 METAR KPAE 181253Z 04004KT 10SM BKN048 13/09 A3016 RMK AO2 SLP210 T01330094=
202107181153 METAR KPAE 181153Z 00000KT 10SM CLR 13/09 A3015 RMK AO2 SLP210 T01280094 10139 20122 51005=
202107181053 METAR KPAE 181053Z 03003KT 10SM FEW055 13/09 A3015 RMK AO2 SLP209 T01330094=
202107180953 METAR KPAE 180953Z 02004KT 10SM SCT060 13/09 A3015 RMK AO2 SLP208 T01330094=
202107180853 METAR KPAE 180853Z 01005KT 10SM CLR 13/09 A3014 RMK AO2 SLP205 T01330094 53008=
202107180753 METAR KPAE 180753Z 35006KT 10SM FEW055 14/09 A3013 RMK AO2 SLP201 T01390094 402060122=
202107180653 METAR KPAE 180653Z 36007KT 10SM CLR 14/10 A3012 RMK AO2 SLP198 T01390100=
202107180553 METAR KPAE 180553Z 36006KT 10SM CLR 14/11 A3012 RMK AO2 SLP197 T01390106 10200 20139 51008=
202107180453 METAR KPAE 180453Z 36005KT 10SM CLR 14/10 A3011 RMK AO2 SLP196 T01440100=
202107180353 METAR KPAE 180353Z 35005KT 10SM CLR 15/10 A3010 RMK AO2 SLP192 T01500100=
202107180253 METAR KPAE 180253Z 35006KT 10SM CLR 17/11 A3009 RMK AO2 SLP189 T01720106 55001=
202107180153 METAR KPAE 180153Z 35009G16KT 10SM CLR 18/11 A3008 RMK AO2 SLP186 T01830106=
202107180053 METAR KPAE 180053Z 35009KT 10SM CLR 19/11 A3009 RMK AO2 SLP187 T01940106=
202107172353 METAR KPAE 172353Z 34009KT 10SM CLR 19/11 A3009 RMK AO2 SLP189 T01940106 10206 20167 56010=
202107172253 METAR KPAE 172253Z 35008KT 10SM CLR 19/11 A3010 RMK AO2 SLP192 T01940111=
202107172153 METAR KPAE 172153Z 36008KT 10SM CLR 19/12 A3011 RMK AO2 SLP196 T01940117=
202107172053 METAR KPAE 172053Z VRB05KT 10SM SCT030 19/12 A3012 RMK AO2 SLP199 T01940117 53003=
202107171953 METAR KPAE 171953Z 29006KT 10SM CLR 20/12 A3012 RMK AO2 SLP197 T02000122=
202107171853 METAR KPAE 171853Z 25009KT 10SM FEW030 18/12 A3012 RMK AO2 SLP197 T01830122=
202107171824 SPECI KPAE 171824Z 24009KT 10SM SCT029 18/12 A3012 RMK AO2 T01780122=
202107171753 METAR KPAE 171753Z 23008KT 10SM BKN028 17/12 A3011 RMK AO2 SLP196 T01720122 10172 20122 52004=
202107171653 METAR KPAE 171653Z 26004KT 10SM BKN016 OVC060 16/12 A3011 RMK AO2 SLP195 T01610122=
202107171637 SPECI KPAE 171637Z 26004KT 10SM BKN016 OVC060 16/12 A3011 RMK AO2 T01560122=
202107171553 METAR KPAE 171553Z 00000KT 10SM FEW015 OVC065 15/12 A3011 RMK AO2 SLP194 T01500117=
202107171453 METAR KPAE 171453Z 20005KT 10SM OVC060 14/12 A3010 RMK AO2 SLP192 T01440117 53012=
202107171353 METAR KPAE 171353Z 18005KT 10SM OVC060 14/12 A3009 RMK AO2 SLP189 T01390117=
202107171253 METAR KPAE 171253Z AUTO 19005KT 10SM SCT032 13/11 A3007 RMK AO2 SLP183 T01280111=
202107171153 METAR KPAE 171153Z AUTO 20003KT 10SM OVC060 13/11 A3007 RMK AO2 SLP180 T01330111 10144 20122 51005=
202107171053 METAR KPAE 171053Z AUTO 00000KT 10SM CLR 13/11 A3006 RMK AO2 SLP179 T01280111=
202107170953 METAR KPAE 170953Z AUTO 00000KT 10SM CLR 13/11 A3006 RMK AO2 SLP177 T01280111=
202107170853 METAR KPAE 170853Z AUTO 00000KT 10SM CLR 13/11 A3005 RMK AO2 SLP175 T01330111 54000=
202107170753 METAR KPAE 170753Z AUTO 35003KT 10SM SCT090 13/11 A3005 RMK AO2 SLP175 T01330111 402000122=
202107170653 METAR KPAE 170653Z AUTO 01003KT 10SM BKN090 14/12 A3005 RMK AO2 SLP174 T01440117=
202107170553 METAR KPAE 170553Z AUTO 36004KT 10SM BKN055 OVC090 14/12 A3005 RMK AO2 SLP176 T01440117 10194 20144 51002=
202107170453 METAR KPAE 170453Z AUTO 10SM OVC055 15/12 A3005 RMK AO2 SLP174 T01500117=
202107170353 METAR KPAE 170353Z 02006KT 10SM BKN039 OVC055 16/12 A3004 RMK AO2 SLP173 T01560122=
202107170253 METAR KPAE 170253Z 34004KT 10SM SCT029 OVC041 17/13 A3004 RMK AO2 SLP172 T01720128 55004=
202107170244 SPECI KPAE 170244Z 34003KT 10SM BKN029 OVC039 17/13 A3004 RMK AO2 T01720128=
202107170234 SPECI KPAE 170234Z 27005KT 10SM OVC030 19/12 A3004 RMK AO2 T01890122=
202107170222 SPECI KPAE 170222Z VRB03KT 10SM BKN029 OVC038 19/12 A3004 RMK AO2 T01890122=
202107170153 METAR KPAE 170153Z VRB04KT 10SM BKN045 OVC055 19/12 A3004 RMK AO2 SLP170 T01890117=
202107170053 METAR KPAE 170053Z 15004KT 10SM BKN033 OVC045 18/12 A3004 RMK AO2 SLP173 T01830117=
202107162353 METAR KPAE 162353Z 16009KT 10SM SCT029 BKN038 OVC055 19/12 A3005 RMK AO2 SLP176 T01940117 10200 20144 56008=
202107162300 SPECI KPAE 162300Z 27005KT 10SM SCT030 SCT042 OVC050 18/12 A3006 RMK AO2 T01780117=
202107162253 METAR KPAE 162253Z 26006KT 10SM BKN026 BKN035 OVC055 18/12 A3006 RMK AO2 SLP177 T01830117=
202107162153 METAR KPAE 162153Z 17005KT 10SM BKN026 OVC055 18/12 A3007 RMK AO2 SLP181 T01830117=
202107162053 METAR KPAE 162053Z 17006KT 10SM OVC021 17/12 A3008 RMK AO2 SLP184 T01670117 50001=
202107161958 SPECI KPAE 161958Z 19009KT 10SM OVC018 17/11 A3008 RMK AO2 T01670111=
202107161953 METAR KPAE 161953Z 19010KT 10SM OVC014 17/11 A3008 RMK AO2 SLP185 T01670111=
202107161853 METAR KPAE 161853Z 15010KT 10SM SCT007 OVC010 15/12 A3008 RMK AO2 SLP186 T01500117=
202107161753 METAR KPAE 161753Z 15008KT 10SM SCT007 OVC010 14/12 A3008 RMK AO2 SLP184 T01440117 10150 20128 50004=
202107161700 SPECI KPAE 161700Z 18008KT 10SM OVC010 14/12 A3008 RMK AO2 T01440117=
202107161653 METAR KPAE 161653Z 16007KT 10SM FEW012 OVC031 14/12 A3008 RMK AO2 SLP185 T01440117=
202107161553 METAR KPAE 161553Z 19009KT 10SM FEW012 BKN031 OVC044 14/11 A3007 RMK AO2 SLP180 T01440111=
202107161543 SPECI KPAE 161543Z 19010KT 10SM SCT012 BKN031 OVC044 14/11 A3006 RMK AO2 T01440111=
202107161453 METAR KPAE 161453Z 19008KT 10SM OVC010 14/12 A3006 RMK AO2 SLP179 T01440117 52004=
202107161353 METAR KPAE 161353Z 23004KT 10SM OVC010 13/12 A3006 RMK AO2 SLP176 T01330117=
202107161349 SPECI KPAE 161349Z 24004KT 10SM OVC010 13/12 A3005 RMK AO2=
202107161253 METAR KPAE 161253Z AUTO 20006KT 10SM OVC008 13/12 A3005 RMK AO2 SLP174 T01330117=
202107161153 METAR KPAE 161153Z AUTO 00000KT 10SM OVC009 13/12 A3004 RMK AO2 CIG 006V012 SLP171 T01280117 10133 20122 53002=
202107161123 SPECI KPAE 161123Z AUTO 00000KT 10SM SCT007 OVC014 13/12 A3003 RMK AO2 T01280117=
202107161053 METAR KPAE 161053Z AUTO 00000KT 10SM BKN007 BKN015 OVC036 13/12 A3003 RMK AO2 SLP169 T01280117=
202107161045 SPECI KPAE 161045Z AUTO 00000KT 10SM BKN007 BKN015 OVC060 13/12 A3003 RMK AO2 T01280117=
202107161000 SPECI KPAE 161000Z AUTO 07003KT 10SM SCT004 BKN036 OVC060 13/12 A3003 RMK AO2 T01280117=
202107160953 METAR KPAE 160953Z AUTO 00000KT 10SM BKN004 BKN035 OVC060 13/12 A3003 RMK AO2 SLP168 T01280117=
202107160853 METAR KPAE 160853Z AUTO 36005KT 10SM BKN004 13/12 A3003 RMK AO2 SLP169 T01280117 53001=
202107160846 SPECI KPAE 160846Z AUTO 01005KT 10SM SCT004 13/12 A3003 RMK AO2 T01280117=
202107160753 METAR KPAE 160753Z AUTO 01007KT 10SM FEW033 BKN060 13/12 A3003 RMK AO2 SLP168 T01330117 401940117=
202107160653 METAR KPAE 160653Z AUTO 01005KT 10SM FEW029 13/12 A3003 RMK AO2 SLP167 T01330117=
202107160553 METAR KPAE 160553Z AUTO 02005KT 10SM CLR 13/12 A3003 RMK AO2 SLP168 T01330117 10194 20133 58000=
202107160453 METAR KPAE 160453Z AUTO 36007KT 10SM CLR 14/12 A3003 RMK AO2 SLP170 T01390117=
202107160353 METAR KPAE 160353Z AUTO 01007KT 10SM CLR 16/11 A3003 RMK AO2 SLP169 T01560111=
202107160253 METAR KPAE 160253Z 01003KT 10SM CLR 18/12 A3003 RMK AO2 SLP168 T01780122 56009=
202107160153 METAR KPAE 160153Z 35004KT 10SM CLR 18/12 A3003 RMK AO2 SLP168 T01780122=
202107160053 METAR KPAE 160053Z 29004KT 10SM CLR 18/12 A3004 RMK AO2 SLP172 T01780122=
202107152353 METAR KPAE 152353Z 25007KT 10SM SCT030 19/12 A3006 RMK AO2 SLP177 T01890117 10194 20144 58006=
202107152253 METAR KPAE 152253Z 23008G16KT 10SM SCT028 19/12 A3007 RMK AO2 SLP181 T01890117=
202107152229 SPECI KPAE 152229Z 23008KT 10SM BKN030 18/11 A3007 RMK AO2 T01830111=
202107152153 METAR KPAE 152153Z 23009KT 10SM CLR 18/11 A3007 RMK AO2 SLP181 T01830111=
202107152100 SPECI KPAE 152100Z 25011KT 10SM FEW019 17/11 A3007 RMK AO2 T01720111=
202107152053 METAR KPAE 152053Z 23009G15KT 10SM OVC014 17/11 A3007 RMK AO2 SLP183 T01720111 50000=
202107151953 METAR KPAE 151953Z 25008KT 10SM OVC014 16/11 A3008 RMK AO2 SLP185 T01560111=
202107151853 METAR KPAE 151853Z 23008KT 10SM OVC014 14/12 A3008 RMK AO2 SLP186 T01440117=
202107151753 METAR KPAE 151753Z 22006KT 10SM OVC011 15/12 A3008 RMK AO2 SLP184 T01500117 10150 20128 53000=
202107151653 METAR KPAE 151653Z 25005KT 9SM OVC006 13/12 A3007 RMK AO2 CIG 004V009 SLP183 T01330117=
202107151605 SPECI KPAE 151605Z 22005KT 3SM BR OVC005 13/12 A3008 RMK AO2 T01280117=
202107151553 METAR KPAE 151553Z 21004KT 2 1/2SM BR OVC005 13/12 A3007 RMK AO2 SLP184 T01280117=
202107151453 METAR KPAE 151453Z 23004KT 10SM OVC005 13/11 A3006 RMK AO2 SLP179 T01280111 53013=
202107151353 METAR KPAE 151353Z 22006KT 10SM OVC005 13/11 A3004 RMK AO2 SLP173 T01280111=
202107151253 METAR KPAE 151253Z AUTO 22005KT 10SM OVC006 13/11 A3003 RMK AO2 SLP169 T01280111=
202107151153 METAR KPAE 151153Z AUTO 20006KT 10SM OVC006 13/12 A3003 RMK AO2 SLP165 T01280117 10133 20117 53005=
202107151053 METAR KPAE 151053Z AUTO 23004KT 10SM OVC007 13/12 A3002 RMK AO2 SLP163 T01280117=
202107151014 SPECI KPAE 151014Z AUTO 24006KT 10SM OVC009 13/12 A3002 RMK AO2 T01280117=
202107150953 METAR KPAE 150953Z AUTO 21007KT 10SM OVC011 13/12 A3001 RMK AO2 SLP162 T01330117=
202107150944 SPECI KPAE 150944Z AUTO 21004KT 10SM BKN011 13/12 A3001 RMK AO2 T01280117=
202107150853 METAR KPAE 150853Z AUTO 00000KT 10SM FEW005 12/12 A3001 RMK AO2 SLP161 T01220117 52004=
202107150753 METAR KPAE 150753Z AUTO 35004KT 10SM SCT003 13/12 A3001 RMK AO2 SLP160 T01280117 402220117=
202107150741 SPECI KPAE 150741Z AUTO 01005KT 10SM FEW003 13/12 A3000 RMK AO2 T01280117=
202107150653 METAR KPAE 150653Z AUTO 01005KT 10SM CLR 13/12 A3000 RMK AO2 SLP159 T01280117=
202107150553 METAR KPAE 150553Z AUTO 35005KT 10SM CLR 13/12 A3000 RMK AO2 SLP158 T01330117 10222 20133 53007=
202107150453 METAR KPAE 150453Z 36007KT 10SM CLR 14/12 A2999 RMK AO2 SLP155 T01390117=
202107150353 METAR KPAE 150353Z 01007KT 10SM CLR 16/12 A2998 RMK AO2 SLP150 T01610117=
202107150253 METAR KPAE 150253Z 35005KT 10SM CLR 18/12 A2998 RMK AO2 SLP149 T01780122 56010=
202107150153 METAR KPAE 150153Z 34006KT 10SM CLR 19/13 A2998 RMK AO2 SLP151 T01890128=
202107150053 METAR KPAE 150053Z 01005KT 10SM CLR 21/13 A2999 RMK AO2 SLP156 T02060133=
202107142353 METAR KPAE 142353Z 31004KT 10SM CLR 22/13 A3001 RMK AO2 SLP160 T02220133 10222 20150 58011=
202107142253 METAR KPAE 142253Z 28006KT 10SM CLR 22/13 A3002 RMK AO2 SLP164 T02170128=
202107142153 METAR KPAE 142153Z 26008KT 10SM CLR 21/12 A3003 RMK AO2 SLP167 T02060122=
202107142053 METAR KPAE 142053Z 25007KT 10SM CLR 19/13 A3004 RMK AO2 SLP171 T01890128 58008=
202107141953 METAR KPAE 141953Z 25009KT 10SM CLR 18/13 A3005 RMK AO2 SLP174 T01780128=
202107141853 METAR KPAE 141853Z 25010KT 10SM SCT005 16/12 A3006 RMK AO2 SLP176 T01610122=
202107141753 METAR KPAE 141753Z 28006KT 10SM OVC008 15/12 A3006 RMK AO2 CIG 006V009 SLP179 T01500122 10161 20117 58001=
202107141653 METAR KPAE 141653Z 28005KT 10SM OVC009 15/12 A3007 RMK AO2 SLP180 T01500122=
202107141600 SPECI KPAE 141600Z 00000KT 10SM OVC008 15/12 A3007 RMK AO2 CIG 004V011 T01500117=
202107141553 METAR KPAE 141553Z 00000KT 2SM HZ OVC008 15/12 A3007 RMK AO2 CIG 004V010 SLP180 T01500117=
202107141453 METAR KPAE 141453Z 00000KT 2SM BR OVC002 13/12 A3007 RMK AO2 SLP180 T01280117 53005=
202107141413 SPECI KPAE 141413Z 01003KT 1SM R16R/4000VP6000FT BR OVC002 12/12 A3006 RMK AO2 T01220117=
202107141353 METAR KPAE 141353Z 02005KT 1 3/4SM R16R/2200V6000FT BR OVC001 12/12 A3006 RMK AO2 VIS 1V4 SLP177 T01220117=
202107141351 SPECI KPAE 141351Z 02004KT 2 1/2SM R16R/2200V5500FT BR OVC001 12/12 A3006 RMK AO2 VIS 1V4=
202107141332 SPECI KPAE 141332Z AUTO 35003KT 3SM R16R/1800V4000FT BR OVC001 12/12 A3005 RMK AO2 T01220117=
202107141321 SPECI KPAE 141321Z AUTO 36005KT 1 3/4SM R16R/1600VP6000FT BR OVC001 12/12 A3005 RMK AO2 T01220117=
202107141311 SPECI KPAE 141311Z AUTO 35005KT 4SM R16R/1400V3500FT BR OVC001 12/12 A3005 RMK AO2 T01220117=
202107141304 SPECI KPAE 141304Z AUTO 34005KT 2 1/2SM R16R/1600V6000FT BR OVC001 12/12 A3005 RMK AO2 VIS 1 1/4V5 T01220117=
202107141253 METAR KPAE 141253Z AUTO 36005KT 4SM R16R/2800VP6000FT BR OVC002 12/12 A3005 RMK AO2 SLP175 T01220117=
202107141153 METAR KPAE 141153Z AUTO 01007KT 10SM OVC002 12/12 A3004 RMK AO2 SLP171 T01220117 10150 20122 53004=
202107141053 METAR KPAE 141053Z AUTO 02008KT 10SM OVC004 12/11 A3003 RMK AO2 SLP168 T01220111=
202107141042 SPECI KPAE 141042Z AUTO 01008KT 10SM BKN005 12/11 A3003 RMK AO2 T01220111=
202107141033 SPECI KPAE 141033Z AUTO 02008KT 10SM SCT005 12/11 A3003 RMK AO2 T01220111=
202107140953 METAR KPAE 140953Z AUTO 01007KT 10SM CLR 13/11 A3003 RMK AO2 SLP168 T01330111=
202107140853 METAR KPAE 140853Z AUTO 02006KT 10SM CLR 13/11 A3003 RMK AO2 SLP168 T01330111 52002=
202107140753 METAR KPAE 140753Z AUTO 03007KT 10SM CLR 14/11 A3003 RMK AO2 SLP167 T01440106 402500122=
202107140653 METAR KPAE 140653Z AUTO 03005KT 10SM CLR 14/11 A3003 RMK AO2 SLP168 T01440111=
202107140553 METAR KPAE 140553Z AUTO 02006KT 10SM CLR 15/12 A3003 RMK AO2 SLP167 T01500117 10244 20144 53004=
202107140453 METAR KPAE 140453Z AUTO 03005KT 10SM CLR 15/12 A3003 RMK AO2 SLP166 T01500117=
202107140353 METAR KPAE 140353Z AUTO 02006KT 10SM CLR 17/12 A3001 RMK AO2 SLP162 T01670117=
202107140253 METAR KPAE 140253Z 02008KT 10SM CLR 19/12 A3001 RMK AO2 SLP162 T01890122 56008=
202107140153 METAR KPAE 140153Z VRB05KT 10SM CLR 21/13 A3002 RMK AO2 SLP164 T02060128=
202107140053 METAR KPAE 140053Z 35007KT 10SM CLR 22/13 A3003 RMK AO2 SLP168 T02170128=
202107132353 METAR KPAE 132353Z 36007KT 10SM CLR 24/13 A3004 RMK AO2 SLP169 T02440133 10250 20172 58012=
202107132253 METAR KPAE 132253Z 27007KT 10SM CLR 24/12 A3005 RMK AO2 SLP175 T02440122=
202107132153 METAR KPAE 132153Z 25006KT 10SM CLR 24/12 A3006 RMK AO2 SLP179 T02390122=
202107132053 METAR KPAE 132053Z 27008KT 10SM CLR 23/13 A3007 RMK AO2 SLP181 T02280133 58007=
202107131953 METAR KPAE 131953Z 20006KT 10SM 21/13 A3008 RMK AO2 SLP184 T02110133=
202107131856 SPECI KPAE 131856Z 20006KT 10SM CLR 20/13 A3009 RMK AO2 T02000133 $=
202107131854 SPECI KPAE 131854Z 10SM CLR 20/13 A3009 RMK AO2 T02000133 $=
202107131853 METAR KPAE 131853Z 10SM CLR 20/13 A3009 RMK AO2 SLP186 T02000133 $=
202107131753 METAR KPAE 131753Z 25006KT 10SM CLR 18/13 A3009 RMK AO2 SLP190 T01780128 10178 20122 58004 $=
202107131653 METAR KPAE 131653Z 24005KT 5SM HZ CLR 16/13 A3010 RMK AO2 SLP193 T01560128 $=
202107131553 METAR KPAE 131553Z 25004KT CLR 16/13 A3011 RMK AO2 SLP193 T01560128 $=
202107131453 METAR KPAE 131453Z 25003KT 10SM CLR 15/13 A3011 RMK AO2 SLP193 T01500128 53005 $=
202107131353 METAR KPAE 131353Z 00000KT 10SM CLR 13/12 A3010 RMK AO2 SLP191 T01330117=
202107131253 METAR KPAE 131253Z AUTO 00000KT 10SM CLR 12/12 A3010 RMK AO2 SLP189 T01220117=
202107131153 METAR KPAE 131153Z AUTO 36003KT 10SM CLR 13/12 A3009 RMK AO2 SLP187 T01280117 10183 20122 53009=
202107131053 METAR KPAE 131053Z AUTO 00000KT 10SM CLR 13/12 A3008 RMK AO2 SLP183 T01280117=
202107130953 METAR KPAE 130953Z AUTO 00000KT 10SM CLR 13/12 A3007 RMK AO2 SLP180 T01330122=
202107130853 METAR KPAE 130853Z AUTO 01006KT 10SM CLR 15/12 A3006 RMK AO2 SLP178 T01500117 58000=
202107130753 METAR KPAE 130753Z AUTO VRB04KT 10SM CLR 16/12 A3007 RMK AO2 SLP179 T01610117 402560117=
202107130653 METAR KPAE 130653Z AUTO 05005KT 10SM CLR 17/12 A3007 RMK AO2 SLP179 T01720122=
202107130553 METAR KPAE 130553Z AUTO 04003KT 10SM CLR 17/12 A3007 RMK AO2 SLP179 T01670122 10250 20156 52007=
202107130453 METAR KPAE 130453Z AUTO 02005KT 10SM CLR 17/12 A3006 RMK AO2 SLP179 T01670117=
202107130353 METAR KPAE 130353Z 36008KT 10SM CLR 18/12 A3005 RMK AO2 SLP174 T01780122=
202107130253 METAR KPAE 130253Z 35006KT 10SM CLR 20/13 A3005 RMK AO2 SLP172 T02000128 56006=
202107130153 METAR KPAE 130153Z 01004KT 10SM CLR 23/12 A3005 RMK AO2 SLP174 T02330122=
202107130053 METAR KPAE 130053Z 34005KT 10SM CLR 25/12 A3005 RMK AO2 SLP174 T02500122=
202107122353 METAR KPAE 122353Z VRB05KT 10SM CLR 25/12 A3006 RMK AO2 SLP178 T02500122 10256 20189 58007=
202107122253 METAR KPAE 122253Z 30008KT 10SM CLR 24/12 A3007 RMK AO2 SLP181 T02440122=
202107122153 METAR KPAE 122153Z 31007KT 10SM CLR 23/13 A3008 RMK AO2 SLP182 T02330128=
202107122053 METAR KPAE 122053Z 28004KT 10SM CLR 22/13 A3008 RMK AO2 SLP185 T02220128 58007=
202107121953 METAR KPAE 121953Z VRB04KT 10SM CLR 22/13 A3009 RMK AO2 SLP188 T02170128=
202107121853 METAR KPAE 121853Z VRB04KT 10SM CLR 21/12 A3010 RMK AO2 SLP191 T02060122=
202107121753 METAR KPAE 121753Z 27006KT 10SM CLR 19/12 A3010 RMK AO2 SLP193 T01890117 10194 20117 53002=
202107121653 METAR KPAE 121653Z VRB03KT 10SM CLR 18/12 A3010 RMK AO2 SLP192 T01780117=
202107121553 METAR KPAE 121553Z 02003KT 10SM CLR 16/12 A3010 RMK AO2 SLP192 T01610117=
202107121453 METAR KPAE 121453Z 00000KT 10SM CLR 15/11 A3010 RMK AO2 SLP191 T01500111 53006=
202107121353 METAR KPAE 121353Z 36004KT 10SM CLR 13/12 A3009 RMK AO2 SLP190 T01280117=
202107121253 METAR KPAE 121253Z AUTO 00000KT 10SM CLR 12/11 A3008 RMK AO2 SLP186 T01220106=
202107121153 METAR KPAE 121153Z AUTO 01005KT 10SM CLR 12/11 A3008 RMK AO2 SLP185 T01220111 10150 20117 53002=
202107121125 SPECI KPAE 121125Z AUTO 02005KT 10SM SCT001 12/12 A3008 RMK AO2 T01220117=
202107121053 METAR KPAE 121053Z AUTO 02005KT 10SM BKN001 12/12 A3008 RMK AO2 SLP183 T01220117=
202107121017 SPECI KPAE 121017Z AUTO 02005KT 10SM SCT002 12/11 A3008 RMK AO2 T01220111=
202107121003 SPECI KPAE 121003Z AUTO 02005KT 10SM BKN002 12/12 A3007 RMK AO2 T01220117=
202107120953 METAR KPAE 120953Z AUTO VRB04KT 10SM SCT002 12/12 A3007 RMK AO2 SLP182 T01220117=
202107120949 SPECI KPAE 120949Z AUTO VRB04KT 10SM FEW002 12/12 A3007 RMK AO2=
202107120853 METAR KPAE 120853Z AUTO 02006KT 10SM CLR 13/11 A3007 RMK AO2 SLP181 T01330106 58002=
202107120753 METAR KPAE 120753Z AUTO VRB05KT 10SM CLR 14/11 A3008 RMK AO2 SLP183 T01440106 402330122=
202107120653 METAR KPAE 120653Z AUTO 04003KT 10SM CLR 14/12 A3008 RMK AO2 SLP184 T01440117=
202107120553 METAR KPAE 120553Z AUTO VRB03KT 10SM CLR 14/12 A3008 RMK AO2 SLP184 T01390117 10228 20139 55000=
202107120453 METAR KPAE 120453Z AUTO 36008KT 10SM CLR 14/12 A3008 RMK AO2 SLP183 T01440117=
202107120353 METAR KPAE 120353Z 36008KT 10SM CLR 16/12 A3007 RMK AO2 SLP182 T01560117=
202107120253 METAR KPAE 120253Z 36009KT 10SM CLR 18/12 A3008 RMK AO2 SLP184 T01780122 56011=
202107120153 METAR KPAE 120153Z 01007KT 10SM CLR 19/12 A3008 RMK AO2 SLP185 T01940122=
202107120053 METAR KPAE 120053Z 35008KT 10SM CLR 20/12 A3010 RMK AO2 SLP190 T02000122=
202107112353 METAR KPAE 112353Z 33007KT 10SM CLR 22/12 A3011 RMK AO2 SLP195 T02170117 10233 20183 58013=
202107112253 METAR KPAE 112253Z 33007KT 10SM CLR 22/11 A3013 RMK AO2 SLP201 T02220106=
202107112153 METAR KPAE 112153Z VRB05KT 10SM CLR 23/12 A3014 RMK AO2 SLP203 T02280117=
202107112053 METAR KPAE 112053Z 36008KT 10SM CLR 22/11 A3015 RMK AO2 SLP208 T02220111 58011=
202107111953 METAR KPAE 111953Z VRB04KT 10SM CLR 22/13 A3016 RMK AO2 SLP213 T02170128=
202107111853 METAR KPAE 111853Z 29005KT 10SM CLR 19/12 A3018 RMK AO2 SLP217 T01940122=
202107111753 METAR KPAE 111753Z VRB04KT 10SM CLR 18/12 A3018 RMK AO2 SLP220 T01780117 10183 20122 58002=
202107111653 METAR KPAE 111653Z 00000KT 10SM CLR 18/12 A3019 RMK AO2 SLP221 T01780117=
202107111553 METAR KPAE 111553Z 01003KT 10SM CLR 15/11 A3020 RMK AO2 SLP224 T01500111=
202107111453 METAR KPAE 111453Z 02004KT 10SM CLR 14/11 A3019 RMK AO2 SLP222 T01390106 51007=
202107111353 METAR KPAE 111353Z 01006KT 10SM CLR 13/11 A3019 RMK AO2 SLP221 T01280106=
202107111253 METAR KPAE 111253Z 02005KT 10SM CLR 12/11 A3018 RMK AO2 SLP218 T01220106=
202107111153 METAR KPAE 111153Z 04004KT 10SM CLR 12/10 A3017 RMK AO2 SLP215 T01220100 10144 20122 51004=
202107111053 METAR KPAE 111053Z 03004KT 10SM CLR 12/10 A3017 RMK AO2 SLP214 T01220100=
202107110953 METAR KPAE 110953Z 03004KT 10SM CLR 12/10 A3016 RMK AO2 SLP212 T01220100=
202107110853 METAR KPAE 110853Z 03005KT 10SM CLR 13/11 A3016 RMK AO2 SLP211 T01280106 57001=
202107110753 METAR KPAE 110753Z 02007KT 10SM CLR 13/11 A3016 RMK AO2 SLP211 T01280111 402220122=
202107110653 METAR KPAE 110653Z 03005KT 10SM CLR 13/11 A3016 RMK AO2 SLP211 T01330111=
202107110553 METAR KPAE 110553Z 02007KT 10SM CLR 14/11 A3016 RMK AO2 SLP212 T01440111 10206 20144 53006=
202107110453 METAR KPAE 110453Z 01010KT 10SM CLR 14/12 A3015 RMK AO2 SLP209 T01440117=
202107110353 METAR KPAE 110353Z 02006KT 10SM CLR 15/12 A3014 RMK AO2 SLP206 T01500117=
202107110253 METAR KPAE 110253Z 36006KT 10SM CLR 17/12 A3014 RMK AO2 SLP206 T01720122 56007=
202107110153 METAR KPAE 110153Z 35008KT 10SM CLR 18/12 A3015 RMK AO2 SLP207 T01830117=
202107110053 METAR KPAE 110053Z 36008KT 10SM CLR 19/12 A3015 RMK AO2 SLP209 T01940117=
202107102353 METAR KPAE 102353Z 35007KT 10SM CLR 21/12 A3016 RMK AO2 SLP213 T02060122 10222 20172 58009=
202107102253 METAR KPAE 102253Z 36009KT 10SM CLR 21/13 A3017 RMK AO2 SLP216 T02110128=
202107102153 METAR KPAE 102153Z 33006KT 10SM CLR 21/13 A3018 RMK AO2 SLP219 T02110133=
202107102053 METAR KPAE 102053Z 28004KT 10SM CLR 22/13 A3019 RMK AO2 SLP221 T02170133 58004=
202107101953 METAR KPAE 101953Z 30006KT 10SM CLR 21/13 A3020 RMK AO2 SLP225 T02060133=
202107101853 METAR KPAE 101853Z VRB05KT 10SM CLR 19/13 A3021 RMK AO2 SLP227 T01890128=
202107101753 METAR KPAE 101753Z VRB05KT 10SM CLR 18/13 A3020 RMK AO2 SLP227 T01780128 10178 20122 53004=
202107101653 METAR KPAE 101653Z VRB04KT 10SM FEW003 16/12 A3020 RMK AO2 SLP225 T01560122=
202107101637 SPECI KPAE 101637Z 00000KT 10SM SCT003 15/12 A3020 RMK AO2 T01500122=
202107101612 SPECI KPAE 101612Z 36003KT 10SM OVC002 14/12 A3020 RMK AO2 T01390122=
202107101553 METAR KPAE 101553Z 36004KT 7SM OVC001 13/12 A3020 RMK AO2 SLP225 T01330122=
202107101500 SPECI KPAE 101500Z VRB04KT 6SM R16R/0600V1600FT BR OVC001 13/12 A3019 RMK AO2 T01280122=
202107101453 METAR KPAE 101453Z VRB03KT 1/4SM R16R/0600V1600FT FG OVC001 13/12 A3019 RMK AO2 SLP223 T01330122 51015=
202107101353 METAR KPAE 101353Z 01006KT 1/4SM R16R/0600V1600FT FG VV001 12/12 A3018 RMK AO2 SLP217 T01220122=
202107101341 SPECI KPAE 101341Z AUTO 01006KT 1/4SM R16R/0800V2400FT FG VV001 12/12 A3017 RMK AO2 T01220122=
202107101328 SPECI KPAE 101328Z AUTO 01005KT 1/2SM R16R/0800V1800FT FG VV001 12/12 A3017 RMK AO2 T01220122=
202107101324 SPECI KPAE 101324Z AUTO 02005KT 1/4SM R16R/0700V2400FT FG VV001 12/12 A3017 RMK AO2 T01220122=
202107101253 METAR KPAE 101253Z AUTO 01004KT 1/4SM R16R/0600V1800FT FG VV001 12/12 A3017 RMK AO2 SLP213 T01220122=
202107101239 SPECI KPAE 101239Z AUTO 01005KT 1/4SM R16R/0800V1400FT FG VV001 12/12 A3016 RMK AO2 VIS M1/4V2 T01220122=
202107101213 SPECI KPAE 101213Z AUTO 01004KT 1SM R16R/1000V1800FT BR VV001 12/12 A3015 RMK AO2 T01220122=
202107101201 SPECI KPAE 101201Z AUTO 02005KT 1 3/4SM R16R/1400V2400FT BR OVC001 13/12 A3015 RMK AO2 VIS 3/4V4 T01280122=
202107101153 METAR KPAE 101153Z AUTO VRB04KT 2SM R16R/1000V1800FT BR OVC001 13/12 A3015 RMK AO2 VIS 1 1/4V4 SLP207 T01280122 10167 20128 53010=
202107101149 SPECI KPAE 101149Z AUTO 01004KT 1 1/2SM R16R/1000V1800FT BR OVC001 13/12 A3015 RMK AO2 VIS 3/4V3=
202107101141 SPECI KPAE 101141Z AUTO 01005KT 1 3/4SM R16R/1600VP6000FT BR OVC002 13/12 A3014 RMK AO2 VIS 3/4V5 T01280122=
202107101127 SPECI KPAE 101127Z AUTO 01003KT 10SM BKN003 13/12 A3014 RMK AO2 T01330122=
202107101116 SPECI KPAE 101116Z AUTO 02003KT 10SM SCT003 13/12 A3014 RMK AO2 T01330122=
202107101053 METAR KPAE 101053Z AUTO 34003KT 10SM CLR 13/12 A3014 RMK AO2 SLP203 T01330122=
202107100953 METAR KPAE 100953Z AUTO VRB04KT 10SM CLR 16/12 A3012 RMK AO2 SLP199 T01610117=
202107100853 METAR KPAE 100853Z AUTO 06005KT 10SM CLR 15/12 A3012 RMK AO2 SLP196 T01500122 51006=
202107100753 METAR KPAE 100753Z AUTO 04004KT 10SM CLR 17/12 A3011 RMK AO2 SLP195 T01670122 402390128=
202107100653 METAR KPAE 100653Z AUTO 02005KT 10SM CLR 16/11 A3010 RMK AO2 SLP191 T01610111=
202107100553 METAR KPAE 100553Z AUTO 02004KT 10SM CLR 14/11 A3010 RMK AO2 SLP191 T01440111 10233 20144 51013=
202107100453 METAR KPAE 100453Z AUTO 01008KT 10SM CLR 15/12 A3009 RMK AO2 SLP188 T01500122=
202107100353 METAR KPAE 100353Z 35006KT 10SM CLR 17/13 A3007 RMK AO2 SLP183 T01720128=
202107100253 METAR KPAE 100253Z 02003KT 10SM CLR 21/13 A3006 RMK AO2 SLP178 T02110133 55007=
202107100153 METAR KPAE 100153Z 32005KT 10SM CLR 23/13 A3006 RMK AO2 SLP177 T02330128=
202107100053 METAR KPAE 100053Z 34006KT 10SM CLR 23/13 A3007 RMK AO2 SLP180 T02280128=
202107092353 METAR KPAE 092353Z 34007KT 10SM CLR 23/13 A3008 RMK AO2 SLP185 T02280133 10239 20183 58013=
202107092253 METAR KPAE 092253Z 36004KT 10SM CLR 23/13 A3010 RMK AO2 SLP191 T02330133=
202107092153 METAR KPAE 092153Z 34007KT 10SM CLR 21/13 A3011 RMK AO2 SLP194 T02110133=
202107092053 METAR KPAE 092053Z 36009KT 10SM CLR 22/13 A3012 RMK AO2 SLP198 T02220133 58010=
202107091953 METAR KPAE 091953Z 30007KT 10SM CLR 20/13 A3014 RMK AO2 SLP204 T02000133=
202107091853 METAR KPAE 091853Z 32007KT 10SM CLR 19/13 A3014 RMK AO2 SLP206 T01940133=
202107091753 METAR KPAE 091753Z 29008KT 10SM CLR 18/13 A3015 RMK AO2 SLP209 T01830133 10189 20128 58002=
202107091653 METAR KPAE 091653Z 00000KT 10SM CLR 17/13 A3016 RMK AO2 SLP211 T01670128=
202107091553 METAR KPAE 091553Z AUTO 10SM 16/13 A3016 RMK AO2 SLP212 T01560128 $=
202107091549 SPECI KPAE 091549Z 35003KT 10SM OVC005 15/13 A3016 RMK AO2=
202107091500 SPECI KPAE 091500Z AUTO 02003KT 10SM OVC002 13/12 A3015 RMK AO2 T01330122=
202107091453 METAR KPAE 091453Z AUTO 01004KT 1SM R16R/P6000FT BR OVC002 13/12 A3015 RMK AO2 SLP209 T01330122 51004=
202107091450 SPECI KPAE 091450Z AUTO 01004KT 1SM R16R/P6000FT BR OVC002 13/12 A3015 RMK AO2=
202107091421 SPECI KPAE 091421Z 35005KT 1SM R16R/3500VP6000FT BR OVC001 13/12 A3015 RMK AO2 T01280122 $=
202107091414 SPECI KPAE 091414Z 01003KT 3SM R16R/2800VP6000FT BR OVC001 13/12 A3015 RMK AO2 T01330122 $=
202107091353 METAR KPAE 091353Z 36004KT 3SM BR OVC002 13/12 A3015 RMK AO2 SLP208 T01280122=
202107091320 SPECI KPAE 091320Z AUTO 35003KT 10SM BKN002 OVC050 13/12 A3014 RMK AO2 T01280122=
202107091301 SPECI KPAE 091301Z AUTO 01004KT 10SM SCT004 OVC050 13/12 A3014 RMK AO2 T01280122=
202107091253 METAR KPAE 091253Z AUTO 00000KT 10SM BKN005 BKN055 13/12 A3014 RMK AO2 SLP206 T01280122=
202107091243 SPECI KPAE 091243Z AUTO 34003KT 10SM SCT005 13/12 A3014 RMK AO2 T01280122=
202107091153 METAR KPAE 091153Z AUTO 00000KT 10SM OVC050 14/12 A3013 RMK AO2 SLP201 7//// T01390122 10144 20133 53013=
202107091053 METAR KPAE 091053Z AUTO 00000KT 10SM OVC050 14/13 A3011 RMK AO2 SLP194 T01390128=
202107090953 METAR KPAE 090953Z AUTO 00000KT 10SM OVC050 14/13 A3010 RMK AO2 SLP193 T01440128=
202107090853 METAR KPAE 090853Z AUTO 01005KT 10SM OVC050 14/12 A3009 RMK AO2 SLP187 T01440122 50006=
202107090753 METAR KPAE 090753Z AUTO 01004KT 10SM BKN055 14/12 A3009 RMK AO2 SLP188 T01390122 402110128=
202107090653 METAR KPAE 090653Z AUTO 36008KT 10SM CLR 14/12 A3009 RMK AO2 SLP188 T01390117=
202107090553 METAR KPAE 090553Z AUTO 36006KT 10SM CLR 14/12 A3007 RMK AO2 SLP181 T01390117 10211 20139 51009=
202107090453 METAR KPAE 090453Z AUTO 01004KT 10SM CLR 16/12 A3007 RMK AO2 SLPNO T01560117=
202107090353 METAR KPAE 090353Z AUTO 36004KT 10SM CLR 17/13 A3005 RMK AO2 SLP174 T01670128=
202107090253 METAR KPAE 090253Z 33004KT 10SM CLR 18/13 A3004 RMK AO2 SLP171 T01780128 55001=
202107090153 METAR KPAE 090153Z VRB03KT 10SM CLR 21/12 A3004 RMK AO2 SLP171 T02060117=
202107090053 METAR KPAE 090053Z 29005KT 10SM CLR 21/11 A3003 RMK AO2 SLP169 T02060111=
202107082353 METAR KPAE 082353Z 27006KT 10SM CLR 20/11 A3004 RMK AO2 SLP172 T02000111 10211 20150 58006=
202107082253 METAR KPAE 082253Z 24009KT 10SM CLR 20/12 A3005 RMK AO2 SLP175 T02000117=
202107082153 METAR KPAE 082153Z 23008KT 10SM CLR 18/11 A3006 RMK AO2 SLP178 T01780111=
202107082053 METAR KPAE 082053Z 27007KT 10SM CLR 18/11 A3006 RMK AO2 SLP178 T01830111 51004=
202107082040 SPECI KPAE 082040Z VRB06KT 10SM CLR 18/11 A3006 RMK AO2 T01830111=
202107081953 METAR KPAE 081953Z AUTO VRB06KT 10SM OVC020 17/11 A3006 RMK AO2 SLP178 T01720111=
202107081853 METAR KPAE 081853Z AUTO OVC019 17/11 A3006 RMK AO2 SLP177 T01670111 PWINO $=
202107081819 SPECI KPAE 081819Z AUTO OVC018 16/11 A3005 RMK AO2 T01560106 PWINO $=
202107081753 METAR KPAE 081753Z AUTO 16/11 A3005 RMK AO2 SLP175 6//// T01560111 PWINO $=
202107081653 METAR KPAE 081653Z AUTO A3005 RMK AO2 SLPNO PWINO $=
202107081553 METAR KPAE 081553Z AUTO 15/11 A3004 RMK AO2 SLP173 T01500106 PWINO $=
202107081545 SPECI KPAE 081545Z AUTO SCT014 OVC022 15/11 A3004 RMK AO2 T01500106 PWINO $=
202107081523 SPECI KPAE 081523Z 21003KT 10SM BKN013 OVC023 14/11 A3004 RMK AO2 T01440111 $=
202107081453 METAR KPAE 081453Z 28003KT 10SM FEW007 OVC023 14/12 A3004 RMK AO2 SLP170 T01390117 55001=
202107081353 METAR KPAE 081353Z 23004KT 10SM SCT008 OVC024 13/11 A3003 RMK AO2 SLP169 T01330111=
202107081343 SPECI KPAE 081343Z 21003KT 10SM SCT008 SCT013 OVC025 13/11 A3004 RMK AO2 T01330111=
202107081253 METAR KPAE 081253Z AUTO 00000KT 10SM OVC009 13/12 A3004 RMK AO2 CIG 007V014 SLP170 T01330117=
202107081153 METAR KPAE 081153Z AUTO 00000KT 10SM OVC007 13/12 A3004 RMK AO2 SLP170 T01330117 10139 20133 58001=
202107081053 METAR KPAE 081053Z AUTO 00000KT 10SM OVC009 13/12 A3004 RMK AO2 CIG 008V013 SLP171 T01330117=
202107081025 SPECI KPAE 081025Z AUTO 00000KT 10SM OVC009 13/12 A3004 RMK AO2 CIG 007V012 T01330117=
202107080953 METAR KPAE 080953Z AUTO 00000KT 10SM OVC010 14/12 A3004 RMK AO2 SLP172 T01390117=
202107080902 SPECI KPAE 080902Z AUTO 00000KT 10SM BKN009 OVC036 13/12 A3004 RMK AO2 CIG 006V011 T01330122=
202107080853 METAR KPAE 080853Z AUTO 36004KT 10SM SCT009 BKN036 13/12 A3004 RMK AO2 SLP171 T01330117 55001=
202107080753 METAR KPAE 080753Z AUTO 01004KT 10SM SCT036 13/12 A3004 RMK AO2 SLP170 T01330117 402060133=
202107080653 METAR KPAE 080653Z AUTO 36004KT 10SM CLR 13/12 A3004 RMK AO2 SLP170 T01330117=
202107080553 METAR KPAE 080553Z AUTO 01005KT 10SM CLR 14/12 A3004 RMK AO2 SLP173 T01390117 10206 20133 51007=
202107080453 METAR KPAE 080453Z AUTO 01006KT 10SM SCT070 14/12 A3004 RMK AO2 SLP171 T01390117=
202107080353 METAR KPAE 080353Z 01007KT 10SM FEW075 15/12 A3003 RMK AO2 SLP167 T01500117=
202107080253 METAR KPAE 080253Z 36006KT 10SM CLR 16/12 A3002 RMK AO2 SLP164 T01610122 56005=
202107080153 METAR KPAE 080153Z 26006KT 10SM CLR 19/12 A3002 RMK AO2 SLP165 T01940122=
202107080053 METAR KPAE 080053Z 26010KT 10SM CLR 20/12 A3002 RMK AO2 SLP164 T02000122=
202107072353 METAR KPAE 072353Z VRB06KT 10SM BKN032 20/12 A3004 RMK AO2 SLP169 T02000122 10206 20150 58008=
202107072308 SPECI KPAE 072308Z 17006G17KT 10SM BKN030 21/12 A3005 RMK AO2 T02060117=
202107072253 METAR KPAE 072253Z 19012KT 10SM BKN028 20/12 A3005 RMK AO2 SLP175 T02000117=
202107072153 METAR KPAE 072153Z 19009G18KT 10SM SCT021 BKN027 OVC055 19/12 A3006 RMK AO2 SLP178 T01890122=
202107072053 METAR KPAE 072053Z 20013KT 10SM OVC019 17/12 A3006 RMK AO2 SLP178 T01670117 53004=
202107071953 METAR KPAE 071953Z 20012KT 10SM OVC019 17/12 A3005 RMK AO2 SLP173 T01720117=
202107071853 METAR KPAE 071853Z 17012KT 10SM OVC018 17/12 A3005 RMK AO2 SLP174 T01670117=
202107071846 SPECI KPAE 071846Z 19012KT 10SM BKN016 OVC024 17/12 A3005 RMK AO2 T01670117=
202107071753 METAR KPAE 071753Z 19012KT 10SM OVC011 15/11 A3005 RMK AO2 SLP174 T01500111 10156 20139 51010=
202107071653 METAR KPAE 071653Z 18010KT 10SM OVC011 16/12 A3004 RMK AO2 SLP171 T01560117=
202107071618 SPECI KPAE 071618Z 20012G18KT 10SM OVC011 15/12 A3004 RMK AO2 CIG 009V015 T01500117=
202107071553 METAR KPAE 071553Z 18016KT 10SM OVC008 14/12 A3003 RMK AO2 CIG 007V012 SLP168 T01440117=
202107071453 METAR KPAE 071453Z 19010KT 10SM OVC007 14/12 A3002 RMK AO2 SLP163 T01440122 51014=
202107071353 METAR KPAE 071353Z 17006KT 10SM OVC007 14/12 A3001 RMK AO2 SLP160 T01440122=
202107071253 METAR KPAE 071253Z AUTO 23004KT 10SM BKN007 15/14 A2999 RMK AO2 SLP152 T01500139=
202107071237 SPECI KPAE 071237Z AUTO 22005KT 10SM SCT003 SCT007 15/14 A2998 RMK AO2 T01500139=
202107071153 METAR KPAE 071153Z AUTO 20004KT 10SM BKN003 14/14 A2998 RMK AO2 SLP147 T01440139 10178 20139 51012=
202107071148 SPECI KPAE 071148Z AUTO 00000KT 10SM SCT005 14/13 A2997 RMK AO2=
202107071053 METAR KPAE 071053Z AUTO 19004KT 10SM CLR 15/13 A2997 RMK AO2 SLP144 T01500133=
202107070953 METAR KPAE 070953Z AUTO 00000KT 10SM CLR 14/13 A2994 RMK AO2 SLP136 T01440133=
202107070853 METAR KPAE 070853Z AUTO 02003KT 10SM CLR 16/14 A2993 RMK AO2 SLP134 T01560139 57002=
202107070753 METAR KPAE 070753Z AUTO 04004KT 10SM CLR 18/13 A2993 RMK AO2 SLP133 T01780133 402610122=
202107070653 METAR KPAE 070653Z AUTO 03003KT 10SM CLR 18/13 A2994 RMK AO2 SLP136 T01780128=
202107070553 METAR KPAE 070553Z AUTO 36007KT 10SM CLR 17/13 A2994 RMK AO2 SLP137 T01670128 10261 20167 53003=
202107070453 METAR KPAE 070453Z 36003KT 10SM CLR 18/12 A2994 RMK AO2 SLP136 T01780122=
202107070353 METAR KPAE 070353Z 35004KT 10SM CLR 19/13 A2993 RMK AO2 SLP133 T01940128=
202107070253 METAR KPAE 070253Z 35006KT 10SM CLR 22/12 A2993 RMK AO2 SLP134 T02170122 56012=
202107070153 METAR KPAE 070153Z VRB04KT 10SM CLR 24/12 A2994 RMK AO2 SLP135 T02440122=
202107070053 METAR KPAE 070053Z 02005KT 10SM CLR 26/13 A2995 RMK AO2 SLP138 T02560128=
202107062353 METAR KPAE 062353Z 33005KT 10SM CLR 26/13 A2997 RMK AO2 SLP145 T02560133 10261 20156 56020=
202107062253 METAR KPAE 062253Z 01006KT 10SM CLR 26/14 A2998 RMK AO2 SLP151 T02560139=
202107062153 METAR KPAE 062153Z 27004KT 10SM CLR 24/14 A3001 RMK AO2 SLP159 T02390139=
202107062053 METAR KPAE 062053Z VRB04KT 10SM CLR 22/14 A3003 RMK AO2 SLP166 T02220139 58014=
202107061953 METAR KPAE 061953Z VRB04KT 10SM CLR 22/14 A3004 RMK AO2 SLP170 T02170144=
202107061853 METAR KPAE 061853Z VRB04KT 10SM FEW005 19/14 A3006 RMK AO2 SLP179 T01940139=
202107061753 METAR KPAE 061753Z 00000KT 5SM BR SCT005 16/13 A3007 RMK AO2 SLP181 T01560133 10161 20122 58005=
202107061746 SPECI KPAE 061746Z VRB03KT 5SM BR SCT005 16/13 A3007 RMK AO2 T01560133=
202107061730 SPECI KPAE 061730Z VRB04KT 2SM HZ OVC003 16/13 A3007 RMK AO2 CIG 002V006 T01560128=
202107061710 SPECI KPAE 061710Z VRB03KT 1SM R16R/P6000FT BR OVC002 15/13 A3007 RMK AO2 T01500128=
202107061653 METAR KPAE 061653Z VRB03KT 1SM R16R/3500VP6000FT BR OVC001 13/13 A3008 RMK AO2 SLP184 T01330128=
202107061633 SPECI KPAE 061633Z 00000KT 1/2SM R16R/1400VP6000FT FG VV001 13/13 A3008 RMK AO2 T01330128=
202107061617 SPECI KPAE 061617Z 00000KT 1/4SM R16R/0800V3500FT FG VV001 13/13 A3008 RMK AO2 T01330128=
202107061553 METAR KPAE 061553Z 00000KT M1/4SM R16R/0700V1200FT FG VV001 13/13 A3008 RMK AO2 SLP186 T01280128=
202107061551 SPECI KPAE 061551Z 04003KT 1/4SM R16R/0700V1000FT FG VV001 13/13 A3008 RMK AO2=
202107061453 METAR KPAE 061453Z 36003KT M1/4SM R16R/0400V0500FT FG VV001 13/13 A3008 RMK AO2 SLP184 T01280128 51004=
202107061353 METAR KPAE 061353Z 35003KT M1/4SM R16R/0400FT FG VV001 12/12 A3008 RMK AO2 SLP184 T01220122=
202107061253 METAR KPAE 061253Z 35003KT M1/4SM R16R/0500FT FG VV001 12/12 A3007 RMK AO2 SLP183 T01220122=
202107061239 SPECI KPAE 061239Z 01004KT M1/4SM R16R/0500FT FG VV001 12/12 A3007 RMK AO2 T01220122=
202107061153 METAR KPAE 061153Z 02006KT 1/4SM R16R/0700V1000FT FG VV001 13/12 A3007 RMK AO2 SLP180 T01280122 10150 20128 50000=
202107061053 METAR KPAE 061053Z 34003KT 1/4SM R16R/0700V1000FT FG VV001 13/13 A3007 RMK AO2 SLP180 T01330128=
202107061030 SPECI KPAE 061030Z 35004KT 1/4SM R16R/0800V1000FT FG VV001 13/13 A3006 RMK AO2 T01330128=
202107061009 SPECI KPAE 061009Z 01004KT 1/2SM R16R/1000V2000FT FG VV001 13/13 A3006 RMK AO2 T01330133=
202107061000 SPECI KPAE 061000Z 36004KT 1SM R16R/1400V2000FT BR VV001 13/13 A3007 RMK AO2 VIS 1/2V3 T01330133=
202107060953 METAR KPAE 060953Z 36004KT 2 1/2SM R16R/1800V6000FT BR OVC001 14/13 A3007 RMK AO2 VIS 1 1/4V4 SLP180 T01390133=
202107060932 SPECI KPAE 060932Z 01005KT 2 1/2SM R16R/3000VP6000FT BR OVC001 14/13 A3006 RMK AO2 VIS 1 1/4V4 T01390133=
202107060853 METAR KPAE 060853Z 36005KT 10SM BKN002 14/13 A3006 RMK AO2 SLP180 T01390133 50000=
202107060845 SPECI KPAE 060845Z 36005KT 10SM SCT002 14/13 A3007 RMK AO2 T01390133=
202107060753 METAR KPAE 060753Z 01005KT 10SM CLR 14/13 A3007 RMK AO2 SLP180 T01440133 402280128=
202107060653 METAR KPAE 060653Z 36006KT 10SM CLR 15/13 A3007 RMK AO2 SLP180 T01500133=
202107060553 METAR KPAE 060553Z 01006KT 10SM CLR 15/13 A3007 RMK AO2 SLP180 T01500128 10228 20150 50001=
202107060453 METAR KPAE 060453Z 01007KT 10SM CLR 16/13 A3007 RMK AO2 SLP181 T01560128=
202107060353 METAR KPAE 060353Z 36005KT 10SM R16R/1600VP6000FT CLR 17/13 A3006 RMK AO2 SLP179 T01720128=
202107060253 METAR KPAE 060253Z 34006KT 10SM CLR 19/14 A3006 RMK AO2 SLP179 T01890139 56004=
202107060153 METAR KPAE 060153Z VRB03KT 10SM CLR 22/14 A3006 RMK AO2 SLP178 T02170139=
202107060053 METAR KPAE 060053Z 28005KT 10SM CLR 22/13 A3007 RMK AO2 SLP179 T02220133=
202107052353 METAR KPAE 052353Z 24007KT 10SM CLR 22/13 A3007 RMK AO2 SLP182 T02170133 10217 20150 56008=
202107052253 METAR KPAE 052253Z 26009KT 10SM CLR 21/13 A3008 RMK AO2 SLP185 T02060128=
202107052153 METAR KPAE 052153Z 25009KT 10SM CLR 21/13 A3009 RMK AO2 SLP188 T02060133=
202107052053 METAR KPAE 052053Z 26009KT 10SM SCT018 19/13 A3010 RMK AO2 SLP191 T01940133 58000=
202107052044 SPECI KPAE 052044Z 23008KT 10SM FEW018 19/13 A3010 RMK AO2 T01940133=
202107051953 METAR KPAE 051953Z 26007KT 10SM OVC016 18/13 A3010 RMK AO2 SLP193 T01780133=
202107051941 SPECI KPAE 051941Z 25007KT 10SM OVC015 18/13 A3010 RMK AO2 T01830133=
202107051928 SPECI KPAE 051928Z 26009KT 10SM OVC014 18/13 A3011 RMK AO2 T01780133=
202107051901 SPECI KPAE 051901Z 26006KT 10SM OVC009 17/13 A3010 RMK AO2 T01720133=
202107051853 METAR KPAE 051853Z 23006KT 10SM OVC011 17/13 A3010 RMK AO2 SLP193 T01720133=
202107051753 METAR KPAE 051753Z 22005KT 9SM OVC005 15/13 A3010 RMK AO2 SLP192 T01500128 10150 20139 51007=
202107051653 METAR KPAE 051653Z 23004KT 8SM OVC005 14/13 A3009 RMK AO2 SLP189 T01440128=
202107051553 METAR KPAE 051553Z 25006KT 10SM BKN005 OVC009 14/13 A3009 RMK AO2 SLP189 T01440128=
202107051453 METAR KPAE 051453Z 26005KT 10SM OVC006 14/13 A3008 RMK AO2 CIG 004V008 SLP184 T01440128 51009=
202107051451 SPECI KPAE 051451Z 25004KT 10SM OVC006 14/13 A3008 RMK AO2 CIG 004V008=
202107051400 SPECI KPAE 051400Z 26004KT 10SM OVC004 14/13 A3007 RMK AO2 T01390128=
202107051353 METAR KPAE 051353Z 26004KT 10SM OVC006 14/13 A3007 RMK AO2 CIG 003V008 SLP179 T01390128=
202107051253 METAR KPAE 051253Z AUTO 00000KT 9SM OVC006 14/13 A3005 RMK AO2 SLP174 T01440128=
202107051208 SPECI KPAE 051208Z AUTO 00000KT 10SM OVC008 14/12 A3004 RMK AO2 CIG 007V011 T01390122=
202107051153 METAR KPAE 051153Z AUTO 00000KT 10SM OVC012 14/12 A3004 RMK AO2 SLP170 T01390122 10150 20128 53009=
202107051124 SPECI KPAE 051124Z AUTO 07003KT 10SM SCT003 BKN014 13/12 A3004 RMK AO2 T01330122=
202107051053 METAR KPAE 051053Z AUTO 09004KT 10SM OVC003 13/12 A3003 RMK AO2 SLP167 T01280122=
202107050953 METAR KPAE 050953Z AUTO VRB04KT 10SM OVC002 13/12 A3002 RMK AO2 SLP162 T01330122=
202107050853 METAR KPAE 050853Z AUTO 34005KT 10SM OVC003 13/13 A3001 RMK AO2 SLP161 T01330128 53002=
202107050842 SPECI KPAE 050842Z AUTO 35003KT 8SM BKN003 13/13 A3001 RMK AO2 T01330128=
202107050833 SPECI KPAE 050833Z AUTO 34003KT 8SM SCT003 14/13 A3001 RMK AO2 T01390128=
202107050753 METAR KPAE 050753Z AUTO 35005KT 10SM CLR 14/13 A3000 RMK AO2 SLP159 T01390128 402500133=
202107050653 METAR KPAE 050653Z AUTO 02006KT 10SM CLR 15/13 A3000 RMK AO2 SLP157 T01500128=
202107050553 METAR KPAE 050553Z AUTO 36007KT 10SM CLR 15/13 A3001 RMK AO2 SLP160 T01500128 10250 20150 51005=
202107050453 METAR KPAE 050453Z AUTO 36009KT 10SM CLR 16/12 A3000 RMK AO2 SLP159 T01560122=
202107050353 METAR KPAE 050353Z 36009KT 10SM CLR 17/13 A3000 RMK AO2 SLP156 T01670128=
202107050253 METAR KPAE 050253Z 35007KT 10SM CLR 20/14 A2999 RMK AO2 SLP154 T02000139 55001=
202107050153 METAR KPAE 050153Z 32005KT 10SM CLR 23/15 A2999 RMK AO2 SLP152 T02330150=
202107050053 METAR KPAE 050053Z 28007KT 10SM CLR 24/14 A2999 RMK AO2 SLP151 T02440139=
202107042353 METAR KPAE 042353Z 25008KT 10SM CLR 24/14 A2999 RMK AO2 SLP154 T02440139 10244 20178 56009=
202107042253 METAR KPAE 042253Z 26007KT 10SM CLR 24/14 A2999 RMK AO2 SLP155 T02440144=
202107042153 METAR KPAE 042153Z 23008KT 10SM CLR 23/14 A3001 RMK AO2 SLP160 T02330144=
202107042053 METAR KPAE 042053Z 24005KT 10SM CLR 23/14 A3002 RMK AO2 SLP164 T02280144 50000=
202107041953 METAR KPAE 041953Z 22008KT 10SM CLR 21/14 A3003 RMK AO2 SLP165 T02060144=
202107041853 METAR KPAE 041853Z 23010KT 10SM CLR 18/14 A3003 RMK AO2 SLP167 T01830139=
202107041753 METAR KPAE 041753Z 24008KT 10SM CLR 18/14 A3002 RMK AO2 SLP164 T01780139 10183 20139 52003=
202107041736 SPECI KPAE 041736Z 24008KT 10SM SCT010 18/14 A3002 RMK AO2 T01780139=
202107041728 SPECI KPAE 041728Z 25008KT 10SM BKN010 17/14 A3002 RMK AO2 T01720139=
202107041653 METAR KPAE 041653Z 25007KT 10SM OVC009 16/14 A3001 RMK AO2 SLP162 T01610139=
202107041553 METAR KPAE 041553Z 24006KT 9SM OVC006 15/14 A3002 RMK AO2 SLP162 T01500139=
202107041453 METAR KPAE 041453Z 00000KT 9SM OVC005 16/14 A3001 RMK AO2 SLP160 T01560144 53010=
202107041405 SPECI KPAE 041405Z 21005KT 10SM BKN006 BKN010 16/14 A3000 RMK AO2 CIG 005V009 T01560144=
202107041358 SPECI KPAE 041358Z 21006KT 10SM SCT008 16/14 A3001 RMK AO2 T01560139=
202107041353 METAR KPAE 041353Z 21004KT 10SM BKN010 16/14 A3001 RMK AO2 SLP157 T01560139=
202107041253 METAR KPAE 041253Z AUTO 00000KT 10SM CLR 14/13 A2999 RMK AO2 SLP151 T01440133=
202107041150 METAR KPAE 041150Z AUTO 00000KT 6SM BR SCT001 14/13 A2998 RMK AO2 SLP149 T01390133 10172 20133 53004=
202107041149 SPECI KPAE 041149Z AUTO 00000KT 5SM BR SCT001 14/13 A2998 RMK AO2=
202107041142 SPECI KPAE 041142Z AUTO 00000KT 2SM R16R/5500VP6000FT BR BKN001 14/13 A2998 RMK AO2 VIS 1/2V5 T01390133=
202107041128 SPECI KPAE 041128Z AUTO 00000KT 3/4SM R16R/2400V6000FT BR VV001 14/14 A2998 RMK AO2 T01390139=
202107041115 SPECI KPAE 041115Z AUTO 00000KT 1 3/4SM R16R/1800V4000FT BR OVC002 14/14 A2998 RMK AO2 T01390139=
202107041053 METAR KPAE 041053Z AUTO 00000KT 6SM R16R/3000VP6000FT BR BKN002 14/14 A2998 RMK AO2 SLP147 T01440139=
202107041046 SPECI KPAE 041046Z AUTO 00000KT 8SM SCT002 14/14 A2998 RMK AO2 T01440139=
202107040953 METAR KPAE 040953Z AUTO 02004KT 10SM CLR 15/14 A2997 RMK AO2 SLP144 T01500139=
202107040853 METAR KPAE 040853Z AUTO 02004KT 10SM CLR 15/13 A2997 RMK AO2 SLP146 T01500133 53005=
202107040753 METAR KPAE 040753Z AUTO 01005KT 10SM CLR 16/13 A2996 RMK AO2 SLP142 T01560133 402670133=
202107040653 METAR KPAE 040653Z AUTO 34004KT 10SM CLR 16/13 A2996 RMK AO2 SLP142 T01560133=
202107040553 METAR KPAE 040553Z AUTO 01006KT 10SM CLR 17/13 A2996 RMK AO2 SLP141 T01720133 10267 20172 53004=
202107040453 METAR KPAE 040453Z AUTO 02006KT 10SM CLR 19/13 A2995 RMK AO2 SLP139 T01890133=
202107040353 METAR KPAE 040353Z 35003KT 10SM CLR 21/14 A2994 RMK AO2 SLP137 T02110144=
202107040253 METAR KPAE 040253Z 34005KT 10SM CLR 24/13 A2994 RMK AO2 SLP136 T02440128 56009=
202107040153 METAR KPAE 040153Z VRB04KT 10SM CLR 26/14 A2995 RMK AO2 SLP138 T02560139=
202107040053 METAR KPAE 040053Z 28006KT 10SM CLR 26/13 A2996 RMK AO2 SLP142 T02610133=
202107032353 METAR KPAE 032353Z 29006KT 10SM CLR 27/12 A2997 RMK AO2 SLP146 T02670122 10267 20200 56009=
202107032253 METAR KPAE 032253Z 28005KT 10SM CLR 26/12 A2998 RMK AO2 SLP149 T02560122=
202107032153 METAR KPAE 032153Z 30007KT 10SM CLR 25/13 A2999 RMK AO2 SLP152 T02500128=
202107032053 METAR KPAE 032053Z 27006KT 10SM CLR 24/13 A3000 RMK AO2 SLP156 T02390133 58005=
202107031953 METAR KPAE 031953Z VRB06KT 10SM CLR 23/14 A3001 RMK AO2 SLP159 T02330139=
202107031853 METAR KPAE 031853Z VRB06KT 10SM CLR 21/14 A3002 RMK AO2 SLP162 T02110144=
202107031753 METAR KPAE 031753Z VRB04KT 10SM CLR 20/14 A3001 RMK AO2 SLP162 T02000144 10200 20133 58001=
202107031653 METAR KPAE 031653Z 26006KT 10SM CLR 19/14 A3002 RMK AO2 SLP162 T01890139=
202107031553 METAR KPAE 031553Z 27005KT 10SM CLR 17/13 A3002 RMK AO2 SLP163 T01720133=
202107031453 METAR KPAE 031453Z 00000KT 10SM CLR 16/13 A3002 RMK AO2 SLP162 T01610133 51004=
202107031353 METAR KPAE 031353Z 34003KT 10SM FEW001 14/13 A3001 RMK AO2 SLP162 T01390133=
202107031344 SPECI KPAE 031344Z AUTO 34004KT 10SM SCT001 14/13 A3001 RMK AO2 T01390133=
202107031338 SPECI KPAE 031338Z AUTO 35004KT 2 1/2SM R16R/3500VP6000FT BR BKN001 14/13 A3001 RMK AO2 T01390133=
202107031332 SPECI KPAE 031332Z AUTO 36004KT 1/2SM R16R/1400VP6000FT FG VV001 14/13 A3001 RMK AO2 T01390133=
202107031316 SPECI KPAE 031316Z AUTO 35004KT 1/4SM R16R/0800V1400FT FG VV001 13/13 A3001 RMK AO2 T01330133=
202107031302 SPECI KPAE 031302Z AUTO 35003KT 1/4SM R16R/1200VP6000FT FG OVC001 13/13 A3001 RMK AO2 T01330133=
202107031257 SPECI KPAE 031257Z AUTO 35005KT 1 3/4SM BR OVC001 14/13 A3001 RMK AO2 T01390133=
202107031253 METAR KPAE 031253Z AUTO 00000KT 7SM BKN001 14/13 A3001 RMK AO2 SLP161 T01390133=
202107031241 SPECI KPAE 031241Z AUTO 36003KT 6SM BR BKN001 14/13 A3001 RMK AO2 T01390133=
202107031237 SPECI KPAE 031237Z AUTO 35004KT 8SM SCT002 14/13 A3001 RMK AO2 T01390133=
202107031153 METAR KPAE 031153Z AUTO 36003KT 10SM CLR 14/13 A3000 RMK AO2 SLP158 T01440133 10172 20139 53000=
202107031053 METAR KPAE 031053Z AUTO 35004KT 10SM CLR 15/13 A3000 RMK AO2 SLP157 T01500133=
202107030953 METAR KPAE 030953Z AUTO 35004KT 10SM CLR 15/13 A3000 RMK AO2 SLP157 T01500133=
202107030853 METAR KPAE 030853Z AUTO 35005KT 10SM CLR 15/13 A3000 RMK AO2 SLP158 T01500133 50000=
202107030753 METAR KPAE 030753Z AUTO 36006KT 10SM CLR 15/14 A3001 RMK AO2 SLP158 T01500139 402390150=
202107030653 METAR KPAE 030653Z AUTO 36007KT 10SM CLR 16/13 A3000 RMK AO2 SLP158 T01610133=
202107030553 METAR KPAE 030553Z AUTO 01006KT 10SM CLR 17/13 A3000 RMK AO2 SLP157 T01720133 10239 20172 53002=
202107030453 METAR KPAE 030453Z AUTO 02005KT 10SM CLR 19/14 A3001 RMK AO2 SLP158 T01940144=
202107030353 METAR KPAE 030353Z 00000KT 10SM CLR 22/13 A2999 RMK AO2 SLP154 T02170133=
202107030253 METAR KPAE 030253Z 34003KT 10SM CLR 23/13 A3000 RMK AO2 SLP155 T02280133 57008=
202107030153 METAR KPAE 030153Z 28004KT 10SM CLR 23/13 A3000 RMK AO2 SLP157 T02330133=
202107030053 METAR KPAE 030053Z 30006KT 10SM CLR 23/14 A3001 RMK AO2 SLP160 T02330139=
202107022353 METAR KPAE 022353Z 24005KT 10SM CLR 23/14 A3002 RMK AO2 SLP163 T02330144 10239 20189 58010=
202107022253 METAR KPAE 022253Z VRB05KT 10SM CLR 23/14 A3003 RMK AO2 SLP168 T02330144=
202107022153 METAR KPAE 022153Z 00000KT 10SM CLR 23/15 A3005 RMK AO2 SLP172 T02280150=
202107022053 METAR KPAE 022053Z VRB03KT 10SM SCT051 22/14 A3005 RMK AO2 SLP173 T02170144 58000=
202107021953 METAR KPAE 021953Z VRB04KT 10SM SCT016 BKN051 21/15 A3005 RMK AO2 SLP174 T02060150=
202107021853 METAR KPAE 021853Z 30005KT 10SM SCT016 BKN049 19/14 A3005 RMK AO2 SLP175 T01940144=
202107021827 SPECI KPAE 021827Z VRB04KT 10SM FEW015 OVC049 20/14 A3005 RMK AO2 T02000144=
202107021753 METAR KPAE 021753Z VRB04KT 10SM FEW008 BKN020 OVC060 19/14 A3005 RMK AO2 SLP174 T01940144 10194 20156 51003=
202107021653 METAR KPAE 021653Z 26005KT 10SM FEW008 BKN020 OVC060 18/14 A3005 RMK AO2 SLP173 T01780144=
202107021553 METAR KPAE 021553Z VRB03KT 10SM OVC020 17/14 A3004 RMK AO2 SLP172 T01670144=
202107021453 METAR KPAE 021453Z 29003KT 10SM SCT005 OVC020 16/14 A3004 RMK AO2 SLP170 T01610144 50007=
202107021419 SPECI KPAE 021419Z 00000KT 10SM SCT006 OVC021 16/14 A3004 RMK AO2 T01610144=
202107021353 METAR KPAE 021353Z 34003KT 10SM OVC023 16/14 A3004 RMK AO2 SLP171 T01610144=
202107021253 METAR KPAE 021253Z AUTO 00000KT 10SM OVC022 16/14 A3003 RMK AO2 SLP166 T01610144=
202107021153 METAR KPAE 021153Z AUTO 00000KT 10SM SCT019 OVC027 16/14 A3002 RMK AO2 SLP163 T01560144 10183 20156 52003=
202107021053 METAR KPAE 021053Z AUTO 00000KT 10SM OVC029 16/14 A3001 RMK AO2 SLP161 T01560144=
202107021036 SPECI KPAE 021036Z AUTO 35003KT 10SM BKN029 OVC039 16/14 A3002 RMK AO2 T01560144=
202107020953 METAR KPAE 020953Z AUTO 02004KT 10SM SCT045 OVC060 16/14 A3001 RMK AO2 SLP161 T01610144=
202107020853 METAR KPAE 020853Z AUTO 01003KT 10SM SCT023 BKN043 OVC060 18/14 A3001 RMK AO2 SLP159 T01780144 53000=
202107020753 METAR KPAE 020753Z AUTO 02003KT 10SM OVC060 18/14 A3000 RMK AO2 SLP157 T01780144 402220161=
202107020653 METAR KPAE 020653Z AUTO 01005KT 10SM SCT048 OVC060 17/14 A3000 RMK AO2 SLP156 T01720139=
202107020553 METAR KPAE 020553Z AUTO VRB03KT 10SM OVC047 17/14 A3001 RMK AO2 SLP159 T01720144 10222 20172 51005=
202107020501 SPECI KPAE 020501Z AUTO 36005KT 10SM FEW027 SCT047 18/15 A3001 RMK AO2 T01780150=
202107020453 METAR KPAE 020453Z 36004KT 10SM BKN027 BKN046 18/15 A3000 RMK AO2 SLP158 T01780150=
202107020400 SPECI KPAE 020400Z VRB03KT 10SM OVC026 19/15 A3000 RMK AO2 T01940150=
202107020353 METAR KPAE 020353Z 33003KT 10SM SCT028 OVC055 19/14 A3000 RMK AO2 SLP156 T01940144=
202107020253 METAR KPAE 020253Z VRB03KT 10SM SCT028 OVC055 22/14 A2999 RMK AO2 SLP154 T02170144 56006=
202107020153 METAR KPAE 020153Z 00000KT 10SM SCT027 22/14 A2999 RMK AO2 SLP154 T02170144=
202107020053 METAR KPAE 020053Z VRB05KT 10SM OVC044 22/14 A3000 RMK AO2 SLP157 T02220144=
202107020000 SPECI KPAE 020000Z VRB03KT 10SM FEW028 OVC043 21/14 A3001 RMK AO2 T02110139=
202107012353 METAR KPAE 012353Z 30003KT 10SM OVC027 21/14 A3001 RMK AO2 SLP160 T02110144 10211 20183 58002=
202107012253 METAR KPAE 012253Z 29004KT 10SM OVC027 21/14 A3002 RMK AO2 SLP163 T02060139=
202107012153 METAR KPAE 012153Z VRB05KT 10SM OVC027 21/14 A3002 RMK AO2 SLP162 T02060139=
202107012053 METAR KPAE 012053Z VRB05KT 10SM OVC028 21/14 A3002 RMK AO2 SLP162 T02060139 51001=
202107011953 METAR KPAE 011953Z 26007KT 10SM OVC026 19/13 A3002 RMK AO2 SLP162 T01940128=
202107011853 METAR KPAE 011853Z 23007KT 10SM BKN021 BKN031 OVC038 21/13 A3002 RMK AO2 SLP163 T02060133=
202107011753 METAR KPAE 011753Z 23007KT 10SM BKN021 OVC029 18/14 A3001 RMK AO2 SLP161 T01830139 10189 20161 51006=
202107011653 METAR KPAE 011653Z 00000KT 10SM OVC020 18/14 A3001 RMK AO2 SLP161 T01830144=
202107011553 METAR KPAE 011553Z 24003KT 10SM SCT012 BKN025 OVC039 17/14 A3001 RMK AO2 SLP160 T01720139=
202107011453 METAR KPAE 011453Z 22004KT 10SM SCT012 BKN025 OVC039 17/14 A2999 RMK AO2 SLP155 T01670139 53003=
202107011448 SPECI KPAE 011448Z 26004KT 10SM FEW009 BKN014 OVC039 17/14 A2999 RMK AO2=
202107011428 SPECI KPAE 011428Z 00000KT 10SM SCT009 BKN022 OVC043 17/14 A2999 RMK AO2 T01720144=
202107011353 METAR KPAE 011353Z 00000KT 10SM FEW010 SCT022 OVC041 17/15 A2999 RMK AO2 SLP152 T01670150=
202107011253 METAR KPAE 011253Z AUTO 00000KT 10SM FEW007 OVC040 16/15 A2999 RMK AO2 SLP152 T01610150=
202107011246 SPECI KPAE 011246Z AUTO 33003KT 10SM FEW007 OVC040 16/15 A2998 RMK AO2 T01610150=
202107011218 SPECI KPAE 011218Z AUTO 00000KT 10SM SCT028 OVC040 16/15 A2998 RMK AO2 T01610150=
202107011153 METAR KPAE 011153Z AUTO 01003KT 10SM FEW015 BKN028 OVC033 17/15 A2998 RMK AO2 SLP149 T01670150 10183 20167 55001=
202107011144 SPECI KPAE 011144Z AUTO 36004KT 10SM FEW015 SCT026 OVC033 17/15 A2998 RMK AO2 T01670150=
202107011053 METAR KPAE 011053Z AUTO 34003KT 10SM OVC026 17/16 A2997 RMK AO2 SLP146 T01670156=
202107010953 METAR KPAE 010953Z AUTO 34003KT 10SM SCT021 OVC028 17/15 A2998 RMK AO2 SLP149 T01720150=
202107010853 METAR KPAE 010853Z AUTO VRB04KT 10SM OVC028 18/13 A2998 RMK AO2 SLP150 T01780133 50008=
202107010753 METAR KPAE 010753Z AUTO 22003KT 10SM OVC024 18/14 A2999 RMK AO2 SLP152 T01780139 402440161=
202107010653 METAR KPAE 010653Z AUTO 00000KT 10SM OVC027 17/14 A2997 RMK AO2 SLP147 T01720144=
202107010553 METAR KPAE 010553Z AUTO 00000KT 10SM OVC029 17/14 A2996 RMK AO2 SLP142 T01720144 10239 20172 53008=
202107010453 METAR KPAE 010453Z AUTO VRB04KT 10SM OVC029 17/14 A2995 RMK AO2 SLP139 T01720139=
202107010353 METAR KPAE 010353Z 36006KT 10SM OVC029 17/14 A2994 RMK AO2 SLP135 T01720144=
202107010253 METAR KPAE 010253Z VRB04KT 10SM OVC029 18/14 A2993 RMK AO2 SLP134 T01830144 53011=
202107010240 SPECI KPAE 010240Z 01006KT 10SM OVC025 18/14 A2993 RMK AO2 T01830144=
202107010153 METAR KPAE 010153Z 35006KT 10SM OVC033 19/15 A2992 RMK AO2 SLP128 T01890150=
202107010053 METAR KPAE 010053Z 36009KT 10SM SCT036 22/15 A2990 RMK AO2 SLP123 T02170150=

# No short TAF reports from KPAE in databse.

###################################
#  large TAF from KPAE
###################################
202107312320 TAF KPAE 312320Z 0100/0124 30007KT P6SM BKN150 FM010600 VRB04KT
                       P6SM VCSH OVC090 FM012000 30007KT P6SM BKN150=
202107311720 TAF KPAE 311720Z 3118/0118 VRB04KT P6SM BKN120 FM312100 34007KT
                       P6SM VCSH BKN120 FM010900 VRB03KT P6SM BKN120=
202107311120 TAF KPAE 311120Z 3112/0112 01006KT P6SM BKN150 BKN250=
202107310533 TAF KPAE 310533Z 3106/0106 01006KT P6SM SCT150 BKN250=
202107302320 TAF KPAE 302320Z 3100/3124 34012KT P6SM FEW250 FM310400 02007KT
                       P6SM SCT200 FM310800 VRB03KT P6SM BKN150
                       FM311800 33008KT P6SM SCT150=
202107301720 TAF KPAE 301720Z 3018/3118 36008KT P6SM SKC FM310800 VRB04KT P6SM
                       SCT150=
202107301125 TAF KPAE 301125Z 3012/3112 01005KT P6SM SKC FM301900 34008KT P6SM
                       FEW150 FM310900 VRB04KT P6SM BKN200=
202107300526 TAF KPAE 300526Z 3006/3106 36010KT P6SM SKC FM300800 VRB03KT P6SM
                       SKC FM301900 34008KT P6SM FEW150 FM310500
                       VRB04KT P6SM BKN200=
202107292320 TAF KPAE 292320Z 3000/3024 36008KT P6SM SKC FM300600 02004KT P6SM
                       SKC=
202107291720 TAF KPAE 291720Z 2918/3018 33007KT P6SM SKC FM300600 02004KT P6SM
                       SKC=
202107291121 TAF KPAE 291121Z 2912/3012 VRB03KT P6SM SKC FM291900 33007KT P6SM
                       SKC FM300600 02004KT P6SM SKC=
202107290540 TAF KPAE 290540Z 2906/3006 36008KT P6SM FEW250 FM290800 VRB03KT
                       P6SM SCT250 FM291900 33007KT P6SM SCT250=
202107282330 TAF KPAE 282330Z 2900/2924 35007KT P6SM SCT250 FM290600 02002KT
                       P6SM SCT250 FM291900 33007KT P6SM SCT250=
202107281733 TAF KPAE 281733Z 2818/2918 35007KT P6SM SCT250 FM290600 02002KT
                       P6SM SCT250=
202107281130 TAF KPAE 281130Z 2812/2912 03006KT P6SM SCT250 FM281800 32006KT
                       P6SM SCT250 FM290600 03006KT P6SM SCT250=
202107280539 TAF KPAE 280539Z 2806/2906 36006KT P6SM SCT250 FM281800 32006KT
                       P6SM SCT250=
202107272329 TAF KPAE 272329Z 2800/2824 35007KT P6SM SKC FM280600 36003KT P6SM
                       SCT250 FM281900 32005KT P6SM SCT250=
202107271722 TAF KPAE 271722Z 2718/2818 32003KT P6SM BKN015 FM272000 36009KT
                       P6SM SCT250 FM280600 36006KT P6SM SCT250=
202107271133 TAF KPAE 271133Z 2712/2812 01008KT P6SM BKN250 FM271300 VRB03KT
                       6SM BR SCT002 FM271500 VRB03KT P6SM SCT250
                       FM272000 36012KT P6SM SCT250 FM280600 36006KT
                       P6SM SCT250=
202107270537 TAF KPAE 270537Z 2706/2806 01008KT P6SM BKN250 FM271300 VRB03KT
                       4SM BR SCT002 FM271500 VRB03KT P6SM SCT250
                       FM272000 36012KT P6SM SCT250=
202107262325 TAF KPAE 262325Z 2700/2724 35010KT P6SM SKC FM270400 01005KT P6SM
                       SKC FM271500 34002KT P6SM BKN050 FM271800
                       33005KT P6SM SKC=
202107261733 TAF KPAE 261733Z 2618/2718 01003KT P6SM SKC FM261900 33008KT P6SM
                       SKC FM270400 01005KT P6SM SKC FM271500 34002KT
                       P6SM BKN250=
202107261120 TAF KPAE 261120Z 2612/2712 02005KT P6SM SCT007 BKN060
                      TEMPO 2612/2616 OVC006 FM261900 33008KT P6SM
                       SKC FM270400 01005KT P6SM SKC=
202107260520 TAF KPAE 260520Z 2606/2706 35010KT P6SM SKC FM260800 02005KT P6SM
                       SKC
                      TEMPO 2613/2616 FEW015 FM261900 33008KT P6SM
                       SKC=
202107260151 KPAE 260151Z 2602/2624 35012G20KT P6SM SKC FM260600 02005KT P6SM
                       SKC
                      TEMPO 2613/2616 FEW015 FM261900 33008KT P6SM
                       SKC=
202107252320 TAF KPAE 252320Z 2600/2624 35012G20KT P6SM SKC FM260600 02005KT
                       P6SM SKC=
202107251720 TAF KPAE 251720Z 2518/2618 36008KT P6SM SKC FM260600 02005KT P6SM
                       SKC=
202107251120 TAF KPAE 251120Z 2512/2612 02005KT P6SM SKC FM251900 34010KT P6SM
                       SKC FM260600 01005KT P6SM SKC=
202107250520 TAF KPAE 250520Z 2506/2606 02005KT P6SM SKC FM251900 34010KT P6SM
                       SKC=
202107250304 KPAE 250304Z 2503/2524 36008KT P6SM SKC FM250600 02005KT P6SM SKC
                       FM251900 34010KT P6SM SKC=
202107242320 TAF KPAE 242320Z 2500/2524 36012KT P6SM SKC=
202107241724 TAF KPAE 241724Z 2418/2518 36007KT P6SM SKC=
202107241301 KPAE 241301Z 2413/2512 35008KT 1SM BR OVC001
                      TEMPO 2414/2415 4SM BR SCT001 FM241500 35008KT
                       P6SM SKC=
202107241127 TAF KPAE 241127Z 2412/2512 35008KT P6SM SKC=
202107240526 TAF KPAE 240526Z 2406/2506 01004KT P6SM SKC FM241300 01004KT P6SM
                       SCT003 FM241600 33006KT P6SM SKC=
202107232320 TAF KPAE 232320Z 2400/2424 32006KT P6SM SKC FM240200 01004KT P6SM
                       SKC FM241300 02003KT P6SM SCT003 FM241800
                       33006KT P6SM SKC=
202107231720 TAF KPAE 231720Z 2318/2418 32005KT P6SM FEW120 FM240200 01004KT
                       P6SM SKC FM241300 02003KT P6SM SCT003=
202107231141 TAF KPAE 231141Z 2312/2412 35006KT P6SM SKC=
202107230523 TAF KPAE 230523Z 2306/2406 01005KT P6SM SCT250 FM231200 15004KT
                       P6SM SCT080 FM231900 30005KT P6SM SKC=
202107222320 TAF KPAE 222320Z 2300/2324 31005KT P6SM FEW040 SCT250 FM230500
                       01005KT P6SM SCT250 FM231200 15004KT P6SM
                       SCT080 FM231900 30005KT P6SM SKC=
202107221722 TAF KPAE 221722Z 2218/2318 29004KT P6SM FEW020 SCT050 FM222000
                       33006KT P6SM FEW050 SCT250 FM230500 01005KT
                       P6SM SCT250 FM231200 15004KT P6SM SCT080=
202107221128 TAF KPAE 221128Z 2212/2312 34006KT P6SM SCT025 OVC045 FM221800
                       34006KT P6SM SCT050=
202107220533 TAF KPAE 220533Z 2206/2306 36006KT P6SM OVC045 FM221200 VRB03KT
                       P6SM BKN020 OVC050 FM221800 31006KT P6SM
                       SCT050=
202107212322 TAF KPAE 212322Z 2200/2224 35005KT P6SM SCT040 FM220900 02004KT
                       P6SM BKN050 FM221300 VRB03KT P6SM BKN020
                       OVC050 FM221800 31006KT P6SM SCT050=
202107211721 TAF KPAE 211721Z 2118/2218 04004KT P6SM BKN018 OVC035 FM212000
                       27005KT P6SM SCT025 BKN040 FM212200 33007KT
                       P6SM SCT040 FM220900 02004KT P6SM BKN050
                       FM221300 VRB03KT P6SM BKN020 OVC050=
202107211126 TAF KPAE 211126Z 2112/2212 35005KT P6SM OVC025 FM211800 29004KT
                       P6SM BKN035 FM212200 33007KT P6SM SCT040
                       FM220900 02006KT P6SM OVC050=
202107210524 TAF KPAE 210524Z 2106/2206 35006KT P6SM SCT035 FM211100 19004KT
                       P6SM OVC025 FM211800 27004KT P6SM BKN035
                       FM212200 33006KT P6SM SCT040=
202107202323 TAF KPAE 202323Z 2100/2124 VRB04KT P6SM BKN030 FM210300 35006KT
                       P6SM SCT035 FM210900 21004KT P6SM BKN022
                       FM211800 VRB04KT P6SM BKN030 FM212200 33006KT
                       P6SM SCT040=
202107201728 TAF KPAE 201728Z 2018/2118 33005KT 6SM BR OVC009
                      TEMPO 2018/2019 2SM BR OVC005 FM202100 30006KT
                       P6SM OVC020 FM202300 35006KT P6SM SCT030
                       FM211000 02005KT P6SM BKN022=
202107201535 KPAE 201535Z 2016/2112 VRB03KT 6SM BR SCT005 OVC009
                      TEMPO 2016/2018 3SM -DZ BR OVC003 FM201800
                       26005KT P6SM OVC015 FM202200 28008KT P6SM
                       SCT040 FM210000 35009KT P6SM SCT060 FM211000
                       02005KT P6SM BKN025=
202107201333 KPAE 201333Z 2014/2112 06003KT P6SM OVC015 FM201800 26005KT P6SM
                       OVC025 FM202200 28008KT P6SM SCT040 FM210000
                       35009KT P6SM SCT060 FM211000 02005KT P6SM
                       BKN025=
202107201138 TAF KPAE 201138Z 2012/2112 06003KT P6SM OVC009 FM201800 26005KT
                       P6SM OVC025 FM202200 28008KT P6SM SCT040
                       FM210000 35009KT P6SM SCT060 FM211000 02005KT
                       P6SM BKN025=
202107200538 TAF KPAE 200538Z 2006/2106 35008KT P6SM SKC FM201100 VRB04KT P6SM
                       BKN035 FM201400 21004KT P6SM OVC015 FM201800
                       26005KT P6SM OVC025 FM202200 28008KT P6SM
                       SCT040=
202107200249 KPAE 200249Z 2003/2024 35008KT P6SM SKC FM201100 VRB04KT P6SM BKN035
                       FM201400 21004KT P6SM OVC015 FM201800 26005KT
                       P6SM OVC025 FM202200 28008KT P6SM SCT040=
202107192320 TAF KPAE 192320Z 2000/2024 33005KT P6SM SKC FM200200 35008KT P6SM
                       SKC FM201100 VRB04KT P6SM BKN035 FM201400
                       27004KT P6SM OVC030 FM201800 26005KT P6SM
                       BKN045 FM202200 28006KT P6SM SCT040=
202107191738 TAF KPAE 191738Z 1918/2018 VRB02KT P6SM SKC FM191900 31006KT P6SM
                       SKC FM200200 35008KT P6SM SKC FM201100 VRB04KT
                       P6SM SCT035 FM201400 27004KT P6SM BKN030=
202107191120 TAF KPAE 191120Z 1912/2012 VRB02KT P6SM SKC FM191900 31006KT P6SM
                       SKC FM200200 35008KT P6SM SKC FM201100 VRB04KT
                       P6SM SCT030=
202107190539 TAF KPAE 190539Z 1906/2006 35004KT P6SM SCT250 FM190900 VRB02KT
                       P6SM SKC FM191900 31006KT P6SM SKC=
202107190305 KPAE 190305Z 1903/1924 35007KT P6SM SCT250 FM190600 VRB03KT P6SM
                       SKC FM191900 31006KT P6SM SKC=
202107182322 TAF KPAE 182322Z 1900/1924 35007KT P6SM SCT250 FM190500 02003KT
                       P6SM SKC FM191900 31006KT P6SM SKC=
202107181721 TAF KPAE 181721Z 1818/1918 31005KT P6SM SCT250 FM190500 02003KT
                       P6SM SKC=
202107181129 TAF KPAE 181129Z 1812/1912 03004KT P6SM SCT050 FM181900 31005KT
                       P6SM BKN150 FM190000 34006KT P6SM BKN150=
202107180527 TAF KPAE 180527Z 1806/1906 35005KT P6SM SKC FM181900 31005KT P6SM
                       SCT250 FM190000 34006KT P6SM SKC=
202107172321 TAF KPAE 172321Z 1800/1824 35008KT P6SM SKC FM180600 36003KT P6SM
                       SKC FM181900 31005KT P6SM SCT250=
202107171720 TAF KPAE 171720Z 1718/1818 25004KT P6SM SCT018 BKN060
                      TEMPO 1718/1719 BKN018 OVC060 FM172000 31006KT
                       P6SM SCT060 FM172200 34007KT P6SM SKC FM180600
                       36004KT P6SM SKC=
202107171407 KPAE 171407Z 1714/1812 18005KT P6SM SCT025 BKN060
                      TEMPO 1714/1718 BKN025 OVC060 FM171900 31006KT
                       P6SM SCT060 FM172100 34007KT P6SM SKC FM180600
                       36004KT P6SM SKC=
202107171127 TAF KPAE 171127Z 1712/1812 00000KT P6SM SCT040 FM171300 20003KT
                       P6SM OVC025 FM171900 31006KT P6SM SCT040
                       FM172100 34007KT P6SM SKC FM180600 36004KT
                       P6SM SKC=
202107170537 TAF KPAE 170537Z 1706/1806 VRB05KT P6SM SCT030 OVC040 FM170700
                       VRB05KT P6SM BKN040 FM171100 VRB04KT P6SM
                       OVC025 FM172000 30004KT P6SM BKN028 FM172200
                       33007KT P6SM SKC=
202107170304 KPAE 170304Z 1703/1724 VRB05KT P6SM SCT030 OVC040 FM170700 VRB05KT
                       P6SM BKN040 FM171100 VRB04KT P6SM OVC025
                       FM172000 30004KT P6SM BKN028 FM172200 33007KT
                       P6SM SKC=
202107162327 TAF KPAE 162327Z 1700/1724 27005KT P6SM SCT030 SCT040 OVC050 FM170700
                       VRB05KT P6SM SCT020 BKN050 FM171100 14005KT
                       P6SM OVC015 FM172000 30004KT P6SM BKN022
                       FM172200 33007KT P6SM SCT030=
202107161720 TAF KPAE 161720Z 1618/1718 18008KT P6SM OVC010 FM162200 32006KT
                       P6SM SCT020 BKN035 FM171100 VRB03KT P6SM
                       OVC015=
202107161504 KPAE 161504Z 1615/1712 19008KT P6SM OVC010 FM161800 22008KT P6SM
                       OVC013 FM162200 32006KT P6SM SCT020 BKN035
                       FM171100 VRB03KT P6SM OVC015=
202107161127 TAF KPAE 161127Z 1612/1712 VRB03KT P6SM SCT006 BKN015 OVC035 FM161500
                       19006KT P6SM OVC006 FM161800 22008KT P6SM
                       OVC011 FM162200 32006KT P6SM SCT020 BKN035
                       FM171100 VRB03KT P6SM OVC015=
202107160919 KPAE 160919Z 1609/1706 36006KT P6SM OVC004 FM161500 19006KT P6SM
                       OVC006 FM161800 22008KT P6SM OVC011 FM162300
                       32006KT P6SM SCT020 BKN035=
202107160537 TAF KPAE 160537Z 1606/1706 36006KT P6SM SKC FM161100 19006KT P6SM
                       OVC006 FM161800 22008KT P6SM OVC011 FM162300
                       32006KT P6SM SCT020 BKN035=
202107152321 TAF KPAE 152321Z 1600/1624 25008KT P6SM SCT030 FM160100 33006KT
                       P6SM SCT035 FM160800 16006KT P6SM OVC008
                       FM162000 21008KT P6SM BKN025=
202107152158 KPAE 152158Z 1522/1618 25008KT P6SM SCT035
                      TEMPO 1522/1601 BKN035 FM160100 33006KT P6SM
                       BKN035 FM160800 VRB03KT P6SM OVC008=
202107151720 TAF KPAE 151720Z 1518/1618 22006KT P6SM OVC007 FM152100 22008KT
                       P6SM BKN015 FM152200 22008KT P6SM SCT020
                       BKN035 FM160100 33006KT P6SM BKN035 FM160800
                       VRB03KT P6SM OVC008=
202107151124 TAF KPAE 151124Z 1512/1612 22006KT P6SM OVC004 FM151600 22006KT
                       P6SM OVC008 FM152100 22008KT P6SM BKN015
                       FM152200 22008KT P6SM SCT020 BKN035 FM160100
                       33006KT P6SM BKN035 FM160800 VRB03KT P6SM
                       OVC008=
202107150539 TAF KPAE 150539Z 1506/1606 36006KT P6SM SKC FM151100 19006KT P6SM
                       OVC004 FM151600 19006KT P6SM OVC008 FM152100
                       22008KT P6SM BKN015 FM152200 22008KT P6SM
                       SCT020 BKN035=
202107142320 TAF KPAE 142320Z 1500/1524 28006KT P6SM SKC FM150300 35005KT P6SM
                       SKC FM151000 35006KT P6SM OVC006 FM151900
                       21008KT P6SM OVC009 FM152100 22008KT P6SM
                       BKN015 FM152200 22008KT P6SM SKC=
202107141927 KPAE 141927Z 1419/1518 25010KT P6SM SCT005 FM142000 35006KT P6SM
                       SKC FM151000 35006KT P6SM OVC006=
202107141722 TAF KPAE 141722Z 1418/1518 28005KT P6SM OVC009 FM141900 32005KT
                       P6SM BKN011 FM142000 35006KT P6SM SKC FM151000
                       35006KT P6SM OVC006=
202107141512 KPAE 141512Z 1415/1512 VRB03KT 2SM BR OVC002 FM141700 35004KT 4SM
                       BR OVC006 FM141800 35006KT P6SM OVC008 FM142000
                       35006KT P6SM SCT250 FM151000 35006KT P6SM
                       OVC006=
202107141316 KPAE 141316Z 1413/1512 35006KT 3SM BR OVC001 FM141600 35006KT 4SM
                       BR OVC004 FM141800 35006KT P6SM OVC008 FM142000
                       35006KT P6SM SCT250 FM151000 35006KT P6SM
                       OVC006=
202107141132 TAF KPAE 141132Z 1412/1512 35006KT P6SM OVC004 FM141400 35006KT
                       1SM BR OVC002 FM141600 35006KT 4SM BR OVC004
                       FM141800 35006KT P6SM OVC008 FM142000 35006KT
                       P6SM SCT250 FM151000 35006KT P6SM OVC006=
202107140539 TAF KPAE 140539Z 1406/1506 35006KT P6SM SKC FM141300 VRB03KT 1SM
                       BR OVC002 FM141600 VRB03KT 4SM BR OVC004
                       FM141800 VRB03KT P6SM OVC008 FM142000 34006KT
                       P6SM SCT250=
202107140226 KPAE 140226Z 1402/1424 33006KT P6SM SKC FM141200 VRB04KT P6SM SCT007
                       SCT200 FM141400 17004KT P6SM OVC006 FM141800
                       24006KT P6SM SCT008 FM142000 25006KT P6SM
                       SCT200=
202107132320 TAF KPAE 132320Z 1400/1424 25006KT P6SM SKC FM140100 33007KT P6SM
                       SKC FM141200 VRB04KT P6SM SCT250 FM141800
                       28006KT P6SM SKC=
202107131720 TAF KPAE 131720Z 1318/1418 25006KT P6SM SKC FM140000 33007KT P6SM
                       SKC FM141200 VRB04KT P6SM SCT250=
202107131140 TAF KPAE 131140Z 1312/1412 35006KT P6SM SKC
                      TEMPO 1314/1316 SCT002=
202107130536 TAF KPAE 130536Z 1306/1406 35006KT P6SM SKC
                      TEMPO 1314/1316 SCT002=
202107122320 TAF KPAE 122320Z 1300/1324 30008KT P6SM SKC FM130600 02003KT P6SM
                       SKC FM131500 32003KT P6SM SCT007 FM131800
                       29005KT P6SM SKC=
202107121720 TAF KPAE 121720Z 1218/1318 32005KT P6SM SKC FM130000 33005KT P6SM
                       SKC FM130600 01003KT P6SM SKC FM131500 25003KT
                       P6SM SCT007=
202107121556 KPAE 121556Z 1216/1312 36002KT P6SM SCT250 FM121800 33004KT P6SM
                       SCT250 FM122200 30004KT P6SM SKC FM130000
                       33005KT P6SM SKC FM130600 01003KT P6SM SKC=
202107121122 TAF KPAE 121122Z 1212/1312 02005KT P6SM BKN001 FM121400 36002KT
                       P6SM OVC010 FM121800 33004KT P6SM BKN050
                       FM122200 30004KT P6SM SKC FM130000 33005KT
                       P6SM SKC FM130600 01003KT P6SM SKC=
202107120525 TAF KPAE 120525Z 1206/1306 36008KT P6SM SKC FM121000 36002KT P6SM
                       FEW050 FM121400 36002KT P6SM OVC010 FM121800
                       33004KT P6SM BKN050 FM122200 30004KT P6SM
                       SKC FM130000 33005KT P6SM SKC=
202107112326 TAF KPAE 112326Z 1200/1224 33007KT P6SM SKC FM120600 01005KT P6SM
                       SKC FM121000 36002KT P6SM FEW050 FM121400
                       36002KT P6SM OVC010 FM121800 33004KT P6SM
                       BKN050 FM122200 30004KT P6SM SKC=
202107111720 TAF KPAE 111720Z 1118/1218 00000KT P6SM SKC FM112000 31005KT P6SM
                       SKC FM120600 01005KT P6SM SKC FM121000 36002KT
                       P6SM FEW050=
202107111454 KPAE 111454Z 1115/1212 36005KT P6SM SKC FM112000 31005KT P6SM SKC
                       FM120600 01005KT P6SM SKC=
202107111120 TAF KPAE 111120Z 1112/1212 03004KT P6SM SKC FM111500 35003KT P6SM
                       FEW200 FM112000 31005KT P6SM SKC FM120600
                       01005KT P6SM SKC=
202107110520 TAF KPAE 110520Z 1106/1206 01010KT P6SM SKC FM111500 35003KT P6SM
                       FEW200 FM112000 31005KT P6SM SKC=
202107102320 TAF KPAE 102320Z 1100/1124 36009KT P6SM SKC FM110600 01005KT P6SM
                       SKC FM111500 35003KT P6SM FEW200 FM112000
                       31005KT P6SM SKC=
202107101725 TAF KPAE 101725Z 1018/1118 VRB04KT P6SM SKC FM102000 32006KT P6SM
                       SKC FM110000 34007KT P6SM BKN250 FM110600
                       01005KT P6SM SKC FM111500 35003KT P6SM FEW200=
202107101409 KPAE 101409Z 1014/1112 01006KT 1/4SM FG VV001 FM101600 28003KT
                       P6SM SKC FM110000 34007KT P6SM BKN250 FM110600
                       01005KT P6SM SKC=
202107101154 KPAE 101154Z 1012/1112 01003KT 1 1/2SM BR OVC001
                      TEMPO 1013/1014 SCT005 FM101500 28003KT P6SM
                       SKC FM110000 34007KT P6SM BKN250 FM110600
                       01005KT P6SM SKC=
202107101123 TAF KPAE 101123Z 1012/1112 02003KT P6SM SCT003
                      TEMPO 1012/1014 SCT005 FM101500 28003KT P6SM
                       SKC FM110000 34007KT P6SM BKN250 FM110600
                       01005KT P6SM SKC=
202107100522 TAF KPAE 100522Z 1006/1106 01006KT P6SM SKC FM100900 35003KT P6SM
                       SKC FM110000 34007KT P6SM BKN250=
202107092326 TAF KPAE 092326Z 1000/1024 33006KT P6SM SKC=
202107091740 TAF KPAE 091740Z 0918/1018 33006KT P6SM SKC=
202107091436 KPAE 091436Z 0915/1012 36006KT 1SM BR OVC001 FM091600 36006KT 2SM
                       BR BKN003 FM091700 36006KT P6SM SCT250=
202107091121 TAF KPAE 091121Z 0912/1012 36006KT P6SM OVC050
                      TEMPO 0913/0916 6SM BR SCT006 FM091700 33002KT
                       P6SM SKC FM100000 34006KT P6SM BKN250=
202107090522 TAF KPAE 090522Z 0906/1006 36006KT P6SM SKC
                      TEMPO 0913/0916 6SM BR SCT006 FM091700 33002KT
                       P6SM SKC FM100000 34006KT P6SM BKN250=
202107082340 TAF KPAE 082340Z 0900/0924 24008KT P6SM SKC FM090400 33006KT P6SM
                       SKC
                      TEMPO 0913/0916 6SM BR SCT006=
202107081721 TAF KPAE 081721Z 0818/0918 VRB03KT P6SM SCT008 OVC022 FM082000
                       VRB03KT P6SM SCT250 FM090000 34006KT P6SM
                       SKC=
202107081506 KPAE 081506Z 0815/0912 VRB03KT P6SM SCT008 OVC022 FM081900 30005KT
                       P6SM SCT250 FM090000 34006KT P6SM SKC FM090600
                       01002KT P6SM FEW250=
202107081121 TAF KPAE 081121Z 0812/0912 VRB04KT P6SM OVC009 FM081400 33003KT
                       P6SM OVC009 FM081900 30005KT P6SM SCT250
                       FM090000 34006KT P6SM SKC FM090600 01002KT
                       P6SM FEW250=
202107080909 KPAE 080909Z 0809/0906 VRB04KT P6SM BKN010 OVC035 FM081200 VRB04KT
                       P6SM OVC015 FM081400 33003KT P6SM OVC009
                       FM081900 30005KT P6SM SCT250 FM090000 34006KT
                       P6SM SKC=
202107080521 TAF KPAE 080521Z 0806/0906 36006KT P6SM SCT070 FM081200 VRB04KT
                       P6SM OVC015 FM081900 30005KT P6SM SCT250
                       FM090000 34006KT P6SM SKC=
202107072339 TAF KPAE 072339Z 0800/0824 19012G18KT P6SM BKN030 FM080200 36005KT
                       P6SM SCT030 FM081200 VRB04KT P6SM OVC015
                       FM081900 30005KT P6SM SCT250=
202107071736 TAF KPAE 071736Z 0718/0818 20010KT P6SM OVC011 FM072000 24010KT
                       P6SM BKN015 FM080100 36005KT P6SM SCT015
                       FM080800 03005KT P6SM BKN012=
202107071224 KPAE 071224Z 0712/0812 20004KT P6SM BKN003 FM071500 23008KT P6SM
                       OVC003 FM072000 24010KT P6SM SCT010 FM072200
                       25008KT P6SM SKC FM080300 36005KT P6SM SKC=
202107071124 TAF KPAE 071124Z 0712/0812 19004KT P6SM SKC FM071500 23008KT 1SM
                       BR OVC005 FM072000 24010KT P6SM SCT010 FM072200
                       25008KT P6SM SKC FM080300 36005KT P6SM SKC=
202107070858 KPAE 070858Z 0709/0806 02003KT P6SM SKC FM071100 21008KT 3/4SM
                       BR OVC002
                      TEMPO 0712/0715 1/4SM FG OVC001 FM071800
                       23008KT 1SM BR OVC005 FM072000 24010KT P6SM
                       SCT010 FM072200 25008KT P6SM SKC FM080300
                       36005KT P6SM SKC=
202107070524 TAF KPAE 070524Z 0706/0806 36003KT P6SM SKC FM070900 17007KT P6SM
                       BKN005 FM071100 21008KT 3/4SM BR OVC002
                       TEMPO 0712/0715 1/4SM FG OVC001 FM071800
                       23008KT 1SM BR OVC005 FM072000 24010KT P6SM
                       SCT010 FM072200 25008KT P6SM SKC FM080300
                       36005KT P6SM SKC=
202107062320 TAF KPAE 062320Z 0700/0724 32006KT P6SM SKC FM070900 17007KT P6SM
                       BKN005 FM071100 21008KT 3/4SM BR OVC002
                       TEMPO 0712/0715 1/4SM FG OVC001 FM071800
                       23008KT 1SM BR OVC005 FM072000 24010KT P6SM
                       SCT010 FM072200 25008KT P6SM SKC=
202107061821 KPAE 061821Z 0618/0718 VRB04KT P6SM SCT005 FM062000 32006KT P6SM
                       SKC FM070900 17007KT P6SM BKN005 FM071100
                       21008KT 3/4SM BR OVC002
                      TEMPO 0712/0715 1/4SM FG OVC001=
202107061756 TAF KPAE 061756Z 0618/0718 VRB04KT 2SM BR OVC003 FM061900 33005KT
                       P6SM SCT005 FM062000 32006KT P6SM SKC FM070900
                       17007KT P6SM BKN005 FM071100 21008KT 3/4SM
                       BR OVC002
                      TEMPO 0712/0715 1/4SM FG OVC001=
202107061125 TAF KPAE 061125Z 0612/0712 35004KT 1/4SM FG VV001 FM061800 33005KT
                       P6SM BKN008 FM062000 32006KT P6SM SKC FM071000
                       17007KT P6SM OVC020=
202107061040 KPAE 061040Z 0611/0706 35004KT 1/4SM FG VV001 FM061800 33005KT
                       P6SM FEW008 FM062000 32006KT P6SM SKC=
202107060520 TAF KPAE 060520Z 0606/0706 01007KT P6SM SKC FM061300 36003KT 6SM
                       BR BKN005 FM061800 33005KT P6SM FEW008 FM062000
                       32006KT P6SM SKC=
202107052323 TAF KPAE 052323Z 0600/0624 26008KT P6SM SCT200 FM060300 33005KT
                       P6SM SCT200 FM061300 36003KT 6SM BR BKN005
                       FM061800 33005KT P6SM FEW008 FM062000 32006KT
                       P6SM SKC=
202107051726 TAF KPAE 051726Z 0518/0618 25005KT P6SM OVC007 FM051900 23006KT
                       P6SM BKN010
                      TEMPO 0520/0521 SCT012 FM052100 26006KT P6SM
                       FEW015 SCT200 FM060300 36003KT P6SM SCT200
                       FM061200 36004KT 6SM BR BKN005=
202107051457 KPAE 051457Z 0515/0612 25005KT P6SM OVC007 FM051900 23006KT P6SM
                       BKN010
                      TEMPO 0520/0521 SCT012 FM052100 23006KT P6SM
                       FEW015 SCT200 FM060000 28006KT P6SM BKN250
                       FM060500 36003KT P6SM BKN250=
202107051120 TAF KPAE 051120Z 0512/0612 VRB04KT P6SM OVC003 FM052100 23006KT
                       P6SM SCT015 FM060000 28006KT P6SM BKN250
                       FM060500 36003KT P6SM BKN250=
202107050856 KPAE 050856Z 0509/0606 35003KT P6SM BKN003 FM051100 24004KT P6SM
                       OVC009 FM052100 23006KT P6SM SCT015 FM060000
                       28006KT P6SM BKN250=
202107050520 TAF KPAE 050520Z 0506/0606 36009KT P6SM SKC FM051100 24004KT P6SM
                       OVC009 FM052100 23006KT P6SM SCT015 FM060000
                       28006KT P6SM BKN250=
202107042325 TAF KPAE 042325Z 0500/0524 26007KT P6SM SCT200 FM050200 33005KT
                       P6SM SCT200 FM051100 24004KT P6SM OVC009
                       FM052100 23006KT P6SM SCT015=
202107041721 TAF KPAE 041721Z 0418/0518 25006KT P6SM SCT012
                      TEMPO 0418/0419 BKN009 FM042000 24004KT P6SM
                       FEW020 SCT200 FM050100 32005KT P6SM SCT200
                       FM051000 21004KT P6SM OVC009=
202107041638 KPAE 041638Z 0417/0512 22005KT P6SM BKN006 FM042000 24004KT P6SM
                       SCT010 FM042200 24006KT P6SM SCT020 SCT200
                       FM050300 30005KT P6SM SCT200=
202107041417 KPAE 041417Z 0414/0512 21005KT P6SM BKN005 FM041700 24004KT P6SM
                       SCT010 FM042000 24006KT P6SM SCT020 SCT200
                       FM050300 30005KT P6SM SCT200=
202107041305 KPAE 041305Z 0413/0512 00000KT P6SM SKC FM041600 24004KT P6SM SCT010
                       FM042000 24006KT P6SM SCT020 SCT200 FM050300
                       30005KT P6SM SCT200=
202107041125 TAF KPAE 041125Z 0412/0512 00000KT 6SM BR BKN002
                      TEMPO 0412/0414 2SM BR FM041600 24004KT P6SM
                       SCT010 FM042000 24006KT P6SM SCT020 SCT200
                       FM050300 30005KT P6SM SCT200=
202107040520 TAF KPAE 040520Z 0406/0506 35003KT P6SM SKC FM041200 VRB03KT 6SM
                       BR OVC005 FM042000 24006KT P6SM SCT020 SCT200
                       FM050300 30005KT P6SM SCT200=
202107032322 TAF KPAE 032322Z 0400/0424 30006KT P6SM SKC FM041200 VRB03KT 6SM
                       BR OVC005 FM042000 24006KT P6SM SCT020 SCT200=
202107031730 TAF KPAE 031730Z 0318/0418 26005KT P6SM SKC FM032300 35006KT P6SM
                       SKC FM041200 VRB03KT 6SM BR OVC005=
202107031355 KPAE 031355Z 0314/0412 34004KT P6SM SCT001 FM031800 26005KT P6SM
                       SCT030 FM032100 28006KT P6SM SKC=
202107031306 KPAE 031306Z 0313/0412 02005KT P6SM BKN001
                      TEMPO 0313/0316 1/4SM FG OVC001 FM031600
                       VRB03KT P6SM BKN006 FM031800 26005KT P6SM
                       SCT015 FM032100 28006KT P6SM SKC=
202107031123 TAF KPAE 031123Z 0312/0412 02005KT P6SM SKC
                      TEMPO 0312/0314 SCT006 FM031400 VRB03KT P6SM
                       BKN006 FM031800 26005KT P6SM SCT015 FM032100
                       28006KT P6SM SKC=
202107030520 TAF KPAE 030520Z 0306/0406 02005KT P6SM SKC FM031100 VRB03KT P6SM
                       BKN010 FM031700 26005KT P6SM SCT015 FM032100
                       28006KT P6SM SKC=
202107022324 TAF KPAE 022324Z 0300/0324 VRB05KT P6SM FEW040 FM031100 VRB03KT
                       P6SM BKN010 FM031700 26005KT P6SM SCT015
                       FM032100 28006KT P6SM SKC=
202107021720 TAF KPAE 021720Z 0218/0318 29004KT P6SM BKN022 OVC060
                      TEMPO 0218/0221 SCT030 BKN060 FM022100 31006KT
                       P6SM SCT035 SCT070 FM030300 36005KT P6SM
                       SCT040 FM031200 VRB03KT P6SM SCT005=
202107021124 TAF KPAE 021124Z 0212/0312 VRB04KT P6SM OVC029 FM022000 31006KT
                       P6SM SCT035 FM030300 36005KT P6SM SCT040=
202107020520 TAF KPAE 020520Z 0206/0306 36005KT P6SM FEW027 OVC045 FM020800
                       VRB04KT P6SM OVC025 FM021200 VRB03KT P6SM
                       OVC017 FM022100 31005KT P6SM SCT025=
202107012320 TAF KPAE 012320Z 0200/0224 29005KT P6SM BKN030 FM020200 33005KT
                       P6SM BKN035 FM020800 VRB04KT P6SM OVC025
                       FM021200 VRB03KT P6SM OVC017 FM022100 31005KT
                       P6SM SCT025=
202107011732 TAF KPAE 011732Z 0118/0218 21005KT P6SM BKN022 OVC040 FM012100
                       25005KT P6SM BKN035 FM020100 33005KT P6SM
                       SCT040 FM020800 VRB04KT P6SM OVC025 FM021200
                       VRB03KT P6SM OVC017=
202107011316 KPAE 011316Z 0113/0212 21005KT P6SM FEW007 SCT025 OVC040 FM012100
                       26006KT P6SM BKN035 FM020600 VRB04KT P6SM
                       OVC025=
202107011120 TAF KPAE 011120Z 0112/0212 34003KT P6SM OVC025 FM011300 21005KT
                       P6SM OVC015 FM012100 26006KT P6SM BKN030
                       FM020600 VRB04KT P6SM OVC025=
202107010520 TAF KPAE 010520Z 0106/0206 VRB04KT P6SM OVC029 FM011100 02005KT
                       P6SM OVC015 FM011600 21005KT P6SM OVC015
                       FM012300 26006KT P6SM SCT025=