##########################################################
# Query made at 02/15/2025 22:47:31 UTC
# Time interval: from 09/01/2022 00:00  to 09/30/2022 23:59  UTC
##########################################################

##########################################################
# KPAE, Everett, Snohomish County Airport (United States)
# WMO index: -----. WIGOS ID: Unknown
# Latitude 47-55-23N. Longitude 122-16-57W. Altitude 184 m.
##########################################################

###################################
#  METAR/SPECI from KPAE
###################################
202209302353 METAR KPAE 302353Z 34007KT 10SM CLR 19/11 A3012 RMK AO2 SLP198 T01890111 10194 20122 56016=
202209302253 METAR KPAE 302253Z 36008KT 10SM CLR 19/11 A3013 RMK AO2 SLP202 T01890106=
202209302153 METAR KPAE 302153Z 36007KT 10SM CLR 18/11 A3015 RMK AO2 SLP207 T01830106=
202209302053 METAR KPAE 302053Z 36005KT 10SM CLR 17/10 A3017 RMK AO2 SLP215 T01720100 58020=
202209301953 METAR KPAE 301953Z VRB04KT 10SM FEW006 17/11 A3019 RMK AO2 SLP222 T01670106=
202209301930 SPECI KPAE 301930Z VRB03KT 10SM FEW006 15/11 A3020 RMK AO2 T01500106=
202209301855 SPECI KPAE 301855Z 00000KT 10SM OVC005 13/11 A3021 RMK AO2 T01280106=
202209301853 METAR KPAE 301853Z 00000KT 2SM BR OVC003 13/11 A3021 RMK AO2 SLP231 T01280106=
202209301757 SPECI KPAE 301757Z 02005KT 2SM BR OVC003 12/10 A3023 RMK AO2 T01220100=
202209301753 METAR KPAE 301753Z VRB04KT 10SM OVC003 12/10 A3023 RMK AO2 SLP236 T01220100 10122 20117 56003=
202209301733 SPECI KPAE 301733Z 36004KT 3SM R16R/2400VP6000FT BR OVC001 12/11 A3023 RMK AO2 T01170106=
202209301727 SPECI KPAE 301727Z 35004KT 1 3/4SM R16R/2400VP6000FT BR OVC001 12/11 A3023 RMK AO2 VIS 1V3 T01170106=
202209301717 SPECI KPAE 301717Z 36006KT 3/4SM R16R/1400V2400FT BR VV001 12/11 A3023 RMK AO2 T01170106=
202209301653 METAR KPAE 301653Z 35003KT 1/4SM R16R/1000V1800FT FG VV001 12/11 A3023 RMK AO2 SLP237 T01220106=
202209301637 SPECI KPAE 301637Z VRB03KT 1/4SM R16R/1400V2800FT FG VV001 12/11 A3023 RMK AO2 T01220111=
202209301626 SPECI KPAE 301626Z VRB03KT 1/2SM R16R/1800VP6000FT FG VV001 12/11 A3023 RMK AO2 T01220111=
202209301604 SPECI KPAE 301604Z 35004KT 3/4SM R16R/1000V2200FT BR VV001 12/11 A3023 RMK AO2 T01220111=
202209301553 METAR KPAE 301553Z 35003KT 1/4SM R16R/0800V1200FT FG VV001 12/11 A3024 RMK AO2 SLP239 T01220106=
202209301539 SPECI KPAE 301539Z 00000KT 1/4SM R16R/1200V1400FT FG VV001 12/11 A3024 RMK AO2 T01220111=
202209301520 SPECI KPAE 301520Z VRB03KT 1/4SM R16R/1400V2400FT FG VV001 12/11 A3024 RMK AO2 T01220111=
202209301511 SPECI KPAE 301511Z VRB03KT 1/2SM R16R/1400V2200FT FG VV001 12/11 A3024 RMK AO2 T01170111=
202209301453 METAR KPAE 301453Z VRB03KT 1/4SM R16R/2000V3500FT FG VV001 12/11 A3024 RMK AO2 SLP240 T01170106 51000=
202209301353 METAR KPAE 301353Z 34007KT 1/4SM R16R/1400V2200FT FG VV001 12/11 A3024 RMK AO2 SLP242 T01170106=
202209301330 SPECI KPAE 301330Z AUTO 35006KT 1/4SM R16R/1200V1400FT FG VV001 12/11 A3024 RMK AO2 T01170106=
202209301318 SPECI KPAE 301318Z AUTO 35004KT 1/4SM R16R/1800V2600FT FG VV001 12/11 A3024 RMK AO2 T01170106=
202209301312 SPECI KPAE 301312Z AUTO 35003KT 1/2SM R16R/1600V2200FT FG VV001 12/11 A3024 RMK AO2 T01170106=
202209301253 METAR KPAE 301253Z AUTO 35005KT 1/4SM R16R/1200V1400FT FG VV001 12/11 A3024 RMK AO2 SLP239 T01220106=
202209301234 SPECI KPAE 301234Z AUTO 35004KT 1/2SM R16R/1200V1600FT FG VV001 12/11 A3024 RMK AO2 T01220106=
202209301215 SPECI KPAE 301215Z AUTO 35005KT 3/4SM R16R/2000V5000FT BR VV001 12/11 A3024 RMK AO2 T01220106=
202209301206 SPECI KPAE 301206Z AUTO 01005KT 1 3/4SM R16R/4500VP6000FT BR OVC002 12/11 A3024 RMK AO2 T01220106=
202209301153 METAR KPAE 301153Z AUTO 36004KT 10SM OVC002 12/11 A3024 RMK AO2 SLP239 T01220111 10128 20122 50002=
202209301053 METAR KPAE 301053Z AUTO 02003KT 10SM OVC003 13/11 A3024 RMK AO2 CIG 003V007 SLP239 T01280111=
202209300953 METAR KPAE 300953Z AUTO 35005KT 10SM OVC003 13/11 A3024 RMK AO2 SLP238 T01280106=
202209300853 METAR KPAE 300853Z AUTO 01007KT 10SM OVC004 13/11 A3023 RMK AO2 SLP236 T01280111 55000=
202209300846 SPECI KPAE 300846Z AUTO 36005KT 10SM OVC004 13/11 A3023 RMK AO2 T01280106=
202209300753 METAR KPAE 300753Z AUTO 36008G16KT 10SM BKN006 13/11 A3023 RMK AO2 SLP234 T01280106 402000122=
202209300750 SPECI KPAE 300750Z AUTO 36008G16KT 10SM BKN006 13/11 A3023 RMK AO2=
202209300741 SPECI KPAE 300741Z AUTO 36006KT 10SM SCT006 BKN055 13/11 A3022 RMK AO2 T01280106=
202209300653 METAR KPAE 300653Z AUTO 02005KT 10SM OVC055 13/11 A3023 RMK AO2 SLP236 T01280106=
202209300553 METAR KPAE 300553Z AUTO 36005KT 10SM CLR 13/11 A3023 RMK AO2 SLP236 T01280106 10194 20128 51006=
202209300453 METAR KPAE 300453Z 35004KT 10SM CLR 13/11 A3023 RMK AO2 SLP235 T01330106=
202209300353 METAR KPAE 300353Z 03007KT 10SM CLR 14/11 A3021 RMK AO2 SLP231 T01390106=
202209300253 METAR KPAE 300253Z 02007KT 10SM CLR 14/11 A3021 RMK AO2 SLP229 T01440106 53005=
202209300153 METAR KPAE 300153Z 30005KT 10SM OVC055 17/11 A3020 RMK AO2 SLP226 T01720106=
202209300053 METAR KPAE 300053Z 25004KT 10SM CLR 18/11 A3019 RMK AO2 SLP223 T01780111=
202209292353 METAR KPAE 292353Z 29006KT 10SM CLR 19/11 A3019 RMK AO2 SLP223 T01890111 10200 20156 53004=
202209292253 METAR KPAE 292253Z 01007KT 10SM CLR 20/11 A3019 RMK AO2 SLP222 T02000106=
202209292153 METAR KPAE 292153Z 36006KT 10SM CLR 19/11 A3018 RMK AO2 SLP219 T01940106=
202209292053 METAR KPAE 292053Z 02006KT 10SM FEW090 19/11 A3018 RMK AO2 SLP219 T01890111 51003=
202209291953 METAR KPAE 291953Z 35006KT 10SM FEW038 18/12 A3018 RMK AO2 SLP219 T01780117=
202209291900 SPECI KPAE 291900Z 36009KT 10SM FEW014 BKN033 18/12 A3018 RMK AO2 T01780117=
202209291853 METAR KPAE 291853Z 35006KT 10SM BKN014 OVC030 17/12 A3018 RMK AO2 SLP217 T01720117=
202209291842 SPECI KPAE 291842Z 35008KT 10SM BKN014 OVC030 17/12 A3018 RMK AO2 T01720117=
202209291818 SPECI KPAE 291818Z 34007KT 10SM FEW007 FEW012 BKN030 17/12 A3017 RMK AO2 T01720117=
202209291806 SPECI KPAE 291806Z 35007KT 310V020 10SM FEW007 BKN012 17/12 A3017 RMK AO2 T01670117=
202209291753 METAR KPAE 291753Z 34004KT 10SM SCT007 16/12 A3017 RMK AO2 SLP216 T01560117 10161 20122 53013=
202209291658 SPECI KPAE 291658Z 00000KT 5SM BR FEW001 OVC039 13/12 A3016 RMK AO2 T01330117=
202209291653 METAR KPAE 291653Z 00000KT 3/4SM R16R/P6000FT BR OVC001 13/12 A3016 RMK AO2 SLP212 T01330117=
202209291619 SPECI KPAE 291619Z 30005KT M1/4SM R16R/1400VP6000FT FG VV001 13/12 A3015 RMK AO2 T01280117=
202209291559 SPECI KPAE 291559Z 34004KT M1/4SM R16R/0700V1200FT FG VV001 13/11 A3014 RMK AO2 T01280111=
202209291553 METAR KPAE 291553Z 32003KT 1/2SM R16R/0700V1400FT FG VV001 12/11 A3014 RMK AO2 SLP205 T01220111=
202209291548 SPECI KPAE 291548Z VRB03KT 1/2SM R16R/1000V1600FT FG VV001 13/11 A3013 RMK AO2=
202209291536 SPECI KPAE 291536Z 36003KT 1/2SM R16R/1000VP6000FT FG OVC001 13/11 A3013 RMK AO2 T01280111=
202209291527 SPECI KPAE 291527Z 36004KT 1 3/4SM BR BKN003 13/11 A3013 RMK AO2 T01280111=
202209291522 SPECI KPAE 291522Z 36005KT 9SM BKN003 13/11 A3013 RMK AO2 T01280111=
202209291513 SPECI KPAE 291513Z 35003KT 10SM SCT004 13/11 A3013 RMK AO2 T01280111=
202209291453 METAR KPAE 291453Z VRB04KT 10SM CLR 13/11 A3012 RMK AO2 SLP199 T01280111 51016=
202209291353 METAR KPAE 291353Z 00000KT 10SM CLR 13/11 A3010 RMK AO2 SLP193 T01280106=
202209291253 METAR KPAE 291253Z AUTO 35005KT 10SM FEW031 13/11 A3009 RMK AO2 SLP189 T01280111=
202209291153 METAR KPAE 291153Z AUTO 35003KT 10SM CLR 13/11 A3007 RMK AO2 SLP182 70001 T01330111 10150 20128 53006=
202209291053 METAR KPAE 291053Z AUTO 35003KT 10SM CLR 13/11 A3007 RMK AO2 SLP181 T01330111=
202209290953 METAR KPAE 290953Z AUTO 00000KT 10SM CLR 14/11 A3006 RMK AO2 SLP176 T01390111=
202209290853 METAR KPAE 290853Z AUTO 18003KT 10SM FEW055 SCT120 14/11 A3005 RMK AO2 SLP176 T01390111 53004=
202209290753 METAR KPAE 290753Z AUTO 00000KT 10SM SCT060 BKN110 14/11 A3004 RMK AO2 SLP173 T01440111 401890128=
202209290653 METAR KPAE 290653Z AUTO 00000KT 10SM BKN050 OVC060 15/11 A3005 RMK AO2 SLP173 T01500111=
202209290553 METAR KPAE 290553Z AUTO 00000KT 10SM FEW075 FEW095 14/11 A3004 RMK AO2 SLP172 T01440111 10189 20144 50004=
202209290453 METAR KPAE 290453Z 17004KT 10SM CLR 16/12 A3005 RMK AO2 SLP175 T01560117=
202209290353 METAR KPAE 290353Z 00000KT 10SM CLR 16/12 A3004 RMK AO2 SLP171 T01610117=
202209290253 METAR KPAE 290253Z 00000KT 10SM SCT029 BKN041 BKN047 17/12 A3003 RMK AO2 SLP168 T01670122 53010=
202209290153 METAR KPAE 290153Z 19003KT 10SM CLR 17/11 A3002 RMK AO2 SLP165 T01670111=
202209290053 METAR KPAE 290053Z 16007KT 10SM SCT020 BKN035 18/12 A3000 RMK AO2 SLP158 T01830122=
202209282357 SPECI KPAE 282357Z 15010KT 10SM SCT020 BKN035 18/12 A3000 RMK AO2 T01830122=
202209282353 METAR KPAE 282353Z 15010KT 10SM BKN020 BKN035 18/12 A3000 RMK AO2 RAB05E14 SLP158 P0000 60001 T01830122 10183 20156 53001=
202209282340 SPECI KPAE 282340Z 15007KT 10SM OVC020 18/12 A3000 RMK AO2 RAB05E14 P0000 T01830122=
202209282253 METAR KPAE 282253Z VRB05KT 10SM SCT055 OVC080 17/12 A2999 RMK AO2 RAB27E36 SLP155 P0000 T01720122=
202209282153 METAR KPAE 282153Z 15009G17KT 10SM SCT010 BKN095 BKN120 17/12 A2999 RMK AO2 SLP156 T01720122=
202209282053 METAR KPAE 282053Z 18009KT 10SM BKN100 BKN120 17/12 A3000 RMK AO2 RAB1957E42 SLP156 P0000 60001 T01670122 50004=
202209281953 METAR KPAE 281953Z 18010KT 10SM OVC100 16/12 A3000 RMK AO2 RAE04B27E52 SLP157 P0001 T01610117=
202209281853 METAR KPAE 281853Z 19011KT 10SM -RA FEW030 BKN090 OVC110 16/12 A3000 RMK AO2 RAB00 SLP156 P0000 T01560117=
202209281753 METAR KPAE 281753Z 20007KT 10SM SCT110 16/11 A2999 RMK AO2 RAB05E52 SLP153 P0000 60000 T01560111 10156 20128 53002=
202209281653 METAR KPAE 281653Z 20005KT 10SM FEW100 SCT120 16/11 A2997 RMK AO2 SLP149 T01560106=
202209281553 METAR KPAE 281553Z 10009KT 10SM SCT110 14/11 A2994 RMK AO2 SLP139 T01440106=
202209281453 METAR KPAE 281453Z 16006KT 10SM CLR 13/11 A2998 RMK AO2 SLP150 T01330106 53014=
202209281353 METAR KPAE 281353Z 15009KT 10SM FU FEW010 SCT120 13/11 A2996 RMK AO2 SLP143 T01330106=
202209281253 METAR KPAE 281253Z AUTO 16008KT 10SM FU CLR 13/10 A2995 RMK AO2 SLP138 T01280100=
202209281153 METAR KPAE 281153Z AUTO 15008KT 10SM FU CLR 13/11 A2994 RMK AO2 SLP135 T01280106 10150 20128 53001=
202209281102 SPECI KPAE 281102Z AUTO 19007KT 10SM FU SCT006 13/11 A2993 RMK AO2 T01280106=
202209281053 METAR KPAE 281053Z AUTO 19010KT 10SM FU BKN006 13/11 A2993 RMK AO2 SLP132 T01280106=
202209281022 SPECI KPAE 281022Z AUTO 18011KT 10SM FU BKN007 13/11 A2993 RMK AO2 T01280106=
202209280953 METAR KPAE 280953Z AUTO 18009KT 10SM FU FEW007 13/11 A2993 RMK AO2 SLP133 T01280106=
202209280944 SPECI KPAE 280944Z AUTO 18008KT 10SM FU FEW007 13/11 A2993 RMK AO2 T01330106=
202209280937 SPECI KPAE 280937Z AUTO 18007KT 10SM FU BKN007 13/11 A2993 RMK AO2 T01330106=
202209280853 METAR KPAE 280853Z AUTO 15006KT 10SM FU SCT009 13/11 A2993 RMK AO2 SLP134 T01330106 50002=
202209280846 SPECI KPAE 280846Z AUTO 19005KT 10SM FU BKN009 13/11 A2993 RMK AO2 T01330106=
202209280833 SPECI KPAE 280833Z AUTO 18008KT 10SM FU BKN010 13/11 A2994 RMK AO2 T01330106=
202209280753 METAR KPAE 280753Z AUTO 18007KT 10SM FU CLR 14/11 A2994 RMK AO2 SLP137 T01390106 402500122=
202209280653 METAR KPAE 280653Z AUTO 19005KT 10SM FU CLR 14/11 A2993 RMK AO2 SLP133 T01440106=
202209280553 METAR KPAE 280553Z AUTO 00000KT 10SM FU CLR 15/09 A2993 RMK AO2 SLP132 T01500094 10233 20144 51009=
202209280453 METAR KPAE 280453Z AUTO 01004KT 10SM FU CLR 15/10 A2992 RMK AO2 SLP131 T01500100=
202209280353 METAR KPAE 280353Z AUTO 36005KT 10SM FU CLR 16/11 A2991 RMK AO2 SLP128 T01560106=
202209280253 METAR KPAE 280253Z 36004KT 10SM FU CLR 17/11 A2990 RMK AO2 SLP124 T01670106 53011=
202209280153 METAR KPAE 280153Z 16008KT 10SM FU CLR 23/11 A2988 RMK AO2 SLP116 T02330111=
202209280053 METAR KPAE 280053Z VRB04KT 10SM FU CLR 23/12 A2987 RMK AO2 SLP113 T02280117=
202209272353 METAR KPAE 272353Z 28003KT 10SM FU CLR 22/11 A2987 RMK AO2 SLP111 T02220111 10250 20200 58004=
202209272253 METAR KPAE 272253Z 29005KT 10SM FU CLR 23/12 A2987 RMK AO2 SLP113 T02330117=
202209272153 METAR KPAE 272153Z 27008KT 10SM FU CLR 24/12 A2988 RMK AO2 SLP115 T02390117=
202209272053 METAR KPAE 272053Z 28006KT 10SM FU CLR 22/11 A2988 RMK AO2 SLP116 T02220106 56004=
202209271953 METAR KPAE 271953Z 27005KT 10SM FU CLR 22/11 A2988 RMK AO2 SLP117 T02170106=
202209271853 METAR KPAE 271853Z 00000KT 10SM FU CLR 22/10 A2989 RMK AO2 SLP118 T02170100=
202209271753 METAR KPAE 271753Z 00000KT 10SM FU CLR 20/11 A2989 RMK AO2 SLP120 T02000106 10200 20122 58003=
202209271653 METAR KPAE 271653Z 02003KT 10SM FU CLR 18/10 A2990 RMK AO2 SLP121 T01780100=
202209271553 METAR KPAE 271553Z 00000KT 10SM FU CLR 16/11 A2990 RMK AO2 SLP122 T01610106=
202209271453 METAR KPAE 271453Z 00000KT 10SM FU CLR 13/11 A2990 RMK AO2 SLP124 T01280106 56004=
202209271353 METAR KPAE 271353Z 00000KT 10SM FU CLR 12/11 A2991 RMK AO2 SLP124 T01220106=
202209271253 METAR KPAE 271253Z AUTO 01006KT 10SM FU CLR 13/11 A2991 RMK AO2 SLP125 T01280106=
202209271153 METAR KPAE 271153Z AUTO 36005KT 10SM FU CLR 13/10 A2991 RMK AO2 SLP127 T01330100 10178 20128 56004=
202209271053 METAR KPAE 271053Z AUTO 35003KT 10SM FU CLR 13/10 A2991 RMK AO2 SLP127 T01330100=
202209270953 METAR KPAE 270953Z AUTO 33003KT 10SM FU CLR 14/11 A2992 RMK AO2 SLP129 T01440106=
202209270853 METAR KPAE 270853Z AUTO 00000KT 10SM FU CLR 16/11 A2992 RMK AO2 SLP130 T01560106 56003=
202209270753 METAR KPAE 270753Z AUTO 00000KT 10SM FU CLR 17/10 A2993 RMK AO2 SLP131 T01670100 402610128=
202209270653 METAR KPAE 270653Z AUTO 02006KT 10SM FU CLR 17/10 A2993 RMK AO2 SLP133 T01720100=
202209270553 METAR KPAE 270553Z AUTO 01005KT 10SM FU CLR 17/11 A2993 RMK AO2 SLP134 T01670106 10250 20167 50000=
202209270453 METAR KPAE 270453Z AUTO 02004KT 10SM FU CLR 19/09 A2993 RMK AO2 SLP134 T01890089=
202209270353 METAR KPAE 270353Z 00000KT 10SM FU CLR 21/09 A2994 RMK AO2 SLP135 T02060089=
202209270253 METAR KPAE 270253Z 00000KT 10SM FU CLR 21/10 A2993 RMK AO2 SLP134 T02060100 55001=
202209270153 METAR KPAE 270153Z 36003KT 10SM FU CLR 23/11 A2993 RMK AO2 SLP131 T02280106=
202209270053 METAR KPAE 270053Z VRB03KT 10SM FU CLR 24/10 A2993 RMK AO2 SLP133 T02440100=
202209262353 METAR KPAE 262353Z 34006KT 10SM FU CLR 24/10 A2994 RMK AO2 SLP135 T02390100 10261 20200 56011=
202209262253 METAR KPAE 262253Z 31005KT 10SM FU CLR 26/10 A2994 RMK AO2 SLP137 T02560100=
202209262153 METAR KPAE 262153Z 28004KT 10SM FU CLR 24/11 A2996 RMK AO2 SLP142 T02440111=
202209262053 METAR KPAE 262053Z 27006KT 10SM FU CLR 25/11 A2997 RMK AO2 SLP145 T02500106 58013=
202209261953 METAR KPAE 261953Z 00000KT 9SM CLR 24/09 A2999 RMK AO2 SLP152 T02390094=
202209261853 METAR KPAE 261853Z 36005KT 10SM CLR 22/09 A3000 RMK AO2 SLP156 T02170089=
202209261753 METAR KPAE 261753Z 01004KT 10SM CLR 20/11 A3001 RMK AO2 SLP159 T02000111 10200 20128 58001=
202209261653 METAR KPAE 261653Z VRB05KT 10SM CLR 18/10 A3002 RMK AO2 SLP163 T01830100=
202209261553 METAR KPAE 261553Z 35004KT 10SM CLR 16/11 A3002 RMK AO2 SLP163 T01610111=
202209261453 METAR KPAE 261453Z 01004KT 10SM CLR 16/11 A3001 RMK AO2 SLP161 T01560106 50002=
202209261353 METAR KPAE 261353Z 00000KT 10SM CLR 13/10 A3002 RMK AO2 SLP166 T01330100=
202209261253 METAR KPAE 261253Z AUTO 00000KT 10SM CLR 14/10 A3001 RMK AO2 SLP161 T01390100=
202209261153 METAR KPAE 261153Z AUTO 36006KT 10SM CLR 14/10 A3001 RMK AO2 SLP158 T01390100 10161 20128 56009=
202209261053 METAR KPAE 261053Z AUTO 35004KT 10SM CLR 13/11 A3001 RMK AO2 SLP161 T01330111=
202209260953 METAR KPAE 260953Z AUTO 01006KT 10SM CLR 14/11 A3001 RMK AO2 SLP161 T01440106=
202209260853 METAR KPAE 260853Z AUTO 01003KT 10SM CLR 15/11 A3003 RMK AO2 SLP168 T01500106 56008=
202209260753 METAR KPAE 260753Z AUTO 01003KT 10SM CLR 15/10 A3004 RMK AO2 SLP169 T01500100 402280122=
202209260653 METAR KPAE 260653Z AUTO 01003KT 10SM CLR 15/10 A3005 RMK AO2 SLP175 T01500100=
202209260553 METAR KPAE 260553Z AUTO 01003KT 10SM CLR 16/11 A3006 RMK AO2 SLP178 T01610106 10222 20156 58003=
202209260453 METAR KPAE 260453Z AUTO 36003KT 10SM CLR 16/11 A3006 RMK AO2 SLP180 T01610106=
202209260353 METAR KPAE 260353Z AUTO 35003KT 10SM CLR 17/11 A3007 RMK AO2 SLP180 T01720106=
202209260253 METAR KPAE 260253Z 35004KT 10SM CLR 17/11 A3007 RMK AO2 SLP181 T01720106 56009=
202209260153 METAR KPAE 260153Z 34004KT 10SM CLR 19/11 A3007 RMK AO2 SLP181 T01890106=
202209260053 METAR KPAE 260053Z 35005KT 10SM CLR 21/11 A3008 RMK AO2 SLP183 T02110111=
202209252353 METAR KPAE 252353Z 34006KT 10SM CLR 22/11 A3009 RMK AO2 SLP190 T02220106 10228 20167 56017=
202209252253 METAR KPAE 252253Z 34007G16KT 10SM CLR 22/11 A3011 RMK AO2 SLP194 T02220111=
202209252153 METAR KPAE 252153Z 36006KT 10SM CLR 22/11 A3013 RMK AO2 SLP200 T02170106=
202209252053 METAR KPAE 252053Z 35005KT 10SM CLR 22/10 A3015 RMK AO2 SLP206 T02170100 58018=
202209251953 METAR KPAE 251953Z 01006KT 10SM CLR 21/09 A3017 RMK AO2 SLP213 T02110094=
202209251853 METAR KPAE 251853Z 36007KT 10SM CLR 19/09 A3019 RMK AO2 SLP221 T01940094=
202209251753 METAR KPAE 251753Z 35008KT 10SM CLR 17/11 A3020 RMK AO2 SLP225 T01670106 10167 20122 58002=
202209251653 METAR KPAE 251653Z 35006KT 10SM CLR 16/11 A3020 RMK AO2 SLP227 T01610111=
202209251553 METAR KPAE 251553Z 01003KT 10SM CLR 15/11 A3020 RMK AO2 SLP226 T01500106=
202209251453 METAR KPAE 251453Z 01003KT 10SM CLR 13/11 A3020 RMK AO2 SLP227 T01330106 53003=
202209251353 METAR KPAE 251353Z 00000KT 10SM CLR 12/10 A3019 RMK AO2 SLP224 T01220100=
202209251253 METAR KPAE 251253Z AUTO 00000KT 10SM CLR 13/10 A3020 RMK AO2 SLP224 T01280100=
202209251153 METAR KPAE 251153Z AUTO 35004KT 10SM CLR 12/10 A3019 RMK AO2 SLP224 T01220100 10150 20122 58004=
202209251053 METAR KPAE 251053Z AUTO VRB05KT 10SM CLR 13/11 A3020 RMK AO2 SLP225 T01330106=
202209250953 METAR KPAE 250953Z AUTO 36004KT 10SM SCT035 13/11 A3020 RMK AO2 SLP226 T01330106=
202209250853 METAR KPAE 250853Z AUTO 35004KT 10SM CLR 13/10 A3021 RMK AO2 SLP228 T01330100 57006=
202209250753 METAR KPAE 250753Z AUTO 36006KT 10SM CLR 14/09 A3021 RMK AO2 SLP229 T01390094 402060122=
202209250653 METAR KPAE 250653Z AUTO 35006KT 10SM CLR 14/09 A3022 RMK AO2 SLP232 T01440094=
202209250553 METAR KPAE 250553Z AUTO 34003KT 10SM CLR 14/10 A3022 RMK AO2 SLP233 T01440100 10206 20144 50002=
202209250453 METAR KPAE 250453Z AUTO 36003KT 10SM CLR 15/10 A3023 RMK AO2 SLP236 T01500100=
202209250353 METAR KPAE 250353Z AUTO 35004KT 10SM CLR 16/10 A3023 RMK AO2 SLP235 T01610100=
202209250253 METAR KPAE 250253Z 34004KT 10SM CLR 17/10 A3022 RMK AO2 SLP231 T01670100 55001=
202209250153 METAR KPAE 250153Z 32006KT 10SM CLR 18/10 A3021 RMK AO2 SLP230 T01780100=
202209250053 METAR KPAE 250053Z 33005KT 10SM CLR 19/11 A3021 RMK AO2 SLP228 T01940106=
202209242353 METAR KPAE 242353Z 35008KT 10SM CLR 19/10 A3022 RMK AO2 SLP232 T01940100 10206 20172 56013=
202209242253 METAR KPAE 242253Z 34007KT 10SM CLR 19/11 A3023 RMK AO2 SLP235 T01940106=
202209242153 METAR KPAE 242153Z 33007KT 10SM CLR 19/11 A3025 RMK AO2 SLP241 T01940106=
202209242053 METAR KPAE 242053Z 32007KT 10SM CLR 18/11 A3026 RMK AO2 SLP245 T01830106 58005=
202209241953 METAR KPAE 241953Z VRB06KT 10SM CLR 19/11 A3026 RMK AO2 SLP247 T01940106=
202209241853 METAR KPAE 241853Z 32006KT 10SM CLR 18/11 A3027 RMK AO2 SLP249 T01830111=
202209241753 METAR KPAE 241753Z 36005KT 10SM CLR 17/11 A3027 RMK AO2 SLP250 T01720111 10172 20122 51010=
202209241716 SPECI KPAE 241716Z 00000KT 10SM FEW005 15/11 A3027 RMK AO2 T01500111=
202209241653 METAR KPAE 241653Z 33003KT 5SM HZ OVC004 14/11 A3027 RMK AO2 SLP249 T01390111=
202209241559 SPECI KPAE 241559Z VRB03KT 5SM BR OVC002 13/12 A3026 RMK AO2 T01330117=
202209241553 METAR KPAE 241553Z 36006KT 1SM R16R/P6000FT BR BKN001 13/12 A3026 RMK AO2 SLP245 T01330117=
202209241501 SPECI KPAE 241501Z VRB03KT 1SM R16R/P6000FT BR BKN001 13/12 A3025 RMK AO2 T01280117=
202209241453 METAR KPAE 241453Z 35005KT 9SM BKN003 13/12 A3024 RMK AO2 SLP240 T01330117 51009=
202209241451 SPECI KPAE 241451Z 35005KT 9SM BKN003 13/12 A3024 RMK AO2=
202209241418 SPECI KPAE 241418Z 02004KT 10SM SCT001 13/11 A3023 RMK AO2 T01280111=
202209241401 SPECI KPAE 241401Z 01004KT 3SM R16R/1800VP6000FT BR BKN001 13/11 A3023 RMK AO2 T01280111=
202209241353 METAR KPAE 241353Z AUTO 01003KT 6SM R16R/1200V1800FT BR BKN001 12/11 A3022 RMK AO2 SLP234 T01220111=
202209241338 SPECI KPAE 241338Z AUTO 36005KT 5SM BR OVC001 13/11 A3022 RMK AO2 T01280111=
202209241327 SPECI KPAE 241327Z AUTO 35004KT 9SM BKN002 13/11 A3022 RMK AO2 T01280111=
202209241253 METAR KPAE 241253Z AUTO 35004KT 10SM FEW002 13/11 A3021 RMK AO2 SLP230 T01280111=
202209241245 SPECI KPAE 241245Z AUTO 35005KT 10SM FEW002 13/11 A3021 RMK AO2 T01280111=
202209241153 METAR KPAE 241153Z AUTO 35003KT 10SM CLR 13/11 A3021 RMK AO2 SLP229 T01280111 10150 20128 50004=
202209241053 METAR KPAE 241053Z AUTO 34004KT 10SM OVC043 13/11 A3022 RMK AO2 SLP231 T01330111=
202209240953 METAR KPAE 240953Z AUTO 35005KT 10SM FEW042 BKN049 13/11 A3021 RMK AO2 SLP229 T01330106=
202209240853 METAR KPAE 240853Z AUTO 35005KT 10SM BKN042 OVC050 14/10 A3020 RMK AO2 SLP225 T01390100 53005=
202209240753 METAR KPAE 240753Z AUTO 00000KT 10SM FEW041 BKN060 14/09 A3019 RMK AO2 SLP221 T01440094 402060139=
202209240653 METAR KPAE 240653Z AUTO 00000KT 10SM FEW039 BKN050 OVC060 14/09 A3019 RMK AO2 SLP222 T01440094=
202209240553 METAR KPAE 240553Z AUTO 36003KT 10SM BKN055 15/09 A3018 RMK AO2 SLP220 T01500089 10194 20144 53003=
202209240453 METAR KPAE 240453Z AUTO 00000KT 10SM CLR 18/08 A3017 RMK AO2 SLP216 T01780083=
202209240353 METAR KPAE 240353Z 00000KT 10SM OVC049 18/08 A3017 RMK AO2 SLP216 T01780083=
202209240253 METAR KPAE 240253Z 00000KT 10SM OVC050 18/09 A3017 RMK AO2 SLP216 T01780089 53007=
202209240153 METAR KPAE 240153Z 27003KT 10SM OVC049 18/08 A3015 RMK AO2 SLP209 T01780083=
202209240053 METAR KPAE 240053Z 25005KT 10SM CLR 19/08 A3015 RMK AO2 SLP209 T01890083=
202209232353 METAR KPAE 232353Z 26006KT 10SM CLR 19/08 A3015 RMK AO2 SLP209 T01890078 10206 20167 56008=
202209232253 METAR KPAE 232253Z AUTO 25008KT 10SM FU SCT100 19/08 A3016 RMK AO2 SLP211 T01940083=
202209232153 METAR KPAE 232153Z 26007KT 10SM FU SCT038 SCT070 20/08 A3016 RMK AO2 SLP213 T02000083=
202209232053 METAR KPAE 232053Z 24008KT 10SM FU BKN036 OVC043 18/09 A3017 RMK AO2 SLP217 T01780089 58003=
202209231953 METAR KPAE 231953Z 24007KT 10SM FU FEW022 OVC034 18/09 A3018 RMK AO2 SLP220 T01780094=
202209231910 SPECI KPAE 231910Z 21008KT 180V250 10SM FU FEW024 BKN035 OVC055 18/09 A3018 RMK AO2 T01780094=
202209231853 METAR KPAE 231853Z 22005KT 10SM FU BKN022 BKN032 OVC040 18/11 A3018 RMK AO2 SLP220 T01780106=
202209231819 SPECI KPAE 231819Z 18008KT 10SM FU SCT021 BKN028 OVC065 17/11 A3018 RMK AO2 T01720106=
202209231753 METAR KPAE 231753Z 16008KT 10SM FU SCT019 BKN030 OVC070 17/11 A3018 RMK AO2 SLP220 T01720106 10172 20144 51009=
202209231653 METAR KPAE 231653Z 19009KT 10SM FU BKN016 OVC050 16/11 A3017 RMK AO2 SLP217 T01610106=
202209231553 METAR KPAE 231553Z 17008KT 10SM FU BKN012 OVC050 16/11 A3017 RMK AO2 SLP214 T01560111=
202209231525 SPECI KPAE 231525Z 18006KT 10SM FU SCT012 BKN050 BKN110 14/11 A3016 RMK AO2 T01440106=
202209231453 METAR KPAE 231453Z 16005KT 10SM FU BKN012 BKN020 OVC044 14/11 A3016 RMK AO2 SLP211 T01440106 53006=
202209231353 METAR KPAE 231353Z 18004KT 10SM FU BKN012 BKN020 OVC044 14/11 A3015 RMK AO2 SLP208 T01440106=
202209231300 SPECI KPAE 231300Z AUTO 19006KT 10SM FU OVC017 14/11 A3014 RMK AO2 T01440106=
202209231253 METAR KPAE 231253Z AUTO 18008KT 10SM FU BKN014 OVC019 14/11 A3014 RMK AO2 SLP205 T01440106=
202209231153 METAR KPAE 231153Z AUTO 00000KT 10SM FU OVC013 14/11 A3013 RMK AO2 SLP201 T01390111 10144 20128 58003=
202209231116 SPECI KPAE 231116Z AUTO 25004KT 10SM FU OVC013 14/11 A3014 RMK AO2 T01390106=
202209231053 METAR KPAE 231053Z AUTO 00000KT 10SM FU OVC018 14/10 A3014 RMK AO2 SLP204 T01440100=
202209230953 METAR KPAE 230953Z AUTO 15005KT 10SM FU OVC023 14/10 A3013 RMK AO2 SLP202 T01440100=
202209230853 METAR KPAE 230853Z AUTO 14004KT 10SM FU SCT015 OVC023 14/10 A3014 RMK AO2 SLP204 T01440100 52008=
202209230805 SPECI KPAE 230805Z AUTO 15004KT 10SM FU BKN029 OVC034 14/10 A3013 RMK AO2 T01440100=
202209230753 METAR KPAE 230753Z AUTO 15005KT 10SM FU SCT025 OVC034 14/10 A3013 RMK AO2 SLP202 T01440100 402000128=
202209230653 METAR KPAE 230653Z AUTO 16003KT 10SM FU BKN027 BKN031 13/08 A3012 RMK AO2 SLP200 T01280083=
202209230553 METAR KPAE 230553Z AUTO 00000KT 10SM FU CLR 14/09 A3011 RMK AO2 SLP196 T01390094 10200 20128 51010=
202209230453 METAR KPAE 230453Z 22005KT 10SM FU CLR 14/09 A3011 RMK AO2 SLP195 T01440094=
202209230353 METAR KPAE 230353Z 20007KT 10SM FU FEW055 16/08 A3010 RMK AO2 SLP192 T01610083=
202209230253 METAR KPAE 230253Z 19006KT 10SM FU OVC060 17/08 A3008 RMK AO2 SLP186 T01720078 53006=
202209230153 METAR KPAE 230153Z 20008KT 10SM FU FEW060 18/07 A3007 RMK AO2 SLP182 T01830072=
202209230053 METAR KPAE 230053Z 19010KT 10SM FU CLR 19/07 A3006 RMK AO2 SLP179 T01940072=
202209222353 METAR KPAE 222353Z 19011KT 10SM FU OVC050 20/07 A3007 RMK AO2 SLP180 T02000072 10200 20156 58005=
202209222253 METAR KPAE 222253Z AUTO VRB03KT 10SM FU OVC045 19/09 A3007 RMK AO2 SLP183 T01940089=
202209222153 METAR KPAE 222153Z VRB06G18KT 10SM FU OVC041 18/09 A3008 RMK AO2 SLP184 T01830089=
202209222053 METAR KPAE 222053Z 15012KT 10SM FU OVC035 17/09 A3008 RMK AO2 SLP185 T01720089 58001=
202209222031 SPECI KPAE 222031Z 16011KT 10SM FU SCT027 OVC033 18/09 A3009 RMK AO2 T01780094=
202209221953 METAR KPAE 221953Z 15011KT 10SM FU OVC029 17/09 A3009 RMK AO2 SLP188 T01670094=
202209221853 METAR KPAE 221853Z 16010KT 10SM FU OVC026 16/09 A3009 RMK AO2 SLP187 T01610094=
202209221753 METAR KPAE 221753Z 18012KT 10SM FU OVC023 16/09 A3008 RMK AO2 SLP186 T01610094 10161 20133 51009=
202209221653 METAR KPAE 221653Z 17010G18KT 10SM FU OVC020 15/09 A3008 RMK AO2 SLP185 T01500094=
202209221553 METAR KPAE 221553Z 16011KT 10SM FU OVC018 14/09 A3007 RMK AO2 SLP180 T01440094=
202209221453 METAR KPAE 221453Z 16008KT 10SM FU OVC017 14/10 A3006 RMK AO2 SLP176 T01440100 53013=
202209221353 METAR KPAE 221353Z 16009KT 10SM FU OVC015 14/09 A3004 RMK AO2 SLP169 T01440094=
202209221326 SPECI KPAE 221326Z AUTO 17008G17KT 10SM FU OVC015 14/09 A3003 RMK AO2 T01390094=
202209221253 METAR KPAE 221253Z AUTO 17009G18KT 10SM FU OVC014 14/09 A3003 RMK AO2 SLP165 T01390094=
202209221153 METAR KPAE 221153Z AUTO 18011KT 10SM FU BKN012 13/09 A3002 RMK AO2 SLP162 T01330094 10167 20128 51012=
202209221140 SPECI KPAE 221140Z AUTO 17011KT 10SM FU BKN012 13/09 A3002 RMK AO2 T01330094=
202209221053 METAR KPAE 221053Z AUTO 18011KT 10SM FU CLR 13/09 A3000 RMK AO2 SLP158 T01280094=
202209221039 SPECI KPAE 221039Z AUTO 18010KT 10SM FU SCT010 13/09 A3000 RMK AO2 T01280094=
202209221026 SPECI KPAE 221026Z AUTO 17009KT 10SM FU BKN010 13/09 A3000 RMK AO2 T01280094=
202209221019 SPECI KPAE 221019Z AUTO 17010KT 10SM FU BKN009 13/09 A3000 RMK AO2 T01280094=
202209221009 SPECI KPAE 221009Z AUTO 17011KT 10SM FU SCT009 13/09 A3000 RMK AO2 T01280094=
202209220953 METAR KPAE 220953Z AUTO 17010KT 10SM FU CLR 13/09 A3000 RMK AO2 SLP155 T01280094=
202209220853 METAR KPAE 220853Z AUTO 16008KT 10SM FU CLR 13/08 A2998 RMK AO2 SLP150 T01330083 51012=
202209220753 METAR KPAE 220753Z AUTO 20004KT 10SM FU CLR 15/04 A2997 RMK AO2 SLP145 T01500044 402280106=
202209220653 METAR KPAE 220653Z AUTO 00000KT 10SM FU CLR 15/03 A2996 RMK AO2 SLP143 T01500033=
202209220553 METAR KPAE 220553Z AUTO 00000KT 10SM FU CLR 16/04 A2994 RMK AO2 SLP138 T01560039 10228 20144 53013=
202209220453 METAR KPAE 220453Z 10004KT 10SM FU CLR 17/04 A2993 RMK AO2 SLP134 T01720039=
202209220353 METAR KPAE 220353Z 00000KT 10SM FU CLR 17/03 A2991 RMK AO2 SLP128 T01670033=
202209220253 METAR KPAE 220253Z 00000KT 10SM FU CLR 18/03 A2991 RMK AO2 SLP126 T01780033 53002=
202209220153 METAR KPAE 220153Z 00000KT 10SM FU CLR 21/03 A2989 RMK AO2 SLP122 T02060028=
202209220053 METAR KPAE 220053Z 34003KT 10SM FU CLR 21/02 A2989 RMK AO2 SLP120 T02110017=
202209212353 METAR KPAE 212353Z 35005KT 10SM FU CLR 22/02 A2990 RMK AO2 SLP123 T02220017 10228 20189 56009=
202209212253 METAR KPAE 212253Z 36005KT 10SM FU CLR 22/02 A2991 RMK AO2 SLP126 T02220017=
202209212153 METAR KPAE 212153Z 36007KT 10SM FU CLR 23/04 A2991 RMK AO2 SLP126 T02280039=
202209212053 METAR KPAE 212053Z 01005KT 7SM FU CLR 22/03 A2993 RMK AO2 SLP132 T02170033 56012=
202209211953 METAR KPAE 211953Z 36007KT 10SM FU CLR 21/02 A2994 RMK AO2 SLP136 T02110022=
202209211853 METAR KPAE 211853Z 01006KT 10SM FU CLR 19/03 A2995 RMK AO2 SLP140 T01940028=
202209211753 METAR KPAE 211753Z 30004KT 3SM HZ FU CLR 19/02 A2996 RMK AO2 SLP144 T01940017 10194 20106 58006=
202209211653 METAR KPAE 211653Z 00000KT 6SM HZ FU CLR 17/03 A2997 RMK AO2 SLP148 T01670028=
202209211553 METAR KPAE 211553Z 02004KT 5SM HZ FU CLR 13/05 A2998 RMK AO2 SLP150 T01330050=
202209211512 SPECI KPAE 211512Z 01005KT 5SM HZ FU CLR 14/03 A2998 RMK AO2 T01390028=
202209211500 SPECI KPAE 211500Z 01003KT 2SM HZ FU CLR 14/02 A2998 RMK AO2 T01390022=
202209211453 METAR KPAE 211453Z 01003KT 3SM HZ FU CLR 13/02 A2998 RMK AO2 SLP151 T01330022 58001=
202209211353 METAR KPAE 211353Z 00000KT 9SM HZ FU CLR 11/03 A2998 RMK AO2 SLP152 T01060033=
202209211253 METAR KPAE 211253Z AUTO 13003KT 10SM FU CLR 11/03 A2999 RMK AO2 SLP153 T01060028=
202209211153 METAR KPAE 211153Z AUTO 00000KT 10SM FU CLR 13/03 A2999 RMK AO2 SLP152 T01330028 10161 20122 57006=
202209211053 METAR KPAE 211053Z AUTO 00000KT 10SM FU CLR 12/04 A2999 RMK AO2 SLP154 T01220039=
202209210953 METAR KPAE 210953Z AUTO 00000KT 10SM FU CLR 14/03 A3000 RMK AO2 SLP155 T01390033=
202209210853 METAR KPAE 210853Z AUTO 00000KT 10SM FU CLR 13/03 A3000 RMK AO2 SLP158 T01330033 50002=
202209210753 METAR KPAE 210753Z AUTO 00000KT 10SM FU CLR 14/03 A3001 RMK AO2 SLP158 T01390033 402440117=
202209210653 METAR KPAE 210653Z AUTO 00000KT 10SM FU CLR 14/03 A3000 RMK AO2 SLP158 T01440033=
202209210553 METAR KPAE 210553Z AUTO 36003KT 10SM FU CLR 16/04 A3000 RMK AO2 SLP157 T01560039 10233 20139 51006=
202209210453 METAR KPAE 210453Z AUTO 00000KT 10SM FU CLR 16/04 A3000 RMK AO2 SLP156 T01610044=
202209210353 METAR KPAE 210353Z 35004KT 10SM FU CLR 16/05 A2999 RMK AO2 SLP153 T01610050=
202209210253 METAR KPAE 210253Z 34004KT 10SM FU CLR 18/05 A2998 RMK AO2 SLP151 T01780050 53002=
202209210153 METAR KPAE 210153Z 34004KT 10SM FU CLR 21/03 A2997 RMK AO2 SLP149 T02060033=
202209210053 METAR KPAE 210053Z 10SM FU CLR 23/02 A2997 RMK AO2 SLP147 T02280022=
202209202353 METAR KPAE 202353Z 34007KT 10SM FU CLR 23/02 A2997 RMK AO2 SLP148 T02330022 10244 20189 56006=
202209202253 METAR KPAE 202253Z 34009KT 10SM FU CLR 24/02 A2998 RMK AO2 SLP148 T02390017=
202209202153 METAR KPAE 202153Z 33009G16KT 10SM FU CLR 24/03 A2998 RMK AO2 SLP150 T02390028=
202209202053 METAR KPAE 202053Z 33008KT 310V010 10SM FU CLR 23/04 A2999 RMK AO2 SLP154 T02330044 58009=
202209201953 METAR KPAE 201953Z 34008KT 10SM FU CLR 22/04 A3000 RMK AO2 SLP158 T02220044=
202209201853 METAR KPAE 201853Z 36009KT 10SM FU CLR 20/04 A3002 RMK AO2 SLP163 T02000044=
202209201753 METAR KPAE 201753Z VRB06KT 10SM FU CLR 19/04 A3002 RMK AO2 SLP165 T01890044 10189 20117 51009=
202209201653 METAR KPAE 201653Z 01006KT 10SM FU CLR 17/06 A3002 RMK AO2 SLP164 T01670061=
202209201553 METAR KPAE 201553Z 36006KT 10SM FU CLR 15/07 A3001 RMK AO2 SLP160 T01500067=
202209201453 METAR KPAE 201453Z 36005KT 10SM FU CLR 13/07 A2999 RMK AO2 SLP155 T01330072 53005=
202209201353 METAR KPAE 201353Z AUTO 34004KT 10SM FU CLR 12/07 A2999 RMK AO2 SLP153 T01220067=
202209201253 METAR KPAE 201253Z AUTO 34004KT 10SM FU CLR 13/07 A2998 RMK AO2 SLP151 T01330072=
202209201153 METAR KPAE 201153Z AUTO 35004KT 10SM FU FEW027 12/07 A2998 RMK AO2 SLP151 T01220072 10150 20117 53004=
202209201108 SPECI KPAE 201108Z AUTO 01004KT 10SM FU BKN023 12/08 A2997 RMK AO2 T01220078=
202209201053 METAR KPAE 201053Z AUTO 36004KT 10SM FU FEW024 12/08 A2997 RMK AO2 SLP149 T01220078=
202209200953 METAR KPAE 200953Z AUTO 02004KT 10SM FU CLR 12/07 A2997 RMK AO2 SLP146 T01220072=
202209200853 METAR KPAE 200853Z AUTO 00000KT 10SM FU CLR 13/06 A2997 RMK AO2 SLP146 T01330061 51003=
202209200753 METAR KPAE 200753Z AUTO 01003KT 10SM FU CLR 14/06 A2996 RMK AO2 SLP145 T01440061 402220094=
202209200653 METAR KPAE 200653Z AUTO 01003KT 10SM FU CLR 14/07 A2997 RMK AO2 SLP146 T01440072=
202209200553 METAR KPAE 200553Z AUTO 35004KT 10SM FU CLR 14/07 A2996 RMK AO2 SLP142 T01440072 10211 20139 51013=
202209200453 METAR KPAE 200453Z AUTO 36003KT 10SM FU CLR 15/08 A2994 RMK AO2 SLP139 T01500078=
202209200353 METAR KPAE 200353Z 36003KT 10SM FU CLR 15/08 A2994 RMK AO2 SLP136 T01500078=
202209200253 METAR KPAE 200253Z 35004KT 10SM FU CLR 17/08 A2992 RMK AO2 SLP130 T01670078 53012=
202209200153 METAR KPAE 200153Z 35006KT 10SM FU CLR 18/08 A2990 RMK AO2 SLP122 T01830078=
202209200053 METAR KPAE 200053Z 35007KT 10SM FU CLR 20/07 A2988 RMK AO2 SLP118 T02000072=
202209192353 METAR KPAE 192353Z 36007KT 10SM FU CLR 21/07 A2988 RMK AO2 SLP117 T02110067 10222 20172 55000=
202209192253 METAR KPAE 192253Z 36006KT 10SM FU CLR 22/07 A2988 RMK AO2 SLP115 T02220072=
202209192153 METAR KPAE 192153Z 34006KT 10SM FU CLR 22/07 A2987 RMK AO2 SLP115 T02170072=
202209192053 METAR KPAE 192053Z 35006KT 10SM FU CLR 21/07 A2988 RMK AO2 SLP117 T02060072 50000=
202209191953 METAR KPAE 191953Z 01007KT 10SM FU CLR 20/07 A2988 RMK AO2 SLP118 T02000067=
202209191853 METAR KPAE 191853Z 35007KT 10SM FU CLR 19/06 A2988 RMK AO2 SLP118 T01890056=
202209191753 METAR KPAE 191753Z 35006KT 10SM FU CLR 17/07 A2988 RMK AO2 SLP117 T01720067 10178 20094 53006=
202209191653 METAR KPAE 191653Z VRB03KT 10SM FU CLR 17/06 A2987 RMK AO2 SLP113 T01670056=
202209191553 METAR KPAE 191553Z 36004KT 8SM FU CLR 15/07 A2986 RMK AO2 SLP111 T01500072=
202209191453 METAR KPAE 191453Z 00000KT 8SM FU CLR 12/07 A2986 RMK AO2 SLP111 T01220072 53013=
202209191353 METAR KPAE 191353Z 00000KT 8SM FU CLR 12/06 A2984 RMK AO2 SLP105 T01170061=
202209191253 METAR KPAE 191253Z AUTO 00000KT 10SM CLR 12/06 A2984 RMK AO2 SLP102 T01170056=
202209191153 METAR KPAE 191153Z AUTO 00000KT 10SM CLR 11/04 A2982 RMK AO2 SLP097 T01060044 10150 20100 51004=
202209191053 METAR KPAE 191053Z AUTO 00000KT 10SM CLR 11/04 A2982 RMK AO2 SLP095 T01110039=
202209190953 METAR KPAE 190953Z AUTO 00000KT 10SM CLR 11/03 A2982 RMK AO2 SLP097 T01110033=
202209190853 METAR KPAE 190853Z AUTO 00000KT 10SM CLR 12/03 A2981 RMK AO2 SLP093 T01220033 52003=
202209190753 METAR KPAE 190753Z AUTO 00000KT 10SM CLR 13/03 A2981 RMK AO2 SLP092 T01330033 402110100=
202209190653 METAR KPAE 190653Z AUTO 00000KT 10SM CLR 14/03 A2981 RMK AO2 SLP091 T01390033=
202209190553 METAR KPAE 190553Z AUTO 00000KT 10SM CLR 14/03 A2980 RMK AO2 SLP090 T01440028 10206 20144 50008=
202209190453 METAR KPAE 190453Z AUTO 02003KT 10SM CLR 15/03 A2980 RMK AO2 SLP091 T01500028=
202209190353 METAR KPAE 190353Z AUTO 00000KT 10SM CLR 16/03 A2979 RMK AO2 SLP086 T01610033=
202209190253 METAR KPAE 190253Z 32003KT 10SM CLR 16/05 A2978 RMK AO2 SLP083 T01610050 53003=
202209190153 METAR KPAE 190153Z 33004KT 10SM CLR 19/05 A2977 RMK AO2 SLP080 T01890050=
202209190053 METAR KPAE 190053Z 34005KT 10SM CLR 21/05 A2976 RMK AO2 SLP075 T02060050=
202209182353 METAR KPAE 182353Z 34008KT 10SM CLR 21/05 A2977 RMK AO2 SLP078 T02060050 10211 20167 56010=
202209182253 METAR KPAE 182253Z 34006KT 10SM CLR 21/06 A2978 RMK AO2 SLP081 T02060056=
202209182153 METAR KPAE 182153Z 36008KT 10SM CLR 21/06 A2979 RMK AO2 SLP085 T02060061=
202209182053 METAR KPAE 182053Z 36008KT 10SM CLR 19/07 A2980 RMK AO2 SLP088 T01940067 58006=
202209181953 METAR KPAE 181953Z 36009G17KT 10SM CLR 18/07 A2982 RMK AO2 SLP095 T01830067=
202209181853 METAR KPAE 181853Z 33010G17KT 10SM CLR 18/07 A2982 RMK AO2 SLP095 T01780067=
202209181753 METAR KPAE 181753Z 35007KT 10SM CLR 16/07 A2982 RMK AO2 SLP096 T01610072 10167 20100 50004=
202209181653 METAR KPAE 181653Z 36009KT 10SM FEW080 15/07 A2982 RMK AO2 SLP098 T01500072=
202209181553 METAR KPAE 181553Z 35007KT 10SM CLR 13/08 A2982 RMK AO2 SLP096 T01330083=
202209181453 METAR KPAE 181453Z 34006KT 10SM OVC095 12/08 A2980 RMK AO2 SLP092 T01220083 53010=
202209181353 METAR KPAE 181353Z 32006KT 10SM CLR 10/08 A2979 RMK AO2 SLP087 T01000078=
202209181253 METAR KPAE 181253Z AUTO 32004KT 10SM CLR 11/08 A2978 RMK AO2 SLP084 T01060083=
202209181153 METAR KPAE 181153Z AUTO 35006KT 10SM CLR 11/08 A2977 RMK AO2 SLP082 T01110083 10128 20106 58008=
202209181053 METAR KPAE 181053Z AUTO 35004KT 10SM CLR 12/08 A2980 RMK AO2 SLP089 T01170078=
202209180953 METAR KPAE 180953Z AUTO 35004KT 10SM CLR 12/08 A2979 RMK AO2 SLP088 T01170078=
202209180853 METAR KPAE 180853Z AUTO 35003KT 10SM CLR 12/08 A2980 RMK AO2 SLP090 T01220078 53001=
202209180753 METAR KPAE 180753Z AUTO 00000KT 10SM CLR 12/08 A2980 RMK AO2 SLP090 T01220083 401720100=
202209180653 METAR KPAE 180653Z AUTO 35005KT 10SM CLR 13/08 A2979 RMK AO2 SLP088 T01280078=
202209180553 METAR KPAE 180553Z AUTO 33005KT 10SM CLR 12/08 A2980 RMK AO2 SLP089 T01220083 10167 20122 55001=
202209180453 METAR KPAE 180453Z AUTO VRB06KT 10SM CLR 13/08 A2979 RMK AO2 SLP087 T01280083=
202209180353 METAR KPAE 180353Z AUTO 35007KT 10SM CLR 13/08 A2979 RMK AO2 SLP089 T01280078=
202209180253 METAR KPAE 180253Z 33006KT 10SM CLR 13/08 A2980 RMK AO2 SLP090 T01330078 55002=
202209180153 METAR KPAE 180153Z 33006KT 10SM CLR 14/08 A2979 RMK AO2 SLP087 T01440078=
202209180053 METAR KPAE 180053Z 34007G15KT 10SM CLR 15/08 A2979 RMK AO2 SLP088 T01500078=
202209172353 METAR KPAE 172353Z 33007G17KT 300V010 10SM CLR 16/08 A2980 RMK AO2 SLP092 T01610078 10172 20139 58016=
202209172253 METAR KPAE 172253Z 33010G17KT 10SM CLR 16/08 A2982 RMK AO2 SLP098 T01610078=
202209172153 METAR KPAE 172153Z 33010G17KT 10SM CLR 16/07 A2984 RMK AO2 SLP103 T01610072=
202209172053 METAR KPAE 172053Z 34008KT 10SM CLR 15/07 A2985 RMK AO2 SLP108 T01500067 56013=
202209171953 METAR KPAE 171953Z 33008KT 10SM CLR 16/07 A2987 RMK AO2 SLP113 T01610067=
202209171853 METAR KPAE 171853Z 36006KT 10SM CLR 14/07 A2987 RMK AO2 SLP115 T01440072=
202209171753 METAR KPAE 171753Z 35005KT 10SM CLR 14/08 A2989 RMK AO2 SLP121 T01390078 10139 20100 58010=
202209171653 METAR KPAE 171653Z 36006KT 10SM CLR 12/08 A2990 RMK AO2 SLP126 T01220083=
202209171553 METAR KPAE 171553Z 34004KT 10SM CLR 12/08 A2991 RMK AO2 SLP129 T01220083=
202209171453 METAR KPAE 171453Z 02004KT 10SM CLR 12/07 A2992 RMK AO2 SLP132 T01170072 56007=
202209171353 METAR KPAE 171353Z 35003KT 10SM CLR 11/07 A2993 RMK AO2 SLP134 T01060067=
202209171253 METAR KPAE 171253Z AUTO 07003KT 10SM CLR 11/07 A2993 RMK AO2 SLP136 T01110072=
202209171153 METAR KPAE 171153Z AUTO 02003KT 10SM CLR 12/08 A2994 RMK AO2 SLP139 T01170078 10133 20111 56011=
202209171053 METAR KPAE 171053Z AUTO 35004KT 10SM CLR 12/08 A2995 RMK AO2 SLP140 T01170078=
202209170953 METAR KPAE 170953Z AUTO 34003KT 10SM OVC070 12/07 A2996 RMK AO2 SLP144 T01220067=
202209170853 METAR KPAE 170853Z AUTO 02004KT 10SM BKN030 OVC055 13/07 A2998 RMK AO2 SLP150 T01280067 56012=
202209170753 METAR KPAE 170753Z AUTO 01006KT 10SM OVC055 13/07 A2998 RMK AO2 SLP153 T01280072 401780122=
202209170653 METAR KPAE 170653Z AUTO 36008KT 10SM SCT060 13/06 A3000 RMK AO2 SLP157 T01280061=
202209170553 METAR KPAE 170553Z AUTO 01007KT 10SM OVC060 13/06 A3001 RMK AO2 SLP163 T01330061 10161 20133 58008=
202209170453 METAR KPAE 170453Z AUTO 01005KT 10SM BKN060 BKN075 13/07 A3003 RMK AO2 SLP169 T01330067=
202209170353 METAR KPAE 170353Z 36007KT 10SM BKN055 BKN070 14/07 A3004 RMK AO2 SLP172 T01390067=
202209170253 METAR KPAE 170253Z 35006KT 10SM BKN055 OVC080 14/07 A3004 RMK AO2 SLP171 T01440067 56008=
202209170153 METAR KPAE 170153Z 02006KT 10SM SCT050 BKN065 BKN080 16/07 A3004 RMK AO2 SLP172 T01560067=
202209170053 METAR KPAE 170053Z 36006KT 10SM SCT070 BKN080 16/07 A3005 RMK AO2 SLP174 T01610067=
202209162353 METAR KPAE 162353Z 01006KT 10SM OVC055 16/08 A3006 RMK AO2 SLP178 T01610078 10178 20139 58012=
202209162253 METAR KPAE 162253Z 02006KT 10SM SCT047 SCT065 BKN080 18/08 A3008 RMK AO2 SLP185 T01780083=
202209162153 METAR KPAE 162153Z 36007KT 10SM BKN065 17/09 A3009 RMK AO2 SLP187 T01720089=
202209162139 SPECI KPAE 162139Z 35005KT 10SM FEW019 OVC060 17/09 A3009 RMK AO2 T01720089=
202209162109 SPECI KPAE 162109Z 35009KT 310V030 10SM SCT020 BKN028 OVC075 16/09 A3010 RMK AO2 T01610089=
202209162053 METAR KPAE 162053Z 36008KT 10SM SCT027 BKN055 OVC075 16/09 A3010 RMK AO2 SLP190 T01560094 58001=
202209161953 METAR KPAE 161953Z 25008KT 10SM FEW029 OVC060 14/09 A3010 RMK AO2 SLP193 T01440094=
202209161853 METAR KPAE 161853Z 22004KT 10SM FEW026 BKN070 16/09 A3010 RMK AO2 SLP191 T01610094=
202209161753 METAR KPAE 161753Z 25008KT 10SM BKN023 OVC028 14/09 A3010 RMK AO2 SLP192 T01390094 10156 20133 51002=
202209161704 SPECI KPAE 161704Z VRB06KT 10SM BKN023 OVC070 15/09 A3010 RMK AO2 T01500089=
202209161653 METAR KPAE 161653Z 20006KT 10SM FEW024 OVC070 16/08 A3010 RMK AO2 SLP190 T01560078=
202209161553 METAR KPAE 161553Z 17005KT 10SM BKN035 BKN044 OVC060 14/08 A3010 RMK AO2 SLP192 T01440078=
202209161453 METAR KPAE 161453Z 16007KT 10SM BKN036 OVC060 14/07 A3009 RMK AO2 SLP190 T01390072 50003=
202209161353 METAR KPAE 161353Z 17004KT 10SM FEW037 OVC060 13/07 A3010 RMK AO2 SLP191 T01330072=
202209161253 METAR KPAE 161253Z AUTO 16003KT 10SM BKN036 BKN049 OVC065 13/07 A3009 RMK AO2 SLP188 T01330072=
202209161153 METAR KPAE 161153Z AUTO 00000KT 10SM OVC036 14/08 A3008 RMK AO2 SLP186 T01390078 10139 20133 58001=
202209161053 METAR KPAE 161053Z AUTO 04003KT 10SM OVC033 14/08 A3009 RMK AO2 SLP186 T01390078=
202209160953 METAR KPAE 160953Z AUTO 36004KT 10SM BKN031 OVC042 14/07 A3009 RMK AO2 SLP187 T01390072=
202209160933 SPECI KPAE 160933Z AUTO 36004KT 10SM BKN030 OVC043 13/07 A3009 RMK AO2 T01330072=
202209160911 SPECI KPAE 160911Z AUTO 35006KT 10SM BKN028 OVC044 13/07 A3009 RMK AO2 T01330072=
202209160853 METAR KPAE 160853Z AUTO 36007KT 10SM SCT029 OVC046 14/07 A3009 RMK AO2 SLP187 T01390072 53001=
202209160819 SPECI KPAE 160819Z AUTO 36005KT 10SM SCT028 BKN040 OVC070 14/07 A3008 RMK AO2 T01390072=
202209160753 METAR KPAE 160753Z AUTO 01007KT 10SM BKN028 BKN034 OVC070 14/07 A3008 RMK AO2 SLP185 T01390067 401890133=
202209160653 METAR KPAE 160653Z AUTO 36006KT 10SM SCT033 OVC042 14/07 A3008 RMK AO2 SLP185 T01390067=
202209160553 METAR KPAE 160553Z AUTO 36005KT 10SM SCT038 OVC046 14/07 A3008 RMK AO2 SLP185 T01390072 10189 20133 50002=
202209160453 METAR KPAE 160453Z 36008KT 10SM OVC040 14/08 A3009 RMK AO2 SLP188 T01390078=
202209160353 METAR KPAE 160353Z 36007KT 10SM OVC036 14/09 A3009 RMK AO2 SLP189 T01390089=
202209160253 METAR KPAE 160253Z 36006KT 10SM OVC048 14/09 A3008 RMK AO2 SLP185 T01390089 53003=
202209160153 METAR KPAE 160153Z 35006KT 10SM CLR 15/10 A3007 RMK AO2 SLP182 T01500100=
202209160053 METAR KPAE 160053Z 34006KT 10SM SCT028 18/10 A3007 RMK AO2 SLP180 T01830100=
202209152353 METAR KPAE 152353Z AUTO 01003KT 10SM OVC100 18/10 A3007 RMK AO2 SLP180 T01780100 10183 20156 58006=
202209152325 SPECI KPAE 152325Z AUTO 36004KT 10SM SCT026 BKN095 18/10 A3007 RMK AO2 T01830100=
202209152253 METAR KPAE 152253Z AUTO 28004KT 10SM OVC025 18/11 A3008 RMK AO2 SLP184 T01780106=
202209152153 METAR KPAE 152153Z 31005KT 10SM SCT026 BKN080 18/10 A3008 RMK AO2 SLP185 T01780100=
202209152053 METAR KPAE 152053Z VRB04KT 10SM OVC026 18/10 A3008 RMK AO2 SLP186 T01830100 57001=
202209151953 METAR KPAE 151953Z 00000KT 10SM SCT018 OVC025 17/11 A3008 RMK AO2 SLP186 T01720106=
202209151853 METAR KPAE 151853Z 17004KT 10SM SCT017 OVC025 16/11 A3009 RMK AO2 SLP188 T01610106=
202209151753 METAR KPAE 151753Z 00000KT 10SM OVC026 16/10 A3009 RMK AO2 SLP187 T01560100 10161 20133 51005=
202209151653 METAR KPAE 151653Z 00000KT 10SM BKN025 OVC047 15/10 A3008 RMK AO2 SLP185 T01500100=
202209151648 SPECI KPAE 151648Z 06003KT 10SM BKN025 OVC049 15/10 A3008 RMK AO2=
202209151601 SPECI KPAE 151601Z 09003KT 10SM SCT026 OVC047 14/10 A3007 RMK AO2 T01440100=
202209151553 METAR KPAE 151553Z VRB03KT 10SM BKN026 OVC047 14/10 A3007 RMK AO2 SLP183 T01390100=
202209151501 SPECI KPAE 151501Z 03003KT 10SM BKN026 OVC039 14/10 A3006 RMK AO2 T01390100=
202209151453 METAR KPAE 151453Z VRB04KT 10SM SCT026 BKN039 OVC048 14/10 A3006 RMK AO2 SLP179 T01390100 53014=
202209151353 METAR KPAE 151353Z 03003KT 10SM BKN039 BKN065 OVC080 14/10 A3005 RMK AO2 SLP173 T01390100=
202209151253 METAR KPAE 151253Z AUTO 01005KT 10SM BKN060 OVC075 14/10 A3003 RMK AO2 SLP167 T01390100=
202209151153 METAR KPAE 151153Z AUTO 36005KT 10SM BKN060 OVC100 14/10 A3002 RMK AO2 SLP164 T01390100 10156 20139 51006=
202209151053 METAR KPAE 151053Z AUTO 02005KT 10SM FEW048 OVC060 14/10 A3002 RMK AO2 SLP164 T01390100=
202209150953 METAR KPAE 150953Z AUTO 02006KT 10SM BKN050 OVC070 14/10 A3001 RMK AO2 SLP160 T01390100=
202209150853 METAR KPAE 150853Z AUTO 02005KT 10SM FEW034 SCT045 OVC055 14/11 A3000 RMK AO2 SLP158 T01390106 52007=
202209150753 METAR KPAE 150753Z AUTO 01007KT 10SM BKN031 OVC060 14/11 A2999 RMK AO2 SLP155 T01390106 402060128=
202209150653 METAR KPAE 150653Z AUTO 06004KT 10SM SCT033 BKN060 OVC090 15/11 A2999 RMK AO2 SLP153 T01500106=
202209150553 METAR KPAE 150553Z AUTO 08005KT 10SM SCT034 OVC090 16/11 A2998 RMK AO2 SLP151 T01560106 10183 20144 51008=
202209150453 METAR KPAE 150453Z AUTO 02005KT 10SM BKN060 OVC090 15/11 A2997 RMK AO2 SLP148 T01500106=
202209150353 METAR KPAE 150353Z 01006KT 10SM OVC055 15/11 A2997 RMK AO2 SLP146 T01500106=
202209150253 METAR KPAE 150253Z 36008KT 10SM OVC050 14/11 A2995 RMK AO2 SLP143 T01440106 53007=
202209150153 METAR KPAE 150153Z 01005KT 10SM BKN050 16/11 A2994 RMK AO2 SLP139 T01560106=
202209150053 METAR KPAE 150053Z 01005KT 10SM BKN048 17/10 A2993 RMK AO2 SLP135 T01670100=
202209142353 METAR KPAE 142353Z 34005KT 10SM SCT047 BKN100 18/10 A2993 RMK AO2 SLP134 T01830100 10206 20172 56003=
202209142253 METAR KPAE 142253Z AUTO 29005KT 10SM SCT100 19/11 A2993 RMK AO2 SLP133 T01940111=
202209142153 METAR KPAE 142153Z VRB05KT 10SM BKN100 19/11 A2994 RMK AO2 SLP136 T01940111=
202209142053 METAR KPAE 142053Z 31006KT 10SM FEW048 BKN095 19/11 A2994 RMK AO2 SLP137 T01890111 50001=
202209141953 METAR KPAE 141953Z 32007KT 10SM CLR 19/11 A2994 RMK AO2 SLP138 T01890106=
202209141853 METAR KPAE 141853Z VRB03KT 10SM SCT043 OVC060 18/11 A2994 RMK AO2 SLP138 T01780111=
202209141753 METAR KPAE 141753Z 01004KT 10SM FEW048 OVC060 18/11 A2994 RMK AO2 SLP136 T01780111 10178 20128 52008=
202209141653 METAR KPAE 141653Z 01004KT 10SM BKN060 OVC080 16/11 A2993 RMK AO2 SLP134 T01610111=
202209141553 METAR KPAE 141553Z 06003KT 10SM FEW039 OVC065 16/11 A2992 RMK AO2 SLP131 T01560106=
202209141453 METAR KPAE 141453Z 02006KT 10SM BKN039 OVC070 14/11 A2991 RMK AO2 SLP129 T01390106 53005=
202209141353 METAR KPAE 141353Z 00000KT 10SM FEW040 OVC060 13/11 A2991 RMK AO2 SLP126 T01330106=
202209141253 METAR KPAE 141253Z AUTO VRB04KT 10SM OVC050 14/11 A2990 RMK AO2 SLP124 T01390111=
202209141153 METAR KPAE 141153Z AUTO 05003KT 10SM BKN055 14/11 A2990 RMK AO2 SLP123 T01440106 10156 20144 53002=
202209141053 METAR KPAE 141053Z AUTO VRB03KT 10SM OVC050 16/11 A2990 RMK AO2 SLP122 T01560106=
202209140953 METAR KPAE 140953Z AUTO 02004KT 10SM BKN055 OVC070 15/11 A2989 RMK AO2 SLP120 T01500106=
202209140853 METAR KPAE 140853Z AUTO 01004KT 10SM OVC060 16/11 A2989 RMK AO2 SLP120 T01560106 51001=
202209140753 METAR KPAE 140753Z AUTO 02005KT 10SM BKN055 OVC095 15/11 A2989 RMK AO2 SLP121 T01500106 402060150=
202209140653 METAR KPAE 140653Z AUTO 02006KT 10SM FEW060 OVC090 16/11 A2989 RMK AO2 SLP120 T01560106=
202209140553 METAR KPAE 140553Z AUTO 36005KT 10SM OVC090 16/10 A2989 RMK AO2 SLP120 T01560100 10200 20150 50002=
202209140453 METAR KPAE 140453Z AUTO 35006KT 10SM FEW065 OVC090 15/11 A2989 RMK AO2 SLP120 T01500106=
202209140353 METAR KPAE 140353Z 36004KT 10SM FEW090 15/11 A2990 RMK AO2 SLP122 T01500106=
202209140253 METAR KPAE 140253Z 35005KT 10SM OVC090 16/12 A2988 RMK AO2 SLP117 T01610117 50003=
202209140153 METAR KPAE 140153Z 33004KT 10SM OVC090 18/11 A2988 RMK AO2 SLP118 T01780111=
202209140053 METAR KPAE 140053Z 33005KT 10SM OVC065 19/11 A2988 RMK AO2 SLP116 T01890111=
202209132353 METAR KPAE 132353Z VRB05KT 10SM FEW075 20/11 A2987 RMK AO2 SLP113 T02000111 10206 20178 56011=
202209132253 METAR KPAE 132253Z 36007KT 10SM OVC065 19/10 A2988 RMK AO2 SLP116 T01940100=
202209132153 METAR KPAE 132153Z VRB05KT 10SM FEW090 21/11 A2989 RMK AO2 SLP120 T02060111=
202209132053 METAR KPAE 132053Z VRB04KT 10SM BKN065 OVC085 19/11 A2990 RMK AO2 SLP124 T01940111 57004=
202209131953 METAR KPAE 131953Z 27004KT 10SM OVC065 18/11 A2991 RMK AO2 SLP126 T01830111=
202209131853 METAR KPAE 131853Z 00000KT 10SM SCT034 OVC070 18/11 A2991 RMK AO2 SLP128 T01830106=
202209131753 METAR KPAE 131753Z 32004KT 10SM OVC075 18/11 A2992 RMK AO2 SLP129 T01830106 10189 20156 56003=
202209131653 METAR KPAE 131653Z 01004KT 10SM BKN034 OVC070 17/11 A2992 RMK AO2 SLP130 T01720106=
202209131553 METAR KPAE 131553Z 00000KT 10SM OVC033 17/10 A2992 RMK AO2 SLP130 T01670100=
202209131453 METAR KPAE 131453Z 00000KT 10SM OVC032 16/10 A2992 RMK AO2 SLP132 T01610100 53001=
202209131353 METAR KPAE 131353Z 00000KT 10SM OVC030 16/10 A2992 RMK AO2 SLP131 T01610100=
202209131253 METAR KPAE 131253Z AUTO 00000KT 10SM OVC030 16/10 A2992 RMK AO2 SLP130 T01610100=
202209131250 SPECI KPAE 131250Z AUTO 00000KT 10SM OVC030 16/10 A2992 RMK AO2=
202209131235 SPECI KPAE 131235Z AUTO 00000KT 10SM BKN029 OVC050 16/10 A2992 RMK AO2 T01610100=
202209131153 METAR KPAE 131153Z AUTO 00000KT 10SM OVC048 16/10 A2993 RMK AO2 SLP132 T01610100 10167 20150 56002=
202209131053 METAR KPAE 131053Z AUTO 05003KT 10SM OVC046 16/10 A2993 RMK AO2 SLP132 T01610100=
202209130953 METAR KPAE 130953Z AUTO 02005KT 10SM OVC048 16/09 A2993 RMK AO2 SLP132 T01610094=
202209130853 METAR KPAE 130853Z AUTO VRB03KT 10SM OVC046 16/10 A2993 RMK AO2 SLP134 T01610100 58003=
202209130753 METAR KPAE 130753Z AUTO 02005KT 10SM OVC043 16/10 A2994 RMK AO2 SLP136 T01560100 402220150=
202209130653 METAR KPAE 130653Z AUTO 01004KT 10SM BKN043 16/10 A2994 RMK AO2 SLP138 T01560100=
202209130553 METAR KPAE 130553Z AUTO 36005KT 10SM CLR 16/09 A2994 RMK AO2 SLP138 T01560094 10206 20150 50002=
202209130453 METAR KPAE 130453Z AUTO 34004KT 10SM CLR 15/10 A2995 RMK AO2 SLP141 T01500100=
202209130353 METAR KPAE 130353Z 34005KT 10SM FU HZ CLR 16/11 A2994 RMK AO2 SLP138 T01560106=
202209130253 METAR KPAE 130253Z 35004KT 10SM FU HZ CLR 17/11 A2994 RMK AO2 SLP136 T01670111 56005=
202209130153 METAR KPAE 130153Z 34004KT 10SM FU HZ CLR 18/12 A2994 RMK AO2 SLP137 T01780117=
202209130053 METAR KPAE 130053Z 35005KT 10SM FU HZ CLR 19/12 A2994 RMK AO2 SLP137 T01940117=
202209122353 METAR KPAE 122353Z 35008KT 10SM FU HZ CLR 21/12 A2995 RMK AO2 SLP140 T02110122 10222 20172 56015=
202209122253 METAR KPAE 122253Z 27007KT 10SM FU HZ CLR 22/12 A2996 RMK AO2 SLP143 T02220117=
202209122153 METAR KPAE 122153Z 27007KT 10SM FU HZ FEW120 22/12 A2997 RMK AO2 SLP146 T02220122=
202209122053 METAR KPAE 122053Z 24009KT 10SM FU HZ FEW110 20/12 A3000 RMK AO2 SLP155 T02000122 58019=
202209121953 METAR KPAE 121953Z 28006KT 10SM FU HZ FEW110 19/13 A3001 RMK AO2 SLP161 T01940128=
202209121911 SPECI KPAE 121911Z 00000KT 9SM FU HZ SCT021 SCT028 BKN110 18/13 A3003 RMK AO2 T01780128=
202209121853 METAR KPAE 121853Z 26003KT 8SM FU HZ BKN015 18/13 A3004 RMK AO2 SLP169 T01780128=
202209121753 METAR KPAE 121753Z 00000KT 8SM FU HZ BKN015 18/13 A3005 RMK AO2 SLP174 60000 T01780128 10178 20156 51004=
202209121717 SPECI KPAE 121717Z 00000KT 8SM FU HZ BKN015 17/13 A3006 RMK AO2 T01720128=
202209121700 SPECI KPAE 121700Z 36004KT 8SM FU HZ OVC011 17/12 A3005 RMK AO2 T01670122=
202209121653 METAR KPAE 121653Z 36005KT 8SM FU HZ BKN018 17/13 A3005 RMK AO2 SLP174 T01670128=
202209121645 SPECI KPAE 121645Z 36004KT 8SM FU HZ BKN015 17/13 A3005 RMK AO2 T01670128=
202209121635 SPECI KPAE 121635Z 36004KT 8SM FU HZ BKN100 17/13 A3005 RMK AO2 T01670128=
202209121553 METAR KPAE 121553Z 00000KT 8SM FU HZ FEW011 BKN100 17/13 A3005 RMK AO2 SLP175 T01670128=
202209121453 METAR KPAE 121453Z 00000KT 7SM FU HZ FEW120 16/13 A3004 RMK AO2 RAB1355E10 SLP170 P0000 60000 T01560133 55004=
202209121353 METAR KPAE 121353Z 00000KT 10SM FU HZ OVC110 16/12 A3003 RMK AO2 SLP168 T01610122=
202209121253 METAR KPAE 121253Z AUTO 10004KT 10SM FU HZ BKN110 17/13 A3004 RMK AO2 SLP168 T01670128=
202209121153 METAR KPAE 121153Z AUTO 00000KT 10SM FU HZ BKN120 16/13 A3005 RMK AO2 SLP173 T01610128 10194 20161 56002=
202209121053 METAR KPAE 121053Z AUTO 00000KT 10SM FU HZ CLR 17/12 A3006 RMK AO2 SLP175 T01670122=
202209120953 METAR KPAE 120953Z AUTO VRB03KT 10SM FU HZ CLR 18/13 A3005 RMK AO2 SLP172 T01780128=
202209120853 METAR KPAE 120853Z AUTO 15004KT 10SM FU HZ CLR 18/12 A3006 RMK AO2 SLP174 T01830122 50000=
202209120753 METAR KPAE 120753Z AUTO 17006KT 10SM FU HZ CLR 18/12 A3006 RMK AO2 SLP177 T01830122 402720161=
202209120653 METAR KPAE 120653Z AUTO 22007KT 10SM FU HZ CLR 18/12 A3006 RMK AO2 SLP177 T01830122=
202209120553 METAR KPAE 120553Z AUTO 16005KT 10SM FU HZ CLR 19/12 A3006 RMK AO2 SLP175 60000 T01890122 10233 20189 50005=
202209120453 METAR KPAE 120453Z AUTO 17007KT 10SM FU HZ FEW100 19/14 A3007 RMK AO2 RAB02E24 SLP179 P0000 T01890139=
202209120353 METAR KPAE 120353Z AUTO 19005KT 10SM FU HZ SCT100 BKN120 21/12 A3006 RMK AO2 SLP177 T02060117=
202209120253 METAR KPAE 120253Z 20006KT 10SM FU HZ CLR 21/11 A3004 RMK AO2 SLP170 T02110106 53008=
202209120153 METAR KPAE 120153Z 18006KT 10SM FU HZ CLR 22/11 A3003 RMK AO2 SLP165 T02220106=
202209120053 METAR KPAE 120053Z 15008KT 10SM FU HZ CLR 23/11 A3001 RMK AO2 SLP159 T02280106=
202209112353 METAR KPAE 112353Z 18011KT 10SM FU HZ CLR 23/09 A3002 RMK AO2 SLP161 T02330089 10272 20233 56003=
202209112253 METAR KPAE 112253Z 17013KT 8SM FU HZ CLR 25/08 A3002 RMK AO2 SLP162 T02500078=
202209112153 METAR KPAE 112153Z 17011KT 9SM FU HZ CLR 27/08 A3002 RMK AO2 SLP163 T02670083=
202209112053 METAR KPAE 112053Z 17010G18KT 7SM FU HZ CLR 27/07 A3003 RMK AO2 SLP164 T02670072 51003=
202209111953 METAR KPAE 111953Z 17005KT 10SM FU HZ CLR 26/09 A3002 RMK AO2 SLP163 T02560094=
202209111853 METAR KPAE 111853Z 18010KT 10SM FU HZ FEW047 25/11 A3003 RMK AO2 SLP166 T02500106=
202209111753 METAR KPAE 111753Z 18010KT 6SM FU HZ FEW046 24/10 A3002 RMK AO2 SLP162 T02390100 10239 20178 51008=
202209111653 METAR KPAE 111653Z 17010KT 6SM FU HZ FEW042 22/11 A3001 RMK AO2 SLP158 T02170106=
202209111553 METAR KPAE 111553Z 16007KT 7SM FU HZ BKN037 BKN046 19/11 A3001 RMK AO2 SLP158 T01940106=
202209111453 METAR KPAE 111453Z 15007KT 10SM FU HZ FEW055 SCT085 19/10 A2999 RMK AO2 SLP153 T01940100 53008=
202209111353 METAR KPAE 111353Z 16007KT 10SM FU HZ SCT048 SCT110 19/08 A2999 RMK AO2 SLP152 T01890083=
202209111253 METAR KPAE 111253Z AUTO 10011G20KT 9SM FU HZ FEW110 18/08 A2994 RMK AO2 SLP136 T01830083=
202209111153 METAR KPAE 111153Z AUTO 16008KT 9SM FU HZ OVC060 18/08 A2997 RMK AO2 SLP144 T01830083 10206 20161 53017=
202209111053 METAR KPAE 111053Z AUTO 15008KT 7SM FU HZ BKN070 18/09 A2995 RMK AO2 SLP138 T01830089=
202209110953 METAR KPAE 110953Z AUTO 19003KT 9SM FU HZ OVC070 17/08 A2994 RMK AO2 SLP135 T01670078=
202209110853 METAR KPAE 110853Z AUTO 15003KT 10SM FU HZ BKN070 18/07 A2992 RMK AO2 SLP128 T01830067 51009=
202209110753 METAR KPAE 110753Z AUTO 11003KT 9SM FU HZ OVC070 19/09 A2991 RMK AO2 SLP126 T01890089 402890128=
202209110653 METAR KPAE 110653Z AUTO 00000KT 10SM FU HZ FEW060 17/10 A2990 RMK AO2 SLP124 T01670100=
202209110553 METAR KPAE 110553Z AUTO 00000KT 9SM FU HZ OVC080 18/11 A2989 RMK AO2 SLP119 T01830106 10283 20178 51019=
202209110453 METAR KPAE 110453Z AUTO 00000KT 9SM FU HZ OVC085 20/11 A2988 RMK AO2 SLP115 T02000106=
202209110422 SPECI KPAE 110422Z AUTO 00000KT 9SM FU HZ SCT018 OVC090 20/10 A2987 RMK AO2 T02000100=
202209110353 METAR KPAE 110353Z AUTO 00000KT 9SM FU HZ BKN016 21/09 A2986 RMK AO2 SLP109 T02110089=
202209110312 SPECI KPAE 110312Z 00000KT 10SM FU HZ BKN017 24/09 A2984 RMK AO2 T02390094=
202209110253 METAR KPAE 110253Z 00000KT 9SM FU HZ CLR 24/09 A2983 RMK AO2 SLP100 T02390089 53002=
202209110153 METAR KPAE 110153Z 06003KT 9SM FU HZ CLR 27/05 A2982 RMK AO2 SLP094 T02670050=
202209110053 METAR KPAE 110053Z 04004KT 9SM FU HZ CLR 28/04 A2982 RMK AO2 SLP095 T02780044=
202209102353 METAR KPAE 102353Z 04004KT 3SM FU HZ SCT027 28/03 A2983 RMK AO2 SLP097 T02830033 10289 20194 58016=
202209102330 SPECI KPAE 102330Z 04004KT 8SM FU SCT022 28/02 A2983 RMK AO2 T02830022=
202209102253 METAR KPAE 102253Z 02004KT 3SM HZ FU OVC027 27/02 A2984 RMK AO2 SLP102 T02670022=
202209102153 METAR KPAE 102153Z 36003KT 3SM HZ FU OVC027 26/04 A2986 RMK AO2 SLP109 T02610044=
202209102053 METAR KPAE 102053Z 02006KT 4SM HZ FU OVC027 24/04 A2988 RMK AO2 SLP113 T02440044 58012=
202209102024 SPECI KPAE 102024Z 36005KT 4SM HZ FU OVC027 24/05 A2988 RMK AO2 T02440050=
202209102017 SPECI KPAE 102017Z 01004KT 4SM HZ FU OVC031 24/05 A2988 RMK AO2 T02390050=
202209101953 METAR KPAE 101953Z 36004KT 4SM HZ FU OVC027 23/06 A2989 RMK AO2 SLP119 T02280056=
202209101853 METAR KPAE 101853Z 01005KT 4SM FU OVC027 21/07 A2990 RMK AO2 SLP123 T02060067=
202209101753 METAR KPAE 101753Z 36006KT 5SM FU OVC027 19/07 A2991 RMK AO2 SLP126 T01940067 10194 20128 50004=
202209101653 METAR KPAE 101653Z 33004KT 5SM FU OVC026 18/07 A2991 RMK AO2 SLP126 T01780067=
202209101553 METAR KPAE 101553Z 35005KT 5SM HZ OVC027 16/07 A2991 RMK AO2 SLP127 T01610072=
202209101541 SPECI KPAE 101541Z 35007KT 5SM HZ OVC029 16/08 A2991 RMK AO2 T01560078=
202209101453 METAR KPAE 101453Z 35004KT 9SM CLR 14/08 A2990 RMK AO2 SLP123 T01440078 53002=
202209101353 METAR KPAE 101353Z 01004KT 8SM CLR 13/08 A2989 RMK AO2 SLP119 T01280078=
202209101253 METAR KPAE 101253Z AUTO 34003KT 10SM CLR 13/08 A2989 RMK AO2 SLP118 T01280078=
202209101153 METAR KPAE 101153Z AUTO 02004KT 10SM CLR 13/08 A2989 RMK AO2 SLP120 T01330083 10172 20128 56005=
202209100953 METAR KPAE 100953Z AUTO 02005KT 10SM CLR 14/08 A2990 RMK AO2 SLP122 T01390078=
202209100853 METAR KPAE 100853Z AUTO 00000KT 10SM CLR 15/07 A2991 RMK AO2 SLP125 T01500072 56006=
202209100753 METAR KPAE 100753Z AUTO 01005KT 10SM CLR 16/07 A2991 RMK AO2 SLP128 T01560072 402330122=
202209100653 METAR KPAE 100653Z AUTO 03005KT 10SM CLR 16/08 A2992 RMK AO2 SLP129 T01610078=
202209100553 METAR KPAE 100553Z AUTO 34004KT 10SM CLR 17/07 A2993 RMK AO2 SLP133 T01670067 10228 20161 51003=
202209100453 METAR KPAE 100453Z 01005KT 10SM CLR 18/06 A2993 RMK AO2 SLP132 T01780061=
202209100353 METAR KPAE 100353Z 35005KT 10SM CLR 18/06 A2992 RMK AO2 SLP131 T01780061=
202209100253 METAR KPAE 100253Z 35003KT 10SM CLR 18/07 A2992 RMK AO2 SLP130 T01780072 56009=
202209100153 METAR KPAE 100153Z 33003KT 10SM CLR 21/07 A2992 RMK AO2 SLP130 T02060072=
202209100053 METAR KPAE 100053Z 35005KT 10SM CLR 22/07 A2993 RMK AO2 SLP133 T02220072=
202209092353 METAR KPAE 092353Z 34006KT 10SM BKN041 23/07 A2995 RMK AO2 SLP138 T02280072 10233 20172 58020=
202209092253 METAR KPAE 092253Z 34005KT 10SM OVC040 23/07 A2997 RMK AO2 SLP145 T02280072=
202209092153 METAR KPAE 092153Z 35006KT 10SM OVC042 23/07 A2999 RMK AO2 SLP154 T02280072=
202209092053 METAR KPAE 092053Z 36006KT 10SM BKN044 22/07 A3001 RMK AO2 SLP159 T02170072 56017=
202209091953 METAR KPAE 091953Z 36008KT 10SM OVC045 21/08 A3002 RMK AO2 SLP163 T02060078=
202209091853 METAR KPAE 091853Z 35007KT 10SM OVC045 19/08 A3004 RMK AO2 SLP171 T01890078=
202209091753 METAR KPAE 091753Z 01007KT 10SM OVC046 17/09 A3006 RMK AO2 SLP177 T01720089 10172 20122 58005=
202209091653 METAR KPAE 091653Z 35005G15KT 10SM OVC050 16/09 A3006 RMK AO2 SLP179 T01560094=
202209091553 METAR KPAE 091553Z 35008KT 10SM OVC050 14/10 A3007 RMK AO2 SLP182 T01390100=
202209091453 METAR KPAE 091453Z 35005KT 10SM OVC050 13/10 A3007 RMK AO2 SLP183 T01280100 56006=
202209091353 METAR KPAE 091353Z 35006KT 10SM OVC055 13/09 A3008 RMK AO2 SLP183 T01280094=
202209091253 METAR KPAE 091253Z AUTO 34006KT 10SM OVC060 13/09 A3008 RMK AO2 SLP183 T01280089=
202209091153 METAR KPAE 091153Z AUTO 35005KT 10SM OVC055 12/09 A3009 RMK AO2 SLP188 T01220094 10150 20122 56006=
202209091053 METAR KPAE 091053Z AUTO 34005KT 10SM OVC055 13/09 A3009 RMK AO2 SLP189 T01280089=
202209090953 METAR KPAE 090953Z AUTO 35005KT 10SM BKN055 13/09 A3010 RMK AO2 SLP191 T01280089=
202209090853 METAR KPAE 090853Z AUTO 35005KT 10SM CLR 13/08 A3011 RMK AO2 SLP194 T01330083 58003=
202209090753 METAR KPAE 090753Z AUTO 34004KT 10SM CLR 12/09 A3012 RMK AO2 SLP197 T01220089 402000122=
202209090653 METAR KPAE 090653Z AUTO 35005KT 10SM CLR 13/08 A3012 RMK AO2 SLP198 T01330083=
202209090553 METAR KPAE 090553Z AUTO 35007KT 10SM CLR 15/08 A3012 RMK AO2 SLP198 T01500078 10194 20139 58006=
202209090453 METAR KPAE 090453Z 35005KT 10SM CLR 14/08 A3013 RMK AO2 SLP202 T01440083=
202209090353 METAR KPAE 090353Z 34006KT 10SM CLR 15/08 A3014 RMK AO2 SLP204 T01500083=
202209090253 METAR KPAE 090253Z 34007KT 10SM CLR 16/08 A3014 RMK AO2 SLP203 T01610083 57009=
202209090153 METAR KPAE 090153Z 34006KT 10SM CLR 18/08 A3014 RMK AO2 SLP205 T01780083=
202209090053 METAR KPAE 090053Z 33005KT 10SM CLR 18/09 A3016 RMK AO2 SLP211 T01780094=
202209082353 METAR KPAE 082353Z 35007G15KT 10SM CLR 19/09 A3016 RMK AO2 SLP213 T01940094 10200 20172 58021=
202209082253 METAR KPAE 082253Z 34009G18KT 10SM CLR 20/09 A3019 RMK AO2 SLP221 T02000094=
202209082153 METAR KPAE 082153Z 36009KT 10SM CLR 19/09 A3020 RMK AO2 SLP227 T01940089=
202209082053 METAR KPAE 082053Z 36008KT 10SM CLR 19/08 A3023 RMK AO2 SLP234 T01940083 58015=
202209081953 METAR KPAE 081953Z VRB06KT 10SM CLR 19/08 A3024 RMK AO2 SLP239 T01940083=
202209081853 METAR KPAE 081853Z 35006KT 10SM CLR 18/08 A3026 RMK AO2 SLP247 T01780083=
202209081753 METAR KPAE 081753Z 34005KT 10SM CLR 17/08 A3027 RMK AO2 SLP250 T01720078 10178 20139 50000=
202209081653 METAR KPAE 081653Z 36007KT 10SM CLR 16/08 A3028 RMK AO2 SLP252 T01610078=
202209081553 METAR KPAE 081553Z 35005KT 10SM CLR 16/08 A3027 RMK AO2 SLP250 T01560083=
202209081453 METAR KPAE 081453Z 02008KT 10SM CLR 14/08 A3027 RMK AO2 SLP250 T01440083 53012=
202209081353 METAR KPAE 081353Z 01006KT 10SM CLR 14/07 A3026 RMK AO2 SLP245 T01390072=
202209081253 METAR KPAE 081253Z AUTO 01007KT 10SM CLR 14/07 A3025 RMK AO2 SLP241 T01440072=
202209081153 METAR KPAE 081153Z AUTO 01009G17KT 10SM CLR 15/08 A3024 RMK AO2 SLP237 T01500078 10156 20139 55000=
202209081053 METAR KPAE 081053Z AUTO 01008KT 10SM CLR 14/08 A3023 RMK AO2 SLP235 T01440078=
202209080953 METAR KPAE 080953Z AUTO 34006KT 10SM CLR 14/08 A3023 RMK AO2 SLP235 T01440078=
202209080853 METAR KPAE 080853Z AUTO 01007KT 10SM CLR 15/07 A3024 RMK AO2 SLP237 T01500072 53006=
202209080753 METAR KPAE 080753Z AUTO 01007KT 10SM CLR 15/08 A3022 RMK AO2 SLP233 T01500078 402280133=
202209080653 METAR KPAE 080653Z AUTO 01005KT 10SM CLR 14/08 A3022 RMK AO2 SLP232 T01440083=
202209080553 METAR KPAE 080553Z AUTO 36007KT 10SM CLR 14/09 A3022 RMK AO2 SLP231 T01440089 10222 20144 52008=
202209080453 METAR KPAE 080453Z 35004KT 10SM CLR 14/08 A3021 RMK AO2 SLP228 T01440078=
202209080353 METAR KPAE 080353Z 31004KT 10SM CLR 16/08 A3020 RMK AO2 SLP226 T01610078=
202209080253 METAR KPAE 080253Z 33005KT 10SM CLR 17/09 A3019 RMK AO2 SLP223 T01720089 53001=
202209080153 METAR KPAE 080153Z 33005KT 10SM CLR 20/09 A3018 RMK AO2 SLP219 T02000089=
202209080053 METAR KPAE 080053Z 34007KT 10SM CLR 21/08 A3019 RMK AO2 SLP220 T02110078=
202209072353 METAR KPAE 072353Z 34006KT 10SM CLR 22/09 A3019 RMK AO2 SLP221 T02220094 10228 20178 58001=
202209072253 METAR KPAE 072253Z 34006KT 10SM CLR 23/10 A3019 RMK AO2 SLP221 T02280100=
202209072153 METAR KPAE 072153Z 34008G14KT 10SM CLR 22/09 A3020 RMK AO2 SLP225 T02220094=
202209072053 METAR KPAE 072053Z 33008G17KT 10SM CLR 22/09 A3019 RMK AO2 SLP222 T02220094 53005=
202209071953 METAR KPAE 071953Z 36005KT 10SM CLR 22/09 A3019 RMK AO2 SLP219 T02220089=
202209071853 METAR KPAE 071853Z 36006KT 10SM CLR 20/11 A3018 RMK AO2 SLP218 T02000111=
202209071753 METAR KPAE 071753Z 35006KT 10SM CLR 18/12 A3018 RMK AO2 SLP218 T01830117 10183 20133 53016=
202209071653 METAR KPAE 071653Z 35008KT 10SM CLR 17/11 A3016 RMK AO2 SLP211 T01670111=
202209071553 METAR KPAE 071553Z 03004KT 10SM FEW110 14/09 A3014 RMK AO2 SLP204 T01440094=
202209071453 METAR KPAE 071453Z 02004KT 10SM SCT110 15/09 A3013 RMK AO2 SLP202 T01500094 51021=
202209071353 METAR KPAE 071353Z 02003KT 10SM CLR 14/07 A3011 RMK AO2 SLP194 T01390067=
202209071253 METAR KPAE 071253Z AUTO VRB03KT 10SM CLR 14/07 A3009 RMK AO2 SLP186 T01440067=
202209071153 METAR KPAE 071153Z AUTO 35004KT 10SM CLR 15/06 A3007 RMK AO2 SLP179 T01500056 10161 20139 53012=
202209071053 METAR KPAE 071053Z AUTO VRB04KT 10SM CLR 15/06 A3004 RMK AO2 SLP171 T01500056=
202209070953 METAR KPAE 070953Z AUTO VRB05KT 10SM CLR 15/06 A3004 RMK AO2 SLP170 T01500056=
202209070853 METAR KPAE 070853Z AUTO 00000KT 10SM CLR 16/07 A3003 RMK AO2 SLP168 T01560067 53001=
202209070753 METAR KPAE 070753Z AUTO 02006KT 10SM CLR 16/07 A3003 RMK AO2 SLP166 T01560067 402330117=
202209070653 METAR KPAE 070653Z AUTO 02005KT 10SM CLR 16/07 A3003 RMK AO2 SLP167 T01610072=
202209070553 METAR KPAE 070553Z AUTO 36007KT 10SM CLR 16/08 A3003 RMK AO2 SLP168 T01610078 10233 20156 51009=
202209070453 METAR KPAE 070453Z AUTO 02007KT 10SM CLR 16/08 A3003 RMK AO2 SLP167 T01560083=
202209070353 METAR KPAE 070353Z AUTO 35005KT 10SM CLR 17/09 A3002 RMK AO2 SLP165 T01720089=
202209070253 METAR KPAE 070253Z 34004KT 10SM CLR 19/09 A3000 RMK AO2 SLP158 T01940094 58003=
202209070153 METAR KPAE 070153Z 34004KT 10SM CLR 22/09 A3000 RMK AO2 SLP159 T02170094=
202209062353 METAR KPAE 062353Z 36008KT 10SM CLR 23/09 A3001 RMK AO2 SLP160 T02330094 10233 20183 56007=
202209062253 METAR KPAE 062253Z AUTO 36008KT 10SM CLR 23/10 A3002 RMK AO2 SLP162 T02330100=
202209062153 METAR KPAE 062153Z 35007KT 10SM CLR 23/09 A3002 RMK AO2 SLP163 T02280094=
202209062053 METAR KPAE 062053Z 34008KT 10SM CLR 22/09 A3003 RMK AO2 SLP167 T02170089 56013=
202209061953 METAR KPAE 061953Z 36008KT 10SM CLR 20/09 A3004 RMK AO2 SLP172 T02000094=
202209061853 METAR KPAE 061853Z 36006KT 10SM CLR 20/09 A3006 RMK AO2 SLP177 T02000089=
202209061753 METAR KPAE 061753Z VRB04KT 10SM CLR 18/09 A3007 RMK AO2 SLP182 T01830094 10183 20117 55002=
202209061653 METAR KPAE 061653Z 36005KT 10SM CLR 17/10 A3007 RMK AO2 SLP180 T01720100=
202209061553 METAR KPAE 061553Z 03004KT 10SM CLR 15/10 A3007 RMK AO2 SLP182 T01500100=
202209061453 METAR KPAE 061453Z 01004KT 10SM CLR 14/10 A3008 RMK AO2 SLP183 T01390100 53005=
202209061353 METAR KPAE 061353Z 01004KT 10SM CLR 12/09 A3007 RMK AO2 SLP180 T01220094=
202209061253 METAR KPAE 061253Z AUTO 35003KT 10SM CLR 12/09 A3006 RMK AO2 SLP178 T01170094=
202209061153 METAR KPAE 061153Z AUTO 36005KT 10SM CLR 12/09 A3006 RMK AO2 SLP179 T01170094 10144 20117 55006=
202209061053 METAR KPAE 061053Z AUTO 36003KT 10SM CLR 12/10 A3006 RMK AO2 SLP178 T01220100=
202209060953 METAR KPAE 060953Z AUTO 34005KT 10SM CLR 13/09 A3007 RMK AO2 SLP181 T01280094=
202209060853 METAR KPAE 060853Z AUTO 34007KT 10SM CLR 13/09 A3008 RMK AO2 SLP184 T01330094 58007=
202209060753 METAR KPAE 060753Z AUTO 34005KT 10SM CLR 13/09 A3009 RMK AO2 SLP187 T01330089 402170117=
202209060653 METAR KPAE 060653Z AUTO 34007KT 10SM CLR 14/09 A3010 RMK AO2 SLP191 T01390094=
202209060553 METAR KPAE 060553Z AUTO 35007KT 10SM CLR 14/09 A3010 RMK AO2 SLP192 T01440094 10211 20144 58007=
202209060453 METAR KPAE 060453Z AUTO 34005KT 10SM CLR 14/09 A3011 RMK AO2 SLP194 T01440094=
202209060353 METAR KPAE 060353Z 34006KT 10SM CLR 16/10 A3012 RMK AO2 SLP200 T01560100=
202209060253 METAR KPAE 060253Z 34007KT 10SM CLR 17/10 A3012 RMK AO2 SLP200 T01720100 58014=
202209060153 METAR KPAE 060153Z 34005KT 10SM CLR 19/09 A3014 RMK AO2 SLP204 T01890089=
202209060053 METAR KPAE 060053Z 36007KT 10SM CLR 21/08 A3016 RMK AO2 SLP211 T02060083=
202209052353 METAR KPAE 052353Z 33006KT 10SM CLR 21/08 A3017 RMK AO2 SLP214 T02110078 10217 20172 56014=
202209052253 METAR KPAE 052253Z COR 31005KT 10SM CLR 21/08 A3018 RMK AO2 SLP218 T02110083=
202209052053 METAR KPAE 052053Z 36007KT 10SM CLR 21/09 A3021 RMK AO2 SLP228 T02060089 58006=
202209051953 METAR KPAE 051953Z 01007KT 10SM CLR 19/09 A3021 RMK AO2 SLP229 T01890094=
202209051853 METAR KPAE 051853Z 01006KT 10SM SCT020 18/11 A3023 RMK AO2 SLP235 T01830106=
202209051753 METAR KPAE 051753Z VRB05KT 10SM SCT020 18/11 A3023 RMK AO2 SLP234 60000 T01780106 10183 20117 50006=
202209051653 METAR KPAE 051653Z VRB04KT 10SM OVC020 17/11 A3023 RMK AO2 SLP235 T01720106=
202209051553 METAR KPAE 051553Z VRB04KT 10SM OVC023 16/11 A3022 RMK AO2 SLP232 T01560106=
202209051453 METAR KPAE 051453Z VRB03KT 10SM BKN020 BKN075 14/10 A3021 RMK AO2 RAE00 PRESRR SLP228 P0000 60000 T01440100 53018=
202209051353 METAR KPAE 051353Z 00000KT 10SM -RA FEW021 BKN049 OVC065 14/09 A3019 RMK AO2 RAB51 SLP223 P0000 T01390094=
202209051253 METAR KPAE 051253Z AUTO 00000KT 10SM SCT045 12/08 A3016 RMK AO2 SLP212 T01220083=
202209051153 METAR KPAE 051153Z AUTO 00000KT 10SM CLR 13/09 A3015 RMK AO2 SLP210 T01280089 10150 20128 51009=
202209051053 METAR KPAE 051053Z AUTO 00000KT 10SM CLR 13/09 A3015 RMK AO2 SLP209 T01280094=
202209050953 METAR KPAE 050953Z AUTO 01007KT 10SM FEW060 14/09 A3014 RMK AO2 SLP203 T01390094=
202209050853 METAR KPAE 050853Z AUTO 36006KT 10SM CLR 14/10 A3012 RMK AO2 SLP199 T01390100 51008=
202209050753 METAR KPAE 050753Z AUTO 01006KT 10SM BKN055 14/10 A3012 RMK AO2 SLP198 T01440100 402280144=
202209050653 METAR KPAE 050653Z AUTO 01007KT 10SM SCT036 BKN047 OVC055 15/11 A3011 RMK AO2 SLP194 T01500111=
202209050624 SPECI KPAE 050624Z AUTO 01007KT 10SM OVC031 15/12 A3010 RMK AO2 T01500117=
202209050553 METAR KPAE 050553Z AUTO 36004KT 10SM BKN028 OVC036 15/12 A3010 RMK AO2 RAB38E47 SLP191 P0000 60000 T01500117 10206 20144 51010=
202209050545 SPECI KPAE 050545Z AUTO 01005KT 10SM -RA BKN030 OVC036 14/12 A3010 RMK AO2 RAB38 P0000 T01440117=
202209050453 METAR KPAE 050453Z AUTO 01007KT 10SM OVC021 15/11 A3010 RMK AO2 SLP189 T01500111=
202209050353 METAR KPAE 050353Z AUTO 36011G20KT 10SM OVC025 14/11 A3008 RMK AO2 SLP185 T01440106=
202209050253 METAR KPAE 050253Z 36012G17KT 10SM OVC026 15/11 A3007 RMK AO2 SLP181 T01500111 51006=
202209050153 METAR KPAE 050153Z VRB06KT 10SM OVC025 15/12 A3007 RMK AO2 SLP181 T01500117=
202209042353 METAR KPAE 042353Z VRB04KT 10SM SCT036 OVC060 21/14 A3005 RMK AO2 RAB15E50 SLP175 P0000 60000 T02060139 10228 20206 53006=
202209042253 METAR KPAE 042253Z 20010KT 10SM OVC060 23/13 A3004 RMK AO2 SLP171 T02280128=
202209042153 METAR KPAE 042153Z 20012G23KT 10SM OVC070 23/12 A3003 RMK AO2 PK WND 18028/2128 SLP167 T02280117=
202209042053 METAR KPAE 042053Z 17015G25KT 10SM OVC090 23/11 A3003 RMK AO2 PK WND 15030/2017 SLP167 T02280111 57008=
202209041953 METAR KPAE 041953Z 17017G24KT 10SM OVC085 22/11 A3004 RMK AO2 SLP171 T02170111=
202209041853 METAR KPAE 041853Z 17012G19KT 10SM OVC095 21/13 A3005 RMK AO2 SLP173 T02060128=
202209041753 METAR KPAE 041753Z 17013G19KT 10SM OVC120 21/13 A3006 RMK AO2 SLP176 T02060128 10211 20150 58002=
202209041653 METAR KPAE 041653Z 16011G18KT 10SM CLR 21/13 A3006 RMK AO2 SLP177 T02060128=
202209041553 METAR KPAE 041553Z 17011KT 10SM CLR 18/12 A3006 RMK AO2 SLP178 T01830122=
202209041453 METAR KPAE 041453Z 16008KT 10SM CLR 18/12 A3006 RMK AO2 SLP178 T01780122 55001=
202209041353 METAR KPAE 041353Z 14007KT 10SM CLR 15/11 A3005 RMK AO2 SLP175 T01500111=
202209041253 METAR KPAE 041253Z AUTO 14005KT 10SM CLR 16/11 A3006 RMK AO2 SLP177 T01560111=
202209041153 METAR KPAE 041153Z AUTO 15005KT 10SM CLR 16/12 A3007 RMK AO2 SLP179 70006 T01560117 10183 20156 50001=
202209041053 METAR KPAE 041053Z AUTO 15010KT 10SM CLR 16/12 A3007 RMK AO2 SLP180 T01610122=
202209040953 METAR KPAE 040953Z AUTO 15009KT 10SM SCT039 17/12 A3007 RMK AO2 SLP180 T01670117=
202209040853 METAR KPAE 040853Z AUTO 15007G14KT 10SM SCT041 17/12 A3006 RMK AO2 SLP179 T01720117 56008=
202209040753 METAR KPAE 040753Z AUTO VRB05KT 10SM CLR 17/12 A3006 RMK AO2 SLP179 T01720122 402110144=
202209040653 METAR KPAE 040653Z AUTO VRB04KT 10SM CLR 18/12 A3008 RMK AO2 SLP184 T01780122=
202209040553 METAR KPAE 040553Z AUTO 15005KT 10SM FEW048 18/12 A3009 RMK AO2 SLP187 T01830122 10211 20183 55003=
202209040453 METAR KPAE 040453Z AUTO 11006KT 10SM CLR 19/12 A3008 RMK AO2 SLP186 T01890122=
202209040353 METAR KPAE 040353Z AUTO 12006KT 10SM CLR 19/13 A3009 RMK AO2 SLP188 T01940128=
202209040253 METAR KPAE 040253Z 10004KT 10SM CLR 20/13 A3010 RMK AO2 SLP191 T02000128 55001=
202209040153 METAR KPAE 040153Z VRB03KT 10SM CLR 21/12 A3009 RMK AO2 SLP188 T02110122=
202209040100 SPECI KPAE 040100Z 26003KT 10SM CLR 21/13 A3010 RMK AO2 T02060133=
202209040053 METAR KPAE 040053Z 25004KT 10SM BKN024 21/14 A3010 RMK AO2 SLP191 T02060139=
202209032353 METAR KPAE 032353Z 22006KT 10SM BKN022 BKN028 21/13 A3010 RMK AO2 SLP191 60005 T02060133 10206 20150 57002=
202209032153 METAR KPAE 032153Z 16008KT 10SM SCT014 OVC029 18/13 A3011 RMK AO2 SLP194 T01780133=
202209032144 SPECI KPAE 032144Z 20003KT 10SM SCT014 OVC029 18/14 A3011 RMK AO2 T01780144=
202209032053 METAR KPAE 032053Z 24004KT 10SM BKN009 BKN014 OVC028 17/14 A3011 RMK AO2 SLP194 60005 T01720139 53004=
202209031955 SPECI KPAE 031955Z 22007KT 10SM BKN009 BKN014 OVC028 17/14 A3010 RMK AO2 T01670144=
202209031953 METAR KPAE 031953Z 20005KT 2SM BR FEW006 SCT014 OVC028 17/14 A3010 RMK AO2 SLP191 T01670144=
202209031923 SPECI KPAE 031923Z 24005KT 2SM BR SCT003 BKN010 OVC029 16/14 A3010 RMK AO2 T01610144=
202209031853 METAR KPAE 031853Z 28005KT 2SM BR BKN005 BKN009 OVC026 16/14 A3010 RMK AO2 RAE27 SLP193 P0005 T01610144=
202209031753 METAR KPAE 031753Z 29005KT 1 1/4SM R16R/5000VP6000FT -RA BR OVC005 16/14 A3010 RMK AO2 RAB22 SLP191 P0001 60001 T01560139 10161 20144 51016=
202209031653 METAR KPAE 031653Z 14005KT 1 1/4SM BR OVC005 16/14 A3008 RMK AO2 RAE1556 SLP186 P0000 T01560139=
202209031553 METAR KPAE 031553Z 15005KT 1 1/4SM R16R/6000VP6000FT -RA BR OVC006 15/13 A3007 RMK AO2 RAB47 SLP180 P0000 T01500133=
202209031453 METAR KPAE 031453Z VRB04KT 1 1/4SM R16R/6000VP6000FT BR OVC006 14/13 A3005 RMK AO2 SLP175 T01440128 51007=
202209031440 SPECI KPAE 031440Z 16005KT 1 1/4SM R16R/6000VP6000FT BR OVC007 15/13 A3005 RMK AO2 T01500133=
202209031431 SPECI KPAE 031431Z 15005KT 3SM BR OVC007 14/13 A3005 RMK AO2 T01440128=
202209031407 SPECI KPAE 031407Z 15004KT 1 1/4SM BR OVC007 15/13 A3005 RMK AO2 T01500128=
202209031350 METAR KPAE 031350Z 15005KT 2 1/2SM BR OVC006 15/13 A3005 RMK AO2 SLP172 T01500128=
202209031349 SPECI KPAE 031349Z 14005KT 2 1/2SM OVC009 15/13 A3005 RMK AO2=
202209031253 METAR KPAE 031253Z AUTO 15003KT 10SM OVC011 16/12 A3004 RMK AO2 SLP167 T01560117=
202209031153 METAR KPAE 031153Z AUTO 17006KT 10SM OVC013 16/12 A3003 RMK AO2 SLP165 T01560117 10156 20150 51014=
202209031053 METAR KPAE 031053Z AUTO 19005KT 10SM OVC013 16/12 A3003 RMK AO2 SLP164 T01560117=
202209030953 METAR KPAE 030953Z AUTO VRB03KT 10SM OVC011 15/12 A3000 RMK AO2 SLP154 T01500117=
202209030900 SPECI KPAE 030900Z AUTO 19007KT 10SM BKN012 16/12 A2999 RMK AO2 T01560122=
202209030853 METAR KPAE 030853Z AUTO 18006KT 10SM SCT012 16/12 A2999 RMK AO2 SLP152 T01560122 51015=
202209030821 SPECI KPAE 030821Z AUTO 11003KT 10SM SCT012 16/12 A2997 RMK AO2 T01560122=
202209030808 SPECI KPAE 030808Z AUTO 10003KT 10SM BKN012 15/12 A2996 RMK AO2 T01500122=
202209030753 METAR KPAE 030753Z AUTO 06003KT 10SM SCT014 15/12 A2997 RMK AO2 SLP146 T01500122 402500122=
202209030653 METAR KPAE 030653Z AUTO 09003KT 10SM CLR 15/12 A2997 RMK AO2 SLP145 T01500122=
202209030553 METAR KPAE 030553Z AUTO 36008G18KT 10SM CLR 15/12 A2994 RMK AO2 SLP137 T01500122 10250 20150 53027=
202209030453 METAR KPAE 030453Z AUTO 01006KT 10SM CLR 17/13 A2991 RMK AO2 SLP126 T01720128=
202209030353 METAR KPAE 030353Z 36005KT 10SM CLR 17/13 A2988 RMK AO2 SLP118 T01720128=
202209030253 METAR KPAE 030253Z 02004KT 10SM CLR 19/13 A2986 RMK AO2 SLP109 T01890128 53008=
202209030153 METAR KPAE 030153Z 01005KT 10SM CLR 20/13 A2984 RMK AO2 SLP102 T02000128=
202209022353 METAR KPAE 022353Z 33004KT 10SM CLR 24/13 A2983 RMK AO2 SLP100 T02440133 10250 20189 56009=
202209022253 METAR KPAE 022253Z AUTO 36005KT 10SM CLR 24/13 A2984 RMK AO2 SLP102 T02390133=
202209022153 METAR KPAE 022153Z 01004KT 10SM CLR 24/13 A2985 RMK AO2 SLP106 T02440133=
202209022053 METAR KPAE 022053Z 01004KT 10SM CLR 23/13 A2986 RMK AO2 SLP109 T02330133 58008=
202209021953 METAR KPAE 021953Z VRB03KT 10SM CLR 21/13 A2987 RMK AO2 SLP113 T02110128=
202209021853 METAR KPAE 021853Z VRB03KT 10SM BCFG CLR 21/13 A2988 RMK AO2 SLP116 T02060128=
202209021753 METAR KPAE 021753Z 33005KT 10SM BCFG CLR 19/13 A2989 RMK AO2 SLP118 T01940128 10194 20122 56009=
202209021653 METAR KPAE 021653Z VRB04KT 10SM BCFG FEW001 14/12 A2989 RMK AO2 SLP121 VIS W NW N NE 1SM T01440117=
202209021617 SPECI KPAE 021617Z 02003KT 3/4SM R16R/0800V2400FT BR VV001 13/12 A2990 RMK AO2 VIS 1/4V4 T01330117=
202209021500 SPECI KPAE 021500Z 36006KT 1/4SM R16R/0800V1200FT FG VV001 13/12 A2991 RMK AO2 T01280117=
202209021453 METAR KPAE 021453Z 36004KT M1/4SM R16R/0800V1600FT FG VV001 13/12 A2991 RMK AO2 SLP128 T01280117 53000=
202209021353 METAR KPAE 021353Z VRB03KT M1/4SM R16R/0800V2000FT FG VV001 12/11 A2991 RMK AO2 SLP127 T01220111=
202209021347 SPECI KPAE 021347Z AUTO 32003KT M1/4SM R16R/1000V2000FT FG VV001 12/11 A2991 RMK AO2=
202209021337 SPECI KPAE 021337Z AUTO 32003KT 1/4SM R16R/1200V5500FT FG VV001 12/11 A2991 RMK AO2 T01220111=
202209021318 SPECI KPAE 021318Z AUTO 02004KT 1 1/4SM R16R/2000V5000FT BR OVC001 12/11 A2990 RMK AO2 VIS 1V1 3/4 T01220111=
202209021253 METAR KPAE 021253Z AUTO 35005KT 2SM R16R/2000V3500FT BR OVC001 12/11 A2991 RMK AO2 VIS 1 1/4V3 SLP126 T01220111=
202209021246 SPECI KPAE 021246Z AUTO 36007KT 1 3/4SM R16R/2000V3500FT BR OVC001 13/11 A2991 RMK AO2 VIS 1 1/4V4 T01280111=
202209021210 SPECI KPAE 021210Z AUTO VRB05KT 10SM R16R/2800VP6000FT OVC001 12/11 A2991 RMK AO2 T01220111=
202209021203 SPECI KPAE 021203Z AUTO 36006KT 2 1/2SM R16R/2800VP6000FT BR OVC001 13/11 A2991 RMK AO2 T01280111=
202209021153 METAR KPAE 021153Z AUTO 02006KT 1/2SM R16R/2400VP6000FT FG VV001 13/11 A2991 RMK AO2 SLP127 T01280111 10156 20128 51005=
202209021149 SPECI KPAE 021149Z AUTO 01007KT 1/2SM R16R/1600V6000FT FG VV001 13/12 A2991 RMK AO2=
202209021138 SPECI KPAE 021138Z AUTO 01007KT 1 3/4SM R16R/2200VP6000FT BR BKN001 13/12 A2991 RMK AO2 VIS 3/4V5 T01280117=
202209021132 SPECI KPAE 021132Z AUTO 01005KT 3SM R16R/3500VP6000FT BR BKN001 13/12 A2991 RMK AO2 T01330117=
202209021123 SPECI KPAE 021123Z AUTO 02005KT 2 1/2SM R16R/4500VP6000FT BR SCT001 13/12 A2991 RMK AO2 T01330117=
202209021053 METAR KPAE 021053Z AUTO 35004KT 10SM CLR 13/12 A2992 RMK AO2 SLP128 T01280117=
202209021044 SPECI KPAE 021044Z AUTO 34004KT 10SM SCT001 13/12 A2992 RMK AO2 T01330117=
202209021008 SPECI KPAE 021008Z AUTO 32005KT 3SM R16R/4500VP6000FT BR OVC001 13/12 A2991 RMK AO2 T01330122=
202209020953 METAR KPAE 020953Z AUTO 36008KT 9SM R16R/4000VP6000FT OVC002 14/12 A2990 RMK AO2 SLP122 T01390122=
202209020930 SPECI KPAE 020930Z AUTO 36008KT 10SM BKN002 14/12 A2990 RMK AO2 T01390122=
202209020853 METAR KPAE 020853Z AUTO 36007KT 10SM FEW002 14/12 A2991 RMK AO2 SLP126 T01390122 57007=
202209020823 SPECI KPAE 020823Z AUTO 36007KT 10SM FEW002 14/13 A2991 RMK AO2 T01440128=
202209020753 METAR KPAE 020753Z AUTO 36007KT 10SM CLR 14/13 A2991 RMK AO2 SLP127 T01440128 402390144=
202209020653 METAR KPAE 020653Z AUTO 35004KT 10SM CLR 15/13 A2992 RMK AO2 SLP131 T01500133=
202209020553 METAR KPAE 020553Z AUTO 01005KT 10SM CLR 16/13 A2993 RMK AO2 SLP133 T01560128 10239 20156 58003=
202209020453 METAR KPAE 020453Z AUTO 36006KT 10SM CLR 16/13 A2994 RMK AO2 SLP138 T01610128=
202209020353 METAR KPAE 020353Z 35006KT 10SM CLR 17/14 A2994 RMK AO2 SLP138 T01720139=
202209020253 METAR KPAE 020253Z 35004KT 10SM CLR 19/14 A2994 RMK AO2 SLP135 T01940144 56014=
202209020153 METAR KPAE 020153Z 34004KT 10SM CLR 21/14 A2994 RMK AO2 SLP138 T02110144=
202209020053 METAR KPAE 020053Z 32003KT 10SM CLR 23/14 A2996 RMK AO2 SLP144 T02330144=
202209012353 METAR KPAE 012353Z 30004KT 10SM CLR 23/14 A2998 RMK AO2 SLP149 T02280139 10239 20172 56019=
202209012253 METAR KPAE 012253Z 24004KT 10SM CLR 23/14 A2999 RMK AO2 SLP154 T02330144=
202209012153 METAR KPAE 012153Z 24004KT 10SM CLR 22/14 A3001 RMK AO2 SLP161 T02170144=
202209012053 METAR KPAE 012053Z 24006KT 10SM CLR 21/14 A3003 RMK AO2 SLP168 T02060139 58013=
202209011953 METAR KPAE 011953Z 25008KT 10SM CLR 19/14 A3005 RMK AO2 SLP173 T01940139=
202209011916 SPECI KPAE 011916Z 24006KT 10SM SCT010 19/14 A3006 RMK AO2 T01890139=
202209011853 METAR KPAE 011853Z 26006KT 10SM FEW003 OVC010 18/14 A3006 RMK AO2 SLP177 T01780139=
202209011800 SPECI KPAE 011800Z VRB04KT 10SM SCT003 OVC008 18/14 A3007 RMK AO2 T01830139=
202209011753 METAR KPAE 011753Z VRB03KT 10SM BKN003 OVC006 18/14 A3007 RMK AO2 SLP181 T01780139 10178 20150 50005=
202209011656 SPECI KPAE 011656Z 24004KT 10SM BKN003 OVC006 17/14 A3008 RMK AO2 T01670139=
202209011653 METAR KPAE 011653Z 24004KT 10SM OVC006 17/14 A3007 RMK AO2 SLP182 T01670139=
202209011553 METAR KPAE 011553Z 26005KT 10SM OVC006 16/14 A3007 RMK AO2 SLP179 T01610139=
202209011453 METAR KPAE 011453Z 22003KT 10SM OVC005 16/14 A3005 RMK AO2 SLP174 T01560139 53009=
202209011353 METAR KPAE 011353Z 19004KT 10SM OVC005 16/13 A3004 RMK AO2 SLP170 T01560133=
202209011253 METAR KPAE 011253Z AUTO 21004KT 10SM OVC006 16/13 A3002 RMK AO2 SLP163 T01560133=
202209011209 SPECI KPAE 011209Z AUTO 18006KT 10SM BKN007 16/13 A3002 RMK AO2 T01560133=
202209011200 SPECI KPAE 011200Z AUTO 19004KT 10SM SCT007 15/13 A3003 RMK AO2 T01500133=
202209011153 METAR KPAE 011153Z AUTO 21004KT 10SM CLR 16/13 A3003 RMK AO2 SLP165 T01560133 10194 20144 58000=
202209011053 METAR KPAE 011053Z AUTO 26004KT 10SM FEW009 15/13 A3003 RMK AO2 SLP166 T01500133=
202209010953 METAR KPAE 010953Z AUTO 20003KT 10SM CLR 16/13 A3003 RMK AO2 SLP165 T01610133=
202209010853 METAR KPAE 010853Z AUTO 21004KT 10SM CLR 17/13 A3003 RMK AO2 SLP164 T01670133 53009=
202209010753 METAR KPAE 010753Z AUTO 19004KT 10SM CLR 17/13 A3001 RMK AO2 SLP159 T01720133 403060172=
202209010653 METAR KPAE 010653Z AUTO 18008KT 10SM CLR 18/14 A3000 RMK AO2 SLP156 T01830139=
202209010553 METAR KPAE 010553Z AUTO 17007KT 10SM CLR 20/13 A3000 RMK AO2 SLP156 T02000133 10289 20194 51015=
202209010453 METAR KPAE 010453Z AUTO VRB03KT 10SM CLR 19/14 A3000 RMK AO2 SLP154 T01940139=
202209010353 METAR KPAE 010353Z 20005KT 10SM CLR 22/14 A2998 RMK AO2 SLP149 T02220139=
202209010253 METAR KPAE 010253Z 25003KT 10SM CLR 24/14 A2996 RMK AO2 SLP140 T02440144 53003=
202209010153 METAR KPAE 010153Z 25004KT 10SM CLR 27/14 A2995 RMK AO2 SLP138 T02720144=
202209010053 METAR KPAE 010053Z 24006KT 10SM CLR 29/14 A2995 RMK AO2 SLP137 T02890139=

# No short TAF reports from KPAE in databse.

###################################
#  large TAF from KPAE
###################################
202209302322 TAF KPAE 302322Z 0100/0124 34007KT P6SM SKC FM010500 35003KT P6SM
                       SKC FM010900 01004KT P6SM SKC FM011400 VRB03KT
                       6SM BCFG SKC=
202209301940 KPAE 301940Z 3020/0118 34005KT P6SM FEW006 FM302300 34004KT P6SM
                       SKC FM011100 VRB03KT P6SM BKN007=
202209301729 TAF KPAE 301729Z 3018/0118 35003KT 1/4SM FG VV001 FM302000 34007KT
                       P6SM OVC025 FM302300 34004KT P6SM SKC FM011100
                       VRB03KT P6SM BKN007=
202209301605 KPAE 301605Z 3016/0112 35003KT P6SM BCFG OVC003
                      TEMPO 3016/3018 1/4SM FG VV001 FM302000 34010KT
                       P6SM SKC FM010500 01006KT P6SM FEW250 FM011100
                       VRB03KT P6SM BKN007=
202209301501 KPAE 301501Z 3015/0112 35003KT P6SM BCFG OVC003
                      TEMPO 3015/3016 1/4SM FG VV001 FM302000 34010KT
                       P6SM SKC FM010500 01006KT P6SM FEW250 FM011100
                       VRB03KT P6SM BKN007=
202209301251 KPAE 301251Z 3013/0112 35003KT P6SM BCFG OVC003
                      TEMPO 3013/3016 3/4SM BR FM302000 34010KT
                       P6SM SKC FM010500 01006KT P6SM FEW250 FM011100
                       VRB03KT P6SM BKN007=
202209301124 TAF KPAE 301124Z 3012/0112 35003KT P6SM BCFG OVC003
                      TEMPO 3013/3016 3SM BR FM302000 34010KT P6SM
                       SKC FM010500 01006KT P6SM FEW250 FM011100
                       VRB03KT P6SM BKN007=
202209300855 KPAE 300855Z 3009/0106 36004KT P6SM OVC005 FM301100 35003KT P6SM
                       BCFG OVC004
                      TEMPO 3012/3016 3SM BR FM301900 34007KT P6SM
                       SKC=
202209300525 TAF KPAE 300525Z 3006/0106 36004KT P6SM FEW060 FM301100 35003KT
                       P6SM BCFG SCT003
                      TEMPO 3012/3016 3SM BR BKN003 FM301900 34007KT
                       P6SM SKC=
202209292320 TAF KPAE 292320Z 3000/3024 33006KT P6SM BKN050 FM300300 VRB03KT
                       P6SM SCT050 FM300900 VRB03KT P6SM SCT200
                       FM301100 35003KT P6SM BCFG SCT003 SCT200
                       TEMPO 3012/3016 3SM BR BKN003 FM301900 34005KT
                       P6SM SKC=
202209291732 TAF KPAE 291732Z 2918/3018 33004KT P6SM SCT004 BKN040
                      TEMPO 2918/2919 6SM BR FM292000 33005KT P6SM
                       BKN040 FM300300 VRB03KT P6SM SCT050 FM300900
                       VRB03KT P6SM SCT200 FM301100 35003KT P6SM
                       BCFG SCT003 SCT200
                      TEMPO 3012/3016 3SM BR BKN003=
202209291621 KPAE 291621Z 2916/3012 VRB04KT P6SM OVC025
                      TEMPO 2916/2917 1/2SM FG VV001 FM291800 31006KT
                       P6SM BKN035 FM300300 VRB03KT P6SM SCT050
                       FM300900 VRB03KT P6SM SCT250=
202209291551 KPAE 291551Z 2916/3012 VRB04KT P6SM OVC025
                      TEMPO 2916/2917 2SM BR BKN003 FM291800 31006KT
                       P6SM BKN035 FM300300 VRB03KT P6SM SCT050
                       FM300900 VRB03KT P6SM SCT250=
202209291123 TAF KPAE 291123Z 2912/3012 VRB04KT P6SM FEW025 BKN080 FM291400
                       VRB04KT P6SM OVC025 FM292000 31006KT P6SM
                       BKN030 FM300300 VRB03KT P6SM SCT050 FM300900
                       VRB03KT P6SM SCT250=
202209290523 TAF KPAE 290523Z 2906/3006 VRB03KT P6SM VCSH SCT025 BKN050 BKN090
                       FM291200 VRB04KT P6SM OVC007 FM292000 31006KT
                       P6SM SCT012 BKN030 FM300300 VRB03KT P6SM
                       SCT050=
202209282320 TAF KPAE 282320Z 2900/2924 18006KT P6SM SCT040 OVC060 FM290300
                       VRB03KT P6SM VCSH BKN035 FM291200 VRB04KT
                       P6SM VCSH OVC012 FM292000 31006KT P6SM BKN030
                       BKN070=
202209281720 TAF KPAE 281720Z 2818/2918 19007KT P6SM VCSH SCT020 OVC060 FM282100
                       23008KT P6SM VCSH BKN040 OVC080
                      TEMPO 2822/2902 6SM -SHRA FM290300 VRB03KT
                       P6SM VCSH BKN035 FM291200 33004KT P6SM VCSH
                       OVC015=
202209281443 KPAE 281443Z 2815/2912 16009KT P6SM SCT010 OVC080 FM281800 19007KT
                       P6SM VCSH BKN020 OVC060 FM282100 23008KT
                       P6SM VCSH BKN040 OVC080
                      TEMPO 2822/2902 6SM -SHRA FM290300 VRB03KT
                       P6SM VCSH BKN035=
202209281126 TAF KPAE 281126Z 2812/2912 18007KT P6SM BKN007 BKN150 FM281400
                       17007KT P6SM OVC009 FM281800 19007KT P6SM
                       BKN015 OVC060 FM282100 23008KT P6SM VCSH
                       BKN040 OVC080
                      TEMPO 2822/2902 6SM -SHRA FM290300 VRB03KT
                       P6SM VCSH BKN035=
202209280943 KPAE 280943Z 2810/2906 18007KT P6SM BKN007 BKN150 FM281400 17005KT
                       P6SM OVC009 FM281800 19007KT P6SM VCSH BKN035
                       OVC060 FM282200 23008KT P6SM VCSH BKN050
                       OVC080=
202209280531 TAF KPAE 280531Z 2806/2906 36004KT P6SM BKN150 FM281000 17004KT
                       P6SM SCT025 BKN070 FM281400 17005KT P6SM
                       BKN022 OVC040 FM281800 19007KT P6SM VCSH
                       BKN035 OVC060 FM282200 23008KT P6SM VCSH
                       BKN050 OVC080=
202209272320 TAF KPAE 272320Z 2800/2824 26006KT P6SM BKN200 FM280500 18005KT
                       P6SM SCT120 BKN200 FM280900 17008KT P6SM
                       BKN050 FM281200 17008KT P6SM SCT008 BKN022
                       OVC040 FM281800 19007KT P6SM VCSH BKN035
                       OVC060=
202209271724 TAF KPAE 271724Z 2718/2818 24006KT P6SM SKC FM280300 18005KT P6SM
                       SCT120 BKN200 FM280900 17008KT P6SM BKN050
                       FM281200 16008KT P6SM SCT008 BKN022 OVC040=
202209271122 TAF KPAE 271122Z 2712/2812 35003KT P6SM SKC FM271800 25007KT P6SM
                       SKC FM280300 18005KT P6SM SCT050 OVC100
                       FM280900 17008KT P6SM OVC050=
202209270533 TAF KPAE 270533Z 2706/2806 VRB04KT P6SM SKC FM271800 25007KT P6SM
                       SKC FM280300 18005KT P6SM SCT050 OVC100=
202209262320 TAF KPAE 262320Z 2700/2724 31005KT 6SM HZ SKC FM270300 VRB05KT
                       P6SM SKC FM271000 25003KT P6SM SKC FM272100
                       25007KT P6SM SKC=
202209261725 TAF KPAE 261725Z 2618/2718 35005KT P6SM FEW200 FM270300 VRB05KT
                       P6SM SKC FM271000 25003KT P6SM SKC=
202209261120 TAF KPAE 261120Z 2612/2712 36005KT P6SM BKN250 FM261800 26005KT
                       P6SM SKC=
202209260520 TAF KPAE 260520Z 2606/2706 36005KT P6SM SKC=
202209252334 TAF KPAE 252334Z 2600/2624 34008KT P6SM SCT200 FM260600 VRB03KT
                       P6SM SKC FM261700 34003KT P6SM SCT200=
202209251732 TAF KPAE 251732Z 2518/2618 35006KT P6SM SCT200 FM260600 VRB03KT
                       P6SM SKC=
202209251120 TAF KPAE 251120Z 2512/2612 36005KT P6SM SCT200
                      TEMPO 2513/2516 5SM BR SCT001=
202209250524 TAF KPAE 250524Z 2506/2606 36005KT P6SM SCT200
                      TEMPO 2513/2516 5SM BR SCT001=
202209242320 TAF KPAE 242320Z 2500/2524 35008KT P6SM SCT200
                      TEMPO 2513/2516 5SM BR SCT001=
202209241735 TAF KPAE 241735Z 2418/2518 35008KT P6SM SCT200
                      TEMPO 2513/2516 5SM BR SCT001=
202209241707 KPAE 241707Z 2417/2512 35004KT 4SM BR BKN006 FM241800 35008KT P6SM
                       SCT200=
202209241509 KPAE 241509Z 2415/2512 VRB03KT 4SM BR SCT001
                      TEMPO 2415/2416 1SM BR BKN001 FM241700 35006KT
                       P6SM SCT200=
202209241332 KPAE 241332Z 2414/2512 VRB03KT P6SM OVC040
                      TEMPO 2414/2416 OVC002 FM241900 35006KT P6SM
                       SCT030 SCT060 FM250200 VRB03KT P6SM SCT060
                       BKN250=
202209241120 TAF KPAE 241120Z 2412/2512 VRB03KT P6SM OVC040
                      TEMPO 2412/2416 OVC025 FM241900 35006KT P6SM
                       SCT030 SCT060 FM250200 VRB03KT P6SM SCT060
                       BKN250=
202209240520 TAF KPAE 240520Z 2406/2506 VRB03KT P6SM OVC060 FM241300 01003KT
                       P6SM OVC025 FM241900 35006KT P6SM SCT030
                       SCT060 FM250200 VRB03KT P6SM SCT060 BKN250=
202209232320 TAF KPAE 232320Z 2400/2424 21006KT P6SM SCT025 OVC040 FM240400
                       01004KT P6SM OVC060 FM241300 01003KT P6SM
                       OVC025 FM241900 35006KT P6SM SCT060=
202209231737 TAF KPAE 231737Z 2318/2418 18009KT P6SM BKN015 OVC025 FM232100
                       21006KT P6SM SCT025 OVC050 FM240400 01004KT
                       P6SM OVC060 FM241300 01003KT P6SM OVC025=
202209231128 TAF KPAE 231128Z 2312/2412 VRB02KT P6SM OVC020 FM231800 18007KT
                       P6SM BKN015 OVC025 FM232100 21006KT P6SM
                       SCT025 OVC050 FM240400 01004KT P6SM OVC060=
202209230523 TAF KPAE 230523Z 2306/2406 22005KT P6SM SCT025 BKN050 FM230800
                       17006KT P6SM OVC025 FM231000 17005KT P6SM
                       BKN015 OVC025 FM231800 18007KT P6SM SCT015
                       OVC025 FM232100 21006KT P6SM SCT025=
202209222340 TAF KPAE 222340Z 2300/2324 VRB05KT P6SM BKN050 FM230300 18007KT
                       P6SM SCT025 BKN050 FM230800 17006KT P6SM
                       OVC025 FM231000 17005KT P6SM BKN015 OVC025
                       FM231800 18007KT P6SM SCT015 OVC025 FM232100
                       21008KT P6SM SCT025=
202209221739 TAF KPAE 221739Z 2218/2318 18010G17KT P6SM BKN020 FM222000 18010G18KT
                       P6SM SCT030 BKN100 FM230300 18007KT P6SM
                       BKN150 FM230800 17009KT P6SM OVC019=
202209221514 KPAE 221514Z 2215/2312 17008KT 6SM FU OVC015 FM221800 18008KT P6SM
                       BKN015 FM222000 18010G15KT P6SM SCT030 BKN200
                       FM230300 18007KT P6SM BKN050 FM231000 18009KT
                       P6SM OVC015=
202209221120 TAF KPAE 221120Z 2212/2312 18011KT 6SM FU SKC FM221500 17008KT
                       6SM BR FU OVC009 FM221800 18008KT P6SM BKN015
                       FM222000 18010G15KT P6SM SCT030 BKN200 FM230300
                       18007KT P6SM BKN050 FM231000 18009KT P6SM
                       OVC015=
202209220531 TAF KPAE 220531Z 2206/2306 10004KT 6SM FU SKC FM221200 18008KT
                       6SM BR FU OVC010 FM221500 17008KT 4SM BR
                       OVC009 FM221800 18008KT P6SM BKN015 FM222000
                       18008KT P6SM SCT030 BKN200 FM230300 18007KT
                       P6SM BKN050=
202209212334 TAF KPAE 212334Z 2200/2224 36006KT P6SM BKN200 FM220600 16006KT
                       P6SM BKN200 FM221200 18008KT P6SM OVC010
                       FM221800 18008KT P6SM BKN020 FM222000 18008KT
                       P6SM SCT030 BKN200=
202209211740 TAF KPAE 211740Z 2118/2218 36006KT 6SM FU SKC FM220600 16006KT
                       6SM FU SKC FM221200 18008KT P6SM OVC010=
202209211124 TAF KPAE 211124Z 2112/2212 00000KT 6SM FU SKC FM211300 02006KT
                       6SM FU SKC FM211900 34008KT 6SM FU SKC FM220200
                       VRB05KT 6SM FU SKC FM220600 18007KT 6SM
                       FU SKC=
202209210528 TAF KPAE 210528Z 2106/2206 00000KT 6SM FU SKC FM211300 02006KT
                       6SM FU SKC FM211900 34008KT 6SM FU SKC FM220200
                       VRB05KT 6SM FU SKC FM220500 18007KT 6SM
                       FU SKC=
202209202322 TAF KPAE 202322Z 2100/2124 34010KT P6SM SKC FM211300 02006KT 6SM
                       FU SKC FM211900 34008KT P6SM SKC=
202209201734 TAF KPAE 201734Z 2018/2118 36004KT 6SM FU SKC FM201900 35010G15KT
                       6SM FU SKC FM210300 35007KT 6SM FU SKC FM210900
                       36005KT 6SM FU SKC=
202209201123 TAF KPAE 201123Z 2012/2112 36004KT 6SM FU BKN025 FM201900 35010G15KT
                       6SM FU SKC FM210300 35007KT 6SM FU SKC FM210900
                       36005KT 6SM FU SKC=
202209200520 TAF KPAE 200520Z 2006/2106 36003KT 6SM FU SKC FM200900 03005KT
                       6SM FU SKC FM201900 36010G15KT 6SM FU SKC
                       FM210300 36005KT 6SM FU SKC=
202209192332 TAF KPAE 192332Z 2000/2024 36006KT P6SM SKC FM200900 03005KT 6SM
                       FU SKC FM201900 36007KT P6SM SKC=
202209191722 TAF KPAE 191722Z 1918/2018 33006KT P6SM SKC FM200400 03004KT P6SM
                       SKC=
202209191120 TAF KPAE 191120Z 1912/2012 VRB03KT P6SM SKC FM191800 32006KT P6SM
                       SKC FM200300 VRB03KT P6SM SKC=
202209190520 TAF KPAE 190520Z 1906/2006 02003KT P6SM SKC FM191800 34006KT P6SM
                       SKC FM200300 VRB03KT P6SM SKC=
202209182324 TAF KPAE 182324Z 1900/1924 34006KT P6SM FEW140 FM190300 02003KT
                       P6SM SKC FM191800 34006KT P6SM SKC=
202209181721 TAF KPAE 181721Z 1818/1918 36009KT P6SM FEW080 SCT150 FM190300
                       02003KT P6SM SKC=
202209181120 TAF KPAE 181120Z 1812/1912 35006KT P6SM SCT100 OVC200 FM181800
                       35006KT P6SM SCT250 FM190300 VRB03KT P6SM
                       SKC=
202209180525 TAF KPAE 180525Z 1806/1906 36007KT P6SM SCT150 OVC200 FM181200
                       35006KT P6SM SCT100 OVC200 FM181800 35006KT
                       P6SM SCT250 FM190300 VRB03KT P6SM SKC=
202209172324 TAF KPAE 172324Z 1800/1824 33010G17KT P6SM FEW150 OVC200 FM180400
                       36007KT P6SM SCT150 OVC200 FM181200 35006KT
                       P6SM SCT100 OVC200=
202209171720 TAF KPAE 171720Z 1718/1818 36006KT P6SM SCT160 BKN250 FM172100
                       36014KT P6SM BKN250 FM180600 36008KT P6SM
                       SCT250=
202209171120 TAF KPAE 171120Z 1712/1812 36006KT P6SM SCT050 BKN200 FM172100
                       36014KT P6SM BKN200 FM180600 36008KT P6SM
                       SCT200=
202209170538 TAF KPAE 170538Z 1706/1806 01006KT P6SM SCT040 BKN070 FM171000
                       01006KT P6SM SCT040 BKN150 FM172100 35014KT
                       P6SM BKN200=
202209162339 TAF KPAE 162339Z 1700/1724 02007KT P6SM SCT045 SCT060 BKN080 FM170400
                       35005KT P6SM SCT040 BKN150 FM171800 35005KT
                       P6SM SCT030 BKN200 FM172100 35008KT P6SM
                       BKN200=
202209161737 TAF KPAE 161737Z 1618/1718 VRB06KT P6SM VCSH BKN023 OVC070 FM162000
                       VRB03KT P6SM -SHRA SCT006 BKN012 OVC020
                       FM162200 35008KT P6SM SCT025 BKN040 FM170400
                       35008KT P6SM SCT040 BKN150 FM171200 02008KT
                       P6SM OVC030 FM171700 35008KT P6SM BKN040=
202209161134 TAF KPAE 161134Z 1612/1712 VRB03KT P6SM OVC035 FM161600 19006KT
                       P6SM VCSH BKN015 OVC025 FM162000 VRB03KT
                       P6SM -SHRA SCT006 BKN012 OVC020 FM162200
                       35008KT P6SM SCT025 BKN040 FM170400 35008KT
                       P6SM SCT040 BKN150=
202209160541 TAF KPAE 160541Z 1606/1706 36006KT P6SM OVC035 FM161000 VRB03KT
                       P6SM OVC025 FM161400 19006KT P6SM VCSH OVC015
                       FM161800 VRB03KT P6SM -SHRA SCT006 BKN012
                       OVC020 FM162200 35008KT P6SM SCT025 BKN040
                       FM170400 35008KT P6SM SCT040 BKN150=
202209152320 TAF KPAE 152320Z 1600/1624 28006KT P6SM BKN070 FM160300 36006KT
                       P6SM SCT050 BKN100 FM161000 VRB03KT P6SM
                       OVC035 FM161400 19005KT P6SM OVC020=
202209151723 TAF KPAE 151723Z 1518/1618 VRB03KT P6SM BKN025 OVC040 FM151900
                       24006KT P6SM BKN050 FM160300 36006KT P6SM
                       SCT050 BKN100 FM161000 VRB03KT P6SM OVC025=
202209151133 TAF KPAE 151133Z 1512/1612 VRB03KT P6SM OVC040 FM152100 24006KT
                       P6SM BKN050 FM160300 36006KT P6SM SCT050
                       BKN100 FM161000 VRB03KT P6SM OVC022=
202209150532 TAF KPAE 150532Z 1506/1606 36004KT P6SM BKN060 OVC090 FM151200
                       VRB03KT P6SM OVC040 FM152100 24006KT P6SM
                       BKN050=
202209142320 TAF KPAE 142320Z 1500/1524 31005KT P6SM BKN060 FM150300 35004KT
                       P6SM BKN100 FM151200 33003KT P6SM OVC050=
202209141727 TAF KPAE 141727Z 1418/1518 32003KT P6SM BKN060 OVC080 FM142200
                       31005KT P6SM BKN060 FM150300 35004KT P6SM
                       BKN100 FM151100 33003KT P6SM OVC050=
202209141230 KPAE 141230Z 1413/1512 05004KT P6SM OVC050 FM141400 32003KT P6SM
                       SCT030 OVC050 FM142300 31005KT P6SM BKN100=
202209141134 TAF KPAE 141134Z 1412/1512 34007KT P6SM OVC050 FM141300 VRB03KT
                       P6SM OVC020 FM141600 32003KT P6SM SCT030
                       OVC050 FM142300 31005KT P6SM BKN100=
202209140539 TAF KPAE 140539Z 1406/1506 34007KT P6SM OVC050 FM141300 VRB03KT
                       P6SM OVC035=
202209132320 TAF KPAE 132320Z 1400/1424 34007KT P6SM OVC070 FM140300 34002KT
                       P6SM OVC050 FM141300 VRB03KT P6SM OVC035=
202209131727 TAF KPAE 131727Z 1318/1418 VRB04KT P6SM BKN035 OVC070 FM132000
                       30003KT P6SM BKN070 FM140300 34002KT P6SM
                       OVC050 FM141300 VRB03KT 6SM BR HZ OVC025=
202209131331 KPAE 131331Z 1314/1412 VRB03KT P6SM OVC030 FM132000 30004KT P6SM
                       BKN050 FM140300 01004KT P6SM OVC050=
202209131133 TAF KPAE 131133Z 1312/1412 05003KT P6SM OVC045 FM131400 VRB03KT
                       P6SM OVC020 FM132000 30004KT P6SM BKN050
                       FM140300 01004KT P6SM OVC050=
202209130528 TAF KPAE 130528Z 1306/1406 34005KT P6SM SCT150 FM131000 20003KT
                       P6SM OVC050 FM131400 VRB03KT P6SM OVC020
                       FM132000 30004KT P6SM BKN050 FM140300 01004KT
                       P6SM OVC050=
202209122323 TAF KPAE 122323Z 1300/1324 28007KT 6SM FU HZ BKN150 FM130400 35003KT
                       P6SM SCT250 FM131000 20003KT P6SM OVC050
                       FM131400 VRB03KT P6SM OVC020=
202209121736 TAF KPAE 121736Z 1218/1318 25007KT 6SM FU HZ BKN015 BKN110 FM121900
                       28003KT 6SM HZ BKN120 FM130400 35003KT P6SM
                       SCT250 FM131000 20003KT P6SM OVC050=
202209121139 TAF KPAE 121139Z 1212/1312 VRB05KT 6SM HZ VCSH BKN060 FM121500
                       23005KT 5SM HZ SCT015 BKN110 FM121800 25007KT
                       6SM HZ BKN110 FM131000 20003KT P6SM OVC050=
202209120530 TAF KPAE 120530Z 1206/1306 18006KT 6SM FU VCSH BKN080 FM120800
                       VRB05KT 6SM HZ VCSH BKN060 FM121500 23005KT
                       5SM HZ SCT015 BKN110 FM121800 25007KT 6SM
                       HZ BKN110=
202209120252 KPAE 120252Z 1203/1224 18006KT 6SM FU VCSH BKN080
                      TEMPO 1203/1206 -SHRA FM120800 VRB05KT 6SM
                       HZ VCSH BKN060 FM121500 23005KT 5SM HZ SCT015
                       BKN110 FM121800 25007KT 6SM HZ BKN110=
202209112320 TAF KPAE 112320Z 1200/1224 19009KT 6SM FU VCSH BKN080 FM120600
                       VRB05KT 6SM HZ VCSH BKN060 FM121500 23005KT
                       5SM HZ SCT015 BKN110 FM121800 25007KT 6SM
                       HZ BKN110=
202209111725 TAF KPAE 111725Z 1118/1218 19008KT 4SM FU BKN035 BKN060 FM112100
                       21008KT 5SM FU VCSH BKN035 BKN080 FM120600
                       VRB05KT 6SM HZ SCT030 BKN060 FM121500 19005KT
                       5SM HZ OVC110=
202209111140 TAF KPAE 111140Z 1112/1212 00000KT 6SM FU SCT035 BKN080 FM111800
                       23007KT 4SM FU BKN025 BKN060 FM120300 03005KT
                       6SM HZ SCT030 BKN060=
202209110539 TAF KPAE 110539Z 1106/1206 00000KT 6SM FU SCT035 BKN080 FM111800
                       23007KT 3SM FU SCT250=
202209102325 TAF KPAE 102325Z 1100/1124 33006KT 3SM FU OVC025 FM110600 16005KT
                       5SM FU SCT035 SCT200 FM111800 23007KT 3SM
                       FU SCT250=
202209101720 TAF KPAE 101720Z 1018/1118 35005KT 3SM FU OVC025 FM102200 33006KT
                       3SM FU OVC020 FM110400 16005KT 6SM FU SCT035=
202209101547 KPAE 101547Z 1016/1112 02005KT 5SM FU OVC015 FM102000 22006KT 3SM
                       FU BKN015 FM110400 16003KT 6SM FU SCT035=
202209101128 TAF KPAE 101128Z 1012/1112 02005KT 6SM FU SCT030 FM102000 22006KT
                       6SM FU SCT030 FM110400 16003KT 6SM FU SCT035=
202209100528 TAF KPAE 100528Z 1006/1106 33005KT P6SM BKN035 FM101500 03007KT
                       5SM FU BKN030 FM102000 22006KT 6SM FU SCT030
                       FM110400 16003KT 6SM FU SCT035=
202209100252 KPAE 100252Z 1003/1024 33005KT P6SM BKN035 FM101500 03007KT 5SM
                       FU BKN030=
202209092320 TAF KPAE 092320Z 1000/1024 33009KT P6SM BKN035 FM100500 08004KT
                       6SM FU BKN025 FM101500 03007KT 5SM FU BKN030=
202209091732 TAF KPAE 091732Z 0918/1018 34009KT P6SM BKN050 FM092000 33009KT
                       P6SM BKN050 FM100600 01004KT P6SM OVC050=
202209091146 TAF KPAE 091146Z 0912/1012 34005KT P6SM SKC FM092000 33009KT P6SM
                       SKC FM100600 01004KT P6SM SKC=
202209090552 TAF KPAE 090552Z 0906/1006 01004KT P6SM SKC FM092000 35009KT P6SM
                       SKC=
202209082329 TAF KPAE 082329Z 0900/0924 34009KT P6SM SCT250 FM090400 01004KT
                       P6SM SKC FM092000 35009KT P6SM SKC=
202209071120 TAF KPAE 071120Z 0712/0812 01004KT P6SM BKN250 FM071900 32006KT
                       P6SM FEW250 FM080300 01004KT P6SM SKC=
202209070527 TAF KPAE 070527Z 0706/0806 02004KT P6SM SCT250 FM071900 32006KT
                       P6SM FEW250=
202209062320 TAF KPAE 062320Z 0700/0724 35008KT P6SM SKC FM070300 35004KT P6SM
                       SKC FM071900 32007KT P6SM SCT250=
202209061740 TAF KPAE 061740Z 0618/0718 36005KT P6SM SKC FM062000 35008KT P6SM
                       SKC FM070300 35004KT P6SM SKC=
202209061125 TAF KPAE 061125Z 0612/0712 36003KT P6SM SKC FM062000 34008KT P6SM
                       SKC FM070300 35004KT P6SM SKC=
202209060527 TAF KPAE 060527Z 0606/0706 01004KT P6SM SKC FM062000 34008KT P6SM
                       SKC FM070300 35004KT P6SM SKC=
202209052337 TAF KPAE 052337Z 0600/0624 33007KT P6SM SCT050 SCT120 FM060500
                       02004KT P6SM SKC FM062000 34007KT P6SM SKC=
202209051720 TAF KPAE 051720Z 0518/0618 33005KT P6SM SCT025 FM052000 33007KT
                       P6SM SCT050 SCT120 FM060500 02004KT P6SM
                       SKC=
202209051122 TAF KPAE 051122Z 0512/0612 01007KT P6SM SCT025 BKN050
                      TEMPO 0512/0513 BKN025 OVC050 FM051700 31005KT
                       P6SM SCT025 BKN050 FM052200 33007KT P6SM
                       SCT050 SCT120 FM060500 04004KT P6SM SKC=
202209050812 KPAE 050812Z 0508/0606 01007KT P6SM SCT025 BKN050
                      TEMPO 0509/0513 BKN025 OVC050 FM051700 31005KT
                       P6SM SCT025 BKN050 FM052200 33007KT P6SM
                       SCT050 SCT120 FM060500 04004KT P6SM SKC=
202209050520 TAF KPAE 050520Z 0506/0606 01007KT P6SM BKN020 BKN050 FM051700
                       31005KT P6SM SCT025 BKN050 FM052200 33007KT
                       P6SM SCT050 SCT120 FM060500 04004KT P6SM
                       SKC=
202209042333 TAF KPAE 042333Z 0500/0524 30007KT P6SM VCSH SCT020 BKN050 FM050500
                       VRB03KT P6SM BKN025 FM051400 34003KT P6SM
                       OVC015 FM051800 33005KT P6SM BKN050=
202209041740 TAF KPAE 041740Z 0418/0518 16012KT P6SM SCT040 BKN120 FM042000
                       27007KT P6SM VCSH BKN040 OVC090 FM042300
                       30007KT P6SM VCSH SCT020 BKN050 FM050500
                       VRB03KT P6SM BKN025 FM051400 34003KT P6SM
                       OVC015=
202209041120 TAF KPAE 041120Z 0412/0512 16010KT P6SM SCT040 BKN120 FM042000
                       25007KT P6SM VCSH BKN040 OVC090 FM042300
                       30007KT P6SM SCT020 BKN050 FM050500 VRB03KT
                       P6SM BKN015=
202209040520 TAF KPAE 040520Z 0406/0506 11005KT P6SM SCT040 SCT200 FM041100
                       16006KT P6SM SCT010 SCT040 BKN120 FM042100
                       18008KT P6SM BKN040 OVC090=
202209032339 TAF KPAE 032339Z 0400/0424 30005KT P6SM SCT040 SCT200 FM040400
                       00000KT P6SM SCT200 FM041100 16006KT P6SM
                       SCT010 BKN200=
202209032113 KPAE 032113Z 0321/0418 24004KT P6SM BKN009 OVC025 FM032300 30005KT
                       P6SM SCT040 SCT200 FM040400 00000KT P6SM
                       SCT200 FM041100 16006KT P6SM SCT010 BKN200=
202209031740 TAF KPAE 031740Z 0318/0418 14005KT 1SM BR OVC005 FM032200 30005KT
                       P6SM SCT040 SCT200 FM040400 00000KT P6SM
                       SCT200 FM041100 16006KT P6SM SCT010 BKN200=
202209031120 TAF KPAE 031120Z 0312/0412 18006KT P6SM OVC013 FM031900 21005KT
                       P6SM BKN020 BKN200 FM032200 30005KT P6SM
                       SCT040 SCT200 FM040400 00000KT P6SM SCT200
                       FM041100 16006KT P6SM SCT010 BKN200=
202209030523 TAF KPAE 030523Z 0306/0406 VRB05KT P6SM SKC
                      TEMPO 0308/0310 BKN010 FM031000 21008KT P6SM
                       BKN010 FM031900 VRB04KT P6SM BKN015 OVC030
                       FM032200 VRB04KT P6SM SCT040 SCT200=
202209022324 TAF KPAE 022324Z 0300/0324 VRB04KT P6SM SKC FM030300 18006KT P6SM
                       SCT200 FM031000 18006KT P6SM OVC008 FM031500
                       20007KT 4SM BR OVC005 FM032100 23008KT P6SM
                       FEW250=
202209021732 TAF KPAE 021732Z 0218/0318 VRB04KT P6SM SKC FM030300 18006KT P6SM
                       SCT200 FM031000 18006KT P6SM OVC008 FM031500
                       20007KT 4SM BR OVC005=
202209021457 KPAE 021457Z 0215/0312 36004KT 1/4SM FG VV001 FM021800 34004KT
                       P6SM FEW100 FM030500 18006KT P6SM SCT200
                       FM031000 18006KT P6SM OVC008=
202209021137 TAF KPAE 021137Z 0212/0312 34004KT 1SM BR OVC001 FM021500 34004KT
                       4SM BR SCT001 FM021600 34004KT P6SM SKC
                       FM030500 18006KT P6SM SCT200 FM031000 18006KT
                       P6SM OVC008=
202209021031 KPAE 021031Z 0211/0306 34004KT 1SM BR OVC001
                      TEMPO 0213/0215 1/2SM FG VV001 FM021600 34004KT
                       P6SM SKC FM030500 18006KT P6SM SCT200=
202209020537 TAF KPAE 020537Z 0206/0306 36006KT P6SM SKC FM021300 36004KT 6SM
                       BR SCT001 FM021500 36004KT P6SM SKC FM030500
                       18006KT P6SM SCT200=
202209012320 TAF KPAE 012320Z 0200/0224 30003KT P6SM SKC FM020300 VRB03KT P6SM
                       SKC FM021400 36003KT P6SM BKN250=
202209011735 TAF KPAE 011735Z 0118/0218 26003KT P6SM OVC007 FM011900 28005KT
                       P6SM BKN015 FM012000 30004KT P6SM SKC FM020000
                       34003KT P6SM BKN250=
202209011125 TAF KPAE 011125Z 0112/0212 26004KT P6SM OVC009
                      TEMPO 0112/0116 OVC004 FM011800 26003KT P6SM
                       SCT010 FM011900 28005KT P6SM SKC=
202209010537 TAF KPAE 010537Z 0106/0206 26008KT P6SM FEW150 FM011000 20003KT
                       P6SM SCT010 FM011200 VRB04KT P6SM BKN010
                       TEMPO 0112/0116 3SM BR OVC005 FM011700 20003KT
                       P6SM SCT010 FM011900 23005KT P6SM SKC=