##########################################################
# Query made at 02/15/2025 22:44:02 UTC
# Time interval: from 06/01/2022 00:00  to 06/30/2022 23:59  UTC
##########################################################

##########################################################
# KPAE, Everett, Snohomish County Airport (United States)
# WMO index: -----. WIGOS ID: Unknown
# Latitude 47-55-23N. Longitude 122-16-57W. Altitude 184 m.
##########################################################

###################################
#  METAR/SPECI from KPAE
###################################
202206302353 METAR KPAE 302353Z 35009KT 10SM CLR 22/11 A3010 RMK AO2 SLP192 T02170106 10217 20178 58009=
202206302253 METAR KPAE 302253Z VRB06KT 10SM CLR 22/11 A3011 RMK AO2 SLP195 T02170111=
202206302153 METAR KPAE 302153Z 02005KT 10SM CLR 21/10 A3012 RMK AO2 SLP198 T02060100=
202206302053 METAR KPAE 302053Z 35005KT 10SM CLR 20/11 A3013 RMK AO2 SLP201 T02000106 56009=
202206301953 METAR KPAE 301953Z VRB05KT 10SM CLR 19/11 A3014 RMK AO2 SLP204 T01940111=
202206301853 METAR KPAE 301853Z VRB05KT 10SM CLR 19/11 A3014 RMK AO2 SLP207 T01890111=
202206301753 METAR KPAE 301753Z 33006KT 10SM CLR 18/11 A3016 RMK AO2 SLP210 T01780111 10178 20122 58004=
202206301653 METAR KPAE 301653Z 01006KT 10SM CLR 16/11 A3016 RMK AO2 SLP213 T01610111=
202206301553 METAR KPAE 301553Z 36005KT 10SM FEW006 OVC045 14/11 A3017 RMK AO2 SLP214 T01390111=
202206301544 SPECI KPAE 301544Z VRB04KT 10SM VCFG SCT006 OVC045 14/11 A3017 RMK AO2 T01390111=
202206301508 SPECI KPAE 301508Z 36004KT 10SM VCFG BKN005 OVC044 13/11 A3017 RMK AO2 T01330106=
202206301500 SPECI KPAE 301500Z VRB03KT 10SM VCFG SCT005 OVC045 13/11 A3017 RMK AO2 T01330106=
202206301453 METAR KPAE 301453Z 33004KT 10SM VCFG OVC045 13/11 A3017 RMK AO2 SLP214 T01330106 53002=
202206301353 METAR KPAE 301353Z 33004KT 10SM VCFG FEW028 OVC047 13/11 A3016 RMK AO2 SLP213 T01280111=
202206301253 METAR KPAE 301253Z AUTO 35005KT 10SM FEW003 BKN046 12/11 A3016 RMK AO2 SLP212 T01220106=
202206301246 SPECI KPAE 301246Z AUTO 34004KT 10SM SCT003 OVC046 12/11 A3016 RMK AO2 T01220106=
202206301153 METAR KPAE 301153Z AUTO 35005KT 10SM OVC003 12/11 A3016 RMK AO2 SLP212 T01220106 10139 20122 58003=
202206301141 SPECI KPAE 301141Z AUTO 35006KT 10SM BKN003 12/11 A3016 RMK AO2 T01220106=
202206301053 METAR KPAE 301053Z AUTO 35008KT 10SM SCT003 12/11 A3017 RMK AO2 SLP214 T01220106=
202206301036 SPECI KPAE 301036Z AUTO 36007KT 10SM FEW003 13/11 A3016 RMK AO2 T01280106=
202206300953 METAR KPAE 300953Z AUTO 35006KT 10SM CLR 12/11 A3017 RMK AO2 SLP214 T01220106=
202206300853 METAR KPAE 300853Z AUTO 35005KT 10SM CLR 13/11 A3017 RMK AO2 SLP216 T01280106 58003=
202206300753 METAR KPAE 300753Z AUTO 36004KT 10SM CLR 13/11 A3017 RMK AO2 SLP216 T01330106 401890128=
202206300653 METAR KPAE 300653Z AUTO 35004KT 10SM CLR 13/11 A3018 RMK AO2 SLP217 T01330106=
202206300553 METAR KPAE 300553Z AUTO 34004KT 10SM CLR 14/11 A3018 RMK AO2 SLP218 T01390106 10189 20139 55000=
202206300453 METAR KPAE 300453Z AUTO 36005KT 10SM FEW055 FEW070 15/11 A3018 RMK AO2 SLP218 T01500106=
202206300353 METAR KPAE 300353Z AUTO 33004KT 10SM OVC050 17/09 A3017 RMK AO2 SLP217 T01670094=
202206300253 METAR KPAE 300253Z 33003KT 10SM OVC050 17/09 A3018 RMK AO2 SLP218 T01720094 56002=
202206300153 METAR KPAE 300153Z 31005KT 10SM FEW041 SCT050 18/09 A3018 RMK AO2 SLP218 T01830089=
202206300053 METAR KPAE 300053Z 00000KT 10SM BKN041 18/09 A3018 RMK AO2 SLP219 T01830094=
202206292353 METAR KPAE 292353Z 27005KT 10SM OVC040 18/10 A3018 RMK AO2 SLP220 T01780100 10183 20156 58003=
202206292253 METAR KPAE 292253Z 27007KT 10SM SCT032 OVC039 18/09 A3019 RMK AO2 SLP222 T01780094=
202206292153 METAR KPAE 292153Z 16004KT 10SM OVC032 17/09 A3019 RMK AO2 SLP224 T01720094=
202206292053 METAR KPAE 292053Z 22006KT 10SM BKN028 16/09 A3019 RMK AO2 SLP224 T01610094 51004=
202206291953 METAR KPAE 291953Z 17008G14KT 10SM BKN026 OVC032 16/09 A3019 RMK AO2 SLP223 T01610089=
202206291938 SPECI KPAE 291938Z 16008KT 10SM BKN028 OVC034 16/09 A3019 RMK AO2 T01610089=
202206291853 METAR KPAE 291853Z 20008KT 10SM FEW027 BKN034 OVC044 16/09 A3019 RMK AO2 SLP223 T01610089=
202206291753 METAR KPAE 291753Z 18014KT 10SM FEW021 OVC045 16/09 A3018 RMK AO2 SLP220 T01560089 10156 20128 51011=
202206291653 METAR KPAE 291653Z 16010KT 10SM BKN033 OVC039 14/09 A3018 RMK AO2 SLP219 T01440089=
202206291553 METAR KPAE 291553Z 19011KT 10SM FEW020 OVC031 14/09 A3017 RMK AO2 SLP216 T01440089=
202206291533 SPECI KPAE 291533Z 18010KT 10SM OVC030 14/09 A3016 RMK AO2 T01440089=
202206291453 METAR KPAE 291453Z 17011G17KT 10SM OVC027 14/09 A3015 RMK AO2 SLP208 T01390089 51008=
202206291353 METAR KPAE 291353Z 19009KT 10SM OVC029 13/09 A3014 RMK AO2 SLP208 T01330089=
202206291336 SPECI KPAE 291336Z AUTO 19010KT 10SM BKN029 OVC043 13/09 A3014 RMK AO2 T01330089=
202206291253 METAR KPAE 291253Z AUTO 20010KT 10SM OVC037 13/09 A3013 RMK AO2 SLP203 T01330094=
202206291230 SPECI KPAE 291230Z AUTO 19010KT 10SM OVC031 13/09 A3013 RMK AO2 T01330094=
202206291153 METAR KPAE 291153Z AUTO 18010KT 10SM BKN029 OVC034 13/10 A3012 RMK AO2 SLP199 T01330100 10144 20133 51007=
202206291114 SPECI KPAE 291114Z AUTO 18011KT 10SM OVC030 13/10 A3012 RMK AO2 T01330100=
202206291053 METAR KPAE 291053Z AUTO 19012KT 10SM OVC029 14/10 A3012 RMK AO2 SLP198 T01390100=
202206291004 SPECI KPAE 291004Z AUTO 19009KT 10SM BKN025 BKN030 OVC080 14/11 A3012 RMK AO2 T01390106=
202206290953 METAR KPAE 290953Z AUTO 20010KT 10SM SCT025 OVC080 14/11 A3011 RMK AO2 SLP196 T01390106=
202206290853 METAR KPAE 290853Z AUTO 19012KT 10SM OVC070 14/11 A3010 RMK AO2 SLP192 T01390106 53000=
202206290753 METAR KPAE 290753Z AUTO 19011KT 10SM OVC075 14/11 A3010 RMK AO2 SLP190 T01440106 402000139=
202206290653 METAR KPAE 290653Z AUTO 19012KT 10SM FEW013 OVC080 14/11 A3010 RMK AO2 SLP191 T01440106=
202206290553 METAR KPAE 290553Z AUTO 19014KT 10SM SCT014 OVC070 14/11 A3010 RMK AO2 SLP192 60000 T01440106 10167 20144 50003=
202206290523 SPECI KPAE 290523Z AUTO 19013KT 10SM OVC015 14/11 A3011 RMK AO2 T01440106=
202206290453 METAR KPAE 290453Z AUTO 20010KT 10SM BKN013 OVC070 14/11 A3011 RMK AO2 RAB40E53 SLP196 P0000 T01440106=
202206290431 SPECI KPAE 290431Z AUTO 20012G22KT 10SM BKN014 OVC070 14/11 A3010 RMK AO2 T01440106=
202206290404 SPECI KPAE 290404Z AUTO 19012G22KT 10SM BKN015 OVC070 15/11 A3010 RMK AO2 T01500106=
202206290353 METAR KPAE 290353Z 19014KT 10SM SCT015 OVC075 15/11 A3010 RMK AO2 PK WND 20026/0328 SLP191 T01500106=
202206290253 METAR KPAE 290253Z 19016G24KT 10SM FEW019 OVC090 16/11 A3009 RMK AO2 PK WND 20031/0157 SLP189 T01560106 55002=
202206290153 METAR KPAE 290153Z 19020G26KT 10SM BKN085 16/10 A3008 RMK AO2 PK WND 19033/0125 SLP184 T01560100=
202206290053 METAR KPAE 290053Z 20016G26KT 10SM FEW018 OVC100 16/11 A3009 RMK AO2 PK WND 20029/0037 SLP189 T01610106=
202206282353 METAR KPAE 282353Z 20017G26KT 10SM BKN075 BKN095 OVC110 17/10 A3010 RMK AO2 PK WND 18032/2315 SLP191 T01670100 10194 20167 53004=
202206282253 METAR KPAE 282253Z 18022G31KT 10SM BKN075 OVC095 17/09 A3009 RMK AO2 PK WND 17031/2248 SLP187 T01720094=
202206282153 METAR KPAE 282153Z 18019G30KT 10SM BKN090 18/09 A3008 RMK AO2 PK WND 19031/2058 SLP186 T01780094=
202206282053 METAR KPAE 282053Z 18017G28KT 10SM FEW033 SCT055 BKN085 18/09 A3008 RMK AO2 PK WND 18032/2017 SLP185 T01830094 53003=
202206281953 METAR KPAE 281953Z 18020G29KT 10SM SCT034 19/09 A3008 RMK AO2 PK WND 15031/1928 SLP183 T01940089=
202206281853 METAR KPAE 281853Z 16017G28KT 10SM FEW043 18/09 A3008 RMK AO2 PK WND 18028/1826 SLP182 T01830094=
202206281753 METAR KPAE 281753Z 19020G28KT 10SM SCT032 18/08 A3008 RMK AO2 PK WND 18031/1741 SLP181 T01830083 10183 20139 51011=
202206281653 METAR KPAE 281653Z 17018G27KT 10SM CLR 18/09 A3006 RMK AO2 PK WND 17031/1636 SLP176 T01780089=
202206281620 SPECI KPAE 281620Z 17014G26KT 10SM OVC032 17/08 A3006 RMK AO2 PK WND 19031/1557 T01670083=
202206281553 METAR KPAE 281553Z 19016G27KT 10SM BKN027 OVC032 16/08 A3006 RMK AO2 PK WND 18029/1537 SLP177 T01610083=
202206281531 SPECI KPAE 281531Z 18017G26KT 10SM BKN026 16/09 A3006 RMK AO2 PK WND 18026/1525 T01610089=
202206281453 METAR KPAE 281453Z 16015G22KT 10SM CLR 15/09 A3004 RMK AO2 SLP171 T01500089 51019=
202206281353 METAR KPAE 281353Z 16014G23KT 10SM CLR 14/09 A3003 RMK AO2 SLP165 T01440094=
202206281253 METAR KPAE 281253Z AUTO 16014KT 10SM CLR 14/10 A3000 RMK AO2 SLP157 T01390100=
202206281153 METAR KPAE 281153Z AUTO 18016KT 10SM CLR 14/11 A2998 RMK AO2 SLP149 T01440106 10228 20139 53004=
202206281053 METAR KPAE 281053Z AUTO 17017G24KT 10SM CLR 16/10 A2998 RMK AO2 SLP147 T01560100=
202206280953 METAR KPAE 280953Z AUTO 15012KT 10SM CLR 16/11 A2997 RMK AO2 SLP145 T01610106=
202206280853 METAR KPAE 280853Z AUTO 18010KT 10SM CLR 18/09 A2997 RMK AO2 SLP145 T01780094 51008=
202206280753 METAR KPAE 280753Z AUTO 18011KT 10SM CLR 19/08 A2997 RMK AO2 SLP145 T01940078 403330167=
202206280653 METAR KPAE 280653Z AUTO 18008KT 10SM CLR 21/07 A2996 RMK AO2 SLP140 T02110072=
202206280553 METAR KPAE 280553Z AUTO 18006KT 10SM CLR 23/07 A2995 RMK AO2 SLP137 T02280072 10322 20211 53010=
202206280453 METAR KPAE 280453Z AUTO 18009KT 10SM CLR 25/08 A2993 RMK AO2 SLP131 T02500078=
202206280353 METAR KPAE 280353Z 36003KT 10SM CLR 21/12 A2992 RMK AO2 SLP129 T02110122=
202206280253 METAR KPAE 280253Z 36008KT 10SM CLR 24/12 A2992 RMK AO2 SLP126 T02390122 53006=
202206280153 METAR KPAE 280153Z 01008KT 10SM FEW120 22/12 A2991 RMK AO2 SLP124 T02170122=
202206280053 METAR KPAE 280053Z 35006KT 10SM CLR 26/14 A2990 RMK AO2 SLP122 T02610144=
202206272353 METAR KPAE 272353Z 21010KT 10SM CLR 32/12 A2990 RMK AO2 SLP121 T03220122 10333 20256 56008=
202206272253 METAR KPAE 272253Z 20013KT 10SM CLR 33/11 A2991 RMK AO2 SLP121 T03280111=
202206272153 METAR KPAE 272153Z VRB05KT 10SM CLR 31/13 A2992 RMK AO2 SLP126 T03110133=
202206272053 METAR KPAE 272053Z 27005KT 10SM CLR 30/13 A2993 RMK AO2 SLP130 T03000128 58010=
202206271953 METAR KPAE 271953Z 24006KT 10SM CLR 28/13 A2994 RMK AO2 SLP135 T02830128=
202206271853 METAR KPAE 271853Z 26005KT 10SM CLR 27/13 A2995 RMK AO2 SLP139 T02670128=
202206271753 METAR KPAE 271753Z 28005KT 10SM CLR 26/13 A2996 RMK AO2 SLP140 T02560128 10267 20167 58010=
202206271653 METAR KPAE 271653Z 00000KT 10SM CLR 25/12 A2997 RMK AO2 SLP143 T02500122=
202206271553 METAR KPAE 271553Z VRB04KT 10SM CLR 22/12 A2998 RMK AO2 SLP147 T02220117=
202206271453 METAR KPAE 271453Z 00000KT 10SM CLR 21/12 A2999 RMK AO2 SLP150 T02110122 51002=
202206271353 METAR KPAE 271353Z 34003KT 10SM CLR 19/12 A2998 RMK AO2 SLP149 T01940122=
202206271253 METAR KPAE 271253Z AUTO 00000KT 10SM CLR 18/10 A2999 RMK AO2 SLP150 T01830100 $=
202206271153 METAR KPAE 271153Z AUTO 00000KT 10SM CLR 18/09 A2998 RMK AO2 SLP148 T01780094 10222 20172 58000 $=
202206271053 METAR KPAE 271053Z AUTO 05004KT 10SM CLR 19/09 A2998 RMK AO2 SLP149 T01890089 $=
202206270953 METAR KPAE 270953Z AUTO 00000KT 10SM CLR 19/08 A2998 RMK AO2 SLP149 T01890078 $=
202206270853 METAR KPAE 270853Z AUTO 00000KT 10SM CLR 20/08 A2998 RMK AO2 SLP149 T02000078 56002 $=
202206270753 METAR KPAE 270753Z AUTO 36003KT 10SM CLR 21/08 A2998 RMK AO2 SLP148 T02060078 402830156 $=
202206270653 METAR KPAE 270653Z AUTO 35005KT 10SM CLR 22/07 A2999 RMK AO2 SLP150 T02170072 $=
202206270553 METAR KPAE 270553Z AUTO 35004KT 10SM CLR 22/08 A2999 RMK AO2 SLP151 T02170078 10283 20217 53003 $=
202206270453 METAR KPAE 270453Z AUTO 35004KT 10SM CLR 23/09 A2999 RMK AO2 SLP150 T02280094 $=
202206270353 METAR KPAE 270353Z 35004KT 10SM CLR 24/11 A2998 RMK AO2 SLP146 T02390106 $=
202206270253 METAR KPAE 270253Z 34006KT 10SM CLR 26/11 A2998 RMK AO2 SLP148 T02560106 56011 $=
202206270153 METAR KPAE 270153Z 34006KT 10SM CLR 27/11 A2998 RMK AO2 SLP149 T02720106 $=
202206270053 METAR KPAE 270053Z 35006KT 10SM CLR 28/11 A3000 RMK AO2 SLP154 T02830106 $=
202206262353 METAR KPAE 262353Z 33007KT 10SM CLR 28/12 A3001 RMK AO2 SLP158 T02830117 10283 20233 57014 $=
202206262253 METAR KPAE 262253Z 36009G15KT 10SM CLR 28/12 A3003 RMK AO2 SLP163 T02830117 $=
202206262153 METAR KPAE 262153Z 35006KT 10SM CLR 28/12 A3004 RMK AO2 SLP168 T02830122 $=
202206262053 METAR KPAE 262053Z 36009KT 10SM CLR 27/12 A3005 RMK AO2 SLP173 T02670122 58016 $=
202206261953 METAR KPAE 261953Z 35008G15KT 10SM CLR 26/12 A3007 RMK AO2 SLP179 T02560122 $=
202206261853 METAR KPAE 261853Z 35008KT 10SM CLR 24/12 A3009 RMK AO2 SLP186 T02440117 $=
202206261753 METAR KPAE 261753Z 36008KT 10SM CLR 23/11 A3010 RMK AO2 SLP190 T02330106 10233 20156 58006 $=
202206261653 METAR KPAE 261653Z 01007KT 10SM CLR 23/09 A3011 RMK AO2 SLP191 T02330094 $=
202206261553 METAR KPAE 261553Z 35006KT 10SM CLR 22/09 A3012 RMK AO2 SLP196 T02170094 $=
202206261453 METAR KPAE 261453Z 02006KT 10SM CLR 19/10 A3012 RMK AO2 SLP196 T01890100 53004 $=
202206261353 METAR KPAE 261353Z 36006KT 10SM CLR 18/09 A3011 RMK AO2 SLP191 T01830094 $=
202206261253 METAR KPAE 261253Z AUTO 01005KT 10SM CLR 16/10 A3011 RMK AO2 SLP192 T01610100 $=
202206261153 METAR KPAE 261153Z AUTO 36004KT 10SM CLR 17/09 A3011 RMK AO2 SLP192 T01670094 10211 20161 58005 $=
202206261053 METAR KPAE 261053Z AUTO 00000KT 10SM CLR 17/09 A3011 RMK AO2 SLP195 T01720089 $=
202206260953 METAR KPAE 260953Z AUTO 02003KT 10SM CLR 18/08 A3012 RMK AO2 SLP195 T01830083 $=
202206260853 METAR KPAE 260853Z AUTO 02003KT 10SM CLR 19/08 A3012 RMK AO2 SLP197 T01940078 51004 $=
202206260753 METAR KPAE 260753Z AUTO 01003KT 10SM CLR 19/08 A3012 RMK AO2 SLP197 T01940083 402720133 $=
202206260653 METAR KPAE 260653Z AUTO 33004KT 10SM CLR 20/08 A3012 RMK AO2 SLP196 T02000083 $=
202206260553 METAR KPAE 260553Z AUTO 35004KT 10SM CLR 21/09 A3011 RMK AO2 SLP193 T02110089 10272 20206 53006 $=
202206260453 METAR KPAE 260453Z AUTO 35006KT 10SM CLR 22/08 A3010 RMK AO2 SLP190 T02170083 $=
202206260353 METAR KPAE 260353Z AUTO 35008KT 10SM CLR 23/09 A3009 RMK AO2 SLP186 T02280094 $=
202206260253 METAR KPAE 260253Z 35008KT 10SM CLR 25/11 A3009 RMK AO2 SLP186 T02500106 56010 $=
202206260153 METAR KPAE 260153Z 35008KT 10SM CLR 27/11 A3010 RMK AO2 SLP188 T02670106 $=
202206260053 METAR KPAE 260053Z 34007KT 10SM CLR 27/10 A3011 RMK AO2 SLP192 T02720100 $=
202206252353 METAR KPAE 252353Z 35007KT 10SM CLR 27/11 A3012 RMK AO2 SLP197 T02670106 10272 20217 56014 $=
202206252253 METAR KPAE 252253Z 34006KT 10SM CLR 27/13 A3013 RMK AO2 SLP201 T02670128 $=
202206252153 METAR KPAE 252153Z 35010G17KT 10SM CLR 26/11 A3015 RMK AO2 SLP205 T02610111 $=
202206252053 METAR KPAE 252053Z 34007KT 10SM CLR 25/12 A3016 RMK AO2 SLP211 T02500122 58014 $=
202206251953 METAR KPAE 251953Z 35008KT 10SM CLR 24/12 A3018 RMK AO2 SLP218 T02390117 $=
202206251946 SPECI KPAE 251946Z 34005KT 10SM CLR 24/12 A3018 RMK AO2 T02440117 $=
202206251853 METAR KPAE 251853Z VRB06KT 10SM FEW001 23/11 A3019 RMK AO2 SLP221 T02280111 $=
202206251753 METAR KPAE 251753Z 36005KT 10SM CLR 22/11 A3021 RMK AO2 SLP226 T02170106 10217 20133 50000=
202206251653 METAR KPAE 251653Z 35006KT 10SM CLR 20/09 A3021 RMK AO2 SLP229 T02000089=
202206251553 METAR KPAE 251553Z 35004KT 10SM CLR 18/09 A3021 RMK AO2 SLP228 T01830094=
202206251453 METAR KPAE 251453Z 03003KT 10SM CLR 17/10 A3021 RMK AO2 SLP226 T01720100 53003=
202206251353 METAR KPAE 251353Z 01005KT 10SM CLR 16/09 A3020 RMK AO2 SLP223 T01610089=
202206251312 SPECI KPAE 251312Z AUTO 02003KT 10SM FEW001 15/07 A3020 RMK AO2 T01500072=
202206251253 METAR KPAE 251253Z AUTO 36004KT 10SM CLR 14/07 A3020 RMK AO2 SLP225 T01440067=
202206251153 METAR KPAE 251153Z AUTO 02003KT 10SM CLR 14/07 A3020 RMK AO2 SLP224 T01440072 10172 20133 51006=
202206251053 METAR KPAE 251053Z AUTO 00000KT 10SM CLR 14/07 A3019 RMK AO2 SLP222 T01390072=
202206250953 METAR KPAE 250953Z AUTO 01003KT 10SM CLR 16/07 A3019 RMK AO2 SLP220 T01560067=
202206250853 METAR KPAE 250853Z AUTO 35004KT 10SM CLR 16/06 A3018 RMK AO2 SLP218 T01560061 58001=
202206250753 METAR KPAE 250753Z AUTO 00000KT 10SM CLR 15/08 A3018 RMK AO2 SLP220 T01500078 402220100=
202206250653 METAR KPAE 250653Z AUTO 36005KT 10SM CLR 16/07 A3019 RMK AO2 SLP221 T01610072=
202206250553 METAR KPAE 250553Z AUTO 35006KT 10SM CLR 17/07 A3018 RMK AO2 SLP219 T01720067 10222 20172 50002=
202206250453 METAR KPAE 250453Z AUTO 34004KT 10SM CLR 18/07 A3018 RMK AO2 SLP220 T01780067=
202206250353 METAR KPAE 250353Z 34004KT 10SM CLR 19/07 A3018 RMK AO2 SLP218 T01940067=
202206250253 METAR KPAE 250253Z 34006KT 10SM CLR 21/07 A3018 RMK AO2 SLP218 T02110067 55004=
202206250153 METAR KPAE 250153Z 34007KT 310V020 10SM CLR 22/07 A3017 RMK AO2 SLP217 T02220067=
202206250053 METAR KPAE 250053Z 35010G15KT 10SM CLR 22/07 A3018 RMK AO2 SLP220 T02220072=
202206242353 METAR KPAE 242353Z 35009G17KT 10SM CLR 22/07 A3019 RMK AO2 SLP222 T02220067 10222 20172 57009=
202206242253 METAR KPAE 242253Z 35011G17KT 10SM CLR 22/07 A3020 RMK AO2 SLP225 T02170067=
202206242153 METAR KPAE 242153Z 35008KT 10SM CLR 21/07 A3021 RMK AO2 SLP229 T02110072=
202206242053 METAR KPAE 242053Z 36009G17KT 10SM CLR 21/08 A3022 RMK AO2 SLP232 T02060083 56003=
202206241953 METAR KPAE 241953Z 35010G17KT 320V020 10SM CLR 19/08 A3022 RMK AO2 SLP233 T01940078=
202206241853 METAR KPAE 241853Z 36009G16KT 10SM CLR 18/08 A3022 RMK AO2 SLP233 T01830083=
202206241753 METAR KPAE 241753Z 33007KT 10SM CLR 17/08 A3023 RMK AO2 SLP235 T01720078 10172 20100 51005=
202206241653 METAR KPAE 241653Z 36006KT 10SM CLR 16/07 A3023 RMK AO2 SLP234 T01560072=
202206241553 METAR KPAE 241553Z VRB04KT 10SM CLR 14/07 A3022 RMK AO2 SLP233 T01440067=
202206241453 METAR KPAE 241453Z 02005KT 10SM CLR 13/08 A3021 RMK AO2 SLP230 T01330078 51007=
202206241353 METAR KPAE 241353Z 36003KT 10SM CLR 12/07 A3021 RMK AO2 SLP228 T01170072=
202206241253 METAR KPAE 241253Z AUTO 00000KT 10SM CLR 11/08 A3020 RMK AO2 SLP226 T01110078=
202206241153 METAR KPAE 241153Z AUTO 00000KT 10SM CLR 11/08 A3019 RMK AO2 SLP223 T01060078 10128 20106 53007=
202206241053 METAR KPAE 241053Z AUTO 36004KT 10SM CLR 11/08 A3018 RMK AO2 SLP219 T01060083=
202206240953 METAR KPAE 240953Z AUTO 35007KT 10SM CLR 11/08 A3018 RMK AO2 SLP220 T01060078=
202206240853 METAR KPAE 240853Z AUTO 34007G15KT 10SM CLR 11/07 A3017 RMK AO2 SLP217 T01110067 51004=
202206240753 METAR KPAE 240753Z AUTO 35007KT 10SM CLR 11/07 A3017 RMK AO2 SLP216 T01110067 401940083=
202206240653 METAR KPAE 240653Z AUTO 34005KT 10SM CLR 12/08 A3017 RMK AO2 SLP216 T01170078=
202206240553 METAR KPAE 240553Z AUTO 35006KT 10SM CLR 13/07 A3016 RMK AO2 SLP212 T01280067 10194 20122 53003=
202206240453 METAR KPAE 240453Z AUTO 34005KT 10SM CLR 14/06 A3015 RMK AO2 SLP211 T01390056=
202206240353 METAR KPAE 240353Z 34006KT 10SM CLR 15/06 A3014 RMK AO2 SLP206 T01500056=
202206240253 METAR KPAE 240253Z 33005KT 10SM CLR 17/05 A3015 RMK AO2 SLP208 T01720050 53001=
202206240153 METAR KPAE 240153Z 36006KT 10SM CLR 18/05 A3013 RMK AO2 SLP202 T01830050=
202206240053 METAR KPAE 240053Z 02005KT 10SM CLR 19/07 A3014 RMK AO2 SLP205 T01890072=
202206232353 METAR KPAE 232353Z VRB05KT 10SM CLR 19/06 A3014 RMK AO2 SLP208 T01890061 10194 20156 56010=
202206232253 METAR KPAE 232253Z 36007KT 10SM CLR 19/06 A3015 RMK AO2 SLP210 T01890056=
202206232153 METAR KPAE 232153Z VRB04KT 10SM CLR 18/08 A3016 RMK AO2 SLP214 T01830083=
202206232053 METAR KPAE 232053Z VRB06KT 10SM CLR 17/08 A3018 RMK AO2 SLP218 T01720078 56000=
202206231953 METAR KPAE 231953Z 29007KT 10SM CLR 17/08 A3018 RMK AO2 SLP218 T01720078=
202206231853 METAR KPAE 231853Z VRB03KT 10SM CLR 16/08 A3017 RMK AO2 SLP216 T01610078=
202206231753 METAR KPAE 231753Z 03004KT 10SM FEW020 16/06 A3018 RMK AO2 SLP218 T01560056 10156 20083 50004=
202206231653 METAR KPAE 231653Z VRB03KT 10SM FEW023 14/07 A3018 RMK AO2 SLP220 T01440072=
202206231553 METAR KPAE 231553Z VRB05KT 10SM CLR 13/08 A3018 RMK AO2 SLP219 T01280078=
202206231453 METAR KPAE 231453Z 28003KT 10SM CLR 13/07 A3016 RMK AO2 SLP214 T01280067 50004=
202206231353 METAR KPAE 231353Z 00000KT 10SM CLR 11/07 A3017 RMK AO2 SLP215 T01110072=
202206231253 METAR KPAE 231253Z AUTO 00000KT 10SM CLR 09/07 A3016 RMK AO2 SLP214 T00890067=
202206231153 METAR KPAE 231153Z AUTO 00000KT 10SM CLR 09/07 A3015 RMK AO2 SLP210 T00890067 10122 20089 51008=
202206231053 METAR KPAE 231053Z AUTO 33004KT 10SM FEW060 09/07 A3014 RMK AO2 SLP206 T00940067=
202206230953 METAR KPAE 230953Z AUTO 32005G16KT 10SM FEW050 11/07 A3014 RMK AO2 SLP205 T01060067=
202206230853 METAR KPAE 230853Z AUTO 34007KT 10SM CLR 11/07 A3013 RMK AO2 SLP202 T01060072 53002=
202206230753 METAR KPAE 230753Z AUTO 33007KT 10SM CLR 11/07 A3012 RMK AO2 SLP199 T01110067 401780111=
202206230653 METAR KPAE 230653Z AUTO 02007KT 10SM BKN032 OVC050 12/07 A3012 RMK AO2 SLP200 T01220072=
202206230553 METAR KPAE 230553Z AUTO 35006KT 10SM FEW060 11/07 A3012 RMK AO2 SLP201 T01110072 10172 20111 53005=
202206230453 METAR KPAE 230453Z 36009KT 10SM FEW029 FEW034 SCT060 12/08 A3011 RMK AO2 SLP198 T01170078=
202206230446 SPECI KPAE 230446Z 01009G17KT 10SM SCT029 SCT034 BKN060 12/08 A3011 RMK AO2 T01170078=
202206230424 SPECI KPAE 230424Z 01010G18KT 10SM OVC029 13/08 A3010 RMK AO2 T01280078=
202206230353 METAR KPAE 230353Z 36010G19KT 10SM OVC032 13/08 A3010 RMK AO2 SLP192 T01330083=
202206230253 METAR KPAE 230253Z 35008KT 10SM BKN036 14/09 A3011 RMK AO2 SLP194 T01390089 56014=
202206230153 METAR KPAE 230153Z 34007KT 10SM FEW055 16/09 A3012 RMK AO2 SLP198 T01560094=
202206230053 METAR KPAE 230053Z 35007KT 10SM OVC035 16/09 A3013 RMK AO2 SLP202 T01560094=
202206222353 METAR KPAE 222353Z 34005KT 10SM FEW039 17/10 A3015 RMK AO2 SLP208 T01720100 10178 20133 58012=
202206222253 METAR KPAE 222253Z 35007KT 10SM OVC036 16/10 A3017 RMK AO2 SLP215 T01610100=
202206222153 METAR KPAE 222153Z 34007KT 10SM BKN037 16/09 A3017 RMK AO2 SLP217 T01610094=
202206222053 METAR KPAE 222053Z 35007KT 10SM OVC035 16/10 A3018 RMK AO2 SLP220 T01610100 55002=
202206221953 METAR KPAE 221953Z 35008KT 10SM OVC038 16/10 A3018 RMK AO2 SLP220 T01610100=
202206221853 METAR KPAE 221853Z 35008KT 10SM OVC035 15/10 A3019 RMK AO2 SLP222 T01500100=
202206221753 METAR KPAE 221753Z VRB04KT 10SM SCT002 BKN021 OVC029 13/11 A3019 RMK AO2 SLP223 VIS S 2 T01330111 10133 20122 58001=
202206221726 SPECI KPAE 221726Z VRB03KT 2SM BR OVC004 13/11 A3019 RMK AO2 T01280111=
202206221719 SPECI KPAE 221719Z 01003KT 2SM BR FEW004 OVC016 13/11 A3019 RMK AO2 T01280111=
202206221653 METAR KPAE 221653Z 35005KT 2SM BR OVC002 12/11 A3019 RMK AO2 SLP223 T01220106=
202206221629 SPECI KPAE 221629Z 36007KT 2SM BR OVC003 12/11 A3019 RMK AO2 T01220106=
202206221553 METAR KPAE 221553Z VRB05KT 3/4SM R16R/P6000FT BR OVC002 12/11 A3019 RMK AO2 SLP223 T01220106=
202206221536 SPECI KPAE 221536Z 01006KT 3/4SM R16R/6000VP6000FT BR OVC002 12/11 A3019 RMK AO2 T01220106=
202206221517 SPECI KPAE 221517Z VRB05KT 3SM R16R/3000VP6000FT BR OVC002 12/11 A3019 RMK AO2 T01220111=
202206221500 SPECI KPAE 221500Z 35008KT 2SM R16R/3000V4500FT BR OVC002 12/11 A3019 RMK AO2 T01220106=
202206221453 METAR KPAE 221453Z 36009KT 3SM R16R/3500VP6000FT BR OVC002 12/11 A3019 RMK AO2 SLP223 T01220106 51006=
202206221446 SPECI KPAE 221446Z 36009KT 3SM R16R/4500VP6000FT BR OVC002 12/11 A3019 RMK AO2 T01220106=
202206221433 SPECI KPAE 221433Z 36010KT 2 1/2SM BR BKN002 OVC008 12/11 A3019 RMK AO2 T01220106=
202206221410 SPECI KPAE 221410Z 36005KT 4SM BR BKN003 OVC012 13/11 A3019 RMK AO2 CIG 002V006 T01280111=
202206221353 METAR KPAE 221353Z 36006KT 7SM BKN005 OVC014 13/11 A3019 RMK AO2 SLP221 T01280106=
202206221318 SPECI KPAE 221318Z AUTO 01005KT 10SM FEW005 OVC014 13/11 A3018 RMK AO2 T01280106=
202206221310 SPECI KPAE 221310Z AUTO 36006KT 10SM BKN005 OVC014 13/11 A3018 RMK AO2 T01280106=
202206221253 METAR KPAE 221253Z AUTO 01006KT 10SM SCT005 OVC015 13/11 A3018 RMK AO2 SLP220 T01280106=
202206221208 SPECI KPAE 221208Z AUTO 36008G16KT 10SM SCT004 OVC016 13/11 A3018 RMK AO2 T01280106=
202206221153 METAR KPAE 221153Z AUTO 36010G15KT 10SM BKN004 OVC016 13/11 A3017 RMK AO2 SLP216 T01280106 10150 20128 58004=
202206221053 METAR KPAE 221053Z AUTO 36005KT 10SM BKN003 OVC022 13/11 A3018 RMK AO2 SLP217 T01280111=
202206220953 METAR KPAE 220953Z AUTO 36006KT 10SM OVC003 13/11 A3018 RMK AO2 SLP220 T01280111=
202206220913 SPECI KPAE 220913Z AUTO 36006KT 10SM BKN003 BKN043 OVC090 13/12 A3018 RMK AO2 T01330117=
202206220853 METAR KPAE 220853Z AUTO 36005KT 10SM SCT003 BKN044 OVC090 13/12 A3019 RMK AO2 SLP221 T01330117 55003=
202206220822 SPECI KPAE 220822Z AUTO 35007KT 310V020 10SM FEW003 BKN090 13/12 A3018 RMK AO2 T01330117=
202206220753 METAR KPAE 220753Z AUTO 35006KT 10SM SCT090 14/12 A3018 RMK AO2 SLP220 T01390117 402330117=
202206220653 METAR KPAE 220653Z AUTO VRB05KT 10SM BKN085 14/12 A3019 RMK AO2 SLP222 T01440117=
202206220553 METAR KPAE 220553Z AUTO 35006KT 10SM FEW043 BKN080 15/12 A3020 RMK AO2 SLP224 T01500117 10233 20150 56010=
202206220453 METAR KPAE 220453Z AUTO 36007KT 10SM BKN075 16/12 A3021 RMK AO2 SLP228 T01610122=
202206220353 METAR KPAE 220353Z 35007KT 10SM SCT080 17/12 A3021 RMK AO2 SLP229 T01720122=
202206220253 METAR KPAE 220253Z 10SM CLR 18/12 A3023 RMK AO2 SLP235 T01830122 56012=
202206220153 METAR KPAE 220153Z 34006KT 10SM SCT100 21/12 A3023 RMK AO2 SLP237 T02110117=
202206220053 METAR KPAE 220053Z 35006KT 10SM OVC085 21/12 A3025 RMK AO2 SLP242 T02110122=
202206212353 METAR KPAE 212353Z 33006KT 10SM BKN100 22/12 A3026 RMK AO2 SLP246 T02220117 10233 20167 58017=
202206212253 METAR KPAE 212253Z AUTO 36006KT 10SM BKN080 22/12 A3028 RMK AO2 SLP253 T02220117=
202206212153 METAR KPAE 212153Z 35006KT 10SM CLR 22/11 A3030 RMK AO2 SLP258 T02170111=
202206212053 METAR KPAE 212053Z VRB05KT 10SM CLR 21/12 A3031 RMK AO2 SLP264 T02060122 58010=
202206211953 METAR KPAE 211953Z 27006KT 10SM CLR 19/12 A3033 RMK AO2 SLP269 T01940122=
202206211853 METAR KPAE 211853Z 25007KT 10SM CLR 18/13 A3033 RMK AO2 SLP271 T01830128=
202206211753 METAR KPAE 211753Z 24004KT 10SM CLR 17/12 A3034 RMK AO2 SLP274 T01670122 10172 20117 58006=
202206211653 METAR KPAE 211653Z 31003KT 10SM CLR 17/12 A3035 RMK AO2 SLP276 T01670122=
202206211553 METAR KPAE 211553Z 28004KT 10SM CLR 16/12 A3036 RMK AO2 SLP279 T01560117=
202206211453 METAR KPAE 211453Z 15004KT 10SM CLR 15/11 A3036 RMK AO2 SLP280 T01500106 51002=
202206211353 METAR KPAE 211353Z 01004KT 10SM CLR 13/10 A3036 RMK AO2 SLP280 T01330100=
202206211253 METAR KPAE 211253Z AUTO 00000KT 10SM CLR 12/10 A3036 RMK AO2 SLP278 T01220100=
202206211153 METAR KPAE 211153Z AUTO 04004KT 10SM BKN060 13/10 A3035 RMK AO2 SLP278 T01280100 10133 20117 51001=
202206211125 SPECI KPAE 211125Z AUTO 06003KT 10SM SCT002 SCT055 12/10 A3035 RMK AO2 T01170100=
202206211053 METAR KPAE 211053Z AUTO 02004KT 10SM OVC002 12/11 A3035 RMK AO2 SLP277 T01170106=
202206210953 METAR KPAE 210953Z AUTO 36006KT 10SM OVC002 12/11 A3036 RMK AO2 SLP281 T01220106=
202206210922 SPECI KPAE 210922Z AUTO 36006KT 10SM BKN002 OVC050 12/11 A3035 RMK AO2 T01220106=
202206210911 SPECI KPAE 210911Z AUTO 35005KT 10SM SCT002 OVC050 12/11 A3035 RMK AO2 T01220106=
202206210853 METAR KPAE 210853Z AUTO 36007KT 10SM OVC055 12/11 A3035 RMK AO2 SLP278 T01220106 53001=
202206210753 METAR KPAE 210753Z AUTO 36005KT 10SM SCT002 BKN055 12/11 A3035 RMK AO2 SLP277 T01220106 401780106=
202206210742 SPECI KPAE 210742Z AUTO 36005KT 10SM FEW002 SCT055 12/10 A3035 RMK AO2 T01170100=
202206210653 METAR KPAE 210653Z AUTO 36007KT 10SM CLR 12/10 A3035 RMK AO2 SLP277 T01220100=
202206210553 METAR KPAE 210553Z AUTO 36006KT 10SM CLR 13/10 A3035 RMK AO2 SLP277 T01330100 10178 20133 53007=
202206210453 METAR KPAE 210453Z AUTO 36004KT 10SM BKN055 15/10 A3034 RMK AO2 SLP275 T01500100=
202206210353 METAR KPAE 210353Z AUTO 34004KT 10SM OVC050 16/10 A3033 RMK AO2 SLP270 T01610100=
202206210253 METAR KPAE 210253Z 25003KT 10SM OVC055 17/09 A3033 RMK AO2 SLP269 T01670089 58006=
202206210153 METAR KPAE 210153Z 25003KT 10SM OVC055 17/09 A3033 RMK AO2 SLP271 T01720094=
202206210053 METAR KPAE 210053Z 24006KT 10SM CLR 18/09 A3034 RMK AO2 SLP274 T01780094=
202206202353 METAR KPAE 202353Z 21007KT 10SM CLR 17/09 A3034 RMK AO2 SLP275 T01720094 10178 20128 58003=
202206202322 SPECI KPAE 202322Z 21006KT 10SM FEW028 18/09 A3034 RMK AO2 T01780094=
202206202253 METAR KPAE 202253Z VRB03KT 10SM OVC028 18/10 A3035 RMK AO2 SLP276 T01780100=
202206202153 METAR KPAE 202153Z VRB05KT 10SM OVC025 16/09 A3035 RMK AO2 SLP277 T01610094=
202206202124 SPECI KPAE 202124Z 00000KT 10SM BKN024 16/09 A3035 RMK AO2 T01560094=
202206202112 SPECI KPAE 202112Z 00000KT 10SM FEW023 SCT029 16/09 A3035 RMK AO2 T01610094=
202206202053 METAR KPAE 202053Z 00000KT 10SM SCT023 OVC029 15/09 A3035 RMK AO2 SLP278 T01500094 52004=
202206201953 METAR KPAE 201953Z VRB03KT 10SM OVC020 14/09 A3035 RMK AO2 SLP277 T01390094=
202206201914 SPECI KPAE 201914Z 28004KT 10SM SCT014 OVC023 14/09 A3034 RMK AO2 T01390094=
202206201853 METAR KPAE 201853Z 00000KT 10SM OVC014 13/09 A3034 RMK AO2 SLP275 T01330089=
202206201553 METAR KPAE 201553Z 00000KT 10SM OVC011 12/08 A3032 RMK AO2 SLP270 T01170078=
202206201453 METAR KPAE 201453Z 36003KT 10SM OVC010 11/08 A3031 RMK AO2 SLP266 T01110078 53011=
202206201353 METAR KPAE 201353Z 36004KT 10SM OVC013 11/08 A3030 RMK AO2 SLP262 T01110078=
202206201344 SPECI KPAE 201344Z 01005KT 10SM OVC015 11/08 A3030 RMK AO2 T01110078=
202206201334 SPECI KPAE 201334Z 35005KT 10SM OVC014 11/07 A3030 RMK AO2 T01110072=
202206201253 METAR KPAE 201253Z 35004KT 10SM OVC016 11/08 A3029 RMK AO2 SLP257 T01110078=
202206201153 METAR KPAE 201153Z 36005KT 10SM OVC019 11/08 A3028 RMK AO2 SLP255 T01110078 10117 20106 53009=
202206201053 METAR KPAE 201053Z 35006KT 10SM SCT007 OVC021 11/08 A3027 RMK AO2 SLP251 T01060083=
202206201036 SPECI KPAE 201036Z VRB05KT 10SM FEW007 OVC021 11/08 A3027 RMK AO2 T01060083=
202206200953 METAR KPAE 200953Z 35005KT 10SM OVC023 11/08 A3026 RMK AO2 SLP247 T01060083=
202206200853 METAR KPAE 200853Z 36006KT 10SM FEW007 OVC023 11/08 A3025 RMK AO2 SLP245 T01110083 52001=
202206200830 SPECI KPAE 200830Z 34006KT 10SM FEW007 OVC023 11/08 A3025 RMK AO2 T01110083=
202206200753 METAR KPAE 200753Z 36010G16KT 10SM OVC028 11/08 A3025 RMK AO2 SLP245 T01110083 401830111=
202206200748 SPECI KPAE 200748Z 36009G15KT 10SM FEW008 OVC028 12/08 A3025 RMK AO2=
202206200719 SPECI KPAE 200719Z 36009KT 10SM BKN030 12/09 A3025 RMK AO2 T01170089=
202206200653 METAR KPAE 200653Z 01005KT 10SM OVC026 12/09 A3025 RMK AO2 SLP244 T01170089=
202206200643 SPECI KPAE 200643Z VRB04KT 10SM BKN026 11/09 A3025 RMK AO2 T01110089=
202206200553 METAR KPAE 200553Z 36009KT 10SM BKN031 OVC070 12/08 A3024 RMK AO2 SLP242 T01170083 10172 20117 51010=
202206200453 METAR KPAE 200453Z 01009KT 10SM BKN034 OVC065 12/09 A3024 RMK AO2 SLP242 T01220089=
202206200353 METAR KPAE 200353Z 36007KT 10SM SCT045 BKN070 13/09 A3022 RMK AO2 SLP235 T01280089=
202206200253 METAR KPAE 200253Z 01007KT 10SM OVC047 15/09 A3021 RMK AO2 SLP231 T01500094 58001=
202206200153 METAR KPAE 200153Z 35006KT 10SM SCT046 OVC065 15/09 A3022 RMK AO2 SLP232 T01500094=
202206200053 METAR KPAE 200053Z 31005KT 10SM OVC043 17/09 A3022 RMK AO2 SLP232 T01670094=
202206192353 METAR KPAE 192353Z 30004KT 10SM BKN047 OVC060 17/08 A3022 RMK AO2 SLP232 T01720083 10183 20133 58000=
202206192253 METAR KPAE 192253Z 27007KT 10SM SCT065 OVC080 17/09 A3022 RMK AO2 SLP233 T01720094=
202206192153 METAR KPAE 192153Z 25006KT 10SM FEW060 OVC080 16/09 A3022 RMK AO2 SLP233 T01610094=
202206192053 METAR KPAE 192053Z 23006KT 10SM OVC080 16/10 A3022 RMK AO2 SLP232 T01560100 53005=
202206191953 METAR KPAE 191953Z 26006KT 10SM SCT017 OVC080 16/11 A3020 RMK AO2 SLP228 T01560106=
202206191853 METAR KPAE 191853Z 25006KT 10SM OVC021 14/10 A3020 RMK AO2 SLP227 T01390100=
202206191800 SPECI KPAE 191800Z 16004KT 10SM OVC016 14/09 A3020 RMK AO2 T01390089=
202206191753 METAR KPAE 191753Z 17005KT 10SM SCT007 OVC010 14/09 A3019 RMK AO2 SLP225 60000 T01390089 10139 20111 50005=
202206191707 SPECI KPAE 191707Z 00000KT 10SM SCT007 OVC010 13/09 A3020 RMK AO2 T01280094=
202206191656 SPECI KPAE 191656Z 24003KT 10SM OVC007 12/09 A3020 RMK AO2 T01220094=
202206191653 METAR KPAE 191653Z 25003KT 10SM OVC012 12/09 A3020 RMK AO2 SLP226 T01220094=
202206191553 METAR KPAE 191553Z 17004KT 10SM OVC011 12/09 A3020 RMK AO2 SLP225 T01170089=
202206191541 SPECI KPAE 191541Z 15005KT 10SM OVC011 12/09 A3019 RMK AO2 CIG 008V012 T01170089=
202206191453 METAR KPAE 191453Z 19004KT 10SM OVC007 11/09 A3018 RMK AO2 RAB00E29 SLP220 P0000 60000 T01110094 51013=
202206191353 METAR KPAE 191353Z 19006KT 10SM OVC008 11/09 A3017 RMK AO2 RAB13E22 SLP217 P0000 T01110089=
202206191253 METAR KPAE 191253Z AUTO VRB03KT 10SM OVC006 11/09 A3016 RMK AO2 CIG 004V011 SLP213 T01110094=
202206191215 SPECI KPAE 191215Z AUTO 18003KT 6SM BR BKN005 OVC013 11/09 A3015 RMK AO2 T01110094=
202206191208 SPECI KPAE 191208Z AUTO 18004KT 6SM BR SCT005 OVC013 11/09 A3015 RMK AO2 T01110094=
202206191153 METAR KPAE 191153Z AUTO 16004KT 4SM BR BKN006 OVC013 11/09 A3014 RMK AO2 CIG 004V010 SLP207 60000 T01110094 10117 20111 53010=
202206191053 METAR KPAE 191053Z AUTO 00000KT 10SM BKN009 OVC018 12/09 A3013 RMK AO2 CIG 007V011 SLP202 T01170089=
202206191044 SPECI KPAE 191044Z AUTO 15004KT 10SM BKN009 OVC016 12/09 A3012 RMK AO2 T01170089=
202206190953 METAR KPAE 190953Z AUTO 06003KT 10SM OVC024 12/09 A3012 RMK AO2 SLP198 T01170089=
202206190853 METAR KPAE 190853Z AUTO 00000KT 10SM OVC024 12/09 A3011 RMK AO2 SLP198 60000 T01170089 51008=
202206190812 SPECI KPAE 190812Z AUTO 01004KT 10SM BKN024 OVC047 12/09 A3011 RMK AO2 T01170089=
202206190753 METAR KPAE 190753Z AUTO 36004KT 10SM FEW023 SCT038 OVC046 12/09 A3011 RMK AO2 SLP196 T01170089 401610106=
202206190732 SPECI KPAE 190732Z AUTO 01003KT 10SM SCT023 OVC047 12/09 A3010 RMK AO2 T01170089=
202206190653 METAR KPAE 190653Z AUTO 35005KT 10SM OVC021 12/09 A3010 RMK AO2 RAE11 SLP192 P0000 T01170094=
202206190616 SPECI KPAE 190616Z AUTO 35005KT 10SM BKN020 OVC043 12/09 A3009 RMK AO2 RAE11 P0000 T01170094=
202206190553 METAR KPAE 190553Z AUTO 36005KT 10SM -RA FEW010 OVC044 12/09 A3009 RMK AO2 RAB24 SLP190 P0000 60000 T01170094 10161 20117 52012=
202206190528 SPECI KPAE 190528Z AUTO 36005KT 10SM -RA SCT020 OVC048 12/09 A3008 RMK AO2 RAB24 P0000 T01220089=
202206190509 SPECI KPAE 190509Z AUTO 36006KT 10SM BKN020 OVC050 12/09 A3008 RMK AO2 T01220089=
202206190500 SPECI KPAE 190500Z AUTO 35006KT 10SM SCT017 SCT022 OVC050 13/09 A3008 RMK AO2 T01280089=
202206190453 METAR KPAE 190453Z AUTO 35005KT 10SM BKN017 OVC050 13/09 A3008 RMK AO2 SLP186 T01280089=
202206190414 SPECI KPAE 190414Z AUTO 26003KT 10SM BKN019 OVC055 14/09 A3007 RMK AO2 T01390094=
202206190353 METAR KPAE 190353Z 00000KT 10SM FEW011 BKN060 OVC100 14/11 A3006 RMK AO2 SLP181 T01390106=
202206190253 METAR KPAE 190253Z 20003KT 10SM FEW050 BKN065 BKN100 15/09 A3005 RMK AO2 SLP177 T01500094 51005=
202206190153 METAR KPAE 190153Z VRB04KT 10SM FEW032 FEW055 OVC070 15/09 A3005 RMK AO2 SLP175 T01500094=
202206190053 METAR KPAE 190053Z 23007KT 10SM FEW050 BKN070 16/10 A3005 RMK AO2 SLP174 T01610100=
202206182353 METAR KPAE 182353Z VRB06KT 10SM SCT014 BKN036 OVC095 16/11 A3004 RMK AO2 SLP172 60000 T01610106 10161 20111 51004=
202206182253 METAR KPAE 182253Z 00000KT 10SM SCT012 BKN036 OVC080 15/11 A3004 RMK AO2 SLP171 T01500106=
202206182153 METAR KPAE 182153Z VRB03KT 10SM OVC012 13/10 A3003 RMK AO2 RAE2055 SLP170 P0000 T01330100=
202206182053 METAR KPAE 182053Z 00000KT 4SM -RA BKN009 OVC022 13/10 A3003 RMK AO2 RAB45 SLP168 P0000 60000 T01280100 53009=
202206181953 METAR KPAE 181953Z 00000KT 10SM BKN009 OVC022 13/10 A3002 RMK AO2 RAE1854 SLP165 P0000 T01280100=
202206181933 SPECI KPAE 181933Z 35003KT 10SM FEW006 SCT010 OVC020 12/11 A3001 RMK AO2 RAE1854 P0000 T01220106=
202206181900 SPECI KPAE 181900Z 00000KT 5SM BR BKN007 OVC010 12/10 A3001 RMK AO2 RAE1854 CIG 004V008 P0000 T01170100=
202206181853 METAR KPAE 181853Z 00000KT 2SM -RA BR BKN007 BKN010 OVC016 12/10 A3001 RMK AO2 RAB1755E23B39 CIG 004V009 SLP162 P0000 T01170100=
202206181757 SPECI KPAE 181757Z VRB03KT 2SM -RA BR BKN005 OVC010 11/10 A3000 RMK AO2 RAB55 CIG 003V007 P0000 T01110100=
202206181753 METAR KPAE 181753Z 26003KT 1 3/4SM BR OVC003 11/09 A3000 RMK AO2 RAE21B29E48 SLP159 P0000 60000 T01110094 10117 20106 51008=
202206181727 SPECI KPAE 181727Z 22004KT 1 3/4SM R16R/5000VP6000FT BR OVC003 11/10 A2999 RMK AO2 RAE21 P0000 T01110100=
202206181720 SPECI KPAE 181720Z 22004KT 1 3/4SM R16R/6000VP6000FT -RA BR OVC005 11/09 A2999 RMK AO2 P0000 T01110094=
202206181700 SPECI KPAE 181700Z 35003KT 1 1/2SM -RA BR OVC003 11/09 A2999 RMK AO2 P0000 T01110094=
202206181653 METAR KPAE 181653Z VRB03KT 4SM R16R/5000VP6000FT -RA BR OVC005 11/09 A2999 RMK AO2 RAE01B19 SLP156 P0000 T01110094=
202206181553 METAR KPAE 181553Z 00000KT 4SM -RA BR OVC006 11/09 A2998 RMK AO2 RAB37 SLP154 P0000 T01110094=
202206181538 SPECI KPAE 181538Z 33003KT 4SM -RA BR OVC006 11/09 A2998 RMK AO2 RAB37 P0000 T01110094=
202206181531 SPECI KPAE 181531Z 32004KT 1 3/4SM BR OVC005 11/09 A2998 RMK AO2 CIG 004V008 T01110094=
202206181453 METAR KPAE 181453Z 00000KT 4SM BR OVC006 12/09 A2997 RMK AO2 CIG 004V008 SLP150 T01170094 53009=
202206181353 METAR KPAE 181353Z 17004KT 10SM OVC007 11/09 A2996 RMK AO2 SLP147 T01110089=
202206181313 SPECI KPAE 181313Z AUTO 18003KT 10SM OVC009 12/09 A2996 RMK AO2 T01170089=
202206181253 METAR KPAE 181253Z AUTO 00000KT 10SM OVC010 12/09 A2995 RMK AO2 SLP143 T01170089=
202206181153 METAR KPAE 181153Z AUTO 20004KT 10SM OVC010 12/09 A2995 RMK AO2 SLP140 60000 70002 T01170089 10122 20117 53012=
202206181127 SPECI KPAE 181127Z AUTO 20003KT 10SM OVC011 12/09 A2994 RMK AO2 T01170094=
202206181113 SPECI KPAE 181113Z AUTO 20005KT 10SM OVC009 12/09 A2993 RMK AO2 T01170094=
202206181053 METAR KPAE 181053Z AUTO 19006KT 10SM OVC010 12/09 A2993 RMK AO2 CIG 008V013 SLP134 T01170094=
202206180953 METAR KPAE 180953Z AUTO VRB03KT 10SM OVC010 12/09 A2992 RMK AO2 CIG 008V014 SLP131 T01170094=
202206180916 SPECI KPAE 180916Z AUTO 18004KT 10SM OVC014 12/09 A2991 RMK AO2 T01170094=
202206180853 METAR KPAE 180853Z AUTO 19004KT 10SM OVC009 12/09 A2991 RMK AO2 CIG 007V014 SLP128 60000 T01170094 51003=
202206180753 METAR KPAE 180753Z AUTO 19005KT 10SM OVC012 12/10 A2991 RMK AO2 RAE02 SLP128 P0000 T01170100 401440111=
202206180732 SPECI KPAE 180732Z AUTO 18004KT 10SM SCT007 BKN014 OVC018 12/10 A2991 RMK AO2 RAE02 P0000 T01170100=
202206180653 METAR KPAE 180653Z AUTO 18004KT 10SM -RA BKN008 OVC011 12/10 A2991 RMK AO2 RAB25 CIG 006V010 SLP128 P0000 T01220100=
202206180638 SPECI KPAE 180638Z AUTO 18004KT 10SM -RA OVC009 12/10 A2991 RMK AO2 RAB25 CIG 006V013 P0000 T01220100=
202206180629 SPECI KPAE 180629Z AUTO 16007KT 10SM -RA FEW006 BKN010 OVC014 12/10 A2991 RMK AO2 RAB25 CIG 008V012 P0000 T01220100=
202206180553 METAR KPAE 180553Z AUTO 15007KT 10SM BKN008 OVC013 12/10 A2990 RMK AO2 CIG 006V012 SLP126 60000 T01220100 10139 20122 53008=
202206180500 SPECI KPAE 180500Z 17006KT 10SM BKN007 OVC012 13/11 A2989 RMK AO2 CIG 006V010 T01280106=
202206180453 METAR KPAE 180453Z 16004KT 10SM SCT007 OVC012 13/11 A2988 RMK AO2 SLP119 T01280106=
202206180448 SPECI KPAE 180448Z 18005KT 10SM FEW007 OVC012 13/11 A2988 RMK AO2=
202206180411 SPECI KPAE 180411Z 21003KT 10SM BKN012 OVC070 13/11 A2987 RMK AO2 T01280111=
202206180353 METAR KPAE 180353Z 20004KT 10SM FEW010 BKN075 OVC090 13/11 A2987 RMK AO2 SLP117 T01280111=
202206180253 METAR KPAE 180253Z 17006KT 10SM SCT007 OVC095 13/11 A2987 RMK AO2 RAB0155E32 SLP116 P0000 60000 T01330111 53005=
202206180212 SPECI KPAE 180212Z 18008KT 10SM -RA FEW008 BKN070 OVC085 13/11 A2986 RMK AO2 RAB0155 P0000 T01330111=
202206180153 METAR KPAE 180153Z 19011KT 10SM BKN008 BKN012 OVC085 13/11 A2986 RMK AO2 RAB06E38 SLP111 P0000 T01330111=
202206180106 SPECI KPAE 180106Z 19010KT 10SM -RA BKN008 BKN012 OVC085 13/11 A2986 RMK AO2 RAB06 P0000 T01330111=
202206180100 SPECI KPAE 180100Z 19008KT 10SM SCT007 BKN011 OVC080 13/11 A2986 RMK AO2 T01330111=
202206180053 METAR KPAE 180053Z 20009KT 10SM BKN008 BKN012 OVC085 13/11 A2986 RMK AO2 RAE31 SLP111 P0000 T01330111=
202206172353 METAR KPAE 172353Z 19010KT 8SM -RA BKN008 OVC080 14/11 A2986 RMK AO2 SLP111 P0001 60002 T01390111 10144 20122 51015=
202206172321 SPECI KPAE 172321Z 20006KT 10SM -RA BKN008 OVC080 14/12 A2986 RMK AO2 P0000 T01390117=
202206172253 METAR KPAE 172253Z 20007KT 8SM -RA FEW018 OVC085 14/11 A2985 RMK AO2 SLP108 P0001 T01390111=
202206172153 METAR KPAE 172153Z 21005KT 10SM -RA SCT018 OVC085 14/10 A2984 RMK AO2 RAB51 SLP103 P0000 T01390100=
202206172143 SPECI KPAE 172143Z 19007KT 10SM SCT018 OVC090 14/10 A2983 RMK AO2 T01390100=
202206172109 SPECI KPAE 172109Z 19005KT 10SM BKN015 BKN048 OVC075 14/10 A2982 RMK AO2 T01390100=
202206172053 METAR KPAE 172053Z 22005KT 10SM SCT015 SCT050 OVC070 14/10 A2981 RMK AO2 SLP095 T01440100 53002=
202206172006 SPECI KPAE 172006Z 28006KT 10SM BKN012 BKN110 14/10 A2980 RMK AO2 T01390100=
202206171953 METAR KPAE 171953Z VRB03KT 10SM SCT012 BKN110 14/10 A2980 RMK AO2 SLP092 T01390100=
202206171853 METAR KPAE 171853Z 28005KT 10SM OVC010 13/09 A2980 RMK AO2 CIG 009V014 SLP089 T01280094=
202206171753 METAR KPAE 171753Z 34003KT 10SM OVC008 12/09 A2981 RMK AO2 SLP093 T01220094 10128 20111 53002=
202206171653 METAR KPAE 171653Z VRB05KT 10SM OVC007 12/09 A2979 RMK AO2 SLP088 T01220094=
202206171553 METAR KPAE 171553Z 33006KT 10SM OVC006 12/09 A2978 RMK AO2 SLP085 T01170094=
202206171453 METAR KPAE 171453Z 31006KT 10SM OVC006 12/09 A2980 RMK AO2 SLP091 T01170094 58004=
202206171353 METAR KPAE 171353Z 33005KT 10SM OVC006 12/09 A2981 RMK AO2 SLP092 T01170094=
202206171253 METAR KPAE 171253Z AUTO 34005KT 10SM OVC007 12/09 A2981 RMK AO2 SLP095 T01170089=
202206171153 METAR KPAE 171153Z AUTO 33006KT 10SM OVC010 12/09 A2982 RMK AO2 CIG 005V011 SLP097 T01170094 10128 20111 57004=
202206171102 SPECI KPAE 171102Z AUTO 33005KT 10SM BKN007 11/09 A2983 RMK AO2 T01110089=
202206171053 METAR KPAE 171053Z AUTO 33005KT 10SM SCT008 11/09 A2984 RMK AO2 SLP102 T01110089=
202206171038 SPECI KPAE 171038Z AUTO 34006KT 10SM SCT008 11/09 A2983 RMK AO2 T01110089=
202206170953 METAR KPAE 170953Z AUTO 35008G15KT 10SM CLR 12/09 A2984 RMK AO2 SLP102 T01170089=
202206170853 METAR KPAE 170853Z AUTO 34004KT 10SM CLR 12/09 A2987 RMK AO2 SLP113 T01170089 55011=
202206170753 METAR KPAE 170753Z AUTO 34006KT 10SM CLR 12/08 A2986 RMK AO2 SLP112 T01220083 402000100=
202206170653 METAR KPAE 170653Z AUTO 35007KT 10SM CLR 12/09 A2989 RMK AO2 SLP120 T01220089=
202206170553 METAR KPAE 170553Z AUTO 34006KT 10SM CLR 13/09 A2990 RMK AO2 SLP125 T01280089 10200 20128 58004=
202206170453 METAR KPAE 170453Z AUTO 35006KT 10SM BKN055 13/09 A2992 RMK AO2 SLP130 T01330089=
202206170353 METAR KPAE 170353Z 34005KT 10SM CLR 14/09 A2991 RMK AO2 SLP127 T01390094=
202206170253 METAR KPAE 170253Z VRB06KT 10SM CLR 16/09 A2992 RMK AO2 SLP129 T01610089 55003=
202206170153 METAR KPAE 170153Z 29006KT 10SM CLR 19/07 A2991 RMK AO2 SLP127 T01890072=
202206170053 METAR KPAE 170053Z 28008KT 10SM FEW060 19/07 A2991 RMK AO2 SLP128 T01940067=
202206162353 METAR KPAE 162353Z 22010G16KT 10SM CLR 19/07 A2992 RMK AO2 SLP132 T01940067 10200 20144 50000=
202206162253 METAR KPAE 162253Z 23007KT 10SM BKN048 OVC090 19/07 A2993 RMK AO2 SLP133 T01890072=
202206162153 METAR KPAE 162153Z 21010KT 10SM BKN042 BKN055 OVC065 18/09 A2993 RMK AO2 SLP133 T01830089=
202206162053 METAR KPAE 162053Z 23009KT 10SM SCT042 BKN090 18/09 A2992 RMK AO2 SLP131 T01780089 51001=
202206161953 METAR KPAE 161953Z 26009G15KT 10SM FEW044 SCT060 SCT075 18/10 A2992 RMK AO2 SLP131 T01780100=
202206161853 METAR KPAE 161853Z 25005KT 10SM FEW005 BKN033 OVC043 16/09 A2993 RMK AO2 SLP133 T01560089=
202206161802 SPECI KPAE 161802Z 24004KT 10SM FEW005 BKN033 OVC043 16/11 A2992 RMK AO2 T01560106=
202206161753 METAR KPAE 161753Z 22004KT 10SM FEW025 BKN030 OVC095 15/09 A2992 RMK AO2 SLP131 60000 T01500094 10167 20100 53001=
202206161658 SPECI KPAE 161658Z VRB04KT 10SM FEW049 OVC060 15/10 A2992 RMK AO2 T01500100 $=
202206161653 METAR KPAE 161653Z 18004KT 3/4SM R16R/P6000FT HZ SCT049 OVC060 15/09 A2992 RMK AO2 SLP131 T01500094 $=
202206161553 METAR KPAE 161553Z VRB04KT 10SM FEW008 OVC070 13/11 A2992 RMK AO2 RAB1459E20B37E46 SLP130 P0000 T01330106=
202206161548 SPECI KPAE 161548Z 21005KT 10SM FEW008 OVC070 13/11 A2992 RMK AO2 RAB1459E20B37E46 P0000=
202206161453 METAR KPAE 161453Z 16006KT 10SM OVC050 13/10 A2991 RMK AO2 SLP128 T01330100 53004=
202206161353 METAR KPAE 161353Z 00000KT 10SM OVC060 12/09 A2991 RMK AO2 SLP127 T01220094=
202206161334 SPECI KPAE 161334Z AUTO 00000KT 10SM BKN060 OVC080 11/09 A2991 RMK AO2 T01110094=
202206161327 SPECI KPAE 161327Z AUTO 00000KT 2 1/2SM R16R/2400VP6000FT BR BKN065 OVC080 11/09 A2991 RMK AO2 T01110094=
202206161318 SPECI KPAE 161318Z AUTO 00000KT 3/4SM R16R/2400VP6000FT BR BKN070 11/09 A2991 RMK AO2 T01060094=
202206161308 SPECI KPAE 161308Z AUTO 00000KT 1 3/4SM R16R/1200VP6000FT BR SCT070 10/08 A2990 RMK AO2 T01000083=
202206161253 METAR KPAE 161253Z AUTO 00000KT 6SM BR SCT110 11/09 A2989 RMK AO2 SLP122 T01060089=
202206161241 SPECI KPAE 161241Z AUTO 00000KT 5SM R16R/1600VP6000FT BR FEW001 BKN110 10/09 A2989 RMK AO2 T01000089=
202206161227 SPECI KPAE 161227Z AUTO 00000KT 6SM R16R/1400V2000FT BR SCT001 OVC110 11/09 A2990 RMK AO2 T01060089=
202206161219 SPECI KPAE 161219Z AUTO 00000KT 3SM R16R/1400V2200FT BR BKN001 BKN075 BKN110 11/09 A2990 RMK AO2 T01060089=
202206161211 SPECI KPAE 161211Z AUTO 00000KT 2 1/2SM R16R/1400VP6000FT BR BKN001 BKN080 11/09 A2990 RMK AO2 T01060089=
202206161206 SPECI KPAE 161206Z AUTO 00000KT 4SM BR SCT001 BKN080 10/09 A2990 RMK AO2 T01000089=
202206161153 METAR KPAE 161153Z AUTO 24004KT 10SM SCT080 10/08 A2990 RMK AO2 SLP124 T01000083 10128 20100 55002=
202206161053 METAR KPAE 161053Z AUTO 16003KT 10SM OVC055 12/09 A2990 RMK AO2 SLP123 T01170094=
202206160953 METAR KPAE 160953Z AUTO 18004KT 10SM OVC100 12/09 A2990 RMK AO2 SLP125 T01170094=
202206160853 METAR KPAE 160853Z AUTO 10003KT 10SM OVC085 12/09 A2991 RMK AO2 SLP127 T01170094 58010=
202206160753 METAR KPAE 160753Z AUTO 00000KT 10SM SCT070 12/09 A2992 RMK AO2 SLP133 T01170089 401560100=
202206160653 METAR KPAE 160653Z AUTO 00000KT 10SM SCT060 BKN080 12/09 A2993 RMK AO2 SLP135 T01170094=
202206160553 METAR KPAE 160553Z AUTO 23003KT 10SM SCT080 OVC100 13/10 A2994 RMK AO2 RAB0457E24 SLP137 P0000 60000 T01280100 10156 20122 53007=
202206160453 METAR KPAE 160453Z AUTO 23003KT 10SM OVC085 13/09 A2993 RMK AO2 RAB44E53 SLP136 P0000 T01330089=
202206160353 METAR KPAE 160353Z AUTO 28004KT 10SM SCT100 BKN120 13/09 A2992 RMK AO2 SLP131 T01330089=
202206160253 METAR KPAE 160253Z 00000KT 10SM FEW120 14/08 A2991 RMK AO2 SLP129 T01440078 55012=
202206160153 METAR KPAE 160153Z 01006KT 10SM FEW065 OVC090 15/08 A2991 RMK AO2 SLP129 T01500083=
202206160053 METAR KPAE 160053Z 35004KT 10SM BKN085 BKN120 14/08 A2993 RMK AO2 SLP135 T01440083=
202206152353 METAR KPAE 152353Z 00000KT 10SM SCT080 OVC110 16/07 A2995 RMK AO2 SLP141 T01560072 10156 20128 58015=
202206152253 METAR KPAE 152253Z 10005KT 10SM OVC090 15/07 A2997 RMK AO2 SLP147 T01500072=
202206152153 METAR KPAE 152153Z 17005KT 10SM BKN110 15/08 A2999 RMK AO2 SLP157 T01500083=
202206152053 METAR KPAE 152053Z 23006KT 10SM CLR 14/07 A2999 RMK AO2 SLP157 T01390072 55000=
202206151953 METAR KPAE 151953Z 26007KT 10SM CLR 15/08 A2998 RMK AO2 SLP152 T01500083=
202206151853 METAR KPAE 151853Z 00000KT 10SM CLR 14/08 A2997 RMK AO2 SLP149 T01440083=
202206151753 METAR KPAE 151753Z 30005KT 10SM CLR 13/08 A2999 RMK AO2 SLP157 T01280078 10133 20100 58015=
202206151653 METAR KPAE 151653Z 27005KT 10SM SCT013 13/09 A3001 RMK AO2 SLP162 T01280089=
202206151553 METAR KPAE 151553Z 00000KT 10SM FEW007 BKN110 11/08 A3003 RMK AO2 SLP169 T01110083=
202206151534 SPECI KPAE 151534Z 34004KT 10SM FEW007 BKN110 11/08 A3003 RMK AO2 T01060078=
202206151532 SPECI KPAE 151532Z 32004KT 10SM BKN007 BKN110 11/08 A3003 RMK AO2 T01060078=
202206151453 METAR KPAE 151453Z 35005KT 10SM FEW008 11/07 A3004 RMK AO2 SLP173 T01060072 58019=
202206151411 SPECI KPAE 151411Z 33005KT 10SM FEW008 11/08 A3005 RMK AO2 T01060078=
202206151353 METAR KPAE 151353Z 34003KT 10SM CLR 11/07 A3006 RMK AO2 SLP179 T01060072=
202206151253 METAR KPAE 151253Z AUTO 34004KT 10SM OVC048 10/07 A3008 RMK AO2 SLP185 T01000067=
202206151153 METAR KPAE 151153Z AUTO 01005KT 10SM BKN050 10/06 A3010 RMK AO2 SLP192 T01000061 10111 20100 58018=
202206151053 METAR KPAE 151053Z AUTO 02005KT 10SM OVC050 10/07 A3011 RMK AO2 SLP197 T01000067=
202206150953 METAR KPAE 150953Z AUTO 01005KT 10SM OVC050 11/07 A3013 RMK AO2 SLP204 T01060072=
202206150853 METAR KPAE 150853Z AUTO 35004KT 10SM OVC050 11/07 A3015 RMK AO2 SLP210 T01060072 56016=
202206150753 METAR KPAE 150753Z AUTO 01007KT 10SM BKN034 OVC050 11/07 A3015 RMK AO2 SLP212 T01060072 401560089=
202206150653 METAR KPAE 150653Z AUTO 36005KT 10SM BKN036 OVC050 11/07 A3018 RMK AO2 SLP221 T01110072=
202206150553 METAR KPAE 150553Z AUTO 01008KT 10SM OVC037 11/07 A3020 RMK AO2 SLP226 T01110072 10156 20111 58005=
202206150453 METAR KPAE 150453Z AUTO 01006KT 10SM BKN035 12/07 A3020 RMK AO2 SLP229 T01170072=
202206150353 METAR KPAE 150353Z 01006KT 10SM BKN036 OVC048 12/07 A3021 RMK AO2 SLP231 T01220072=
202206150308 SPECI KPAE 150308Z 34005KT 10SM SCT026 BKN040 13/08 A3021 RMK AO2 T01330078=
202206150253 METAR KPAE 150253Z 02006KT 10SM BKN026 OVC040 14/07 A3021 RMK AO2 SLP232 T01390067 56006=
202206150233 SPECI KPAE 150233Z VRB04KT 10SM BKN027 BKN041 14/07 A3021 RMK AO2 T01390067=
202206150153 METAR KPAE 150153Z 06004KT 10SM FEW026 BKN030 BKN050 15/08 A3021 RMK AO2 SLP232 T01500078=
202206150053 METAR KPAE 150053Z 10004KT 10SM FEW028 BKN034 OVC055 14/08 A3022 RMK AO2 SLP235 T01440078=
202206142353 METAR KPAE 142353Z 35005KT 10SM OVC050 14/07 A3023 RMK AO2 SLP238 T01440072 10150 20111 53000=
202206142253 METAR KPAE 142253Z 01007KT 10SM FEW028 FEW044 BKN055 15/07 A3023 RMK AO2 SLP238 T01500067=
202206142153 METAR KPAE 142153Z 35006KT 10SM BKN042 OVC055 14/07 A3023 RMK AO2 SLP237 T01390067=
202206142053 METAR KPAE 142053Z 27003KT 10SM BKN040 OVC055 13/06 A3023 RMK AO2 SLP237 T01330061 51008=
202206141953 METAR KPAE 141953Z 24006KT 10SM OVC055 13/06 A3022 RMK AO2 SLP234 T01330061=
202206141928 SPECI KPAE 141928Z 20005KT 10SM SCT027 OVC055 13/07 A3022 RMK AO2 T01330067=
202206141853 METAR KPAE 141853Z VRB03KT 10SM BKN026 BKN065 13/07 A3022 RMK AO2 SLP235 T01330072=
202206141838 SPECI KPAE 141838Z 10SM FEW018 SCT026 OVC060 13/07 A3022 RMK AO2 T01280072=
202206141829 SPECI KPAE 141829Z 21005KT 10SM FEW018 BKN026 OVC060 12/07 A3021 RMK AO2 T01220072=
202206141753 METAR KPAE 141753Z VRB04KT 10SM SCT014 SCT025 OVC060 12/08 A3021 RMK AO2 SLP230 T01170078 10117 20089 51009=
202206141722 SPECI KPAE 141722Z 24005KT 10SM FEW026 OVC055 11/08 A3020 RMK AO2 T01110078=
202206141653 METAR KPAE 141653Z 25005KT 10SM FEW010 BKN026 OVC060 11/07 A3020 RMK AO2 SLP227 T01060072=
202206141553 METAR KPAE 141553Z VRB03KT 10SM FEW015 BKN028 OVC047 11/07 A3019 RMK AO2 SLP225 T01060072=
202206141453 METAR KPAE 141453Z 00000KT 10SM FEW044 OVC055 10/06 A3018 RMK AO2 SLP221 T01000061 51008=
202206141400 SPECI KPAE 141400Z 00000KT 10SM SCT018 BKN042 OVC050 10/07 A3017 RMK AO2 T01000067=
202206141353 METAR KPAE 141353Z 33003KT 10SM BKN020 BKN042 09/07 A3017 RMK AO2 SLP218 T00940067=
202206141253 METAR KPAE 141253Z AUTO VRB04KT 10SM BKN019 BKN040 OVC049 09/07 A3017 RMK AO2 SLP216 T00940067=
202206141239 SPECI KPAE 141239Z AUTO VRB04KT 10SM SCT020 OVC049 09/07 A3016 RMK AO2 T00940067=
202206141153 METAR KPAE 141153Z AUTO 00000KT 10SM BKN018 OVC080 09/07 A3015 RMK AO2 SLP212 60033 70034 T00890067 10111 20089 53001=
202206141136 SPECI KPAE 141136Z AUTO 00000KT 10SM BKN018 BKN055 OVC085 09/07 A3015 RMK AO2 T00890067=
202206141053 METAR KPAE 141053Z AUTO 35003KT 10SM BKN014 OVC019 09/07 A3015 RMK AO2 RAE10B15E25 SLP211 P0000 T00940072=
202206141045 SPECI KPAE 141045Z AUTO 34003KT 10SM BKN012 OVC019 09/07 A3015 RMK AO2 RAE10B15E25 P0000 T00940072=
202206141011 SPECI KPAE 141011Z AUTO 34003KT 10SM FEW009 OVC017 09/07 A3015 RMK AO2 RAE10 P0000 T00940072=
202206140953 METAR KPAE 140953Z AUTO VRB04KT 10SM -RA BKN012 OVC017 09/07 A3015 RMK AO2 SLP211 P0016 T00940072=
202206140934 SPECI KPAE 140934Z AUTO 16006KT 4SM RA BR OVC013 09/07 A3016 RMK AO2 P0016 T00940072=
202206140920 SPECI KPAE 140920Z AUTO 17003KT 3SM RA BR FEW005 SCT009 OVC015 09/08 A3016 RMK AO2 P0013 T00940078=
202206140853 METAR KPAE 140853Z AUTO 00000KT 2 1/2SM +RA BR BKN005 OVC010 09/08 A3015 RMK AO2 SLP211 P0016 60017 T00940078 52005=
202206140821 SPECI KPAE 140821Z AUTO 01003KT 6SM -RA BR BKN007 OVC015 09/08 A3015 RMK AO2 P0002 T00940078=
202206140812 SPECI KPAE 140812Z AUTO 36003KT 3SM -RA BR SCT009 OVC015 09/08 A3015 RMK AO2 P0002 T00940078=
202206140753 METAR KPAE 140753Z AUTO 36005KT 5SM -RA BR OVC012 10/08 A3015 RMK AO2 RAB0656 SLP210 P0001 T01000078 401390094=
202206140709 SPECI KPAE 140709Z AUTO 36004KT 7SM -RA OVC013 10/08 A3014 RMK AO2 RAB0656 P0001 T01000078 TSNO=
202206140653 METAR KPAE 140653Z AUTO 26003KT 10SM OVC015 11/07 A3014 RMK AO2 SLP208 T01060067 TSNO=
202206140627 SPECI KPAE 140627Z AUTO 22004KT 10SM OVC013 11/07 A3014 RMK AO2 T01060072 TSNO=
202206140553 METAR KPAE 140553Z AUTO VRB04KT 10SM OVC016 11/07 A3014 RMK AO2 SLP206 60000 T01060072 10128 20106 50002=
202206140453 METAR KPAE 140453Z AUTO 06004KT 10SM FEW017 OVC026 11/07 A3014 RMK AO2 SLP207 T01110072=
202206140353 METAR KPAE 140353Z 34005KT 10SM OVC029 11/07 A3013 RMK AO2 RAB00E12 SLP205 P0000 T01060067=
202206140319 SPECI KPAE 140319Z 01005KT 10SM OVC030 11/07 A3013 RMK AO2 RAB00E12 P0000 T01110072=
202206140253 METAR KPAE 140253Z 02005KT 10SM OVC029 11/07 A3013 RMK AO2 RAE02 SLP204 P0000 60000 T01110072 52002=
202206140249 SPECI KPAE 140249Z 01006KT 10SM OVC029 11/07 A3013 RMK AO2 RAE02 P0000=
202206140234 SPECI KPAE 140234Z 36007KT 10SM OVC030 11/07 A3013 RMK AO2 RAE02 P0000 T01110072=
202206140153 METAR KPAE 140153Z 01008KT 10SM -RA OVC028 11/07 A3012 RMK AO2 RAB49 SLP202 P0000 T01110072=
202206140053 METAR KPAE 140053Z 01008KT 10SM OVC028 12/07 A3012 RMK AO2 SLP202 T01220072=
202206140003 SPECI KPAE 140003Z 35009G15KT 10SM BKN028 OVC038 12/07 A3012 RMK AO2 T01220072=
202206132353 METAR KPAE 132353Z 35008KT 10SM BKN030 OVC038 13/07 A3012 RMK AO2 SLP200 60001 T01280067 10139 20111 51007=
202206132253 METAR KPAE 132253Z 36007KT 10SM FEW026 SCT031 BKN040 13/07 A3011 RMK AO2 SLP198 T01280072=
202206132248 SPECI KPAE 132248Z AUTO 01006KT 10SM SCT024 SCT031 BKN060 13/07 A3011 RMK AO2=
202206132153 METAR KPAE 132153Z VRB04KT 10SM SCT015 BKN030 OVC055 13/08 A3010 RMK AO2 SLP193 T01330083=
202206132053 METAR KPAE 132053Z 11007KT 10SM SCT015 BKN030 OVC055 12/08 A3009 RMK AO2 SLP191 60001 T01220078 51012=
202206131953 METAR KPAE 131953Z 10007KT 10SM BKN018 BKN034 13/08 A3008 RMK AO2 RAE03B34E44 SLP187 P0000 T01330083=
202206131853 METAR KPAE 131853Z 04005KT 10SM -RA BKN018 OVC034 11/08 A3007 RMK AO2 RAB19 SLP184 P0001 T01110078=
202206131815 SPECI KPAE 131815Z 05007KT 10SM OVC015 12/08 A3006 RMK AO2 T01170078=
202206131753 METAR KPAE 131753Z 17005KT 10SM BKN006 BKN011 11/07 A3006 RMK AO2 SLP179 60000 T01110072 10117 20094 51016=
202206131653 METAR KPAE 131653Z 16008KT 10SM BKN006 BKN011 11/08 A3004 RMK AO2 SLP174 T01110078=
202206131553 METAR KPAE 131553Z 15007KT 10SM BKN006 BKN037 OVC060 11/08 A3003 RMK AO2 SLP169 T01060078=
202206131500 SPECI KPAE 131500Z 18007KT 10SM BKN006 OVC060 10/08 A3001 RMK AO2 T01000083=
202206131453 METAR KPAE 131453Z 17005KT 10SM FEW005 BKN030 OVC035 10/08 A3001 RMK AO2 RAB00E24 SLP163 P0000 60000 T01000078 53019=
202206131353 METAR KPAE 131353Z 18004KT 10SM FEW005 BKN030 OVC035 09/08 A2999 RMK AO2 RAE03B30E41 SLP157 P0000 T00940078=
202206131313 SPECI KPAE 131313Z AUTO 17005KT 10SM SCT005 BKN022 OVC031 09/08 A2998 RMK AO2 RAE03 P0000 T00940078=
202206131302 SPECI KPAE 131302Z AUTO 19006KT 10SM -RA BKN005 OVC027 09/08 A2998 RMK AO2 CIG 004V009 P0000 T00940078=
202206131253 METAR KPAE 131253Z AUTO 18006KT 10SM -RA SCT005 OVC027 09/08 A2997 RMK AO2 RAB08E17B47 SLP150 P0000 T00940078=
202206131153 METAR KPAE 131153Z AUTO 17006KT 10SM BKN005 OVC032 09/07 A2996 RMK AO2 SLP144 60004 70005 T00940072 10106 20094 53010=
202206131132 SPECI KPAE 131132Z AUTO 16009KT 10SM BKN005 OVC033 09/07 A2995 RMK AO2 T00940072=
202206131053 METAR KPAE 131053Z AUTO 16007KT 10SM FEW005 BKN035 OVC065 09/07 A2994 RMK AO2 SLP139 T00940072=
202206130953 METAR KPAE 130953Z AUTO 15008KT 10SM BKN060 OVC080 09/08 A2993 RMK AO2 RAB08E17 SLP134 P0000 T00940078=
202206130853 METAR KPAE 130853Z AUTO 15005KT 10SM OVC049 10/08 A2992 RMK AO2 SLP134 60004 T01000078 53005=
202206130753 METAR KPAE 130753Z AUTO VRB03KT 10SM OVC040 10/08 A2991 RMK AO2 RAE47 SLP130 P0000 T01000078 401560100=
202206130653 METAR KPAE 130653Z AUTO 12004KT 10SM -RA FEW006 OVC030 11/08 A2991 RMK AO2 SLP128 P0004 T01060078=
202206130649 SPECI KPAE 130649Z AUTO 13003KT 10SM -RA FEW006 OVC030 11/08 A2991 RMK AO2 P0004=
202206130642 SPECI KPAE 130642Z AUTO 12004KT 8SM -RA FEW006 SCT016 OVC028 10/08 A2991 RMK AO2 P0004 T01000078=
202206130629 SPECI KPAE 130629Z AUTO 11005KT 6SM -RA BR SCT006 BKN009 OVC026 11/09 A2990 RMK AO2 CIG 008V011 P0004 T01060089=
202206130608 SPECI KPAE 130608Z AUTO 10005KT 7SM RA FEW006 SCT009 OVC022 11/09 A2990 RMK AO2 P0002 T01060089=
202206130553 METAR KPAE 130553Z AUTO 08003KT 9SM -RA OVC020 11/08 A2990 RMK AO2 SLP126 P0000 60001 T01060083 10139 20100 53016=
202206130530 SPECI KPAE 130530Z AUTO VRB03KT 8SM -RA FEW014 BKN019 OVC050 10/08 A2989 RMK AO2 P0000 T01000083=
202206130503 SPECI KPAE 130503Z AUTO 34004KT 6SM -RA BR SCT015 OVC033 11/09 A2988 RMK AO2 P0000 T01060089=
202206130453 METAR KPAE 130453Z AUTO 35003KT 5SM -RA BR BKN013 OVC033 11/09 A2988 RMK AO2 SLP118 P0001 T01060089=
202206130411 SPECI KPAE 130411Z AUTO 31005KT 3SM -RA BR FEW005 BKN014 OVC037 11/09 A2986 RMK AO2 P0000 T01060089=
202206130358 SPECI KPAE 130358Z AUTO VRB05KT 2 1/2SM -RA BR SCT004 BKN012 OVC036 11/09 A2986 RMK AO2 P0000 T01110089=
202206130353 METAR KPAE 130353Z 31004KT 4SM -RA BR BKN008 OVC037 11/09 A2986 RMK AO2 SLP113 P0000 T01110094=
202206130340 SPECI KPAE 130340Z 00000KT 3SM -RA BR BKN008 OVC037 11/09 A2986 RMK AO2 P0000 T01110094=
202206130253 METAR KPAE 130253Z 23003KT 10SM -RA OVC039 11/09 A2985 RMK AO2 RAB15 SLP110 P0000 60000 T01110094 53007=
202206130230 SPECI KPAE 130230Z 27005KT 10SM -RA SCT021 BKN036 OVC047 12/08 A2985 RMK AO2 RAB15 P0000 T01170083=
202206130153 METAR KPAE 130153Z VRB03KT 10SM OVC021 12/07 A2984 RMK AO2 SLP107 T01220072=
202206130128 SPECI KPAE 130128Z VRB03KT 10SM BKN020 OVC039 13/07 A2984 RMK AO2 T01280072=
202206130053 METAR KPAE 130053Z 32005KT 10SM OVC037 13/07 A2984 RMK AO2 SLP104 T01280067=
202206122353 METAR KPAE 122353Z VRB05KT 10SM OVC035 13/06 A2983 RMK AO2 SLP102 T01330061 10156 20128 53008=
202206122253 METAR KPAE 122253Z 33006KT 10SM BKN038 OVC075 14/06 A2982 RMK AO2 SLP098 T01440056=
202206122153 METAR KPAE 122153Z 34007G15KT 10SM FEW075 15/06 A2981 RMK AO2 SLP094 T01500061=
202206122053 METAR KPAE 122053Z 36007KT 10SM FEW048 OVC075 14/06 A2981 RMK AO2 SLP093 T01440061 58001=
202206121953 METAR KPAE 121953Z 31008KT 10SM FEW026 SCT055 OVC070 14/06 A2981 RMK AO2 SLP094 T01390061=
202206121853 METAR KPAE 121853Z 32008KT 10SM FEW027 BKN045 OVC060 14/07 A2981 RMK AO2 SLP094 T01390072=
202206121848 SPECI KPAE 121848Z 32009KT 10SM SCT027 BKN045 OVC060 13/07 A2981 RMK AO2=
202206121753 METAR KPAE 121753Z 36008KT 10SM OVC025 13/07 A2982 RMK AO2 SLP098 60000 T01330072 10133 20100 58008=
202206121717 SPECI KPAE 121717Z 32006KT 10SM BKN023 OVC034 12/06 A2983 RMK AO2 T01170061=
202206121653 METAR KPAE 121653Z 31006KT 10SM FEW020 OVC039 12/07 A2984 RMK AO2 SLP103 T01220072=
202206121553 METAR KPAE 121553Z 31007KT 10SM OVC041 11/07 A2984 RMK AO2 SLP105 T01110072=
202206121533 SPECI KPAE 121533Z 32004KT 10SM FEW010 SCT025 OVC038 11/07 A2984 RMK AO2 T01060072=
202206121453 METAR KPAE 121453Z 32005KT 10SM OVC025 11/08 A2985 RMK AO2 SLP106 60000 T01060078 58008=
202206121353 METAR KPAE 121353Z 33005KT 10SM FEW012 OVC021 10/08 A2986 RMK AO2 RAB05E28 SLP110 P0000 T01000078=
202206121322 SPECI KPAE 121322Z AUTO 34004KT 4SM -RA BR OVC019 10/08 A2986 RMK AO2 RAB05 P0000 T01000083=
202206121312 SPECI KPAE 121312Z AUTO 34003KT 2SM -RA BR OVC020 10/08 A2987 RMK AO2 RAB05 P0000 T01000078=
202206121253 METAR KPAE 121253Z AUTO 00000KT 10SM OVC021 11/08 A2987 RMK AO2 SLP115 T01060078=
202206121153 METAR KPAE 121153Z AUTO 02004KT 10SM OVC017 11/07 A2987 RMK AO2 RAB16E37 SLP114 P0000 60000 T01060072 10122 20106 56012=
202206121053 METAR KPAE 121053Z AUTO 34003KT 10SM SCT014 BKN027 OVC035 11/08 A2987 RMK AO2 SLP114 T01060078=
202206121031 SPECI KPAE 121031Z AUTO 34004KT 10SM BKN029 OVC036 11/08 A2988 RMK AO2 T01060078=
202206121005 SPECI KPAE 121005Z AUTO 35006KT 10SM FEW013 OVC035 11/08 A2988 RMK AO2 T01110078=
202206120953 METAR KPAE 120953Z AUTO 01004KT 10SM BKN013 OVC033 11/08 A2989 RMK AO2 SLP119 T01110083=
202206120942 SPECI KPAE 120942Z AUTO 35005KT 10SM BKN013 OVC034 11/08 A2989 RMK AO2 T01110083=
202206120853 METAR KPAE 120853Z AUTO 00000KT 10SM FEW014 BKN039 OVC065 12/08 A2991 RMK AO2 SLP126 T01170083 57002=
202206120753 METAR KPAE 120753Z AUTO VRB04KT 10SM SCT033 OVC065 12/08 A2991 RMK AO2 SLP128 T01220078 401940117=
202206120653 METAR KPAE 120653Z AUTO 35004KT 10SM SCT035 BKN043 OVC065 12/08 A2991 RMK AO2 SLP127 T01220083=
202206120553 METAR KPAE 120553Z AUTO 33007KT 10SM BKN035 OVC045 12/08 A2991 RMK AO2 SLP128 T01220083 10194 20122 50003=
202206120453 METAR KPAE 120453Z AUTO 35007KT 10SM BKN037 13/09 A2991 RMK AO2 SLP129 T01280089=
202206120353 METAR KPAE 120353Z 35006KT 10SM BKN041 13/09 A2991 RMK AO2 SLP128 T01280094=
202206120253 METAR KPAE 120253Z 35009G16KT 10SM SCT080 14/09 A2990 RMK AO2 SLP125 T01440094 55004=
202206120153 METAR KPAE 120153Z 35009G17KT 10SM BKN085 16/10 A2990 RMK AO2 SLP124 T01560100=
202206120053 METAR KPAE 120053Z 36009KT 10SM CLR 17/11 A2990 RMK AO2 SLP125 T01670111=
202206112353 METAR KPAE 112353Z 28006KT 10SM BKN095 19/10 A2991 RMK AO2 SLP128 T01890100 10194 20133 56009=
202206112253 METAR KPAE 112253Z 24008KT 10SM FEW090 19/10 A2992 RMK AO2 SLP131 T01890100=
202206112153 METAR KPAE 112153Z 25009KT 10SM CLR 19/11 A2993 RMK AO2 SLP133 T01890106=
202206112053 METAR KPAE 112053Z 26006KT 10SM SCT047 BKN060 17/12 A2994 RMK AO2 SLP138 T01720117 58006=
202206112000 SPECI KPAE 112000Z 28004KT 10SM SCT026 BKN032 OVC041 16/11 A2995 RMK AO2 T01560111=
202206111953 METAR KPAE 111953Z VRB04KT 10SM BKN016 BKN024 OVC065 16/12 A2995 RMK AO2 SLP139 T01560117=
202206111853 METAR KPAE 111853Z 19004KT 10SM BKN016 BKN024 OVC065 16/12 A2996 RMK AO2 SLP144 T01560117=
202206111850 SPECI KPAE 111850Z 18004KT 10SM BKN016 BKN024 OVC065 16/12 A2996 RMK AO2=
202206111753 METAR KPAE 111753Z 05004KT 10SM OVC006 13/11 A2996 RMK AO2 SLP146 T01330111 10133 20122 51006=
202206111653 METAR KPAE 111653Z 35003KT 10SM OVC006 13/11 A2996 RMK AO2 SLP144 T01280106=
202206111626 SPECI KPAE 111626Z 02004KT 10SM OVC005 13/11 A2995 RMK AO2 T01280106=
202206111553 METAR KPAE 111553Z 01006KT 10SM BKN003 OVC014 13/11 A2995 RMK AO2 CIG 002V007 SLP142 T01280106=
202206111535 SPECI KPAE 111535Z 01005KT 10SM BKN007 BKN010 OVC014 13/11 A2995 RMK AO2 T01280106=
202206111528 SPECI KPAE 111528Z 01004KT 10SM FEW004 BKN010 OVC014 13/11 A2995 RMK AO2 T01280106=
202206111453 METAR KPAE 111453Z VRB03KT 10SM OVC007 13/11 A2994 RMK AO2 CIG 006V011 SLP140 T01330111 53006=
202206111353 METAR KPAE 111353Z 20004KT 10SM SCT010 OVC020 13/11 A2994 RMK AO2 SLP137 T01330106=
202206111338 SPECI KPAE 111338Z AUTO 21004KT 10SM SCT010 SCT015 OVC021 13/11 A2993 RMK AO2 T01330106=
202206111253 METAR KPAE 111253Z AUTO 21004KT 10SM OVC012 13/11 A2993 RMK AO2 SLP135 T01330111=
202206111220 SPECI KPAE 111220Z AUTO 20005KT 10SM OVC010 13/11 A2993 RMK AO2 T01330111=
202206111153 METAR KPAE 111153Z AUTO 21005KT 10SM OVC006 13/11 A2993 RMK AO2 CIG 005V010 SLP133 60000 T01330111 10139 20133 53001=
202206111053 METAR KPAE 111053Z AUTO 23006KT 10SM OVC007 13/11 A2992 RMK AO2 CIG 006V011 SLP132 T01330111=
202206111045 SPECI KPAE 111045Z AUTO 22004KT 10SM BKN007 OVC012 13/11 A2992 RMK AO2 CIG 007V010 T01330111=
202206110953 METAR KPAE 110953Z AUTO 20005KT 10SM BKN010 OVC026 13/12 A2993 RMK AO2 RAB12E27 SLP132 P0000 T01330117=
202206110923 SPECI KPAE 110923Z AUTO 20007KT 10SM -RA FEW008 OVC014 13/12 A2992 RMK AO2 RAB12 P0000 T01330117=
202206110853 METAR KPAE 110853Z AUTO 19009KT 10SM OVC016 13/12 A2992 RMK AO2 SLP132 T01330117 52000=
202206110830 SPECI KPAE 110830Z AUTO 20007KT 10SM FEW010 BKN015 OVC047 14/12 A2992 RMK AO2 T01390117=
202206110753 METAR KPAE 110753Z AUTO 20009KT 10SM OVC011 14/12 A2992 RMK AO2 CIG 009V014 SLP131 T01390117 402000139=
202206110653 METAR KPAE 110653Z AUTO 18009KT 10SM BKN012 OVC048 14/12 A2993 RMK AO2 SLP132 T01390117=
202206110601 SPECI KPAE 110601Z AUTO 16007KT 10SM BKN012 OVC017 14/12 A2992 RMK AO2 T01390117=
202206110553 METAR KPAE 110553Z AUTO 17007KT 10SM BKN009 OVC015 14/12 A2992 RMK AO2 CIG 007V013 SLP132 60000 T01390117 10178 20139 55004=
202206110532 SPECI KPAE 110532Z AUTO 17008KT 10SM BKN010 BKN019 OVC040 14/12 A2993 RMK AO2 T01390117=
202206110519 SPECI KPAE 110519Z AUTO 17004KT 10SM FEW008 OVC040 14/12 A2993 RMK AO2 T01390117=
202206110453 METAR KPAE 110453Z AUTO 18008KT 10SM OVC038 14/12 A2992 RMK AO2 SLP130 T01440117=
202206110353 METAR KPAE 110353Z 17008KT 10SM OVC060 14/12 A2991 RMK AO2 RAB24E52 SLP128 P0000 T01440122=
202206110313 SPECI KPAE 110313Z 18009KT 10SM FEW015 BKN037 OVC070 15/12 A2993 RMK AO2 T01500117=
202206110253 METAR KPAE 110253Z 19012KT 10SM SCT013 BKN026 OVC095 15/12 A2994 RMK AO2 RAB01E21 SLP136 P0000 60000 T01500122 50003=
202206110247 SPECI KPAE 110247Z 21011KT 10SM BKN013 BKN024 OVC095 16/13 A2994 RMK AO2 RAB01E21 P0000=
202206110153 METAR KPAE 110153Z 19013G21KT 10SM SCT070 OVC095 16/13 A2994 RMK AO2 RAE50 SLP138 P0000 T01560128=
202206110053 METAR KPAE 110053Z 20014G22KT 9SM -RA FEW019 BKN070 OVC085 16/13 A2994 RMK AO2 PK WND 19027/0019 RAB01 SLP139 P0000 T01610128=
202206102353 METAR KPAE 102353Z 18020G25KT 10SM FEW050 BKN080 OVC110 18/13 A2993 RMK AO2 SLP132 60000 T01780128 10200 20172 58009=
202206102253 METAR KPAE 102253Z 18017G23KT 10SM BKN070 18/12 A2994 RMK AO2 SLP136 T01830117=
202206102200 SPECI KPAE 102200Z 17013G20KT 10SM FEW025 FEW080 19/13 A2994 RMK AO2 T01890128=
202206102153 METAR KPAE 102153Z 17012KT 10SM BKN022 BKN065 19/13 A2994 RMK AO2 SLP139 T01890128=
202206102053 METAR KPAE 102053Z 18009KT 10SM BKN025 BKN032 OVC043 19/13 A2995 RMK AO2 RAB01E16 SLP142 P0000 60000 T01890128 53000=
202206101953 METAR KPAE 101953Z 19009KT 10SM BKN025 BKN032 OVC045 20/13 A2995 RMK AO2 SLP139 T02000128=
202206101939 SPECI KPAE 101939Z 16011KT 10SM SCT025 BKN031 OVC060 19/12 A2994 RMK AO2 T01940122=
202206101853 METAR KPAE 101853Z 21004KT 10SM BKN023 OVC030 18/13 A2995 RMK AO2 SLP141 T01780128=
202206101753 METAR KPAE 101753Z 18007KT 10SM BKN019 18/12 A2995 RMK AO2 SLP141 T01780122 10183 20139 58001=
202206101653 METAR KPAE 101653Z 15010KT 10SM OVC017 17/12 A2996 RMK AO2 SLP144 T01720122=
202206101625 SPECI KPAE 101625Z 15009KT 10SM BKN013 16/12 A2996 RMK AO2 T01610117=
202206101553 METAR KPAE 101553Z 15006KT 10SM BKN008 16/12 A2996 RMK AO2 SLP143 T01560117=
202206101503 SPECI KPAE 101503Z 17006KT 10SM BKN008 16/12 A2996 RMK AO2 T01560122=
202206101453 METAR KPAE 101453Z 16009KT 10SM BKN010 16/12 A2995 RMK AO2 SLP142 T01560117 51006=
202206101424 SPECI KPAE 101424Z 18007KT 10SM BKN007 14/12 A2995 RMK AO2 T01440122=
202206101353 METAR KPAE 101353Z 20006KT 10SM FEW008 14/12 A2994 RMK AO2 SLP139 T01390117=
202206101308 SPECI KPAE 101308Z AUTO 21009KT 10SM SCT027 14/12 A2994 RMK AO2 T01390117=
202206101253 METAR KPAE 101253Z AUTO 19011KT 10SM BKN027 14/12 A2993 RMK AO2 SLP136 T01390117=
202206101241 SPECI KPAE 101241Z AUTO 19012KT 10SM SCT010 OVC028 14/12 A2993 RMK AO2 T01390117=
202206101225 SPECI KPAE 101225Z AUTO 20011KT 10SM BKN010 OVC027 14/12 A2993 RMK AO2 CIG 007V013 T01440122=
202206101153 METAR KPAE 101153Z AUTO 18014G21KT 10SM OVC021 14/12 A2992 RMK AO2 SLP132 70041 T01440122 10156 20144 53022=
202206101115 SPECI KPAE 101115Z AUTO 17009KT 10SM BKN020 BKN028 BKN049 14/12 A2992 RMK AO2 T01440122=
202206101053 METAR KPAE 101053Z AUTO 17011KT 10SM FEW049 14/12 A2991 RMK AO2 PK WND 17026/1002 SLP127 T01440122=
202206100953 METAR KPAE 100953Z AUTO 18018G33KT 10SM CLR 15/12 A2986 RMK AO2 PK WND 18034/0901 SLP112 T01500122=
202206100853 METAR KPAE 100853Z AUTO 18023G39KT 10SM FEW009 15/13 A2986 RMK AO2 PK WND 18039/0846 SLP110 T01500128 51005=
202206100837 SPECI KPAE 100837Z AUTO 18026G33KT 10SM SCT008 15/13 A2986 RMK AO2 PK WND 17033/0837 T01500128=
202206100753 METAR KPAE 100753Z AUTO 17016G25KT 10SM BKN008 16/13 A2985 RMK AO2 PK WND 17028/0713 CIG 006V011 SLP107 T01560133 401560122=
202206100653 METAR KPAE 100653Z AUTO 17015G23KT 10SM OVC009 15/13 A2985 RMK AO2 PK WND 16027/0625 CIG 006V011 SLP109 T01500133=
202206100553 METAR KPAE 100553Z AUTO 16014KT 10SM BKN005 BKN011 14/13 A2984 RMK AO2 RAB0454E11 CIG 003V008 SLP105 P0000 60014 T01440128 10144 20128 53003=
202206100513 SPECI KPAE 100513Z AUTO 16014G20KT 10SM BKN007 OVC095 14/13 A2985 RMK AO2 RAB0454E11 CIG 004V011 P0000 T01440128=
202206100453 METAR KPAE 100453Z AUTO 16013G22KT 10SM SCT006 OVC095 14/13 A2984 RMK AO2 RAE51 SLP105 P0002 T01440128=
202206100415 SPECI KPAE 100415Z AUTO 16016G24KT 7SM -RA FEW006 BKN080 OVC095 14/12 A2982 RMK AO2 P0002 T01390122=
202206100353 METAR KPAE 100353Z AUTO 16017G25KT 9SM -RA SCT011 BKN090 OVC100 14/12 A2981 RMK AO2 PRESFR SLP095 P0002 T01390122=
202206100253 METAR KPAE 100253Z 17011KT 8SM -RA SCT011 BKN090 OVC100 14/12 A2983 RMK AO2 SLP101 P0002 60010 T01390117 55002=
202206100200 SPECI KPAE 100200Z 18010KT 2SM -RA BR BKN009 OVC049 14/12 A2983 RMK AO2 P0000 T01390122=
202206100153 METAR KPAE 100153Z 18009KT 10SM -RA FEW017 SCT050 OVC075 14/12 A2983 RMK AO2 SLP099 P0007 T01390122=
202206100101 SPECI KPAE 100101Z 19004KT 1 3/4SM R16R/6000VP6000FT RA BR BKN004 OVC031 13/12 A2983 RMK AO2 P0002 T01330122=
202206100059 SPECI KPAE 100059Z 21004KT 2SM R16R/6000VP6000FT RA BR BKN004 OVC031 13/12 A2983 RMK AO2 P0001 T01330117=
202206100053 METAR KPAE 100053Z 21007KT 3SM RA BR BKN005 BKN031 OVC036 13/12 A2983 RMK AO2 RAB2359 SLP101 P0001 T01330117=
202206092353 METAR KPAE 092353Z 16007KT 4SM BR BKN005 BKN024 OVC036 13/11 A2984 RMK AO2 RAE32 SLP104 P0001 60023 T01280111 10133 20122 58022=
202206092307 SPECI KPAE 092307Z 17009KT 4SM -RA BR BKN007 BKN015 OVC032 13/11 A2986 RMK AO2 P0001 T01280111=
202206092256 SPECI KPAE 092256Z 18011KT 2 1/2SM RA BR BKN006 BKN015 OVC030 13/11 A2987 RMK AO2 P0000 T01280111=
202206092253 METAR KPAE 092253Z 18009KT 3SM -RA BR SCT006 BKN015 OVC030 13/11 A2987 RMK AO2 SLP115 P0014 T01280111=
202206092248 SPECI KPAE 092248Z 18010KT 3SM -RA BR SCT006 BKN017 OVC032 13/11 A2988 RMK AO2 P0013=
202206092205 SPECI KPAE 092205Z 18009KT 2 1/2SM RA BR BKN002 BKN025 OVC032 13/11 A2990 RMK AO2 P0003 T01280106=
202206092153 METAR KPAE 092153Z 18008KT 3SM -RA BR BKN008 BKN032 13/11 A2989 RMK AO2 SLP122 P0002 T01280106=
202206092120 SPECI KPAE 092120Z 19011KT 5SM -RA BR BKN008 BKN032 13/11 A2991 RMK AO2 P0000 T01280106=
202206092053 METAR KPAE 092053Z 18010KT 6SM -RA BR SCT006 BKN032 OVC040 12/10 A2991 RMK AO2 SLP127 P0005 60006 T01220100 58015=
202206091953 METAR KPAE 091953Z 17008KT 6SM -RA BKN006 OVC042 13/11 A2992 RMK AO2 SLP132 P0001 T01330106=
202206091900 SPECI KPAE 091900Z VRB04KT 8SM -RA SCT041 OVC050 13/11 A2994 RMK AO2 P0000 T01280106=
202206091853 METAR KPAE 091853Z VRB05KT 10SM -RA BKN005 OVC055 13/11 A2994 RMK AO2 SLP137 P0000 T01330106=
202206091753 METAR KPAE 091753Z 23006KT 10SM -RA BKN005 OVC055 12/10 A2995 RMK AO2 SLP142 P0000 60004 T01220100 10139 20122 55007=
202206091744 SPECI KPAE 091744Z 23006KT 10SM -RA BKN005 OVC055 13/11 A2995 RMK AO2 P0000 T01280106=
202206091653 METAR KPAE 091653Z 18005KT 10SM -RA SCT006 BKN038 OVC055 12/09 A2994 RMK AO2 SLP138 P0000 T01220089=
202206091610 SPECI KPAE 091610Z 21004KT 10SM -RA SCT006 BKN038 OVC070 12/11 A2995 RMK AO2 P0000 T01220106=
202206091553 METAR KPAE 091553Z 15004KT 7SM -RA FEW038 BKN055 OVC090 12/10 A2995 RMK AO2 SLP142 P0002 T01220100=
202206091453 METAR KPAE 091453Z 12005KT 7SM -RA FEW060 OVC080 13/09 A2997 RMK AO2 SLP149 P0002 60002 T01280094 50002=
202206091353 METAR KPAE 091353Z VRB04KT 7SM -RA FEW048 BKN075 OVC095 13/11 A2998 RMK AO2 SLP151 P0000 T01280106=
202206091253 METAR KPAE 091253Z AUTO 11003KT 10SM -RA OVC065 14/09 A2997 RMK AO2 RAB04 SLP148 P0000 T01390094=
202206091153 METAR KPAE 091153Z AUTO 16006KT 10SM FEW055 FEW070 OVC095 14/08 A2997 RMK AO2 SLP146 T01390083 10139 20128 55003=
202206091053 METAR KPAE 091053Z AUTO 00000KT 10SM OVC100 14/08 A2996 RMK AO2 SLP143 T01390083=
202206090953 METAR KPAE 090953Z AUTO 04003KT 10SM OVC110 13/08 A2997 RMK AO2 SLP147 T01330083=
202206090853 METAR KPAE 090853Z AUTO 01004KT 10SM CLR 13/09 A2998 RMK AO2 SLP149 T01280089 58006=
202206090753 METAR KPAE 090753Z AUTO 36005KT 10SM CLR 13/09 A3000 RMK AO2 SLP156 T01280089 402060128=
202206090653 METAR KPAE 090653Z AUTO 34003KT 10SM CLR 13/08 A3000 RMK AO2 SLP157 T01280083=
202206090553 METAR KPAE 090553Z AUTO 35005KT 10SM CLR 13/08 A3000 RMK AO2 SLP156 T01330083 10200 20133 58002=
202206090453 METAR KPAE 090453Z AUTO 35003KT 10SM CLR 14/08 A3000 RMK AO2 SLP157 T01440083=
202206090353 METAR KPAE 090353Z AUTO 35004KT 10SM CLR 15/08 A3001 RMK AO2 SLP160 T01500083=
202206090253 METAR KPAE 090253Z 35005KT 10SM CLR 17/08 A3000 RMK AO2 SLP158 T01670083 56007=
202206090153 METAR KPAE 090153Z 35006KT 10SM CLR 18/08 A3000 RMK AO2 SLP158 T01830083=
202206090053 METAR KPAE 090053Z 32005KT 10SM CLR 19/07 A3001 RMK AO2 SLP159 T01940072=
202206082353 METAR KPAE 082353Z 25005KT 10SM CLR 19/06 A3002 RMK AO2 SLP165 T01940061 10206 20161 58004=
202206082253 METAR KPAE 082253Z AUTO 23009G17KT 10SM CLR 20/06 A3003 RMK AO2 SLP166 T02000056=
202206082153 METAR KPAE 082153Z 22011KT 10SM CLR 20/07 A3003 RMK AO2 SLP168 T02000067=
202206082053 METAR KPAE 082053Z 24010KT 10SM FEW041 19/09 A3004 RMK AO2 SLP170 T01890089 58001=
202206081953 METAR KPAE 081953Z 22012G19KT 10SM SCT037 18/08 A3004 RMK AO2 SLP172 T01830083=
202206081853 METAR KPAE 081853Z 19011G21KT 10SM FEW030 18/09 A3005 RMK AO2 SLP174 T01780094=
202206081826 SPECI KPAE 081826Z 18015KT 10SM BKN032 17/09 A3005 RMK AO2 T01720089=
202206081753 METAR KPAE 081753Z 18012KT 10SM BKN027 BKN034 16/09 A3004 RMK AO2 SLP171 T01610089 10167 20144 51007=
202206081653 METAR KPAE 081653Z 19013KT 10SM BKN042 17/09 A3003 RMK AO2 SLP168 T01670094=
202206081553 METAR KPAE 081553Z 19013G19KT 10SM FEW026 BKN043 OVC055 16/09 A3003 RMK AO2 SLP166 T01560089=
202206081453 METAR KPAE 081453Z 19010KT 10SM SCT050 15/08 A3002 RMK AO2 SLP163 T01500083 53012=
202206081353 METAR KPAE 081353Z 18009KT 10SM OVC055 14/07 A3000 RMK AO2 SLP156 T01440072=
202206081253 METAR KPAE 081253Z AUTO 18009KT 10SM BKN060 14/06 A2999 RMK AO2 SLP152 T01440061=
202206081153 METAR KPAE 081153Z AUTO 16009KT 10SM FEW036 FEW049 OVC060 14/08 A2998 RMK AO2 SLP150 60000 T01440078 10167 20144 53007=
202206081053 METAR KPAE 081053Z AUTO 16010G20KT 10SM FEW040 BKN055 OVC070 15/07 A2997 RMK AO2 SLP147 T01500072=
202206080953 METAR KPAE 080953Z AUTO 15012KT 10SM BKN043 OVC080 16/07 A2996 RMK AO2 SLP144 T01560067=
202206080853 METAR KPAE 080853Z AUTO 16006KT 10SM FEW055 OVC080 16/07 A2996 RMK AO2 SLP144 60000 T01560072 53007=
202206080753 METAR KPAE 080753Z AUTO 17008KT 10SM BKN060 BKN080 BKN100 16/08 A2995 RMK AO2 SLP140 T01610083 402170089=
202206080653 METAR KPAE 080653Z AUTO 22005KT 10SM BKN095 BKN120 17/11 A2995 RMK AO2 RAE0555B11E20 SLP139 P0000 T01670106=
202206080553 METAR KPAE 080553Z AUTO 00000KT 10SM -RA FEW070 BKN090 OVC110 16/11 A2994 RMK AO2 SLP137 P0000 60000 T01560111 10217 20156 53010=
202206080453 METAR KPAE 080453Z AUTO 21005KT 10SM -RA OVC080 18/11 A2994 RMK AO2 RAB22 SLP137 P0000 T01780106=
202206080353 METAR KPAE 080353Z AUTO 18007KT 10SM BKN100 OVC120 21/08 A2990 RMK AO2 RAE10 SLP125 P0000 T02060083=
202206080253 METAR KPAE 080253Z 17008KT 10SM -RA FEW060 OVC090 21/09 A2991 RMK AO2 RAB48 SLP126 P0000 60000 T02110089 55001=
202206080153 METAR KPAE 080153Z 17007KT 10SM FEW120 22/09 A2991 RMK AO2 SLP125 T02170089=
202206080053 METAR KPAE 080053Z 19006KT 10SM CLR 22/08 A2990 RMK AO2 SLP125 T02170078=
202206072353 METAR KPAE 072353Z 22003KT 10SM CLR 21/08 A2991 RMK AO2 SLP127 T02060083 10211 20161 55004=
202206072253 METAR KPAE 072253Z 00000KT 10SM CLR 21/09 A2991 RMK AO2 SLP126 T02060089=
202206072153 METAR KPAE 072153Z 27005KT 10SM CLR 19/11 A2991 RMK AO2 SLP128 T01940106=
202206072053 METAR KPAE 072053Z 28005KT 10SM CLR 19/09 A2992 RMK AO2 SLP132 T01890094 56023=
202206071953 METAR KPAE 071953Z 36004KT 10SM CLR 19/07 A2994 RMK AO2 SLP137 T01890072=
202206071853 METAR KPAE 071853Z 02005KT 10SM CLR 17/07 A2997 RMK AO2 SLP149 T01720067=
202206071753 METAR KPAE 071753Z 01005KT 10SM CLR 16/08 A2999 RMK AO2 SLP156 T01610078 10167 20089 58022=
202206071653 METAR KPAE 071653Z AUTO 03004KT 10SM CLR 16/08 A3002 RMK AO2 SLP166 T01560078=
202206071553 METAR KPAE 071553Z AUTO 09005KT 10SM CLR 13/08 A3004 RMK AO2 SLP172 T01330078=
202206071453 METAR KPAE 071453Z AUTO 04003KT 10SM CLR 13/08 A3006 RMK AO2 SLP179 T01280083 58011=
202206071353 METAR KPAE 071353Z AUTO 02004KT 10SM CLR 11/08 A3008 RMK AO2 SLP184 T01110078=
202206071253 METAR KPAE 071253Z AUTO 31003KT 10SM CLR 09/07 A3009 RMK AO2 SLP188 T00890067=
202206071153 METAR KPAE 071153Z AUTO 00000KT 10SM CLR 09/07 A3009 RMK AO2 SLP191 T00940067 10117 20094 56017=
202206071053 METAR KPAE 071053Z AUTO 02007KT 10SM CLR 11/07 A3011 RMK AO2 SLP195 T01060072=
202206070953 METAR KPAE 070953Z AUTO 02007KT 10SM CLR 11/08 A3013 RMK AO2 SLP201 T01060078=
202206070853 METAR KPAE 070853Z AUTO 35005KT 10SM CLR 11/08 A3014 RMK AO2 SLP208 T01060078 58004=
202206070753 METAR KPAE 070753Z AUTO VRB04KT 10SM CLR 11/08 A3016 RMK AO2 SLP212 T01060078 401780100=
202206070653 METAR KPAE 070653Z AUTO 35004KT 10SM CLR 11/07 A3015 RMK AO2 SLP211 T01110072=
202206070553 METAR KPAE 070553Z AUTO 35006KT 10SM CLR 12/07 A3016 RMK AO2 SLP212 T01170072 10178 20117 57004=
202206070453 METAR KPAE 070453Z AUTO 34006KT 10SM CLR 12/08 A3016 RMK AO2 SLP214 T01220078=
202206070353 METAR KPAE 070353Z AUTO 34004KT 10SM CLR 14/07 A3017 RMK AO2 SLP215 T01390067=
202206070253 METAR KPAE 070253Z 35005KT 10SM CLR 16/07 A3017 RMK AO2 SLP216 T01560067 56003=
202206070153 METAR KPAE 070153Z 34004KT 10SM BKN060 16/07 A3017 RMK AO2 SLP218 T01610067=
202206070053 METAR KPAE 070053Z 35009KT 10SM OVC060 17/06 A3017 RMK AO2 SLP217 T01720056=
202206062353 METAR KPAE 062353Z 34006KT 10SM SCT075 16/05 A3018 RMK AO2 SLP219 T01610050 10178 20139 50003=
202206062253 METAR KPAE 062253Z VRB04KT 10SM OVC070 16/06 A3018 RMK AO2 SLP220 T01610061=
202206062153 METAR KPAE 062153Z VRB04KT 10SM OVC065 17/07 A3018 RMK AO2 SLP219 T01670067=
202206062053 METAR KPAE 062053Z 31004KT 10SM OVC065 17/06 A3017 RMK AO2 SLP216 T01670056 51007=
202206061953 METAR KPAE 061953Z 29007KT 10SM BKN070 16/06 A3017 RMK AO2 SLP215 T01560056=
202206061853 METAR KPAE 061853Z 10SM FEW032 SCT041 SCT060 15/07 A3016 RMK AO2 SLP212 T01500072=
202206061753 METAR KPAE 061753Z 27006KT 10SM CLR 14/08 A3015 RMK AO2 SLP210 T01390078 10144 20100 51013=
202206061653 METAR KPAE 061653Z 00000KT 10SM CLR 13/06 A3014 RMK AO2 SLP207 T01330056=
202206061553 METAR KPAE 061553Z 15005KT 10SM FEW041 OVC049 12/07 A3012 RMK AO2 SLP202 T01170067=
202206061453 METAR KPAE 061453Z VRB03KT 10SM BKN036 OVC046 11/07 A3011 RMK AO2 SLP197 T01060067 51015=
202206061353 METAR KPAE 061353Z 16003KT 10SM OVC033 10/07 A3010 RMK AO2 SLP195 T01000072=
202206061253 METAR KPAE 061253Z AUTO 10004KT 10SM OVC030 10/06 A3008 RMK AO2 SLP188 T01000061=
202206061153 METAR KPAE 061153Z AUTO 09003KT 10SM OVC027 11/06 A3006 RMK AO2 SLP182 70007 T01060061 10106 20100 53009=
202206061053 METAR KPAE 061053Z AUTO 06004KT 10SM BKN025 OVC060 10/07 A3005 RMK AO2 SLP175 T01000067=
202206061048 SPECI KPAE 061048Z AUTO 05003KT 10SM BKN026 OVC060 10/07 A3005 RMK AO2=
202206061035 SPECI KPAE 061035Z AUTO 04003KT 10SM SCT027 SCT043 OVC060 10/07 A3005 RMK AO2 T01000067=
202206060953 METAR KPAE 060953Z AUTO 01004KT 10SM OVC028 10/07 A3004 RMK AO2 SLP173 T01000072=
202206060853 METAR KPAE 060853Z AUTO 33003KT 10SM OVC022 11/07 A3002 RMK AO2 SLP166 T01060067 53019=
202206060753 METAR KPAE 060753Z AUTO 00000KT 10SM BKN022 OVC030 11/07 A3000 RMK AO2 SLP159 T01060067 401890100=
202206060653 METAR KPAE 060653Z AUTO VRB03KT 10SM OVC026 10/07 A2998 RMK AO2 SLP152 T01000072=
202206060553 METAR KPAE 060553Z AUTO 01004KT 10SM SCT008 BKN024 OVC037 10/08 A2996 RMK AO2 SLP146 T01000078 10139 20100 53016=
202206060503 SPECI KPAE 060503Z AUTO 01006KT 10SM BKN008 OVC024 10/08 A2995 RMK AO2 T01000078=
202206060453 METAR KPAE 060453Z AUTO VRB03KT 10SM SCT009 OVC024 10/08 A2995 RMK AO2 SLP141 T01000078=
202206060420 SPECI KPAE 060420Z AUTO 34006KT 10SM SCT009 OVC026 10/07 A2993 RMK AO2 T01000072=
202206060353 METAR KPAE 060353Z AUTO 34004KT 10SM BKN010 OVC024 10/08 A2992 RMK AO2 CIG 007V013 SLP131 T01000078=
202206060253 METAR KPAE 060253Z VRB04KT 10SM SCT009 OVC026 11/08 A2989 RMK AO2 SLP121 T01060078 51016=
202206060250 SPECI KPAE 060250Z 33005KT 10SM FEW009 OVC026 11/08 A2989 RMK AO2=
202206060153 METAR KPAE 060153Z 33007G17KT 310V010 10SM FEW023 OVC029 11/07 A2987 RMK AO2 SLP113 T01110072=
202206060053 METAR KPAE 060053Z 33007KT 10SM FEW011 OVC026 13/09 A2984 RMK AO2 SLP104 T01280089=
202206052353 METAR KPAE 052353Z 35007G15KT 10SM BKN022 OVC027 14/09 A2981 RMK AO2 RAB28E46 SLP095 P0000 60000 T01390094 10189 20133 51023=
202206052321 SPECI KPAE 052321Z 33007KT 290V360 10SM OVC015 14/09 A2981 RMK AO2 LTG DSNT E T01390094=
202206052314 SPECI KPAE 052314Z 32007KT 10SM BKN013 OVC019 14/10 A2980 RMK AO2 LTG DSNT E T01390100=
202206052253 METAR KPAE 052253Z AUTO 34008KT 10SM FEW013 BKN019 BKN045 15/11 A2979 RMK AO2 RAE27 SLP088 P0000 T01500106=
202206052231 SPECI KPAE 052231Z 29008KT 10SM FEW019 SCT033 BKN047 16/11 A2979 RMK AO2 RAE27 P0000 T01560106=
202206052200 SPECI KPAE 052200Z 27010KT 10SM -RA SCT019 BKN024 OVC034 14/11 A2978 RMK AO2 P0000 T01440106=
202206052153 METAR KPAE 052153Z 27009G17KT 10SM -RA SCT027 BKN035 OVC080 14/11 A2977 RMK AO2 RAB43 SLP080 P0000 T01440106=
202206052053 METAR KPAE 052053Z 19013KT 10SM SCT027 BKN033 OVC075 18/12 A2974 RMK AO2 SLP071 T01830117 51012=
202206052049 SPECI KPAE 052049Z 18016KT 10SM SCT027 OVC035 18/11 A2974 RMK AO2=
202206052017 SPECI KPAE 052017Z 18017G24KT 10SM BKN025 OVC031 17/11 A2974 RMK AO2 T01720111=
202206052003 SPECI KPAE 052003Z 17016G24KT 10SM SCT025 BKN031 17/11 A2973 RMK AO2 T01720111=
202206051953 METAR KPAE 051953Z 18016G23KT 10SM FEW022 BKN029 BKN080 18/12 A2973 RMK AO2 PK WND 18028/1902 SLP067 T01780117=
202206051853 METAR KPAE 051853Z 17016G27KT 10SM SCT017 BKN085 BKN110 16/11 A2971 RMK AO2 PK WND 15030/1812 SLP058 T01610111=
202206051753 METAR KPAE 051753Z 18016G28KT 10SM BKN110 15/12 A2967 RMK AO2 PK WND 16030/1742 SLP047 60007 T01500117 10156 20139 53014=
202206051713 SPECI KPAE 051713Z 17017G25KT 10SM SCT009 BKN120 14/12 A2966 RMK AO2 T01440117=
202206051653 METAR KPAE 051653Z 17014G23KT 10SM BKN009 BKN110 14/12 A2965 RMK AO2 CIG 007V013 SLP040 T01440117=
202206051649 SPECI KPAE 051649Z 18016G22KT 10SM BKN009 BKN090 BKN110 14/12 A2966 RMK AO2=
202206051553 METAR KPAE 051553Z 17014KT 10SM FEW009 BKN041 OVC050 14/12 A2965 RMK AO2 RAB08E53 SLP037 P0003 T01440122=
202206051538 SPECI KPAE 051538Z 19012G22KT 3SM -RA BR SCT008 BKN027 OVC046 14/13 A2964 RMK AO2 RAB08 P0003 T01440128=
202206051507 SPECI KPAE 051507Z 19008KT 8SM BKN006 BKN019 OVC042 16/13 A2963 RMK AO2 T01560133=
202206051500 SPECI KPAE 051500Z 18010KT 10SM SCT009 BKN019 OVC042 15/13 A2963 RMK AO2 T01500133=
202206051453 METAR KPAE 051453Z 17008KT 10SM FEW011 BKN031 OVC070 15/13 A2963 RMK AO2 RAE14 SLP032 P0002 60004 T01500128 53006=
202206051419 SPECI KPAE 051419Z 15011KT 10SM FEW009 SCT012 OVC065 14/13 A2963 RMK AO2 RAE14 P0002 T01440128=
202206051412 SPECI KPAE 051412Z 17009G16KT 7SM -RA BKN010 BKN034 OVC060 14/13 A2963 RMK AO2 P0002 T01440128=
202206051353 METAR KPAE 051353Z 16006KT 2 1/2SM -RA BR SCT010 BKN014 OVC020 14/13 A2963 RMK AO2 RAB32 SLP030 P0002 T01440128=
202206051346 SPECI KPAE 051346Z 17004KT 2 1/2SM -RA BR SCT010 BKN014 OVC022 14/12 A2963 RMK AO2 RAB32 P0001 T01440122=
202206051319 SPECI KPAE 051319Z AUTO 12005KT 10SM OVC029 14/12 A2962 RMK AO2 T01440122=
202206051253 METAR KPAE 051253Z AUTO 11008KT 10SM OVC033 14/12 A2961 RMK AO2 RAE28 SLP024 P0000 T01390122=
202206051153 METAR KPAE 051153Z AUTO 11004KT 9SM -RA SCT033 BKN044 OVC065 14/13 A2961 RMK AO2 SLP026 P0004 60009 70010 T01440128 10150 20144 58005=
202206051053 METAR KPAE 051053Z AUTO VRB06KT 10SM -RA OVC075 15/13 A2963 RMK AO2 SLP031 P0002 T01500128=
202206051028 SPECI KPAE 051028Z AUTO 14005KT 9SM -RA FEW005 OVC065 15/13 A2963 RMK AO2 P0002 T01500133=
202206050953 METAR KPAE 050953Z AUTO 15006G16KT 9SM -RA OVC070 15/13 A2962 RMK AO2 RAB06 SLP030 P0001 T01500133=
202206050853 METAR KPAE 050853Z AUTO VRB05KT 10SM BKN041 OVC110 15/13 A2963 RMK AO2 RAB0755E39 SLP031 P0002 60002 T01500133 56013=
202206050753 METAR KPAE 050753Z AUTO 15006KT 10SM FEW031 BKN046 OVC070 15/13 A2964 RMK AO2 RAE0658B23E53 SLP035 P0000 T01500133 402000128=
202206050653 METAR KPAE 050653Z AUTO 11007KT 10SM -RA FEW005 BKN080 OVC110 15/13 A2965 RMK AO2 SLP037 P0000 T01500133=
202206050553 METAR KPAE 050553Z AUTO VRB05KT 9SM -RA FEW017 SCT049 OVC070 15/13 A2967 RMK AO2 SLP044 P0001 60001 T01500133 10172 20144 56008=
202206050453 METAR KPAE 050453Z AUTO VRB04KT 10SM -RA SCT060 OVC075 15/13 A2968 RMK AO2 SLP047 P0000 T01500133=
202206050353 METAR KPAE 050353Z 14004KT 10SM -RA SCT044 BKN055 OVC075 16/13 A2968 RMK AO2 SLP049 P0000 T01560128=
202206050300 SPECI KPAE 050300Z 20006KT 9SM -RA SCT040 BKN048 OVC070 16/13 A2969 RMK AO2 P0000 T01560128=
202206050253 METAR KPAE 050253Z 20007KT 10SM -RA BKN024 OVC070 16/13 A2969 RMK AO2 RAE10B48 SLP052 P0000 60000 T01610128 56009=
202206050153 METAR KPAE 050153Z 22005KT 10SM -RA SCT022 BKN027 OVC070 17/12 A2969 RMK AO2 RAB43 SLP053 P0000 T01670122=
202206050053 METAR KPAE 050053Z 19008KT 10SM OVC090 17/13 A2970 RMK AO2 RAE27 SLP056 P0000 T01720128=
202206042353 METAR KPAE 042353Z 22008KT 10SM -RA OVC080 16/13 A2972 RMK AO2 RAB2259 SLP063 P0000 60000 T01610128 10200 20161 55000=
202206042253 METAR KPAE 042253Z 22010KT 10SM BKN085 18/10 A2972 RMK AO2 SLP061 T01830100=
202206042153 METAR KPAE 042153Z 25011KT 10SM FEW080 19/09 A2971 RMK AO2 SLP060 T01940089=
202206042053 METAR KPAE 042053Z 24010KT 10SM FEW120 18/09 A2972 RMK AO2 SLP062 T01830089 58013=
202206041953 METAR KPAE 041953Z 24010KT 10SM CLR 18/10 A2973 RMK AO2 SLP067 T01830100=
202206041900 SPECI KPAE 041900Z 25010KT 10SM FEW034 18/10 A2975 RMK AO2 T01780100=
202206041853 METAR KPAE 041853Z 24007KT 200V280 10SM BKN028 BKN034 18/10 A2975 RMK AO2 SLP072 T01780100=
202206041753 METAR KPAE 041753Z 23006KT 10SM BKN028 BKN034 16/10 A2976 RMK AO2 SLP076 T01610100 10167 20128 58009=
202206041725 SPECI KPAE 041725Z 25007KT 10SM BKN027 16/10 A2977 RMK AO2 T01610100=
202206041653 METAR KPAE 041653Z 16006KT 10SM FEW033 16/09 A2977 RMK AO2 SLP080 T01610094=
202206041553 METAR KPAE 041553Z 16007KT 10SM FEW021 15/09 A2978 RMK AO2 SLP081 T01500094=
202206041453 METAR KPAE 041453Z 16007KT 10SM FEW070 SCT100 14/10 A2979 RMK AO2 SLP085 T01440100 58006=
202206041353 METAR KPAE 041353Z 15007KT 10SM BKN041 13/10 A2979 RMK AO2 SLP088 T01330100=
202206041253 METAR KPAE 041253Z AUTO 16007KT 10SM FEW039 OVC100 13/10 A2980 RMK AO2 SLP091 T01330100=
202206041153 METAR KPAE 041153Z AUTO 15007KT 10SM FEW040 BKN100 OVC120 13/11 A2981 RMK AO2 RAE15 SLP092 P0000 60000 70013 T01280106 10133 20128 58003=
202206041053 METAR KPAE 041053Z AUTO 15006KT 10SM -RA BKN095 OVC110 13/11 A2981 RMK AO2 RAB46 SLP094 P0000 T01330106=
202206040953 METAR KPAE 040953Z AUTO 15009KT 10SM FEW043 BKN080 OVC100 13/10 A2982 RMK AO2 SLP095 T01330100=
202206040853 METAR KPAE 040853Z AUTO 16008KT 10SM FEW060 BKN070 OVC090 13/10 A2982 RMK AO2 SLP096 T01330100 56005=
202206040812 SPECI KPAE 040812Z AUTO 16008KT 10SM FEW015 FEW026 OVC060 13/10 A2982 RMK AO2 T01330100=
202206040753 METAR KPAE 040753Z AUTO 15008KT 10SM SCT015 BKN026 OVC065 13/10 A2982 RMK AO2 SLP096 T01330100 401890128=
202206040744 SPECI KPAE 040744Z AUTO 15008KT 10SM SCT014 BKN026 OVC038 13/10 A2982 RMK AO2 T01280100=
202206040653 METAR KPAE 040653Z AUTO 15007KT 10SM SCT024 BKN070 OVC100 13/10 A2983 RMK AO2 SLP099 T01330100=
202206040644 SPECI KPAE 040644Z AUTO 15007KT 10SM FEW026 BKN032 OVC065 13/10 A2983 RMK AO2 T01330100=
202206040636 SPECI KPAE 040636Z AUTO 15008KT 10SM BKN026 BKN032 OVC040 13/10 A2983 RMK AO2 T01330100=
202206040553 METAR KPAE 040553Z AUTO 17005KT 10SM BKN036 OVC060 13/09 A2983 RMK AO2 SLP102 60000 T01330094 10189 20133 53009=
202206040453 METAR KPAE 040453Z AUTO 15008KT 10SM BKN060 OVC110 14/09 A2982 RMK AO2 SLP098 T01390094=
202206040353 METAR KPAE 040353Z 19009KT 10SM SCT050 OVC065 14/10 A2981 RMK AO2 RAB0259E52 SLP094 P0000 T01440100=
202206040253 METAR KPAE 040253Z 17011KT 10SM OVC050 16/10 A2980 RMK AO2 SLP091 T01610100 53002=
202206040153 METAR KPAE 040153Z 18006KT 10SM FEW035 SCT044 BKN065 18/09 A2979 RMK AO2 SLP087 T01780094=
202206040053 METAR KPAE 040053Z 19013G18KT 10SM FEW037 18/09 A2979 RMK AO2 SLP087 T01830089=
202206032353 METAR KPAE 032353Z 19011G19KT 10SM BKN034 BKN043 18/10 A2980 RMK AO2 SLP088 60003 T01830100 10189 20139 58001=
202206032253 METAR KPAE 032253Z AUTO 15013KT 10SM BKN075 OVC110 17/10 A2980 RMK AO2 SLP089 T01720100=
202206032153 METAR KPAE 032153Z 18014KT 10SM BKN060 BKN075 17/12 A2980 RMK AO2 RAE32 SLP089 P0002 T01670122=
202206032149 SPECI KPAE 032149Z 19013KT 10SM BKN060 BKN075 16/12 A2980 RMK AO2 RAE32 P0002=
202206032053 METAR KPAE 032053Z 19013G19KT 6SM RA BR BKN007 BKN042 OVC080 15/13 A2980 RMK AO2 SLP090 P0001 60001 T01500128 53009=
202206031953 METAR KPAE 031953Z 16010KT 10SM -RA SCT021 BKN033 OVC100 16/12 A2979 RMK AO2 RAB42 SLP085 P0000 T01610122=
202206031853 METAR KPAE 031853Z 15009G18KT 10SM FEW015 BKN095 BKN120 16/11 A2978 RMK AO2 SLP082 T01560111=
202206031839 SPECI KPAE 031839Z 15009G17KT 10SM FEW015 SCT033 BKN120 16/12 A2977 RMK AO2 T01610117=
202206031753 METAR KPAE 031753Z 15010KT 10SM FEW003 OVC026 14/12 A2977 RMK AO2 SLP080 60010 T01440117 10144 20128 51008=
202206031736 SPECI KPAE 031736Z 15010KT 10SM FEW003 OVC026 14/12 A2977 RMK AO2 T01440117=
202206031653 METAR KPAE 031653Z 17010KT 10SM SCT003 BKN009 14/12 A2977 RMK AO2 SLP078 T01390117=
202206031555 SPECI KPAE 031555Z 16010KT 10SM BKN009 OVC060 13/11 A2976 RMK AO2 T01330111=
202206031553 METAR KPAE 031553Z 15009KT 10SM SCT003 SCT007 OVC060 13/11 A2976 RMK AO2 RAE35 SLP076 P0000 T01330111=
202206031500 SPECI KPAE 031500Z 16008KT 10SM -RA SCT010 BKN038 OVC060 13/11 A2975 RMK AO2 P0000 T01330111=
202206031453 METAR KPAE 031453Z 16008KT 3SM -RA BR SCT006 BKN028 OVC065 13/12 A2975 RMK AO2 RAE19B42 TSE03 SLP072 P0006 60010 T01330117 53000=
202206031430 SPECI KPAE 031430Z 16009KT 3SM BR SCT006 BKN028 OVC065 14/12 A2975 RMK AO2 LTG DSNT NE RAE19 TSE03 P0003 T01390117=
202206031403 SPECI KPAE 031403Z 20007KT 3SM VCTS RA BR SCT006 BKN028 OVC065 13/12 A2975 RMK AO2 LTG DSNT N AND SE TSE03 P0003 T01330117=
202206031359 SPECI KPAE 031359Z 20007KT 3SM TSRA BR SCT010 BKN048 OVC065 13/11 A2975 RMK AO2 LTG DSNT N AND SE P0001 T01330111=
202206031353 METAR KPAE 031353Z 18006KT 2 1/2SM +TSRA BR SCT006 BKN014 OVC040 13/11 A2975 RMK AO2 LTG DSNT SE RAB42 TSB40 SLP074 P0004 T01330111=
202206031346 SPECI KPAE 031346Z AUTO 17009KT 7SM -TSRA SCT008 BKN014 OVC032 13/12 A2976 RMK AO2 LTG DSNT SE RAB42 TSB40 P0001 T01330117=
202206031328 SPECI KPAE 031328Z AUTO 20012KT 10SM VCTS SCT006 BKN010 OVC037 14/12 A2976 RMK AO2 LTG DSNT S AND SW T01440122=
202206031253 METAR KPAE 031253Z AUTO 17005KT 10SM FEW007 BKN036 OVC070 14/13 A2974 RMK AO2 LTG DSNT N RAE08B31E47 SLP069 P0000 T01440128=
202206031233 SPECI KPAE 031233Z AUTO 17005KT 10SM -RA SCT006 BKN036 OVC080 14/13 A2974 RMK AO2 RAE08B31 P0000 T01440128=
202206031153 METAR KPAE 031153Z AUTO 22005KT 7SM -RA BKN005 OVC037 14/12 A2975 RMK AO2 RAB21 SLP072 P0005 60005 70016 T01390122 10167 20139 56006=
202206031144 SPECI KPAE 031144Z AUTO 24005KT 3SM -RA BR BKN003 BKN037 OVC055 14/13 A2975 RMK AO2 RAB21 P0005 T01390128=
202206031053 METAR KPAE 031053Z AUTO 16006KT 10SM FEW005 BKN055 OVC110 15/13 A2975 RMK AO2 SLP072 T01500133=
202206031029 SPECI KPAE 031029Z AUTO 16006KT 10SM SCT005 OVC085 15/13 A2976 RMK AO2 T01500128=
202206030953 METAR KPAE 030953Z AUTO VRB04KT 10SM OVC085 16/13 A2976 RMK AO2 SLP075 T01560133=
202206030853 METAR KPAE 030853Z AUTO VRB03KT 10SM FEW060 OVC090 16/14 A2977 RMK AO2 SLP077 T01560139 56007=
202206030753 METAR KPAE 030753Z AUTO 11006KT 10SM OVC100 16/14 A2977 RMK AO2 SLP078 T01560139 402110122=
202206030653 METAR KPAE 030653Z AUTO 11005KT 10SM BKN100 BKN120 16/14 A2978 RMK AO2 SLP082 T01610139=
202206030553 METAR KPAE 030553Z AUTO 10004KT 10SM CLR 17/14 A2979 RMK AO2 SLP085 60011 T01670139 10194 20167 58003=
202206030453 METAR KPAE 030453Z AUTO 00000KT 10SM CLR 17/14 A2980 RMK AO2 SLP089 T01670139=
202206030353 METAR KPAE 030353Z 00000KT 10SM CLR 17/15 A2981 RMK AO2 RAE01 SLP092 P0000 T01720150=
202206030253 METAR KPAE 030253Z 09007KT 10SM -RA OVC095 17/15 A2980 RMK AO2 RAB21 SLP089 P0000 60011 T01720150 58013=
202206030153 METAR KPAE 030153Z 10011KT 10SM FEW060 FEW070 OVC085 18/14 A2982 RMK AO2 RAB17E45 SLP096 P0008 T01780144=
202206030053 METAR KPAE 030053Z 10008KT 10SM BKN060 OVC080 18/14 A2983 RMK AO2 LTG DSNT NE RAE21 SLP098 P0003 T01830139=
202206030039 SPECI KPAE 030039Z 07004KT 10SM FEW060 BKN080 OVC100 19/15 A2983 RMK AO2 RAE21 P0003 T01890150=
202206030011 SPECI KPAE 030011Z 11003KT 8SM VCTS -RA SCT060 OVC085 19/15 A2983 RMK AO2 P0003 T01890150=
202206022353 METAR KPAE 022353Z 00000KT 10SM -RA BKN065 BKN075 OVC095 19/13 A2984 RMK AO2 LTG DSNT E AND S RAE2259B42 SLP103 P0000 60000 T01890133 10211 20183 55004=
202206022253 METAR KPAE 022253Z VRB05KT 10SM -RA FEW028 SCT080 BKN095 21/14 A2981 RMK AO2 LTG DSNT NE AND E RAB2155E07B48 SLP095 P0000 T02060139=
202206022232 SPECI KPAE 022232Z 29004KT 10SM VCTS FEW043 BKN080 OVC100 19/13 A2983 RMK AO2 LTG DSNT NE AND E RAB2155E07 P0000 T01940133=
202206022153 METAR KPAE 022153Z 35007KT 10SM BKN085 BKN120 20/13 A2983 RMK AO2 LTG DSNT E AND SE SLP100 T02000133=
202206022053 METAR KPAE 022053Z 29006KT 10SM CLR 21/14 A2985 RMK AO2 SLP107 T02060144 58014=
202206021953 METAR KPAE 021953Z 30005KT 10SM CLR 20/12 A2986 RMK AO2 SLP111 T02000122=
202206021853 METAR KPAE 021853Z 27006KT 10SM FEW070 18/13 A2988 RMK AO2 SLP116 T01830128=
202206021753 METAR KPAE 021753Z 30005KT 10SM CLR 18/13 A2989 RMK AO2 SLP121 T01780133 10178 20128 58014=
202206021653 METAR KPAE 021653Z 00000KT 10SM FEW004 17/13 A2991 RMK AO2 SLP126 T01670128=
202206021556 SPECI KPAE 021556Z 00000KT 2SM BR BKN002 OVC004 14/12 A2993 RMK AO2 T01440122=
202206021553 METAR KPAE 021553Z 00000KT 1/2SM FG OVC002 14/13 A2993 RMK AO2 SLP133 T01440128 RVRNO=
202206021453 METAR KPAE 021453Z VRB03KT 1/2SM FG OVC002 13/12 A2993 RMK AO2 SLP136 T01330122 56006 RVRNO=
202206021353 METAR KPAE 021353Z 36003KT 1/2SM FG OVC002 13/12 A2994 RMK AO2 SLP137 T01280117 RVRNO=
202206021346 SPECI KPAE 021346Z 33003KT 1 3/4SM BR OVC002 13/12 A2994 RMK AO2 T01280117=
202206021331 SPECI KPAE 021331Z AUTO 33004KT 3SM BR OVC002 13/12 A2994 RMK AO2 T01280117=
202206021325 SPECI KPAE 021325Z AUTO 36003KT 1 1/2SM BR OVC002 13/12 A2994 RMK AO2 T01280117=
202206021309 SPECI KPAE 021309Z AUTO 00000KT 2 1/2SM BR OVC003 13/12 A2994 RMK AO2 T01280117=
202206021253 METAR KPAE 021253Z AUTO 35003KT 1 1/4SM BR OVC003 13/12 A2994 RMK AO2 VIS 3/4V3 SLP137 T01280117=
202206021246 SPECI KPAE 021246Z AUTO 36004KT 1 3/4SM BR OVC004 13/11 A2994 RMK AO2 T01280111=
202206021231 SPECI KPAE 021231Z AUTO 32003KT 6SM BR OVC004 13/12 A2994 RMK AO2 T01330117=
202206021206 SPECI KPAE 021206Z AUTO 01003KT 10SM OVC005 13/11 A2995 RMK AO2 T01330111=
202206021153 METAR KPAE 021153Z AUTO 00000KT 10SM OVC004 13/11 A2995 RMK AO2 SLP141 7//// T01330111 10139 20122 58005=
202206021142 SPECI KPAE 021142Z AUTO 00000KT 10SM OVC004 13/11 A2995 RMK AO2 T01330111=
202206021053 METAR KPAE 021053Z AUTO 36003KT 10SM OVC006 13/11 A2995 RMK AO2 SLP142 T01330111=
202206021032 SPECI KPAE 021032Z AUTO 00000KT 10SM BKN007 BKN070 OVC110 13/11 A2996 RMK AO2 T01330106=
202206021024 SPECI KPAE 021024Z AUTO 00000KT 10SM SCT007 SCT070 OVC110 13/11 A2996 RMK AO2 T01280106=
202206020953 METAR KPAE 020953Z AUTO 00000KT 10SM BKN110 13/11 A2996 RMK AO2 SLP145 T01280106=
202206020853 METAR KPAE 020853Z AUTO 34003KT 10SM OVC095 13/11 A2996 RMK AO2 SLP146 T01280111 58005=
202206020753 METAR KPAE 020753Z AUTO 34003KT 10SM OVC100 13/11 A2998 RMK AO2 SLP150 T01330106 402170117=
202206020653 METAR KPAE 020653Z AUTO 34003KT 10SM OVC085 14/11 A2998 RMK AO2 SLP152 T01390111=
202206020553 METAR KPAE 020553Z AUTO 35004KT 10SM OVC080 14/11 A2998 RMK AO2 RAB0459E20 SLP151 P0000 60000 T01390111 10183 20139 58007=
202206020453 METAR KPAE 020453Z AUTO 31004KT 10SM OVC070 14/11 A3000 RMK AO2 SLP157 T01440106=
202206020353 METAR KPAE 020353Z 36007KT 10SM OVC090 14/11 A2999 RMK AO2 SLP155 T01440106=
202206020253 METAR KPAE 020253Z 34006KT 10SM OVC080 15/11 A3000 RMK AO2 RAE08B37E51 SLP159 P0000 60000 T01500106 50000=
202206020153 METAR KPAE 020153Z 34005KT 10SM -RA OVC090 16/11 A3000 RMK AO2 SLP160 P0000 T01560111=
202206020053 METAR KPAE 020053Z 01005KT 10SM -RA OVC090 17/11 A3000 RMK AO2 RAB03E17B36 SLP160 P0000 T01720106=
202206012353 METAR KPAE 012353Z 36005KT 10SM SCT080 OVC090 19/11 A3000 RMK AO2 LTG DSNT E RAB28E38 SLP158 P0000 60000 T01890111 10217 20167 53003=
202206012253 METAR KPAE 012253Z 26005KT 10SM FEW075 OVC095 19/12 A2999 RMK AO2 LTG DSNT E SLP156 T01940122=
202206012153 METAR KPAE 012153Z 29005KT 10SM FEW110 20/11 A2999 RMK AO2 SLP153 T02000106=
202206012053 METAR KPAE 012053Z 30005KT 10SM CLR 21/11 A2999 RMK AO2 SLP155 T02060106 58011 $=
202206011953 METAR KPAE 011953Z 10SM CLR 19/11 A3001 RMK AO2 SLP160 T01890106 $=
202206011853 METAR KPAE 011853Z 10SM CLR 18/11 A3002 RMK AO2 SLP165 T01780111 $=
202206011753 METAR KPAE 011753Z 28005KT 10SM CLR 17/11 A3003 RMK AO2 SLP166 6//// T01670106 10167 20117 55004 $=
202206011653 METAR KPAE 011653Z 34003KT 10SM CLR 17/10 A3002 RMK AO2 SLP166 T01670100 $=
202206011553 METAR KPAE 011553Z 01003KT 10SM CLR 16/11 A3004 RMK AO2 SLP170 T01560106 $=
202206011453 METAR KPAE 011453Z 01004KT 10SM CLR 14/10 A3004 RMK AO2 SLP170 6//// T01390100 $=
202206011353 METAR KPAE 011353Z 36005KT 10SM CLR 12/09 A3004 RMK AO2 SLP171 T01220094 $=
202206011253 METAR KPAE 011253Z AUTO 00000KT 10SM CLR 12/09 A3004 RMK AO2 SLP170 T01170094 $=
202206010953 METAR KPAE 010953Z AUTO 36004KT 10SM CLR 12/09 A3005 RMK AO2 SLP177 T01170089=
202206010853 METAR KPAE 010853Z AUTO 34003KT 10SM CLR 12/09 A3006 RMK AO2 SLP180 T01220089 58005=
202206010753 METAR KPAE 010753Z AUTO 01003KT 10SM CLR 13/09 A3007 RMK AO2 SLP183 T01280089 401890089=
202206010653 METAR KPAE 010653Z AUTO 35005KT 10SM CLR 13/09 A3008 RMK AO2 SLP185 T01280089=
202206010553 METAR KPAE 010553Z AUTO 34004KT 10SM FEW095 13/09 A3008 RMK AO2 SLP186 T01330089 10183 20133 56001=
202206010453 METAR KPAE 010453Z AUTO 35008KT 10SM SCT095 14/09 A3008 RMK AO2 SLP187 T01390089=
202206010353 METAR KPAE 010353Z AUTO 34007KT 10SM CLR 15/09 A3008 RMK AO2 SLP186 T01500094=
202206010253 METAR KPAE 010253Z 35006KT 10SM CLR 16/09 A3008 RMK AO2 SLP187 T01610094 56012=
202206010153 METAR KPAE 010153Z 33009KT 10SM SCT110 17/09 A3009 RMK AO2 SLP189 T01720094=
202206010053 METAR KPAE 010053Z 34009G14KT 10SM CLR 18/10 A3010 RMK AO2 SLP193 T01830100=

# No short TAF reports from KPAE in databse.

###################################
#  large TAF from KPAE
###################################
202206302320 TAF KPAE 302320Z 0100/0124 02006KT P6SM FEW250 FM010400 35005KT
                       P6SM SKC FM011000 01003KT P6SM SCT250=
202206301730 TAF KPAE 301730Z 3018/0118 02006KT P6SM SCT200 FM010100 35005KT
                       P6SM FEW250 FM011000 01003KT P6SM SCT200=
202206301126 TAF KPAE 301126Z 3012/0112 35007KT P6SM SCT004 SCT030
                      TEMPO 3012/3016 3SM BR BKN002 FM301800 36006KT
                       P6SM SCT200 FM010500 02004KT P6SM SCT200=
202206300520 TAF KPAE 300520Z 3006/0106 36005KT P6SM BKN050 FM301200 35003KT
                       P6SM BKN035 FM301800 34006KT P6SM SCT200=
202206292321 TAF KPAE 292321Z 3000/3024 27006KT P6SM SCT040 OVC050 FM300400
                       36003KT P6SM BKN060 FM301200 35003KT P6SM
                       BKN050 FM301800 34004KT P6SM FEW250=
202206291726 TAF KPAE 291726Z 2918/3018 16008KT P6SM BKN030 OVC040 FM292200
                       24005KT P6SM SCT040 BKN060 FM300300 36003KT
                       P6SM BKN060 FM301200 35003KT P6SM BKN050=
202206291120 TAF KPAE 291120Z 2912/3012 20011KT P6SM VCSH BKN025 OVC050 FM291700
                       21008KT P6SM BKN030 OVC060 FM292200 24005KT
                       P6SM SCT040 BKN060 FM300300 36003KT P6SM
                       BKN060=
202206290854 KPAE 290854Z 2909/3006 20011KT P6SM VCSH BKN035 OVC050 FM291700
                       21008KT P6SM BKN040 OVC060 FM292200 24005KT
                       P6SM SCT040 BKN060 FM300300 36003KT P6SM
                       BKN045=
202206290521 TAF KPAE 290521Z 2906/3006 20010KT P6SM VCSH BKN015 OVC040 FM290800
                       18008KT P6SM VCSH BKN015 OVC030 FM291700
                       21008KT P6SM BKN020 OVC040 FM292200 24005KT
                       P6SM SCT020 BKN040 FM300300 36003KT P6SM
                       BKN045=
202206282320 TAF KPAE 282320Z 2900/2924 18015G25KT P6SM OVC050 FM290400 18012G20KT
                       P6SM -SHRA BKN020 OVC040 FM290800 18008KT
                       P6SM -SHRA BKN015 OVC030 FM291700 21008KT
                       P6SM BKN020 OVC040 FM292200 21008KT P6SM
                       SCT020 BKN040=
202206281720 TAF KPAE 281720Z 2818/2918 17015G25KT P6SM BKN035
                      TEMPO 2818/2821 SCT035 FM290400 21010KT P6SM
                       -SHRA OVC025 FM291200 18008KT P6SM OVC015
                       FM291700 21008KT P6SM BKN020 OVC040=
202206281558 KPAE 281558Z 2816/2912 19015G25KT P6SM BKN035 FM290300 18012KT
                       P6SM VCSH BKN024 OVC040 FM290700 18011KT
                       P6SM -SHRA OVC015=
202206281120 TAF KPAE 281120Z 2812/2912 18014G20KT P6SM SCT025 SCT050
                      TEMPO 2817/2821 BKN025 BKN050 FM282100 21013G20KT
                       P6SM BKN030 OVC050 FM290300 18012KT P6SM
                       VCSH BKN024 OVC040 FM290700 18011KT P6SM
                       -SHRA OVC015=
202206280530 TAF KPAE 280530Z 2806/2906 19009KT P6SM FEW060 SCT120 FM281200
                       18011KT P6SM SCT020 BKN050
                      TEMPO 2813/2817 BKN020 BKN050 FM281700 18012KT
                       P6SM BKN022 BKN050
                      TEMPO 2817/2821 SCT025 BKN050 FM282100 21013KT
                       P6SM BKN030 OVC050 FM290300 18012KT P6SM
                       VCSH BKN024 OVC040=
202206272320 TAF KPAE 272320Z 2800/2824 22012KT P6SM FEW060 SCT120 FM281200
                       18014KT P6SM SCT020 BKN050
                      TEMPO 2813/2817 BKN020 BKN050 FM281700 18012KT
                       P6SM BKN022 BKN050
                      TEMPO 2817/2821 SCT025 BKN050 FM282100 21008KT
                       P6SM VCSH BKN030 OVC050=
202206271720 TAF KPAE 271720Z 2718/2818 VRB04KT P6SM BKN250 FM280000 23008KT
                       P6SM BKN120 BKN200 FM281000 18012KT P6SM
                       SCT015 BKN050
                      TEMPO 2812/2816 BKN015 BKN050 FM281600 18010KT
                       P6SM BKN017 BKN040=
202206271136 TAF KPAE 271136Z 2712/2812 04004KT P6SM SKC FM271500 17004KT P6SM
                       SKC FM272100 22008KT P6SM SKC FM280200 22011KT
                       P6SM FEW120 SCT200 FM280900 18012G18KT P6SM
                       SCT020 BKN200=
202206270537 TAF KPAE 270537Z 2706/2806 36007KT P6SM SKC FM271500 17004KT P6SM
                       SKC FM272100 22008KT P6SM SKC FM280200 22011KT
                       P6SM FEW120 SCT200=
202206262326 TAF KPAE 262326Z 2700/2724 36007KT P6SM SKC FM271500 17004KT P6SM
                       SKC=
202206261730 TAF KPAE 261730Z 2618/2718 36007KT P6SM SKC FM271500 17004KT P6SM
                       SKC=
202206261120 TAF KPAE 261120Z 2612/2712 36007KT P6SM SKC=
202206260520 TAF KPAE 260520Z 2606/2706 35006KT P6SM SKC=
202206252328 TAF KPAE 252328Z 2600/2624 34007KT P6SM SKC FM260600 01005KT P6SM
                       SKC FM261700 36005KT P6SM SKC=
202206251739 TAF KPAE 251739Z 2518/2618 35008KT P6SM SKC FM260600 01005KT P6SM
                       SKC FM261700 36005KT P6SM SKC=
202206251120 TAF KPAE 251120Z 2512/2612 34004KT P6SM FEW250=
202206250520 TAF KPAE 250520Z 2506/2606 34004KT P6SM FEW250=
202206242320 TAF KPAE 242320Z 2500/2524 36010KT P6SM SKC FM250300 02003KT P6SM
                       SKC FM251200 02002KT P6SM SKC=
202206242054 KPAE 242054Z 2421/2518 36009KT P6SM SKC FM250300 02003KT P6SM SKC=
202206241720 TAF KPAE 241720Z 2418/2518 36007KT P6SM SKC FM250300 02003KT P6SM
                       SKC=
202206241120 TAF KPAE 241120Z 2412/2512 36007KT P6SM SKC=
202206240520 TAF KPAE 240520Z 2406/2506 01005KT P6SM SKC FM241900 35006KT P6SM
                       SKC=
202206232320 TAF KPAE 232320Z 2400/2424 35006KT P6SM SKC FM240300 36006KT P6SM
                       FEW070 FM241200 35005KT P6SM SKC=
202206231720 TAF KPAE 231720Z 2318/2418 33004KT P6SM FEW050 FM240000 35006KT
                       P6SM FEW070 FM240300 36006KT P6SM FEW070
                       FM241200 01003KT P6SM SKC=
202206231130 TAF KPAE 231130Z 2312/2412 33004KT P6SM FEW050 FM240300 36006KT
                       P6SM FEW070=
202206230533 TAF KPAE 230533Z 2306/2406 36009KT P6SM FEW025 BKN050 FM231200
                       02003KT P6SM OVC030 FM231800 34005KT P6SM
                       BKN040 FM232000 36006KT P6SM FEW050=
202206222328 TAF KPAE 222328Z 2300/2324 35006KT P6SM OVC035 FM230500 35004KT
                       P6SM OVC050 FM231200 09003KT P6SM BKN035=
202206221738 TAF KPAE 221738Z 2218/2318 35005KT 3SM BR BKN002 OVC015 FM222000
                       01004KT P6SM OVC020 FM230000 04006KT P6SM
                       BKN035 OVC050 FM230500 01004KT P6SM OVC050
                       FM231200 01005KT P6SM OVC015=
202206221619 KPAE 221619Z 2216/2312 VRB05KT 3SM BR BKN002 OVC015
                      TEMPO 2216/2218 3/4SM BR FM222000 30004KT
                       P6SM OVC020 FM230000 32006KT P6SM OVC050
                       FM230700 01005KT P6SM OVC015=
202206221256 KPAE 221256Z 2213/2312 36005G15KT P6SM SCT003 OVC015 FM222000 30004KT
                       P6SM OVC020 FM230000 32006KT P6SM OVC050
                       FM230700 01005KT P6SM OVC015=
202206221120 TAF KPAE 221120Z 2212/2312 36005KT P6SM BKN003 OVC020 FM222000
                       30004KT P6SM OVC020 FM230000 32006KT P6SM
                       OVC050 FM230700 01005KT P6SM OVC015=
202206220520 TAF KPAE 220520Z 2206/2306 36007KT P6SM BKN070 FM220900 VRB04KT
                       P6SM OVC009 FM222000 35007KT P6SM OVC025
                       FM230000 32006KT P6SM OVC050=
202206212320 TAF KPAE 212320Z 2200/2224 35006KT P6SM BKN080 FM220600 02008KT
                       P6SM BKN035 FM220900 VRB04KT P6SM -RA OVC010
                       FM222000 35007KT P6SM OVC025=
202206211725 TAF KPAE 211725Z 2118/2218 31006KT P6SM BKN070 FM220600 02008KT
                       P6SM BKN030 FM220900 VRB04KT P6SM -RA OVC010=
202206211148 TAF KPAE 211148Z 2112/2212 VRB04KT P6SM OVC002
                      TEMPO 2112/2116 SCT002 BKN050 FM211600 VRB04KT
                       P6SM BKN010 FM211800 21007KT P6SM BKN035
                       FM212000 30006KT P6SM SCT040 FM220100 34008KT
                       P6SM BKN030 FM220800 VRB04KT P6SM OVC010=
202206210552 TAF KPAE 210552Z 2106/2206 35004KT P6SM BKN050 FM210800 03005KT
                       P6SM OVC040 FM211200 VRB04KT P6SM BKN010
                       OVC030 FM211800 21007KT P6SM BKN035 FM212100
                       30006KT P6SM SCT040 FM220100 34008KT P6SM
                       OVC030=
202206202320 TAF KPAE 202320Z 2100/2124 32005KT P6SM BKN035 FM210300 35004KT
                       P6SM BKN050 FM211200 15005KT P6SM BKN010
                       OVC030 FM211800 28007KT P6SM BKN035=
202206201722 TAF KPAE 201722Z 2018/2118 29004KT P6SM OVC015 FM202100 30005KT
                       P6SM SCT030 OVC050 FM210300 35004KT P6SM
                       BKN050 FM211200 15005KT P6SM OVC015=
202206201121 TAF KPAE 201121Z 2012/2112 35006KT P6SM SCT007 OVC021 FM201300
                       VRB03KT P6SM OVC010
                      TEMPO 2013/2016 5SM BR OVC007 FM201800 29004KT
                       P6SM SCT015 OVC025 FM202100 28005KT P6SM
                       SCT025 OVC050 FM210300 35004KT P6SM OVC050=
202206200520 TAF KPAE 200520Z 2006/2106 33005KT P6SM OVC050 FM200900 VRB03KT
                       P6SM OVC025 FM201300 VRB03KT P6SM OVC010
                       TEMPO 2013/2016 5SM BR OVC007 FM201800 29004KT
                       P6SM SCT015 OVC025 FM202100 28005KT P6SM
                       SCT025 OVC050 FM210300 35004KT P6SM OVC050=
202206192320 TAF KPAE 192320Z 2000/2024 28005KT P6SM SCT050 OVC080 FM200200
                       33005KT P6SM OVC050 FM200900 VRB03KT P6SM
                       OVC025 FM201300 VRB03KT P6SM OVC010
                      TEMPO 2013/2016 5SM BR OVC007 FM201800 29004KT
                       P6SM SCT015 OVC025 FM202100 28005KT P6SM
                       SCT025 OVC050=
202206191720 TAF KPAE 191720Z 1918/2018 22004KT P6SM OVC010 FM192000 25005KT
                       P6SM SCT010 OVC025 FM200000 33005KT P6SM
                       OVC050 FM200900 VRB03KT P6SM OVC025 FM201300
                       VRB03KT P6SM OVC010
                      TEMPO 2013/2016 5SM BR OVC007=
202206191120 TAF KPAE 191120Z 1912/2012 VRB03KT P6SM BKN009 OVC018 FM191300
                       20004KT P6SM VCSH OVC010 FM191800 25005KT
                       P6SM SCT010 OVC025 FM200000 33005KT P6SM
                       OVC050 FM201000 36003KT P6SM OVC025=
202206190524 TAF KPAE 190524Z 1906/2006 36006KT P6SM BKN020 OVC050 FM191300
                       20004KT P6SM VCSH OVC010 FM191800 25005KT
                       P6SM SCT010 OVC025 FM200000 33005KT P6SM
                       OVC050=
202206182320 TAF KPAE 182320Z 1900/1924 21006KT P6SM SCT010 BKN035 FM190300
                       32004KT P6SM BKN035 FM190600 VRB03KT P6SM
                       OVC015 FM191300 20004KT P6SM VCSH OVC010
                       FM191800 25005KT P6SM SCT010 OVC025=
202206181720 TAF KPAE 181720Z 1818/1918 19006KT P6SM OVC010
                      TEMPO 1818/1822 2SM -RA BR OVC005 FM182200
                       21006KT P6SM VCSH SCT010 BKN035 FM190300
                       32004KT P6SM BKN035 FM190600 VRB03KT P6SM
                       OVC015 FM191300 20004KT P6SM VCSH OVC010=
202206181121 TAF KPAE 181121Z 1812/1912 19006KT P6SM OVC010 FM182200 21006KT
                       P6SM VCSH BKN035 FM190300 32003KT P6SM BKN035
                       FM190600 02004KT P6SM OVC015=
202206180524 TAF KPAE 180524Z 1806/1906 17006KT P6SM BKN007 OVC012 FM181000
                       17005KT P6SM OVC007 FM182200 21006KT P6SM
                       VCSH BKN035 FM190300 32003KT P6SM BKN035=
202206172324 TAF KPAE 172324Z 1800/1824 20006KT P6SM -RA OVC020 FM180600 16005KT
                       P6SM VCSH OVC015 FM181000 17005KT P6SM OVC015
                       FM182200 21006KT P6SM VCSH BKN035=
202206171744 TAF KPAE 171744Z 1718/1818 33005KT P6SM VCSH BKN005 OVC025 FM172000
                       24005KT P6SM -RA OVC020 FM180500 16005KT
                       P6SM VCSH BKN020 OVC030 FM181000 15005KT
                       P6SM OVC015=
202206171120 TAF KPAE 171120Z 1712/1812 33005KT P6SM BKN005 FM172000 24005KT
                       P6SM VCSH OVC020 FM180000 VRB03KT P6SM -RA
                       OVC020 FM180500 VRB03KT P6SM BKN020 OVC050
                       FM181000 15005KT P6SM OVC015=
202206170525 TAF KPAE 170525Z 1706/1806 35006KT P6SM BKN060 FM171200 32004KT
                       P6SM SCT015 OVC040 FM172000 24005KT P6SM
                       VCSH OVC020 FM180000 VRB03KT P6SM -RA OVC020
                       FM180500 VRB03KT P6SM BKN020 OVC050=
202206162320 TAF KPAE 162320Z 1700/1724 23006KT P6SM VCSH BKN050 OVC090 FM170600
                       35003KT P6SM SCT040 OVC090 FM171200 32004KT
                       P6SM SCT015 OVC040 FM172000 24005KT P6SM
                       OVC020=
202206161720 TAF KPAE 161720Z 1618/1718 VRB03KT P6SM VCSH OVC050 FM162000 23006KT
                       P6SM VCSH OVC030 FM170600 35003KT P6SM OVC100
                       FM171200 32004KT P6SM SCT015 OVC040=
202206161315 KPAE 161315Z 1613/1712 13003KT P6SM VCSH OVC035
                      TEMPO 1613/1615 2SM BR FM162000 23006KT P6SM
                       VCSH OVC025 FM170600 35003KT P6SM OVC100=
202206161139 TAF KPAE 161139Z 1612/1712 VRB03KT P6SM VCSH OVC050 FM161300 13003KT
                       P6SM VCSH OVC030 FM162000 23006KT P6SM VCSH
                       OVC025 FM170600 35003KT P6SM OVC100=
202206160533 TAF KPAE 160533Z 1606/1706 VRB05KT P6SM BKN080 OVC110 FM160800
                       36003KT P6SM OVC070 FM161300 13003KT P6SM
                       OVC030 FM162100 23006KT P6SM VCSH OVC025=
202206152337 TAF KPAE 152337Z 1600/1624 26005KT P6SM BKN070 FM160800 36001KT
                       P6SM VCSH OVC050 FM161300 13003KT P6SM OVC025=
202206151740 TAF KPAE 151740Z 1518/1618 28003KT P6SM OVC150 FM152300 26005KT
                       P6SM BKN070 FM160800 36001KT P6SM VCSH OVC050
                       FM161300 13003KT P6SM OVC025=
202206151135 TAF KPAE 151135Z 1512/1612 02005KT P6SM OVC050 FM151600 35003KT
                       P6SM OVC050 FM152100 30005KT P6SM BKN070
                       FM160800 36001KT P6SM VCSH OVC050=
202206150531 TAF KPAE 150531Z 1506/1606 01006KT P6SM BKN035 FM150800 02004KT
                       P6SM OVC030 FM151600 35003KT P6SM OVC050
                       FM152100 28005KT P6SM OVC070=
202206150301 KPAE 150301Z 1503/1524 02006KT P6SM BKN026 OVC040 FM150800 32003KT
                       P6SM OVC030 FM151600 02003KT P6SM OVC050=
202206142323 TAF KPAE 142323Z 1500/1524 31004KT P6SM BKN050 FM150300 01004KT
                       P6SM BKN080 FM150800 32003KT P6SM OVC030
                       FM151600 02003KT P6SM OVC050=
202206141731 TAF KPAE 141731Z 1418/1518 VRB03KT P6SM BKN030 FM141900 31004KT
                       P6SM BKN035 FM150300 35004KT P6SM BKN080
                       FM150800 32003KT P6SM OVC030 FM151600 02003KT
                       P6SM OVC050=
202206141132 TAF KPAE 141132Z 1412/1512 35004KT P6SM VCSH BKN014 OVC020 FM141500
                       VRB03KT P6SM VCSH OVC010 FM142100 28006KT
                       P6SM BKN050 FM150300 35004KT P6SM BKN100
                       FM150800 32003KT P6SM OVC030=
202206140537 TAF KPAE 140537Z 1406/1506 VRB03KT P6SM VCSH FEW017 OVC030 FM140900
                       21007KT P6SM OVC015 FM141500 VRB03KT P6SM
                       OVC007 FM142000 30006KT P6SM OVC020 FM142100
                       28006KT P6SM BKN050=
202206132327 TAF KPAE 132327Z 1400/1424 31010KT P6SM VCSH SCT030 BKN035 FM140500
                       VRB03KT P6SM -RA OVC030 FM140900 21007KT
                       P6SM OVC015 FM141500 VRB03KT P6SM OVC007
                       FM142000 28006KT P6SM OVC015 FM142100 28006KT
                       P6SM BKN050=
202206131736 TAF KPAE 131736Z 1318/1418 16006KT P6SM VCSH BKN006 BKN020 FM132100
                       31010KT P6SM VCSH OVC035 FM140900 21007KT
                       P6SM OVC015 FM141500 VRB03KT P6SM OVC007=
202206131219 KPAE 131219Z 1312/1412 17009KT P6SM VCSH BKN015 OVC060
                      TEMPO 1312/1316 OVC005 FM131600 20010KT P6SM
                       VCSH BKN015 OVC035 FM132100 31010KT 6SM
                       -SHRA BR OVC035 FM140700 21007KT P6SM OVC015=
202206131122 TAF KPAE 131122Z 1312/1412 17009KT P6SM VCSH BKN025 OVC060 FM131600
                       20010KT P6SM VCSH BKN015 OVC035 FM132100
                       31010KT 6SM -SHRA BR OVC035 FM140700 21007KT
                       P6SM OVC015=
202206130520 TAF KPAE 130520Z 1306/1406 28004KT 6SM -SHRA BR BKN025 OVC035 FM130900
                       19009KT P6SM VCSH BKN025 OVC035 FM131600
                       20010KT P6SM VCSH BKN015 OVC025 FM132100
                       31010KT 6SM -SHRA BR OVC035=
202206130348 KPAE 130348Z 1304/1324 VRB04KT 3SM -SHRA BR BKN008 OVC025
                      TEMPO 1304/1307 5SM -SHRA BR SCT008 OVC035
                       FM130900 19009KT P6SM VCSH BKN020 OVC035
                       FM131300 20010KT P6SM OVC020 FM132100 31010KT
                       P6SM BKN035=
202206122332 TAF KPAE 122332Z 1300/1324 33006KT P6SM BKN035 BKN060 FM130600
                       22008KT P6SM VCSH BKN030 FM130900 19009KT
                       P6SM VCSH BKN023 OVC035 FM131300 20010KT
                       P6SM OVC020 FM132100 31010KT P6SM BKN035=
202206121723 TAF KPAE 121723Z 1218/1318 32005KT P6SM SCT020 OVC035
                      TEMPO 1218/1220 BKN020 FM122000 28005KT P6SM
                       BKN035 BKN060 FM130900 19009KT P6SM BKN023
                       OVC035 FM131300 20010KT P6SM OVC020=
202206121120 TAF KPAE 121120Z 1212/1312 33005KT P6SM BKN020 OVC035 FM121500
                       32005KT P6SM BKN015 OVC035 FM122000 31005KT
                       P6SM BKN035 BKN060 FM130900 19005KT P6SM
                       BKN020 OVC030=
202206120520 TAF KPAE 120520Z 1206/1306 35008KT P6SM BKN035 FM120900 35005KT
                       P6SM OVC025 FM121100 33005KT P6SM OVC015
                       FM122000 31005KT P6SM BKN025 BKN060 FM130200
                       33006KT P6SM BKN035 OVC050=
202206120251 KPAE 120251Z 1203/1224 34014KT P6SM BKN090 FM120600 34008KT P6SM
                       BKN050 FM120800 VRB05KT P6SM OVC022 FM122000
                       31005KT P6SM BKN035 BKN060=
202206112322 TAF KPAE 112322Z 1200/1224 25007KT P6SM SCT040 BKN100 FM120400
                       33005KT P6SM BKN050 FM120800 VRB05KT P6SM
                       OVC022 FM122000 31005KT P6SM BKN035 BKN060=
202206111720 TAF KPAE 111720Z 1118/1218 VRB05KT P6SM VCSH SCT004 BKN014 OVC030
                       TEMPO 1118/1120 BKN004 FM112000 25006KT
                       P6SM BKN025 BKN040 FM112200 29007KT P6SM
                       VCSH SCT040 BKN100 OVC200 FM120800 35005KT
                       P6SM OVC015=
202206111619 KPAE 111619Z 1116/1212 VRB05KT P6SM VCSH SCT004 BKN014 OVC030
                      TEMPO 1116/1119 BKN004 FM111900 25006KT P6SM
                       BKN025 BKN040 FM112100 29007KT P6SM VCSH
                       SCT040 BKN100 OVC200 FM120800 35005KT P6SM
                       OVC015=
202206111343 KPAE 111343Z 1114/1212 21006KT P6SM VCSH BKN010 OVC020 FM111700
                       22006KT P6SM BKN020 FM112100 29007KT P6SM
                       VCSH SCT040 BKN100 OVC200 FM120800 35005KT
                       P6SM OVC015=
202206111134 TAF KPAE 111134Z 1112/1212 17007KT P6SM VCSH BKN007 OVC025 FM111700
                       22006KT P6SM BKN020 FM112100 29007KT P6SM
                       VCSH SCT040 BKN100 OVC200 FM120800 35005KT
                       P6SM OVC015=
202206110520 TAF KPAE 110520Z 1106/1206 17008KT P6SM VCSH BKN025 OVC040 FM110900
                       17007KT P6SM VCSH BKN015 FM111800 22006KT
                       P6SM BKN040 FM112100 29007KT P6SM SCT040
                       BKN100 OVC200=
202206102323 TAF KPAE 102323Z 1100/1124 20014G20KT P6SM SCT035 OVC060
                      TEMPO 1101/1103 -RA BKN027 OVC040 FM110300
                       17011KT P6SM -RA BKN025 OVC040 FM110700
                       17007KT P6SM VCSH BKN017 FM111800 22006KT
                       P6SM BKN024 BKN040 FM112100 26007KT P6SM
                       SCT040 BKN100 OVC200=
202206101721 TAF KPAE 101721Z 1018/1118 16010KT P6SM VCSH SCT015 BKN045
                      TEMPO 1018/1021 BKN015 FM102100 20010KT P6SM
                       OVC050 FM110200 17009KT P6SM -RA BKN025
                       OVC050 FM110700 17007KT P6SM VCSH BKN020=
202206101500 KPAE 101500Z 1015/1112 18010KT P6SM SCT012 OVC045
                      TEMPO 1015/1017 BKN010 FM101700 19011KT P6SM
                       VCSH BKN025 FM101900 21010KT P6SM OVC050
                       FM110300 17009KT P6SM -RA BKN025 OVC050=
202206101325 KPAE 101325Z 1013/1112 21010KT P6SM SCT025 OVC045 FM101700 19011KT
                       P6SM VCSH BKN025 FM101900 21010KT P6SM OVC050
                       FM110300 17009KT P6SM -RA BKN025 OVC050=
202206101139 TAF KPAE 101139Z 1012/1112 17010KT 6SM BR BKN020 OVC045 FM101700
                       19011KT P6SM VCSH BKN025 FM101900 21010KT
                       P6SM OVC050 FM110300 17009KT P6SM -RA BKN025
                       OVC050=
202206100539 TAF KPAE 100539Z 1006/1106 16012G20KT 6SM BR VCSH SCT007 OVC060
                       TEMPO 1006/1008 BKN008 FM101100 17010KT
                       5SM -SHRA BR BKN010 BKN024 FM101700 19011KT
                       P6SM VCSH BKN025 FM101900 21010KT P6SM OVC050
                       FM110300 17009KT P6SM -RA BKN025 OVC050=
202206092320 TAF KPAE 092320Z 1000/1024 17012KT 5SM RA BR SCT006 BKN011 OVC025
                       TEMPO 1000/1004 2SM RA BR BKN005 OVC011
                       FM101100 17010KT 5SM -SHRA BR BKN010 BKN024
                       FM101700 19011KT P6SM VCSH BKN025=
202206091757 KPAE 091757Z 0918/1018 19010KT 6SM -RA BR SCT011 BKN035 OVC050
                       TEMPO 0918/0922 5SM -RA BR BKN006 OVC025
                       FM092200 17012KT 5SM RA BR OVC011 FM101100
                       17010KT 5SM -SHRA BR BKN014 BKN024 FM101700
                       19011KT P6SM VCSH BKN025=
202206091730 TAF KPAE 091730Z 0918/1018 19010KT 6SM -RA BR SCT011 BKN035 OVC050
                       TEMPO 0919/0922 5SM -RA BR BKN011 OVC025
                       FM092200 17012KT 5SM RA BR OVC011 FM101100
                       17010KT 5SM -SHRA BR BKN014 BKN024 FM101700
                       19011KT P6SM VCSH BKN025=
202206091139 TAF KPAE 091139Z 0912/1012 VRB05KT P6SM BKN250 FM091400 16003KT
                       P6SM OVC060 FM091800 19010KT 6SM -RA BR
                       BKN030 OVC050 FM092100 17012G20KT 5SM -RA
                       BR OVC015=
202206090520 TAF KPAE 090520Z 0906/1006 VRB05KT P6SM BKN250 FM091000 16003KT
                       P6SM OVC060 FM091800 19010KT 6SM -RA BR
                       BKN030 OVC050 FM092100 17012G20KT 5SM -RA
                       BR OVC015=
202206082340 TAF KPAE 082340Z 0900/0924 23010KT P6SM BKN250 FM090300 VRB05KT
                       P6SM BKN250 FM091000 16003KT P6SM OVC060
                       FM091800 19010KT 6SM -RA BR BKN030 OVC050
                       FM092100 17012G20KT 5SM -RA BR OVC015=
202206081758 TAF KPAE 081758Z 0818/0918 19012KT P6SM BKN020 OVC060 FM082000
                       24008KT P6SM OVC100 FM082200 31006KT P6SM
                       OVC250 FM090600 VRB04KT P6SM BKN050 OVC100
                       FM091000 16003KT P6SM OVC060 FM091700 19006KT
                       P6SM -RA BKN030 OVC050=
202206081131 TAF KPAE 081131Z 0812/0912 16012KT P6SM OVC070 FM081500 15005KT
                       P6SM OVC050 FM082000 24008KT P6SM OVC100
                       FM082200 31006KT P6SM OVC250 FM091000 16004KT
                       P6SM OVC100=
202206080521 TAF KPAE 080521Z 0806/0906 20008KT P6SM -SHRA OVC100 FM081000 16004KT
                       P6SM OVC070 FM081500 15005KT P6SM OVC050
                       FM082000 24008KT P6SM OVC100=
202206072327 TAF KPAE 072327Z 0800/0824 VRB03KT P6SM BKN150 OVC200 FM080400
                       20008KT P6SM -SHRA OVC100 FM081000 16004KT
                       P6SM OVC070 FM081500 15005KT P6SM OVC050=
202206071725 TAF KPAE 071725Z 0718/0818 03003KT P6SM FEW250 FM071900 36006KT
                       P6SM SKC FM080200 20008KT P6SM OVC100 FM081000
                       16004KT P6SM OVC050=
202206071139 TAF KPAE 071139Z 0712/0812 02007KT P6SM FEW250 FM071600 01003KT
                       P6SM SCT150 FM071900 36006KT P6SM BKN100
                       FM080100 20008KT P6SM OVC100=
202206070533 TAF KPAE 070533Z 0706/0806 34003KT P6SM SCT120 FM070800 03002KT
                       P6SM FEW250 FM071600 01003KT P6SM BKN250=
202206062321 TAF KPAE 062321Z 0700/0724 33005KT P6SM OVC060 FM070300 34003KT
                       P6SM SCT120 FM070800 03002KT P6SM FEW250
                       FM071600 01003KT P6SM BKN250=
202206061745 TAF KPAE 061745Z 0618/0718 20004KT P6SM SCT030 BKN060 FM062000
                       24006KT P6SM SCT060 BKN100 FM070000 33005KT
                       P6SM SCT120 FM070800 03002KT P6SM FEW250=
202206061121 TAF KPAE 061121Z 0612/0712 06004KT P6SM BKN025 OVC060
                      TEMPO 0612/0616 SCT025 BKN060 FM061600 20004KT
                       P6SM SCT030 BKN060
                      TEMPO 0616/0619 BKN030 OVC060 FM062000 24006KT
                       P6SM SCT060 BKN100 FM070000 33005KT P6SM
                       SCT120=
202206060521 TAF KPAE 060521Z 0606/0706 34004KT P6SM VCSH FEW010 BKN025 OVC050
                       FM060900 17006KT P6SM OVC017 FM062000 24006KT
                       P6SM SCT025 BKN100 FM070000 33005KT P6SM
                       SCT100 BKN200=
202206052337 TAF KPAE 052337Z 0600/0624 34007KT P6SM VCSH SCT025 BKN035
                      TEMPO 0600/0604 -SHRA BKN020 OVC035 FM060400
                       VRB05KT P6SM VCSH BKN024 OVC035 FM060700
                       17006KT P6SM OVC022 FM061300 18007KT P6SM
                       OVC017 FM062000 24006KT P6SM SCT025 BKN100=
202206051732 TAF KPAE 051732Z 0518/0618 18014G22KT P6SM VCSH SCT017 BKN035
                      TEMPO 0518/0522 6SM -SHRA BR BKN015 OVC030
                       FM052200 22011KT P6SM VCSH SCT025 BKN035
                       FM060900 17006KT P6SM OVC020=
202206051133 TAF KPAE 051133Z 0512/0612 13006KT P6SM -RA SCT035 BKN050 OVC080
                       FM051500 17008KT 6SM -RA BR OVC015 FM051800
                       18010KT 6SM -SHRA BR BKN017 OVC025 FM060000
                       22006KT P6SM SCT025 BKN040 FM060900 17006KT
                       P6SM OVC020=
202206050527 TAF KPAE 050527Z 0506/0606 15004KT P6SM -RA OVC070 FM051200 18008KT
                       6SM -RA BR OVC012 FM051800 18010KT 6SM -SHRA
                       BR BKN017 OVC025 FM060000 22006KT P6SM SCT025
                       BKN040=
202206042323 TAF KPAE 042323Z 0500/0524 17008KT P6SM -RA BKN050 OVC100 FM050300
                       18012KT P6SM -RA OVC045 FM050500 18009KT
                       P6SM -RA BKN020 OVC040 FM051200 18008KT
                       6SM -RA BR OVC012 FM051800 18010KT 6SM -SHRA
                       BR BKN017 OVC025=
202206041723 TAF KPAE 041723Z 0418/0518 17008KT P6SM SCT050 OVC100 FM050100
                       18012KT P6SM -RA OVC045 FM050500 18009KT
                       P6SM -RA BKN020 OVC040 FM051200 18008KT
                       6SM -RA BR OVC012=
202206041121 TAF KPAE 041121Z 0412/0512 15006KT P6SM -RA BKN050 OVC100 FM041500
                       17008KT P6SM SCT050 OVC100 FM050100 18010KT
                       P6SM -RA OVC050 FM050700 18008KT P6SM -RA
                       BKN020 OVC040=
202206040520 TAF KPAE 040520Z 0406/0506 15008KT P6SM VCSH BKN060 BKN100 FM041200
                       17008KT P6SM SCT050 BKN100 FM050100 18010KT
                       P6SM -SHRA OVC050=
202206032330 TAF KPAE 032330Z 0400/0424 15013KT P6SM BKN080 OVC110 FM040600
                       18009KT P6SM VCSH SCT025 OVC050 FM041200
                       18005KT P6SM BKN050 FM041800 18005KT P6SM
                       SCT050 OVC100=
202206032111 KPAE 032111Z 0321/0418 19013G19KT P6SM -SHRA BKN007 BKN040 OVC080
                       FM032200 19012KT P6SM VCSH SCT015 BKN030
                       OVC080 FM040000 20010KT P6SM VCSH BKN030
                       OVC050 FM040900 18005KT P6SM VCSH OVC050=
202206032013 KPAE 032013Z 0320/0418 16010KT P6SM -SHRA SCT021 BKN035 OVC100
                       TEMPO 0320/0322 BKN020 FM040000 20010KT
                       P6SM VCSH BKN030 OVC050 FM040900 18005KT
                       P6SM VCSH OVC050=
202206031728 TAF KPAE 031728Z 0318/0418 17010KT P6SM -SHRA SCT003 BKN015 OVC030
                       TEMPO 0318/0321 BKN009 FM040000 20010KT
                       P6SM VCSH BKN030 OVC050 FM040900 18005KT
                       P6SM VCSH OVC050=
202206031324 KPAE 031324Z 0313/0412 VRB04KT 6SM -RA VCTS FEW007 BKN035CB OVC070
                       FM031400 17007KT 6SM -SHRA BR BKN015 OVC035
                       FM032000 19012KT P6SM VCSH OVC050 FM040000
                       20009KT P6SM OVC050=
202206031213 KPAE 031213Z 0312/0412 VRB04KT 6SM -RA BKN005 OVC035 FM031400 17007KT
                       6SM -SHRA BR BKN015 OVC035 FM032000 19012KT
                       P6SM VCSH OVC050 FM040000 20009KT P6SM OVC050=
202206031120 TAF KPAE 031120Z 0312/0412 VRB04KT P6SM FEW005 BKN050 FM031400
                       17007KT 4SM -SHRA BR BKN015 OVC035 FM032000
                       19012KT P6SM VCSH OVC050 FM040000 20009KT
                       P6SM OVC050=
202206030520 TAF KPAE 030520Z 0306/0406 00000KT P6SM OVC100 FM031000 21004KT
                       P6SM OVC060 FM031400 17007KT 4SM -SHRA BR
                       BKN015 OVC035 FM032000 19012KT P6SM VCSH
                       OVC050 FM040000 20009KT P6SM -SHRA OVC050=
202206022340 TAF KPAE 022340Z 0300/0324 VRB05KT P6SM -RA VCTS FEW025 SCT080
                       OVC090CB FM030100 29006KT P6SM VCSH OVC100
                       FM031000 21004KT P6SM OVC060 FM031400 17007KT
                       4SM -SHRA BR BKN015 OVC035 FM032000 19012KT
                       P6SM VCSH OVC050=
202206022229 KPAE 022229Z 0222/0318 28005KT P6SM VCTS BKN080 OVC100CB FM030100
                       29006KT P6SM OVC100 FM031000 21004KT P6SM
                       OVC060 FM031400 17009KT 4SM BR VCSH BKN015
                       OVC035=
202206021720 TAF KPAE 021720Z 0218/0318 33004KT P6SM FEW004 SCT100 BKN200 FM021900
                       31005KT P6SM OVC070 FM022100 28005KT P6SM
                       OVC100 FM031000 21004KT P6SM OVC060 FM031400
                       17009KT 4SM BR VCSH BKN015 OVC035=
202206021504 KPAE 021504Z 0215/0312 01002KT 1/2SM FG OVC002 FM021800 33004KT
                       3SM BR OVC010 FM021900 26004KT P6SM OVC030
                       FM022100 26005KT P6SM OVC100=
202206021120 TAF KPAE 021120Z 0212/0312 36003KT P6SM OVC006
                      TEMPO 0212/0214 OVC005 FM021500 01002KT P6SM
                       OVC030 FM022100 26005KT P6SM OVC100=
202206021038 KPAE 021038Z 0211/0306 00000KT P6SM BKN007 BKN070 OVC110
                      TEMPO 0211/0213 BKN007 FM021500 01002KT P6SM
                       OVC030 FM022100 26005KT P6SM OVC100=
202206020520 TAF KPAE 020520Z 0206/0306 01004KT P6SM OVC070 FM021500 01002KT
                       P6SM OVC100 FM022100 26005KT P6SM OVC100=
202206012339 TAF KPAE 012339Z 0200/0224 26005KT P6SM SCT070 OVC100 FM020500
                       01004KT P6SM OVC080 FM021500 01002KT P6SM
                       OVC100=
202206011733 TAF KPAE 011733Z 0118/0218 34004KT P6SM BKN150 OVC250 FM020500
                       02003KT P6SM OVC100=
202206011120 TAF KPAE 011120Z 0112/0212 36002KT P6SM SKC FM011500 34004KT P6SM
                       BKN250 FM012000 29005KT P6SM OVC100 FM020500
                       02003KT P6SM OVC100=
202206010520 TAF KPAE 010520Z 0106/0206 35008KT P6SM SCT100 FM011000 36002KT
                       P6SM BKN250 FM011700 01003KT P6SM OVC100=