##########################################################
# Query made at 02/15/2025 22:38:13 UTC
# Time interval: from 01/01/2022 00:00  to 01/31/2022 23:59  UTC
##########################################################

##########################################################
# KPAE, Everett, Snohomish County Airport (United States)
# WMO index: -----. WIGOS ID: Unknown
# Latitude 47-55-23N. Longitude 122-16-57W. Altitude 184 m.
##########################################################

###################################
#  METAR/SPECI from KPAE
###################################
202201312353 METAR KPAE 312353Z 28005KT 10SM FEW025 06/02 A3027 RMK AO2 SLP255 60000 T00610022 10067 20028 53004=
202201312306 SPECI KPAE 312306Z 27004KT 10SM FEW025 SCT030 06/02 A3026 RMK AO2 T00560017=
202201312253 METAR KPAE 312253Z 31007KT 10SM BKN027 BKN033 06/02 A3026 RMK AO2 SLP251 T00610022=
202201312153 METAR KPAE 312153Z 00000KT 10SM FEW022 BKN027 06/02 A3026 RMK AO2 SLP250 T00610017=
202201312149 SPECI KPAE 312149Z 00000KT 10SM BKN024 BKN031 06/02 A3026 RMK AO2=
202201312100 SPECI KPAE 312100Z 21005KT 10SM SCT016 06/02 A3025 RMK AO2 T00560022=
202201312053 METAR KPAE 312053Z 20006KT 10SM BKN016 BKN060 05/03 A3025 RMK AO2 SLP249 60000 T00500028 51010=
202201312010 SPECI KPAE 312010Z 16005KT 10SM FEW010 BKN016 BKN022 06/03 A3025 RMK AO2 T00560028=
202201311953 METAR KPAE 311953Z 17006KT 10SM SCT004 OVC060 04/03 A3025 RMK AO2 RAB05E37 SLP248 P0000 T00440028=
202201311853 METAR KPAE 311853Z 16005KT 10SM SCT004 OVC060 04/02 A3024 RMK AO2 RAE05 SLP245 P0000 T00390022=
202201311753 METAR KPAE 311753Z 17010KT 7SM -RA BKN033 BKN043 OVC060 03/02 A3022 RMK AO2 UPB22E23 SLP238 P0000 60000 T00280017 10028 20017 50010=
202201311748 SPECI KPAE 311748Z 18009KT 9SM -RA BKN031 BKN043 OVC055 03/02 A3022 RMK AO2 UPB22E23 P0000=
202201311734 SPECI KPAE 311734Z 18008KT 5SM -RA BR OVC029 03/02 A3022 RMK AO2 UPB22E23 P0000 T00280022=
202201311653 METAR KPAE 311653Z 19007KT 9SM -RA FEW029 SCT035 OVC050 03/02 A3020 RMK AO2 RAB07 SLP233 P0000 T00280017=
202201311553 METAR KPAE 311553Z 15005KT 10SM FEW029 SCT049 OVC065 03/02 A3019 RMK AO2 SLP228 T00280017=
202201311453 METAR KPAE 311453Z AUTO 16007KT 10SM BKN023 BKN031 OVC080 03/01 A3018 RMK AO2 RAB13E32UPB27E31 SLP224 P0000 60000 T00280011 51016=
202201311353 METAR KPAE 311353Z AUTO 16006KT 10SM BKN027 OVC095 03/ A3017 RMK AO2 SLP221 T0028 $=
202201311338 SPECI KPAE 311338Z AUTO 17007KT 10SM BKN029 BKN090 02/ A3017 RMK AO2 T0022 $=
202201311253 METAR KPAE 311253Z AUTO 17009KT 10SM BKN033 BKN065 OVC085 02/ A3016 RMK AO2 SLP216 T0022 $=
202201311153 METAR KPAE 311153Z AUTO 14006KT 10SM BKN040 BKN050 02/ A3013 RMK AO2 SLP207 60010 70043 T0022 10028 20011 51026 $=
202201311053 METAR KPAE 311053Z AUTO 18009KT 10SM OVC048 02/ A3012 RMK AO2 SLP202 T0022 $=
202201310953 METAR KPAE 310953Z AUTO 15006KT 10SM SCT027 OVC060 02/ A3008 RMK AO2 SLP191 T0022 $=
202201310942 SPECI KPAE 310942Z AUTO 15007KT 10SM BKN027 BKN060 BKN085 02/ A3008 RMK AO2 T0022 $=
202201310853 METAR KPAE 310853Z AUTO 14004KT 10SM FEW080 02/ A3005 RMK AO2 SLP180 60010 T0022 53015 $=
202201310839 SPECI KPAE 310839Z AUTO VRB04KT 10SM SCT029 BKN080 02/ A3004 RMK AO2 T0022 $=
202201310809 SPECI KPAE 310809Z AUTO VRB03KT 10SM BKN029 OVC035 02/ A3004 RMK AO2 T0017 $=
202201310753 METAR KPAE 310753Z AUTO 11008KT 10SM SCT028 OVC034 02/ A3003 RMK AO2 RAB0658E13UPB11E12SNE0658 SLP173 P0001 T0017 400830011 $=
202201310749 SPECI KPAE 310749Z AUTO 11007KT 10SM FEW026 BKN030 OVC034 02/ A3003 RMK AO2 RAB0658E13UPB11E12SNE0658 P0001 $=
202201310702 SPECI KPAE 310702Z AUTO VRB05KT 6SM -RA SCT007 BKN018 OVC031 02/ A3001 RMK AO2 RAB0658SNE0658 P0001 T0017 $=
202201310653 METAR KPAE 310653Z AUTO 12006KT 3SM -SN SCT005 BKN010 OVC017 01/ A3001 RMK AO2 RAE39SNB39 SLP166 P0009 T0011 $=
202201310636 SPECI KPAE 310636Z AUTO VRB05KT 2 1/2SM RA BKN006 OVC014 02/ A3000 RMK AO2 P0006 T0017 $=
202201310628 SPECI KPAE 310628Z AUTO 10005KT 2 1/2SM RA SCT006 BKN014 OVC020 02/ A2999 RMK AO2 P0005 T0022 $=
202201310621 SPECI KPAE 310621Z AUTO VRB03KT 2 1/2SM RA BKN014 OVC020 03/ A2999 RMK AO2 P0003 T0028 $=
202201310553 METAR KPAE 310553Z AUTO 10009KT 3SM -RA OVC016 03/ A2997 RMK AO2 SLP154 P0005 60027 T0028 10083 20028 51019 $=
202201310549 SPECI KPAE 310549Z AUTO 10010KT 3SM -RA OVC016 03/ A2997 RMK AO2 P0005 $=
202201310513 SPECI KPAE 310513Z AUTO 01008KT 3SM RA BKN014 OVC020 04/ A2996 RMK AO2 P0001 T0039 $=
202201310500 SPECI KPAE 310500Z AUTO 08004KT 4SM -RA OVC017 04/ A2995 RMK AO2 P0000 T0044 $=
202201310453 METAR KPAE 310453Z 06007KT 5SM -RA BKN007 BKN010 OVC017 04/ A2994 RMK AO2 SLP143 P0003 T0044 $=
202201310426 SPECI KPAE 310426Z 01005KT 3SM -RA BKN007 BKN010 OVC017 04/ A2993 RMK AO2 P0003 T0044 $=
202201310418 SPECI KPAE 310418Z 02005KT 2 1/2SM RA BKN007 BKN010 OVC017 04/ A2993 RMK AO2 P0003 T0039 $=
202201310353 METAR KPAE 310353Z 36007KT 1 1/2SM -RA BKN008 BKN017 OVC029 04/ A2992 RMK AO2 SLP134 P0004 T0044 $=
202201310300 SPECI KPAE 310300Z 02006KT 1 1/4SM -RA BKN005 OVC024 05/ A2988 RMK AO2 P0000 T0050 $=
202201310253 METAR KPAE 310253Z 36006KT 3SM RA BKN005 OVC016 05/ A2988 RMK AO2 SLP122 P0004 60015 T0050 53027 $=
202201310153 METAR KPAE 310153Z 33005KT 3SM RA BR SCT002 OVC008 05/05 A2985 RMK AO2 SLP112 P0010 T00500050=
202201310138 SPECI KPAE 310138Z 33005KT 4SM -RA BR SCT002 OVC008 05/04 A2984 RMK AO2 P0009 T00500044=
202201310126 SPECI KPAE 310126Z 32010G17KT 2SM +RA BR SCT002 OVC008 06/06 A2984 RMK AO2 PRESRR P0008 T00610056=
202201310108 SPECI KPAE 310108Z 22010G24KT 3SM RA BR SCT002 OVC008 08/07 A2982 RMK AO2 P0002 T00780072=
202201310053 METAR KPAE 310053Z 20015G21KT 5SM -RA BR BKN010 OVC014 08/07 A2982 RMK AO2 PK WND 21027/0035 CIG 007V013 SLP099 P0001 T00780067=
202201302353 METAR KPAE 302353Z 17016G23KT 5SM -RA BR FEW032 BKN039 OVC046 08/07 A2980 RMK AO2 PK WND 17027/2338 RAB14 SLP093 P0001 60006 T00830067 10083 20061 56037=
202201302253 METAR KPAE 302253Z 16009KT 10SM OVC030 08/06 A2982 RMK AO2 RAE41 SLP101 P0001 T00780061=
202201302229 SPECI KPAE 302229Z 16011KT 2SM -RA BR OVC030 08/06 A2984 RMK AO2 P0001 T00780061=
202201302153 METAR KPAE 302153Z 17007KT 2SM RA BR OVC028 07/06 A2987 RMK AO2 RAB23 SLP118 P0003 T00720056=
202201302053 METAR KPAE 302053Z 15012KT 10SM OVC023 07/06 A2991 RMK AO2 PRESFR SLP131 60001 T00720056 58043=
202201302004 SPECI KPAE 302004Z 15010G18KT 3SM BR OVC019 07/05 A2996 RMK AO2 T00670050=
202201301953 METAR KPAE 301953Z 15010G18KT 1 1/2SM BR BKN019 OVC024 06/06 A2997 RMK AO2 RAE19B28E33 SLP152 P0000 T00610056=
202201301927 SPECI KPAE 301927Z 15016G23KT 1 1/2SM BR BKN020 OVC031 06/06 A2999 RMK AO2 RAE19 P0000 T00610056=
202201301853 METAR KPAE 301853Z 16013KT 1 1/4SM -RA BR FEW022 BKN033 OVC043 06/05 A3002 RMK AO2 RAB06 SLP168 P0001 T00610050=
202201301839 SPECI KPAE 301839Z 16013KT 2SM -RA BR FEW024 OVC034 06/06 A3003 RMK AO2 RAB06 P0001 T00610056=
202201301809 SPECI KPAE 301809Z 18013KT 2SM R16R/6000VP6000FT -RA BR SCT018 BKN029 OVC034 06/04 A3004 RMK AO2 RAB06 P0000 T00610044=
202201301753 METAR KPAE 301753Z 18016G22KT 7SM BKN033 BKN045 OVC060 06/04 A3004 RMK AO2 PK WND 19026/1722 RAB00E09 SLP175 P0000 60000 T00610039 10072 20061 56009=
202201301653 METAR KPAE 301653Z 17015KT 10SM SCT036 BKN045 OVC060 07/01 A3005 RMK AO2 SLP179 T00670011=
202201301553 METAR KPAE 301553Z 17015G23KT 10SM FEW060 SCT100 07/00 A3005 RMK AO2 SLP179 T00670000=
202201301453 METAR KPAE 301453Z 15013KT 10SM FEW100 06/00 A3007 RMK AO2 PK WND 15026/1421 SLP184 T00610000 56022=
202201301353 METAR KPAE 301353Z AUTO 15013KT 10SM BKN100 07/00 A3008 RMK AO2 SLP189 T00670000=
202201301253 METAR KPAE 301253Z AUTO 15012G19KT 10SM BKN110 07/01 A3009 RMK AO2 SLP194 T00670006=
202201301153 METAR KPAE 301153Z AUTO 16012KT 10SM OVC100 06/01 A3013 RMK AO2 PRESRR SLP206 60000 T00610006 10078 20061 56012=
202201301053 METAR KPAE 301053Z AUTO 15012G19KT 10SM OVC100 07/01 A3014 RMK AO2 RAE31 SLP209 P0000 T00670006=
202201300953 METAR KPAE 300953Z AUTO VRB03KT 10SM -RA BKN060 OVC075 06/01 A3015 RMK AO2 SLP214 P0000 T00610011=
202201300853 METAR KPAE 300853Z AUTO VRB04KT 9SM -RA OVC060 07/01 A3017 RMK AO2 SLP218 P0000 60000 T00670011 58003=
202201300753 METAR KPAE 300753Z AUTO 15009KT 9SM -RA OVC060 07/01 A3018 RMK AO2 RAB0654 SLP222 P0000 T00720011 400891006=
202201300653 METAR KPAE 300653Z AUTO 17004KT 10SM BKN050 OVC060 07/01 A3018 RMK AO2 SLP222 T00720006=
202201300553 METAR KPAE 300553Z AUTO VRB05KT 10SM OVC065 07/00 A3018 RMK AO2 SLP222 T00720000 10072 20056 50000=
202201300453 METAR KPAE 300453Z 00000KT 10SM OVC095 06/00 A3018 RMK AO2 SLP224 T00610000=
202201300353 METAR KPAE 300353Z 00000KT 10SM OVC095 07/01 A3018 RMK AO2 SLP223 T00670006=
202201300253 METAR KPAE 300253Z 00000KT 10SM OVC110 06/01 A3018 RMK AO2 SLP224 T00560006 56005=
202201300153 METAR KPAE 300153Z 00000KT 10SM BKN110 06/01 A3018 RMK AO2 SLP224 T00610006=
202201300053 METAR KPAE 300053Z 00000KT 10SM CLR 06/01 A3018 RMK AO2 SLP226 T00610006=
202201292353 METAR KPAE 292353Z AUTO 36004KT 10SM CLR 06/01 A3019 RMK AO2 SLP229 T00610006 10089 20044 55002=
202201292253 METAR KPAE 292253Z 23003KT 10SM FEW120 08/02 A3018 RMK AO2 SLP225 T00780017=
202201292153 METAR KPAE 292153Z 18006KT 10SM CLR 08/M02 A3018 RMK AO2 SLP225 T00831022=
202201292053 METAR KPAE 292053Z 17007KT 10SM CLR 07/M02 A3020 RMK AO2 SLP230 T00721022 58016=
202201291953 METAR KPAE 291953Z 17009KT 10SM CLR 06/M03 A3022 RMK AO2 SLP236 T00611028=
202201291853 METAR KPAE 291853Z 20007KT 10SM FEW090 06/M03 A3024 RMK AO2 SLP245 T00561033=
202201291753 METAR KPAE 291753Z 16007KT 10SM CLR 04/M03 A3025 RMK AO2 SLP246 T00441033 10044 21006 50004=
202201291653 METAR KPAE 291653Z VRB03KT 10SM CLR 04/M03 A3025 RMK AO2 SLP246 T00391028=
202201291553 METAR KPAE 291553Z 00000KT 10SM CLR 00/M03 A3024 RMK AO2 SLP245 T00001028=
202201291453 METAR KPAE 291453Z 00000KT 10SM CLR 01/M03 A3023 RMK AO2 SLP243 T00061033 51001=
202201291353 METAR KPAE 291353Z AUTO 00000KT 10SM CLR 01/M03 A3023 RMK AO2 SLP242 T00061033=
202201291253 METAR KPAE 291253Z AUTO 00000KT 10SM CLR 02/M04 A3024 RMK AO2 SLP244 T00171039=
202201291153 METAR KPAE 291153Z AUTO 00000KT 10SM CLR 01/M05 A3023 RMK AO2 SLP242 T00061050 10039 20006 55003=
202201291053 METAR KPAE 291053Z AUTO VRB05KT 10SM CLR 03/M05 A3022 RMK AO2 SLP236 T00281050=
202201290953 METAR KPAE 290953Z AUTO VRB03KT 10SM CLR 02/M05 A3024 RMK AO2 SLP243 T00221050=
202201290853 METAR KPAE 290853Z AUTO 15010KT 10SM CLR 03/M06 A3024 RMK AO2 SLP245 T00331056 58013=
202201290753 METAR KPAE 290753Z AUTO 14007KT 10SM CLR 03/M06 A3026 RMK AO2 SLP250 T00331056 400890006=
202201290653 METAR KPAE 290653Z AUTO VRB05KT 10SM CLR 04/M05 A3027 RMK AO2 SLP254 T00391050=
202201290553 METAR KPAE 290553Z AUTO 11006KT 10SM CLR 04/M05 A3028 RMK AO2 SLP258 T00391050 10072 20039 51004=
202201290453 METAR KPAE 290453Z AUTO 11004KT 10SM CLR 04/M04 A3027 RMK AO2 SLP256 T00441044=
202201290353 METAR KPAE 290353Z 11005KT 10SM CLR 06/M04 A3028 RMK AO2 SLP257 T00561039=
202201290253 METAR KPAE 290253Z 10003KT 10SM CLR 06/M02 A3027 RMK AO2 SLP255 T00561022 56003=
202201290153 METAR KPAE 290153Z 00000KT 10SM CLR 07/M01 A3027 RMK AO2 SLP254 T00671006=
202201290053 METAR KPAE 290053Z 00000KT 10SM CLR 06/M01 A3027 RMK AO2 SLP253 T00611006=
202201282353 METAR KPAE 282353Z 21004KT 10SM CLR 07/00 A3028 RMK AO2 SLP257 T00720000 10089 20039 55004=
202201282253 METAR KPAE 282253Z 26005KT 10SM CLR 07/01 A3027 RMK AO2 SLP256 T00670011=
202201282153 METAR KPAE 282153Z 26005KT 10SM CLR 08/M02 A3028 RMK AO2 SLP258 T00831017=
202201282053 METAR KPAE 282053Z 15007KT 10SM CLR 07/M04 A3029 RMK AO2 SLP261 T00721039 58012=
202201281953 METAR KPAE 281953Z VRB05KT 10SM CLR 05/M04 A3030 RMK AO2 SLP266 T00501044=
202201281853 METAR KPAE 281853Z 15007KT 10SM CLR 04/M06 A3032 RMK AO2 SLP273 T00441056=
202201281753 METAR KPAE 281753Z 16006KT 10SM CLR 04/M06 A3032 RMK AO2 SLP274 T00391056 10039 20006 53003=
202201281653 METAR KPAE 281653Z 14006KT 10SM CLR 03/M07 A3031 RMK AO2 SLP269 T00281067=
202201281553 METAR KPAE 281553Z 12003KT 10SM CLR 03/M07 A3032 RMK AO2 SLP271 T00281072=
202201281453 METAR KPAE 281453Z 11004KT 10SM CLR 02/M07 A3031 RMK AO2 SLP269 T00221067 57006=
202201281353 METAR KPAE 281353Z AUTO 11005KT 10SM CLR 03/M07 A3032 RMK AO2 SLP271 T00281067=
202201281253 METAR KPAE 281253Z AUTO VRB03KT 10SM CLR 03/M06 A3033 RMK AO2 SLP274 T00281061=
202201281153 METAR KPAE 281153Z AUTO 11008KT 10SM CLR 03/M07 A3033 RMK AO2 SLP276 T00331067 10044 20011 58007=
202201281053 METAR KPAE 281053Z AUTO 00000KT 10SM CLR 03/M06 A3034 RMK AO2 SLP279 T00281061=
202201280953 METAR KPAE 280953Z AUTO 00000KT 10SM CLR 03/M07 A3034 RMK AO2 SLP279 T00331067=
202201280853 METAR KPAE 280853Z AUTO 11005KT 10SM CLR 03/M06 A3035 RMK AO2 SLP282 T00331056 50001=
202201280753 METAR KPAE 280753Z AUTO 15003KT 10SM CLR 02/M04 A3036 RMK AO2 SLP285 T00171044 401111006=
202201280653 METAR KPAE 280653Z AUTO 11004KT 10SM CLR 04/M04 A3036 RMK AO2 SLP283 T00441039=
202201280553 METAR KPAE 280553Z AUTO 00000KT 10SM CLR 01/M03 A3035 RMK AO2 SLP283 T00111033 10094 20011 53006=
202201280453 METAR KPAE 280453Z 00000KT 10SM CLR 03/M03 A3034 RMK AO2 SLP281 T00281028=
202201280353 METAR KPAE 280353Z 19003KT 10SM CLR 03/M03 A3033 RMK AO2 SLP278 T00281028=
202201280253 METAR KPAE 280253Z VRB04KT 10SM CLR 07/M01 A3033 RMK AO2 SLP276 T00671011 56004=
202201280153 METAR KPAE 280153Z 00000KT 10SM CLR 03/00 A3034 RMK AO2 SLP280 T00330000=
202201280053 METAR KPAE 280053Z 00000KT 10SM CLR 06/02 A3033 RMK AO2 SLP277 T00560022=
202201272353 METAR KPAE 272353Z 33003KT 10SM CLR 07/02 A3034 RMK AO2 SLP280 T00720022 10111 20006 56009=
202201272253 METAR KPAE 272253Z 36003KT 10SM CLR 08/02 A3035 RMK AO2 SLP281 T00830022=
202201272153 METAR KPAE 272153Z 16005KT 10SM BCFG CLR 10/M02 A3036 RMK AO2 SLP284 T01001022=
202201272053 METAR KPAE 272053Z 15008KT 10SM BCFG CLR 09/M02 A3037 RMK AO2 SLP288 T00891022 58009=
202201271953 METAR KPAE 271953Z 16003KT 10SM BCFG CLR 07/00 A3039 RMK AO2 SLP296 T00670000=
202201271853 METAR KPAE 271853Z VRB03KT 10SM CLR 05/M01 A3040 RMK AO2 SLP299 T00501006=
202201271753 METAR KPAE 271753Z 00000KT 10SM R16R/3500VP6000FT VCFG FEW001 01/01 A3040 RMK AO2 SLP300 I1001 I6007 T00060006 10006 21006 53006=
202201271740 SPECI KPAE 271740Z 00000KT 1/4SM R16R/1200V2800FT BCFG FEW001 00/00 A3039 RMK AO2 VIS M1/4V1 3/4 I1001 T00000000=
202201271653 METAR KPAE 271653Z 36004KT 1SM R16R/0800V1000FT BCFG SCT001 M01/M01 A3039 RMK AO2 SLP297 I1001 T10061006=
202201271600 SPECI KPAE 271600Z 02003KT 1SM R16R/0500V0700FT BCFG SCT001 M01/M01 A3038 RMK AO2 T10061011=
202201271553 METAR KPAE 271553Z 36004KT 2SM R16R/0500V0700FT BCFG FEW001 M01/M01 A3038 RMK AO2 SLP295 I1002 T10061011=
202201271453 METAR KPAE 271453Z 01004KT 2SM R16R/0600V0800FT BCFG FEW001 M01/M01 A3038 RMK AO2 SLP294 VIS N 1/2 I1002 I3003 T10061006 53005=
202201271353 METAR KPAE 271353Z AUTO 36003KT M1/4SM R16R/0800FT FZFG VV001 M01/ A3037 RMK AO2 SLP290 T1006 $=
202201271253 METAR KPAE 271253Z AUTO 04003KT M1/4SM R16R/0600V0800FT FG VV001 00/ A3036 RMK AO2 SLP288 I1001 T0000 $=
202201271153 METAR KPAE 271153Z AUTO 00000KT M1/4SM R16R/0700FT FG VV001 00/ A3037 RMK AO2 SLP288 7//// I1000 I6000 T0000 10011 21006 53000 $=
202201271113 SPECI KPAE 271113Z AUTO 00000KT M1/4SM R16R/1000V1200FT FZFG VV001 M01/ A3036 RMK AO2 T1006 $=
202201271106 SPECI KPAE 271106Z AUTO 00000KT 1/4SM R16R/1000V1400FT FG VV001 00/ A3036 RMK AO2 T0000 $=
202201271053 METAR KPAE 271053Z AUTO 00000KT M1/4SM R16R/1000V1200FT FG VV001 00/ A3037 RMK AO2 SLP288 T0000 $=
202201270953 METAR KPAE 270953Z AUTO 00000KT M1/4SM R16R/0700V0800FT FG VV001 00/ A3036 RMK AO2 SLP288 T0000 $=
202201270853 METAR KPAE 270853Z AUTO 00000KT M1/4SM R16R/0700V0800FT FG VV001 00/ A3037 RMK AO2 SLP289 T0000 51006 $=
202201270753 METAR KPAE 270753Z AUTO 35004KT M1/4SM R16R/0700V1000FT FG VV001 01/ A3036 RMK AO2 SLP288 T0006 400390000 $=
202201270653 METAR KPAE 270653Z AUTO 02004KT M1/4SM R16R/0700V1200FT FG VV001 01/ A3036 RMK AO2 SLP286 T0006 $=
202201270553 METAR KPAE 270553Z AUTO 01007KT M1/4SM R16R/1000V1200FT FG VV001 01/ A3035 RMK AO2 SLP283 T0011 10039 20000 53012 $=
202201270453 METAR KPAE 270453Z AUTO 01004KT 1/4SM R16R/1000V1200FT FG VV001 01/ A3034 RMK AO2 SLP279 T0006 $=
202201270353 METAR KPAE 270353Z 07003KT 1/4SM R16R/1200V1400FT FG VV001 01/01 A3032 RMK AO2 SLP275 T00060006 $=
202201270253 METAR KPAE 270253Z 00000KT 1/4SM R16R/1200V1400FT FG VV001 00/00 A3031 RMK AO2 SLP271 T00000000 53006 $=
202201270153 METAR KPAE 270153Z 11004KT 1/4SM R16R/1200V1800FT FG VV001 01/01 A3030 RMK AO2 SLP268 T00060006 $=
202201270129 SPECI KPAE 270129Z 11004KT 1/4SM R16R/P6000FT FG VV001 01/01 A3031 RMK AO2 T00110006 $=
202201270053 METAR KPAE 270053Z 00000KT 8SM CLR 03/01 A3030 RMK AO2 SLP265 T00330011 $=
202201262353 METAR KPAE 262353Z 00000KT 9SM FEW001 04/00 A3030 RMK AO2 SLP264 T00390000 10039 20000 50000=
202201262253 METAR KPAE 262253Z 00000KT 8SM BCFG SCT002 04/00 A3030 RMK AO2 SLP266 T00390000=
202201262233 SPECI KPAE 262233Z 02005KT 7SM BCFG SCT002 03/00 A3029 RMK AO2 T00330000=
202201262229 SPECI KPAE 262229Z 01005KT 6SM HZ BKN002 03/00 A3029 RMK AO2 T00280000=
202201262153 METAR KPAE 262153Z 34004KT 1SM R16R/P6000FT BR OVC002 02/00 A3030 RMK AO2 SLP266 T00220000=
202201262134 SPECI KPAE 262134Z 01006KT 1SM R16R/P6000FT BR OVC003 02/00 A3030 RMK AO2 T00170000=
202201262100 SPECI KPAE 262100Z 35006KT 1/4SM R16R/1400V5000FT FG VV001 01/00 A3029 RMK AO2 T00110000=
202201262053 METAR KPAE 262053Z 35006KT 1/2SM R16R/1200V3500FT FG VV001 01/00 A3030 RMK AO2 SLP265 T00110000 56003=
202201262050 SPECI KPAE 262050Z 35004KT 1/2SM R16R/1200V3500FT FG VV001 01/00 A3030 RMK AO2=
202201262032 SPECI KPAE 262032Z 35005KT 1/2SM R16R/0800V2200FT FG VV001 01/00 A3029 RMK AO2 T00060000=
202201262002 SPECI KPAE 262002Z 35006KT 1/2SM R16R/1200VP6000FT FG VV001 01/00 A3030 RMK AO2 T00060000=
202201261953 METAR KPAE 261953Z 35007KT 1/4SM R16R/0800V2000FT FG VV001 01/00 A3030 RMK AO2 SLP265 T00060000=
202201261924 SPECI KPAE 261924Z 35006KT 1/4SM R16R/1000V1400FT FG VV001 01/00 A3030 RMK AO2 T00060000=
202201261853 METAR KPAE 261853Z 35007KT M1/4SM R16R/0600V0700FT FG VV001 01/00 A3031 RMK AO2 SLP269 T00060000=
202201261753 METAR KPAE 261753Z 36004KT M1/4SM R16R/0700V1600FT FG VV001 01/00 A3030 RMK AO2 SLP265 6//// T00060000 10011 20000 53010=
202201261744 SPECI KPAE 261744Z 03004KT 1/4SM R16R/1000V1600FT FG VV001 00/00 A3029 RMK AO2 T00000000=
202201261653 METAR KPAE 261653Z 00000KT M1/4SM R16R/1000V1400FT FG VV001 01/M01 A3028 RMK AO2 SLP260 T00061006=
202201261553 METAR KPAE 261553Z 01005KT M1/4SM R16R/0600V0800FT HZ VV001 01/M02 A3028 RMK AO2 SLP258 T00111022 $=
202201261453 METAR KPAE 261453Z 36005KT M1/4SM R16R/0700V1000FT FG VV001 01/01 A3026 RMK AO2 SLP254 T00110011 53010=
202201261415 SPECI KPAE 261415Z AUTO 34004KT M1/4SM R16R/1000FT FG VV001 01/01 A3025 RMK AO2 T00110011=
202201261402 SPECI KPAE 261402Z AUTO 35003KT 1/4SM R16R/1000FT FG VV001 01/01 A3024 RMK AO2 T00110011=
202201261353 METAR KPAE 261353Z AUTO 36004KT M1/4SM R16R/0800V1000FT FG VV001 01/01 A3024 RMK AO2 SLP247 T00110011=
202201261253 METAR KPAE 261253Z AUTO 01004KT M1/4SM R16R/0800V1000FT FG VV001 01/01 A3025 RMK AO2 SLP249 T00060006=
202201261153 METAR KPAE 261153Z AUTO 02007KT M1/4SM R16R/0600V0800FT FG VV001 01/01 A3023 RMK AO2 SLP244 T00110011 10011 20006 50001=
202201261053 METAR KPAE 261053Z AUTO 36005KT M1/4SM R16R/0600V0700FT FG VV001 01/01 A3024 RMK AO2 SLP245 T00110011=
202201260953 METAR KPAE 260953Z AUTO 35004KT M1/4SM R16R/0800V1000FT FG VV001 01/01 A3025 RMK AO2 SLP249 T00110006=
202201260853 METAR KPAE 260853Z AUTO 36006KT M1/4SM R16R/0700V0800FT FG VV001 01/01 A3023 RMK AO2 SLP242 T00060006 55001=
202201260753 METAR KPAE 260753Z AUTO 04003KT M1/4SM R16R/0800V1000FT FG VV001 01/01 A3022 RMK AO2 SLP240 T00110011 400280000=
202201260714 SPECI KPAE 260714Z AUTO 01004KT M1/4SM R16R/0800V1000FT FG VV001 01/01 A3022 RMK AO2 T00110011=
202201260653 METAR KPAE 260653Z AUTO 36006KT 1/4SM R16R/1000V1200FT FG VV001 01/01 A3023 RMK AO2 SLP242 T00110011=
202201260553 METAR KPAE 260553Z AUTO 01006KT 1/4SM R16R/1000V1200FT FG VV001 01/01 A3023 RMK AO2 SLP244 T00110011 10011 20000 53001=
202201260522 SPECI KPAE 260522Z AUTO 36007KT 1/4SM R16R/1000V1200FT FG VV001 01/01 A3024 RMK AO2 T00110011=
202201260453 METAR KPAE 260453Z AUTO 01005KT M1/4SM R16R/0800V1000FT FG VV001 01/01 A3023 RMK AO2 SLP242 T00110011=
202201260353 METAR KPAE 260353Z 01003KT M1/4SM R16R/1000V1200FT FG VV001 01/01 A3023 RMK AO2 SLP241 T00060006=
202201260313 SPECI KPAE 260313Z 36004KT 1/4SM R16R/1200V1400FT FG VV001 01/01 A3024 RMK AO2 T00060006=
202201260253 METAR KPAE 260253Z 01003KT 3/4SM R16R/P6000FT BR OVC001 01/01 A3023 RMK AO2 SLP243 T00060006 58010=
202201260217 SPECI KPAE 260217Z 00000KT 3/4SM R16R/1800V2800FT BR OVC001 00/00 A3024 RMK AO2 T00000000=
202201260200 SPECI KPAE 260200Z 00000KT 1/4SM R16R/1600V2200FT FG VV001 00/00 A3024 RMK AO2 T00000000=
202201260153 METAR KPAE 260153Z 00000KT 1/2SM R16R/1400V2000FT FG BKN001 00/00 A3024 RMK AO2 SLP247 T00000000=
202201260145 SPECI KPAE 260145Z 00000KT 1/2SM R16R/1400V3000FT FG VV001 01/01 A3025 RMK AO2 T00060006=
202201260134 SPECI KPAE 260134Z 10003KT 1/4SM R16R/1200V1600FT FG VV001 01/01 A3025 RMK AO2 T00060006=
202201260100 SPECI KPAE 260100Z 36005KT M1/4SM R16R/0700V1000FT FG VV001 00/00 A3026 RMK AO2 T00000000=
202201260053 METAR KPAE 260053Z 01005KT 1/4SM R16R/0600V0800FT FG VV001 00/00 A3025 RMK AO2 SLP251 T00000000=
202201260001 SPECI KPAE 260001Z 01004KT 1/4SM R16R/1400V2200FT FG VV001 01/00 A3026 RMK AO2 T00060000=
202201252353 METAR KPAE 252353Z 35004KT 1/4SM R16R/1200V2400FT FG VV001 01/00 A3026 RMK AO2 SLP253 T00110000 10028 20000 55006=
202201252350 SPECI KPAE 252350Z AUTO 36003KT 1/4SM R16R/1200V2400FT FG VV001 01/M01 A3026 RMK AO2=
202201252316 SPECI KPAE 252316Z 35005KT 1/4SM R16R/1000V1800FT FG VV001 01/00 A3027 RMK AO2 T00110000=
202201252301 SPECI KPAE 252301Z 32003KT 1/4SM R16R/1400V2200FT FG VV002 01/00 A3027 RMK AO2 T00110000=
202201252258 SPECI KPAE 252258Z 32003KT 1/2SM R16R/1200V2200FT FG OVC001 01/00 A3027 RMK AO2 T00110000=
202201252253 METAR KPAE 252253Z 34003KT 1/4SM R16R/1200V2600FT FG OVC001 01/M01 A3027 RMK AO2 SLP255 T00111006=
202201252250 SPECI KPAE 252250Z 35003KT 1/4SM R16R/1400V2600FT FG OVC001 01/00 A3026 RMK AO2=
202201252244 SPECI KPAE 252244Z 36004KT 1/4SM R16R/1400V1800FT FG VV002 01/00 A3027 RMK AO2 T00110000=
202201252217 SPECI KPAE 252217Z 35004KT 1/2SM R16R/1200V2200FT FG OVC002 02/00 A3027 RMK AO2 T00170000=
202201252200 SPECI KPAE 252200Z 36003KT 1/2SM R16R/2200V4000FT FG OVC002 02/00 A3028 RMK AO2 T00170000=
202201252153 METAR KPAE 252153Z 00000KT 1/4SM R16R/1800V3000FT FG VV001 02/00 A3028 RMK AO2 SLP260 T00170000=
202201252145 SPECI KPAE 252145Z 00000KT 1/4SM R16R/1400V3500FT FG VV001 01/00 A3028 RMK AO2 T00110000=
202201252114 SPECI KPAE 252114Z 34004KT 1/4SM R16R/1200V1800FT FG BKN001 OVC005 01/00 A3030 RMK AO2 T00110000=
202201252110 SPECI KPAE 252110Z 31004KT 1/4SM R16R/1400V5000FT FG OVC003 02/00 A3030 RMK AO2 CIG 001V006 T00170000=
202201252108 SPECI KPAE 252108Z 32005KT 3SM R16R/1400VP6000FT FG OVC005 02/00 A3030 RMK AO2 CIG 001V006 T00220000=
202201252053 METAR KPAE 252053Z 00000KT 3SM HZ OVC004 03/M01 A3030 RMK AO2 SLP267 T00281006 58014=
202201252017 SPECI KPAE 252017Z 00000KT 3/4SM R16R/P6000FT BR VV001 01/00 A3032 RMK AO2 T00110000=
202201252007 SPECI KPAE 252007Z 00000KT M1/4SM R16R/1600VP6000FT FG VV001 01/00 A3032 RMK AO2 T00110000=
202201251953 METAR KPAE 251953Z 00000KT M1/4SM R16R/1000V1400FT FG VV001 01/00 A3033 RMK AO2 SLP276 T00110000=
202201251900 SPECI KPAE 251900Z 00000KT M1/4SM R16R/0500V0700FT FG VV001 01/00 A3035 RMK AO2 T00060000=
202201251853 METAR KPAE 251853Z 27003KT 1/4SM R16R/0500V0800FT FG VV001 01/00 A3035 RMK AO2 SLP284 T00060000=
202201251830 SPECI KPAE 251830Z 27003KT 1/4SM R16R/0700V2000FT FG VV001 01/00 A3035 RMK AO2 T00060000=
202201251753 METAR KPAE 251753Z 00000KT 1/4SM R16R/1000V1400FT FG VV002 00/00 A3035 RMK AO2 SLP282 T00000000 10017 20000 53004=
202201251751 SPECI KPAE 251751Z 00000KT 1/4SM R16R/1000V1400FT FG VV002 00/00 A3034 RMK AO2=
202201251653 METAR KPAE 251653Z 10003KT M1/4SM R16R/0700V0800FT FG VV001 00/00 A3034 RMK AO2 SLP279 T00000000=
202201251604 SPECI KPAE 251604Z 01005KT M1/4SM R16R/0700V1200FT FG VV001 01/00 A3033 RMK AO2 T00060000=
202201251553 METAR KPAE 251553Z 35003KT 1/4SM R16R/0800V1000FT FG VV001 01/00 A3033 RMK AO2 SLP277 T00060000=
202201251522 SPECI KPAE 251522Z 00000KT 1/4SM R16R/1200V1800FT FG VV001 01/00 A3033 RMK AO2 T00060000=
202201251453 METAR KPAE 251453Z 00000KT 1/4SM R16R/1400V2800FT FG VV001 01/00 A3033 RMK AO2 SLP278 T00060000 55002=
202201251353 METAR KPAE 251353Z AUTO 00000KT 1/4SM R16R/1400V1600FT FG VV001 01/00 A3033 RMK AO2 SLP275 T00110000=
202201251318 SPECI KPAE 251318Z AUTO VRB03KT 1/4SM R16R/1400V2000FT FG VV001 01/00 A3034 RMK AO2 T00110000=
202201251253 METAR KPAE 251253Z AUTO 00000KT 1/4SM R16R/1400V5500FT FG VV001 01/00 A3034 RMK AO2 SLP280 T00110000=
202201251240 SPECI KPAE 251240Z AUTO 00000KT 1/4SM R16R/1600VP6000FT FG VV001 02/00 A3034 RMK AO2 T00170000=
202201251217 SPECI KPAE 251217Z AUTO 01003KT 1/2SM R16R/4000VP6000FT FG VV001 01/00 A3034 RMK AO2 T00110000=
202201251212 SPECI KPAE 251212Z AUTO 01003KT 1 1/4SM R16R/3500VP6000FT BR OVC002 01/00 A3034 RMK AO2 T00110000=
202201251153 METAR KPAE 251153Z AUTO 00000KT 1/2SM R16R/1800V2800FT FG VV001 02/00 A3034 RMK AO2 SLP279 T00170000 10022 20011 58000=
202201251117 SPECI KPAE 251117Z AUTO VRB03KT 1/2SM R16R/1800V4500FT FG VV001 01/00 A3035 RMK AO2 T00110000=
202201251115 SPECI KPAE 251115Z AUTO 35003KT 1/4SM R16R/1800V2200FT FG VV001 01/00 A3035 RMK AO2 T00110000=
202201251107 SPECI KPAE 251107Z AUTO 00000KT 1/2SM R16R/1800V4500FT FG VV001 02/00 A3035 RMK AO2 T00170000=
202201251053 METAR KPAE 251053Z AUTO 24003KT 1/2SM R16R/2000V4500FT FG VV002 01/00 A3035 RMK AO2 SLP283 T00110000=
202201251051 SPECI KPAE 251051Z AUTO 24003KT 1/2SM R16R/2000V4500FT FG VV002 01/00 A3035 RMK AO2=
202201251026 SPECI KPAE 251026Z AUTO 00000KT 1 1/2SM R16R/2600VP6000FT BR OVC002 02/00 A3035 RMK AO2 T00170000=
202201251020 SPECI KPAE 251020Z AUTO 00000KT 3SM R16R/4500VP6000FT BR OVC002 02/00 A3035 RMK AO2 T00170000=
202201251009 SPECI KPAE 251009Z AUTO 21003KT 1 1/2SM R16R/3500VP6000FT BR OVC002 02/00 A3035 RMK AO2 T00170000=
202201250953 METAR KPAE 250953Z AUTO 00000KT 1/2SM R16R/3500VP6000FT FG VV002 02/00 A3034 RMK AO2 SLP280 T00170000=
202201250941 SPECI KPAE 250941Z AUTO VRB03KT 1/2SM R16R/2000V2800FT FG VV001 02/00 A3034 RMK AO2 T00170000=
202201250931 SPECI KPAE 250931Z AUTO 00000KT 1/4SM R16R/1800V2800FT FG VV001 02/00 A3033 RMK AO2 T00170000=
202201250924 SPECI KPAE 250924Z AUTO 00000KT 1/2SM R16R/2000V3000FT FG VV001 02/00 A3034 RMK AO2 T00170000=
202201250915 SPECI KPAE 250915Z AUTO 00000KT 3/4SM R16R/3000VP6000FT BR VV002 02/00 A3033 RMK AO2 T00170000=
202201250913 SPECI KPAE 250913Z AUTO 00000KT 1SM R16R/4500VP6000FT BR OVC001 02/00 A3033 RMK AO2 T00170000=
202201250853 METAR KPAE 250853Z AUTO 00000KT 1/2SM R16R/5000VP6000FT FG VV001 02/00 A3034 RMK AO2 SLP278 T00170000 50002=
202201250845 SPECI KPAE 250845Z AUTO 06003KT 1/2SM R16R/3000VP6000FT FG VV001 02/00 A3034 RMK AO2 T00170000=
202201250837 SPECI KPAE 250837Z AUTO 05003KT 1/4SM R16R/1800V5500FT FG VV001 02/00 A3034 RMK AO2 T00170000=
202201250825 SPECI KPAE 250825Z AUTO 00000KT 1/4SM R16R/1600V2000FT FG VV001 02/00 A3034 RMK AO2 T00170000=
202201250811 SPECI KPAE 250811Z AUTO 36005KT 1/4SM R16R/2000V3000FT FG VV001 02/00 A3034 RMK AO2 T00170000=
202201250753 METAR KPAE 250753Z AUTO 00000KT 1/4SM R16R/1400V1800FT FG VV001 02/00 A3034 RMK AO2 SLP280 T00170000 400330011=
202201250653 METAR KPAE 250653Z AUTO 35004KT 1/4SM R16R/1200V1800FT FG VV001 02/00 A3033 RMK AO2 SLP278 T00170000=
202201250648 SPECI KPAE 250648Z AUTO 33004KT 1/4SM R16R/1200V1600FT FG VV001 02/00 A3033 RMK AO2=
202201250627 SPECI KPAE 250627Z AUTO 00000KT 1/4SM R16R/2000V3000FT FG VV001 02/00 A3033 RMK AO2 T00170000 TSNO=
202201250615 SPECI KPAE 250615Z AUTO 33003KT 1/4SM R16R/1600V1800FT FG VV001 02/00 A3033 RMK AO2 T00170000=
202201250558 SPECI KPAE 250558Z AUTO 00000KT 1/4SM R16R/2000V3500FT FG VV001 02/00 A3033 RMK AO2 T00170000=
202201250553 METAR KPAE 250553Z AUTO 00000KT 1/2SM R16R/1800V2200FT FG VV001 02/00 A3033 RMK AO2 SLP276 T00170000 10033 20017 51007=
202201250551 SPECI KPAE 250551Z AUTO 00000KT 1/2SM R16R/1800V2200FT FG VV001 02/00 A3033 RMK AO2=
202201250546 SPECI KPAE 250546Z AUTO 00000KT 1/4SM R16R/1800V2400FT FG VV001 02/00 A3033 RMK AO2 T00170000=
202201250523 SPECI KPAE 250523Z AUTO 35003KT 1/2SM R16R/2200VP6000FT FG VV001 02/00 A3032 RMK AO2 T00170000=
202201250453 METAR KPAE 250453Z AUTO VRB03KT 1 1/2SM R16R/3000VP6000FT BR OVC001 02/00 A3032 RMK AO2 SLP274 T00170000=
202201250404 SPECI KPAE 250404Z 34005KT 1/2SM R16R/P6000FT FG OVC001 02/00 A3031 RMK AO2 T00170000=
202201250353 METAR KPAE 250353Z 35004KT 2 1/2SM BR OVC001 02/00 A3031 RMK AO2 SLP270 T00170000=
202201250302 SPECI KPAE 250302Z 34003KT 2SM BR OVC001 02/00 A3031 RMK AO2 T00220000=
202201250253 METAR KPAE 250253Z 34003KT 2SM BR OVC003 02/00 A3030 RMK AO2 SLP268 T00220000 50004=
202201250153 METAR KPAE 250153Z 34003KT 2SM HZ OVC002 03/00 A3031 RMK AO2 SLP268 T00280000=
202201250107 SPECI KPAE 250107Z 01005KT 1SM R16R/P6000FT HZ OVC003 03/00 A3030 RMK AO2 T00280000=
202201250053 METAR KPAE 250053Z 34004KT 2SM HZ OVC003 03/00 A3029 RMK AO2 SLP263 T00280000=
202201242353 METAR KPAE 242353Z 01006KT 2SM BR OVC003 03/03 A3029 RMK AO2 SLP263 T00330028 10033 20011 55001=
202201242256 SPECI KPAE 242256Z 36005KT 3SM BR OVC002 03/03 A3029 RMK AO2 CIG 001V005 T00330028=
202201242253 METAR KPAE 242253Z 36004KT 1 1/2SM BR OVC002 03/03 A3029 RMK AO2 CIG 001V005 SLP262 T00280028=
202201242225 SPECI KPAE 242225Z 01003KT 1 1/2SM BR OVC002 03/03 A3028 RMK AO2 T00280028=
202201242153 METAR KPAE 242153Z 00000KT M1/4SM R16R/2600VP6000FT FG OVC001 03/03 A3028 RMK AO2 SLP260 T00280028=
202201242142 SPECI KPAE 242142Z 01005KT M1/4SM R16R/1600V5000FT FG VV001 03/03 A3029 RMK AO2 T00280028=
202201242053 METAR KPAE 242053Z 34005KT M1/4SM R16R/1200V1800FT FG VV001 03/03 A3029 RMK AO2 SLP264 T00280028 58005=
202201241953 METAR KPAE 241953Z 00000KT M1/4SM R16R/0600V0700FT FG VV001 02/02 A3031 RMK AO2 SLP267 T00220022=
202201241853 METAR KPAE 241853Z VRB04KT M1/4SM R16R/0500V0600FT FG VV001 02/02 A3031 RMK AO2 SLP270 T00170017=
202201241753 METAR KPAE 241753Z 02003KT M1/4SM R16R/0800V1400FT FG VV001 01/01 A3031 RMK AO2 SLP269 T00110011 10022 20011 53020=
202201241653 METAR KPAE 241653Z 28004KT M1/4SM R16R/1200V1800FT FG VV001 02/02 A3028 RMK AO2 SLP259 T00170017=
202201241610 SPECI KPAE 241610Z 00000KT M1/4SM R16R/1200V1600FT FG VV001 01/01 A3026 RMK AO2 T00110011=
202201241553 METAR KPAE 241553Z 00000KT 1/4SM R16R/1000V1800FT FG VV001 01/01 A3026 RMK AO2 SLP251 T00110011=
202201241544 SPECI KPAE 241544Z 02003KT 1/4SM R16R/1400V2400FT FG VV001 01/01 A3026 RMK AO2 T00110011=
202201241453 METAR KPAE 241453Z 27003KT 1/4SM R16R/1200V1400FT FG VV001 01/01 A3025 RMK AO2 SLP250 T00110011 56009=
202201241353 METAR KPAE 241353Z AUTO 00000KT 1/4SM R16R/1200FT FG VV001 02/02 A3026 RMK AO2 SLP251 T00170017=
202201241344 SPECI KPAE 241344Z AUTO 36004KT 1/4SM R16R/1000V1200FT FG VV001 02/02 A3026 RMK AO2 T00170017=
202201241330 SPECI KPAE 241330Z AUTO 00000KT M1/4SM R16R/0800V1200FT FG VV001 02/02 A3026 RMK AO2 T00170017=
202201241253 METAR KPAE 241253Z AUTO 00000KT 1/4SM R16R/1600V1800FT FG VV001 02/02 A3025 RMK AO2 SLP248 T00220017=
202201241233 SPECI KPAE 241233Z AUTO 00000KT 1/4SM R16R/2200V3000FT FG VV002 02/02 A3026 RMK AO2 T00220022=
202201241205 SPECI KPAE 241205Z AUTO 00000KT 1/4SM R16R/1400VP6000FT FG VV001 02/02 A3028 RMK AO2 T00220022=
202201241153 METAR KPAE 241153Z AUTO 00000KT 1/4SM R16R/1400V1600FT FG VV001 02/02 A3028 RMK AO2 SLP258 T00220022 10028 20022 55005=
202201241053 METAR KPAE 241053Z AUTO 08003KT 1/4SM R16R/1000V1200FT FG VV001 02/02 A3028 RMK AO2 SLP258 T00220022=
202201241022 SPECI KPAE 241022Z AUTO 00000KT M1/4SM R16R/1000V1200FT FG VV001 03/03 A3028 RMK AO2 T00280028=
202201240953 METAR KPAE 240953Z AUTO 20004KT 1/4SM R16R/1600V2000FT FG VV001 02/02 A3028 RMK AO2 SLP257 T00220022=
202201240941 SPECI KPAE 240941Z AUTO 00000KT 1/4SM R16R/1600V2000FT FG VV001 03/03 A3029 RMK AO2 T00280028=
202201240928 SPECI KPAE 240928Z AUTO 00000KT 1/4SM R16R/2000V2400FT FG VV001 02/02 A3030 RMK AO2 T00220022=
202201240908 SPECI KPAE 240908Z AUTO 15003KT 1/4SM R16R/1600V1800FT FG VV001 02/02 A3029 RMK AO2 T00220022=
202201240853 METAR KPAE 240853Z AUTO 00000KT 1/4SM R16R/2200VP6000FT FG VV001 02/02 A3029 RMK AO2 SLP264 T00220022 58004=
202201240842 SPECI KPAE 240842Z AUTO 00000KT 1/4SM R16R/2000VP6000FT FG VV001 02/02 A3029 RMK AO2 T00220022=
202201240753 METAR KPAE 240753Z AUTO 10004KT 1/4SM R16R/1200V1600FT FG VV001 02/02 A3030 RMK AO2 SLP265 T00220022 400330011=
202201240745 SPECI KPAE 240745Z AUTO 00000KT 1/4SM R16R/1200V2800FT FG VV001 03/03 A3030 RMK AO2 T00280028=
202201240653 METAR KPAE 240653Z AUTO 00000KT 1/4SM R16R/1000V1200FT FG VV001 02/02 A3031 RMK AO2 SLP269 T00220022=
202201240553 METAR KPAE 240553Z AUTO 00000KT 1/4SM R16R/1200FT FG VV001 03/03 A3031 RMK AO2 SLP268 T00280028 10028 20022 58007=
202201240500 SPECI KPAE 240500Z AUTO 36003KT 1/4SM R16R/1000V1200FT FG VV001 03/03 A3032 RMK AO2 T00280028=
202201240453 METAR KPAE 240453Z 01004KT M1/4SM R16R/1000V1200FT FG VV001 03/03 A3032 RMK AO2 SLP273 T00280028=
202201240353 METAR KPAE 240353Z 33003KT M1/4SM R16R/1400V1800FT FG VV001 03/03 A3033 RMK AO2 SLP274 T00280028=
202201240253 METAR KPAE 240253Z 00000KT M1/4SM R16R/1400V1800FT FG VV001 03/03 A3033 RMK AO2 SLP275 T00280028 56002=
202201240153 METAR KPAE 240153Z 34004KT M1/4SM R16R/1200V1400FT FG VV001 02/02 A3033 RMK AO2 SLP277 T00220022=
202201240053 METAR KPAE 240053Z 33004KT M1/4SM R16R/0600V0800FT FG VV001 02/02 A3033 RMK AO2 SLP276 T00220022=
202201232353 METAR KPAE 232353Z 34006KT M1/4SM R16R/0400V0500FT FG VV001 02/02 A3034 RMK AO2 SLP277 T00220022 10022 20011 55007=
202201232253 METAR KPAE 232253Z 36004KT M1/4SM R16R/0400FT FG VV001 02/02 A3033 RMK AO2 SLP276 T00170017=
202201232153 METAR KPAE 232153Z 01005KT M1/4SM R16R/0400V0500FT FG VV001 02/02 A3034 RMK AO2 SLP279 T00170017=
202201232053 METAR KPAE 232053Z 01004KT M1/4SM R16R/0400V0500FT FG VV001 02/02 A3036 RMK AO2 SLP285 T00170017 58017=
202201231953 METAR KPAE 231953Z 35004KT M1/4SM R16R/0500V0600FT FG VV001 02/02 A3038 RMK AO2 SLP294 T00170017=
202201231853 METAR KPAE 231853Z 00000KT M1/4SM R16R/0500FT FG VV001 02/02 A3040 RMK AO2 SLP299 T00170017=
202201231753 METAR KPAE 231753Z 00000KT M1/4SM R16R/0400V0500FT FG VV001 02/02 A3041 RMK AO2 SLP302 T00170017 10022 20011 50001=
202201231653 METAR KPAE 231653Z 03004KT M1/4SM R16R/0500V0600FT FG VV001 02/02 A3041 RMK AO2 SLP302 T00170017=
202201231553 METAR KPAE 231553Z 34004KT M1/4SM R16R/0600V0700FT FG VV001 01/01 A3041 RMK AO2 SLP301 T00110011=
202201231453 METAR KPAE 231453Z 34004KT M1/4SM R16R/0800V1000FT FG VV001 02/02 A3040 RMK AO2 SLP301 T00170017 55006=
202201231353 METAR KPAE 231353Z AUTO 00000KT M1/4SM R16R/0800V1000FT FG VV001 01/01 A3040 RMK AO2 SLP300 T00110011=
202201231337 SPECI KPAE 231337Z AUTO 01004KT M1/4SM R16R/1000FT FG VV001 02/02 A3040 RMK AO2 T00170017=
202201231316 SPECI KPAE 231316Z AUTO 35004KT 1/4SM R16R/1400V1800FT FG VV001 02/02 A3041 RMK AO2 T00170017=
202201231306 SPECI KPAE 231306Z AUTO 35003KT 1/4SM R16R/2000V2400FT FG VV001 02/02 A3041 RMK AO2 T00170017=
202201231253 METAR KPAE 231253Z AUTO 35004KT 1/4SM R16R/1400V1800FT FG VV001 02/02 A3041 RMK AO2 SLP304 T00220017=
202201231230 SPECI KPAE 231230Z AUTO 34004KT 1/4SM R16R/1400V1600FT FG VV001 02/02 A3042 RMK AO2 T00220022=
202201231153 METAR KPAE 231153Z AUTO 35003KT 1/4SM R16R/1200VP6000FT FG VV001 02/02 A3042 RMK AO2 SLP305 T00170017 10039 20017 56004=
202201231124 SPECI KPAE 231124Z AUTO 35003KT M1/4SM R16R/1200V1600FT FG VV001 02/02 A3042 RMK AO2 T00170017=
202201231103 SPECI KPAE 231103Z AUTO 34004KT 1/4SM R16R/1200V1400FT FG VV001 02/02 A3043 RMK AO2 T00220022=
202201231053 METAR KPAE 231053Z AUTO 35003KT 1/4SM R16R/1400VP6000FT FG VV001 02/02 A3042 RMK AO2 SLP306 T00220022=
202201231051 SPECI KPAE 231051Z AUTO 35003KT 1/2SM R16R/1400VP6000FT FG VV001 02/02 A3042 RMK AO2=
202201231028 SPECI KPAE 231028Z AUTO 35004KT 1 1/2SM BR BKN001 02/02 A3043 RMK AO2 T00220022=
202201231019 SPECI KPAE 231019Z AUTO 34003KT 2SM R16R/6000VP6000FT BR FEW001 02/02 A3043 RMK AO2 T00220022=
202201230959 SPECI KPAE 230959Z AUTO 35004KT 3SM R16R/4000VP6000FT BR SCT001 03/02 A3043 RMK AO2 T00280022=
202201230953 METAR KPAE 230953Z AUTO 36004KT 2 1/2SM R16R/2200VP6000FT BR BKN001 03/03 A3043 RMK AO2 SLP309 T00280028=
202201230944 SPECI KPAE 230944Z AUTO 35004KT 1SM R16R/1800V4000FT BR VV001 03/03 A3043 RMK AO2 T00280028=
202201230932 SPECI KPAE 230932Z AUTO 35004KT 1/4SM R16R/1600V3500FT FG VV001 03/03 A3043 RMK AO2 T00280028=
202201230916 SPECI KPAE 230916Z AUTO 34005KT 1/4SM R16R/1000V1600FT FG VV001 03/03 A3043 RMK AO2 T00280028=
202201230853 METAR KPAE 230853Z AUTO 35004KT 1/4SM R16R/2600VP6000FT FG VV001 03/03 A3044 RMK AO2 SLP312 T00280028 58003=
202201230843 SPECI KPAE 230843Z AUTO 34004KT 3/4SM R16R/2600VP6000FT BR OVC001 02/02 A3044 RMK AO2 T00220022=
202201230840 SPECI KPAE 230840Z AUTO 33005KT 1 1/2SM R16R/2600VP6000FT BR OVC002 02/02 A3044 RMK AO2 T00220022=
202201230830 SPECI KPAE 230830Z AUTO 00000KT 3SM BR OVC002 03/02 A3044 RMK AO2 T00280022=
202201230823 SPECI KPAE 230823Z AUTO 00000KT 2 1/2SM BR OVC002 03/03 A3044 RMK AO2 T00280028=
202201230753 METAR KPAE 230753Z AUTO 36004KT 4SM BR OVC002 03/03 A3044 RMK AO2 SLP315 T00330028 400670011=
202201230732 SPECI KPAE 230732Z AUTO 36005KT 3SM BR OVC001 03/03 A3045 RMK AO2 T00330033=
202201230724 SPECI KPAE 230724Z AUTO 35005KT 2 1/2SM BR OVC002 03/03 A3045 RMK AO2 T00330033=
202201230653 METAR KPAE 230653Z AUTO 01003KT 4SM BR OVC002 03/03 A3045 RMK AO2 SLP315 T00330033=
202201230631 SPECI KPAE 230631Z AUTO 35005KT 3SM R16R/6000VP6000FT BR OVC001 03/03 A3045 RMK AO2 T00330028=
202201230622 SPECI KPAE 230622Z AUTO 35006KT 2 1/2SM R16R/4000VP6000FT BR OVC001 04/03 A3044 RMK AO2 T00390033=
202201230553 METAR KPAE 230553Z AUTO 35005KT 4SM BR OVC002 04/03 A3045 RMK AO2 SLP315 T00390033 10067 20039 55006=
202201230453 METAR KPAE 230453Z AUTO 36005KT 5SM BR OVC003 04/04 A3044 RMK AO2 SLP315 T00390039=
202201230409 SPECI KPAE 230409Z 36006KT 7SM BKN003 04/03 A3045 RMK AO2 T00390033=
202201230353 METAR KPAE 230353Z 36007KT 8SM FEW004 04/03 A3045 RMK AO2 SLP318 T00390033=
202201230253 METAR KPAE 230253Z 01007KT 10SM CLR 04/03 A3046 RMK AO2 SLP321 T00440033 56014=
202201230153 METAR KPAE 230153Z 34004KT 10SM CLR 04/03 A3048 RMK AO2 SLP325 T00440028=
202201230053 METAR KPAE 230053Z 36004KT 10SM CLR 05/03 A3048 RMK AO2 SLP328 T00500028=
202201222353 METAR KPAE 222353Z 34006KT 10SM CLR 07/02 A3051 RMK AO2 SLP334 T00670022 10067 20017 56004 $=
202201222253 METAR KPAE 222253Z 34007KT 310V020 10SM VCFG FEW001 07/03 A3051 RMK AO2 SLP335 T00670033 $=
202201222205 SPECI KPAE 222205Z 35008KT 10SM VCFG FEW001 06/03 A3051 RMK AO2 T00560033 $=
202201222153 METAR KPAE 222153Z 35010KT 10SM VCFG CLR 06/03 A3051 RMK AO2 SLP336 T00610033 $=
202201222053 METAR KPAE 222053Z 36007KT 10SM VCFG CLR 04/03 A3052 RMK AO2 SLP339 T00440028 58010 $=
202201221953 METAR KPAE 221953Z 36006KT 10SM VCFG SCT001 04/03 A3054 RMK AO2 SLP345 T00440028 $=
202201221856 SPECI KPAE 221856Z 36006KT 10SM VCFG SCT001 03/02 A3055 RMK AO2 T00280022 $=
202201221853 METAR KPAE 221853Z 35006KT 1 1/2SM BR BKN001 03/02 A3055 RMK AO2 SLP352 T00280022 $=
202201221753 METAR KPAE 221753Z 34004KT 1 1/2SM BR BKN001 02/02 A3055 RMK AO2 SLP350 T00220017 10028 20011 55000 $=
202201221749 SPECI KPAE 221749Z 34004KT 10SM BKN001 03/02 A3055 RMK AO2 $=
202201221655 SPECI KPAE 221655Z 03004KT 10SM SCT001 02/M01 A3055 RMK AO2 T00221006 $=
202201221653 METAR KPAE 221653Z 03005KT 2SM HZ VV001 02/M01 A3055 RMK AO2 SLP349 T00221006 $=
202201221614 SPECI KPAE 221614Z 03004KT 2SM R16R/3500VP6000FT BR VV001 01/00 A3055 RMK AO2 T00110000 $=
202201221604 SPECI KPAE 221604Z 03004KT 9SM R16R/3000VP6000FT SCT001 01/M01 A3055 RMK AO2 T00111006 $=
202201221557 SPECI KPAE 221557Z 03003KT 2SM R16R/4000VP6000FT BR SCT001 01/00 A3055 RMK AO2 T00110000 $=
202201221553 METAR KPAE 221553Z 03003KT 1SM R16R/3000VP6000FT BR VV001 01/00 A3055 RMK AO2 SLP350 T00110000 $=
202201221511 SPECI KPAE 221511Z 02004KT 1SM R16R/1800V3000FT BR VV001 01/M01 A3056 RMK AO2 T00111006 $=
202201221502 SPECI KPAE 221502Z 02003KT 1/2SM R16R/1800V2000FT FG VV001 01/M01 A3056 RMK AO2 T00111006 $=
202201221453 METAR KPAE 221453Z 02003KT 1/4SM R16R/1800V2400FT FG VV001 01/00 A3056 RMK AO2 SLP355 T00110000 58005 $=
202201221405 SPECI KPAE 221405Z AUTO 36003KT 1/4SM R16R/1000V1400FT FG VV001 02/00 A3057 RMK AO2 T00170000 $=
202201221353 METAR KPAE 221353Z AUTO 35003KT M1/4SM R16R/1000FT FG VV001 02/00 A3057 RMK AO2 SLP356 T00170000 $=
202201221312 SPECI KPAE 221312Z AUTO 02004KT M1/4SM R16R/1000V1200FT HZ VV001 02/M01 A3057 RMK AO2 T00171011 $=
202201221253 METAR KPAE 221253Z AUTO VRB03KT 1/4SM R16R/1200V1600FT FG VV001 02/M01 A3058 RMK AO2 SLP360 T00171006 $=
202201221238 SPECI KPAE 221238Z AUTO 00000KT 1/4SM R16R/0800V1000FT FG VV001 02/M01 A3057 RMK AO2 T00171006 $=
202201221228 SPECI KPAE 221228Z AUTO 01003KT M1/4SM R16R/1000FT HZ VV001 02/M01 A3058 RMK AO2 T00221006 $=
202201221221 SPECI KPAE 221221Z AUTO 00000KT 1/4SM R16R/1000V1200FT HZ VV001 02/M01 A3058 RMK AO2 T00221011 $=
202201221201 SPECI KPAE 221201Z AUTO 35003KT M1/4SM R16R/0800V1200FT FG VV001 02/00 A3058 RMK AO2 T00220000 $=
202201221153 METAR KPAE 221153Z AUTO 36004KT 1/4SM R16R/1000V1200FT FG VV001 02/00 A3058 RMK AO2 SLP359 T00220000 10050 20022 58003 $=
202201221114 SPECI KPAE 221114Z AUTO 00000KT 1/4SM R16R/1000FT HZ VV001 03/M01 A3059 RMK AO2 T00281006 $=
202201221053 METAR KPAE 221053Z AUTO 01003KT M1/4SM R16R/0800V1000FT HZ VV001 03/M01 A3059 RMK AO2 SLP365 T00281006 $=
202201221017 SPECI KPAE 221017Z AUTO 36003KT M1/4SM R16R/0800V1200FT HZ VV001 03/M01 A3059 RMK AO2 T00281006 $=
202201220953 METAR KPAE 220953Z AUTO 36004KT 1/4SM R16R/1400V1800FT HZ VV001 03/00 A3059 RMK AO2 SLP363 T00280000 $=
202201220853 METAR KPAE 220853Z AUTO 01006KT 1/4SM R16R/1400V3500FT HZ VV001 04/00 A3059 RMK AO2 SLP362 T00390000 58005 $=
202201220843 SPECI KPAE 220843Z AUTO 01007KT 1/4SM R16R/1600V1800FT HZ VV001 04/00 A3059 RMK AO2 T00390000 $=
202201220834 SPECI KPAE 220834Z AUTO 01007KT 1/4SM R16R/1600V3000FT HZ VV001 04/00 A3059 RMK AO2 T00390000 $=
202201220807 SPECI KPAE 220807Z AUTO 36004KT 1/2SM R16R/2000V6000FT HZ OVC002 04/00 A3060 RMK AO2 T00390000 $=
202201220753 METAR KPAE 220753Z AUTO 36004KT 1/2SM R16R/2800VP6000FT HZ OVC001 04/00 A3060 RMK AO2 SLP366 T00390000 400890033 $=
202201220737 SPECI KPAE 220737Z AUTO 05003KT 1SM R16R/2600VP6000FT HZ BKN001 OVC014 04/00 A3060 RMK AO2 T00390000 $=
202201220728 SPECI KPAE 220728Z AUTO 01003KT 2 1/2SM HZ SCT001 OVC014 04/00 A3060 RMK AO2 T00390000 $=
202201220659 SPECI KPAE 220659Z AUTO 35003KT 10SM BKN014 04/00 A3061 RMK AO2 T00390000 $=
202201220653 METAR KPAE 220653Z AUTO 34003KT 10SM SCT015 03/00 A3061 RMK AO2 SLP370 T00330000 $=
202201220553 METAR KPAE 220553Z AUTO 01003KT 10SM OVC019 04/M01 A3060 RMK AO2 SLP367 T00391006 10078 20033 58008 $=
202201220522 SPECI KPAE 220522Z AUTO 01004KT 10SM BKN020 03/03 A3061 RMK AO2 T00330033 $=
202201220453 METAR KPAE 220453Z 35003KT 10SM CLR 04/00 A3061 RMK AO2 SLP369 T00390000=
202201220353 METAR KPAE 220353Z 34003KT 10SM CLR 04/04 A3062 RMK AO2 SLP374 T00390039=
202201220253 METAR KPAE 220253Z 35003KT 10SM CLR 04/04 A3063 RMK AO2 SLP375 T00440039 58005=
202201220153 METAR KPAE 220153Z 36004KT 10SM CLR 05/04 A3064 RMK AO2 SLP379 T00500039=
202201220053 METAR KPAE 220053Z 01003KT 10SM CLR 06/04 A3064 RMK AO2 SLP380 T00610039=
202201212353 METAR KPAE 212353Z AUTO 05004KT 10SM SCT019 08/04 A3064 RMK AO2 SLP380 T00780044 10089 20061 53001=
202201212256 SPECI KPAE 212256Z 35005KT 10SM BKN019 08/05 A3064 RMK AO2 T00830050=
202201212253 METAR KPAE 212253Z 33004KT 10SM SCT031 08/05 A3064 RMK AO2 SLP378 T00830050=
202201212153 METAR KPAE 212153Z 00000KT 10SM OVC031 08/04 A3064 RMK AO2 SLP378 T00780039=
202201212053 METAR KPAE 212053Z 06003KT 10SM BKN010 OVC031 07/04 A3064 RMK AO2 SLP379 T00720044 58005=
202201212017 SPECI KPAE 212017Z 04004KT 10SM FEW009 BKN029 07/05 A3064 RMK AO2 T00720050=
202201211953 METAR KPAE 211953Z 01004KT 10SM SCT011 SCT023 BKN028 07/04 A3065 RMK AO2 SLP382 T00670044=
202201211901 SPECI KPAE 211901Z 00000KT 10SM BKN011 07/05 A3066 RMK AO2 T00720050=
202201211853 METAR KPAE 211853Z 00000KT 10SM SCT011 07/05 A3066 RMK AO2 SLP387 T00720050=
202201211753 METAR KPAE 211753Z 00000KT 10SM FEW021 06/04 A3065 RMK AO2 SLP384 T00610044 10061 20033 51023=
202201211653 METAR KPAE 211653Z 00000KT 10SM SCT070 04/04 A3064 RMK AO2 SLP380 T00440039=
202201211553 METAR KPAE 211553Z 00000KT 10SM CLR 04/04 A3061 RMK AO2 SLP369 T00440039=
202201211520 SPECI KPAE 211520Z 31003KT 10SM SCT014 04/04 A3060 RMK AO2 T00440039=
202201211453 METAR KPAE 211453Z 00000KT 10SM BKN014 04/03 A3058 RMK AO2 SLP360 T00390033 51006=
202201211353 METAR KPAE 211353Z AUTO 00000KT 10SM SCT010 05/04 A3058 RMK AO2 SLP359 T00500039=
202201211253 METAR KPAE 211253Z AUTO 34003KT 10SM OVC012 06/04 A3059 RMK AO2 SLP363 T00560044=
202201211216 SPECI KPAE 211216Z AUTO 34003KT 10SM OVC014 06/04 A3057 RMK AO2 T00560044=
202201211153 METAR KPAE 211153Z AUTO 33003KT 10SM OVC015 06/04 A3057 RMK AO2 SLP354 60000 70026 T00610044 10067 20056 50020=
202201211053 METAR KPAE 211053Z AUTO 33003KT 10SM BKN017 OVC023 06/05 A3058 RMK AO2 SLP359 T00610050=
202201210953 METAR KPAE 210953Z AUTO 00000KT 10SM FEW018 BKN023 OVC034 06/05 A3055 RMK AO2 RAB24E33 SLP349 P0000 T00560050=
202201210930 SPECI KPAE 210930Z AUTO 00000KT 8SM -RA FEW010 BKN018 OVC030 06/06 A3054 RMK AO2 RAB24 P0000 T00610056=
202201210904 SPECI KPAE 210904Z AUTO 19003KT 10SM OVC030 06/05 A3051 RMK AO2 T00610050=
202201210853 METAR KPAE 210853Z AUTO 18004KT 10SM OVC029 06/05 A3050 RMK AO2 SLP333 T00610050 51020=
202201210844 SPECI KPAE 210844Z AUTO 18004KT 10SM OVC029 06/05 A3050 RMK AO2 T00610050=
202201210831 SPECI KPAE 210831Z AUTO 17003KT 10SM FEW010 OVC030 06/05 A3051 RMK AO2 T00610050=
202201210759 SPECI KPAE 210759Z AUTO 18004KT 10SM SCT010 BKN022 OVC028 06/05 A3050 RMK AO2 T00610050=
202201210753 METAR KPAE 210753Z AUTO 17003KT 10SM BKN009 BKN021 OVC027 06/05 A3050 RMK AO2 CIG 008V015 SLP331 T00610050 401110061=
202201210727 SPECI KPAE 210727Z AUTO 15004KT 10SM BKN009 OVC021 07/05 A3048 RMK AO2 T00670050=
202201210706 SPECI KPAE 210706Z AUTO 00000KT 10SM FEW009 BKN023 OVC029 07/05 A3048 RMK AO2 T00670050=
202201210653 METAR KPAE 210653Z AUTO 17003KT 10SM BKN022 OVC030 07/05 A3046 RMK AO2 SLP318 T00670050=
202201210553 METAR KPAE 210553Z AUTO VRB03KT 10SM FEW008 BKN024 OVC030 07/05 A3045 RMK AO2 SLP312 60001 T00670050 10078 20061 51027=
202201210543 SPECI KPAE 210543Z AUTO 11004KT 10SM FEW008 BKN022 OVC029 07/05 A3044 RMK AO2 T00670050=
202201210502 SPECI KPAE 210502Z AUTO 00000KT 10SM SCT021 BKN029 OVC035 07/05 A3043 RMK AO2 T00670050=
202201210453 METAR KPAE 210453Z 10004KT 10SM SCT021 OVC031 07/05 A3043 RMK AO2 SLP306 T00670050=
202201210438 SPECI KPAE 210438Z 12004KT 10SM BKN021 OVC031 07/05 A3042 RMK AO2 T00670050=
202201210353 METAR KPAE 210353Z 10SM FEW025 SCT060 BKN070 07/04 A3039 RMK AO2 SLP294 T00670039=
202201210253 METAR KPAE 210253Z 00000KT 10SM OVC060 08/03 A3036 RMK AO2 SLP284 60001 T00780033 53029=
202201210153 METAR KPAE 210153Z VRB03KT 10SM OVC055 07/03 A3032 RMK AO2 SLP269 T00720033=
202201210053 METAR KPAE 210053Z VRB04KT 10SM BKN060 OVC070 07/03 A3030 RMK AO2 RAE23 SLP261 P0001 T00720033=
202201210019 SPECI KPAE 210019Z 33007KT 10SM -RA FEW025 BKN050 OVC055 07/04 A3028 RMK AO2 LTG DSNT S P0001 T00720039=
202201202358 SPECI KPAE 202358Z 30005KT 7SM -RA FEW004 BKN009 07/04 A3028 RMK AO2 P0000 T00720044=
202201202355 SPECI KPAE 202355Z 30008KT 7SM -RA SCT009 OVC024 07/04 A3028 RMK AO2 P0000 T00720044=
202201202353 METAR KPAE 202353Z VRB06KT 1 3/4SM -RA BR BKN007 OVC019 07/05 A3028 RMK AO2 SLP254 P0004 60012 T00720050 10100 20067 53019=
202201202255 SPECI KPAE 202255Z 34006KT 1 3/4SM -RA BR BKN008 OVC019 07/07 A3024 RMK AO2 P0000 T00720067=
202201202253 METAR KPAE 202253Z 35007KT 2SM -RA BR BKN006 OVC019 07/07 A3024 RMK AO2 RAB35 SLP241 P0005 T00720067=
202201202207 SPECI KPAE 202207Z 34004KT 2SM BR OVC005 08/07 A3023 RMK AO2 CIG 003V007 T00780072=
202201202153 METAR KPAE 202153Z 36005KT 1 1/4SM BR OVC004 08/07 A3022 RMK AO2 CIG 003V007 SLP235 T00780072=
202201202120 SPECI KPAE 202120Z 35007KT 2SM BR OVC006 08/07 A3023 RMK AO2 T00780072=
202201202053 METAR KPAE 202053Z 36005KT 9SM BKN008 OVC011 08/07 A3022 RMK AO2 SLP235 60003 T00830072 51007=
202201201953 METAR KPAE 201953Z 34005KT 10SM BKN008 OVC036 09/08 A3022 RMK AO2 SLP235 T00940078=
202201201857 SPECI KPAE 201857Z 01006KT 3SM BR BKN004 OVC014 10/09 A3020 RMK AO2 T01000094=
202201201853 METAR KPAE 201853Z 36005KT 1 1/2SM BR FEW002 BKN009 OVC014 10/09 A3020 RMK AO2 RAE30 SLP229 P0003 T01000094=
202201201841 SPECI KPAE 201841Z 35005KT 1 1/2SM R16R/6000VP6000FT BR SCT002 OVC010 09/09 A3020 RMK AO2 RAE30 P0003 T00940094=
202201201753 METAR KPAE 201753Z 28005KT 1SM R16R/3500VP6000FT -RA BR BKN004 OVC007 10/09 A3020 RMK AO2 RAB14E31B47 SLP228 P0002 60013 T01000094 10111 20100 51042=
202201201722 SPECI KPAE 201722Z 21010KT 2SM R16R/6000VP6000FT -RA BR BKN006 OVC011 10/09 A3017 RMK AO2 RAB14 P0000 T01000094=
202201201653 METAR KPAE 201653Z 22010KT 10SM OVC007 10/09 A3016 RMK AO2 RAB02E12 SLP215 P0000 T01000094=
202201201553 METAR KPAE 201553Z 20014G22KT 10SM OVC006 10/09 A3014 RMK AO2 RAE07 CIG 005V010 SLP208 P0001 T01000094=
202201201453 METAR KPAE 201453Z 16015G25KT 7SM -RA BKN008 OVC050 11/09 A3007 RMK AO2 PRESFR SLP185 P0004 60010 T01060094 58019=
202201201353 METAR KPAE 201353Z AUTO 21014G22KT 4SM -RA BR OVC009 11/10 A3014 RMK AO2 RAB04 CIG 006V011 SLP208 P0006 T01060100=
202201201253 METAR KPAE 201253Z AUTO 20017G25KT 10SM OVC007 11/09 A3012 RMK AO2 PK WND 18029/1203 SLP200 T01060094=
202201201153 METAR KPAE 201153Z AUTO 18015G27KT 10SM OVC005 10/09 A3013 RMK AO2 PK WND 17030/1124 RAB27E39 SLP204 P0000 60015 70018 T01000094 10100 20083 57020=
202201201146 SPECI KPAE 201146Z AUTO 19019G27KT 10SM OVC005 10/09 A3013 RMK AO2 PK WND 17030/1124 RAB27E39 CIG 003V008 P0000 T01000094=
202201201053 METAR KPAE 201053Z AUTO 17014G23KT 4SM BR OVC003 09/09 A3015 RMK AO2 PK WND 15026/1023 SLP211 T00940089=
202201200953 METAR KPAE 200953Z AUTO 17015G26KT 7SM OVC003 09/09 A3017 RMK AO2 PK WND 15026/0949 RAE0857B20E34 SLP217 P0000 T00940089=
202201200853 METAR KPAE 200853Z AUTO 15013G19KT 6SM -RA BR OVC003 09/08 A3019 RMK AO2 CIG 002V007 SLP224 P0003 60015 T00890083 58011=
202201200753 METAR KPAE 200753Z AUTO 17009G18KT 4SM -RA BR BKN004 OVC009 08/08 A3020 RMK AO2 CIG 003V006 SLP229 P0007 T00830083 401000061=
202201200704 SPECI KPAE 200704Z AUTO 15012KT 4SM -RA BR BKN005 OVC010 08/08 A3021 RMK AO2 CIG 004V008 P0001 T00830078=
202201200653 METAR KPAE 200653Z AUTO 15011G17KT 3SM -RA BR SCT005 OVC010 08/08 A3021 RMK AO2 RAB01 CIG 007V012 SLP233 P0005 T00830078=
202201200648 SPECI KPAE 200648Z AUTO 14008G15KT 3SM -RA BR SCT005 OVC010 08/08 A3021 RMK AO2 RAB01 CIG 007V012 P0004=
202201200616 SPECI KPAE 200616Z AUTO 14009KT 2 1/2SM -RA BR SCT005 OVC012 08/08 A3022 RMK AO2 RAB01 P0001 T00830078=
202201200602 SPECI KPAE 200602Z AUTO 14009G15KT 1 3/4SM -RA BR SCT003 OVC012 08/08 A3022 RMK AO2 RAB01 P0000 T00830078=
202201200553 METAR KPAE 200553Z AUTO 14009G14KT 2SM BR BKN003 OVC012 08/08 A3022 RMK AO2 SLP237 60003 T00830078 10100 20078 58007=
202201200540 SPECI KPAE 200540Z AUTO VRB06G14KT 1 3/4SM BR BKN004 OVC012 08/08 A3022 RMK AO2 CIG 003V008 T00830078=
202201200500 SPECI KPAE 200500Z AUTO 15008KT 2SM BR BKN004 OVC011 08/08 A3023 RMK AO2 T00830078=
202201200453 METAR KPAE 200453Z AUTO 15008KT 2SM BR OVC015 08/08 A3023 RMK AO2 RAE11 SLP239 P0001 T00830078=
202201200435 SPECI KPAE 200435Z 15010G16KT 2SM BR OVC015 08/08 A3023 RMK AO2 RAE11 P0001 T00830078=
202201200428 SPECI KPAE 200428Z 14007KT 2 1/2SM BR FEW004 OVC013 08/08 A3024 RMK AO2 RAE11 P0001 T00830078=
202201200417 SPECI KPAE 200417Z 12006KT 2 1/2SM BR FEW004 OVC015 08/08 A3024 RMK AO2 RAE11 P0001 T00830078=
202201200353 METAR KPAE 200353Z VRB05KT 5SM -RA BR OVC016 08/08 A3024 RMK AO2 SLP244 P0001 T00830078=
202201200253 METAR KPAE 200253Z VRB06KT 10SM -RA BKN019 OVC025 09/07 A3024 RMK AO2 RAB0157 SLP244 P0001 60001 T00890067 58005=
202201200153 METAR KPAE 200153Z 14007KT 10SM OVC023 09/06 A3026 RMK AO2 RAB12E30 SLP248 P0000 T00940056=
202201200053 METAR KPAE 200053Z 14008KT 10SM OVC027 09/06 A3025 RMK AO2 SLP247 T00940056=
202201192353 METAR KPAE 192353Z 14004KT 10SM OVC027 09/06 A3026 RMK AO2 SLP249 T00940056 10094 20072 56010=
202201192253 METAR KPAE 192253Z 14007KT 10SM BKN026 OVC033 09/06 A3027 RMK AO2 SLP253 T00890061=
202201192153 METAR KPAE 192153Z 14007KT 10SM SCT010 OVC026 08/06 A3027 RMK AO2 SLP252 T00830061=
202201192053 METAR KPAE 192053Z 16008KT 10SM OVC029 09/06 A3029 RMK AO2 SLP259 T00890056 58005=
202201191953 METAR KPAE 191953Z VRB03KT 10SM BKN034 09/05 A3030 RMK AO2 SLP261 T00890050=
202201191853 METAR KPAE 191853Z 15005KT 10SM CLR 08/05 A3031 RMK AO2 SLP264 T00830050=
202201191753 METAR KPAE 191753Z VRB04KT 10SM OVC110 07/06 A3030 RMK AO2 SLP265 T00720056 10072 20061 51009=
202201191731 SPECI KPAE 191731Z VRB04KT 10SM SCT029 OVC110 07/06 A3030 RMK AO2 T00670056=
202201191653 METAR KPAE 191653Z 16004KT 10SM OVC028 07/06 A3030 RMK AO2 SLP264 T00670056=
202201191553 METAR KPAE 191553Z 00000KT 10SM BKN029 BKN110 06/06 A3029 RMK AO2 SLP259 T00610056=
202201191453 METAR KPAE 191453Z 11005KT 10SM BKN060 BKN100 BKN120 07/06 A3028 RMK AO2 SLP256 T00670056 53003=
202201191436 SPECI KPAE 191436Z AUTO 13003KT 10SM SCT027 BKN060 OVC120 07/06 A3028 RMK AO2 T00670056=
202201191353 METAR KPAE 191353Z AUTO 15007KT 10SM OVC023 07/06 A3028 RMK AO2 SLP255 T00720056=
202201191312 SPECI KPAE 191312Z AUTO VRB03KT 10SM BKN024 OVC037 07/06 A3027 RMK AO2 T00720061=
202201191253 METAR KPAE 191253Z AUTO 15006KT 10SM OVC036 07/06 A3027 RMK AO2 SLP252 T00720061=
202201191153 METAR KPAE 191153Z AUTO VRB04KT 10SM SCT060 07/06 A3027 RMK AO2 SLP253 70006 T00720061 10078 20072 51008=
202201191138 SPECI KPAE 191138Z AUTO 14006KT 8SM SCT018 BKN060 07/07 A3027 RMK AO2 T00720067=
202201191108 SPECI KPAE 191108Z AUTO 15007KT 9SM FEW008 BKN017 OVC034 07/07 A3027 RMK AO2 T00720067=
202201191053 METAR KPAE 191053Z AUTO 15007KT 9SM SCT005 BKN010 OVC034 07/07 A3027 RMK AO2 CIG 009V014 SLP252 T00720067=
202201191051 SPECI KPAE 191051Z AUTO 15006KT 9SM SCT005 BKN010 OVC032 07/07 A3027 RMK AO2=
202201190953 METAR KPAE 190953Z AUTO 15006KT 8SM OVC006 08/07 A3024 RMK AO2 CIG 004V009 SLP245 T00780067=
202201190920 SPECI KPAE 190920Z AUTO 15005KT 7SM OVC007 08/07 A3024 RMK AO2 CIG 003V009 T00780067=
202201190903 SPECI KPAE 190903Z AUTO 16007KT 6SM BR OVC004 07/07 A3024 RMK AO2 T00720067=
202201190853 METAR KPAE 190853Z AUTO 15006KT 6SM BR OVC005 07/07 A3023 RMK AO2 CIG 003V008 SLP241 T00720067 53004=
202201190753 METAR KPAE 190753Z AUTO 16006KT 6SM BR BKN005 OVC035 07/07 A3022 RMK AO2 SLP236 T00720067 400780067=
202201190653 METAR KPAE 190653Z AUTO 17004KT 6SM BR OVC006 08/07 A3022 RMK AO2 CIG 005V011 SLP237 T00780072=
202201190650 SPECI KPAE 190650Z AUTO 16005KT 6SM BR BKN006 OVC012 08/07 A3022 RMK AO2 CIG 005V010=
202201190620 SPECI KPAE 190620Z AUTO 15005KT 5SM BR SCT003 OVC010 08/07 A3021 RMK AO2 CIG 006V011 T00780072=
202201190553 METAR KPAE 190553Z AUTO 15006KT 4SM BR OVC003 07/07 A3020 RMK AO2 SLP231 60000 T00720072 10078 20072 50007=
202201190453 METAR KPAE 190453Z AUTO 16005KT 5SM BR OVC004 07/07 A3020 RMK AO2 SLP231 T00720067=
202201190411 SPECI KPAE 190411Z 16005KT 6SM BR BKN004 BKN014 OVC048 07/07 A3020 RMK AO2 T00720067=
202201190353 METAR KPAE 190353Z 15004KT 8SM FEW004 OVC047 07/07 A3019 RMK AO2 SLP226 T00720067=
202201190253 METAR KPAE 190253Z 15004KT 10SM SCT013 SCT047 OVC070 07/07 A3018 RMK AO2 SLP223 60000 T00720067 51008=
202201190153 METAR KPAE 190153Z 14003KT 10SM OVC010 07/06 A3018 RMK AO2 CIG 006V013 SLP222 T00720061=
202201190053 METAR KPAE 190053Z 15003KT 10SM OVC013 08/06 A3017 RMK AO2 RAB35E46 SLP218 P0000 T00780061=
202201190029 SPECI KPAE 190029Z 00000KT 10SM OVC013 08/06 A3017 RMK AO2 T00780061=
202201182353 METAR KPAE 182353Z 00000KT 10SM BKN005 OVC009 08/06 A3016 RMK AO2 RAB15E26 SLP215 P0000 60000 T00780061 10078 20067 53011=
202201182327 METAR KPAE 182327Z COR 16004KT 8SM BKN005 OVC009 08/06 A3015 RMK AO2 CIG 007V015 SLP212 T00780061=
202201182253 METAR KPAE 182253Z 16004KT 10SM OVC009 08/06 A3015 RMK AO2 CIG 007V015 SLP212 T00780061=
202201182200 SPECI KPAE 182200Z 17005KT 10SM OVC008 07/06 A3012 RMK AO2 T00720061=
202201182153 METAR KPAE 182153Z 16005KT 10SM BKN004 OVC008 07/06 A3012 RMK AO2 SLP203 T00720061=
202201182102 SPECI KPAE 182102Z 16004KT 10SM BKN004 OVC008 08/06 A3012 RMK AO2 T00780061=
202201182053 METAR KPAE 182053Z 19005KT 10SM OVC008 07/07 A3012 RMK AO2 CIG 005V010 SLP203 T00720067 51007=
202201181953 METAR KPAE 181953Z 16006KT 9SM OVC006 07/06 A3012 RMK AO2 CIG 005V010 SLP203 T00720061 $=
202201181853 METAR KPAE 181853Z 16007KT 10SM OVC007 07/07 A3011 RMK AO2 SLP200 T00720067 $=
202201181826 SPECI KPAE 181826Z 17006KT 4SM BR BKN005 OVC009 07/06 A3011 RMK AO2 T00670061 $=
202201181812 SPECI KPAE 181812Z 15005KT 2SM BR OVC005 07/06 A3011 RMK AO2 CIG 003V008 T00670061 $=
202201181753 METAR KPAE 181753Z 15006KT 1 1/2SM BR OVC005 07/06 A3010 RMK AO2 RAE14 SLP197 P0002 60006 T00670061 10072 20067 53017 $=
202201181736 SPECI KPAE 181736Z 17004KT 1 3/4SM BR OVC005 07/06 A3010 RMK AO2 RAE14 P0001 T00670061 $=
202201181715 SPECI KPAE 181715Z 16005KT 2SM BR OVC005 07/06 A3010 RMK AO2 RAE14 CIG 003V008 P0001 T00670061 $=
202201181703 SPECI KPAE 181703Z 18006KT 1 1/2SM -RA BR OVC006 07/06 A3009 RMK AO2 CIG 003V007 P0001 T00670061 $=
202201181653 METAR KPAE 181653Z 18004KT 2 1/2SM -RA BR OVC006 07/06 A3009 RMK AO2 CIG 004V009 SLP191 P0002 T00670061 $=
202201181611 SPECI KPAE 181611Z 18010KT 3SM -RA BR OVC007 07/06 A3007 RMK AO2 P0001 T00670061 $=
202201181602 SPECI KPAE 181602Z 18009KT 2 1/2SM -RA BR OVC007 07/06 A3006 RMK AO2 CIG 005V010 P0001 T00670061 $=
202201181553 METAR KPAE 181553Z 18010KT 3SM -RA BR OVC007 07/06 A3006 RMK AO2 RAB15 CIG 005V010 SLP183 P0001 T00670061 $=
202201181537 SPECI KPAE 181537Z 18010KT 5SM -RA BR OVC009 07/06 A3006 RMK AO2 RAB15 P0001 T00670056 $=
202201181525 SPECI KPAE 181525Z 18010KT 6SM -RA BR BKN010 OVC014 07/06 A3006 RMK AO2 RAB15 P0000 T00670056 $=
202201181515 SPECI KPAE 181515Z 18010KT 10SM -RA SCT010 OVC015 07/06 A3005 RMK AO2 RAB15 P0000 T00670056 $=
202201181453 METAR KPAE 181453Z 18010KT 10SM OVC012 07/06 A3005 RMK AO2 RAE37 SLP179 P0001 60001 T00720056 53013 $=
202201181427 SPECI KPAE 181427Z AUTO 18011KT 10SM -RA OVC011 07/06 A3004 RMK AO2 P0001 T00720056 $=
202201181353 METAR KPAE 181353Z AUTO 18011KT 10SM -RA OVC008 07/06 A3003 RMK AO2 RAB37 SLP172 P0000 T00720061 $=
202201181253 METAR KPAE 181253Z AUTO 19011KT 10SM BKN005 OVC012 07/06 A3001 RMK AO2 RAB15E30 CIG 004V010 SLP166 P0000 T00720061 $=
202201181248 SPECI KPAE 181248Z AUTO 18011KT 10SM OVC005 07/07 A3001 RMK AO2 RAB15E30 CIG 004V008 P0000 $=
202201181234 SPECI KPAE 181234Z AUTO 19010KT 10SM OVC004 07/07 A3001 RMK AO2 RAB15E30 P0000 T00720067 $=
202201181153 METAR KPAE 181153Z AUTO 19009KT 10SM OVC005 07/07 A2999 RMK AO2 RAB29E49 SLP159 P0001 60001 70001 T00720067 10078 20072 50004 $=
202201181053 METAR KPAE 181053Z AUTO 18011KT 10SM OVC006 07/07 A3000 RMK AO2 SLP161 T00720067 $=
202201180953 METAR KPAE 180953Z AUTO 16010KT 10SM OVC005 07/07 A2999 RMK AO2 RAB04E13 CIG 004V008 SLP159 P0000 T00720067 $=
202201180853 METAR KPAE 180853Z AUTO 16010KT 10SM OVC005 07/06 A2998 RMK AO2 RAB40E49 SLP156 P0000 60000 T00720061 53002 $=
202201180753 METAR KPAE 180753Z AUTO 17009KT 10SM OVC005 07/06 A2998 RMK AO2 RAB15E27 SLP154 P0000 T00720061 400780028 $=
202201180653 METAR KPAE 180653Z AUTO 15010KT 10SM OVC008 07/06 A2998 RMK AO2 CIG 006V010 SLP155 T00720061 $=
202201180608 SPECI KPAE 180608Z AUTO 14007KT 10SM OVC010 08/06 A2998 RMK AO2 T00780061 $=
202201180553 METAR KPAE 180553Z AUTO 16008KT 10SM OVC009 08/06 A2998 RMK AO2 SLP154 T00780061 10078 20056 57004 $=
202201180453 METAR KPAE 180453Z AUTO 16008KT 10SM OVC009 08/06 A2998 RMK AO2 CIG 007V010 SLP155 T00780056 $=
202201180353 METAR KPAE 180353Z 00000KT 10SM OVC013 07/04 A2999 RMK AO2 SLP157 T00720044 $=
202201180253 METAR KPAE 180253Z 00000KT 10SM OVC014 08/04 A2999 RMK AO2 SLP158 T00780044 58001 $=
202201180153 METAR KPAE 180153Z 16005KT 10SM OVC015 07/03 A2999 RMK AO2 SLP159 T00720033 $=
202201180053 METAR KPAE 180053Z 00000KT 10SM BKN016 OVC080 06/04 A2999 RMK AO2 SLP160 T00610044 $=
202201180046 SPECI KPAE 180046Z 00000KT 10SM BKN016 OVC080 06/04 A2999 RMK AO2 T00610044 $=
202201172353 METAR KPAE 172353Z 28004KT 10SM OVC080 06/04 A2999 RMK AO2 SLP160 T00560044 10067 20039 56005 $=
202201172253 METAR KPAE 172253Z 19006KT 10SM SCT012 OVC075 06/04 A3000 RMK AO2 SLP163 T00610039 $=
202201172153 METAR KPAE 172153Z 19009KT 7SM SCT009 BKN080 06/04 A2999 RMK AO2 SLP159 T00560039 $=
202201172053 METAR KPAE 172053Z 16007KT 3SM BR OVC007 06/04 A3001 RMK AO2 SLP165 T00560039 58015 $=
202201172031 SPECI KPAE 172031Z 16006KT 3/4SM R16R/P6000FT FG BKN006 OVC065 04/04 A3002 RMK AO2 CIG 002V009 T00440039 $=
202201171953 METAR KPAE 171953Z 21008KT 3/4SM R16R/P6000FT FG OVC003 04/04 A3004 RMK AO2 SLP175 T00440039 $=
202201171919 SPECI KPAE 171919Z 17007KT 3/4SM R16R/P6000FT FG OVC002 04/04 A3004 RMK AO2 T00440044 $=
202201171857 SPECI KPAE 171857Z 16005KT 1/4SM R16R/3500VP6000FT FG OVC001 04/04 A3005 RMK AO2 T00440044 $=
202201171853 METAR KPAE 171853Z 17007KT 1/4SM R16R/3500VP6000FT FG OVC002 04/04 A3005 RMK AO2 SLP180 T00440044 $=
202201171843 SPECI KPAE 171843Z 15007KT 1/2SM R16R/2400V4500FT FG VV002 04/04 A3005 RMK AO2 T00440044 $=
202201171812 SPECI KPAE 171812Z 15007KT 1/4SM R16R/2000V3500FT FG VV002 04/04 A3005 RMK AO2 T00390039 $=
202201171753 METAR KPAE 171753Z 18005KT 1/4SM R16R/1400V1600FT FG VV001 04/04 A3005 RMK AO2 SLP181 T00390039 10039 20028 51010 $=
202201171725 SPECI KPAE 171725Z 00000KT M1/4SM R16R/1200FT FG VV001 04/04 A3004 RMK AO2 T00390039 $=
202201171718 SPECI KPAE 171718Z 16008KT 1/4SM R16R/1200V1400FT FG VV001 04/04 A3003 RMK AO2 T00390039 $=
202201171712 SPECI KPAE 171712Z 15008KT 1/4SM R16R/1200V3500FT FG OVC002 03/03 A3002 RMK AO2 PRESFR T00330033 $=
202201171707 SPECI KPAE 171707Z 15009KT 1 3/4SM R16R/1600V5500FT BR OVC002 04/04 A3003 RMK AO2 T00390039 $=
202201171658 SPECI KPAE 171658Z 16006KT 3SM R16R/5500VP6000FT BR OVC002 04/04 A3004 RMK AO2 T00390039 $=
202201171653 METAR KPAE 171653Z 19005KT 1/4SM R16R/4000VP6000FT FG OVC002 04/04 A3005 RMK AO2 SLP181 T00390039 $=
202201171621 SPECI KPAE 171621Z 17003KT 1/4SM R16R/4000VP6000FT FG OVC002 03/03 A3003 RMK AO2 T00330033 $=
202201171553 METAR KPAE 171553Z 00000KT 1/2SM R16R/2400V3000FT FG VV002 03/03 A3002 RMK AO2 SLP171 T00330033 $=
202201171549 SPECI KPAE 171549Z 00000KT 1/4SM R16R/2400V3000FT FG VV002 03/03 A3003 RMK AO2 $=
202201171534 SPECI KPAE 171534Z 21003KT 1/4SM R16R/1800V2600FT FG VV001 03/03 A3003 RMK AO2 T00330033 $=
202201171526 SPECI KPAE 171526Z 19004KT 1/4SM R16R/1600V2200FT FG VV001 03/03 A3002 RMK AO2 T00330033 $=
202201171521 SPECI KPAE 171521Z 17004KT 1/2SM R16R/1600V2800FT FG VV001 03/03 A3002 RMK AO2 T00330033 $=
202201171453 METAR KPAE 171453Z 15006KT 1/4SM R16R/1400V1800FT FG VV001 03/03 A3002 RMK AO2 SLP170 T00330033 58002 $=
202201171403 SPECI KPAE 171403Z AUTO 00000KT 1/4SM R16R/1200V1800FT FG VV001 03/03 A3003 RMK AO2 T00330033 $=
202201171353 METAR KPAE 171353Z AUTO 00000KT 1/4SM R16R/1600V2600FT FG VV001 03/03 A3003 RMK AO2 SLP175 T00330033 $=
202201171349 SPECI KPAE 171349Z AUTO 00000KT 1/4SM R16R/1800V3000FT FG VV001 03/03 A3003 RMK AO2 $=
202201171338 SPECI KPAE 171338Z AUTO 00000KT 1/2SM R16R/3000V4000FT FG VV001 03/03 A3004 RMK AO2 T00330033 $=
202201171328 SPECI KPAE 171328Z AUTO 00000KT 1 1/4SM R16R/4000V5000FT BR OVC002 03/03 A3003 RMK AO2 T00330033 $=
202201171319 SPECI KPAE 171319Z AUTO 00000KT 3/4SM R16R/3500V5000FT BR OVC002 03/03 A3003 RMK AO2 T00330033 $=
202201171309 SPECI KPAE 171309Z AUTO 18003KT 1/2SM R16R/2400V4000FT FG OVC001 03/03 A3003 RMK AO2 T00330033 $=
202201171253 METAR KPAE 171253Z AUTO 19003KT 1 1/2SM R16R/3000V6000FT BR OVC001 03/03 A3003 RMK AO2 SLP172 T00280028 $=
202201171217 SPECI KPAE 171217Z AUTO 10004KT 1 1/4SM R16R/3000V4000FT BR OVC001 03/03 A3002 RMK AO2 T00330033 $=
202201171202 SPECI KPAE 171202Z AUTO 15004KT 1SM R16R/2800V3500FT BR OVC002 03/03 A3003 RMK AO2 T00280028 $=
202201171153 METAR KPAE 171153Z AUTO 17003KT 3/4SM R16R/2800V3000FT BR VV002 03/03 A3004 RMK AO2 SLP176 T00330033 10033 20028 56015 $=
202201171143 SPECI KPAE 171143Z AUTO 16004KT 1/2SM R16R/1600V2400FT FG VV002 03/03 A3003 RMK AO2 T00330033 $=
202201171132 SPECI KPAE 171132Z AUTO 00000KT 1/4SM R16R/2400V6000FT FG VV002 03/03 A3004 RMK AO2 T00330033 $=
202201171053 METAR KPAE 171053Z AUTO 00000KT 1 1/4SM R16R/3500VP6000FT BR OVC002 03/03 A3005 RMK AO2 SLP182 T00330033 $=
202201171016 SPECI KPAE 171016Z AUTO 00000KT 1/4SM R16R/2200V2800FT FG VV002 03/03 A3006 RMK AO2 T00330033 $=
202201171003 SPECI KPAE 171003Z AUTO 00000KT 1/4SM R16R/1800V2400FT FG VV001 03/03 A3006 RMK AO2 T00280028 $=
202201170953 METAR KPAE 170953Z AUTO 00000KT 1/2SM R16R/2200V3000FT FG VV001 03/03 A3006 RMK AO2 SLP184 T00280028 $=
202201170944 SPECI KPAE 170944Z AUTO 19003KT 1/4SM R16R/1800V2600FT FG VV001 03/03 A3006 RMK AO2 T00330033 $=
202201170932 SPECI KPAE 170932Z AUTO 00000KT 1/4SM R16R/1400V1800FT FG VV002 03/03 A3007 RMK AO2 T00280028 $=
202201170922 SPECI KPAE 170922Z AUTO 00000KT 1/4SM R16R/1400V2600FT FG VV002 03/03 A3007 RMK AO2 T00280028 $=
202201170904 SPECI KPAE 170904Z AUTO 15003KT 1/4SM R16R/1600V2400FT FG VV001 03/03 A3008 RMK AO2 T00280028 $=
202201170853 METAR KPAE 170853Z AUTO 00000KT 1/4SM R16R/1400V1800FT FG VV001 03/03 A3008 RMK AO2 SLP191 T00280028 56012 $=
202201170819 SPECI KPAE 170819Z AUTO 19003KT 1/4SM R16R/1600V2200FT FG VV001 03/03 A3008 RMK AO2 T00280028 $=
202201170809 SPECI KPAE 170809Z AUTO 15005KT 1/2SM R16R/2200V3000FT FG VV002 03/03 A3009 RMK AO2 T00280028 $=
202201170753 METAR KPAE 170753Z AUTO 00000KT 1/4SM R16R/2800V4000FT FG VV001 03/03 A3009 RMK AO2 SLP194 T00330033 400560028 $=
202201170735 SPECI KPAE 170735Z AUTO 15006KT 1/2SM R16R/2000V3500FT FG VV001 03/03 A3009 RMK AO2 T00280028 $=
202201170653 METAR KPAE 170653Z AUTO 15008KT 1/4SM R16R/1200V1400FT FG VV001 03/03 A3009 RMK AO2 SLP195 T00330033 $=
202201170553 METAR KPAE 170553Z AUTO 00000KT 1/4SM R16R/1200V1800FT FG VV001 03/03 A3012 RMK AO2 SLP203 T00280028 10044 20028 56005 $=
202201170518 SPECI KPAE 170518Z AUTO 00000KT 1/4SM R16R/1600V2000FT FG VV001 03/03 A3012 RMK AO2 T00280028 $=
202201170510 SPECI KPAE 170510Z AUTO 15003KT 1/4SM R16R/1600V3500FT FG VV001 03/03 A3012 RMK AO2 T00280028 $=
202201170453 METAR KPAE 170453Z 00000KT 3/4SM R16R/1800V3500FT BR OVC002 03/03 A3012 RMK AO2 SLP204 T00280028 $=
202201170353 METAR KPAE 170353Z 00000KT 1/4SM R16R/1200V1400FT FG VV001 03/03 A3013 RMK AO2 SLP208 T00330033 $=
202201170253 METAR KPAE 170253Z 00000KT 1/4SM R16R/1000V1400FT FG VV001 03/03 A3013 RMK AO2 SLP208 T00330033 58008 $=
202201170205 SPECI KPAE 170205Z 00000KT 1/4SM R16R/1600V2000FT FG VV001 04/04 A3015 RMK AO2 T00390039 $=
202201170153 METAR KPAE 170153Z 00000KT 1/4SM R16R/1400V1800FT FG VV002 04/04 A3015 RMK AO2 SLP214 T00390039 $=
202201170148 SPECI KPAE 170148Z 00000KT 1/4SM R16R/1400V1800FT FG VV002 04/04 A3015 RMK AO2 $=
202201170116 SPECI KPAE 170116Z 00000KT 1/4SM R16R/2800VP6000FT FG OVC002 04/04 A3016 RMK AO2 T00390039 $=
202201170100 SPECI KPAE 170100Z 00000KT 1/4SM R16R/5000VP6000FT FG OVC001 04/04 A3016 RMK AO2 T00390039 $=
202201170053 METAR KPAE 170053Z 00000KT 1/4SM R16R/4500VP6000FT FG VV002 04/04 A3016 RMK AO2 SLP217 T00390039 $=
202201170037 SPECI KPAE 170037Z 00000KT 1/4SM R16R/1400VP6000FT FG VV002 04/04 A3017 RMK AO2 T00440039 $=
202201170010 SPECI KPAE 170010Z 31004KT 1/4SM R16R/1000V1600FT FG VV002 04/04 A3018 RMK AO2 T00390039 $=
202201162353 METAR KPAE 162353Z 28003KT 1/4SM R16R/2000VP6000FT FG OVC002 04/04 A3016 RMK AO2 SLP216 T00440044 10056 20033 56004 $=
202201162348 SPECI KPAE 162348Z AUTO 27003KT 1/4SM R16R/1600V4000FT FG OVC002 04/04 A3016 RMK AO2 $=
202201162326 SPECI KPAE 162326Z 25003KT 1/4SM R16R/1400V1800FT FG VV002 04/04 A3017 RMK AO2 T00440044 $=
202201162319 SPECI KPAE 162319Z 23003KT 1/2SM R16R/1400V1600FT FG VV001 04/04 A3016 RMK AO2 T00440044 $=
202201162300 SPECI KPAE 162300Z 00000KT 1/4SM R16R/1000V1800FT FG VV001 04/04 A3016 RMK AO2 T00440044 $=
202201162253 METAR KPAE 162253Z 25003KT 1/2SM R16R/1000V1800FT FG VV001 04/04 A3017 RMK AO2 SLP219 T00440044 $=
202201162240 SPECI KPAE 162240Z 27004KT 1/2SM R16R/1000V1600FT FG VV001 04/04 A3017 RMK AO2 T00440039 $=
202201162227 SPECI KPAE 162227Z 27003KT 1/2SM R16R/3000VP6000FT FG OVC004 04/04 A3017 RMK AO2 CIG 001V006 T00440039 $=
202201162153 METAR KPAE 162153Z 23005KT 5SM BR OVC005 05/04 A3017 RMK AO2 SLP221 T00500044 $=
202201162124 SPECI KPAE 162124Z 20005KT 7SM BKN002 BKN080 06/04 A3019 RMK AO2 T00560044 $=
202201162053 METAR KPAE 162053Z 00000KT 5SM BR SCT003 OVC080 05/04 A3020 RMK AO2 SLP230 T00500039 58013 $=
202201162051 SPECI KPAE 162051Z VRB03KT 5SM BR SCT002 OVC080 05/04 A3020 RMK AO2 $=
202201162034 SPECI KPAE 162034Z VRB03KT 2SM BR OVC002 04/04 A3020 RMK AO2 PRESFR T00440039 $=
202201162020 SPECI KPAE 162020Z 00000KT 1/4SM R16R/P6000FT FG OVC002 04/04 A3022 RMK AO2 T00440039 $=
202201161953 METAR KPAE 161953Z VRB03KT 1/4SM R16R/5000VP6000FT FG OVC001 04/04 A3023 RMK AO2 SLP241 T00390039 $=
202201161935 SPECI KPAE 161935Z 00000KT 1/2SM R16R/5500VP6000FT FG VV001 04/04 A3024 RMK AO2 T00390039 $=
202201161927 SPECI KPAE 161927Z 35003KT 1SM R16R/5500VP6000FT BR VV001 04/04 A3024 RMK AO2 T00390039 $=
202201161853 METAR KPAE 161853Z VRB03KT 1SM R16R/P6000FT BR OVC003 04/04 A3024 RMK AO2 SLP244 T00390039 $=
202201161753 METAR KPAE 161753Z 16004KT 1SM R16R/P6000FT BR OVC002 03/03 A3024 RMK AO2 SLP244 T00330033 10039 20033 56010 $=
202201161744 SPECI KPAE 161744Z 16003KT 1SM R16R/P6000FT BR OVC002 03/03 A3024 RMK AO2 T00330033 $=
202201161707 SPECI KPAE 161707Z 20003KT 1/2SM R16R/1800V6000FT FG OVC002 03/03 A3024 RMK AO2 T00330033 $=
202201161700 SPECI KPAE 161700Z 00000KT 2 1/2SM R16R/1800V3500FT BR OVC002 03/03 A3025 RMK AO2 T00330033 $=
202201161653 METAR KPAE 161653Z 00000KT 1/2SM R16R/2000VP6000FT FG OVC002 03/03 A3025 RMK AO2 SLP248 T00330033 $=
202201161635 SPECI KPAE 161635Z 00000KT 1/2SM R16R/5500VP6000FT FG OVC002 03/03 A3025 RMK AO2 T00330033 $=
202201161631 SPECI KPAE 161631Z 00000KT 1/4SM R16R/4500VP6000FT FG VV001 03/03 A3025 RMK AO2 T00330033 $=
202201161622 SPECI KPAE 161622Z 00000KT 1/2SM R16R/2000VP6000FT FG VV001 03/03 A3025 RMK AO2 T00330033 $=
202201161615 SPECI KPAE 161615Z 00000KT M1/4SM R16R/1800V3000FT FG VV001 03/03 A3024 RMK AO2 T00330033 $=
202201161553 METAR KPAE 161553Z 00000KT 1/4SM R16R/1400V1600FT FG VV001 03/03 A3025 RMK AO2 SLP249 T00330033 $=
202201161546 SPECI KPAE 161546Z 00000KT 1/4SM R16R/1400V1600FT FG VV001 03/03 A3026 RMK AO2 T00330033 $=
202201161528 SPECI KPAE 161528Z 00000KT 1/4SM R16R/2000V3000FT FG VV001 03/03 A3026 RMK AO2 T00330033 $=
202201161509 SPECI KPAE 161509Z 00000KT 1/4SM R16R/1200V2200FT FG VV001 03/03 A3025 RMK AO2 T00330033 $=
202201161453 METAR KPAE 161453Z 35004KT 1/4SM R16R/2400V5500FT FG VV001 03/03 A3027 RMK AO2 SLP254 T00330033 58006 $=
202201161431 SPECI KPAE 161431Z AUTO 00000KT 1/4SM R16R/1000V2600FT FG VV001 04/04 A3027 RMK AO2 T00390039 $=
202201161423 SPECI KPAE 161423Z AUTO 35005KT M1/4SM R16R/0800V1000FT FG VV001 04/04 A3027 RMK AO2 T00390039 $=
202201161353 METAR KPAE 161353Z AUTO 33003KT 1/4SM R16R/1600V2200FT FG VV001 04/04 A3027 RMK AO2 SLP256 T00390039 $=
202201161336 SPECI KPAE 161336Z AUTO 34003KT 1/4SM R16R/2000V2800FT FG VV001 03/03 A3028 RMK AO2 T00330033 $=
202201161326 SPECI KPAE 161326Z AUTO 01004KT 1/2SM R16R/2600VP6000FT FG VV001 04/04 A3028 RMK AO2 T00390039 $=
202201161316 SPECI KPAE 161316Z AUTO 01003KT 1SM R16R/1400VP6000FT BR VV001 04/04 A3028 RMK AO2 T00390039 $=
202201161304 SPECI KPAE 161304Z AUTO 01003KT 1/4SM R16R/1400VP6000FT FG VV001 04/04 A3028 RMK AO2 T00390039 $=
202201161253 METAR KPAE 161253Z AUTO 01004KT 1/4SM R16R/1000V1400FT FG VV001 04/04 A3028 RMK AO2 SLP258 T00390039 $=
202201161235 SPECI KPAE 161235Z AUTO 01003KT 1/4SM R16R/1000V1400FT FG VV001 04/04 A3029 RMK AO2 T00390039 $=
202201161153 METAR KPAE 161153Z AUTO 35005KT 1/4SM R16R/1800V3500FT FG VV001 04/04 A3029 RMK AO2 SLP260 T00390039 10044 20039 58008 $=
202201161137 SPECI KPAE 161137Z AUTO 35004KT 1/2SM R16R/2200V5500FT FG VV001 04/04 A3029 RMK AO2 T00390039 $=
202201161127 SPECI KPAE 161127Z AUTO 35004KT 1/4SM R16R/1200V3500FT FG VV001 04/04 A3029 RMK AO2 T00390039 $=
202201161110 SPECI KPAE 161110Z AUTO 00000KT 1/4SM R16R/1200V1600FT FG VV001 04/04 A3030 RMK AO2 T00390039 $=
202201161053 METAR KPAE 161053Z AUTO 32003KT M1/4SM R16R/0800V1200FT FG VV001 04/04 A3030 RMK AO2 SLP265 T00390039 $=
202201160953 METAR KPAE 160953Z AUTO 34004KT M1/4SM R16R/0700V0800FT FG VV001 04/04 A3032 RMK AO2 SLP272 T00390039 $=
202201160926 SPECI KPAE 160926Z AUTO 02003KT M1/4SM R16R/0700V1000FT FG VV001 04/04 A3031 RMK AO2 T00390039 $=
202201160853 METAR KPAE 160853Z AUTO 33003KT 1/4SM R16R/1200V1400FT FG VV001 04/04 A3031 RMK AO2 SLP268 T00390039 57010 $=
202201160833 SPECI KPAE 160833Z AUTO 00000KT 1/4SM R16R/1000V1200FT FG VV001 04/04 A3030 RMK AO2 T00390039 $=
202201160814 SPECI KPAE 160814Z AUTO 00000KT M1/4SM R16R/1000V1200FT FG VV001 04/04 A3030 RMK AO2 T00440044 $=
202201160753 METAR KPAE 160753Z AUTO 00000KT 1/4SM R16R/1000V1200FT FG VV001 04/04 A3032 RMK AO2 SLP271 T00440044 400890039 $=
202201160653 METAR KPAE 160653Z AUTO 36004KT M1/4SM R16R/0700V0800FT FG VV001 04/04 A3033 RMK AO2 SLP275 T00440044 $=
202201160553 METAR KPAE 160553Z AUTO 31003KT M1/4SM R16R/0600V0700FT FG VV001 04/04 A3034 RMK AO2 SLP278 T00440044 10056 20044 50001 $=
202201160453 METAR KPAE 160453Z AUTO 34006KT M1/4SM R16R/0700V0800FT FG VV001 04/04 A3035 RMK AO2 SLP283 T00440044 $=
202201160353 METAR KPAE 160353Z 35005KT M1/4SM R16R/0600V0800FT FG VV001 04/04 A3035 RMK AO2 SLP281 T00440044 $=
202201160253 METAR KPAE 160253Z 33004KT M1/4SM R16R/0600V0700FT FG VV001 05/05 A3034 RMK AO2 SLP277 T00500050 53000 $=
202201160153 METAR KPAE 160153Z 01004KT M1/4SM R16R/0600V0800FT FG VV001 05/05 A3033 RMK AO2 SLP275 T00500050 $=
202201160053 METAR KPAE 160053Z VRB03KT M1/4SM R16R/0700V0800FT FG VV001 05/05 A3034 RMK AO2 SLP277 T00500050 $=
202201152353 METAR KPAE 152353Z AUTO 32004KT M1/4SM R16R/0500V0700FT FG VV001 06/06 A3034 RMK AO2 SLP277 T00560056 10089 20044 55004 $=
202201152302 SPECI KPAE 152302Z 31003KT M1/4SM R16R/0500V1000FT FG VV001 05/05 A3033 RMK AO2 T00500050 $=
202201152253 METAR KPAE 152253Z 28003KT 1/4SM R16R/0800V1400FT FG OVC001 05/05 A3034 RMK AO2 SLP277 T00500050 $=
202201152244 SPECI KPAE 152244Z 27004KT 3/4SM R16R/0800V2200FT BR OVC001 06/06 A3033 RMK AO2 T00560056 $=
202201152239 SPECI KPAE 152239Z 27003KT 3/4SM R16R/1000V3500FT BR OVC001 06/06 A3033 RMK AO2 T00560056 $=
202201152153 METAR KPAE 152153Z 00000KT M1/4SM R16R/0600V0800FT FG VV001 06/05 A3034 RMK AO2 SLP277 T00560050 $=
202201152117 SPECI KPAE 152117Z 25003KT M1/4SM R16R/0600V1000FT FG VV001 06/06 A3035 RMK AO2 T00560056 $=
202201152110 SPECI KPAE 152110Z 27003KT 1/4SM R16R/0500V1000FT FG VV001 06/06 A3035 RMK AO2 T00560056 $=
202201152053 METAR KPAE 152053Z 28004KT M1/4SM R16R/0500V0600FT FG VV001 06/06 A3035 RMK AO2 SLP281 T00560056 58008 $=
202201152047 SPECI KPAE 152047Z 28005KT M1/4SM R16R/0500V2200FT FG VV001 06/06 A3035 RMK AO2 $=
202201152043 SPECI KPAE 152043Z 28005KT 3/4SM R16R/0600VP6000FT BR VCFG SCT001 06/06 A3035 RMK AO2 T00610056 $=
202201152041 SPECI KPAE 152041Z 28005KT 2 1/2SM R16R/1000VP6000FT BR VCFG SCT001 06/06 A3035 RMK AO2 T00610056 $=
202201151953 METAR KPAE 151953Z 19003KT 10SM CLR 08/05 A3035 RMK AO2 SLP282 T00830050 $=
202201151853 METAR KPAE 151853Z 00000KT 10SM CLR 06/05 A3037 RMK AO2 SLP287 T00610050 $=
202201151834 SPECI KPAE 151834Z 00000KT 10SM FEW001 06/05 A3036 RMK AO2 T00560050 $=
202201151808 SPECI KPAE 151808Z 00000KT M1/4SM R16R/1400VP6000FT FG VV001 04/04 A3037 RMK AO2 T00440044 $=
202201151801 SPECI KPAE 151801Z 00000KT M1/4SM R16R/0800V1800FT FG VV001 04/04 A3037 RMK AO2 T00440044 $=
202201151753 METAR KPAE 151753Z 00000KT 4SM R16R/0800V1200FT BR BKN001 05/05 A3037 RMK AO2 SLP289 T00500050 10061 20039 51012 $=
202201151750 SPECI KPAE 151750Z 00000KT 1 1/4SM R16R/0800V2000FT BR BKN001 05/05 A3037 RMK AO2 $=
202201151740 SPECI KPAE 151740Z 00000KT 1/4SM R16R/0700V4500FT FG VV001 04/04 A3037 RMK AO2 T00440044 $=
202201151733 SPECI KPAE 151733Z 00000KT M1/4SM R16R/0800V1400FT FG VV001 04/04 A3037 RMK AO2 T00440044 $=
202201151653 METAR KPAE 151653Z 00000KT 5SM R16R/2200VP6000FT BR SCT001 04/04 A3036 RMK AO2 SLP284 T00390039 $=
202201151651 SPECI KPAE 151651Z 00000KT 1SM R16R/2200VP6000FT BR VV001 04/04 A3036 RMK AO2 $=
202201151643 SPECI KPAE 151643Z 00000KT 1/4SM R16R/1400V4000FT FG VV001 04/04 A3036 RMK AO2 T00390039 $=
202201151615 SPECI KPAE 151615Z 33003KT M1/4SM R16R/0800V1800FT FG VV001 04/04 A3036 RMK AO2 T00390039 $=
202201151553 METAR KPAE 151553Z 00000KT 1/4SM R16R/0800V2000FT FG VV001 04/04 A3035 RMK AO2 SLP283 T00440044 $=
202201151526 SPECI KPAE 151526Z 00000KT M1/4SM R16R/0800V1000FT FG VV001 04/04 A3034 RMK AO2 T00440039 $=
202201151520 SPECI KPAE 151520Z 30003KT 1/4SM R16R/0800VP6000FT FG VV001 04/04 A3035 RMK AO2 T00390039 $=
202201151516 SPECI KPAE 151516Z 30003KT 3/4SM R16R/0800VP6000FT BR CLR 04/04 A3034 RMK AO2 VIS 1/4V5 T00390039 $=
202201151453 METAR KPAE 151453Z 00000KT 10SM CLR 04/03 A3034 RMK AO2 SLP277 T00440033 55003 $=
202201151353 METAR KPAE 151353Z AUTO 16005KT 10SM FEW090 06/04 A3032 RMK AO2 SLP270 T00560039 $=
202201151253 METAR KPAE 151253Z AUTO 14004KT 10SM OVC080 06/03 A3034 RMK AO2 PRESFR SLP277 T00560033 $=
202201151153 METAR KPAE 151153Z AUTO VRB03KT 10SM FEW003 BKN070 OVC085 05/04 A3035 RMK AO2 SLP279 T00500039 10061 20044 58005 $=
202201151145 SPECI KPAE 151145Z AUTO 11005KT 10SM SCT003 OVC070 06/04 A3035 RMK AO2 T00560039 $=
202201151115 SPECI KPAE 151115Z AUTO 36003KT 4SM BR BKN002 OVC080 05/05 A3037 RMK AO2 T00500050 $=
202201151107 SPECI KPAE 151107Z AUTO 32003KT 5SM BR SCT003 BKN080 OVC095 06/05 A3037 RMK AO2 T00560050 $=
202201151053 METAR KPAE 151053Z AUTO 00000KT 9SM SCT070 OVC090 06/05 A3036 RMK AO2 SLP285 T00560050 $=
202201150953 METAR KPAE 150953Z AUTO 00000KT 6SM BR FEW004 OVC085 05/04 A3037 RMK AO2 SLP288 T00500044 $=
202201150944 SPECI KPAE 150944Z AUTO 00000KT 6SM BR SCT005 BKN085 OVC110 05/05 A3037 RMK AO2 T00500050 $=
202201150853 METAR KPAE 150853Z AUTO 00000KT 10SM BKN110 06/04 A3036 RMK AO2 SLP284 T00560039 50001 $=
202201150753 METAR KPAE 150753Z AUTO 00000KT 6SM BR CLR 05/04 A3037 RMK AO2 SLP286 T00500044 400940028 $=
202201150743 SPECI KPAE 150743Z AUTO 00000KT 5SM BR CLR 04/04 A3037 RMK AO2 T00440044 $=
202201150724 SPECI KPAE 150724Z AUTO 00000KT 2 1/2SM BR CLR 05/05 A3037 RMK AO2 VIS 1 3/4V4 T00500050 $=
202201150653 METAR KPAE 150653Z AUTO 29004KT 10SM CLR 06/04 A3037 RMK AO2 SLP288 T00560044 $=
202201150553 METAR KPAE 150553Z 10005KT 10SM CLR 06/05 A3036 RMK AO2 SLP283 T00610050 10083 20050 56012 $=
202201150453 METAR KPAE 150453Z 00000KT 10SM CLR 06/05 A3036 RMK AO2 SLP284 T00610050 $=
202201150353 METAR KPAE 150353Z 11004KT 10SM CLR 06/05 A3037 RMK AO2 SLP288 T00610050 $=
202201150253 METAR KPAE 150253Z 00000KT 10SM CLR 06/04 A3039 RMK AO2 SLP295 T00560044 56011 $=
202201150153 METAR KPAE 150153Z 00000KT 10SM CLR 06/05 A3040 RMK AO2 SLP299 T00610050 $=
202201150053 METAR KPAE 150053Z 00000KT 10SM CLR 07/06 A3041 RMK AO2 SLP301 T00720056 $=
202201142353 METAR KPAE 142353Z 00000KT 10SM CLR 08/06 A3042 RMK AO2 SLP306 T00830056 10094 20061 56007 $=
202201142253 METAR KPAE 142253Z 31003KT 10SM CLR 08/06 A3042 RMK AO2 SLP306 T00830061 $=
202201142153 METAR KPAE 142153Z 15007KT 10SM CLR 08/06 A3042 RMK AO2 SLP305 T00780056 $=
202201142053 METAR KPAE 142053Z 14006KT 10SM CLR 08/M04 A3045 RMK AO2 SLP313 T00831039 58011 $=
202201141953 METAR KPAE 141953Z 16006KT 10SM CLR 08/M01 A3047 RMK AO2 SLP320 T00781011 $=
202201141853 METAR KPAE 141853Z VRB03KT 10SM CLR 07/M01 A3048 RMK AO2 SLP325 T00671006 $=
202201141753 METAR KPAE 141753Z VRB03KT 10SM CLR 07/M02 A3048 RMK AO2 SLP324 T00671017 10072 20028 55001 $=
202201141653 METAR KPAE 141653Z 12004KT 10SM CLR 06/M01 A3047 RMK AO2 SLP323 T00611011 $=
202201141553 METAR KPAE 141553Z 10006KT 10SM CLR 06/M02 A3048 RMK AO2 SLP323 T00611022 $=
202201141453 METAR KPAE 141453Z 12004KT 10SM FEW019 OVC033 07/M01 A3048 RMK AO2 SLP325 T00671011 58003 $=
202201141449 SPECI KPAE 141449Z 00000KT 10SM SCT019 OVC033 07/M01 A3048 RMK AO2 PWINO $=
202201141420 SPECI KPAE 141420Z AUTO 14003KT 10SM BKN020 OVC033 07/M01 A3049 RMK AO2 T00721006 PWINO $=
202201141353 METAR KPAE 141353Z AUTO 19004KT 10SM BKN033 04/M01 A3049 RMK AO2 SLP329 T00391006 PWINO $=
202201141253 METAR KPAE 141253Z AUTO 00000KT 10SM CLR 05/M01 A3049 RMK AO2 SLP328 T00501011 PWINO $=
202201141153 METAR KPAE 141153Z AUTO 00000KT 10SM FEW013 BKN035 05/M01 A3049 RMK AO2 SLP327 T00501006 10067 20039 51014 PWINO $=
202201141120 SPECI KPAE 141120Z AUTO 00000KT 10SM FEW001 OVC031 05/M01 A3049 RMK AO2 T00501011 PWINO $=
202201141110 SPECI KPAE 141110Z AUTO 00000KT 3SM HZ SCT001 OVC029 05/M01 A3049 RMK AO2 T00501006 PWINO $=
202201141107 SPECI KPAE 141107Z AUTO 12003KT 1 1/4SM HZ BKN001 OVC029 05/M01 A3049 RMK AO2 T00501006 PWINO $=
202201141053 METAR KPAE 141053Z AUTO VRB03KT 1/4SM R16R/1600V2400FT HZ VV001 05/M01 A3049 RMK AO2 SLP327 T00501006 PWINO $=
202201141048 SPECI KPAE 141048Z AUTO 00000KT 1/4SM R16R/1600V2000FT HZ VV001 04/M01 A3049 RMK AO2 PWINO $=
202201141043 SPECI KPAE 141043Z AUTO 00000KT 1/2SM R16R/1600V3500FT HZ VV001 04/M01 A3049 RMK AO2 T00441006 PWINO $=
202201141035 SPECI KPAE 141035Z AUTO VRB03KT 3/4SM R16R/2400V4500FT HZ BKN002 05/M01 A3049 RMK AO2 T00501006 PWINO $=
202201141025 SPECI KPAE 141025Z AUTO 16004KT 2 1/2SM R16R/4000VP6000FT HZ BKN002 04/M01 A3048 RMK AO2 T00441006 PWINO $=
202201140953 METAR KPAE 140953Z AUTO 15006KT 10SM FEW002 FEW009 06/M01 A3047 RMK AO2 SLP319 T00561006 PWINO $=
202201140933 SPECI KPAE 140933Z AUTO 16003KT 10SM FEW003 05/M01 A3046 RMK AO2 T00501006 PWINO $=
202201140853 METAR KPAE 140853Z AUTO VRB03KT 10SM CLR 06/M01 A3045 RMK AO2 SLP313 T00611006 53021 PWINO $=
202201140753 METAR KPAE 140753Z AUTO 00000KT 10SM CLR 04/M01 A3043 RMK AO2 SLP307 T00441006 401110039 PWINO=
202201140653 METAR KPAE 140653Z AUTO 00000KT 9SM CLR 06/M01 A3040 RMK AO2 SLP298 T00561006 PWINO=
202201140553 METAR KPAE 140553Z AUTO 10003KT 10SM CLR 07/00 A3038 RMK AO2 SLP291 T00720000 10100 20067 53015 PWINO=
202201140504 SPECI KPAE 140504Z AUTO 10005KT 3SM BR FEW001 07/07 A3036 RMK AO2 T00720067 PWINO=
202201140501 SPECI KPAE 140501Z AUTO 10005KT 1 3/4SM BR FEW001 07/07 A3036 RMK AO2 T00720067 PWINO=
202201140453 METAR KPAE 140453Z 10006KT 2 1/2SM BR FEW001 07/07 A3035 RMK AO2 SLP282 T00720067=
202201140353 METAR KPAE 140353Z 10005KT 9SM CLR 08/07 A3035 RMK AO2 SLP279 T00780072=
202201140253 METAR KPAE 140253Z 15005KT 10SM CLR 08/08 A3034 RMK AO2 SLP275 T00830078 50022=
202201140153 METAR KPAE 140153Z 21004KT 10SM SCT037 08/07 A3034 RMK AO2 SLP276 T00830072=
202201140053 METAR KPAE 140053Z 30003KT 10SM OVC034 10/08 A3033 RMK AO2 SLP271 T01000078=
202201132353 METAR KPAE 132353Z 27005KT 10SM FEW018 10/08 A3027 RMK AO2 SLP253 T01000078 10111 20089 53020=
202201132253 METAR KPAE 132253Z 00000KT 10SM SCT018 11/07 A3024 RMK AO2 SLP241 T01060072=
202201132212 SPECI KPAE 132212Z 20006KT 10SM SCT018 11/07 A3023 RMK AO2 T01060072=
202201132153 METAR KPAE 132153Z 18004KT 10SM FEW018 BKN028 OVC080 11/08 A3022 RMK AO2 SLP234 T01110083=
202201132117 SPECI KPAE 132117Z 16005KT 10SM FEW018 BKN028 OVC080 11/08 A3021 RMK AO2 T01060078=
202201132110 SPECI KPAE 132110Z 16006KT 10SM FEW018 SCT028 OVC085 11/08 A3021 RMK AO2 T01060078=
202201132053 METAR KPAE 132053Z 17004KT 10SM FEW018 BKN028 OVC080 11/08 A3021 RMK AO2 SLP233 T01060083 53025=
202201132008 SPECI KPAE 132008Z 15005KT 10SM BKN026 10/08 A3020 RMK AO2 T01000078=
202201131953 METAR KPAE 131953Z 15010KT 10SM FEW008 SCT027 11/08 A3018 RMK AO2 SLP223 T01060083=
202201131853 METAR KPAE 131853Z 18009KT 10SM SCT006 SCT011 BKN090 09/08 A3016 RMK AO2 SLP215 T00940083=
202201131758 SPECI KPAE 131758Z 15009KT 10SM FEW006 SCT011 BKN090 09/08 A3014 RMK AO2 T00890083=
202201131753 METAR KPAE 131753Z 15009KT 10SM BKN020 BKN090 OVC110 09/08 A3014 RMK AO2 SLP208 T00890078 10089 20072 53023=
202201131701 SPECI KPAE 131701Z 15010KT 10SM BKN020 BKN090 OVC110 08/08 A3012 RMK AO2 T00830078=
202201131653 METAR KPAE 131653Z 15009KT 10SM FEW018 BKN090 OVC110 08/08 A3012 RMK AO2 SLP201 T00830078=
202201131553 METAR KPAE 131553Z 16008KT 9SM FEW038 BKN060 BKN110 08/07 A3008 RMK AO2 SLP189 T00830072=
202201131458 SPECI KPAE 131458Z 19004KT 10SM FEW002 FEW036 SCT050 07/07 A3007 RMK AO2 T00720072=
202201131453 METAR KPAE 131453Z 19005KT 10SM FEW036 SCT055 BKN085 08/07 A3007 RMK AO2 SLP185 T00780072 53010=
202201131353 METAR KPAE 131353Z AUTO 12006KT 10SM BKN043 OVC055 08/06 A3002 RMK AO2 SLP166 T00830056 PWINO=
202201131253 METAR KPAE 131253Z AUTO 10007KT 10SM BKN045 BKN060 08/06 A3000 RMK AO2 SLP161 T00830056 PWINO=
202201131153 METAR KPAE 131153Z AUTO 10009G17KT 8SM OVC046 08/06 A3004 RMK AO2 SLP174 T00780056 10100 20072 58001 PWINO=
202201131053 METAR KPAE 131053Z AUTO VRB05KT 5SM BR BKN046 BKN065 OVC080 08/07 A3006 RMK AO2 SLP180 T00830067 PWINO=
202201131027 SPECI KPAE 131027Z AUTO VRB06G14KT 5SM BR BKN049 BKN065 OVC080 09/07 A3004 RMK AO2 T00890072 PWINO=
202201131003 SPECI KPAE 131003Z AUTO 15011G17KT 2 1/2SM BR BKN047 BKN055 OVC075 09/07 A3008 RMK AO2 T00890067 PWINO=
202201130953 METAR KPAE 130953Z AUTO VRB03KT 4SM BR SCT045 BKN055 OVC070 08/06 A3008 RMK AO2 SLP187 T00830061 PWINO=
202201130853 METAR KPAE 130853Z AUTO 10008KT 10SM SCT075 08/07 A3004 RMK AO2 SLP174 T00830067 58001 PWINO=
202201130753 METAR KPAE 130753Z AUTO 14005KT 10SM CLR 08/07 A3005 RMK AO2 SLP176 T00830072 401280078 PWINO=
202201130653 METAR KPAE 130653Z AUTO 15008KT 10SM CLR 09/08 A3004 RMK AO2 SLP174 T00890078 PWINO=
202201130553 METAR KPAE 130553Z AUTO VRB05KT 10SM CLR 09/08 A3004 RMK AO2 SLP174 T00890078 10122 20083 58007 PWINO=
202201130453 METAR KPAE 130453Z VRB03KT 10SM CLR 09/08 A3006 RMK AO2 SLP179 T00890083=
202201130353 METAR KPAE 130353Z 14006KT 10SM CLR 11/09 A3006 RMK AO2 SLP181 T01110094=
202201130253 METAR KPAE 130253Z 10SM CLR 11/09 A3007 RMK AO2 SLP182 T01110094 55004=
202201130153 METAR KPAE 130153Z 00000KT 10SM CLR 12/09 A3006 RMK AO2 SLP181 T01170094=
202201130053 METAR KPAE 130053Z 10006KT 10SM CLR 11/11 A3006 RMK AO2 SLP181 T01110106=
202201122353 METAR KPAE 122353Z 15010KT 10SM CLR 12/09 A3008 RMK AO2 SLP187 T01220094 10128 20117 58002=
202201122253 METAR KPAE 122253Z 16010KT 10SM OVC035 13/10 A3009 RMK AO2 SLP189 T01280100=
202201122153 METAR KPAE 122153Z 17007KT 10SM OVC075 13/11 A3008 RMK AO2 SLP186 T01280106=
202201122053 METAR KPAE 122053Z 16012KT 10SM SCT005 BKN060 OVC075 12/11 A3009 RMK AO2 PK WND 18028/2029 SLP189 T01220111 58011=
202201122005 SPECI KPAE 122005Z 18013G21KT 7SM SCT005 BKN060 OVC075 12/11 A3010 RMK AO2 T01220111=
202201122000 SPECI KPAE 122000Z 18014G25KT 8SM BKN011 BKN065 OVC075 12/11 A3010 RMK AO2 T01220111=
202201121953 METAR KPAE 121953Z 18018G28KT 8SM SCT005 BKN028 OVC035 12/11 A3009 RMK AO2 PK WND 20028/1944 SLP192 T01220111=
202201121900 SPECI KPAE 121900Z 17013G21KT 10SM SCT005 BKN028 OVC035 12/11 A3011 RMK AO2 T01220106=
202201121853 METAR KPAE 121853Z 18015G26KT 10SM BKN007 BKN013 OVC028 12/11 A3011 RMK AO2 PK WND 17026/1845 SLP198 T01220111=
202201121759 SPECI KPAE 121759Z 18015G23KT 2SM BR BKN004 OVC007 12/11 A3012 RMK AO2 T01170111=
202201121753 METAR KPAE 121753Z 17013G21KT 2 1/2SM BR BKN009 OVC013 12/11 A3012 RMK AO2 CIG 006V012 SLP200 T01170111 10122 20111 53003=
202201121743 SPECI KPAE 121743Z 17011G19KT 2SM BR BKN008 OVC013 12/11 A3011 RMK AO2 CIG 004V011 T01170111=
202201121653 METAR KPAE 121653Z 16012G20KT 9SM BKN005 OVC012 12/11 A3011 RMK AO2 CIG 003V009 SLP196 T01170111=
202201121553 METAR KPAE 121553Z 18016G23KT 10SM OVC008 12/11 A3011 RMK AO2 CIG 005V011 SLP196 T01170106=
202201121453 METAR KPAE 121453Z 17015KT 5SM BR OVC007 12/11 A3011 RMK AO2 SLP197 T01170106 56008=
202201121353 METAR KPAE 121353Z AUTO 17012G21KT 6SM BR OVC005 11/11 A3011 RMK AO2 CIG 004V009 SLP197 T01110106 PWINO=
202201121253 METAR KPAE 121253Z AUTO 17012G23KT 9SM BKN006 OVC010 11/11 A3012 RMK AO2 SLP201 T01110106 PWINO=
202201121153 METAR KPAE 121153Z AUTO 16013G24KT 10SM OVC005 11/10 A3013 RMK AO2 SLP205 T01110100 10111 20106 52008 PWINO=
202201121053 METAR KPAE 121053Z AUTO 17014G24KT 10SM OVC007 11/10 A3013 RMK AO2 PK WND 18028/1000 SLP204 T01110100 PWINO=
202201120953 METAR KPAE 120953Z AUTO 18023G33KT 9SM OVC007 11/10 A3012 RMK AO2 PK WND 18033/0953 SLP199 T01110100 PWINO=
202201120853 METAR KPAE 120853Z AUTO 18017G28KT 10SM OVC008 11/10 A3011 RMK AO2 PK WND 18029/0824 CIG 007V011 SLP197 T01060100 52009 PWINO=
202201120753 METAR KPAE 120753Z AUTO 17021G29KT 10SM OVC008 11/10 A3010 RMK AO2 PK WND 18034/0731 CIG 006V012 SLP192 T01110100 401110067 PWINO=
202201120653 METAR KPAE 120653Z AUTO 18020G31KT 9SM OVC007 11/10 A3010 RMK AO2 PK WND 17032/0613 CIG 006V011 SLP193 T01060100 PWINO=
202201120611 SPECI KPAE 120611Z AUTO 18022G32KT 7SM OVC009 11/10 A3008 RMK AO2 PK WND 18032/0611 CIG 006V010 T01060100 PWINO=
202201120553 METAR KPAE 120553Z AUTO 18025G35KT 9SM OVC010 11/10 A3008 RMK AO2 PK WND 19035/0545 CIG 006V014 SLP188 T01060100 10106 20100 51005 PWINO=
202201120549 SPECI KPAE 120549Z AUTO 18019G35KT 9SM OVC010 11/10 A3008 RMK AO2 PK WND 19035/0545 CIG 006V014 PWINO=
202201120453 METAR KPAE 120453Z 18019G26KT 5SM BR OVC008 11/10 A3008 RMK AO2 PK WND 18026/0453 CIG 005V011 SLP187 T01060100 PWINO=
202201120441 SPECI KPAE 120441Z 18014G22KT 4SM BR FEW005 BKN050 11/10 A3008 RMK AO2 T01060100=
202201120433 SPECI KPAE 120433Z 17012KT 4SM BR BKN009 BKN016 OVC040 11/10 A3007 RMK AO2 T01060100=
202201120353 METAR KPAE 120353Z 17013G21KT 6SM BR FEW005 BKN050 OVC120 10/09 A3007 RMK AO2 SLP184 T01000094=
202201120253 METAR KPAE 120253Z 17012G20KT 8SM BKN008 BKN015 OVC110 10/09 A3009 RMK AO2 SLP190 T01000094 56007=
202201120153 METAR KPAE 120153Z 16013G23KT 6SM BR BKN008 BKN012 OVC044 11/10 A3009 RMK AO2 PK WND 16027/0121 SLP193 T01060100=
202201120100 SPECI KPAE 120100Z 16017G25KT 3SM BR BKN008 OVC014 11/09 A3009 RMK AO2 T01060094=
202201120053 METAR KPAE 120053Z 17012G24KT 1 1/2SM BR BKN006 OVC018 11/09 A3009 RMK AO2 SLP192 T01060094=
202201120045 SPECI KPAE 120045Z 17015G23KT 1 1/2SM BR BKN006 OVC018 11/09 A3010 RMK AO2 T01060089=
202201120038 SPECI KPAE 120038Z 16016G23KT 3SM BR BKN006 OVC018 11/10 A3010 RMK AO2 T01060100=
202201120029 SPECI KPAE 120029Z 16015G24KT 1 1/4SM BR BKN006 OVC018 11/10 A3010 RMK AO2 T01060100=
202201120019 SPECI KPAE 120019Z 15015G22KT 1 3/4SM BR SCT006 BKN018 OVC026 11/10 A3010 RMK AO2 T01060100=
202201120007 SPECI KPAE 120007Z 15016G23KT 2 1/2SM BR BKN005 BKN020 OVC030 11/10 A3011 RMK AO2 T01060100=
202201112353 METAR KPAE 112353Z 15014KT 4SM BR BKN007 OVC011 10/10 A3011 RMK AO2 SLP198 T01000100 10106 20094 56022=
202201112311 SPECI KPAE 112311Z 15011KT 3SM BR BKN007 OVC011 10/09 A3012 RMK AO2 T01000094=
202201112300 SPECI KPAE 112300Z 15012KT 3SM BR FEW007 OVC012 10/09 A3013 RMK AO2 T01000094=
202201112253 METAR KPAE 112253Z 14007G15KT 100V160 6SM BR BKN009 OVC014 10/09 A3012 RMK AO2 SLP203 T01000094=
202201112215 SPECI KPAE 112215Z 15011KT 9SM BKN009 OVC014 11/09 A3014 RMK AO2 T01060094=
202201112200 SPECI KPAE 112200Z 15010KT 10SM OVC014 10/09 A3015 RMK AO2 T01000094=
202201112153 METAR KPAE 112153Z 15011KT 10SM BKN009 OVC050 10/09 A3015 RMK AO2 SLP213 T01000094=
202201112053 METAR KPAE 112053Z 16012KT 10SM BKN008 OVC060 10/09 A3018 RMK AO2 SLP220 T01000094 58021=
202201112010 SPECI KPAE 112010Z 15012KT 6SM BR BKN008 OVC060 10/09 A3020 RMK AO2 T01000094=
202201112000 SPECI KPAE 112000Z 16010KT 4SM BR SCT006 OVC060 10/09 A3021 RMK AO2 T01000094=
202201111953 METAR KPAE 111953Z 16011KT 3SM BR BKN007 OVC075 10/09 A3022 RMK AO2 SLP234 T01000094=
202201111901 SPECI KPAE 111901Z 16012KT 6SM BR BKN007 OVC075 10/09 A3024 RMK AO2 T01000089=
202201111853 METAR KPAE 111853Z 16014KT 7SM SCT007 OVC075 10/09 A3024 RMK AO2 SLP241 T01000089=
202201111849 SPECI KPAE 111849Z 15014KT 7SM SCT007 BKN060 OVC080 10/09 A3023 RMK AO2=
202201111753 METAR KPAE 111753Z 16012G20KT 10SM SCT005 BKN009 OVC019 10/09 A3023 RMK AO2 SLP239 T01000089 10100 20078 53017=
202201111653 METAR KPAE 111653Z 17009G20KT 10SM OVC007 10/09 A3022 RMK AO2 PK WND 15027/1556 CIG 004V010 SLP235 T01000089=
202201111553 METAR KPAE 111553Z 17012G24KT 10SM BKN006 OVC013 10/09 A3019 RMK AO2 PK WND 16030/1502 CIG 004V010 SLP224 T01000089 PWINO $=
202201111540 SPECI KPAE 111540Z 15018G28KT 10SM OVC006 10/09 A3018 RMK AO2 PK WND 16030/1502 CIG 004V011 T01000089 PWINO $=
202201111453 METAR KPAE 111453Z 15017G28KT 10SM OVC003 09/09 A3018 RMK AO2 PK WND 16028/1445 SLP221 T00940089 55002 PWINO $=
202201111410 SPECI KPAE 111410Z AUTO 15016G27KT 10SM BKN004 OVC008 09/09 A3018 RMK AO2 PK WND 16027/1405 T00940089 PWINO $=
202201111353 METAR KPAE 111353Z AUTO 16020G29KT 10SM BKN006 BKN085 09/09 A3018 RMK AO2 PK WND 17040/1323 CIG 004V010 SLP220 T00940089 PWINO $=
202201111341 SPECI KPAE 111341Z AUTO 16018G27KT 8SM BKN006 BKN090 09/09 A3017 RMK AO2 PK WND 17040/1323 CIG 004V010 T00940089 PWINO $=
202201111253 METAR KPAE 111253Z AUTO 17020G32KT 10SM FEW006 FEW015 09/08 A3017 RMK AO2 PK WND 16032/1252 SLP217 T00890078 PWINO $=
202201111243 SPECI KPAE 111243Z AUTO 17020G31KT 10SM FEW015 SCT028 08/08 A3017 RMK AO2 PK WND 15031/1240 T00830078 PWINO $=
202201111214 SPECI KPAE 111214Z AUTO 16015G28KT 10SM SCT006 SCT011 BKN028 08/08 A3017 RMK AO2 PK WND 17028/1209 T00830078 PWINO $=
202201111153 METAR KPAE 111153Z AUTO 16015G27KT 9SM BKN005 BKN011 OVC034 08/08 A3019 RMK AO2 PK WND 15027/1151 CIG 003V008 SLP225 60001 70015 T00780078 10083 20067 58008 PWINO $=
202201111053 METAR KPAE 111053Z AUTO VRB04G17KT 10SM BKN006 08/07 A3020 RMK AO2 SLP230 T00830072 PWINO $=
202201111029 SPECI KPAE 111029Z AUTO 15010G20KT 10SM FEW008 BKN036 08/07 A3020 RMK AO2 T00830072 PWINO $=
202201110953 METAR KPAE 110953Z AUTO 14008KT 4SM BR FEW036 SCT043 OVC050 07/07 A3023 RMK AO2 SLP240 T00720067 PWINO $=
202201110938 SPECI KPAE 110938Z AUTO 00000KT 2 1/2SM BR BKN040 OVC050 07/07 A3024 RMK AO2 T00720067 PWINO $=
202201110853 METAR KPAE 110853Z AUTO 00000KT 4SM BR OVC050 07/07 A3021 RMK AO2 SLP234 60001 T00670067 58008 PWINO $=
202201110753 METAR KPAE 110753Z AUTO 16005KT 7SM FEW040 OVC055 07/07 A3023 RMK AO2 SLP241 T00720067 400830044 PWINO $=
202201110653 METAR KPAE 110653Z AUTO 14005KT 8SM OVC065 08/06 A3023 RMK AO2 SLP240 P0001 T00780056 PWINO $=
202201110553 METAR KPAE 110553Z AUTO VRB05KT 10SM OVC032 08/06 A3023 RMK AO2 RAB40E51 SLP241 P0000 60001 T00780056 10078 20067 58017=
202201110453 METAR KPAE 110453Z AUTO 14007G15KT 100V180 10SM BKN033 07/05 A3025 RMK AO2 RAE0357 SLP247 P0000 T00670050=
202201110353 METAR KPAE 110353Z 14007KT 9SM -RA FEW028 SCT045 BKN065 07/05 A3028 RMK AO2 RAB33 SLP258 P0001 T00670050=
202201110351 SPECI KPAE 110351Z 14007KT 100V170 9SM -RA SCT028 BKN045 BKN065 07/05 A3029 RMK AO2 RAB33 P0001=
202201110253 METAR KPAE 110253Z VRB06KT 10SM OVC029 07/06 A3030 RMK AO2 SLP265 T00720056 58014=
202201110153 METAR KPAE 110153Z 15007KT 10SM OVC029 07/05 A3032 RMK AO2 SLP271 T00720050=
202201110053 METAR KPAE 110053Z 15010KT 9SM BKN029 OVC060 07/06 A3034 RMK AO2 SLP278 T00720061=
202201110044 SPECI KPAE 110044Z 15011KT 4SM BR BKN031 OVC080 07/06 A3034 RMK AO2 T00720061=
202201110031 SPECI KPAE 110031Z 16014KT 8SM BKN029 BKN034 07/06 A3035 RMK AO2 T00720061=
202201110020 SPECI KPAE 110020Z 16013KT 9SM BKN031 07/06 A3035 RMK AO2 T00670061=
202201102353 METAR KPAE 102353Z 15012KT 10SM BKN029 BKN034 OVC060 07/06 A3035 RMK AO2 RAB2254E31 SLP279 P0000 60002 T00670061 10072 20044 50003=
202201102321 SPECI KPAE 102321Z 15013KT 5SM -RA BR FEW028 BKN037 OVC048 07/06 A3035 RMK AO2 RAB2254 P0000 T00720061=
202201102300 SPECI KPAE 102300Z 16012KT 2SM -RA BR OVC042 07/06 A3035 RMK AO2 RAB2254 P0000 T00720061=
202201102253 METAR KPAE 102253Z 16014KT 3SM BR OVC038 07/06 A3035 RMK AO2 RAB26E48 SLP280 P0000 T00720056=
202201102238 SPECI KPAE 102238Z 16010KT 3SM -RA BR OVC037 07/06 A3035 RMK AO2 RAB26 P0000 T00720056=
202201102230 SPECI KPAE 102230Z 16010KT 2 1/2SM -RA BR OVC037 07/06 A3035 RMK AO2 RAB26 P0000 T00720056=
202201102153 METAR KPAE 102153Z 16007KT 10SM FEW017 OVC031 07/05 A3034 RMK AO2 SLP278 T00720050=
202201102053 METAR KPAE 102053Z 14004KT 10SM OVC033 07/05 A3034 RMK AO2 SLP276 60002 T00670050 58016=
202201102025 SPECI KPAE 102025Z 15011G14KT 10SM OVC031 06/04 A3035 RMK AO2 T00610044=
202201101953 METAR KPAE 101953Z 10006KT 10SM OVC021 06/04 A3036 RMK AO2 SLP284 T00610044=
202201101859 SPECI KPAE 101859Z 14008G15KT 10SM BKN014 OVC033 05/04 A3037 RMK AO2 T00500039=
202201101853 METAR KPAE 101853Z 14009G15KT 8SM FEW023 OVC030 05/04 A3038 RMK AO2 RAE41 SLP290 P0002 T00500039=
202201101753 METAR KPAE 101753Z 12005KT 8SM -RA OVC038 04/03 A3039 RMK AO2 RAE1655B38 SLP293 P0000 60011 T00440033 10078 20044 53019=
202201101653 METAR KPAE 101653Z 19010G21KT 10SM -RA FEW040 BKN050 OVC070 05/04 A3035 RMK AO2 PK WND 15029/1635 PRESRR SLP282 P0011 T00500039=
202201101650 SPECI KPAE 101650Z 19012G22KT 8SM -RA SCT040 BKN050 OVC070 06/04 A3035 RMK AO2 PK WND 15029/1635 P0011=
202201101643 SPECI KPAE 101643Z 18014G29KT 2 1/2SM -RA BR BKN040 BKN055 OVC070 06/04 A3034 RMK AO2 PK WND 15029/1635 P0011 T00560039=
202201101553 METAR KPAE 101553Z 22011KT 10SM -RA BKN055 BKN065 OVC085 08/01 A3033 RMK AO2 RAB52 SLP274 P0000 T00780006=
202201101453 METAR KPAE 101453Z 18005KT 10SM BKN100 05/M03 A3026 RMK AO2 SLP252 T00501028 55004=
202201101353 METAR KPAE 101353Z AUTO VRB06KT 10SM CLR 06/M03 A3025 RMK AO2 SLP247 T00611033=
202201101253 METAR KPAE 101253Z AUTO VRB05KT 10SM CLR 06/M03 A3027 RMK AO2 SLP252 T00611033=
202201101153 METAR KPAE 101153Z AUTO VRB05KT 10SM CLR 07/M04 A3028 RMK AO2 SLP254 T00671039 10078 20061 56007=
202201101053 METAR KPAE 101053Z AUTO 11008KT 10SM CLR 06/M03 A3028 RMK AO2 SLP257 T00611028=
202201100953 METAR KPAE 100953Z AUTO 11009KT 10SM CLR 06/M03 A3029 RMK AO2 SLP259 T00611033=
202201100853 METAR KPAE 100853Z AUTO 12005KT 10SM CLR 07/M03 A3030 RMK AO2 SLP261 T00671028 50004=
202201100753 METAR KPAE 100753Z AUTO VRB04KT 10SM CLR 07/M03 A3030 RMK AO2 SLP262 T00721028 401110017=
202201100653 METAR KPAE 100653Z AUTO 12008KT 10SM CLR 08/M03 A3029 RMK AO2 SLP260 T00781033=
202201100553 METAR KPAE 100553Z AUTO 11007KT 10SM CLR 07/M02 A3028 RMK AO2 SLP258 T00721022 10111 20072 53002=
202201100453 METAR KPAE 100453Z 11007KT 10SM CLR 07/M01 A3028 RMK AO2 SLP256 T00721006=
202201100353 METAR KPAE 100353Z 14005KT 10SM CLR 08/01 A3028 RMK AO2 SLP257 T00780006=
202201100253 METAR KPAE 100253Z 13005KT 10SM CLR 09/M01 A3028 RMK AO2 SLP256 T00891006 50005=
202201100153 METAR KPAE 100153Z 12004KT 10SM CLR 09/01 A3028 RMK AO2 SLP258 T00890006=
202201100053 METAR KPAE 100053Z VRB05KT 10SM CLR 09/01 A3027 RMK AO2 SLP255 T00890011=
202201092353 METAR KPAE 092353Z VRB03KT 10SM CLR 11/02 A3026 RMK AO2 SLP251 T01060017 10111 20061 56004=
202201092253 METAR KPAE 092253Z 00000KT 10SM CLR 10/02 A3026 RMK AO2 SLP251 T01000022=
202201092153 METAR KPAE 092153Z 32003KT 10SM CLR 09/02 A3026 RMK AO2 SLP249 T00940022=
202201092053 METAR KPAE 092053Z 00000KT 10SM CLR 10/02 A3027 RMK AO2 SLP255 T01000022 58007=
202201091953 METAR KPAE 091953Z 00000KT 10SM CLR 09/02 A3028 RMK AO2 SLP257 T00890017=
202201091853 METAR KPAE 091853Z VRB03KT 10SM CLR 08/02 A3029 RMK AO2 SLP263 T00780022=
202201091753 METAR KPAE 091753Z VRB04KT 10SM CLR 06/01 A3029 RMK AO2 SLP263 T00560011 10056 20017 53004=
202201091653 METAR KPAE 091653Z 11006KT 10SM CLR 04/01 A3029 RMK AO2 SLP262 T00440011=
202201091553 METAR KPAE 091553Z 10007KT 10SM CLR 03/01 A3028 RMK AO2 SLP258 T00280006=
202201091453 METAR KPAE 091453Z 09007KT 10SM CLR 03/01 A3028 RMK AO2 SLP258 T00330006 58003=
202201091353 METAR KPAE 091353Z AUTO 09006KT 10SM CLR 02/00 A3029 RMK AO2 SLP261 T00220000=
202201091253 METAR KPAE 091253Z AUTO 10005KT 10SM CLR 02/00 A3029 RMK AO2 SLP262 T00220000=
202201091153 METAR KPAE 091153Z AUTO 00000KT 10SM CLR 02/00 A3029 RMK AO2 SLP263 T00170000 10028 20017 50000=
202201091053 METAR KPAE 091053Z AUTO 11005KT 10SM CLR 02/00 A3030 RMK AO2 SLP265 T00220000=
202201090953 METAR KPAE 090953Z AUTO 10005KT 10SM CLR 02/01 A3030 RMK AO2 SLP264 T00220006=
202201090853 METAR KPAE 090853Z AUTO 00000KT 10SM CLR 03/01 A3029 RMK AO2 SLP263 T00280006 51001=
202201090753 METAR KPAE 090753Z AUTO 11005KT 10SM CLR 03/01 A3029 RMK AO2 SLP262 T00280006 400560006=
202201090653 METAR KPAE 090653Z AUTO 10006KT 10SM CLR 03/01 A3030 RMK AO2 SLP264 T00280006=
202201090553 METAR KPAE 090553Z AUTO 10007KT 10SM CLR 03/01 A3029 RMK AO2 SLP262 T00280011 10056 20028 51009=
202201090453 METAR KPAE 090453Z AUTO 10007KT 10SM BKN070 03/02 A3029 RMK AO2 SLP261 T00330017=
202201090353 METAR KPAE 090353Z 14008KT 10SM OVC070 04/02 A3027 RMK AO2 SLP254 T00440017=
202201090253 METAR KPAE 090253Z 15010KT 10SM OVC070 05/02 A3026 RMK AO2 SLP253 T00500017 51008=
202201090153 METAR KPAE 090153Z 16010KT 10SM OVC080 05/02 A3026 RMK AO2 SLP252 T00500017=
202201090053 METAR KPAE 090053Z 16013G20KT 10SM BKN080 06/02 A3024 RMK AO2 SLP246 T00560017=
202201082353 METAR KPAE 082353Z 17010KT 10SM OVC100 06/02 A3024 RMK AO2 SLP244 T00560022 10056 20022 53008=
202201082253 METAR KPAE 082253Z 16012KT 10SM FEW023 BKN043 OVC110 06/02 A3022 RMK AO2 SLP239 T00560022=
202201082200 SPECI KPAE 082200Z 15013G19KT 10SM FEW017 BKN080 OVC120 06/02 A3021 RMK AO2 T00560022=
202201082153 METAR KPAE 082153Z 15011KT 10SM SCT007 BKN014 06/02 A3021 RMK AO2 SLP236 T00560022=
202201082053 METAR KPAE 082053Z 16011KT 10SM SCT007 BKN014 05/03 A3021 RMK AO2 SLP235 T00500028 50001=
202201081956 SPECI KPAE 081956Z 15009KT 10SM SCT007 BKN014 04/02 A3022 RMK AO2 T00390022=
202201081953 METAR KPAE 081953Z 15009KT 10SM BKN007 OVC014 04/02 A3022 RMK AO2 SLP239 T00390022=
202201081853 METAR KPAE 081853Z 15009KT 10SM BKN007 OVC019 03/02 A3022 RMK AO2 SLP238 T00330022=
202201081816 SPECI KPAE 081816Z 16007KT 10SM BKN007 OVC019 03/02 A3022 RMK AO2 T00280022=
202201081807 SPECI KPAE 081807Z 16007KT 10SM BKN010 OVC080 03/02 A3021 RMK AO2 T00280017=
202201081800 SPECI KPAE 081800Z 15008KT 10SM BKN020 OVC080 03/02 A3021 RMK AO2 T00280017=
202201081753 METAR KPAE 081753Z 16006KT 10SM BKN010 OVC080 03/02 A3021 RMK AO2 SLP234 T00280017 10028 20011 53028=
202201081718 SPECI KPAE 081718Z 16007KT 10SM BKN010 OVC080 02/01 A3019 RMK AO2 T00220011=
202201081711 SPECI KPAE 081711Z 16006KT 10SM BKN009 OVC080 02/01 A3019 RMK AO2 CIG 007V012 T00220011=
202201081653 METAR KPAE 081653Z 17008KT 10SM OVC011 02/01 A3018 RMK AO2 SLP224 T00220011=
202201081622 SPECI KPAE 081622Z 18008KT 10SM BKN013 OVC085 02/01 A3017 RMK AO2 T00170011=
202201081553 METAR KPAE 081553Z 16005KT 10SM OVC090 02/01 A3015 RMK AO2 SLP215 T00170006=
202201081453 METAR KPAE 081453Z 16006KT 10SM SCT038 BKN095 02/01 A3012 RMK AO2 SLP206 T00220011 53023=
202201081353 METAR KPAE 081353Z AUTO 16007KT 10SM OVC035 02/01 A3010 RMK AO2 SLP198 T00220011=
202201081341 SPECI KPAE 081341Z AUTO 16007KT 10SM SCT029 OVC036 02/01 A3009 RMK AO2 T00220011=
202201081253 METAR KPAE 081253Z AUTO 16006KT 10SM OVC026 02/01 A3007 RMK AO2 SLP187 T00170011=
202201081153 METAR KPAE 081153Z AUTO 15004KT 10SM OVC025 02/01 A3006 RMK AO2 SLP183 60005 70032 T00170006 10017 20006 51024=
202201081128 SPECI KPAE 081128Z AUTO 17007KT 10SM BKN025 02/01 A3006 RMK AO2 T00170006=
202201081053 METAR KPAE 081053Z AUTO 15004KT 10SM CLR 01/01 A3005 RMK AO2 SLP181 T00110006=
202201080953 METAR KPAE 080953Z AUTO 16004KT 10SM FEW042 BKN075 01/01 A3002 RMK AO2 SLP170 T00110006=
202201080853 METAR KPAE 080853Z AUTO VRB04KT 10SM BKN043 OVC070 02/01 A2998 RMK AO2 SLP158 60005 T00170006 53019=
202201080833 SPECI KPAE 080833Z AUTO 14003KT 10SM SCT021 BKN045 OVC075 02/01 A2997 RMK AO2 T00170006=
202201080811 SPECI KPAE 080811Z AUTO 00000KT 10SM BKN022 OVC041 01/01 A2996 RMK AO2 T00110006=
202201080753 METAR KPAE 080753Z AUTO 00000KT 10SM OVC038 01/01 A2996 RMK AO2 RAB03E09SNE03 SLP148 P0002 T00110006 400780006=
202201080721 SPECI KPAE 080721Z AUTO 16004KT 10SM FEW027 OVC038 01/01 A2994 RMK AO2 RAB03E09SNE03 P0001 T00110006=
202201080653 METAR KPAE 080653Z AUTO 00000KT 3SM -SN BR OVC015 01/01 A2993 RMK AO2 SLP139 P0003 T00060006=
202201080650 SPECI KPAE 080650Z AUTO 00000KT 2 1/2SM -SN BR FEW007 OVC015 01/01 A2993 RMK AO2 P0003=
202201080640 SPECI KPAE 080640Z AUTO 00000KT 3SM -SN BR SCT007 OVC015 01/01 A2992 RMK AO2 P0002 T00060006=
202201080614 SPECI KPAE 080614Z AUTO 00000KT 2SM -SN BR BKN009 OVC015 01/01 A2991 RMK AO2 P0001 T00110006=
202201080553 METAR KPAE 080553Z AUTO 00000KT 4SM -SN BR OVC013 01/01 A2990 RMK AO2 RAE04B20E30B49E53UPB04E20SNB30 SLP129 P0002 60003 T00110006 10028 20011 51034=
202201080527 SPECI KPAE 080527Z AUTO 15006KT 8SM -RA BKN011 OVC023 02/01 A2988 RMK AO2 RAE04B20UPB04E20 P0001 T00170006=
202201080453 METAR KPAE 080453Z AUTO 00000KT 6SM -RA BR BKN016 OVC022 02/00 A2987 RMK AO2 RAB32 SLP119 P0001 T00220000=
202201080400 SPECI KPAE 080400Z 09004KT 10SM FEW016 OVC023 03/01 A2984 RMK AO2 T00280006=
202201080353 METAR KPAE 080353Z 08004KT 10SM SCT022 BKN034 OVC041 02/01 A2984 RMK AO2 RAE0257 SLP108 P0000 T00220006=
202201080253 METAR KPAE 080253Z 12003KT 8SM -RA SCT022 BKN034 OVC041 02/01 A2980 RMK AO2 RAB11UPB12E38 SLP094 P0000 60000 T00170006 53033=
202201080153 METAR KPAE 080153Z 07008KT 10SM SCT022 BKN034 OVC041 02/01 A2976 RMK AO2 RAB06E16 SLP082 P0000 T00170006=
202201080053 METAR KPAE 080053Z 10009KT 10SM BKN007 BKN018 OVC024 02/01 A2972 RMK AO2 RAE21 SLP069 P0000 T00220006=
202201072353 METAR KPAE 072353Z 11009KT 5SM -RA BR BKN007 BKN018 OVC024 02/01 A2970 RMK AO2 SLP059 P0001 60003 T00170011 10061 20017 51055=
202201072332 SPECI KPAE 072332Z 10009KT 4SM -RA BR SCT007 BKN018 OVC024 02/01 A2969 RMK AO2 P0000 T00220011=
202201072253 METAR KPAE 072253Z 09005KT 4SM -RA BR BKN018 OVC024 03/01 A2966 RMK AO2 SLP048 P0001 T00330011=
202201072153 METAR KPAE 072153Z VRB04KT 3SM -RA BKN022 OVC029 04/00 A2961 RMK AO2 RAB33 PRESRR SLP029 P0001 T00390000=
202201072136 SPECI KPAE 072136Z 00000KT 5SM -RA BKN029 OVC035 04/M01 A2959 RMK AO2 RAB33 P0000 T00441006=
202201072053 METAR KPAE 072053Z 35013G23KT 9SM OVC030 04/00 A2953 RMK AO2 PK WND 35032/2021 RAE09 SLP002 P0000 60000 T00440000 51051=
202201071953 METAR KPAE 071953Z 33009G21KT 8SM -RA SCT009 BKN017 OVC025 04/02 A2950 RMK AO2 PK WND 32029/1906 RAB39 SLP990 P0000 T00440022=
202201071853 METAR KPAE 071853Z 33010G17KT 10SM OVC009 06/04 A2945 RMK AO2 PRESRR SLP975 T00560044=
202201071753 METAR KPAE 071753Z 33007G21KT 290V040 10SM OVC008 06/05 A2938 RMK AO2 RAB03E16 CIG 006V010 SLP950 P0000 60021 T00610050 10078 20061 53044=
202201071655 SPECI KPAE 071655Z 36005KT 10SM FEW005 BKN009 OVC015 07/06 A2932 RMK AO2 PRESRR T00670061=
202201071653 METAR KPAE 071653Z 35004KT 10SM BKN002 BKN009 OVC019 07/06 A2932 RMK AO2 RAE32 PRESRR SLP929 P0001 T00670061=
202201071555 SPECI KPAE 071555Z 35007KT 3SM -RA BR OVC002 07/07 A2927 RMK AO2 P0000 T00670067=
202201071553 METAR KPAE 071553Z 35008KT 3/4SM R16R/P6000FT -RA BR OVC002 07/07 A2927 RMK AO2 SLP911 P0005 T00670067=
202201071453 METAR KPAE 071453Z 28005KT 3/4SM R16R/3500V6000FT RA BR VV003 08/08 A2925 RMK AO2 SLP904 P0011 60015 T00780078 55011=
202201071441 SPECI KPAE 071441Z AUTO 22008KT 1 1/2SM -RA BR OVC004 08/08 A2924 RMK AO2 P0007 T00780078=
202201071425 SPECI KPAE 071425Z AUTO 20006KT 2 1/2SM -RA BR OVC004 08/07 A2924 RMK AO2 CIG 003V007 P0003 T00780072=
202201071353 METAR KPAE 071353Z AUTO 18009KT 3SM -RA BR OVC006 07/07 A2924 RMK AO2 SLP903 P0001 T00720067=
202201071341 SPECI KPAE 071341Z AUTO 18010KT 3SM -RA BR OVC006 07/07 A2924 RMK AO2 P0000 T00720067=
202201071305 SPECI KPAE 071305Z AUTO 17009KT 2 1/2SM -RA BR OVC008 07/07 A2926 RMK AO2 P0000 T00720067=
202201071253 METAR KPAE 071253Z AUTO 16010KT 1 1/4SM -RA BR FEW004 OVC009 07/07 A2926 RMK AO2 SLP909 P0003 T00720067=
202201071236 SPECI KPAE 071236Z AUTO 16012KT 1 1/2SM -RA BR SCT006 OVC011 07/07 A2926 RMK AO2 P0002 T00720067=
202201071221 SPECI KPAE 071221Z AUTO 16012KT 2SM -RA BR FEW006 OVC011 07/07 A2927 RMK AO2 P0001 T00720067=
202201071211 SPECI KPAE 071211Z AUTO 16013KT 1 3/4SM -RA BR SCT006 OVC011 07/07 A2927 RMK AO2 P0001 T00720067=
202201071153 METAR KPAE 071153Z AUTO 16012KT 1 1/2SM -RA BR BKN008 OVC012 07/07 A2928 RMK AO2 PK WND 17027/1104 RAB17 SLP915 P0002 60019 70041 T00720067 10083 20072 56007=
202201071146 SPECI KPAE 071146Z AUTO 16010KT 1 1/2SM -RA BR BKN009 OVC014 07/07 A2928 RMK AO2 PK WND 17027/1104 RAB17 P0002 T00720067=
202201071129 SPECI KPAE 071129Z AUTO 18015G22KT 2 1/2SM -RA BR BKN009 OVC013 08/07 A2928 RMK AO2 PK WND 17027/1104 RAB17 P0001 T00780067=
202201071120 SPECI KPAE 071120Z AUTO 18017KT 3SM -RA BR BKN009 OVC015 08/07 A2928 RMK AO2 PK WND 17027/1104 RAB17 P0000 T00780067=
202201071113 SPECI KPAE 071113Z AUTO 18019G27KT 5SM BR SCT009 OVC013 08/07 A2928 RMK AO2 PK WND 17027/1104 T00780067=
202201071053 METAR KPAE 071053Z AUTO 18018G26KT 10SM BKN009 BKN014 OVC027 08/07 A2928 RMK AO2 PK WND 18034/1012 SLP917 T00780067=
202201070953 METAR KPAE 070953Z AUTO 18018G28KT 10SM OVC012 08/07 A2929 RMK AO2 PK WND 20033/0924 RAE52 SLP917 P0002 T00780067=
202201070924 SPECI KPAE 070924Z AUTO 19023G33KT 9SM -RA BKN012 OVC020 08/07 A2930 RMK AO2 PK WND 20033/0924 P0002 T00780067=
202201070911 SPECI KPAE 070911Z AUTO 18021G30KT 6SM -RA BR SCT014 BKN021 OVC036 08/07 A2930 RMK AO2 PK WND 19031/0900 P0001 T00780067=
202201070853 METAR KPAE 070853Z AUTO 17020G31KT 5SM -RA BR FEW013 BKN042 OVC110 08/07 A2930 RMK AO2 PK WND 18034/0838 SLP923 P0004 60015 T00780067 58017=
202201070838 SPECI KPAE 070838Z AUTO 18024G34KT 6SM -RA BR SCT015 BKN030 OVC046 08/07 A2931 RMK AO2 PK WND 18034/0838 P0003 T00780067=
202201070816 SPECI KPAE 070816Z AUTO 18019G30KT 6SM -RA BR BKN014 BKN020 OVC036 08/07 A2932 RMK AO2 PK WND 19030/0804 P0003 T00780067=
202201070753 METAR KPAE 070753Z AUTO 17018G26KT 4SM -RA BR SCT015 BKN021 OVC038 08/07 A2934 RMK AO2 PK WND 16036/0702 SLP936 P0007 T00780067 401000006=
202201070653 METAR KPAE 070653Z AUTO 17016G33KT 6SM -RA BR SCT022 OVC045 08/07 A2935 RMK AO2 PK WND 16037/0640 SLP940 P0004 T00830067=
202201070553 METAR KPAE 070553Z AUTO 17019G34KT 7SM -RA FEW014 SCT021 OVC045 08/07 A2938 RMK AO2 PK WND 17036/0543 SLP949 P0003 60015 T00830072 10094 20083 58022=
202201070538 SPECI KPAE 070538Z AUTO 17021G31KT 7SM -RA SCT013 BKN018 OVC043 09/07 A2938 RMK AO2 PK WND 16035/0454 P0002 T00890072=
202201070500 SPECI KPAE 070500Z AUTO 18021G35KT 4SM -RA BR BKN012 BKN018 OVC031 09/08 A2940 RMK AO2 PK WND 16035/0454 P0000 T00890078=
202201070453 METAR KPAE 070453Z 17024G35KT 4SM -RA BR BKN008 OVC015 09/08 A2940 RMK AO2 PK WND 18039/0412 SLP955 P0005 T00890078=
202201070353 METAR KPAE 070353Z 18024G32KT 4SM -RA BR BKN008 OVC015 09/08 A2943 RMK AO2 PK WND 17038/0318 SLP967 P0005 T00940083=
202201070253 METAR KPAE 070253Z 18021G28KT 5SM -RA BR BKN008 OVC017 09/09 A2944 RMK AO2 PK WND 18029/0231 SLP972 P0002 60002 T00940089 58022=
202201070153 METAR KPAE 070153Z 18017KT 6SM -RA BR OVC009 09/09 A2948 RMK AO2 PK WND 18028/0116 RAB43 SLP985 P0000 T00940089=
202201070053 METAR KPAE 070053Z 18020G31KT 10SM OVC009 09/08 A2950 RMK AO2 PK WND 17033/0007 SLP993 T00940083=
202201062353 METAR KPAE 062353Z 18020G32KT 10SM OVC008 09/08 A2951 RMK AO2 PK WND 17036/2305 SLP996 T00940083 10100 20089 56017=
202201062253 METAR KPAE 062253Z 18022G36KT 10SM OVC009 09/08 A2953 RMK AO2 PK WND 17038/2234 SLP003 T00940083=
202201062153 METAR KPAE 062153Z 18022G36KT 10SM OVC008 09/08 A2954 RMK AO2 PK WND 18039/2112 SLP005 T00940083=
202201062053 METAR KPAE 062053Z 17018G29KT 10SM OVC008 09/08 A2956 RMK AO2 PK WND 17036/2036 CIG 005V013 SLP013 T00940083 58027=
202201061953 METAR KPAE 061953Z 17016G31KT 10SM BKN006 OVC011 09/08 A2959 RMK AO2 PK WND 16031/1926 CIG 005V009 SLP022 T00940083=
202201061853 METAR KPAE 061853Z 17012G21KT 10SM BKN009 OVC016 09/08 A2964 RMK AO2 PK WND 15032/1755 SLP039 T00940083=
202201061807 SPECI KPAE 061807Z 17015G31KT 10SM BKN008 OVC013 09/08 A2964 RMK AO2 PK WND 15032/1755 CIG 006V010 T00890078=
202201061753 METAR KPAE 061753Z 16015G25KT 10SM BKN010 OVC016 09/08 A2964 RMK AO2 PK WND 15029/1721 RAB1659E14 SLP041 P0001 60007 T00890078 10089 20022 56013=
202201061717 SPECI KPAE 061717Z 16015G25KT 10SM BKN009 OVC015 09/08 A2964 RMK AO2 RAB1659E14 CIG 007V013 P0000 T00890078=
202201061653 METAR KPAE 061653Z 16014G23KT 10SM BKN010 OVC016 08/07 A2965 RMK AO2 PK WND 17028/1643 CIG 007V013 SLP043 T00830072=
202201061636 SPECI KPAE 061636Z 18016G27KT 10SM FEW006 OVC010 08/07 A2965 RMK AO2 PK WND 17027/1632 CIG 007V013 T00780072=
202201061607 SPECI KPAE 061607Z 15014G24KT 3SM R16R/3500VP6000FT BR OVC002 06/06 A2964 RMK AO2 T00610061=
202201061553 METAR KPAE 061553Z 14010G20KT 1SM R16R/3500VP6000FT BR OVC002 04/04 A2964 RMK AO2 RAE05 SLP040 P0000 T00440044=
202201061548 SPECI KPAE 061548Z 15011G15KT 1 3/4SM R16R/5000VP6000FT BR OVC002 04/04 A2964 RMK AO2 RAE05 PRESFR P0000=
202201061453 METAR KPAE 061453Z VRB03KT 8SM -RA OVC003 03/03 A2968 RMK AO2 RAB42 SLP056 P0000 60006 T00280028 56024=
202201061440 SPECI KPAE 061440Z AUTO VRB03KT 10SM OVC004 03/03 A2968 RMK AO2 T00330028=
202201061418 SPECI KPAE 061418Z AUTO VRB04KT 9SM BKN005 OVC010 03/03 A2969 RMK AO2 T00330028=
202201061353 METAR KPAE 061353Z AUTO 13006KT 10SM OVC014 03/03 A2969 RMK AO2 PK WND 12031/1257 RAE34 SLP058 P0000 T00280028=
202201061323 SPECI KPAE 061323Z AUTO 12007G18KT 10SM -RA FEW004 BKN022 OVC090 03/02 A2967 RMK AO2 PK WND 12031/1257 P0000 T00280022=
202201061307 SPECI KPAE 061307Z AUTO 13007G26KT 090V150 10SM -RA SCT004 BKN080 OVC090 02/02 A2967 RMK AO2 PK WND 12031/1257 P0000 T00220017=
202201061253 METAR KPAE 061253Z AUTO 14017G29KT 6SM -RA BR BKN055 OVC080 02/02 A2967 RMK AO2 PK WND 14029/1253 SLP051 P0006 T00170017=
202201061233 SPECI KPAE 061233Z AUTO 13008G16KT 3SM -RA BR FEW003 SCT018 OVC044 01/01 A2970 RMK AO2 PRESFR P0005 T00110011=
202201061153 METAR KPAE 061153Z AUTO 10008KT 3SM -RA BR FEW004 OVC019 01/01 A2975 RMK AO2 SLP080 P0017 60050 70061 T00110011 10011 20006 55000=
202201061053 METAR KPAE 061053Z AUTO 11009KT 2SM RA BR SCT003 BKN015 OVC021 01/01 A2975 RMK AO2 SLP079 P0012 T00110006=
202201061044 SPECI KPAE 061044Z AUTO 12007KT 2SM -RA BR SCT003 BKN011 OVC017 01/01 A2975 RMK AO2 P0010 T00110006=
202201061016 SPECI KPAE 061016Z AUTO 11008KT 1 1/2SM -RA BR SCT004 OVC009 01/01 A2974 RMK AO2 P0004 T00110006=
202201061003 SPECI KPAE 061003Z AUTO 10007KT 1 1/2SM -RA BR SCT004 BKN010 OVC018 01/01 A2975 RMK AO2 P0001 T00110011=
202201060953 METAR KPAE 060953Z AUTO 10007G17KT 2 1/2SM -RA BR FEW004 BKN014 OVC018 01/01 A2975 RMK AO2 SLP080 P0008 T00110011=
202201060931 SPECI KPAE 060931Z AUTO VRB05G18KT 3SM -RA BR FEW005 SCT020 OVC029 01/01 A2976 RMK AO2 P0005 T00110006=
202201060904 SPECI KPAE 060904Z AUTO 11008KT 5SM -RA BR FEW019 OVC030 01/01 A2978 RMK AO2 PRESFR P0002 T00110006=
202201060853 METAR KPAE 060853Z AUTO 11006KT 4SM -RA BR FEW019 OVC028 01/01 A2979 RMK AO2 SLP093 P0009 60013 T00110006 56028=
202201060848 SPECI KPAE 060848Z AUTO 11006KT 3SM -RA BR FEW019 OVC028 01/01 A2980 RMK AO2 P0009=
202201060835 SPECI KPAE 060835Z AUTO 10008KT 1 3/4SM RA BR FEW004 OVC022 01/01 A2980 RMK AO2 P0006 T00060006=
202201060827 SPECI KPAE 060827Z AUTO 10007KT 3SM -RA BR FEW004 SCT021 OVC025 01/01 A2981 RMK AO2 P0003 T00110006=
202201060802 SPECI KPAE 060802Z AUTO 10010KT 2SM -RA BR SCT004 OVC027 01/00 A2977 RMK AO2 PRESFR P0000 T00060000=
202201060753 METAR KPAE 060753Z AUTO 11010G17KT 3SM -RA BR SCT004 OVC029 01/00 A2979 RMK AO2 UPB19E31RAB31SNE19 SLP094 P0002 T00060000 400280006=
202201060749 SPECI KPAE 060749Z AUTO 12009KT 4SM -RA BR SCT002 OVC029 01/00 A2980 RMK AO2 UPB19E31RAB31SNE19 P0002=
202201060711 SPECI KPAE 060711Z AUTO 11008KT 3SM -SN BR FEW005 OVC035 01/00 A2985 RMK AO2 PRESFR P0000 T00060000=
202201060702 SPECI KPAE 060702Z AUTO 11007KT 2 1/2SM -SN BR OVC033 01/00 A2987 RMK AO2 P0000 T00060000=
202201060653 METAR KPAE 060653Z AUTO 11008KT 3SM -SN BR OVC033 01/00 A2987 RMK AO2 SLP122 P0002 T00060000=
202201060647 SPECI KPAE 060647Z AUTO 11008KT 2 1/2SM -SN BR FEW003 OVC031 01/00 A2988 RMK AO2 P0001=
202201060553 METAR KPAE 060553Z AUTO 11008KT 100V170 1SM R16R/P6000FT -SN BR SCT004 OVC018 01/00 A2993 RMK AO2 UPE0454SNB0454 SLP141 P0003 60011 T00060000 10017 20006 58045=
202201060523 SPECI KPAE 060523Z AUTO 11007KT 1 3/4SM -SN BR FEW006 OVC026 01/00 A2996 RMK AO2 UPE0454SNB0454 PRESFR P0001 T00060000=
202201060516 SPECI KPAE 060516Z AUTO 11006KT 3SM -SN BR FEW008 OVC028 01/00 A2997 RMK AO2 UPE0454SNB0454 PRESFR P0001 T00060000=
202201060453 METAR KPAE 060453Z 10007KT 5SM UP BR OVC034 01/00 A3000 RMK AO2 UPB21SNE21 SLP164 P0002 T00060000=
202201060416 SPECI KPAE 060416Z 10008KT 4SM -SN BR FEW003 FEW008 OVC038 01/00 A3001 RMK AO2 P0000 T00060000=
202201060400 SPECI KPAE 060400Z 10008KT 2SM -SN BR SCT004 OVC030 01/00 A3001 RMK AO2 P0000 T00060000=
202201060353 METAR KPAE 060353Z 10007KT 2SM -SN BR BKN004 OVC026 01/00 A3002 RMK AO2 SLP171 P0001 T00060000=
202201060306 SPECI KPAE 060306Z 07004KT 1 1/2SM -SN BR BKN003 OVC021 01/01 A3006 RMK AO2 P0000 T00060006=
202201060253 METAR KPAE 060253Z 07004KT 2SM -SN BR BKN003 OVC019 01/01 A3007 RMK AO2 SLP187 P0002 60005 T00060006 58019=
202201060158 SPECI KPAE 060158Z 05004KT 2SM -SN BR BKN003 OVC022 01/01 A3009 RMK AO2 P0000 T00110006=
202201060153 METAR KPAE 060153Z 04005KT 3SM -SN BR FEW010 OVC022 01/01 A3009 RMK AO2 SLP196 P0002 T00110006=
202201060053 METAR KPAE 060053Z 06004KT 3SM SN BR BKN015 OVC020 01/01 A3012 RMK AO2 UPB2356E41RAB06E15SNB41 SLP205 P0001 T00110006=
202201060051 SPECI KPAE 060051Z 05004KT 3SM SN BR BKN015 OVC020 01/00 A3012 RMK AO2 UPB2356E41RAB06E15SNB41 P0001=
202201060034 SPECI KPAE 060034Z 06003KT 7SM UP BKN014 OVC033 02/01 A3013 RMK AO2 UPB2356RAB06E15 P0000 T00170006=
202201052353 METAR KPAE 052353Z 00000KT 6SM BR OVC041 02/01 A3014 RMK AO2 SLP212 T00170006 10022 20017 56017=
202201052300 SPECI KPAE 052300Z 00000KT 5SM BR OVC055 02/01 A3015 RMK AO2 T00170006=
202201052253 METAR KPAE 052253Z 00000KT 5SM BR SCT006 OVC024 02/01 A3016 RMK AO2 SLP217 T00170006=
202201052200 SPECI KPAE 052200Z 11003KT 4SM BR SCT006 OVC024 02/01 A3016 RMK AO2 T00170006=
202201052153 METAR KPAE 052153Z 3SM BR SCT008 OVC012 02/01 A3017 RMK AO2 SLP220 T00220011=
202201052053 METAR KPAE 052053Z 33003KT 4SM BR SCT004 BKN010 OVC035 02/01 A3019 RMK AO2 SLP228 T00170011 58005=
202201052044 SPECI KPAE 052044Z 35003KT 5SM BR BKN010 BKN035 OVC065 02/01 A3019 RMK AO2 T00220011=
202201052001 SPECI KPAE 052001Z 00000KT 6SM BR FEW005 BKN034 OVC065 02/01 A3021 RMK AO2 T00220006=
202201051953 METAR KPAE 051953Z 00000KT 5SM BR OVC034 02/01 A3021 RMK AO2 SLP235 T00170011=
202201051903 SPECI KPAE 051903Z 00000KT 10SM OVC031 02/01 A3023 RMK AO2 T00170006=
202201051853 METAR KPAE 051853Z 00000KT 10SM OVC029 02/00 A3023 RMK AO2 SLP241 T00170000=
202201051838 SPECI KPAE 051838Z 00000KT 10SM BKN029 OVC034 02/01 A3022 RMK AO2 T00170006=
202201051801 SPECI KPAE 051801Z 00000KT 9SM BKN030 OVC036 02/01 A3021 RMK AO2 T00170006=
202201051753 METAR KPAE 051753Z 00000KT 8SM BKN028 OVC037 02/01 A3021 RMK AO2 SLP233 T00170006 10017 20011 51020=
202201051653 METAR KPAE 051653Z 00000KT 10SM FEW009 OVC036 02/00 A3019 RMK AO2 SLP228 T00170000=
202201051553 METAR KPAE 051553Z 00000KT 10SM OVC031 02/M01 A3017 RMK AO2 SLP220 T00171006=
202201051453 METAR KPAE 051453Z 02004KT 10SM FEW025 BKN110 02/M01 A3015 RMK AO2 SLP213 T00171006 51014=
202201051353 METAR KPAE 051353Z AUTO 36004KT 10SM SCT120 01/00 A3014 RMK AO2 SLP210 T00110000=
202201051334 SPECI KPAE 051334Z AUTO 36004KT 10SM FEW008 SCT028 01/01 A3013 RMK AO2 T00110006=
202201051310 SPECI KPAE 051310Z AUTO 36003KT 10SM SCT008 BKN028 02/01 A3013 RMK AO2 T00170006=
202201051253 METAR KPAE 051253Z AUTO 36006KT 10SM CLR 02/01 A3013 RMK AO2 SLP206 T00170011=
202201051235 SPECI KPAE 051235Z AUTO 35004KT 10SM SCT008 02/01 A3012 RMK AO2 T00170006=
202201051218 SPECI KPAE 051218Z AUTO 34004KT 10SM BKN008 02/01 A3012 RMK AO2 CIG 007V012 T00170011=
202201051153 METAR KPAE 051153Z AUTO 35004G18KT 10SM SCT008 BKN031 02/01 A3010 RMK AO2 SLP199 70014 T00170011 10028 20017 51027=
202201051142 SPECI KPAE 051142Z AUTO 35009KT 10SM SCT009 SCT012 BKN030 02/01 A3010 RMK AO2 T00220011=
202201051125 SPECI KPAE 051125Z AUTO 34007KT 10SM SCT009 SCT014 OVC029 02/01 A3009 RMK AO2 T00220011=
202201051112 SPECI KPAE 051112Z AUTO 32008KT 10SM BKN009 BKN013 OVC027 02/02 A3009 RMK AO2 CIG 007V010 T00220017=
202201051053 METAR KPAE 051053Z AUTO 10SM SCT008 BKN014 OVC020 02/02 A3008 RMK AO2 SLP191 T00220017=
202201051040 SPECI KPAE 051040Z AUTO 31003KT 10SM SCT006 BKN014 OVC019 02/02 A3008 RMK AO2 T00220017=
202201051026 SPECI KPAE 051026Z AUTO 32003KT 10SM BKN007 BKN013 OVC023 02/02 A3007 RMK AO2 CIG 005V011 T00220017=
202201050953 METAR KPAE 050953Z AUTO 31007KT 10SM SCT009 BKN015 OVC020 03/02 A3006 RMK AO2 SLP185 T00280017=
202201050853 METAR KPAE 050853Z AUTO 00000KT 9SM SCT009 OVC017 02/02 A3002 RMK AO2 SLP171 T00220017 51019=
202201050836 SPECI KPAE 050836Z AUTO 31004KT 10SM BKN009 OVC019 02/02 A3002 RMK AO2 CIG 006V012 T00220017=
202201050829 SPECI KPAE 050829Z AUTO 00000KT 10SM SCT007 BKN012 OVC019 02/02 A3001 RMK AO2 T00220017=
202201050753 METAR KPAE 050753Z AUTO 36004KT 9SM BKN009 OVC014 02/02 A3000 RMK AO2 CIG 007V012 SLP163 T00220017 400390011=
202201050748 SPECI KPAE 050748Z AUTO VRB03KT 6SM BR BKN009 OVC015 02/02 A3000 RMK AO2 CIG 007V013=
202201050738 SPECI KPAE 050738Z AUTO 35003KT 2 1/2SM BR BKN009 OVC015 02/02 A2999 RMK AO2 T00220017=
202201050734 SPECI KPAE 050734Z AUTO 00000KT 2 1/2SM BR SCT010 OVC016 02/02 A2999 RMK AO2 T00220017=
202201050726 SPECI KPAE 050726Z AUTO 35003KT 3SM BR FEW001 BKN013 BKN017 02/02 A2998 RMK AO2 T00220017=
202201050713 SPECI KPAE 050713Z AUTO 32004KT 2SM BR SCT002 SCT005 OVC019 02/02 A2998 RMK AO2 T00170017=
202201050704 SPECI KPAE 050704Z AUTO 32003KT 3SM BR BKN002 OVC021 02/02 A2997 RMK AO2 T00170017=
202201050653 METAR KPAE 050653Z AUTO 27005KT 5SM BR FEW001 BKN005 OVC021 02/02 A2996 RMK AO2 SLP151 T00220017=
202201050645 SPECI KPAE 050645Z AUTO 25003KT 9SM SCT005 BKN021 OVC070 02/02 A2996 RMK AO2 T00220022=
202201050635 SPECI KPAE 050635Z AUTO 25004KT 8SM BKN005 BKN026 OVC070 02/02 A2996 RMK AO2 T00220022=
202201050557 SPECI KPAE 050557Z AUTO 00000KT 7SM FEW003 SCT008 OVC050 02/02 A2995 RMK AO2 T00220017=
202201050553 METAR KPAE 050553Z AUTO 00000KT 7SM SCT003 BKN008 OVC050 02/02 A2995 RMK AO2 RAE01B17E34UPB0454E00B15E17B34E43 SLP146 P0001 60012 T00220017 10028 20022 53005=
202201050524 SPECI KPAE 050524Z AUTO 00000KT 3SM -RA BR OVC003 02/02 A2996 RMK AO2 RAE01B17UPB0454E00B15E17 CIG 002V006 P0001 T00220017=
202201050510 SPECI KPAE 050510Z AUTO 00000KT 4SM BR OVC005 02/02 A2995 RMK AO2 RAE01UPB0454E00 P0000 T00220017=
202201050500 SPECI KPAE 050500Z AUTO 00000KT 2 1/2SM -RA BR OVC006 02/02 A2995 RMK AO2 UPB0454E00 P0000 T00220017=
202201050453 METAR KPAE 050453Z AUTO 00000KT 1 3/4SM -RA BR OVC006 02/02 A2994 RMK AO2 CIG 005V010 SLP143 P0004 T00220017=
202201050427 SPECI KPAE 050427Z 14003KT 1 3/4SM -RA BR OVC009 02/02 A2993 RMK AO2 CIG 003V012 P0003 T00220017=
202201050353 METAR KPAE 050353Z 00000KT 1 3/4SM -RA BR OVC004 02/02 A2993 RMK AO2 UPB23E26RAB26 SLP141 P0006 T00220017=
202201050341 SPECI KPAE 050341Z 16003KT 1 1/4SM -RA BR BKN004 OVC008 02/02 A2993 RMK AO2 UPB23E26RAB26 P0003 T00220022=
202201050323 SPECI KPAE 050323Z 15006KT 1 3/4SM UP BR OVC008 03/02 A2993 RMK AO2 UPB23 CIG 004V010 P0000 T00280017=
202201050253 METAR KPAE 050253Z 15008KT 10SM OVC009 03/02 A2993 RMK AO2 RAE44 SLP141 P0000 60001 T00280017 55007=
202201050250 SPECI KPAE 050250Z 16007KT 10SM OVC010 03/02 A2993 RMK AO2 RAE44 P0000=
202201050153 METAR KPAE 050153Z 14007KT 7SM RA SCT016 BKN030 03/02 A2994 RMK AO2 RAB19UPB20E53 SLP142 P0000 T00280017=
202201050111 SPECI KPAE 050111Z 14009G19KT 9SM SCT016 BKN030 03/02 A2995 RMK AO2 T00280017=
202201050100 SPECI KPAE 050100Z 14009G16KT 10SM SCT018 OVC026 03/02 A2995 RMK AO2 T00280017=
202201050053 METAR KPAE 050053Z 14007KT 10SM SCT016 BKN030 OVC041 03/02 A2995 RMK AO2 RAB2359E20UPB20E26 SLP148 P0001 T00280017=
202201042353 METAR KPAE 042353Z 14006KT 10SM SCT016 BKN030 OVC070 03/02 A2996 RMK AO2 RAE2256 SLP151 P0000 60000 T00280017 10039 20028 56007=
202201042253 METAR KPAE 042253Z 16009KT 4SM -RA BR OVC012 03/02 A2997 RMK AO2 RAB24 SLP152 P0000 T00330017=
202201042228 SPECI KPAE 042228Z 16010KT 6SM -RA BR OVC014 03/01 A2997 RMK AO2 RAB24 P0000 T00330011=
202201042153 METAR KPAE 042153Z 16012G19KT 10SM BKN020 OVC110 04/01 A2998 RMK AO2 SLP155 T00390006=
202201042145 SPECI KPAE 042145Z 16011G19KT 10SM BKN020 BKN025 OVC120 04/01 A2998 RMK AO2 T00390011=
202201042053 METAR KPAE 042053Z 17013G20KT 10SM FEW043 04/01 A2998 RMK AO2 SLP158 T00390011 58006=
202201042012 SPECI KPAE 042012Z 16009KT 10SM FEW013 SCT019 04/01 A2999 RMK AO2 T00390011=
202201041953 METAR KPAE 041953Z 15010KT 10SM BKN015 BKN020 OVC120 03/01 A2999 RMK AO2 SLP161 T00330011=
202201041944 SPECI KPAE 041944Z 15009KT 10SM BKN015 BKN022 OVC120 03/01 A3000 RMK AO2 T00330011=
202201041917 SPECI KPAE 041917Z 14007KT 10SM SCT006 OVC012 03/01 A3000 RMK AO2 T00330011=
202201041900 SPECI KPAE 041900Z VRB04KT 10SM BKN012 OVC018 03/01 A3001 RMK AO2 T00280011=
202201041853 METAR KPAE 041853Z 12007KT 10SM OVC008 03/01 A3001 RMK AO2 SLP167 T00280011=
202201041753 METAR KPAE 041753Z 16008KT 10SM OVC007 03/01 A3000 RMK AO2 SLP165 60002 T00280011 10028 20011 51035=
202201041713 SPECI KPAE 041713Z 15008KT 10SM OVC007 02/01 A2999 RMK AO2 T00220006=
202201041653 METAR KPAE 041653Z 19008KT 10SM BKN014 02/01 A2998 RMK AO2 SLP157 T00220006=
202201041553 METAR KPAE 041553Z 19009KT 10SM BKN012 02/01 A2994 RMK AO2 SLP146 T00170006=
202201041453 METAR KPAE 041453Z 20013KT 10SM OVC012 02/01 A2990 RMK AO2 SLP130 60002 T00220006 53018=
202201041412 SPECI KPAE 041412Z AUTO 18011KT 9SM OVC009 02/01 A2988 RMK AO2 CIG 008V013 T00170011=
202201041353 METAR KPAE 041353Z AUTO 17015G22KT 10SM BKN010 BKN013 OVC026 02/01 A2986 RMK AO2 UPB1254E01B24E25RAB01E26 SLP118 P0001 T00220011=
202201041300 SPECI KPAE 041300Z AUTO 16014G27KT 10SM UP FEW007 BKN014 OVC030 02/01 A2985 RMK AO2 UPB1254 P0000 T00170006=
202201041253 METAR KPAE 041253Z AUTO 16019G27KT 10SM FEW008 BKN030 OVC110 02/01 A2984 RMK AO2 PK WND 16027/1252 RAB06E14B30E33UPB33E37SNE30 SLP111 P0001 T00170006=
202201041153 METAR KPAE 041153Z AUTO 16014KT 4SM -SN BR FEW009 BKN017 OVC046 01/01 A2984 RMK AO2 RAB07E31UPB18E20SNB31 SLP111 P0004 60004 70025 T00110006 10022 20011 51025=
202201041144 SPECI KPAE 041144Z AUTO 16015G22KT 2 1/2SM -SN BR FEW009 OVC017 02/01 A2984 RMK AO2 RAB07E31UPB18E20SNB31 P0003 T00170006=
202201041128 SPECI KPAE 041128Z AUTO 16013KT 3SM -RA BR OVC025 02/01 A2984 RMK AO2 RAB07UPB18E20 P0001 T00170006=
202201041053 METAR KPAE 041053Z AUTO 16015G21KT 10SM FEW023 BKN033 BKN047 02/01 A2984 RMK AO2 SLP108 T00220006=
202201041028 SPECI KPAE 041028Z AUTO 16013KT 10SM FEW012 BKN023 02/01 A2983 RMK AO2 T00220006=
202201040953 METAR KPAE 040953Z AUTO 16016G23KT 10SM OVC011 02/01 A2980 RMK AO2 SLP097 T00170006=
202201040853 METAR KPAE 040853Z AUTO 16015KT 10SM OVC007 02/01 A2977 RMK AO2 CIG 006V011 SLP085 T00170006 53021=
202201040753 METAR KPAE 040753Z AUTO 16013G21KT 10SM OVC007 02/01 A2975 RMK AO2 SLP079 T00170006 400330006=
202201040653 METAR KPAE 040653Z AUTO 16012G19KT 10SM BKN006 BKN011 01/00 A2971 RMK AO2 CIG 004V011 SLP065 T00110000=
202201040649 SPECI KPAE 040649Z AUTO 16013KT 10SM BKN006 OVC011 01/00 A2971 RMK AO2 CIG 004V010=
202201040626 SPECI KPAE 040626Z AUTO 16013G22KT 10SM OVC004 01/01 A2970 RMK AO2 CIG 003V007 T00110006=
202201040553 METAR KPAE 040553Z AUTO 16012G18KT 10SM OVC006 01/00 A2968 RMK AO2 CIG 005V009 SLP055 T00110000 10022 20011 51021=
202201040525 SPECI KPAE 040525Z AUTO 14010G16KT 10SM BKN006 OVC015 01/00 A2967 RMK AO2 CIG 006V011 T00110000=
202201040511 SPECI KPAE 040511Z AUTO 16010KT 10SM SCT008 OVC015 01/00 A2967 RMK AO2 T00110000=
202201040500 SPECI KPAE 040500Z AUTO 15010KT 10SM FEW010 OVC016 01/00 A2967 RMK AO2 T00110000=
202201040453 METAR KPAE 040453Z AUTO 15010KT 10SM SCT016 01/00 A2966 RMK AO2 SLP050 T00110000=
202201040353 METAR KPAE 040353Z 17011KT 10SM SCT019 02/00 A2964 RMK AO2 SLP043 T00170000=
202201040253 METAR KPAE 040253Z 16007KT 10SM SCT019 01/M01 A2962 RMK AO2 SLP034 T00111006 53024=
202201040153 METAR KPAE 040153Z 14005KT 10SM CLR 01/00 A2959 RMK AO2 SLP023 T00110000=
202201040053 METAR KPAE 040053Z 15011KT 10SM FEW024 02/M01 A2957 RMK AO2 SLP019 T00171006=
202201032353 METAR KPAE 032353Z AUTO 17014G22KT 10SM CLR 03/M02 A2954 RMK AO2 SLP008 60005 T00281017 10033 20017 53027=
202201032253 METAR KPAE 032253Z 19015G23KT 10SM CLR 03/M01 A2952 RMK AO2 PK WND 21032/2211 SLP000 T00331011=
202201032153 METAR KPAE 032153Z 19017G24KT 10SM CLR 03/00 A2948 RMK AO2 PK WND 18037/2054 SLP987 T00280000=
202201032111 SPECI KPAE 032111Z 19019KT 10SM FEW015 SCT020 SCT026 03/01 A2947 RMK AO2 PK WND 18037/2054 T00280006=
202201032100 SPECI KPAE 032100Z 18019G37KT 10SM SCT018 BKN025 03/01 A2947 RMK AO2 PK WND 18037/2054 T00280006=
202201032053 METAR KPAE 032053Z 18021G31KT 4SM BR BKN004 BKN013 OVC023 03/01 A2946 RMK AO2 PK WND 17031/2053 RAE00B06E50UPB00E22B38E53 SLP981 P0001 60005 T00280006 51008=
202201032002 SPECI KPAE 032002Z 19016G24KT 4SM UP BR BKN004 BKN013 OVC023 02/01 A2947 RMK AO2 RAE00UPB00 PRESRR P0000 T00220011=
202201031956 SPECI KPAE 031956Z 19019G35KT 4SM -RA BR SCT011 BKN031 OVC070 02/01 A2946 RMK AO2 P0000 T00220011=
202201031953 METAR KPAE 031953Z 19019G37KT 4SM -RA BR BKN004 BKN013 OVC023 02/01 A2946 RMK AO2 PK WND 18037/1946 UPB46E50RAB50 SLP980 P0000 T00220011=
202201031853 METAR KPAE 031853Z 17013G21KT 10SM BKN004 BKN013 OVC023 02/01 A2945 RMK AO2 RAE35UPB35E52 SLP977 P0004 T00220011=
202201031850 SPECI KPAE 031850Z 16011G20KT 10SM UP BKN004 BKN013 OVC023 02/01 A2945 RMK AO2 RAE35UPB35 P0004=
202201031811 SPECI KPAE 031811Z 17010G18KT 2 1/2SM -RA BR OVC007 02/01 A2944 RMK AO2 P0002 T00170011=
202201031753 METAR KPAE 031753Z 16014G22KT 4SM -RA BR OVC007 02/01 A2944 RMK AO2 PK WND 16026/1656 UPB12E21 SLP973 P0002 60016 T00170011 10022 20011 53013=
202201031743 SPECI KPAE 031743Z 16014G23KT 2SM -RA BR OVC007 02/01 A2943 RMK AO2 PK WND 16026/1656 UPB12E21 P0002 T00170011=
202201031721 SPECI KPAE 031721Z 16016G24KT 9SM -RA OVC007 02/01 A2943 RMK AO2 PK WND 16026/1656 UPB12E21 P0000 T00220011=
202201031707 SPECI KPAE 031707Z 16016KT 10SM -RA BKN010 BKN039 OVC070 02/01 A2941 RMK AO2 PK WND 16026/1656 P0000 T00220011=
202201031653 METAR KPAE 031653Z 16017G27KT 8SM -RA SCT011 BKN031 OVC070 02/01 A2941 RMK AO2 PK WND 16027/1645 SLP965 P0003 T00220011=
202201031639 SPECI KPAE 031639Z 16015G26KT 4SM -RA BR FEW009 OVC033 02/01 A2942 RMK AO2 PK WND 17026/1637 P0002 T00220011=
202201031553 METAR KPAE 031553Z 17013KT 8SM -RA BKN045 OVC070 02/01 A2941 RMK AO2 RAB11UPB50E52 SLP964 P0001 T00170006=
202201031453 METAR KPAE 031453Z 14013G19KT 10SM FEW011 FEW039 SCT050 02/01 A2940 RMK AO2 SLP959 P0002 60010 T00170006 55005=
202201031437 SPECI KPAE 031437Z AUTO 15013KT 10SM SCT013 BKN042 OVC050 02/01 A2940 RMK AO2 P0002 T00170006=
202201031402 SPECI KPAE 031402Z AUTO 16014G23KT 10SM SCT007 BKN010 OVC049 02/01 A2940 RMK AO2 T00170006=
202201031353 METAR KPAE 031353Z AUTO 15014G26KT 10SM BKN007 BKN010 OVC049 02/01 A2938 RMK AO2 PK WND 15027/1338 RAB1254E31 SLP954 P0004 T00170006=
202201031253 METAR KPAE 031253Z AUTO 15013G22KT 10SM OVC006 01/01 A2941 RMK AO2 RAE06 CIG 004V010 SLP962 P0004 T00110006=
202201031240 SPECI KPAE 031240Z AUTO 16013G25KT 10SM OVC008 01/01 A2942 RMK AO2 RAE06 CIG 004V015 P0004 T00110006=
202201031225 SPECI KPAE 031225Z AUTO 16016KT 10SM FEW003 BKN010 OVC095 01/01 A2941 RMK AO2 RAE06 P0002 T00110006=
202201031205 SPECI KPAE 031205Z AUTO 15014G23KT 10SM -RA FEW004 SCT050 OVC095 01/01 A2941 RMK AO2 P0001 T00110006=
202201031153 METAR KPAE 031153Z AUTO 14013G22KT 10SM -RA SCT055 OVC095 01/01 A2941 RMK AO2 SLP965 P0006 60047 70186 T00110006 10011 20006 58007=
202201031053 METAR KPAE 031053Z AUTO 14014G21KT 7SM -RA OVC035 01/01 A2943 RMK AO2 RAB20SNE20 SLP972 P0007 T00110006=
202201031017 SPECI KPAE 031017Z AUTO 15012KT 3SM -SN BR FEW007 SCT012 OVC025 01/00 A2944 RMK AO2 P0003 T00060000=
202201031005 SPECI KPAE 031005Z AUTO 15012KT 1 3/4SM -SN BR FEW007 OVC016 01/00 A2945 RMK AO2 PRESRR P0001 T00110000=
202201031003 SPECI KPAE 031003Z AUTO 15012KT 2SM -SN BR FEW007 OVC014 01/01 A2945 RMK AO2 P0001 T00110006=
202201030953 METAR KPAE 030953Z AUTO 15009KT 4SM -SN BR FEW007 BKN014 OVC095 01/01 A2943 RMK AO2 RAB26E33B36E37UPB33E50SNE26B50 SLP972 P0006 T00110006=
202201030949 SPECI KPAE 030949Z AUTO 16011KT 7SM UP SCT012 BKN018 OVC100 01/01 A2943 RMK AO2 RAB26E33B36E37UPB33SNE26 CIG 014V035 PRESRR P0006=
202201030934 SPECI KPAE 030934Z AUTO 14007KT 110V170 10SM UP FEW006 BKN075 OVC100 01/01 A2941 RMK AO2 RAB26E33UPB33SNE26 P0005 T00110006=
202201030923 SPECI KPAE 030923Z AUTO 14009G24KT 100V160 6SM -SN BR SCT004 BKN016 OVC110 01/01 A2941 RMK AO2 PRESFR P0004 T00110006=
202201030914 SPECI KPAE 030914Z AUTO 14011G23KT 2SM -SN BR SCT004 BKN016 OVC080 01/00 A2942 RMK AO2 P0003 T00060000=
202201030853 METAR KPAE 030853Z AUTO 14011G25KT 1SM R16R/P6000FT -SN BR FEW004 OVC010 01/00 A2944 RMK AO2 SLP974 P0003 60028 T00060000 58012=
202201030831 SPECI KPAE 030831Z AUTO 15012G23KT 1/2SM R16R/5500VP6000FT SN FG SCT004 OVC010 01/00 A2945 RMK AO2 P0002 T00060000=
202201030820 SPECI KPAE 030820Z AUTO 15011G18KT 1SM R16R/P6000FT -SN BR SCT004 OVC012 01/00 A2944 RMK AO2 P0002 T00060000=
202201030813 SPECI KPAE 030813Z AUTO 14011G21KT 3/4SM R16R/P6000FT -SN BR SCT004 OVC012 01/00 A2945 RMK AO2 P0001 T00060000=
202201030803 SPECI KPAE 030803Z AUTO 14013G26KT 3/4SM R16R/6000VP6000FT -SN BR BKN004 OVC010 01/00 A2944 RMK AO2 P0000 T00060000=
202201030753 METAR KPAE 030753Z AUTO 15017G26KT 1SM R16R/P6000FT -SN BR BKN004 OVC012 01/00 A2945 RMK AO2 PK WND 14026/0750 RAE0655SNB0655 SLP979 P0004 T00060000 400330000=
202201030746 SPECI KPAE 030746Z AUTO 15014G23KT 3/4SM R16R/6000VP6000FT -SN BR BKN004 OVC012 01/00 A2946 RMK AO2 RAE0655SNB0655 P0003 T00060000=
202201030659 SPECI KPAE 030659Z AUTO 14012G26KT 1SM R16R/6000VP6000FT -SN BR BKN004 OVC022 01/00 A2947 RMK AO2 RAE55SNB55 P0000 T00060000=
202201030653 METAR KPAE 030653Z AUTO 14016G26KT 2SM -RA BR SCT004 OVC024 01/00 A2947 RMK AO2 PK WND 14031/0623 SLP984 P0021 T00060000=
202201030643 SPECI KPAE 030643Z AUTO 14012G28KT 2SM RA BR SCT004 OVC028 01/01 A2947 RMK AO2 PK WND 14031/0623 P0018 T00110006=
202201030618 SPECI KPAE 030618Z AUTO 14014G28KT 100V170 3SM -RA BR FEW006 FEW023 OVC032 01/01 A2947 RMK AO2 PK WND 12028/0618 P0008 T00110006=
202201030602 SPECI KPAE 030602Z AUTO 14014G25KT 3SM -RA BR OVC027 01/01 A2948 RMK AO2 P0003 T00110006=
202201030553 METAR KPAE 030553Z AUTO 12011G25KT 090V150 2 1/2SM RA BR OVC027 01/01 A2948 RMK AO2 RAB28SNE28 PRESFR SLP986 P0020 60114 T00110006 10033 20006 58032=
202201030541 SPECI KPAE 030541Z AUTO 14011G21KT 4SM -RA BR OVC023 01/01 A2951 RMK AO2 RAB28SNE28 P0014 T00110006=
202201030527 SPECI KPAE 030527Z AUTO 14007KT 110V180 2SM -SN BR OVC017 01/01 A2953 RMK AO2 P0009 T00060006=
202201030511 SPECI KPAE 030511Z AUTO 15008KT 1 1/4SM -SN BR OVC013 01/01 A2955 RMK AO2 P0004 T00060006=
202201030500 SPECI KPAE 030500Z AUTO VRB04KT 1SM R16R/P6000FT -SN BR FEW009 OVC015 01/01 A2955 RMK AO2 P0001 T00060006=
202201030453 METAR KPAE 030453Z 11005KT 2SM -SN BR BKN005 BKN009 OVC017 01/01 A2954 RMK AO2 RAE0355B18E50SNB0355E18B50 SLP009 P0017 T00060006=
202201030353 METAR KPAE 030353Z VRB04KT 2SM RA BR BKN005 BKN012 OVC017 02/01 A2956 RMK AO2 SLP014 P0022 T00170011=
202201030253 METAR KPAE 030253Z 15004KT 1SM R16R/P6000FT -RA BR BKN005 OVC026 02/02 A2957 RMK AO2 SLP019 P0019 60055 T00220022 56016=
202201030222 SPECI KPAE 030222Z 22006KT 1SM R16R/P6000FT RA BR BKN005 OVC026 03/03 A2957 RMK AO2 P0009 T00280028=
202201030214 SPECI KPAE 030214Z 22007KT 3SM RA BR BKN005 OVC026 03/03 A2958 RMK AO2 P0006 T00330028=
202201030153 METAR KPAE 030153Z 19012G19KT 3SM -RA BR OVC027 03/02 A2958 RMK AO2 SLP022 P0017 T00330017=
202201030053 METAR KPAE 030053Z 15010G17KT 10SM -RA OVC037 02/01 A2959 RMK AO2 SLP023 P0019 T00220011=
202201022353 METAR KPAE 022353Z 15015G22KT 8SM -RA OVC037 02/01 A2962 RMK AO2 SLP036 P0020 60025 T00220011 10033 20017 58035=
202201022340 SPECI KPAE 022340Z 15014KT 3SM -RA BR FEW028 OVC035 02/01 A2962 RMK AO2 P0017 T00220011=
202201022305 SPECI KPAE 022305Z 15011KT 3SM -RA BR OVC028 02/02 A2966 RMK AO2 P0005 T00220017=
202201022253 METAR KPAE 022253Z 15009KT 2 1/2SM -RA BR BKN006 OVC023 02/02 A2968 RMK AO2 SLP055 P0005 T00220017=
202201022203 SPECI KPAE 022203Z 15007KT 4SM -RA BR BKN006 OVC023 02/01 A2971 RMK AO2 P0000 T00170011=
202201022155 SPECI KPAE 022155Z 15008KT 2 1/2SM -RA BR BKN006 OVC023 02/01 A2971 RMK AO2 P0000 T00170011=
202201022153 METAR KPAE 022153Z 15008KT 5SM -RA BR BKN006 BKN023 OVC034 02/01 A2971 RMK AO2 RAE06B36UPB06E36 SLP064 P0000 T00220011=
202201022104 SPECI KPAE 022104Z 15009KT 5SM -RA BR BKN006 BKN023 OVC034 02/01 A2973 RMK AO2 P0000 T00170006=
202201022100 SPECI KPAE 022100Z 15007KT 4SM -RA BR OVC023 02/01 A2973 RMK AO2 P0000 T00170006=
202201022053 METAR KPAE 022053Z 15009KT 5SM -RA BR BKN006 BKN023 OVC034 02/01 A2973 RMK AO2 SLP071 P0000 60000 T00220006 58030=
202201022005 SPECI KPAE 022005Z 19006KT 7SM -RA SCT024 OVC028 02/M01 A2977 RMK AO2 P0000 T00171006=
202201021953 METAR KPAE 021953Z 18006KT 8SM -RA OVC030 02/M01 A2977 RMK AO2 RAB1854 SLP087 P0000 T00171006=
202201021853 METAR KPAE 021853Z 17008KT 10SM OVC032 03/M02 A2979 RMK AO2 UPB1754E1759B24E26RAB1759E24 SLP094 P0000 T00281017=
202201021753 METAR KPAE 021753Z 17011KT 10SM BKN031 BKN045 OVC090 03/M03 A2982 RMK AO2 SLP103 T00281028 10028 20000 56024=
202201021653 METAR KPAE 021653Z 15010KT 10SM OVC033 01/M03 A2984 RMK AO2 SLP109 T00111033=
202201021553 METAR KPAE 021553Z 15010KT 10SM BKN035 00/M04 A2986 RMK AO2 SLP117 T00001039=
202201021453 METAR KPAE 021453Z AUTO 15010KT 10SM OVC036 00/M04 A2989 RMK AO2 SLP127 T00001044 56018=
202201021353 METAR KPAE 021353Z AUTO 15012KT 10SM SCT036 00/M04 A2990 RMK AO2 SLP132 T00001039=
202201021253 METAR KPAE 021253Z AUTO 16013KT 10SM OVC037 02/M04 A2992 RMK AO2 SLP137 T00171039=
202201021153 METAR KPAE 021153Z AUTO 16011KT 10SM BKN038 01/M04 A2994 RMK AO2 SLP145 T00111039 10017 20000 56009=
202201021053 METAR KPAE 021053Z AUTO 16014KT 10SM SCT030 00/M04 A2995 RMK AO2 SLP146 T00001039=
202201021017 SPECI KPAE 021017Z AUTO 17014KT 10SM SCT029 01/M04 A2995 RMK AO2 T00061039=
202201021009 SPECI KPAE 021009Z AUTO 17015KT 10SM BKN029 01/M04 A2995 RMK AO2 T00061039=
202201020953 METAR KPAE 020953Z AUTO 17014KT 10SM SCT030 01/M04 A2995 RMK AO2 SLP149 T00061039=
202201020853 METAR KPAE 020853Z AUTO 16015KT 10SM BKN030 01/M03 A2997 RMK AO2 SLP154 T00061028 57017=
202201020832 SPECI KPAE 020832Z AUTO 16015G22KT 10SM OVC030 01/M03 A2997 RMK AO2 T00061033=
202201020753 METAR KPAE 020753Z AUTO 16016G29KT 10SM OVC029 02/M05 A2998 RMK AO2 PK WND 16029/0745 SLP159 T00171050 400221067=
202201020735 SPECI KPAE 020735Z AUTO 15014G22KT 10SM OVC029 01/M04 A2999 RMK AO2 T00111044=
202201020653 METAR KPAE 020653Z AUTO 14008G17KT 10SM OVC032 00/M04 A3001 RMK AO2 PK WND 16030/0616 SLP168 T00001039=
202201020553 METAR KPAE 020553Z AUTO 16017G26KT 10SM BKN039 01/M04 A3002 RMK AO2 PK WND 14026/0551 SLP172 T00061044 10022 20006 56021=
202201020453 METAR KPAE 020453Z VRB05G17KT 10SM OVC037 01/M05 A3004 RMK AO2 PK WND 14026/0423 SLP178 T00061050=
202201020444 SPECI KPAE 020444Z 15012KT 10SM SCT027 OVC041 01/M06 A3004 RMK AO2 PK WND 14026/0423 T00111056=
202201020353 METAR KPAE 020353Z 13007G20KT 090V170 10SM OVC026 02/M06 A3006 RMK AO2 PK WND 15026/0339 SLP186 T00221061=
202201020253 METAR KPAE 020253Z 14008G20KT 10SM OVC023 02/M06 A3008 RMK AO2 PK WND 13026/0206 SLP194 T00171056 56021=
202201020153 METAR KPAE 020153Z 14013G20KT 10SM OVC027 01/M05 A3010 RMK AO2 SLP198 T00111050=
202201020122 SPECI KPAE 020122Z 14010G18KT 10SM BKN029 BKN043 01/M05 A3011 RMK AO2 T00061050=
202201020053 METAR KPAE 020053Z 14007G17KT 090V160 10SM CLR 01/M05 A3013 RMK AO2 SLP210 T00061050=
202201012353 METAR KPAE 012353Z AUTO 14010KT 10SM BKN030 01/M05 A3015 RMK AO2 SLP216 T00061050 10011 21039 56014=
202201012253 METAR KPAE 012253Z 15011KT 10SM FEW033 01/M06 A3016 RMK AO2 SLP222 T00061056=
202201012153 METAR KPAE 012153Z 14014G21KT 10SM SCT033 01/M06 A3016 RMK AO2 SLP223 T00061061=
202201012053 METAR KPAE 012053Z 16013G19KT 10SM SCT035 00/M07 A3019 RMK AO2 SLP231 T00001067 58020=
202201011953 METAR KPAE 011953Z 14007KT 10SM BKN065 M01/M07 A3021 RMK AO2 SLP239 T10061067=
202201011853 METAR KPAE 011853Z 13005KT 10SM OVC070 M03/M07 A3023 RMK AO2 SLP247 T10281072=
202201011753 METAR KPAE 011753Z VRB03KT 10SM OVC070 M04/M07 A3025 RMK AO2 SLP253 T10391072 11039 21056 53005=
202201011653 METAR KPAE 011653Z VRB03KT 10SM OVC075 M04/M08 A3025 RMK AO2 SLP252 T10441078=
202201011553 METAR KPAE 011553Z VRB03KT 10SM BKN070 M05/M08 A3023 RMK AO2 SLP248 T10501078=
202201011453 METAR KPAE 011453Z 14004KT 10SM OVC090 M05/M08 A3024 RMK AO2 SLP248 T10501078 53003=
202201011353 METAR KPAE 011353Z AUTO VRB03KT 10SM OVC075 M05/M08 A3023 RMK AO2 SLP245 T10501083=
202201011253 METAR KPAE 011253Z AUTO 12004KT 10SM OVC090 M05/M08 A3023 RMK AO2 SLP245 T10501078=
202201011153 METAR KPAE 011153Z AUTO VRB03KT 10SM CLR M06/M08 A3023 RMK AO2 SLP245 T10561083 11056 21083 50006=
202201011053 METAR KPAE 011053Z AUTO 11006KT 10SM CLR M06/M08 A3023 RMK AO2 SLP246 T10561078=
202201010953 METAR KPAE 010953Z AUTO 12005KT 10SM CLR M06/M08 A3022 RMK AO2 SLP240 T10561078=
202201010853 METAR KPAE 010853Z AUTO 00000KT 6SM BR CLR M06/M08 A3021 RMK AO2 SLP238 T10611083 51014=
202201010753 METAR KPAE 010753Z AUTO 00000KT 10SM CLR M06/M09 A3019 RMK AO2 SLP233 T10561089 410171100=
202201010653 METAR KPAE 010653Z AUTO 14003KT 10SM CLR M06/M09 A3019 RMK AO2 SLP231 T10611094=
202201010553 METAR KPAE 010553Z AUTO 11003KT 9SM CLR M07/M09 A3017 RMK AO2 SLP224 T10721094 11028 21100 51006=
202201010453 METAR KPAE 010453Z AUTO 12003KT 10SM CLR M07/M10 A3017 RMK AO2 SLP224 T10721100=
202201010353 METAR KPAE 010353Z 14003KT 10SM CLR M07/M09 A3015 RMK AO2 SLP220 T10721094=
202201010253 METAR KPAE 010253Z 00000KT 10SM CLR M07/M10 A3015 RMK AO2 SLP218 T10671100 53021=
202201010153 METAR KPAE 010153Z 00000KT 10SM CLR M04/M09 A3013 RMK AO2 SLP210 T10441094=
202201010053 METAR KPAE 010053Z 00000KT 10SM CLR M03/M09 A3010 RMK AO2 SLP201 T10331094=

# No short TAF reports from KPAE in databse.

###################################
#  large TAF from KPAE
###################################
202201312320 TAF KPAE 312320Z 0100/0124 00000KT P6SM BKN030 FM010600 VRB03KT
                       P6SM BKN025 OVC040 FM011000 13003KT P6SM
                       OVC010 FM011400 35002KT P6SM OVC020=
202201311720 TAF KPAE 311720Z 3118/0118 16006KT P6SM FEW030 SCT040 FM312000
                       32008KT P6SM SCT025 BKN040 FM010600 VRB03KT
                       P6SM BKN025 OVC040 FM011000 13003KT P6SM
                       OVC010=
202201311423 KPAE 311423Z 3114/0112 16006KT P6SM BKN025 BKN070 FM312000 32008KT
                       P6SM SCT025 BKN040 FM010600 VRB03KT P6SM
                       BKN025 OVC040 FM011000 13003KT P6SM OVC010=
202201311120 TAF KPAE 311120Z 3112/0112 18010KT P6SM OVC050 FM312100 32008KT
                       P6SM SCT025 BKN040 FM010600 VRB03KT P6SM
                       BKN025 OVC040 FM011000 13003KT P6SM OVC010=
202201310913 KPAE 310913Z 3109/0106 21006KT P6SM SCT030 BKN080
                      TEMPO 3109/3112 BKN030 FM312100 32008KT P6SM
                       SCT025 BKN040=
202201310521 TAF KPAE 310521Z 3106/0106 VRB03KT 5SM -SHRA SCT006 OVC015
                      TEMPO 3106/3110 2SM -SHRA BKN006 OVC015 FM312100
                       32008KT P6SM SCT025 BKN040=
202201310314 KPAE 310314Z 3103/3124 35010KT 2SM -SHRA BKN005 OVC020 FM310600
                       35010KT 5SM -SHRA SCT006 OVC020 FM311500
                       32008KT 2SM -SHRA BKN006 OVC011 FM312200
                       32008KT P6SM SCT025 BKN040=
202201302339 TAF KPAE 302339Z 3100/3124 16010G20KT P6SM -RA OVC030
                      TEMPO 3100/3103 2SM -RA BR OVC015 FM310300
                       32010G22KT 3SM -SHRA BKN010 OVC020 FM310900
                       23008G20KT P6SM -SHRA OVC025 FM312300 32005KT
                       P6SM BKN050=
202201301931 KPAE 301931Z 3020/3118 15010G25KT 2SM -RA BR BKN020 OVC030 FM302200
                       18012G22KT 2SM -RA OVC020 FM310300 32010KT
                       3SM -SHRA BKN010 OVC020 FM311100 23006KT
                       P6SM -SHRA OVC015=
202201301738 TAF KPAE 301738Z 3018/3118 17012KT P6SM SCT030 BKN045 OVC060 FM302000
                       15010G20KT P6SM SCT025 OVC040 FM302200 18012G22KT
                       4SM -RA OVC020 FM310300 32010KT 3SM -SHRA
                       BKN010 OVC020 FM311100 23006KT P6SM -SHRA
                       OVC015=
202201301120 TAF KPAE 301120Z 3012/3112 15012G19KT P6SM OVC100 FM301400 15006KT
                       P6SM SCT050 BKN080 OVC120 FM302000 15010KT
                       P6SM SCT025 OVC040 FM302200 18012KT 4SM
                       -RA OVC020 FM310300 32010KT 3SM -SHRA BKN010
                       OVC020 FM310800 09005KT P6SM OVC015 FM311100
                       23006KT P6SM OVC015=
202201300520 TAF KPAE 300520Z 3006/3106 00000KT P6SM OVC090 FM300900 15006KT
                       P6SM -RA OVC045 FM301400 15006KT P6SM SCT050
                       BKN080 OVC120 FM302000 15010KT P6SM SCT025
                       OVC040 FM302200 18012KT 4SM -RA OVC020 FM310400
                       20014KT 3SM -SHRA BKN010 OVC020=
202201292338 TAF KPAE 292338Z 3000/3024 23005KT P6SM FEW100 BKN120 OVC200 FM300800
                       16006KT P6SM OVC035 FM301000 14007KT 6SM
                       -RA OVC025 FM302000 17010G20KT 6SM -RA OVC020
                       FM302200 17012G25KT 4SM -RA OVC020=
202201291736 TAF KPAE 291736Z 2918/3018 VRB03KT P6SM FEW100 BKN200 FM292300
                       17004KT P6SM OVC100 FM300800 16006KT P6SM
                       OVC035 FM301000 14007KT 6SM -RA OVC025=
202201291131 TAF KPAE 291131Z 2912/3012 15005KT P6SM SCT250 FM291600 VRB03KT
                       P6SM BKN200 FM292300 14006KT P6SM OVC100
                       FM300800 16006KT P6SM OVC035=
202201290520 TAF KPAE 290520Z 2906/3006 11006KT P6SM SCT200 FM291600 VRB03KT
                       P6SM BKN200 FM292300 14006KT P6SM OVC100=
202201282339 TAF KPAE 282339Z 2900/2924 26005KT P6SM SCT200 FM290600 VRB02KT
                       P6SM SCT100 FM291300 00000KT 3SM BR BKN003
                       FM291800 17005KT P6SM OVC100=
202201281738 TAF KPAE 281738Z 2818/2918 14006KT P6SM SKC FM290400 10003KT P6SM
                       SKC FM290600 13003KT P6SM FEW250=
202201281120 TAF KPAE 281120Z 2812/2912 VRB03KT P6SM SKC FM281700 15004KT P6SM
                       SKC FM281900 16006KT P6SM SKC FM290400 10003KT
                       P6SM SKC FM290600 13003KT P6SM FEW250=
202201280958 KPAE 280958Z 2810/2906 VRB03KT P6SM SKC FM281700 15004KT P6SM SCT004
                       FM281900 16006KT P6SM SKC=
202201280520 TAF KPAE 280520Z 2806/2906 VRB03KT P6SM SKC
                      TEMPO 2807/2811 2SM BR BKN002 FM281100 VRB03KT
                       1SM BR OVC002 FM281700 15004KT P6SM SCT004
                       FM281900 16006KT P6SM SKC=
202201272338 TAF KPAE 272338Z 2800/2824 VRB03KT P6SM SKC FM280600 00000KT 1/4SM
                       FG OVC001 FM281700 00000KT P6SM SCT004 FM281900
                       00000KT P6SM SKC=
202201271847 KPAE 271847Z 2719/2818 00000KT P6SM VCFG SCT005 FM272200 08004KT
                       P6SM SKC FM280300 15003KT 1/4SM FG VV001
                       FM281700 15004KT P6SM SCT005=
202201271741 TAF KPAE 271741Z 2718/2818 00000KT 1SM BR SCT001 FM272100 11004KT
                       2SM BR BKN002 FM272200 12005KT P6SM SKC
                       FM280300 15003KT 1/4SM FG VV001=
202201271452 KPAE 271452Z 2715/2812 00000KT 1/4SM FG VV001
                      TEMPO 2715/2717 1/4SM FZFG FM272100 11004KT
                       2SM BR BKN002 FM272200 12005KT P6SM SKC
                       FM280300 15003KT 1/4SM FG VV001=
202201271120 TAF KPAE 271120Z 2712/2812 00000KT 1/4SM FG VV001 FM272100 11004KT
                       2SM BR BKN002 FM272200 12005KT P6SM SKC
                       FM280300 15003KT 1/4SM FG VV001=
202201270520 TAF KPAE 270520Z 2706/2806 00000KT 1/4SM FG VV001 FM272100 00000KT
                       2SM BR BKN002 FM272200 00000KT P6SM SKC
                       FM280300 00000KT 1/4SM FG VV001=
202201270204 KPAE 270204Z 2702/2724 10003KT 1/4SM FG VV001 FM272000 10003KT
                       2SM BR SKC FM272100 10004KT P6SM SKC=
202201262327 TAF KPAE 262327Z 2700/2724 02003KT 6SM BR SCT005 FM270400 00000KT
                       1/4SM FG OVC003 FM272000 10003KT 2SM BR
                       SKC FM272100 10004KT P6SM SKC=
202201262106 KPAE 262106Z 2621/2718 36005KT 1/4SM FG VV001 FM262300 VRB03KT
                       3SM BR BKN005 FM270100 35003KT 6SM BR SCT020
                       FM270300 00000KT 1/4SM FG OVC003=
202201261920 KPAE 261920Z 2619/2718 36005KT 1/4SM FG VV001 FM262200 VRB03KT
                       3SM BR BKN005 FM262300 35003KT 6SM BR SCT020
                       FM270300 00000KT 1/4SM FG OVC003=
202201261733 TAF KPAE 261733Z 2618/2718 36005KT 1/4SM FG VV001 FM262000 VRB03KT
                       3SM BR BKN005 FM262100 35003KT 6SM BR SCT020
                       FM270300 00000KT 1/4SM FG OVC003=
202201261120 TAF KPAE 261120Z 2612/2712 36005KT 1/4SM FG VV001 FM261800 VRB02KT
                       1/2SM FG OVC003 FM262000 VRB03KT 3SM BR
                       BKN005 FM262100 35003KT 6SM BR SCT020 FM270300
                       00000KT 1/4SM FG OVC003=
202201260520 TAF KPAE 260520Z 2606/2706 36005KT 1/4SM FG VV001 FM261800 VRB02KT
                       1/2SM FG OVC003 FM262000 VRB03KT 3SM BR
                       BKN005 FM262100 35003KT 6SM BR SCT020=
202201260428 KPAE 260428Z 2604/2624 36005KT 1/4SM FG VV001 FM261800 VRB02KT
                       1/2SM FG OVC003 FM262000 VRB03KT 3SM BR
                       BKN005 FM262100 35003KT 6SM BR SCT020=
202201260348 KPAE 260348Z 2604/2624 36005KT 1/4SM FG VV001 FM261800 VRB02KT
                       1/2SM FG OVC003 FM262100 35003KT 6SM BR
                       SCT020=
202201260111 KPAE 260111Z 2601/2624 36005KT 1/4SM FG VV001 FM260300 VRB03KT
                       4SM BR SCT003 OVC006 FM260500 00000KT 1SM
                       BR BKN004 FM260900 VRB02KT 1/2SM FG OVC003
                       FM262100 35003KT 6SM BR SCT020=
202201252333 TAF KPAE 252333Z 2600/2624 01003KT 1/4SM FG VV001 FM260100 VRB03KT
                       4SM BR SCT003 OVC006 FM260500 00000KT 1SM
                       BR BKN004 FM260900 VRB02KT 1/2SM FG OVC003
                       FM262100 35003KT 6SM BR SCT020=
202201251740 TAF KPAE 251740Z 2518/2618 01003KT 1/4SM FG VV001 FM252100 02006KT
                       1SM BR OVC002 FM260100 VRB03KT 4SM BR SCT003
                       OVC006 FM260400 00000KT 1SM BR BKN004 FM260900
                       VRB02KT 1/2SM FG OVC003=
202201251633 KPAE 251633Z 2517/2612 01003KT 1/4SM FG VV001 FM251900 02006KT
                       1SM BR OVC002 FM252200 02006KT 3SM BR BKN008
                       BKN250 FM260100 VRB03KT 4SM BR BKN012 BKN250
                       FM260400 00000KT 1SM BR BKN004=
202201251120 TAF KPAE 251120Z 2512/2612 00000KT 1/2SM FG VV001 FM251900 02006KT
                       1SM BR OVC002 FM252200 02006KT 3SM BR OVC025
                       FM260100 VRB03KT 4SM BR BKN025 FM260500
                       00000KT P6SM FEW250=
202201250520 TAF KPAE 250520Z 2506/2606 36005KT 1/2SM FG OVC001 FM250800 00000KT
                       1/4SM FG VV001 FM251900 02006KT 1SM BR OVC002
                       FM252200 02006KT 3SM BR OVC003 FM260100
                       VRB03KT 4SM BR BKN006=
202201242329 TAF KPAE 242329Z 2500/2524 36005KT 2SM BR OVC002 FM250300 VRB03KT
                       1/2SM FG VV002 FM250600 00000KT 1/4SM FG
                       VV001 FM251900 02006KT 1SM BR OVC002 FM252200
                       02006KT 3SM BR OVC003=
202201241720 TAF KPAE 241720Z 2418/2518 VRB03KT 1/4SM FG VV001 FM242100 VRB03KT
                       1/2SM FG VV002 FM250600 00000KT 1/4SM FG
                       VV001=
202201241126 TAF KPAE 241126Z 2412/2512 08003KT 1/4SM FG VV001 FM242300 35004KT
                       2SM BR OVC002 FM250300 34001KT 1/4SM FG
                       VV001=
202201240520 TAF KPAE 240520Z 2406/2506 00000KT 1/4SM FG VV001 FM242000 35004KT
                       1SM BR OVC003 FM242100 35004KT 2SM BR OVC005=
202201232320 TAF KPAE 232320Z 2400/2424 VRB03KT 1/4SM FG VV001 FM241700 35004KT
                       1SM BR OVC003 FM242100 35004KT P6SM SCT005
                       SCT250=
202201232159 KPAE 232159Z 2322/2418 01004KT 1/4SM FG VV001 FM241700 35004KT
                       1SM BR OVC003=
202201232011 KPAE 232011Z 2320/2418 34004KT 1/4SM FG VV001 FM232200 VRB03KT
                       P6SM SCT005 SCT250 FM240300 00000KT 1SM
                       BR OVC001 FM241000 00000KT 1/4SM FG VV001=
202201231720 TAF KPAE 231720Z 2318/2418 34004KT 1/4SM FG VV001 FM232000 VRB03KT
                       P6SM SCT005 SCT250 FM240300 00000KT 1SM
                       BR OVC001 FM241000 00000KT 1/4SM FG VV001=
202201231131 TAF KPAE 231131Z 2312/2412 34004KT 1/4SM FG VV001 FM231800 VRB03KT
                       P6SM SCT005 SCT250 FM240300 00000KT 1SM
                       BR OVC001 FM241000 00000KT 1/4SM FG VV001=
202201230520 TAF KPAE 230520Z 2306/2406 36005KT 5SM BR OVC003
                      TEMPO 2306/2309 1/2SM FG VV001 FM230900 00000KT
                       1/4SM FG VV001 FM231800 VRB03KT P6SM SCT005
                       SCT250=
202201222320 TAF KPAE 222320Z 2300/2324 36006KT P6SM SCT005 SCT200 FM230500
                       VRB02KT 2SM BR BKN003 FM231000 00000KT 1/4SM
                       FG VV001 FM231800 VRB03KT P6SM SCT005 SCT250=
202201222145 KPAE 222145Z 2222/2318 36006KT P6SM SCT010 SCT200 FM230500 VRB02KT
                       1SM BR BKN003 FM231000 00000KT 1/4SM FG
                       VV001=
202201221720 TAF KPAE 221720Z 2218/2318 VRB03KT P6SM BKN002
                      TEMPO 2218/2221 1/4SM FG VV001 FM230000 36004KT
                       5SM BR SCT010 SCT200 FM230500 VRB02KT 1SM
                       BR BKN003 FM231000 00000KT 1/4SM FG VV001=
202201221134 TAF KPAE 221134Z 2212/2312 00000KT 0SM FG VV001 FM221800 36002KT
                       1/2SM FG OVC001 FM230000 36004KT 5SM BR
                       SCT010 SCT200 FM230500 VRB02KT 1SM BR BKN003
                       FM231000 00000KT 0SM FG VV001=
202201220741 KPAE 220741Z 2208/2306 05003KT 1SM HZ BKN001 OVC014
                      TEMPO 2208/2209 3SM BR BKN004 FM221100 00000KT
                       1/2SM FG VV002 FM221900 36002KT 5SM BR BKN007
                       FM222200 36004KT P6SM SCT010 SCT200 FM230500
                       VRB02KT 1SM BR BKN003=
202201220520 TAF KPAE 220520Z 2206/2306 35005KT P6SM SCT020 SCT200
                      TEMPO 2206/2209 3SM BR BKN004 FM220900 01002KT
                       2SM BR OVC003 FM221100 00000KT 1/2SM FG
                       VV002 FM221900 36002KT 5SM BR BKN007 FM222200
                       36004KT P6SM SCT010 SCT200 FM230500 VRB02KT
                       1SM BR BKN003=
202201220343 KPAE 220343Z 2204/2224 35005KT P6SM SCT020 BKN200
                      TEMPO 2204/2208 BKN010 FM220800 01002KT 4SM
                       BR OVC006 FM221100 00000KT 1/2SM FG VV002
                       FM222100 36002KT P6SM BKN015=
202201212320 TAF KPAE 212320Z 2200/2224 35005KT P6SM BKN019 FM220600 01002KT
                       2SM BR OVC004 FM221000 00000KT 1/4SM FG
                       VV002 FM222100 36002KT P6SM BKN015=
202201212017 KPAE 212017Z 2120/2218 01004KT P6SM SCT011 SCT023 BKN028 FM212200
                       01004KT P6SM SCT030 FM220600 01002KT 2SM
                       BR OVC004 FM221000 00000KT 1/4SM FG VV002=
202201211720 TAF KPAE 211720Z 2118/2218 00000KT P6SM SCT070 FM220600 01002KT
                       2SM BR OVC004 FM221000 00000KT 1/4SM FG
                       VV002=
202201211120 TAF KPAE 211120Z 2112/2212 VRB04KT P6SM BKN015 OVC025 FM211300
                       VRB03KT 5SM BR OVC010 FM211800 33003KT 6SM
                       BR BKN010 FM220000 36005KT P6SM SCT012 FM220900
                       01002KT 2SM BR OVC004=
202201210520 TAF KPAE 210520Z 2106/2206 VRB04KT P6SM SCT015 BKN035
                      TEMPO 2106/2109 BKN012 OVC025 FM210900 VRB03KT
                       5SM BR OVC010 FM211200 VRB03KT 3SM BR OVC006
                       FM211900 33003KT 6SM BR BKN010 FM220000
                       36005KT P6SM SCT012 SCT200=
202201210042 KPAE 210042Z 2101/2124 33008KT P6SM VCSH SCT020 BKN035
                      TEMPO 2101/2105 BKN015 FM210500 30006KT P6SM
                       OVC015 FM210900 24006KT 2SM BR OVC004 FM212000
                       33003KT 6SM BR OVC010=
202201202320 TAF KPAE 202320Z 2100/2124 34012G22KT 6SM BR VCSH BKN005 OVC011
                       FM210300 30006KT P6SM OVC015 FM210900 24006KT
                       2SM BR OVC004 FM212000 33003KT 6SM BR OVC010=
202201202150 KPAE 202150Z 2022/2118 34012G22KT 6SM BR VCSH BKN007 OVC011 FM210300
                       30006KT P6SM OVC015 FM210900 24006KT 4SM
                       BR OVC005=
202201201720 TAF KPAE 201720Z 2018/2118 22010KT P6SM OVC007 FM202000 29012G22KT
                       P6SM VCSH FEW007 OVC015 FM210600 30006KT
                       P6SM OVC015 FM210900 24006KT 4SM BR OVC005=
202201201134 TAF KPAE 201134Z 2012/2112 17014G23KT 4SM -RA BR OVC003 FM201800
                       22010KT P6SM OVC015 FM210000 27012G22KT
                       P6SM VCSH OVC015 FM210400 32004KT P6SM OVC015
                       FM210900 34003KT 4SM BR OVC005=
202201200520 TAF KPAE 200520Z 2006/2106 15010G15KT 2SM BR OVC015 FM201000 17014G23KT
                       5SM -RA BR OVC015 FM201800 22010KT P6SM
                       OVC015 FM210000 25009KT P6SM OVC015=
202201192322 TAF KPAE 192322Z 2000/2024 15010KT P6SM BKN025 OVC040
                      TEMPO 2000/2004 5SM -RA BR OVC020 FM200600
                       18012KT P6SM -RA OVC015 FM201000 17014G23KT
                       5SM -RA BR OVC015 FM201800 22010KT P6SM
                       OVC015=
202201191731 TAF KPAE 191731Z 1918/2018 15007KT P6SM SCT015 OVC030 FM192000
                       15010KT P6SM BKN025 OVC050
                      TEMPO 2000/2004 5SM -RA BR OVC020 FM200600
                       18012KT P6SM -RA BKN015 OVC040 FM201000
                       17014G23KT 5SM -RA BR OVC015=
202201191302 KPAE 191302Z 1913/2012 15007KT P6SM SCT015 OVC035 FM192000 15010KT
                       P6SM BKN025 OVC050 FM200600 18014KT P6SM
                       -RA BKN025 OVC040=
202201191120 TAF KPAE 191120Z 1912/2012 15007KT P6SM SCT005 BKN012 OVC040
                      TEMPO 1912/1916 BKN005 OVC010 FM191600 15007KT
                       P6SM BKN015 BKN050 OVC120 FM192000 15010KT
                       P6SM BKN025 OVC050 FM200600 18014KT P6SM
                       -RA BKN025 OVC040=
202201190520 TAF KPAE 190520Z 1906/2006 14003KT 5SM BR OVC004 FM190700 13003KT
                       6SM BR BKN005=
202201190406 KPAE 190406Z 1904/1924 14003KT 6SM BR OVC004 FM190700 13003KT 6SM
                       BR BKN005=
202201182320 TAF KPAE 182320Z 1900/1924 16006KT P6SM OVC008 FM190300 14003KT
                       6SM BR OVC004 FM190700 13003KT 6SM BR BKN005=
202201181743 TAF KPAE 181743Z 1818/1918 16006KT 2SM BR OVC004 FM182100 16006KT
                       4SM BR SCT004 OVC008 FM190200 16006KT P6SM
                       SCT005 BKN010 OVC020=
202201181720 TAF KPAE 181720Z 1818/1918 18010KT 3SM -RA BR OVC007 FM190000 18005KT
                       6SM BR OVC009 FM190600 16006KT 6SM BR BKN010
                       OVC030=
202201181120 TAF KPAE 181120Z 1812/1912 18012KT P6SM SCT006 OVC015
                      TEMPO 1812/1816 -SHRA BKN005 OVC015 FM181800
                       18008KT P6SM -SHRA BKN015 OVC030 FM190600
                       16006KT P6SM BKN010 OVC030=
202201180903 KPAE 180903Z 1809/1906 17010KT P6SM VCSH SCT005 OVC015
                      TEMPO 1809/1813 5SM -SHRA BR BKN005 OVC015
                       FM181800 17008KT P6SM BKN015 BKN040 FM190500
                       15005KT P6SM BKN010 OVC030=
202201180520 TAF KPAE 180520Z 1806/1906 18006KT 6SM -RA BR BKN015 OVC020 FM180700
                       18006KT 2SM -RA BR OVC010 FM181700 21005KT
                       5SM -RA BR SCT005 OVC010=
202201172320 TAF KPAE 172320Z 1800/1824 18006KT P6SM SCT010 BKN050 FM180200
                       18006KT 6SM -RA BR BKN015 OVC030 FM180700
                       18006KT 2SM -RA BR OVC010 FM181700 21005KT
                       5SM -RA BR SCT005 OVC010=
202201171916 KPAE 171916Z 1719/1818 17006KT 1/2SM FG OVC002 FM172100 18006KT
                       P6SM BKN015 BKN050 FM180400 18006KT 6SM
                       BR VCSH BKN015 OVC030 FM180700 18006KT 2SM
                       -RA BR OVC010=
202201171811 KPAE 171811Z 1718/1818 18006KT 1/2SM FG OVC005 FM171900 17006KT
                       5SM BR OVC010 FM172100 18006KT P6SM BKN015
                       BKN050 FM180400 18006KT 6SM BR VCSH BKN015
                       OVC030 FM180700 18006KT 2SM -RA BR OVC010=
202201171724 TAF KPAE 171724Z 1718/1818 18006KT 2SM BR OVC005 FM171900 17006KT
                       5SM BR OVC010 FM172100 18006KT P6SM BKN015
                       BKN050 FM180400 18006KT 6SM BR VCSH BKN015
                       OVC030 FM180700 18006KT 2SM -RA BR OVC010=
202201171120 TAF KPAE 171120Z 1712/1812 18006KT 1SM BR OVC002
                      TEMPO 1712/1715 1/4SM FG VV001 FM171700 18006KT
                       5SM BR BKN005 BKN120 FM172000 18006KT P6SM
                       BKN015 BKN050 FM180400 18006KT 6SM BR VCSH
                       BKN015 OVC030=
202201170520 TAF KPAE 170520Z 1706/1806 00000KT 1/2SM FG VV002 FM171700 17005KT
                       5SM BR BKN010 BKN050 FM172100 17010KT P6SM
                       SCT012 BKN035 FM180300 17006KT 5SM BR VCSH
                       OVC007=
202201170301 KPAE 170301Z 1703/1724 00000KT 1/4SM FG VV001 FM171700 17005KT
                       5SM BR BKN010 BKN050 FM172100 17010KT P6SM
                       SCT012 BKN035=
202201162323 TAF KPAE 162323Z 1700/1724 VRB03KT 1/2SM FG VV001
                      TEMPO 1700/1703 2SM BR OVC003 FM170300 VRB03KT
                       1/2SM FG VV002 FM171700 17005KT 5SM BR BKN010
                       BKN050 FM172100 17010KT P6SM SCT012 BKN035=
202201162109 KPAE 162109Z 1621/1718 VRB03KT 3SM BR BKN005
                      TEMPO 1621/1701 5SM BR SCT005 BKN100 FM170300
                       VRB03KT 1/2SM FG VV002 FM171700 17005KT
                       5SM BR BKN008 BKN050=
202201161739 TAF KPAE 161739Z 1618/1718 VRB03KT 1/2SM FG OVC002
                      TEMPO 1618/1621 3SM BR OVC005 FM162100 VRB03KT
                       3SM BR OVC005
                      TEMPO 1621/1701 5SM BR BKN005 FM170300 VRB03KT
                       1/2SM FG VV002 FM171700 17005KT 5SM BR BKN008
                       BKN050=
202201161120 TAF KPAE 161120Z 1612/1712 33004KT 1/4SM FG VV001
                      TEMPO 1616/1618 1/2SM FG VV002 FM161800 VRB03KT
                       1SM BR OVC002 FM162100 VRB03KT 2SM BR OVC005
                       TEMPO 1621/1701 5SM BR BKN005 FM170300 02004KT
                       1/2SM FG VV002=
202201160520 TAF KPAE 160520Z 1606/1706 35005KT 1/4SM FG VV001 FM162000 07002KT
                       1SM BR OVC003=
202201152329 TAF KPAE 152329Z 1600/1624 31003KT 1/4SM FG VV001 FM162000 07002KT
                       1/4SM FG OVC003=
202201152149 KPAE 152149Z 1522/1618 VRB03KT 1/4SM FG VV001 FM160000 VRB02KT
                       2SM BR BKN009 FM160300 02001KT 1/4SM FG
                       OVC004 FM160500 00000KT 1/4SM FG OVC001=
202201151737 TAF KPAE 151737Z 1518/1618 00000KT 1/4SM FG VV001
                      TEMPO 1518/1522 5SM BR SCT002 FM152200 VRB03KT
                       5SM BR SCT005 SCT050 SCT120 FM160000 VRB02KT
                       2SM BR BKN009 FM160300 02001KT 1/4SM FG
                       OVC004 FM160500 00000KT 1/4SM FG OVC001=
202201151607 KPAE 151607Z 1516/1612 00000KT 1/4SM FG VV001 FM151900 00000KT
                       5SM BR SCT010 BKN120 FM152200 VRB03KT P6SM
                       SCT050 SCT120 FM160600 00000KT 5SM BR BKN005
                       FM160900 00000KT 2SM BR OVC003=
202201151120 TAF KPAE 151120Z 1512/1612 00000KT 5SM BR SCT002 BKN090
                      TEMPO 1512/1516 1SM BR BKN002 BKN090 FM151900
                       00000KT 5SM BR SCT010 BKN120 FM152200 VRB03KT
                       P6SM SCT050 SCT120 FM160600 00000KT 5SM
                       BR BKN005 FM160900 00000KT 2SM BR OVC003=
202201150520 TAF KPAE 150520Z 1506/1606 11003KT P6SM SCT100 BKN250 FM151000
                       08003KT 4SM BR OVC007
                      TEMPO 1512/1516 1SM BR OVC005 FM151700 07002KT
                       5SM BR SCT005 OVC010 FM152100 32002KT P6SM
                       OVC015=
202201142338 TAF KPAE 142338Z 1500/1524 VRB04KT P6SM SCT100 BKN250 FM150300
                       11003KT P6SM SCT100 BKN250 FM151000 08003KT
                       4SM BR SCT010 OVC070 FM151700 07002KT 2SM
                       BR SCT005 OVC015 FM152100 32002KT P6SM OVC050=
202201141729 TAF KPAE 141729Z 1418/1518 12004KT P6SM BKN035 FM142100 17005KT
                       P6SM SCT025 BKN100 FM150000 12004KT P6SM
                       BKN030 FM150800 13005KT 2SM BR OVC020 FM151700
                       03002KT P6SM OVC015=
202201141130 TAF KPAE 141130Z 1412/1512 13005KT 2SM BR SCT001 OVC025 FM141800
                       14003KT P6SM BKN020 FM142100 17005KT P6SM
                       SCT025 BKN100 FM150000 12004KT P6SM BKN030
                       FM150800 13005KT 2SM BR OVC005=
202201140520 TAF KPAE 140520Z 1406/1506 10006KT P6SM SCT050 FM140900 13005KT
                       5SM BR OVC015 FM141500 11004KT 2SM BR OVC007
                       FM141800 14003KT P6SM BKN020 FM142100 17005KT
                       P6SM SCT025 BKN100 FM150000 12004KT P6SM
                       BKN030=
202201132327 TAF KPAE 132327Z 1400/1424 17007KT P6SM SCT020 BKN040 FM140300
                       16008KT P6SM SCT050 FM140900 13005KT 2SM
                       BR OVC015 FM141500 11004KT 2SM BR OVC007
                       FM141800 14003KT P6SM BKN020=
202201131737 TAF KPAE 131737Z 1318/1418 15009KT P6SM BKN020 OVC090 FM131900
                       17007KT P6SM OVC035 FM140300 16008KT P6SM
                       SCT050 FM140900 12005KT 2SM BR OVC015 FM141500
                       11004KT 2SM BR OVC007=
202201131126 TAF KPAE 131126Z 1312/1412 16009KT 5SM -SHRA BR OVC035 FM131700
                       15009KT P6SM OVC025 FM140300 16008KT P6SM
                       SCT050 FM140900 12005KT 2SM BR OVC015=
202201130520 TAF KPAE 130520Z 1306/1406 14006KT P6SM SCT250 FM131200 16009KT
                       P6SM -SHRA OVC030 FM132000 16008KT P6SM
                       OVC015=
202201122320 TAF KPAE 122320Z 1300/1324 17007KT P6SM OVC070 FM130200 15007KT
                       P6SM BKN050 FM130900 16009KT 5SM BR OVC030
                       FM131300 16008KT P6SM OVC015=
202201121720 TAF KPAE 121720Z 1218/1318 17012G20KT 6SM BR BKN005 OVC010 FM122100
                       16015G20KT 6SM BR VCSH OVC020 FM130200 15007KT
                       P6SM BKN050 FM130900 16009KT 5SM -RA BR
                       OVC030 FM131300 16008KT P6SM OVC015=
202201121133 TAF KPAE 121133Z 1212/1312 17012G17KT 6SM -RA BR OVC007 FM122100
                       16015G20KT 6SM BR VCSH OVC025 FM130200 15007KT
                       P6SM BKN050 FM130900 16009KT 5SM -RA BR
                       OVC030=
202201120520 TAF KPAE 120520Z 1206/1306 17012G17KT 6SM -RA BR BKN007 OVC015
                       FM121300 17013G20KT 6SM -RA BR OVC012 FM122100
                       16015KT 6SM BR VCSH OVC015 FM130200 15007KT
                       P6SM BKN035=
202201112329 TAF KPAE 112329Z 1200/1224 16015KT 6SM -RA BR BKN007 OVC015 FM120300
                       17012G17KT 4SM -RA BR OVC007 FM121500 18015KT
                       6SM -RA BR OVC015 FM122200 16015KT 4SM BR
                       OVC007=
202201111935 KPAE 111935Z 1120/1218 18015KT 6SM -RA BR OVC015 FM120300 17012G17KT
                       4SM -RA BR OVC007 FM121500 18015KT 6SM -RA
                       BR OVC015=
202201111743 TAF KPAE 111743Z 1118/1218 18015G25KT 6SM -RA BR OVC015 FM112000
                       16012G22KT 2SM RA BR OVC007 FM120300 17012G17KT
                       4SM -RA BR OVC007 FM121500 18015KT 6SM -RA
                       BR OVC015=
202201111129 TAF KPAE 111129Z 1112/1212 15015G25KT 5SM -RA BR OVC015 FM112000
                       16012G22KT 2SM -RA BR OVC007 FM120300 17012G17KT
                       4SM -RA BR OVC007=
202201110520 TAF KPAE 110520Z 1106/1206 16010KT P6SM VCSH OVC040 FM111000 17010G20KT
                       5SM -RA OVC020 FM111200 17015G25KT 4SM -RA
                       OVC015 FM112000 16012G22KT 2SM -RA BR OVC015
                       FM120300 16010G20KT 4SM -RA BR OVC015=
202201102328 TAF KPAE 102328Z 1100/1124 16015G20KT P6SM VCSH OVC025 FM110300
                       16010KT P6SM OVC035 FM110900 17017KT 5SM
                       -RA OVC025 FM111200 17015G25KT 4SM -RA OVC015
                       FM112000 16015G25KT 2SM -RA BR OVC010=
202201101726 TAF KPAE 101726Z 1018/1118 19015G21KT P6SM -RA FEW040 BKN050 OVC070
                       FM102000 16015G21KT P6SM VCSH OVC025 FM110300
                       16010KT P6SM OVC035 FM110900 17012KT 5SM
                       -RA OVC025 FM111200 17015G25KT 4SM -RA OVC015=
202201101132 TAF KPAE 101132Z 1012/1112 11008KT P6SM OVC250 FM101600 15012KT
                       5SM -RA BKN050 OVC080 FM102000 16015G21KT
                       P6SM VCSH OVC025 FM110300 16010KT P6SM OVC035
                       FM110900 17012KT 5SM -RA OVC025=
202201100520 TAF KPAE 100520Z 1006/1106 14005KT P6SM FEW250
                      TEMPO 1006/1009 3SM BR BKN003 FM101600 15008KT
                       5SM -RA BKN050 OVC080 FM102000 16012KT P6SM
                       VCSH OVC025 FM110000 16010KT P6SM OVC030=
202201092326 TAF KPAE 092326Z 1000/1024 VRB03KT P6SM SCT250
                      TEMPO 1005/1009 3SM BR BKN003 FM101500 15008KT
                       P6SM -RA BKN050 OVC080 FM102000 16012KT
                       P6SM VCSH OVC025=
202201091726 TAF KPAE 091726Z 0918/1018 10007KT P6SM SCT250 FM101500 15008KT
                       P6SM -RA BKN050 OVC080=
202201091523 KPAE 091523Z 0915/1012 09007KT P6SM SCT250
                      TEMPO 0915/0918 2SM BR BKN003 FM092100 10006KT
                       P6SM SCT250=
202201091120 TAF KPAE 091120Z 0912/1012 11005KT P6SM SCT250 FM091500 06003KT
                       2SM BR BKN003 FM092100 10006KT P6SM SCT250=
202201090520 TAF KPAE 090520Z 0906/1006 14008KT P6SM SCT050 BKN070 FM091000
                       11006KT P6SM SCT060 FM091500 06003KT 2SM
                       BR BKN003 FM092100 10006KT P6SM SCT250=
202201082329 TAF KPAE 082329Z 0900/0924 16012KT P6SM VCSH SCT025 OVC040 FM090600
                       15008KT P6SM SCT030 BKN050 FM091000 11006KT
                       P6SM SCT060 FM091500 03003KT 2SM BR BKN003
                       FM092100 12006KT P6SM SCT250=
202201081727 TAF KPAE 081727Z 0818/0918 17008KT P6SM VCSH BKN015 BKN090
                      TEMPO 0818/0821 SCT015 FM082100 17007KT P6SM
                       BKN020 FM090600 12004KT P6SM SCT025 BKN050
                       FM091000 07003KT P6SM SCT050 FM091500 03003KT
                       2SM BR BKN003=
202201081120 TAF KPAE 081120Z 0812/0912 13004KT P6SM VCSH SCT020 BKN070
                      TEMPO 0812/0815 BKN020 BKN070 FM081500 17005KT
                       P6SM OVC015 FM082100 17006KT P6SM BKN015
                       OVC030 FM090600 12004KT P6SM SCT025 BKN050
                       FM091100 07003KT P6SM SCT050=
202201081010 KPAE 081010Z 0810/0906 16004KT P6SM VCSH SCT020 BKN040 OVC080
                      TEMPO 0810/0814 4SM -SHRASN BKN020 OVC040
                       FM081400 17005KT P6SM OVC009 FM082100 17006KT
                       P6SM BKN015 BKN030=
202201080520 TAF KPAE 080520Z 0806/0906 VRB05KT P6SM VCSH BKN022
                      TEMPO 0806/0810 6SM -SHRA BR BKN014 OVC020
                       FM081000 20005KT P6SM VCSH OVC014 FM081400
                       17005KT P6SM OVC009 FM082100 17006KT P6SM
                       BKN015 BKN030=
202201072339 TAF KPAE 072339Z 0800/0824 VRB05KT 5SM -SHRA BR SCT012 OVC025
                      TEMPO 0800/0804 BKN015 OVC022 FM080400 24006KT
                       P6SM -SHRA BKN022 FM081000 20005KT P6SM
                       VCSH OVC015 FM081400 17005KT P6SM BKN014
                       BKN030=
202201071727 TAF KPAE 071727Z 0718/0818 35007KT 6SM BR VCSH BKN007 OVC015
                      TEMPO 0718/0719 3SM RA BR BKN002 OVC007 FM071900
                       28011KT 6SM -SHRA BR BKN012 OVC025 FM080300
                       24006KT P6SM OVC030 FM081200 20005KT P6SM
                       OVC009=
202201071600 KPAE 071600Z 0716/0812 35007KT 6SM -RA BKN007 OVC015
                      TEMPO 0716/0719 2SM RA BR BKN002 OVC007 FM071900
                       28011KT 6SM -SHRA BR BKN012 OVC025 FM080300
                       24006KT P6SM OVC030=
202201071135 TAF KPAE 071135Z 0712/0812 18018G28KT 3SM -RA BR BKN007 OVC015
                       FM071500 17015G25KT 4SM RA BR OVC015 FM072200
                       24011KT 6SM -SHRA BR BKN015 OVC025 FM080300
                       24006KT P6SM OVC030=
202201070709 KPAE 070709Z 0707/0806 18020G35KT 6SM -RA BR OVC020 FM071500 17015G25KT
                       4SM RA BR OVC015 FM072200 24011KT 5SM -SHRA
                       BR BKN012 BKN025=
202201070520 TAF KPAE 070520Z 0706/0806 18018G28KT 6SM -RA BR OVC010 FM070700
                       17015G25KT 4SM RA BR OVC008 FM071700 24011KT
                       5SM -SHRA BR BKN012 BKN025=
202201062339 TAF KPAE 062339Z 0700/0724 18018G28KT 6SM -RA BR OVC010 FM070700
                       17015G25KT 4SM RA BR OVC008 FM071700 24011KT
                       5SM -SHRA BR BKN012 BKN025=
202201061739 TAF KPAE 061739Z 0618/0718 16015G25KT 6SM -RA BR BKN011 OVC022
                       TEMPO 0618/0622 3SM RA BR BKN008 OVC015
                       FM062200 16014G22KT 5SM RA BR OVC010 FM070300
                       17015G25KT 4SM RA BR OVC008 FM071600 24010KT
                       5SM -SHRA BR BKN012 BKN025=
202201061445 KPAE 061445Z 0615/0712 11008KT P6SM VCSH BKN005 OVC009 FM061700
                       12010KT 3SM RA BR OVC005 FM062200 16014G22KT
                       3SM RA BR OVC010=
202201061128 TAF KPAE 061128Z 0612/0712 11006KT 2SM RA BR SCT003 OVC009 FM061500
                       12007KT 3SM RA BR OVC005 FM062200 16014G22KT
                       3SM RA BR OVC010=
202201060520 TAF KPAE 060520Z 0606/0706 07005KT 2SM -SN BR SCT005 OVC010 FM060900
                       09006KT 3SM RA BR OVC007 FM061300 12007KT
                       3SM RA BR OVC005 FM062200 16010G16KT 3SM
                       RA BR OVC005=
202201060246 KPAE 060246Z 0603/0624 02005KT 2SM -SN BR SCT005 OVC010 FM060500
                       07005KT 4SM RASN BR SCT002 OVC007 FM060900
                       09006KT 3SM RA BR OVC007 FM061300 14007KT
                       3SM RA BR OVC006 FM062000 16010KT 3SM RA
                       BR OVC005=
202201052334 TAF KPAE 052334Z 0600/0624 02005KT P6SM SCT014 OVC030
                      TEMPO 0600/0604 4SM -RASN BR BKN012 OVC025
                       FM060400 07005KT 4SM RASN BR OVC009 FM060900
                       09006KT 3SM RA BR OVC007 FM061300 14007KT
                       3SM RA BR OVC006 FM062000 16010KT 3SM RA
                       BR OVC005=
202201051734 TAF KPAE 051734Z 0518/0618 34003KT P6SM SCT012 OVC035
                      TEMPO 0519/0522 6SM -RASN BR OVC012 FM052200
                       02005KT 6SM -RASN OVC012 FM060300 07005KT
                       5SM RASN BR OVC009 FM060900 13008KT 4SM
                       RA BR OVC007 FM061300 17009KT 4SM RA BR
                       OVC006=
202201051120 TAF KPAE 051120Z 0512/0612 34003KT P6SM OVC010 FM052000 36001KT
                       6SM -RASN OVC015 FM060000 02003KT 3SM -SN
                       BR OVC010 FM060600 00000KT 6SM -RA BR OVC007=
202201050835 KPAE 050835Z 0509/0606 34003KT P6SM OVC010 FM052000 36001KT 6SM
                       -RASN OVC015 FM052300 02003KT 5SM -SN BR
                       OVC015=
202201050520 TAF KPAE 050520Z 0506/0606 14005KT P6SM -SHRA OVC005 FM050900 34003KT
                       P6SM OVC010 FM052000 36001KT 6SM -RASN OVC015
                       FM052300 02003KT 5SM -SN BR OVC015=
202201042320 TAF KPAE 042320Z 0500/0524 16010KT 6SM -RA BR OVC015 FM050300 14005KT
                       6SM -SHRA OVC010 FM050900 34003KT P6SM -SN
                       OVC015 FM051900 36001KT 6SM BR OVC015=
202201041720 TAF KPAE 041720Z 0418/0518 19009KT P6SM BKN012 FM042200 16007KT
                       P6SM OVC025 FM050300 14005KT 6SM -SHRA OVC010
                       FM050900 34003KT P6SM -SN OVC015=
202201041124 TAF KPAE 041124Z 0412/0512 16012G20KT P6SM SCT020 OVC030 FM041300
                       17012KT P6SM -RASN OVC025 FM041800 18009KT
                       P6SM OVC015 FM042200 16007KT P6SM -SHRA
                       OVC025=
202201040520 TAF KPAE 040520Z 0406/0506 16011KT P6SM SCT020 OVC050 FM040700
                       17008KT P6SM OVC020 FM041300 17012KT P6SM
                       -SN OVC025 FM041800 18009KT P6SM OVC015
                       FM042200 16007KT P6SM -SHRA OVC025=
202201032320 TAF KPAE 032320Z 0400/0424 18010G23KT P6SM SKC FM040200 16006KT
                       P6SM OVC040 FM040900 17008KT P6SM OVC030
                       FM041300 17012KT P6SM -RA OVC025 FM041800
                       18009KT P6SM -SN OVC025 FM042000 18008KT
                       P6SM OVC015=
202201031728 TAF KPAE 031728Z 0318/0418 14012G20KT 6SM -RA BR OVC007 FM032000
                       18010G20KT P6SM VCSH OVC020 FM040200 16006KT
                       P6SM OVC040 FM040900 17008KT P6SM OVC030
                       FM041300 17012KT P6SM -RA OVC025=
202201031154 TAF KPAE 031154Z 0312/0412 14012G20KT 6SM -RA BR OVC035 FM032000
                       18010KT P6SM VCSH OVC020 FM040200 16006KT
                       P6SM OVC040 FM040900 17008KT P6SM OVC030=
202201030736 KPAE 030736Z 0308/0406 15015G25KT 1SM -RASN BR BKN005 OVC020 FM031000
                       18015KT 6SM -RA OVC015 FM032000 18010KT
                       P6SM VCSH OVC020 FM040200 15008KT P6SM OVC035=
202201030659 KPAE 030659Z 0307/0406 15015G25KT 6SM -RA BR SCT005 OVC025 FM031000
                       18015KT 6SM -RA OVC015 FM032000 18010KT
                       P6SM VCSH OVC020 FM040200 15008KT P6SM OVC035=
202201030527 TAF KPAE 030527Z 0306/0406 15010G20KT 6SM -RA BR SCT005 OVC015
                       FM031200 18015KT 6SM -RA OVC015 FM032000
                       18010KT P6SM VCSH OVC020=
202201022326 TAF KPAE 022326Z 0300/0324 15015KT 3SM -RA BR OVC028 FM030400 20015G20KT
                       4SM -RA BR SCT005 OVC015 FM030600 17018G25KT
                       6SM -RA BR SCT005 OVC015 FM031200 18015KT
                       6SM -RA OVC015 FM032000 18010KT P6SM VCSH
                       OVC020=
202201021736 TAF KPAE 021736Z 0218/0318 15010KT P6SM OVC035 FM022100 17020G30KT
                       P6SM -RA OVC020 FM030400 20015G20KT 4SM
                       -RA BR SCT005 OVC015 FM030600 17018G25KT
                       6SM -RA BR SCT005 OVC015 FM031200 18015KT
                       6SM -RA OVC015=
202201021120 TAF KPAE 021120Z 0212/0312 17015G25KT P6SM BKN025 FM022100 17020G30KT
                       P6SM -RA OVC020 FM030400 23015KT 4SM -RA
                       BR SCT005 OVC015 FM030600 17018G25KT 6SM
                       -RA BR SCT005 OVC015=
202201020525 TAF KPAE 020525Z 0206/0306 15015G20KT P6SM BKN050 FM021200 17020G25KT
                       P6SM OVC050 FM022000 18020G30KT 6SM -RA
                       OVC015=
202201012323 TAF KPAE 012323Z 0200/0224 15015KT P6SM SCT035 FM020600 15015G20KT
                       P6SM BKN050 FM021200 17020G25KT P6SM OVC050
                       FM022000 18020G30KT 6SM -RA OVC015=
202201011738 TAF KPAE 011738Z 0118/0218 10003KT P6SM OVC080 FM012000 15010KT
                       P6SM BKN060 OVC100 FM020600 15015G20KT P6SM
                       BKN050 FM021200 17020G25KT P6SM OVC050=
202201011133 TAF KPAE 011133Z 0112/0212 12004KT P6SM SCT200 FM011300 13005KT
                       P6SM BKN120 OVC200 FM012000 15007KT P6SM
                       BKN060 OVC100 FM020600 14012KT P6SM BKN050=
202201010520 TAF KPAE 010520Z 0106/0206 12004KT P6SM SCT200 FM011300 13005KT
                       P6SM BKN120 OVC200 FM012000 15007KT P6SM
                       BKN060 OVC100=