##########################################################
# Query made at 02/15/2025 22:46:22 UTC
# Time interval: from 08/01/2022 00:00  to 08/31/2022 23:59  UTC
##########################################################

##########################################################
# KPAE, Everett, Snohomish County Airport (United States)
# WMO index: -----. WIGOS ID: Unknown
# Latitude 47-55-23N. Longitude 122-16-57W. Altitude 184 m.
##########################################################

###################################
#  METAR/SPECI from KPAE
###################################
202208312353 METAR KPAE 312353Z 24005KT 10SM CLR 29/12 A2995 RMK AO2 SLP137 T02890122 10306 20244 55002=
202208312253 METAR KPAE 312253Z 26008KT 10SM CLR 30/13 A2994 RMK AO2 SLP135 T03000133=
202208312153 METAR KPAE 312153Z 25007KT 10SM CLR 29/13 A2995 RMK AO2 SLP138 T02940133=
202208312053 METAR KPAE 312053Z 23008KT 10SM CLR 28/14 A2995 RMK AO2 SLP138 T02830139 55000=
202208311953 METAR KPAE 311953Z 25006KT 10SM CLR 27/13 A2995 RMK AO2 SLP138 T02670128=
202208311853 METAR KPAE 311853Z 26008KT 10SM CLR 26/13 A2995 RMK AO2 SLP137 T02560128=
202208311753 METAR KPAE 311753Z 22004KT 10SM CLR 24/13 A2995 RMK AO2 SLP138 60000 T02440133 10244 20183 50005=
202208311653 METAR KPAE 311653Z 22004KT 10SM CLR 23/14 A2996 RMK AO2 SLP139 T02330139=
202208311553 METAR KPAE 311553Z 24004KT 10SM CLR 22/14 A2995 RMK AO2 SLP136 T02170139=
202208311453 METAR KPAE 311453Z 00000KT 10SM CLR 21/14 A2994 RMK AO2 SLP133 60000 T02060144 53002=
202208311353 METAR KPAE 311353Z 23003KT 10SM CLR 19/14 A2993 RMK AO2 RAB1255E07 SLP131 P0000 T01890139=
202208311253 METAR KPAE 311253Z AUTO 33003KT 10SM FEW070 FEW085 18/14 A2993 RMK AO2 SLP130 T01830139=
202208311153 METAR KPAE 311153Z AUTO 00000KT 10SM CLR 18/13 A2993 RMK AO2 SLP132 T01830128 10228 20183 56007=
202208310953 METAR KPAE 310953Z AUTO 00000KT 10SM CLR 21/13 A2994 RMK AO2 SLP134 T02060128=
202208310853 METAR KPAE 310853Z AUTO 00000KT 10SM CLR 21/13 A2995 RMK AO2 SLP139 T02060133 51005=
202208310753 METAR KPAE 310753Z AUTO 00000KT 10SM CLR 20/13 A2995 RMK AO2 SLP137 T02000133 402890167=
202208310653 METAR KPAE 310653Z AUTO 00000KT 10SM CLR 22/13 A2995 RMK AO2 SLP138 T02220133=
202208310553 METAR KPAE 310553Z AUTO 36003KT 10SM CLR 22/13 A2994 RMK AO2 SLP135 T02170133 10283 20217 50003=
202208310453 METAR KPAE 310453Z AUTO 00000KT 10SM CLR 22/14 A2995 RMK AO2 SLP138 T02220139=
202208310353 METAR KPAE 310353Z 34004KT 10SM CLR 23/14 A2994 RMK AO2 SLP134 T02330139=
202208310253 METAR KPAE 310253Z 34005KT 10SM CLR 24/14 A2993 RMK AO2 SLP131 T02440139 56008=
202208310153 METAR KPAE 310153Z 35005KT 10SM CLR 26/14 A2993 RMK AO2 SLP131 T02610144=
202208310053 METAR KPAE 310053Z VRB06KT 10SM CLR 28/14 A2994 RMK AO2 SLP136 T02780139=
202208302353 METAR KPAE 302353Z 35008KT 10SM CLR 28/14 A2995 RMK AO2 SLP139 T02830139 10289 20222 58014=
202208302253 METAR KPAE 302253Z 35005KT 10SM CLR 28/14 A2997 RMK AO2 SLP144 T02830139=
202208302053 METAR KPAE 302053Z 35007KT 10SM CLR 26/14 A2999 RMK AO2 SLP154 T02610139 56012=
202208301953 METAR KPAE 301953Z 36006KT 10SM CLR 26/14 A3000 RMK AO2 SLP157 T02610139=
202208301853 METAR KPAE 301853Z 01008KT 10SM CLR 24/13 A3002 RMK AO2 SLP162 T02440133=
202208301753 METAR KPAE 301753Z 34005KT 10SM CLR 23/14 A3003 RMK AO2 SLP165 T02280144 10228 20167 50001=
202208301553 METAR KPAE 301553Z VRB05KT 10SM CLR 20/14 A3003 RMK AO2 SLP165 T02000144=
202208301453 METAR KPAE 301453Z 35005KT 10SM CLR 19/14 A3003 RMK AO2 SLP164 T01890144 53008=
202208301353 METAR KPAE 301353Z 35005KT 10SM CLR 17/13 A3001 RMK AO2 SLP160 T01670133=
202208301253 METAR KPAE 301253Z AUTO 35005KT 10SM CLR 17/13 A3000 RMK AO2 SLP156 T01670128=
202208301153 METAR KPAE 301153Z AUTO 36004KT 10SM CLR 17/13 A3000 RMK AO2 SLP156 T01720128 10189 20172 51003=
202208301053 METAR KPAE 301053Z AUTO 36003KT 10SM CLR 18/12 A3000 RMK AO2 SLP156 T01780117=
202208300953 METAR KPAE 300953Z AUTO 35004KT 10SM CLR 18/11 A3000 RMK AO2 SLP155 T01830106=
202208300853 METAR KPAE 300853Z AUTO 36005KT 10SM CLR 18/09 A2999 RMK AO2 SLP153 T01830094 56001=
202208300753 METAR KPAE 300753Z AUTO 35005KT 10SM CLR 18/09 A3000 RMK AO2 SLP154 T01830089 402670133=
202208300653 METAR KPAE 300653Z AUTO 36004KT 10SM CLR 18/08 A2999 RMK AO2 SLP152 T01830083=
202208300553 METAR KPAE 300553Z AUTO 35004KT 10SM CLR 18/08 A3000 RMK AO2 SLP154 T01830083 10267 20183 53006=
202208300453 METAR KPAE 300453Z AUTO 35003KT 10SM CLR 19/09 A2999 RMK AO2 SLP152 T01940094=
202208300353 METAR KPAE 300353Z AUTO 35004KT 10SM CLR 21/09 A2998 RMK AO2 SLP150 T02110094=
202208300253 METAR KPAE 300253Z 34005KT 10SM CLR 22/10 A2998 RMK AO2 SLP148 T02220100 55004=
202208300153 METAR KPAE 300153Z 35006KT 10SM CLR 24/11 A2997 RMK AO2 SLP147 T02440106=
202208292353 METAR KPAE 292353Z 34008KT 10SM CLR 26/10 A2999 RMK AO2 SLP151 T02610100 10267 20206 58014=
202208292253 METAR KPAE 292253Z 34005G15KT 10SM CLR 26/11 A3000 RMK AO2 SLP157 T02610106=
202208292053 METAR KPAE 292053Z 34010G16KT 10SM CLR 24/11 A3003 RMK AO2 SLP167 T02390111 58009=
202208291953 METAR KPAE 291953Z 01008KT 10SM CLR 24/11 A3005 RMK AO2 SLP174 T02390111=
202208291853 METAR KPAE 291853Z 30007KT 10SM CLR 23/12 A3007 RMK AO2 SLP179 T02280117=
202208291753 METAR KPAE 291753Z 34003KT 10SM CLR 21/12 A3006 RMK AO2 SLP176 T02110117 10211 20133 53006=
202208291653 METAR KPAE 291653Z 35004KT 10SM CLR 19/12 A3005 RMK AO2 SLP174 T01940117=
202208291553 METAR KPAE 291553Z 34003KT 10SM CLR 17/11 A3005 RMK AO2 SLP173 T01720111=
202208291453 METAR KPAE 291453Z 35005KT 10SM CLR 16/11 A3004 RMK AO2 SLP171 T01560106 53005=
202208291353 METAR KPAE 291353Z 36003KT 10SM CLR 14/10 A3003 RMK AO2 SLP168 T01390100=
202208291253 METAR KPAE 291253Z AUTO 00000KT 10SM CLR 14/11 A3003 RMK AO2 SLP166 T01390106=
202208291153 METAR KPAE 291153Z AUTO 01004KT 10SM CLR 14/11 A3002 RMK AO2 SLP165 T01440106 10144 20133 53002=
202208291053 METAR KPAE 291053Z AUTO 01005KT 10SM CLR 14/11 A3002 RMK AO2 SLP163 T01440106=
202208290953 METAR KPAE 290953Z AUTO 01004KT 10SM CLR 14/11 A3002 RMK AO2 SLP162 T01440106=
202208290853 METAR KPAE 290853Z AUTO 00000KT 10SM CLR 14/11 A3002 RMK AO2 SLP162 T01390106 53007=
202208290753 METAR KPAE 290753Z AUTO 02004KT 10SM CLR 14/11 A3001 RMK AO2 SLP158 T01390111 402330117=
202208290653 METAR KPAE 290653Z AUTO 01004KT 10SM CLR 14/11 A2999 RMK AO2 SLP155 T01440106=
202208290553 METAR KPAE 290553Z AUTO 36007KT 10SM CLR 14/11 A2999 RMK AO2 SLP156 T01440106 10228 20144 50006=
202208290453 METAR KPAE 290453Z AUTO 36005KT 10SM CLR 15/11 A3000 RMK AO2 SLP156 T01500111=
202208290353 METAR KPAE 290353Z 02004KT 10SM CLR 17/11 A2999 RMK AO2 SLP153 T01720106=
202208290253 METAR KPAE 290253Z 34004KT 10SM CLR 19/10 A2998 RMK AO2 SLP149 T01890100 55001=
202208290153 METAR KPAE 290153Z 34006KT 10SM CLR 21/10 A2997 RMK AO2 SLP149 T02110100=
202208282353 METAR KPAE 282353Z 35007KT 10SM CLR 22/09 A2998 RMK AO2 SLP149 T02220094 10233 20178 56009=
202208282253 METAR KPAE 282253Z VRB06KT 10SM CLR 23/11 A2999 RMK AO2 SLP153 T02280106=
202208282153 METAR KPAE 282153Z 27006KT 10SM CLR 22/11 A2999 RMK AO2 SLP155 T02220106=
202208282053 METAR KPAE 282053Z 28006KT 10SM CLR 22/11 A3001 RMK AO2 SLP158 T02220106 58014=
202208281953 METAR KPAE 281953Z 30006KT 10SM CLR 21/12 A3002 RMK AO2 SLP164 T02110117=
202208281853 METAR KPAE 281853Z 22004KT 10SM CLR 19/11 A3004 RMK AO2 SLP171 T01940111=
202208281753 METAR KPAE 281753Z 00000KT 10SM FEW015 18/11 A3005 RMK AO2 SLP174 T01780106 10183 20128 50001=
202208281700 SPECI KPAE 281700Z 17006KT 10SM FEW012 17/11 A3005 RMK AO2 T01670111=
202208281653 METAR KPAE 281653Z 16006KT 10SM SCT013 BKN028 17/11 A3005 RMK AO2 SLP175 T01670111=
202208281555 SPECI KPAE 281555Z 19006KT 10SM FEW010 OVC028 15/11 A3005 RMK AO2 T01500111=
202208281553 METAR KPAE 281553Z 18005KT 10SM BKN030 OVC065 15/11 A3005 RMK AO2 SLP176 T01500106=
202208281453 METAR KPAE 281453Z 15004KT 10SM BKN030 OVC065 13/11 A3005 RMK AO2 SLP173 T01330106 53008=
202208281353 METAR KPAE 281353Z 22003KT 10SM BKN030 OVC065 13/11 A3004 RMK AO2 SLP170 T01330106=
202208281253 METAR KPAE 281253Z AUTO 15003KT 10SM BKN065 13/11 A3002 RMK AO2 SLP164 T01330106=
202208281153 METAR KPAE 281153Z AUTO 11003KT 10SM SCT070 13/11 A3002 RMK AO2 SLP165 T01330106 10144 20117 51004=
202208281053 METAR KPAE 281053Z AUTO 00000KT 10SM CLR 12/10 A3002 RMK AO2 SLP164 T01170100=
202208280953 METAR KPAE 280953Z AUTO 00000KT 10SM CLR 13/11 A3001 RMK AO2 SLP162 T01280106=
202208280853 METAR KPAE 280853Z AUTO 34003KT 10SM CLR 13/11 A3001 RMK AO2 SLP161 T01280106 52001=
202208280753 METAR KPAE 280753Z AUTO 02006KT 10SM CLR 14/11 A3001 RMK AO2 SLP160 T01390111 402060139=
202208280653 METAR KPAE 280653Z AUTO 02005KT 10SM CLR 14/11 A3001 RMK AO2 SLP160 T01390111=
202208280553 METAR KPAE 280553Z AUTO 01005KT 10SM CLR 14/11 A3001 RMK AO2 SLP160 T01440106 10200 20144 50007=
202208280453 METAR KPAE 280453Z AUTO 35005KT 10SM FEW080 16/11 A3001 RMK AO2 SLP161 T01610106=
202208280353 METAR KPAE 280353Z 36003KT 10SM CLR 17/11 A3000 RMK AO2 SLP157 T01670106=
202208280253 METAR KPAE 280253Z 00000KT 10SM OVC080 18/10 A2999 RMK AO2 SLP153 T01780100 56003=
202208280153 METAR KPAE 280153Z 30003KT 10SM CLR 18/10 A2999 RMK AO2 SLP154 T01830100=
202208280053 METAR KPAE 280053Z 25004KT 10SM CLR 19/10 A2999 RMK AO2 SLP153 T01940100=
202208272353 METAR KPAE 272353Z 33003KT 10SM BKN030 BKN036 19/11 A3000 RMK AO2 SLP156 T01940106 10206 20156 56007=
202208272253 METAR KPAE 272253Z VRB05KT 10SM BKN031 19/11 A3000 RMK AO2 SLP156 T01890106=
202208272153 METAR KPAE 272153Z VRB05KT 10SM OVC023 18/10 A3001 RMK AO2 SLP159 T01780100=
202208272100 SPECI KPAE 272100Z 18005KT 10SM BKN021 OVC027 17/11 A3002 RMK AO2 T01720106=
202208272053 METAR KPAE 272053Z 19006KT 10SM OVC013 17/11 A3002 RMK AO2 SLP164 T01720106 53009=
202208271953 METAR KPAE 271953Z 19011KT 10SM OVC013 17/10 A3000 RMK AO2 SLP156 T01720100=
202208271853 METAR KPAE 271853Z 19010KT 10SM OVC013 16/10 A3000 RMK AO2 SLP159 T01610100=
202208271753 METAR KPAE 271753Z 17010KT 10SM BKN009 OVC025 16/10 A2999 RMK AO2 SLP155 60000 T01610100 10161 20139 53006=
202208271653 METAR KPAE 271653Z 18008KT 10SM BKN008 OVC014 16/11 A2998 RMK AO2 SLP151 T01560111=
202208271553 METAR KPAE 271553Z 19008KT 10SM OVC006 14/11 A2998 RMK AO2 SLP149 T01440111=
202208271453 METAR KPAE 271453Z 20009KT 5SM HZ OVC006 14/11 A2998 RMK AO2 RAB1359E04 SLP149 P0000 60000 T01390111 53009=
202208271418 SPECI KPAE 271418Z 20006KT 5SM BR OVC006 14/12 A2996 RMK AO2 RAB1359E04 P0000 T01390117=
202208271353 METAR KPAE 271353Z 22004KT 2SM R16R/5000VP6000FT BR OVC004 14/12 A2996 RMK AO2 SLP145 T01390122=
202208271345 SPECI KPAE 271345Z 24004KT 5SM BR OVC004 14/12 A2997 RMK AO2 T01390122=
202208271253 METAR KPAE 271253Z AUTO 00000KT 10SM OVC008 14/12 A2996 RMK AO2 SLP143 T01440117=
202208271153 METAR KPAE 271153Z AUTO 07003KT 10SM OVC009 14/11 A2995 RMK AO2 SLP140 60000 T01390111 10150 20139 53000=
202208271053 METAR KPAE 271053Z AUTO 02004KT 10SM OVC008 14/12 A2995 RMK AO2 SLP141 T01390117=
202208270953 METAR KPAE 270953Z AUTO 02006KT 10SM OVC010 14/12 A2994 RMK AO2 CIG 007V012 SLP139 T01390117=
202208270917 SPECI KPAE 270917Z AUTO 02006KT 10SM OVC013 14/12 A2995 RMK AO2 T01390117=
202208270853 METAR KPAE 270853Z AUTO VRB06KT 10SM FEW007 OVC017 14/12 A2995 RMK AO2 RAE03 SLP140 P0000 60000 T01390117 56004=
202208270753 METAR KPAE 270753Z AUTO 01005KT 10SM -RA SCT007 OVC019 15/12 A2995 RMK AO2 RAB50 SLP141 P0000 T01500122 402110144=
202208270727 SPECI KPAE 270727Z AUTO 00000KT 10SM FEW006 OVC019 15/12 A2995 RMK AO2 T01500122=
202208270653 METAR KPAE 270653Z AUTO 36005KT 10SM OVC020 15/12 A2995 RMK AO2 SLP141 T01500122=
202208270619 SPECI KPAE 270619Z AUTO 36007KT 10SM BKN021 BKN036 14/12 A2996 RMK AO2 T01440122=
202208270553 METAR KPAE 270553Z AUTO 36010G17KT 10SM FEW022 BKN041 BKN060 15/12 A2996 RMK AO2 SLP144 60000 T01500122 10206 20150 51002=
202208270548 SPECI KPAE 270548Z AUTO 36011G16KT 10SM FEW022 SCT029 BKN043 15/12 A2996 RMK AO2=
202208270515 SPECI KPAE 270515Z AUTO 35008KT 10SM BKN022 OVC037 16/13 A2996 RMK AO2 T01610128=
202208270453 METAR KPAE 270453Z AUTO 36007KT 10SM OVC036 16/13 A2996 RMK AO2 SLP143 T01610128=
202208270353 METAR KPAE 270353Z 01006KT 10SM BKN036 16/13 A2995 RMK AO2 SLP142 T01610128=
202208270253 METAR KPAE 270253Z 00000KT 10SM OVC035 19/14 A2996 RMK AO2 SLP142 60000 T01890139 56011=
202208270153 METAR KPAE 270153Z 26004KT 10SM BKN039 20/14 A2996 RMK AO2 SLP144 T02000139=
202208270053 METAR KPAE 270053Z 23006KT 10SM OVC037 19/14 A2998 RMK AO2 RAB18E30 SLP151 P0000 T01940139=
202208262353 METAR KPAE 262353Z 24009KT 10SM OVC040 19/13 A2999 RMK AO2 SLP154 T01890133 10211 20167 57009=
202208262253 METAR KPAE 262253Z 25005KT 10SM SCT020 OVC090 20/14 A3000 RMK AO2 SLP156 T02000139=
202208262153 METAR KPAE 262153Z 25007KT 10SM OVC020 19/14 A3001 RMK AO2 SLP163 T01940139=
202208262053 METAR KPAE 262053Z 24006KT 10SM OVC017 18/13 A3002 RMK AO2 SLP164 T01830133 56003=
202208261953 METAR KPAE 261953Z 19011G17KT 10SM OVC016 18/13 A3002 RMK AO2 SLP165 T01830128=
202208261853 METAR KPAE 261853Z 19012KT 10SM OVC015 18/12 A3002 RMK AO2 SLP165 T01780122=
202208261832 SPECI KPAE 261832Z 19008KT 10SM OVC015 17/12 A3003 RMK AO2 T01720122=
202208261753 METAR KPAE 261753Z 16012KT 10SM OVC009 17/12 A3003 RMK AO2 SLP166 T01720122 10172 20156 52004=
202208261714 SPECI KPAE 261714Z 22004KT 10SM OVC007 16/13 A3003 RMK AO2 T01560128=
202208261653 METAR KPAE 261653Z 19008KT 10SM OVC011 16/13 A3003 RMK AO2 SLP166 T01560128=
202208261553 METAR KPAE 261553Z 19009KT 9SM OVC008 16/13 A3002 RMK AO2 CIG 007V012 SLP164 T01560128=
202208261453 METAR KPAE 261453Z 18010G18KT 10SM OVC007 16/13 A3002 RMK AO2 CIG 005V011 SLP163 T01610133 53006=
202208261353 METAR KPAE 261353Z 20010KT 10SM OVC006 16/13 A3001 RMK AO2 SLP158 T01610133=
202208261253 METAR KPAE 261253Z AUTO 20007KT 10SM OVC006 16/13 A3000 RMK AO2 SLP155 T01610133=
202208261153 METAR KPAE 261153Z AUTO 20008KT 10SM OVC007 16/13 A3000 RMK AO2 SLP154 T01610133 10189 20144 51003=
202208261053 METAR KPAE 261053Z AUTO 18008KT 10SM OVC008 16/14 A3000 RMK AO2 SLP154 T01610139=
202208261036 SPECI KPAE 261036Z AUTO 10SM BKN009 15/13 A3000 RMK AO2 T01500128=
202208261027 SPECI KPAE 261027Z AUTO 00000KT 10SM SCT009 14/13 A3000 RMK AO2 T01440128=
202208260953 METAR KPAE 260953Z AUTO 35003KT 10SM CLR 15/13 A3000 RMK AO2 SLP154 T01500128=
202208260853 METAR KPAE 260853Z AUTO 00000KT 10SM CLR 16/13 A2999 RMK AO2 SLP152 T01560128 51006=
202208260753 METAR KPAE 260753Z AUTO 00000KT 10SM CLR 16/13 A2998 RMK AO2 SLP150 T01610128 403060161=
202208260653 METAR KPAE 260653Z AUTO 35003KT 10SM CLR 17/13 A2998 RMK AO2 SLP149 T01720133=
202208260553 METAR KPAE 260553Z AUTO 00000KT 10SM CLR 19/14 A2997 RMK AO2 SLP146 T01890139 10306 20189 51006=
202208260453 METAR KPAE 260453Z 02005KT 10SM CLR 19/14 A2997 RMK AO2 SLP145 T01940139=
202208260353 METAR KPAE 260353Z 01005KT 10SM CLR 20/14 A2997 RMK AO2 SLP144 T02000139=
202208260253 METAR KPAE 260253Z 01006KT 10SM CLR 23/14 A2995 RMK AO2 SLP140 T02280139 55002=
202208260153 METAR KPAE 260153Z 00000KT 10SM CLR 27/14 A2995 RMK AO2 SLP137 T02720144=
202208260053 METAR KPAE 260053Z 35004KT 10SM CLR 29/14 A2995 RMK AO2 SLP138 T02890144=
202208252353 METAR KPAE 252353Z 29004KT 10SM CLR 29/14 A2996 RMK AO2 SLP141 T02940139 10300 20233 56011=
202208252253 METAR KPAE 252253Z 30005KT 10SM CLR 29/14 A2997 RMK AO2 SLP144 T02940139=
202208252153 METAR KPAE 252153Z 25006KT 10SM CLR 29/13 A2998 RMK AO2 SLP148 T02890133=
202208252053 METAR KPAE 252053Z 26007KT 10SM CLR 28/14 A2999 RMK AO2 SLP153 T02780139 58007=
202208251953 METAR KPAE 251953Z 27006KT 10SM CLR 27/16 A3001 RMK AO2 SLP156 T02720156=
202208251853 METAR KPAE 251853Z 27006KT 10SM CLR 24/16 A3001 RMK AO2 SLP158 T02440156=
202208251753 METAR KPAE 251753Z 26006KT 10SM CLR 23/16 A3002 RMK AO2 SLP161 T02330156 10239 20172 52006=
202208251653 METAR KPAE 251653Z 28006KT 10SM CLR 24/16 A3001 RMK AO2 SLP158 T02390156=
202208251553 METAR KPAE 251553Z 17003KT 10SM CLR 23/16 A3001 RMK AO2 SLP157 T02280156=
202208251453 METAR KPAE 251453Z 00000KT 10SM CLR 21/15 A3000 RMK AO2 SLP154 T02060150 53015=
202208251353 METAR KPAE 251353Z 00000KT 10SM CLR 18/14 A2998 RMK AO2 SLP149 T01830144=
202208251253 METAR KPAE 251253Z AUTO 00000KT 10SM CLR 19/14 A2997 RMK AO2 SLP143 T01890139=
202208251153 METAR KPAE 251153Z AUTO 00000KT 10SM CLR 18/14 A2996 RMK AO2 SLP139 T01780139 10217 20178 53006=
202208251053 METAR KPAE 251053Z AUTO 01003KT 10SM CLR 18/14 A2995 RMK AO2 SLP137 T01830139=
202208250953 METAR KPAE 250953Z AUTO 35003KT 10SM CLR 19/14 A2994 RMK AO2 SLP134 T01890139=
202208250853 METAR KPAE 250853Z AUTO VRB03KT 10SM CLR 21/14 A2994 RMK AO2 SLP134 T02060139 53002=
202208250753 METAR KPAE 250753Z AUTO 02003KT 10SM CLR 21/14 A2994 RMK AO2 SLP133 T02110144 402830133=
202208250653 METAR KPAE 250653Z AUTO 02005KT 10SM CLR 21/13 A2993 RMK AO2 SLP132 T02110133=
202208250553 METAR KPAE 250553Z AUTO VRB04KT 10SM CLR 21/14 A2993 RMK AO2 SLP132 T02060139 10278 20206 51012=
202208250453 METAR KPAE 250453Z AUTO 00000KT 10SM CLR 22/15 A2992 RMK AO2 SLP129 T02170150=
202208250353 METAR KPAE 250353Z 00000KT 10SM CLR 24/15 A2991 RMK AO2 SLP126 T02390150=
202208250253 METAR KPAE 250253Z 34005KT 10SM CLR 24/14 A2989 RMK AO2 SLP120 T02440144 53000=
202208250153 METAR KPAE 250153Z 34004KT 10SM CLR 27/16 A2989 RMK AO2 SLP118 T02670156=
202208250053 METAR KPAE 250053Z 35006KT 10SM CLR 27/16 A2989 RMK AO2 SLP117 T02720156=
202208242353 METAR KPAE 242353Z AUTO 35006KT 10SM CLR 28/15 A2989 RMK AO2 SLP119 T02780150 10283 20217 56012=
202208242253 METAR KPAE 242253Z AUTO VRB06KT 10SM CLR 28/14 A2990 RMK AO2 SLP123 T02830139=
202208242153 METAR KPAE 242153Z 35005KT 10SM CLR 27/14 A2992 RMK AO2 SLP127 T02720144=
202208242053 METAR KPAE 242053Z 36007KT 10SM CLR 26/14 A2993 RMK AO2 SLP132 T02560139 56012=
202208241953 METAR KPAE 241953Z 36008KT 10SM CLR 24/14 A2994 RMK AO2 SLP135 T02440139=
202208241853 METAR KPAE 241853Z 01006KT 10SM CLR 23/14 A2995 RMK AO2 SLP140 T02280144=
202208241753 METAR KPAE 241753Z 01005KT 10SM CLR 22/14 A2996 RMK AO2 SLP145 T02170144 10217 20133 58006=
202208241653 METAR KPAE 241653Z 01006KT 10SM CLR 21/14 A2997 RMK AO2 SLP146 T02110139=
202208241553 METAR KPAE 241553Z 01003KT 10SM CLR 19/14 A2998 RMK AO2 SLP151 T01890139=
202208241453 METAR KPAE 241453Z 35005KT 10SM VCFG FEW001 15/13 A2998 RMK AO2 SLP152 T01500133 53005=
202208241438 SPECI KPAE 241438Z 05003KT 10SM R16R/1000VP6000FT VCFG FEW001 14/13 A2998 RMK AO2 T01440133=
202208241432 SPECI KPAE 241432Z VRB03KT 1 1/4SM R16R/1000V1800FT BR VCFG BKN001 14/13 A2998 RMK AO2 VIS 1/4V4 T01440128=
202208241422 SPECI KPAE 241422Z 35004KT 3/4SM R16R/1600VP6000FT BR VCFG VV001 14/13 A2998 RMK AO2 T01440128=
202208241419 SPECI KPAE 241419Z VRB04KT 1 3/4SM BR VCFG FEW001 14/13 A2998 RMK AO2 T01440128=
202208241353 METAR KPAE 241353Z 00000KT 10SM VCFG CLR 14/13 A2998 RMK AO2 SLP148 T01390128=
202208241346 SPECI KPAE 241346Z AUTO 00000KT 10SM R16R/1200VP6000FT FEW001 14/13 A2997 RMK AO2 T01390128=
202208241339 SPECI KPAE 241339Z AUTO 02003KT 9SM R16R/1000V2000FT SCT001 14/12 A2997 RMK AO2 T01390122=
202208241253 METAR KPAE 241253Z AUTO 35005KT 10SM R16R/5000VP6000FT OVC001 14/12 A2997 RMK AO2 SLP145 T01390122=
202208241234 SPECI KPAE 241234Z AUTO 35004KT 9SM OVC001 14/12 A2997 RMK AO2 T01390122=
202208241207 SPECI KPAE 241207Z AUTO 36005KT 10SM OVC002 14/12 A2997 RMK AO2 T01390122=
202208241153 METAR KPAE 241153Z AUTO 34004KT 10SM OVC001 14/12 A2997 RMK AO2 SLP146 T01390122 10161 20139 58002=
202208241107 SPECI KPAE 241107Z AUTO 36005KT 10SM BKN001 14/12 A2997 RMK AO2 T01390122=
202208241053 METAR KPAE 241053Z AUTO 35004KT 10SM SCT002 14/12 A2997 RMK AO2 SLP147 T01390122=
202208241028 SPECI KPAE 241028Z AUTO VRB04KT 10SM FEW001 14/13 A2998 RMK AO2 T01440128=
202208240953 METAR KPAE 240953Z AUTO 36003KT 10SM CLR 14/13 A2998 RMK AO2 SLP149 T01440128=
202208240853 METAR KPAE 240853Z AUTO 01004KT 10SM CLR 15/13 A2998 RMK AO2 SLP148 T01500133 56008=
202208240753 METAR KPAE 240753Z AUTO 01003KT 10SM CLR 16/13 A2998 RMK AO2 SLP151 T01560133 402390139=
202208240653 METAR KPAE 240653Z AUTO 03004KT 10SM CLR 16/13 A2999 RMK AO2 SLP152 T01610133=
202208240553 METAR KPAE 240553Z AUTO 36006KT 10SM CLR 16/13 A3000 RMK AO2 SLP156 T01610133 10228 20161 50001=
202208240453 METAR KPAE 240453Z AUTO 36005KT 10SM CLR 17/13 A3001 RMK AO2 SLP160 T01670128=
202208240353 METAR KPAE 240353Z AUTO VRB03KT 10SM CLR 17/13 A3001 RMK AO2 SLP161 T01720128=
202208240253 METAR KPAE 240253Z 36003KT 10SM CLR 19/13 A3000 RMK AO2 SLP155 T01940133 56001=
202208240153 METAR KPAE 240153Z 35004KT 10SM CLR 21/14 A3000 RMK AO2 SLP155 T02110139=
202208240053 METAR KPAE 240053Z 35006KT 10SM CLR 23/14 A3000 RMK AO2 SLP156 T02280144=
202208232353 METAR KPAE 232353Z 35004KT 10SM CLR 23/14 A3000 RMK AO2 SLP157 T02280144 10239 20194 56015=
202208232253 METAR KPAE 232253Z 35011G18KT 10SM CLR 24/14 A3001 RMK AO2 SLP159 T02390139=
202208232153 METAR KPAE 232153Z 33009KT 10SM CLR 22/14 A3003 RMK AO2 SLP166 T02220144=
202208232053 METAR KPAE 232053Z VRB06KT 10SM CLR 21/14 A3004 RMK AO2 SLP173 T02060144 56014=
202208231953 METAR KPAE 231953Z 01007KT 10SM CLR 21/14 A3006 RMK AO2 SLP175 T02110139=
202208231853 METAR KPAE 231853Z 29005KT 10SM CLR 20/13 A3007 RMK AO2 SLP181 T02000128=
202208231812 SPECI KPAE 231812Z VRB05KT 10SM SCT015 19/12 A3008 RMK AO2 T01940117=
202208231800 SPECI KPAE 231800Z 28004KT 10SM BKN015 19/12 A3009 RMK AO2 T01940122=
202208231753 METAR KPAE 231753Z VRB04KT 10SM SCT015 19/12 A3009 RMK AO2 SLP186 T01890122 10194 20139 56004=
202208231723 SPECI KPAE 231723Z 25004KT 10SM SCT015 19/12 A3009 RMK AO2 T01940122=
202208231700 SPECI KPAE 231700Z 27003KT 10SM BKN016 18/13 A3009 RMK AO2 T01780128=
202208231653 METAR KPAE 231653Z 01004KT 10SM FEW020 18/13 A3009 RMK AO2 SLP188 T01780128=
202208231553 METAR KPAE 231553Z 00000KT 10SM SCT018 16/12 A3010 RMK AO2 SLP190 T01610122=
202208231453 METAR KPAE 231453Z 05003KT 10SM CLR 16/12 A3010 RMK AO2 SLP190 T01560122 53002=
202208231353 METAR KPAE 231353Z 00000KT 10SM FEW002 14/12 A3010 RMK AO2 SLP189 T01390122=
202208231324 SPECI KPAE 231324Z AUTO 01004KT 10SM SCT002 14/12 A3009 RMK AO2 T01390122=
202208231310 SPECI KPAE 231310Z AUTO 01005KT 10SM BKN002 14/12 A3009 RMK AO2 T01390122=
202208231253 METAR KPAE 231253Z AUTO 01005KT 10SM R16R/5000VP6000FT OVC001 14/12 A3009 RMK AO2 SLP187 T01390122=
202208231234 SPECI KPAE 231234Z AUTO 01006KT 6SM R16R/4000VP6000FT BR OVC001 14/12 A3009 RMK AO2 T01390122=
202208231153 METAR KPAE 231153Z AUTO 01004KT 10SM OVC002 14/12 A3009 RMK AO2 SLP189 T01390122 10167 20139 53000=
202208231122 SPECI KPAE 231122Z AUTO 01006KT 10SM BKN003 14/12 A3010 RMK AO2 T01390122=
202208231106 SPECI KPAE 231106Z AUTO 01006KT 10SM SCT003 14/12 A3010 RMK AO2 T01390122=
202208231053 METAR KPAE 231053Z AUTO 01005KT 10SM CLR 14/12 A3009 RMK AO2 SLP187 T01390122=
202208231005 SPECI KPAE 231005Z AUTO 01005KT 10SM SCT003 14/12 A3009 RMK AO2 T01390122=
202208230953 METAR KPAE 230953Z AUTO 02004KT 10SM BKN003 14/12 A3009 RMK AO2 SLP187 T01390122=
202208230853 METAR KPAE 230853Z AUTO 36005KT 10SM BKN002 14/12 A3009 RMK AO2 SLP189 T01390122 55002=
202208230819 SPECI KPAE 230819Z AUTO 36004KT 10SM FEW003 14/12 A3010 RMK AO2 T01390122=
202208230753 METAR KPAE 230753Z AUTO 01006KT 10SM CLR 14/12 A3009 RMK AO2 SLP188 T01440122 402670144=
202208230653 METAR KPAE 230653Z AUTO 36006KT 10SM CLR 15/13 A3010 RMK AO2 SLP191 T01500128=
202208230553 METAR KPAE 230553Z AUTO 02007KT 10SM CLR 17/13 A3010 RMK AO2 SLP191 T01670128 10244 20167 50006=
202208230453 METAR KPAE 230453Z AUTO 36006KT 10SM CLR 17/13 A3010 RMK AO2 SLP191 T01670128=
202208230353 METAR KPAE 230353Z AUTO 36008KT 10SM CLR 18/13 A3010 RMK AO2 SLP189 T01780128=
202208230253 METAR KPAE 230253Z 35005KT 10SM CLR 19/12 A3008 RMK AO2 SLP185 T01940122 53002=
202208230153 METAR KPAE 230153Z 35007KT 10SM CLR 22/12 A3008 RMK AO2 SLP184 T02170122=
202208230053 METAR KPAE 230053Z 35007KT 10SM CLR 23/13 A3008 RMK AO2 SLP184 T02330128=
202208222353 METAR KPAE 222353Z 35009KT 10SM CLR 24/14 A3008 RMK AO2 SLP183 T02390139 10267 20222 56013=
202208222253 METAR KPAE 222253Z 30006KT 10SM CLR 26/14 A3009 RMK AO2 SLP186 T02560139=
202208222153 METAR KPAE 222153Z 26007KT 230V290 10SM CLR 26/13 A3010 RMK AO2 SLP191 T02560133=
202208222053 METAR KPAE 222053Z VRB05KT 10SM CLR 24/14 A3012 RMK AO2 SLP195 T02390144 58004=
202208221953 METAR KPAE 221953Z 27005KT 10SM CLR 24/14 A3013 RMK AO2 SLP199 T02390144=
202208221853 METAR KPAE 221853Z 29006KT 10SM CLR 22/14 A3013 RMK AO2 SLP200 T02220139=
202208221753 METAR KPAE 221753Z VRB03KT 10SM CLR 22/14 A3013 RMK AO2 SLP200 T02220139 10222 20144 51010=
202208221653 METAR KPAE 221653Z 36004KT 10SM CLR 20/13 A3012 RMK AO2 SLP199 T02000133=
202208221553 METAR KPAE 221553Z 03003KT 10SM CLR 18/13 A3012 RMK AO2 SLP196 T01830133=
202208221453 METAR KPAE 221453Z 36005KT 10SM CLR 17/13 A3010 RMK AO2 SLP190 T01670133 53012=
202208221353 METAR KPAE 221353Z 36003KT 10SM CLR 15/13 A3008 RMK AO2 SLP185 T01500128=
202208221253 METAR KPAE 221253Z AUTO 00000KT 10SM CLR 15/13 A3007 RMK AO2 SLP181 T01500128=
202208221153 METAR KPAE 221153Z AUTO 31003KT 10SM CLR 14/13 A3006 RMK AO2 SLP178 T01440128 10167 20144 53008=
202208221053 METAR KPAE 221053Z AUTO 36004KT 10SM CLR 16/13 A3004 RMK AO2 SLP171 T01560133=
202208220953 METAR KPAE 220953Z AUTO 35004KT 10SM CLR 16/14 A3004 RMK AO2 SLP171 T01610139=
202208220853 METAR KPAE 220853Z AUTO 00000KT 10SM CLR 16/14 A3004 RMK AO2 SLP170 T01610139 58003=
202208220753 METAR KPAE 220753Z AUTO 35005KT 10SM CLR 16/13 A3005 RMK AO2 SLP173 T01610133 402560161=
202208220653 METAR KPAE 220653Z AUTO 36009KT 10SM CLR 17/13 A3005 RMK AO2 SLP173 T01670133=
202208220553 METAR KPAE 220553Z AUTO 35006KT 10SM CLR 17/14 A3005 RMK AO2 SLP173 T01670139 10239 20167 50007=
202208220453 METAR KPAE 220453Z AUTO 01009KT 10SM CLR 17/14 A3005 RMK AO2 SLP174 T01720139=
202208220353 METAR KPAE 220353Z 35004KT 10SM CLR 19/15 A3004 RMK AO2 SLP171 T01890150=
202208220253 METAR KPAE 220253Z 35004KT 10SM CLR 20/14 A3003 RMK AO2 SLP166 T02000144 53001=
202208220153 METAR KPAE 220153Z 36004KT 10SM CLR 23/15 A3002 RMK AO2 SLP162 T02280150=
202208220053 METAR KPAE 220053Z 01004KT 10SM CLR 23/15 A3002 RMK AO2 SLP162 T02280150=
202208212353 METAR KPAE 212353Z 34004KT 10SM CLR 23/14 A3002 RMK AO2 SLP164 T02330144 10256 20200 56008=
202208212253 METAR KPAE 212253Z VRB05KT 10SM CLR 24/14 A3002 RMK AO2 SLP164 T02440139=
202208212153 METAR KPAE 212153Z 28005KT 10SM CLR 23/14 A3004 RMK AO2 SLP168 T02280144=
202208212053 METAR KPAE 212053Z 25007KT 10SM SCT021 22/14 A3005 RMK AO2 SLP173 T02220144 56006=
202208211953 METAR KPAE 211953Z 28006KT 10SM SCT021 22/14 A3005 RMK AO2 SLP173 T02170144=
202208211853 METAR KPAE 211853Z 16004KT 10SM OVC017 21/14 A3006 RMK AO2 SLP177 T02110144=
202208211753 METAR KPAE 211753Z VRB06KT 10SM OVC015 20/14 A3007 RMK AO2 SLP179 T02000144 10200 20172 51008=
202208211713 SPECI KPAE 211713Z VRB03KT 10SM OVC015 19/14 A3007 RMK AO2 T01940144=
202208211653 METAR KPAE 211653Z 00000KT 10SM OVC014 19/14 A3006 RMK AO2 SLP178 T01940144=
202208211553 METAR KPAE 211553Z 24003KT 10SM OVC012 18/14 A3005 RMK AO2 SLP175 T01830144=
202208211453 METAR KPAE 211453Z 20006KT 10SM OVC013 18/14 A3004 RMK AO2 SLP170 T01830139 53007=
202208211353 METAR KPAE 211353Z 21004KT 10SM BKN014 OVC042 18/14 A3004 RMK AO2 SLP169 T01780139=
202208211346 SPECI KPAE 211346Z AUTO 22003KT 10SM BKN015 OVC041 17/14 A3004 RMK AO2 T01720139=
202208211253 METAR KPAE 211253Z AUTO 19004KT 10SM OVC041 18/14 A3002 RMK AO2 SLP163 T01780139=
202208211153 METAR KPAE 211153Z AUTO 00000KT 10SM OVC040 17/14 A3002 RMK AO2 SLP162 T01720144 10172 20161 51007=
202208211053 METAR KPAE 211053Z AUTO 32003KT 10SM OVC041 17/14 A3001 RMK AO2 SLP160 T01670144=
202208210953 METAR KPAE 210953Z AUTO 00000KT 10SM OVC042 17/14 A3001 RMK AO2 SLP158 T01720144=
202208210853 METAR KPAE 210853Z AUTO 00000KT 10SM OVC041 17/14 A3000 RMK AO2 SLP155 T01670144 51008=
202208210753 METAR KPAE 210753Z AUTO 34003KT 10SM OVC042 17/14 A3000 RMK AO2 SLP155 T01670144 402560161=
202208210653 METAR KPAE 210653Z AUTO 35005KT 10SM CLR 16/14 A2998 RMK AO2 SLP151 T01610144=
202208210553 METAR KPAE 210553Z AUTO 01008KT 10SM CLR 17/14 A2998 RMK AO2 SLP148 T01670144 10256 20167 51010=
202208210453 METAR KPAE 210453Z AUTO 36007KT 10SM CLR 17/14 A2997 RMK AO2 SLP146 T01720144=
202208210353 METAR KPAE 210353Z AUTO 02006KT 10SM CLR 19/14 A2996 RMK AO2 SLP143 T01890144=
202208210253 METAR KPAE 210253Z 35006KT 10SM CLR 21/15 A2995 RMK AO2 SLP138 T02110150 55002=
202208210153 METAR KPAE 210153Z 28004KT 10SM CLR 24/14 A2994 RMK AO2 SLP134 T02440144=
202208210053 METAR KPAE 210053Z 25006KT 10SM CLR 24/14 A2995 RMK AO2 SLP138 T02440144=
202208202353 METAR KPAE 202353Z 25007KT 10SM CLR 25/14 A2995 RMK AO2 SLP139 T02500144 10256 20189 56009=
202208202253 METAR KPAE 202253Z 24007KT 10SM CLR 24/14 A2996 RMK AO2 SLP141 T02440144=
202208202153 METAR KPAE 202153Z 25008KT 10SM FEW027 23/14 A2997 RMK AO2 SLP145 T02330144=
202208202053 METAR KPAE 202053Z 00000KT 10SM OVC045 23/14 A2998 RMK AO2 SLP149 T02280144 58005=
202208201953 METAR KPAE 201953Z 23004KT 10SM FEW026 OVC046 21/14 A2999 RMK AO2 SLP152 T02110144=
202208201853 METAR KPAE 201853Z 24006KT 10SM BKN026 OVC047 19/14 A3000 RMK AO2 SLP155 T01940139=
202208201753 METAR KPAE 201753Z 26004KT 10SM SCT016 OVC047 19/14 A2999 RMK AO2 SLP155 T01940144 10194 20167 51005=
202208201715 SPECI KPAE 201715Z 25004KT 10SM SCT027 OVC047 18/14 A2999 RMK AO2 T01830139=
202208201653 METAR KPAE 201653Z 24006KT 10SM OVC027 18/14 A2999 RMK AO2 SLP153 T01780139=
202208201614 SPECI KPAE 201614Z 27005KT 10SM BKN028 OVC046 18/14 A2999 RMK AO2 T01830139=
202208201553 METAR KPAE 201553Z 20006KT 10SM FEW028 BKN045 18/14 A2998 RMK AO2 SLP150 T01830139=
202208201453 METAR KPAE 201453Z 26003KT 10SM OVC044 17/14 A2998 RMK AO2 SLP148 T01720139 53005=
202208201353 METAR KPAE 201353Z 22004KT 10SM FEW010 OVC044 17/14 A2997 RMK AO2 SLP145 T01720144=
202208201253 METAR KPAE 201253Z AUTO 00000KT 10SM OVC043 17/14 A2996 RMK AO2 SLP142 T01670144=
202208201153 METAR KPAE 201153Z AUTO 28003KT 10SM OVC043 17/14 A2996 RMK AO2 SLP143 70003 T01670144 10183 20167 53002=
202208201053 METAR KPAE 201053Z AUTO 21003KT 10SM SCT031 OVC042 18/14 A2996 RMK AO2 SLP143 T01780144=
202208200953 METAR KPAE 200953Z AUTO 19003KT 10SM OVC035 18/15 A2996 RMK AO2 SLP141 T01780150=
202208200853 METAR KPAE 200853Z AUTO 21004KT 10SM OVC043 18/15 A2996 RMK AO2 SLP141 T01780150 51004=
202208200753 METAR KPAE 200753Z AUTO 00000KT 10SM CLR 17/14 A2996 RMK AO2 SLP142 T01670139 402610167=
202208200653 METAR KPAE 200653Z AUTO 00000KT 10SM CLR 17/14 A2995 RMK AO2 SLP141 T01720144=
202208200553 METAR KPAE 200553Z AUTO 36005KT 10SM CLR 18/14 A2994 RMK AO2 SLP138 T01780144 10239 20178 53007=
202208200453 METAR KPAE 200453Z AUTO 00000KT 10SM CLR 22/16 A2994 RMK AO2 SLP134 T02170156=
202208200353 METAR KPAE 200353Z AUTO 06003KT 10SM CLR 22/16 A2993 RMK AO2 SLP132 T02220156=
202208200253 METAR KPAE 200253Z 04003KT 10SM CLR 23/16 A2992 RMK AO2 SLP130 T02330161 57001=
202208200153 METAR KPAE 200153Z 36005KT 10SM CLR 23/16 A2992 RMK AO2 SLP130 T02280156=
202208200053 METAR KPAE 200053Z 33004KT 10SM CLR 23/16 A2993 RMK AO2 SLP131 T02330161=
202208192353 METAR KPAE 192353Z 01007KT 10SM CLR 23/16 A2993 RMK AO2 SLP130 60000 T02330161 10261 20189 57004=
202208192253 METAR KPAE 192253Z 34005KT 10SM CLR 24/17 A2993 RMK AO2 SLP131 T02440167=
202208192153 METAR KPAE 192153Z VRB03KT 10SM CLR 26/17 A2994 RMK AO2 SLP133 T02560167=
202208192053 METAR KPAE 192053Z 19007KT 10SM CLR 24/16 A2994 RMK AO2 SLP134 60000 T02440161 56011=
202208191953 METAR KPAE 191953Z VRB05KT 10SM CLR 21/17 A2995 RMK AO2 SLP137 T02060167=
202208191853 METAR KPAE 191853Z 15004KT 10SM FEW036 BKN090 19/16 A2995 RMK AO2 RAE04 SLP138 P0000 T01940161=
202208191800 SPECI KPAE 191800Z 20006KT 10SM -RA FEW006 SCT040 BKN090 19/17 A2997 RMK AO2 P0000 T01890167=
202208191753 METAR KPAE 191753Z 20008KT 10SM -RA BKN005 BKN065 19/17 A2997 RMK AO2 RAB49 SLP145 P0001 60003 T01890167 10228 20183 51002=
202208191723 SPECI KPAE 191723Z 18008KT 10SM BKN005 BKN065 19/17 A2997 RMK AO2 T01890167=
202208191653 METAR KPAE 191653Z 17008KT 10SM FEW002 SCT047 BKN080 19/17 A2997 RMK AO2 RAE47 SLP144 P0000 T01940167=
202208191629 SPECI KPAE 191629Z 19005KT 10SM -RA FEW002 SCT047 BKN080 19/17 A2997 RMK AO2 P0000 T01940172=
202208191553 METAR KPAE 191553Z 23010KT 10SM -RA FEW095 BKN120 20/17 A2998 RMK AO2 SLP148 P0002 T02000172=
202208191453 METAR KPAE 191453Z 00000KT 10SM -RA FEW044 SCT100 BKN110 20/16 A2997 RMK AO2 SLP143 P0000 60000 T02000161 51021=
202208191353 METAR KPAE 191353Z 00000KT 10SM -RA FEW110 21/14 A2995 RMK AO2 RAB49 SLP136 P0000 T02060144=
202208191253 METAR KPAE 191253Z AUTO 00000KT 10SM CLR 20/14 A2993 RMK AO2 SLP132 T02000144=
202208191153 METAR KPAE 191153Z AUTO 00000KT 10SM CLR 23/16 A2990 RMK AO2 SLP120 T02280161 10267 20222 51011=
202208191053 METAR KPAE 191053Z AUTO 17004KT 10SM CLR 23/17 A2989 RMK AO2 SLP117 T02330167=
202208190953 METAR KPAE 190953Z AUTO 22006KT 10SM FEW100 23/18 A2989 RMK AO2 SLP117 T02280178=
202208190853 METAR KPAE 190853Z AUTO 34003KT 10SM CLR 25/18 A2987 RMK AO2 SLP110 T02500183 58010=
202208190753 METAR KPAE 190753Z AUTO 10004KT 10SM FEW110 26/18 A2989 RMK AO2 SLP116 T02560178 403000206=
202208190653 METAR KPAE 190653Z AUTO 35003KT 10SM CLR 25/18 A2989 RMK AO2 SLP118 T02500183=
202208190553 METAR KPAE 190553Z AUTO 00000KT 10SM CLR 27/18 A2990 RMK AO2 SLP119 T02670178 10294 20256 56003=
202208190453 METAR KPAE 190453Z 02003KT 10SM CLR 27/17 A2990 RMK AO2 SLP121 T02720172=
202208190353 METAR KPAE 190353Z 00000KT 10SM CLR 27/17 A2990 RMK AO2 SLP122 T02720167=
202208190253 METAR KPAE 190253Z 00000KT 10SM CLR 27/16 A2991 RMK AO2 SLP123 T02720161 56005=
202208190153 METAR KPAE 190153Z 00000KT 10SM CLR 28/16 A2991 RMK AO2 SLP125 T02830161=
202208190053 METAR KPAE 190053Z 35003KT 10SM CLR 29/16 A2991 RMK AO2 SLP125 T02890161=
202208182353 METAR KPAE 182353Z 34003KT 10SM CLR 29/16 A2992 RMK AO2 SLP127 T02940156 10300 20250 58003=
202208182253 METAR KPAE 182253Z AUTO 00000KT 10SM CLR 29/16 A2993 RMK AO2 SLP129 T02940156=
202208182153 METAR KPAE 182153Z 23003KT 10SM CLR 29/14 A2993 RMK AO2 SLP132 T02890144=
202208182053 METAR KPAE 182053Z 28003KT 10SM CLR 28/15 A2993 RMK AO2 SLP132 T02780150 56007=
202208181953 METAR KPAE 181953Z 30005KT 10SM CLR 29/16 A2994 RMK AO2 SLP134 T02890156=
202208181853 METAR KPAE 181853Z 36007KT 10SM CLR 27/15 A2994 RMK AO2 SLP134 T02670150=
202208181753 METAR KPAE 181753Z 35004KT 10SM CLR 26/15 A2996 RMK AO2 SLP139 T02560150 10256 20206 54000=
202208181653 METAR KPAE 181653Z 34003KT 10SM CLR 23/15 A2996 RMK AO2 SLP141 T02330150=
202208181553 METAR KPAE 181553Z 00000KT 10SM CLR 22/13 A2995 RMK AO2 SLP137 T02220133=
202208181453 METAR KPAE 181453Z 34003KT 10SM CLR 21/13 A2995 RMK AO2 SLP139 T02110128 53005=
202208181353 METAR KPAE 181353Z 32003KT 10SM CLR 21/14 A2995 RMK AO2 SLP137 T02110144=
202208181253 METAR KPAE 181253Z AUTO 33004KT 10SM CLR 22/14 A2993 RMK AO2 SLP131 T02170144=
202208181153 METAR KPAE 181153Z AUTO 00000KT 10SM CLR 23/14 A2994 RMK AO2 SLP133 T02330144 10233 20211 58001=
202208181053 METAR KPAE 181053Z AUTO 05003KT 10SM CLR 23/13 A2994 RMK AO2 SLP133 T02280133=
202208180953 METAR KPAE 180953Z AUTO 01003KT 10SM CLR 22/12 A2995 RMK AO2 SLP136 T02170122=
202208180853 METAR KPAE 180853Z AUTO 36003KT 10SM CLR 22/13 A2994 RMK AO2 SLP135 T02170128 55000=
202208180753 METAR KPAE 180753Z AUTO 00000KT 10SM CLR 22/13 A2995 RMK AO2 SLP137 T02170133 402830156=
202208180653 METAR KPAE 180653Z AUTO 03004KT 10SM CLR 23/13 A2993 RMK AO2 SLP131 T02280128=
202208180553 METAR KPAE 180553Z AUTO 00000KT 10SM CLR 23/13 A2994 RMK AO2 SLP135 T02330128 10283 20228 50003=
202208180453 METAR KPAE 180453Z 36003KT 10SM CLR 23/13 A2994 RMK AO2 SLP137 T02330128=
202208180353 METAR KPAE 180353Z 35004KT 10SM CLR 24/12 A2994 RMK AO2 SLP135 T02440122=
202208180253 METAR KPAE 180253Z 33003KT 10SM CLR 26/13 A2993 RMK AO2 SLP131 T02610128 55002=
202208180153 METAR KPAE 180153Z 34004KT 10SM CLR 28/13 A2992 RMK AO2 SLP129 T02780133=
202208180053 METAR KPAE 180053Z 33008KT 10SM CLR 28/13 A2993 RMK AO2 SLP132 T02830133=
202208172353 METAR KPAE 172353Z 36009G16KT 10SM CLR 28/13 A2994 RMK AO2 SLP134 T02830133 10283 20222 57020=
202208172253 METAR KPAE 172253Z AUTO 35010G16KT 10SM CLR 28/13 A2996 RMK AO2 SLP141 T02780133=
202208172153 METAR KPAE 172153Z 33006G16KT 10SM CLR 27/14 A2998 RMK AO2 SLP149 T02720139=
202208172053 METAR KPAE 172053Z 35006KT 10SM CLR 27/14 A3000 RMK AO2 SLP155 T02670139 58015=
202208171953 METAR KPAE 171953Z 36007KT 10SM CLR 25/13 A3001 RMK AO2 SLP160 T02500133=
202208171853 METAR KPAE 171853Z 36009KT 10SM CLR 23/13 A3003 RMK AO2 SLP166 T02330128=
202208171753 METAR KPAE 171753Z 35007KT 10SM CLR 22/13 A3004 RMK AO2 SLP171 T02220133 10222 20156 58002=
202208171653 METAR KPAE 171653Z 35007KT 10SM CLR 20/13 A3005 RMK AO2 SLP172 T02000133=
202208171553 METAR KPAE 171553Z VRB04KT 10SM CLR 19/13 A3005 RMK AO2 SLP175 T01890133=
202208171453 METAR KPAE 171453Z 00000KT 10SM CLR 19/14 A3005 RMK AO2 SLP173 T01890139 53003=
202208171353 METAR KPAE 171353Z 00000KT 10SM CLR 17/13 A3005 RMK AO2 SLP172 T01720133=
202208171253 METAR KPAE 171253Z AUTO 01003KT 10SM CLR 16/13 A3004 RMK AO2 SLP170 T01610133=
202208171153 METAR KPAE 171153Z AUTO 01003KT 10SM CLR 17/13 A3004 RMK AO2 SLP169 T01670133 10178 20161 58001=
202208171053 METAR KPAE 171053Z AUTO 00000KT 10SM CLR 17/13 A3005 RMK AO2 SLP172 T01670128=
202208170953 METAR KPAE 170953Z AUTO 36003KT 10SM CLR 17/13 A3004 RMK AO2 SLP171 T01720133=
202208170853 METAR KPAE 170853Z AUTO 35004KT 10SM CLR 17/13 A3004 RMK AO2 SLP170 T01720128 53001=
202208170753 METAR KPAE 170753Z AUTO 01003KT 10SM CLR 17/13 A3004 RMK AO2 SLP170 T01670133 402500156=
202208170653 METAR KPAE 170653Z AUTO 36005KT 10SM CLR 17/13 A3004 RMK AO2 SLP169 T01670133=
202208170553 METAR KPAE 170553Z AUTO 36007G15KT 10SM CLR 17/13 A3004 RMK AO2 SLP171 T01670133 10244 20167 53004=
202208170453 METAR KPAE 170453Z AUTO 36006G14KT 10SM CLR 17/13 A3004 RMK AO2 SLP168 T01670128=
202208170353 METAR KPAE 170353Z AUTO 36008G15KT 10SM CLR 18/13 A3003 RMK AO2 SLP168 T01780128=
202208170253 METAR KPAE 170253Z 36006KT 10SM CLR 19/12 A3003 RMK AO2 SLP167 T01940117 56008=
202208170153 METAR KPAE 170153Z 34007KT 10SM CLR 22/11 A3003 RMK AO2 SLP168 T02170111=
202208170053 METAR KPAE 170053Z 35007KT 10SM CLR 23/11 A3004 RMK AO2 SLP171 T02330111=
202208162353 METAR KPAE 162353Z 36010G15KT 10SM CLR 24/13 A3005 RMK AO2 SLP174 T02440133 10250 20194 56011=
202208162253 METAR KPAE 162253Z 36007KT 10SM CLR 24/14 A3006 RMK AO2 SLP176 T02390139=
202208162153 METAR KPAE 162153Z 36008KT 10SM CLR 24/13 A3008 RMK AO2 SLP181 T02440133=
202208162053 METAR KPAE 162053Z 01008KT 10SM CLR 23/13 A3009 RMK AO2 SLP186 T02330133 56007=
202208161953 METAR KPAE 161953Z 27008KT 10SM CLR 24/13 A3009 RMK AO2 SLP186 T02390133=
202208161853 METAR KPAE 161853Z VRB04KT 10SM CLR 22/13 A3010 RMK AO2 SLP192 T02220133=
202208161753 METAR KPAE 161753Z VRB03KT 10SM CLR 20/13 A3011 RMK AO2 SLP193 T02000133 10200 20156 58001=
202208161653 METAR KPAE 161653Z 01005KT 10SM CLR 19/13 A3011 RMK AO2 SLP195 T01940133=
202208161553 METAR KPAE 161553Z VRB04KT 10SM CLR 18/13 A3011 RMK AO2 SLP194 T01830128=
202208161453 METAR KPAE 161453Z VRB04KT 10SM CLR 17/13 A3011 RMK AO2 SLP194 T01720128 53009=
202208161353 METAR KPAE 161353Z VRB04KT 10SM CLR 16/13 A3010 RMK AO2 SLP191 T01610128=
202208161253 METAR KPAE 161253Z AUTO 05004KT 10SM CLR 16/13 A3009 RMK AO2 SLP187 T01560128=
202208161153 METAR KPAE 161153Z AUTO 06005KT 10SM CLR 16/13 A3008 RMK AO2 SLP184 T01560128 10161 20156 53007=
202208161053 METAR KPAE 161053Z AUTO 04004KT 10SM CLR 16/13 A3008 RMK AO2 SLP182 T01610133=
202208160953 METAR KPAE 160953Z AUTO 02004KT 10SM CLR 16/13 A3006 RMK AO2 SLP176 T01610133=
202208160853 METAR KPAE 160853Z AUTO 36004KT 10SM CLR 16/13 A3006 RMK AO2 SLP176 T01560133 53003=
202208160753 METAR KPAE 160753Z AUTO 00000KT 10SM CLR 16/13 A3005 RMK AO2 SLP174 T01560133 402610150=
202208160653 METAR KPAE 160653Z AUTO 36005KT 10SM CLR 16/13 A3005 RMK AO2 SLP174 T01560133=
202208160553 METAR KPAE 160553Z AUTO 36009KT 10SM CLR 16/13 A3005 RMK AO2 SLP174 T01610133 10256 20161 51006=
202208160453 METAR KPAE 160453Z AUTO 01009G15KT 10SM CLR 17/13 A3005 RMK AO2 SLP173 T01670133=
202208160353 METAR KPAE 160353Z AUTO 01007KT 10SM CLR 18/13 A3004 RMK AO2 SLP171 T01780133=
202208160253 METAR KPAE 160253Z 35006KT 10SM CLR 19/13 A3003 RMK AO2 SLP168 T01890128 55001=
202208160153 METAR KPAE 160153Z 35006KT 10SM CLR 22/11 A3003 RMK AO2 SLP165 T02170111=
202208160053 METAR KPAE 160053Z 34007KT 10SM CLR 23/10 A3003 RMK AO2 SLP168 T02330100=
202208152353 METAR KPAE 152353Z 32006KT 10SM CLR 26/10 A3004 RMK AO2 SLP168 T02560100 10261 20211 56010=
202208152253 METAR KPAE 152253Z AUTO 28005KT 10SM CLR 26/12 A3004 RMK AO2 SLP170 T02560117=
202208152153 METAR KPAE 152153Z VRB06KT 10SM CLR 25/11 A3006 RMK AO2 SLP174 T02500111=
202208152053 METAR KPAE 152053Z 25006KT 10SM CLR 25/12 A3007 RMK AO2 SLP178 T02500117 56010=
202208151953 METAR KPAE 151953Z 28005KT 10SM CLR 23/12 A3007 RMK AO2 SLP181 T02330117=
202208151853 METAR KPAE 151853Z 27003KT 10SM CLR 22/11 A3008 RMK AO2 SLP184 T02170111=
202208151753 METAR KPAE 151753Z 28006KT 10SM CLR 21/12 A3010 RMK AO2 SLP189 T02060117 10217 20150 53001=
202208151653 METAR KPAE 151653Z 26005KT 10SM R16R/2600VP6000FT CLR 20/12 A3009 RMK AO2 SLP188 T02000117=
202208151553 METAR KPAE 151553Z 00000KT 10SM CLR 19/12 A3009 RMK AO2 SLP188 T01940117=
202208151453 METAR KPAE 151453Z 35003KT 10SM CLR 17/11 A3009 RMK AO2 SLP188 T01670111 53003=
202208151353 METAR KPAE 151353Z 00000KT 10SM CLR 16/11 A3009 RMK AO2 SLP186 T01560106=
202208151253 METAR KPAE 151253Z 00000KT 10SM CLR 16/10 A3008 RMK AO2 SLP184 T01560100=
202208151153 METAR KPAE 151153Z 02003KT 10SM CLR 16/09 A3008 RMK AO2 SLP185 T01560094 10167 20156 56005=
202208151053 METAR KPAE 151053Z 03003KT 10SM CLR 17/10 A3009 RMK AO2 SLP185 T01670100=
202208150953 METAR KPAE 150953Z 06004KT 10SM CLR 17/10 A3008 RMK AO2 SLP184 T01670100=
202208150853 METAR KPAE 150853Z 35003KT 10SM CLR 16/10 A3010 RMK AO2 SLP189 T01610100 58001=
202208150753 METAR KPAE 150753Z 01005KT 10SM CLR 17/10 A3010 RMK AO2 SLP191 T01670100 402390133=
202208150653 METAR KPAE 150653Z 35005KT 10SM CLR 16/09 A3010 RMK AO2 SLP191 T01560094=
202208150553 METAR KPAE 150553Z 02006KT 10SM CLR 16/10 A3010 RMK AO2 SLP191 T01560100 10239 20156 50002=
202208150453 METAR KPAE 150453Z 01005KT 10SM CLR 16/11 A3011 RMK AO2 SLP193 T01610111=
202208150353 METAR KPAE 150353Z 02004KT 10SM CLR 18/11 A3010 RMK AO2 SLP192 T01830111=
202208150253 METAR KPAE 150253Z 35004KT 10SM CLR 20/11 A3010 RMK AO2 SLP189 T02000111 56009=
202208150153 METAR KPAE 150153Z 35006KT 10SM CLR 23/11 A3010 RMK AO2 SLP190 T02280111=
202208150053 METAR KPAE 150053Z 36007KT 10SM CLR 23/11 A3011 RMK AO2 SLP195 T02330111=
202208142353 METAR KPAE 142353Z 35007KT 10SM CLR 23/11 A3012 RMK AO2 SLP199 T02330111 10239 20200 58010=
202208142253 METAR KPAE 142253Z 34006KT 10SM CLR 24/11 A3014 RMK AO2 SLP203 T02390111=
202208142153 METAR KPAE 142153Z 35007KT 10SM CLR 23/11 A3015 RMK AO2 SLP207 T02330111=
202208142053 METAR KPAE 142053Z 36007KT 10SM CLR 23/13 A3016 RMK AO2 SLP209 T02330128 58006=
202208141953 METAR KPAE 141953Z 30005KT 10SM CLR 22/13 A3017 RMK AO2 SLP213 T02220128=
202208141853 METAR KPAE 141853Z 25004KT 10SM CLR 21/13 A3017 RMK AO2 SLP214 T02060128=
202208141753 METAR KPAE 141753Z 28005KT 10SM CLR 20/12 A3017 RMK AO2 SLP216 T02000122 10206 20133 58006=
202208141653 METAR KPAE 141653Z VRB04KT 10SM CLR 19/12 A3018 RMK AO2 SLP219 T01890122=
202208141553 METAR KPAE 141553Z VRB03KT 10SM CLR 17/12 A3019 RMK AO2 SLP222 T01720122=
202208141453 METAR KPAE 141453Z 36006KT 10SM CLR 16/12 A3019 RMK AO2 SLP223 T01560122 53008=
202208141353 METAR KPAE 141353Z 00000KT 10SM FEW006 14/12 A3018 RMK AO2 SLP219 T01390122=
202208141253 METAR KPAE 141253Z 03004KT 10SM CLR 14/12 A3017 RMK AO2 SLP215 T01390117=
202208141153 METAR KPAE 141153Z 00000KT 10SM CLR 14/12 A3017 RMK AO2 SLP213 T01390117 10156 20139 55002=
202208141053 METAR KPAE 141053Z 02005KT 10SM CLR 15/12 A3016 RMK AO2 SLP212 T01500122=
202208140953 METAR KPAE 140953Z 36004KT 10SM CLR 14/12 A3016 RMK AO2 SLP212 T01440122=
202208140853 METAR KPAE 140853Z 36003KT 10SM CLR 15/12 A3017 RMK AO2 SLP215 T01500122 56003=
202208140753 METAR KPAE 140753Z 34004KT 10SM CLR 15/12 A3017 RMK AO2 SLP215 T01500122 402390150=
202208140653 METAR KPAE 140653Z 35004KT 10SM CLR 16/12 A3018 RMK AO2 SLP216 T01560122=
202208140553 METAR KPAE 140553Z 36005KT 10SM CLR 16/12 A3018 RMK AO2 SLP218 T01560122 10233 20156 50001=
202208140453 METAR KPAE 140453Z 35006KT 10SM CLR 16/12 A3019 RMK AO2 SLP220 T01560122=
202208140353 METAR KPAE 140353Z 35008KT 10SM CLR 17/12 A3019 RMK AO2 SLP221 T01670122=
202208140253 METAR KPAE 140253Z 35007KT 10SM CLR 18/12 A3018 RMK AO2 SLP217 T01830117 55003=
202208140153 METAR KPAE 140153Z 36005KT 10SM CLR 21/12 A3017 RMK AO2 SLP216 T02060117=
202208140053 METAR KPAE 140053Z 28007KT 10SM CLR 22/11 A3018 RMK AO2 SLP218 T02220111=
202208132353 METAR KPAE 132353Z 27009KT 10SM CLR 23/11 A3019 RMK AO2 SLP219 T02280106 10239 20200 58006=
202208132253 METAR KPAE 132253Z 26007KT 10SM CLR 23/11 A3020 RMK AO2 SLP223 T02330111=
202208132153 METAR KPAE 132153Z 17003KT 10SM SCT037 22/11 A3021 RMK AO2 SLP226 T02220111=
202208132053 METAR KPAE 132053Z 25006KT 10SM SCT035 OVC050 22/11 A3020 RMK AO2 SLP226 T02170111 51002=
202208131953 METAR KPAE 131953Z 20009KT 10SM SCT037 BKN047 21/11 A3020 RMK AO2 SLP225 T02110111=
202208131853 METAR KPAE 131853Z 17009KT 10SM FEW029 OVC050 21/11 A3020 RMK AO2 SLP226 T02060111=
202208131753 METAR KPAE 131753Z 10SM SCT050 21/11 A3020 RMK AO2 SLP223 T02060111 10206 20167 51010=
202208131739 SPECI KPAE 131739Z 18012KT 10SM SCT027 OVC050 19/11 A3019 RMK AO2 T01940111=
202208131653 METAR KPAE 131653Z 18010KT 10SM BKN028 OVC055 18/11 A3019 RMK AO2 SLP221 T01830111=
202208131600 SPECI KPAE 131600Z 16010KT 10SM FEW024 BKN035 OVC055 18/11 A3019 RMK AO2 T01780106=
202208131553 METAR KPAE 131553Z 15007KT 10SM SCT024 BKN029 OVC060 18/11 A3019 RMK AO2 SLP220 T01780106=
202208131453 METAR KPAE 131453Z 14007KT 10SM SCT024 BKN029 OVC060 17/10 A3017 RMK AO2 SLP214 T01720100 53007=
202208131353 METAR KPAE 131353Z 15007KT 10SM OVC025 17/10 A3017 RMK AO2 SLP212 T01670100=
202208131333 SPECI KPAE 131333Z AUTO 16008KT 10SM BKN021 BKN060 17/10 A3016 RMK AO2 T01670100=
202208131308 SPECI KPAE 131308Z AUTO 15009KT 10SM SCT023 BKN060 17/10 A3015 RMK AO2 T01670100=
202208131253 METAR KPAE 131253Z AUTO 15009KT 10SM BKN023 OVC060 17/10 A3015 RMK AO2 SLP206 T01670100=
202208131153 METAR KPAE 131153Z AUTO 18009KT 10SM OVC023 17/11 A3015 RMK AO2 SLP206 T01670106 10183 20161 51008=
202208131053 METAR KPAE 131053Z AUTO 18009KT 10SM BKN023 BKN028 OVC043 16/11 A3015 RMK AO2 SLP206 T01610106=
202208130953 METAR KPAE 130953Z AUTO 18009KT 10SM CLR 17/09 A3013 RMK AO2 SLP201 T01670094=
202208130853 METAR KPAE 130853Z AUTO 17011KT 10SM OVC040 17/09 A3012 RMK AO2 SLP197 T01720089 51013=
202208130753 METAR KPAE 130753Z AUTO 18012KT 10SM SCT037 BKN045 OVC055 17/09 A3011 RMK AO2 SLP194 T01720089 402610139=
202208130653 METAR KPAE 130653Z AUTO 19011KT 10SM FEW038 OVC060 18/08 A3010 RMK AO2 SLP190 T01830083=
202208130553 METAR KPAE 130553Z AUTO 19010KT 10SM OVC038 19/09 A3009 RMK AO2 SLP185 T01940094 10250 20178 51015=
202208130453 METAR KPAE 130453Z AUTO VRB04KT 10SM OVC036 19/12 A3008 RMK AO2 SLP185 T01890117=
202208130353 METAR KPAE 130353Z 01005KT 10SM SCT046 BKN055 18/12 A3006 RMK AO2 SLP177 T01780122=
202208130253 METAR KPAE 130253Z 22004KT 10SM CLR 21/12 A3004 RMK AO2 SLP171 T02060122 53010=
202208130153 METAR KPAE 130153Z VRB03KT 10SM FEW120 23/13 A3002 RMK AO2 SLP164 T02280128=
202208130053 METAR KPAE 130053Z 01008KT 10SM SCT110 23/12 A3001 RMK AO2 SLP161 T02280122=
202208122353 METAR KPAE 122353Z 29009KT 10SM FEW120 25/13 A3001 RMK AO2 SLP159 T02500133 10261 20211 55005=
202208122253 METAR KPAE 122253Z 24008KT 10SM CLR 25/13 A3001 RMK AO2 SLP159 T02500128=
202208122153 METAR KPAE 122153Z 22007KT 10SM FEW120 24/13 A3003 RMK AO2 SLP165 T02440128=
202208122053 METAR KPAE 122053Z 23010KT 10SM CLR 23/12 A3003 RMK AO2 SLP166 T02330117 56008=
202208121953 METAR KPAE 121953Z 27009KT 10SM CLR 22/12 A3003 RMK AO2 SLP168 T02220117=
202208121853 METAR KPAE 121853Z 31006KT 10SM CLR 22/12 A3004 RMK AO2 SLP171 T02170117=
202208121753 METAR KPAE 121753Z 25004KT 10SM CLR 21/12 A3005 RMK AO2 SLP174 T02110117 10217 20139 50003=
202208121653 METAR KPAE 121653Z 26005KT 10SM FEW120 20/12 A3005 RMK AO2 SLP174 T02000117=
202208121553 METAR KPAE 121553Z 00000KT 10SM FEW120 18/11 A3005 RMK AO2 SLP173 T01830111=
202208121453 METAR KPAE 121453Z 33003KT 10SM CLR 17/11 A3004 RMK AO2 SLP171 T01670106 53002=
202208121353 METAR KPAE 121353Z 00000KT 10SM CLR 16/11 A3004 RMK AO2 SLP168 T01560106=
202208121253 METAR KPAE 121253Z AUTO 01003KT 10SM CLR 15/10 A3003 RMK AO2 SLP167 T01500100=
202208121153 METAR KPAE 121153Z AUTO 02003KT 10SM CLR 15/10 A3004 RMK AO2 SLP168 T01500100 10167 20150 58001=
202208121053 METAR KPAE 121053Z AUTO 00000KT 10SM CLR 16/10 A3003 RMK AO2 SLP167 T01560100=
202208120953 METAR KPAE 120953Z AUTO 00000KT 10SM CLR 16/09 A3004 RMK AO2 SLP170 T01560094=
202208120853 METAR KPAE 120853Z AUTO 00000KT 10SM CLR 16/10 A3004 RMK AO2 SLP169 T01560100 56004=
202208120753 METAR KPAE 120753Z AUTO 35004KT 10SM CLR 16/10 A3004 RMK AO2 SLP170 T01610100 402440139=
202208120653 METAR KPAE 120653Z AUTO 35006KT 10SM CLR 16/11 A3004 RMK AO2 SLP170 T01610106=
202208120553 METAR KPAE 120553Z AUTO 01004KT 10SM CLR 16/11 A3005 RMK AO2 SLP173 T01610106 10239 20156 50003=
202208120453 METAR KPAE 120453Z 01004KT 10SM CLR 17/11 A3005 RMK AO2 SLP174 T01720106=
202208120353 METAR KPAE 120353Z 35006KT 10SM CLR 19/12 A3005 RMK AO2 SLP172 T01890122=
202208120253 METAR KPAE 120253Z 35004KT 10SM CLR 21/11 A3004 RMK AO2 SLP170 T02110111 56003=
202208120153 METAR KPAE 120153Z 36004KT 10SM CLR 23/11 A3004 RMK AO2 SLP170 T02330111=
202208120053 METAR KPAE 120053Z 36007KT 10SM CLR 24/11 A3004 RMK AO2 SLP169 T02390111=
202208112353 METAR KPAE 112353Z 36008KT 10SM CLR 24/12 A3005 RMK AO2 SLP173 T02390117 10244 20206 56014=
202208112253 METAR KPAE 112253Z 01007KT 10SM CLR 24/12 A3006 RMK AO2 SLP176 T02390122=
202208112153 METAR KPAE 112153Z 33005KT 10SM CLR 23/13 A3007 RMK AO2 SLP182 T02330128=
202208112053 METAR KPAE 112053Z 32007KT 10SM CLR 23/12 A3009 RMK AO2 SLP187 T02280122 58013=
202208111953 METAR KPAE 111953Z 27006KT 10SM CLR 22/13 A3010 RMK AO2 SLP191 T02220128=
202208111853 METAR KPAE 111853Z 26006KT 10SM CLR 22/11 A3012 RMK AO2 SLP196 T02170111=
202208111753 METAR KPAE 111753Z 29005KT 10SM CLR 21/13 A3013 RMK AO2 SLP200 T02060128 10211 20139 56007=
202208111653 METAR KPAE 111653Z 01003KT 10SM CLR 19/12 A3013 RMK AO2 SLP202 T01940122=
202208111553 METAR KPAE 111553Z 01003KT 10SM OVC037 17/13 A3014 RMK AO2 SLP206 T01720133=
202208111453 METAR KPAE 111453Z 01004KT 10SM SCT034 17/13 A3015 RMK AO2 SLP207 T01670133 51003=
202208111353 METAR KPAE 111353Z 01004KT 10SM CLR 14/13 A3015 RMK AO2 SLP207 T01440128=
202208111253 METAR KPAE 111253Z AUTO 35003KT 10SM SCT037 14/12 A3014 RMK AO2 SLP206 T01440122=
202208111153 METAR KPAE 111153Z AUTO 00000KT 10SM SCT038 15/12 A3014 RMK AO2 SLP204 T01500122 10183 20150 57005=
202208111053 METAR KPAE 111053Z AUTO 00000KT 10SM OVC039 16/12 A3015 RMK AO2 SLP207 T01560122 TSNO=
202208110953 METAR KPAE 110953Z AUTO 27005KT 10SM OVC037 16/12 A3014 RMK AO2 SLP206 T01560122=
202208110853 METAR KPAE 110853Z AUTO 28004KT 10SM OVC037 16/12 A3015 RMK AO2 SLP209 T01610122 58002=
202208110753 METAR KPAE 110753Z AUTO 16005KT 10SM SCT037 17/12 A3016 RMK AO2 SLP210 T01720122 402220150=
202208110653 METAR KPAE 110653Z AUTO 16005KT 10SM CLR 18/13 A3016 RMK AO2 SLP211 T01780128=
202208110553 METAR KPAE 110553Z AUTO 17005KT 10SM BKN046 18/12 A3016 RMK AO2 SLP211 T01830122 10217 20183 51011=
202208110453 METAR KPAE 110453Z AUTO 19007KT 10SM OVC043 19/13 A3015 RMK AO2 SLP209 T01890128=
202208110353 METAR KPAE 110353Z 16007KT 10SM OVC040 19/13 A3014 RMK AO2 SLP204 T01940128=
202208110253 METAR KPAE 110253Z 18011KT 10SM SCT041 20/13 A3013 RMK AO2 SLP200 T02000128 53010=
202208110153 METAR KPAE 110153Z 16010KT 10SM SCT110 21/14 A3012 RMK AO2 SLP196 T02060139=
202208110053 METAR KPAE 110053Z 15014KT 10SM SCT100 20/14 A3011 RMK AO2 SLP194 T02000139=
202208102353 METAR KPAE 102353Z 18015KT 10SM FEW021 OVC045 21/14 A3010 RMK AO2 SLP190 T02110139 10222 20183 53009=
202208102300 SPECI KPAE 102300Z 18011KT 10SM SCT022 OVC046 22/14 A3009 RMK AO2 T02220144=
202208102253 METAR KPAE 102253Z 18014KT 10SM BKN019 OVC031 22/14 A3008 RMK AO2 SLP184 T02220144=
202208102153 METAR KPAE 102153Z 19015KT 10SM BKN019 BKN024 OVC031 22/14 A3008 RMK AO2 SLP184 T02170139=
202208102053 METAR KPAE 102053Z 18014G18KT 10SM OVC017 21/14 A3007 RMK AO2 SLP180 T02060139 51012=
202208101953 METAR KPAE 101953Z 16010KT 10SM BKN018 OVC032 20/14 A3006 RMK AO2 SLP177 T02000139=
202208101853 METAR KPAE 101853Z 16010KT 10SM FEW013 OVC022 18/13 A3005 RMK AO2 SLP174 T01830133=
202208101843 SPECI KPAE 101843Z 17011G18KT 10SM SCT014 OVC019 18/13 A3005 RMK AO2 LTG DSNT NW T01830133=
202208101828 SPECI KPAE 101828Z 15010KT 10SM VCTS BKN014 BKN029 OVC100 18/13 A3005 RMK AO2 LTG DSNT NW T01830133=
202208101809 SPECI KPAE 101809Z 16011KT 10SM FEW030 SCT040 OVC100 19/13 A3005 RMK AO2 LTG DSNT W AND NW T01890133=
202208101753 METAR KPAE 101753Z VRB06KT 10SM VCTS SCT027 OVC040 19/13 A3004 RMK AO2 LTG DSNT W AND NW SLP169 T01890133 10194 20150 50009=
202208101736 SPECI KPAE 101736Z 18009KT 10SM VCTS FEW016 OVC026 18/13 A3004 RMK AO2 LTG DSNT SW T01830133=
202208101653 METAR KPAE 101653Z 18008KT 10SM OVC025 18/13 A3004 RMK AO2 LTG DSNT S SLP171 T01830133=
202208101627 SPECI KPAE 101627Z 19009KT 10SM SCT012 BKN024 18/13 A3003 RMK AO2 LTG DSNT S T01830133=
202208101607 SPECI KPAE 101607Z 21009KT 10SM BKN011 18/13 A3002 RMK AO2 T01780133=
202208101553 METAR KPAE 101553Z 19009KT 10SM BKN009 17/13 A3002 RMK AO2 SLP164 T01720133=
202208101453 METAR KPAE 101453Z 19010KT 10SM OVC006 16/13 A3001 RMK AO2 SLP160 T01610133 53021=
202208101412 SPECI KPAE 101412Z 18006KT 10SM BKN004 16/13 A2999 RMK AO2 T01610133=
202208101353 METAR KPAE 101353Z 16005KT 10SM CLR 16/13 A2999 RMK AO2 SLP151 T01610133=
202208101253 METAR KPAE 101253Z AUTO 17004KT 10SM CLR 16/13 A2997 RMK AO2 SLP145 T01610133=
202208101153 METAR KPAE 101153Z AUTO 00000KT 10SM CLR 15/13 A2995 RMK AO2 SLP138 T01500133 10178 20150 53006=
202208101053 METAR KPAE 101053Z AUTO 32003KT 10SM CLR 15/13 A2994 RMK AO2 SLP137 T01500133=
202208100953 METAR KPAE 100953Z AUTO 02005KT 10SM CLR 16/13 A2993 RMK AO2 SLP132 T01560133=
202208100853 METAR KPAE 100853Z AUTO 34003KT 10SM CLR 16/13 A2993 RMK AO2 SLP134 T01560133 51002=
202208100753 METAR KPAE 100753Z AUTO 00000KT 10SM CLR 16/13 A2993 RMK AO2 SLP133 T01610133 402390150=
202208100653 METAR KPAE 100653Z AUTO 01003KT 10SM CLR 17/13 A2993 RMK AO2 SLP134 T01670133=
202208100553 METAR KPAE 100553Z AUTO 03003KT 10SM CLR 18/14 A2992 RMK AO2 SLP132 T01780144 10239 20178 53006=
202208100453 METAR KPAE 100453Z AUTO 35003KT 10SM CLR 19/14 A2992 RMK AO2 SLP129 T01890139=
202208100353 METAR KPAE 100353Z AUTO 36003KT 10SM CLR 20/14 A2991 RMK AO2 SLP125 T02000139=
202208100253 METAR KPAE 100253Z AUTO 33003KT 10SM CLR 21/14 A2991 RMK AO2 SLP124 T02060144 58005=
202208100153 METAR KPAE 100153Z AUTO 00000KT 10SM CLR 23/13 A2992 RMK AO2 SLP127 T02330133=
202208100053 METAR KPAE 100053Z AUTO 26004KT 10SM CLR 22/13 A2992 RMK AO2 SLP129 T02220133=
202208092353 METAR KPAE 092353Z AUTO 29004KT 10SM CLR 22/13 A2992 RMK AO2 SLP130 T02220133 10228 20161 56011=
202208092253 METAR KPAE 092253Z AUTO 28004KT 10SM CLR 21/14 A2993 RMK AO2 SLP131 T02110139=
202208092153 METAR KPAE 092153Z AUTO VRB03KT 10SM CLR 21/14 A2993 RMK AO2 SLP134 T02060144=
202208092053 METAR KPAE 092053Z AUTO 36003KT 10SM FEW110 18/14 A2995 RMK AO2 SLP142 T01780139 58006=
202208091953 METAR KPAE 091953Z 00000KT 10SM BKN110 18/14 A2998 RMK AO2 SLP148 T01830139=
202208091853 METAR KPAE 091853Z 25003KT 10SM FEW004 17/13 A2998 RMK AO2 SLP148 T01670133=
202208091757 SPECI KPAE 091757Z 26004KT 10SM SCT004 17/14 A2997 RMK AO2 T01670139=
202208091753 METAR KPAE 091753Z 27004KT 1/2SM R16R/P6000FT HZ OVC002 17/14 A2997 RMK AO2 SLP147 60000 T01670139 10172 20150 58007=
202208091653 METAR KPAE 091653Z 25006G15KT 1/2SM R16R/P6000FT FG OVC002 16/13 A2999 RMK AO2 RAE05 SLP152 P0000 T01560133=
202208091644 SPECI KPAE 091644Z 24008KT 8SM BKN002 16/14 A2999 RMK AO2 RAE05 P0000 T01560139=
202208091553 METAR KPAE 091553Z 00000KT 10SM -RA FEW043 BKN100 BKN120 16/14 A2999 RMK AO2 RAB42 SLP152 P0000 T01610139=
202208091453 METAR KPAE 091453Z 23003KT 10SM CLR 16/13 A2999 RMK AO2 SLP154 T01560133 53003=
202208091353 METAR KPAE 091353Z AUTO 00000KT 10SM CLR 16/13 A2998 RMK AO2 SLP147 T01610133=
202208091253 METAR KPAE 091253Z AUTO 21004KT 10SM CLR 16/13 A2999 RMK AO2 SLP153 T01560133=
202208091153 METAR KPAE 091153Z AUTO 20004KT 10SM CLR 16/13 A2999 RMK AO2 SLP151 T01610133 10200 20156 50004=
202208091053 METAR KPAE 091053Z AUTO 21003KT 10SM CLR 16/13 A2999 RMK AO2 SLP152 T01610128=
202208090953 METAR KPAE 090953Z AUTO 00000KT 10SM CLR 16/13 A2998 RMK AO2 SLP148 T01610128=
202208090853 METAR KPAE 090853Z AUTO 32003KT 10SM CLR 16/13 A2997 RMK AO2 SLP145 T01610128 51009=
202208090753 METAR KPAE 090753Z AUTO 36004KT 10SM CLR 18/13 A2997 RMK AO2 SLP143 T01780128 403060156=
202208090653 METAR KPAE 090653Z AUTO 01004KT 10SM CLR 19/12 A2996 RMK AO2 SLP140 T01890122=
202208090553 METAR KPAE 090553Z AUTO 01004KT 10SM CLR 20/12 A2995 RMK AO2 SLP137 T02000122 10283 20200 52011=
202208090453 METAR KPAE 090453Z AUTO 34004KT 10SM CLR 21/12 A2994 RMK AO2 SLP134 T02110122=
202208090353 METAR KPAE 090353Z 00000KT 10SM CLR 23/13 A2992 RMK AO2 SLP130 T02280133=
202208090253 METAR KPAE 090253Z 36005KT 10SM CLR 26/13 A2991 RMK AO2 SLP125 T02610128 55005=
202208090153 METAR KPAE 090153Z 34005KT 10SM CLR 27/12 A2991 RMK AO2 SLP124 T02720122=
202208090053 METAR KPAE 090053Z 35009KT 10SM CLR 28/13 A2992 RMK AO2 SLP127 T02780133=
202208082353 METAR KPAE 082353Z 34008KT 10SM CLR 28/13 A2993 RMK AO2 SLP131 T02780128 10306 20244 58015=
202208082253 METAR KPAE 082253Z 34007KT 10SM CLR 29/13 A2995 RMK AO2 SLP137 T02940128=
202208082153 METAR KPAE 082153Z 34007KT 10SM CLR 29/13 A2996 RMK AO2 SLP142 T02940128=
202208082053 METAR KPAE 082053Z VRB05KT 10SM CLR 29/12 A2998 RMK AO2 SLP146 T02890122 56009=
202208081953 METAR KPAE 081953Z 31006KT 10SM CLR 27/13 A2999 RMK AO2 SLP150 T02720133=
202208081853 METAR KPAE 081853Z 36007KT 10SM CLR 26/13 A2999 RMK AO2 SLP151 T02610133=
202208081753 METAR KPAE 081753Z VRB05KT 10SM CLR 24/13 A3000 RMK AO2 SLP156 T02440133 10244 20156 58001=
202208081653 METAR KPAE 081653Z 31004KT 10SM CLR 22/14 A3001 RMK AO2 SLP158 T02220139=
202208081553 METAR KPAE 081553Z 36004KT 10SM CLR 22/13 A3001 RMK AO2 SLP158 T02170133=
202208081453 METAR KPAE 081453Z 00000KT 10SM CLR 21/13 A3001 RMK AO2 SLP157 T02060128 53006=
202208081353 METAR KPAE 081353Z 01004KT 10SM CLR 18/13 A3000 RMK AO2 SLP153 T01830128=
202208081253 METAR KPAE 081253Z AUTO 00000KT 10SM CLR 17/12 A3000 RMK AO2 SLP154 T01720122=
202208081153 METAR KPAE 081153Z AUTO 00000KT 10SM CLR 17/12 A2999 RMK AO2 SLP152 T01670117 10217 20167 58001=
202208081053 METAR KPAE 081053Z AUTO 00000KT 10SM CLR 17/12 A2999 RMK AO2 SLP153 T01720122=
202208080953 METAR KPAE 080953Z AUTO 00000KT 10SM CLR 18/12 A2999 RMK AO2 SLP152 T01830117=
202208080853 METAR KPAE 080853Z AUTO 36003KT 10SM CLR 19/11 A2999 RMK AO2 SLP151 T01890111 50001=
202208080753 METAR KPAE 080753Z AUTO 00000KT 10SM CLR 19/11 A2999 RMK AO2 SLP152 T01940111 402830150=
202208080653 METAR KPAE 080653Z AUTO 36004KT 10SM CLR 21/11 A2999 RMK AO2 SLP151 T02110111=
202208080553 METAR KPAE 080553Z AUTO 35005KT 10SM CLR 21/12 A2999 RMK AO2 SLP152 T02060117 10283 20206 50002=
202208080453 METAR KPAE 080453Z AUTO 34004KT 10SM CLR 21/12 A2999 RMK AO2 SLP153 T02060122=
202208080353 METAR KPAE 080353Z 35004KT 10SM CLR 23/13 A2998 RMK AO2 SLP150 T02280128=
202208080253 METAR KPAE 080253Z 34004KT 10SM CLR 25/13 A2998 RMK AO2 SLP150 T02500128 55009=
202208080153 METAR KPAE 080153Z 34006KT 10SM CLR 27/13 A2998 RMK AO2 SLP149 T02670128=
202208080053 METAR KPAE 080053Z 36008KT 10SM CLR 27/12 A2999 RMK AO2 SLP153 T02720122=
202208072353 METAR KPAE 072353Z 34005KT 10SM CLR 28/12 A3001 RMK AO2 SLP159 T02780122 10283 20228 56015=
202208072253 METAR KPAE 072253Z 35009KT 10SM CLR 27/13 A3002 RMK AO2 SLP162 T02720133=
202208072153 METAR KPAE 072153Z 33007G16KT 10SM CLR 27/13 A3004 RMK AO2 SLP169 T02720133=
202208072053 METAR KPAE 072053Z 01007KT 10SM CLR 27/13 A3006 RMK AO2 SLP174 T02720128 56010=
202208071953 METAR KPAE 071953Z 36007KT 10SM CLR 26/13 A3007 RMK AO2 SLP178 T02610128=
202208071853 METAR KPAE 071853Z VRB06KT 10SM CLR 25/12 A3007 RMK AO2 SLP181 T02500122=
202208071753 METAR KPAE 071753Z 36006KT 10SM CLR 23/13 A3009 RMK AO2 SLP185 T02280128 10228 20150 50001=
202208071653 METAR KPAE 071653Z 35007KT 10SM CLR 21/12 A3009 RMK AO2 SLP186 T02110117=
202208071553 METAR KPAE 071553Z 02004KT 10SM CLR 20/12 A3009 RMK AO2 SLP186 T02000122=
202208071453 METAR KPAE 071453Z 36004KT 10SM CLR 19/12 A3009 RMK AO2 SLP185 T01940122 53008=
202208071353 METAR KPAE 071353Z 02004KT 10SM CLR 17/12 A3007 RMK AO2 SLP180 T01720117=
202208071253 METAR KPAE 071253Z AUTO 03003KT 10SM CLR 16/11 A3006 RMK AO2 SLP176 T01610106=
202208071153 METAR KPAE 071153Z AUTO 00000KT 10SM CLR 16/11 A3006 RMK AO2 SLP176 T01610106 10200 20161 57002=
202208071053 METAR KPAE 071053Z AUTO 01003KT 10SM CLR 17/09 A3006 RMK AO2 SLP176 T01670094=
202208070953 METAR KPAE 070953Z AUTO 00000KT 10SM CLR 17/09 A3006 RMK AO2 SLP178 T01720094=
202208070853 METAR KPAE 070853Z AUTO 02003KT 10SM CLR 18/10 A3006 RMK AO2 SLP178 T01780100 50002=
202208070753 METAR KPAE 070753Z AUTO 00000KT 10SM CLR 18/09 A3007 RMK AO2 SLP179 T01780094 402560133=
202208070653 METAR KPAE 070653Z AUTO 36005KT 10SM CLR 19/10 A3006 RMK AO2 SLP177 T01940100=
202208070553 METAR KPAE 070553Z AUTO 35003KT 10SM CLR 19/10 A3006 RMK AO2 SLP176 T01940100 10256 20189 50003=
202208062153 METAR KPAE 062153Z 35007KT 10SM CLR 24/11 A3009 RMK AO2 SLP186 T02440111=
202208062053 METAR KPAE 062053Z VRB04KT 10SM CLR 24/12 A3009 RMK AO2 SLP187 T02390117 58009=
202208061953 METAR KPAE 061953Z 36007KT 10SM CLR 23/12 A3010 RMK AO2 SLP192 T02280122=
202208061853 METAR KPAE 061853Z 34006KT 10SM CLR 22/12 A3011 RMK AO2 SLP194 T02170117=
202208061753 METAR KPAE 061753Z 35007KT 10SM CLR 20/12 A3012 RMK AO2 SLP197 T02000117 10200 20139 53008=
202208061653 METAR KPAE 061653Z 01005KT 10SM CLR 19/11 A3011 RMK AO2 SLP194 T01890111=
202208061553 METAR KPAE 061553Z 01004KT 10SM CLR 18/12 A3010 RMK AO2 SLP192 T01830117=
202208061453 METAR KPAE 061453Z 36003KT 10SM CLR 17/11 A3010 RMK AO2 SLP189 T01720111 53009=
202208061353 METAR KPAE 061353Z AUTO 02004KT 10SM CLR 16/11 A3009 RMK AO2 SLP186 T01560106=
202208061253 METAR KPAE 061253Z AUTO 01004KT 10SM CLR 14/10 A3008 RMK AO2 SLP182 T01440100=
202208061153 METAR KPAE 061153Z AUTO 02004KT 10SM CLR 15/10 A3007 RMK AO2 SLP180 T01500100 10161 20133 53002=
202208061053 METAR KPAE 061053Z AUTO 01004KT 10SM CLR 14/09 A3007 RMK AO2 SLP179 T01390094=
202208060953 METAR KPAE 060953Z AUTO 02003KT 10SM CLR 15/09 A3006 RMK AO2 SLP178 T01500094=
202208060853 METAR KPAE 060853Z AUTO 35005KT 10SM CLR 16/09 A3006 RMK AO2 SLP178 T01610094 53003=
202208060753 METAR KPAE 060753Z AUTO 36005KT 10SM CLR 16/09 A3006 RMK AO2 SLP177 T01560094 402220117=
202208060653 METAR KPAE 060653Z AUTO 36006KT 10SM CLR 16/09 A3006 RMK AO2 SLP178 T01610094=
202208060553 METAR KPAE 060553Z AUTO 35009G16KT 10SM CLR 16/10 A3005 RMK AO2 SLP176 T01610100 10222 20161 51011=
202208060453 METAR KPAE 060453Z AUTO 34005KT 10SM CLR 17/10 A3005 RMK AO2 SLP174 T01720100=
202208060353 METAR KPAE 060353Z 34003KT 10SM CLR 18/11 A3003 RMK AO2 SLP168 T01830106=
202208060253 METAR KPAE 060253Z 33004KT 10SM CLR 20/11 A3002 RMK AO2 SLP165 T02000106 56007=
202208060153 METAR KPAE 060153Z 33005KT 10SM CLR 21/11 A3002 RMK AO2 SLP165 T02110111=
202208060053 METAR KPAE 060053Z 34006KT 10SM CLR 22/12 A3003 RMK AO2 SLP168 T02220117=
202208052353 METAR KPAE 052353Z 33007KT 10SM CLR 22/12 A3004 RMK AO2 SLP172 T02170117 10222 20172 58009=
202208052253 METAR KPAE 052253Z 34009G15KT 310V020 10SM CLR 22/12 A3005 RMK AO2 SLP176 T02170117=
202208052153 METAR KPAE 052153Z 32009G16KT 10SM CLR 21/12 A3006 RMK AO2 SLP179 T02060117=
202208052053 METAR KPAE 052053Z 33009KT 10SM CLR 20/11 A3007 RMK AO2 SLP182 T02000111 58009=
202208051953 METAR KPAE 051953Z 32010G17KT 10SM CLR 19/11 A3008 RMK AO2 SLP186 T01890111=
202208051853 METAR KPAE 051853Z 33009G16KT 10SM CLR 18/11 A3009 RMK AO2 SLP189 T01830106=
202208051753 METAR KPAE 051753Z 34007KT 310V020 10SM CLR 17/11 A3010 RMK AO2 SLP190 T01720106 10178 20117 54000=
202208051653 METAR KPAE 051653Z VRB05KT 10SM SCT004 16/11 A3010 RMK AO2 SLP190 T01560111=
202208051553 METAR KPAE 051553Z 36005KT 10SM SCT004 14/11 A3010 RMK AO2 SLP191 T01390111=
202208051546 SPECI KPAE 051546Z 36005KT 10SM SCT004 14/11 A3010 RMK AO2 T01390106=
202208051453 METAR KPAE 051453Z 35005KT 10SM OVC003 13/11 A3010 RMK AO2 SLP190 T01280111 53004=
202208051353 METAR KPAE 051353Z 34006KT 10SM OVC004 12/11 A3009 RMK AO2 SLP189 T01220106=
202208051337 SPECI KPAE 051337Z 35006KT 10SM OVC004 12/11 A3008 RMK AO2 T01220106=
202208051325 SPECI KPAE 051325Z 34005KT 10SM BKN005 12/11 A3009 RMK AO2 T01220106=
202208051306 SPECI KPAE 051306Z 35006KT 10SM SCT005 12/10 A3008 RMK AO2 T01170100=
202208051300 SPECI KPAE 051300Z 35005KT 10SM BKN004 12/10 A3008 RMK AO2 T01170100=
202208051253 METAR KPAE 051253Z 35007KT 10SM SCT004 12/10 A3008 RMK AO2 SLP185 T01170100=
202208051153 METAR KPAE 051153Z VRB05KT 10SM SCT006 12/10 A3009 RMK AO2 SLP187 70015 T01170100 10139 20117 56002=
202208051150 SPECI KPAE 051150Z 36005KT 10SM FEW006 12/10 A3009 RMK AO2=
202208051053 METAR KPAE 051053Z 35005KT 10SM CLR 12/10 A3009 RMK AO2 SLP188 T01220100=
202208050953 METAR KPAE 050953Z 10SM CLR 12/10 A3009 RMK AO2 SLP190 T01220100=
202208050853 METAR KPAE 050853Z 36005KT 10SM CLR 13/09 A3009 RMK AO2 SLP188 T01280094 58001=
202208050753 METAR KPAE 050753Z 35008KT 10SM CLR 13/09 A3010 RMK AO2 SLP192 T01330094 401830133=
202208050653 METAR KPAE 050653Z 36007KT 10SM CLR 14/09 A3010 RMK AO2 SLP191 T01390094=
202208050553 METAR KPAE 050553Z 02005KT 10SM CLR 14/10 A3009 RMK AO2 SLP191 T01390100 10183 20139 53006=
202208050453 METAR KPAE 050453Z 01004KT 10SM CLR 15/09 A3009 RMK AO2 SLP188 T01500094=
202208050353 METAR KPAE 050353Z 34007KT 10SM CLR 16/11 A3008 RMK AO2 SLP184 T01560106=
202208050253 METAR KPAE 050253Z 34004KT 10SM BKN065 18/09 A3008 RMK AO2 SLP183 T01780094 56006=
202208050153 METAR KPAE 050153Z 01003KT 10SM OVC050 18/09 A3008 RMK AO2 SLP184 T01780089=
202208050053 METAR KPAE 050053Z 01003KT 10SM OVC050 18/09 A3009 RMK AO2 SLP187 T01830089=
202208042353 METAR KPAE 042353Z 00000KT 10SM OVC050 18/09 A3010 RMK AO2 SLP190 T01830089 10183 20144 58000=
202208042253 METAR KPAE 042253Z 04004KT 10SM OVC055 17/09 A3010 RMK AO2 SLP191 T01720094=
202208042153 METAR KPAE 042153Z VRB03KT 10SM OVC046 17/09 A3010 RMK AO2 SLP193 T01670094=
202208042053 METAR KPAE 042053Z 06006KT 10SM OVC045 17/09 A3010 RMK AO2 SLP190 T01670094 51012=
202208041953 METAR KPAE 041953Z 35007KT 10SM FEW017 OVC046 17/11 A3009 RMK AO2 SLP187 T01670111=
202208041853 METAR KPAE 041853Z VRB04KT 10SM FEW009 OVC041 16/11 A3007 RMK AO2 SLP182 T01560111=
202208041753 METAR KPAE 041753Z 00000KT 3SM BR FEW002 OVC031 14/12 A3006 RMK AO2 RAE05 SLP178 VIS S 2 P0001 60015 T01440117 10150 20133 53020=
202208041732 SPECI KPAE 041732Z VRB03KT 3SM HZ FEW002 OVC031 14/12 A3005 RMK AO2 RAE05 VIS S 2 P0001 T01440117=
202208041657 SPECI KPAE 041657Z 35005KT 2SM -RA BR SCT002 BKN008 OVC023 14/12 A3003 RMK AO2 P0001 T01390122=
202208041653 METAR KPAE 041653Z 35006KT 1 1/4SM -RA BR BKN002 OVC008 14/12 A3003 RMK AO2 SLP169 P0005 T01390117=
202208041626 SPECI KPAE 041626Z 00000KT 1 1/4SM -RA BR BKN002 OVC008 13/12 A3002 RMK AO2 P0005 T01330117=
202208041614 SPECI KPAE 041614Z VRB03KT 1 1/4SM -RA BR SCT003 BKN016 OVC022 13/12 A3002 RMK AO2 P0004 T01330117=
202208041600 SPECI KPAE 041600Z 01006KT 1 1/2SM R16R/4500VP6000FT -RA BR BKN003 OVC016 13/12 A3001 RMK AO2 P0001 T01330117=
202208041553 METAR KPAE 041553Z 03005KT 3SM R16R/5500VP6000FT RA BR BKN006 OVC014 13/12 A3001 RMK AO2 RAB13 SLP161 P0006 T01330117=
202208041456 SPECI KPAE 041456Z 35004KT 3SM BR BKN006 OVC014 13/12 A3000 RMK AO2 T01330117=
202208041453 METAR KPAE 041453Z 36007KT 2SM BR BKN004 OVC012 13/12 A3000 RMK AO2 RAE39 SLP157 P0002 60003 T01330117 51019=
202208041353 METAR KPAE 041353Z 34005KT 2SM -RA BR BKN004 OVC010 13/12 A2998 RMK AO2 RAB39 SLP151 P0001 T01330117=
202208041349 SPECI KPAE 041349Z 34005KT 2SM -RA BR BKN004 OVC010 13/12 A2998 RMK AO2 RAB39 P0001=
202208041346 SPECI KPAE 041346Z 33006KT 1 1/2SM -RA BR BKN004 OVC010 14/12 A2998 RMK AO2 RAB39 CIG 003V008 P0001 T01390117=
202208041339 SPECI KPAE 041339Z AUTO 32004KT 2 1/2SM -RA BR FEW004 OVC010 14/12 A2997 RMK AO2 RAB39 CIG 007V011 P0000 T01440122=
202208041253 METAR KPAE 041253Z AUTO 19010KT 10SM OVC013 15/11 A2996 RMK AO2 SLP145 T01500111=
202208041153 METAR KPAE 041153Z AUTO 19011KT 10SM OVC013 15/11 A2994 RMK AO2 SLP137 60001 70001 T01500111 10167 20150 51005=
202208041123 SPECI KPAE 041123Z AUTO 19014KT 10SM OVC014 16/11 A2994 RMK AO2 T01560111=
202208041053 METAR KPAE 041053Z AUTO 19010KT 10SM OVC015 16/11 A2994 RMK AO2 SLP136 T01560111=
202208040953 METAR KPAE 040953Z AUTO 19008KT 10SM OVC018 15/11 A2995 RMK AO2 RAE00B35E48 SLP139 P0000 T01500111=
202208040853 METAR KPAE 040853Z AUTO 16013KT 10SM -RA OVC019 15/11 A2993 RMK AO2 RAB29 SLP132 P0001 60001 T01500106 58003=
202208040753 METAR KPAE 040753Z AUTO 16008KT 10SM OVC019 16/11 A2995 RMK AO2 SLP140 T01610106 402220128=
202208040653 METAR KPAE 040653Z AUTO 15007KT 10SM OVC026 16/11 A2994 RMK AO2 SLP138 T01610106=
202208040553 METAR KPAE 040553Z AUTO 00000KT 10SM OVC023 17/11 A2994 RMK AO2 SLP136 T01670111 10222 20156 53013=
202208040453 METAR KPAE 040453Z AUTO 01005KT 10SM BKN025 OVC030 16/12 A2993 RMK AO2 SLP133 T01610117=
202208040427 SPECI KPAE 040427Z AUTO 02006KT 10SM BKN029 16/12 A2991 RMK AO2 T01560117=
202208040353 METAR KPAE 040353Z AUTO 01006KT 10SM FEW030 16/12 A2990 RMK AO2 SLP125 T01610117=
202208040253 METAR KPAE 040253Z 02008KT 10SM CLR 18/12 A2990 RMK AO2 SLP123 T01780122 56006=
202208040153 METAR KPAE 040153Z 35008KT 10SM CLR 19/12 A2990 RMK AO2 SLP124 T01890122=
202208040053 METAR KPAE 040053Z VRB06KT 10SM CLR 22/11 A2991 RMK AO2 SLP125 T02170111=
202208032353 METAR KPAE 032353Z 28008KT 10SM CLR 21/11 A2992 RMK AO2 SLP129 T02110111 10217 20167 58011=
202208032253 METAR KPAE 032253Z 25008KT 10SM CLR 21/11 A2993 RMK AO2 SLP133 T02110106=
202208032153 METAR KPAE 032153Z 25010KT 10SM CLR 21/11 A2994 RMK AO2 SLP137 T02060106=
202208032053 METAR KPAE 032053Z 24009G16KT 10SM CLR 20/10 A2995 RMK AO2 SLP141 T02000100 58007=
202208031953 METAR KPAE 031953Z 23009KT 10SM CLR 18/10 A2996 RMK AO2 SLP143 T01830100=
202208031853 METAR KPAE 031853Z 23012KT 10SM CLR 17/11 A2997 RMK AO2 SLP147 T01720106=
202208031753 METAR KPAE 031753Z 23011KT 10SM VCFG CLR 17/11 A2997 RMK AO2 SLP148 T01670106 10172 20128 58005=
202208031653 METAR KPAE 031653Z 24009KT 10SM VCFG FEW012 16/11 A2998 RMK AO2 SLP152 T01610111=
202208031648 SPECI KPAE 031648Z 27007KT 10SM VCFG SCT011 16/11 A2999 RMK AO2=
202208031553 METAR KPAE 031553Z 25007KT 10SM VCFG OVC010 14/11 A2999 RMK AO2 CIG 006V015 SLP153 T01390111=
202208031500 SPECI KPAE 031500Z 19005KT 10SM VCFG SCT008 14/11 A2998 RMK AO2 T01390111=
202208031453 METAR KPAE 031453Z 18005KT 10SM VCFG BKN006 14/11 A2999 RMK AO2 SLP153 T01440111 58000=
202208031431 SPECI KPAE 031431Z 18003KT 10SM VCFG BKN006 14/12 A2999 RMK AO2 T01390117=
202208031407 SPECI KPAE 031407Z 16003KT 10SM VCFG SCT006 14/12 A2999 RMK AO2 T01390117=
202208031353 METAR KPAE 031353Z 00000KT 8SM VCFG SCT002 BKN006 13/12 A2999 RMK AO2 SLP154 T01330117=
202208031349 SPECI KPAE 031349Z 00000KT 7SM VCFG SCT002 BKN006 13/12 A2999 RMK AO2=
202208031308 SPECI KPAE 031308Z AUTO 01003KT 8SM SCT003 13/11 A2999 RMK AO2 T01280111=
202208031253 METAR KPAE 031253Z AUTO 01003KT 7SM BKN003 13/11 A2999 RMK AO2 SLP152 T01330111=
202208031153 METAR KPAE 031153Z AUTO 36005KT 9SM OVC002 13/12 A3000 RMK AO2 SLP155 T01330117 10150 20133 55001=
202208031141 SPECI KPAE 031141Z AUTO 02005KT 8SM BKN002 13/12 A3000 RMK AO2 T01330117=
202208031121 SPECI KPAE 031121Z AUTO 36004KT 10SM FEW002 13/12 A3000 RMK AO2 T01330117=
202208031053 METAR KPAE 031053Z AUTO 01003KT 10SM CLR 13/12 A2999 RMK AO2 SLP155 T01330117=
202208030953 METAR KPAE 030953Z AUTO 00000KT 10SM CLR 14/12 A3000 RMK AO2 SLP157 T01390117=
202208030853 METAR KPAE 030853Z AUTO 00000KT 10SM CLR 14/12 A3000 RMK AO2 SLP157 T01440117 58003=
202208030753 METAR KPAE 030753Z AUTO 01004KT 10SM CLR 14/12 A3001 RMK AO2 SLP159 T01440117 402220144=
202208030653 METAR KPAE 030653Z AUTO 01005KT 10SM CLR 14/12 A3000 RMK AO2 SLP157 T01440117=
202208030553 METAR KPAE 030553Z AUTO 36006KT 10SM CLR 16/12 A3001 RMK AO2 SLP159 T01560117 10222 20156 58001=
202208030453 METAR KPAE 030453Z AUTO 00000KT 10SM CLR 17/12 A3001 RMK AO2 SLP161 T01670122=
202208030353 METAR KPAE 030353Z 35003KT 10SM CLR 18/13 A3001 RMK AO2 SLP160 T01780128=
202208030253 METAR KPAE 030253Z 29005KT 10SM CLR 20/13 A3001 RMK AO2 SLP159 T02000128 56013=
202208030153 METAR KPAE 030153Z 26005KT 10SM CLR 21/13 A3002 RMK AO2 SLP162 T02110128=
202208030053 METAR KPAE 030053Z 25005KT 10SM CLR 22/12 A3003 RMK AO2 SLP168 T02170122=
202208022353 METAR KPAE 022353Z 23007KT 10SM CLR 22/13 A3005 RMK AO2 SLP172 T02170128 10222 20161 58009=
202208022253 METAR KPAE 022253Z 23008KT 10SM CLR 21/13 A3006 RMK AO2 SLP175 T02110128=
202208022153 METAR KPAE 022153Z 26010KT 10SM CLR 20/13 A3007 RMK AO2 SLP179 T02000128=
202208022103 SPECI KPAE 022103Z 24007KT 10SM SCT025 19/12 A3007 RMK AO2 T01940117=
202208022053 METAR KPAE 022053Z 26008KT 10SM BKN025 19/12 A3007 RMK AO2 SLP181 T01890117 58005=
202208021953 METAR KPAE 021953Z 24009KT 10SM OVC016 18/12 A3008 RMK AO2 SLP186 T01830117=
202208021853 METAR KPAE 021853Z 25007KT 10SM OVC021 17/12 A3009 RMK AO2 SLP188 T01720117=
202208021753 METAR KPAE 021753Z 19007KT 10SM OVC008 17/12 A3009 RMK AO2 SLP187 T01670117 10167 20150 51006=
202208021729 SPECI KPAE 021729Z 19009KT 10SM OVC008 17/12 A3008 RMK AO2 T01670117=
202208021700 SPECI KPAE 021700Z 16008KT 10SM OVC011 16/12 A3008 RMK AO2 T01610117=
202208021653 METAR KPAE 021653Z 16009KT 10SM OVC008 16/12 A3008 RMK AO2 SLP184 T01610117=
202208021553 METAR KPAE 021553Z 16007KT 10SM BKN009 OVC014 16/12 A3008 RMK AO2 CIG 008V012 SLP183 T01560117=
202208021453 METAR KPAE 021453Z 17009KT 5SM HZ OVC009 15/12 A3007 RMK AO2 CIG 007V013 SLP179 T01500122 53013=
202208021353 METAR KPAE 021353Z 19009KT 8SM OVC008 16/13 A3005 RMK AO2 SLP174 T01560128=
202208021253 METAR KPAE 021253Z AUTO 19007KT 10SM OVC009 16/13 A3004 RMK AO2 SLP170 T01610133=
202208021230 SPECI KPAE 021230Z AUTO 17010KT 10SM OVC008 16/13 A3004 RMK AO2 CIG 008V012 T01610133=
202208021153 METAR KPAE 021153Z AUTO 16007KT 10SM OVC013 17/13 A3003 RMK AO2 SLP166 T01670133 10172 20150 51005=
202208021150 SPECI KPAE 021150Z AUTO 16008KT 10SM BKN011 OVC015 17/13 A3003 RMK AO2=
202208021103 SPECI KPAE 021103Z AUTO 26003KT 10SM OVC009 16/14 A3003 RMK AO2 T01610139=
202208021053 METAR KPAE 021053Z AUTO 24005KT 10SM OVC010 16/13 A3003 RMK AO2 CIG 008V013 SLP165 T01610133=
202208021023 SPECI KPAE 021023Z AUTO 11004KT 10SM OVC014 17/13 A3002 RMK AO2 T01720133=
202208020953 METAR KPAE 020953Z AUTO 11005KT 10SM OVC016 17/13 A3002 RMK AO2 SLP161 T01720133=
202208020948 SPECI KPAE 020948Z AUTO 11004KT 10SM OVC016 17/13 A3002 RMK AO2=
202208020926 SPECI KPAE 020926Z AUTO 00000KT 10SM OVC014 17/13 A3001 RMK AO2 T01670133=
202208020853 METAR KPAE 020853Z AUTO 00000KT 10SM OVC017 16/13 A3001 RMK AO2 SLP160 T01610133 51014=
202208020808 SPECI KPAE 020808Z AUTO 01005KT 10SM BKN020 15/13 A3001 RMK AO2 T01500128=
202208020753 METAR KPAE 020753Z AUTO 36007KT 10SM FEW022 15/13 A3001 RMK AO2 SLP160 T01500128 402670150=
202208020653 METAR KPAE 020653Z AUTO 36005KT 10SM CLR 16/13 A2999 RMK AO2 SLP153 T01560133=
202208020553 METAR KPAE 020553Z AUTO 36005KT 10SM CLR 17/14 A2997 RMK AO2 SLP147 T01720139 10267 20172 53012=
202208020453 METAR KPAE 020453Z AUTO 02004KT 10SM CLR 19/14 A2996 RMK AO2 SLP141 T01890139=
202208020353 METAR KPAE 020353Z 36005KT 10SM CLR 19/14 A2994 RMK AO2 SLP137 T01940139=
202208020253 METAR KPAE 020253Z 35004KT 10SM CLR 23/15 A2994 RMK AO2 SLP134 T02330150 56003=
202208020153 METAR KPAE 020153Z 29006KT 10SM CLR 25/14 A2994 RMK AO2 SLP135 T02500144=
202208020053 METAR KPAE 020053Z 25007KT 10SM CLR 26/14 A2994 RMK AO2 SLP134 T02610144=
202208012353 METAR KPAE 012353Z 27006KT 10SM CLR 27/14 A2995 RMK AO2 SLP137 T02670144 10267 20200 58004=
202208012253 METAR KPAE 012253Z 25007KT 10SM CLR 24/14 A2995 RMK AO2 SLP140 T02440144=
202208012153 METAR KPAE 012153Z 25010KT 10SM CLR 24/14 A2996 RMK AO2 SLP142 T02440144=
202208012053 METAR KPAE 012053Z 25008KT 10SM CLR 25/14 A2996 RMK AO2 SLP140 T02500139 58003=
202208011953 METAR KPAE 011953Z 23007KT 10SM CLR 23/14 A2997 RMK AO2 SLP144 T02280139=
202208011853 METAR KPAE 011853Z 27007KT 10SM CLR 21/13 A2998 RMK AO2 SLP147 T02060133=
202208011753 METAR KPAE 011753Z 26007KT 10SM CLR 22/14 A2997 RMK AO2 RAE1654 SLP145 P0000 60000 T02170139 10233 20161 50004=
202208011653 METAR KPAE 011653Z VRB03KT 10SM -RA FEW030 FEW080 SCT110 20/14 A2997 RMK AO2 RAB45 SLP145 P0000 T02000139=
202208011553 METAR KPAE 011553Z 28007KT 10SM CLR 19/14 A2997 RMK AO2 SLP145 T01890144=
202208011453 METAR KPAE 011453Z 15008KT 10SM CLR 20/13 A2996 RMK AO2 SLP140 T02000128 50009=
202208011353 METAR KPAE 011353Z 13003KT 10SM CLR 19/13 A2996 RMK AO2 SLP140 T01890128=
202208011253 METAR KPAE 011253Z AUTO 00000KT 10SM CLR 19/13 A2994 RMK AO2 SLP135 T01940128=
202208011153 METAR KPAE 011153Z AUTO VRB03KT 10SM CLR 16/13 A2993 RMK AO2 SLP130 T01610128 10217 20150 53006=
202208011053 METAR KPAE 011053Z AUTO 35004KT 10SM CLR 17/13 A2993 RMK AO2 SLP130 T01670133=
202208010953 METAR KPAE 010953Z AUTO 36004KT 10SM CLR 18/14 A2991 RMK AO2 SLP124 T01780139=
202208010853 METAR KPAE 010853Z AUTO 02003KT 10SM CLR 21/12 A2991 RMK AO2 SLP124 T02110117 53001=
202208010753 METAR KPAE 010753Z AUTO 03004KT 10SM CLR 21/12 A2990 RMK AO2 SLP122 T02110122 403280178=
202208010653 METAR KPAE 010653Z AUTO 03004KT 10SM CLR 21/13 A2991 RMK AO2 SLP123 T02110133=
202208010553 METAR KPAE 010553Z AUTO 03005KT 10SM CLR 21/14 A2991 RMK AO2 SLP123 T02110139 10322 20206 51006=
202208010453 METAR KPAE 010453Z AUTO 01005KT 10SM CLR 21/13 A2990 RMK AO2 SLP122 T02060133=
202208010353 METAR KPAE 010353Z AUTO 35005KT 10SM CLR 22/13 A2990 RMK AO2 SLP121 T02170133=
202208010253 METAR KPAE 010253Z 35008KT 10SM CLR 24/13 A2989 RMK AO2 SLP117 T02440133 55006=
202208010153 METAR KPAE 010153Z 35007KT 10SM CLR 27/14 A2989 RMK AO2 SLP116 T02720144=
202208010053 METAR KPAE 010053Z 36006KT 10SM CLR 31/13 A2990 RMK AO2 SLP119 T03110133=

# No short TAF reports from KPAE in databse.

###################################
#  large TAF from KPAE
###################################
202208312340 TAF KPAE 312340Z 0100/0124 26008KT P6SM FEW150 FM011000 20003KT
                       P6SM SCT010 FM011200 VRB04KT P6SM BKN010
                       TEMPO 0112/0116 3SM BR OVC005 FM011700 20003KT
                       P6SM SCT010 FM011900 23005KT P6SM SKC=
202208311737 TAF KPAE 311737Z 3118/0118 22005KT P6SM SCT180 FM311900 21005KT
                       P6SM SCT150 FM011200 20003KT P6SM SCT010=
202208311121 TAF KPAE 311121Z 3112/0112 10004KT P6SM SCT150 FM311800 24006KT
                       P6SM SCT150=
202208310528 TAF KPAE 310528Z 3106/0106 00000KT P6SM FEW200 FM311800 24006KT
                       P6SM SCT200=
202208302320 TAF KPAE 302320Z 3100/3124 36007KT P6SM SKC FM310200 35006KT P6SM
                       SKC FM311300 VRB02KT P6SM FEW250=
202208301723 TAF KPAE 301723Z 3018/3118 36007KT P6SM SKC FM310200 35005KT P6SM
                       FEW250 FM311000 VRB02KT P6SM FEW250=
202208301133 TAF KPAE 301133Z 3012/3112 36003KT P6SM SCT250 FM301900 34008G14KT
                       P6SM FEW250 FM310200 35005KT P6SM FEW250=
202208300529 TAF KPAE 300529Z 3006/3106 02004KT P6SM FEW250 FM301900 34008G14KT
                       P6SM FEW250 FM310200 35005KT P6SM FEW250=
202208292320 TAF KPAE 292320Z 3000/3024 32007KT P6SM SKC FM300300 35005KT P6SM
                       SKC FM301100 36002KT P6SM FEW250=
202208291722 TAF KPAE 291722Z 2918/3018 35004KT P6SM SKC FM292000 32007KT P6SM
                       SKC FM300300 35004KT P6SM SKC=
202208291123 TAF KPAE 291123Z 2912/3012 01004KT P6SM SKC FM291900 32007KT P6SM
                       SKC FM300300 01004KT P6SM SKC=
202208290520 TAF KPAE 290520Z 2906/3006 01004KT P6SM FEW250 FM291900 32006KT
                       P6SM FEW250=
202208282331 TAF KPAE 282331Z 2900/2924 VRB06KT P6SM SKC FM290700 03003KT P6SM
                       FEW250 FM291800 33004KT P6SM SKC=
202208281736 TAF KPAE 281736Z 2818/2918 17006KT P6SM FEW012 SCT200 FM282000
                       24006KT P6SM SCT250 FM290100 33005KT P6SM
                       FEW250=
202208281123 TAF KPAE 281123Z 2812/2912 00000KT P6SM SCT010 SCT250
                      TEMPO 2812/2816 BKN010 BKN250 FM281800 31005KT
                       P6SM SCT250 FM290200 01003KT P6SM FEW250=
202208280524 TAF KPAE 280524Z 2806/2906 35005KT P6SM SCT050 BKN080 FM281200
                       VRB03KT 4SM BR OVC010 FM281600 VRB03KT P6SM
                       BKN020 FM281800 31005KT P6SM SCT250=
202208272332 TAF KPAE 272332Z 2800/2824 VRB06KT P6SM BKN030 OVC070 FM280100
                       VRB05KT P6SM BKN060 FM281100 06003KT P6SM
                       OVC030 FM281200 17003KT 4SM BR OVC015 FM281900
                       31005KT P6SM SCT250=
202208271728 TAF KPAE 271728Z 2718/2818 18008KT P6SM BKN009 OVC025 FM272000
                       20007KT P6SM OVC030 FM272100 22008KT P6SM
                       BKN050 FM280100 35005KT P6SM BKN070 FM281100
                       08003KT P6SM OVC030 FM281200 09003KT 4SM
                       BR OVC015=
202208271125 TAF KPAE 271125Z 2712/2812 18004KT P6SM OVC008 FM271800 21008KT
                       P6SM SCT010 OVC025 FM272000 22008KT P6SM
                       BKN050 FM280100 35005KT P6SM SCT050 BKN100=
202208270540 KPAE 270540Z 2706/2806 35008KT P6SM BKN022 OVC035 FM270900 03005KT
                       P6SM OVC020 FM271200 18007KT P6SM OVC015
                       FM271800 21008KT P6SM OVC025 FM272000 22008KT
                       P6SM BKN050 FM280100 35005KT P6SM BKN050=
202208270526 TAF KPAE 270526Z 2706/2806 36007KT P6SM OVC035 FM270800 03005KT
                       P6SM OVC025 FM271200 18007KT P6SM OVC015
                       FM271800 21008KT P6SM OVC025 FM272000 22008KT
                       P6SM BKN050 FM280100 35005KT P6SM BKN050=
202208262320 TAF KPAE 262320Z 2700/2724 24006KT P6SM SCT030 BKN050 FM270200
                       33006KT P6SM OVC050 FM270700 20008KT P6SM
                       OVC025 FM271200 18007KT P6SM OVC015 FM271800
                       20006KT P6SM OVC020=
202208261720 TAF KPAE 261720Z 2618/2718 19006KT P6SM BKN010 FM262000 22008KT
                       P6SM OVC015 FM262300 24006KT P6SM BKN035
                       FM270200 33006KT P6SM OVC050 FM270700 20008KT
                       P6SM OVC025 FM271200 18007KT P6SM OVC015=
202208261139 TAF KPAE 261139Z 2612/2712 19006KT P6SM BKN008 FM262300 24006KT
                       P6SM BKN035 FM270200 31006KT P6SM OVC050
                       FM271000 18008KT P6SM OVC025=
202208260539 TAF KPAE 260539Z 2606/2706 02005KT P6SM SKC FM261200 17006KT P6SM
                       SCT015 FM261400 19006KT P6SM BKN015 FM261600
                       19006KT 6SM BR OVC007 FM262300 33006KT P6SM
                       BKN035=
202208252320 TAF KPAE 252320Z 2600/2624 25006KT P6SM SKC FM260200 35008KT P6SM
                       SKC FM261200 17006KT P6SM SCT015 FM261400
                       19006KT P6SM BKN015
                      TEMPO 2615/2618 2SM BR OVC008 FM261800 20008KT
                       P6SM OVC030 FM262300 33006KT P6SM BKN035=
202208251733 TAF KPAE 251733Z 2518/2618 28006KT P6SM SKC FM260200 35008KT P6SM
                       SKC FM261200 17006KT P6SM SCT015 FM261400
                       19006KT P6SM BKN015
                      TEMPO 2615/2618 2SM BR OVC008=
202208251136 TAF KPAE 251136Z 2512/2612 35003KT P6SM SKC FM251800 28006KT P6SM
                       SKC FM260200 36005KT P6SM SKC FM261000 17006KT
                       P6SM SCT015=
202208250528 TAF KPAE 250528Z 2506/2606 01003KT P6SM SKC FM250900 VRB03KT P6SM
                       SKC FM251800 27006KT P6SM SKC=
202208242320 TAF KPAE 242320Z 2500/2524 33006KT P6SM SKC FM250400 01003KT P6SM
                       SKC FM250900 VRB03KT P6SM SKC FM251800 27006KT
                       P6SM SKC=
202208241720 TAF KPAE 241720Z 2418/2518 33006KT P6SM SKC FM250400 01003KT P6SM
                       SKC FM250900 VRB03KT P6SM SKC=
202208241123 TAF KPAE 241123Z 2412/2512 36005KT P6SM BKN002
                      TEMPO 2413/2416 2SM BR OVC002 FM241800 35008KT
                       P6SM SKC FM250400 01003KT P6SM SKC=
202208240540 TAF KPAE 240540Z 2406/2506 36005KT P6SM SKC FM241500 35003KT P6SM
                       FEW005 FEW050
                      TEMPO 2415/2417 5SM BR BKN004 FM241800 35005KT
                       P6SM SKC=
202208232338 TAF KPAE 232338Z 2400/2424 35008KT P6SM FEW130 SCT250
                      TEMPO 2400/2403 35010G20KT FEW045 FM240300
                       34004KT P6SM SKC FM241500 35003KT P6SM FEW005
                       FEW050 FM241800 35005KT P6SM SKC=
202208231735 TAF KPAE 231735Z 2318/2418 28006KT P6SM BKN016 FM231900 30004KT
                       P6SM SKC FM240200 34004KT P6SM SKC FM241500
                       35003KT P6SM FEW005 FEW050=
202208231440 KPAE 231440Z 2315/2412 00000KT P6SM FEW002 FM231730 34006KT P6SM
                       SKC FM240200 35004KT P6SM SKC=
202208231155 KPAE 231155Z 2312/2412 01007KT P6SM BKN003 FM231730 34006KT P6SM
                       SKC FM240200 35004KT P6SM SKC=
202208231122 TAF KPAE 231122Z 2312/2412 01005KT P6SM SCT004 FM231300 01007KT
                       P6SM BKN003 FM231730 34006KT P6SM SKC FM240200
                       35004KT P6SM SKC=
202208230539 TAF KPAE 230539Z 2306/2406 34005KT P6SM FEW200 FM230800 02004KT
                       P6SM FEW200 FM231300 36003KT P6SM FEW200=
202208222320 TAF KPAE 222320Z 2300/2324 30005KT P6SM SKC FM230300 34005KT P6SM
                       FEW200 FM230800 02004KT P6SM FEW200 FM231300
                       36003KT P6SM FEW200=
202208221722 TAF KPAE 221722Z 2218/2318 31004KT P6SM SCT200 FM230300 36006KT
                       P6SM FEW200 FM230800 02004KT P6SM FEW200=
202208221122 TAF KPAE 221122Z 2212/2312 36005KT P6SM BKN200 FM221800 30004KT
                       P6SM SCT200 FM230300 36006KT P6SM FEW200=
202208220533 TAF KPAE 220533Z 2206/2306 36007KT P6SM BKN250 FM221400 VRB03KT
                       P6SM SCT015 BKN200 FM221800 30004KT P6SM
                       SCT200 FM230300 36006KT P6SM FEW200=
202208212333 TAF KPAE 212333Z 2200/2224 27005KT P6SM SCT040 SCT200 FM220300
                       36004KT P6SM FEW200 FM221400 34002KT P6SM
                       SCT015 FM221800 30004KT P6SM SCT250=
202208211728 TAF KPAE 211728Z 2118/2218 24005KT P6SM BKN015 OVC030 FM211900
                       25005KT P6SM OVC030 FM212100 27005KT P6SM
                       SCT040 SCT200 FM220300 36004KT P6SM FEW200
                       FM221400 34002KT 6SM BR BKN015=
202208211120 TAF KPAE 211120Z 2112/2212 VRB03KT P6SM SCT017 OVC040 FM211800
                       24005KT P6SM BKN035 FM212000 27005KT P6SM
                       SCT040 SCT200 FM220300 36004KT P6SM FEW200=
202208210533 TAF KPAE 210533Z 2106/2206 01003KT P6SM SCT040 SCT200 FM210900
                       16004KT P6SM BKN035 FM211200 20003KT P6SM
                       OVC015 FM211800 28005KT P6SM BKN030 FM212000
                       34005KT P6SM SCT040 SCT200 FM220400 36004KT
                       P6SM FEW200=
202208202323 TAF KPAE 202323Z 2100/2124 24007KT P6SM FEW035 FM210300 01003KT
                       P6SM SCT200 FM211200 16004KT P6SM OVC020
                       FM211400 20003KT P6SM OVC015 FM211800 28005KT
                       P6SM BKN030=
202208201724 TAF KPAE 201724Z 2018/2118 24006KT P6SM SCT015 OVC025 FM202000
                       24006KT P6SM SCT040 SCT200 FM210300 01003KT
                       P6SM SCT200 FM211200 19003KT P6SM OVC050
                       FM211400 28003KT P6SM OVC015=
202208201121 TAF KPAE 201121Z 2012/2112 19006KT P6SM SCT015 BKN035
                      TEMPO 2013/2017 BKN012 OVC030 FM202000 25006KT
                       P6SM SCT040 SCT200 FM210300 01003KT P6SM
                       SCT200=
202208200522 TAF KPAE 200522Z 2006/2106 VRB04KT P6SM SCT040 SCT200 FM201200
                       19006KT P6SM OVC015 FM202000 25006KT P6SM
                       SCT040 SCT200 FM210300 01003KT P6SM SCT200=
202208192326 TAF KPAE 192326Z 2000/2024 34006KT P6SM SCT040 BKN150 FM201200
                       19006KT P6SM OVC020 FM202000 25006KT P6SM
                       BKN050=
202208191727 KPAE 191727Z 1917/2018 20008KT P6SM VCSH SCT050 BKN120
                      TEMPO 1918/1922 -SHRA BKN005 FM192200 25006KT
                       P6SM SCT040 BKN100 FM200900 18006KT P6SM
                       OVC015=
202208191721 TAF KPAE 191721Z 1918/2018 20008KT P6SM VCSH SCT050 BKN120
                      TEMPO 1918/1922 -SHRA SCT005 BKN040 FM192200
                       25006KT P6SM SCT040 BKN100 FM200900 18006KT
                       P6SM OVC015=
202208191120 TAF KPAE 191120Z 1912/2012 18008KT P6SM BKN150
                      TEMPO 1914/1916 P6SM SCT012 OVC120 FM191800
                       20008KT P6SM BKN120 FM200900 18008KT P6SM
                       OVC015=
202208190520 TAF KPAE 190520Z 1906/2006 VRB04KT P6SM BKN150 FM191200 21006KT
                       P6SM SCT012 BKN090
                      TEMPO 1915/1917 5SM BR BKN012 OVC090 FM191800
                       24007KT P6SM VCSH SCT020 BKN050 BKN090=
202208182327 TAF KPAE 182327Z 1900/1924 VRB04KT P6SM BKN150 BKN250 FM191200
                       20005KT P6SM SCT015 OVC100 FM192100 25005KT
                       P6SM BKN100=
202208181740 TAF KPAE 181740Z 1818/1918 36006KT P6SM BKN150 FM182100 VRB04KT
                       P6SM BKN150 FM190500 21005KT P6SM BKN090
                       FM191100 18008KT P6SM SCT015 SCT050 BKN090=
202208181120 TAF KPAE 181120Z 1812/1912 36006KT P6SM BKN150 FM190200 VRB04KT
                       P6SM BKN120 FM190500 21005KT P6SM BKN090
                       FM191100 18008KT P6SM SCT015 SCT050 BKN090=
202208180520 TAF KPAE 180520Z 1806/1906 35005KT P6SM BKN200 FM181800 35008KT
                       P6SM BKN200 FM190200 27006KT P6SM BKN150
                       FM190500 21007KT P6SM BKN120=
202208172338 TAF KPAE 172338Z 1800/1824 35010KT P6SM SKC FM180800 02006KT P6SM
                       BKN150 FM181400 35008KT P6SM SCT250=
202208171735 TAF KPAE 171735Z 1718/1818 35010KT P6SM SCT150 FM180500 02006KT
                       P6SM BKN150 FM181400 35008KT P6SM SCT250=
202208171120 TAF KPAE 171120Z 1712/1812 00000KT P6SM SKC FM172000 35008KT P6SM
                       SCT150 FM180200 02006KT P6SM BKN150=
202208170521 TAF KPAE 170521Z 1706/1806 36008KT P6SM SKC=
202208162336 TAF KPAE 162336Z 1700/1724 36008KT P6SM SKC=
202208161720 TAF KPAE 161720Z 1618/1718 01005KT P6SM SKC FM162000 34008KT P6SM
                       FEW250 FM171200 35003KT P6SM SKC=
202208161505 KPAE 161505Z 1615/1712 VRB04KT P6SM SCT010 FM161700 32004KT P6SM
                       FEW010 SCT250 FM162000 34008KT P6SM FEW250=
202208161121 TAF KPAE 161121Z 1612/1712 VRB03KT P6SM SCT007 BKN250 FM161300
                       VRB04KT P6SM BKN007 FM161700 32004KT P6SM
                       FEW010 SCT250 FM162000 34008KT P6SM FEW250=
202208160521 TAF KPAE 160521Z 1606/1706 36008KT P6SM BKN250 FM161100 VRB03KT
                       P6SM BKN007 BKN250 FM161700 32004KT P6SM
                       FEW015 SCT250 FM162000 34008KT P6SM FEW250=
202208152320 TAF KPAE 152320Z 1600/1624 30006KT P6SM SCT250 FM160200 35006KT
                       P6SM SCT250 FM161000 36002KT P6SM BKN007
                       FM161200 02003KT P6SM BKN004 FM161800 32004KT
                       P6SM FEW250=
202208151729 TAF KPAE 151729Z 1518/1618 27006KT P6SM SCT250 FM152300 31006KT
                       P6SM SCT250 FM160200 35006KT P6SM SCT250
                       FM161300 36002KT P6SM BKN007=
202208151345 KPAE 151345Z 1514/1612 03004KT P6SM FEW250
                      TEMPO 1514/1517 BKN007 FM151800 31006KT P6SM
                       SCT250 FM160500 01004KT P6SM BKN250=
202208151121 TAF KPAE 151121Z 1512/1612 03004KT P6SM SCT250 FM151300 VRB03KT
                       P6SM BKN003 FM151800 31006KT P6SM SCT250
                       FM160500 01004KT P6SM BKN250=
202208150520 TAF KPAE 150520Z 1506/1606 01005KT P6SM SCT250 FM151300 VRB03KT
                       P6SM BKN003 FM151800 31006KT P6SM SCT250=
202208142320 TAF KPAE 142320Z 1500/1524 34006KT P6SM FEW090 FM150700 VRB03KT
                       P6SM SCT250 FM151800 31006KT P6SM FEW250=
202208141720 TAF KPAE 141720Z 1418/1518 34005KT P6SM FEW050 FM150700 VRB03KT
                       P6SM SCT250=
202208141128 TAF KPAE 141128Z 1412/1512 36005KT P6SM FEW250 FM141400 VRB03KT
                       P6SM VCFG SCT003
                      TEMPO 1414/1417 2SM BR BKN003 FM141800 30005KT
                       P6SM SCT050 FM150000 35006KT P6SM FEW250=
202208140520 TAF KPAE 140520Z 1406/1506 35006KT P6SM SCT250 FM141300 VRB03KT
                       P6SM VCFG SCT003
                      TEMPO 1413/1417 2SM BR BKN003 FM141800 30005KT
                       P6SM SCT050 FM150000 35006KT P6SM FEW250=
202208140304 KPAE 140304Z 1403/1424 35007KT P6SM SKC FM140500 01003KT P6SM SCT250
                       FM141300 VRB03KT P6SM VCFG SCT003
                      TEMPO 1413/1417 2SM BR BKN003 FM141800 30005KT
                       P6SM SCT250=
202208132320 TAF KPAE 132320Z 1400/1424 32006KT P6SM FEW030 SCT050 FM140500
                       01003KT P6SM SCT250 FM141300 VRB03KT P6SM
                       VCFG SCT003
                      TEMPO 1413/1417 2SM BR BKN003 FM141800 30005KT
                       P6SM SCT250=
202208131723 TAF KPAE 131723Z 1318/1418 18010KT P6SM SCT030 BKN060
                      TEMPO 1318/1320 BKN030 OVC060 FM132000 23007KT
                       P6SM SCT030 BKN060 FM140000 30006KT P6SM
                       SCT250 FM140500 01003KT P6SM SCT250 FM141300
                       VRB03KT 4SM BR BKN004 FM141700 30005KT P6SM
                       FEW007 SCT250=
202208131135 TAF KPAE 131135Z 1312/1412 18009KT P6SM BKN025 OVC040 FM131900
                       23007KT P6SM SCT030 BKN050 FM140000 30006KT
                       P6SM SCT250 FM140500 01003KT P6SM SCT250=
202208130535 TAF KPAE 130535Z 1306/1406 VRB06KT P6SM OVC040 FM131200 18006KT
                       P6SM BKN020 OVC040 FM131900 23006KT P6SM
                       SCT030 BKN050 FM140000 31005KT P6SM SCT250=
202208122321 TAF KPAE 122321Z 1300/1324 24008KT P6SM FEW050 FM130600 18006KT
                       P6SM BKN050 FM131200 18006KT P6SM BKN020
                       OVC040 FM131900 23006KT P6SM SCT030 BKN050=
202208121727 TAF KPAE 121727Z 1218/1318 26005KT P6SM FEW050 SCT120 FM130000
                       33006KT P6SM FEW120 FM130600 18008KT P6SM
                       BKN050 FM131300 18008KT P6SM BKN020 OVC040=
202208121120 TAF KPAE 121120Z 1212/1312 VRB03KT P6SM SCT150 FM121900 25007KT
                       P6SM FEW050 FM130000 33006KT P6SM SCT250
                       FM130600 18008KT P6SM SCT050 BKN250 FM131000
                       18008KT P6SM OVC040=
202208120520 TAF KPAE 120520Z 1206/1306 01005KT P6SM FEW050 FM121300 26003KT
                       P6SM SCT150 FM121900 25007KT P6SM FEW050
                       FM130000 33006KT P6SM SCT250=
202208112320 TAF KPAE 112320Z 1200/1224 01005KT P6SM FEW050 FM121300 21003KT
                       P6SM SCT150 FM121900 25007KT P6SM FEW050=
202208111723 TAF KPAE 111723Z 1118/1218 33005KT P6SM FEW050 FM120500 01004KT
                       P6SM FEW050 FM121300 21003KT P6SM SCT100=
202208111120 TAF KPAE 111120Z 1112/1212 VRB04KT P6SM OVC040
                      TEMPO 1112/1116 OVC010 FM111800 30004KT P6SM
                       SCT250 FM120000 35004KT P6SM SCT250 FM120600
                       VRB03KT P6SM SCT250=
202208110520 TAF KPAE 110520Z 1106/1206 17009KT P6SM SCT020 OVC040 FM110900
                       VRB04KT P6SM OVC030 FM111300 34003KT P6SM
                       BKN015
                      TEMPO 1113/1116 OVC005 FM111800 30004KT P6SM
                       SCT250 FM120000 35004KT P6SM SCT250=
202208102324 TAF KPAE 102324Z 1100/1124 17009KT P6SM SCT020 OVC050 FM110300
                       03004KT P6SM OVC050 FM110900 35004KT P6SM
                       OVC030 FM111300 VRB02KT P6SM BKN015=
202208101727 TAF KPAE 101727Z 1018/1118 21008KT P6SM SCT015 OVC025 FM102000
                       22008KT P6SM SCT015 OVC035 FM110000 17006KT
                       P6SM OVC040 FM110600 03004KT P6SM BKN250=
202208101120 TAF KPAE 101120Z 1012/1112 VRB03KT P6SM OVC100 FM101400 19005KT
                       P6SM OVC015 FM101800 21008KT P6SM SCT015
                       OVC030 FM110000 17006KT P6SM OVC040 FM110600
                       03004KT P6SM BKN250=
202208100524 TAF KPAE 100524Z 1006/1106 36004KT P6SM BKN250 FM100800 VRB03KT
                       P6SM OVC100 FM101400 19005KT P6SM OVC015
                       FM101800 21008KT P6SM SCT015 OVC030 FM110000
                       17006KT P6SM OVC040=
202208092326 TAF KPAE 092326Z 1000/1024 28003KT P6SM SCT150 FM100300 36004KT
                       P6SM BKN250 FM100800 20005KT P6SM OVC100
                       FM101400 19005KT P6SM OVC015=
202208091731 TAF KPAE 091731Z 0918/1018 30007KT P6SM SCT010 BKN250
                      TEMPO 0918/0919 OVC003 FM092000 28003KT P6SM
                       OVC250 FM100800 20005KT P6SM OVC100=
202208091120 TAF KPAE 091120Z 0912/1012 VRB03KT P6SM SCT250 FM091500 30004KT
                       P6SM OVC250 FM100200 VRB03KT P6SM OVC250=
202208090523 TAF KPAE 090523Z 0906/1006 34005KT P6SM FEW250 FM091000 VRB03KT
                       P6SM SCT250 FM091500 30004KT P6SM OVC250
                       FM100200 VRB03KT P6SM OVC250=
202208082320 TAF KPAE 082320Z 0900/0924 34007KT P6SM FEW250 FM091000 VRB02KT
                       P6SM SCT250 FM091500 25003KT P6SM OVC250=
202208081724 TAF KPAE 081724Z 0818/0918 31004KT P6SM SKC FM082200 32007KT P6SM
                       SKC FM091000 VRB02KT P6SM FEW250=
202208081135 TAF KPAE 081135Z 0812/0912 34003KT P6SM SKC FM081800 31007KT P6SM
                       SKC FM091000 VRB02KT P6SM FEW250=
202208080526 TAF KPAE 080526Z 0806/0906 34003KT P6SM SKC FM082000 31006KT P6SM
                       SKC=
202208072320 TAF KPAE 072320Z 0800/0824 35009KT P6SM SKC FM080400 01003KT P6SM
                       SKC FM082100 29008KT P6SM SKC=
202208071720 TAF KPAE 071720Z 0718/0818 35007KT P6SM SKC FM080400 01003KT P6SM
                       SKC=
202208071120 TAF KPAE 071120Z 0712/0812 02003KT P6SM SKC FM071800 33008KT P6SM
                       SKC FM080400 01003KT P6SM SKC=
202208070535 TAF KPAE 070535Z 0706/0806 36006KT P6SM SKC=
202208062320 TAF KPAE 062320Z 0700/0724 35007KT P6SM SKC FM070300 36004KT P6SM
                       SKC FM072000 34006KT P6SM SKC=
202208061720 TAF KPAE 061720Z 0618/0718 01004KT P6SM SKC FM061900 33007KT P6SM
                       SKC FM070300 36004KT P6SM SKC=
202208061121 TAF KPAE 061121Z 0612/0712 01004KT P6SM SKC FM061900 33007KT P6SM
                       SKC FM070300 36004KT P6SM SKC=
202208060536 TAF KPAE 060536Z 0606/0706 34003KT P6SM SKC FM061900 33007KT P6SM
                       SKC=
202208060254 KPAE 060254Z 0603/0624 33005KT P6SM SKC FM060500 36003KT P6SM SKC
                       FM061700 34007KT P6SM SKC=
202208052322 TAF KPAE 052322Z 0600/0624 36008G14KT P6SM SKC FM060500 36003KT
                       P6SM SKC FM061700 34007KT P6SM SKC=
202208051723 TAF KPAE 051723Z 0518/0618 36008KT P6SM SKC FM060500 36003KT P6SM
                       SKC FM061700 34007KT P6SM SKC=
202208051331 KPAE 051331Z 0514/0612 36008KT P6SM SCT005
                      TEMPO 0514/0515 BKN005 FM051500 36008KT P6SM
                       SKC=
202208051132 TAF KPAE 051132Z 0512/0612 36008KT P6SM SKC=
202208050527 TAF KPAE 050527Z 0506/0606 01006KT P6SM SKC FM052100 34006KT P6SM
                       SKC=
202208050255 KPAE 050255Z 0503/0524 01006KT P6SM SKC FM052100 34006KT P6SM SKC=
202208042325 TAF KPAE 042325Z 0500/0524 34008KT P6SM BKN050 FM050300 01006KT
                       P6SM SKC=
202208041735 TAF KPAE 041735Z 0418/0518 35006KT 2SM -RA BR BKN006 OVC015 FM041930
                       24006KT P6SM SCT015 BKN025 OVC040 FM042100
                       34008KT P6SM BKN050 FM050000 01006KT P6SM
                       SKC=
202208041533 KPAE 041533Z 0416/0512 35004KT 3SM BR VCSH BKN006 OVC015 FM041800
                       24006KT P6SM SCT015 BKN025 OVC040 FM042100
                       34008KT P6SM BKN050 FM050000 01006KT P6SM
                       SKC=
202208041132 TAF KPAE 041132Z 0412/0512 18012KT P6SM VCSH SCT006 BKN012 OVC020
                       FM041800 24006KT P6SM SCT015 BKN025 OVC040
                       FM042100 34008KT P6SM BKN050 FM050000 01006KT
                       P6SM SKC=
202208040539 TAF KPAE 040539Z 0406/0506 01006KT P6SM OVC022 FM041200 18008KT
                       P6SM VCSH SCT006 BKN012 OVC020 FM041800
                       24006KT P6SM SCT015 BKN025 OVC040 FM042100
                       34008KT P6SM BKN050 FM050000 01006KT P6SM
                       SKC=
202208040255 KPAE 040255Z 0403/0424 34007KT P6SM SCT250 FM040600 VRB04KT P6SM
                       OVC030 FM040900 18007KT P6SM VCSH OVC025
                       FM041200 20009KT P6SM OVC015 FM041800 24005KT
                       P6SM OVC050=
202208032327 TAF KPAE 032327Z 0400/0424 32007KT P6SM SKC FM040600 VRB04KT P6SM
                       OVC030 FM040900 18007KT P6SM VCSH OVC025
                       FM041200 20009KT P6SM OVC015 FM041800 24005KT
                       P6SM OVC050=
202208031732 TAF KPAE 031732Z 0318/0418 24008KT P6SM VCFG FEW015 FM032000 27005KT
                       P6SM FEW120 FM040000 32007KT P6SM SCT250
                       FM040600 VRB04KT P6SM OVC040 FM040900 18007KT
                       P6SM VCSH OVC025=
202208031341 KPAE 031341Z 0314/0412 VRB04KT P6SM SCT002
                      TEMPO 0314/0316 2SM BR OVC002 FM031800 21005KT
                       P6SM FEW015 FM032000 27005KT P6SM FEW120
                       FM040000 32007KT P6SM BKN060 FM040600 VRB04KT
                       P6SM OVC040 FM040900 18007KT P6SM VCSH OVC030=
202208031150 TAF KPAE 031150Z 0312/0412 VRB04KT P6SM BKN002
                      TEMPO 0313/0316 2SM BR OVC002 FM031600 20003KT
                       3SM BR OVC010 FM031800 21005KT P6SM BKN025
                       FM032000 27005KT P6SM FEW120 FM040000 32007KT
                       P6SM BKN060 FM040600 VRB04KT P6SM OVC040
                       FM040900 18007KT P6SM VCSH OVC030=
202208030554 TAF KPAE 030554Z 0306/0406 VRB03KT P6SM SKC FM031000 VRB03KT P6SM
                       BKN020 FM031200 VRB04KT P6SM FEW008 BKN015
                       TEMPO 0313/0316 OVC008 FM031800 21005KT
                       P6SM BKN025 FM032000 27005KT P6SM FEW120
                       FM040000 32007KT P6SM BKN060 FM040500 32005KT
                       P6SM OVC040=
202208022321 TAF KPAE 022321Z 0300/0324 28009KT P6SM SKC FM030100 35005KT P6SM
                       SKC FM031200 15004KT P6SM FEW007 BKN015
                       FM031800 22008KT P6SM SKC=
202208021943 KPAE 021943Z 0220/0318 23006KT P6SM BKN020 FM022100 27005KT P6SM
                       SKC FM030100 32005KT P6SM SKC FM030600 35005KT
                       P6SM SKC FM031100 15004KT P6SM FEW007 BKN015=
202208021720 TAF KPAE 021720Z 0218/0318 19008KT P6SM BKN010 FM021900 23006KT
                       P6SM SKC FM030100 32005KT P6SM SKC FM030600
                       35005KT P6SM SKC FM031100 15004KT P6SM FEW007
                       BKN015=
202208021150 TAF KPAE 021150Z 0212/0312 24004KT P6SM OVC009 FM021300 20005KT
                       P6SM OVC006 FM021600 19005KT P6SM BKN015
                       FM021700 20006KT P6SM FEW250 FM022100 25006KT
                       P6SM SKC FM030000 31006KT P6SM SKC FM030600
                       35005KT P6SM SKC FM031000 VRB04KT P6SM SCT020=
202208020550 TAF KPAE 020550Z 0206/0306 03005KT P6SM SKC FM021200 VRB04KT P6SM
                       BKN015 FM021300 18005KT P6SM OVC008 FM021600
                       19005KT P6SM BKN015 FM021700 20006KT P6SM
                       FEW250 FM022100 29006KT P6SM SKC FM030000
                       31006KT P6SM SKC=
202208012320 TAF KPAE 012320Z 0200/0224 25007KT P6SM SCT250 FM020500 35007KT
                       P6SM SCT150 FM021300 18006KT P6SM BKN015
                       FM021700 20006KT P6SM SCT250=
202208011728 TAF KPAE 011728Z 0118/0218 VRB03KT P6SM BKN150 FM012000 27008KT
                       P6SM SCT150 FM021100 18006KT P6SM SCT008
                       FM021700 19006KT P6SM FEW250=
202208011137 TAF KPAE 011137Z 0112/0212 35006KT P6SM BKN150 FM012000 35008KT
                       P6SM SCT150 FM021100 18006KT P6SM SCT008=
202208010539 TAF KPAE 010539Z 0106/0206 36004KT P6SM SKC FM011300 VRB03KT P6SM
                       SCT002 FM011600 18005KT P6SM SCT150 FM020000
                       34006KT P6SM SCT150=