##########################################################
# Query made at 02/15/2025 22:41:44 UTC
# Time interval: from 04/01/2022 00:00  to 04/30/2022 23:59  UTC
##########################################################

##########################################################
# KPAE, Everett, Snohomish County Airport (United States)
# WMO index: -----. WIGOS ID: Unknown
# Latitude 47-55-23N. Longitude 122-16-57W. Altitude 184 m.
##########################################################

###################################
#  METAR/SPECI from KPAE
###################################
202204302353 METAR KPAE 302353Z 36008KT 10SM CLR 14/07 A3000 RMK AO2 SLP159 60000 T01440072 10156 20106 53008=
202204302253 METAR KPAE 302253Z 25010KT 10SM CLR 14/03 A2999 RMK AO2 SLP155 T01440028=
202204302153 METAR KPAE 302153Z 28005KT 10SM FEW060 15/06 A2998 RMK AO2 SLP153 T01500061=
202204302100 SPECI KPAE 302100Z VRB04KT 10SM FEW041 OVC055 13/07 A2998 RMK AO2 T01280072=
202204302053 METAR KPAE 302053Z 28004KT 10SM FEW007 SCT009 BKN029 12/07 A2997 RMK AO2 SLP151 60000 T01220072 50006=
202204301953 METAR KPAE 301953Z 28006G15KT 10SM FEW007 SCT009 BKN029 13/07 A2998 RMK AO2 SLP151 T01280072=
202204301907 SPECI KPAE 301907Z VRB04KT 10SM FEW007 SCT009 BKN029 12/08 A2997 RMK AO2 T01220078=
202204301859 SPECI KPAE 301859Z 16005KT 10SM SCT015 BKN031 OVC070 12/07 A2997 RMK AO2 T01170072=
202204301853 METAR KPAE 301853Z 15006KT 10SM BKN008 OVC044 12/07 A2997 RMK AO2 RAB1759E22 SLP150 P0000 T01170072=
202204301753 METAR KPAE 301753Z 14007G15KT 10SM BKN008 OVC044 11/07 A2996 RMK AO2 SLP145 60001 T01060067 10111 20089 53010=
202204301740 SPECI KPAE 301740Z 16011KT 10SM BKN008 OVC044 11/07 A2995 RMK AO2 T01060067=
202204301653 METAR KPAE 301653Z 14007KT 10SM FEW026 OVC040 10/07 A2994 RMK AO2 SLP139 T01000067=
202204301648 SPECI KPAE 301648Z 15008KT 10SM SCT026 OVC040 10/07 A2994 RMK AO2=
202204301615 SPECI KPAE 301615Z VRB06KT 10SM BKN028 OVC041 09/07 A2994 RMK AO2 T00940067=
202204301553 METAR KPAE 301553Z 15007KT 10SM BKN041 OVC100 09/07 A2993 RMK AO2 RAE01 SLP135 P0000 T00940067=
202204301453 METAR KPAE 301453Z 14006KT 10SM -RA FEW034 OVC047 09/07 A2992 RMK AO2 RAB22 SLP131 P0000 60001 T00890067 55001=
202204301353 METAR KPAE 301353Z 15007KT 10SM FEW036 OVC042 09/06 A2991 RMK AO2 RAE04 SLP128 P0000 T00890061=
202204301253 METAR KPAE 301253Z AUTO 11008KT 10SM -RA BKN055 OVC090 09/06 A2989 RMK AO2 SLP123 P0001 T00890061=
202204301153 METAR KPAE 301153Z AUTO 11009KT 9SM -RA OVC055 09/06 A2992 RMK AO2 RAB06 SLP132 P0000 60000 T00890061 10117 20089 56015=
202204301053 METAR KPAE 301053Z AUTO 11006KT 10SM SCT050 OVC080 09/07 A2993 RMK AO2 RAE21 SLP135 P0000 T00890067=
202204300953 METAR KPAE 300953Z AUTO 11006KT 10SM -RA OVC050 09/07 A2995 RMK AO2 SLP141 P0000 T00890072=
202204300853 METAR KPAE 300853Z AUTO 16005KT 9SM -RA OVC048 09/07 A2996 RMK AO2 SLP147 P0000 60000 T00890072 58004=
202204300753 METAR KPAE 300753Z AUTO 22008KT 10SM -RA OVC055 09/07 A2997 RMK AO2 RAB00 SLP151 P0000 T00890067 401500072=
202204300653 METAR KPAE 300653Z AUTO 21009G19KT 10SM BKN070 OVC085 10/06 A2998 RMK AO2 SLP153 T01000061=
202204300553 METAR KPAE 300553Z AUTO 21010KT 10SM FEW070 OVC090 12/03 A2998 RMK AO2 SLP151 T01170033 10150 20117 58013=
202204300453 METAR KPAE 300453Z AUTO 16005KT 10SM OVC065 13/03 A3000 RMK AO2 SLP159 T01330028=
202204300353 METAR KPAE 300353Z 19005KT 10SM BKN065 OVC080 13/03 A3001 RMK AO2 SLP162 T01330028=
202204300253 METAR KPAE 300253Z 20004KT 10SM SCT110 13/02 A3002 RMK AO2 SLP165 T01330022 56026=
202204300153 METAR KPAE 300153Z 22005KT 10SM CLR 13/02 A3004 RMK AO2 SLP172 T01330017=
202204300053 METAR KPAE 300053Z 25006KT 10SM CLR 14/02 A3006 RMK AO2 SLP181 T01440022=
202204292353 METAR KPAE 292353Z 25008KT 10SM FEW055 14/02 A3009 RMK AO2 SLP191 T01440022 10150 20100 58026=
202204292253 METAR KPAE 292253Z 21008KT 190V250 10SM CLR 14/03 A3012 RMK AO2 SLP201 T01440028=
202204292153 METAR KPAE 292153Z 18013KT 10SM CLR 14/02 A3015 RMK AO2 SLP209 T01440017=
202204292053 METAR KPAE 292053Z 21005KT 10SM SCT042 12/04 A3017 RMK AO2 SLP218 T01220039 58014=
202204291953 METAR KPAE 291953Z 18008G16KT 10SM BKN042 BKN048 12/03 A3019 RMK AO2 SLP223 T01220028=
202204291853 METAR KPAE 291853Z VRB05KT 10SM FEW021 BKN038 OVC046 11/04 A3021 RMK AO2 SLP232 T01060039=
202204291753 METAR KPAE 291753Z 16007KT 10SM FEW021 BKN038 OVC046 10/04 A3021 RMK AO2 SLP233 T01000044 10100 20072 50002=
202204291653 METAR KPAE 291653Z 15009KT 10SM SCT017 OVC043 09/04 A3022 RMK AO2 SLP234 T00940044=
202204291553 METAR KPAE 291553Z 16008KT 10SM FEW030 OVC044 09/05 A3021 RMK AO2 SLP232 T00890050=
202204291453 METAR KPAE 291453Z 15006KT 10SM FEW009 SCT015 OVC046 08/04 A3021 RMK AO2 SLP231 T00780044 51011=
202204291441 SPECI KPAE 291441Z 15007KT 10SM FEW009 SCT016 OVC044 08/04 A3021 RMK AO2 T00780044=
202204291353 METAR KPAE 291353Z 14005KT 10SM OVC046 08/04 A3020 RMK AO2 SLP228 T00780044=
202204291253 METAR KPAE 291253Z 19007KT 10SM FEW065 OVC080 07/04 A3019 RMK AO2 SLP225 T00720039=
202204291153 METAR KPAE 291153Z 17006KT 10SM OVC049 07/04 A3017 RMK AO2 SLP220 60000 T00720044 10089 20072 53008=
202204291126 SPECI KPAE 291126Z 17007KT 10SM SCT011 OVC049 08/04 A3017 RMK AO2 T00780044=
202204291053 METAR KPAE 291053Z 16007KT 10SM OVC010 08/04 A3016 RMK AO2 SLP216 T00780044=
202204291020 SPECI KPAE 291020Z 15005KT 10SM BKN010 OVC050 08/04 A3016 RMK AO2 T00780044=
202204290953 METAR KPAE 290953Z VRB04KT 10SM BKN033 OVC050 08/04 A3016 RMK AO2 SLP214 T00780044=
202204290853 METAR KPAE 290853Z VRB05KT 10SM SCT039 OVC047 08/04 A3015 RMK AO2 SLP211 60000 T00830044 52013=
202204290753 METAR KPAE 290753Z 14004KT 10SM SCT023 OVC044 08/04 A3014 RMK AO2 SLP208 T00830044 401220061=
202204290653 METAR KPAE 290653Z 02005KT 10SM SCT041 BKN048 OVC080 08/04 A3012 RMK AO2 RAE22 SLP202 P0000 T00830044=
202204290553 METAR KPAE 290553Z 05005KT 10SM -RA BKN044 OVC050 09/04 A3011 RMK AO2 SLP198 P0000 60000 T00890039 10122 20089 51015=
202204290453 METAR KPAE 290453Z VRB03KT 10SM -RA OVC040 09/02 A3010 RMK AO2 RAB33 SLP195 P0000 T00890022=
202204290353 METAR KPAE 290353Z 33004KT 10SM OVC050 10/01 A3008 RMK AO2 SLPNO T01000006=
202204290253 METAR KPAE 290253Z 31005KT 10SM OVC070 10/02 A3007 RMK AO2 SLP183 T01000022 53009=
202204290153 METAR KPAE 290153Z 26005KT 10SM OVC085 10/03 A3005 RMK AO2 SLP179 T01000028=
202204290053 METAR KPAE 290053Z 29007KT 260V320 10SM OVC090 11/02 A3005 RMK AO2 SLP177 T01110022=
202204282353 METAR KPAE 282353Z 25007KT 10SM FEW060 SCT075 OVC090 12/M01 A3004 RMK AO2 SLP173 T01171006 10122 20094 53001=
202204282253 METAR KPAE 282253Z 24005KT 10SM OVC100 12/01 A3003 RMK AO2 SLP172 T01170006=
202204282153 METAR KPAE 282153Z 25008KT 10SM SCT090 BKN110 11/02 A3003 RMK AO2 SLP172 T01110017=
202204282053 METAR KPAE 282053Z 18006KT 10SM OVC060 11/02 A3003 RMK AO2 SLP172 T01060017 55002=
202204281953 METAR KPAE 281953Z 24006KT 10SM BKN050 OVC065 10/03 A3003 RMK AO2 SLP172 T01000028=
202204281853 METAR KPAE 281853Z VRB04KT 10SM FEW026 SCT038 BKN055 10/03 A3004 RMK AO2 SLP174 T01000033=
202204281811 SPECI KPAE 281811Z 00000KT 10SM BKN023 OVC055 10/03 A3004 RMK AO2 T01000033=
202204281753 METAR KPAE 281753Z 00000KT 10SM FEW021 BKN055 09/03 A3004 RMK AO2 SLP174 T00940033 53002=
202204281653 METAR KPAE 281653Z 33005KT 10SM SCT020 BKN036 08/04 A3004 RMK AO2 SLP174 T00780039 $=
202204281612 SPECI KPAE 281612Z 33005KT 10SM SCT011 OVC031 08/04 A3004 RMK AO2 T00780039 $=
202204281553 METAR KPAE 281553Z FEW008 OVC030 A3003 RMK AO2 SLPNO $=
202204281546 SPECI KPAE 281546Z SCT008 OVC030 A3003 RMK AO2 $=
202204281453 METAR KPAE 281453Z 33003KT 10SM BKN006 07/04 A3004 RMK AO2 SLP173 T00670044 53001=
202204281442 SPECI KPAE 281442Z VRB03KT 10SM BKN006 07/04 A3003 RMK AO2 T00720044=
202204281417 SPECI KPAE 281417Z 00000KT 10SM SCT007 07/04 A3003 RMK AO2 T00670039=
202204281353 METAR KPAE 281353Z 33003KT 10SM FEW050 06/04 A3003 RMK AO2 SLP171 T00610039=
202204281253 METAR KPAE 281253Z AUTO 00000KT 10SM BKN050 06/04 A3003 RMK AO2 SLP170 T00610039=
202204281153 METAR KPAE 281153Z AUTO 00000KT 10SM SCT055 06/03 A3003 RMK AO2 SLP172 60001 70001 T00610033 10072 20061 56012=
202204281053 METAR KPAE 281053Z AUTO 00000KT 10SM FEW022 OVC032 07/03 A3004 RMK AO2 SLP176 T00720033=
202204281018 SPECI KPAE 281018Z AUTO 06003KT 10SM SCT021 OVC032 07/03 A3005 RMK AO2 T00720033=
202204280953 METAR KPAE 280953Z AUTO 07003KT 10SM OVC022 07/03 A3005 RMK AO2 SLP178 T00720033=
202204280853 METAR KPAE 280853Z AUTO 08003KT 10SM BKN021 BKN026 BKN055 07/04 A3007 RMK AO2 SLP184 60001 T00720039 56010=
202204280753 METAR KPAE 280753Z AUTO 01005KT 10SM OVC040 07/03 A3008 RMK AO2 SLP187 T00720028 401220056=
202204280653 METAR KPAE 280653Z AUTO 35003KT 10SM SCT036 BKN060 BKN100 07/04 A3009 RMK AO2 RAE32 SLP190 P0001 T00670039=
202204280553 METAR KPAE 280553Z AUTO 23005KT 10SM -RA OVC036 07/03 A3010 RMK AO2 RAB25 SLP194 P0000 60000 T00720033 10106 20072 51004=
202204280453 METAR KPAE 280453Z 31006KT 10SM BKN048 OVC070 08/03 A3010 RMK AO2 SLP195 T00780033=
202204280353 METAR KPAE 280353Z 33005KT 10SM BKN047 OVC065 08/03 A3009 RMK AO2 SLP193 T00830028=
202204280253 METAR KPAE 280253Z 34005KT 10SM FEW050 BKN065 09/02 A3009 RMK AO2 SLP191 T00890022 56003=
202204280153 METAR KPAE 280153Z 28005KT 10SM SCT050 OVC075 10/02 A3009 RMK AO2 SLP191 T01000017=
202204280053 METAR KPAE 280053Z 27006KT 10SM FEW060 OVC075 10/02 A3009 RMK AO2 SLP193 T01000017=
202204272353 METAR KPAE 272353Z VRB03KT 10SM BKN050 BKN085 OVC110 11/02 A3010 RMK AO2 SLP193 T01110017 10122 20089 55000=
202204272253 METAR KPAE 272253Z 27007KT 10SM BKN090 BKN110 11/02 A3009 RMK AO2 SLP190 T01060017=
202204272153 METAR KPAE 272153Z 28007KT 10SM CLR 12/02 A3009 RMK AO2 SLP191 T01220017=
202204272053 METAR KPAE 272053Z 29007KT 10SM CLR 11/01 A3010 RMK AO2 SLP193 T01110011 58003=
202204271953 METAR KPAE 271953Z VRB03KT 10SM CLR 11/01 A3010 RMK AO2 SLP195 T01060011=
202204271853 METAR KPAE 271853Z 26008KT 10SM CLR 09/03 A3011 RMK AO2 SLP197 T00940028=
202204271753 METAR KPAE 271753Z 24007KT 10SM FEW022 FEW028 09/03 A3011 RMK AO2 SLP198 60000 T00890028 10089 20056 58001=
202204271653 METAR KPAE 271653Z 21008KT 10SM SCT015 BKN035 07/03 A3011 RMK AO2 RAB20E46 SLP198 P0000 T00720028=
202204271553 METAR KPAE 271553Z 15007KT 10SM BKN012 OVC020 07/03 A3011 RMK AO2 SLP199 T00670028=
202204271453 METAR KPAE 271453Z 16005KT 10SM BKN010 OVC013 06/03 A3011 RMK AO2 SLP199 T00610033 53001=
202204271353 METAR KPAE 271353Z 10004KT 10SM OVC014 06/03 A3010 RMK AO2 SLP197 T00560028=
202204271330 SPECI KPAE 271330Z AUTO VRB03KT 10SM BKN015 06/03 A3010 RMK AO2 T00560028=
202204271253 METAR KPAE 271253Z AUTO 15005KT 10SM SCT017 06/03 A3010 RMK AO2 SLP196 T00560028=
202204271227 SPECI KPAE 271227Z AUTO 15005KT 10SM BKN018 BKN048 06/03 A3010 RMK AO2 T00610028=
202204271153 METAR KPAE 271153Z AUTO 16006KT 10SM CLR 06/03 A3011 RMK AO2 SLP198 70006 T00560028 10072 20056 56003=
202204271053 METAR KPAE 271053Z AUTO 00000KT 10SM FEW034 06/03 A3011 RMK AO2 SLP198 T00560028=
202204270953 METAR KPAE 270953Z AUTO 00000KT 10SM OVC032 06/03 A3011 RMK AO2 SLP199 T00610028=
202204270853 METAR KPAE 270853Z AUTO 10005KT 10SM BKN030 BKN037 OVC060 06/03 A3012 RMK AO2 SLP200 T00610028 58004=
202204270753 METAR KPAE 270753Z AUTO 10006KT 10SM OVC034 07/03 A3013 RMK AO2 SLP204 T00670028 401220061=
202204270710 SPECI KPAE 270710Z AUTO 10005KT 10SM SCT024 BKN033 OVC055 07/03 A3013 RMK AO2 T00670033=
202204270653 METAR KPAE 270653Z AUTO 10006KT 10SM SCT024 BKN029 OVC039 07/03 A3013 RMK AO2 SLP204 T00670033=
202204270633 SPECI KPAE 270633Z AUTO 11005KT 10SM BKN024 BKN031 OVC039 07/03 A3013 RMK AO2 T00670033=
202204270616 SPECI KPAE 270616Z AUTO 10005KT 10SM FEW021 OVC036 07/03 A3013 RMK AO2 T00670033=
202204270553 METAR KPAE 270553Z AUTO 11005KT 10SM BKN022 OVC033 07/04 A3013 RMK AO2 RAE09 SLP204 P0000 60004 T00670039 10094 20067 51012=
202204270453 METAR KPAE 270453Z AUTO 10006KT 10SM -RA OVC033 07/04 A3013 RMK AO2 RAE00B27 SLP205 P0000 T00720039=
202204270353 METAR KPAE 270353Z 07005KT 10SM -RA SCT039 BKN048 OVC070 07/04 A3011 RMK AO2 RAB47 SLP201 P0000 T00720044=
202204270253 METAR KPAE 270253Z 05005KT 10SM SCT048 OVC070 08/04 A3009 RMK AO2 RAB24E42 SLP194 P0000 60004 T00780044 51013=
202204270153 METAR KPAE 270153Z 34004KT 10SM FEW035 SCT045 OVC060 08/04 A3009 RMK AO2 RAE04 SLP191 P0000 T00780044=
202204270107 SPECI KPAE 270107Z 35008KT 10SM SCT023 SCT038 BKN060 08/05 A3007 RMK AO2 RAE04 P0000 T00830050=
202204270100 SPECI KPAE 270100Z 33008KT 10SM -RA BKN023 BKN034 BKN055 08/05 A3007 RMK AO2 P0000 T00830050=
202204270053 METAR KPAE 270053Z 33008KT 5SM -RA BKN031 OVC036 08/06 A3007 RMK AO2 RAE29B46 SLP186 P0004 T00830056=
202204270014 SPECI KPAE 270014Z 21009KT 5SM R16R/6000VP6000FT RA BKN031 OVC036 09/06 A3006 RMK AO2 P0004 T00890056=
202204270007 SPECI KPAE 270007Z 23006KT 2SM RA BKN031 OVC036 08/05 A3006 RMK AO2 P0003 T00830050=
202204262353 METAR KPAE 262353Z 23009KT 5SM -RA BKN031 OVC039 10/04 A3006 RMK AO2 RAB32 SLP179 P0001 60001 T01000044 10122 20083 53009=
202204262253 METAR KPAE 262253Z 19015G24KT 10SM SCT037 12/02 A3005 RMK AO2 SLP176 T01170022=
202204262153 METAR KPAE 262153Z 18015G24KT 10SM SCT029 BKN035 BKN042 12/02 A3004 RMK AO2 SLP173 T01170022=
202204262108 SPECI KPAE 262108Z 18014G22KT 10SM SCT029 BKN035 BKN042 12/03 A3003 RMK AO2 T01170033=
202204262053 METAR KPAE 262053Z 19014G20KT 10SM BKN022 11/03 A3003 RMK AO2 PK WND 18030/2014 SLP170 60000 T01060028 50001=
202204262007 SPECI KPAE 262007Z 17014G22KT 10SM BKN022 11/04 A3002 RMK AO2 T01060039=
202204261953 METAR KPAE 261953Z 18017G23KT 10SM CLR 10/03 A3003 RMK AO2 PK WND 22028/1854 RAB13E27 SLP171 P0000 T01000028=
202204261853 METAR KPAE 261853Z 21023G30KT 10SM BKN032 OVC041 10/02 A3003 RMK AO2 PK WND 21030/1852 SLP171 T01000022=
202204261753 METAR KPAE 261753Z 19012G24KT 10SM SCT026 BKN032 OVC080 10/03 A3003 RMK AO2 SLP169 60001 T01000028 10100 20061 51001=
202204261746 SPECI KPAE 261746Z 18012KT 10SM SCT024 BKN030 BKN035 10/03 A3002 RMK AO2 T01000028=
202204261653 METAR KPAE 261653Z 19010KT 10SM BKN022 BKN028 08/03 A3002 RMK AO2 SLP169 T00830033=
202204261605 SPECI KPAE 261605Z 18013KT 10SM BKN019 08/04 A3002 RMK AO2 T00830039=
202204261553 METAR KPAE 261553Z 19009KT 10SM SCT017 08/04 A3002 RMK AO2 SLP169 T00830039=
202204261502 SPECI KPAE 261502Z 18007KT 10SM SCT011 07/03 A3002 RMK AO2 T00720033=
202204261453 METAR KPAE 261453Z 19011KT 10SM BKN011 07/04 A3002 RMK AO2 SLP168 60001 T00670039 57003=
202204261413 SPECI KPAE 261413Z 21007KT 10SM OVC010 07/04 A3002 RMK AO2 T00670039=
202204261353 METAR KPAE 261353Z 20005KT 10SM OVC009 07/04 A3002 RMK AO2 RAE36 CIG 008V013 SLP169 P0001 T00670039=
202204261338 SPECI KPAE 261338Z AUTO 22004KT 10SM BKN009 BKN014 OVC031 07/04 A3002 RMK AO2 RAE36 P0001 T00670044=
202204261313 SPECI KPAE 261313Z AUTO 19005KT 6SM -RA BR FEW009 BKN017 OVC034 07/04 A3002 RMK AO2 P0001 T00670044=
202204261253 METAR KPAE 261253Z AUTO 18006KT 5SM -RA BKN009 OVC034 07/04 A3003 RMK AO2 RAB00 SLP170 P0000 T00670039=
202204261153 METAR KPAE 261153Z AUTO VRB03KT 10SM OVC013 07/04 A3003 RMK AO2 SLP171 T00720039 10089 20072 55001=
202204261135 SPECI KPAE 261135Z AUTO 20005KT 10SM BKN013 OVC028 07/04 A3003 RMK AO2 T00720039=
202204261053 METAR KPAE 261053Z AUTO 15004KT 10SM BKN024 BKN029 OVC050 07/03 A3003 RMK AO2 SLP169 T00720033=
202204261048 SPECI KPAE 261048Z AUTO 16005KT 10SM BKN026 BKN055 07/04 A3003 RMK AO2=
202204261014 SPECI KPAE 261014Z AUTO 11004KT 10SM SCT020 SCT027 BKN048 08/04 A3003 RMK AO2 T00780039=
202204260953 METAR KPAE 260953Z AUTO 10004KT 10SM SCT020 BKN025 OVC034 08/04 A3003 RMK AO2 SLP171 T00780039=
202204260853 METAR KPAE 260853Z AUTO 11003KT 10SM BKN033 BKN042 OVC060 08/04 A3004 RMK AO2 SLP174 T00780039 58004=
202204260753 METAR KPAE 260753Z AUTO 09004KT 10SM OVC034 08/04 A3005 RMK AO2 SLP177 T00780039 401390078=
202204260653 METAR KPAE 260653Z AUTO 06004KT 10SM BKN031 OVC065 08/05 A3005 RMK AO2 SLP179 T00830050=
202204260644 SPECI KPAE 260644Z AUTO 00000KT 10SM SCT027 BKN033 OVC065 08/05 A3005 RMK AO2 T00830050=
202204260553 METAR KPAE 260553Z AUTO 35006KT 10SM BKN024 OVC031 09/06 A3005 RMK AO2 SLP178 60000 T00890056 10117 20083 58003=
202204260453 METAR KPAE 260453Z AUTO 33006KT 10SM BKN020 OVC041 09/05 A3006 RMK AO2 SLP180 T00890050=
202204260448 SPECI KPAE 260448Z AUTO 30005KT 10SM BKN020 OVC041 09/05 A3006 RMK AO2=
202204260440 SPECI KPAE 260440Z AUTO 32005KT 10SM SCT019 BKN033 OVC060 09/05 A3006 RMK AO2 T00890050=
202204260422 SPECI KPAE 260422Z AUTO 36006KT 10SM SCT012 BKN020 OVC046 09/05 A3005 RMK AO2 T00940050=
202204260405 SPECI KPAE 260405Z AUTO 32003KT 10SM BKN012 BKN023 OVC045 09/05 A3006 RMK AO2 T00890050=
202204260353 METAR KPAE 260353Z 33003KT 10SM FEW010 SCT023 BKN029 09/05 A3006 RMK AO2 SLP181 T00890050=
202204260335 SPECI KPAE 260335Z 34004KT 10SM FEW022 BKN029 OVC046 09/05 A3006 RMK AO2 T00890050=
202204260253 METAR KPAE 260253Z 01006KT 10SM FEW035 SCT047 BKN090 09/05 A3005 RMK AO2 SLP178 60000 T00940050 58006=
202204260153 METAR KPAE 260153Z 34004KT 10SM FEW032 BKN043 OVC100 09/06 A3006 RMK AO2 RAB13E40 SLP183 P0000 T00890056=
202204260131 SPECI KPAE 260131Z 36007KT 9SM -RA SCT026 BKN031 OVC048 09/06 A3006 RMK AO2 RAB13 P0000 T00940056=
202204260124 SPECI KPAE 260124Z 35007KT 320V030 10SM -RA BKN026 BKN031 OVC060 09/06 A3007 RMK AO2 RAB13 P0000 T00940056=
202204260053 METAR KPAE 260053Z 35007KT 10SM FEW038 10/05 A3007 RMK AO2 RAB2356E05 SLP185 P0000 T01000050=
202204252353 METAR KPAE 252353Z 35011G17KT 10SM SCT042 SCT048 BKN090 11/05 A3007 RMK AO2 SLP184 60000 T01060050 10139 20100 55002=
202204252253 METAR KPAE 252253Z AUTO 17010KT 10SM SCT040 OVC055 13/04 A3007 RMK AO2 SLP182 T01330039=
202204252153 METAR KPAE 252153Z 17010G18KT 10SM BKN039 OVC048 13/03 A3007 RMK AO2 RAB38E47 SLP184 P0000 T01280033=
202204252053 METAR KPAE 252053Z 16010G16KT 10SM SCT034 SCT043 BKN080 13/04 A3008 RMK AO2 SLP186 T01330044 58002=
202204251953 METAR KPAE 251953Z 16010KT 10SM FEW029 SCT034 BKN080 11/04 A3009 RMK AO2 SLP189 T01110039=
202204251853 METAR KPAE 251853Z 15010KT 10SM FEW019 SCT027 BKN043 11/05 A3009 RMK AO2 SLP190 T01110050=
202204251753 METAR KPAE 251753Z 07004KT 10SM BKN017 BKN023 OVC080 11/06 A3008 RMK AO2 SLP187 60000 T01060056 10111 20078 51008=
202204251653 METAR KPAE 251653Z 02005KT 10SM BKN006 BKN014 09/05 A3007 RMK AO2 SLP185 T00940050=
202204251553 METAR KPAE 251553Z 01006KT 10SM OVC006 08/05 A3007 RMK AO2 SLP183 T00830050=
202204251500 SPECI KPAE 251500Z 35006KT 10SM OVC006 08/05 A3006 RMK AO2 T00830050=
202204251453 METAR KPAE 251453Z 01005KT 10SM OVC004 08/05 A3006 RMK AO2 SLP179 60000 T00830050 53008=
202204251414 SPECI KPAE 251414Z VRB05KT 10SM OVC004 10/08 A3005 RMK AO2 T01000078=
202204251353 METAR KPAE 251353Z 16007G17KT 10SM BKN047 OVC065 09/08 A3004 RMK AO2 SLP172 T00940078=
202204251306 SPECI KPAE 251306Z AUTO 16013KT 10SM FEW005 OVC060 09/08 A3003 RMK AO2 T00940078=
202204251253 METAR KPAE 251253Z AUTO 16013KT 10SM BKN050 OVC070 09/08 A3003 RMK AO2 RAE39 SLP170 P0000 T00940078=
202204251222 SPECI KPAE 251222Z AUTO 16011G19KT 5SM -RA BR FEW012 SCT017 OVC055 10/08 A3003 RMK AO2 P0000 T01000078=
202204251215 SPECI KPAE 251215Z AUTO 15012KT 7SM -RA FEW011 BKN017 OVC055 10/08 A3004 RMK AO2 P0000 T01000078=
202204251207 SPECI KPAE 251207Z AUTO 16012KT 8SM -RA SCT017 OVC055 10/08 A3004 RMK AO2 P0000 T01000078=
202204251153 METAR KPAE 251153Z AUTO 15013KT 6SM -RA BR BKN017 BKN027 OVC060 10/08 A3003 RMK AO2 RAB44 SLP170 P0000 60000 T01000078 10133 20100 56004=
202204251053 METAR KPAE 251053Z AUTO 15010KT 10SM SCT017 BKN024 OVC080 11/08 A3003 RMK AO2 RAE02 SLP170 P0000 T01060083=
202204251003 SPECI KPAE 251003Z AUTO 16010KT 10SM SCT016 BKN024 OVC085 11/08 A3003 RMK AO2 RAE02 P0000 T01060083=
202204250953 METAR KPAE 250953Z AUTO 16011KT 10SM -RA FEW024 BKN060 OVC080 11/08 A3004 RMK AO2 SLP171 P0000 T01060083=
202204250853 METAR KPAE 250853Z AUTO 18012KT 10SM -RA BKN039 BKN047 OVC060 11/08 A3005 RMK AO2 RAB16 SLP175 P0000 60000 T01060078 56001=
202204250833 SPECI KPAE 250833Z AUTO 19012KT 6SM -RA SCT022 BKN040 OVC055 11/08 A3005 RMK AO2 RAB16 P0000 T01060078=
202204250753 METAR KPAE 250753Z AUTO 18010KT 10SM OVC028 12/07 A3005 RMK AO2 SLP175 T01170072 401940072=
202204250739 SPECI KPAE 250739Z AUTO 19014KT 10SM BKN028 OVC060 12/07 A3005 RMK AO2 T01170072=
202204250653 METAR KPAE 250653Z AUTO 18014KT 10SM SCT060 OVC075 12/07 A3005 RMK AO2 SLP174 T01220072=
202204250553 METAR KPAE 250553Z AUTO 19009KT 10SM SCT080 OVC100 13/06 A3005 RMK AO2 SLP176 T01330056 10183 20128 52004=
202204250453 METAR KPAE 250453Z AUTO 21009KT 10SM BKN090 OVC110 14/01 A3005 RMK AO2 SLP175 T01440011=
202204250353 METAR KPAE 250353Z AUTO 21008KT 10SM BKN100 OVC120 15/01 A3004 RMK AO2 SLP173 T01500006=
202204250253 METAR KPAE 250253Z AUTO 21006KT 10SM OVC100 16/04 A3004 RMK AO2 SLP172 T01610039 55007=
202204250153 METAR KPAE 250153Z AUTO 20010KT 10SM FEW110 18/02 A3003 RMK AO2 SLP169 T01780017=
202204250053 METAR KPAE 250053Z 19011G17KT 10SM OVC100 18/01 A3004 RMK AO2 SLP171 T01780006=
202204242353 METAR KPAE 242353Z 21009G22KT 10SM CLR 18/01 A3006 RMK AO2 SLP179 T01780006 10194 20144 56020=
202204242253 METAR KPAE 242253Z 23015G24KT 10SM CLR 18/02 A3008 RMK AO2 SLP186 T01830022=
202204242153 METAR KPAE 242153Z 22011G18KT 10SM CLR 18/02 A3010 RMK AO2 SLP192 T01830017=
202204242053 METAR KPAE 242053Z 16012KT 10SM CLR 18/02 A3012 RMK AO2 SLP200 T01780022 58016=
202204241953 METAR KPAE 241953Z 25009KT 10SM CLR 16/04 A3014 RMK AO2 SLP207 T01610044=
202204241853 METAR KPAE 241853Z 18012KT 10SM CLR 16/03 A3015 RMK AO2 SLP210 T01610033=
202204241753 METAR KPAE 241753Z 15010KT 10SM CLR 14/03 A3017 RMK AO2 SLP217 T01390028 10139 20072 58007=
202204241653 METAR KPAE 241653Z 15009KT 10SM CLR 12/03 A3018 RMK AO2 SLP220 T01170028=
202204241553 METAR KPAE 241553Z 16008KT 10SM CLR 10/02 A3018 RMK AO2 SLP222 T01000022=
202204241453 METAR KPAE 241453Z 14006KT 10SM CLR 08/02 A3019 RMK AO2 SLP225 T00830017 55004=
202204241353 METAR KPAE 241353Z 15006KT 10SM CLR 07/02 A3019 RMK AO2 SLP224 T00720022=
202204241253 METAR KPAE 241253Z 11006KT 10SM CLR 07/02 A3019 RMK AO2 SLP224 T00720022=
202204241153 METAR KPAE 241153Z 11006KT 10SM CLR 07/03 A3020 RMK AO2 SLP229 T00720028 10100 20072 57014=
202204241053 METAR KPAE 241053Z 12005KT 10SM CLR 08/03 A3022 RMK AO2 SLP233 T00780028=
202204240953 METAR KPAE 240953Z VRB04KT 10SM CLR 08/03 A3023 RMK AO2 SLP239 T00830033=
202204240853 METAR KPAE 240853Z 12004KT 10SM CLR 09/03 A3025 RMK AO2 SLP243 T00890033 56009=
202204240753 METAR KPAE 240753Z 11005KT 10SM CLR 09/03 A3025 RMK AO2 SLP247 T00890033 401440072=
202204240653 METAR KPAE 240653Z 00000KT 10SM CLR 09/04 A3026 RMK AO2 SLP250 T00890044=
202204240553 METAR KPAE 240553Z 00000KT 10SM CLR 10/04 A3027 RMK AO2 SLP253 T01000044 10144 20100 58002=
202204240453 METAR KPAE 240453Z 36003KT 10SM CLR 10/03 A3029 RMK AO2 SLP258 T01000033=
202204240353 METAR KPAE 240353Z 00000KT 10SM CLR 12/02 A3028 RMK AO2 SLP255 T01170022=
202204240253 METAR KPAE 240253Z 00000KT 10SM CLR 13/01 A3028 RMK AO2 SLP254 T01280011 56009=
202204240153 METAR KPAE 240153Z 27003KT 10SM CLR 13/01 A3028 RMK AO2 SLP256 T01280006=
202204240053 METAR KPAE 240053Z 26007KT 10SM CLR 13/01 A3029 RMK AO2 SLP259 T01330006=
202204232353 METAR KPAE 232353Z 24009KT 10SM CLR 14/01 A3031 RMK AO2 SLP264 T01390011 10139 20100 56009=
202204232253 METAR KPAE 232253Z 25009KT 10SM CLR 13/04 A3031 RMK AO2 SLP266 T01330039=
202204232153 METAR KPAE 232153Z 26011KT 10SM CLR 13/05 A3032 RMK AO2 SLP269 T01280050=
202204232053 METAR KPAE 232053Z 26007KT 10SM CLR 12/06 A3033 RMK AO2 SLP273 T01220061 58007=
202204231953 METAR KPAE 231953Z 25005KT 10SM CLR 11/06 A3034 RMK AO2 SLP278 T01110061=
202204231853 METAR KPAE 231853Z 27005KT 10SM CLR 11/06 A3035 RMK AO2 SLP281 T01060061=
202204231757 SPECI KPAE 231757Z 25004KT 10SM FEW011 SCT020 10/06 A3036 RMK AO2 T01000061=
202204231753 METAR KPAE 231753Z 24006KT 10SM FEW005 BKN011 10/06 A3036 RMK AO2 SLP281 T01000061 10100 20072 53005=
202204231657 SPECI KPAE 231657Z 23005KT 10SM FEW005 BKN011 09/06 A3035 RMK AO2 T00890061=
202204231653 METAR KPAE 231653Z 23005KT 10SM BKN008 BKN021 09/06 A3035 RMK AO2 SLP279 T00890061=
202204231625 SPECI KPAE 231625Z 24007KT 10SM BKN008 BKN021 08/06 A3035 RMK AO2 T00830061=
202204231610 SPECI KPAE 231610Z 25006KT 10SM SCT008 BKN013 BKN021 09/06 A3035 RMK AO2 T00890056=
202204231553 METAR KPAE 231553Z 24005KT 10SM BKN013 BKN021 09/04 A3035 RMK AO2 SLP278 T00890044=
202204231453 METAR KPAE 231453Z 17003KT 10SM CLR 08/04 A3034 RMK AO2 SLP277 T00780044 51010=
202204231353 METAR KPAE 231353Z 05004KT 10SM SCT055 08/04 A3033 RMK AO2 SLP274 T00780039=
202204231253 METAR KPAE 231253Z AUTO 00000KT 10SM OVC060 08/04 A3033 RMK AO2 SLP272 T00780044=
202204231153 METAR KPAE 231153Z AUTO 35003KT 10SM OVC060 07/04 A3031 RMK AO2 SLP266 T00720044 10089 20072 53017=
202204231053 METAR KPAE 231053Z AUTO 00000KT 10SM OVC060 08/04 A3029 RMK AO2 SLP258 T00780044=
202204230953 METAR KPAE 230953Z AUTO 02004KT 10SM OVC060 08/04 A3027 RMK AO2 SLP253 T00830044=
202204230853 METAR KPAE 230853Z AUTO 36005KT 10SM FEW048 OVC060 08/04 A3026 RMK AO2 SLP249 T00830044 51012=
202204230753 METAR KPAE 230753Z AUTO 34003KT 10SM FEW047 OVC060 08/04 A3025 RMK AO2 SLP246 T00830044 401330050=
202204230653 METAR KPAE 230653Z AUTO 34003KT 10SM BKN060 OVC070 09/04 A3024 RMK AO2 SLP241 T00890039=
202204230553 METAR KPAE 230553Z AUTO 36006KT 10SM FEW055 OVC075 09/03 A3023 RMK AO2 SLP238 T00890033 10133 20089 51016=
202204230453 METAR KPAE 230453Z AUTO 35005KT 10SM OVC080 09/04 A3022 RMK AO2 SLP235 T00940039=
202204230353 METAR KPAE 230353Z AUTO 35006KT 10SM OVC075 09/04 A3020 RMK AO2 SLP228 T00940039=
202204230253 METAR KPAE 230253Z 34004KT 10SM SCT065 SCT085 10/04 A3018 RMK AO2 SLP222 T01000044 51013=
202204230153 METAR KPAE 230153Z 35005KT 10SM OVC080 11/04 A3017 RMK AO2 SLP217 T01110039=
202204230053 METAR KPAE 230053Z 34005KT 10SM OVC080 12/02 A3016 RMK AO2 SLP214 T01220022=
202204222353 METAR KPAE 222353Z 31006KT 10SM BKN075 13/03 A3014 RMK AO2 SLP209 60000 T01330033 10133 20100 51006=
202204222253 METAR KPAE 222253Z 10SM FEW034 13/04 A3014 RMK AO2 SLP207 T01330044=
202204222153 METAR KPAE 222153Z 22008KT 190V250 10SM CLR 13/04 A3014 RMK AO2 SLP207 T01280044=
202204222053 METAR KPAE 222053Z 25008KT 10SM CLR 12/05 A3012 RMK AO2 RAB08E26 SLP203 P0000 60000 T01220050 51006=
202204221953 METAR KPAE 221953Z 27006KT 10SM BKN060 12/06 A3012 RMK AO2 SLP203 T01220056=
202204221853 METAR KPAE 221853Z 26005KT 10SM SCT030 11/06 A3012 RMK AO2 SLP200 T01110056=
202204221800 SPECI KPAE 221800Z 00000KT 10SM SCT030 10/06 A3011 RMK AO2 T01000056=
202204221753 METAR KPAE 221753Z VRB05KT 10SM BKN013 BKN032 10/06 A3011 RMK AO2 SLP197 T01000056 10106 20067 53015=
202204221718 SPECI KPAE 221718Z 00000KT 10SM BKN013 BKN032 11/06 A3010 RMK AO2 T01060061=
202204221700 SPECI KPAE 221700Z VRB06KT 10SM SCT014 BKN033 09/06 A3009 RMK AO2 T00940056=
202204221653 METAR KPAE 221653Z 29005KT 10SM BKN010 OVC014 10/06 A3009 RMK AO2 SLP192 T01000056=
202204221553 METAR KPAE 221553Z 26004KT 10SM BKN010 OVC014 09/06 A3007 RMK AO2 SLP184 T00890056=
202204221453 METAR KPAE 221453Z 00000KT 10SM BKN006 08/06 A3006 RMK AO2 SLP182 T00780056 51014=
202204221353 METAR KPAE 221353Z 16003KT 10SM BKN006 07/04 A3005 RMK AO2 SLP178 T00670044=
202204221335 SPECI KPAE 221335Z AUTO 00000KT 10SM BKN007 OVC049 07/04 A3004 RMK AO2 T00670044=
202204221326 SPECI KPAE 221326Z AUTO 15003KT 10SM SCT007 OVC049 07/04 A3004 RMK AO2 T00670044=
202204221253 METAR KPAE 221253Z AUTO 15003KT 10SM OVC050 07/04 A3003 RMK AO2 SLP172 T00720044=
202204221153 METAR KPAE 221153Z AUTO 00000KT 10SM OVC044 07/04 A3002 RMK AO2 SLP168 70002 T00670044 10078 20050 53015=
202204221053 METAR KPAE 221053Z AUTO 00000KT 10SM OVC050 06/04 A3000 RMK AO2 SLP162 T00610039=
202204220953 METAR KPAE 220953Z AUTO 11004KT 10SM FEW049 06/04 A2999 RMK AO2 SLP157 T00610039=
202204220853 METAR KPAE 220853Z AUTO 11003KT 10SM FEW022 07/04 A2997 RMK AO2 SLP152 T00670039 51007=
202204220844 SPECI KPAE 220844Z AUTO 00000KT 10SM SCT022 07/04 A2997 RMK AO2 T00670039=
202204220806 SPECI KPAE 220806Z AUTO 00000KT 10SM BKN024 07/04 A2997 RMK AO2 T00720039=
202204220753 METAR KPAE 220753Z AUTO 00000KT 10SM FEW024 07/04 A2997 RMK AO2 SLP150 T00720039 401330056=
202204220653 METAR KPAE 220653Z AUTO VRB04KT 10SM CLR 08/04 A2996 RMK AO2 SLP147 T00780044=
202204220553 METAR KPAE 220553Z AUTO 14004KT 10SM BKN044 OVC110 08/04 A2995 RMK AO2 RAB21E30 SLP144 P0000 60000 T00780044 10122 20078 51017=
202204220453 METAR KPAE 220453Z AUTO 16007KT 10SM OVC043 08/04 A2995 RMK AO2 RAE0354 SLP142 P0000 T00830044=
202204220353 METAR KPAE 220353Z 15008KT 10SM -RA SCT060 OVC075 08/04 A2992 RMK AO2 RAB15 SLP133 P0000 T00830044=
202204220253 METAR KPAE 220253Z 17010KT 10SM BKN060 BKN080 09/04 A2990 RMK AO2 SLP128 T00890044 53016=
202204220153 METAR KPAE 220153Z 20012KT 10SM FEW090 11/04 A2989 RMK AO2 SLP122 T01060039=
202204220053 METAR KPAE 220053Z 20011KT 10SM SCT085 12/04 A2986 RMK AO2 SLP114 T01170044=
202204212353 METAR KPAE 212353Z 20009KT 10SM FEW065 SCT090 12/03 A2986 RMK AO2 SLP111 60001 T01170028 10133 20089 51018=
202204212253 METAR KPAE 212253Z 21011KT 10SM FEW046 BKN060 OVC100 11/04 A2984 RMK AO2 WSHFT 2142 RAE06 SLP106 P0001 T01110039=
202204212202 SPECI KPAE 212202Z 21010KT 6SM -RA BKN039 BKN055 OVC100 09/05 A2984 RMK AO2 WSHFT 2142 P0001 T00940050=
202204212153 METAR KPAE 212153Z 23013G27KT 5SM -RA BKN039 BKN060 09/04 A2984 RMK AO2 PK WND 21027/2147 RAB49 PRESRR SLP105 P0000 T00940044=
202204212053 METAR KPAE 212053Z 21017G23KT 10SM SCT038 13/03 A2980 RMK AO2 PK WND 17027/2037 SLP092 T01280028 51017=
202204211953 METAR KPAE 211953Z 21016G21KT 10SM BKN034 12/03 A2979 RMK AO2 PK WND 21029/1911 SLP089 T01170033=
202204211853 METAR KPAE 211853Z 18017G25KT 10SM SCT030 BKN037 11/03 A2976 RMK AO2 PK WND 19030/1805 SLP080 T01110033=
202204211753 METAR KPAE 211753Z 20015G29KT 10SM BKN026 BKN032 10/04 A2975 RMK AO2 PK WND 19029/1751 SLP075 60001 T01000039 10106 20061 53027=
202204211653 METAR KPAE 211653Z 16013G23KT 10SM SCT017 SCT060 09/05 A2971 RMK AO2 PK WND 21026/1630 SLP063 T00940050=
202204211553 METAR KPAE 211553Z 15011KT 10SM BKN030 BKN044 OVC075 08/04 A2969 RMK AO2 RAE16B32E42 SLP056 P0000 T00780044=
202204211453 METAR KPAE 211453Z 15006KT 10SM -RA OVC032 07/04 A2967 RMK AO2 RAE1359B24 SLP048 P0000 60001 T00670039 51015=
202204211353 METAR KPAE 211353Z 13003KT 8SM -RA OVC038 07/04 A2966 RMK AO2 SLP043 P0000 T00670044=
202204211317 SPECI KPAE 211317Z AUTO 16006KT 5SM -RA BR FEW007 OVC038 07/04 A2965 RMK AO2 P0000 T00670044=
202204211253 METAR KPAE 211253Z AUTO 16006KT 8SM -RA BKN038 OVC050 07/04 A2965 RMK AO2 SLP041 P0001 T00670044=
202204211153 METAR KPAE 211153Z AUTO 18006KT 9SM -RA OVC046 07/03 A2962 RMK AO2 RAB48 SLP033 P0000 60000 70004 T00720028 10083 20056 53014=
202204211053 METAR KPAE 211053Z AUTO 34004KT 10SM OVC090 06/02 A2958 RMK AO2 SLP018 T00610022=
202204210953 METAR KPAE 210953Z AUTO 11006KT 10SM SCT120 07/02 A2957 RMK AO2 SLP016 T00670017=
202204210853 METAR KPAE 210853Z AUTO 11005KT 10SM CLR 07/03 A2958 RMK AO2 SLP018 T00670028 56021=
202204210753 METAR KPAE 210753Z AUTO 10004KT 10SM CLR 07/04 A2960 RMK AO2 SLP025 T00670044 401220033=
202204210653 METAR KPAE 210653Z AUTO 11003KT 10SM CLR 07/04 A2962 RMK AO2 SLP032 T00720044=
202204210553 METAR KPAE 210553Z AUTO 16003KT 10SM BKN060 08/05 A2964 RMK AO2 SLP040 60002 T00830050 10100 20072 50002=
202204210453 METAR KPAE 210453Z AUTO 19009KT 10SM SCT037 BKN049 08/06 A2966 RMK AO2 SLP044 T00830056=
202204210353 METAR KPAE 210353Z AUTO 15009KT 10SM SCT043 08/05 A2964 RMK AO2 RAE29 SLP039 P0002 T00830050=
202204210253 METAR KPAE 210253Z 18007KT 9SM -RA BKN044 OVC060 08/06 A2964 RMK AO2 RAB17 SLP038 P0000 60000 T00830056 53002=
202204210153 METAR KPAE 210153Z 11007KT 10SM BKN055 BKN075 10/03 A2961 RMK AO2 RAB0059E09 SLP028 P0000 T01000033=
202204210053 METAR KPAE 210053Z 12009G20KT 10SM OVC050 09/04 A2962 RMK AO2 RAE24 SLP032 P0000 T00890039=
202204202353 METAR KPAE 202353Z 10010G17KT 6SM -RA BKN036 OVC049 08/04 A2963 RMK AO2 SLP036 P0002 60002 T00830039 10122 20083 56008=
202204202253 METAR KPAE 202253Z 14014G28KT 100V170 7SM -RA BKN037 OVC047 09/02 A2964 RMK AO2 PK WND 14032/2243 RAB00E03B23 SLP038 P0000 T00940017=
202204202153 METAR KPAE 202153Z 10SM OVC055 11/00 A2964 RMK AO2 RAE02B39E49 SLP039 P0000 T01110000=
202204202053 METAR KPAE 202053Z 13009G23KT 090V170 10SM -RA BKN048 OVC060 11/00 A2966 RMK AO2 PK WND 15027/2031 RAB34 SLP044 P0000 60000 T01060000 56010=
202204201953 METAR KPAE 201953Z 17009KT 140V200 10SM OVC100 12/M01 A2966 RMK AO2 SLP045 T01221011=
202204201853 METAR KPAE 201853Z 15006KT 10SM OVC100 11/M02 A2968 RMK AO2 SLP051 T01111017=
202204201753 METAR KPAE 201753Z VRB03KT 10SM CLR 10/00 A2969 RMK AO2 SLP054 T01000000 10100 20033 56024=
202204201653 METAR KPAE 201653Z VRB04KT 10SM CLR 09/01 A2970 RMK AO2 SLP059 T00890011=
202204201553 METAR KPAE 201553Z 11005KT 10SM CLR 08/02 A2973 RMK AO2 SLP069 T00780017=
202204201453 METAR KPAE 201453Z 11006KT 10SM CLR 06/01 A2976 RMK AO2 SLP079 T00610006 56021=
202204201353 METAR KPAE 201353Z 00000KT 10SM CLR 04/00 A2979 RMK AO2 SLP089 T00390000=
202204201253 METAR KPAE 201253Z AUTO 10008KT 10SM CLR 04/00 A2979 RMK AO2 SLP091 T00390000=
202204201153 METAR KPAE 201153Z AUTO 11004KT 10SM CLR 04/01 A2982 RMK AO2 SLP101 T00390006 10072 20039 58010=
202204201053 METAR KPAE 201053Z AUTO 11005KT 10SM CLR 04/01 A2984 RMK AO2 SLP106 T00440011=
202204200953 METAR KPAE 200953Z AUTO VRB03KT 10SM CLR 05/02 A2985 RMK AO2 SLP110 T00500017=
202204200853 METAR KPAE 200853Z AUTO VRB03KT 10SM CLR 06/02 A2985 RMK AO2 SLP111 T00560017 58004=
202204200753 METAR KPAE 200753Z AUTO 11004KT 10SM FEW045 FEW055 06/02 A2987 RMK AO2 SLP116 T00610017 401170044=
202204200653 METAR KPAE 200653Z AUTO 12004KT 10SM CLR 06/02 A2987 RMK AO2 SLP117 T00610017=
202204200553 METAR KPAE 200553Z AUTO 16005KT 10SM CLR 07/02 A2987 RMK AO2 SLP116 T00670022 10117 20061 51005=
202204200453 METAR KPAE 200453Z AUTO 34003KT 10SM CLR 07/02 A2986 RMK AO2 SLP115 T00670022=
202204200353 METAR KPAE 200353Z 36005KT 10SM CLR 08/02 A2986 RMK AO2 SLP114 T00780017=
202204200253 METAR KPAE 200253Z 34004KT 10SM CLR 08/02 A2985 RMK AO2 SLP111 T00830017 53002=
202204200153 METAR KPAE 200153Z 35006KT 10SM CLR 11/01 A2985 RMK AO2 SLP109 T01060006=
202204200053 METAR KPAE 200053Z 29006KT 10SM CLR 11/01 A2985 RMK AO2 SLP110 T01110006=
202204192353 METAR KPAE 192353Z VRB05KT 10SM CLR 12/01 A2984 RMK AO2 SLP107 T01170006 10117 20072 58002=
202204192253 METAR KPAE 192253Z VRB06KT 10SM FEW095 11/01 A2985 RMK AO2 SLP110 T01110011=
202204192153 METAR KPAE 192153Z 28007KT 10SM BKN100 10/01 A2985 RMK AO2 SLP112 T01000011=
202204192053 METAR KPAE 192053Z 24008KT 10SM SCT036 11/01 A2985 RMK AO2 SLP109 T01110011 58004=
202204192000 SPECI KPAE 192000Z 23009KT 10SM BKN032 BKN039 BKN050 10/02 A2985 RMK AO2 T01000022=
202204191953 METAR KPAE 191953Z 19009KT 10SM BKN027 BKN045 10/02 A2985 RMK AO2 SLP112 T01000022=
202204191853 METAR KPAE 191853Z 24009KT 10SM FEW019 BKN024 OVC036 08/02 A2987 RMK AO2 SLP116 T00780017=
202204191753 METAR KPAE 191753Z 20010G14KT 10SM FEW019 BKN024 OVC036 08/02 A2986 RMK AO2 SLP115 T00830022 10083 20044 53009=
202204191653 METAR KPAE 191653Z 20007KT 10SM BKN020 OVC026 07/02 A2985 RMK AO2 SLP110 T00670022=
202204191629 SPECI KPAE 191629Z 19010KT 10SM FEW014 BKN022 BKN027 06/02 A2985 RMK AO2 T00610017=
202204191553 METAR KPAE 191553Z 21008KT 10SM BKN014 OVC023 06/02 A2984 RMK AO2 SLP109 T00560022=
202204191453 METAR KPAE 191453Z 18009KT 10SM OVC010 05/02 A2984 RMK AO2 SLP106 T00500017 53013=
202204191353 METAR KPAE 191353Z 18009KT 10SM OVC010 04/02 A2982 RMK AO2 SLP100 T00440017=
202204191322 SPECI KPAE 191322Z AUTO 17008KT 10SM OVC010 04/02 A2981 RMK AO2 T00440017=
202204191310 SPECI KPAE 191310Z AUTO 18010KT 10SM OVC009 04/02 A2981 RMK AO2 T00440017=
202204191253 METAR KPAE 191253Z AUTO 18011KT 10SM OVC011 04/02 A2980 RMK AO2 SLP095 T00440017=
202204191153 METAR KPAE 191153Z AUTO 19011KT 10SM OVC012 05/02 A2980 RMK AO2 SLP092 70013 T00500017 10061 20050 51012=
202204191053 METAR KPAE 191053Z AUTO 21012G18KT 10SM OVC012 05/02 A2979 RMK AO2 SLP089 T00500017=
202204190953 METAR KPAE 190953Z AUTO 19011KT 10SM OVC013 06/02 A2978 RMK AO2 SLP085 T00560022=
202204190853 METAR KPAE 190853Z AUTO 19012G21KT 10SM OVC014 06/02 A2976 RMK AO2 SLP080 T00560022 51008=
202204190848 SPECI KPAE 190848Z AUTO 18016G22KT 10SM OVC014 06/02 A2976 RMK AO2=
202204190753 METAR KPAE 190753Z AUTO 18012KT 10SM OVC017 06/02 A2974 RMK AO2 SLP074 T00560022 401060056=
202204190653 METAR KPAE 190653Z AUTO 18016KT 10SM BKN015 OVC023 06/02 A2973 RMK AO2 PK WND 17026/0606 SLP071 T00560022=
202204190553 METAR KPAE 190553Z AUTO 18015G25KT 10SM OVC019 06/02 A2972 RMK AO2 PK WND 18027/0507 SLP066 60007 T00610022 10094 20056 51031=
202204190507 SPECI KPAE 190507Z AUTO 19020G27KT 10SM OVC015 06/03 A2970 RMK AO2 PK WND 18027/0507 T00560028=
202204190453 METAR KPAE 190453Z AUTO 19015G23KT 10SM OVC012 06/03 A2971 RMK AO2 PK WND 21026/0436 SLP062 T00560028=
202204190425 SPECI KPAE 190425Z AUTO 19014KT 10SM BKN014 OVC020 06/03 A2971 RMK AO2 T00560028=
202204190353 METAR KPAE 190353Z 19014KT 10SM OVC019 06/03 A2969 RMK AO2 RAB14E33 SLP057 P0000 T00560028=
202204190333 SPECI KPAE 190333Z 19012KT 10SM SCT013 OVC019 06/03 A2967 RMK AO2 RAB14E33 P0000 T00560028=
202204190253 METAR KPAE 190253Z 20015KT 10SM OVC014 06/03 A2963 RMK AO2 PK WND 22029/0233 RAE04 SLP034 P0000 60007 T00610033 51025=
202204190249 SPECI KPAE 190249Z 20014G22KT 10SM OVC014 06/03 A2962 RMK AO2 PK WND 22029/0233 RAE04 P0000=
202204190153 METAR KPAE 190153Z 21017G31KT 10SM -RA BKN009 BKN016 OVC055 07/04 A2957 RMK AO2 PK WND 21031/0145 SLP014 P0003 T00720044=
202204190121 SPECI KPAE 190121Z 18015G24KT 4SM -RA BKN006 BKN014 OVC049 09/06 A2955 RMK AO2 P0000 T00940061=
202204190053 METAR KPAE 190053Z 16009KT 4SM -RA FEW022 OVC039 09/06 A2955 RMK AO2 SLP008 P0004 T00890061=
202204182353 METAR KPAE 182353Z 18008KT 4SM -RA BR OVC041 09/07 A2955 RMK AO2 SLP006 P0001 60006 T00940072 10094 20078 55032=
202204182253 METAR KPAE 182253Z 11008KT 5SM -RA FEW041 BKN049 OVC060 09/07 A2954 RMK AO2 SLP004 P0002 T00940067=
202204182153 METAR KPAE 182153Z VRB05KT 4SM -RA BR BKN038 OVC047 08/06 A2959 RMK AO2 SLP022 P0003 T00830061=
202204182053 METAR KPAE 182053Z 18008KT 4SM -RA BR OVC037 08/06 A2964 RMK AO2 SLP038 P0000 60000 T00830061 58029=
202204181953 METAR KPAE 181953Z 21007KT 5SM -RA OVC042 08/06 A2967 RMK AO2 SLP049 P0000 T00830056=
202204181944 SPECI KPAE 181944Z 6SM -RA BR FEW007 OVC040 08/06 A2968 RMK AO2 P0000 T00780056=
202204181853 METAR KPAE 181853Z 19005KT 9SM -RA BKN046 OVC055 08/05 A2970 RMK AO2 RAB13 SLP059 P0000 T00830050=
202204181753 METAR KPAE 181753Z 21004KT 10SM OVC060 08/04 A2973 RMK AO2 SLP068 60000 T00780044 10106 20078 56029=
202204181653 METAR KPAE 181653Z 24005KT 10SM SCT065 OVC080 08/04 A2974 RMK AO2 SLP072 T00780039=
202204181553 METAR KPAE 181553Z 24008KT 10SM BKN060 OVC075 09/03 A2978 RMK AO2 RAE43 SLP084 P0000 T00940033=
202204181453 METAR KPAE 181453Z 15007KT 10SM -RA BKN045 OVC055 09/02 A2981 RMK AO2 RAB29 SLP096 P0000 60000 T00940017 56027=
202204181353 METAR KPAE 181353Z VRB04KT 10SM OVC070 09/00 A2982 RMK AO2 SLP098 T00890000=
202204181253 METAR KPAE 181253Z AUTO 10006KT 10SM FEW055 OVC070 09/01 A2985 RMK AO2 RAE20 SLP107 P0000 T00890011=
202204181153 METAR KPAE 181153Z AUTO 13008G14KT 100V160 9SM -RA OVC040 08/02 A2990 RMK AO2 RAB20 SLP125 P0000 60000 T00830022 10106 20083 58031=
202204181053 METAR KPAE 181053Z AUTO 17012KT 10SM BKN060 OVC100 08/02 A2993 RMK AO2 PK WND 16026/1017 RAB19E31 SLP138 P0000 T00830022=
202204180953 METAR KPAE 180953Z AUTO 17010KT 10SM SCT049 BKN070 BKN120 10/M01 A2996 RMK AO2 SLP146 T01001006=
202204180853 METAR KPAE 180853Z AUTO 15012G26KT 10SM BKN055 OVC070 11/M02 A2999 RMK AO2 PK WND 14026/0845 SLP157 T01061022 58012=
202204180753 METAR KPAE 180753Z AUTO 16010KT 10SM OVC080 11/M04 A3001 RMK AO2 SLP162 T01061044 401220028=
202204180653 METAR KPAE 180653Z AUTO 15008G18KT 10SM FEW075 SCT095 11/M04 A3002 RMK AO2 SLP167 T01061044=
202204180553 METAR KPAE 180553Z AUTO 15010G18KT 10SM CLR 11/M06 A3003 RMK AO2 SLP169 T01061056 10122 20106 58010=
202204180453 METAR KPAE 180453Z AUTO 14007G18KT 10SM CLR 11/M05 A3004 RMK AO2 SLP174 T01111050=
202204180353 METAR KPAE 180353Z 15009KT 10SM CLR 12/M04 A3005 RMK AO2 SLP179 T01171039=
202204180253 METAR KPAE 180253Z 00000KT 10SM CLR 12/M03 A3006 RMK AO2 SLP180 T01171033 56024=
202204180153 METAR KPAE 180153Z 23005KT 10SM CLR 11/M03 A3008 RMK AO2 SLP187 T01111028=
202204180053 METAR KPAE 180053Z 24007KT 10SM CLR 12/M02 A3010 RMK AO2 SLP196 T01171022=
202204172353 METAR KPAE 172353Z 26006KT 10SM CLR 12/M01 A3013 RMK AO2 SLP205 T01171011 10122 20078 56027=
202204172253 METAR KPAE 172253Z 30005KT 10SM CLR 12/M01 A3016 RMK AO2 SLP213 T01171011=
202204172153 METAR KPAE 172153Z 31006KT 10SM FEW055 11/00 A3018 RMK AO2 SLP224 T01110000=
202204172053 METAR KPAE 172053Z 33003KT 10SM CLR 10/00 A3021 RMK AO2 SLP233 T01000000 56023=
202204171953 METAR KPAE 171953Z VRB05KT 10SM SCT042 11/M01 A3023 RMK AO2 SLP241 T01061011=
202204171853 METAR KPAE 171853Z VRB04KT 10SM BKN039 09/M01 A3025 RMK AO2 SLP248 T00941011=
202204171753 METAR KPAE 171753Z 19008KT 10SM OVC031 08/M01 A3028 RMK AO2 SLP256 T00781006 10083 20039 50001=
202204171653 METAR KPAE 171653Z 14009KT 10SM FEW026 SCT033 07/00 A3028 RMK AO2 SLP258 T00720000=
202204171553 METAR KPAE 171553Z VRB04KT 10SM CLR 06/01 A3028 RMK AO2 SLP257 T00560006=
202204171453 METAR KPAE 171453Z 14006KT 10SM FEW024 OVC033 04/01 A3028 RMK AO2 SLP256 T00440006 51012=
202204171353 METAR KPAE 171353Z 15006KT 10SM FEW014 OVC025 04/01 A3027 RMK AO2 SLP254 T00440006=
202204171253 METAR KPAE 171253Z AUTO 14007KT 10SM OVC019 04/01 A3025 RMK AO2 SLP248 T00390006=
202204171153 METAR KPAE 171153Z AUTO 17007KT 10SM OVC017 04/01 A3024 RMK AO2 SLP243 T00440011 10044 20028 53015=
202204171053 METAR KPAE 171053Z AUTO 15007KT 10SM OVC019 04/01 A3023 RMK AO2 SLP239 T00440006=
202204170953 METAR KPAE 170953Z AUTO 15007KT 10SM OVC019 04/01 A3021 RMK AO2 SLP232 T00390006=
202204170853 METAR KPAE 170853Z AUTO 15007KT 10SM OVC017 04/01 A3019 RMK AO2 SLP228 T00390011 51020=
202204170827 SPECI KPAE 170827Z AUTO VRB04KT 10SM BKN019 03/01 A3019 RMK AO2 T00330011=
202204170753 METAR KPAE 170753Z AUTO 12003KT 10SM CLR 03/01 A3018 RMK AO2 SLP223 T00330011 401060011=
202204170653 METAR KPAE 170653Z AUTO 12005KT 10SM CLR 03/02 A3016 RMK AO2 SLP215 T00330017=
202204170553 METAR KPAE 170553Z AUTO 11008KT 10SM FEW029 04/02 A3013 RMK AO2 RAE0458 SLP208 P0000 60000 T00390017 10072 20039 51025=
202204170453 METAR KPAE 170453Z AUTO 14004KT 10SM -RA FEW024 BKN055 OVC080 05/02 A3012 RMK AO2 SLP203 P0000 T00500017=
202204170446 SPECI KPAE 170446Z AUTO VRB04KT 10SM -RA FEW015 SCT024 OVC055 05/01 A3012 RMK AO2 P0000 T00500011=
202204170435 SPECI KPAE 170435Z AUTO 15007KT 10SM -RA FEW015 BKN024 OVC050 05/01 A3011 RMK AO2 P0000 T00500011=
202204170416 SPECI KPAE 170416Z AUTO VRB04KT 10SM -RA FEW017 OVC035 06/02 A3010 RMK AO2 LTG DSNT S P0000 T00560017=
202204170353 METAR KPAE 170353Z AUTO 17005KT 8SM -RA OVC025 06/01 A3009 RMK AO2 RAB18 SLP194 P0000 T00560011=
202204170253 METAR KPAE 170253Z 00000KT 10SM BKN050 BKN070 06/M01 A3006 RMK AO2 SLP183 T00611011 53029=
202204170153 METAR KPAE 170153Z 24005KT 10SM FEW020 BKN030 OVC075 07/01 A3003 RMK AO2 SLP172 T00670011=
202204170053 METAR KPAE 170053Z 23008KT 10SM SCT055 OVC070 07/01 A2999 RMK AO2 SLP160 T00720011=
202204162353 METAR KPAE 162353Z 23008KT 10SM BKN070 OVC090 07/M01 A2997 RMK AO2 SLP153 T00721011 10106 20067 51027=
202204162253 METAR KPAE 162253Z 23011KT 10SM BKN060 OVC075 07/01 A2995 RMK AO2 SLP146 T00670011=
202204162153 METAR KPAE 162153Z 35006KT 10SM SCT045 SCT055 09/00 A2992 RMK AO2 SLP134 T00890000=
202204162053 METAR KPAE 162053Z 36009KT 10SM CLR 10/M01 A2989 RMK AO2 SLP124 T01001011 53005=
202204161953 METAR KPAE 161953Z 35007KT 320V030 10SM CLR 09/M01 A2988 RMK AO2 SLP121 T00891006=
202204161853 METAR KPAE 161853Z 01008KT 10SM OVC085 08/00 A2988 RMK AO2 SLP120 T00830000=
202204161753 METAR KPAE 161753Z 34007KT 10SM FEW095 07/01 A2987 RMK AO2 SLP119 T00670006 10067 20011 53002=
202204161653 METAR KPAE 161653Z 36007KT 10SM OVC100 05/M01 A2987 RMK AO2 SLP117 T00501006=
202204161553 METAR KPAE 161553Z 35005KT 10SM BKN100 04/M01 A2987 RMK AO2 SLP118 T00441011=
202204161453 METAR KPAE 161453Z 36004KT 10SM BKN110 03/M01 A2987 RMK AO2 SLP117 T00331011 56010=
202204161353 METAR KPAE 161353Z 01005KT 10SM CLR 02/M01 A2987 RMK AO2 SLP119 T00171011=
202204161253 METAR KPAE 161253Z AUTO VRB03KT 10SM CLR 02/M01 A2988 RMK AO2 SLP122 T00171011=
202204161153 METAR KPAE 161153Z AUTO 01004KT 10SM CLR 02/M01 A2990 RMK AO2 SLP127 T00221006 10056 20017 56026=
202204161053 METAR KPAE 161053Z AUTO 35003KT 10SM CLR 02/01 A2992 RMK AO2 SLP135 T00220006=
202204160953 METAR KPAE 160953Z AUTO 01006KT 10SM CLR 03/00 A2995 RMK AO2 SLP143 T00330000=
202204160853 METAR KPAE 160853Z AUTO 05004KT 10SM CLR 03/00 A2998 RMK AO2 SLP155 T00330000 56019=
202204160753 METAR KPAE 160753Z AUTO 05004KT 10SM CLR 04/00 A2999 RMK AO2 SLP160 T00440000 401000022=
202204160653 METAR KPAE 160653Z AUTO 09003KT 10SM CLR 04/01 A3001 RMK AO2 SLP167 T00440006=
202204160553 METAR KPAE 160553Z AUTO 02003KT 10SM FEW031 06/02 A3004 RMK AO2 RAB09E31 SLP175 P0000 60000 T00560017 10100 20056 50004=
202204160453 METAR KPAE 160453Z 30003KT 10SM SCT065 BKN080 OVC090 06/02 A3004 RMK AO2 SLP177 T00560017=
202204160353 METAR KPAE 160353Z 34004KT 10SM OVC075 07/M01 A3003 RMK AO2 SLP173 T00671011=
202204160253 METAR KPAE 160253Z 28004KT 10SM BKN075 08/M05 A3002 RMK AO2 SLP170 T00781050 55009=
202204160153 METAR KPAE 160153Z 26005KT 10SM SCT060 09/M05 A3002 RMK AO2 SLP169 T00891050=
202204160053 METAR KPAE 160053Z 24008KT 10SM CLR 10/M03 A3003 RMK AO2 SLP173 T01001033=
202204152353 METAR KPAE 152353Z VRB04KT 10SM FEW060 10/M02 A3005 RMK AO2 SLP178 T01001017 10100 20056 58016=
202204152253 METAR KPAE 152253Z 27005KT 10SM BKN055 09/M02 A3007 RMK AO2 SLP185 T00891017=
202204152153 METAR KPAE 152153Z 24008KT 10SM BKN042 BKN055 08/M01 A3009 RMK AO2 SLP193 T00831011=
202204152053 METAR KPAE 152053Z VRB06KT 10SM SCT037 BKN044 OVC070 08/M01 A3010 RMK AO2 SLP196 T00781011 58004=
202204151953 METAR KPAE 151953Z 27007KT 10SM FEW029 SCT033 BKN065 07/01 A3011 RMK AO2 SLP198 T00670006=
202204151853 METAR KPAE 151853Z 21005KT 10SM BKN026 BKN070 07/01 A3011 RMK AO2 SLP200 T00670006=
202204151837 SPECI KPAE 151837Z 16006KT 10SM SCT023 SCT030 07/00 A3011 RMK AO2 T00720000=
202204151753 METAR KPAE 151753Z 19007KT 10SM FEW016 BKN025 BKN075 06/M01 A3011 RMK AO2 SLP200 T00561006 10061 20028 51014=
202204151653 METAR KPAE 151653Z 21005KT 10SM OVC015 04/00 A3010 RMK AO2 SLP197 T00390000=
202204151645 SPECI KPAE 151645Z 21006KT 10SM OVC013 04/01 A3010 RMK AO2 T00390006=
202204151637 SPECI KPAE 151637Z 20005KT 10SM OVC015 04/01 A3010 RMK AO2 T00390006=
202204151553 METAR KPAE 151553Z 19003KT 10SM OVC013 04/01 A3009 RMK AO2 SLP193 T00390006=
202204151453 METAR KPAE 151453Z 17006KT 10SM OVC010 03/01 A3007 RMK AO2 CIG 007V012 SLP185 T00330006 52012=
202204151353 METAR KPAE 151353Z 16005KT 10SM BKN011 OVC060 03/01 A3006 RMK AO2 CIG 008V013 SLP182 T00330006=
202204151253 METAR KPAE 151253Z AUTO 16006KT 10SM OVC055 03/01 A3004 RMK AO2 SLP176 T00280006=
202204151153 METAR KPAE 151153Z AUTO 15005KT 10SM FEW013 OVC048 03/01 A3003 RMK AO2 SLP173 70003 T00330006 10033 20022 51008=
202204151116 SPECI KPAE 151116Z AUTO 16007KT 10SM SCT018 BKN042 OVC048 03/01 A3003 RMK AO2 T00330006=
202204151053 METAR KPAE 151053Z AUTO 15005KT 10SM BKN017 OVC050 03/01 A3003 RMK AO2 SLP172 T00330006=
202204151026 SPECI KPAE 151026Z AUTO 17005KT 10SM FEW013 BKN021 BKN050 03/00 A3002 RMK AO2 T00280000=
202204150953 METAR KPAE 150953Z AUTO 16005KT 10SM BKN012 BKN041 OVC075 03/01 A3002 RMK AO2 SLP169 T00280006=
202204150907 SPECI KPAE 150907Z AUTO 15007KT 10SM FEW009 FEW075 03/00 A3001 RMK AO2 T00280000=
202204150853 METAR KPAE 150853Z AUTO 15006KT 10SM CLR 03/00 A3001 RMK AO2 SLP166 T00280000 53010=
202204150753 METAR KPAE 150753Z AUTO 16008KT 10SM SCT037 03/01 A3000 RMK AO2 SLP162 T00280006 400780022=
202204150653 METAR KPAE 150653Z AUTO 16006KT 10SM CLR 03/00 A2999 RMK AO2 SLP159 T00280000=
202204150553 METAR KPAE 150553Z AUTO 16007KT 10SM CLR 03/00 A2998 RMK AO2 SLP155 T00330000 10072 20033 51015=
202204150453 METAR KPAE 150453Z AUTO 00000KT 10SM SCT044 OVC060 04/M01 A2996 RMK AO2 SLP150 T00441006=
202204150353 METAR KPAE 150353Z 00000KT 10SM CLR 04/M01 A2995 RMK AO2 SLP145 T00441011=
202204150253 METAR KPAE 150253Z 10004KT 10SM CLR 05/M01 A2993 RMK AO2 SLP139 T00501006 53003=
202204150153 METAR KPAE 150153Z 10006KT 10SM FEW029 06/M01 A2993 RMK AO2 SLP137 T00611006=
202204150053 METAR KPAE 150053Z 36005KT 10SM CLR 07/M02 A2992 RMK AO2 SLP135 T00671022=
202204142353 METAR KPAE 142353Z 35004KT 10SM FEW039 07/M02 A2992 RMK AO2 SLP136 60003 T00721017 10078 20033 56004=
202204142253 METAR KPAE 142253Z 27003KT 10SM FEW055 SCT070 BKN090 07/M03 A2993 RMK AO2 SLP137 T00721028=
202204142200 SPECI KPAE 142200Z 17003KT 10SM BKN060 OVC075 06/M01 A2992 RMK AO2 T00561006=
202204142153 METAR KPAE 142153Z 16005KT 10SM SCT009 BKN015 OVC090 06/M01 A2992 RMK AO2 SLP136 T00561011=
202204142053 METAR KPAE 142053Z VRB04KT 10SM SCT009 BKN015 OVC090 04/00 A2993 RMK AO2 RAE20 SLP140 P0000 60003 T00440000 50004=
202204142046 SPECI KPAE 142046Z 16006KT 10SM SCT009 BKN015 OVC090 05/01 A2993 RMK AO2 RAE20 P0000 T00500011=
202204142000 SPECI KPAE 142000Z 21007KT 10SM -RA FEW019 FEW034 OVC045 04/01 A2993 RMK AO2 P0000 T00390011=
202204141953 METAR KPAE 141953Z 20004KT 10SM -RA BKN027 BKN050 OVC060 04/01 A2993 RMK AO2 SLP141 P0001 T00390011=
202204141853 METAR KPAE 141853Z 22005KT 3SM RA BKN027 BKN050 OVC060 03/00 A2993 RMK AO2 RAE1756B27 SLP139 P0002 T00330000=
202204141836 SPECI KPAE 141836Z 23006KT 10SM -RA BKN027 BKN050 OVC060 04/01 A2992 RMK AO2 RAE1756B27 P0000 T00440006=
202204141800 SPECI KPAE 141800Z 26006KT 10SM FEW027 BKN038 OVC060 05/00 A2992 RMK AO2 RAE1756 P0000 T00500000=
202204141753 METAR KPAE 141753Z 26007KT 10SM -RA BKN027 BKN042 OVC060 05/00 A2992 RMK AO2 RAB46 SLP135 P0000 60000 T00500000 10056 20028 58000=
202204141702 SPECI KPAE 141702Z 27007KT 10SM SCT011 BKN030 OVC080 05/01 A2992 RMK AO2 T00500011=
202204141653 METAR KPAE 141653Z 22006KT 10SM FEW011 BKN029 OVC080 05/01 A2992 RMK AO2 SLP137 T00500011=
202204141553 METAR KPAE 141553Z 19005KT 10SM FEW007 BKN070 OVC085 04/00 A2992 RMK AO2 SLP136 T00440000=
202204141517 SPECI KPAE 141517Z 17004KT 9SM FEW008 BKN070 OVC080 03/01 A2992 RMK AO2 T00330006=
202204141453 METAR KPAE 141453Z 15004KT 9SM FEW029 SCT060 OVC070 03/01 A2992 RMK AO2 SLP135 T00330006 53008=
202204141353 METAR KPAE 141353Z 15005KT 9SM OVC075 03/01 A2990 RMK AO2 SLP130 T00330006=
202204141253 METAR KPAE 141253Z AUTO 15005KT 10SM OVC080 03/01 A2990 RMK AO2 SLP127 T00280006=
202204141153 METAR KPAE 141153Z AUTO 15007KT 10SM OVC080 03/00 A2990 RMK AO2 SLP127 T00330000 10044 20028 56013=
202204141053 METAR KPAE 141053Z AUTO 00000KT 10SM FEW065 BKN080 OVC100 04/00 A2990 RMK AO2 SLP128 T00390000=
202204140953 METAR KPAE 140953Z AUTO 24007KT 10SM BKN055 OVC075 04/00 A2991 RMK AO2 SLP132 T00390000=
202204140853 METAR KPAE 140853Z AUTO 16005KT 10SM FEW060 OVC070 04/00 A2994 RMK AO2 SLP140 T00390000 55003=
202204140753 METAR KPAE 140753Z AUTO 19004KT 10SM OVC100 03/00 A2993 RMK AO2 SLP140 T00330000 400940006=
202204140653 METAR KPAE 140653Z AUTO 22004KT 10SM OVC110 04/00 A2993 RMK AO2 SLP140 T00390000=
202204140553 METAR KPAE 140553Z AUTO 22005KT 10SM OVC100 04/00 A2995 RMK AO2 SLP144 T00440000 10094 20039 58006=
202204140453 METAR KPAE 140453Z 22005KT 10SM FEW120 04/00 A2996 RMK AO2 SLP149 T00440000=
202204140353 METAR KPAE 140353Z 25005KT 10SM CLR 05/M01 A2996 RMK AO2 SLP150 T00501006=
202204140253 METAR KPAE 140253Z 26006KT 10SM CLR 06/M01 A2996 RMK AO2 SLP150 T00561006 58007=
202204140153 METAR KPAE 140153Z 25006KT 10SM SCT090 07/M02 A2997 RMK AO2 SLP153 T00671017=
202204140053 METAR KPAE 140053Z VRB06G14KT 10SM BKN065 OVC085 09/M07 A2998 RMK AO2 SLP156 T00891072=
202204132353 METAR KPAE 132353Z 10SM OVC085 09/M07 A2998 RMK AO2 SLP157 T00891067 10089 20061 58010=
202204132253 METAR KPAE 132253Z VRB03KT 10SM OVC080 08/M07 A3000 RMK AO2 SLP161 T00781072=
202204132153 METAR KPAE 132153Z VRB04KT 10SM SCT060 OVC075 08/M06 A3001 RMK AO2 SLP166 T00781061=
202204132053 METAR KPAE 132053Z 11007KT 070V160 10SM SCT060 OVC080 08/M07 A3001 RMK AO2 SLP167 T00831072 50003=
202204131953 METAR KPAE 131953Z 10009G16KT 10SM BKN065 BKN075 07/M08 A3002 RMK AO2 SLP169 T00721078=
202204131853 METAR KPAE 131853Z 11008KT 10SM OVC065 07/M07 A3002 RMK AO2 SLP169 T00671072=
202204131753 METAR KPAE 131753Z 11010G17KT 080V140 10SM OVC065 07/M07 A3000 RMK AO2 SLP164 T00671072 10067 20022 53012=
202204131653 METAR KPAE 131653Z 10012G19KT 10SM OVC095 06/M07 A2999 RMK AO2 SLP158 T00561067=
202204131553 METAR KPAE 131553Z 09010G15KT 10SM SCT100 05/M06 A2997 RMK AO2 SLP153 T00501056=
202204131453 METAR KPAE 131453Z 09006KT 10SM FEW080 FEW110 04/M03 A2997 RMK AO2 SLP152 T00391033 53004=
202204131353 METAR KPAE 131353Z 05004KT 10SM SCT065 02/M01 A2996 RMK AO2 SLP149 T00221011=
202204131253 METAR KPAE 131253Z AUTO 06004KT 10SM BKN110 02/M01 A2995 RMK AO2 SLP148 T00221006=
202204131153 METAR KPAE 131153Z AUTO 00000KT 10SM CLR 02/M01 A2996 RMK AO2 SLP149 T00221011 10033 20006 56005=
202204131053 METAR KPAE 131053Z AUTO 05004KT 10SM SCT080 SCT100 02/M01 A2996 RMK AO2 SLP149 T00221011=
202204130953 METAR KPAE 130953Z AUTO 03003KT 10SM BKN090 02/M01 A2996 RMK AO2 SLP151 T00221011=
202204130853 METAR KPAE 130853Z AUTO 17003KT 10SM CLR 02/M01 A2997 RMK AO2 SLP154 T00171011 58006=
202204130753 METAR KPAE 130753Z AUTO 17003KT 10SM FEW060 BKN075 03/M01 A2998 RMK AO2 SLP157 T00281006 400720028=
202204130653 METAR KPAE 130653Z AUTO 15004KT 10SM OVC080 03/M01 A2998 RMK AO2 SLP156 T00331006=
202204130553 METAR KPAE 130553Z AUTO 15007KT 10SM SCT026 BKN043 OVC110 03/M01 A2999 RMK AO2 SLP159 T00331006 10056 20028 51007=
202204130453 METAR KPAE 130453Z AUTO 15008KT 10SM FEW029 SCT050 03/M01 A2999 RMK AO2 SLP158 T00281006=
202204130353 METAR KPAE 130353Z 16006KT 10SM CLR 03/00 A2998 RMK AO2 SLP157 T00330000=
202204130253 METAR KPAE 130253Z 15008KT 10SM CLR 04/M01 A2997 RMK AO2 SLP152 T00441011 53002=
202204130153 METAR KPAE 130153Z VRB06KT 10SM SCT024 BKN030 05/M01 A2996 RMK AO2 SLP151 T00501006=
202204130053 METAR KPAE 130053Z 14010G17KT 090V160 10SM FEW030 BKN060 OVC095 05/M02 A2997 RMK AO2 SLP151 T00501017=
202204122353 METAR KPAE 122353Z 15009G16KT 10SM FEW032 06/M02 A2996 RMK AO2 PK WND 19028/2311 SLP150 60000 T00561017 10072 20039 51008=
202204122253 METAR KPAE 122253Z 18018G24KT 10SM SCT018 BKN037 OVC060 06/M01 A2996 RMK AO2 RAE2159B28E43SNB2159E19 SLP149 P0000 T00561011=
202204122225 SPECI KPAE 122225Z 23013G19KT 10SM BKN020 BKN028 OVC070 05/01 A2996 RMK AO2 RAE2159SNB2159E19 P0000 T00500006=
202204122205 SPECI KPAE 122205Z 20013G23KT 7SM -SN BKN008 OVC049 04/M01 A2996 RMK AO2 RAE2159SNB2159 P0000 T00391006=
202204122153 METAR KPAE 122153Z 21014G24KT 10SM -RA BKN039 OVC049 04/M02 A2996 RMK AO2 PK WND 23026/2131 WSHFT 2117 RAE2056B49 SLP150 P0000 T00441017=
202204122137 SPECI KPAE 122137Z 24014G26KT 10SM BKN039 BKN047 OVC055 05/M02 A2995 RMK AO2 PK WND 23026/2131 WSHFT 2117 RAE2056 P0000 T00501022=
202204122053 METAR KPAE 122053Z 17009KT 10SM -RA BKN040 OVC049 06/M02 A2994 RMK AO2 RAB46 SLP142 P0000 60000 T00611017 51011=
202204121953 METAR KPAE 121953Z 18016G22KT 10SM SCT035 BKN046 07/M02 A2993 RMK AO2 SLP137 T00721022=
202204121900 SPECI KPAE 121900Z 16017G25KT 10SM FEW028 SCT034 BKN043 06/M01 A2993 RMK AO2 T00611011=
202204121853 METAR KPAE 121853Z 18014G23KT 10SM FEW019 BKN024 BKN075 07/M01 A2992 RMK AO2 SLP136 T00671011=
202204121753 METAR KPAE 121753Z 17013G20KT 10SM SCT019 BKN024 BKN070 06/M01 A2991 RMK AO2 PK WND 17028/1658 SLP131 60000 T00561006 10056 20033 53017=
202204121743 SPECI KPAE 121743Z 15015G22KT 10SM SCT019 BKN024 BKN075 05/M01 A2991 RMK AO2 PK WND 17028/1658 T00501006=
202204121705 SPECI KPAE 121705Z 16017G28KT 10SM SCT019 OVC080 05/M01 A2989 RMK AO2 PK WND 17028/1658 T00501006=
202204121653 METAR KPAE 121653Z 16015G26KT 10SM BKN019 BKN028 BKN080 06/00 A2989 RMK AO2 PK WND 15026/1647 SLP123 T00560000=
202204121553 METAR KPAE 121553Z 16011KT 10SM BKN018 OVC026 04/00 A2988 RMK AO2 RAB1455E11 SLP121 P0000 T00390000=
202204121500 SPECI KPAE 121500Z 16018G26KT 6SM -RA OVC015 03/00 A2986 RMK AO2 RAB1455 P0000 T00330000=
202204121453 METAR KPAE 121453Z 17015G26KT 9SM OVC009 04/00 A2986 RMK AO2 PK WND 16026/1453 SLP114 T00390000 53012=
202204121424 SPECI KPAE 121424Z 16012G20KT 10SM BKN016 04/M01 A2985 RMK AO2 T00391006=
202204121353 METAR KPAE 121353Z 16012G21KT 10SM CLR 04/M01 A2984 RMK AO2 SLP108 T00391006=
202204121311 SPECI KPAE 121311Z AUTO 17012KT 10SM SCT018 04/M01 A2983 RMK AO2 T00391011=
202204121253 METAR KPAE 121253Z AUTO 17011KT 10SM OVC019 04/M01 A2983 RMK AO2 SLP103 T00391006=
202204121153 METAR KPAE 121153Z AUTO 18015G22KT 10SM BKN019 BKN050 OVC090 04/00 A2982 RMK AO2 RAB09E23 SLP101 P0000 60000 T00440000 10056 20039 51008=
202204121053 METAR KPAE 121053Z AUTO 18015G22KT 10SM FEW018 BKN060 BKN085 04/00 A2981 RMK AO2 RAB16E29 SLP098 P0000 T00440000=
202204120953 METAR KPAE 120953Z AUTO 16009KT 10SM SCT070 04/00 A2981 RMK AO2 SLP096 T00440000=
202204120853 METAR KPAE 120853Z AUTO 15008KT 10SM SCT075 BKN100 04/00 A2980 RMK AO2 SLP093 T00440000 53011=
202204120753 METAR KPAE 120753Z AUTO 16009KT 10SM BKN100 04/01 A2979 RMK AO2 SLP089 T00440006 401110017=
202204120653 METAR KPAE 120653Z AUTO 16008KT 10SM FEW050 05/01 A2977 RMK AO2 SLP085 T00500006=
202204120553 METAR KPAE 120553Z AUTO 18004KT 10SM FEW050 SCT100 06/00 A2976 RMK AO2 SLP081 T00560000 10111 20056 52018=
202204120453 METAR KPAE 120453Z AUTO 17009KT 10SM CLR 06/00 A2974 RMK AO2 SLP075 T00610000=
202204120353 METAR KPAE 120353Z AUTO 16006KT 10SM OVC085 06/00 A2973 RMK AO2 SLP071 T00610000=
202204120253 METAR KPAE 120253Z 16006KT 10SM CLR 07/M01 A2971 RMK AO2 SLP064 T00671011 51017=
202204120153 METAR KPAE 120153Z 11007KT 10SM OVC080 07/M01 A2970 RMK AO2 SLP061 T00721006=
202204120053 METAR KPAE 120053Z 10007KT 10SM BKN070 08/00 A2968 RMK AO2 SLP052 T00830000=
202204112353 METAR KPAE 112353Z 33007G15KT 10SM CLR 10/M04 A2966 RMK AO2 SLP045 T01001044 10106 20072 53012=
202204112253 METAR KPAE 112253Z 32011G19KT 10SM R16R/4500VP6000FT CLR 10/M03 A2964 RMK AO2 SLP040 T01001033=
202204112153 METAR KPAE 112153Z 32009G19KT 10SM CLR 11/M02 A2963 RMK AO2 SLP035 T01061017=
202204112053 METAR KPAE 112053Z 33007G18KT 300V020 10SM BKN095 10/M02 A2962 RMK AO2 SLP033 T01001022 51016=
202204111953 METAR KPAE 111953Z 34007KT 290V010 10SM CLR 09/M02 A2961 RMK AO2 SLP028 T00941017=
202204111853 METAR KPAE 111853Z 35010KT 10SM BKN110 09/M01 A2959 RMK AO2 SLP023 T00891011=
202204111753 METAR KPAE 111753Z 34007KT 10SM FEW070 OVC090 07/M01 A2957 RMK AO2 SLP017 T00721011 10072 20028 53018=
202204111653 METAR KPAE 111653Z 33008KT 10SM SCT020 OVC080 06/M01 A2955 RMK AO2 SLP010 T00611006=
202204111553 METAR KPAE 111553Z 35014G21KT 10SM SCT020 OVC080 04/M01 A2953 RMK AO2 SLP004 T00441006=
202204111500 SPECI KPAE 111500Z 35008G16KT 10SM OVC090 04/01 A2952 RMK AO2 T00390006=
202204111453 METAR KPAE 111453Z 35009G19KT 10SM SCT008 BKN012 OVC080 04/00 A2952 RMK AO2 SLP000 T00390000 53006=
202204111353 METAR KPAE 111353Z 34009G20KT 10SM SCT008 BKN012 OVC080 03/01 A2950 RMK AO2 SLP993 T00330011=
202204111253 METAR KPAE 111253Z AUTO 34009G20KT 10SM OVC008 03/01 A2949 RMK AO2 SLP991 T00330011=
202204111153 METAR KPAE 111153Z AUTO 34013G26KT 10SM OVC005 03/01 A2950 RMK AO2 PK WND 34027/1128 CIG 004V009 SLP993 70006 T00280011 10028 20017 56033=
202204111120 SPECI KPAE 111120Z AUTO 34011G25KT 10SM OVC006 03/01 A2952 RMK AO2 T00280011=
202204111053 METAR KPAE 111053Z AUTO 34013G22KT 10SM OVC004 03/01 A2952 RMK AO2 SLP001 T00280011=
202204111027 SPECI KPAE 111027Z AUTO 34009G21KT 10SM BKN004 OVC009 03/01 A2953 RMK AO2 T00280011=
202204111013 SPECI KPAE 111013Z AUTO 34012G19KT 10SM BKN006 OVC070 03/01 A2954 RMK AO2 T00280011=
202204111000 SPECI KPAE 111000Z AUTO 35010G18KT 10SM SCT006 OVC070 02/01 A2955 RMK AO2 T00220006=
202204110953 METAR KPAE 110953Z AUTO 34012G18KT 10SM SCT006 BKN010 OVC070 02/01 A2955 RMK AO2 SLP010 T00220006=
202204110853 METAR KPAE 110853Z AUTO 35006KT 10SM FEW001 FEW006 OVC090 02/01 A2960 RMK AO2 SLP027 T00220006 58049=
202204110827 SPECI KPAE 110827Z AUTO 02005KT 3SM BR BKN001 OVC085 02/00 A2963 RMK AO2 T00170000=
202204110815 SPECI KPAE 110815Z AUTO 01005KT 1SM R16R/P6000FT BR BKN001 OVC085 02/00 A2964 RMK AO2 VIS 1/2V3 T00170000=
202204110809 SPECI KPAE 110809Z AUTO 02006KT 2SM BR FEW001 BKN085 02/00 A2964 RMK AO2 T00170000=
202204110753 METAR KPAE 110753Z AUTO 01005KT 10SM FEW085 02/00 A2965 RMK AO2 SLP045 T00220000 400780017=
202204110653 METAR KPAE 110653Z AUTO 00000KT 10SM CLR 02/M01 A2970 RMK AO2 SLP061 T00221006=
202204110553 METAR KPAE 110553Z AUTO 10005KT 10SM CLR 02/01 A2975 RMK AO2 SLP078 60004 T00220006 10039 20022 58035=
202204110541 SPECI KPAE 110541Z AUTO 11005KT 10SM FEW015 02/01 A2976 RMK AO2 T00220006=
202204110524 SPECI KPAE 110524Z AUTO 09004KT 10SM SCT006 OVC015 03/01 A2977 RMK AO2 T00280006=
202204110506 SPECI KPAE 110506Z AUTO 09003KT 10SM BKN006 OVC013 03/01 A2979 RMK AO2 CIG 004V010 T00280011=
202204110453 METAR KPAE 110453Z AUTO 00000KT 10SM FEW006 OVC013 02/01 A2980 RMK AO2 RAB10E30 SLP094 P0000 T00220006=
202204110431 SPECI KPAE 110431Z AUTO 05005KT 10SM SCT002 SCT008 OVC014 02/01 A2981 RMK AO2 RAB10E30 P0000 T00220006=
202204110353 METAR KPAE 110353Z AUTO 02005KT 9SM OVC003 03/01 A2983 RMK AO2 RAE36UPB32E45 CIG 001V005 SLP106 P0000 T00280011=
202204110345 SPECI KPAE 110345Z 02006KT 9SM BKN003 OVC009 03/01 A2983 RMK AO2 RAE36UPB32E45 P0000 T00280011=
202204110253 METAR KPAE 110253Z 00000KT 6SM -RA BR OVC006 03/01 A2985 RMK AO2 RAB06 SLP113 P0001 60004 T00280011 56014=
202204110248 SPECI KPAE 110248Z 00000KT 2 1/2SM -RA BR OVC006 03/01 A2985 RMK AO2 RAB06 P0001=
202204110231 SPECI KPAE 110231Z 03003KT 3SM -RA BR OVC006 03/01 A2986 RMK AO2 RAB06 P0000 T00330011=
202204110217 SPECI KPAE 110217Z 11003KT 5SM -RA BR FEW013 BKN026 OVC047 03/02 A2986 RMK AO2 RAB06 P0000 T00330017=
202204110153 METAR KPAE 110153Z 10006KT 10SM FEW003 BKN050 OVC110 03/01 A2987 RMK AO2 RAE33 SLP120 P0000 T00330011=
202204110133 SPECI KPAE 110133Z 11007KT 10SM FEW003 BKN033 OVC055 03/01 A2988 RMK AO2 RAE33 P0000 T00280011=
202204110053 METAR KPAE 110053Z 10007KT 6SM -RA BR BKN020 OVC027 03/01 A2989 RMK AO2 SLP128 P0003 T00330011=
202204110003 SPECI KPAE 110003Z 10SM -RA BKN019 BKN030 OVC034 06/01 A2990 RMK AO2 P0000 T00560011=
202204102353 METAR KPAE 102353Z 36005KT 10SM -RA SCT017 06/01 A2990 RMK AO2 RAB49 SLP130 P0000 60000 T00610011 10078 20039 56020=
202204102253 METAR KPAE 102253Z 30005KT 10SM CLR 07/01 A2992 RMK AO2 SLP136 T00670011=
202204102153 METAR KPAE 102153Z 23006KT 10SM FEW023 SCT043 07/01 A2994 RMK AO2 SLP144 T00720006=
202204102108 SPECI KPAE 102108Z 26007KT 10SM SCT018 07/02 A2996 RMK AO2 T00720017=
202204102053 METAR KPAE 102053Z 26005KT 10SM SCT015 BKN019 07/02 A2996 RMK AO2 SLP150 60000 T00670022 58011=
202204102000 SPECI KPAE 102000Z VRB05KT 10SM SCT013 SCT018 BKN025 06/02 A2998 RMK AO2 T00610022=
202204101953 METAR KPAE 101953Z VRB06KT 10SM BKN009 OVC015 06/02 A2998 RMK AO2 SLP156 T00560017=
202204101853 METAR KPAE 101853Z VRB03KT 10SM BKN009 OVC015 05/02 A2999 RMK AO2 RAB1757E24 SLP160 P0000 T00500017=
202204101753 METAR KPAE 101753Z 29004KT 10SM OVC002 04/01 A3000 RMK AO2 RAB10E45 SLP161 P0000 60002 T00390011 10044 20017 50004=
202204101653 METAR KPAE 101653Z VRB03KT 9SM OVC005 03/01 A3000 RMK AO2 SLP163 T00330011=
202204101553 METAR KPAE 101553Z 30004KT 5SM BR OVC005 03/01 A2999 RMK AO2 RAB09E28UPB10E12 SLP162 P0000 T00280011=
202204101453 METAR KPAE 101453Z 00000KT 10SM OVC005 02/01 A2999 RMK AO2 RAE14UPB14E27 SLP159 P0000 60002 T00220006 55000=
202204101353 METAR KPAE 101353Z 10005KT 8SM -RA OVC008 02/00 A2998 RMK AO2 SLP156 P0002 T00170000=
202204101253 METAR KPAE 101253Z AUTO 00000KT 10SM -RA OVC005 02/01 A2998 RMK AO2 RAB25UPB26E28 SLP157 P0000 T00220011=
202204101153 METAR KPAE 101153Z AUTO 15005KT 9SM OVC006 02/01 A2999 RMK AO2 RAE35 SLP157 P0003 60016 70016 T00220006 10044 20017 55008=
202204101053 METAR KPAE 101053Z AUTO 16009KT 4SM RA BR BKN008 OVC013 03/01 A2998 RMK AO2 SLP157 P0004 T00280011=
202204100953 METAR KPAE 100953Z AUTO VRB03KT 5SM -RA BR BKN007 OVC013 02/01 A2999 RMK AO2 RAB00E07B21SNE0855 SLP161 P0002 T00220006=
202204100926 SPECI KPAE 100926Z AUTO VRB03KT 5SM -RA BR FEW006 BKN012 OVC025 02/01 A3000 RMK AO2 RAB00E07B21SNE0855 P0001 T00220006=
202204100917 SPECI KPAE 100917Z AUTO VRB03KT 10SM SCT006 BKN016 OVC023 02/01 A3001 RMK AO2 RAB00E07SNE0855 P0000 T00220006=
202204100903 SPECI KPAE 100903Z AUTO VRB03KT 10SM -RA BKN006 BKN010 OVC021 02/01 A3001 RMK AO2 RAB00SNE0855 P0000 T00220006=
202204100853 METAR KPAE 100853Z AUTO VRB03KT 8SM -SN SCT006 OVC011 02/00 A3001 RMK AO2 UPB03E11SNE03B11 SLP166 P0000 60007 T00170000 56018=
202204100844 SPECI KPAE 100844Z AUTO VRB04KT 4SM -SN BR SCT006 OVC013 02/00 A3002 RMK AO2 UPB03E11SNE03B11 P0000 T00170000=
202204100800 SPECI KPAE 100800Z AUTO 6SM -SN BR SCT004 BKN008 OVC015 02/00 A3002 RMK AO2 P0000 T00170000=
202204100753 METAR KPAE 100753Z AUTO 14007KT 110V170 5SM -SN BR SCT004 SCT008 OVC015 02/00 A3003 RMK AO2 RAE12SNB12 SLP171 P0006 T00170000 401000017=
202204100715 SPECI KPAE 100715Z AUTO 13006KT 4SM -SN BR SCT007 OVC014 02/00 A3004 RMK AO2 RAE12SNB12 P0004 T00220000=
202204100653 METAR KPAE 100653Z AUTO 16011KT 6SM RA BR SCT008 BKN026 OVC043 03/01 A3005 RMK AO2 RAE29B38 SLP179 P0001 T00280006=
202204100636 SPECI KPAE 100636Z AUTO 14009KT 10SM FEW008 SCT016 OVC044 03/01 A3005 RMK AO2 RAE29 P0000 T00330011=
202204100553 METAR KPAE 100553Z AUTO 17011KT 9SM -RA SCT015 OVC034 04/01 A3007 RMK AO2 SLP185 P0000 60000 T00440011 10094 20044 58024=
202204100453 METAR KPAE 100453Z AUTO 18016G23KT 10SM -RA FEW043 OVC050 05/01 A3010 RMK AO2 RAB0357E09B44 SLP196 P0000 T00500006=
202204100353 METAR KPAE 100353Z 14007KT 100V170 10SM BKN042 BKN049 OVC060 05/01 A3012 RMK AO2 SLP205 T00500006=
202204100300 SPECI KPAE 100300Z 11008KT 10SM FEW030 BKN120 06/01 A3014 RMK AO2 T00560006=
202204100253 METAR KPAE 100253Z 10007KT 10SM OVC027 06/01 A3014 RMK AO2 RAB0156E25 SLP209 P0000 60000 T00560006 58023=
202204100153 METAR KPAE 100153Z 11004KT 10SM BKN027 BKN035 07/00 A3017 RMK AO2 SLP220 T00720000=
202204100053 METAR KPAE 100053Z 33007KT 10SM FEW038 08/M01 A3019 RMK AO2 SLP226 T00781011=
202204092353 METAR KPAE 092353Z 02007KT 10SM FEW038 SCT055 BKN070 09/00 A3021 RMK AO2 SLP232 60000 T00940000 10100 20061 56018=
202204092253 METAR KPAE 092253Z 33003KT 10SM BKN037 BKN050 08/M01 A3022 RMK AO2 SLP236 T00831006=
202204092153 METAR KPAE 092153Z 00000KT 10SM SCT009 SCT034 BKN048 08/M01 A3024 RMK AO2 SLP242 T00831006=
202204092108 SPECI KPAE 092108Z 18008KT 10SM SCT009 SCT034 BKN048 07/M01 A3025 RMK AO2 T00671006=
202204092053 METAR KPAE 092053Z 21006KT 10SM OVC008 07/M01 A3026 RMK AO2 SLP250 60000 T00671011 58013=
202204092017 SPECI KPAE 092017Z 21009KT 10SM OVC008 07/M02 A3027 RMK AO2 T00671017=
202204092000 SPECI KPAE 092000Z 23009KT 10SM BKN095 OVC110 06/M01 A3028 RMK AO2 T00611011=
202204091953 METAR KPAE 091953Z 23008KT 10SM BKN005 OVC033 07/M01 A3028 RMK AO2 RAB09E24 SLP257 P0000 T00671011=
202204091916 SPECI KPAE 091916Z 21005KT 9SM -RA BKN006 OVC033 07/M02 A3029 RMK AO2 RAB09 P0000 T00671022=
202204091853 METAR KPAE 091853Z 19006KT 10SM BKN031 BKN038 OVC060 07/M01 A3029 RMK AO2 SLP260 T00721006=
202204091753 METAR KPAE 091753Z 00000KT 10SM FEW024 SCT080 BKN095 06/M01 A3030 RMK AO2 SLP263 60000 T00611006 10067 20033 56007=
202204091653 METAR KPAE 091653Z 00000KT 10SM FEW015 SCT029 OVC100 06/00 A3031 RMK AO2 SLP266 T00560000=
202204091553 METAR KPAE 091553Z 17009KT 10SM BKN070 OVC090 05/02 A3031 RMK AO2 RAB00E23 SLP268 P0000 T00500017=
202204091453 METAR KPAE 091453Z 19005KT 10SM FEW010 BKN036 OVC050 04/01 A3032 RMK AO2 SLP272 T00390011 53001=
202204091353 METAR KPAE 091353Z 16008KT 10SM FEW021 04/01 A3032 RMK AO2 SLP271 T00390006=
202204091253 METAR KPAE 091253Z AUTO 16007KT 10SM CLR 04/01 A3031 RMK AO2 SLP269 T00390011=
202204091203 SPECI KPAE 091203Z AUTO 15006KT 10SM SCT028 BKN034 04/01 A3032 RMK AO2 T00440011=
202204091153 METAR KPAE 091153Z AUTO 16005KT 10SM BKN028 BKN034 04/01 A3032 RMK AO2 SLP270 70013 T00440011 10067 20044 51004=
202204091053 METAR KPAE 091053Z AUTO 19005KT 10SM FEW024 SCT030 SCT035 05/02 A3031 RMK AO2 SLP268 T00500017=
202204090953 METAR KPAE 090953Z AUTO 23006KT 10SM BKN070 06/01 A3031 RMK AO2 SLP268 T00560006=
202204090853 METAR KPAE 090853Z AUTO 25009KT 10SM SCT075 06/M02 A3031 RMK AO2 SLP265 T00611017 51006=
202204090753 METAR KPAE 090753Z AUTO 28009G19KT 10SM OVC075 06/M02 A3030 RMK AO2 SLP264 T00611017 401560061=
202204090653 METAR KPAE 090653Z AUTO 32008KT 300V010 10SM FEW085 06/M01 A3030 RMK AO2 SLP262 T00611011=
202204090553 METAR KPAE 090553Z AUTO 31012G24KT 10SM FEW046 BKN070 07/M01 A3029 RMK AO2 SLP258 60002 T00671006 10078 20067 51018=
202204090453 METAR KPAE 090453Z AUTO VRB06KT 10SM FEW042 SCT050 BKN080 07/00 A3027 RMK AO2 SLP253 T00670000=
202204090353 METAR KPAE 090353Z AUTO 10SM SCT035 BKN043 OVC060 07/01 A3026 RMK AO2 SLP250 T00720006=
202204090329 SPECI KPAE 090329Z 30007KT 10SM FEW021 OVC030 07/02 A3025 RMK AO2 T00720017=
202204090253 METAR KPAE 090253Z 00000KT 10SM BKN025 OVC030 07/03 A3023 RMK AO2 SLP240 60002 T00720028 53008=
202204090153 METAR KPAE 090153Z 00000KT 10SM FEW023 BKN030 07/03 A3021 RMK AO2 SLP233 T00720033=
202204090053 METAR KPAE 090053Z VRB05KT 10SM SCT017 SCT045 OVC070 07/03 A3021 RMK AO2 RAE29 SLP233 P0002 T00720033=
202204082353 METAR KPAE 082353Z 25006KT 10SM -RA FEW017 BKN033 OVC046 07/03 A3021 RMK AO2 SLP231 P0000 60011 T00720033 10122 20072 51006=
202204082351 SPECI KPAE 082351Z 26005KT 10SM -RA SCT017 BKN033 OVC046 07/03 A3021 RMK AO2 P0000=
202204082253 METAR KPAE 082253Z 35006KT 10SM -RA SCT015 BKN029 OVC037 08/05 A3019 RMK AO2 SLP227 P0000 T00830050=
202204082153 METAR KPAE 082153Z 34006KT 10SM -RA SCT015 OVC029 07/05 A3019 RMK AO2 RAB2056 SLP225 P0006 T00720050=
202204082143 SPECI KPAE 082143Z 35007G15KT 7SM -RA FEW015 OVC029 07/04 A3019 RMK AO2 RAB2056 P0006 T00720044=
202204082053 METAR KPAE 082053Z 35010KT 10SM BKN041 OVC050 09/06 A3017 RMK AO2 RAE29 SLP216 P0004 60005 T00890056 56003=
202204081953 METAR KPAE 081953Z 22014G21KT 5SM RA FEW036 BKN048 OVC060 09/04 A3017 RMK AO2 LTG DSNT NE RAB28 SLP216 P0001 T00940039=
202204081853 METAR KPAE 081853Z 20017KT 10SM SCT029 BKN039 BKN048 11/04 A3017 RMK AO2 RAB1754E04 SLP216 P0000 T01110039=
202204081753 METAR KPAE 081753Z 19013KT 10SM FEW022 BKN034 OVC042 09/04 A3018 RMK AO2 SLP219 T00940044 10100 20078 51008=
202204081653 METAR KPAE 081653Z 20014KT 10SM OVC021 09/04 A3017 RMK AO2 SLP217 T00940039=
202204081553 METAR KPAE 081553Z 19016G27KT 10SM BKN017 08/04 A3015 RMK AO2 PK WND 19030/1509 SLP211 T00830039=
202204081519 SPECI KPAE 081519Z 19016G27KT 10SM BKN015 08/04 A3014 RMK AO2 PK WND 19030/1509 T00830044=
202204081453 METAR KPAE 081453Z 19018G27KT 10SM FEW015 08/04 A3013 RMK AO2 PK WND 18029/1440 SLP205 T00780044 51013=
202204081353 METAR KPAE 081353Z 19015G26KT 10SM FEW020 08/04 A3013 RMK AO2 PK WND 18028/1319 SLP201 T00830044=
202204081253 METAR KPAE 081253Z AUTO 19020G26KT 10SM SCT016 OVC095 09/06 A3011 RMK AO2 PK WND 18027/1229 SLP194 T00890061 $=
202204081153 METAR KPAE 081153Z AUTO 19016KT 10SM FEW018 SCT055 OVC070 09/06 A3009 RMK AO2 RAE16 SLP189 P0001 60007 70007 T00890061 10167 20089 53002 $=
202204081149 SPECI KPAE 081149Z AUTO 18017KT 10SM FEW018 SCT039 OVC070 09/06 A3009 RMK AO2 RAE16 P0001 $=
202204081123 SPECI KPAE 081123Z AUTO 18013KT 10SM OVC015 09/07 A3009 RMK AO2 RAE16 P0000 T00890067 $=
202204081053 METAR KPAE 081053Z AUTO 18014G19KT 10SM -RA OVC013 09/07 A3008 RMK AO2 SLP186 P0004 T00890067 $=
202204081050 SPECI KPAE 081050Z AUTO 18015G19KT 9SM -RA OVC013 09/07 A3009 RMK AO2 P0004 $=
202204081031 SPECI KPAE 081031Z AUTO 18015G20KT 5SM -RA BKN016 BKN048 OVC065 09/06 A3008 RMK AO2 P0004 T00890061 $=
202204080953 METAR KPAE 080953Z AUTO 18010KT 4SM RA BKN060 OVC080 10/03 A3007 RMK AO2 RAB14 SLP182 P0002 T01000028 $=
202204080853 METAR KPAE 080853Z AUTO 19013G22KT 10SM BKN110 14/M01 A3003 RMK AO2 SLP169 T01391006 53009 $=
202204080753 METAR KPAE 080753Z AUTO 16014G21KT 10SM BKN100 BKN120 16/02 A2999 RMK AO2 SLP154 T01610022 402280072 $=
202204080653 METAR KPAE 080653Z AUTO 15008KT 10SM SCT120 17/03 A2998 RMK AO2 SLP151 T01670033 $=
202204080553 METAR KPAE 080553Z AUTO 23008KT 10SM SCT110 15/04 A3001 RMK AO2 SLP159 60000 T01500044 10228 20133 56012 $=
202204080453 METAR KPAE 080453Z AUTO 00000KT 10SM OVC110 17/04 A3001 RMK AO2 SLP160 T01670039 $=
202204080353 METAR KPAE 080353Z 06005KT 10SM FEW060 FEW075 SCT095 16/04 A2999 RMK AO2 RAB0259E36 SLP155 P0000 T01610039 $=
202204080253 METAR KPAE 080253Z 36005KT 10SM OVC055 15/05 A3004 RMK AO2 SLP173 T01500050 56018 $=
202204080153 METAR KPAE 080153Z 00000KT 10SM FEW110 17/02 A3004 RMK AO2 SLP173 T01720022 $=
202204080053 METAR KPAE 080053Z 23004KT 10SM CLR 22/02 A3007 RMK AO2 SLP182 T02170022 $=
202204072353 METAR KPAE 072353Z 23007KT 10SM CLR 22/02 A3010 RMK AO2 SLP190 T02170022 10217 20161 56025 $=
202204072253 METAR KPAE 072253Z 23005KT 10SM CLR 22/03 A3012 RMK AO2 SLP198 T02170028 $=
202204072153 METAR KPAE 072153Z VRB03KT 8SM CLR 21/02 A3014 RMK AO2 SLP204 T02060022 $=
202204072053 METAR KPAE 072053Z 26007KT 10SM CLR 19/03 A3017 RMK AO2 SLP217 T01890028 58023 $=
202204072004 SPECI KPAE 072004Z VRB03KT 10SM CLR 20/01 A3019 RMK AO2 T02000011 $=
202204071953 METAR KPAE 071953Z VRB04KT 1/2SM R16R/P6000FT HZ CLR 20/02 A3020 RMK AO2 SLP224 T02000022 $=
202204071853 METAR KPAE 071853Z VRB03KT 10SM CLR 18/00 A3022 RMK AO2 SLP235 T01830000=
202204071753 METAR KPAE 071753Z 10005KT 10SM CLR 16/M01 A3024 RMK AO2 SLP241 T01611006 10161 20078 58010=
202204071653 METAR KPAE 071653Z VRB05KT 10SM CLR 14/M02 A3026 RMK AO2 SLP247 T01391017=
202204071553 METAR KPAE 071553Z 00000KT 10SM CLR 12/00 A3027 RMK AO2 SLP253 T01220000=
202204071453 METAR KPAE 071453Z 10006KT 10SM CLR 10/M01 A3027 RMK AO2 SLP252 T01001006 56004=
202204071353 METAR KPAE 071353Z 00000KT 10SM CLR 08/01 A3028 RMK AO2 SLP253 T00830006=
202204071253 METAR KPAE 071253Z AUTO 03004KT 10SM CLR 08/01 A3028 RMK AO2 SLP254 T00830006=
202204071153 METAR KPAE 071153Z AUTO 00000KT 10SM CLR 08/01 A3029 RMK AO2 SLP257 T00830006 10106 20072 56013=
202204071053 METAR KPAE 071053Z AUTO 01004KT 10SM CLR 08/01 A3030 RMK AO2 SLP260 T00780011=
202204070953 METAR KPAE 070953Z AUTO 01004KT 10SM CLR 09/01 A3031 RMK AO2 SLP264 T00890011=
202204070853 METAR KPAE 070853Z AUTO 00000KT 10SM CLR 09/01 A3032 RMK AO2 SLP270 T00890011 57010=
202204070753 METAR KPAE 070753Z AUTO 00000KT 10SM CLR 09/02 A3033 RMK AO2 SLP273 T00940017 401390022=
202204070653 METAR KPAE 070653Z AUTO 36003KT 10SM CLR 08/03 A3035 RMK AO2 SLP278 T00830033=
202204070553 METAR KPAE 070553Z AUTO 01003KT 10SM CLR 10/04 A3036 RMK AO2 SLP281 T01000039 10139 20094 58003=
202204070453 METAR KPAE 070453Z AUTO 01003KT 10SM CLR 10/03 A3036 RMK AO2 SLP283 T01000028=
202204070353 METAR KPAE 070353Z AUTO 00000KT 10SM CLR 11/02 A3037 RMK AO2 SLP287 T01110022=
202204070253 METAR KPAE 070253Z 01005KT 10SM CLR 12/02 A3036 RMK AO2 SLP285 T01170017 58013=
202204070153 METAR KPAE 070153Z 02005KT 10SM CLR 12/01 A3038 RMK AO2 SLP290 T01220011=
202204070053 METAR KPAE 070053Z 01005KT 10SM CLR 14/M01 A3039 RMK AO2 SLP294 T01391006=
202204062353 METAR KPAE 062353Z 02006KT 10SM CLR 13/00 A3040 RMK AO2 SLP298 T01330000 10139 20089 56013=
202204062253 METAR KPAE 062253Z 35006KT 10SM CLR 14/01 A3042 RMK AO2 SLP302 T01390006=
202204062153 METAR KPAE 062153Z 35003KT 10SM CLR 14/00 A3042 RMK AO2 SLP305 T01390000=
202204062053 METAR KPAE 062053Z 35004KT 10SM CLR 12/00 A3044 RMK AO2 SLP310 T01220000 56017=
202204061953 METAR KPAE 061953Z 27009KT 10SM CLR 11/01 A3046 RMK AO2 SLP316 T01110006=
202204061853 METAR KPAE 061853Z 12005KT 10SM CLR 11/M03 A3047 RMK AO2 SLP320 T01061028=
202204061753 METAR KPAE 061753Z 08005KT 10SM CLR 09/M01 A3049 RMK AO2 SLP328 T00891011 10089 20022 50000=
202204061653 METAR KPAE 061653Z 05007KT 10SM CLR 07/M01 A3049 RMK AO2 SLP329 T00721011=
202204061553 METAR KPAE 061553Z 09005KT 10SM CLR 05/M02 A3050 RMK AO2 SLP331 T00501017=
202204061453 METAR KPAE 061453Z 09008KT 10SM CLR 03/M02 A3049 RMK AO2 SLP329 T00331017 58004=
202204061353 METAR KPAE 061353Z 04003KT 10SM CLR 02/M01 A3050 RMK AO2 SLP332 T00221011=
202204061253 METAR KPAE 061253Z AUTO 11004KT 10SM CLR 02/M01 A3050 RMK AO2 SLP331 T00221006=
202204061153 METAR KPAE 061153Z AUTO 11005KT 10SM CLR 02/00 A3050 RMK AO2 SLP333 T00220000 10061 20022 50000=
202204061053 METAR KPAE 061053Z AUTO 10008KT 10SM CLR 03/M01 A3051 RMK AO2 SLP334 T00281006=
202204060953 METAR KPAE 060953Z AUTO 11005KT 10SM CLR 04/00 A3050 RMK AO2 SLP333 T00390000=
202204060853 METAR KPAE 060853Z AUTO 00000KT 10SM CLR 05/00 A3050 RMK AO2 SLP332 T00500000 53010=
202204060753 METAR KPAE 060753Z AUTO 00000KT 10SM FEW023 06/00 A3049 RMK AO2 SLP329 T00560000 401110039=
202204060712 SPECI KPAE 060712Z AUTO 34003KT 10SM FEW022 SCT028 06/01 A3049 RMK AO2 T00560006=
202204060653 METAR KPAE 060653Z AUTO 01004KT 10SM SCT022 BKN029 06/01 A3048 RMK AO2 SLP325 T00610006=
202204060553 METAR KPAE 060553Z AUTO 32005KT 10SM FEW055 06/01 A3047 RMK AO2 SLP322 T00610006 10106 20061 51018=
202204060453 METAR KPAE 060453Z AUTO 35005KT 10SM CLR 06/01 A3046 RMK AO2 SLP318 T00610006=
202204060353 METAR KPAE 060353Z AUTO 33007G14KT 10SM BKN080 07/00 A3044 RMK AO2 SLP310 T00670000=
202204060253 METAR KPAE 060253Z 32006KT 10SM BKN070 BKN080 07/00 A3042 RMK AO2 SLP304 T00720000 53014=
202204060153 METAR KPAE 060153Z 34006KT 10SM CLR 09/M01 A3041 RMK AO2 SLP300 T00891006=
202204060053 METAR KPAE 060053Z 36006KT 10SM SCT080 BKN090 10/01 A3039 RMK AO2 SLP293 T01000006=
202204052353 METAR KPAE 052353Z 36009KT 10SM BKN065 BKN110 11/01 A3038 RMK AO2 SLP290 T01060011 10111 20078 51010=
202204052253 METAR KPAE 052253Z 35005KT 10SM SCT090 11/00 A3037 RMK AO2 SLP288 T01060000=
202204052153 METAR KPAE 052153Z 34007KT 10SM SCT070 10/01 A3036 RMK AO2 SLP283 T01000006=
202204052053 METAR KPAE 052053Z 30007KT 10SM BKN055 BKN070 OVC085 08/00 A3035 RMK AO2 SLP280 T00830000 51020=
202204051953 METAR KPAE 051953Z 28006KT 10SM FEW034 BKN065 09/01 A3033 RMK AO2 SLP274 T00890006=
202204051853 METAR KPAE 051853Z 19007KT 10SM FEW029 BKN070 BKN110 09/00 A3031 RMK AO2 SLP267 T00890000 $=
202204051753 METAR KPAE 051753Z 16008KT 10SM FEW026 BKN070 OVC080 08/01 A3029 RMK AO2 SLP259 T00780006 10083 20044 51039 $=
202204051653 METAR KPAE 051653Z 18009KT 10SM BKN065 07/01 A3025 RMK AO2 SLP248 T00720006=
202204051553 METAR KPAE 051553Z 17010KT 10SM OVC080 06/01 A3021 RMK AO2 SLP235 T00560006=
202204051453 METAR KPAE 051453Z 17010KT 10SM OVC070 04/01 A3017 RMK AO2 SLP220 T00440006 51036=
202204051353 METAR KPAE 051353Z 20010KT 10SM BKN060 OVC075 04/01 A3014 RMK AO2 SLP209 T00440006=
202204051253 METAR KPAE 051253Z 20010KT 10SM OVC070 04/01 A3010 RMK AO2 SLP194 T00440006=
202204051153 METAR KPAE 051153Z 19012G20KT 10SM OVC070 04/00 A3006 RMK AO2 SLP182 70002 T00440000 10050 20039 53034=
202204051053 METAR KPAE 051053Z 18012G18KT 10SM OVC085 04/00 A3002 RMK AO2 SLP169 T00440000=
202204050953 METAR KPAE 050953Z 17014KT 10SM OVC085 04/00 A2999 RMK AO2 SLP157 T00440000=
202204050853 METAR KPAE 050853Z 17012G18KT 10SM BKN085 04/00 A2996 RMK AO2 SLP148 T00440000 53029=
202204050753 METAR KPAE 050753Z 18013KT 10SM SCT060 OVC085 04/00 A2992 RMK AO2 SLP135 T00440000 401000044=
202204050653 METAR KPAE 050653Z 18012KT 10SM FEW060 SCT090 04/00 A2990 RMK AO2 SLP126 T00440000=
202204050553 METAR KPAE 050553Z 19010KT 10SM OVC065 05/01 A2987 RMK AO2 SLP118 T00500006 10083 20050 51034=
202204050453 METAR KPAE 050453Z 20014G21KT 10SM BKN042 OVC075 05/00 A2984 RMK AO2 SLP106 T00500000=
202204050353 METAR KPAE 050353Z 21011G23KT 170V240 10SM FEW021 BKN050 OVC080 06/00 A2980 RMK AO2 SLP095 T00560000=
202204050253 METAR KPAE 050253Z 21013G21KT 10SM SCT021 BKN060 BKN075 06/01 A2977 RMK AO2 PK WND 21026/0155 SLP083 T00610011 53035=
202204050153 METAR KPAE 050153Z 21018G25KT 10SM CLR 07/01 A2972 RMK AO2 SLP065 T00670006=
202204050053 METAR KPAE 050053Z 22015KT 10SM FEW022 08/02 A2970 RMK AO2 PK WND 22027/0010 SLP059 T00780017=
202204042353 METAR KPAE 042353Z 21014G23KT 10SM CLR 08/01 A2967 RMK AO2 PK WND 23027/2314 SLP047 T00830011 10100 20072 51027=
202204042253 METAR KPAE 042253Z 21017G28KT 10SM FEW022 07/01 A2965 RMK AO2 PK WND 21030/2158 PRESRR SLP044 T00720006=
202204042153 METAR KPAE 042153Z 21016G26KT 10SM FEW110 08/02 A2962 RMK AO2 PK WND 23035/2129 SLP032 T00830017=
202204042053 METAR KPAE 042053Z 21015G30KT 10SM CLR 09/02 A2958 RMK AO2 PK WND 22033/2006 SLP019 T00940017 53021=
202204041953 METAR KPAE 041953Z 21018G28KT 10SM CLR 08/02 A2955 RMK AO2 PK WND 22033/1932 SLP009 T00830017=
202204041853 METAR KPAE 041853Z 21014G24KT 10SM CLR 09/02 A2954 RMK AO2 SLP003 T00940017=
202204041753 METAR KPAE 041753Z 22012KT 10SM CLR 08/04 A2952 RMK AO2 RAE13 SLP998 P0001 60002 T00830039 10083 20056 51038=
202204041732 SPECI KPAE 041732Z 23008KT 10SM SCT025 SCT043 BKN075 08/04 A2951 RMK AO2 RAE13 P0001 T00780044=
202204041707 SPECI KPAE 041707Z 36004KT 7SM -RA FEW013 BKN018 OVC027 06/04 A2949 RMK AO2 P0001 T00560039=
202204041653 METAR KPAE 041653Z 23006G20KT 2 1/2SM RA OVC020 07/03 A2949 RMK AO2 RAB37 SLP988 P0001 T00670033=
202204041553 METAR KPAE 041553Z 24010KT 220V280 10SM BKN018 BKN023 OVC045 07/03 A2947 RMK AO2 PK WND 22026/1512 SLP982 T00720033=
202204041531 SPECI KPAE 041531Z 22012G25KT 10SM VCTS SCT015 BKN060 07/03 A2947 RMK AO2 PK WND 22026/1512 PRESRR T00720033=
202204041453 METAR KPAE 041453Z 21012G25KT 10SM SCT015 BKN060 08/04 A2941 RMK AO2 PK WND 20027/1418 SLP959 T00780044 53015=
202204041353 METAR KPAE 041353Z 20017G26KT 10SM SCT015 BKN060 08/06 A2937 RMK AO2 PK WND 19031/1343 SLP946 T00830056=
202204041342 SPECI KPAE 041342Z AUTO 19020G29KT 10SM BKN015 08/06 A2936 RMK AO2 PK WND 19029/1342 T00830061=
202204041253 METAR KPAE 041253Z AUTO 18020G27KT 10SM OVC012 08/08 A2936 RMK AO2 PK WND 18027/1250 SLP943 T00830078 $=
202204041153 METAR KPAE 041153Z AUTO 18017G27KT 10SM OVC012 08/ A2936 RMK AO2 PK WND 18029/1141 SLP943 60023 70026 T0083 10083 20078 57018 $=
202204041053 METAR KPAE 041053Z AUTO 17017G28KT 10SM BKN012 OVC018 08/ A2940 RMK AO2 PK WND 18038/1017 RAE00 SLP956 P0000 T0078 $=
202204041019 SPECI KPAE 041019Z AUTO 18023G38KT 10SM BKN013 BKN019 OVC036 08/ A2938 RMK AO2 PK WND 18038/1017 RAE00 P0000 T0078 $=
202204041009 SPECI KPAE 041009Z AUTO 18025G36KT 10SM BKN016 BKN033 OVC050 08/ A2938 RMK AO2 PK WND 17038/0958 RAE00 P0000 T0078 $=
202204040953 METAR KPAE 040953Z AUTO 17022G38KT 10SM -RA FEW018 SCT036 OVC049 08/ A2938 RMK AO2 PK WND 18043/0902 SLP949 P0003 T0078 $=
202204040934 SPECI KPAE 040934Z AUTO 18026G38KT 7SM -RA FEW018 SCT025 OVC045 08/ A2938 RMK AO2 PK WND 18043/0902 P0002 T0078 $=
202204040853 METAR KPAE 040853Z AUTO 17024G39KT 6SM -RA BKN025 OVC032 08/ A2941 RMK AO2 PK WND 17047/0838 SLP961 P0007 60020 T0078 56057 $=
202204040753 METAR KPAE 040753Z AUTO 17019G32KT 4SM RA FEW010 BKN024 OVC029 08/ A2947 RMK AO2 PK WND 16032/0753 SLP979 P0007 T0078 401060067 $=
202204040653 METAR KPAE 040653Z AUTO 16018G32KT 4SM -RA FEW008 BKN020 OVC032 08/ A2952 RMK AO2 PK WND 16032/0630 SLP998 P0006 T0078 $=
202204040553 METAR KPAE 040553Z AUTO 16016G30KT 4SM RA BR FEW010 BKN022 OVC034 08/08 A2958 RMK AO2 PK WND 15030/0550 SLP019 P0003 60003 T00780078 10100 20078 58043=
202204040541 SPECI KPAE 040541Z AUTO 16017G26KT 4SM -RA BR FEW015 BKN025 OVC036 08/08 A2960 RMK AO2 PK WND 16026/0519 P0002 T00780078=
202204040453 METAR KPAE 040453Z AUTO 16017G26KT 7SM -RA FEW025 SCT031 OVC047 08/08 A2963 RMK AO2 PK WND 15033/0426 SLP035 P0000 T00830083=
202204040409 SPECI KPAE 040409Z AUTO 17017G30KT 7SM -RA FEW021 BKN034 OVC043 08/08 A2966 RMK AO2 PK WND 17030/0408 P0000 T00830083=
202204040353 METAR KPAE 040353Z AUTO 17016G24KT 9SM -RA BKN020 BKN026 OVC040 09/08 A2967 RMK AO2 PK WND 15029/0304 SLP049 P0000 T00890083=
202204040328 SPECI KPAE 040328Z 16016G25KT 10SM -RA FEW019 BKN024 OVC034 09/08 A2969 RMK AO2 PK WND 15029/0304 P0000 T00890083=
202204040253 METAR KPAE 040253Z 17013G29KT 10SM -RA FEW024 SCT037 OVC045 09/08 A2971 RMK AO2 PK WND 17029/0247 SLP063 P0000 60000 T00940078 58034=
202204040153 METAR KPAE 040153Z 17015G27KT 10SM -RA BKN042 OVC055 09/08 A2975 RMK AO2 PK WND 15027/0140 RAB09 SLP076 P0000 T00940078=
202204040053 METAR KPAE 040053Z 16015G22KT 10SM FEW019 FEW026 OVC033 10/08 A2978 RMK AO2 PK WND 16029/0028 RAE31 SLP087 P0000 T01000083=
202204032353 METAR KPAE 032353Z 17014G27KT 10SM -RA FEW021 SCT026 OVC036 10/09 A2981 RMK AO2 PK WND 18030/2324 SLP097 P0000 60000 T01000089 10106 20089 58025=
202204032253 METAR KPAE 032253Z 15012G19KT 9SM -RA OVC034 10/08 A2985 RMK AO2 SLP111 P0000 T01000083=
202204032153 METAR KPAE 032153Z 18012G21KT 9SM -RA OVC036 10/07 A2988 RMK AO2 PK WND 15031/2055 RAB08 SLP118 P0000 T01000072=
202204032053 METAR KPAE 032053Z 16016G25KT 10SM OVC034 11/05 A2989 RMK AO2 PK WND 16026/2042 SLP123 60000 T01060050 56023=
202204031953 METAR KPAE 031953Z 15015G30KT 10SM BKN038 OVC047 10/04 A2991 RMK AO2 PK WND 17030/1945 RAB25E35 SLP131 P0000 T01000044=
202204031853 METAR KPAE 031853Z 16016G27KT 10SM SCT033 OVC045 10/04 A2993 RMK AO2 PK WND 17027/1849 RAB1759E32 SLP138 P0000 T01000044=
202204031753 METAR KPAE 031753Z 16014G21KT 10SM FEW042 OVC050 09/04 A2996 RMK AO2 PK WND 18027/1741 SLP147 T00890044 10089 20067 57012=
202204031653 METAR KPAE 031653Z 15012KT 10SM SCT055 OVC120 08/05 A2997 RMK AO2 SLP151 T00780050=
202204031553 METAR KPAE 031553Z 15012KT 10SM OVC100 07/05 A2998 RMK AO2 SLP154 T00720050=
202204031453 METAR KPAE 031453Z 17010KT 10SM OVC090 07/06 A2999 RMK AO2 SLP159 T00720056 56014=
202204031353 METAR KPAE 031353Z 14009KT 10SM SCT060 OVC075 07/05 A3000 RMK AO2 SLP162 T00720050=
202204031253 METAR KPAE 031253Z AUTO 15007KT 10SM FEW041 SCT055 OVC075 07/05 A3002 RMK AO2 SLP168 T00720050=
202204031153 METAR KPAE 031153Z AUTO 15007KT 10SM FEW055 SCT065 OVC085 07/04 A3004 RMK AO2 SLP172 70006 T00720044 10094 20072 58022=
202204031053 METAR KPAE 031053Z AUTO 16010KT 10SM BKN043 OVC050 08/04 A3006 RMK AO2 SLP182 T00780044=
202204030953 METAR KPAE 030953Z AUTO 16005KT 10SM SCT044 BKN090 OVC100 08/04 A3008 RMK AO2 SLP189 T00780044=
202204030853 METAR KPAE 030853Z AUTO 15007KT 10SM SCT044 OVC110 08/04 A3010 RMK AO2 SLP195 T00830039 57019=
202204030753 METAR KPAE 030753Z AUTO 15009KT 10SM SCT050 BKN120 08/03 A3012 RMK AO2 SLP202 T00830033 401280056=
202204030653 METAR KPAE 030653Z AUTO 15011KT 10SM FEW120 09/03 A3014 RMK AO2 SLP208 T00890033=
202204030553 METAR KPAE 030553Z AUTO 15009KT 10SM CLR 09/03 A3016 RMK AO2 SLP214 T00940028 10122 20094 58010=
202204030453 METAR KPAE 030453Z AUTO 15009KT 10SM CLR 09/02 A3018 RMK AO2 SLP221 T00940022=
202204030353 METAR KPAE 030353Z AUTO 18009KT 10SM CLR 10/03 A3018 RMK AO2 SLP223 T01000028=
202204030253 METAR KPAE 030253Z 19008KT 10SM CLR 11/03 A3019 RMK AO2 SLP225 T01060028 56008=
202204030153 METAR KPAE 030153Z 19009G19KT 10SM BKN110 11/03 A3019 RMK AO2 SLP226 T01110028=
202204030053 METAR KPAE 030053Z 18011KT 10SM FEW085 12/03 A3020 RMK AO2 SLP228 T01220028=
202204022353 METAR KPAE 022353Z 17012G23KT 10SM CLR 12/02 A3021 RMK AO2 SLP233 T01220022 10128 20078 56012=
202204022253 METAR KPAE 022253Z 18009G18KT 10SM BKN043 BKN050 OVC090 12/03 A3022 RMK AO2 SLP236 T01220033=
202204022153 METAR KPAE 022153Z 16007KT 10SM BKN044 BKN050 12/03 A3023 RMK AO2 SLP239 T01220028=
202204022053 METAR KPAE 022053Z 16006KT 10SM SCT041 11/03 A3025 RMK AO2 SLP245 T01060028 58000=
202204022029 SPECI KPAE 022029Z 16009KT 10SM SCT030 BKN036 BKN043 11/04 A3025 RMK AO2 T01110039=
202204022021 SPECI KPAE 022021Z 18010KT 10SM BKN029 BKN038 11/04 A3025 RMK AO2 T01110044=
202204021953 METAR KPAE 021953Z 15008KT 10SM FEW020 SCT032 OVC090 10/05 A3025 RMK AO2 SLP247 T01000050=
202204021853 METAR KPAE 021853Z 15008KT 10SM FEW020 SCT032 OVC090 09/06 A3026 RMK AO2 SLP250 T00890056=
202204021834 SPECI KPAE 021834Z 16010KT 10SM FEW022 SCT029 OVC090 09/06 A3026 RMK AO2 T00890061=
202204021753 METAR KPAE 021753Z VRB06KT 10SM SCT009 BKN022 08/06 A3025 RMK AO2 SLP245 60006 T00830056 10083 20056 51018=
202204021653 METAR KPAE 021653Z VRB05KT 10SM SCT009 BKN022 07/07 A3023 RMK AO2 RAE16 SLP240 P0000 T00720067=
202204021611 SPECI KPAE 021611Z 15006KT 9SM -RA FEW009 SCT019 OVC026 07/06 A3023 RMK AO2 P0000 T00670061=
202204021553 METAR KPAE 021553Z 16007KT 6SM -RA BR OVC025 06/06 A3022 RMK AO2 SLP236 P0001 T00610061=
202204021453 METAR KPAE 021453Z 15007KT 5SM -RA BR SCT010 BKN022 06/06 A3019 RMK AO2 SLP227 P0000 60005 T00610061 53017=
202204021353 METAR KPAE 021353Z 14006KT 10SM -RA OVC021 06/06 A3017 RMK AO2 SLP219 P0001 T00610061=
202204021253 METAR KPAE 021253Z AUTO 12005KT 6SM -RA BR OVC020 06/04 A3016 RMK AO2 RAB24 SLP215 P0004 T00610044=
202204021246 SPECI KPAE 021246Z AUTO 12006KT 2SM RA BR BKN020 OVC024 06/05 A3016 RMK AO2 RAB24 P0004 T00610050=
202204021153 METAR KPAE 021153Z AUTO 00000KT 10SM SCT006 SCT012 OVC019 07/07 A3014 RMK AO2 SLP209 60002 70002 T00670067 10083 20061 51007=
202204021148 SPECI KPAE 021148Z AUTO 03003KT 10SM SCT007 OVC019 07/07 A3014 RMK AO2=
202204021053 METAR KPAE 021053Z AUTO 02005KT 10SM BKN022 07/05 A3013 RMK AO2 SLP204 T00670050=
202204021048 SPECI KPAE 021048Z AUTO 03003KT 10SM BKN020 07/06 A3012 RMK AO2=
202204020953 METAR KPAE 020953Z AUTO 34005KT 10SM OVC033 07/05 A3011 RMK AO2 SLP197 T00670050=
202204020912 SPECI KPAE 020912Z AUTO 36004KT 10SM OVC030 07/06 A3009 RMK AO2 T00670061=
202204020853 METAR KPAE 020853Z AUTO 35005KT 10SM BKN028 OVC033 07/06 A3009 RMK AO2 RAE43 SLP190 P0001 60002 T00670061 53010=
202204020815 SPECI KPAE 020815Z AUTO 33004KT 5SM -RA BR FEW004 FEW009 OVC019 06/06 A3008 RMK AO2 P0000 T00610061=
202204020807 SPECI KPAE 020807Z AUTO 35003KT 5SM -RA BR FEW004 BKN009 OVC017 07/07 A3008 RMK AO2 CIG 006V011 P0000 T00670067=
202204020800 SPECI KPAE 020800Z AUTO VRB04KT 2 1/2SM -RA BR SCT004 BKN009 OVC015 06/06 A3007 RMK AO2 CIG 006V011 P0000 T00610061=
202204020753 METAR KPAE 020753Z AUTO 00000KT 1 3/4SM -RA BR BKN004 OVC010 06/06 A3007 RMK AO2 CIG 003V007 SLP185 P0001 T00610061 401110050=
202204020749 SPECI KPAE 020749Z AUTO 31003KT 1 3/4SM -RA BR BKN004 OVC009 06/06 A3007 RMK AO2 P0001=
202204020741 SPECI KPAE 020741Z AUTO 33006KT 5SM -RA BR BKN004 OVC008 07/07 A3007 RMK AO2 CIG 003V007 P0000 T00670067=
202204020731 SPECI KPAE 020731Z AUTO 35007KT 8SM -RA BKN006 OVC010 07/07 A3007 RMK AO2 CIG 004V009 P0000 T00670067=
202204020724 SPECI KPAE 020724Z AUTO 32006KT 5SM -RA BR FEW004 OVC010 07/07 A3006 RMK AO2 CIG 006V015 P0000 T00720072=
202204020653 METAR KPAE 020653Z AUTO 20009KT 9SM -RA OVC012 08/07 A3006 RMK AO2 SLP181 P0000 T00780072=
202204020553 METAR KPAE 020553Z AUTO 20012G18KT 10SM -RA BKN014 OVC019 08/07 A3006 RMK AO2 RAB45 SLP180 P0000 60000 T00830072 10106 20083 53004=
202204020548 SPECI KPAE 020548Z AUTO 20011KT 10SM -RA BKN014 OVC020 08/07 A3005 RMK AO2 RAB45 P0000=
202204020506 SPECI KPAE 020506Z AUTO 17007KT 10SM BKN027 BKN039 OVC095 08/07 A3005 RMK AO2 T00830067=
202204020453 METAR KPAE 020453Z AUTO 16007KT 10SM FEW027 BKN037 OVC100 08/07 A3004 RMK AO2 RAE00B11E38 SLP174 P0000 T00830067=
202204020409 SPECI KPAE 020409Z AUTO 17009KT 10SM SCT028 BKN036 OVC100 09/06 A3005 RMK AO2 RAE00 P0000 T00890056=
202204020353 METAR KPAE 020353Z AUTO 18010KT 10SM -RA BKN028 OVC095 09/06 A3004 RMK AO2 RAE0259B48 SLP176 P0000 T00890056=
202204020325 SPECI KPAE 020325Z 18007KT 10SM BKN028 OVC080 09/05 A3004 RMK AO2 RAE0259 P0000 T00940050=
202204020302 SPECI KPAE 020302Z 19006KT 10SM SCT031 OVC085 09/06 A3005 RMK AO2 RAE0259 P0000 T00940056=
202204020253 METAR KPAE 020253Z 19008KT 10SM -RA BKN029 OVC085 09/05 A3005 RMK AO2 RAB50 SLP178 P0000 60000 T00940050 56010=
202204020236 SPECI KPAE 020236Z 19010KT 10SM OVC029 10/04 A3005 RMK AO2 T01000044=
202204020153 METAR KPAE 020153Z 17007KT 10SM OVC034 10/04 A3005 RMK AO2 SLP179 T01000039=
202204020053 METAR KPAE 020053Z 20010KT 10SM FEW055 SCT075 OVC090 10/03 A3006 RMK AO2 SLP181 T01000033=
202204012353 METAR KPAE 012353Z 19010KT 10SM OVC080 10/03 A3008 RMK AO2 SLP187 T01000028 10111 20083 55008=
202204012253 METAR KPAE 012253Z AUTO 19009KT 10SM OVC090 11/02 A3008 RMK AO2 SLP186 T01060022=
202204012153 METAR KPAE 012153Z 18005KT 10SM OVC038 11/03 A3009 RMK AO2 SLP189 T01060028=
202204012053 METAR KPAE 012053Z 17009KT 10SM BKN037 BKN043 OVC085 10/03 A3010 RMK AO2 SLP195 T01000028 56007=
202204011953 METAR KPAE 011953Z 17011KT 10SM SCT027 10/03 A3010 RMK AO2 SLP195 T01000033=
202204011853 METAR KPAE 011853Z 19009G18KT 10SM SCT027 10/04 A3011 RMK AO2 SLP199 T01000039=
202204011816 SPECI KPAE 011816Z 22008KT 10SM SCT024 BKN029 OVC110 08/04 A3012 RMK AO2 T00830039=
202204011753 METAR KPAE 011753Z 18008KT 10SM SCT027 OVC110 09/04 A3012 RMK AO2 SLP202 T00890039 10089 20050 55000=
202204011653 METAR KPAE 011653Z 17009KT 10SM FEW019 08/04 A3011 RMK AO2 SLP197 T00780039=
202204011553 METAR KPAE 011553Z 16009KT 10SM FEW012 07/04 A3011 RMK AO2 SLP197 T00670044=
202204011453 METAR KPAE 011453Z 16008KT 10SM CLR 06/04 A3012 RMK AO2 SLP203 T00560044 58001=
202204011406 SPECI KPAE 011406Z 15006KT 10SM SCT008 05/05 A3012 RMK AO2 T00500050=
202204011353 METAR KPAE 011353Z 15007KT 10SM CLR 06/05 A3012 RMK AO2 SLP204 T00560050=
202204011323 SPECI KPAE 011323Z AUTO VRB03KT 10SM SCT029 SCT040 06/05 A3012 RMK AO2 T00560050=
202204011304 SPECI KPAE 011304Z AUTO 15005KT 10SM BKN029 OVC039 06/05 A3012 RMK AO2 T00560050=
202204011253 METAR KPAE 011253Z AUTO 15005KT 10SM OVC031 06/05 A3013 RMK AO2 SLP206 T00610050=
202204011153 METAR KPAE 011153Z AUTO 16004KT 10SM OVC039 06/05 A3013 RMK AO2 SLP204 T00610050 10078 20056 58008=
202204011053 METAR KPAE 011053Z AUTO 16003KT 10SM OVC035 06/04 A3014 RMK AO2 SLP208 T00560044=
202204010953 METAR KPAE 010953Z AUTO 10005KT 10SM FEW065 06/04 A3014 RMK AO2 SLP209 T00560044=
202204010853 METAR KPAE 010853Z AUTO 06005KT 10SM BKN046 07/04 A3015 RMK AO2 SLP213 T00670044 58002=
202204010753 METAR KPAE 010753Z AUTO 06005KT 10SM OVC043 07/04 A3017 RMK AO2 SLP217 T00720039 401060050=
202204010653 METAR KPAE 010653Z AUTO 00000KT 10SM BKN045 BKN055 OVC065 07/04 A3016 RMK AO2 SLP217 T00720039=
202204010553 METAR KPAE 010553Z AUTO 06004KT 10SM SCT048 OVC065 08/03 A3016 RMK AO2 SLP215 T00780028 10106 20078 50003=
202204010453 METAR KPAE 010453Z 05004KT 10SM BKN047 OVC070 08/02 A3016 RMK AO2 SLP217 T00830022=
202204010353 METAR KPAE 010353Z 02004KT 10SM OVC070 08/04 A3016 RMK AO2 SLP215 T00830044=
202204010253 METAR KPAE 010253Z 02004KT 10SM OVC070 08/03 A3015 RMK AO2 SLP212 T00830033 56015=
202204010153 METAR KPAE 010153Z 36005KT 10SM OVC070 09/04 A3016 RMK AO2 SLP216 T00890039=
202204010053 METAR KPAE 010053Z VRB03KT 10SM OVC070 09/04 A3017 RMK AO2 SLP221 T00940044=

# No short TAF reports from KPAE in databse.

###################################
#  large TAF from KPAE
###################################
202204302320 TAF KPAE 302320Z 0100/0124 25010KT P6SM FEW040 SCT080 FM010600
                       VRB05KT P6SM BKN050 FM011200 18003KT P6SM
                       OVC015 FM012100 21006KT P6SM OVC050=
202204302101 KPAE 302101Z 3021/0118 28004KT P6SM FEW007 SCT009 BKN029 FM010000
                       34004KT P6SM BKN030 FM011000 VRB03KT P6SM
                       BKN035 FM011300 VRB03KT P6SM OVC015=
202204301721 TAF KPAE 301721Z 3018/0118 14007KT P6SM VCSH SCT025 OVC040
                      TEMPO 3018/3020 -SHRA BKN020 FM302100 VRB04KT
                       P6SM SCT030 BKN060 FM011000 VRB03KT P6SM
                       BKN035 FM011300 VRB03KT P6SM OVC015=
202204301120 TAF KPAE 301120Z 3012/0112 12007KT P6SM -RA OVC050
                      TEMPO 3012/3016 5SM RA BR OVC025 FM301600
                       VRB04KT P6SM -SHRA BKN025 OVC050 FM302100
                       VRB04KT P6SM SCT030 BKN060 FM011000 00000KT
                       P6SM BKN015 BKN035=
202204300520 TAF KPAE 300520Z 3006/0106 17007KT P6SM -RA OVC040 FM301100 14012KT
                       P6SM -RA OVC025 FM301600 15008KT 6SM -SHRA
                       OVC022 FM302300 32010KT P6SM VCSH OVC028=
202204292325 TAF KPAE 292325Z 3000/3024 20008KT P6SM BKN050 BKN250 FM300600
                       19009KT P6SM -RA OVC040 FM301100 14012KT
                       P6SM -RA OVC025 FM301600 15008KT 6SM -SHRA
                       OVC022 FM302300 32010KT P6SM VCSH OVC028=
202204292039 KPAE 292039Z 2921/3018 17011KT P6SM BKN050 FM300600 16012KT P6SM
                       -RA OVC040 FM301100 14012KT P6SM -RA OVC025
                       FM301600 15008KT 6SM -RA OVC022=
202204291733 TAF KPAE 291733Z 2918/3018 15009KT P6SM VCSH BKN015 OVC045 FM292100
                       17011KT P6SM BKN060 FM300600 16012KT P6SM
                       -RA OVC040 FM301100 14012KT P6SM -RA OVC025
                       FM301600 15008KT 6SM -RA OVC022=
202204291135 TAF KPAE 291135Z 2912/3012 17006KT P6SM SCT015 OVC040 FM291400
                       17006KT P6SM SCT005 BKN010 OVC020 FM291700
                       17006KT P6SM SCT025 BKN040 OVC060 FM292100
                       17006KT P6SM SCT060 BKN100 FM300500 14012KT
                       P6SM -RA OVC040 FM301100 14012KT P6SM -RA
                       BKN020 OVC035=
202204290536 TAF KPAE 290536Z 2906/3006 VRB03KT P6SM SCT035 BKN050 FM291400
                       18006KT P6SM SCT006 BKN012 OVC020 FM291700
                       18006KT P6SM SCT025 BKN040 OVC060 FM292100
                       18006KT P6SM SCT060 BKN100 FM300500 14006KT
                       P6SM -RA OVC040=
202204282320 TAF KPAE 282320Z 2900/2924 27006KT P6SM SCT050 OVC100 FM290300
                       VRB03KT P6SM SCT025 BKN040
                      TEMPO 2903/2906 -SHRA SCT010 BKN020 OVC030
                       FM290900 18006KT P6SM SCT020 BKN035 FM291400
                       16007KT P6SM OVC020 FM291800 20006KT P6SM
                       SCT025 BKN050 FM292100 22007KT P6SM SCT050
                       BKN100=
202204281720 TAF KPAE 281720Z 2818/2918 32006KT P6SM SCT015 BKN030 FM282000
                       27006KT P6SM SCT030 OVC050 FM290300 VRB03KT
                       P6SM SCT025 BKN040
                      TEMPO 2903/2906 -SHRA SCT010 BKN020 OVC030
                       FM290900 18006KT P6SM SCT020 BKN035 FM291400
                       16007KT P6SM OVC015=
202204281135 TAF KPAE 281135Z 2812/2912 VRB03KT P6SM SCT012 BKN022 OVC035 FM281600
                       29006KT P6SM SCT030 BKN045 FM290300 VRB03KT
                       P6SM -SHRA SCT010 BKN020 OVC030 FM290900
                       18006KT P6SM SCT020 BKN035=
202204280537 TAF KPAE 280537Z 2806/2906 31006KT P6SM BKN040 OVC060 FM281000
                       VRB03KT P6SM SCT012 BKN022 OVC035 FM281600
                       29006KT P6SM SCT030 BKN045 FM290300 VRB03KT
                       P6SM SCT050=
202204272334 TAF KPAE 272334Z 2800/2824 27007KT P6SM BKN090 BKN110
                      TEMPO 2800/2802 5SM -RA OVC050 FM280400 VRB04KT
                       P6SM SCT050 FM281500 30003KT P6SM OVC050
                       FM282200 28007KT P6SM OVC050=
202204271742 TAF KPAE 271742Z 2718/2818 21008KT P6SM SCT015 BKN035 FM280200
                       35006KT P6SM BKN035 BKN050 FM280600 VRB03KT
                       P6SM SCT050 FM281500 21003KT P6SM OVC050=
202204271359 KPAE 271359Z 2714/2812 VRB03KT P6SM BKN015 BKN040 FM271700 26005KT
                       P6SM SCT030 BKN045 FM280200 35006KT P6SM
                       BKN035 BKN050 FM280600 VRB03KT P6SM SCT050=
202204271132 TAF KPAE 271132Z 2712/2812 VRB03KT P6SM BKN035 FM272000 26005KT
                       P6SM SCT035 BKN050 FM280200 35006KT P6SM
                       BKN035 BKN050 FM280600 VRB03KT P6SM SCT050=
202204270536 TAF KPAE 270536Z 2706/2806 VRB03KT P6SM -SHRA OVC030 FM270900 VRB03KT
                       P6SM SCT015 OVC025 FM271500 15004KT P6SM
                       SCT020 BKN035 FM272000 26005KT P6SM SCT035
                       BKN050 FM280200 VRB04KT P6SM SCT050 SCT120=
202204270114 KPAE 270114Z 2701/2724 33008KT P6SM SCT025 BKN035 FM270400 VRB04KT
                       P6SM SCT040 FM271100 09003KT P6SM SCT011
                       BKN040 FM271500 15004KT P6SM BKN030 FM272100
                       26005KT P6SM BKN050=
202204270021 KPAE 270021Z 2700/2724 21008KT 5SM RA BR OVC030 FM270200 18006KT
                       P6SM SCT020 BKN040 FM271100 17005KT P6SM
                       SCT011 BKN030 FM271800 26005KT P6SM BKN050=
202204262333 TAF KPAE 262333Z 2700/2724 19015G24KT P6SM VCSH SCT035 BKN040 FM270200
                       18006KT P6SM SCT020 BKN040 FM271100 17005KT
                       P6SM SCT011 BKN030 FM271800 26005KT P6SM
                       BKN050=
202204261747 TAF KPAE 261747Z 2618/2718 19010KT P6SM BKN030 FM261900 19011KT
                       P6SM -SHRA SCT020 BKN030 FM270100 18006KT
                       P6SM SCT020 BKN035 FM271100 17005KT P6SM
                       SCT011 BKN020=
202204261136 TAF KPAE 261136Z 2612/2712 16006KT P6SM SCT011 BKN020 OVC040 FM261600
                       18006KT P6SM SCT020 BKN035 BKN050 FM262000
                       18012KT P6SM -SHRA SCT020 BKN035 BKN050
                       FM270300 18006KT P6SM -SHRA BKN011 OVC020
                       FM270800 18006KT P6SM SCT011 BKN020 OVC035=
202204260537 TAF KPAE 260537Z 2606/2706 33006KT P6SM BKN020 OVC040 FM261000
                       18006KT P6SM SCT011 BKN020 OVC040 FM261600
                       18006KT P6SM SCT020 BKN035 BKN050 FM262000
                       18012KT P6SM -SHRA SCT020 BKN035 BKN050=
202204252341 TAF KPAE 252341Z 2600/2624 17010KT P6SM VCSH SCT040 OVC060 FM260200
                       19006KT P6SM BKN050 FM261100 17006KT P6SM
                       OVC030 FM261800 20014KT P6SM BKN050=
202204251738 TAF KPAE 251738Z 2518/2618 02005KT P6SM VCSH BKN010 BKN014 FM252000
                       21007KT P6SM VCSH SCT025 OVC050 FM260200
                       32006KT P6SM OVC050 FM261100 17006KT P6SM
                       OVC025=
202204251135 TAF KPAE 251135Z 2512/2612 16011KT P6SM -RA SCT015 BKN025 FM251500
                       19011KT P6SM -SHRA OVC015 FM252000 21007KT
                       P6SM VCSH SCT025 OVC050 FM260200 32006KT
                       P6SM OVC050 FM261100 17006KT P6SM OVC025=
202204251031 KPAE 251031Z 2511/2606 16011KT P6SM -RA SCT015 BKN025 FM251500
                       19011KT P6SM -SHRA OVC015 FM252000 21007KT
                       P6SM VCSH SCT025 OVC050 FM260200 32006KT
                       P6SM OVC050=
202204250906 KPAE 250906Z 2509/2606 18012KT P6SM -RA BKN035 OVC060 FM251500
                       19011KT P6SM -SHRA OVC015 FM252000 21007KT
                       P6SM VCSH SCT025 OVC050 FM260200 32006KT
                       P6SM OVC050=
202204250534 TAF KPAE 250534Z 2506/2606 21009KT P6SM SCT050 OVC100 FM250800
                       17010KT P6SM -RA OVC035 FM250900 17010KT
                       P6SM -RA OVC025 FM252000 21007KT P6SM -SHRA
                       SCT025 OVC050 FM260200 32006KT P6SM OVC050=
202204242322 TAF KPAE 242322Z 2500/2524 18011KT P6SM SCT050 SCT250 FM250700
                       17010KT P6SM -RA OVC035 FM250900 17010KT
                       P6SM -RA OVC025 FM252000 21007KT P6SM -SHRA
                       SCT025 OVC050=
202204241723 TAF KPAE 241723Z 2418/2518 19011KT P6SM SCT250 FM250700 17010KT
                       P6SM -RA OVC035 FM250900 17010KT P6SM -RA
                       OVC025=
202204241133 TAF KPAE 241133Z 2412/2512 12005KT P6SM SCT120 BKN200 FM241900
                       19012KT P6SM SCT120 BKN250 FM250600 17007KT
                       P6SM OVC050 FM250900 17010KT P6SM -RA OVC025=
202204240521 TAF KPAE 240521Z 2406/2506 35004KT P6SM BKN200 FM241000 16005KT
                       P6SM SCT120 BKN200 FM241900 19012KT P6SM
                       SCT120 BKN250=
202204232331 TAF KPAE 232331Z 2400/2424 27009KT P6SM SCT250 FM240300 32004KT
                       P6SM BKN200 FM241000 16005KT P6SM SCT120
                       BKN200 FM241900 19012KT P6SM SCT120 BKN250=
202204231729 TAF KPAE 231729Z 2318/2418 22006KT P6SM SCT005 BKN015 FM231900
                       23006KT P6SM SCT250 FM232300 27006KT P6SM
                       SCT050 SCT200 FM240300 32004KT P6SM BKN200
                       FM241000 16005KT P6SM SCT120 OVC200=
202204231629 KPAE 231629Z 2316/2412 25005KT P6SM SCT008 BKN020
                      TEMPO 2316/2318 BKN008 BKN020 FM231800 24006KT
                       P6SM BKN050 FM232300 27006KT P6SM SCT050
                       SCT200 FM240300 36004KT P6SM BKN200 FM241000
                       16005KT P6SM SCT120 OVC200=
202204231131 TAF KPAE 231131Z 2312/2412 19005KT P6SM SCT015 BKN040
                      TEMPO 2313/2317 BKN014 FM231800 24006KT P6SM
                       BKN050 FM232300 27006KT P6SM SCT050 SCT200
                       FM240300 36004KT P6SM BKN200 FM241000 16005KT
                       P6SM SCT120 OVC200=
202204230538 TAF KPAE 230538Z 2306/2406 35005KT P6SM BKN070 FM231000 16003KT
                       P6SM SCT050 SCT200 FM231200 19005KT P6SM
                       SCT015 BKN035
                      TEMPO 2313/2317 BKN014 FM231800 21006KT P6SM
                       BKN050 FM232300 24006KT P6SM SCT050 SCT200=
202204222324 TAF KPAE 222324Z 2300/2324 26007KT P6SM SCT050 FM230300 36005KT
                       P6SM SCT050 FM230900 16003KT P6SM BKN050
                       BKN250 FM231400 19005KT P6SM SCT015 BKN025
                       BKN050 FM231800 26007KT P6SM BKN050=
202204221732 TAF KPAE 221732Z 2218/2318 29005KT P6SM BKN015 BKN050 FM221900
                       32006KT P6SM BKN050 BKN250 FM230100 36005KT
                       P6SM SCT050 BKN250 FM230900 12003KT P6SM
                       BKN050 BKN250 FM231400 19005KT P6SM BKN025
                       BKN050=
202204221340 KPAE 221340Z 2214/2312 00000KT P6SM SCT007 OVC050
                      TEMPO 2214/2217 BKN007 OVC050 FM221900 29005KT
                       P6SM BKN050 BKN250 FM230100 36004KT P6SM
                       SCT050 BKN250 FM230900 16003KT P6SM BKN050
                       BKN250=
202204221121 TAF KPAE 221121Z 2212/2312 00000KT P6SM OVC050 FM221900 29005KT
                       P6SM BKN050 BKN250 FM230100 36004KT P6SM
                       SCT050 BKN250 FM230900 16003KT P6SM BKN050
                       BKN250=
202204220527 TAF KPAE 220527Z 2206/2306 15006KT P6SM BKN050 BKN100 FM221200
                       VRB03KT P6SM BKN050 BKN250 FM221900 29005KT
                       P6SM BKN050 BKN250 FM230100 36004KT P6SM
                       SCT050 BKN250=
202204212329 TAF KPAE 212329Z 2200/2224 21011KT P6SM VCSH FEW045 BKN060 OVC100
                       FM220200 19004KT P6SM BKN050 BKN250 FM221200
                       36002KT P6SM BKN050 FM221900 32004KT P6SM
                       BKN050=
202204211801 KPAE 211801Z 2118/2218 16010G20KT P6SM SCT017 SCT060 FM212200 19010KT
                       P6SM VCSH BKN050 FM220200 19004KT P6SM BKN050
                       BKN250 FM221300 36002KT P6SM BKN050=
202204211735 TAF KPAE 211735Z 2118/2218 16010G20KT P6SM SCT017 SCT060 FM212200
                       19010KT P6SM VCSH OVC050 FM220200 19004KT
                       P6SM BKN050 BKN250 FM221300 36002KT P6SM
                       BKN050=
202204211120 TAF KPAE 211120Z 2112/2212 34004KT P6SM SCT050 OVC090 FM211400
                       15006KT P6SM -RA OVC320 FM212200 21010KT
                       P6SM VCSH OVC050 FM220200 19004KT P6SM BKN050
                       BKN250=
202204210520 TAF KPAE 210520Z 2106/2206 19006KT P6SM SCT035 BKN050 FM211400
                       15006KT P6SM -SHRA OVC020 FM212200 21012KT
                       P6SM VCSH OVC050 FM220200 19004KT P6SM BKN050=
202204202331 TAF KPAE 202331Z 2100/2124 14014G26KT P6SM -RA BKN040 OVC045 FM210100
                       18010KT P6SM -RA OVC035 FM210600 16005KT
                       P6SM BKN050 BKN100 FM211400 15006KT P6SM
                       VCSH OVC015 FM212200 21012KT P6SM OVC050=
202204201732 TAF KPAE 201732Z 2018/2118 18010KT P6SM FEW040 BKN130 OVC200 FM202200
                       19013G20KT P6SM -RA OVC050 FM210100 18010KT
                       P6SM -RA OVC035 FM210600 16005KT P6SM BKN050
                       BKN100 FM211400 15006KT P6SM VCSH OVC015=
202204201126 TAF KPAE 201126Z 2012/2112 11005KT P6SM SCT250 FM201700 15010KT
                       P6SM BKN150 BKN250 FM202200 19013G20KT P6SM
                       -RA OVC050 FM210100 18010KT P6SM -RA OVC030
                       FM210600 16005KT P6SM BKN050 BKN100=
202204200520 TAF KPAE 200520Z 2006/2106 36005KT P6SM FEW050 SCT250 FM201700
                       15007KT P6SM OVC100 FM202200 19010G16KT
                       P6SM -RA OVC050 FM210100 18012G20KT P6SM
                       -RA OVC030=
202204192335 TAF KPAE 192335Z 2000/2024 VRB06KT P6SM VCSH FEW050 SCT100 FM200200
                       18004KT P6SM FEW050 SCT100 FM200400 34003KT
                       P6SM BKN100 FM201700 15007KT P6SM OVC100
                       FM202200 19010G16KT P6SM -SHRA OVC050=
202204191730 TAF KPAE 191730Z 1918/2018 20007KT P6SM BKN020 OVC026 FM192000
                       22007KT P6SM VCSH SCT025 BKN050 FM200000
                       21005KT P6SM SCT050 BKN120 FM200300 18004KT
                       P6SM SCT050 SCT200 FM201000 15005KT P6SM
                       FEW010 SCT120 BKN250=
202204191120 TAF KPAE 191120Z 1912/2012 21010G18KT P6SM -SHRA OVC012 FM191900
                       22007KT P6SM -SHRA BKN020 OVC050 FM200000
                       21005KT P6SM SCT050 BKN120 FM200300 16004KT
                       P6SM SCT050 SCT200=
202204190520 TAF KPAE 190520Z 1906/2006 19015G23KT P6SM OVC012 FM190800 18012KT
                       P6SM OVC015 FM191900 22007KT P6SM -SHRA
                       BKN020 OVC050 FM200000 21005KT P6SM SCT050
                       BKN120=
202204182320 TAF KPAE 182320Z 1900/1924 20014G22KT 4SM -RA BR OVC020 FM190400
                       27012KT P6SM -SHRA BKN020 BKN050 FM191000
                       22010KT P6SM VCSH OVC015 FM191700 22007KT
                       P6SM BKN025 BKN050=
202204182125 KPAE 182125Z 1821/1918 18012KT 4SM -RA BR OVC035 FM182300 20014G22KT
                       4SM -RA BR OVC020 FM190400 27012KT P6SM
                       -SHRA BKN020 BKN050 FM191000 22010KT P6SM
                       VCSH OVC015 FM191700 22007KT P6SM BKN025
                       BKN050=
202204181720 TAF KPAE 181720Z 1818/1918 22008KT P6SM -RA OVC035 FM182000 16012G20KT
                       5SM -RA OVC025 FM182300 20014G22KT 4SM -RA
                       BR OVC020 FM190400 27012KT P6SM -SHRA BKN020
                       BKN050 FM191000 22010KT P6SM VCSH OVC015
                       FM191700 22007KT P6SM BKN025 BKN050=
202204181126 TAF KPAE 181126Z 1812/1912 16010KT P6SM VCSH OVC060 FM181600 14011KT
                       P6SM -RA OVC035 FM181800 18014G22KT 5SM
                       -RA BR OVC025 FM182200 21015G25KT 5SM -RA
                       BR OVC015 FM190800 18012KT P6SM VCSH SCT015
                       OVC030=
202204180520 TAF KPAE 180520Z 1806/1906 15008KT P6SM SCT100 FM180800 16010KT
                       P6SM OVC060 FM181600 14011KT P6SM -RA OVC035
                       FM181800 18014G22KT 5SM -RA BR OVC025 FM182200
                       21015G25KT 5SM -RA BR OVC015=
202204180308 KPAE 180308Z 1803/1824 18005KT P6SM OVC100 FM180800 16010KT P6SM
                       OVC060 FM181600 14011KT P6SM -RA OVC035
                       FM181800 18014G22KT 5SM -RA BR OVC025 FM182200
                       21015G25KT 5SM -RA BR OVC012=
202204172345 TAF KPAE 172345Z 1800/1824 20009KT P6SM SCT030 SCT250 FM180200
                       18010KT P6SM SCT040 OVC100 FM180800 16010KT
                       P6SM OVC040 FM181600 14011KT P6SM -RA OVC050=
202204171730 TAF KPAE 171730Z 1718/1818 20009KT P6SM SCT030 SCT250 FM180200
                       18010KT P6SM SCT040 OVC100 FM180800 16010KT
                       P6SM OVC040 FM181600 14011KT P6SM -RA OVC050=
202204171120 TAF KPAE 171120Z 1712/1812 17007KT P6SM OVC020 FM171800 20009KT
                       P6SM SCT030 SCT250 FM180200 18010KT P6SM
                       SCT040 OVC100 FM180800 16010KT P6SM OVC040=
202204170527 TAF KPAE 170527Z 1706/1806 13005KT P6SM VCSH SCT025 OVC050 FM170800
                       17007KT P6SM SCT020 OVC040
                      TEMPO 1712/1716 4SM BR OVC020 FM171800 20009KT
                       P6SM SCT040 SCT250 FM180200 18010KT P6SM
                       SCT040 OVC100=
202204162322 TAF KPAE 162322Z 1700/1724 23010KT P6SM -SHRA OVC040 FM170200 33004KT
                       P6SM OVC040 FM170800 17007KT P6SM OVC040=
202204161738 TAF KPAE 161738Z 1618/1718 21007KT P6SM VCSH BKN050 OVC100 FM162300
                       20010KT P6SM -SHRA OVC040 FM170200 33004KT
                       P6SM OVC040 FM170800 17007KT P6SM OVC040=
202204161120 TAF KPAE 161120Z 1612/1712 VRB04KT P6SM SCT050 BKN080 FM161800
                       21007KT P6SM VCSH BKN050 OVC100 FM162300
                       20010KT P6SM -SHRA OVC040 FM170200 33004KT
                       P6SM OVC040 FM170800 17007KT P6SM OVC040=
202204160525 TAF KPAE 160525Z 1606/1706 VRB04KT P6SM SCT060 BKN090 FM161200
                       00000KT P6SM SCT050 BKN080 FM161800 21007KT
                       P6SM VCSH BKN050 OVC100 FM162300 20010KT
                       P6SM -SHRA OVC040 FM170200 33004KT P6SM
                       OVC040=
202204152320 TAF KPAE 152320Z 1600/1624 VRB04KT P6SM SCT050 SCT100 FM161200
                       00000KT P6SM SCT050 BKN090 FM161800 21007KT
                       P6SM VCSH BKN050 OVC100 FM162300 20010KT
                       P6SM -SHRA OVC040=
202204151720 TAF KPAE 151720Z 1518/1618 21006KT P6SM SCT015 BKN050
                      TEMPO 1518/1521 BKN015 BKN050 FM152200 VRB04KT
                       P6SM VCSH BKN050 BKN100 FM160500 VRB04KT
                       P6SM SCT050 SCT100=
202204151122 TAF KPAE 151122Z 1512/1612 15005KT P6SM BKN017 OVC050 FM151900
                       21007KT P6SM BKN050 FM152100 25003KT P6SM
                       SCT050 BKN100 FM160300 04002KT P6SM OVC100=
202204150524 TAF KPAE 150524Z 1506/1606 15004KT P6SM SCT045 OVC060 FM151000
                       18008KT P6SM SCT010 BKN050 BKN100
                      TEMPO 1510/1514 BKN010 OVC050 FM151700 20005KT
                       P6SM SCT030 BKN050 FM152100 25004KT P6SM
                       SCT050 OVC100=
202204142320 TAF KPAE 142320Z 1500/1524 VRB05KT P6SM VCSH BKN040 BKN100 FM151000
                       00000KT P6SM SCT010 BKN050 BKN100
                      TEMPO 1510/1514 BKN010 OVC050 FM151700 VRB05KT
                       P6SM SCT030 BKN050=
202204141857 KPAE 141857Z 1419/1518 VRB05KT P6SM -SHRA SCT015 BKN035 OVC070
                       TEMPO 1419/1422 3SM SHRA BR SCT010 OVC025
                       FM150600 00000KT P6SM SCT010 BKN050 OVC090
                       TEMPO 1510/1514 BKN010 OVC050 FM151700 VRB05KT
                       P6SM SCT015 BKN050 BKN090=
202204141720 TAF KPAE 141720Z 1418/1518 VRB05KT P6SM SCT015 BKN035 OVC070
                      TEMPO 1418/1421 SCT010 OVC030 FM150600 00000KT
                       P6SM SCT010 BKN050 OVC090
                      TEMPO 1510/1514 BKN010 OVC050 FM151700 VRB05KT
                       P6SM SCT015 BKN050 BKN090=
202204141120 TAF KPAE 141120Z 1412/1512 20003KT P6SM FEW060 BKN080 FM141800
                       29005KT P6SM BKN040 FM150000 VRB03KT P6SM
                       OVC100 FM150600 36001KT P6SM OVC100=
202204140526 TAF KPAE 140526Z 1406/1506 22005KT P6SM FEW120 FM141000 00000KT
                       P6SM SCT010 SCT090 FM141800 VRB04KT P6SM
                       SCT040 BKN090 FM150000 VRB03KT P6SM OVC100=
202204132323 TAF KPAE 132323Z 1400/1424 VRB04KT P6SM VCSH SCT050 OVC080 FM140600
                       04005KT P6SM SCT050 BKN090 FM141000 00000KT
                       P6SM SCT010 SCT090 FM141700 VRB04KT P6SM
                       SCT040 BKN090=
202204131720 TAF KPAE 131720Z 1318/1418 10012KT P6SM BKN050 OVC090 FM140600
                       10008KT P6SM SCT050 BKN090=
202204131120 TAF KPAE 131120Z 1312/1412 05004KT P6SM SCT080 SCT100 FM131600
                       31006KT P6SM OVC050 FM132300 23004KT P6SM
                       BKN100 FM140600 00000KT P6SM OVC100=
202204130521 TAF KPAE 130521Z 1306/1406 15008KT P6SM VCSH FEW029 SCT050
                      TEMPO 1306/1310 -SHRA BKN030 FM131000 VRB04KT
                       P6SM OVC050 FM131600 18006KT P6SM OVC050
                       FM132300 24005KT P6SM BKN100=
202204130225 KPAE 130225Z 1302/1324 18010G18KT P6SM SCT030 BKN060
                      TEMPO 1302/1305 -SHRA BKN030 BKN060 FM130500
                       18007KT P6SM OVC040 FM130900 13003KT P6SM
                       OVC070 FM131500 04005KT P6SM OVC060 FM132000
                       20007KT P6SM BKN080=
202204122327 TAF KPAE 122327Z 1300/1324 18015G25KT P6SM VCSH BKN035 OVC060 FM130300
                       18007KT P6SM OVC040 FM130900 13003KT P6SM
                       OVC070 FM131500 04005KT P6SM OVC060 FM132000
                       20007KT P6SM BKN080=
202204121734 TAF KPAE 121734Z 1218/1318 16015G25KT P6SM VCSH SCT020 OVC060 FM130300
                       18007KT P6SM OVC040 FM130900 13003KT P6SM
                       OVC070=
202204121120 TAF KPAE 121120Z 1212/1312 17012G22KT P6SM OVC030 FM121600 17014G24KT
                       6SM SHRA OVC030 FM130300 18007KT P6SM OVC040=
202204120533 TAF KPAE 120533Z 1206/1306 17009KT P6SM OVC050 FM121200 17012KT
                       P6SM OVC030 FM121600 17012KT 6SM SHRA OVC030
                       FM130300 18007KT P6SM OVC040=
202204120223 KPAE 120223Z 1202/1224 11007KT P6SM OVC080 FM120600 19005KT P6SM
                       OVC050 FM121400 17011KT P6SM OVC030=
202204112332 TAF KPAE 112332Z 1200/1224 32011G19KT P6SM VCSH BKN100 FM120400
                       35005KT P6SM SCT020 OVC070 FM120600 19005KT
                       P6SM OVC050 FM121400 17011KT P6SM OVC030=
202204111737 TAF KPAE 111737Z 1118/1218 34008G16KT P6SM SCT020 OVC080 FM112100
                       35008KT P6SM VCSH SCT020 BKN070 FM120400
                       28003KT P6SM VCSH SCT020 OVC060 FM120600
                       19005KT P6SM OVC050=
202204111516 KPAE 111516Z 1115/1212 35008G16KT P6SM SCT020 OVC090 FM112100 35008KT
                       P6SM VCSH SCT020 BKN070 FM120600 19005KT
                       P6SM OVC050=
202204111120 TAF KPAE 111120Z 1112/1212 36012G24KT P6SM VCSH BKN004 OVC007 FM111500
                       35012G20KT P6SM -RA BKN005 OVC015 FM112100
                       35008KT P6SM SHRA SCT020 BKN040 FM120600
                       19005KT P6SM OVC050=
202204110521 TAF KPAE 110521Z 1106/1206 03004KT P6SM -SHRA SCT003 OVC012 FM111000
                       36007KT P6SM -RA OVC012 FM111500 35015G20KT
                       P6SM -RA OVC020 FM112000 33006KT P6SM OVC050=
202204110253 KPAE 110253Z 1103/1124 00000KT 3SM -SHRA BR OVC009 FM110500 03004KT
                       P6SM -SHRA SCT010 OVC030 FM111000 36007KT
                       P6SM -RA OVC020 FM111500 35015G20KT P6SM
                       -RA OVC020 FM112000 33006KT P6SM OVC050=
202204102333 TAF KPAE 102333Z 1100/1124 30005KT P6SM SCT020 SCT040 FM110400
                       03004KT P6SM -SHRA OVC025 FM111000 36007KT
                       P6SM -RA OVC020 FM111500 35015G20KT P6SM
                       -RA OVC020 FM112000 33006KT P6SM OVC050=
202204101723 TAF KPAE 101723Z 1018/1118 VRB03KT P6SM OVC005 FM102100 25007KT
                       P6SM OVC040 FM110400 03004KT P6SM -SHRA
                       OVC025 FM111000 36005KT P6SM OVC020=
202204101304 KPAE 101304Z 1013/1112 16009KT 6SM -RA BKN007 OVC015
                      TEMPO 1013/1017 OVC004 FM102100 25007KT P6SM
                       OVC040 FM110400 03004KT P6SM -SHRA OVC025=
202204101137 TAF KPAE 101137Z 1012/1112 16009KT 4SM RA BKN007 OVC015 FM102100
                       25007KT P6SM OVC040 FM110400 03004KT P6SM
                       -SHRA OVC025=
202204100523 TAF KPAE 100523Z 1006/1106 18015G25KT 5SM -RA OVC025 FM101100 35003KT
                       P6SM VCSH OVC020 FM102100 26007KT P6SM OVC040=
202204092320 TAF KPAE 092320Z 1000/1024 33003KT P6SM VCSH BKN035 BKN050 FM100300
                       18008KT P6SM OVC050 FM100600 20008KT P6SM
                       -RA OVC025 FM101100 35003KT P6SM VCSH OVC020
                       FM102100 26007KT P6SM OVC040=
202204091732 TAF KPAE 091732Z 0918/1018 27005KT P6SM FEW015 SCT029 OVC100 FM092100
                       34008G16KT P6SM VCSH OVC050 FM100300 18008KT
                       P6SM OVC050 FM100600 20008KT P6SM -RA OVC025
                       FM101100 35003KT P6SM VCSH OVC020=
202204091136 TAF KPAE 091136Z 0912/1012 19006KT P6SM VCSH FEW025 BKN035 FM091700
                       24010KT P6SM BKN050 FM092100 34008G16KT
                       P6SM VCSH OVC050 FM100300 18008KT P6SM OVC050
                       FM100600 20008KT P6SM -RA OVC025 FM101100
                       35003KT P6SM VCSH OVC035=
202204090535 TAF KPAE 090535Z 0906/1006 VRB06KT P6SM VCSH FEW040 SCT050 BKN080
                       FM091200 18010KT P6SM VCSH BKN035 FM091700
                       27010KT P6SM BKN050 FM092100 34008G16KT
                       P6SM OVC050 FM100500 20008KT P6SM -RA OVC025=
202204082332 TAF KPAE 082332Z 0900/0924 35006KT P6SM -RA VCSH SCT015 BKN029
                       OVC035 FM090400 VRB06KT P6SM -RA BKN020
                       OVC040 FM091200 18010KT P6SM VCSH BKN035
                       FM091700 27010KT P6SM BKN050 FM092100 34008G15KT
                       P6SM OVC050=
202204081959 KPAE 081959Z 0820/0918 30007KT P6SM VCSH BKN020
                      TEMPO 0820/0821 22015G25KT 5SM RA FM090400
                       VRB06KT P6SM -RA BKN020 OVC040 FM091200
                       18010KT P6SM VCSH BKN035 FM091700 27010KT
                       P6SM BKN050=
202204081841 KPAE 081841Z 0819/0918 19015KT P6SM VCSH FEW022 BKN035 OVC040 FM082000
                       30007KT P6SM VCSH BKN020 FM090400 VRB06KT
                       P6SM -RA BKN020 OVC040 FM091200 18010KT
                       P6SM VCSH BKN035 FM091700 27010KT P6SM BKN050=
202204081732 TAF KPAE 081732Z 0818/0918 20015G25KT P6SM VCSH OVC020 FM082000
                       30007KT P6SM VCSH BKN020 FM090400 VRB06KT
                       P6SM -RA BKN020 OVC040 FM091200 18010KT
                       P6SM VCSH BKN035 FM091700 27010KT P6SM BKN050=
202204081504 KPAE 081504Z 0815/0912 19018G27KT P6SM FEW015 FM081600 20012G22KT
                       P6SM VCSH BKN020 BKN040 FM090000 30007KT
                       P6SM -SHRA BKN020 FM091000 VRB04KT P6SM
                       VCSH BKN020=
202204081124 TAF KPAE 081124Z 0812/0912 18014G22KT P6SM VCSH BKN020 OVC040
                      TEMPO 0812/0816 -RA OVC012 FM081600 20012G22KT
                       P6SM VCSH BKN020 BKN040 FM090000 30007KT
                       P6SM -SHRA BKN020 FM091000 VRB04KT P6SM
                       VCSH BKN020=
202204080520 TAF KPAE 080520Z 0806/0906 VRB04KT P6SM SCT050 OVC100 FM081000
                       18012KT P6SM -RA BKN040 OVC080 FM081400
                       20012G20KT P6SM VCSH BKN035 FM081800 27010KT
                       P6SM -SHRA BKN035=
202204072322 TAF KPAE 072322Z 0800/0824 VRB04KT P6SM SCT140 BKN250 FM080400
                       22008KT P6SM BKN120 FM081000 18012KT P6SM
                       -RA OVC035 FM081400 18012KT P6SM VCSH OVC045
                       FM081800 21016G23KT P6SM OVC050=
202204071728 TAF KPAE 071728Z 0718/0818 VRB04KT P6SM BKN250 FM080400 22008KT
                       P6SM BKN120 FM081000 18012KT P6SM -RA OVC035
                       FM081400 18012KT P6SM VCSH OVC045=
202204071120 TAF KPAE 071120Z 0712/0812 02004KT P6SM BKN200 FM071600 VRB04KT
                       P6SM SCT200 FM080400 22008KT P6SM BKN120
                       FM081000 18012KT P6SM -RA OVC035=
202204070520 TAF KPAE 070520Z 0706/0806 05005KT P6SM BKN250 FM071600 VRB04KT
                       P6SM SCT250 FM080400 22008KT P6SM SCT050
                       BKN200=
202204062326 TAF KPAE 062326Z 0700/0724 35006KT P6SM SKC FM070300 03004KT P6SM
                       BKN250 FM070600 09004KT P6SM BKN250 FM071800
                       16008KT P6SM BKN250=
202204061720 TAF KPAE 061720Z 0618/0718 05007KT P6SM SKC FM062100 35008KT P6SM
                       BKN200 FM070300 03004KT P6SM BKN200=
202204061120 TAF KPAE 061120Z 0612/0712 10006KT P6SM SCT250 FM062100 35008KT
                       P6SM BKN200=
202204060520 TAF KPAE 060520Z 0606/0706 VRB04KT P6SM SCT050 FM062100 35008KT
                       P6SM SCT250=
202204052326 TAF KPAE 052326Z 0600/0624 35005KT P6SM SCT090 FM060600 36004KT
                       P6SM BKN040 FM061200 12003KT P6SM BKN250=
202204051739 TAF KPAE 051739Z 0518/0618 18010KT P6SM BKN070 FM052100 29015KT
                       P6SM VCSH SCT030 BKN050 FM060000 32009KT
                       P6SM BKN050 FM060600 36004KT P6SM BKN040=
202204051120 TAF KPAE 051120Z 0512/0612 18012G22KT P6SM VCSH SCT025 BKN050 BKN080
                       FM052100 25012KT P6SM SCT030 BKN050 FM060600
                       VRB04KT P6SM SCT050=
202204050520 TAF KPAE 050520Z 0506/0606 21012G22KT P6SM VCSH SCT025 BKN040 FM052100
                       26012KT P6SM VCSH SCT025 BKN040=
202204042320 TAF KPAE 042320Z 0500/0524 22015G25KT P6SM -SHRA SCT025 OVC040
                       FM050600 20012G20KT P6SM -SHRA BKN025 OVC050
                       FM051500 20015G24KT P6SM -SHRA BKN030 OVC050
                       FM052000 27012KT P6SM BKN050=
202204041743 KPAE 041743Z 0418/0518 21025G35KT P6SM -SHRA OVC035 WS020/22050KT
                       TEMPO 0418/0422 3SM SHRA BR OVC020 FM050000
                       22015G25KT P6SM -SHRA OVC040 FM050600 20012G20KT
                       P6SM -SHRA BKN025 OVC050 FM051500 20015G24KT
                       P6SM -SHRA BKN030 OVC050=
202204041731 TAF KPAE 041731Z 0418/0518 21025G35KT P6SM SHRA OVC035 WS020/22050KT
                       FM050000 22015G25KT P6SM -SHRA OVC040 FM050600
                       20012G20KT P6SM SHRA BKN035 OVC050=
202204041331 KPAE 041331Z 0414/0512 18020G30KT 5SM RA BR BKN010 OVC020 WS020/19050KT
                       FM041800 21025G35KT P6SM SHRA OVC035 WS020/22050KT
                       FM050000 22015G25KT P6SM -SHRA OVC040 FM050600
                       20012G20KT P6SM SHRA BKN035 OVC050=
202204041157 TAF KPAE 041157Z 0412/0512 17020G30KT 5SM RA BR BKN010 OVC020 FM041800
                       21025G35KT P6SM SHRA OVC035 FM050000 22015G25KT
                       P6SM -SHRA OVC040 FM050600 20012G20KT P6SM
                       SHRA BKN035 OVC050=
202204040553 TAF KPAE 040553Z 0406/0506 16015G25KT 6SM -RA BR BKN030 OVC040
                       FM040900 18025G35KT 5SM RA BR OVC025 FM041800
                       21025G35KT P6SM SHRA OVC035 FM050000 22015G25KT
                       P6SM -SHRA OVC050=
202204032331 TAF KPAE 032331Z 0400/0424 18017G27KT 6SM -RA BR OVC030 FM040300
                       18020G30KT 5SM RA BR OVC020 FM040900 18025G35KT
                       5SM RA BR OVC015 FM041800 21025G35KT P6SM
                       SHRA OVC035=
202204031723 TAF KPAE 031723Z 0318/0418 17015G25KT P6SM -RA OVC035 FM032100
                       18017G27KT 6SM -RA BR OVC015 FM040300 18020G30KT
                       5SM RA BR OVC010 FM040900 18025G35KT 5SM
                       RA BR OVC012=
202204031140 TAF KPAE 031140Z 0312/0412 16010KT P6SM OVC050 FM031700 17015G25KT
                       P6SM -RA OVC035 FM032100 18017G27KT 6SM
                       -RA BR OVC015 FM040300 18020G30KT 5SM RA
                       BR OVC010 FM040900 18025G35KT 5SM RA BR
                       OVC012=
202204030521 TAF KPAE 030521Z 0306/0406 16010KT P6SM BKN100 FM031700 17015G25KT
                       P6SM -RA OVC040 FM032100 18020G30KT 6SM
                       -RA BR OVC019 FM040400 18025G35KT 5SM RA
                       BR OVC011=
202204022324 TAF KPAE 022324Z 0300/0324 20010KT P6SM BKN040 FM030300 18008KT
                       P6SM BKN100 FM031700 17012G20KT P6SM -RA
                       OVC040 FM032100 20020G30KT 6SM -RA OVC025=
202204021720 TAF KPAE 021720Z 0218/0318 15006KT P6SM VCSH BKN025 FM021900 18008KT
                       P6SM SCT020 OVC035 FM022200 20010KT P6SM
                       BKN040 FM030300 18008KT P6SM BKN100 FM031700
                       17012G20KT P6SM -RA OVC040=
202204021123 TAF KPAE 021123Z 0212/0312 VRB04KT P6SM VCSH BKN020 BKN035 FM021700
                       18008KT P6SM VCSH SCT020 OVC035 FM022200
                       20010KT P6SM BKN040 FM030300 18008KT P6SM
                       BKN100=
202204020758 KPAE 020758Z 0208/0306 VRB04KT 5SM -SHRA BR SCT010 OVC022
                      TEMPO 0208/0211 2SM -SHRA BR BKN005 OVC010
                       FM021100 20007KT P6SM VCSH BKN015 BKN030
                       FM021700 20010KT P6SM VCSH SCT020 OVC035
                       FM022200 20010KT P6SM BKN040 FM030300 18008KT
                       P6SM BKN100=
202204020524 TAF KPAE 020524Z 0206/0306 19009KT P6SM -RA OVC030 FM021000 20009KT
                       P6SM VCSH OVC022 FM021700 20010KT P6SM VCSH
                       SCT020 OVC035 FM022200 20010KT P6SM BKN040
                       FM030300 18008KT P6SM BKN100=
202204012320 TAF KPAE 012320Z 0200/0224 17008KT P6SM SCT040 OVC090 FM020200
                       21010KT P6SM -RA SCT025 OVC040 FM020600
                       20008KT P6SM -RA OVC020 FM021200 23006KT
                       P6SM VCSH OVC015 FM021700 20010KT P6SM SCT020
                       OVC035=
202204011720 TAF KPAE 011720Z 0118/0218 17008KT P6SM SCT020 SCT100 FM020000
                       21010KT P6SM -RA SCT025 OVC040 FM020600
                       20007KT P6SM -RA OVC020=
202204011120 TAF KPAE 011120Z 0112/0212 05004KT P6SM OVC035 FM011300 15004KT
                       P6SM OVC025 FM011800 17007KT P6SM SCT030
                       OVC050 FM020000 21007KT P6SM -RA SCT025
                       OVC040=
202204010533 TAF KPAE 010533Z 0106/0206 05004KT P6SM BKN045 OVC060 FM011100
                       15004KT P6SM OVC025 FM011800 17007KT P6SM
                       SCT030 OVC050 FM020000 21007KT P6SM -RA
                       SCT025 OVC040=