##########################################################
# Query made at 02/15/2025 22:39:25 UTC
# Time interval: from 02/01/2022 00:00  to 02/28/2022 23:59  UTC
##########################################################

##########################################################
# KPAE, Everett, Snohomish County Airport (United States)
# WMO index: -----. WIGOS ID: Unknown
# Latitude 47-55-23N. Longitude 122-16-57W. Altitude 184 m.
##########################################################

###################################
#  METAR/SPECI from KPAE
###################################
202202282356 SPECI KPAE 282356Z 18019G27KT 10SM -RA BKN009 BKN029 OVC060 12/12 A2986 RMK AO2 P0000 T01170117=
202202282353 METAR KPAE 282353Z 19019G27KT 9SM -RA SCT009 BKN019 OVC034 12/12 A2986 RMK AO2 PK WND 18027/2347 SLP113 P0000 60013 T01170117 10122 20083 51004=
202202282307 SPECI KPAE 282307Z 18016KT 8SM -RA SCT009 BKN019 OVC034 12/12 A2986 RMK AO2 P0000 T01170117=
202202282300 SPECI KPAE 282300Z 18018KT 9SM -RA SCT009 SCT017 OVC034 12/12 A2986 RMK AO2 P0000 T01170117=
202202282253 METAR KPAE 282253Z 18016KT 8SM -RA BKN009 BKN019 OVC037 12/12 A2986 RMK AO2 PK WND 19028/2204 SLP113 P0000 T01170117=
202202282153 METAR KPAE 282153Z 19017G22KT 3SM -RA BR BKN007 OVC015 12/12 A2985 RMK AO2 SLP109 P0002 T01170117=
202202282142 SPECI KPAE 282142Z 19017G23KT 3SM -RA BR OVC007 11/11 A2985 RMK AO2 P0002 T01110111 $=
202202282134 SPECI KPAE 282134Z 19015G24KT 2 1/2SM -RA BR OVC005 11/11 A2985 RMK AO2 P0002 T01110111 $=
202202282115 SPECI KPAE 282115Z 20011KT 1 3/4SM R16R/5500VP6000FT -RA BR OVC006 11/11 A2985 RMK AO2 P0001 T01110111 $=
202202282101 SPECI KPAE 282101Z 20010KT 2SM -RA BR OVC006 11/11 A2985 RMK AO2 P0000 T01110111 $=
202202282053 METAR KPAE 282053Z 19009KT 1 1/4SM -RA BR OVC003 11/11 A2985 RMK AO2 SLP110 P0004 60011 T01060106 58007=
202202281958 SPECI KPAE 281958Z 00000KT 1 1/4SM RA BR BKN004 OVC008 09/09 A2987 RMK AO2 P0001 T00940094=
202202281953 METAR KPAE 281953Z 15004KT 2SM R16R/5500VP6000FT RA BR OVC006 09/09 A2987 RMK AO2 SLP115 P0006 T00940094=
202202281853 METAR KPAE 281853Z 00000KT 2SM -RA BR OVC004 09/09 A2986 RMK AO2 SLP114 P0001 T00890089=
202202281833 SPECI KPAE 281833Z 00000KT 2SM -RA BR BKN004 OVC008 08/08 A2987 RMK AO2 P0001 T00830083 $=
202202281825 SPECI KPAE 281825Z VRB03KT 2SM -RA BR OVC006 08/08 A2987 RMK AO2 P0001 T00830083 $=
202202281823 SPECI KPAE 281823Z VRB03KT 4SM -RA BR BKN004 OVC008 08/08 A2987 RMK AO2 P0001 T00830083 $=
202202281811 SPECI KPAE 281811Z VRB03KT 2SM RA BR OVC004 08/08 A2987 RMK AO2 P0001 T00830083 $=
202202281800 SPECI KPAE 281800Z VRB04KT 3SM -RA BR OVC003 08/08 A2987 RMK AO2 P0000 T00830083 $=
202202281753 METAR KPAE 281753Z VRB03KT 1SM R16R/P6000FT -RA BR SCT003 BKN007 OVC015 08/08 A2987 RMK AO2 SLP118 P0002 60008 T00830083 10094 20083 53001 $=
202202281653 METAR KPAE 281653Z VRB03KT 1SM R16R/P6000FT -RA BR SCT003 BKN007 OVC015 09/09 A2987 RMK AO2 SLP117 P0000 T00890089 $=
202202281621 SPECI KPAE 281621Z 21007KT 1SM R16R/P6000FT -RA BR OVC007 08/08 A2987 RMK AO2 P0000 T00830083 $=
202202281553 METAR KPAE 281553Z 15008KT 4SM -RA BR OVC007 09/09 A2986 RMK AO2 SLP114 P0001 T00890089=
202202281453 METAR KPAE 281453Z 15012G19KT 6SM -RA BR OVC005 09/09 A2987 RMK AO2 SLP116 P0002 60005 T00890089 58007=
202202281445 SPECI KPAE 281445Z 14012G19KT 5SM RA BR FEW003 SCT009 OVC050 09/09 A2987 RMK AO2 P0002 T00890089=
202202281416 SPECI KPAE 281416Z AUTO 14010G15KT 7SM -RA BKN005 BKN008 OVC044 09/09 A2988 RMK AO2 P0001 T00890089=
202202281353 METAR KPAE 281353Z AUTO 15011KT 6SM -RA BR BKN003 OVC044 09/09 A2988 RMK AO2 SLP120 P0001 T00890089=
202202281340 SPECI KPAE 281340Z AUTO 14010KT 6SM -RA BR BKN003 BKN011 OVC042 09/09 A2988 RMK AO2 P0001 T00940094=
202202281325 SPECI KPAE 281325Z AUTO 15009G15KT 5SM -RA BR FEW004 SCT009 OVC039 09/09 A2988 RMK AO2 P0001 T00940094=
202202281315 SPECI KPAE 281315Z AUTO 15011KT 5SM -RA BR FEW004 BKN011 OVC039 09/09 A2989 RMK AO2 P0001 T00940094=
202202281253 METAR KPAE 281253Z AUTO 16010KT 5SM -RA BR FEW008 SCT012 OVC043 09/09 A2989 RMK AO2 SLP123 P0002 T00940094=
202202281232 SPECI KPAE 281232Z AUTO 16010KT 4SM -RA BR FEW006 FEW021 OVC031 09/09 A2988 RMK AO2 P0001 T00940094=
202202281227 SPECI KPAE 281227Z AUTO 16011KT 3SM -RA BR FEW022 OVC029 09/09 A2989 RMK AO2 P0001 T00940094=
202202281219 SPECI KPAE 281219Z AUTO 15012KT 2 1/2SM -RA BR FEW009 FEW022 OVC031 09/09 A2989 RMK AO2 P0001 T00940094=
202202281208 SPECI KPAE 281208Z AUTO 15013KT 2 1/2SM -RA BR FEW011 BKN029 OVC034 09/09 A2989 RMK AO2 P0000 T00890089=
202202281200 SPECI KPAE 281200Z AUTO 16011KT 4SM -RA BR FEW013 BKN035 OVC090 09/09 A2989 RMK AO2 P0000 T00890089=
202202281153 METAR KPAE 281153Z AUTO 15013KT 4SM -RA BR SCT012 BKN023 OVC090 09/09 A2989 RMK AO2 SLP123 P0001 60014 70025 T00890089 10094 20072 56009=
202202281141 SPECI KPAE 281141Z AUTO 15012KT 8SM -RA SCT011 BKN042 OVC090 09/09 A2989 RMK AO2 P0001 T00890089=
202202281128 SPECI KPAE 281128Z AUTO 15011KT 4SM -RA BR FEW008 BKN014 OVC035 09/09 A2990 RMK AO2 P0001 T00890089=
202202281105 SPECI KPAE 281105Z AUTO 14008G17KT 110V170 4SM -RA BR FEW016 BKN026 OVC035 09/09 A2991 RMK AO2 P0001 T00890089=
202202281053 METAR KPAE 281053Z AUTO 14011KT 6SM -RA BR FEW016 BKN033 OVC041 09/09 A2991 RMK AO2 SLP130 P0001 T00890089=
202202280953 METAR KPAE 280953Z AUTO 16016G22KT 9SM -RA FEW016 SCT032 OVC060 09/09 A2992 RMK AO2 PK WND 14029/0857 SLP133 P0001 T00940094=
202202280853 METAR KPAE 280853Z AUTO 16014G23KT 10SM -RA SCT017 BKN043 OVC060 09/09 A2994 RMK AO2 PK WND 15030/0801 SLP142 P0000 60011 T00890089 56020=
202202280845 SPECI KPAE 280845Z AUTO 16017G26KT 10SM -RA SCT019 BKN038 OVC055 09/09 A2995 RMK AO2 PK WND 15030/0801 P0000 T00890089=
202202280837 SPECI KPAE 280837Z AUTO 16016G27KT 10SM -RA FEW013 BKN021 OVC060 09/09 A2995 RMK AO2 PK WND 15030/0801 P0000 T00890089=
202202280753 METAR KPAE 280753Z AUTO 15018G26KT 10SM -RA SCT044 OVC060 08/08 A2995 RMK AO2 PK WND 17028/0727 SLP144 P0002 T00830083 401000044=
202202280653 METAR KPAE 280653Z AUTO 14008G18KT 5SM -RA BR SCT025 BKN036 OVC045 07/07 A2999 RMK AO2 SLP158 P0009 T00720072=
202202280553 METAR KPAE 280553Z AUTO 14014G24KT 100V160 4SM RA BR FEW036 OVC048 07/07 A3000 RMK AO2 SLP162 P0004 60010 T00720072 10089 20067 58016=
202202280453 METAR KPAE 280453Z 15012G21KT 7SM -RA FEW037 OVC046 07/07 A3003 RMK AO2 SLP171 P0003 T00720072=
202202280353 METAR KPAE 280353Z 15013G20KT 7SM -RA SCT005 SCT012 OVC041 07/07 A3004 RMK AO2 SLP174 P0001 T00720072=
202202280256 SPECI KPAE 280256Z 14006KT 7SM -RA SCT005 SCT012 OVC041 07/07 A3005 RMK AO2 P0000 T00720072=
202202280253 METAR KPAE 280253Z 13007KT 090V160 7SM -RA SCT005 BKN009 OVC047 07/07 A3005 RMK AO2 SLP179 P0002 60002 T00720072 56022=
202202280153 METAR KPAE 280153Z 14005KT 5SM -RA BR BKN005 BKN012 OVC075 08/08 A3007 RMK AO2 SLP185 P0000 T00780078=
202202280053 METAR KPAE 280053Z 15012G20KT 6SM -RA BR SCT004 BKN009 BKN020 08/08 A3009 RMK AO2 SLP192 P0000 T00830083=
202202272353 METAR KPAE 272353Z 15012KT 8SM -RA SCT004 BKN009 BKN020 08/08 A3012 RMK AO2 RAB42 SLP202 P0000 60000 T00830083 10100 20078 58009=
202202272255 SPECI KPAE 272255Z 15012G18KT 10SM SCT004 BKN009 BKN020 08/08 A3013 RMK AO2 CIG 008V013 T00830083=
202202272253 METAR KPAE 272253Z 15012G18KT 10SM BKN004 BKN009 BKN034 08/08 A3013 RMK AO2 RAB03E19 CIG 003V006 SLP204 P0000 T00830083=
202202272237 SPECI KPAE 272237Z VRB05KT 10SM BKN004 OVC011 08/08 A3013 RMK AO2 RAB03E19 CIG 003V007 P0000 T00780078=
202202272219 SPECI KPAE 272219Z 12005KT 8SM BKN005 OVC010 08/08 A3013 RMK AO2 RAB03E19 P0000 T00780078=
202202272212 SPECI KPAE 272212Z 12007KT 090V160 2 1/2SM -RA BR BKN004 OVC010 08/08 A3014 RMK AO2 RAB03 P0000 T00780078=
202202272200 SPECI KPAE 272200Z 12005KT 10SM OVC004 08/08 A3014 RMK AO2 T00780078=
202202272153 METAR KPAE 272153Z VRB05KT 10SM OVC006 08/08 A3014 RMK AO2 RAB01E10B35E46 SLP210 P0000 T00780078=
202202272129 SPECI KPAE 272129Z 13005KT 7SM OVC006 08/08 A3015 RMK AO2 RAB01E10 P0000 T00780078=
202202272056 SPECI KPAE 272056Z 16014G20KT 9SM BKN015 09/08 A3014 RMK AO2 T00890078=
202202272053 METAR KPAE 272053Z 16014G20KT 9SM SCT015 09/08 A3015 RMK AO2 SLP211 T00890078 50001=
202202271953 METAR KPAE 271953Z 16015G21KT 10SM FEW018 OVC047 09/07 A3016 RMK AO2 SLP215 T00940072=
202202271853 METAR KPAE 271853Z 16013G24KT 10SM FEW014 SCT070 10/08 A3016 RMK AO2 PK WND 16028/1838 SLP214 T01000078=
202202271807 SPECI KPAE 271807Z 17013G23KT 10SM FEW015 SCT070 09/08 A3014 RMK AO2 T00940078=
202202271753 METAR KPAE 271753Z 17016G27KT 10SM BKN015 BKN070 09/08 A3014 RMK AO2 PK WND 18028/1725 SLP210 60001 T00940078 10094 20050 51021=
202202271653 METAR KPAE 271653Z 18019G31KT 10SM BKN015 08/08 A3011 RMK AO2 PK WND 18032/1637 SLP200 T00830078=
202202271651 SPECI KPAE 271651Z 18023G31KT 10SM BKN015 08/08 A3011 RMK AO2 PK WND 18032/1637=
202202271553 METAR KPAE 271553Z 17017G26KT 10SM BKN010 BKN014 OVC020 08/08 A3008 RMK AO2 PK WND 16026/1527 RAB14E33 CIG 007V012 SLP188 P0001 T00780078=
202202271453 METAR KPAE 271453Z 15014G22KT 9SM BKN014 BKN030 OVC037 07/07 A3005 RMK AO2 RAE30 SLP180 P0000 60000 T00670067 53012=
202202271404 SPECI KPAE 271404Z AUTO 15015KT 10SM -RA FEW021 SCT029 OVC038 06/06 A3003 RMK AO2 P0000 T00610061=
202202271353 METAR KPAE 271353Z AUTO 15015KT 8SM -RA FEW023 BKN029 OVC040 06/06 A3002 RMK AO2 SLP170 P0000 T00610061=
202202271253 METAR KPAE 271253Z AUTO VRB04KT 8SM -RA FEW025 OVC034 05/05 A3001 RMK AO2 SLP165 P0000 T00500050=
202202271229 SPECI KPAE 271229Z AUTO VRB04KT 9SM -RA BKN027 OVC036 05/05 A3002 RMK AO2 P0000 T00500050=
202202271153 METAR KPAE 271153Z AUTO VRB06KT 9SM -RA OVC039 06/05 A3002 RMK AO2 RAE11B42 SLP167 P0000 60001 70014 T00560050 10056 20039 58014=
202202271053 METAR KPAE 271053Z AUTO 13007KT 100V160 10SM -RA FEW031 OVC044 05/05 A3004 RMK AO2 RAE0956B30 SLP174 P0000 T00500050=
202202271015 SPECI KPAE 271015Z AUTO 14009G15KT 10SM SCT023 OVC032 05/05 A3005 RMK AO2 RAE0956 P0000 T00500050=
202202270953 METAR KPAE 270953Z AUTO VRB04KT 8SM -RA BKN029 OVC037 05/05 A3006 RMK AO2 RAB04E13B39 SLP181 P0001 T00500050=
202202270950 SPECI KPAE 270950Z AUTO VRB04KT 7SM -RA OVC029 05/05 A3006 RMK AO2 RAB04E13B39 P0001=
202202270853 METAR KPAE 270853Z AUTO 12005KT 10SM OVC033 05/05 A3006 RMK AO2 SLP181 60000 T00500050 56007=
202202270753 METAR KPAE 270753Z AUTO 13005KT 10SM OVC036 04/04 A3006 RMK AO2 RAE49 SLP182 P0000 T00440044 401060011=
202202270653 METAR KPAE 270653Z AUTO 12008KT 100V160 7SM -RA OVC033 04/04 A3007 RMK AO2 SLP185 P0000 T00390039=
202202270612 SPECI KPAE 270612Z AUTO 12006KT 5SM -RA BR SCT025 OVC034 04/04 A3008 RMK AO2 P0000 T00440044=
202202270553 METAR KPAE 270553Z AUTO 14007KT 090V170 5SM -RA BR BKN028 OVC034 04/04 A3008 RMK AO2 SLP189 P0004 60013 T00440044 10078 20039 51005=
202202270550 SPECI KPAE 270550Z AUTO 13006G17KT 5SM -RA BR BKN028 OVC034 04/04 A3008 RMK AO2 P0004=
202202270453 METAR KPAE 270453Z AUTO 17008KT 5SM -RA BR OVC035 04/04 A3007 RMK AO2 SLP188 P0004 T00390039=
202202270353 METAR KPAE 270353Z 12007G16KT 060V150 6SM -RA BR BKN037 OVC049 04/04 A3006 RMK AO2 SLP185 P0001 T00390039=
202202270253 METAR KPAE 270253Z VRB05KT 7SM -RA OVC037 04/03 A3009 RMK AO2 SLP194 P0001 60004 T00440033 56014=
202202270153 METAR KPAE 270153Z 16007KT 6SM -RA BR FEW042 OVC055 05/03 A3009 RMK AO2 SLP195 P0002 T00500033=
202202270118 SPECI KPAE 270118Z 18009KT 2 1/2SM -RA BR BKN050 OVC065 06/03 A3010 RMK AO2 P0001 T00560033=
202202270111 SPECI KPAE 270111Z 17007KT 4SM -RA BKN050 OVC065 06/03 A3011 RMK AO2 P0001 T00610033=
202202270103 SPECI KPAE 270103Z 17008KT 2 1/2SM RA BKN050 OVC065 06/03 A3011 RMK AO2 P0001 T00610033=
202202270053 METAR KPAE 270053Z 17008KT 3SM RA BKN055 OVC065 06/03 A3012 RMK AO2 SLP204 P0001 T00610033=
202202262353 METAR KPAE 262353Z 20014G19KT 10SM -RA SCT060 OVC075 07/01 A3013 RMK AO2 PK WND 20028/2304 RAB06 SLP208 P0000 60000 T00720011 10106 20044 53002=
202202262253 METAR KPAE 262253Z 18018G25KT 10SM OVC060 11/M04 A3012 RMK AO2 SLP203 T01061044=
202202262153 METAR KPAE 262153Z 20008KT 10SM BKN075 09/M03 A3013 RMK AO2 SLP206 T00941033=
202202262053 METAR KPAE 262053Z 15008KT 10SM CLR 08/M06 A3013 RMK AO2 SLP205 T00831056 57015=
202202261953 METAR KPAE 261953Z VRB05G18KT 10SM CLR 07/M06 A3014 RMK AO2 SLP210 T00671056=
202202261853 METAR KPAE 261853Z 10SM CLR 05/M06 A3016 RMK AO2 SLP217 T00501061=
202202261753 METAR KPAE 261753Z 14006KT 10SM CLR 04/M07 A3017 RMK AO2 SLP222 T00441067 10044 20011 55000=
202202261653 METAR KPAE 261653Z VRB06KT 10SM CLR 03/M07 A3017 RMK AO2 SLP222 T00331067=
202202261553 METAR KPAE 261553Z 11007KT 10SM CLR 02/M07 A3017 RMK AO2 SLP221 T00221067=
202202261453 METAR KPAE 261453Z VRB04KT 10SM CLR 02/M06 A3017 RMK AO2 SLP221 T00221061 56008=
202202261353 METAR KPAE 261353Z AUTO 13003KT 10SM CLR 02/M06 A3018 RMK AO2 SLP224 T00171061=
202202261253 METAR KPAE 261253Z AUTO VRB04KT 10SM CLR 01/M06 A3019 RMK AO2 SLP227 T00111056=
202202261153 METAR KPAE 261153Z AUTO 13005KT 10SM CLR 02/M06 A3020 RMK AO2 SLP229 T00221056 10022 20006 58014=
202202261053 METAR KPAE 261053Z AUTO 12006KT 10SM CLR 02/M05 A3022 RMK AO2 SLP237 T00171050=
202202260953 METAR KPAE 260953Z AUTO 14005KT 10SM CLR 02/M04 A3023 RMK AO2 SLP243 T00221044=
202202260853 METAR KPAE 260853Z AUTO 11010G17KT 10SM CLR 02/M04 A3024 RMK AO2 SLP245 T00221039 56015=
202202260753 METAR KPAE 260753Z AUTO 12007KT 10SM CLR 02/M04 A3025 RMK AO2 SLP250 T00221044 400671028=
202202260653 METAR KPAE 260653Z AUTO 10006KT 10SM CLR 02/M03 A3027 RMK AO2 SLP254 T00171028=
202202260553 METAR KPAE 260553Z AUTO 00000KT 10SM CLR 01/M03 A3028 RMK AO2 SLP261 T00061028 10067 20000 55007=
202202260453 METAR KPAE 260453Z 11006KT 10SM CLR 03/M02 A3027 RMK AO2 SLP255 T00331022=
202202260353 METAR KPAE 260353Z 07003KT 10SM CLR 04/M02 A3028 RMK AO2 SLP259 T00391017=
202202260253 METAR KPAE 260253Z 02004KT 10SM CLR 03/M01 A3031 RMK AO2 SLP268 T00331011 56018=
202202260153 METAR KPAE 260153Z 02004KT 10SM CLR 04/M02 A3032 RMK AO2 SLP275 T00391022=
202202260053 METAR KPAE 260053Z 05005KT 10SM CLR 07/M05 A3034 RMK AO2 SLP279 T00671050=
202202252353 METAR KPAE 252353Z 02004KT 10SM CLR 07/M04 A3036 RMK AO2 SLP286 T00671044 10067 20017 58007=
202202252253 METAR KPAE 252253Z 01004KT 10SM CLR 06/M04 A3037 RMK AO2 SLP290 T00611039=
202202252153 METAR KPAE 252153Z VRB04KT 10SM CLR 06/M04 A3037 RMK AO2 SLP290 T00561044=
202202252053 METAR KPAE 252053Z 01005KT 10SM CLR 06/M03 A3038 RMK AO2 SLP293 T00561033 58018=
202202251953 METAR KPAE 251953Z 01005KT 10SM CLR 04/M03 A3040 RMK AO2 SLP301 T00441028=
202202251853 METAR KPAE 251853Z 00000KT 10SM CLR 03/M04 A3042 RMK AO2 SLP309 T00281039=
202202251753 METAR KPAE 251753Z 09003KT 10SM CLR 02/M04 A3044 RMK AO2 SLP313 T00171044 10017 21028 58007=
202202251653 METAR KPAE 251653Z 11004KT 10SM CLR 00/M04 A3045 RMK AO2 SLP318 T00001044=
202202251553 METAR KPAE 251553Z 11005KT 10SM CLR M02/M04 A3046 RMK AO2 SLP321 T10171044=
202202251453 METAR KPAE 251453Z 14004KT 10SM CLR M02/M04 A3046 RMK AO2 SLP321 T10221044 56004=
202202251353 METAR KPAE 251353Z AUTO 00000KT 10SM CLR M02/M04 A3046 RMK AO2 SLP321 T10171044=
202202251253 METAR KPAE 251253Z AUTO 00000KT 10SM CLR M02/M04 A3046 RMK AO2 SLP322 T10171039=
202202251153 METAR KPAE 251153Z AUTO 11004KT 10SM CLR M01/M04 A3047 RMK AO2 SLP324 T10111039 10000 21022 50001=
202202251053 METAR KPAE 251053Z AUTO 11004KT 10SM CLR M02/M04 A3047 RMK AO2 SLP324 T10171039=
202202250953 METAR KPAE 250953Z AUTO 12004KT 10SM CLR M01/M04 A3047 RMK AO2 SLP326 T10111039=
202202250853 METAR KPAE 250853Z AUTO 11004KT 10SM CLR M01/M04 A3047 RMK AO2 SLP323 T10111039 53003=
202202250753 METAR KPAE 250753Z AUTO 11004KT 10SM CLR M01/M03 A3046 RMK AO2 SLP320 T10111033 400281044=
202202250653 METAR KPAE 250653Z AUTO 10005KT 10SM CLR 00/M03 A3045 RMK AO2 SLP319 T00001033=
202202250553 METAR KPAE 250553Z AUTO 00000KT 10SM CLR M01/M03 A3046 RMK AO2 SLP321 T10061028 10028 21006 53004=
202202250453 METAR KPAE 250453Z AUTO 00000KT 10SM CLR 00/M03 A3045 RMK AO2 SLP318 T00001033=
202202250353 METAR KPAE 250353Z 00000KT 10SM CLR 01/M03 A3045 RMK AO2 SLP317 T00061033=
202202250253 METAR KPAE 250253Z 00000KT 10SM CLR 01/M04 A3044 RMK AO2 SLP317 T00061039 53001=
202202250153 METAR KPAE 250153Z 22004KT 10SM CLR 01/M04 A3044 RMK AO2 SLP316 T00111039=
202202250053 METAR KPAE 250053Z 26004KT 10SM CLR 02/M03 A3044 RMK AO2 SLP314 T00221033=
202202242353 METAR KPAE 242353Z 28004KT 10SM CLR 03/M03 A3044 RMK AO2 SLP315 T00281028 10028 21006 53000=
202202242253 METAR KPAE 242253Z 10SM CLR 03/M03 A3044 RMK AO2 SLP314 T00281033=
202202242153 METAR KPAE 242153Z 28005KT 10SM SCT022 02/M02 A3044 RMK AO2 SLP313 T00221022=
202202242053 METAR KPAE 242053Z 33004KT 10SM CLR 02/M03 A3044 RMK AO2 SLP315 T00221028 50002=
202202241953 METAR KPAE 241953Z 00000KT 10SM CLR 01/M04 A3045 RMK AO2 SLP318 T00111039=
202202241853 METAR KPAE 241853Z 03003KT 10SM CLR 01/M03 A3044 RMK AO2 SLP316 T00061033=
202202241753 METAR KPAE 241753Z 07003KT 10SM CLR M01/M04 A3043 RMK AO2 SLP312 I6000 T10061039 11006 21044 51018=
202202241653 METAR KPAE 241653Z 05005KT 10SM CLR M01/M03 A3042 RMK AO2 SLP308 T10111033=
202202241553 METAR KPAE 241553Z 03004KT 10SM CLR M02/M03 A3040 RMK AO2 SLP301 T10221028=
202202241528 SPECI KPAE 241528Z 02004KT 10SM SCT008 M02/M03 A3039 RMK AO2 T10221028=
202202241453 METAR KPAE 241453Z 04004KT 10SM BKN008 M02/M03 A3038 RMK AO2 CIG 006V010 SLP295 I1000 I3000 T10221028 51008=
202202241448 SPECI KPAE 241448Z 02004KT 10SM BKN008 M02/M03 A3038 RMK AO2 CIG 006V010 I1000=
202202241423 SPECI KPAE 241423Z AUTO 00000KT 9SM FEW007 M03/M04 A3037 RMK AO2 I1000 T10281039=
202202241353 METAR KPAE 241353Z AUTO 00000KT 7SM CLR M04/M04 A3037 RMK AO2 SLP290 I1000 T10391044=
202202241253 METAR KPAE 241253Z AUTO 00000KT 10SM CLR M03/M04 A3036 RMK AO2 SLP287 T10281039=
202202241153 METAR KPAE 241153Z AUTO 06004KT 10SM FEW026 SCT047 BKN100 M03/M03 A3034 RMK AO2 SNE00 SLP282 P0000 60000 T10281033 10006 21028 53008=
202202241142 SPECI KPAE 241142Z AUTO 00000KT 8SM SCT024 SCT047 BKN100 M03/M03 A3034 RMK AO2 SNE00 P0000 T10281033=
202202241132 SPECI KPAE 241132Z AUTO 00000KT 7SM FEW006 BKN024 BKN047 M03/M03 A3034 RMK AO2 SNE00 P0000 T10281028=
202202241124 SPECI KPAE 241124Z AUTO 00000KT 6SM BR BKN026 OVC048 M03/M03 A3033 RMK AO2 SNE00 P0000 T10281028=
202202241053 METAR KPAE 241053Z AUTO 09003KT 4SM -SN BR FEW006 OVC049 M02/M03 A3033 RMK AO2 SLP276 P0000 T10221028=
202202241012 SPECI KPAE 241012Z AUTO 10005KT 2SM -SN BR FEW006 OVC031 M02/M03 A3032 RMK AO2 P0000 T10221028=
202202240953 METAR KPAE 240953Z AUTO 10004KT 1 1/2SM -SN BR FEW006 OVC021 M02/M03 A3032 RMK AO2 SLP273 P0000 T10221028=
202202240914 SPECI KPAE 240914Z AUTO 10006KT 1 1/4SM -SN BR FEW009 OVC020 M02/M03 A3032 RMK AO2 P0000 T10221028=
202202240905 SPECI KPAE 240905Z AUTO 10004KT 1 1/4SM -SN BR OVC022 M02/M03 A3032 RMK AO2 P0000 T10171033=
202202240853 METAR KPAE 240853Z AUTO 09003KT 2 1/2SM -SN BR OVC028 M02/M03 A3032 RMK AO2 SLP273 P0000 60000 T10171033 53001=
202202240851 SPECI KPAE 240851Z AUTO VRB04KT 2 1/2SM -SN BR OVC028 M02/M03 A3032 RMK AO2 P0000=
202202240830 SPECI KPAE 240830Z AUTO VRB05KT 4SM -SN BR OVC032 M02/M03 A3031 RMK AO2 P0000 T10171033=
202202240822 SPECI KPAE 240822Z AUTO 15005KT 3SM -SN BR BKN028 OVC041 M02/M03 A3031 RMK AO2 P0000 T10171033=
202202240813 SPECI KPAE 240813Z AUTO VRB04KT 2 1/2SM -SN BR BKN026 OVC041 M02/M03 A3031 RMK AO2 P0000 T10171033=
202202240753 METAR KPAE 240753Z AUTO 15006KT 1 3/4SM -SN BR OVC020 M02/M03 A3032 RMK AO2 SLP273 P0000 T10171033 400221056=
202202240738 SPECI KPAE 240738Z AUTO 16004KT 1 1/2SM -SN BR OVC019 M02/M04 A3032 RMK AO2 P0000 T10171039=
202202240713 SPECI KPAE 240713Z AUTO 16005KT 2 1/2SM -SN OVC025 M01/M06 A3032 RMK AO2 P0000 T10061056=
202202240702 SPECI KPAE 240702Z AUTO VRB05KT 4SM -SN OVC027 M01/M07 A3032 RMK AO2 P0000 T10061067=
202202240653 METAR KPAE 240653Z AUTO VRB03KT 6SM -SN OVC031 00/M07 A3031 RMK AO2 SNB06E16B53 SLP272 P0000 T00001067=
202202240553 METAR KPAE 240553Z AUTO VRB05KT 10SM OVC045 01/M09 A3031 RMK AO2 SLP273 T00061094 10011 20000 55007=
202202240453 METAR KPAE 240453Z 15005KT 10SM OVC049 01/M11 A3031 RMK AO2 SLP270 T00061106=
202202240353 METAR KPAE 240353Z 14007KT 10SM OVC070 01/M11 A3031 RMK AO2 SLP272 T00111111=
202202240253 METAR KPAE 240253Z 18004KT 10SM OVC080 01/M09 A3034 RMK AO2 SLP281 T00061089 56008=
202202240153 METAR KPAE 240153Z 21003KT 10SM FEW070 01/M10 A3034 RMK AO2 SLP283 T00061100=
202202240053 METAR KPAE 240053Z 00000KT 10SM OVC100 01/M11 A3035 RMK AO2 SLP285 T00111111=
202202232353 METAR KPAE 232353Z 34005KT 10SM OVC100 01/M12 A3036 RMK AO2 SLP289 T00111117 10022 21022 56010=
202202232253 METAR KPAE 232253Z 01005KT 10SM CLR 02/M13 A3037 RMK AO2 SLP290 T00171128=
202202232153 METAR KPAE 232153Z VRB03KT 10SM CLR 02/M11 A3038 RMK AO2 SLP294 T00221111=
202202232053 METAR KPAE 232053Z VRB04KT 10SM CLR 01/M12 A3039 RMK AO2 SLP299 T00061122 58012=
202202231953 METAR KPAE 231953Z 12003KT 10SM CLR M01/M12 A3042 RMK AO2 SLP307 T10061122=
202202231853 METAR KPAE 231853Z 00000KT 10SM CLR M02/M13 A3043 RMK AO2 SLP313 T10171128=
202202231753 METAR KPAE 231753Z 18006KT 10SM CLR M02/M12 A3043 RMK AO2 SLP311 T10221117 11022 21056 50004=
202202231653 METAR KPAE 231653Z 11004KT 10SM CLR M03/M11 A3044 RMK AO2 SLP315 T10331106=
202202231553 METAR KPAE 231553Z 11003KT 10SM CLR M04/M11 A3043 RMK AO2 SLP312 T10441106=
202202231453 METAR KPAE 231453Z 11004KT 10SM CLR M06/M11 A3042 RMK AO2 SLP308 T10561111 57000=
202202231353 METAR KPAE 231353Z AUTO 10006KT 10SM CLR M04/M12 A3042 RMK AO2 SLP308 T10441117=
202202231253 METAR KPAE 231253Z AUTO 10005KT 10SM CLR M04/M12 A3042 RMK AO2 SLP309 T10441117=
202202231153 METAR KPAE 231153Z AUTO 10005KT 10SM CLR M04/M11 A3042 RMK AO2 SLP309 T10441111 11017 21044 50003=
202202231053 METAR KPAE 231053Z AUTO 00000KT 10SM BKN047 M04/M12 A3042 RMK AO2 SLP309 T10391117=
202202230953 METAR KPAE 230953Z AUTO 15006KT 10SM FEW047 M03/M11 A3041 RMK AO2 SLP307 T10331106=
202202230853 METAR KPAE 230853Z AUTO VRB03KT 10SM BKN049 M03/M11 A3041 RMK AO2 SLP304 T10281106 51004=
202202230753 METAR KPAE 230753Z AUTO 14004KT 10SM SCT050 M02/M10 A3040 RMK AO2 SLP302 T10221100 400111033=
202202230653 METAR KPAE 230653Z AUTO 11005KT 10SM BKN060 M02/M10 A3041 RMK AO2 SLP303 T10221100=
202202230553 METAR KPAE 230553Z AUTO 00000KT 10SM SCT035 M02/M09 A3039 RMK AO2 SLP300 T10171094 10000 21033 53011=
202202230453 METAR KPAE 230453Z 00000KT 10SM CLR M02/M10 A3037 RMK AO2 SLP293 T10221100=
202202230353 METAR KPAE 230353Z 32004KT 10SM CLR M02/M10 A3037 RMK AO2 SLP290 T10171100=
202202230253 METAR KPAE 230253Z 32004KT 10SM BKN050 M02/M09 A3036 RMK AO2 SLP288 T10171094 51015=
202202230153 METAR KPAE 230153Z 32006KT 10SM BKN060 M01/M10 A3035 RMK AO2 SLP286 T10111100=
202202230053 METAR KPAE 230053Z 32008KT 10SM BKN050 OVC065 00/M10 A3033 RMK AO2 SLP279 T00001100=
202202222353 METAR KPAE 222353Z 32008G15KT 10SM OVC048 00/M10 A3032 RMK AO2 SLP273 T00001100 10011 21011 53012=
202202222253 METAR KPAE 222253Z 31009KT 10SM OVC040 00/M09 A3030 RMK AO2 SLP268 T00001094=
202202222153 METAR KPAE 222153Z 34008G16KT 10SM OVC039 00/M08 A3029 RMK AO2 SLP263 T00001083=
202202222053 METAR KPAE 222053Z 34007G17KT 310V010 10SM SCT041 OVC060 00/M07 A3028 RMK AO2 SLP260 T00001067 50012=
202202221953 METAR KPAE 221953Z 33009G15KT 10SM BKN050 BKN060 M01/M06 A3029 RMK AO2 SLP263 T10061056=
202202221853 METAR KPAE 221853Z 35009G17KT 10SM OVC050 M01/M05 A3027 RMK AO2 SLP257 T10061050=
202202221753 METAR KPAE 221753Z 33008KT 10SM SCT016 BKN050 M01/M05 A3025 RMK AO2 SNB02E13 SLP249 P0000 60000 T10111050 11006 21022 51014=
202202221749 SPECI KPAE 221749Z 33009KT 10SM BKN016 BKN055 M01/M05 A3024 RMK AO2 SNB02E13 P0000=
202202221653 METAR KPAE 221653Z 34008KT 10SM BKN009 OVC021 M02/M03 A3023 RMK AO2 SNE21 SLP245 P0000 T10171033=
202202221614 SPECI KPAE 221614Z 34005G15KT 4SM -SN BR BKN008 BKN013 OVC036 M02/M03 A3021 RMK AO2 P0000 T10221033=
202202221553 METAR KPAE 221553Z 33009KT 2SM -SN BR BKN008 BKN013 OVC046 M02/M03 A3021 RMK AO2 SNB1454 SLP235 P0000 T10221033=
202202221539 SPECI KPAE 221539Z 33009G17KT 2 1/2SM -SN BR SCT005 BKN011 OVC060 M02/M03 A3020 RMK AO2 SNB1454 P0000 T10221033=
202202221453 METAR KPAE 221453Z 34007G14KT 8SM OVC006 M02/M03 A3018 RMK AO2 CIG 004V009 SLP226 T10221028 51018=
202202221401 SPECI KPAE 221401Z AUTO 33006G16KT 10SM BKN009 BKN014 OVC095 M02/M03 A3017 RMK AO2 CIG 006V011 T10221033 $=
202202221353 METAR KPAE 221353Z AUTO 31010KT 10SM SCT009 BKN014 OVC095 M02/M03 A3017 RMK AO2 SLP221 T10221033 $=
202202221253 METAR KPAE 221253Z AUTO 32008KT 10SM OVC037 M02/M06 A3015 RMK AO2 SLP214 T10171056 $=
202202221153 METAR KPAE 221153Z AUTO 31010KT 10SM BKN036 M02/M07 A3012 RMK AO2 SLP206 60000 T10171072 10000 21017 51017 $=
202202221121 SPECI KPAE 221121Z AUTO 32007KT 10SM SCT024 SCT038 BKN095 M02/M07 A3011 RMK AO2 T10171067 $=
202202221053 METAR KPAE 221053Z AUTO 32007KT 10SM BKN023 M01/M07 A3011 RMK AO2 SLP201 T10111072 $=
202202220953 METAR KPAE 220953Z AUTO 31010KT 10SM SCT035 BKN120 M01/M06 A3009 RMK AO2 SLP195 T10111061 $=
202202220853 METAR KPAE 220853Z AUTO 31007KT 10SM OVC031 M01/M06 A3007 RMK AO2 SNB01E19 SLP189 P0000 60000 T10061061 51023 $=
202202220816 SPECI KPAE 220816Z AUTO 31008KT 8SM -SN OVC030 M01/M06 A3006 RMK AO2 SNB01 P0000 T10061056 $=
202202220753 METAR KPAE 220753Z AUTO 31009KT 10SM OVC029 M01/M06 A3005 RMK AO2 SNB36E46 SLP182 P0000 T10061056 400501006 $=
202202220712 SPECI KPAE 220712Z AUTO 31008KT 10SM BKN029 OVC037 M01/M05 A3003 RMK AO2 T10061050 $=
202202220653 METAR KPAE 220653Z AUTO 30007KT 10SM BKN039 BKN070 OVC095 M01/M05 A3003 RMK AO2 SLP174 T10061050 $=
202202220553 METAR KPAE 220553Z AUTO 32009KT 10SM BKN041 OVC065 00/M05 A3000 RMK AO2 SLP165 T00001050 10039 21006 53021 $=
202202220453 METAR KPAE 220453Z 32008KT 10SM SCT100 00/M05 A2998 RMK AO2 SLP156 T00001050 $=
202202220353 METAR KPAE 220353Z 31006KT 10SM SCT090 01/M05 A2996 RMK AO2 SLP150 T00061050 $=
202202220253 METAR KPAE 220253Z 32007KT 10SM OVC070 01/M05 A2994 RMK AO2 SLP144 T00111050 53012 $=
202202220153 METAR KPAE 220153Z 32008KT 10SM FEW080 OVC095 02/M04 A2992 RMK AO2 SLP138 T00221039 $=
202202220053 METAR KPAE 220053Z 32007KT 10SM CLR 03/M04 A2992 RMK AO2 SLP135 T00331039 $=
202202212353 METAR KPAE 212353Z 32010G19KT 10SM CLR 04/M03 A2990 RMK AO2 SLP131 T00391028 10050 20022 53006 $=
202202212255 SPECI KPAE 212255Z 32009KT 10SM CLR 05/M02 A2989 RMK AO2 T00501017 $=
202202212253 METAR KPAE 212253Z 32007G15KT 10SM SCT009 BKN017 BKN023 04/M02 A2989 RMK AO2 SLP126 T00441017 $=
202202212241 SPECI KPAE 212241Z 31010G18KT 10SM SCT009 BKN017 BKN023 04/M02 A2989 RMK AO2 T00441017 $=
202202212153 METAR KPAE 212153Z VRB06KT 10SM BKN009 BKN019 04/02 A2989 RMK AO2 SLP126 T00390022 $=
202202212053 METAR KPAE 212053Z 35005KT 10SM OVC009 04/03 A2989 RMK AO2 SLP125 T00390028 58000 $=
202202211953 METAR KPAE 211953Z 32008KT 10SM BKN007 03/02 A2990 RMK AO2 SLP129 T00330022 $=
202202211912 SPECI KPAE 211912Z 33007KT 10SM OVC005 03/03 A2989 RMK AO2 CIG 003V009 T00330033 $=
202202211901 SPECI KPAE 211901Z 34006KT 10SM OVC004 03/03 A2989 RMK AO2 CIG 003V007 T00330028 $=
202202211853 METAR KPAE 211853Z 35008KT 10SM OVC005 03/03 A2989 RMK AO2 CIG 003V007 SLP125 T00330033 $=
202202211850 SPECI KPAE 211850Z VRB05KT 2SM BR OVC005 03/03 A2989 RMK AO2 CIG 003V007 $=
202202211753 METAR KPAE 211753Z 34006KT 2SM BR OVC002 02/02 A2987 RMK AO2 SLP121 60000 T00220022 10022 20006 51013 $=
202202211700 SPECI KPAE 211700Z 36005KT 10SM OVC002 02/02 A2987 RMK AO2 T00170017 $=
202202211653 METAR KPAE 211653Z 01003KT 1SM R16R/P6000FT BR BKN002 BKN010 OVC020 02/02 A2987 RMK AO2 SLP118 T00170017 $=
202202211553 METAR KPAE 211553Z 04004KT 1SM R16R/P6000FT BR BKN002 BKN010 OVC024 01/01 A2985 RMK AO2 SLP112 T00110011 $=
202202211453 METAR KPAE 211453Z 04005KT 1SM R16R/P6000FT BR BKN002 BKN010 OVC023 01/01 A2984 RMK AO2 UPB37E52 SLP108 P0000 60000 T00060006 58001 $=
202202211451 SPECI KPAE 211451Z 05005KT 1SM R16R/P6000FT UP BR BKN002 BKN010 OVC023 01/01 A2984 RMK AO2 UPB37 P0000 $=
202202211446 SPECI KPAE 211446Z AUTO 05004KT 6SM UP BR SCT002 BKN010 OVC023 01/01 A2984 RMK AO2 UPB37 P0000 T00060006 $=
202202211433 SPECI KPAE 211433Z AUTO 05004KT 7SM BKN002 OVC012 01/01 A2984 RMK AO2 T00060006 $=
202202211404 SPECI KPAE 211404Z AUTO 00000KT 9SM SCT002 BKN014 OVC027 01/01 A2984 RMK AO2 T00110011 $=
202202211353 METAR KPAE 211353Z AUTO 04004KT 5SM BR BKN002 OVC008 01/01 A2984 RMK AO2 SLP109 T00060006 $=
202202211343 SPECI KPAE 211343Z AUTO 05004KT 3SM R16R/3000VP6000FT BR OVC002 01/01 A2984 RMK AO2 T00060006 $=
202202211338 SPECI KPAE 211338Z AUTO 06004KT 1 1/2SM R16R/3000VP6000FT BR OVC002 01/01 A2984 RMK AO2 T00060006 $=
202202211331 SPECI KPAE 211331Z AUTO 02003KT 1 1/4SM R16R/3500VP6000FT BR OVC001 01/01 A2984 RMK AO2 T00060006 $=
202202211318 SPECI KPAE 211318Z AUTO 01006KT 1/2SM R16R/1800V3500FT FG VV001 01/01 A2984 RMK AO2 T00060006 $=
202202211313 SPECI KPAE 211313Z AUTO 02007KT 1/4SM R16R/1600V2200FT FG VV001 01/01 A2984 RMK AO2 T00060006 $=
202202211253 METAR KPAE 211253Z AUTO 01007KT 1/4SM R16R/1800V2400FT FG VV001 01/01 A2984 RMK AO2 SLP110 T00060006 $=
202202211238 SPECI KPAE 211238Z AUTO 01006KT 1/2SM R16R/2600VP6000FT FG BKN001 OVC008 01/01 A2984 RMK AO2 T00060006 $=
202202211232 SPECI KPAE 211232Z AUTO 35005KT 1 1/2SM BR BKN003 OVC008 01/01 A2984 RMK AO2 T00110011 $=
202202211228 SPECI KPAE 211228Z AUTO 03004KT 9SM BKN005 OVC008 02/02 A2984 RMK AO2 CIG 003V007 T00170017 $=
202202211210 SPECI KPAE 211210Z AUTO 11004KT 10SM FEW003 OVC010 01/01 A2984 RMK AO2 T00110011 $=
202202211153 METAR KPAE 211153Z AUTO 11004KT 10SM OVC010 02/02 A2984 RMK AO2 RAE25UPB25E33 SLP109 P0000 60006 70011 T00170017 10028 20011 58012 $=
202202211131 SPECI KPAE 211131Z AUTO VRB04KT 10SM UP OVC010 02/02 A2984 RMK AO2 RAE25UPB25 P0000 T00170017 $=
202202211053 METAR KPAE 211053Z AUTO 11007KT 10SM -RA OVC009 01/01 A2986 RMK AO2 RAE24B31UPB24E31 SLP116 P0000 T00110011 $=
202202211041 SPECI KPAE 211041Z AUTO 11005KT 10SM -RA OVC009 01/01 A2986 RMK AO2 RAE24B31UPB24E31 P0000 T00110011 $=
202202211026 SPECI KPAE 211026Z AUTO 11005KT 10SM UP BKN010 BKN016 OVC023 01/01 A2987 RMK AO2 RAE24UPB24 P0000 T00110011 $=
202202211001 SPECI KPAE 211001Z AUTO VRB03KT 5SM -RA BR BKN015 OVC023 01/01 A2987 RMK AO2 P0000 T00110011 $=
202202210953 METAR KPAE 210953Z AUTO 15007KT 5SM -RA BR BKN014 OVC025 02/02 A2988 RMK AO2 SLP120 P0005 T00170017 $=
202202210950 SPECI KPAE 210950Z AUTO 15006KT 4SM -RA BR BKN014 OVC025 02/02 A2988 RMK AO2 P0005 $=
202202210934 SPECI KPAE 210934Z AUTO VRB04KT 3SM RA BR OVC015 02/02 A2988 RMK AO2 P0003 T00170017 $=
202202210853 METAR KPAE 210853Z AUTO 11007KT 4SM -RA BR OVC012 02/02 A2989 RMK AO2 SLP126 P0001 60001 T00170017 58005 $=
202202210753 METAR KPAE 210753Z AUTO 10009KT 6SM -RA BR OVC010 02/02 A2990 RMK AO2 UPB30E38RAB38 SLP127 P0000 T00220017 400720022 $=
202202210703 SPECI KPAE 210703Z AUTO 04005KT 10SM SCT008 BKN012 OVC019 03/03 A2991 RMK AO2 T00280028 $=
202202210653 METAR KPAE 210653Z AUTO 02006KT 10SM BKN008 BKN023 OVC060 03/03 A2991 RMK AO2 CIG 006V012 SLP132 T00280028 $=
202202210642 SPECI KPAE 210642Z AUTO 01005KT 10SM FEW006 BKN023 OVC065 03/03 A2991 RMK AO2 T00280028 $=
202202210553 METAR KPAE 210553Z AUTO 18005KT 10SM SCT023 SCT036 BKN085 03/03 A2990 RMK AO2 RAB20E30 SLP130 P0000 60000 T00280028 10067 20028 55001 $=
202202210453 METAR KPAE 210453Z 14005KT 10SM SCT027 BKN037 OVC044 04/03 A2990 RMK AO2 RAB39E51 SLP129 P0000 T00390033 $=
202202210353 METAR KPAE 210353Z VRB04KT 10SM BKN039 BKN046 OVC060 03/03 A2990 RMK AO2 SLP131 T00330028 $=
202202210300 SPECI KPAE 210300Z 12005KT 10SM BKN044 OVC060 04/04 A2991 RMK AO2 T00390039 $=
202202210253 METAR KPAE 210253Z 11007KT 10SM FEW004 BKN028 OVC036 04/03 A2991 RMK AO2 RAE07B24E34 SLP132 P0000 60000 T00390033 56002 $=
202202210153 METAR KPAE 210153Z VRB04KT 8SM -RA FEW004 BKN028 OVC036 04/04 A2991 RMK AO2 RAB0055E13B46 SLP132 P0000 T00440044 $=
202202210130 SPECI KPAE 210130Z 08006KT 10SM FEW005 SCT032 BKN045 04/04 A2991 RMK AO2 RAB0055E13 P0000 T00440044 $=
202202210053 METAR KPAE 210053Z 00000KT 10SM SCT034 BKN042 BKN070 06/02 A2990 RMK AO2 RAB00E16 SLP130 P0000 T00610022 $=
202202210000 SPECI KPAE 210000Z 22003KT 10SM -RA BKN048 BKN060 06/02 A2991 RMK AO2 RAB00 P0000 T00610022 $=
202202202353 METAR KPAE 202353Z 23004KT 10SM BKN021 BKN035 BKN045 06/03 A2991 RMK AO2 RAE15 SLP133 P0001 60005 T00610028 10072 20028 55007 $=
202202202253 METAR KPAE 202253Z 00000KT 10SM -RA BKN021 OVC033 06/03 A2991 RMK AO2 RAB51 SLP132 P0000 T00610028 $=
202202202153 METAR KPAE 202153Z 19003KT 10SM SCT013 BKN021 BKN026 07/03 A2992 RMK AO2 RAE03 SLP134 P0000 T00670033 $=
202202202122 SPECI KPAE 202122Z 22006KT 10SM SCT013 BKN021 BKN026 06/04 A2992 RMK AO2 RAE03 P0000 T00560039 $=
202202202053 METAR KPAE 202053Z 36004KT 10SM -RA BKN008 BKN028 OVC055 03/03 A2994 RMK AO2 RAB21 SLP141 P0004 60004 T00330028 50001 $=
202202201953 METAR KPAE 201953Z 21007KT 10SM BKN008 BKN028 OVC050 06/04 A2994 RMK AO2 SLP142 T00610044 $=
202202201940 SPECI KPAE 201940Z 23010KT 10SM BKN008 BKN018 OVC023 05/04 A2994 RMK AO2 T00500044 $=
202202201853 METAR KPAE 201853Z 25007KT 10SM BKN016 BKN023 06/04 A2994 RMK AO2 SLP141 T00560044 $=
202202201850 SPECI KPAE 201850Z 25008KT 10SM BKN016 BKN023 06/04 A2994 RMK AO2 $=
202202201753 METAR KPAE 201753Z 24007KT 10SM BKN009 BKN018 OVC041 04/04 A2993 RMK AO2 RAE14 SLP139 P0000 60000 T00440044 10050 20033 53006 $=
202202201653 METAR KPAE 201653Z 27006KT 10SM -RA BKN009 BKN018 OVC041 04/03 A2993 RMK AO2 RAB36 SLP138 P0000 T00440033 $=
202202201553 METAR KPAE 201553Z 26005KT 10SM SCT021 SCT038 BKN060 04/02 A2991 RMK AO2 SLP133 T00390022 $=
202202201550 SPECI KPAE 201550Z VRB05KT 10SM BKN022 BKN049 BKN060 04/02 A2991 RMK AO2 $=
202202201527 SPECI KPAE 201527Z 29006KT 10SM SCT022 BKN050 04/02 A2990 RMK AO2 T00390022 $=
202202201503 SPECI KPAE 201503Z 32005KT 10SM BKN022 OVC043 04/02 A2990 RMK AO2 T00390022 $=
202202201453 METAR KPAE 201453Z 32005KT 10SM SCT022 OVC043 04/02 A2990 RMK AO2 SLP127 60000 T00390022 58000 $=
202202201400 SPECI KPAE 201400Z AUTO 31004KT 10SM FEW019 SCT027 SCT048 04/02 A2989 RMK AO2 T00390022 $=
202202201353 METAR KPAE 201353Z AUTO VRB04KT 10SM FEW016 SCT021 BKN027 04/03 A2989 RMK AO2 SLP127 T00390028 $=
202202201335 SPECI KPAE 201335Z AUTO 29005KT 10SM FEW015 BKN021 OVC080 04/04 A2989 RMK AO2 T00440039 $=
202202201315 SPECI KPAE 201315Z AUTO VRB03KT 10SM FEW017 BKN033 OVC080 04/04 A2990 RMK AO2 T00440039 $=
202202201253 METAR KPAE 201253Z AUTO 26004KT 10SM BKN019 OVC026 04/04 A2990 RMK AO2 RAE1159B28E49 SLP127 P0000 T00440039 $=
202202201153 METAR KPAE 201153Z AUTO 00000KT 10SM -RA BKN021 OVC030 04/04 A2990 RMK AO2 RAE1054B10 SLP127 P0000 60003 70006 T00440044 10061 20044 58011 $=
202202201053 METAR KPAE 201053Z AUTO 16003KT 10SM -RA FEW016 BKN020 OVC025 04/04 A2991 RMK AO2 SLP132 P0000 T00440044 $=
202202201003 SPECI KPAE 201003Z AUTO 11003KT 9SM -RA SCT011 OVC019 04/04 A2992 RMK AO2 P0000 T00440044 $=
202202200953 METAR KPAE 200953Z AUTO VRB03KT 7SM -RA BKN013 OVC019 04/04 A2992 RMK AO2 SLP137 P0000 T00440044 $=
202202200940 SPECI KPAE 200940Z AUTO 11004KT 8SM -RA OVC014 04/04 A2993 RMK AO2 P0000 T00440044 $=
202202200853 METAR KPAE 200853Z AUTO 00000KT 10SM -RA OVC018 05/04 A2993 RMK AO2 RAB31 SLP138 P0000 60003 T00500044 57007 $=
202202200753 METAR KPAE 200753Z AUTO 14005KT 10SM BKN015 OVC085 04/04 A2994 RMK AO2 RAE52 SLP141 P0003 T00440044 400780039 $=
202202200653 METAR KPAE 200653Z AUTO 06005KT 7SM -RA BKN016 OVC026 06/05 A2994 RMK AO2 RAE02B38 SLP144 P0000 T00560050 $=
202202200607 SPECI KPAE 200607Z AUTO 00000KT 10SM BKN026 BKN041 OVC070 06/05 A2996 RMK AO2 RAE02 P0000 T00560050 $=
202202200553 METAR KPAE 200553Z AUTO 09006KT 10SM -RA SCT030 BKN043 OVC085 06/04 A2995 RMK AO2 RAB41 SLP146 P0000 60003 T00560044 10078 20056 55000 $=
202202200453 METAR KPAE 200453Z 28003KT 10SM BKN027 BKN032 OVC049 06/04 A2995 RMK AO2 SLP147 T00560039 $=
202202200446 SPECI KPAE 200446Z 30003KT 10SM BKN027 BKN060 OVC075 06/04 A2995 RMK AO2 T00560044 $=
202202200400 SPECI KPAE 200400Z 35006KT 10SM FEW020 BKN080 OVC090 06/04 A2995 RMK AO2 T00610044 $=
202202200353 METAR KPAE 200353Z 01006KT 10SM BKN029 OVC070 06/05 A2995 RMK AO2 SLP145 T00610050 $=
202202200313 SPECI KPAE 200313Z 33006KT 10SM BKN029 OVC070 06/04 A2995 RMK AO2 T00610044 $=
202202200303 SPECI KPAE 200303Z 32003KT 10SM FEW006 SCT022 OVC031 06/05 A2995 RMK AO2 T00610050 $=
202202200253 METAR KPAE 200253Z 33006KT 10SM FEW006 BKN023 OVC028 07/05 A2995 RMK AO2 RAB13E40 SLP145 P0003 60003 T00670050 55002 $=
202202200248 SPECI KPAE 200248Z 34007KT 300V360 10SM FEW006 BKN024 OVC028 06/06 A2995 RMK AO2 RAB13E40 P0003 $=
202202200228 SPECI KPAE 200228Z 24007KT 5SM -RA BR SCT008 BKN012 OVC023 07/07 A2995 RMK AO2 RAB13 P0003 T00720072 $=
202202200226 SPECI KPAE 200226Z VRB06KT 3SM -RA BR SCT010 BKN016 OVC023 07/07 A2994 RMK AO2 RAB13 P0003 T00720072 $=
202202200219 SPECI KPAE 200219Z 24011KT 2 1/2SM +RA BR SCT010 BKN014 OVC023 07/07 A2995 RMK AO2 RAB13 P0002 T00720067 $=
202202200153 METAR KPAE 200153Z 19012KT 10SM FEW011 OVC021 07/07 A2994 RMK AO2 SLP142 T00720067 $=
202202200143 SPECI KPAE 200143Z 19014KT 10SM BKN023 OVC080 07/07 A2995 RMK AO2 T00720067 $=
202202200100 SPECI KPAE 200100Z 19016KT 10SM FEW010 BKN033 08/07 A2995 RMK AO2 T00780067 $=
202202200053 METAR KPAE 200053Z 19016G23KT 10SM FEW013 OVC026 08/07 A2996 RMK AO2 SLP147 T00780067 $=
202202192353 METAR KPAE 192353Z 19015KT 10SM FEW013 SCT018 OVC026 08/06 A2999 RMK AO2 PK WND 18026/2328 SLP158 T00780061 10078 20039 56018 $=
202202192253 METAR KPAE 192253Z 17011KT 10SM SCT016 BKN025 OVC030 08/06 A2999 RMK AO2 SLP159 T00780056 $=
202202192200 SPECI KPAE 192200Z 15011KT 10SM OVC017 06/05 A3002 RMK AO2 T00610050 $=
202202192153 METAR KPAE 192153Z 15009KT 10SM BR OVC008 06/05 A3002 RMK AO2 SLP169 T00610050 $=
202202192053 METAR KPAE 192053Z 16012KT 10SM BR OVC008 06/04 A3004 RMK AO2 CIG 007V012 SLP177 T00560044 58014 $=
202202191953 METAR KPAE 191953Z 17010G19KT 10SM BR OVC005 05/05 A3007 RMK AO2 SLP188 T00500050 $=
202202191853 METAR KPAE 191853Z 18011KT 3SM BR OVC005 04/04 A3010 RMK AO2 SLP196 T00440044 $=
202202191753 METAR KPAE 191753Z 16014G20KT 3SM BR OVC006 04/04 A3009 RMK AO2 CIG 004V009 PRESFR SLP192 60000 T00390039 10056 20039 58013 $=
202202191706 SPECI KPAE 191706Z 16009KT 3SM BR BKN007 OVC013 04/04 A3012 RMK AO2 T00390039 $=
202202191701 SPECI KPAE 191701Z 17009KT 5SM BR SCT007 OVC015 04/04 A3012 RMK AO2 T00390039 $=
202202191659 SPECI KPAE 191659Z 17008KT 6SM BR BKN008 OVC015 04/04 A3012 RMK AO2 T00390039 $=
202202191656 SPECI KPAE 191656Z 17008KT 5SM BR SCT010 OVC015 04/04 A3012 RMK AO2 T00390039 $=
202202191653 METAR KPAE 191653Z 18011KT 5SM BR OVC008 04/04 A3013 RMK AO2 SLP207 T00390039 $=
202202191553 METAR KPAE 191553Z 18013KT 10SM BKN006 BKN010 OVC015 04/04 A3013 RMK AO2 SLP207 T00440039 $=
202202191453 METAR KPAE 191453Z AUTO 18010KT 8SM BKN006 OVC010 06/05 A3012 RMK AO2 RAB22E34 CIG 005V009 SLP204 P0000 60000 T00560050 58016 $=
202202191430 SPECI KPAE 191430Z AUTO 20005KT 8SM -RA BKN008 OVC013 06/06 A3014 RMK AO2 RAB22 CIG 006V011 P0000 T00560056 $=
202202191415 SPECI KPAE 191415Z AUTO 17006KT 10SM BKN011 BKN018 OVC024 06/05 A3014 RMK AO2 T00560050 $=
202202191353 METAR KPAE 191353Z AUTO 18005KT 10SM FEW016 OVC025 06/05 A3016 RMK AO2 SLP215 T00560050 $=
202202191253 METAR KPAE 191253Z AUTO 20003KT 10SM SCT010 OVC029 06/05 A3018 RMK AO2 SLP221 T00560050 $=
202202191153 METAR KPAE 191153Z AUTO 18007KT 10SM OVC032 06/05 A3017 RMK AO2 SLP221 T00560050 10061 20056 56027 $=
202202191132 SPECI KPAE 191132Z AUTO 18007KT 10SM SCT014 OVC031 06/06 A3018 RMK AO2 T00560056 $=
202202191053 METAR KPAE 191053Z AUTO 15005KT 9SM SCT011 OVC027 06/06 A3019 RMK AO2 SLP228 T00560056 $=
202202191037 SPECI KPAE 191037Z AUTO 15005KT 8SM BKN010 OVC017 06/06 A3020 RMK AO2 T00610056 $=
202202190953 METAR KPAE 190953Z AUTO 11004KT 10SM FEW005 SCT009 OVC016 06/06 A3022 RMK AO2 SLP237 T00610061 $=
202202190940 SPECI KPAE 190940Z AUTO 05003KT 10SM SCT005 BKN009 OVC016 06/06 A3023 RMK AO2 T00560056 $=
202202190933 SPECI KPAE 190933Z AUTO 05004KT 10SM SCT005 BKN010 OVC014 06/06 A3024 RMK AO2 CIG 007V011 T00560056 $=
202202190925 SPECI KPAE 190925Z AUTO 04004KT 10SM BKN005 BKN010 OVC014 06/06 A3024 RMK AO2 CIG 002V008 T00560056 $=
202202190853 METAR KPAE 190853Z AUTO 02005KT 7SM OVC002 06/06 A3026 RMK AO2 SLP248 T00560056 56010 $=
202202190843 SPECI KPAE 190843Z AUTO 35004KT 10SM BKN002 OVC020 06/06 A3026 RMK AO2 T00560056 $=
202202190801 SPECI KPAE 190801Z AUTO 35004KT 10SM FEW004 OVC026 06/06 A3026 RMK AO2 T00560056 $=
202202190753 METAR KPAE 190753Z AUTO 36003KT 10SM OVC026 06/06 A3026 RMK AO2 SLP250 T00610061 400940028 $=
202202190748 SPECI KPAE 190748Z AUTO 01003KT 10SM FEW004 OVC026 06/06 A3026 RMK AO2 $=
202202190653 METAR KPAE 190653Z AUTO 00000KT 10SM OVC026 06/06 A3029 RMK AO2 SLP259 T00610061 $=
202202190609 SPECI KPAE 190609Z AUTO 00000KT 10SM OVC029 06/06 A3029 RMK AO2 T00610061 $=
202202190553 METAR KPAE 190553Z AUTO 00000KT 10SM OVC030 06/06 A3030 RMK AO2 SLP265 T00610061 10094 20061 57011 $=
202202190453 METAR KPAE 190453Z AUTO 00000KT 10SM FEW030 06/06 A3031 RMK AO2 SLP267 T00610056 $=
202202190353 METAR KPAE 190353Z 00000KT 10SM CLR 06/05 A3033 RMK AO2 SLP275 T00610050 $=
202202190253 METAR KPAE 190253Z 00000KT 10SM CLR 07/04 A3034 RMK AO2 SLP277 T00670039 56018 $=
202202190153 METAR KPAE 190153Z 27003KT 10SM CLR 07/04 A3035 RMK AO2 SLP279 T00720044 $=
202202190053 METAR KPAE 190053Z 00000KT 10SM CLR 08/04 A3037 RMK AO2 SLP286 T00780039 $=
202202182353 METAR KPAE 182353Z 30004KT 10SM CLR 09/04 A3039 RMK AO2 SLP294 T00940044 10094 20072 58013 $=
202202182253 METAR KPAE 182253Z 25003KT 10SM CLR 08/04 A3040 RMK AO2 SLP298 T00830044 $=
202202182207 SPECI KPAE 182207Z 25005KT 10SM SCT023 08/04 A3042 RMK AO2 T00830044 $=
202202182200 SPECI KPAE 182200Z 27006KT 10SM BKN023 08/04 A3042 RMK AO2 T00830044 $=
202202182153 METAR KPAE 182153Z 29006KT 10SM SCT023 08/04 A3042 RMK AO2 SLP304 T00830044 $=
202202182123 SPECI KPAE 182123Z 25006KT 10SM SCT023 08/04 A3042 RMK AO2 T00830044 $=
202202182053 METAR KPAE 182053Z VRB03KT 10SM BKN021 09/04 A3043 RMK AO2 SLP307 T00890044 58014=
202202181953 METAR KPAE 181953Z 00000KT 10SM OVC021 08/05 A3045 RMK AO2 SLP314 T00830050=
202202181855 SPECI KPAE 181855Z 27003KT 10SM BKN020 OVC026 08/05 A3046 RMK AO2 T00780050=
202202181853 METAR KPAE 181853Z 29003KT 10SM SCT015 08/04 A3046 RMK AO2 SLP318 T00780044=
202202181753 METAR KPAE 181753Z 18003KT 10SM SCT014 07/04 A3047 RMK AO2 SLP321 T00720044 10078 20028 50005=
202202181653 METAR KPAE 181653Z 11005KT 10SM FEW020 06/04 A3047 RMK AO2 SLP322 T00610044=
202202181553 METAR KPAE 181553Z 11003KT 10SM CLR 04/04 A3047 RMK AO2 SLP322 T00440039=
202202181453 METAR KPAE 181453Z 15003KT 10SM SCT017 04/04 A3045 RMK AO2 SLP317 T00440039 57001=
202202181421 SPECI KPAE 181421Z AUTO 00000KT 10SM SCT019 05/05 A3045 RMK AO2 T00500050=
202202181353 METAR KPAE 181353Z AUTO 10006KT 10SM OVC016 05/05 A3045 RMK AO2 SLP316 T00500050=
202202181349 SPECI KPAE 181349Z AUTO 11006KT 10SM OVC016 06/05 A3046 RMK AO2=
202202181253 METAR KPAE 181253Z AUTO 16003KT 10SM OVC012 06/06 A3046 RMK AO2 SLP316 T00610056=
202202181218 SPECI KPAE 181218Z AUTO 00000KT 10SM FEW009 BKN013 06/06 A3046 RMK AO2 T00560056=
202202181200 SPECI KPAE 181200Z AUTO 11003KT 10SM FEW010 BKN017 06/06 A3046 RMK AO2 T00560056=
202202181153 METAR KPAE 181153Z AUTO 00000KT 10SM BKN012 BKN019 06/06 A3045 RMK AO2 SLP316 T00560056 10067 20056 58006=
202202181102 SPECI KPAE 181102Z AUTO 12003KT 10SM FEW008 OVC014 06/06 A3046 RMK AO2 T00610056=
202202181053 METAR KPAE 181053Z AUTO 00000KT 10SM BKN014 OVC022 06/06 A3047 RMK AO2 SLP320 T00610056=
202202181020 SPECI KPAE 181020Z AUTO 00000KT 10SM FEW008 OVC015 06/06 A3048 RMK AO2 T00610056=
202202180953 METAR KPAE 180953Z AUTO 00000KT 9SM BKN009 OVC014 07/06 A3048 RMK AO2 SLP325 T00670056=
202202180853 METAR KPAE 180853Z AUTO 22003KT 10SM OVC007 06/06 A3047 RMK AO2 CIG 006V010 SLP323 T00610061 53003=
202202180753 METAR KPAE 180753Z AUTO 18004KT 10SM OVC007 06/06 A3047 RMK AO2 SLP321 T00610061 400720044=
202202180723 SPECI KPAE 180723Z AUTO 16006KT 10SM BKN008 06/06 A3046 RMK AO2 CIG 007V011 T00610061=
202202180653 METAR KPAE 180653Z AUTO 16007KT 10SM SCT007 06/06 A3046 RMK AO2 SLP318 T00610061=
202202180553 METAR KPAE 180553Z AUTO 17005KT 10SM OVC007 07/06 A3047 RMK AO2 SLP320 T00670061 10072 20061 53006=
202202180500 SPECI KPAE 180500Z AUTO 17003KT 10SM BKN009 OVC043 06/06 A3046 RMK AO2 T00610056=
202202180453 METAR KPAE 180453Z 19003KT 10SM BKN014 OVC041 06/06 A3046 RMK AO2 SLP317 T00610061=
202202180353 METAR KPAE 180353Z 20005KT 10SM BKN013 OVC040 07/06 A3044 RMK AO2 SLP311 T00670061=
202202180253 METAR KPAE 180253Z 19005KT 10SM BKN013 OVC035 07/07 A3045 RMK AO2 SLP314 T00670067 53003=
202202180153 METAR KPAE 180153Z 23003KT 10SM BKN015 OVC026 07/07 A3044 RMK AO2 SLP312 T00670067=
202202180053 METAR KPAE 180053Z 29003KT 10SM BKN017 OVC024 07/06 A3043 RMK AO2 SLP308 T00670061=
202202172353 METAR KPAE 172353Z 14006KT 10SM OVC017 07/04 A3044 RMK AO2 SLP311 T00720044 10072 20061 56006=
202202172253 METAR KPAE 172253Z VRB05KT 10SM OVC014 07/05 A3044 RMK AO2 SLP312 T00720050=
202202172153 METAR KPAE 172153Z 18007KT 10SM OVC014 07/04 A3045 RMK AO2 SLP314 T00720044=
202202172053 METAR KPAE 172053Z 24007KT 10SM OVC013 07/05 A3046 RMK AO2 SLP317 T00670050 50002=
202202172006 SPECI KPAE 172006Z 19005KT 10SM OVC010 07/05 A3047 RMK AO2 T00670050=
202202171953 METAR KPAE 171953Z 18007KT 10SM OVC008 07/05 A3047 RMK AO2 SLP323 T00670050=
202202171902 SPECI KPAE 171902Z 19009KT 10SM OVC008 06/05 A3046 RMK AO2 T00610050=
202202171853 METAR KPAE 171853Z 18009KT 10SM SCT009 OVC011 06/05 A3045 RMK AO2 SLP315 T00610050=
202202171851 SPECI KPAE 171851Z 18009KT 10SM SCT009 OVC011 06/05 A3045 RMK AO2=
202202171811 SPECI KPAE 171811Z 17009KT 10SM BKN012 OVC027 06/04 A3046 RMK AO2 T00610044=
202202171800 SPECI KPAE 171800Z 16010KT 10SM SCT011 BKN027 OVC060 06/04 A3046 RMK AO2 T00610044=
202202171753 METAR KPAE 171753Z 17007KT 10SM SCT009 SCT025 OVC065 06/04 A3046 RMK AO2 SLP318 T00610044 10061 20044 50004=
202202171744 SPECI KPAE 171744Z 17008KT 10SM SCT009 BKN028 06/05 A3046 RMK AO2 T00610050=
202202171722 SPECI KPAE 171722Z 15009KT 10SM FEW023 BKN028 OVC070 06/04 A3046 RMK AO2 T00560044=
202202171653 METAR KPAE 171653Z 16007KT 10SM FEW021 OVC028 06/04 A3046 RMK AO2 SLP319 T00560044=
202202171553 METAR KPAE 171553Z 16009KT 10SM FEW080 SCT110 05/04 A3045 RMK AO2 SLP315 T00500044=
202202171453 METAR KPAE 171453Z 17007KT 10SM BKN034 05/04 A3045 RMK AO2 SLP315 T00500044 53001=
202202171353 METAR KPAE 171353Z AUTO 19009KT 10SM OVC034 05/04 A3045 RMK AO2 SLP315 T00500044=
202202171253 METAR KPAE 171253Z AUTO 16008KT 10SM OVC036 05/04 A3043 RMK AO2 SLP309 T00500039=
202202171153 METAR KPAE 171153Z AUTO 16007KT 10SM OVC035 04/04 A3044 RMK AO2 SLP313 T00440039 10067 20044 55002=
202202171053 METAR KPAE 171053Z AUTO 17005KT 10SM CLR 05/03 A3044 RMK AO2 SLP312 T00500033=
202202170953 METAR KPAE 170953Z AUTO 16007KT 10SM BKN040 06/03 A3044 RMK AO2 SLP310 T00560033=
202202170853 METAR KPAE 170853Z AUTO 15009KT 10SM OVC041 06/04 A3045 RMK AO2 SLP315 T00610044 58001=
202202170753 METAR KPAE 170753Z AUTO 15005KT 10SM OVC041 07/04 A3046 RMK AO2 SLP317 T00670044 400940044=
202202170653 METAR KPAE 170653Z AUTO 11005KT 10SM OVC037 07/04 A3046 RMK AO2 SLP317 T00670044=
202202170553 METAR KPAE 170553Z AUTO 11003KT 10SM OVC039 07/03 A3045 RMK AO2 SLP316 T00670033 10083 20044 53008=
202202170500 SPECI KPAE 170500Z AUTO 00000KT 10SM BKN035 06/03 A3044 RMK AO2 T00610033=
202202170453 METAR KPAE 170453Z 00000KT 10SM BKN028 07/03 A3044 RMK AO2 SLP312 T00670033=
202202170353 METAR KPAE 170353Z 19004KT 10SM BKN028 05/02 A3043 RMK AO2 SLP310 T00500022=
202202170253 METAR KPAE 170253Z 16003KT 10SM CLR 06/02 A3043 RMK AO2 SLP308 T00560017 53016=
202202170153 METAR KPAE 170153Z 23003KT 10SM CLR 07/02 A3041 RMK AO2 SLP301 T00670017=
202202170053 METAR KPAE 170053Z 23007KT 10SM CLR 08/02 A3039 RMK AO2 SLP295 T00780022=
202202162353 METAR KPAE 162353Z 24006KT 10SM SCT037 08/03 A3038 RMK AO2 SLP291 T00830028 10094 20067 53007=
202202162253 METAR KPAE 162253Z 01004KT 10SM FEW029 SCT034 09/04 A3037 RMK AO2 SLP286 T00940039=
202202162153 METAR KPAE 162153Z 02003KT 10SM FEW020 BKN036 08/04 A3037 RMK AO2 SLP286 T00830044=
202202162142 SPECI KPAE 162142Z 02004KT 10SM SCT020 BKN035 09/04 A3036 RMK AO2 T00890044=
202202162114 SPECI KPAE 162114Z 00000KT 10SM BKN020 OVC035 08/04 A3036 RMK AO2 T00780044=
202202162053 METAR KPAE 162053Z 00000KT 10SM FEW018 OVC035 08/04 A3036 RMK AO2 SLP284 T00780044 50012=
202202161953 METAR KPAE 161953Z 33005KT 10SM SCT018 BKN028 OVC033 07/04 A3037 RMK AO2 SLP286 T00720039=
202202161932 SPECI KPAE 161932Z VRB05KT 10SM BKN020 BKN027 OVC033 08/04 A3036 RMK AO2 T00830039=
202202161853 METAR KPAE 161853Z 36004KT 10SM FEW020 OVC030 08/04 A3034 RMK AO2 SLP278 T00780039=
202202161753 METAR KPAE 161753Z 00000KT 10SM BKN025 OVC029 07/04 A3032 RMK AO2 SLP272 60000 T00670039 10067 20056 51022=
202202161712 SPECI KPAE 161712Z 00000KT 10SM BKN024 OVC032 07/03 A3031 RMK AO2 T00670033=
202202161653 METAR KPAE 161653Z 00000KT 10SM OVC033 07/04 A3031 RMK AO2 RAE18 SLP266 P0000 T00670044=
202202161613 SPECI KPAE 161613Z 33003KT 10SM -RA SCT027 OVC036 06/05 A3029 RMK AO2 P0000 T00610050=
202202161553 METAR KPAE 161553Z 33004KT 9SM -RA BKN025 BKN035 OVC042 06/06 A3029 RMK AO2 RAE11B41 SLP260 P0000 T00610056=
202202161504 SPECI KPAE 161504Z 27005KT 10SM -RA SCT030 BKN038 OVC045 06/05 A3027 RMK AO2 P0000 T00560050=
202202161453 METAR KPAE 161453Z 28004KT 9SM -RA FEW010 BKN029 OVC034 06/05 A3026 RMK AO2 RAB39 SLP250 P0000 60000 T00560050 51015=
202202161450 SPECI KPAE 161450Z 27003KT 9SM -RA SCT010 SCT024 OVC029 06/05 A3026 RMK AO2 RAB39 P0000=
202202161420 SPECI KPAE 161420Z AUTO 28004KT 10SM OVC010 06/05 A3024 RMK AO2 T00610050=
202202161408 SPECI KPAE 161408Z AUTO 29005KT 10SM OVC009 06/06 A3024 RMK AO2 T00610056=
202202161353 METAR KPAE 161353Z AUTO 26003KT 10SM OVC010 06/06 A3024 RMK AO2 RAE15 SLP243 P0000 T00610056=
202202161339 SPECI KPAE 161339Z AUTO 00000KT 9SM OVC010 06/06 A3023 RMK AO2 RAE15 P0000 T00610061=
202202161306 SPECI KPAE 161306Z AUTO 00000KT 7SM -RA OVC009 06/06 A3022 RMK AO2 P0000 T00610056=
202202161253 METAR KPAE 161253Z AUTO 00000KT 9SM -RA OVC010 06/06 A3021 RMK AO2 RAB51 SLP234 P0000 T00610056=
202202161153 METAR KPAE 161153Z AUTO 33004KT 10SM OVC012 06/05 A3019 RMK AO2 SLP227 T00610050 10067 20061 53009=
202202161141 SPECI KPAE 161141Z AUTO 32003KT 10SM OVC014 06/05 A3019 RMK AO2 T00610050=
202202161053 METAR KPAE 161053Z AUTO 34003KT 10SM OVC015 07/05 A3018 RMK AO2 SLP221 T00670050=
202202160953 METAR KPAE 160953Z AUTO 28004KT 10SM BKN021 OVC026 06/05 A3017 RMK AO2 SLP220 T00610050=
202202160853 METAR KPAE 160853Z AUTO 00000KT 10SM OVC027 07/05 A3016 RMK AO2 SLP217 T00670050 53002=
202202160827 SPECI KPAE 160827Z AUTO 19003KT 10SM SCT007 BKN029 OVC037 06/06 A3016 RMK AO2 T00610056=
202202160753 METAR KPAE 160753Z AUTO 00000KT 9SM OVC008 06/06 A3016 RMK AO2 CIG 006V011 SLP214 T00610061 400780056=
202202160705 SPECI KPAE 160705Z AUTO 32003KT 9SM OVC009 06/06 A3015 RMK AO2 T00610061=
202202160653 METAR KPAE 160653Z AUTO 32003KT 10SM OVC011 06/06 A3016 RMK AO2 CIG 008V014 SLP215 T00610061=
202202160637 SPECI KPAE 160637Z AUTO 00000KT 10SM BKN012 OVC034 07/06 A3016 RMK AO2 T00670056=
202202160553 METAR KPAE 160553Z AUTO 18006KT 10SM OVC035 07/06 A3016 RMK AO2 SLP216 T00670056 10078 20067 56011=
202202160516 SPECI KPAE 160516Z AUTO 18005KT 10SM FEW022 BKN030 OVC060 07/06 A3016 RMK AO2 T00670056=
202202160453 METAR KPAE 160453Z 17005KT 10SM BKN023 OVC032 07/06 A3016 RMK AO2 SLP217 T00720056=
202202160353 METAR KPAE 160353Z 17005KT 10SM BKN022 OVC031 07/06 A3017 RMK AO2 SLP220 T00720056=
202202160253 METAR KPAE 160253Z 16004KT 10SM BKN028 OVC060 07/05 A3019 RMK AO2 SLP227 T00720050 58002=
202202160251 SPECI KPAE 160251Z 15004KT 10SM BKN028 OVC060 07/05 A3019 RMK AO2=
202202160211 SPECI KPAE 160211Z 00000KT 10SM SCT025 BKN031 OVC070 07/05 A3020 RMK AO2 T00720050=
202202160153 METAR KPAE 160153Z 00000KT 10SM OVC025 07/06 A3020 RMK AO2 SLP230 T00720056=
202202160136 SPECI KPAE 160136Z 00000KT 10SM BKN026 BKN038 OVC044 07/06 A3020 RMK AO2 T00670056=
202202160100 SPECI KPAE 160100Z 00000KT 10SM SCT033 OVC043 07/04 A3020 RMK AO2 T00720044=
202202160053 METAR KPAE 160053Z 22003KT 10SM BKN028 07/04 A3020 RMK AO2 SLP229 T00720044=
202202160018 SPECI KPAE 160018Z 19004KT 10SM BKN028 08/05 A3020 RMK AO2 T00780050=
202202152353 METAR KPAE 152353Z 21004KT 10SM BKN034 BKN044 07/06 A3020 RMK AO2 SLP231 T00720056 10078 20056 55008=
202202152253 METAR KPAE 152253Z 22003KT 10SM OVC035 08/06 A3020 RMK AO2 SLP228 T00780056=
202202152153 METAR KPAE 152153Z 27003KT 10SM SCT010 OVC039 07/06 A3021 RMK AO2 SLP233 T00720056=
202202152053 METAR KPAE 152053Z 00000KT 10SM OVC036 07/06 A3023 RMK AO2 SLP239 T00670056 58004=
202202152008 SPECI KPAE 152008Z 00000KT 10SM SCT006 SCT012 OVC035 06/06 A3024 RMK AO2 T00610056=
202202152000 SPECI KPAE 152000Z 21003KT 10SM BKN006 BKN012 OVC035 06/06 A3025 RMK AO2 CIG 005V009 T00560056=
202202151953 METAR KPAE 151953Z 21003KT 10SM SCT007 OVC012 06/06 A3025 RMK AO2 SLP247 T00560056=
202202151900 SPECI KPAE 151900Z 26003KT 10SM SCT007 OVC012 06/06 A3024 RMK AO2 T00610056=
202202151853 METAR KPAE 151853Z 23004KT 10SM BKN007 OVC012 06/06 A3023 RMK AO2 SLP241 T00610056=
202202151827 SPECI KPAE 151827Z 20003KT 10SM BKN007 OVC012 06/06 A3023 RMK AO2 T00560056=
202202151811 SPECI KPAE 151811Z 18004KT 10SM SCT007 OVC012 06/06 A3023 RMK AO2 T00560056=
202202151753 METAR KPAE 151753Z 22003KT 10SM BKN007 OVC012 06/06 A3024 RMK AO2 CIG 005V009 SLP244 T00560056 10061 20056 51021=
202202151736 SPECI KPAE 151736Z 00000KT 10SM BKN008 OVC037 06/06 A3023 RMK AO2 T00560056=
202202151723 SPECI KPAE 151723Z 22004KT 10SM SCT009 SCT016 OVC037 06/06 A3022 RMK AO2 T00560056=
202202151706 SPECI KPAE 151706Z 23005KT 10SM SCT004 BKN009 OVC016 06/06 A3022 RMK AO2 T00560056=
202202151653 METAR KPAE 151653Z 22005KT 10SM BKN003 OVC033 06/06 A3022 RMK AO2 SLP238 T00560056=
202202151609 SPECI KPAE 151609Z 23005KT 10SM BKN003 OVC033 06/06 A3020 RMK AO2 T00560056=
202202151600 SPECI KPAE 151600Z 21004KT 10SM SCT003 OVC033 06/06 A3020 RMK AO2 T00560056=
202202151553 METAR KPAE 151553Z 21004KT 10SM BKN003 OVC035 06/06 A3020 RMK AO2 SLP229 T00560056=
202202151514 SPECI KPAE 151514Z 23005KT 10SM OVC004 06/06 A3018 RMK AO2 CIG 003V007 T00560056=
202202151453 METAR KPAE 151453Z 23005KT 10SM OVC005 06/06 A3018 RMK AO2 SLP221 T00560056 51015=
202202151436 SPECI KPAE 151436Z AUTO 23005KT 10SM BKN006 OVC034 06/06 A3017 RMK AO2 T00560056=
202202151423 SPECI KPAE 151423Z AUTO 23004KT 10SM SCT007 OVC034 06/06 A3017 RMK AO2 T00560056=
202202151353 METAR KPAE 151353Z AUTO 22004KT 9SM BKN036 OVC045 06/06 A3017 RMK AO2 SLP218 T00560056 $=
202202151253 METAR KPAE 151253Z AUTO 19004KT 8SM FEW032 OVC045 06/06 A3015 RMK AO2 SLP212 T00560056 $=
202202151153 METAR KPAE 151153Z AUTO 18005KT 10SM OVC032 06/06 A3013 RMK AO2 SLP206 T00560056 10061 20056 50006 $=
202202151053 METAR KPAE 151053Z AUTO 20003KT 10SM SCT029 OVC042 06/06 A3013 RMK AO2 SLP206 T00560056 $=
202202151003 SPECI KPAE 151003Z AUTO 21004KT 10SM BKN022 OVC037 06/06 A3012 RMK AO2 T00610056 $=
202202150953 METAR KPAE 150953Z AUTO 22003KT 10SM SCT022 OVC037 06/06 A3012 RMK AO2 SLP203 T00610061 $=
202202150853 METAR KPAE 150853Z AUTO 18005KT 10SM OVC034 06/06 A3011 RMK AO2 SLP200 T00560056 51016 $=
202202150753 METAR KPAE 150753Z AUTO 27003KT 10SM OVC034 06/06 A3011 RMK AO2 SLP198 T00560056 400940044 $=
202202150653 METAR KPAE 150653Z AUTO 00000KT 10SM BKN033 OVC042 06/06 A3009 RMK AO2 SLP191 T00610061 $=
202202150553 METAR KPAE 150553Z AUTO 00000KT 10SM BKN039 OVC046 06/06 A3006 RMK AO2 SLP184 T00560056 10078 20044 53019 $=
202202150453 METAR KPAE 150453Z AUTO 25004KT 10SM SCT033 BKN100 05/05 A3004 RMK AO2 SLP174 T00500050=
202202150353 METAR KPAE 150353Z 34003KT 10SM SCT012 BKN035 06/06 A3002 RMK AO2 SLP169 T00560056=
202202150340 SPECI KPAE 150340Z 31004KT 10SM BKN013 06/06 A3002 RMK AO2 T00610061=
202202150253 METAR KPAE 150253Z 32003KT 10SM SCT019 BKN033 OVC050 06/06 A3001 RMK AO2 SLP165 T00610056 51025=
202202150153 METAR KPAE 150153Z 33004KT 10SM SCT019 SCT035 BKN050 07/05 A2999 RMK AO2 SLP159 T00670050=
202202150053 METAR KPAE 150053Z 29003KT 10SM OVC041 08/04 A2996 RMK AO2 SLP148 T00780044=
202202142353 METAR KPAE 142353Z 35005KT 10SM BKN041 OVC060 08/05 A2993 RMK AO2 SLP139 T00780050 10089 20067 53017=
202202142323 SPECI KPAE 142323Z 35003KT 10SM FEW016 SCT024 SCT041 07/05 A2992 RMK AO2 T00720050=
202202142253 METAR KPAE 142253Z 32003KT 10SM BKN016 BKN024 08/05 A2991 RMK AO2 SLP130 T00830050=
202202142227 SPECI KPAE 142227Z 24003KT 10SM FEW013 SCT020 BKN028 08/06 A2990 RMK AO2 T00830061=
202202142218 SPECI KPAE 142218Z 22003KT 10SM SCT013 BKN030 OVC048 08/06 A2990 RMK AO2 T00780061=
202202142200 SPECI KPAE 142200Z 22006KT 10SM BKN012 BKN027 OVC036 07/06 A2990 RMK AO2 T00670061=
202202142153 METAR KPAE 142153Z 25004KT 10SM OVC024 07/06 A2990 RMK AO2 SLP127 T00670061=
202202142053 METAR KPAE 142053Z 24005KT 10SM OVC024 07/06 A2988 RMK AO2 SLP122 T00720056 51009=
202202141953 METAR KPAE 141953Z 21007KT 10SM SCT013 BKN019 OVC049 08/06 A2988 RMK AO2 SLP120 T00780056=
202202141853 METAR KPAE 141853Z 20010KT 10SM BKN009 OVC019 07/06 A2987 RMK AO2 SLP117 T00720056=
202202141814 SPECI KPAE 141814Z 21010KT 10SM BKN008 OVC022 07/06 A2986 RMK AO2 T00670056=
202202141800 SPECI KPAE 141800Z 20013KT 10SM BKN014 OVC022 07/06 A2986 RMK AO2 T00720061=
202202141753 METAR KPAE 141753Z 20011G20KT 10SM OVC009 07/06 A2986 RMK AO2 SLP112 60000 T00720056 10072 20061 51012=
202202141653 METAR KPAE 141653Z 21011G19KT 10SM OVC013 07/06 A2984 RMK AO2 SLP106 T00670056=
202202141553 METAR KPAE 141553Z 18014G20KT 10SM SCT009 BKN014 BKN021 06/06 A2982 RMK AO2 SLP100 T00610056=
202202141453 METAR KPAE 141453Z 17011G20KT 10SM SCT009 BKN014 BKN021 06/06 A2983 RMK AO2 PK WND 17028/1404 SLP103 60000 T00610061 58016=
202202141425 SPECI KPAE 141425Z AUTO 18013G19KT 10SM FEW009 BKN014 OVC019 06/06 A2984 RMK AO2 PK WND 17028/1404 T00610061=
202202141405 SPECI KPAE 141405Z AUTO 17017G28KT 10SM SCT017 BKN024 OVC075 07/06 A2984 RMK AO2 PK WND 17028/1404 T00670061=
202202141353 METAR KPAE 141353Z AUTO 16014KT 10SM SCT019 BKN050 OVC075 07/06 A2985 RMK AO2 RAE48 SLP109 P0000 T00670056=
202202141253 METAR KPAE 141253Z AUTO 18018G23KT 10SM -RA SCT023 BKN048 OVC080 07/05 A2988 RMK AO2 RAB47 SLP118 P0000 T00720050=
202202141153 METAR KPAE 141153Z AUTO 16010G20KT 10SM FEW041 07/05 A2988 RMK AO2 SLP118 T00720050 10111 20072 56009=
202202141053 METAR KPAE 141053Z AUTO 17012G22KT 10SM CLR 07/04 A2988 RMK AO2 PK WND 17027/1031 SLP119 T00720044=
202202140953 METAR KPAE 140953Z AUTO 16012G21KT 10SM CLR 08/04 A2989 RMK AO2 SLP122 T00780044=
202202140853 METAR KPAE 140853Z AUTO 17012KT 10SM CLR 08/04 A2990 RMK AO2 SLP128 T00830044 58031=
202202140753 METAR KPAE 140753Z AUTO 17007KT 10SM CLR 09/03 A2994 RMK AO2 SLP140 T00940033 401331006=
202202140653 METAR KPAE 140653Z AUTO 16010KT 10SM CLR 10/02 A2997 RMK AO2 SLP149 T01000022=
202202140553 METAR KPAE 140553Z AUTO 15008KT 10SM CLR 11/02 A3000 RMK AO2 SLP160 T01110017 10133 20100 58010=
202202140453 METAR KPAE 140453Z 16010KT 10SM CLR 11/02 A3001 RMK AO2 SLP165 T01110017=
202202140353 METAR KPAE 140353Z 16006KT 10SM CLR 11/01 A3003 RMK AO2 SLP170 T01060011=
202202140253 METAR KPAE 140253Z 15010KT 10SM CLR 12/01 A3003 RMK AO2 SLP171 T01170006 56018=
202202140153 METAR KPAE 140153Z 16008KT 10SM CLR 12/00 A3004 RMK AO2 SLP176 T01220000=
202202140053 METAR KPAE 140053Z 16007KT 10SM CLR 13/00 A3006 RMK AO2 SLP181 T01280000=
202202132353 METAR KPAE 132353Z 15005KT 10SM CLR 13/M01 A3008 RMK AO2 SLP190 T01331011 10133 20067 58023=
202202132253 METAR KPAE 132253Z 16007KT 10SM CLR 13/M01 A3011 RMK AO2 SLP199 T01331011=
202202132153 METAR KPAE 132153Z 18007KT 10SM CLR 13/00 A3013 RMK AO2 SLP205 T01330000=
202202132053 METAR KPAE 132053Z 16007KT 10SM CLR 12/01 A3015 RMK AO2 SLP214 T01170006 58017=
202202131953 METAR KPAE 131953Z 17007KT 10SM CLR 11/00 A3019 RMK AO2 SLP225 T01060000=
202202131853 METAR KPAE 131853Z 17007KT 10SM CLR 09/00 A3020 RMK AO2 SLP231 T00890000=
202202131753 METAR KPAE 131753Z 17005KT 10SM CLR 06/02 A3020 RMK AO2 SLP232 T00610022 10061 21006 58000=
202202131653 METAR KPAE 131653Z 00000KT 10SM CLR 04/03 A3022 RMK AO2 SLP236 T00440033=
202202131553 METAR KPAE 131553Z 17003KT 10SM CLR 01/M01 A3021 RMK AO2 SLP235 T00111011=
202202131453 METAR KPAE 131453Z 00000KT 10SM CLR 01/00 A3021 RMK AO2 SLP234 T00060000 53001=
202202131353 METAR KPAE 131353Z 10006KT 10SM CLR 02/00 A3020 RMK AO2 SLP230 T00220000=
202202131253 METAR KPAE 131253Z 00000KT 10SM CLR 02/01 A3020 RMK AO2 SLP232 T00170006=
202202131153 METAR KPAE 131153Z 00000KT 10SM CLR 01/01 A3020 RMK AO2 SLP232 T00110006 10044 20011 56008=
202202131053 METAR KPAE 131053Z 00000KT 10SM CLR 02/02 A3021 RMK AO2 SLP232 T00220022=
202202130953 METAR KPAE 130953Z 01005KT 10SM CLR 03/03 A3022 RMK AO2 SLP237 T00280028=
202202130853 METAR KPAE 130853Z 01004KT 10SM CLR 03/03 A3023 RMK AO2 SLP241 T00330033 55003=
202202130753 METAR KPAE 130753Z 00000KT 10SM CLR 04/03 A3023 RMK AO2 SLP240 T00390028 400940022=
202202130653 METAR KPAE 130653Z 01004KT 10SM CLR 04/02 A3023 RMK AO2 SLP241 T00390022=
202202130553 METAR KPAE 130553Z 36004KT 10SM CLR 04/02 A3024 RMK AO2 SLP244 T00390022 10094 20033 53000=
202202130453 METAR KPAE 130453Z 35003KT 10SM CLR 05/02 A3024 RMK AO2 SLP244 T00500022=
202202130353 METAR KPAE 130353Z 35004KT 10SM CLR 05/03 A3024 RMK AO2 SLP245 T00500033=
202202130253 METAR KPAE 130253Z 35004KT 10SM CLR 06/03 A3024 RMK AO2 SLP244 T00560033 58008=
202202130153 METAR KPAE 130153Z 34004KT 10SM CLR 07/03 A3025 RMK AO2 SLP247 T00670028=
202202130053 METAR KPAE 130053Z 34004KT 10SM CLR 08/02 A3026 RMK AO2 SLP249 T00830017=
202202122353 METAR KPAE 122353Z 35005KT 10SM CLR 09/02 A3026 RMK AO2 SLP251 T00940022 10094 20050 56018=
202202122253 METAR KPAE 122253Z 36006KT 10SM CLR 09/01 A3028 RMK AO2 SLP256 T00940011=
202202122153 METAR KPAE 122153Z 36007KT 10SM CLR 09/01 A3029 RMK AO2 SLP260 T00890011=
202202122053 METAR KPAE 122053Z 36007KT 10SM CLR 08/02 A3032 RMK AO2 SLP269 T00780022 58010=
202202121953 METAR KPAE 121953Z 35006KT 10SM CLR 07/01 A3033 RMK AO2 SLP275 T00670011=
202202121853 METAR KPAE 121853Z 35009KT 10SM CLR 06/02 A3035 RMK AO2 SLP280 T00610022=
202202121753 METAR KPAE 121753Z 35008KT 10SM CLR 05/03 A3035 RMK AO2 SLP281 T00500033 10056 20022 55003=
202202121653 METAR KPAE 121653Z 35008KT 10SM CLR 04/04 A3035 RMK AO2 SLP280 T00440039=
202202121553 METAR KPAE 121553Z 34005KT 10SM CLR 03/03 A3036 RMK AO2 SLP284 T00280028=
202202121453 METAR KPAE 121453Z 35005KT 10SM CLR 03/03 A3036 RMK AO2 SLP284 T00280028 55002=
202202121353 METAR KPAE 121353Z AUTO 36005KT 10SM FEW002 03/03 A3035 RMK AO2 SLP281 T00330033=
202202121344 SPECI KPAE 121344Z AUTO 35007KT 9SM SCT002 03/03 A3035 RMK AO2 T00330033=
202202121310 SPECI KPAE 121310Z AUTO 34005KT 5SM BR BKN002 03/03 A3036 RMK AO2 T00330033=
202202121253 METAR KPAE 121253Z AUTO 35005KT 5SM BR SCT002 03/03 A3036 RMK AO2 SLP284 T00330033=
202202121153 METAR KPAE 121153Z AUTO 34006KT 4SM BR FEW002 03/03 A3036 RMK AO2 SLP285 T00330033 10050 20033 56008=
202202121121 SPECI KPAE 121121Z AUTO 36006KT 8SM FEW003 04/04 A3036 RMK AO2 T00390039=
202202121053 METAR KPAE 121053Z AUTO 01007KT 8SM CLR 04/04 A3037 RMK AO2 SLP286 T00390039=
202202121014 SPECI KPAE 121014Z AUTO 35007KT 10SM SCT001 04/04 A3038 RMK AO2 T00440044=
202202120957 SPECI KPAE 120957Z AUTO 35008KT 3SM BR OVC001 04/04 A3038 RMK AO2 T00440044=
202202120953 METAR KPAE 120953Z AUTO 35007KT 1 1/2SM BR OVC001 04/04 A3038 RMK AO2 SLP292 T00440044=
202202120940 SPECI KPAE 120940Z AUTO 34006KT 1 3/4SM BR OVC001 04/04 A3039 RMK AO2 T00440044=
202202120936 SPECI KPAE 120936Z AUTO 34005KT 3SM BR BKN001 04/04 A3039 RMK AO2 T00440044=
202202120928 SPECI KPAE 120928Z AUTO 35006KT 1 3/4SM BR BKN001 04/04 A3039 RMK AO2 T00440044=
202202120923 SPECI KPAE 120923Z AUTO 35007KT 2 1/2SM BR BKN002 04/04 A3039 RMK AO2 T00440044=
202202120853 METAR KPAE 120853Z AUTO 01007KT 8SM SCT002 04/04 A3039 RMK AO2 SLP294 T00440044 56004=
202202120753 METAR KPAE 120753Z AUTO 36006KT 7SM OVC003 04/04 A3039 RMK AO2 SLP295 T00440044 400890044=
202202120740 SPECI KPAE 120740Z AUTO 36007KT 9SM BKN003 05/05 A3039 RMK AO2 T00500050=
202202120731 SPECI KPAE 120731Z AUTO 35005KT 10SM SCT003 04/04 A3039 RMK AO2 T00440044=
202202120653 METAR KPAE 120653Z AUTO 35006KT 10SM CLR 04/04 A3040 RMK AO2 SLP298 T00440044=
202202120553 METAR KPAE 120553Z AUTO 36006KT 10SM CLR 04/04 A3040 RMK AO2 SLP298 T00440044 10089 20044 56005=
202202120453 METAR KPAE 120453Z 35004KT 10SM CLR 05/05 A3040 RMK AO2 SLP300 T00500050=
202202120353 METAR KPAE 120353Z 35006KT 10SM CLR 06/05 A3041 RMK AO2 SLP300 T00560050=
202202120253 METAR KPAE 120253Z 34005KT 10SM CLR 06/06 A3042 RMK AO2 SLP303 T00560056 56010=
202202120153 METAR KPAE 120153Z 34005KT 10SM CLR 06/05 A3042 RMK AO2 SLP304 T00610050=
202202120053 METAR KPAE 120053Z 34004KT 10SM CLR 08/04 A3043 RMK AO2 SLP309 T00780044=
202202112353 METAR KPAE 112353Z 32006KT 10SM CLR 08/04 A3045 RMK AO2 SLP313 T00830039 10089 20061 56012=
202202112253 METAR KPAE 112253Z 34008KT 10SM CLR 08/04 A3046 RMK AO2 SLP317 T00830044=
202202112153 METAR KPAE 112153Z 32006KT 10SM CLR 08/05 A3047 RMK AO2 SLP320 T00830050=
202202112100 SPECI KPAE 112100Z 35009KT 10SM SCT011 07/05 A3048 RMK AO2 T00720050=
202202112053 METAR KPAE 112053Z 35008G14KT 10SM OVC012 08/05 A3048 RMK AO2 SLP325 T00780050 50002=
202202112016 SPECI KPAE 112016Z 35009KT 10SM OVC012 08/06 A3048 RMK AO2 T00780056=
202202111953 METAR KPAE 111953Z 35006KT 10SM OVC009 07/06 A3049 RMK AO2 SLP329 T00670056=
202202111853 METAR KPAE 111853Z 36007KT 10SM OVC008 06/05 A3049 RMK AO2 SLP327 T00610050=
202202111753 METAR KPAE 111753Z 36007KT 10SM OVC008 06/06 A3047 RMK AO2 CIG 005V011 SLP323 T00610056 10061 20056 51010=
202202111653 METAR KPAE 111653Z 34005KT 7SM OVC007 06/06 A3047 RMK AO2 CIG 004V010 SLP322 T00560056=
202202111553 METAR KPAE 111553Z 35006KT 6SM BR OVC006 06/06 A3046 RMK AO2 CIG 004V009 SLP317 T00610056=
202202111542 SPECI KPAE 111542Z 35012G18KT 6SM BR OVC006 06/06 A3046 RMK AO2 CIG 004V009 T00560056=
202202111535 SPECI KPAE 111535Z 35013G18KT 7SM BKN004 OVC008 06/06 A3045 RMK AO2 T00610056=
202202111501 SPECI KPAE 111501Z 33008KT 5SM BR OVC005 06/06 A3045 RMK AO2 T00610061=
202202111453 METAR KPAE 111453Z 35007G15KT 5SM BR OVC004 06/06 A3045 RMK AO2 SLP313 T00610061 55005=
202202111353 METAR KPAE 111353Z AUTO 33007KT 3SM BR OVC002 06/06 A3044 RMK AO2 SLP312 T00610061=
202202111253 METAR KPAE 111253Z AUTO 35010G18KT 5SM BR OVC003 06/06 A3045 RMK AO2 SLP316 T00610061=
202202111153 METAR KPAE 111153Z AUTO 35009G15KT 320V020 7SM OVC003 06/06 A3046 RMK AO2 SLP318 T00610061 10061 20061 58002=
202202111053 METAR KPAE 111053Z AUTO 36006KT 9SM OVC003 06/06 A3046 RMK AO2 SLP318 T00610061=
202202110953 METAR KPAE 110953Z AUTO 35008KT 9SM OVC003 06/06 A3047 RMK AO2 CIG 002V006 SLP322 T00610061=
202202110903 SPECI KPAE 110903Z AUTO 35005KT 10SM OVC004 06/06 A3047 RMK AO2 T00610061=
202202110853 METAR KPAE 110853Z AUTO 35004KT 10SM OVC005 06/06 A3046 RMK AO2 CIG 003V008 SLP320 T00610061 56005=
202202110753 METAR KPAE 110753Z AUTO 00000KT 9SM OVC006 06/06 A3046 RMK AO2 CIG 004V010 SLP319 T00610061 400830061=
202202110728 SPECI KPAE 110728Z AUTO 33003KT 9SM OVC009 06/06 A3047 RMK AO2 CIG 004V012 T00610061=
202202110653 METAR KPAE 110653Z AUTO 00000KT 8SM BKN014 OVC025 06/06 A3048 RMK AO2 SLP324 T00610061=
202202110645 SPECI KPAE 110645Z AUTO 34003KT 8SM FEW006 BKN012 OVC025 06/06 A3048 RMK AO2 T00610061=
202202110638 SPECI KPAE 110638Z AUTO 00000KT 8SM SCT008 BKN016 OVC024 06/06 A3047 RMK AO2 T00610061=
202202110627 SPECI KPAE 110627Z AUTO 00000KT 7SM BKN009 OVC024 06/06 A3047 RMK AO2 CIG 004V011 T00610061=
202202110553 METAR KPAE 110553Z AUTO 00000KT 9SM BKN010 06/06 A3048 RMK AO2 SLP324 T00610061 10078 20061 53006=
202202110542 SPECI KPAE 110542Z AUTO 00000KT 10SM OVC010 06/06 A3048 RMK AO2 CIG 006V014 T00610061=
202202110453 METAR KPAE 110453Z 34004KT 10SM BKN005 OVC009 06/06 A3047 RMK AO2 CIG 003V007 SLP320 T00610061=
202202110353 METAR KPAE 110353Z 35004KT 10SM OVC005 06/06 A3046 RMK AO2 SLP319 T00610061=
202202110253 METAR KPAE 110253Z 36007KT 10SM OVC005 07/06 A3046 RMK AO2 SLP318 T00670061 53005=
202202110153 METAR KPAE 110153Z 32006KT 10SM OVC005 07/07 A3045 RMK AO2 SLP315 T00670067=
202202110053 METAR KPAE 110053Z 32006KT 10SM OVC008 07/06 A3044 RMK AO2 SLP312 T00670061=
202202110050 SPECI KPAE 110050Z 31005KT 10SM OVC008 07/06 A3044 RMK AO2=
202202110031 SPECI KPAE 110031Z 31005KT 10SM OVC017 07/07 A3045 RMK AO2 T00720067=
202202110022 SPECI KPAE 110022Z 32004KT 10SM FEW009 OVC014 07/06 A3045 RMK AO2 T00720061=
202202102353 METAR KPAE 102353Z 32006KT 10SM OVC017 07/06 A3045 RMK AO2 SLP314 T00720061 10083 20061 56004=
202202102350 SPECI KPAE 102350Z 33008KT 10SM OVC017 07/07 A3045 RMK AO2=
202202102253 METAR KPAE 102253Z 34007KT 10SM BKN007 08/07 A3046 RMK AO2 SLP317 T00780067=
202202102153 METAR KPAE 102153Z 01005KT 10SM OVC007 08/06 A3046 RMK AO2 SLP318 T00780061=
202202102053 METAR KPAE 102053Z 01005KT 10SM OVC006 08/07 A3048 RMK AO2 SLP324 T00830072 58007=
202202101953 METAR KPAE 101953Z 00000KT 7SM OVC005 08/07 A3050 RMK AO2 SLP331 T00780072=
202202101900 SPECI KPAE 101900Z 36004KT 4SM BR OVC004 07/07 A3050 RMK AO2 T00670067=
202202101853 METAR KPAE 101853Z 36004KT M1/4SM R16R/P6000FT OVC003 07/07 A3050 RMK AO2 SLP330 T00670067=
202202101844 SPECI KPAE 101844Z 00000KT M1/4SM R16R/P6000FT FG OVC002 06/06 A3050 RMK AO2 T00610061=
202202101827 SPECI KPAE 101827Z 34004KT M1/4SM R16R/4000VP6000FT FG OVC001 06/06 A3050 RMK AO2 T00610061=
202202101817 SPECI KPAE 101817Z 36004KT 1/4SM R16R/1000V2800FT FG VV001 06/06 A3050 RMK AO2 T00610061=
202202101753 METAR KPAE 101753Z 34003KT M1/4SM R16R/0700V0800FT FG VV001 06/06 A3050 RMK AO2 SLP332 T00610061 10067 20061 53004=
202202101653 METAR KPAE 101653Z 00000KT M1/4SM R16R/0800V1200FT FG VV001 06/06 A3049 RMK AO2 SLP329 T00610061=
202202101651 SPECI KPAE 101651Z 35004KT M1/4SM R16R/0800V1200FT FG VV001 06/06 A3049 RMK AO2=
202202101635 SPECI KPAE 101635Z 36007KT 1/4SM R16R/1200V2200FT FG VV001 06/06 A3049 RMK AO2 T00610061=
202202101627 SPECI KPAE 101627Z 36005KT 1/2SM R16R/1600V2200FT FG VV001 07/07 A3049 RMK AO2 T00670067=
202202101611 SPECI KPAE 101611Z 36004KT 1/4SM R16R/2200V4500FT FG VV001 06/06 A3049 RMK AO2 T00610061=
202202101604 SPECI KPAE 101604Z 35003KT M1/4SM R16R/1600V3500FT FG VV001 06/06 A3049 RMK AO2 T00610061=
202202101553 METAR KPAE 101553Z 35005KT M1/4SM R16R/1200V1800FT FG VV001 06/06 A3049 RMK AO2 SLP327 T00610061=
202202101529 SPECI KPAE 101529Z 34005KT 1/4SM R16R/1400V1800FT FG VV001 06/06 A3049 RMK AO2 T00610061=
202202101453 METAR KPAE 101453Z 34004KT 1/4SM R16R/2000V5000FT FG VV001 06/06 A3048 RMK AO2 SLP326 T00610061 58006=
202202101433 SPECI KPAE 101433Z AUTO 35004KT 1/4SM R16R/1600V3500FT FG VV001 07/07 A3049 RMK AO2 T00670067=
202202101353 METAR KPAE 101353Z AUTO 34006KT 1/4SM R16R/1200V1400FT FG VV001 07/07 A3050 RMK AO2 SLP330 T00670067=
202202101334 SPECI KPAE 101334Z AUTO 34007KT 1/4SM R16R/1000FT FG VV001 07/07 A3050 RMK AO2 T00670067=
202202101259 SPECI KPAE 101259Z AUTO 35006KT M1/4SM R16R/1200V1800FT FG VV001 07/07 A3050 RMK AO2 T00670067=
202202101253 METAR KPAE 101253Z AUTO VRB05KT 1/4SM R16R/1400V2400FT FG VV001 07/07 A3050 RMK AO2 SLP332 T00670067=
202202101153 METAR KPAE 101153Z AUTO 34005KT 1/4SM R16R/5000VP6000FT FG VV001 07/07 A3050 RMK AO2 SLP332 T00670067 10072 20067 58006=
202202101139 SPECI KPAE 101139Z AUTO 35005KT 1/4SM R16R/1600V4000FT FG VV001 07/07 A3050 RMK AO2 T00670067=
202202101130 SPECI KPAE 101130Z AUTO 35005KT 1/4SM R16R/1400V1800FT FG VV001 07/07 A3051 RMK AO2 T00670067=
202202101107 SPECI KPAE 101107Z AUTO 35004KT M1/4SM R16R/1000V1200FT FG VV001 07/07 A3051 RMK AO2 T00670067=
202202101053 METAR KPAE 101053Z AUTO 33005KT 1/4SM R16R/1200FT FG VV001 07/07 A3051 RMK AO2 SLP335 T00670067=
202202101037 SPECI KPAE 101037Z AUTO 34005KT 1/4SM R16R/1000V1200FT FG VV001 07/07 A3052 RMK AO2 T00670067=
202202100953 METAR KPAE 100953Z AUTO VRB04KT M1/4SM R16R/1000V1200FT FG VV001 07/07 A3052 RMK AO2 SLP336 T00670067=
202202100900 SPECI KPAE 100900Z AUTO 35007KT M1/4SM R16R/0800V1200FT FG VV001 07/07 A3052 RMK AO2 T00720072=
202202100853 METAR KPAE 100853Z AUTO 35006KT 1/4SM R16R/1000V1200FT FG VV001 07/07 A3052 RMK AO2 SLP339 T00720072 55002=
202202100840 SPECI KPAE 100840Z AUTO 35006KT 1/4SM R16R/1000V2000FT FG VV001 07/07 A3052 RMK AO2 T00720072=
202202100753 METAR KPAE 100753Z AUTO 34004KT 1/4SM R16R/2000V3000FT FG VV001 07/07 A3052 RMK AO2 SLP338 T00720072 401000061=
202202100720 SPECI KPAE 100720Z AUTO 36005KT 1/4SM R16R/2400VP6000FT FG VV001 07/07 A3052 RMK AO2 T00720072=
202202100704 SPECI KPAE 100704Z AUTO 34005KT 1 1/4SM R16R/5500VP6000FT BR OVC001 07/07 A3053 RMK AO2 T00720072=
202202100653 METAR KPAE 100653Z AUTO 35003KT 1/2SM R16R/3500VP6000FT FG VV001 07/07 A3053 RMK AO2 SLP341 T00720072=
202202100642 SPECI KPAE 100642Z AUTO 36003KT 1/4SM R16R/1600V3500FT FG VV001 07/07 A3053 RMK AO2 T00720072=
202202100624 SPECI KPAE 100624Z AUTO 36006KT 3/4SM R16R/2000VP6000FT BR BKN001 OVC034 07/07 A3053 RMK AO2 T00720072=
202202100616 SPECI KPAE 100616Z AUTO 36004KT 2 1/2SM BR BKN001 OVC034 07/07 A3053 RMK AO2 T00720072=
202202100612 SPECI KPAE 100612Z AUTO 36004KT 4SM BR SCT002 OVC034 07/07 A3053 RMK AO2 T00720072=
202202100553 METAR KPAE 100553Z AUTO 35004KT 9SM OVC033 07/07 A3053 RMK AO2 SLP341 T00720072 10094 20072 56008=
202202100533 SPECI KPAE 100533Z AUTO 36005KT 10SM OVC031 08/07 A3054 RMK AO2 T00780072=
202202100509 SPECI KPAE 100509Z AUTO 01003KT 10SM OVC029 08/07 A3054 RMK AO2 T00780072=
202202100453 METAR KPAE 100453Z AUTO 01005KT 10SM OVC031 08/07 A3053 RMK AO2 SLP343 T00830067=
202202100353 METAR KPAE 100353Z 02004KT 10SM OVC036 08/07 A3054 RMK AO2 SLP345 T00830067=
202202100321 SPECI KPAE 100321Z 01004KT 10SM SCT027 OVC036 08/07 A3055 RMK AO2 T00780067=
202202100253 METAR KPAE 100253Z 36004KT 10SM OVC026 08/07 A3055 RMK AO2 SLP350 T00830067 56008=
202202100153 METAR KPAE 100153Z 35004KT 10SM OVC025 08/07 A3056 RMK AO2 SLP351 T00830067=
202202100053 METAR KPAE 100053Z 33003KT 10SM OVC025 09/07 A3056 RMK AO2 SLP353 T00890072=
202202092353 METAR KPAE 092353Z 00000KT 10SM OVC028 09/07 A3058 RMK AO2 SLP357 T00940072 10100 20078 58010=
202202092253 METAR KPAE 092253Z 00000KT 10SM BKN029 OVC033 09/07 A3060 RMK AO2 SLP363 T00940072=
202202092153 METAR KPAE 092153Z 00000KT 10SM BKN029 OVC033 09/07 A3060 RMK AO2 SLP365 T00940072=
202202092053 METAR KPAE 092053Z 00000KT 10SM OVC035 08/07 A3061 RMK AO2 SLP368 T00830067 58003=
202202091953 METAR KPAE 091953Z 27003KT 10SM FEW011 OVC037 08/07 A3062 RMK AO2 SLP372 T00830072=
202202091853 METAR KPAE 091853Z VRB03KT 10SM OVC037 09/06 A3062 RMK AO2 SLP373 T00940061=
202202091753 METAR KPAE 091753Z 10003KT 10SM OVC036 08/06 A3062 RMK AO2 SLP371 T00830061 10083 20061 53004=
202202091653 METAR KPAE 091653Z 09005KT 10SM FEW036 OVC044 07/07 A3061 RMK AO2 SLP369 T00670067=
202202091553 METAR KPAE 091553Z 00000KT 9SM OVC038 07/07 A3061 RMK AO2 SLP367 T00670067=
202202091453 METAR KPAE 091453Z 00000KT 6SM BR OVC039 06/06 A3060 RMK AO2 SLP367 T00610061 53005=
202202091353 METAR KPAE 091353Z AUTO 00000KT 10SM OVC040 07/06 A3058 RMK AO2 SLP360 T00670061=
202202091253 METAR KPAE 091253Z AUTO 17003KT 10SM OVC042 07/06 A3057 RMK AO2 SLP356 T00670061=
202202091153 METAR KPAE 091153Z AUTO 11004KT 10SM OVC044 07/06 A3059 RMK AO2 SLP362 60000 T00670061 10072 20061 58002=
202202091110 SPECI KPAE 091110Z AUTO 11004KT 8SM SCT020 OVC045 07/06 A3059 RMK AO2 T00670061=
202202091053 METAR KPAE 091053Z AUTO 35003KT 9SM OVC019 07/06 A3060 RMK AO2 SLP367 T00670061=
202202090953 METAR KPAE 090953Z AUTO 00000KT 9SM BKN019 OVC100 07/07 A3060 RMK AO2 SLP365 T00670067=
202202090943 SPECI KPAE 090943Z AUTO 11005KT 9SM BKN019 BKN050 BKN100 06/06 A3059 RMK AO2 T00610061=
202202090853 METAR KPAE 090853Z AUTO 00000KT 10SM SCT019 OVC050 07/06 A3059 RMK AO2 RAE43 SLP364 P0000 60000 T00670061 50004=
202202090821 SPECI KPAE 090821Z AUTO 17003KT 5SM -RA BR BKN021 OVC055 06/06 A3059 RMK AO2 P0000 T00610061=
202202090753 METAR KPAE 090753Z AUTO 00000KT 9SM -RA OVC055 07/06 A3060 RMK AO2 RAB20 SLP365 P0000 T00670061 400890056=
202202090653 METAR KPAE 090653Z AUTO 00000KT 10SM OVC047 07/06 A3059 RMK AO2 RAE06 SLP363 P0000 T00670061=
202202090553 METAR KPAE 090553Z AUTO 00000KT 4SM -RA BR FEW033 BKN044 OVC055 07/06 A3058 RMK AO2 RAB41 SLP359 P0000 60000 T00670061 10072 20061 53002=
202202090453 METAR KPAE 090453Z 16006KT 10SM BKN050 OVC065 07/06 A3055 RMK AO2 SLP349 T00720056=
202202090353 METAR KPAE 090353Z 20004KT 10SM FEW021 OVC047 07/06 A3057 RMK AO2 SLP355 T00670061=
202202090300 SPECI KPAE 090300Z 19003KT 10SM OVC050 07/06 A3058 RMK AO2 T00670056=
202202090253 METAR KPAE 090253Z 00000KT 10SM BKN028 OVC055 07/06 A3058 RMK AO2 RAB06E27 SLP357 P0000 60000 T00670056 58008=
202202090153 METAR KPAE 090153Z 23005KT 10SM SCT023 BKN028 OVC055 07/05 A3059 RMK AO2 SLP364 T00670050=
202202090128 SPECI KPAE 090128Z 24005KT 10SM SCT021 OVC055 07/05 A3059 RMK AO2 T00670050=
202202090053 METAR KPAE 090053Z 27004KT 10SM BKN019 OVC060 07/06 A3059 RMK AO2 SLP363 T00720061=
202202082353 METAR KPAE 082353Z 30003KT 10SM FEW025 OVC065 07/06 A3060 RMK AO2 RAB12E53 SLP366 P0000 60000 T00720061 10089 20067 53002=
202202082253 METAR KPAE 082253Z 00000KT 10SM OVC080 07/06 A3059 RMK AO2 SLP361 T00720056=
202202082153 METAR KPAE 082153Z VRB05KT 10SM SCT023 OVC070 09/04 A3058 RMK AO2 SLP360 T00890039=
202202082053 METAR KPAE 082053Z 15007KT 10SM OVC070 08/04 A3060 RMK AO2 SLP364 T00830039 58004=
202202081953 METAR KPAE 081953Z 17007KT 10SM OVC080 08/06 A3060 RMK AO2 SLP366 T00830056=
202202081853 METAR KPAE 081853Z 19006KT 10SM FEW012 OVC080 08/06 A3061 RMK AO2 SLP369 T00780056=
202202081753 METAR KPAE 081753Z 16004KT 10SM FEW009 OVC033 07/06 A3061 RMK AO2 SLP368 T00670056 10067 20056 50007=
202202081700 SPECI KPAE 081700Z 17004KT 10SM OVC032 06/06 A3061 RMK AO2 T00610056=
202202081653 METAR KPAE 081653Z 16005KT 10SM SCT006 OVC010 06/06 A3061 RMK AO2 SLP370 T00610056=
202202081600 SPECI KPAE 081600Z 19004KT 8SM SCT006 OVC010 06/06 A3060 RMK AO2 T00560056=
202202081553 METAR KPAE 081553Z 17004KT 8SM BKN008 OVC010 06/06 A3060 RMK AO2 SLP366 T00560056=
202202081453 METAR KPAE 081453Z 17005KT 7SM BKN006 OVC010 06/06 A3059 RMK AO2 CIG 004V008 SLP361 T00560056 58003=
202202081428 SPECI KPAE 081428Z AUTO 15006KT 9SM SCT006 OVC009 06/06 A3058 RMK AO2 T00560056=
202202081353 METAR KPAE 081353Z AUTO 15004KT 9SM OVC010 06/06 A3059 RMK AO2 CIG 008V013 SLP363 T00560056=
202202081253 METAR KPAE 081253Z AUTO 16005KT 10SM OVC007 06/06 A3059 RMK AO2 SLP362 T00560056=
202202081153 METAR KPAE 081153Z AUTO 16004KT 10SM OVC009 06/06 A3059 RMK AO2 SLP363 60000 T00610056 10072 20061 55004=
202202081118 SPECI KPAE 081118Z AUTO 17005KT 10SM OVC009 06/06 A3058 RMK AO2 CIG 008V013 T00610056=
202202081100 SPECI KPAE 081100Z AUTO 15005KT 10SM BKN013 06/06 A3058 RMK AO2 T00610056=
202202081053 METAR KPAE 081053Z AUTO 15005KT 10SM FEW006 BKN015 OVC042 06/06 A3059 RMK AO2 RAE26 SLP361 P0000 T00610061=
202202081018 SPECI KPAE 081018Z AUTO 06003KT 5SM -RA BR SCT008 BKN021 OVC026 07/07 A3060 RMK AO2 P0000 T00670067=
202202080953 METAR KPAE 080953Z AUTO 02003KT 10SM -RA BKN007 OVC013 07/06 A3061 RMK AO2 RAB36 CIG 006V011 SLP369 P0000 T00670061=
202202080923 SPECI KPAE 080923Z AUTO 00000KT 10SM OVC009 07/07 A3062 RMK AO2 CIG 007V011 T00670067=
202202080906 SPECI KPAE 080906Z AUTO 00000KT 10SM BKN010 OVC019 07/06 A3061 RMK AO2 CIG 008V014 T00670061=
202202080853 METAR KPAE 080853Z AUTO 00000KT 10SM FEW012 OVC019 07/07 A3060 RMK AO2 SLP367 T00670067 53022=
202202080825 SPECI KPAE 080825Z AUTO 00000KT 10SM SCT011 BKN016 OVC020 07/06 A3058 RMK AO2 T00670061=
202202080753 METAR KPAE 080753Z AUTO 00000KT 10SM OVC012 07/06 A3057 RMK AO2 SLP355 T00720061 400890044=
202202080741 SPECI KPAE 080741Z AUTO 00000KT 10SM BKN013 OVC022 07/06 A3057 RMK AO2 T00670061=
202202080653 METAR KPAE 080653Z AUTO 03004KT 10SM OVC021 07/06 A3056 RMK AO2 SLP351 T00720056=
202202080553 METAR KPAE 080553Z AUTO 01005KT 10SM OVC020 07/06 A3054 RMK AO2 SLP345 T00720056 10083 20072 53012=
202202080453 METAR KPAE 080453Z 00000KT 10SM OVC020 07/06 A3052 RMK AO2 SLP338 T00720061=
202202080353 METAR KPAE 080353Z 36003KT 10SM OVC020 07/06 A3051 RMK AO2 SLP336 T00720061=
202202080253 METAR KPAE 080253Z 04003KT 10SM OVC024 08/06 A3050 RMK AO2 SLP332 T00780061 51013=
202202080153 METAR KPAE 080153Z 02008KT 10SM SCT011 OVC024 08/07 A3050 RMK AO2 SLP332 T00780067=
202202080053 METAR KPAE 080053Z 01004KT 10SM FEW005 BKN019 08/08 A3048 RMK AO2 SLP326 T00780078=
202202072353 METAR KPAE 072353Z 02004KT 10SM OVC014 08/08 A3046 RMK AO2 SLP319 T00830078 10089 20067 53016=
202202072253 METAR KPAE 072253Z 14003KT 10SM OVC013 08/07 A3044 RMK AO2 SLP312 T00830072=
202202072153 METAR KPAE 072153Z 00000KT 10SM OVC009 08/07 A3042 RMK AO2 SLP305 T00780072=
202202072053 METAR KPAE 072053Z 00000KT 10SM OVC007 07/07 A3042 RMK AO2 SLP303 T00720067 50006=
202202071953 METAR KPAE 071953Z 22003KT 10SM OVC008 07/07 A3042 RMK AO2 CIG 005V010 SLP303 T00720067=
202202071853 METAR KPAE 071853Z 17006KT 10SM OVC006 07/07 A3041 RMK AO2 SLP300 T00670067=
202202071753 METAR KPAE 071753Z 18004KT 5SM BR OVC007 07/06 A3040 RMK AO2 SLP297 T00670061 10067 20044 53037=
202202071653 METAR KPAE 071653Z 20007KT 10SM OVC008 06/06 A3035 RMK AO2 SLP282 T00610061=
202202071553 METAR KPAE 071553Z 18013KT 10SM OVC009 06/06 A3031 RMK AO2 SLP268 T00610056=
202202071453 METAR KPAE 071453Z 18014G20KT 10SM OVC009 06/06 A3029 RMK AO2 SLP260 T00610056 53015=
202202071422 SPECI KPAE 071422Z 17012KT 10SM OVC009 06/05 A3027 RMK AO2 T00610050=
202202071353 METAR KPAE 071353Z 18007KT 10SM OVC010 06/05 A3028 RMK AO2 SLP255 T00560050=
202202071343 SPECI KPAE 071343Z 19007KT 10SM BKN010 OVC015 06/05 A3027 RMK AO2 T00560050=
202202071323 SPECI KPAE 071323Z 18007KT 10SM BKN015 05/04 A3027 RMK AO2 T00500044=
202202071253 METAR KPAE 071253Z 20007KT 10SM CLR 05/04 A3025 RMK AO2 SLP247 T00500044=
202202071153 METAR KPAE 071153Z 19010KT 10SM CLR 06/04 A3024 RMK AO2 SLP244 T00610044 10072 20050 51005=
202202071053 METAR KPAE 071053Z 16013KT 10SM CLR 07/04 A3024 RMK AO2 SLP241 T00720044=
202202070953 METAR KPAE 070953Z 12004KT 10SM CLR 06/05 A3024 RMK AO2 PRESFR SLP242 T00560050=
202202070853 METAR KPAE 070853Z 17007KT 10SM CLR 06/04 A3023 RMK AO2 SLP239 T00560044 58004=
202202070753 METAR KPAE 070753Z 15005KT 10SM CLR 06/05 A3024 RMK AO2 SLP245 T00610050 401000011=
202202070653 METAR KPAE 070653Z 15012KT 10SM CLR 07/05 A3023 RMK AO2 SLP241 T00670050=
202202070553 METAR KPAE 070553Z 00000KT 10SM CLR 05/04 A3024 RMK AO2 SLP246 T00500044 10094 20044 53001=
202202070453 METAR KPAE 070453Z 15003KT 10SM CLR 06/05 A3023 RMK AO2 SLP243 T00560050=
202202070353 METAR KPAE 070353Z 11004KT 10SM CLR 08/05 A3023 RMK AO2 SLP242 T00780050=
202202070253 METAR KPAE 070253Z 20004KT 10SM CLR 07/06 A3024 RMK AO2 SLP243 T00670056 56017=
202202070153 METAR KPAE 070153Z 18003KT 10SM CLR 07/06 A3024 RMK AO2 SLP246 T00670056=
202202070053 METAR KPAE 070053Z 00000KT 10SM CLR 08/06 A3026 RMK AO2 SLP250 T00830061=
202202062353 METAR KPAE 062353Z 00000KT 10SM CLR 09/06 A3029 RMK AO2 SLP260 T00890061 10100 20028 56028=
202202062253 METAR KPAE 062253Z 00000KT 10SM CLR 09/04 A3031 RMK AO2 SLP268 T00890044=
202202062153 METAR KPAE 062153Z 27003KT 10SM CLR 09/04 A3034 RMK AO2 SLP276 T00890044=
202202062053 METAR KPAE 062053Z 01003KT 10SM CLR 08/04 A3037 RMK AO2 SLP289 T00830039 58021=
202202061953 METAR KPAE 061953Z 35005KT 10SM CLR 08/05 A3041 RMK AO2 SLP299 T00830050=
202202061853 METAR KPAE 061853Z 36003KT 10SM SCT001 04/04 A3044 RMK AO2 SLP311 T00440044=
202202061818 SPECI KPAE 061818Z 35003KT 3SM R16R/2000VP6000FT BCFG SCT001 04/04 A3044 RMK AO2 T00390039=
202202061753 METAR KPAE 061753Z 34003KT 1/2SM R16R/1400V3000FT BCFG BKN001 03/03 A3044 RMK AO2 SLP312 T00280028 10039 20011 58005=
202202061710 SPECI KPAE 061710Z 00000KT 1/2SM R16R/0700V5500FT BCFG BKN001 02/02 A3045 RMK AO2 T00220022=
202202061653 METAR KPAE 061653Z 36003KT M1/4SM R16R/0400V0500FT VCFG BKN001 02/02 A3045 RMK AO2 SLP315 T00170017=
202202061642 SPECI KPAE 061642Z 00000KT M1/4SM R16R/0400V0500FT VCFG BKN001 02/02 A3045 RMK AO2 T00170017=
202202061632 SPECI KPAE 061632Z 35004KT 10SM R16R/0400V1200FT VCFG SCT001 02/02 A3045 RMK AO2 T00170017=
202202061615 SPECI KPAE 061615Z 35003KT 10SM VCFG SCT001 02/02 A3045 RMK AO2 T00170017=
202202061612 SPECI KPAE 061612Z 00000KT 3/4SM R16R/P6000FT VCFG VV001 02/02 A3045 RMK AO2 T00220022=
202202061553 METAR KPAE 061553Z 02004KT 10SM VCFG CLR 02/02 A3045 RMK AO2 SLP316 T00220022=
202202061529 SPECI KPAE 061529Z 02004KT 10SM VCFG CLR 02/02 A3045 RMK AO2 T00220022=
202202061516 SPECI KPAE 061516Z 02003KT 1SM R16R/P6000FT BCFG SCT001 02/02 A3045 RMK AO2 T00220022=
202202061505 SPECI KPAE 061505Z 03003KT 3/4SM R16R/5000VP6000FT BCFG SCT001 02/02 A3045 RMK AO2 T00220022=
202202061453 METAR KPAE 061453Z 00000KT 1/4SM R16R/1400V2800FT FG VV001 02/02 A3045 RMK AO2 SLP317 T00220022 51001=
202202061450 SPECI KPAE 061450Z 04003KT 1/4SM R16R/1000V1600FT FG VV001 02/02 A3045 RMK AO2=
202202061406 SPECI KPAE 061406Z AUTO 36003KT M1/4SM R16R/0700V1000FT FG VV001 03/03 A3046 RMK AO2 T00280028=
202202061353 METAR KPAE 061353Z AUTO 35003KT M1/4SM R16R/1200VP6000FT FG VV001 03/03 A3045 RMK AO2 SLP317 T00280028=
202202061345 SPECI KPAE 061345Z AUTO 35004KT 1/4SM R16R/P6000FT FG VV001 03/03 A3045 RMK AO2 T00280028=
202202061341 SPECI KPAE 061341Z AUTO 36003KT 1SM R16R/P6000FT BR VV001 03/03 A3045 RMK AO2 T00280028=
202202061339 SPECI KPAE 061339Z AUTO 35004KT 2 1/2SM BR FEW001 03/03 A3046 RMK AO2 T00280028=
202202061253 METAR KPAE 061253Z AUTO 10003KT 10SM CLR 04/03 A3045 RMK AO2 SLP315 T00390033=
202202061153 METAR KPAE 061153Z AUTO 05003KT 10SM CLR 03/03 A3047 RMK AO2 SLP324 T00330033 10050 20017 58008=
202202061119 SPECI KPAE 061119Z AUTO 11003KT 4SM R16R/4500VP6000FT BR SCT001 03/03 A3048 RMK AO2 T00280028=
202202061117 SPECI KPAE 061117Z AUTO 00000KT 1 1/4SM R16R/1800VP6000FT BR SCT001 03/03 A3048 RMK AO2 T00280028=
202202061107 SPECI KPAE 061107Z AUTO 05004KT 1/4SM R16R/1000V4500FT FG VV001 02/02 A3048 RMK AO2 T00220022=
202202061059 SPECI KPAE 061059Z AUTO 01003KT 3/4SM R16R/2400VP6000FT BR VV001 02/02 A3050 RMK AO2 T00220022=
202202061057 SPECI KPAE 061057Z AUTO 36004KT 2 1/2SM BR FEW001 02/02 A3050 RMK AO2 T00220022=
202202061053 METAR KPAE 061053Z AUTO 35004KT 8SM CLR 02/02 A3050 RMK AO2 SLP331 T00220022=
202202060953 METAR KPAE 060953Z AUTO 10003KT 10SM CLR 03/03 A3048 RMK AO2 SLP326 T00330033=
202202060853 METAR KPAE 060853Z AUTO 00000KT 10SM CLR 03/03 A3050 RMK AO2 SLP332 T00330033 56019=
202202060753 METAR KPAE 060753Z AUTO 09005KT 10SM CLR 04/04 A3051 RMK AO2 SLP338 T00440044 400720028=
202202060736 SPECI KPAE 060736Z AUTO 09007KT 3SM BR CLR 04/04 A3052 RMK AO2 T00390039=
202202060727 SPECI KPAE 060727Z AUTO 00000KT 1SM R16R/4500VP6000FT BR CLR 03/03 A3053 RMK AO2 T00280028=
202202060708 SPECI KPAE 060708Z AUTO 00000KT 3/4SM R16R/P6000FT BR CLR 03/03 A3053 RMK AO2 VIS 1/2V5 T00280028=
202202060653 METAR KPAE 060653Z AUTO 00000KT 6SM BR CLR 04/04 A3053 RMK AO2 SLP345 T00390039=
202202060553 METAR KPAE 060553Z AUTO 01004KT 8SM CLR 05/05 A3055 RMK AO2 SLP351 T00500050 10061 20050 56009=
202202060453 METAR KPAE 060453Z AUTO 04004KT 10SM CLR 06/06 A3055 RMK AO2 SLP350 T00560056=
202202060353 METAR KPAE 060353Z 06003KT 10SM CLR 06/06 A3057 RMK AO2 SLP358 T00560056=
202202060335 SPECI KPAE 060335Z 00000KT 7SM FEW001 06/06 A3058 RMK AO2 T00560056=
202202060328 SPECI KPAE 060328Z 00000KT 2SM R16R/5500VP6000FT BR SCT001 06/06 A3059 RMK AO2 T00560056=
202202060313 SPECI KPAE 060313Z 00000KT 2SM R16R/2000V4000FT BR BKN001 06/06 A3058 RMK AO2 T00560056=
202202060301 SPECI KPAE 060301Z 08003KT 1/2SM R16R/2200V6000FT FG VV001 06/06 A3058 RMK AO2 T00560056=
202202060253 METAR KPAE 060253Z 07003KT 1SM R16R/5000VP6000FT BR OVC001 06/06 A3058 RMK AO2 SLP360 T00560056 56006=
202202060250 SPECI KPAE 060250Z 08003KT 1 1/2SM R16R/6000VP6000FT BR SCT001 06/06 A3058 RMK AO2=
202202060249 SPECI KPAE 060249Z 08003KT 2SM BR SCT001 06/06 A3058 RMK AO2=
202202060153 METAR KPAE 060153Z 00000KT 10SM CLR 06/06 A3059 RMK AO2 SLP363 T00560056=
202202060053 METAR KPAE 060053Z 30004KT 10SM CLR 06/06 A3060 RMK AO2 SLP365 T00610056=
202202052353 METAR KPAE 052353Z 27003KT 10SM FEW028 07/06 A3060 RMK AO2 SLP365 60000 T00670061 10072 20061 53003=
202202052348 SPECI KPAE 052348Z 27004KT 10SM FEW005 SCT028 07/06 A3060 RMK AO2=
202202052253 METAR KPAE 052253Z 30004KT 10SM SCT008 BKN029 07/06 A3058 RMK AO2 SLP360 T00670061=
202202052153 METAR KPAE 052153Z 28004KT 10SM BKN008 BKN025 07/07 A3059 RMK AO2 SLP362 T00720067=
202202052137 SPECI KPAE 052137Z 28003KT 10SM BKN008 BKN025 07/06 A3059 RMK AO2 T00720061=
202202052130 SPECI KPAE 052130Z 00000KT 10SM SCT007 BKN025 07/07 A3059 RMK AO2 T00720067=
202202052110 SPECI KPAE 052110Z 00000KT 10SM BKN008 OVC025 07/07 A3059 RMK AO2 CIG 005V010 T00720067=
202202052100 SPECI KPAE 052100Z 28003KT 10SM SCT006 BKN011 OVC027 07/06 A3060 RMK AO2 T00670061=
202202052053 METAR KPAE 052053Z 29003KT 3SM BR OVC008 07/07 A3060 RMK AO2 SLP366 60000 T00720067 50001=
202202051953 METAR KPAE 051953Z 00000KT 3SM BR OVC008 07/06 A3060 RMK AO2 RAB08E17 SLP367 P0000 T00670061=
202202051922 SPECI KPAE 051922Z 00000KT 3SM BR OVC006 06/06 A3062 RMK AO2 RAB08E17 CIG 002V009 P0000 T00610061=
202202051912 SPECI KPAE 051912Z 35003KT 1/2SM R16R/0700VP6000FT -RA FG BKN004 OVC008 06/06 A3062 RMK AO2 RAB08 CIG 002V006 P0000 T00610061=
202202051853 METAR KPAE 051853Z 32005KT 4SM BR FEW002 OVC008 06/06 A3061 RMK AO2 RAB40E51 SLP370 P0000 T00610061=
202202051753 METAR KPAE 051753Z 07004KT 4SM BR OVC007 06/06 A3060 RMK AO2 CIG 005V010 SLP365 60000 T00610061 10061 20056 51013=
202202051653 METAR KPAE 051653Z 06004KT 2SM BR OVC005 06/06 A3059 RMK AO2 CIG 004V007 SLP363 T00610061=
202202051553 METAR KPAE 051553Z 02004KT 1 3/4SM BR OVC005 06/06 A3058 RMK AO2 RAB1454E13 CIG 003V008 SLP359 P0000 T00560056=
202202051453 METAR KPAE 051453Z 07004KT 2SM BR BKN009 OVC013 06/06 A3056 RMK AO2 SLP353 60000 T00560056 50009=
202202051450 SPECI KPAE 051450Z 05005KT 2SM BR OVC009 06/06 A3056 RMK AO2=
202202051440 SPECI KPAE 051440Z AUTO 09003KT 3SM BR BKN009 OVC012 06/06 A3056 RMK AO2 CIG 006V011 T00560056=
202202051433 SPECI KPAE 051433Z AUTO 11004KT 2 1/2SM BR FEW009 OVC014 06/06 A3056 RMK AO2 T00560056=
202202051425 SPECI KPAE 051425Z AUTO 10004KT 3SM BR OVC014 06/06 A3055 RMK AO2 T00560056=
202202051353 METAR KPAE 051353Z AUTO 11004KT 10SM OVC017 06/06 A3054 RMK AO2 RAE05 SLP344 P0000 T00560056=
202202051306 SPECI KPAE 051306Z AUTO 10005KT 6SM BR FEW005 BKN016 OVC022 06/06 A3053 RMK AO2 RAE05 P0000 T00560056=
202202051253 METAR KPAE 051253Z AUTO 05004KT 2 1/2SM -RA BR FEW006 OVC016 06/06 A3053 RMK AO2 RAB45 SLP343 P0000 T00560056=
202202051224 SPECI KPAE 051224Z AUTO VRB03KT 10SM SCT004 OVC020 06/06 A3053 RMK AO2 T00560056=
202202051213 SPECI KPAE 051213Z AUTO 00000KT 10SM BKN004 OVC022 06/06 A3052 RMK AO2 T00560056=
202202051153 METAR KPAE 051153Z AUTO 11003KT 10SM FEW005 BKN023 OVC036 06/06 A3052 RMK AO2 SLP338 60007 70019 T00610061 10067 20056 53001=
202202051142 SPECI KPAE 051142Z AUTO VRB04KT 10SM SCT005 BKN023 OVC036 06/06 A3051 RMK AO2 T00560056=
202202051134 SPECI KPAE 051134Z AUTO VRB04KT 10SM SCT005 SCT023 OVC036 06/06 A3051 RMK AO2 T00610061=
202202051053 METAR KPAE 051053Z AUTO 15005KT 10SM FEW023 OVC034 06/06 A3051 RMK AO2 RAB0954E08 SLP333 P0000 T00610061=
202202051037 SPECI KPAE 051037Z AUTO 15005KT 9SM FEW023 OVC032 06/06 A3052 RMK AO2 RAB0954E08 P0000 T00610061=
202202051009 SPECI KPAE 051009Z AUTO 14005KT 3SM BR SCT010 BKN020 OVC026 06/06 A3052 RMK AO2 RAB0954E08 P0000 T00610061=
202202051004 SPECI KPAE 051004Z AUTO 15005KT 1 3/4SM -RA BR SCT010 OVC022 06/06 A3052 RMK AO2 RAB0954 P0000 T00610061=
202202050953 METAR KPAE 050953Z AUTO 16003KT 2 1/2SM BR OVC010 06/06 A3052 RMK AO2 RAE17 SLP337 P0000 T00610061=
202202050951 SPECI KPAE 050951Z AUTO 16003KT 2 1/2SM BR OVC010 06/06 A3052 RMK AO2 RAE17 P0000=
202202050930 SPECI KPAE 050930Z AUTO 00000KT 4SM BR OVC009 06/06 A3051 RMK AO2 RAE17 P0000 T00610061=
202202050853 METAR KPAE 050853Z AUTO 00000KT 10SM -RA BKN010 OVC014 06/06 A3050 RMK AO2 SLP333 P0000 60007 T00610061 51017=
202202050812 SPECI KPAE 050812Z AUTO 19003KT 9SM -RA SCT006 OVC012 06/06 A3049 RMK AO2 P0000 T00610061=
202202050753 METAR KPAE 050753Z AUTO 00000KT 4SM -RA BR BKN006 OVC011 06/06 A3048 RMK AO2 CIG 005V009 SLP325 P0005 T00610061 400890050=
202202050745 SPECI KPAE 050745Z AUTO 21004KT 3SM -RA BR SCT005 BKN010 OVC014 07/07 A3047 RMK AO2 P0005 T00670067=
202202050736 SPECI KPAE 050736Z AUTO 00000KT 2 1/2SM -RA BR FEW004 BKN010 OVC014 07/07 A3046 RMK AO2 CIG 004V011 P0004 T00670067=
202202050723 SPECI KPAE 050723Z AUTO 00000KT 1 1/2SM RA BR SCT006 OVC010 07/07 A3045 RMK AO2 CIG 009V012 P0003 T00670067=
202202050715 SPECI KPAE 050715Z AUTO VRB05KT 2SM -RA BR FEW006 OVC012 07/07 A3046 RMK AO2 P0001 T00670067=
202202050708 SPECI KPAE 050708Z AUTO 11003KT 3SM -RA BR FEW004 OVC013 07/07 A3045 RMK AO2 P0000 T00670067=
202202050653 METAR KPAE 050653Z AUTO VRB03KT 2 1/2SM -RA BR FEW004 OVC013 07/07 A3045 RMK AO2 SLP315 P0002 T00670067=
202202050643 SPECI KPAE 050643Z AUTO VRB04KT 2 1/2SM -RA BR FEW005 OVC015 07/07 A3045 RMK AO2 P0002 T00670067=
202202050619 SPECI KPAE 050619Z AUTO 11004KT 3SM -RA BR FEW004 BKN012 OVC017 07/07 A3043 RMK AO2 P0001 T00670067=
202202050614 SPECI KPAE 050614Z AUTO 12004KT 2 1/2SM -RA BR FEW004 SCT010 OVC015 07/07 A3043 RMK AO2 P0001 T00670067=
202202050553 METAR KPAE 050553Z AUTO 09004KT 1 1/4SM RA BR FEW004 SCT009 OVC012 07/07 A3042 RMK AO2 SLP303 P0008 60012 T00670067 10083 20067 51028=
202202050546 SPECI KPAE 050546Z AUTO 11003KT 1 1/4SM -RA BR SCT004 BKN009 OVC012 07/07 A3041 RMK AO2 P0007 T00670067=
202202050504 SPECI KPAE 050504Z AUTO 07003KT 1 1/4SM -RA BR OVC010 07/07 A3039 RMK AO2 CIG 008V013 P0003 T00670067=
202202050453 METAR KPAE 050453Z 36003KT 1 1/4SM RA BR FEW004 OVC009 07/07 A3039 RMK AO2 CIG 007V012 SLP293 P0004 T00670067=
202202050436 SPECI KPAE 050436Z 02004KT 2SM -RA BR BKN009 OVC014 07/07 A3038 RMK AO2 P0000 T00670067=
202202050408 SPECI KPAE 050408Z 20007KT 4SM -RA BR BKN009 OVC014 07/07 A3037 RMK AO2 P0000 T00720072=
202202050400 SPECI KPAE 050400Z 20008KT 4SM -RA BR SCT009 OVC014 07/07 A3037 RMK AO2 P0000 T00720072=
202202050353 METAR KPAE 050353Z 19010KT 3SM -RA BR BKN009 OVC014 07/07 A3036 RMK AO2 RAB27 SLP285 P0000 T00720072=
202202050253 METAR KPAE 050253Z 21011KT 10SM OVC007 07/07 A3033 RMK AO2 SLP274 T00720072 53018=
202202050153 METAR KPAE 050153Z 20016G25KT 10SM OVC008 08/07 A3030 RMK AO2 SLP265 T00780072=
202202050053 METAR KPAE 050053Z 17012G19KT 10SM BKN009 BKN016 BKN023 07/07 A3028 RMK AO2 PK WND 18028/0006 SLP258 T00720067=
202202042353 METAR KPAE 042353Z 18018G30KT 10SM BKN009 BKN016 BKN023 08/06 A3028 RMK AO2 PK WND 19034/2257 SLP255 T00830061 10089 20056 55000=
202202042258 SPECI KPAE 042258Z 19024G35KT 10SM BKN021 09/06 A3027 RMK AO2 PK WND 19034/2257 T00890056=
202202042253 METAR KPAE 042253Z 18023G35KT 10SM FEW021 09/06 A3027 RMK AO2 PK WND 20035/2250 SLP252 T00890056=
202202042153 METAR KPAE 042153Z 18023G33KT 10SM FEW021 08/05 A3026 RMK AO2 PK WND 17033/2150 SLP250 T00830050=
202202042053 METAR KPAE 042053Z 18018G25KT 10SM OVC018 08/06 A3028 RMK AO2 PK WND 17026/1959 SLP255 T00830056 56023=
202202041953 METAR KPAE 041953Z 17016G27KT 10SM BKN015 BKN110 07/05 A3029 RMK AO2 PK WND 15029/1926 SLP261 T00720050=
202202041942 SPECI KPAE 041942Z 16017G27KT 10SM BKN015 BKN085 OVC110 07/04 A3028 RMK AO2 PK WND 15029/1926 T00670044=
202202041853 METAR KPAE 041853Z 16014G24KT 10SM OVC013 06/04 A3033 RMK AO2 SLP273 T00610044=
202202041800 SPECI KPAE 041800Z 15010G17KT 10SM FEW015 BKN021 OVC110 06/04 A3034 RMK AO2 T00560044=
202202041753 METAR KPAE 041753Z 15012KT 10SM BKN032 OVC035 06/04 A3035 RMK AO2 SLP279 60000 T00560044 10056 20050 58004=
202202041653 METAR KPAE 041653Z 15012KT 10SM OVC032 05/04 A3035 RMK AO2 RAE1557 SLP281 P0000 T00500044=
202202041553 METAR KPAE 041553Z 15010KT 10SM -RA OVC037 05/04 A3036 RMK AO2 RAB11 SLP285 P0000 T00500044=
202202041453 METAR KPAE 041453Z 14009KT 10SM BKN034 OVC085 05/04 A3036 RMK AO2 SLP284 T00500044 56011=
202202041353 METAR KPAE 041353Z 15011KT 10SM OVC039 05/05 A3036 RMK AO2 SLP286 T00500050=
202202041253 METAR KPAE 041253Z 14007KT 10SM BKN036 BKN044 05/05 A3037 RMK AO2 SLP290 T00500050=
202202041153 METAR KPAE 041153Z 15007KT 10SM FEW011 OVC035 06/06 A3039 RMK AO2 SLP294 T00560056 10061 20050 55013=
202202041142 SPECI KPAE 041142Z 17006KT 10SM SCT010 OVC035 06/06 A3039 RMK AO2 T00560056=
202202041134 SPECI KPAE 041134Z 16006KT 10SM BKN010 OVC035 05/05 A3039 RMK AO2 T00500050=
202202041053 METAR KPAE 041053Z VRB03KT 10SM OVC033 06/05 A3039 RMK AO2 SLP293 T00560050=
202202040953 METAR KPAE 040953Z 15007KT 10SM BKN034 06/05 A3039 RMK AO2 SLP295 T00560050=
202202040853 METAR KPAE 040853Z 12003KT 10SM CLR 05/05 A3043 RMK AO2 SLP309 T00500050 58007=
202202040753 METAR KPAE 040753Z VRB04KT 10SM BKN033 OVC070 06/06 A3045 RMK AO2 SLP315 T00560056 400830033=
202202040653 METAR KPAE 040653Z VRB04KT 10SM SCT013 BKN032 OVC044 06/06 A3046 RMK AO2 SLP318 T00560056=
202202040553 METAR KPAE 040553Z VRB03KT 10SM FEW022 OVC032 06/06 A3045 RMK AO2 SLP315 T00610061 10067 20061 53004=
202202040545 SPECI KPAE 040545Z 12004KT 7SM FEW022 OVC030 06/06 A3045 RMK AO2 T00610061=
202202040501 SPECI KPAE 040501Z VRB03KT 9SM FEW018 SCT023 OVC029 06/06 A3045 RMK AO2 T00610061=
202202040453 METAR KPAE 040453Z VRB04KT 9SM SCT016 SCT020 OVC030 06/06 A3044 RMK AO2 SLP313 T00610061=
202202040353 METAR KPAE 040353Z 14004KT 10SM OVC029 06/06 A3044 RMK AO2 SLP311 T00610061=
202202040253 METAR KPAE 040253Z VRB05KT 10SM OVC026 06/06 A3044 RMK AO2 SLP312 T00610061 53007=
202202040153 METAR KPAE 040153Z 11006KT 6SM BR BKN018 06/06 A3042 RMK AO2 SLP307 T00610061=
202202040143 SPECI KPAE 040143Z 11007KT 6SM BR BKN018 06/06 A3042 RMK AO2 T00610061=
202202040128 SPECI KPAE 040128Z 11006KT 1SM R16R/P6000FT BR BKN003 OVC024 06/06 A3042 RMK AO2 T00610061=
202202040111 SPECI KPAE 040111Z 11006KT 1SM R16R/P6000FT BR SCT003 BKN014 OVC024 06/06 A3042 RMK AO2 T00610061=
202202040053 METAR KPAE 040053Z 10005KT 1SM R16R/P6000FT BR BKN003 BKN007 OVC013 06/06 A3042 RMK AO2 SLP304 T00610061=
202202032353 METAR KPAE 032353Z VRB04KT 1 3/4SM BR OVC007 07/07 A3042 RMK AO2 CIG 004V010 SLP304 60000 T00670067 10067 20056 58002=
202202032253 METAR KPAE 032253Z 16006KT 1 3/4SM BR OVC007 07/07 A3042 RMK AO2 RAE2158 CIG 004V010 SLP306 P0000 T00670067=
202202032153 METAR KPAE 032153Z 16007KT 1 1/2SM -RA BR OVC005 07/07 A3043 RMK AO2 RAE11B49 SLP307 P0000 T00670067=
202202032100 SPECI KPAE 032100Z 14006KT 1SM R16R/P6000FT -RA BR OVC005 06/06 A3042 RMK AO2 CIG 004V009 P0000 T00610061 $=
202202032053 METAR KPAE 032053Z 15007KT 3SM -RA BR OVC005 06/06 A3042 RMK AO2 RAB21 CIG 004V009 SLP306 P0000 60000 T00610061 51012 $=
202202032028 SPECI KPAE 032028Z 16007KT 3SM -RA BR OVC005 06/06 A3042 RMK AO2 RAB21 P0000 T00610061 $=
202202032000 SPECI KPAE 032000Z 15008KT 4SM BR OVC004 06/06 A3042 RMK AO2 T00610061 $=
202202031953 METAR KPAE 031953Z 16007KT 1 1/4SM BR OVC004 06/06 A3041 RMK AO2 RAE28 SLP303 P0000 T00610061 $=
202202031853 METAR KPAE 031853Z 16008KT 1 1/4SM -RA BR OVC004 06/06 A3040 RMK AO2 SLP299 P0000 T00560056 $=
202202031821 SPECI KPAE 031821Z 16009KT 1SM R16R/P6000FT -RA BR OVC004 06/06 A3039 RMK AO2 P0000 T00560056 $=
202202031753 METAR KPAE 031753Z 16008KT 1SM R16R/P6000FT -RA OVC004 06/ A3039 RMK AO2 SLP294 P0000 60000 T0056 10056 20044 53016 $=
202202031653 METAR KPAE 031653Z 16009KT 3/4SM R16R/5500V6000FT -RA OVC004 06/ A3036 RMK AO2 SLP285 P0000 T0056 $=
202202031621 SPECI KPAE 031621Z 16009KT 3/4SM R16R/6000VP6000FT -RA OVC003 06/ A3036 RMK AO2 P0000 T0056 $=
202202031553 METAR KPAE 031553Z 15007KT 1SM R16R/P6000FT -RA OVC003 06/ A3035 RMK AO2 RAB1454 SLP281 P0000 T0056 $=
202202031453 METAR KPAE 031453Z 16007KT 1SM R16R/P6000FT BR OVC003 05/05 A3034 RMK AO2 SLP279 T00500050 51010=
202202031353 METAR KPAE 031353Z AUTO 16008KT 1 3/4SM BR OVC002 05/05 A3033 RMK AO2 SLP277 T00500050 $=
202202031341 SPECI KPAE 031341Z AUTO 16008KT 1 1/2SM R16R/5000VP6000FT BR OVC002 05/05 A3033 RMK AO2 T00500050 $=
202202031314 SPECI KPAE 031314Z AUTO 14005KT 2SM BR OVC002 05/05 A3033 RMK AO2 T00500050 $=
202202031300 SPECI KPAE 031300Z AUTO 15008KT 1 1/2SM BR OVC002 05/05 A3033 RMK AO2 T00500050 $=
202202031253 METAR KPAE 031253Z AUTO 15007KT 2SM BR OVC002 05/05 A3032 RMK AO2 SLP274 T00500050 $=
202202031153 METAR KPAE 031153Z AUTO 15007KT 3SM BR OVC002 04/04 A3031 RMK AO2 RAE07B18E28 SLP268 P0000 60000 T00440044 10044 20028 52004 $=
202202031112 SPECI KPAE 031112Z AUTO 14004KT 3SM BR OVC002 04/04 A3031 RMK AO2 RAE07 P0000 T00390039 $=
202202031053 METAR KPAE 031053Z AUTO 14004KT 2 1/2SM R16R/6000VP6000FT -RA BR OVC002 04/04 A3031 RMK AO2 RAB31 SLP268 P0000 T00390039 $=
202202031023 SPECI KPAE 031023Z AUTO 12004KT 2 1/2SM BR OVC002 03/03 A3031 RMK AO2 T00330033 $=
202202031012 SPECI KPAE 031012Z AUTO 11003KT 3SM BR OVC002 03/03 A3030 RMK AO2 T00330033 $=
202202030953 METAR KPAE 030953Z AUTO 11005KT 2 1/2SM BR OVC003 03/03 A3030 RMK AO2 CIG 001V005 SLP264 T00330033=
202202030949 SPECI KPAE 030949Z AUTO 12003KT 2 1/2SM BR OVC003 03/03 A3030 RMK AO2=
202202030927 SPECI KPAE 030927Z AUTO VRB05KT 4SM BR BKN003 OVC013 04/04 A3029 RMK AO2 T00390039=
202202030913 SPECI KPAE 030913Z AUTO VRB03KT 2 1/2SM BR BKN003 OVC012 03/03 A3029 RMK AO2 T00330033=
202202030853 METAR KPAE 030853Z AUTO 00000KT 3SM BR OVC003 04/04 A3029 RMK AO2 SLP264 T00390039 58000=
202202030810 SPECI KPAE 030810Z AUTO 11003KT 4SM BR OVC006 04/04 A3030 RMK AO2 CIG 003V009 T00390039=
202202030753 METAR KPAE 030753Z AUTO VRB03KT 5SM BR OVC004 04/04 A3030 RMK AO2 SLP264 T00390039 400391006=
202202030714 SPECI KPAE 030714Z AUTO 15005KT 6SM BR OVC004 04/04 A3030 RMK AO2 T00390039=
202202030653 METAR KPAE 030653Z AUTO 00000KT 7SM OVC006 04/04 A3029 RMK AO2 SLP264 T00390039=
202202030553 METAR KPAE 030553Z AUTO VRB03KT 7SM BKN007 OVC012 03/03 A3028 RMK AO2 SLP260 T00330033 10033 20017 50002=
202202030545 SPECI KPAE 030545Z AUTO VRB03KT 8SM BKN009 OVC014 03/03 A3029 RMK AO2 CIG 007V012 T00330033=
202202030517 SPECI KPAE 030517Z AUTO 00000KT 7SM OVC011 03/03 A3029 RMK AO2 T00280028=
202202030453 METAR KPAE 030453Z 10005KT 3SM BR FEW002 OVC009 03/03 A3029 RMK AO2 SLP263 T00280028=
202202030356 SPECI KPAE 030356Z VRB05KT 3SM BR FEW002 OVC009 03/03 A3028 RMK AO2 T00280028=
202202030353 METAR KPAE 030353Z VRB04KT 1 1/2SM BR BKN004 OVC021 03/03 A3028 RMK AO2 SLP260 T00280028=
202202030253 METAR KPAE 030253Z 11008KT 1 1/2SM BR BKN004 OVC021 02/02 A3028 RMK AO2 SLP259 T00220022 53000=
202202030206 SPECI KPAE 030206Z 11007KT 1 1/2SM BR BKN003 OVC016 02/02 A3028 RMK AO2 T00170017=
202202030200 SPECI KPAE 030200Z 11008KT 2 1/2SM BR BKN003 OVC016 02/02 A3028 RMK AO2 T00170017=
202202030153 METAR KPAE 030153Z 11008KT 1 1/2SM BR BKN001 OVC017 02/02 A3028 RMK AO2 SLP259 T00170017=
202202030122 SPECI KPAE 030122Z 10008KT 1 1/2SM BR BKN001 OVC017 02/02 A3028 RMK AO2 T00170017=
202202030053 METAR KPAE 030053Z 10008KT 1SM R16R/P6000FT BR SCT004 OVC010 02/02 A3027 RMK AO2 SLP256 T00170017=
202202030027 SPECI KPAE 030027Z VRB04KT 2 1/2SM BR OVC011 02/02 A3028 RMK AO2 T00220022=
202202022353 METAR KPAE 022353Z 10008KT 10SM BKN017 OVC023 02/01 A3028 RMK AO2 SLP259 T00220011 10033 20006 58013=
202202022322 SPECI KPAE 022322Z VRB04KT 10SM FEW019 BKN024 OVC075 03/01 A3028 RMK AO2 T00280011=
202202022300 SPECI KPAE 022300Z VRB04KT 10SM SCT019 BKN060 OVC070 03/01 A3029 RMK AO2 T00330006=
202202022253 METAR KPAE 022253Z 10SM BKN019 OVC055 03/01 A3029 RMK AO2 SLP263 T00330006=
202202022153 METAR KPAE 022153Z 15008KT 10SM BKN020 OVC050 03/M01 A3032 RMK AO2 SLP272 T00281006=
202202022151 SPECI KPAE 022151Z 15007KT 10SM BKN020 OVC050 03/M01 A3032 RMK AO2=
202202022053 METAR KPAE 022053Z 15009KT 10SM FEW017 SCT022 OVC055 02/01 A3033 RMK AO2 SLP278 T00220006 58015=
202202021953 METAR KPAE 021953Z 14005KT 10SM OVC060 02/01 A3035 RMK AO2 SLP284 T00170011=
202202021853 METAR KPAE 021853Z 15008KT 10SM OVC065 01/01 A3037 RMK AO2 SLP290 T00110006=
202202021753 METAR KPAE 021753Z 16005KT 10SM BKN070 01/M01 A3038 RMK AO2 SLP293 T00061006 10006 20000 50000=
202202021653 METAR KPAE 021653Z VRB05KT 10SM FEW017 OVC080 01/M01 A3037 RMK AO2 SLP292 T00061006=
202202021553 METAR KPAE 021553Z 14004KT 10SM OVC080 00/00 A3038 RMK AO2 SLP294 T00000000=
202202021453 METAR KPAE 021453Z 00000KT 10SM OVC110 00/00 A3038 RMK AO2 SLP292 T00000000 58003=
202202021353 METAR KPAE 021353Z AUTO 11004KT 10SM FEW004 BKN090 00/00 A3038 RMK AO2 SLP293 T00000000=
202202021318 SPECI KPAE 021318Z AUTO 11008KT 10SM SCT003 OVC110 00/00 A3038 RMK AO2 T00000000=
202202021253 METAR KPAE 021253Z AUTO 11006KT 10SM BKN003 OVC110 00/00 A3039 RMK AO2 SLP297 T00000000=
202202021202 SPECI KPAE 021202Z AUTO 11004KT 10SM OVC004 00/00 A3039 RMK AO2 T00000000=
202202021153 METAR KPAE 021153Z AUTO 10005KT 10SM OVC005 00/00 A3038 RMK AO2 CIG 003V008 SLP294 70009 T00000000 10022 21006 50005=
202202021132 SPECI KPAE 021132Z AUTO 12003KT 7SM BKN007 M01/M01 A3039 RMK AO2 CIG 005V008 T10061006=
202202021123 SPECI KPAE 021123Z AUTO 00000KT 6SM BR SCT008 SCT029 00/00 A3039 RMK AO2 T00000000=
202202021112 SPECI KPAE 021112Z AUTO 00000KT 6SM BR SCT029 00/00 A3039 RMK AO2 T00000000=
202202021053 METAR KPAE 021053Z AUTO 14003KT 8SM FEW008 OVC029 01/01 A3039 RMK AO2 SLP296 T00060006=
202202021046 SPECI KPAE 021046Z AUTO 18003KT 7SM OVC029 01/01 A3039 RMK AO2 T00060006=
202202021036 SPECI KPAE 021036Z AUTO 18003KT 6SM BR OVC030 M01/M01 A3039 RMK AO2 T10061006=
202202020953 METAR KPAE 020953Z AUTO 00000KT 6SM BR OVC026 M01/M01 A3038 RMK AO2 SLP295 T10061006=
202202020937 SPECI KPAE 020937Z AUTO 00000KT 8SM BKN024 00/00 A3038 RMK AO2 T00000000=
202202020853 METAR KPAE 020853Z AUTO 10005KT 8SM CLR 01/01 A3037 RMK AO2 SLP289 T00060006 58002=
202202020753 METAR KPAE 020753Z AUTO 00000KT 10SM OVC034 01/01 A3037 RMK AO2 SLP291 T00110011 400500011=
202202020722 SPECI KPAE 020722Z AUTO 00000KT 10SM OVC030 02/02 A3037 RMK AO2 T00170017=
202202020653 METAR KPAE 020653Z AUTO 00000KT 10SM BKN029 BKN050 02/02 A3037 RMK AO2 SLP290 T00170017=
202202020648 SPECI KPAE 020648Z AUTO 00000KT 10SM BKN029 BKN050 02/02 A3037 RMK AO2=
202202020553 METAR KPAE 020553Z AUTO 00000KT 10SM OVC032 02/02 A3036 RMK AO2 SLP285 60000 T00220017 10039 20017 53006=
202202020500 SPECI KPAE 020500Z 21003KT 10SM BKN032 02/01 A3035 RMK AO2 T00220011=
202202020453 METAR KPAE 020453Z 21003KT 10SM BKN024 BKN065 02/01 A3035 RMK AO2 RAB10E31 SLP283 P0000 T00220011=
202202020419 SPECI KPAE 020419Z 22003KT 4SM -RA BR BKN024 OVC065 02/02 A3034 RMK AO2 RAB10 P0000 T00220022=
202202020353 METAR KPAE 020353Z 00000KT 10SM SCT042 OVC065 02/02 A3034 RMK AO2 RAB02E21B41E50 SLP278 P0000 T00220022=
202202020253 METAR KPAE 020253Z 00000KT 10SM FEW040 SCT048 OVC060 02/02 A3034 RMK AO2 SLP279 T00220022 53007=
202202020153 METAR KPAE 020153Z 12004KT 10SM OVC060 03/02 A3033 RMK AO2 SLP275 T00280022=
202202020053 METAR KPAE 020053Z 00000KT 10SM CLR 03/01 A3032 RMK AO2 SLP272 T00330011=
202202012353 METAR KPAE 012353Z 00000KT 10SM SCT060 04/01 A3032 RMK AO2 SLP272 60000 T00390011 10050 20022 57001=
202202012253 METAR KPAE 012253Z 31003KT 10SM CLR 04/02 A3032 RMK AO2 RAB12E27 SLP271 P0000 T00390017=
202202012153 METAR KPAE 012153Z 34004KT 10SM SCT016 BKN055 04/01 A3032 RMK AO2 SLP273 T00390006=
202202012142 SPECI KPAE 012142Z VRB04KT 10SM BKN016 OVC055 04/01 A3032 RMK AO2 T00390006=
202202012129 SPECI KPAE 012129Z 35005KT 10SM BKN014 OVC050 04/01 A3032 RMK AO2 T00390011=
202202012100 SPECI KPAE 012100Z 24006KT 10SM SCT055 04/02 A3032 RMK AO2 T00440017=
202202012053 METAR KPAE 012053Z 22006KT 10SM FEW007 BKN015 BKN060 04/02 A3032 RMK AO2 SLP272 60000 T00390017 58005=
202202011953 METAR KPAE 011953Z 24005KT 10SM FEW007 BKN015 BKN060 03/02 A3033 RMK AO2 SLP277 T00330017=
202202011920 SPECI KPAE 011920Z 22004KT 10SM FEW006 BKN017 BKN060 03/02 A3034 RMK AO2 T00330022=
202202011853 METAR KPAE 011853Z 22005KT 10SM OVC017 03/02 A3034 RMK AO2 RAE06 SLP279 P0000 T00280017=
202202011806 SPECI KPAE 011806Z 20006KT 7SM FEW009 BKN023 OVC070 03/02 A3034 RMK AO2 RAE06 P0000 T00280017=
202202011753 METAR KPAE 011753Z 20006KT 10SM -RA SCT015 BKN029 OVC050 02/02 A3033 RMK AO2 SLP277 P0001 60009 T00220017 10033 20011 51003=
202202011741 SPECI KPAE 011741Z 20005KT 2SM R16R/5500VP6000FT -RA BR FEW005 BKN009 OVC033 02/01 A3033 RMK AO2 P0001 T00170011=
202202011721 SPECI KPAE 011721Z 21006KT 1 3/4SM -RA BR BKN005 BKN018 OVC050 02/01 A3033 RMK AO2 P0000 T00170011=
202202011711 SPECI KPAE 011711Z 20007KT 4SM -RA BR BKN005 BKN018 OVC050 02/01 A3033 RMK AO2 P0000 T00170011=
202202011704 SPECI KPAE 011704Z 20007KT 4SM -RA BR FEW009 BKN018 OVC050 02/01 A3033 RMK AO2 P0000 T00170011=
202202011653 METAR KPAE 011653Z 22006KT 5SM -RA BR SCT003 BKN010 OVC050 02/01 A3033 RMK AO2 SLP276 P0004 T00170011=
202202011622 SPECI KPAE 011622Z 19004KT 3SM -RA BR BKN006 BKN012 OVC019 01/01 A3033 RMK AO2 P0003 T00110011=
202202011615 SPECI KPAE 011615Z 20007KT 1 1/4SM RA BR BKN006 BKN012 OVC019 02/01 A3032 RMK AO2 P0003 T00170011=
202202011602 SPECI KPAE 011602Z 23006KT 2SM -RA BR BKN006 BKN012 OVC019 02/01 A3033 RMK AO2 P0001 T00170011=
202202011553 METAR KPAE 011553Z 22007KT 7SM -RA SCT006 OVC012 02/02 A3032 RMK AO2 RAE29B45 SLP274 P0004 T00220017=
202202011541 SPECI KPAE 011541Z 23007KT 7SM FEW006 BKN011 OVC019 03/02 A3032 RMK AO2 RAE29 P0003 T00280017=
202202011518 SPECI KPAE 011518Z 25006G17KT 7SM -RA OVC008 02/01 A3032 RMK AO2 CIG 004V013 P0003 T00220011=
202202011502 SPECI KPAE 011502Z 22006KT 2 1/2SM -RA BR BKN009 OVC016 03/02 A3032 RMK AO2 P0001 T00280017=
202202011453 METAR KPAE 011453Z 26004KT 6SM -RA BR BKN011 OVC018 03/02 A3032 RMK AO2 SLP272 P0000 60000 T00280017 53003=
202202011429 SPECI KPAE 011429Z AUTO 24007KT 9SM -RA FEW008 BKN014 OVC020 03/02 A3031 RMK AO2 P0000 T00280017=
202202011413 SPECI KPAE 011413Z AUTO 25005KT 5SM -RA FEW006 SCT012 OVC019 03/ A3031 RMK AO2 P0000 T0028 $=
202202011353 METAR KPAE 011353Z AUTO 20004KT 8SM -RA BKN021 OVC027 03/ A3031 RMK AO2 RAB50 SLP269 P0000 T0028 $=
202202011324 SPECI KPAE 011324Z AUTO 18007KT 10SM SCT004 BKN024 OVC042 03/ A3031 RMK AO2 T0028 $=
202202011253 METAR KPAE 011253Z AUTO 32004KT 8SM BKN004 BKN011 OVC027 03/03 A3031 RMK AO2 RAB07E47 CIG 002V007 SLP267 P0000 T00280028=
202202011245 SPECI KPAE 011245Z AUTO 17008KT 8SM -RA BKN006 BKN015 OVC043 03/03 A3031 RMK AO2 RAB07 P0000 T00280028=
202202011236 SPECI KPAE 011236Z AUTO 21005KT 5SM -RA BR SCT006 BKN012 OVC046 03/03 A3031 RMK AO2 RAB07 P0000 T00280028=
202202011210 SPECI KPAE 011210Z AUTO VRB03KT 10SM -RA FEW008 BKN026 OVC038 03/03 A3032 RMK AO2 RAB07 P0000 T00280028=
202202011153 METAR KPAE 011153Z AUTO 19006KT 10SM SCT010 BKN038 OVC048 02/02 A3031 RMK AO2 SLP268 60004 70004 T00220022 10039 20017 56009=
202202011131 SPECI KPAE 011131Z AUTO 20006KT 10SM BKN010 OVC050 02/02 A3032 RMK AO2 T00220022=
202202011120 SPECI KPAE 011120Z AUTO 19006KT 10SM SCT008 OVC050 02/02 A3031 RMK AO2 T00220022=
202202011053 METAR KPAE 011053Z AUTO 16007KT 10SM OVC050 03/02 A3031 RMK AO2 RAE07 SLP269 P0001 T00280022=
202202011012 SPECI KPAE 011012Z AUTO 19006KT 10SM SCT020 BKN050 02/02 A3032 RMK AO2 RAE07 P0001 T00220022=
202202010953 METAR KPAE 010953Z AUTO 21006KT 3SM RA BR BKN027 02/02 A3032 RMK AO2 UPB26E36 SLP272 P0002 T00220022=
202202010946 SPECI KPAE 010946Z AUTO 26009KT 4SM RA BR FEW005 OVC029 02/02 A3032 RMK AO2 UPB26E36 P0002 T00220022=
202202010918 SPECI KPAE 010918Z AUTO 21006KT 10SM -RA FEW021 OVC038 03/02 A3033 RMK AO2 P0000 T00280022=
202202010853 METAR KPAE 010853Z AUTO 30004KT 4SM -RA BR FEW011 BKN016 OVC028 03/02 A3034 RMK AO2 RAB33 SLP279 P0001 60001 T00280022 53004=
202202010833 SPECI KPAE 010833Z AUTO 31010KT 8SM -RA FEW017 FEW021 OVC029 04/02 A3034 RMK AO2 RAB33 P0000 T00390022=
202202010817 SPECI KPAE 010817Z AUTO 32003KT 10SM FEW018 SCT024 OVC031 04/03 A3034 RMK AO2 T00390028=
202202010753 METAR KPAE 010753Z AUTO 29003KT 10SM BKN020 BKN025 OVC039 04/02 A3034 RMK AO2 SLP278 T00390022 400670017=
202202010653 METAR KPAE 010653Z AUTO 00000KT 10SM BKN033 OVC043 02/02 A3032 RMK AO2 SLP274 T00220022=
202202010620 SPECI KPAE 010620Z AUTO 00000KT 10SM FEW018 BKN043 OVC055 03/02 A3032 RMK AO2 T00280022=
202202010610 SPECI KPAE 010610Z AUTO 00000KT 10SM SCT018 BKN027 OVC055 03/02 A3032 RMK AO2 T00280022=
202202010553 METAR KPAE 010553Z AUTO 00000KT 10SM SCT026 BKN055 03/03 A3033 RMK AO2 SLP274 T00330028 10061 20028 53003=
202202010532 SPECI KPAE 010532Z AUTO 00000KT 10SM SCT019 BKN055 03/03 A3033 RMK AO2 T00330028=
202202010453 METAR KPAE 010453Z AUTO 00000KT 10SM BKN017 OVC023 04/03 A3032 RMK AO2 SLP274 T00390028=
202202010353 METAR KPAE 010353Z 31004KT 10SM BKN020 04/03 A3032 RMK AO2 SLP271 T00390028=
202202010320 SPECI KPAE 010320Z 00000KT 10SM SCT020 04/03 A3031 RMK AO2 T00390028=
202202010313 SPECI KPAE 010313Z 00000KT 10SM BKN021 04/03 A3031 RMK AO2 T00390028=
202202010253 METAR KPAE 010253Z 35003KT 10SM FEW021 SCT036 04/03 A3031 RMK AO2 SLP270 T00390028 53014=
202202010153 METAR KPAE 010153Z 29005KT 10SM CLR 04/02 A3030 RMK AO2 SLP264 T00440022=
202202010053 METAR KPAE 010053Z 29006KT 10SM SCT035 05/02 A3028 RMK AO2 SLP260 T00500017=

# No short TAF reports from KPAE in databse.

###################################
#  large TAF from KPAE
###################################
202202282326 TAF KPAE 282326Z 0100/0124 18011KT 5SM -RA BR SCT010 BKN015 OVC020
                       FM010600 18012KT 6SM -RA BR OVC015 FM010800
                       18011KT 6SM -SHRA BR OVC015 FM012000 18011KT
                       P6SM SCT015 OVC025=
202202281734 TAF KPAE 281734Z 2818/0118 16009KT 2SM -RA BR SCT007 OVC015 FM281900
                       18011KT 2SM -RA BR OVC015 FM010600 18012KT
                       6SM -RA BR OVC015 FM010800 18011KT 6SM -SHRA
                       BR OVC015=
202202281444 KPAE 281444Z 2815/0112 14010G15KT P6SM -RA BKN005 BKN008 OVC045
                       FM281800 16011G19KT 4SM -RA BR OVC015 FM010600
                       18012KT 6SM -RA BR OVC015=
202202281120 TAF KPAE 281120Z 2812/0112 14008G17KT 4SM -RA BR SCT015 BKN025
                       OVC035 FM281800 16011G19KT 4SM -RA BR OVC015
                       FM010600 18012KT 6SM -RA BR OVC015=
202202280520 TAF KPAE 280520Z 2806/0106 16015G25KT 5SM -RA BR OVC010 FM281400
                       16010KT 4SM -RA BR OVC015 FM281800 18011KT
                       4SM -RA BR OVC010=
202202272322 TAF KPAE 272322Z 2800/2824 16015G25KT P6SM -RA BKN010 OVC020 FM280600
                       16015G25KT 5SM -RA BR OVC010 FM281400 16010KT
                       4SM -RA BR OVC015 FM281800 18011KT 4SM -RA
                       BR OVC010=
202202271724 TAF KPAE 271724Z 2718/2818 20016G27KT P6SM VCSH OVC015 FM272000
                       17013G19KT P6SM OVC020
                      TEMPO 2720/2724 -RA OVC015 FM280000 16015G25KT
                       P6SM -RA OVC020 FM280600 16015G25KT P6SM
                       -RA OVC015 FM281400 16010KT 4SM -RA BR OVC015=
202202271127 TAF KPAE 271127Z 2712/2812 13007KT P6SM -SHRA FEW030 OVC045 FM271800
                       20012G20KT P6SM VCSH OVC030 FM272000 17013G19KT
                       P6SM OVC030 FM280000 16015G25KT P6SM -RA
                       OVC020 FM280600 16015G25KT P6SM -RA OVC015=
202202270520 TAF KPAE 270520Z 2706/2806 12008KT 5SM -RA BR BKN020 OVC035 FM271200
                       18017G27KT 6SM -RA BR OVC020 FM271700 20012G20KT
                       P6SM -RA OVC020 FM272000 19010KT P6SM VCSH
                       OVC015 FM280000 17008KT P6SM -RA OVC020=
202202270306 KPAE 270306Z 2703/2724 14006KT P6SM -RA OVC035 FM270500 16012G20KT
                       P6SM -RA OVC025 FM270600 18017G27KT 6SM
                       -RA BR OVC020 FM271500 17011KT P6SM -RA
                       OVC020 FM271800 17010KT P6SM VCSH OVC015=
202202262320 TAF KPAE 262320Z 2700/2724 14014G23KT P6SM VCSH BKN060 OVC100 FM270100
                       16015G25KT P6SM -RA OVC045 FM270600 18017G27KT
                       6SM -RA BR OVC020 FM271500 17011KT P6SM
                       -RA OVC020 FM271800 17010KT P6SM VCSH OVC015=
202202261720 TAF KPAE 261720Z 2618/2718 12008KT P6SM BKN100 OVC200 FM262200
                       14014KT P6SM VCSH BKN060 OVC100 FM270100
                       16015G25KT P6SM -RA OVC045 FM270600 18017G27KT
                       6SM -RA BR OVC020 FM271500 17011KT P6SM
                       -RA OVC020=
202202261126 TAF KPAE 261126Z 2612/2712 12008KT P6SM BKN100 OVC200 FM262200
                       14014KT P6SM VCSH BKN060 OVC100 FM270100
                       16015G25KT P6SM -RA OVC045 FM270600 18017G27KT
                       5SM -RA BR OVC020=
202202260520 TAF KPAE 260520Z 2606/2706 07004KT P6SM SCT250 FM261200 12010KT
                       P6SM BKN120 OVC200 FM262200 14014KT P6SM
                       BKN050 OVC100 FM270000 16015G25KT P6SM -RA
                       OVC035 FM270500 18017G27KT 5SM -RA BR OVC020=
202202252320 TAF KPAE 252320Z 2600/2624 VRB04KT P6SM SKC FM260800 VRB04KT P6SM
                       SCT250 FM261500 13006KT P6SM BKN120 OVC200
                       FM262200 15010KT P6SM -RA BKN040 OVC100=
202202251735 TAF KPAE 251735Z 2518/2618 VRB04KT P6SM SKC FM260800 VRB04KT P6SM
                       SCT250 FM261500 13006KT P6SM BKN120 OVC200=
202202251129 TAF KPAE 251129Z 2512/2612 VRB04KT P6SM SKC FM260800 VRB04KT P6SM
                       SCT250=
202202250520 TAF KPAE 250520Z 2506/2606 VRB04KT P6SM SKC=
202202242326 TAF KPAE 242326Z 2500/2524 01006KT P6SM SKC FM250500 11006KT P6SM
                       SKC=
202202241738 TAF KPAE 241738Z 2418/2518 01006KT P6SM SKC FM250500 11006KT P6SM
                       SKC=
202202241121 TAF KPAE 241121Z 2412/2512 VRB04KT 6SM -SN SCT006 OVC030 FM241300
                       VRB04KT P6SM VCSH SCT010 BKN040 FM241600
                       36003KT P6SM SCT045 FM242100 34005KT P6SM
                       SKC FM250500 VRB04KT P6SM FEW250=
202202240859 KPAE 240859Z 2409/2506 VRB04KT 3SM -SN OVC028 FM241300 35006KT
                       P6SM SCT030 BKN050 FM241700 35006KT P6SM
                       SKC=
202202240712 KPAE 240712Z 2407/2506 VRB04KT 4SM -SN OVC028 FM241300 35006KT
                       P6SM SCT030 BKN050 FM241700 35006KT P6SM
                       SKC=
202202240520 TAF KPAE 240520Z 2406/2506 14007KT P6SM OVC070 FM240900 12006KT
                       P6SM -SHSN BKN030 OVC050 FM241300 35006KT
                       P6SM SCT030 BKN050 FM241700 35006KT P6SM
                       SKC=
202202232339 TAF KPAE 232339Z 2400/2424 VRB03KT P6SM SCT120 BKN200 FM240300
                       15006KT P6SM OVC090 FM240600 15006KT P6SM
                       OVC060 FM240900 12006KT P6SM -SHSN BKN030
                       OVC050 FM241300 35006KT P6SM SCT030 BKN050
                       FM241700 35006KT P6SM SKC=
202202231737 TAF KPAE 231737Z 2318/2418 VRB03KT P6SM SKC FM240200 VRB03KT P6SM
                       BKN200 FM240600 14006KT P6SM BKN100 FM241000
                       14006KT P6SM -SHSN SCT025 OVC040=
202202231126 TAF KPAE 231126Z 2312/2412 00000KT P6SM BKN045 FM232300 34006KT
                       P6SM BKN100 FM240300 VRB03KT P6SM OVC100
                       FM241000 06002KT P6SM OVC050=
202202230520 TAF KPAE 230520Z 2306/2406 32004KT P6SM SKC FM232300 34006KT P6SM
                       BKN100=
202202222337 TAF KPAE 222337Z 2300/2324 34012KT P6SM BKN045 FM230600 06006KT
                       P6SM SKC FM232300 34006KT P6SM BKN100=
202202222000 KPAE 222000Z 2220/2318 34012KT P6SM BKN045 FM230400 06006KT P6SM
                       SKC=
202202221740 TAF KPAE 221740Z 2218/2318 34012KT P6SM BKN009 OVC018 FM222000
                       34012KT P6SM BKN012 OVC020 FM222200 34010KT
                       P6SM SCT020 BKN040 FM230400 06006KT P6SM
                       SKC=
202202221543 KPAE 221543Z 2216/2312 34010KT 4SM -SHSN BKN005 OVC010 FM221700
                       34010KT P6SM SCT005 BKN010 OVC040 FM222000
                       01010KT P6SM SCT010 BKN040 FM222200 01010KT
                       P6SM SKC FM231000 06003KT P6SM SKC=
202202221120 TAF KPAE 221120Z 2212/2312 32007KT P6SM BKN023 FM221800 01010KT
                       P6SM SKC FM231000 06003KT P6SM SKC=
202202220520 TAF KPAE 220520Z 2206/2306 31010KT P6SM SCT100 FM221800 01010KT
                       P6SM SKC=
202202220222 KPAE 220222Z 2202/2224 32008KT P6SM FEW080 OVC100 FM220600 02004KT
                       P6SM SCT050=
202202212326 TAF KPAE 212326Z 2200/2224 33012G18KT P6SM SKC FM220400 02004KT
                       P6SM SCT050=
202202211903 KPAE 211903Z 2119/2218 35008KT P6SM BKN005 FM212200 01012G18KT
                       P6SM BKN040 FM220200 03007KT P6SM SCT050=
202202211720 TAF KPAE 211720Z 2118/2218 35006KT P6SM VCSH BKN002 FM212000 01012G18KT
                       P6SM BKN040 FM220200 03007KT P6SM SCT050=
202202211542 KPAE 211542Z 2116/2212 04006KT 1SM BR BKN002 OVC008 FM211800 35006KT
                       P6SM VCSH BKN010 FM212000 01012G18KT P6SM
                       BKN040 FM220200 03007KT P6SM SCT050=
202202211310 KPAE 211310Z 2113/2212 12007KT 5SM -RASN OVC008
                      TEMPO 2113/2114 1/2SM FG VV001 FM211600 35006KT
                       P6SM VCSH BKN010 FM212000 01012G18KT P6SM
                       BKN040 FM220200 03007KT P6SM SCT050=
202202211127 TAF KPAE 211127Z 2112/2212 12007KT 5SM -RASN OVC010 FM211600 35006KT
                       P6SM VCSH BKN010 FM212000 01012G18KT P6SM
                       BKN040 FM220200 03007KT P6SM SCT050=
202202210948 KPAE 210948Z 2110/2206 VRB04KT 5SM -RA BR SCT007 OVC015 FM211200
                       VRB03KT 5SM -RASN OVC010 FM211600 35006KT
                       P6SM VCSH BKN010 FM212000 01012G18KT P6SM
                       BKN040=
202202210743 KPAE 210743Z 2108/2206 VRB04KT P6SM VCSH SCT010 BKN015 OVC020 FM210900
                       VRB04KT 6SM -RASN SCT007 OVC010 FM211600
                       35006KT P6SM VCSH BKN010 FM212000 01012G18KT
                       P6SM BKN040=
202202210520 TAF KPAE 210520Z 2106/2206 VRB04KT P6SM VCSH BKN040 OVC060 FM210900
                       16004KT 6SM -RA SCT007 OVC015 FM211400 35006KT
                       P6SM VCSH BKN010 FM212000 01012G18KT P6SM
                       BKN040=
202202210056 KPAE 210056Z 2101/2124 VRB04KT P6SM -SHRA SCT035 BKN040 BKN070
                       FM210400 31006KT P6SM -SHRA OVC020 FM210900
                       30005KT P6SM VCSH OVC015 FM212000 01005KT
                       P6SM BKN050=
202202202320 TAF KPAE 202320Z 2100/2124 32005KT P6SM -SHRA BKN021 OVC035 FM210400
                       31006KT P6SM -SHRA OVC020 FM210900 30005KT
                       P6SM VCSH OVC015 FM212000 01005KT P6SM BKN050=
202202201725 TAF KPAE 201725Z 2018/2118 27006KT P6SM -SHRA BKN009 BKN018 OVC040
                       FM202300 30005KT P6SM BKN030 FM210400 31006KT
                       P6SM VCSH OVC025 FM210900 30005KT P6SM OVC015=
202202201440 KPAE 201440Z 2015/2112 31005KT P6SM -RA OVC025 FM201800 29006KT
                       P6SM -SHRA OVC030 FM202300 30005KT P6SM
                       BKN030 FM210400 31006KT P6SM -SHRA OVC025
                       FM210900 27005KT P6SM OVC015=
202202201128 TAF KPAE 201128Z 2012/2112 19005KT P6SM -RA BKN020 OVC025 FM201800
                       29006KT P6SM -SHRA OVC015 FM202300 30005KT
                       P6SM BKN030 FM210400 31006KT P6SM -SHRA
                       OVC025 FM210900 27005KT P6SM OVC015=
202202200520 TAF KPAE 200520Z 2006/2106 35006KT P6SM VCSH BKN025 OVC080 FM201000
                       28008KT 6SM -RA OVC015 FM202100 31006KT
                       P6SM VCSH OVC015 FM202300 30005KT P6SM BKN030
                       FM210400 31006KT P6SM -SHRA OVC025=
202202200102 KPAE 200102Z 2001/2024 19016G23KT P6SM -SHRA FEW013 OVC026 FM200600
                       30012KT 5SM -SHRA BR BKN015 OVC025 FM201800
                       31006KT P6SM VCSH OVC015 FM202000 30005KT
                       P6SM OVC015=
202202192320 TAF KPAE 192320Z 2000/2024 17011KT P6SM -SHRA SCT016 BKN025 OVC030
                       FM200100 29009KT 3SM -SHRA BR OVC015 FM200600
                       30012KT 5SM -SHRA BR BKN015 OVC025 FM201800
                       31006KT P6SM VCSH OVC015 FM202000 30005KT
                       P6SM OVC015=
202202191726 TAF KPAE 191726Z 1918/2018 16009KT 3SM -SHRA BKN007 OVC013 FM192000
                       18014G22KT 6SM -RA BR OVC015 FM200100 29009KT
                       3SM RA BR OVC015 FM200600 30012KT 5SM -RA
                       BR BKN015 OVC025=
202202191123 TAF KPAE 191123Z 1912/2012 15005KT P6SM SCT010 OVC020 FM191500
                       18011KT P6SM VCSH BKN007 OVC010 FM192000
                       18014G22KT 6SM -RA BR OVC015 FM200100 29009KT
                       3SM RA BR OVC015 FM200600 30012KT 5SM -RA
                       BR BKN015 OVC025=
202202190520 TAF KPAE 190520Z 1906/2006 VRB03KT P6SM SCT040 BKN200 FM190800
                       VRB03KT P6SM SCT010 BKN020 OVC030 FM191500
                       18011KT P6SM VCSH BKN015 OVC025 FM192000
                       18014G22KT 6SM -RA BR OVC014 FM200000 23015G25KT
                       3SM RA BR OVC015 FM200300 30012G25KT 5SM
                       -RA BR BKN015 OVC025=
202202182332 TAF KPAE 182332Z 1900/1924 VRB03KT P6SM SCT040 BKN200 FM190800
                       VRB03KT P6SM SCT010 BKN020 OVC030 FM191500
                       18011KT P6SM VCSH BKN015 OVC025 FM192000
                       18014G22KT 6SM -RA BR OVC014=
202202181729 TAF KPAE 181729Z 1818/1918 VRB03KT P6SM SCT020 BKN200
                      TEMPO 1818/1820 BKN020 FM182000 VRB03KT P6SM
                       BKN040 BKN200 FM182200 VRB03KT P6SM SCT040
                       BKN200 FM190800 VRB03KT P6SM SCT010 BKN020
                       OVC030 FM191500 18010KT P6SM VCSH BKN015
                       OVC025=
202202181522 KPAE 181522Z 1815/1912 VRB03KT P6SM SCT008 SCT020 BKN200
                      TEMPO 1815/1819 BKN008 OVC015 FM181900 VRB03KT
                       P6SM SCT015 BKN025 OVC040 FM182200 VRB03KT
                       P6SM SCT030 BKN050 FM190800 VRB03KT P6SM
                       SCT010 BKN020 OVC030=
202202181142 TAF KPAE 181142Z 1812/1912 VRB03KT P6SM SCT008 OVC015
                      TEMPO 1814/1816 BKN008 OVC015 FM181900 VRB03KT
                       P6SM SCT015 BKN025 OVC040 FM182200 VRB03KT
                       P6SM SCT030 BKN050 FM190800 VRB03KT P6SM
                       SCT010 BKN020 OVC030=
202202180520 TAF KPAE 180520Z 1806/1906 20005KT P6SM BKN013 OVC040 FM180900
                       18004KT 5SM BR OVC012 FM181500 06003KT 5SM
                       BR OVC012 FM182100 31004KT P6SM BKN030 BKN050
                       FM190400 35002KT P6SM OVC015=
202202172323 TAF KPAE 172323Z 1800/1824 17007KT P6SM OVC014 FM180500 18006KT
                       5SM BR BKN008 OVC012 FM182100 30004KT P6SM
                       BKN030 BKN050=
202202171739 TAF KPAE 171739Z 1718/1818 16007KT P6SM SCT014 OVC022
                      TEMPO 1718/1722 BKN014 FM172200 17007KT P6SM
                       OVC014 FM180500 18006KT 5SM BR BKN008 OVC012=
202202171130 TAF KPAE 171130Z 1712/1812 18006KT P6SM BKN035 FM171800 18006KT
                       P6SM OVC015 FM180300 18006KT 5SM BR BKN006
                       OVC012=
202202170520 TAF KPAE 170520Z 1706/1806 19005KT P6SM BKN025 FM171500 16006KT
                       P6SM OVC020 FM180000 19005KT P6SM OVC015
                       FM180400 13003KT P6SM OVC015=
202202162320 TAF KPAE 162320Z 1700/1724 02003KT P6SM FEW030 SCT035 FM170300
                       10002KT P6SM BKN050 FM170900 VRB03KT P6SM
                       OVC035 FM171500 16005KT P6SM OVC025=
202202161720 TAF KPAE 161720Z 1618/1718 VRB03KT P6SM OVC030 FM162000 34003KT
                       P6SM OVC020 FM162300 33003KT P6SM BKN040
                       FM170900 VRB03KT P6SM OVC035=
202202161120 TAF KPAE 161120Z 1612/1712 34003KT P6SM OVC015 FM161400 VRB03KT
                       6SM BR OVC008 FM162000 34003KT P6SM OVC020
                       FM162300 33003KT P6SM BKN040 FM170900 VRB03KT
                       P6SM OVC025=
202202160634 KPAE 160634Z 1607/1706 18006KT P6SM SCT022 OVC035
                      TEMPO 1607/1609 BKN022 OVC035 FM160900 VRB03KT
                       P6SM OVC015 FM161400 VRB03KT 6SM BR OVC008
                       FM162000 34003KT P6SM OVC020 FM162100 33003KT
                       P6SM OVC030=
202202160520 TAF KPAE 160520Z 1606/1706 17005KT P6SM BKN022 OVC030 FM160900
                       VRB03KT P6SM OVC015 FM161400 VRB03KT 6SM
                       BR OVC008 FM162000 34003KT P6SM OVC020 FM162100
                       33003KT P6SM OVC030=
202202152320 TAF KPAE 152320Z 1600/1624 22003KT P6SM OVC035 FM160500 35003KT
                       P6SM OVC015 FM161200 VRB02KT 6SM BR OVC008
                       FM162100 34002KT P6SM OVC050=
202202151732 TAF KPAE 151732Z 1518/1618 23005KT P6SM SCT004 BKN009 OVC016 FM152000
                       VRB03KT P6SM SCT035 OVC050 FM160500 00000KT
                       P6SM OVC015 FM161200 VRB02KT 6SM BR OVC008=
202202151454 KPAE 151454Z 1515/1612 22004KT P6SM SCT006 BKN035 OVC045
                      TEMPO 1515/1518 BKN006 OVC035 FM152000 VRB03KT
                       P6SM SCT035 OVC050 FM160500 00000KT P6SM
                       OVC015=
202202151403 KPAE 151403Z 1514/1612 22004KT P6SM BKN035 OVC045 FM152000 VRB03KT
                       P6SM SCT035 OVC050 FM160500 00000KT P6SM
                       OVC015=
202202151122 TAF KPAE 151122Z 1512/1612 20003KT P6SM SCT025 OVC040
                      TEMPO 1512/1514 BKN025 OVC040 FM151400 VRB03KT
                       P6SM OVC020 FM152000 VRB03KT P6SM BKN030
                       OVC045 FM160500 00000KT P6SM OVC015=
202202150906 KPAE 150906Z 1509/1606 18005KT P6SM OVC035 FM151300 VRB03KT P6SM
                       OVC020 FM152000 VRB03KT P6SM OVC025=
202202150520 TAF KPAE 150520Z 1506/1606 34003KT P6SM BKN030 FM150900 35003KT
                       P6SM OVC020 FM152000 VRB03KT P6SM OVC025=
202202142320 TAF KPAE 142320Z 1500/1524 32003KT P6SM BKN015 BKN025 FM150300
                       00000KT P6SM OVC015 FM151800 33002KT 6SM
                       BR OVC015=
202202141723 TAF KPAE 141723Z 1418/1518 21010G20KT P6SM OVC015 FM141900 21010G15KT
                       6SM -RA OVC020 FM150000 07004KT P6SM BKN025
                       OVC050 FM150300 00000KT P6SM OVC015=
202202141128 TAF KPAE 141128Z 1412/1512 17012G20KT P6SM SCT025 OVC120 FM141300
                       17012G20KT P6SM -RA BKN025 OVC040 FM141800
                       30008KT P6SM -SHRA OVC025 FM150000 07004KT
                       P6SM BKN025 OVC050 FM150300 00000KT P6SM
                       OVC015=
202202140520 TAF KPAE 140520Z 1406/1506 17005KT P6SM BKN250 FM140800 18008KT
                       P6SM BKN120 OVC200 FM141100 19010KT P6SM
                       BKN050 OVC100 FM141200 21010KT P6SM -RA
                       BKN025 OVC040 FM141800 30010KT P6SM -SHRA
                       SCT020 BKN040 FM150000 33004KT P6SM BKN025=
202202132320 TAF KPAE 132320Z 1400/1424 17003KT P6SM BKN250 FM140800 18008KT
                       P6SM BKN120 OVC200 FM141100 19010KT P6SM
                       BKN050 OVC100 FM141200 21010KT P6SM -RA
                       BKN025 OVC040 FM141800 30010KT P6SM -SHRA
                       SCT020 BKN040=
202202131749 TAF KPAE 131749Z 1318/1418 00000KT P6SM VCFG SKC FM131900 17003KT
                       P6SM BKN250 FM140800 18008KT P6SM BKN120
                       OVC200 FM141100 19010KT P6SM BKN050 OVC100
                       FM141200 20010KT P6SM -RA BKN025 OVC040=
202202131641 KPAE 131641Z 1317/1412 17003KT P6SM VCFG SKC FM131900 17005KT P6SM
                       BKN250 FM140800 18008KT P6SM BKN120 OVC200
                       FM141100 19010KT P6SM BKN050 OVC100=
202202131447 KPAE 131447Z 1315/1412 10006KT P6SM VCFG FEW001
                      TEMPO 1315/1318 1/2SM FG VV001 FM131900 17005KT
                       P6SM BKN250 FM140800 18008KT P6SM BKN120
                       OVC200 FM141100 19010KT P6SM BKN050 OVC100=
202202131127 TAF KPAE 131127Z 1312/1412 00000KT P6SM SKC FM131900 17005KT P6SM
                       BKN250 FM140800 18008KT P6SM BKN120 OVC200
                       FM141100 19010KT P6SM BKN050 OVC100=
202202130520 TAF KPAE 130520Z 1306/1406 35004KT P6SM FEW250 FM131700 17005KT
                       P6SM BKN250=
202202122320 TAF KPAE 122320Z 1300/1324 36005KT P6SM SKC FM130500 00000KT P6SM
                       SKC FM131700 15005KT P6SM FEW250=
202202121720 TAF KPAE 121720Z 1218/1318 36005KT P6SM SKC FM130500 00000KT P6SM
                       SKC=
202202121526 KPAE 121526Z 1215/1312 01007KT P6SM FEW002 FM121800 36005KT P6SM
                       SKC FM130500 00000KT P6SM SKC=
202202121128 TAF KPAE 121128Z 1212/1312 01007KT P6SM FEW002
                      TEMPO 1212/1216 2SM BR BKN002 FM121800 36005KT
                       P6SM SKC FM130500 00000KT P6SM SKC=
202202120817 KPAE 120817Z 1208/1306 36006KT P6SM SCT003
                      TEMPO 1208/1212 2SM BR OVC003 FM121200 35003KT
                       P6SM OVC005 FM121800 36005KT P6SM SKC FM130500
                       00000KT P6SM SKC=
202202120520 TAF KPAE 120520Z 1206/1306 34005KT P6SM FEW250 FM121800 36005KT
                       P6SM SKC FM130500 00000KT P6SM SKC=
202202112320 TAF KPAE 112320Z 1200/1224 34008KT P6SM BKN250 FM120400 VRB03KT
                       P6SM SKC FM121800 35004KT P6SM SKC=
202202112110 KPAE 112110Z 1121/1218 35009KT P6SM SCT011 FM112200 36010KT P6SM
                       SKC FM120500 36002KT P6SM SKC=
202202112101 KPAE 112101Z 1121/1218 35008G14KT P6SM BKN012 FM112200 36010KT
                       P6SM SKC FM120500 36002KT P6SM SKC=
202202111926 KPAE 111926Z 1119/1218 34005KT P6SM OVC008 FM112100 34005KT P6SM
                       SCT015 FM112200 36010KT P6SM SKC FM120500
                       36002KT P6SM SKC=
202202111725 TAF KPAE 111725Z 1118/1218 34005KT P6SM OVC007 FM111900 34005KT
                       P6SM SCT015 FM112000 36010KT P6SM SKC FM120500
                       36002KT P6SM SKC=
202202111120 TAF KPAE 111120Z 1112/1212 35008KT P6SM OVC003 FM111700 34010KT
                       6SM BR OVC003 FM112000 36010KT P6SM SKC
                       FM120500 36002KT P6SM SKC=
202202110520 TAF KPAE 110520Z 1106/1206 35006KT P6SM OVC005 FM110800 VRB03KT
                       2SM BR OVC003
                      TEMPO 1108/1111 1/2SM FG FM111100 35008KT
                       4SM BR OVC003 FM111700 34010KT 6SM BR SCT007
                       BKN015 FM112000 36010KT P6SM SKC=
202202102338 TAF KPAE 102338Z 1100/1124 34007KT P6SM BKN007 FM110100 35004KT
                       P6SM OVC010 FM110600 35006KT 1/4SM FG OVC002
                       FM112000 36003KT 5SM BR SCT010=
202202101728 TAF KPAE 101728Z 1018/1118 35006KT 1/4SM FG VV001 FM101900 36003KT
                       1/4SM FG OVC004 FM102100 34005KT 5SM BR
                       OVC010 FM110100 01003KT 6SM BR OVC020 FM110400
                       36002KT 1/4SM FG OVC001=
202202101120 TAF KPAE 101120Z 1012/1112 35006KT 1/4SM FG VV001 FM101900 36003KT
                       1/4SM FG OVC004 FM102100 34005KT 5SM BR
                       OVC009 FM110100 01003KT 1/4SM FG OVC003=
202202100847 KPAE 100847Z 1009/1106 35006KT 1/4SM FG VV001 FM101300 00000KT
                       1/4SM FG OVC002 FM101900 36003KT 5SM BR
                       BKN006 OVC010 FM102100 34005KT P6SM BKN020
                       FM110500 VRB03KT 5SM BR BKN010=
202202100627 KPAE 100627Z 1006/1106 02004KT 2SM BR BKN001 OVC035
                      TEMPO 1006/1007 2SM BR FM101000 00000KT 6SM
                       BR OVC020 FM101300 00000KT 1/4SM FG OVC002
                       FM101900 36003KT 5SM BR BKN006 OVC010 FM102100
                       34005KT P6SM BKN020 FM110500 VRB03KT 5SM
                       BR BKN010=
202202100520 TAF KPAE 100520Z 1006/1106 02004KT P6SM BKN040 FM101000 00000KT
                       6SM BR OVC020 FM101300 00000KT 1/4SM FG
                       OVC002 FM101900 36003KT 5SM BR BKN006 OVC010
                       FM102100 34005KT P6SM BKN020 FM110500 VRB03KT
                       5SM BR BKN010=
202202092320 TAF KPAE 092320Z 1000/1024 00000KT P6SM BKN029 OVC035 FM100700
                       00000KT 6SM BR OVC020 FM101300 00000KT 1/4SM
                       FG OVC001 FM101800 36002KT 3/4SM BR OVC003
                       FM101900 36001KT 5SM BR OVC003 FM102100
                       00000KT P6SM BKN015=
202202092107 KPAE 092107Z 0921/1018 00000KT P6SM OVC035 FM100400 00000KT 6SM
                       BR OVC020=
202202091722 TAF KPAE 091722Z 0918/1018 09005KT P6SM FEW035 OVC045 FM092100
                       35002KT P6SM OVC015 FM100400 00000KT 6SM
                       BR OVC020=
202202091507 KPAE 091507Z 0915/1012 00000KT 6SM BR OVC040 FM091600 00000KT P6SM
                       OVC015 FM092100 35002KT P6SM OVC015 FM100400
                       00000KT 6SM BR OVC020=
202202091121 TAF KPAE 091121Z 0912/1012 35003KT P6SM OVC020 FM091500 00000KT
                       P6SM OVC015 FM092100 35002KT P6SM OVC015
                       FM100400 00000KT 6SM BR OVC020=
202202090520 TAF KPAE 090520Z 0906/1006 15004KT P6SM OVC080 FM090700 14005KT
                       P6SM OVC025 FM091200 05002KT 6SM BR OVC015
                       FM092100 35002KT P6SM OVC015=
202202082329 TAF KPAE 082329Z 0900/0924 15004KT P6SM OVC080 FM090700 14005KT
                       P6SM OVC025 FM091200 05002KT 6SM BR OVC015
                       FM092100 35002KT P6SM OVC015=
202202081725 TAF KPAE 081725Z 0818/0918 16005KT P6SM SCT010 OVC030 FM082100
                       25004KT P6SM OVC025 FM090000 15004KT P6SM
                       OVC050 FM090500 14005KT P6SM OVC025 FM090800
                       19005KT 6SM BR OVC015=
202202081120 TAF KPAE 081120Z 0812/0912 VRB02KT P6SM FEW006 BKN015 OVC040 FM081400
                       15003KT 6SM BR OVC010 FM081800 16005KT P6SM
                       SCT010 OVC030 FM082100 25004KT P6SM OVC020
                       FM090000 15004KT P6SM OVC050 FM090500 14005KT
                       P6SM OVC030=
202202080520 TAF KPAE 080520Z 0806/0906 36003KT P6SM SCT015 OVC020 FM080900
                       VRB02KT P6SM OVC007 FM081800 22005KT P6SM
                       SCT010 OVC050 FM082100 21004KT P6SM OVC050=
202202072326 TAF KPAE 072326Z 0800/0824 15005KT P6SM OVC015 FM080200 21004KT
                       P6SM SCT015 OVC025 FM080900 VRB02KT P6SM
                       OVC007 FM082100 22005KT P6SM SCT010 OVC050=
202202071720 TAF KPAE 071720Z 0718/0818 17010KT P6SM OVC009 FM072200 18006KT
                       P6SM BKN015 OVC035 FM080200 21004KT P6SM
                       SCT025 OVC035 FM080800 VRB02KT P6SM OVC015=
202202071129 TAF KPAE 071129Z 0712/0812 16011KT P6SM BKN150 OVC200 FM071400
                       17010KT P6SM OVC018 FM072200 18006KT P6SM
                       BKN025 OVC040 FM080200 21004KT P6SM SCT025
                       BKN040 FM080800 VRB02KT P6SM OVC025=
202202070520 TAF KPAE 070520Z 0706/0806 VRB03KT P6SM BKN200
                      TEMPO 0708/0711 5SM BR FM071100 16008KT P6SM
                       BKN100 OVC200 FM071500 18010KT P6SM OVC020
                       FM072200 18006KT P6SM SCT025 BKN040=
202202062325 TAF KPAE 062325Z 0700/0724 36004KT P6SM SCT200 FM070400 07002KT
                       P6SM SCT200 FM070800 16005KT P6SM BKN110
                       OVC200 FM071500 18011KT P6SM VCSH OVC025
                       FM072200 19008KT P6SM OVC050=
202202061727 TAF KPAE 061727Z 0618/0718 00000KT 1/2SM FG BKN001 FM061900 00000KT
                       2SM BR BKN003 FM062000 36004KT P6SM SCT200
                       FM070400 07002KT P6SM SCT200 FM070800 16005KT
                       P6SM BKN110 OVC200 FM071500 18011KT P6SM
                       OVC025=
202202061139 TAF KPAE 061139Z 0612/0712 00000KT 4SM BR SCT001
                      TEMPO 0612/0616 1/4SM FG VV001 FM061700 00000KT
                       1/2SM FG BKN002 FM061900 36004KT P6SM SCT200
                       FM070400 07002KT P6SM SCT200 FM070800 16005KT
                       P6SM BKN110 OVC200=
202202060729 KPAE 060729Z 0607/0706 03004KT 6SM BR BKN200
                      TEMPO 0607/0611 3/4SM BR SCT001 FM061200
                       00000KT 1/4SM FG VV001 FM061700 00000KT
                       1/2SM FG BKN002 FM061800 36004KT P6SM SCT200=
202202060520 TAF KPAE 060520Z 0606/0706 03004KT P6SM BKN200 FM061200 00000KT
                       1/4SM FG VV001 FM061700 00000KT 1/2SM FG
                       BKN002 FM061800 36004KT P6SM SCT200=
202202060014 KPAE 060014Z 0600/0624 27003KT P6SM SCT030 FM061200 00000KT 2SM
                       BR BKN004 FM061600 00000KT 1/4SM FG BKN003
                       FM062000 36002KT P6SM SKC=
202202052324 TAF KPAE 052324Z 0600/0624 32003KT P6SM SCT009 BKN030 FM060200
                       00000KT P6SM SCT050 FM060600 00000KT P6SM
                       BKN250 FM061200 00000KT 2SM BR BKN004 FM061600
                       00000KT 1/4SM FG BKN003 FM062000 36002KT
                       P6SM SKC=
202202051839 KPAE 051839Z 0519/0618 06004KT 4SM BR OVC007 FM052100 32003KT P6SM
                       BKN025 FM060000 00000KT P6SM SCT050 FM060600
                       00000KT P6SM BKN250 FM061200 00000KT 2SM
                       BR BKN004 FM061600 00000KT 1/4SM FG BKN003=
202202051720 TAF KPAE 051720Z 0518/0618 06004KT 2SM BR OVC005 FM052100 32003KT
                       P6SM BKN025 FM060000 00000KT P6SM SCT050
                       FM060600 00000KT P6SM BKN250 FM061200 00000KT
                       2SM BR BKN004 FM061600 00000KT 1/4SM FG
                       BKN003=
202202051302 KPAE 051302Z 0513/0612 15005KT P6SM VCSH SCT006 OVC022
                      TEMPO 0513/0515 2SM -RA BR BKN006 OVC016
                       FM051600 VRB03KT P6SM OVC035 FM052100 32003KT
                       P6SM BKN050 FM060000 00000KT P6SM SCT050
                       FM060600 00000KT P6SM BKN250 FM060800 00000KT
                       2SM BR BKN004=
202202051217 KPAE 051217Z 0512/0612 15005KT P6SM VCSH SCT004 OVC022
                      TEMPO 0512/0515 BKN004 FM051600 VRB03KT P6SM
                       OVC035 FM052100 32003KT P6SM BKN050 FM060000
                       00000KT P6SM SCT050 FM060600 00000KT P6SM
                       BKN250 FM060800 00000KT 2SM BR BKN004=
202202051120 TAF KPAE 051120Z 0512/0612 15005KT P6SM VCSH FEW025 OVC035 FM051600
                       VRB03KT P6SM OVC035 FM052100 32003KT P6SM
                       BKN050 FM060000 00000KT P6SM SCT050 FM060600
                       00000KT P6SM BKN250 FM060800 00000KT 2SM
                       BR BKN004=
202202051013 KPAE 051013Z 0510/0606 15005KT 1 1/2SM -RA BR SCT010 BKN020 OVC025
                       FM051600 VRB03KT P6SM SCT008 OVC020 FM052100
                       VRB03KT P6SM SCT015 OVC025 FM060000 35006KT
                       P6SM SCT050=
202202050520 TAF KPAE 050520Z 0506/0606 VRB03KT 5SM BR SCT004 OVC008
                      TEMPO 0506/0510 1SM -SHRA OVC004 FM051000
                       VRB03KT P6SM SCT004 BKN008 OVC015 FM051700
                       VRB03KT P6SM SCT008 OVC015 FM052100 VRB03KT
                       P6SM SCT015 OVC025 FM060000 35006KT P6SM
                       SCT050=
202202050314 KPAE 050314Z 0503/0524 22010KT P6SM OVC007 FM050500 VRB03KT 4SM
                       -SHRA OVC004 FM051000 VRB03KT P6SM SCT004
                       BKN008 OVC015 FM051300 02003KT P6SM SCT008
                       OVC015 FM052100 32006KT P6SM OVC025=
202202042320 TAF KPAE 042320Z 0500/0524 17018G32KT P6SM -RA OVC015 FM050300
                       25010KT P6SM -SHRA OVC020 FM051100 02003KT
                       P6SM OVC015 FM052100 32006KT P6SM OVC025=
202202041723 TAF KPAE 041723Z 0418/0518 16010KT P6SM SCT020 OVC030 FM041900
                       16012KT P6SM BKN020 OVC025 FM042200 17015G23KT
                       P6SM -RA OVC015 FM050300 25010KT P6SM -SHRA
                       OVC020 FM051100 02003KT P6SM OVC015=
202202041134 TAF KPAE 041134Z 0412/0512 15007KT P6SM OVC035 FM041600 17010KT
                       P6SM BKN020 OVC030 FM042200 17015G23KT P6SM
                       -RA OVC015 FM050300 20010KT P6SM -SHRA OVC020=
202202040520 TAF KPAE 040520Z 0406/0506 14004KT P6SM BKN030 OVC050 FM040900
                       15005KT P6SM SCT035 OVC060 FM041600 17010KT
                       P6SM BKN020 OVC030 FM042200 17015G23KT P6SM
                       -RA OVC015 FM050300 20010KT P6SM OVC010=
202202040304 KPAE 040304Z 0403/0424 11004KT P6SM OVC025 FM041600 15006KT 5SM
                       -RA BR OVC015 FM041900 17012G25KT P6SM -SHRA
                       OVC015=
202202032328 TAF KPAE 032328Z 0400/0424 15006KT 2SM BR SCT007 OVC015 FM041600
                       15006KT 5SM -RA BR OVC015 FM041900 17012G25KT
                       P6SM -SHRA OVC015=
202202031723 TAF KPAE 031723Z 0318/0418 16009KT 2SM -RA BR OVC005 FM032100 15006KT
                       2SM BR OVC007 FM041600 15006KT 5SM -RA BR
                       OVC015=
202202031121 TAF KPAE 031121Z 0312/0412 14004KT 2SM -RA BR OVC002 FM032100 15006KT
                       2SM BR OVC003=
202202030904 KPAE 030904Z 0309/0406 00000KT 3SM BR OVC003 FM031700 15006KT 3SM
                       -RA BR OVC004 FM032100 16007KT 2SM BR OVC003=
202202030520 TAF KPAE 030520Z 0306/0406 VRB04KT 3SM BR FEW002 OVC010
                      TEMPO 0306/0309 1 1/2SM BR OVC004 FM031700
                       15006KT 1SM -SHRA BR OVC009 FM032000 15005KT
                       1/2SM FG OVC003=
202202022330 TAF KPAE 022330Z 0300/0324 16004KT P6SM -RA OVC020 FM030500 12004KT
                       6SM -RA BR OVC015 FM031700 15006KT 5SM -SHRA
                       BR OVC009=
202202021725 TAF KPAE 021725Z 0218/0318 15005KT P6SM SCT025 OVC080 FM022000
                       17005KT P6SM OVC025 FM022100 16004KT P6SM
                       -RA OVC015 FM030900 12004KT 6SM -RA BR OVC008=
202202021205 KPAE 021205Z 0212/0312 10005KT P6SM SCT005 SCT028 BKN060
                      TEMPO 0212/0216 5SM BR BKN005 OVC028 FM021900
                       17005KT P6SM OVC025 FM022100 16004KT P6SM
                       -RA OVC015 FM030500 16004KT 6SM -RA BR OVC008=
202202021120 TAF KPAE 021120Z 0212/0312 12003KT P6SM SCT025 BKN060
                      TEMPO 0212/0216 5SM BR BKN025 OVC060 FM021900
                       17005KT P6SM OVC025 FM022100 16004KT P6SM
                       -RA OVC015 FM030500 16004KT 6SM -RA BR OVC008=
202202021003 KPAE 021003Z 0210/0306 00000KT P6SM SCT025 BKN050
                      TEMPO 0210/0214 5SM BR OVC025 FM021800 16005KT
                       P6SM -RASN OVC025 FM022100 15006KT 5SM -RA
                       BR OVC015=
202202020520 TAF KPAE 020520Z 0206/0306 VRB03KT 4SM -RA BR BKN025 OVC060 FM020900
                       01003KT 6SM BR BKN050 FM021200 09003KT P6SM
                       FEW030 BKN050 FM021800 16005KT P6SM -RASN
                       OVC025 FM022100 15006KT 5SM -RA BR OVC015=
202202012326 TAF KPAE 012326Z 0200/0224 VRB03KT P6SM SCT035 FM020600 00000KT
                       P6SM FEW030 BKN050 FM021800 16005KT P6SM
                       -RASN OVC025 FM022100 15006KT 5SM -RA BR
                       OVC015=
202202011725 KPAE 011725Z 0117/0218 32004KT 2SM -RA BR SCT005 BKN015 OVC050
                       FM012000 VRB03KT P6SM -SHRA OVC025 FM012200
                       VRB03KT P6SM OVC035 FM020600 00000KT P6SM
                       FEW030 BKN050=
202202011720 TAF KPAE 011720Z 0118/0218 32004KT 5SM -RA BR BKN015 OVC050 FM012000
                       VRB03KT P6SM -SHRA OVC025 FM012200 VRB03KT
                       P6SM OVC035 FM020600 00000KT P6SM FEW030
                       BKN050=
202202011531 KPAE 011531Z 0116/0212 25009KT P6SM -RA OVC009 FM011800 32004KT
                       P6SM BKN030 OVC050 FM020000 VRB03KT P6SM
                       SCT030 BKN050 FM020600 00000KT P6SM FEW030
                       BKN050=
202202011120 TAF KPAE 011120Z 0112/0212 16006KT P6SM SCT025 OVC050
                      TEMPO 0112/0116 5SM -SHRA BR BKN025 OVC050
                       FM011600 VRB03KT P6SM OVC025 FM012000 32004KT
                       P6SM BKN030 OVC050 FM020000 VRB03KT P6SM
                       SCT030 BKN050 FM020600 00000KT P6SM FEW030
                       BKN050=
202202010520 TAF KPAE 010520Z 0106/0206 31003KT P6SM BKN020 OVC040 FM011000
                       VRB03KT P6SM OVC010 FM011400 35002KT P6SM
                       OVC020 FM012100 33003KT P6SM OVC050=