##########################################################
# Query made at 02/15/2025 22:40:34 UTC
# Time interval: from 03/01/2022 00:00  to 03/31/2022 23:59  UTC
##########################################################

##########################################################
# KPAE, Everett, Snohomish County Airport (United States)
# WMO index: -----. WIGOS ID: Unknown
# Latitude 47-55-23N. Longitude 122-16-57W. Altitude 184 m.
##########################################################

###################################
#  METAR/SPECI from KPAE
###################################
202203312353 METAR KPAE 312353Z 27006KT 10SM FEW055 09/02 A3019 RMK AO2 SLP227 T00940022 10106 20072 58009=
202203312253 METAR KPAE 312253Z 25005KT 10SM BKN055 10/04 A3021 RMK AO2 SLP231 T01000039=
202203312153 METAR KPAE 312153Z 25008G15KT 10SM SCT042 BKN048 11/04 A3021 RMK AO2 SLP234 T01060039=
202203312053 METAR KPAE 312053Z 25010KT 10SM BKN037 09/04 A3022 RMK AO2 SLP237 T00890039 56004=
202203311953 METAR KPAE 311953Z 23007KT 10SM FEW015 OVC049 09/03 A3022 RMK AO2 SLP237 T00890033=
202203311853 METAR KPAE 311853Z 25006KT 10SM OVC047 08/04 A3022 RMK AO2 SLP238 T00780039=
202203311753 METAR KPAE 311753Z VRB03KT 10SM FEW010 SCT023 BKN030 08/05 A3023 RMK AO2 SLP240 T00780050 10078 20050 51003=
202203311727 SPECI KPAE 311727Z VRB05KT 10SM BKN011 BKN023 OVC034 07/05 A3024 RMK AO2 T00720050=
202203311703 SPECI KPAE 311703Z 19006KT 10SM FEW009 SCT026 BKN034 07/06 A3023 RMK AO2 T00670056=
202203311653 METAR KPAE 311653Z 19004KT 10SM FEW021 SCT026 OVC034 06/06 A3023 RMK AO2 SLP240 T00610056=
202203311602 SPECI KPAE 311602Z 19007KT 10SM BKN004 OVC048 06/06 A3023 RMK AO2 T00560056=
202203311553 METAR KPAE 311553Z 18004KT 10SM BKN003 BKN028 OVC046 06/06 A3023 RMK AO2 SLP239 T00560056=
202203311503 SPECI KPAE 311503Z 18004KT 10SM BKN003 BKN028 OVC046 05/05 A3022 RMK AO2 T00500050=
202203311453 METAR KPAE 311453Z 10SM SCT003 SCT030 OVC046 05/05 A3022 RMK AO2 SLP237 T00500050 53001=
202203311353 METAR KPAE 311353Z 18007KT 10SM BKN027 OVC033 05/05 A3021 RMK AO2 SLP234 T00500050=
202203311253 METAR KPAE 311253Z AUTO VRB05KT 10SM FEW020 SCT029 OVC055 06/05 A3022 RMK AO2 SLP235 T00560050 $=
202203311236 SPECI KPAE 311236Z AUTO 18004KT 10SM SCT027 OVC055 05/05 A3022 RMK AO2 T00500050 $=
202203311153 METAR KPAE 311153Z AUTO 16005KT 10SM SCT020 BKN026 OVC055 05/05 A3022 RMK AO2 RAE33 SLP236 P0000 60006 7//// T00500050 10067 20050 55000 $=
202203311053 METAR KPAE 311053Z AUTO 16004KT 10SM -RA FEW004 BKN028 OVC036 05/05 A3022 RMK AO2 RAB47 SLP235 P0000 T00500050 $=
202203310953 METAR KPAE 310953Z AUTO 16007KT 10SM SCT003 BKN033 OVC060 06/06 A3022 RMK AO2 SLP237 T00560056 $=
202203310950 SPECI KPAE 310950Z AUTO 15006KT 10SM SCT003 SCT030 BKN038 06/06 A3022 RMK AO2 $=
202203310933 SPECI KPAE 310933Z AUTO 16004KT 10SM FEW022 BKN035 OVC060 06/06 A3022 RMK AO2 T00560056 $=
202203310923 SPECI KPAE 310923Z AUTO 19003KT 10SM SCT021 BKN029 OVC060 06/06 A3022 RMK AO2 T00560056 $=
202203310853 METAR KPAE 310853Z AUTO 15004KT 10SM FEW021 SCT042 06/06 A3022 RMK AO2 RAE11 SLP236 P0000 60006 T00560056 53003 $=
202203310807 SPECI KPAE 310807Z AUTO 18003KT 10SM -RA SCT021 BKN044 OVC065 06/06 A3022 RMK AO2 P0000 T00560056 $=
202203310753 METAR KPAE 310753Z AUTO 23003KT 6SM -RA BR BKN018 BKN026 OVC039 06/06 A3022 RMK AO2 SLP235 P0001 T00560056 401110056 $=
202203310728 SPECI KPAE 310728Z AUTO 18006KT 7SM -RA SCT013 OVC022 06/06 A3022 RMK AO2 P0000 T00610061 $=
202203310702 SPECI KPAE 310702Z AUTO 00000KT 8SM -RA BKN014 OVC025 06/06 A3022 RMK AO2 P0000 T00610056=
202203310653 METAR KPAE 310653Z AUTO 00000KT 2SM RA BR BKN014 OVC022 06/06 A3021 RMK AO2 RAB30 SLP234 P0005 T00610061=
202203310647 SPECI KPAE 310647Z AUTO 23003KT 2 1/2SM +RA BR OVC013 06/06 A3022 RMK AO2 VIS 1 3/4V4 RAB30 P0004=
202203310632 SPECI KPAE 310632Z AUTO 21004KT 9SM -RA OVC015 07/06 A3021 RMK AO2 RAB30 P0000 T00670056=
202203310553 METAR KPAE 310553Z AUTO 02004KT 10SM OVC014 07/06 A3021 RMK AO2 RAE13 SLP233 P0000 60007 T00670061 10083 20067 50004=
202203310453 METAR KPAE 310453Z AUTO 00000KT 10SM -RA BKN012 OVC022 07/06 A3021 RMK AO2 RAE05B35 SLP234 P0000 T00720061=
202203310400 SPECI KPAE 310400Z AUTO 00000KT 10SM -RA BKN016 OVC022 07/06 A3021 RMK AO2 P0000 T00720061=
202203310353 METAR KPAE 310353Z 00000KT 3SM -RA BR OVC033 07/06 A3021 RMK AO2 SLP232 P0000 T00720061=
202203310253 METAR KPAE 310253Z 00000KT 3SM -RA BR OVC033 07/07 A3020 RMK AO2 SLP229 P0001 60007 T00720067 50001=
202203310153 METAR KPAE 310153Z 00000KT 3SM -RA BR SCT024 OVC033 07/07 A3020 RMK AO2 SLP231 P0006 T00670067=
202203310127 SPECI KPAE 310127Z 28003KT 3SM -RA BR FEW017 OVC027 07/07 A3020 RMK AO2 P0005 T00720072=
202203310108 SPECI KPAE 310108Z 33003KT 1 3/4SM RA BR OVC029 07/07 A3020 RMK AO2 P0002 T00720072=
202203310053 METAR KPAE 310053Z 31003KT 2 1/2SM -RA BR BKN031 OVC047 07/07 A3020 RMK AO2 SLP231 P0000 T00720067=
202203302353 METAR KPAE 302353Z 35007KT 10SM -RA BKN040 OVC050 08/06 A3020 RMK AO2 RAE00B47 SLP228 P0000 60005 T00830056 10111 20078 50001=
202203302253 METAR KPAE 302253Z 02004KT 10SM -RA FEW036 BKN060 OVC070 09/06 A3020 RMK AO2 SLP228 VIS SE 2 P0001 T00890061=
202203302200 SPECI KPAE 302200Z 28007KT 4SM RA BR SCT013 BKN027 OVC034 08/07 A3021 RMK AO2 VIS SE 2 P0000 T00780067=
202203302153 METAR KPAE 302153Z 32006KT 3SM -RA BR BKN013 BKN027 OVC037 08/06 A3020 RMK AO2 RAB2054 SLP229 P0004 T00830061=
202203302134 SPECI KPAE 302134Z 36004KT 3SM RA BR BKN013 BKN027 OVC037 08/06 A3020 RMK AO2 RAB2054 P0002 T00830061=
202203302053 METAR KPAE 302053Z 35008KT 10SM BKN036 BKN055 OVC090 10/04 A3019 RMK AO2 SLP227 60000 T01000039 51007=
202203301953 METAR KPAE 301953Z 36007KT 10SM SCT020 BKN050 BKN100 10/04 A3019 RMK AO2 SLP225 T01000044=
202203301853 METAR KPAE 301853Z 36004KT 10SM SCT010 BKN020 BKN042 09/06 A3019 RMK AO2 RAB08E17 SLP224 P0000 T00890056=
202203301837 SPECI KPAE 301837Z 33004KT 10SM BKN011 BKN020 BKN025 08/06 A3018 RMK AO2 RAB08E17 P0000 T00830056=
202203301805 SPECI KPAE 301805Z VRB04KT 10SM SCT018 BKN025 OVC035 08/07 A3018 RMK AO2 T00830067=
202203301757 SPECI KPAE 301757Z 27004KT 10SM FEW020 BKN030 OVC048 08/07 A3017 RMK AO2 T00830072=
202203301753 METAR KPAE 301753Z 27004KT 10SM BKN014 OVC027 08/08 A3017 RMK AO2 RAB17E47 SLP219 P0000 6//// T00830078 10083 20067 53012=
202203301730 SPECI KPAE 301730Z VRB05KT 4SM -RA BR BKN014 OVC027 08/07 A3017 RMK AO2 RAB17 P0000 T00780072=
202203301723 SPECI KPAE 301723Z 24006KT 7SM -RA SCT014 OVC027 08/07 A3017 RMK AO2 RAB17 P0000 T00780072=
202203301653 METAR KPAE 301653Z 27006KT 10SM BKN014 OVC045 08/07 A3016 RMK AO2 SLP216 T00780067=
202203301604 SPECI KPAE 301604Z 23005KT 10SM BKN010 08/07 A3015 RMK AO2 T00780067=
202203301553 METAR KPAE 301553Z 22006KT 10SM BKN051 OVC060 08/06 A3015 RMK AO2 SLP211 T00780061=
202203301453 METAR KPAE 301453Z 20007KT 10SM BKN048 OVC060 07/06 A3014 RMK AO2 RAE1357 SLP208 P0000 60000 T00670061 51010=
202203301353 METAR KPAE 301353Z 20007KT 10SM -RA FEW042 BKN055 OVC070 07/07 A3013 RMK AO2 RAB1255 SLP205 P0000 T00670067=
202203301325 SPECI KPAE 301325Z AUTO 20006KT 10SM -RA FEW020 SCT028 OVC046 07/07 A3013 RMK AO2 RAB1255 P0000 T00670067=
202203301253 METAR KPAE 301253Z AUTO 20006KT 10SM OVC021 07/06 A3012 RMK AO2 RAB14E35 SLP202 P0000 T00720061 $=
202203301221 SPECI KPAE 301221Z AUTO 20009KT 10SM -RA BKN020 BKN055 OVC070 07/06 A3012 RMK AO2 RAB14 P0000 T00720056 $=
202203301214 SPECI KPAE 301214Z AUTO 20009KT 10SM -RA SCT018 BKN035 OVC070 08/06 A3011 RMK AO2 RAB14 P0000 T00780056 $=
202203301153 METAR KPAE 301153Z AUTO 20011KT 10SM BKN018 OVC080 08/05 A3011 RMK AO2 SLP196 T00780050 10094 20078 53002 $=
202203301053 METAR KPAE 301053Z AUTO 19013KT 10SM OVC022 08/04 A3010 RMK AO2 SLP194 T00780044 $=
202203300953 METAR KPAE 300953Z AUTO 18008KT 10SM OVC023 08/05 A3010 RMK AO2 SLP194 T00780050 $=
202203300939 SPECI KPAE 300939Z AUTO 19009KT 10SM BKN023 BKN044 08/05 A3010 RMK AO2 T00780050 $=
202203300853 METAR KPAE 300853Z AUTO 19009KT 10SM BKN038 OVC046 08/05 A3010 RMK AO2 SLP194 T00780050 53010 $=
202203300753 METAR KPAE 300753Z AUTO 18009KT 10SM OVC030 08/05 A3008 RMK AO2 SLP189 T00830050 401390056 $=
202203300653 METAR KPAE 300653Z AUTO 20009KT 10SM OVC030 09/05 A3008 RMK AO2 SLP187 T00890050 $=
202203300600 SPECI KPAE 300600Z AUTO 21011KT 10SM FEW023 BKN029 09/06 A3007 RMK AO2 T00940056 $=
202203300553 METAR KPAE 300553Z AUTO 20011KT 10SM SCT025 BKN032 09/06 A3007 RMK AO2 SLP185 T00940056 10133 20094 50003 $=
202203300549 SPECI KPAE 300549Z AUTO 21012KT 10SM BKN027 BKN032 09/06 A3007 RMK AO2 $=
202203300453 METAR KPAE 300453Z AUTO 19010KT 10SM CLR 10/08 A3007 RMK AO2 SLP183 T01000078 $=
202203300353 METAR KPAE 300353Z 20009KT 10SM BKN033 11/08 A3006 RMK AO2 SLP181 T01110083 $=
202203300253 METAR KPAE 300253Z 19010KT 10SM OVC033 12/08 A3005 RMK AO2 SLP178 T01170083 53001 $=
202203300153 METAR KPAE 300153Z 22009KT 10SM BKN041 12/08 A3005 RMK AO2 SLP177 T01220078 $=
202203300053 METAR KPAE 300053Z 21009KT 10SM OVC045 13/08 A3005 RMK AO2 SLP177 T01280078 $=
202203292353 METAR KPAE 292353Z 21009KT 10SM FEW032 OVC041 13/08 A3005 RMK AO2 SLP176 T01330078 10139 20094 58001 $=
202203292253 METAR KPAE 292253Z 22008KT 10SM OVC037 13/08 A3005 RMK AO2 SLP177 T01330083 $=
202203292153 METAR KPAE 292153Z 19008G14KT 10SM SCT028 BKN035 14/07 A3005 RMK AO2 SLP177 T01390072 $=
202203292151 SPECI KPAE 292151Z 18009G14KT 10SM SCT028 BKN035 14/07 A3005 RMK AO2 $=
202203292120 SPECI KPAE 292120Z 17005KT 10SM BKN029 13/08 A3005 RMK AO2 T01330078 $=
202203292100 SPECI KPAE 292100Z 24006KT 10SM BKN031 13/09 A3005 RMK AO2 T01280094 $=
202203292053 METAR KPAE 292053Z VRB04KT 10SM SCT012 BKN018 OVC029 13/09 A3006 RMK AO2 SLP179 T01280094 58001 $=
202203291953 METAR KPAE 291953Z 26006KT 10SM BKN020 OVC029 11/09 A3006 RMK AO2 SLP182 T01060094 $=
202203291945 SPECI KPAE 291945Z 25005KT 10SM FEW022 OVC028 11/09 A3006 RMK AO2 T01110094 $=
202203291926 SPECI KPAE 291926Z 25006KT 10SM FEW017 OVC030 12/09 A3006 RMK AO2 T01170089 $=
202203291853 METAR KPAE 291853Z AUTO 18005KT 10SM OVC029 11/09 A3006 RMK AO2 SLP180 T01110089 $=
202203291753 METAR KPAE 291753Z AUTO 00000KT 10SM OVC028 09/09 A3006 RMK AO2 SLP180 T00940094 10106 20061 52010 $=
202203291738 SPECI KPAE 291738Z AUTO 3SM BR OVC028 09/09 A3006 RMK AO2 T00940094 $=
202203291735 SPECI KPAE 291735Z AUTO 00000KT 1/2SM R16R/P6000FT FG OVC028 09/09 A3006 RMK AO2 T00940094 $=
202203291653 METAR KPAE 291653Z AUTO 00000KT 10SM OVC028 09/09 A3005 RMK AO2 SLP177 T00940094=
202203291553 METAR KPAE 291553Z 00000KT 10SM OVC027 08/07 A3004 RMK AO2 SLP173 T00830067 $=
202203291453 METAR KPAE 291453Z 10SM OVC027 07/07 A3003 RMK AO2 SLP171 T00720072 53012=
202203291417 SPECI KPAE 291417Z 00000KT 5SM R16R/2200VP6000FT BR SCT001 OVC027 07/07 A3002 RMK AO2 T00670067=
202203291407 SPECI KPAE 291407Z 00000KT 1/4SM R16R/5000VP6000FT FG BKN001 OVC027 06/06 A3002 RMK AO2 T00610061=
202203291358 SPECI KPAE 291358Z 00000KT 1/2SM R16R/P6000FT FG BKN001 OVC027 06/06 A3001 RMK AO2 T00610061=
202203291353 METAR KPAE 291353Z 00000KT 1/4SM R16R/P6000FT FG FEW001 BKN027 06/06 A3001 RMK AO2 SLP165 T00610061=
202203291349 SPECI KPAE 291349Z 00000KT 3/4SM R16R/P6000FT BR FEW001 BKN027 06/06 A3001 RMK AO2=
202203291345 SPECI KPAE 291345Z 00000KT 2 1/2SM BR FEW001 BKN027 06/06 A3001 RMK AO2 T00610061=
202203291253 METAR KPAE 291253Z AUTO 00000KT 10SM OVC027 07/07 A3000 RMK AO2 SLP159 T00720067 $=
202203291153 METAR KPAE 291153Z AUTO 00000KT 10SM OVC025 08/07 A2999 RMK AO2 SLP157 T00780067 10078 20056 57001 $=
202203291053 METAR KPAE 291053Z AUTO 00000KT 10SM OVC026 07/07 A2999 RMK AO2 SLP157 T00720067 $=
202203290953 METAR KPAE 290953Z AUTO 00000KT 10SM OVC025 07/07 A2999 RMK AO2 SLP158 T00720067 $=
202203290907 SPECI KPAE 290907Z AUTO 33003KT 10SM BKN023 06/06 A3000 RMK AO2 T00610056 $=
202203290853 METAR KPAE 290853Z AUTO 33003KT 10SM FEW023 06/05 A2999 RMK AO2 SLP159 T00560050 51016 $=
202203290753 METAR KPAE 290753Z AUTO 00000KT 10SM OVC055 07/06 A2998 RMK AO2 SLP154 T00720056 401000072 $=
202203290653 METAR KPAE 290653Z AUTO 00000KT 10SM OVC055 08/07 A2997 RMK AO2 SLP149 T00780067 $=
202203290553 METAR KPAE 290553Z AUTO 00000KT 10SM BKN055 07/07 A2995 RMK AO2 SLP143 T00720067 10100 20072 51019 $=
202203290453 METAR KPAE 290453Z AUTO 01003KT 10SM CLR 08/07 A2993 RMK AO2 SLP138 T00780072 $=
202203290353 METAR KPAE 290353Z AUTO 00000KT 10SM CLR 08/08 A2991 RMK AO2 SLP131 T00830078 $=
202203290253 METAR KPAE 290253Z 32003KT 10SM BKN050 08/08 A2989 RMK AO2 SLP123 T00830078 53013 $=
202203290201 SPECI KPAE 290201Z 34004KT 10SM OVC030 09/08 A2987 RMK AO2 T00940083 $=
202203290153 METAR KPAE 290153Z 34004KT 10SM BKN029 09/08 A2987 RMK AO2 SLP117 T00940083 $=
202203290053 METAR KPAE 290053Z 34005KT 10SM FEW005 BKN016 OVC028 09/09 A2985 RMK AO2 SLP111 T00940089 $=
202203290044 SPECI KPAE 290044Z VRB04KT 10SM SCT005 OVC016 09/09 A2985 RMK AO2 T00940089 $=
202203290000 SPECI KPAE 290000Z 32005KT 10SM OVC002 09/09 A2985 RMK AO2 T00890089 $=
202203282353 METAR KPAE 282353Z 32004KT 1SM R16R/P6000FT BR OVC002 09/09 A2985 RMK AO2 SLP110 60000 T00890089 10094 20089 53008 $=
202203282329 SPECI KPAE 282329Z 34005KT 1SM R16R/P6000FT BR OVC002 09/09 A2985 RMK AO2 T00890089 $=
202203282307 SPECI KPAE 282307Z 34006KT 1SM R16R/P6000FT BR OVC001 09/09 A2985 RMK AO2 T00890089 $=
202203282304 SPECI KPAE 282304Z 35006KT 3SM R16R/3500VP6000FT BR OVC002 09/09 A2985 RMK AO2 T00890089 $=
202203282253 METAR KPAE 282253Z 35005KT 1SM R16R/2800VP6000FT BR OVC002 09/09 A2984 RMK AO2 SLP107 T00890089 $=
202203282208 SPECI KPAE 282208Z 34005KT 1SM R16R/P6000FT BR OVC002 09/09 A2984 RMK AO2 T00890089 $=
202203282155 SPECI KPAE 282155Z 35006KT 10SM OVC002 09/09 A2983 RMK AO2 T00890089=
202203282153 METAR KPAE 282153Z 36006KT 3/4SM R16R/P6000FT BR OVC001 09/09 A2983 RMK AO2 SLP104 T00890089=
202203282119 SPECI KPAE 282119Z 35007KT 3/4SM R16R/P6000FT BR OVC001 09/ A2983 RMK AO2 T0089=
202203282053 METAR KPAE 282053Z 35006KT 3/4SM R16R/P6000FT BR OVC002 09/09 A2983 RMK AO2 SLP102 60000 T00890089 53014 $=
202203282034 SPECI KPAE 282034Z 36006KT 1/2SM R16R/P6000FT FG OVC002 09/09 A2982 RMK AO2 T00890089 $=
202203282015 SPECI KPAE 282015Z 36004KT 1 1/2SM BR OVC003 09/ A2982 RMK AO2 T0094 $=
202203281953 METAR KPAE 281953Z 31005KT 4SM HZ OVC003 09/ A2982 RMK AO2 CIG 002V007 SLP098 T0089 $=
202203281853 METAR KPAE 281853Z VRB04KT 6SM HZ OVC005 09/ A2980 RMK AO2 RAE43 SLP092 P0000 T0094 $=
202203281803 SPECI KPAE 281803Z 00000KT 5SM -RA OVC005 09/ A2979 RMK AO2 P0000 T0094 $=
202203281753 METAR KPAE 281753Z 35003KT 6SM -RA BR SCT006 BKN018 OVC034 09/09 A2979 RMK AO2 RAB18 SLP089 P0000 60000 T00940094 10100 20089 51011 $=
202203281751 SPECI KPAE 281751Z 35003KT 5SM -RA BR SCT006 BKN018 OVC034 09/09 A2979 RMK AO2 RAB18 P0000 $=
202203281653 METAR KPAE 281653Z 00000KT 10SM OVC008 10/ A2978 RMK AO2 SLP084 T0100=
202203281618 SPECI KPAE 281618Z AUTO 36004KT 10SM OVC009 10/ A2976 RMK AO2 T0100 $=
202203281608 SPECI KPAE 281608Z AUTO 00000KT 10SM OVC010 10/ A2976 RMK AO2 T0100=
202203281553 METAR KPAE 281553Z 00000KT 10SM FEW027 OVC040 10/ A2976 RMK AO2 SLP076 T0100 $=
202203281453 METAR KPAE 281453Z 00000KT 10SM FEW027 OVC040 09/ A2975 RMK AO2 SLP073 T0094 51015 $=
202203281353 METAR KPAE 281353Z 36004KT 10SM FEW024 OVC036 09/08 A2973 RMK AO2 SLP068 T00940083=
202203281345 SPECI KPAE 281345Z 00000KT 10SM SCT022 BKN034 OVC120 09/08 A2973 RMK AO2 T00940083=
202203281253 METAR KPAE 281253Z AUTO 30003KT 10SM OVC020 09/09 A2973 RMK AO2 SLP066 T00940089 $=
202203281153 METAR KPAE 281153Z AUTO 36003KT 10SM OVC016 09/09 A2970 RMK AO2 SLP058 T00890089 10100 20083 52003 $=
202203281112 SPECI KPAE 281112Z AUTO 01004KT 10SM SCT015 BKN021 OVC100 09/09 A2969 RMK AO2 T00890089 $=
202203281053 METAR KPAE 281053Z AUTO 02005KT 10SM FEW012 BKN100 09/08 A2969 RMK AO2 SLP054 T00890083 $=
202203280953 METAR KPAE 280953Z AUTO 00000KT 10SM SCT036 BKN110 09/08 A2970 RMK AO2 SLP058 T00890083 $=
202203280917 SPECI KPAE 280917Z AUTO 00000KT 10SM SCT008 SCT100 09/08 A2970 RMK AO2 T00890083 $=
202203280853 METAR KPAE 280853Z AUTO 36005KT 10SM OVC007 09/09 A2969 RMK AO2 SLP054 T00940089 50000 $=
202203280828 SPECI KPAE 280828Z AUTO 34003KT 10SM BKN006 09/08 A2970 RMK AO2 T00890083 $=
202203280820 SPECI KPAE 280820Z AUTO 33004KT 10SM SCT008 09/08 A2970 RMK AO2 T00890083 $=
202203280753 METAR KPAE 280753Z AUTO 33004KT 10SM CLR 08/08 A2970 RMK AO2 SLP057 T00830083 401390078 $=
202203280653 METAR KPAE 280653Z AUTO 00000KT 10SM CLR 09/08 A2969 RMK AO2 SLP054 T00940083 $=
202203280553 METAR KPAE 280553Z AUTO 00000KT 10SM FEW031 09/08 A2969 RMK AO2 SLP054 T00940083 10128 20094 51006 $=
202203280453 METAR KPAE 280453Z AUTO 33004KT 10SM CLR 10/08 A2968 RMK AO2 SLP053 T01000083 $=
202203280353 METAR KPAE 280353Z 30006KT 10SM FEW120 11/08 A2968 RMK AO2 SLP052 T01060083 $=
202203280253 METAR KPAE 280253Z 33003KT 10SM SCT110 11/08 A2967 RMK AO2 SLP048 T01110083 53001 $=
202203280153 METAR KPAE 280153Z 33004KT 10SM OVC110 11/08 A2966 RMK AO2 SLP046 T01060083 $=
202203280053 METAR KPAE 280053Z 01005KT 10SM SCT110 12/09 A2966 RMK AO2 SLP044 T01170089 $=
202203272353 METAR KPAE 272353Z 32003KT 10SM CLR 13/10 A2967 RMK AO2 SLP046 T01280100 10139 20106 55006 $=
202203272253 METAR KPAE 272253Z 28003KT 10SM FEW110 14/09 A2966 RMK AO2 SLP045 T01390094 $=
202203272153 METAR KPAE 272153Z 27005KT 10SM CLR 13/09 A2967 RMK AO2 SLP048 T01330094 $=
202203272053 METAR KPAE 272053Z 27003KT 10SM CLR 13/09 A2968 RMK AO2 SLP052 T01330089 58009 $=
202203271953 METAR KPAE 271953Z 26005KT 10SM CLR 12/09 A2970 RMK AO2 SLP057 T01220094 $=
202203271853 METAR KPAE 271853Z 26004KT 10SM CLR 11/09 A2971 RMK AO2 SLP061 T01110094 $=
202203271753 METAR KPAE 271753Z VRB03KT 10SM SCT004 11/09 A2971 RMK AO2 SLP062 T01110089 10111 20078 56005 $=
202203271653 METAR KPAE 271653Z 00000KT 10SM SCT003 09/08 A2971 RMK AO2 SLP063 T00940083 $=
202203271553 METAR KPAE 271553Z 01003KT 9SM OVC003 08/08 A2971 RMK AO2 SLP063 T00830078 $=
202203271453 METAR KPAE 271453Z 34003KT 6SM HZ BKN002 08/ A2973 RMK AO2 SLP067 T0078 58002 $=
202203271430 SPECI KPAE 271430Z 34004KT 2SM BR OVC002 08/08 A2972 RMK AO2 T00780078 $=
202203271353 METAR KPAE 271353Z 36004KT 7SM SCT003 OVC070 08/08 A2973 RMK AO2 SLP069 T00780078=
202203271253 METAR KPAE 271253Z AUTO 33004KT 8SM FEW003 SCT070 08/08 A2973 RMK AO2 SLP069 T00780078=
202203271248 SPECI KPAE 271248Z AUTO 34004KT 7SM FEW003 BKN070 08/08 A2973 RMK AO2=
202203271153 METAR KPAE 271153Z AUTO 36004KT 6SM BR BKN002 08/08 A2973 RMK AO2 SLP067 60000 T00780078 10089 20078 56013=
202203271133 SPECI KPAE 271133Z AUTO 35005KT 7SM FEW002 08/08 A2974 RMK AO2 T00780078=
202203271053 METAR KPAE 271053Z AUTO 36006KT 10SM CLR 08/08 A2974 RMK AO2 SLP073 T00780078=
202203270953 METAR KPAE 270953Z AUTO 35005KT 10SM BKN080 BKN100 08/08 A2977 RMK AO2 SLP081 T00780078=
202203270853 METAR KPAE 270853Z AUTO 34003KT 10SM BKN080 OVC095 08/07 A2978 RMK AO2 RAB28E52 SLP086 P0000 60000 T00780072 58009=
202203270753 METAR KPAE 270753Z AUTO 36004KT 10SM OVC110 08/07 A2979 RMK AO2 SLP089 T00830072 401440078=
202203270653 METAR KPAE 270653Z AUTO 35004KT 10SM FEW120 08/07 A2981 RMK AO2 SLP094 T00830072=
202203270553 METAR KPAE 270553Z AUTO 35006KT 10SM SCT080 09/07 A2981 RMK AO2 SLP096 60000 T00890072 10144 20089 58014=
202203270453 METAR KPAE 270453Z AUTO 01003KT 10SM OVC100 09/08 A2983 RMK AO2 SLP102 T00940078=
202203270353 METAR KPAE 270353Z AUTO 00000KT 10SM OVC100 10/08 A2984 RMK AO2 SLP106 T01000078=
202203270253 METAR KPAE 270253Z 36004KT 10SM SCT085 BKN120 10/08 A2985 RMK AO2 RAB08E19 SLP110 P0000 60000 T01000078 58014=
202203270153 METAR KPAE 270153Z 28003KT 10SM FEW055 BKN065 OVC085 12/08 A2987 RMK AO2 SLP115 T01170083=
202203270053 METAR KPAE 270053Z 16006KT 10SM OVC060 14/08 A2988 RMK AO2 SLP118 T01390083=
202203262353 METAR KPAE 262353Z 16009KT 10SM FEW049 BKN060 OVC075 14/08 A2989 RMK AO2 SLP123 60000 T01390083 10144 20111 58014=
202203262253 METAR KPAE 262253Z AUTO 18009KT 10SM FEW031 OVC065 14/08 A2991 RMK AO2 RAB04E28 SLP129 P0000 T01440083=
202203262153 METAR KPAE 262153Z 19009KT 10SM SCT031 BKN046 OVC055 14/08 A2992 RMK AO2 RAB37E48 SLP132 P0000 T01390078=
202203262053 METAR KPAE 262053Z 23008KT 10SM SCT031 OVC041 13/07 A2994 RMK AO2 SLP137 T01330067 56006=
202203261953 METAR KPAE 261953Z 15009KT 10SM OVC031 13/06 A2994 RMK AO2 SLP138 T01280056=
202203261853 METAR KPAE 261853Z 18010KT 10SM OVC033 13/06 A2995 RMK AO2 SLP142 T01280056=
202203261753 METAR KPAE 261753Z 14007KT 10SM BKN037 BKN044 OVC065 11/06 A2995 RMK AO2 SLP145 60000 T01110056 10111 20078 58004=
202203261653 METAR KPAE 261653Z 15008KT 10SM FEW048 BKN070 BKN090 10/06 A2997 RMK AO2 SLP149 T01000056=
202203261553 METAR KPAE 261553Z 16005KT 10SM FEW046 BKN065 OVC080 09/05 A2997 RMK AO2 SLP149 T00890050=
202203261453 METAR KPAE 261453Z 11005KT 10SM OVC049 08/04 A2997 RMK AO2 SLP149 60000 T00830044 58006=
202203261353 METAR KPAE 261353Z 15004KT 10SM BKN050 OVC065 08/04 A2997 RMK AO2 SLP150 T00830044=
202203261253 METAR KPAE 261253Z 16010KT 10SM BKN060 OVC080 08/04 A2998 RMK AO2 RAB18E35 SLP154 P0000 T00830044=
202203261153 METAR KPAE 261153Z 16005KT 10SM BKN070 OVC090 08/05 A2999 RMK AO2 SLP155 60000 T00830050 10089 20078 58004=
202203261053 METAR KPAE 261053Z 16004KT 10SM BKN070 OVC085 08/05 A2999 RMK AO2 RAE01 SLP157 P0000 T00830050=
202203260953 METAR KPAE 260953Z VRB03KT 10SM -RA OVC070 09/06 A3000 RMK AO2 RAB26 SLP159 P0000 T00890056=
202203260853 METAR KPAE 260853Z VRB03KT 10SM BKN075 OVC095 09/06 A3000 RMK AO2 SLP159 T00890056 56009=
202203260753 METAR KPAE 260753Z 00000KT 10SM BKN100 OVC110 08/06 A3000 RMK AO2 SLP160 T00830061 401330056=
202203260653 METAR KPAE 260653Z 00000KT 10SM SCT120 08/06 A3002 RMK AO2 SLP166 T00830061=
202203260553 METAR KPAE 260553Z 36003KT 10SM CLR 08/06 A3003 RMK AO2 SLP170 T00830061 10133 20078 56007=
202203260453 METAR KPAE 260453Z 01003KT 10SM CLR 09/06 A3004 RMK AO2 SLP173 T00890061=
202203260353 METAR KPAE 260353Z 35004KT 10SM SCT080 BKN120 09/06 A3004 RMK AO2 SLP173 T00940061=
202203260253 METAR KPAE 260253Z 01004KT 10SM OVC080 11/05 A3005 RMK AO2 SLP177 T01060050 58001=
202203260153 METAR KPAE 260153Z 32003KT 10SM OVC090 12/05 A3004 RMK AO2 SLP176 T01220050=
202203260053 METAR KPAE 260053Z 24005KT 10SM OVC090 13/04 A3006 RMK AO2 SLP181 T01280044=
202203252353 METAR KPAE 252353Z 23006KT 10SM OVC110 13/04 A3005 RMK AO2 SLP178 T01280044 10133 20100 56009=
202203252253 METAR KPAE 252253Z 25005KT 10SM BKN090 OVC110 12/03 A3006 RMK AO2 SLP180 T01220033=
202203252153 METAR KPAE 252153Z VRB03KT 10SM FEW050 BKN100 12/05 A3007 RMK AO2 SLP183 T01220050=
202203252053 METAR KPAE 252053Z 20004KT 10SM OVC100 12/05 A3008 RMK AO2 SLP187 T01220050 50003=
202203251953 METAR KPAE 251953Z 24006KT 10SM BKN049 BKN060 OVC100 10/07 A3009 RMK AO2 SLP190 T01000067=
202203251853 METAR KPAE 251853Z 24006KT 10SM FEW055 OVC100 10/06 A3008 RMK AO2 SLP186 T01000061=
202203251753 METAR KPAE 251753Z 19008KT 10SM BKN110 10/06 A3007 RMK AO2 SLP184 T01000061 10100 20056 53001=
202203251653 METAR KPAE 251653Z 20006KT 10SM FEW060 SCT120 08/06 A3006 RMK AO2 SLP183 T00830061=
202203251553 METAR KPAE 251553Z 00000KT 10SM BKN065 07/06 A3006 RMK AO2 SLP182 T00720061=
202203251453 METAR KPAE 251453Z 00000KT 10SM SCT060 07/06 A3007 RMK AO2 SLP184 T00670056 53008=
202203251353 METAR KPAE 251353Z 00000KT 10SM R16R/6000FT OVC060 07/06 A3006 RMK AO2 SLP182 T00670056=
202203251253 METAR KPAE 251253Z AUTO 00000KT 10SM R16R/6000FT OVC060 07/05 A3005 RMK AO2 SLP177 T00670050=
202203251153 METAR KPAE 251153Z AUTO 00000KT 10SM R16R/6000FT CLR 07/05 A3004 RMK AO2 SLP175 T00670050 10072 20056 55002=
202203251053 METAR KPAE 251053Z AUTO 00000KT 10SM R16R/6000FT CLR 06/06 A3004 RMK AO2 SLP175 T00610056=
202203250953 METAR KPAE 250953Z AUTO 00000KT 10SM R16R/6000FT FEW060 06/06 A3005 RMK AO2 SLP179 T00610056=
202203250853 METAR KPAE 250853Z AUTO 08003KT 10SM R16R/6000FT BKN065 06/06 A3005 RMK AO2 SLP179 T00610056 58005=
202203250753 METAR KPAE 250753Z AUTO 02004KT 10SM R16R/6000FT OVC070 07/06 A3006 RMK AO2 SLP183 T00670056 400940022=
202203250653 METAR KPAE 250653Z AUTO 34003KT 10SM R16R/6000FT SCT070 06/06 A3007 RMK AO2 SLP184 T00610056=
202203250553 METAR KPAE 250553Z AUTO 35004KT 10SM R16R/6000FT CLR 06/06 A3007 RMK AO2 SLP184 T00610056 10094 20061 55001=
202203250453 METAR KPAE 250453Z 35005KT 10SM R16R/6000FT CLR 07/06 A3006 RMK AO2 SLP182 T00670056=
202203250353 METAR KPAE 250353Z 35005KT 10SM R16R/6000FT CLR 07/06 A3006 RMK AO2 SLP182 T00720056=
202203250253 METAR KPAE 250253Z 34004KT 10SM R16R/6000FT CLR 08/05 A3007 RMK AO2 SLP185 T00780050 56019=
202203250153 METAR KPAE 250153Z 34003KT 10SM R16R/6000FT CLR 09/05 A3008 RMK AO2 SLP187 T00890050=
202203250053 METAR KPAE 250053Z 35003KT 10SM R16R/6000FT CLR 09/05 A3010 RMK AO2 SLP196 T00940050=
202203242353 METAR KPAE 242353Z 35005KT 10SM R16R/6000FT CLR 09/05 A3012 RMK AO2 SLP204 T00940050 10094 20061 56030=
202203242253 METAR KPAE 242253Z 34006KT 10SM R16R/6000FT CLR 09/05 A3016 RMK AO2 SLP216 T00940050=
202203242201 SPECI KPAE 242201Z 34005KT 10SM R16R/0200VP6000FT CLR 09/05 A3017 RMK AO2 T00890050=
202203242153 METAR KPAE 242153Z 35005KT 10SM R16R/0100V0200FT CLR 09/05 A3017 RMK AO2 SLP221 T00940050=
202203242053 METAR KPAE 242053Z 36006KT 10SM CLR 09/05 A3021 RMK AO2 SLP234 T00890050 58020=
202203241953 METAR KPAE 241953Z 36008KT 10SM CLR 08/04 A3024 RMK AO2 SLP245 T00780039=
202203241853 METAR KPAE 241853Z 01006KT 10SM CLR 06/04 A3027 RMK AO2 SLP253 T00610039=
202203241753 METAR KPAE 241753Z 02005KT 10SM CLR 07/04 A3027 RMK AO2 SLP255 T00670039 10067 20022 56014=
202203241716 SPECI KPAE 241716Z VRB03KT 10SM SCT006 05/04 A3029 RMK AO2 T00500039=
202203241708 SPECI KPAE 241708Z 01006KT 10SM BKN006 05/03 A3029 RMK AO2 CIG 005V009 T00500033=
202203241653 METAR KPAE 241653Z 35004KT 10SM FEW008 05/03 A3029 RMK AO2 SLP259 T00500033=
202203241553 METAR KPAE 241553Z 01004KT 10SM SCT011 04/02 A3030 RMK AO2 SLP264 T00440022=
202203241518 SPECI KPAE 241518Z 01005KT 10SM SCT011 04/03 A3031 RMK AO2 T00440033=
202203241453 METAR KPAE 241453Z 33004KT 10SM BKN011 04/03 A3032 RMK AO2 SLP269 T00440033 58004=
202203241353 METAR KPAE 241353Z 00000KT 10SM OVC013 03/03 A3033 RMK AO2 SLP274 T00280028=
202203241327 SPECI KPAE 241327Z AUTO 00000KT 10SM BKN014 02/02 A3033 RMK AO2 T00220022=
202203241253 METAR KPAE 241253Z AUTO 00000KT 10SM FEW014 04/ A3033 RMK AO2 SLP272 T0039 $=
202203241153 METAR KPAE 241153Z AUTO 05003KT 10SM SCT021 04/ A3033 RMK AO2 SLP273 70010 T0044 10067 20044 56012 $=
202203241149 SPECI KPAE 241149Z AUTO 00000KT 10SM SCT021 04/ A3033 RMK AO2 $=
202203241137 SPECI KPAE 241137Z AUTO 04004KT 10SM BKN021 04/ A3033 RMK AO2 T0044 $=
202203241053 METAR KPAE 241053Z AUTO 02004KT 10SM SCT020 05/ A3035 RMK AO2 SLP280 T0050 $=
202203240953 METAR KPAE 240953Z AUTO 02004KT 10SM OVC016 06/ A3036 RMK AO2 SLP285 T0056 $=
202203240944 SPECI KPAE 240944Z AUTO 05004KT 10SM OVC015 06/ A3036 RMK AO2 T0056 $=
202203240853 METAR KPAE 240853Z AUTO 03004KT 10SM OVC013 06/ A3035 RMK AO2 SLP280 T0061 53005 $=
202203240842 SPECI KPAE 240842Z AUTO 04004KT 10SM OVC012 06/ A3035 RMK AO2 T0061 $=
202203240815 SPECI KPAE 240815Z AUTO VRB03KT 10SM OVC015 06/ A3035 RMK AO2 T0061 $=
202203240753 METAR KPAE 240753Z AUTO 35003KT 10SM OVC014 06/ A3035 RMK AO2 SLP279 T0061 401330061 $=
202203240720 SPECI KPAE 240720Z AUTO 02006KT 10SM OVC014 06/ A3034 RMK AO2 T0061 $=
202203240710 SPECI KPAE 240710Z AUTO 04004KT 10SM OVC015 06/ A3034 RMK AO2 T0061 $=
202203240653 METAR KPAE 240653Z AUTO 04005KT 10SM OVC014 06/ A3033 RMK AO2 SLP274 T0061 $=
202203240640 SPECI KPAE 240640Z AUTO 05005KT 10SM OVC014 07/ A3034 RMK AO2 T0067 $=
202203240553 METAR KPAE 240553Z AUTO 01007KT 10SM OVC018 07/ A3033 RMK AO2 SLP274 60000 T0067 10078 20061 51021 $=
202203240539 SPECI KPAE 240539Z AUTO 01009KT 10SM BKN018 07/ A3033 RMK AO2 T0067 $=
202203240453 METAR KPAE 240453Z AUTO 36010G16KT 10SM FEW023 07/ A3032 RMK AO2 SLP270 T0067 $=
202203240353 METAR KPAE 240353Z AUTO 35006KT 10SM CLR 07/ A3030 RMK AO2 SLP263 T0067 $=
202203240253 METAR KPAE 240253Z 10003KT 10SM CLR 07/ A3027 RMK AO2 SLP253 60000 T0072 53024 $=
202203240153 METAR KPAE 240153Z 34004KT 10SM FEW080 BKN095 08/ A3024 RMK AO2 RAB07E19 SLP242 P0000 T0078 $=
202203240053 METAR KPAE 240053Z 02004KT 10SM BKN015 OVC055 08/ A3021 RMK AO2 RAE26 SLP231 P0000 T0078 $=
202203232353 METAR KPAE 232353Z 35005KT 2 1/2SM -RA FEW027 OVC037 08/ A3020 RMK AO2 SLP228 P0001 60010 T0078 10128 20072 51015 $=
202203232341 SPECI KPAE 232341Z 36005KT 2 1/2SM -RA FEW005 FEW019 OVC030 07/ A3020 RMK AO2 P0001 T0072 $=
202203232333 SPECI KPAE 232333Z 36005KT 3SM -RA FEW005 BKN021 OVC027 07/ A3020 RMK AO2 P0001 T0072 $=
202203232322 SPECI KPAE 232322Z 36004KT 1 1/4SM -RA SCT003 OVC018 07/ A3020 RMK AO2 P0001 T0072 $=
202203232253 METAR KPAE 232253Z 31006KT 1 1/4SM R16R/5500VP6000FT -RA BR BKN003 OVC014 10/09 A3020 RMK AO2 SLP226 P0003 T01000089 $=
202203232230 SPECI KPAE 232230Z 32007KT 1SM R16R/4000VP6000FT RA BR BKN003 OVC014 10/09 A3019 RMK AO2 P0002 T01000089 $=
202203232220 SPECI KPAE 232220Z 34008KT 3SM R16R/5500VP6000FT -RA BR BKN007 OVC023 10/09 A3018 RMK AO2 P0001 T01000089 $=
202203232212 SPECI KPAE 232212Z 30010KT 7SM R16R/6000VP6000FT -RA FEW007 BKN016 OVC070 10/09 A3017 RMK AO2 P0000 T01000089 $=
202203232153 METAR KPAE 232153Z 21013KT 10SM -RA FEW007 BKN016 OVC070 10/ A3017 RMK AO2 SLP219 P0001 T0100 $=
202203232053 METAR KPAE 232053Z 20016G26KT 10SM -RA FEW009 OVC070 10/09 A3016 RMK AO2 PK WND 20026/2051 SLP212 P0002 60005 T01000089 53008 $=
202203232051 SPECI KPAE 232051Z 20016G26KT 10SM -RA FEW009 OVC070 10/09 A3016 RMK AO2 PK WND 20026/2051 P0002 $=
202203231953 METAR KPAE 231953Z 20015G24KT 4SM RA BKN022 OVC065 11/ A3014 RMK AO2 RAB23 SLP207 P0003 T0111 $=
202203231859 SPECI KPAE 231859Z 19017G23KT 10SM SCT021 BKN027 OVC060 12/M01 A3013 RMK AO2 T01221011 $=
202203231853 METAR KPAE 231853Z 19012G21KT 10SM SCT021 SCT027 BKN060 12/ A3013 RMK AO2 SLP203 T0122 $=
202203231753 METAR KPAE 231753Z 15016G21KT 10SM SCT036 12/07 A3013 RMK AO2 SLP203 T01220067 10133 20094 51002 $=
202203231653 METAR KPAE 231653Z 17009KT 10SM FEW010 OVC039 12/12 A3013 RMK AO2 SLP203 T01170117=
202203231648 SPECI KPAE 231648Z 18008KT 10SM SCT010 OVC039 12/12 A3013 RMK AO2=
202203231641 SPECI KPAE 231641Z 17010KT 10SM SCT010 BKN013 OVC039 13/12 A3013 RMK AO2 T01280117=
202203231553 METAR KPAE 231553Z 20013KT 10SM OVC006 11/10 A3012 RMK AO2 CIG 005V011 SLP201 T01110100 $=
202203231520 SPECI KPAE 231520Z 18010KT 10SM OVC005 11/10 A3011 RMK AO2 CIG 004V008 T01110100 $=
202203231453 METAR KPAE 231453Z 18007KT 10SM OVC004 11/ A3011 RMK AO2 SLP195 T0111 51001 $=
202203231424 SPECI KPAE 231424Z 17007KT 8SM OVC004 10/ A3011 RMK AO2 T0100 $=
202203231353 METAR KPAE 231353Z 17005KT 10SM BKN006 OVC025 11/ A3011 RMK AO2 SLP195 T0106 $=
202203231348 SPECI KPAE 231348Z 18004KT 10SM BKN006 OVC025 10/10 A3011 RMK AO2 $=
202203231335 SPECI KPAE 231335Z 17007KT 10SM SCT007 OVC026 11/11 A3011 RMK AO2 T01110111=
202203231253 METAR KPAE 231253Z AUTO 17006KT 10SM BKN027 OVC055 11/11 A3010 RMK AO2 SLP194 T01060106 $=
202203231203 SPECI KPAE 231203Z AUTO 17005KT 10SM SCT002 SCT039 OVC049 10/ A3011 RMK AO2 T0100 $=
202203231153 METAR KPAE 231153Z AUTO 17006KT 10SM BKN003 BKN029 OVC049 10/ A3011 RMK AO2 SLP195 T0100 10133 20089 55008 $=
202203231133 SPECI KPAE 231133Z AUTO 14008KT 10SM BKN003 BKN030 BKN043 10/10 A3011 RMK AO2 T01000100 $=
202203231120 SPECI KPAE 231120Z AUTO 15007KT 10SM SCT005 SCT030 10/10 A3011 RMK AO2 T01000100 $=
202203231053 METAR KPAE 231053Z AUTO VRB03KT 10SM CLR 11/11 A3010 RMK AO2 SLP194 T01110111 $=
202203230953 METAR KPAE 230953Z AUTO 00000KT 10SM BKN038 10/10 A3012 RMK AO2 SLP201 T01000100 $=
202203230853 METAR KPAE 230853Z AUTO VRB04KT 10SM CLR 11/11 A3013 RMK AO2 SLP203 T01110111 56012=
202203230753 METAR KPAE 230753Z AUTO VRB03KT 10SM CLR 11/11 A3013 RMK AO2 SLP204 T01110111 401720056=
202203230653 METAR KPAE 230653Z AUTO 00000KT 10SM CLR 12/11 A3016 RMK AO2 SLP213 T01170111=
202203230553 METAR KPAE 230553Z AUTO 11005KT 10SM CLR 13/12 A3017 RMK AO2 SLP216 T01280122 10172 20117 58017=
202203230453 METAR KPAE 230453Z AUTO 09003KT 10SM CLR 12/12 A3019 RMK AO2 SLP223 T01170117=
202203230353 METAR KPAE 230353Z 00000KT 10SM CLR 13/13 A3020 RMK AO2 SLP227 T01330128=
202203230253 METAR KPAE 230253Z 00000KT 10SM CLR 14/13 A3022 RMK AO2 SLP233 T01390128 56027=
202203230153 METAR KPAE 230153Z 10SM CLR 14/13 A3024 RMK AO2 SLP241 T01440133=
202203230053 METAR KPAE 230053Z 27005KT 10SM CLR 16/14 A3027 RMK AO2 SLP251 T01610139=
202203230017 SPECI KPAE 230017Z 18007KT 10SM SCT023 BKN110 16/14 A3029 RMK AO2 T01610139=
202203222353 METAR KPAE 222353Z 19008KT 10SM BKN022 OVC110 17/14 A3030 RMK AO2 SLP261 T01670139 10167 20111 58017=
202203222253 METAR KPAE 222253Z 20006KT 10SM BKN024 BKN110 16/14 A3032 RMK AO2 SLP267 T01610139=
202203222153 METAR KPAE 222153Z 18010KT 10SM OVC019 16/13 A3034 RMK AO2 SLP274 T01560133=
202203222053 METAR KPAE 222053Z 15010G16KT 10SM BKN017 15/13 A3035 RMK AO2 SLP278 T01500133 58019=
202203222000 SPECI KPAE 222000Z 15010KT 10SM BKN015 BKN100 14/13 A3037 RMK AO2 T01390133 $=
202203221953 METAR KPAE 221953Z 16010KT 10SM BKN009 BKN015 BKN100 14/14 A3037 RMK AO2 SLP285 T01390139 $=
202203221936 SPECI KPAE 221936Z 14009G15KT 10SM BKN009 BKN015 BKN100 13/13 A3037 RMK AO2 T01330133 $=
202203221929 SPECI KPAE 221929Z 15008KT 10SM BKN010 BKN015 BKN100 13/13 A3038 RMK AO2 CIG 008V012 T01330133 $=
202203221853 METAR KPAE 221853Z 15009KT 10SM SCT006 BKN009 OVC024 12/12 A3039 RMK AO2 SLP291 T01220122 $=
202203221753 METAR KPAE 221753Z 15008KT 5SM HZ SCT006 BKN009 OVC024 11/ A3041 RMK AO2 CIG 007V012 SLP298 60000 T0111 10111 20078 50000 $=
202203221720 SPECI KPAE 221720Z 15006KT 7SM SCT003 OVC011 11/ A3041 RMK AO2 T0106 $=
202203221659 SPECI KPAE 221659Z 15009KT 3SM BR BKN003 OVC008 10/ A3041 RMK AO2 T0100 $=
202203221653 METAR KPAE 221653Z 15007KT 1 3/4SM BR BKN004 OVC012 09/09 A3041 RMK AO2 SLP299 T00940089 $=
202203221553 METAR KPAE 221553Z VRB04KT 1SM R16R/5500VP6000FT BR BKN003 OVC011 09/ A3041 RMK AO2 SLP298 T0089 $=
202203221453 METAR KPAE 221453Z 00000KT 1 1/4SM R16R/6000VP6000FT BR OVC006 09/09 A3040 RMK AO2 SLP298 60000 T00890089 53004=
202203221353 METAR KPAE 221353Z VRB04KT 2SM BR OVC010 08/ A3040 RMK AO2 SLP298 T0083 $=
202203221253 METAR KPAE 221253Z AUTO VRB04KT 2 1/2SM BR OVC010 08/08 A3039 RMK AO2 RAE42 SLP294 P0000 T00830083 $=
202203221243 SPECI KPAE 221243Z AUTO VRB03KT 2 1/2SM BR OVC010 08/08 A3039 RMK AO2 RAE42 P0000 T00830083 $=
202203221228 SPECI KPAE 221228Z AUTO 14007KT 2 1/2SM -RA OVC009 08/ A3039 RMK AO2 P0000 T0078 $=
202203221200 SPECI KPAE 221200Z AUTO 11006KT 1 3/4SM -RA BR BKN005 OVC009 08/08 A3039 RMK AO2 P0000 T00780078 $=
202203221153 METAR KPAE 221153Z AUTO 11006KT 1 3/4SM -RA BR OVC003 08/08 A3039 RMK AO2 RAB28 SLP294 P0000 60000 70006 T00780078 10089 20078 52008 $=
202203221141 SPECI KPAE 221141Z AUTO 11007KT 1 3/4SM -RA BR OVC003 08/08 A3039 RMK AO2 RAB28 P0000 T00830083 $=
202203221127 SPECI KPAE 221127Z AUTO 00000KT 2 1/2SM BR OVC003 09/09 A3039 RMK AO2 CIG 003V006 T00890089 $=
202203221053 METAR KPAE 221053Z AUTO 15008KT 8SM OVC007 09/09 A3039 RMK AO2 CIG 004V011 SLP292 T00890089 $=
202203221046 SPECI KPAE 221046Z AUTO 15008KT 10SM SCT005 OVC009 09/09 A3038 RMK AO2 CIG 008V014 T00890089 $=
202203220953 METAR KPAE 220953Z AUTO VRB05KT 10SM OVC013 09/09 A3038 RMK AO2 SLP289 T00890089 $=
202203220926 SPECI KPAE 220926Z AUTO 14006KT 10SM OVC014 09/09 A3038 RMK AO2 T00890089 $=
202203220853 METAR KPAE 220853Z AUTO VRB05KT 10SM OVC015 08/08 A3037 RMK AO2 SLP286 60000 T00830083 51007 $=
202203220753 METAR KPAE 220753Z AUTO VRB03KT 10SM OVC015 09/09 A3037 RMK AO2 RAB28E51 SLP285 P0000 T00890089 400940044 $=
202203220653 METAR KPAE 220653Z AUTO 14005KT 10SM OVC017 08/08 A3036 RMK AO2 SLP284 T00830083 $=
202203220630 SPECI KPAE 220630Z AUTO 15006KT 10SM FEW003 OVC017 08/08 A3036 RMK AO2 T00830083 $=
202203220621 SPECI KPAE 220621Z AUTO 14006KT 9SM SCT003 BKN013 OVC019 08/ A3035 RMK AO2 T0083 $=
202203220553 METAR KPAE 220553Z AUTO 15006KT 10SM BKN003 OVC014 08/ A3035 RMK AO2 SLP279 60000 T0083 10094 20083 51005 $=
202203220502 SPECI KPAE 220502Z AUTO 15007KT 3SM BR BKN003 OVC013 08/08 A3034 RMK AO2 CIG 002V006 T00830083 $=
202203220453 METAR KPAE 220453Z AUTO 15007KT 2 1/2SM BR OVC003 08/08 A3034 RMK AO2 CIG 002V006 SLP277 T00830083 $=
202203220451 SPECI KPAE 220451Z AUTO 15007KT 2 1/2SM BR OVC003 08/08 A3034 RMK AO2 $=
202203220402 SPECI KPAE 220402Z AUTO 15007KT 4SM BR OVC004 08/08 A3033 RMK AO2 T00830083=
202203220353 METAR KPAE 220353Z AUTO 16007KT 4SM BR BKN005 OVC019 08/08 A3033 RMK AO2 RAE02B40E51 CIG 003V007 SLP274 P0000 T00830083=
202203220346 SPECI KPAE 220346Z 16007KT 4SM -RA BR BKN005 OVC019 08/08 A3034 RMK AO2 RAE02B40 P0000 T00830083=
202203220253 METAR KPAE 220253Z 16006KT 9SM -RA SCT007 OVC016 08/08 A3034 RMK AO2 SLP276 P0000 60000 T00830083 56001=
202203220214 SPECI KPAE 220214Z 15004KT 6SM -RA BR BKN004 OVC014 08/08 A3034 RMK AO2 P0000 T00830083=
202203220200 SPECI KPAE 220200Z 15005KT 4SM -RA BR OVC012 08/08 A3034 RMK AO2 P0000 T00830083=
202203220153 METAR KPAE 220153Z 15005KT 5SM -RA BR BKN008 OVC014 08/08 A3034 RMK AO2 RAE0057B08 SLP276 P0000 T00830083=
202203220143 SPECI KPAE 220143Z 15005KT 5SM -RA BR BKN008 OVC014 08/08 A3033 RMK AO2 RAE0057B08 P0000 T00830083=
202203220106 SPECI KPAE 220106Z VRB03KT 10SM BKN014 OVC021 09/09 A3034 RMK AO2 RAE0057 P0000 T00890089=
202203220053 METAR KPAE 220053Z 15004KT 10SM -RA SCT010 OVC021 09/09 A3034 RMK AO2 SLP277 P0000 T00890089=
202203212353 METAR KPAE 212353Z 17007KT 10SM -RA OVC019 09/08 A3034 RMK AO2 RAB29 SLP276 P0000 60001 T00890078 10094 20056 53005=
202203212253 METAR KPAE 212253Z 16007KT 10SM OVC018 09/07 A3032 RMK AO2 SLP269 T00940072=
202203212153 METAR KPAE 212153Z 15008G16KT 10SM OVC015 08/07 A3032 RMK AO2 SLP272 T00830072=
202203212146 SPECI KPAE 212146Z 15007KT 10SM OVC015 08/07 A3033 RMK AO2 T00830072=
202203212053 METAR KPAE 212053Z 16008KT 10SM BKN012 OVC016 08/07 A3032 RMK AO2 SLP271 60001 T00830072 53001=
202203212007 SPECI KPAE 212007Z 15009KT 10SM BKN011 BKN027 OVC085 08/08 A3032 RMK AO2 T00780078=
202203211953 METAR KPAE 211953Z 15009KT 110V170 10SM SCT011 BKN027 OVC037 07/07 A3032 RMK AO2 SLP271 T00720072=
202203211853 METAR KPAE 211853Z 14009G16KT 10SM FEW007 SCT027 OVC060 07/07 A3031 RMK AO2 RAE30 SLP268 P0001 T00670067=
202203211800 SPECI KPAE 211800Z VRB05KT 9SM -RA FEW006 SCT013 OVC027 06/06 A3031 RMK AO2 P0000 T00610061=
202203211753 METAR KPAE 211753Z VRB05KT 10SM -RA BKN008 OVC033 06/06 A3032 RMK AO2 SLP271 P0000 60005 T00560056 10056 20044 51013=
202203211653 METAR KPAE 211653Z VRB04KT 9SM -RA BKN008 05/05 A3031 RMK AO2 SLP268 P0001 T00500050=
202203211559 SPECI KPAE 211559Z VRB04KT 7SM -RA BKN008 05/05 A3030 RMK AO2 P0000 T00500050=
202203211553 METAR KPAE 211553Z 12005KT 7SM -RA FEW019 SCT025 OVC032 04/04 A3030 RMK AO2 SLP264 P0002 T00440044=
202203211453 METAR KPAE 211453Z VRB04KT 6SM -RA BR FEW018 OVC035 05/05 A3028 RMK AO2 SLP258 P0001 60002 T00500050 53002=
202203211353 METAR KPAE 211353Z 14006G16KT 7SM -RA FEW022 OVC037 04/04 A3027 RMK AO2 SLP255 P0001 T00440044=
202203211346 SPECI KPAE 211346Z 15007KT 9SM -RA FEW014 SCT022 OVC037 04/04 A3027 RMK AO2 P0000 T00440044=
202203211329 SPECI KPAE 211329Z VRB06KT 10SM -RA SCT014 BKN022 OVC035 04/04 A3027 RMK AO2 P0000 T00440044=
202203211253 METAR KPAE 211253Z 15008KT 10SM -RA BKN012 OVC018 04/04 A3027 RMK AO2 SLP256 P0000 T00440044=
202203211203 SPECI KPAE 211203Z VRB05KT 10SM -RA SCT009 BKN013 OVC018 04/04 A3027 RMK AO2 P0000 T00440044=
202203211153 METAR KPAE 211153Z 15007KT 130V190 10SM -RA SCT009 OVC016 04/04 A3027 RMK AO2 SLP255 P0000 60000 T00440044 10056 20044 58002=
202203211100 SPECI KPAE 211100Z 15010G16KT 10SM -RA SCT008 OVC018 05/05 A3028 RMK AO2 P0000 T00500050=
202203211053 METAR KPAE 211053Z 15009KT 10SM -RA BKN007 OVC017 05/05 A3028 RMK AO2 CIG 005V011 SLP255 P0000 T00500050=
202203210953 METAR KPAE 210953Z 15010G17KT 10SM -RA BKN008 OVC013 05/05 A3028 RMK AO2 CIG 006V010 SLP257 P0000 T00500050=
202203210912 SPECI KPAE 210912Z 16015G21KT 8SM -RA SCT009 OVC014 05/05 A3028 RMK AO2 P0000 T00500050=
202203210901 SPECI KPAE 210901Z 16011G22KT 7SM -RA SCT009 OVC016 05/05 A3028 RMK AO2 P0000 T00500050=
202203210853 METAR KPAE 210853Z 16013KT 6SM -RA BR BKN014 OVC019 05/05 A3028 RMK AO2 SLP256 P0000 60000 T00500050 50002=
202203210753 METAR KPAE 210753Z 15013KT 10SM -RA OVC017 06/05 A3028 RMK AO2 RAB31 SLP257 P0000 T00560050 400720022=
202203210653 METAR KPAE 210653Z 16013G22KT 10SM OVC016 06/05 A3028 RMK AO2 PK WND 17026/0557 SLP256 T00560050=
202203210553 METAR KPAE 210553Z 17015G22KT 10SM OVC018 06/05 A3027 RMK AO2 RAE00 SLP255 P0000 60000 T00560050 10061 20056 53001=
202203210527 SPECI KPAE 210527Z 16012KT 10SM BKN018 OVC031 06/05 A3027 RMK AO2 RAE00 P0000 T00560050=
202203210503 SPECI KPAE 210503Z 16013G21KT 10SM FEW015 BKN035 OVC080 06/06 A3027 RMK AO2 RAE00 P0000 T00560056=
202203210453 METAR KPAE 210453Z 16012KT 10SM -RA FEW017 BKN027 OVC070 06/06 A3027 RMK AO2 RAB31 SLP254 P0000 T00560056=
202203210353 METAR KPAE 210353Z 16012KT 10SM BKN018 OVC025 06/06 A3026 RMK AO2 SLP252 T00560056=
202203210344 SPECI KPAE 210344Z 16012KT 10SM BKN020 BKN025 OVC110 06/06 A3026 RMK AO2 T00560056=
202203210314 SPECI KPAE 210314Z 15013KT 10SM SCT008 OVC100 06/06 A3027 RMK AO2 T00560056=
202203210253 METAR KPAE 210253Z 16012KT 10SM BKN008 OVC120 06/06 A3027 RMK AO2 CIG 006V011 SLP254 60000 T00560056 58002=
202203210234 SPECI KPAE 210234Z 15014KT 10SM BKN008 BKN016 OVC120 06/06 A3026 RMK AO2 T00560056=
202203210218 SPECI KPAE 210218Z 15013KT 10SM SCT007 BKN016 OVC041 06/06 A3026 RMK AO2 T00560056=
202203210153 METAR KPAE 210153Z 15012KT 10SM SCT008 BKN065 OVC090 06/06 A3027 RMK AO2 RAB18E49 SLP253 P0000 T00560056=
202203210103 SPECI KPAE 210103Z 15012KT 10SM SCT008 BKN065 OVC090 06/06 A3028 RMK AO2 T00560056=
202203210053 METAR KPAE 210053Z 16014KT 10SM BKN065 OVC095 06/06 A3028 RMK AO2 RAE17 SLP257 P0000 T00560056=
202203210042 SPECI KPAE 210042Z 16014KT 10SM FEW009 SCT075 OVC095 06/06 A3027 RMK AO2 RAE17 P0000 T00560056=
202203202353 METAR KPAE 202353Z 15011KT 10SM -RA FEW031 BKN055 OVC070 06/06 A3027 RMK AO2 SLP255 P0000 60000 T00610056 10072 20050 50004=
202203202253 METAR KPAE 202253Z 17012G18KT 10SM -RA BKN039 OVC050 07/06 A3028 RMK AO2 RAB2157 SLP258 P0000 T00670056=
202203202212 SPECI KPAE 202212Z 19012KT 10SM -RA SCT024 OVC033 07/04 A3028 RMK AO2 RAB2157 P0000 T00720044=
202203202153 METAR KPAE 202153Z 20009KT 10SM BKN024 OVC029 07/04 A3028 RMK AO2 SLP259 T00720039=
202203202053 METAR KPAE 202053Z 17015G25KT 10SM BKN021 BKN027 07/04 A3026 RMK AO2 SLP251 T00720039 58004=
202203201953 METAR KPAE 201953Z 16013KT 10SM BKN021 BKN027 07/04 A3026 RMK AO2 SLP252 T00720039=
202203201855 SPECI KPAE 201855Z 16008KT 10SM SCT016 OVC024 06/04 A3028 RMK AO2 T00610044=
202203201853 METAR KPAE 201853Z 16008KT 10SM SCT008 BKN011 06/04 A3028 RMK AO2 SLP257 T00610044=
202203201753 METAR KPAE 201753Z 15007KT 10SM SCT008 BKN011 05/04 A3027 RMK AO2 SLP255 T00500044 10050 20028 53008=
202203201653 METAR KPAE 201653Z 15007KT 10SM BKN008 04/04 A3026 RMK AO2 SLP253 T00390039=
202203201553 METAR KPAE 201553Z 17007KT 10SM BKN010 OVC021 04/04 A3025 RMK AO2 SLP249 T00390039=
202203201453 METAR KPAE 201453Z 17005KT 10SM BKN010 OVC021 03/03 A3025 RMK AO2 SLP248 T00330033 51015=
202203201353 METAR KPAE 201353Z 15004KT 10SM BKN010 OVC021 03/03 A3023 RMK AO2 SLP243 T00330033=
202203201253 METAR KPAE 201253Z AUTO 12003KT 10SM SCT013 OVC019 03/03 A3022 RMK AO2 SLP237 T00280028=
202203201226 SPECI KPAE 201226Z AUTO 15003KT 10SM BKN013 BKN018 03/03 A3021 RMK AO2 T00280028=
202203201153 METAR KPAE 201153Z AUTO 18007KT 10SM OVC018 03/03 A3020 RMK AO2 SLP232 70045 T00280028 10033 20022 51007=
202203201053 METAR KPAE 201053Z AUTO 15005KT 10SM BKN015 BKN100 03/03 A3020 RMK AO2 SLP230 T00280028=
202203201049 SPECI KPAE 201049Z AUTO 16005KT 10SM BKN015 BKN100 03/03 A3019 RMK AO2=
202203201010 SPECI KPAE 201010Z AUTO 15005KT 10SM SCT015 BKN060 OVC100 03/03 A3018 RMK AO2 T00280028=
202203201001 SPECI KPAE 201001Z AUTO 15005KT 10SM SCT015 BKN019 OVC100 03/03 A3018 RMK AO2 T00280028=
202203200953 METAR KPAE 200953Z AUTO 16005KT 10SM SCT015 BKN090 OVC110 03/03 A3018 RMK AO2 SLP224 T00280028=
202203200853 METAR KPAE 200853Z AUTO 14007KT 10SM BKN095 OVC110 03/03 A3016 RMK AO2 SLP220 T00280028 51009=
202203200753 METAR KPAE 200753Z AUTO 15007KT 10SM FEW075 OVC100 03/03 A3016 RMK AO2 SLP216 T00330033 400830033=
202203200653 METAR KPAE 200653Z AUTO VRB04KT 10SM OVC110 03/03 A3015 RMK AO2 SLP214 T00330033=
202203200619 SPECI KPAE 200619Z AUTO 14004KT 10SM SCT027 BKN034 BKN041 03/03 A3014 RMK AO2 T00330033=
202203200608 SPECI KPAE 200608Z AUTO VRB04KT 10SM BKN028 OVC037 03/03 A3014 RMK AO2 T00330033=
202203200553 METAR KPAE 200553Z AUTO VRB03KT 10SM FEW026 BKN033 OVC042 03/03 A3014 RMK AO2 RAE0457B21E32 SLP209 P0000 60003 T00330033 10050 20033 53019=
202203200540 SPECI KPAE 200540Z AUTO 15003KT 10SM FEW003 OVC031 03/03 A3013 RMK AO2 RAE0457B21E32 P0000 T00330033=
202203200525 SPECI KPAE 200525Z AUTO VRB03KT 6SM -RA BR FEW003 BKN029 OVC039 03/03 A3013 RMK AO2 RAE0457B21 P0000 T00330033=
202203200518 SPECI KPAE 200518Z AUTO VRB03KT 9SM FEW022 BKN028 OVC037 04/04 A3012 RMK AO2 RAE0457 P0000 T00390039=
202203200453 METAR KPAE 200453Z AUTO 00000KT 10SM -RA SCT025 OVC035 04/04 A3012 RMK AO2 SLP202 P0002 T00390039=
202203200405 SPECI KPAE 200405Z AUTO 16007KT 5SM -RA BR SCT023 OVC027 04/04 A3010 RMK AO2 P0001 T00390039=
202203200353 METAR KPAE 200353Z AUTO 17006KT 8SM -RA SCT023 OVC034 04/04 A3010 RMK AO2 RAB37 SLP196 P0000 T00390039=
202203200314 SPECI KPAE 200314Z 18005KT 10SM SCT021 BKN037 OVC048 04/04 A3009 RMK AO2 T00390039=
202203200300 SPECI KPAE 200300Z 18005KT 10SM BKN021 BKN030 OVC050 04/04 A3008 RMK AO2 T00390039=
202203200253 METAR KPAE 200253Z 17005KT 10SM BKN009 OVC023 04/04 A3008 RMK AO2 SLP188 60001 T00440044 53016=
202203200153 METAR KPAE 200153Z 20005KT 10SM BKN009 OVC023 04/04 A3006 RMK AO2 RAE42 SLP182 P0000 T00440044=
202203200053 METAR KPAE 200053Z 18005KT 4SM -RA BR OVC009 05/05 A3004 RMK AO2 SLP176 P0001 T00500050=
202203192353 METAR KPAE 192353Z 34003KT 4SM -RA BR OVC009 05/04 A3003 RMK AO2 RAB2257 SLP172 P0001 60023 T00500039 10056 20039 51010=
202203192253 METAR KPAE 192253Z 00000KT 10SM OVC009 05/04 A3002 RMK AO2 RAE53 SLP169 P0001 T00500039=
202203192245 SPECI KPAE 192245Z 00000KT 10SM -RA OVC009 05/04 A3002 RMK AO2 P0001 T00500044=
202203192153 METAR KPAE 192153Z 34003KT 2 1/2SM -RA BR BKN025 OVC036 04/04 A3001 RMK AO2 SLP166 P0000 T00390039=
202203192053 METAR KPAE 192053Z 31007KT 2 1/2SM -RA BR BKN013 BKN019 OVC032 04/04 A3000 RMK AO2 SLP162 P0007 60021 T00440044 51025=
202203192023 SPECI KPAE 192023Z 33009G18KT 300V360 2 1/2SM RA BR SCT016 OVC023 04/04 A2999 RMK AO2 P0004 T00440039=
202203191957 SPECI KPAE 191957Z 33007G15KT 1 3/4SM RA BR SCT016 OVC023 05/04 A2998 RMK AO2 P0000 T00500044=
202203191953 METAR KPAE 191953Z 30010G15KT 2SM RA BR OVC011 05/04 A2998 RMK AO2 SLP155 P0003 T00500039=
202203191856 SPECI KPAE 191856Z 01003KT 2SM -RA BR OVC011 05/04 A2996 RMK AO2 P0000 T00500039=
202203191853 METAR KPAE 191853Z VRB04KT 3SM -RA BR BKN008 BKN014 05/04 A2996 RMK AO2 SLP147 P0011 T00500039=
202203191753 METAR KPAE 191753Z 36008KT 3SM RA BR BKN008 BKN014 05/05 A2992 RMK AO2 SLP136 P0005 60019 T00500050 10078 20050 53037=
202203191653 METAR KPAE 191653Z 35005KT 5SM -RA BR BKN009 OVC018 06/06 A2988 RMK AO2 SLP121 P0001 T00560056=
202203191553 METAR KPAE 191553Z 36005KT 3SM -RA BR BKN009 OVC018 06/06 A2985 RMK AO2 SLP110 P0009 T00560056=
202203191453 METAR KPAE 191453Z 23008KT 5SM -RA BR BKN009 OVC018 07/07 A2981 RMK AO2 SLP097 P0001 60004 T00720072 53013=
202203191432 SPECI KPAE 191432Z 20008KT 10SM -RA BKN009 OVC018 07/07 A2981 RMK AO2 P0001 T00720072=
202203191353 METAR KPAE 191353Z 19011KT 10SM -RA BKN013 BKN025 OVC085 07/07 A2979 RMK AO2 SLP089 P0000 T00720072=
202203191344 SPECI KPAE 191344Z 19010KT 8SM -RA BKN013 BKN025 OVC085 07/07 A2979 RMK AO2 P0000 T00720072=
202203191253 METAR KPAE 191253Z AUTO 18012KT 7SM -RA FEW015 SCT030 OVC043 07/07 A2978 RMK AO2 SLP086 P0003 T00720072=
202203191236 SPECI KPAE 191236Z AUTO 20014G19KT 8SM -RA SCT007 BKN029 OVC038 08/08 A2979 RMK AO2 P0003 T00780078=
202203191206 SPECI KPAE 191206Z AUTO 16009KT 5SM -RA BR FEW009 BKN013 OVC030 08/08 A2978 RMK AO2 P0000 T00780078=
202203191153 METAR KPAE 191153Z AUTO 15012KT 5SM -RA BR SCT017 BKN022 OVC030 08/08 A2978 RMK AO2 SLP084 P0001 60009 70013 T00780078 10083 20078 56012=
202203191151 SPECI KPAE 191151Z AUTO 15011KT 5SM -RA BR SCT017 BKN022 OVC030 08/08 A2978 RMK AO2 P0001=
202203191053 METAR KPAE 191053Z AUTO 15009KT 7SM -RA BKN035 OVC047 08/08 A2979 RMK AO2 SLP090 P0000 T00780078=
202203190953 METAR KPAE 190953Z AUTO 14006KT 6SM -RA BR FEW004 BKN036 OVC043 08/08 A2981 RMK AO2 SLP097 P0000 T00780078=
202203190945 SPECI KPAE 190945Z AUTO 17008KT 7SM -RA FEW006 BKN013 OVC044 08/08 A2982 RMK AO2 P0000 T00780078=
202203190938 SPECI KPAE 190938Z AUTO 11007KT 7SM -RA SCT008 BKN022 OVC040 08/08 A2982 RMK AO2 P0000 T00780078=
202203190923 SPECI KPAE 190923Z AUTO VRB03KT 4SM -RA BR SCT006 BKN010 OVC024 08/08 A2982 RMK AO2 CIG 007V013 P0000 T00780078=
202203190902 SPECI KPAE 190902Z AUTO VRB03KT 5SM -RA BR FEW010 BKN024 OVC030 08/08 A2983 RMK AO2 P0000 T00780078=
202203190853 METAR KPAE 190853Z AUTO 12004KT 7SM -RA FEW011 SCT024 OVC033 08/08 A2983 RMK AO2 SLP102 P0006 60008 T00780078 58017=
202203190842 SPECI KPAE 190842Z AUTO VRB03KT 3SM RA BR SCT011 BKN025 OVC036 08/08 A2983 RMK AO2 P0006 T00780078=
202203190835 SPECI KPAE 190835Z AUTO 16006KT 4SM RA BR BKN009 BKN016 OVC037 08/08 A2984 RMK AO2 P0005 T00780078=
202203190814 SPECI KPAE 190814Z AUTO VRB03KT 3SM RA BR BKN010 BKN023 OVC035 08/08 A2984 RMK AO2 P0004 T00780078=
202203190753 METAR KPAE 190753Z AUTO 15009KT 5SM -RA BR FEW028 OVC039 08/08 A2984 RMK AO2 SLP107 P0000 T00780078 401170067=
202203190653 METAR KPAE 190653Z AUTO 18014G21KT 5SM -RA BR OVC043 08/08 A2987 RMK AO2 SLP115 P0002 T00780078=
202203190553 METAR KPAE 190553Z AUTO 18011KT 5SM -RA BR FEW011 BKN030 OVC037 08/08 A2988 RMK AO2 SLP119 P0004 60004 T00830083 10117 20083 58009=
202203190537 SPECI KPAE 190537Z AUTO 18008KT 3SM RA BR FEW010 BKN028 OVC037 08/08 A2989 RMK AO2 P0002 T00830083=
202203190515 SPECI KPAE 190515Z AUTO 16007KT 9SM -RA FEW017 SCT026 OVC039 08/08 A2989 RMK AO2 P0001 T00830083=
202203190453 METAR KPAE 190453Z AUTO 18005KT 5SM -RA BR FEW016 BKN023 OVC042 08/08 A2990 RMK AO2 RAB06 SLP127 P0000 T00830083=
202203190448 SPECI KPAE 190448Z AUTO 18005KT 7SM -RA SCT019 BKN025 OVC038 09/09 A2990 RMK AO2 RAB06 P0000=
202203190353 METAR KPAE 190353Z 20003KT 10SM FEW039 BKN050 OVC060 09/09 A2990 RMK AO2 RAB23E39 SLP129 P0000 T00890089=
202203190253 METAR KPAE 190253Z 16007KT 10SM FEW048 BKN060 OVC075 10/07 A2992 RMK AO2 RAB13E25 SLP133 P0000 60000 T01000072 56019=
202203190153 METAR KPAE 190153Z 15007KT 10SM SCT049 BKN055 OVC070 11/07 A2993 RMK AO2 SLP137 T01060067=
202203190053 METAR KPAE 190053Z 16011KT 10SM SCT035 12/06 A2995 RMK AO2 SLP144 T01170056=
202203182353 METAR KPAE 182353Z 17007KT 10SM SCT035 12/06 A2998 RMK AO2 SLP153 T01170056 10117 20083 58023=
202203182253 METAR KPAE 182253Z 17007KT 10SM SCT029 SCT038 BKN065 11/07 A3000 RMK AO2 SLP162 T01110067=
202203182200 SPECI KPAE 182200Z 15007KT 10SM BKN027 BKN110 10/06 A3002 RMK AO2 T01000061=
202203182153 METAR KPAE 182153Z 16008KT 10SM SCT025 BKN030 BKN060 10/06 A3003 RMK AO2 SLP169 T01000061=
202203182053 METAR KPAE 182053Z 16009KT 10SM FEW025 OVC060 10/06 A3005 RMK AO2 SLP176 T01000061 58015=
202203181953 METAR KPAE 181953Z 16011KT 10SM FEW019 SCT038 09/06 A3006 RMK AO2 SLP182 T00940061=
202203181900 SPECI KPAE 181900Z 16009G19KT 10SM FEW017 SCT024 OVC043 09/06 A3008 RMK AO2 T00890061=
202203181853 METAR KPAE 181853Z 16010KT 10SM FEW017 BKN027 OVC039 09/06 A3008 RMK AO2 SLP188 T00890061=
202203181753 METAR KPAE 181753Z 16010KT 10SM FEW017 BKN027 OVC039 08/06 A3009 RMK AO2 SLP191 T00830061 10083 20067 55000=
202203181653 METAR KPAE 181653Z 15011KT 10SM FEW015 BKN034 08/06 A3008 RMK AO2 SLP190 T00780061=
202203181614 SPECI KPAE 181614Z 15010KT 10SM FEW019 SCT030 BKN060 07/06 A3009 RMK AO2 T00720061=
202203181606 SPECI KPAE 181606Z 16011KT 10SM FEW018 BKN028 BKN060 07/06 A3009 RMK AO2 T00720061=
202203181553 METAR KPAE 181553Z 15009KT 10SM FEW019 SCT030 BKN060 07/06 A3009 RMK AO2 SLP193 T00670061=
202203181534 SPECI KPAE 181534Z 15008KT 10SM SCT019 07/06 A3009 RMK AO2 T00670061=
202203181504 SPECI KPAE 181504Z 15007KT 10SM BKN018 07/06 A3009 RMK AO2 T00670061=
202203181453 METAR KPAE 181453Z 14006KT 10SM SCT016 07/06 A3009 RMK AO2 SLP192 T00670061 58000=
202203181353 METAR KPAE 181353Z 18007KT 10SM OVC015 07/06 A3011 RMK AO2 SLP198 T00670061=
202203181253 METAR KPAE 181253Z AUTO 15009KT 10SM OVC017 07/07 A3010 RMK AO2 SLP195 T00670067=
202203181234 SPECI KPAE 181234Z AUTO 17009KT 10SM OVC015 07/07 A3010 RMK AO2 T00670067=
202203181205 SPECI KPAE 181205Z AUTO 19013KT 10SM OVC010 07/07 A3010 RMK AO2 CIG 007V014 T00670067=
202203181153 METAR KPAE 181153Z AUTO 19010KT 10SM OVC008 07/07 A3009 RMK AO2 CIG 006V010 SLP193 60000 70001 T00670067 10078 20067 56004=
202203181053 METAR KPAE 181053Z AUTO 19010KT 9SM OVC005 07/07 A3009 RMK AO2 RAB0956E05 CIG 003V008 SLP193 P0000 T00720072=
202203181000 SPECI KPAE 181000Z AUTO 18009KT 7SM -RA OVC004 07/07 A3010 RMK AO2 RAB0956 P0000 T00720072=
202203180953 METAR KPAE 180953Z AUTO 16007KT 7SM OVC005 07/07 A3010 RMK AO2 RAE42 SLP197 P0000 T00720072=
202203180942 SPECI KPAE 180942Z AUTO 16008KT 8SM OVC005 07/07 A3011 RMK AO2 RAE42 P0000 T00720072=
202203180916 SPECI KPAE 180916Z AUTO 15007KT 4SM -RA BR OVC004 07/07 A3011 RMK AO2 CIG 003V008 P0000 T00720072=
202203180853 METAR KPAE 180853Z AUTO 15007KT 3SM -RA BR OVC005 07/07 A3011 RMK AO2 CIG 003V008 SLP198 P0000 60000 T00720072 56007=
202203180841 SPECI KPAE 180841Z AUTO 15006KT 3SM -RA BR BKN005 OVC010 07/07 A3011 RMK AO2 CIG 003V007 P0000 T00720072=
202203180829 SPECI KPAE 180829Z AUTO 15005KT 2 1/2SM -RA BR BKN005 OVC011 07/07 A3011 RMK AO2 CIG 003V007 P0000 T00720072=
202203180753 METAR KPAE 180753Z AUTO 5SM -RA BR OVC007 07/07 A3011 RMK AO2 RAB32 CIG 004V010 SLP198 P0000 T00720072 400940056=
202203180741 SPECI KPAE 180741Z AUTO 15005KT 7SM -RA BKN007 OVC012 07/07 A3011 RMK AO2 RAB32 CIG 005V010 P0000 T00720072=
202203180717 SPECI KPAE 180717Z AUTO 00000KT 10SM FEW006 OVC013 07/07 A3012 RMK AO2 T00720072=
202203180653 METAR KPAE 180653Z AUTO 16005KT 10SM OVC017 08/07 A3012 RMK AO2 SLP202 T00780067=
202203180553 METAR KPAE 180553Z AUTO 19008KT 10SM SCT017 OVC029 08/07 A3013 RMK AO2 SLP205 60000 T00780067 10083 20078 50004=
202203180453 METAR KPAE 180453Z AUTO 17005KT 10SM SCT017 OVC025 08/07 A3013 RMK AO2 SLP206 T00780067=
202203180353 METAR KPAE 180353Z AUTO 20009KT 10SM OVC023 08/07 A3012 RMK AO2 SLP203 T00780067=
202203180253 METAR KPAE 180253Z 18008KT 10SM OVC022 08/07 A3012 RMK AO2 SLP201 60000 T00780072 53005=
202203180153 METAR KPAE 180153Z 19008KT 10SM OVC026 08/07 A3010 RMK AO2 SLP197 T00830067=
202203180100 SPECI KPAE 180100Z 16006KT 10SM SCT020 OVC027 08/07 A3010 RMK AO2 T00780072=
202203180053 METAR KPAE 180053Z 16006KT 10SM FEW027 BKN046 OVC060 08/08 A3010 RMK AO2 RAE39 SLP196 P0000 T00780078=
202203172353 METAR KPAE 172353Z 16006KT 10SM -RA FEW027 BKN046 OVC060 08/07 A3010 RMK AO2 SLP195 P0000 60001 T00780072 10094 20072 56007=
202203172253 METAR KPAE 172253Z 16011KT 9SM -RA BKN046 OVC055 08/07 A3011 RMK AO2 SLP198 P0001 T00780067=
202203172153 METAR KPAE 172153Z 16013KT 5SM -RA BKN038 OVC048 08/06 A3011 RMK AO2 RAB23 SLP198 P0000 T00830056=
202203172053 METAR KPAE 172053Z 16012KT 10SM BKN070 OVC085 09/04 A3012 RMK AO2 SLP202 T00890039 50001=
202203171953 METAR KPAE 171953Z 15010KT 10SM BKN075 OVC090 09/03 A3012 RMK AO2 SLP202 T00890033=
202203171853 METAR KPAE 171853Z 16009KT 10SM OVC095 08/04 A3013 RMK AO2 SLP205 T00830044=
202203171753 METAR KPAE 171753Z 16008KT 10SM OVC090 07/05 A3012 RMK AO2 SLP202 60000 T00720050 10072 20056 53001=
202203171653 METAR KPAE 171653Z 15011KT 10SM OVC100 07/04 A3011 RMK AO2 RAE1558 SLP199 P0000 T00670044=
202203171553 METAR KPAE 171553Z 16008KT 10SM -RA SCT043 OVC050 06/05 A3011 RMK AO2 RAB06 SLP199 P0000 T00610050=
202203171453 METAR KPAE 171453Z 16006KT 10SM OVC060 06/04 A3012 RMK AO2 RAB17E36 SLP201 P0000 60000 T00610044 56012=
202203171353 METAR KPAE 171353Z 15005KT 10SM BKN060 OVC080 06/04 A3012 RMK AO2 SLP202 T00610039=
202203171253 METAR KPAE 171253Z AUTO 15007KT 10SM OVC090 06/04 A3014 RMK AO2 SLP207 T00610039=
202203171153 METAR KPAE 171153Z AUTO 12006KT 10SM FEW039 OVC085 06/04 A3015 RMK AO2 RAB14E26 SLP212 P0000 60000 T00610044 10083 20056 58024=
202203171053 METAR KPAE 171053Z AUTO 12006KT 10SM FEW038 SCT047 OVC070 06/06 A3018 RMK AO2 RAE48 SLP221 P0000 T00560056=
202203170953 METAR KPAE 170953Z AUTO 15005KT 10SM -RA SCT038 BKN046 OVC075 06/05 A3021 RMK AO2 RAB42 SLP233 P0000 T00610050=
202203170853 METAR KPAE 170853Z AUTO 14004KT 10SM BKN110 07/05 A3022 RMK AO2 SLP237 T00670050 57016=
202203170753 METAR KPAE 170753Z AUTO VRB04KT 10SM FEW090 07/04 A3024 RMK AO2 SLP243 T00720044 401170039=
202203170653 METAR KPAE 170653Z AUTO 15006KT 10SM SCT049 08/05 A3025 RMK AO2 SLP248 T00780050=
202203170553 METAR KPAE 170553Z AUTO 15008KT 10SM OVC055 08/05 A3027 RMK AO2 SLP253 T00830050 10117 20078 57004=
202203170453 METAR KPAE 170453Z AUTO 15005KT 10SM OVC055 08/04 A3027 RMK AO2 SLP254 T00830044=
202203170353 METAR KPAE 170353Z 20005KT 10SM BKN048 OVC060 08/04 A3028 RMK AO2 SLP256 T00830044=
202203170253 METAR KPAE 170253Z 19005KT 10SM BKN043 OVC050 08/04 A3028 RMK AO2 SLP258 T00830039 56009=
202203170153 METAR KPAE 170153Z 19007KT 10SM CLR 09/03 A3028 RMK AO2 SLP258 T00940028=
202203170053 METAR KPAE 170053Z 18011KT 10SM SCT041 BKN055 11/03 A3029 RMK AO2 SLP260 T01110028=
202203162353 METAR KPAE 162353Z 19008KT 10SM SCT041 BKN050 11/02 A3031 RMK AO2 SLP266 T01060022 10117 20061 56006=
202203162253 METAR KPAE 162253Z 20008KT 10SM BKN043 OVC050 10/03 A3032 RMK AO2 SLP269 T01000028=
202203162153 METAR KPAE 162153Z 21008KT 10SM BKN036 OVC047 10/03 A3031 RMK AO2 SLP266 T01000028=
202203162100 SPECI KPAE 162100Z 18009KT 10SM SCT029 OVC043 10/04 A3032 RMK AO2 T01000039=
202203162053 METAR KPAE 162053Z 18012KT 10SM BKN029 OVC041 09/03 A3033 RMK AO2 SLP273 T00890033 56010=
202203162051 SPECI KPAE 162051Z 17010KT 10SM BKN029 OVC041 09/03 A3033 RMK AO2=
202203161956 SPECI KPAE 161956Z 20008KT 10SM FEW025 SCT037 SCT044 08/04 A3035 RMK AO2 T00830044=
202203161953 METAR KPAE 161953Z 19009KT 10SM FEW009 BKN018 OVC032 08/04 A3035 RMK AO2 SLP281 T00830044=
202203161904 SPECI KPAE 161904Z 24005KT 10SM FEW009 BKN018 OVC032 07/06 A3036 RMK AO2 T00670056=
202203161853 METAR KPAE 161853Z 24007KT 10SM BKN016 OVC023 07/06 A3036 RMK AO2 SLP283 T00720061=
202203161800 SPECI KPAE 161800Z 19010KT 10SM BKN016 OVC023 07/05 A3035 RMK AO2 T00670050=
202203161753 METAR KPAE 161753Z 16010KT 10SM BKN009 OVC021 07/05 A3035 RMK AO2 SLP282 T00670050 10067 20039 53009=
202203161653 METAR KPAE 161653Z 17006KT 10SM OVC008 06/06 A3034 RMK AO2 SLP278 T00610056=
202203161604 SPECI KPAE 161604Z 16006KT 9SM OVC008 06/06 A3034 RMK AO2 T00610056=
202203161553 METAR KPAE 161553Z 16006KT 10SM OVC023 06/06 A3033 RMK AO2 SLP275 T00610056=
202203161453 METAR KPAE 161453Z 14003KT 10SM OVC027 06/05 A3033 RMK AO2 SLP272 T00560050 51016=
202203161353 METAR KPAE 161353Z 00000KT 10SM FEW016 OVC029 04/04 A3031 RMK AO2 SLP267 T00440044=
202203161321 SPECI KPAE 161321Z AUTO 00000KT 10SM SCT014 BKN029 BKN075 04/04 A3030 RMK AO2 T00440044=
202203161253 METAR KPAE 161253Z AUTO 19004KT 10SM SCT075 04/04 A3030 RMK AO2 SLP262 T00390039=
202203161153 METAR KPAE 161153Z AUTO 15005KT 10SM FEW029 BKN036 BKN070 06/05 A3028 RMK AO2 SLP255 70001 T00560050 10061 20044 51008=
202203161140 SPECI KPAE 161140Z AUTO 17004KT 10SM SCT029 OVC035 06/05 A3028 RMK AO2 T00560050=
202203161131 SPECI KPAE 161131Z AUTO 18003KT 10SM OVC029 06/05 A3028 RMK AO2 T00560050=
202203161104 SPECI KPAE 161104Z AUTO 18004KT 10SM BKN030 05/05 A3027 RMK AO2 T00500050=
202203161053 METAR KPAE 161053Z AUTO 18004KT 10SM BKN028 04/04 A3027 RMK AO2 SLP253 T00440044=
202203161046 SPECI KPAE 161046Z AUTO 18005KT 10SM SCT024 SCT031 04/04 A3027 RMK AO2 T00440044=
202203161011 SPECI KPAE 161011Z AUTO 18006KT 10SM FEW012 OVC020 06/06 A3027 RMK AO2 T00610056=
202203161002 SPECI KPAE 161002Z AUTO 18005KT 10SM BKN013 OVC022 06/06 A3027 RMK AO2 T00610056=
202203160953 METAR KPAE 160953Z AUTO 18004KT 10SM SCT013 OVC022 06/06 A3027 RMK AO2 SLP253 T00610056=
202203160853 METAR KPAE 160853Z AUTO 20005KT 10SM OVC017 06/06 A3025 RMK AO2 SLP247 T00610056 52014=
202203160841 SPECI KPAE 160841Z AUTO 20003KT 10SM OVC015 06/06 A3025 RMK AO2 T00610056=
202203160827 SPECI KPAE 160827Z AUTO 19004KT 10SM OVC014 06/06 A3025 RMK AO2 T00610056=
202203160753 METAR KPAE 160753Z AUTO 20005KT 10SM OVC016 06/06 A3024 RMK AO2 SLP242 T00610061 401170056=
202203160653 METAR KPAE 160653Z AUTO 19006KT 10SM FEW016 BKN024 06/06 A3023 RMK AO2 SLP238 T00610061=
202203160553 METAR KPAE 160553Z AUTO 18007KT 10SM OVC100 06/06 A3021 RMK AO2 SLP233 60001 T00610061 10106 20061 53016=
202203160536 SPECI KPAE 160536Z AUTO 20006KT 10SM FEW014 SCT029 OVC110 07/06 A3021 RMK AO2 T00670061=
202203160453 METAR KPAE 160453Z AUTO 18005KT 10SM OVC020 07/06 A3020 RMK AO2 SLP228 T00720061=
202203160425 SPECI KPAE 160425Z AUTO 11004KT 10SM OVC016 07/07 A3019 RMK AO2 T00720067=
202203160414 SPECI KPAE 160414Z AUTO 00000KT 10SM OVC014 07/07 A3018 RMK AO2 T00720067=
202203160353 METAR KPAE 160353Z 10006KT 10SM SCT007 BKN022 07/07 A3018 RMK AO2 RAE47 SLP222 P0000 T00670067=
202203160253 METAR KPAE 160253Z 05004KT 7SM -RA SCT007 BKN022 OVC044 07/07 A3016 RMK AO2 RAE0158B24 SLP217 P0001 60001 T00720072 51019=
202203160200 SPECI KPAE 160200Z 01006KT 10SM SCT007 BKN022 OVC044 07/07 A3015 RMK AO2 RAE0158 P0000 T00720072=
202203160153 METAR KPAE 160153Z 36005KT 10SM -RA BKN013 BKN028 OVC100 07/07 A3015 RMK AO2 RAE0059B48 SLP213 P0000 T00720072=
202203160053 METAR KPAE 160053Z 33004KT 10SM -RA BKN013 BKN038 OVC095 08/07 A3013 RMK AO2 RAB49 SLP206 P0000 T00780072=
202203152353 METAR KPAE 152353Z 21013G24KT 10SM FEW032 SCT085 11/06 A3011 RMK AO2 PK WND 19028/2257 SLP196 60000 T01060056 10117 20089 53006=
202203152253 METAR KPAE 152253Z 19018G24KT 10SM SCT070 10/04 A3008 RMK AO2 PK WND 19033/2240 SLP189 T01000039=
202203152153 METAR KPAE 152153Z 19018G26KT 10SM FEW043 SCT070 OVC100 11/04 A3008 RMK AO2 PK WND 20026/2108 RAB23E36 SLP188 P0000 T01110044=
202203152053 METAR KPAE 152053Z 20010G17KT 10SM SCT030 BKN036 BKN070 11/06 A3009 RMK AO2 SLP190 T01110056 51015=
202203152000 SPECI KPAE 152000Z 20011KT 10SM BKN039 10/07 A3008 RMK AO2 T01000072=
202203151953 METAR KPAE 151953Z 19011KT 10SM BKN021 OVC028 10/07 A3008 RMK AO2 SLP187 T01000072=
202203151900 SPECI KPAE 151900Z 20010KT 10SM BKN021 OVC028 09/07 A3007 RMK AO2 T00940067=
202203151853 METAR KPAE 151853Z 21013G19KT 10SM BKN014 BKN019 BKN024 09/07 A3006 RMK AO2 SLP183 T00940067=
202203151753 METAR KPAE 151753Z 20014G22KT 10SM BKN014 OVC022 09/07 A3004 RMK AO2 SLP176 T00890072 10089 20072 51021=
202203151653 METAR KPAE 151653Z 20013G20KT 10SM BKN013 OVC020 08/07 A3002 RMK AO2 SLP170 T00830072=
202203151553 METAR KPAE 151553Z 19014G20KT 10SM OVC010 08/08 A3000 RMK AO2 CIG 009V013 SLP162 T00780078=
202203151453 METAR KPAE 151453Z 19011KT 10SM OVC011 07/07 A2998 RMK AO2 SLP155 T00720072 53022=
202203151430 SPECI KPAE 151430Z 20012G20KT 10SM BKN011 OVC033 07/07 A2998 RMK AO2 T00720067=
202203151411 SPECI KPAE 151411Z 20013KT 10SM FEW011 BKN032 OVC100 07/07 A2997 RMK AO2 T00720067=
202203151353 METAR KPAE 151353Z 20014KT 10SM BKN011 BKN016 OVC090 07/07 A2996 RMK AO2 PK WND 19027/1313 SLP148 T00720072=
202203151253 METAR KPAE 151253Z AUTO 19018G26KT 10SM BKN011 OVC075 08/08 A2992 RMK AO2 PK WND 19029/1223 CIG 007V013 SLP134 T00780078=
202203151240 SPECI KPAE 151240Z AUTO 18019G29KT 10SM SCT011 OVC075 08/08 A2992 RMK AO2 PK WND 19029/1223 T00780078=
202203151153 METAR KPAE 151153Z AUTO 18016G25KT 10SM OVC007 08/08 A2991 RMK AO2 PK WND 18027/1138 CIG 005V010 SLP132 60002 70005 T00780078 10078 20067 55001=
202203151053 METAR KPAE 151053Z AUTO 16016G25KT 10SM OVC006 07/07 A2989 RMK AO2 PK WND 15029/1036 RAE0957 CIG 004V009 SLP123 P0000 T00720072=
202203151018 SPECI KPAE 151018Z AUTO 16018G25KT 10SM BKN007 BKN080 07/07 A2989 RMK AO2 RAE0957 CIG 004V012 P0000 T00720072=
202203151011 SPECI KPAE 151011Z AUTO 16016G25KT 10SM SCT007 BKN011 OVC085 07/07 A2990 RMK AO2 RAE0957 P0000 T00720072=
202203150953 METAR KPAE 150953Z AUTO 16015G24KT 10SM -RA BKN007 BKN017 OVC080 07/07 A2990 RMK AO2 SLP126 P0002 T00670067=
202203150937 SPECI KPAE 150937Z AUTO 15015KT 7SM -RA SCT007 BKN017 OVC048 07/07 A2991 RMK AO2 P0001 T00670067=
202203150929 SPECI KPAE 150929Z AUTO 16014KT 10SM -RA BKN007 BKN017 OVC050 07/07 A2992 RMK AO2 P0001 T00670067=
202203150921 SPECI KPAE 150921Z AUTO 15014G19KT 8SM -RA FEW007 BKN016 OVC080 07/07 A2992 RMK AO2 P0001 T00670067=
202203150853 METAR KPAE 150853Z AUTO 15012KT 10SM -RA SCT008 OVC013 07/07 A2992 RMK AO2 RAB16 SLP132 P0000 60000 T00670067 58012=
202203150824 SPECI KPAE 150824Z AUTO 15009KT 6SM -RA BR OVC014 07/07 A2992 RMK AO2 RAB16 P0000 T00670067=
202203150753 METAR KPAE 150753Z AUTO 15008KT 8SM OVC015 07/07 A2993 RMK AO2 RAB15E42 SLP137 P0000 T00670067 400940061=
202203150653 METAR KPAE 150653Z AUTO 15011KT 8SM OVC017 07/07 A2995 RMK AO2 RAE0559 SLP144 P0000 T00670067=
202203150553 METAR KPAE 150553Z AUTO VRB04KT 10SM -RA OVC029 07/07 A2995 RMK AO2 SLP145 P0000 60002 T00670067 10072 20061 56007=
202203150504 SPECI KPAE 150504Z AUTO VRB05G14KT 10SM -RA FEW009 OVC035 06/06 A2996 RMK AO2 P0000 T00610061=
202203150453 METAR KPAE 150453Z AUTO 15011KT 10SM -RA SCT010 SCT014 OVC035 06/06 A2996 RMK AO2 RAE05B47 SLP147 P0000 T00610061=
202203150451 SPECI KPAE 150451Z AUTO 15010KT 10SM -RA SCT010 BKN029 OVC039 06/06 A2996 RMK AO2 RAE05B47 P0000=
202203150424 SPECI KPAE 150424Z AUTO 18012G18KT 10SM BKN011 BKN015 OVC031 07/07 A2996 RMK AO2 RAE05 P0000 T00670067=
202203150353 METAR KPAE 150353Z 16011G23KT 8SM -RA BKN009 OVC017 07/07 A2995 RMK AO2 CIG 007V012 SLP144 P0001 T00670067=
202203150255 SPECI KPAE 150255Z 16009G19KT 6SM -RA BR BKN006 BKN015 OVC023 07/07 A2997 RMK AO2 P0000 T00670067=
202203150253 METAR KPAE 150253Z 16011G19KT 6SM -RA BR SCT006 BKN012 OVC025 07/07 A2997 RMK AO2 SLP152 P0000 60001 T00670067 58019=
202203150231 SPECI KPAE 150231Z 16011KT 7SM -RA BKN006 BKN012 OVC045 07/07 A2998 RMK AO2 P0000 T00670067=
202203150228 SPECI KPAE 150228Z 16010KT 7SM -RA SCT006 BKN025 OVC045 07/07 A2998 RMK AO2 P0000 T00670067=
202203150212 SPECI KPAE 150212Z 16011KT 7SM -RA SCT007 SCT023 OVC043 07/07 A2999 RMK AO2 P0000 T00670067=
202203150153 METAR KPAE 150153Z 17009KT 6SM -RA BR SCT007 BKN010 OVC029 07/07 A3000 RMK AO2 SLP163 P0001 T00670067=
202203150053 METAR KPAE 150053Z 18013KT 5SM -RA BR BKN007 BKN013 OVC037 07/07 A3001 RMK AO2 SLP165 P0000 T00670067=
202203150025 SPECI KPAE 150025Z 18014KT 5SM -RA BR FEW009 BKN013 OVC043 07/07 A3002 RMK AO2 P0000 T00670067=
202203150023 SPECI KPAE 150023Z 19014KT 6SM -RA BR SCT011 BKN017 OVC043 07/07 A3002 RMK AO2 P0000 T00670067=
202203142353 METAR KPAE 142353Z 18014KT 6SM -RA BR FEW011 BKN041 OVC050 07/07 A3003 RMK AO2 PK WND 18036/2303 SLP172 P0000 60001 T00720072 10094 20072 56013=
202203142318 SPECI KPAE 142318Z 18016G31KT 4SM -RA BR FEW018 SCT025 OVC046 07/07 A3004 RMK AO2 PK WND 18036/2303 P0000 T00720067=
202203142253 METAR KPAE 142253Z 17020G33KT 4SM -RA BR SCT011 BKN021 OVC060 08/08 A3004 RMK AO2 PK WND 17033/2253 SLP176 P0001 T00780078=
202203142243 SPECI KPAE 142243Z 16011G23KT 5SM -RA BR SCT009 BKN017 OVC040 08/08 A3005 RMK AO2 P0001 T00780078=
202203142217 SPECI KPAE 142217Z 18009KT 4SM -RA BR BKN009 OVC015 08/08 A3005 RMK AO2 CIG 007V012 P0000 T00780078=
202203142153 METAR KPAE 142153Z 17010KT 4SM -RA BR BKN014 OVC024 08/08 A3005 RMK AO2 PK WND 16026/2127 RAE03B21 SLP179 P0000 T00830083=
202203142034 SPECI KPAE 142034Z 16017G23KT 10SM SCT028 SCT070 OVC090 09/07 A3007 RMK AO2 T00890067=
202203142017 SPECI KPAE 142017Z 17014G22KT 10SM FEW019 BKN028 OVC090 09/07 A3008 RMK AO2 T00890067=
202203142009 SPECI KPAE 142009Z 17016G22KT 10SM FEW020 BKN070 OVC090 09/07 A3008 RMK AO2 T00890067=
202203142000 SPECI KPAE 142000Z 16015G22KT 10SM SCT020 BKN027 OVC090 09/07 A3008 RMK AO2 CIG 025V041 T00890067=
202203141953 METAR KPAE 141953Z 16015G23KT 10SM FEW020 SCT027 OVC085 09/07 A3008 RMK AO2 SLP189 T00890067=
202203141853 METAR KPAE 141853Z 18016G21KT 10SM FEW020 SCT027 OVC085 09/07 A3009 RMK AO2 SLP191 T00890067=
202203141842 SPECI KPAE 141842Z 16014KT 10SM SCT017 BKN046 OVC085 09/07 A3009 RMK AO2 T00890067=
202203141753 METAR KPAE 141753Z 17011G21KT 10SM BKN018 BKN035 OVC044 08/06 A3011 RMK AO2 SLP198 T00830061 10083 20067 51005=
202203141653 METAR KPAE 141653Z 16015G24KT 10SM FEW013 FEW031 SCT110 08/06 A3010 RMK AO2 SLP196 T00780061=
202203141553 METAR KPAE 141553Z 16016G29KT 10SM FEW033 BKN090 07/06 A3011 RMK AO2 PK WND 14029/1544 SLP199 T00720056=
202203141453 METAR KPAE 141453Z 16015G22KT 10SM SCT075 BKN100 07/04 A3009 RMK AO2 PK WND 18029/1358 SLP193 T00670044 58006=
202203141353 METAR KPAE 141353Z 17016G27KT 10SM SCT022 07/04 A3011 RMK AO2 PK WND 19028/1322 SLP200 T00670044=
202203141318 SPECI KPAE 141318Z AUTO 18019G26KT 10SM SCT022 BKN095 07/04 A3011 RMK AO2 PK WND 16027/1306 T00670044=
202203141253 METAR KPAE 141253Z AUTO 16015G27KT 10SM OVC022 07/04 A3013 RMK AO2 PK WND 15027/1251 SLP204 T00720044=
202203141153 METAR KPAE 141153Z AUTO 15011G19KT 10SM OVC023 07/05 A3011 RMK AO2 PK WND 16026/1101 SLP198 60000 T00670050 10072 20061 58011=
202203141053 METAR KPAE 141053Z AUTO 15013G23KT 10SM OVC024 07/06 A3013 RMK AO2 RAE0955 SLP203 P0000 T00670056=
202203140953 METAR KPAE 140953Z AUTO 16015KT 10SM -RA OVC018 07/06 A3014 RMK AO2 PK WND 15030/0921 RAE05B49 SLP208 P0000 T00670056=
202203140931 SPECI KPAE 140931Z AUTO 16012G26KT 10SM BKN019 OVC100 07/06 A3014 RMK AO2 PK WND 15030/0921 RAE05 P0000 T00670056=
202203140853 METAR KPAE 140853Z AUTO 18020G31KT 10SM -RA SCT016 BKN055 OVC120 07/06 A3014 RMK AO2 PK WND 19031/0846 RAB10 SLP210 P0000 60000 T00670056 51004=
202203140753 METAR KPAE 140753Z AUTO 19016G27KT 9SM OVC013 07/06 A3014 RMK AO2 PK WND 18031/0727 SLP209 T00670061 401110056=
202203140746 SPECI KPAE 140746Z AUTO 19021G28KT 10SM BKN013 OVC095 07/06 A3014 RMK AO2 PK WND 18031/0727 T00670061=
202203140735 SPECI KPAE 140735Z AUTO 18022G31KT 10SM BKN017 BKN034 OVC090 07/06 A3013 RMK AO2 PK WND 18031/0727 T00670056=
202203140727 SPECI KPAE 140727Z AUTO 18024G31KT 10SM SCT019 BKN034 OVC095 07/06 A3012 RMK AO2 PK WND 18031/0727 T00670056=
202203140653 METAR KPAE 140653Z AUTO 19019G28KT 10SM BKN016 BKN023 OVC055 07/06 A3013 RMK AO2 PK WND 18037/0601 RAB03E52 SLP205 P0000 T00720056=
202203140646 SPECI KPAE 140646Z AUTO 19020G27KT 10SM -RA BKN016 OVC050 07/06 A3013 RMK AO2 PK WND 18037/0601 RAB03 P0000 T00670061=
202203140553 METAR KPAE 140553Z AUTO 18024G38KT 10SM BKN055 OVC070 07/06 A3008 RMK AO2 PK WND 19038/0553 RAE14 SLP189 P0000 60000 T00720056 10106 20072 51029=
202203140453 METAR KPAE 140453Z AUTO 18023G34KT 10SM -RA OVC050 08/07 A3006 RMK AO2 PK WND 19038/0420 RAB0358 SLP181 P0000 T00780072=
202203140353 METAR KPAE 140353Z 19021G29KT 10SM FEW018 BKN055 OVC070 08/07 A3003 RMK AO2 PK WND 20034/0334 RAB32E53 SLP173 P0000 T00830072=
202203140253 METAR KPAE 140253Z 17019G29KT 10SM BKN110 09/07 A3000 RMK AO2 PK WND 17031/0203 SLP160 60000 T00890072 52013=
202203140200 SPECI KPAE 140200Z 18021G28KT 10SM SCT015 09/08 A2998 RMK AO2 PK WND 18026/0200 T00890078=
202203140153 METAR KPAE 140153Z 19018G28KT 5SM BR SCT009 BKN025 OVC035 09/08 A2998 RMK AO2 PK WND 19028/0152 RAE11 SLP154 P0000 T00890083=
202203140108 SPECI KPAE 140108Z 19016KT 5SM -RA BR SCT009 BKN025 OVC035 09/09 A2997 RMK AO2 P0000 T00940089=
202203140053 METAR KPAE 140053Z 19017G27KT 3SM -RA BR BKN009 BKN025 OVC035 09/09 A2997 RMK AO2 PK WND 19027/0028 RAB39 SLP153 P0000 T00940089=
202203140019 SPECI KPAE 140019Z 18012G21KT 10SM BKN024 OVC038 10/07 A2996 RMK AO2 T01000072=
202203140010 SPECI KPAE 140010Z 16012KT 10SM SCT024 BKN040 OVC047 11/07 A2996 RMK AO2 T01060067=
202203140000 SPECI KPAE 140000Z 18014G21KT 10SM BKN024 BKN038 OVC047 11/07 A2996 RMK AO2 T01060072=
202203132353 METAR KPAE 132353Z 18015G21KT 10SM FEW018 BKN030 OVC036 11/07 A2996 RMK AO2 SLP146 T01060067 10111 20083 51016=
202203132253 METAR KPAE 132253Z 16015G22KT 10SM BKN030 OVC036 10/07 A2994 RMK AO2 SLP141 T01000067=
202203132153 METAR KPAE 132153Z 21010KT 10SM BKN030 OVC036 10/06 A2993 RMK AO2 SLP136 T01000056=
202203132053 METAR KPAE 132053Z 20009KT 10SM BKN039 BKN050 11/04 A2991 RMK AO2 SLP130 T01110044 51022=
202203131953 METAR KPAE 131953Z 22008KT 10SM BKN036 OVC045 10/04 A2990 RMK AO2 SLP127 T01000044=
202203131853 METAR KPAE 131853Z 25006KT 10SM FEW026 BKN035 BKN042 09/06 A2987 RMK AO2 SLP118 T00890056=
202203131818 SPECI KPAE 131818Z 23005KT 10SM BKN027 09/06 A2986 RMK AO2 T00940056=
202203131753 METAR KPAE 131753Z 15005KT 10SM CLR 09/06 A2984 RMK AO2 SLP107 T00940056 10094 20056 51018=
202203131653 METAR KPAE 131653Z 21006KT 10SM OVC050 08/06 A2984 RMK AO2 SLP106 T00780061=
202203131553 METAR KPAE 131553Z 17004KT 10SM CLR 07/06 A2980 RMK AO2 SLP095 T00670061=
202203131453 METAR KPAE 131453Z 15003KT 10SM SCT055 06/06 A2979 RMK AO2 SLP089 T00610056 53020=
202203131353 METAR KPAE 131353Z 14004KT 10SM BKN038 06/06 A2977 RMK AO2 SLP082 T00610061=
202203131253 METAR KPAE 131253Z 16009KT 10SM BKN040 06/06 A2974 RMK AO2 SLP073 T00610056=
202203131153 METAR KPAE 131153Z 16011KT 10SM FEW027 07/06 A2973 RMK AO2 SLP068 60001 70001 T00670061 10083 20061 52015=
202203131053 METAR KPAE 131053Z 18012KT 10SM FEW034 BKN060 06/06 A2971 RMK AO2 RAE05B28E39 SLP061 P0000 T00610061=
202203131031 SPECI KPAE 131031Z 19014G21KT 10SM -RA FEW018 BKN038 OVC065 07/06 A2971 RMK AO2 RAE05B28 P0000 T00670061=
202203130953 METAR KPAE 130953Z 14009KT 120V180 4SM -RA BR SCT023 BKN028 OVC040 07/07 A2970 RMK AO2 RAB06 SLP058 P0001 T00670067=
202203130923 SPECI KPAE 130923Z 14007KT 7SM -RA BKN029 OVC038 07/06 A2970 RMK AO2 RAB06 P0000 T00720061=
202203130853 METAR KPAE 130853Z VRB05KT 10SM OVC041 08/06 A2968 RMK AO2 RAB41E52 SLP051 P0000 60000 T00780056 55001=
202203130753 METAR KPAE 130753Z 11006KT 10SM OVC034 08/06 A2967 RMK AO2 RAB10E26 SLP048 P0000 T00780056 401330044=
202203130653 METAR KPAE 130653Z VRB03KT 10SM OVC044 08/05 A2968 RMK AO2 SLP052 T00780050=
202203130553 METAR KPAE 130553Z 11007KT 10SM SCT031 OVC038 08/04 A2969 RMK AO2 SLP053 60000 T00830044 10100 20067 56017=
202203130543 SPECI KPAE 130543Z 11009KT 10SM OVC036 08/04 A2968 RMK AO2 T00830044=
202203130534 SPECI KPAE 130534Z 11009KT 10SM BKN029 OVC038 08/04 A2968 RMK AO2 T00830039=
202203130453 METAR KPAE 130453Z 11006G14KT 10SM OVC035 08/04 A2969 RMK AO2 RAE09 SLP056 P0000 T00780044=
202203130432 SPECI KPAE 130432Z 10008KT 10SM OVC032 08/04 A2969 RMK AO2 RAE09 P0000 T00780044=
202203130420 SPECI KPAE 130420Z 11006KT 10SM FEW024 BKN029 OVC039 08/05 A2970 RMK AO2 RAE09 P0000 T00780050=
202203130353 METAR KPAE 130353Z VRB05KT 10SM -RA FEW035 BKN043 OVC055 08/06 A2971 RMK AO2 RAB0259 SLP063 P0000 T00780056=
202203130253 METAR KPAE 130253Z 15007KT 10SM OVC034 08/06 A2974 RMK AO2 RAE53 SLP072 P0000 60000 T00780056 56015=
202203130153 METAR KPAE 130153Z 19006KT 8SM -RA BKN034 OVC070 08/06 A2974 RMK AO2 RAB11 SLP073 P0000 T00780056=
202203130053 METAR KPAE 130053Z 16009KT 10SM SCT042 OVC070 08/04 A2976 RMK AO2 PK WND 23031/2354 RAE50 SLP080 P0000 T00830039=
202203122353 METAR KPAE 122353Z 22010G25KT 10SM -RA SCT047 BKN055 OVC100 10/01 A2978 RMK AO2 RAB50 SLP086 P0000 60000 T01000006 10133 20083 56011=
202203122253 METAR KPAE 122253Z 20013KT 10SM FEW070 SCT090 BKN110 11/M03 A2978 RMK AO2 SLP087 T01111028=
202203122153 METAR KPAE 122153Z 23007KT 10SM CLR 12/M03 A2977 RMK AO2 SLP082 T01171033=
202203122053 METAR KPAE 122053Z 25007KT 10SM CLR 13/M01 A2981 RMK AO2 SLP097 T01281006 58044=
202203121953 METAR KPAE 121953Z 16006KT 10SM CLR 11/M03 A2987 RMK AO2 SLP115 T01111028=
202203121853 METAR KPAE 121853Z 16005KT 10SM FEW050 09/M01 A2991 RMK AO2 SLP132 T00941011=
202203121753 METAR KPAE 121753Z 15006KT 10SM CLR 08/M01 A2995 RMK AO2 SLP143 T00831011 10083 20061 58019=
202203121653 METAR KPAE 121653Z 14005KT 10SM CLR 07/M01 A2997 RMK AO2 SLP152 T00721011=
202203121553 METAR KPAE 121553Z 15009KT 10SM CLR 06/00 A2999 RMK AO2 SLP157 T00610000=
202203121453 METAR KPAE 121453Z 14007KT 10SM BKN041 OVC049 06/01 A3000 RMK AO2 SLP163 T00610006 58018=
202203121353 METAR KPAE 121353Z AUTO 15010KT 10SM OVC043 06/01 A3003 RMK AO2 SLP170 T00610011=
202203121253 METAR KPAE 121253Z AUTO 16009KT 10SM OVC042 06/M01 A3004 RMK AO2 SLP176 T00611011=
202203121153 METAR KPAE 121153Z AUTO 16007KT 10SM OVC046 06/M02 A3006 RMK AO2 SLP182 T00611022 10061 20044 56024=
202203121053 METAR KPAE 121053Z AUTO 16010KT 10SM OVC047 06/M02 A3008 RMK AO2 SLP189 T00611022=
202203120953 METAR KPAE 120953Z AUTO 15009KT 10SM BKN050 06/01 A3011 RMK AO2 SLP198 T00560011=
202203120853 METAR KPAE 120853Z AUTO 00000KT 10SM OVC055 05/04 A3013 RMK AO2 SLP206 T00500039 58006=
202203120753 METAR KPAE 120753Z AUTO 02004KT 10SM CLR 05/04 A3014 RMK AO2 SLP210 T00500039 400830033=
202203120653 METAR KPAE 120653Z AUTO 35003KT 10SM SCT055 05/04 A3016 RMK AO2 SLP215 T00500044=
202203120553 METAR KPAE 120553Z AUTO 23004KT 10SM CLR 06/03 A3015 RMK AO2 SLP213 T00610028 10083 20061 55002=
202203120453 METAR KPAE 120453Z 23005KT 10SM FEW050 07/03 A3014 RMK AO2 SLP210 T00670028=
202203120353 METAR KPAE 120353Z 10SM CLR 08/01 A3014 RMK AO2 SLP211 T00780006=
202203120253 METAR KPAE 120253Z VRB05KT 10SM CLR 08/00 A3015 RMK AO2 SLP214 T00830000 56023=
202203120153 METAR KPAE 120153Z 10SM CLR 08/00 A3017 RMK AO2 SLP221 T00830000=
202203120053 METAR KPAE 120053Z 11007KT 10SM CLR 08/M01 A3020 RMK AO2 SLP229 T00831011=
202203112353 METAR KPAE 112353Z 15006KT 10SM CLR 08/M02 A3022 RMK AO2 SLP238 T00781017 10083 20056 58022=
202203112253 METAR KPAE 112253Z 15004KT 10SM FEW120 08/M01 A3025 RMK AO2 SLP246 T00781006=
202203112153 METAR KPAE 112153Z 11004KT 10SM CLR 08/M01 A3027 RMK AO2 SLP253 T00781006=
202203112053 METAR KPAE 112053Z 10005KT 10SM SCT110 07/M01 A3029 RMK AO2 SLP261 T00721006 58008=
202203111953 METAR KPAE 111953Z 10004KT 10SM BKN047 OVC110 07/M01 A3031 RMK AO2 SLP267 T00671006=
202203111853 METAR KPAE 111853Z 09006KT 10SM OVC045 06/M01 A3031 RMK AO2 SLP269 T00561006=
202203111753 METAR KPAE 111753Z VRB03KT 10SM OVC046 06/M02 A3031 RMK AO2 SLP269 T00561017 10056 20033 56001=
202203111653 METAR KPAE 111653Z 09004KT 10SM BKN046 OVC060 05/M03 A3032 RMK AO2 SLP271 T00501028=
202203111553 METAR KPAE 111553Z 11006KT 10SM OVC055 04/M03 A3031 RMK AO2 SLP268 T00391028=
202203111453 METAR KPAE 111453Z VRB03KT 10SM OVC055 03/M02 A3032 RMK AO2 SLP271 T00331022 50000=
202203111353 METAR KPAE 111353Z AUTO 11005KT 10SM OVC055 04/M03 A3031 RMK AO2 SLP269 T00391028=
202203111253 METAR KPAE 111253Z AUTO 10004KT 10SM BKN038 BKN049 OVC060 03/M03 A3033 RMK AO2 SLP273 T00331033=
202203111153 METAR KPAE 111153Z AUTO 06003KT 10SM OVC075 04/M03 A3032 RMK AO2 SLP271 T00391033 10050 20039 57010=
202203111053 METAR KPAE 111053Z AUTO 11005KT 10SM BKN040 OVC055 04/M03 A3033 RMK AO2 SLP274 T00391033=
202203110953 METAR KPAE 110953Z AUTO 05004KT 10SM SCT043 OVC065 04/M03 A3034 RMK AO2 SLP277 T00391033=
202203110853 METAR KPAE 110853Z AUTO 06006KT 10SM SCT044 OVC070 04/M03 A3035 RMK AO2 SLP281 T00391033 58003=
202203110753 METAR KPAE 110753Z AUTO 05005KT 10SM OVC047 04/M04 A3035 RMK AO2 SLP281 T00441039 400721011=
202203110653 METAR KPAE 110653Z AUTO 05004KT 10SM OVC065 05/M04 A3036 RMK AO2 SLP284 T00501044=
202203110553 METAR KPAE 110553Z AUTO 05006KT 10SM OVC060 05/M03 A3036 RMK AO2 SLP284 T00501033 10067 20050 51006=
202203110453 METAR KPAE 110453Z VRB04KT 10SM OVC050 05/M04 A3035 RMK AO2 SLP283 T00501039=
202203110353 METAR KPAE 110353Z 00000KT 10SM OVC055 05/M05 A3035 RMK AO2 SLP281 T00501050=
202203110253 METAR KPAE 110253Z VRB03KT 10SM OVC060 06/M07 A3034 RMK AO2 SLP278 T00611072 55001=
202203110153 METAR KPAE 110153Z 30004KT 10SM OVC075 06/M08 A3032 RMK AO2 SLP274 T00611078=
202203110053 METAR KPAE 110053Z 24003KT 10SM OVC080 07/M08 A3033 RMK AO2 SLP276 T00671083=
202203102353 METAR KPAE 102353Z 23003KT 10SM OVC110 06/M06 A3034 RMK AO2 SLP280 T00611056 10072 20044 56002=
202203102253 METAR KPAE 102253Z 27007KT 10SM SCT120 07/M06 A3035 RMK AO2 SLP281 T00671061=
202203102153 METAR KPAE 102153Z 30003KT 10SM CLR 07/M07 A3034 RMK AO2 SLP278 T00671067=
202203102053 METAR KPAE 102053Z 24004KT 10SM CLR 07/M05 A3035 RMK AO2 SLP282 T00721050 58007=
202203101953 METAR KPAE 101953Z VRB04KT 10SM CLR 07/M03 A3037 RMK AO2 SLP288 T00671028=
202203101853 METAR KPAE 101853Z 26004KT 10SM CLR 06/M03 A3038 RMK AO2 SLP292 T00561028=
202203101753 METAR KPAE 101753Z VRB06KT 10SM CLR 04/M04 A3037 RMK AO2 SLP289 T00441039 10044 21011 51008=
202203101653 METAR KPAE 101653Z 16006KT 10SM CLR 03/M03 A3037 RMK AO2 SLP288 T00281028=
202203101553 METAR KPAE 101553Z 16005KT 10SM CLR 01/M04 A3036 RMK AO2 SLP286 T00061039=
202203101453 METAR KPAE 101453Z 15004KT 10SM CLR M01/M04 A3034 RMK AO2 SLP281 T10061039 53002=
202203101353 METAR KPAE 101353Z AUTO 14004KT 10SM CLR M01/M04 A3033 RMK AO2 SLP277 T10061039 $=
202203101253 METAR KPAE 101253Z AUTO 12003KT 10SM CLR M01/M04 A3034 RMK AO2 SLP278 T10061039 $=
202203101153 METAR KPAE 101153Z AUTO 11004KT 10SM CLR M01/M04 A3034 RMK AO2 SLP278 T10061044 10022 21011 55001 $=
202203101053 METAR KPAE 101053Z AUTO 15003KT 10SM CLR 00/M05 A3033 RMK AO2 SLP277 T00001050=
202203100953 METAR KPAE 100953Z AUTO 12003KT 10SM CLR 01/M07 A3033 RMK AO2 SLP275 T00061067=
202203100853 METAR KPAE 100853Z AUTO 00000KT 10SM CLR 00/M06 A3034 RMK AO2 SLP279 T00001056 53009=
202203100753 METAR KPAE 100753Z AUTO 00000KT 10SM CLR 00/M06 A3032 RMK AO2 SLP274 T00001056 400830000=
202203100653 METAR KPAE 100653Z AUTO 00000KT 10SM CLR 02/M05 A3032 RMK AO2 SLP273 T00171050=
202203100553 METAR KPAE 100553Z AUTO 34004KT 10SM CLR 02/M05 A3031 RMK AO2 SLP270 T00221050 10067 20017 53008=
202203100453 METAR KPAE 100453Z 34005KT 10SM CLR 02/M06 A3030 RMK AO2 SLP264 T00221056=
202203100353 METAR KPAE 100353Z 32004KT 10SM CLR 03/M08 A3028 RMK AO2 SLP259 T00281083=
202203100253 METAR KPAE 100253Z 33005KT 10SM CLR 04/M11 A3029 RMK AO2 SLP261 T00391111 51008=
202203100153 METAR KPAE 100153Z 33004KT 10SM CLR 05/M11 A3028 RMK AO2 SLP258 T00501111=
202203100053 METAR KPAE 100053Z 33008KT 10SM CLR 06/M12 A3027 RMK AO2 SLP255 T00611117=
202203092353 METAR KPAE 092353Z VRB06KT 10SM CLR 07/M12 A3026 RMK AO2 SLP251 T00671117 10083 20044 53004=
202203092253 METAR KPAE 092253Z 31010G18KT 10SM CLR 07/M10 A3025 RMK AO2 SLP249 T00671100=
202203092153 METAR KPAE 092153Z 33006G14KT 10SM CLR 08/M11 A3025 RMK AO2 SLP247 T00781106=
202203092053 METAR KPAE 092053Z 32008KT 10SM CLR 07/M10 A3025 RMK AO2 SLP247 T00721100 50001=
202203091953 METAR KPAE 091953Z 31006KT 10SM CLR 07/M08 A3026 RMK AO2 SLP250 T00671078=
202203091853 METAR KPAE 091853Z 35006KT 10SM CLR 06/M07 A3025 RMK AO2 SLP249 T00561072=
202203091753 METAR KPAE 091753Z 35007KT 10SM CLR 05/M07 A3025 RMK AO2 SLP246 T00501067 10050 20006 51014=
202203091653 METAR KPAE 091653Z 36005KT 10SM CLR 04/M07 A3024 RMK AO2 SLP244 T00391067=
202203091553 METAR KPAE 091553Z 36004KT 10SM CLR 02/M05 A3022 RMK AO2 SLP238 T00221050=
202203091506 SPECI KPAE 091506Z 00000KT 10SM SCT024 02/M06 A3021 RMK AO2 T00171056=
202203091453 METAR KPAE 091453Z 03004KT 10SM BKN025 BKN034 OVC100 02/M05 A3020 RMK AO2 SLP232 T00221050 53008=
202203091353 METAR KPAE 091353Z AUTO 01006KT 10SM BKN018 OVC027 02/M02 A3019 RMK AO2 SLP227 T00221017 $=
202203091346 SPECI KPAE 091346Z AUTO 03003KT 10SM SCT018 BKN027 OVC100 02/M02 A3019 RMK AO2 T00221017 $=
202203091253 METAR KPAE 091253Z AUTO 02005KT 10SM OVC095 02/M01 A3018 RMK AO2 SLP225 T00171006 $=
202203091153 METAR KPAE 091153Z AUTO 35003KT 10SM FEW014 OVC090 02/02 A3018 RMK AO2 SLP223 70003 T00220022 10033 20011 51003 $=
202203091148 SPECI KPAE 091148Z AUTO 00000KT 10SM SCT014 OVC090 03/03 A3018 RMK AO2 $=
202203091053 METAR KPAE 091053Z AUTO 05004KT 10SM BKN014 OVC100 03/03 A3017 RMK AO2 SLP222 T00280028 $=
202203090953 METAR KPAE 090953Z AUTO 09006KT 10SM BKN100 BKN120 02/02 A3017 RMK AO2 SLP220 T00220022 $=
202203090853 METAR KPAE 090853Z AUTO 09005KT 10SM SCT001 02/02 A3016 RMK AO2 SLP217 T00220022 55000 $=
202203090846 SPECI KPAE 090846Z AUTO 09006KT 5SM R16R/2800VP6000FT BR SCT001 02/02 A3016 RMK AO2 T00170017 $=
202203090843 SPECI KPAE 090843Z AUTO 10005KT 2SM R16R/2600VP6000FT BR BKN001 02/02 A3016 RMK AO2 T00170017 $=
202203090828 SPECI KPAE 090828Z AUTO VRB03KT 1/2SM R16R/2200V3500FT FG VV001 01/01 A3016 RMK AO2 T00110011 $=
202203090820 SPECI KPAE 090820Z AUTO 00000KT 1SM R16R/3000VP6000FT BR VV001 02/02 A3015 RMK AO2 T00170017 $=
202203090815 SPECI KPAE 090815Z AUTO 00000KT 2 1/2SM BR FEW002 02/02 A3015 RMK AO2 T00220022 $=
202203090753 METAR KPAE 090753Z AUTO 10004KT 10SM CLR 03/02 A3015 RMK AO2 SLP215 T00280017 400890011 $=
202203090653 METAR KPAE 090653Z AUTO 00000KT 10SM CLR 03/02 A3016 RMK AO2 SLP216 T00280017 $=
202203090553 METAR KPAE 090553Z AUTO 00000KT 10SM CLR 03/02 A3016 RMK AO2 SLP218 T00330017 10089 20028 51004 $=
202203090453 METAR KPAE 090453Z AUTO 00000KT 10SM CLR 04/02 A3016 RMK AO2 SLP217 T00390022 $=
202203090353 METAR KPAE 090353Z 35003KT 10SM CLR 05/02 A3015 RMK AO2 SLP215 T00500017 $=
202203090253 METAR KPAE 090253Z 31006KT 10SM CLR 06/02 A3015 RMK AO2 SLP213 T00610017 58012 $=
202203090153 METAR KPAE 090153Z 28007KT 10SM SCT085 07/03 A3016 RMK AO2 SLP217 T00670028 $=
202203090053 METAR KPAE 090053Z 32005KT 10SM SCT070 OVC090 08/04 A3018 RMK AO2 SLP222 T00780044 $=
202203090000 SPECI KPAE 090000Z 30005KT 10SM SCT016 BKN090 08/06 A3019 RMK AO2 T00830056 $=
202203082353 METAR KPAE 082353Z 29004KT 10SM SCT016 BKN019 BKN090 09/06 A3019 RMK AO2 SLP225 60000 T00890056 10089 20056 56014 $=
202203082317 SPECI KPAE 082317Z 27006KT 10SM SCT012 OVC019 08/07 A3019 RMK AO2 T00830067 $=
202203082253 METAR KPAE 082253Z 27006KT 10SM BKN010 08/07 A3020 RMK AO2 CIG 005V016 SLP229 T00830072 $=
202203082206 SPECI KPAE 082206Z 31006KT 6SM BR SCT002 BKN005 OVC010 07/07 A3021 RMK AO2 T00670067 $=
202203082200 SPECI KPAE 082200Z 30005KT 5SM BR BKN003 BKN010 OVC016 07/07 A3021 RMK AO2 T00720072 $=
202203082153 METAR KPAE 082153Z 31005KT 1SM R16R/P6000FT BR BKN003 BKN006 OVC018 07/07 A3021 RMK AO2 SLP234 T00670067 $=
202203082053 METAR KPAE 082053Z 30007KT 1SM R16R/P6000FT BR OVC003 06/06 A3023 RMK AO2 RAB19E53 SLP240 P0000 60000 T00610061 58009 $=
202203082046 SPECI KPAE 082046Z 31006KT 1SM R16R/P6000FT -RA BR BKN003 OVC006 06/06 A3023 RMK AO2 RAB19 CIG 002V005 P0000 T00610061 $=
202203082023 SPECI KPAE 082023Z 30005KT 1SM R16R/P6000FT -RA BR OVC005 06/06 A3024 RMK AO2 RAB19 CIG 003V008 P0000 T00610061 $=
202203081953 METAR KPAE 081953Z 28005KT 1SM R16R/P6000FT BR BKN002 OVC012 06/06 A3024 RMK AO2 RAE50 SLP244 P0000 T00610061 $=
202203081853 METAR KPAE 081853Z 24003KT 1 1/2SM -RA BR OVC002 06/06 A3025 RMK AO2 RAE06B22 SLP249 P0000 T00560056 $=
202203081826 SPECI KPAE 081826Z 23004KT 1 1/2SM -RA BR BKN003 OVC007 06/06 A3026 RMK AO2 RAE06B22 P0000 T00560056 $=
202203081753 METAR KPAE 081753Z 22007KT 1 1/2SM -RA BR SCT002 BKN005 OVC008 06/06 A3026 RMK AO2 SLP250 P0000 60003 T00560056 10061 20050 58007 $=
202203081653 METAR KPAE 081653Z 23005KT 1 1/4SM R16R/4000V6000FT -RA BR OVC002 06/06 A3027 RMK AO2 SLP254 P0001 T00560056 $=
202203081626 SPECI KPAE 081626Z 00000KT 1 3/4SM -RA BR OVC003 06/06 A3027 RMK AO2 P0000 T00560056 $=
202203081605 SPECI KPAE 081605Z 00000KT 3SM -RA BR BKN004 OVC011 06/06 A3027 RMK AO2 P0000 T00560056 $=
202203081553 METAR KPAE 081553Z 20004KT 5SM -RA BR BKN009 OVC025 06/06 A3027 RMK AO2 SLP254 P0000 T00560056 $=
202203081514 SPECI KPAE 081514Z 24005KT 3SM -RA BR BKN009 OVC025 06/06 A3028 RMK AO2 P0000 T00560056 $=
202203081453 METAR KPAE 081453Z VRB03KT 8SM -RA BKN013 BKN049 OVC060 06/06 A3028 RMK AO2 RAE26B50 SLP257 P0000 60002 T00560056 56017 $=
202203081406 SPECI KPAE 081406Z AUTO 20004KT 4SM -RA BR FEW003 SCT008 OVC038 06/06 A3029 RMK AO2 P0000 T00560056 $=
202203081353 METAR KPAE 081353Z AUTO 22005KT 4SM -RA BR FEW017 SCT024 OVC040 06/06 A3030 RMK AO2 SLP262 P0000 T00560056 $=
202203081338 SPECI KPAE 081338Z AUTO 20004KT 5SM -RA BR FEW018 BKN025 OVC044 06/06 A3030 RMK AO2 P0000 T00560056 $=
202203081258 SPECI KPAE 081258Z AUTO 21005KT 4SM -RA BR SCT002 OVC034 06/06 A3031 RMK AO2 P0000 T00560056 $=
202203081253 METAR KPAE 081253Z AUTO 21005KT 4SM -RA BR BKN002 BKN006 OVC034 06/06 A3031 RMK AO2 SLP269 P0002 T00560056 $=
202203081230 SPECI KPAE 081230Z AUTO 22005KT 3SM -RA BR OVC003 06/06 A3032 RMK AO2 P0002 T00560056 $=
202203081153 METAR KPAE 081153Z AUTO 23005KT 4SM -RA BR BKN005 BKN030 OVC036 06/06 A3033 RMK AO2 SLP274 P0000 60000 T00560056 10061 20056 56008=
202203081109 SPECI KPAE 081109Z AUTO 22005KT 5SM -RA BR FEW009 BKN036 OVC043 06/06 A3033 RMK AO2 P0000 T00560056=
202203081053 METAR KPAE 081053Z AUTO 21008KT 5SM -RA BR BKN036 OVC043 06/06 A3034 RMK AO2 SLP276 P0000 T00560056=
202203080953 METAR KPAE 080953Z AUTO 18008KT 9SM -RA FEW045 OVC055 06/06 A3035 RMK AO2 RAB32 SLP279 P0000 T00560056=
202203080939 SPECI KPAE 080939Z AUTO 19007KT 9SM -RA SCT008 SCT014 OVC055 06/06 A3035 RMK AO2 RAB32 P0000 T00560056=
202203080916 SPECI KPAE 080916Z AUTO 00000KT 10SM BKN008 OVC060 06/06 A3035 RMK AO2 T00560056=
202203080853 METAR KPAE 080853Z AUTO 18005KT 10SM FEW009 BKN065 OVC080 06/05 A3036 RMK AO2 SLP283 T00560050 56013=
202203080753 METAR KPAE 080753Z AUTO 17006KT 10SM SCT019 OVC085 06/04 A3036 RMK AO2 SLP285 T00560044 400780011=
202203080653 METAR KPAE 080653Z AUTO 16008KT 10SM BKN017 OVC095 06/04 A3038 RMK AO2 SLP291 T00560044=
202203080629 SPECI KPAE 080629Z AUTO 17004KT 10SM BKN016 BKN100 06/05 A3039 RMK AO2 T00560050=
202203080553 METAR KPAE 080553Z AUTO 16006KT 10SM FEW016 OVC110 06/04 A3040 RMK AO2 SLP298 T00560044 10072 20050 56009=
202203080453 METAR KPAE 080453Z 16006KT 10SM OVC110 06/04 A3040 RMK AO2 SLP299 T00560044=
202203080353 METAR KPAE 080353Z 18006KT 10SM OVC065 06/05 A3042 RMK AO2 SLP304 T00610050=
202203080253 METAR KPAE 080253Z 19005KT 10SM CLR 06/05 A3042 RMK AO2 SLP307 T00610050 56009=
202203080153 METAR KPAE 080153Z 22005KT 10SM CLR 07/05 A3043 RMK AO2 SLP309 T00670050=
202203080053 METAR KPAE 080053Z 23010KT 10SM CLR 07/05 A3044 RMK AO2 SLP312 T00670050=
202203072353 METAR KPAE 072353Z 24008KT 10SM CLR 07/05 A3045 RMK AO2 SLP317 T00720050 10078 20033 56018=
202203072309 SPECI KPAE 072309Z 23009KT 10SM SCT013 08/06 A3046 RMK AO2 T00780056=
202203072253 METAR KPAE 072253Z 23007KT 10SM BKN013 07/06 A3047 RMK AO2 SLP321 T00720056=
202203072214 SPECI KPAE 072214Z 21007KT 10SM OVC015 08/05 A3048 RMK AO2 T00780050=
202203072153 METAR KPAE 072153Z 19009KT 10SM OVC013 07/05 A3049 RMK AO2 SLP328 T00720050=
202203072131 SPECI KPAE 072131Z 18007KT 10SM OVC011 07/05 A3049 RMK AO2 T00670050=
202203072100 SPECI KPAE 072100Z 19007KT 9SM OVC007 06/05 A3050 RMK AO2 CIG 005V011 T00610050=
202203072053 METAR KPAE 072053Z 20006KT 1SM R16R/P6000FT BR OVC005 06/06 A3051 RMK AO2 CIG 004V009 SLP335 T00610056 56004=
202203072049 SPECI KPAE 072049Z 19004KT 1SM R16R/P6000FT BR OVC005 06/06 A3051 RMK AO2 CIG 004V008=
202203071953 METAR KPAE 071953Z 18007KT 1SM R16R/P6000FT BR OVC004 05/05 A3052 RMK AO2 SLP339 T00500050 $=
202203071945 SPECI KPAE 071945Z 18007KT 1SM R16R/P6000FT BR OVC003 05/05 A3052 RMK AO2 T00500050 $=
202203071926 SPECI KPAE 071926Z 20008KT 3/4SM R16R/P6000FT BR OVC001 04/04 A3052 RMK AO2 T00440044 $=
202203071919 SPECI KPAE 071919Z 18007KT 3/4SM R16R/P6000FT BR OVC002 04/04 A3052 RMK AO2 T00440044 $=
202203071853 METAR KPAE 071853Z 18006KT 3/4SM R16R/1800V5500FT BR VV001 04/04 A3052 RMK AO2 SLP339 T00390039 $=
202203071833 SPECI KPAE 071833Z 16009KT 1SM R16R/1600V2600FT BR VV001 03/03 A3052 RMK AO2 T00330033 $=
202203071825 SPECI KPAE 071825Z 17007KT 1SM R16R/1400V2200FT BR VV001 04/04 A3052 RMK AO2 T00390039 $=
202203071753 METAR KPAE 071753Z 17007KT 1SM R16R/P6000FT BR VV001 04/04 A3052 RMK AO2 SLP340 T00390039 10056 20011 50003 $=
202203071732 SPECI KPAE 071732Z 19007KT 4SM BR BKN002 BKN021 06/05 A3052 RMK AO2 T00560050 $=
202203071702 SPECI KPAE 071702Z 21003KT 5SM BR SCT002 BKN012 04/04 A3052 RMK AO2 T00440044 $=
202203071659 SPECI KPAE 071659Z 18003KT 6SM BR SCT002 OVC021 04/04 A3052 RMK AO2 T00440044 $=
202203071653 METAR KPAE 071653Z 17003KT 1SM R16R/P6000FT BR BKN004 04/04 A3052 RMK AO2 SLP341 T00390039 $=
202203071628 SPECI KPAE 071628Z 24004KT 1SM R16R/3000VP6000FT BR BKN004 04/04 A3053 RMK AO2 T00390039 $=
202203071621 SPECI KPAE 071621Z 21004KT 3/4SM R16R/2800V5000FT BR BKN004 03/03 A3053 RMK AO2 T00330033 $=
202203071610 SPECI KPAE 071610Z 20007KT 1 3/4SM R16R/3500VP6000FT BR BKN004 04/04 A3052 RMK AO2 T00390039=
202203071600 SPECI KPAE 071600Z 19005KT 9SM BKN004 03/03 A3052 RMK AO2 T00330033=
202203071553 METAR KPAE 071553Z 18003KT 10SM CLR 03/03 A3052 RMK AO2 SLP338 T00330033=
202203071523 SPECI KPAE 071523Z 16005KT 10SM FEW009 02/02 A3051 RMK AO2 T00220022=
202203071453 METAR KPAE 071453Z 16005KT 10SM CLR 02/02 A3051 RMK AO2 SLP337 T00220022 56003=
202203071353 METAR KPAE 071353Z 16003KT 10SM CLR 02/02 A3052 RMK AO2 SLP338 T00170017=
202203071253 METAR KPAE 071253Z 16006KT 10SM CLR 03/03 A3051 RMK AO2 SLP335 T00330033=
202203071153 METAR KPAE 071153Z 14003KT 10SM CLR 04/04 A3052 RMK AO2 SLP338 T00390039 10056 20017 58002=
202203071053 METAR KPAE 071053Z 13003KT 10SM CLR 04/04 A3052 RMK AO2 SLP340 T00390039=
202203070953 METAR KPAE 070953Z 00000KT 10SM CLR 03/03 A3053 RMK AO2 SLP341 T00330028=
202203070853 METAR KPAE 070853Z 00000KT 10SM CLR 03/02 A3053 RMK AO2 SLP342 T00280022 53000=
202203070753 METAR KPAE 070753Z 00000KT 10SM CLR 04/03 A3053 RMK AO2 SLP342 T00440033 400940006=
202203070653 METAR KPAE 070653Z 00000KT 10SM CLR 04/03 A3052 RMK AO2 SLP340 T00440033=
202203070553 METAR KPAE 070553Z 00000KT 10SM CLR 05/04 A3053 RMK AO2 SLP342 T00500039 10094 20039 53012=
202203070453 METAR KPAE 070453Z 00000KT 10SM CLR 06/04 A3051 RMK AO2 SLP337 T00560039=
202203070353 METAR KPAE 070353Z 00000KT 10SM CLR 07/04 A3050 RMK AO2 SLP331 T00670044=
202203070253 METAR KPAE 070253Z 00000KT 10SM CLR 06/04 A3049 RMK AO2 SLP329 T00560039 51003=
202203070153 METAR KPAE 070153Z 00000KT 10SM CLR 08/04 A3049 RMK AO2 SLP328 T00780039=
202203070053 METAR KPAE 070053Z 31004KT 10SM CLR 08/04 A3049 RMK AO2 SLP328 T00830044=
202203062353 METAR KPAE 062353Z 34004KT 10SM CLR 09/03 A3048 RMK AO2 SLP327 T00940033 10094 20056 56002=
202203062253 METAR KPAE 062253Z 01006KT 10SM CLR 09/03 A3048 RMK AO2 SLP326 T00940028=
202203062153 METAR KPAE 062153Z 35006KT 10SM CLR 08/04 A3048 RMK AO2 SLP325 T00830039=
202203062108 SPECI KPAE 062108Z VRB05KT 10SM SCT016 08/04 A3048 RMK AO2 T00780044=
202203062053 METAR KPAE 062053Z 01004KT 10SM BKN016 08/04 A3049 RMK AO2 SLP329 T00780039 51008=
202203061953 METAR KPAE 061953Z 33005KT 10SM OVC016 06/03 A3049 RMK AO2 SLP329 T00610033=
202203061853 METAR KPAE 061853Z 35005KT 10SM OVC017 06/04 A3048 RMK AO2 SLP326 T00610039=
202203061753 METAR KPAE 061753Z 01003KT 10SM OVC018 06/04 A3047 RMK AO2 SLP321 T00560044 10056 20006 51021=
202203061653 METAR KPAE 061653Z 00000KT 10SM OVC019 05/05 A3045 RMK AO2 SLP316 T00500050=
202203061553 METAR KPAE 061553Z 00000KT 10SM OVC021 04/04 A3043 RMK AO2 SLP308 T00440039=
202203061453 METAR KPAE 061453Z 00000KT 10SM OVC020 03/03 A3040 RMK AO2 SLP300 T00280028 51015=
202203061353 METAR KPAE 061353Z 00000KT 10SM BKN023 02/02 A3039 RMK AO2 SLP296 T00170017=
202203061253 METAR KPAE 061253Z 00000KT 10SM CLR 01/01 A3037 RMK AO2 SLP290 T00110011=
202203061153 METAR KPAE 061153Z 00000KT 8SM CLR 01/01 A3036 RMK AO2 SLP284 T00110011 10056 20011 51007=
202203061053 METAR KPAE 061053Z 00000KT 10SM CLR 03/03 A3035 RMK AO2 SLP281 T00280028=
202203060953 METAR KPAE 060953Z 00000KT 10SM CLR 03/02 A3035 RMK AO2 SLP280 T00280017=
202203060853 METAR KPAE 060853Z 00000KT 10SM CLR 03/02 A3034 RMK AO2 SLP276 T00330022 51005=
202203060753 METAR KPAE 060753Z 00000KT 10SM CLR 03/02 A3033 RMK AO2 SLP276 T00330022 400940028=
202203060653 METAR KPAE 060653Z 00000KT 10SM CLR 04/03 A3033 RMK AO2 SLP275 T00390028=
202203060553 METAR KPAE 060553Z 00000KT 10SM CLR 04/03 A3032 RMK AO2 SLP272 T00440033 10094 20044 53008=
202203060453 METAR KPAE 060453Z 00000KT 10SM CLR 06/04 A3031 RMK AO2 SLP268 T00610039=
202203060353 METAR KPAE 060353Z 00000KT 10SM CLR 06/04 A3030 RMK AO2 SLP265 T00560039=
202203060253 METAR KPAE 060253Z 34003KT 10SM CLR 06/04 A3030 RMK AO2 SLP264 T00610039 53004=
202203060153 METAR KPAE 060153Z 32003KT 10SM CLR 08/03 A3029 RMK AO2 SLP260 T00780033=
202203060053 METAR KPAE 060053Z 34004KT 10SM CLR 09/03 A3028 RMK AO2 SLP258 T00890033=
202203052353 METAR KPAE 052353Z 01005KT 10SM CLR 09/04 A3029 RMK AO2 SLP259 T00940039 10094 20056 58004=
202203052253 METAR KPAE 052253Z 36006KT 10SM CLR 09/04 A3029 RMK AO2 SLP261 T00890039=
202203052153 METAR KPAE 052153Z 36006KT 10SM FEW026 08/05 A3030 RMK AO2 SLP263 T00830050=
202203052137 SPECI KPAE 052137Z 35007KT 10SM BKN025 08/04 A3029 RMK AO2 T00780044=
202203052130 SPECI KPAE 052130Z 36008KT 10SM FEW026 08/04 A3030 RMK AO2 T00830044=
202203052053 METAR KPAE 052053Z 35007KT 10SM OVC025 08/04 A3030 RMK AO2 SLP263 T00830044 58001=
202203052009 SPECI KPAE 052009Z 35007KT 10SM BKN025 08/04 A3031 RMK AO2 T00780039=
202203051953 METAR KPAE 051953Z 35009KT 10SM SCT025 07/03 A3030 RMK AO2 SLP265 T00720033=
202203051853 METAR KPAE 051853Z 02009KT 10SM SCT010 OVC021 07/03 A3030 RMK AO2 SLP265 T00720033=
202203051753 METAR KPAE 051753Z 34005KT 10SM FEW010 SCT017 OVC021 06/04 A3030 RMK AO2 SLP265 T00560044 10056 20050 51021=
202203051653 METAR KPAE 051653Z 35006KT 10SM SCT007 BKN015 05/04 A3028 RMK AO2 SLP259 T00500044=
202203051553 METAR KPAE 051553Z 35005KT 10SM OVC008 05/05 A3026 RMK AO2 SLP252 T00500050=
202203051453 METAR KPAE 051453Z 35005KT 10SM BKN007 OVC014 05/05 A3024 RMK AO2 CIG 005V010 SLP243 T00500050 53014=
202203051414 SPECI KPAE 051414Z AUTO 35005KT 10SM OVC008 05/05 A3022 RMK AO2 CIG 005V011 T00500050=
202203051353 METAR KPAE 051353Z AUTO 35005KT 10SM OVC010 05/05 A3022 RMK AO2 CIG 006V013 SLP236 T00500050=
202203051253 METAR KPAE 051253Z AUTO 35009G17KT 10SM OVC006 05/05 A3020 RMK AO2 SLP231 T00500050=
202203051216 SPECI KPAE 051216Z AUTO 33007KT 10SM OVC008 05/05 A3020 RMK AO2 CIG 007V010 T00500050=
202203051153 METAR KPAE 051153Z AUTO 33005KT 10SM OVC010 05/05 A3019 RMK AO2 SLP227 T00500050 10050 20033 51005=
202203051053 METAR KPAE 051053Z AUTO 33004KT 10SM OVC011 05/05 A3019 RMK AO2 SLP227 T00500050=
202203051008 SPECI KPAE 051008Z AUTO 34004KT 10SM OVC013 05/05 A3019 RMK AO2 T00500050=
202203050953 METAR KPAE 050953Z AUTO 35004KT 10SM OVC015 05/05 A3019 RMK AO2 SLP225 T00500050=
202203050853 METAR KPAE 050853Z AUTO 32005KT 10SM BKN022 04/04 A3018 RMK AO2 SLP224 T00390039 51006=
202203050848 SPECI KPAE 050848Z AUTO 33006KT 10SM BKN022 03/03 A3018 RMK AO2=
202203050753 METAR KPAE 050753Z AUTO 34004KT 10SM CLR 03/03 A3017 RMK AO2 SLP220 T00330033 400830028=
202203050653 METAR KPAE 050653Z AUTO 35004KT 10SM CLR 04/04 A3016 RMK AO2 SLP217 T00440044=
202203050553 METAR KPAE 050553Z AUTO 34004KT 10SM CLR 05/04 A3015 RMK AO2 SLP214 T00500044 10083 20044 53012=
202203050453 METAR KPAE 050453Z 35004KT 10SM FEW080 05/04 A3014 RMK AO2 SLP210 T00500044=
202203050353 METAR KPAE 050353Z 35006KT 10SM CLR 06/05 A3013 RMK AO2 SLP206 T00560050=
202203050253 METAR KPAE 050253Z 33007KT 10SM CLR 06/05 A3012 RMK AO2 SLP202 T00610050 53008=
202203050153 METAR KPAE 050153Z 32008KT 10SM SCT023 07/05 A3011 RMK AO2 SLP199 T00670050=
202203050053 METAR KPAE 050053Z 34008G15KT 10SM SCT023 08/04 A3009 RMK AO2 SLP193 T00780044=
202203042353 METAR KPAE 042353Z 33007KT 10SM SCT032 08/05 A3009 RMK AO2 SLP193 T00830050 10083 20056 56001=
202203042253 METAR KPAE 042253Z 33009KT 10SM SCT032 08/04 A3009 RMK AO2 SLP193 T00780044=
202203042153 METAR KPAE 042153Z 34007KT 10SM SCT017 BKN030 OVC035 08/05 A3009 RMK AO2 SLP192 T00780050=
202203042053 METAR KPAE 042053Z 33005KT 10SM SCT014 OVC030 07/06 A3010 RMK AO2 SLP194 T00720056 58005=
202203041953 METAR KPAE 041953Z 34009KT 10SM FEW006 BKN014 OVC032 07/06 A3011 RMK AO2 SLP199 T00670056=
202203041853 METAR KPAE 041853Z 35005KT 10SM SCT006 OVC010 07/06 A3011 RMK AO2 SLP199 T00670061=
202203041832 SPECI KPAE 041832Z 34006KT 10SM SCT006 OVC010 06/06 A3011 RMK AO2 T00610056=
202203041753 METAR KPAE 041753Z 32004KT 10SM BKN010 OVC029 06/06 A3011 RMK AO2 SLP200 60000 T00560056 10056 20028 50004=
202203041653 METAR KPAE 041653Z 00000KT 10SM BKN010 OVC029 05/05 A3012 RMK AO2 SLP202 T00500050=
202203041603 SPECI KPAE 041603Z 00000KT 9SM BKN010 BKN016 OVC030 04/04 A3011 RMK AO2 T00440044=
202203041553 METAR KPAE 041553Z 36004KT 9SM SCT014 OVC025 04/04 A3011 RMK AO2 RAB26E35 SLP200 P0000 T00440044=
202203041453 METAR KPAE 041453Z 00000KT 10SM SCT014 OVC025 04/04 A3010 RMK AO2 SLP196 60000 T00440044 50001 $=
202203041428 SPECI KPAE 041428Z AUTO 00000KT 10SM SCT001 OVC024 04/04 A3009 RMK AO2 T00390039 $=
202203041415 SPECI KPAE 041415Z AUTO 05004KT 3SM R16R/1600VP6000FT BR BKN001 OVC022 04/04 A3010 RMK AO2 T00390039 $=
202203041410 SPECI KPAE 041410Z AUTO 06004KT 1/2SM R16R/1200VP6000FT FG VV001 04/04 A3010 RMK AO2 T00390039 $=
202203041404 SPECI KPAE 041404Z AUTO 03003KT 1/4SM R16R/1200V1400FT FG VV001 03/03 A3010 RMK AO2 T00330033 $=
202203041353 METAR KPAE 041353Z AUTO 04005KT 1/4SM R16R/1200V1600FT FG BKN002 BKN020 OVC060 03/03 A3010 RMK AO2 SLP197 T00330033 $=
202203041343 SPECI KPAE 041343Z AUTO 01004KT 1/4SM R16R/2600VP6000FT FG BKN002 BKN020 OVC060 03/03 A3010 RMK AO2 T00330033 $=
202203041334 SPECI KPAE 041334Z AUTO 00000KT 1SM R16R/2200VP6000FT BR BKN002 BKN019 BKN060 03/03 A3010 RMK AO2 T00330033 $=
202203041308 SPECI KPAE 041308Z AUTO 00000KT 1/4SM R16R/2600V4000FT FG BKN002 OVC060 03/03 A3010 RMK AO2 T00330033=
202203041301 SPECI KPAE 041301Z AUTO 00000KT 3/4SM R16R/2800V6000FT BR BKN001 OVC060 04/04 A3010 RMK AO2 T00390039=
202203041257 SPECI KPAE 041257Z AUTO 00000KT 2SM R16R/2800V6000FT BR BKN001 OVC060 04/04 A3010 RMK AO2 T00390039=
202203041253 METAR KPAE 041253Z AUTO 00000KT 1 3/4SM R16R/2800VP6000FT BR SCT001 SCT037 OVC060 04/04 A3010 RMK AO2 RAB07E18 SLP194 P0000 T00390039=
202203041250 SPECI KPAE 041250Z AUTO 00000KT 1 1/2SM R16R/3000VP6000FT BR FEW001 SCT037 OVC060 04/04 A3010 RMK AO2 RAB07E18 P0000=
202203041224 SPECI KPAE 041224Z AUTO 00000KT 2SM R16R/5500VP6000FT BR SCT003 BKN031 OVC060 04/04 A3010 RMK AO2 RAB07E18 P0000 T00440044=
202203041153 METAR KPAE 041153Z AUTO 04003KT 8SM BKN003 BKN036 OVC055 04/04 A3010 RMK AO2 RAE30 SLP195 P0000 60000 T00440044 10056 20039 57005=
202203041122 SPECI KPAE 041122Z AUTO 36004KT 10SM -RA BKN002 BKN006 OVC040 04/04 A3010 RMK AO2 P0000 T00390039=
202203041053 METAR KPAE 041053Z AUTO 10003KT 6SM -RA BR FEW005 BKN015 OVC019 05/05 A3010 RMK AO2 RAB29 SLP196 P0000 T00500050=
202203041046 SPECI KPAE 041046Z AUTO 07003KT 6SM -RA BR SCT005 SCT009 OVC013 05/05 A3010 RMK AO2 RAB29 P0000 T00500050=
202203040953 METAR KPAE 040953Z AUTO 00000KT 8SM OVC005 06/06 A3011 RMK AO2 SLP199 T00560056=
202203040853 METAR KPAE 040853Z AUTO 00000KT 10SM OVC005 06/06 A3011 RMK AO2 SLP200 T00560056 51001=
202203040753 METAR KPAE 040753Z AUTO 00000KT 10SM BKN006 BKN012 OVC027 05/05 A3011 RMK AO2 SLP200 T00500050 400890039=
202203040734 SPECI KPAE 040734Z AUTO 00000KT 10SM BKN007 OVC049 05/05 A3011 RMK AO2 T00500050=
202203040725 SPECI KPAE 040725Z AUTO 00000KT 10SM SCT007 OVC049 04/04 A3011 RMK AO2 T00440044=
202203040653 METAR KPAE 040653Z AUTO 19003KT 10SM SCT024 OVC049 04/04 A3011 RMK AO2 SLP201 T00390039=
202203040605 SPECI KPAE 040605Z AUTO 15004KT 10SM BKN021 05/05 A3011 RMK AO2 T00500050=
202203040553 METAR KPAE 040553Z AUTO 12003KT 10SM SCT021 04/04 A3011 RMK AO2 SLP200 T00440044 10089 20044 51002=
202203040453 METAR KPAE 040453Z 11005KT 10SM BKN050 05/04 A3011 RMK AO2 SLP200 T00500044=
202203040353 METAR KPAE 040353Z 00000KT 10SM OVC050 05/05 A3011 RMK AO2 SLP200 T00500050=
202203040253 METAR KPAE 040253Z 00000KT 10SM CLR 06/05 A3011 RMK AO2 SLP198 T00610050 53002=
202203040153 METAR KPAE 040153Z 00000KT 10SM SCT023 BKN060 07/06 A3010 RMK AO2 SLP194 T00720056=
202203040053 METAR KPAE 040053Z 00000KT 10SM SCT012 08/05 A3009 RMK AO2 SLP193 T00830050=
202203032353 METAR KPAE 032353Z 17003KT 10SM SCT012 SCT035 08/05 A3010 RMK AO2 SLP195 60000 T00830050 10083 20056 56007=
202203032300 SPECI KPAE 032300Z 17003KT 10SM SCT012 SCT035 07/07 A3010 RMK AO2 T00720067=
202203032253 METAR KPAE 032253Z 00000KT 10SM FEW004 BKN009 OVC022 07/07 A3011 RMK AO2 RAE2158 SLP198 P0000 T00670067=
202203032153 METAR KPAE 032153Z 29003KT 8SM -RA FEW004 BKN009 07/07 A3011 RMK AO2 RAB30 SLP199 P0000 T00670067=
202203032053 METAR KPAE 032053Z 21007KT 10SM OVC008 07/06 A3012 RMK AO2 RAE26 SLP203 P0000 60000 T00670061 58002=
202203032018 SPECI KPAE 032018Z 20007KT 10SM -RA OVC008 06/06 A3013 RMK AO2 P0000 T00610061=
202203032009 SPECI KPAE 032009Z 19007KT 8SM -RA OVC010 06/06 A3013 RMK AO2 CIG 007V013 P0000 T00610061=
202203031953 METAR KPAE 031953Z 19007KT 4SM -RA BR BKN006 OVC013 06/06 A3013 RMK AO2 SLP207 P0000 T00610061=
202203031906 SPECI KPAE 031906Z 17006KT 5SM -RA BR BKN006 OVC013 06/06 A3013 RMK AO2 P0000 T00560056=
202203031859 SPECI KPAE 031859Z 15007KT 4SM -RA BR SCT006 BKN015 OVC024 06/06 A3013 RMK AO2 P0000 T00560056=
202203031853 METAR KPAE 031853Z 17007KT 3SM -RA BR BKN006 OVC015 06/06 A3013 RMK AO2 RAB25 SLP205 P0000 T00560056=
202203031851 SPECI KPAE 031851Z 15007KT 3SM -RA BR BKN006 OVC015 06/06 A3013 RMK AO2 RAB25 P0000=
202203031840 SPECI KPAE 031840Z 19006KT 2SM -RA BR BKN006 OVC015 06/06 A3013 RMK AO2 RAB25 P0000 T00610061=
202203031819 SPECI KPAE 031819Z 15005KT 10SM BKN006 OVC015 06/06 A3013 RMK AO2 T00610056=
202203031812 SPECI KPAE 031812Z 14004KT 10SM BKN012 OVC017 06/06 A3013 RMK AO2 T00610056=
202203031800 SPECI KPAE 031800Z 10005KT 10SM OVC015 06/06 A3013 RMK AO2 T00610056=
202203031753 METAR KPAE 031753Z 11004KT 10SM BKN006 OVC015 06/06 A3012 RMK AO2 SLP203 60000 T00610056 10067 20050 51011=
202203031653 METAR KPAE 031653Z 12003KT 10SM BKN008 OVC014 06/06 A3012 RMK AO2 SLP201 T00560056=
202203031553 METAR KPAE 031553Z 01003KT 10SM OVC013 06/05 A3010 RMK AO2 RAE02 SLP196 P0000 T00560050=
202203031515 SPECI KPAE 031515Z 00000KT 10SM BKN014 BKN024 OVC045 06/05 A3009 RMK AO2 RAE02 P0000 T00560050=
202203031453 METAR KPAE 031453Z 01004KT 10SM -RA FEW012 OVC047 05/05 A3009 RMK AO2 SLP192 P0000 60000 T00500050 51006 $=
202203031353 METAR KPAE 031353Z AUTO 02005KT 10SM -RA FEW011 SCT031 OVC038 05/05 A3009 RMK AO2 RAB1257E10B39 SLP190 P0000 T00500050 $=
202203031253 METAR KPAE 031253Z AUTO 34007KT 10SM FEW014 BKN034 OVC048 05/05 A3008 RMK AO2 RAE08 SLP188 P0000 T00500050 $=
202203031232 SPECI KPAE 031232Z AUTO 35006KT 10SM FEW009 SCT015 OVC035 05/05 A3008 RMK AO2 RAE08 P0000 T00500050 $=
202203031153 METAR KPAE 031153Z AUTO 34006KT 5SM -RA BR OVC006 05/05 A3007 RMK AO2 CIG 003V010 SLP185 P0001 60010 70010 T00500050 10078 20050 50001 $=
202203031053 METAR KPAE 031053Z AUTO 36008KT 3SM -RA BR OVC007 06/06 A3007 RMK AO2 RAB04 SLP186 P0003 T00560056 $=
202203031007 SPECI KPAE 031007Z AUTO 35007KT 7SM -RA SCT004 OVC009 06/06 A3007 RMK AO2 RAB04 P0000 T00560056 $=
202203030953 METAR KPAE 030953Z AUTO 35007KT 10SM BKN003 BKN010 OVC030 06/06 A3007 RMK AO2 RAE24 SLP186 P0000 T00560056 $=
202203030934 SPECI KPAE 030934Z AUTO 35007KT 8SM BKN003 BKN008 OVC029 06/06 A3007 RMK AO2 RAE24 P0000 T00610061 $=
202203030918 SPECI KPAE 030918Z AUTO 35007KT 6SM -RA BR SCT004 BKN008 OVC028 06/06 A3007 RMK AO2 P0000 T00610061 $=
202203030853 METAR KPAE 030853Z AUTO 34007KT 5SM -RA BR BKN003 BKN007 OVC019 06/06 A3007 RMK AO2 SLP184 P0005 60006 T00610061 51006 $=
202203030842 SPECI KPAE 030842Z AUTO VRB04KT 4SM -RA BR BKN003 BKN011 OVC017 06/06 A3007 RMK AO2 P0004 T00610061 $=
202203030800 SPECI KPAE 030800Z AUTO 02005KT 7SM -RA OVC008 07/07 A3006 RMK AO2 CIG 006V013 P0000 T00720072=
202203030753 METAR KPAE 030753Z AUTO 00000KT 5SM -RA BR OVC010 08/08 A3006 RMK AO2 RAB25 CIG 006V013 SLP181 P0001 T00780078 401000072=
202203030653 METAR KPAE 030653Z AUTO 18006KT 10SM OVC013 08/08 A3005 RMK AO2 SLP179 T00780078=
202203030553 METAR KPAE 030553Z AUTO 17008KT 6SM BR FEW009 OVC014 08/08 A3005 RMK AO2 RAE43 SLP177 P0000 60000 T00830083 10100 20083 51007=
202203030550 SPECI KPAE 030550Z AUTO 17006KT 6SM BR OVC014 08/08 A3005 RMK AO2 RAE43 P0000=
202203030453 METAR KPAE 030453Z 16007KT 8SM -RA FEW009 OVC016 08/08 A3003 RMK AO2 RAB50 SLP171 P0000 T00830083=
202203030353 METAR KPAE 030353Z 15010KT 10SM BKN008 BKN014 OVC022 09/09 A3003 RMK AO2 CIG 006V012 SLP170 T00890089=
202203030349 SPECI KPAE 030349Z 16008KT 10SM BKN008 OVC020 09/09 A3003 RMK AO2 CIG 006V013=
202203030253 METAR KPAE 030253Z 15009KT 10SM FEW007 OVC022 09/09 A3002 RMK AO2 SLP168 60000 T00940094 53002=
202203030153 METAR KPAE 030153Z 16008KT 10SM BKN019 OVC080 09/09 A3001 RMK AO2 SLP165 T00940094=
202203030053 METAR KPAE 030053Z 16007KT 10SM SCT010 10/09 A3001 RMK AO2 RAB43E53 SLP165 P0000 T01000094=
202203022353 METAR KPAE 022353Z 17009KT 10SM SCT010 10/09 A3001 RMK AO2 RAE2254 SLP166 P0000 60000 T01000094 10100 20089 55007=
202203022253 METAR KPAE 022253Z 17010G19KT 10SM -RA SCT009 BKN065 OVC080 09/09 A3001 RMK AO2 RAB18 SLP164 P0000 T00940094=
202203022227 SPECI KPAE 022227Z 16012G20KT 9SM -RA SCT009 BKN065 OVC080 09/09 A3001 RMK AO2 RAB18 P0000 T00940094=
202203022153 METAR KPAE 022153Z 15012KT 10SM BKN009 10/10 A3002 RMK AO2 RAE24 SLP167 P0000 T01000100=
202203022104 SPECI KPAE 022104Z 16008KT 10SM -RA OVC009 09/09 A3004 RMK AO2 P0000 T00940094=
202203022100 SPECI KPAE 022100Z 15007KT 9SM -RA SCT008 BKN017 OVC070 09/09 A3004 RMK AO2 P0000 T00940094=
202203022053 METAR KPAE 022053Z 15007KT 7SM -RA OVC009 09/09 A3003 RMK AO2 RAB01 SLP172 P0000 60000 T00940094 58004=
202203021953 METAR KPAE 021953Z 16008KT 10SM BKN009 BKN036 OVC070 09/09 A3006 RMK AO2 RAB30E49 SLP179 P0000 T00940094=
202203021943 SPECI KPAE 021943Z 15008KT 10SM -RA BKN009 BKN036 OVC070 09/09 A3006 RMK AO2 RAB30 P0000 T00940089=
202203021853 METAR KPAE 021853Z VRB05KT 10SM FEW013 BKN047 OVC095 09/09 A3005 RMK AO2 RAE03B26E38 SLP177 P0000 T00940089=
202203021842 SPECI KPAE 021842Z 14005KT 10SM SCT013 BKN050 OVC070 09/09 A3005 RMK AO2 RAE03B26E38 P0000 T00940089=
202203021806 SPECI KPAE 021806Z 14007KT 100V160 10SM BKN013 BKN026 OVC049 09/09 A3005 RMK AO2 RAE03 P0000 T00940094=
202203021753 METAR KPAE 021753Z 15009KT 8SM -RA OVC047 09/09 A3005 RMK AO2 RAB14 SLP177 P0000 60000 T00940094 10094 20089 51006=
202203021653 METAR KPAE 021653Z 15007KT 10SM SCT039 BKN047 OVC055 09/09 A3004 RMK AO2 RAB28E37 SLP176 P0000 T00890089=
202203021553 METAR KPAE 021553Z 15008KT 10SM OVC085 09/09 A3003 RMK AO2 SLP171 T00890089=
202203021453 METAR KPAE 021453Z 16007KT 10SM OVC090 09/09 A3003 RMK AO2 SLP170 60000 T00890089 55004=
202203021353 METAR KPAE 021353Z AUTO 15011KT 10SM OVC080 09/08 A3002 RMK AO2 SLP165 T00890083=
202203021253 METAR KPAE 021253Z AUTO 16008KT 10SM SCT012 SCT050 OVC080 09/09 A3004 RMK AO2 RAE25 SLP173 P0000 T00940089=
202203021153 METAR KPAE 021153Z AUTO 16010KT 9SM -RA BKN050 BKN070 OVC095 09/09 A3004 RMK AO2 RAB51 SLP173 P0000 60001 70001 T00940089 10106 20089 58010=
202203021053 METAR KPAE 021053Z AUTO 14008KT 100V160 10SM BKN055 BKN100 09/09 A3005 RMK AO2 SLP178 T00890089=
202203020953 METAR KPAE 020953Z AUTO 16009KT 10SM OVC070 09/09 A3007 RMK AO2 RAE11 SLP183 P0000 T00940094=
202203020853 METAR KPAE 020853Z AUTO 16007KT 4SM RA BR FEW019 BKN050 OVC065 09/09 A3007 RMK AO2 SLP183 P0001 60001 T00940094 58004=
202203020753 METAR KPAE 020753Z AUTO VRB03KT 10SM -RA OVC055 10/09 A3007 RMK AO2 RAB53 SLP185 P0000 T01000089 401440100=
202203020653 METAR KPAE 020653Z AUTO 15008KT 10SM OVC055 11/09 A3008 RMK AO2 SLP186 T01060089=
202203020553 METAR KPAE 020553Z AUTO 00000KT 10SM SCT037 OVC050 10/09 A3008 RMK AO2 SLP187 T01000089 10133 20100 55001=
202203020453 METAR KPAE 020453Z 15008KT 10SM BKN050 11/09 A3007 RMK AO2 SLP185 T01110089=
202203020353 METAR KPAE 020353Z 17007KT 10SM OVC055 12/08 A3008 RMK AO2 SLP188 T01170083=
202203020253 METAR KPAE 020253Z 17009KT 10SM FEW065 11/08 A3008 RMK AO2 SLP188 T01110083 53007=
202203020153 METAR KPAE 020153Z 18013KT 10SM CLR 12/07 A3007 RMK AO2 SLP182 T01220072=
202203020053 METAR KPAE 020053Z 18016G22KT 10SM FEW095 13/08 A3006 RMK AO2 SLP180 T01280078=
202203012353 METAR KPAE 012353Z 18013KT 10SM SCT110 13/08 A3006 RMK AO2 PK WND 18026/2309 SLP180 T01330083 10144 20111 53004=
202203012253 METAR KPAE 012253Z 18021G28KT 10SM CLR 14/08 A3006 RMK AO2 PK WND 17028/2253 SLP180 T01390078=
202203012153 METAR KPAE 012153Z 18020G27KT 10SM CLR 14/08 A3005 RMK AO2 PK WND 19030/2115 SLP177 T01390078=
202203012053 METAR KPAE 012053Z 19016G23KT 10SM CLR 14/09 A3005 RMK AO2 PK WND 20026/2019 SLP177 T01390089 51002=
202203011953 METAR KPAE 011953Z 18019G26KT 10SM FEW022 13/11 A3005 RMK AO2 PK WND 18026/1953 SLP175 T01330106=
202203011853 METAR KPAE 011853Z 18017G25KT 10SM FEW017 13/11 A3005 RMK AO2 SLP177 T01280106=
202203011758 SPECI KPAE 011758Z 18016KT 10SM SCT008 BKN013 11/11 A3004 RMK AO2 T01110106=
202203011755 SPECI KPAE 011755Z 18016G23KT 10SM SCT013 11/11 A3004 RMK AO2 T01110106=
202203011753 METAR KPAE 011753Z 18018G23KT 10SM BKN008 11/11 A3004 RMK AO2 SLP174 60000 T01110106 10111 20100 53009=
202203011653 METAR KPAE 011653Z 18016G24KT 10SM BKN008 11/11 A3003 RMK AO2 SLP171 T01060106=
202203011553 METAR KPAE 011553Z 19017KT 10SM BKN010 BKN080 11/11 A3002 RMK AO2 PK WND 19028/1529 SLP165 T01060106=
202203011551 SPECI KPAE 011551Z 18017KT 10SM BKN010 BKN080 11/11 A3002 RMK AO2 PK WND 19028/1529 CIG 008V012=
202203011453 METAR KPAE 011453Z 19017G27KT 10SM BKN009 10/10 A2999 RMK AO2 PK WND 17028/1435 CIG 007V013 SLP157 60000 T01000100 51008=
202203011407 SPECI KPAE 011407Z AUTO 18018G25KT 10SM BKN009 OVC095 10/10 A2998 RMK AO2 CIG 007V013 T01000100=
202203011353 METAR KPAE 011353Z AUTO 18015KT 10SM BKN011 BKN065 OVC100 10/10 A2998 RMK AO2 PK WND 18029/1324 RAB17E48 SLP154 P0000 T01000100=
202203011342 SPECI KPAE 011342Z AUTO 17014G23KT 10SM -RA SCT011 BKN060 OVC100 10/10 A2998 RMK AO2 PK WND 18029/1324 RAB17 P0000 T01000100=
202203011253 METAR KPAE 011253Z AUTO 19016G24KT 10SM OVC010 10/10 A2998 RMK AO2 CIG 008V014 SLP152 T01000100=
202203011230 SPECI KPAE 011230Z AUTO 18014G24KT 10SM BKN010 OVC017 10/10 A2996 RMK AO2 CIG 008V013 T01000100=
202203011153 METAR KPAE 011153Z AUTO 19012KT 5SM BR OVC008 10/10 A2997 RMK AO2 RAB1055E10 SLP149 P0000 60000 70022 T01000100 10106 20100 50005=
202203011106 SPECI KPAE 011106Z AUTO 20014KT 4SM -RA BR OVC008 10/10 A2997 RMK AO2 RAB1055 P0000 T01000100=
202203011053 METAR KPAE 011053Z AUTO 20015G19KT 7SM OVC010 11/11 A2998 RMK AO2 SLP152 T01060106=
202203010953 METAR KPAE 010953Z AUTO 20014G20KT 10SM OVC010 11/11 A2997 RMK AO2 RAB0856E07 SLP150 P0000 T01060106=
202203010853 METAR KPAE 010853Z AUTO 19012KT 10SM BKN010 OVC015 11/11 A2995 RMK AO2 CIG 007V012 SLP144 60000 T01060106 53014=
202203010833 SPECI KPAE 010833Z AUTO 19013KT 10SM BKN010 OVC015 11/11 A2994 RMK AO2 CIG 007V012 T01060106=
202203010826 SPECI KPAE 010826Z AUTO 19013KT 10SM SCT010 OVC015 11/11 A2994 RMK AO2 T01060106=
202203010805 SPECI KPAE 010805Z AUTO 19014KT 10SM BKN012 OVC060 11/11 A2993 RMK AO2 T01060106=
202203010753 METAR KPAE 010753Z AUTO 19017G26KT 10SM SCT010 OVC060 11/11 A2994 RMK AO2 PK WND 19027/0734 SLP139 T01060106 401220083=
202203010744 SPECI KPAE 010744Z AUTO 18018G27KT 10SM SCT010 OVC065 11/11 A2993 RMK AO2 PK WND 19027/0734 T01060106=
202203010711 SPECI KPAE 010711Z AUTO 19019KT 10SM BKN010 OVC085 11/11 A2993 RMK AO2 CIG 006V014 T01060106=
202203010653 METAR KPAE 010653Z AUTO 19021G29KT 10SM SCT009 BKN075 OVC110 11/11 A2992 RMK AO2 PK WND 18030/0624 RAE0558B08E41 SLP135 P0000 T01060106=
202203010640 SPECI KPAE 010640Z AUTO 18020G28KT 10SM -RA SCT009 BKN075 OVC090 11/11 A2991 RMK AO2 PK WND 18030/0624 RAE0558B08 P0000 T01060106=
202203010633 SPECI KPAE 010633Z AUTO 18021G30KT 10SM -RA BKN009 BKN050 OVC090 11/11 A2991 RMK AO2 PK WND 18030/0624 RAE0558B08 P0000 T01060106=
202203010559 SPECI KPAE 010559Z AUTO 18019G31KT 10SM SCT009 BKN075 OVC100 11/11 A2991 RMK AO2 PK WND 18029/0555 RAE58 P0000 T01060106=
202203010553 METAR KPAE 010553Z AUTO 19020G31KT 10SM -RA SCT010 BKN018 OVC080 11/11 A2991 RMK AO2 PK WND 17031/0550 RAB19E39B44 SLP131 P0000 60001 T01060106 10117 20106 51017=
202203010543 SPECI KPAE 010543Z AUTO 18020G28KT 10SM SCT011 BKN017 OVC075 11/11 A2992 RMK AO2 PK WND 19029/0456 RAB19E39 P0000 T01060106=
202203010529 SPECI KPAE 010529Z AUTO 18018G28KT 10SM -RA BKN012 BKN017 OVC070 11/11 A2991 RMK AO2 PK WND 19029/0456 RAB19 P0000 T01060106=
202203010522 SPECI KPAE 010522Z AUTO 18020G28KT 10SM -RA BKN009 BKN017 OVC075 11/11 A2991 RMK AO2 PK WND 19029/0456 RAB19 CIG 008V013 P0000 T01060106=
202203010453 METAR KPAE 010453Z AUTO 19018G31KT 10SM BKN012 BKN016 OVC075 11/11 A2990 RMK AO2 PK WND 18033/0354 SLP127 T01060106=
202203010436 SPECI KPAE 010436Z 19022G29KT 10SM BKN012 BKN018 OVC110 11/11 A2989 RMK AO2 PK WND 18033/0354 T01110111=
202203010421 SPECI KPAE 010421Z 19020G30KT 10SM SCT010 BKN015 OVC065 11/11 A2988 RMK AO2 PK WND 18033/0354 T01110111=
202203010353 METAR KPAE 010353Z 19020G28KT 10SM BKN012 OVC018 11/11 A2988 RMK AO2 PK WND 18033/0342 SLP119 T01110111=
202203010326 SPECI KPAE 010326Z 19019G32KT 10SM BKN012 OVC019 11/11 A2988 RMK AO2 PK WND 18032/0323 T01110111=
202203010312 SPECI KPAE 010312Z 19020G29KT 10SM SCT010 BKN015 OVC120 11/11 A2987 RMK AO2 PK WND 20030/0259 T01110111=
202203010253 METAR KPAE 010253Z 19018G31KT 10SM BKN010 BKN018 OVC110 11/11 A2986 RMK AO2 PK WND 19032/0239 RAE05 SLP114 P0000 60001 T01110111 51005=
202203010238 SPECI KPAE 010238Z 18024G32KT 10SM FEW008 BKN013 OVC110 11/11 A2986 RMK AO2 PK WND 19032/0211 RAE05 P0000 T01110111=
202203010232 SPECI KPAE 010232Z 18022G31KT 10SM SCT010 OVC110 11/11 A2986 RMK AO2 PK WND 19032/0211 RAE05 P0000 T01110111=
202203010200 SPECI KPAE 010200Z 18022G30KT 10SM -RA SCT009 BKN014 OVC110 11/11 A2986 RMK AO2 PK WND 18030/0154 P0000 T01110111=
202203010153 METAR KPAE 010153Z 19024G32KT 10SM -RA BKN009 BKN085 11/11 A2986 RMK AO2 PK WND 19032/0145 RAE16B33 SLP113 P0000 T01110111=
202203010148 SPECI KPAE 010148Z 18021G32KT 10SM -RA SCT009 SCT055 OVC085 11/11 A2986 RMK AO2 PK WND 19032/0145 RAE16B33 P0000=
202203010138 SPECI KPAE 010138Z 18024G31KT 10SM -RA BKN007 BKN046 OVC110 11/11 A2986 RMK AO2 PK WND 19031/0133 RAE16B33 P0000 T01110111=
202203010136 SPECI KPAE 010136Z 18024G31KT 10SM -RA SCT007 BKN080 BKN110 11/11 A2986 RMK AO2 PK WND 19031/0133 RAE16B33 P0000 T01110111=
202203010053 METAR KPAE 010053Z 18023G32KT 10SM -RA BKN008 BKN032 OVC100 12/12 A2985 RMK AO2 PK WND 19032/0051 SLP107 P0001 T01170117=

# No short TAF reports from KPAE in databse.

###################################
#  large TAF from KPAE
###################################
202203312320 TAF KPAE 312320Z 0100/0124 30005KT P6SM SCT035 BKN050 FM010100
                       33004KT P6SM OVC050 FM011100 15004KT P6SM
                       OVC025 FM011800 17007KT P6SM SCT030 OVC050=
202203311720 TAF KPAE 311720Z 3118/0118 19005KT P6SM SCT010 SCT025 BKN035 FM312000
                       30005KT P6SM SCT035 BKN050 FM010100 33004KT
                       P6SM OVC050 FM011100 15004KT P6SM OVC025=
202203311125 TAF KPAE 311125Z 3112/0112 VRB03KT 6SM -SHRA BKN025 OVC035 FM311300
                       19003KT P6SM OVC020 FM311800 30005KT P6SM
                       SCT030 BKN050 FM010100 33004KT P6SM OVC050=
202203310520 TAF KPAE 310520Z 3106/0106 VRB03KT 6SM -SHRA BKN012 OVC020 FM311200
                       19003KT P6SM OVC025 FM311800 30005KT P6SM
                       SCT030 BKN050 FM010100 33004KT P6SM OVC050=
202203310117 KPAE 310117Z 3101/3124 35007KT 5SM -SHRA BR OVC030
                      TEMPO 3101/3105 2SM SHRA BR OVC025 FM310500
                       VRB05KT P6SM VCSH SCT025 OVC035 FM311200
                       19003KT P6SM OVC025 FM311800 30005KT P6SM
                       SCT030 BKN050=
202203302322 TAF KPAE 302322Z 3100/3124 35007KT P6SM SCT035 OVC050
                      TEMPO 3100/3103 5SM -SHRA BR BKN025 OVC050
                       FM310500 VRB05KT P6SM VCSH SCT025 OVC035
                       FM311200 19003KT P6SM OVC025 FM311800 30005KT
                       P6SM SCT030 BKN050=
202203301727 TAF KPAE 301727Z 3018/3118 31006KT 4SM -RA BKN015 OVC050 FM302300
                       35007KT 5SM -SHRA BKN025 OVC050 FM310500
                       VRB05KT P6SM VCSH SCT025 OVC035 FM311200
                       19003KT P6SM OVC025=
202203301132 TAF KPAE 301132Z 3012/3112 19010KT P6SM VCSH BKN022 OVC060
                      TEMPO 3012/3016 6SM BR SCT010 OVC020 FM301700
                       35006KT 4SM -RA BKN007 OVC015 FM310500 VRB05KT
                       P6SM VCSH OVC020=
202203300527 TAF KPAE 300527Z 3006/3106 19010KT P6SM BKN028 OVC050 FM301300
                       19008KT P6SM -RA OVC022 FM301700 35006KT
                       4SM -RA BKN007 OVC015 FM310500 35008KT P6SM
                       VCSH OVC020=
202203292342 TAF KPAE 292342Z 3000/3024 22006KT P6SM OVC035 FM300500 19006KT
                       P6SM BKN050 OVC100 FM301300 19006KT P6SM
                       -RA OVC025 FM301600 VRB03KT 4SM -SHRA SCT006
                       BKN011 OVC020 FM302000 35008KT P6SM SCT015
                       BKN025 BKN050=
202203291733 TAF KPAE 291733Z 2918/3018 00000KT P6SM OVC030 FM292100 22005KT
                       P6SM OVC035 FM300300 19004KT P6SM OVC050
                       FM301300 19007KT P6SM -RA OVC025=
202203291629 KPAE 291629Z 2916/3012 00000KT P6SM OVC025 FM292100 20006KT P6SM
                       OVC030 FM300500 19004KT P6SM OVC050=
202203291132 TAF KPAE 291132Z 2912/3012 00000KT 4SM BR SCT003 OVC022
                      TEMPO 2913/2916 1/2SM FG OVC002 FM291800
                       21007KT P6SM SCT007 OVC015 FM292100 20006KT
                       P6SM OVC030 FM300500 19004KT P6SM OVC050=
202203290530 TAF KPAE 290530Z 2906/3006 VRB03KT P6SM SCT025 BKN040 FM290900
                       00000KT 6SM BR SCT007 OVC020 FM291100 00000KT
                       4SM BR OVC002 FM291800 21007KT P6SM SCT007
                       OVC015 FM292100 20006KT P6SM OVC030 FM300500
                       19004KT P6SM OVC050=
202203290147 KPAE 290147Z 2902/2924 35005KT P6SM OVC015 FM290400 00000KT P6SM
                       BKN025 FM291100 00000KT P6SM OVC015 FM292100
                       21007KT P6SM BKN050=
202203290146 KPAE 290146Z 2902/2924 35005KT P6SM OVC002 FM290400 00000KT P6SM
                       BKN025 FM291100 00000KT P6SM OVC015 FM292100
                       21007KT P6SM BKN050=
202203282331 TAF KPAE 282331Z 2900/2924 35005KT P6SM OVC002
                      TEMPO 2900/2902 2SM BR FM290400 00000KT P6SM
                       BKN025 FM291100 00000KT P6SM OVC015 FM292100
                       21007KT P6SM BKN050=
202203282048 KPAE 282048Z 2821/2918 36006KT 1/2SM FG VCSH OVC002 FM282130 36006KT
                       P6SM OVC005
                      TEMPO 2822/2823 2SM BR OVC003 FM282300 33005KT
                       P6SM BKN015 OVC025 FM290400 00000KT P6SM
                       BKN025 FM291100 00000KT P6SM OVC015=
202203281721 TAF KPAE 281721Z 2818/2918 36004KT P6SM OVC008 FM282100 32005KT
                       P6SM VCSH BKN030 FM290400 00000KT P6SM BKN025
                       FM291100 00000KT P6SM OVC015=
202203281605 KPAE 281605Z 2816/2912 00000KT P6SM FEW027 OVC040
                      TEMPO 2816/2818 OVC025 FM281800 VRB03KT P6SM
                       OVC020 FM282100 32005KT P6SM VCSH BKN030
                       FM290500 00000KT P6SM BKN025 FM291100 00000KT
                       P6SM OVC015=
202203281248 KPAE 281248Z 2813/2912 VRB03KT P6SM BKN007 OVC015 FM282100 32005KT
                       P6SM VCSH BKN030 FM290500 00000KT P6SM BKN025
                       FM291100 00000KT P6SM OVC015=
202203281125 TAF KPAE 281125Z 2812/2912 36004KT P6SM SCT007 BKN120 FM281400
                       VRB03KT P6SM BKN007 OVC015 FM282100 32005KT
                       P6SM VCSH BKN030 FM290500 00000KT P6SM BKN025
                       FM291100 00000KT P6SM OVC015=
202203280856 KPAE 280856Z 2809/2906 34004KT P6SM BKN007 BKN120 FM281400 VRB03KT
                       P6SM OVC007 FM282100 32005KT P6SM BKN025
                       OVC035 FM290500 00000KT P6SM OVC022=
202203280527 TAF KPAE 280527Z 2806/2906 32004KT P6SM BKN120 FM281400 VRB03KT
                       P6SM OVC020 FM282100 32005KT P6SM BKN025
                       OVC035 FM290500 00000KT P6SM OVC022=
202203272321 TAF KPAE 272321Z 2800/2824 28003KT P6SM FEW030 SCT120 BKN200 FM280500
                       01003KT P6SM SCT060 BKN120 FM281400 VRB03KT
                       P6SM OVC010 FM282100 31005KT P6SM BKN020
                       OVC035=
202203271722 TAF KPAE 271722Z 2718/2818 00000KT P6SM FEW004 SCT030 BKN120 FM272000
                       27004KT P6SM FEW040 BKN120 FM280500 01003KT
                       P6SM BKN060 BKN120 FM281400 VRB03KT P6SM
                       OVC010=
202203271336 KPAE 271336Z 2714/2812 36005KT P6SM OVC080
                      TEMPO 2714/2717 4SM BR BKN003 FM271700 31005KT
                       P6SM BKN120 FM280500 VRB03KT P6SM BKN060
                       BKN120=
202203271127 TAF KPAE 271127Z 2712/2812 36005KT P6SM OVC080 FM271700 31005KT
                       P6SM BKN120 FM280500 VRB03KT P6SM BKN060
                       BKN120=
202203270534 TAF KPAE 270534Z 2706/2806 01003KT P6SM VCSH OVC080 FM270900 VRB03KT
                       P6SM VCSH SCT060 BKN150
                      TEMPO 2713/2717 2SM BR BKN005 BKN060 FM271700
                       31005KT P6SM FEW060 BKN120 FM280500 VRB03KT
                       P6SM SCT060 BKN120=
202203262325 TAF KPAE 262325Z 2700/2724 20006KT P6SM FEW035 OVC070
                      TEMPO 2700/2703 -SHRA BKN035 OVC050 FM270300
                       04003KT P6SM SCT035 BKN060 OVC100 FM270900
                       01003KT P6SM SCT060 BKN150
                      TEMPO 2713/2717 2SM BR BKN005 BKN060 FM271900
                       31005KT P6SM FEW060 BKN120=
202203261720 TAF KPAE 261720Z 2618/2718 13006KT P6SM SCT035 BKN070 OVC100
                      TEMPO 2618/2622 -RA BKN035 OVC070 FM270300
                       04003KT P6SM SCT035 BKN060 OVC100 FM270900
                       01003KT P6SM SCT060 BKN150
                      TEMPO 2713/2717 2SM BR BKN005 BKN060=
202203261124 TAF KPAE 261124Z 2612/2712 16004KT P6SM BKN070 OVC080 FM261300
                       14004KT P6SM -RA FEW030 OVC050 FM261900
                       14007KT P6SM OVC050 FM270000 05004KT P6SM
                       OVC035 FM270600 03002KT P6SM -RA OVC050=
202203260520 TAF KPAE 260520Z 2606/2706 01003KT P6SM SKC FM261300 14004KT P6SM
                       -RA FEW030 OVC050 FM261900 14007KT P6SM
                       -RA BKN030 OVC050 FM270000 13004KT P6SM
                       OVC025=
202203252320 TAF KPAE 252320Z 2600/2624 25005KT P6SM FEW050 BKN100 FM260300
                       VRB03KT P6SM FEW050 BKN120 FM261300 14004KT
                       P6SM -RA FEW030 OVC050 FM261900 14007KT
                       P6SM -RA BKN030 OVC050=
202203251720 TAF KPAE 251720Z 2518/2618 22006KT P6SM SCT060 BKN120
                      TEMPO 2518/2522 BKN060 OVC120 FM260300 VRB03KT
                       P6SM SCT060 BKN120 FM261300 14004KT P6SM
                       -RA FEW030 OVC050=
202203251120 TAF KPAE 251120Z 2512/2612 VRB04KT P6SM SCT060 SCT150 FM251600
                       19004KT P6SM SCT060 BKN120 FM260300 VRB03KT
                       P6SM BKN050 OVC100=
202203250520 TAF KPAE 250520Z 2506/2606 02004KT P6SM BKN200 FM250900 07004KT
                       P6SM BKN150 FM251600 19004KT P6SM BKN100
                       FM260300 VRB03KT P6SM SCT050 OVC100=
202203242320 TAF KPAE 242320Z 2500/2524 34006KT P6SM BKN200 FM250200 02004KT
                       P6SM BKN200 FM250900 07004KT P6SM BKN150
                       FM251600 19004KT P6SM BKN100=
202203241720 TAF KPAE 241720Z 2418/2518 35006KT P6SM OVC200 FM250200 02004KT
                       P6SM BKN200 FM250900 07004KT P6SM BKN150
                       FM251600 19004KT P6SM BKN100=
202203241120 TAF KPAE 241120Z 2412/2512 03004KT P6SM SCT020 SCT200
                      TEMPO 2412/2416 OVC020 FM241800 02006KT P6SM
                       BKN200 FM250200 VRB03KT P6SM SCT025 BKN200
                       FM250900 VRB03KT P6SM SCT020 BKN100=
202203240903 KPAE 240903Z 2409/2506 VRB03KT P6SM OVC015 FM241200 03004KT P6SM
                       SCT008 SCT200 FM241800 02006KT P6SM BKN200=
202203240522 TAF KPAE 240522Z 2406/2506 31008KT P6SM SCT025 FM240700 VRB03KT
                       P6SM SCT040 SCT200 FM241200 03004KT P6SM
                       SCT008 SCT200 FM241800 02006KT P6SM BKN200=
202203232325 TAF KPAE 232325Z 2400/2424 32008KT 4SM -SHRA SCT005 BKN020
                      TEMPO 2400/2403 2SM -SHRA BR BKN004 OVC015
                       FM240300 31008KT P6SM VCSH SCT015 BKN030
                       FM240600 VRB03KT P6SM SCT040 SCT200 FM241200
                       03004KT P6SM SCT008 SCT200 FM241800 02006KT
                       P6SM BKN200=
202203232225 KPAE 232225Z 2322/2418 34010KT P6SM -SHRA SCT012 BKN030
                      TEMPO 2322/2401 4SM -SHRA BR BKN010 OVC025
                       FM240100 31008KT P6SM VCSH SCT015 BKN040
                       FM240600 33003KT P6SM SCT040 SCT250=
202203232101 KPAE 232101Z 2321/2418 21014G22KT P6SM -SHRA SCT012 BKN030
                      TEMPO 2321/2401 4SM -SHRA BR BKN011 OVC025
                       FM240100 31008KT P6SM VCSH SCT015 BKN040
                       FM240600 33003KT P6SM SCT040 SCT250=
202203231720 TAF KPAE 231720Z 2318/2418 18009KT P6SM SCT010 BKN030 FM232000
                       21014G22KT 5SM -SHRA BR OVC008 FM240200
                       VRB04KT P6SM SCT015 BKN040 FM240600 33003KT
                       P6SM SCT040 SCT250=
202203231429 KPAE 231429Z 2314/2412 13006KT P6SM OVC004 FM231700 18009KT 6SM
                       -RA BR OVC010 FM232000 21014G22KT 5SM -SHRA
                       BR OVC008 FM240200 VRB04KT P6SM SCT015 BKN040
                       FM240600 33003KT P6SM SCT040 SCT250=
202203231302 KPAE 231302Z 2313/2412 VRB03KT P6SM BKN030
                      TEMPO 2313/2314 BKN003 FM231400 13006KT P6SM
                       OVC020 FM231700 18009KT 6SM -RA BR OVC012
                       FM232000 21014G22KT 5SM -SHRA BR OVC008
                       FM240200 VRB04KT P6SM SCT015 BKN040 FM240600
                       33003KT P6SM SCT040 SCT250=
202203231151 KPAE 231151Z 2312/2412 VRB03KT P6SM BKN003 BKN030 FM231400 13006KT
                       P6SM OVC020 FM231700 18009KT 6SM -RA BR
                       OVC012 FM232000 21014G22KT 5SM -SHRA BR
                       OVC008 FM240200 VRB04KT P6SM SCT015 BKN040
                       FM240600 33003KT P6SM SCT040 SCT250=
202203231121 TAF KPAE 231121Z 2312/2412 VRB03KT P6SM SCT035 SCT200 FM231400
                       13006KT P6SM OVC020 FM231700 18009KT 6SM
                       -RA BR OVC012 FM232000 21014G22KT 5SM -SHRA
                       BR OVC008 FM240200 VRB04KT P6SM SCT015 BKN040
                       FM240600 33003KT P6SM SCT040 SCT250=
202203230531 TAF KPAE 230531Z 2306/2406 VRB03KT P6SM SCT200 FM230900 11004KT
                       P6SM OVC025 FM231200 13006KT P6SM OVC010
                       FM231600 18009KT 6SM -RA BR OVC012 FM232000
                       21014G22KT 5SM -SHRA BR OVC008 FM240200
                       VRB04KT P6SM SCT015 BKN040=
202203222322 TAF KPAE 222322Z 2300/2324 20006KT P6SM BKN025 BKN100
                      TEMPO 2300/2304 SCT027 BKN100 FM230400 11004KT
                       P6SM OVC025 FM230900 13006KT P6SM OVC010
                       FM231600 19009KT 6SM -RA BR OVC012 FM232000
                       21014G22KT 5SM -SHRA BR OVC008=
202203221721 TAF KPAE 221721Z 2218/2318 15009KT 5SM BR SCT006 BKN010 OVC025
                       TEMPO 2218/2220 2SM BR BKN004 OVC009 FM222000
                       14006KT 6SM BR BKN012 OVC025 FM222200 15004KT
                       P6SM BKN025 BKN040 FM230200 11004KT P6SM
                       OVC025 FM230900 16006KT P6SM OVC015 FM231600
                       19009KT 6SM -RA BR OVC012=
202203221120 TAF KPAE 221120Z 2212/2312 16006KT P6SM OVC007 FM221800 15005KT
                       P6SM BKN012 OVC025 FM222200 14004KT P6SM
                       BKN025 BKN040 FM230200 11004KT P6SM OVC025
                       FM230900 16006KT P6SM OVC025=
202203220930 KPAE 220930Z 2210/2306 15009KT P6SM OVC015 FM221100 16006KT 5SM
                       BR OVC010 FM221800 15005KT P6SM BKN012 OVC025
                       FM222200 14004KT P6SM BKN025 BKN040 FM230200
                       11004KT P6SM OVC015=
202203220520 TAF KPAE 220520Z 2206/2306 15009KT 4SM -RA BR BKN005 OVC020
                      TEMPO 2206/2210 3SM BR OVC003 FM221100 16006KT
                       5SM BR OVC010 FM221800 15005KT P6SM BKN012
                       OVC025 FM222200 14004KT P6SM BKN025 BKN040
                       FM230200 11004KT P6SM OVC015=
202203220353 KPAE 220353Z 2204/2224 15009KT 4SM -RA BR BKN005 OVC020 FM221100
                       16006KT 5SM BR OVC010 FM221800 15005KT P6SM
                       BKN012 OVC025 FM222200 14004KT P6SM BKN025
                       BKN040=
202203212340 TAF KPAE 212340Z 2200/2224 15009KT P6SM VCSH BKN015 OVC027 FM220500
                       12005KT 6SM -SHRA BR OVC011 FM221100 16006KT
                       5SM BR OVC008 FM221800 15005KT P6SM BKN012
                       OVC025 FM222200 14004KT P6SM BKN025 BKN040=
202203211857 KPAE 211857Z 2119/2218 VRB04KT 6SM -RA BKN008
                      TEMPO 2119/2122 P6SM NSW SCT012 BKN035 FM212200
                       15008KT 5SM -RA BR OVC020 FM220500 12005KT
                       4SM BR VCSH OVC010=
202203211744 TAF KPAE 211744Z 2118/2218 VRB04KT 6SM -RA BKN008 FM212200 15008KT
                       5SM -RA BR OVC020 FM220500 12005KT 4SM BR
                       VCSH OVC010=
202203211452 KPAE 211452Z 2115/2212 15010KT P6SM -RA SCT008 OVC025
                      TEMPO 2115/2118 BKN014 OVC022 FM211800 15010KT
                       6SM -RA SCT009 OVC012 FM212200 15008KT 5SM
                       -RA BR OVC020 FM220500 12005KT 4SM BR VCSH
                       OVC010=
202203211139 TAF KPAE 211139Z 2112/2212 15010KT P6SM -RA SCT008 OVC018 FM211300
                       15012KT 4SM -RA OVC009 FM211700 15010KT
                       4SM -RA SCT009 OVC012 FM212200 15008KT 5SM
                       -RA BR OVC020 FM220500 12005KT 4SM BR VCSH
                       OVC010=
202203210536 TAF KPAE 210536Z 2106/2206 16010KT 4SM -RA SCT012 OVC025
                      TEMPO 2106/2108 P6SM BKN035 OVC070 FM210900
                       15008KT 4SM -RA OVC012 FM211800 15008KT
                       3SM -RA BKN007 OVC012 FM212200 15007KT 5SM
                       -RA BR OVC020 FM220500 12005KT 4SM BR VCSH
                       OVC010=
202203210333 KPAE 210333Z 2104/2124 15012KT P6SM -RA SCT010 OVC100 FM210600
                       17009KT 4SM -RA SCT012 OVC025 FM210900 15008KT
                       4SM -RA BKN007 OVC012=
202203202320 TAF KPAE 202320Z 2100/2124 18010KT P6SM -RA SCT025 OVC030 FM210300
                       17009KT 4SM -RA SCT012 OVC025 FM210900 15008KT
                       4SM -RA BKN007 OVC012=
202203201734 TAF KPAE 201734Z 2018/2118 16007KT P6SM VCSH BKN010 OVC020 FM202200
                       17010KT 6SM -RA OVC020 FM210400 15009KT
                       4SM -RA SCT007 OVC015 FM210900 15008KT 4SM
                       -RA BKN007 OVC012=
202203201139 TAF KPAE 201139Z 2012/2112 15008KT P6SM -SHRA BKN015 OVC025 FM201500
                       16007KT P6SM VCSH OVC035 FM202200 17010KT
                       4SM -SHRA OVC012 FM210600 15009KT 4SM -RA
                       OVC015=
202203200527 TAF KPAE 200527Z 2006/2106 VRB05KT P6SM VCSH SCT020 BKN025 OVC030
                       FM201000 17008KT P6SM -SHRA OVC015 FM201700
                       18010KT P6SM -SHRA OVC012 FM202300 17010KT
                       4SM -RA OVC012=
202203192326 TAF KPAE 192326Z 2000/2024 33006KT 3SM -RA BKN009 OVC020 FM200400
                       VRB05KT 6SM BR VCSH OVC015 FM201000 17008KT
                       P6SM -SHRA OVC015 FM201700 18010KT P6SM
                       -SHRA OVC012 FM202300 17010KT 4SM -RA OVC012=
202203192100 KPAE 192100Z 1921/2018 33008KT 3SM -RA BKN015 OVC030 FM200300 28009KT
                       6SM BR VCSH OVC015 FM200900 19008KT P6SM
                       -SHRA OVC015=
202203191723 TAF KPAE 191723Z 1918/2018 35008KT 4SM -RA BKN008 OVC020 FM200300
                       28009KT 6SM BR VCSH OVC015 FM200900 19008KT
                       P6SM -SHRA OVC015=
202203191518 KPAE 191518Z 1915/2012 21013KT P6SM -RA BKN008 OVC020 FM191800
                       22010KT P6SM -RA OVC040 FM192100 29008KT
                       P6SM BKN050=
202203191125 TAF KPAE 191125Z 1912/2012 17013KT P6SM -RA OVC030 FM191800 22010KT
                       P6SM -RA OVC040 FM192100 29008KT P6SM BKN050=
202203190526 TAF KPAE 190526Z 1906/2006 17007KT 6SM -RA OVC025 FM191200 17013KT
                       P6SM -RA OVC020 FM191800 22010KT P6SM -RA
                       OVC025 FM192100 29008KT P6SM BKN050=
202203182320 TAF KPAE 182320Z 1900/1924 17007KT P6SM SCT030 BKN070 FM190800
                       17007KT 6SM -RA OVC025 FM191200 17013KT
                       P6SM -RA OVC020 FM191800 22010KT P6SM -RA
                       OVC025 FM192100 29008KT P6SM BKN050=
202203181720 TAF KPAE 181720Z 1818/1918 15010KT P6SM FEW015 BKN035 FM182100
                       18010KT P6SM OVC035 FM190800 17007KT 6SM
                       -RA OVC025 FM191200 17013KT P6SM -RA OVC020=
202203181357 KPAE 181357Z 1814/1912 19008KT P6SM OVC015 FM181800 16008KT P6SM
                       OVC015 FM182100 18010KT P6SM OVC035 FM190800
                       17007KT 6SM -RA OVC025=
202203181130 TAF KPAE 181130Z 1812/1912 19008KT P6SM OVC005 FM181800 16008KT
                       P6SM OVC015 FM182100 18010KT P6SM OVC035
                       FM190800 17007KT 6SM -RA OVC025=
202203180840 KPAE 180840Z 1809/1906 17006KT 2SM -RA BR BKN005 OVC010 FM181800
                       16008KT P6SM OVC025=
202203180523 TAF KPAE 180523Z 1806/1906 17006KT 5SM BR OVC045 FM181800 16008KT
                       P6SM OVC050=
202203172341 TAF KPAE 172341Z 1800/1824 18009KT 5SM -RA BKN045 FM180100 17006KT
                       5SM BR OVC045 FM181800 16008KT P6SM OVC050=
202203171736 TAF KPAE 171736Z 1718/1818 15011KT P6SM OVC100 FM172000 18009KT
                       5SM -RA BR OVC025 FM180100 17006KT 5SM BR
                       OVC020=
202203171130 TAF KPAE 171130Z 1712/1812 12005KT P6SM BKN070 OVC120 FM171500
                       13004KT 6SM -RA BR OVC025 FM172100 18009KT
                       5SM -RA BR OVC012=
202203170522 TAF KPAE 170522Z 1706/1806 12005KT P6SM BKN070 OVC120 FM171600
                       13004KT 6SM -RA BR OVC025 FM172100 18009KT
                       5SM -RA BR OVC012=
202203162320 TAF KPAE 162320Z 1700/1724 19009KT P6SM BKN045 BKN200 FM170600
                       12005KT P6SM BKN070 OVC120 FM171600 13004KT
                       6SM -RA BR OVC025 FM172100 18009KT 5SM -RA
                       BR OVC012=
202203161741 TAF KPAE 161741Z 1618/1718 17006KT P6SM BKN010 OVC030
                      TEMPO 1618/1620 SCT014 BKN035 FM162000 19008KT
                       P6SM BKN040 BKN120 FM170000 18006KT P6SM
                       SCT045 BKN120 FM170600 12005KT P6SM BKN080
                       OVC120 FM171500 13004KT 6SM -RA BR OVC025=
202203161141 TAF KPAE 161141Z 1612/1712 18003KT P6SM BKN015 OVC030 FM161300
                       17006KT P6SM OVC010 FM161900 19008KT P6SM
                       BKN030=
202203160524 KPAE 160524Z 1606/1706 18006KT P6SM VCSH OVC020 FM160900 18003KT
                       P6SM VCSH BKN008 BKN015 OVC030 FM161300
                       17006KT P6SM OVC010 FM161900 19008KT P6SM
                       BKN030=
202203160523 TAF KPAE 160523Z 1606/1706 18006KT P6SM VCSH BKN015 OVC030 FM160900
                       18003KT P6SM VCSH BKN008 BKN015 OVC030 FM161300
                       17006KT P6SM OVC010 FM161900 19008KT P6SM
                       BKN030=
202203160349 KPAE 160349Z 1604/1624 03006KT 6SM -RA SCT008 BKN015 OVC030 FM160900
                       VRB05KT P6SM VCSH BKN008 BKN015 OVC030 FM161300
                       17006KT P6SM OVC010 FM161900 19008KT P6SM
                       BKN030=
202203152324 TAF KPAE 152324Z 1600/1624 19015G24KT P6SM SCT030 BKN050
                      TEMPO 1601/1605 -SHRA BKN020 OVC040 FM160500
                       21011KT P6SM VCSH SCT008 BKN015 OVC030 FM160900
                       18008KT P6SM SCT008 BKN015 OVC030 FM161300
                       17006KT P6SM OVC012 FM161900 19008KT P6SM
                       BKN030=
202203151721 TAF KPAE 151721Z 1518/1618 18012G20KT P6SM VCSH SCT015 BKN025 BKN040
                       TEMPO 1518/1522 BKN015 FM152200 21008KT
                       P6SM SCT030 BKN050 FM160100 25008KT P6SM
                       -SHRA SCT006 BKN011 OVC020 FM160400 VRB03KT
                       4SM -SHRA BKN006 OVC011 FM160900 18008KT
                       P6SM SCT008 BKN015 OVC030=
202203151139 TAF KPAE 151139Z 1512/1612 18014G24KT P6SM BKN006 OVC011 FM151400
                       18014G24KT P6SM -RA SCT011 BKN020 OVC040
                       FM151600 18012G20KT P6SM VCSH SCT015 BKN025
                       BKN040 FM152000 21008KT P6SM SCT030 BKN050
                       FM160100 25008KT P6SM -SHRA SCT006 BKN011
                       OVC020 FM160400 VRB03KT 4SM -SHRA BKN006
                       OVC011 FM160900 18008KT P6SM SCT008 BKN015
                       OVC030=
202203150904 KPAE 150904Z 1509/1606 15012KT P6SM -RA SCT008 BKN015 OVC035
                      TEMPO 1509/1512 BKN008 OVC015 FM151500 21012G20KT
                       P6SM VCSH BKN025 BKN050 FM152000 25008KT
                       P6SM SCT030 BKN050=
202203150539 TAF KPAE 150539Z 1506/1606 15012KT P6SM -RA SCT015 OVC035 FM151500
                       21012G20KT P6SM VCSH BKN025 BKN050 FM152000
                       25008KT P6SM SCT030 BKN050=
202203142321 TAF KPAE 142321Z 1500/1524 17017G27KT 4SM -RA BR OVC020 FM150600
                       18014G24KT 4SM -RA BR OVC020 FM151500 21012G20KT
                       P6SM VCSH BKN025 BKN050 FM152000 25008KT
                       P6SM SCT030 BKN050=
202203141724 TAF KPAE 141724Z 1418/1518 16015G25KT P6SM -RA OVC040
                      TEMPO 1418/1422 5SM -RA BR OVC025 FM142200
                       16015G25KT 4SM -RA BR OVC020 FM151200 23010KT
                       P6SM -SHRA BKN015 OVC030 FM151600 VRB05KT
                       P6SM -SHRA BKN020 BKN050=
202203141139 TAF KPAE 141139Z 1412/1512 16014G24KT P6SM OVC025 FM141600 16014G24KT
                       P6SM SCT025 OVC035 FM142000 16014G24KT 5SM
                       -RA SCT012 OVC020 FM150300 16014G24KT P6SM
                       -RA SCT020 BKN030 OVC050=
202203140541 TAF KPAE 140541Z 1406/1506 18018G28KT P6SM SCT025 OVC045 FM141600
                       18012KT P6SM -RA SCT020 OVC035 FM142100
                       18012KT 5SM -RA SCT012 OVC020 FM150300 18014G20KT
                       P6SM -RA SCT020 BKN030 OVC050=
202203140122 KPAE 140122Z 1401/1424 19012G22KT P6SM SCT015 OVC040
                      TEMPO 1401/1405 5SM -SHRA OVC015 FM140500
                       17010KT P6SM -SHRA OVC020 FM141200 18014KT
                       5SM -RA OVC025 FM142000 18012KT P6SM -RA
                       OVC035=
202203132320 TAF KPAE 132320Z 1400/1424 16014G22KT P6SM -RA OVC035 FM141200
                       18014KT 5SM -RA OVC025 FM142000 18012KT
                       P6SM -RA OVC035=
202203132157 KPAE 132157Z 1322/1418 21010KT P6SM -SHRA OVC030 FM140600 18012KT
                       P6SM OVC020 FM141200 18012KT 5SM -RA OVC015=
202203131720 TAF KPAE 131720Z 1318/1418 VRB04KT P6SM VCSH BKN050 BKN120 FM140300
                       18006KT P6SM -SHRA OVC040 FM141200 17012KT
                       5SM -RA OVC015=
202203131135 TAF KPAE 131135Z 1312/1412 18012KT P6SM SCT035 BKN100 FM131600
                       18008KT P6SM SCT025 BKN040 BKN060 FM132000
                       18008KT P6SM SCT030 BKN060 FM140400 15012KT
                       P6SM -RA OVC040 FM140900 15012G20KT 5SM
                       -RA SCT015 OVC025=
202203130905 KPAE 130905Z 1309/1406 13006KT P6SM -SHRA SCT025 OVC040 FM131600
                       VRB04KT P6SM VCSH BKN030 OVC050 FM132100
                       VRB04KT P6SM BKN040 BKN080 FM140400 18008KT
                       P6SM -RA OVC040=
202203130520 TAF KPAE 130520Z 1306/1406 15005KT P6SM -RA OVC040 FM130800 16008KT
                       P6SM -SHRA BKN025 OVC040 FM131600 VRB04KT
                       P6SM VCSH BKN030 OVC050 FM132100 VRB04KT
                       P6SM BKN040 BKN080 FM140400 18008KT P6SM
                       -RA OVC040=
202203122320 TAF KPAE 122320Z 1300/1324 21012G20KT P6SM -RA BKN040 OVC080 FM130400
                       18012KT P6SM -RA OVC040 FM130800 18012KT
                       P6SM -SHRA BKN025 OVC050 FM131600 VRB04KT
                       P6SM VCSH BKN030 BKN050 FM132100 VRB04KT
                       P6SM BKN040 BKN080=
202203121720 TAF KPAE 121720Z 1218/1318 14006KT P6SM BKN120 OVC200 FM122200
                       16008KT P6SM BKN050 OVC100 FM130100 16012KT
                       P6SM -RA OVC030 FM130400 16012KT P6SM -RA
                       OVC025 FM131200 VRB04KT P6SM -SHRA OVC020=
202203121129 TAF KPAE 121129Z 1212/1312 15009KT P6SM OVC050 FM121700 15009KT
                       P6SM SCT050 BKN250 FM130100 16012KT P6SM
                       -RA OVC040 FM130900 17012KT P6SM -RA OVC025=
202203120520 TAF KPAE 120520Z 1206/1306 12005KT P6SM SCT050 BKN150 BKN250
                      TEMPO 1210/1214 OVC050 FM130100 16012KT P6SM
                       -RA OVC040 FM130400 17012KT P6SM -RA OVC025=
202203112320 TAF KPAE 112320Z 1200/1224 15005KT P6SM BKN060 OVC120 FM121000
                       16008KT P6SM BKN040 OVC090 FM122100 16012KT
                       P6SM -RA OVC040=
202203111720 TAF KPAE 111720Z 1118/1218 10004KT P6SM BKN050 OVC090 FM121000
                       15006KT P6SM BKN050 OVC090=
202203111129 TAF KPAE 111129Z 1112/1212 18007KT P6SM OVC040 FM111900 17005KT
                       P6SM VCSH OVC050 FM120200 13004KT P6SM OVC080
                       FM120900 15006KT P6SM VCSH OVC030=
202203110520 TAF KPAE 110520Z 1106/1206 VRB03KT P6SM OVC060 FM111200 18007KT
                       P6SM OVC050 FM111900 16005KT P6SM OVC050
                       FM120300 13004KT P6SM OVC100=
202203102320 TAF KPAE 102320Z 1100/1124 27007KT P6SM OVC120 FM110600 VRB03KT
                       P6SM OVC090 FM111200 18007KT P6SM BKN080
                       OVC120=
202203101720 TAF KPAE 101720Z 1018/1118 15005KT P6SM SCT120 BKN200 FM111200
                       15005KT P6SM BKN080 OVC120=
202203101130 TAF KPAE 101130Z 1012/1112 VRB03KT P6SM BKN200 FM102100 28004KT
                       P6SM BKN150 FM110200 00000KT P6SM BKN100
                       FM110900 12003KT P6SM OVC080=
202203100520 TAF KPAE 100520Z 1006/1106 34004KT P6SM SKC FM100900 VRB03KT P6SM
                       SCT250 FM101200 VRB03KT P6SM BKN200 FM102100
                       32004KT P6SM BKN150 FM110300 00000KT P6SM
                       BKN080 OVC150=
202203092332 TAF KPAE 092332Z 1000/1024 36010KT P6SM FEW070 FM100400 VRB04KT
                       P6SM SKC FM101500 VRB03KT P6SM BKN200=
202203091738 TAF KPAE 091738Z 0918/1018 36007KT P6SM SCT060 FM092100 36010KT
                       P6SM SKC FM100400 VRB04KT P6SM SKC FM101500
                       VRB03KT P6SM BKN200=
202203091120 TAF KPAE 091120Z 0912/1012 04004KT P6SM FEW003 SCT015 BKN100
                      TEMPO 0912/0916 3SM BR BKN007 FM091800 36007KT
                       P6SM SCT100 FM100000 36008KT P6SM SKC FM100600
                       06004KT P6SM SKC=
202203090824 KPAE 090824Z 0908/1006 35003KT 3SM BR SCT002
                      TEMPO 0908/0911 1/2SM FG VV001 FM091100 36003KT
                       1/2SM FG VV001
                      TEMPO 0916/0918 5SM BR SCT002 FM091800 36008KT
                       P6SM SCT200 FM100000 33008KT P6SM SKC=
202203090520 TAF KPAE 090520Z 0906/1006 35003KT P6SM SKC FM090900 36003KT 4SM
                       BR SCT250 FM091800 36008KT P6SM SCT250 FM100000
                       33008KT P6SM SKC=
202203082338 TAF KPAE 082338Z 0900/0924 31006KT P6SM SCT010 BKN050 FM090200
                       01005KT P6SM BKN030 FM090900 36003KT 4SM
                       BR SCT250 FM091800 36008KT P6SM SCT250=
202203082047 KPAE 082047Z 0821/0918 30005KT 3SM BR VCSH BKN004 OVC015 FM082200
                       35006KT 6SM BR VCSH BKN010 OVC025 FM090200
                       01005KT P6SM BKN030 FM090900 36005KT P6SM
                       SCT250=
202203081738 TAF KPAE 081738Z 0818/0918 VRB04KT 5SM -RA BR BKN004 OVC015 FM082000
                       35006KT 6SM BR VCSH BKN010 OVC025 FM090200
                       01005KT P6SM BKN030 FM090900 36005KT P6SM
                       SCT250=
202203081134 TAF KPAE 081134Z 0812/0912 21006KT 5SM -RA BR SCT010 BKN035
                      TEMPO 0812/0816 BKN009 OVC050 FM081600 VRB03KT
                       5SM -RA BR BKN009 OVC015 FM081900 35006KT
                       5SM -RA BR SCT006 BKN011 OVC020 FM082200
                       35006KT P6SM VCSH SCT010 BKN022 OVC030 FM090900
                       04004KT P6SM SCT025 BKN040=
202203080922 KPAE 080922Z 0809/0906 18006KT P6SM SCT010 BKN050
                      TEMPO 0809/0813 BKN009 OVC050 FM081300 VRB03KT
                       5SM -RA BKN006 OVC010 FM081900 35006KT 5SM
                       BR SCT006 BKN010 OVC020 FM082200 35006KT
                       P6SM SCT010 BKN020 OVC030=
202203080520 TAF KPAE 080520Z 0806/0906 18006KT P6SM BKN050 FM081100 18006KT
                       P6SM OVC015 FM081400 VRB03KT 3SM -RA BKN006
                       OVC010 FM081900 35006KT 5SM BR SCT006 BKN010
                       OVC020 FM082200 35006KT P6SM SCT010 BKN020
                       OVC030=
202203072325 TAF KPAE 072325Z 0800/0824 23009KT P6SM SCT013 FM080500 18006KT
                       P6SM BKN040 OVC080 FM081100 18006KT P6SM
                       VCSH BKN011 OVC020 FM081500 01003KT 6SM
                       -RA BR OVC015 FM081800 35005KT 6SM -RA BR
                       OVC007=
202203072102 KPAE 072102Z 0721/0818 20006KT 1SM BR OVC005 FM080500 18006KT P6SM
                       BKN040 OVC080 FM081100 18006KT P6SM VCSH
                       BKN011 OVC020 FM081500 01003KT 6SM BR VCSH
                       OVC015=
202203071850 KPAE 071850Z 0719/0818 16009KT 1SM BR VV001 FM072000 18006KT 6SM
                       BR BKN011 FM072100 18006KT P6SM BKN100 FM080500
                       18006KT P6SM BKN040 OVC080 FM081100 18006KT
                       P6SM VCSH BKN011 OVC020 FM081500 01003KT
                       6SM BR VCSH OVC015=
202203071728 TAF KPAE 071728Z 0718/0818 21003KT 5SM BR SCT002 BKN012 FM072000
                       18006KT P6SM BKN011 FM072100 18006KT P6SM
                       BKN100 FM080500 18006KT P6SM BKN040 OVC080
                       FM081100 18006KT P6SM VCSH BKN011 OVC020
                       FM081500 01003KT 6SM BR VCSH OVC015=
202203071631 KPAE 071631Z 0717/0812 21004KT 3/4SM BR BKN004 FM071800 20005KT
                       4SM BR BKN007 FM072000 18006KT P6SM BKN011
                       FM072100 18006KT P6SM BKN100 FM080500 18006KT
                       P6SM BKN040 OVC080 FM081100 18006KT P6SM
                       VCSH BKN011 OVC020=
202203071518 KPAE 071518Z 0715/0812 16005KT P6SM SKC FM071700 00000KT P6SM OVC006
                       FM072000 18006KT P6SM BKN011 FM072100 18006KT
                       P6SM BKN100 FM080500 18006KT P6SM BKN040
                       OVC080 FM081100 18006KT P6SM VCSH BKN011
                       OVC020=
202203071131 TAF KPAE 071131Z 0712/0812 VRB03KT P6SM FEW005 BKN200
                      TEMPO 0713/0717 5SM BR BKN005 FM071700 00000KT
                       P6SM OVC006 FM072000 18006KT P6SM BKN011
                       FM072100 18006KT P6SM BKN100 FM080500 18006KT
                       P6SM BKN040 OVC080 FM081100 18006KT P6SM
                       VCSH BKN011 OVC020=
202203070520 TAF KPAE 070520Z 0706/0806 00000KT P6SM BKN250 FM071300 00000KT
                       3SM BR OVC004 FM071700 00000KT P6SM OVC006
                       FM072000 18006KT P6SM BKN011 FM072100 18006KT
                       P6SM BKN100 FM080300 18006KT P6SM BKN040
                       OVC080=
202203062338 TAF KPAE 062338Z 0700/0724 01006KT P6SM SCT250 FM071000 VRB03KT
                       P6SM BKN030 FM071200 VRB02KT 1SM BR BKN001
                       FM072000 23004KT 6SM BR BKN025 FM072100
                       VRB05KT P6SM SCT070=
202203061737 TAF KPAE 061737Z 0618/0718 36002KT P6SM OVC020 FM062100 34002KT
                       P6SM BKN060 FM062200 33002KT P6SM SCT250
                       FM070600 07003KT P6SM SCT250 FM071000 VRB03KT
                       P6SM BKN030 FM071200 01002KT 1SM BR BKN001=
202203061258 KPAE 061258Z 0613/0712 00000KT P6SM SKC FM061400 00000KT P6SM OVC020
                       FM061800 36002KT P6SM SCT250 FM070600 07003KT
                       P6SM SCT250 FM071000 VRB03KT P6SM BKN030=
202203061156 TAF KPAE 061156Z 0612/0712 00000KT P6SM SCT005 FM061800 36002KT
                       P6SM SCT250 FM070600 07003KT P6SM SCT250
                       FM071000 VRB03KT P6SM BKN030=
202203060520 TAF KPAE 060520Z 0606/0706 34002KT P6SM SCT250 FM061000 VRB03KT
                       P6SM SCT035 FM061200 36002KT 1SM BR SCT005
                       FM061800 36002KT P6SM SCT250=
202203052335 TAF KPAE 052335Z 0600/0624 36007KT P6SM FEW025 FM060500 34002KT
                       P6SM SCT250 FM061000 VRB03KT P6SM BKN035
                       FM061300 36002KT P6SM BKN025 FM061800 36002KT
                       P6SM SCT060=
202203051739 TAF KPAE 051739Z 0518/0618 35006KT P6SM SCT007 BKN015 FM052000
                       34007KT P6SM SCT050 FM060600 02003KT P6SM
                       SCT250 FM061000 VRB03KT P6SM BKN035 FM061200
                       36002KT P6SM BKN025=
202203051321 KPAE 051321Z 0513/0612 35009KT P6SM OVC006 FM051600 35008KT P6SM
                       BKN020 FM051800 35003KT P6SM BKN035 FM052000
                       34007KT P6SM SCT050 FM060600 02003KT P6SM
                       SCT250 FM061000 VRB03KT P6SM BKN035=
202203051145 TAF KPAE 051145Z 0512/0612 34004KT P6SM OVC012 FM051600 35003KT
                       P6SM BKN025 FM051800 35003KT P6SM BKN035
                       FM052000 34007KT P6SM SCT050 FM060600 02003KT
                       P6SM SCT250 FM061000 VRB03KT P6SM BKN035=
202203051024 KPAE 051024Z 0510/0606 34004KT P6SM OVC012 FM051600 35003KT P6SM
                       BKN025 FM051800 35003KT P6SM BKN035 FM052000
                       34007KT P6SM SCT050=
202203050520 TAF KPAE 050520Z 0506/0606 35003KT P6SM SCT050 FM051300 35003KT
                       P6SM BKN025 FM051700 35003KT P6SM BKN035
                       FM051900 34007KT P6SM SCT050=
202203042335 TAF KPAE 042335Z 0500/0524 33009KT P6SM SCT030 BKN045 FM050600
                       VRB03KT P6SM SCT050 FM051300 35003KT P6SM
                       BKN015 FM051700 35003KT P6SM BKN035 FM051900
                       34002KT P6SM BKN050=
202203041738 TAF KPAE 041738Z 0418/0518 35007KT P6SM BKN010 OVC025 FM042100
                       35009KT P6SM SCT025 BKN045 FM050600 VRB03KT
                       P6SM SCT050 FM051300 36002KT P6SM BKN015=
202203041341 KPAE 041341Z 0414/0512 VRB03KT 3SM BR BKN002 BKN020 OVC060
                      TEMPO 0414/0415 3/4SM BR FM041800 35006KT
                       P6SM SCT006 BKN012 OVC020 FM042100 35008KT
                       P6SM SCT025 BKN045 FM050600 VRB03KT P6SM
                       SCT050=
202203041126 TAF KPAE 041126Z 0412/0512 VRB03KT P6SM VCSH BKN006 OVC012 FM041800
                       35006KT P6SM SCT006 BKN012 OVC020 FM042100
                       35008KT P6SM SCT025 BKN045 FM050600 VRB03KT
                       P6SM SCT050=
202203040904 KPAE 040904Z 0409/0506 00000KT P6SM VCSH BKN005 OVC010 FM041100
                       VRB03KT P6SM BKN006 OVC010 FM041800 35006KT
                       P6SM SCT006 BKN012 FM042100 35006KT P6SM
                       SCT025 BKN045=
202203040521 TAF KPAE 040521Z 0406/0506 12006KT P6SM BKN045 FM041100 VRB03KT
                       P6SM BKN006 OVC010 FM041800 35006KT P6SM
                       SCT006 BKN012 FM042100 35006KT P6SM SCT025
                       BKN045=
202203032329 TAF KPAE 032329Z 0400/0424 17004KT P6SM VCSH SCT010 BKN035 FM040500
                       VRB05KT P6SM BKN030 FM041100 01003KT 5SM
                       BR OVC010 FM041800 35005KT P6SM OVC015 FM042200
                       34007KT P6SM BKN050=
202203031737 TAF KPAE 031737Z 0318/0418 12004KT P6SM VCSH BKN008 OVC015 FM032000
                       30007KT P6SM -RA OVC020 FM032300 28006KT
                       P6SM OVC022 FM040500 VRB05KT P6SM BKN030
                       FM041000 VRB03KT 6SM BR OVC015=
202203031134 TAF KPAE 031134Z 0312/0412 35008KT 4SM -RA BKN007 OVC010 FM032000
                       30007KT 6SM -RA BKN010 OVC015 FM032300 28006KT
                       P6SM OVC022 FM040500 VRB05KT P6SM BKN035
                       FM041000 VRB03KT 6SM BR OVC015=
202203030904 KPAE 030904Z 0309/0406 33007KT 4SM -RA BKN003 OVC015 FM031600 29006KT
                       P6SM VCSH OVC020 FM032200 30004KT P6SM OVC022=
202203030708 KPAE 030708Z 0307/0406 18006KT P6SM VCSH SCT006 OVC012
                      TEMPO 0307/0309 4SM -RA BKN006 FM032200 30004KT
                       P6SM OVC022=
202203030523 TAF KPAE 030523Z 0306/0406 16010KT P6SM VCSH BKN008 OVC015 FM030800
                       18006KT P6SM SCT006 OVC012 FM032200 30004KT
                       P6SM OVC022=
202203030405 KPAE 030405Z 0304/0324 16010KT P6SM BKN008 OVC015 FM030800 18006KT
                       P6SM SCT006 OVC012 FM032200 30004KT P6SM
                       OVC022=
202203022335 TAF KPAE 022335Z 0300/0324 17010KT P6SM -RA SCT009 BKN050 OVC070
                       FM030600 18006KT P6SM VCSH OVC015 FM031200
                       24005KT P6SM OVC010 FM032200 30004KT P6SM
                       OVC015 FM032300 30005KT P6SM OVC025=
202203021739 TAF KPAE 021739Z 0218/0318 16008KT 5SM -RA SCT035 BKN045 OVC050
                       FM021900 16008KT 5SM -RA OVC025 FM030000
                       16008KT P6SM VCSH OVC030 FM030600 17006KT
                       P6SM OVC015=
202203021133 TAF KPAE 021133Z 0212/0312 15008KT P6SM VCSH OVC050
                      TEMPO 0212/0216 -RA FM021600 16008KT 5SM
                       -RA OVC025 FM030000 16008KT P6SM VCSH OVC020
                       FM030600 17006KT P6SM OVC015=
202203020905 KPAE 020905Z 0209/0306 16008KT P6SM VCSH SCT020 OVC060
                      TEMPO 0209/0212 6SM -RA BKN015 FM021200 16008KT
                       P6SM -RA SCT012 OVC020 FM021800 16008KT
                       5SM -RA SCT006 BKN012 OVC020 FM022200 16008KT
                       P6SM SCT012 BKN020 OVC030 FM030000 16008KT
                       P6SM SCT020 BKN030 OVC045=
202203020543 TAF KPAE 020543Z 0206/0306 16008KT P6SM BKN050 OVC150 FM021400
                       16008KT P6SM -RA SCT012 OVC020 FM021800
                       16008KT 5SM -RA SCT006 BKN012 OVC020 FM022200
                       16008KT P6SM SCT012 BKN020 OVC030 FM030000
                       16008KT P6SM SCT020 BKN030 OVC045=
202203012320 TAF KPAE 012320Z 0200/0224 18012KT P6SM SCT015 BKN035 FM020600
                       16009KT P6SM OVC050 FM020900 18007KT P6SM
                       -SHRA OVC025 FM022000 18012KT P6SM -SHRA
                       BKN025=
202203011734 TAF KPAE 011734Z 0118/0218 20015G19KT P6SM BKN010 FM012200 18012KT
                       P6SM SCT015 BKN035 FM020600 16009KT P6SM
                       OVC050 FM020900 18007KT P6SM OVC025=
202203011124 TAF KPAE 011124Z 0112/0212 20015G19KT P6SM VCSH OVC010
                      TEMPO 0112/0115 -RA FM012200 18012KT P6SM
                       SCT015 OVC035 FM020600 16009KT P6SM OVC050
                       FM020900 18007KT P6SM OVC025=
202203010520 TAF KPAE 010520Z 0106/0206 18020G30KT 5SM -RA BR SCT007 BKN010
                       OVC020 FM010800 18011KT 6SM -SHRA BR OVC015
                       FM012100 18011KT P6SM SCT015 OVC025=
202203010214 KPAE 010214Z 0102/0124 18020G30KT 5SM -RA BR SCT007 BKN010 OVC020
                       FM010800 18011KT 6SM -SHRA BR OVC015 FM012000
                       18011KT P6SM SCT015 OVC025=