##########################################################
# Query made at 02/15/2025 22:53:17 UTC
# Time interval: from 02/01/2023 00:00  to 02/28/2023 23:59  UTC
##########################################################

##########################################################
# KPAE, Everett, Snohomish County Airport (United States)
# WMO index: -----. WIGOS ID: Unknown
# Latitude 47-55-23N. Longitude 122-16-57W. Altitude 184 m.
##########################################################

###################################
#  METAR/SPECI from KPAE
###################################
202302282356 SPECI KPAE 282356Z 00000KT 10SM SCT009 OVC065 03/M02 A2963 RMK AO2 T00281017=
202302282353 METAR KPAE 282353Z VRB03KT 10SM BKN009 OVC065 03/M02 A2963 RMK AO2 SLP038 60018 T00281017 10028 20006 51016=
202302282253 METAR KPAE 282253Z 02004KT 5SM BR FEW003 BKN009 OVC049 02/00 A2962 RMK AO2 SNB27E36 SLP036 P0000 T00220000=
202302282153 METAR KPAE 282153Z 05003KT 7SM BKN009 02/00 A2960 RMK AO2 SNE08 SLP029 P0000 T00170000=
202302282053 METAR KPAE 282053Z 11004KT 1SM R16R/4500VP6000FT -SN BR BKN004 OVC010 02/00 A2958 RMK AO2 SLP023 P0005 60018 T00170000 51022=
202302282046 SPECI KPAE 282046Z 00000KT 1SM R16R/4500VP6000FT -SN BR BKN004 OVC010 02/00 A2958 RMK AO2 P0004 T00170000=
202302282025 SPECI KPAE 282025Z 00000KT 1/2SM R16R/3000V6000FT SN FG BKN004 OVC010 01/00 A2957 RMK AO2 P0003 T00110000=
202302282012 SPECI KPAE 282012Z 04003KT 3/4SM R16R/4000VP6000FT -SN BR OVC006 01/M01 A2957 RMK AO2 P0002 T00111006=
202302281953 METAR KPAE 281953Z 00000KT 1SM R16R/P6000FT -SN BR OVC004 01/00 A2956 RMK AO2 SLP015 P0008 T00110000=
202302281853 METAR KPAE 281853Z 00000KT 1SM R16R/3500V4500FT -SN BR BKN004 OVC017 01/00 A2954 RMK AO2 SLP008 P0005 T00060000=
202302281851 SPECI KPAE 281851Z 00000KT 1SM R16R/3500V4500FT -SN BR BKN004 OVC017 01/00 A2954 RMK AO2 P0005=
202302281814 SPECI KPAE 281814Z 00000KT 3/4SM R16R/4000VP6000FT -SN BR BKN007 OVC017 01/M01 A2953 RMK AO2 P0003 T00111006=
202302281800 SPECI KPAE 281800Z 00000KT 1 1/4SM R16R/4500VP6000FT -SN BR BKN007 OVC017 01/00 A2952 RMK AO2 P0001 T00110000=
202302281753 METAR KPAE 281753Z 00000KT 1 1/2SM -SN BR FEW007 BKN014 OVC049 01/00 A2952 RMK AO2 SLP000 P0008 60014 T00110000 10017 20006 51017=
202302281700 SPECI KPAE 281700Z 15004KT 1 1/4SM -SN BR FEW007 BKN014 OVC049 01/M01 A2950 RMK AO2 P0001 T00061006=
202302281653 METAR KPAE 281653Z 16003KT 3/4SM R16R/3500VP6000FT -SN BR FEW007 OVC011 01/M01 A2950 RMK AO2 SLP993 P0001 T00061006=
202302281650 SPECI KPAE 281650Z 15004KT 3/4SM R16R/3500VP6000FT -SN BR FEW007 OVC011 01/M01 A2950 RMK AO2 P0001=
202302281638 SPECI KPAE 281638Z 17005KT 1/2SM R16R/3000V5500FT SN FG VV009 01/M01 A2949 RMK AO2 P0000 T00061011=
202302281553 METAR KPAE 281553Z 21008KT 1 1/2SM R16R/6000VP6000FT SN BR BKN005 OVC012 01/00 A2947 RMK AO2 RAB14E17SNB17 SLP982 P0002 T00110000=
202302281549 SPECI KPAE 281549Z 21006KT 1 1/2SM R16R/6000VP6000FT SN BR BKN005 OVC012 01/00 A2946 RMK AO2 RAB14E17SNB17 P0002=
202302281529 SPECI KPAE 281529Z 20009KT 2 1/2SM -SN BR OVC008 01/00 A2945 RMK AO2 RAB14E17SNB17 P0000 T00110000=
202302281453 METAR KPAE 281453Z 20012KT 10SM BKN010 OVC017 02/00 A2944 RMK AO2 SLP971 60003 T00170000 53023=
202302281419 SPECI KPAE 281419Z AUTO 19012KT 10SM OVC010 02/00 A2942 RMK AO2 CIG 008V012 T00170000=
202302281353 METAR KPAE 281353Z AUTO 18012KT 10SM BKN007 OVC012 02/00 A2940 RMK AO2 SNE1259 CIG 006V010 SLP959 P0000 T00170000=
202302281253 METAR KPAE 281253Z AUTO 15008KT 5SM -SN BR OVC006 01/00 A2938 RMK AO2 SNE31B52 SLP953 P0003 T00110000=
202302281228 SPECI KPAE 281228Z AUTO 15009KT 3SM -SN BR OVC006 01/M01 A2938 RMK AO2 CIG 003V008 P0002 T00111006=
202302281201 SPECI KPAE 281201Z AUTO 14009KT 2 1/2SM -SN BR OVC004 01/M01 A2937 RMK AO2 P0000 T00111006=
202302281153 METAR KPAE 281153Z AUTO 15010KT 6SM -SN BR BKN005 OVC009 01/M01 A2937 RMK AO2 SNE19B45 SLP948 P0004 60010 70021 T00111006 10033 20006 58002=
202302281146 SPECI KPAE 281146Z AUTO 15010G17KT 7SM -SN BKN005 OVC009 01/M01 A2937 RMK AO2 SNE19B45 CIG 004V008 P0003 T00111006=
202302281120 SPECI KPAE 281120Z AUTO 15008KT 6SM BR FEW006 BKN013 OVC029 01/M01 A2937 RMK AO2 SNE19 P0002 T00111006=
202302281053 METAR KPAE 281053Z AUTO 15005KT 4SM -SN BR BKN015 BKN020 OVC033 01/M01 A2937 RMK AO2 SLP950 P0003 T00111006=
202302281046 SPECI KPAE 281046Z AUTO 13005KT 2SM -SN BR FEW003 OVC018 01/M01 A2937 RMK AO2 P0003 T00061006=
202302281039 SPECI KPAE 281039Z AUTO VRB03KT 1 1/4SM -SN BR FEW003 OVC014 01/M01 A2937 RMK AO2 P0003 T00061006=
202302281030 SPECI KPAE 281030Z AUTO VRB03KT 2 1/2SM -SN BR FEW003 OVC016 01/M01 A2937 RMK AO2 P0002 T00061006=
202302281024 SPECI KPAE 281024Z AUTO VRB03KT 3SM -SN BR FEW003 OVC014 01/M01 A2937 RMK AO2 P0002 T00061006=
202302280953 METAR KPAE 280953Z AUTO VRB04KT 1 1/4SM -SN BR FEW003 OVC011 01/M01 A2937 RMK AO2 SLP952 P0002 T00061006=
202302280909 SPECI KPAE 280909Z AUTO 15008KT 1SM R16R/5500VP6000FT -SN BR VV010 01/M01 A2937 RMK AO2 P0000 T00061006=
202302280853 METAR KPAE 280853Z AUTO 15009KT 3/4SM R16R/4500VP6000FT -SN BR VV013 01/M01 A2937 RMK AO2 UPB22E26SNB26 SLP952 P0001 60001 T00061006 53003=
202302280846 SPECI KPAE 280846Z AUTO 15008KT 1 1/4SM -SN BR OVC020 01/M01 A2937 RMK AO2 UPB22E26SNB26 P0001 T00111006=
202302280837 SPECI KPAE 280837Z AUTO 16010KT 2 1/2SM -SN BR OVC028 01/M01 A2937 RMK AO2 UPB22E26SNB26 P0001 T00111006=
202302280753 METAR KPAE 280753Z AUTO 16007KT 10SM FEW043 OVC065 03/M03 A2936 RMK AO2 SLP947 T00281033 400500006=
202302280653 METAR KPAE 280653Z AUTO 14004KT 10SM OVC060 03/M03 A2936 RMK AO2 SLP946 T00281033=
202302280553 METAR KPAE 280553Z AUTO 11005KT 10SM FEW044 BKN060 03/M03 A2937 RMK AO2 SLP948 60003 T00281028 10039 20022 56006=
202302280453 METAR KPAE 280453Z AUTO VRB03KT 10SM SCT060 03/M02 A2937 RMK AO2 SLP948 T00281022=
202302280353 METAR KPAE 280353Z 00000KT 10SM OVC041 03/M02 A2938 RMK AO2 SLP951 T00331017=
202302280253 METAR KPAE 280253Z 11004KT 10SM SCT050 BKN060 03/00 A2938 RMK AO2 RAE09 SLP954 P0000 60003 T00280000 58009=
202302280201 SPECI KPAE 280201Z VRB04KT 9SM -RA FEW008 BKN042 OVC070 03/M01 A2940 RMK AO2 P0000 T00281006=
202302280156 SPECI KPAE 280156Z 16005G16KT 6SM -RA BKN012 OVC045 03/M01 A2940 RMK AO2 P0000 T00281006=
202302280153 METAR KPAE 280153Z 16005G16KT 6SM -RA SCT018 BKN030 OVC045 03/00 A2940 RMK AO2 RAE22B49 SLP960 P0002 T00280000=
202302280150 SPECI KPAE 280150Z 18009KT 7SM -RA SCT020 OVC045 03/01 A2940 RMK AO2 RAE22B49 P0001=
202302280121 SPECI KPAE 280121Z 10003KT 10SM -RA OVC028 03/00 A2940 RMK AO2 P0001 T00330000=
202302280053 METAR KPAE 280053Z VRB04KT 10SM -RA BKN009 03/00 A2941 RMK AO2 SNB29E30 SLP963 P0001 T00330000=
202302280040 SPECI KPAE 280040Z VRB05G15KT 9SM -RA BKN009 03/00 A2942 RMK AO2 SNB29E30 P0001 T00330000=
202302280037 SPECI KPAE 280037Z 12010G15KT 100V170 7SM -RA BKN025 BKN040 OVC047 03/M01 A2942 RMK AO2 SNB29E30 P0001 T00331006=
202302272353 METAR KPAE 272353Z VRB03KT 6SM -RA BKN014 BKN019 OVC037 03/01 A2943 RMK AO2 UPE06RAB39 SLP971 P0001 60008 T00330006 10050 20017 56014=
202302272253 METAR KPAE 272253Z 7SM UP BKN032 OVC040 03/01 A2945 RMK AO2 UPB24SNE24 SLP975 P0001 T00280011=
202302272156 SPECI KPAE 272156Z 14005KT 2 1/2SM -SN BR OVC005 02/00 A2946 RMK AO2 P0000 T00170000=
202302272153 METAR KPAE 272153Z VRB04KT 4SM -SN BR OVC005 02/00 A2946 RMK AO2 SLP981 P0006 T00170000=
202302272053 METAR KPAE 272053Z 15012G21KT 4SM -SN OVC005 03/M01 A2947 RMK AO2 RAB31E38SNB38 SLP985 P0000 60000 T00281011 56018=
202302272043 SPECI KPAE 272043Z 14011G25KT 6SM -SN BKN007 03/M02 A2948 RMK AO2 RAB31E38SNB38 P0000 T00331017=
202302271953 METAR KPAE 271953Z 10008KT 10SM FEW040 BKN051 OVC060 04/M03 A2948 RMK AO2 SLP987 T00441028=
202302271853 METAR KPAE 271853Z 10007KT 9SM BKN031 OVC038 03/M02 A2950 RMK AO2 SNB1755E12B28E53 SLP993 P0000 T00331022=
202302271810 SPECI KPAE 271810Z 09005KT 9SM -SN BKN033 OVC047 03/M03 A2953 RMK AO2 SNB1755 P0000 T00281033=
202302271800 SPECI KPAE 271800Z VRB05KT 3SM -SN OVC027 02/M04 A2952 RMK AO2 SNB1755 P0000 T00221039=
202302271753 METAR KPAE 271753Z VRB03KT 9SM OVC031 02/M04 A2953 RMK AO2 SLP003 T00221039 10028 20006 55015=
202302271653 METAR KPAE 271653Z 10010KT 10SM OVC070 02/M05 A2952 RMK AO2 SLP001 T00221050=
202302271553 METAR KPAE 271553Z 11008KT 10SM BKN085 OVC110 01/M04 A2954 RMK AO2 SLP008 T00111039=
202302271453 METAR KPAE 271453Z 11007KT 10SM CLR 01/M03 A2957 RMK AO2 SLP019 T00111033 56034=
202302271353 METAR KPAE 271353Z AUTO 10008KT 10SM CLR 01/M02 A2960 RMK AO2 SLP028 T00111022=
202302271253 METAR KPAE 271253Z AUTO 10007KT 10SM CLR 01/M02 A2964 RMK AO2 SLP041 T00111022=
202302271153 METAR KPAE 271153Z AUTO 10005KT 10SM FEW038 01/M02 A2967 RMK AO2 SLP053 70004 T00061017 10028 20006 58015=
202302271053 METAR KPAE 271053Z AUTO 10SM BKN045 01/M01 A2969 RMK AO2 SLP059 T00111011=
202302270953 METAR KPAE 270953Z AUTO 15008KT 10SM FEW012 SCT030 02/M01 A2972 RMK AO2 SLP066 T00171011=
202302270945 SPECI KPAE 270945Z AUTO 17007KT 10SM SCT012 BKN030 02/M01 A2972 RMK AO2 T00171011=
202302270925 SPECI KPAE 270925Z AUTO 15008KT 10SM BKN012 BKN017 02/M01 A2972 RMK AO2 T00221006=
202302270908 SPECI KPAE 270908Z AUTO 16009KT 10SM SCT011 SCT018 02/M01 A2972 RMK AO2 T00171011=
202302270853 METAR KPAE 270853Z AUTO 16009KT 10SM BKN011 02/M01 A2972 RMK AO2 SLP068 T00171006 51004=
202302270753 METAR KPAE 270753Z AUTO 15010KT 10SM OVC011 02/M01 A2972 RMK AO2 SLP068 T00221006 400720006=
202302270718 SPECI KPAE 270718Z AUTO 17010KT 10SM BKN013 OVC019 02/M01 A2972 RMK AO2 T00221011=
202302270653 METAR KPAE 270653Z AUTO 17009KT 10SM BKN015 OVC022 03/M01 A2971 RMK AO2 SLP067 T00281011=
202302270553 METAR KPAE 270553Z AUTO 17008G19KT 10SM BKN015 BKN022 OVC029 02/M01 A2971 RMK AO2 UPB16E19B28E31RAB19E28SNB31E32 SLP064 P0001 60001 T00221006 10039 20022 51007=
202302270524 SPECI KPAE 270524Z AUTO 19008KT 10SM -RA BKN015 BKN037 OVC044 03/M01 A2971 RMK AO2 UPB16E19RAB19 P0000 T00281006=
202302270500 SPECI KPAE 270500Z AUTO 21009KT 10SM FEW019 SCT024 BKN043 03/M01 A2971 RMK AO2 T00281011=
202302270453 METAR KPAE 270453Z AUTO 22010KT 10SM BKN028 BKN033 03/M01 A2970 RMK AO2 SLP063 T00281011=
202302270353 METAR KPAE 270353Z 18009KT 10SM BKN028 BKN033 03/M02 A2969 RMK AO2 SLP059 T00281017=
202302270253 METAR KPAE 270253Z 11005KT 10SM FEW024 02/M01 A2969 RMK AO2 SLP057 T00221011 51013=
202302270153 METAR KPAE 270153Z VRB03KT 10SM FEW035 BKN044 03/M01 A2968 RMK AO2 SLP054 T00281011=
202302270053 METAR KPAE 270053Z 12007KT 10SM SCT032 BKN044 BKN090 03/00 A2967 RMK AO2 SLP050 T00330000=
202302262353 METAR KPAE 262353Z 02004KT 10SM FEW023 OVC033 04/00 A2965 RMK AO2 RAB35E46 SLP043 P0000 60000 T00390000 10072 20017 53012=
202302262346 SPECI KPAE 262346Z 35005KT 10SM FEW013 SCT023 OVC033 03/M01 A2964 RMK AO2 RAB35E46 P0000 T00331006=
202302262253 METAR KPAE 262253Z 01011G19KT 10SM OVC022 04/M01 A2962 RMK AO2 SLP034 T00391011=
202302262153 METAR KPAE 262153Z 20007KT 10SM BKN026 BKN047 BKN055 07/00 A2961 RMK AO2 SLP031 T00670000=
202302262053 METAR KPAE 262053Z VRB04KT 10SM SCT006 BKN060 OVC090 06/00 A2960 RMK AO2 SLP029 T00560000 51021=
202302262000 SPECI KPAE 262000Z 17007KT 10SM SCT006 BKN060 OVC090 05/01 A2959 RMK AO2 T00500011=
202302261953 METAR KPAE 261953Z 15007KT 10SM BKN003 OVC055 05/02 A2959 RMK AO2 SLP025 T00500017=
202302261853 METAR KPAE 261853Z 14007KT 10SM BKN003 03/01 A2958 RMK AO2 SLP020 T00280006=
202302261800 SPECI KPAE 261800Z 09004KT 10SM BKN003 02/01 A2954 RMK AO2 T00220006=
202302261753 METAR KPAE 261753Z VRB03KT 10SM BKN008 02/01 A2954 RMK AO2 SLP007 60003 T00170006 10017 20006 53021=
202302261702 SPECI KPAE 261702Z 15006KT 10SM BKN008 02/00 A2952 RMK AO2 T00170000=
202302261700 SPECI KPAE 261700Z 14006KT 10SM SCT005 SCT120 02/00 A2952 RMK AO2 T00170000=
202302261653 METAR KPAE 261653Z 15008KT 10SM BKN008 02/00 A2951 RMK AO2 SLP997 T00170000=
202302261604 SPECI KPAE 261604Z 16006KT 10SM BKN010 OVC100 01/00 A2949 RMK AO2 T00110000=
202302261555 SPECI KPAE 261555Z 17005KT 10SM BKN008 OVC100 01/00 A2948 RMK AO2 CIG 005V012 T00110000=
202302261553 METAR KPAE 261553Z 17005KT 10SM BKN010 OVC100 01/00 A2948 RMK AO2 CIG 005V012 SLP986 T00110000=
202302261551 SPECI KPAE 261551Z 16006KT 10SM BKN010 OVC100 01/00 A2948 RMK AO2 CIG 006V012=
202302261453 METAR KPAE 261453Z 20009KT 10SM OVC008 01/00 A2947 RMK AO2 CIG 005V011 SLP982 60003 T00110000 53019=
202302261353 METAR KPAE 261353Z AUTO 19013KT 10SM OVC008 01/M01 A2943 RMK AO2 CIG 005V010 SLP971 P0002 T00111006=
202302261308 SPECI KPAE 261308Z AUTO 18011G21KT 10SM BKN008 OVC013 01/M01 A2941 RMK AO2 CIG 004V010 P0001 T00061006=
202302261253 METAR KPAE 261253Z AUTO 17007KT 7SM SCT007 BKN011 OVC018 01/M01 A2942 RMK AO2 SNE44 SLP965 P0001 T00061006=
202302261245 SPECI KPAE 261245Z AUTO 16006KT 5SM BR SCT005 BKN009 OVC018 01/M01 A2941 RMK AO2 SNE44 P0001 T00061006=
202302261231 SPECI KPAE 261231Z AUTO 17008KT 3SM -SN BR FEW003 BKN015 OVC020 01/M01 A2941 RMK AO2 P0001 T00061006=
202302261216 SPECI KPAE 261216Z AUTO 17009KT 2SM -SN BR SCT003 OVC018 01/M01 A2941 RMK AO2 P0001 T00061006=
202302261153 METAR KPAE 261153Z AUTO 17008KT 1 1/4SM -SN BR BKN003 OVC012 01/M01 A2941 RMK AO2 SLP962 P0001 60004 70004 T00061006 10044 20006 56026=
202302261053 METAR KPAE 261053Z AUTO 15012KT 1SM R16R/P6000FT -SN BR BKN004 OVC013 01/M01 A2942 RMK AO2 SLP966 P0001 T00061006=
202302261013 SPECI KPAE 261013Z AUTO 15014G21KT 1SM R16R/P6000FT -SN BR BKN004 OVC012 01/M01 A2945 RMK AO2 P0000 T00061011=
202302260953 METAR KPAE 260953Z AUTO 15014G23KT 1 1/4SM -SN BR BKN005 OVC014 01/M01 A2946 RMK AO2 PK WND 16030/0907 SLP981 P0001 T00061011=
202302260853 METAR KPAE 260853Z AUTO 17016G27KT 1 1/4SM -SN BR BKN008 OVC017 01/M01 A2949 RMK AO2 PK WND 18037/0817 SLP989 P0001 60001 T00061011 57024=
202302260835 SPECI KPAE 260835Z AUTO 17019G30KT 1 3/4SM -SN BR BKN008 OVC017 01/M01 A2950 RMK AO2 PK WND 18037/0817 P0001 T00111011=
202302260820 SPECI KPAE 260820Z AUTO 18020G37KT 1 3/4SM -SN BR FEW006 BKN011 OVC018 01/M01 A2951 RMK AO2 PK WND 18037/0817 P0001 T00111011=
202302260807 SPECI KPAE 260807Z AUTO 18025G34KT 2 1/2SM -SN BR FEW007 BKN012 OVC026 01/M01 A2952 RMK AO2 PK WND 18034/0807 P0000 T00111011=
202302260804 SPECI KPAE 260804Z AUTO 18021G33KT 3SM -SN SCT012 OVC026 02/M01 A2951 RMK AO2 PK WND 19031/0801 P0000 T00171011=
202302260753 METAR KPAE 260753Z AUTO 18019G30KT 5SM -SN BR SCT012 OVC030 02/M01 A2951 RMK AO2 PK WND 19033/0705 SNB01 SLP998 P0000 T00171006 400501044=
202302260727 SPECI KPAE 260727Z AUTO 18020G30KT 4SM -SN OVC030 02/M01 A2952 RMK AO2 PK WND 19033/0705 SNB01 P0000 T00171011=
202302260712 SPECI KPAE 260712Z AUTO 19023G33KT 3SM -SN OVC026 02/M02 A2953 RMK AO2 PK WND 19033/0705 SNB01 P0000 T00221017=
202302260653 METAR KPAE 260653Z AUTO 19021G34KT 8SM OVC032 03/M03 A2953 RMK AO2 PK WND 16034/0646 SLP005 T00331033=
202302260553 METAR KPAE 260553Z AUTO 18010KT 10SM OVC060 04/M05 A2956 RMK AO2 SLP014 T00441050 10050 20044 56026=
202302260453 METAR KPAE 260453Z 16010KT 10SM OVC070 04/M05 A2957 RMK AO2 SLP020 T00441050=
202302260353 METAR KPAE 260353Z 16009KT 10SM OVC080 04/M06 A2961 RMK AO2 SLP031 T00441061=
202302260253 METAR KPAE 260253Z 17008KT 10SM OVC070 04/M07 A2964 RMK AO2 SLP041 T00441067 56029=
202302260153 METAR KPAE 260153Z 15010KT 10SM OVC070 05/M08 A2965 RMK AO2 SLP046 T00501078=
202302260053 METAR KPAE 260053Z 15010KT 10SM OVC075 05/M08 A2969 RMK AO2 SLP059 T00501083=
202302252353 METAR KPAE 252353Z 15006KT 10SM OVC075 05/M08 A2973 RMK AO2 SLP072 T00501083 10050 20000 56046=
202302252253 METAR KPAE 252253Z 15009KT 10SM OVC080 05/M07 A2977 RMK AO2 SLP086 T00501072=
202302252153 METAR KPAE 252153Z 16005KT 10SM OVC085 04/M07 A2982 RMK AO2 SLP102 T00441067=
202302252053 METAR KPAE 252053Z 17007KT 10SM OVC085 04/M07 A2986 RMK AO2 SLP119 T00391067 58039=
202302251953 METAR KPAE 251953Z 17004KT 10SM BKN085 02/M08 A2991 RMK AO2 SLP134 T00221078=
202302251853 METAR KPAE 251853Z 17006KT 10SM OVC120 01/M09 A2995 RMK AO2 SLP147 T00061094=
202302251753 METAR KPAE 251753Z 16004KT 10SM SCT120 00/M09 A2998 RMK AO2 SLP159 T00001094 10000 21044 58015=
202302251653 METAR KPAE 251653Z 16003KT 10SM BKN100 M01/M09 A3001 RMK AO2 SLP169 T10111089=
202302251553 METAR KPAE 251553Z 14003KT 10SM CLR M03/M09 A3002 RMK AO2 SLP173 T10281094=
202302251453 METAR KPAE 251453Z 00000KT 10SM CLR M03/M09 A3003 RMK AO2 SLP174 T10281094 56015=
202302251353 METAR KPAE 251353Z AUTO 15004KT 10SM CLR M03/M09 A3003 RMK AO2 SLP177 T10331094=
202302251253 METAR KPAE 251253Z AUTO 00000KT 10SM CLR M03/M09 A3005 RMK AO2 SLP182 T10331094=
202302251153 METAR KPAE 251153Z AUTO 00000KT 10SM CLR M03/M10 A3007 RMK AO2 SLP189 T10331100 11011 21044 58007=
202302251053 METAR KPAE 251053Z AUTO 00000KT 10SM CLR M04/M10 A3008 RMK AO2 SLP192 T10391100=
202302250953 METAR KPAE 250953Z AUTO 00000KT 10SM CLR M03/M11 A3009 RMK AO2 SLP196 T10331111=
202302250853 METAR KPAE 250853Z AUTO 00000KT 10SM CLR M03/M10 A3009 RMK AO2 SLP197 T10331100 55009=
202302250753 METAR KPAE 250753Z AUTO 00000KT 10SM CLR M02/M10 A3008 RMK AO2 SLP194 T10221100 400171061=
202302250653 METAR KPAE 250653Z AUTO 02004KT 10SM BKN100 M02/M09 A3010 RMK AO2 SLP200 T10171094=
202302250553 METAR KPAE 250553Z AUTO 35004KT 10SM FEW100 M02/M09 A3012 RMK AO2 SLP206 T10171094 10017 21022 53007=
202302250453 METAR KPAE 250453Z AUTO 01005KT 10SM CLR M01/M09 A3011 RMK AO2 SLP201 T10111094=
202302250353 METAR KPAE 250353Z 36006KT 10SM CLR M01/M09 A3010 RMK AO2 SLP200 T10111089=
202302250253 METAR KPAE 250253Z 33005KT 10SM CLR M01/M10 A3010 RMK AO2 SLP199 T10111100 55001=
202302250153 METAR KPAE 250153Z 34006KT 10SM CLR M01/M09 A3008 RMK AO2 SLP194 T10061089=
202302250053 METAR KPAE 250053Z 33006KT 10SM CLR 01/M09 A3009 RMK AO2 SLP195 T00061094=
202302242353 METAR KPAE 242353Z VRB06KT 10SM CLR 01/M09 A3010 RMK AO2 SLP199 T00111089 10017 21017 56008=
202302242253 METAR KPAE 242253Z 34007KT 10SM CLR 01/M09 A3011 RMK AO2 SLP201 T00111094=
202302242153 METAR KPAE 242153Z 35007KT 10SM CLR 01/M11 A3011 RMK AO2 SLP202 T00111106=
202302242053 METAR KPAE 242053Z 02005KT 10SM CLR 01/M12 A3012 RMK AO2 SLP207 T00061117 58004=
202302241953 METAR KPAE 241953Z VRB05KT 10SM CLR 00/M12 A3013 RMK AO2 SLP211 T00001117=
202302241853 METAR KPAE 241853Z 01006KT 10SM CLR M01/M11 A3013 RMK AO2 SLP211 T10061106=
202302241753 METAR KPAE 241753Z 00000KT 10SM CLR M02/M13 A3013 RMK AO2 SLP212 T10171133 11017 21061 50005=
202302241653 METAR KPAE 241653Z 18003KT 10SM CLR M03/M12 A3014 RMK AO2 SLP213 T10281117=
202302241553 METAR KPAE 241553Z 00000KT 10SM CLR M04/M11 A3013 RMK AO2 SLP211 T10391111=
202302241453 METAR KPAE 241453Z 04003KT 10SM CLR M05/M12 A3012 RMK AO2 SLP207 T10501117 53019=
202302241353 METAR KPAE 241353Z AUTO 00000KT 10SM CLR M06/M11 A3010 RMK AO2 SLP199 T10561111=
202302241253 METAR KPAE 241253Z AUTO 00000KT 10SM CLR M04/M12 A3007 RMK AO2 SLP191 T10441117=
202302241153 METAR KPAE 241153Z AUTO 00000KT 10SM CLR M04/M12 A3006 RMK AO2 SLP187 T10441122 11028 21044 50005=
202302241053 METAR KPAE 241053Z AUTO 07003KT 10SM CLR M04/M13 A3007 RMK AO2 SLP190 T10391133=
202302240953 METAR KPAE 240953Z AUTO 08007KT 10SM CLR M03/M16 A3007 RMK AO2 SLP188 T10331156=
202302240853 METAR KPAE 240853Z AUTO 07007KT 10SM CLR M03/M16 A3005 RMK AO2 SLP182 T10331161 51023=
202302240753 METAR KPAE 240753Z AUTO 12006KT 10SM CLR M03/M16 A3003 RMK AO2 SLP175 T10331156 400171033=
202302240653 METAR KPAE 240653Z AUTO 10006KT 10SM CLR M03/M15 A3000 RMK AO2 SLP168 T10331150=
202302240553 METAR KPAE 240553Z AUTO 09009KT 10SM CLR M03/M15 A2998 RMK AO2 SLP159 T10281150 10011 21028 53025=
202302240453 METAR KPAE 240453Z AUTO 11008KT 10SM FEW050 M03/M15 A2995 RMK AO2 SLP149 T10281150=
202302240353 METAR KPAE 240353Z 10010KT 10SM SCT055 M02/M15 A2992 RMK AO2 SLP141 T10221150=
202302240253 METAR KPAE 240253Z 10010KT 10SM CLR M02/M14 A2990 RMK AO2 SLP134 T10171144 53025=
202302240153 METAR KPAE 240153Z 11007KT 10SM CLR M01/M14 A2988 RMK AO2 SLP123 T10061139=
202302240053 METAR KPAE 240053Z 11007KT 10SM CLR 01/M14 A2985 RMK AO2 SLP114 T00061139=
202302232353 METAR KPAE 232353Z AUTO 11008KT 10SM CLR 01/M14 A2983 RMK AO2 SLP107 T00111139 10017 21022 53012=
202302232253 METAR KPAE 232253Z 10009KT 10SM SCT070 01/M13 A2981 RMK AO2 SLP101 T00111133=
202302232153 METAR KPAE 232153Z 09010KT 10SM CLR 01/M14 A2980 RMK AO2 SLP097 T00061139=
202302232053 METAR KPAE 232053Z 11010G17KT 10SM CLR 01/M14 A2979 RMK AO2 SLP094 T00061139 51012=
202302231953 METAR KPAE 231953Z 10008KT 10SM OVC055 00/M14 A2978 RMK AO2 SLP091 T00001139=
202302231853 METAR KPAE 231853Z 10010KT 10SM OVC050 M01/M15 A2977 RMK AO2 SLP088 T10111150=
202302231753 METAR KPAE 231753Z 11011KT 10SM OVC043 M02/M15 A2975 RMK AO2 SLP082 60000 T10221150 11022 21028 51025=
202302231653 METAR KPAE 231653Z 10010G20KT 10SM OVC045 M03/M15 A2973 RMK AO2 SLP073 T10281150=
202302231553 METAR KPAE 231553Z 09011G18KT 10SM OVC048 M03/M15 A2971 RMK AO2 SLP066 T10281150=
202302231453 METAR KPAE 231453Z 09010G17KT 10SM OVC040 M03/M12 A2968 RMK AO2 SLP056 60000 T10281122 51011=
202302231353 METAR KPAE 231353Z AUTO 10009KT 10SM OVC040 M02/M14 A2967 RMK AO2 SLP054 T10221139=
202302231253 METAR KPAE 231253Z AUTO 10009KT 10SM BKN055 OVC100 M02/M14 A2966 RMK AO2 SNB23E32 SLP048 P0000 T10221139=
202302231153 METAR KPAE 231153Z AUTO 10009G16KT 10SM OVC048 M02/M13 A2965 RMK AO2 SLP046 70002 T10221133 10000 21022 53006=
202302231053 METAR KPAE 231053Z AUTO 10009KT 10SM OVC085 M02/M13 A2963 RMK AO2 SLP041 T10221133=
202302230953 METAR KPAE 230953Z AUTO 10010G17KT 10SM SCT075 OVC090 M02/M13 A2963 RMK AO2 SLP038 T10171133=
202302230853 METAR KPAE 230853Z AUTO 10007KT 10SM OVC080 M01/M12 A2963 RMK AO2 SLP039 T10111122 53006=
202302230753 METAR KPAE 230753Z AUTO 09006KT 10SM OVC065 M01/M11 A2962 RMK AO2 SLP035 T10061106 400221011=
202302230653 METAR KPAE 230653Z AUTO 00000KT 10SM OVC060 M01/M07 A2962 RMK AO2 SLP035 T10061072=
202302230553 METAR KPAE 230553Z AUTO 17005KT 10SM OVC060 00/M04 A2961 RMK AO2 SLP033 T00001039 10006 21006 53006=
202302230453 METAR KPAE 230453Z AUTO 11003KT 10SM OVC070 00/M05 A2960 RMK AO2 SLP030 T00001050=
202302230353 METAR KPAE 230353Z 02004KT 10SM SCT046 BKN060 OVC085 M01/M03 A2959 RMK AO2 SLP027 T10061033=
202302230253 METAR KPAE 230253Z 36006KT 10SM FEW009 BKN050 OVC100 M01/M03 A2959 RMK AO2 SLP027 T10061033 53005=
202302230153 METAR KPAE 230153Z AUTO 35007KT 10SM OVC050 M01/M03 A2959 RMK AO2 SLP024 T10061033=
202302230053 METAR KPAE 230053Z AUTO 35007KT 320V020 10SM FEW012 BKN080 OVC100 00/M04 A2958 RMK AO2 SLP021 T00001039=
202302222353 METAR KPAE 222353Z AUTO 01008KT 10SM FEW022 OVC100 01/M04 A2958 RMK AO2 SLP021 60002 T00061044 10011 21011 56006=
202302222300 SPECI KPAE 222300Z 35008KT 10SM FEW016 OVC085 01/M04 A2958 RMK AO2 T00111039=
202302222253 METAR KPAE 222253Z 36009KT 10SM FEW009 BKN011 01/M04 A2958 RMK AO2 SLP022 T00061039=
202302222153 METAR KPAE 222153Z 35009G15KT 10SM FEW009 BKN011 01/M03 A2958 RMK AO2 SLP023 T00111033=
202302222127 SPECI KPAE 222127Z 34007KT 10SM FEW009 BKN011 01/M03 A2959 RMK AO2 T00061028=
202302222053 METAR KPAE 222053Z 34008G16KT 10SM OVC009 00/M02 A2960 RMK AO2 SNE21 SLP027 P0000 60002 T00001022 50000=
202302221953 METAR KPAE 221953Z 32008KT 2 1/2SM -SN BR OVC009 M01/M03 A2961 RMK AO2 SLP030 P0001 T10061028=
202302221900 SPECI KPAE 221900Z 32008KT 2 1/2SM SN BR BKN005 BKN009 OVC024 M01/M03 A2960 RMK AO2 P0000 T10111028=
202302221853 METAR KPAE 221853Z 31009KT 3SM SN BR BKN006 BKN030 OVC049 M01/M03 A2960 RMK AO2 SLP029 P0001 T10111028=
202302221753 METAR KPAE 221753Z 33006KT 3SM SN BR BKN006 BKN030 OVC049 M01/M03 A2960 RMK AO2 SLP027 P0000 60000 T10111033 10017 21011 53009=
202302221743 SPECI KPAE 221743Z 32008KT 1 3/4SM -SN BR BKN006 OVC030 M01/M03 A2959 RMK AO2 CIG 004V012 P0000 T10111033=
202302221653 METAR KPAE 221653Z 34008KT 4SM -SN BR BKN005 BKN009 OVC031 M01/M03 A2958 RMK AO2 SLP023 P0000 T10111033=
202302221630 SPECI KPAE 221630Z 34009G17KT 5SM -SN BR BKN007 BKN014 OVC039 M01/M03 A2958 RMK AO2 P0000 T10111033=
202302221553 METAR KPAE 221553Z 33009G16KT 5SM -SN BR FEW013 SCT037 OVC048 M01/M03 A2957 RMK AO2 SLP020 P0000 T10111033=
202302221503 SPECI KPAE 221503Z 33008KT 2SM -SN FEW018 BKN029 OVC044 M01/M03 A2957 RMK AO2 P0000 T10061033=
202302221453 METAR KPAE 221453Z 33007KT 2SM SN SCT031 BKN045 OVC065 M01/M03 A2957 RMK AO2 SLP017 P0000 60000 T10061033 51011=
202302221450 SPECI KPAE 221450Z 32009KT 290V350 2SM SN FEW031 BKN043 OVC065 M01/M03 A2957 RMK AO2 P0000=
202302221429 SPECI KPAE 221429Z AUTO 33006KT 5SM -SN FEW017 BKN044 OVC070 M01/M03 A2956 RMK AO2 P0000 T10061033=
202302221353 METAR KPAE 221353Z AUTO 32005KT 7SM -SN FEW008 OVC015 00/M02 A2955 RMK AO2 SLP010 P0000 T00001022=
202302221330 SPECI KPAE 221330Z AUTO 33009KT 9SM -SN BKN008 OVC013 00/M02 A2954 RMK AO2 CIG 005V010 P0000 T00001022=
202302221253 METAR KPAE 221253Z AUTO 33008KT 7SM -SN OVC010 00/M02 A2953 RMK AO2 SNB38 CIG 006V012 SLP006 P0000 T00001017=
202302221251 SPECI KPAE 221251Z AUTO 32010KT 7SM -SN OVC010 00/M02 A2953 RMK AO2 SNB38 CIG 004V012 P0000=
202302221213 SPECI KPAE 221213Z AUTO 32006KT 10SM OVC005 01/M01 A2953 RMK AO2 CIG 002V009 T00111006=
202302221153 METAR KPAE 221153Z AUTO 33005KT 9SM OVC003 02/01 A2952 RMK AO2 CIG 002V006 SLP000 70013 T00220006 10028 20017 52003=
202302221131 SPECI KPAE 221131Z AUTO 01004KT 8SM OVC004 02/01 A2952 RMK AO2 CIG 002V008 T00220006=
202302221121 SPECI KPAE 221121Z AUTO 36004KT 10SM BKN005 OVC012 02/01 A2952 RMK AO2 CIG 003V008 T00220006=
202302221053 METAR KPAE 221053Z AUTO 04003KT 4SM R16R/5000VP6000FT BR OVC003 02/01 A2952 RMK AO2 SLP999 T00220011=
202302221050 SPECI KPAE 221050Z AUTO 00000KT 3SM R16R/5000VP6000FT BR OVC003 02/01 A2952 RMK AO2=
202302221048 SPECI KPAE 221048Z AUTO 01003KT 2 1/2SM R16R/5000VP6000FT BR OVC001 02/01 A2952 RMK AO2=
202302221040 SPECI KPAE 221040Z AUTO 02004KT 2 1/2SM BR BKN003 OVC029 02/01 A2952 RMK AO2 T00220006=
202302221031 SPECI KPAE 221031Z AUTO 01005KT 6SM BR BKN001 OVC028 02/01 A2952 RMK AO2 T00220006=
202302221022 SPECI KPAE 221022Z AUTO 02004KT 2 1/2SM R16R/4500VP6000FT BR BKN001 OVC028 02/01 A2952 RMK AO2 T00220006=
202302221015 SPECI KPAE 221015Z AUTO 36003KT 3SM R16R/5000VP6000FT BR SCT001 BKN027 OVC050 02/01 A2952 RMK AO2 T00220006=
202302221006 SPECI KPAE 221006Z AUTO 36003KT 5SM BR BKN027 OVC050 02/01 A2952 RMK AO2 T00220006=
202302220953 METAR KPAE 220953Z AUTO 00000KT 10SM FEW026 OVC050 02/01 A2951 RMK AO2 SLP997 T00220011=
202302220911 SPECI KPAE 220911Z AUTO 00000KT 10SM SCT027 OVC046 02/01 A2951 RMK AO2 T00220006=
202302220853 METAR KPAE 220853Z AUTO 00000KT 10SM BKN025 OVC046 02/01 A2951 RMK AO2 SLP996 T00220006 51002=
202302220831 SPECI KPAE 220831Z AUTO 00000KT 9SM BKN021 OVC029 02/01 A2951 RMK AO2 T00220006=
202302220753 METAR KPAE 220753Z AUTO 11005KT 8SM FEW028 BKN032 OVC047 02/01 A2951 RMK AO2 SLP996 T00170006 400670017=
202302220750 SPECI KPAE 220750Z AUTO 11005KT 8SM FEW026 BKN032 BKN047 02/01 A2951 RMK AO2=
202302220653 METAR KPAE 220653Z AUTO 10005KT 10SM BKN018 OVC030 02/01 A2950 RMK AO2 SLP994 T00220006=
202302220643 SPECI KPAE 220643Z AUTO 09004KT 10SM SCT017 BKN030 02/01 A2950 RMK AO2 T00220006=
202302220633 SPECI KPAE 220633Z AUTO 00000KT 10SM BKN028 02/01 A2950 RMK AO2 T00220011=
202302220621 SPECI KPAE 220621Z AUTO 00000KT 10SM SCT027 02/01 A2949 RMK AO2 T00220006=
202302220607 SPECI KPAE 220607Z AUTO 00000KT 10SM BKN027 OVC110 03/01 A2949 RMK AO2 T00280011=
202302220553 METAR KPAE 220553Z AUTO 15005KT 10SM SCT027 BKN060 OVC110 02/01 A2949 RMK AO2 SLP991 60009 T00220006 10050 20022 53003=
202302220453 METAR KPAE 220453Z 16007KT 10SM OVC050 03/01 A2949 RMK AO2 SLP990 T00280011=
202302220353 METAR KPAE 220353Z VRB04KT 10SM FEW023 OVC047 03/01 A2949 RMK AO2 SLP989 T00280006=
202302220307 SPECI KPAE 220307Z 00000KT 10SM SCT023 OVC044 03/01 A2949 RMK AO2 T00280006=
202302220253 METAR KPAE 220253Z VRB03KT 10SM BKN023 OVC055 03/01 A2949 RMK AO2 UPE24RAB02E12 SLP989 P0000 60009 T00280006 58000=
202302220153 METAR KPAE 220153Z 15005KT 10SM UP SCT009 OVC039 03/01 A2949 RMK AO2 RAB20E37UPB37SNE20 SLP990 P0003 T00280006=
202302220135 SPECI KPAE 220135Z 00000KT 10SM -RA SCT009 OVC039 03/00 A2949 RMK AO2 RAB20SNE20 P0003 T00280000=
202302220100 SPECI KPAE 220100Z 00000KT 3SM -SN BR OVC009 02/00 A2949 RMK AO2 P0001 T00220000=
202302220053 METAR KPAE 220053Z 00000KT 1 3/4SM -SN BR OVC006 02/01 A2949 RMK AO2 RAB23E52SNB52 SLP991 P0006 T00220006=
202302220033 SPECI KPAE 220033Z 33006KT 1 3/4SM RA BR OVC006 02/00 A2950 RMK AO2 RAB23 P0003 T00220000=
202302220028 SPECI KPAE 220028Z 33006G17KT 2SM RA BR FEW006 BKN010 OVC018 02/00 A2950 RMK AO2 RAB23 P0001 T00220000=
202302220026 SPECI KPAE 220026Z 33007G17KT 3SM -RA BKN008 OVC018 03/00 A2950 RMK AO2 RAB23 P0001 T00280000=
202302212353 METAR KPAE 212353Z VRB04KT 10SM BKN021 BKN028 05/01 A2949 RMK AO2 RAE03 SLP988 P0000 60004 T00500011 10067 20033 56008=
202302212253 METAR KPAE 212253Z 00000KT 6SM -RA FEW020 BKN030 OVC047 04/00 A2949 RMK AO2 RAB30 SLP989 P0001 T00440000=
202302212153 METAR KPAE 212153Z 16006KT 10SM OVC025 06/02 A2950 RMK AO2 SLP991 T00610017=
202302212142 SPECI KPAE 212142Z 00000KT 10SM BKN025 BKN029 06/01 A2950 RMK AO2 T00610006=
202302212053 METAR KPAE 212053Z 16008KT 10SM BKN050 BKN070 05/02 A2951 RMK AO2 RAB1954E31 SLP996 P0002 60003 T00500022 58018=
202302212035 SPECI KPAE 212035Z 18007KT 10SM SCT032 BKN048 OVC070 04/02 A2952 RMK AO2 RAB1954E31 P0002 T00390017=
202302211953 METAR KPAE 211953Z 22009G16KT 190V250 10SM FEW022 BKN029 OVC065 06/01 A2954 RMK AO2 SLP004 P0001 T00560006=
202302211853 METAR KPAE 211853Z 17007KT 10SM FEW048 OVC070 06/02 A2955 RMK AO2 RAB08E43 SLP007 P0000 T00560017=
202302211827 SPECI KPAE 211827Z 16007KT 9SM -RA BKN026 OVC037 04/01 A2956 RMK AO2 RAB08 P0000 T00440011=
202302211753 METAR KPAE 211753Z 16009KT 10SM BKN075 OVC100 04/01 A2957 RMK AO2 SLP015 60000 T00440006 10050 20033 56013=
202302211653 METAR KPAE 211653Z 16007KT 10SM SCT050 BKN090 BKN110 04/01 A2957 RMK AO2 SLP015 T00390011=
202302211553 METAR KPAE 211553Z 16008KT 10SM SCT038 BKN055 OVC070 04/01 A2958 RMK AO2 RAE19 SLP020 P0000 T00390011=
202302211453 METAR KPAE 211453Z 18009KT 10SM -RA OVC042 04/01 A2960 RMK AO2 RAB40 SLP027 P0000 60000 T00390006 58017=
202302211353 METAR KPAE 211353Z AUTO 16011KT 10SM OVC048 04/01 A2962 RMK AO2 RAB35E44 SLP034 P0000 T00390011=
202302211253 METAR KPAE 211253Z AUTO 15011KT 10SM BKN050 OVC075 04/01 A2964 RMK AO2 SLP039 T00440011=
202302211153 METAR KPAE 211153Z AUTO VRB05KT 10SM FEW040 SCT070 OVC090 05/01 A2965 RMK AO2 SLP044 70029 T00500011 10072 20050 58012=
202302211053 METAR KPAE 211053Z AUTO VRB03G14KT 10SM SCT042 SCT050 OVC100 06/01 A2967 RMK AO2 SLP050 T00560006=
202302210953 METAR KPAE 210953Z AUTO 27012G19KT 10SM BKN075 BKN100 06/00 A2969 RMK AO2 SLP057 T00610000=
202302210853 METAR KPAE 210853Z AUTO 25005KT 10SM FEW110 06/M01 A2969 RMK AO2 SLP057 T00611006 55000=
202302210753 METAR KPAE 210753Z AUTO 29008G14KT 230V330 10SM CLR 06/M01 A2968 RMK AO2 SLP052 T00611011 400830061=
202302210653 METAR KPAE 210653Z AUTO 27012G27KT 10SM FEW036 FEW045 06/01 A2966 RMK AO2 PK WND 32028/0620 SLP046 T00610006=
202302210617 SPECI KPAE 210617Z AUTO 32008G24KT 10SM OVC032 07/02 A2968 RMK AO2 T00670017=
202302210553 METAR KPAE 210553Z AUTO 10SM SCT011 BKN018 OVC028 07/04 A2969 RMK AO2 RAB33E44 SLP057 P0000 60000 T00670039 10083 20067 55023=
202302210453 METAR KPAE 210453Z AUTO 21012G23KT 10SM OVC010 08/06 A2969 RMK AO2 PK WND 20032/0402 SLP055 T00780056=
202302210353 METAR KPAE 210353Z 20019G31KT 10SM OVC010 08/06 A2970 RMK AO2 PK WND 19034/0302 CIG 010V014 SLP061 T00780056=
202302210253 METAR KPAE 210253Z 20023G32KT 10SM OVC012 08/05 A2976 RMK AO2 PK WND 20041/0200 SLP081 T00780050 56049=
202302210153 METAR KPAE 210153Z 19023G44KT 10SM OVC012 08/05 A2980 RMK AO2 PK WND 18044/0145 SLP093 T00780050=
202302210053 METAR KPAE 210053Z 19029G45KT 10SM OVC011 08/06 A2985 RMK AO2 PK WND 20045/0053 SLP109 T00830056=
202302202353 METAR KPAE 202353Z 18022G35KT 10SM OVC011 08/05 A2991 RMK AO2 PK WND 19038/2258 SLP131 60005 T00780050 10083 20072 57052=
202302202253 METAR KPAE 202253Z 19026G34KT 10SM BKN014 OVC020 08/05 A2996 RMK AO2 PK WND 19034/2253 SLP147 T00780050=
202302202153 METAR KPAE 202153Z 19018G29KT 10SM OVC014 08/06 A3002 RMK AO2 PK WND 17029/2144 RAE33 SLP168 P0001 T00830056=
202302202053 METAR KPAE 202053Z 18020G27KT 10SM -RA OVC014 08/06 A3007 RMK AO2 PK WND 18029/2041 RAE21B48 SLP184 P0000 60004 T00830056 56019=
202302201953 METAR KPAE 201953Z 19017G26KT 10SM -RA BKN008 OVC013 08/06 A3009 RMK AO2 PK WND 18026/1945 RAE23B50 SLP191 P0000 T00780056=
202302201853 METAR KPAE 201853Z 17013G19KT 10SM -RA BKN007 OVC017 08/06 A3010 RMK AO2 SLP196 P0004 T00780061=
202302201800 SPECI KPAE 201800Z 17011KT 5SM -RA BR OVC007 07/06 A3013 RMK AO2 P0000 T00720056=
202302201753 METAR KPAE 201753Z 18010KT 5SM -RA BR OVC004 07/06 A3012 RMK AO2 SLP203 P0004 60024 T00720061 10072 20072 58013=
202302201653 METAR KPAE 201653Z 16007KT 8SM -RA OVC004 07/06 A3015 RMK AO2 SLP212 P0003 T00720061=
202302201553 METAR KPAE 201553Z 15006KT 6SM -RA BR OVC005 07/06 A3017 RMK AO2 SLP219 P0004 T00720056=
202302201453 METAR KPAE 201453Z 16006KT 10SM -RA BKN008 07/06 A3016 RMK AO2 SLP217 P0005 60013 T00720056 58002=
202302201448 SPECI KPAE 201448Z 16006KT 10SM -RA BKN008 OVC014 07/06 A3016 RMK AO2 P0005=
202302201438 SPECI KPAE 201438Z AUTO 16007KT 8SM -RA BKN010 OVC014 07/06 A3017 RMK AO2 P0005 T00720056=
202302201353 METAR KPAE 201353Z AUTO 17005KT 8SM -RA BKN005 OVC010 07/06 A3017 RMK AO2 SLP219 P0002 T00720056=
202302201308 SPECI KPAE 201308Z AUTO 16007KT 8SM -RA BKN005 BKN010 OVC041 07/06 A3017 RMK AO2 P0000 T00720056=
202302201253 METAR KPAE 201253Z AUTO 15008KT 9SM -RA FEW004 SCT029 OVC039 07/06 A3017 RMK AO2 SLP218 P0006 T00720056=
202302201204 SPECI KPAE 201204Z AUTO 15009KT 5SM -RA BR FEW005 SCT026 OVC037 07/06 A3018 RMK AO2 P0001 T00720056=
202302201153 METAR KPAE 201153Z AUTO 15008KT 5SM -RA BR FEW005 BKN027 OVC040 07/06 A3019 RMK AO2 RAB1058 SLP225 P0006 60008 70024 T00720056 10072 20072 58004=
202302201127 SPECI KPAE 201127Z AUTO 16005KT 4SM -RA BR SCT004 OVC022 07/06 A3019 RMK AO2 RAB1058 P0003 T00720056=
202302201053 METAR KPAE 201053Z AUTO 17006KT 10SM OVC005 07/06 A3020 RMK AO2 RAE12 SLP228 P0001 T00720056=
202302201031 SPECI KPAE 201031Z AUTO 17006KT 10SM BKN005 OVC027 07/06 A3019 RMK AO2 RAE12 P0000 T00720056=
202302200953 METAR KPAE 200953Z AUTO 18007KT 9SM -RA FEW005 SCT011 OVC024 07/06 A3020 RMK AO2 RAB0859 SLP228 P0001 T00720056=
202302200941 SPECI KPAE 200941Z AUTO 17005KT 7SM -RA FEW006 SCT011 OVC026 07/06 A3020 RMK AO2 RAB0859 P0001 T00720056=
202302200929 SPECI KPAE 200929Z AUTO 18006KT 8SM -RA FEW006 BKN012 OVC034 07/06 A3020 RMK AO2 RAB0859 P0000 T00720056=
202302200853 METAR KPAE 200853Z AUTO 17005KT 10SM BKN013 BKN029 OVC034 07/06 A3020 RMK AO2 SLP229 T00720056 55002=
202302200753 METAR KPAE 200753Z AUTO 16006KT 10SM FEW008 OVC014 07/06 A3019 RMK AO2 SLP227 T00720056 400720028=
202302200720 SPECI KPAE 200720Z AUTO 15007KT 10SM FEW009 BKN013 OVC033 07/06 A3019 RMK AO2 T00720056=
202302200703 SPECI KPAE 200703Z AUTO 17004KT 10SM BKN011 OVC017 07/06 A3019 RMK AO2 T00720056=
202302200653 METAR KPAE 200653Z AUTO 15004KT 10SM BKN009 BKN017 OVC028 07/06 A3018 RMK AO2 SLP224 T00720056=
202302200638 SPECI KPAE 200638Z AUTO 15007KT 10SM FEW009 BKN015 OVC031 07/06 A3020 RMK AO2 T00720056=
202302200610 SPECI KPAE 200610Z AUTO VRB03KT 10SM SCT007 BKN014 OVC024 07/06 A3020 RMK AO2 T00720056=
202302200553 METAR KPAE 200553Z AUTO 00000KT 10SM BKN007 OVC013 07/06 A3021 RMK AO2 SLP232 60010 T00720056 10072 20061 53006=
202302200500 SPECI KPAE 200500Z AUTO VRB04KT 5SM BR OVC005 07/06 A3020 RMK AO2 T00720061=
202302200453 METAR KPAE 200453Z 16004KT 1 1/2SM BR OVC007 07/06 A3020 RMK AO2 RAE50 SLP228 P0001 T00720061=
202302200353 METAR KPAE 200353Z 15005KT 1 1/2SM -RA BR OVC008 07/06 A3019 RMK AO2 CIG 005V011 SLP225 P0004 T00670056=
202302200256 SPECI KPAE 200256Z 10006KT 1SM R16R/P6000FT -RA BR SCT004 OVC008 07/06 A3019 RMK AO2 P0000 T00670056=
202302200253 METAR KPAE 200253Z 10005KT 1SM R16R/P6000FT -RA BR BKN004 BKN008 OVC017 07/06 A3019 RMK AO2 CIG 002V007 SLP225 P0002 60005 T00670056 55004=
202302200251 SPECI KPAE 200251Z 10004KT 1SM R16R/P6000FT -RA BR SCT004 BKN008 OVC021 07/06 A3019 RMK AO2 CIG 005V012 P0002=
202302200153 METAR KPAE 200153Z 15005KT 2SM -RA BR BKN004 OVC040 07/06 A3018 RMK AO2 RAE07B46 SLP223 P0001 T00670056=
202302200053 METAR KPAE 200053Z 15005KT 6SM -RA BR BKN004 OVC042 07/05 A3018 RMK AO2 SLP224 P0002 T00670050=
202302200016 SPECI KPAE 200016Z 16005KT 3SM -RA BR BKN004 OVC033 07/05 A3020 RMK AO2 P0001 T00670050=
202302200001 SPECI KPAE 200001Z AUTO 15008KT 2 1/2SM -RA BR BKN005 OVC035 07/05 A3020 RMK AO2 P0000 T00670050=
202302192353 METAR KPAE 192353Z AUTO 15007KT 3SM -RA BR BKN006 OVC033 07/05 A3020 RMK AO2 SLP229 P0001 60002 T00670050 10072 20056 56011=
202302192253 METAR KPAE 192253Z 17007KT 8SM -RA BKN009 OVC033 07/05 A3021 RMK AO2 RAB41 SLP233 P0000 T00670050=
202302192153 METAR KPAE 192153Z 17007KT 5SM HZ BKN009 07/04 A3022 RMK AO2 RAB33E43 SLP235 P0000 T00720044=
202302192053 METAR KPAE 192053Z 18010KT 3SM BR BKN007 BKN022 OVC030 07/04 A3023 RMK AO2 CIG 005V015 SLP242 60001 T00670044 55003=
202302192000 SPECI KPAE 192000Z 17010G17KT 2SM BR BKN007 OVC032 07/05 A3022 RMK AO2 T00670050=
202302191953 METAR KPAE 191953Z 18011KT 3SM BR OVC007 06/05 A3022 RMK AO2 RAB22E39 CIG 004V012 SLP237 P0000 T00610050=
202302191908 SPECI KPAE 191908Z 20005KT 3SM BR BKN007 OVC023 06/04 A3024 RMK AO2 T00610044=
202302191900 SPECI KPAE 191900Z 17009KT 2 1/2SM BR BKN007 BKN025 OVC034 06/05 A3024 RMK AO2 T00610050=
202302191853 METAR KPAE 191853Z 17008KT 3SM BR BKN007 BKN025 OVC034 06/04 A3024 RMK AO2 RAB12E52 SLP243 P0001 T00610044=
202302191845 SPECI KPAE 191845Z 16007KT 3SM -RA BR BKN005 BKN026 OVC033 06/04 A3025 RMK AO2 RAB12 P0001 T00610044=
202302191757 SPECI KPAE 191757Z 16007KT 3SM BR OVC003 06/04 A3024 RMK AO2 T00560044=
202302191753 METAR KPAE 191753Z 16007KT 1SM R16R/P6000FT BR BKN003 06/04 A3024 RMK AO2 RAE14B30E41 SLP245 P0001 60004 T00560039 10056 20044 50005=
202302191653 METAR KPAE 191653Z 16007KT 1SM R16R/P6000FT -RA BR BKN003 05/04 A3025 RMK AO2 SLP247 P0001 T00500039=
202302191553 METAR KPAE 191553Z VRB04KT 1SM R16R/P6000FT -RA BR OVC002 05/04 A3024 RMK AO2 RAB03 SLP245 P0001 T00500039=
202302191507 SPECI KPAE 191507Z 15009KT 1SM R16R/P6000FT -RA BR OVC002 05/03 A3023 RMK AO2 RAB03 P0000 T00500033=
202302191453 METAR KPAE 191453Z 16007KT 6SM BR OVC002 05/03 A3023 RMK AO2 RAB33E50 SLP240 P0000 60001 T00500033 58002=
202302191400 SPECI KPAE 191400Z AUTO 16006KT 5SM BR BKN003 BKN016 OVC055 05/04 A3024 RMK AO2 T00500039=
202302191353 METAR KPAE 191353Z AUTO 16006KT 6SM BR SCT003 BKN016 OVC075 05/03 A3024 RMK AO2 RAE03 SLP243 P0000 T00500033=
202302191343 SPECI KPAE 191343Z AUTO 16004KT 7SM FEW003 SCT055 OVC075 05/03 A3024 RMK AO2 RAE03 P0000 T00500033=
202302191253 METAR KPAE 191253Z AUTO 15005KT 10SM -RA FEW039 SCT060 OVC075 05/03 A3024 RMK AO2 SLP243 P0001 T00500028=
202302191153 METAR KPAE 191153Z AUTO 17004KT 10SM -RA SCT060 OVC090 05/02 A3023 RMK AO2 SLP241 P0002 60002 70007 T00500022 10050 20028 50002=
202302191133 SPECI KPAE 191133Z AUTO 18005KT 9SM -RA SCT028 SCT038 OVC060 04/03 A3023 RMK AO2 P0001 T00440028=
202302191100 SPECI KPAE 191100Z AUTO 22003KT 10SM -RA BKN029 BKN034 OVC043 05/03 A3025 RMK AO2 P0000 T00500028=
202302191053 METAR KPAE 191053Z AUTO 21003KT 10SM -RA SCT029 BKN035 OVC043 04/03 A3024 RMK AO2 RAB52 SLP245 P0000 T00440028=
202302190953 METAR KPAE 190953Z AUTO 19004KT 10SM OVC033 04/03 A3024 RMK AO2 SLP246 T00440028=
202302190853 METAR KPAE 190853Z AUTO 17003KT 10SM BKN039 OVC050 03/01 A3023 RMK AO2 SLP240 T00330011 53004=
202302190753 METAR KPAE 190753Z AUTO 00000KT 10SM OVC032 04/02 A3023 RMK AO2 SLP240 T00390017 400720028=
202302190653 METAR KPAE 190653Z AUTO 15003KT 10SM CLR 04/01 A3021 RMK AO2 SLP233 T00440011=
202302190553 METAR KPAE 190553Z AUTO VRB03KT 10SM CLR 05/01 A3022 RMK AO2 SLP236 T00500011 10067 20044 51015=
202302190453 METAR KPAE 190453Z 01004KT 10SM OVC043 05/02 A3020 RMK AO2 SLP232 T00500022=
202302190353 METAR KPAE 190353Z 01005KT 10SM SCT046 06/02 A3019 RMK AO2 SLP227 T00560022=
202302190253 METAR KPAE 190253Z 02006KT 10SM OVC047 06/03 A3017 RMK AO2 SLP221 T00610033 51017=
202302190153 METAR KPAE 190153Z 35005KT 10SM SCT006 BKN045 OVC049 06/04 A3016 RMK AO2 SLP216 T00610044=
202302190053 METAR KPAE 190053Z 34007KT 10SM BKN008 BKN049 OVC060 06/04 A3014 RMK AO2 SLP210 T00610044=
202302182353 METAR KPAE 182353Z 34004KT 10SM BKN008 07/05 A3012 RMK AO2 SLP204 60005 T00670050 10072 20050 51011=
202302182253 METAR KPAE 182253Z 27004KT 10SM BKN006 OVC023 07/05 A3011 RMK AO2 RAE47 SLP199 P0001 T00670050=
202302182153 METAR KPAE 182153Z 23005KT 4SM -RA BR BKN004 07/05 A3010 RMK AO2 RAB2056 SLP197 P0003 T00670050=
202302182118 SPECI KPAE 182118Z 23006KT 3SM -RA BR BKN004 07/05 A3009 RMK AO2 RAB2056 P0002 T00670050=
202302182053 METAR KPAE 182053Z 21007KT 10SM OVC008 07/05 A3009 RMK AO2 RAE14 CIG 005V011 SLP192 P0000 60001 T00670050 58004=
202302182000 SPECI KPAE 182000Z 19005KT 10SM -RA OVC009 06/04 A3010 RMK AO2 CIG 005V013 P0000 T00610044=
202302181953 METAR KPAE 181953Z 19008KT 10SM -RA OVC070 06/04 A3009 RMK AO2 SLP195 P0001 T00610044=
202302181940 SPECI KPAE 181940Z 19008KT 10SM -RA OVC070 06/04 A3009 RMK AO2 P0001 T00610044=
202302181853 METAR KPAE 181853Z 18009KT 10SM -RA OVC007 06/04 A3010 RMK AO2 RAB53 SLP197 P0000 T00560039=
202302181753 METAR KPAE 181753Z 17008KT 10SM OVC007 05/03 A3010 RMK AO2 SLP197 T00500033 10050 20044 53004=
202302181653 METAR KPAE 181653Z 16008KT 10SM OVC008 05/03 A3009 RMK AO2 SLP194 T00500028=
202302181553 METAR KPAE 181553Z 17006KT 10SM OVC008 05/03 A3009 RMK AO2 SLP193 T00500028=
202302181453 METAR KPAE 181453Z 17007KT 10SM OVC008 05/03 A3009 RMK AO2 SLP193 T00500028 56011=
202302181405 SPECI KPAE 181405Z AUTO 17006KT 10SM BKN008 OVC013 05/03 A3010 RMK AO2 T00500028=
202302181353 METAR KPAE 181353Z AUTO 16009KT 10SM BKN010 OVC014 04/03 A3009 RMK AO2 CIG 007V013 SLP193 T00440028=
202302181319 SPECI KPAE 181319Z AUTO 17006KT 10SM BKN010 OVC015 04/03 A3010 RMK AO2 CIG 007V013 T00440028=
202302181303 SPECI KPAE 181303Z AUTO 17009KT 10SM SCT008 OVC016 04/03 A3010 RMK AO2 T00440028=
202302181253 METAR KPAE 181253Z AUTO 17006KT 10SM BKN010 OVC016 04/03 A3010 RMK AO2 SLP198 T00440028=
202302181235 SPECI KPAE 181235Z AUTO 16008KT 10SM BKN016 OVC060 04/03 A3011 RMK AO2 T00440028=
202302181201 SPECI KPAE 181201Z AUTO 16009KT 10SM SCT013 OVC055 04/02 A3012 RMK AO2 T00440022=
202302181153 METAR KPAE 181153Z AUTO 16010KT 10SM BKN013 OVC055 04/02 A3012 RMK AO2 SLP204 70010 T00440022 10050 20044 58011=
202302181146 SPECI KPAE 181146Z AUTO 16007KT 10SM FEW008 OVC013 04/03 A3012 RMK AO2 T00440028=
202302181132 SPECI KPAE 181132Z AUTO 16006KT 10SM BKN013 OVC060 04/03 A3013 RMK AO2 T00440028=
202302181102 SPECI KPAE 181102Z AUTO 16009KT 10SM FEW007 SCT013 OVC060 04/03 A3014 RMK AO2 T00440028=
202302181053 METAR KPAE 181053Z AUTO 16009KT 10SM FEW007 BKN013 OVC060 04/03 A3014 RMK AO2 SLP211 T00440028=
202302181049 SPECI KPAE 181049Z AUTO 16009KT 10SM SCT007 BKN013 OVC060 04/03 A3015 RMK AO2=
202302181032 SPECI KPAE 181032Z AUTO 16007KT 10SM BKN007 OVC013 04/03 A3015 RMK AO2 CIG 006V012 T00440028=
202302180953 METAR KPAE 180953Z AUTO 16006KT 10SM OVC011 05/03 A3015 RMK AO2 SLP214 T00500033=
202302180939 SPECI KPAE 180939Z AUTO 16007KT 10SM OVC010 05/03 A3016 RMK AO2 CIG 006V012 T00500028=
202302180907 SPECI KPAE 180907Z AUTO 16007KT 10SM BKN007 OVC019 05/03 A3018 RMK AO2 T00500033=
202302180853 METAR KPAE 180853Z AUTO 16007KT 10SM FEW005 OVC020 05/03 A3018 RMK AO2 SLP223 T00500033 55009=
202302180753 METAR KPAE 180753Z AUTO 15006KT 10SM FEW007 OVC019 04/03 A3018 RMK AO2 SLP223 T00440028 400720039=
202302180733 SPECI KPAE 180733Z AUTO VRB03KT 10SM SCT007 BKN018 OVC070 04/03 A3018 RMK AO2 T00440028=
202302180724 SPECI KPAE 180724Z AUTO VRB03KT 10SM SCT007 SCT018 OVC070 04/03 A3018 RMK AO2 T00440028=
202302180653 METAR KPAE 180653Z AUTO 14003KT 10SM BKN075 OVC085 04/03 A3018 RMK AO2 SLP224 T00440028=
202302180614 SPECI KPAE 180614Z AUTO VRB03KT 10SM SCT019 SCT055 OVC070 05/03 A3019 RMK AO2 T00500028=
202302180553 METAR KPAE 180553Z AUTO 00000KT 10SM OVC020 05/03 A3021 RMK AO2 SLP233 60004 T00500028 10067 20050 51003=
202302180453 METAR KPAE 180453Z VRB03KT 10SM BKN024 OVC031 05/03 A3020 RMK AO2 RAE33 SLP230 P0002 T00500033=
202302180438 SPECI KPAE 180438Z 15005KT 10SM BKN026 OVC037 06/03 A3021 RMK AO2 RAE33 P0002 T00560028=
202302180353 METAR KPAE 180353Z 00000KT 10SM -RA OVC032 05/02 A3021 RMK AO2 RAB42 SLP234 P0000 T00500022=
202302180253 METAR KPAE 180253Z 11004KT 10SM OVC045 05/02 A3020 RMK AO2 SLP230 60002 T00500022 58013=
202302180153 METAR KPAE 180153Z 00000KT 10SM OVC055 06/02 A3022 RMK AO2 RAE00 SLP238 P0000 T00560022=
202302180053 METAR KPAE 180053Z VRB03KT 10SM -RA BKN016 BKN033 OVC043 06/02 A3023 RMK AO2 RAB16 SLP240 P0002 T00610017=
202302180019 SPECI KPAE 180019Z 00000KT 7SM -RA BKN016 BKN033 OVC043 06/02 A3023 RMK AO2 RAB16 P0001 T00610017=
202302172356 SPECI KPAE 172356Z 00000KT 10SM BKN033 OVC043 07/01 A3024 RMK AO2 T00670011=
202302172353 METAR KPAE 172353Z 11003KT 10SM FEW005 BKN016 07/02 A3024 RMK AO2 SLP242 T00670017 10072 20044 58004=
202302172253 METAR KPAE 172253Z 00000KT 10SM FEW005 BKN016 07/02 A3024 RMK AO2 SLP243 T00670017=
202302172153 METAR KPAE 172153Z 00000KT 10SM SCT005 BKN014 OVC032 07/03 A3025 RMK AO2 SLP247 T00670028=
202302172106 SPECI KPAE 172106Z 09003KT 10SM SCT005 BKN014 OVC032 06/03 A3025 RMK AO2 T00610028=
202302172100 SPECI KPAE 172100Z 07003KT 10SM BKN014 OVC032 06/03 A3025 RMK AO2 T00610028=
202302172053 METAR KPAE 172053Z VRB04KT 10SM BKN005 BKN021 OVC041 06/03 A3025 RMK AO2 SLP246 T00610028 55003=
202302171953 METAR KPAE 171953Z 09005KT 10SM BKN005 BKN021 OVC041 06/03 A3025 RMK AO2 SLP245 T00560033=
202302171853 METAR KPAE 171853Z 00000KT 10SM BKN005 BKN025 OVC041 06/03 A3026 RMK AO2 SLP249 T00560033=
202302171815 SPECI KPAE 171815Z 16003KT 10SM BKN005 BKN025 OVC041 05/03 A3025 RMK AO2 T00500033=
202302171800 SPECI KPAE 171800Z 14003KT 8SM FEW005 BKN025 OVC041 04/03 A3025 RMK AO2 T00440033=
202302171753 METAR KPAE 171753Z 00000KT 2SM BR BKN002 OVC012 04/03 A3026 RMK AO2 SLP250 60006 T00440033 10050 20039 52015=
202302171653 METAR KPAE 171653Z 15005KT 2SM BR BKN002 BKN009 OVC014 04/02 A3025 RMK AO2 SLP247 T00440022=
202302171553 METAR KPAE 171553Z 00000KT 2SM BR BKN002 BKN009 OVC012 04/03 A3022 RMK AO2 RAE42 SLP238 VIS W NW P0001 T00440033=
202302171515 SPECI KPAE 171515Z 17003KT 2SM -RA BR BKN002 OVC012 04/03 A3021 RMK AO2 VIS W NW P0001 T00440028=
202302171453 METAR KPAE 171453Z 20003KT 8SM -RA BKN014 OVC025 04/03 A3021 RMK AO2 SLP235 P0004 60005 T00440028 51003=
202302171445 SPECI KPAE 171445Z 22003KT 7SM -RA BKN016 OVC025 04/03 A3022 RMK AO2 P0004 T00440028=
202302171353 METAR KPAE 171353Z AUTO 21003KT 9SM -RA OVC010 04/03 A3021 RMK AO2 SLP235 P0001 T00440028=
202302171309 SPECI KPAE 171309Z AUTO 24004KT 10SM -RA OVC010 04/02 A3021 RMK AO2 P0000 T00440022=
202302171253 METAR KPAE 171253Z AUTO 25004KT 10SM -RA OVC009 05/03 A3021 RMK AO2 RAB19 SLP231 P0000 T00500028=
202302171235 SPECI KPAE 171235Z AUTO 23004KT 10SM -RA BKN009 OVC017 05/03 A3021 RMK AO2 RAB19 CIG 009V013 P0000 T00500028=
202302171153 METAR KPAE 171153Z AUTO 22006KT 10SM SCT012 OVC019 05/03 A3020 RMK AO2 SLP230 T00500028 10067 20050 50003=
202302171117 SPECI KPAE 171117Z AUTO 22010KT 10SM BKN014 OVC018 06/02 A3020 RMK AO2 T00560022=
202302171053 METAR KPAE 171053Z AUTO 18007KT 10SM OVC020 06/01 A3020 RMK AO2 SLP230 T00560006=
202302170953 METAR KPAE 170953Z AUTO 15007KT 10SM OVC024 06/01 A3019 RMK AO2 SLP228 T00610006=
202302170853 METAR KPAE 170853Z AUTO 15008KT 10SM OVC025 06/00 A3019 RMK AO2 SLP226 T00610000 53008=
202302170753 METAR KPAE 170753Z AUTO 15005KT 10SM OVC028 06/00 A3018 RMK AO2 SLP222 T00610000 400780022=
202302170653 METAR KPAE 170653Z AUTO 15007KT 10SM OVC033 06/00 A3017 RMK AO2 SLP221 T00610000=
202302170553 METAR KPAE 170553Z AUTO 16010KT 10SM OVC035 07/M01 A3017 RMK AO2 SLP219 60000 T00671006 10072 20061 53001=
202302170453 METAR KPAE 170453Z AUTO 15010KT 10SM BKN050 OVC070 06/M01 A3016 RMK AO2 RAE0359 SLP217 P0000 T00611011=
202302170353 METAR KPAE 170353Z 16010KT 10SM -RA OVC051 07/M01 A3016 RMK AO2 RAB48 SLP218 P0000 T00671006=
202302170253 METAR KPAE 170253Z 17010KT 10SM FEW040 OVC055 07/M01 A3016 RMK AO2 RAB40E50 SLP218 P0000 60000 T00671006 51007=
202302170153 METAR KPAE 170153Z 16010G17KT 10SM OVC065 07/M02 A3016 RMK AO2 SLP215 T00671017=
202302170053 METAR KPAE 170053Z 16009KT 10SM BKN055 OVC070 07/M02 A3016 RMK AO2 SLP216 T00721022=
202302162353 METAR KPAE 162353Z 16012G21KT 10SM OVC090 07/M02 A3014 RMK AO2 SLP211 T00721022 10078 20044 55003=
202302162253 METAR KPAE 162253Z 16012KT 10SM OVC075 07/M03 A3014 RMK AO2 SLP210 T00721028=
202302162153 METAR KPAE 162153Z 16009KT 10SM OVC080 07/M03 A3015 RMK AO2 SLP212 T00721028=
202302162053 METAR KPAE 162053Z 18008KT 10SM OVC080 07/M03 A3015 RMK AO2 SLP214 T00721028 58007=
202302161953 METAR KPAE 161953Z 16008KT 10SM OVC090 07/M02 A3016 RMK AO2 SLP218 T00671022=
202302161853 METAR KPAE 161853Z 18007KT 10SM OVC100 06/M02 A3017 RMK AO2 SLP222 T00561017=
202302161753 METAR KPAE 161753Z 16005KT 10SM OVC100 04/M02 A3017 RMK AO2 SLP222 T00441022 10044 20028 53006=
202302161653 METAR KPAE 161653Z 15005KT 10SM OVC100 03/M03 A3017 RMK AO2 SLP221 T00331028=
202302161553 METAR KPAE 161553Z VRB03KT 10SM OVC110 03/M04 A3016 RMK AO2 SLP217 T00281039=
202302161453 METAR KPAE 161453Z VRB03KT 10SM OVC110 03/M04 A3015 RMK AO2 SLP215 T00331039 56008=
202302161353 METAR KPAE 161353Z AUTO VRB04KT 10SM BKN110 03/M04 A3016 RMK AO2 SLP219 T00331039=
202302161253 METAR KPAE 161253Z AUTO 14005KT 10SM SCT110 03/M04 A3017 RMK AO2 SLP220 T00331039=
202302161153 METAR KPAE 161153Z AUTO VRB03KT 10SM FEW120 03/M03 A3018 RMK AO2 SLP223 T00281033 10028 20022 56018=
202302161053 METAR KPAE 161053Z AUTO VRB04KT 10SM OVC110 03/M03 A3019 RMK AO2 SLP229 T00281028=
202302160953 METAR KPAE 160953Z AUTO 12003KT 10SM OVC110 03/M03 A3021 RMK AO2 SLP235 T00281028=
202302160853 METAR KPAE 160853Z AUTO 11006KT 10SM OVC110 02/M02 A3023 RMK AO2 SLP242 T00221022 58015=
202302160753 METAR KPAE 160753Z AUTO VRB03KT 10SM OVC110 03/M02 A3025 RMK AO2 SLP249 T00281017 400671011=
202302160653 METAR KPAE 160653Z AUTO VRB04KT 10SM OVC100 03/M02 A3026 RMK AO2 SLP253 T00281017=
202302160553 METAR KPAE 160553Z AUTO 10006KT 10SM BKN110 02/M02 A3028 RMK AO2 SLP258 T00221017 10056 20022 56011=
202302160453 METAR KPAE 160453Z 10006KT 10SM CLR 03/M02 A3029 RMK AO2 SLP261 T00331017=
202302160353 METAR KPAE 160353Z 11004KT 10SM CLR 04/M03 A3030 RMK AO2 SLP265 T00391028=
202302160253 METAR KPAE 160253Z 15004KT 10SM OVC100 05/M03 A3031 RMK AO2 SLP269 T00501028 56006=
202302160153 METAR KPAE 160153Z 00000KT 10SM SCT100 04/M03 A3031 RMK AO2 SLP270 T00441028=
202302160053 METAR KPAE 160053Z 25005KT 10SM FEW100 05/M03 A3032 RMK AO2 SLP272 T00501028=
202302152353 METAR KPAE 152353Z 26006KT 10SM CLR 06/M01 A3033 RMK AO2 SLP275 T00561011 10067 20022 56011=
202302152253 METAR KPAE 152253Z 18004KT 10SM FEW110 06/M02 A3033 RMK AO2 SLP277 T00611022=
202302152153 METAR KPAE 152153Z 19007KT 10SM FEW110 06/M02 A3034 RMK AO2 SLP280 T00611022=
202302152053 METAR KPAE 152053Z 17006KT 10SM SCT030 BKN110 06/M02 A3036 RMK AO2 SLP286 T00561022 58006=
202302151953 METAR KPAE 151953Z VRB03KT 10SM CLR 05/M02 A3038 RMK AO2 SLP293 T00501017=
202302151853 METAR KPAE 151853Z 16007KT 10SM CLR 03/M02 A3038 RMK AO2 SLP294 T00331022=
202302151753 METAR KPAE 151753Z 16006KT 10SM OVC031 02/M02 A3038 RMK AO2 SLP294 T00221022 10022 21006 53008=
202302151653 METAR KPAE 151653Z 15007KT 10SM BKN030 01/M02 A3037 RMK AO2 SLP291 T00061022=
202302151553 METAR KPAE 151553Z 15004KT 10SM BKN035 00/M03 A3036 RMK AO2 SLP288 T00001028=
202302151453 METAR KPAE 151453Z 15005KT 10SM OVC034 00/M03 A3036 RMK AO2 SLP285 T00001028 50002=
202302151353 METAR KPAE 151353Z AUTO 14005KT 10SM CLR 00/M03 A3036 RMK AO2 SLP286 T00001028=
202302151253 METAR KPAE 151253Z AUTO 15004KT 10SM CLR 00/M02 A3035 RMK AO2 SLP284 T00001022=
202302151153 METAR KPAE 151153Z AUTO 15005KT 10SM CLR 00/M02 A3035 RMK AO2 SLP283 70001 T00001022 10017 21011 51007=
202302151053 METAR KPAE 151053Z AUTO 15004KT 10SM CLR 00/M02 A3035 RMK AO2 SLP282 T00001017=
202302150953 METAR KPAE 150953Z AUTO 15003KT 10SM CLR M01/M02 A3034 RMK AO2 SLP281 T10061022=
202302150853 METAR KPAE 150853Z AUTO 16005KT 10SM CLR 01/M02 A3033 RMK AO2 SLP275 T00111017 50004=
202302150753 METAR KPAE 150753Z AUTO 14003KT 10SM CLR M01/M03 A3033 RMK AO2 SLP277 T10061028 400611011=
202302150653 METAR KPAE 150653Z AUTO 00000KT 10SM CLR M01/M03 A3032 RMK AO2 SLP274 T10061028=
202302150553 METAR KPAE 150553Z AUTO 12003KT 10SM CLR 00/M03 A3032 RMK AO2 SLP272 T00001028 10061 20000 51012=
202302150453 METAR KPAE 150453Z 00000KT 10SM CLR 02/M02 A3031 RMK AO2 SLP268 T00171022=
202302150353 METAR KPAE 150353Z 00000KT 10SM CLR 02/M02 A3029 RMK AO2 SLP264 T00221017=
202302150253 METAR KPAE 150253Z 28004KT 10SM CLR 03/M02 A3028 RMK AO2 SLP260 T00281017 53015=
202302150153 METAR KPAE 150153Z 28003KT 10SM CLR 04/M02 A3026 RMK AO2 SLP252 T00391017=
202302150053 METAR KPAE 150053Z 31005KT 10SM CLR 04/M02 A3025 RMK AO2 SLP249 T00441022=
202302142353 METAR KPAE 142353Z AUTO 33003KT 10SM CLR 06/M03 A3024 RMK AO2 SLP244 T00561028 10061 20033 51020=
202302142253 METAR KPAE 142253Z 34004KT 10SM CLR 06/M03 A3022 RMK AO2 SLP237 T00611028=
202302142153 METAR KPAE 142153Z 01005KT 10SM CLR 06/M02 A3020 RMK AO2 SLP231 T00561022=
202302142053 METAR KPAE 142053Z 35007KT 10SM SCT028 BKN035 04/M02 A3018 RMK AO2 SLP224 T00441017 51022=
202302141953 METAR KPAE 141953Z 31009KT 10SM BKN024 04/M02 A3016 RMK AO2 SLP219 T00391022=
202302141853 METAR KPAE 141853Z 34006KT 10SM CLR 04/M01 A3014 RMK AO2 SLP213 T00441011=
202302141753 METAR KPAE 141753Z 35007KT 10SM CLR 03/M02 A3011 RMK AO2 SLP201 60001 T00331022 10033 20000 51031=
202302141653 METAR KPAE 141653Z 35006KT 10SM CLR 02/M01 A3009 RMK AO2 SLP196 T00221011=
202302141553 METAR KPAE 141553Z 34004KT 10SM CLR 01/M01 A3005 RMK AO2 SLP183 T00061011=
202302141453 METAR KPAE 141453Z 35005KT 10SM BKN050 01/M01 A3002 RMK AO2 SNE15 SLP170 P0001 60001 T00061011 51021=
202302141422 SPECI KPAE 141422Z AUTO 01005KT 10SM SCT002 BKN037 01/M01 A3000 RMK AO2 SNE15 P0000 T00111011=
202302141415 SPECI KPAE 141415Z AUTO 02007KT 8SM SCT002 BKN029 OVC035 01/M01 A3000 RMK AO2 SNE15 P0000 T00061006=
202302141408 SPECI KPAE 141408Z AUTO 04004G14KT 2 1/2SM -SN BR SCT002 BKN009 OVC033 01/M01 A2999 RMK AO2 P0000 T00061006=
202302141400 SPECI KPAE 141400Z AUTO 01008G15KT 1 1/2SM -SN BR BKN002 BKN006 OVC042 01/M01 A2999 RMK AO2 P0000 T00061011=
202302141357 SPECI KPAE 141357Z AUTO 02009G15KT 1 3/4SM -SN BR SCT002 BKN010 OVC042 01/M01 A2999 RMK AO2 P0000 T00061011=
202302141353 METAR KPAE 141353Z AUTO 36010G15KT 4SM -SN BR SCT004 BKN010 OVC042 01/M01 A2999 RMK AO2 RAB52E53SNB53 SLP160 P0000 T00061011=
202302141348 SPECI KPAE 141348Z AUTO 00000KT 10SM BKN010 BKN024 OVC042 01/M01 A2998 RMK AO2=
202302141253 METAR KPAE 141253Z AUTO 00000KT 10SM FEW022 BKN034 BKN050 00/M02 A2995 RMK AO2 SNB18E46 SLP148 P0000 T00001017=
202302141153 METAR KPAE 141153Z AUTO VRB03KT 10SM FEW039 SCT048 BKN060 01/M01 A2993 RMK AO2 SLP139 70012 T00061011 10028 20006 53010=
202302141053 METAR KPAE 141053Z AUTO 16006KT 10SM CLR 01/M01 A2991 RMK AO2 SLP133 T00111006=
202302140953 METAR KPAE 140953Z AUTO 15009KT 10SM FEW055 01/M01 A2990 RMK AO2 SLP129 T00111006=
202302140853 METAR KPAE 140853Z AUTO 17006KT 10SM SCT005 BKN055 01/00 A2990 RMK AO2 SLP128 T00110000 51011=
202302140849 SPECI KPAE 140849Z AUTO 17007KT 10SM SCT005 BKN050 01/M01 A2990 RMK AO2=
202302140809 SPECI KPAE 140809Z AUTO 18010KT 10SM SCT021 01/M01 A2988 RMK AO2 T00111006=
202302140753 METAR KPAE 140753Z AUTO 18012KT 10SM SCT016 BKN021 02/00 A2988 RMK AO2 SLP121 T00170000 400780006=
202302140727 SPECI KPAE 140727Z AUTO 21005KT 10SM SCT015 BKN019 OVC075 02/M01 A2987 RMK AO2 T00221006=
202302140653 METAR KPAE 140653Z AUTO 01006KT 10SM BKN065 OVC080 03/M01 A2986 RMK AO2 SLP116 T00281011=
202302140553 METAR KPAE 140553Z AUTO 10SM OVC043 02/M01 A2985 RMK AO2 SNE41 SLP112 P0002 60005 T00221006 10056 20006 50017=
202302140530 SPECI KPAE 140530Z AUTO 01007KT 340V060 8SM -SN SCT004 OVC035 02/M01 A2985 RMK AO2 P0002 T00171006=
202302140516 SPECI KPAE 140516Z AUTO VRB05KT 3SM R16R/6000VP6000FT -SN BR BKN004 OVC021 01/M01 A2986 RMK AO2 P0002 T00061006=
202302140511 SPECI KPAE 140511Z AUTO 32005KT 1 1/2SM R16R/6000VP6000FT -SN BR OVC004 01/M01 A2986 RMK AO2 P0001 T00061006=
202302140502 SPECI KPAE 140502Z AUTO 31008KT 2 1/2SM -SN BR OVC004 01/M01 A2986 RMK AO2 P0001 T00111006=
202302140453 METAR KPAE 140453Z 31007KT 3SM -SN BR BKN006 OVC011 01/00 A2985 RMK AO2 SNE02B26 SLP114 P0002 T00110000=
202302140353 METAR KPAE 140353Z 34009G17KT 8SM -SN BKN003 OVC009 01/00 A2982 RMK AO2 LTG DSNT SW SLP101 P0001 T00110000=
202302140339 SPECI KPAE 140339Z 34010G16KT 3SM -SN BR OVC003 01/M01 A2982 RMK AO2 LTG DSNT S P0001 T00061006=
202302140308 SPECI KPAE 140308Z 35010G20KT 1SM R16R/P6000FT -SN BR OVC002 01/00 A2981 RMK AO2 LTG DSNT S P0000 T00110000=
202302140253 METAR KPAE 140253Z 35011G21KT 9SM -SN BKN008 BKN013 OVC065 02/00 A2980 RMK AO2 PK WND 34032/0204 LTG DSNT SE AND S RAB29E30UPB30E40SNB40 SLP095 P0000 60000 T00170000 53008=
202302140226 SPECI KPAE 140226Z 35013G25KT 10SM BKN008 BKN013 OVC065 03/01 A2980 RMK AO2 PK WND 34032/0204 T00280006=
202302140200 SPECI KPAE 140200Z 32013G21KT 10SM SCT030 OVC060 05/M01 A2979 RMK AO2 T00501011=
202302140153 METAR KPAE 140153Z 30007G16KT 250V350 10SM BKN023 OVC030 05/M01 A2978 RMK AO2 SLP089 T00501011=
202302140053 METAR KPAE 140053Z VRB05KT 10SM BKN024 OVC031 05/01 A2977 RMK AO2 RAB23E36 SLP083 P0000 T00500011=
202302140031 SPECI KPAE 140031Z 10SM -RA BKN027 OVC033 05/01 A2977 RMK AO2 RAB23 P0000 T00500006=
202302132353 METAR KPAE 132353Z 32005KT 10SM FEW026 SCT033 BKN080 05/01 A2977 RMK AO2 RAE20 SLP085 P0001 60006 T00500011 10072 20039 58005=
202302132321 SPECI KPAE 132321Z 30003KT 10SM SCT019 BKN033 OVC060 04/02 A2978 RMK AO2 RAE20 P0001 T00440017=
202302132257 SPECI KPAE 132257Z 00000KT 3SM -RA BR SCT016 BKN023 OVC031 04/02 A2979 RMK AO2 P0000 T00390017=
202302132253 METAR KPAE 132253Z 31003KT 1 3/4SM RA SCT010 BKN023 OVC031 04/01 A2979 RMK AO2 RAB42 SLP090 P0004 T00390011=
202302132250 SPECI KPAE 132250Z 26003KT 1 3/4SM RA SCT010 BKN023 OVC031 04/01 A2979 RMK AO2 RAB42 P0004=
202302132246 SPECI KPAE 132246Z 28005KT 2 1/2SM +RA SCT010 BKN060 BKN075 04/01 A2979 RMK AO2 RAB42 P0003 T00390011=
202302132231 SPECI KPAE 132231Z 19009KT 10SM VCTS SCT010 BKN060 BKN075 04/02 A2977 RMK AO2 T00440017=
202302132153 METAR KPAE 132153Z 22003KT 10SM FEW021 BKN047 BKN070 06/02 A2979 RMK AO2 RAE53 SLP090 P0000 T00610022=
202302132148 SPECI KPAE 132148Z 28004KT 10SM -RA SCT019 BKN038 BKN060 06/02 A2979 RMK AO2 P0000=
202302132053 METAR KPAE 132053Z 19006KT 10SM -RA BKN022 BKN028 06/02 A2980 RMK AO2 RAB47 SLP094 P0000 60001 T00610017 58014=
202302132040 SPECI KPAE 132040Z VRB03KT 10SM FEW018 SCT030 07/02 A2981 RMK AO2 LTG DSNT W T00670017=
202302131953 METAR KPAE 131953Z 17006KT 10SM FEW018 BKN030 07/02 A2982 RMK AO2 RAE02 SLP102 P0000 T00670022=
202302131900 SPECI KPAE 131900Z 15007KT 10SM -RA FEW018 BKN070 OVC080 06/02 A2984 RMK AO2 P0000 T00560022=
202302131853 METAR KPAE 131853Z 15007KT 10SM -RA BKN012 06/02 A2984 RMK AO2 RAB10 SLP107 P0001 T00560022=
202302131753 METAR KPAE 131753Z 16007KT 10SM BKN012 06/03 A2984 RMK AO2 SLP108 60001 T00560028 10056 20039 53000=
202302131653 METAR KPAE 131653Z 36004KT 10SM SCT030 OVC090 06/01 A2984 RMK AO2 SLP107 T00560011=
202302131600 SPECI KPAE 131600Z 00000KT 10SM BKN090 BKN110 05/01 A2984 RMK AO2 T00500011=
202302131553 METAR KPAE 131553Z 29003KT 10SM FEW013 BKN019 05/01 A2984 RMK AO2 RAB1458E11 SLP107 P0000 T00500011=
202302131453 METAR KPAE 131453Z AUTO VRB03KT 10SM BKN013 OVC080 04/03 A2984 RMK AO2 RAE15 SLP107 P0000 60001 T00440028 51002=
202302131353 METAR KPAE 131353Z AUTO 01005KT 10SM -RA BKN024 BKN040 OVC060 04/02 A2984 RMK AO2 RAB45 SLP106 P0000 T00440022=
202302131350 SPECI KPAE 131350Z AUTO 36005KT 10SM -RA BKN024 BKN036 OVC060 04/02 A2984 RMK AO2 RAB45 P0000=
202302131338 SPECI KPAE 131338Z AUTO 00000KT 10SM SCT026 BKN034 OVC060 05/02 A2983 RMK AO2 T00500017=
202302131326 SPECI KPAE 131326Z AUTO 17004KT 10SM BKN026 BKN034 OVC095 05/02 A2983 RMK AO2 T00500022=
202302131253 METAR KPAE 131253Z AUTO 16003KT 10SM FEW015 SCT020 OVC095 05/02 A2983 RMK AO2 RAE1155 SLP105 P0001 T00500022=
202302131244 SPECI KPAE 131244Z AUTO 20005KT 10SM SCT014 SCT020 OVC095 05/03 A2984 RMK AO2 RAE1155 P0001 T00500028=
202302131153 METAR KPAE 131153Z AUTO 11004KT 7SM -RA OVC014 06/04 A2986 RMK AO2 SLP114 P0002 60007 70007 T00560039 10083 20056 56014=
202302131146 SPECI KPAE 131146Z AUTO VRB03KT 4SM -RA BR OVC014 06/04 A2986 RMK AO2 P0002 T00560039=
202302131053 METAR KPAE 131053Z AUTO VRB06KT 6SM -RA BR FEW005 OVC021 06/04 A2987 RMK AO2 RAB42 SLP118 P0000 T00610044=
202302130953 METAR KPAE 130953Z AUTO 07003KT 10SM BKN026 OVC037 07/03 A2987 RMK AO2 RAE22 SLP117 P0000 T00720033=
202302130853 METAR KPAE 130853Z AUTO 34005KT 10SM -RA SCT003 SCT009 OVC029 07/05 A2990 RMK AO2 RAB10 SLP128 P0005 60005 T00670050 56006=
202302130840 SPECI KPAE 130840Z AUTO 32004KT 5SM -RA BR BKN003 OVC009 07/06 A2991 RMK AO2 RAB10 P0004 T00670056=
202302130817 SPECI KPAE 130817Z AUTO 24005KT 4SM -RA BR OVC009 07/05 A2991 RMK AO2 RAB10 P0001 T00720050=
202302130753 METAR KPAE 130753Z AUTO 23010G17KT 10SM OVC012 08/04 A2991 RMK AO2 SLP130 T00780044 400940011=
202302130713 SPECI KPAE 130713Z AUTO 21010G17KT 10SM OVC014 08/04 A2991 RMK AO2 T00780039=
202302130653 METAR KPAE 130653Z AUTO 21008G17KT 10SM OVC015 08/04 A2992 RMK AO2 PK WND 19031/0556 SLP135 T00830039=
202302130553 METAR KPAE 130553Z AUTO 20021G28KT 10SM OVC019 08/04 A2992 RMK AO2 PK WND 19034/0537 SLP135 T00830039 10094 20083 55019=
202302130537 SPECI KPAE 130537Z AUTO 20025G34KT 10SM BKN020 OVC100 08/04 A2993 RMK AO2 PK WND 19034/0537 T00830039=
202302130528 SPECI KPAE 130528Z AUTO 20021G32KT 10SM SCT020 OVC100 08/03 A2993 RMK AO2 PK WND 19032/0504 T00830033=
202302130453 METAR KPAE 130453Z AUTO 18021G29KT 10SM BKN024 08/03 A2992 RMK AO2 PK WND 19029/0452 SLP134 T00830028=
202302130353 METAR KPAE 130353Z 19016KT 10SM SCT026 08/02 A2995 RMK AO2 PK WND 17028/0341 SLP145 T00830017=
202302130344 SPECI KPAE 130344Z 18018G28KT 10SM SCT028 08/02 A2996 RMK AO2 PK WND 17028/0341 T00830017=
202302130335 SPECI KPAE 130335Z 19018G24KT 10SM BKN029 BKN070 08/02 A2996 RMK AO2 T00830017=
202302130253 METAR KPAE 130253Z 17014G22KT 10SM OVC030 09/01 A2998 RMK AO2 SLP154 T00940011 56030=
202302130153 METAR KPAE 130153Z 16010KT 10SM OVC032 09/M01 A3001 RMK AO2 SLP164 T00941006=
202302130053 METAR KPAE 130053Z 16010KT 10SM OVC031 09/01 A3004 RMK AO2 SLP174 T00940006=
202302122353 METAR KPAE 122353Z AUTO 16012KT 10SM BKN030 09/01 A3007 RMK AO2 SLP185 T00890006 10094 20044 58034=
202302122253 METAR KPAE 122253Z 18013KT 10SM BKN032 BKN100 09/01 A3011 RMK AO2 SLP199 T00890006=
202302122153 METAR KPAE 122153Z 18010KT 10SM FEW110 09/01 A3014 RMK AO2 SLP209 T00940011=
202302122053 METAR KPAE 122053Z 17010KT 10SM FEW085 OVC120 08/01 A3017 RMK AO2 SLP221 T00830011 58018=
202302121953 METAR KPAE 121953Z 23005KT 10SM SCT100 08/03 A3021 RMK AO2 SLP233 T00780033=
202302121853 METAR KPAE 121853Z 17007KT 10SM CLR 07/02 A3022 RMK AO2 SLP237 T00670017=
202302121753 METAR KPAE 121753Z 15006KT 10SM BKN065 OVC075 04/02 A3022 RMK AO2 SLP240 T00440017 10044 20017 56007=
202302121653 METAR KPAE 121653Z 18003KT 10SM OVC060 03/01 A3023 RMK AO2 SLP242 T00330011=
202302121553 METAR KPAE 121553Z VRB03KT 10SM SCT060 BKN070 03/00 A3023 RMK AO2 SLP243 T00280000=
202302121453 METAR KPAE 121453Z 00000KT 10SM OVC055 02/01 A3025 RMK AO2 SLP247 T00220006 56013=
202302121353 METAR KPAE 121353Z AUTO 00000KT 10SM OVC070 03/01 A3025 RMK AO2 SLP248 T00280011=
202302121253 METAR KPAE 121253Z AUTO VRB03KT 10SM CLR 02/01 A3026 RMK AO2 SLP250 T00220006=
202302121153 METAR KPAE 121153Z AUTO 12003KT 10SM OVC070 03/01 A3028 RMK AO2 SLP259 T00280011 10039 20011 58001=
202302121053 METAR KPAE 121053Z AUTO 00000KT 10SM SCT095 03/01 A3029 RMK AO2 SLP263 T00280011=
202302120953 METAR KPAE 120953Z AUTO 00000KT 10SM OVC100 03/01 A3028 RMK AO2 SLP259 T00280011=
202302120853 METAR KPAE 120853Z AUTO 00000KT 8SM FEW100 02/00 A3029 RMK AO2 SLP260 T00170000 55001=
202302120753 METAR KPAE 120753Z AUTO 00000KT 10SM CLR 03/01 A3029 RMK AO2 SLP260 T00330011 400830017=
202302120653 METAR KPAE 120653Z AUTO 00000KT 10SM CLR 03/01 A3028 RMK AO2 SLP259 T00330011=
202302120553 METAR KPAE 120553Z AUTO 02003KT 10SM CLR 03/01 A3029 RMK AO2 SLP262 T00280011 10067 20028 53005=
202302120453 METAR KPAE 120453Z 35003KT 10SM CLR 04/02 A3028 RMK AO2 SLP257 T00390017=
202302120353 METAR KPAE 120353Z 00000KT 10SM CLR 03/01 A3027 RMK AO2 SLP254 T00330011=
202302120253 METAR KPAE 120253Z 00000KT 10SM CLR 04/02 A3028 RMK AO2 SLP257 T00440017 58005=
202302120153 METAR KPAE 120153Z 00000KT 10SM CLR 05/02 A3028 RMK AO2 SLP256 T00500022=
202302120053 METAR KPAE 120053Z 34003KT 10SM CLR 06/02 A3030 RMK AO2 SLP264 T00610017=
202302112353 METAR KPAE 112353Z AUTO 33005KT 10SM CLR 07/02 A3029 RMK AO2 SLP262 T00670022 10083 20061 55007=
202302112253 METAR KPAE 112253Z 35005KT 10SM FEW030 07/01 A3029 RMK AO2 SLP260 T00720011=
202302112232 SPECI KPAE 112232Z 34005KT 10SM BKN030 07/01 A3030 RMK AO2 T00720011=
202302112153 METAR KPAE 112153Z 36005KT 10SM OVC027 07/02 A3031 RMK AO2 SLP266 T00720017=
202302112053 METAR KPAE 112053Z 35003KT 10SM BKN023 OVC028 07/01 A3031 RMK AO2 SLP268 T00670011 58002=
202302111953 METAR KPAE 111953Z 27003KT 10SM OVC021 07/02 A3032 RMK AO2 SLP271 T00720017=
202302111853 METAR KPAE 111853Z 34003KT 10SM OVC018 07/01 A3032 RMK AO2 SLP270 T00670011=
202302111753 METAR KPAE 111753Z 01003KT 10SM OVC019 06/02 A3032 RMK AO2 SLP270 T00610022 10061 20028 51004=
202302111653 METAR KPAE 111653Z 00000KT 10SM OVC020 06/03 A3032 RMK AO2 SLP269 T00560028=
202302111553 METAR KPAE 111553Z 00000KT 10SM OVC021 05/03 A3032 RMK AO2 SLP269 T00500028=
202302111453 METAR KPAE 111453Z 35003KT 10SM OVC017 04/02 A3031 RMK AO2 SLP267 T00440022 53003=
202302111416 SPECI KPAE 111416Z AUTO 34003KT 10SM BKN015 04/02 A3030 RMK AO2 T00390022=
202302111353 METAR KPAE 111353Z AUTO 34003KT 10SM FEW015 04/02 A3029 RMK AO2 SLP262 T00390022=
202302111338 SPECI KPAE 111338Z AUTO 36004KT 10SM SCT019 04/02 A3029 RMK AO2 T00440022=
202302111320 SPECI KPAE 111320Z AUTO 34004KT 10SM BKN017 04/02 A3030 RMK AO2 T00440022=
202302111309 SPECI KPAE 111309Z AUTO 35005KT 10SM BKN013 04/02 A3029 RMK AO2 T00440022=
202302111253 METAR KPAE 111253Z AUTO 35005KT 10SM SCT011 04/02 A3030 RMK AO2 SLP262 T00390022=
202302111153 METAR KPAE 111153Z AUTO 34003KT 10SM CLR 04/02 A3030 RMK AO2 SLP262 T00390022 10061 20033 51006=
202302111053 METAR KPAE 111053Z AUTO 02004KT 10SM CLR 05/03 A3029 RMK AO2 SLP261 T00500028=
202302111038 SPECI KPAE 111038Z AUTO 03003KT 10SM FEW015 05/03 A3029 RMK AO2 T00500028=
202302111018 SPECI KPAE 111018Z AUTO 02004KT 10SM BKN016 OVC055 06/03 A3030 RMK AO2 T00560028=
202302110953 METAR KPAE 110953Z AUTO 34004KT 10SM BKN012 OVC055 05/03 A3030 RMK AO2 SLP265 T00500028=
202302110940 SPECI KPAE 110940Z AUTO VRB05KT 10SM BKN012 05/03 A3030 RMK AO2 T00500028=
202302110853 METAR KPAE 110853Z AUTO 01004KT 10SM SCT011 OVC060 06/03 A3028 RMK AO2 SLP256 T00560033 50003=
202302110848 SPECI KPAE 110848Z AUTO 02006KT 10SM SCT011 OVC055 06/03 A3028 RMK AO2=
202302110833 SPECI KPAE 110833Z AUTO 01004KT 10SM BKN011 BKN041 OVC055 06/03 A3028 RMK AO2 T00560033=
202302110753 METAR KPAE 110753Z AUTO 36005KT 10SM FEW011 SCT037 OVC055 06/03 A3028 RMK AO2 SLP258 T00560033 401060056=
202302110736 SPECI KPAE 110736Z AUTO 01005KT 10SM SCT009 BKN055 06/03 A3028 RMK AO2 T00560033=
202302110707 SPECI KPAE 110707Z AUTO 36006KT 10SM BKN008 BKN055 06/03 A3027 RMK AO2 CIG 006V012 T00560033=
202302110653 METAR KPAE 110653Z AUTO 35007KT 10SM SCT008 BKN055 06/03 A3027 RMK AO2 SLP254 T00560033=
202302110635 SPECI KPAE 110635Z AUTO 35007KT 10SM FEW008 BKN055 06/03 A3027 RMK AO2 T00560033=
202302110553 METAR KPAE 110553Z AUTO 35006KT 10SM R16R/1000VP6000FT OVC055 06/03 A3026 RMK AO2 SLP249 T00610033 10100 20061 51010=
202302110453 METAR KPAE 110453Z AUTO 35006KT 10SM FEW034 OVC050 06/03 A3025 RMK AO2 SLP247 T00610033=
202302110353 METAR KPAE 110353Z 36007KT 10SM SCT036 07/04 A3024 RMK AO2 SLP242 T00670039=
202302110253 METAR KPAE 110253Z 34006KT 10SM BKN034 06/03 A3023 RMK AO2 SLP239 T00610033 53013=
202302110153 METAR KPAE 110153Z 34005KT 10SM CLR 07/03 A3021 RMK AO2 SLP234 T00670028=
202302110053 METAR KPAE 110053Z 34003KT 10SM R16R/1400VP6000FT CLR 09/03 A3019 RMK AO2 SLP226 T00890033=
202302102353 METAR KPAE 102353Z 26006KT 10SM SCT037 BKN048 10/03 A3019 RMK AO2 SLP225 T01000033 10106 20078 55001=
202302102253 METAR KPAE 102253Z 26003KT 10SM BKN034 OVC044 09/03 A3018 RMK AO2 SLP221 T00940033=
202302102153 METAR KPAE 102153Z 19004KT 10SM SCT040 BKN047 10/03 A3018 RMK AO2 SLP223 T01000033=
202302102126 SPECI KPAE 102126Z 21005KT 10SM SCT025 OVC041 09/03 A3019 RMK AO2 T00940033=
202302102053 METAR KPAE 102053Z 26006KT 10SM BKN016 BKN025 09/04 A3019 RMK AO2 SLP226 T00890044 50003=
202302101953 METAR KPAE 101953Z 15009KT 10SM BKN016 BKN025 09/04 A3020 RMK AO2 SLP228 T00890044=
202302101919 SPECI KPAE 101919Z 15007KT 10SM SCT014 09/05 A3021 RMK AO2 T00890050=
202302101853 METAR KPAE 101853Z 16011KT 10SM BKN007 08/05 A3020 RMK AO2 SLP229 T00830050=
202302101809 SPECI KPAE 101809Z 16010KT 10SM BKN007 08/05 A3019 RMK AO2 T00780050=
202302101753 METAR KPAE 101753Z 16012G20KT 10SM SCT011 08/05 A3018 RMK AO2 SLP223 T00780050 10078 20067 51014=
202302101653 METAR KPAE 101653Z 16010G20KT 10SM BKN007 BKN011 07/04 A3018 RMK AO2 SLP222 T00720044=
202302101604 SPECI KPAE 101604Z 16010G19KT 10SM BKN007 BKN011 07/04 A3016 RMK AO2 T00670044=
202302101553 METAR KPAE 101553Z 16011G19KT 10SM BKN013 07/04 A3016 RMK AO2 SLP215 T00720044=
202302101505 SPECI KPAE 101505Z 17011KT 10SM SCT013 07/04 A3014 RMK AO2 T00720044=
202302101453 METAR KPAE 101453Z 17011KT 10SM BKN013 BKN018 07/04 A3014 RMK AO2 SLP209 T00670044 53011=
202302101436 SPECI KPAE 101436Z AUTO 18013G21KT 10SM BKN013 BKN018 07/04 A3014 RMK AO2 T00720044=
202302101421 SPECI KPAE 101421Z AUTO 17009KT 10SM BKN015 07/04 A3014 RMK AO2 T00720044=
202302101403 SPECI KPAE 101403Z AUTO 17014KT 10SM BKN012 07/04 A3013 RMK AO2 T00720044=
202302101353 METAR KPAE 101353Z AUTO 16012KT 10SM SCT012 07/04 A3013 RMK AO2 SLP204 T00720044=
202302101253 METAR KPAE 101253Z AUTO 17014G25KT 10SM CLR 07/04 A3011 RMK AO2 SLP196 T00720044=
202302101153 METAR KPAE 101153Z AUTO 18014KT 10SM FEW016 07/04 A3011 RMK AO2 PK WND 18027/1117 SLP196 60007 70008 T00720044 10089 20072 50004=
202302101128 SPECI KPAE 101128Z AUTO 18017KT 10SM FEW015 07/04 A3012 RMK AO2 PK WND 18027/1117 T00720044=
202302101053 METAR KPAE 101053Z AUTO 18015G22KT 10SM BKN017 08/05 A3011 RMK AO2 SLP198 T00780050=
202302100953 METAR KPAE 100953Z AUTO 17016G25KT 10SM CLR 08/05 A3010 RMK AO2 PK WND 18026/0932 SLP194 T00780050=
202302100920 SPECI KPAE 100920Z AUTO 17017G25KT 10SM SCT027 BKN043 BKN050 08/05 A3010 RMK AO2 T00830050=
202302100905 SPECI KPAE 100905Z AUTO 17013G23KT 10SM BKN027 OVC060 08/04 A3010 RMK AO2 T00830044=
202302100853 METAR KPAE 100853Z AUTO 18018G27KT 10SM BKN030 BKN060 08/04 A3010 RMK AO2 PK WND 17033/0807 SLP193 60007 T00830044 53016=
202302100753 METAR KPAE 100753Z AUTO 17017G29KT 10SM SCT029 BKN038 08/05 A3007 RMK AO2 PK WND 17037/0655 RAE21 SLP184 P0000 T00830050 401390056=
202302100653 METAR KPAE 100653Z AUTO 18030G39KT 5SM -RA OVC039 08/04 A3007 RMK AO2 PK WND 18039/0652 SLP184 P0007 T00830044=
202302100553 METAR KPAE 100553Z AUTO 19019G27KT 10SM -RA OVC048 09/03 A3005 RMK AO2 PK WND 18031/0538 RAB25 SLP177 P0001 60001 T00940028 10133 20094 53009=
202302100453 METAR KPAE 100453Z 15014KT 10SM FEW120 09/M01 A3001 RMK AO2 SLP164 T00941011=
202302100353 METAR KPAE 100353Z 14010G18KT 10SM CLR 10/M02 A3001 RMK AO2 SLP163 T01001017=
202302100253 METAR KPAE 100253Z VRB04KT 10SM FEW110 10/00 A3002 RMK AO2 SLP168 T01000000 56013=
202302100153 METAR KPAE 100153Z 11007KT 10SM CLR 11/00 A3003 RMK AO2 SLP172 T01060000=
202302100053 METAR KPAE 100053Z 11007KT 10SM CLR 12/01 A3005 RMK AO2 SLP176 T01170006=
202302092353 METAR KPAE 092353Z 12007KT 10SM CLR 13/02 A3006 RMK AO2 SLP181 T01330017 10139 20083 58027=
202302092253 METAR KPAE 092253Z 15005KT 10SM CLR 13/02 A3009 RMK AO2 SLP191 T01330017=
202302092153 METAR KPAE 092153Z 15005KT 10SM CLR 12/02 A3012 RMK AO2 SLP201 T01170017=
202302092053 METAR KPAE 092053Z 14005KT 10SM FEW060 11/01 A3014 RMK AO2 SLP209 T01060011 58023=
202302091953 METAR KPAE 091953Z 16006KT 10SM SCT090 09/01 A3018 RMK AO2 SLP223 T00940006=
202302091853 METAR KPAE 091853Z 19003KT 10SM FEW110 09/01 A3021 RMK AO2 SLP232 T00890011=
202302091753 METAR KPAE 091753Z 12005KT 10SM BKN080 BKN110 08/01 A3021 RMK AO2 RAE1657 SLP233 P0000 60000 T00830006 10083 20056 58014=
202302091653 METAR KPAE 091653Z 11007KT 10SM -RA FEW075 BKN090 OVC110 07/01 A3023 RMK AO2 RAB12 SLP239 P0000 T00670006=
202302091553 METAR KPAE 091553Z VRB04KT 10SM SCT065 OVC100 07/M01 A3025 RMK AO2 SLP247 T00721006=
202302091453 METAR KPAE 091453Z VRB04KT 10SM BKN080 OVC100 07/M01 A3025 RMK AO2 SLP248 60000 T00671006 57027=
202302091353 METAR KPAE 091353Z 11007KT 10SM BKN070 OVC090 06/M01 A3028 RMK AO2 RAE26 SLP256 P0000 T00611006=
202302091253 METAR KPAE 091253Z 11007KT 10SM -RA BKN075 OVC095 06/00 A3031 RMK AO2 RAB1158 SLP267 P0000 T00610000=
202302091153 METAR KPAE 091153Z 10009KT 10SM BKN080 OVC100 06/00 A3034 RMK AO2 SLP276 60000 T00560000 10056 20050 58018=
202302091053 METAR KPAE 091053Z 11006KT 10SM FEW050 OVC090 06/00 A3036 RMK AO2 RAE25 SLP284 P0000 T00560000=
202302090953 METAR KPAE 090953Z 11007KT 10SM -RA BKN070 OVC080 06/00 A3038 RMK AO2 RAB47 SLP290 P0000 T00560000=
202302090853 METAR KPAE 090853Z 11008KT 10SM OVC075 06/00 A3039 RMK AO2 SLP294 T00560000 58017=
202302090753 METAR KPAE 090753Z 11007KT 10SM OVC070 06/01 A3042 RMK AO2 SLP304 T00560006 400830028=
202302090653 METAR KPAE 090653Z 11006KT 10SM OVC070 06/01 A3043 RMK AO2 SLP308 T00560006=
202302090553 METAR KPAE 090553Z VRB03KT 10SM OVC075 06/01 A3044 RMK AO2 SLP313 T00560006 10078 20056 58004=
202302090453 METAR KPAE 090453Z VRB04KT 10SM OVC080 06/01 A3045 RMK AO2 SLP317 T00610006=
202302090353 METAR KPAE 090353Z 11005KT 10SM OVC100 06/01 A3045 RMK AO2 SLP317 T00610006=
202302090253 METAR KPAE 090253Z 14005KT 10SM FEW110 07/00 A3045 RMK AO2 SLP317 T00670000 58008=
202302090153 METAR KPAE 090153Z 16005KT 10SM CLR 07/00 A3047 RMK AO2 SLP322 T00670000=
202302090053 METAR KPAE 090053Z 16007KT 10SM CLR 07/00 A3047 RMK AO2 SLP323 T00720000=
202302082353 METAR KPAE 082353Z 16006KT 10SM FEW029 08/01 A3048 RMK AO2 SLP326 T00780006 10083 20056 58006=
202302082253 METAR KPAE 082253Z 18010KT 10SM FEW032 08/01 A3049 RMK AO2 SLP328 T00780006=
202302082153 METAR KPAE 082153Z 18008KT 10SM BKN030 08/02 A3050 RMK AO2 SLP330 T00780017=
202302082053 METAR KPAE 082053Z 16006KT 10SM BKN030 07/00 A3050 RMK AO2 SLP332 T00720000 56002=
202302081953 METAR KPAE 081953Z 15007KT 10SM BKN030 07/01 A3050 RMK AO2 SLP332 T00670006 $=
202302081853 METAR KPAE 081853Z 16008KT 10SM CLR 07/02 A3050 RMK AO2 SLP331 T00670017 $=
202302081753 METAR KPAE 081753Z 17008KT 10SM SCT035 06/02 A3050 RMK AO2 SLP334 T00560022 10056 20028 $=
202302081553 METAR KPAE 081553Z 16005KT 10SM OVC025 03/02 A3046 RMK AO2 SLP320 T00330017=
202302081539 SPECI KPAE 081539Z 16006KT 10SM BKN025 03/02 A3046 RMK AO2 T00330017=
202302081453 METAR KPAE 081453Z 16006KT 10SM SCT023 03/01 A3044 RMK AO2 SLP311 T00330011 53018=
202302081353 METAR KPAE 081353Z AUTO 15005KT 10SM CLR 03/01 A3042 RMK AO2 SLP304 T00330011=
202302081253 METAR KPAE 081253Z AUTO 17005KT 10SM BKN040 OVC100 03/02 A3040 RMK AO2 SLP297 T00330017=
202302081153 METAR KPAE 081153Z AUTO 20003KT 10SM SCT036 OVC046 03/02 A3038 RMK AO2 SLP291 60000 70015 T00330017 10056 20028 53022=
202302081053 METAR KPAE 081053Z AUTO 17007KT 10SM SCT040 BKN060 OVC070 04/02 A3035 RMK AO2 RAE01B26E36 SLP282 P0000 T00390017=
202302080953 METAR KPAE 080953Z AUTO 16007KT 10SM -RA FEW029 BKN035 OVC060 04/02 A3034 RMK AO2 RAB46 SLP276 P0000 T00390017=
202302080853 METAR KPAE 080853Z AUTO 16006KT 10SM FEW010 BKN060 04/02 A3032 RMK AO2 RAB21E33 SLP269 P0000 60000 T00390017 51010=
202302080836 SPECI KPAE 080836Z AUTO 16006KT 10SM FEW009 BKN070 04/02 A3031 RMK AO2 RAB21E33 P0000 T00390017=
202302080812 SPECI KPAE 080812Z AUTO 17006KT 10SM FEW022 SCT036 SCT070 04/02 A3031 RMK AO2 T00440022=
202302080802 SPECI KPAE 080802Z AUTO 17006KT 10SM SCT022 BKN027 BKN035 04/02 A3030 RMK AO2 T00440022=
202302080753 METAR KPAE 080753Z AUTO 16006KT 10SM SCT025 BKN035 OVC049 04/02 A3030 RMK AO2 SLP265 T00440022 400890044=
202302080748 SPECI KPAE 080748Z AUTO 17004KT 10SM BKN025 OVC035 05/02 A3031 RMK AO2=
202302080729 SPECI KPAE 080729Z AUTO 18004KT 10SM FEW023 OVC033 05/02 A3029 RMK AO2 T00500017=
202302080702 SPECI KPAE 080702Z AUTO 00000KT 10SM FEW022 BKN029 OVC033 06/02 A3029 RMK AO2 T00560022=
202302080653 METAR KPAE 080653Z AUTO 10SM BKN031 OVC070 06/03 A3028 RMK AO2 SLP258 T00560028=
202302080553 METAR KPAE 080553Z AUTO 09003KT 10SM SCT060 OVC080 06/03 A3026 RMK AO2 RAB0454E11 SLP250 P0000 60003 T00560028 10083 20050 52027=
202302080505 SPECI KPAE 080505Z AUTO 14003KT 10SM -RA FEW015 BKN037 OVC044 06/02 A3023 RMK AO2 RAB0454 P0000 T00610022=
202302080453 METAR KPAE 080453Z AUTO 00000KT 10SM BKN018 OVC035 06/03 A3023 RMK AO2 RAB03E40 SLP241 P0002 T00610028=
202302080353 METAR KPAE 080353Z 00000KT 10SM BKN029 OVC037 06/03 A3021 RMK AO2 SLP232 T00560033=
202302080253 METAR KPAE 080253Z VRB04KT 10SM OVC029 06/03 A3018 RMK AO2 SLP223 60001 T00610033 51027=
202302080210 SPECI KPAE 080210Z 08004KT 10SM OVC029 06/04 A3017 RMK AO2 T00610039=
202302080153 METAR KPAE 080153Z 08005KT 10SM BKN033 BKN043 OVC055 06/04 A3017 RMK AO2 RAE0059 SLP218 P0000 T00610039=
202302080100 SPECI KPAE 080100Z 33003KT 10SM BKN033 BKN043 OVC055 06/03 A3013 RMK AO2 RAE0059 P0000 T00610033=
202302080053 METAR KPAE 080053Z 31005KT 7SM -RA FEW002 BKN009 OVC043 06/03 A3013 RMK AO2 RAE2357B23 SLP205 P0001 T00610033=
202302072353 METAR KPAE 072353Z 00000KT 10SM -RA FEW002 BKN009 OVC043 08/07 A3010 RMK AO2 TSB15E40 SLP194 P0010 60010 T00830067 10089 20072 51009=
202302072346 SPECI KPAE 072346Z 33004KT 10SM -RA FEW002 BKN009 OVC043 08/07 A3010 RMK AO2 TSB15E40 P0010 T00830067=
202302072333 SPECI KPAE 072333Z 28003KT 10SM -TSRA FEW002 BKN009 OVC043 08/07 A3009 RMK AO2 TSB15 P0009 T00780067=
202302072327 SPECI KPAE 072327Z 00000KT 1SM R16R/4000VP6000FT TSRA BR FEW002 BKN009 OVC043 08/07 A3009 RMK AO2 VIS 1/2V2 TSB15 P0009 T00780067=
202302072320 SPECI KPAE 072320Z 26003KT 2SM R16R/4000VP6000FT +TSRA BR FEW002 BKN009 OVC043 08/07 A3009 RMK AO2 LTG DSNT W TSB15 P0005 T00780067=
202302072253 METAR KPAE 072253Z 22008KT 6SM -RA BR BKN009 OVC011 08/07 A3009 RMK AO2 RAB31 SLP191 P0000 T00830067=
202302072155 SPECI KPAE 072155Z 21011G21KT 10SM BKN009 OVC011 08/06 A3009 RMK AO2 T00830056=
202302072153 METAR KPAE 072153Z 21010G21KT 10SM OVC011 08/06 A3009 RMK AO2 PK WND 19030/2101 SLP190 T00830056=
202302072102 SPECI KPAE 072102Z 19021G30KT 10SM BKN013 OVC047 08/06 A3008 RMK AO2 PK WND 19030/2101 T00830061=
202302072053 METAR KPAE 072053Z 19018G26KT 10SM SCT013 SCT019 OVC047 08/06 A3007 RMK AO2 PK WND 18036/1958 RAB26E53 SLP185 P0000 60000 T00830061 55002=
202302071953 METAR KPAE 071953Z 19023G37KT 10SM BKN013 BKN018 08/06 A3006 RMK AO2 PK WND 18040/1924 SLP183 T00830056=
202302071853 METAR KPAE 071853Z 19016G24KT 9SM OVC014 08/06 A3008 RMK AO2 RAE41 SLP188 P0000 T00780056=
202302071835 SPECI KPAE 071835Z 18016G23KT 9SM -RA OVC014 07/05 A3008 RMK AO2 P0000 T00720050=
202302071753 METAR KPAE 071753Z 17013G20KT 6SM -RA BR OVC016 07/05 A3009 RMK AO2 SLP192 P0002 60002 T00720050 10078 20067 58008=
202302071653 METAR KPAE 071653Z 17012G23KT 5SM -RA BR OVC021 07/04 A3010 RMK AO2 RAB05 SLP196 P0000 T00670044=
202302071553 METAR KPAE 071553Z 17013G23KT 10SM BKN028 OVC033 07/04 A3011 RMK AO2 PK WND 18027/1504 SLP199 T00720044=
202302071453 METAR KPAE 071453Z 17016G28KT 10SM FEW022 OVC030 07/03 A3011 RMK AO2 PK WND 16028/1448 SLP200 T00720033 58022=
202302071353 METAR KPAE 071353Z AUTO 16014G24KT 10SM BKN021 OVC026 08/03 A3014 RMK AO2 PK WND 16030/1319 SLP207 T00780033=
202302071307 SPECI KPAE 071307Z AUTO 17015G22KT 10SM BKN024 OVC031 08/03 A3015 RMK AO2 PK WND 16028/1257 T00780033=
202302071253 METAR KPAE 071253Z AUTO 16016G27KT 10SM FEW024 OVC031 08/03 A3016 RMK AO2 PK WND 15027/1251 SLP215 T00780033=
202302071153 METAR KPAE 071153Z AUTO 17013G28KT 10SM OVC033 08/03 A3018 RMK AO2 PK WND 16030/1122 SLP221 T00780033 10083 20072 58007=
202302071053 METAR KPAE 071053Z AUTO 17016G26KT 10SM OVC100 08/03 A3019 RMK AO2 PK WND 18029/1027 SLP225 T00780033=
202302070953 METAR KPAE 070953Z AUTO 17017G25KT 10SM SCT021 OVC110 08/03 A3021 RMK AO2 PK WND 16030/0914 SLP230 T00780033=
202302070949 SPECI KPAE 070949Z AUTO 18015G29KT 10SM SCT021 OVC100 08/03 A3020 RMK AO2 PK WND 16030/0914=
202302070853 METAR KPAE 070853Z AUTO 16015G25KT 10SM BKN029 OVC110 08/03 A3022 RMK AO2 PK WND 18029/0827 SLP236 T00780028 58015=
202302070753 METAR KPAE 070753Z AUTO 17014G24KT 10SM BKN026 OVC110 08/04 A3026 RMK AO2 PK WND 18030/0731 SLP249 T00780039 400890056=
202302070749 SPECI KPAE 070749Z AUTO 17015G24KT 10SM BKN026 OVC110 07/04 A3025 RMK AO2 PK WND 18030/0731=
202302070653 METAR KPAE 070653Z AUTO 17018G25KT 10SM BKN090 07/04 A3027 RMK AO2 PK WND 16028/0623 SLP253 T00720039=
202302070609 SPECI KPAE 070609Z AUTO 17018G27KT 10SM SCT018 OVC080 07/04 A3028 RMK AO2 PK WND 17027/0609 T00720039=
202302070602 SPECI KPAE 070602Z AUTO 17016G23KT 10SM BKN018 BKN085 OVC120 07/04 A3028 RMK AO2 T00720039=
202302070553 METAR KPAE 070553Z AUTO 17013G25KT 10SM SCT018 BKN090 OVC120 07/04 A3027 RMK AO2 PK WND 16031/0454 SLP255 T00720039 10089 20072 55005=
202302070453 METAR KPAE 070453Z 17017G28KT 10SM OVC100 08/03 A3027 RMK AO2 PK WND 19035/0407 SLP253 T00780033=
202302070353 METAR KPAE 070353Z 18018G29KT 10SM SCT020 08/04 A3028 RMK AO2 PK WND 19032/0255 SLP258 T00780039=
202302070321 SPECI KPAE 070321Z 18020G28KT 10SM SCT020 08/04 A3029 RMK AO2 PK WND 19032/0255 T00780039=
202302070313 SPECI KPAE 070313Z 18018G27KT 10SM BKN020 08/04 A3029 RMK AO2 PK WND 19032/0255 T00780039=
202302070253 METAR KPAE 070253Z 18023G29KT 10SM SCT018 SCT026 08/04 A3029 RMK AO2 PK WND 18032/0228 SLP260 T00780044 55008=
202302070153 METAR KPAE 070153Z 17016G27KT 10SM SCT017 BKN022 08/04 A3029 RMK AO2 PK WND 19037/0108 SLP260 T00830044=
202302070053 METAR KPAE 070053Z 18023G33KT 10SM SCT018 BKN025 08/04 A3031 RMK AO2 PK WND 18033/0050 SLP266 T00830044=
202302070043 SPECI KPAE 070043Z 18021G29KT 10SM BKN020 08/04 A3031 RMK AO2 PK WND 17029/0038 T00830044=
202302062353 METAR KPAE 062353Z 18016G30KT 10SM FEW018 SCT120 08/04 A3032 RMK AO2 PK WND 17031/2256 SLP269 T00830044 10083 20067 56003=
202302062350 SPECI KPAE 062350Z 18018G28KT 10SM SCT018 08/04 A3032 RMK AO2 PK WND 17031/2256=
202302062253 METAR KPAE 062253Z 18018G29KT 10SM BKN018 OVC110 08/05 A3032 RMK AO2 PK WND 18031/2229 SLP269 T00830050=
202302062153 METAR KPAE 062153Z 18017G27KT 10SM OVC017 08/05 A3033 RMK AO2 PK WND 18029/2129 SLP272 T00830050=
202302062053 METAR KPAE 062053Z 18016G27KT 10SM OVC009 08/05 A3034 RMK AO2 PK WND 19027/2046 SLP277 T00830050 58010=
202302061953 METAR KPAE 061953Z 18012KT 10SM OVC009 08/05 A3036 RMK AO2 SLP283 T00780050=
202302061853 METAR KPAE 061853Z 18012G18KT 10SM OVC008 07/05 A3037 RMK AO2 SLP287 T00720050=
202302061753 METAR KPAE 061753Z 17009KT 10SM OVC006 07/05 A3037 RMK AO2 SLP287 T00670050 10067 20056 53005=
202302061653 METAR KPAE 061653Z 16009KT 10SM OVC005 06/04 A3037 RMK AO2 SLP288 T00610044=
202302061553 METAR KPAE 061553Z 16010KT 3SM BR OVC006 06/04 A3035 RMK AO2 SLP281 T00560039=
202302061453 METAR KPAE 061453Z 16009KT 3SM BR OVC007 06/04 A3036 RMK AO2 SLP282 T00560039 53006=
202302061428 SPECI KPAE 061428Z AUTO 17011KT 10SM OVC009 06/04 A3035 RMK AO2 CIG 007V010 T00610039=
202302061353 METAR KPAE 061353Z AUTO 16010KT 10SM BKN012 OVC075 06/03 A3034 RMK AO2 SLP277 T00610033=
202302061334 SPECI KPAE 061334Z AUTO 16009G17KT 10SM BKN012 BKN025 OVC070 06/03 A3034 RMK AO2 T00610033=
202302061326 SPECI KPAE 061326Z AUTO 16009G17KT 10SM SCT012 BKN025 OVC070 06/03 A3034 RMK AO2 T00560033=
202302061253 METAR KPAE 061253Z AUTO 16008KT 10SM OVC050 06/03 A3034 RMK AO2 SLP276 T00560033=
202302061153 METAR KPAE 061153Z AUTO 16010KT 10SM SCT039 SCT048 OVC060 06/03 A3034 RMK AO2 SLP276 60001 70009 T00560033 10072 20056 51021=
202302061108 SPECI KPAE 061108Z AUTO 16010KT 10SM FEW028 BKN034 BKN070 06/03 A3033 RMK AO2 T00560033=
202302061053 METAR KPAE 061053Z AUTO 16008KT 10SM BKN024 BKN070 06/03 A3033 RMK AO2 SLP273 T00560033=
202302060953 METAR KPAE 060953Z AUTO 17008KT 10SM FEW009 OVC020 06/04 A3031 RMK AO2 SLP267 T00610039=
202302060853 METAR KPAE 060853Z AUTO 16008KT 10SM SCT006 OVC017 06/04 A3027 RMK AO2 SLP255 60001 T00610044 51029=
202302060835 SPECI KPAE 060835Z AUTO 15007KT 10SM FEW006 OVC019 07/04 A3027 RMK AO2 T00670044=
202302060753 METAR KPAE 060753Z AUTO 00000KT 10SM BKN021 BKN030 06/04 A3025 RMK AO2 SLP247 T00610039 400780056=
202302060741 SPECI KPAE 060741Z AUTO 00000KT 10SM BKN021 OVC060 07/03 A3025 RMK AO2 T00670033=
202302060653 METAR KPAE 060653Z AUTO 36005KT 10SM FEW039 SCT049 OVC060 07/03 A3022 RMK AO2 RAE29 SLP237 P0001 T00720033=
202302060553 METAR KPAE 060553Z AUTO 00000KT 10SM -RA OVC044 07/04 A3019 RMK AO2 RAB34 SLP225 P0000 60005 T00720039 10078 20067 53037=
202302060453 METAR KPAE 060453Z AUTO 00000KT 10SM SCT036 OVC055 07/04 A3015 RMK AO2 SLP211 T00720044=
202302060353 METAR KPAE 060353Z 34004KT 10SM BKN033 OVC040 07/05 A3011 RMK AO2 SLP199 T00720050=
202302060253 METAR KPAE 060253Z 31005KT 10SM FEW003 BKN007 OVC025 07/06 A3008 RMK AO2 RAE00B10E36 SLP187 P0001 60005 T00720056 53040=
202302060251 SPECI KPAE 060251Z VRB04KT 10SM FEW003 SCT010 OVC025 07/06 A3007 RMK AO2 RAE00B10E36 P0001=
202302060204 SPECI KPAE 060204Z 00000KT 2SM BR BKN006 OVC014 07/06 A3004 RMK AO2 RAE00 P0000 T00720061=
202302060153 METAR KPAE 060153Z 19003KT 2SM -RA BR FEW006 BKN015 OVC022 07/06 A3003 RMK AO2 RAB0055 SLP171 P0004 T00720061=
202302060129 SPECI KPAE 060129Z 00000KT 2SM -RA BR FEW008 BKN019 OVC025 08/06 A3001 RMK AO2 RAB0055 P0001 T00780061=
202302060118 SPECI KPAE 060118Z 00000KT 3SM -RA BR FEW008 OVC020 08/06 A3001 RMK AO2 RAB0055 P0001 T00780061=
202302060053 METAR KPAE 060053Z 15003KT 9SM OVC022 08/06 A3000 RMK AO2 RAE04 SLP160 P0000 T00780056=
202302060020 SPECI KPAE 060020Z 00000KT 10SM BKN029 OVC038 07/06 A2998 RMK AO2 RAE04 P0000 T00720061=
202302052353 METAR KPAE 052353Z 00000KT 7SM -RA FEW004 BKN037 OVC045 07/06 A2995 RMK AO2 SLP146 P0001 60003 T00720061 10078 20067 53023=
202302052317 SPECI KPAE 052317Z 00000KT 2SM -RA BR SCT004 BKN022 OVC027 08/06 A2994 RMK AO2 P0000 T00780061=
202302052253 METAR KPAE 052253Z 00000KT 6SM -RA BR SCT006 OVC019 08/06 A2993 RMK AO2 RAB29 SLP137 P0001 T00780061=
202302052200 SPECI KPAE 052200Z 16003KT 10SM SCT006 OVC019 07/06 A2990 RMK AO2 T00720056=
202302052153 METAR KPAE 052153Z 00000KT 10SM BKN006 07/06 A2990 RMK AO2 RAB2054E41 SLP127 P0000 T00720056=
202302052118 SPECI KPAE 052118Z 22003KT 10SM -RA BKN006 07/06 A2989 RMK AO2 RAB2054 P0000 T00720056=
202302052053 METAR KPAE 052053Z 25003KT 10SM SCT008 BKN045 OVC070 07/05 A2988 RMK AO2 RAE44 SLP122 P0001 60001 T00720050 51028=
202302051959 SPECI KPAE 051959Z 00000KT 10SM -RA SCT008 BKN045 OVC070 07/05 A2987 RMK AO2 P0000 T00720050=
202302051953 METAR KPAE 051953Z 23004KT 10SM -RA BKN006 BKN065 07/05 A2986 RMK AO2 RAB51 SLP115 P0000 T00720050=
202302051853 METAR KPAE 051853Z 25005KT 10SM BKN006 BKN065 07/04 A2984 RMK AO2 SLP106 T00720044=
202302051842 SPECI KPAE 051842Z 23005KT 10SM BKN008 BKN065 07/04 A2983 RMK AO2 T00720044=
202302051753 METAR KPAE 051753Z 00000KT 10SM SCT060 OVC110 07/04 A2980 RMK AO2 SLP094 T00670039 10078 20056 53037=
202302051653 METAR KPAE 051653Z 36003KT 10SM OVC080 07/04 A2976 RMK AO2 SLP079 T00670044=
202302051553 METAR KPAE 051553Z 36004KT 10SM BKN095 06/04 A2972 RMK AO2 SLP067 T00610039=
202302051453 METAR KPAE 051453Z 02004KT 10SM SCT110 06/04 A2969 RMK AO2 SLP056 T00610039 53013=
202302051353 METAR KPAE 051353Z AUTO 01003KT 10SM OVC085 07/04 A2967 RMK AO2 SLP050 T00670044=
202302051253 METAR KPAE 051253Z AUTO 02005KT 10SM OVC095 07/04 A2966 RMK AO2 SLP045 T00670044=
202302051153 METAR KPAE 051153Z AUTO 00000KT 10SM OVC100 08/03 A2965 RMK AO2 SLP042 70005 T00780028 10078 20067 56009=
202302051053 METAR KPAE 051053Z AUTO 05005KT 10SM OVC100 08/03 A2965 RMK AO2 SLP043 T00780028=
202302050953 METAR KPAE 050953Z AUTO 10007KT 10SM FEW080 OVC100 07/03 A2967 RMK AO2 SLP047 T00720033=
202302050853 METAR KPAE 050853Z AUTO 07009KT 10SM BKN065 BKN080 OVC090 07/04 A2968 RMK AO2 PRESFR SLP053 T00720039 57042=
202302050753 METAR KPAE 050753Z AUTO 10007KT 10SM OVC085 07/04 A2972 RMK AO2 SLP067 T00670044 401060067=
202302050653 METAR KPAE 050653Z AUTO 10008KT 10SM FEW055 FEW065 OVC095 07/05 A2976 RMK AO2 SLP081 T00670050=
202302050553 METAR KPAE 050553Z AUTO 12007KT 10SM OVC060 07/05 A2981 RMK AO2 RAE39 SLP095 P0001 60003 T00720050 10094 20072 58016=
202302050453 METAR KPAE 050453Z 15008KT 8SM -RA FEW032 OVC047 08/06 A2984 RMK AO2 SLP108 P0002 T00780056=
202302050353 METAR KPAE 050353Z 16009KT 10SM -RA FEW035 OVC050 08/05 A2985 RMK AO2 RAB05 SLP111 P0000 T00830050=
202302050253 METAR KPAE 050253Z 16014KT 10SM FEW047 BKN065 OVC095 09/04 A2985 RMK AO2 SLP111 60000 T00940044 56017=
202302050153 METAR KPAE 050153Z 14007KT 10SM FEW049 OVC060 09/05 A2987 RMK AO2 SLP116 T00890050=
202302050053 METAR KPAE 050053Z 11008KT 10SM OVC060 09/06 A2987 RMK AO2 RAE05 SLP116 P0000 T00940056=
202302042353 METAR KPAE 042353Z VRB03KT 10SM -RA OVC045 09/07 A2990 RMK AO2 RAE05B22 SLP128 P0001 60002 T00940067 10106 20078 56026=
202302042253 METAR KPAE 042253Z 10005KT 10SM -RA OVC046 09/07 A2992 RMK AO2 SLP135 P0001 T00940067=
202302042153 METAR KPAE 042153Z VRB04KT 10SM -RA BKN043 OVC055 10/06 A2995 RMK AO2 SLP143 P0000 T01000061=
202302042053 METAR KPAE 042053Z 12003KT 10SM -RA OVC055 08/06 A2998 RMK AO2 RAE1956B20 SLP155 P0000 60000 T00830056 58010=
202302041953 METAR KPAE 041953Z 11008KT 10SM -RA OVC043 08/05 A3000 RMK AO2 RAE01B42 SLP160 P0000 T00830050=
202302041853 METAR KPAE 041853Z 12005KT 10SM -RA OVC036 08/05 A3002 RMK AO2 RAB46 SLP166 P0000 T00830050=
202302041753 METAR KPAE 041753Z 11007KT 10SM BKN033 OVC042 08/04 A3001 RMK AO2 SLP165 T00830044 10083 20067 55000=
202302041744 SPECI KPAE 041744Z 12004KT 10SM OVC031 08/05 A3001 RMK AO2 T00830050=
202302041653 METAR KPAE 041653Z 14007KT 10SM BKN027 OVC037 08/05 A3001 RMK AO2 SLP166 T00780050=
202302041553 METAR KPAE 041553Z 12004KT 10SM FEW030 BKN046 OVC055 07/04 A3001 RMK AO2 SLP165 T00670044=
202302041453 METAR KPAE 041453Z 15011KT 10SM FEW031 OVC080 08/04 A3001 RMK AO2 SLP166 T00780044 58007=
202302041353 METAR KPAE 041353Z AUTO 15011KT 10SM SCT080 OVC100 08/04 A3002 RMK AO2 SLP170 T00780044=
202302041253 METAR KPAE 041253Z AUTO 16017KT 10SM BKN110 07/04 A3002 RMK AO2 SLP169 T00720044=
202302041153 METAR KPAE 041153Z AUTO 16015G21KT 10SM CLR 07/05 A3003 RMK AO2 SLP173 60001 70013 T00720050 10078 20072 58002=
202302041053 METAR KPAE 041053Z AUTO 17015G23KT 10SM SCT120 07/04 A3004 RMK AO2 SLP175 T00720044=
202302040953 METAR KPAE 040953Z AUTO 16013KT 8SM FEW027 SCT032 OVC110 07/05 A3004 RMK AO2 RAE0857B14E23 SLP174 P0000 T00720050=
202302040853 METAR KPAE 040853Z AUTO 16013G19KT 7SM -RA SCT027 BKN034 OVC075 07/05 A3004 RMK AO2 RAB37 SLP175 P0001 60001 T00720050 52010=
202302040836 SPECI KPAE 040836Z AUTO 16015G23KT 7SM BKN027 BKN036 OVC070 08/04 A3004 RMK AO2 T00780044=
202302040753 METAR KPAE 040753Z AUTO 16013KT 10SM FEW026 OVC100 08/04 A3004 RMK AO2 PK WND 16028/0654 SLP174 T00780044 400940044=
202302040653 METAR KPAE 040653Z AUTO 16021G28KT 10SM CLR 08/04 A3002 RMK AO2 PK WND 17028/0652 SLP166 T00780044=
202302040553 METAR KPAE 040553Z AUTO 17015G25KT 10SM FEW013 FEW022 08/05 A3001 RMK AO2 PK WND 16030/0506 SLP166 60002 T00780050 10078 20072 51027=
202302040500 SPECI KPAE 040500Z AUTO 17016G28KT 10SM FEW017 08/04 A2999 RMK AO2 PK WND 15028/0458 T00780044=
202302040453 METAR KPAE 040453Z 17015G26KT 10SM FEW017 BKN025 BKN120 08/05 A2998 RMK AO2 PK WND 18036/0418 SLP156 T00780050=
202302040353 METAR KPAE 040353Z 18021G28KT 10SM FEW019 BKN024 OVC029 08/05 A2996 RMK AO2 PK WND 17034/0318 RAE0254 SLP148 P0000 T00780050=
202302040335 SPECI KPAE 040335Z 16014G29KT 10SM FEW017 BKN026 OVC110 08/04 A2996 RMK AO2 PK WND 17034/0318 RAE0254 P0000 T00780044=
202302040315 SPECI KPAE 040315Z 18023G34KT 10SM SCT020 BKN043 OVC110 07/04 A2995 RMK AO2 PK WND 19034/0307 RAE0254 P0000 T00720044=
202302040253 METAR KPAE 040253Z 18023G35KT 10SM -RA SCT017 BKN024 OVC100 07/05 A2993 RMK AO2 PK WND 18035/0251 RAE0158B44 SLP138 P0000 60002 T00720050 53015=
202302040153 METAR KPAE 040153Z 18021G33KT 10SM -RA SCT016 BKN022 OVC037 07/05 A2990 RMK AO2 PK WND 18038/0131 SLP128 P0001 T00720050=
202302040053 METAR KPAE 040053Z 18019G33KT 6SM -RA FEW019 BKN030 OVC039 08/04 A2990 RMK AO2 PK WND 18033/0035 SLP129 P0001 T00780044=
202302040044 SPECI KPAE 040044Z 17017G33KT 6SM -RA FEW019 BKN030 OVC039 08/04 A2990 RMK AO2 PK WND 18033/0035 P0001 T00780044=
202302040000 SPECI KPAE 040000Z 16013G23KT 6SM -RA SCT023 BKN028 OVC035 08/04 A2989 RMK AO2 P0000 T00780044=
202302032353 METAR KPAE 032353Z 16012G26KT 6SM -RA FEW019 BKN030 OVC039 08/05 A2988 RMK AO2 PK WND 18038/2320 SLP122 P0002 60010 T00780050 10094 20067 53015=
202302032253 METAR KPAE 032253Z 17019G29KT 6SM -RA BKN035 BKN047 OVC055 08/04 A2985 RMK AO2 PK WND 16029/2248 SLP111 P0006 T00830039=
202302032153 METAR KPAE 032153Z 18021G31KT 6SM -RA FEW019 OVC037 09/03 A2986 RMK AO2 PK WND 15031/2153 RAB00 SLP113 P0001 T00890028=
202302032053 METAR KPAE 032053Z 15016G29KT 10SM SCT044 OVC055 09/01 A2984 RMK AO2 PK WND 16039/2025 RAE37 SLP106 P0001 60001 T00890011 50007=
202302031953 METAR KPAE 031953Z 18013G17KT 10SM -RA BKN050 OVC060 09/M01 A2985 RMK AO2 RAB35 SLP110 P0000 T00941011=
202302031853 METAR KPAE 031853Z 17010KT 10SM SCT075 BKN100 BKN120 08/M02 A2984 RMK AO2 SLP107 T00831022=
202302031753 METAR KPAE 031753Z 14009G16KT 10SM CLR 07/M02 A2982 RMK AO2 SLP100 T00671022 10083 20050 50007=
202302031653 METAR KPAE 031653Z 16011KT 10SM SCT120 07/M02 A2982 RMK AO2 SLP101 T00671022=
202302031553 METAR KPAE 031553Z 15004KT 10SM BKN120 08/M04 A2980 RMK AO2 SLP093 T00831044=
202302031453 METAR KPAE 031453Z 11006KT 10SM BKN120 07/M03 A2980 RMK AO2 SLP092 T00671028 58020=
202302031353 METAR KPAE 031353Z AUTO 00000KT 10SM FEW120 05/M03 A2983 RMK AO2 SLP103 T00501028=
202302031253 METAR KPAE 031253Z AUTO 00000KT 10SM CLR 06/M04 A2984 RMK AO2 SLP106 T00561039=
202302031153 METAR KPAE 031153Z AUTO 10009KT 10SM CLR 08/M04 A2986 RMK AO2 SLP112 T00781039 10089 20044 58028=
202302031053 METAR KPAE 031053Z AUTO 11004KT 10SM BKN110 07/M04 A2990 RMK AO2 SLP128 T00671044=
202302030953 METAR KPAE 030953Z AUTO 09005KT 10SM CLR 07/M04 A2991 RMK AO2 SLP131 T00721044=
202302030853 METAR KPAE 030853Z AUTO 09004KT 10SM CLR 07/M04 A2994 RMK AO2 SLP141 T00721044 56036=
202302030753 METAR KPAE 030753Z AUTO 10006KT 10SM CLR 08/M04 A2997 RMK AO2 SLP149 T00781044 401170033=
202302030653 METAR KPAE 030653Z AUTO 11007KT 10SM BKN110 08/M04 A3001 RMK AO2 SLP163 T00831044=
202302030553 METAR KPAE 030553Z AUTO 12010G15KT 10SM CLR 07/M03 A3005 RMK AO2 SLP179 T00671033 10117 20067 58008=
202302030453 METAR KPAE 030453Z 13008G17KT 090V180 10SM SCT075 OVC095 08/M03 A3006 RMK AO2 PRESFR SLP182 T00831033=
202302030353 METAR KPAE 030353Z VRB04KT 10SM CLR 08/M02 A3007 RMK AO2 SLP185 T00831017=
202302030253 METAR KPAE 030253Z 14007KT 10SM CLR 09/M02 A3007 RMK AO2 SLP187 T00941017 56008=
202302030153 METAR KPAE 030153Z 15008KT 10SM CLR 10/M02 A3008 RMK AO2 SLP188 T01001017=
202302030053 METAR KPAE 030053Z 15009KT 10SM CLR 11/M02 A3009 RMK AO2 SLP193 T01061017=
202302022353 METAR KPAE 022353Z 17012KT 10SM CLR 12/M02 A3010 RMK AO2 SLP194 T01171017 10117 20072 56009=
202302022253 METAR KPAE 022253Z 16011KT 10SM CLR 11/M02 A3010 RMK AO2 SLP197 T01111017=
202302022153 METAR KPAE 022153Z 16009KT 10SM CLR 11/00 A3011 RMK AO2 SLP198 T01060000=
202302022053 METAR KPAE 022053Z 15009KT 10SM CLR 10/M01 A3013 RMK AO2 SLP205 T01001011 58007=
202302021953 METAR KPAE 021953Z VRB05KT 10SM CLR 09/01 A3014 RMK AO2 SLP211 T00890006=
202302021853 METAR KPAE 021853Z 14006KT 10SM CLR 08/00 A3015 RMK AO2 SLP213 T00780000=
202302021753 METAR KPAE 021753Z 16010KT 10SM CLR 07/00 A3015 RMK AO2 SLP213 T00720000 10072 20033 51011=
202302021653 METAR KPAE 021653Z 15009KT 10SM CLR 06/M03 A3014 RMK AO2 SLP210 T00561028=
202302021553 METAR KPAE 021553Z 14009KT 10SM CLR 03/M04 A3013 RMK AO2 SLP206 T00331044=
202302021453 METAR KPAE 021453Z 15010KT 10SM CLR 03/M04 A3011 RMK AO2 SLP202 T00331044 51001=
202302021353 METAR KPAE 021353Z AUTO 15009KT 10SM CLR 04/M04 A3011 RMK AO2 SLP201 T00441039=
202302021253 METAR KPAE 021253Z AUTO 16005KT 10SM CLR 04/M06 A3012 RMK AO2 SLP203 T00391056=
202302021153 METAR KPAE 021153Z AUTO 14006KT 10SM CLR 04/M06 A3011 RMK AO2 SLP200 T00441061 10050 20039 56004=
202302021053 METAR KPAE 021053Z AUTO 16005KT 10SM CLR 04/M06 A3011 RMK AO2 SLP201 T00441061=
202302020953 METAR KPAE 020953Z AUTO 14006KT 10SM CLR 04/M07 A3012 RMK AO2 SLP202 T00441067=
202302020853 METAR KPAE 020853Z AUTO VRB05KT 10SM CLR 05/M06 A3012 RMK AO2 SLP204 T00501061 50002=
202302020753 METAR KPAE 020753Z AUTO 12004KT 10SM CLR 04/M06 A3013 RMK AO2 SLP206 T00391056 400780022=
202302020653 METAR KPAE 020653Z AUTO 11004KT 10SM CLR 04/M06 A3013 RMK AO2 SLP205 T00391056=
202302020553 METAR KPAE 020553Z AUTO 11006KT 10SM CLR 04/M05 A3012 RMK AO2 SLP203 T00391050 10078 20039 58002=
202302020453 METAR KPAE 020453Z AUTO 11004KT 10SM CLR 05/M04 A3012 RMK AO2 SLP206 T00501039=
202302020353 METAR KPAE 020353Z 00000KT 10SM CLR 06/M04 A3012 RMK AO2 SLP205 T00561039=
202302020253 METAR KPAE 020253Z 00000KT 10SM CLR 06/M03 A3012 RMK AO2 SLP204 T00611033 50000=
202302020153 METAR KPAE 020153Z 00000KT 10SM CLR 05/M02 A3012 RMK AO2 SLP206 T00501022=
202302020053 METAR KPAE 020053Z VRB03KT 10SM CLR 07/M03 A3012 RMK AO2 SLP205 T00671033=
202302012353 METAR KPAE 012353Z 16008KT 10SM CLR 08/M04 A3012 RMK AO2 SLP204 T00781039 10078 20039 55005=
202302012253 METAR KPAE 012253Z VRB05KT 10SM CLR 07/M02 A3012 RMK AO2 SLP203 T00721022=
202302012153 METAR KPAE 012153Z 15006KT 10SM CLR 08/M02 A3013 RMK AO2 SLP207 T00781022=
202302012053 METAR KPAE 012053Z 15004KT 10SM CLR 07/M03 A3014 RMK AO2 SLP209 T00671028 58003=
202302011953 METAR KPAE 011953Z 17005KT 10SM CLR 06/M04 A3014 RMK AO2 SLP210 T00561039=
202302011853 METAR KPAE 011853Z 16006KT 10SM CLR 05/M04 A3015 RMK AO2 SLP213 T00501044=
202302011753 METAR KPAE 011753Z 15008KT 10SM CLR 04/M06 A3015 RMK AO2 SLP213 T00391061 10039 20028 51004=
202302011653 METAR KPAE 011653Z VRB04KT 10SM BKN038 03/M05 A3014 RMK AO2 SLP212 T00281050=
202302011642 SPECI KPAE 011642Z VRB03KT 10SM SCT026 OVC038 03/M05 A3014 RMK AO2 T00281050=
202302011553 METAR KPAE 011553Z VRB03KT 10SM OVC026 03/M05 A3014 RMK AO2 SLP212 T00281050=
202302011453 METAR KPAE 011453Z VRB03KT 10SM OVC025 03/M04 A3013 RMK AO2 SLP209 T00281044 56003=
202302011443 SPECI KPAE 011443Z VRB03KT 10SM BKN024 OVC037 03/M04 A3013 RMK AO2 T00281044=
202302011353 METAR KPAE 011353Z 15007KT 10SM SCT029 OVC034 03/M04 A3014 RMK AO2 SLP210 T00281044=
202302011309 SPECI KPAE 011309Z 16005KT 10SM BKN028 OVC034 03/M04 A3014 RMK AO2 T00281039=
202302011253 METAR KPAE 011253Z 15004KT 10SM OVC034 03/M04 A3014 RMK AO2 SLP211 T00281044=
202302011237 SPECI KPAE 011237Z VRB03KT 10SM SCT028 OVC038 03/M04 A3014 RMK AO2 T00281039=
202302011222 SPECI KPAE 011222Z VRB05KT 10SM BKN029 OVC038 03/M04 A3014 RMK AO2 T00331039=
202302011153 METAR KPAE 011153Z 15005KT 10SM FEW027 SCT037 SCT120 03/M03 A3014 RMK AO2 SLP212 T00331033 10033 20022 58002=
202302011053 METAR KPAE 011053Z 15007KT 10SM SCT027 BKN039 BKN110 03/M03 A3015 RMK AO2 SLP216 T00281033=
202302010953 METAR KPAE 010953Z 00000KT 10SM OVC035 03/M03 A3015 RMK AO2 SLP214 T00281028=
202302010853 METAR KPAE 010853Z 11003KT 10SM OVC035 03/M03 A3015 RMK AO2 SLP214 T00281033 50001=
202302010753 METAR KPAE 010753Z 00000KT 10SM BKN034 OVC110 03/M03 A3016 RMK AO2 SLP218 T00331033 400391006=
202302010653 METAR KPAE 010653Z 17003KT 10SM BKN031 OVC090 03/M03 A3016 RMK AO2 SLP219 T00281033=
202302010553 METAR KPAE 010553Z 00000KT 10SM BKN030 OVC100 03/M04 A3015 RMK AO2 SLP213 T00331039 10039 20017 55003=
202302010453 METAR KPAE 010453Z 00000KT 10SM FEW032 OVC085 03/M03 A3014 RMK AO2 SLP213 T00331033=
202302010353 METAR KPAE 010353Z 00000KT 10SM OVC110 03/M03 A3016 RMK AO2 SLP218 T00281028=
202302010253 METAR KPAE 010253Z 00000KT 10SM OVC110 03/M03 A3016 RMK AO2 SLP217 T00331033 58009=
202302010153 METAR KPAE 010153Z 00000KT 10SM SCT029 BKN120 02/M03 A3017 RMK AO2 SLP223 T00221028=
202302010053 METAR KPAE 010053Z 15004KT 10SM FEW120 03/M06 A3017 RMK AO2 SLP222 T00331056=

# No short TAF reports from KPAE in databse.

###################################
#  large TAF from KPAE
###################################
202302282359 KPAE 282359Z 0100/0124 02005KT P6SM VCSH BKN040
                      TEMPO 0100/0101 BKN009 FM010500 09004KT P6SM
                       BKN050 FM011100 VRB03KT 5SM BR BKN015 OVC050
                       FM011900 16007KT P6SM OVC050=
202302282320 TAF KPAE 282320Z 0100/0124 02005KT P6SM VCSH BKN040 FM010500 09004KT
                       P6SM BKN050 FM011100 VRB03KT 5SM BR BKN015
                       OVC050 FM011900 16007KT P6SM OVC050=
202302282102 KPAE 282102Z 2821/0118 VRB05KT 5SM -RASN BKN020 OVC050
                      TEMPO 2821/2823 1SM -SN BR BKN004 BKN010
                       FM010000 35005KT P6SM VCSH BKN040 FM010500
                       VRB03KT P6SM BKN050 FM011200 VRB03KT 5SM
                       BR BKN020 OVC050=
202302282006 KPAE 282006Z 2820/0118 VRB03KT 5SM -SN BKN020 OVC050
                      TEMPO 2820/2822 31006KT 1SM -SN BR BKN004
                       FM282200 29006KT 6SM -RASN SCT025 OVC030
                       FM010000 23005KT P6SM VCSH BKN040 FM010500
                       VRB03KT P6SM BKN050 FM011200 VRB03KT 5SM
                       BR BKN020 OVC050=
202302281721 TAF KPAE 281721Z 2818/0118 18005KT 5SM -SN BKN015 OVC050
                      TEMPO 2818/2821 31006KT 2SM -SN BR BKN010
                       FM282100 29006KT 6SM -RASN SCT025 OVC030
                       FM010000 23005KT P6SM VCSH BKN040 FM010500
                       VRB03KT P6SM BKN050 FM011200 VRB03KT 5SM
                       BR BKN020 OVC050=
202302281617 KPAE 281617Z 2816/0112 21007KT 5SM -SN BKN012 OVC030
                      TEMPO 2816/2820 31007KT 2SM -SN BR BKN005
                       FM282000 29006KT 6SM -RASN OVC030 FM010000
                       23005KT P6SM VCSH BKN040 FM010500 VRB03KT
                       P6SM BKN050=
202302281207 KPAE 281207Z 2812/0112 16005KT 6SM -SN BR SCT007 BKN015 OVC030
                       TEMPO 2812/2816 3SM -SN BR BKN004 OVC010
                       FM281600 19007KT 5SM -SN BKN017 OVC035 FM282100
                       20006KT 6SM -RASN OVC030 FM010000 23005KT
                       P6SM VCSH BKN040 FM010500 VRB03KT P6SM BKN050=
202302281136 TAF KPAE 281136Z 2812/0112 16005KT 3SM -SN BR BKN015 OVC030 FM281700
                       19007KT 5SM -SN BKN022 OVC035 FM282100 20006KT
                       6SM -RASN OVC030 FM010000 23005KT P6SM VCSH
                       BKN040 FM010500 VRB03KT P6SM BKN050=
202302280540 TAF KPAE 280540Z 2806/0106 12006KT P6SM VCSH BKN050 FM280800 16005KT
                       3SM -SN BR OVC010 FM281700 19007KT P6SM
                       -SHSN OVC025 FM282100 30003KT P6SM OVC050=
202302272323 TAF KPAE 272323Z 2800/2824 12007KT P6SM -SHRASN OVC030 FM280200
                       12006KT P6SM VCSH OVC050 FM281000 16005KT
                       6SM -SN BR OVC010 FM281700 19007KT P6SM
                       OVC020=
202302272212 KPAE 272212Z 2722/2818 12007KT 6SM -SHRASN OVC030
                      TEMPO 2722/2802 2SM -SN OVC005 FM280200 12006KT
                       P6SM OVC050 FM281000 16005KT 6SM -SN BR
                       OVC025 FM281600 19007KT P6SM OVC025=
202302272107 KPAE 272107Z 2721/2818 10008KT P6SM BKN030 OVC050
                      TEMPO 2721/2722 4SM -SN OVC005 FM272200 10007KT
                       6SM -SHRASN OVC030 FM280200 12006KT P6SM
                       OVC050 FM281000 16005KT 6SM -SN BR OVC025
                       FM281600 19007KT P6SM OVC025=
202302271734 TAF KPAE 271734Z 2718/2818 10008KT P6SM BKN030 OVC050
                      TEMPO 2718/2722 5SM -SN OVC020 FM272200 10007KT
                       6SM -SHRASN OVC030 FM280200 12006KT P6SM
                       OVC050 FM281000 16005KT 6SM -SN BR OVC025
                       FM281600 19007KT P6SM OVC025=
202302271140 TAF KPAE 271140Z 2712/2812 13008KT P6SM BKN045 FM271400 12007KT
                       P6SM OVC035 FM271800 10005KT 5SM -SN OVC020
                       FM272200 10007KT 6SM -SHRASN OVC030 FM280200
                       14006KT P6SM OVC050 FM281000 16005KT 6SM
                       -SN BR OVC025=
202302270548 TAF KPAE 270548Z 2706/2806 24010KT P6SM -SHRA BKN045 FM270700 16008KT
                       P6SM VCSH OVC030 FM271200 13006KT P6SM VCSH
                       OVC050 FM271800 10005KT P6SM -SN OVC025
                       FM272200 10007KT 6SM -SHRASN OVC025 FM280200
                       14006KT P6SM OVC050=
202302262327 TAF KPAE 262327Z 2700/2724 26012G20KT P6SM -RA OVC035
                      TEMPO 2700/2702 -RASN OVC020 FM270300 24010KT
                       P6SM VCSH OVC050 FM270700 16008KT P6SM VCSH
                       OVC030 FM271200 13006KT P6SM VCSH OVC050
                       FM271800 10005KT P6SM -SHRA OVC025=
202302261727 TAF KPAE 261727Z 2618/2718 23010G18KT P6SM BKN015 OVC020 FM262000
                       26012G20KT P6SM VCSH OVC035 FM270100 24010KT
                       P6SM OVC050 FM270700 16008KT P6SM -SHRA
                       OVC030 FM271200 13006KT P6SM VCSH OVC020=
202302261311 KPAE 261311Z 2613/2712 15008KT P6SM VCSH SCT007 BKN012 OVC020
                      TEMPO 2613/2616 17010G20KT 4SM -SN BR OVC010
                       FM261600 23010G18KT 5SM BR VCSH OVC020 FM262000
                       26012G20KT P6SM VCSH OVC030 FM270100 24010KT
                       P6SM OVC050=
202302261139 TAF KPAE 261139Z 2612/2712 15012G20KT 1SM -SN BR BKN004 OVC012
                       FM261400 17012G20KT 2SM -SN BR OVC015 FM261600
                       23010G18KT 5SM -SHSN OVC020 FM262000 26012G20KT
                       P6SM VCSH OVC030 FM270100 24010KT P6SM OVC050=
202302260548 TAF KPAE 260548Z 2606/2706 16010KT P6SM OVC070 FM260800 16012G19KT
                       2SM -RASN OVC040 FM260900 16012G19KT 1SM
                       -SN OVC015 FM261500 23010G17KT 5SM -SHRASN
                       OVC025 FM262000 26012G19KT P6SM VCSH OVC050
                       FM270100 24010KT P6SM OVC050=
202302252320 TAF KPAE 252320Z 2600/2624 16005KT P6SM OVC080 FM260300 16008KT
                       6SM -RASN OVC035 FM260600 15010KT 3SM -RASN
                       OVC020 FM261100 16012G19KT 2SM -SHRASN OVC015
                       FM261700 23010G17KT 5SM -SHRASN OVC025 FM262000
                       26012G19KT P6SM -SHRASN OVC050=
202302251722 TAF KPAE 251722Z 2518/2618 16003KT P6SM BKN100 FM260100 16007KT
                       6SM -RASN OVC035 FM260600 15010KT 5SM -RASN
                       OVC020 FM261100 16012G19KT 4SM -SHRASN OVC015
                       FM261700 23010G17KT 5SM -SHRASN OVC025=
202302251132 TAF KPAE 251132Z 2512/2612 10003KT P6SM SCT120 FM251300 11004KT
                       P6SM OVC100 FM260100 16007KT 6SM -RASN OVC035
                       FM260600 15010KT 5SM -RASN OVC015=
202302250528 TAF KPAE 250528Z 2506/2606 02002KT P6SM SCT120 FM251200 10003KT
                       P6SM BKN100 FM251400 11004KT P6SM OVC100
                       FM260100 16007KT 6SM -RASN OVC035=
202302242320 TAF KPAE 242320Z 2500/2524 35004KT P6SM SKC FM250500 VRB02KT P6SM
                       SCT250 FM251300 10003KT P6SM BKN250 FM252000
                       11004KT P6SM OVC100=
202302241720 TAF KPAE 241720Z 2418/2518 06004KT P6SM SKC FM242200 35004KT P6SM
                       SKC FM250500 02002KT P6SM SKC FM251400 11004KT
                       P6SM OVC100=
202302241130 TAF KPAE 241130Z 2412/2512 06004KT P6SM SKC FM242200 35004KT P6SM
                       SKC=
202302240536 TAF KPAE 240536Z 2406/2506 11008KT P6SM FEW050 FM240800 06004KT
                       P6SM SKC FM242200 35005KT P6SM SKC=
202302232320 TAF KPAE 232320Z 2400/2424 05010KT P6SM SCT250 FM240300 04006KT
                       P6SM SCT200 FM240800 02004KT P6SM SKC FM241500
                       01004KT P6SM SKC=
202302231724 TAF KPAE 231724Z 2318/2418 10010G20KT P6SM OVC050 FM232000 02010KT
                       P6SM BKN080 FM240100 04008KT P6SM SCT200
                       FM240800 02006KT P6SM SKC=
202302231133 TAF KPAE 231133Z 2312/2412 09012KT P6SM OVC060 FM231800 06012KT
                       P6SM BKN080 FM240100 04008KT P6SM SCT200=
202302230520 TAF KPAE 230520Z 2306/2406 05010KT P6SM BKN050 FM231200 07006KT
                       P6SM BKN070 FM231800 03009KT P6SM BKN120
                       FM240300 10008KT P6SM SCT200=
202302222332 TAF KPAE 222332Z 2300/2324 36010KT P6SM SCT015 BKN050
                      TEMPO 2300/2302 BKN015 FM230300 05010KT P6SM
                       SCT022 BKN050 FM231200 07006KT P6SM BKN070
                       FM231800 03009KT P6SM BKN120=
202302222119 KPAE 222119Z 2221/2318 02010G18KT P6SM SCT012 BKN035
                      TEMPO 2221/2301 BKN009 FM230300 05010KT P6SM
                       BKN050 FM231200 09005KT P6SM BKN100=
202302221721 TAF KPAE 221721Z 2218/2318 36010KT P6SM VCSH SCT010 BKN025
                      TEMPO 2218/2220 5SM -SHSN BKN009 OVC020 FM222100
                       03010KT P6SM BKN035 FM230300 05010KT P6SM
                       BKN050 FM231200 09005KT P6SM BKN100=
202302221542 KPAE 221542Z 2216/2312 33008KT 6SM -SN SCT008 OVC020
                      TEMPO 2216/2218 2SM -SN OVC012 FM221800 36010KT
                       P6SM VCSH SCT020 OVC040 FM222200 03010KT
                       P6SM BKN050 FM230300 09010KT P6SM BKN100=
202302221139 TAF KPAE 221139Z 2212/2312 36006KT P6SM BKN006 OVC012 FM221500
                       36010KT P6SM SCT006 OVC012 FM221800 36010KT
                       P6SM SCT020 OVC040 FM222200 03010KT P6SM
                       BKN050 FM230300 09010KT P6SM BKN100=
202302220526 TAF KPAE 220526Z 2206/2306 VRB05KT P6SM VCSH SCT025 OVC040 FM220700
                       01007KT P6SM VCSH SCT030 OVC035
                      TEMPO 2208/2212 BKN020 FM221500 02011KT P6SM
                       VCSH OVC050=
202302220319 KPAE 220319Z 2203/2224 VRB05KT P6SM -SHRA SCT025 OVC040
                      TEMPO 2203/2207 5SM -RASN BR BKN020 FM220700
                       01008KT P6SM VCSH SCT030 OVC035 FM221500
                       02009KT P6SM BKN050=
202302220101 KPAE 220101Z 2201/2224 VRB05KT P6SM -SHRA BKN030
                      TEMPO 2201/2205 2SM -RASN BR OVC006 FM220600
                       01008KT P6SM VCSH SCT030 OVC035 FM221500
                       02009KT P6SM BKN050=
202302212322 TAF KPAE 212322Z 2200/2224 VRB05KT P6SM VCSH BKN035
                      TEMPO 2200/2204 6SM -SHRA BR OVC025 FM220600
                       01008KT P6SM SCT030 OVC050 FM221500 02009KT
                       P6SM BKN050=
202302211731 TAF KPAE 211731Z 2118/2218 16008KT P6SM SCT025 BKN040 OVC080 FM211900
                       22008KT P6SM VCSH SCT025 BKN040 FM212300
                       30008KT P6SM -SHRA OVC025 FM220600 01010KT
                       P6SM SCT030 OVC050=
202302211143 TAF KPAE 211143Z 2112/2212 29008KT P6SM SCT025 BKN040 OVC080
                      TEMPO 2112/2116 -SHRA BKN025 OVC040 FM211900
                       22008KT P6SM VCSH SCT025 BKN040 FM212300
                       30008KT P6SM -SHRA OVC025 FM220600 01010KT
                       P6SM SCT030 OVC050=
202302210921 KPAE 210921Z 2109/2206 25010KT P6SM SCT020 FM211300 22012KT P6SM
                       VCSH BKN030 FM212300 30008KT P6SM -SHRA
                       OVC025=
202302210523 TAF KPAE 210523Z 2106/2206 25012G18KT P6SM -SHRA OVC010 FM210800
                       23018G27KT P6SM SCT015 OVC025 FM211200 27012KT
                       P6SM VCSH BKN030 FM211900 26010KT P6SM -SHRA
                       BKN020 OVC035 FM212300 27007KT P6SM -SHRA
                       OVC025=
202302202334 TAF KPAE 202334Z 2100/2124 19018G28KT 6SM -RA BR BKN015 OVC025
                       FM210300 23018G30KT P6SM -SHRA SCT015 OVC025
                       FM210600 25012G18KT P6SM -SHRA SCT015 OVC035
                       FM211200 27012KT P6SM VCSH BKN030 FM211900
                       26010KT P6SM -SHRA BKN020 OVC035=
202302202006 KPAE 202006Z 2020/2118 19012G22KT 6SM -RA BR BKN008 OVC015 FM210300
                       23018G30KT P6SM -SHRA BKN013 OVC025 FM210600
                       29012G18KT P6SM -SHRA SCT015 OVC035 FM211200
                       27012KT P6SM VCSH BKN030=
202302201735 TAF KPAE 201735Z 2018/2118 17006KT P6SM -RA OVC005 FM202100 19012G20KT
                       4SM -RA BR OVC005 FM210300 23018G30KT P6SM
                       -SHRA BKN010 OVC020 FM210600 29012G18KT
                       P6SM -SHRA SCT015 OVC035 FM211200 27012KT
                       P6SM VCSH BKN030=
202302201122 TAF KPAE 201122Z 2012/2112 17006KT P6SM -RA OVC005 FM202100 19012G20KT
                       4SM -RA BR OVC005 FM210300 23018G30KT P6SM
                       -SHRA BKN010 OVC020 FM210600 29012KT P6SM
                       -SHRA SCT015 OVC040=
202302200540 TAF KPAE 200540Z 2006/2106 16004KT 5SM BR OVC005 FM201000 18009KT
                       2SM -RA BR BKN007 OVC015 FM202100 19012G19KT
                       3SM -RA BR BKN007 OVC015 FM210000 20020G31KT
                       P6SM -RA OVC028=
202302200034 KPAE 200034Z 2001/2024 17008KT 4SM -RA BR BKN006 OVC020 FM201200
                       17009KT 3SM -RA BR BKN007 OVC015=
202302192331 TAF KPAE 192331Z 2000/2024 17008KT 6SM -RA BR FEW005 OVC015 FM201200
                       17009KT 3SM -RA BR BKN007 OVC015=
202302191720 TAF KPAE 191720Z 1918/2018 17008KT 4SM -RA BR FEW005 OVC015
                      TEMPO 1918/1920 2SM -RA BR BKN003 FM201200
                       17009KT 3SM -RA BR BKN007 OVC015=
202302191409 KPAE 191409Z 1914/2012 16006KT P6SM SCT003 BKN015 OVC060
                      TEMPO 1914/1918 4SM BR BKN003 OVC015 FM191800
                       17008KT 5SM -RA BR OVC015=
202302191120 TAF KPAE 191120Z 1912/2012 19004KT P6SM -RA BKN025 OVC045 FM191600
                       17008KT 5SM -RA BR OVC015=
202302190543 TAF KPAE 190543Z 1906/2006 VRB04KT P6SM OVC045 FM191200 16005KT
                       5SM BR OVC035 FM191500 17006KT 5SM BR OVC015
                       FM191800 18008KT 2SM BR OVC010 FM192300
                       18007KT 6SM BR OVC015 FM200100 17005KT 4SM
                       -RA BR OVC015=
202302182328 TAF KPAE 182328Z 1900/1924 29005KT P6SM BKN010 OVC025 FM190300
                       VRB03KT P6SM SCT010 BKN025 OVC050 FM190800
                       21005KT 5SM -DZ BR OVC010 FM192200 18007KT
                       6SM BR OVC010=
202302181720 TAF KPAE 181720Z 1818/1918 17007KT 6SM -DZ BR OVC010 FM182300 35005KT
                       P6SM OVC015 FM190300 VRB03KT P6SM OVC025
                       FM190600 15003KT P6SM OVC015=
202302181126 TAF KPAE 181126Z 1812/1912 16008KT P6SM SCT013 OVC060
                      TEMPO 1812/1816 OVC013 FM181600 19007KT 6SM
                       -DZ BR OVC010 FM182300 35004KT P6SM OVC015
                       FM190300 VRB03KT P6SM OVC025 FM190600 15003KT
                       P6SM OVC015=
202302180539 TAF KPAE 180539Z 1806/1906 VRB03KT P6SM VCSH BKN025 FM181000 16004KT
                       P6SM BKN012 FM181700 19007KT 6SM -RA BR
                       OVC011 FM190100 VRB03KT 6SM BR OVC015=
202302172325 TAF KPAE 172325Z 1800/1824 VRB03KT P6SM VCSH SCT012 BKN025
                      TEMPO 1803/1807 BKN012 FM180700 16004KT P6SM
                       BKN012 FM181700 19007KT 6SM -RA BR OVC011=
202302172021 KPAE 172021Z 1720/1818 VRB04KT P6SM SCT006 OVC020
                      TEMPO 1720/1722 BKN005 FM180100 21005KT P6SM
                       OVC025 FM180900 17005KT P6SM VCSH OVC018
                       FM181700 19007KT 6SM -RA BR OVC011=
202302171729 TAF KPAE 171729Z 1718/1818 17004KT 6SM BR VCSH SCT005 OVC013
                      TEMPO 1718/1720 2SM BR BKN003 FM172000 19006KT
                       P6SM VCSH OVC015 FM180100 21005KT P6SM OVC025
                       FM180900 17005KT P6SM VCSH OVC018 FM181700
                       19007KT 6SM -RA BR OVC011=
202302171614 KPAE 171614Z 1716/1812 17004KT 6SM BR VCSH SCT008 OVC017
                      TEMPO 1716/1718 2SM BR BKN004 FM172000 23006KT
                       P6SM VCSH OVC015 FM180100 21005KT P6SM OVC035
                       FM181100 17005KT P6SM VCSH OVC018=
202302171128 TAF KPAE 171128Z 1712/1812 16007KT P6SM -RA OVC020 FM171400 17007KT
                       P6SM -RA OVC017 FM172000 23006KT P6SM VCSH
                       OVC015 FM180100 21005KT P6SM OVC035 FM181100
                       17005KT P6SM VCSH OVC018=
202302170852 KPAE 170852Z 1709/1806 15006KT P6SM VCSH OVC030 FM171000 16007KT
                       P6SM -RA OVC020 FM171400 17007KT P6SM -RA
                       OVC017 FM172200 23006KT P6SM BKN030=
202302170529 TAF KPAE 170529Z 1706/1806 15010KT P6SM BKN050 OVC070 FM171000
                       16007KT P6SM -RA OVC020 FM171400 17007KT
                       P6SM -RA OVC017 FM172200 23006KT P6SM BKN030=
202302170003 KPAE 170003Z 1700/1724 18012KT P6SM OVC060 FM170600 16010KT P6SM
                       OVC040 FM171100 16007KT P6SM -RA OVC020
                       FM171400 17007KT P6SM -RA OVC017 FM172200
                       21006KT P6SM BKN030=
202302162320 TAF KPAE 162320Z 1700/1724 16009KT P6SM OVC060 FM170600 16008KT
                       P6SM OVC040 FM171100 16007KT P6SM -RA OVC020
                       FM171400 17007KT P6SM -RA OVC017 FM172200
                       21006KT P6SM BKN030=
202302161725 TAF KPAE 161725Z 1618/1718 13005KT P6SM OVC100 FM162200 16008KT
                       P6SM OVC080 FM170500 16008KT P6SM -RA OVC045
                       FM171000 15007KT P6SM -RA OVC020=
202302161123 TAF KPAE 161123Z 1612/1712 12005KT P6SM OVC100 FM162200 16008KT
                       P6SM OVC080 FM170500 16008KT P6SM -RA OVC045
                       FM171100 15007KT P6SM -RA OVC020=
202302160528 TAF KPAE 160528Z 1606/1706 11006KT P6SM BKN200 FM161400 11006KT
                       P6SM OVC120 FM162200 16008KT P6SM BKN080
                       OVC120 FM170500 16008KT P6SM -RA OVC045=
202302152327 TAF KPAE 152327Z 1600/1624 19006KT P6SM FEW040 BKN200 FM160300
                       15004KT P6SM SCT120 BKN200 FM160900 14003KT
                       P6SM OVC120 FM162000 20007KT P6SM BKN080
                       OVC120=
202302151728 TAF KPAE 151728Z 1518/1618 15006KT P6SM SCT030 SCT200
                      TEMPO 1518/1520 BKN030 FM152000 20006KT P6SM
                       FEW040 SCT200 FM160300 15004KT P6SM SCT120
                       BKN200 FM160900 14003KT P6SM OVC120=
202302151126 TAF KPAE 151126Z 1512/1612 15004KT P6SM SCT200 FM152000 17006KT
                       P6SM SCT200 FM160300 12005KT P6SM SCT120
                       BKN200 FM160800 14003KT P6SM OVC120=
202302150532 TAF KPAE 150532Z 1506/1606 VRB03KT P6SM SCT200 FM151200 17006KT
                       P6SM SCT200 FM160300 12006KT P6SM SCT120
                       BKN200=
202302142325 TAF KPAE 142325Z 1500/1524 35006KT P6SM FEW040 SCT200 FM150300
                       VRB03KT P6SM SCT200 FM151200 16005KT P6SM
                       SCT017 SCT200 FM151800 18005KT P6SM SCT030
                       BKN200 FM152300 18005KT P6SM BKN120 BKN200=
202302141734 TAF KPAE 141734Z 1418/1518 35008KT P6SM FEW040 SCT200 FM150300
                       VRB03KT P6SM SCT200 FM151200 16005KT P6SM
                       SCT017 BKN200=
202302141120 TAF KPAE 141120Z 1412/1512 16006KT P6SM VCSH SCT050
                      TEMPO 1412/1416 2SM -SHSN BKN020 OVC050 FM141600
                       34008KT P6SM SCT050 FM141800 35008KT P6SM
                       SCT250 FM150300 00000KT P6SM SCT150=
202302140805 KPAE 140805Z 1408/1506 18012KT P6SM SCT016 BKN021 FM141000 34008KT
                       P6SM SCT020 BKN040 FM141600 34008KT P6SM
                       SCT250=
202302140529 TAF KPAE 140529Z 1406/1506 34008KT 1SM -SN OVC002 FM140700 34008KT
                       3SM BR SCT002 BKN006 OVC012 FM141000 34008KT
                       P6SM SCT020 BKN040 FM141600 34008KT P6SM
                       SCT250=
202302140324 KPAE 140324Z 1403/1424 34012G20KT 1SM -SN OVC002 FM140600 34008KT
                       3SM BR SCT002 BKN008 OVC015 FM141000 34008KT
                       P6SM SCT020 BKN040 FM141600 34008KT P6SM
                       SCT250=
202302140205 KPAE 140205Z 1402/1424 32012G20KT P6SM OVC050 FM140300 32012G20KT
                       3SM -RASN BKN012 OVC020 FM140600 27006KT
                       P6SM BKN050 FM141100 36002KT P6SM BKN050=
202302132329 TAF KPAE 132329Z 1400/1424 30007KT P6SM -SHRA BKN025 BKN040 FM140200
                       30013KT P6SM -SHRA BKN040 FM140400 27006KT
                       P6SM BKN050 FM141100 36002KT P6SM BKN050=
202302131735 TAF KPAE 131735Z 1318/1418 VRB05KT P6SM VCSH BKN025 FM131900 30007KT
                       P6SM -SHRA BKN025 BKN040 FM140200 30013KT
                       P6SM -SHRA BKN040 FM140400 27006KT P6SM
                       BKN050=
202302131129 TAF KPAE 131129Z 1312/1412 VRB05KT 6SM -SHRA BR FEW005 OVC021 FM131900
                       30007KT P6SM -SHRA BKN025 BKN040 FM140000
                       30013KT P6SM -SHRA BKN040 FM140400 27006KT
                       P6SM BKN050=
202302130801 KPAE 130801Z 1308/1406 23010G17KT P6SM -SHRA OVC012
                      TEMPO 1308/1311 32010KT 4SM -SHRA OVC010
                       FM131100 21006KT P6SM -SHRA OVC020 FM131900
                       30007KT P6SM VCSH BKN025 BKN040 FM140000
                       30013KT P6SM -SHRA BKN040 FM140400 27006KT
                       P6SM BKN050=
202302130528 TAF KPAE 130528Z 1306/1406 18020G30KT P6SM -SHRA OVC025 FM131000
                       21006KT P6SM -SHRA OVC020 FM131900 30007KT
                       P6SM VCSH BKN025 BKN040 FM140000 30013KT
                       P6SM -SHRA BKN040 FM140400 27006KT P6SM
                       BKN050=
202302122328 TAF KPAE 122328Z 1300/1324 18013KT P6SM BKN030 BKN100 FM130300
                       19008KT P6SM VCSH BKN030 OVC060 FM130600
                       19012G20KT P6SM -SHRA OVC020 FM131000 22006KT
                       P6SM -SHRA OVC020 FM131900 32007KT P6SM
                       VCSH BKN025 BKN040=
202302121724 TAF KPAE 121724Z 1218/1318 18003KT P6SM OVC060 FM130300 19008KT
                       P6SM VCSH BKN030 OVC060 FM130600 19012G20KT
                       P6SM -SHRA OVC020 FM131000 22006KT P6SM
                       -SHRA OVC020=
202302121130 TAF KPAE 121130Z 1212/1312 12003KT P6SM SCT100 SCT200 FM121800
                       19007KT P6SM BKN070 BKN200 FM130300 19008KT
                       P6SM VCSH BKN030 OVC060 FM130600 19012G20KT
                       P6SM -SHRA OVC020 FM131000 20010KT P6SM
                       -SHRA OVC020=
202302120530 TAF KPAE 120530Z 1206/1306 VRB03KT P6SM SKC FM120900 VRB03KT P6SM
                       BKN070 FM122000 17008KT P6SM BKN060 BKN200
                       FM130300 19011KT P6SM -RA OVC025=
202302112323 TAF KPAE 112323Z 1200/1224 35005KT P6SM SCT030 BKN200 FM120200
                       VRB03KT P6SM SCT035 BKN200 FM120900 VRB03KT
                       P6SM BKN060 BKN200 FM122000 18008KT P6SM
                       BKN060 BKN200=
202302112200 KPAE 112200Z 1122/1218 36005KT P6SM SCT030 BKN200
                      TEMPO 1122/1124 BKN030 OVC200 FM120100 VRB03KT
                       P6SM SCT035 BKN200=
202302111724 TAF KPAE 111724Z 1118/1218 00000KT P6SM OVC020 FM112000 33003KT
                       P6SM BKN045 BKN200 FM120100 VRB03KT P6SM
                       SCT045 BKN200=
202302111622 KPAE 111622Z 1116/1212 00000KT P6SM OVC021 FM112000 33003KT P6SM
                       BKN045 FM120200 VRB03KT P6SM SCT045 BKN070
                       FM121000 VRB03KT P6SM SCT025 OVC040=
202302111121 TAF KPAE 111121Z 1112/1212 02004KT P6SM SCT025 BKN040
                      TEMPO 1112/1116 BKN015 FM112000 33003KT P6SM
                       BKN045 FM120200 VRB03KT P6SM SCT045 BKN070
                       FM121000 VRB03KT P6SM SCT025 OVC040=
202302110531 TAF KPAE 110531Z 1106/1206 35006KT P6SM OVC045 FM110900 35004KT
                       P6SM BKN035 FM111300 02004KT P6SM BKN015
                       FM112000 33003KT P6SM BKN045=
202302102339 TAF KPAE 102339Z 1100/1124 25005KT P6SM BKN035 FM110500 35003KT
                       P6SM BKN045 FM110900 36002KT P6SM BKN030
                       FM111300 35003KT P6SM BKN015 FM112000 33002KT
                       P6SM BKN045=
202302101738 TAF KPAE 101738Z 1018/1118 16010G20KT P6SM BKN007 BKN011 FM101900
                       18009KT P6SM SCT025 BKN045 FM110100 26004KT
                       P6SM BKN045 FM110500 35003KT P6SM BKN045
                       FM110900 36002KT P6SM BKN030 FM111300 35003KT
                       P6SM BKN015=
202302101122 TAF KPAE 101122Z 1012/1112 18012G22KT P6SM SCT020 BKN040
                      TEMPO 1012/1016 BKN020 BKN040 FM101600 18010KT
                       P6SM BKN045 FM110300 VRB03KT P6SM BKN045=
202302100541 TAF KPAE 100541Z 1006/1106 15014G18KT P6SM VCSH SCT100 FM100700
                       15010G20KT P6SM -RA SCT010 OVC050
                      TEMPO 1008/1010 5SM -RA BR OVC015 FM101200
                       17012KT P6SM BKN040 FM102000 20009KT P6SM
                       OVC050 FM110300 VRB03KT P6SM BKN050=
202302092339 TAF KPAE 092339Z 1000/1024 13005KT P6SM SCT080 BKN200 FM100500
                       14008KT P6SM -RA OVC045 FM100800 15010G20KT
                       P6SM -RA SCT010 OVC020 FM101200 17010KT
                       P6SM BKN040 FM102000 19009KT P6SM OVC050=
202302091730 TAF KPAE 091730Z 0918/1018 11008KT P6SM OVC070 FM092100 11008KT
                       P6SM SCT080 BKN200 FM100500 14008KT P6SM
                       -RA OVC045 FM100800 15010G20KT P6SM -RA
                       SCT010 OVC020=
202302091143 TAF KPAE 091143Z 0912/1012 11008KT P6SM OVC070 FM092100 11008KT
                       P6SM SCT080 BKN200 FM100300 14008KT P6SM
                       -RA OVC045 FM100800 15014G22KT P6SM -RA
                       SCT010 OVC020=
202302090520 TAF KPAE 090520Z 0906/1006 12005KT P6SM OVC060 FM092200 15008KT
                       P6SM SCT120 BKN250 FM100300 15012KT P6SM
                       BKN070 OVC120=
202302082330 TAF KPAE 082330Z 0900/0924 16008KT P6SM SCT035 BKN250 FM090200
                       14007KT P6SM OVC080 FM091800 11005KT P6SM
                       OVC050=
202302082032 KPAE 082032Z 0821/0918 16006KT P6SM SCT020 BKN030 BKN200 FM082200
                       15006KT P6SM BKN045 BKN200 FM090400 14010KT
                       P6SM OVC080 FM091700 11005KT P6SM OVC050=
202302082030 KPAE 082030Z 0821/0918 22006KT P6SM SCT020 BKN030 BKN200 FM082200
                       23006KT P6SM BKN045 BKN200 FM090400 14010KT
                       P6SM OVC080 FM091700 11005KT P6SM OVC050=
202302081738 TAF KPAE 081738Z 0818/0918 17006KT P6SM BKN025 FM081900 18006KT
                       P6SM SCT080 BKN200 FM090400 14010KT P6SM
                       OVC080 FM091700 11005KT P6SM OVC050=
202302081143 TAF KPAE 081143Z 0812/0912 18006KT P6SM SCT030 BKN050 OVC070 FM081900
                       18006KT P6SM SCT080 BKN200 FM090400 14010KT
                       P6SM OVC080=
202302080520 TAF KPAE 080520Z 0806/0906 30005KT P6SM VCSH BKN025 BKN050 FM080800
                       19005KT P6SM SCT025 BKN050
                      TEMPO 0813/0817 BKN025 FM082100 17005KT P6SM
                       SCT050 BKN120=
202302072331 KPAE 072331Z 0800/0824 22008KT 6SM -SHRA BR BKN009 OVC025
                      TEMPO 0800/0802 2SM -TSRA BKN005CB OVC015
                       FM080200 30005KT P6SM SCT013 BKN050
                      TEMPO 0802/0806 -SHRA BKN013 OVC025 FM080800
                       17005KT P6SM SCT025 BKN050=
202302072320 TAF KPAE 072320Z 0800/0824 22008KT 6SM -SHRA BR BKN009 OVC025 FM080200
                       30005KT P6SM SCT013 BKN050
                      TEMPO 0802/0806 -SHRA BKN013 OVC025 FM080800
                       17005KT P6SM SCT025 BKN050=
202302071724 TAF KPAE 071724Z 0718/0818 17014G24KT 5SM -RA BR OVC020 FM071900
                       18012G20KT P6SM SCT025 OVC040 FM072300 24010KT
                       P6SM -SHRA BKN008 OVC015 FM080400 22008KT
                       P6SM SCT025 BKN040=
202302071359 KPAE 071359Z 0714/0812 16015G25KT P6SM BKN022 OVC030 FM071900 18012G20KT
                       P6SM SCT025 OVC040 FM072300 24010KT P6SM
                       -SHRA BKN008 OVC015 FM080400 22008KT P6SM
                       SCT025 BKN040=
202302071145 TAF KPAE 071145Z 0712/0812 18015G25KT P6SM OVC080 FM080000 24010KT
                       P6SM -SHRA BKN008 OVC015 FM080500 22008KT
                       P6SM SCT025 BKN040=
202302070520 TAF KPAE 070520Z 0706/0806 17015G25KT P6SM SCT020 BKN035 FM070800
                       17016G29KT 6SM BR OVC020 FM071000 18013G32KT
                       4SM -RA BR OVC010 FM072100 24010KT P6SM
                       -SHRA BKN015 OVC025 FM072300 29008KT P6SM
                       -SHRA BKN030 OVC050=
202302062321 TAF KPAE 062321Z 0700/0724 18017G29KT P6SM BKN020 OVC080 FM070600
                       17015G25KT P6SM -RA OVC020 FM071000 18013G22KT
                       4SM -RA BR OVC010 FM072100 24010KT P6SM
                       -SHRA BKN015 OVC025=
202302061725 TAF KPAE 061725Z 0618/0718 16010G18KT P6SM OVC005 FM062100 17015G25KT
                       P6SM OVC015 FM070600 17015G25KT P6SM -RA
                       OVC020 FM071000 18013G22KT 4SM -RA BR OVC010=
202302061120 TAF KPAE 061120Z 0612/0712 VRB03KT P6SM VCSH BKN025 OVC050 FM061500
                       17009KT P6SM OVC015 FM062200 17015G24KT
                       P6SM OVC025 FM070600 17015G24KT P6SM -RA
                       OVC020=
202302060529 TAF KPAE 060529Z 0606/0706 VRB03KT P6SM VCSH BKN030 OVC040
                      TEMPO 0606/0608 5SM -RA BKN007 FM061500 17009KT
                       P6SM OVC012 FM062200 17015G22KT P6SM OVC020=
202302060344 KPAE 060344Z 0604/0624 31006KT P6SM VCSH SCT007 OVC020
                      TEMPO 0604/0608 5SM -RA BKN007 FM061500 17009KT
                       P6SM OVC009 FM062000 17014KT P6SM OVC015=
202302052335 TAF KPAE 052335Z 0600/0624 20008KT 5SM -RA BR OVC020 FM061500 17009KT
                       P6SM OVC009 FM062000 17014KT P6SM OVC015=
202302052000 KPAE 052000Z 0520/0618 23004KT P6SM -RA BKN060
                      TEMPO 0520/0522 BKN005 FM052200 20008KT 5SM
                       -RA BR OVC020 FM060600 24005KT P6SM OVC050
                       FM061200 17007KT P6SM OVC025=
202302051738 TAF KPAE 051738Z 0518/0618 36003KT P6SM VCSH OVC080 FM052100 20008KT
                       5SM -RA BR OVC020 FM060600 24005KT P6SM
                       OVC050 FM061200 17007KT P6SM OVC025=
202302051120 TAF KPAE 051120Z 0512/0612 07006KT P6SM OVC100 FM051600 17004KT
                       P6SM -RA OVC050 FM052100 20008KT 5SM -RA
                       BR OVC020 FM060300 28007KT P6SM VCSH OVC022
                       FM060800 22006KT P6SM OVC020=
202302050532 TAF KPAE 050532Z 0506/0606 15008KT 6SM -RA OVC040 FM050800 11006KT
                       P6SM BKN040 OVC060 FM051600 17004KT P6SM
                       -RA OVC050 FM052100 20008KT 6SM -RA OVC020
                       FM060300 31007KT P6SM VCSH OVC022=
202302042320 TAF KPAE 042320Z 0500/0524 13005KT P6SM -SHRA OVC045 FM050600 14007KT
                       P6SM VCSH OVC035 FM051600 17004KT P6SM OVC025=
202302042238 KPAE 042238Z 0423/0518 16009KT P6SM -RA OVC045 FM050600 14007KT
                       P6SM VCSH OVC035 FM051600 19004KT P6SM OVC025=
202302041735 TAF KPAE 041735Z 0418/0518 16011KT P6SM -RA OVC035 FM042200 16009KT
                       P6SM -RA OVC030 FM050600 14007KT P6SM VCSH
                       OVC035 FM051600 19004KT P6SM OVC025=
202302041120 TAF KPAE 041120Z 0412/0512 17015G27KT P6SM VCSH SCT025 OVC035 FM041800
                       16011KT P6SM -RA OVC025 FM042200 16009KT
                       P6SM OVC025 FM050500 14007KT P6SM -RA OVC030=
202302040530 TAF KPAE 040530Z 0406/0506 17015G27KT P6SM VCSH BKN025 OVC035
                      TEMPO 0406/0408 6SM -RA FM041000 15013G18KT
                       P6SM -RA OVC020 FM041800 16013KT P6SM -RA
                       OVC025 FM042200 16009KT P6SM OVC025=
202302032320 TAF KPAE 032320Z 0400/0424 18021G28KT P6SM -RA FEW020 OVC040 FM040400
                       17017G25KT P6SM -RA BKN020 OVC030 FM041000
                       15010KT P6SM -RA SCT010 OVC020 FM041600
                       16011KT P6SM -RA OVC020 FM042000 16009KT
                       P6SM OVC015=
202302031724 TAF KPAE 031724Z 0318/0418 16011KT P6SM OVC100 FM031900 15015G25KT
                       P6SM -RA OVC050 FM040400 17012G18KT P6SM
                       -SHRA BKN020 OVC030 FM041000 15010KT P6SM
                       -RA SCT010 OVC020 FM041600 16011KT P6SM
                       -RA OVC020=
202302031152 TAF KPAE 031152Z 0312/0412 11006KT P6SM BKN150 FM031600 13006KT
                       P6SM OVC100 FM031900 15015G25KT P6SM -RA
                       OVC040 FM040400 17012G18KT P6SM -SHRA BKN020
                       OVC030 FM041000 15010KT P6SM -RA SCT010
                       OVC020=
202302030520 TAF KPAE 030520Z 0306/0406 13008G17KT P6SM SCT080 OVC100 FM031400
                       16005KT P6SM OVC100 FM031700 16011G18KT
                       P6SM VCSH SCT040 OVC080 FM032000 17020G32KT
                       P6SM -RA OVC045 FM040300 18020KT P6SM -SHRA
                       OVC025=
202302022324 TAF KPAE 022324Z 0300/0324 16009KT P6SM SCT150 BKN250 FM030500
                       14006KT P6SM BKN150 BKN250 FM031400 16005KT
                       P6SM OVC100 FM031700 16011G18KT P6SM VCSH
                       SCT040 OVC080 FM032000 17020G32KT P6SM -RA
                       OVC045=
202302021726 TAF KPAE 021726Z 0218/0318 15008KT P6SM SCT150 BKN250 FM030400
                       14006KT P6SM BKN150 BKN250 FM031400 16005KT
                       P6SM OVC100 FM031700 16011KT P6SM VCSH SCT040
                       OVC080=
202302021129 TAF KPAE 021129Z 0212/0312 14004KT P6SM BKN250 FM030200 VRB03KT
                       P6SM BKN250=
202302020535 TAF KPAE 020535Z 0206/0306 11004KT P6SM SKC FM021600 15005KT P6SM
                       BKN250=
202302012332 TAF KPAE 012332Z 0200/0224 15006KT P6SM BKN250 FM020200 VRB03KT
                       P6SM BKN250 FM021600 15005KT P6SM BKN250=
202302011735 TAF KPAE 011735Z 0118/0218 VRB04KT P6SM BKN040 OVC200 FM012100
                       15005KT P6SM BKN250 FM020200 VRB03KT P6SM
                       BKN250 FM021600 14005KT P6SM BKN250=
202302011134 TAF KPAE 011134Z 0112/0212 15006KT P6SM BKN040 OVC120 FM011600
                       15006KT P6SM SCT040 OVC150 FM012100 15006KT
                       P6SM BKN250=
202302010639 KPAE 010639Z 0107/0206 00000KT P6SM BKN030 OVC100 FM011800 18004KT
                       P6SM OVC250 FM012100 18004KT P6SM BKN250=
202302010525 TAF KPAE 010525Z 0106/0206 00000KT P6SM FEW030 OVC090 FM011000
                       12004KT P6SM SCT030 OVC100 FM011800 18004KT
                       P6SM OVC250 FM012100 18004KT P6SM BKN250=