##########################################################
# Query made at 02/15/2025 23:02:25 UTC
# Time interval: from 10/01/2023 00:00  to 10/31/2023 23:59  UTC
##########################################################

##########################################################
# KPAE, Everett, Snohomish County Airport (United States)
# WMO index: -----. WIGOS ID: Unknown
# Latitude 47-55-23N. Longitude 122-16-57W. Altitude 184 m.
##########################################################

###################################
#  METAR/SPECI from KPAE
###################################
202310312353 METAR KPAE 312353Z 00000KT 10SM CLR 11/04 A3014 RMK AO2 SLP208 T01060039 10117 20089 55011=
202310312253 METAR KPAE 312253Z 00000KT 10SM CLR 11/03 A3013 RMK AO2 SLP206 T01110033=
202310312153 METAR KPAE 312153Z 25003KT 10SM CLR 11/02 A3014 RMK AO2 SLP211 T01060022=
202310312053 METAR KPAE 312053Z 00000KT 10SM CLR 12/02 A3017 RMK AO2 SLP219 T01170022 58007=
202310311953 METAR KPAE 311953Z 00000KT 10SM CLR 11/02 A3018 RMK AO2 SLP223 T01110017=
202310311853 METAR KPAE 311853Z 00000KT 10SM CLR 09/03 A3019 RMK AO2 SLP227 T00940028=
202310311753 METAR KPAE 311753Z VRB03KT 10SM CLR 11/01 A3019 RMK AO2 SLP225 T01060006 10106 20028 50003=
202310311653 METAR KPAE 311653Z 00000KT 10SM CLR 08/01 A3019 RMK AO2 SLP228 T00780006=
202310311553 METAR KPAE 311553Z 00000KT 10SM CLR 04/01 A3019 RMK AO2 SLP226 T00390006=
202310311453 METAR KPAE 311453Z 00000KT 10SM CLR 03/M01 A3018 RMK AO2 SLP224 T00281006 56007=
202310311353 METAR KPAE 311353Z 09003KT 10SM CLR 05/M02 A3019 RMK AO2 SLP225 T00501017=
202310311253 METAR KPAE 311253Z AUTO 10005KT 10SM CLR 05/M01 A3020 RMK AO2 SLP229 T00501006=
202310311153 METAR KPAE 311153Z AUTO 00000KT 10SM CLR 03/00 A3020 RMK AO2 SLP231 T00330000 10067 20028 58007=
202310311053 METAR KPAE 311053Z AUTO 00000KT 10SM CLR 05/02 A3022 RMK AO2 SLP235 T00500022=
202310310953 METAR KPAE 310953Z AUTO 00000KT 10SM CLR 05/03 A3022 RMK AO2 SLP236 T00500028=
202310310853 METAR KPAE 310853Z AUTO 00000KT 10SM CLR 04/02 A3023 RMK AO2 SLP238 T00390022 55002=
202310310753 METAR KPAE 310753Z AUTO 01003KT 10SM CLR 05/03 A3022 RMK AO2 SLP237 T00500033 401170028=
202310310653 METAR KPAE 310653Z AUTO 00000KT 10SM CLR 06/03 A3023 RMK AO2 SLP239 T00560028=
202310310553 METAR KPAE 310553Z AUTO 01003KT 10SM CLR 06/04 A3023 RMK AO2 SLP240 T00610039 10100 20056 58003=
202310310453 METAR KPAE 310453Z AUTO 02004KT 10SM CLR 06/03 A3023 RMK AO2 SLP241 T00610033=
202310310353 METAR KPAE 310353Z AUTO 34003KT 10SM CLR 07/02 A3024 RMK AO2 SLP243 T00720022=
202310310253 METAR KPAE 310253Z 01005KT 10SM CLR 08/03 A3024 RMK AO2 SLP244 T00780028 56009=
202310310153 METAR KPAE 310153Z 35004KT 10SM CLR 07/03 A3025 RMK AO2 SLP248 T00720033=
202310310053 METAR KPAE 310053Z 35005KT 10SM CLR 08/03 A3025 RMK AO2 SLP247 T00830028=
202310302353 METAR KPAE 302353Z 34006KT 10SM CLR 10/02 A3027 RMK AO2 SLP252 T01000017 10117 20072 58013=
202310302253 METAR KPAE 302253Z AUTO 33005KT 10SM CLR 11/02 A3028 RMK AO2 SLP258 T01060022=
202310302153 METAR KPAE 302153Z 01004KT 10SM CLR 11/01 A3029 RMK AO2 SLP261 T01110006=
202310302053 METAR KPAE 302053Z 35003KT 10SM CLR 11/02 A3030 RMK AO2 SLP265 T01110017 58014=
202310301953 METAR KPAE 301953Z 02003KT 10SM CLR 11/01 A3033 RMK AO2 SLP273 T01060011=
202310301853 METAR KPAE 301853Z 02004KT 10SM CLR 09/02 A3034 RMK AO2 SLP276 T00890017=
202310301753 METAR KPAE 301753Z 35004KT 10SM CLR 07/02 A3034 RMK AO2 SLP279 T00720017 10072 20028 58003=
202310301653 METAR KPAE 301653Z 02005KT 10SM CLR 06/02 A3036 RMK AO2 SLP284 T00560017=
202310301553 METAR KPAE 301553Z 36003KT 10SM CLR 04/02 A3036 RMK AO2 SLP284 T00440017=
202310301453 METAR KPAE 301453Z 00000KT 10SM CLR 03/01 A3035 RMK AO2 SLP283 T00330006 56002=
202310301353 METAR KPAE 301353Z 01004KT 10SM CLR 04/01 A3035 RMK AO2 SLP283 T00390011=
202310301253 METAR KPAE 301253Z AUTO 35003KT 10SM CLR 03/01 A3036 RMK AO2 SLP284 T00330011=
202310301153 METAR KPAE 301153Z AUTO 01004KT 10SM CLR 03/01 A3036 RMK AO2 SLP283 T00330011 10056 20033 56004=
202310301053 METAR KPAE 301053Z AUTO 01004KT 10SM CLR 03/01 A3036 RMK AO2 SLP284 T00330011=
202310300953 METAR KPAE 300953Z AUTO 01003KT 10SM CLR 04/02 A3037 RMK AO2 SLP286 T00390017=
202310300853 METAR KPAE 300853Z AUTO 01003KT 10SM CLR 04/02 A3037 RMK AO2 SLP288 T00390017 56005=
202310300753 METAR KPAE 300753Z AUTO 35003KT 9SM CLR 04/02 A3037 RMK AO2 SLP289 T00440022 401060006=
202310300653 METAR KPAE 300653Z AUTO 02003KT 10SM CLR 04/02 A3038 RMK AO2 SLP290 T00390022=
202310300553 METAR KPAE 300553Z AUTO 35003KT 10SM CLR 05/03 A3039 RMK AO2 SLP293 T00500028 10094 20050 53001=
202310300453 METAR KPAE 300453Z AUTO 01003KT 10SM CLR 06/03 A3038 RMK AO2 SLP293 T00560028=
202310300353 METAR KPAE 300353Z 35003KT 10SM CLR 06/02 A3038 RMK AO2 SLP293 T00610022=
202310300253 METAR KPAE 300253Z 36003KT 10SM CLR 06/02 A3038 RMK AO2 SLP294 T00610017 58006=
202310300153 METAR KPAE 300153Z 35004KT 10SM CLR 07/01 A3039 RMK AO2 SLP297 T00670011=
202310300053 METAR KPAE 300053Z 35004KT 10SM CLR 08/02 A3039 RMK AO2 SLP296 T00780022=
202310292353 METAR KPAE 292353Z 35004KT 10SM CLR 09/01 A3040 RMK AO2 SLP299 T00940011 10106 20067 56011=
202310292253 METAR KPAE 292253Z 36006KT 10SM CLR 10/M01 A3041 RMK AO2 SLP302 T01001006=
202310292153 METAR KPAE 292153Z 34004KT 10SM CLR 11/M01 A3042 RMK AO2 SLP304 T01061011=
202310292053 METAR KPAE 292053Z 35006KT 10SM CLR 10/M01 A3044 RMK AO2 SLP309 T01001011 58012=
202310291953 METAR KPAE 291953Z VRB04KT 10SM CLR 10/M01 A3045 RMK AO2 SLP314 T01001006=
202310291853 METAR KPAE 291853Z 34003KT 10SM CLR 08/00 A3047 RMK AO2 SLP321 T00830000=
202310291753 METAR KPAE 291753Z 02003KT 10SM CLR 07/M01 A3047 RMK AO2 SLP323 T00721006 10072 20006 50001=
202310291653 METAR KPAE 291653Z 01006KT 10SM CLR 04/M02 A3049 RMK AO2 SLP330 T00441017=
202310291553 METAR KPAE 291553Z 02003KT 10SM CLR 03/M02 A3048 RMK AO2 SLP327 T00331017=
202310291453 METAR KPAE 291453Z 00000KT 10SM CLR 01/M01 A3047 RMK AO2 SLP323 T00061011 58006=
202310291353 METAR KPAE 291353Z 00000KT 10SM CLR 02/M01 A3048 RMK AO2 SLP328 T00171006=
202310291253 METAR KPAE 291253Z AUTO 00000KT 10SM CLR 03/M03 A3049 RMK AO2 SLP328 T00281028=
202310291153 METAR KPAE 291153Z AUTO 00000KT 10SM CLR 02/M03 A3049 RMK AO2 SLP328 T00171028 10039 20006 58008=
202310291053 METAR KPAE 291053Z AUTO 00000KT 10SM CLR 01/M03 A3050 RMK AO2 SLP332 T00111028=
202310290953 METAR KPAE 290953Z AUTO 00000KT 10SM CLR 02/M02 A3051 RMK AO2 SLP336 T00221022=
202310290853 METAR KPAE 290853Z AUTO VRB03KT 10SM CLR 03/M02 A3051 RMK AO2 SLP337 T00281022 55001=
202310290753 METAR KPAE 290753Z AUTO 05004KT 10SM CLR 04/M02 A3050 RMK AO2 SLP333 T00391017 400890000=
202310290653 METAR KPAE 290653Z AUTO 00000KT 10SM CLR 03/M02 A3051 RMK AO2 SLP335 T00331017=
202310290553 METAR KPAE 290553Z AUTO 03003KT 10SM CLR 03/M01 A3052 RMK AO2 SLP338 T00331006 10083 20033 51006=
202310290453 METAR KPAE 290453Z AUTO 01003KT 10SM CLR 04/00 A3051 RMK AO2 SLP335 T00440000=
202310290353 METAR KPAE 290353Z AUTO 36004KT 10SM CLR 04/M01 A3051 RMK AO2 SLP337 T00441011=
202310290253 METAR KPAE 290253Z 01003KT 10SM CLR 06/M02 A3050 RMK AO2 SLP332 T00561022 55001=
202310290153 METAR KPAE 290153Z 35004KT 10SM CLR 06/M02 A3049 RMK AO2 SLP331 T00561022=
202310290053 METAR KPAE 290053Z 35003KT 10SM CLR 07/M02 A3049 RMK AO2 SLP329 T00671022=
202310282353 METAR KPAE 282353Z 35005KT 10SM CLR 08/M04 A3050 RMK AO2 SLP333 T00831039 10089 20061 56013=
202310282253 METAR KPAE 282253Z 34005KT 10SM CLR 08/M04 A3051 RMK AO2 SLP336 T00831044=
202310282153 METAR KPAE 282153Z 01005KT 10SM CLR 09/M04 A3052 RMK AO2 SLP339 T00891044=
202310282053 METAR KPAE 282053Z 01005KT 10SM CLR 08/M03 A3054 RMK AO2 SLP346 T00831028 58002=
202310281953 METAR KPAE 281953Z 04005KT 10SM CLR 08/M03 A3055 RMK AO2 SLP351 T00781033=
202310281853 METAR KPAE 281853Z 36004KT 10SM CLR 07/M03 A3054 RMK AO2 SLP348 T00671033=
202310281753 METAR KPAE 281753Z VRB03KT 10SM CLR 06/M04 A3054 RMK AO2 SLP348 T00611039 10067 20000 53010=
202310281653 METAR KPAE 281653Z 10008KT 10SM CLR 04/M04 A3053 RMK AO2 SLP342 T00441039=
202310281553 METAR KPAE 281553Z 11007KT 10SM CLR 03/M04 A3052 RMK AO2 SLP341 T00281039=
202310281453 METAR KPAE 281453Z 11003KT 10SM CLR 01/M04 A3051 RMK AO2 SLP339 T00061039 50004=
202310281353 METAR KPAE 281353Z 01003KT 10SM CLR 01/M03 A3052 RMK AO2 SLP340 T00061033=
202310281253 METAR KPAE 281253Z AUTO 11005KT 10SM CLR 02/M03 A3051 RMK AO2 SLP337 T00171033=
202310281153 METAR KPAE 281153Z AUTO 11005KT 10SM CLR 02/M03 A3050 RMK AO2 SLP334 T00221028 10044 20011 53006=
202310281053 METAR KPAE 281053Z AUTO 10006KT 10SM CLR 02/M03 A3050 RMK AO2 SLP332 T00221028=
202310280953 METAR KPAE 280953Z AUTO 10006KT 10SM CLR 02/M02 A3049 RMK AO2 SLP329 T00171022=
202310280853 METAR KPAE 280853Z AUTO 08004KT 10SM CLR 02/M02 A3049 RMK AO2 SLP328 T00221022 51008=
202310280753 METAR KPAE 280753Z AUTO 08003KT 10SM CLR 02/M03 A3047 RMK AO2 SLP323 T00221033 400940011=
202310280653 METAR KPAE 280653Z AUTO 00000KT 10SM CLR 04/M04 A3047 RMK AO2 SLP324 T00391044=
202310280553 METAR KPAE 280553Z AUTO 01004KT 10SM CLR 04/M02 A3046 RMK AO2 SLP319 T00441017 10083 20044 53011=
202310280453 METAR KPAE 280453Z AUTO 34005KT 10SM CLR 06/M02 A3045 RMK AO2 SLP315 T00561017=
202310280353 METAR KPAE 280353Z AUTO 33006KT 10SM CLR 06/M02 A3044 RMK AO2 SLP311 T00561022=
202310280253 METAR KPAE 280253Z 32006KT 10SM CLR 04/M03 A3043 RMK AO2 SLP309 T00441033 53006=
202310280153 METAR KPAE 280153Z 33005KT 10SM CLR 06/M04 A3042 RMK AO2 SLP305 T00611044=
202310280053 METAR KPAE 280053Z 31007KT 10SM CLR 07/M06 A3041 RMK AO2 SLP302 T00721056=
202310272353 METAR KPAE 272353Z 33005KT 10SM CLR 08/M05 A3041 RMK AO2 SLP302 T00831050 10094 20056 53003=
202310272253 METAR KPAE 272253Z AUTO 32009KT 10SM CLR 09/M06 A3040 RMK AO2 SLP299 T00891056=
202310272153 METAR KPAE 272153Z 35008KT 10SM CLR 09/M03 A3040 RMK AO2 SLP298 T00891033=
202310272053 METAR KPAE 272053Z VRB06G14KT 10SM CLR 08/M03 A3040 RMK AO2 SLP297 T00831033 50001=
202310271953 METAR KPAE 271953Z 36006KT 10SM CLR 08/M04 A3040 RMK AO2 SLP298 T00781039=
202310271853 METAR KPAE 271853Z VRB05KT 10SM CLR 07/M03 A3040 RMK AO2 SLP300 T00721033=
202310271753 METAR KPAE 271753Z 34005KT 10SM CLR 06/M03 A3040 RMK AO2 SLP297 T00561033 10056 20011 51017=
202310271653 METAR KPAE 271653Z VRB04KT 10SM CLR 04/M03 A3039 RMK AO2 SLP294 T00391028=
202310271553 METAR KPAE 271553Z 01004KT 10SM CLR 03/M03 A3037 RMK AO2 SLP290 T00281028=
202310271453 METAR KPAE 271453Z 00000KT 10SM CLR 02/M03 A3035 RMK AO2 SLP280 T00221033 53009=
202310271353 METAR KPAE 271353Z 35003KT 10SM CLR 02/M02 A3033 RMK AO2 SLP277 T00171017=
202310271253 METAR KPAE 271253Z AUTO 03004KT 10SM CLR 02/M02 A3033 RMK AO2 SLP274 T00221017=
202310271153 METAR KPAE 271153Z AUTO 00000KT 10SM CLR 02/M01 A3032 RMK AO2 SLP270 T00221006 10050 20022 51006=
202310271053 METAR KPAE 271053Z AUTO 00000KT 10SM CLR 02/00 A3031 RMK AO2 SLP268 T00220000=
202310270953 METAR KPAE 270953Z AUTO 33003KT 10SM CLR 03/01 A3031 RMK AO2 SLP268 T00280011=
202310270853 METAR KPAE 270853Z AUTO 00000KT 10SM CLR 03/01 A3030 RMK AO2 SLP263 T00330011 53004=
202310270753 METAR KPAE 270753Z AUTO 04003KT 10SM CLR 04/02 A3029 RMK AO2 SLP260 T00390017 401000017=
202310270653 METAR KPAE 270653Z AUTO 35003KT 10SM CLR 04/02 A3028 RMK AO2 SLP258 T00390022=
202310270553 METAR KPAE 270553Z AUTO 32004KT 10SM CLR 05/03 A3029 RMK AO2 SLP259 T00500028 10100 20044 53004=
202310270453 METAR KPAE 270453Z AUTO 36003KT 10SM CLR 05/02 A3028 RMK AO2 SLP257 T00500022=
202310270353 METAR KPAE 270353Z AUTO 00000KT 10SM CLR 05/02 A3027 RMK AO2 SLP254 T00500022=
202310270253 METAR KPAE 270253Z 35004KT 10SM CLR 06/03 A3027 RMK AO2 SLP255 T00610028 53011=
202310270153 METAR KPAE 270153Z 34003KT 10SM CLR 06/03 A3026 RMK AO2 SLP250 T00610028=
202310270053 METAR KPAE 270053Z 34004KT 10SM CLR 08/01 A3024 RMK AO2 SLP245 T00780011=
202310262353 METAR KPAE 262353Z 00000KT 10SM CLR 10/00 A3024 RMK AO2 SLP243 T01000000 10100 20072 53003=
202310262253 METAR KPAE 262253Z AUTO 30004KT 10SM CLR 10/01 A3024 RMK AO2 SLP242 T01000006=
202310262153 METAR KPAE 262153Z 30005KT 10SM CLR 09/01 A3023 RMK AO2 SLP240 T00940011=
202310262053 METAR KPAE 262053Z VRB03KT 10SM SCT027 09/02 A3023 RMK AO2 SLP241 T00890022 58002=
202310261953 METAR KPAE 261953Z 00000KT 10SM CLR 09/01 A3024 RMK AO2 SLP245 T00940006=
202310261853 METAR KPAE 261853Z 16005KT 10SM CLR 08/01 A3024 RMK AO2 SLP244 T00830011=
202310261753 METAR KPAE 261753Z VRB04KT 10SM CLR 07/02 A3024 RMK AO2 SLP242 T00720017 10072 20017 51014=
202310261653 METAR KPAE 261653Z 16006KT 10SM CLR 07/03 A3023 RMK AO2 SLP240 T00670028=
202310261553 METAR KPAE 261553Z 14003KT 10SM CLR 04/02 A3022 RMK AO2 SLP238 T00440017=
202310261453 METAR KPAE 261453Z 12003KT 10SM OVC048 03/01 A3020 RMK AO2 SLP229 T00330006 53014=
202310261353 METAR KPAE 261353Z 00000KT 10SM BKN046 03/00 A3018 RMK AO2 SLP222 T00280000=
202310261253 METAR KPAE 261253Z AUTO 00000KT 10SM CLR 04/00 A3017 RMK AO2 SLP218 T00390000=
202310261153 METAR KPAE 261153Z AUTO 24005KT 10SM CLR 04/00 A3015 RMK AO2 SLP214 70001 T00440000 10050 20017 51016=
202310261053 METAR KPAE 261053Z AUTO 25004KT 10SM BKN045 03/01 A3015 RMK AO2 SLP213 T00330006=
202310260953 METAR KPAE 260953Z AUTO 27004KT 10SM CLR 05/M01 A3013 RMK AO2 SLP207 T00501006=
202310260853 METAR KPAE 260853Z AUTO 00000KT 10SM CLR 02/M02 A3011 RMK AO2 SLP199 T00221017 53014=
202310260753 METAR KPAE 260753Z AUTO 00000KT 10SM CLR 03/M01 A3008 RMK AO2 SLP190 T00331011 401000022=
202310260653 METAR KPAE 260653Z AUTO 00000KT 10SM CLR 04/M01 A3007 RMK AO2 SLP186 T00391011=
202310260553 METAR KPAE 260553Z AUTO 31004KT 10SM CLR 05/M01 A3007 RMK AO2 SLP184 T00501011 10089 20050 51018=
202310260453 METAR KPAE 260453Z AUTO 34004KT 10SM CLR 06/M01 A3006 RMK AO2 SLP180 T00611011=
202310260353 METAR KPAE 260353Z AUTO 31005KT 10SM CLR 06/M01 A3004 RMK AO2 SLP175 T00611006=
202310260253 METAR KPAE 260253Z 33005KT 10SM CLR 07/00 A3001 RMK AO2 SLP165 T00670000 51017=
202310260153 METAR KPAE 260153Z 30003KT 10SM CLR 07/01 A2999 RMK AO2 SLP159 T00670006=
202310260053 METAR KPAE 260053Z 32004KT 10SM CLR 08/01 A2998 RMK AO2 SLP154 T00780011=
202310260000 SPECI KPAE 260000Z 32006KT 10SM FEW033 09/03 A2996 RMK AO2 T00890028=
202310252353 METAR KPAE 252353Z 31007KT 10SM BKN012 BKN029 09/02 A2996 RMK AO2 SLP147 T00890022 10100 20072 53017=
202310252253 METAR KPAE 252253Z 35008KT 10SM BKN011 09/04 A2993 RMK AO2 SLP139 T00940039=
202310252153 METAR KPAE 252153Z 31007KT 10SM BKN011 09/04 A2991 RMK AO2 SLP132 T00940044=
202310252117 SPECI KPAE 252117Z 31003KT 10SM BKN011 08/04 A2991 RMK AO2 T00830044=
202310252053 METAR KPAE 252053Z 34004KT 10SM BKN008 OVC080 08/05 A2991 RMK AO2 SLP130 T00780050 51018=
202310252014 SPECI KPAE 252014Z 32005KT 10SM SCT005 OVC080 07/04 A2991 RMK AO2 T00720044=
202310251953 METAR KPAE 251953Z 33005KT 10SM BKN005 OVC075 07/05 A2990 RMK AO2 SLP128 T00720050=
202310251853 METAR KPAE 251853Z 36006KT 9SM BKN004 BKN060 OVC075 07/05 A2988 RMK AO2 SLP121 T00720050=
202310251753 METAR KPAE 251753Z 00000KT 10SM SCT004 SCT050 OVC070 07/05 A2986 RMK AO2 SLP112 60001 T00720050 10072 20050 51029=
202310251653 METAR KPAE 251653Z 02005KT 10SM FEW003 BKN070 OVC085 07/04 A2983 RMK AO2 RAB02E50 SLP105 P0001 T00670044=
202310251553 METAR KPAE 251553Z 01003KT 10SM FEW032 SCT040 OVC070 07/04 A2981 RMK AO2 SLP096 T00670044=
202310251453 METAR KPAE 251453Z 01003KT 10SM FEW003 BKN065 BKN085 06/04 A2977 RMK AO2 SLP083 60000 T00560039 53021=
202310251440 SPECI KPAE 251440Z 02003KT 10SM FEW003 SCT070 BKN090 06/04 A2976 RMK AO2 T00560039=
202310251353 METAR KPAE 251353Z 00000KT 10SM FEW032 BKN055 OVC065 06/04 A2974 RMK AO2 SLP074 T00610039=
202310251253 METAR KPAE 251253Z AUTO 04003KT 10SM BKN065 OVC080 06/04 A2971 RMK AO2 RAB27E36 SLP064 P0000 T00560039=
202310251153 METAR KPAE 251153Z AUTO 08004KT 10SM BKN039 OVC060 06/03 A2970 RMK AO2 SLP061 60004 70059 T00610033 10067 20056 53011=
202310251053 METAR KPAE 251053Z AUTO 09006KT 10SM SCT055 BKN095 BKN110 06/04 A2969 RMK AO2 SLP055 T00560039=
202310250953 METAR KPAE 250953Z AUTO 11004KT 10SM FEW075 06/03 A2968 RMK AO2 SLP054 T00560033=
202310250853 METAR KPAE 250853Z AUTO 14005KT 10SM FEW070 BKN090 06/04 A2967 RMK AO2 SLP050 60004 T00610039 53007=
202310250753 METAR KPAE 250753Z AUTO 15009G21KT 10SM FEW060 BKN075 OVC095 06/04 A2966 RMK AO2 RAB07E51 SLP044 P0001 T00610039 401000061=
202310250708 SPECI KPAE 250708Z AUTO 14009G16KT 090V160 10SM -RA FEW009 BKN032 OVC070 07/04 A2965 RMK AO2 RAB07 P0000 T00670039=
202310250700 SPECI KPAE 250700Z AUTO VRB06G19KT 10SM SCT011 BKN033 OVC070 07/04 A2965 RMK AO2 T00670044=
202310250653 METAR KPAE 250653Z AUTO 15012G21KT 10SM BKN010 BKN035 OVC070 07/04 A2965 RMK AO2 RAE44 SLP041 P0003 T00670044=
202310250650 SPECI KPAE 250650Z AUTO 15013G21KT 10SM BKN010 BKN035 OVC070 07/04 A2965 RMK AO2 RAE44 P0003=
202310250641 SPECI KPAE 250641Z AUTO 15012G19KT 10SM -RA BKN009 OVC034 07/04 A2964 RMK AO2 P0003 T00670044=
202310250633 SPECI KPAE 250633Z AUTO 15011G18KT 10SM -RA SCT009 BKN015 OVC033 07/05 A2963 RMK AO2 P0003 T00670050=
202310250609 SPECI KPAE 250609Z AUTO VRB06G20KT 6SM -RA BR FEW006 OVC033 07/05 A2962 RMK AO2 P0002 T00670050=
202310250553 METAR KPAE 250553Z AUTO 14013G24KT 6SM -RA BR FEW007 BKN023 OVC035 07/05 A2962 RMK AO2 SLP033 P0011 60047 T00670050 10083 20067 53005=
202310250548 SPECI KPAE 250548Z AUTO 14010G22KT 5SM RA BR FEW007 BKN023 OVC032 07/05 A2962 RMK AO2 P0011=
202310250535 SPECI KPAE 250535Z AUTO 15011G17KT 6SM -RA BR SCT010 BKN023 OVC030 07/04 A2962 RMK AO2 P0008 T00670044=
202310250526 SPECI KPAE 250526Z AUTO 15009G20KT 6SM RA BR FEW008 SCT024 OVC030 07/04 A2962 RMK AO2 P0007 T00670044=
202310250506 SPECI KPAE 250506Z AUTO 16011G19KT 3SM RA BR FEW006 SCT016 OVC022 07/05 A2962 RMK AO2 P0004 T00670050=
202310250453 METAR KPAE 250453Z AUTO 14008G18KT 110V170 6SM -RA BR OVC024 07/05 A2961 RMK AO2 SLP029 P0008 T00670050=
202310250421 SPECI KPAE 250421Z AUTO 13007G18KT 100V170 6SM -RA BR FEW006 FEW010 OVC028 07/05 A2960 RMK AO2 P0005 T00720050=
202310250353 METAR KPAE 250353Z AUTO 11011G19KT 5SM RA BR FEW006 BKN030 OVC037 07/05 A2961 RMK AO2 SLP028 P0009 T00720050=
202310250300 SPECI KPAE 250300Z VRB05G19KT 6SM -RA BR SCT029 OVC035 07/06 A2962 RMK AO2 P0001 T00720056=
202310250253 METAR KPAE 250253Z 11012G19KT 6SM RA BR BKN029 07/06 A2963 RMK AO2 SLP034 P0009 60019 T00720056 56027=
202310250244 SPECI KPAE 250244Z 11009G18KT 6SM -RA BKN029 08/05 A2963 RMK AO2 P0007 T00780050=
202310250153 METAR KPAE 250153Z 12007KT 100V170 6SM -RA BR OVC037 08/06 A2965 RMK AO2 SLP041 P0006 T00780056=
202310250053 METAR KPAE 250053Z 15010G18KT 7SM -RA FEW028 BKN041 OVC048 08/05 A2967 RMK AO2 SLP050 P0004 T00780050=
202310250019 SPECI KPAE 250019Z 15009G18KT 6SM -RA BR BKN017 BKN028 OVC034 08/06 A2969 RMK AO2 P0002 T00780056=
202310242353 METAR KPAE 242353Z 15011G20KT 9SM -RA FEW018 BKN032 OVC048 08/06 A2971 RMK AO2 SLP061 P0005 60008 T00830056 10100 20083 58033=
202310242253 METAR KPAE 242253Z 16012KT 7SM -RA FEW018 BKN032 OVC048 09/06 A2974 RMK AO2 SLP073 P0001 T00890056=
202310242153 METAR KPAE 242153Z 16010KT 6SM -RA SCT012 BKN027 OVC032 09/06 A2977 RMK AO2 RAE25B29 SLP083 P0001 T00940056=
202310242053 METAR KPAE 242053Z 15012KT 9SM -RA BKN027 BKN034 OVC045 09/05 A2981 RMK AO2 RAE25B44 SLP094 P0000 60001 T00940050 58030=
202310241953 METAR KPAE 241953Z 16011KT 10SM -RA BKN023 BKN030 OVC037 09/05 A2984 RMK AO2 SLP105 P0001 T00940050=
202310241936 SPECI KPAE 241936Z 18012G18KT 10SM -RA BKN024 BKN030 OVC039 10/06 A2985 RMK AO2 P0001 T01000056=
202310241853 METAR KPAE 241853Z 17010KT 10SM -RA FEW034 FEW045 OVC055 10/05 A2987 RMK AO2 RAB01 SLP118 P0000 T01000050=
202310241753 METAR KPAE 241753Z 17011KT 10SM FEW021 FEW048 OVC060 10/04 A2990 RMK AO2 SLP125 T01000044 10100 20078 58023=
202310241653 METAR KPAE 241653Z 15008KT 10SM FEW022 BKN080 OVC090 09/04 A2992 RMK AO2 SLP133 T00890044=
202310241553 METAR KPAE 241553Z 15008KT 10SM BKN110 08/04 A2995 RMK AO2 SLP143 T00780039=
202310241453 METAR KPAE 241453Z 15006KT 10SM SCT018 SCT110 08/04 A2997 RMK AO2 SLP149 T00780039 56014=
202310241353 METAR KPAE 241353Z 15006KT 10SM SCT026 BKN049 BKN120 08/04 A2998 RMK AO2 SLP153 T00780039=
202310241324 SPECI KPAE 241324Z AUTO 15005KT 10SM SCT026 BKN120 08/04 A2998 RMK AO2 T00780039=
202310241253 METAR KPAE 241253Z AUTO 15005KT 10SM OVC024 08/04 A2999 RMK AO2 SLP157 T00780039=
202310241153 METAR KPAE 241153Z AUTO 15006KT 10SM OVC015 08/04 A3001 RMK AO2 SLP163 70001 T00780039 10089 20078 58015=
202310241134 SPECI KPAE 241134Z AUTO VRB04KT 10SM OVC015 08/04 A3002 RMK AO2 T00830044=
202310241103 SPECI KPAE 241103Z AUTO 13004KT 10SM OVC014 08/04 A3002 RMK AO2 T00780044=
202310241053 METAR KPAE 241053Z AUTO 15009G16KT 10SM BKN015 08/04 A3002 RMK AO2 SLP168 T00780044=
202310241010 SPECI KPAE 241010Z AUTO VRB03KT 10SM BKN017 OVC060 08/05 A3005 RMK AO2 T00780050=
202310240953 METAR KPAE 240953Z AUTO VRB04KT 10SM SCT017 SCT060 08/05 A3005 RMK AO2 SLP178 T00780050=
202310240853 METAR KPAE 240853Z AUTO 08006KT 10SM BKN034 OVC050 08/04 A3005 RMK AO2 SLP178 T00830044 53005=
202310240753 METAR KPAE 240753Z AUTO 15005KT 10SM SCT041 OVC049 09/04 A3004 RMK AO2 SLP175 T00890044 401170083=
202310240653 METAR KPAE 240653Z AUTO 14005KT 10SM BKN043 OVC055 09/04 A3004 RMK AO2 SLP174 T00890044=
202310240553 METAR KPAE 240553Z AUTO 10006KT 10SM BKN042 OVC060 09/04 A3004 RMK AO2 SLP173 60000 T00940039 10106 20094 56003=
202310240453 METAR KPAE 240453Z AUTO 02005KT 10SM OVC042 10/03 A3004 RMK AO2 SLP173 T01000028=
202310240353 METAR KPAE 240353Z AUTO 02004KT 10SM OVC040 10/03 A3003 RMK AO2 SLP172 T01000033=
202310240253 METAR KPAE 240253Z 36006KT 10SM OVC038 10/04 A3004 RMK AO2 SLP175 60000 T01000039 53006=
202310240153 METAR KPAE 240153Z 35006KT 10SM OVC035 10/04 A3003 RMK AO2 SLP171 T01000044=
202310240053 METAR KPAE 240053Z 35006KT 10SM OVC035 10/04 A3002 RMK AO2 RAB10E18 SLP166 P0000 T01000044=
202310232353 METAR KPAE 232353Z 34004KT 10SM OVC033 11/04 A3003 RMK AO2 SLP169 60000 T01060044 10117 20106 53004=
202310232253 METAR KPAE 232253Z 34005KT 10SM OVC028 11/05 A3002 RMK AO2 SLP165 T01110050=
202310232153 METAR KPAE 232153Z VRB03KT 10SM BKN026 OVC035 11/06 A3002 RMK AO2 RAE2057 SLP165 P0000 T01110061=
202310232053 METAR KPAE 232053Z 30004KT 10SM -RA BKN010 BKN024 11/07 A3002 RMK AO2 RAB42 SLP165 P0000 60000 T01060072 50003=
202310231953 METAR KPAE 231953Z 00000KT 10SM SCT009 OVC018 11/08 A3002 RMK AO2 RAE24 SLP166 P0000 T01110083=
202310231916 SPECI KPAE 231916Z 23004KT 10SM -RA SCT009 OVC018 11/08 A3002 RMK AO2 P0000 T01110083=
202310231853 METAR KPAE 231853Z 00000KT 10SM -RA BKN009 BKN018 OVC028 11/08 A3001 RMK AO2 RAB43 SLP165 P0000 T01110078=
202310231753 METAR KPAE 231753Z 15004KT 10SM SCT012 OVC026 11/08 A3001 RMK AO2 SLP162 60001 T01060078 10106 20100 51007=
202310231653 METAR KPAE 231653Z 00000KT 10SM SCT012 BKN026 11/07 A3001 RMK AO2 SLP162 T01060072=
202310231625 SPECI KPAE 231625Z 19005KT 10SM SCT012 BKN026 OVC042 11/08 A3001 RMK AO2 T01060078=
202310231600 SPECI KPAE 231600Z 20005KT 10SM FEW016 BKN041 BKN050 10/08 A3001 RMK AO2 T01000083=
202310231553 METAR KPAE 231553Z 21004KT 7SM OVC004 10/08 A3000 RMK AO2 RAE03 SLP160 P0000 T01000083=
202310231524 SPECI KPAE 231524Z 20006KT 7SM OVC004 11/09 A3000 RMK AO2 RAE03 P0000 T01060089=
202310231517 SPECI KPAE 231517Z 20006KT 10SM SCT004 OVC010 11/09 A2999 RMK AO2 RAE03 CIG 006V011 P0000 T01060089=
202310231453 METAR KPAE 231453Z 21008KT 7SM -RA OVC004 11/09 A2998 RMK AO2 RAB53 SLP154 P0001 60001 T01060089 51003=
202310231353 METAR KPAE 231353Z 17005KT 5SM BR OVC003 11/09 A2998 RMK AO2 SLP154 T01060094=
202310231253 METAR KPAE 231253Z AUTO 18006KT 6SM BR OVC003 11/09 A2998 RMK AO2 SLP152 T01060089=
202310231223 SPECI KPAE 231223Z AUTO 19006KT 7SM BKN005 BKN041 OVC055 11/09 A2998 RMK AO2 T01060089=
202310231153 METAR KPAE 231153Z AUTO 00000KT 9SM FEW005 SCT018 OVC038 11/09 A2997 RMK AO2 SLP151 70002 T01060089 10106 20078 53001=
202310231137 SPECI KPAE 231137Z AUTO 00000KT 9SM FEW005 BKN019 OVC035 11/09 A2998 RMK AO2 T01060094=
202310231053 METAR KPAE 231053Z AUTO 16003KT 9SM OVC017 11/09 A2997 RMK AO2 SLP149 T01060089=
202310231023 SPECI KPAE 231023Z AUTO 16005KT 7SM FEW013 BKN029 OVC035 11/09 A2997 RMK AO2 T01060094=
202310230953 METAR KPAE 230953Z AUTO 17005KT 6SM BR FEW014 FEW026 OVC033 11/09 A2997 RMK AO2 SLP149 T01060089=
202310230925 SPECI KPAE 230925Z AUTO 00000KT 6SM BR SCT014 BKN022 OVC028 10/09 A2997 RMK AO2 T01000089=
202310230853 METAR KPAE 230853Z AUTO VRB03KT 8SM OVC014 11/09 A2997 RMK AO2 SLP150 T01060089 50001=
202310230837 SPECI KPAE 230837Z AUTO 18003KT 7SM BKN014 09/08 A2998 RMK AO2 T00940083=
202310230753 METAR KPAE 230753Z AUTO 15003KT 7SM CLR 08/07 A2998 RMK AO2 SLP152 T00780067 401170078=
202310230653 METAR KPAE 230653Z AUTO 00000KT 6SM BR CLR 08/07 A2997 RMK AO2 SLP150 T00830072=
202310230553 METAR KPAE 230553Z AUTO 11003KT 7SM CLR 09/08 A2997 RMK AO2 SLP150 T00940078 10117 20083 50006=
202310230453 METAR KPAE 230453Z AUTO 00000KT 9SM CLR 09/08 A2997 RMK AO2 SLP151 T00940078=
202310230404 SPECI KPAE 230404Z AUTO 00000KT 10SM SCT015 09/08 A2997 RMK AO2 T00940083=
202310230353 METAR KPAE 230353Z 00000KT 10SM BKN015 11/08 A2997 RMK AO2 SLP148 T01060083=
202310230253 METAR KPAE 230253Z 00000KT 10SM OVC016 11/09 A2995 RMK AO2 SLP143 T01110089 53007=
202310230226 SPECI KPAE 230226Z 22004KT 10SM SCT007 OVC012 11/09 A2995 RMK AO2 T01110089=
202310230219 SPECI KPAE 230219Z 25003KT 10SM OVC015 11/09 A2995 RMK AO2 T01110089=
202310230153 METAR KPAE 230153Z 00000KT 10SM SCT007 OVC012 11/09 A2994 RMK AO2 SLP140 T01110089=
202310230133 SPECI KPAE 230133Z 00000KT 10SM OVC007 12/09 A2994 RMK AO2 T01170089=
202310230124 SPECI KPAE 230124Z 00000KT 10SM OVC010 12/09 A2994 RMK AO2 CIG 006V012 T01170089=
202310230053 METAR KPAE 230053Z 04003KT 10SM OVC008 12/09 A2993 RMK AO2 SLP137 T01170089=
202310222353 METAR KPAE 222353Z 35003KT 10SM OVC005 11/09 A2993 RMK AO2 SLP135 60000 T01110094 10117 20106 53009=
202310222253 METAR KPAE 222253Z 36005KT 10SM OVC007 12/09 A2992 RMK AO2 CIG 004V009 SLP131 T01170094=
202310222153 METAR KPAE 222153Z 33005KT 10SM OVC008 12/09 A2991 RMK AO2 CIG 005V010 SLP130 T01170094=
202310222128 SPECI KPAE 222128Z 35005KT 10SM OVC006 12/09 A2991 RMK AO2 CIG 003V010 T01170094=
202310222053 METAR KPAE 222053Z 34004KT 5SM BR BKN004 OVC009 12/10 A2990 RMK AO2 SLP127 60000 T01170100 58002=
202310222051 SPECI KPAE 222051Z 35003KT 5SM BR BKN004 OVC009 12/10 A2990 RMK AO2 CIG 003V006=
202310222004 SPECI KPAE 222004Z VRB04KT 1/2SM R16R/P6000FT FG OVC001 11/10 A2991 RMK AO2 T01110100=
202310221953 METAR KPAE 221953Z VRB03KT 1/2SM R16R/P6000FT FG OVC002 11/10 A2991 RMK AO2 RAB1855E06 SLP128 P0000 T01110100=
202310221900 SPECI KPAE 221900Z 34005KT 1/2SM R16R/6000VP6000FT -RA FG OVC001 11/09 A2991 RMK AO2 RAB1855 P0000 T01110094=
202310221856 SPECI KPAE 221856Z 35008KT 3SM R16R/6000VP6000FT -RA BR OVC001 11/09 A2991 RMK AO2 RAB55 P0000 T01110094=
202310221853 METAR KPAE 221853Z 34007KT 1 1/2SM R16R/6000VP6000FT BR OVC001 11/09 A2991 RMK AO2 SLP130 T01060094=
202310221753 METAR KPAE 221753Z 35005KT 1/2SM R16R/P6000FT FG OVC001 11/09 A2991 RMK AO2 SLP129 60002 T01060094 10106 20106 51007=
202310221704 SPECI KPAE 221704Z 34004KT 1/4SM R16R/3000VP6000FT FG VV001 11/09 A2990 RMK AO2 T01060094=
202310221653 METAR KPAE 221653Z 35004KT 1 3/4SM R16R/2400V4500FT BR OVC001 11/09 A2990 RMK AO2 RAB1556E49 SLP126 P0002 T01060094=
202310221559 SPECI KPAE 221559Z 33005KT 1SM R16R/2600V5500FT -RA BR VV001 11/09 A2990 RMK AO2 RAB56 P0000 T01060094=
202310221553 METAR KPAE 221553Z 35004KT 1/4SM R16R/1800V4500FT FG VV001 11/09 A2990 RMK AO2 SLP125 T01060094=
202310221453 METAR KPAE 221453Z 35004KT 3/4SM R16R/4000VP6000FT BR VV001 11/09 A2989 RMK AO2 SLP121 T01060094 56002=
202310221353 METAR KPAE 221353Z 01006KT 3/4SM R16R/3500VP6000FT BR VV001 11/09 A2989 RMK AO2 SLP122 T01060094=
202310221325 SPECI KPAE 221325Z AUTO 34003KT 1/2SM R16R/1600V3000FT FG VV001 11/10 A2989 RMK AO2 T01060100=
202310221311 SPECI KPAE 221311Z AUTO 34003KT 1 1/4SM BR OVC001 11/09 A2989 RMK AO2 T01060094=
202310221253 METAR KPAE 221253Z AUTO 35003KT 1/2SM R16R/3000V5500FT FG VV001 11/10 A2989 RMK AO2 SLP123 T01060100=
202310221243 SPECI KPAE 221243Z AUTO 33003KT 1/2SM R16R/2400VP6000FT FG VV001 11/10 A2989 RMK AO2 T01060100=
202310221225 SPECI KPAE 221225Z AUTO 00000KT 1SM R16R/3000VP6000FT BR VV001 11/10 A2989 RMK AO2 T01060100=
202310221153 METAR KPAE 221153Z AUTO 00000KT 3/4SM R16R/3000V5500FT BR VV001 11/10 A2989 RMK AO2 SLP122 60000 70001 T01060100 10117 20106 56003=
202310221119 SPECI KPAE 221119Z AUTO 35003KT 3/4SM R16R/3000VP6000FT BR VV001 11/10 A2989 RMK AO2 T01060100=
202310221104 SPECI KPAE 221104Z AUTO 36003KT 1SM R16R/1800V2600FT BR VV001 11/10 A2989 RMK AO2 T01060100=
202310221053 METAR KPAE 221053Z AUTO 00000KT 1/2SM R16R/1400V2000FT FG VV001 11/10 A2989 RMK AO2 SLP122 T01060100=
202310221046 SPECI KPAE 221046Z AUTO 36003KT 1/2SM R16R/1600V2000FT FG VV001 11/10 A2989 RMK AO2 T01060100=
202310221028 SPECI KPAE 221028Z AUTO 00000KT 1/2SM R16R/1600V2600FT FG VV001 11/10 A2989 RMK AO2 T01110100=
202310221015 SPECI KPAE 221015Z AUTO 34003KT 1/2SM R16R/1600V2200FT FG VV001 11/10 A2989 RMK AO2 T01060100=
202310220953 METAR KPAE 220953Z AUTO 32003KT 1/4SM R16R/1400V2000FT FG VV001 11/10 A2990 RMK AO2 SLP124 T01110100=
202310220926 SPECI KPAE 220926Z AUTO 36003KT 1/2SM R16R/3500VP6000FT FG VV001 11/10 A2989 RMK AO2 T01110100=
202310220919 SPECI KPAE 220919Z AUTO 33004KT 1SM R16R/P6000FT BR OVC002 11/10 A2990 RMK AO2 T01110100=
202310220853 METAR KPAE 220853Z AUTO 31003KT 2SM BR OVC002 11/09 A2990 RMK AO2 SLP125 60000 T01110094 53003=
202310220753 METAR KPAE 220753Z AUTO 33003KT 2 1/2SM BR OVC003 11/10 A2989 RMK AO2 RAE00 SLP122 P0000 T01110100 401170106=
202310220744 SPECI KPAE 220744Z AUTO 32003KT 2 1/2SM BR OVC003 11/10 A2989 RMK AO2 RAE00 P0000 T01110100=
202310220707 SPECI KPAE 220707Z AUTO 35003KT 6SM BR BKN003 OVC007 11/10 A2988 RMK AO2 RAE00 P0000 T01110100=
202310220653 METAR KPAE 220653Z AUTO 31003KT 8SM -RA OVC005 11/10 A2989 RMK AO2 CIG 002V010 SLP122 P0000 T01110100=
202310220553 METAR KPAE 220553Z AUTO 00000KT 9SM -RA OVC008 12/10 A2989 RMK AO2 RAB18 SLP122 P0001 60001 T01170100 10117 20111 56001=
202310220453 METAR KPAE 220453Z AUTO 25003KT 10SM OVC007 12/09 A2989 RMK AO2 RAE04 SLP122 P0000 T01170094=
202310220353 METAR KPAE 220353Z AUTO 00000KT 9SM -RA OVC007 12/10 A2989 RMK AO2 RAB48 SLP121 P0000 T01170100=
202310220253 METAR KPAE 220253Z 00000KT 3SM BR OVC005 11/10 A2989 RMK AO2 CIG 004V008 SLP123 T01110100 53004=
202310220159 SPECI KPAE 220159Z 00000KT 7SM OVC005 11/10 A2988 RMK AO2 CIG 003V007 T01110100=
202310220153 METAR KPAE 220153Z 33003KT 2SM BR OVC004 11/10 A2988 RMK AO2 CIG 003V007 SLP119 T01110100=
202310220053 METAR KPAE 220053Z VRB03KT 2SM BR OVC002 11/10 A2987 RMK AO2 SLP116 T01110100=
202310212353 METAR KPAE 212353Z 36005KT 2SM BR OVC002 12/10 A2988 RMK AO2 SLP119 T01170100 10117 20111 56002=
202310212301 SPECI KPAE 212301Z 32005KT 2SM BR BKN002 OVC007 12/11 A2989 RMK AO2 T01170106=
202310212253 METAR KPAE 212253Z 32004KT 4SM BR OVC002 12/11 A2989 RMK AO2 SLP121 T01170106=
202310212153 METAR KPAE 212153Z 33006KT 4SM BR BKN002 OVC007 12/11 A2988 RMK AO2 SLP118 T01170106=
202310212143 SPECI KPAE 212143Z 34004KT 4SM BR BKN002 OVC007 12/11 A2988 RMK AO2 T01170106=
202310212100 SPECI KPAE 212100Z 36004KT 1/2SM R16R/P6000FT FG OVC001 12/11 A2989 RMK AO2 T01170106=
202310212053 METAR KPAE 212053Z 35005KT 1/4SM R16R/P6000FT FG OVC001 12/11 A2989 RMK AO2 SLP121 T01170106 58011=
202310211953 METAR KPAE 211953Z 35003KT 1/4SM R16R/1600VP6000FT FG VV001 12/11 A2991 RMK AO2 SLP128 T01170106=
202310211853 METAR KPAE 211853Z 35004KT 1/4SM R16R/1200V3000FT FG VV001 12/11 A2992 RMK AO2 SLP132 T01170106=
202310211753 METAR KPAE 211753Z 33003KT M1/4SM R16R/0700V0800FT FG VV001 11/11 A2992 RMK AO2 SLP133 T01110106 10111 20106 50003=
202310211700 SPECI KPAE 211700Z 33003KT M1/4SM R16R/0600V1000FT FG VV001 11/10 A2992 RMK AO2 T01110100=
202310211653 METAR KPAE 211653Z 34003KT 1/4SM R16R/0800V1000FT FG VV001 11/10 A2992 RMK AO2 SLP133 T01110100=
202310211642 SPECI KPAE 211642Z 33004KT 1/4SM R16R/0800V1400FT FG VV001 11/10 A2992 RMK AO2 T01110100=
202310211632 SPECI KPAE 211632Z 32004KT 1/4SM R16R/1200V2800FT FG VV001 11/10 A2992 RMK AO2 T01110100=
202310211606 SPECI KPAE 211606Z 00000KT 3/4SM R16R/P6000FT BR OVC001 11/10 A2992 RMK AO2 T01110100=
202310211553 METAR KPAE 211553Z VRB03KT 3/4SM R16R/P6000FT BR OVC002 11/09 A2992 RMK AO2 SLP132 T01110094=
202310211538 SPECI KPAE 211538Z 32003KT 1 1/2SM BR OVC003 11/09 A2992 RMK AO2 T01060094=
202310211453 METAR KPAE 211453Z 35005KT 6SM BR OVC003 11/09 A2991 RMK AO2 SLP130 T01110094 56004=
202310211353 METAR KPAE 211353Z 35004KT 6SM BR OVC002 11/09 A2991 RMK AO2 SLP130 T01110094=
202310211253 METAR KPAE 211253Z AUTO 35003KT 8SM OVC003 11/09 A2992 RMK AO2 SLP133 T01110094=
202310211153 METAR KPAE 211153Z AUTO 34003KT 5SM BR OVC003 11/10 A2992 RMK AO2 SLP134 T01110100 10122 20111 58006=
202310211053 METAR KPAE 211053Z AUTO 35004KT 8SM OVC004 11/09 A2993 RMK AO2 SLP137 T01110094=
202310210953 METAR KPAE 210953Z AUTO 35003KT 10SM OVC004 11/09 A2994 RMK AO2 SLP139 T01110094=
202310210853 METAR KPAE 210853Z AUTO 36005KT 9SM OVC008 12/09 A2994 RMK AO2 SLP139 T01170094 56008=
202310210753 METAR KPAE 210753Z AUTO 35004KT 10SM OVC008 12/09 A2995 RMK AO2 CIG 004V009 SLP141 T01170094 401500117=
202310210729 SPECI KPAE 210729Z AUTO 34004KT 10SM OVC006 12/09 A2995 RMK AO2 CIG 003V008 T01170094=
202310210701 SPECI KPAE 210701Z AUTO 35004KT 9SM OVC004 12/10 A2996 RMK AO2 CIG 003V008 T01170100=
202310210653 METAR KPAE 210653Z AUTO 35004KT 8SM OVC006 12/10 A2996 RMK AO2 CIG 003V008 SLP144 T01170100=
202310210553 METAR KPAE 210553Z AUTO VRB03KT 10SM OVC006 12/10 A2997 RMK AO2 SLP148 T01170100 10128 20117 56007=
202310210453 METAR KPAE 210453Z AUTO 35005KT 10SM OVC007 12/10 A2997 RMK AO2 CIG 005V008 SLP151 T01220100=
202310210353 METAR KPAE 210353Z AUTO 35004KT 10SM OVC006 12/09 A2998 RMK AO2 SLP153 T01170094=
202310210253 METAR KPAE 210253Z 33005KT 9SM OVC006 12/10 A2999 RMK AO2 SLP156 T01220100 56010=
202310210153 METAR KPAE 210153Z 32003KT 10SM OVC007 12/10 A3000 RMK AO2 SLP158 T01220100=
202310210053 METAR KPAE 210053Z 32005KT 10SM OVC007 12/10 A3000 RMK AO2 SLP160 T01220100=
202310210039 SPECI KPAE 210039Z 34006KT 10SM OVC009 12/10 A3000 RMK AO2 T01220100=
202310202353 METAR KPAE 202353Z 34003KT 10SM OVC010 13/09 A3002 RMK AO2 SLP167 T01280094 10150 20128 56010=
202310202253 METAR KPAE 202253Z 33007KT 10SM OVC011 13/10 A3003 RMK AO2 SLP168 T01330100=
202310202153 METAR KPAE 202153Z 35007KT 10SM OVC012 14/10 A3004 RMK AO2 SLP171 T01390100=
202310202134 SPECI KPAE 202134Z 35007G16KT 10SM BKN012 14/10 A3004 RMK AO2 T01440100=
202310202053 METAR KPAE 202053Z 35007KT 10SM FEW010 15/10 A3005 RMK AO2 SLP176 T01500100 58015=
202310202036 SPECI KPAE 202036Z 35009G14KT 10SM SCT010 14/10 A3005 RMK AO2 T01440100=
202310201953 METAR KPAE 201953Z 36007KT 10SM OVC011 14/11 A3007 RMK AO2 SLP182 T01440106=
202310201927 SPECI KPAE 201927Z VRB04KT 10SM BKN011 14/10 A3008 RMK AO2 T01390100=
202310201859 SPECI KPAE 201859Z 35008KT 10SM SCT006 14/10 A3008 RMK AO2 T01390100=
202310201853 METAR KPAE 201853Z 35004KT 10SM BKN006 14/11 A3008 RMK AO2 SLP186 T01390106=
202310201753 METAR KPAE 201753Z 35008KT 10SM BKN006 BKN015 13/11 A3010 RMK AO2 SLP191 T01330106 10133 20117 51007=
202310201653 METAR KPAE 201653Z 35004KT 6SM BR OVC006 12/11 A3009 RMK AO2 SLP190 T01220111=
202310201620 SPECI KPAE 201620Z 36010KT 6SM BR SCT002 BKN009 OVC013 12/11 A3009 RMK AO2 T01170106=
202310201616 SPECI KPAE 201616Z 36009KT 1/2SM R16R/P6000FT FG SCT002 BKN009 OVC013 12/11 A3009 RMK AO2 T01220111=
202310201553 METAR KPAE 201553Z 36007KT 1/2SM R16R/1000VP6000FT FG VV001 12/11 A3009 RMK AO2 SLP188 T01220111=
202310201542 SPECI KPAE 201542Z 36005KT 1/2SM R16R/1200V4000FT FG VV001 12/11 A3008 RMK AO2 T01220111=
202310201531 SPECI KPAE 201531Z VRB05KT 1/4SM R16R/0800V2400FT FG VV001 12/11 A3008 RMK AO2 T01220111=
202310201455 SPECI KPAE 201455Z VRB05KT M1/4SM R16R/0500V0600FT FG VV001 12/11 A3007 RMK AO2 T01220111=
202310201453 METAR KPAE 201453Z 35004KT 1SM R16R/0500V0600FT BR OVC001 12/11 A3007 RMK AO2 SLP184 T01220111 55000=
202310201433 SPECI KPAE 201433Z 35006KT 1SM R16R/0700V1200FT BR OVC001 12/11 A3007 RMK AO2 T01170111=
202310201353 METAR KPAE 201353Z VRB05KT 1SM R16R/P6000FT BR OVC001 12/11 A3007 RMK AO2 SLP183 T01170111=
202310201337 SPECI KPAE 201337Z AUTO 35007KT 1 1/4SM R16R/6000VP6000FT BR OVC001 12/11 A3007 RMK AO2 T01170111=
202310201327 SPECI KPAE 201327Z AUTO 35006KT 3/4SM R16R/4000VP6000FT BR VV001 12/11 A3007 RMK AO2 T01170111=
202310201253 METAR KPAE 201253Z AUTO 34008KT 1/4SM R16R/1600V3500FT FG VV001 12/11 A3007 RMK AO2 SLP183 T01170106=
202310201246 SPECI KPAE 201246Z AUTO 34005KT 1/4SM R16R/1600V3500FT FG VV001 12/11 A3007 RMK AO2 T01170106=
202310201153 METAR KPAE 201153Z AUTO 35004KT 1/2SM R16R/2600VP6000FT FG VV001 12/11 A3007 RMK AO2 SLP184 70009 T01170111 10150 20117 53000=
202310201132 SPECI KPAE 201132Z AUTO 35006KT 1/2SM R16R/1600V3500FT FG VV001 12/11 A3007 RMK AO2 T01170111=
202310201126 SPECI KPAE 201126Z AUTO 35007KT 1/4SM R16R/1400V1800FT FG VV001 12/11 A3007 RMK AO2 T01170111=
202310201115 SPECI KPAE 201115Z AUTO 36006KT 1/2SM R16R/1600V2800FT FG VV001 12/11 A3006 RMK AO2 T01220111=
202310201053 METAR KPAE 201053Z AUTO 35007KT 1/2SM R16R/1400V2200FT FG VV001 12/11 A3007 RMK AO2 SLP181 T01220111=
202310201046 SPECI KPAE 201046Z AUTO 35006KT 1/2SM R16R/1400V1600FT FG VV001 12/11 A3007 RMK AO2 T01220111=
202310201007 SPECI KPAE 201007Z AUTO 36006KT 1/4SM R16R/1200V1600FT FG VV001 12/11 A3007 RMK AO2 T01220111=
202310200953 METAR KPAE 200953Z AUTO 36007KT 1/2SM R16R/1600V4000FT FG VV001 12/12 A3008 RMK AO2 SLP183 T01220117=
202310200951 SPECI KPAE 200951Z AUTO 35005KT 1/2SM R16R/1400V4000FT FG VV001 12/12 A3007 RMK AO2=
202310200930 SPECI KPAE 200930Z AUTO 35007KT 1/4SM R16R/1400V2000FT FG VV001 12/11 A3007 RMK AO2 T01220111=
202310200922 SPECI KPAE 200922Z AUTO 36007KT 1/2SM R16R/1800VP6000FT FG BKN001 OVC029 12/12 A3007 RMK AO2 T01220117=
202310200917 SPECI KPAE 200917Z AUTO 35008KT 1 1/2SM R16R/4500VP6000FT BR BKN002 OVC029 13/12 A3007 RMK AO2 T01280117=
202310200914 SPECI KPAE 200914Z AUTO 36007KT 4SM BR BKN002 OVC029 13/12 A3007 RMK AO2 T01280117=
202310200853 METAR KPAE 200853Z AUTO 36005KT 10SM FEW002 BKN028 OVC065 13/12 A3007 RMK AO2 SLP183 T01280117 52002=
202310200844 SPECI KPAE 200844Z AUTO 36006KT 10SM FEW002 BKN028 BKN044 13/12 A3007 RMK AO2 T01280117=
202310200831 SPECI KPAE 200831Z AUTO 35005KT 10SM FEW003 SCT030 BKN044 13/12 A3007 RMK AO2 T01330117=
202310200753 METAR KPAE 200753Z AUTO 36006KT 10SM SCT028 OVC038 13/12 A3007 RMK AO2 SLP182 T01330122 401890133=
202310200653 METAR KPAE 200653Z AUTO 35007KT 10SM SCT002 OVC025 14/13 A3007 RMK AO2 SLP181 T01390128=
202310200637 SPECI KPAE 200637Z AUTO 35005KT 10SM FEW002 OVC024 14/13 A3007 RMK AO2 T01440133=
202310200553 METAR KPAE 200553Z AUTO 34005KT 10SM OVC022 15/13 A3007 RMK AO2 SLP181 60009 T01500133 10172 20150 51002=
202310200510 SPECI KPAE 200510Z AUTO 33004KT 10SM SCT015 OVC020 16/14 A3007 RMK AO2 T01560139=
202310200453 METAR KPAE 200453Z AUTO 00000KT 10SM OVC014 15/14 A3007 RMK AO2 RAE35 SLP181 P0002 T01500139=
202310200443 SPECI KPAE 200443Z AUTO 00000KT 8SM BKN012 OVC021 16/14 A3007 RMK AO2 RAE35 P0002 T01560144=
202310200419 SPECI KPAE 200419Z AUTO 36003KT 4SM -RA BR FEW002 OVC021 15/14 A3007 RMK AO2 P0002 T01500139=
202310200410 SPECI KPAE 200410Z AUTO 35004KT 3SM -RA BR SCT002 BKN010 OVC019 15/14 A3007 RMK AO2 P0001 T01500139=
202310200400 SPECI KPAE 200400Z AUTO 35004KT 2 1/2SM -RA BR BKN002 OVC019 15/14 A3007 RMK AO2 P0001 T01500139=
202310200353 METAR KPAE 200353Z 35005KT 3SM -RA BR SCT004 OVC009 15/14 A3007 RMK AO2 SLP183 P0002 T01500139=
202310200255 SPECI KPAE 200255Z 36003KT 3SM -RA BR SCT004 OVC009 16/15 A3006 RMK AO2 CIG 006V011 P0000 T01610150=
202310200253 METAR KPAE 200253Z 36004KT 2SM -RA BR BKN002 OVC012 16/15 A3006 RMK AO2 SLP179 P0004 60005 T01610150 50001=
202310200201 SPECI KPAE 200201Z 36004KT 2SM -RA BR BKN002 OVC012 16/15 A3007 RMK AO2 P0001 T01610150=
202310200153 METAR KPAE 200153Z 36003KT 2SM -RA BR SCT002 SCT009 OVC014 16/15 A3007 RMK AO2 RAB26E36B45 SLP180 P0001 T01610150=
202310200150 SPECI KPAE 200150Z 36003KT 2SM -RA BR SCT002 SCT009 OVC014 17/15 A3007 RMK AO2 RAB26E36B45 P0001=
202310200137 SPECI KPAE 200137Z 34003KT 2 1/2SM BR BKN002 OVC012 17/16 A3006 RMK AO2 RAB26E36 P0000 T01670156=
202310200129 SPECI KPAE 200129Z 00000KT 2SM -RA BR SCT002 OVC012 17/15 A3006 RMK AO2 RAB26 P0000 T01670150=
202310200118 SPECI KPAE 200118Z 00000KT 1 1/2SM BR FEW002 OVC014 17/16 A3006 RMK AO2 T01670156=
202310200053 METAR KPAE 200053Z 00000KT 1 1/2SM BR OVC016 16/15 A3006 RMK AO2 SLP177 T01610150=
202310200029 SPECI KPAE 200029Z 36004KT 1 1/2SM BR OVC016 17/14 A3006 RMK AO2 T01670144=
202310192353 METAR KPAE 192353Z AUTO 01003KT 10SM OVC017 17/14 A3006 RMK AO2 SLP178 T01720139 10189 20156 56006=
202310192253 METAR KPAE 192253Z AUTO 00000KT 10SM OVC018 18/14 A3007 RMK AO2 SLP180 T01830139=
202310192153 METAR KPAE 192153Z 17006KT 10SM OVC017 19/14 A3007 RMK AO2 SLP182 T01890139=
202310192117 SPECI KPAE 192117Z 17009KT 10SM OVC014 19/14 A3007 RMK AO2 T01890139=
202310192053 METAR KPAE 192053Z 17008KT 10SM BKN010 OVC014 18/13 A3008 RMK AO2 SLP184 T01830133 58001=
202310191953 METAR KPAE 191953Z 19011G16KT 10SM OVC014 18/13 A3009 RMK AO2 SLP189 T01780133=
202310191853 METAR KPAE 191853Z 17013KT 10SM FEW008 BKN012 17/13 A3009 RMK AO2 SLP187 T01720128=
202310191818 SPECI KPAE 191818Z 16013G24KT 10SM FEW008 BKN010 17/12 A3008 RMK AO2 T01670122=
202310191753 METAR KPAE 191753Z 15017G22KT 10SM BKN008 16/12 A3008 RMK AO2 SLP186 T01560122 10156 20133 51008=
202310191751 SPECI KPAE 191751Z 16015G22KT 10SM SCT006 16/12 A3008 RMK AO2=
202310191653 METAR KPAE 191653Z 14009KT 10SM OVC005 14/12 A3007 RMK AO2 SLP182 T01440117=
202310191553 METAR KPAE 191553Z 15012KT 10SM OVC005 14/11 A3006 RMK AO2 SLP178 T01390106=
202310191453 METAR KPAE 191453Z 15009KT 10SM OVC009 14/09 A3004 RMK AO2 SLP172 T01390094 53006=
202310191426 SPECI KPAE 191426Z VRB06KT 10SM BKN011 14/09 A3004 RMK AO2 T01390089=
202310191353 METAR KPAE 191353Z 14007KT 10SM CLR 14/09 A3004 RMK AO2 SLP170 T01390089=
202310191253 METAR KPAE 191253Z AUTO VRB05KT 10SM CLR 13/09 A3003 RMK AO2 SLP166 T01330089=
202310191153 METAR KPAE 191153Z AUTO 12004KT 10SM CLR 13/09 A3002 RMK AO2 SLP166 T01330089 10172 20133 55003=
202310191053 METAR KPAE 191053Z AUTO 11005KT 10SM CLR 13/09 A3002 RMK AO2 SLP165 T01330089=
202310190953 METAR KPAE 190953Z AUTO 11007KT 10SM CLR 14/09 A3003 RMK AO2 SLP167 T01390094=
202310190853 METAR KPAE 190853Z AUTO VRB05KT 10SM CLR 15/09 A3003 RMK AO2 SLP168 T01500089 52002=
202310190753 METAR KPAE 190753Z AUTO 11005KT 10SM CLR 14/09 A3003 RMK AO2 SLP168 T01440089 402170117=
202310190653 METAR KPAE 190653Z AUTO 11003KT 10SM CLR 15/09 A3003 RMK AO2 SLP167 T01500089=
202310190553 METAR KPAE 190553Z AUTO 15005KT 10SM CLR 17/10 A3003 RMK AO2 SLP166 T01720100 10211 20161 53004=
202310190453 METAR KPAE 190453Z AUTO 16007KT 10SM CLR 18/11 A3002 RMK AO2 SLP165 T01780111=
202310190353 METAR KPAE 190353Z 16008KT 10SM CLR 18/12 A3001 RMK AO2 SLP162 T01780117=
202310190253 METAR KPAE 190253Z 15007KT 10SM CLR 18/12 A3001 RMK AO2 SLP162 T01830117 56003=
202310190153 METAR KPAE 190153Z 15008KT 10SM CLR 19/11 A3002 RMK AO2 SLP165 T01940111=
202310190053 METAR KPAE 190053Z 16010KT 10SM CLR 21/11 A3001 RMK AO2 SLP163 T02060106=
202310182353 METAR KPAE 182353Z 18008KT 10SM CLR 21/11 A3002 RMK AO2 SLP166 T02110111 10217 20172 56005=
202310182253 METAR KPAE 182253Z 18008KT 10SM CLR 21/10 A3003 RMK AO2 SLP168 T02110100=
202310182153 METAR KPAE 182153Z 16010KT 10SM CLR 22/09 A3003 RMK AO2 SLP166 T02170089=
202310182053 METAR KPAE 182053Z 15007KT 10SM CLR 21/07 A3004 RMK AO2 SLP172 T02110072 58009=
202310181953 METAR KPAE 181953Z 15009KT 10SM CLR 20/06 A3006 RMK AO2 SLP177 T02000061=
202310181853 METAR KPAE 181853Z 15013G20KT 10SM CLR 19/06 A3006 RMK AO2 SLP179 T01890061=
202310181753 METAR KPAE 181753Z 14008G19KT 10SM CLR 17/06 A3007 RMK AO2 SLP182 T01720061 10172 20122 50000=
202310181653 METAR KPAE 181653Z 15016G24KT 10SM CLR 16/06 A3008 RMK AO2 SLP183 T01610061=
202310181553 METAR KPAE 181553Z 15017KT 10SM CLR 15/06 A3007 RMK AO2 PK WND 16029/1539 SLP182 T01500061=
202310181453 METAR KPAE 181453Z 15014G21KT 100V160 10SM CLR 13/07 A3007 RMK AO2 SLP182 T01330067 50005=
202310181353 METAR KPAE 181353Z 16013KT 10SM CLR 13/07 A3007 RMK AO2 SLP183 T01280072=
202310181253 METAR KPAE 181253Z AUTO 16013KT 10SM CLR 13/07 A3006 RMK AO2 SLP178 T01280072=
202310181153 METAR KPAE 181153Z AUTO 14011G21KT 10SM BKN039 13/08 A3005 RMK AO2 SLP177 70006 T01280078 10133 20117 58013=
202310181053 METAR KPAE 181053Z AUTO 14010KT 10SM CLR 12/08 A3007 RMK AO2 SLP182 T01220078=
202310180953 METAR KPAE 180953Z AUTO 16018KT 10SM CLR 13/08 A3008 RMK AO2 SLP186 T01280078=
202310180853 METAR KPAE 180853Z AUTO 16012KT 10SM CLR 13/08 A3009 RMK AO2 SLP190 T01280083 58005=
202310180753 METAR KPAE 180753Z AUTO 15013KT 10SM CLR 12/08 A3010 RMK AO2 SLP191 T01220083 401500100=
202310180653 METAR KPAE 180653Z AUTO VRB05KT 10SM FEW048 13/08 A3011 RMK AO2 SLP195 T01280083=
202310180553 METAR KPAE 180553Z AUTO 13007G17KT 100V170 10SM CLR 13/08 A3011 RMK AO2 SLP195 60002 T01330083 10133 20122 56015=
202310180453 METAR KPAE 180453Z AUTO VRB05KT 10SM OVC100 13/09 A3012 RMK AO2 SLP198 T01330089=
202310180353 METAR KPAE 180353Z AUTO 12005KT 10SM BKN070 OVC100 13/09 A3012 RMK AO2 RAE28 SLP202 P0000 T01280094=
202310180253 METAR KPAE 180253Z VRB03KT 10SM -RA FEW080 OVC110 13/09 A3015 RMK AO2 RAB0156 SLP211 P0002 60002 T01280094 58003=
202310180153 METAR KPAE 180153Z 13003KT 10SM FEW065 SCT080 OVC110 13/09 A3017 RMK AO2 RAE49 SLP218 P0000 T01330094=
202310180053 METAR KPAE 180053Z VRB04KT 10SM -RA FEW038 BKN100 OVC120 13/10 A3017 RMK AO2 RAE10B50 SLP216 P0000 T01330100=
202310172353 METAR KPAE 172353Z 15009KT 10SM -RA OVC110 13/09 A3016 RMK AO2 SLP215 P0002 60004 T01330094 10150 20133 58017=
202310172253 METAR KPAE 172253Z 11004KT 9SM -RA BKN080 OVC100 14/09 A3021 RMK AO2 RAB07 SLP230 P0002 T01390094=
202310172153 METAR KPAE 172153Z 00000KT 10SM OVC060 14/09 A3022 RMK AO2 RAB29E48 SLP235 P0000 T01440089=
202310172056 SPECI KPAE 172056Z 17005KT 10SM FEW020 OVC070 14/09 A3021 RMK AO2 T01440094=
202310172053 METAR KPAE 172053Z 18007KT 10SM BKN010 OVC075 14/09 A3021 RMK AO2 SLP231 60000 T01440094 53003=
202310171953 METAR KPAE 171953Z 17009KT 10SM BKN010 BKN023 15/09 A3019 RMK AO2 SLP224 T01500089=
202310171853 METAR KPAE 171853Z 16007KT 10SM BKN010 BKN055 OVC110 14/09 A3019 RMK AO2 RAB21E31 SLP223 P0000 T01390094=
202310171753 METAR KPAE 171753Z 18008KT 10SM BKN010 BKN043 OVC100 14/09 A3020 RMK AO2 RAB15E30 SLP228 P0000 60000 T01390094 10139 20106 50004=
202310171737 SPECI KPAE 171737Z 16007KT 10SM BKN010 BKN031 OVC100 13/09 A3021 RMK AO2 RAB15E30 P0000 T01330094=
202310171653 METAR KPAE 171653Z 15007KT 10SM SCT008 OVC110 12/09 A3021 RMK AO2 SLP229 T01220094=
202310171624 SPECI KPAE 171624Z 15007KT 10SM SCT008 BKN011 BKN020 12/09 A3020 RMK AO2 T01220094=
202310171553 METAR KPAE 171553Z 15007KT 10SM BKN007 12/09 A3020 RMK AO2 SLP226 T01170094=
202310171524 SPECI KPAE 171524Z 16006KT 10SM BKN007 12/09 A3020 RMK AO2 T01170094=
202310171500 SPECI KPAE 171500Z 16005KT 10SM OVC010 11/09 A3020 RMK AO2 T01110094=
202310171453 METAR KPAE 171453Z 15004KT 10SM OVC009 11/09 A3019 RMK AO2 SLP224 T01110094 53006=
202310171353 METAR KPAE 171353Z 00000KT 10SM BKN008 OVC014 11/09 A3018 RMK AO2 SLP219 T01110094=
202310171342 SPECI KPAE 171342Z AUTO 15005KT 10SM BKN008 OVC014 11/09 A3017 RMK AO2 CIG 006V012 T01110094=
202310171315 SPECI KPAE 171315Z AUTO 15004KT 10SM BKN012 11/09 A3018 RMK AO2 T01110089=
202310171253 METAR KPAE 171253Z AUTO 16004KT 10SM FEW013 11/09 A3017 RMK AO2 SLP217 T01110089=
202310171223 SPECI KPAE 171223Z AUTO 16005KT 10SM SCT017 11/09 A3017 RMK AO2 T01110089=
202310171153 METAR KPAE 171153Z AUTO 00000KT 10SM FEW009 OVC017 11/09 A3017 RMK AO2 SLP217 70019 T01110094 10128 20100 53010=
202310171126 SPECI KPAE 171126Z AUTO 00000KT 10SM OVC018 10/08 A3017 RMK AO2 T01000083=
202310171053 METAR KPAE 171053Z AUTO 14003KT 10SM BKN012 11/09 A3016 RMK AO2 SLP212 T01110089=
202310170953 METAR KPAE 170953Z AUTO VRB03KT 10SM BKN012 11/09 A3014 RMK AO2 SLP207 T01110089=
202310170853 METAR KPAE 170853Z AUTO 17005KT 10SM CLR 11/09 A3013 RMK AO2 SLP203 T01060089 53019=
202310170753 METAR KPAE 170753Z AUTO 18009KT 10SM CLR 11/09 A3010 RMK AO2 SLP194 T01110089 401720111=
202310170710 SPECI KPAE 170710Z AUTO 19006KT 10SM SCT011 BKN060 12/09 A3009 RMK AO2 T01170089=
202310170653 METAR KPAE 170653Z AUTO 18007KT 10SM BKN013 12/09 A3009 RMK AO2 SLP188 T01170094=
202310170633 SPECI KPAE 170633Z AUTO 19010KT 10SM BKN013 OVC018 12/09 A3007 RMK AO2 T01220094=
202310170622 SPECI KPAE 170622Z AUTO 18009KT 10SM OVC015 12/09 A3007 RMK AO2 T01220094=
202310170553 METAR KPAE 170553Z AUTO 20010G18KT 10SM BKN014 OVC021 13/09 A3007 RMK AO2 SLP184 T01280094 10161 20128 51015=
202310170453 METAR KPAE 170453Z AUTO 21006KT 10SM FEW016 OVC023 13/10 A3006 RMK AO2 SLP178 T01280100=
202310170430 SPECI KPAE 170430Z AUTO 19009KT 10SM SCT012 BKN019 OVC095 13/10 A3006 RMK AO2 T01280100=
202310170406 SPECI KPAE 170406Z AUTO 18006KT 10SM BKN012 BKN017 OVC025 13/10 A3005 RMK AO2 T01330100=
202310170353 METAR KPAE 170353Z AUTO VRB04KT 10SM SCT015 BKN022 OVC028 13/09 A3005 RMK AO2 SLP175 T01330094=
202310170253 METAR KPAE 170253Z 12004KT 10SM OVC019 13/09 A3003 RMK AO2 SLP169 T01330094 53043=
202310170153 METAR KPAE 170153Z 03005KT 10SM SCT014 BKN021 BKN028 13/10 A2998 RMK AO2 SLP150 T01330100=
202310170053 METAR KPAE 170053Z 36004KT 10SM SCT012 BKN018 OVC080 13/11 A2994 RMK AO2 PK WND 18026/0017 SLP140 T01330106=
202310170016 SPECI KPAE 170016Z 18017G24KT 10SM BKN009 BKN085 OVC110 16/12 A2992 RMK AO2 T01610122=
202310162353 METAR KPAE 162353Z 18015G22KT 10SM OVC090 16/13 A2990 RMK AO2 PK WND 17026/2308 SLP124 60000 T01610128 10172 20144 53001=
202310162253 METAR KPAE 162253Z 17015G26KT 10SM FEW012 BKN100 17/13 A2987 RMK AO2 PK WND 17026/2246 RAE20 SLP114 P0000 T01720133=
202310162153 METAR KPAE 162153Z 18015G22KT 10SM -RA BKN008 BKN020 OVC032 17/14 A2989 RMK AO2 RAB47 SLP120 P0000 T01670139=
202310162103 SPECI KPAE 162103Z 17013G22KT 10SM BKN008 BKN017 OVC022 17/14 A2989 RMK AO2 T01670139=
202310162055 SPECI KPAE 162055Z 17014G22KT 10SM SCT008 BKN017 OVC022 16/14 A2990 RMK AO2 T01610139=
202310162053 METAR KPAE 162053Z 18013G22KT 10SM BKN008 OVC014 16/14 A2990 RMK AO2 PK WND 18026/1954 SLP123 60000 T01610139 53001=
202310161953 METAR KPAE 161953Z 17019G27KT 10SM OVC008 16/14 A2989 RMK AO2 PK WND 15031/1900 RAB05E14 CIG 005V012 SLP121 P0000 T01610139=
202310161853 METAR KPAE 161853Z 16017G27KT 10SM BKN005 OVC013 15/13 A2989 RMK AO2 PK WND 15027/1853 RAB17E29 SLP119 P0000 T01500133=
202310161753 METAR KPAE 161753Z 15015G22KT 10SM BKN005 BKN040 OVC050 14/12 A2990 RMK AO2 RAE48 SLP122 P0001 60019 T01440122 10156 20133 51019=
202310161653 METAR KPAE 161653Z 16017G23KT 2 1/2SM -RA BR SCT009 14/12 A2988 RMK AO2 PK WND 20028/1554 SLP118 P0013 T01440122 $=
202310161620 SPECI KPAE 161620Z 18018G26KT 2 1/2SM R16R/6000VP6000FT -RA BR SCT009 BKN060 OVC080 14/12 A2987 RMK AO2 PK WND 20028/1554 P0008 T01440122=
202310161553 METAR KPAE 161553Z 20018G24KT 5SM -RA BR SCT009 BKN060 OVC080 14/12 A2987 RMK AO2 RAB1458 SLP113 P0005 T01440122=
202310161453 METAR KPAE 161453Z 20011KT 10SM FEW007 BKN060 OVC080 13/11 A2984 RMK AO2 PK WND 22030/1433 WSHFT 1431 SLP104 T01330111 56000=
202310161451 SPECI KPAE 161451Z 20011KT 10SM FEW007 BKN060 OVC085 13/11 A2984 RMK AO2 PK WND 22030/1433 WSHFT 1431=
202310161444 SPECI KPAE 161444Z 22012G24KT 10SM FEW007 BKN060 BKN080 13/11 A2983 RMK AO2 PK WND 22030/1433 T01330111=
202310161353 METAR KPAE 161353Z 12008KT 100V170 10SM FEW090 15/09 A2980 RMK AO2 SLP089 T01500094=
202310161253 METAR KPAE 161253Z AUTO VRB06KT 10SM OVC085 14/11 A2984 RMK AO2 SLP103 T01390106 $=
202310161153 METAR KPAE 161153Z AUTO 00000KT 10SM OVC095 16/09 A2985 RMK AO2 SLP106 70004 T01560089 10167 20128 58018 $=
202310161053 METAR KPAE 161053Z AUTO 18004KT 10SM BKN110 13/09 A2987 RMK AO2 SLP113 T01330089 $=
202310160953 METAR KPAE 160953Z AUTO 00000KT 10SM BKN120 13/09 A2989 RMK AO2 SLP120 T01280094 $=
202310160853 METAR KPAE 160853Z AUTO 00000KT 10SM SCT110 13/09 A2990 RMK AO2 SLP125 T01330089 56022 $=
202310160753 METAR KPAE 160753Z AUTO 00000KT 10SM CLR 17/09 A2992 RMK AO2 SLP131 T01670089 401940133 $=
202310160653 METAR KPAE 160653Z AUTO 12004KT 10SM CLR 16/09 A2995 RMK AO2 SLP138 T01610094 $=
202310160553 METAR KPAE 160553Z AUTO 11003KT 10SM CLR 17/10 A2997 RMK AO2 SLP147 60001 T01670100 10167 20144 58010 $=
202310160453 METAR KPAE 160453Z AUTO VRB03KT 10SM CLR 17/10 A2998 RMK AO2 SLP151 T01670100 $=
202310160353 METAR KPAE 160353Z AUTO 00000KT 10SM CLR 15/13 A3000 RMK AO2 SLP157 T01500128 $=
202310160253 METAR KPAE 160253Z 00000KT 10SM CLR 15/13 A3000 RMK AO2 SLP157 60001 T01500128 56020 $=
202310160153 METAR KPAE 160153Z 07004KT 10SM SCT110 16/12 A3001 RMK AO2 SLP161 T01610117 $=
202310160053 METAR KPAE 160053Z 06006KT 10SM BKN080 OVC100 16/12 A3003 RMK AO2 RAE31 SLP168 P0001 T01560117 $=
202310152353 METAR KPAE 152353Z 05004KT 9SM -RA OVC075 16/12 A3006 RMK AO2 SLP178 P0002 60003 T01610122 10194 20156 56014 $=
202310152253 METAR KPAE 152253Z 25003KT 10SM -RA OVC100 17/11 A3007 RMK AO2 RAB18 SLP183 P0001 T01670111 $=
202310152153 METAR KPAE 152153Z 11004KT 10SM OVC100 18/09 A3008 RMK AO2 SLP186 T01780094 $=
202310152053 METAR KPAE 152053Z 00000KT 10SM OVC110 18/09 A3010 RMK AO2 SLP192 T01780089 56021 $=
202310151953 METAR KPAE 151953Z 11004KT 10SM CLR 18/09 A3012 RMK AO2 SLP197 T01780094 $=
202310151853 METAR KPAE 151853Z VRB04KT 10SM CLR 19/09 A3013 RMK AO2 SLP203 T01890094 $=
202310151753 METAR KPAE 151753Z 00000KT 10SM CLR 18/10 A3016 RMK AO2 SLP213 T01780100 10178 20139 56004 $=
202310151653 METAR KPAE 151653Z 11005KT 10SM CLR 17/10 A3016 RMK AO2 SLP213 T01670100 $=
202310151553 METAR KPAE 151553Z 00000KT 10SM CLR 15/09 A3017 RMK AO2 SLP216 T01500094 $=
202310151453 METAR KPAE 151453Z 12007KT 10SM OVC038 14/09 A3017 RMK AO2 SLP218 T01440089 55001 $=
202310151353 METAR KPAE 151353Z 11005KT 10SM OVC038 14/09 A3017 RMK AO2 SLP217 T01390094 $=
202310151253 METAR KPAE 151253Z AUTO 11008KT 10SM OVC035 14/09 A3017 RMK AO2 SLP214 T01390094 $=
202310151153 METAR KPAE 151153Z AUTO 11006KT 10SM OVC034 14/09 A3018 RMK AO2 SLP218 70001 T01390094 10150 20133 53002 $=
202310151053 METAR KPAE 151053Z AUTO VRB04KT 10SM OVC034 14/09 A3017 RMK AO2 SLP215 T01390094 $=
202310150953 METAR KPAE 150953Z AUTO VRB06KT 10SM BKN046 15/09 A3017 RMK AO2 SLP214 T01500089 $=
202310150853 METAR KPAE 150853Z AUTO VRB05KT 10SM OVC036 14/09 A3017 RMK AO2 SLP216 T01440094 53015 $=
202310150753 METAR KPAE 150753Z AUTO VRB04KT 10SM BKN043 OVC055 14/09 A3015 RMK AO2 SLP210 T01440094 401670128 $=
202310150653 METAR KPAE 150653Z AUTO 14008KT 10SM BKN050 OVC065 14/09 A3013 RMK AO2 SLP203 T01390094 $=
202310150553 METAR KPAE 150553Z AUTO 16012G19KT 10SM SCT120 14/10 A3013 RMK AO2 SLP202 60001 T01440100 10156 20139 52014 $=
202310150453 METAR KPAE 150453Z AUTO VRB05KT 10SM BKN055 OVC110 14/11 A3011 RMK AO2 SLP195 T01390111 $=
202310150353 METAR KPAE 150353Z VRB05KT 10SM BKN060 14/12 A3010 RMK AO2 SLP194 T01440117 $=
202310150253 METAR KPAE 150253Z 14005KT 10SM FEW027 FEW055 14/12 A3008 RMK AO2 RAB01E29 SLP187 P0000 60001 T01440117 53013 $=
202310150153 METAR KPAE 150153Z 15006KT 10SM FEW060 SCT075 OVC095 15/12 A3007 RMK AO2 RAE36 SLP182 P0001 T01500122 $=
202310150053 METAR KPAE 150053Z 15006KT 10SM -RA FEW060 SCT080 OVC095 16/11 A3005 RMK AO2 RAB48 SLP175 P0000 T01560106 $=
202310142353 METAR KPAE 142353Z 16009KT 10SM OVC110 16/10 A3005 RMK AO2 SLP175 T01560100 10167 20144 51006 $=
202310142253 METAR KPAE 142253Z 19011KT 10SM CLR 16/09 A3005 RMK AO2 SLP174 T01610094 $=
202310142153 METAR KPAE 142153Z 17006KT 10SM SCT090 17/10 A3003 RMK AO2 SLP169 T01670100 $=
202310142053 METAR KPAE 142053Z 17007KT 10SM CLR 17/10 A3003 RMK AO2 SLP168 T01670100 51004 $=
202310141953 METAR KPAE 141953Z 18006KT 10SM CLR 16/11 A3003 RMK AO2 SLP167 T01610111 $=
202310141853 METAR KPAE 141853Z VRB06KT 10SM CLR 16/11 A3003 RMK AO2 SLP168 T01560106 $=
202310141753 METAR KPAE 141753Z 15006KT 10SM SCT036 SCT046 14/11 A3002 RMK AO2 SLP165 60000 T01440106 10144 20128 51009 $=
202310141653 METAR KPAE 141653Z 14007KT 10SM BKN036 14/11 A3001 RMK AO2 SLP163 T01390106 $=
202310141553 METAR KPAE 141553Z VRB06KT 10SM BKN039 BKN048 13/11 A3001 RMK AO2 SLP161 T01280106 $=
202310141453 METAR KPAE 141453Z 15007KT 10SM FEW032 SCT046 OVC060 13/11 A2999 RMK AO2 SLP156 60000 T01280106 53013 $=
202310141353 METAR KPAE 141353Z 15010KT 10SM SCT039 OVC070 13/11 A2997 RMK AO2 SLP148 T01280106 $=
202310141253 METAR KPAE 141253Z AUTO 15008KT 10SM BKN046 OVC060 13/11 A2997 RMK AO2 RAB00E31 SLP146 P0000 T01280106 $=
202310141153 METAR KPAE 141153Z AUTO 16009KT 10SM OVC038 13/11 A2995 RMK AO2 SLP142 60004 70007 T01330106 10133 20128 51008 $=
202310141053 METAR KPAE 141053Z AUTO 16006KT 9SM OVC044 13/11 A2995 RMK AO2 RAB03E45 SLP140 P0002 T01280111 $=
202310140953 METAR KPAE 140953Z AUTO 17007KT 10SM OVC044 13/11 A2994 RMK AO2 RAB18E48 SLP139 P0000 T01330106 $=
202310140853 METAR KPAE 140853Z AUTO 15010G15KT 10SM BKN048 OVC055 13/11 A2993 RMK AO2 RAE45 SLP134 P0000 60002 T01330106 52004 $=
202310140753 METAR KPAE 140753Z AUTO VRB04KT 10SM -RA OVC065 13/11 A2993 RMK AO2 RAE13B34 SLP132 P0000 T01330111 402110083 $=
202310140653 METAR KPAE 140653Z AUTO 14006KT 10SM -RA BKN075 OVC085 13/11 A2992 RMK AO2 SLP131 P0002 T01330111 $=
202310140553 METAR KPAE 140553Z AUTO 18014G21KT 10SM -RA OVC070 13/11 A2992 RMK AO2 SLP129 P0002 60003 T01330106 10206 20133 51021 $=
202310140453 METAR KPAE 140453Z AUTO 18016KT 10SM -RA OVC075 13/11 A2991 RMK AO2 SLP127 P0001 T01330106 $=
202310140353 METAR KPAE 140353Z AUTO 20014KT 10SM -RA SCT060 BKN080 OVC090 14/10 A2989 RMK AO2 PK WND 22027/0340 RAB02 SLP121 P0000 T01440100=
202310140253 METAR KPAE 140253Z 21012KT 10SM FEW060 BKN090 OVC110 16/08 A2985 RMK AO2 RAB0155E16 SLP109 P0000 60000 T01610078 53022=
202310140153 METAR KPAE 140153Z 22010KT 10SM OVC075 18/07 A2982 RMK AO2 SLP096 T01830072=
202310140053 METAR KPAE 140053Z 15007KT 10SM CLR 20/06 A2978 RMK AO2 SLP083 T02000056=
202310132353 METAR KPAE 132353Z 22004KT 10SM FEW110 19/07 A2979 RMK AO2 SLP086 T01940067 10211 20178 50000=
202310132253 METAR KPAE 132253Z 16008KT 10SM CLR 21/06 A2978 RMK AO2 SLP084 T02110056=
202310132153 METAR KPAE 132153Z 15010G15KT 10SM CLR 21/06 A2979 RMK AO2 SLP086 T02060056=
202310132053 METAR KPAE 132053Z VRB06KT 10SM CLR 21/06 A2979 RMK AO2 SLP085 T02060061 56006=
202310131953 METAR KPAE 131953Z 15008KT 10SM CLR 20/06 A2979 RMK AO2 SLP086 T02000061=
202310131853 METAR KPAE 131853Z 15009KT 10SM CLR 19/06 A2980 RMK AO2 SLP090 T01890061=
202310131753 METAR KPAE 131753Z 15009KT 10SM CLR 18/05 A2981 RMK AO2 SLP091 T01780050 10183 20100 56007=
202310131653 METAR KPAE 131653Z VRB04KT 10SM CLR 17/05 A2981 RMK AO2 SLP092 T01720050=
202310131553 METAR KPAE 131553Z 12005KT 10SM CLR 15/05 A2982 RMK AO2 SLP096 T01500050=
202310131453 METAR KPAE 131453Z 11005KT 10SM CLR 12/06 A2982 RMK AO2 SLP099 T01220056 58006=
202310131353 METAR KPAE 131353Z VRB04KT 10SM CLR 13/06 A2983 RMK AO2 SLP100 T01330056=
202310131253 METAR KPAE 131253Z AUTO VRB05KT 10SM CLR 13/06 A2984 RMK AO2 SLP102 T01330056=
202310131153 METAR KPAE 131153Z AUTO 13003KT 10SM CLR 09/05 A2984 RMK AO2 SLP105 T00940050 10144 20083 56017=
202310131053 METAR KPAE 131053Z AUTO 11004KT 10SM CLR 11/06 A2986 RMK AO2 SLP110 T01060061=
202310130953 METAR KPAE 130953Z AUTO 00000KT 10SM CLR 11/07 A2987 RMK AO2 SLP114 T01060072=
202310130853 METAR KPAE 130853Z AUTO 00000KT 10SM CLR 10/08 A2989 RMK AO2 SLP123 T01000078 58013=
202310130753 METAR KPAE 130753Z AUTO 00000KT 10SM CLR 11/08 A2990 RMK AO2 SLP127 T01060078 401830078=
202310130653 METAR KPAE 130653Z AUTO 00000KT 10SM CLR 11/07 A2992 RMK AO2 SLP134 T01110072=
202310130553 METAR KPAE 130553Z AUTO VRB03KT 10SM CLR 14/08 A2993 RMK AO2 SLP136 T01390078 10178 20106 56014=
202310130453 METAR KPAE 130453Z AUTO 00000KT 10SM CLR 13/08 A2995 RMK AO2 SLP141 T01330083=
202310130353 METAR KPAE 130353Z 05006KT 10SM CLR 16/09 A2995 RMK AO2 SLP142 T01560089=
202310130253 METAR KPAE 130253Z 00000KT 10SM CLR 14/08 A2998 RMK AO2 SLP151 T01390083 56009=
202310130153 METAR KPAE 130153Z 09004KT 10SM CLR 16/08 A2998 RMK AO2 SLP154 T01610083=
202310130053 METAR KPAE 130053Z 07005KT 10SM CLR 17/08 A2999 RMK AO2 SLP154 T01720083=
202310122353 METAR KPAE 122353Z 05006KT 10SM CLR 18/08 A3000 RMK AO2 SLP160 T01780078 10183 20111 58017=
202310122253 METAR KPAE 122253Z 02003KT 10SM CLR 18/09 A3002 RMK AO2 SLP167 T01780094=
202310122153 METAR KPAE 122153Z 00000KT 10SM CLR 17/11 A3004 RMK AO2 SLP171 T01670106=
202310122053 METAR KPAE 122053Z 25003KT 10SM SCT003 14/11 A3006 RMK AO2 SLP178 T01440111 58013=
202310122018 SPECI KPAE 122018Z 23005KT 10SM SCT003 13/11 A3006 RMK AO2 T01330111=
202310121953 METAR KPAE 121953Z 26004KT 3SM BR BKN003 13/11 A3007 RMK AO2 SLP184 T01330111=
202310121951 SPECI KPAE 121951Z 25005KT 2SM BR SCT006 13/11 A3007 RMK AO2=
202310121859 SPECI KPAE 121859Z 00000KT 2SM BR OVC003 12/11 A3008 RMK AO2 T01220106=
202310121853 METAR KPAE 121853Z 00000KT 1SM R16R/P6000FT BR OVC001 12/11 A3008 RMK AO2 SLP186 T01220106=
202310121758 SPECI KPAE 121758Z VRB03KT 1SM R16R/2600VP6000FT BR OVC001 11/10 A3009 RMK AO2 T01110100=
202310121753 METAR KPAE 121753Z 00000KT 1 1/2SM R16R/1800VP6000FT BR OVC002 11/10 A3009 RMK AO2 SLP191 T01110100 10111 20078 51002=
202310121722 SPECI KPAE 121722Z 15003KT 1/2SM R16R/1400V2600FT FG VV002 11/09 A3009 RMK AO2 T01060094=
202310121717 SPECI KPAE 121717Z 14005KT 1/4SM R16R/1200V2200FT FG VV002 11/09 A3009 RMK AO2 T01060094=
202310121700 SPECI KPAE 121700Z 16006KT 1/4SM R16R/1200V1800FT FG VV001 11/09 A3009 RMK AO2 T01060094=
202310121653 METAR KPAE 121653Z 15006KT M1/4SM R16R/1200V1600FT FG VV001 10/09 A3009 RMK AO2 SLP191 T01000094=
202310121553 METAR KPAE 121553Z VRB04KT M1/4SM R16R/0700V0800FT FG VV001 10/09 A3009 RMK AO2 SLP190 T01000089=
202310121453 METAR KPAE 121453Z 00000KT M1/4SM R16R/0700V0800FT FG VV001 09/08 A3009 RMK AO2 SLP189 T00890078 51012=
202310121433 SPECI KPAE 121433Z 16003KT 1/4SM R16R/0800V1600FT FG VV001 08/08 A3008 RMK AO2 T00830078=
202310121408 SPECI KPAE 121408Z 18003KT 1/4SM R16R/2000V2600FT FG VV002 08/07 A3008 RMK AO2 T00780072=
202310121353 METAR KPAE 121353Z 18006KT 1/4SM R16R/1600V2000FT FG VV001 08/07 A3007 RMK AO2 SLP185 T00780067=
202310121348 SPECI KPAE 121348Z AUTO 18005KT 1/4SM R16R/1400V2000FT FG VV001 08/07 A3007 RMK AO2=
202310121341 SPECI KPAE 121341Z AUTO 18005KT 1/2SM R16R/1400V2200FT FG VV001 08/07 A3007 RMK AO2 T00780067=
202310121337 SPECI KPAE 121337Z AUTO 18006KT 1SM R16R/1800V4500FT BR VV002 08/07 A3007 RMK AO2 T00780067=
202310121335 SPECI KPAE 121335Z AUTO 18007KT 2SM R16R/2000V5500FT BR BKN001 08/07 A3007 RMK AO2 T00780067=
202310121328 SPECI KPAE 121328Z AUTO 16004KT 10SM R16R/4500VP6000FT SCT002 08/07 A3006 RMK AO2 T00830072=
202310121253 METAR KPAE 121253Z AUTO 00000KT 10SM CLR 09/08 A3005 RMK AO2 SLP177 T00890078=
202310121153 METAR KPAE 121153Z AUTO 10006KT 10SM CLR 09/08 A3003 RMK AO2 SLP171 70017 T00940078 10100 20083 51018=
202310121053 METAR KPAE 121053Z AUTO 10004KT 10SM CLR 09/08 A3003 RMK AO2 SLP168 T00890078=
202310121034 SPECI KPAE 121034Z AUTO 11004KT 3SM R16R/5000VP6000FT BR FEW003 09/07 A3002 RMK AO2 T00890072=
202310121029 SPECI KPAE 121029Z AUTO 12003KT 1 1/4SM R16R/3000VP6000FT BR SCT003 09/07 A3002 RMK AO2 VIS 3/4V5 T00890072=
202310121026 SPECI KPAE 121026Z AUTO 00000KT 3/4SM R16R/3000VP6000FT BR VV002 09/07 A3002 RMK AO2 T00890067=
202310121016 SPECI KPAE 121016Z AUTO 00000KT 1 1/4SM R16R/4500VP6000FT BR BKN002 09/07 A3001 RMK AO2 T00890072=
202310121008 SPECI KPAE 121008Z AUTO 00000KT 1/2SM R16R/2400V5500FT FG VV002 09/08 A3001 RMK AO2 T00890078=
202310120959 SPECI KPAE 120959Z AUTO 00000KT 1/4SM R16R/1600V2800FT FG VV001 09/08 A3001 RMK AO2 T00890078=
202310120953 METAR KPAE 120953Z AUTO 00000KT 1/2SM R16R/1600V2200FT FG VV001 09/08 A3000 RMK AO2 SLP161 T00890078=
202310120935 SPECI KPAE 120935Z AUTO 11003KT 3/4SM R16R/3000VP6000FT BR BKN002 09/08 A3000 RMK AO2 T00940078=
202310120930 SPECI KPAE 120930Z AUTO 10003KT 2 1/2SM R16R/5000VP6000FT BR BKN003 09/08 A3000 RMK AO2 T00940078=
202310120924 SPECI KPAE 120924Z AUTO 11003KT 10SM SCT003 09/08 A2999 RMK AO2 T00940078=
202310120853 METAR KPAE 120853Z AUTO 00000KT 10SM CLR 09/08 A2998 RMK AO2 SLP153 T00940078 51016=
202310120843 SPECI KPAE 120843Z AUTO 00000KT 3SM BR CLR 09/08 A2998 RMK AO2 T00890078=
202310120825 SPECI KPAE 120825Z AUTO 00000KT 1 1/2SM BR FEW001 09/08 A2997 RMK AO2 T00890078=
202310120819 SPECI KPAE 120819Z AUTO 01003KT 1/2SM R16R/P6000FT FG VV001 09/07 A2997 RMK AO2 T00890072=
202310120812 SPECI KPAE 120812Z AUTO 00000KT 1SM R16R/P6000FT BR VV001 08/07 A2997 RMK AO2 VIS 1/2V2 1/2 T00830072=
202310120805 SPECI KPAE 120805Z AUTO 00000KT 1/2SM R16R/P6000FT FG CLR 09/07 A2997 RMK AO2 T00890072=
202310120753 METAR KPAE 120753Z AUTO 00000KT 1 3/4SM R16R/2200VP6000FT BR CLR 09/08 A2996 RMK AO2 SLP147 T00940083 401500089=
202310120736 SPECI KPAE 120736Z AUTO 00000KT 3SM BR CLR 09/08 A2996 RMK AO2 T00940083=
202310120729 SPECI KPAE 120729Z AUTO 00000KT 1 3/4SM BR CLR 09/08 A2996 RMK AO2 VIS 3/4V5 T00940083=
202310120653 METAR KPAE 120653Z AUTO 00000KT 6SM BR CLR 09/08 A2995 RMK AO2 SLP142 T00940083=
202310120649 SPECI KPAE 120649Z AUTO 00000KT 2SM BR CLR 10/08 A2995 RMK AO2=
202310120642 SPECI KPAE 120642Z AUTO 00000KT 3/4SM R16R/P6000FT BR CLR 10/08 A2995 RMK AO2 VIS 1/2V1 1/2 T01000083=
202310120632 SPECI KPAE 120632Z AUTO 00000KT 1 3/4SM BR CLR 10/08 A2994 RMK AO2 T01000083=
202310120553 METAR KPAE 120553Z AUTO 00000KT 10SM CLR 11/09 A2993 RMK AO2 SLP136 T01110094 10144 20106 51019=
202310120541 SPECI KPAE 120541Z AUTO 00000KT 10SM SCT001 11/10 A2993 RMK AO2 T01110100=
202310120531 SPECI KPAE 120531Z AUTO 00000KT 4SM R16R/2000V5000FT BR BKN001 11/10 A2993 RMK AO2 T01110100=
202310120527 SPECI KPAE 120527Z AUTO 04003KT 1SM R16R/1600V4500FT BR VV001 11/10 A2993 RMK AO2 T01110100=
202310120522 SPECI KPAE 120522Z AUTO 04003KT 1/2SM R16R/1600VP6000FT FG VV001 11/10 A2993 RMK AO2 T01110100=
202310120513 SPECI KPAE 120513Z AUTO 03003KT 1 1/2SM BR BKN001 11/10 A2992 RMK AO2 T01110100=
202310120507 SPECI KPAE 120507Z AUTO 02005KT 4SM R16R/5500VP6000FT BR BKN001 11/10 A2992 RMK AO2 T01110100=
202310120453 METAR KPAE 120453Z AUTO 36004KT 1 1/2SM R16R/2000VP6000FT BR OVC001 11/10 A2992 RMK AO2 SLP133 T01110100=
202310120451 SPECI KPAE 120451Z AUTO 36005KT 1 3/4SM R16R/2200VP6000FT BR OVC001 11/10 A2992 RMK AO2=
202310120437 SPECI KPAE 120437Z AUTO 35004KT 8SM BKN001 11/09 A2992 RMK AO2 T01060094=
202310120428 SPECI KPAE 120428Z AUTO 34003KT 9SM SCT001 11/09 A2992 RMK AO2 T01060094=
202310120353 METAR KPAE 120353Z AUTO 00000KT 10SM CLR 11/09 A2990 RMK AO2 SLP127 T01110094=
202310120253 METAR KPAE 120253Z 36004KT 10SM FEW028 12/10 A2987 RMK AO2 SLP117 T01220100 51017=
202310120239 SPECI KPAE 120239Z 01005KT 10SM SCT027 12/10 A2987 RMK AO2 T01220100=
202310120153 METAR KPAE 120153Z 00000KT 10SM SCT023 BKN028 12/10 A2985 RMK AO2 SLP109 T01220100=
202310120148 SPECI KPAE 120148Z 00000KT 10SM SCT021 BKN030 12/10 A2985 RMK AO2=
202310120138 SPECI KPAE 120138Z 00000KT 10SM BKN021 BKN030 12/10 A2985 RMK AO2 T01220100=
202310120053 METAR KPAE 120053Z 36005KT 10SM SCT008 BKN055 14/11 A2982 RMK AO2 SLP099 T01390106=
202310112353 METAR KPAE 112353Z 01004KT 10SM SCT008 BKN055 14/11 A2979 RMK AO2 SLP087 60003 T01440106 10150 20106 53022=
202310112257 SPECI KPAE 112257Z 01004KT 10SM FEW008 SCT014 OVC055 14/11 A2977 RMK AO2 T01440111=
202310112253 METAR KPAE 112253Z 01005KT 10SM BKN008 BKN043 OVC055 14/11 A2976 RMK AO2 SLP079 T01440111=
202310112153 METAR KPAE 112153Z VRB04KT 10SM BKN005 OVC019 14/11 A2974 RMK AO2 RAE05 SLP071 P0000 T01390111=
202310112053 METAR KPAE 112053Z 08007KT 4SM -RA BR BKN005 OVC019 13/11 A2972 RMK AO2 RAB20 SLP065 P0001 60003 T01280106 53028=
202310111953 METAR KPAE 111953Z 11007KT 9SM BKN005 OVC019 12/10 A2969 RMK AO2 RAE04B16E32 SLP053 P0000 T01170100=
202310111935 SPECI KPAE 111935Z 11008KT 7SM BKN005 OVC019 12/10 A2968 RMK AO2 RAE04B16E32 P0000 T01170100=
202310111928 SPECI KPAE 111928Z 11008KT 2 1/2SM -RA BR BKN005 OVC019 12/09 A2968 RMK AO2 RAE04B16 P0000 T01170094=
202310111905 SPECI KPAE 111905Z 10009KT 7SM BKN005 OVC019 12/09 A2967 RMK AO2 RAE04 P0000 T01170094=
202310111853 METAR KPAE 111853Z 11008KT 2SM -RA BR BKN005 OVC019 11/09 A2967 RMK AO2 SLP046 P0002 T01110094=
202310111755 SPECI KPAE 111755Z 11010G15KT 2SM -RA BR SCT008 OVC021 11/09 A2964 RMK AO2 P0000 T01110089=
202310111753 METAR KPAE 111753Z 11007KT 2SM -RA BR BKN008 OVC021 11/09 A2964 RMK AO2 SLP037 P0004 60014 T01110089 10111 20106 53028=
202310111721 SPECI KPAE 111721Z 11008KT 2SM -RA BR BKN008 OVC021 11/09 A2962 RMK AO2 P0001 T01060089=
202310111653 METAR KPAE 111653Z 11008KT 2 1/2SM R16R/6000VP6000FT -RA BR BKN021 OVC027 11/08 A2961 RMK AO2 SLP027 P0005 T01060083=
202310111620 SPECI KPAE 111620Z VRB06G14KT 2 1/2SM -RA BR BKN022 BKN030 OVC044 11/08 A2959 RMK AO2 P0004 T01060083=
202310111553 METAR KPAE 111553Z 12009KT 090V160 4SM RA BR FEW034 BKN055 OVC070 11/08 A2958 RMK AO2 SLP016 P0004 T01060083=
202310111453 METAR KPAE 111453Z 12007KT 10SM -RA OVC060 11/08 A2955 RMK AO2 RAB1356E06B25 SLP008 P0000 60001 T01110078 53010=
202310111353 METAR KPAE 111353Z 11009G15KT 10SM FEW030 BKN044 OVC065 11/08 A2953 RMK AO2 SLP001 T01110078=
202310111253 METAR KPAE 111253Z AUTO 12009G20KT 10SM SCT042 BKN049 OVC095 11/08 A2952 RMK AO2 RAE25 SLP997 P0001 T01060078=
202310111153 METAR KPAE 111153Z AUTO VRB06G15KT 10SM -RA OVC055 11/08 A2952 RMK AO2 SLP996 P0003 60004 70028 T01060078 10117 20106 51007=
202310111053 METAR KPAE 111053Z AUTO 15013G19KT 10SM -RA BKN060 OVC075 11/08 A2952 RMK AO2 RAB33 SLP996 P0000 T01110078=
202310110953 METAR KPAE 110953Z AUTO 15007G19KT 10SM SCT039 OVC055 12/07 A2951 RMK AO2 SLP991 T01170072=
202310110853 METAR KPAE 110853Z AUTO VRB05KT 10SM BKN055 11/08 A2950 RMK AO2 SLP990 60001 T01060083 51003=
202310110753 METAR KPAE 110753Z AUTO 14007KT 110V170 10SM CLR 11/09 A2950 RMK AO2 SLP988 T01110089 401500111=
202310110653 METAR KPAE 110653Z AUTO 15014G21KT 10SM FEW010 FEW045 SCT065 11/09 A2950 RMK AO2 RAB05E23 SLP989 P0001 T01110089=
202310110553 METAR KPAE 110553Z AUTO 16013G21KT 10SM FEW030 BKN041 OVC075 12/09 A2949 RMK AO2 RAE51 SLP986 P0003 60017 T01170094 10144 20117 51012=
202310110510 SPECI KPAE 110510Z AUTO 16011KT 10SM -RA FEW009 BKN060 OVC075 12/09 A2948 RMK AO2 P0003 T01170094=
202310110453 METAR KPAE 110453Z AUTO 18013G20KT 6SM RA BR FEW010 OVC055 12/10 A2948 RMK AO2 RAB09 SLP983 P0012 T01220100=
202310110353 METAR KPAE 110353Z 14009KT 10SM FEW026 FEW050 OVC060 13/10 A2947 RMK AO2 SLP977 T01280100=
202310110253 METAR KPAE 110253Z 15010G16KT 10SM FEW031 SCT070 BKN095 13/10 A2945 RMK AO2 RAE0159 SLP973 P0000 60002 T01330100 53002=
202310110153 METAR KPAE 110153Z VRB06G15KT 10SM -RA OVC060 13/11 A2945 RMK AO2 SLP972 P0000 T01330106=
202310110053 METAR KPAE 110053Z 15007KT 7SM -RA SCT035 BKN070 BKN100 13/11 A2945 RMK AO2 RAE17B49 SLP970 P0002 T01330106=
202310102359 SPECI KPAE 102359Z 15012G21KT 5SM -RA SCT024 OVC100 14/11 A2945 RMK AO2 P0000 T01440106=
202310102353 METAR KPAE 102353Z 14009G17KT 10SM -RA FEW065 FEW080 BKN100 14/11 A2945 RMK AO2 RAB48 SLP971 P0000 60004 T01440106 10150 20122 56005=
202310102253 METAR KPAE 102253Z 15011G16KT 10SM FEW008 14/11 A2945 RMK AO2 SLP971 T01440106=
202310102224 SPECI KPAE 102224Z 15009G19KT 10SM SCT004 BKN030 14/11 A2945 RMK AO2 T01390111=
202310102153 METAR KPAE 102153Z 15012G22KT 10SM SCT038 SCT050 BKN060 13/11 A2946 RMK AO2 RAE49 SLP974 P0000 T01330106=
202310102053 METAR KPAE 102053Z 14008G15KT 100V160 5SM -RA BKN049 OVC060 12/09 A2946 RMK AO2 SLP976 P0003 60004 T01220094 58007=
202310101953 METAR KPAE 101953Z 14009G17KT 9SM -RA SCT033 BKN040 OVC048 13/09 A2947 RMK AO2 RAB29 SLP979 P0001 T01280089=
202310101853 METAR KPAE 101853Z 12011G19KT 7SM SCT037 OVC055 12/08 A2948 RMK AO2 SLP981 T01220083=
202310101753 METAR KPAE 101753Z 11009G18KT 10SM BKN055 OVC070 12/08 A2948 RMK AO2 RAE1657B29E48 SLP983 P0000 60003 T01220078 10128 20117 58016=
202310101653 METAR KPAE 101653Z 11007KT 10SM -RA FEW046 BKN060 OVC080 12/08 A2950 RMK AO2 RAE07B23 SLP989 P0001 T01220078=
202310101553 METAR KPAE 101553Z 14007KT 10SM -RA BKN050 OVC060 12/08 A2952 RMK AO2 RAB45 SLP996 P0000 T01220078=
202310101453 METAR KPAE 101453Z VRB04KT 10SM BKN060 OVC085 12/07 A2953 RMK AO2 SLP000 60002 T01170067 58020=
202310101353 METAR KPAE 101353Z 14007KT 10SM FEW060 BKN090 OVC110 12/08 A2956 RMK AO2 RAE30 SLP009 P0001 T01170078=
202310101253 METAR KPAE 101253Z AUTO 16011G17KT 10SM -RA SCT047 BKN055 OVC070 12/08 A2958 RMK AO2 RAB1154 SLP017 P0001 T01220083=
202310101153 METAR KPAE 101153Z AUTO 15011KT 10SM FEW033 BKN090 BKN110 13/08 A2959 RMK AO2 SLP020 70003 T01280083 10133 20128 58020=
202310101053 METAR KPAE 101053Z AUTO 15008KT 10SM FEW021 SCT065 13/09 A2961 RMK AO2 SLP026 T01280089=
202310100953 METAR KPAE 100953Z AUTO 15008KT 10SM FEW019 13/09 A2964 RMK AO2 SLP035 T01280094=
202310100934 SPECI KPAE 100934Z AUTO 15007KT 10SM FEW026 13/09 A2964 RMK AO2 T01280089=
202310100922 SPECI KPAE 100922Z AUTO 14007KT 10SM FEW020 BKN026 13/09 A2965 RMK AO2 T01280094=
202310100853 METAR KPAE 100853Z AUTO 15008KT 10SM FEW021 13/09 A2965 RMK AO2 SLP040 T01280094 58003=
202310100753 METAR KPAE 100753Z AUTO 16012G19KT 10SM FEW018 13/09 A2966 RMK AO2 SLP043 T01280089 401940128=
202310100653 METAR KPAE 100653Z AUTO 16013G22KT 10SM CLR 13/09 A2967 RMK AO2 SLP044 T01280094=
202310100553 METAR KPAE 100553Z AUTO 18015G22KT 10SM BKN080 13/09 A2966 RMK AO2 SLP042 60001 T01330094 10161 20133 51009=
202310100453 METAR KPAE 100453Z AUTO 18016G25KT 10SM BKN070 OVC085 14/10 A2966 RMK AO2 SLP042 T01390100=
202310100353 METAR KPAE 100353Z AUTO 18016G25KT 10SM SCT100 14/10 A2965 RMK AO2 SLP039 T01440100=
202310100258 SPECI KPAE 100258Z 17015G26KT 10SM OVC100 16/12 A2964 RMK AO2 T01560117=
202310100253 METAR KPAE 100253Z 18018G26KT 10SM BKN026 BKN031 OVC085 16/12 A2963 RMK AO2 PK WND 18026/0249 RAB20E41 SLP033 P0000 60001 T01560122 56005=
202310100153 METAR KPAE 100153Z 16011KT 10SM BKN029 OVC037 16/13 A2964 RMK AO2 RAE02 SLP035 P0000 T01610128=
202310100053 METAR KPAE 100053Z 15008KT 10SM -RA OVC029 16/13 A2964 RMK AO2 RAE26B50 SLP036 P0001 T01560128=
202310092353 METAR KPAE 092353Z 16011KT 10SM -RA OVC029 16/13 A2965 RMK AO2 SLP039 P0001 60002 T01610128 10178 20161 56005=
202310092334 SPECI KPAE 092334Z 15008KT 7SM -RA OVC027 16/13 A2965 RMK AO2 P0001 T01610128=
202310092253 METAR KPAE 092253Z 16007KT 10SM -RA SCT033 OVC049 17/12 A2965 RMK AO2 RAB11 SLP040 P0000 T01720122=
202310092153 METAR KPAE 092153Z 16011KT 10SM SCT041 BKN060 OVC100 18/12 A2966 RMK AO2 RAE43 SLP041 P0001 T01780117=
202310092053 METAR KPAE 092053Z 14008KT 10SM -RA OVC085 17/12 A2967 RMK AO2 RAB13 SLP044 P0000 60000 T01670117 56003=
202310091953 METAR KPAE 091953Z 16011KT 10SM OVC095 18/11 A2967 RMK AO2 SLP045 T01780106=
202310091853 METAR KPAE 091853Z 16014G22KT 10SM BKN110 17/11 A2967 RMK AO2 SLP043 T01720106=
202310091753 METAR KPAE 091753Z 16012KT 10SM CLR 17/11 A2967 RMK AO2 SLP046 T01720106 10172 20144 53002=
202310091653 METAR KPAE 091653Z 15008KT 10SM CLR 17/10 A2966 RMK AO2 SLP040 T01670100=
202310091553 METAR KPAE 091553Z VRB04KT 10SM CLR 16/10 A2965 RMK AO2 SLP039 T01610100=
202310091453 METAR KPAE 091453Z VRB03KT 10SM CLR 15/10 A2967 RMK AO2 SLP044 T01500100 55007=
202310091353 METAR KPAE 091353Z 16006KT 10SM CLR 15/10 A2966 RMK AO2 SLP042 T01500100=
202310091253 METAR KPAE 091253Z AUTO 19009KT 10SM CLR 14/10 A2968 RMK AO2 SLP047 T01440100=
202310091153 METAR KPAE 091153Z AUTO 16010KT 10SM CLR 16/10 A2969 RMK AO2 SLP051 T01560100 10194 20150 58004=
202310091053 METAR KPAE 091053Z AUTO 17011KT 10SM CLR 17/09 A2970 RMK AO2 SLP053 T01670094=
202310090953 METAR KPAE 090953Z AUTO 18011KT 10SM CLR 16/11 A2971 RMK AO2 SLP057 T01610106=
202310090853 METAR KPAE 090853Z AUTO 19010KT 10SM CLR 17/12 A2970 RMK AO2 SLP055 T01670122 53005=
202310090753 METAR KPAE 090753Z AUTO 15007KT 10SM CLR 19/12 A2968 RMK AO2 SLP046 T01890117 402330122=
202310090653 METAR KPAE 090653Z AUTO VRB04KT 10SM CLR 18/13 A2967 RMK AO2 SLP045 T01830128=
202310090553 METAR KPAE 090553Z AUTO VRB04KT 10SM CLR 19/13 A2969 RMK AO2 SLP050 T01940128 10222 20189 58004=
202310090453 METAR KPAE 090453Z AUTO 11006KT 10SM CLR 19/12 A2969 RMK AO2 SLP052 T01940117=
202310090353 METAR KPAE 090353Z 15007KT 10SM CLR 21/12 A2970 RMK AO2 SLP054 T02060117=
202310090253 METAR KPAE 090253Z 15009KT 10SM CLR 21/11 A2970 RMK AO2 SLP055 T02110111 56017=
202310090153 METAR KPAE 090153Z 15006KT 10SM CLR 21/11 A2971 RMK AO2 SLP059 T02110111=
202310090053 METAR KPAE 090053Z 15006KT 10SM CLR 22/11 A2974 RMK AO2 SLP066 T02220111=
202310082353 METAR KPAE 082353Z 14007KT 10SM CLR 22/11 A2975 RMK AO2 SLP072 T02220111 10233 20167 58016=
202310082253 METAR KPAE 082253Z 15008KT 10SM CLR 23/12 A2977 RMK AO2 SLP078 T02280117=
202310082153 METAR KPAE 082153Z 15005KT 10SM CLR 22/13 A2978 RMK AO2 SLP083 T02220128=
202310082053 METAR KPAE 082053Z 19008KT 10SM CLR 22/13 A2980 RMK AO2 SLP089 T02170128 58016=
202310081953 METAR KPAE 081953Z 17006KT 10SM CLR 21/13 A2982 RMK AO2 SLP096 T02060133=
202310081853 METAR KPAE 081853Z 18006KT 10SM CLR 19/13 A2984 RMK AO2 SLP101 T01940128=
202310081753 METAR KPAE 081753Z 16007KT 10SM CLR 17/12 A2985 RMK AO2 SLP105 T01670122 10167 20122 58012=
202310081653 METAR KPAE 081653Z 17007KT 10SM FEW005 15/12 A2987 RMK AO2 SLP112 T01500122=
202310081600 SPECI KPAE 081600Z 17008KT 10SM FEW005 14/12 A2988 RMK AO2 T01440117=
202310081553 METAR KPAE 081553Z 17008KT 10SM BKN004 14/12 A2988 RMK AO2 SLP116 T01440122=
202310081545 SPECI KPAE 081545Z 16007KT 10SM BKN004 14/12 A2988 RMK AO2 T01440117=
202310081537 SPECI KPAE 081537Z 18008KT 10SM SCT004 14/12 A2988 RMK AO2 T01390117=
202310081453 METAR KPAE 081453Z 17007KT 10SM BKN004 13/12 A2988 RMK AO2 SLP118 T01330117 58008=
202310081353 METAR KPAE 081353Z 19007KT 10SM OVC005 14/12 A2990 RMK AO2 SLP122 T01390117=
202310081253 METAR KPAE 081253Z AUTO 00000KT 10SM BKN009 14/11 A2990 RMK AO2 SLP122 T01390111=
202310081242 SPECI KPAE 081242Z AUTO 17003KT 10SM BKN009 12/11 A2991 RMK AO2 T01220106=
202310081233 SPECI KPAE 081233Z AUTO 00000KT 10SM SCT009 13/11 A2991 RMK AO2 T01280111=
202310081153 METAR KPAE 081153Z AUTO 00000KT 10SM CLR 13/11 A2991 RMK AO2 SLP124 T01330111 10183 20128 50001=
202310081053 METAR KPAE 081053Z AUTO 00000KT 10SM CLR 14/11 A2991 RMK AO2 SLP124 T01390111=
202310080953 METAR KPAE 080953Z AUTO 00000KT 10SM CLR 14/11 A2991 RMK AO2 SLP124 T01390111=
202310080853 METAR KPAE 080853Z AUTO 00000KT 10SM CLR 15/11 A2991 RMK AO2 SLP123 T01500111 53007=
202310080753 METAR KPAE 080753Z AUTO 16006KT 10SM CLR 17/12 A2990 RMK AO2 SLP120 T01720117 402720117=
202310080653 METAR KPAE 080653Z AUTO 20004KT 10SM CLR 17/12 A2989 RMK AO2 SLP118 T01670117=
202310080553 METAR KPAE 080553Z AUTO 00000KT 10SM CLR 18/12 A2988 RMK AO2 SLP116 T01830117 10272 20178 51004=
202310080453 METAR KPAE 080453Z AUTO 00000KT 10SM CLR 19/12 A2988 RMK AO2 SLP116 T01890117=
202310080353 METAR KPAE 080353Z 15005KT 10SM CLR 21/12 A2988 RMK AO2 SLP114 T02110117=
202310080253 METAR KPAE 080253Z 00000KT 10SM CLR 20/11 A2987 RMK AO2 SLP113 T02000111 55001=
202310080153 METAR KPAE 080153Z 16004KT 10SM CLR 23/11 A2986 RMK AO2 SLP110 T02280111=
202310080053 METAR KPAE 080053Z 21006KT 10SM CLR 26/10 A2987 RMK AO2 SLP110 T02560100=
202310072353 METAR KPAE 072353Z 23005KT 10SM CLR 27/11 A2987 RMK AO2 SLP112 T02720106 10272 20228 56012=
202310072253 METAR KPAE 072253Z 24003KT 10SM CLR 27/11 A2988 RMK AO2 SLP117 T02670111=
202310072153 METAR KPAE 072153Z 23004KT 10SM CLR 26/11 A2989 RMK AO2 SLP120 T02560111=
202310072053 METAR KPAE 072053Z 27004KT 10SM CLR 24/11 A2991 RMK AO2 SLP126 T02440106 58015=
202310071953 METAR KPAE 071953Z 26006KT 10SM CLR 25/11 A2993 RMK AO2 SLP133 T02500111=
202310071853 METAR KPAE 071853Z 15007KT 10SM CLR 25/10 A2994 RMK AO2 SLP137 T02500100=
202310071753 METAR KPAE 071753Z 15005KT 10SM CLR 23/09 A2996 RMK AO2 SLP141 T02280094 10228 20117 51002=
202310071653 METAR KPAE 071653Z VRB03KT 10SM CLR 22/09 A2995 RMK AO2 SLP141 T02170094=
202310071553 METAR KPAE 071553Z 00000KT 10SM CLR 18/09 A2995 RMK AO2 SLP142 T01830089=
202310071453 METAR KPAE 071453Z 10004KT 10SM CLR 15/08 A2995 RMK AO2 SLP141 T01500078 56008=
202310071353 METAR KPAE 071353Z 00000KT 10SM CLR 13/08 A2995 RMK AO2 SLP142 T01280083=
202310071253 METAR KPAE 071253Z AUTO 10006KT 10SM CLR 16/09 A2996 RMK AO2 SLP143 T01560094=
202310071153 METAR KPAE 071153Z AUTO 00000KT 10SM CLR 13/11 A2997 RMK AO2 SLP148 7//// T01280106 10144 20117 58011=
202310071053 METAR KPAE 071053Z AUTO 03003KT 10SM CLR 12/10 A2999 RMK AO2 SLP153 T01220100=
202310070953 METAR KPAE 070953Z AUTO 01003KT 10SM CLR 13/11 A3000 RMK AO2 SLP156 T01280106=
202310070853 METAR KPAE 070853Z AUTO 02004KT 10SM CLR 14/11 A3001 RMK AO2 SLP160 T01390111 56008=
202310070753 METAR KPAE 070753Z AUTO 02004KT 10SM CLR 14/11 A3001 RMK AO2 SLP161 T01390111 402110117=
202310070653 METAR KPAE 070653Z AUTO 01004KT 10SM CLR 14/11 A3002 RMK AO2 SLP165 T01390111=
202310070553 METAR KPAE 070553Z AUTO 36004KT 10SM CLR 14/11 A3003 RMK AO2 SLP170 T01390106 10211 20139 56007=
202310070453 METAR KPAE 070453Z AUTO 01004KT 10SM CLR 16/11 A3003 RMK AO2 SLP169 T01610106=
202310070353 METAR KPAE 070353Z 36005KT 10SM CLR 16/11 A3004 RMK AO2 SLP172 T01610111=
202310070253 METAR KPAE 070253Z 01004KT 10SM CLR 17/12 A3005 RMK AO2 SLP176 T01720117 56014=
202310070153 METAR KPAE 070153Z 34003KT 10SM CLR 18/12 A3006 RMK AO2 SLP179 T01780117=
202310070053 METAR KPAE 070053Z 34004KT 10SM CLR 20/12 A3008 RMK AO2 SLP183 T02000117=
202310062353 METAR KPAE 062353Z 36006KT 10SM CLR 21/12 A3009 RMK AO2 SLP190 T02110117 10211 20144 56024=
202310062253 METAR KPAE 062253Z 35005KT 10SM CLR 21/12 A3012 RMK AO2 SLP197 T02060117=
202310062153 METAR KPAE 062153Z 36005KT 10SM CLR 21/12 A3013 RMK AO2 SLP203 T02060117=
202310062053 METAR KPAE 062053Z 35007KT 10SM CLR 19/12 A3017 RMK AO2 SLP214 T01940117 58019=
202310061953 METAR KPAE 061953Z 35006KT 10SM CLR 18/11 A3019 RMK AO2 SLP223 T01830111=
202310061853 METAR KPAE 061853Z 33004KT 10SM CLR 18/12 A3020 RMK AO2 SLP227 T01780117=
202310061753 METAR KPAE 061753Z 36006KT 10SM BCFG FEW001 14/12 A3022 RMK AO2 SLP234 6//// T01440117 10144 20117 58006=
202310061729 SPECI KPAE 061729Z 35005KT 9SM BCFG FEW001 13/12 A3023 RMK AO2 T01330122=
202310061710 SPECI KPAE 061710Z 36006KT 1/4SM R16R/1200V3000FT FG VV001 13/12 A3023 RMK AO2 T01330117=
202310061653 METAR KPAE 061653Z 36005KT 1/4SM R16R/0800V1400FT FG VV001 13/12 A3024 RMK AO2 SLP239 T01280117=
202310061600 SPECI KPAE 061600Z 36005KT 1/4SM R16R/0500V0800FT FG VV001 12/11 A3024 RMK AO2 T01220111 $=
202310061553 METAR KPAE 061553Z 36005KT M1/4SM R16R/0500V0600FT FG VV001 12/11 A3024 RMK AO2 SLP239 T01220111 $=
202310061457 SPECI KPAE 061457Z 36005KT M1/4SM R16R/0500V0700FT FG VV001 12/11 A3024 RMK AO2 T01220111=
202310061453 METAR KPAE 061453Z 36005KT 1/2SM R16R/0600V0700FT FG VV001 12/11 A3024 RMK AO2 SLP240 T01220111 58007=
202310061406 SPECI KPAE 061406Z 36006KT 1/2SM R16R/1000V1800FT FG VV001 12/11 A3025 RMK AO2 T01220111=
202310061353 METAR KPAE 061353Z 36004KT 1/2SM R16R/1600V2600FT FG OVC001 12/11 A3025 RMK AO2 SLP242 T01220111=
202310061344 SPECI KPAE 061344Z AUTO 35005KT 5SM R16R/1800V3500FT BR OVC001 12/11 A3025 RMK AO2 T01220111=
202310061330 SPECI KPAE 061330Z AUTO 01005KT 7SM OVC002 12/11 A3025 RMK AO2 T01220111=
202310061314 SPECI KPAE 061314Z AUTO 35004KT 6SM R16R/1600VP6000FT BR OVC001 12/11 A3025 RMK AO2 T01170106=
202310061253 METAR KPAE 061253Z AUTO 36004KT 7SM R16R/1200V1800FT OVC001 12/11 A3026 RMK AO2 SLP247 T01220111=
202310061249 SPECI KPAE 061249Z AUTO 36004KT 3SM R16R/1200V2400FT BR OVC001 12/11 A3026 RMK AO2=
202310061248 SPECI KPAE 061248Z AUTO 36003KT 2SM R16R/1400V2400FT BR OVC001 12/11 A3026 RMK AO2=
202310061240 SPECI KPAE 061240Z AUTO 36003KT 3/4SM R16R/1400V3500FT BR OVC001 12/11 A3027 RMK AO2 T01220111=
202310061235 SPECI KPAE 061235Z AUTO 34004KT 1 3/4SM R16R/1200V2200FT BR OVC001 12/11 A3027 RMK AO2 T01220111=
202310061216 SPECI KPAE 061216Z AUTO 35004KT 5SM R16R/1400V2200FT BR OVC001 12/11 A3027 RMK AO2 T01220111=
202310061153 METAR KPAE 061153Z AUTO 35005KT 10SM BKN002 12/11 A3027 RMK AO2 SLP250 T01220111 10133 20122 57006=
202310061141 SPECI KPAE 061141Z AUTO 35005KT 10SM BKN002 12/11 A3027 RMK AO2 T01220111=
202310061053 METAR KPAE 061053Z AUTO 01007KT 10SM FEW002 13/11 A3028 RMK AO2 SLP252 T01280111=
202310061001 SPECI KPAE 061001Z AUTO 36005KT 10SM FEW002 12/11 A3028 RMK AO2 T01220111=
202310060953 METAR KPAE 060953Z AUTO 35004KT 10SM CLR 12/11 A3029 RMK AO2 SLP255 T01220111=
202310060853 METAR KPAE 060853Z AUTO 36006KT 10SM CLR 13/11 A3029 RMK AO2 SLP257 T01280111 58006=
202310060753 METAR KPAE 060753Z AUTO 35006KT 10SM CLR 13/11 A3030 RMK AO2 SLP260 T01280106 401890122=
202310060653 METAR KPAE 060653Z AUTO 34004KT 10SM CLR 13/11 A3031 RMK AO2 SLP264 T01280106=
202310060553 METAR KPAE 060553Z AUTO 34004KT 10SM CLR 13/11 A3031 RMK AO2 SLP264 T01330106 10183 20133 51002=
202310060453 METAR KPAE 060453Z AUTO 35004KT 10SM CLR 14/11 A3031 RMK AO2 SLP264 T01390106=
202310060353 METAR KPAE 060353Z AUTO 34006KT 10SM CLR 14/11 A3031 RMK AO2 SLP265 T01440106=
202310060253 METAR KPAE 060253Z VRB03KT 10SM CLR 15/11 A3031 RMK AO2 SLP262 T01500111 56005=
202310060153 METAR KPAE 060153Z 34005KT 10SM CLR 16/11 A3031 RMK AO2 SLP263 T01560106=
202310060053 METAR KPAE 060053Z 35007KT 10SM CLR 17/11 A3031 RMK AO2 SLP263 T01720111=
202310052353 METAR KPAE 052353Z 34005G14KT 10SM CLR 18/12 A3032 RMK AO2 SLP267 T01780117 10189 20133 56013=
202310052253 METAR KPAE 052253Z 35008KT 10SM CLR 18/12 A3033 RMK AO2 SLP269 T01830122=
202310052153 METAR KPAE 052153Z 35008KT 10SM CLR 18/12 A3034 RMK AO2 SLP274 T01780122=
202310052053 METAR KPAE 052053Z 36009G16KT 10SM CLR 18/12 A3036 RMK AO2 SLP280 T01780122 57010=
202310051953 METAR KPAE 051953Z 36007KT 10SM SCT008 17/12 A3037 RMK AO2 SLP284 T01720122=
202310051853 METAR KPAE 051853Z 35010KT 7SM SCT004 16/12 A3038 RMK AO2 SLP286 T01560122=
202310051753 METAR KPAE 051753Z VRB05KT 4SM BR OVC002 13/12 A3039 RMK AO2 SLP291 T01330122 10133 20122 58000=
202310051730 SPECI KPAE 051730Z 34005KT 4SM BR OVC002 13/12 A3039 RMK AO2 T01330117=
202310051711 SPECI KPAE 051711Z 36006KT 3SM R16R/3500VP6000FT BR OVC001 13/12 A3039 RMK AO2 T01330122=
202310051706 SPECI KPAE 051706Z 35006KT 1 3/4SM R16R/2200VP6000FT BR OVC001 13/12 A3039 RMK AO2 T01280117=
202310051653 METAR KPAE 051653Z 36005KT 1/2SM R16R/1400V3000FT FG VV001 13/12 A3039 RMK AO2 SLP292 T01280117=
202310051651 SPECI KPAE 051651Z 36005KT 1/4SM R16R/1400V1800FT FG VV001 13/12 A3039 RMK AO2=
202310051641 SPECI KPAE 051641Z 34006KT 1/4SM R16R/1400V2400FT FG VV001 13/12 A3039 RMK AO2 T01280117=
202310051621 SPECI KPAE 051621Z 01005KT 1/4SM R16R/0700V1200FT FG VV001 13/12 A3039 RMK AO2 T01280117=
202310051600 SPECI KPAE 051600Z 36005KT M1/4SM R16R/0500V0700FT FG VV001 13/12 A3039 RMK AO2 T01280117=
202310051553 METAR KPAE 051553Z VRB04KT 1/4SM R16R/0600V0700FT FG VV001 13/12 A3039 RMK AO2 SLP291 T01280117=
202310051533 SPECI KPAE 051533Z 36005KT 1/4SM R16R/0800V1800FT FG OVC001 13/12 A3039 RMK AO2 T01280117=
202310051525 SPECI KPAE 051525Z 36006KT 1/4SM R16R/1800VP6000FT FG OVC002 13/12 A3039 RMK AO2 T01280117=
202310051500 SPECI KPAE 051500Z 01004KT 1SM R16R/P6000FT BR OVC002 13/12 A3039 RMK AO2 T01280117=
202310051453 METAR KPAE 051453Z 02005KT 3/4SM R16R/5000VP6000FT BR BKN002 OVC006 13/12 A3039 RMK AO2 SLP290 T01280117 51003=
202310051451 SPECI KPAE 051451Z 01004KT 1/2SM R16R/5000VP6000FT FG OVC002 13/12 A3039 RMK AO2=
202310051353 METAR KPAE 051353Z 00000KT 7SM OVC002 12/11 A3038 RMK AO2 SLP288 T01220111=
202310051334 SPECI KPAE 051334Z AUTO 35003KT 4SM R16R/3000VP6000FT BR OVC001 13/12 A3038 RMK AO2 T01280117=
202310051323 SPECI KPAE 051323Z AUTO 00000KT 2 1/2SM R16R/5000VP6000FT BR BKN001 13/12 A3038 RMK AO2 T01280117=
202310051308 SPECI KPAE 051308Z AUTO 34003KT 1SM R16R/P6000FT BR VV001 12/11 A3038 RMK AO2 T01220111=
202310051253 METAR KPAE 051253Z AUTO 33003KT 1/4SM R16R/1600V3000FT FG VV001 12/11 A3038 RMK AO2 SLP287 T01220111=
202310051245 SPECI KPAE 051245Z AUTO 00000KT 1/4SM R16R/1400V2400FT FG VV001 12/12 A3038 RMK AO2 T01220117=
202310051217 SPECI KPAE 051217Z AUTO 35003KT 1/4SM R16R/1400V2000FT FG VV001 13/12 A3038 RMK AO2 T01280117=
202310051206 SPECI KPAE 051206Z AUTO 36004KT 3/4SM R16R/1800V2400FT BR VV001 13/12 A3038 RMK AO2 T01280117=
202310051201 SPECI KPAE 051201Z AUTO 35004KT 1 1/2SM R16R/1800V2000FT BR OVC001 13/12 A3038 RMK AO2 T01280117=
202310051153 METAR KPAE 051153Z AUTO 35004KT 2 1/2SM R16R/1800VP6000FT BR OVC001 13/12 A3038 RMK AO2 SLP287 T01280117 10139 20128 50000=
202310051146 SPECI KPAE 051146Z AUTO 36005KT 4SM R16R/2800VP6000FT BR OVC001 13/12 A3038 RMK AO2 T01280117=
202310051132 SPECI KPAE 051132Z AUTO 01004KT 2SM R16R/2200V5500FT BR OVC001 13/12 A3038 RMK AO2 VIS 1V3 T01280117=
202310051110 SPECI KPAE 051110Z AUTO 01004KT 5SM BR OVC001 13/12 A3039 RMK AO2 T01330117=
202310051053 METAR KPAE 051053Z AUTO 35005KT 6SM BR OVC002 13/12 A3039 RMK AO2 SLP288 T01330117=
202310051033 SPECI KPAE 051033Z AUTO 34004KT 9SM OVC002 13/12 A3038 RMK AO2 T01330117=
202310051000 SPECI KPAE 051000Z AUTO 33005KT 3SM BR OVC001 13/12 A3038 RMK AO2 T01330117=
202310050953 METAR KPAE 050953Z AUTO 34004KT 1 1/4SM BR OVC001 13/12 A3038 RMK AO2 SLP289 T01280117=
202310050947 SPECI KPAE 050947Z AUTO 00000KT 2 1/2SM BR OVC001 13/12 A3038 RMK AO2=
202310050853 METAR KPAE 050853Z AUTO 34003KT 10SM BKN003 OVC038 13/12 A3038 RMK AO2 SLP287 T01330117 51001=
202310050846 SPECI KPAE 050846Z AUTO 35003KT 10SM BKN003 OVC038 13/12 A3038 RMK AO2 T01330117=
202310050753 METAR KPAE 050753Z AUTO 00000KT 10SM FEW003 OVC041 14/12 A3038 RMK AO2 SLP287 T01390122 401780128=
202310050732 SPECI KPAE 050732Z AUTO 00000KT 10SM FEW003 SCT007 OVC043 13/12 A3038 RMK AO2 T01330117=
202310050710 SPECI KPAE 050710Z AUTO 00000KT 10SM SCT003 BKN007 OVC046 13/12 A3038 RMK AO2 T01330117=
202310050653 METAR KPAE 050653Z AUTO 35003KT 10SM FEW004 BKN047 13/12 A3038 RMK AO2 SLP288 T01330117=
202310050614 SPECI KPAE 050614Z AUTO 00000KT 10SM SCT009 OVC047 14/12 A3038 RMK AO2 T01390122=
202310050553 METAR KPAE 050553Z AUTO 35003KT 10SM OVC048 14/12 A3038 RMK AO2 SLP286 T01390122 10178 20133 52008=
202310050453 METAR KPAE 050453Z AUTO 35003KT 10SM FEW060 14/12 A3037 RMK AO2 SLP284 T01390117=
202310050413 SPECI KPAE 050413Z AUTO 35003KT 10SM SCT012 BKN055 14/12 A3037 RMK AO2 T01440122=
202310050353 METAR KPAE 050353Z 35003KT 10SM BKN012 OVC055 14/12 A3036 RMK AO2 SLP280 T01440122=
202310050253 METAR KPAE 050253Z 34003KT 10SM BKN055 14/12 A3035 RMK AO2 SLP278 T01440117 53000=
202310050153 METAR KPAE 050153Z 35005KT 10SM BKN055 15/12 A3034 RMK AO2 SLP275 T01500117=
202310050053 METAR KPAE 050053Z 35005KT 10SM SCT060 16/12 A3034 RMK AO2 SLP274 T01610117=
202310042353 METAR KPAE 042353Z 31003KT 10SM CLR 18/12 A3035 RMK AO2 SLP277 T01780117 10178 20128 56007=
202310042253 METAR KPAE 042253Z AUTO 00000KT 10SM FEW024 OVC055 17/12 A3035 RMK AO2 SLP278 T01720117=
202310042246 SPECI KPAE 042246Z 25003KT 10SM FEW017 SCT024 OVC055 17/12 A3036 RMK AO2 T01720117=
202310042230 SPECI KPAE 042230Z 29004KT 10SM FEW017 BKN024 BKN055 17/12 A3036 RMK AO2 T01670117=
202310042153 METAR KPAE 042153Z 00000KT 10SM SCT015 SCT055 16/12 A3036 RMK AO2 SLP282 T01610117=
202310042053 METAR KPAE 042053Z 00000KT 10SM BKN010 BKN055 16/12 A3037 RMK AO2 SLP285 T01610122 50003=
202310041953 METAR KPAE 041953Z 00000KT 8SM BKN007 BKN010 15/12 A3038 RMK AO2 SLP286 T01500122=
202310041853 METAR KPAE 041853Z 26004KT 8SM OVC005 14/12 A3037 RMK AO2 SLP284 T01390117=
202310041753 METAR KPAE 041753Z 21004KT 4SM BR OVC002 13/12 A3036 RMK AO2 SLP282 T01330117 10133 20128 50009=
202310041700 SPECI KPAE 041700Z 21005KT 1 3/4SM BR OVC002 13/12 A3036 RMK AO2 T01280117=
202310041653 METAR KPAE 041653Z 24003KT 2SM BR BKN002 OVC005 13/12 A3036 RMK AO2 SLP282 T01330117=
202310041553 METAR KPAE 041553Z 23004KT 2SM BR BKN002 OVC005 13/11 A3035 RMK AO2 SLP279 T01280111=
202310041503 SPECI KPAE 041503Z 19006KT 2SM BR BKN004 OVC008 13/12 A3033 RMK AO2 T01330117=
202310041453 METAR KPAE 041453Z 20006KT 2SM BR OVC007 13/12 A3033 RMK AO2 CIG 003V009 SLP272 T01330117 51005=
202310041356 SPECI KPAE 041356Z 17005KT 2SM BR OVC003 13/12 A3033 RMK AO2 T01280117=
202310041353 METAR KPAE 041353Z 17004KT 3SM BR OVC003 13/12 A3033 RMK AO2 SLP270 T01280117=
202310041339 SPECI KPAE 041339Z AUTO 16005KT 2SM BR OVC003 13/12 A3033 RMK AO2 T01280117=
202310041320 SPECI KPAE 041320Z AUTO 15004KT 1 3/4SM BR BKN003 OVC009 13/12 A3033 RMK AO2 T01330117=
202310041307 SPECI KPAE 041307Z AUTO 16004KT 2 1/2SM BR BKN003 OVC009 13/12 A3033 RMK AO2 T01330117=
202310041253 METAR KPAE 041253Z AUTO 16004KT 8SM FEW003 OVC009 13/12 A3033 RMK AO2 SLP269 T01330117=
202310041239 SPECI KPAE 041239Z AUTO VRB03KT 9SM FEW003 BKN008 OVC032 13/12 A3033 RMK AO2 T01330117=
202310041153 METAR KPAE 041153Z AUTO 15005KT 5SM BR FEW003 SCT008 OVC021 13/12 A3032 RMK AO2 SLP266 60001 70001 T01330117 10139 20128 50002=
202310041123 SPECI KPAE 041123Z AUTO 15004KT 3SM BR FEW003 OVC020 13/12 A3032 RMK AO2 T01280117=
202310041112 SPECI KPAE 041112Z AUTO 00000KT 4SM BR BKN020 OVC031 13/12 A3032 RMK AO2 T01330117=
202310041053 METAR KPAE 041053Z AUTO 00000KT 4SM BR OVC030 13/12 A3032 RMK AO2 SLP267 P0001 T01330117=
202310040953 METAR KPAE 040953Z AUTO 10003KT 4SM BR OVC018 13/11 A3032 RMK AO2 RAB28E46 SLP266 P0000 T01280111=
202310040853 METAR KPAE 040853Z AUTO 00000KT 10SM OVC020 13/11 A3031 RMK AO2 SLP264 T01280106 53005=
202310040753 METAR KPAE 040753Z AUTO 01003KT 10SM OVC018 13/11 A3031 RMK AO2 SLP263 T01280106 401720111=
202310040653 METAR KPAE 040653Z AUTO 00000KT 10SM OVC019 14/11 A3030 RMK AO2 SLP261 T01390106=
202310040605 SPECI KPAE 040605Z AUTO 15005KT 10SM BKN023 OVC044 14/11 A3030 RMK AO2 T01440106=
202310040553 METAR KPAE 040553Z AUTO 15004KT 10SM FEW021 OVC045 14/10 A3030 RMK AO2 SLP259 T01390100 10167 20139 51011=
202310040453 METAR KPAE 040453Z AUTO 17003KT 10SM OVC080 14/10 A3029 RMK AO2 SLP257 T01440100=
202310040353 METAR KPAE 040353Z 15003KT 10SM OVC085 14/10 A3028 RMK AO2 SLP254 T01440100=
202310040253 METAR KPAE 040253Z 18005KT 10SM SCT065 14/09 A3026 RMK AO2 SLP248 T01390094 53004=
202310040153 METAR KPAE 040153Z 21004KT 10SM CLR 15/09 A3026 RMK AO2 SLP246 T01500094=
202310040053 METAR KPAE 040053Z 25005KT 10SM SCT024 16/09 A3025 RMK AO2 SLP243 T01610094=
202310032353 METAR KPAE 032353Z 23006KT 10SM SCT027 17/09 A3025 RMK AO2 SLP243 T01670094 10172 20122 56001=
202310032315 SPECI KPAE 032315Z 29003KT 10SM SCT027 17/10 A3025 RMK AO2 T01670100=
202310032311 SPECI KPAE 032311Z 30003KT 10SM BKN027 16/09 A3025 RMK AO2 T01610094=
202310032253 METAR KPAE 032253Z 00000KT 10SM FEW026 17/09 A3025 RMK AO2 SLP243 T01670089=
202310032153 METAR KPAE 032153Z VRB03KT 10SM FEW026 17/09 A3025 RMK AO2 SLP244 T01670089=
202310032053 METAR KPAE 032053Z 00000KT 10SM FEW021 17/09 A3025 RMK AO2 SLP244 T01670094 51015=
202310032011 SPECI KPAE 032011Z 30004KT 10SM FEW014 SCT022 15/10 A3024 RMK AO2 T01500100=
202310032003 SPECI KPAE 032003Z VRB04KT 10SM FEW012 BKN021 15/11 A3024 RMK AO2 T01500106=
202310031953 METAR KPAE 031953Z 34004KT 10SM BKN012 BKN023 14/10 A3024 RMK AO2 SLP239 T01440100=
202310031937 SPECI KPAE 031937Z 30004KT 10SM BKN012 BKN024 14/10 A3023 RMK AO2 T01390100=
202310031901 SPECI KPAE 031901Z 00000KT 10SM SCT009 SCT014 OVC022 14/10 A3022 RMK AO2 T01390100=
202310031853 METAR KPAE 031853Z 36003KT 10SM BKN009 BKN014 OVC022 14/10 A3022 RMK AO2 SLP234 T01390100=
202310031753 METAR KPAE 031753Z 34004KT 10SM OVC006 12/10 A3021 RMK AO2 SLP229 T01220100 10128 20111 51022=
202310031653 METAR KPAE 031653Z 10SM OVC003 12/11 A3019 RMK AO2 SLP221 T01220106=
202310031553 METAR KPAE 031553Z 32005KT 10SM BKN003 OVC007 12/10 A3017 RMK AO2 CIG 002V006 SLP215 T01170100=
202310031453 METAR KPAE 031453Z 33005KT 10SM OVC003 12/10 A3014 RMK AO2 CIG 003V007 SLP206 T01170100 51034=
202310031353 METAR KPAE 031353Z 32007KT 10SM OVC004 11/10 A3011 RMK AO2 CIG 002V009 SLP197 T01110100=
202310031253 METAR KPAE 031253Z AUTO 33009KT 9SM OVC002 12/10 A3008 RMK AO2 SLP185 T01170100=
202310031244 SPECI KPAE 031244Z AUTO 34007KT 9SM OVC004 12/10 A3007 RMK AO2 CIG 002V008 T01170100=
202310031234 SPECI KPAE 031234Z AUTO 33007KT 10SM OVC005 12/10 A3006 RMK AO2 CIG 002V006 T01170100=
202310031153 METAR KPAE 031153Z AUTO 34008KT 9SM OVC002 12/11 A3004 RMK AO2 SLP172 60012 70047 T01170106 10128 20117 51017=
202310031111 SPECI KPAE 031111Z AUTO 33010G16KT 9SM OVC002 12/11 A3004 RMK AO2 T01170106=
202310031053 METAR KPAE 031053Z AUTO 34007KT 7SM OVC001 12/11 A3003 RMK AO2 SLP167 T01170106=
202310031047 SPECI KPAE 031047Z AUTO 34009KT 3SM BR OVC001 12/11 A3002 RMK AO2=
202310031035 SPECI KPAE 031035Z AUTO 35007KT 1 3/4SM BR OVC001 12/11 A3002 RMK AO2 T01170106=
202310030953 METAR KPAE 030953Z AUTO 35011KT 6SM BR OVC001 12/11 A3000 RMK AO2 SLP160 T01170106=
202310030938 SPECI KPAE 030938Z AUTO 34009G17KT 5SM BR OVC001 12/11 A3000 RMK AO2 T01170106=
202310030925 SPECI KPAE 030925Z AUTO 36010G18KT 2SM R16R/2000VP6000FT BR OVC001 12/11 A2999 RMK AO2 T01170106=
202310030917 SPECI KPAE 030917Z AUTO 35009G20KT 3/4SM R16R/1200V4000FT BR VV001 12/11 A2999 RMK AO2 T01220111=
202310030853 METAR KPAE 030853Z AUTO 34007KT 1/4SM R16R/1000V1600FT FG VV001 12/11 A2999 RMK AO2 RAE35 SLP155 P0006 60012 T01220111 53009=
202310030753 METAR KPAE 030753Z AUTO 34007G17KT 310V050 1/4SM R16R/1200V1800FT -RA FG VV001 12/11 A2998 RMK AO2 RAB12 SLP151 P0006 T01220111 401440117=
202310030705 SPECI KPAE 030705Z AUTO 34005KT 1/4SM R16R/1000V1400FT FG VV001 13/12 A2996 RMK AO2 T01280117=
202310030653 METAR KPAE 030653Z AUTO 34005KT 1/4SM R16R/1400V2800FT FG VV001 13/12 A2996 RMK AO2 SLP145 T01280117=
202310030649 SPECI KPAE 030649Z AUTO 33004KT 1/2SM R16R/2400V4500FT FG VV001 13/12 A2996 RMK AO2=
202310030553 METAR KPAE 030553Z AUTO VRB03KT 1 1/2SM R16R/2200V5500FT BR OVC002 13/12 A2994 RMK AO2 RAB15E29 SLP139 P0003 60029 T01280117 10139 20128 51012=
202310030508 SPECI KPAE 030508Z AUTO 21004KT 1 3/4SM BR OVC004 13/12 A2993 RMK AO2 CIG 003V009 T01330117=
202310030453 METAR KPAE 030453Z AUTO 19005KT 2SM BR OVC006 13/12 A2993 RMK AO2 RAE10B13E40 CIG 003V009 SLP134 P0003 T01330117=
202310030428 SPECI KPAE 030428Z AUTO 19007KT 2 1/2SM -RA BR OVC007 13/12 A2992 RMK AO2 RAE10B13 CIG 002V010 P0002 T01330117=
202310030411 SPECI KPAE 030411Z AUTO 19007KT 3SM BR SCT004 OVC009 13/12 A2993 RMK AO2 RAE10 CIG 005V012 P0001 T01330117=
202310030353 METAR KPAE 030353Z AUTO 00000KT 2SM -RA BR BKN004 OVC009 14/12 A2992 RMK AO2 CIG 002V007 SLP132 P0004 T01390122=
202310030336 SPECI KPAE 030336Z 15004KT 2SM -RA BR BKN007 OVC012 13/12 A2992 RMK AO2 CIG 004V008 P0002 T01330122=
202310030313 SPECI KPAE 030313Z 12003KT 2SM -RA BR SCT005 OVC012 13/12 A2992 RMK AO2 P0001 T01330122=
202310030253 METAR KPAE 030253Z 10005KT 2SM -RA BR BKN005 OVC009 13/12 A2991 RMK AO2 SLP127 P0009 60019 T01330117 55007=
202310030153 METAR KPAE 030153Z VRB06KT 2SM -RA BR OVC008 14/12 A2990 RMK AO2 CIG 004V013 SLP126 P0005 T01390122=
202310030116 SPECI KPAE 030116Z 16009G18KT 2SM -RA BR OVC009 14/12 A2991 RMK AO2 CIG 004V013 P0000 T01390117=
202310030100 SPECI KPAE 030100Z 15010KT 4SM -RA BR BKN007 OVC011 13/12 A2991 RMK AO2 CIG 004V009 P0000 T01330117=
202310030053 METAR KPAE 030053Z 15010KT 1 1/4SM -RA BR OVC007 14/12 A2991 RMK AO2 CIG 005V011 SLP127 P0005 T01390117=
202310022353 METAR KPAE 022353Z 15010KT 1 1/4SM R16R/5500VP6000FT RA BR OVC007 13/12 A2993 RMK AO2 SLP135 P0006 60006 T01330117 10144 20122 58021=
202310022320 SPECI KPAE 022320Z 15009G16KT 1 3/4SM -RA BR OVC007 13/12 A2995 RMK AO2 P0002 T01330117=
202310022311 SPECI KPAE 022311Z 15011KT 2 1/2SM -RA BR SCT007 BKN022 OVC043 13/12 A2995 RMK AO2 P0001 T01330117=
202310022253 METAR KPAE 022253Z 16011KT 4SM -RA BR OVC006 13/11 A2995 RMK AO2 RAB13E26B46 SLP143 P0000 T01330111=
202310022153 METAR KPAE 022153Z 16009KT 3SM BR OVC009 13/11 A2998 RMK AO2 RAE2056 CIG 006V010 SLP153 P0000 T01330111=
202310022135 SPECI KPAE 022135Z 15010G17KT 10SM OVC009 13/11 A2999 RMK AO2 RAE2056 P0000 T01330106=
202310022053 METAR KPAE 022053Z 16008KT 130V210 10SM -RA OVC010 13/10 A2999 RMK AO2 RAB46 SLP157 P0000 60000 T01330100 58019=
202310021953 METAR KPAE 021953Z 15010KT 10SM OVC009 13/09 A3002 RMK AO2 SLP166 T01280094=
202310021853 METAR KPAE 021853Z 16009KT 10SM OVC009 13/09 A3004 RMK AO2 RAB1758E15B28E38 SLP171 P0000 T01330094=
202310021816 SPECI KPAE 021816Z 16010KT 10SM OVC009 12/09 A3005 RMK AO2 RAB1758E15 P0000 T01220089=
202310021753 METAR KPAE 021753Z 16010KT 10SM OVC013 12/08 A3005 RMK AO2 SLP175 60000 T01220083 10128 20117 58001=
202310021729 SPECI KPAE 021729Z 18011KT 10SM BKN014 12/08 A3005 RMK AO2 T01220083=
202310021653 METAR KPAE 021653Z 18010KT 10SM SCT011 BKN045 12/08 A3005 RMK AO2 SLP177 T01220078=
202310021605 SPECI KPAE 021605Z 18008KT 10SM BKN014 OVC045 12/09 A3005 RMK AO2 T01220089=
202310021553 METAR KPAE 021553Z 17006KT 10SM SCT014 BKN045 12/08 A3005 RMK AO2 SLP176 T01220083=
202310021550 SPECI KPAE 021550Z 17006KT 10SM BKN014 OVC045 12/08 A3005 RMK AO2=
202310021453 METAR KPAE 021453Z 16008KT 10SM OVC044 12/08 A3003 RMK AO2 SLP170 60000 T01170078 58008=
202310021353 METAR KPAE 021353Z 16006KT 10SM OVC042 12/08 A3005 RMK AO2 SLP176 T01170083=
202310021253 METAR KPAE 021253Z AUTO 15003KT 10SM OVC039 12/08 A3005 RMK AO2 RAE02 SLP176 P0000 T01170083=
202310021153 METAR KPAE 021153Z AUTO 17005KT 10SM -RA OVC047 12/09 A3006 RMK AO2 RAB22 SLP178 P0001 60001 70001 T01170089 10133 20117 58006=
202310021053 METAR KPAE 021053Z AUTO 15004KT 10SM OVC047 12/07 A3007 RMK AO2 SLP182 T01220072=
202310020953 METAR KPAE 020953Z AUTO 22004KT 10SM OVC044 13/08 A3009 RMK AO2 SLP188 T01280078=
202310020853 METAR KPAE 020853Z AUTO 16006KT 10SM OVC049 13/07 A3008 RMK AO2 SLP184 T01280072 58009=
202310020753 METAR KPAE 020753Z AUTO 14007KT 10SM OVC070 13/08 A3009 RMK AO2 SLP187 T01280078 401780072=
202310020653 METAR KPAE 020653Z AUTO 11006KT 10SM FEW070 12/08 A3010 RMK AO2 SLP192 T01220078=
202310020553 METAR KPAE 020553Z AUTO 12003KT 10SM CLR 13/07 A3010 RMK AO2 SLP193 T01330072 10178 20117 52003=
202310020453 METAR KPAE 020453Z AUTO 00000KT 10SM CLR 13/07 A3011 RMK AO2 SLP195 T01330072=
202310020353 METAR KPAE 020353Z AUTO 00000KT 10SM CLR 14/07 A3009 RMK AO2 SLP190 T01440072=
202310020253 METAR KPAE 020253Z 16003KT 10SM CLR 13/07 A3009 RMK AO2 SLP191 T01330072 53002=
202310020153 METAR KPAE 020153Z 00000KT 10SM CLR 14/08 A3009 RMK AO2 SLP192 T01390078=
202310020053 METAR KPAE 020053Z VRB03KT 10SM CLR 17/06 A3008 RMK AO2 SLP187 T01720061=
202310012353 METAR KPAE 012353Z 03003KT 10SM CLR 17/06 A3009 RMK AO2 SLP189 T01670061 10172 20117 58006=
202310012253 METAR KPAE 012253Z 02008KT 10SM CLR 17/07 A3010 RMK AO2 SLP191 T01720072=
202310012153 METAR KPAE 012153Z 36007KT 10SM CLR 16/08 A3010 RMK AO2 SLP193 T01610083=
202310012053 METAR KPAE 012053Z 01008KT 10SM CLR 16/07 A3011 RMK AO2 SLP195 T01610072 58014=
202310011953 METAR KPAE 011953Z 35006KT 10SM CLR 14/08 A3012 RMK AO2 SLP202 T01440083=
202310011853 METAR KPAE 011853Z 01004KT 10SM SCT008 13/07 A3014 RMK AO2 SLP207 T01330072=
202310011805 SPECI KPAE 011805Z 01006KT 10SM SCT008 12/08 A3015 RMK AO2 T01220078=
202310011753 METAR KPAE 011753Z 01005KT 10SM BKN008 12/08 A3015 RMK AO2 SLP210 T01170078 10117 20094 58001=
202310011653 METAR KPAE 011653Z VRB05KT 6SM HZ BKN006 OVC010 11/08 A3015 RMK AO2 CIG 003V008 SLP211 T01110083=
202310011644 SPECI KPAE 011644Z 36006KT 9SM OVC005 11/08 A3015 RMK AO2 CIG 002V010 T01060083=
202310011553 METAR KPAE 011553Z 36003KT 7SM OVC002 10/08 A3015 RMK AO2 SLP212 T01000078=
202310011502 SPECI KPAE 011502Z 36006KT 7SM OVC002 09/08 A3015 RMK AO2 T00940078=
202310011500 SPECI KPAE 011500Z 36008KT 7SM OVC007 09/08 A3015 RMK AO2 CIG 003V010 T00940078=
202310011453 METAR KPAE 011453Z 35005KT 7SM OVC002 09/08 A3015 RMK AO2 SLP210 T00940078 51006=
202310011353 METAR KPAE 011353Z 35004KT 5SM BR OVC002 09/08 A3014 RMK AO2 SLP209 T00940083=
202310011301 SPECI KPAE 011301Z AUTO 35005KT 8SM OVC004 10/08 A3014 RMK AO2 T01000083=
202310011253 METAR KPAE 011253Z AUTO 35004KT 8SM OVC005 10/08 A3014 RMK AO2 SLP206 T01000083=
202310011153 METAR KPAE 011153Z AUTO 35004KT 7SM OVC006 09/08 A3013 RMK AO2 SLP203 T00940078 10106 20072 51003=
202310011137 SPECI KPAE 011137Z AUTO 35003KT 8SM BKN006 08/07 A3013 RMK AO2 T00830067=
202310011129 SPECI KPAE 011129Z AUTO 35003KT 3SM BR SCT008 08/07 A3013 RMK AO2 T00780067=
202310011113 SPECI KPAE 011113Z AUTO 00000KT 10SM CLR 08/06 A3013 RMK AO2 T00830061=
202310011053 METAR KPAE 011053Z AUTO 00000KT 2 1/2SM BR CLR 08/07 A3013 RMK AO2 SLP204 T00830067=
202310010953 METAR KPAE 010953Z AUTO 00000KT 10SM CLR 09/07 A3013 RMK AO2 SLP204 T00890072=
202310010853 METAR KPAE 010853Z AUTO 35003KT 10SM CLR 09/07 A3012 RMK AO2 SLP201 T00890067 53003=
202310010753 METAR KPAE 010753Z AUTO 36003KT 10SM CLR 10/08 A3011 RMK AO2 SLP198 T01000078 401670089=
202310010653 METAR KPAE 010653Z AUTO 35004KT 10SM CLR 10/07 A3011 RMK AO2 SLP198 T01000072=
202310010553 METAR KPAE 010553Z AUTO 00000KT 10SM CLR 09/07 A3011 RMK AO2 SLP199 T00940072 10161 20094 53010=
202310010453 METAR KPAE 010453Z AUTO 00000KT 10SM CLR 10/07 A3010 RMK AO2 SLP195 T01000072=
202310010353 METAR KPAE 010353Z 00000KT 10SM CLR 12/08 A3009 RMK AO2 SLP190 T01170078=
202310010253 METAR KPAE 010253Z 00000KT 10SM CLR 12/08 A3008 RMK AO2 SLP187 T01170078 53007=
202310010153 METAR KPAE 010153Z 33003KT 10SM CLR 13/08 A3007 RMK AO2 SLP183 T01330078=
202310010053 METAR KPAE 010053Z 02004KT 10SM CLR 16/08 A3006 RMK AO2 SLP180 T01560078=

# No short TAF reports from KPAE in databse.

###################################
#  large TAF from KPAE
###################################
202310312326 TAF KPAE 312326Z 0100/0124 VRB02KT P6SM BKN150 FM010600 15004KT
                       P6SM BKN150 FM012300 16007KT P6SM -RA OVC050=
202310311745 TAF KPAE 311745Z 3118/0118 VRB02KT P6SM SKC FM312000 11003KT P6SM
                       SCT180 FM010600 15004KT P6SM BKN150=
202310311136 TAF KPAE 311136Z 3112/0112 VRB02KT P6SM SKC FM311700 11003KT P6SM
                       SCT250 FM010600 14004KT P6SM BKN150=
202310310524 TAF KPAE 310524Z 3106/0106 02004KT P6SM SKC FM311200 08003KT 6SM
                       BR SCT001 FM311500 00000KT 4SM BR SCT001
                       FM311700 11003KT P6SM SKC=
202310302337 TAF KPAE 302337Z 3100/3124 35005KT P6SM SKC FM310400 VRB03KT P6SM
                       SCT200 FM311200 08003KT 6SM BR SCT001 FM311500
                       00000KT 4SM BR SCT001 FM311700 11003KT P6SM
                       SKC=
202310301720 TAF KPAE 301720Z 3018/3118 01004KT P6SM SKC FM301900 35005KT P6SM
                       SKC FM310400 VRB03KT P6SM SCT200 FM311100
                       08003KT 6SM BR SCT001 FM311700 11003KT P6SM
                       SKC=
202310301127 TAF KPAE 301127Z 3012/3112 01004KT P6SM SKC FM301900 35005KT P6SM
                       SKC FM310400 VRB03KT P6SM SCT200 FM311100
                       08003KT 6SM BR SCT001=
202310300521 TAF KPAE 300521Z 3006/3106 01004KT P6SM SKC FM301200 00000KT P6SM
                       SKC FM301900 35005KT P6SM SKC=
202310292320 TAF KPAE 292320Z 3000/3024 36006KT P6SM SKC FM300400 34004KT P6SM
                       SKC FM301200 00000KT P6SM SKC=
202310291720 TAF KPAE 291720Z 2918/3018 01006KT P6SM SKC FM300400 34004KT P6SM
                       SKC=
202310291123 TAF KPAE 291123Z 2912/3012 00000KT P6SM SKC FM291800 34006KT P6SM
                       SKC=
202310290525 TAF KPAE 290525Z 2906/3006 VRB03KT P6SM SKC FM291200 03004KT P6SM
                       SKC FM291800 34006KT P6SM SKC=
202310282320 TAF KPAE 282320Z 2900/2924 35005KT P6SM SKC FM290300 VRB03KT P6SM
                       SKC FM291200 03004KT P6SM SKC=
202310281721 TAF KPAE 281721Z 2818/2918 10008KT P6SM SKC FM282100 35005KT P6SM
                       SKC FM290300 VRB03KT P6SM SKC=
202310281122 TAF KPAE 281122Z 2812/2912 08006KT P6SM SKC FM281800 34006KT P6SM
                       SKC FM290300 VRB03KT P6SM SKC=
202310280520 TAF KPAE 280520Z 2806/2906 36004KT P6SM SKC FM281200 VRB03KT P6SM
                       SKC FM281800 34005KT P6SM SKC FM290300 VRB03KT
                       P6SM SKC=
202310272320 TAF KPAE 272320Z 2800/2824 32009KT P6SM SKC FM280400 36004KT P6SM
                       SKC FM281200 00000KT P6SM SKC=
202310271720 TAF KPAE 271720Z 2718/2818 36004KT P6SM SKC FM272000 36012KT P6SM
                       SKC FM280400 36004KT P6SM SKC=
202310271133 TAF KPAE 271133Z 2712/2812 VRB03KT P6SM SKC FM271600 36004KT P6SM
                       SKC FM272000 36012KT P6SM SKC FM280400 36004KT
                       P6SM SKC=
202310270540 TAF KPAE 270540Z 2706/2806 36004KT P6SM SKC FM272000 36012KT P6SM
                       SKC FM280400 36004KT P6SM SKC=
202310262323 TAF KPAE 262323Z 2700/2724 30004KT P6SM SKC FM270300 33003KT P6SM
                       SKC FM270800 02005KT P6SM SKC FM271200 35003KT
                       P6SM SKC=
202310261720 TAF KPAE 261720Z 2618/2718 17006KT P6SM BKN060 FM262200 27006KT
                       P6SM SCT060 SCT250 FM270100 33003KT P6SM
                       SCT250 FM270800 02005KT P6SM SKC FM271200
                       35003KT P6SM BKN250=
202310261132 TAF KPAE 261132Z 2612/2712 25004KT P6SM SCT050 FM261800 21006KT
                       P6SM SCT030 BKN060 FM262200 27006KT P6SM
                       SCT060 SCT250 FM270100 33003KT P6SM SCT250
                       FM270600 02005KT P6SM SKC=
202310260524 TAF KPAE 260524Z 2606/2706 34005KT P6SM SCT050 FM261000 16004KT
                       P6SM SCT010
                      TEMPO 2612/2616 4SM BR OVC010 FM261800 21006KT
                       P6SM SCT030 BKN060 FM262200 27006KT P6SM
                       SCT060 SCT250 FM270100 33003KT P6SM SCT250=
202310252320 TAF KPAE 252320Z 2600/2624 32008KT P6SM SCT035 FM260300 34005KT
                       P6SM SCT050 FM261000 16004KT 6SM BR SCT010
                       FM261600 17003KT 6SM BR OVC010=
202310251724 TAF KPAE 251724Z 2518/2618 01006KT P6SM SCT035 OVC070 FM252100
                       32008KT P6SM BKN050 OVC100 FM260300 34005KT
                       P6SM BKN100 FM261000 16004KT 6SM BR SCT010=
202310251134 TAF KPAE 251134Z 2512/2612 09006KT P6SM VCSH SCT060 BKN100 FM251400
                       04004KT 6SM BR VCSH OVC030 FM251800 35006KT
                       P6SM SCT020 OVC040 FM252300 31005KT P6SM
                       BKN050 OVC100 FM260300 VRB03KT P6SM BKN100=
202310250537 TAF KPAE 250537Z 2506/2606 15011KT 6SM -RA SCT006 BKN015 OVC020
                       TEMPO 2506/2509 3SM RA BR OVC006 FM250900
                       13006KT 5SM BR VCSH OVC015 FM251400 04004KT
                       6SM BR VCSH OVC020 FM251800 35006KT P6SM
                       SCT020 OVC040 FM252300 31005KT P6SM BKN050
                       OVC100=
202310242324 TAF KPAE 242324Z 2500/2524 15011KT P6SM -RA BKN020 OVC035 FM250300
                       13008KT 6SM -RA OVC025 FM250900 13006KT
                       P6SM VCSH OVC020 FM251400 02004KT P6SM OVC020=
202310242005 KPAE 242005Z 2420/2518 15010KT P6SM -RA BKN020 OVC035 FM242200
                       15011KT P6SM -RA OVC025 FM250300 13008KT
                       P6SM -RA OVC025 FM250900 13006KT P6SM VCSH
                       OVC020=
202310241729 TAF KPAE 241729Z 2418/2518 15009KT P6SM -RA OVC060 FM242200 15011KT
                       P6SM -RA OVC030 FM250300 13008KT P6SM -RA
                       OVC025 FM250900 13006KT P6SM VCSH OVC020=
202310241135 TAF KPAE 241135Z 2412/2512 15005KT P6SM BKN015 BKN150 FM241500
                       14008KT P6SM OVC035 FM241800 15011G20KT
                       P6SM -RA OVC040 FM250300 13008KT P6SM -RA
                       OVC030=
202310240522 TAF KPAE 240522Z 2406/2506 03005KT P6SM VCSH OVC040 FM241000 15005KT
                       P6SM OVC030 FM241800 15011KT P6SM -RA OVC040
                       FM250300 13008KT P6SM -RA OVC030=
202310232330 TAF KPAE 232330Z 2400/2424 34008KT P6SM VCSH BKN030 FM240300 33010KT
                       P6SM VCSH OVC030 FM241000 16005KT P6SM OVC050
                       FM241800 15008KT P6SM -RA OVC050=
202310231743 TAF KPAE 231743Z 2318/2418 19006KT P6SM VCSH SCT015 OVC025 FM232200
                       34008KT P6SM VCSH BKN030 FM240300 33010KT
                       P6SM OVC050 FM241000 16005KT P6SM OVC050=
202310231133 TAF KPAE 231133Z 2312/2412 16005KT P6SM OVC015 FM231800 19006KT
                       6SM BR VCSH BKN017 OVC030 FM232200 27008KT
                       P6SM VCSH BKN030 FM240300 17004KT P6SM VCSH
                       OVC050=
202310230530 TAF KPAE 230530Z 2306/2406 VRB03KT P6SM SKC FM230900 15003KT 6SM
                       BR BKN008 FM231200 18004KT 5SM BR OVC005
                       FM231800 19009KT 6SM BR VCSH BKN017 OVC030
                       FM232200 27007KT P6SM VCSH BKN030=
202310222336 TAF KPAE 222336Z 2300/2324 36005KT P6SM OVC007
                      TEMPO 2301/2305 SCT010 FM230500 VRB03KT 6SM
                       BR BKN008 FM230900 15004KT 5SM BR OVC005
                       FM231800 19009KT 6SM BR VCSH BKN017 OVC030
                       FM232200 27007KT P6SM VCSH BKN030=
202310221943 KPAE 221943Z 2220/2318 34004KT 4SM BR VCSH OVC006
                      TEMPO 2220/2222 1SM BR OVC003 FM222200 32004KT
                       6SM BR OVC010 FM222300 32005KT P6SM BKN017
                       BKN120 FM230600 VRB03KT 6SM BR SCT010 FM230800
                       17004KT 5SM BR OVC008=
202310221730 TAF KPAE 221730Z 2218/2318 34004KT 4SM BR VCSH OVC006
                      TEMPO 2218/2219 1SM BR OVC003 FM222000 32004KT
                       6SM BR OVC010 FM222300 32005KT P6SM BKN025
                       BKN120 FM230600 VRB03KT 6SM BR SCT010 FM230800
                       17004KT 5SM BR OVC008=
202310221134 TAF KPAE 221134Z 2212/2312 VRB03KT 1SM BR VV001 FM221700 VRB03KT
                       4SM BR OVC005 FM222000 32004KT 6SM BR BKN015
                       FM222300 32005KT P6SM BKN035 BKN120 FM230600
                       15004KT 6SM BR SCT010=
202310220526 TAF KPAE 220526Z 2206/2306 28003KT P6SM VCSH OVC007 FM220900 VRB03KT
                       1SM BR OVC003 FM221700 VRB03KT 4SM BR OVC005
                       FM222000 32004KT 6SM BR BKN014 FM222300
                       32006KT P6SM BKN035 BKN120=
202310212332 TAF KPAE 212332Z 2200/2224 34004KT 5SM BR VCSH OVC006
                      TEMPO 2200/2204 2SM BR OVC003 FM220400 28003KT
                       3SM BR VCSH OVC005 FM220900 VRB03KT 1SM
                       BR OVC002 FM221700 VRB03KT 4SM BR OVC005
                       FM222000 32004KT 6SM BR BKN014=
202310212103 KPAE 212103Z 2121/2218 34004KT 3SM BR OVC003
                      TEMPO 2121/2201 1/4SM FG VV001 FM220600 28003KT
                       5SM BR OVC005 FM220900 VRB03KT 5SM BR OVC004
                       FM221700 VRB03KT 6SM BR OVC008=
202310211905 KPAE 211905Z 2119/2218 35004KT 4SM BR OVC004
                      TEMPO 2119/2121 1/4SM FG VV001 FM212100 31004KT
                       P6SM BKN009 BKN200 FM212300 31005KT P6SM
                       SCT012 BKN120 FM220600 28003KT P6SM BKN008
                       FM220900 VRB03KT 5SM BR OVC004=
202310211729 TAF KPAE 211729Z 2118/2218 35004KT 4SM BR OVC004
                      TEMPO 2118/2120 1SM BR OVC002 FM212000 31004KT
                       P6SM BKN009 BKN200 FM212200 31005KT P6SM
                       SCT012 BKN120 FM220600 28003KT P6SM BKN008
                       FM220900 VRB03KT 5SM BR OVC004=
202310211124 TAF KPAE 211124Z 2112/2212 35004KT 6SM BR OVC004 FM211900 31004KT
                       P6SM BKN010 BKN200 FM220000 31005KT P6SM
                       SCT015 BKN200 FM220600 28003KT P6SM BKN015=
202310211013 KPAE 211013Z 2110/2206 33006KT P6SM OVC007 FM211000 VRB03KT 3SM
                       BR OVC004 FM211900 31004KT P6SM BKN010 BKN200
                       FM212100 31005KT P6SM SCT015 BKN200=
202310210855 KPAE 210855Z 2109/2206 33006KT P6SM OVC007 FM211200 VRB03KT 3SM
                       BR OVC004 FM211900 31004KT P6SM BKN010 BKN200
                       FM212100 31005KT P6SM SCT015 BKN200=
202310210520 TAF KPAE 210520Z 2106/2206 33006KT P6SM OVC007 FM210900 VRB03KT
                       3SM BR OVC004 FM211900 31004KT P6SM BKN010
                       BKN200 FM212100 31005KT P6SM SCT015 BKN200=
202310210209 KPAE 210209Z 2102/2124 33006KT P6SM OVC007 FM210500 VRB03KT 6SM
                       BR OVC005 FM210900 VRB03KT 3SM BR OVC004
                       FM211900 33004KT P6SM BKN010 BKN200 FM212100
                       31005KT P6SM SCT015 BKN200=
202310202326 TAF KPAE 202326Z 2100/2124 33006KT P6SM BKN012 BKN200
                      TEMPO 2101/2105 SCT014 BKN200 FM210500 VRB03KT
                       6SM BR BKN010 FM210900 VRB03KT 3SM BR OVC004
                       FM211900 33004KT P6SM BKN010 BKN200 FM212100
                       31005KT P6SM SCT015 BKN200=
202310201903 KPAE 201903Z 2019/2118 34007KT 6SM BR BKN007 BKN030
                      TEMPO 2019/2021 SCT010 BKN035 FM202100 33004KT
                       P6SM SCT020 BKN040 FM210000 35003KT P6SM
                       SCT030 BKN200 FM210700 VRB03KT 6SM BR BKN008
                       FM211000 VRB03KT 3SM BR OVC004=
202310201720 TAF KPAE 201720Z 2018/2118 34005KT 6SM BR BKN007 BKN030
                      TEMPO 2020/2022 SCT012 BKN035 FM202200 33004KT
                       P6SM SCT020 BKN040 FM210000 35003KT P6SM
                       SCT030 BKN200 FM210700 VRB03KT 6SM BR BKN008
                       FM211000 VRB03KT 3SM BR OVC004=
202310201120 TAF KPAE 201120Z 2012/2112 35007KT 1/2SM FG VV001 FM201500 34005KT
                       1/2SM FG OVC002 FM202000 33004KT P6SM BKN010
                       BKN025 FM210000 31003KT P6SM SCT030 BKN250=
202310200954 KPAE 200954Z 2010/2106 34003KT 1/2SM FG VV001 FM201200 32003KT
                       1SM BR OVC005
                      TEMPO 2012/2016 1/2SM FG OVC003 FM201900
                       33004KT P6SM BKN010 BKN025 FM210000 31003KT
                       P6SM SCT030 BKN250=
202310200520 TAF KPAE 200520Z 2006/2106 VRB03KT P6SM OVC015 FM200900 34003KT
                       5SM BR OVC007 FM201200 32003KT 3SM BR OVC005
                       TEMPO 2012/2016 1/2SM FG OVC003 FM201900
                       33004KT P6SM BKN010 BKN025 FM210000 31003KT
                       P6SM SCT030 BKN250=
202310200148 KPAE 200148Z 2002/2024 VRB03KT P6SM BKN017
                      TEMPO 2002/2006 2SM BR OVC002 FM200600 35003KT
                       P6SM OVC011 FM200900 34003KT 6SM BR OVC007
                       FM201200 32003KT 5SM BR OVC005 FM201900
                       33004KT P6SM BKN014 BKN025=
202310192324 TAF KPAE 192324Z 2000/2024 VRB03KT P6SM BKN017 FM200600 35003KT
                       P6SM OVC011 FM200900 34003KT 6SM BR OVC007
                       FM201200 32003KT 5SM BR OVC005 FM201900
                       33004KT P6SM BKN014 BKN025=
202310192102 KPAE 192102Z 1921/2018 17009KT P6SM BKN016 BKN050 FM192300 23005KT
                       P6SM BKN022 BKN050 FM200300 19004KT P6SM
                       OVC025 FM200800 02003KT 6SM BR VCSH OVC007=
202310191735 TAF KPAE 191735Z 1918/2018 14009KT P6SM BKN006
                      TEMPO 1918/1920 SCT006 FM192000 16007KT P6SM
                       SCT010 SCT200 FM192200 23005KT P6SM BKN050
                       FM200300 19004KT P6SM OVC025 FM200800 02003KT
                       6SM BR VCSH OVC007=
202310191423 KPAE 191423Z 1914/2012 15006KT P6SM SCT005
                      TEMPO 1914/1917 6SM BR BKN004 FM191800 17007KT
                       P6SM SCT020 BKN070 FM192200 23005KT P6SM
                       SCT020 BKN050 FM200100 02004KT P6SM OVC025=
202310191120 TAF KPAE 191120Z 1912/2012 11005KT P6SM SKC FM191500 15006KT P6SM
                       SCT003 SCT015 BKN250 FM191800 17007KT P6SM
                       SCT020 BKN070 FM192200 23005KT P6SM SCT020
                       BKN050 FM200100 02004KT P6SM OVC025=
202310190523 TAF KPAE 190523Z 1906/2006 16007KT P6SM SCT250 FM191500 15006KT
                       P6SM SCT003 SCT015 BKN250 FM191800 17007KT
                       P6SM SCT020 BKN070 FM192200 23005KT P6SM
                       SCT020 BKN050 FM200100 02004KT P6SM OVC025=
202310182330 TAF KPAE 182330Z 1900/1924 16007KT P6SM SCT250 FM191500 15006KT
                       P6SM SCT003 SCT015 BKN250 FM191800 17007KT
                       P6SM SCT020 BKN070 FM192200 23005KT P6SM
                       SCT020 BKN050=
202310181723 TAF KPAE 181723Z 1818/1918 16011G22KT P6SM SCT250 FM182200 16007KT
                       P6SM SCT250 FM191500 15006KT P6SM SCT003
                       SCT015 BKN250=
202310181120 TAF KPAE 181120Z 1812/1912 14010KT P6SM SKC FM181500 15010KT P6SM
                       FEW008 BKN050 FM181700 16009KT P6SM SCT050
                       BKN250 FM190000 16006KT P6SM SCT250=
202310180521 TAF KPAE 180521Z 1806/1906 14007KT P6SM SCT050 OVC100 FM181200
                       16008KT P6SM FEW005 BKN050 FM181700 16009KT
                       P6SM SCT050 BKN250 FM190000 16006KT P6SM
                       SCT250=
202310172330 TAF KPAE 172330Z 1800/1824 12006KT P6SM BKN070 OVC120 FM180600
                       15007KT P6SM SCT070 BKN120 FM181200 16008KT
                       P6SM FEW005 BKN050 FM181700 16007KT P6SM
                       BKN250=
202310171859 KPAE 171859Z 1719/1818 15007KT P6SM SCT010 BKN070 OVC150
                      TEMPO 1719/1721 BKN010 FM172100 14006KT P6SM
                       BKN070 OVC150 FM181100 16009KT P6SM SCT010
                       BKN050=
202310171720 TAF KPAE 171720Z 1718/1818 15005KT P6SM SCT010 BKN070 OVC150 FM172000
                       14006KT P6SM BKN070 OVC150 FM181100 16009KT
                       P6SM SCT010 BKN050=
202310171120 TAF KPAE 171120Z 1712/1812 19006KT P6SM BKN015 FM171300 16005KT
                       6SM BR SCT007 OVC010 FM171800 17005KT P6SM
                       BKN015 OVC050 FM172000 19005KT P6SM BKN060
                       FM180100 14007KT P6SM BKN040 FM181100 14007KT
                       P6SM BKN015=
202310171014 KPAE 171014Z 1710/1806 19006KT P6SM BKN015 FM171200 15005KT 6SM
                       BR SCT007 OVC010 FM171800 17005KT P6SM BKN015
                       OVC050 FM172000 19005KT P6SM BKN060 FM180100
                       14006KT P6SM BKN040=
202310170815 KPAE 170815Z 1708/1806 19006KT P6SM FEW015 FM171200 15005KT 6SM
                       BR SCT007 OVC010 FM171800 17005KT P6SM BKN015
                       OVC050 FM172000 19005KT P6SM BKN060 FM180100
                       14006KT P6SM BKN040=
202310170528 TAF KPAE 170528Z 1706/1806 19006KT P6SM VCSH SCT015 OVC025 FM171200
                       15005KT 6SM BR SCT007 OVC010 FM171800 17005KT
                       P6SM BKN015 OVC050 FM172000 19005KT P6SM
                       BKN060 FM180100 14006KT P6SM BKN040=
202310162332 TAF KPAE 162332Z 1700/1724 18012G22KT P6SM -SHRA BKN035 BKN080
                       TEMPO 1700/1702 5SM -RA BR SCT015 BKN030
                       FM170200 17006KT P6SM VCSH SCT030 BKN050
                       FM171200 15005KT 6SM BR SCT007 OVC010 FM171800
                       15005KT P6SM BKN015 OVC050 FM172000 16005KT
                       P6SM BKN050=
202310161801 KPAE 161801Z 1618/1718 18017G22KT P6SM -SHRA BKN020 OVC025
                      TEMPO 1618/1620 3SM -SHRA BR BKN005 FM162300
                       19011G19KT P6SM -SHRA BKN040 OVC060 FM170300
                       17006KT P6SM VCSH BKN050 FM171200 15005KT
                       6SM BR SCT005 OVC010=
202310161737 TAF KPAE 161737Z 1618/1718 18017G22KT P6SM -SHRA BKN020 OVC025
                       FM162300 19011G19KT P6SM -SHRA BKN040 OVC060
                       FM170300 17006KT P6SM VCSH BKN050 FM171200
                       15005KT 6SM BR SCT005 OVC010=
202310161121 TAF KPAE 161121Z 1612/1712 14005KT P6SM SCT120 OVC150 FM161500
                       16008KT P6SM -RA OVC015 FM161800 18017G22KT
                       P6SM -RA OVC020 FM170300 17010KT P6SM VCSH
                       OVC050 FM171000 15005KT P6SM OVC006=
202310160522 TAF KPAE 160522Z 1606/1706 VRB03KT P6SM SCT120 BKN150 FM160900
                       14005KT P6SM SCT120 OVC150 FM161500 16006KT
                       P6SM -RA OVC015 FM161800 18012G20KT P6SM
                       -RA OVC020 FM170300 18010KT P6SM VCSH OVC050=
202310152320 TAF KPAE 152320Z 1600/1624 07004KT P6SM -RA OVC080 FM160600 13005KT
                       P6SM OVC070 FM161300 14006KT P6SM -SHRA
                       OVC040 FM161700 14013KT P6SM -RA OVC035=
202310151724 TAF KPAE 151724Z 1518/1618 33005KT P6SM OVC070 FM152100 07004KT
                       P6SM OVC070 FM160000 07004KT P6SM OVC070
                       FM160600 13005KT P6SM OVC050 FM161300 14006KT
                       P6SM -SHRA OVC040=
202310151120 TAF KPAE 151120Z 1512/1612 VRB05KT P6SM BKN035 OVC100 FM151400
                       09004KT P6SM SCT010 OVC100 FM151800 33005KT
                       P6SM OVC100 FM160000 07004KT P6SM OVC010
                       FM160800 11005KT P6SM OVC007=
202310150523 TAF KPAE 150523Z 1506/1606 VRB05KT P6SM VCSH BKN060 OVC110 FM150900
                       12006KT P6SM OVC100=
202310142320 TAF KPAE 142320Z 1500/1524 18011KT P6SM -SHRA OVC060 FM150400 14007KT
                       P6SM -RA OVC045 FM151100 12006KT P6SM -SHRA
                       OVC050 FM151600 10004KT P6SM OVC060=
202310141722 TAF KPAE 141722Z 1418/1518 14008KT P6SM BKN040 OVC070 FM142000
                       16007KT P6SM OVC060 FM150000 14010KT P6SM
                       -RA OVC045 FM151100 12006KT P6SM -SHRA OVC050
                       FM151600 10004KT P6SM OVC060=
202310141130 TAF KPAE 141130Z 1412/1512 17007KT P6SM OVC045 FM141700 14008KT
                       P6SM OVC090 FM150000 14010KT P6SM -RA OVC045
                       FM151100 12006KT P6SM -RA OVC008=
202310140852 KPAE 140852Z 1409/1506 17007KT P6SM -SHRA OVC050 FM141700 14008KT
                       P6SM OVC100 FM150000 14010KT P6SM -RA OVC050=
202310140528 TAF KPAE 140528Z 1406/1506 18012G20KT P6SM -RA OVC080 FM141100
                       17007KT P6SM -SHRA OVC050 FM141700 14008KT
                       P6SM OVC100 FM150000 14010KT P6SM -RA OVC050=
202310132322 TAF KPAE 132322Z 1400/1424 15010KT P6SM BKN250 FM140300 15009KT
                       P6SM -SHRA OVC100 FM140600 14008KT P6SM
                       -RA OVC050 FM141100 13006KT P6SM -SHRA OVC050
                       FM141700 14008KT P6SM OVC050=
202310131722 TAF KPAE 131722Z 1318/1418 10005KT P6SM BKN250 FM132100 15010KT
                       P6SM BKN250 FM140300 15009KT P6SM OVC100
                       FM140600 14008KT P6SM -RA OVC050 FM141100
                       13006KT P6SM -SHRA OVC050=
202310131338 KPAE 131338Z 1314/1412 10005KT P6SM BKN250 FM132100 18010KT P6SM
                       BKN250 FM140300 15009KT P6SM OVC100 FM140600
                       14008KT P6SM -RA OVC045=
202310131120 TAF KPAE 131120Z 1312/1412 10005KT P6SM BKN250 FM132100 18010KT
                       P6SM BKN250 FM140300 15009KT P6SM OVC100
                       FM140600 14008KT P6SM -RA OVC045=
202310130523 TAF KPAE 130523Z 1306/1406 08004KT P6SM FEW250 FM131200 10005KT
                       P6SM BKN250 FM132100 18010KT P6SM BKN250
                       FM140300 15009KT P6SM OVC100=
202310122321 TAF KPAE 122321Z 1300/1324 01003KT P6SM SKC FM130800 04003KT 6SM
                       BCFG BKN003 FM131300 10006KT 1/2SM FG BKN001
                       FM131800 11006KT P6SM BKN250=
202310122106 KPAE 122106Z 1221/1318 25004KT P6SM SCT003 FM122200 36005KT P6SM
                       SCT015 FM130800 04003KT 6SM BCFG BKN003
                       FM131300 10006KT 1/2SM FG BKN001=
202310121944 KPAE 121944Z 1220/1318 00000KT 2SM BR OVC003 FM122200 36005KT P6SM
                       SCT015 FM130800 04003KT 6SM BCFG BKN003
                       FM131300 10006KT 1/2SM FG BKN001=
202310121738 KPAE 121738Z 1218/1318 15006KT 1/2SM FG VV022 FM121900 32004KT
                       P6SM SKC FM130300 36005KT P6SM SKC FM130800
                       04003KT 6SM BCFG BKN003 FM131300 10006KT
                       1/2SM FG BKN001=
202310121732 TAF KPAE 121732Z 1218/1318 15006KT P6SM FEW007 FM122000 32004KT
                       P6SM SKC FM130300 36005KT P6SM SKC FM130800
                       04003KT 6SM BCFG BKN003 FM131300 10006KT
                       1/2SM FG BKN001=
202310121600 KPAE 121600Z 1216/1312 10003KT 6SM BR SCT002
                      TEMPO 1216/1217 1/4SM BCFG VV001 FM121800
                       VRB03KT P6SM FEW007 FM122000 32004KT P6SM
                       SKC FM130300 36005KT P6SM SKC FM130900 04003KT
                       6SM BCFG SCT003=
202310121500 KPAE 121500Z 1215/1312 10003KT 6SM BR SCT002
                      TEMPO 1215/1216 1/4SM BCFG VV001 FM121800
                       VRB03KT P6SM FEW007 FM122000 32004KT P6SM
                       SKC FM130300 36005KT P6SM SKC FM130900 04003KT
                       6SM BCFG SCT003=
202310121132 TAF KPAE 121132Z 1212/1312 10003KT 6SM BR SCT002
                      TEMPO 1212/1216 1SM BR BKN002 FM121800 VRB03KT
                       P6SM FEW007 FM122000 32004KT P6SM SKC FM130300
                       36005KT P6SM SKC FM130900 04003KT 6SM BCFG
                       SCT003=
202310120529 TAF KPAE 120529Z 1206/1306 01004KT 4SM BR BKN001
                      TEMPO 1206/1209 1/2SM FG OVC001 FM120900
                       VRB02KT 1/2SM FG OVC001 FM121800 VRB03KT
                       5SM BR SCT015 FM122000 35004KT P6SM SKC=
202310120441 KPAE 120441Z 1205/1224 02004KT P6SM SCT050
                      TEMPO 1205/1208 1SM BR BKN001 FM120800 VRB03KT
                       1SM BR BKN003 FM121700 16005KT P6SM SCT015
                       FM122000 01004KT P6SM SKC=
202310112336 TAF KPAE 112336Z 1200/1224 06005KT P6SM SCT008 OVC050 FM120200
                       02004KT P6SM BKN050 FM120900 VRB03KT P6SM
                       BKN015 FM121300 VRB02KT 3SM BR BKN008 FM121700
                       16005KT P6SM SCT015 FM122000 01004KT P6SM
                       SKC=
202310112108 KPAE 112108Z 1121/1218 09007KT 4SM -RA BR BKN005 OVC020 FM112300
                       35008KT P6SM BKN050 FM120600 VRB02KT P6SM
                       FEW250 FM121300 VRB02KT 3SM BR BKN008 FM121700
                       16005KT P6SM SCT015=
202310111743 TAF KPAE 111743Z 1118/1218 12008KT 2SM -RA BR BKN008 OVC020 FM112100
                       22006KT P6SM VCSH SCT025 BKN050 FM112300
                       35008KT P6SM BKN050 FM120600 VRB02KT P6SM
                       FEW250 FM121300 VRB02KT 3SM BR BKN008 FM121700
                       16005KT P6SM SCT015=
202310111520 KPAE 111520Z 1115/1212 12008KT P6SM -SHRA BKN035 OVC060 FM112100
                       24006KT P6SM -SHRA SCT025 BKN045 OVC070
                       FM112300 34008KT P6SM BKN050=
202310111134 TAF KPAE 111134Z 1112/1212 15012KT P6SM -SHRA BKN045 OVC070 FM111400
                       15012KT P6SM -SHRA SCT025 OVC040
                      TEMPO 1114/1117 5SM -SHRA BKN025 OVC040 FM112100
                       24006KT P6SM -SHRA SCT025 BKN045 OVC070
                       FM112300 34008KT P6SM BKN050=
202310110533 TAF KPAE 110533Z 1106/1206 15011G19KT P6SM -SHRA SCT025 OVC050
                       FM111200 15012KT P6SM -SHRA BKN025 OVC030
                       FM111500 12009KT P6SM -SHRA OVC015 FM111800
                       14005KT P6SM -SHRA OVC015 FM112100 33004KT
                       P6SM BKN025 OVC035 FM112300 34003KT P6SM
                       SCT050=
202310102340 TAF KPAE 102340Z 1100/1124 20012G24KT 6SM -SHRA BKN025 OVC050 FM111200
                       15012KT 4SM -SHRA BKN020 OVC035 FM111800
                       14005KT 6SM -SHRA OVC015 FM112300 25004KT
                       P6SM OVC050=
202310101739 TAF KPAE 101739Z 1018/1118 14008KT P6SM -RA FEW040 OVC060 FM101900
                       12010G20KT P6SM -RA FEW040 OVC050 FM102300
                       17015G25KT P6SM -SHRA BKN035 OVC060 FM111000
                       17012KT P6SM -SHRA BKN022 OVC035=
202310101125 TAF KPAE 101125Z 1012/1112 15008KT P6SM -RA OVC050 FM101800 17012G20KT
                       P6SM -RA OVC035 FM102300 17015G25KT P6SM
                       -SHRA BKN035 OVC060 FM111000 17012KT P6SM
                       -SHRA BKN022 OVC035=
202310100520 TAF KPAE 100520Z 1006/1106 16008KT P6SM BKN070 BKN090 FM101400
                       13008KT P6SM -RA BKN035 OVC040 FM101900
                       20008KT P6SM -SHRA BKN030 OVC040 FM102300
                       17012G19KT P6SM -SHRA BKN040 OVC050=
202310092320 TAF KPAE 092320Z 1000/1024 18010KT P6SM -SHRA SCT025 BKN045 OVC070
                       FM100300 16008KT P6SM SCT045 OVC070 FM101500
                       13008KT P6SM -RA OVC050 FM101800 20008KT
                       P6SM -SHRA OVC050=
202310091728 TAF KPAE 091728Z 0918/1018 16012KT P6SM BKN120 OVC200 FM092000
                       16012KT P6SM -RA OVC040 FM100000 18010KT
                       P6SM -SHRA SCT025 BKN045 OVC070 FM100300
                       16008KT P6SM SCT045 OVC070 FM101500 13008KT
                       P6SM -RA OVC050=
202310091140 TAF KPAE 091140Z 0912/1012 16012KT P6SM SCT120 BKN200 FM091600
                       16012KT P6SM BKN120 OVC200 FM092000 16012KT
                       P6SM -RA OVC040 FM100000 18010KT P6SM SCT025
                       BKN045 OVC070 FM100800 16008KT P6SM SCT045
                       OVC070=
202310090521 TAF KPAE 090521Z 0906/1006 11006KT P6SM SKC FM091200 19007KT P6SM
                       OVC120 FM091600 15007KT P6SM VCSH OVC060
                       FM092000 16009KT P6SM -RA OVC050=
202310082320 TAF KPAE 082320Z 0900/0924 17006KT P6SM SKC FM091200 19007KT P6SM
                       OVC120 FM091600 15007KT P6SM VCSH OVC060
                       FM092000 16009KT P6SM -RA OVC050=
202310081731 TAF KPAE 081731Z 0818/0918 17006KT P6SM FEW005 FM091200 14007KT
                       P6SM OVC120=
202310081551 KPAE 081551Z 0816/0912 16006KT P6SM BKN004 FM081700 19006KT P6SM
                       BKN008 FM081800 16006KT P6SM SKC=
202310081359 KPAE 081359Z 0814/0912 19006KT P6SM OVC005 FM081700 19006KT P6SM
                       BKN008 FM081800 16006KT P6SM SKC=
202310081136 TAF KPAE 081136Z 0812/0912 00000KT P6SM SKC FM081900 16006KT P6SM
                       SKC=
202310080520 TAF KPAE 080520Z 0806/0906 15004KT P6SM SKC FM081400 15004KT P6SM
                       BKN004 FM081800 17005KT P6SM SCT250=
202310072342 TAF KPAE 072342Z 0800/0824 24005KT P6SM SCT200 FM080200 18004KT
                       P6SM SCT200 FM081400 15004KT P6SM BKN004
                       FM081800 17005KT P6SM FEW250=
202310071736 TAF KPAE 071736Z 0718/0818 VRB03KT P6SM SKC FM072200 20005KT P6SM
                       SCT200 FM080900 17005KT 6SM BCFG SCT003=
202310071127 TAF KPAE 071127Z 0712/0812 03004KT P6SM SKC FM071800 VRB03KT P6SM
                       SKC FM072200 20005KT P6SM SCT200 FM080900
                       17005KT 6SM BCFG SCT003=
202310070520 TAF KPAE 070520Z 0706/0806 01004KT P6SM SKC FM071100 11004KT P6SM
                       SKC FM071800 18005KT P6SM SKC=
202310062320 TAF KPAE 062320Z 0700/0724 35005KT P6SM SKC FM070300 02004KT P6SM
                       SKC FM071100 11004KT P6SM SKC FM071700 13005KT
                       P6SM SKC=
202310061733 KPAE 061733Z 0618/0718 36006KT 6SM BCFG SCT002 FM061900 36006KT
                       P6SM SCT010 FM062100 32008KT P6SM SKC FM070300
                       02004KT P6SM SKC FM071100 11004KT 6SM BR
                       BCFG SCT002 FM071700 13005KT P6SM SCT010=
202310061720 TAF KPAE 061720Z 0618/0718 36006KT 6SM BCFG SCT002
                      TEMPO 0618/0619 1/4SM FG VV001 FM061900 36006KT
                       P6SM SCT010 FM062100 32008KT P6SM SKC FM070300
                       02004KT P6SM SKC FM071100 11004KT 6SM BR
                       BCFG SCT002 FM071700 13005KT P6SM SCT010=
202310061607 KPAE 061607Z 0616/0712 36006KT 6SM BCFG SCT002
                      TEMPO 0616/0618 1/4SM FG VV001 FM061800 36005KT
                       P6SM SCT010 FM062100 32008KT P6SM SKC FM070300
                       02004KT P6SM SKC FM071100 VRB02KT 6SM BR
                       BCFG SCT002=
202310061501 KPAE 061501Z 0615/0712 36006KT 6SM BCFG SCT002
                      TEMPO 0615/0617 1/2SM FG VV001 FM061700 36005KT
                       P6SM SCT010 FM062100 32008KT P6SM SKC FM070300
                       02004KT P6SM SKC FM071100 VRB02KT 6SM BR
                       BCFG SCT002=
202310061120 TAF KPAE 061120Z 0612/0712 36006KT 6SM BCFG SCT002
                      TEMPO 0612/0616 1SM BR BKN001 FM061800 35005KT
                       P6SM SKC FM070300 02004KT P6SM SKC FM071100
                       VRB02KT 6SM BR BCFG SCT002=
202310060522 TAF KPAE 060522Z 0606/0706 35005KT P6SM SKC FM061200 VRB03KT 6SM
                       BR SCT002 FM061800 34005KT P6SM SKC FM070300
                       02004KT P6SM SKC=
202310052320 TAF KPAE 052320Z 0600/0624 35008KT P6SM SKC FM060300 34006KT P6SM
                       SKC FM060800 VRB03KT 1/4SM FG OVC002 FM061800
                       34005KT P6SM SKC=
202310052209 KPAE 052209Z 0522/0618 35008KT P6SM SKC FM060100 34006KT P6SM SKC
                       FM060800 VRB03KT 1/4SM FG OVC002 FM061700
                       34005KT P6SM SKC=
202310051735 KPAE 051735Z 0518/0618 35005KT 4SM BR OVC002 FM051900 33006KT P6SM
                       SCT010 FM052100 34005KT P6SM SKC FM060800
                       VRB03KT 1/4SM FG OVC002 FM061700 34005KT
                       P6SM SKC=
202310051720 TAF KPAE 051720Z 0518/0618 35005KT 3SM BR OVC001 FM051900 33006KT
                       P6SM SCT010 FM052100 34005KT P6SM SKC FM060800
                       VRB03KT 1/4SM FG OVC002 FM061700 34005KT
                       P6SM SKC=
202310051631 KPAE 051631Z 0517/0612 35005KT 1/4SM FG VV001 FM051800 34003KT
                       6SM BR BKN005 FM051900 33006KT P6SM SCT010
                       FM052100 34005KT P6SM SKC FM060900 VRB03KT
                       6SM BCFG SCT002=
202310051604 KPAE 051604Z 0516/0612 35005KT 6SM BR OVC002
                      TEMPO 0516/0517 1/4SM FG VV001 FM051700 34003KT
                       6SM BR BKN005 FM051900 33006KT P6SM SCT010
                       FM052100 34005KT P6SM SKC FM060900 VRB03KT
                       6SM BCFG SCT002=
202310051528 KPAE 051528Z 0515/0612 35005KT 6SM BR OVC002
                      TEMPO 0515/0517 1/4SM FG FM051700 34003KT
                       6SM BR BKN005 FM051900 33006KT P6SM SCT010
                       FM052100 34005KT P6SM SKC FM060900 VRB03KT
                       6SM BCFG SCT002=
202310051454 KPAE 051454Z 0515/0612 35005KT 6SM BR OVC002
                      TEMPO 0515/0517 1/2SM FG FM051700 34003KT
                       6SM BR BKN005 FM051900 33006KT P6SM SCT010
                       FM052100 34005KT P6SM SKC FM060900 VRB03KT
                       6SM BCFG SCT002=
202310051451 KPAE 051451Z 0515/0612 35005KT 6SM BR OVC002 FM051700 34003KT 6SM
                       BR BKN005 FM051900 33006KT P6SM SCT010 FM052100
                       34005KT P6SM SKC FM060900 VRB03KT 6SM BCFG
                       SCT002=
202310051124 TAF KPAE 051124Z 0512/0612 35005KT 6SM BR BKN004
                      TEMPO 0512/0516 1 1/2SM BR OVC002 FM051700
                       34003KT 6SM BR BKN005 FM051900 33006KT P6SM
                       SCT010 FM052100 34005KT P6SM SKC FM060900
                       VRB03KT 6SM BCFG SCT002=
202310050534 TAF KPAE 050534Z 0506/0606 35003KT 6SM BR SCT015 BKN030 FM050800
                       VRB02KT 2SM BR SCT004 BKN010 FM051200 00000KT
                       1/2SM FG OVC002 FM051700 34003KT 3SM BR
                       BKN003 FM052100 33005KT P6SM SCT030 FM060000
                       34005KT P6SM SKC=
202310042320 TAF KPAE 042320Z 0500/0524 35004KT P6SM SCT035 SCT200 FM050600
                       34003KT 2SM BR BCFG SCT004 FM051200 00000KT
                       1/2SM BCFG OVC003 FM051700 34003KT 3SM BCFG
                       BKN003 FM052100 33005KT P6SM SCT007=
202310041726 TAF KPAE 041726Z 0418/0518 21004KT 2SM BR OVC002 FM041900 VRB03KT
                       5SM BR BKN015 FM042100 33004KT P6SM BKN040
                       FM050000 35004KT P6SM SCT050 SCT200 FM050600
                       34003KT 4SM BR BCFG SCT004 FM051200 VRB02KT
                       1/2SM BCFG OVC003 FM051700 34003KT 2SM BCFG
                       BKN003=
202310041142 TAF KPAE 041142Z 0412/0512 VRB03KT P6SM BKN013 BKN027
                      TEMPO 0412/0416 4SM BR BKN008 OVC022 FM041900
                       VRB03KT P6SM SCT012 BKN025 FM042100 33004KT
                       P6SM BKN040 FM050000 35004KT P6SM SCT050
                       SCT200 FM050900 34003KT 6SM BR BCFG SCT004=
202310040535 TAF KPAE 040535Z 0406/0506 VRB03KT P6SM OVC080 FM040900 VRB03KT
                       5SM BR OVC012 FM041200 23003KT 2SM BR OVC007
                       FM041900 34004KT 6SM BR OVC015 FM042300
                       35004KT P6SM BKN050=
202310032328 KPAE 032328Z 0400/0424 VRB02KT P6SM BKN035 BKN050 FM040400 VRB04KT
                       P6SM OVC020 FM040900 VRB03KT 5SM BR OVC009
                       FM041200 23003KT 2SM BR OVC003 FM041900
                       34004KT 6SM BR OVC015=
202310032327 TAF KPAE 032327Z 0400/0424 VRB02KT P6SM BKN025 BKN050 FM040400
                       VRB04KT P6SM OVC020 FM040900 VRB03KT 5SM
                       BR OVC009 FM041200 23003KT 2SM BR OVC003
                       FM041900 34004KT 6SM BR OVC015=
202310031921 KPAE 031921Z 0319/0418 VRB03KT P6SM SCT009 OVC025 FM032200 29004KT
                       P6SM OVC035 FM040400 VRB04KT P6SM OVC020
                       FM040800 VRB03KT 5SM BR OVC006 FM041200
                       23003KT 2SM BR OVC003=
202310031724 TAF KPAE 031724Z 0318/0418 VRB04KT P6SM OVC004 FM032200 29004KT
                       P6SM OVC025 FM040400 VRB04KT P6SM OVC020
                       FM040800 VRB03KT 5SM BR OVC006 FM041200
                       23003KT 2SM BR OVC003=
202310031125 TAF KPAE 031125Z 0312/0412 34007KT 6SM BR OVC004
                      TEMPO 0312/0316 3SM BR OVC002 FM031700 VRB04KT
                       6SM BR OVC009 FM032000 28004KT P6SM OVC012
                       FM032300 VRB04KT P6SM OVC022 FM040600 VRB03KT
                       5SM BR OVC006=
202310030524 TAF KPAE 030524Z 0306/0406 19006KT 2SM BR OVC004 FM030800 31003KT
                       4SM BR OVC005 FM031100 33004KT 1/2SM FG
                       OVC004 FM031700 VRB04KT 5SM BR OVC009 FM032000
                       28004KT P6SM OVC015 FM032300 23004KT P6SM
                       OVC035=
202310030140 KPAE 030140Z 0302/0324 16008G18KT 2SM -SHRA BR OVC009 FM030300
                       19006KT 5SM BR OVC009 FM030800 31003KT 4SM
                       BR OVC008 FM031100 33004KT 1/2SM BCFG OVC004
                       FM031700 VRB04KT 5SM BR OVC009 FM032000
                       28004KT P6SM OVC015=
202310022328 TAF KPAE 022328Z 0300/0324 19008KT 4SM -SHRA BR OVC006 FM030300
                       15004KT 5SM BR OVC009 FM030800 31003KT 4SM
                       BR OVC009 FM031100 27003KT 1/2SM BCFG OVC004
                       FM031700 VRB04KT 5SM BR OVC010 FM032000
                       27004KT P6SM OVC015=
202310022004 KPAE 022004Z 0220/0318 19008KT 6SM -SHRA BKN011 OVC020
                      TEMPO 0220/0221 OVC009 FM030100 15006KT P6SM
                       SCT012 BKN022 OVC035 FM030600 VRB03KT 4SM
                       BR OVC009 FM031100 27003KT 4SM BR OVC007
                       FM031700 VRB04KT 5SM BR OVC010=
202310021721 TAF KPAE 021721Z 0218/0318 16006KT P6SM -SHRA BKN020 OVC030 FM022000
                       19008KT 4SM -SHRA BKN011 OVC020 FM030100
                       15006KT P6SM SCT012 BKN022 OVC035 FM030600
                       VRB03KT 4SM BR OVC009 FM031100 27003KT 4SM
                       BR OVC007 FM031700 VRB04KT 5SM BR OVC010=
202310021131 TAF KPAE 021131Z 0212/0312 16006KT P6SM OVC040 FM021500 16006KT
                       P6SM -RA BKN020 OVC030 FM022000 19008KT
                       4SM -SHRA BKN011 OVC020 FM030100 34006KT
                       P6SM SCT012 BKN022 OVC035 FM030800 VRB03KT
                       4SM BR OVC006=
202310020520 TAF KPAE 020520Z 0206/0306 16005KT P6SM SCT020 BKN200 FM021300
                       14006KT P6SM BKN015 OVC025 FM021500 14007KT
                       4SM RA BR OVC015 FM022300 15005KT P6SM -SHRA
                       OVC020 FM030200 06003KT 6SM BR VCSH OVC015=
202310012340 TAF KPAE 012340Z 0200/0224 36008KT P6SM SCT010 FM020300 17006KT
                       P6SM SKC FM021300 14006KT P6SM OVC010 FM021500
                       14007KT P6SM -RA OVC015=
202310011739 TAF KPAE 011739Z 0118/0218 36008KT P6SM BKN006 FM011900 36008KT
                       P6SM SCT010 FM020300 17006KT P6SM SKC FM021300
                       14006KT P6SM OVC010 FM021500 14007KT P6SM
                       -RA OVC015=
202310011302 KPAE 011302Z 0113/0212 36004KT 5SM BR OVC003 FM011700 36004KT P6SM
                       BKN006 FM011800 36008KT P6SM SKC FM020300
                       17006KT P6SM SKC=
202310011134 TAF KPAE 011134Z 0112/0212 00000KT 3SM BR SCT004 FM011400 00000KT
                       1/2SM FG VV001 FM011600 36004KT 3SM BR BKN002
                       FM011700 36008KT P6SM SKC FM020300 17006KT
                       P6SM SKC=
202310010524 TAF KPAE 010524Z 0106/0206 36004KT P6SM SKC FM011700 36004KT P6SM
                       BKN007 FM012100 35005KT P6SM SCT010=