##########################################################
# Query made at 02/15/2025 22:56:44 UTC
# Time interval: from 05/01/2023 00:00  to 05/31/2023 23:59  UTC
##########################################################

##########################################################
# KPAE, Everett, Snohomish County Airport (United States)
# WMO index: -----. WIGOS ID: Unknown
# Latitude 47-55-23N. Longitude 122-16-57W. Altitude 184 m.
##########################################################

###################################
#  METAR/SPECI from KPAE
###################################
202305312353 METAR KPAE 312353Z 35009G15KT 10SM CLR 15/05 A3008 RMK AO2 SLP187 T01500050 10161 20122 56004=
202305312253 METAR KPAE 312253Z 02007KT 10SM CLR 15/06 A3008 RMK AO2 SLP188 T01500056=
202305312153 METAR KPAE 312153Z 29004KT 10SM SCT033 16/07 A3009 RMK AO2 SLP188 T01560067=
202305312053 METAR KPAE 312053Z VRB05KT 10SM FEW034 15/06 A3009 RMK AO2 SLP190 T01500061 58003=
202305311953 METAR KPAE 311953Z 31005KT 10SM BKN033 13/05 A3010 RMK AO2 SLP194 T01330050=
202305311853 METAR KPAE 311853Z 00000KT 10SM OVC033 13/05 A3010 RMK AO2 SLP194 T01330050=
202305311841 SPECI KPAE 311841Z 26005KT 10SM OVC031 13/06 A3010 RMK AO2 T01330056=
202305311753 METAR KPAE 311753Z 25004KT 10SM BKN028 OVC033 12/05 A3010 RMK AO2 SLP193 T01220050 10128 20094 51002=
202305311713 SPECI KPAE 311713Z 29003KT 10SM OVC031 12/06 A3010 RMK AO2 T01220056=
202305311701 SPECI KPAE 311701Z VRB03KT 10SM BKN029 12/06 A3010 RMK AO2 T01220056=
202305311653 METAR KPAE 311653Z 32003KT 10SM FEW023 BKN030 12/06 A3010 RMK AO2 SLP193 T01220056=
202305311651 SPECI KPAE 311651Z 30004KT 10SM FEW023 BKN030 12/06 A3010 RMK AO2=
202305311640 SPECI KPAE 311640Z 31004KT 10SM BKN028 11/05 A3010 RMK AO2 T01110050=
202305311618 SPECI KPAE 311618Z 28004KT 10SM SCT023 11/05 A3010 RMK AO2 T01060050=
202305311553 METAR KPAE 311553Z 29005KT 10SM OVC023 11/06 A3009 RMK AO2 SLP191 T01060056=
202305311453 METAR KPAE 311453Z 34004KT 10SM BKN017 OVC025 10/04 A3009 RMK AO2 SLP190 T01000044 53010=
202305311353 METAR KPAE 311353Z AUTO 36005KT 10SM OVC024 10/04 A3008 RMK AO2 SLP185 T01000039=
202305311253 METAR KPAE 311253Z AUTO 01007KT 10SM OVC025 09/04 A3006 RMK AO2 SLP181 T00940039=
202305311231 SPECI KPAE 311231Z AUTO 36006KT 10SM BKN027 OVC042 09/04 A3006 RMK AO2 T00940039=
202305311219 SPECI KPAE 311219Z AUTO 01006KT 10SM SCT027 OVC042 09/04 A3006 RMK AO2 T00940039=
202305311211 SPECI KPAE 311211Z AUTO 36006KT 10SM BKN026 OVC042 09/04 A3006 RMK AO2 T00940039=
202305311153 METAR KPAE 311153Z AUTO 36006KT 10SM SCT023 OVC042 09/04 A3006 RMK AO2 SLP179 70009 T00940039 10100 20094 51006=
202305311131 SPECI KPAE 311131Z AUTO 36006KT 10SM BKN024 OVC050 09/04 A3006 RMK AO2 T00940039=
202305311053 METAR KPAE 311053Z AUTO 36006KT 10SM OVC050 09/04 A3006 RMK AO2 SLP178 T00940044=
202305310953 METAR KPAE 310953Z AUTO 35006KT 10SM OVC050 09/04 A3005 RMK AO2 SLP176 T00940039=
202305310853 METAR KPAE 310853Z AUTO 01009G15KT 10SM SCT048 OVC060 10/04 A3004 RMK AO2 SLP173 T01000039 55000=
202305310753 METAR KPAE 310753Z AUTO 36007KT 10SM SCT050 OVC060 10/05 A3004 RMK AO2 SLP174 T01000050 401500089=
202305310653 METAR KPAE 310653Z AUTO 36007KT 10SM CLR 10/05 A3004 RMK AO2 SLP174 T01000050=
202305310553 METAR KPAE 310553Z AUTO 36007KT 10SM CLR 10/05 A3004 RMK AO2 SLP174 T01000050 10150 20094 53007=
202305310453 METAR KPAE 310453Z AUTO 35008G14KT 10SM FEW070 10/05 A3004 RMK AO2 SLP173 T01000050=
202305310353 METAR KPAE 310353Z 35006KT 10SM CLR 10/06 A3002 RMK AO2 SLP168 T01000061=
202305310253 METAR KPAE 310253Z 35008KT 10SM CLR 12/06 A3002 RMK AO2 SLP166 T01220056 55004=
202305310153 METAR KPAE 310153Z VRB06KT 10SM CLR 14/07 A3002 RMK AO2 SLP166 T01390067=
202305310053 METAR KPAE 310053Z 36006KT 10SM CLR 15/06 A3003 RMK AO2 SLP168 T01500061=
202305302353 METAR KPAE 302353Z VRB04KT 10SM CLR 14/07 A3003 RMK AO2 SLP170 60001 T01440067 10150 20094 58009=
202305302255 SPECI KPAE 302255Z 34005KT 10SM OVC043 13/07 A3004 RMK AO2 T01330072=
202305302253 METAR KPAE 302253Z VRB04KT 10SM BKN029 OVC041 13/08 A3004 RMK AO2 SLP174 T01330078=
202305302153 METAR KPAE 302153Z 34006KT 10SM SCT008 OVC017 12/08 A3005 RMK AO2 SLP177 T01220078=
202305302100 SPECI KPAE 302100Z 33005KT 10SM SCT008 OVC017 11/07 A3006 RMK AO2 T01110072=
202305302053 METAR KPAE 302053Z VRB04KT 10SM BKN008 OVC014 11/07 A3006 RMK AO2 SLP179 60001 T01110072 58001=
202305301953 METAR KPAE 301953Z 01005KT 10SM BKN008 OVC014 10/08 A3007 RMK AO2 SLP183 T01000078=
202305301859 SPECI KPAE 301859Z 02004KT 3SM BR BKN005 OVC016 10/08 A3007 RMK AO2 T01000078=
202305301853 METAR KPAE 301853Z 01004KT 2SM BR BKN006 OVC016 10/08 A3007 RMK AO2 RAE33 CIG 003V010 SLP184 P0001 T01000078=
202305301807 SPECI KPAE 301807Z 05003KT 1 1/2SM -RA OVC006 10/07 A3007 RMK AO2 P0000 T01000072=
202305301800 SPECI KPAE 301800Z 04003KT 2 1/2SM -RA BR BKN006 OVC011 09/07 A3007 RMK AO2 CIG 004V008 P0000 T00940072=
202305301753 METAR KPAE 301753Z 00000KT 1 1/2SM -RA BR OVC003 09/07 A3006 RMK AO2 SLP181 P0002 60008 T00940072 10106 20089 53012=
202305301653 METAR KPAE 301653Z 00000KT 1 1/2SM R16R/4000VP6000FT -RA BR OVC003 09/07 A3005 RMK AO2 CIG 002V008 SLP176 P0005 T00890072=
202305301609 SPECI KPAE 301609Z 00000KT 1 3/4SM -RA BR OVC004 09/08 A3004 RMK AO2 P0000 T00940078=
202305301553 METAR KPAE 301553Z 00000KT 2SM R16R/2000VP6000FT -RA BR OVC005 09/08 A3004 RMK AO2 RAB43 CIG 003V009 SLP173 P0001 T00940078=
202305301512 SPECI KPAE 301512Z 00000KT 2SM BR OVC008 09/07 A3003 RMK AO2 CIG 006V011 T00940072=
202305301453 METAR KPAE 301453Z VRB03KT 3SM HZ BKN008 OVC011 10/07 A3003 RMK AO2 CIG 007V010 SLP169 T01000072 53010=
202305301353 METAR KPAE 301353Z 33004KT 10SM OVC014 10/06 A3002 RMK AO2 SLP165 T01000061=
202305301344 SPECI KPAE 301344Z 00000KT 10SM OVC014 10/06 A3002 RMK AO2 T01000061=
202305301253 METAR KPAE 301253Z AUTO VRB04KT 10SM OVC015 10/06 A3000 RMK AO2 SLP160 T01000061=
202305301153 METAR KPAE 301153Z AUTO 03006KT 10SM OVC017 10/06 A3000 RMK AO2 SLP157 T01000061 10111 20100 51009=
202305301053 METAR KPAE 301053Z AUTO 02005KT 10SM OVC020 10/06 A2999 RMK AO2 SLP154 T01000061=
202305300953 METAR KPAE 300953Z AUTO VRB05KT 10SM OVC021 11/07 A2998 RMK AO2 SLP151 T01060067=
202305300853 METAR KPAE 300853Z AUTO 36005KT 10SM BKN027 OVC060 11/07 A2997 RMK AO2 SLP148 T01060067 51005=
202305300850 SPECI KPAE 300850Z AUTO 35005KT 10SM BKN027 OVC060 10/07 A2997 RMK AO2=
202305300753 METAR KPAE 300753Z AUTO 34005KT 10SM BKN049 BKN055 11/07 A2996 RMK AO2 SLP146 T01060072 401830094=
202305300653 METAR KPAE 300653Z AUTO 35010G18KT 310V010 10SM FEW035 OVC046 11/08 A2995 RMK AO2 SLP143 T01110078=
202305300553 METAR KPAE 300553Z AUTO 01011G18KT 10SM SCT035 OVC048 11/08 A2994 RMK AO2 SLP139 T01110083 10183 20111 50004=
202305300453 METAR KPAE 300453Z AUTO 36010G16KT 10SM BKN042 12/09 A2994 RMK AO2 SLP139 T01170089=
202305300353 METAR KPAE 300353Z 36007G16KT 10SM BKN038 12/09 A2993 RMK AO2 SLP135 T01220089=
202305300253 METAR KPAE 300253Z 35006KT 10SM CLR 14/09 A2993 RMK AO2 SLP135 T01440089 56006=
202305300153 METAR KPAE 300153Z 35006KT 10SM CLR 16/10 A2993 RMK AO2 SLP135 T01610100=
202305300053 METAR KPAE 300053Z 35007KT 10SM CLR 16/09 A2993 RMK AO2 SLP136 T01610089=
202305292353 METAR KPAE 292353Z 28005KT 10SM CLR 18/11 A2995 RMK AO2 SLP140 T01830106 10183 20117 56010=
202305292253 METAR KPAE 292253Z 26005KT 10SM CLR 17/11 A2995 RMK AO2 SLP141 T01720106=
202305292153 METAR KPAE 292153Z VRB05KT 10SM CLR 17/11 A2996 RMK AO2 SLP146 T01720106=
202305292053 METAR KPAE 292053Z 28005KT 10SM CLR 17/10 A2998 RMK AO2 SLP150 T01670100 56005=
202305292002 SPECI KPAE 292002Z 00000KT 10SM FEW012 15/09 A2998 RMK AO2 T01500094=
202305291953 METAR KPAE 291953Z 22005KT 10SM FEW008 BKN013 14/09 A2998 RMK AO2 SLP152 T01390094=
202305291948 SPECI KPAE 291948Z 00000KT 10SM SCT008 BKN013 14/10 A2998 RMK AO2=
202305291853 METAR KPAE 291853Z 27005KT 6SM HZ OVC007 12/09 A2999 RMK AO2 SLP157 T01220094=
202305291753 METAR KPAE 291753Z 00000KT 6SM BR OVC004 12/09 A3000 RMK AO2 SLP159 T01170094 10117 20094 58000=
202305291653 METAR KPAE 291653Z 00000KT 2 1/2SM BR OVC004 11/09 A3000 RMK AO2 SLP161 T01110094=
202305291553 METAR KPAE 291553Z 00000KT 1SM R16R/P6000FT BR OVC003 11/09 A3000 RMK AO2 SLP161 T01060089=
202305291516 SPECI KPAE 291516Z VRB03KT 1SM R16R/P6000FT BR OVC002 11/09 A3000 RMK AO2 T01060089=
202305291453 METAR KPAE 291453Z 33003KT 1SM R16R/5500VP6000FT BR OVC001 10/09 A3000 RMK AO2 SLP159 T01000089 53003=
202305291353 METAR KPAE 291353Z 00000KT 1SM R16R/1800VP6000FT BR OVC001 10/09 A2999 RMK AO2 SLP157 T01000089=
202305291346 SPECI KPAE 291346Z AUTO 33003KT 3/4SM R16R/1800V2000FT BR VV001 09/08 A3000 RMK AO2 T00940083=
202305291338 SPECI KPAE 291338Z AUTO 33003KT 1SM R16R/1800VP6000FT BR OVC001 09/09 A2999 RMK AO2 T00940089=
202305291328 SPECI KPAE 291328Z AUTO 33004KT 3/4SM R16R/1800VP6000FT BR OVC001 09/08 A2999 RMK AO2 T00940083=
202305291312 SPECI KPAE 291312Z AUTO 04003KT 1 1/4SM R16R/2200V5500FT BR OVC001 10/08 A2999 RMK AO2 VIS 3/4V2 1/2 T01000083=
202305291302 SPECI KPAE 291302Z AUTO 00000KT 1/2SM R16R/1400V3000FT FG VV001 09/08 A2999 RMK AO2 T00940083=
202305291253 METAR KPAE 291253Z AUTO VRB04KT 1/4SM R16R/1000V1800FT FG VV001 09/08 A2999 RMK AO2 SLP155 T00940083=
202305291251 SPECI KPAE 291251Z AUTO 35004KT 1/4SM R16R/1000V2000FT FG VV001 09/08 A2999 RMK AO2=
202305291231 SPECI KPAE 291231Z AUTO 02004KT 1/4SM R16R/1200V2800FT FG VV001 09/08 A2999 RMK AO2 T00940083=
202305291209 SPECI KPAE 291209Z AUTO 05005KT 1 3/4SM R16R/2800VP6000FT BR OVC001 10/09 A2998 RMK AO2 T01000089=
202305291153 METAR KPAE 291153Z AUTO 02004KT 3SM R16R/3000VP6000FT BR OVC001 10/09 A2998 RMK AO2 SLP153 T01000089 10111 20100 55000=
202305291147 SPECI KPAE 291147Z AUTO 02004KT 3SM R16R/2600VP6000FT BR OVC001 10/09 A2999 RMK AO2=
202305291140 SPECI KPAE 291140Z AUTO 02004KT 1 1/2SM R16R/2600VP6000FT BR OVC001 10/09 A2999 RMK AO2 VIS 1V3 T01000089=
202305291130 SPECI KPAE 291130Z AUTO 36006KT 2SM R16R/2800VP6000FT BR OVC002 10/09 A2999 RMK AO2 VIS 1V4 T01000089=
202305291053 METAR KPAE 291053Z AUTO 02006KT 9SM OVC002 11/09 A2998 RMK AO2 SLP153 T01060089=
202305290953 METAR KPAE 290953Z AUTO 01006KT 10SM OVC003 11/09 A2998 RMK AO2 SLP153 T01060094=
202305290906 SPECI KPAE 290906Z AUTO 02004KT 10SM BKN004 11/09 A2999 RMK AO2 T01060089=
202305290853 METAR KPAE 290853Z AUTO 36003KT 10SM FEW004 11/09 A2999 RMK AO2 SLP154 T01060089 56006=
202305290753 METAR KPAE 290753Z AUTO 01006KT 10SM CLR 11/09 A2999 RMK AO2 SLP154 T01110089 401830094=
202305290653 METAR KPAE 290653Z AUTO 02008KT 10SM CLR 11/09 A3000 RMK AO2 SLP158 T01110089=
202305290553 METAR KPAE 290553Z AUTO 36007KT 10SM CLR 11/09 A3000 RMK AO2 SLP161 T01110094 10183 20111 50003=
202305290453 METAR KPAE 290453Z AUTO 36007KT 10SM CLR 12/09 A3001 RMK AO2 SLP163 T01170089=
202305290353 METAR KPAE 290353Z 10SM CLR 14/10 A3000 RMK AO2 SLP158 T01390100=
202305290253 METAR KPAE 290253Z 26005KT 10SM CLR 17/10 A2999 RMK AO2 SLP157 T01670100 56009=
202305290153 METAR KPAE 290153Z 24004KT 10SM CLR 18/10 A3000 RMK AO2 SLP157 T01780100=
202305290053 METAR KPAE 290053Z 26006KT 10SM CLR 18/10 A3000 RMK AO2 SLP160 T01830100=
202305282353 METAR KPAE 282353Z VRB04KT 10SM CLR 18/09 A3002 RMK AO2 SLP166 T01780089 10178 20128 56016=
202305282253 METAR KPAE 282253Z 27008G15KT 10SM CLR 17/09 A3004 RMK AO2 SLP172 T01670094=
202305282153 METAR KPAE 282153Z 26011G15KT 10SM CLR 16/09 A3005 RMK AO2 SLP175 T01610094=
202305282053 METAR KPAE 282053Z 23006KT 10SM SCT019 16/09 A3007 RMK AO2 SLP182 T01560089 58006=
202305282000 SPECI KPAE 282000Z 25007KT 10SM FEW019 15/09 A3008 RMK AO2 T01500089=
202305281953 METAR KPAE 281953Z 23006KT 10SM BKN017 15/09 A3008 RMK AO2 SLP187 T01500089=
202305281853 METAR KPAE 281853Z VRB06KT 10SM BKN017 14/09 A3009 RMK AO2 SLP189 T01440089=
202305281753 METAR KPAE 281753Z 27009KT 10SM OVC015 12/08 A3009 RMK AO2 SLP190 T01220083 10133 20094 53001=
202305281714 SPECI KPAE 281714Z 24008G17KT 10SM OVC013 12/08 A3008 RMK AO2 T01170078=
202305281700 SPECI KPAE 281700Z 24009KT 10SM OVC018 12/08 A3008 RMK AO2 T01220078=
202305281653 METAR KPAE 281653Z 27009KT 10SM OVC009 12/08 A3008 RMK AO2 SLP188 T01220078=
202305281553 METAR KPAE 281553Z 10SM OVC009 12/08 A3008 RMK AO2 SLP187 T01170078=
202305281508 SPECI KPAE 281508Z 24004KT 10SM OVC010 11/08 A3008 RMK AO2 T01060078=
202305281453 METAR KPAE 281453Z 26006KT 10SM OVC009 11/07 A3008 RMK AO2 SLP187 T01060072 53008=
202305281353 METAR KPAE 281353Z 18004KT 10SM OVC009 10/07 A3008 RMK AO2 SLP184 T01000072=
202305281331 SPECI KPAE 281331Z AUTO 18007KT 10SM BKN010 10/07 A3007 RMK AO2 T01000072=
202305281313 SPECI KPAE 281313Z AUTO 16009KT 10SM FEW011 10/07 A3007 RMK AO2 T01000067=
202305281253 METAR KPAE 281253Z AUTO 16007KT 10SM BKN011 10/07 A3006 RMK AO2 SLP179 T01000072=
202305281242 SPECI KPAE 281242Z AUTO 16006KT 10SM BKN011 10/07 A3006 RMK AO2 T01000072=
202305281153 METAR KPAE 281153Z AUTO 20004KT 10SM BKN007 OVC013 11/08 A3006 RMK AO2 CIG 006V011 SLP178 T01060078 10117 20106 53003=
202305281053 METAR KPAE 281053Z AUTO 28003KT 10SM BKN007 OVC013 11/09 A3006 RMK AO2 SLP177 T01110089=
202305281024 SPECI KPAE 281024Z AUTO 35003KT 10SM OVC008 11/09 A3005 RMK AO2 CIG 007V010 T01110089=
202305280953 METAR KPAE 280953Z AUTO 05003KT 10SM OVC013 11/09 A3005 RMK AO2 SLP174 T01110089=
202305280853 METAR KPAE 280853Z AUTO 01004KT 10SM OVC019 11/09 A3005 RMK AO2 SLP176 T01110089 51006=
202305280836 SPECI KPAE 280836Z AUTO 36006KT 10SM BKN020 11/09 A3005 RMK AO2 T01060089=
202305280753 METAR KPAE 280753Z AUTO 01007KT 10SM FEW003 11/09 A3005 RMK AO2 SLP175 T01060089 402000106=
202305280750 SPECI KPAE 280750Z AUTO 01004KT 10SM FEW003 11/09 A3005 RMK AO2=
202305280653 METAR KPAE 280653Z AUTO 35006KT 10SM CLR 11/09 A3003 RMK AO2 SLP170 T01110089=
202305280553 METAR KPAE 280553Z AUTO 01009KT 10SM CLR 12/09 A3003 RMK AO2 SLP168 T01170094 10200 20117 53014=
202305280453 METAR KPAE 280453Z AUTO 02009KT 10SM CLR 12/09 A3001 RMK AO2 SLP162 T01220089=
202305280353 METAR KPAE 280353Z 36006KT 10SM CLR 15/09 A2999 RMK AO2 SLP157 T01500094=
202305280253 METAR KPAE 280253Z 35004KT 10SM CLR 17/11 A2999 RMK AO2 SLP154 T01720106 53001=
202305280153 METAR KPAE 280153Z 28005KT 10SM CLR 19/11 A2998 RMK AO2 SLP150 T01940106=
202305280053 METAR KPAE 280053Z 27006KT 10SM CLR 20/11 A2998 RMK AO2 SLP151 T02000106=
202305272353 METAR KPAE 272353Z 10SM CLR 20/11 A2998 RMK AO2 SLP152 T02000111 10200 20139 58005=
202305272253 METAR KPAE 272253Z 28007KT 10SM CLR 18/11 A2999 RMK AO2 SLP155 T01830111=
202305272153 METAR KPAE 272153Z 24009KT 10SM CLR 18/11 A3000 RMK AO2 SLP157 T01830111=
202305272053 METAR KPAE 272053Z 26010KT 10SM CLR 17/11 A3000 RMK AO2 SLP157 T01670111 56005=
202305272028 SPECI KPAE 272028Z 23011KT 10SM FEW018 17/11 A3000 RMK AO2 T01720111=
202305271959 SPECI KPAE 271959Z 22009G16KT 10SM OVC018 17/11 A3000 RMK AO2 T01670111=
202305271953 METAR KPAE 271953Z 19008KT 10SM OVC014 17/11 A3000 RMK AO2 SLP158 T01670106=
202305271853 METAR KPAE 271853Z 24009KT 10SM OVC014 16/11 A3001 RMK AO2 SLP161 T01560111=
202305271753 METAR KPAE 271753Z 24007KT 10SM OVC011 14/10 A3001 RMK AO2 SLP163 T01390100 10139 20111 51009=
202305271706 SPECI KPAE 271706Z 23006KT 10SM OVC010 13/10 A3001 RMK AO2 T01330100=
202305271653 METAR KPAE 271653Z 22007KT 10SM OVC009 13/10 A3001 RMK AO2 SLP162 T01330100=
202305271553 METAR KPAE 271553Z 22005KT 10SM OVC007 13/10 A3000 RMK AO2 SLP158 T01280100=
202305271453 METAR KPAE 271453Z 20007KT 10SM OVC008 13/10 A2999 RMK AO2 SLP153 T01280100 53010=
202305271353 METAR KPAE 271353Z 20006KT 10SM BKN009 13/10 A2997 RMK AO2 SLP148 T01280100=
202305271333 SPECI KPAE 271333Z AUTO 21004KT 10SM FEW009 12/10 A2997 RMK AO2 T01220100=
202305271253 METAR KPAE 271253Z AUTO 19003KT 10SM CLR 12/10 A2996 RMK AO2 SLP143 T01170100=
202305271153 METAR KPAE 271153Z AUTO 17003KT 10SM FEW075 13/09 A2996 RMK AO2 SLP141 T01280094 10150 20117 51010=
202305271053 METAR KPAE 271053Z AUTO 00000KT 10SM CLR 12/09 A2995 RMK AO2 SLP139 T01220094=
202305270953 METAR KPAE 270953Z AUTO 00000KT 10SM CLR 12/09 A2994 RMK AO2 SLP137 T01170094=
202305270853 METAR KPAE 270853Z AUTO 36003KT 10SM CLR 13/09 A2993 RMK AO2 SLP131 T01280094 51005=
202305270753 METAR KPAE 270753Z AUTO 02007KT 10SM CLR 13/09 A2992 RMK AO2 SLP130 T01330094 402500133=
202305270653 METAR KPAE 270653Z AUTO 01005KT 10SM CLR 14/09 A2992 RMK AO2 SLP129 T01390094=
202305270553 METAR KPAE 270553Z AUTO 01009G16KT 10SM CLR 15/09 A2991 RMK AO2 SLP127 T01500094 10244 20139 53013=
202305270453 METAR KPAE 270453Z AUTO 35009G18KT 10SM CLR 14/09 A2990 RMK AO2 SLP123 T01440094=
202305270353 METAR KPAE 270353Z 02007KT 10SM CLR 16/10 A2988 RMK AO2 SLP118 T01610100=
202305270253 METAR KPAE 270253Z 02005KT 10SM CLR 18/11 A2987 RMK AO2 SLP114 T01830106 55001=
202305270153 METAR KPAE 270153Z 35007KT 10SM CLR 22/11 A2986 RMK AO2 SLP110 T02170111=
202305270053 METAR KPAE 270053Z 34006KT 10SM CLR 24/11 A2987 RMK AO2 SLP111 T02390111=
202305262353 METAR KPAE 262353Z 34008KT 10SM CLR 24/12 A2988 RMK AO2 SLP115 T02440122 10250 20206 56012=
202305262253 METAR KPAE 262253Z 35007KT 10SM CLR 24/12 A2989 RMK AO2 SLP116 T02440117=
202305262153 METAR KPAE 262153Z 35004KT 10SM CLR 24/11 A2990 RMK AO2 SLP122 T02390111=
202305262053 METAR KPAE 262053Z VRB05KT 10SM CLR 23/12 A2991 RMK AO2 SLP127 T02330122 58008=
202305261953 METAR KPAE 261953Z 26006KT 10SM CLR 23/13 A2992 RMK AO2 SLP131 T02330128=
202305261853 METAR KPAE 261853Z 28005KT 10SM CLR 22/12 A2993 RMK AO2 SLP134 T02170122=
202305261753 METAR KPAE 261753Z VRB03KT 10SM CLR 21/12 A2994 RMK AO2 SLP136 T02060117 10206 20139 58001=
202305261653 METAR KPAE 261653Z 35004KT 10SM CLR 20/11 A2994 RMK AO2 SLP136 T02000111=
202305261553 METAR KPAE 261553Z 00000KT 10SM CLR 18/11 A2994 RMK AO2 SLP137 T01780111=
202305261453 METAR KPAE 261453Z 00000KT 10SM CLR 17/11 A2994 RMK AO2 SLP136 T01720106 51005=
202305261353 METAR KPAE 261353Z 00000KT 10SM CLR 17/10 A2993 RMK AO2 SLP134 T01670100=
202305261253 METAR KPAE 261253Z AUTO 00000KT 10SM CLR 14/09 A2993 RMK AO2 SLP133 T01440094=
202305261153 METAR KPAE 261153Z AUTO 00000KT 10SM CLR 14/10 A2992 RMK AO2 SLP131 T01440100 10167 20139 53001=
202305261053 METAR KPAE 261053Z AUTO 05003KT 10SM CLR 15/10 A2992 RMK AO2 SLP130 T01500100=
202305260953 METAR KPAE 260953Z AUTO 00000KT 10SM CLR 16/08 A2992 RMK AO2 SLP129 T01560083=
202305260853 METAR KPAE 260853Z AUTO 02003KT 10SM CLR 15/09 A2992 RMK AO2 SLP130 T01500089 53005=
202305260753 METAR KPAE 260753Z AUTO 35006KT 10SM CLR 14/08 A2992 RMK AO2 SLP129 T01440083 402280106=
202305260653 METAR KPAE 260653Z AUTO 35003KT 10SM CLR 16/09 A2990 RMK AO2 SLP125 T01560089=
202305260553 METAR KPAE 260553Z AUTO 35005KT 10SM CLR 17/09 A2991 RMK AO2 SLP126 T01670094 10228 20167 50008=
202305260453 METAR KPAE 260453Z AUTO 35004KT 10SM CLR 19/10 A2991 RMK AO2 LTG DSNT NE SLP125 T01890100=
202305260353 METAR KPAE 260353Z 33004KT 10SM CLR 19/11 A2989 RMK AO2 SLP118 T01940106=
202305260253 METAR KPAE 260253Z 34005KT 10SM CLR 21/11 A2988 RMK AO2 SLP118 T02060111 56004=
202305260153 METAR KPAE 260153Z 35005KT 10SM CLR 22/11 A2988 RMK AO2 SLP118 T02170106=
202305260053 METAR KPAE 260053Z 35009KT 10SM CLR 22/11 A2988 RMK AO2 SLP118 T02170111=
202305252353 METAR KPAE 252353Z AUTO 34007KT 10SM CLR 22/11 A2989 RMK AO2 SLP122 T02170111 10222 20172 58015=
202305252253 METAR KPAE 252253Z 35008KT 10SM CLR 22/11 A2991 RMK AO2 SLP128 T02170111=
202305252153 METAR KPAE 252153Z 36009KT 10SM CLR 21/11 A2993 RMK AO2 SLP134 T02060106=
202305252053 METAR KPAE 252053Z 35009KT 10SM CLR 20/11 A2994 RMK AO2 SLP137 T02000106 58013=
202305251953 METAR KPAE 251953Z 36008KT 10SM CLR 19/11 A2995 RMK AO2 SLP142 T01940106=
202305251853 METAR KPAE 251853Z 34005KT 10SM CLR 19/11 A2997 RMK AO2 SLP146 T01890106=
202305251753 METAR KPAE 251753Z 01005KT 10SM CLR 18/11 A2998 RMK AO2 SLP150 T01780106 10178 20106 56003=
202305251653 METAR KPAE 251653Z VRB05KT 10SM CLR 16/09 A2998 RMK AO2 SLP151 T01610094=
202305251553 METAR KPAE 251553Z VRB03KT 10SM CLR 14/09 A2999 RMK AO2 SLP153 T01440089=
202305251453 METAR KPAE 251453Z 35003KT 10SM CLR 13/09 A2999 RMK AO2 SLP153 T01280089 56001=
202305251353 METAR KPAE 251353Z AUTO 00000KT 10SM CLR 12/08 A2999 RMK AO2 SLP154 T01170083=
202305251253 METAR KPAE 251253Z AUTO 34003KT 10SM CLR 11/07 A2999 RMK AO2 SLP155 T01110072=
202305251153 METAR KPAE 251153Z AUTO 35003KT 10SM FEW095 11/07 A2999 RMK AO2 SLP155 T01060072 10133 20106 58005=
202305251053 METAR KPAE 251053Z AUTO 00000KT 10SM CLR 12/07 A3000 RMK AO2 SLP156 T01170072=
202305250953 METAR KPAE 250953Z AUTO 01003KT 10SM CLR 12/07 A3000 RMK AO2 SLP158 T01170072=
202305250853 METAR KPAE 250853Z AUTO 01003KT 10SM CLR 12/07 A3001 RMK AO2 SLP160 T01220072 58003=
202305250753 METAR KPAE 250753Z AUTO 36004KT 10SM CLR 12/07 A3001 RMK AO2 SLP161 T01220072 401890100=
202305250653 METAR KPAE 250653Z AUTO 36008KT 10SM SCT080 13/07 A3001 RMK AO2 SLP163 T01280067=
202305250553 METAR KPAE 250553Z AUTO 01005KT 10SM CLR 13/08 A3001 RMK AO2 SLP163 T01330083 10189 20133 55001=
202305250453 METAR KPAE 250453Z AUTO 00000KT 10SM CLR 15/09 A3001 RMK AO2 SLP162 T01500089=
202305250353 METAR KPAE 250353Z 34004KT 10SM CLR 16/09 A3001 RMK AO2 SLP163 T01560089=
202305250253 METAR KPAE 250253Z VRB04KT 10SM CLR 17/09 A3002 RMK AO2 SLP163 T01720089 56008=
202305250153 METAR KPAE 250153Z 34006KT 10SM CLR 17/09 A3002 RMK AO2 SLP165 T01720089=
202305250053 METAR KPAE 250053Z 35008KT 10SM CLR 18/09 A3003 RMK AO2 SLP168 T01780094=
202305242353 METAR KPAE 242353Z 36008KT 10SM CLR 18/09 A3004 RMK AO2 SLP173 T01830089 10189 20150 58013=
202305242253 METAR KPAE 242253Z AUTO VRB06KT 10SM CLR 18/09 A3006 RMK AO2 SLP178 T01830089=
202305242153 METAR KPAE 242153Z 36005KT 10SM CLR 18/09 A3007 RMK AO2 SLP182 T01780089=
202305242053 METAR KPAE 242053Z 02006KT 10SM CLR 18/08 A3008 RMK AO2 SLP186 T01780078 58006=
202305241953 METAR KPAE 241953Z 02006KT 10SM CLR 17/08 A3009 RMK AO2 SLP189 T01670078=
202305241853 METAR KPAE 241853Z 01007KT 10SM CLR 16/08 A3010 RMK AO2 SLP191 T01610078=
202305241753 METAR KPAE 241753Z 34008KT 10SM CLR 15/07 A3010 RMK AO2 SLP193 T01500072 10156 20100 58004=
202305241653 METAR KPAE 241653Z 34007KT 10SM CLR 14/08 A3010 RMK AO2 SLP193 T01440083=
202305241553 METAR KPAE 241553Z 02004KT 10SM OVC095 12/08 A3011 RMK AO2 SLP197 T01220078=
202305241453 METAR KPAE 241453Z 36005KT 10SM BKN045 12/08 A3011 RMK AO2 SLP196 T01220078 53007=
202305241353 METAR KPAE 241353Z 35003KT 10SM CLR 10/07 A3011 RMK AO2 SLP196 T01000072=
202305241253 METAR KPAE 241253Z AUTO 33003KT 10SM BKN090 OVC120 11/07 A3009 RMK AO2 SLP190 T01060067=
202305241153 METAR KPAE 241153Z AUTO 35007KT 10SM OVC080 11/07 A3009 RMK AO2 SLP190 T01060072 10122 20106 53001=
202305241053 METAR KPAE 241053Z AUTO 35007KT 10SM SCT080 BKN120 11/07 A3009 RMK AO2 SLP189 T01060072=
202305240953 METAR KPAE 240953Z AUTO 36008KT 10SM OVC100 11/07 A3008 RMK AO2 SLP187 T01060072=
202305240853 METAR KPAE 240853Z AUTO VRB03KT 10SM OVC085 11/07 A3009 RMK AO2 SLP189 T01110072 56003=
202305240753 METAR KPAE 240753Z AUTO 36007KT 10SM OVC095 11/07 A3009 RMK AO2 SLP190 T01110067 401720100=
202305240653 METAR KPAE 240653Z AUTO 36005KT 10SM OVC090 12/07 A3009 RMK AO2 SLP190 T01170072=
202305240553 METAR KPAE 240553Z AUTO 00000KT 10SM FEW060 BKN110 12/08 A3010 RMK AO2 SLP192 T01220078 10161 20122 50003=
202305240453 METAR KPAE 240453Z AUTO 34004KT 10SM FEW060 SCT120 13/08 A3010 RMK AO2 SLP194 T01280078=
202305240353 METAR KPAE 240353Z AUTO 34004KT 10SM SCT055 BKN120 13/08 A3009 RMK AO2 SLP192 T01330078=
202305240253 METAR KPAE 240253Z 34004KT 10SM BKN055 14/08 A3009 RMK AO2 SLP190 T01390078 55004=
202305240153 METAR KPAE 240153Z 33003KT 10SM SCT120 14/07 A3009 RMK AO2 SLP189 T01440067=
202305240053 METAR KPAE 240053Z 34005KT 10SM CLR 15/07 A3010 RMK AO2 SLP191 T01500072=
202305232353 METAR KPAE 232353Z 35004KT 10SM BKN060 15/07 A3010 RMK AO2 SLP193 T01500072 10172 20128 58005=
202305232253 METAR KPAE 232253Z 35007KT 10SM OVC055 16/06 A3011 RMK AO2 SLP195 T01560056=
202305232153 METAR KPAE 232153Z 10SM CLR 17/05 A3011 RMK AO2 SLP198 T01670050=
202305232053 METAR KPAE 232053Z 31004KT 10SM CLR 16/06 A3012 RMK AO2 SLP199 T01560061 56011=
202305231953 METAR KPAE 231953Z 28006KT 10SM SCT036 14/06 A3013 RMK AO2 SLP202 T01390056=
202305231853 METAR KPAE 231853Z 28007KT 10SM CLR 14/07 A3013 RMK AO2 SLP205 T01390072=
202305231753 METAR KPAE 231753Z 16003KT 10SM CLR 13/07 A3015 RMK AO2 SLP211 T01280072 10128 20100 50001=
202305231653 METAR KPAE 231653Z 25003KT 10SM OVC042 11/07 A3016 RMK AO2 SLP213 T01060067=
202305231553 METAR KPAE 231553Z 27004KT 10SM OVC037 11/06 A3016 RMK AO2 SLP214 T01060061=
202305231453 METAR KPAE 231453Z 18006KT 10SM CLR 11/05 A3015 RMK AO2 SLP210 T01060050 58005=
202305231353 METAR KPAE 231353Z 15006KT 10SM OVC041 10/04 A3016 RMK AO2 SLP213 T01000044=
202305231253 METAR KPAE 231253Z AUTO 00000KT 10SM OVC035 10/04 A3016 RMK AO2 SLP213 T01000044=
202305231153 METAR KPAE 231153Z AUTO VRB03KT 10SM OVC036 11/06 A3016 RMK AO2 SLP215 60000 70002 T01060056 10106 20100 58008=
202305231129 SPECI KPAE 231129Z AUTO 16003KT 10SM SCT023 SCT029 OVC036 10/05 A3017 RMK AO2 T01000050=
202305231116 SPECI KPAE 231116Z AUTO 15004KT 10SM SCT022 BKN029 OVC035 11/05 A3017 RMK AO2 T01060050=
202305231053 METAR KPAE 231053Z AUTO 00000KT 10SM FEW028 OVC035 10/06 A3017 RMK AO2 RAB22E51 SLP218 P0000 T01000061=
202305230953 METAR KPAE 230953Z AUTO 12003KT 10SM OVC035 11/06 A3018 RMK AO2 SLP219 T01060061=
202305230853 METAR KPAE 230853Z AUTO 00000KT 10SM OVC035 10/06 A3019 RMK AO2 SLP223 T01000061 53003=
202305230753 METAR KPAE 230753Z AUTO 00000KT 10SM OVC033 11/07 A3018 RMK AO2 SLP221 T01060067 401560094=
202305230653 METAR KPAE 230653Z AUTO 34003KT 10SM BKN032 OVC042 10/06 A3017 RMK AO2 SLP219 T01000061=
202305230553 METAR KPAE 230553Z AUTO 35005KT 10SM FEW031 BKN041 10/07 A3018 RMK AO2 SLP219 60001 T01000067 10144 20100 51004=
202305230453 METAR KPAE 230453Z AUTO 35005KT 10SM OVC030 11/07 A3018 RMK AO2 SLP219 T01060067=
202305230400 SPECI KPAE 230400Z AUTO 02006KT 10SM OVC055 11/08 A3017 RMK AO2 T01110078=
202305230353 METAR KPAE 230353Z AUTO 02006KT 10SM FEW004 BKN009 OVC050 11/08 A3017 RMK AO2 RAE41 SLP216 P0001 T01110083=
202305230253 METAR KPAE 230253Z 35008KT 9SM -RA BKN009 BKN027 OVC043 12/10 A3016 RMK AO2 RAB46 SLP215 P0000 60000 T01220100 53001=
202305230251 SPECI KPAE 230251Z 35008KT 9SM -RA FEW009 BKN027 OVC043 12/09 A3016 RMK AO2 RAB46 P0000=
202305230153 METAR KPAE 230153Z 02005KT 10SM BKN017 OVC037 13/09 A3016 RMK AO2 SLP213 T01330094=
202305230053 METAR KPAE 230053Z 09005KT 10SM OVC039 14/09 A3016 RMK AO2 SLP213 T01440094=
202305222353 METAR KPAE 222353Z 11007KT 10SM OVC042 14/09 A3016 RMK AO2 RAE15 SLP214 P0000 60001 T01390094 10156 20106 58005=
202305222330 SPECI KPAE 222330Z 10006KT 10SM FEW018 SCT026 OVC040 14/10 A3016 RMK AO2 RAE15 P0000 T01390100=
202305222303 SPECI KPAE 222303Z 10006KT 10SM -RA FEW019 BKN028 OVC036 14/10 A3017 RMK AO2 P0000 T01390100=
202305222253 METAR KPAE 222253Z 11005KT 10SM -RA FEW020 OVC033 14/10 A3017 RMK AO2 RAB35 SLP217 P0000 T01390100=
202305222153 METAR KPAE 222153Z VRB04KT 10SM FEW021 BKN055 OVC090 16/09 A3017 RMK AO2 SLP216 T01560094=
202305222053 METAR KPAE 222053Z VRB05KT 10SM SCT049 BKN060 OVC090 14/08 A3017 RMK AO2 SLP219 60001 T01440083 58000=
202305221953 METAR KPAE 221953Z 20004KT 10SM SCT017 OVC046 13/08 A3018 RMK AO2 RAE1856 SLP221 P0000 T01330078=
202305221853 METAR KPAE 221853Z 20005KT 10SM -RA FEW004 SCT008 BKN015 12/09 A3018 RMK AO2 SLP220 P0001 T01220094=
202305221753 METAR KPAE 221753Z 24005KT 10SM -RA BKN005 OVC009 11/08 A3017 RMK AO2 RAB48 SLP219 P0000 60000 T01060083 10117 20094 53001=
202305221735 SPECI KPAE 221735Z 24006KT 10SM BKN005 BKN013 OVC020 11/08 A3017 RMK AO2 T01060083=
202305221719 SPECI KPAE 221719Z 22005KT 10SM FEW005 BKN013 OVC043 11/08 A3017 RMK AO2 T01110083=
202305221709 SPECI KPAE 221709Z 15005KT 10SM SCT013 BKN020 OVC043 11/08 A3017 RMK AO2 T01110078=
202305221700 SPECI KPAE 221700Z VRB04KT 10SM SCT015 OVC043 11/08 A3017 RMK AO2 T01110078=
202305221653 METAR KPAE 221653Z VRB03KT 10SM BKN004 BKN047 OVC060 11/08 A3017 RMK AO2 SLP217 T01110078=
202305221600 SPECI KPAE 221600Z 16007KT 10SM BKN004 BKN047 OVC060 11/08 A3017 RMK AO2 T01110078=
202305221553 METAR KPAE 221553Z 17006KT 10SM BKN006 OVC025 11/08 A3017 RMK AO2 SLP218 T01110083=
202305221459 SPECI KPAE 221459Z 16006KT 10SM BKN006 OVC025 11/08 A3017 RMK AO2 T01060083=
202305221453 METAR KPAE 221453Z 18006KT 10SM SCT006 OVC023 10/08 A3017 RMK AO2 SLP219 T01000083 58000=
202305221451 SPECI KPAE 221451Z 17006KT 10SM SCT006 OVC023 10/08 A3017 RMK AO2=
202305221353 METAR KPAE 221353Z VRB06KT 10SM BKN018 10/08 A3017 RMK AO2 SLP219 T01000078=
202305221253 METAR KPAE 221253Z AUTO 15005KT 10SM OVC018 09/08 A3017 RMK AO2 SLP218 T00940078=
202305221153 METAR KPAE 221153Z AUTO 16007KT 10SM SCT004 BKN019 OVC055 09/08 A3018 RMK AO2 SLP221 60005 70007 T00940083 10111 20094 58003=
202305221108 SPECI KPAE 221108Z AUTO 15006KT 9SM FEW004 BKN030 OVC035 09/08 A3019 RMK AO2 T00940083=
202305221053 METAR KPAE 221053Z AUTO 15005KT 8SM FEW005 BKN024 OVC029 10/08 A3019 RMK AO2 RAE41 SLP223 P0001 T01000083=
202305221044 SPECI KPAE 221044Z AUTO 14005KT 9SM FEW005 SCT022 OVC030 10/08 A3019 RMK AO2 RAE41 P0001 T01000078=
202305221002 SPECI KPAE 221002Z AUTO 14004KT 5SM -RA BR FEW007 BKN016 OVC032 10/08 A3019 RMK AO2 P0000 T01000083=
202305220953 METAR KPAE 220953Z AUTO 15004KT 4SM -RA BR BKN011 BKN019 OVC032 10/08 A3019 RMK AO2 SLP225 P0003 T01000083=
202305220946 SPECI KPAE 220946Z AUTO 15004KT 4SM -RA BR FEW005 BKN011 OVC032 10/08 A3019 RMK AO2 P0003 T01000083=
202305220931 SPECI KPAE 220931Z AUTO 15005KT 2 1/2SM -RA BR FEW006 BKN010 OVC016 10/08 A3019 RMK AO2 P0001 T01000083=
202305220853 METAR KPAE 220853Z AUTO 15005KT 7SM -RA BKN014 BKN022 OVC033 10/08 A3019 RMK AO2 RAB25 SLP224 P0001 60001 T01000083 54000=
202305220809 SPECI KPAE 220809Z AUTO 14004KT 6SM BR SCT020 BKN025 OVC034 10/08 A3019 RMK AO2 T01000083=
202305220753 METAR KPAE 220753Z AUTO 00000KT 6SM BR SCT023 OVC034 11/08 A3019 RMK AO2 SLP224 T01060083 401280100=
202305220653 METAR KPAE 220653Z AUTO 05004KT 10SM OVC038 11/07 A3019 RMK AO2 SLP223 T01110072=
202305220553 METAR KPAE 220553Z AUTO 01006KT 10SM OVC036 11/07 A3019 RMK AO2 SLP224 60002 T01110072 10117 20100 53002=
202305220453 METAR KPAE 220453Z AUTO 35007G15KT 10SM FEW028 OVC036 11/07 A3019 RMK AO2 SLP223 T01060072=
202305220407 SPECI KPAE 220407Z AUTO 36005KT 10SM OVC031 11/08 A3018 RMK AO2 T01060078=
202305220400 SPECI KPAE 220400Z AUTO 36005KT 10SM OVC029 11/08 A3018 RMK AO2 T01060078=
202305220353 METAR KPAE 220353Z 36004KT 2SM BR BKN010 OVC017 11/08 A3018 RMK AO2 RAE23 SLP222 P0001 T01060083=
202305220253 METAR KPAE 220253Z 36005KT 2SM -RA BR BKN010 OVC017 10/08 A3018 RMK AO2 RAB14E38B53 SLP221 P0001 60001 T01000083 55005=
202305220243 SPECI KPAE 220243Z 35005KT 2SM BR BKN010 BKN017 OVC024 10/08 A3018 RMK AO2 RAB14E38 P0001 T01000083=
202305220153 METAR KPAE 220153Z 36005KT 2SM BR OVC021 11/09 A3018 RMK AO2 SLP221 T01110089=
202305220126 SPECI KPAE 220126Z 36005KT 2SM HZ OVC019 12/08 A3018 RMK AO2 T01170083=
202305220053 METAR KPAE 220053Z 35006G15KT 10SM SCT012 OVC018 11/08 A3019 RMK AO2 SLP225 T01110083=
202305212353 METAR KPAE 212353Z 35010KT 10SM OVC012 12/08 A3020 RMK AO2 SLP226 T01170083 10128 20117 58006=
202305212253 METAR KPAE 212253Z 36008KT 10SM OVC008 12/09 A3020 RMK AO2 SLP228 T01220094=
202305212153 METAR KPAE 212153Z VRB05KT 10SM OVC008 12/11 A3021 RMK AO2 SLP231 T01220106=
202305212053 METAR KPAE 212053Z 35003KT 10SM SCT002 OVC008 12/10 A3021 RMK AO2 SLP233 T01170100 50001=
202305211953 METAR KPAE 211953Z 36004KT 6SM BR BKN006 OVC013 12/10 A3022 RMK AO2 SLP234 T01170100=
202305211853 METAR KPAE 211853Z 35003KT 10SM BKN006 OVC013 12/10 A3022 RMK AO2 SLP233 T01220100=
202305211753 METAR KPAE 211753Z 06003KT 10SM BKN006 OVC013 12/10 A3021 RMK AO2 CIG 005V009 SLP232 T01220100 10122 20117 51002=
202305211653 METAR KPAE 211653Z 09003KT 4SM BR OVC005 12/10 A3021 RMK AO2 CIG 004V009 SLP232 T01170100=
202305211553 METAR KPAE 211553Z 02003KT 4SM BR OVC005 12/10 A3021 RMK AO2 SLP230 T01170100=
202305211453 METAR KPAE 211453Z 34004KT 10SM OVC008 12/09 A3021 RMK AO2 SLP228 T01170094 53010=
202305211353 METAR KPAE 211353Z 00000KT 10SM OVC009 12/09 A3019 RMK AO2 SLP221 T01220089=
202305211253 METAR KPAE 211253Z AUTO 00000KT 10SM OVC011 12/09 A3018 RMK AO2 SLP217 T01170089=
202305211153 METAR KPAE 211153Z AUTO 05004KT 10SM OVC012 12/09 A3017 RMK AO2 SLP218 T01170089 10117 20111 51006=
202305211115 SPECI KPAE 211115Z AUTO 07003KT 10SM BKN014 OVC055 12/09 A3017 RMK AO2 T01170089=
202305211108 SPECI KPAE 211108Z AUTO 06005KT 10SM BKN016 OVC055 11/09 A3017 RMK AO2 T01110089=
202305211053 METAR KPAE 211053Z AUTO 06004KT 10SM FEW013 OVC055 11/09 A3017 RMK AO2 SLP217 T01110089=
202305211033 SPECI KPAE 211033Z AUTO 06004KT 10SM SCT006 BKN013 OVC060 11/09 A3017 RMK AO2 T01110089=
202305210953 METAR KPAE 210953Z AUTO 07003KT 10SM OVC006 11/09 A3017 RMK AO2 SLP216 T01110089=
202305210853 METAR KPAE 210853Z AUTO 02006KT 10SM BKN007 BKN060 BKN120 11/09 A3016 RMK AO2 SLP210 T01110089 53007=
202305210845 SPECI KPAE 210845Z AUTO VRB05KT 10SM SCT007 BKN060 BKN100 11/09 A3015 RMK AO2 T01110089=
202305210835 SPECI KPAE 210835Z AUTO 02006KT 10SM BKN006 BKN060 OVC120 11/09 A3015 RMK AO2 T01110089=
202305210753 METAR KPAE 210753Z AUTO 02007KT 10SM SCT007 BKN110 12/09 A3015 RMK AO2 SLP207 T01170089 402000117=
202305210722 SPECI KPAE 210722Z AUTO 01007G16KT 10SM FEW008 SCT110 12/09 A3014 RMK AO2 T01170089=
202305210653 METAR KPAE 210653Z AUTO 01009G16KT 10SM CLR 12/09 A3014 RMK AO2 SLP204 T01170089=
202305210553 METAR KPAE 210553Z AUTO 02007KT 10SM FEW120 12/09 A3013 RMK AO2 SLP203 T01220094 10183 20122 53010=
202305210453 METAR KPAE 210453Z AUTO 36009G19KT 10SM SCT120 13/09 A3012 RMK AO2 SLP199 T01280094=
202305210353 METAR KPAE 210353Z 36009KT 10SM CLR 14/11 A3010 RMK AO2 SLP193 T01390106=
202305210253 METAR KPAE 210253Z 35007KT 10SM FEW110 15/10 A3010 RMK AO2 SLP194 T01500100 56003=
202305210153 METAR KPAE 210153Z VRB06KT 10SM FEW120 17/11 A3010 RMK AO2 SLP194 T01720111=
202305210053 METAR KPAE 210053Z 34008KT 10SM CLR 18/11 A3010 RMK AO2 SLP193 T01780106=
202305202353 METAR KPAE 202353Z 35009G15KT 10SM CLR 17/10 A3011 RMK AO2 SLP195 T01720100 10200 20172 56009=
202305202253 METAR KPAE 202253Z 35008KT 10SM CLR 18/11 A3012 RMK AO2 SLP197 T01830106=
202305202153 METAR KPAE 202153Z 35007KT 10SM CLR 19/11 A3013 RMK AO2 SLP202 T01890106=
202305202053 METAR KPAE 202053Z 36009KT 10SM CLR 19/11 A3014 RMK AO2 SLP204 T01940106 56004=
202305201953 METAR KPAE 201953Z 35007KT 10SM CLR 19/11 A3014 RMK AO2 SLP204 T01890111=
202305201853 METAR KPAE 201853Z 35004KT 10SM CLR 19/12 A3015 RMK AO2 SLP208 T01890122=
202305201753 METAR KPAE 201753Z 36006KT 10SM CLR 18/11 A3015 RMK AO2 SLP209 T01780111 10178 20117 58001=
202305201653 METAR KPAE 201653Z 01005KT 10SM CLR 16/11 A3016 RMK AO2 SLP211 T01560111=
202305201553 METAR KPAE 201553Z 34004KT 10SM BCFG SCT001 13/11 A3016 RMK AO2 SLP214 T01330106=
202305201501 SPECI KPAE 201501Z 36006KT 10SM R16R/5500VP6000FT BCFG SCT001 12/11 A3016 RMK AO2 T01220106=
202305201453 METAR KPAE 201453Z 36007KT 2SM R16R/5500VP6000FT BCFG BKN001 12/11 A3016 RMK AO2 SLP211 VIS SW W NW N NE 1 T01220106 50006=
202305201451 SPECI KPAE 201451Z 36007KT 2SM R16R/5500VP6000FT BCFG BKN001 12/11 A3016 RMK AO2 VIS SW W NW N NE 1=
202305201444 SPECI KPAE 201444Z 36007KT 3SM R16R/2600VP6000FT BCFG SCT001 12/11 A3015 RMK AO2 T01170106=
202305201432 SPECI KPAE 201432Z 01007KT 1 3/4SM R16R/2600VP6000FT BCFG SCT001 12/10 A3016 RMK AO2 VIS 1 1/4V4 T01170100=
202305201353 METAR KPAE 201353Z 36006KT 5SM BCFG SCT001 12/10 A3015 RMK AO2 SLP209 T01170100=
202305201336 SPECI KPAE 201336Z AUTO 01006KT 3SM R16R/2400VP6000FT BR OVC001 12/10 A3015 RMK AO2 T01170100=
202305201322 SPECI KPAE 201322Z AUTO 36006KT 1 3/4SM R16R/2200VP6000FT BR OVC001 12/10 A3015 RMK AO2 T01170100=
202305201303 SPECI KPAE 201303Z AUTO 01006KT 4SM R16R/2400VP6000FT BR OVC001 12/10 A3014 RMK AO2 T01170100=
202305201253 METAR KPAE 201253Z AUTO 36006KT 7SM R16R/3000VP6000FT BKN002 12/10 A3014 RMK AO2 SLP205 T01170100=
202305201251 SPECI KPAE 201251Z AUTO 02008KT 7SM R16R/3000VP6000FT BKN002 12/10 A3014 RMK AO2=
202305201242 SPECI KPAE 201242Z AUTO 01007KT 10SM SCT002 12/09 A3014 RMK AO2 T01170094=
202305201153 METAR KPAE 201153Z AUTO VRB03KT 10SM CLR 12/09 A3013 RMK AO2 SLP202 T01220089 10150 20122 53005=
202305201053 METAR KPAE 201053Z AUTO 01004KT 10SM CLR 13/09 A3012 RMK AO2 SLP200 T01280089=
202305200953 METAR KPAE 200953Z AUTO 05004KT 10SM BKN100 14/09 A3012 RMK AO2 SLP198 T01390089=
202305200853 METAR KPAE 200853Z AUTO 04003KT 10SM FEW100 FEW110 13/10 A3011 RMK AO2 SLP197 T01330100 51005=
202305200753 METAR KPAE 200753Z AUTO VRB05KT 10SM FEW100 14/09 A3011 RMK AO2 SLP196 T01440089 402060117=
202305200653 METAR KPAE 200653Z AUTO 01007KT 10SM BKN100 14/09 A3011 RMK AO2 SLP195 T01440089=
202305200553 METAR KPAE 200553Z AUTO 03007KT 10SM SCT110 15/09 A3010 RMK AO2 SLP191 T01500094 10194 20144 51008=
202305200453 METAR KPAE 200453Z AUTO 01008KT 10SM CLR 15/09 A3009 RMK AO2 SLP189 T01500094=
202305200353 METAR KPAE 200353Z 35009G18KT 10SM SCT120 16/09 A3009 RMK AO2 SLP188 T01560094=
202305200253 METAR KPAE 200253Z 01006KT 10SM SCT120 17/09 A3007 RMK AO2 SLP183 T01670094 55002=
202305200153 METAR KPAE 200153Z 35007KT 10SM CLR 18/11 A3007 RMK AO2 SLP181 T01830106=
202305200053 METAR KPAE 200053Z 36007KT 10SM CLR 19/12 A3007 RMK AO2 SLP182 T01940117=
202305192353 METAR KPAE 192353Z AUTO 35008KT 10SM CLR 19/11 A3008 RMK AO2 SLP185 T01940111 10206 20144 58015=
202305192253 METAR KPAE 192253Z AUTO 36008KT 10SM CLR 20/12 A3010 RMK AO2 SLP191 T02000117=
202305192153 METAR KPAE 192153Z 36006KT 10SM CLR 19/13 A3012 RMK AO2 SLP198 T01940128=
202305192053 METAR KPAE 192053Z VRB03KT 10SM CLR 19/13 A3013 RMK AO2 SLP200 T01890128 58010=
202305191953 METAR KPAE 191953Z 28005KT 10SM CLR 18/13 A3014 RMK AO2 SLP204 T01780128=
202305191853 METAR KPAE 191853Z 29006KT 10SM SCT010 17/12 A3015 RMK AO2 SLP208 T01670122=
202305191811 SPECI KPAE 191811Z VRB04KT 10SM SCT010 15/12 A3016 RMK AO2 T01500117=
202305191753 METAR KPAE 191753Z 36004KT 10SM BKN006 16/12 A3016 RMK AO2 SLP212 T01560117 10156 20117 51003=
202305191730 SPECI KPAE 191730Z 33004KT 10SM OVC005 14/11 A3016 RMK AO2 T01390111=
202305191653 METAR KPAE 191653Z 35005KT 10SM BKN004 13/11 A3016 RMK AO2 SLP212 T01330111=
202305191553 METAR KPAE 191553Z 03003KT 10SM BKN006 BKN008 13/11 A3015 RMK AO2 SLP210 T01280106=
202305191453 METAR KPAE 191453Z 35003KT 10SM BKN006 BKN008 13/11 A3015 RMK AO2 SLP209 T01330106 53011=
202305191353 METAR KPAE 191353Z 36003KT 10SM BKN008 12/10 A3013 RMK AO2 SLP203 T01220100=
202305191328 SPECI KPAE 191328Z AUTO 00000KT 10SM SCT008 12/10 A3013 RMK AO2 T01220100=
202305191253 METAR KPAE 191253Z AUTO 05003KT 10SM CLR 12/09 A3012 RMK AO2 SLP199 T01170094=
202305191153 METAR KPAE 191153Z AUTO 08004KT 10SM CLR 12/10 A3011 RMK AO2 SLP196 T01170100 10128 20117 50001=
202305191053 METAR KPAE 191053Z AUTO 06003KT 10SM CLR 12/10 A3012 RMK AO2 SLP197 T01220100=
202305190953 METAR KPAE 190953Z AUTO 05004KT 10SM FEW005 12/10 A3011 RMK AO2 SLP195 T01220100=
202305190949 SPECI KPAE 190949Z AUTO 05003KT 10SM SCT005 12/10 A3011 RMK AO2=
202305190853 METAR KPAE 190853Z AUTO 00000KT 10SM BKN005 12/11 A3011 RMK AO2 SLP193 T01220106 51010=
202305190848 SPECI KPAE 190848Z AUTO 01003KT 10SM SCT005 12/11 A3010 RMK AO2=
202305190818 SPECI KPAE 190818Z AUTO VRB03KT 10SM BKN005 12/11 A3010 RMK AO2 T01220106=
202305190809 SPECI KPAE 190809Z AUTO 00000KT 10SM SCT005 12/11 A3010 RMK AO2 T01220106=
202305190753 METAR KPAE 190753Z AUTO 00000KT 10SM CLR 13/11 A3009 RMK AO2 SLP190 T01280106 402220128=
202305190653 METAR KPAE 190653Z AUTO 36005KT 10SM CLR 13/11 A3008 RMK AO2 SLP183 T01280111=
202305190553 METAR KPAE 190553Z AUTO 35006KT 10SM CLR 13/11 A3005 RMK AO2 SLP175 T01280106 10189 20128 51012=
202305190453 METAR KPAE 190453Z AUTO 36007KT 10SM CLR 13/11 A3004 RMK AO2 SLP173 T01330111=
202305190353 METAR KPAE 190353Z AUTO 36007KT 10SM CLR 14/11 A3003 RMK AO2 SLP167 T01440111=
202305190253 METAR KPAE 190253Z 35008KT 10SM CLR 16/12 A3002 RMK AO2 SLP164 T01560117 53009=
202305190153 METAR KPAE 190153Z 35008KT 10SM CLR 17/12 A3000 RMK AO2 SLP156 T01720117=
202305190053 METAR KPAE 190053Z 35011KT 10SM CLR 18/12 A3000 RMK AO2 SLP156 T01780122=
202305182353 METAR KPAE 182353Z 35008KT 10SM CLR 18/12 A2999 RMK AO2 SLP155 T01830122 10222 20183 51006=
202305182253 METAR KPAE 182253Z 35008KT 10SM CLR 19/13 A2999 RMK AO2 SLP153 T01890128=
202305182153 METAR KPAE 182153Z 36008KT 10SM CLR 18/13 A2999 RMK AO2 SLP153 T01830133=
202305182053 METAR KPAE 182053Z 26009KT 10SM CLR 22/14 A2997 RMK AO2 SLP148 T02170144 53004=
202305181953 METAR KPAE 181953Z 24008KT 10SM CLR 21/14 A2997 RMK AO2 SLP146 T02110144=
202305181853 METAR KPAE 181853Z 25007KT 10SM CLR 20/14 A2997 RMK AO2 SLP146 T02000139=
202305181753 METAR KPAE 181753Z 24005KT 10SM CLR 19/14 A2996 RMK AO2 SLP144 T01890139 10189 20133 51009=
202305181653 METAR KPAE 181653Z 29003KT 10SM CLR 18/13 A2996 RMK AO2 SLP142 T01780133=
202305181553 METAR KPAE 181553Z 00000KT 10SM CLR 18/14 A2995 RMK AO2 SLP139 T01780139=
202305181453 METAR KPAE 181453Z 00000KT 10SM CLR 17/13 A2994 RMK AO2 SLP135 T01720128 53014=
202305181353 METAR KPAE 181353Z 35003KT 10SM CLR 14/12 A2991 RMK AO2 SLP127 T01440122=
202305181253 METAR KPAE 181253Z AUTO 01004KT 10SM CLR 14/12 A2990 RMK AO2 SLP122 T01390117=
202305181153 METAR KPAE 181153Z AUTO 01003KT 10SM CLR 14/12 A2989 RMK AO2 SLP120 T01390117 10172 20133 55000=
202305181053 METAR KPAE 181053Z AUTO 36005KT 10SM CLR 14/12 A2989 RMK AO2 SLP119 T01390117=
202305180953 METAR KPAE 180953Z AUTO 00000KT 10SM CLR 14/12 A2989 RMK AO2 SLP119 T01440117=
202305180853 METAR KPAE 180853Z AUTO 01003KT 10SM CLR 16/12 A2990 RMK AO2 SLP121 T01560117 51002=
202305180753 METAR KPAE 180753Z AUTO 02005KT 10SM CLR 15/12 A2989 RMK AO2 SLP120 T01500117 402390122=
202305180653 METAR KPAE 180653Z AUTO 36003KT 10SM CLR 16/12 A2989 RMK AO2 SLP120 T01610117=
202305180553 METAR KPAE 180553Z AUTO 01003KT 10SM CLR 17/12 A2989 RMK AO2 SLP119 T01720117 10239 20172 53003=
202305180453 METAR KPAE 180453Z AUTO 00000KT 10SM CLR 19/12 A2989 RMK AO2 SLP118 T01890117=
202305180353 METAR KPAE 180353Z 00000KT 10SM CLR 21/11 A2988 RMK AO2 SLP116 T02110106=
202305180253 METAR KPAE 180253Z 35003KT 10SM CLR 22/12 A2988 RMK AO2 SLP116 T02170122 56009=
202305180153 METAR KPAE 180153Z 35003KT 10SM CLR 23/13 A2988 RMK AO2 SLP116 T02280128=
202305180053 METAR KPAE 180053Z 02004KT 10SM CLR 23/13 A2990 RMK AO2 SLP121 T02280133=
202305172353 METAR KPAE 172353Z VRB04KT 10SM CLR 23/14 A2991 RMK AO2 SLP125 T02330139 10233 20178 58020=
202305172253 METAR KPAE 172253Z 36007KT 10SM CLR 23/12 A2993 RMK AO2 SLP131 T02280117=
202305172153 METAR KPAE 172153Z 35006KT 10SM CLR 22/13 A2995 RMK AO2 SLP139 T02170133=
202305172053 METAR KPAE 172053Z 36006KT 10SM CLR 21/14 A2996 RMK AO2 SLP146 T02110144 58018=
202305171953 METAR KPAE 171953Z 28005KT 10SM CLR 20/14 A2999 RMK AO2 SLP154 T02000144=
202305171853 METAR KPAE 171853Z 27005KT 10SM CLR 19/14 A3001 RMK AO2 SLP160 T01890139=
202305171753 METAR KPAE 171753Z 28004KT 10SM CLR 18/13 A3002 RMK AO2 SLP164 T01780133 10178 20122 58007=
202305171653 METAR KPAE 171653Z 00000KT 10SM CLR 16/12 A3003 RMK AO2 SLP167 T01610122=
202305171620 SPECI KPAE 171620Z 00000KT 9SM SCT001 13/12 A3004 RMK AO2 VIS W-N 1 T01330122=
202305171611 SPECI KPAE 171611Z 00000KT 4SM BR OVC001 13/12 A3004 RMK AO2 T01330117=
202305171553 METAR KPAE 171553Z 01003KT 1SM R16R/1200V3000FT BR VV001 13/12 A3004 RMK AO2 SLP173 T01280117=
202305171550 SPECI KPAE 171550Z 36003KT 1/2SM R16R/1200V2800FT FG VV001 13/12 A3004 RMK AO2=
202305171453 METAR KPAE 171453Z 02005KT 1/4SM R16R/0400V0600FT FG VV001 12/11 A3005 RMK AO2 SLP175 T01220111 55000=
202305171353 METAR KPAE 171353Z 36005KT 1/4SM R16R/0500V0700FT FG VV001 12/11 A3005 RMK AO2 SLP174 T01220111=
202305171345 SPECI KPAE 171345Z AUTO 01006KT 1/4SM R16R/0500V1000FT FG VV001 12/11 A3005 RMK AO2 T01220111=
202305171314 SPECI KPAE 171314Z AUTO 36006KT 3/4SM R16R/0700V1000FT BR VV001 12/11 A3005 RMK AO2 T01220111=
202305171306 SPECI KPAE 171306Z AUTO 36006KT 1 1/4SM R16R/1000V1400FT BR OVC001 12/11 A3005 RMK AO2 T01220111=
202305171253 METAR KPAE 171253Z AUTO 01006KT 2SM R16R/1200V2200FT BR OVC001 12/11 A3005 RMK AO2 VIS 1V4 SLP175 T01220111=
202305171211 SPECI KPAE 171211Z AUTO 36006KT 6SM R16R/6000VP6000FT BR OVC001 12/11 A3005 RMK AO2 T01220111=
202305171153 METAR KPAE 171153Z AUTO 36005KT 7SM OVC002 13/11 A3005 RMK AO2 SLP173 T01280111 10144 20122 56004=
202305171133 SPECI KPAE 171133Z AUTO 36006KT 10SM BKN002 13/11 A3005 RMK AO2 T01280111=
202305171119 SPECI KPAE 171119Z AUTO 36006KT 10SM FEW002 13/11 A3005 RMK AO2 T01280111=
202305171053 METAR KPAE 171053Z AUTO 01005KT 10SM CLR 13/11 A3005 RMK AO2 SLP174 T01280111=
202305170953 METAR KPAE 170953Z AUTO 01006KT 10SM CLR 13/11 A3005 RMK AO2 SLP176 T01280111=
202305170853 METAR KPAE 170853Z AUTO 35004KT 10SM CLR 13/11 A3006 RMK AO2 SLP178 T01330111 50001=
202305170753 METAR KPAE 170753Z AUTO 01004KT 10SM CLR 14/11 A3007 RMK AO2 SLP180 T01390111 402280128=
202305170653 METAR KPAE 170653Z AUTO 01007KT 10SM CLR 14/12 A3007 RMK AO2 SLP182 T01440117=
202305170553 METAR KPAE 170553Z AUTO 01005KT 10SM CLR 14/12 A3006 RMK AO2 SLP178 T01390117 10222 20139 58002=
202305170453 METAR KPAE 170453Z AUTO 01006KT 10SM CLR 14/12 A3007 RMK AO2 SLP182 T01440117=
202305170353 METAR KPAE 170353Z 36006KT 10SM CLR 16/11 A3007 RMK AO2 SLP180 T01560111=
202305170253 METAR KPAE 170253Z 36008KT 10SM CLR 17/12 A3006 RMK AO2 SLP179 T01720117 55003=
202305170153 METAR KPAE 170153Z 35007KT 10SM CLR 19/13 A3006 RMK AO2 SLP177 T01890128=
202305170053 METAR KPAE 170053Z 36009KT 10SM CLR 19/13 A3007 RMK AO2 SLP180 T01940133=
202305162353 METAR KPAE 162353Z 27008KT 10SM CLR 22/14 A3007 RMK AO2 SLP181 T02220139 10228 20167 56022=
202305162253 METAR KPAE 162253Z AUTO 25006KT 10SM CLR 22/14 A3009 RMK AO2 SLP187 T02170139=
202305162153 METAR KPAE 162153Z 28007KT 10SM CLR 21/14 A3011 RMK AO2 SLP194 T02060139=
202305162053 METAR KPAE 162053Z 27007KT 10SM CLR 20/14 A3014 RMK AO2 SLP204 T02000144 58009=
202305161953 METAR KPAE 161953Z 00000KT 10SM FEW019 19/14 A3015 RMK AO2 SLP207 T01940139=
202305161943 SPECI KPAE 161943Z 00000KT 10SM SCT019 18/13 A3015 RMK AO2 T01830133=
202305161853 METAR KPAE 161853Z VRB04KT 10SM OVC017 18/13 A3016 RMK AO2 SLP211 T01780133=
202305161753 METAR KPAE 161753Z 23004KT 10SM OVC014 17/13 A3017 RMK AO2 SLP213 T01670128 10172 20128 50001=
202305161653 METAR KPAE 161653Z 27005KT 10SM OVC014 15/12 A3017 RMK AO2 SLP213 T01500122=
202305161559 SPECI KPAE 161559Z 13003KT 10SM BKN013 OVC031 15/12 A3017 RMK AO2 T01500117 $=
202305161553 METAR KPAE 161553Z 1SM R16R/P6000FT HZ BKN013 OVC031 15/12 A3017 RMK AO2 SLP213 T01500117 $=
202305161524 SPECI KPAE 161524Z 17003KT 10SM OVC010 14/11 A3016 RMK AO2 T01440111=
202305161453 METAR KPAE 161453Z 18005KT 10SM OVC009 14/11 A3016 RMK AO2 SLP212 T01390111 51007=
202305161433 SPECI KPAE 161433Z 21005KT 10SM OVC009 13/11 A3016 RMK AO2 T01330111=
202305161353 METAR KPAE 161353Z 20003KT 10SM BKN010 OVC031 13/11 A3015 RMK AO2 SLP208 T01330111=
202305161350 SPECI KPAE 161350Z 20003KT 10SM BKN010 BKN031 13/11 A3015 RMK AO2=
202305161253 METAR KPAE 161253Z AUTO 24003KT 10SM CLR 13/11 A3014 RMK AO2 SLP203 T01330111=
202305161153 METAR KPAE 161153Z AUTO 24009KT 10SM CLR 14/11 A3012 RMK AO2 SLP196 60002 70003 T01390111 10194 20139 51012=
202305161053 METAR KPAE 161053Z AUTO 23003KT 10SM BKN120 14/12 A3011 RMK AO2 SLP193 T01440122=
202305160953 METAR KPAE 160953Z AUTO 27006KT 10SM FEW110 14/12 A3010 RMK AO2 RAE21 SLP188 P0001 T01440122=
202305160853 METAR KPAE 160853Z AUTO 19013KT 10SM -RA BKN100 OVC120 18/13 A3008 RMK AO2 SLP183 P0000 60001 T01780133 50001=
202305160753 METAR KPAE 160753Z AUTO 16010KT 10SM -RA SCT043 BKN070 OVC110 17/13 A3010 RMK AO2 RAB20 SLP189 P0001 T01720133 403000172=
202305160653 METAR KPAE 160653Z AUTO 16006KT 10SM BKN110 18/13 A3010 RMK AO2 LTG DSNT E RAE05 SLP190 P0000 T01830128=
202305160553 METAR KPAE 160553Z AUTO 19010KT 10SM -RA BKN080 OVC110 18/13 A3008 RMK AO2 PK WND 18026/0513 LTG DSNT E RAB00 SLP182 P0001 60001 T01830133 10294 20183 51024=
202305160453 METAR KPAE 160453Z AUTO 17015G23KT 10SM FEW055 SCT070 BKN090 21/12 A3005 RMK AO2 LTG DSNT SE SLP174 T02110117=
202305160449 SPECI KPAE 160449Z AUTO 18014G22KT 10SM FEW065 SCT090 21/12 A3005 RMK AO2 LTG DSNT NE AND SE=
202305160429 SPECI KPAE 160429Z AUTO 17013G23KT 10SM VCTS CLR 22/12 A3005 RMK AO2 LTG DSNT SE T02170122=
202305160353 METAR KPAE 160353Z 32004KT 10SM BKN110 21/11 A3001 RMK AO2 LTG DSNT SE SLP157 T02060111=
202305160253 METAR KPAE 160253Z 35006KT 10SM CLR 24/11 A2996 RMK AO2 LTG DSNT E SLP141 T02440111 53004=
202305160153 METAR KPAE 160153Z 34004KT 10SM CLR 28/12 A2994 RMK AO2 SLP136 T02830122=
202305160053 METAR KPAE 160053Z 34006KT 10SM CLR 29/12 A2994 RMK AO2 SLP133 T02890117=
202305152353 METAR KPAE 152353Z 35005KT 10SM CLR 29/12 A2995 RMK AO2 SLP136 T02940117 10300 20250 58011=
202305152253 METAR KPAE 152253Z AUTO 36008KT 10SM CLR 30/11 A2996 RMK AO2 SLP140 T03000111=
202305152153 METAR KPAE 152153Z 35006KT 10SM CLR 29/11 A2997 RMK AO2 SLP144 T02890106=
202305152053 METAR KPAE 152053Z 31006KT 10SM CLR 28/12 A2998 RMK AO2 SLP147 T02780117 56005=
202305151953 METAR KPAE 151953Z 01005KT 10SM CLR 27/11 A2999 RMK AO2 SLP150 T02720106=
202305151853 METAR KPAE 151853Z 36007KT 10SM CLR 26/10 A2998 RMK AO2 SLP149 T02610100=
202305151753 METAR KPAE 151753Z 36005KT 10SM CLR 25/10 A3000 RMK AO2 SLP153 T02500100 10250 20172 53001=
202305151653 METAR KPAE 151653Z 36007KT 10SM CLR 23/11 A2999 RMK AO2 SLP152 T02280106=
202305151553 METAR KPAE 151553Z 35004KT 10SM CLR 22/10 A2999 RMK AO2 SLP152 T02170100=
202305151453 METAR KPAE 151453Z 34003KT 10SM CLR 20/09 A2999 RMK AO2 SLP152 T02000094 53005=
202305151353 METAR KPAE 151353Z 36005KT 10SM CLR 19/09 A2998 RMK AO2 SLP149 T01940094=
202305151253 METAR KPAE 151253Z AUTO 35003KT 10SM CLR 18/09 A2998 RMK AO2 SLP148 T01830089=
202305151153 METAR KPAE 151153Z AUTO 01003KT 10SM CLR 18/10 A2998 RMK AO2 SLP147 T01780100 10239 20172 55002=
202305151053 METAR KPAE 151053Z AUTO 00000KT 10SM CLR 19/09 A2998 RMK AO2 SLP146 T01890089=
202305150953 METAR KPAE 150953Z AUTO 04005KT 10SM CLR 21/09 A2997 RMK AO2 SLP145 T02060089=
202305150853 METAR KPAE 150853Z AUTO 04004KT 10SM CLR 21/09 A2998 RMK AO2 SLP149 T02110094 56008=
202305150753 METAR KPAE 150753Z AUTO 03004KT 10SM CLR 22/10 A2999 RMK AO2 SLP152 T02170100 402890161=
202305150653 METAR KPAE 150653Z AUTO 03004KT 10SM CLR 22/10 A3000 RMK AO2 SLP153 T02220100=
202305150553 METAR KPAE 150553Z AUTO 02004KT 10SM CLR 23/10 A3001 RMK AO2 SLP158 T02330100 10289 20233 50004=
202305150453 METAR KPAE 150453Z AUTO 04005KT 10SM CLR 26/09 A3001 RMK AO2 SLP159 T02560094=
202305150353 METAR KPAE 150353Z 02003KT 10SM CLR 24/10 A3001 RMK AO2 SLP158 T02440100=
202305150253 METAR KPAE 150253Z 36007KT 10SM CLR 26/11 A3000 RMK AO2 SLP155 T02610106 55003=
202305150153 METAR KPAE 150153Z 10SM CLR 28/09 A2999 RMK AO2 SLP154 T02780094=
202305150053 METAR KPAE 150053Z 10SM CLR 28/09 A3000 RMK AO2 SLP156 T02830089=
202305142353 METAR KPAE 142353Z 10SM CLR 28/09 A3001 RMK AO2 SLP158 T02780094 10283 20222 58013=
202305142253 METAR KPAE 142253Z 32005KT 10SM CLR 27/11 A3002 RMK AO2 SLP164 T02720106=
202305142153 METAR KPAE 142153Z 10SM CLR 26/12 A3004 RMK AO2 SLP169 T02610117=
202305142053 METAR KPAE 142053Z 10SM CLR 26/11 A3005 RMK AO2 SLP172 T02610106 56015=
202305141953 METAR KPAE 141953Z 35010G18KT 10SM CLR 24/10 A3006 RMK AO2 SLP175 T02440100=
202305141853 METAR KPAE 141853Z 35006KT 10SM CLR 24/11 A3008 RMK AO2 SLP182 T02390106=
202305141753 METAR KPAE 141753Z 35010KT 10SM CLR 22/09 A3009 RMK AO2 SLP187 T02220089 10228 20161 58010=
202305141653 METAR KPAE 141653Z 36006KT 10SM CLR 21/09 A3010 RMK AO2 SLP191 T02110089=
202305141553 METAR KPAE 141553Z 36006KT 10SM CLR 20/09 A3012 RMK AO2 SLP196 T02000089=
202305141453 METAR KPAE 141453Z 01007KT 10SM CLR 18/08 A3012 RMK AO2 SLP197 T01830083 56000=
202305141353 METAR KPAE 141353Z 36006KT 10SM CLR 17/09 A3013 RMK AO2 SLP198 T01670089=
202305141253 METAR KPAE 141253Z AUTO 01006KT 10SM CLR 16/08 A3012 RMK AO2 SLP196 T01610083=
202305141153 METAR KPAE 141153Z AUTO 02004KT 10SM CLR 17/08 A3012 RMK AO2 SLP198 T01670083 10211 20161 56005=
202305141053 METAR KPAE 141053Z AUTO 36005KT 10SM CLR 17/08 A3013 RMK AO2 SLP199 T01670083=
202305140953 METAR KPAE 140953Z AUTO 01004KT 10SM CLR 16/09 A3013 RMK AO2 SLP200 T01610089=
202305140853 METAR KPAE 140853Z AUTO 00000KT 10SM CLR 17/08 A3014 RMK AO2 SLP203 T01720083 58006=
202305140753 METAR KPAE 140753Z AUTO 36004KT 10SM CLR 17/09 A3015 RMK AO2 SLP207 T01720089 402670133=
202305140653 METAR KPAE 140653Z AUTO 02005KT 10SM CLR 19/08 A3015 RMK AO2 SLP208 T01890083=
202305140553 METAR KPAE 140553Z AUTO 36007KT 10SM CLR 21/07 A3016 RMK AO2 SLP209 T02060067 10267 20206 50005=
202305140453 METAR KPAE 140453Z AUTO 01007KT 10SM CLR 21/08 A3016 RMK AO2 SLP211 T02060083=
202305140353 METAR KPAE 140353Z 36007KT 10SM CLR 21/09 A3015 RMK AO2 SLP206 T02110094=
202305140253 METAR KPAE 140253Z 35009KT 10SM CLR 24/10 A3014 RMK AO2 SLP203 T02390100 56013=
202305140153 METAR KPAE 140153Z 35008KT 10SM CLR 25/10 A3015 RMK AO2 SLP205 T02500100=
202305140053 METAR KPAE 140053Z 33014G19KT 10SM CLR 26/11 A3016 RMK AO2 SLP211 T02610106=
202305132353 METAR KPAE 132353Z 33012KT 10SM CLR 27/11 A3018 RMK AO2 SLP216 T02670111 10267 20211 56018=
202305132253 METAR KPAE 132253Z AUTO 33013KT 10SM CLR 26/11 A3019 RMK AO2 SLP221 T02610111=
202305132153 METAR KPAE 132153Z 33013KT 10SM CLR 26/11 A3021 RMK AO2 SLP229 T02610111=
202305132053 METAR KPAE 132053Z 10SM CLR 24/11 A3023 RMK AO2 SLP235 T02390106 58014=
202305131953 METAR KPAE 131953Z 32007KT 10SM CLR 24/11 A3025 RMK AO2 SLP240 T02440106=
202305131853 METAR KPAE 131853Z 32009KT 10SM CLR 23/10 A3026 RMK AO2 SLP245 T02330100=
202305131753 METAR KPAE 131753Z 32007KT 10SM CLR 21/09 A3027 RMK AO2 SLP249 T02110094 10211 20133 58002=
202305131653 METAR KPAE 131653Z 10SM CLR 19/09 A3028 RMK AO2 SLP252 T01890089=
202305131553 METAR KPAE 131553Z 10SM CLR 17/09 A3029 RMK AO2 SLP255 T01670089=
202305131453 METAR KPAE 131453Z 10SM CLR 17/09 A3028 RMK AO2 SLP252 T01670089 51008=
202305131353 METAR KPAE 131353Z 10SM CLR 16/08 A3027 RMK AO2 SLP250 T01560083=
202305131253 METAR KPAE 131253Z AUTO 10SM CLR 14/08 A3026 RMK AO2 SLP246 T01390078=
202305131153 METAR KPAE 131153Z AUTO 10SM CLR 14/07 A3026 RMK AO2 SLP243 T01440067 10189 20139 53003=
202305131053 METAR KPAE 131053Z AUTO 10SM CLR 15/07 A3025 RMK AO2 SLP242 T01500072=
202305130953 METAR KPAE 130953Z AUTO 10SM CLR 15/08 A3025 RMK AO2 SLP241 T01500078=
202305130853 METAR KPAE 130853Z AUTO 10SM CLR 16/08 A3025 RMK AO2 SLP240 T01610078 50005=
202305130753 METAR KPAE 130753Z AUTO 10SM CLR 17/07 A3025 RMK AO2 SLP241 T01670072 402440111=
202305130653 METAR KPAE 130653Z AUTO 10SM CLR 18/07 A3024 RMK AO2 SLP237 T01830067=
202305130553 METAR KPAE 130553Z AUTO 10SM CLR 19/07 A3023 RMK AO2 SLP235 T01890067 10244 20183 53013=
202305130453 METAR KPAE 130453Z AUTO 10SM CLR 19/08 A3022 RMK AO2 SLP231 T01890078=
202305130353 METAR KPAE 130353Z 10SM CLR 20/09 A3020 RMK AO2 SLP225 T02000089=
202305130253 METAR KPAE 130253Z 34006KT 10SM CLR 22/09 A3019 RMK AO2 SLP222 T02220089 55002=
202305130153 METAR KPAE 130153Z 34008KT 10SM CLR 23/09 A3019 RMK AO2 SLP222 T02330094=
202305130053 METAR KPAE 130053Z 34009G16KT 10SM CLR 24/08 A3020 RMK AO2 SLP223 T02440083=
202305122353 METAR KPAE 122353Z 33006KT 10SM CLR 24/10 A3020 RMK AO2 SLP224 T02440100 10244 20194 58008=
202305122253 METAR KPAE 122253Z 35008G16KT 10SM CLR 24/09 A3021 RMK AO2 SLP228 T02390094=
202305122153 METAR KPAE 122153Z 36009G16KT 10SM CLR 23/09 A3022 RMK AO2 SLP232 T02280094=
202305122053 METAR KPAE 122053Z 10SM CLR 22/08 A3022 RMK AO2 SLP234 T02220083 58005=
202305121953 METAR KPAE 121953Z 36007KT 10SM CLR 22/08 A3023 RMK AO2 SLP237 T02170078=
202305121853 METAR KPAE 121853Z 36006KT 10SM CLR 21/08 A3024 RMK AO2 SLP238 T02060083=
202305121753 METAR KPAE 121753Z 35004KT 10SM CLR 19/08 A3024 RMK AO2 SLP239 T01940083 10194 20111 53007=
202305121653 METAR KPAE 121653Z 28005KT 10SM CLR 17/08 A3023 RMK AO2 SLP235 T01720083=
202305121553 METAR KPAE 121553Z 00000KT 10SM CLR 17/08 A3023 RMK AO2 SLP234 T01720078=
202305121453 METAR KPAE 121453Z 00000KT 10SM CLR 15/05 A3022 RMK AO2 SLP231 T01500050 53011=
202305121353 METAR KPAE 121353Z 36003KT 10SM CLR 13/03 A3020 RMK AO2 SLP226 T01280028=
202305121253 METAR KPAE 121253Z AUTO 00000KT 10SM CLR 12/03 A3019 RMK AO2 SLP222 T01220028=
202305121153 METAR KPAE 121153Z AUTO 36003KT 10SM CLR 12/02 A3018 RMK AO2 SLP220 T01170022 10128 20117 51005=
202305121053 METAR KPAE 121053Z AUTO 00000KT 10SM CLR 12/03 A3018 RMK AO2 SLP219 T01170028=
202305120953 METAR KPAE 120953Z AUTO 01004KT 10SM CLR 12/04 A3017 RMK AO2 SLP216 T01170039=
202305120853 METAR KPAE 120853Z AUTO 01004KT 10SM CLR 12/04 A3017 RMK AO2 SLP215 T01220044 53007=
202305120753 METAR KPAE 120753Z AUTO 36003KT 10SM CLR 12/04 A3016 RMK AO2 SLP212 T01220044 402060100=
202305120653 METAR KPAE 120653Z AUTO 01005KT 10SM CLR 12/05 A3015 RMK AO2 SLP209 T01220050=
202305120553 METAR KPAE 120553Z AUTO 35008KT 10SM CLR 12/05 A3015 RMK AO2 SLP208 T01220050 10200 20122 53008=
202305120453 METAR KPAE 120453Z AUTO 36006KT 10SM CLR 13/06 A3014 RMK AO2 SLP205 T01280056=
202305120353 METAR KPAE 120353Z 35004KT 10SM CLR 13/06 A3013 RMK AO2 SLP201 T01330061=
202305120253 METAR KPAE 120253Z 35004KT 10SM CLR 16/06 A3012 RMK AO2 SLP199 T01610056 53001=
202305120153 METAR KPAE 120153Z 35006KT 10SM CLR 19/07 A3012 RMK AO2 SLP197 T01890067=
202305120053 METAR KPAE 120053Z 33007KT 10SM CLR 19/07 A3012 RMK AO2 SLP197 T01940067=
202305112353 METAR KPAE 112353Z 34006KT 10SM CLR 20/08 A3012 RMK AO2 SLP197 T02000083 10206 20161 56010=
202305112253 METAR KPAE 112253Z 35009KT 10SM CLR 20/08 A3013 RMK AO2 SLP201 T02000078=
202305112153 METAR KPAE 112153Z 01006KT 10SM CLR 20/08 A3014 RMK AO2 SLP204 T02000078=
202305112053 METAR KPAE 112053Z 31006KT 10SM CLR 18/08 A3015 RMK AO2 SLP208 T01830083 58007=
202305111953 METAR KPAE 111953Z 30007KT 270V330 10SM CLR 18/09 A3016 RMK AO2 SLP211 T01780089=
202305111853 METAR KPAE 111853Z 36005KT 10SM CLR 17/07 A3017 RMK AO2 SLP215 T01720067=
202305111753 METAR KPAE 111753Z 01004KT 10SM CLR 17/07 A3017 RMK AO2 SLP216 T01670067 10167 20100 50005=
202305111653 METAR KPAE 111653Z 36005KT 10SM CLR 15/07 A3017 RMK AO2 SLP216 T01500067=
202305111553 METAR KPAE 111553Z VRB03KT 10SM CLR 14/06 A3016 RMK AO2 SLP215 T01390056=
202305111453 METAR KPAE 111453Z 05004KT 10SM CLR 13/05 A3015 RMK AO2 SLP211 T01280050 53009=
202305111353 METAR KPAE 111353Z 06006KT 10SM CLR 11/05 A3015 RMK AO2 SLP207 T01110050=
202305111253 METAR KPAE 111253Z AUTO 05005KT 10SM CLR 11/04 A3013 RMK AO2 SLP201 T01060039=
202305111153 METAR KPAE 111153Z AUTO 03003KT 10SM CLR 10/03 A3013 RMK AO2 SLP201 T01000033 10117 20100 51007=
202305111053 METAR KPAE 111053Z AUTO 02005KT 10SM CLR 10/04 A3012 RMK AO2 SLP200 T01000039=
202305110953 METAR KPAE 110953Z AUTO 00000KT 10SM CLR 11/04 A3011 RMK AO2 SLP197 T01060039=
202305110853 METAR KPAE 110853Z AUTO 02006KT 10SM CLR 11/04 A3011 RMK AO2 SLP194 T01110039 53007=
202305110753 METAR KPAE 110753Z AUTO 04004KT 10SM CLR 12/04 A3010 RMK AO2 SLP192 T01170044 401940078=
202305110653 METAR KPAE 110653Z AUTO 35005KT 10SM CLR 11/04 A3009 RMK AO2 SLP190 T01110039=
202305110553 METAR KPAE 110553Z AUTO 36007KT 10SM CLR 11/04 A3009 RMK AO2 SLP188 T01110039 10194 20111 51015=
202305110453 METAR KPAE 110453Z AUTO 01004KT 10SM CLR 12/05 A3007 RMK AO2 SLP184 T01170050=
202305110353 METAR KPAE 110353Z 36006KT 10SM CLR 13/06 A3005 RMK AO2 SLP177 T01330061=
202305110253 METAR KPAE 110253Z 35006KT 10SM CLR 16/08 A3004 RMK AO2 SLP172 T01560078 53006=
202305110153 METAR KPAE 110153Z 34006KT 10SM CLR 18/06 A3003 RMK AO2 SLP168 T01830061=
202305110053 METAR KPAE 110053Z 35008KT 10SM CLR 19/06 A3003 RMK AO2 SLP168 T01890061=
202305102353 METAR KPAE 102353Z 35009KT 10SM CLR 19/08 A3002 RMK AO2 SLP166 T01890078 10189 20139 58012=
202305102253 METAR KPAE 102253Z 36007KT 10SM CLR 19/08 A3004 RMK AO2 SLP171 T01890078=
202305102153 METAR KPAE 102153Z 28007KT 250V320 10SM CLR 18/09 A3005 RMK AO2 SLP175 T01830089=
202305102053 METAR KPAE 102053Z 29007KT 260V330 10SM CLR 18/08 A3006 RMK AO2 SLP179 T01780083 58006=
202305101953 METAR KPAE 101953Z VRB05KT 10SM CLR 17/08 A3007 RMK AO2 SLP182 T01720078=
202305101853 METAR KPAE 101853Z 35005KT 10SM CLR 16/08 A3007 RMK AO2 SLP183 T01560083=
202305101753 METAR KPAE 101753Z 32006KT 10SM CLR 14/08 A3008 RMK AO2 SLP186 T01390078 10144 20078 58001=
202305101653 METAR KPAE 101653Z VRB04KT 10SM CLR 13/07 A3008 RMK AO2 SLP187 T01330072=
202305101553 METAR KPAE 101553Z 01003KT 10SM CLR 11/07 A3008 RMK AO2 SLP188 T01110072=
202305101453 METAR KPAE 101453Z 01003KT 10SM CLR 10/07 A3008 RMK AO2 SLP187 T01000067 53002=
202305101353 METAR KPAE 101353Z 00000KT 10SM CLR 09/06 A3008 RMK AO2 SLP187 T00890061=
202305101253 METAR KPAE 101253Z AUTO 36003KT 10SM CLR 08/05 A3007 RMK AO2 SLP184 T00780050=
202305101153 METAR KPAE 101153Z AUTO 02005KT 10SM CLR 08/05 A3008 RMK AO2 SLP186 T00830050 10100 20078 56004=
202305101053 METAR KPAE 101053Z AUTO 02004KT 10SM CLR 08/05 A3008 RMK AO2 SLP186 T00830050=
202305100953 METAR KPAE 100953Z AUTO 04004KT 10SM CLR 09/05 A3008 RMK AO2 SLP187 T00890050=
202305100853 METAR KPAE 100853Z AUTO 03004KT 10SM CLR 09/05 A3009 RMK AO2 SLP190 T00940050 58003=
202305100753 METAR KPAE 100753Z AUTO 02005KT 10SM CLR 09/06 A3010 RMK AO2 SLP195 T00940056 401670094=
202305100653 METAR KPAE 100653Z AUTO 35010KT 10SM CLR 10/06 A3010 RMK AO2 SLP192 T01000061=
202305100553 METAR KPAE 100553Z AUTO 01007KT 10SM CLR 10/06 A3010 RMK AO2 SLP193 T01000061 10167 20100 50004=
202305100453 METAR KPAE 100453Z AUTO 36003KT 10SM CLR 10/06 A3011 RMK AO2 SLP198 T01000056=
202305100353 METAR KPAE 100353Z AUTO 35005KT 10SM CLR 11/06 A3010 RMK AO2 SLP194 T01060061=
202305100253 METAR KPAE 100253Z 35006KT 10SM CLR 14/06 A3009 RMK AO2 SLP189 T01390061 55000=
202305100153 METAR KPAE 100153Z 35006KT 10SM CLR 16/03 A3008 RMK AO2 SLP185 T01560033=
202305100053 METAR KPAE 100053Z 30004KT 10SM CLR 16/07 A3008 RMK AO2 SLP185 T01610067=
202305092353 METAR KPAE 092353Z 27005KT 10SM CLR 16/07 A3009 RMK AO2 SLP188 T01610067 10161 20106 58011=
202305092253 METAR KPAE 092253Z AUTO 27006KT 10SM CLR 16/07 A3010 RMK AO2 SLP191 T01560072=
202305092153 METAR KPAE 092153Z VRB04KT 10SM SCT021 15/07 A3011 RMK AO2 SLP196 T01500072=
202305092053 METAR KPAE 092053Z 10SM SCT021 14/08 A3012 RMK AO2 SLP200 T01440078 58006=
202305092036 SPECI KPAE 092036Z 23004KT 10SM SCT021 14/08 A3013 RMK AO2 T01390083=
202305092013 SPECI KPAE 092013Z 28006KT 10SM BKN021 13/08 A3013 RMK AO2 T01330078=
202305091953 METAR KPAE 091953Z 28006KT 10SM OVC020 13/08 A3014 RMK AO2 SLP206 T01280078=
202305091853 METAR KPAE 091853Z 29005KT 10SM BKN015 OVC023 12/08 A3014 RMK AO2 SLP207 T01220078=
202305091753 METAR KPAE 091753Z 25005KT 10SM SCT009 OVC017 11/07 A3014 RMK AO2 SLP206 T01110072 10117 20100 51003=
202305091700 SPECI KPAE 091700Z 27005KT 10SM SCT009 OVC017 10/07 A3014 RMK AO2 T01000072=
202305091653 METAR KPAE 091653Z 29005KT 10SM BKN009 OVC014 10/07 A3013 RMK AO2 SLP205 T01000072=
202305091553 METAR KPAE 091553Z 24004KT 10SM OVC009 10/08 A3013 RMK AO2 CIG 007V013 SLP205 T01000078=
202305091505 SPECI KPAE 091505Z 20006KT 10SM BKN011 BKN055 OVC110 10/07 A3013 RMK AO2 T01000072=
202305091453 METAR KPAE 091453Z 21004KT 10SM SCT011 BKN070 OVC110 10/07 A3013 RMK AO2 SLP203 T01000067 53011=
202305091353 METAR KPAE 091353Z 15004KT 10SM OVC055 10/06 A3011 RMK AO2 SLP197 T01000056=
202305091313 SPECI KPAE 091313Z AUTO 00000KT 10SM SCT024 OVC055 10/06 A3010 RMK AO2 T01000056=
202305091306 SPECI KPAE 091306Z AUTO 00000KT 10SM BKN024 BKN041 OVC055 10/06 A3011 RMK AO2 T01000056=
202305091253 METAR KPAE 091253Z AUTO 10004KT 10SM FEW024 SCT039 OVC055 10/06 A3010 RMK AO2 SLP194 T01000056=
202305091153 METAR KPAE 091153Z AUTO 00000KT 10SM OVC039 10/05 A3009 RMK AO2 RAE26 SLP191 P0000 60000 T01000050 10106 20094 52013=
202305091053 METAR KPAE 091053Z AUTO 01005KT 10SM -RA OVC046 10/05 A3008 RMK AO2 RAB45 SLP186 P0000 T01000050=
202305090953 METAR KPAE 090953Z AUTO 00000KT 10SM FEW031 OVC060 10/05 A3007 RMK AO2 SLP182 T01000050=
202305090853 METAR KPAE 090853Z AUTO 00000KT 10SM BKN070 09/05 A3005 RMK AO2 SLP178 T00940050 53008=
202305090753 METAR KPAE 090753Z AUTO 01005KT 10SM CLR 10/06 A3004 RMK AO2 SLP174 T01000056 401670083=
202305090653 METAR KPAE 090653Z AUTO 01007KT 10SM CLR 10/06 A3003 RMK AO2 SLP170 T01000061=
202305090553 METAR KPAE 090553Z AUTO 02006KT 10SM CLR 10/07 A3003 RMK AO2 SLP169 T01000067 10167 20100 51012=
202305090453 METAR KPAE 090453Z AUTO 35006KT 10SM CLR 11/07 A3002 RMK AO2 SLP168 T01060067=
202305090353 METAR KPAE 090353Z 34006KT 10SM CLR 11/06 A3001 RMK AO2 SLP164 T01110056=
202305090253 METAR KPAE 090253Z 35005KT 10SM CLR 13/07 A2999 RMK AO2 SLP157 T01330067 53008=
202305090153 METAR KPAE 090153Z 33007KT 10SM CLR 15/06 A2998 RMK AO2 SLP152 T01500056=
202305090053 METAR KPAE 090053Z 36009KT 10SM CLR 16/06 A2997 RMK AO2 SLP150 T01610056=
202305082353 METAR KPAE 082353Z 35008KT 10SM CLR 16/06 A2997 RMK AO2 SLP148 T01610056 10167 20122 53001=
202305082253 METAR KPAE 082253Z 36009KT 10SM CLR 17/07 A2996 RMK AO2 SLP146 T01670067=
202305082153 METAR KPAE 082153Z 33008KT 10SM CLR 16/07 A2996 RMK AO2 SLP146 T01610067=
202305082053 METAR KPAE 082053Z 34009KT 10SM CLR 15/07 A2997 RMK AO2 SLP148 T01500067 58008=
202305081953 METAR KPAE 081953Z 34009KT 10SM CLR 14/07 A2998 RMK AO2 SLP153 T01440067=
202305081853 METAR KPAE 081853Z 35007KT 10SM CLR 13/07 A2999 RMK AO2 SLP156 T01330072=
202305081753 METAR KPAE 081753Z 01006KT 10SM OVC060 12/07 A2999 RMK AO2 SLP156 T01220067 10122 20083 56003=
202305081653 METAR KPAE 081653Z 36005KT 10SM BKN060 OVC075 11/07 A2999 RMK AO2 SLP157 T01110072=
202305081553 METAR KPAE 081553Z 32006KT 10SM OVC060 09/07 A3000 RMK AO2 SLP159 T00940067=
202305081453 METAR KPAE 081453Z 34004KT 10SM OVC060 09/07 A3000 RMK AO2 SLP159 T00940067 53001=
202305081353 METAR KPAE 081353Z VRB05KT 10SM OVC060 09/06 A2999 RMK AO2 SLP157 T00890061=
202305081253 METAR KPAE 081253Z AUTO 32004KT 10SM BKN075 OVC085 08/06 A2999 RMK AO2 SLP157 T00830061=
202305081153 METAR KPAE 081153Z AUTO 33003KT 10SM FEW070 OVC095 09/06 A3000 RMK AO2 SLP158 T00890061 10094 20083 55005=
202305081053 METAR KPAE 081053Z AUTO 34003KT 10SM BKN090 09/06 A2999 RMK AO2 SLP158 T00890061=
202305080953 METAR KPAE 080953Z AUTO 34004KT 10SM FEW070 FEW085 OVC110 09/06 A3000 RMK AO2 SLP160 T00940061=
202305080853 METAR KPAE 080853Z AUTO 00000KT 10SM OVC100 09/07 A3001 RMK AO2 SLP163 T00940067 58006=
202305080753 METAR KPAE 080753Z AUTO 36004KT 10SM FEW120 09/07 A3002 RMK AO2 SLP166 T00940067 401560089=
202305080653 METAR KPAE 080653Z AUTO 01006KT 10SM BKN065 09/07 A3003 RMK AO2 SLP169 T00940067=
202305080553 METAR KPAE 080553Z AUTO 35006KT 10SM CLR 09/07 A3003 RMK AO2 SLP170 T00940067 10150 20094 50003=
202305080453 METAR KPAE 080453Z AUTO 35008KT 10SM CLR 10/07 A3003 RMK AO2 SLP172 T01000067=
202305080353 METAR KPAE 080353Z AUTO 35008G18KT 10SM CLR 10/07 A3003 RMK AO2 SLP170 T01000067=
202305080253 METAR KPAE 080253Z 35007KT 10SM CLR 12/07 A3002 RMK AO2 SLP167 T01170072 58005=
202305080153 METAR KPAE 080153Z 30006KT 10SM CLR 14/06 A3003 RMK AO2 SLP169 T01440061=
202305080053 METAR KPAE 080053Z 28007KT 10SM CLR 15/06 A3003 RMK AO2 SLP171 T01500056=
202305072353 METAR KPAE 072353Z 24007KT 10SM BKN055 15/06 A3004 RMK AO2 SLP172 T01500061 10156 20111 58004=
202305072253 METAR KPAE 072253Z AUTO VRB06KT 10SM CLR 16/06 A3004 RMK AO2 SLP174 T01560061=
202305072153 METAR KPAE 072153Z 26009KT 10SM CLR 15/07 A3005 RMK AO2 SLP176 T01500067=
202305072100 SPECI KPAE 072100Z 22007KT 10SM FEW060 14/07 A3005 RMK AO2 T01440067=
202305072053 METAR KPAE 072053Z 23006KT 10SM BKN020 14/07 A3005 RMK AO2 SLP176 T01390072 56001=
202305071953 METAR KPAE 071953Z 24008KT 10SM BKN020 14/07 A3005 RMK AO2 SLP176 T01390072=
202305071853 METAR KPAE 071853Z 27006KT 10SM BKN020 13/07 A3005 RMK AO2 SLP175 T01280072=
202305071753 METAR KPAE 071753Z 22007KT 10SM BKN016 12/07 A3005 RMK AO2 SLP177 T01170072 10117 20094 50003=
202305071653 METAR KPAE 071653Z 23009KT 10SM OVC013 10/07 A3005 RMK AO2 SLP177 T01000067=
202305071553 METAR KPAE 071553Z 20010KT 10SM SCT009 OVC010 09/07 A3005 RMK AO2 SLP177 T00940067=
202305071453 METAR KPAE 071453Z 20009KT 10SM BKN012 OVC050 09/07 A3004 RMK AO2 SLP174 T00940067 53006=
202305071437 SPECI KPAE 071437Z 21005KT 10SM BKN013 OVC050 09/07 A3004 RMK AO2 T00940072=
202305071353 METAR KPAE 071353Z 18008KT 10SM OVC047 09/07 A3003 RMK AO2 SLP169 T00940067=
202305071253 METAR KPAE 071253Z AUTO 18008KT 10SM OVC043 09/07 A3002 RMK AO2 SLP168 T00940067=
202305071153 METAR KPAE 071153Z AUTO 17005KT 10SM FEW005 BKN042 09/07 A3002 RMK AO2 SLP168 70010 T00940072 10100 20089 51004=
202305071141 SPECI KPAE 071141Z AUTO 16005KT 10SM SCT005 BKN040 BKN060 09/08 A3002 RMK AO2 T00940078=
202305071113 SPECI KPAE 071113Z AUTO 00000KT 10SM OVC004 09/08 A3002 RMK AO2 T00940078=
202305071103 SPECI KPAE 071103Z AUTO 00000KT 10SM BKN006 09/08 A3002 RMK AO2 T00940078=
202305071053 METAR KPAE 071053Z AUTO 16003KT 10SM SCT006 SCT050 BKN060 09/07 A3002 RMK AO2 SLP167 T00890072=
202305071041 SPECI KPAE 071041Z AUTO 00000KT 10SM SCT004 SCT050 BKN060 09/07 A3002 RMK AO2 T00890072=
202305071005 SPECI KPAE 071005Z AUTO 00000KT 10SM OVC005 09/08 A3002 RMK AO2 CIG 004V009 T00940078=
202305070953 METAR KPAE 070953Z AUTO 22004KT 9SM OVC004 09/08 A3002 RMK AO2 SLP167 T00940083=
202305070928 SPECI KPAE 070928Z AUTO 00000KT 9SM OVC004 10/08 A3002 RMK AO2 CIG 002V007 T01000083=
202305070903 SPECI KPAE 070903Z AUTO 00000KT 10SM BKN006 OVC011 09/08 A3002 RMK AO2 CIG 005V009 T00940078=
202305070853 METAR KPAE 070853Z AUTO 00000KT 10SM SCT006 BKN012 OVC017 09/08 A3001 RMK AO2 SLP164 T00940078 51006=
202305070829 SPECI KPAE 070829Z AUTO 00000KT 10SM BKN007 BKN014 09/08 A3001 RMK AO2 CIG 005V010 T00890078=
202305070815 SPECI KPAE 070815Z AUTO 00000KT 10SM SCT003 BKN015 09/08 A3001 RMK AO2 T00890078=
202305070753 METAR KPAE 070753Z AUTO 00000KT 10SM OVC003 09/08 A3001 RMK AO2 SLP162 T00940078 401440083=
202305070743 SPECI KPAE 070743Z AUTO 00000KT 10SM BKN003 BKN014 OVC036 09/08 A3001 RMK AO2 T00940078=
202305070733 SPECI KPAE 070733Z AUTO 36003KT 10SM SCT003 BKN014 OVC037 09/08 A3001 RMK AO2 T00940078=
202305070714 SPECI KPAE 070714Z AUTO 33003KT 10SM BKN014 OVC036 09/08 A3001 RMK AO2 T00940083=
202305070653 METAR KPAE 070653Z AUTO 36003KT 10SM BKN015 BKN026 OVC035 10/08 A3000 RMK AO2 SLP161 T01000083=
202305070628 SPECI KPAE 070628Z AUTO 36004KT 10SM FEW002 BKN028 OVC060 10/08 A3000 RMK AO2 T01000083=
202305070553 METAR KPAE 070553Z AUTO 02005KT 10SM FEW014 BKN035 OVC060 10/08 A2999 RMK AO2 SLP159 60004 T01000083 10144 20100 50003=
202305070545 SPECI KPAE 070545Z AUTO 01003KT 10SM FEW012 BKN025 OVC060 10/08 A2999 RMK AO2 T01000083=
202305070510 SPECI KPAE 070510Z AUTO 36003KT 10SM BKN013 OVC065 11/09 A3000 RMK AO2 T01060089=
202305070453 METAR KPAE 070453Z AUTO 35003KT 10SM FEW025 OVC065 11/09 A3000 RMK AO2 RAB14E30 SLP159 P0000 T01060089=
202305070353 METAR KPAE 070353Z 34004KT 10SM FEW027 OVC037 11/09 A2999 RMK AO2 RAE20 SLP158 P0002 T01060089=
202305070253 METAR KPAE 070253Z 33007KT 3SM RA BR FEW029 BKN038 OVC047 11/09 A2998 RMK AO2 RAB41 SLP155 P0002 60002 T01110089 51006=
202305070153 METAR KPAE 070153Z 10SM FEW014 BKN050 13/09 A2998 RMK AO2 RAB13E34 SLP153 P0000 T01280089=
202305070127 SPECI KPAE 070127Z 10SM -RA FEW017 BKN032 OVC048 13/09 A2997 RMK AO2 RAB13 P0000 T01330089=
202305070053 METAR KPAE 070053Z 10SM SCT024 BKN029 OVC050 14/09 A2997 RMK AO2 RAE10 SLP150 P0000 T01390089=
202305070041 SPECI KPAE 070041Z 10SM SCT023 BKN029 OVC050 13/09 A2997 RMK AO2 RAE10 P0000 T01330089=
202305062353 METAR KPAE 062353Z 10SM -RA BKN060 OVC070 13/09 A2997 RMK AO2 RAB47 SLP148 P0000 60000 T01330089 10139 20094 58002=
202305062253 METAR KPAE 062253Z 10SM FEW017 SCT038 OVC055 13/09 A2997 RMK AO2 RAB28E37 SLP149 P0000 T01330089=
202305062251 SPECI KPAE 062251Z 10SM FEW015 SCT037 OVC055 13/09 A2997 RMK AO2 RAB28E37 P0000=
202305062209 SPECI KPAE 062209Z 01006KT 10SM BKN015 OVC034 13/09 A2997 RMK AO2 T01280089=
202305062153 METAR KPAE 062153Z 36004KT 10SM OVC013 13/09 A2997 RMK AO2 SLP150 T01280089=
202305062129 SPECI KPAE 062129Z 01005KT 10SM FEW008 BKN013 OVC031 12/09 A2997 RMK AO2 T01220089=
202305062117 SPECI KPAE 062117Z 35005KT 10SM FEW008 BKN018 OVC041 12/09 A2997 RMK AO2 T01220089=
202305062053 METAR KPAE 062053Z 00000KT 10SM SCT016 OVC033 13/08 A2997 RMK AO2 SLP150 T01280083 58004=
202305062000 SPECI KPAE 062000Z 00000KT 10SM SCT016 OVC033 12/09 A2998 RMK AO2 T01170089=
202305061953 METAR KPAE 061953Z 03003KT 10SM BKN009 BKN016 BKN033 12/09 A2998 RMK AO2 SLP153 T01170089=
202305061853 METAR KPAE 061853Z 00000KT 10SM BKN006 BKN018 OVC024 10/08 A2998 RMK AO2 SLP155 T01000078=
202305061845 SPECI KPAE 061845Z 00000KT 10SM SCT006 BKN018 OVC024 10/08 A2998 RMK AO2 T01000078=
202305061753 METAR KPAE 061753Z 17004KT 10SM OVC005 09/08 A2998 RMK AO2 CIG 003V009 SLP154 60006 T00940078 10094 20083 53004=
202305061700 SPECI KPAE 061700Z 19006KT 10SM OVC005 09/08 A2997 RMK AO2 T00890078=
202305061653 METAR KPAE 061653Z 22006KT 2SM BR OVC004 09/08 A2997 RMK AO2 RAB13E22 SLP151 P0001 T00940078=
202305061600 SPECI KPAE 061600Z 21005KT 2SM BR OVC004 09/07 A2997 RMK AO2 T00890072=
202305061553 METAR KPAE 061553Z 20005KT 2SM BR OVC007 09/07 A2997 RMK AO2 RAE1454 SLP150 P0000 T00890072=
202305061453 METAR KPAE 061453Z 15005KT 2SM -RA BR SCT002 OVC007 09/07 A2997 RMK AO2 SLP149 P0000 60005 T00890067 53002=
202305061353 METAR KPAE 061353Z 00000KT 7SM -RA BKN005 OVC014 09/07 A2996 RMK AO2 SLP146 P0004 T00890072=
202305061343 SPECI KPAE 061343Z 10003KT 6SM -RA BR BKN005 OVC014 08/07 A2996 RMK AO2 CIG 002V007 P0003 T00830072=
202305061305 SPECI KPAE 061305Z AUTO 35003KT 8SM -RA OVC004 08/07 A2995 RMK AO2 CIG 002V006 P0001 T00830072=
202305061253 METAR KPAE 061253Z AUTO 00000KT 8SM -RA BKN006 OVC012 08/07 A2995 RMK AO2 RAE1159B30 CIG 002V007 SLP145 P0001 T00830072=
202305061235 SPECI KPAE 061235Z AUTO 00000KT 10SM -RA SCT005 OVC013 08/07 A2996 RMK AO2 RAE1159B30 P0000 T00830072=
202305061153 METAR KPAE 061153Z AUTO 06003KT 10SM -RA OVC005 08/07 A2996 RMK AO2 SLP147 P0001 60011 70060 T00830072 10094 20083 58001=
202305061137 SPECI KPAE 061137Z AUTO 00000KT 9SM -RA OVC005 08/07 A2996 RMK AO2 P0001 T00830072=
202305061117 SPECI KPAE 061117Z AUTO 00000KT 9SM -RA OVC004 08/07 A2996 RMK AO2 P0001 T00830072=
202305061053 METAR KPAE 061053Z AUTO 36003KT 10SM -RA OVC005 08/07 A2996 RMK AO2 RAE04B35 CIG 003V007 SLP147 P0000 T00830072=
202305061030 SPECI KPAE 061030Z AUTO 06003KT 10SM BKN005 OVC011 08/07 A2996 RMK AO2 RAE04 CIG 002V009 P0000 T00830072=
202305060953 METAR KPAE 060953Z AUTO 03004KT 4SM -RA BR FEW005 OVC010 08/07 A2996 RMK AO2 RAE0856B49 CIG 007V013 SLP148 P0001 T00830072=
202305060937 SPECI KPAE 060937Z AUTO 01004KT 3SM BR SCT005 OVC010 08/07 A2997 RMK AO2 RAE0856 P0000 T00830072=
202305060918 SPECI KPAE 060918Z AUTO VRB03KT 2 1/2SM BR OVC005 08/07 A2996 RMK AO2 RAE0856 P0000 T00830072=
202305060853 METAR KPAE 060853Z AUTO 01004KT 3SM -RA BR BKN003 OVC008 08/07 A2996 RMK AO2 SLP148 P0002 60009 T00830072 58002=
202305060843 SPECI KPAE 060843Z AUTO 02004KT 3SM -RA BR OVC003 08/07 A2996 RMK AO2 P0001 T00830072=
202305060753 METAR KPAE 060753Z AUTO 02003KT 2 1/2SM -RA BR BKN003 OVC012 08/07 A2996 RMK AO2 SLP148 P0004 T00830072 401060083=
202305060719 SPECI KPAE 060719Z AUTO 00000KT 2 1/2SM -RA BR BKN002 BKN007 OVC011 08/08 A2997 RMK AO2 P0002 T00830078=
202305060712 SPECI KPAE 060712Z AUTO 00000KT 2SM -RA BR SCT002 BKN007 OVC011 08/08 A2997 RMK AO2 P0001 T00830078=
202305060659 SPECI KPAE 060659Z AUTO 34003KT 3SM -RA BR SCT002 OVC011 08/07 A2997 RMK AO2 P0000 T00830072=
202305060653 METAR KPAE 060653Z AUTO 34003KT 2 1/2SM -RA BR BKN002 OVC011 08/08 A2997 RMK AO2 SLP149 P0003 T00830078=
202305060648 SPECI KPAE 060648Z AUTO 34003KT 2 1/2SM -RA BR BKN002 OVC010 08/07 A2997 RMK AO2 P0003=
202305060633 SPECI KPAE 060633Z AUTO 34003KT 3SM -RA BR BKN003 OVC006 08/08 A2997 RMK AO2 P0002 T00830078=
202305060626 SPECI KPAE 060626Z AUTO 34003KT 2 1/2SM -RA BR OVC003 08/07 A2997 RMK AO2 CIG 002V006 P0002 T00830072=
202305060553 METAR KPAE 060553Z AUTO 20004KT 2 1/2SM -RA BR OVC006 09/08 A2996 RMK AO2 RAB0454E19B46 SLP147 P0002 60005 T00940078 10106 20094 50005=
202305060511 SPECI KPAE 060511Z AUTO 20004KT 4SM -RA BR OVC009 09/08 A2996 RMK AO2 RAB0454 CIG 005V012 P0001 T00940078=
202305060501 SPECI KPAE 060501Z AUTO 20003KT 3SM -RA BR SCT006 OVC011 09/08 A2996 RMK AO2 RAB0454 P0001 T00940078=
202305060453 METAR KPAE 060453Z AUTO 19005KT 6SM BR OVC009 09/08 A2996 RMK AO2 RAE02 CIG 005V011 SLP148 P0000 T00940078=
202305060411 SPECI KPAE 060411Z AUTO 18006KT 10SM BKN008 OVC011 09/08 A2996 RMK AO2 RAE02 CIG 005V011 P0000 T00940078=
202305060353 METAR KPAE 060353Z 18005KT 10SM -RA SCT006 BKN010 OVC034 10/08 A2996 RMK AO2 RAB0256 SLP146 P0001 T01000083=
202305060253 METAR KPAE 060253Z 18007KT 10SM BKN012 BKN019 OVC040 10/08 A2995 RMK AO2 RAE00 SLP142 P0000 60002 T01000083 51008=
202305060246 SPECI KPAE 060246Z 19006KT 10SM FEW012 BKN017 OVC040 10/08 A2994 RMK AO2 RAE00 P0000 T01000083=
202305060200 SPECI KPAE 060200Z 20007KT 10SM FEW007 OVC011 10/08 A2994 RMK AO2 RAE00 P0000 T01000083=
202305060153 METAR KPAE 060153Z 20006KT 5SM -RA BR BKN009 OVC017 10/08 A2994 RMK AO2 SLP140 P0000 T01000083=
202305060053 METAR KPAE 060053Z 19008KT 3SM -RA BR BKN007 BKN017 10/08 A2993 RMK AO2 SLP136 P0002 T01000083=
202305052353 METAR KPAE 052353Z 19007KT 3SM -RA BR BKN007 BKN017 OVC027 10/08 A2992 RMK AO2 SLP134 P0002 60023 T01000083 10106 20094 51011=
202305052253 METAR KPAE 052253Z 20007KT 9SM -RA BKN009 OVC015 11/08 A2991 RMK AO2 SLP132 P0003 T01060083=
202305052209 SPECI KPAE 052209Z 19008KT 4SM -RA BR OVC009 10/08 A2991 RMK AO2 P0001 T01000083=
202305052153 METAR KPAE 052153Z 19010KT 10SM -RA BR OVC008 10/08 A2991 RMK AO2 CIG 006V013 SLP130 P0002 T01000083=
202305052053 METAR KPAE 052053Z 19010KT 3SM -RA BR BKN007 OVC014 10/08 A2989 RMK AO2 SLP123 P0008 60016 T01000083 53013=
202305052043 SPECI KPAE 052043Z 18009KT 2 1/2SM -RA BR BKN007 OVC014 10/08 A2989 RMK AO2 P0006 T01000083=
202305052033 SPECI KPAE 052033Z 19010KT 3SM -RA BR BKN007 OVC015 10/08 A2988 RMK AO2 P0005 T01000083=
202305052000 SPECI KPAE 052000Z 18010KT 2 1/2SM -RA BR BKN009 OVC012 09/08 A2988 RMK AO2 CIG 006V010 P0001 T00940078=
202305051953 METAR KPAE 051953Z 18011KT 5SM -RA BR OVC009 09/08 A2988 RMK AO2 SLP119 P0003 T00940078=
202305051853 METAR KPAE 051853Z 18011KT 5SM -RA BR BKN009 OVC013 09/08 A2986 RMK AO2 CIG 006V012 SLP113 P0005 T00940078=
202305051753 METAR KPAE 051753Z 19010KT 4SM -RA BR BKN006 OVC011 09/08 A2985 RMK AO2 SLP109 P0006 60021 T00940078 10094 20089 53011=
202305051653 METAR KPAE 051653Z 18009KT 4SM -RA BR BKN006 OVC011 09/08 A2984 RMK AO2 CIG 005V010 SLP105 P0002 T00940078=
202305051642 SPECI KPAE 051642Z 18008KT 2 1/2SM -RA BR BKN006 OVC015 09/08 A2984 RMK AO2 P0001 T00940078=
202305051630 SPECI KPAE 051630Z 16008KT 4SM -RA BR BKN008 BKN012 OVC018 09/08 A2983 RMK AO2 P0001 T00940078=
202305051621 SPECI KPAE 051621Z 16008KT 6SM -RA BR BKN010 OVC018 09/08 A2983 RMK AO2 P0001 T00940078=
202305051602 SPECI KPAE 051602Z 17012KT 4SM -RA BR BKN008 OVC014 09/08 A2983 RMK AO2 P0000 T00940078=
202305051553 METAR KPAE 051553Z 17008KT 2 1/2SM -RA BR OVC008 09/08 A2983 RMK AO2 SLP102 P0002 T00940078=
202305051453 METAR KPAE 051453Z 16007KT 3SM -RA BR SCT003 BKN006 OVC010 09/08 A2982 RMK AO2 SLP098 P0001 60011 T00890078 53003=
202305051353 METAR KPAE 051353Z 17011KT 4SM -RA BR BKN008 OVC015 09/07 A2981 RMK AO2 SLP096 P0004 T00890072=
202305051306 SPECI KPAE 051306Z AUTO 17010KT 7SM -RA BKN008 OVC012 09/07 A2981 RMK AO2 CIG 005V010 P0001 T00890072=
202305051253 METAR KPAE 051253Z AUTO 17008KT 7SM -RA OVC010 09/07 A2981 RMK AO2 CIG 006V014 SLP096 P0006 T00890072=
202305051249 SPECI KPAE 051249Z AUTO 17009KT 7SM -RA OVC010 09/07 A2981 RMK AO2 CIG 006V012 P0006=
202305051216 SPECI KPAE 051216Z AUTO 16009KT 8SM -RA BKN007 OVC017 09/07 A2981 RMK AO2 CIG 006V012 P0002 T00890072=
202305051153 METAR KPAE 051153Z AUTO 16009KT 6SM -RA BR BKN010 BKN015 OVC020 09/07 A2981 RMK AO2 CIG 006V012 SLP094 P0007 60027 70027 T00890072 10094 20089 53003=
202305051119 SPECI KPAE 051119Z AUTO 16009KT 7SM -RA BKN010 OVC014 09/07 A2980 RMK AO2 CIG 006V012 P0003 T00890072=
202305051053 METAR KPAE 051053Z AUTO 17008KT 9SM -RA BKN009 OVC013 09/07 A2979 RMK AO2 CIG 007V011 SLP089 P0004 T00890072=
202305051033 SPECI KPAE 051033Z AUTO 17010KT 10SM -RA BKN009 OVC014 09/07 A2979 RMK AO2 P0003 T00890072=
202305051024 SPECI KPAE 051024Z AUTO 18010KT 10SM -RA SCT009 OVC014 09/07 A2979 RMK AO2 P0002 T00890072=
202305051016 SPECI KPAE 051016Z AUTO 18011KT 10SM -RA BKN011 OVC019 09/07 A2978 RMK AO2 P0001 T00890072=
202305051009 SPECI KPAE 051009Z AUTO 19013KT 10SM -RA SCT009 OVC015 09/07 A2978 RMK AO2 P0001 T00890072=
202305050953 METAR KPAE 050953Z AUTO 19014KT 10SM -RA OVC008 09/07 A2978 RMK AO2 CIG 004V014 SLP086 P0002 T00890072=
202305050907 SPECI KPAE 050907Z AUTO 16008KT 6SM -RA BR BKN008 OVC013 09/08 A2980 RMK AO2 P0001 T00940078=
202305050853 METAR KPAE 050853Z AUTO 15010KT 4SM RA BR SCT006 BKN010 OVC015 09/08 A2980 RMK AO2 RAB03 SLP090 P0012 60014 T00940078 58003=
202305050846 SPECI KPAE 050846Z AUTO 16009KT 3SM RA BR FEW006 BKN012 OVC017 09/08 A2979 RMK AO2 RAB03 P0011 T00940078=
202305050836 SPECI KPAE 050836Z AUTO 15010KT 2 1/2SM RA BR SCT008 OVC017 09/08 A2979 RMK AO2 RAB03 P0007 T00940078=
202305050753 METAR KPAE 050753Z AUTO 17011KT 7SM OVC007 09/08 A2980 RMK AO2 RAE0655 CIG 005V010 SLP092 P0001 T00940078 401440094=
202305050719 SPECI KPAE 050719Z AUTO 17009KT 4SM BR BKN006 BKN013 OVC018 09/08 A2980 RMK AO2 RAE0655 P0001 T00940078=
202305050653 METAR KPAE 050653Z AUTO 17010KT 4SM -RA BR SCT008 BKN011 OVC016 09/08 A2980 RMK AO2 RAB14 SLP092 P0001 T00940078=
202305050639 SPECI KPAE 050639Z AUTO 16008KT 3SM -RA BR BKN006 BKN010 OVC016 09/08 A2981 RMK AO2 RAB14 CIG 005V008 P0001 T00940078=
202305050631 SPECI KPAE 050631Z AUTO 15009KT 2 1/2SM -RA BR BKN009 OVC016 09/08 A2981 RMK AO2 RAB14 CIG 005V012 P0001 T00940078=
202305050553 METAR KPAE 050553Z AUTO 16009KT 6SM BR BKN008 OVC011 09/08 A2980 RMK AO2 CIG 006V009 SLP093 T00940078 10122 20094 51009=
202305050523 SPECI KPAE 050523Z AUTO 18010KT 9SM BKN008 BKN013 OVC020 10/08 A2979 RMK AO2 T01000083=
202305050515 SPECI KPAE 050515Z AUTO 18010KT 9SM SCT008 BKN013 OVC020 09/08 A2979 RMK AO2 T00940078=
202305050453 METAR KPAE 050453Z AUTO 18013KT 7SM OVC008 09/08 A2979 RMK AO2 CIG 006V013 SLP089 T00940078=
202305050353 METAR KPAE 050353Z AUTO 17009KT 4SM BR OVC008 10/08 A2979 RMK AO2 CIG 006V012 SLP089 T01000083=
202305050253 METAR KPAE 050253Z 15010KT 3SM BR OVC009 10/08 A2978 RMK AO2 SLP083 T01000083 53009=
202305050216 SPECI KPAE 050216Z 17008G17KT 3SM BR OVC009 11/08 A2977 RMK AO2 T01060083=
202305050153 METAR KPAE 050153Z 16008KT 3SM BR OVC010 11/08 A2976 RMK AO2 SLP079 T01060083=
202305050053 METAR KPAE 050053Z 18015G23KT 3SM HZ OVC010 11/08 A2976 RMK AO2 SLP078 T01110083=
202305042353 METAR KPAE 042353Z 19013G20KT 10SM OVC013 12/08 A2975 RMK AO2 SLP074 T01220083 10144 20117 58003=
202305042253 METAR KPAE 042253Z 21011KT 10SM OVC014 13/08 A2976 RMK AO2 SLP077 T01280083=
202305042250 SPECI KPAE 042250Z 20011KT 10SM OVC014 12/08 A2976 RMK AO2=
202305042153 METAR KPAE 042153Z 19010KT 10SM OVC028 13/08 A2976 RMK AO2 SLP077 T01330083=
202305042053 METAR KPAE 042053Z 23009KT 10SM OVC017 12/09 A2977 RMK AO2 SLP080 T01170089 51004=
202305041953 METAR KPAE 041953Z 26006KT 10SM BKN014 OVC040 13/09 A2976 RMK AO2 SLP077 T01280094=
202305041909 SPECI KPAE 041909Z 27005KT 10SM BKN014 OVC040 13/09 A2977 RMK AO2 T01280089=
202305041901 SPECI KPAE 041901Z 27005KT 10SM SCT012 SCT019 OVC040 13/09 A2977 RMK AO2 T01280094=
202305041853 METAR KPAE 041853Z 29006KT 10SM BKN014 OVC040 13/09 A2977 RMK AO2 SLP080 T01280089=
202305041753 METAR KPAE 041753Z 00000KT 10SM FEW008 BKN014 OVC038 14/09 A2975 RMK AO2 SLP074 60000 T01390089 10144 20100 58012=
202305041706 SPECI KPAE 041706Z 11004KT 10SM FEW004 SCT008 BKN029 12/09 A2977 RMK AO2 T01220089=
202305041658 SPECI KPAE 041658Z 19004KT 10SM FEW004 BKN008 OVC029 12/08 A2977 RMK AO2 T01170083=
202305041653 METAR KPAE 041653Z 15007KT 10SM OVC004 12/08 A2978 RMK AO2 SLP086 T01170083=
202305041553 METAR KPAE 041553Z 22007KT 10SM OVC004 11/09 A2980 RMK AO2 SLP090 T01110089=
202305041546 SPECI KPAE 041546Z 10SM OVC004 11/09 A2980 RMK AO2 T01110089=
202305041453 METAR KPAE 041453Z 21005KT 10SM SCT003 OVC006 11/09 A2979 RMK AO2 SLP086 60000 T01110089 53001=
202305041434 SPECI KPAE 041434Z 00000KT 10SM BKN003 BKN080 BKN110 11/09 A2978 RMK AO2 T01060094=
202305041402 SPECI KPAE 041402Z 00000KT 10SM FEW005 11/09 A2976 RMK AO2 T01060089=
202305041353 METAR KPAE 041353Z 00000KT 10SM CLR 11/09 A2977 RMK AO2 SLP079 T01060089=
202305041317 SPECI KPAE 041317Z AUTO 00000KT 10SM SCT010 11/08 A2977 RMK AO2 T01060083=
202305041253 METAR KPAE 041253Z AUTO 00000KT 10SM BKN012 BKN110 11/08 A2979 RMK AO2 RAE25 SLP088 P0000 T01060083=
202305041239 SPECI KPAE 041239Z AUTO 00000KT 10SM FEW007 SCT012 BKN110 11/08 A2979 RMK AO2 RAE25 P0000 T01060083=
202305041153 METAR KPAE 041153Z AUTO 35003KT 10SM -RA FEW047 SCT100 SCT120 11/08 A2978 RMK AO2 RAB52 SLP085 P0000 60000 T01060083 10139 20100 58009=
202305041053 METAR KPAE 041053Z AUTO 00000KT 10SM CLR 11/08 A2979 RMK AO2 SLP088 T01060078=
202305040953 METAR KPAE 040953Z AUTO 27008KT 10SM OVC075 12/08 A2981 RMK AO2 PRESFR SLP091 T01170083=
202305040853 METAR KPAE 040853Z AUTO 16011KT 10SM OVC075 13/08 A2981 RMK AO2 SLP093 T01280078 51006=
202305040753 METAR KPAE 040753Z AUTO 11004KT 10SM FEW047 BKN060 OVC075 13/08 A2981 RMK AO2 SLP093 T01280078 402000111=
202305040653 METAR KPAE 040653Z AUTO 21004KT 10SM SCT055 OVC070 13/10 A2983 RMK AO2 SLP101 T01280100=
202305040553 METAR KPAE 040553Z AUTO 01004KT 10SM FEW060 12/09 A2979 RMK AO2 SLP088 T01170094 10194 20117 51030=
202305040453 METAR KPAE 040453Z AUTO 36005KT 10SM CLR 12/09 A2977 RMK AO2 LTG DSNT SW SLP080 T01220089=
202305040353 METAR KPAE 040353Z 03003KT 10SM CLR 14/10 A2973 RMK AO2 SLP066 T01440100=
202305040253 METAR KPAE 040253Z 32004KT 10SM CLR 16/10 A2970 RMK AO2 SLP057 T01560100 55001=
202305040153 METAR KPAE 040153Z 35004KT 10SM CLR 18/10 A2969 RMK AO2 SLP052 T01780100=
202305040053 METAR KPAE 040053Z 35005KT 10SM CLR 19/11 A2969 RMK AO2 SLP053 T01890106=
202305032353 METAR KPAE 032353Z 35009KT 10SM CLR 18/10 A2971 RMK AO2 SLP057 T01830100 10200 20161 56018=
202305032253 METAR KPAE 032253Z AUTO 35008KT 10SM CLR 19/11 A2972 RMK AO2 SLP061 T01890106=
202305032153 METAR KPAE 032153Z 35009KT 10SM CLR 19/11 A2973 RMK AO2 SLP066 T01890106=
202305032053 METAR KPAE 032053Z 29006KT 10SM CLR 19/11 A2976 RMK AO2 SLP076 T01890111 58018=
202305031953 METAR KPAE 031953Z 30006KT 10SM CLR 18/11 A2978 RMK AO2 SLP082 T01830111=
202305031853 METAR KPAE 031853Z 27006KT 10SM CLR 17/11 A2980 RMK AO2 SLP090 T01720106=
202305031753 METAR KPAE 031753Z 31004KT 10SM CLR 17/10 A2981 RMK AO2 SLP094 T01670100 10172 20111 57016=
202305031653 METAR KPAE 031653Z 35004KT 10SM CLR 15/09 A2983 RMK AO2 SLP100 T01500089=
202305031553 METAR KPAE 031553Z VRB03KT 10SM CLR 15/09 A2985 RMK AO2 SLP105 T01500094=
202305031453 METAR KPAE 031453Z 00000KT 10SM CLR 12/09 A2986 RMK AO2 SLP111 T01220089 57005=
202305031353 METAR KPAE 031353Z 20004KT 10SM CLR 12/08 A2987 RMK AO2 SLP114 T01170083=
202305031253 METAR KPAE 031253Z AUTO 23005KT 10SM CLR 11/08 A2987 RMK AO2 SLP114 T01110083=
202305031153 METAR KPAE 031153Z AUTO 24005KT 10SM CLR 12/09 A2988 RMK AO2 SLP116 T01170089 10172 20111 58006=
202305031053 METAR KPAE 031053Z AUTO 20006KT 10SM CLR 12/09 A2989 RMK AO2 SLP119 T01170089=
202305030953 METAR KPAE 030953Z AUTO 16006KT 10SM CLR 13/09 A2990 RMK AO2 SLP122 T01280089=
202305030853 METAR KPAE 030853Z AUTO 16009KT 10SM CLR 13/09 A2990 RMK AO2 SLP123 T01330089 51017=
202305030753 METAR KPAE 030753Z AUTO 18014KT 10SM CLR 14/09 A2989 RMK AO2 SLP121 T01440089 402000100=
202305030653 METAR KPAE 030653Z AUTO 16012G19KT 10SM CLR 16/10 A2987 RMK AO2 SLP113 T01610100=
202305030553 METAR KPAE 030553Z AUTO 17007KT 10SM CLR 17/10 A2985 RMK AO2 SLP107 T01720100 10200 20161 51025=
202305030453 METAR KPAE 030453Z AUTO 18007KT 10SM CLR 16/10 A2983 RMK AO2 SLP100 T01610100=
202305030353 METAR KPAE 030353Z AUTO 19008KT 10SM CLR 17/10 A2980 RMK AO2 SLP090 T01720100=
202305030253 METAR KPAE 030253Z 22006KT 10SM CLR 18/11 A2977 RMK AO2 SLP081 T01830106 53013=
202305030153 METAR KPAE 030153Z 27006KT 10SM CLR 19/11 A2975 RMK AO2 SLP074 T01940106=
202305030053 METAR KPAE 030053Z VRB04KT 10SM CLR 19/11 A2974 RMK AO2 SLP069 T01940106=
202305022353 METAR KPAE 022353Z 02008KT 10SM CLR 19/10 A2973 RMK AO2 SLP067 T01940100 10194 20117 50000=
202305022253 METAR KPAE 022253Z 35006KT 10SM CLR 19/10 A2974 RMK AO2 SLP070 T01890100=
202305022153 METAR KPAE 022153Z VRB04KT 10SM CLR 18/11 A2973 RMK AO2 SLP068 T01780106=
202305022053 METAR KPAE 022053Z VRB05KT 10SM CLR 16/10 A2973 RMK AO2 SLP068 T01610100 58010=
202305022030 SPECI KPAE 022030Z 01007KT 10SM SCT014 16/10 A2974 RMK AO2 T01560100=
202305021953 METAR KPAE 021953Z 03006KT 10SM BKN012 15/09 A2975 RMK AO2 SLP072 T01500094=
202305021908 SPECI KPAE 021908Z 36008KT 320V030 10SM FEW008 OVC013 13/09 A2975 RMK AO2 T01330094=
202305021853 METAR KPAE 021853Z 01007KT 10SM OVC013 14/10 A2975 RMK AO2 SLP075 T01390100=
202305021836 SPECI KPAE 021836Z 01009KT 10SM FEW007 OVC013 13/09 A2975 RMK AO2 T01280094=
202305021753 METAR KPAE 021753Z 36007KT 10SM OVC007 12/09 A2976 RMK AO2 SLP079 T01170089 10117 20100 58004=
202305021653 METAR KPAE 021653Z 34006KT 10SM OVC008 11/08 A2977 RMK AO2 SLP080 T01110083=
202305021553 METAR KPAE 021553Z 36006KT 10SM BKN009 OVC014 11/08 A2977 RMK AO2 SLP082 T01110078=
202305021550 SPECI KPAE 021550Z 35004KT 10SM SCT009 OVC014 11/08 A2977 RMK AO2=
202305021453 METAR KPAE 021453Z 35005KT 10SM BKN010 OVC016 11/07 A2978 RMK AO2 CIG 007V013 SLP085 T01060072 56010=
202305021353 METAR KPAE 021353Z 35005KT 10SM OVC013 11/07 A2979 RMK AO2 SLP088 T01060072=
202305021331 SPECI KPAE 021331Z AUTO 35003KT 10SM BKN012 OVC017 11/07 A2980 RMK AO2 T01060072=
202305021253 METAR KPAE 021253Z AUTO 36005KT 10SM OVC018 10/07 A2979 RMK AO2 SLP089 T01000067=
202305021244 SPECI KPAE 021244Z AUTO 34004KT 10SM OVC017 10/07 A2979 RMK AO2 T01000067=
202305021153 METAR KPAE 021153Z AUTO 31004KT 10SM BKN014 OVC024 10/07 A2981 RMK AO2 SLP096 60000 70003 T01000067 10111 20100 55012=
202305021127 SPECI KPAE 021127Z AUTO 05004KT 10SM FEW015 BKN024 10/07 A2982 RMK AO2 T01000067=
202305021103 SPECI KPAE 021103Z AUTO 03009G17KT 10SM FEW026 10/07 A2978 RMK AO2 T01000067=
202305021053 METAR KPAE 021053Z AUTO 03009G17KT 10SM BKN026 10/07 A2978 RMK AO2 SLP086 T01000067=
202305021037 SPECI KPAE 021037Z AUTO 02007KT 10SM OVC028 10/07 A2980 RMK AO2 T01000067=
202305020953 METAR KPAE 020953Z AUTO 27004KT 10SM OVC034 11/07 A2986 RMK AO2 RAB35E48 SLP113 P0000 T01060067=
202305020915 SPECI KPAE 020915Z AUTO 19005KT 10SM OVC030 11/06 A2988 RMK AO2 T01060061=
202305020853 METAR KPAE 020853Z AUTO 00000KT 10SM OVC026 11/06 A2985 RMK AO2 SLP108 T01110056 51007=
202305020753 METAR KPAE 020753Z AUTO 00000KT 10SM OVC027 11/06 A2983 RMK AO2 SLP103 T01110056 401220089=
202305020653 METAR KPAE 020653Z AUTO 12004KT 10SM OVC025 11/06 A2986 RMK AO2 SLP112 T01060061=
202305020553 METAR KPAE 020553Z AUTO 01004KT 10SM OVC022 11/07 A2983 RMK AO2 SLP101 60003 T01060067 10117 20100 57003=
202305020453 METAR KPAE 020453Z AUTO 33003KT 10SM OVC020 10/07 A2983 RMK AO2 SLP102 T01000067=
202305020353 METAR KPAE 020353Z AUTO 34003KT 10SM BKN023 BKN030 OVC100 10/07 A2983 RMK AO2 SLP103 T01000072=
202305020253 METAR KPAE 020253Z 36004KT 10SM FEW020 SCT031 OVC090 11/07 A2984 RMK AO2 RAE11 SLP104 P0001 60003 T01060072 55005=
202305020242 SPECI KPAE 020242Z 34003KT 10SM BKN031 OVC090 11/08 A2984 RMK AO2 RAE11 P0001 T01060078=
202305020206 SPECI KPAE 020206Z 35005KT 10SM -RA BKN029 OVC100 11/07 A2983 RMK AO2 P0001 T01060072=
202305020153 METAR KPAE 020153Z 34003KT 10SM -RA SCT031 BKN060 OVC100 11/08 A2984 RMK AO2 RAE16B36 SLP105 P0000 T01060078=
202305020053 METAR KPAE 020053Z 34004KT 8SM -RA OVC031 11/08 A2984 RMK AO2 RAE07B23 SLP106 P0002 T01060078=
202305012353 METAR KPAE 012353Z 34004KT 10SM -RA OVC031 12/07 A2985 RMK AO2 RAB40 SLP110 P0000 60000 T01170072 10122 20100 58000=
202305012321 SPECI KPAE 012321Z 35005KT 10SM OVC029 12/07 A2986 RMK AO2 T01170067=
202305012253 METAR KPAE 012253Z 35004KT 10SM OVC033 12/07 A2986 RMK AO2 RAB02E19 SLP111 P0000 T01220067=
202305012153 METAR KPAE 012153Z 33006KT 10SM OVC032 12/07 A2985 RMK AO2 RAB28E46 SLP110 P0000 T01220072=
202305012053 METAR KPAE 012053Z 36006KT 10SM OVC040 12/07 A2986 RMK AO2 SLP110 T01220067 56011=
202305012016 SPECI KPAE 012016Z 36006KT 10SM SCT022 OVC036 12/07 A2986 RMK AO2 T01170067=
202305011953 METAR KPAE 011953Z 34006KT 10SM OVC020 12/07 A2986 RMK AO2 SLP113 T01170067=
202305011920 SPECI KPAE 011920Z 34006KT 10SM BKN017 OVC047 12/07 A2987 RMK AO2 T01170067=
202305011853 METAR KPAE 011853Z 36007KT 10SM SCT017 BKN035 OVC044 12/07 A2987 RMK AO2 SLP116 T01170067=
202305011753 METAR KPAE 011753Z 34004KT 10SM OVC015 10/06 A2989 RMK AO2 SLP121 T01000061 10111 20094 55001=
202305011653 METAR KPAE 011653Z 36006KT 10SM BKN021 BKN034 OVC060 11/06 A2988 RMK AO2 SLP119 T01060056=
202305011553 METAR KPAE 011553Z 01004KT 10SM OVC065 11/06 A2989 RMK AO2 SLP122 T01060056=
202305011453 METAR KPAE 011453Z 34003KT 10SM OVC060 10/06 A2989 RMK AO2 SLP122 T01000056 53002=
202305011353 METAR KPAE 011353Z 00000KT 10SM SCT030 OVC060 09/06 A2988 RMK AO2 SLP120 T00940056=
202305011321 SPECI KPAE 011321Z AUTO 33003KT 10SM BKN030 OVC047 09/05 A2988 RMK AO2 T00940050=
202305011253 METAR KPAE 011253Z AUTO 32005KT 10SM OVC029 09/05 A2988 RMK AO2 SLP118 T00940050=
202305011153 METAR KPAE 011153Z AUTO 32003KT 10SM BKN027 OVC060 09/06 A2988 RMK AO2 SLP119 T00940056 10106 20089 56004=
202305011123 SPECI KPAE 011123Z AUTO 34003KT 10SM SCT028 OVC060 09/06 A2989 RMK AO2 T00940056=
202305011053 METAR KPAE 011053Z AUTO 33003KT 10SM BKN028 OVC049 09/06 A2989 RMK AO2 SLP122 T00940056=
202305011022 SPECI KPAE 011022Z AUTO 00000KT 10SM BKN027 OVC050 10/06 A2990 RMK AO2 T01000056=
202305010953 METAR KPAE 010953Z AUTO 00000KT 10SM OVC070 09/06 A2989 RMK AO2 SLP124 T00940056=
202305010853 METAR KPAE 010853Z AUTO 02003KT 10SM OVC065 11/06 A2990 RMK AO2 SLP125 T01060056 58003=
202305010753 METAR KPAE 010753Z AUTO 01003KT 10SM OVC060 11/05 A2991 RMK AO2 SLP128 T01060050 401670089=
202305010653 METAR KPAE 010653Z AUTO 34003KT 10SM SCT050 OVC060 11/06 A2991 RMK AO2 SLP129 T01060056=
202305010553 METAR KPAE 010553Z AUTO 00000KT 10SM OVC055 11/06 A2991 RMK AO2 SLP130 T01060061 10161 20106 51007=
202305010453 METAR KPAE 010453Z AUTO 34004KT 10SM OVC055 11/06 A2991 RMK AO2 SLP129 T01110061=
202305010353 METAR KPAE 010353Z 33005KT 10SM OVC060 12/07 A2990 RMK AO2 SLP127 T01170067=
202305010253 METAR KPAE 010253Z 35006KT 10SM SCT043 OVC075 12/08 A2989 RMK AO2 SLP123 T01220078 56002=
202305010153 METAR KPAE 010153Z 01005KT 10SM FEW070 13/08 A2989 RMK AO2 SLP123 T01280078=
202305010053 METAR KPAE 010053Z 22006KT 10SM SCT041 OVC075 16/08 A2989 RMK AO2 SLP123 T01560078=

# No short TAF reports from KPAE in databse.

###################################
#  large TAF from KPAE
###################################
202305312320 TAF KPAE 312320Z 0100/0124 02007KT P6SM SKC FM010200 33008KT P6SM
                       FEW120 FM010500 01003KT P6SM SCT250 FM011200
                       00000KT P6SM BKN060=
202305311720 TAF KPAE 311720Z 3118/0118 32004KT P6SM FEW020 BKN030 FM312200
                       29006KT P6SM SCT040 SCT060 FM010200 33008KT
                       P6SM FEW120 FM010500 01003KT P6SM SCT250=
202305311120 TAF KPAE 311120Z 3112/0112 35005KT P6SM BKN050 FM311500 32004KT
                       P6SM OVC035 FM312200 29006KT P6SM SCT040
                       SCT060 FM010200 33008KT P6SM FEW120 FM010500
                       01003KT P6SM SCT250=
202305310543 TAF KPAE 310543Z 3106/0106 35009KT P6SM SCT060 FM310800 03005KT
                       P6SM BKN045 FM311200 VRB04KT P6SM OVC035
                       FM311500 29006KT P6SM SCT060 FM010200 31008KT
                       P6SM FEW120=
202305302351 TAF KPAE 302351Z 3100/3124 34007KT P6SM OVC045 FM310800 VRB04KT
                       P6SM BKN035 FM311200 33004KT P6SM OVC012=
202305302157 KPAE 302157Z 3022/3118 33005KT P6SM OVC015 FM302300 32006KT P6SM
                       BKN050 FM310000 34007KT P6SM SCT250 FM310800
                       VRB04KT P6SM BKN035 FM311200 33004KT P6SM
                       OVC012=
202305301748 TAF KPAE 301748Z 3018/3118 00000KT 3SM -RA BR OVC010
                      TEMPO 3018/3020 1 1/2SM -RA BR OVC003 FM302100
                       VRB04KT P6SM BKN020 FM302200 32006KT P6SM
                       SCT050 SCT250 FM310000 34007KT P6SM SCT250
                       FM310800 VRB04KT P6SM BKN035 FM311200 33004KT
                       P6SM OVC012=
202305301605 KPAE 301605Z 3016/3112 01005KT 6SM BR OVC015
                      TEMPO 3016/3018 2SM -RA BR OVC005 FM301800
                       30005KT P6SM SCT020 BKN050 FM302100 30006KT
                       P6SM SCT050 SCT250 FM310000 36007KT P6SM
                       SCT250 FM310800 VRB04KT P6SM BKN035=
202305301120 TAF KPAE 301120Z 3012/3112 01005KT 6SM BR OVC020 FM301800 30005KT
                       P6SM SCT020 BKN050 FM302100 30006KT P6SM
                       SCT050 SCT250 FM310000 36007KT P6SM SCT250
                       FM310800 VRB04KT P6SM BKN035=
202305300558 TAF KPAE 300558Z 3006/3106 36009G16KT P6SM BKN040 FM300900 36007KT
                       P6SM OVC030 FM301200 35005KT 6SM BR OVC015
                       FM301800 30005KT P6SM BKN050 FM302100 30006KT
                       P6SM SCT050 FM310000 36007KT P6SM BKN250=
202305292338 TAF KPAE 292338Z 3000/3024 26006KT P6SM SKC FM300200 33008KT P6SM
                       SCT250 FM300900 01007KT P6SM OVC030 FM301100
                       35005KT 6SM BR OVC015 FM301800 30005KT P6SM
                       BKN050 FM302100 30006KT P6SM SCT050=
202305292005 KPAE 292005Z 2920/3018 VRB04KT P6SM FEW008 BKN013 FM292100 30005KT
                       P6SM SCT010 BKN025 FM292200 30006KT P6SM
                       FEW035 FM300200 33008KT P6SM SCT250 FM301100
                       35005KT 6SM BR BKN015=
202305291730 TAF KPAE 291730Z 2918/3018 VRB04KT 3SM BR BKN004 OVC010 FM292100
                       30005KT P6SM SCT010 BKN025 FM292200 30006KT
                       P6SM FEW035 FM300200 33008KT P6SM SCT250
                       FM301100 35005KT 6SM BR BKN015=
202305291234 KPAE 291234Z 2913/3012 02006KT P6SM BKN005
                      TEMPO 2913/2916 1/2SM FG OVC002 FM292100
                       33006KT P6SM SCT010 FM292200 30006KT P6SM
                       SKC FM300200 33008KT P6SM SKC FM300800 35005KT
                       P6SM BKN015=
202305291136 KPAE 291136Z 2912/3012 02006KT P6SM BKN005
                      TEMPO 2912/2916 2SM BR OVC002 FM292100 33006KT
                       P6SM SCT010 FM292200 30006KT P6SM SKC FM300200
                       33008KT P6SM SKC FM300800 35005KT P6SM BKN015=
202305291120 TAF KPAE 291120Z 2912/3012 02006KT P6SM BKN005
                      TEMPO 2912/2916 OVC002 FM292100 33006KT P6SM
                       SCT010 FM292200 30006KT P6SM SKC FM300200
                       33008KT P6SM SKC FM300800 35005KT P6SM BKN015=
202305290912 KPAE 290912Z 2909/3006 36004KT P6SM BKN004 FM291200 19004KT P6SM
                       BKN005 FM292100 23006KT P6SM SCT010 FM292200
                       30006KT P6SM SKC FM300200 33008KT P6SM SKC=
202305290520 TAF KPAE 290520Z 2906/3006 36007KT P6SM SKC FM291200 19004KT P6SM
                       BKN015 FM292100 23006KT P6SM SCT025 FM292200
                       30006KT P6SM SKC FM300200 33008KT P6SM SKC=
202305282329 TAF KPAE 282329Z 2900/2924 25008KT P6SM SKC FM290300 34005KT P6SM
                       SKC FM291200 28004KT P6SM BKN015 FM292100
                       23006KT P6SM SCT025=
202305281720 TAF KPAE 281720Z 2818/2918 24009KT P6SM OVC018 FM282000 27003KT
                       P6SM SCT030 BKN060 FM282200 VRB05KT P6SM
                       SKC FM291300 19004KT P6SM BKN015=
202305281606 KPAE 281606Z 2816/2912 24005KT P6SM OVC009 FM282000 29005KT P6SM
                       SKC FM290300 01005KT P6SM SKC=
202305281120 TAF KPAE 281120Z 2812/2912 28003KT P6SM OVC007 FM281600 26005KT
                       P6SM BKN050 FM281800 29005KT P6SM SKC FM290300
                       01005KT P6SM SKC=
202305280520 TAF KPAE 280520Z 2806/2906 02009KT P6SM SKC FM281300 20005KT P6SM
                       BKN020 FM281800 26005KT P6SM BKN050 FM282000
                       29005KT P6SM SCT250 FM290300 01005KT P6SM
                       FEW250=
202305272329 TAF KPAE 272329Z 2800/2824 25008KT P6SM SCT050 SCT110 FM280300
                       VRB03KT P6SM SCT050 SCT120 FM281300 20005KT
                       P6SM BKN020 FM281800 26005KT P6SM BKN050=
202305271733 TAF KPAE 271733Z 2718/2818 23006KT P6SM OVC010 FM272100 25006KT
                       P6SM SCT050 SCT120 FM281200 19005KT P6SM
                       BKN020=
202305271129 TAF KPAE 271129Z 2712/2812 00000KT P6SM SKC FM271300 19005KT P6SM
                       OVC009 FM271800 23006KT P6SM OVC020 FM272000
                       26007KT P6SM SCT050 SCT120=
202305270520 TAF KPAE 270520Z 2706/2806 35009G18KT P6SM FEW250 FM271000 17005KT
                       P6SM SCT250 FM271300 19005KT P6SM OVC010
                       FM271800 23006KT P6SM OVC020 FM272000 26007KT
                       P6SM SCT050 SCT120=
202305262320 TAF KPAE 262320Z 2700/2724 35006KT P6SM SKC FM270400 VRB05KT P6SM
                       SKC FM271000 17005KT P6SM SCT040 FM271200
                       19005KT P6SM OVC015 FM271800 23006KT P6SM
                       OVC025 FM272000 26007KT P6SM SCT050=
202305261720 TAF KPAE 261720Z 2618/2718 33006KT P6SM SKC FM270300 02006KT P6SM
                       SKC FM271000 16005KT P6SM OVC040 FM271200
                       19005KT P6SM OVC020=
202305261139 TAF KPAE 261139Z 2612/2712 05003KT P6SM SKC FM261500 33006KT P6SM
                       SKC FM270300 01010KT P6SM SKC FM271000 06003KT
                       P6SM OVC040=
202305260525 TAF KPAE 260525Z 2606/2706 35004KT P6SM SKC FM261500 33005KT P6SM
                       SKC=
202305252320 TAF KPAE 252320Z 2600/2624 34007KT P6SM SKC FM260500 03004KT P6SM
                       SKC FM261500 33005KT P6SM SKC=
202305251720 TAF KPAE 251720Z 2518/2618 33006KT P6SM SKC FM260500 02004KT P6SM
                       SKC FM261200 35003KT P6SM FEW250=
202305251138 TAF KPAE 251138Z 2512/2612 01002KT P6SM SKC FM251800 33007KT P6SM
                       SKC FM260300 02004KT P6SM SKC=
202305250521 TAF KPAE 250521Z 2506/2606 VRB03KT P6SM SCT250 FM251000 02002KT
                       P6SM SKC FM251700 34004KT P6SM FEW250 FM260300
                       VRB03KT P6SM SCT250=
202305242325 TAF KPAE 242325Z 2500/2524 34007KT P6SM SCT250 FM250300 35004KT
                       P6SM SCT250 FM251000 02002KT P6SM SKC FM251700
                       34004KT P6SM FEW250=
202305241720 TAF KPAE 241720Z 2418/2518 34007KT P6SM SCT250 FM250300 35004KT
                       P6SM SCT250 FM251000 02002KT P6SM SKC=
202305241139 TAF KPAE 241139Z 2412/2512 36004KT P6SM FEW006 BKN040 FM241800
                       33006KT P6SM FEW040 SCT200 FM250300 35003KT
                       P6SM SCT250=
202305240520 TAF KPAE 240520Z 2406/2506 35005KT P6SM SCT050 BKN120 FM241100
                       36004KT P6SM FEW006 BKN040 FM241800 33006KT
                       P6SM FEW040 SCT200 FM250300 35003KT P6SM
                       SCT250=
202305232325 TAF KPAE 232325Z 2400/2424 35005KT P6SM SCT045 BKN200 FM241100
                       36004KT P6SM FEW006 SCT040 BKN120 FM241800
                       33006KT P6SM FEW040 SCT200=
202305231720 TAF KPAE 231720Z 2318/2418 25004KT P6SM BKN045 FM232100 30005KT
                       P6SM SCT040 BKN120 FM240100 36004KT P6SM
                       SCT040 BKN200 FM241000 02003KT P6SM FEW005
                       SCT200=
202305231521 KPAE 231521Z 2315/2412 18005KT P6SM BKN045 FM232100 31005KT P6SM
                       SCT040 BKN120 FM240300 VRB04KT P6SM SCT040=
202305231122 TAF KPAE 231122Z 2312/2412 16004KT P6SM OVC020 FM231800 29003KT
                       P6SM BKN020 FM232100 31005KT P6SM SCT040
                       BKN120 FM240300 VRB04KT P6SM SCT040=
202305230537 TAF KPAE 230537Z 2306/2406 VRB04KT P6SM VCSH BKN030 FM230900 16004KT
                       P6SM OVC008 FM231800 29003KT P6SM BKN020
                       FM232100 31005KT P6SM SCT040 BKN120=
202305222322 TAF KPAE 222322Z 2300/2324 VRB05KT P6SM VCSH BKN025 OVC050 FM230300
                       VRB04KT P6SM VCSH BKN035 OVC050 FM231100
                       16004KT P6SM OVC020 FM231800 29004KT P6SM
                       BKN025 BKN050 FM232100 31005KT P6SM SCT040
                       BKN120=
202305221720 TAF KPAE 221720Z 2218/2318 16005KT P6SM SCT005 BKN025 OVC040 FM222100
                       22006KT P6SM VCSH BKN030 OVC050 FM230200
                       32004KT P6SM VCSH BKN035 OVC050 FM231100
                       16004KT P6SM VCSH OVC015=
202305221638 KPAE 221638Z 2217/2312 16005KT P6SM SCT005 BKN020 OVC030
                      TEMPO 2217/2218 BKN005 FM221900 21006KT P6SM
                       OVC015 FM222100 22006KT P6SM VCSH BKN030
                       OVC050 FM230200 36004KT P6SM VCSH BKN030
                       OVC050 FM231100 16004KT P6SM VCSH OVC015=
202305221124 TAF KPAE 221124Z 2212/2312 35005KT P6SM BKN020 OVC030
                      TEMPO 2212/2216 -RA BKN007 FM221900 21006KT
                       P6SM OVC015 FM222100 22006KT P6SM VCSH BKN030
                       OVC050 FM230200 36004KT P6SM VCSH BKN030
                       OVC050 FM231100 16004KT P6SM VCSH OVC015=
202305220530 TAF KPAE 220530Z 2206/2306 35007G15KT P6SM VCSH SCT025 OVC035
                      TEMPO 2206/2209 -DZ OVC020 FM220900 17006KT
                       P6SM VCSH OVC007 FM221900 21006KT P6SM OVC015
                       FM222100 22006KT P6SM BKN030 OVC050=
202305220405 KPAE 220405Z 2204/2224 36005KT P6SM VCSH OVC029 FM220900 17006KT
                       P6SM OVC007 FM221900 21006KT P6SM OVC015=
202305220138 KPAE 220138Z 2202/2224 36005KT 2SM -DZ OVC020 FM220900 17006KT
                       P6SM OVC007 FM221900 21006KT P6SM OVC015=
202305212341 TAF KPAE 212341Z 2200/2224 35004KT P6SM OVC008 FM220200 36007KT
                       P6SM VCSH BKN006 OVC010 FM221500 17006KT
                       P6SM OVC007 FM221900 21006KT P6SM OVC015=
202305212102 KPAE 212102Z 2121/2218 35004KT P6SM BKN006 OVC015 FM212300 32004KT
                       P6SM OVC035 FM220200 36007KT P6SM VCSH OVC015
                       FM220900 16007KT P6SM BKN020=
202305211736 TAF KPAE 211736Z 2118/2218 27004KT 4SM BR OVC005 FM212000 32004KT
                       P6SM OVC020 FM212300 32004KT P6SM OVC035
                       FM220200 36007KT P6SM VCSH OVC015 FM220900
                       16007KT P6SM BKN020=
202305211120 TAF KPAE 211120Z 2112/2212 02006KT P6SM BKN007 OVC010 FM211800
                       27004KT P6SM OVC020 FM220000 34007KT P6SM
                       OVC050 FM220900 16007KT P6SM BKN020=
202305210912 KPAE 210912Z 2109/2206 02006KT P6SM BKN007 BKN060 BKN120 FM211300
                       20010KT P6SM OVC005 FM212100 26004KT P6SM
                       OVC020 FM220000 34007KT P6SM OVC050=
202305210524 TAF KPAE 210524Z 2106/2206 36009G19KT P6SM SCT120 FM210900 02007KT
                       P6SM OVC100 FM211300 20010KT P6SM OVC015
                       FM220000 34007KT P6SM OVC050=
202305202328 TAF KPAE 202328Z 2100/2124 35007KT P6SM BKN250 FM211100 24005KT
                       P6SM OVC010 FM212200 30007KT P6SM OVC050=
202305201739 TAF KPAE 201739Z 2018/2118 30003KT P6SM SCT250 FM210000 35007KT
                       P6SM BKN250 FM211100 24005KT P6SM OVC010=
202305201350 KPAE 201350Z 2014/2112 36006KT 3SM BR BKN002 FM201500 30003KT P6SM
                       BKN010 BKN250 FM201800 30003KT P6SM BKN060
                       BKN250 FM210000 35007KT P6SM BKN250 FM211100
                       24005KT P6SM OVC025=
202305201302 KPAE 201302Z 2013/2112 36006KT P6SM BKN002 FM201500 30003KT P6SM
                       BKN015 BKN250 FM201800 30003KT P6SM BKN060
                       BKN250 FM210000 35007KT P6SM BKN250 FM211100
                       24005KT P6SM OVC025=
202305201140 TAF KPAE 201140Z 2012/2112 01004KT P6SM BKN100 BKN250 FM201300
                       32005KT P6SM BKN120 FM201500 30003KT P6SM
                       BKN060 BKN250 FM210000 35007KT P6SM BKN250
                       FM211100 24005KT P6SM OVC025=
202305200520 TAF KPAE 200520Z 2006/2106 01008KT P6SM SCT120 BKN250 FM201300
                       22005KT P6SM BKN250 FM201700 25006KT P6SM
                       BKN100 BKN250 FM210200 35006KT P6SM BKN100
                       BKN250=
202305192324 TAF KPAE 192324Z 2000/2024 34005KT P6SM SCT005 SCT100 FM201100
                       34003KT P6SM BKN010 FM201400 34003KT P6SM
                       BKN007 FM201700 29003KT P6SM SCT010 SCT250=
202305191737 TAF KPAE 191737Z 1918/2018 33005KT P6SM BKN005 FM191830 32005KT
                       P6SM SCT005 SCT200 FM200500 36003KT P6SM
                       SKC FM201100 34003KT P6SM BKN025 FM201400
                       34003KT P6SM BKN007=
202305191615 KPAE 191615Z 1916/2012 VRB03KT P6SM SCT005
                      TEMPO 1916/1917 BKN005 FM191700 33005KT P6SM
                       FEW007 SCT200 FM192000 33006KT P6SM SKC
                       FM200500 36003KT P6SM SKC=
202305191121 TAF KPAE 191121Z 1912/2012 VRB03KT P6SM SCT005
                      TEMPO 1913/1916 BKN005 FM191700 33005KT P6SM
                       FEW007 SCT200 FM192000 33006KT P6SM SKC
                       FM200500 36003KT P6SM SKC=
202305190852 KPAE 190852Z 1909/2006 VRB04KT P6SM SCT005
                      TEMPO 1909/1912 BKN005 FM191200 VRB03KT P6SM
                       OVC006 FM191800 34006KT P6SM FEW008 SCT200
                       FM192000 33006KT P6SM SKC=
202305190520 TAF KPAE 190520Z 1906/2006 36007KT P6SM SKC FM191200 VRB04KT P6SM
                       SKC FM191800 34006KT P6SM SCT200=
202305182328 TAF KPAE 182328Z 1900/1924 31007KT P6SM SCT120 SCT200 FM190300
                       35005KT P6SM SCT200 FM191200 20004KT P6SM
                       OVC010 FM191800 34006KT P6SM SCT250=
202305181730 TAF KPAE 181730Z 1818/1918 27006KT P6SM SCT200 FM182200 31007KT
                       P6SM SCT120 SCT200 FM190300 35005KT P6SM
                       SCT200 FM191200 20004KT P6SM OVC015=
202305181120 TAF KPAE 181120Z 1812/1912 VRB04KT P6SM FEW005 SCT200 FM181800
                       24006KT P6SM SCT200 FM182100 31007KT P6SM
                       SCT120 SCT200 FM190200 35005KT P6SM SCT200
                       FM191100 VRB03KT 6SM BCFG SCT006=
202305180520 TAF KPAE 180520Z 1806/1906 VRB03KT P6SM SCT250 FM181100 VRB03KT
                       P6SM SCT006 SCT200 FM181800 24006KT P6SM
                       SCT250 FM182100 29007KT P6SM SCT250 FM190200
                       35005KT P6SM BKN250=
202305172320 TAF KPAE 172320Z 1800/1824 35004KT P6SM SKC FM180300 36005KT P6SM
                       SCT120 SCT200 FM181100 19004KT P6SM SCT006
                       SCT200 FM181200 20004KT 6SM HZ BR FEW200=
202305171720 TAF KPAE 171720Z 1718/1818 00000KT P6SM SKC FM172000 31004KT P6SM
                       SCT200 FM180300 36005KT P6SM SCT120 SCT200
                       FM181100 19004KT P6SM SCT006 SCT200 FM181200
                       20004KT 6SM HZ BR FEW200=
202305171349 KPAE 171349Z 1714/1812 36005KT 6SM BR SCT003 SCT200
                      TEMPO 1714/1716 1/4SM FG VV001 FM171700 32005KT
                       P6SM SCT200 FM180300 VRB03KT P6SM SCT120
                       SCT200 FM181100 19004KT P6SM SCT006 SCT200=
202305171145 KPAE 171145Z 1712/1812 36005KT P6SM FEW005 SCT200
                      TEMPO 1712/1716 BKN003 FM171700 32005KT P6SM
                       SCT200 FM180300 VRB03KT P6SM SCT120 SCT200
                       FM181100 19004KT P6SM SCT006 SCT200=
202305171120 TAF KPAE 171120Z 1712/1812 36005KT P6SM FEW005 SCT200
                      TEMPO 1713/1716 BKN005 FM171700 32005KT P6SM
                       SCT200 FM180300 VRB03KT P6SM SCT120 SCT200
                       FM181100 19004KT P6SM SCT006 SCT200=
202305170520 TAF KPAE 170520Z 1706/1806 34005KT P6SM SCT250 FM171100 VRB03KT
                       P6SM SCT007 BKN250
                      TEMPO 1711/1715 OVC005 FM171600 32004KT P6SM
                       SCT250 FM172200 28006KT P6SM SKC FM180300
                       VRB03KT P6SM FEW250=
202305162321 TAF KPAE 162321Z 1700/1724 25006KT P6SM SCT250 FM170600 34003KT
                       P6SM SCT250 FM171100 00000KT P6SM BKN003
                       BKN250 FM171600 30002KT P6SM SCT250=
202305161753 TAF KPAE 161753Z 1618/1718 23005KT P6SM BKN015 OVC030 FM161900
                       26005KT P6SM SCT100 BKN200 FM162100 32006KT
                       P6SM SCT100 BKN200 FM170000 35007KT P6SM
                       BKN200 FM170600 VRB03KT P6SM SCT250=
202305161459 KPAE 161459Z 1615/1712 18005KT P6SM SCT015 BKN120
                      TEMPO 1615/1617 OVC009 FM161800 23005KT P6SM
                       FEW015 BKN100 FM162100 28006KT P6SM SCT100
                       BKN200 FM170200 35004KT P6SM BKN200=
202305161120 TAF KPAE 161120Z 1612/1712 23007KT P6SM SCT015 BKN120
                      TEMPO 1613/1617 BKN012 FM161800 23005KT P6SM
                       FEW015 BKN100 FM162100 28006KT P6SM SCT100
                       BKN200 FM170200 35004KT P6SM BKN200=
202305160520 TAF KPAE 160520Z 1606/1706 17008KT P6SM VCSH SCT050 BKN070 FM161200
                       18009KT P6SM BKN020 FM161800 26005KT P6SM
                       BKN100 FM162100 28006KT P6SM SCT100 BKN250
                       FM170200 34004KT P6SM BKN250=
202305152320 TAF KPAE 152320Z 1600/1624 21010KT P6SM VCTS SCT040 BKN070CB FM160300
                       35010KT P6SM VCSH SCT050 BKN070 FM161000
                       18009KT P6SM BKN020 FM161800 29005KT P6SM
                       BKN100=
202305151737 TAF KPAE 151737Z 1518/1618 30004KT P6SM SCT040 SCT100 FM152300
                       21010G20KT P6SM VCTS SCT040 BKN070CB FM160300
                       35010KT P6SM VCSH SCT050 BKN070 FM161000
                       18009KT P6SM BKN050=
202305151726 TAF KPAE 151726Z 1518/1618 30004KT P6SM SCT040 SCT100 FM152300
                       21010G20KT P6SM VCTS SCT040 BKN070CB FM160300
                       35010KT P6SM VCSH SCT050 BKN070 FM161000
                       18009KT P6SM BKN050=
202305151140 TAF KPAE 151140Z 1512/1612 04005KT P6SM SCT250 FM151800 30004KT
                       P6SM SCT040 SCT100 FM160000 21010G20KT P6SM
                       VCTS SCT040 BKN070CB FM160300 17006KT P6SM
                       VCSH SCT050 BKN070 FM161000 18009KT P6SM
                       BKN050=
202305150546 TAF KPAE 150546Z 1506/1606 04005KT P6SM SKC FM150900 04004KT P6SM
                       SCT120 FM151500 35006KT P6SM SCT120 FM151800
                       30004KT P6SM SCT040 SCT100 FM160100 21006KT
                       P6SM BKN100 FM160500 18005KT P6SM BKN150=
202305142325 TAF KPAE 142325Z 1500/1524 35010G20KT P6SM SKC FM150300 35007KT
                       P6SM SKC FM150900 04004KT P6SM SCT100 FM151800
                       34004KT P6SM SCT040 SCT100=
202305141725 TAF KPAE 141725Z 1418/1518 35010G20KT P6SM SKC FM150300 35007KT
                       P6SM SKC FM150900 04004KT P6SM SCT100=
202305141139 TAF KPAE 141139Z 1412/1512 02006KT P6SM SKC FM141600 35010G20KT
                       P6SM SKC FM150300 35007KT P6SM SKC=
202305140532 TAF KPAE 140532Z 1406/1506 02006KT P6SM SKC FM141600 35010G20KT
                       P6SM SKC FM142300 35007KT P6SM SKC=
202305132329 TAF KPAE 132329Z 1400/1424 33008G18KT P6SM SKC FM140500 15005KT
                       P6SM SKC FM141500 15010G20KT P6SM SKC=
202305131729 TAF KPAE 131729Z 1318/1418 34008G18KT P6SM SKC FM140500 15005KT
                       P6SM SKC=
202305131125 TAF KPAE 131125Z 1312/1412 02005KT P6SM SKC FM132000 34008G18KT
                       P6SM SKC FM140400 03005KT P6SM SKC=
202305130520 TAF KPAE 130520Z 1306/1406 02004KT P6SM SKC FM132000 34008KT P6SM
                       SKC=
202305122328 TAF KPAE 122328Z 1300/1324 34009KT P6SM SKC FM130500 02004KT P6SM
                       SKC FM132000 34008KT P6SM SKC=
202305121720 TAF KPAE 121720Z 1218/1318 33006KT P6SM SKC FM130600 35004KT P6SM
                       SKC=
202305121120 TAF KPAE 121120Z 1212/1312 VRB03KT P6SM SCT250 FM121700 33005KT
                       P6SM SKC FM130000 35005KT P6SM SKC FM130600
                       VRB03KT P6SM SKC=
202305120533 TAF KPAE 120533Z 1206/1306 36005KT P6SM FEW250 FM121000 VRB01KT
                       P6SM BKN250 FM121700 36003KT P6SM SKC FM130000
                       33006KT P6SM SKC=
202305112321 TAF KPAE 112321Z 1200/1224 33005KT P6SM FEW250 FM121000 VRB01KT
                       P6SM BKN250 FM121700 36003KT P6SM SKC=
202305111720 TAF KPAE 111720Z 1118/1218 36005KT P6SM FEW250 FM120000 33005KT
                       P6SM FEW250 FM121200 02003KT P6SM BKN250=
202305111129 TAF KPAE 111129Z 1112/1212 02005KT P6SM FEW250 FM111400 12003KT
                       P6SM BKN120 FM111800 30005KT P6SM FEW250
                       FM120000 33005KT P6SM FEW250=
202305110530 TAF KPAE 110530Z 1106/1206 36005KT P6SM FEW250 FM111200 VRB03KT
                       P6SM BKN100 FM111800 30005KT P6SM FEW250=
202305102320 TAF KPAE 102320Z 1100/1124 36007KT P6SM SKC FM110300 36004KT P6SM
                       SKC FM111300 VRB03KT P6SM FEW250=
202305101722 TAF KPAE 101722Z 1018/1118 VRB04KT P6SM SKC FM102100 32005KT P6SM
                       SKC FM111000 02003KT P6SM FEW250=
202305101133 TAF KPAE 101133Z 1012/1112 01006KT P6SM FEW250 FM111000 VRB03KT
                       P6SM FEW250=
202305100520 TAF KPAE 100520Z 1006/1106 27006KT P6SM SCT050 SCT100 FM101400
                       VRB03KT 2SM BR SCT250 FM101800 34004KT P6SM
                       FEW050 FEW250=
202305092332 TAF KPAE 092332Z 1000/1024 27006KT P6SM SCT050 SCT100 FM100500
                       36004KT P6SM SKC FM101200 01003KT P6SM SCT250=
202305091729 TAF KPAE 091729Z 0918/1018 VRB03KT P6SM BKN050 BKN100
                      TEMPO 0918/0919 SCT009 FM092200 35006KT P6SM
                       SCT060 SCT100 FM100700 01003KT P6SM BKN250=
202305091138 TAF KPAE 091138Z 0912/1012 01006KT P6SM SCT025 OVC045 FM091600
                       VRB03KT P6SM BKN050 FM092200 35006KT P6SM
                       SCT060 SCT100=
202305090528 TAF KPAE 090528Z 0906/1006 35008KT P6SM SCT060 BKN150 FM091200
                       16006KT P6SM SCT080 BKN150 FM091600 19005KT
                       P6SM BKN020 FM091900 29004KT P6SM BKN050
                       FM100000 27005KT P6SM SCT050=
202305082320 TAF KPAE 082320Z 0900/0924 35008KT P6SM SCT060 BKN150 FM090900
                       16006KT P6SM SCT080 BKN150 FM091300 17005KT
                       P6SM BKN020 FM091900 27005KT P6SM SCT050=
202305081721 TAF KPAE 081721Z 0818/0918 36006KT P6SM SCT050 BKN070 FM082000
                       35008KT P6SM SCT060 BKN150 FM090900 16006KT
                       P6SM BKN150 FM091300 17005KT P6SM BKN025=
202305081134 TAF KPAE 081134Z 0812/0912 36006KT P6SM SCT050 BKN070 FM082000
                       36008KT P6SM SCT060 BKN150 FM090900 18006KT
                       P6SM BKN150=
202305080543 TAF KPAE 080543Z 0806/0906 34005KT P6SM BKN050 FM081000 34003KT
                       P6SM OVC035 FM082000 30007KT P6SM SCT060=
202305072320 TAF KPAE 072320Z 0800/0824 24005KT P6SM BKN050 FM080400 34003KT
                       P6SM OVC030 FM082000 30007KT P6SM SCT060=
202305071739 TAF KPAE 071739Z 0718/0818 20010KT P6SM OVC010 FM072200 24005KT
                       P6SM BKN050 FM080400 34003KT P6SM OVC030=
202305071617 KPAE 071617Z 0716/0812 20010KT P6SM OVC010 FM072200 24005KT P6SM
                       BKN050 FM080400 34003KT P6SM OVC030=
202305071319 KPAE 071319Z 0713/0812 18006KT P6SM SCT025 BKN040 OVC060
                      TEMPO 0715/0717 BKN025 OVC040 FM080200 34006KT
                       P6SM BKN050=
202305071140 TAF KPAE 071140Z 0712/0812 00000KT P6SM OVC004 FM071500 00000KT
                       P6SM SCT004 BKN008 OVC015 FM071800 19006KT
                       P6SM SCT008 BKN015 BKN050 FM072000 19006KT
                       P6SM SCT030 BKN050 FM080200 34006KT P6SM
                       BKN050=
202305071036 KPAE 071036Z 0711/0806 00000KT P6SM OVC004 FM071600 19006KT P6SM
                       SCT004 BKN008 OVC015 FM071800 19006KT P6SM
                       SCT008 BKN015 BKN050 FM072000 19008KT P6SM
                       SCT030 BKN050 FM080200 32003KT P6SM OVC050=
202305070539 TAF KPAE 070539Z 0706/0806 VRB04KT P6SM VCSH BKN035 OVC060
                      TEMPO 0706/0708 -SHRA BKN015 FM071200 19006KT
                       P6SM OVC020 FM072000 19008KT P6SM SCT030
                       BKN050 FM080200 32003KT P6SM OVC050=
202305062323 TAF KPAE 062323Z 0700/0724 30006KT P6SM VCSH BKN040 OVC080
                      TEMPO 0700/0703 -SHRA BKN022 FM070600 VRB04KT
                       P6SM VCSH BKN035 OVC060 FM071200 19006KT
                       P6SM OVC020 FM072000 19008KT P6SM SCT030
                       BKN050=
202305061728 TAF KPAE 061728Z 0618/0718 20006KT P6SM VCSH BKN005 OVC060 FM061900
                       23006KT P6SM VCSH SCT020 BKN040 OVC060 FM062200
                       22007KT P6SM VCSH BKN040 OVC080 FM071200
                       18004KT P6SM OVC020=
202305061128 TAF KPAE 061128Z 0612/0712 VRB03KT P6SM -RA OVC004 FM061600 VRB03KT
                       P6SM SCT006 BKN011 OVC020 FM062100 21006KT
                       P6SM SCT020 BKN040 OVC060=
202305060702 KPAE 060702Z 0607/0706 VRB03KT 2SM -RA BKN002 OVC008 FM060900 VRB03KT
                       P6SM SCT008 BKN012 OVC020 FM062200 21006KT
                       P6SM OVC020 FM070000 19004KT P6SM BKN045=
202305060537 TAF KPAE 060537Z 0606/0706 20004KT 4SM -RA BR OVC009 FM062200 21006KT
                       P6SM OVC020 FM070000 19004KT P6SM BKN045=
202305052335 TAF KPAE 052335Z 0600/0624 20008KT P6SM -RA BKN009 OVC015 FM060600
                       19005KT 5SM -RA OVC015 FM061200 18005KT
                       4SM -DZ BR OVC015 FM062200 21006KT P6SM
                       VCSH OVC020=
202305051732 TAF KPAE 051732Z 0518/0618 18008KT 4SM -RA SCT006 OVC010 FM060300
                       19005KT P6SM -RA OVC025 FM061200 18005KT
                       6SM -SHRA OVC015=
202305051120 TAF KPAE 051120Z 0512/0612 17011KT P6SM -RA OVC010 FM051500 18008KT
                       5SM -RA OVC008 FM052100 21006KT P6SM VCSH
                       OVC010 FM060300 VRB03KT P6SM VCSH OVC007=
202305050535 TAF KPAE 050535Z 0506/0606 16010KT 6SM BR VCSH OVC008 FM051000
                       18011KT P6SM -RA OVC015 FM051500 18010KT
                       5SM -RA OVC008=
202305050259 KPAE 050259Z 0503/0524 16010KT 3SM BR VCSH OVC009 FM051000 18011KT
                       P6SM -RA OVC015 FM051500 18010KT 5SM -RA
                       OVC008=
202305042340 TAF KPAE 042340Z 0500/0524 19006KT P6SM VCSH OVC015 FM051000 18011KT
                       P6SM -RA OVC015 FM051500 18010KT 5SM -RA
                       OVC008=
202305041734 TAF KPAE 041734Z 0418/0518 19006KT P6SM BKN030
                      TEMPO 0421/0424 -SHRA FM050100 19009KT P6SM
                       VCSH BKN030 FM051000 18009KT P6SM -RA OVC015=
202305041437 KPAE 041437Z 0415/0512 26005KT P6SM VCSH SCT007 BKN025
                      TEMPO 0415/0418 -SHRA BKN010 FM041800 22006KT
                       P6SM VCSH OVC020 FM050300 18008KT P6SM VCSH
                       OVC015 FM050800 17009KT P6SM -RA OVC010=
202305041125 TAF KPAE 041125Z 0412/0512 VRB03KT P6SM VCSH OVC070 FM041500 26005KT
                       P6SM VCSH OVC025 FM042100 22006KT P6SM VCSH
                       OVC020 FM050300 18008KT P6SM VCSH OVC015
                       FM050800 17009KT P6SM -RA OVC010=
202305040520 TAF KPAE 040520Z 0406/0506 35006KT P6SM FEW040 FM040800 VRB05KT
                       P6SM VCSH BKN050 BKN100 FM041200 VRB03KT
                       P6SM VCSH OVC025 FM041500 22005KT P6SM VCSH
                       OVC010 FM042100 19006KT P6SM VCSH OVC020=
202305032331 TAF KPAE 032331Z 0400/0424 33006KT P6SM FEW040 FM040700 VRB03KT
                       P6SM VCSH SCT040 BKN100 FM041200 VRB03KT
                       P6SM VCSH OVC030 FM041500 22005KT P6SM VCSH
                       OVC020
                      PROB30 0420/0423 -RA=
202305031742 TAF KPAE 031742Z 0318/0418 33006KT P6SM FEW250 FM040400 VRB03KT
                       P6SM SCT040 BKN100 FM041200 VRB03KT P6SM
                       VCSH OVC030 FM041500 22005KT P6SM VCSH OVC020=
202305031120 TAF KPAE 031120Z 0312/0412 20007KT P6SM SKC FM031500 VRB04KT P6SM
                       OVC040 FM031800 30005KT P6SM BKN250 FM032100
                       32004KT P6SM SCT250 FM040400 VRB03KT P6SM
                       OVC100 FM040800 03004KT P6SM OVC050=
202305030526 TAF KPAE 030526Z 0306/0406 18007KT P6SM SKC FM030900 17007KT P6SM
                       OVC070 FM031200 VRB04KT P6SM OVC030 FM031800
                       32005KT P6SM BKN250 FM032100 32004KT P6SM
                       SCT250=
202305022333 TAF KPAE 022333Z 0300/0324 35006KT P6SM SKC FM030300 18006KT P6SM
                       SCT030 FM030900 17007KT P6SM OVC030 FM031200
                       VRB04KT P6SM OVC020 FM032100 32004KT P6SM
                       SCT250=
202305021741 TAF KPAE 021741Z 0218/0318 28005KT P6SM BKN250
                      TEMPO 0218/0220 BKN010 OVC025 FM030300 VRB03KT
                       P6SM SCT030 OVC060 FM030900 17007KT P6SM
                       OVC030 FM031500 VRB04KT P6SM OVC020=
202305021619 KPAE 021619Z 0216/0312 36006KT P6SM BKN009 OVC015
                      TEMPO 0216/0218 BKN015 OVC025 FM021800 28005KT
                       P6SM BKN250 FM030300 VRB03KT P6SM SCT030
                       OVC060 FM030900 17007KT P6SM OVC030=
202305021147 KPAE 021147Z 0212/0312 04006KT P6SM SCT030 BKN150
                      TEMPO 0212/0214 -RA OVC030 FM021800 28005KT
                       P6SM BKN250 FM030300 VRB03KT P6SM SCT030
                       OVC060 FM030900 17007KT P6SM OVC030=
202305021122 TAF KPAE 021122Z 0212/0312 04006KT P6SM SCT030 BKN150 FM021800
                       28005KT P6SM BKN250 FM030300 VRB03KT P6SM
                       SCT030 OVC060 FM030900 17007KT P6SM OVC030=
202305020834 KPAE 020834Z 0209/0306 VRB03KT P6SM OVC025 FM021300 04006KT P6SM
                       SCT050 BKN150 FM021800 28005KT P6SM BKN250=
202305020523 TAF KPAE 020523Z 0206/0306 33003KT P6SM SCT025 OVC040
                      TEMPO 0206/0207 OVC025 FM020800 VRB03KT P6SM
                       SCT050 BKN150 FM021300 04006KT P6SM SCT050
                       BKN150 FM021800 28005KT P6SM BKN250=
202305012334 TAF KPAE 012334Z 0200/0224 36008KT P6SM OVC030 FM020500 04006KT
                       P6SM OVC035 FM021300 04006KT P6SM SCT050
                       BKN150=
202305011729 TAF KPAE 011729Z 0118/0218 36006KT P6SM BKN022 OVC045 FM012100
                       36010KT P6SM SCT030 OVC045 FM021100 04006KT
                       P6SM SCT050 BKN150=
202305011126 TAF KPAE 011126Z 0112/0212 34006KT P6SM BKN050 OVC080
                      TEMPO 0112/0114 BKN030 FM012100 34010G20KT
                       P6SM BKN050 OVC080 FM020100 32006KT P6SM
                       BKN050 OVC080=
202305010539 TAF KPAE 010539Z 0106/0206 34004KT P6SM OVC050 FM010700 34006KT
                       P6SM BKN050 OVC080 FM011600 34004KT P6SM
                       OVC030 FM012100 34005KT P6SM BKN050 OVC080=