##########################################################
# Query made at 02/15/2025 23:04:45 UTC
# Time interval: from 12/01/2023 00:00  to 12/31/2023 23:59  UTC
##########################################################

##########################################################
# KPAE, Everett, Snohomish County Airport (United States)
# WMO index: -----. WIGOS ID: Unknown
# Latitude 47-55-23N. Longitude 122-16-57W. Altitude 184 m.
##########################################################

###################################
#  METAR/SPECI from KPAE
###################################
202312312353 METAR KPAE 312353Z 00000KT 10SM CLR 08/04 A3018 RMK AO2 SLP224 T00780039 10100 20072 55002=
202312312253 METAR KPAE 312253Z 00000KT 10SM FEW040 09/04 A3018 RMK AO2 SLP221 T00890044=
202312312212 SPECI KPAE 312212Z 26006KT 10SM FEW014 SCT030 BKN039 09/06 A3018 RMK AO2 T00890056=
202312312153 METAR KPAE 312153Z 26003KT 10SM SCT010 BKN016 BKN026 09/06 A3018 RMK AO2 SLP221 T00890061=
202312312100 SPECI KPAE 312100Z 21004KT 10SM SCT010 BKN016 BKN026 09/04 A3019 RMK AO2 T00890044=
202312312053 METAR KPAE 312053Z 19006KT 10SM SCT010 BKN014 OVC028 09/04 A3019 RMK AO2 SLP225 T00890044 58001=
202312312013 SPECI KPAE 312013Z 18005KT 10SM SCT010 BKN014 OVC028 09/05 A3019 RMK AO2 T00890050=
202312311953 METAR KPAE 311953Z 16006KT 10SM BKN008 BKN014 OVC026 08/05 A3020 RMK AO2 SLP229 T00830050=
202312311853 METAR KPAE 311853Z 16005KT 10SM BKN009 08/05 A3020 RMK AO2 SLP229 T00780050=
202312311753 METAR KPAE 311753Z 18008KT 10SM OVC006 07/05 A3019 RMK AO2 SLP226 T00720050 10078 20044 53015=
202312311653 METAR KPAE 311653Z 16004KT 10SM OVC006 07/05 A3018 RMK AO2 CIG 004V009 SLP222 T00670050=
202312311638 SPECI KPAE 311638Z 15005KT 10SM OVC004 07/05 A3017 RMK AO2 T00670050=
202312311553 METAR KPAE 311553Z 18006KT 10SM BKN008 06/05 A3016 RMK AO2 SLP216 T00610050=
202312311507 SPECI KPAE 311507Z 19003KT 10SM SCT007 BKN014 04/03 A3015 RMK AO2 T00440033=
202312311453 METAR KPAE 311453Z 00000KT 10SM SCT008 06/04 A3015 RMK AO2 SLP212 T00560039 51007=
202312311448 SPECI KPAE 311448Z 21003KT 10SM FEW009 FEW019 06/04 A3015 RMK AO2=
202312311437 SPECI KPAE 311437Z AUTO 22004KT 10SM FEW009 BKN019 06/04 A3015 RMK AO2 T00610039=
202312311353 METAR KPAE 311353Z AUTO 18005KT 10SM BKN017 OVC022 07/05 A3014 RMK AO2 SLP209 T00670050=
202312311253 METAR KPAE 311253Z AUTO 15006KT 10SM OVC017 08/05 A3013 RMK AO2 SLP204 T00780050=
202312311224 SPECI KPAE 311224Z AUTO 16007KT 10SM OVC016 08/06 A3013 RMK AO2 T00780056=
202312311211 SPECI KPAE 311211Z AUTO 16006KT 10SM OVC014 08/06 A3013 RMK AO2 T00780056=
202312311153 METAR KPAE 311153Z AUTO 16006KT 10SM OVC016 08/06 A3013 RMK AO2 SLP204 70005 T00780056 10089 20072 50004=
202312311134 SPECI KPAE 311134Z AUTO 15007KT 10SM OVC016 08/06 A3013 RMK AO2 T00780056=
202312311125 METAR KPAE 311125Z AUTO VRB04KT 10SM BKN012 OVC019 08/06 A3013 RMK AO2 T00830056=
202312311125 SPECI KPAE 311125Z AUTO VRB04KT 10SM BKN012 OVC019 08/06 A3013 RMK AO2 T00830056=
202312311118 SPECI KPAE 311118Z AUTO 15006KT 10SM SCT009 OVC015 08/06 A3013 RMK AO2 T00830056=
202312311110 SPECI KPAE 311110Z AUTO 15007KT 10SM SCT011 BKN015 OVC021 08/06 A3013 RMK AO2 T00830056=
202312311053 METAR KPAE 311053Z AUTO 16006KT 10SM SCT009 BKN014 OVC019 08/06 A3013 RMK AO2 SLP204 T00780056=
202312311048 SPECI KPAE 311048Z AUTO 16005KT 10SM BKN012 OVC019 08/06 A3013 RMK AO2=
202312311016 SPECI KPAE 311016Z AUTO VRB04KT 10SM BKN018 08/06 A3012 RMK AO2 T00780056=
202312310953 METAR KPAE 310953Z AUTO 16007KT 10SM CLR 08/06 A3012 RMK AO2 SLP200 T00780056=
202312310853 METAR KPAE 310853Z AUTO 16008KT 10SM CLR 08/05 A3011 RMK AO2 SLP198 T00780050 51010=
202312310822 SPECI KPAE 310822Z AUTO 17009KT 10SM SCT015 08/05 A3010 RMK AO2 T00780050=
202312310813 SPECI KPAE 310813Z AUTO 18010KT 10SM BKN015 07/05 A3010 RMK AO2 T00720050=
202312310753 METAR KPAE 310753Z AUTO 19010KT 10SM CLR 07/06 A3010 RMK AO2 SLP196 T00720056 401330072=
202312310653 METAR KPAE 310653Z AUTO 18011KT 10SM FEW010 08/06 A3010 RMK AO2 SLP194 T00830061=
202312310553 METAR KPAE 310553Z AUTO 18009KT 10SM FEW010 09/06 A3008 RMK AO2 SLP188 60001 T00890061 10100 20083 51017=
202312310501 SPECI KPAE 310501Z AUTO 18009KT 10SM FEW012 SCT020 09/07 A3007 RMK AO2 T00890067=
202312310453 METAR KPAE 310453Z 18007KT 10SM SCT012 BKN019 09/07 A3007 RMK AO2 SLP184 T00890067=
202312310444 SPECI KPAE 310444Z 19010KT 10SM SCT012 OVC019 09/07 A3007 RMK AO2 T00940072=
202312310353 METAR KPAE 310353Z 17008KT 10SM OVC014 09/07 A3005 RMK AO2 SLP177 T00940072=
202312310253 METAR KPAE 310253Z 18008KT 10SM OVC014 10/07 A3003 RMK AO2 SLP169 60001 T01000072 51017=
202312310153 METAR KPAE 310153Z 18009KT 10SM BKN009 BKN016 OVC060 10/08 A3002 RMK AO2 RAE12 SLP166 P0000 T01000078=
202312310053 METAR KPAE 310053Z 16006KT 10SM -RA BKN009 BKN016 OVC050 10/08 A3000 RMK AO2 RAB13 SLP158 P0001 T01000078=
202312302353 METAR KPAE 302353Z 18008KT 10SM BKN009 10/08 A2998 RMK AO2 RAB11E30 SLP152 P0000 60004 T01000078 10111 20100 53008=
202312302253 METAR KPAE 302253Z 16010G18KT 10SM BKN009 11/08 A2996 RMK AO2 SLP146 T01060083=
202312302228 SPECI KPAE 302228Z 17010KT 10SM OVC009 11/08 A2996 RMK AO2 T01060083=
202312302153 METAR KPAE 302153Z 16013G20KT 10SM SCT006 BKN013 11/08 A2995 RMK AO2 SLP143 T01110083=
202312302138 SPECI KPAE 302138Z 16011G19KT 10SM SCT006 BKN013 11/08 A2995 RMK AO2 T01110078=
202312302136 SPECI KPAE 302136Z 16011KT 10SM BKN013 OVC029 11/08 A2995 RMK AO2 T01110078=
202312302128 SPECI KPAE 302128Z 16013KT 10SM BKN015 OVC029 11/08 A2995 RMK AO2 T01110078=
202312302111 SPECI KPAE 302111Z 15011KT 10SM FEW014 BKN030 11/08 A2995 RMK AO2 T01110083=
202312302053 METAR KPAE 302053Z 14009KT 10SM BKN028 11/08 A2995 RMK AO2 RAB17E27 SLP144 P0000 60004 T01060078 50003=
202312302000 SPECI KPAE 302000Z 15008KT 10SM BKN027 BKN043 OVC100 10/07 A2995 RMK AO2 T01000072=
202312301953 METAR KPAE 301953Z 15007KT 10SM SCT027 BKN043 OVC055 10/07 A2995 RMK AO2 RAE38 SLP144 P0002 T01000072=
202312301853 METAR KPAE 301853Z 16007KT 8SM -RA SCT027 BKN043 OVC055 10/07 A2995 RMK AO2 SLP144 P0002 T01000072=
202312301817 SPECI KPAE 301817Z 16007KT 7SM -RA BKN026 BKN037 OVC050 11/07 A2996 RMK AO2 P0000 T01060067=
202312301753 METAR KPAE 301753Z 15006KT 10SM -RA SCT029 BKN034 OVC049 11/06 A2994 RMK AO2 RAB30 SLP140 P0000 60000 T01060061 10122 20100 51014=
202312301705 SPECI KPAE 301705Z 17007KT 9SM FEW027 OVC038 11/06 A2993 RMK AO2 T01060061=
202312301653 METAR KPAE 301653Z 15010KT 10SM BKN027 OVC034 11/06 A2993 RMK AO2 RAB32E43 SLP136 P0000 T01060056=
202312301641 SPECI KPAE 301641Z 16007KT 9SM -RA SCT026 OVC034 11/06 A2993 RMK AO2 RAB32 P0000 T01060061=
202312301553 METAR KPAE 301553Z 16006KT 10SM BKN046 OVC060 11/06 A2990 RMK AO2 RAB38E47 SLP126 P0000 T01060056=
202312301453 METAR KPAE 301453Z 15008KT 10SM FEW046 BKN060 OVC075 11/05 A2989 RMK AO2 RAB42E51 SLP123 P0000 60000 T01110050 51013=
202312301353 METAR KPAE 301353Z AUTO 17005KT 10SM BKN045 OVC055 10/06 A2988 RMK AO2 RAB09E31 SLP119 P0000 T01000056=
202312301253 METAR KPAE 301253Z AUTO 16005KT 10SM OVC046 11/05 A2987 RMK AO2 SLP116 T01110050=
202312301153 METAR KPAE 301153Z AUTO 16007KT 10SM SCT047 OVC055 12/04 A2986 RMK AO2 RAB11E23B42E50 SLP110 P0000 60000 T01170044 10133 20106 50008=
202312301053 METAR KPAE 301053Z AUTO 20007KT 10SM BKN050 OVC060 11/04 A2987 RMK AO2 RAB10E20 SLP113 P0000 T01110044=
202312300953 METAR KPAE 300953Z AUTO 15004KT 10SM SCT060 BKN090 BKN110 12/02 A2984 RMK AO2 SLP104 T01220022=
202312300853 METAR KPAE 300853Z AUTO 14006KT 10SM FEW070 BKN090 OVC110 13/02 A2983 RMK AO2 SLP101 T01330017 51002=
202312300753 METAR KPAE 300753Z AUTO VRB06KT 10SM SCT080 OVC100 13/02 A2983 RMK AO2 SLP101 T01330017 401670111=
202312300653 METAR KPAE 300653Z AUTO 12004KT 10SM FEW080 OVC095 13/03 A2983 RMK AO2 SLP102 T01280028=
202312300553 METAR KPAE 300553Z AUTO 18004KT 10SM OVC090 12/04 A2983 RMK AO2 SLP100 T01220044 10161 20122 50011=
202312300453 METAR KPAE 300453Z 17009KT 10SM BKN090 BKN110 13/04 A2983 RMK AO2 SLP101 T01330044=
202312300353 METAR KPAE 300353Z 16012KT 10SM BKN095 14/04 A2982 RMK AO2 SLP097 T01390039=
202312300253 METAR KPAE 300253Z 16012G26KT 10SM BKN100 16/02 A2979 RMK AO2 PK WND 16027/0215 SLP088 T01560022 53019=
202312300153 METAR KPAE 300153Z 15012KT 10SM CLR 16/03 A2977 RMK AO2 SLP079 T01560028=
202312300053 METAR KPAE 300053Z VRB04KT 10SM BKN110 15/03 A2975 RMK AO2 SLP073 T01500033=
202312292353 METAR KPAE 292353Z VRB03KT 10SM SCT100 16/03 A2974 RMK AO2 SLP069 T01610028 10167 20139 56025=
202312292253 METAR KPAE 292253Z 11011KT 10SM BKN120 16/03 A2975 RMK AO2 SLP073 T01610028=
202312292153 METAR KPAE 292153Z 11003KT 10SM FEW110 16/03 A2979 RMK AO2 SLP087 T01560033=
202312292053 METAR KPAE 292053Z 00000KT 10SM BKN110 14/04 A2981 RMK AO2 SLP094 T01390044 55007=
202312291953 METAR KPAE 291953Z 10004KT 10SM FEW100 15/03 A2980 RMK AO2 SLP091 T01500033=
202312291853 METAR KPAE 291853Z 15006KT 10SM CLR 15/03 A2982 RMK AO2 SLP096 T01500033=
202312291753 METAR KPAE 291753Z 11008KT 10SM CLR 15/03 A2983 RMK AO2 SLP101 T01500028 10150 20122 56022=
202312291653 METAR KPAE 291653Z 10011G19KT 10SM FEW110 14/03 A2984 RMK AO2 SLP103 T01390028=
202312291553 METAR KPAE 291553Z 11006KT 10SM CLR 13/03 A2989 RMK AO2 SLP122 T01330033=
202312291453 METAR KPAE 291453Z 12008KT 10SM CLR 13/03 A2990 RMK AO2 SLP124 T01330033 58007=
202312291353 METAR KPAE 291353Z AUTO 12005KT 10SM CLR 13/03 A2991 RMK AO2 SLP129 T01280033=
202312291253 METAR KPAE 291253Z AUTO VRB04KT 10SM FEW090 13/03 A2992 RMK AO2 SLP132 T01330028=
202312291153 METAR KPAE 291153Z AUTO 10010KT 10SM CLR 13/03 A2992 RMK AO2 SLP132 60000 70001 T01280028 10133 20111 58023=
202312291053 METAR KPAE 291053Z AUTO 12007KT 10SM SCT100 13/03 A2995 RMK AO2 SLP142 T01280028=
202312290953 METAR KPAE 290953Z AUTO 11008KT 10SM OVC100 13/03 A2996 RMK AO2 SLP146 T01280028=
202312290853 METAR KPAE 290853Z AUTO 11008KT 10SM SCT110 12/03 A2999 RMK AO2 SLP156 60000 T01170028 56024=
202312290753 METAR KPAE 290753Z AUTO 10010KT 10SM CLR 12/03 A3001 RMK AO2 SLP163 T01170028 401220078=
202312290653 METAR KPAE 290653Z AUTO 10009KT 10SM BKN120 12/03 A3004 RMK AO2 RAE32 SLP173 P0000 T01170033=
202312290553 METAR KPAE 290553Z AUTO 11008KT 10SM -RA OVC070 12/04 A3006 RMK AO2 RAE0458B15 SLP180 P0000 60000 T01170044 10122 20111 58002=
202312290453 METAR KPAE 290453Z AUTO 10008KT 10SM -RA BKN070 OVC090 12/03 A3007 RMK AO2 RAB49 SLP184 P0000 T01220033=
202312290353 METAR KPAE 290353Z 13005KT 10SM BKN075 12/04 A3007 RMK AO2 SLP182 T01170039=
202312290253 METAR KPAE 290253Z VRB04KT 10SM FEW120 12/04 A3007 RMK AO2 SLP182 T01170039 58002=
202312290153 METAR KPAE 290153Z 11007KT 10SM SCT075 12/05 A3007 RMK AO2 SLP184 T01170050=
202312290053 METAR KPAE 290053Z VRB03KT 10SM BKN060 BKN075 12/06 A3008 RMK AO2 SLP187 T01170061=
202312282353 METAR KPAE 282353Z 11009KT 10SM BKN095 12/07 A3007 RMK AO2 SLP184 60000 T01170067 10122 20100 56011=
202312282253 METAR KPAE 282253Z VRB04KT 10SM BKN100 12/07 A3008 RMK AO2 SLP187 T01220072=
202312282153 METAR KPAE 282153Z 12009KT 10SM BKN070 BKN095 12/07 A3009 RMK AO2 SLP190 T01220072=
202312282053 METAR KPAE 282053Z 12009G16KT 10SM FEW060 12/05 A3011 RMK AO2 SLP197 60000 T01170050 58010=
202312281953 METAR KPAE 281953Z 10SM FEW120 11/06 A3012 RMK AO2 RAE02 SLP199 P0000 T01110061=
202312281853 METAR KPAE 281853Z VRB06G17KT 10SM -RA OVC075 10/07 A3013 RMK AO2 RAB30 SLP205 P0000 T01000072=
202312281753 METAR KPAE 281753Z 15012G20KT 10SM FEW029 BKN048 OVC090 10/06 A3014 RMK AO2 SLP207 60001 T01000061 10106 20078 51024=
202312281653 METAR KPAE 281653Z 13006G16KT 10SM BKN040 BKN055 OVC110 09/06 A3011 RMK AO2 RAB1559E10 SLP198 P0000 T00940061=
202312281553 METAR KPAE 281553Z VRB06KT 10SM FEW031 BKN040 OVC049 10/05 A3010 RMK AO2 RAB22E40 SLP194 P0001 T01000050=
202312281453 METAR KPAE 281453Z 14011KT 10SM OVC065 11/04 A3006 RMK AO2 SLP183 60000 T01060039 53007=
202312281353 METAR KPAE 281353Z AUTO 14006G17KT 10SM FEW018 BKN055 OVC080 11/04 A3005 RMK AO2 SLP179 T01060044=
202312281253 METAR KPAE 281253Z AUTO 14007KT 090V180 10SM FEW049 BKN060 OVC080 09/04 A3005 RMK AO2 RAE13 SLP176 P0000 T00940044=
202312281153 METAR KPAE 281153Z AUTO 14006KT 10SM -RA FEW042 SCT050 BKN065 09/04 A3004 RMK AO2 RAE10B51 SLP175 P0000 60013 70025 T00890044 10100 20083 51017=
202312281053 METAR KPAE 281053Z AUTO VRB05KT 10SM -RA BKN050 OVC060 09/06 A3003 RMK AO2 RAE03B43 SLP171 P0000 T00890056=
202312280953 METAR KPAE 280953Z AUTO 15012G19KT 10SM -RA BKN065 OVC085 09/06 A3000 RMK AO2 SLP161 P0006 T00940061=
202312280853 METAR KPAE 280853Z AUTO 18005KT 10SM -RA SCT046 OVC055 08/05 A2999 RMK AO2 PRESRR SLP158 P0001 60007 T00830050 51035=
202312280753 METAR KPAE 280753Z AUTO 15009KT 10SM -RA OVC050 09/06 A2996 RMK AO2 SLP145 P0004 T00940056 401280083=
202312280653 METAR KPAE 280653Z AUTO 14006KT 10SM -RA BKN050 BKN070 OVC095 09/04 A2993 RMK AO2 RAE0554B13 PRESRR SLP135 P0002 T00940039=
202312280553 METAR KPAE 280553Z AUTO 11006KT 10SM -RA FEW050 BKN060 08/04 A2989 RMK AO2 RAE0459B41 SLP121 P0000 60006 T00830039 10106 20083 53009=
202312280453 METAR KPAE 280453Z AUTO 12008KT 10SM -RA BKN050 BKN065 OVC075 09/04 A2987 RMK AO2 RAB42 SLP117 P0000 T00890039=
202312280353 METAR KPAE 280353Z VRB06KT 10SM BKN060 BKN075 09/05 A2987 RMK AO2 SLP115 T00890050=
202312280253 METAR KPAE 280253Z 13007KT 10SM SCT065 08/06 A2986 RMK AO2 RAE12 SLP112 P0000 60006 T00830056 50010=
202312280153 METAR KPAE 280153Z 14010G22KT 10SM -RA SCT047 BKN060 OVC075 09/05 A2986 RMK AO2 RAE24B46 SLP114 P0002 T00890050=
202312280053 METAR KPAE 280053Z AUTO 15013G18KT 8SM -RA OVC055 09/06 A2986 RMK AO2 SLP113 P0004 T00890056=
202312272353 METAR KPAE 272353Z AUTO 14010G17KT 10SM -RA BKN060 BKN080 OVC100 11/04 A2983 RMK AO2 RAB01 SLP101 P0002 60002 T01060044 10128 20106 53019=
202312272253 METAR KPAE 272253Z 14004KT 10SM FEW070 OVC090 11/04 A2980 RMK AO2 SLP093 T01110039=
202312272153 METAR KPAE 272153Z 12006KT 10SM FEW037 SCT070 12/03 A2977 RMK AO2 RAB35E45 SLP081 P0000 T01170028=
202312272053 METAR KPAE 272053Z VRB05KT 10SM BKN065 12/02 A2977 RMK AO2 SLP082 60000 T01170022 56010=
202312271953 METAR KPAE 271953Z VRB05KT 10SM SCT120 12/02 A2978 RMK AO2 SLP085 T01220017=
202312271853 METAR KPAE 271853Z 11008KT 10SM FEW070 12/01 A2978 RMK AO2 RAB10E21 SLP084 P0000 T01220011=
202312271753 METAR KPAE 271753Z 15012G18KT 10SM OVC090 13/01 A2980 RMK AO2 RAB1658E07 SLP093 P0000 60004 T01280011 10128 20089 53028=
202312271653 METAR KPAE 271653Z 15011KT 10SM FEW065 BKN090 OVC110 12/02 A2977 RMK AO2 SLP080 T01170022=
202312271553 METAR KPAE 271553Z VRB04G16KT 10SM FEW080 BKN100 OVC110 12/03 A2973 RMK AO2 SLP066 T01170033=
202312271453 METAR KPAE 271453Z 10SM CLR 11/03 A2972 RMK AO2 SLP064 60004 T01110033 55033=
202312271353 METAR KPAE 271353Z AUTO 11009G16KT 10SM CLR 11/03 A2969 RMK AO2 PK WND 09032/1254 SLP056 T01060033=
202312271253 METAR KPAE 271253Z AUTO 10016G31KT 10SM FEW110 10/04 A2970 RMK AO2 PK WND 09033/1242 RAE41 SLP058 P0004 T01000039=
202312271153 METAR KPAE 271153Z AUTO 14006KT 9SM -RA OVC075 11/04 A2982 RMK AO2 SLP098 P0002 60002 70002 T01060039 10117 20094 53001=
202312271053 METAR KPAE 271053Z AUTO 00000KT 10SM -RA FEW055 BKN080 OVC110 10/02 A2980 RMK AO2 RAB46 SLP094 P0000 T01000022=
202312270953 METAR KPAE 270953Z AUTO 11011G22KT 10SM BKN080 11/01 A2979 RMK AO2 SLP087 T01110011=
202312270853 METAR KPAE 270853Z AUTO 11014G20KT 10SM FEW050 BKN085 11/01 A2981 RMK AO2 SLP095 T01060006 58036=
202312270753 METAR KPAE 270753Z AUTO 11011G19KT 10SM SCT080 BKN095 BKN120 11/01 A2987 RMK AO2 SLP114 T01060006 401060061=
202312270653 METAR KPAE 270653Z AUTO 12010G20KT 10SM BKN075 OVC090 11/01 A2989 RMK AO2 SLP125 T01060006=
202312270553 METAR KPAE 270553Z AUTO VRB04KT 10SM BKN100 09/01 A2992 RMK AO2 SLP133 T00940011 10100 20083 58016=
202312270453 METAR KPAE 270453Z AUTO 14005KT 10SM CLR 09/02 A2994 RMK AO2 SLP142 T00940022=
202312270353 METAR KPAE 270353Z VRB04KT 10SM CLR 09/02 A2995 RMK AO2 SLP145 T00940017=
202312270253 METAR KPAE 270253Z 14006KT 10SM CLR 09/01 A2997 RMK AO2 SLP150 T00890011 56027=
202312270153 METAR KPAE 270153Z 10008KT 10SM CLR 08/03 A2998 RMK AO2 PRESFR SLP154 T00830028=
202312270053 METAR KPAE 270053Z 12006KT 10SM CLR 09/04 A3002 RMK AO2 SLP167 T00890039=
202312262353 METAR KPAE 262353Z 11006KT 10SM CLR 09/03 A3005 RMK AO2 SLP178 T00940033 10106 20072 56026=
202312262253 METAR KPAE 262253Z 11006KT 10SM CLR 10/04 A3006 RMK AO2 SLP181 T01000039=
202312262153 METAR KPAE 262153Z 11006KT 10SM CLR 11/04 A3009 RMK AO2 SLP191 T01060039=
202312262053 METAR KPAE 262053Z 11006KT 10SM CLR 10/05 A3013 RMK AO2 SLP204 T01000050 58018=
202312261953 METAR KPAE 261953Z VRB04KT 10SM CLR 11/06 A3016 RMK AO2 SLP214 T01060061=
202312261853 METAR KPAE 261853Z 10SM CLR 08/05 A3017 RMK AO2 SLP220 T00830050=
202312261802 SPECI KPAE 261802Z 14007KT 070V170 10SM FEW007 07/05 A3018 RMK AO2 T00720050=
202312261753 METAR KPAE 261753Z 11007KT 10SM CLR 07/05 A3018 RMK AO2 SLP223 T00720050 10083 20061 50008=
202312261653 METAR KPAE 261653Z 14009G16KT 10SM CLR 06/04 A3018 RMK AO2 SLP224 T00610044=
202312261553 METAR KPAE 261553Z 14011KT 10SM BKN070 07/05 A3018 RMK AO2 SLP222 T00670050=
202312261453 METAR KPAE 261453Z 14012G18KT 10SM CLR 07/05 A3016 RMK AO2 SLP215 T00720050 51027=
202312261353 METAR KPAE 261353Z AUTO 14012G17KT 10SM SCT003 07/06 A3015 RMK AO2 SLP211 T00720056=
202312261333 METAR KPAE 261333Z AUTO 15011KT 10SM FEW005 08/06 A3014 RMK AO2 T00780056=
202312261333 SPECI KPAE 261333Z AUTO 15011KT 10SM FEW005 08/06 A3014 RMK AO2 T00780056=
202312261253 METAR KPAE 261253Z AUTO 15013KT 10SM CLR 08/06 A3010 RMK AO2 SLP195 T00830061=
202312261153 METAR KPAE 261153Z AUTO 16013G22KT 10SM CLR 08/06 A3008 RMK AO2 PK WND 16026/1129 RAB16E27 SLP187 P0000 60023 70049 T00830061 10089 20078 51019=
202312261120 SPECI KPAE 261120Z AUTO 15017G23KT 10SM -RA SCT021 OVC100 09/06 A3007 RMK AO2 RAB16 P0000 T00890061=
202312261053 METAR KPAE 261053Z AUTO 15017KT 10SM FEW013 BKN018 OVC120 09/06 A3006 RMK AO2 SLP182 T00890061=
202312260953 METAR KPAE 260953Z AUTO 15017G26KT 10SM FEW010 BKN023 BKN028 09/07 A3004 RMK AO2 PK WND 14028/0913 SLP175 T00890067=
202312260930 SPECI KPAE 260930Z AUTO 15018KT 10SM FEW010 BKN017 BKN025 09/07 A3004 RMK AO2 PK WND 14028/0913 T00890067=
202312260906 SPECI KPAE 260906Z AUTO 15019G25KT 10SM FEW008 SCT013 BKN120 08/07 A3003 RMK AO2 T00830067=
202312260853 METAR KPAE 260853Z AUTO 14015G23KT 100V160 10SM SCT009 BKN013 OVC120 08/06 A3002 RMK AO2 RAE19 SLP168 P0001 60023 T00830061 51039=
202312260842 SPECI KPAE 260842Z AUTO 15014G21KT 10SM BKN009 OVC016 08/06 A3002 RMK AO2 RAE19 CIG 007V012 P0001 T00830061=
202312260833 METAR KPAE 260833Z AUTO 14007G21KT 090V160 10SM BKN010 BKN017 OVC037 08/06 A3001 RMK AO2 RAE19 P0001 T00780061=
202312260833 SPECI KPAE 260833Z AUTO 14007G21KT 090V160 10SM BKN010 BKN017 OVC037 08/06 A3001 RMK AO2 RAE19 P0001 T00780061=
202312260826 SPECI KPAE 260826Z AUTO 13007G17KT 100V160 10SM SCT010 BKN015 OVC039 08/06 A3001 RMK AO2 RAE19 P0001 T00780061=
202312260753 METAR KPAE 260753Z AUTO 14012G20KT 6SM RA BR FEW010 BKN039 OVC046 08/06 A3000 RMK AO2 SLP160 P0014 T00780061 400830044=
202312260653 METAR KPAE 260653Z AUTO 14011G22KT 5SM RA OVC050 08/04 A2993 RMK AO2 SLP139 P0008 T00830039=
202312260553 METAR KPAE 260553Z AUTO 11013G24KT 10SM -RA OVC065 08/03 A2990 RMK AO2 RAB12 SLP128 P0001 60011 T00780033 10078 20067 56018=
202312260453 METAR KPAE 260453Z AUTO 11012G19KT 10SM BKN100 OVC120 07/04 A2992 RMK AO2 SLP133 T00720039=
202312260353 METAR KPAE 260353Z 12010G18KT 10SM FEW050 BKN110 07/04 A2993 RMK AO2 RAE11 SLP139 P0000 T00670044=
202312260253 METAR KPAE 260253Z 12007KT 9SM -RA FEW036 OVC060 07/05 A2995 RMK AO2 SLP146 P0004 60010 T00720050 56008=
202312260153 METAR KPAE 260153Z VRB06KT 10SM -RA FEW050 BKN065 OVC080 07/05 A2996 RMK AO2 SLP147 P0002 T00670050=
202312260053 METAR KPAE 260053Z 13008G21KT 10SM -RA BKN060 OVC075 07/05 A2996 RMK AO2 SLP147 P0004 T00720050=
202312252353 METAR KPAE 252353Z 14010G19KT 5SM -RA BR FEW030 SCT055 OVC070 07/05 A2998 RMK AO2 SLP155 P0003 60015 T00720050 10078 20067 56012=
202312252253 METAR KPAE 252253Z 15014G24KT 8SM -RA FEW023 BKN044 OVC070 07/05 A2999 RMK AO2 SLP158 P0002 T00720050=
202312252153 METAR KPAE 252153Z 14010G20KT 7SM -RA FEW006 BKN030 OVC042 07/05 A2999 RMK AO2 SLP159 P0003 T00720050=
202312252053 METAR KPAE 252053Z 14013G20KT 4SM -RA BR FEW004 BKN036 OVC045 07/05 A3002 RMK AO2 RAE16B34 SLP168 P0001 60007 T00670050 58010=
202312252029 SPECI KPAE 252029Z 14008G16KT 6SM BR FEW006 OVC044 07/05 A3003 RMK AO2 RAE16 P0001 T00670050=
202312251953 METAR KPAE 251953Z 14008G19KT 4SM RA BR FEW026 SCT055 OVC075 07/04 A3003 RMK AO2 SLP172 P0005 T00670044=
202312251853 METAR KPAE 251853Z 15014G20KT 10SM -RA FEW030 BKN048 OVC060 07/03 A3005 RMK AO2 SLP179 P0001 T00720028=
202312251753 METAR KPAE 251753Z 14008KT 10SM -RA SCT039 08/M01 A3005 RMK AO2 RAB08 SLP178 P0000 60000 T00781006 10083 20050 51003=
202312251653 METAR KPAE 251653Z 14008KT 10SM FEW039 OVC051 08/M02 A3004 RMK AO2 SLP174 T00831017=
202312251553 METAR KPAE 251553Z 14007KT 10SM BKN041 OVC050 07/M02 A3005 RMK AO2 SLP179 T00671022=
202312251453 METAR KPAE 251453Z 11011G18KT 10SM SCT046 OVC055 07/M03 A3004 RMK AO2 SLP174 60000 T00671028 58017=
202312251353 METAR KPAE 251353Z AUTO 12008KT 10SM SCT043 OVC060 06/M02 A3007 RMK AO2 RAE1259 SLP187 P0000 T00561022=
202312251253 METAR KPAE 251253Z AUTO 12008G17KT 10SM -RA OVC045 06/M02 A3009 RMK AO2 RAB11 SLP191 P0000 T00561022=
202312251153 METAR KPAE 251153Z AUTO 12007G15KT 10SM BKN050 OVC095 06/M03 A3009 RMK AO2 SLP192 T00561028 10056 20044 56017=
202312251053 METAR KPAE 251053Z AUTO 11009G18KT 10SM SCT120 06/M03 A3010 RMK AO2 SLP195 T00561028=
202312250953 METAR KPAE 250953Z AUTO 11008G14KT 10SM FEW039 BKN120 04/M02 A3012 RMK AO2 SLP204 T00441022=
202312250853 METAR KPAE 250853Z AUTO 11010KT 10SM FEW039 SCT110 04/M02 A3014 RMK AO2 SLP210 T00441022 58012=
202312250753 METAR KPAE 250753Z AUTO 11010KT 10SM FEW041 04/M02 A3015 RMK AO2 SLP214 T00441022 400720011=
202312250653 METAR KPAE 250653Z AUTO 12006KT 10SM OVC050 05/M02 A3018 RMK AO2 SLP225 T00501017=
202312250553 METAR KPAE 250553Z AUTO VRB05KT 10SM OVC055 05/M01 A3018 RMK AO2 SLP223 60000 T00501011 10067 20044 53000=
202312250453 METAR KPAE 250453Z AUTO 13003KT 10SM SCT055 04/M01 A3018 RMK AO2 SLP223 T00441011=
202312250353 METAR KPAE 250353Z VRB05KT 10SM FEW031 OVC038 06/M01 A3017 RMK AO2 RAE0257 SLP222 P0000 T00611011=
202312250253 METAR KPAE 250253Z 15010KT 10SM -RA OVC031 06/M01 A3018 RMK AO2 RAB48 SLP223 P0000 60000 T00611011 53007=
202312250153 METAR KPAE 250153Z 14007KT 100V170 10SM BKN037 OVC047 07/M01 A3016 RMK AO2 SLP215 T00671011=
202312250053 METAR KPAE 250053Z 15007KT 10SM OVC038 06/M01 A3016 RMK AO2 SLP218 T00611011=
202312242353 METAR KPAE 242353Z 18004KT 10SM OVC040 06/00 A3015 RMK AO2 SLP215 T00610000 10072 20056 53003=
202312242253 METAR KPAE 242253Z 16006KT 10SM OVC055 07/M01 A3015 RMK AO2 SLP213 T00671006=
202312242153 METAR KPAE 242153Z 17008KT 10SM OVC050 07/M01 A3014 RMK AO2 SLP209 T00671006=
202312242053 METAR KPAE 242053Z 17011G23KT 10SM FEW049 BKN090 BKN110 07/M01 A3015 RMK AO2 SLP212 T00671006 53019=
202312241953 METAR KPAE 241953Z 16011KT 10SM FEW070 BKN090 OVC110 07/M04 A3013 RMK AO2 SLP205 T00671039=
202312241853 METAR KPAE 241853Z 15008KT 10SM BKN100 06/M04 A3011 RMK AO2 SLP198 T00611044=
202312241753 METAR KPAE 241753Z 15009KT 10SM CLR 06/M06 A3009 RMK AO2 SLP194 T00561056 10056 20028 53003=
202312241653 METAR KPAE 241653Z VRB03KT 10SM SCT120 05/M05 A3008 RMK AO2 SLP191 T00501050=
202312241553 METAR KPAE 241553Z 11009G15KT 10SM CLR 04/M04 A3006 RMK AO2 SLP184 T00391044=
202312241453 METAR KPAE 241453Z 11006KT 10SM CLR 04/M04 A3008 RMK AO2 SLP192 T00391039 51006=
202312241353 METAR KPAE 241353Z AUTO 14004KT 10SM CLR 05/M05 A3008 RMK AO2 SLP191 T00501050=
202312241253 METAR KPAE 241253Z AUTO 11004KT 10SM CLR 03/M04 A3007 RMK AO2 SLP188 T00331039=
202312241153 METAR KPAE 241153Z AUTO 10005KT 10SM CLR 03/M03 A3006 RMK AO2 SLP184 T00331033 10033 20011 56032=
202312241053 METAR KPAE 241053Z AUTO 09006KT 10SM CLR 02/M03 A3009 RMK AO2 SLP192 T00221033=
202312240953 METAR KPAE 240953Z AUTO 10007KT 10SM CLR 03/M03 A3013 RMK AO2 SLP207 T00281033=
202312240853 METAR KPAE 240853Z AUTO 00000KT 10SM CLR 02/M03 A3016 RMK AO2 SLP217 T00221028 56019=
202312240753 METAR KPAE 240753Z AUTO 00000KT 10SM CLR 02/M02 A3018 RMK AO2 SLP224 T00221022 400720011=
202312240653 METAR KPAE 240653Z AUTO 11005KT 10SM CLR 02/M02 A3020 RMK AO2 SLP230 T00221017=
202312240553 METAR KPAE 240553Z AUTO 10006KT 10SM CLR 02/M01 A3022 RMK AO2 SLP237 T00221006 10056 20011 57023=
202312240453 METAR KPAE 240453Z 11005KT 10SM CLR 02/00 A3024 RMK AO2 SLP244 T00220000=
202312240353 METAR KPAE 240353Z 00000KT 10SM CLR 01/00 A3026 RMK AO2 SLP254 T00110000=
202312240253 METAR KPAE 240253Z 00000KT 10SM CLR 01/00 A3028 RMK AO2 SLP260 T00110000 55005=
202312240153 METAR KPAE 240153Z 00000KT 10SM CLR 03/01 A3028 RMK AO2 SLP260 T00330011=
202312240053 METAR KPAE 240053Z 00000KT 10SM CLR 04/02 A3029 RMK AO2 SLP263 T00440017=
202312232353 METAR KPAE 232353Z 00000KT 10SM CLR 05/02 A3030 RMK AO2 SLP266 T00500017 10072 20039 56009=
202312232253 METAR KPAE 232253Z 35004KT 10SM FEW012 06/02 A3031 RMK AO2 SLP269 T00610022=
202312232153 METAR KPAE 232153Z VRB03KT 10SM CLR 07/03 A3031 RMK AO2 SLP267 T00670028=
202312232053 METAR KPAE 232053Z 00000KT 10SM FEW012 07/02 A3033 RMK AO2 SLP274 T00670022 58012=
202312231953 METAR KPAE 231953Z 19004KT 10SM SCT007 06/02 A3035 RMK AO2 SLP282 T00560022=
202312231948 SPECI KPAE 231948Z 16003KT 10SM SCT007 06/03 A3035 RMK AO2=
202312231918 SPECI KPAE 231918Z VRB03KT 10SM BKN007 06/02 A3036 RMK AO2 T00560022=
202312231853 METAR KPAE 231853Z VRB03KT 10SM FEW004 SCT010 05/02 A3036 RMK AO2 SLP286 T00500022=
202312231845 SPECI KPAE 231845Z 11004KT 10SM BKN010 OVC038 05/02 A3037 RMK AO2 T00500022=
202312231811 SPECI KPAE 231811Z 11003KT 10SM BKN004 OVC038 04/02 A3037 RMK AO2 T00390022=
202312231753 METAR KPAE 231753Z VRB03KT 10SM SCT004 OVC038 04/02 A3037 RMK AO2 SLP288 T00390017 10039 20011 51020=
202312231746 SPECI KPAE 231746Z 00000KT 10SM SCT005 OVC038 04/02 A3036 RMK AO2 T00390017=
202312231700 SPECI KPAE 231700Z 17003KT 10SM OVC036 03/01 A3035 RMK AO2 T00330011=
202312231653 METAR KPAE 231653Z 17005KT 10SM OVC029 03/01 A3035 RMK AO2 SLP282 T00330011=
202312231553 METAR KPAE 231553Z 19004KT 10SM OVC029 02/01 A3033 RMK AO2 SLP276 T00220011=
202312231453 METAR KPAE 231453Z 15005KT 10SM OVC029 03/01 A3031 RMK AO2 SLP268 T00280011 52010=
202312231404 SPECI KPAE 231404Z AUTO 16004KT 10SM BKN027 03/01 A3030 RMK AO2 T00280011=
202312231353 METAR KPAE 231353Z AUTO 16004KT 10SM SCT027 03/01 A3030 RMK AO2 SLP264 T00280011=
202312231253 METAR KPAE 231253Z AUTO 19003KT 10SM FEW027 02/01 A3029 RMK AO2 SLP261 T00220006=
202312231214 SPECI KPAE 231214Z AUTO 19003KT 10SM SCT029 02/00 A3028 RMK AO2 T00170000=
202312231206 SPECI KPAE 231206Z AUTO 18003KT 10SM BKN029 02/01 A3028 RMK AO2 T00220011=
202312231153 METAR KPAE 231153Z AUTO 15007KT 10SM BKN030 03/01 A3028 RMK AO2 SLP258 70063 T00280011 10044 20017 51012=
202312231053 METAR KPAE 231053Z AUTO 16004KT 10SM CLR 03/01 A3027 RMK AO2 SLP255 T00330011=
202312230953 METAR KPAE 230953Z AUTO 20006KT 10SM CLR 03/01 A3026 RMK AO2 SLP252 T00280011=
202312230853 METAR KPAE 230853Z AUTO 16004KT 10SM CLR 03/02 A3024 RMK AO2 SLP245 T00330017 51017=
202312230753 METAR KPAE 230753Z AUTO 17005KT 7SM CLR 02/01 A3023 RMK AO2 SLP241 T00220011 400830017=
202312230653 METAR KPAE 230653Z AUTO 15005KT 10SM SCT033 03/02 A3022 RMK AO2 SLP236 T00330017=
202312230553 METAR KPAE 230553Z AUTO 15003KT 10SM FEW035 04/02 A3019 RMK AO2 SLP227 T00440017 10056 20017 51024=
202312230453 METAR KPAE 230453Z 19004KT 9SM CLR 02/01 A3016 RMK AO2 SLP219 T00220011=
202312230353 METAR KPAE 230353Z 19005KT 10SM CLR 03/01 A3014 RMK AO2 SLP212 T00280006=
202312230253 METAR KPAE 230253Z 00000KT 10SM CLR 05/01 A3012 RMK AO2 SLP202 T00500011 51018=
202312230153 METAR KPAE 230153Z 00000KT 10SM FEW055 SCT070 BKN085 05/02 A3011 RMK AO2 SLP197 T00500022=
202312230057 SPECI KPAE 230057Z 17004KT 8SM FEW002 SCT018 SCT027 04/03 A3010 RMK AO2 T00440028=
202312230057 METAR KPAE 230057Z 17004KT 8SM FEW002 SCT018 SCT027 04/03 A3010 RMK AO2 T00440028=
202312230053 METAR KPAE 230053Z 18005KT 1SM R16R/P6000FT BR BKN002 OVC027 04/03 A3009 RMK AO2 SLP193 T00440028=
202312230018 SPECI KPAE 230018Z 17008KT 1SM R16R/P6000FT BR BKN002 OVC027 04/03 A3007 RMK AO2 T00440028=
202312222353 METAR KPAE 222353Z VRB03KT 10SM FEW023 BKN030 BKN036 05/03 A3006 RMK AO2 SLP183 60017 T00500028 10061 20044 53016=
202312222253 METAR KPAE 222253Z 14005KT 10SM FEW027 05/03 A3003 RMK AO2 RAE2155 SLP173 P0001 T00500028=
202312222200 SPECI KPAE 222200Z 15008KT 10SM BKN023 BKN036 OVC100 04/02 A3003 RMK AO2 RAE2155 P0001 T00440022=
202312222153 METAR KPAE 222153Z 15007KT 10SM -RA BKN006 BKN011 04/02 A3003 RMK AO2 SLP172 P0003 T00440022=
202312222124 SPECI KPAE 222124Z 16009KT 5SM -RA BR BKN006 BKN011 04/02 A3003 RMK AO2 P0003 T00440022=
202312222106 SPECI KPAE 222106Z 15009KT 5SM -RA BR SCT006 OVC015 04/02 A3003 RMK AO2 P0001 T00440022=
202312222053 METAR KPAE 222053Z 15008KT 8SM -RA BKN005 BKN020 OVC039 04/02 A3002 RMK AO2 SLP167 P0002 60013 T00440022 51018=
202312222042 SPECI KPAE 222042Z 14005KT 10SM -RA FEW005 BKN023 OVC041 05/03 A3001 RMK AO2 P0001 T00500028=
202312222030 METAR KPAE 222030Z VRB04KT 10SM -RA SCT022 BKN043 OVC055 05/03 A3001 RMK AO2 P0001 T00500033=
202312222030 SPECI KPAE 222030Z VRB04KT 10SM -RA SCT022 BKN043 OVC055 05/03 A3001 RMK AO2 P0001 T00500033=
202312221953 METAR KPAE 221953Z 00000KT 6SM -RA BR FEW006 BKN020 OVC031 06/04 A3001 RMK AO2 SLP164 P0003 T00560039=
202312221949 SPECI KPAE 221949Z 00000KT 6SM -RA BR FEW006 BKN024 OVC031 06/04 A3001 RMK AO2 P0003=
202312221910 SPECI KPAE 221910Z 11005KT 10SM -RA OVC031 06/03 A3000 RMK AO2 P0001 T00610033=
202312221853 METAR KPAE 221853Z 10003KT 4SM -RA OVC027 06/03 A3000 RMK AO2 SLP160 P0008 T00610033=
202312221753 METAR KPAE 221753Z 36004KT 2 1/2SM RA BR OVC025 06/04 A2996 RMK AO2 SLP149 P0010 60046 T00610039 10078 20056 51032=
202312221653 METAR KPAE 221653Z 35006KT 3SM -RA BR BKN008 OVC025 06/04 A2993 RMK AO2 SLP138 P0008 T00610039=
202312221553 METAR KPAE 221553Z 35005KT 3SM -RA BR BKN004 BKN010 OVC017 06/04 A2991 RMK AO2 SLP131 P0025 T00610044=
202312221546 SPECI KPAE 221546Z 35005KT 3SM -RA BR BKN004 BKN010 OVC017 06/04 A2991 RMK AO2 P0024 T00610044=
202312221539 SPECI KPAE 221539Z 33008KT 3SM RA BR SCT004 BKN010 OVC024 06/04 A2990 RMK AO2 P0023 T00610044=
202312221453 METAR KPAE 221453Z 17009KT 7SM -RA BKN006 BKN026 OVC065 08/06 A2987 RMK AO2 SLP115 P0002 60003 T00780061 55003=
202312221412 SPECI KPAE 221412Z AUTO 15014KT 10SM -RA FEW007 BKN025 OVC055 08/06 A2986 RMK AO2 P0001 T00780056=
202312221353 METAR KPAE 221353Z AUTO 16013KT 10SM -RA FEW007 BKN049 OVC060 08/06 A2986 RMK AO2 RAE04B26 SLP113 P0001 T00780056=
202312221343 SPECI KPAE 221343Z AUTO 16013KT 10SM -RA FEW007 SCT029 OVC065 08/06 A2986 RMK AO2 RAE04B26 P0001 T00780056=
202312221325 SPECI KPAE 221325Z AUTO 16011G19KT 10SM FEW007 BKN029 OVC100 08/06 A2985 RMK AO2 RAE04 P0000 T00780056=
202312221300 SPECI KPAE 221300Z AUTO 16014G26KT 10SM -RA FEW008 BKN090 OVC100 08/06 A2986 RMK AO2 P0000 T00780056=
202312221253 METAR KPAE 221253Z AUTO 16015G26KT 10SM -RA BKN070 OVC090 08/06 A2985 RMK AO2 PK WND 13026/1251 SLP111 P0000 T00780056=
202312221153 METAR KPAE 221153Z AUTO 16012KT 10SM -RA FEW007 OVC060 08/06 A2988 RMK AO2 PK WND 15026/1110 RAB41 SLP119 P0000 60000 T00780061 10083 20078 58008=
202312221053 METAR KPAE 221053Z AUTO 16011KT 10SM FEW009 OVC080 08/06 A2989 RMK AO2 SLP122 T00830056=
202312221033 SPECI KPAE 221033Z AUTO 16013KT 10SM FEW008 OVC080 08/06 A2990 RMK AO2 T00830056=
202312220953 METAR KPAE 220953Z AUTO 16011KT 10SM BKN075 OVC110 08/06 A2990 RMK AO2 SLP126 T00780056=
202312220853 METAR KPAE 220853Z AUTO 16015KT 10SM FEW085 BKN110 08/06 A2990 RMK AO2 SLP127 T00830056 58011=
202312220753 METAR KPAE 220753Z AUTO 15014G23KT 10SM BKN100 08/06 A2991 RMK AO2 SLP130 T00830056 401110061=
202312220653 METAR KPAE 220653Z AUTO 16010KT 10SM SCT110 08/06 A2992 RMK AO2 SLP135 T00830056=
202312220553 METAR KPAE 220553Z AUTO 15011KT 10SM CLR 08/06 A2993 RMK AO2 SLP138 T00830056 10100 20067 58006=
202312220453 METAR KPAE 220453Z 17007KT 10SM CLR 08/06 A2994 RMK AO2 SLP141 T00780056=
202312220353 METAR KPAE 220353Z 17006KT 10SM CLR 08/06 A2995 RMK AO2 SLP143 T00830061=
202312220253 METAR KPAE 220253Z 16005KT 10SM CLR 09/06 A2995 RMK AO2 SLP145 T00890061 58011=
202312220153 METAR KPAE 220153Z 17006KT 10SM BCFG CLR 09/06 A2997 RMK AO2 SLP151 T00940061=
202312220053 METAR KPAE 220053Z 15009KT 5SM BCFG FEW001 10/06 A2998 RMK AO2 SLP153 T01000061=
202312220019 SPECI KPAE 220019Z 17004KT 5SM R16R/2600VP6000FT BCFG FEW001 07/06 A2998 RMK AO2 T00720061=
202312220016 SPECI KPAE 220016Z 18004KT 1/4SM R16R/2000V4500FT BCFG VV001 07/06 A2998 RMK AO2 T00670061=
202312220004 SPECI KPAE 220004Z 18004KT 3/4SM R16R/1600V5000FT BCFG VV001 07/06 A2999 RMK AO2 T00670056=
202312220000 SPECI KPAE 220000Z AUTO 17004KT 1 1/4SM R16R/1600VP6000FT BCFG SCT001 07/06 A2999 RMK AO2 T00720061=
202312212353 METAR KPAE 212353Z AUTO 18004KT 1/2SM R16R/1400VP6000FT BCFG BKN001 07/06 A2999 RMK AO2 SLP156 T00720061 10111 20072 56012=
202312212339 SPECI KPAE 212339Z 21005KT 1 3/4SM R16R/3000VP6000FT BCFG BKN001 08/06 A2999 RMK AO2 VIS 1V5 T00780061=
202312212253 METAR KPAE 212253Z 19010KT 10SM BCFG CLR 10/06 A2999 RMK AO2 SLP156 T01000061=
202312212153 METAR KPAE 212153Z 15007KT 10SM BCFG SCT004 10/07 A3000 RMK AO2 SLP160 T01000067=
202312212053 METAR KPAE 212053Z 17005KT 10SM BCFG SCT004 10/07 A3002 RMK AO2 SLP167 T01000067 58015=
202312212037 SPECI KPAE 212037Z 17005KT 10SM BCFG BKN004 09/07 A3002 RMK AO2 T00940067=
202312212016 SPECI KPAE 212016Z 16007KT 10SM BCFG SCT004 09/07 A3003 RMK AO2 T00890067=
202312212000 SPECI KPAE 212000Z 16005KT 8SM FG BKN004 09/07 A3004 RMK AO2 T00890072=
202312211953 METAR KPAE 211953Z 17006KT 1/4SM R16R/P6000FT FG OVC001 08/07 A3004 RMK AO2 SLP175 T00830067=
202312211853 METAR KPAE 211853Z 16005KT 1/4SM R16R/2400VP6000FT FG OVC001 08/07 A3006 RMK AO2 SLP181 T00780067=
202312211823 SPECI KPAE 211823Z 15006KT 1/4SM R16R/2400VP6000FT FG OVC001 08/07 A3006 RMK AO2 T00780067=
202312211753 METAR KPAE 211753Z 16006KT 1/2SM R16R/P6000FT FG VV002 08/06 A3006 RMK AO2 SLP183 T00780061 10083 20061 51009=
202312211743 SPECI KPAE 211743Z 17005KT 1/2SM R16R/P6000FT BR BCFG VV002 08/07 A3006 RMK AO2 T00830067=
202312211700 SPECI KPAE 211700Z 16003KT 2SM BR BCFG FEW004 OVC090 08/06 A3006 RMK AO2 T00780061=
202312211653 METAR KPAE 211653Z 00000KT 1SM R16R/P6000FT BR BCFG FEW002 BKN015 OVC110 07/07 A3006 RMK AO2 SLP182 T00720067=
202312211553 METAR KPAE 211553Z 15008KT 1SM R16R/P6000FT BR BCFG FEW002 BKN015 OVC110 07/06 A3005 RMK AO2 SLP179 T00720056=
202312211521 SPECI KPAE 211521Z 16005KT 1SM R16R/P6000FT BR BCFG FEW002 BKN015 OVC110 07/06 A3004 RMK AO2 T00670056=
202312211512 SPECI KPAE 211512Z 16005KT 1/2SM R16R/5500VP6000FT FG SCT002 BKN017 OVC110 07/06 A3004 RMK AO2 T00670056=
202312211453 METAR KPAE 211453Z 16006KT 1/2SM R16R/5500VP6000FT FG BKN001 OVC100 07/06 A3004 RMK AO2 SLP174 T00670056 50001=
202312211426 SPECI KPAE 211426Z AUTO 15006KT 3SM R16R/2800V5000FT BCFG OVC001 07/06 A3003 RMK AO2 T00670056=
202312211411 SPECI KPAE 211411Z AUTO VRB03KT 1 3/4SM R16R/3000V5500FT BCFG BKN001 OVC018 07/06 A3004 RMK AO2 T00670056=
202312211353 METAR KPAE 211353Z AUTO 00000KT 3SM R16R/3000V4500FT BCFG OVC001 07/06 A3004 RMK AO2 SLP174 T00670056=
202312211350 SPECI KPAE 211350Z AUTO 16003KT 2 1/2SM R16R/3500V4500FT BCFG OVC001 07/06 A3004 RMK AO2 VIS 1 1/2V4=
202312211342 SPECI KPAE 211342Z AUTO 15003KT 1 3/4SM R16R/3500V4500FT BCFG BKN001 OVC090 07/06 A3003 RMK AO2 T00670056=
202312211336 SPECI KPAE 211336Z AUTO 00000KT 3SM R16R/3000V4000FT BCFG BKN001 OVC085 07/06 A3003 RMK AO2 T00670061=
202312211303 SPECI KPAE 211303Z AUTO 14006KT 10SM BCFG SCT001 BKN095 OVC120 07/06 A3003 RMK AO2 T00720061=
202312211256 SPECI KPAE 211256Z AUTO 16005KT 3SM R16R/5500VP6000FT BCFG BKN001 OVC090 07/06 A3003 RMK AO2 T00720061=
202312211253 METAR KPAE 211253Z AUTO 17005KT 1 1/4SM R16R/5500VP6000FT BCFG BKN001 OVC080 07/06 A3003 RMK AO2 SLP173 T00720061=
202312211241 SPECI KPAE 211241Z AUTO 18004KT 1/2SM R16R/2600V3000FT BCFG VV001 07/06 A3004 RMK AO2 T00670061=
202312211223 SPECI KPAE 211223Z AUTO 17003KT 1/4SM R16R/1800V2400FT BCFG VV001 07/06 A3003 RMK AO2 T00670061=
202312211206 SPECI KPAE 211206Z AUTO 16005KT 1/4SM R16R/1800V2000FT BCFG VV001 07/06 A3003 RMK AO2 T00670056=
202312211201 SPECI KPAE 211201Z AUTO 16004KT 1/2SM R16R/2000V2800FT BCFG VV001 07/06 A3003 RMK AO2 T00670056=
202312211153 METAR KPAE 211153Z AUTO 17004KT 1SM R16R/2600V4500FT BCFG OVC001 07/06 A3002 RMK AO2 SLP169 T00670061 10072 20061 52008=
202312211141 SPECI KPAE 211141Z AUTO 17004KT 1SM R16R/5000VP6000FT BCFG OVC001 07/06 A3002 RMK AO2 T00670056=
202312211118 SPECI KPAE 211118Z AUTO 18004KT 3/4SM R16R/3500VP6000FT BCFG OVC001 07/06 A3002 RMK AO2 T00670061=
202312211100 SPECI KPAE 211100Z AUTO 16005KT 1 3/4SM R16R/4000VP6000FT BCFG OVC001 07/06 A3002 RMK AO2 T00670056=
202312211100 METAR KPAE 211100Z AUTO 16005KT 1 3/4SM R16R/4000VP6000FT BCFG OVC001 07/06 A3002 RMK AO2 T00670056=
202312211053 METAR KPAE 211053Z AUTO 16007KT 3/4SM R16R/2800V5000FT BCFG VV001 07/06 A3002 RMK AO2 SLP166 T00670056=
202312211035 SPECI KPAE 211035Z AUTO 16006KT 1/2SM R16R/2200V5000FT BCFG VV001 07/06 A3001 RMK AO2 T00670061=
202312211028 SPECI KPAE 211028Z AUTO 16005KT 1/4SM R16R/1800V2200FT BCFG VV001 07/06 A3001 RMK AO2 T00670061=
202312211017 SPECI KPAE 211017Z AUTO 16006KT 1/4SM R16R/2000V2600FT BCFG VV001 07/06 A3001 RMK AO2 T00720061=
202312211008 SPECI KPAE 211008Z AUTO 17005KT 1/4SM R16R/1800V2200FT BCFG VV001 07/06 A3001 RMK AO2 T00720061=
202312210957 SPECI KPAE 210957Z AUTO 16006KT 1/2SM R16R/2000V2400FT BCFG VV002 07/06 A3001 RMK AO2 T00720061=
202312210953 METAR KPAE 210953Z AUTO 16006KT 1/4SM R16R/2000V2200FT BCFG VV002 07/06 A3001 RMK AO2 SLP164 T00720061=
202312210945 SPECI KPAE 210945Z AUTO 16005KT 1/4SM R16R/1800V2200FT BCFG VV002 07/06 A3001 RMK AO2 T00720061=
202312210853 METAR KPAE 210853Z AUTO 16006KT 1/2SM R16R/2800V5000FT BCFG VV002 07/06 A3000 RMK AO2 SLP161 T00670056 57001=
202312210845 SPECI KPAE 210845Z AUTO 17005KT 3/4SM R16R/4500VP6000FT BCFG VV002 07/06 A3001 RMK AO2 T00670056=
202312210837 SPECI KPAE 210837Z AUTO 20005KT 1 3/4SM R16R/5500VP6000FT BCFG OVC001 07/06 A3001 RMK AO2 T00670056=
202312210820 SPECI KPAE 210820Z AUTO 17004KT 3SM BCFG OVC001 07/06 A3000 RMK AO2 T00670056=
202312210810 SPECI KPAE 210810Z AUTO 16004KT 2 1/2SM BCFG OVC001 07/06 A3000 RMK AO2 T00670056=
202312210753 METAR KPAE 210753Z AUTO 16005KT 1SM R16R/5000VP6000FT BCFG OVC001 06/05 A3000 RMK AO2 SLP160 T00610050 401110044=
202312210723 SPECI KPAE 210723Z AUTO 19004KT 3/4SM R16R/3500V5000FT BCFG OVC001 07/06 A3001 RMK AO2 T00670056=
202312210709 SPECI KPAE 210709Z AUTO 20004KT 1 3/4SM R16R/3500V4500FT BCFG OVC001 07/06 A3000 RMK AO2 T00670056=
202312210702 SPECI KPAE 210702Z AUTO 19004KT 3SM R16R/4000V5000FT BCFG BKN001 OVC110 07/06 A3000 RMK AO2 T00670061=
202312210653 METAR KPAE 210653Z AUTO 17003KT 5SM R16R/5000VP6000FT BCFG BKN002 OVC110 07/06 A3000 RMK AO2 SLP162 T00720061=
202312210648 SPECI KPAE 210648Z AUTO 16004KT 7SM BCFG SCT002 OVC110 07/06 A3000 RMK AO2=
202312210558 SPECI KPAE 210558Z AUTO 00000KT 3SM BCFG SCT025 BKN120 07/06 A3000 RMK AO2 T00670061=
202312210552 METAR KPAE 210552Z AUTO 00000KT 1 3/4SM BCFG FEW025 BKN120 06/06 A3000 RMK AO2 VIS 3/4V5 SLP160 T00610056 10094 20050 51010=
202312210551 SPECI KPAE 210551Z AUTO 00000KT 1 3/4SM BCFG FEW025 BKN120 06/06 A3000 RMK AO2 VIS 3/4V5=
202312210511 SPECI KPAE 210511Z AUTO 00000KT 10SM BCFG FEW025 06/05 A2999 RMK AO2 T00610050=
202312210500 SPECI KPAE 210500Z AUTO 00000KT 10SM BCFG BKN025 07/06 A2999 RMK AO2 T00720056=
202312210453 METAR KPAE 210453Z 00000KT 1SM R16R/P6000FT BCFG BKN001 OVC025 07/06 A2999 RMK AO2 SLP157 T00720056=
202312210421 SPECI KPAE 210421Z 00000KT 1SM R16R/P6000FT BCFG BKN001 OVC025 07/06 A2998 RMK AO2 T00670061=
202312210421 METAR KPAE 210421Z 00000KT 1SM R16R/P6000FT BCFG BKN001 OVC025 07/06 A2998 RMK AO2 T00670061=
202312210401 SPECI KPAE 210401Z 00000KT 4SM R16R/4000VP6000FT BCFG FEW002 OVC025 07/06 A2998 RMK AO2 T00670056=
202312210356 SPECI KPAE 210356Z 12003KT 1SM R16R/4000VP6000FT BCFG OVC026 07/06 A2997 RMK AO2 T00670056=
202312210353 METAR KPAE 210353Z 15003KT 1/4SM R16R/2800V5000FT BCFG OVC026 07/06 A2998 RMK AO2 SLP153 T00670056=
202312210340 SPECI KPAE 210340Z 00000KT 1/4SM R16R/1200V3500FT BCFG OVC026 06/06 A2998 RMK AO2 T00610056=
202312210328 SPECI KPAE 210328Z 00000KT 1/4SM R16R/1000V1400FT BCFG SCT001 OVC027 06/06 A2998 RMK AO2 T00610056=
202312210253 METAR KPAE 210253Z 00000KT 1/4SM R16R/0800V1000FT BCFG VV001 06/05 A2996 RMK AO2 SLP150 T00560050 51010=
202312210221 SPECI KPAE 210221Z 00000KT 1/4SM R16R/0600V0800FT BCFG VV001 06/04 A2996 RMK AO2 T00560044=
202312210153 METAR KPAE 210153Z 00000KT M1/4SM R16R/0700V0800FT BCFG VV001 06/06 A2996 RMK AO2 SLP147 T00610061=
202312210146 SPECI KPAE 210146Z 00000KT M1/4SM R16R/0700V1400FT BCFG VV001 07/06 A2995 RMK AO2 T00670056=
202312210139 SPECI KPAE 210139Z 29004KT 1/4SM R16R/1200VP6000FT BCFG VV001 06/04 A2996 RMK AO2 T00560044=
202312210135 SPECI KPAE 210135Z 29005KT 1SM R16R/1600VP6000FT BCFG VV001 06/05 A2995 RMK AO2 T00610050=
202312210053 METAR KPAE 210053Z 00000KT 9SM BCFG CLR 08/06 A2995 RMK AO2 SLP143 T00780061=
202312202353 METAR KPAE 202353Z 00000KT 10SM BCFG CLR 09/07 A2993 RMK AO2 SLP138 T00940067 10111 20083 53004=
202312202253 METAR KPAE 202253Z 00000KT 10SM BCFG CLR 10/07 A2993 RMK AO2 SLP135 T01000072=
202312202153 METAR KPAE 202153Z 00000KT 10SM BCFG SCT001 11/07 A2992 RMK AO2 SLP134 FG MOVING FROM W T01060072=
202312202111 SPECI KPAE 202111Z 24003KT 9SM BCFG SCT001 09/08 A2993 RMK AO2 FG MOVING FROM W T00940078=
202312202053 METAR KPAE 202053Z 26003KT 8SM BCFG CLR 09/07 A2992 RMK AO2 SLP134 T00940072 50000=
202312201953 METAR KPAE 201953Z 20003KT 10SM BCFG CLR 10/07 A2992 RMK AO2 SLP135 T01000072=
202312201853 METAR KPAE 201853Z 17007KT 10SM BCFG CLR 09/06 A2993 RMK AO2 SLP136 T00940056=
202312201753 METAR KPAE 201753Z 15007KT 10SM CLR 08/06 A2992 RMK AO2 SLP134 T00830056 10089 20044 51012=
202312201653 METAR KPAE 201653Z 11004KT 10SM CLR 08/05 A2991 RMK AO2 SLP131 T00780050=
202312201553 METAR KPAE 201553Z 11004KT 10SM CLR 06/04 A2990 RMK AO2 SLP127 T00610039=
202312201453 METAR KPAE 201453Z 00000KT 10SM CLR 04/03 A2989 RMK AO2 SLP123 T00440033 51016=
202312201353 METAR KPAE 201353Z AUTO 00000KT 10SM CLR 06/04 A2988 RMK AO2 SLP118 T00560039=
202312201253 METAR KPAE 201253Z AUTO 00000KT 10SM CLR 08/04 A2986 RMK AO2 SLP112 T00780044=
202312201153 METAR KPAE 201153Z AUTO 12003KT 10SM CLR 08/04 A2984 RMK AO2 SLP106 70008 T00780044 10100 20078 51010=
202312201053 METAR KPAE 201053Z AUTO VRB03KT 10SM CLR 08/05 A2983 RMK AO2 SLP104 T00830050=
202312200953 METAR KPAE 200953Z AUTO VRB03KT 10SM CLR 08/06 A2983 RMK AO2 SLP101 T00830056=
202312200853 METAR KPAE 200853Z AUTO VRB04KT 10SM CLR 09/06 A2981 RMK AO2 SLP096 T00890061 51014=
202312200753 METAR KPAE 200753Z AUTO VRB03KT 10SM CLR 09/07 A2980 RMK AO2 SLP094 T00890067 401110083=
202312200653 METAR KPAE 200653Z AUTO VRB03KT 10SM CLR 09/07 A2979 RMK AO2 SLP088 T00940072=
202312200553 METAR KPAE 200553Z AUTO VRB04KT 10SM CLR 09/07 A2977 RMK AO2 SLP082 T00890072 10106 20089 53019=
202312200453 METAR KPAE 200453Z VRB05KT 10SM CLR 09/07 A2975 RMK AO2 SLP076 T00940072=
202312200353 METAR KPAE 200353Z 15010G19KT 10SM CLR 10/08 A2973 RMK AO2 SLP068 T01000078=
202312200253 METAR KPAE 200253Z 15012G18KT 10SM FEW010 10/08 A2971 RMK AO2 SLP062 T01000078 51019=
202312200153 METAR KPAE 200153Z 15012KT 10SM SCT025 11/08 A2969 RMK AO2 SLP057 T01060083=
202312200103 SPECI KPAE 200103Z 15014KT 10SM OVC028 10/08 A2968 RMK AO2 T01000078=
202312200053 METAR KPAE 200053Z 15014KT 10SM BKN008 OVC026 10/08 A2967 RMK AO2 SLP049 T01000078=
202312200010 SPECI KPAE 200010Z 15009G17KT 10SM FEW004 BKN008 OVC023 09/08 A2966 RMK AO2 T00940078=
202312192353 METAR KPAE 192353Z VRB06KT 10SM FEW004 SCT014 OVC023 09/08 A2965 RMK AO2 RAE01 SLP043 P0001 60007 T00940078 10111 20094 53022=
202312192345 SPECI KPAE 192345Z VRB04KT 6SM BR FEW004 BKN014 OVC025 09/08 A2965 RMK AO2 RAE01 P0001 T00940078=
202312192325 SPECI KPAE 192325Z VRB04KT 2SM BR SCT003 BKN014 OVC020 09/08 A2964 RMK AO2 RAE01 P0000 T00940078=
202312192253 METAR KPAE 192253Z 12007KT 100V160 1 1/2SM -RA BR BKN003 BKN018 OVC025 09/08 A2962 RMK AO2 RAE15B44 SLP032 P0002 T00940078=
202312192221 SPECI KPAE 192221Z 14006KT 1 1/2SM BR BKN003 BKN018 OVC025 09/08 A2961 RMK AO2 RAE15 P0001 T00940078=
202312192214 SPECI KPAE 192214Z VRB05KT 2SM -RA BR BKN003 BKN018 OVC025 09/08 A2960 RMK AO2 P0001 T00940078=
202312192202 SPECI KPAE 192202Z 12007KT 1 1/2SM R16R/5000VP6000FT -RA BR BKN003 BKN018 OVC025 09/08 A2960 RMK AO2 P0001 T00940078=
202312192200 SPECI KPAE 192200Z VRB06KT 1 1/2SM R16R/5000VP6000FT -RA BR SCT003 BKN018 OVC025 09/08 A2960 RMK AO2 P0001 T00940078=
202312192153 METAR KPAE 192153Z VRB06KT 2SM R16R/5500VP6000FT -RA BR FEW003 BKN020 OVC029 09/08 A2960 RMK AO2 SLP025 P0004 T00940078=
202312192112 SPECI KPAE 192112Z 13005KT 2SM R16R/6000VP6000FT -RA BR FEW005 OVC024 09/08 A2959 RMK AO2 P0001 T00940078=
202312192053 METAR KPAE 192053Z VRB06KT 2SM -RA BR BKN029 OVC036 10/08 A2959 RMK AO2 RAB05 SLP020 P0000 60000 T01000078 51007=
202312192050 SPECI KPAE 192050Z VRB05KT 4SM -RA BR BKN029 OVC036 10/08 A2959 RMK AO2 RAB05 VIS E-S 2 P0000=
202312192015 SPECI KPAE 192015Z 14011G18KT 090V160 2SM -RA BKN039 OVC048 09/07 A2958 RMK AO2 RAB05 P0000 T00940067=
202312191953 METAR KPAE 191953Z 15011G18KT 10SM BKN045 OVC055 11/06 A2959 RMK AO2 SLP020 T01060056=
202312191853 METAR KPAE 191853Z 14006KT 10SM OVC040 11/04 A2957 RMK AO2 SLP013 T01060044=
202312191753 METAR KPAE 191753Z VRB06KT 10SM BKN050 OVC065 10/04 A2954 RMK AO2 SLP004 60001 T01000039 10100 20089 53013=
202312191653 METAR KPAE 191653Z 10010KT 10SM BKN080 OVC090 10/04 A2951 RMK AO2 RAE1554B38E47 SLP993 P0000 T01000044=
202312191553 METAR KPAE 191553Z 15007G16KT 10SM -RA FEW050 OVC060 09/04 A2952 RMK AO2 SLP996 P0001 T00940044=
202312191453 METAR KPAE 191453Z 11007KT 10SM -RA SCT060 OVC080 09/04 A2950 RMK AO2 RAE1359B34 SLP991 P0000 60000 T00940039 53006=
202312191353 METAR KPAE 191353Z AUTO 14004KT 10SM -RA OVC060 09/03 A2950 RMK AO2 RAB34 SLP990 P0000 T00940033=
202312191253 METAR KPAE 191253Z AUTO 00000KT 10SM BKN075 OVC095 10/03 A2948 RMK AO2 SLP984 T01000028=
202312191153 METAR KPAE 191153Z AUTO VRB03KT 10SM BKN070 OVC080 10/03 A2948 RMK AO2 SLP984 60000 70005 T01000033 10106 20083 56009=
202312191053 METAR KPAE 191053Z AUTO VRB05KT 10SM BKN080 OVC095 10/04 A2949 RMK AO2 RAB22E52 SLP986 P0000 T01000039=
202312190953 METAR KPAE 190953Z AUTO 11008KT 10SM BKN110 10/03 A2949 RMK AO2 SLP987 T01000028=
202312190853 METAR KPAE 190853Z AUTO 11008KT 10SM CLR 09/03 A2951 RMK AO2 SLP993 T00940033 58017=
202312190753 METAR KPAE 190753Z AUTO 11008KT 10SM CLR 09/04 A2952 RMK AO2 SLP999 T00890039 401000050=
202312190653 METAR KPAE 190653Z AUTO VRB03KT 10SM SCT044 BKN080 OVC110 09/04 A2955 RMK AO2 SLP009 T00890044=
202312190553 METAR KPAE 190553Z AUTO VRB05KT 10SM OVC041 08/05 A2956 RMK AO2 SLP012 60005 T00830050 10100 20078 56010=
202312190453 METAR KPAE 190453Z VRB04KT 10SM FEW030 BKN047 OVC060 08/05 A2957 RMK AO2 RAB14E51 SLP016 P0000 T00830050=
202312190400 SPECI KPAE 190400Z VRB05KT 10SM FEW030 BKN040 OVC060 08/06 A2958 RMK AO2 T00830056=
202312190353 METAR KPAE 190353Z VRB05KT 10SM BKN020 BKN030 OVC060 08/05 A2958 RMK AO2 RAB11E38 SLP017 P0000 T00830050=
202312190253 METAR KPAE 190253Z 13005KT 10SM BKN021 BKN033 OVC050 08/04 A2959 RMK AO2 RAE10 SLP022 P0000 60005 T00830044 58008=
202312190215 SPECI KPAE 190215Z 12006KT 10SM BKN021 BKN035 OVC050 08/04 A2959 RMK AO2 RAE10 P0000 T00780039=
202312190153 METAR KPAE 190153Z 12007G16KT 10SM -RA FEW024 BKN033 OVC080 08/04 A2960 RMK AO2 SLP025 P0003 T00780039=
202312190053 METAR KPAE 190053Z VRB03KT 8SM -RA OVC034 08/03 A2962 RMK AO2 RAB20 SLP031 P0002 T00830033=
202312182353 METAR KPAE 182353Z VRB04KT 10SM OVC045 10/02 A2962 RMK AO2 RAE2254 SLP031 P0000 60000 T01000017 10100 20061 56017=
202312182253 METAR KPAE 182253Z 00000KT 10SM -RA OVC045 09/02 A2963 RMK AO2 RAB45 SLP036 P0000 T00940022=
202312182153 METAR KPAE 182153Z 16005KT 10SM OVC060 09/03 A2964 RMK AO2 SLP040 T00890028=
202312182053 METAR KPAE 182053Z 14005KT 10SM BKN060 OVC075 08/03 A2967 RMK AO2 RAE34 SLP049 P0000 60000 T00780028 58026=
202312181953 METAR KPAE 181953Z 15007KT 10SM -RA SCT070 OVC095 08/02 A2971 RMK AO2 RAB47 SLP063 P0000 T00780017=
202312181853 METAR KPAE 181853Z 17005KT 10SM OVC100 07/03 A2974 RMK AO2 SLP072 T00670033=
202312181753 METAR KPAE 181753Z 15007KT 10SM OVC100 07/02 A2975 RMK AO2 SLP075 T00670017 10072 20050 56014=
202312181653 METAR KPAE 181653Z 16006KT 10SM CLR 06/02 A2975 RMK AO2 SLP077 T00610017=
202312181553 METAR KPAE 181553Z 15006KT 10SM FEW120 07/01 A2976 RMK AO2 SLP079 T00720011=
202312181453 METAR KPAE 181453Z 10004KT 10SM BKN120 06/04 A2979 RMK AO2 SLP089 T00610039 58021=
202312181353 METAR KPAE 181353Z AUTO 15003KT 10SM OVC120 05/04 A2981 RMK AO2 SLP098 T00500039=
202312181310 SPECI KPAE 181310Z AUTO 11003KT 3SM R16R/3000VP6000FT BR FEW001 BKN120 06/04 A2983 RMK AO2 T00610044=
202312181304 SPECI KPAE 181304Z AUTO 11004KT 1 1/2SM R16R/3000V4000FT BR SCT001 SCT120 06/04 A2984 RMK AO2 T00610044=
202312181253 METAR KPAE 181253Z AUTO 00000KT 2 1/2SM R16R/5000VP6000FT BR FEW001 06/05 A2984 RMK AO2 SLP106 T00610050=
202312181238 SPECI KPAE 181238Z AUTO 10003KT 4SM BR SCT001 06/05 A2984 RMK AO2 T00610050=
202312181231 SPECI KPAE 181231Z AUTO 00000KT 2SM R16R/2600VP6000FT BR BKN001 06/05 A2984 RMK AO2 T00610050=
202312181219 SPECI KPAE 181219Z AUTO 00000KT 1/2SM R16R/2200V3000FT FG VV001 06/05 A2984 RMK AO2 T00610050=
202312181211 SPECI KPAE 181211Z AUTO 00000KT 3/4SM R16R/1800V2200FT BR VV001 06/05 A2985 RMK AO2 T00610050=
202312181153 METAR KPAE 181153Z AUTO 00000KT 1/4SM R16R/1400V2000FT FG VV001 06/05 A2985 RMK AO2 SLP111 T00560050 10067 20056 56007=
202312181148 SPECI KPAE 181148Z AUTO 00000KT 1/2SM R16R/1200V1600FT FG VV001 06/05 A2986 RMK AO2=
202312181053 METAR KPAE 181053Z AUTO 00000KT 1/4SM R16R/1200V2000FT FG VV001 06/05 A2987 RMK AO2 SLP116 T00610050=
202312181016 SPECI KPAE 181016Z AUTO 00000KT 1/4SM R16R/1800V2200FT FG VV001 06/05 A2987 RMK AO2 T00610050=
202312181005 SPECI KPAE 181005Z AUTO 00000KT 1/2SM R16R/2600V3000FT FG VV001 06/05 A2987 RMK AO2 T00610050=
202312180953 METAR KPAE 180953Z AUTO 33003KT 1SM R16R/3500V5500FT BR OVC001 06/05 A2987 RMK AO2 SLP118 T00610050=
202312180940 SPECI KPAE 180940Z AUTO 00000KT 1 3/4SM R16R/4000VP6000FT BR BKN002 06/05 A2987 RMK AO2 T00610050=
202312180853 METAR KPAE 180853Z AUTO 02004KT 3SM R16R/3000VP6000FT BR BKN003 07/05 A2989 RMK AO2 SLP123 T00670050 58016=
202312180843 SPECI KPAE 180843Z AUTO 10003KT 2 1/2SM BR BKN003 06/05 A2989 RMK AO2 T00610050=
202312180838 SPECI KPAE 180838Z AUTO 00000KT 3SM R16R/5500VP6000FT BR BKN001 06/05 A2989 RMK AO2 T00610050=
202312180753 METAR KPAE 180753Z AUTO 00000KT 2 1/2SM BR OVC001 07/06 A2992 RMK AO2 SLP134 T00670056 400720000=
202312180750 SPECI KPAE 180750Z AUTO 00000KT 2 1/2SM BR OVC002 07/06 A2992 RMK AO2=
202312180653 METAR KPAE 180653Z AUTO 02005KT 6SM BR OVC003 07/05 A2993 RMK AO2 SLP139 T00670050=
202312180640 SPECI KPAE 180640Z AUTO 02007KT 6SM BR OVC003 07/06 A2994 RMK AO2 T00670056=
202312180622 SPECI KPAE 180622Z AUTO 36003KT 4SM BR OVC001 07/06 A2996 RMK AO2 T00670056=
202312180600 SPECI KPAE 180600Z AUTO 35005KT 4SM BR BKN002 OVC006 07/05 A2996 RMK AO2 T00670050=
202312180553 METAR KPAE 180553Z 34004KT 1SM R16R/P6000FT BR BKN002 07/05 A2997 RMK AO2 SLP152 T00670050 10067 20056 58005=
202312180509 SPECI KPAE 180509Z 00000KT 3/4SM R16R/P6000FT BR OVC002 07/05 A2998 RMK AO2 T00670050=
202312180453 METAR KPAE 180453Z 35004KT 3SM BR BKN002 06/05 A2998 RMK AO2 SLP154 T00610050=
202312180415 SPECI KPAE 180415Z 34003KT 5SM BR SCT002 06/05 A2999 RMK AO2 T00610050=
202312180355 SPECI KPAE 180355Z 02003KT 2SM BR BKN002 06/05 A2999 RMK AO2 CIG 001V005 T00610050=
202312180353 METAR KPAE 180353Z 02004KT 1SM R16R/P6000FT BR BKN002 06/05 A2999 RMK AO2 SLP160 T00610050=
202312180343 SPECI KPAE 180343Z 01005KT 1SM R16R/P6000FT BR BKN002 07/05 A2999 RMK AO2 T00670050=
202312180332 SPECI KPAE 180332Z 36008KT 3SM BR BKN002 07/05 A2998 RMK AO2 T00670050=
202312180323 SPECI KPAE 180323Z 36008KT 9SM SCT002 07/05 A2998 RMK AO2 T00670050=
202312180253 METAR KPAE 180253Z 36007KT 10SM CLR 06/04 A2998 RMK AO2 SLP157 T00610044 56015=
202312180153 METAR KPAE 180153Z 00000KT 10SM CLR 07/04 A3000 RMK AO2 SLP163 T00670044=
202312180053 METAR KPAE 180053Z 36004KT 10SM CLR 06/03 A3001 RMK AO2 SLP167 T00560033=
202312172353 METAR KPAE 172353Z 35005KT 10SM CLR 07/04 A3003 RMK AO2 SLP173 T00670039 10072 20039 58019=
202312172253 METAR KPAE 172253Z 34006KT 10SM BKN100 07/03 A3006 RMK AO2 SLP182 T00720033=
202312172153 METAR KPAE 172153Z 35005KT 10SM OVC110 07/04 A3007 RMK AO2 SLP185 T00720039=
202312172053 METAR KPAE 172053Z 02005KT 10SM BKN110 07/03 A3009 RMK AO2 SLP192 T00720033 58030=
202312171953 METAR KPAE 171953Z 00000KT 10SM VCFG BKN110 06/03 A3013 RMK AO2 SLP206 T00610028=
202312171853 METAR KPAE 171853Z 10SM VCFG OVC110 05/03 A3016 RMK AO2 SLP218 T00500028=
202312171811 SPECI KPAE 171811Z 03007KT 5SM VCFG FEW002 OVC110 04/03 A3018 RMK AO2 T00440028=
202312171753 METAR KPAE 171753Z 36004KT 10SM VCFG OVC110 04/02 A3018 RMK AO2 SLP224 T00390022 10039 20006 53002=
202312171653 METAR KPAE 171653Z 01005KT 10SM FEW001 OVC120 03/02 A3017 RMK AO2 SLP221 T00330017=
202312171553 METAR KPAE 171553Z 00000KT 10SM FEW001 OVC120 02/01 A3017 RMK AO2 SLP220 T00170011=
202312171541 SPECI KPAE 171541Z 36003KT 7SM FEW001 OVC120 02/01 A3017 RMK AO2 T00220006=
202312171453 METAR KPAE 171453Z AUTO 00000KT 10SM BKN120 02/01 A3017 RMK AO2 SLP222 T00220011 56008=
202312171353 METAR KPAE 171353Z AUTO 00000KT 10SM CLR 01/00 A3018 RMK AO2 SLP224 T00110000=
202312171253 METAR KPAE 171253Z AUTO 00000KT 10SM BKN110 03/01 A3018 RMK AO2 SLP226 T00280011=
202312171153 METAR KPAE 171153Z AUTO 00000KT 5SM BR CLR 01/00 A3020 RMK AO2 SLP230 T00110000 10050 20000 58003=
202312171151 SPECI KPAE 171151Z AUTO 00000KT 2 1/2SM BR CLR 01/00 A3020 RMK AO2=
202312171134 METAR KPAE 171134Z AUTO 00000KT 1/2SM R16R/P6000FT FG CLR 01/M01 A3020 RMK AO2 T00061011=
202312171134 SPECI KPAE 171134Z AUTO 00000KT 1/2SM R16R/P6000FT FG CLR 01/M01 A3020 RMK AO2 T00061011=
202312171111 SPECI KPAE 171111Z AUTO 00000KT 3/4SM R16R/4000VP6000FT BR VV001 01/00 A3021 RMK AO2 T00060000=
202312171053 METAR KPAE 171053Z AUTO 00000KT 1/4SM R16R/2200V4000FT FG VV001 01/01 A3021 RMK AO2 SLP235 T00110006=
202312171050 SPECI KPAE 171050Z AUTO 00000KT 1/4SM R16R/1000V4000FT FG VV001 01/01 A3021 RMK AO2=
202312171038 SPECI KPAE 171038Z AUTO 00000KT 1/4SM R16R/1000V1800FT FG VV001 02/01 A3021 RMK AO2 T00170011=
202312171028 SPECI KPAE 171028Z AUTO 01004KT 3/4SM R16R/2400VP6000FT BR VV001 02/01 A3021 RMK AO2 T00220011=
202312171026 SPECI KPAE 171026Z AUTO 01004KT 1 1/2SM R16R/6000VP6000FT BR FEW001 02/01 A3021 RMK AO2 T00220011=
202312170953 METAR KPAE 170953Z AUTO 36003KT 6SM BR CLR 02/00 A3020 RMK AO2 SLP232 T00170000=
202312170853 METAR KPAE 170853Z AUTO 02003KT 10SM CLR 02/00 A3020 RMK AO2 SLP229 T00220000 56005=
202312170753 METAR KPAE 170753Z AUTO 00000KT 10SM CLR 03/01 A3020 RMK AO2 SLP231 T00280006 400940017=
202312170653 METAR KPAE 170653Z AUTO 00000KT 10SM CLR 04/01 A3020 RMK AO2 SLP232 T00440011=
202312170553 METAR KPAE 170553Z AUTO 05003KT 10SM CLR 04/01 A3021 RMK AO2 SLP234 T00390011 10061 20028 51009=
202312170453 METAR KPAE 170453Z 00000KT 10SM CLR 03/00 A3021 RMK AO2 SLP233 T00330000=
202312170353 METAR KPAE 170353Z 00000KT 10SM CLR 04/01 A3019 RMK AO2 SLP229 T00390006=
202312170253 METAR KPAE 170253Z 00000KT 10SM CLR 03/00 A3018 RMK AO2 SLP226 T00330000 51013=
202312170153 METAR KPAE 170153Z 00000KT 10SM CLR 04/01 A3018 RMK AO2 SLP225 T00440006=
202312170053 METAR KPAE 170053Z 00000KT 10SM CLR 05/01 A3017 RMK AO2 SLP220 T00500011=
202312162353 METAR KPAE 162353Z 35003KT 10SM CLR 06/02 A3015 RMK AO2 SLP212 T00560022 10094 20056 55004=
202312162253 METAR KPAE 162253Z 00000KT 10SM CLR 07/02 A3013 RMK AO2 SLP208 T00670022=
202312162153 METAR KPAE 162153Z 00000KT 10SM CLR 08/02 A3015 RMK AO2 SLP214 T00780022=
202312162053 METAR KPAE 162053Z 36004KT 10SM CLR 09/03 A3016 RMK AO2 SLP214 T00940033 57003=
202312161953 METAR KPAE 161953Z 00000KT 10SM CLR 07/03 A3016 RMK AO2 SLP216 T00720028=
202312161853 METAR KPAE 161853Z 19004KT 10SM CLR 06/01 A3017 RMK AO2 SLP218 T00610011=
202312161753 METAR KPAE 161753Z 10005KT 10SM CLR 06/00 A3017 RMK AO2 SLP219 T00610000 10067 20022 51008=
202312161653 METAR KPAE 161653Z 00000KT 10SM CLR 06/00 A3016 RMK AO2 SLP217 T00560000=
202312161553 METAR KPAE 161553Z 19005KT 10SM CLR 03/M01 A3016 RMK AO2 SLP215 T00281006=
202312161453 METAR KPAE 161453Z 15003KT 10SM CLR 04/M01 A3014 RMK AO2 SLP211 T00391006 51002=
202312161353 METAR KPAE 161353Z AUTO 00000KT 10SM CLR 03/M01 A3014 RMK AO2 SLP210 T00281006=
202312161253 METAR KPAE 161253Z AUTO 00000KT 10SM CLR 03/M01 A3014 RMK AO2 SLP210 T00331006=
202312161153 METAR KPAE 161153Z AUTO 12003KT 10SM CLR 06/M01 A3014 RMK AO2 SLP207 T00561006 10083 20044 55005=
202312161053 METAR KPAE 161053Z AUTO 17004KT 10SM CLR 04/00 A3014 RMK AO2 SLP207 T00440000=
202312160953 METAR KPAE 160953Z AUTO 16008KT 10SM CLR 07/00 A3015 RMK AO2 SLP212 T00670000=
202312160853 METAR KPAE 160853Z AUTO 16008KT 10SM CLR 07/00 A3015 RMK AO2 SLP212 T00670000 58003=
202312160753 METAR KPAE 160753Z AUTO 15007KT 10SM CLR 07/00 A3015 RMK AO2 SLP213 T00720000 401220039=
202312160653 METAR KPAE 160653Z AUTO 17006KT 10SM CLR 07/01 A3017 RMK AO2 SLP217 T00720006=
202312160553 METAR KPAE 160553Z AUTO 15007KT 10SM CLR 08/01 A3016 RMK AO2 SLP216 T00780011 10111 20039 58008=
202312160453 METAR KPAE 160453Z AUTO 15006KT 10SM CLR 05/01 A3018 RMK AO2 SLP223 T00500011=
202312160353 METAR KPAE 160353Z 00000KT 10SM CLR 07/02 A3018 RMK AO2 SLP224 T00720017=
202312160253 METAR KPAE 160253Z 17003KT 10SM CLR 06/02 A3019 RMK AO2 SLP225 T00560017 50001=
202312160153 METAR KPAE 160153Z 15004KT 10SM CLR 10/02 A3019 RMK AO2 SLP225 T01000022=
202312160053 METAR KPAE 160053Z 15004KT 10SM CLR 10/03 A3019 RMK AO2 SLP224 T01000033=
202312152353 METAR KPAE 152353Z 16006KT 10SM CLR 11/04 A3018 RMK AO2 SLP222 T01060039 10122 20089 56009=
202312152253 METAR KPAE 152253Z 15007KT 10SM CLR 12/03 A3019 RMK AO2 SLP224 T01170028=
202312152153 METAR KPAE 152153Z 16007KT 10SM CLR 12/03 A3020 RMK AO2 SLP227 T01220033=
202312152053 METAR KPAE 152053Z VRB05KT 10SM CLR 12/04 A3021 RMK AO2 SLP232 T01220039 58012=
202312151953 METAR KPAE 151953Z VRB03KT 10SM CLR 11/03 A3022 RMK AO2 SLP236 T01110033=
202312151853 METAR KPAE 151853Z VRB03KT 10SM CLR 10/03 A3024 RMK AO2 SLP242 T01000028=
202312151753 METAR KPAE 151753Z 00000KT 10SM CLR 09/03 A3025 RMK AO2 SLP244 T00890028 10089 20067 51008=
202312151653 METAR KPAE 151653Z 15006KT 10SM CLR 09/03 A3025 RMK AO2 SLP244 T00890028=
202312151553 METAR KPAE 151553Z 00000KT 10SM CLR 08/03 A3024 RMK AO2 SLP244 T00780028=
202312151453 METAR KPAE 151453Z 00000KT 10SM CLR 08/03 A3022 RMK AO2 SLP236 T00830028 53001=
202312151353 METAR KPAE 151353Z AUTO 11005KT 10SM CLR 08/03 A3022 RMK AO2 SLP236 T00830033=
202312151253 METAR KPAE 151253Z AUTO VRB06KT 10SM FEW120 08/03 A3021 RMK AO2 SLP235 T00830028=
202312151153 METAR KPAE 151153Z AUTO 11004KT 10SM BKN055 08/03 A3022 RMK AO2 SLP236 70017 T00830028 10089 20072 55001=
202312151053 METAR KPAE 151053Z AUTO 00000KT 10SM FEW039 SCT049 OVC060 08/02 A3022 RMK AO2 SLP235 T00780022=
202312150953 METAR KPAE 150953Z AUTO 16003KT 10SM SCT034 BKN047 OVC070 08/02 A3022 RMK AO2 SLP237 T00780017=
202312150853 METAR KPAE 150853Z AUTO 10007KT 10SM BKN035 OVC065 08/03 A3022 RMK AO2 SLP238 T00780028 58002=
202312150753 METAR KPAE 150753Z AUTO 10006KT 10SM OVC033 07/03 A3024 RMK AO2 SLP242 T00720033 400890056=
202312150653 METAR KPAE 150653Z AUTO 10003KT 10SM OVC032 08/04 A3025 RMK AO2 SLP246 T00830039=
202312150553 METAR KPAE 150553Z AUTO 26003KT 10SM OVC031 08/04 A3023 RMK AO2 SLP240 T00830039 10083 20072 58000=
202312150453 METAR KPAE 150453Z AUTO 11007KT 10SM OVC032 08/04 A3022 RMK AO2 SLP237 T00780039=
202312150353 METAR KPAE 150353Z 11004KT 10SM FEW020 BKN027 OVC036 08/05 A3025 RMK AO2 SLP247 T00780050=
202312150253 METAR KPAE 150253Z 15003KT 10SM BKN021 OVC029 08/06 A3023 RMK AO2 SLP240 T00780061 51002=
202312150153 METAR KPAE 150153Z 09004KT 10SM OVC019 08/06 A3023 RMK AO2 SLP239 T00830056=
202312150053 METAR KPAE 150053Z 11005KT 10SM BKN016 OVC025 07/06 A3024 RMK AO2 SLP242 T00720056=
202312142353 METAR KPAE 142353Z 11004KT 10SM BKN009 OVC014 07/05 A3022 RMK AO2 SLP237 T00720050 10072 20061 53008=
202312142256 SPECI KPAE 142256Z 11004KT 4SM BR OVC008 07/05 A3021 RMK AO2 T00670050=
202312142253 METAR KPAE 142253Z 11004KT 1 1/4SM BR BKN001 OVC010 07/05 A3021 RMK AO2 SLP233 T00670050=
202312142157 SPECI KPAE 142157Z 11003KT 1 1/4SM R16R/6000VP6000FT BR BKN001 OVC010 07/06 A3020 RMK AO2 T00720056=
202312142153 METAR KPAE 142153Z 10003KT 1 1/4SM R16R/6000VP6000FT BR BKN004 OVC009 07/06 A3020 RMK AO2 SLP229 T00720056=
202312142151 SPECI KPAE 142151Z 10003KT 1 1/4SM R16R/6000VP6000FT BR BKN005 OVC012 07/06 A3020 RMK AO2=
202312142100 SPECI KPAE 142100Z 13003KT 2SM BR BKN005 OVC012 07/05 A3019 RMK AO2 T00670050=
202312142053 METAR KPAE 142053Z VRB03KT 3SM BR BKN005 OVC014 07/05 A3019 RMK AO2 SLP227 T00670050 51005=
202312142019 SPECI KPAE 142019Z VRB04KT 10SM BKN005 OVC014 07/04 A3019 RMK AO2 T00670044=
202312141953 METAR KPAE 141953Z 11004KT 10SM FEW005 OVC015 07/04 A3019 RMK AO2 SLP225 T00670039=
202312141853 METAR KPAE 141853Z 10006KT 10SM OVC018 07/04 A3019 RMK AO2 SLP226 T00670039 $=
202312141800 SPECI KPAE 141800Z 17003KT 10SM OVC025 07/03 A3019 RMK AO2 T00670033 $=
202312141753 METAR KPAE 141753Z VRB05KT 10SM OVC030 07/03 A3018 RMK AO2 RAB1659E21 SLP223 P0000 60017 T00670028 10078 20056 53018 $=
202312141653 METAR KPAE 141653Z 18003KT 10SM FEW012 OVC030 06/03 A3016 RMK AO2 RAE42 SLP216 P0001 T00610033 $=
202312141646 SPECI KPAE 141646Z 17003KT 10SM FEW012 OVC030 06/03 A3015 RMK AO2 RAE42 P0001 T00610033 $=
202312141617 SPECI KPAE 141617Z 00000KT 9SM -RA BKN012 OVC031 06/03 A3014 RMK AO2 P0001 T00610033 $=
202312141553 METAR KPAE 141553Z 11006KT 9SM -RA FEW017 OVC033 06/03 A3013 RMK AO2 SLP206 P0003 T00610033 $=
202312141453 METAR KPAE 141453Z VRB03KT 8SM -RA SCT034 OVC041 06/03 A3013 RMK AO2 SLP204 P0003 60013 T00610028 53014 $=
202312141353 METAR KPAE 141353Z AUTO VRB04KT 10SM -RA OVC043 07/02 A3011 RMK AO2 SLP199 P0006 T00670022 $=
202312141253 METAR KPAE 141253Z AUTO 15008KT 10SM -RA OVC047 07/02 A3009 RMK AO2 SLP190 P0004 T00720017 $=
202312141153 METAR KPAE 141153Z AUTO 15007KT 10SM -RA OVC046 07/01 A3008 RMK AO2 SLP189 P0002 60003 7//// T00720011 10083 20067 51013 $=
202312141053 METAR KPAE 141053Z AUTO 15006KT 10SM -RA OVC050 08/00 A3008 RMK AO2 RAB26 SLP186 P0001 T00780000 $=
202312140953 METAR KPAE 140953Z AUTO 15007KT 10SM OVC060 08/M01 A3007 RMK AO2 SLP183 T00781006 $=
202312140853 METAR KPAE 140853Z AUTO VRB05KT 10SM OVC070 08/M01 A3005 RMK AO2 SLP176 T00781006 51002 $=
202312140753 METAR KPAE 140753Z AUTO VRB04KT 10SM BKN075 OVC100 08/M01 A3005 RMK AO2 SLP176 T00781011 401110028 $=
202312140653 METAR KPAE 140653Z AUTO 15008KT 10SM BKN080 08/M01 A3005 RMK AO2 SLP177 T00831011 $=
202312140553 METAR KPAE 140553Z AUTO 10SM FEW090 08/M01 A3004 RMK AO2 SLP174 6//// T00831006 10106 20072 51006 $=
202312140453 METAR KPAE 140453Z 15008KT 10SM CLR 08/M01 A3004 RMK AO2 SLP174 T00831006 $=
202312140353 METAR KPAE 140353Z 18005KT 10SM OVC100 08/M01 A3004 RMK AO2 SLP176 T00831006 $=
202312140253 METAR KPAE 140253Z 14006KT 10SM OVC100 09/M02 A3002 RMK AO2 SLP168 6//// T00891017 $=
202312140153 METAR KPAE 140153Z 15008KT 10SM CLR 09/M01 A3003 RMK AO2 SLP171 T00891011 $=
202312140053 METAR KPAE 140053Z VRB04KT 10SM CLR 10/M01 A3002 RMK AO2 SLP166 T01001011 $=
202312132353 METAR KPAE 132353Z 15010G19KT 10SM CLR 11/M01 A3001 RMK AO2 SLP164 T01061011 10111 20067 56011=
202312132253 METAR KPAE 132253Z 14007G18KT 10SM CLR 11/01 A3001 RMK AO2 SLP165 T01060011=
202312132153 METAR KPAE 132153Z 17010KT 10SM CLR 11/01 A3003 RMK AO2 SLP172 T01110011=
202312132053 METAR KPAE 132053Z 17007KT 10SM CLR 10/01 A3004 RMK AO2 SLP177 T01000011 58008=
202312131953 METAR KPAE 131953Z 16008KT 10SM CLR 10/01 A3005 RMK AO2 SLP179 T01000006=
202312131853 METAR KPAE 131853Z 17009KT 10SM CLR 09/01 A3007 RMK AO2 SLP185 T00890006=
202312131753 METAR KPAE 131753Z 10SM CLR 07/00 A3007 RMK AO2 SLP185 T00670000 10072 20044 53003=
202312131653 METAR KPAE 131653Z 16007KT 10SM CLR 05/01 A3006 RMK AO2 SLP184 T00500006=
202312131553 METAR KPAE 131553Z 16006KT 10SM CLR 05/00 A3006 RMK AO2 SLP183 T00500000=
202312131453 METAR KPAE 131453Z 15009KT 10SM CLR 06/M01 A3006 RMK AO2 SLP181 T00561006 58005=
202312131353 METAR KPAE 131353Z 15011KT 10SM CLR 07/M01 A3007 RMK AO2 SLP185 T00671011=
202312131253 METAR KPAE 131253Z 15010KT 10SM CLR 06/M01 A3007 RMK AO2 SLP185 T00611011=
202312131153 METAR KPAE 131153Z 15009G16KT 10SM CLR 07/M01 A3008 RMK AO2 SLP187 T00721011 10072 20028 56007=
202312131053 METAR KPAE 131053Z VRB05KT 10SM CLR 07/M01 A3008 RMK AO2 SLP187 T00671011=
202312130953 METAR KPAE 130953Z VRB03KT 10SM CLR 05/M01 A3009 RMK AO2 SLP193 T00501011=
202312130853 METAR KPAE 130853Z 15005KT 10SM CLR 03/M01 A3010 RMK AO2 SLP194 T00331011 58019=
202312130753 METAR KPAE 130753Z VRB05KT 10SM CLR 07/M01 A3011 RMK AO2 SLP200 T00721006 400890017=
202312130653 METAR KPAE 130653Z 00000KT 10SM CLR 06/00 A3014 RMK AO2 SLP208 T00610000=
202312130553 METAR KPAE 130553Z VRB05KT 10SM CLR 07/00 A3015 RMK AO2 SLP214 T00720000 10083 20050 57004=
202312130453 METAR KPAE 130453Z 11006KT 10SM CLR 06/01 A3015 RMK AO2 SLP215 T00560011=
202312130353 METAR KPAE 130353Z 15004KT 10SM CLR 06/01 A3017 RMK AO2 SLP219 T00610011=
202312130253 METAR KPAE 130253Z 15004KT 10SM CLR 06/01 A3017 RMK AO2 SLP219 T00610011 58004=
202312130153 METAR KPAE 130153Z VRB05KT 10SM CLR 08/02 A3017 RMK AO2 SLP220 T00780017=
202312130053 METAR KPAE 130053Z 00000KT 10SM CLR 07/03 A3018 RMK AO2 SLP223 T00670028=
202312122353 METAR KPAE 122353Z 00000KT 10SM CLR 08/03 A3018 RMK AO2 SLP222 T00830028 10089 20061 56009=
202312122253 METAR KPAE 122253Z 35003KT 10SM CLR 08/03 A3018 RMK AO2 SLP224 T00830028=
202312122153 METAR KPAE 122153Z 26003KT 10SM CLR 08/03 A3019 RMK AO2 SLP225 T00830033=
202312122053 METAR KPAE 122053Z 00000KT 10SM CLR 09/02 A3021 RMK AO2 SLP231 T00890022 58014=
202312121953 METAR KPAE 121953Z VRB03KT 10SM CLR 08/02 A3022 RMK AO2 SLP235 T00780022=
202312121853 METAR KPAE 121853Z 11004KT 10SM CLR 07/02 A3024 RMK AO2 SLP245 T00720022=
202312121753 METAR KPAE 121753Z 04003KT 10SM CLR 06/03 A3025 RMK AO2 SLP245 T00610028 10061 20017 53009=
202312121653 METAR KPAE 121653Z 00000KT 10SM CLR 05/02 A3023 RMK AO2 SLP239 T00500017=
202312121553 METAR KPAE 121553Z 08004KT 10SM CLR 03/01 A3022 RMK AO2 SLP237 T00280011=
202312121453 METAR KPAE 121453Z 00000KT 3SM BR FEW001 02/01 A3022 RMK AO2 SLP237 T00220011 58001=
202312121445 SPECI KPAE 121445Z 00000KT 5SM R16R/4500VP6000FT BR SCT001 02/02 A3022 RMK AO2 T00220017=
202312121434 SPECI KPAE 121434Z 00000KT 3SM R16R/1200V5500FT BR BKN001 03/02 A3022 RMK AO2 T00280017=
202312121431 SPECI KPAE 121431Z 00000KT 1 1/4SM R16R/1200V2400FT BR BKN001 03/02 A3022 RMK AO2 T00280017=
202312121424 SPECI KPAE 121424Z 00000KT 1/2SM R16R/1200V1400FT FG VV001 03/02 A3022 RMK AO2 T00280022=
202312121412 SPECI KPAE 121412Z 02003KT 1/4SM R16R/1400V2400FT FG VV001 03/02 A3022 RMK AO2 T00280017=
202312121353 METAR KPAE 121353Z 01003KT 1/4SM R16R/1200V2200FT FG VV001 03/02 A3023 RMK AO2 SLP239 T00330022=
202312121350 SPECI KPAE 121350Z 36003KT 1/4SM R16R/1200V2200FT FG VV001 03/02 A3022 RMK AO2=
202312121253 METAR KPAE 121253Z 00000KT 1/4SM R16R/1400V2800FT FG VV001 03/02 A3022 RMK AO2 SLP238 T00330022=
202312121241 SPECI KPAE 121241Z 00000KT 1/2SM R16R/1600V2800FT FG VV001 04/03 A3022 RMK AO2 T00390028=
202312121231 SPECI KPAE 121231Z 00000KT 1/4SM R16R/1600V2400FT FG VV001 04/03 A3023 RMK AO2 T00390028=
202312121223 SPECI KPAE 121223Z 00000KT 1/4SM R16R/1400V1800FT FG VV001 04/03 A3023 RMK AO2 T00440033=
202312121213 SPECI KPAE 121213Z 00000KT 1/4SM R16R/1800V2800FT FG VV001 04/03 A3023 RMK AO2 T00440033=
202312121203 SPECI KPAE 121203Z 00000KT 1/2SM R16R/2400V5500FT FG VV001 05/04 A3023 RMK AO2 T00500039=
202312121153 METAR KPAE 121153Z 00000KT 3/4SM R16R/4000VP6000FT BR VV002 05/04 A3024 RMK AO2 SLP242 T00500044 10067 20050 58002=
202312121150 SPECI KPAE 121150Z 00000KT 3/4SM R16R/5500VP6000FT BR VV002 05/04 A3024 RMK AO2=
202312121137 SPECI KPAE 121137Z 07003KT 1/2SM R16R/2600VP6000FT FG VV001 05/04 A3024 RMK AO2 T00500039=
202312121128 SPECI KPAE 121128Z 00000KT 1 1/2SM R16R/1600VP6000FT BR OVC002 06/04 A3025 RMK AO2 VIS 1/2V5 T00560044=
202312121125 SPECI KPAE 121125Z 00000KT 3SM R16R/1600VP6000FT BR OVC002 06/04 A3025 RMK AO2 T00560044=
202312121118 SPECI KPAE 121118Z 00000KT 2SM R16R/2400VP6000FT BR BKN002 OVC011 06/04 A3024 RMK AO2 T00560044=
202312121113 METAR KPAE 121113Z 00000KT 1/2SM R16R/2400V3500FT FG VV002 06/04 A3024 RMK AO2 T00560044=
202312121113 SPECI KPAE 121113Z 00000KT 1/2SM R16R/2400V3500FT FG VV002 06/04 A3024 RMK AO2 T00560044=
202312121053 METAR KPAE 121053Z 06003KT 1/2SM R16R/1800V4500FT FG VV001 06/04 A3025 RMK AO2 SLP247 T00560044=
202312121045 SPECI KPAE 121045Z 00000KT 1/2SM R16R/1400V2200FT FG VV001 06/04 A3025 RMK AO2 T00560044=
202312121041 SPECI KPAE 121041Z 03003KT 1/4SM R16R/1400V2600FT FG VV001 06/04 A3025 RMK AO2 T00560044=
202312121029 SPECI KPAE 121029Z 01003KT 3/4SM R16R/2000V3000FT BR OVC001 06/04 A3025 RMK AO2 T00560044=
202312121021 SPECI KPAE 121021Z 01003KT 2 1/2SM R16R/3000VP6000FT BR BKN001 OVC013 06/04 A3025 RMK AO2 T00610044=
202312120953 METAR KPAE 120953Z 02003KT 4SM BR BKN002 OVC013 06/05 A3024 RMK AO2 CIG 001V006 SLP244 T00610050=
202312120934 SPECI KPAE 120934Z 36004KT 4SM BR BKN003 BKN009 OVC013 06/05 A3024 RMK AO2 CIG 001V006 T00610050=
202312120924 SPECI KPAE 120924Z 36003KT 4SM BR SCT003 OVC011 06/05 A3023 RMK AO2 T00610050=
202312120922 SPECI KPAE 120922Z 35003KT 4SM BR BKN003 OVC009 06/05 A3023 RMK AO2 T00610050=
202312120913 SPECI KPAE 120913Z 00000KT 3SM BR SCT003 OVC009 06/05 A3023 RMK AO2 T00610050=
202312120853 METAR KPAE 120853Z 36003KT 3SM BR BKN002 OVC009 06/05 A3024 RMK AO2 CIG 001V006 SLP242 T00610050 56001=
202312120825 SPECI KPAE 120825Z 36003KT 4SM BR BKN002 OVC011 07/05 A3024 RMK AO2 CIG 002V006 T00670050=
202312120753 METAR KPAE 120753Z 00000KT 6SM BR SCT004 SCT007 OVC013 07/05 A3024 RMK AO2 SLP242 T00670050 400830061=
202312120750 SPECI KPAE 120750Z 00000KT 5SM BR FEW004 OVC013 07/05 A3024 RMK AO2=
202312120653 METAR KPAE 120653Z 00000KT 6SM BR OVC012 07/05 A3024 RMK AO2 SLP243 T00670050=
202312120637 SPECI KPAE 120637Z 00000KT 6SM BR SCT003 OVC012 07/05 A3024 RMK AO2 T00670050=
202312120553 METAR KPAE 120553Z 35004KT 6SM BR BKN004 OVC013 07/05 A3024 RMK AO2 SLP242 T00670050 10067 20061 52006=
202312120506 SPECI KPAE 120506Z 35003KT 7SM BKN004 BKN008 OVC012 07/05 A3023 RMK AO2 CIG 002V006 T00670050=
202312120453 METAR KPAE 120453Z 35003KT 7SM BKN006 OVC012 07/05 A3023 RMK AO2 CIG 003V008 SLP240 T00670050=
202312120353 METAR KPAE 120353Z 00000KT 5SM BR SCT004 OVC008 07/05 A3022 RMK AO2 SLP238 T00670050=
202312120253 METAR KPAE 120253Z 00000KT 10SM OVC008 07/04 A3022 RMK AO2 SLP236 T00670044 50000=
202312120153 METAR KPAE 120153Z 35004KT 10SM SCT004 OVC008 07/04 A3022 RMK AO2 SLP237 T00670044=
202312120053 METAR KPAE 120053Z 36005KT 10SM OVC007 07/05 A3022 RMK AO2 CIG 006V011 SLP236 T00670050=
202312120024 SPECI KPAE 120024Z 35003KT 10SM OVC005 07/05 A3023 RMK AO2 T00670050=
202312112353 METAR KPAE 112353Z 35004KT 10SM OVC004 07/05 A3022 RMK AO2 SLP235 T00670050 10072 20067 55000=
202312112344 SPECI KPAE 112344Z 35005KT 10SM OVC004 07/05 A3022 RMK AO2 T00670050=
202312112253 METAR KPAE 112253Z 34005KT 10SM OVC007 07/05 A3021 RMK AO2 CIG 004V009 SLP234 T00670050=
202312112153 METAR KPAE 112153Z 34004KT 3SM BR SCT002 OVC006 07/06 A3021 RMK AO2 SLP232 T00670056=
202312112124 SPECI KPAE 112124Z 35005KT 2SM BR BKN002 OVC006 07/06 A3021 RMK AO2 T00670056=
202312112109 SPECI KPAE 112109Z 34004KT 1SM R16R/P6000FT BR OVC003 07/06 A3021 RMK AO2 T00670056=
202312112100 SPECI KPAE 112100Z 36006KT 1/2SM R16R/P6000FT FG BKN001 OVC006 07/06 A3021 RMK AO2 T00670056=
202312112053 METAR KPAE 112053Z 35005KT 1/4SM R16R/5000VP6000FT FG OVC001 07/06 A3022 RMK AO2 SLP236 T00670056 56006=
202312112028 SPECI KPAE 112028Z 33006KT 1/4SM R16R/1200V2400FT FG VV001 07/06 A3022 RMK AO2 T00670056=
202312111953 METAR KPAE 111953Z 33006KT M1/4SM R16R/0600V0800FT FG VV001 07/06 A3022 RMK AO2 SLP237 T00670056=
202312111950 SPECI KPAE 111950Z 34004KT 1/4SM R16R/0600V0800FT FG VV001 07/06 A3022 RMK AO2=
202312111907 SPECI KPAE 111907Z VRB05KT 1/4SM R16R/1800V4500FT FG VV001 07/06 A3023 RMK AO2 T00670056=
202312111853 METAR KPAE 111853Z 33003KT 1/4SM R16R/3500V6000FT FG VV002 07/06 A3024 RMK AO2 SLP242 T00670056=
202312111832 SPECI KPAE 111832Z 34004KT 1/4SM R16R/2400V4500FT FG VV002 07/06 A3024 RMK AO2 T00670056=
202312111815 SPECI KPAE 111815Z 34004KT 1/4SM R16R/1600V4500FT FG VV001 07/06 A3024 RMK AO2 T00670056=
202312111808 SPECI KPAE 111808Z 35004KT 1SM R16R/3000V5500FT FG VV002 07/06 A3024 RMK AO2 T00670056=
202312111753 METAR KPAE 111753Z VRB03KT 3/4SM R16R/2800V4000FT BR VV001 07/06 A3024 RMK AO2 SLP242 T00670056 10067 20061 52007=
202312111726 SPECI KPAE 111726Z 35005KT 3/4SM R16R/3500V6000FT BR VV001 06/06 A3023 RMK AO2 T00610056=
202312111713 SPECI KPAE 111713Z 35006KT 1/4SM R16R/1200V3500FT FG VV001 06/06 A3024 RMK AO2 T00610056=
202312111653 METAR KPAE 111653Z 34007KT M1/4SM R16R/1000V1200FT FG VV001 07/06 A3023 RMK AO2 SLP241 T00670056=
202312111631 SPECI KPAE 111631Z VRB04KT M1/4SM R16R/0600V0700FT FG VV001 07/06 A3023 RMK AO2 T00670056=
202312111553 METAR KPAE 111553Z 34005KT 1/4SM R16R/0800V1000FT FG VV001 07/06 A3022 RMK AO2 SLP235 T00670056=
202312111515 SPECI KPAE 111515Z 35007KT 1/2SM R16R/1600V1800FT FG VV001 07/06 A3022 RMK AO2 T00670056=
202312111453 METAR KPAE 111453Z 35007KT 1/2SM R16R/2400V3000FT FG VV001 07/06 A3021 RMK AO2 SLP234 T00670056 53008=
202312111434 SPECI KPAE 111434Z 35007KT 1/2SM R16R/2000V3000FT FG VV001 07/06 A3021 RMK AO2 T00670056=
202312111353 METAR KPAE 111353Z 36005KT 1/4SM R16R/1200V1800FT FG VV001 07/06 A3020 RMK AO2 SLP230 T00670061=
202312111332 SPECI KPAE 111332Z 36006KT 1/4SM R16R/1600V2200FT FG VV001 07/06 A3020 RMK AO2 T00670056=
202312111309 SPECI KPAE 111309Z 35007KT 3/4SM R16R/4000VP6000FT BR VV001 07/06 A3019 RMK AO2 T00670056=
202312111306 SPECI KPAE 111306Z 35007KT 1SM R16R/4000VP6000FT BR VV002 07/06 A3019 RMK AO2 T00670056=
202312111253 METAR KPAE 111253Z 35008G14KT 3/4SM R16R/3000VP6000FT BR VV002 07/06 A3018 RMK AO2 SLP223 T00670056=
202312111229 SPECI KPAE 111229Z 34007KT 1/2SM R16R/2000VP6000FT FG VV001 07/06 A3019 RMK AO2 T00670056=
202312111153 METAR KPAE 111153Z 34006KT 1/4SM R16R/1600V1800FT FG VV001 07/06 A3019 RMK AO2 RAB18E27 SLP225 P0002 60008 70016 T00670056 10089 20067 51010=
202312111135 SPECI KPAE 111135Z 34005KT 1/4SM R16R/1600V2200FT FG VV001 07/06 A3018 RMK AO2 RAB18E27 P0001 T00720061=
202312111053 METAR KPAE 111053Z 35005KT 1/4SM R16R/1400V2400FT FG VV001 07/06 A3018 RMK AO2 RAB18E50 SLP223 P0002 T00720061=
202312111008 SPECI KPAE 111008Z 35004KT 1/4SM R16R/1000V1400FT FG VV001 08/07 A3017 RMK AO2 T00780067=
202312111000 SPECI KPAE 111000Z 36004KT 1/4SM R16R/1200V3500FT FG VV001 08/07 A3017 RMK AO2 T00780067=
202312110953 METAR KPAE 110953Z 35004KT 1/2SM R16R/2200V5500FT FG VV002 08/07 A3017 RMK AO2 RAB12E52 SLP218 P0002 T00830072=
202312110911 SPECI KPAE 110911Z 34004KT 1 3/4SM BR OVC002 08/07 A3016 RMK AO2 T00830072=
202312110853 METAR KPAE 110853Z 00000KT 6SM BR OVC002 08/07 A3016 RMK AO2 SLP215 60002 T00830072 50002=
202312110839 SPECI KPAE 110839Z 36004KT 3SM BR OVC003 08/07 A3016 RMK AO2 T00830072=
202312110816 SPECI KPAE 110816Z 35003KT 1 3/4SM R16R/4500VP6000FT BR OVC003 08/07 A3016 RMK AO2 T00830072=
202312110753 METAR KPAE 110753Z 36004KT 1/2SM R16R/2400V6000FT FG VV002 08/07 A3016 RMK AO2 SLP215 P0001 T00830072 401110067=
202312110751 SPECI KPAE 110751Z 36003KT 1/2SM R16R/2800VP6000FT FG VV003 08/07 A3016 RMK AO2 P0001=
202312110742 SPECI KPAE 110742Z 00000KT 1SM R16R/2600VP6000FT BR OVC004 08/07 A3016 RMK AO2 P0001 T00830072=
202312110726 SPECI KPAE 110726Z 35003KT 2SM R16R/2200V2800FT BR BKN004 OVC028 08/07 A3016 RMK AO2 P0001 T00830072=
202312110712 SPECI KPAE 110712Z 36003KT 3/4SM R16R/5000VP6000FT BR BKN003 OVC029 08/07 A3015 RMK AO2 T00830072=
202312110708 SPECI KPAE 110708Z 01003KT 2 1/2SM BR BKN003 BKN010 OVC027 08/07 A3015 RMK AO2 T00830072=
202312110658 SPECI KPAE 110658Z 00000KT 6SM BR SCT003 BKN023 OVC029 08/07 A3015 RMK AO2 T00830072=
202312110653 METAR KPAE 110653Z 00000KT 3/4SM R16R/P6000FT BR BKN003 OVC017 08/07 A3015 RMK AO2 RAE16 SLP213 P0001 T00830072=
202312110611 SPECI KPAE 110611Z 00000KT 3/4SM R16R/4000VP6000FT -RA BR BKN003 OVC017 09/08 A3015 RMK AO2 P0001 T00890078=
202312110600 SPECI KPAE 110600Z 00000KT 1 1/2SM R16R/5000VP6000FT -RA BR FEW003 OVC011 09/08 A3014 RMK AO2 P0001 T00890078=
202312110553 METAR KPAE 110553Z 00000KT 1SM R16R/P6000FT -RA BR BKN002 OVC014 09/08 A3014 RMK AO2 RAB25 SLP208 P0001 60008 T00890078 10111 20083 53006=
202312110522 SPECI KPAE 110522Z 00000KT 1 1/2SM BR BKN003 OVC014 09/08 A3014 RMK AO2 T00890078=
202312110453 METAR KPAE 110453Z 00000KT 2 1/2SM BR BKN005 OVC024 09/08 A3013 RMK AO2 SLP206 T00890078=
202312110400 SPECI KPAE 110400Z 00000KT 2SM BR BKN005 BKN013 OVC024 09/08 A3013 RMK AO2 T00890078=
202312110353 METAR KPAE 110353Z 00000KT 1SM R16R/P6000FT BR BKN005 BKN008 OVC015 09/07 A3013 RMK AO2 RAE11 SLP203 P0002 T00890072=
202312110253 METAR KPAE 110253Z 00000KT 1SM R16R/5500VP6000FT -RA BR OVC005 09/08 A3012 RMK AO2 RAE04B14 SLP202 P0003 60005 T00890078 51017=
202312110213 SPECI KPAE 110213Z 21004KT 1SM R16R/P6000FT BR OVC005 08/07 A3011 RMK AO2 RAE04 P0001 T00830072=
202312110153 METAR KPAE 110153Z 26004KT 1/4SM R16R/P6000FT -RA FG OVC003 08/07 A3011 RMK AO2 RAB0057 SLP198 P0002 T00830072=
202312110134 SPECI KPAE 110134Z 25004KT 1/4SM R16R/P6000FT -RA FG OVC002 09/07 A3010 RMK AO2 RAB0057 P0002 T00890072=
202312110102 SPECI KPAE 110102Z 26005KT 1/4SM R16R/1600V2800FT -RA FG VV001 09/08 A3010 RMK AO2 RAB0057 P0000 T00940083=
202312110053 METAR KPAE 110053Z 26004KT 1/4SM R16R/2800VP6000FT FG BKN003 BKN008 OVC017 09/08 A3010 RMK AO2 SLP193 T00940083=
202312110039 SPECI KPAE 110039Z 23008KT 1/4SM R16R/P6000FT FG BKN003 OVC017 10/08 A3009 RMK AO2 T01000083=
202312102353 METAR KPAE 102353Z 19011KT 10SM BKN008 OVC014 11/09 A3007 RMK AO2 SLP185 T01110089 10111 20100 53002=
202312102259 SPECI KPAE 102259Z 18015KT 10SM BKN008 OVC014 11/09 A3006 RMK AO2 T01110089=
202312102253 METAR KPAE 102253Z 18011KT 10SM OVC012 11/09 A3006 RMK AO2 SLP181 T01110089=
202312102237 SPECI KPAE 102237Z 19011KT 10SM OVC010 11/09 A3006 RMK AO2 T01110089=
202312102153 METAR KPAE 102153Z 19012KT 10SM OVC008 11/09 A3005 RMK AO2 SLP179 T01110089=
202312102053 METAR KPAE 102053Z 19013KT 10SM OVC006 11/09 A3006 RMK AO2 SLP182 T01110089 56008=
202312101953 METAR KPAE 101953Z 18014G19KT 10SM OVC006 11/08 A3006 RMK AO2 SLP183 T01060083=
202312101853 METAR KPAE 101853Z 18013KT 10SM OVC005 10/08 A3008 RMK AO2 SLP186 T01000083=
202312101833 SPECI KPAE 101833Z 18015KT 10SM OVC005 10/08 A3008 RMK AO2 T01000083=
202312101753 METAR KPAE 101753Z 19015KT 7SM OVC004 10/08 A3009 RMK AO2 SLP192 T01000083 10100 20078 53012=
202312101653 METAR KPAE 101653Z 19013G23KT 3SM BR OVC002 09/08 A3008 RMK AO2 SLP188 T00940083=
202312101553 METAR KPAE 101553Z 19011KT 8SM OVC004 09/08 A3006 RMK AO2 SLP182 T00940078=
202312101456 SPECI KPAE 101456Z 17007KT 2SM BR OVC003 09/08 A3005 RMK AO2 T00890078=
202312101453 METAR KPAE 101453Z 17006KT 10SM OVC003 09/08 A3005 RMK AO2 SLP179 T00890078 53002=
202312101353 METAR KPAE 101353Z AUTO 16008KT 5SM BR OVC003 08/07 A3004 RMK AO2 CIG 002V006 SLP175 T00780067=
202312101322 SPECI KPAE 101322Z AUTO 16008KT 5SM BR OVC003 08/07 A3004 RMK AO2 T00830072=
202312101253 METAR KPAE 101253Z AUTO 15009G20KT 6SM BR BKN005 OVC010 08/07 A3004 RMK AO2 SLP175 T00830067=
202312101210 SPECI KPAE 101210Z AUTO 15014G20KT 5SM BR BKN005 BKN009 OVC013 08/07 A3005 RMK AO2 T00830067=
202312101153 METAR KPAE 101153Z AUTO VRB06KT 7SM BKN004 OVC009 08/06 A3005 RMK AO2 SLP178 60012 70038 T00780061 10078 20067 55004=
202312101120 SPECI KPAE 101120Z AUTO VRB06G14KT 8SM SCT004 OVC012 08/07 A3005 RMK AO2 T00780067=
202312101109 SPECI KPAE 101109Z AUTO 14010G18KT 6SM BR FEW004 BKN009 OVC025 08/07 A3004 RMK AO2 T00780067=
202312101053 METAR KPAE 101053Z AUTO 14011G21KT 6SM BR FEW006 BKN011 OVC090 08/06 A3004 RMK AO2 RAE34 SLP175 P0002 T00780061=
202312101035 SPECI KPAE 101035Z AUTO 15016G24KT 8SM BKN008 BKN034 OVC050 08/06 A3004 RMK AO2 RAE34 P0002 T00780061=
202312101015 SPECI KPAE 101015Z AUTO 15013G20KT 8SM -RA FEW006 SCT021 OVC060 08/06 A3005 RMK AO2 P0002 T00780061=
202312101007 SPECI KPAE 101007Z AUTO 14011G20KT 9SM -RA FEW021 SCT047 OVC055 07/06 A3004 RMK AO2 P0001 T00720056=
202312100953 METAR KPAE 100953Z AUTO 13007G17KT 090V170 6SM RA BR FEW004 BKN021 OVC046 07/06 A3005 RMK AO2 RAB0857 SLP178 P0008 T00720056=
202312100938 SPECI KPAE 100938Z AUTO VRB05G15KT 6SM RA BR SCT004 BKN007 OVC028 07/06 A3005 RMK AO2 RAB0857 P0005 T00720056=
202312100926 SPECI KPAE 100926Z AUTO 15012G22KT 6SM RA BR FEW005 BKN028 OVC042 07/06 A3004 RMK AO2 RAB0857 P0002 T00720056=
202312100900 SPECI KPAE 100900Z AUTO 14011G20KT 7SM -RA FEW005 OVC011 07/05 A3005 RMK AO2 RAB0857 P0000 T00670050=
202312100853 METAR KPAE 100853Z AUTO 14010G16KT 8SM SCT005 BKN009 OVC024 07/05 A3006 RMK AO2 SLP182 60002 T00670050 58000=
202312100753 METAR KPAE 100753Z AUTO 15012G20KT 10SM BKN006 OVC014 07/05 A3006 RMK AO2 CIG 003V010 SLP182 P0001 T00670050 400670022=
202312100653 METAR KPAE 100653Z AUTO 13008G17KT 090V160 8SM FEW003 BKN014 OVC027 06/04 A3006 RMK AO2 RAE28 SLP183 P0001 T00610044=
202312100633 SPECI KPAE 100633Z AUTO 15013KT 10SM FEW004 BKN012 OVC034 06/04 A3006 RMK AO2 RAE28 P0001 T00560044=
202312100620 SPECI KPAE 100620Z AUTO 13006G17KT 10SM -RA BKN012 BKN027 OVC070 06/04 A3006 RMK AO2 P0001 T00560044=
202312100553 METAR KPAE 100553Z AUTO 14011G20KT 7SM -RA FEW006 SCT055 OVC070 06/04 A3006 RMK AO2 PK WND 14027/0504 RAB0456 SLP182 P0005 60009 T00560039 10056 20033 56010=
202312100518 SPECI KPAE 100518Z AUTO 15012G23KT 10SM -RA SCT008 BKN043 OVC075 06/04 A3007 RMK AO2 PK WND 14027/0504 RAB0456 P0001 T00560039=
202312100500 SPECI KPAE 100500Z AUTO 15014G24KT 6SM -RA BR SCT007 BKN012 OVC060 06/04 A3007 RMK AO2 RAB0456 P0000 T00560039=
202312100453 METAR KPAE 100453Z 14011G22KT 6SM BR BKN003 BKN017 OVC023 05/04 A3006 RMK AO2 SLP184 T00500039=
202312100353 METAR KPAE 100353Z 15013G23KT 4SM BR BKN003 BKN017 OVC023 04/03 A3008 RMK AO2 RAE45 SLP189 P0001 T00440033=
202312100304 SPECI KPAE 100304Z 15014KT 4SM -RA BR BKN003 04/03 A3009 RMK AO2 P0000 T00440028=
202312100300 SPECI KPAE 100300Z 15013KT 4SM -RA BR BKN022 BKN027 OVC035 04/03 A3009 RMK AO2 P0000 T00440028=
202312100253 METAR KPAE 100253Z 15013KT 4SM -RA BR BKN003 BKN027 OVC035 04/03 A3009 RMK AO2 RAB29 SLP194 P0002 60003 T00440028 55008=
202312100153 METAR KPAE 100153Z 16014KT 3SM BR BKN003 OVC014 04/03 A3008 RMK AO2 RAE50 SLP192 P0000 T00390028=
202312100133 SPECI KPAE 100133Z 15012KT 3SM -RA BR BKN004 BKN011 OVC017 04/03 A3009 RMK AO2 P0000 T00390028=
202312100115 SPECI KPAE 100115Z 15013KT 2 1/2SM -RA BR BKN003 BKN013 OVC018 04/03 A3009 RMK AO2 P0000 T00390028=
202312100053 METAR KPAE 100053Z 15013KT 3SM -RA BR BKN003 BKN017 OVC027 04/03 A3009 RMK AO2 RAE05B41 SLP196 P0001 T00390028=
202312100008 SPECI KPAE 100008Z 15011KT 4SM BR BKN002 OVC026 03/02 A3011 RMK AO2 RAE05 P0000 T00330022=
202312092353 METAR KPAE 092353Z 15009KT 2SM -RA BR BKN002 OVC031 03/02 A3011 RMK AO2 RAE2257B29UPB2257E03 SLP201 P0000 60017 T00330022 10050 20028 56022=
202312092324 SPECI KPAE 092324Z 15009G16KT 9SM BKN003 OVC034 03/02 A3012 RMK AO2 RAE2257UPB2257E03 P0000 T00330017=
202312092253 METAR KPAE 092253Z 16008KT 10SM -RA OVC006 03/01 A3014 RMK AO2 SLP210 P0004 T00280011=
202312092153 METAR KPAE 092153Z 17008KT 8SM -RA OVC008 03/01 A3015 RMK AO2 SLP213 P0005 T00330011=
202312092141 SPECI KPAE 092141Z 17009KT 7SM -RA BKN008 OVC020 03/01 A3016 RMK AO2 P0004 T00330011=
202312092133 SPECI KPAE 092133Z 16008KT 8SM -RA BKN010 OVC013 03/01 A3016 RMK AO2 P0003 T00330011=
202312092053 METAR KPAE 092053Z 16008KT 7SM -RA BKN008 BKN019 OVC026 03/01 A3018 RMK AO2 SLP224 P0004 60008 T00330011 58019=
202312091953 METAR KPAE 091953Z 17012G22KT 7SM -RA FEW013 FEW019 OVC026 04/01 A3023 RMK AO2 PK WND 16027/1915 SLP240 P0004 T00390011=
202312091908 SPECI KPAE 091908Z 17014G21KT 8SM -RA OVC026 05/00 A3024 RMK AO2 P0001 T00500000=
202312091853 METAR KPAE 091853Z 17011G19KT 10SM -RA OVC036 04/00 A3024 RMK AO2 RAB37 SLP244 P0000 T00440000=
202312091753 METAR KPAE 091753Z 17009KT 10SM SCT030 OVC070 04/M01 A3024 RMK AO2 SLP244 T00441006 10050 20028 56012=
202312091653 METAR KPAE 091653Z 16011KT 10SM OVC085 04/M01 A3024 RMK AO2 SLP244 T00441011=
202312091553 METAR KPAE 091553Z VRB05KT 10SM OVC110 04/M01 A3023 RMK AO2 SLP242 T00391011=
202312091453 METAR KPAE 091453Z 12006KT 10SM OVC110 03/M01 A3027 RMK AO2 SLP257 T00331011 58022=
202312091353 METAR KPAE 091353Z AUTO 15006KT 10SM BKN100 BKN120 03/M01 A3031 RMK AO2 SLP268 T00281011=
202312091253 METAR KPAE 091253Z AUTO VRB05KT 10SM CLR 03/M01 A3032 RMK AO2 SLP272 T00281006=
202312091153 METAR KPAE 091153Z AUTO 16006KT 10SM CLR 03/M01 A3034 RMK AO2 SLP279 70021 T00281006 10028 20022 56021=
202312091053 METAR KPAE 091053Z AUTO 11008KT 10SM CLR 02/00 A3035 RMK AO2 SLP283 T00220000=
202312090953 METAR KPAE 090953Z AUTO 12004KT 10SM CLR 03/01 A3038 RMK AO2 SLP292 T00280006=
202312090853 METAR KPAE 090853Z AUTO 11006KT 10SM CLR 02/01 A3040 RMK AO2 SLP300 T00220006 58010=
202312090753 METAR KPAE 090753Z AUTO 11006KT 10SM CLR 03/01 A3042 RMK AO2 SLP305 T00280006 400610028=
202312090653 METAR KPAE 090653Z AUTO 11006KT 10SM CLR 03/01 A3044 RMK AO2 SLP313 T00280011=
202312090553 METAR KPAE 090553Z AUTO 11007KT 10SM CLR 03/01 A3043 RMK AO2 SLP311 T00280011 10056 20028 55002=
202312090453 METAR KPAE 090453Z AUTO 11004KT 10SM CLR 03/01 A3043 RMK AO2 SLP310 T00330011=
202312090353 METAR KPAE 090353Z 11003KT 10SM CLR 04/02 A3043 RMK AO2 SLP310 T00390017=
202312090253 METAR KPAE 090253Z 11004KT 10SM CLR 04/02 A3044 RMK AO2 SLP313 T00390017 53006=
202312090153 METAR KPAE 090153Z VRB03KT 10SM CLR 04/02 A3043 RMK AO2 SLP308 T00440017=
202312090053 METAR KPAE 090053Z VRB03KT 10SM OVC040 05/02 A3043 RMK AO2 SLP310 T00500022=
202312082353 METAR KPAE 082353Z 16005KT 10SM BKN039 05/03 A3042 RMK AO2 SLP306 60013 T00500028 10061 20039 53019=
202312082334 SPECI KPAE 082334Z 16006KT 10SM FEW008 BKN037 05/02 A3041 RMK AO2 T00500022=
202312082304 SPECI KPAE 082304Z 11004KT 10SM BKN006 BKN025 BKN042 06/02 A3040 RMK AO2 T00560022=
202312082256 SPECI KPAE 082256Z 10006KT 10SM FEW012 FEW018 SCT025 06/02 A3039 RMK AO2 T00560022=
202312082253 METAR KPAE 082253Z 11005KT 10SM BKN004 BKN038 BKN050 06/03 A3039 RMK AO2 SLP295 T00560028=
202312082153 METAR KPAE 082153Z 11003KT 10SM BKN004 06/03 A3038 RMK AO2 SLP291 T00610033=
202312082053 METAR KPAE 082053Z 21004KT 10SM BKN004 BKN030 06/03 A3036 RMK AO2 SLP286 60013 T00560033 51011=
202312082013 SPECI KPAE 082013Z 24004KT 10SM BKN004 BKN030 06/03 A3036 RMK AO2 T00560028=
202312081953 METAR KPAE 081953Z 19004KT 10SM SCT004 BKN030 06/02 A3036 RMK AO2 RAE02 SLP286 P0000 T00560022=
202312081853 METAR KPAE 081853Z 00000KT 5SM -RA BR BKN004 OVC028 04/02 A3035 RMK AO2 SLP283 P0013 T00440022=
202312081753 METAR KPAE 081753Z 00000KT 5SM -RA BR BKN004 OVC028 04/03 A3033 RMK AO2 RAB21 SLP275 P0003 60008 T00440028 10050 20033 53035=
202312081741 SPECI KPAE 081741Z 03004KT 6SM -RA BR BKN004 BKN033 OVC055 04/03 A3033 RMK AO2 RAB21 P0002 T00440028=
202312081727 SPECI KPAE 081727Z 23004KT 10SM -RA SCT004 BKN033 OVC055 05/03 A3032 RMK AO2 RAB21 P0001 T00500033=
202312081719 SPECI KPAE 081719Z 22006KT 10SM SCT030 BKN037 OVC055 05/03 A3031 RMK AO2 T00500033=
202312081704 SPECI KPAE 081704Z 20005KT 10SM BKN026 OVC060 05/03 A3030 RMK AO2 T00500033=
202312081653 METAR KPAE 081653Z 18005KT 10SM BKN032 BKN060 04/03 A3029 RMK AO2 RAE05 SLP263 P0000 T00440028=
202312081553 METAR KPAE 081553Z 18006KT 8SM -RA BKN032 OVC042 04/02 A3026 RMK AO2 RAB48 SLP252 P0000 T00390022=
202312081453 METAR KPAE 081453Z 17005KT 10SM SCT020 SCT025 SCT038 04/02 A3023 RMK AO2 RAB03E34 SLP239 P0005 60005 T00390022 51020=
202312081417 SPECI KPAE 081417Z AUTO 23005KT 5SM -RA BR SCT007 BKN016 OVC035 04/03 A3023 RMK AO2 RAB03 P0003 T00440028=
202312081353 METAR KPAE 081353Z AUTO 19006KT 10SM BKN022 BKN029 OVC060 04/03 A3022 RMK AO2 SLP236 T00440028=
202312081303 SPECI KPAE 081303Z AUTO 19005KT 10SM SCT019 BKN025 OVC030 05/03 A3019 RMK AO2 T00500028=
202312081253 METAR KPAE 081253Z AUTO 17007KT 10SM FEW019 BKN030 OVC065 05/03 A3019 RMK AO2 SLP227 T00500028=
202312081153 METAR KPAE 081153Z AUTO 19004KT 10SM BKN022 OVC028 05/03 A3017 RMK AO2 SLP219 70031 T00500033 10050 20039 51020=
202312081121 SPECI KPAE 081121Z AUTO 00000KT 7SM BKN021 BKN033 OVC080 04/03 A3016 RMK AO2 T00440033=
202312081053 METAR KPAE 081053Z AUTO 00000KT 6SM BR SCT023 SCT075 04/03 A3015 RMK AO2 SLP213 T00440028=
202312081039 SPECI KPAE 081039Z AUTO 00000KT 5SM BR BKN023 BKN070 04/02 A3014 RMK AO2 T00390022=
202312080953 METAR KPAE 080953Z AUTO 00000KT 7SM FEW024 FEW031 BKN065 04/03 A3013 RMK AO2 SLP206 T00440033=
202312080853 METAR KPAE 080853Z AUTO 00000KT 9SM FEW020 SCT028 04/03 A3011 RMK AO2 SLP199 T00440028 51020=
202312080753 METAR KPAE 080753Z AUTO 15004KT 8SM BKN023 04/03 A3009 RMK AO2 SLP194 T00440028 400780039=
202312080735 SPECI KPAE 080735Z AUTO 15004KT 9SM SCT023 04/03 A3008 RMK AO2 T00390028=
202312080653 METAR KPAE 080653Z AUTO 16006KT 10SM BKN025 04/03 A3007 RMK AO2 SLP185 T00440028=
202312080645 SPECI KPAE 080645Z AUTO 16005KT 10SM BKN025 04/03 A3006 RMK AO2 T00440028=
202312080553 METAR KPAE 080553Z AUTO 17006KT 10SM FEW026 04/02 A3005 RMK AO2 SLP179 60002 T00390022 10056 20039 53021=
202312080453 METAR KPAE 080453Z 15009KT 10SM SCT033 04/02 A3003 RMK AO2 SLP172 T00390022=
202312080353 METAR KPAE 080353Z 15008KT 10SM FEW028 SCT038 SCT046 04/02 A3000 RMK AO2 SLP162 T00440022=
202312080253 METAR KPAE 080253Z 16008KT 10SM FEW032 BKN044 BKN055 05/03 A2998 RMK AO2 RAE12 SLP156 P0000 60002 T00500028 51016=
202312080153 METAR KPAE 080153Z 17006KT 6SM -RA BR SCT015 BKN035 OVC042 06/03 A2998 RMK AO2 RAB33 SLP153 P0002 T00560033=
202312080151 SPECI KPAE 080151Z 17007KT 6SM -RA BR SCT015 SCT024 OVC037 06/03 A2997 RMK AO2 RAB33 P0002=
202312080122 SPECI KPAE 080122Z 17006KT 10SM BKN014 BKN040 BKN048 06/03 A2997 RMK AO2 T00560033=
202312080053 METAR KPAE 080053Z 15006KT 10SM SCT018 BKN070 OVC085 06/04 A2996 RMK AO2 SLP149 T00560039=
202312072353 METAR KPAE 072353Z 15004KT 10SM SCT018 BKN070 OVC085 06/03 A2994 RMK AO2 RAB2259E13 SLP139 P0000 60021 T00560033 10067 20050 53028=
202312072253 METAR KPAE 072253Z VRB03KT 10SM FEW037 BKN047 OVC055 06/03 A2991 RMK AO2 RAE19B43E52 PRESRR SLP130 P0001 T00560033=
202312072215 SPECI KPAE 072215Z 35007KT 10SM -RA FEW024 BKN037 OVC045 05/03 A2987 RMK AO2 LTG DSNT S P0001 T00500033=
202312072153 METAR KPAE 072153Z 32006KT 5SM -RA BR FEW009 BKN024 OVC040 05/03 A2987 RMK AO2 RAB2054 SLP119 P0002 T00500033=
202312072107 SPECI KPAE 072107Z 30008G15KT 5SM -RA BR BKN002 OVC007 05/03 A2985 RMK AO2 RAB2054 P0000 T00500033=
202312072100 SPECI KPAE 072100Z 30007KT 10SM -RA SCT007 BKN011 OVC021 06/03 A2985 RMK AO2 RAB2054 P0000 T00560033=
202312072053 METAR KPAE 072053Z 32008KT 1SM R16R/P6000FT BR BKN004 OVC009 06/04 A2985 RMK AO2 RAE38 SLP111 P0008 60018 T00560039 53015=
202312071953 METAR KPAE 071953Z 27004KT 1SM R16R/2400VP6000FT -RA BR BKN004 OVC016 06/05 A2982 RMK AO2 SLP101 P0010 T00610050=
202312071902 SPECI KPAE 071902Z 2SM -RA BR BKN004 OVC016 07/04 A2982 RMK AO2 P0000 T00670044=
202312071900 SPECI KPAE 071900Z 17007KT 3SM -RA BR BKN010 OVC016 07/04 A2981 RMK AO2 P0000 T00670044=
202312071853 METAR KPAE 071853Z 18008KT 3SM -RA BR FEW003 BKN009 OVC023 07/04 A2981 RMK AO2 RAB53 SLP098 P0000 T00670044=
202312071836 SPECI KPAE 071836Z 17009KT 10SM BKN009 BKN017 OVC023 07/04 A2981 RMK AO2 T00670039=
202312071835 SPECI KPAE 071835Z 17009KT 10SM BKN009 BKN017 OVC023 07/04 A2981 RMK AO2 T00670039=
202312071824 SPECI KPAE 071824Z 17007KT 10SM BKN023 OVC033 06/04 A2981 RMK AO2 T00610044=
202312071753 METAR KPAE 071753Z 18010KT 10SM BKN034 OVC043 06/04 A2980 RMK AO2 PK WND 18028/1655 RAE25 SLP095 P0004 60008 T00610039 10078 20061 53017=
202312071653 METAR KPAE 071653Z 18023G29KT 5SM RA FEW008 SCT019 BKN055 07/04 A2978 RMK AO2 PK WND 18029/1652 RAB46 SLP086 P0001 T00670039=
202312071556 SPECI KPAE 071556Z 18013G20KT 10SM FEW008 SCT019 BKN055 07/04 A2975 RMK AO2 T00720044=
202312071553 METAR KPAE 071553Z 17014G21KT 10SM BKN010 BKN032 OVC090 07/04 A2975 RMK AO2 PK WND 18028/1534 RAB10E49 SLP078 P0001 T00720044=
202312071503 SPECI KPAE 071503Z 16012G20KT 10SM BKN010 BKN032 OVC090 07/05 A2975 RMK AO2 T00720050=
202312071453 METAR KPAE 071453Z 15011KT 10SM FEW028 BKN032 OVC090 07/05 A2975 RMK AO2 RAB08E48 SLP077 P0002 60002 T00720050 50001=
202312071353 METAR KPAE 071353Z AUTO 15011KT 10SM FEW009 BKN033 OVC049 07/05 A2976 RMK AO2 SLP080 T00720050=
202312071332 SPECI KPAE 071332Z AUTO 15009KT 10SM FEW009 BKN032 OVC060 07/05 A2975 RMK AO2 T00720050=
202312071324 SPECI KPAE 071324Z AUTO 16011KT 10SM FEW026 BKN034 OVC060 07/05 A2975 RMK AO2 T00720050=
202312071305 SPECI KPAE 071305Z AUTO 17010KT 10SM SCT009 BKN027 OVC070 07/05 A2975 RMK AO2 T00720050=
202312071253 METAR KPAE 071253Z AUTO 17013G19KT 10SM BKN009 BKN017 OVC035 07/06 A2975 RMK AO2 RAB07E16 CIG 005V012 SLP077 P0000 T00720056=
202312071242 SPECI KPAE 071242Z AUTO 17009KT 10SM BKN009 BKN035 OVC049 07/06 A2975 RMK AO2 RAB07E16 CIG 005V015 P0000 T00720056=
202312071228 SPECI KPAE 071228Z AUTO 17009KT 10SM SCT007 BKN015 OVC046 07/06 A2975 RMK AO2 RAB07E16 P0000 T00720056=
202312071153 METAR KPAE 071153Z AUTO 18011KT 10SM FEW018 BKN049 OVC065 07/05 A2975 RMK AO2 RAE39 SLP076 P0004 60016 70032 T00720050 10078 20072 53004=
202312071048 METAR KPAE 071048Z AUTO 18011KT 6SM RA BR FEW005 SCT014 OVC038 08/06 A2974 RMK AO2 RAB17 SLP073 P0002 T00780056=
202312071047 SPECI KPAE 071047Z AUTO 18012KT 7SM -RA FEW005 SCT014 OVC038 08/06 A2974 RMK AO2 RAB17 P0002=
202312071038 SPECI KPAE 071038Z AUTO 17011KT 6SM -RA BR BKN005 BKN014 OVC042 08/06 A2974 RMK AO2 RAB17 P0001 T00780061=
202312071006 SPECI KPAE 071006Z AUTO 16006KT 10SM BKN004 OVC014 08/06 A2973 RMK AO2 CIG 003V009 T00780061=
202312070953 METAR KPAE 070953Z AUTO 14006KT 10SM BKN006 OVC017 07/06 A2973 RMK AO2 RAE18 CIG 004V009 SLP068 P0001 T00720061=
202312070910 SPECI KPAE 070910Z AUTO 14004KT 4SM -RA BR SCT006 BKN017 OVC023 07/06 A2973 RMK AO2 P0001 T00720056=
202312070853 METAR KPAE 070853Z AUTO 15004KT 7SM -RA BKN006 OVC013 07/06 A2974 RMK AO2 CIG 003V008 SLP070 P0004 60009 T00720056 51004=
202312070840 SPECI KPAE 070840Z AUTO 00000KT 4SM -RA BR BKN006 OVC012 07/06 A2973 RMK AO2 CIG 003V008 P0003 T00720061=
202312070831 SPECI KPAE 070831Z AUTO 00000KT 4SM -RA BR SCT006 OVC010 07/06 A2973 RMK AO2 P0002 T00720061=
202312070805 SPECI KPAE 070805Z AUTO 11003KT 4SM -RA BR BKN006 OVC011 07/06 A2973 RMK AO2 CIG 003V010 P0000 T00720056=
202312070753 METAR KPAE 070753Z AUTO 00000KT 3SM -RA BR OVC004 07/06 A2973 RMK AO2 CIG 003V008 SLP069 P0003 T00720056 401000072=
202312070653 METAR KPAE 070653Z AUTO 02003KT 5SM -RA BR OVC002 07/06 A2973 RMK AO2 SLP068 P0002 T00720056=
202312070600 SPECI KPAE 070600Z AUTO 02005KT 5SM -RA BR OVC002 07/06 A2972 RMK AO2 P0001 T00720061=
202312070553 METAR KPAE 070553Z 01005KT 1SM R16R/P6000FT -RA BR OVC002 07/06 A2972 RMK AO2 SLP066 P0003 60013 T00720061 10083 20072 51005=
202312070517 SPECI KPAE 070517Z 30004KT 1SM R16R/P6000FT -RA BR OVC002 07/06 A2973 RMK AO2 P0001 T00720061=
202312070507 SPECI KPAE 070507Z 31004KT 1SM R16R/P6000FT -RA BR OVC001 07/06 A2973 RMK AO2 P0001 T00720061=
202312070453 METAR KPAE 070453Z 30004KT 1SM R16R/4500VP6000FT -RA BR OVC002 07/07 A2972 RMK AO2 SLP066 P0004 T00720067=
202312070353 METAR KPAE 070353Z 31005KT 1SM R16R/P6000FT -RA BR VV002 07/07 A2971 RMK AO2 RAB15 SLP064 P0002 T00720067=
202312070329 SPECI KPAE 070329Z 32005KT 3/4SM R16R/6000VP6000FT -RA BR VV002 08/07 A2971 RMK AO2 RAB15 P0001 T00780067=
202312070253 METAR KPAE 070253Z 34004KT 1/4SM R16R/1800V3500FT FG VV001 08/07 A2971 RMK AO2 RAE11 SLP061 P0001 60004 T00780067 53001=
202312070250 SPECI KPAE 070250Z 33005KT 1/4SM R16R/2000V3500FT FG VV001 08/07 A2971 RMK AO2 RAE11 P0001=
202312070156 SPECI KPAE 070156Z 35005KT 1/4SM R16R/1000V1600FT -RA FG VV001 08/07 A2970 RMK AO2 P0000 T00780067=
202312070153 METAR KPAE 070153Z 35005KT 1/2SM R16R/1000V1600FT -RA FG VV001 08/07 A2970 RMK AO2 RAE21B49 SLP059 P0001 T00780067=
202312070149 SPECI KPAE 070149Z 34007KT 1/2SM R16R/1000V1600FT -RA FG VV001 08/07 A2970 RMK AO2 RAE21B49 P0001=
202312070133 SPECI KPAE 070133Z 01004KT 1/2SM R16R/3000VP6000FT FG VV001 08/07 A2970 RMK AO2 RAE21 P0001 T00830072=
202312070100 SPECI KPAE 070100Z 32003KT 1SM R16R/P6000FT -RA BR VV002 08/07 A2971 RMK AO2 P0000 T00830072=
202312070053 METAR KPAE 070053Z 32003KT 1/2SM R16R/P6000FT -RA FG VV001 08/07 A2971 RMK AO2 RAE13B38 SLP061 P0002 T00830072=
202312062353 METAR KPAE 062353Z VRB05KT 1/2SM R16R/6000VP6000FT -RA FG VV001 08/07 A2971 RMK AO2 RAB06 SLP061 P0003 60003 T00830072 10100 20083 56006=
202312062333 SPECI KPAE 062333Z 33004KT 1 1/4SM -RA BR VV001 08/07 A2971 RMK AO2 RAB06 P0001 T00830072=
202312062257 SPECI KPAE 062257Z 34003KT 1/2SM R16R/2800VP6000FT FG VV001 09/08 A2971 RMK AO2 T00890078=
202312062253 METAR KPAE 062253Z 34003KT 1SM R16R/2800VP6000FT BR VV002 09/08 A2971 RMK AO2 SLP061 T00890078=
202312062243 SPECI KPAE 062243Z 32003KT 1SM R16R/P6000FT BR OVC001 09/08 A2971 RMK AO2 T00890078=
202312062224 SPECI KPAE 062224Z 34003KT 1SM R16R/P6000FT BR OVC002 09/07 A2970 RMK AO2 T00890072=
202312062153 METAR KPAE 062153Z 33003KT 2SM BR BKN002 BKN020 OVC033 09/08 A2971 RMK AO2 SLP061 T00890078=
202312062112 SPECI KPAE 062112Z 00000KT 7SM FEW002 BKN004 OVC035 09/08 A2972 RMK AO2 T00940078=
202312062100 SPECI KPAE 062100Z 00000KT 10SM SCT022 OVC035 09/08 A2972 RMK AO2 T00940078=
202312062053 METAR KPAE 062053Z 00000KT 2SM BR SCT022 BKN035 OVC043 09/08 A2972 RMK AO2 SLP066 T00940078 58031=
202312062025 SPECI KPAE 062025Z 00000KT 2SM BR FEW009 BKN031 OVC045 09/08 A2974 RMK AO2 T00940078=
202312061953 METAR KPAE 061953Z 01004KT 2SM BR OVC006 09/07 A2976 RMK AO2 SLP077 T00940072=
202312061853 METAR KPAE 061853Z 00000KT 2SM BR OVC005 09/08 A2980 RMK AO2 SLP091 T00940078=
202312061802 SPECI KPAE 061802Z 00000KT 2SM BR BKN006 OVC010 09/08 A2981 RMK AO2 CIG 004V009 T00940078=
202312061800 SPECI KPAE 061800Z 00000KT 6SM BR BKN006 OVC010 09/08 A2981 RMK AO2 CIG 004V009 T00940078=
202312061753 METAR KPAE 061753Z 00000KT 2SM BR OVC006 09/07 A2982 RMK AO2 SLP099 60000 T00940072 10094 20089 56010=
202312061653 METAR KPAE 061653Z 00000KT 2SM BR OVC006 09/08 A2983 RMK AO2 SLP103 T00940078=
202312061610 SPECI KPAE 061610Z 00000KT 2SM BR OVC004 09/08 A2984 RMK AO2 T00890078=
202312061553 METAR KPAE 061553Z 00000KT 3/4SM R16R/P6000FT BR OVC004 09/08 A2984 RMK AO2 SLP105 T00890078=
202312061539 SPECI KPAE 061539Z 00000KT 1/4SM R16R/P6000FT FG OVC004 09/08 A2984 RMK AO2 T00890078=
202312061520 SPECI KPAE 061520Z 15004KT 3/4SM R16R/P6000FT BR OVC004 09/08 A2985 RMK AO2 T00890078=
202312061453 METAR KPAE 061453Z 15005KT 2SM BR OVC004 09/08 A2985 RMK AO2 SLP109 60000 T00890078 58006=
202312061436 SPECI KPAE 061436Z AUTO 15004KT 7SM BKN012 OVC017 09/08 A2985 RMK AO2 T00890078=
202312061353 METAR KPAE 061353Z AUTO 17004KT 8SM OVC018 09/08 A2987 RMK AO2 RAB09E22 SLP115 P0000 T00890078 $=
202312061337 SPECI KPAE 061337Z AUTO 19004KT 8SM SCT004 OVC017 09/08 A2987 RMK AO2 RAB09E22 P0000 T00890078 $=
202312061328 SPECI KPAE 061328Z AUTO 16005KT 8SM BKN004 OVC017 09/08 A2986 RMK AO2 RAB09E22 CIG 003V007 P0000 T00890078 $=
202312061308 SPECI KPAE 061308Z AUTO 19004KT 6SM BR BKN005 OVC015 09/08 A2988 RMK AO2 T00890078 $=
202312061253 METAR KPAE 061253Z AUTO 19004KT 6SM BR FEW005 OVC015 09/08 A2987 RMK AO2 RAB37E53 SLP116 P0000 T00890078 $=
202312061153 METAR KPAE 061153Z AUTO 00000KT 10SM OVC015 09/08 A2987 RMK AO2 SLP115 60003 70099 T00890078 10094 20089 58009 $=
202312061130 SPECI KPAE 061130Z AUTO 00000KT 8SM OVC015 09/08 A2989 RMK AO2 T00890078 $=
202312061053 METAR KPAE 061053Z AUTO 20003KT 8SM OVC012 09/08 A2989 RMK AO2 RAE06B15E33 SLP124 P0000 T00890078 $=
202312061029 SPECI KPAE 061029Z AUTO 00000KT 5SM -RA BR SCT003 OVC010 09/08 A2990 RMK AO2 RAE06B15 P0000 T00890078 $=
202312061021 SPECI KPAE 061021Z AUTO 00000KT 4SM -RA BR BKN003 OVC010 09/08 A2989 RMK AO2 RAE06B15 CIG 002V007 P0000 T00890078 $=
202312061010 SPECI KPAE 061010Z AUTO 00000KT 2 1/2SM BR BKN003 OVC008 09/08 A2988 RMK AO2 RAE06 P0000 T00940078 $=
202312060956 SPECI KPAE 060956Z AUTO 00000KT 4SM -RA BR BKN005 OVC010 09/08 A2989 RMK AO2 P0000 T00940078 $=
202312060953 METAR KPAE 060953Z AUTO 00000KT 2 1/2SM -RA BR SCT006 OVC010 09/08 A2989 RMK AO2 RAB48 SLP123 P0000 T00940083 $=
202312060950 SPECI KPAE 060950Z AUTO 00000KT 2SM -RA BR SCT006 OVC010 09/08 A2989 RMK AO2 VIS 1 1/4V4 RAB48 P0000 $=
202312060853 METAR KPAE 060853Z AUTO 00000KT 8SM OVC013 09/08 A2989 RMK AO2 RAE39 SLP122 P0001 60003 T00940078 58012 $=
202312060813 SPECI KPAE 060813Z AUTO 00000KT 4SM -RA BR OVC008 09/08 A2991 RMK AO2 P0000 T00940078 $=
202312060753 METAR KPAE 060753Z AUTO 00000KT 2 1/2SM -RA BR OVC007 09/08 A2992 RMK AO2 SLP133 P0002 T00940078 401500094 $=
202312060733 SPECI KPAE 060733Z AUTO 00000KT 2 1/2SM -RA BR OVC007 09/08 A2992 RMK AO2 CIG 003V008 P0001 T00940083 $=
202312060721 SPECI KPAE 060721Z AUTO 00000KT 3SM -RA BR OVC007 09/08 A2992 RMK AO2 P0001 T00940083 $=
202312060711 SPECI KPAE 060711Z AUTO 00000KT 1 3/4SM -RA BR OVC006 09/08 A2992 RMK AO2 P0001 T00940083 $=
202312060653 METAR KPAE 060653Z AUTO 00000KT 4SM -RA BR BKN006 OVC055 09/08 A2992 RMK AO2 RAE08B49 SLP133 P0000 T00940083 $=
202312060615 SPECI KPAE 060615Z AUTO 00000KT 5SM BR SCT005 BKN060 OVC080 09/08 A2992 RMK AO2 RAE08 P0000 T00940083 $=
202312060553 METAR KPAE 060553Z AUTO 15003KT 7SM -RA FEW060 OVC080 09/08 A2993 RMK AO2 SLP135 P0003 60017 T00940083 10111 20094 58008 $=
202312060531 SPECI KPAE 060531Z AUTO VRB03KT 5SM -RA BR SCT003 BKN060 OVC070 09/08 A2992 RMK AO2 P0003 T00940083 $=
202312060509 SPECI KPAE 060509Z AUTO 15005KT 4SM -RA BR BKN004 OVC055 09/08 A2994 RMK AO2 P0002 T00940078 $=
202312060453 METAR KPAE 060453Z 16005KT 4SM RA BR FEW004 OVC055 09/08 A2994 RMK AO2 SLP139 P0009 T00940078 $=
202312060353 METAR KPAE 060353Z 18006KT 10SM -RA SCT017 BKN055 OVC090 09/08 A2994 RMK AO2 RAB26 SLP142 P0001 T00940078 $=
202312060253 METAR KPAE 060253Z 18006KT 10SM FEW055 OVC090 09/08 A2995 RMK AO2 RAB0157E13B43E53 SLP142 P0000 60004 T00940078 50001 $=
202312060153 METAR KPAE 060153Z 20007KT 10SM OVC060 09/08 A2996 RMK AO2 RAE22 SLP145 P0000 T00940078 $=
202312060121 SPECI KPAE 060121Z 16009KT 10SM -RA FEW004 OVC070 10/08 A2995 RMK AO2 P0000 T01000083 $=
202312060053 METAR KPAE 060053Z 16013G23KT 7SM -RA BKN004 10/08 A2996 RMK AO2 SLP145 P0004 T01000083 $=
202312060007 SPECI KPAE 060007Z 15014KT 9SM -RA BKN004 11/09 A2994 RMK AO2 P0001 T01110089 $=
202312060000 SPECI KPAE 060000Z 15012G19KT 10SM -RA OVC070 11/09 A2994 RMK AO2 P0000 T01110089 $=
202312052353 METAR KPAE 052353Z 15012G17KT 3SM -RA BR BKN004 BKN060 OVC070 11/09 A2994 RMK AO2 SLP140 P0005 60026 T01110094 10111 20106 $=
202312052253 METAR KPAE 052253Z 15008KT 3SM -RA BR BKN004 BKN060 OVC070 11/10 A2996 RMK AO2 RAB2157 SLP145 P0003 T01110100 $=
202312052210 SPECI KPAE 052210Z 00000KT 2SM -RA BR SCT002 OVC004 11/10 A2995 RMK AO2 RAB2157 P0001 T01110100 $=
202312052153 METAR KPAE 052153Z 16006KT 2SM RA BR SCT002 OVC004 11/09 A2995 RMK AO2 SLP142 P0006 T01110094=
202312052104 SPECI KPAE 052104Z 17003KT 2SM -RA BR BKN002 BKN022 OVC070 11/09 A2995 RMK AO2 P0001 T01110094=
202312052057 SPECI KPAE 052057Z 17003KT 2SM -RA BR BKN012 BKN022 OVC070 11/09 A2995 RMK AO2 P0000 T01110094=
202312052053 METAR KPAE 052053Z 17004KT 4SM -RA BR BKN008 11/09 A2995 RMK AO2 RAE19B45 SLP143 P0002 60012 T01110094 51003=
202312051953 METAR KPAE 051953Z 00000KT 9SM -RA BKN008 11/08 A2995 RMK AO2 SLP140 P0005 T01060083=
202312051853 METAR KPAE 051853Z 04005KT 5SM -RA BR BKN008 11/08 A2996 RMK AO2 SLP144 P0005 T01060083=
202312051753 METAR KPAE 051753Z 09006KT 9SM -RA BKN006 OVC014 11/09 A2994 RMK AO2 SLP141 P0004 60053 T01060089 10150 20100 51024=
202312051700 SPECI KPAE 051700Z 05007KT 6SM -RA BR BKN006 OVC014 11/09 A2993 RMK AO2 P0000 T01060089=
202312051653 METAR KPAE 051653Z 03008KT 2SM -RA BR BKN006 OVC014 11/09 A2993 RMK AO2 SLP135 P0008 T01060089=
202312051601 SPECI KPAE 051601Z 03005KT 2 1/2SM -RA BR BKN006 OVC014 10/09 A2991 RMK AO2 P0001 T01000089=
202312051553 METAR KPAE 051553Z 02008KT 2SM -RA BR FEW006 SCT010 OVC014 10/09 A2992 RMK AO2 SLP131 P0008 T01000089=
202312051535 SPECI KPAE 051535Z 02007KT 2SM -RA BR BKN006 OVC013 10/09 A2991 RMK AO2 P0005 T01000089=
202312051453 METAR KPAE 051453Z VRB04KT 8SM -RA FEW002 BKN008 OVC080 11/10 A2987 RMK AO2 SLP116 P0020 60033 T01110100 50000=
202312051440 SPECI KPAE 051440Z AUTO VRB03KT 3SM -RA BR SCT002 BKN009 OVC014 11/09 A2989 RMK AO2 P0019 T01060094=
202312051435 SPECI KPAE 051435Z AUTO 03005KT 1 3/4SM RA BR SCT002 OVC008 11/09 A2989 RMK AO2 P0018 T01060094=
202312051401 SPECI KPAE 051401Z AUTO 27007KT 2 1/2SM R16R/6000VP6000FT RA BR BKN003 BKN007 OVC022 13/12 A2989 RMK AO2 P0003 T01330122=
202312051353 METAR KPAE 051353Z AUTO 24009G18KT 3SM RA BR FEW003 BKN007 OVC023 14/12 A2989 RMK AO2 PK WND 23027/1342 SLP121 P0006 T01390122=
202312051342 SPECI KPAE 051342Z AUTO 22014G27KT 2 1/2SM RA BR SCT007 BKN014 OVC026 14/12 A2988 RMK AO2 PK WND 23027/1342 P0003 T01440122=
202312051338 SPECI KPAE 051338Z AUTO 22014G22KT 4SM -RA BR BKN007 BKN014 OVC031 14/13 A2989 RMK AO2 P0001 T01440128=
202312051323 SPECI KPAE 051323Z AUTO 21009KT 10SM -RA FEW007 BKN013 OVC045 14/13 A2987 RMK AO2 P0000 T01440128=
202312051316 SPECI KPAE 051316Z AUTO 20010G22KT 10SM -RA BKN008 BKN040 OVC060 14/13 A2987 RMK AO2 P0000 T01440128=
202312051253 METAR KPAE 051253Z AUTO 18014KT 8SM -RA SCT008 BKN045 OVC070 14/13 A2986 RMK AO2 SLP111 P0007 T01440128=
202312051248 SPECI KPAE 051248Z AUTO 18015KT 6SM -RA BR SCT008 BKN042 OVC070 14/13 A2985 RMK AO2 PRESFR P0006=
202312051213 SPECI KPAE 051213Z AUTO 19012KT 10SM -RA BKN009 BKN019 OVC050 14/13 A2988 RMK AO2 P0001 T01440133=
202312051153 METAR KPAE 051153Z AUTO 19018G26KT 8SM -RA BKN010 BKN019 OVC070 15/13 A2987 RMK AO2 PK WND 18028/1105 RAE09B19 SLP115 P0002 60044 70082 T01500133 10150 20144 53009=
202312051141 SPECI KPAE 051141Z AUTO 19020G26KT 10SM -RA FEW008 BKN012 OVC055 15/13 A2987 RMK AO2 PK WND 18028/1105 RAE09B19 P0001 T01500133=
202312051127 SPECI KPAE 051127Z AUTO 19020G27KT 9SM -RA BKN010 OVC044 15/13 A2986 RMK AO2 PK WND 18028/1105 RAE09B19 P0000 T01500133=
202312051110 SPECI KPAE 051110Z AUTO 18017G28KT 8SM BKN008 OVC021 15/13 A2986 RMK AO2 PK WND 18028/1105 RAE09 P0000 T01500133=
202312051102 SPECI KPAE 051102Z AUTO 18019G27KT 7SM -RA BKN010 OVC038 14/13 A2986 RMK AO2 PK WND 18027/1100 P0000 T01440133=
202312051053 METAR KPAE 051053Z AUTO 18017G27KT 5SM -RA BR OVC008 15/13 A2985 RMK AO2 PK WND 18029/0955 SLP107 P0003 T01500133=
202312050953 METAR KPAE 050953Z AUTO 18019G29KT 5SM -RA BR BKN009 OVC013 15/13 A2985 RMK AO2 PK WND 16032/0923 SLP108 P0005 T01500133=
202312050939 SPECI KPAE 050939Z AUTO 18019G28KT 8SM -RA BKN011 OVC025 15/13 A2985 RMK AO2 PK WND 16032/0923 P0003 T01500133=
202312050853 METAR KPAE 050853Z AUTO 17019G33KT 8SM -RA BKN008 BKN014 15/13 A2985 RMK AO2 PK WND 17034/0831 SLP106 P0013 60034 T01500133 55010=
202312050844 SPECI KPAE 050844Z AUTO 17018G31KT 6SM -RA BR BKN010 BKN016 OVC070 15/13 A2984 RMK AO2 PK WND 17034/0831 P0012 T01500128=
202312050753 METAR KPAE 050753Z AUTO 18022G30KT 6SM RA BR BKN008 OVC026 15/13 A2986 RMK AO2 PK WND 17030/0750 SLP112 P0011 T01500128 401500050=
202312050653 METAR KPAE 050653Z AUTO 19017G24KT 5SM -RA BR OVC007 14/13 A2988 RMK AO2 PK WND 19028/0621 CIG 005V013 SLP118 P0010 T01440128=
202312050613 SPECI KPAE 050613Z AUTO 18015G24KT 9SM -RA OVC009 14/12 A2986 RMK AO2 CIG 006V011 P0003 T01390122=
202312050553 METAR KPAE 050553Z AUTO 17012G24KT 7SM -RA OVC010 14/12 A2985 RMK AO2 CIG 006V013 SLP107 P0006 60029 T01390122 10139 20117 56009=
202312050453 METAR KPAE 050453Z 17011KT 10SM -RA OVC006 14/12 A2985 RMK AO2 PK WND 16028/0400 SLP110 P0004 T01390122=
202312050353 METAR KPAE 050353Z 16015KT 4SM RA BR BKN004 BKN070 OVC095 13/12 A2984 RMK AO2 SLP104 P0007 T01330122=
202312050300 SPECI KPAE 050300Z 16011KT 4SM -RA BR BKN006 BKN017 OVC025 13/12 A2986 RMK AO2 P0000 T01330117=
202312050253 METAR KPAE 050253Z 18012KT 2SM -RA BR BKN025 OVC033 13/12 A2987 RMK AO2 SLP117 P0007 60012 T01330117 55001=
202312050226 SPECI KPAE 050226Z 17010KT 2SM -RA BR BKN025 OVC033 13/12 A2987 RMK AO2 P0004 T01330117=
202312050221 SPECI KPAE 050221Z 17010KT 3SM -RA BR BKN025 OVC033 13/12 A2987 RMK AO2 P0003 T01330117=
202312050153 METAR KPAE 050153Z 17012KT 2SM -RA BR BKN025 OVC035 13/12 A2986 RMK AO2 SLP113 P0003 T01330117=
202312050148 SPECI KPAE 050148Z 16013KT 2SM -RA BR BKN025 OVC035 13/12 A2986 RMK AO2 P0003=
202312050053 METAR KPAE 050053Z 15016G22KT 3SM -RA BR BKN008 BKN029 OVC038 12/10 A2985 RMK AO2 SLP110 P0002 T01170100=
202312042353 METAR KPAE 042353Z 14013G22KT 5SM -RA BR BKN008 BKN018 OVC038 12/11 A2988 RMK AO2 PK WND 16026/2255 RAE2259B07 SLP118 P0000 60004 T01220106 10122 20083 55007=
202312042300 SPECI KPAE 042300Z 15016G26KT 8SM BKN008 BKN013 OVC027 12/10 A2988 RMK AO2 PK WND 16026/2255 RAE2259 P0000 T01220100=
202312042253 METAR KPAE 042253Z 15017G25KT 8SM -RA BKN003 BKN013 OVC023 12/10 A2987 RMK AO2 RAB08 SLP117 P0001 T01170100=
202312042248 SPECI KPAE 042248Z 15012G20KT 9SM -RA BKN003 BKN013 OVC023 12/10 A2988 RMK AO2 RAB08 P0001=
202312042230 SPECI KPAE 042230Z 13007KT 2SM -RA BR BKN003 BKN013 OVC023 11/09 A2988 RMK AO2 RAB08 P0001 T01060094=
202312042225 SPECI KPAE 042225Z 12007KT 090V170 3/4SM R16R/P6000FT -RA BR SCT003 BKN015 OVC026 11/09 A2988 RMK AO2 RAB08 P0001 T01060094=
202312042153 METAR KPAE 042153Z 15007G18KT 3/4SM R16R/P6000FT BR BKN003 OVC011 11/09 A2990 RMK AO2 RAB2056E21 SLP126 P0000 T01060089=
202312042124 SPECI KPAE 042124Z 14007G17KT 100V160 3/4SM R16R/P6000FT BR OVC005 10/09 A2991 RMK AO2 RAB2056E21 P0000 T01000089=
202312042053 METAR KPAE 042053Z VRB06G18KT 2SM BR OVC005 11/09 A2991 RMK AO2 RAB03E51 SLP131 P0001 60003 T01110094 56014=
202312042016 SPECI KPAE 042016Z 2 1/2SM -RA BR BKN004 BKN041 OVC050 11/09 A2992 RMK AO2 RAB03 P0000 T01060089=
202312042006 SPECI KPAE 042006Z 14008G18KT 110V180 3SM -RA BR BKN004 BKN041 OVC050 11/09 A2992 RMK AO2 RAB03 P0000 T01060089=
202312041959 SPECI KPAE 041959Z 14010G17KT 090V160 6SM BR SCT004 BKN041 OVC050 10/08 A2992 RMK AO2 T01000083=
202312041953 METAR KPAE 041953Z VRB06KT 4SM BR BKN005 OVC045 10/08 A2992 RMK AO2 RAE52 SLP134 P0001 T01000083=
202312041932 SPECI KPAE 041932Z VRB05KT 3SM -RA BR BKN005 OVC045 10/08 A2993 RMK AO2 P0001 T01000083=
202312041900 SPECI KPAE 041900Z 14009G18KT 5SM -RA BR SCT004 BKN045 OVC075 09/08 A2994 RMK AO2 P0000 T00890078=
202312041853 METAR KPAE 041853Z 15009G18KT 5SM -RA BR BKN004 BKN039 OVC045 09/07 A2994 RMK AO2 RAB05E27B34 SLP138 P0001 T00890072=
202312041831 SPECI KPAE 041831Z 14007KT 6SM BR BKN004 BKN039 OVC045 08/07 A2994 RMK AO2 RAB05E27 P0001 T00830072=
202312041823 SPECI KPAE 041823Z 13005KT 5SM -RA BR SCT004 BKN039 OVC045 09/07 A2995 RMK AO2 RAB05 P0001 T00890072=
202312041753 METAR KPAE 041753Z 15011G21KT 9SM FEW040 BKN047 OVC070 09/07 A2995 RMK AO2 RAE53 SLP145 P0001 60005 T00890067 10089 20050 56012=
202312041653 METAR KPAE 041653Z 14006KT 5SM -RA BKN049 OVC070 08/05 A2996 RMK AO2 SLP148 P0004 T00780050=
202312041600 SPECI KPAE 041600Z 11005KT 8SM -RA OVC033 07/03 A2996 RMK AO2 P0000 T00720028=
202312041553 METAR KPAE 041553Z 11006KT 8SM -RA OVC029 07/03 A2996 RMK AO2 RAB26 SLP148 P0000 T00720028=
202312041453 METAR KPAE 041453Z 11007KT 10SM OVC029 07/02 A2999 RMK AO2 SLP158 T00670022 58024=
202312041439 SPECI KPAE 041439Z AUTO 10006KT 10SM OVC029 07/02 A2999 RMK AO2 T00670022=
202312041353 METAR KPAE 041353Z AUTO 11006KT 10SM OVC046 06/02 A3001 RMK AO2 SLP165 T00610022=
202312041253 METAR KPAE 041253Z AUTO 11005KT 10SM BKN049 06/02 A3005 RMK AO2 SLP178 T00560022=
202312041153 METAR KPAE 041153Z AUTO 11006KT 10SM CLR 05/03 A3006 RMK AO2 SLP183 70015 T00500028 10083 20050 58002=
202312041053 METAR KPAE 041053Z AUTO 11007KT 10SM CLR 06/03 A3007 RMK AO2 SLP186 T00610028=
202312040953 METAR KPAE 040953Z AUTO 12006KT 10SM CLR 07/03 A3007 RMK AO2 SLP186 T00670033=
202312040853 METAR KPAE 040853Z AUTO 10007KT 10SM CLR 06/04 A3007 RMK AO2 SLP185 T00610039 53024=
202312040753 METAR KPAE 040753Z AUTO 11006KT 10SM CLR 07/05 A3005 RMK AO2 SLP178 T00720050 401060056=
202312040653 METAR KPAE 040653Z AUTO 15009KT 10SM FEW024 08/06 A3001 RMK AO2 SLP164 T00830056=
202312040612 SPECI KPAE 040612Z AUTO 15007KT 9SM OVC030 08/06 A3000 RMK AO2 T00830061=
202312040553 METAR KPAE 040553Z AUTO 11005KT 8SM OVC029 08/06 A3000 RMK AO2 SLP161 60002 T00830061 10100 20083 50000=
202312040528 SPECI KPAE 040528Z AUTO 16005G17KT 9SM BKN023 09/07 A2998 RMK AO2 T00890067=
202312040506 SPECI KPAE 040506Z AUTO 17017G23KT 8SM SCT008 09/07 A2998 RMK AO2 T00890067=
202312040453 METAR KPAE 040453Z 16013G19KT 9SM BKN008 09/07 A2999 RMK AO2 PRESFR SLP158 T00890067=
202312040422 SPECI KPAE 040422Z 15008KT 10SM BKN009 OVC018 08/06 A3000 RMK AO2 CIG 006V011 T00830061=
202312040410 SPECI KPAE 040410Z 12005KT 10SM SCT009 OVC018 08/06 A3000 RMK AO2 PRESFR T00830061=
202312040353 METAR KPAE 040353Z VRB04KT 10SM BKN009 OVC018 08/06 A3002 RMK AO2 RAE19 SLP168 P0001 T00830061=
202312040331 SPECI KPAE 040331Z 11005KT 10SM BKN011 OVC014 08/06 A3002 RMK AO2 RAE19 CIG 009V013 P0001 T00830056=
202312040253 METAR KPAE 040253Z VRB03KT 7SM -RA SCT025 OVC033 08/06 A3000 RMK AO2 SLP161 P0001 60001 T00830056 51026=
202312040153 METAR KPAE 040153Z VRB03KT 10SM -RA FEW037 OVC047 09/06 A2999 RMK AO2 RAB28 SLP159 P0000 T00890061=
202312040053 METAR KPAE 040053Z 15005KT 10SM OVC055 09/07 A2996 RMK AO2 SLP147 T00940067=
202312032353 METAR KPAE 032353Z VRB03KT 10SM OVC060 10/06 A2992 RMK AO2 SLP134 60003 T01000056 10106 20061 51041=
202312032253 METAR KPAE 032253Z 09005KT 10SM FEW003 SCT027 10/06 A2987 RMK AO2 SLP118 T01000056=
202312032204 SPECI KPAE 032204Z 00000KT 10SM FEW003 SCT027 10/06 A2985 RMK AO2 T01000056=
202312032200 SPECI KPAE 032200Z VRB03KT 10SM FEW003 BKN027 OVC033 10/05 A2984 RMK AO2 T01000050=
202312032153 METAR KPAE 032153Z 00000KT 10SM FEW003 BKN012 OVC031 10/05 A2985 RMK AO2 RAE16 SLP109 P0001 T01000050=
202312032138 SPECI KPAE 032138Z 00000KT 10SM FEW003 BKN012 OVC031 09/06 A2984 RMK AO2 RAE16 P0001 T00940061=
202312032128 SPECI KPAE 032128Z 00000KT 10SM BKN003 BKN031 OVC040 09/07 A2983 RMK AO2 RAE16 P0001 T00940072=
202312032119 SPECI KPAE 032119Z 21004KT 10SM SCT003 BKN031 OVC040 09/07 A2982 RMK AO2 RAE16 P0001 T00890072=
202312032112 SPECI KPAE 032112Z 25006KT 2SM R16R/5500VP6000FT -RA BR BKN004 BKN033 OVC040 09/07 A2981 RMK AO2 CIG 001V007 P0001 T00890072=
202312032053 METAR KPAE 032053Z 23011G19KT 2SM R16R/5500VP6000FT -RA BR BKN005 BKN010 OVC014 09/07 A2979 RMK AO2 RAB43 PRESRR SLP091 P0001 60002 T00890072 53031=
202312031955 SPECI KPAE 031955Z 17016G25KT 6SM BR BKN005 BKN010 OVC014 08/06 A2969 RMK AO2 T00780061=
202312031953 METAR KPAE 031953Z 17016G25KT 2 1/2SM BR OVC008 08/06 A2969 RMK AO2 RAB18E37 SLP057 P0001 T00780061=
202312031925 SPECI KPAE 031925Z 17011KT 2 1/2SM -RA BR OVC008 08/06 A2971 RMK AO2 RAB18 P0000 T00780061=
202312031853 METAR KPAE 031853Z 15014KT 7SM OVC019 08/06 A2969 RMK AO2 SLP058 T00780056=
202312031753 METAR KPAE 031753Z 14009G18KT 10SM BKN022 OVC030 06/04 A2970 RMK AO2 RAE1659 SLP059 P0000 60010 T00610044 10061 20056 58018=
202312031653 METAR KPAE 031653Z 15010G22KT 10SM -RA BKN027 OVC034 06/04 A2972 RMK AO2 SLP065 P0002 T00560039=
202312031553 METAR KPAE 031553Z VRB03KT 7SM -RA BKN027 OVC034 06/03 A2975 RMK AO2 SLP077 P0004 T00560033=
202312031453 METAR KPAE 031453Z 12008KT 8SM -RA FEW035 OVC055 06/03 A2975 RMK AO2 SLP077 P0002 60004 T00560028 56017=
202312031353 METAR KPAE 031353Z AUTO 11006KT 10SM -RA OVC065 06/03 A2977 RMK AO2 SLP082 P0002 T00560028=
202312031253 METAR KPAE 031253Z AUTO 11007KT 10SM -RA BKN070 OVC085 06/03 A2978 RMK AO2 RAB43 SLP086 P0000 T00560028=
202312031153 METAR KPAE 031153Z AUTO 11006KT 10SM SCT075 OVC110 06/02 A2980 RMK AO2 SLP094 70025 T00560022 10067 20056 58019=
202312031053 METAR KPAE 031053Z AUTO 11006KT 10SM FEW040 BKN100 OVC120 06/02 A2984 RMK AO2 SLP106 T00560022=
202312030953 METAR KPAE 030953Z AUTO 11006KT 10SM SCT045 OVC100 06/03 A2985 RMK AO2 SLP111 T00560028=
202312030853 METAR KPAE 030853Z AUTO 12005KT 10SM BKN110 06/03 A2986 RMK AO2 SLP113 T00610028 56004=
202312030753 METAR KPAE 030753Z AUTO VRB05KT 10SM CLR 07/03 A2987 RMK AO2 SLP116 T00670028 400940050=
202312030653 METAR KPAE 030653Z AUTO VRB03KT 10SM FEW060 06/03 A2986 RMK AO2 SLP114 T00610033=
202312030624 SPECI KPAE 030624Z AUTO VRB03KT 10SM SCT020 OVC065 06/03 A2987 RMK AO2 T00610033=
202312030553 METAR KPAE 030553Z AUTO VRB04KT 10SM BKN019 BKN075 07/03 A2987 RMK AO2 SLP117 T00670033 10078 20061 55004=
202312030534 SPECI KPAE 030534Z AUTO 14006KT 10SM SCT019 07/03 A2987 RMK AO2 T00670033=
202312030524 SPECI KPAE 030524Z AUTO VRB04KT 10SM SCT018 BKN026 07/04 A2988 RMK AO2 T00670039=
202312030453 METAR KPAE 030453Z VRB04KT 10SM SCT014 07/04 A2988 RMK AO2 SLP122 T00670039=
202312030353 METAR KPAE 030353Z 17007KT 10SM FEW100 07/03 A2988 RMK AO2 SLP122 T00670033=
202312030253 METAR KPAE 030253Z 16009KT 10SM SCT110 07/04 A2986 RMK AO2 SLP114 T00670039 51012=
202312030153 METAR KPAE 030153Z 15008KT 10SM FEW025 SCT080 07/04 A2985 RMK AO2 SLP112 T00720039=
202312030053 METAR KPAE 030053Z 11004KT 10SM CLR 07/03 A2984 RMK AO2 SLP108 T00720033=
202312022353 METAR KPAE 022353Z 10004KT 10SM FEW033 SCT095 08/04 A2982 RMK AO2 SLP102 T00780039 10094 20061 52025=
202312022253 METAR KPAE 022253Z 00000KT 10SM FEW043 BKN070 08/04 A2980 RMK AO2 SLP094 T00830039=
202312022153 METAR KPAE 022153Z 25006KT 10SM BKN080 OVC100 09/02 A2977 RMK AO2 SLP083 T00940022=
202312022053 METAR KPAE 022053Z 19006KT 10SM FEW008 SCT022 09/04 A2975 RMK AO2 SLP076 T00890044 51027=
202312021953 METAR KPAE 021953Z 16006KT 10SM FEW040 09/05 A2972 RMK AO2 SLP067 T00890050=
202312021853 METAR KPAE 021853Z 17011KT 10SM FEW008 BKN049 BKN060 08/05 A2970 RMK AO2 SLP060 T00780050=
202312021843 SPECI KPAE 021843Z 18010KT 10SM SCT006 BKN049 BKN060 08/05 A2970 RMK AO2 T00780050=
202312021753 METAR KPAE 021753Z 15009KT 10SM BKN003 OVC060 06/05 A2967 RMK AO2 SLP048 60025 T00610050 10078 20050 51036=
202312021726 SPECI KPAE 021726Z 15006KT 1/2SM R16R/P6000FT VV001 06/04 A2965 RMK AO2 T00560039=
202312021721 SPECI KPAE 021721Z 15008KT 10SM FEW003 SCT021 SCT050 06/04 A2965 RMK AO2 T00560039=
202312021653 METAR KPAE 021653Z 16009KT 10SM FEW021 SCT045 06/03 A2964 RMK AO2 SLP038 T00560033=
202312021553 METAR KPAE 021553Z 00000KT 10SM CLR 06/02 A2960 RMK AO2 SLP025 T00560022=
202312021453 METAR KPAE 021453Z 00000KT 10SM SCT016 06/03 A2956 RMK AO2 RAE13 SLP011 P0001 60025 T00610033 53025=
202312021353 METAR KPAE 021353Z AUTO 34006KT 4SM RA FEW016 OVC033 07/03 A2952 RMK AO2 SLP997 P0006 T00670033=
202312021329 SPECI KPAE 021329Z AUTO 20004KT 6SM -RA FEW026 OVC033 07/04 A2953 RMK AO2 P0003 T00720039=
202312021316 SPECI KPAE 021316Z AUTO 7SM -RA FEW007 SCT016 OVC029 07/04 A2954 RMK AO2 P0002 T00720039=
202312021305 SPECI KPAE 021305Z AUTO 5SM -RA BR FEW007 BKN011 OVC031 07/06 A2953 RMK AO2 P0001 T00720056=
202312021258 SPECI KPAE 021258Z AUTO 29006KT 3SM -RA BR SCT009 BKN017 OVC027 07/06 A2953 RMK AO2 P0001 T00720056=
202312021253 METAR KPAE 021253Z AUTO 27006G21KT 1 3/4SM R16R/5500VP6000FT +RA BR SCT009 BKN017 OVC024 07/05 A2952 RMK AO2 PK WND 18040/1158 WSHFT 1234 RAB1156 SLP999 P0018 T00720050=
202312021248 SPECI KPAE 021248Z AUTO 27012G21KT 2SM R16R/5500VP6000FT +RA BR SCT011 BKN017 OVC030 08/06 A2952 RMK AO2 PK WND 18040/1158 WSHFT 1234 RAB1156 PRESRR P0015=
202312021228 SPECI KPAE 021228Z AUTO 19020G32KT 10SM -RA SCT013 BKN018 OVC055 08/05 A2948 RMK AO2 PK WND 18040/1158 RAB1156 P0001 T00780050=
202312021153 METAR KPAE 021153Z AUTO 17022G41KT 10SM OVC012 07/05 A2948 RMK AO2 PK WND 18041/1153 RAE48 SLP986 P0002 60020 70048 T00720050 10072 20061 58031=
202312021113 SPECI KPAE 021113Z AUTO 16021G28KT 10SM -RA BKN010 OVC017 07/05 A2951 RMK AO2 PK WND 15028/1112 PRESFR P0001 T00720050=
202312021053 METAR KPAE 021053Z AUTO 17014G26KT 7SM -RA SCT010 BKN018 OVC036 07/05 A2954 RMK AO2 PK WND 17033/1011 SLP004 P0006 T00670050=
202312021049 SPECI KPAE 021049Z AUTO 17014G26KT 7SM -RA SCT012 BKN018 OVC036 07/05 A2954 RMK AO2 PK WND 17033/1011 P0006=
202312021028 SPECI KPAE 021028Z AUTO 16017G28KT 7SM -RA BKN014 OVC021 07/04 A2955 RMK AO2 PK WND 17033/1011 PRESFR P0004 T00720044=
202312020953 METAR KPAE 020953Z AUTO 16019G34KT 10SM -RA SCT017 OVC027 07/04 A2958 RMK AO2 PK WND 18034/0947 SLP018 P0006 T00720044=
202312020912 SPECI KPAE 020912Z AUTO 14012G20KT 7SM -RA SCT006 BKN023 OVC031 07/04 A2961 RMK AO2 PRESFR P0003 T00670044=
202312020853 METAR KPAE 020853Z AUTO 15017G24KT 6SM -RA BR BKN006 BKN010 OVC027 06/04 A2963 RMK AO2 SLP035 P0003 60006 T00610044 58033=
202312020840 SPECI KPAE 020840Z AUTO 15016KT 10SM -RA BKN006 BKN027 OVC041 06/04 A2964 RMK AO2 P0001 T00610044=
202312020830 SPECI KPAE 020830Z AUTO 15015KT 8SM -RA SCT006 BKN029 OVC041 06/04 A2966 RMK AO2 P0001 T00610044=
202312020817 SPECI KPAE 020817Z AUTO 16015G23KT 10SM -RA SCT007 BKN034 OVC110 06/04 A2967 RMK AO2 P0000 T00610044=
202312020753 METAR KPAE 020753Z AUTO 16016G25KT 10SM -RA BKN007 BKN010 OVC032 07/04 A2969 RMK AO2 SLP057 P0002 T00670044 400830028=
202312020731 SPECI KPAE 020731Z AUTO 17013G22KT 10SM -RA BKN007 BKN034 OVC095 07/05 A2970 RMK AO2 P0002 T00670050=
202312020721 SPECI KPAE 020721Z AUTO 16016G22KT 6SM -RA BR SCT007 BKN011 OVC037 07/05 A2971 RMK AO2 P0001 T00670050=
202312020712 SPECI KPAE 020712Z AUTO 16014G23KT 8SM -RA SCT009 BKN015 OVC039 07/05 A2972 RMK AO2 P0001 T00670050=
202312020653 METAR KPAE 020653Z AUTO 16015G22KT 5SM -RA BR FEW010 BKN017 OVC037 07/04 A2973 RMK AO2 RAB16 SLP068 P0001 T00670044=
202312020651 SPECI KPAE 020651Z AUTO 16014G22KT 5SM -RA BR FEW008 BKN016 OVC037 07/04 A2973 RMK AO2 RAB16 P0001=
202312020644 SPECI KPAE 020644Z AUTO 16014KT 9SM -RA FEW008 BKN014 OVC019 07/04 A2972 RMK AO2 RAB16 P0000 T00670044=
202312020553 METAR KPAE 020553Z AUTO 16011KT 10SM BKN010 OVC015 07/05 A2974 RMK AO2 RAB0457E16 CIG 008V011 SLP073 P0001 60007 T00720050 10078 20067 56007=
202312020534 SPECI KPAE 020534Z AUTO 17011KT 10SM SCT009 OVC015 07/05 A2975 RMK AO2 RAB0457E16 P0001 T00720050=
202312020524 SPECI KPAE 020524Z AUTO 18009KT 10SM BKN009 BKN014 OVC033 07/05 A2976 RMK AO2 RAB0457E16 P0001 T00720050=
202312020511 SPECI KPAE 020511Z AUTO 17008KT 10SM -RA SCT009 BKN013 OVC035 07/05 A2974 RMK AO2 RAB0457 P0001 T00720050=
202312020503 SPECI KPAE 020503Z AUTO 19008G19KT 10SM -RA FEW009 BKN020 OVC037 07/05 A2974 RMK AO2 RAB0457 P0001 T00720050=
202312020453 METAR KPAE 020453Z AUTO 18010KT 10SM BKN011 BKN017 OVC024 07/05 A2974 RMK AO2 RAE21 SLP075 P0000 T00720050=
202312020401 SPECI KPAE 020401Z 18012KT 8SM -RA SCT009 OVC016 07/05 A2974 RMK AO2 P0000 T00720050=
202312020353 METAR KPAE 020353Z 19009KT 9SM -RA BKN011 BKN016 OVC020 07/05 A2975 RMK AO2 RAB0256 SLP077 P0005 T00670050=
202312020253 METAR KPAE 020253Z 18008KT 10SM SCT013 BKN020 OVC070 07/04 A2976 RMK AO2 RAE0156 SLP082 P0001 60001 T00720044 58004=
202312020153 METAR KPAE 020153Z 14007KT 10SM -RA FEW021 BKN048 OVC080 07/04 A2977 RMK AO2 RAB35 SLP085 P0000 T00720039=
202312020053 METAR KPAE 020053Z VRB04KT 10SM SCT027 OVC075 08/03 A2978 RMK AO2 SLP086 T00780033=
202312012353 METAR KPAE 012353Z 15006KT 10SM SCT027 08/03 A2978 RMK AO2 SLP085 60000 T00780033 10083 20050 51022=
202312012253 METAR KPAE 012253Z VRB03KT 10SM SCT027 08/03 A2975 RMK AO2 SLP078 T00830028=
202312012238 SPECI KPAE 012238Z 00000KT 10SM SCT028 SCT065 08/03 A2975 RMK AO2 T00780028=
202312012153 METAR KPAE 012153Z 00000KT 10SM SCT020 BKN027 08/03 A2975 RMK AO2 SLP076 T00780033=
202312012053 METAR KPAE 012053Z 15004KT 10SM BKN023 07/03 A2971 RMK AO2 SLP063 60000 T00720033 53023=
202312012004 SPECI KPAE 012004Z 20008KT 10SM SCT007 BKN025 07/04 A2969 RMK AO2 T00670039=
202312011953 METAR KPAE 011953Z 23004KT 10SM BKN007 BKN014 OVC055 06/04 A2969 RMK AO2 RAB03E13 SLP057 P0000 T00610039=
202312011853 METAR KPAE 011853Z 20008KT 10SM BKN007 BKN014 OVC070 06/03 A2965 RMK AO2 SLP044 T00560033=
202312011850 SPECI KPAE 011850Z 18008KT 10SM BKN007 BKN014 OVC070 06/03 A2964 RMK AO2=
202312011821 SPECI KPAE 011821Z AUTO 19011KT 10SM SCT009 BKN014 OVC075 05/03 A2964 RMK AO2 T00500028=
202312011814 SPECI KPAE 011814Z AUTO 19012KT 10SM SCT007 BKN016 OVC100 05/03 A2964 RMK AO2 T00500028=
202312011753 METAR KPAE 011753Z 19012KT 10SM OVC008 05/03 A2964 RMK AO2 SLP040 60021 T00500033 10050 20028 53010=
202312011730 SPECI KPAE 011730Z 16009KT 10SM OVC008 04/02 A2963 RMK AO2 T00440022=
202312011700 SPECI KPAE 011700Z VRB06KT 10SM OVC011 04/02 A2962 RMK AO2 T00390017=
202312011653 METAR KPAE 011653Z 15010KT 10SM OVC008 03/02 A2962 RMK AO2 SLP033 T00330017=
202312011626 SPECI KPAE 011626Z VRB04KT 10SM OVC008 03/02 A2961 RMK AO2 T00330017=
202312011612 SPECI KPAE 011612Z VRB05KT 10SM OVC014 03/02 A2961 RMK AO2 T00330017=
202312011553 METAR KPAE 011553Z 11007KT 6SM BR BKN017 OVC028 03/01 A2960 RMK AO2 RAE34UPB34E51 SLP027 P0002 T00280011=
202312011453 METAR KPAE 011453Z 15012KT 6SM -RA BR SCT009 OVC025 03/01 A2961 RMK AO2 SLP030 P0009 60019 T00330011 56010=
202312011451 SPECI KPAE 011451Z 15012KT 6SM -RA BR SCT010 OVC025 03/01 A2961 RMK AO2 P0009=
202312011401 SPECI KPAE 011401Z AUTO 16014G25KT 5SM -RA BR BKN011 OVC016 04/02 A2961 RMK AO2 P0002 T00390022=
202312011353 METAR KPAE 011353Z AUTO 15013G25KT 7SM -RA OVC009 04/02 A2961 RMK AO2 CIG 006V013 SLP031 P0006 T00390022=
202312011329 SPECI KPAE 011329Z AUTO 15011G19KT 6SM -RA BR FEW007 BKN013 OVC020 04/02 A2962 RMK AO2 P0004 T00390022=
202312011253 METAR KPAE 011253Z AUTO 15009KT 7SM -RA BKN018 OVC024 04/02 A2964 RMK AO2 SLP040 P0004 T00390022=
202312011153 METAR KPAE 011153Z AUTO 14007G16KT 7SM -RA OVC024 04/02 A2967 RMK AO2 SLP050 P0001 60002 70009 T00390022 10050 20039 58031=
202312011122 SPECI KPAE 011122Z AUTO 15011G18KT 10SM -RA FEW009 BKN019 OVC045 04/02 A2969 RMK AO2 P0000 T00390022=
202312011102 SPECI KPAE 011102Z AUTO 15011G15KT 10SM -RA SCT007 SCT017 OVC044 04/02 A2970 RMK AO2 P0000 T00390022=
202312011053 METAR KPAE 011053Z AUTO 14010KT 7SM -RA SCT007 BKN013 OVC060 04/02 A2970 RMK AO2 SLP062 P0001 T00440022=
202312011029 SPECI KPAE 011029Z AUTO 15012KT 10SM -RA FEW006 BKN014 OVC024 04/03 A2972 RMK AO2 P0000 T00440028=
202312011002 SPECI KPAE 011002Z AUTO 16013KT 10SM -RA FEW011 BKN021 OVC049 05/03 A2973 RMK AO2 P0000 T00500028=
202312010953 METAR KPAE 010953Z AUTO 16012KT 10SM -RA BKN010 BKN021 OVC050 05/03 A2974 RMK AO2 RAB45 SLP072 P0000 T00500028=
202312010923 SPECI KPAE 010923Z AUTO 16013G22KT 10SM OVC010 05/03 A2974 RMK AO2 CIG 007V013 T00500028=
202312010853 METAR KPAE 010853Z AUTO 15009KT 10SM OVC006 04/03 A2976 RMK AO2 CIG 004V009 SLP082 T00440028 58013=
202312010824 SPECI KPAE 010824Z AUTO 15009KT 10SM OVC005 05/03 A2977 RMK AO2 T00500028=
202312010753 METAR KPAE 010753Z AUTO 15011KT 9SM OVC003 04/03 A2979 RMK AO2 SLP090 T00440028 400670028=
202312010653 METAR KPAE 010653Z AUTO 14008KT 9SM OVC003 04/03 A2980 RMK AO2 SLP095 T00440028=
202312010553 METAR KPAE 010553Z AUTO VRB04KT 4SM BR OVC003 04/02 A2980 RMK AO2 RAB09E19 SLP095 P0000 60007 T00390022 10050 20039 58001=
202312010501 SPECI KPAE 010501Z AUTO 15011KT 5SM BR OVC004 04/02 A2981 RMK AO2 T00390022=
202312010453 METAR KPAE 010453Z AUTO 15010KT 8SM OVC005 04/02 A2980 RMK AO2 RAE41 SLP097 P0001 T00390017=
202312010412 SPECI KPAE 010412Z 14007G14KT 7SM -RA BKN009 OVC014 04/02 A2980 RMK AO2 CIG 006V012 P0000 T00390017=
202312010353 METAR KPAE 010353Z 15009G17KT 7SM -RA FEW008 OVC014 04/02 A2980 RMK AO2 SLP097 P0002 T00390017=
202312010349 SPECI KPAE 010349Z 15009G15KT 8SM -RA FEW008 OVC014 04/02 A2980 RMK AO2 P0002=
202312010332 SPECI KPAE 010332Z 15008KT 8SM -RA BKN014 OVC027 04/02 A2980 RMK AO2 P0001 T00390017=
202312010253 METAR KPAE 010253Z 15010KT 9SM -RA BKN018 OVC075 04/02 A2979 RMK AO2 SLP092 P0000 60004 T00440017 53003=
202312010153 METAR KPAE 010153Z 17006KT 10SM -RA FEW026 BKN033 OVC042 04/02 A2979 RMK AO2 SLP092 P0003 T00440017=
202312010133 SPECI KPAE 010133Z 19006KT 8SM -RA FEW025 SCT030 OVC042 04/02 A2979 RMK AO2 P0002 T00440017=
202312010057 SPECI KPAE 010057Z 20003KT 10SM -RA BKN026 BKN033 OVC044 05/01 A2979 RMK AO2 P0000 T00500011=
202312010053 METAR KPAE 010053Z 00000KT 10SM -RA SCT028 BKN033 OVC043 05/01 A2979 RMK AO2 SLP090 P0001 T00500011=

# No short TAF reports from KPAE in databse.

###################################
#  large TAF from KPAE
###################################
202312312324 TAF KPAE 312324Z 0100/0124 00000KT P6SM FEW040 BKN200 FM010300
                       05003KT P6SM BKN250 FM010600 10002KT P6SM
                       OVC015 FM011200 13003KT P6SM OVC004 FM011800
                       13005KT P6SM BKN250=
202312311726 TAF KPAE 311726Z 3118/0118 16004KT P6SM OVC006 FM312000 VRB03KT
                       P6SM BKN050 BKN250 FM312300 35002KT P6SM
                       BKN250 FM010500 05003KT P6SM BKN250 FM011500
                       13003KT P6SM OVC004=
202312311604 KPAE 311604Z 3116/0112 18006KT P6SM BKN008 OVC015 FM311800 17005KT
                       P6SM SCT015 OVC025 FM312200 VRB03KT P6SM
                       BKN250 FM010000 35002KT P6SM BKN250 FM010500
                       05003KT P6SM FEW250=
202312311138 TAF KPAE 311138Z 3112/0112 15007KT P6SM BKN015 OVC020 FM311500
                       17005KT P6SM SCT035 FM311800 17005KT P6SM
                       SCT015 OVC025 FM312200 VRB03KT P6SM BKN250
                       FM010000 35002KT P6SM BKN250 FM010500 05003KT
                       P6SM FEW250=
202312310520 TAF KPAE 310520Z 3106/0106 18008KT P6SM SCT015 BKN020 FM311500
                       17005KT P6SM OVC007 FM311800 17005KT P6SM
                       OVC015 FM010000 VRB03KT P6SM BKN250=
202312302321 TAF KPAE 302321Z 3100/3124 16010G18KT P6SM -SHRA BKN009 OVC060
                       FM310300 15008KT P6SM OVC015 FM311500 17005KT
                       P6SM OVC007 FM311800 17005KT P6SM OVC015=
202312302125 KPAE 302125Z 3021/3118 15011KT P6SM -SHRA FEW014 BKN030
                      TEMPO 3021/3023 4SM -SHRA OVC012 FM302300
                       17010KT P6SM VCSH FEW007 OVC035 FM310000
                       16007KT P6SM BKN025 FM310700 15005KT P6SM
                       OVC020 FM311500 17005KT P6SM OVC007=
202312301724 TAF KPAE 301724Z 3018/3118 17007KT P6SM -SHRA SCT025 OVC040 FM302300
                       17010KT P6SM VCSH FEW007 OVC035 FM310000
                       16007KT P6SM BKN025 FM310700 15005KT P6SM
                       OVC020 FM311500 17005KT P6SM OVC007=
202312301141 TAF KPAE 301141Z 3012/3112 15006KT P6SM -SHRA BKN050 OVC060 FM301800
                       14007KT P6SM VCSH FEW007 OVC020 FM302300
                       17010KT P6SM VCSH FEW007 OVC035 FM310000
                       16007KT P6SM BKN025 FM310700 15005KT P6SM
                       OVC025=
202312300522 TAF KPAE 300522Z 3006/3106 17009KT P6SM BKN090 BKN120 FM301000
                       13008KT P6SM -RA BKN040 OVC060 FM301700
                       13008KT P6SM VCSH FEW007 OVC015 FM310000
                       16007KT P6SM BKN025=
202312292322 TAF KPAE 292322Z 3000/3024 11011KT P6SM BKN120 FM300300 15009KT
                       P6SM BKN090 OVC120 FM300900 13008KT P6SM
                       -RA BKN040 OVC060 FM301700 13008KT P6SM
                       VCSH FEW007 OVC015=
202312291725 TAF KPAE 291725Z 2918/3018 10008KT P6SM BKN120 FM300300 15007KT
                       P6SM BKN070 OVC120 FM300900 14008KT P6SM
                       -RA BKN035 OVC050 FM301300 13008KT P6SM
                       VCSH OVC035=
202312291128 TAF KPAE 291128Z 2912/3012 12009KT P6SM OVC100 FM291800 07006KT
                       P6SM BKN120 FM300000 15007KT P6SM BKN120
                       FM300900 14010KT P6SM VCSH BKN035 OVC050=
202312290520 TAF KPAE 290520Z 2906/3006 11007KT P6SM -RA BKN070 OVC090 FM290800
                       11009KT P6SM OVC100 FM292100 07006KT P6SM
                       BKN120=
202312282320 TAF KPAE 282320Z 2900/2924 11007KT P6SM BKN090 OVC120 FM292100
                       07006KT P6SM BKN120=
202312281720 TAF KPAE 281720Z 2818/2918 13008KT P6SM -SHRA BKN040 BKN060 OVC100
                       FM282000 12007KT P6SM SCT050 OVC080 FM290900
                       09006KT P6SM VCSH SCT040 OVC070=
202312281131 TAF KPAE 281131Z 2812/2912 14012KT P6SM -RA BKN050 OVC060 FM281800
                       13008KT P6SM SCT045 OVC070 FM290000 12007KT
                       P6SM SCT060 OVC100 FM290900 09006KT P6SM
                       VCSH SCT040 OVC060=
202312280903 KPAE 280903Z 2809/2906 15010G17KT P6SM -RA SCT045 OVC060 FM281200
                       14012KT P6SM VCSH OVC045 FM281800 11007KT
                       P6SM OVC050=
202312280542 TAF KPAE 280542Z 2806/2906 12008KT P6SM VCSH BKN050 OVC070 FM280700
                       15017G26KT P6SM -RA OVC030 FM281200 14012KT
                       P6SM VCSH OVC045 FM281800 11007KT P6SM OVC050=
202312272320 TAF KPAE 272320Z 2800/2824 14005KT P6SM VCSH OVC060 FM280200 13015G24KT
                       P6SM OVC040 FM280700 15017G26KT P6SM -RA
                       OVC030 FM281100 14012KT P6SM OVC030 FM281800
                       11007KT P6SM SCT030 OVC050=
202312271724 TAF KPAE 271724Z 2718/2818 13010KT P6SM SCT030 OVC060 FM272000
                       14008KT P6SM -RA OVC030 FM280200 13014G23KT
                       P6SM OVC030 FM280700 15016G23KT P6SM OVC030
                       FM281100 14012KT P6SM OVC030=
202312271425 KPAE 271425Z 2714/2812 14014G24KT P6SM VCSH FEW050 BKN080 OVC110
                       FM271500 13010G20KT P6SM SCT030 OVC050 FM272000
                       14008KT P6SM -RA OVC030 FM280200 15017G25KT
                       P6SM OVC050 FM281100 15016G23KT P6SM OVC030=
202312271124 TAF KPAE 271124Z 2712/2812 14014G20KT P6SM VCSH FEW050 BKN080 OVC110
                       FM271500 13010KT P6SM SCT030 OVC050 FM272000
                       14008KT P6SM -RA OVC030 FM280200 15017G25KT
                       P6SM OVC050 FM281100 15016G23KT P6SM OVC030=
202312270858 KPAE 270858Z 2709/2806 14014G20KT P6SM VCSH FEW050 BKN080 FM271500
                       13012KT P6SM SCT030 OVC050 FM272000 14011KT
                       P6SM -RA OVC030 FM280200 15012KT P6SM OVC050=
202312270547 TAF KPAE 270547Z 2706/2806 10008KT P6SM OVC100 FM270700 14010KT
                       P6SM VCSH OVC080 FM271500 13012KT P6SM SCT030
                       OVC050 FM272000 14011KT P6SM -RA OVC030
                       FM280200 15012KT P6SM OVC050=
202312262320 TAF KPAE 262320Z 2700/2724 11005KT P6SM SCT070 BKN200 FM270300
                       07005KT P6SM BKN060 FM270600 10008KT P6SM
                       VCSH SCT030 OVC050 FM271500 13010KT P6SM
                       VCSH SCT030 OVC050 FM272000 14011KT P6SM
                       -RA OVC030=
202312261720 TAF KPAE 261720Z 2618/2718 13010KT P6SM SCT030 SCT070 FM262200
                       06005KT P6SM SCT070 BKN200 FM270300 10010KT
                       P6SM BKN060 FM270600 11008KT P6SM VCSH SCT030
                       OVC050=
202312261604 KPAE 261604Z 2616/2712 15012KT P6SM SCT003 SCT030 BKN070 FM261700
                       13005KT P6SM SCT020 OVC030 FM270000 VRB04KT
                       P6SM BKN150 FM270600 11008KT P6SM -SHRA
                       SCT030 OVC050=
202312261454 KPAE 261454Z 2615/2712 15017G26KT P6SM SCT003 FM261700 13005KT
                       P6SM SCT020 OVC030 FM270000 VRB04KT P6SM
                       BKN150 FM270600 11008KT P6SM -SHRA SCT030
                       OVC050=
202312261123 TAF KPAE 261123Z 2612/2712 15017G26KT P6SM FEW015 BKN020 BKN030
                       FM261700 13005KT P6SM SCT020 OVC030 FM270000
                       VRB04KT P6SM BKN150 FM270600 11008KT P6SM
                       -SHRA SCT030 OVC050=
202312260546 TAF KPAE 260546Z 2606/2706 12012G22KT P6SM VCSH BKN080 OVC120 FM260700
                       14017G25KT P6SM -RA OVC030 FM261200 16012KT
                       P6SM OVC030 FM261600 13005KT P6SM SCT020
                       OVC040 FM262100 07006KT P6SM SCT040 BKN180
                       FM270000 VRB04KT P6SM BKN150=
202312252323 TAF KPAE 252323Z 2600/2624 14014G23KT 6SM -RA SCT025 OVC040 FM260300
                       14014G26KT 4SM -SHRA BR OVC030 FM260700
                       13017G25KT P6SM -RA OVC025 FM261200 16012KT
                       P6SM OVC020 FM261600 12005KT P6SM SCT020
                       OVC040 FM262000 08006KT P6SM SCT040 BKN250=
202312251725 TAF KPAE 251725Z 2518/2618 13010KT P6SM VCSH OVC035 FM252000 12012G21KT
                       6SM -RA OVC025 FM260300 14014G26KT 4SM -SHRA
                       BR OVC025 FM260700 13017G25KT P6SM -RA OVC025
                       FM261200 16010KT P6SM OVC010=
202312251124 TAF KPAE 251124Z 2512/2612 11009KT P6SM BKN050 FM251300 13010KT
                       P6SM VCSH OVC035 FM251800 12010G18KT 6SM
                       -RA OVC025 FM260300 14014G26KT 4SM -SHRA
                       BR OVC025 FM260700 13017G25KT P6SM -RA OVC025=
202312250544 TAF KPAE 250544Z 2506/2606 14004KT P6SM BKN050 FM251300 13010KT
                       P6SM VCSH OVC035 FM251800 12010G18KT 6SM
                       -RA OVC025 FM252200 14014G26KT 4SM -RA BR
                       OVC025=
202312242321 TAF KPAE 242321Z 2500/2524 16006KT P6SM -SHRA OVC050 FM250700 10007KT
                       P6SM OVC030 FM251300 13012KT P6SM VCSH OVC030
                       FM251800 12010KT 6SM -RA OVC025 FM252100
                       13014G24KT 4SM -RA BR OVC025=
202312241720 TAF KPAE 241720Z 2418/2518 10006KT P6SM SCT100 BKN250 FM242000
                       13010KT P6SM -SHRA OVC040 FM250700 10007KT
                       P6SM OVC030 FM251300 13012KT P6SM VCSH OVC030=
202312241123 TAF KPAE 241123Z 2412/2512 10006KT P6SM BKN250 FM242000 14008KT
                       P6SM -SHRA OVC050 FM250300 14007KT P6SM
                       OVC030=
202312240520 TAF KPAE 240520Z 2406/2506 VRB03KT P6SM SCT250 FM240700 11008KT
                       P6SM BKN250 FM241300 14010KT P6SM OVC100
                       FM242000 14008KT P6SM VCSH OVC050 FM250000
                       14007KT P6SM OVC030=
202312232322 TAF KPAE 232322Z 2400/2424 VRB03KT P6SM SCT012 SCT250 FM240200
                       02004KT P6SM SCT250 FM240700 11008KT P6SM
                       BKN250 FM241300 14010KT P6SM OVC100 FM242000
                       14008KT P6SM OVC050=
202312231815 KPAE 231815Z 2318/2418 18005KT P6SM SCT020 OVC035
                      TEMPO 2318/2320 BKN004 FM232000 VRB03KT P6SM
                       SCT250 FM240200 04004KT P6SM SCT250 FM240700
                       11008KT P6SM BKN250 FM241300 14010KT P6SM
                       OVC100=
202312231727 TAF KPAE 231727Z 2318/2418 18005KT P6SM SCT020 OVC035 FM232000
                       VRB03KT P6SM SCT250 FM240200 04004KT P6SM
                       SCT250 FM240700 11008KT P6SM BKN250 FM241300
                       14010KT P6SM OVC100=
202312231313 KPAE 231313Z 2313/2412 18006KT P6SM SCT025
                      TEMPO 2313/2317 BKN025 FM231900 13003KT P6SM
                       SCT250=
202312231225 KPAE 231225Z 2312/2412 18006KT P6SM BKN030 FM231900 13003KT P6SM
                       SCT250=
202312231135 TAF KPAE 231135Z 2312/2412 15006KT P6SM BKN020 FM231300 14003KT
                       6SM BR SCT005 BKN020 FM231800 13003KT P6SM
                       SCT250=
202312230658 KPAE 230658Z 2307/2406 19004KT P6SM VCSH SCT023
                      TEMPO 2307/2310 -SHRA BKN023 FM231000 15006KT
                       P6SM BKN020 FM231300 14003KT 6SM BR SCT005
                       BKN020 FM231800 13003KT P6SM SCT250=
202312230520 TAF KPAE 230520Z 2306/2406 19004KT P6SM SKC FM231000 15006KT P6SM
                       BKN020 FM231300 14003KT 6SM BR SCT005 BKN020
                       FM231800 13003KT P6SM SCT250=
202312230029 KPAE 230029Z 2300/2324 18005KT P6SM SCT002 SCT025 BKN040
                      TEMPO 2300/2303 1SM BR BKN002 FM230600 16005KT
                       P6SM SCT020 BKN035 FM231000 15006KT P6SM
                       BKN030 FM231300 14003KT 6SM BR SCT005 BKN020
                       FM231800 13003KT P6SM SCT250=
202312222332 TAF KPAE 222332Z 2300/2324 26006KT P6SM SCT025 BKN040 FM230600
                       16005KT P6SM SCT020 BKN035 FM231000 15006KT
                       P6SM BKN030 FM231300 14003KT 6SM BR SCT005
                       BKN020 FM231800 13003KT P6SM SCT250=
202312221737 TAF KPAE 221737Z 2218/2318 33007KT 5SM -RA BR BKN010 OVC025 FM222000
                       31006KT 4SM -SHRA SCT008 OVC020 FM222300
                       33006KT P6SM SCT020 BKN035 FM230600 18006KT
                       P6SM SCT020 BKN040 FM231000 15006KT P6SM
                       BKN025 FM231300 14003KT 6SM BR SCT005 BKN015=
202312221526 KPAE 221526Z 2215/2312 30008KT 5SM -RA BR BKN015 OVC025
                      TEMPO 2215/2219 BKN006 FM222000 31006KT 4SM
                       -SHRA SCT008 OVC020 FM222200 33008KT P6SM
                       SCT020 BKN040 FM230600 18008KT P6SM SCT020
                       BKN040 FM231000 15006KT P6SM OVC020=
202312221142 TAF KPAE 221142Z 2212/2312 16012KT P6SM SCT010 OVC050 FM221400
                       16014G20KT P6SM -RA SCT015 OVC040 FM221700
                       19014G20KT 6SM -RA BR BKN015 OVC020 FM222000
                       33008KT 4SM -SHRA BKN008 OVC015 FM222200
                       33008KT P6SM SCT020 BKN040 FM230600 18008KT
                       P6SM SCT020 BKN040 FM231000 15006KT P6SM
                       OVC020=
202312220527 TAF KPAE 220527Z 2206/2306 17007KT P6SM SCT250 FM221000 16012KT
                       6SM BR OVC025 FM221300 17014G21KT 6SM -RA
                       BR BKN015 OVC020 FM222100 27009KT 6SM -SHRA
                       BR BKN015 OVC025=
202312212347 KPAE 212347Z 2200/2224 17008KT P6SM BKN150
                      TEMPO 2200/2203 1SM BR BKN001 FM220500 16009KT
                       5SM BR FEW005 BKN120 FM221000 16012KT 6SM
                       BR OVC025 FM221300 17014G21KT 6SM -RA BR
                       BKN015 OVC020 FM222100 27009KT 6SM -SHRA
                       BR BKN015 OVC025=
202312212334 TAF KPAE 212334Z 2200/2224 17008KT P6SM BKN150 FM220500 16009KT
                       5SM BR FEW005 BKN120 FM221000 16012KT 6SM
                       BR OVC025 FM221300 17014G21KT 6SM -RA BR
                       BKN015 OVC020 FM222100 27009KT 6SM -SHRA
                       BR BKN015 OVC025=
202312211736 TAF KPAE 211736Z 2118/2218 16004KT 1/2SM FG BKN002 OVC100
                      TEMPO 2118/2120 3SM BR SCT004 OVC100 FM212000
                       15004KT 5SM BR SCT004 BKN020 FM212200 15004KT
                       P6SM FEW004 BKN120 OVC200 FM220500 15009KT
                       5SM BR FEW005 BKN060 FM221200 17014KT P6SM
                       -RA OVC015=
202312211145 TAF KPAE 211145Z 2112/2212 15004KT 1/2SM FG OVC001 FM212000 15004KT
                       2SM BR BKN004 FM212200 15004KT P6SM BKN120
                       OVC200 FM221000 15014KT P6SM OVC100=
202312210520 TAF KPAE 210520Z 2106/2206 00000KT P6SM BCFG BKN025
                      TEMPO 2106/2110 1/2SM FG OVC004 FM211000
                       15004KT 1/4SM FG OVC001 FM212100 15005KT
                       2SM BR SCT004 OVC015 FM220300 14005KT P6SM
                       OVC050=
202312210149 KPAE 210149Z 2102/2124 29004KT 1/4SM FG VV001 FM211800 15004KT
                       3SM BR OVC004 FM212100 15004KT 5SM BR SCT005
                       OVC015=
202312202321 TAF KPAE 202321Z 2100/2124 VRB03KT P6SM SCT002 BKN200 FM210300
                       VRB03KT 2SM BR BKN002 FM210600 VRB03KT 1/2SM
                       FG OVC001 FM211800 15004KT 3SM BR OVC004
                       FM212100 15004KT 5SM BR SCT005 OVC015=
202312201720 TAF KPAE 201720Z 2018/2118 VRB03KT P6SM SCT250 FM202000 17003KT
                       P6SM SCT200 FM210200 15004KT P6SM SCT050
                       BKN200 FM210800 15004KT 6SM BR OVC009=
202312201132 TAF KPAE 201132Z 2012/2112 VRB03KT P6SM FEW002
                      TEMPO 2013/2017 2SM BR FM202000 17003KT P6SM
                       FEW015 BKN200 FM210200 15004KT P6SM BKN200
                       FM210800 15004KT 6SM BR OVC009=
202312200541 TAF KPAE 200541Z 2006/2106 VRB04KT P6SM FEW015 FM201000 VRB03KT
                       6SM BR OVC015 FM202200 VRB03KT P6SM SCT020
                       BKN060=
202312192343 TAF KPAE 192343Z 2000/2024 13005KT 6SM -RA BR OVC020
                      TEMPO 2000/2003 VRB04KT 2SM BR BKN012 FM200300
                       13008KT P6SM VCSH OVC035 FM201000 13004KT
                       6SM BR OVC015 FM201400 14003KT 5SM BR OVC008
                       FM202200 16003KT P6SM BKN015=
202312192207 KPAE 192207Z 1922/2018 13010KT 6SM -RA BR OVC020
                      TEMPO 1922/1924 2SM -RA BR OVC005 FM200300
                       14008KT P6SM VCSH OVC035 FM201000 13004KT
                       6SM BR OVC015 FM201400 16003KT 6SM BR OVC007=
202312192020 KPAE 192020Z 1920/2018 13010KT 6SM -RA BR OVC035
                      TEMPO 1920/1922 2SM -RA BR OVC025 FM200300
                       14008KT P6SM VCSH OVC035 FM201000 13004KT
                       6SM BR OVC015 FM201400 16003KT 6SM BR OVC007=
202312191725 TAF KPAE 191725Z 1918/2018 10008KT P6SM VCSH SCT050 OVC080 FM192000
                       13008KT 6SM -RA BR OVC022 FM200300 14008KT
                       P6SM VCSH OVC035 FM201000 13004KT 6SM BR
                       OVC015 FM201400 16003KT 6SM BR OVC007=
202312191138 TAF KPAE 191138Z 1912/2012 10005KT P6SM VCSH BKN050 OVC080 FM191500
                       13004KT P6SM -RA OVC035 FM192000 13008KT
                       6SM -RA BR OVC022 FM200300 14008KT P6SM
                       VCSH OVC030 FM201000 13003KT 6SM BR OVC008=
202312190543 TAF KPAE 190543Z 1906/2006 VRB04KT P6SM VCSH BKN040 OVC060 FM191000
                       10005KT 6SM BR VCSH OVC035 FM191500 13004KT
                       P6SM -RA OVC035 FM192000 13007KT 6SM BR
                       VCSH OVC020=
202312182346 TAF KPAE 182346Z 1900/1924 14004KT P6SM -RA OVC040 FM190200 11004KT
                       P6SM -SHRA BKN050 OVC070 FM190600 10006KT
                       P6SM -SHRA OVC025 FM191200 10005KT 6SM -SHRA
                       BR OVC035 FM191900 13007KT 6SM -SHRA BR
                       OVC018=
202312181849 TAF KPAE 181849Z 1819/1918 VRB02KT P6SM OVC100 FM182000 15005KT
                       6SM BR FEW005 BKN060 OVC100 FM190000 14007KT
                       P6SM -SHRA BKN050 OVC070 FM190300 13006KT
                       P6SM -SHRA OVC025 FM191000 13007KT 6SM -SHRA
                       BR OVC015=
202312181611 KPAE 181611Z 1816/1912 VRB02KT P6SM BKN120 FM181900 15005KT 6SM
                       BR FEW005 BKN060 OVC100 FM190000 14007KT
                       P6SM -SHRA BKN050 OVC070 FM190300 13006KT
                       P6SM -SHRA OVC025 FM191000 13007KT 6SM -SHRA
                       BR OVC015=
202312181452 KPAE 181452Z 1815/1912 VRB02KT 3SM BR BKN002 BKN100
                      TEMPO 1815/1817 P6SM NSW SCT003 BKN100 FM181700
                       15005KT 6SM BR FEW005 BKN060 OVC100 FM190000
                       14007KT P6SM -SHRA BKN050 OVC070 FM190300
                       13006KT P6SM -SHRA OVC025 FM191000 13007KT
                       6SM -SHRA BR OVC015=
202312181322 KPAE 181322Z 1813/1912 VRB02KT 1SM BR BKN002
                      TEMPO 1813/1817 4SM BR SCT003 BKN100 FM181700
                       15005KT 6SM BR FEW005 BKN060 OVC100 FM190000
                       14007KT P6SM -SHRA BKN050 OVC070 FM190300
                       13006KT P6SM -SHRA OVC025 FM191000 13007KT
                       6SM -SHRA BR OVC015=
202312181120 TAF KPAE 181120Z 1812/1912 VRB02KT 1/4SM FG VV001
                      TEMPO 1815/1818 4SM BR SCT003 BKN100 FM181800
                       15005KT 6SM BR FEW005 BKN060 OVC100 FM190000
                       14007KT P6SM -SHRA BKN050 OVC070 FM190300
                       13006KT P6SM -SHRA OVC025 FM191000 13007KT
                       6SM -SHRA BR OVC015=
202312180526 TAF KPAE 180526Z 1806/1906 35004KT 3SM BR BKN002
                      TEMPO 1806/1810 1SM BR OVC002 FM181100 34003KT
                       P6SM OVC100 FM181800 15003KT P6SM BKN050
                       OVC100 FM190000 14006KT P6SM -SHRA BKN050
                       OVC070 FM190300 13006KT P6SM -SHRA OVC025=
202312180351 KPAE 180351Z 1804/1824 35006KT P6SM BKN100
                      TEMPO 1804/1808 1SM BR BKN002 FM180800 34003KT
                       P6SM BKN120 OVC200 FM181600 15003KT P6SM
                       OVC100 FM181700 13005KT P6SM VCSH OVC060=
202312180350 KPAE 180350Z 1804/1824 35006KT P6SM BKN100 FM180600 34003KT P6SM
                       BKN120 OVC200 FM181600 15003KT P6SM OVC100
                       FM181700 13005KT P6SM VCSH OVC060=
202312172349 TAF KPAE 172349Z 1800/1824 35006KT P6SM BKN100 FM180300 34003KT
                       P6SM BKN120 OVC200 FM181600 15003KT P6SM
                       OVC100 FM181700 13005KT P6SM VCSH OVC060=
202312171743 TAF KPAE 171743Z 1718/1818 35003KT P6SM FEW002 BKN100 FM172000
                       36006KT P6SM BKN200 FM180300 34003KT P6SM
                       BKN120 OVC200 FM181600 15003KT P6SM OVC100=
202312171340 KPAE 171340Z 1714/1812 00000KT 6SM BR FEW002 BKN120 BKN200
                      TEMPO 1714/1717 3SM BR BKN002 FM171800 35003KT
                       5SM BR FEW002 BKN200 FM172000 36006KT P6SM
                       BKN200 FM180300 34003KT P6SM BKN120 OVC200=
202312171134 TAF KPAE 171134Z 1712/1812 00000KT 1/4SM FG VV001
                      TEMPO 1716/1718 3SM BR SCT002 FM171800 35003KT
                       5SM BR FEW002 BKN200 FM172000 36006KT P6SM
                       BKN200 FM180300 34003KT P6SM BKN120 OVC200=
202312171038 KPAE 171038Z 1711/1806 01004KT 6SM BR SCT001
                      TEMPO 1711/1713 1/2SM FG VV001 FM171300 36003KT
                       1/2SM FG VV001 FM171700 35003KT P6SM FEW250
                       FM180300 33003KT P6SM OVC100=
202312170522 TAF KPAE 170522Z 1706/1806 00000KT P6SM FEW250
                      TEMPO 1710/1714 2SM BR OVC004 FM171700 35003KT
                       P6SM FEW250 FM180300 33003KT P6SM OVC100=
202312162329 TAF KPAE 162329Z 1700/1724 VRB03KT P6SM SCT250 FM170600 13003KT
                       P6SM FEW250
                      TEMPO 1708/1712 4SM BR OVC004 FM171500 35003KT
                       P6SM FEW250=
202312161732 TAF KPAE 161732Z 1618/1718 16006KT P6SM BKN200 FM162000 VRB03KT
                       P6SM SCT250 FM170600 13003KT P6SM FEW250
                       TEMPO 1708/1712 4SM BR OVC004=
202312161123 TAF KPAE 161123Z 1612/1712 16006KT P6SM FEW250 FM162000 VRB03KT
                       P6SM SCT250 FM170600 13003KT P6SM FEW250
                       TEMPO 1708/1712 4SM BR OVC004=
202312160533 TAF KPAE 160533Z 1606/1706 16006KT P6SM FEW250 FM170000 32002KT
                       P6SM SCT250=
202312152324 TAF KPAE 152324Z 1600/1624 16006KT P6SM BKN250=
202312151745 TAF KPAE 151745Z 1518/1618 VRB04KT P6SM SCT120 FM152000 15007KT
                       P6SM SCT250 FM160400 16004KT P6SM BKN250=
202312151120 TAF KPAE 151120Z 1512/1612 VRB04KT P6SM SCT035 OVC060 FM152000
                       14007KT P6SM SCT250 FM160400 15004KT P6SM
                       SCT250=
202312150537 TAF KPAE 150537Z 1506/1606 11007KT P6SM OVC030 FM150900 09005KT
                       P6SM OVC015 FM151200 10004KT P6SM OVC025
                       FM152100 14007KT P6SM SCT250=
202312150204 KPAE 150204Z 1502/1524 09004KT P6SM OVC019 FM151200 06002KT P6SM
                       OVC035 FM151600 12005KT 5SM BR OVC015 FM152100
                       14005KT P6SM BKN250=
202312142325 KPAE 142325Z 1423/1524 11003KT 4SM BR BKN008 FM150300 08003KT 5SM
                       BR OVC030 FM151200 06002KT P6SM OVC035 FM151600
                       12005KT 5SM BR OVC015 FM152100 14005KT P6SM
                       BKN250=
202312142324 TAF KPAE 142324Z 1500/1524 11003KT P6SM BKN008 FM150300 08003KT
                       5SM BR OVC030 FM151200 06002KT P6SM OVC035
                       FM151600 12005KT 5SM BR OVC015 FM152100
                       14005KT P6SM BKN250=
202312141737 TAF KPAE 141737Z 1418/1518 17004KT P6SM FEW012 OVC025 FM142000
                       13005KT P6SM OVC015 FM150000 11003KT P6SM
                       OVC035=
202312141628 KPAE 141628Z 1416/1512 VRB04KT P6SM -RA BKN012 OVC030 FM141700
                       14007KT P6SM VCSH OVC025 FM142200 12005KT
                       P6SM OVC015 FM150000 VRB03KT P6SM OVC030=
202312141120 TAF KPAE 141120Z 1412/1512 13005KT P6SM -RA OVC050 FM141700 14007KT
                       P6SM VCSH OVC030 FM142200 11005KT P6SM OVC015
                       FM150000 VRB03KT P6SM OVC030=
202312140539 TAF KPAE 140539Z 1406/1506 15008KT P6SM SCT100 BKN200 FM141000
                       13005KT P6SM -RA OVC050 FM141700 14007KT
                       P6SM VCSH OVC030 FM142200 11005KT P6SM OVC015
                       FM150000 04004KT P6SM OVC030=
202312132339 TAF KPAE 132339Z 1400/1424 14007G18KT P6SM OVC200 FM140200 15006KT
                       P6SM OVC120 FM141000 13005KT P6SM -RA OVC050
                       FM141700 14007KT P6SM OVC030 FM142200 11005KT
                       P6SM OVC015=
202312131740 TAF KPAE 131740Z 1318/1418 15007KT P6SM OVC200 FM141000 13005KT
                       P6SM -RA OVC050=
202312131120 TAF KPAE 131120Z 1312/1412 14006KT P6SM BKN250 FM131600 16007KT
                       P6SM OVC200 FM140500 13005KT P6SM -RA BKN050
                       OVC100=
202312130524 TAF KPAE 130524Z 1306/1406 VRB03KT P6SM BKN250 FM130800 14009KT
                       P6SM BKN250 FM131600 16010KT P6SM OVC200=
202312122337 TAF KPAE 122337Z 1300/1324 VRB03KT P6SM SCT250 FM130800 14009KT
                       P6SM BKN250 FM131600 16010KT P6SM OVC250=
202312121738 TAF KPAE 121738Z 1218/1318 VRB02KT P6SM FEW250 FM122100 06005KT
                       P6SM SCT250 FM130100 10006KT P6SM SCT035
                       BKN150 FM130800 13008KT P6SM BKN060 FM131300
                       16010KT P6SM OVC010=
202312121654 KPAE 121654Z 1217/1312 VRB03KT 6SM BR FEW003 FM121800 VRB02KT P6SM
                       FEW250 FM122200 06005KT P6SM BKN035 OVC120
                       FM130100 10006KT P6SM SCT035 BKN150 FM130800
                       13005KT P6SM OVC005=
202312121453 KPAE 121453Z 1215/1312 VRB03KT 4SM BR BKN002
                      TEMPO 1215/1217 1/2SM FG VV001 FM121900 VRB02KT
                       P6SM OVC007 FM122200 06005KT P6SM BKN035
                       OVC120 FM130100 10006KT P6SM SCT035 BKN150
                       FM130800 13005KT P6SM OVC005=
202312121120 TAF KPAE 121120Z 1212/1312 VRB03KT 1/2SM FG VV001 FM121900 VRB02KT
                       P6SM OVC007 FM122200 06005KT P6SM BKN035
                       OVC120 FM130100 10006KT P6SM SCT035 BKN150
                       FM130800 13005KT P6SM OVC005=
202312120903 KPAE 120903Z 1209/1306 VRB03KT 5SM BR BKN006 OVC012 FM121000 VRB03KT
                       1/4SM FG VV001 FM121900 VRB02KT P6SM OVC007
                       FM122200 06005KT P6SM BKN035 OVC120 FM130100
                       15010KT P6SM SCT035 BKN120=
202312120813 KPAE 120813Z 1208/1306 VRB03KT 5SM BR BKN006 OVC012 FM120900 VRB03KT
                       1/4SM FG VV001 FM121900 VRB02KT P6SM OVC007
                       FM122200 06005KT P6SM BKN035 OVC120 FM130100
                       15010KT P6SM SCT035 BKN120=
202312120520 TAF KPAE 120520Z 1206/1306 VRB03KT 5SM BR BKN006 OVC012 FM120800
                       VRB03KT 1/4SM FG VV001 FM121900 VRB02KT
                       P6SM OVC007 FM122200 06005KT P6SM BKN035
                       OVC120 FM130100 15010KT P6SM SCT035 BKN120=
202312112339 TAF KPAE 112339Z 1200/1224 34005KT P6SM OVC007 FM120300 02003KT
                       3SM BR OVC005 FM120600 VRB03KT 1/4SM FG
                       VV001 FM121900 VRB02KT P6SM OVC007 FM122200
                       06005KT P6SM BKN035 OVC120=
202312112118 KPAE 112118Z 1121/1218 34005KT 1SM BR OVC003 FM112200 35006KT 3SM
                       BR OVC006 FM120300 01003KT 1/2SM FG OVC002
                       FM120600 07003KT 1/4SM FG VV001=
202312111959 KPAE 111959Z 1120/1218 34005KT 1/4SM FG VV001 FM112100 35006KT
                       3SM BR OVC009 FM120600 07003KT 1/4SM FG
                       OVC001=
202312111740 TAF KPAE 111740Z 1118/1218 35005KT 1/4SM FG VV001 FM111900 35006KT
                       5SM BR OVC010 FM120600 07003KT 1/4SM FG
                       OVC001=
202312111140 TAF KPAE 111140Z 1112/1212 35005KT 1/4SM FG VV001 FM111900 35005KT
                       5SM BR BKN010 FM112200 36006KT P6SM BKN022
                       BKN040 FM120600 07003KT 1/4SM FG OVC001=
202312110520 TAF KPAE 110520Z 1106/1206 21004KT 1SM BR OVC005 FM111800 35005KT
                       P6SM BKN010 BKN025 FM112200 36006KT P6SM
                       BKN022 BKN040=
202312110226 KPAE 110226Z 1102/1124 21004KT 1SM BR OVC005 FM111800 35005KT P6SM
                       BKN010 BKN025 FM112200 36006KT P6SM BKN022
                       BKN040=
202312102337 TAF KPAE 102337Z 1100/1124 18010G16KT P6SM SCT008 BKN012 OVC025
                       TEMPO 1100/1104 BKN008 FM110400 18007KT
                       6SM BR BKN008 OVC022 FM110700 VRB03KT 6SM
                       BR OVC005 FM111800 35005KT P6SM BKN010 BKN025
                       FM112200 36006KT P6SM BKN022 BKN040=
202312101731 TAF KPAE 101731Z 1018/1118 19010G16KT 5SM BR VCSH BKN005 OVC015
                       FM102100 19008KT 5SM BR VCSH BKN009 OVC022
                       FM110000 VRB04KT 6SM BR VCSH BKN012 OVC025
                       FM110300 VRB03KT 6SM BR OVC008 FM110700
                       VRB03KT 5SM BR OVC005=
202312101442 KPAE 101442Z 1015/1112 14008KT 5SM -RA BR BKN003 OVC010 FM101900
                       19010KT 5SM -SHRA BR BKN009 OVC022 FM110000
                       VRB04KT 6SM -SHRA BR BKN012 OVC025 FM110040
                       34003KT 6SM -SHRA BR OVC009 FM110600 VRB03KT
                       6SM BR OVC007=
202312101132 TAF KPAE 101132Z 1012/1112 14010G20KT 6SM -RA BR FEW004 BKN009
                       OVC025 FM101900 19010KT 5SM -SHRA BR BKN009
                       OVC022 FM110000 VRB04KT 6SM -SHRA BR BKN012
                       OVC025 FM110040 34003KT 6SM -SHRA BR OVC009
                       FM110600 VRB03KT 6SM BR OVC007=
202312100546 TAF KPAE 100546Z 1006/1106 15012G18KT P6SM -RA SCT008 BKN040 OVC070
                       FM101100 14011KT 5SM -RA BR BKN009 OVC020
                       FM101900 19010KT 5SM -SHRA BR BKN011 OVC022
                       FM110000 VRB04KT 6SM BR BKN012 OVC025=
202312100302 KPAE 100302Z 1003/1024 15012G18KT 4SM -RA BR BKN003 BKN025 OVC035
                       FM100700 15010G16KT 4SM RA BR BKN008 OVC015
                       FM101300 14011KT 5SM -RA BR BKN009 OVC020
                       FM101900 15008KT 5SM -SHRA BR BKN011 OVC022=
202312092340 TAF KPAE 092340Z 1000/1024 16012G18KT 5SM -RA BR OVC007 FM100700
                       15010G16KT 4SM RA BR BKN008 OVC015 FM101300
                       14011KT 5SM -RA BR BKN009 OVC020 FM101900
                       15008KT 5SM -SHRA BR BKN011 OVC022=
202312092101 KPAE 092101Z 0921/1018 16011KT 4SM -RA BR OVC010 FM100800 15010KT
                       4SM RA BR BKN008 OVC015=
202312091735 TAF KPAE 091735Z 0918/1018 16010KT P6SM -RA OVC040 FM091900 15012KT
                       P6SM -RA OVC025 FM092100 14012G18KT 4SM
                       -RA BR OVC012 FM100800 15010KT 4SM RA BR
                       BKN008 OVC015=
202312091139 TAF KPAE 091139Z 0912/1012 11008KT P6SM BKN180 FM091700 18008KT
                       P6SM OVC100 FM091900 15010G20KT P6SM -RA
                       OVC025 FM092200 14009G22KT 2SM -RA BR OVC009
                       FM100800 18010KT 4SM BR BKN008 OVC020=
202312090620 KPAE 090620Z 0906/1006 13005KT P6SM SCT050 BKN100 FM091700 18008KT
                       P6SM OVC100 FM091900 15010KT P6SM -RA OVC025
                       FM100200 18009KT 3SM BR BKN010 OVC020=
202312090557 TAF KPAE 090557Z 0906/1006 13005KT P6SM SCT050 BKN100 FM091700
                       18008KT P6SM OVC100 FM091900 15010KT P6SM
                       -RA OVC025=
202312090125 KPAE 090125Z 0901/0924 VRB03KT P6SM FEW004 BKN040 FM090600 13005KT
                       P6SM SCT050 BKN100 FM091700 18008KT P6SM
                       OVC100 FM091900 15010KT P6SM -RA OVC025=
202312082320 TAF KPAE 082320Z 0900/0924 VRB03KT P6SM SCT004 BKN025
                      TEMPO 0900/0902 BKN004 FM090300 13005KT P6SM
                       SCT050 BKN100 FM091700 18008KT P6SM OVC100
                       FM091900 15010KT P6SM -RA OVC025=
202312082154 KPAE 082154Z 0822/0918 VRB03KT P6SM SCT004 BKN025
                      TEMPO 0822/0823 BKN004 FM090300 13005KT P6SM
                       SCT050 BKN100 FM091700 18008KT P6SM OVC100=
202312081910 KPAE 081910Z 0819/0918 VRB03KT P6SM SCT004 BKN025
                      TEMPO 0819/0821 6SM -RA BR BKN004 FM090300
                       13005KT P6SM SCT050 BKN100 FM091700 18008KT
                       P6SM OVC100=
202312081734 TAF KPAE 081734Z 0818/0918 VRB03KT P6SM BKN040
                      TEMPO 0818/0819 -RA BKN022 FM090300 13005KT
                       P6SM SCT050 BKN100 FM091700 18008KT P6SM
                       OVC100=
202312081654 KPAE 081654Z 0817/0912 VRB03KT P6SM BKN040
                      TEMPO 0817/0819 -RA BKN022 FM090300 16005KT
                       P6SM SCT050 BKN100 FM090900 11005KT P6SM
                       BKN250=
202312081139 TAF KPAE 081139Z 0812/0912 00000KT P6SM BKN020 OVC080 FM081500
                       VRB03KT P6SM BKN050 FM090300 16005KT P6SM
                       SCT050 BKN100 FM090900 11005KT P6SM BKN250=
202312080520 TAF KPAE 080520Z 0806/0906 15008KT P6SM SCT030 BKN035 FM081900
                       20003KT P6SM BKN050 FM090300 17003KT P6SM
                       SCT050 BKN100=
202312072333 TAF KPAE 072333Z 0800/0824 VRB03KT P6SM VCSH FEW035 BKN045 OVC060
                       FM080200 18006KT P6SM OVC025 FM081900 20003KT
                       P6SM BKN050=
202312072018 KPAE 072018Z 0720/0818 27004KT 3SM -SHRA BR SCT004 OVC016
                      TEMPO 0720/0722 33006KT 1SM -SHRA BR BKN004
                       FM072200 36004KT P6SM -SHRA OVC015 FM080200
                       18006KT P6SM OVC025=
202312071909 KPAE 071909Z 0719/0818 18010KT P6SM -SHRA FEW008 BKN015 BKN060
                       TEMPO 0719/0720 2SM -SHRA BR BKN004 FM072000
                       34008KT P6SM -SHRA BKN030 OVC060 FM080200
                       18006KT P6SM OVC025=
202312071729 TAF KPAE 071729Z 0718/0818 18023G29KT P6SM -SHRA FEW008 SCT019
                       BKN060 FM072000 34008KT P6SM -SHRA BKN030
                       OVC060 FM080200 18006KT P6SM OVC025=
202312071605 KPAE 071605Z 0716/0812 18013G20KT P6SM VCSH FEW008 SCT019 BKN060
                       TEMPO 0716/0718 -SHRA BKN020 FM072000 34008KT
                       6SM BR VCSH OVC015 FM080200 18006KT P6SM
                       OVC025=
202312071140 TAF KPAE 071140Z 0712/0812 18011KT 6SM RA BR BKN015 OVC030 FM071500
                       19008KT 6SM BR VCSH OVC015 FM072000 34008KT
                       6SM BR VCSH OVC015 FM080200 18006KT P6SM
                       OVC025=
202312070549 TAF KPAE 070549Z 0706/0806 30003KT 1SM -RA BR OVC002 FM070800 VRB03KT
                       4SM BR OVC007 FM071300 17006KT 4SM -RA BR
                       OVC012 FM072100 33005KT P6SM VCSH OVC015
                       FM080000 31007KT P6SM BKN030 OVC040=
202312062322 TAF KPAE 062322Z 0700/0724 34003KT 1SM -RA BR OVC002
                      TEMPO 0700/0704 1/2SM FG VV001 FM070700 VRB03KT
                       4SM BR OVC007 FM071300 17006KT 4SM -RA BR
                       OVC012 FM072100 33005KT P6SM VCSH OVC015=
202312061732 TAF KPAE 061732Z 0618/0718 00000KT 2SM BR OVC006 FM062100 33005KT
                       P6SM OVC015 FM070700 VRB03KT 4SM BR OVC007
                       FM071300 17006KT 4SM -RA BR OVC012=
202312061142 TAF KPAE 061142Z 0612/0712 VRB03KT 5SM -RA BR FEW003 OVC012 FM061400
                       19003KT 4SM BR OVC007 FM062100 33005KT P6SM
                       OVC015 FM070700 VRB03KT 4SM BR OVC007=
202312060521 TAF KPAE 060521Z 0606/0706 15006KT 4SM -RA BR SCT004 OVC060 FM060800
                       19004KT 4SM -RA BR OVC004 FM061600 VRB03KT
                       3SM BR OVC007 FM062100 33005KT P6SM OVC010=
202312060126 KPAE 060126Z 0601/0624 15008KT P6SM -RA SCT004 BKN060 OVC070
                      TEMPO 0601/0605 3SM -RA BR BKN004 FM060500
                       34004KT 4SM -RA BR OVC007=
202312052327 TAF KPAE 052327Z 0600/0624 15008KT 3SM -RA BR BKN004 BKN060 OVC070
                       FM060500 34004KT 4SM -RA BR OVC007=
202312051727 TAF KPAE 051727Z 0518/0618 05007KT 6SM -RA BR BKN006 OVC014 FM052100
                       VRB03KT 3SM -RA BR OVC007 FM060500 34004KT
                       4SM -RA BR OVC007=
202312051611 KPAE 051611Z 0516/0612 VRB05KT 2SM -RA BR BKN006 OVC015 FM051800
                       17006KT 2SM -RA BR OVC007 FM052100 VRB03KT
                       3SM -RA BR OVC007 FM060500 34004KT 4SM -RA
                       BR OVC007=
202312051255 KPAE 051255Z 0513/0612 18014KT 6SM -RA BR BKN008 OVC050 FM051800
                       17006KT 2SM -RA BR OVC007 FM052100 VRB03KT
                       3SM -RA BR OVC007 FM060500 34004KT 4SM -RA
                       BR OVC007=
202312051142 TAF KPAE 051142Z 0512/0612 16014G28KT 6SM -RA BR BKN008 OVC020
                       FM051400 17010G16KT 6SM -RA BR OVC009 FM051800
                       17006KT 2SM -RA BR OVC007 FM052100 VRB03KT
                       3SM -RA BR OVC007 FM060500 34004KT 4SM -RA
                       BR OVC007=
202312050521 TAF KPAE 050521Z 0506/0606 16010KT P6SM -RA OVC007 FM050800 16014G24KT
                       4SM -RA BR OVC005 FM051400 17010KT 6SM -RA
                       BR OVC010 FM051700 17005KT 2SM -RA BR OVC007
                       FM052100 VRB03KT 3SM -RA BR OVC007=
202312050405 KPAE 050405Z 0504/0524 16014G24KT 4SM -RA BR SCT008 BKN015 OVC025
                       TEMPO 0504/0508 2SM RA BR OVC004 FM051400
                       VRB05KT 6SM -RA BR OVC015 FM051800 07005KT
                       2SM -RA BR OVC007=
202312050234 KPAE 050234Z 0503/0524 16014G24KT 3SM -RA BR SCT008 BKN015 OVC025
                       FM051400 VRB05KT 6SM -RA BR OVC015 FM051800
                       07005KT 2SM -RA BR OVC007=
202312042340 TAF KPAE 042340Z 0500/0524 16014G24KT 6SM -RA SCT008 BKN015 OVC025
                       FM051400 VRB05KT 6SM -RA BR OVC015 FM051800
                       07005KT 2SM -RA BR OVC007=
202312041740 TAF KPAE 041740Z 0418/0518 14010KT 4SM -RA OVC020 FM050000 17014G24KT
                       P6SM -RA SCT008 BKN015 OVC030 FM051400 VRB05KT
                       6SM -RA BR OVC015=
202312041147 TAF KPAE 041147Z 0412/0512 12008KT P6SM SCT035 OVC100 FM041500
                       14008KT P6SM -RA OVC035 FM041800 17010KT
                       4SM -RA BR OVC020 FM050000 17014G24KT P6SM
                       -RA SCT008 BKN015 OVC030 FM051100 17010KT
                       3SM -RA BKN006 OVC011=
202312040912 KPAE 040912Z 0409/0506 12008KT P6SM SCT025 BKN150 FM041400 12008KT
                       P6SM SCT040 BKN070 OVC100 FM041700 14010KT
                       P6SM -RA OVC025 FM041800 13009KT 4SM -RA
                       BR OVC010 FM042200 16016G25KT 3SM -RA BR
                       OVC007=
202312040520 TAF KPAE 040520Z 0406/0506 14008KT P6SM SCT010 BKN040 OVC060
                      TEMPO 0406/0410 17015G24KT OVC010 FM041700
                       14010KT P6SM -RA OVC025 FM041800 13009KT
                       4SM -RA BR OVC010 FM042200 16016G25KT 3SM
                       -RA BR OVC007=
202312040400 KPAE 040400Z 0404/0424 17006KT P6SM SCT025 BKN040 OVC060
                      TEMPO 0404/0408 OVC010 FM041700 13010KT P6SM
                       -RA OVC050 FM041800 13009KT 4SM -RA BR OVC015=
202312032335 TAF KPAE 032335Z 0400/0424 09006KT P6SM SCT025 BKN200 FM040300
                       17008KT P6SM SCT025 BKN040 OVC060 FM041700
                       13010KT P6SM -RA OVC050 FM041800 13009KT
                       4SM -RA BR OVC015=
202312031731 TAF KPAE 031731Z 0318/0418 15010G20KT P6SM -RA BKN025 FM032300
                       33006KT P6SM SCT015 BKN025 OVC040 FM040300
                       17008KT P6SM SCT025 BKN040 OVC060 FM041700
                       13010KT 6SM -RA OVC050=
202312031659 KPAE 031659Z 0317/0412 11008KT P6SM -RA BKN025 FM031900 16014G22KT
                       5SM -RA BR OVC015 FM032300 33006KT P6SM
                       SCT015 BKN025 OVC040 FM040300 17008KT P6SM
                       SCT025 BKN040 OVC060=
202312031138 TAF KPAE 031138Z 0312/0412 11008KT P6SM OVC100 FM031500 11008KT
                       P6SM -RA OVC040 FM031900 16014G22KT 5SM
                       -RA BR OVC015 FM032300 33006KT P6SM SCT015
                       BKN025 OVC040 FM040300 17008KT P6SM SCT025
                       BKN040 OVC060=
202312030905 KPAE 030905Z 0309/0406 14008KT P6SM OVC100 FM031500 13006KT P6SM
                       -RA OVC040 FM031900 14010KT 6SM -RA BR OVC020
                       FM032200 16012G21KT 5SM -RA BR OVC015 FM040100
                       17008KT P6SM -SHRA OVC020=
202312030523 TAF KPAE 030523Z 0306/0406 14008KT P6SM SCT050 BKN100 FM031200
                       13006KT P6SM -RA OVC035 FM031600 14010KT
                       6SM -RA BR OVC020 FM032000 16012G21KT 5SM
                       -RA BR OVC015 FM040100 17008KT P6SM -SHRA
                       OVC020=
202312030001 TAF KPAE 030001Z 0306/0406 15010KT P6SM SCT050 BKN100 FM031200
                       15014KT P6SM -RA OVC035 FM032300 11005KT
                       P6SM -SHRA OVC025=
202312021739 TAF KPAE 021739Z 0218/0318 VRB03KT P6SM SCT020 FM030000 18010KT
                       P6SM BKN050 FM030600 15010KT P6SM SCT050
                       BKN100 FM031200 15014KT P6SM -RA OVC035=
202312021459 KPAE 021459Z 0215/0312 VRB03KT P6SM SCT020
                      TEMPO 0216/0218 BKN020 FM021900 20008KT P6SM
                       SCT025 BKN040 FM030000 15010KT P6SM BKN050
                       FM030600 15010KT P6SM SCT050 BKN100 FM031100
                       15014KT P6SM -RA OVC035=
202312021141 TAF KPAE 021141Z 0212/0312 18020G30KT P6SM -RA BKN011 OVC020 FM021500
                       20010G20KT P6SM -SHRA SCT015 BKN025 FM021900
                       20010KT P6SM SCT025 BKN040 FM030000 15010KT
                       P6SM BKN050 FM030600 15010KT P6SM SCT050
                       BKN100 FM031100 15014KT P6SM -RA OVC035=
202312020528 TAF KPAE 020528Z 0206/0306 18010KT P6SM BKN020 FM020800 15025G38KT
                       P6SM -RA FEW009 BKN015 OVC025 FM021500 20010G20KT
                       P6SM -SHRA SCT015 BKN025 FM022000 20010KT
                       P6SM SCT025 OVC035 FM030000 17005KT P6SM
                       OVC050=
202312012321 TAF KPAE 012321Z 0200/0224 14005KT P6SM SCT027 BKN040 FM020400
                       15010KT P6SM BKN025 FM020800 15025G40KT
                       P6SM -RA FEW009 BKN015 OVC025 FM021500 20010G20KT
                       P6SM -SHRA SCT015 BKN025 FM022000 20010G18KT
                       P6SM BKN025=
202312012208 KPAE 012208Z 0122/0218 16008KT P6SM SCT020 BKN027 FM020800 15020G35KT
                       P6SM -RA FEW009 BKN015 OVC025 FM021500 20010G20KT
                       P6SM -SHRA SCT015 BKN025=
202312012002 KPAE 012002Z 0120/0218 16008KT P6SM BKN007 BKN015 OVC050 FM020800
                       15020G35KT P6SM -RA FEW009 BKN015 OVC025
                       FM021500 20010G20KT P6SM -SHRA SCT015 BKN025=
202312011736 TAF KPAE 011736Z 0118/0218 16010KT P6SM OVC015 FM012200 16008KT
                       P6SM BKN025 OVC040 FM020800 15020G35KT P6SM
                       -RA FEW009 BKN015 OVC025 FM021500 20010G20KT
                       P6SM -SHRA SCT015 BKN025=
202312011152 TAF KPAE 011152Z 0112/0212 16012G20KT 6SM -RA BR OVC012 FM011800
                       16010KT P6SM -SHRA SCT015 BKN025 BKN040
                       FM012200 16010KT P6SM SCT025 OVC040 FM020300
                       15020G30KT P6SM -RA SCT015 OVC025=
202312010525 TAF KPAE 010525Z 0106/0206 14010KT P6SM OVC009
                      TEMPO 0106/0107 OVC004 FM011100 16012G23KT
                       6SM -RA BR OVC010 FM011800 16010KT P6SM
                       VCSH BKN025 FM020100 15013G23KT P6SM -RA
                       OVC025=