##########################################################
# Query made at 02/15/2025 22:58:58 UTC
# Time interval: from 07/01/2023 00:00  to 07/31/2023 23:59  UTC
##########################################################

##########################################################
# KPAE, Everett, Snohomish County Airport (United States)
# WMO index: -----. WIGOS ID: Unknown
# Latitude 47-55-23N. Longitude 122-16-57W. Altitude 184 m.
##########################################################

###################################
#  METAR/SPECI from KPAE
###################################
202307312353 METAR KPAE 312353Z 01007KT 10SM CLR 21/11 A3013 RMK AO2 SLP201 T02110106 10228 20183 56009=
202307312253 METAR KPAE 312253Z VRB06KT 10SM CLR 22/09 A3013 RMK AO2 SLP200 T02220094=
202307312153 METAR KPAE 312153Z 34005KT 10SM CLR 23/09 A3014 RMK AO2 SLP204 T02280094=
202307312053 METAR KPAE 312053Z 35008KT 10SM CLR 22/10 A3015 RMK AO2 SLP209 T02170100 58005=
202307311953 METAR KPAE 311953Z VRB06KT 10SM CLR 21/11 A3016 RMK AO2 SLP212 T02060111=
202307311853 METAR KPAE 311853Z 36006KT 10SM CLR 19/11 A3017 RMK AO2 SLP216 T01940106=
202307311753 METAR KPAE 311753Z VRB03KT 10SM CLR 18/11 A3017 RMK AO2 SLP215 T01830111 10183 20133 58002=
202307311653 METAR KPAE 311653Z 01004KT 10SM CLR 17/11 A3018 RMK AO2 SLP217 T01720111=
202307311553 METAR KPAE 311553Z VRB03KT 10SM CLR 16/11 A3018 RMK AO2 SLP219 T01610106=
202307311453 METAR KPAE 311453Z 03004KT 10SM FEW007 15/11 A3018 RMK AO2 SLP217 T01500111 53007=
202307311433 SPECI KPAE 311433Z 03004KT 10SM FEW005 14/11 A3017 RMK AO2 T01440111=
202307311353 METAR KPAE 311353Z 02005KT 10SM CLR 14/11 A3017 RMK AO2 SLP214 T01390111=
202307311253 METAR KPAE 311253Z AUTO 01005KT 10SM CLR 13/11 A3016 RMK AO2 SLP211 T01330111=
202307311153 METAR KPAE 311153Z AUTO 01005KT 10SM SCT049 13/11 A3016 RMK AO2 SLP209 T01330111 10156 20133 53001=
202307311053 METAR KPAE 311053Z AUTO VRB04KT 10SM CLR 14/11 A3015 RMK AO2 SLP208 T01390111=
202307310953 METAR KPAE 310953Z AUTO 35007KT 10SM CLR 14/11 A3015 RMK AO2 SLP206 T01390106=
202307310853 METAR KPAE 310853Z AUTO VRB03KT 10SM CLR 15/09 A3015 RMK AO2 SLP209 T01500094 51003=
202307310753 METAR KPAE 310753Z AUTO 35005KT 10SM CLR 15/10 A3015 RMK AO2 SLP208 T01500100 402280139=
202307310653 METAR KPAE 310653Z AUTO 35007KT 10SM CLR 15/09 A3015 RMK AO2 SLP208 T01500089=
202307310553 METAR KPAE 310553Z AUTO 36009KT 10SM CLR 16/09 A3015 RMK AO2 SLP207 T01560094 10222 20156 58002=
202307310453 METAR KPAE 310453Z AUTO 36006KT 10SM FEW075 16/10 A3015 RMK AO2 SLP209 T01560100=
202307310353 METAR KPAE 310353Z AUTO 35007KT 10SM CLR 16/10 A3015 RMK AO2 SLP209 T01610100=
202307310253 METAR KPAE 310253Z 35007KT 10SM CLR 18/11 A3015 RMK AO2 SLP209 T01780111 55001=
202307310153 METAR KPAE 310153Z 35008KT 10SM CLR 21/10 A3015 RMK AO2 SLP206 T02060100=
202307310053 METAR KPAE 310053Z 35007G15KT 10SM CLR 22/10 A3015 RMK AO2 SLP208 T02170100=
202307302353 METAR KPAE 302353Z 34007KT 10SM CLR 22/11 A3015 RMK AO2 SLP209 T02170106 10228 20172 58007=
202307302253 METAR KPAE 302253Z 35007KT 10SM CLR 22/11 A3016 RMK AO2 SLP211 T02220111=
202307302153 METAR KPAE 302153Z 28007KT 10SM CLR 22/11 A3017 RMK AO2 SLP214 T02170106=
202307302053 METAR KPAE 302053Z 30006KT 10SM SCT055 21/11 A3017 RMK AO2 SLP216 T02110111 58001=
202307301953 METAR KPAE 301953Z 32004KT 10SM FEW055 20/11 A3018 RMK AO2 SLP218 T02000111=
202307301853 METAR KPAE 301853Z 27006KT 10SM SCT055 19/11 A3018 RMK AO2 SLP219 T01890111=
202307301753 METAR KPAE 301753Z 32003KT 10SM SCT019 OVC055 17/12 A3018 RMK AO2 SLP218 T01720117 10189 20144 51007=
202307301653 METAR KPAE 301653Z VRB04KT 10SM SCT019 OVC055 17/11 A3017 RMK AO2 SLP216 T01670106=
202307301553 METAR KPAE 301553Z 01004KT 10SM FEW038 OVC055 16/11 A3017 RMK AO2 SLP215 T01610106=
202307301453 METAR KPAE 301453Z 00000KT 10SM OVC046 16/10 A3016 RMK AO2 SLP211 T01560100 51007=
202307301353 METAR KPAE 301353Z 00000KT 10SM OVC044 15/10 A3015 RMK AO2 SLP209 T01500100=
202307301253 METAR KPAE 301253Z AUTO 02004KT 10SM BKN038 OVC046 14/10 A3014 RMK AO2 SLP206 T01440100=
202307301153 METAR KPAE 301153Z AUTO 01003KT 10SM OVC036 15/10 A3013 RMK AO2 SLP202 T01500100 10150 20139 55000=
202307301053 METAR KPAE 301053Z AUTO 01004KT 10SM OVC035 14/10 A3013 RMK AO2 SLP202 T01440100=
202307300953 METAR KPAE 300953Z AUTO 05003KT 10SM CLR 14/10 A3013 RMK AO2 SLP201 T01440100=
202307300853 METAR KPAE 300853Z AUTO 02005KT 10SM CLR 14/10 A3013 RMK AO2 SLP203 T01440100 53002=
202307300753 METAR KPAE 300753Z AUTO 01005KT 10SM CLR 14/11 A3013 RMK AO2 SLP202 T01440106 402220128=
202307300653 METAR KPAE 300653Z AUTO 36007KT 10SM CLR 15/11 A3013 RMK AO2 SLP202 T01500106=
202307300553 METAR KPAE 300553Z AUTO VRB05KT 10SM CLR 15/11 A3013 RMK AO2 SLP201 T01500106 10211 20150 51006=
202307300453 METAR KPAE 300453Z AUTO 36008KT 10SM CLR 15/11 A3012 RMK AO2 SLP199 T01500106=
202307300353 METAR KPAE 300353Z 35006KT 10SM CLR 16/11 A3012 RMK AO2 SLP197 T01560106=
202307300253 METAR KPAE 300253Z 35007G14KT 10SM CLR 17/11 A3011 RMK AO2 SLP195 T01670106 55002=
202307300153 METAR KPAE 300153Z 35007G15KT 310V010 10SM CLR 18/11 A3011 RMK AO2 SLP194 T01830106=
202307300053 METAR KPAE 300053Z 34008G16KT 10SM CLR 18/11 A3011 RMK AO2 SLP194 T01830106=
202307292353 METAR KPAE 292353Z 35008KT 10SM CLR 21/12 A3012 RMK AO2 SLP197 T02060117 10222 20161 58007=
202307292253 METAR KPAE 292253Z VRB05KT 10SM CLR 21/12 A3013 RMK AO2 SLP200 T02110117=
202307292153 METAR KPAE 292153Z 28006KT 10SM CLR 21/12 A3013 RMK AO2 SLP201 T02060117=
202307292053 METAR KPAE 292053Z 25009KT 10SM CLR 19/11 A3014 RMK AO2 SLP204 T01890111 51002=
202307291953 METAR KPAE 291953Z 25008KT 10SM SCT009 18/12 A3014 RMK AO2 SLP204 T01830117=
202307291853 METAR KPAE 291853Z 27006KT 10SM SCT009 17/12 A3014 RMK AO2 SLP204 T01720122=
202307291800 SPECI KPAE 291800Z 28006KT 10SM SCT009 17/12 A3013 RMK AO2 T01670117=
202307291753 METAR KPAE 291753Z 28006KT 10SM SCT009 BKN016 17/12 A3013 RMK AO2 SLP202 T01670122 10167 20128 53005=
202307291653 METAR KPAE 291653Z 26006KT 10SM OVC009 16/12 A3012 RMK AO2 SLP199 T01560117=
202307291607 SPECI KPAE 291607Z 29005KT 10SM OVC009 16/12 A3012 RMK AO2 T01560122=
202307291600 SPECI KPAE 291600Z 27004KT 10SM SCT009 OVC014 15/12 A3012 RMK AO2 T01500122=
202307291553 METAR KPAE 291553Z 28003KT 10SM SCT005 BKN009 15/12 A3012 RMK AO2 SLP197 T01500122=
202307291512 SPECI KPAE 291512Z 29004KT 10SM SCT005 BKN009 14/12 A3011 RMK AO2 T01440117=
202307291503 SPECI KPAE 291503Z 27004KT 10SM BKN010 OVC070 15/12 A3011 RMK AO2 T01500117=
202307291453 METAR KPAE 291453Z 28003KT 10SM FEW014 OVC070 16/12 A3012 RMK AO2 SLP197 T01560117 51009=
202307291353 METAR KPAE 291353Z 00000KT 10SM BKN070 15/12 A3011 RMK AO2 SLP194 T01500117=
202307291253 METAR KPAE 291253Z AUTO 00000KT 10SM CLR 13/11 A3010 RMK AO2 SLP191 T01330106=
202307291153 METAR KPAE 291153Z AUTO 00000KT 10SM CLR 14/11 A3009 RMK AO2 SLP186 7//// T01390111 10161 20133 53006=
202307291053 METAR KPAE 291053Z AUTO 02004KT 10SM CLR 14/11 A3007 RMK AO2 SLP182 T01390111=
202307290953 METAR KPAE 290953Z AUTO 02003KT 10SM FEW090 14/11 A3008 RMK AO2 SLP182 T01440111=
202307290853 METAR KPAE 290853Z AUTO 02005KT 10SM SCT075 15/11 A3007 RMK AO2 SLP180 T01500111 53003=
202307290753 METAR KPAE 290753Z AUTO 02005KT 10SM BKN075 OVC100 16/11 A3006 RMK AO2 SLP178 T01560111 402280133=
202307290653 METAR KPAE 290653Z AUTO 36006KT 10SM SCT080 BKN110 16/11 A3006 RMK AO2 SLP179 T01560106=
202307290553 METAR KPAE 290553Z AUTO 36005KT 10SM CLR 16/11 A3006 RMK AO2 SLP178 T01610106 10222 20161 50001=
202307290453 METAR KPAE 290453Z AUTO 36006KT 10SM BKN110 17/11 A3006 RMK AO2 SLP179 T01670106=
202307290353 METAR KPAE 290353Z 35010G15KT 10SM BKN110 17/10 A3006 RMK AO2 SLP176 T01670100=
202307290253 METAR KPAE 290253Z 01008KT 10SM CLR 17/11 A3006 RMK AO2 SLP177 T01720106 55001=
202307290153 METAR KPAE 290153Z 36008KT 10SM CLR 18/11 A3005 RMK AO2 SLP176 T01780111=
202307290053 METAR KPAE 290053Z 36007G15KT 10SM FEW110 21/11 A3005 RMK AO2 SLP176 T02060106=
202307282353 METAR KPAE 282353Z 35006KT 10SM CLR 21/11 A3006 RMK AO2 SLP178 6//// T02110106 10228 20178 56004=
202307282253 METAR KPAE 282253Z 01005KT 10SM CLR 23/12 A3006 RMK AO2 SLP178 T02280122=
202307282153 METAR KPAE 282153Z 28006KT 10SM CLR 22/13 A3007 RMK AO2 SLP180 T02220128=
202307282053 METAR KPAE 282053Z 25007KT 10SM CLR 22/12 A3007 RMK AO2 SLP182 6//// T02170117 58005=
202307281953 METAR KPAE 281953Z 25007KT 10SM CLR 21/12 A3008 RMK AO2 SLP184 T02110117=
202307281902 SPECI KPAE 281902Z 25007KT 10SM FEW009 19/13 A3009 RMK AO2 T01940128 PNO $=
202307281853 METAR KPAE 281853Z AUTO 19/13 A3009 RMK AO2 SLP187 T01940128 PWINO PNO $=
202307281753 METAR KPAE 281753Z 27006KT 10SM CLR 18/12 A3009 RMK AO2 SLP187 6//// T01780122 10189 20133 58002 PNO $=
202307281732 SPECI KPAE 281732Z 28007KT 10SM FEW002 18/12 A3009 RMK AO2 T01830122 $=
202307281653 METAR KPAE 281653Z 36004KT 10SM CLR 18/12 A3009 RMK AO2 SLP188 T01780122=
202307281553 METAR KPAE 281553Z 01003KT 10SM CLR 16/12 A3009 RMK AO2 SLP190 T01560117=
202307281531 SPECI KPAE 281531Z 01004KT 10SM SCT006 16/12 A3009 RMK AO2 T01560117=
202307281453 METAR KPAE 281453Z 04003KT 10SM OVC005 14/12 A3010 RMK AO2 SLP189 T01440117 51005=
202307281353 METAR KPAE 281353Z 00000KT 10SM OVC004 14/12 A3009 RMK AO2 SLP188 T01390117=
202307281253 METAR KPAE 281253Z AUTO 01004KT 10SM OVC004 13/12 A3008 RMK AO2 SLP184 T01330117=
202307281229 SPECI KPAE 281229Z AUTO 02003KT 10SM BKN003 13/12 A3008 RMK AO2 T01330117=
202307281218 SPECI KPAE 281218Z AUTO 01004KT 10SM SCT004 13/12 A3008 RMK AO2 T01330117=
202307281153 METAR KPAE 281153Z AUTO 01004KT 10SM CLR 13/12 A3008 RMK AO2 SLP183 T01330117 10172 20133 53002=
202307281053 METAR KPAE 281053Z AUTO 01007KT 10SM CLR 14/12 A3007 RMK AO2 SLP181 T01390117=
202307280953 METAR KPAE 280953Z AUTO 02005KT 10SM CLR 15/11 A3007 RMK AO2 SLP180 T01500111=
202307280853 METAR KPAE 280853Z AUTO 04006KT 10SM CLR 17/11 A3007 RMK AO2 SLP180 T01670106 58000=
202307280753 METAR KPAE 280753Z AUTO VRB04KT 10SM CLR 17/11 A3008 RMK AO2 SLP181 T01670106 402500128=
202307280653 METAR KPAE 280653Z AUTO 02006KT 10SM CLR 17/11 A3008 RMK AO2 SLP182 T01720106=
202307280553 METAR KPAE 280553Z AUTO 01007KT 10SM CLR 17/11 A3007 RMK AO2 SLP182 T01720106 10244 20172 50002=
202307280453 METAR KPAE 280453Z AUTO 36007KT 10SM CLR 17/11 A3008 RMK AO2 SLP183 T01720106=
202307280353 METAR KPAE 280353Z AUTO 36007KT 330V040 10SM CLR 19/12 A3007 RMK AO2 SLP182 T01890117=
202307280253 METAR KPAE 280253Z 34005KT 10SM CLR 21/12 A3007 RMK AO2 SLP179 T02110117 53001=
202307280153 METAR KPAE 280153Z 36006KT 10SM CLR 23/09 A3006 RMK AO2 SLP177 T02330094=
202307280053 METAR KPAE 280053Z VRB05KT 10SM CLR 24/10 A3007 RMK AO2 SLP179 T02390100=
202307272353 METAR KPAE 272353Z VRB05KT 10SM CLR 24/11 A3006 RMK AO2 SLP178 T02390111 10250 20200 58005=
202307272253 METAR KPAE 272253Z VRB05KT 10SM CLR 24/11 A3007 RMK AO2 SLP180 T02390106=
202307272153 METAR KPAE 272153Z 31007KT 10SM CLR 24/11 A3008 RMK AO2 SLP182 T02390111=
202307272053 METAR KPAE 272053Z 35006KT 10SM CLR 23/11 A3008 RMK AO2 SLP184 T02280106 58003=
202307271953 METAR KPAE 271953Z 36006KT 10SM CLR 23/12 A3008 RMK AO2 SLP185 T02280117=
202307271853 METAR KPAE 271853Z VRB04KT 10SM CLR 20/12 A3009 RMK AO2 SLP188 T02000117=
202307271753 METAR KPAE 271753Z VRB04KT 10SM CLR 20/12 A3009 RMK AO2 SLP187 T02000122 10200 20128 51000=
202307271653 METAR KPAE 271653Z 02005KT 10SM CLR 19/12 A3009 RMK AO2 SLP187 T01890122=
202307271553 METAR KPAE 271553Z 33004KT 10SM CLR 17/11 A3009 RMK AO2 SLP188 T01720106=
202307271453 METAR KPAE 271453Z 30003KT 10SM CLR 16/11 A3009 RMK AO2 SLP186 T01560106 53008=
202307271353 METAR KPAE 271353Z AUTO 00000KT 10SM CLR 15/11 A3008 RMK AO2 SLP183 T01500106=
202307271253 METAR KPAE 271253Z AUTO 32003KT 10SM CLR 13/09 A3007 RMK AO2 SLP180 T01280089=
202307271153 METAR KPAE 271153Z AUTO 00000KT 10SM CLR 14/09 A3006 RMK AO2 SLP178 T01390089 10150 20139 55002=
202307271053 METAR KPAE 271053Z AUTO 35004KT 10SM CLR 14/09 A3006 RMK AO2 SLP175 T01390094=
202307270953 METAR KPAE 270953Z AUTO 35005KT 10SM CLR 14/09 A3006 RMK AO2 SLP177 T01390094=
202307270853 METAR KPAE 270853Z AUTO 35006KT 10SM CLR 14/11 A3007 RMK AO2 SLP179 T01390106 56002=
202307270753 METAR KPAE 270753Z AUTO 35005KT 10SM CLR 14/11 A3007 RMK AO2 SLP181 T01390106 402170122=
202307270653 METAR KPAE 270653Z AUTO 35007KT 10SM CLR 14/10 A3007 RMK AO2 SLP180 T01440100=
202307270553 METAR KPAE 270553Z AUTO 35006KT 10SM CLR 15/11 A3007 RMK AO2 SLP182 T01500106 10217 20150 58004=
202307270453 METAR KPAE 270453Z AUTO 36006KT 10SM CLR 16/10 A3008 RMK AO2 SLP185 T01560100=
202307270353 METAR KPAE 270353Z AUTO 34005KT 10SM CLR 17/10 A3008 RMK AO2 SLP185 T01720100=
202307270253 METAR KPAE 270253Z 35005KT 10SM CLR 19/11 A3008 RMK AO2 SLP186 T01940111 56012=
202307270153 METAR KPAE 270153Z 35008KT 10SM CLR 20/11 A3009 RMK AO2 SLP189 T02000111=
202307270053 METAR KPAE 270053Z 36010G16KT 10SM CLR 22/11 A3011 RMK AO2 SLP193 T02170111=
202307262353 METAR KPAE 262353Z 36010KT 10SM CLR 21/10 A3012 RMK AO2 SLP198 T02110100 10217 20172 58014=
202307262253 METAR KPAE 262253Z AUTO 35010KT 10SM CLR 21/11 A3013 RMK AO2 SLP203 T02110106=
202307262153 METAR KPAE 262153Z 35009G15KT 10SM CLR 21/12 A3015 RMK AO2 SLP208 T02060117=
202307262053 METAR KPAE 262053Z 36009G16KT 10SM CLR 21/12 A3016 RMK AO2 SLP212 T02110117 58010=
202307261953 METAR KPAE 261953Z 34007KT 320V020 10SM CLR 20/12 A3017 RMK AO2 SLP215 T02000117=
202307261853 METAR KPAE 261853Z 33006KT 10SM SCT018 18/12 A3019 RMK AO2 SLP221 T01830117=
202307261753 METAR KPAE 261753Z 36007KT 10SM SCT011 17/12 A3019 RMK AO2 SLP223 T01720117 10172 20122 58003=
202307261732 SPECI KPAE 261732Z 01006KT 10SM SCT011 17/12 A3020 RMK AO2 T01670117=
202307261700 SPECI KPAE 261700Z 36007KT 10SM BKN010 16/11 A3020 RMK AO2 T01560111=
202307261653 METAR KPAE 261653Z 36005KT 10SM BKN007 15/11 A3020 RMK AO2 SLP226 T01500111=
202307261622 SPECI KPAE 261622Z 36007KT 10SM BKN007 15/11 A3021 RMK AO2 T01500111=
202307261553 METAR KPAE 261553Z 36007KT 10SM OVC007 14/11 A3020 RMK AO2 SLP227 T01440111=
202307261453 METAR KPAE 261453Z 35007KT 10SM BKN007 14/11 A3020 RMK AO2 SLP227 T01390111 52002=
202307261353 METAR KPAE 261353Z 35005KT 10SM FEW005 13/11 A3020 RMK AO2 SLP227 T01280111=
202307261348 SPECI KPAE 261348Z AUTO 35006KT 10SM SCT006 13/11 A3020 RMK AO2=
202307261312 SPECI KPAE 261312Z AUTO 34004KT 10SM BKN007 13/11 A3020 RMK AO2 CIG 005V010 T01280106=
202307261300 SPECI KPAE 261300Z AUTO 36004KT 10SM SCT007 12/11 A3020 RMK AO2 T01220106=
202307261253 METAR KPAE 261253Z AUTO 35003KT 10SM CLR 12/11 A3020 RMK AO2 SLP225 T01220106=
202307261225 SPECI KPAE 261225Z AUTO 34004KT 10SM FEW007 12/11 A3020 RMK AO2 T01220106=
202307261153 METAR KPAE 261153Z AUTO 36003KT 10SM CLR 12/11 A3020 RMK AO2 SLP225 T01220106 10150 20122 56002=
202307261117 SPECI KPAE 261117Z AUTO 01005KT 10SM FEW008 13/11 A3020 RMK AO2 T01280111=
202307261053 METAR KPAE 261053Z AUTO 35006KT 10SM FEW060 13/11 A3020 RMK AO2 SLP224 T01330111=
202307260953 METAR KPAE 260953Z AUTO 35007KT 10SM OVC065 14/11 A3020 RMK AO2 SLP224 T01390106=
202307260853 METAR KPAE 260853Z AUTO 35006KT 10SM FEW013 OVC065 14/11 A3020 RMK AO2 SLP225 T01440106 58001=
202307260753 METAR KPAE 260753Z AUTO 35007G14KT 10SM BKN047 OVC065 15/11 A3021 RMK AO2 SLP226 T01500106 402280133=
202307260653 METAR KPAE 260653Z AUTO 36007G14KT 10SM FEW050 OVC060 15/10 A3020 RMK AO2 SLP227 T01500100=
202307260553 METAR KPAE 260553Z AUTO 36008KT 10SM OVC050 15/10 A3021 RMK AO2 SLP228 T01500100 10194 20150 50001=
202307260453 METAR KPAE 260453Z AUTO 35006KT 10SM SCT043 OVC050 16/10 A3021 RMK AO2 SLP229 T01560100=
202307260353 METAR KPAE 260353Z 34008KT 10SM BKN048 BKN090 16/11 A3021 RMK AO2 SLP228 T01560111=
202307260253 METAR KPAE 260253Z 34008KT 10SM FEW070 16/12 A3020 RMK AO2 SLP226 T01560117 54000=
202307260153 METAR KPAE 260153Z 35008KT 10SM FEW050 OVC075 16/11 A3020 RMK AO2 SLP226 T01610111=
202307260053 METAR KPAE 260053Z 36010KT 10SM OVC080 18/11 A3020 RMK AO2 SLP227 T01780111=
202307252353 METAR KPAE 252353Z VRB06KT 10SM OVC085 19/12 A3020 RMK AO2 RAB33E45 SLP226 P0000 60000 T01940122 10228 20167 53001=
202307252253 METAR KPAE 252253Z 29010KT 10SM BKN090 21/11 A3020 RMK AO2 SLP223 T02110106=
202307252153 METAR KPAE 252153Z 25011G17KT 10SM FEW046 BKN100 22/10 A3020 RMK AO2 SLP224 T02170100=
202307252053 METAR KPAE 252053Z VRB06G14KT 10SM SCT042 OVC075 21/11 A3020 RMK AO2 SLP224 T02060106 50002=
202307251953 METAR KPAE 251953Z 21009KT 170V230 10SM SCT032 BKN039 BKN075 20/10 A3020 RMK AO2 SLP225 T02000100=
202307251926 SPECI KPAE 251926Z 24007KT 10SM SCT024 BKN036 18/11 A3020 RMK AO2 T01830111=
202307251853 METAR KPAE 251853Z 18010G15KT 10SM BKN024 BKN030 18/12 A3020 RMK AO2 SLP225 T01830117=
202307251753 METAR KPAE 251753Z 15009KT 10SM SCT011 BKN020 17/12 A3019 RMK AO2 SLP223 T01670117 10167 20133 51004=
202307251653 METAR KPAE 251653Z 17009G17KT 10SM BKN011 BKN020 16/12 A3019 RMK AO2 SLP223 T01610117=
202307251600 SPECI KPAE 251600Z 16007KT 10SM FEW011 OVC018 15/12 A3019 RMK AO2 T01500122=
202307251553 METAR KPAE 251553Z 17007KT 10SM BKN011 OVC021 15/12 A3019 RMK AO2 SLP221 T01500122=
202307251518 SPECI KPAE 251518Z 18010KT 10SM BKN011 OVC021 14/12 A3018 RMK AO2 T01440117=
202307251453 METAR KPAE 251453Z 17007KT 10SM BKN008 OVC021 14/12 A3018 RMK AO2 SLP219 T01440117 53007=
202307251434 SPECI KPAE 251434Z 18006KT 10SM BKN008 OVC021 14/12 A3018 RMK AO2 T01440117=
202307251427 SPECI KPAE 251427Z 16007KT 10SM BKN010 OVC021 14/12 A3018 RMK AO2 CIG 008V014 T01440117=
202307251353 METAR KPAE 251353Z 17005KT 10SM OVC007 14/12 A3016 RMK AO2 SLP213 T01390117=
202307251333 SPECI KPAE 251333Z AUTO 19004KT 10SM SCT008 OVC015 13/12 A3016 RMK AO2 T01330117=
202307251305 SPECI KPAE 251305Z AUTO 22004KT 10SM BKN008 14/12 A3016 RMK AO2 CIG 006V011 T01390122=
202307251253 METAR KPAE 251253Z AUTO 18005KT 10SM BKN010 14/12 A3016 RMK AO2 CIG 006V012 SLP211 T01390122=
202307251242 SPECI KPAE 251242Z AUTO 17006KT 10SM FEW006 SCT009 14/12 A3015 RMK AO2 T01390117=
202307251153 METAR KPAE 251153Z AUTO 19006KT 10SM OVC007 14/12 A3014 RMK AO2 CIG 006V010 SLP207 70029 T01390122 10150 20139 51006=
202307251123 SPECI KPAE 251123Z AUTO 20004KT 10SM BKN009 BKN040 OVC048 14/13 A3014 RMK AO2 T01390128=
202307251114 SPECI KPAE 251114Z AUTO 21005KT 10SM SCT008 SCT040 OVC048 14/13 A3014 RMK AO2 T01390128=
202307251053 METAR KPAE 251053Z AUTO 19006KT 10SM BKN046 14/13 A3014 RMK AO2 SLP205 T01390128=
202307250953 METAR KPAE 250953Z AUTO 15003KT 10SM FEW047 14/12 A3013 RMK AO2 SLP202 T01440117=
202307250853 METAR KPAE 250853Z AUTO 00000KT 10SM BKN038 14/12 A3013 RMK AO2 SLP200 T01440117 53009=
202307250802 SPECI KPAE 250802Z AUTO 07003KT 10SM FEW028 15/12 A3012 RMK AO2 T01500117=
202307250753 METAR KPAE 250753Z AUTO 07003KT 10SM BKN028 15/12 A3012 RMK AO2 SLP197 T01500122 402170139=
202307250728 SPECI KPAE 250728Z AUTO 07004KT 10SM BKN026 15/12 A3011 RMK AO2 T01500122=
202307250653 METAR KPAE 250653Z AUTO 05004KT 10SM CLR 14/12 A3011 RMK AO2 SLP194 T01440122=
202307250628 SPECI KPAE 250628Z AUTO 05004KT 10SM FEW025 SCT031 14/13 A3010 RMK AO2 T01440128=
202307250603 SPECI KPAE 250603Z AUTO 36005KT 10SM FEW007 BKN017 OVC031 15/13 A3010 RMK AO2 T01500128=
202307250553 METAR KPAE 250553Z AUTO VRB03KT 10SM FEW005 BKN011 OVC024 15/13 A3010 RMK AO2 RAB0455E46 SLP191 P0003 60028 T01500133 10206 20150 51021=
202307250545 SPECI KPAE 250545Z AUTO 02006KT 10SM -RA SCT003 BKN013 OVC019 15/13 A3010 RMK AO2 RAB0455 P0003 T01500133=
202307250531 SPECI KPAE 250531Z AUTO 35006KT 4SM -RA BR BKN003 OVC009 15/14 A3010 RMK AO2 RAB0455 CIG 002V006 P0002 T01500139=
202307250507 SPECI KPAE 250507Z AUTO 26005KT 10SM -RA FEW005 BKN008 OVC017 16/14 A3008 RMK AO2 RAB0455 CIG 007V011 P0001 T01610144=
202307250453 METAR KPAE 250453Z AUTO 21007KT 10SM FEW007 SCT011 OVC017 17/15 A3007 RMK AO2 RAB13E22 SLP181 P0000 T01670150=
202307250450 SPECI KPAE 250450Z AUTO 20010KT 10SM FEW009 BKN017 OVC024 17/15 A3007 RMK AO2 RAB13E22 P0000=
202307250400 SPECI KPAE 250400Z AUTO 21014G21KT 10SM OVC009 17/15 A3004 RMK AO2 CIG 007V013 T01720150=
202307250353 METAR KPAE 250353Z 21013G21KT 2 1/2SM BR BKN009 BKN049 OVC075 17/15 A3003 RMK AO2 PK WND 21030/0334 RAE28 SLP169 P0000 T01720150=
202307250255 SPECI KPAE 250255Z 19013KT 2 1/2SM -RA BR BKN009 BKN049 OVC075 17/15 A3003 RMK AO2 P0000 T01720150=
202307250253 METAR KPAE 250253Z 20014KT 2 1/2SM -RA BR SCT034 BKN049 OVC075 17/16 A3003 RMK AO2 PK WND 21029/0238 SLP169 P0005 60025 T01720156 53005=
202307250231 SPECI KPAE 250231Z 19015G22KT 2 1/2SM -RA BR SCT012 BKN055 OVC100 17/16 A3003 RMK AO2 P0003 T01720156=
202307250224 SPECI KPAE 250224Z 18013G22KT 2 1/2SM -RA BR BKN014 BKN050 OVC100 17/16 A3002 RMK AO2 P0003 T01720156=
202307250153 METAR KPAE 250153Z 18011KT 2 1/2SM -RA BR SCT008 BKN022 OVC070 17/16 A3003 RMK AO2 SLP166 P0017 T01720156=
202307250053 METAR KPAE 250053Z 15009KT 2 1/2SM -RA BKN024 OVC033 17/14 A3002 RMK AO2 RAB24 SLP166 P0003 T01720144=
202307250037 SPECI KPAE 250037Z 15012KT 2SM -RA BKN024 OVC029 18/14 A3003 RMK AO2 RAB24 P0001 T01780139=
202307250024 SPECI KPAE 250024Z 15009G15KT 6SM -RA OVC029 19/13 A3003 RMK AO2 RAB24 P0000 T01890133=
202307242353 METAR KPAE 242353Z 17011G21KT 10SM OVC030 21/12 A3002 RMK AO2 SLP164 T02060122 10217 20161 55004=
202307242253 METAR KPAE 242253Z 16015G24KT 10SM FEW029 SCT070 BKN095 21/12 A3002 RMK AO2 PK WND 15029/2217 SLP162 T02110122=
202307242153 METAR KPAE 242153Z 17014G24KT 10SM SCT026 BKN036 BKN049 21/12 A3003 RMK AO2 PK WND 15027/2142 SLP165 T02060117=
202307242053 METAR KPAE 242053Z 16015G21KT 10SM BKN027 BKN035 OVC070 19/10 A3003 RMK AO2 SLP169 T01940100 52001=
202307241953 METAR KPAE 241953Z 17013G23KT 10SM FEW021 SCT034 OVC100 19/11 A3003 RMK AO2 SLP168 T01890106=
202307241946 SPECI KPAE 241946Z 18014G20KT 10SM FEW021 SCT032 OVC100 19/11 A3003 RMK AO2 T01890106=
202307241853 METAR KPAE 241853Z 17014G21KT 10SM OVC025 18/11 A3003 RMK AO2 SLP168 T01780111=
202307241832 SPECI KPAE 241832Z 16012G17KT 10SM BKN029 OVC065 17/11 A3003 RMK AO2 T01720111=
202307241753 METAR KPAE 241753Z 15011G17KT 10SM FEW029 SCT048 OVC070 17/12 A3003 RMK AO2 RAE03 SLP168 P0000 60001 T01670117 10167 20139 50004=
202307241653 METAR KPAE 241653Z 16009KT 10SM -RA BKN016 OVC075 16/12 A3003 RMK AO2 SLP168 P0000 T01560122=
202307241553 METAR KPAE 241553Z 16008KT 10SM -RA BKN017 BKN065 OVC080 16/12 A3003 RMK AO2 RAB08 SLP166 P0001 T01560122=
202307241453 METAR KPAE 241453Z 17009KT 10SM OVC019 16/11 A3002 RMK AO2 SLP164 T01610111 53012=
202307241411 SPECI KPAE 241411Z 17009KT 10SM BKN017 BKN080 16/11 A3000 RMK AO2 T01560106=
202307241353 METAR KPAE 241353Z 18010KT 10SM SCT016 16/11 A3000 RMK AO2 SLP156 T01560106=
202307241253 METAR KPAE 241253Z AUTO 15005KT 10SM CLR 14/10 A2999 RMK AO2 SLP153 T01440100=
202307241153 METAR KPAE 241153Z AUTO 19003KT 10SM CLR 14/10 A2998 RMK AO2 SLP151 T01390100 10156 20139 53002=
202307241053 METAR KPAE 241053Z AUTO 17003KT 10SM CLR 14/10 A2998 RMK AO2 SLP149 T01440100=
202307240953 METAR KPAE 240953Z AUTO 11004KT 10SM CLR 15/10 A2997 RMK AO2 SLP147 T01500100=
202307240853 METAR KPAE 240853Z AUTO 00000KT 10SM CLR 15/11 A2998 RMK AO2 SLP149 T01500106 50002=
202307240753 METAR KPAE 240753Z AUTO VRB05KT 10SM CLR 15/10 A2999 RMK AO2 SLP152 T01500100 402560139=
202307240653 METAR KPAE 240653Z AUTO 36006KT 10SM CLR 15/09 A2998 RMK AO2 SLP150 T01500094=
202307240553 METAR KPAE 240553Z AUTO 01006KT 10SM CLR 16/10 A2997 RMK AO2 SLP147 T01560100 10239 20156 51015=
202307240453 METAR KPAE 240453Z AUTO 01007KT 10SM CLR 16/11 A2996 RMK AO2 SLP143 T01560111=
202307240353 METAR KPAE 240353Z 36008KT 10SM CLR 16/12 A2995 RMK AO2 SLP139 T01610117=
202307240253 METAR KPAE 240253Z 36008KT 10SM CLR 18/12 A2993 RMK AO2 SLP132 T01830117 55004=
202307240153 METAR KPAE 240153Z 01010G16KT 10SM CLR 21/12 A2992 RMK AO2 SLP129 T02060117=
202307240053 METAR KPAE 240053Z 36011KT 10SM CLR 22/12 A2993 RMK AO2 SLP133 T02220117=
202307232353 METAR KPAE 232353Z 34008KT 10SM CLR 24/12 A2994 RMK AO2 SLP136 T02390117 10256 20206 57015=
202307232253 METAR KPAE 232253Z 02007KT 10SM CLR 24/11 A2995 RMK AO2 SLP139 T02440111=
202307232153 METAR KPAE 232153Z 35006KT 10SM CLR 23/12 A2997 RMK AO2 SLP146 T02330117=
202307232053 METAR KPAE 232053Z 29007KT 10SM CLR 24/11 A2998 RMK AO2 SLP151 T02390111 56009=
202307231953 METAR KPAE 231953Z 27007KT 10SM CLR 24/11 A2999 RMK AO2 SLP154 T02390111=
202307231853 METAR KPAE 231853Z 29006KT 10SM CLR 23/11 A3000 RMK AO2 SLP157 T02280111=
202307231753 METAR KPAE 231753Z VRB05KT 10SM CLR 21/11 A3001 RMK AO2 SLP161 T02110111 10217 20139 58006=
202307231653 METAR KPAE 231653Z VRB03KT 10SM CLR 19/11 A3002 RMK AO2 SLP164 T01940106=
202307231553 METAR KPAE 231553Z 05004KT 10SM CLR 18/11 A3003 RMK AO2 SLP167 T01830106=
202307231453 METAR KPAE 231453Z 04004KT 10SM SCT055 17/11 A3003 RMK AO2 SLP167 T01670106 51006=
202307231353 METAR KPAE 231353Z 01004KT 10SM FEW050 16/11 A3003 RMK AO2 SLP166 T01560106=
202307231253 METAR KPAE 231253Z AUTO 02004KT 10SM BKN055 14/10 A3002 RMK AO2 SLP164 T01440100=
202307231153 METAR KPAE 231153Z AUTO 05004KT 10SM CLR 15/10 A3001 RMK AO2 SLP161 T01500100 10161 20144 56004=
202307231053 METAR KPAE 231053Z AUTO 01004KT 10SM CLR 15/10 A3002 RMK AO2 SLP164 T01500100=
202307230953 METAR KPAE 230953Z AUTO 36006KT 10SM CLR 15/10 A3002 RMK AO2 SLP162 T01500100=
202307230853 METAR KPAE 230853Z AUTO 35006KT 10SM CLR 15/10 A3003 RMK AO2 SLP166 T01500100 56003=
202307230753 METAR KPAE 230753Z AUTO 35008G18KT 10SM CLR 15/10 A3003 RMK AO2 SLP167 T01500100 402390139=
202307230653 METAR KPAE 230653Z AUTO 36011G17KT 10SM CLR 16/09 A3003 RMK AO2 SLP168 T01560094=
202307230553 METAR KPAE 230553Z AUTO 36009G17KT 10SM CLR 16/09 A3003 RMK AO2 SLP169 T01610094 10228 20156 58003=
202307230453 METAR KPAE 230453Z AUTO 36008KT 10SM CLR 16/11 A3004 RMK AO2 SLP172 T01560111=
202307230353 METAR KPAE 230353Z 35006KT 10SM CLR 17/12 A3004 RMK AO2 SLP171 T01670117=
202307230253 METAR KPAE 230253Z 35005KT 10SM CLR 19/12 A3004 RMK AO2 SLP173 T01890122 56008=
202307230153 METAR KPAE 230153Z 34006KT 10SM CLR 21/13 A3005 RMK AO2 SLP173 T02110128=
202307230053 METAR KPAE 230053Z 35008G16KT 10SM CLR 22/13 A3006 RMK AO2 SLP175 T02220133=
202307222353 METAR KPAE 222353Z 35011KT 10SM CLR 22/13 A3007 RMK AO2 SLP180 T02220133 10239 20172 58014=
202307222253 METAR KPAE 222253Z 35007G16KT 10SM CLR 23/13 A3008 RMK AO2 SLP185 T02280133=
202307222153 METAR KPAE 222153Z 35007KT 10SM CLR 23/13 A3010 RMK AO2 SLP190 T02330128=
202307222053 METAR KPAE 222053Z 25005KT 10SM CLR 23/13 A3011 RMK AO2 SLP194 T02280128 51001=
202307221953 METAR KPAE 221953Z 24010KT 10SM CLR 21/13 A3011 RMK AO2 SLP193 T02110128=
202307221853 METAR KPAE 221853Z 25009KT 10SM FEW004 18/13 A3011 RMK AO2 SLP195 T01830128=
202307221753 METAR KPAE 221753Z 24010KT 10SM SCT001 17/13 A3011 RMK AO2 SLP194 VIS NW 2 T01720133 10183 20139 50001=
202307221723 SPECI KPAE 221723Z 25007KT 10SM SCT009 18/13 A3011 RMK AO2 T01780133=
202307221653 METAR KPAE 221653Z 15007KT 10SM OVC008 17/13 A3011 RMK AO2 SLP195 T01670128=
202307221553 METAR KPAE 221553Z 16009KT 10SM OVC009 16/12 A3011 RMK AO2 SLP195 T01610122=
202307221453 METAR KPAE 221453Z 26004KT 10SM BKN006 15/13 A3010 RMK AO2 SLP192 VIS W 2 T01500128 53006=
202307221437 SPECI KPAE 221437Z 21006KT 10SM BKN006 16/13 A3010 RMK AO2 VIS W 2 T01610128=
202307221353 METAR KPAE 221353Z 00000KT 10SM FEW002 15/13 A3009 RMK AO2 SLP188 T01500128=
202307221346 SPECI KPAE 221346Z 00000KT 10SM SCT002 14/13 A3009 RMK AO2 T01440128=
202307221253 METAR KPAE 221253Z AUTO 05003KT 7SM R16R/6000VP6000FT OVC002 14/13 A3008 RMK AO2 SLP185 T01390128=
202307221226 SPECI KPAE 221226Z AUTO 02003KT 3SM R16R/3000VP6000FT BR OVC001 14/13 A3008 RMK AO2 T01390128=
202307221215 SPECI KPAE 221215Z AUTO 02004KT 1 3/4SM R16R/4000VP6000FT BR OVC001 14/13 A3008 RMK AO2 VIS 3/4V4 T01390128=
202307221159 SPECI KPAE 221159Z AUTO 03004KT 3SM R16R/4000VP6000FT BR OVC001 14/13 A3008 RMK AO2 T01390128=
202307221153 METAR KPAE 221153Z AUTO 02004KT 1SM R16R/2800VP6000FT BR VV001 14/13 A3008 RMK AO2 SLP183 T01390128 10161 20139 52004=
202307221137 SPECI KPAE 221137Z AUTO VRB03KT 1 3/4SM R16R/4500VP6000FT BR OVC001 14/13 A3008 RMK AO2 T01390133=
202307221134 SPECI KPAE 221134Z AUTO VRB03KT 5SM R16R/5000VP6000FT BR OVC001 14/13 A3008 RMK AO2 T01390128=
202307221120 SPECI KPAE 221120Z AUTO 02005KT 2SM R16R/2200VP6000FT BR OVC001 14/13 A3007 RMK AO2 T01390128=
202307221053 METAR KPAE 221053Z AUTO 01004KT 4SM R16R/4000VP6000FT BR OVC002 14/13 A3007 RMK AO2 SLP182 T01390128=
202307221034 SPECI KPAE 221034Z AUTO 36004KT 10SM BKN003 14/13 A3008 RMK AO2 T01390128=
202307221019 SPECI KPAE 221019Z AUTO 00000KT 10SM FEW003 14/13 A3008 RMK AO2 T01440128=
202307220953 METAR KPAE 220953Z AUTO 00000KT 10SM CLR 14/13 A3007 RMK AO2 SLP181 T01440128=
202307220928 SPECI KPAE 220928Z AUTO 02004KT 10SM FEW004 14/13 A3007 RMK AO2 T01440128=
202307220853 METAR KPAE 220853Z AUTO 36005KT 10SM CLR 15/13 A3007 RMK AO2 SLP180 T01500128 50001=
202307220753 METAR KPAE 220753Z AUTO 01004KT 10SM CLR 15/13 A3007 RMK AO2 SLP181 T01500128 402500139=
202307220653 METAR KPAE 220653Z AUTO 01006KT 10SM CLR 16/13 A3007 RMK AO2 SLP180 T01560128=
202307220553 METAR KPAE 220553Z AUTO 36007KT 10SM CLR 17/13 A3006 RMK AO2 SLP179 T01670128 10244 20161 56003=
202307220453 METAR KPAE 220453Z AUTO 01007KT 10SM CLR 17/13 A3006 RMK AO2 SLP179 T01670128=
202307220353 METAR KPAE 220353Z 01008KT 10SM CLR 17/13 A3007 RMK AO2 SLP180 T01720128=
202307220253 METAR KPAE 220253Z 35009KT 10SM CLR 18/12 A3007 RMK AO2 SLP182 T01830122 56004=
202307220153 METAR KPAE 220153Z 35008G15KT 10SM CLR 21/13 A3008 RMK AO2 SLP183 T02060128=
202307220053 METAR KPAE 220053Z 34005KT 10SM CLR 24/13 A3008 RMK AO2 SLP183 T02390133=
202307212353 METAR KPAE 212353Z 27007KT 10SM CLR 24/13 A3009 RMK AO2 SLP185 T02440128 10250 20172 58017=
202307212253 METAR KPAE 212253Z AUTO 29006KT 10SM CLR 24/13 A3010 RMK AO2 SLP191 T02440133=
202307212153 METAR KPAE 212153Z 25004KT 10SM CLR 22/13 A3012 RMK AO2 SLP198 T02220133=
202307212053 METAR KPAE 212053Z 24008KT 10SM CLR 21/13 A3014 RMK AO2 SLP203 T02060133 58007=
202307211953 METAR KPAE 211953Z 26009KT 10SM CLR 19/13 A3014 RMK AO2 SLP207 T01940128=
202307211853 METAR KPAE 211853Z 00000KT 10SM SCT013 20/13 A3015 RMK AO2 SLP209 T02000133=
202307211834 SPECI KPAE 211834Z 16006KT 10SM SCT013 19/13 A3015 RMK AO2 T01940133=
202307211812 SPECI KPAE 211812Z 25005KT 10SM BKN009 18/13 A3016 RMK AO2 T01830133=
202307211753 METAR KPAE 211753Z 25006KT 10SM OVC013 17/13 A3016 RMK AO2 SLP212 T01720128 10172 20144 56005=
202307211653 METAR KPAE 211653Z 25009KT 10SM OVC010 17/13 A3016 RMK AO2 SLP213 T01670128=
202307211553 METAR KPAE 211553Z 25004KT 10SM OVC007 16/13 A3017 RMK AO2 SLP214 T01560128=
202307211453 METAR KPAE 211453Z VRB04KT 10SM OVC008 16/13 A3018 RMK AO2 SLP216 T01560128 51011=
202307211353 METAR KPAE 211353Z 28003KT 10SM OVC007 15/13 A3017 RMK AO2 CIG 005V008 SLP214 T01500128=
202307211253 METAR KPAE 211253Z AUTO 33003KT 10SM OVC008 14/12 A3016 RMK AO2 SLP210 T01440122=
202307211153 METAR KPAE 211153Z AUTO 00000KT 10SM OVC009 15/12 A3014 RMK AO2 SLP205 T01500122 10172 20139 53004=
202307211132 SPECI KPAE 211132Z AUTO 00000KT 10SM OVC009 15/13 A3014 RMK AO2 T01500128=
202307211105 SPECI KPAE 211105Z AUTO 00000KT 10SM BKN011 14/12 A3014 RMK AO2 T01440122=
202307211053 METAR KPAE 211053Z AUTO 00000KT 10SM SCT011 14/12 A3014 RMK AO2 SLP203 T01390117=
202307210953 METAR KPAE 210953Z AUTO 00000KT 10SM CLR 15/12 A3013 RMK AO2 SLP199 T01500122=
202307210853 METAR KPAE 210853Z AUTO 01004KT 10SM CLR 14/12 A3013 RMK AO2 SLP200 T01440122 51009=
202307210753 METAR KPAE 210753Z AUTO 36004KT 10SM CLR 15/12 A3012 RMK AO2 SLP197 T01500122 402780150=
202307210653 METAR KPAE 210653Z AUTO 00000KT 10SM CLR 16/13 A3011 RMK AO2 SLP194 T01610128=
202307210553 METAR KPAE 210553Z AUTO 01008KT 10SM CLR 17/13 A3010 RMK AO2 SLP190 T01720128 10239 20172 51010=
202307210453 METAR KPAE 210453Z AUTO 02007KT 10SM CLR 18/13 A3010 RMK AO2 SLP191 T01780133=
202307210353 METAR KPAE 210353Z AUTO 36008KT 10SM CLR 19/13 A3009 RMK AO2 SLP186 T01940133=
202307210253 METAR KPAE 210253Z 01007KT 10SM CLR 22/13 A3007 RMK AO2 SLP180 T02220133 56004=
202307210153 METAR KPAE 210153Z 35007KT 10SM CLR 22/13 A3007 RMK AO2 SLP181 T02170128=
202307210053 METAR KPAE 210053Z 36006KT 10SM CLR 22/13 A3008 RMK AO2 SLP183 T02220133=
202307202353 METAR KPAE 202353Z 35009KT 10SM CLR 24/13 A3008 RMK AO2 SLP184 T02390133 10278 20222 56001=
202307202253 METAR KPAE 202253Z 32008G17KT 10SM CLR 27/13 A3008 RMK AO2 SLP183 T02720128=
202307202153 METAR KPAE 202153Z 24007KT 10SM CLR 27/11 A3009 RMK AO2 SLP184 T02720111=
202307202053 METAR KPAE 202053Z VRB06KT 10SM CLR 27/12 A3009 RMK AO2 SLP185 T02670122 56007=
202307201953 METAR KPAE 201953Z 25009KT 10SM CLR 24/13 A3009 RMK AO2 SLP186 T02440128=
202307201853 METAR KPAE 201853Z 26009KT 10SM CLR 24/13 A3010 RMK AO2 SLP190 T02390133=
202307201753 METAR KPAE 201753Z 24008KT 10SM CLR 22/13 A3011 RMK AO2 SLP192 T02220133 10222 20161 50001=
202307201653 METAR KPAE 201653Z VRB03KT 10SM CLR 21/13 A3011 RMK AO2 SLP194 T02110128=
202307201553 METAR KPAE 201553Z 24004KT 10SM CLR 19/12 A3011 RMK AO2 SLP193 T01890117=
202307201453 METAR KPAE 201453Z 00000KT 10SM CLR 19/11 A3011 RMK AO2 SLP191 T01890111 51011=
202307201353 METAR KPAE 201353Z 00000KT 10SM CLR 19/11 A3010 RMK AO2 SLP189 T01890111=
202307201253 METAR KPAE 201253Z AUTO 18004KT 10SM CLR 16/09 A3009 RMK AO2 SLP184 T01610094=
202307201153 METAR KPAE 201153Z AUTO 00000KT 10SM CLR 16/09 A3007 RMK AO2 SLP180 T01560094 10211 20156 53005=
202307201053 METAR KPAE 201053Z AUTO 00000KT 10SM CLR 18/09 A3007 RMK AO2 SLP177 T01830094=
202307200953 METAR KPAE 200953Z AUTO 05004KT 10SM CLR 20/09 A3006 RMK AO2 SLP175 T02000089=
202307200853 METAR KPAE 200853Z AUTO 06003KT 10SM CLR 20/09 A3006 RMK AO2 SLP174 T02000089 53000=
202307200753 METAR KPAE 200753Z AUTO 05004KT 10SM CLR 21/08 A3006 RMK AO2 SLP175 T02060083 402890139=
202307200653 METAR KPAE 200653Z AUTO 02003KT 10SM CLR 20/09 A3005 RMK AO2 SLP174 T02000089=
202307200553 METAR KPAE 200553Z AUTO 01007KT 10SM CLR 19/09 A3006 RMK AO2 SLP175 T01890094 10289 20183 52006=
202307200453 METAR KPAE 200453Z AUTO 02006KT 10SM CLR 19/11 A3005 RMK AO2 SLP174 T01890106=
202307200353 METAR KPAE 200353Z AUTO 36005KT 10SM CLR 21/11 A3004 RMK AO2 SLP170 T02060111=
202307200253 METAR KPAE 200253Z 36006KT 10SM CLR 24/12 A3004 RMK AO2 SLP169 T02390117 55004=
202307200153 METAR KPAE 200153Z 35006KT 10SM CLR 27/13 A3003 RMK AO2 SLP167 T02720128=
202307200053 METAR KPAE 200053Z 34007KT 10SM CLR 28/13 A3004 RMK AO2 SLP170 T02830128=
202307192353 METAR KPAE 192353Z AUTO 35008KT 10SM CLR 28/13 A3005 RMK AO2 SLP173 T02780128 10283 20228 56015=
202307192253 METAR KPAE 192253Z VRB06KT 10SM CLR 28/12 A3006 RMK AO2 SLP177 T02830122=
202307192153 METAR KPAE 192153Z 35007KT 310V020 10SM CLR 28/12 A3008 RMK AO2 SLP183 T02780117=
202307192053 METAR KPAE 192053Z VRB05KT 10SM CLR 27/12 A3010 RMK AO2 SLP189 T02670117 58014=
202307191953 METAR KPAE 191953Z VRB06KT 10SM CLR 26/11 A3011 RMK AO2 SLP193 T02610106=
202307191853 METAR KPAE 191853Z 36007KT 310V030 10SM CLR 24/11 A3013 RMK AO2 SLP199 T02440111=
202307191753 METAR KPAE 191753Z 34005KT 10SM CLR 23/11 A3014 RMK AO2 SLP203 T02330111 10233 20150 58001=
202307191653 METAR KPAE 191653Z 36005KT 10SM CLR 21/11 A3014 RMK AO2 SLP205 T02060106=
202307191553 METAR KPAE 191553Z VRB04KT 10SM CLR 19/11 A3015 RMK AO2 SLP207 T01890106=
202307191453 METAR KPAE 191453Z 02004KT 10SM CLR 18/11 A3014 RMK AO2 SLP205 T01780106 51007=
202307191353 METAR KPAE 191353Z AUTO 01004KT 10SM CLR 16/10 A3014 RMK AO2 SLP203 T01610100=
202307191253 METAR KPAE 191253Z AUTO 02004KT 10SM CLR 15/09 A3013 RMK AO2 SLP199 T01500094=
202307191153 METAR KPAE 191153Z AUTO 03004KT 10SM CLR 15/09 A3012 RMK AO2 SLP196 T01500094 10156 20139 53001=
202307191053 METAR KPAE 191053Z AUTO 02005KT 10SM CLR 15/09 A3012 RMK AO2 SLP196 T01500094=
202307190953 METAR KPAE 190953Z AUTO 02005KT 10SM CLR 15/09 A3012 RMK AO2 SLP196 T01500094=
202307190853 METAR KPAE 190853Z AUTO 01005KT 10SM CLR 15/10 A3012 RMK AO2 SLP197 T01500100 56002=
202307190753 METAR KPAE 190753Z AUTO 35006KT 10SM CLR 14/10 A3012 RMK AO2 SLP197 T01440100 402500128=
202307190653 METAR KPAE 190653Z AUTO 35006G17KT 10SM CLR 15/10 A3012 RMK AO2 SLP197 T01500100=
202307190553 METAR KPAE 190553Z AUTO 35008G18KT 10SM CLR 15/10 A3012 RMK AO2 SLP200 T01500100 10250 20150 53002=
202307190453 METAR KPAE 190453Z AUTO 36005KT 10SM CLR 16/10 A3012 RMK AO2 SLP199 T01560100=
202307190353 METAR KPAE 190353Z AUTO 01007KT 10SM CLR 17/11 A3012 RMK AO2 SLP197 T01670106=
202307190253 METAR KPAE 190253Z 35008KT 10SM CLR 19/11 A3012 RMK AO2 SLP197 T01890106 55005=
202307190153 METAR KPAE 190153Z 35006KT 10SM CLR 22/11 A3012 RMK AO2 SLP196 T02170111=
202307190053 METAR KPAE 190053Z 33008KT 10SM CLR 23/11 A3012 RMK AO2 SLP197 T02330106=
202307182353 METAR KPAE 182353Z 33006G14KT 10SM CLR 24/11 A3013 RMK AO2 SLP201 T02440106 10244 20189 58011=
202307182253 METAR KPAE 182253Z 35007G14KT 10SM CLR 24/11 A3015 RMK AO2 SLP206 T02390106=
202307182153 METAR KPAE 182153Z 36010G17KT 10SM CLR 23/11 A3016 RMK AO2 SLP210 T02330106=
202307182053 METAR KPAE 182053Z 36009G17KT 10SM CLR 23/11 A3016 RMK AO2 SLP212 T02280106 58009=
202307181953 METAR KPAE 181953Z 35008KT 10SM CLR 22/10 A3017 RMK AO2 SLP215 T02170100=
202307181853 METAR KPAE 181853Z 01007KT 10SM CLR 21/11 A3019 RMK AO2 SLP220 T02060111=
202307181753 METAR KPAE 181753Z 36006KT 10SM CLR 19/10 A3019 RMK AO2 SLP222 T01890100 10189 20128 58001=
202307181653 METAR KPAE 181653Z 01005KT 10SM CLR 17/11 A3019 RMK AO2 SLP224 T01720106=
202307181553 METAR KPAE 181553Z 36005KT 10SM FEW002 14/11 A3020 RMK AO2 SLP224 T01440111=
202307181524 SPECI KPAE 181524Z 36007KT 10SM FEW002 14/11 A3019 RMK AO2 T01440111=
202307181507 SPECI KPAE 181507Z 35004KT 10SM BKN002 13/11 A3019 RMK AO2 T01330111=
202307181453 METAR KPAE 181453Z 35006KT 10SM SCT004 13/11 A3019 RMK AO2 SLP223 T01330111 50004=
202307181444 SPECI KPAE 181444Z 36007KT 10SM SCT004 13/11 A3019 RMK AO2 T01330111=
202307181428 SPECI KPAE 181428Z 35005KT 10SM BKN004 13/11 A3020 RMK AO2 T01330111=
202307181353 METAR KPAE 181353Z AUTO 35006KT 10SM FEW006 13/11 A3020 RMK AO2 SLP224 T01330111=
202307181253 METAR KPAE 181253Z AUTO 02004KT 10SM SCT008 13/11 A3019 RMK AO2 SLP222 T01280106=
202307181153 METAR KPAE 181153Z AUTO 35003KT 10SM FEW008 13/11 A3018 RMK AO2 SLP219 T01280106 10156 20128 51005=
202307181115 SPECI KPAE 181115Z AUTO VRB04KT 10SM FEW009 13/11 A3018 RMK AO2 T01330106=
202307181053 METAR KPAE 181053Z AUTO 01003KT 10SM CLR 13/11 A3018 RMK AO2 SLP219 T01330106=
202307180953 METAR KPAE 180953Z AUTO 36007KT 10SM CLR 14/11 A3017 RMK AO2 SLP216 T01390111=
202307180853 METAR KPAE 180853Z AUTO 01006KT 10SM CLR 14/11 A3017 RMK AO2 SLP214 T01390111 58006=
202307180753 METAR KPAE 180753Z AUTO 36005KT 10SM CLR 14/11 A3018 RMK AO2 SLP218 T01390111 402220139=
202307180653 METAR KPAE 180653Z AUTO 36005KT 10SM CLR 14/10 A3018 RMK AO2 SLP219 T01440100=
202307180553 METAR KPAE 180553Z AUTO 35007G17KT 10SM OVC070 16/10 A3018 RMK AO2 SLP220 T01560100 10189 20156 53007=
202307180453 METAR KPAE 180453Z AUTO VRB06G15KT 10SM FEW050 BKN060 BKN075 16/10 A3018 RMK AO2 SLP219 T01610100=
202307180353 METAR KPAE 180353Z AUTO 36006KT 10SM OVC048 17/10 A3016 RMK AO2 SLP213 T01670100=
202307180253 METAR KPAE 180253Z 01006KT 10SM BKN050 BKN065 BKN080 17/10 A3016 RMK AO2 SLP213 T01720100 51005=
202307180153 METAR KPAE 180153Z 01006KT 10SM SCT060 OVC080 18/11 A3016 RMK AO2 SLP211 T01780106=
202307180053 METAR KPAE 180053Z 35009G14KT 10SM SCT060 BKN075 19/11 A3015 RMK AO2 SLP209 T01890106=
202307172353 METAR KPAE 172353Z 35013G19KT 10SM BKN060 OVC075 18/11 A3015 RMK AO2 SLP208 T01830106 10222 20178 51006=
202307172253 METAR KPAE 172253Z AUTO 35012G21KT 10SM SCT060 19/11 A3014 RMK AO2 SLP206 T01890106=
202307172200 SPECI KPAE 172200Z 35009G19KT 10SM SCT055 20/12 A3014 RMK AO2 T02000117=
202307172153 METAR KPAE 172153Z 36010G19KT 10SM FEW022 BKN029 BKN034 20/12 A3014 RMK AO2 SLP204 T02000117=
202307172053 METAR KPAE 172053Z 36011G19KT 10SM FEW022 BKN029 BKN034 21/13 A3013 RMK AO2 SLP201 T02060128 50002=
202307171953 METAR KPAE 171953Z VRB04KT 10SM BKN026 BKN034 19/12 A3013 RMK AO2 SLP203 T01940122=
202307171916 SPECI KPAE 171916Z 26004KT 10SM OVC030 20/12 A3013 RMK AO2 T02000122=
202307171853 METAR KPAE 171853Z 26004KT 10SM OVC026 18/12 A3013 RMK AO2 SLP203 T01830117=
202307171753 METAR KPAE 171753Z 22005KT 10SM BKN011 BKN022 OVC080 17/12 A3012 RMK AO2 SLP200 60000 T01720117 10178 20150 51010=
202307171653 METAR KPAE 171653Z 21007KT 10SM FEW007 OVC013 16/12 A3011 RMK AO2 RAE07 SLP196 P0000 T01610122=
202307171648 SPECI KPAE 171648Z 21007KT 10SM OVC013 16/12 A3011 RMK AO2 RAE07 P0000=
202307171634 SPECI KPAE 171634Z 22006KT 10SM FEW009 OVC016 16/13 A3011 RMK AO2 RAE07 P0000 T01560133=
202307171615 SPECI KPAE 171615Z 22007KT 8SM SCT005 BKN010 OVC014 15/13 A3010 RMK AO2 RAE07 P0000 T01500133=
202307171608 SPECI KPAE 171608Z 22006KT 4SM BR FEW003 BKN007 OVC014 15/13 A3010 RMK AO2 RAE07 CIG 005V010 P0000 T01500133=
202307171600 SPECI KPAE 171600Z 23006KT 2 1/2SM -RA BR BKN007 OVC012 15/13 A3010 RMK AO2 CIG 002V010 P0000 T01500133=
202307171553 METAR KPAE 171553Z 21005KT 3SM -RA BR BKN007 OVC012 15/13 A3009 RMK AO2 RAB49 CIG 004V009 SLP189 P0000 T01500133=
202307171453 METAR KPAE 171453Z VRB03KT 5SM BR BKN008 15/13 A3007 RMK AO2 SLP180 T01500133 51010=
202307171423 SPECI KPAE 171423Z 18005KT 9SM BKN008 16/12 A3007 RMK AO2 T01560122=
202307171353 METAR KPAE 171353Z 18007KT 10SM FEW016 BKN027 OVC050 16/11 A3006 RMK AO2 SLP177 T01610111=
202307171253 METAR KPAE 171253Z AUTO VRB03KT 10SM FEW015 OVC021 16/12 A3005 RMK AO2 SLP175 T01610122=
202307171153 METAR KPAE 171153Z AUTO VRB04KT 10SM FEW016 OVC026 16/12 A3004 RMK AO2 SLP169 T01560122 10156 20139 53007=
202307171103 SPECI KPAE 171103Z AUTO 15005KT 10SM SCT011 BKN020 OVC039 16/12 A3003 RMK AO2 T01560117=
202307171053 METAR KPAE 171053Z AUTO VRB03KT 10SM BKN011 BKN023 OVC039 16/12 A3003 RMK AO2 SLP165 T01560117=
202307171036 SPECI KPAE 171036Z AUTO 15004KT 10SM BKN011 OVC044 16/12 A3002 RMK AO2 T01560117=
202307170953 METAR KPAE 170953Z AUTO 03005KT 10SM OVC042 15/12 A3002 RMK AO2 SLP164 T01500122=
202307170853 METAR KPAE 170853Z AUTO 02007KT 10SM FEW019 OVC043 14/12 A3002 RMK AO2 SLP162 T01440122 50008=
202307170753 METAR KPAE 170753Z AUTO 05003KT 10SM SCT047 14/12 A3002 RMK AO2 SLP163 T01390122 402440139=
202307170653 METAR KPAE 170653Z AUTO 01007KT 10SM FEW003 14/12 A3001 RMK AO2 SLP159 T01390122=
202307170553 METAR KPAE 170553Z AUTO VRB06KT 10SM CLR 15/12 A2999 RMK AO2 SLP154 T01500117 10228 20150 53002=
202307170453 METAR KPAE 170453Z AUTO 01007KT 10SM CLR 16/11 A2999 RMK AO2 SLP152 T01560111=
202307170353 METAR KPAE 170353Z AUTO 36006KT 10SM CLR 17/11 A2998 RMK AO2 SLP149 T01670106=
202307170253 METAR KPAE 170253Z 36008KT 10SM CLR 18/12 A2999 RMK AO2 SLP151 T01830117 55005=
202307170153 METAR KPAE 170153Z 36007KT 10SM CLR 22/12 A2998 RMK AO2 SLP151 T02170117=
202307170053 METAR KPAE 170053Z 01007KT 10SM CLR 22/11 A2999 RMK AO2 SLP154 T02220111=
202307162353 METAR KPAE 162353Z 36007KT 10SM CLR 22/12 A3000 RMK AO2 SLP157 T02220117 10244 20211 58010=
202307162253 METAR KPAE 162253Z 35008KT 10SM CLR 24/11 A3001 RMK AO2 SLP160 T02390106=
202307162153 METAR KPAE 162153Z 35005KT 10SM CLR 23/11 A3002 RMK AO2 SLP165 T02330106=
202307162053 METAR KPAE 162053Z VRB04KT 10SM CLR 24/12 A3003 RMK AO2 SLP166 T02440122 58012=
202307161953 METAR KPAE 161953Z VRB04KT 10SM CLR 23/13 A3005 RMK AO2 SLP171 T02330128=
202307161853 METAR KPAE 161853Z 30005KT 10SM CLR 22/12 A3006 RMK AO2 SLP176 T02220122=
202307161753 METAR KPAE 161753Z 30005KT 10SM CLR 22/13 A3007 RMK AO2 SLP179 T02170128 10217 20144 58004=
202307161653 METAR KPAE 161653Z 36004KT 10SM CLR 21/12 A3007 RMK AO2 SLP181 T02060122=
202307161553 METAR KPAE 161553Z 02003KT 10SM CLR 19/12 A3008 RMK AO2 SLP182 T01890122=
202307161453 METAR KPAE 161453Z VRB04KT 10SM CLR 18/12 A3008 RMK AO2 SLP183 T01780122 53005=
202307161353 METAR KPAE 161353Z 36005KT 10SM CLR 16/12 A3007 RMK AO2 SLP180 T01610122=
202307161253 METAR KPAE 161253Z AUTO 03003KT 10SM CLR 15/12 A3006 RMK AO2 SLP178 T01500117=
202307161153 METAR KPAE 161153Z AUTO 04004KT 10SM CLR 14/12 A3006 RMK AO2 SLP177 T01440117 10172 20144 51002=
202307161053 METAR KPAE 161053Z AUTO 04004KT 10SM CLR 15/12 A3006 RMK AO2 SLP176 T01500117=
202307160953 METAR KPAE 160953Z AUTO 01005KT 10SM CLR 15/12 A3006 RMK AO2 SLP176 T01500117=
202307160853 METAR KPAE 160853Z AUTO 01007KT 10SM CLR 15/12 A3005 RMK AO2 SLP174 T01500117 53001=
202307160753 METAR KPAE 160753Z AUTO 36007KT 10SM CLR 16/11 A3006 RMK AO2 SLP175 T01610106 402720161=
202307160653 METAR KPAE 160653Z AUTO 03004KT 10SM CLR 16/11 A3005 RMK AO2 SLP172 T01610111=
202307160553 METAR KPAE 160553Z AUTO 02005KT 10SM CLR 17/11 A3005 RMK AO2 SLP173 T01720106 10244 20161 53005=
202307160453 METAR KPAE 160453Z AUTO 34008KT 10SM CLR 16/11 A3005 RMK AO2 SLP174 T01610111=
202307160353 METAR KPAE 160353Z AUTO 36005KT 10SM CLR 18/10 A3002 RMK AO2 SLP163 T01830100=
202307160253 METAR KPAE 160253Z 36010G21KT 10SM CLR 18/11 A3004 RMK AO2 SLP169 T01780111 58008=
202307160153 METAR KPAE 160153Z 35008G18KT 10SM CLR 19/11 A3005 RMK AO2 SLP175 T01940111=
202307160053 METAR KPAE 160053Z 35009G20KT 10SM CLR 22/11 A3005 RMK AO2 SLP173 T02220111=
202307152353 METAR KPAE 152353Z 35009KT 10SM CLR 24/10 A3006 RMK AO2 SLP176 T02440100 10272 20233 56011=
202307152253 METAR KPAE 152253Z 36008KT 10SM CLR 26/09 A3007 RMK AO2 SLP180 T02560094=
202307152153 METAR KPAE 152153Z 01007KT 10SM CLR 27/11 A3008 RMK AO2 SLP182 T02670106=
202307152053 METAR KPAE 152053Z 33006KT 10SM CLR 26/10 A3009 RMK AO2 SLP187 T02610100 58006=
202307151953 METAR KPAE 151953Z 01006KT 10SM CLR 26/11 A3010 RMK AO2 SLP190 T02560111=
202307151853 METAR KPAE 151853Z VRB04KT 10SM CLR 25/12 A3011 RMK AO2 SLP194 T02500117=
202307151753 METAR KPAE 151753Z 03004KT 10SM CLR 24/11 A3011 RMK AO2 SLP193 T02390111 10239 20161 58002=
202307151653 METAR KPAE 151653Z VRB04KT 10SM CLR 23/11 A3012 RMK AO2 SLP196 T02280106=
202307151553 METAR KPAE 151553Z 10SM CLR 21/10 A3012 RMK AO2 SLP196 T02110100=
202307151453 METAR KPAE 151453Z 04004KT 10SM CLR 20/09 A3012 RMK AO2 SLP195 T02000094 53003=
202307151353 METAR KPAE 151353Z 05005KT 10SM CLR 18/09 A3011 RMK AO2 SLP194 T01830089=
202307151253 METAR KPAE 151253Z AUTO 05005KT 10SM CLR 17/09 A3011 RMK AO2 SLP192 T01720089=
202307151153 METAR KPAE 151153Z AUTO 06005KT 10SM CLR 17/09 A3011 RMK AO2 SLP192 T01670089 10172 20161 58002=
202307151053 METAR KPAE 151053Z AUTO 03004KT 10SM CLR 17/09 A3011 RMK AO2 SLP193 T01720089=
202307150953 METAR KPAE 150953Z AUTO 01005KT 10SM CLR 16/09 A3011 RMK AO2 SLP194 T01610094=
202307150853 METAR KPAE 150853Z AUTO 02005KT 10SM CLR 16/10 A3011 RMK AO2 SLP194 T01610100 56003=
202307150753 METAR KPAE 150753Z AUTO 01006KT 10SM CLR 17/09 A3012 RMK AO2 SLP195 T01720094 402670133=
202307150653 METAR KPAE 150653Z AUTO 00000KT 10SM CLR 17/11 A3011 RMK AO2 SLP194 T01720106=
202307150553 METAR KPAE 150553Z AUTO 02004KT 10SM CLR 17/10 A3012 RMK AO2 SLP198 T01720100 10256 20172 53003=
202307150453 METAR KPAE 150453Z AUTO 02007KT 10SM CLR 18/10 A3012 RMK AO2 SLP196 T01780100=
202307150353 METAR KPAE 150353Z 35006KT 10SM CLR 19/09 A3011 RMK AO2 SLP195 T01890094=
202307150253 METAR KPAE 150253Z 02008KT 10SM CLR 22/10 A3011 RMK AO2 SLP194 T02170100 56008=
202307150153 METAR KPAE 150153Z 35007KT 10SM CLR 23/10 A3012 RMK AO2 SLP196 T02280100=
202307150053 METAR KPAE 150053Z 35007KT 10SM CLR 25/10 A3012 RMK AO2 SLP198 T02500100=
202307142353 METAR KPAE 142353Z VRB06KT 10SM CLR 26/10 A3014 RMK AO2 SLP202 T02560100 10267 20211 58008=
202307142253 METAR KPAE 142253Z 33006KT 10SM CLR 25/11 A3015 RMK AO2 SLP207 T02500111=
202307142153 METAR KPAE 142153Z 36003KT 10SM CLR 26/12 A3015 RMK AO2 SLP208 T02560122=
202307142053 METAR KPAE 142053Z 31006KT 10SM CLR 24/12 A3016 RMK AO2 SLP212 T02440122 58003=
202307141953 METAR KPAE 141953Z VRB05KT 10SM CLR 23/12 A3017 RMK AO2 SLP213 T02330122=
202307141853 METAR KPAE 141853Z VRB04KT 10SM CLR 23/12 A3017 RMK AO2 SLP214 T02280117=
202307141753 METAR KPAE 141753Z VRB04KT 10SM CLR 22/12 A3017 RMK AO2 SLP215 T02170117 10217 20133 51002=
202307141653 METAR KPAE 141653Z VRB03KT 10SM CLR 20/12 A3017 RMK AO2 SLP215 T02000117=
202307141553 METAR KPAE 141553Z 03003KT 10SM CLR 18/11 A3017 RMK AO2 SLP215 T01830111=
202307141453 METAR KPAE 141453Z 06004KT 10SM CLR 17/11 A3017 RMK AO2 SLP213 T01670106 53007=
202307141353 METAR KPAE 141353Z 01005KT 10SM CLR 14/11 A3016 RMK AO2 SLP211 T01440111=
202307141253 METAR KPAE 141253Z AUTO 01006KT 10SM CLR 13/11 A3015 RMK AO2 SLP208 T01330106=
202307141153 METAR KPAE 141153Z AUTO 00000KT 10SM CLR 14/10 A3015 RMK AO2 SLP206 T01390100 10161 20139 57002=
202307141053 METAR KPAE 141053Z AUTO VRB03KT 10SM CLR 15/10 A3015 RMK AO2 SLP207 T01500100=
202307140953 METAR KPAE 140953Z AUTO 04005KT 10SM CLR 14/10 A3015 RMK AO2 SLP207 T01440100=
202307140853 METAR KPAE 140853Z AUTO 04005KT 10SM CLR 14/11 A3015 RMK AO2 SLP208 T01440106 53006=
202307140753 METAR KPAE 140753Z AUTO 02007KT 10SM CLR 15/11 A3014 RMK AO2 SLP206 T01500106 402440117=
202307140653 METAR KPAE 140653Z AUTO 01005KT 10SM CLR 16/11 A3014 RMK AO2 SLP203 T01560106=
202307140553 METAR KPAE 140553Z AUTO 36007KT 10SM CLR 16/10 A3013 RMK AO2 SLP202 T01610100 10228 20156 52006=
202307140453 METAR KPAE 140453Z AUTO 35008G16KT 10SM CLR 16/10 A3013 RMK AO2 SLP201 T01560100=
202307140353 METAR KPAE 140353Z AUTO 36009G15KT 10SM CLR 17/11 A3012 RMK AO2 SLP199 T01670106=
202307140253 METAR KPAE 140253Z 36008KT 10SM CLR 19/11 A3012 RMK AO2 SLP197 T01940106 55004=
202307140153 METAR KPAE 140153Z 35009KT 10SM CLR 21/11 A3011 RMK AO2 SLP196 T02060106=
202307140053 METAR KPAE 140053Z 35009KT 10SM CLR 22/11 A3012 RMK AO2 SLP199 T02220111=
202307132353 METAR KPAE 132353Z 35007KT 10SM CLR 23/12 A3013 RMK AO2 SLP201 T02280117 10244 20183 56006=
202307132253 METAR KPAE 132253Z AUTO 35007KT 10SM CLR 24/12 A3013 RMK AO2 SLP201 T02390117=
202307132153 METAR KPAE 132153Z 28007KT 10SM CLR 23/11 A3014 RMK AO2 SLP203 T02280111=
202307132053 METAR KPAE 132053Z 28006KT 10SM CLR 22/11 A3015 RMK AO2 SLP206 T02220111 57002=
202307131953 METAR KPAE 131953Z VRB06KT 10SM CLR 21/11 A3015 RMK AO2 SLP206 T02110106=
202307131853 METAR KPAE 131853Z 29005KT 10SM CLR 20/11 A3015 RMK AO2 SLP209 T02000111=
202307131753 METAR KPAE 131753Z 29006KT 10SM CLR 19/11 A3015 RMK AO2 SLP209 T01890111 10194 20117 51004=
202307131653 METAR KPAE 131653Z 27003KT 10SM CLR 18/11 A3015 RMK AO2 SLP209 T01780106=
202307131553 METAR KPAE 131553Z 36004KT 10SM CLR 16/10 A3015 RMK AO2 SLP208 T01560100=
202307131453 METAR KPAE 131453Z 35004KT 10SM CLR 14/10 A3014 RMK AO2 SLP205 T01440100 52011=
202307131353 METAR KPAE 131353Z 01005KT 10SM CLR 13/10 A3012 RMK AO2 SLP199 T01330100=
202307131253 METAR KPAE 131253Z AUTO 00000KT 10SM CLR 12/10 A3012 RMK AO2 SLP200 T01170100=
202307131153 METAR KPAE 131153Z AUTO 00000KT 10SM CLR 12/09 A3011 RMK AO2 SLP195 T01170094 10150 20117 53004=
202307131053 METAR KPAE 131053Z AUTO 00000KT 10SM CLR 12/09 A3010 RMK AO2 SLP191 T01220094=
202307130953 METAR KPAE 130953Z AUTO 36003KT 10SM CLR 12/09 A3009 RMK AO2 SLP189 T01220094=
202307130853 METAR KPAE 130853Z AUTO 34004KT 10SM CLR 13/10 A3010 RMK AO2 SLP190 T01280100 51004=
202307130753 METAR KPAE 130753Z AUTO 36004KT 10SM CLR 14/10 A3010 RMK AO2 SLP190 T01390100 402220117=
202307130653 METAR KPAE 130653Z AUTO 02005KT 10SM CLR 14/10 A3009 RMK AO2 SLP190 T01390100=
202307130553 METAR KPAE 130553Z AUTO 01007KT 10SM CLR 15/10 A3008 RMK AO2 SLP185 T01500100 10189 20150 53004=
202307130453 METAR KPAE 130453Z AUTO 02007KT 10SM CLR 15/09 A3008 RMK AO2 SLP185 T01500094=
202307130353 METAR KPAE 130353Z 36005KT 10SM CLR 16/09 A3007 RMK AO2 SLP181 T01560094=
202307130253 METAR KPAE 130253Z 35004KT 10SM CLR 17/10 A3007 RMK AO2 SLP181 T01720100 53001=
202307130153 METAR KPAE 130153Z 35008KT 10SM SCT100 18/11 A3006 RMK AO2 SLP178 T01780106=
202307130053 METAR KPAE 130053Z 35007KT 10SM BKN110 18/11 A3006 RMK AO2 SLP177 T01830111=
202307122353 METAR KPAE 122353Z 36006KT 10SM BKN110 17/12 A3006 RMK AO2 RAB2257E11 SLP180 P0000 60000 T01720117 10222 20167 56005=
202307122253 METAR KPAE 122253Z 35005KT 10SM FEW060 SCT095 OVC110 17/12 A3007 RMK AO2 RAB17E48 SLP181 P0000 T01720122=
202307122153 METAR KPAE 122153Z 25007KT 10SM CLR 20/11 A3007 RMK AO2 SLP182 T02000106=
202307122053 METAR KPAE 122053Z 23011KT 10SM CLR 22/12 A3008 RMK AO2 SLP185 T02170117 55002=
202307121953 METAR KPAE 121953Z 23008KT 10SM CLR 19/12 A3008 RMK AO2 SLP184 T01940117=
202307121853 METAR KPAE 121853Z 24008KT 10SM CLR 19/12 A3008 RMK AO2 SLP186 T01940117=
202307121753 METAR KPAE 121753Z 24005KT 10SM FEW065 19/12 A3008 RMK AO2 SLP186 T01890117 10189 20117 50002=
202307121653 METAR KPAE 121653Z VRB04KT 10SM CLR 16/11 A3009 RMK AO2 SLP188 T01560111=
202307121553 METAR KPAE 121553Z 01004KT 10SM SCT012 BKN044 OVC065 15/11 A3009 RMK AO2 SLP188 T01500111=
202307121453 METAR KPAE 121453Z 35003KT 10SM SCT005 BKN070 14/11 A3008 RMK AO2 SLP184 T01440111 51009=
202307121451 SPECI KPAE 121451Z 36004KT 10SM SCT005 OVC070 14/11 A3008 RMK AO2=
202307121353 METAR KPAE 121353Z AUTO 02004KT 10SM OVC003 13/11 A3006 RMK AO2 SLP178 T01280111=
202307121253 METAR KPAE 121253Z AUTO 33003KT 10SM OVC004 12/11 A3005 RMK AO2 SLP175 T01220106=
202307121225 SPECI KPAE 121225Z AUTO 00000KT 10SM BKN004 12/11 A3005 RMK AO2 T01170106=
202307121216 SPECI KPAE 121216Z AUTO 33003KT 10SM SCT004 12/10 A3005 RMK AO2 T01170100=
202307121153 METAR KPAE 121153Z AUTO 00000KT 10SM CLR 12/10 A3004 RMK AO2 SLP173 T01170100 10139 20117 51002=
202307121053 METAR KPAE 121053Z AUTO 34005KT 10SM CLR 12/11 A3004 RMK AO2 SLP171 T01220106=
202307120953 METAR KPAE 120953Z AUTO 34005KT 10SM CLR 12/11 A3004 RMK AO2 SLP172 T01220106=
202307120853 METAR KPAE 120853Z AUTO 35005KT 10SM CLR 13/11 A3004 RMK AO2 SLP171 T01280106 56002=
202307120753 METAR KPAE 120753Z AUTO 35005KT 10SM CLR 13/11 A3004 RMK AO2 SLP172 T01280106 402390117=
202307120653 METAR KPAE 120653Z AUTO 01008KT 10SM FEW070 13/11 A3004 RMK AO2 SLP171 T01330106=
202307120553 METAR KPAE 120553Z AUTO 36007KT 10SM CLR 14/11 A3005 RMK AO2 SLP173 T01390106 10239 20139 52000=
202307120453 METAR KPAE 120453Z AUTO 36006KT 10SM CLR 16/11 A3005 RMK AO2 SLP173 T01560106=
202307120353 METAR KPAE 120353Z AUTO 35006KT 10SM CLR 17/11 A3005 RMK AO2 SLP173 T01670111=
202307120253 METAR KPAE 120253Z 36006KT 10SM CLR 19/11 A3005 RMK AO2 SLP173 T01940111 56009=
202307120153 METAR KPAE 120153Z 35007KT 10SM CLR 21/11 A3005 RMK AO2 SLP176 T02060111=
202307120053 METAR KPAE 120053Z 31005KT 10SM CLR 22/11 A3006 RMK AO2 SLP178 T02220106=
202307112353 METAR KPAE 112353Z 25007KT 10SM CLR 23/11 A3007 RMK AO2 SLP181 T02280106 10233 20178 56012=
202307112253 METAR KPAE 112253Z VRB06KT 10SM CLR 23/10 A3008 RMK AO2 SLP184 T02280100=
202307112153 METAR KPAE 112153Z 24007KT 10SM CLR 22/11 A3010 RMK AO2 SLP191 T02220106=
202307112053 METAR KPAE 112053Z 26008KT 10SM CLR 21/11 A3011 RMK AO2 SLP194 T02110106 58006=
202307111953 METAR KPAE 111953Z 23007KT 10SM CLR 20/11 A3012 RMK AO2 SLP197 T02000106=
202307111853 METAR KPAE 111853Z 25007KT 10SM FEW029 19/11 A3012 RMK AO2 SLP199 T01940106=
202307111753 METAR KPAE 111753Z 25006KT 10SM OVC060 18/11 A3013 RMK AO2 SLP200 T01830111 10183 20122 58001=
202307111653 METAR KPAE 111653Z 17006KT 10SM BKN039 OVC055 18/11 A3013 RMK AO2 SLP203 T01780106=
202307111553 METAR KPAE 111553Z 00000KT 10SM OVC036 15/10 A3014 RMK AO2 SLP204 T01500100=
202307111453 METAR KPAE 111453Z 21004KT 10SM OVC041 14/10 A3013 RMK AO2 SLP201 T01390100 52004=
202307111353 METAR KPAE 111353Z AUTO 00000KT 10SM SCT075 13/10 A3012 RMK AO2 SLP200 T01330100=
202307111253 METAR KPAE 111253Z AUTO 00000KT 10SM CLR 13/09 A3012 RMK AO2 SLP198 T01280094=
202307111153 METAR KPAE 111153Z AUTO 00000KT 10SM FEW043 OVC075 12/09 A3012 RMK AO2 SLP197 T01220094 10139 20117 51003=
202307111053 METAR KPAE 111053Z AUTO 00000KT 10SM CLR 12/09 A3011 RMK AO2 SLP197 T01220089=
202307110953 METAR KPAE 110953Z AUTO 02004KT 10SM BKN045 12/09 A3011 RMK AO2 SLP196 T01220094=
202307110853 METAR KPAE 110853Z AUTO 01004KT 10SM CLR 13/09 A3011 RMK AO2 SLP194 T01280089 51005=
202307110753 METAR KPAE 110753Z AUTO 01008KT 10SM CLR 13/09 A3011 RMK AO2 SLP194 T01330089 402060122=
202307110653 METAR KPAE 110653Z AUTO 02006KT 10SM CLR 13/10 A3010 RMK AO2 SLP191 T01330100=
202307110553 METAR KPAE 110553Z AUTO 01006KT 10SM BKN044 14/10 A3009 RMK AO2 SLP189 T01390100 10206 20139 53007=
202307110453 METAR KPAE 110453Z AUTO 35005KT 10SM OVC045 16/11 A3008 RMK AO2 SLP186 T01610106=
202307110353 METAR KPAE 110353Z AUTO 21006KT 10SM OVC045 19/11 A3008 RMK AO2 SLP183 T01940106=
202307110253 METAR KPAE 110253Z 20003KT 10SM OVC042 20/11 A3007 RMK AO2 SLP181 T02000106 55001=
202307110153 METAR KPAE 110153Z AUTO 17007KT 140V200 10SM OVC040 20/11 A3007 RMK AO2 SLP180 T02000106=
202307110053 METAR KPAE 110053Z AUTO 10SM OVC040 20/11 A3007 RMK AO2 SLP182 T02000106=
202307102353 METAR KPAE 102353Z AUTO 25004KT 10SM OVC037 19/11 A3007 RMK AO2 SLP183 T01940106 10194 20156 55003=
202307102253 METAR KPAE 102253Z AUTO 18008KT 10SM OVC034 19/10 A3007 RMK AO2 SLP182 T01940100=
202307102153 METAR KPAE 102153Z VRB05KT 10SM OVC035 18/10 A3008 RMK AO2 SLP186 T01830100=
202307102053 METAR KPAE 102053Z 23004KT 10SM OVC026 17/10 A3008 RMK AO2 SLP186 T01670100 51005=
202307101953 METAR KPAE 101953Z 21005KT 10SM OVC024 16/09 A3008 RMK AO2 SLP186 T01610094=
202307101853 METAR KPAE 101853Z 19011KT 10SM BKN021 OVC028 16/09 A3008 RMK AO2 SLP184 T01610094=
202307101753 METAR KPAE 101753Z 17009KT 10SM OVC022 16/09 A3007 RMK AO2 SLP180 T01610094 10161 20128 52006=
202307101653 METAR KPAE 101653Z 17011KT 10SM OVC020 16/09 A3006 RMK AO2 SLP178 T01560094=
202307101611 SPECI KPAE 101611Z 16011KT 10SM OVC016 14/09 A3006 RMK AO2 T01440089=
202307101553 METAR KPAE 101553Z 17010KT 10SM OVC014 14/09 A3006 RMK AO2 SLP178 T01440094=
202307101453 METAR KPAE 101453Z 16007KT 10SM OVC014 14/09 A3005 RMK AO2 SLP174 T01390094 53008=
202307101353 METAR KPAE 101353Z 20006KT 10SM OVC012 13/09 A3004 RMK AO2 SLP171 T01330094=
202307101253 METAR KPAE 101253Z AUTO 20007KT 10SM OVC012 13/09 A3003 RMK AO2 SLP168 T01280094=
202307101153 METAR KPAE 101153Z AUTO 18006KT 10SM OVC013 13/09 A3002 RMK AO2 SLP164 T01330094 10133 20122 51009=
202307101130 SPECI KPAE 101130Z AUTO 23003KT 10SM OVC013 13/09 A3002 RMK AO2 T01280094=
202307101053 METAR KPAE 101053Z AUTO 19003KT 10SM BKN018 12/09 A3001 RMK AO2 SLP161 T01220089=
202307100953 METAR KPAE 100953Z AUTO 07003KT 10SM FEW020 13/09 A3001 RMK AO2 SLP160 T01280094=
202307100853 METAR KPAE 100853Z AUTO 01004KT 10SM CLR 13/09 A2999 RMK AO2 SLP155 T01280089 51016=
202307100753 METAR KPAE 100753Z AUTO VRB03KT 10SM CLR 12/09 A2999 RMK AO2 SLP153 T01220089 402330111=
202307100653 METAR KPAE 100653Z AUTO 34005KT 10SM CLR 13/09 A2997 RMK AO2 SLP146 T01280094=
202307100553 METAR KPAE 100553Z AUTO 36006G15KT 10SM CLR 13/09 A2995 RMK AO2 SLP140 T01330094 10228 20133 53012=
202307100453 METAR KPAE 100453Z AUTO 36010G17KT 10SM CLR 14/09 A2994 RMK AO2 SLP136 T01390094=
202307100353 METAR KPAE 100353Z 36010G17KT 10SM CLR 14/10 A2992 RMK AO2 SLP130 T01440100=
202307100253 METAR KPAE 100253Z 36011G18KT 10SM CLR 17/09 A2991 RMK AO2 SLP128 T01670094 53003=
202307100153 METAR KPAE 100153Z 35008KT 10SM CLR 19/10 A2991 RMK AO2 SLP126 T01940100=
202307100053 METAR KPAE 100053Z 36005KT 10SM CLR 21/11 A2990 RMK AO2 SLP124 T02110106=
202307092353 METAR KPAE 092353Z 35005KT 10SM CLR 23/11 A2990 RMK AO2 SLP124 T02280111 10233 20161 56009=
202307092253 METAR KPAE 092253Z 30007KT 10SM CLR 23/11 A2991 RMK AO2 SLP127 T02280111=
202307092153 METAR KPAE 092153Z 30008KT 10SM CLR 22/11 A2992 RMK AO2 SLP129 T02220106=
202307092053 METAR KPAE 092053Z VRB05KT 10SM CLR 22/11 A2993 RMK AO2 SLP133 T02220111 58011=
202307091953 METAR KPAE 091953Z 35005KT 10SM CLR 19/11 A2995 RMK AO2 SLP139 T01940106=
202307091853 METAR KPAE 091853Z 30004KT 10SM CLR 17/10 A2996 RMK AO2 SLP143 T01720100=
202307091753 METAR KPAE 091753Z 33005KT 10SM CLR 17/09 A2996 RMK AO2 SLP145 T01720094 10172 20111 58003=
202307091653 METAR KPAE 091653Z 01005KT 10SM CLR 17/09 A2997 RMK AO2 SLP146 T01670094=
202307091553 METAR KPAE 091553Z 34004KT 10SM CLR 16/09 A2997 RMK AO2 SLP147 T01610094=
202307091453 METAR KPAE 091453Z 36003KT 10SM CLR 15/09 A2997 RMK AO2 SLP148 T01500094 53004=
202307091353 METAR KPAE 091353Z 06003KT 10SM CLR 14/09 A2997 RMK AO2 SLP147 T01390094=
202307091253 METAR KPAE 091253Z AUTO 00000KT 10SM CLR 12/09 A2996 RMK AO2 SLP145 T01170089=
202307091153 METAR KPAE 091153Z AUTO 00000KT 10SM CLR 12/09 A2996 RMK AO2 SLP144 T01220089 10139 20111 51003=
202307091053 METAR KPAE 091053Z AUTO 36003KT 10SM CLR 12/09 A2996 RMK AO2 SLP144 T01220089=
202307090953 METAR KPAE 090953Z AUTO 34003KT 10SM CLR 12/09 A2996 RMK AO2 SLP143 T01220089=
202307090853 METAR KPAE 090853Z AUTO 35005KT 10SM CLR 13/09 A2995 RMK AO2 SLP141 T01280089 53003=
202307090753 METAR KPAE 090753Z AUTO 36007KT 10SM CLR 13/09 A2995 RMK AO2 SLP140 T01280089 402170122=
202307090653 METAR KPAE 090653Z AUTO VRB06KT 10SM CLR 13/09 A2994 RMK AO2 SLP138 T01330094=
202307090553 METAR KPAE 090553Z AUTO 36007KT 10SM CLR 14/09 A2994 RMK AO2 SLP138 T01390094 10217 20139 53006=
202307090453 METAR KPAE 090453Z AUTO 36007KT 10SM CLR 15/09 A2994 RMK AO2 SLP136 T01500094=
202307090353 METAR KPAE 090353Z AUTO 36005KT 10SM CLR 16/11 A2993 RMK AO2 SLP132 T01610106=
202307090253 METAR KPAE 090253Z 35006KT 10SM CLR 18/11 A2992 RMK AO2 SLP132 T01830106 55003=
202307090153 METAR KPAE 090153Z 34007KT 10SM CLR 19/11 A2992 RMK AO2 SLP130 T01940111=
202307090053 METAR KPAE 090053Z 30006KT 10SM CLR 21/12 A2992 RMK AO2 SLP132 T02110117=
202307082353 METAR KPAE 082353Z 27008KT 10SM CLR 22/11 A2993 RMK AO2 SLP134 T02170111 10217 20156 58012=
202307082253 METAR KPAE 082253Z 24008KT 10SM CLR 21/11 A2994 RMK AO2 SLP139 T02110111=
202307082153 METAR KPAE 082153Z 23009KT 200V270 10SM CLR 20/11 A2996 RMK AO2 SLP143 T02000111=
202307082053 METAR KPAE 082053Z 26011KT 10SM FEW025 19/11 A2997 RMK AO2 SLP147 T01890106 58010=
202307081953 METAR KPAE 081953Z 26010KT 10SM BKN020 18/11 A2998 RMK AO2 SLP151 T01830106=
202307081853 METAR KPAE 081853Z 23010KT 10SM OVC018 16/10 A2999 RMK AO2 SLP155 T01610100=
202307081753 METAR KPAE 081753Z 24006KT 10SM OVC015 16/11 A3000 RMK AO2 SLP157 T01560106 10156 20128 50002=
202307081739 SPECI KPAE 081739Z 23006KT 10SM OVC015 16/11 A3000 RMK AO2 T01560106=
202307081653 METAR KPAE 081653Z 24006KT 10SM OVC014 15/10 A3001 RMK AO2 SLP159 T01500100=
202307081553 METAR KPAE 081553Z 22008KT 10SM OVC014 14/09 A3000 RMK AO2 SLP158 T01390094=
202307081453 METAR KPAE 081453Z 21010KT 10SM OVC020 14/09 A2999 RMK AO2 SLP155 T01390094 53006=
202307081424 SPECI KPAE 081424Z 21010KT 10SM BKN024 14/09 A2999 RMK AO2 T01390094=
202307081353 METAR KPAE 081353Z 20008KT 10SM CLR 13/09 A2999 RMK AO2 SLP153 T01330094=
202307081253 METAR KPAE 081253Z AUTO 20003KT 10SM CLR 13/10 A2998 RMK AO2 SLP149 T01280100=
202307081153 METAR KPAE 081153Z AUTO 23003KT 10SM CLR 13/11 A2997 RMK AO2 SLP149 T01280106 10139 20122 51006=
202307081053 METAR KPAE 081053Z AUTO 20003KT 10SM CLR 12/10 A2997 RMK AO2 SLP148 T01220100=
202307080953 METAR KPAE 080953Z AUTO 00000KT 10SM CLR 13/11 A2996 RMK AO2 SLP145 T01280106=
202307080853 METAR KPAE 080853Z AUTO 00000KT 10SM CLR 13/11 A2996 RMK AO2 SLP143 T01330111 51010=
202307080753 METAR KPAE 080753Z AUTO 36004KT 10SM CLR 13/11 A2995 RMK AO2 SLP141 T01330111 402280128=
202307080653 METAR KPAE 080653Z AUTO 36004KT 10SM CLR 13/11 A2994 RMK AO2 SLP136 T01330111=
202307080553 METAR KPAE 080553Z AUTO 01006KT 10SM CLR 14/11 A2993 RMK AO2 SLP132 T01440106 10228 20144 53013=
202307080453 METAR KPAE 080453Z AUTO 01005KT 10SM CLR 15/11 A2991 RMK AO2 SLP127 T01500111=
202307080353 METAR KPAE 080353Z 36004KT 10SM CLR 17/12 A2989 RMK AO2 SLP121 T01720117=
202307080253 METAR KPAE 080253Z VRB03KT 10SM CLR 19/12 A2989 RMK AO2 SLP119 T01940122 55001=
202307080153 METAR KPAE 080153Z 36004KT 10SM CLR 21/12 A2988 RMK AO2 SLP117 T02110122=
202307080053 METAR KPAE 080053Z VRB06KT 10SM CLR 22/12 A2988 RMK AO2 SLP116 T02220117=
202307072353 METAR KPAE 072353Z 27006KT 10SM CLR 22/12 A2989 RMK AO2 SLP119 T02170122 10222 20161 56008=
202307072253 METAR KPAE 072253Z AUTO 28010G15KT 10SM CLR 22/12 A2989 RMK AO2 SLP120 T02170122=
202307072153 METAR KPAE 072153Z 27009G17KT 10SM CLR 21/12 A2990 RMK AO2 SLP123 T02110122=
202307072053 METAR KPAE 072053Z 23010KT 10SM CLR 20/11 A2991 RMK AO2 SLP128 T02000111 57005=
202307071953 METAR KPAE 071953Z 26010G17KT 10SM CLR 18/11 A2992 RMK AO2 SLP130 T01830111=
202307071900 SPECI KPAE 071900Z 23012KT 10SM CLR 18/11 A2993 RMK AO2 T01780111=
202307071853 METAR KPAE 071853Z 23010KT 10SM BKN014 17/11 A2993 RMK AO2 SLP132 T01720111=
202307071753 METAR KPAE 071753Z 24009KT 10SM OVC013 16/11 A2993 RMK AO2 SLP134 T01610111 10161 20128 58001=
202307071653 METAR KPAE 071653Z 21006KT 10SM OVC011 16/11 A2993 RMK AO2 SLP135 T01560111=
202307071627 SPECI KPAE 071627Z 17009KT 10SM OVC010 15/11 A2993 RMK AO2 T01500111=
202307071553 METAR KPAE 071553Z 20009KT 10SM OVC009 14/11 A2993 RMK AO2 SLP135 T01440106=
202307071453 METAR KPAE 071453Z 20006KT 10SM OVC008 14/11 A2993 RMK AO2 SLP134 T01390111 51007=
202307071353 METAR KPAE 071353Z 21009KT 10SM OVC008 14/11 A2993 RMK AO2 SLP133 T01390111=
202307071253 METAR KPAE 071253Z AUTO 22004KT 10SM BKN008 13/11 A2992 RMK AO2 SLP128 T01330111=
202307071227 SPECI KPAE 071227Z AUTO 22004KT 10SM FEW008 13/11 A2992 RMK AO2 T01280111=
202307071153 METAR KPAE 071153Z AUTO 21004KT 10SM CLR 13/11 A2991 RMK AO2 SLP126 T01330111 10172 20128 53004=
202307071053 METAR KPAE 071053Z AUTO 22005KT 10SM CLR 14/11 A2991 RMK AO2 SLP123 T01390111=
202307070953 METAR KPAE 070953Z AUTO 21004KT 10SM CLR 15/12 A2990 RMK AO2 SLP122 T01500117=
202307070853 METAR KPAE 070853Z AUTO 20003KT 10SM CLR 14/12 A2990 RMK AO2 SLP122 T01440117 51004=
202307070753 METAR KPAE 070753Z AUTO 00000KT 10SM CLR 16/12 A2990 RMK AO2 SLP122 T01560117 402890139=
202307070653 METAR KPAE 070653Z AUTO 00000KT 10SM CLR 16/12 A2989 RMK AO2 SLP119 T01610117=
202307070553 METAR KPAE 070553Z AUTO 00000KT 10SM CLR 17/12 A2989 RMK AO2 SLP118 T01720117 10283 20172 53006=
202307070453 METAR KPAE 070453Z AUTO 01004KT 10SM CLR 18/12 A2988 RMK AO2 SLP116 T01780117=
202307070353 METAR KPAE 070353Z AUTO 36003KT 10SM CLR 18/11 A2987 RMK AO2 SLP113 T01830111=
202307070253 METAR KPAE 070253Z 35008KT 10SM CLR 21/12 A2987 RMK AO2 SLP111 T02110117 56002=
202307070153 METAR KPAE 070153Z 02005KT 10SM CLR 23/12 A2987 RMK AO2 SLP111 T02330117=
202307070053 METAR KPAE 070053Z 01005KT 10SM CLR 27/13 A2986 RMK AO2 SLP109 T02720128=
202307062353 METAR KPAE 062353Z AUTO 28007KT 240V310 10SM CLR 28/11 A2987 RMK AO2 SLP113 T02830111 10289 20217 58014=
202307062253 METAR KPAE 062253Z AUTO VRB04KT 10SM CLR 28/11 A2989 RMK AO2 SLP118 T02780106=
202307062153 METAR KPAE 062153Z VRB04KT 10SM CLR 27/11 A2990 RMK AO2 SLP123 T02720111=
202307062053 METAR KPAE 062053Z 26004KT 10SM CLR 26/11 A2992 RMK AO2 SLP126 T02610106 58008=
202307061953 METAR KPAE 061953Z 25008KT 10SM CLR 24/11 A2992 RMK AO2 SLP130 T02440111=
202307061853 METAR KPAE 061853Z 24005KT 10SM CLR 23/12 A2993 RMK AO2 SLP133 T02330117=
202307061753 METAR KPAE 061753Z VRB05KT 10SM CLR 22/12 A2994 RMK AO2 SLP135 T02170117 10222 20139 50001=
202307061653 METAR KPAE 061653Z VRB03KT 10SM CLR 21/12 A2994 RMK AO2 SLP136 T02060117=
202307061553 METAR KPAE 061553Z 30004KT 10SM CLR 19/11 A2994 RMK AO2 SLP136 T01940111=
202307061453 METAR KPAE 061453Z 00000KT 10SM CLR 18/11 A2994 RMK AO2 SLP134 T01830106 51009=
202307061353 METAR KPAE 061353Z 00000KT 10SM CLR 16/11 A2993 RMK AO2 SLP131 T01610111=
202307061253 METAR KPAE 061253Z AUTO 35003KT 10SM CLR 14/11 A2992 RMK AO2 SLP129 T01440111=
202307061153 METAR KPAE 061153Z AUTO 35004KT 10SM CLR 15/11 A2991 RMK AO2 SLP125 T01500106 10211 20150 50000=
202307061053 METAR KPAE 061053Z AUTO VRB04KT 10SM CLR 16/10 A2991 RMK AO2 SLP125 T01560100=
202307060953 METAR KPAE 060953Z AUTO 02006KT 10SM CLR 17/10 A2992 RMK AO2 SLP126 T01670100=
202307060853 METAR KPAE 060853Z AUTO 02005KT 10SM CLR 19/11 A2991 RMK AO2 SLP125 T01890111 51000=
202307060753 METAR KPAE 060753Z AUTO 02004KT 10SM CLR 20/11 A2991 RMK AO2 SLP124 T02000106 403060156=
202307060653 METAR KPAE 060653Z AUTO 02005KT 10SM CLR 20/09 A2991 RMK AO2 SLP125 T02000089=
202307060553 METAR KPAE 060553Z AUTO 01007KT 10SM CLR 21/09 A2991 RMK AO2 SLP126 T02060094 10306 20206 53004=
202307060453 METAR KPAE 060453Z AUTO 34005KT 10SM CLR 22/10 A2991 RMK AO2 SLP125 T02220100=
202307060353 METAR KPAE 060353Z AUTO 35004KT 10SM CLR 25/11 A2990 RMK AO2 SLP120 T02500111=
202307060253 METAR KPAE 060253Z 35004KT 10SM CLR 28/11 A2990 RMK AO2 SLP120 T02780106 56007=
202307060153 METAR KPAE 060153Z 33005KT 10SM CLR 29/11 A2990 RMK AO2 SLP120 T02890106=
202307060053 METAR KPAE 060053Z 35007KT 10SM CLR 30/08 A2991 RMK AO2 SLP123 T03000078=
202307052353 METAR KPAE 052353Z 36006KT 10SM CLR 30/09 A2992 RMK AO2 SLP127 T03000089 10306 20233 56015=
202307052253 METAR KPAE 052253Z AUTO 36006KT 10SM CLR 29/11 A2993 RMK AO2 SLP132 T02940106=
202307052153 METAR KPAE 052153Z 01007KT 10SM CLR 29/11 A2995 RMK AO2 SLP137 T02890111=
202307052053 METAR KPAE 052053Z VRB05KT 10SM CLR 27/11 A2996 RMK AO2 SLP142 T02720106 57008=
202307051953 METAR KPAE 051953Z 36006KT 10SM CLR 27/11 A2997 RMK AO2 SLP145 T02670111=
202307051853 METAR KPAE 051853Z 03005KT 10SM CLR 26/10 A2998 RMK AO2 SLP147 T02560100=
202307051753 METAR KPAE 051753Z VRB03KT 10SM CLR 23/10 A2999 RMK AO2 SLP151 T02330100 10233 20161 51001=
202307051653 METAR KPAE 051653Z 35004KT 10SM CLR 22/10 A2999 RMK AO2 SLP150 T02220100=
202307051553 METAR KPAE 051553Z 36004KT 10SM CLR 21/08 A2999 RMK AO2 SLP151 T02060083=
202307051453 METAR KPAE 051453Z 31003KT 10SM CLR 21/08 A2999 RMK AO2 SLP150 T02110078 58001=
202307051353 METAR KPAE 051353Z 10SM CLR 20/10 A2999 RMK AO2 SLP151 T02000100=
202307051253 METAR KPAE 051253Z AUTO 00000KT 10SM CLR 18/11 A2999 RMK AO2 SLP150 T01780106=
202307051153 METAR KPAE 051153Z AUTO 00000KT 10SM CLR 17/08 A2999 RMK AO2 SLP152 T01670078 10217 20156 56004=
202307051053 METAR KPAE 051053Z AUTO 00000KT 10SM CLR 18/07 A2999 RMK AO2 SLP152 T01830067=
202307050953 METAR KPAE 050953Z AUTO 06003KT 10SM CLR 21/07 A3000 RMK AO2 SLP153 T02060067=
202307050853 METAR KPAE 050853Z AUTO 00000KT 10SM CLR 20/06 A3000 RMK AO2 SLP155 T02000061 58004=
202307050753 METAR KPAE 050753Z AUTO 03003KT 10SM CLR 20/06 A3001 RMK AO2 SLP159 T02000061 402830150=
202307050653 METAR KPAE 050653Z AUTO 01005KT 10SM CLR 21/07 A3001 RMK AO2 SLP160 T02060072=
202307050553 METAR KPAE 050553Z AUTO 36004KT 10SM CLR 21/09 A3001 RMK AO2 SLP160 T02110089 10283 20211 53001=
202307050453 METAR KPAE 050453Z AUTO 32003KT 10SM CLR 23/09 A3001 RMK AO2 SLP159 T02280089=
202307050353 METAR KPAE 050353Z AUTO 34004KT 10SM CLR 24/10 A3000 RMK AO2 SLP155 T02390100=
202307050253 METAR KPAE 050253Z 34003KT 10SM CLR 26/09 A3001 RMK AO2 SLP159 T02610089 56009=
202307050153 METAR KPAE 050153Z 35006KT 10SM CLR 27/10 A3002 RMK AO2 SLP162 T02670100=
202307050053 METAR KPAE 050053Z 34006KT 10SM CLR 27/11 A3003 RMK AO2 SLP164 T02720106=
202307042353 METAR KPAE 042353Z 36007KT 10SM CLR 27/11 A3004 RMK AO2 SLP169 T02720111 10278 20217 56012=
202307042253 METAR KPAE 042253Z 35009KT 10SM CLR 27/11 A3005 RMK AO2 SLP172 T02670111=
202307042153 METAR KPAE 042153Z 34006KT 10SM CLR 27/09 A3006 RMK AO2 SLP176 T02670094=
202307042053 METAR KPAE 042053Z VRB05KT 10SM CLR 26/10 A3007 RMK AO2 SLP180 T02610100 57004=
202307041953 METAR KPAE 041953Z 36008KT 10SM CLR 24/10 A3008 RMK AO2 SLP182 T02440100=
202307041853 METAR KPAE 041853Z 36008KT 10SM CLR 23/10 A3008 RMK AO2 SLP184 T02330100=
202307041753 METAR KPAE 041753Z 35005G14KT 10SM CLR 22/11 A3009 RMK AO2 SLP186 T02170111 10217 20150 58001=
202307041653 METAR KPAE 041653Z 35009G16KT 10SM CLR 20/11 A3009 RMK AO2 SLP188 T02000111=
202307041553 METAR KPAE 041553Z 35006KT 10SM CLR 19/11 A3010 RMK AO2 SLP188 T01890106=
202307041453 METAR KPAE 041453Z 35005KT 10SM CLR 18/10 A3009 RMK AO2 SLP186 T01780100 51008=
202307041353 METAR KPAE 041353Z 36005KT 10SM CLR 16/09 A3008 RMK AO2 SLP183 T01610094=
202307041253 METAR KPAE 041253Z AUTO 35005KT 10SM CLR 16/08 A3008 RMK AO2 SLP182 T01560078=
202307041153 METAR KPAE 041153Z AUTO 00000KT 10SM CLR 16/08 A3007 RMK AO2 SLP178 T01560078 10189 20156 52001=
202307041053 METAR KPAE 041053Z AUTO 01003KT 10SM CLR 17/07 A3006 RMK AO2 SLP177 T01670072=
202307040953 METAR KPAE 040953Z AUTO 00000KT 10SM CLR 17/07 A3007 RMK AO2 SLP178 T01720067=
202307040853 METAR KPAE 040853Z AUTO 02005KT 10SM CLR 19/06 A3006 RMK AO2 SLP177 T01890061 51004=
202307040753 METAR KPAE 040753Z AUTO 03004KT 10SM CLR 17/07 A3006 RMK AO2 SLP177 T01720067 402500122=
202307040653 METAR KPAE 040653Z AUTO 35003KT 10SM CLR 17/07 A3006 RMK AO2 SLP179 T01670067=
202307040553 METAR KPAE 040553Z AUTO 35004KT 10SM CLR 17/07 A3005 RMK AO2 SLP174 T01720072 10250 20172 53004=
202307040453 METAR KPAE 040453Z AUTO 34004KT 10SM CLR 19/08 A3005 RMK AO2 SLP173 T01940083=
202307040353 METAR KPAE 040353Z 33004KT 10SM CLR 21/09 A3004 RMK AO2 SLP170 T02060089=
202307040253 METAR KPAE 040253Z 34003KT 10SM CLR 23/08 A3004 RMK AO2 SLP170 T02280083 56004=
202307040153 METAR KPAE 040153Z VRB05KT 10SM CLR 24/10 A3004 RMK AO2 SLP171 T02390100=
202307040053 METAR KPAE 040053Z 34006KT 10SM CLR 24/11 A3004 RMK AO2 SLP171 T02440106=
202307032353 METAR KPAE 032353Z 36009KT 10SM CLR 25/11 A3005 RMK AO2 SLP174 T02500111 10250 20194 56008=
202307032253 METAR KPAE 032253Z AUTO 33009G14KT 10SM CLR 24/11 A3006 RMK AO2 SLP176 T02390111=
202307032153 METAR KPAE 032153Z 34007KT 10SM CLR 23/11 A3007 RMK AO2 SLP179 T02330106=
202307032053 METAR KPAE 032053Z 36009KT 10SM CLR 23/11 A3008 RMK AO2 SLP182 T02280106 56008=
202307031953 METAR KPAE 031953Z 36008KT 10SM CLR 22/09 A3008 RMK AO2 SLP185 T02220094=
202307031853 METAR KPAE 031853Z 10SM CLR 21/09 A3009 RMK AO2 SLP186 T02110094=
202307031753 METAR KPAE 031753Z 33007KT 10SM CLR 19/11 A3010 RMK AO2 SLP190 T01940106 10200 20122 50001=
202307031653 METAR KPAE 031653Z 36008KT 10SM CLR 18/11 A3010 RMK AO2 SLP191 T01780111=
202307031553 METAR KPAE 031553Z 34008G16KT 10SM CLR 16/11 A3011 RMK AO2 SLP193 T01610106=
202307031453 METAR KPAE 031453Z 36006KT 10SM CLR 16/09 A3009 RMK AO2 SLP189 T01610094 53006=
202307031353 METAR KPAE 031353Z 01005KT 10SM CLR 15/09 A3009 RMK AO2 SLP186 T01500089=
202307031253 METAR KPAE 031253Z AUTO 35004KT 10SM CLR 13/08 A3008 RMK AO2 SLP185 T01330078=
202307031153 METAR KPAE 031153Z AUTO 36003KT 10SM CLR 13/08 A3008 RMK AO2 SLP183 T01330078 10161 20128 53003=
202307031053 METAR KPAE 031053Z AUTO 36003KT 10SM CLR 14/07 A3007 RMK AO2 SLP180 T01390072=
202307030953 METAR KPAE 030953Z AUTO 35005KT 10SM CLR 15/07 A3007 RMK AO2 SLP179 T01500072=
202307030853 METAR KPAE 030853Z AUTO 01004KT 10SM CLR 16/07 A3007 RMK AO2 SLP180 T01560072 58001=
202307030753 METAR KPAE 030753Z AUTO 01004KT 10SM CLR 16/08 A3007 RMK AO2 SLP180 T01560078 402390106=
202307030653 METAR KPAE 030653Z AUTO 36004KT 10SM CLR 15/07 A3007 RMK AO2 SLP182 T01500072=
202307030553 METAR KPAE 030553Z AUTO 02007KT 10SM CLR 16/07 A3007 RMK AO2 SLP182 T01560072 10239 20156 50001=
202307030453 METAR KPAE 030453Z AUTO 01006KT 10SM CLR 17/08 A3007 RMK AO2 SLP183 T01720078=
202307030353 METAR KPAE 030353Z 34003KT 10SM CLR 19/08 A3007 RMK AO2 SLP179 T01890083=
202307030253 METAR KPAE 030253Z 33004KT 10SM CLR 22/08 A3007 RMK AO2 SLP180 T02220078 56011=
202307030153 METAR KPAE 030153Z 35006KT 10SM CLR 23/07 A3008 RMK AO2 SLP182 T02280067=
202307030053 METAR KPAE 030053Z 01007KT 10SM CLR 23/08 A3009 RMK AO2 SLP187 T02330078=
202307022353 METAR KPAE 022353Z 34005KT 10SM CLR 23/09 A3010 RMK AO2 SLP192 T02330089 10239 20183 58012=
202307022253 METAR KPAE 022253Z 35006G14KT 10SM CLR 23/09 A3011 RMK AO2 SLP196 T02280094=
202307022153 METAR KPAE 022153Z 36008KT 10SM CLR 23/10 A3013 RMK AO2 SLP199 T02280100=
202307022053 METAR KPAE 022053Z 33006KT 10SM CLR 21/09 A3014 RMK AO2 SLP204 T02110094 58012=
202307021953 METAR KPAE 021953Z 34006KT 10SM CLR 21/10 A3015 RMK AO2 SLP208 T02110100=
202307021853 METAR KPAE 021853Z 34005KT 10SM CLR 19/10 A3016 RMK AO2 SLP213 T01890100=
202307021753 METAR KPAE 021753Z 35008G16KT 10SM CLR 18/09 A3017 RMK AO2 SLP216 T01830094 10189 20106 56003=
202307021653 METAR KPAE 021653Z 34007KT 300V360 10SM CLR 17/10 A3017 RMK AO2 SLP216 T01720100=
202307021553 METAR KPAE 021553Z 33005KT 10SM CLR 16/09 A3018 RMK AO2 SLP218 T01610094=
202307021453 METAR KPAE 021453Z 36003KT 10SM CLR 14/09 A3018 RMK AO2 SLP219 T01440089 53008=
202307021353 METAR KPAE 021353Z 34003KT 10SM CLR 12/09 A3017 RMK AO2 SLP216 T01220089=
202307021253 METAR KPAE 021253Z AUTO 34003KT 10SM CLR 11/09 A3016 RMK AO2 SLP213 T01110089=
202307021153 METAR KPAE 021153Z AUTO 33004KT 10SM CLR 11/08 A3016 RMK AO2 SLP211 T01110083 10144 20111 55001=
202307021053 METAR KPAE 021053Z AUTO 35006KT 10SM CLR 12/09 A3015 RMK AO2 SLP210 T01170089=
202307020953 METAR KPAE 020953Z AUTO VRB05KT 10SM CLR 13/09 A3016 RMK AO2 SLP211 T01280089=
202307020853 METAR KPAE 020853Z AUTO 02007KT 10SM CLR 13/09 A3016 RMK AO2 SLP212 T01280089 57009=
202307020753 METAR KPAE 020753Z AUTO 02005KT 10SM CLR 13/09 A3017 RMK AO2 SLP215 T01330094 402280117=
202307020653 METAR KPAE 020653Z AUTO 01008KT 10SM CLR 14/09 A3018 RMK AO2 SLP218 T01390094=
202307020553 METAR KPAE 020553Z AUTO 01009G16KT 10SM CLR 14/10 A3019 RMK AO2 SLP221 T01440100 10206 20144 52003=
202307020453 METAR KPAE 020453Z AUTO 36011G18KT 10SM FEW065 14/11 A3019 RMK AO2 SLP221 T01440106=
202307020353 METAR KPAE 020353Z 01008G16KT 10SM FEW065 16/10 A3018 RMK AO2 SLP218 T01560100=
202307020253 METAR KPAE 020253Z 01007KT 10SM CLR 17/09 A3018 RMK AO2 SLP218 T01670094 57006=
202307020153 METAR KPAE 020153Z VRB06KT 10SM CLR 18/10 A3019 RMK AO2 SLP221 T01780100=
202307020053 METAR KPAE 020053Z 36011G17KT 10SM CLR 18/09 A3019 RMK AO2 SLP222 T01830094=
202307012353 METAR KPAE 012353Z 01009G18KT 10SM CLR 20/09 A3020 RMK AO2 SLP225 T02000094 10228 20183 58007=
202307012253 METAR KPAE 012253Z AUTO 35009G18KT 10SM CLR 21/09 A3021 RMK AO2 SLP229 T02060089=
202307012153 METAR KPAE 012153Z 02008KT 10SM CLR 22/08 A3021 RMK AO2 SLP228 T02170083=
202307012053 METAR KPAE 012053Z 01005KT 10SM CLR 22/08 A3022 RMK AO2 SLP232 T02170083 50002=
202307011953 METAR KPAE 011953Z VRB05KT 10SM CLR 21/08 A3023 RMK AO2 SLP234 T02110078=
202307011853 METAR KPAE 011853Z VRB04KT 10SM CLR 19/08 A3022 RMK AO2 SLP234 T01940078=
202307011753 METAR KPAE 011753Z VRB03KT 10SM CLR 19/09 A3021 RMK AO2 SLP231 T01890089 10189 20117 51007=
202307011653 METAR KPAE 011653Z VRB04KT 10SM CLR 17/09 A3021 RMK AO2 SLP228 T01720089=
202307011553 METAR KPAE 011553Z 36005KT 10SM CLR 16/09 A3020 RMK AO2 SLP226 T01610089=
202307011453 METAR KPAE 011453Z 05004KT 10SM CLR 14/08 A3019 RMK AO2 SLP223 T01440083 51014=
202307011353 METAR KPAE 011353Z 06004KT 10SM CLR 13/08 A3019 RMK AO2 SLP221 T01280083=
202307011253 METAR KPAE 011253Z AUTO 03005KT 10SM CLR 12/08 A3017 RMK AO2 SLP214 T01170083=
202307011153 METAR KPAE 011153Z AUTO 01008KT 10SM CLR 12/08 A3015 RMK AO2 SLP208 T01220078 10156 20122 51010=
202307011053 METAR KPAE 011053Z AUTO 01010KT 10SM BKN055 13/08 A3014 RMK AO2 SLP205 T01280078=
202307010953 METAR KPAE 010953Z AUTO 01008KT 10SM OVC055 13/07 A3013 RMK AO2 SLP201 T01330072=
202307010853 METAR KPAE 010853Z AUTO 01010G17KT 10SM OVC041 14/07 A3012 RMK AO2 SLP196 T01390072 53005=
202307010753 METAR KPAE 010753Z AUTO 01012G20KT 10SM BKN043 OVC060 13/07 A3011 RMK AO2 SLP195 T01330072 402220133=
202307010653 METAR KPAE 010653Z AUTO 36010G19KT 10SM FEW041 OVC060 14/07 A3011 RMK AO2 SLP194 T01390067=
202307010553 METAR KPAE 010553Z AUTO 01008KT 10SM OVC060 16/07 A3010 RMK AO2 SLP192 T01560067 10217 20144 53008=
202307010453 METAR KPAE 010453Z AUTO 01008G17KT 10SM FEW060 15/07 A3010 RMK AO2 SLP190 T01500072=
202307010353 METAR KPAE 010353Z 01009G17KT 10SM CLR 16/06 A3008 RMK AO2 SLP186 T01560061=
202307010253 METAR KPAE 010253Z 36010G19KT 10SM CLR 17/07 A3008 RMK AO2 SLP184 T01670067 56005=
202307010153 METAR KPAE 010153Z 36013G22KT 10SM CLR 18/09 A3008 RMK AO2 SLP185 T01780089=
202307010053 METAR KPAE 010053Z 35009G16KT 310V010 10SM CLR 20/09 A3009 RMK AO2 SLP187 T02000089=

# No short TAF reports from KPAE in databse.

###################################
#  large TAF from KPAE
###################################
202307312320 TAF KPAE 312320Z 0100/0124 VRB05KT P6SM SKC FM010600 01006KT P6SM
                       SKC FM011200 02003KT P6SM SKC FM011700 34004KT
                       P6SM SKC=
202307311720 TAF KPAE 311720Z 3118/0118 36003KT P6SM SKC FM312000 33007KT P6SM
                       SKC FM010000 36010G15KT P6SM SKC FM010600
                       01006KT P6SM SKC FM011200 02003KT P6SM SKC=
202307311120 TAF KPAE 311120Z 3112/0112 35005KT P6SM SCT050 FM311500 36003KT
                       P6SM BKN050 FM312000 33007KT P6SM SCT050
                       SCT250 FM010000 36010G15KT P6SM SCT250 FM010500
                       01007KT P6SM SKC=
202307310520 TAF KPAE 310520Z 3106/0106 35005KT P6SM SCT070 FM311000 02006KT
                       P6SM SKC FM311400 36003KT P6SM BKN050 FM312000
                       33007KT P6SM SCT050 SCT250=
202307302327 TAF KPAE 302327Z 3100/3124 34007KT P6SM SKC FM310300 35005KT P6SM
                       SKC FM311000 02006KT P6SM SKC FM311400 36003KT
                       P6SM BKN050=
202307301724 TAF KPAE 301724Z 3018/3118 VRB03KT P6SM OVC050 FM301900 28006KT
                       P6SM SCT040 FM302300 33007KT P6SM SKC FM311000
                       02006KT P6SM SKC=
202307301124 TAF KPAE 301124Z 3012/3112 VRB03KT P6SM OVC035 FM301900 28006KT
                       P6SM SCT040 FM302300 33009KT P6SM SKC FM310700
                       02006KT P6SM SKC=
202307300520 TAF KPAE 300520Z 3006/3106 35007KT P6SM SCT250 FM301000 VRB03KT
                       P6SM BKN050 FM301800 28006KT P6SM SCT050
                       BKN250 FM302300 33007KT P6SM SCT250=
202307292334 TAF KPAE 292334Z 3000/3024 34007KT P6SM BKN250 FM300400 35007KT
                       P6SM BKN100 FM301000 VRB03KT P6SM BKN050=
202307291733 TAF KPAE 291733Z 2918/3018 27006KT P6SM SCT250 FM292200 34008KT
                       P6SM BKN250 FM300400 35007KT P6SM BKN100
                       FM301300 09003KT P6SM OVC015=
202307291138 TAF KPAE 291138Z 2912/3012 02004KT P6SM SKC FM291400 VRB03KT P6SM
                       SCT003 FM291700 27006KT P6SM SCT250 FM292200
                       36008KT P6SM BKN250=
202307290520 TAF KPAE 290520Z 2906/3006 36006KT P6SM BKN100 FM291200 VRB03KT
                       P6SM OVC030 FM291700 27006KT P6SM SCT030
                       BKN250 FM292200 33007KT P6SM BKN250=
202307282320 TAF KPAE 282320Z 2900/2924 01005KT P6SM SKC FM290300 36006KT P6SM
                       FEW250 FM291200 VRB03KT P6SM OVC050=
202307281720 TAF KPAE 281720Z 2818/2918 36005KT P6SM SKC FM282300 35007KT P6SM
                       FEW250 FM290300 36006KT P6SM FEW250 FM291200
                       VRB03KT P6SM OVC050=
202307281342 KPAE 281342Z 2814/2912 01006KT P6SM OVC004 FM281600 35005KT P6SM
                       BKN015 FM281800 30005KT P6SM SCT250 FM282300
                       35007KT P6SM FEW250=
202307281140 TAF KPAE 281140Z 2812/2912 01006KT P6SM SCT050 SCT250
                      TEMPO 2812/2816 BKN020 FM281800 30005KT P6SM
                       SCT250 FM282300 35007KT P6SM FEW250=
202307280520 TAF KPAE 280520Z 2806/2906 36006KT P6SM SKC FM281000 VRB03KT P6SM
                       SCT050 SCT250
                      TEMPO 2812/2816 BKN050 FM281800 30005KT P6SM
                       SKC=
202307272320 TAF KPAE 272320Z 2800/2824 30007KT P6SM SKC FM280200 34006KT P6SM
                       SKC FM280600 36006KT P6SM SCT250 FM281800
                       28005KT P6SM SKC=
202307271720 TAF KPAE 271720Z 2718/2818 02005KT P6SM SKC FM280200 34006KT P6SM
                       SKC FM280600 36006KT P6SM SCT250=
202307271139 TAF KPAE 271139Z 2712/2812 35004KT P6SM SCT200 FM271700 30005KT
                       P6SM SCT250 FM280200 34006KT P6SM SKC FM280600
                       36006KT P6SM SCT250=
202307270537 TAF KPAE 270537Z 2706/2806 35004KT P6SM SCT200 FM271700 30005KT
                       P6SM SCT250 FM280200 34006KT P6SM SKC=
202307262320 TAF KPAE 262320Z 2700/2724 34010KT P6SM SCT250 FM270300 35006KT
                       P6SM SCT200 FM270600 35004KT P6SM SCT200=
202307261720 TAF KPAE 261720Z 2618/2718 33004KT P6SM SCT035 SCT200 FM262100
                       34008KT P6SM SCT250 FM270600 35004KT P6SM
                       SCT200=
202307261335 KPAE 261335Z 2614/2712 VRB04KT P6SM FEW008 BKN030
                      TEMPO 2614/2616 BKN007 FM261800 33004KT P6SM
                       SCT035 SCT200 FM270600 35004KT P6SM SCT200=
202307261138 TAF KPAE 261138Z 2612/2712 VRB04KT P6SM FEW008 BKN030
                      TEMPO 2612/2615 OVC020 FM261800 33004KT P6SM
                       SCT035 SCT200 FM270600 35004KT P6SM SCT200=
202307260538 TAF KPAE 260538Z 2606/2706 35004KT P6SM SCT040 BKN050 FM260900
                       VRB04KT P6SM BKN030
                      TEMPO 2612/2615 OVC020 FM261800 33004KT P6SM
                       SCT035 SCT200=
202307252327 TAF KPAE 252327Z 2600/2624 33010KT P6SM VCSH BKN060 FM260400 VRB04KT
                       P6SM SCT070 FM260800 VRB04KT P6SM BKN030
                       TEMPO 2612/2615 OVC020 FM261800 33004KT
                       P6SM SCT035 SCT200=
202307252114 KPAE 252114Z 2521/2618 22010KT P6SM BKN070 FM260000 34010KT P6SM
                       VCSH BKN060 FM260400 VRB04KT P6SM SCT070
                       FM260800 VRB04KT P6SM BKN030
                      TEMPO 2612/2615 OVC020=
202307251755 TAF KPAE 251755Z 2518/2618 17009G20KT P6SM BKN010 OVC020 FM251900
                       19011KT P6SM OVC035 FM260000 34006KT P6SM
                       VCSH OVC030=
202307251351 KPAE 251351Z 2514/2612 16004KT P6SM SCT008 OVC015 FM251900 19011KT
                       P6SM OVC035 FM260000 34006KT P6SM VCSH OVC030=
202307251137 TAF KPAE 251137Z 2512/2612 21006KT P6SM SCT008 SCT040 OVC045 FM251400
                       16004KT P6SM VCSH OVC020 FM251700 19011KT
                       P6SM OVC035 FM260000 34006KT P6SM VCSH OVC030=
202307250538 TAF KPAE 250538Z 2506/2606 21009KT P6SM VCSH OVC020
                      TEMPO 2506/2508 -RA BKN008 FM251700 19011KT
                       P6SM OVC035 FM260000 34006KT P6SM OVC050=
202307250316 KPAE 250316Z 2503/2524 17012G20KT 2SM RA BKN015 OVC030 FM250500
                       16009KT P6SM VCSH OVC020 FM251000 16007KT
                       P6SM OVC035=
202307250107 KPAE 250107Z 2501/2524 16010G20KT 6SM -RA BKN030
                      TEMPO 2501/2502 2SM +RA BKN025 FM250300 17012G20KT
                       P6SM VCSH BKN015 OVC030 FM250500 16009KT
                       P6SM OVC020 FM251000 16007KT P6SM OVC035=
202307242320 TAF KPAE 242320Z 2500/2524 18015G24KT P6SM SCT050 OVC070 FM250200
                       17012G20KT P6SM -RA BKN015 OVC030 FM250500
                       16009KT P6SM -SHRA OVC020 FM251000 16007KT
                       P6SM OVC035=
202307242012 KPAE 242012Z 2420/2518 16014G23KT P6SM SCT035 OVC100 FM242300 18014G21KT
                       P6SM -SHRA OVC025 FM250500 16009KT P6SM
                       BKN020 OVC040 FM251000 16007KT P6SM OVC015=
202307241724 TAF KPAE 241724Z 2418/2518 17012G19KT P6SM -SHRA BKN020 OVC060
                       FM242000 16014G23KT P6SM -SHRA OVC025 FM250500
                       16009KT P6SM BKN020 OVC040 FM251000 16007KT
                       P6SM OVC015=
202307241132 TAF KPAE 241132Z 2412/2512 17006KT P6SM SCT070 BKN120 OVC250 FM241700
                       17012G19KT P6SM -RA BKN035 OVC050 FM242000
                       16014G23KT P6SM -SHRA SCT020 OVC025 FM250500
                       16009KT P6SM BKN020 OVC040=
202307240534 TAF KPAE 240534Z 2406/2506 36007KT P6SM SCT100 FM241000 15005KT
                       P6SM BKN050 OVC250 FM241700 15009KT P6SM
                       -RA OVC050 FM242200 16011KT P6SM -SHRA OVC025=
202307232329 TAF KPAE 232329Z 2400/2424 36007KT P6SM FEW250 FM241000 15005KT
                       P6SM BKN050 OVC250 FM241700 15009KT P6SM
                       -RA OVC050 FM242200 16011KT P6SM -SHRA OVC025=
202307231733 TAF KPAE 231733Z 2318/2418 31007KT P6SM FEW250 FM241000 15005KT
                       P6SM BKN050 OVC250 FM241700 15009KT P6SM
                       -RA OVC050=
202307231120 TAF KPAE 231120Z 2312/2412 02005KT P6SM FEW250 FM231800 31007KT
                       P6SM SCT150 FM240800 05003KT P6SM BKN250=
202307230531 TAF KPAE 230531Z 2306/2406 36008KT P6SM SCT020 FM231700 30007KT
                       P6SM SCT150=
202307222322 TAF KPAE 222322Z 2300/2324 34010G15KT P6SM SCT250 FM230600 36004KT
                       P6SM SCT020 FM231700 30007KT P6SM SCT150=
202307222056 KPAE 222056Z 2221/2318 26009KT P6SM SCT250 FM222300 34010G15KT
                       P6SM SCT250 FM230600 36004KT P6SM FEW010
                       FM231700 VRB03KT P6SM SCT250=
202307221736 TAF KPAE 221736Z 2218/2318 02004KT P6SM SCT009 FM221900 26009KT
                       P6SM SCT250 FM222300 34008KT P6SM SCT250
                       FM230600 36004KT P6SM FEW010 FM231700 VRB03KT
                       P6SM SCT250=
202307221454 KPAE 221454Z 2215/2312 02004KT 5SM BR OVC006
                      TEMPO 2215/2217 2SM BR OVC003 FM221800 22007KT
                       P6SM SCT200 FM222300 32008KT P6SM FEW120
                       SCT200 FM230600 02005KT P6SM SCT250=
202307221126 TAF KPAE 221126Z 2212/2312 02004KT 5SM BR OVC003
                      TEMPO 2212/2215 2SM BR OVC001 FM221800 22007KT
                       P6SM SCT200 FM222300 32008KT P6SM FEW120
                       SCT200 FM230600 02005KT P6SM SCT250=
202307220520 TAF KPAE 220520Z 2206/2306 36007KT P6SM FEW200 FM221100 02004KT
                       P6SM SCT008 FM221700 21007KT P6SM SCT200
                       FM222300 30007KT P6SM FEW120 SCT200=
202307212335 TAF KPAE 212335Z 2200/2224 31006KT P6SM SCT200 FM220300 36005KT
                       P6SM FEW200 FM221100 VRB04KT P6SM SCT008
                       FM221700 21007KT P6SM SCT200 FM222300 30007KT
                       P6SM FEW120 SCT200=
202307211723 TAF KPAE 211723Z 2118/2218 25006KT P6SM BKN012 FM211900 26007KT
                       P6SM SCT015 SCT200 FM212100 31006KT P6SM
                       SCT200 FM220300 36005KT P6SM FEW200 FM221100
                       VRB04KT P6SM SCT008=
202307211202 KPAE 211202Z 2112/2212 VRB03KT P6SM OVC009 FM211700 25005KT P6SM
                       FEW010 SCT200 FM212100 33007KT P6SM FEW200
                       FM220400 02005KT P6SM FEW200 FM221000 VRB04KT
                       P6SM SCT030=
202307211120 TAF KPAE 211120Z 2112/2212 VRB04KT P6SM SCT010 FM211300 VRB04KT
                       P6SM BKN010 FM211700 25005KT P6SM FEW010
                       SCT200 FM212100 33007KT P6SM FEW200 FM220400
                       02005KT P6SM FEW200 FM221000 VRB04KT P6SM
                       SCT030=
202307210526 TAF KPAE 210526Z 2106/2206 34008KT P6SM SCT200 FM210700 VRB05KT
                       P6SM FEW200 FM211200 VRB04KT P6SM BKN009
                       FM211700 29005KT P6SM FEW010 SCT200 FM212100
                       32007KT P6SM FEW200=
202307202320 TAF KPAE 202320Z 2100/2124 34008KT P6SM SCT200 FM210700 VRB05KT
                       P6SM FEW200 FM211200 VRB04KT P6SM BKN009
                       FM211700 29005KT P6SM FEW010 SCT200 FM212100
                       32007KT P6SM FEW200=
202307201720 TAF KPAE 201720Z 2018/2118 VRB05KT P6SM SCT250 FM210000 35007KT
                       P6SM SCT250 FM210500 03004KT P6SM SCT250
                       FM211400 VRB04KT P6SM BKN006 FM211700 VRB05KT
                       P6SM FEW008 SCT250=
202307201121 TAF KPAE 201121Z 2012/2112 VRB03KT P6SM SKC FM201800 31007KT P6SM
                       SCT250 FM210000 35007KT P6SM SCT250 FM210500
                       03004KT P6SM SCT250=
202307200521 TAF KPAE 200521Z 2006/2106 VRB03KT P6SM FEW250 FM201800 32007KT
                       P6SM SCT250=
202307192332 TAF KPAE 192332Z 2000/2024 34007KT P6SM SKC FM200600 VRB03KT P6SM
                       SKC FM201800 33007KT P6SM SCT250=
202307191726 TAF KPAE 191726Z 1918/2018 36005KT P6SM SKC FM192200 33007KT P6SM
                       SKC FM200300 35003KT P6SM SKC FM200900 VRB02KT
                       P6SM SKC=
202307191125 TAF KPAE 191125Z 1912/2012 02006KT P6SM SKC FM191700 35006KT P6SM
                       SKC FM200000 33007KT P6SM SKC FM200300 34004KT
                       P6SM FEW250=
202307190520 TAF KPAE 190520Z 1906/2006 36004KT P6SM FEW250 FM192100 33007KT
                       P6SM FEW250=
202307182332 TAF KPAE 182332Z 1900/1924 35010G18KT P6SM SKC FM190600 35006KT
                       P6SM SKC FM191800 32005KT P6SM SKC=
202307181737 TAF KPAE 181737Z 1818/1918 36007KT P6SM SKC FM182200 35010G20KT
                       P6SM SKC FM190300 35006KT P6SM SKC=
202307181124 TAF KPAE 181124Z 1812/1912 36004KT P6SM SKC FM181800 33007KT P6SM
                       SKC FM182300 34009KT P6SM SKC FM190400 35005KT
                       P6SM SKC=
202307180523 TAF KPAE 180523Z 1806/1906 36006KT P6SM BKN060 FM181400 VRB03KT
                       P6SM FEW020 SCT250 FM181800 33007KT P6SM
                       SCT250=
202307172330 TAF KPAE 172330Z 1800/1824 35010KT P6SM BKN060 FM180300 36007KT
                       P6SM SCT050 SCT200 FM181600 33004KT P6SM
                       SCT200=
202307172128 KPAE 172128Z 1721/1818 31008KT P6SM VCSH SCT020 BKN030 FM180300
                       36005KT P6SM SCT050 SCT200 FM181600 33004KT
                       P6SM SCT200=
202307171736 TAF KPAE 171736Z 1718/1818 21006KT P6SM OVC015 FM172100 31008KT
                       P6SM VCSH SCT020 BKN045 FM180600 36005KT
                       P6SM SCT050 SCT200 FM181600 33004KT P6SM
                       SCT200=
202307171129 TAF KPAE 171129Z 1712/1812 15006KT P6SM BKN020 OVC030 FM171400
                       13004KT P6SM OVC015 FM172000 31008KT P6SM
                       VCSH SCT020 BKN045 FM180000 35007KT P6SM
                       -RA BKN010 OVC020 FM180600 36005KT P6SM
                       SCT050 SCT250=
202307170548 TAF KPAE 170548Z 1706/1806 35007KT P6SM SKC FM170900 03006KT P6SM
                       OVC019 FM171300 13004KT P6SM OVC015
                      TEMPO 1718/1721 VRB04KT P6SM -RA OVC020 FM172100
                       31008KT P6SM VCSH SCT020 BKN045=
202307162323 TAF KPAE 162323Z 1700/1724 35007KT P6SM SCT200 FM170900 03006KT
                       P6SM OVC019 FM171300 13004KT P6SM OVC015
                       FM172100 31008KT P6SM SCT020 BKN045=
202307161727 TAF KPAE 161727Z 1618/1718 35004KT P6SM SCT200 FM170900 03006KT
                       P6SM OVC019 FM171300 13004KT P6SM OVC015=
202307161125 TAF KPAE 161125Z 1612/1712 02004KT P6SM SKC FM161600 35004KT P6SM
                       SCT250 FM162200 34008KT P6SM FEW250 FM170300
                       36010KT P6SM BKN250=
202307160544 TAF KPAE 160544Z 1606/1706 01007KT P6SM SKC FM161600 35004KT P6SM
                       SCT250 FM162000 34008KT P6SM FEW250=
202307152347 TAF KPAE 152347Z 1600/1624 36008KT P6SM SCT250 FM160500 02007KT
                       P6SM SKC FM161600 35004KT P6SM SCT250 FM162000
                       34008KT P6SM FEW250=
202307151737 TAF KPAE 151737Z 1518/1618 VRB03KT P6SM SKC FM151900 33005KT P6SM
                       SCT250 FM160500 02007KT P6SM SKC FM161600
                       35004KT P6SM SCT250=
202307151125 TAF KPAE 151125Z 1512/1612 VRB03KT P6SM SKC FM151900 33005KT P6SM
                       SCT250 FM160000 34008KT P6SM SKC FM160500
                       01007KT P6SM SKC=
202307150520 TAF KPAE 150520Z 1506/1606 VRB03KT P6SM SKC FM151900 33007KT P6SM
                       SCT250=
202307142321 TAF KPAE 142321Z 1500/1524 35007KT P6SM SKC FM150700 02003KT P6SM
                       SKC FM151900 33007KT P6SM SCT250=
202307141723 TAF KPAE 141723Z 1418/1518 33006KT P6SM SKC FM150600 02003KT P6SM
                       SKC=
202307141120 TAF KPAE 141120Z 1412/1512 VRB04KT P6SM SKC FM141300 VRB03KT P6SM
                       SCT250 FM141800 32006KT P6SM SKC=
202307140527 TAF KPAE 140527Z 1406/1506 35008KT P6SM SKC FM141300 VRB03KT P6SM
                       SCT005 SCT250 FM141800 32006KT P6SM SKC=
202307132323 TAF KPAE 132323Z 1400/1424 35008KT P6SM SKC FM140800 02003KT P6SM
                       SKC FM141800 32006KT P6SM SKC=
202307131730 TAF KPAE 131730Z 1318/1418 29005KT P6SM SCT250 FM140000 34006KT
                       P6SM SKC FM140500 02005KT P6SM SKC FM141200
                       01003KT P6SM SCT250=
202307131120 TAF KPAE 131120Z 1312/1412 35004KT P6SM SKC FM131700 30006KT P6SM
                       SCT250 FM140000 34006KT P6SM SKC=
202307130525 TAF KPAE 130525Z 1306/1406 01004KT P6SM SCT100 FM131100 VRB04KT
                       P6SM BKN007 FM131700 30006KT P6SM SCT250=
202307122336 TAF KPAE 122336Z 1300/1324 32008KT P6SM BKN150 FM130500 35004KT
                       P6SM SCT150 FM131400 19004KT P6SM BKN007
                       FM131700 30006KT P6SM SCT150=
202307121733 TAF KPAE 121733Z 1218/1318 32005KT P6SM SCT070 FM130300 35004KT
                       P6SM SCT150 FM131200 19004KT P6SM SCT007=
202307121234 KPAE 121234Z 1213/1312 34005KT P6SM BKN004 FM121500 24006KT P6SM
                       OVC035 FM121800 24005KT P6SM BKN200 FM122200
                       29006KT P6SM BKN250 FM130000 32007KT P6SM
                       SKC=
202307121120 TAF KPAE 121120Z 1212/1312 34005KT P6SM SKC FM121500 24006KT P6SM
                       OVC035 FM121800 24005KT P6SM BKN200 FM122200
                       29006KT P6SM BKN250 FM130000 32007KT P6SM
                       SKC=
202307120523 TAF KPAE 120523Z 1206/1306 35006KT P6SM FEW060 FM121200 VRB03KT
                       P6SM OVC050 FM121500 24006KT P6SM OVC035
                       FM122200 29006KT P6SM BKN050=
202307112328 TAF KPAE 112328Z 1200/1224 30006KT P6SM FEW060 FM121200 VRB03KT
                       P6SM OVC050 FM121500 24006KT P6SM OVC035
                       FM122300 29006KT P6SM BKN050=
202307112103 KPAE 112103Z 1121/1218 33008KT P6SM FEW040 FEW250 FM121000 VRB03KT
                       P6SM BKN030=
202307111739 TAF KPAE 111739Z 1118/1218 VRB05KT P6SM SCT040 BKN050 FM112100
                       33006KT P6SM SCT020 SCT250 FM121000 VRB03KT
                       P6SM BKN030=
202307111120 TAF KPAE 111120Z 1112/1212 VRB04KT P6SM BKN045 FM111700 24004KT
                       P6SM SCT020 BKN035 FM112300 30005KT P6SM
                       SCT020 SCT250 FM120600 36006KT P6SM BKN250=
202307110532 TAF KPAE 110532Z 1106/1206 36004KT P6SM BKN045 FM111000 VRB04KT
                       P6SM BKN015 FM111700 24004KT P6SM SCT020
                       BKN035 FM112300 30005KT P6SM SCT020 SCT250=
202307102330 TAF KPAE 102330Z 1100/1124 20006KT P6SM BKN035 FM110300 34005KT
                       P6SM BKN050 FM110600 36004KT P6SM SCT060
                       FM111000 VRB04KT P6SM BKN015 FM111700 23004KT
                       P6SM SCT020 BKN035=
202307102113 KPAE 102113Z 1021/1118 23006KT P6SM OVC025 FM102200 24008KT P6SM
                       BKN040 FM110300 33005KT P6SM BKN050 FM110600
                       02004KT P6SM SCT060 FM111000 VRB04KT P6SM
                       BKN030
                      TEMPO 1112/1116 OVC020=
202307101733 TAF KPAE 101733Z 1018/1118 17010KT P6SM OVC020 FM102100 22008KT
                       P6SM BKN040 FM110300 33005KT P6SM BKN050
                       FM110600 02004KT P6SM SCT060 FM111000 VRB04KT
                       P6SM BKN030
                      TEMPO 1112/1116 OVC020=
202307101124 TAF KPAE 101124Z 1012/1112 17004KT P6SM OVC015 FM101800 21010KT
                       P6SM BKN025 FM102100 22008KT P6SM SCT040
                       SCT200 FM110400 33005KT P6SM BKN050=
202307100555 TAF KPAE 100555Z 1006/1106 36010G18KT P6SM SKC FM100900 16008KT
                       P6SM SKC FM101200 17007KT P6SM OVC015 FM101800
                       21010KT P6SM BKN025 FM102100 22010KT P6SM
                       SCT040 SCT200 FM110200 28007KT P6SM BKN050=
202307092322 TAF KPAE 092322Z 1000/1024 32006KT P6SM SCT100 FM100400 35007KT
                       P6SM SKC FM100900 16006KT P6SM SKC FM101200
                       17007KT P6SM OVC015 FM101800 21008KT P6SM
                       BKN022 FM102100 22008KT P6SM SCT035 SCT200=
202307091723 TAF KPAE 091723Z 0918/1018 34006KT P6SM SCT100 SCT200 FM100200
                       35008KT P6SM SCT200 FM100900 16006KT P6SM
                       SKC FM101300 17007KT P6SM OVC015=
202307091329 KPAE 091329Z 0913/1012 00000KT P6SM SKC FM091800 31006KT P6SM SCT120
                       SCT200 FM100200 35008KT P6SM SKC=
202307091120 TAF KPAE 091120Z 0912/1012 36004KT P6SM SKC FM091400 32004KT P6SM
                       BKN025 FM091800 31006KT P6SM SCT120 SCT200
                       FM100200 35008KT P6SM SKC=
202307090545 TAF KPAE 090545Z 0906/1006 36007KT P6SM SKC
                      TEMPO 0912/0914 01005KT P6SM SCT010 BKN030
                       FM091800 31006KT P6SM SCT120 SCT200 FM100200
                       35008KT P6SM SKC=
202307082321 TAF KPAE 082321Z 0900/0924 25006KT P6SM FEW150 FM090300 32006KT
                       P6SM FEW150 FM090500 35007KT P6SM SCT150
                       FM091300 33004KT P6SM SCT009 FM091800 30005KT
                       P6SM SCT120 SCT200=
202307081738 TAF KPAE 081738Z 0818/0918 24006KT P6SM BKN016
                      TEMPO 0818/0820 SCT020 FM082000 25006KT P6SM
                       SCT020 FM090100 32006KT P6SM SKC FM090500
                       35007KT P6SM SCT150 FM091300 30004KT P6SM
                       SCT007=
202307081122 TAF KPAE 081122Z 0812/0912 VRB03KT P6SM BKN050 FM081300 17004KT
                       P6SM BKN015 FM081700 22004KT P6SM SKC FM090500
                       35007KT P6SM BKN250=
202307080557 TAF KPAE 080557Z 0806/0906 36005KT P6SM SKC FM081100 VRB03KT P6SM
                       BKN015 FM081800 22004KT P6SM BKN250 FM090100
                       35005KT P6SM BKN250=
202307072344 TAF KPAE 072344Z 0800/0824 28010G15KT P6SM SKC FM081100 VRB03KT
                       P6SM BKN015 FM081800 21004KT P6SM BKN250=
202307072320 TAF KPAE 072320Z 0800/0824 33008KT P6SM SKC FM080600 VRB04KT P6SM
                       FEW060 FM081100 20003KT P6SM BKN015
                      TEMPO 0813/0816 OVC008 FM081800 21007KT P6SM
                       SKC=
202307072101 KPAE 072101Z 0721/0818 23010KT P6SM SKC FM072300 33008KT P6SM SKC
                       FM081100 VRB03KT P6SM BKN015
                      TEMPO 0813/0816 OVC010=
202307071744 TAF KPAE 071744Z 0718/0818 20010KT P6SM OVC012
                      TEMPO 0718/0721 BKN015 FM072100 33008KT P6SM
                       FEW250 FM081100 VRB03KT P6SM BKN015
                      TEMPO 0813/0816 OVC010=
202307071557 KPAE 071557Z 0716/0812 20010KT P6SM OVC008 FM072100 33008KT P6SM
                       SCT250 FM081100 VRB03KT P6SM BKN010=
202307071258 KPAE 071258Z 0713/0812 22006KT P6SM BKN010 FM072100 33008KT P6SM
                       SCT250 FM081100 VRB03KT P6SM BKN010=
202307071124 TAF KPAE 071124Z 0712/0812 VRB04KT P6SM SCT250 FM071400 19006KT
                       P6SM BKN010 FM072100 33008KT P6SM SCT250
                       FM081100 VRB03KT P6SM BKN010=
202307070536 TAF KPAE 070536Z 0706/0806 VRB04KT P6SM SCT250 FM071100 19006KT
                       P6SM SCT180 FM072100 24008KT P6SM SCT250
                       FM080000 35008KT P6SM BKN250=
202307062320 TAF KPAE 062320Z 0700/0724 VRB04KT P6SM SKC FM070100 36005KT P6SM
                       SCT250 FM071200 20004KT P6SM SCT250=
202307061742 TAF KPAE 061742Z 0618/0718 VRB04KT P6SM SKC FM062000 29006KT P6SM
                       SCT250 FM070100 36005KT P6SM SCT250 FM071200
                       20004KT P6SM SCT250=
202307061131 TAF KPAE 061131Z 0612/0712 VRB04KT P6SM SCT250 FM061900 29006KT
                       P6SM SCT250 FM070100 36005KT P6SM SCT250=
202307060536 TAF KPAE 060536Z 0606/0706 34006KT P6SM SKC=
202307052320 TAF KPAE 052320Z 0600/0624 36006KT P6SM SKC FM060500 01005KT P6SM
                       SKC FM061500 26004KT P6SM SKC=
202307051720 TAF KPAE 051720Z 0518/0618 35005KT P6SM SKC FM052000 34008KT P6SM
                       FEW200 FM060500 01005KT P6SM SKC=
202307051123 TAF KPAE 051123Z 0512/0612 VRB03KT 6SM HZ SKC FM052000 34008KT
                       P6SM FEW200 FM060500 01005KT P6SM SKC=
202307050528 TAF KPAE 050528Z 0506/0606 33004KT P6SM SKC FM052100 35008KT P6SM
                       SKC=
202307042339 TAF KPAE 042339Z 0500/0524 35010KT P6SM SKC FM050300 33004KT P6SM
                       SKC FM052100 33008KT P6SM SKC=
202307041732 TAF KPAE 041732Z 0418/0518 35010KT P6SM SKC FM050300 33004KT P6SM
                       SKC=
202307041120 TAF KPAE 041120Z 0412/0512 35008KT P6SM SKC=
202307040537 TAF KPAE 040537Z 0406/0506 35008KT P6SM SKC=
202307032328 TAF KPAE 032328Z 0400/0424 33010KT P6SM SKC FM040400 35004KT P6SM
                       SKC FM041800 34009KT P6SM SKC=
202307031720 TAF KPAE 031720Z 0318/0418 35010KT P6SM SKC FM040300 01004KT P6SM
                       SKC=
202307031120 TAF KPAE 031120Z 0312/0412 36004KT P6SM SKC FM031800 34010KT P6SM
                       SKC FM040300 01004KT P6SM SKC=
202307030520 TAF KPAE 030520Z 0306/0406 01006KT P6SM SKC FM031200 35004KT P6SM
                       SKC FM031800 34010KT P6SM SKC=
202307022337 TAF KPAE 022337Z 0300/0324 35008KT P6SM SKC FM030400 34004KT P6SM
                       SKC FM031800 34010KT P6SM SKC=
202307021728 TAF KPAE 021728Z 0218/0318 34008KT P6SM SKC FM030400 34004KT P6SM
                       SKC=
202307021120 TAF KPAE 021120Z 0212/0312 35006KT P6SM SKC=
202307020520 TAF KPAE 020520Z 0206/0306 36008G18KT P6SM FEW060 FM020800 36007KT
                       P6SM SKC FM021500 36003KT P6SM SKC=
202307012325 TAF KPAE 012325Z 0200/0224 34010G20KT P6SM SKC FM020400 36008KT
                       P6SM SKC FM020800 36005KT P6SM SKC FM021500
                       36003KT P6SM SKC=
202307011720 TAF KPAE 011720Z 0118/0218 35006KT P6SM SCT250 FM020000 34010KT
                       P6SM SKC FM020800 VRB03KT P6SM SKC FM021200
                       36003KT P6SM SKC=
202307011123 TAF KPAE 011123Z 0112/0212 01008KT P6SM BKN050 FM011500 VRB04KT
                       P6SM SCT050 SCT250 FM011800 35006KT P6SM
                       SCT250 FM020000 34010KT P6SM SKC FM020800
                       VRB03KT P6SM SKC=
202307010520 TAF KPAE 010520Z 0106/0206 01008G17KT P6SM FEW060 FM010900 01007KT
                       P6SM SKC FM011200 35004KT P6SM SKC FM020000
                       34010G20KT P6SM SKC=