##########################################################
# Query made at 02/15/2025 23:16:24 UTC
# Time interval: from 10/01/2024 00:00  to 10/31/2024 23:59  UTC
##########################################################

##########################################################
# KPAE, Everett, Snohomish County Airport (United States)
# WMO index: -----. WIGOS ID: Unknown
# Latitude 47-55-23N. Longitude 122-16-57W. Altitude 184 m.
##########################################################

###################################
#  METAR/SPECI from KPAE
###################################
202410312353 METAR KPAE 312353Z 17008KT 10SM OVC051 11/04 A2982 RMK AO2 SLP099 60000 T01060039 10117 20094 58011=
202410312253 METAR KPAE 312253Z 18011KT 10SM FEW028 BKN048 BKN060 11/04 A2983 RMK AO2 SLP104 T01110044=
202410312153 METAR KPAE 312153Z 16013G18KT 10SM FEW050 BKN110 11/03 A2984 RMK AO2 RAB20E37 SLP106 P0000 T01110033=
202410312053 METAR KPAE 312053Z 19009KT 10SM SCT029 OVC060 11/05 A2985 RMK AO2 SLP110 60000 T01060050 56005=
202410312048 SPECI KPAE 312048Z 20007KT 10SM SCT029 OVC060 11/05 A2985 RMK AO2=
202410312039 SPECI KPAE 312039Z 23007KT 10SM BKN029 BKN065 11/05 A2986 RMK AO2 T01060050=
202410311953 METAR KPAE 311953Z 20007KT 10SM BKN050 OVC065 11/04 A2986 RMK AO2 RAB05E38 SLP112 P0000 T01060044=
202410311853 METAR KPAE 311853Z 17005KT 10SM BKN041 BKN050 OVC065 11/04 A2987 RMK AO2 SLP116 T01060039=
202410311753 METAR KPAE 311753Z 15006KT 10SM OVC032 09/04 A2987 RMK AO2 SLP115 T00940044 10094 20072 58002=
202410311653 METAR KPAE 311653Z 14006KT 10SM BKN040 OVC049 08/04 A2987 RMK AO2 SLP117 T00830044=
202410311553 METAR KPAE 311553Z VRB03KT 10SM FEW035 07/04 A2987 RMK AO2 SLP117 T00720044=
202410311453 METAR KPAE 311453Z 14004KT 10SM SCT033 BKN055 07/05 A2987 RMK AO2 SLP117 T00720050 58005=
202410311353 METAR KPAE 311353Z AUTO 15006KT 10SM FEW028 OVC044 08/05 A2988 RMK AO2 SLP119 T00780050=
202410311342 SPECI KPAE 311342Z AUTO VRB05KT 10SM SCT028 OVC042 08/05 A2988 RMK AO2 T00780050=
202410311253 METAR KPAE 311253Z AUTO 15008KT 10SM BKN027 OVC044 08/04 A2988 RMK AO2 SLP121 T00780044=
202410311221 SPECI KPAE 311221Z AUTO 15008KT 10SM BKN023 OVC036 08/05 A2989 RMK AO2 T00780050=
202410311153 METAR KPAE 311153Z AUTO 15008KT 10SM OVC033 08/05 A2989 RMK AO2 SLP123 70003 T00780050 10083 20072 50003=
202410311123 SPECI KPAE 311123Z AUTO 16010KT 10SM SCT015 SCT024 OVC032 08/05 A2989 RMK AO2 T00780050=
202410311053 METAR KPAE 311053Z AUTO 14008KT 10SM BKN015 OVC037 08/05 A2989 RMK AO2 SLP124 T00780050=
202410311048 SPECI KPAE 311048Z AUTO 14007KT 10SM BKN015 OVC037 08/05 A2989 RMK AO2=
202410311019 SPECI KPAE 311019Z AUTO 16009KT 10SM SCT014 SCT035 BKN043 07/05 A2989 RMK AO2 T00720050=
202410310953 METAR KPAE 310953Z AUTO 15010KT 10SM OVC013 08/05 A2988 RMK AO2 SLP120 T00780050=
202410310942 SPECI KPAE 310942Z AUTO 15008KT 10SM BKN013 08/05 A2988 RMK AO2 T00780050=
202410310853 METAR KPAE 310853Z AUTO 16010KT 10SM FEW012 08/05 A2987 RMK AO2 SLP117 T00780050 50001=
202410310803 SPECI KPAE 310803Z AUTO 15011KT 10SM FEW021 SCT040 08/05 A2987 RMK AO2 T00780050=
202410310753 METAR KPAE 310753Z AUTO 15009KT 10SM SCT013 BKN021 BKN031 08/05 A2988 RMK AO2 SLP118 T00780050 401170067=
202410310653 METAR KPAE 310653Z AUTO 14008KT 10SM OVC013 08/05 A2987 RMK AO2 SLP117 T00780050=
202410310635 SPECI KPAE 310635Z AUTO 14006KT 10SM BKN013 08/05 A2987 RMK AO2 T00780050=
202410310553 METAR KPAE 310553Z AUTO 15009KT 10SM CLR 08/05 A2987 RMK AO2 SLP117 60000 T00780050 10089 20078 51006=
202410310453 METAR KPAE 310453Z AUTO 15010KT 10SM FEW033 08/06 A2987 RMK AO2 SLP116 T00780056=
202410310353 METAR KPAE 310353Z AUTO 15009KT 10SM SCT070 BKN080 OVC100 08/07 A2986 RMK AO2 SLP112 T00830067=
202410310253 METAR KPAE 310253Z 14008KT 10SM SCT018 SCT048 OVC090 09/06 A2985 RMK AO2 SLP111 60000 T00890061 51014=
202410310155 SPECI KPAE 310155Z 15009KT 10SM FEW018 SCT043 BKN110 09/06 A2985 RMK AO2 T00890061=
202410310153 METAR KPAE 310153Z 15009KT 10SM BKN012 OVC038 09/06 A2985 RMK AO2 SLP109 T00890061=
202410310055 SPECI KPAE 310055Z 16013G21KT 10SM BKN012 OVC038 09/06 A2983 RMK AO2 T00890061=
202410310053 METAR KPAE 310053Z 16014KT 10SM OVC035 09/06 A2983 RMK AO2 RAE2358 SLP102 P0000 T00890061=
202410302353 METAR KPAE 302353Z 15011KT 10SM -RA OVC035 09/06 A2981 RMK AO2 SLP096 P0001 60003 T00890061 10117 20089 53002=
202410302253 METAR KPAE 302253Z 16009KT 8SM -RA OVC036 09/06 A2980 RMK AO2 SLP094 P0000 T00890061=
202410302153 METAR KPAE 302153Z 16010KT 7SM -RA BKN045 OVC055 09/07 A2980 RMK AO2 SLP094 P0002 T00890067=
202410302053 METAR KPAE 302053Z 19007KT 8SM -RA SCT015 BKN045 OVC060 09/06 A2981 RMK AO2 RAB1955 SLP095 P0000 60000 T00940061 53009=
202410301959 SPECI KPAE 301959Z 20008KT 10SM -RA SCT015 BKN045 OVC060 11/05 A2980 RMK AO2 RAB55 P0000 T01110050=
202410301953 METAR KPAE 301953Z 19008KT 10SM BKN013 BKN050 OVC065 11/04 A2979 RMK AO2 RAE51 SLP089 P0000 T01110044=
202410301859 SPECI KPAE 301859Z 17012G23KT 10SM -RA BKN013 BKN050 OVC065 12/03 A2979 RMK AO2 P0000 T01170028=
202410301853 METAR KPAE 301853Z 16016G23KT 10SM -RA BKN055 OVC065 12/02 A2979 RMK AO2 RAB26 SLP090 P0000 T01170022=
202410301753 METAR KPAE 301753Z VRB05KT 10SM BKN055 OVC070 11/01 A2978 RMK AO2 SLP086 T01110011 10111 20067 55010=
202410301653 METAR KPAE 301653Z 15010KT 10SM SCT090 OVC110 10/02 A2978 RMK AO2 SLP084 T01000017=
202410301553 METAR KPAE 301553Z 14007KT 090V160 10SM OVC100 09/03 A2979 RMK AO2 SLP089 T00940028=
202410301453 METAR KPAE 301453Z 10SM SCT110 09/02 A2981 RMK AO2 SLP096 T00890022 58024=
202410301353 METAR KPAE 301353Z VRB04KT 10SM SCT110 08/03 A2984 RMK AO2 SLP105 T00780028=
202410301253 METAR KPAE 301253Z AUTO 11007KT 10SM CLR 07/03 A2986 RMK AO2 SLP115 T00720028=
202410301153 METAR KPAE 301153Z AUTO 11007KT 10SM CLR 07/03 A2988 RMK AO2 SLP120 7//// T00720033 10078 20067 56027=
202410301053 METAR KPAE 301053Z AUTO 11008KT 10SM CLR 07/03 A2990 RMK AO2 SLP127 T00670033=
202410300953 METAR KPAE 300953Z AUTO 11008KT 10SM CLR 07/03 A2994 RMK AO2 SLP139 T00720033=
202410300853 METAR KPAE 300853Z AUTO 12005KT 10SM CLR 07/04 A2996 RMK AO2 SLP148 T00670039 58018=
202410300753 METAR KPAE 300753Z AUTO 11006KT 10SM FEW041 07/04 A2999 RMK AO2 SLP156 T00670039 401220067=
202410300653 METAR KPAE 300653Z AUTO VRB03KT 10SM SCT037 07/04 A3000 RMK AO2 SLP161 T00720044=
202410300553 METAR KPAE 300553Z AUTO VRB03KT 10SM CLR 08/05 A3002 RMK AO2 SLP167 T00780050 10117 20078 56012=
202410300453 METAR KPAE 300453Z VRB05KT 10SM CLR 08/06 A3003 RMK AO2 SLP171 T00830056=
202410300353 METAR KPAE 300353Z VRB03KT 10SM BKN060 09/06 A3004 RMK AO2 SLPNO T00890056=
202410300253 METAR KPAE 300253Z VRB04KT 10SM CLR 09/06 A3005 RMK AO2 SLP179 T00940056 58005=
202410300153 METAR KPAE 300153Z VRB05KT 10SM SCT060 10/06 A3006 RMK AO2 SLP181 T01000061=
202410300053 METAR KPAE 300053Z 18006KT 10SM FEW031 10/04 A3007 RMK AO2 SLP183 T01000044=
202410292353 METAR KPAE 292353Z 16007KT 10SM SCT030 12/04 A3007 RMK AO2 SLP182 60001 T01170039 10122 20100 56013=
202410292253 METAR KPAE 292253Z 18007KT 10SM FEW021 BKN060 12/07 A3008 RMK AO2 SLP186 T01220067=
202410292208 SPECI KPAE 292208Z 17009KT 10SM SCT008 BKN051 12/07 A3009 RMK AO2 T01170072=
202410292153 METAR KPAE 292153Z 00000KT 10SM BKN007 BKN027 OVC060 11/08 A3009 RMK AO2 RAE14 SLP191 P0000 T01110078=
202410292053 METAR KPAE 292053Z 18006KT 10SM -RA BKN007 BKN027 OVC060 11/08 A3011 RMK AO2 RAB17E30B46 SLP195 P0000 60001 T01110078 56006=
202410291953 METAR KPAE 291953Z 16007KT 10SM BKN007 OVC042 11/07 A3011 RMK AO2 RAE39 SLP198 P0000 T01060072=
202410291949 SPECI KPAE 291949Z 16004KT 10SM BKN007 OVC042 11/07 A3011 RMK AO2 RAE39 P0000=
202410291900 SPECI KPAE 291900Z 15005KT 6SM -RA FEW038 OVC049 10/07 A3012 RMK AO2 P0000 T01000072=
202410291853 METAR KPAE 291853Z 16008KT 6SM -RA BKN003 BKN042 OVC055 10/07 A3012 RMK AO2 RAB1757 SLP202 P0001 T01000067=
202410291753 METAR KPAE 291753Z 15006KT 10SM BKN003 BKN049 OVC060 08/07 A3012 RMK AO2 SLP200 6//// T00780072 51009=
202410291653 METAR KPAE 291653Z 16005KT 10SM BKN003 BKN049 OVC060 08/07 A3012 RMK AO2 SLP200 T00780072 PNO $=
202410291641 SPECI KPAE 291641Z 16006KT 3SM BR BKN003 OVC049 08/07 A3011 RMK AO2 T00780072 PNO $=
202410291613 SPECI KPAE 291613Z 16005KT SCT004 OVC049 A3011 RMK AO2 PNO $=
202410291600 SPECI KPAE 291600Z 00000KT OVC049 A3010 RMK AO2 PNO $=
202410291553 METAR KPAE 291553Z 15004KT 3SM BR BKN003 OVC049 A3010 RMK AO2 SLPNO PNO $=
202410291520 SPECI KPAE 291520Z 17003KT 2SM BR BKN002 OVC055 09/08 A3009 RMK AO2 T00890078=
202410291512 SPECI KPAE 291512Z 14005KT 2SM BR SCT002 OVC060 09/07 A3009 RMK AO2 T00890072=
202410291453 METAR KPAE 291453Z VRB03KT 1SM R16R/P6000FT BR BKN002 OVC060 09/08 A3009 RMK AO2 SLP191 T00890078 53005=
202410291451 SPECI KPAE 291451Z 15004KT 1SM R16R/P6000FT BR BKN002 OVC060 09/08 A3009 RMK AO2=
202410291434 SPECI KPAE 291434Z 00000KT 1/2SM R16R/P6000FT FG BKN001 OVC060 09/08 A3009 RMK AO2 T00890078=
202410291428 SPECI KPAE 291428Z 00000KT 1SM R16R/P6000FT BR BKN001 OVC060 09/07 A3009 RMK AO2 T00890072=
202410291417 SPECI KPAE 291417Z 00000KT 1SM R16R/4000VP6000FT BR OVC002 09/08 A3009 RMK AO2 T00890078=
202410291409 SPECI KPAE 291409Z 00000KT 1/2SM R16R/4000VP6000FT FG VV002 09/07 A3009 RMK AO2 T00890072=
202410291357 SPECI KPAE 291357Z 00000KT 1/2SM R16R/3500V4500FT FG BKN001 OVC022 08/07 A3009 RMK AO2 T00830072=
202410291353 METAR KPAE 291353Z 00000KT 1/4SM R16R/3000V4500FT FG BKN002 OVC022 08/07 A3008 RMK AO2 SLP188 T00830072=
202410291348 SPECI KPAE 291348Z 00000KT 1/4SM R16R/2800V4500FT FG OVC002 08/07 A3008 RMK AO2=
202410291331 SPECI KPAE 291331Z 14003KT 1/2SM R16R/2400V4000FT FG VV002 09/07 A3008 RMK AO2 T00890072=
202410291324 SPECI KPAE 291324Z 14004KT 1SM R16R/3000V4500FT BR VV002 09/08 A3008 RMK AO2 T00890078=
202410291315 SPECI KPAE 291315Z 00000KT 2SM R16R/4500VP6000FT BR BKN003 09/08 A3008 RMK AO2 T00890078=
202410291312 SPECI KPAE 291312Z 00000KT 3SM R16R/4500VP6000FT BR SCT003 09/08 A3008 RMK AO2 T00890078=
202410291300 SPECI KPAE 291300Z 00000KT 10SM R16R/5000VP6000FT CLR 09/07 A3008 RMK AO2 T00890072=
202410291253 METAR KPAE 291253Z 00000KT 2 1/2SM R16R/3000VP6000FT BR CLR 09/07 A3008 RMK AO2 SLP186 T00890072=
202410291243 SPECI KPAE 291243Z 00000KT 1 1/2SM BR FEW050 08/07 A3007 RMK AO2 VIS 1/2V5 T00780067=
202410291153 METAR KPAE 291153Z 00000KT 10SM FEW012 OVC050 09/07 A3007 RMK AO2 SLP183 60001 70002 T00890072 10100 20083 51006=
202410291148 SPECI KPAE 291148Z 00000KT 10SM SCT012 OVC050 09/07 A3007 RMK AO2=
202410291116 SPECI KPAE 291116Z 00000KT 10SM BKN013 BKN025 OVC050 09/08 A3007 RMK AO2 T00940078=
202410291053 METAR KPAE 291053Z 00000KT 10SM FEW006 BKN015 OVC050 09/08 A3006 RMK AO2 SLP180 T00940078=
202410291043 SPECI KPAE 291043Z 28003KT 10SM FEW009 OVC015 09/08 A3006 RMK AO2 T00940078=
202410291013 SPECI KPAE 291013Z 30003KT 10SM FEW007 BKN014 OVC027 09/08 A3006 RMK AO2 T00940078=
202410291000 SPECI KPAE 291000Z 26004KT 10SM BKN010 BKN017 OVC025 09/08 A3005 RMK AO2 T00940078=
202410290953 METAR KPAE 290953Z 28003KT 10SM BKN009 OVC017 09/08 A3005 RMK AO2 CIG 008V013 SLP177 T00940078=
202410290938 SPECI KPAE 290938Z 28003KT 10SM OVC009 09/08 A3005 RMK AO2 T00940078=
202410290911 SPECI KPAE 290911Z 19003KT 10SM BKN010 OVC055 08/07 A3005 RMK AO2 T00830067=
202410290853 METAR KPAE 290853Z 00000KT 10SM FEW009 OVC060 09/07 A3004 RMK AO2 RAB01E18 SLP175 P0000 60001 T00940072 51003=
202410290834 SPECI KPAE 290834Z 00000KT 10SM FEW009 FEW036 OVC060 09/08 A3005 RMK AO2 RAB01E18 P0000 T00940078=
202410290753 METAR KPAE 290753Z 28003KT 10SM SCT013 BKN030 OVC055 09/08 A3004 RMK AO2 RAE0658 SLP174 P0000 T00940078 401330094=
202410290750 SPECI KPAE 290750Z 28003KT 10SM SCT013 BKN030 OVC055 09/08 A3004 RMK AO2 RAE0658 P0000=
202410290729 SPECI KPAE 290729Z 00000KT 10SM BKN013 BKN019 OVC036 10/08 A3005 RMK AO2 RAE0658 P0000 T01000078=
202410290653 METAR KPAE 290653Z 00000KT 9SM -RA FEW010 SCT026 OVC047 10/08 A3004 RMK AO2 RAB04 SLP172 P0001 T01000078=
202410290553 METAR KPAE 290553Z 36003KT 10SM OVC050 10/07 A3003 RMK AO2 SLP169 60001 T01000072 10117 20100 53013=
202410290453 METAR KPAE 290453Z 32003KT 10SM FEW015 OVC036 10/07 A3001 RMK AO2 RAB14E27 SLP164 P0000 T01000072=
202410290400 SPECI KPAE 290400Z 01004KT 10SM BKN032 BKN039 OVC055 11/07 A3000 RMK AO2 T01060072=
202410290353 METAR KPAE 290353Z 02003KT 10SM BKN009 OVC023 11/07 A3000 RMK AO2 RAB02E26 SLP160 P0001 T01060072=
202410290253 METAR KPAE 290253Z 32004KT 10SM BKN009 BKN046 OVC065 11/07 A2999 RMK AO2 SLP155 60000 T01060072 53017=
202410290156 SPECI KPAE 290156Z 33004KT 10SM BKN009 BKN046 OVC065 11/08 A2997 RMK AO2 T01110083=
202410290153 METAR KPAE 290153Z 33005KT 10SM SCT009 BKN035 OVC060 11/08 A2997 RMK AO2 SLP148 T01110083=
202410290116 SPECI KPAE 290116Z 28003KT 10SM SCT009 BKN035 OVC060 11/07 A2996 RMK AO2 T01060072=
202410290053 METAR KPAE 290053Z 00000KT 10SM FEW035 BKN060 11/08 A2995 RMK AO2 RAE2358 SLP143 P0000 T01110078=
202410282353 METAR KPAE 282353Z 20006KT 10SM -RA FEW036 BKN075 OVC090 12/08 A2994 RMK AO2 RAB30 SLP138 P0000 60000 T01170078 10133 20111 53002=
202410282342 SPECI KPAE 282342Z 20008KT 10SM -RA SCT021 BKN070 OVC090 12/08 A2994 RMK AO2 RAB30 P0000 T01220078=
202410282253 METAR KPAE 282253Z 20005KT 10SM SCT012 BKN020 BKN070 12/07 A2994 RMK AO2 SLP138 T01220072=
202410282153 METAR KPAE 282153Z 19008KT 10SM BKN018 OVC031 12/07 A2993 RMK AO2 SLP135 T01220067=
202410282053 METAR KPAE 282053Z 19009KT 10SM BKN018 BKN028 12/07 A2993 RMK AO2 SLP136 T01220072 50002=
202410281953 METAR KPAE 281953Z 19008KT 10SM OVC025 12/07 A2994 RMK AO2 SLP138 T01170067=
202410281853 METAR KPAE 281853Z 19012KT 10SM BKN017 OVC023 12/07 A2993 RMK AO2 SLP135 T01170067=
202410281753 METAR KPAE 281753Z 19012KT 10SM BKN015 OVC021 11/07 A2992 RMK AO2 SLP134 T01110072 10111 20100 51011=
202410281653 METAR KPAE 281653Z 19011KT 10SM OVC012 11/07 A2992 RMK AO2 SLP132 T01060067=
202410281553 METAR KPAE 281553Z 18011KT 10SM OVC012 10/07 A2990 RMK AO2 SLP127 T01000067=
202410281453 METAR KPAE 281453Z 16010KT 10SM BKN013 OVC019 10/07 A2989 RMK AO2 SLP122 T01000067 53007=
202410281353 METAR KPAE 281353Z 16008KT 10SM BKN013 OVC020 10/07 A2988 RMK AO2 SLP118 T01000067=
202410281308 SPECI KPAE 281308Z 17009KT 10SM BKN014 OVC022 10/07 A2988 RMK AO2 T01000067=
202410281253 METAR KPAE 281253Z 17010KT 10SM SCT014 OVC020 10/07 A2987 RMK AO2 SLP116 T01000067=
202410281153 METAR KPAE 281153Z 17011KT 10SM OVC011 10/07 A2987 RMK AO2 SLP115 70013 T01000072 10106 20100 55002=
202410281053 METAR KPAE 281053Z 19009KT 10SM OVC012 10/07 A2986 RMK AO2 SLP113 T01000072=
202410281009 SPECI KPAE 281009Z 18011KT 10SM OVC014 10/07 A2987 RMK AO2 T01000067=
202410280953 METAR KPAE 280953Z 18010KT 10SM OVC016 10/07 A2987 RMK AO2 SLP115 T01000067=
202410280853 METAR KPAE 280853Z 17013KT 10SM OVC017 10/07 A2987 RMK AO2 SLP116 T01000067 51013=
202410280753 METAR KPAE 280753Z 18016G20KT 10SM FEW017 BKN022 BKN090 10/07 A2987 RMK AO2 SLP114 T01000067 401440100=
202410280708 SPECI KPAE 280708Z 18015G21KT 10SM BKN019 BKN110 10/06 A2986 RMK AO2 T01000061=
202410280653 METAR KPAE 280653Z 17012G20KT 10SM FEW021 SCT110 10/07 A2985 RMK AO2 SLP109 T01000067=
202410280553 METAR KPAE 280553Z 18017G23KT 10SM SCT090 BKN110 11/07 A2984 RMK AO2 PK WND 18027/0536 SLP103 60000 T01060072 10111 20100 50006=
202410280453 METAR KPAE 280453Z 17013G23KT 10SM FEW021 BKN070 BKN095 11/08 A2984 RMK AO2 SLP106 T01060078=
202410280353 METAR KPAE 280353Z 18015KT 10SM CLR 11/07 A2983 RMK AO2 RAE0254 SLP101 P0000 T01060072=
202410280253 METAR KPAE 280253Z 19016KT 10SM -RA FEW015 SCT065 BKN095 11/08 A2982 RMK AO2 SLP098 P0000 60000 T01060078 50005=
202410280153 METAR KPAE 280153Z 19016G27KT 10SM -RA CLR 11/07 A2983 RMK AO2 PK WND 18027/0148 SLP101 P0000 T01060067=
202410280053 METAR KPAE 280053Z 18014G23KT 10SM -RA OVC110 11/07 A2981 RMK AO2 SLP096 P0000 T01060072=
202410272353 METAR KPAE 272353Z 18018G24KT 10SM -RA OVC090 11/07 A2980 RMK AO2 PK WND 18027/2301 SLP092 P0000 60004 T01110072 10133 20111 56008=
202410272253 METAR KPAE 272253Z 18017G26KT 10SM -RA SCT060 BKN075 OVC090 12/08 A2980 RMK AO2 PK WND 19030/2205 SLP092 P0000 T01170078=
202410272153 METAR KPAE 272153Z 18019G29KT 10SM -RA FEW041 FEW055 12/09 A2981 RMK AO2 PK WND 20030/2124 SLP093 P0003 T01220089=
202410272053 METAR KPAE 272053Z 19016KT 10SM -RA FEW032 BKN050 OVC065 13/09 A2983 RMK AO2 PK WND 19026/1956 SLP099 P0001 60001 T01280089 58003=
202410271953 METAR KPAE 271953Z 19018G27KT 10SM -RA FEW021 BKN030 BKN038 13/09 A2985 RMK AO2 PK WND 18028/1937 RAB49 SLP106 P0000 T01280089=
202410271936 SPECI KPAE 271936Z 19018G24KT 10SM SCT024 BKN038 BKN050 13/08 A2985 RMK AO2 PK WND 20027/1905 T01330083=
202410271853 METAR KPAE 271853Z 20016G24KT 10SM BKN022 OVC041 13/08 A2985 RMK AO2 PK WND 18028/1837 SLP106 T01280083=
202410271813 SPECI KPAE 271813Z 17014G23KT 10SM BKN020 BKN030 BKN041 13/08 A2984 RMK AO2 T01280083=
202410271753 METAR KPAE 271753Z 16013G22KT 10SM FEW028 SCT036 13/08 A2984 RMK AO2 PK WND 18036/1654 SLP102 60009 T01280078 10128 20106 51019=
202410271653 METAR KPAE 271653Z 18022G31KT 10SM CLR 12/08 A2982 RMK AO2 PK WND 18033/1641 SLP098 T01170078=
202410271553 METAR KPAE 271553Z 17015G24KT 10SM FEW015 11/08 A2980 RMK AO2 PK WND 15031/1540 SLP091 T01110078=
202410271453 METAR KPAE 271453Z 19020G28KT 10SM SCT012 11/08 A2978 RMK AO2 PK WND 20030/1410 SLP083 60009 T01060078 53010=
202410271353 METAR KPAE 271353Z 19023G33KT 10SM SCT012 BKN110 11/08 A2974 RMK AO2 PK WND 18039/1309 RAB19E28 SLP071 P0001 T01110083=
202410271326 SPECI KPAE 271326Z AUTO 17024G32KT 10SM -RA BKN012 OVC018 11/09 A2974 RMK AO2 PK WND 18039/1309 RAB19 P0001 T01110089=
202410271306 SPECI KPAE 271306Z AUTO 19024G33KT 10SM SCT009 BKN015 BKN060 12/09 A2977 RMK AO2 PK WND 18033/1255 PRESRR T01170089=
202410271253 METAR KPAE 271253Z AUTO 17022G35KT 10SM SCT009 BKN060 12/09 A2975 RMK AO2 PK WND 17035/1252 RAE47 SLP073 P0008 T01170094=
202410271232 SPECI KPAE 271232Z AUTO 16012G25KT 10SM -RA FEW013 SCT025 OVC060 12/09 A2971 RMK AO2 P0008 T01170094=
202410271211 SPECI KPAE 271211Z AUTO 18014G18KT 4SM -RA BR SCT012 BKN020 OVC035 12/11 A2972 RMK AO2 P0006 T01220106=
202410271153 METAR KPAE 271153Z AUTO 17007KT 2SM RA BR SCT003 BKN018 OVC031 12/10 A2972 RMK AO2 SLP062 P0020 60053 70067 T01170100 10144 20117 53004=
202410271149 SPECI KPAE 271149Z AUTO 23004KT 2 1/2SM RA BR SCT003 OVC018 12/10 A2972 RMK AO2 PRESRR P0017=
202410271139 SPECI KPAE 271139Z AUTO 27003KT 5SM -RA BR BKN003 BKN007 OVC015 12/10 A2970 RMK AO2 P0013 T01170100=
202410271131 SPECI KPAE 271131Z AUTO 36008KT 4SM -RA BR BKN005 OVC015 12/11 A2970 RMK AO2 P0012 T01220106=
202410271124 SPECI KPAE 271124Z AUTO VRB05G15KT 2 1/2SM RA BR BKN005 BKN015 OVC044 13/11 A2969 RMK AO2 P0011 T01280111=
202410271117 SPECI KPAE 271117Z AUTO 28009G19KT 250V320 3SM RA BR SCT005 BKN029 OVC046 13/11 A2969 RMK AO2 P0008 T01330111=
202410271053 METAR KPAE 271053Z AUTO 19012KT 10SM -RA FEW028 BKN060 OVC070 14/12 A2968 RMK AO2 SLP048 P0005 T01390117=
202410270953 METAR KPAE 270953Z AUTO 17010KT 9SM -RA FEW060 OVC070 14/12 A2967 RMK AO2 SLP046 P0016 T01390117=
202410270920 SPECI KPAE 270920Z AUTO 18012G20KT 7SM -RA SCT008 BKN042 OVC065 14/12 A2968 RMK AO2 PRESFR P0012 T01390117=
202410270853 METAR KPAE 270853Z AUTO 19009KT 5SM RA BR OVC005 14/12 A2971 RMK AO2 RAE11B34 SLP059 P0004 60012 T01390122 58030=
202410270805 SPECI KPAE 270805Z AUTO 15011KT 10SM -RA BKN006 BKN048 OVC065 14/12 A2972 RMK AO2 P0000 T01390122=
202410270753 METAR KPAE 270753Z AUTO 15013KT 7SM -RA SCT006 BKN024 OVC065 14/12 A2973 RMK AO2 SLP067 P0005 T01440122 401440111=
202410270724 SPECI KPAE 270724Z AUTO 16012G18KT 6SM -RA BR BKN006 OVC011 14/12 A2976 RMK AO2 CIG 004V008 P0001 T01390122=
202410270653 METAR KPAE 270653Z AUTO 16010G18KT 10SM -RA FEW008 OVC013 14/12 A2977 RMK AO2 SLP081 P0003 T01390122=
202410270634 SPECI KPAE 270634Z AUTO 14011G20KT 9SM -RA FEW006 SCT011 OVC017 14/12 A2978 RMK AO2 P0002 T01390122=
202410270622 SPECI KPAE 270622Z AUTO 15010KT 9SM -RA FEW006 BKN011 OVC022 14/12 A2978 RMK AO2 P0001 T01390122=
202410270606 SPECI KPAE 270606Z AUTO 17008KT 10SM -RA BKN009 OVC042 14/12 A2979 RMK AO2 CIG 005V015 P0001 T01390122=
202410270603 SPECI KPAE 270603Z AUTO 15006KT 10SM -RA BKN011 OVC042 14/12 A2979 RMK AO2 P0000 T01390122=
202410270553 METAR KPAE 270553Z AUTO 15010KT 10SM -RA SCT009 BKN039 OVC046 14/12 A2980 RMK AO2 RAB41 SLP089 P0000 60007 T01390122 10144 20139 55023=
202410270532 SPECI KPAE 270532Z AUTO 14011G19KT 10SM FEW008 SCT015 OVC047 14/12 A2980 RMK AO2 T01440117=
202410270453 METAR KPAE 270453Z AUTO 15012G23KT 10SM SCT008 BKN014 BKN080 14/12 A2979 RMK AO2 RAE44 PRESFR SLP086 P0004 T01440117=
202410270431 SPECI KPAE 270431Z AUTO 15014G19KT 7SM -RA FEW007 BKN070 OVC090 14/12 A2981 RMK AO2 P0004 T01390122=
202410270353 METAR KPAE 270353Z 14012G19KT 10SM -RA SCT011 BKN080 OVC100 14/12 A2983 RMK AO2 RAE0259B22 SLP100 P0001 T01440122=
202410270253 METAR KPAE 270253Z 15013G20KT 10SM -RA FEW033 SCT040 OVC085 14/12 A2986 RMK AO2 SLP112 P0001 60002 T01440122 56022=
202410270153 METAR KPAE 270153Z 15012KT 9SM -RA FEW050 BKN080 OVC100 14/12 A2988 RMK AO2 RAB23E32B51 SLP117 P0001 T01440117=
202410270053 METAR KPAE 270053Z 15012KT 10SM BKN009 14/12 A2990 RMK AO2 SLP126 T01390117=
202410270020 SPECI KPAE 270020Z 15011G16KT 10SM OVC007 14/12 A2992 RMK AO2 T01390117=
202410270013 SPECI KPAE 270013Z 14010KT 10SM SCT007 BKN015 OVC024 14/12 A2993 RMK AO2 T01390117=
202410262353 METAR KPAE 262353Z 15012KT 10SM OVC009 14/12 A2993 RMK AO2 SLP135 60004 T01390117 10139 20128 56016=
202410262314 SPECI KPAE 262314Z 17006KT 10SM OVC009 14/12 A2994 RMK AO2 T01390117=
202410262307 SPECI KPAE 262307Z 15009KT 10SM SCT008 BKN028 OVC100 14/12 A2994 RMK AO2 T01390117=
202410262253 METAR KPAE 262253Z 16011KT 10SM SCT010 BKN038 OVC100 14/11 A2993 RMK AO2 RAE27 SLP136 P0000 T01390111=
202410262238 SPECI KPAE 262238Z 17010KT 10SM SCT008 BKN034 OVC090 14/11 A2994 RMK AO2 RAE27 P0000 T01390111=
202410262153 METAR KPAE 262153Z 19009KT 2SM -RA FEW024 BKN031 OVC041 14/11 A2996 RMK AO2 RAE08B49 SLP144 P0001 T01390106=
202410262053 METAR KPAE 262053Z 14007KT 10SM -RA SCT006 OVC055 13/11 A2998 RMK AO2 RAB52 SLP152 P0000 60003 T01330106 58010=
202410261953 METAR KPAE 261953Z 15010G16KT 10SM SCT006 BKN055 OVC070 13/11 A3000 RMK AO2 RAB1857E48 SLP160 P0003 T01330111=
202410261926 SPECI KPAE 261926Z 16015G21KT 2 1/2SM -RA BR SCT006 BKN042 13/11 A3002 RMK AO2 RAB1857 P0003 T01280106=
202410261853 METAR KPAE 261853Z 15011G18KT 10SM SCT006 OVC050 13/11 A3000 RMK AO2 RAB30E42 SLP160 P0000 T01280106=
202410261758 SPECI KPAE 261758Z VRB04KT 10SM SCT006 OVC050 13/11 A3001 RMK AO2 T01330106=
202410261753 METAR KPAE 261753Z 14007G17KT 10SM OVC044 13/11 A3001 RMK AO2 RAB1659E49 SLP162 P0000 60003 T01330106 10144 20133 50012=
202410261653 METAR KPAE 261653Z 14006KT 10SM SCT010 OVC051 13/11 A3002 RMK AO2 RAE46 SLP164 P0000 T01330111=
202410261553 METAR KPAE 261553Z VRB05KT 6SM -RA BKN040 OVC047 13/11 A2999 RMK AO2 RAB1454 SLP155 P0003 T01330106=
202410261453 METAR KPAE 261453Z 15008KT 10SM SCT038 OVC051 13/11 A2997 RMK AO2 RAB40E48 SLP149 P0000 60000 T01330111 53021=
202410261353 METAR KPAE 261353Z 16015G24KT 10SM FEW007 BKN051 14/12 A2996 RMK AO2 PK WND 17026/1255 SLP142 T01390117=
202410261253 METAR KPAE 261253Z AUTO 16019G28KT 10SM SCT009 BKN080 14/12 A2993 RMK AO2 PK WND 16030/1242 SLP132 T01390117=
202410261209 SPECI KPAE 261209Z AUTO 16013G28KT 10SM SCT009 BKN013 BKN027 14/12 A2991 RMK AO2 PK WND 15028/1201 T01390122=
202410261202 SPECI KPAE 261202Z AUTO 16019G28KT 10SM FEW005 BKN028 OVC085 14/12 A2991 RMK AO2 PK WND 15028/1201 T01390122=
202410261153 METAR KPAE 261153Z AUTO 16018G27KT 10SM FEW012 BKN028 BKN085 14/12 A2991 RMK AO2 PK WND 14032/1115 RAB1057E19 SLP127 P0000 60015 70016 T01390117 10144 20111 51022=
202410261129 SPECI KPAE 261129Z AUTO 16017G29KT 9SM SCT020 OVC032 14/12 A2990 RMK AO2 PK WND 14032/1115 RAB1057E19 P0000 T01390117=
202410261053 METAR KPAE 261053Z AUTO 15016KT 10SM OVC027 14/11 A2989 RMK AO2 RAE45 SLP120 P0002 T01440111=
202410261028 SPECI KPAE 261028Z AUTO 15015KT 6SM -RA BKN027 OVC032 14/11 A2988 RMK AO2 P0002 T01390106=
202410260953 METAR KPAE 260953Z AUTO 15010KT 6SM -RA OVC030 12/09 A2987 RMK AO2 SLP112 P0002 T01220094=
202410260853 METAR KPAE 260853Z AUTO 11007KT 5SM -RA OVC036 11/08 A2984 RMK AO2 SLP105 P0004 60011 T01110083 53016=
202410260753 METAR KPAE 260753Z AUTO 13007G18KT 090V160 5SM -RA OVC050 12/07 A2981 RMK AO2 SLP092 P0005 T01220067 401830061=
202410260653 METAR KPAE 260653Z AUTO 15016G23KT 10SM -RA FEW046 BKN070 OVC090 14/03 A2979 RMK AO2 RAB0555 SLP086 P0002 T01390033=
202410260553 METAR KPAE 260553Z AUTO 15010G14KT 10SM SCT065 OVC080 14/02 A2980 RMK AO2 RAB04E53 SLP089 P0001 60001 T01440017 10178 20139 56005=
202410260453 METAR KPAE 260453Z AUTO 15006KT 10SM OVC100 15/01 A2980 RMK AO2 SLP093 T01500006=
202410260353 METAR KPAE 260353Z 12008G17KT 090V150 10SM CLR 14/02 A2979 RMK AO2 SLP088 T01440017=
202410260253 METAR KPAE 260253Z 10SM CLR 15/03 A2981 RMK AO2 SLP096 T01500028 55006=
202410260153 METAR KPAE 260153Z VRB04KT 10SM CLR 16/03 A2981 RMK AO2 SLP095 T01560033=
202410260053 METAR KPAE 260053Z 11007KT 10SM CLR 17/03 A2981 RMK AO2 SLP096 T01720028=
202410252353 METAR KPAE 252353Z 00000KT 10SM CLR 17/03 A2983 RMK AO2 SLP102 T01720033 10183 20106 56019=
202410252253 METAR KPAE 252253Z 10006KT 10SM CLR 18/02 A2984 RMK AO2 SLP106 T01780017=
202410252153 METAR KPAE 252153Z 00000KT 10SM CLR 17/01 A2987 RMK AO2 SLP116 T01720011=
202410252053 METAR KPAE 252053Z 15004KT 10SM CLR 16/01 A2989 RMK AO2 SLP122 T01560006 58023=
202410251953 METAR KPAE 251953Z 10004KT 10SM CLR 15/01 A2992 RMK AO2 SLP131 T01500011=
202410251853 METAR KPAE 251853Z 00000KT 10SM CLR 14/03 A2995 RMK AO2 SLP141 T01390028=
202410251753 METAR KPAE 251753Z 00000KT 10SM CLR 11/05 A2996 RMK AO2 SLP147 T01060050 10111 20061 58007=
202410251653 METAR KPAE 251653Z 00000KT 10SM CLR 08/04 A2998 RMK AO2 SLP153 T00830044=
202410251553 METAR KPAE 251553Z 01005KT 10SM CLR 07/04 A2998 RMK AO2 SLP155 T00720044=
202410251453 METAR KPAE 251453Z 01004KT 10SM CLR 06/03 A2998 RMK AO2 SLP154 T00610028 56017=
202410251353 METAR KPAE 251353Z 02003KT 10SM CLR 07/03 A2999 RMK AO2 SLP158 T00670033=
202410251253 METAR KPAE 251253Z AUTO 01003KT 10SM CLR 07/04 A3002 RMK AO2 SLP166 T00670039=
202410251153 METAR KPAE 251153Z AUTO 01003KT 10SM CLR 07/04 A3003 RMK AO2 SLP171 T00670039 10083 20061 56021=
202410251053 METAR KPAE 251053Z AUTO 01005KT 10SM CLR 07/04 A3005 RMK AO2 SLP176 T00670044=
202410250953 METAR KPAE 250953Z AUTO 35005KT 10SM CLR 07/04 A3007 RMK AO2 SLP185 T00670044=
202410250853 METAR KPAE 250853Z AUTO 00000KT 10SM CLR 07/04 A3009 RMK AO2 SLP192 T00670044 56010=
202410250753 METAR KPAE 250753Z AUTO 35006KT 10SM CLR 07/04 A3010 RMK AO2 SLP195 T00720044 401280072=
202410250653 METAR KPAE 250653Z AUTO 34004KT 10SM CLR 07/04 A3011 RMK AO2 SLP198 T00720044=
202410250553 METAR KPAE 250553Z AUTO 01008KT 10SM CLR 08/05 A3012 RMK AO2 SLP202 T00830050 10111 20083 56017=
202410250453 METAR KPAE 250453Z AUTO 36007KT 10SM CLR 09/06 A3014 RMK AO2 SLP206 T00890056=
202410250353 METAR KPAE 250353Z AUTO 35006KT 10SM CLR 09/05 A3015 RMK AO2 SLP213 T00890050=
202410250253 METAR KPAE 250253Z 36007G15KT 10SM CLR 10/03 A3018 RMK AO2 SLP220 T01000033 56015=
202410250153 METAR KPAE 250153Z 35007KT 10SM CLR 10/04 A3019 RMK AO2 SLP224 T01000039=
202410250053 METAR KPAE 250053Z 35004KT 10SM CLR 10/04 A3020 RMK AO2 SLP230 T01000044=
202410242353 METAR KPAE 242353Z 34007KT 10SM CLR 11/04 A3022 RMK AO2 SLP236 T01110039 10128 20100 56023=
202410242253 METAR KPAE 242253Z 35005KT 10SM CLR 12/03 A3025 RMK AO2 SLP244 T01170033=
202410242153 METAR KPAE 242153Z 34005KT 10SM CLR 13/04 A3026 RMK AO2 SLP249 T01280039=
202410242053 METAR KPAE 242053Z 04005KT 10SM CLR 12/04 A3029 RMK AO2 SLP258 T01220039 58022=
202410241953 METAR KPAE 241953Z 35003KT 10SM FEW005 SCT050 12/06 A3032 RMK AO2 SLP271 T01170061=
202410241915 SPECI KPAE 241915Z 00000KT 10SM FEW005 SCT050 11/05 A3034 RMK AO2 T01110050=
202410241853 METAR KPAE 241853Z 19004KT 10SM BKN008 OVC055 11/06 A3035 RMK AO2 SLP279 T01060061=
202410241753 METAR KPAE 241753Z VRB03KT 10SM BKN005 OVC055 10/06 A3036 RMK AO2 SLP281 T01000056 10100 20072 58006=
202410241710 SPECI KPAE 241710Z 16006KT 10SM BKN005 OVC055 09/06 A3037 RMK AO2 T00890061=
202410241653 METAR KPAE 241653Z 15005KT 10SM BKN055 09/06 A3036 RMK AO2 SLP284 T00890056=
202410241619 SPECI KPAE 241619Z 11004KT 2SM BR OVC002 08/06 A3037 RMK AO2 T00780056=
202410241601 SPECI KPAE 241601Z 09003KT 10SM OVC002 08/06 A3037 RMK AO2 T00830056=
202410241553 METAR KPAE 241553Z 09004KT 10SM SCT055 08/06 A3037 RMK AO2 SLP285 T00780056=
202410241453 METAR KPAE 241453Z 16003KT 10SM OVC060 08/06 A3037 RMK AO2 SLP288 T00780056 50003=
202410241353 METAR KPAE 241353Z 00000KT 10SM OVC050 07/05 A3038 RMK AO2 SLP289 T00720050=
202410241253 METAR KPAE 241253Z AUTO 15005KT 10SM FEW046 08/05 A3036 RMK AO2 SLP284 T00780050=
202410241153 METAR KPAE 241153Z AUTO 15006KT 10SM OVC041 08/06 A3037 RMK AO2 SLP285 60000 70015 T00830056 10094 20083 51004=
202410241053 METAR KPAE 241053Z AUTO 14006KT 10SM OVC035 08/06 A3036 RMK AO2 SLP285 T00830061=
202410240953 METAR KPAE 240953Z AUTO 00000KT 10SM BKN030 OVC038 08/06 A3036 RMK AO2 SLP282 T00830061=
202410240853 METAR KPAE 240853Z AUTO 11004KT 10SM FEW030 OVC039 08/06 A3035 RMK AO2 SLP281 60000 T00830061 55000=
202410240753 METAR KPAE 240753Z AUTO 11004KT 10SM OVC038 08/06 A3035 RMK AO2 SLP278 T00830061 401220078=
202410240653 METAR KPAE 240653Z AUTO 10006KT 10SM FEW029 BKN037 09/07 A3036 RMK AO2 RAE00 SLP281 P0000 T00890067=
202410240553 METAR KPAE 240553Z AUTO 00000KT 9SM -RA FEW017 BKN045 OVC055 09/07 A3036 RMK AO2 RAB0455 SLP281 P0002 60002 T00940067 10117 20094 53004=
202410240515 SPECI KPAE 240515Z AUTO 00000KT 8SM -RA SCT020 BKN024 OVC041 09/07 A3035 RMK AO2 RAB0455 P0000 T00940067=
202410240453 METAR KPAE 240453Z AUTO 11005KT 10SM SCT038 BKN048 OVC060 09/07 A3035 RMK AO2 SLP279 T00940067=
202410240353 METAR KPAE 240353Z 11005KT 10SM BKN050 BKN065 OVC075 10/07 A3035 RMK AO2 SLP280 T01000067=
202410240253 METAR KPAE 240253Z 12003KT 10SM BKN060 OVC075 10/07 A3034 RMK AO2 SLP277 T01000072 53014=
202410240153 METAR KPAE 240153Z 00000KT 10SM BKN070 10/07 A3032 RMK AO2 SLP269 T01000072=
202410240053 METAR KPAE 240053Z 18003KT 10SM SCT029 10/06 A3031 RMK AO2 SLP265 T01000061=
202410232353 METAR KPAE 232353Z 22003KT 10SM SCT029 BKN070 12/05 A3030 RMK AO2 SLP262 60008 T01170050 10122 20094 56001=
202410232329 SPECI KPAE 232329Z 22005KT 10SM SCT021 BKN070 12/06 A3030 RMK AO2 T01170061=
202410232314 SPECI KPAE 232314Z 27005KT 10SM BKN021 12/06 A3030 RMK AO2 T01170061=
202410232305 SPECI KPAE 232305Z 00000KT 10SM SCT021 SCT065 12/06 A3030 RMK AO2 T01170056=
202410232253 METAR KPAE 232253Z 20004KT 10SM FEW019 BKN024 BKN065 12/06 A3030 RMK AO2 SLP262 T01170061=
202410232241 SPECI KPAE 232241Z 00000KT 10SM FEW019 SCT023 BKN065 12/06 A3030 RMK AO2 T01220061=
202410232153 METAR KPAE 232153Z 26004KT 10SM FEW003 SCT009 BKN050 11/08 A3030 RMK AO2 RAE08 SLP262 P0001 T01060078=
202410232111 SPECI KPAE 232111Z 23003KT 10SM FEW003 SCT009 BKN050 10/07 A3030 RMK AO2 RAE08 P0001 T01000072=
202410232055 SPECI KPAE 232055Z 26004KT 5SM RA BR BKN008 09/07 A3030 RMK AO2 P0001 T00940072=
202410232053 METAR KPAE 232053Z 25004KT 2SM RA BR BKN007 BKN027 OVC036 09/07 A3030 RMK AO2 SLP263 P0007 60007 T00940072 51002=
202410232014 SPECI KPAE 232014Z 29003KT 2SM -RA BR BKN007 BKN027 OVC036 09/08 A3030 RMK AO2 P0002 T00940078=
202410231953 METAR KPAE 231953Z 31004KT 8SM -RA BKN007 BKN027 OVC036 10/07 A3030 RMK AO2 RAB43 SLP263 P0000 T01000072=
202410231853 METAR KPAE 231853Z 00000KT 10SM SCT003 OVC009 10/07 A3030 RMK AO2 SLP262 T01000067=
202410231753 METAR KPAE 231753Z 00000KT 9SM BKN002 OVC012 09/07 A3029 RMK AO2 SLP260 60005 T00940072 10100 20083 51009=
202410231731 SPECI KPAE 231731Z 32004KT 8SM BKN002 OVC012 09/07 A3029 RMK AO2 T00940072=
202410231710 SPECI KPAE 231710Z 00000KT 7SM BKN005 OVC012 09/07 A3029 RMK AO2 T00940072=
202410231700 SPECI KPAE 231700Z 00000KT 9SM FEW005 OVC013 09/07 A3028 RMK AO2 T00940072=
202410231653 METAR KPAE 231653Z 00000KT 8SM BKN005 OVC013 09/07 A3028 RMK AO2 RAE1559 SLP257 P0000 T00890072=
202410231553 METAR KPAE 231553Z 00000KT 3SM -RA BR FEW005 BKN009 OVC037 08/06 A3028 RMK AO2 SLP255 P0004 T00830061=
202410231453 METAR KPAE 231453Z 00000KT 6SM -RA BR BKN006 OVC015 08/07 A3027 RMK AO2 RAB13 SLP251 P0001 60001 T00830067 53004=
202410231413 SPECI KPAE 231413Z 00000KT 8SM -RA VCFG BKN006 OVC015 08/06 A3026 RMK AO2 RAB13 P0000 T00830061=
202410231353 METAR KPAE 231353Z 00000KT 10SM VCFG FEW002 OVC015 08/06 A3026 RMK AO2 SLP248 VIS E-SE 1 T00830061=
202410231315 SPECI KPAE 231315Z AUTO 00000KT 10SM SCT008 BKN019 OVC025 08/07 A3025 RMK AO2 T00830067=
202410231253 METAR KPAE 231253Z AUTO 00000KT 10SM OVC006 08/06 A3025 RMK AO2 CIG 005V009 SLP246 T00830061=
202410231240 SPECI KPAE 231240Z AUTO 33003KT 10SM OVC006 08/06 A3025 RMK AO2 T00830061=
202410231153 METAR KPAE 231153Z AUTO 32003KT 10SM OVC004 08/07 A3025 RMK AO2 SLP246 T00830067 10089 20078 55006=
202410231128 SPECI KPAE 231128Z AUTO 35003KT 7SM OVC003 08/07 A3025 RMK AO2 CIG 001V008 T00830067=
202410231117 SPECI KPAE 231117Z AUTO 01004KT 4SM BR SCT001 BKN006 OVC010 08/07 A3025 RMK AO2 CIG 003V009 T00830067=
202410231115 SPECI KPAE 231115Z AUTO 01003KT 4SM BR BKN001 OVC008 08/07 A3025 RMK AO2 CIG 001V005 T00830067=
202410231053 METAR KPAE 231053Z AUTO 00000KT 8SM BKN007 OVC010 09/07 A3025 RMK AO2 CIG 004V008 SLP245 T00890072=
202410231041 SPECI KPAE 231041Z AUTO 00000KT 7SM OVC007 09/07 A3025 RMK AO2 CIG 003V011 T00890072=
202410230953 METAR KPAE 230953Z AUTO 00000KT 8SM OVC004 09/07 A3026 RMK AO2 SLP248 T00890072=
202410230901 SPECI KPAE 230901Z AUTO 02003KT 9SM OVC004 09/07 A3027 RMK AO2 T00890072=
202410230853 METAR KPAE 230853Z AUTO 02004KT 10SM OVC005 09/07 A3027 RMK AO2 SLP252 T00890072 58005=
202410230806 SPECI KPAE 230806Z AUTO 00000KT 10SM BKN008 08/07 A3028 RMK AO2 CIG 006V010 T00780067=
202410230753 METAR KPAE 230753Z AUTO 00000KT 10SM FEW008 08/06 A3028 RMK AO2 SLP256 T00780061 401390078=
202410230653 METAR KPAE 230653Z AUTO 34003KT 10SM FEW012 08/06 A3029 RMK AO2 SLP257 T00830061=
202410230553 METAR KPAE 230553Z AUTO 34004KT 10SM CLR 09/07 A3029 RMK AO2 SLP257 T00890067 10133 20083 56001=
202410230453 METAR KPAE 230453Z AUTO 34005KT 10SM CLR 09/07 A3029 RMK AO2 SLP258 T00890072=
202410230353 METAR KPAE 230353Z AUTO 34005KT 10SM CLR 09/07 A3029 RMK AO2 SLP258 T00890067=
202410230253 METAR KPAE 230253Z 34003KT 10SM CLR 09/07 A3029 RMK AO2 SLP259 T00940072 56003=
202410230153 METAR KPAE 230153Z 34003KT 10SM CLR 10/07 A3029 RMK AO2 SLP259 T01000067=
202410230053 METAR KPAE 230053Z 34004KT 10SM CLR 11/06 A3029 RMK AO2 SLP259 T01110061=
202410222353 METAR KPAE 222353Z 36005KT 10SM CLR 13/06 A3030 RMK AO2 SLP261 T01330061 10139 20111 57010=
202410222253 METAR KPAE 222253Z 31004KT 10SM CLR 13/06 A3031 RMK AO2 SLP266 T01330061=
202410222153 METAR KPAE 222153Z 28006KT 10SM CLR 13/04 A3032 RMK AO2 SLP267 T01330044=
202410222053 METAR KPAE 222053Z 32003KT 10SM SCT044 12/06 A3033 RMK AO2 SLP272 T01170061 58008=
202410221953 METAR KPAE 221953Z 30004KT 10SM R16R/6000VP6000FT BKN024 OVC035 12/07 A3034 RMK AO2 SLP276 T01170072=
202410221853 METAR KPAE 221853Z 17003KT 10SM BKN023 BKN033 OVC041 12/06 A3036 RMK AO2 SLP281 T01220056=
202410221753 METAR KPAE 221753Z 17003KT 10SM OVC040 12/06 A3036 RMK AO2 SLP280 T01170061 10117 20094 51016=
202410221653 METAR KPAE 221653Z 16005KT 10SM OVC041 11/06 A3035 RMK AO2 SLP278 T01060056=
202410221553 METAR KPAE 221553Z 15004KT 10SM OVC038 10/06 A3033 RMK AO2 SLP273 T01000056=
202410221453 METAR KPAE 221453Z AUTO 15003KT 10SM OVC037 10/06 A3031 RMK AO2 SLP264 T01000056 51009=
202410221353 METAR KPAE 221353Z AUTO 15007KT 10SM OVC036 10/06 A3030 RMK AO2 SLP261 T01000056=
202410221253 METAR KPAE 221253Z AUTO 15006KT 10SM FEW024 FEW036 09/06 A3029 RMK AO2 SLP259 T00940056=
202410221153 METAR KPAE 221153Z AUTO 16008KT 10SM FEW020 SCT030 OVC036 09/06 A3028 RMK AO2 SLP255 70002 T00940061 10106 20094 53011=
202410221053 METAR KPAE 221053Z AUTO 16009KT 10SM BKN035 09/06 A3025 RMK AO2 SLP246 T00940061=
202410221025 SPECI KPAE 221025Z AUTO 17009KT 10SM SCT019 BKN037 10/06 A3025 RMK AO2 T01000061=
202410220953 METAR KPAE 220953Z AUTO 16010KT 10SM BKN020 10/06 A3025 RMK AO2 SLP244 T01000061=
202410220950 SPECI KPAE 220950Z AUTO 16009KT 10SM BKN020 10/06 A3025 RMK AO2=
202410220914 SPECI KPAE 220914Z AUTO 16009KT 10SM SCT021 10/07 A3023 RMK AO2 T01000067=
202410220853 METAR KPAE 220853Z AUTO 17009KT 10SM BKN020 BKN085 10/07 A3023 RMK AO2 SLP237 T01000067 51023=
202410220753 METAR KPAE 220753Z AUTO 17012G22KT 10SM OVC018 11/07 A3020 RMK AO2 SLP229 T01060072 401330094=
202410220653 METAR KPAE 220653Z AUTO 16010KT 10SM BKN015 11/07 A3019 RMK AO2 SLP223 T01060072=
202410220643 SPECI KPAE 220643Z AUTO 17011KT 10SM BKN015 11/07 A3018 RMK AO2 T01060072=
202410220623 SPECI KPAE 220623Z AUTO 17012G21KT 10SM BKN014 11/08 A3017 RMK AO2 T01060078=
202410220602 SPECI KPAE 220602Z AUTO 18012G18KT 10SM SCT015 11/08 A3016 RMK AO2 T01060078=
202410220553 METAR KPAE 220553Z AUTO 16012G21KT 10SM BKN015 11/08 A3016 RMK AO2 SLP213 60000 T01060078 10128 20106 53020=
202410220529 SPECI KPAE 220529Z AUTO 18015G22KT 10SM OVC017 11/08 A3015 RMK AO2 T01110078=
202410220453 METAR KPAE 220453Z AUTO 18014KT 10SM BKN013 11/08 A3014 RMK AO2 PK WND 20026/0414 SLP206 T01110078=
202410220400 SPECI KPAE 220400Z AUTO 18016G23KT 10SM BKN011 BKN017 OVC026 12/09 A3011 RMK AO2 T01170089=
202410220353 METAR KPAE 220353Z 18013G20KT 10SM FEW011 SCT027 OVC050 12/09 A3011 RMK AO2 SLP196 T01170089=
202410220253 METAR KPAE 220253Z 18010KT 10SM FEW011 SCT032 BKN047 12/09 A3010 RMK AO2 SLP193 60000 T01170089 53015=
202410220153 METAR KPAE 220153Z 15009KT 10SM BKN009 BKN013 BKN060 12/09 A3008 RMK AO2 CIG 007V010 SLP186 T01170094=
202410220100 SPECI KPAE 220100Z 15009KT 10SM OVC020 12/09 A3006 RMK AO2 T01220089=
202410220053 METAR KPAE 220053Z 15010KT 10SM FEW009 BKN014 OVC060 12/09 A3006 RMK AO2 RAB00E14 SLP182 P0000 T01220089=
202410212353 METAR KPAE 212353Z 15005KT 10SM FEW009 BKN014 OVC060 13/09 A3005 RMK AO2 SLP177 60001 T01280089 10133 20117 53008=
202410212253 METAR KPAE 212253Z 15004KT 10SM FEW009 BKN014 OVC060 13/09 A3004 RMK AO2 RAB2158E44 SLP173 P0000 T01280089=
202410212153 METAR KPAE 212153Z 00000KT 10SM BKN015 BKN026 OVC034 13/09 A3003 RMK AO2 RAB20E34 SLP169 P0001 T01280089=
202410212053 METAR KPAE 212053Z 18004KT 10SM SCT016 OVC023 13/08 A3003 RMK AO2 SLP169 T01280083 53005=
202410211953 METAR KPAE 211953Z 16006KT 10SM BKN023 OVC030 13/07 A3002 RMK AO2 SLP168 T01280072=
202410211933 SPECI KPAE 211933Z 16004KT 10SM BKN020 OVC033 13/07 A3002 RMK AO2 T01280072=
202410211853 METAR KPAE 211853Z 18005KT 10SM SCT019 BKN042 BKN090 12/07 A3001 RMK AO2 SLP164 T01220072=
202410211753 METAR KPAE 211753Z 24005KT 10SM FEW016 OVC024 12/08 A3001 RMK AO2 SLP164 60001 T01170078 10122 20094 51008=
202410211736 SPECI KPAE 211736Z 18005KT 10SM BKN024 12/08 A3001 RMK AO2 T01220078=
202410211653 METAR KPAE 211653Z 00000KT 10SM FEW100 12/08 A3000 RMK AO2 SLP160 T01170078=
202410211635 SPECI KPAE 211635Z 00000KT 10SM SCT024 SCT046 BKN100 11/08 A3000 RMK AO2 T01060078=
202410211553 METAR KPAE 211553Z 23005KT 10SM BKN026 BKN036 BKN100 10/08 A3000 RMK AO2 SLP161 T01000083=
202410211453 METAR KPAE 211453Z 00000KT 10SM BKN026 OVC036 10/07 A2999 RMK AO2 SLP156 60001 T01000072 51006=
202410211353 METAR KPAE 211353Z 00000KT 10SM OVC023 10/07 A2998 RMK AO2 RAE29 SLP154 P0001 T01000072=
202410211253 METAR KPAE 211253Z AUTO 00000KT 7SM -RA OVC023 10/07 A2998 RMK AO2 RAB44 SLP153 P0000 T01000072=
202410211218 SPECI KPAE 211218Z AUTO 00000KT 10SM BKN027 BKN039 OVC050 10/07 A2998 RMK AO2 T01000072=
202410211153 METAR KPAE 211153Z AUTO 00000KT 10SM FEW042 OVC050 10/07 A2997 RMK AO2 SLP149 60000 70003 T01000072 10106 20100 51001=
202410211109 SPECI KPAE 211109Z AUTO 00000KT 10SM FEW026 OVC045 10/07 A2997 RMK AO2 T01000072=
202410211053 METAR KPAE 211053Z AUTO 00000KT 9SM BKN025 OVC037 10/07 A2997 RMK AO2 RAB35E46 SLP147 P0000 T01000072=
202410210953 METAR KPAE 210953Z AUTO 01004KT 10SM OVC028 11/07 A2998 RMK AO2 SLP152 T01060067=
202410210934 SPECI KPAE 210934Z AUTO 00000KT 10SM BKN028 OVC043 11/07 A2998 RMK AO2 T01060067=
202410210853 METAR KPAE 210853Z AUTO 02003KT 10SM OVC042 11/07 A2997 RMK AO2 SLP147 T01060072 55003=
202410210753 METAR KPAE 210753Z AUTO 00000KT 10SM OVC041 10/08 A2997 RMK AO2 SLP147 T01000078 401940100=
202410210653 METAR KPAE 210653Z AUTO 00000KT 10SM FEW026 OVC035 11/07 A2998 RMK AO2 SLP151 T01060072=
202410210646 SPECI KPAE 210646Z AUTO 36003KT 10SM SCT026 OVC035 10/08 A2997 RMK AO2 T01000078=
202410210553 METAR KPAE 210553Z AUTO 04004KT 10SM OVC024 11/08 A2998 RMK AO2 RAB02E47 SLP151 P0001 60003 T01060078 10167 20100 50012=
202410210453 METAR KPAE 210453Z VRB04KT 10SM FEW015 OVC022 11/07 A2998 RMK AO2 RAB27E48 SLP152 P0000 T01060072=
202410210353 METAR KPAE 210353Z 35005KT 10SM OVC027 11/07 A2996 RMK AO2 SLP144 T01060072=
202410210253 METAR KPAE 210253Z 35006KT 10SM FEW015 OVC028 11/08 A2994 RMK AO2 RAE35 SLP139 P0001 60002 T01110078 51037=
202410210210 SPECI KPAE 210210Z 35008KT 6SM -RA BR FEW008 SCT012 OVC029 11/09 A2993 RMK AO2 P0001 T01110094=
202410210153 METAR KPAE 210153Z 35007KT 4SM -RA BR OVC027 12/09 A2993 RMK AO2 RAB22 SLP134 P0001 T01170094=
202410210053 METAR KPAE 210053Z 34008KT 10SM FEW010 OVC019 13/10 A2990 RMK AO2 PK WND 22026/0013 WSHFT 0007 RAB21E32 SLP125 P0000 T01280100=
202410210025 SPECI KPAE 210025Z VRB06G19KT 10SM -RA SCT010 BKN018 OVC080 15/12 A2988 RMK AO2 PK WND 22026/0013 WSHFT 0007 RAB21 P0000 T01500117=
202410202353 METAR KPAE 202353Z 18018G29KT 10SM OVC030 17/12 A2983 RMK AO2 PK WND 19042/2305 RAB31E49 SLP100 P0000 60000 T01670122 10194 20167 55001=
202410202253 METAR KPAE 202253Z 18022G30KT 10SM OVC030 18/12 A2981 RMK AO2 PK WND 16035/2217 RAB04E47 SLP094 P0000 T01780122=
202410202153 METAR KPAE 202153Z 17019G33KT 10SM OVC032 19/11 A2980 RMK AO2 PK WND 19035/2139 PRESFR SLP089 T01890111=
202410202053 METAR KPAE 202053Z 19020G33KT 10SM OVC033 19/11 A2983 RMK AO2 PK WND 20035/2022 SLP101 T01890111 58010=
202410201953 METAR KPAE 201953Z 15018G26KT 10SM BKN039 OVC048 19/11 A2985 RMK AO2 PK WND 15030/1900 SLP106 T01890111=
202410201853 METAR KPAE 201853Z 17017G22KT 10SM FEW021 OVC070 18/12 A2987 RMK AO2 PK WND 17035/1816 SLP112 T01780117=
202410201753 METAR KPAE 201753Z 19020G29KT 10SM BKN070 18/12 A2987 RMK AO2 PK WND 18030/1739 SLP112 T01780117 10183 20150 56006=
202410201653 METAR KPAE 201653Z 17010G18KT 10SM BKN049 18/12 A2988 RMK AO2 SLP115 T01780122=
202410201553 METAR KPAE 201553Z 17010KT 10SM BKN044 17/13 A2987 RMK AO2 SLP114 T01670128=
202410201453 METAR KPAE 201453Z 16011KT 10SM BKN038 16/12 A2989 RMK AO2 SLP119 T01610122 56022=
202410201353 METAR KPAE 201353Z 15010KT 10SM BKN051 16/13 A2990 RMK AO2 SLP125 T01610128=
202410201253 METAR KPAE 201253Z AUTO 16012G19KT 10SM FEW021 SCT026 OVC041 16/13 A2993 RMK AO2 SLP134 T01560133=
202410201153 METAR KPAE 201153Z AUTO 16010KT 10SM OVC016 15/13 A2995 RMK AO2 SLP142 60009 70011 T01500133 10161 20122 58022=
202410201143 SPECI KPAE 201143Z AUTO 16011KT 10SM OVC016 14/13 A2995 RMK AO2 T01440128=
202410201116 SPECI KPAE 201116Z AUTO 14007KT 10SM FEW003 OVC013 13/12 A2997 RMK AO2 T01330122=
202410201053 METAR KPAE 201053Z AUTO 00000KT 7SM SCT003 OVC015 12/11 A2998 RMK AO2 RAE16 SLP151 P0001 T01220111=
202410201036 SPECI KPAE 201036Z AUTO 00000KT 5SM BR FEW003 OVC015 13/12 A2999 RMK AO2 RAE16 P0001 T01280117=
202410201022 SPECI KPAE 201022Z AUTO 00000KT 3SM BR SCT002 OVC013 12/11 A3000 RMK AO2 RAE16 P0001 T01220111=
202410201019 SPECI KPAE 201019Z AUTO 04003KT 2SM R16R/4000VP6000FT BR SCT002 OVC015 12/11 A3000 RMK AO2 RAE16 P0001 T01220111=
202410201009 SPECI KPAE 201009Z AUTO 04004KT 1/2SM R16R/2600V4000FT -RA FG BKN002 OVC015 12/11 A3000 RMK AO2 P0000 T01220111=
202410200957 SPECI KPAE 200957Z AUTO 02005KT 1/4SM R16R/2000V2400FT -RA FG VV002 12/11 A3001 RMK AO2 P0000 T01220111=
202410200953 METAR KPAE 200953Z AUTO 01004KT 1/4SM R16R/2000V2200FT -RA FG VV001 12/11 A3001 RMK AO2 RAB34 SLP161 P0001 T01220111=
202410200923 SPECI KPAE 200923Z AUTO 36004KT 1/4SM R16R/1000V1200FT FG VV001 13/12 A3002 RMK AO2 T01330117=
202410200914 SPECI KPAE 200914Z AUTO 01005KT 1/4SM R16R/1200V2800FT FG VV001 13/12 A3002 RMK AO2 T01330122=
202410200902 SPECI KPAE 200902Z AUTO 01005KT 3/4SM R16R/P6000FT BR BKN002 OVC015 14/12 A3002 RMK AO2 T01390122=
202410200859 SPECI KPAE 200859Z AUTO 36005KT 1 1/2SM BR SCT003 OVC015 14/13 A3002 RMK AO2 T01390128=
202410200853 METAR KPAE 200853Z AUTO 00000KT 7SM SCT003 OVC015 14/13 A3002 RMK AO2 RAE43 SLP164 P0002 60007 T01440133 58009=
202410200812 SPECI KPAE 200812Z AUTO 17004KT 3SM -RA BR FEW006 FEW010 OVC015 14/13 A3002 RMK AO2 P0001 T01440128=
202410200751 METAR KPAE 200751Z AUTO 18005KT 2SM -RA BR SCT003 OVC010 14/13 A3003 RMK AO2 SLP168 P0005 T01440133 401830122=
202410200750 SPECI KPAE 200750Z AUTO 19004KT 2SM -RA BR SCT003 OVC010 14/13 A3003 RMK AO2 P0005=
202410200719 SPECI KPAE 200719Z AUTO 23005KT 2SM R16R/6000VP6000FT -RA BR BKN003 OVC007 14/13 A3004 RMK AO2 P0003 T01440133=
202410200712 SPECI KPAE 200712Z AUTO 23007KT 2SM R16R/5000VP6000FT -RA BR OVC001 14/13 A3003 RMK AO2 P0002 T01440133=
202410200704 SPECI KPAE 200704Z AUTO 23006KT 2 1/2SM -RA BR OVC003 14/13 A3004 RMK AO2 P0001 T01440133=
202410200656 SPECI KPAE 200656Z AUTO 22008KT 3SM R16R/4500VP6000FT -RA BR BKN001 OVC007 14/13 A3004 RMK AO2 P0000 T01440133=
202410200653 METAR KPAE 200653Z AUTO 24008KT 1 1/2SM R16R/3000VP6000FT -RA BR BKN001 OVC007 14/13 A3004 RMK AO2 RAE29B53 SLP172 P0000 T01440133=
202410200645 SPECI KPAE 200645Z AUTO 22006KT 1/2SM R16R/1600V5500FT FG BKN001 OVC007 14/13 A3005 RMK AO2 RAE29 P0000 T01440128=
202410200638 SPECI KPAE 200638Z AUTO 24007G19KT 1 1/2SM R16R/2000VP6000FT BR FEW001 OVC006 15/13 A3004 RMK AO2 RAE29 P0000 T01500133=
202410200553 METAR KPAE 200553Z AUTO 18015KT 5SM -RA BR OVC008 16/14 A3005 RMK AO2 CIG 006V010 SLP173 P0000 60002 T01610139 10172 20161 58012=
202410200453 METAR KPAE 200453Z AUTO 17013G21KT 9SM -RA BKN008 OVC014 16/14 A3006 RMK AO2 CIG 006V010 SLP178 P0001 T01610139=
202410200353 METAR KPAE 200353Z 19011KT 7SM -RA OVC008 16/14 A3008 RMK AO2 RAB31 CIG 006V012 SLP184 P0001 T01610139=
202410200324 SPECI KPAE 200324Z 18012KT 10SM OVC008 16/14 A3008 RMK AO2 T01610139=
202410200253 METAR KPAE 200253Z 16012G19KT 10SM BKN010 OVC018 16/14 A3008 RMK AO2 RAE04 CIG 008V013 SLP185 P0000 60000 T01610139 53010=
202410200213 SPECI KPAE 200213Z 17012KT 10SM BKN013 OVC018 16/14 A3007 RMK AO2 RAE04 P0000 T01610139=
202410200153 METAR KPAE 200153Z 18015G25KT 9SM -RA OVC015 17/13 A3008 RMK AO2 PK WND 17033/0058 RAB46 SLP184 P0000 T01670133=
202410200053 METAR KPAE 200053Z 18021G32KT 10SM SCT017 OVC100 17/13 A3005 RMK AO2 PK WND 18040/0035 SLP174 T01720128=
202410192353 METAR KPAE 192353Z 18021G32KT 10SM FEW020 SCT100 17/12 A3005 RMK AO2 PK WND 17040/2305 SLP175 T01720122 10183 20167 58006=
202410192253 METAR KPAE 192253Z 19026G40KT 10SM BKN026 BKN070 18/12 A3006 RMK AO2 PK WND 19040/2248 SLP179 T01830117=
202410192200 SPECI KPAE 192200Z 18022G37KT 10SM BKN028 OVC036 18/11 A3006 RMK AO2 PK WND 20037/2155 T01830111=
202410192153 METAR KPAE 192153Z 17020G37KT 10SM BKN033 OVC041 18/11 A3006 RMK AO2 PK WND 17037/2144 SLP179 T01830111=
202410192053 METAR KPAE 192053Z 17017G30KT 10SM BKN033 OVC041 18/11 A3007 RMK AO2 PK WND 17037/2023 SLP181 T01830111 58013=
202410191953 METAR KPAE 191953Z 18023G36KT 10SM FEW027 SCT090 BKN110 18/11 A3010 RMK AO2 PK WND 18039/1938 SLP193 T01780111=
202410191853 METAR KPAE 191853Z 18022G33KT 10SM SCT090 OVC110 17/11 A3012 RMK AO2 PK WND 18036/1805 SLP197 T01720111=
202410191753 METAR KPAE 191753Z 18023G32KT 10SM FEW037 BKN110 17/11 A3011 RMK AO2 PK WND 15035/1722 SLP196 T01670111 10167 20144 53002=
202410191653 METAR KPAE 191653Z 17020G36KT 10SM FEW021 OVC110 16/11 A3011 RMK AO2 PK WND 17037/1642 SLP195 T01610111=
202410191602 SPECI KPAE 191602Z 18022G32KT 10SM FEW021 BKN120 16/11 A3010 RMK AO2 PK WND 17032/1601 T01610111=
202410191553 METAR KPAE 191553Z 17025G35KT 10SM BKN019 16/11 A3009 RMK AO2 PK WND 17039/1524 SLP190 T01610111=
202410191502 SPECI KPAE 191502Z 18027G39KT 10SM BKN019 16/11 A3011 RMK AO2 PK WND 18039/1457 T01560111=
202410191453 METAR KPAE 191453Z 18027G38KT 10SM SCT016 OVC120 16/11 A3010 RMK AO2 PK WND 15041/1357 SLP194 T01560111 51013=
202410191353 METAR KPAE 191353Z 17023G43KT 10SM SCT016 BKN120 15/11 A3008 RMK AO2 PK WND 16043/1349 SLP187 T01500111=
202410191253 METAR KPAE 191253Z AUTO 18027G40KT 10SM BKN016 14/11 A3009 RMK AO2 PK WND 18054/1225 SLP189 T01440111=
202410191234 SPECI KPAE 191234Z AUTO 18025G54KT 10SM SCT013 BKN018 BKN120 15/11 A3009 RMK AO2 PK WND 18054/1225 T01500111=
202410191153 METAR KPAE 191153Z AUTO 18026G44KT 10SM BKN012 14/11 A3007 RMK AO2 PK WND 18044/1148 SLP181 60001 70011 T01440106 10144 20122 56019=
202410191053 METAR KPAE 191053Z AUTO 18027G38KT 10SM BKN013 13/11 A3007 RMK AO2 PK WND 16038/1044 SLP185 T01330106=
202410190953 METAR KPAE 190953Z AUTO 17016G29KT 10SM OVC010 13/10 A3009 RMK AO2 PK WND 16029/0946 RAE29 SLP192 P0001 T01280100=
202410190853 METAR KPAE 190853Z AUTO 17011G21KT 10SM -RA OVC014 13/10 A3012 RMK AO2 RAB48 SLP201 P0000 60000 T01280100 50010=
202410190753 METAR KPAE 190753Z AUTO 16011G20KT 10SM OVC010 12/09 A3013 RMK AO2 SLP204 T01220094 401220083=
202410190653 METAR KPAE 190653Z AUTO 16010G18KT 10SM OVC014 12/09 A3012 RMK AO2 PK WND 17033/0556 SLP200 T01220094=
202410190553 METAR KPAE 190553Z AUTO 18020G29KT 10SM BKN010 OVC014 12/09 A3009 RMK AO2 PK WND 18029/0553 SLP191 60003 T01220089 10122 20106 55004=
202410190453 METAR KPAE 190453Z AUTO 17016G28KT 10SM OVC013 12/08 A3009 RMK AO2 PK WND 15029/0426 SLP189 T01170083=
202410190436 SPECI KPAE 190436Z AUTO 16016G26KT 10SM OVC014 12/08 A3009 RMK AO2 PK WND 15029/0426 T01170078=
202410190353 METAR KPAE 190353Z 14011G25KT 10SM SCT017 OVC024 12/08 A3009 RMK AO2 PK WND 16029/0258 RAE22 SLP191 P0000 T01170078=
202410190253 METAR KPAE 190253Z 16014G24KT 10SM -RA BKN022 BKN060 OVC110 11/07 A3010 RMK AO2 RAB18 SLP196 P0002 60003 T01110072 55002=
202410190153 METAR KPAE 190153Z 17013G22KT 10SM BKN026 BKN048 OVC100 11/07 A3009 RMK AO2 PK WND 19031/0110 RAE51 SLP191 P0001 T01110067=
202410190053 METAR KPAE 190053Z 17013G25KT 10SM -RA BKN026 OVC110 11/06 A3011 RMK AO2 RAB47 SLP198 P0000 T01110061=
202410190046 SPECI KPAE 190046Z 17013G25KT 10SM OVC028 11/06 A3011 RMK AO2 T01110061=
202410182353 METAR KPAE 182353Z 16017G22KT 10SM SCT036 BKN070 OVC110 11/06 A3011 RMK AO2 SLP198 60006 T01060056 10106 20089 56025=
202410182253 METAR KPAE 182253Z 15016G23KT 10SM SCT041 OVC095 11/06 A3013 RMK AO2 SLP205 T01060061=
202410182153 METAR KPAE 182153Z 15012G19KT 10SM OVC043 10/06 A3015 RMK AO2 RAE44 SLP213 P0001 T01000061=
202410182053 METAR KPAE 182053Z 15014G21KT 10SM -RA OVC046 09/06 A3019 RMK AO2 RAB53 SLP224 P0000 60005 T00940061 58017=
202410181953 METAR KPAE 181953Z 15011G20KT 10SM FEW029 BKN036 OVC055 09/06 A3022 RMK AO2 RAE04 SLP234 P0000 T00940056=
202410181853 METAR KPAE 181853Z 14011G19KT 10SM -RA BKN030 OVC047 09/06 A3024 RMK AO2 SLP241 P0005 T00890061=
202410181807 SPECI KPAE 181807Z 17012G19KT 5SM -RA BKN025 OVC047 09/06 A3024 RMK AO2 P0002 T00940056=
202410181800 SPECI KPAE 181800Z 16011KT 5SM -RA OVC037 09/06 A3024 RMK AO2 P0001 T00940056=
202410181753 METAR KPAE 181753Z 16011KT 5SM -RA BKN025 OVC047 10/06 A3024 RMK AO2 RAB17 SLP241 P0001 60001 T01000056 10100 20083 51014=
202410181653 METAR KPAE 181653Z 17011KT 10SM SCT042 SCT080 OVC095 10/05 A3023 RMK AO2 SLP238 T01000050=
202410181553 METAR KPAE 181553Z 15013KT 10SM OVC100 10/05 A3021 RMK AO2 SLP233 T01000050=
202410181453 METAR KPAE 181453Z 14007KT 10SM BKN100 09/05 A3020 RMK AO2 SLP227 T00890050 58008=
202410181353 METAR KPAE 181353Z 15010KT 10SM CLR 09/05 A3020 RMK AO2 SLP230 T00890050=
202410181253 METAR KPAE 181253Z AUTO 15010KT 10SM CLR 08/06 A3022 RMK AO2 SLP235 T00830056=
202410181153 METAR KPAE 181153Z AUTO 15009KT 10SM CLR 08/05 A3022 RMK AO2 SLP236 70003 T00830050 10094 20083 51002=
202410181053 METAR KPAE 181053Z AUTO VRB05KT 10SM FEW055 09/05 A3021 RMK AO2 SLP234 T00890050=
202410180953 METAR KPAE 180953Z AUTO VRB04KT 10SM OVC055 09/05 A3022 RMK AO2 SLP236 T00890050=
202410180853 METAR KPAE 180853Z AUTO 14005KT 10SM BKN036 OVC043 09/05 A3021 RMK AO2 SLP233 T00890050 56001=
202410180753 METAR KPAE 180753Z AUTO VRB03KT 10SM BKN039 OVC048 09/06 A3021 RMK AO2 SLP233 T00890056 401220089=
202410180653 METAR KPAE 180653Z AUTO 13003KT 10SM BKN033 09/06 A3022 RMK AO2 SLP234 T00890061=
202410180553 METAR KPAE 180553Z AUTO 14007KT 10SM FEW047 OVC060 09/06 A3022 RMK AO2 SLP235 T00940061 10117 20094 51011=
202410180453 METAR KPAE 180453Z AUTO VRB04KT 10SM BKN043 OVC060 10/06 A3020 RMK AO2 SLP230 T01000056=
202410180353 METAR KPAE 180353Z AUTO 00000KT 10SM FEW046 BKN060 09/06 A3020 RMK AO2 SLP230 T00940061=
202410180253 METAR KPAE 180253Z 00000KT 10SM FEW055 10/06 A3018 RMK AO2 SLP223 T01000061 53013=
202410180153 METAR KPAE 180153Z 00000KT 10SM SCT055 10/05 A3016 RMK AO2 SLP215 T01000050=
202410180053 METAR KPAE 180053Z 11003KT 10SM FEW055 11/05 A3015 RMK AO2 SLP211 T01060050=
202410172353 METAR KPAE 172353Z 34004KT 10SM FEW013 BKN050 12/06 A3015 RMK AO2 SLP209 60002 T01170061 10122 20089 53014=
202410172253 METAR KPAE 172253Z VRB04KT 10SM FEW008 OVC048 11/06 A3013 RMK AO2 SLP205 T01110061=
202410172158 SPECI KPAE 172158Z 01004KT 10SM FEW005 SCT012 OVC044 11/07 A3012 RMK AO2 T01060072=
202410172153 METAR KPAE 172153Z 36004KT 10SM SCT012 OVC044 11/07 A3012 RMK AO2 SLP200 T01060072=
202410172053 METAR KPAE 172053Z VRB05KT 10SM FEW005 SCT015 BKN042 11/07 A3011 RMK AO2 RAB1955E11 SLP196 P0001 60002 T01060072 51020=
202410172017 SPECI KPAE 172017Z VRB03KT 10SM SCT005 SCT015 OVC048 10/07 A3010 RMK AO2 RAB1955E11 P0001 T01000072=
202410171953 METAR KPAE 171953Z 29007KT 9SM SCT004 BKN009 OVC060 10/07 A3009 RMK AO2 RAB1858E15 SLP193 P0000 T01000072=
202410171924 SPECI KPAE 171924Z VRB03KT 10SM SCT008 BKN011 BKN017 09/07 A3008 RMK AO2 RAB1858E15 P0000 T00940067=
202410171853 METAR KPAE 171853Z 33006KT 10SM BKN008 BKN031 OVC048 10/07 A3006 RMK AO2 RAE23 SLP183 P0001 T01000072=
202410171803 SPECI KPAE 171803Z 34003KT 4SM -RA BR BKN005 BKN028 OVC036 09/08 A3005 RMK AO2 P0001 T00940078=
202410171756 SPECI KPAE 171756Z 34003KT 4SM -RA BR SCT005 SCT017 OVC036 09/08 A3005 RMK AO2 P0001 T00940078=
202410171753 METAR KPAE 171753Z 33003KT 4SM -RA BR BKN003 BKN007 OVC030 09/08 A3005 RMK AO2 RAB41 SLP176 P0000 60001 T00940078 10100 20089 51029=
202410171656 SPECI KPAE 171656Z 00000KT 10SM SCT006 BKN025 BKN050 10/07 A3002 RMK AO2 VIS N 2 T01000067=
202410171653 METAR KPAE 171653Z 00000KT 10SM FEW006 SCT010 OVC040 10/07 A3002 RMK AO2 SLP166 T01000067=
202410171612 SPECI KPAE 171612Z 00000KT 10SM FEW006 SCT010 OVC040 10/07 A3000 RMK AO2 T01000067=
202410171553 METAR KPAE 171553Z 00000KT 10SM SCT010 BKN042 OVC060 09/07 A2999 RMK AO2 RAE19 SLP157 P0001 T00940067=
202410171453 METAR KPAE 171453Z VRB03KT 10SM -RA FEW019 BKN070 OVC085 09/06 A2996 RMK AO2 RAE16B47 SLP147 P0000 60000 T00940061 53016=
202410171441 SPECI KPAE 171441Z 15004KT 10SM SCT018 BKN060 OVC080 09/06 A2996 RMK AO2 RAE16 P0000 T00940061=
202410171433 SPECI KPAE 171433Z 00000KT 10SM BKN018 BKN055 OVC080 09/06 A2995 RMK AO2 RAE16 P0000 T00940061=
202410171353 METAR KPAE 171353Z 00000KT 10SM -RA SCT020 OVC050 09/06 A2994 RMK AO2 RAB53 SLP140 P0000 T00940061=
202410171328 SPECI KPAE 171328Z AUTO 00000KT 10SM BKN021 OVC080 09/06 A2994 RMK AO2 T00890061=
202410171253 METAR KPAE 171253Z AUTO 18005KT 10SM SCT017 BKN080 09/06 A2992 RMK AO2 SLP134 T00890061=
202410171219 SPECI KPAE 171219Z AUTO 17004KT 10SM OVC015 09/06 A2992 RMK AO2 T00940061=
202410171153 METAR KPAE 171153Z AUTO 15003KT 10SM OVC014 09/06 A2991 RMK AO2 SLP129 70016 T00940061 10094 20089 53003=
202410171109 SPECI KPAE 171109Z AUTO 00000KT 10SM OVC014 09/07 A2991 RMK AO2 T00890067=
202410171053 METAR KPAE 171053Z AUTO 20003KT 10SM OVC015 09/07 A2990 RMK AO2 SLP126 T00890067=
202410170953 METAR KPAE 170953Z AUTO 21005KT 10SM BKN017 OVC021 09/07 A2990 RMK AO2 SLP127 T00890067=
202410170913 SPECI KPAE 170913Z AUTO 20006KT 10SM SCT014 OVC021 09/07 A2990 RMK AO2 T00940067=
202410170903 SPECI KPAE 170903Z AUTO 20007KT 10SM BKN013 OVC022 09/07 A2990 RMK AO2 T00940067=
202410170853 METAR KPAE 170853Z AUTO 21004KT 10SM SCT015 BKN020 OVC025 09/07 A2990 RMK AO2 SLP126 T00940067 56007=
202410170753 METAR KPAE 170753Z AUTO 18005KT 10SM BKN020 OVC085 09/07 A2990 RMK AO2 SLP126 T00940072 401610089=
202410170653 METAR KPAE 170653Z AUTO 15005KT 10SM FEW049 BKN090 BKN110 09/07 A2991 RMK AO2 SLP129 T00940067=
202410170553 METAR KPAE 170553Z AUTO 12007KT 10SM FEW025 BKN040 OVC047 09/06 A2992 RMK AO2 SLP133 60015 T00890061 10139 20089 56006=
202410170453 METAR KPAE 170453Z AUTO 10006KT 10SM BKN035 OVC046 09/07 A2993 RMK AO2 RAB0356E29 SLP135 P0000 T00890067=
202410170353 METAR KPAE 170353Z 07006KT 10SM BKN036 BKN045 OVC060 09/07 A2993 RMK AO2 RAE00 SLP136 P0000 T00890072=
202410170304 SPECI KPAE 170304Z 08006KT 10SM FEW005 BKN080 OVC090 09/07 A2993 RMK AO2 RAE00 P0000 T00890067=
202410170253 METAR KPAE 170253Z 03005KT 8SM -RA SCT005 BKN014 OVC037 09/07 A2994 RMK AO2 RAB09 SLP139 P0009 60015 T00890072 51008=
202410170202 SPECI KPAE 170202Z 33006KT 10SM SCT008 BKN014 OVC060 09/07 A2994 RMK AO2 LTG DSNT E T00940067=
202410170153 METAR KPAE 170153Z 34005KT 10SM FEW015 BKN040 OVC060 09/06 A2994 RMK AO2 RAE26B43E52 SLP138 P0001 T00940061=
202410170138 SPECI KPAE 170138Z 33007KT 10SM FEW014 FEW020 OVC037 10/06 A2993 RMK AO2 LTG DSNT NE AND E AND SW RAE26 P0001 T01000061=
202410170120 SPECI KPAE 170120Z 28006KT 10SM VCTS -RA FEW014 BKN037 OVC047 11/07 A2993 RMK AO2 P0001 T01060072=
202410170053 METAR KPAE 170053Z 27011G15KT 8SM -RA BKN034 OVC047 11/07 A2993 RMK AO2 LTG DSNT W RAB25 PRESRR SLP134 P0005 T01060072=
202410162353 METAR KPAE 162353Z 06007KT 10SM FEW043 BKN055 OVC090 13/06 A2992 RMK AO2 SLP130 60000 T01330061 10161 20128 58014=
202410162253 METAR KPAE 162253Z 06008KT 10SM SCT029 OVC035 14/07 A2994 RMK AO2 SLP140 T01390067=
202410162153 METAR KPAE 162153Z 04004KT 10SM SCT041 BKN075 16/06 A2996 RMK AO2 SLP144 T01560061=
202410162053 METAR KPAE 162053Z VRB05KT 10SM FEW046 14/07 A2997 RMK AO2 SLP149 60000 T01440067 58012=
202410161953 METAR KPAE 161953Z VRB04KT 10SM SCT010 OVC045 14/07 A2999 RMK AO2 SLP157 T01390067=
202410161853 METAR KPAE 161853Z 01005KT 10SM SCT010 OVC045 13/08 A3000 RMK AO2 RAB11E27 SLP160 P0000 T01330078=
202410161817 SPECI KPAE 161817Z 00000KT 10SM -RA SCT007 BKN025 OVC045 13/08 A3001 RMK AO2 RAB11 P0000 T01280083=
202410161753 METAR KPAE 161753Z 00000KT 10SM BKN025 OVC036 13/08 A3001 RMK AO2 SLP161 60001 T01280078 10128 20111 53014=
202410161653 METAR KPAE 161653Z 08005KT 10SM BKN025 OVC036 12/08 A2999 RMK AO2 RAE13 SLP153 P0000 T01220078=
202410161629 SPECI KPAE 161629Z 02004KT 10SM BKN025 OVC033 12/08 A2998 RMK AO2 RAE13 P0000 T01170083=
202410161553 METAR KPAE 161553Z 33004KT 9SM -RA BKN007 OVC023 11/08 A2998 RMK AO2 RAB19 SLP153 P0001 T01110083=
202410161453 METAR KPAE 161453Z 24005KT 10SM BKN006 OVC015 12/10 A2997 RMK AO2 SLP147 T01220100 53000=
202410161353 METAR KPAE 161353Z 22007KT 10SM BKN005 OVC013 12/09 A2996 RMK AO2 SLP144 T01220094=
202410161253 METAR KPAE 161253Z AUTO 20006KT 10SM BKN011 OVC015 12/09 A2996 RMK AO2 SLP145 T01220094=
202410161153 METAR KPAE 161153Z AUTO 17010KT 10SM OVC014 12/09 A2997 RMK AO2 RAB00E15 SLP147 P0000 60007 70007 T01220094 10139 20117 56006=
202410161053 METAR KPAE 161053Z AUTO 16008KT 10SM BKN012 OVC018 12/09 A2997 RMK AO2 SLP149 T01170094=
202410161048 SPECI KPAE 161048Z AUTO 15008KT 10SM BKN014 OVC018 12/09 A2997 RMK AO2=
202410160953 METAR KPAE 160953Z AUTO 16012KT 10SM OVC022 12/08 A2998 RMK AO2 SLP153 T01170083=
202410160940 SPECI KPAE 160940Z AUTO 15011KT 10SM BKN022 BKN028 OVC037 12/08 A2998 RMK AO2 T01170083=
202410160853 METAR KPAE 160853Z AUTO 15014KT 10SM OVC065 12/08 A2999 RMK AO2 RAE50 SLP154 P0000 60007 T01170083 58004=
202410160753 METAR KPAE 160753Z AUTO 15011KT 10SM -RA FEW036 BKN047 OVC060 12/08 A2999 RMK AO2 SLP156 P0005 T01220078 401560117=
202410160653 METAR KPAE 160653Z AUTO 17012KT 8SM -RA FEW050 OVC065 12/07 A3001 RMK AO2 RAB33 SLP160 P0002 T01220067=
202410160553 METAR KPAE 160553Z AUTO 16009KT 10SM OVC090 14/06 A3000 RMK AO2 SLP158 60000 T01390061 10156 20139 56004=
202410160453 METAR KPAE 160453Z AUTO 18013KT 10SM SCT090 BKN120 14/09 A3000 RMK AO2 RAB00E13 SLP158 P0000 T01390089=
202410160353 METAR KPAE 160353Z AUTO 18009KT 10SM SCT012 BKN120 14/11 A3000 RMK AO2 RAB0255E04 SLP160 P0000 T01440111=
202410160253 METAR KPAE 160253Z 21004KT 10SM OVC012 14/11 A3001 RMK AO2 SLP162 T01440111 58003=
202410160153 METAR KPAE 160153Z 18007KT 10SM OVC013 15/11 A3002 RMK AO2 SLP164 T01500106=
202410160148 SPECI KPAE 160148Z 18006KT 10SM OVC014 15/10 A3002 RMK AO2=
202410160053 METAR KPAE 160053Z 15004KT 10SM OVC016 15/10 A3002 RMK AO2 SLP165 T01500100=
202410152353 METAR KPAE 152353Z 00000KT 10SM BKN017 15/08 A3004 RMK AO2 SLP171 T01500083 10150 20128 58002=
202410152253 METAR KPAE 152253Z 15006KT 10SM BKN017 OVC055 15/08 A3004 RMK AO2 SLP172 T01500078=
202410152153 METAR KPAE 152153Z 21003KT 10SM OVC020 14/07 A3005 RMK AO2 SLP175 T01390072=
202410152100 SPECI KPAE 152100Z 26004KT 10SM OVC022 14/09 A3004 RMK AO2 T01440089=
202410152053 METAR KPAE 152053Z 00000KT 10SM SCT020 14/09 A3004 RMK AO2 SLP173 T01440089 58016=
202410151953 METAR KPAE 151953Z 00000KT 10SM SCT020 15/06 A3006 RMK AO2 SLP178 T01500056=
202410151930 SPECI KPAE 151930Z 00000KT 10SM BKN016 OVC080 14/08 A3007 RMK AO2 T01440078=
202410151853 METAR KPAE 151853Z 00000KT 10SM OVC080 14/07 A3008 RMK AO2 SLP184 T01440072=
202410151753 METAR KPAE 151753Z 36004KT 10SM BKN022 OVC042 13/08 A3009 RMK AO2 SLP191 T01280083 10133 20117 53002=
202410151710 SPECI KPAE 151710Z 34005KT 10SM BKN022 OVC047 13/07 A3009 RMK AO2 T01280072=
202410151653 METAR KPAE 151653Z 35005KT 10SM FEW021 BKN047 OVC080 13/07 A3008 RMK AO2 SLP186 T01280067=
202410151553 METAR KPAE 151553Z 35003KT 10SM FEW023 OVC044 12/08 A3009 RMK AO2 SLP190 T01220083=
202410151453 METAR KPAE 151453Z 34003KT 10SM SCT060 12/08 A3009 RMK AO2 SLP189 T01170078 56011=
202410151353 METAR KPAE 151353Z 36003KT 10SM SCT050 OVC070 12/09 A3010 RMK AO2 SLP193 T01170089=
202410151330 SPECI KPAE 151330Z 36006KT 10SM FEW024 SCT050 BKN065 12/09 A3010 RMK AO2 T01170089=
202410151305 SPECI KPAE 151305Z 01005KT 10SM BKN025 12/09 A3010 RMK AO2 T01220089=
202410151253 METAR KPAE 151253Z 36005KT 10SM SCT026 12/09 A3010 RMK AO2 SLP193 T01170089=
202410151240 SPECI KPAE 151240Z 35004KT 10SM FEW026 12/09 A3010 RMK AO2 T01170089=
202410151153 METAR KPAE 151153Z 00000KT 10SM OVC022 12/07 A3012 RMK AO2 SLP198 60000 70002 T01220072 10128 20117 55010=
202410151132 SPECI KPAE 151132Z 00000KT 10SM FEW013 OVC022 12/08 A3011 RMK AO2 T01220083=
202410151053 METAR KPAE 151053Z 00000KT 10SM OVC014 13/08 A3012 RMK AO2 SLP198 T01280083=
202410151033 SPECI KPAE 151033Z 06003KT 10SM BKN014 BKN075 13/08 A3011 RMK AO2 T01280083=
202410150953 METAR KPAE 150953Z 07004KT 10SM SCT017 BKN031 OVC075 13/08 A3013 RMK AO2 SLP201 T01280078=
202410150853 METAR KPAE 150853Z 02004KT 10SM OVC018 13/08 A3015 RMK AO2 RAE05 SLP209 P0000 60000 T01280083 51006=
202410150753 METAR KPAE 150753Z 02003KT 10SM -RA OVC018 12/09 A3015 RMK AO2 RAB28 SLP208 P0000 T01220094 401890117=
202410150653 METAR KPAE 150653Z 00000KT 10SM OVC018 12/10 A3015 RMK AO2 SLP207 T01220100=
202410150553 METAR KPAE 150553Z 36003KT 10SM OVC017 12/10 A3013 RMK AO2 SLP203 60001 T01170100 10178 20117 58001=
202410150453 METAR KPAE 150453Z 01005KT 10SM OVC017 12/10 A3014 RMK AO2 SLP206 T01220100=
202410150431 SPECI KPAE 150431Z 01006KT 10SM SCT005 OVC019 12/10 A3014 RMK AO2 T01220100=
202410150422 SPECI KPAE 150422Z 01006KT 10SM BKN004 OVC017 12/10 A3014 RMK AO2 T01220100=
202410150401 SPECI KPAE 150401Z 01006KT 10SM SCT002 OVC018 12/11 A3014 RMK AO2 T01220106=
202410150353 METAR KPAE 150353Z 36006KT 10SM BKN002 OVC018 12/11 A3014 RMK AO2 SLP205 T01220106=
202410150337 SPECI KPAE 150337Z 01007KT 10SM BKN002 BKN018 OVC024 12/11 A3013 RMK AO2 T01220106=
202410150327 SPECI KPAE 150327Z 02008KT 10SM BKN001 BKN018 OVC026 12/11 A3013 RMK AO2 T01220106=
202410150257 SPECI KPAE 150257Z 02007KT 9SM SCT001 BKN026 OVC065 12/11 A3013 RMK AO2 T01220111=
202410150253 METAR KPAE 150253Z 02006KT 1SM R16R/P6000FT BR BKN003 OVC010 12/11 A3014 RMK AO2 RAE09 SLP205 P0000 60001 T01220111 51010=
202410150153 METAR KPAE 150153Z 32003KT 1SM R16R/P6000FT -RA BR OVC002 13/12 A3013 RMK AO2 RAE09B29 SLP203 P0001 T01330122=
202410150132 SPECI KPAE 150132Z 35005KT 1SM R16R/P6000FT -RA BR OVC002 14/12 A3012 RMK AO2 RAE09B29 P0000 T01390122=
202410150129 SPECI KPAE 150129Z 36006KT 10SM -RA OVC002 14/12 A3012 RMK AO2 RAE09B29 P0000 T01390122=
202410150107 SPECI KPAE 150107Z 01004KT 10SM -RA BKN005 OVC010 14/13 A3011 RMK AO2 CIG 003V008 P0000 T01440128=
202410150053 METAR KPAE 150053Z 28005KT 9SM -RA BKN010 BKN014 OVC020 16/13 A3011 RMK AO2 RAB46 SLP196 P0000 T01610133=
202410142353 METAR KPAE 142353Z 18009KT 10SM SCT010 BKN016 OVC033 18/14 A3011 RMK AO2 RAB12E38 SLP193 P0000 60001 T01780139 10189 20167 53007=
202410142253 METAR KPAE 142253Z 19008KT 10SM OVC018 18/13 A3010 RMK AO2 SLP191 T01780133=
202410142225 SPECI KPAE 142225Z 17010KT 10SM BKN019 BKN026 OVC055 18/13 A3009 RMK AO2 T01780133=
202410142153 METAR KPAE 142153Z 17014G24KT 10SM FEW005 SCT016 BKN075 18/14 A3008 RMK AO2 PK WND 18027/2059 RAB36E48 SLP184 P0000 T01780139=
202410142100 SPECI KPAE 142100Z 18020G27KT 10SM FEW004 BKN070 OVC085 17/14 A3008 RMK AO2 PK WND 18027/2059 T01720139=
202410142053 METAR KPAE 142053Z 18018G23KT 10SM BKN070 OVC085 17/14 A3008 RMK AO2 RAE47 SLP186 P0001 60001 T01720139 53006=
202410142019 SPECI KPAE 142019Z 17013G23KT 2SM -RA FEW004 BKN040 OVC070 17/14 A3007 RMK AO2 P0001 T01670139=
202410142010 SPECI KPAE 142010Z 17014KT 2SM -RA BKN040 OVC047 17/14 A3008 RMK AO2 P0000 T01670139=
202410141953 METAR KPAE 141953Z 17016G22KT 3SM -RA BKN038 BKN049 OVC060 18/13 A3007 RMK AO2 RAB33 SLP181 P0000 T01780128=
202410141853 METAR KPAE 141853Z 18013G25KT 10SM OVC042 19/12 A3007 RMK AO2 SLP181 T01890122=
202410141753 METAR KPAE 141753Z 18015G20KT 10SM CLR 18/12 A3007 RMK AO2 SLP179 T01780122 10178 20150 52008=
202410141653 METAR KPAE 141653Z 15011KT 10SM CLR 17/12 A3005 RMK AO2 SLP176 T01670122=
202410141553 METAR KPAE 141553Z 16011KT 10SM CLR 16/12 A3005 RMK AO2 SLP175 T01610122=
202410141453 METAR KPAE 141453Z 16010G19KT 10SM CLR 16/12 A3004 RMK AO2 SLP172 T01560122 51004=
202410141353 METAR KPAE 141353Z VRB04KT 10SM CLR 15/12 A3004 RMK AO2 SLP171 T01500117=
202410141253 METAR KPAE 141253Z 14010KT 10SM CLR 16/12 A3003 RMK AO2 SLP168 T01560117=
202410141153 METAR KPAE 141153Z 15011KT 10SM CLR 16/12 A3003 RMK AO2 SLP166 T01560117 10178 20156 53000=
202410141053 METAR KPAE 141053Z 15012KT 10SM CLR 16/11 A3002 RMK AO2 SLP163 T01560111=
202410140953 METAR KPAE 140953Z 16011KT 10SM CLR 16/12 A3003 RMK AO2 SLP166 T01560117=
202410140853 METAR KPAE 140853Z 15010KT 10SM CLR 16/11 A3003 RMK AO2 SLP166 T01610111 55003=
202410140753 METAR KPAE 140753Z 14009KT 10SM CLR 17/11 A3002 RMK AO2 SLP163 T01720111 402280111=
202410140653 METAR KPAE 140653Z 14006KT 10SM CLR 18/12 A3003 RMK AO2 SLP165 T01780117=
202410140553 METAR KPAE 140553Z VRB03KT 10SM CLR 17/12 A3004 RMK AO2 SLP169 T01720117 10222 20150 55002=
202410140453 METAR KPAE 140453Z 00000KT 10SM CLR 16/12 A3003 RMK AO2 SLP169 T01610117=
202410140353 METAR KPAE 140353Z 02003KT 10SM CLR 16/11 A3004 RMK AO2 SLP171 T01560111=
202410140253 METAR KPAE 140253Z 00000KT 10SM CLR 17/11 A3004 RMK AO2 SLP173 T01670111 56004=
202410140153 METAR KPAE 140153Z 33003KT 10SM CLR 16/11 A3004 RMK AO2 SLP173 T01610111=
202410140053 METAR KPAE 140053Z 01003KT 10SM CLR 19/12 A3004 RMK AO2 SLP173 T01890117=
202410132353 METAR KPAE 132353Z 36003KT 10SM CLR 22/11 A3005 RMK AO2 SLP175 T02220111 10228 20178 56016=
202410132253 METAR KPAE 132253Z 00000KT 10SM CLR 22/11 A3007 RMK AO2 SLP180 T02170106=
202410132153 METAR KPAE 132153Z 00000KT 10SM CLR 21/12 A3008 RMK AO2 SLP186 T02110122=
202410132053 METAR KPAE 132053Z 18006KT 10SM CLR 22/11 A3010 RMK AO2 SLP191 T02220106 58021=
202410131953 METAR KPAE 131953Z 18006KT 10SM CLR 21/11 A3013 RMK AO2 SLP202 T02110106=
202410131853 METAR KPAE 131853Z 18006KT 10SM CLR 19/11 A3015 RMK AO2 SLP209 T01940106=
202410131753 METAR KPAE 131753Z VRB04KT 10SM CLR 18/11 A3016 RMK AO2 SLP213 T01780106 10178 20111 58003=
202410131653 METAR KPAE 131653Z 15007KT 10SM CLR 16/10 A3018 RMK AO2 SLP218 T01560100=
202410131553 METAR KPAE 131553Z 15006KT 10SM CLR 14/09 A3018 RMK AO2 SLP221 T01390094=
202410131453 METAR KPAE 131453Z 00000KT 10SM CLR 12/08 A3017 RMK AO2 SLP217 T01220083 53009=
202410131353 METAR KPAE 131353Z 18004KT 10SM CLR 12/09 A3015 RMK AO2 SLP211 T01220089=
202410131253 METAR KPAE 131253Z AUTO 18003KT 10SM CLR 12/09 A3016 RMK AO2 SLP212 T01170089=
202410131153 METAR KPAE 131153Z AUTO 15008KT 10SM CLR 14/09 A3015 RMK AO2 SLP207 T01440094 10150 20111 58008=
202410131053 METAR KPAE 131053Z AUTO VRB03KT 10SM CLR 13/09 A3017 RMK AO2 SLP214 T01330094=
202410130953 METAR KPAE 130953Z AUTO 12004KT 10SM CLR 13/09 A3018 RMK AO2 SLP218 T01280094=
202410130853 METAR KPAE 130853Z AUTO 11006KT 10SM CLR 13/09 A3017 RMK AO2 SLP215 T01280089 51013=
202410130753 METAR KPAE 130753Z AUTO 00000KT 10SM CLR 13/09 A3016 RMK AO2 SLP213 T01330089 401940083=
202410130653 METAR KPAE 130653Z AUTO 17005KT 10SM CLR 13/08 A3014 RMK AO2 SLP207 T01280083=
202410130553 METAR KPAE 130553Z AUTO 17004KT 10SM CLR 15/09 A3013 RMK AO2 SLP203 T01500089 10189 20133 51003=
202410130453 METAR KPAE 130453Z AUTO 10006KT 10SM CLR 14/09 A3012 RMK AO2 SLP201 T01440089=
202410130353 METAR KPAE 130353Z 00000KT 10SM CLR 15/08 A3013 RMK AO2 SLP204 T01500083=
202410130253 METAR KPAE 130253Z 00000KT 10SM CLR 15/08 A3012 RMK AO2 SLP201 T01500083 51010=
202410130153 METAR KPAE 130153Z 23003KT 10SM CLR 16/08 A3011 RMK AO2 SLP196 T01560083=
202410130053 METAR KPAE 130053Z 22004KT 10SM CLR 17/09 A3011 RMK AO2 SLP194 T01670089=
202410122353 METAR KPAE 122353Z 00000KT 10SM CLR 19/09 A3009 RMK AO2 SLP189 T01890094 10194 20139 55003=
202410122253 METAR KPAE 122253Z 02003KT 10SM CLR 19/07 A3009 RMK AO2 SLP188 T01890072=
202410122153 METAR KPAE 122153Z VRB03KT 10SM CLR 19/08 A3009 RMK AO2 SLP190 T01890083=
202410122053 METAR KPAE 122053Z 33004KT 10SM CLR 18/09 A3010 RMK AO2 SLP192 T01780089 58001=
202410121953 METAR KPAE 121953Z 36004KT 10SM CLR 17/08 A3010 RMK AO2 SLP193 T01670083=
202410121853 METAR KPAE 121853Z 36005KT 10SM CLR 15/09 A3010 RMK AO2 SLP194 T01500094=
202410121753 METAR KPAE 121753Z 28004KT 10SM CLR 14/10 A3010 RMK AO2 SLP194 T01390100 10144 20083 51002=
202410121653 METAR KPAE 121653Z 00000KT 10SM CLR 13/09 A3010 RMK AO2 SLP193 T01280089=
202410121553 METAR KPAE 121553Z 00000KT 10SM CLR 11/08 A3011 RMK AO2 SLP195 T01110083=
202410121453 METAR KPAE 121453Z 00000KT 10SM CLR 09/07 A3010 RMK AO2 SLP193 T00890072 53019=
202410121353 METAR KPAE 121353Z 00000KT 9SM CLR 09/08 A3008 RMK AO2 SLP185 T00940083=
202410121253 METAR KPAE 121253Z AUTO 36004KT 10SM CLR 10/08 A3005 RMK AO2 SLP176 T01000083=
202410121153 METAR KPAE 121153Z AUTO 00000KT 10SM CLR 10/08 A3004 RMK AO2 SLP173 T01000083 10111 20094 53000=
202410121053 METAR KPAE 121053Z AUTO 35003KT 10SM CLR 10/08 A3003 RMK AO2 SLP169 T01000083=
202410120953 METAR KPAE 120953Z AUTO 01004KT 10SM CLR 10/08 A3003 RMK AO2 SLP170 T01000083=
202410120853 METAR KPAE 120853Z AUTO 01004KT 10SM CLR 10/08 A3004 RMK AO2 SLP173 T01000083 51004=
202410120753 METAR KPAE 120753Z AUTO 36003KT 10SM CLR 10/08 A3003 RMK AO2 SLP170 T01000083 401610089=
202410120653 METAR KPAE 120653Z AUTO 36003KT 10SM CLR 11/08 A3004 RMK AO2 SLP172 T01060083=
202410120553 METAR KPAE 120553Z AUTO 36003KT 10SM CLR 11/09 A3003 RMK AO2 SLP169 60000 T01110094 10139 20111 56000=
202410120453 METAR KPAE 120453Z AUTO 02005KT 10SM CLR 12/09 A3003 RMK AO2 SLP169 T01220089=
202410120353 METAR KPAE 120353Z 00000KT 10SM CLR 13/09 A3003 RMK AO2 SLP168 T01280089=
202410120253 METAR KPAE 120253Z 00000KT 10SM CLR 13/09 A3003 RMK AO2 SLP169 60000 T01280089 56004=
202410120153 METAR KPAE 120153Z 00000KT 10SM OVC100 13/08 A3004 RMK AO2 SLP172 T01330083=
202410120053 METAR KPAE 120053Z 01004KT 10SM OVC100 14/08 A3003 RMK AO2 RAB31E44 SLP170 P0000 T01390083=
202410112353 METAR KPAE 112353Z 00000KT 10SM OVC110 13/09 A3004 RMK AO2 RAB04E24 SLP173 P0000 60000 T01330089 10161 20111 55001=
202410112253 METAR KPAE 112253Z 33004KT 10SM FEW070 OVC095 14/08 A3003 RMK AO2 SLP171 T01390078=
202410112153 METAR KPAE 112153Z 34003KT 10SM FEW070 SCT090 BKN110 14/08 A3003 RMK AO2 SLP169 T01440078=
202410112053 METAR KPAE 112053Z 32004KT 10SM CLR 14/08 A3004 RMK AO2 SLP175 T01440078 58008=
202410111953 METAR KPAE 111953Z 36004KT 10SM CLR 16/07 A3006 RMK AO2 SLP178 T01560072=
202410111853 METAR KPAE 111853Z 00000KT 10SM CLR 14/07 A3007 RMK AO2 SLP182 T01390072=
202410111753 METAR KPAE 111753Z 00000KT 10SM FEW003 11/07 A3007 RMK AO2 SLP184 T01110072 10111 20089 51006=
202410111724 SPECI KPAE 111724Z 36004KT 10SM FEW003 11/07 A3007 RMK AO2 T01060072=
202410111653 METAR KPAE 111653Z 01004KT 5SM BR BKN003 10/08 A3006 RMK AO2 SLP182 T01000083=
202410111621 SPECI KPAE 111621Z 36006KT 1SM R16R/P6000FT BR OVC002 09/08 A3007 RMK AO2 T00940083=
202410111559 SPECI KPAE 111559Z 34004KT 1SM R16R/P6000FT BR OVC001 09/08 A3007 RMK AO2 T00940083=
202410111555 SPECI KPAE 111555Z 33003KT 2 1/2SM BR OVC001 09/08 A3007 RMK AO2 T00940083=
202410111553 METAR KPAE 111553Z 33003KT 1SM R16R/P6000FT BR OVC001 09/08 A3007 RMK AO2 SLP184 T00940083=
202410111546 SPECI KPAE 111546Z 33003KT 2 1/2SM BR OVC001 09/08 A3007 RMK AO2 T00940083=
202410111536 SPECI KPAE 111536Z 35003KT 3SM BR OVC001 09/08 A3006 RMK AO2 T00940078=
202410111524 SPECI KPAE 111524Z 33003KT 2SM R16R/4500VP6000FT BR OVC001 09/08 A3006 RMK AO2 T00890078=
202410111455 SPECI KPAE 111455Z 35004KT 1/2SM R16R/1200V3000FT FG VV001 09/08 A3005 RMK AO2 T00890078=
202410111453 METAR KPAE 111453Z 35004KT 1/4SM R16R/1200V2000FT FG VV001 09/08 A3005 RMK AO2 SLP179 T00890078 56001=
202410111449 SPECI KPAE 111449Z 34004KT 1/4SM R16R/1000V1800FT FG VV001 09/08 A3005 RMK AO2=
202410111439 SPECI KPAE 111439Z 35005KT M1/4SM R16R/0700V1000FT FG VV001 09/08 A3005 RMK AO2 T00890078=
202410111432 SPECI KPAE 111432Z VRB03KT 1/4SM R16R/0800V1400FT FG VV001 09/08 A3005 RMK AO2 T00890078=
202410111421 SPECI KPAE 111421Z 35003KT 1/4SM R16R/1000V3500FT FG VV001 09/08 A3005 RMK AO2 T00890078=
202410111353 METAR KPAE 111353Z 35004KT 2SM R16R/4000VP6000FT BR OVC001 09/08 A3005 RMK AO2 SLP177 T00940083=
202410111346 SPECI KPAE 111346Z AUTO 36003KT 2SM R16R/2600VP6000FT BR OVC001 09/08 A3005 RMK AO2 VIS 1 1/2V4 T00940083=
202410111335 SPECI KPAE 111335Z AUTO 01005KT 3SM R16R/3000VP6000FT BR OVC001 09/08 A3005 RMK AO2 T00940083=
202410111305 SPECI KPAE 111305Z AUTO 36003KT 1 1/4SM R16R/2000V3500FT BR OVC001 09/08 A3005 RMK AO2 T00940083=
202410111253 METAR KPAE 111253Z AUTO 00000KT 1/2SM R16R/2200V3500FT FG VV001 09/08 A3005 RMK AO2 SLP178 T00940083=
202410111230 SPECI KPAE 111230Z AUTO 33003KT 3/4SM R16R/1800V2800FT BR VV001 09/08 A3005 RMK AO2 T00940083=
202410111227 SPECI KPAE 111227Z AUTO 33003KT 1SM R16R/1800V2800FT BR VV002 10/08 A3005 RMK AO2 T01000083=
202410111224 SPECI KPAE 111224Z AUTO 35003KT 3/4SM R16R/2200V3000FT BR VV001 10/08 A3005 RMK AO2 T01000083=
202410111220 SPECI KPAE 111220Z AUTO 36003KT 1SM R16R/2400V3500FT BR VV002 09/08 A3005 RMK AO2 T00940083=
202410111212 SPECI KPAE 111212Z AUTO VRB03KT 1SM R16R/2800V4000FT BR OVC001 09/08 A3005 RMK AO2 T00940083=
202410111202 SPECI KPAE 111202Z AUTO 03003KT 2 1/2SM R16R/4000VP6000FT BR OVC001 10/08 A3005 RMK AO2 T01000083=
202410111153 METAR KPAE 111153Z AUTO 01003KT 3SM BR OVC001 09/08 A3005 RMK AO2 SLP176 T00940083 10100 20094 58003=
202410111145 SPECI KPAE 111145Z AUTO 34003KT 4SM BR OVC001 09/08 A3005 RMK AO2 T00940083=
202410111136 SPECI KPAE 111136Z AUTO 00000KT 2SM BR OVC001 09/08 A3005 RMK AO2 T00940083=
202410111129 SPECI KPAE 111129Z AUTO 00000KT 3/4SM R16R/P6000FT BR VV001 09/08 A3006 RMK AO2 T00940083=
202410111117 SPECI KPAE 111117Z AUTO 00000KT 1/4SM R16R/1200V3500FT FG VV001 09/08 A3006 RMK AO2 T00940083=
202410111053 METAR KPAE 111053Z AUTO 28003KT 1/4SM R16R/1200V1400FT FG VV001 09/08 A3006 RMK AO2 SLP179 T00940083=
202410111051 SPECI KPAE 111051Z AUTO 00000KT 1/4SM R16R/0800V1200FT FG VV001 09/08 A3006 RMK AO2=
202410111038 SPECI KPAE 111038Z AUTO 00000KT M1/4SM R16R/0800V1000FT FG VV001 09/08 A3005 RMK AO2 T00940083=
202410110953 METAR KPAE 110953Z AUTO 03005KT 1/4SM R16R/1000V1600FT FG VV001 10/09 A3006 RMK AO2 SLP179 T01000089=
202410110944 SPECI KPAE 110944Z AUTO 01004KT 1/2SM R16R/1200V1800FT FG VV001 10/09 A3006 RMK AO2 T01000089=
202410110936 SPECI KPAE 110936Z AUTO VRB03KT 3/4SM R16R/1600V2600FT BR VV001 10/09 A3006 RMK AO2 T01000089=
202410110913 SPECI KPAE 110913Z AUTO 35004KT 1 3/4SM R16R/2800VP6000FT BR OVC001 10/09 A3006 RMK AO2 T01000089=
202410110853 METAR KPAE 110853Z AUTO 36004KT 5SM BR OVC001 10/09 A3007 RMK AO2 SLP182 T01000089 55003=
202410110841 SPECI KPAE 110841Z AUTO 34005KT 6SM BR OVC001 10/09 A3007 RMK AO2 T01000089=
202410110753 METAR KPAE 110753Z AUTO 34004KT 10SM OVC003 10/09 A3007 RMK AO2 SLP182 T01000089 401440094=
202410110710 SPECI KPAE 110710Z AUTO 33003KT 9SM BKN004 10/08 A3007 RMK AO2 T01000083=
202410110653 METAR KPAE 110653Z AUTO 33003KT 10SM BKN005 09/08 A3008 RMK AO2 SLP185 T00940078=
202410110651 SPECI KPAE 110651Z AUTO 32003KT 10SM BKN005 09/08 A3008 RMK AO2=
202410110602 SPECI KPAE 110602Z AUTO 36003KT 10SM FEW007 09/08 A3008 RMK AO2 T00940078=
202410110553 METAR KPAE 110553Z AUTO 35003KT 10SM CLR 09/08 A3009 RMK AO2 SLP191 T00940078 10139 20094 58008=
202410110453 METAR KPAE 110453Z AUTO 32003KT 10SM CLR 10/08 A3011 RMK AO2 SLP195 T01000078=
202410110353 METAR KPAE 110353Z 34003KT 10SM CLR 10/08 A3010 RMK AO2 SLP194 T01000078=
202410110253 METAR KPAE 110253Z 00000KT 10SM CLR 11/08 A3011 RMK AO2 SLP198 T01060083 56009=
202410110153 METAR KPAE 110153Z 33004KT 10SM CLR 12/08 A3012 RMK AO2 SLP200 T01170083=
202410110053 METAR KPAE 110053Z 34005KT 10SM CLR 13/09 A3013 RMK AO2 SLP204 T01280089=
202410102353 METAR KPAE 102353Z 34006KT 10SM CLR 14/09 A3014 RMK AO2 SLP207 T01390089 10144 20106 58019=
202410102253 METAR KPAE 102253Z 32009KT 10SM CLR 14/09 A3017 RMK AO2 SLP217 T01390089=
202410102153 METAR KPAE 102153Z 36008G16KT 10SM FEW013 14/08 A3018 RMK AO2 SLP222 T01390083=
202410102104 SPECI KPAE 102104Z 36009KT 10SM SCT012 14/09 A3020 RMK AO2 T01390089=
202410102053 METAR KPAE 102053Z 33004KT 10SM BKN012 14/09 A3020 RMK AO2 SLP226 T01390089 58020=
202410101953 METAR KPAE 101953Z 31006KT 10SM OVC013 13/08 A3022 RMK AO2 SLP234 T01280083=
202410101853 METAR KPAE 101853Z 36008KT 10SM BKN005 OVC009 12/09 A3024 RMK AO2 SLP241 T01170089=
202410101753 METAR KPAE 101753Z 34007KT 10SM OVC004 11/09 A3026 RMK AO2 SLP247 T01060089 10111 20100 56003=
202410101717 SPECI KPAE 101717Z 35008KT 10SM OVC004 11/08 A3025 RMK AO2 T01060083=
202410101710 SPECI KPAE 101710Z 35006KT 10SM BKN005 OVC010 11/08 A3026 RMK AO2 T01060083=
202410101653 METAR KPAE 101653Z 35004KT 10SM OVC004 11/08 A3026 RMK AO2 SLP248 T01060083=
202410101553 METAR KPAE 101553Z 33004KT 10SM OVC004 10/08 A3026 RMK AO2 SLP248 T01000078=
202410101526 SPECI KPAE 101526Z 34005KT 10SM OVC004 10/08 A3026 RMK AO2 T01000083=
202410101453 METAR KPAE 101453Z 32004KT 10SM OVC005 10/08 A3027 RMK AO2 SLP249 T01000078 53010=
202410101429 SPECI KPAE 101429Z 32004KT 10SM OVC005 10/08 A3026 RMK AO2 T01000078=
202410101353 METAR KPAE 101353Z 32004KT 10SM OVC004 10/08 A3025 RMK AO2 SLP244 T01000083=
202410101343 SPECI KPAE 101343Z AUTO 34004KT 10SM OVC004 10/08 A3025 RMK AO2 T01000083=
202410101253 METAR KPAE 101253Z AUTO 33005KT 10SM OVC006 10/08 A3025 RMK AO2 CIG 004V010 SLP244 T01000083=
202410101222 SPECI KPAE 101222Z AUTO 35003KT 10SM BKN006 10/08 A3024 RMK AO2 T01000083=
202410101213 SPECI KPAE 101213Z AUTO 35005KT 10SM SCT006 10/08 A3024 RMK AO2 T01000083=
202410101204 SPECI KPAE 101204Z AUTO 34005KT 10SM BKN006 10/08 A3024 RMK AO2 T01000083=
202410101153 METAR KPAE 101153Z AUTO 35005KT 10SM SCT006 10/08 A3024 RMK AO2 SLP239 T01000083 10122 20100 50000=
202410101053 METAR KPAE 101053Z AUTO 35005KT 10SM FEW006 11/09 A3024 RMK AO2 SLP240 T01060089=
202410100953 METAR KPAE 100953Z AUTO 33003KT 10SM CLR 11/08 A3025 RMK AO2 SLP242 T01060083=
202410100853 METAR KPAE 100853Z AUTO 35003KT 10SM BKN049 OVC060 12/08 A3024 RMK AO2 SLP239 T01170083 52010=
202410100753 METAR KPAE 100753Z AUTO VRB04KT 10SM OVC042 12/09 A3023 RMK AO2 SLP236 T01220089 401670117=
202410100653 METAR KPAE 100653Z AUTO 35004KT 10SM BKN033 OVC070 12/09 A3021 RMK AO2 SLP232 T01170094=
202410100553 METAR KPAE 100553Z AUTO 34004KT 10SM BKN030 OVC070 12/10 A3021 RMK AO2 SLP229 T01220100 10161 20122 51008=
202410100549 SPECI KPAE 100549Z AUTO 35006KT 10SM BKN028 OVC070 12/09 A3020 RMK AO2=
202410100537 SPECI KPAE 100537Z AUTO 36004KT 10SM SCT026 OVC070 12/09 A3020 RMK AO2 T01220094=
202410100500 SPECI KPAE 100500Z AUTO 34006KT 10SM BKN026 12/09 A3019 RMK AO2 T01220094=
202410100453 METAR KPAE 100453Z AUTO 35006KT 10SM SCT026 12/09 A3020 RMK AO2 SLP225 T01220094=
202410100353 METAR KPAE 100353Z AUTO 21006KT 10SM CLR 13/08 A3018 RMK AO2 SLP220 T01330083=
202410100253 METAR KPAE 100253Z 15006KT 10SM SCT065 15/08 A3018 RMK AO2 SLP219 T01500078 53012=
202410100153 METAR KPAE 100153Z 16007KT 10SM BKN055 16/07 A3017 RMK AO2 SLP215 T01560067=
202410100053 METAR KPAE 100053Z 18003KT 10SM FEW110 16/07 A3015 RMK AO2 SLP209 T01560072=
202410092353 METAR KPAE 092353Z 26003KT 10SM CLR 16/08 A3014 RMK AO2 SLP206 T01610083 10167 20144 50003=
202410092253 METAR KPAE 092253Z 23003KT 10SM FEW050 16/08 A3014 RMK AO2 SLP207 T01610083=
202410092153 METAR KPAE 092153Z 25008KT 10SM CLR 17/08 A3014 RMK AO2 SLP206 T01670078=
202410092053 METAR KPAE 092053Z 26005KT 10SM CLR 16/08 A3013 RMK AO2 SLP203 T01610083 50005=
202410091953 METAR KPAE 091953Z 09005KT 10SM CLR 16/07 A3014 RMK AO2 SLP205 T01560067=
202410091853 METAR KPAE 091853Z 31004KT 10SM CLR 15/08 A3013 RMK AO2 SLP203 T01500078=
202410091753 METAR KPAE 091753Z 35005KT 10SM FEW060 14/06 A3012 RMK AO2 SLP198 T01440061 10150 20117 51017=
202410091653 METAR KPAE 091653Z 05005KT 10SM FEW055 14/07 A3010 RMK AO2 SLP192 T01440072=
202410091553 METAR KPAE 091553Z 02004KT 10SM CLR 13/08 A3008 RMK AO2 SLP187 T01330078=
202410091453 METAR KPAE 091453Z 01005KT 10SM OVC047 12/08 A3006 RMK AO2 SLP180 T01220078 52016=
202410091353 METAR KPAE 091353Z 35005KT 10SM FEW040 SCT060 12/08 A3005 RMK AO2 SLP174 T01170083=
202410091253 METAR KPAE 091253Z AUTO 36005KT 10SM OVC037 12/09 A3004 RMK AO2 SLP170 T01220089=
202410091153 METAR KPAE 091153Z AUTO 35003KT 10SM OVC030 12/09 A3002 RMK AO2 SLP164 60000 70015 T01220089 10144 20122 53004=
202410091053 METAR KPAE 091053Z AUTO 02003KT 10SM BKN030 OVC041 12/08 A3001 RMK AO2 RAB07E24 SLP161 P0000 T01220083=
202410091048 SPECI KPAE 091048Z AUTO 01004KT 10SM OVC031 12/08 A3001 RMK AO2 RAB07E24 P0000=
202410090953 METAR KPAE 090953Z AUTO 36005KT 10SM OVC019 12/08 A3001 RMK AO2 SLP160 T01220078=
202410090853 METAR KPAE 090853Z AUTO 36006KT 10SM OVC018 12/08 A3000 RMK AO2 SLP157 T01220083 53008=
202410090822 SPECI KPAE 090822Z AUTO 35005KT 10SM OVC016 12/09 A2999 RMK AO2 T01220089=
202410090753 METAR KPAE 090753Z AUTO 36005KT 10SM OVC013 12/09 A2998 RMK AO2 SLP153 T01220094 401890122=
202410090721 SPECI KPAE 090721Z AUTO 36005KT 10SM OVC010 12/10 A2998 RMK AO2 T01220100=
202410090710 SPECI KPAE 090710Z AUTO 35006KT 10SM FEW002 OVC009 12/10 A2998 RMK AO2 T01220100=
202410090653 METAR KPAE 090653Z AUTO 36005KT 10SM BKN002 OVC009 13/11 A2997 RMK AO2 SLP149 T01280111=
202410090635 SPECI KPAE 090635Z AUTO 01006KT 3SM R16R/1600VP6000FT BR OVC001 13/12 A2997 RMK AO2 T01330117=
202410090633 SPECI KPAE 090633Z AUTO 01007KT 1 1/2SM R16R/1000VP6000FT BR OVC001 13/12 A2997 RMK AO2 T01330117=
202410090621 SPECI KPAE 090621Z AUTO 01009KT 3/4SM R16R/1800VP6000FT BR BKN003 OVC008 14/12 A2997 RMK AO2 T01390122=
202410090617 SPECI KPAE 090617Z AUTO 36009KT 2 1/2SM BR BKN003 OVC008 14/13 A2997 RMK AO2 T01440128=
202410090601 SPECI KPAE 090601Z AUTO 02004KT 10SM SCT002 OVC008 14/13 A2997 RMK AO2 T01440128=
202410090553 METAR KPAE 090553Z AUTO 35004KT 10SM BKN002 OVC007 14/13 A2997 RMK AO2 SLP148 60000 T01440128 10183 20144 53009=
202410090536 SPECI KPAE 090536Z AUTO 35004KT 3SM BR OVC002 14/13 A2996 RMK AO2 T01440128=
202410090517 SPECI KPAE 090517Z AUTO 35004KT 1SM R16R/3500VP6000FT BR BKN002 OVC007 14/13 A2996 RMK AO2 T01440128=
202410090509 SPECI KPAE 090509Z AUTO 01004KT 2 1/2SM BR BKN002 OVC007 14/13 A2996 RMK AO2 T01440128=
202410090453 METAR KPAE 090453Z AUTO 00000KT 10SM BKN007 OVC075 16/13 A2996 RMK AO2 RAB17E27 SLP143 P0000 T01560133=
202410090425 SPECI KPAE 090425Z AUTO 23003KT 9SM -RA FEW008 BKN032 OVC085 16/13 A2995 RMK AO2 RAB17 P0000 T01560133=
202410090400 SPECI KPAE 090400Z AUTO 26005KT 10SM OVC030 16/13 A2995 RMK AO2 T01560133=
202410090353 METAR KPAE 090353Z AUTO 25003KT 10SM SCT005 BKN015 OVC065 16/14 A2995 RMK AO2 RAB27E36 SLP140 P0000 T01560139=
202410090303 SPECI KPAE 090303Z 23005KT 10SM SCT005 BKN015 OVC065 16/13 A2994 RMK AO2 T01610133=
202410090253 METAR KPAE 090253Z 24006KT 10SM SCT015 BKN065 OVC095 17/14 A2994 RMK AO2 SLP138 T01720139 56004=
202410090200 SPECI KPAE 090200Z 18008KT 10SM FEW017 OVC065 17/14 A2994 RMK AO2 T01720139=
202410090153 METAR KPAE 090153Z 18007KT 10SM SCT014 BKN019 17/14 A2994 RMK AO2 SLP138 T01720139=
202410090053 METAR KPAE 090053Z 21006KT 10SM SCT014 BKN019 18/14 A2995 RMK AO2 SLP141 T01780139=
202410082353 METAR KPAE 082353Z 23003KT 10SM BKN021 OVC095 18/14 A2996 RMK AO2 SLP141 T01780144 10183 20144 56007=
202410082300 SPECI KPAE 082300Z 18009KT 10SM BKN016 OVC022 18/14 A2995 RMK AO2 T01830144=
202410082253 METAR KPAE 082253Z 17007KT 10SM OVC009 18/14 A2996 RMK AO2 SLP141 T01830144=
202410082153 METAR KPAE 082153Z 20006KT 10SM OVC009 17/14 A2996 RMK AO2 SLP144 T01720144=
202410082053 METAR KPAE 082053Z 16008KT 10SM OVC009 17/13 A2998 RMK AO2 SLP148 T01670133 58003=
202410081953 METAR KPAE 081953Z 17007KT 10SM OVC006 16/13 A2999 RMK AO2 SLP152 T01610133=
202410081928 SPECI KPAE 081928Z 16008KT 2SM BR OVC005 16/13 A2998 RMK AO2 T01560133=
202410081853 METAR KPAE 081853Z 16010KT 2 1/2SM BR OVC003 15/13 A2999 RMK AO2 SLP153 T01500133=
202410081830 SPECI KPAE 081830Z 16007KT 1 1/2SM BR OVC004 14/13 A2999 RMK AO2 T01440133=
202410081811 SPECI KPAE 081811Z 18008KT 2 1/2SM BR OVC004 15/13 A2999 RMK AO2 T01500133=
202410081800 SPECI KPAE 081800Z 17009KT 1 3/4SM BR OVC004 14/13 A2999 RMK AO2 T01440133=
202410081753 METAR KPAE 081753Z 18010KT 140V200 2SM BR OVC004 14/13 A2999 RMK AO2 SLP153 60015 T01440128 10172 20139 51018=
202410081726 SPECI KPAE 081726Z 17009KT 2SM BR OVC004 14/13 A2998 RMK AO2 T01440128=
202410081703 SPECI KPAE 081703Z 16010KT 1 3/4SM BR OVC003 14/12 A2998 RMK AO2 T01440122=
202410081653 METAR KPAE 081653Z 16012KT 4SM BR OVC003 14/12 A2997 RMK AO2 SLP149 T01390122=
202410081553 METAR KPAE 081553Z 15010KT 10SM OVC003 14/12 A2995 RMK AO2 SLP140 T01390122=
202410081506 SPECI KPAE 081506Z 16009KT 10SM OVC004 14/12 A2994 RMK AO2 T01390122=
202410081453 METAR KPAE 081453Z 16011KT 10SM OVC005 14/12 A2993 RMK AO2 RAE05 SLP134 P0000 60015 T01390122 53014=
202410081353 METAR KPAE 081353Z 16008KT 10SM -RA BKN007 BKN016 OVC046 14/12 A2991 RMK AO2 SLP128 P0007 T01390117=
202410081342 SPECI KPAE 081342Z AUTO 18008KT 5SM -RA BR FEW009 BKN021 OVC065 14/12 A2991 RMK AO2 P0006 T01390117=
202410081327 SPECI KPAE 081327Z AUTO 16013KT 4SM -RA SCT024 BKN050 OVC070 14/11 A2990 RMK AO2 P0004 T01390106=
202410081253 METAR KPAE 081253Z AUTO 18008KT 9SM -RA BKN027 OVC031 14/10 A2990 RMK AO2 RAB1155 SLP125 P0008 T01440100=
202410081243 SPECI KPAE 081243Z AUTO 19006KT 3SM RA BKN027 OVC033 14/10 A2991 RMK AO2 RAB1155 P0008 T01440100=
202410081237 SPECI KPAE 081237Z AUTO 22008KT 2 1/2SM +RA FEW021 BKN028 OVC033 15/09 A2991 RMK AO2 RAB1155 P0006 T01500094=
202410081153 METAR KPAE 081153Z AUTO 18014KT 10SM SCT095 SCT110 17/07 A2989 RMK AO2 SLP117 T01720072 10200 20172 53004=
202410081053 METAR KPAE 081053Z AUTO 16013G21KT 10SM CLR 18/06 A2987 RMK AO2 SLP113 T01780056=
202410080953 METAR KPAE 080953Z AUTO 16015KT 10SM CLR 17/09 A2988 RMK AO2 SLP114 T01720089=
202410080853 METAR KPAE 080853Z AUTO 16014G20KT 10SM FEW095 FEW120 18/11 A2988 RMK AO2 SLP113 T01830106 53001=
202410080753 METAR KPAE 080753Z AUTO 15008KT 10SM FEW120 19/11 A2988 RMK AO2 SLP113 T01940106 402560100=
202410080653 METAR KPAE 080653Z AUTO 16005KT 10SM CLR 19/11 A2987 RMK AO2 SLP113 T01890106=
202410080553 METAR KPAE 080553Z AUTO 16003KT 10SM CLR 19/10 A2987 RMK AO2 SLP114 T01890100 10256 20178 56006=
202410080453 METAR KPAE 080453Z AUTO 11006KT 10SM CLR 19/10 A2988 RMK AO2 SLP114 T01940100=
202410080353 METAR KPAE 080353Z 00000KT 10SM CLR 21/09 A2988 RMK AO2 SLP116 T02110089=
202410080253 METAR KPAE 080253Z 00000KT 10SM CLR 19/10 A2989 RMK AO2 SLP121 T01890100 56011=
202410080153 METAR KPAE 080153Z 00000KT 10SM CLR 18/10 A2990 RMK AO2 SLP124 T01780100=
202410080053 METAR KPAE 080053Z 36004KT 10SM CLR 20/10 A2991 RMK AO2 SLP126 T02000100=
202410072353 METAR KPAE 072353Z 19006KT 10SM CLR 26/09 A2993 RMK AO2 SLP131 T02560089 10256 20178 56018=
202410072253 METAR KPAE 072253Z 19006KT 10SM CLR 25/09 A2994 RMK AO2 SLP136 T02500089=
202410072153 METAR KPAE 072153Z 18007KT 10SM CLR 25/08 A2996 RMK AO2 SLP142 T02500083=
202410072053 METAR KPAE 072053Z 16010KT 10SM CLR 24/04 A2998 RMK AO2 SLP150 T02390044 58026=
202410071953 METAR KPAE 071953Z 17004KT 10SM CLR 23/08 A3001 RMK AO2 SLP160 T02280083=
202410071853 METAR KPAE 071853Z 15008KT 10SM CLR 20/09 A3003 RMK AO2 SLP169 T02000089=
202410071753 METAR KPAE 071753Z 16005KT 10SM CLR 18/08 A3006 RMK AO2 SLP177 T01780078 10178 20100 58008=
202410071653 METAR KPAE 071653Z 16003KT 10SM CLR 16/08 A3007 RMK AO2 SLP182 T01560078=
202410071553 METAR KPAE 071553Z 00000KT 10SM CLR 14/08 A3008 RMK AO2 SLP185 T01440083=
202410071453 METAR KPAE 071453Z 00000KT 10SM CLR 12/08 A3008 RMK AO2 SLP186 T01170083 56005=
202410071353 METAR KPAE 071353Z 00000KT 10SM CLR 11/07 A3008 RMK AO2 SLP187 T01060072=
202410071253 METAR KPAE 071253Z 00000KT 10SM CLR 12/08 A3009 RMK AO2 SLP187 T01170083=
202410071153 METAR KPAE 071153Z 12003KT 10SM CLR 12/08 A3010 RMK AO2 SLP191 T01220083 10144 20111 57010=
202410071053 METAR KPAE 071053Z 11004KT 10SM CLR 12/09 A3011 RMK AO2 SLP194 T01220089=
202410070953 METAR KPAE 070953Z 15003KT 10SM CLR 12/09 A3012 RMK AO2 SLP198 T01170089=
202410070853 METAR KPAE 070853Z 00000KT 10SM CLR 13/09 A3013 RMK AO2 SLP201 T01280094 56009=
202410070753 METAR KPAE 070753Z 00000KT 10SM CLR 14/09 A3013 RMK AO2 SLP202 T01440094 402060089=
202410070653 METAR KPAE 070653Z 00000KT 10SM CLR 14/09 A3015 RMK AO2 SLP208 T01390089=
202410070553 METAR KPAE 070553Z 10005KT 10SM CLR 14/09 A3015 RMK AO2 SLP211 T01440094 10200 20128 58001=
202410070453 METAR KPAE 070453Z 00000KT 10SM CLR 14/08 A3016 RMK AO2 SLP213 T01390083=
202410070353 METAR KPAE 070353Z 00000KT 10SM CLR 14/08 A3016 RMK AO2 SLP214 T01390083=
202410070253 METAR KPAE 070253Z 00000KT 10SM CLR 16/08 A3016 RMK AO2 SLP212 T01560083 53001=
202410070153 METAR KPAE 070153Z 15003KT 10SM CLR 18/08 A3014 RMK AO2 SLP207 T01830083=
202410070053 METAR KPAE 070053Z 18007KT 10SM CLR 19/08 A3015 RMK AO2 SLP208 T01890083=
202410062353 METAR KPAE 062353Z 16005KT 10SM CLR 20/09 A3016 RMK AO2 SLP210 T02000094 10206 20139 56009=
202410062253 METAR KPAE 062253Z 27005KT 10SM CLR 19/11 A3016 RMK AO2 SLP213 T01890106=
202410062153 METAR KPAE 062153Z 00000KT 10SM CLR 19/11 A3017 RMK AO2 SLP214 T01890106=
202410062053 METAR KPAE 062053Z 00000KT 10SM CLR 18/11 A3018 RMK AO2 SLP220 T01780106 58002=
202410061953 METAR KPAE 061953Z 15008KT 10SM CLR 17/10 A3019 RMK AO2 SLP224 T01670100=
202410061853 METAR KPAE 061853Z 16005KT 10SM SCT010 15/09 A3019 RMK AO2 SLP223 T01500094=
202410061753 METAR KPAE 061753Z 17003KT 10SM SCT004 14/10 A3019 RMK AO2 SLP223 T01440100 10144 20089 53009=
202410061653 METAR KPAE 061653Z 17003KT 10SM SCT006 13/10 A3018 RMK AO2 SLP220 T01330100=
202410061553 METAR KPAE 061553Z 22004KT 10SM CLR 12/10 A3016 RMK AO2 SLP215 T01220100=
202410061548 SPECI KPAE 061548Z 23003KT 10SM FEW004 12/10 A3016 RMK AO2=
202410061453 METAR KPAE 061453Z 00000KT 10SM CLR 09/07 A3014 RMK AO2 SLP207 T00940072 53010=
202410061353 METAR KPAE 061353Z 00000KT 10SM CLR 10/08 A3012 RMK AO2 SLP201 T01000083=
202410061253 METAR KPAE 061253Z AUTO 00000KT 10SM CLR 09/08 A3011 RMK AO2 SLP197 T00940078=
202410061153 METAR KPAE 061153Z AUTO 00000KT 10SM CLR 11/09 A3011 RMK AO2 SLP195 T01110094 10122 20106 58006=
202410061053 METAR KPAE 061053Z AUTO 36003KT 10SM CLR 11/09 A3011 RMK AO2 SLP197 T01060089=
202410060953 METAR KPAE 060953Z AUTO 33003KT 10SM CLR 12/09 A3013 RMK AO2 SLP203 T01170089=
202410060853 METAR KPAE 060853Z AUTO 36003KT 10SM CLR 12/09 A3013 RMK AO2 SLP202 T01170094 57010=
202410060753 METAR KPAE 060753Z AUTO 35006KT 10SM CLR 12/09 A3013 RMK AO2 SLP204 T01170094 401560106=
202410060653 METAR KPAE 060653Z AUTO VRB05KT 10SM CLR 12/09 A3015 RMK AO2 SLP210 T01170094=
202410060553 METAR KPAE 060553Z AUTO 34006KT 10SM CLR 12/09 A3016 RMK AO2 SLP212 T01220094 10156 20122 58009=
202410060453 METAR KPAE 060453Z AUTO 35004KT 10SM CLR 13/09 A3017 RMK AO2 SLP216 T01280094=
202410060353 METAR KPAE 060353Z 34003KT 10SM CLR 12/09 A3018 RMK AO2 SLP220 T01220094=
202410060253 METAR KPAE 060253Z 35006KT 10SM CLR 13/09 A3018 RMK AO2 SLP222 T01330094 56012=
202410060153 METAR KPAE 060153Z 34004KT 10SM CLR 13/09 A3019 RMK AO2 SLP225 T01330094=
202410060053 METAR KPAE 060053Z 34004KT 10SM SCT110 14/09 A3020 RMK AO2 SLP227 T01440094=
202410052353 METAR KPAE 052353Z 34006KT 10SM CLR 15/09 A3022 RMK AO2 SLP233 T01500094 10156 20133 56018=
202410052253 METAR KPAE 052253Z AUTO VRB06KT 10SM BKN120 15/10 A3023 RMK AO2 SLP236 T01500100=
202410052153 METAR KPAE 052153Z 36004KT 10SM CLR 15/08 A3025 RMK AO2 SLP242 T01500083=
202410052053 METAR KPAE 052053Z 36004KT 10SM CLR 16/08 A3027 RMK AO2 SLP252 T01560083 58007=
202410051953 METAR KPAE 051953Z 35006KT 10SM CLR 14/08 A3029 RMK AO2 SLP259 T01390083=
202410051853 METAR KPAE 051853Z VRB04KT 10SM CLR 14/10 A3030 RMK AO2 SLP260 T01440100=
202410051753 METAR KPAE 051753Z 14003KT 10SM CLR 13/08 A3030 RMK AO2 SLP259 T01330083 10133 20106 51007=
202410051653 METAR KPAE 051653Z 00000KT 10SM CLR 12/09 A3029 RMK AO2 SLP258 T01220089=
202410051553 METAR KPAE 051553Z 17004KT 10SM CLR 12/09 A3028 RMK AO2 SLP255 T01220094=
202410051453 METAR KPAE 051453Z 11004KT 10SM FEW010 11/09 A3028 RMK AO2 SLP253 T01060089 53012=
202410051425 SPECI KPAE 051425Z VRB04KT 10SM FEW010 12/09 A3027 RMK AO2 T01220089=
202410051357 SPECI KPAE 051357Z 14007KT 10SM BKN009 BKN017 11/09 A3026 RMK AO2 T01110094=
202410051353 METAR KPAE 051353Z 14005KT 10SM BKN017 11/09 A3026 RMK AO2 SLP249 T01110094=
202410051328 SPECI KPAE 051328Z AUTO VRB03KT 10SM BKN018 11/09 A3026 RMK AO2 T01110089=
202410051253 METAR KPAE 051253Z AUTO 14003KT 10SM CLR 12/09 A3025 RMK AO2 SLP243 T01170094=
202410051153 METAR KPAE 051153Z AUTO 00000KT 10SM FEW014 SCT021 12/09 A3024 RMK AO2 SLP240 70038 T01170094 10128 20111 50007=
202410051128 SPECI KPAE 051128Z AUTO 00000KT 10SM SCT017 12/09 A3024 RMK AO2 T01170089=
202410051115 SPECI KPAE 051115Z AUTO 00000KT 10SM BKN016 12/09 A3024 RMK AO2 T01170094=
202410051053 METAR KPAE 051053Z AUTO VRB03KT 10SM CLR 12/09 A3024 RMK AO2 SLP241 T01170094=
202410050953 METAR KPAE 050953Z AUTO VRB03KT 10SM FEW030 12/09 A3023 RMK AO2 SLP237 T01170094=
202410050853 METAR KPAE 050853Z AUTO 11004KT 10SM CLR 12/09 A3022 RMK AO2 SLP233 T01220094 51021=
202410050753 METAR KPAE 050753Z AUTO 11005KT 10SM SCT049 12/10 A3020 RMK AO2 SLP228 T01220100 401610106=
202410050653 METAR KPAE 050653Z AUTO 11003KT 10SM OVC036 13/11 A3019 RMK AO2 SLP223 T01280106=
202410050553 METAR KPAE 050553Z AUTO 08004KT 10SM CLR 12/10 A3016 RMK AO2 SLP213 T01220100 10156 20122 51025=
202410050453 METAR KPAE 050453Z AUTO 04004KT 10SM FEW033 13/09 A3014 RMK AO2 SLP206 T01280094=
202410050353 METAR KPAE 050353Z 06004KT 10SM SCT019 OVC031 13/11 A3011 RMK AO2 SLP198 T01330111=
202410050344 SPECI KPAE 050344Z 10004KT 10SM BKN019 OVC031 13/11 A3011 RMK AO2 T01330111=
202410050253 METAR KPAE 050253Z 10003KT 10SM BKN031 13/11 A3008 RMK AO2 SLP188 T01330111 51027=
202410050153 METAR KPAE 050153Z 01003KT 10SM SCT037 BKN046 13/11 A3006 RMK AO2 SLP179 T01330111=
202410050053 METAR KPAE 050053Z 05004KT 10SM OVC041 14/11 A3003 RMK AO2 SLP170 T01440106=
202410042353 METAR KPAE 042353Z 00000KT 10SM SCT006 BKN039 OVC075 15/11 A3000 RMK AO2 RAB00E15 SLP159 P0000 60000 T01500106 10161 20106 53027=
202410042259 SPECI KPAE 042259Z VRB03KT 10SM SCT006 BKN039 OVC075 16/11 A2997 RMK AO2 T01560111=
202410042253 METAR KPAE 042253Z 00000KT 10SM FEW012 BKN039 OVC055 15/10 A2997 RMK AO2 RAB25E46 SLP149 P0000 T01500100=
202410042153 METAR KPAE 042153Z 17006KT 10SM OVC006 14/11 A2995 RMK AO2 SLP140 T01390106=
202410042128 SPECI KPAE 042128Z 18007KT 10SM OVC006 14/11 A2994 RMK AO2 T01390106=
202410042119 SPECI KPAE 042119Z 17009KT 10SM SCT008 OVC014 13/11 A2993 RMK AO2 T01330106=
202410042053 METAR KPAE 042053Z 20007KT 10SM OVC006 13/10 A2992 RMK AO2 SLP132 T01280100 52027=
202410041953 METAR KPAE 041953Z 20010G15KT 10SM OVC006 12/10 A2990 RMK AO2 SLP124 T01220100=
202410041853 METAR KPAE 041853Z 18006KT 10SM BKN008 OVC015 12/09 A2987 RMK AO2 SLP114 T01170094=
202410041805 SPECI KPAE 041805Z 16009KT 10SM BKN008 OVC015 11/09 A2984 RMK AO2 T01110089=
202410041800 SPECI KPAE 041800Z 16008KT 10SM BKN010 OVC015 11/09 A2985 RMK AO2 CIG 007V013 T01060089=
202410041753 METAR KPAE 041753Z 16008KT 10SM BKN008 BKN023 OVC070 11/09 A2984 RMK AO2 RAE39 SLP105 P0003 60038 T01060089 10133 20106 53008=
202410041653 METAR KPAE 041653Z 16011G21KT 6SM -RA BR BKN008 OVC070 11/08 A2983 RMK AO2 PK WND 15026/1631 SLP100 P0003 T01060083=
202410041608 SPECI KPAE 041608Z 14010G18KT 10SM -RA BKN008 OVC070 11/08 A2981 RMK AO2 P0001 T01060083=
202410041553 METAR KPAE 041553Z 15010G18KT 5SM -RA BR FEW011 BKN070 OVC080 11/08 A2981 RMK AO2 SLP094 P0013 T01060083=
202410041453 METAR KPAE 041453Z 15007KT 5SM RA OVC060 11/08 A2982 RMK AO2 SLP097 P0011 60019 T01110083 53023=
202410041353 METAR KPAE 041353Z 17007KT 5SM RA SCT015 OVC065 12/09 A2978 RMK AO2 RAB16 SLP084 P0008 T01170089=
202410041253 METAR KPAE 041253Z AUTO 15010KT 10SM OVC095 13/07 A2974 RMK AO2 SLP069 T01280072=
202410041153 METAR KPAE 041153Z AUTO 00000KT 10SM OVC095 12/08 A2975 RMK AO2 SLP073 T01170083 10144 20106 56003=
202410041053 METAR KPAE 041053Z AUTO VRB03KT 10SM CLR 12/08 A2975 RMK AO2 SLP073 T01170083=
202410040953 METAR KPAE 040953Z AUTO 16011KT 10SM OVC095 14/05 A2975 RMK AO2 SLP071 T01390050=
202410040853 METAR KPAE 040853Z AUTO 16007KT 10SM BKN095 14/06 A2976 RMK AO2 SLP074 T01440061 56013=
202410040753 METAR KPAE 040753Z AUTO 18004KT 10SM BKN100 12/07 A2977 RMK AO2 SLP080 T01220072 401780072=
202410040653 METAR KPAE 040653Z AUTO 18005KT 10SM BKN100 12/08 A2977 RMK AO2 SLP082 T01220083=
202410040553 METAR KPAE 040553Z AUTO 06004KT 10SM CLR 12/08 A2979 RMK AO2 PRESFR SLP090 T01170083 10172 20111 58012=
202410040453 METAR KPAE 040453Z AUTO 01003KT 10SM CLR 12/08 A2982 RMK AO2 SLP099 T01220078=
202410040353 METAR KPAE 040353Z AUTO 00000KT 10SM CLR 13/07 A2982 RMK AO2 SLP097 T01280067=
202410040253 METAR KPAE 040253Z 00000KT 10SM CLR 13/07 A2983 RMK AO2 SLP101 T01330072 56022=
202410040153 METAR KPAE 040153Z 03003KT 10SM BKN120 14/08 A2984 RMK AO2 SLP106 T01390078=
202410040053 METAR KPAE 040053Z 34005KT 10SM CLR 15/08 A2986 RMK AO2 SLP113 T01500078=
202410032353 METAR KPAE 032353Z 31004KT 10SM CLR 17/07 A2989 RMK AO2 SLP124 T01720072 10178 20111 56034=
202410032253 METAR KPAE 032253Z 00000KT 10SM CLR 17/07 A2992 RMK AO2 SLP133 T01670067=
202410032153 METAR KPAE 032153Z VRB03KT 10SM CLR 17/07 A2996 RMK AO2 SLP145 T01720067=
202410032053 METAR KPAE 032053Z 01006KT 10SM CLR 16/06 A3000 RMK AO2 SLP158 T01560061 56034=
202410031953 METAR KPAE 031953Z 01006KT 10SM CLR 14/06 A3004 RMK AO2 SLP172 T01390061=
202410031853 METAR KPAE 031853Z 01005KT 10SM CLR 13/06 A3006 RMK AO2 SLP180 T01280061=
202410031753 METAR KPAE 031753Z 32005KT 10SM CLR 11/06 A3010 RMK AO2 SLP194 T01110056 10117 20072 56017=
202410031653 METAR KPAE 031653Z 00000KT 10SM CLR 10/06 A3011 RMK AO2 SLP198 T01000056=
202410031553 METAR KPAE 031553Z 35004KT 10SM CLR 09/05 A3013 RMK AO2 SLP203 T00890050=
202410031453 METAR KPAE 031453Z 00000KT 10SM FEW004 08/04 A3015 RMK AO2 SLP212 T00780044 58010=
202410031420 SPECI KPAE 031420Z 35003KT 10SM FEW004 08/06 A3016 RMK AO2 T00780056=
202410031353 METAR KPAE 031353Z 00000KT 10SM BKN005 08/05 A3017 RMK AO2 SLP219 T00780050=
202410031351 SPECI KPAE 031351Z 00000KT 10SM BKN005 08/05 A3018 RMK AO2=
202410031338 SPECI KPAE 031338Z AUTO 00000KT 10SM SCT005 08/04 A3018 RMK AO2 T00780044=
202410031253 METAR KPAE 031253Z AUTO 02005KT 10SM CLR 08/05 A3018 RMK AO2 SLP222 T00780050=
202410031153 METAR KPAE 031153Z AUTO 00000KT 10SM CLR 07/04 A3020 RMK AO2 SLP229 T00720044 10117 20072 56015=
202410031053 METAR KPAE 031053Z AUTO 00000KT 10SM CLR 08/06 A3022 RMK AO2 SLP235 T00780056=
202410031000 SPECI KPAE 031000Z AUTO 03004KT 10SM SCT003 09/07 A3023 RMK AO2 T00940067=
202410030953 METAR KPAE 030953Z AUTO 02005KT 10SM CLR 09/06 A3023 RMK AO2 SLP236 T00890056=
202410030853 METAR KPAE 030853Z AUTO 03004KT 10SM CLR 09/07 A3025 RMK AO2 SLP243 T00940067 58012=
202410030753 METAR KPAE 030753Z AUTO 35004KT 10SM CLR 09/06 A3026 RMK AO2 SLP249 T00890061 401670089=
202410030653 METAR KPAE 030653Z AUTO 00000KT 10SM CLR 11/07 A3027 RMK AO2 SLP251 T01060067=
202410030553 METAR KPAE 030553Z AUTO 04003KT 10SM CLR 12/07 A3028 RMK AO2 SLP255 T01170072 10156 20111 58005=
202410030453 METAR KPAE 030453Z AUTO 03003KT 10SM CLR 12/07 A3029 RMK AO2 SLP257 T01170067=
202410030353 METAR KPAE 030353Z 05005KT 10SM CLR 12/07 A3030 RMK AO2 SLP260 T01170072=
202410030253 METAR KPAE 030253Z 36003KT 10SM CLR 12/07 A3030 RMK AO2 SLP261 T01170067 56007=
202410030153 METAR KPAE 030153Z 02004KT 10SM SCT050 13/06 A3030 RMK AO2 SLP262 T01330061=
202410030053 METAR KPAE 030053Z 35005KT 10SM SCT050 14/06 A3031 RMK AO2 SLP264 T01390061=
202410022353 METAR KPAE 022353Z 35007KT 10SM CLR 16/06 A3032 RMK AO2 SLP268 T01560056 10167 20144 56008=
202410022253 METAR KPAE 022253Z 34006KT 10SM FEW040 16/06 A3033 RMK AO2 SLP269 T01610056=
202410022153 METAR KPAE 022153Z VRB04KT 10SM CLR 16/06 A3033 RMK AO2 SLP272 T01610061=
202410022053 METAR KPAE 022053Z 02005KT 10SM SCT035 16/06 A3034 RMK AO2 SLP276 T01610061 58000=
202410021953 METAR KPAE 021953Z VRB05KT 10SM SCT040 BKN050 15/06 A3035 RMK AO2 SLP279 T01500056=
202410021853 METAR KPAE 021853Z 27004KT 10SM BKN060 15/06 A3035 RMK AO2 SLP278 T01500061=
202410021753 METAR KPAE 021753Z VRB04KT 10SM BKN060 15/06 A3035 RMK AO2 SLP276 T01500061 10150 20106 51016=
202410021653 METAR KPAE 021653Z 28004KT 10SM CLR 14/05 A3034 RMK AO2 SLP273 T01390050=
202410021553 METAR KPAE 021553Z 00000KT 10SM CLR 13/07 A3032 RMK AO2 SLP268 T01280067=
202410021453 METAR KPAE 021453Z 04003KT 10SM BKN055 11/07 A3030 RMK AO2 SLP260 T01110067 53012=
202410021353 METAR KPAE 021353Z 00000KT 10SM BKN050 11/07 A3029 RMK AO2 SLP257 T01110067=
202410021253 METAR KPAE 021253Z AUTO 34005KT 10SM CLR 11/06 A3027 RMK AO2 SLP250 T01110056=
202410021153 METAR KPAE 021153Z AUTO 01003KT 10SM CLR 11/05 A3026 RMK AO2 SLP247 T01110050 10133 20106 51009=
202410021053 METAR KPAE 021053Z AUTO 02004KT 10SM CLR 11/07 A3026 RMK AO2 SLP245 T01110067=
202410020953 METAR KPAE 020953Z AUTO 01004KT 10SM BKN060 12/07 A3025 RMK AO2 SLP242 T01170067=
202410020853 METAR KPAE 020853Z AUTO 35006KT 10SM SCT050 SCT080 12/08 A3023 RMK AO2 SLP238 T01170078 51013=
202410020753 METAR KPAE 020753Z AUTO 35007KT 10SM BKN047 OVC065 12/09 A3022 RMK AO2 SLP234 T01220089 401780089=
202410020723 SPECI KPAE 020723Z AUTO 36008KT 10SM FEW010 SCT014 OVC044 13/10 A3023 RMK AO2 T01280100=
202410020653 METAR KPAE 020653Z AUTO 36008KT 10SM BKN012 OVC050 13/10 A3021 RMK AO2 SLP232 T01280100=
202410020553 METAR KPAE 020553Z AUTO 35005KT 10SM OVC044 13/09 A3019 RMK AO2 SLP224 T01280094 10161 20128 53005=
202410020453 METAR KPAE 020453Z AUTO 02005KT 10SM OVC043 14/09 A3018 RMK AO2 SLP218 T01390089=
202410020353 METAR KPAE 020353Z AUTO 31004KT 10SM OVC041 14/09 A3018 RMK AO2 SLP220 T01390089=
202410020253 METAR KPAE 020253Z 36005KT 10SM BKN033 OVC044 14/09 A3018 RMK AO2 SLP220 T01390094 53012=
202410020153 METAR KPAE 020153Z 00000KT 10SM FEW030 FEW090 BKN120 14/09 A3016 RMK AO2 SLP212 T01440094=
202410020053 METAR KPAE 020053Z VRB03KT 10SM FEW049 BKN055 OVC080 16/08 A3015 RMK AO2 SLP210 T01560078=
202410012353 METAR KPAE 012353Z 07005KT 10SM OVC070 16/09 A3014 RMK AO2 RAB28E38 SLP207 P0000 60000 T01560089 10178 20144 58005=
202410012253 METAR KPAE 012253Z 36007KT 10SM OVC060 14/09 A3016 RMK AO2 SLP212 T01440089=
202410012153 METAR KPAE 012153Z 35007KT 10SM SCT032 OVC060 16/09 A3015 RMK AO2 SLP211 T01560094=
202410012053 METAR KPAE 012053Z 34004KT 10SM CLR 16/09 A3016 RMK AO2 SLP212 T01610089 51009=
202410011953 METAR KPAE 011953Z VRB04KT 10SM CLR 16/09 A3016 RMK AO2 SLP211 T01610094=
202410011853 METAR KPAE 011853Z 26006KT 10SM FEW120 16/10 A3014 RMK AO2 SLP208 T01560100=
202410011753 METAR KPAE 011753Z VRB03KT 10SM CLR 16/08 A3013 RMK AO2 SLP202 T01610078 10161 20089 56008=
202410011653 METAR KPAE 011653Z 15009KT 10SM CLR 14/08 A3013 RMK AO2 SLP204 T01440078=
202410011553 METAR KPAE 011553Z 17004KT 10SM CLR 13/09 A3014 RMK AO2 SLP208 T01280089=
202410011453 METAR KPAE 011453Z 00000KT 10SM CLR 10/07 A3015 RMK AO2 SLP211 T01000067 55009=
202410011353 METAR KPAE 011353Z 17003KT 10SM CLR 10/07 A3015 RMK AO2 SLP211 T01000067=
202410011253 METAR KPAE 011253Z 00000KT 10SM CLR 11/07 A3016 RMK AO2 SLP214 T01060067=
202410011153 METAR KPAE 011153Z 00000KT 10SM CLR 10/08 A3018 RMK AO2 SLP219 T01000078 10111 20089 56015=
202410011053 METAR KPAE 011053Z 00000KT 10SM CLR 09/08 A3019 RMK AO2 SLP224 T00940078=
202410010953 METAR KPAE 010953Z 00000KT 10SM CLR 09/08 A3021 RMK AO2 SLP228 T00940078=
202410010853 METAR KPAE 010853Z 00000KT 10SM CLR 11/08 A3022 RMK AO2 SLP234 T01060083 58019=
202410010753 METAR KPAE 010753Z 00000KT 10SM SCT095 11/09 A3026 RMK AO2 SLP246 T01110089 401780072=
202410010653 METAR KPAE 010653Z 36003KT 10SM CLR 11/08 A3027 RMK AO2 SLP251 T01060083=
202410010553 METAR KPAE 010553Z 35004KT 10SM CLR 11/08 A3028 RMK AO2 SLP255 T01110078 10172 20106 55008=
202410010453 METAR KPAE 010453Z 00000KT 10SM CLR 11/08 A3028 RMK AO2 SLP255 T01110078=
202410010353 METAR KPAE 010353Z 32003KT 10SM CLR 12/08 A3030 RMK AO2 SLP262 T01170083=
202410010253 METAR KPAE 010253Z 02005KT 10SM CLR 13/08 A3031 RMK AO2 SLP263 T01280083 56014=
202410010153 METAR KPAE 010153Z 36004KT 10SM CLR 14/07 A3032 RMK AO2 SLP267 T01390072=
202410010053 METAR KPAE 010053Z 35005KT 10SM CLR 16/07 A3032 RMK AO2 SLP268 T01560072=

# No short TAF reports from KPAE in databse.

###################################
#  large TAF from KPAE
###################################
202410312337 TAF KPAE 312337Z 0100/0124 16011KT P6SM -SHRA BKN040 OVC060 FM010200
                       14009KT P6SM -RA OVC050 FM011100 15012G21KT
                       P6SM -RA OVC030 FM011500 14011KT P6SM -RA
                       OVC025 FM012100 13007KT 4SM -RA BR OVC015=
202410311729 TAF KPAE 311729Z 3118/0118 16007KT P6SM BKN050 FM312100 16010KT
                       P6SM SCT015 BKN050 FM010400 14009KT P6SM
                       -RA OVC050 FM011100 15012G21KT P6SM -RA
                       OVC030 FM011500 14011KT P6SM -RA OVC015=
202410311133 TAF KPAE 311133Z 3112/0112 15010KT P6SM BKN015 BKN035 FM311400
                       16010KT P6SM SCT015 BKN050 FM010400 14009KT
                       P6SM -RA OVC050 FM011100 15012G21KT P6SM
                       -RA OVC050=
202410310539 TAF KPAE 310539Z 3106/0106 16010KT P6SM SCT035 BKN060 FM311000
                       16010KT P6SM -SHRA BKN025 BKN040 FM311500
                       16010KT P6SM SCT030 BKN050=
202410302346 TAF KPAE 302346Z 3100/3124 17010KT P6SM -RA SCT025 BKN040 FM310400
                       19004KT P6SM -SHRA OVC025 FM310900 16008KT
                       P6SM VCSH OVC035 FM311600 16007KT P6SM OVC030
                       FM312200 17009KT P6SM BKN035=
202410301744 TAF KPAE 301744Z 3018/3118 15010G18KT P6SM -RA OVC035 FM302200
                       16012G20KT 6SM -RA BR OVC015 FM310000 15010G20KT
                       P6SM VCSH OVC025 FM310300 15008KT P6SM OVC025
                       FM310900 15009KT P6SM OVC035=
202410301120 TAF KPAE 301120Z 3012/3112 13010G18KT P6SM BKN100 OVC200 FM301800
                       15010G18KT P6SM -RA OVC035 FM302200 16012G20KT
                       6SM -RA BR OVC015 FM310000 15010G20KT P6SM
                       VCSH OVC025 FM310300 15008KT P6SM VCSH OVC025=
202410300525 TAF KPAE 300525Z 3006/3106 VRB05KT P6SM SCT060 OVC200 FM301100
                       14010G18KT P6SM OVC060 FM301800 15010G18KT
                       P6SM -RA OVC035 FM302200 16012G20KT 6SM
                       -RA BR OVC015 FM310000 15010G20KT P6SM VCSH
                       OVC025=
202410292331 TAF KPAE 292331Z 3000/3024 18008KT P6SM SCT022 BKN050 FM300400
                       14007KT P6SM SCT120 BKN200 FM301100 14010G18KT
                       P6SM OVC070 FM301800 15010G18KT P6SM -RA
                       OVC035 FM302200 16012G20KT 6SM -RA BR OVC015=
202410292007 KPAE 292007Z 2920/3018 16006KT P6SM SCT007 BKN022 OVC050
                      TEMPO 2920/2922 BKN007 FM292200 17006KT P6SM
                       SCT022 BKN035 FM300300 14007KT P6SM BKN050
                       OVC200 FM301100 14010G18KT P6SM OVC009=
202410291734 TAF KPAE 291734Z 2918/3018 16005KT P6SM SCT005 BKN017 OVC050
                      TEMPO 2918/2919 BKN005 FM292100 17006KT P6SM
                       SCT022 BKN035 FM300300 14007KT P6SM BKN050
                       OVC200 FM301100 14010G18KT P6SM OVC009=
202410291405 KPAE 291405Z 2914/3012 00000KT 5SM BR SCT005 BKN015 OVC050
                      TEMPO 2914/2916 1/2SM FG BKN002 FM291900
                       17006KT P6SM SCT022 BKN035 FM300300 14005KT
                       P6SM BKN040 FM301100 14010G18KT P6SM OVC050=
202410291120 TAF KPAE 291120Z 2912/3012 00000KT P6SM FEW006 BKN015 OVC050 FM292100
                       17006KT P6SM BKN040 FM300300 14005KT P6SM
                       BKN040 FM301100 14010G18KT P6SM OVC050=
202410290520 TAF KPAE 290520Z 2906/3006 32003KT P6SM VCSH FEW015 OVC035 FM290900
                       17004KT P6SM OVC015 FM291200 19003KT P6SM
                       OVC007 FM291700 17006KT P6SM BKN022 FM292100
                       17007KT P6SM BKN040=
202410282320 TAF KPAE 282320Z 2900/2924 20005KT P6SM VCSH SCT012 BKN022 OVC040
                       FM290300 33004KT P6SM VCSH BKN020 FM290700
                       17004KT P6SM VCSH OVC015 FM291700 17006KT
                       P6SM BKN022 FM292100 17007KT P6SM BKN040=
202410281720 TAF KPAE 281720Z 2818/2918 19010KT P6SM VCSH OVC012 FM282000 17012KT
                       P6SM VCSH BKN022 OVC040 FM290000 18006KT
                       P6SM -SHRA BKN025 OVC040 FM290300 33004KT
                       P6SM VCSH BKN020 FM290900 17004KT P6SM OVC015=
202410281134 TAF KPAE 281134Z 2812/2912 19010KT P6SM VCSH OVC012 FM282000 17012KT
                       P6SM OVC050 FM290000 18006KT P6SM -SHRA
                       BKN025 OVC050 FM290300 36004KT P6SM -SHRA
                       BKN015=
202410280520 TAF KPAE 280520Z 2806/2906 17013G23KT P6SM -SHRA FEW021 BKN070
                       BKN100 FM280900 17012KT P6SM -SHRA OVC040
                       FM281400 17009KT P6SM OVC050 FM282200 18005KT
                       P6SM -SHRA SCT025 OVC050=
202410272344 TAF KPAE 272344Z 2800/2824 17015G25KT P6SM -SHRA OVC050 FM280100
                       17012G20KT P6SM -SHRA OVC025 FM280900 17012KT
                       P6SM -RA OVC040 FM281400 17009KT P6SM OVC050=
202410271736 TAF KPAE 271736Z 2718/2818 17010G22KT P6SM -SHRA OVC035 FM271900
                       17015G25KT P6SM -SHRA OVC050 FM280100 17012G20KT
                       P6SM -SHRA OVC025 FM280900 17012KT P6SM
                       -RA OVC040 FM281400 17009KT P6SM OVC050=
202410271138 TAF KPAE 271138Z 2712/2812 19010G22KT 3SM RA SCT005 BKN025 OVC040
                       FM271400 17010G22KT P6SM -SHRA OVC035 FM271900
                       17015G25KT P6SM -SHRA OVC050 FM280100 17012G20KT
                       P6SM -SHRA OVC025 FM280900 17012KT P6SM
                       -RA OVC040=
202410270533 TAF KPAE 270533Z 2706/2806 15015G25KT P6SM -SHRA SCT008 BKN014
                       BKN080 FM271200 17015G25KT P6SM -SHRA OVC015
                       FM271900 17015G25KT P6SM -SHRA OVC050 FM280100
                       17012KT P6SM -SHRA OVC025=
202410270006 KPAE 270006Z 2700/2724 16010KT P6SM VCSH SCT010 OVC035
                      TEMPO 2700/2704 OVC009 FM270400 17016G24KT
                       5SM -RA BKN025 OVC030 FM271100 17010KT 6SM
                       -RA OVC050 FM271700 17014G23KT P6SM -RA
                       OVC050=
202410262320 TAF KPAE 262320Z 2700/2724 16010KT 6SM -RA BR SCT010 OVC035 FM270600
                       17016G24KT 5SM -RA BKN025 OVC030 FM271100
                       17010KT 6SM -RA OVC050 FM271700 17014G23KT
                       P6SM -RA OVC050=
202410261933 KPAE 261933Z 2620/2718 16015G22KT 3SM -RA BR SCT010 OVC040 FM270000
                       14008KT P6SM -RA OVC040 FM270600 17016G24KT
                       5SM -RA BKN025 OVC030 FM271100 17010KT 6SM
                       -RA OVC050 FM271700 17014G23KT P6SM -RA
                       OVC050=
202410261739 TAF KPAE 261739Z 2618/2718 15008KT P6SM VCSH SCT010 OVC040 FM270000
                       14008KT P6SM -RA OVC040 FM270600 17016G24KT
                       5SM -RA BKN025 OVC030 FM271100 17010KT 6SM
                       -RA OVC050 FM271700 17014G23KT P6SM -RA
                       OVC050=
202410261140 TAF KPAE 261140Z 2612/2712 15015G23KT P6SM -RA OVC025 FM261500
                       15008KT P6SM OVC025 FM270000 14008KT P6SM
                       -RA OVC040 FM270800 15012KT P6SM -RA OVC025=
202410260538 TAF KPAE 260538Z 2606/2706 15008KT P6SM OVC100 FM260800 15010G18KT
                       P6SM -RA SCT020 BKN030 FM261000 14012G22KT
                       P6SM -RA OVC025 FM261700 15008KT P6SM OVC025
                       FM270000 13008KT P6SM -RA OVC040=
202410252321 TAF KPAE 252321Z 2600/2624 10006KT P6SM SCT150 BKN200 FM260300
                       15011G18KT P6SM OVC080 FM260800 15011G18KT
                       P6SM -RA SCT020 BKN030 FM261000 14012G22KT
                       P6SM -RA OVC025 FM261700 15008KT P6SM OVC025=
202410251720 TAF KPAE 251720Z 2518/2618 01006KT P6SM SCT150 BKN200 FM252000
                       14007KT P6SM SCT150 BKN200 FM260300 15011G18KT
                       P6SM OVC080 FM260800 15011G18KT P6SM -SHRA
                       SCT020 BKN030=
202410251120 TAF KPAE 251120Z 2512/2612 01005KT P6SM SKC FM251800 07006KT P6SM
                       SCT250 FM252100 14007KT P6SM BKN250 FM260300
                       15010KT P6SM OVC080=
202410250520 TAF KPAE 250520Z 2506/2606 35007KT P6SM BKN250 FM251000 01004KT
                       P6SM BKN250 FM251800 07006KT P6SM SCT250
                       FM252100 14007KT P6SM BKN250 FM260300 15010KT
                       P6SM OVC080=
202410242320 TAF KPAE 242320Z 2500/2524 33004KT P6SM SCT030 SCT250 FM250300
                       VRB03KT P6SM BKN250 FM251000 34004KT P6SM
                       BKN250 FM251700 07006KT P6SM SKC=
202410241720 TAF KPAE 241720Z 2418/2518 VRB03KT P6SM BKN050 FM242000 33004KT
                       P6SM SCT030 SCT250 FM250300 VRB03KT P6SM
                       BKN250 FM251000 34004KT P6SM BKN250=
202410241120 TAF KPAE 241120Z 2412/2512 17004KT P6SM OVC035
                      TEMPO 2412/2416 2SM BR OVC010 FM241800 32004KT
                       P6SM OVC030 FM242000 33004KT P6SM SCT030
                       SCT250 FM250300 VRB03KT P6SM BKN250=
202410240520 TAF KPAE 240520Z 2406/2506 12005KT P6SM SCT035 BKN045 FM241200
                       17004KT 6SM BR OVC025
                      TEMPO 2412/2416 2SM BR OVC010 FM241800 32004KT
                       P6SM OVC030 FM242000 33004KT P6SM SCT030
                       SCT250 FM250300 VRB03KT P6SM BKN250=
202410232329 TAF KPAE 232329Z 2400/2424 20004KT P6SM SCT020 BKN060 FM240600
                       15005KT P6SM BKN035 FM241200 17004KT 6SM
                       BR OVC025
                      TEMPO 2412/2416 2SM BR OVC010 FM241800 32004KT
                       P6SM OVC030 FM242000 33004KT P6SM SCT030
                       BKN250=
202410231722 TAF KPAE 231722Z 2318/2418 21002KT P6SM OVC015 FM231900 22003KT
                       P6SM BKN015 FM232200 24004KT P6SM BKN050
                       FM240600 15005KT P6SM BKN035 FM241200 17004KT
                       6SM BR OVC025=
202410231329 KPAE 231329Z 2313/2412 00000KT P6SM SCT008 BKN019 OVC025
                      TEMPO 2313/2315 BKN008 FM231700 21002KT 6SM
                       BR OVC009 FM231900 22003KT P6SM BKN015 FM232200
                       24004KT P6SM BKN050 FM240600 15005KT P6SM
                       BKN015=
202410231132 TAF KPAE 231132Z 2312/2412 00000KT P6SM OVC004 FM231700 21002KT
                       6SM BR OVC009 FM231900 22003KT P6SM BKN015
                       FM232200 24004KT P6SM BKN050 FM240600 15005KT
                       P6SM BKN015=
202410230905 KPAE 230905Z 2309/2406 02003KT P6SM OVC004 FM231300 27002KT 1SM
                       BR OVC004 FM231700 21002KT 6SM BR OVC009
                       FM231900 22003KT P6SM BKN015 FM232200 24004KT
                       P6SM BKN050 FM240500 15005KT P6SM BKN027=
202410230520 TAF KPAE 230520Z 2306/2406 31005KT P6SM FEW250 FM231100 VRB03KT
                       6SM BR BKN020 FM231300 27002KT 1SM BR OVC004
                       FM231700 21002KT 6SM BR OVC009 FM231900
                       22003KT P6SM BKN015 FM232200 24004KT P6SM
                       BKN050 FM240500 15005KT P6SM BKN027=
202410222330 TAF KPAE 222330Z 2300/2324 31004KT P6SM FEW250 FM231100 VRB03KT
                       6SM BR BKN020 FM231300 27002KT 1SM BR OVC004
                       FM231700 21002KT 6SM BR OVC009 FM231900
                       22003KT P6SM BKN015 FM232200 24004KT P6SM
                       BKN050=
202410221735 TAF KPAE 221735Z 2218/2318 16005KT P6SM SCT015 BKN040 FM222100
                       VRB04KT P6SM FEW250 FM231300 12004KT 6SM
                       BR BKN015=
202410221125 TAF KPAE 221125Z 2212/2312 16005KT P6SM SCT010 BKN035
                      TEMPO 2215/2217 BKN020 FM221800 24003KT P6SM
                       SCT015 BKN035 FM222100 32004KT P6SM FEW250=
202410220520 TAF KPAE 220520Z 2206/2306 18014KT P6SM VCSH BKN013 FM221200 16005KT
                       P6SM SCT010 BKN015 FM221800 24003KT P6SM
                       SCT015 BKN025 FM222100 32004KT P6SM FEW250=
202410212320 TAF KPAE 212320Z 2200/2224 16005KT P6SM -SHRA FEW010 BKN025 OVC050
                       FM220300 19005KT P6SM VCSH OVC022 FM220900
                       17004KT P6SM VCSH OVC015 FM221200 16005KT
                       P6SM SCT010 BKN015 FM221800 24003KT P6SM
                       SCT015 BKN025 FM222100 31004KT P6SM FEW250=
202410211721 TAF KPAE 211721Z 2118/2218 00000KT P6SM FEW100 FM212100 18007KT
                       P6SM -SHRA BKN035 FM220300 19005KT P6SM
                       -SHRA OVC022 FM220900 17004KT P6SM VCSH
                       OVC015 FM221200 16005KT P6SM SCT010 BKN015=
202410211125 TAF KPAE 211125Z 2112/2212 VRB03KT P6SM BKN020 OVC035 FM211800
                       17006KT P6SM VCSH BKN027 FM212100 18007KT
                       P6SM -SHRA OVC035 FM220300 19005KT P6SM
                       -SHRA OVC022 FM220900 17004KT P6SM VCSH
                       OVC015=
202410210520 TAF KPAE 210520Z 2106/2206 35005KT P6SM FEW015 OVC022 FM211200
                       13004KT P6SM BKN007 OVC015 FM211800 17006KT
                       P6SM VCSH BKN027 FM212100 18007KT P6SM -SHRA
                       OVC027 FM220300 22005KT P6SM VCSH OVC022=
202410210204 KPAE 210204Z 2102/2124 02008KT 5SM -RA BR OVC027 FM210500 VRB05KT
                       P6SM FEW007 BKN035 FM211200 13004KT P6SM
                       BKN007 OVC015 FM211800 17006KT P6SM VCSH
                       BKN050 FM212100 18007KT P6SM -SHRA OVC050=
202410202322 TAF KPAE 202322Z 2100/2124 18020G30KT P6SM OVC030 FM210200 02010G18KT
                       P6SM SCT015 BKN035 FM210500 VRB05KT P6SM
                       FEW007 BKN035 FM211200 13004KT P6SM BKN007
                       OVC015 FM211800 17006KT P6SM VCSH BKN050
                       FM212100 18007KT P6SM -SHRA OVC050=
202410202101 KPAE 202101Z 2021/2118 19020G33KT P6SM OVC035 FM202200 20020G35KT
                       4SM RA BR OVC020 FM210200 02010G18KT P6SM
                       SCT015 OVC025 FM210500 VRB05KT 4SM BR SCT007
                       OVC015 FM211200 13004KT P6SM BKN007 OVC015=
202410201723 TAF KPAE 201723Z 2018/2118 17012G22KT P6SM SCT050 BKN200 FM202100
                       20020G35KT 4SM RA BR OVC020 FM210200 02010G18KT
                       P6SM SCT015 OVC025 FM210500 VRB05KT 4SM
                       BR SCT007 OVC015 FM211200 13004KT P6SM BKN007
                       OVC015=
202410201345 KPAE 201345Z 2014/2112 16010KT P6SM FEW020 OVC040 FM201700 16012G22KT
                       P6SM OVC020 FM202100 20020G35KT 4SM RA BR
                       OVC020 FM210200 02010G18KT P6SM SCT015 OVC025
                       FM210500 VRB05KT 4SM BR OVC007=
202410201125 TAF KPAE 201125Z 2012/2112 VRB05KT 6SM BR SCT003 OVC015 FM201700
                       16012G22KT P6SM OVC020 FM202100 20020G35KT
                       4SM RA BR OVC020 FM210200 02010G18KT P6SM
                       SCT015 OVC025 FM210500 VRB05KT 4SM BR OVC007=
202410200905 KPAE 200905Z 2009/2106 VRB05KT P6SM OVC011
                      TEMPO 2009/2012 2SM BR FM201700 16013G22KT
                       P6SM OVC050 FM202100 20020G35KT P6SM -RA
                       OVC040 FM210200 02009G17KT P6SM SCT025 OVC035
                       FM210500 VRB05KT P6SM OVC025=
202410200712 KPAE 200712Z 2007/2106 18010KT 3SM -RA BR OVC003 FM201000 15009G18KT
                       P6SM OVC011 FM201700 16013G22KT P6SM OVC050
                       FM202100 20020G35KT P6SM -RA OVC040 FM210200
                       02009G17KT P6SM SCT025 OVC035 FM210500 VRB05KT
                       P6SM OVC025=
202410200648 KPAE 200648Z 2007/2106 18012G20KT P6SM -RA OVC008
                      TEMPO 2007/2010 1/2SM FG BKN001 FM201000
                       15009G18KT P6SM OVC011 FM201700 16013G22KT
                       P6SM OVC050 FM202100 20020G35KT P6SM -RA
                       OVC040 FM210200 02009G17KT P6SM SCT025 OVC035
                       FM210500 VRB05KT P6SM OVC025=
202410200535 TAF KPAE 200535Z 2006/2106 18012G20KT P6SM -RA OVC008 FM201000
                       15009G18KT P6SM OVC011 FM201700 16013G22KT
                       P6SM OVC050 FM202100 20020G35KT P6SM -RA
                       OVC040 FM210200 02009G17KT P6SM SCT025 OVC035
                       FM210500 VRB05KT P6SM OVC025=
202410200330 KPAE 200330Z 2004/2024 18025G40KT P6SM OVC008 FM200900 15009KT
                       P6SM OVC011 FM201600 16013G22KT P6SM OVC050=
202410192322 TAF KPAE 192322Z 2000/2024 18025G40KT P6SM BKN025 BKN070 FM200300
                       17015G25KT P6SM -RA OVC020 FM200900 15009KT
                       P6SM OVC011 FM201600 16013G22KT P6SM OVC050=
202410191720 TAF KPAE 191720Z 1918/2018 17020G35KT P6SM FEW020 OVC110 FM192000
                       16017G25KT P6SM SCT025 OVC035 FM200000 18010G20KT
                       P6SM -RA OVC020 FM200900 15009KT P6SM OVC011
                       FM201600 16013G22KT P6SM OVC015=
202410191126 TAF KPAE 191126Z 1912/2012 18025G35KT P6SM BKN015 FM192000 16017G25KT
                       P6SM OVC025 FM200000 18010G20KT P6SM -RA
                       OVC020 FM200900 15009KT P6SM OVC015=
202410190533 TAF KPAE 190533Z 1906/2006 15018G30KT P6SM VCSH OVC015 FM192000
                       16017G25KT P6SM OVC025 FM200000 18010G20KT
                       P6SM -RA OVC022=
202410190118 KPAE 190118Z 1901/1924 15015G27KT P6SM -RA BKN025 OVC100 WS020/20040KT
                       FM190600 15018G27KT 5SM -RA SCT015 BKN025
                       OVC040 FM192000 16017G25KT 6SM -RA OVC050=
202410182323 TAF KPAE 182323Z 1823/1924 15015G27KT P6SM -RA SCT040 OVC100 WS020/20040KT
                       FM190600 15018G27KT 5SM -RA SCT015 BKN025
                       OVC040 FM192000 16017G25KT 6SM -RA OVC050=
202410182320 TAF KPAE 182320Z 1900/1924 18015G27KT P6SM -RA SCT040 OVC100 WS020/20040KT
                       FM190600 15018G27KT 5SM -RA SCT015 BKN025
                       OVC040 FM192000 16017G25KT 6SM -RA OVC050=
202410181720 TAF KPAE 181720Z 1818/1918 17011KT P6SM SCT040 SCT080 OVC100 FM182200
                       18015G27KT 5SM -RA SCT015 BKN025 OVC040=
202410181137 TAF KPAE 181137Z 1812/1912 16006KT P6SM SCT060 BKN200 FM181600
                       16008KT P6SM OVC060 FM181800 18014G24KT
                       P6SM -RA OVC040 FM182200 18014G24KT 5SM
                       -RA SCT015 BKN025 OVC040=
202410180520 TAF KPAE 180520Z 1806/1906 00000KT P6SM FEW050 BKN100 FM181200
                       14005KT P6SM OVC100 FM181900 15012G20KT
                       P6SM -RA OVC050 FM182100 16010G18KT 5SM
                       -RA BR BKN025 OVC040=
202410172334 TAF KPAE 172334Z 1800/1824 01004KT P6SM FEW008 BKN050 FM180200
                       VRB03KT P6SM SCT030 BKN050 FM180600 15006KT
                       P6SM SCT050 BKN100 FM181200 14005KT P6SM
                       OVC100 FM181900 15012G20KT P6SM -RA OVC050=
202410171729 TAF KPAE 171729Z 1718/1818 23006KT P6SM -SHRA SCT006 BKN025 BKN050
                       FM172100 33006KT P6SM SCT030 BKN050 FM180500
                       15006KT P6SM SCT050 BKN100 FM181200 14005KT
                       P6SM OVC100=
202410171130 TAF KPAE 171130Z 1712/1812 VRB03KT P6SM BKN012 OVC020 FM171600
                       23006KT P6SM SCT015 BKN025 BKN050 FM171800
                       23006KT P6SM BKN050 FM172100 33006KT P6SM
                       BKN050 FM180500 15006KT P6SM SCT050 BKN100=
202410170520 TAF KPAE 170520Z 1706/1806 09006KT P6SM VCSH OVC035 FM171200 VRB03KT
                       P6SM -SHRA OVC015 FM171800 34005KT P6SM
                       BKN025 FM172100 35004KT P6SM OVC030 FM180300
                       VRB03KT P6SM BKN030=
202410162339 TAF KPAE 162339Z 1700/1724 06007KT P6SM -SHRA SCT025 OVC035 FM170200
                       17008KT P6SM -SHRA SCT035 OVC050 FM171200
                       24006KT P6SM OVC015 FM172100 VRB03KT P6SM
                       SCT025=
202410161739 TAF KPAE 161739Z 1618/1718 VRB05KT P6SM -SHRA BKN025 OVC035 FM162000
                       30006KT P6SM -SHRA SCT006 BKN010 OVC015
                       FM162300 30007KT P6SM -SHRA SCT010 BKN020
                       OVC030 FM170200 17008KT P6SM SCT035 OVC050
                       FM171200 15004KT P6SM OVC020=
202410161139 TAF KPAE 161139Z 1612/1712 17010KT P6SM SCT006 OVC011 FM161600
                       19008KT P6SM SCT011 OVC020 FM161900 19008KT
                       P6SM -SHRA SCT006 BKN010 OVC015 FM162300
                       19008KT P6SM SCT010 BKN020 OVC030 FM170200
                       17008KT P6SM SCT035 OVC050=
202410160522 TAF KPAE 160522Z 1606/1706 17010KT P6SM SCT035 OVC060 FM161000
                       15009KT P6SM -RA OVC030
                      TEMPO 1610/1614 OVC020 FM161900 VRB06KT P6SM
                       -SHRA BKN025 FM170100 18009KT P6SM -RA OVC030=
202410152340 TAF KPAE 152340Z 1600/1624 31006KT P6SM SCT035 OVC060 FM160100
                       17003KT P6SM SCT035 OVC050 FM161000 15009KT
                       P6SM -RA OVC030 FM161900 VRB06KT P6SM -SHRA
                       BKN025=
202410151724 TAF KPAE 151724Z 1518/1618 35006KT P6SM SCT020 OVC045 FM152100
                       31006KT P6SM SCT035 OVC060 FM160100 17003KT
                       P6SM SCT035 OVC050 FM161300 15005KT P6SM
                       -RA OVC030=
202410151347 KPAE 151347Z 1514/1612 36006KT P6SM SCT025 OVC050 FM152100 18006KT
                       P6SM SCT035 OVC060=
202410151139 TAF KPAE 151139Z 1512/1612 VRB03KT P6SM OVC011 FM151900 VRB03KT
                       P6SM SCT015 OVC025 FM152100 18006KT P6SM
                       SCT025 OVC040=
202410150521 TAF KPAE 150521Z 1506/1606 01005KT P6SM OVC015 FM150900 35004KT
                       6SM BR OVC007
                      TEMPO 1512/1516 1SM BR OVC004 FM151800 28003KT
                       6SM BR OVC015 FM152100 VRB04KT P6SM SCT015
                       OVC025 FM160000 15005KT P6SM VCSH OVC030=
202410150138 KPAE 150138Z 1502/1524 VRB05KT 6SM BR VCSH OVC015
                      TEMPO 1502/1505 1SM -RA OVC003 FM150900 35004KT
                       6SM BR OVC007 FM151800 00000KT 6SM BR OVC015=
202410150126 KPAE 150126Z 1501/1524 VRB05KT 6SM BR VCSH OVC015
                      TEMPO 1501/1505 -RA BKN005 OVC010 FM150900
                       35004KT 6SM BR OVC007 FM151800 00000KT 6SM
                       BR OVC015=
202410142320 TAF KPAE 142320Z 1500/1524 19010KT P6SM OVC020 FM150100 VRB05KT
                       6SM BR VCSH OVC015 FM150900 35004KT 6SM
                       BR OVC007 FM151800 00000KT 6SM BR OVC015=
202410142037 KPAE 142037Z 1421/1518 19011G20KT 2SM -RA FEW004 BKN040 OVC070
                       FM150100 VRB05KT 6SM BR VCSH OVC015 FM150900
                       35004KT 6SM BR OVC007=
202410141720 TAF KPAE 141720Z 1418/1518 15012KT P6SM SKC FM142000 19011G17KT
                       6SM -RA BR OVC025 FM150100 VRB05KT 6SM BR
                       VCSH OVC015 FM150900 35004KT 6SM BR OVC007=
202410141136 TAF KPAE 141136Z 1412/1512 15010KT P6SM BKN250 FM141500 16013G19KT
                       P6SM SCT020 OVC060 FM142000 19011G17KT 6SM
                       -RA BR OVC025 FM150100 VRB05KT 6SM BR VCSH
                       OVC015 FM150900 35004KT 6SM BR OVC007=
202410140526 TAF KPAE 140526Z 1406/1506 15006KT P6SM BKN250 FM141500 16010KT
                       P6SM FEW015 OVC040 FM141900 17011G17KT P6SM
                       -RA BKN015 OVC025 FM142300 19006KT P6SM
                       VCSH OVC015=
202410132320 TAF KPAE 132320Z 1400/1424 00000KT P6SM SKC FM140200 15005KT P6SM
                       BKN250 FM141200 15008KT P6SM OVC040 FM142000
                       16007KT P6SM VCSH OVC015=
202410131720 TAF KPAE 131720Z 1318/1418 15007KT P6SM SKC FM132000 21005KT P6SM
                       FEW250 FM140200 15005KT P6SM BKN250 FM141200
                       15008KT P6SM OVC040=
202410131341 KPAE 131341Z 1314/1412 16004KT P6SM FEW004 SCT250 FM131700 16004KT
                       P6SM BKN250 FM132000 21005KT P6SM BKN250
                       FM140200 15005KT P6SM BKN250=
202410131132 TAF KPAE 131132Z 1312/1412 14004KT P6SM SCT250
                      TEMPO 1314/1317 3SM BR BKN004 FM131700 16004KT
                       P6SM BKN250 FM132000 21005KT P6SM BKN250
                       FM140200 15005KT P6SM BKN250=
202410130523 TAF KPAE 130523Z 1306/1406 14004KT P6SM SCT250 FM131100 15003KT
                       P6SM SCT005 SCT250
                      TEMPO 1312/1316 3SM BR OVC004 FM131600 16004KT
                       6SM BR SCT004 BKN250 FM132000 21005KT P6SM
                       BKN250 FM140200 15004KT P6SM BKN250=
202410122320 TAF KPAE 122320Z 1300/1324 02004KT P6SM SKC FM130300 15004KT P6SM
                       SCT250 FM131100 15003KT 6SM BR SCT002 FM131800
                       17004KT P6SM BKN250=
202410121720 TAF KPAE 121720Z 1218/1318 00000KT P6SM SKC FM122100 29004KT P6SM
                       SCT250 FM130300 15004KT P6SM SCT250 FM131100
                       15003KT 6SM BR SCT002=
202410121533 KPAE 121533Z 1216/1312 00000KT P6SM SKC
                      TEMPO 1216/1217 2SM BR BKN002 FM121800 VRB04KT
                       P6SM SCT250 FM130300 15004KT P6SM SCT250
                       FM131100 15003KT 6SM BR SCT002=
202410121122 TAF KPAE 121122Z 1212/1312 33004KT 6SM BR FEW002 FEW250
                      TEMPO 1213/1217 2SM BR BKN002 FM121800 VRB04KT
                       P6SM SCT250 FM130300 15004KT P6SM SCT250
                       FM131100 15003KT 6SM BR SCT002=
202410120535 TAF KPAE 120535Z 1206/1306 36005KT P6SM SCT250 FM121000 VRB03KT
                       5SM BR SCT002 FM121200 VRB03KT 1/2SM FG
                       VV001 FM121700 VRB03KT 2SM BR BKN002 FM121800
                       25005KT P6SM SCT250=
202410112320 TAF KPAE 112320Z 1200/1224 33004KT P6SM FEW070 BKN200 FM120600
                       35003KT 6SM BR SCT004 FM121000 01003KT 1/2SM
                       FG VV001 FM121800 26004KT P6SM SCT250=
202410111737 TAF KPAE 111737Z 1118/1218 35004KT P6SM FEW003 FM112000 33004KT
                       P6SM BKN120 BKN200 FM120600 35003KT 6SM
                       BR SCT004 FM121000 01003KT 1/2SM FG VV001=
202410111722 TAF KPAE 111722Z 1118/1218 35004KT 5SM BR BKN003 FM112000 33004KT
                       P6SM BKN120 BKN200 FM120600 35003KT 6SM
                       BR SCT004 FM121000 01003KT 1/2SM FG VV001=
202410111123 TAF KPAE 111123Z 1112/1212 VRB03KT 1/4SM FG OVC001 FM111800 33004KT
                       4SM BR OVC004 FM112000 33004KT P6SM BKN120
                       BKN200 FM121000 35003KT 6SM BR SCT004=
202410110955 KPAE 110955Z 1110/1206 36004KT 1/2SM FG OVC001 FM111800 36004KT
                       P6SM BKN200=
202410110740 KPAE 110740Z 1108/1206 34004KT P6SM BKN004 FM111100 36004KT P6SM
                       OVC004
                      TEMPO 1115/1118 1SM BR OVC004 FM111800 36004KT
                       P6SM BKN200=
202410110538 TAF KPAE 110538Z 1106/1206 36004KT P6SM SCT010 BKN200 FM110900
                       36004KT P6SM OVC006 FM111300 36004KT P6SM
                       OVC004 FM111800 36004KT P6SM BKN200=
202410102320 TAF KPAE 102320Z 1100/1124 35010KT P6SM FEW015 FM110300 02003KT
                       P6SM BKN250 FM111200 VRB02KT 6SM BR OVC002
                       FM111900 33002KT P6SM FEW120=
202410101917 KPAE 101917Z 1019/1118 36008KT P6SM BKN005 OVC009 FM102100 35008KT
                       P6SM BKN012 FM102200 35008KT P6SM SKC FM110300
                       02003KT P6SM BKN250 FM111200 VRB02KT 6SM
                       BR OVC002 FM111700 28002KT P6SM FEW120=
202410101720 TAF KPAE 101720Z 1018/1118 35005KT P6SM OVC004 FM102000 35008KT
                       P6SM SKC FM110300 02003KT P6SM BKN250 FM111200
                       VRB02KT 6SM BR OVC002 FM111700 28002KT P6SM
                       FEW120=
202410101432 KPAE 101432Z 1015/1112 35005KT P6SM FEW006 SCT100
                      TEMPO 1015/1018 BKN005 FM101800 35008KT P6SM
                       SKC FM110300 02003KT P6SM BKN250=
202410101120 TAF KPAE 101120Z 1012/1112 35005KT P6SM FEW006 SCT100
                      TEMPO 1012/1015 BKN006 FM101800 35008KT P6SM
                       SKC FM110300 02003KT P6SM BKN250=
202410100548 KPAE 100548Z 1006/1024 36004KT P6SM SCT026 OVC070 FM101100 02004KT
                       P6SM SCT060 FM101300 03004KT 6SM BR SCT002
                       FM101700 35008KT P6SM SKC=
202410100512 KPAE 100512Z 1005/1024 34006KT P6SM BKN026 FM101100 02004KT P6SM
                       SCT060 FM101300 03004KT 6SM BR SCT002 FM101700
                       35008KT P6SM SKC=
202410092338 TAF KPAE 092338Z 1000/1024 25004KT P6SM SCT250 FM100700 16006KT
                       P6SM BKN060 FM101100 02004KT P6SM SCT060
                       FM101300 03004KT 6SM BR SCT002 FM101700
                       35008KT P6SM SKC=
202410091751 TAF KPAE 091751Z 0918/1018 VRB02KT P6SM FEW050 BKN100 FM091900
                       19008KT P6SM BKN050 FM092200 23007KT P6SM
                       VCSH SCT040 BKN100 FM100400 34004KT P6SM
                       OVC050 FM101100 36005KT P6SM BKN025=
202410091129 TAF KPAE 091129Z 0912/1012 02003KT P6SM BKN030 OVC040 FM091400
                       VRB02KT P6SM OVC050 FM092100 19008KT P6SM
                       OVC050 FM100400 36004KT P6SM OVC050 FM101100
                       36004KT P6SM BKN025=
202410090936 KPAE 090936Z 0910/1006 36006KT P6SM OVC018 FM091100 05004KT P6SM
                       OVC010 FM091400 VRB02KT P6SM OVC050 FM091700
                       18004KT P6SM BKN250=
202410090703 KPAE 090703Z 0907/1006 02005KT P6SM OVC009
                      TEMPO 0907/0911 3SM BR BKN002 FM091100 05004KT
                       P6SM OVC010 FM091400 VRB02KT P6SM OVC050
                       FM091700 18004KT P6SM BKN250=
202410090543 TAF KPAE 090543Z 0906/1006 02005KT P6SM BKN009 FM091100 05004KT
                       P6SM OVC010 FM091400 VRB02KT P6SM OVC050
                       FM091700 18004KT P6SM BKN250=
202410082322 TAF KPAE 082322Z 0900/0924 18005KT P6SM OVC009 FM090300 08003KT
                       P6SM OVC015 FM090600 15005KT P6SM OVC020
                       FM091100 05004KT P6SM OVC010 FM091400 VRB02KT
                       P6SM OVC050 FM091700 18004KT P6SM BKN250=
202410081900 KPAE 081900Z 0819/0918 17011KT 2SM BR OVC003 FM082000 18005KT P6SM
                       OVC025 FM090300 08003KT P6SM OVC019 FM090600
                       15005KT P6SM OVC025 FM091200 05004KT P6SM
                       OVC007=
202410081724 TAF KPAE 081724Z 0818/0918 17010KT 2SM BR OVC003 FM081900 17011KT
                       P6SM OVC019 FM082100 18005KT P6SM OVC040
                       FM090300 08003KT P6SM OVC019 FM090600 15005KT
                       P6SM OVC025 FM091200 05004KT P6SM OVC007=
202410081606 KPAE 081606Z 0816/0912 17009KT P6SM -SHRA OVC003 FM081800 17010KT
                       P6SM OVC019 FM082100 18005KT P6SM OVC050
                       FM090600 15005KT P6SM OVC025=
202410081243 KPAE 081243Z 0813/0912 22008KT P6SM -SHRA FEW021 BKN028 OVC035
                       TEMPO 0813/0815 2SM SHRA FM081500 17009KT
                       P6SM -SHRA OVC020 FM082100 18005KT P6SM
                       OVC050 FM090600 15005KT P6SM OVC025=
202410081125 TAF KPAE 081125Z 0812/0912 16013G21KT P6SM VCSH SCT050 BKN100 BKN150
                       FM081300 20008G15KT P6SM -SHRA SCT020 OVC040
                       FM081500 17009KT P6SM -SHRA OVC020 FM082100
                       18005KT P6SM OVC050 FM090600 15005KT P6SM
                       OVC025=
202410080947 KPAE 080947Z 0810/0906 16014G20KT P6SM OVC100 FM081300 20008G15KT
                       P6SM -RA SCT020 OVC040 FM081700 17009KT
                       P6SM OVC025 FM090000 18005KT P6SM OVC050
                       FM090400 08003KT P6SM OVC025=
202410080520 TAF KPAE 080520Z 0806/0906 14005KT P6SM BKN200 FM080900 16008KT
                       P6SM OVC100 FM081300 20008G15KT P6SM -RA
                       SCT020 OVC040 FM081700 17009KT P6SM OVC025
                       FM090000 18005KT P6SM OVC050 FM090400 08003KT
                       P6SM OVC025=
202410072335 TAF KPAE 072335Z 0800/0824 18004KT P6SM FEW200 FM080100 14005KT
                       P6SM BKN200 FM080900 16008KT P6SM OVC100
                       FM081300 20008G15KT P6SM -RA SCT020 OVC040
                       TEMPO 0814/0818 BKN008 OVC020=
202410071748 TAF KPAE 071748Z 0718/0818 16004KT P6SM FEW200 FM080100 14005KT
                       P6SM BKN200 FM080900 16008KT P6SM OVC100
                       FM081300 20008G15KT P6SM -RA SCT020 OVC040
                       TEMPO 0814/0818 BKN008 OVC020=
202410071120 TAF KPAE 071120Z 0712/0812 VRB03KT P6SM SCT200 FM071300 VRB03KT
                       P6SM BCFG SCT004 FM071800 16006KT P6SM SCT200
                       FM080100 14005KT P6SM BKN200 FM080900 16008KT
                       P6SM OVC100=
202410070524 TAF KPAE 070524Z 0706/0806 VRB03KT P6SM SCT200 FM071300 VRB03KT
                       P6SM BCFG SCT004 FM071800 17006KT P6SM SCT200
                       FM080100 18005KT P6SM BKN200=
202410062320 TAF KPAE 062320Z 0700/0724 19005KT P6SM SCT200 FM070300 VRB03KT
                       P6SM SCT250 FM071400 VRB03KT P6SM SCT005
                       FM071900 16006KT P6SM SCT250=
202410061720 TAF KPAE 061720Z 0618/0718 19005KT P6SM SCT200 FM070300 VRB03KT
                       P6SM SCT250=
202410061120 TAF KPAE 061120Z 0612/0712 34004KT P6SM SCT005 SCT200
                      TEMPO 0613/0616 1/2SM FG OVC004 FM061800
                       19005KT P6SM SCT200 FM062300 22005KT P6SM
                       FEW200 FM070300 VRB03KT P6SM SCT250=
202410060527 TAF KPAE 060527Z 0606/0706 35004KT P6SM SCT200 FM061200 VRB03KT
                       6SM BCFG SCT005
                      TEMPO 0613/0616 1/2SM FG VV002 FM061800 19005KT
                       P6SM SCT200=
202410052320 TAF KPAE 052320Z 0600/0624 35005KT P6SM BKN150 FM061200 VRB03KT
                       6SM BCFG SCT005 FM061800 20005KT P6SM SCT200=
202410051724 TAF KPAE 051724Z 0518/0618 34005KT P6SM BKN200 FM061200 VRB03KT
                       6SM BCFG SCT005=
202410051120 TAF KPAE 051120Z 0512/0612 VRB03KT P6SM SCT010 SCT030
                      TEMPO 0512/0516 5SM BR BKN003 OVC010 FM051800
                       35004KT P6SM FEW010 SCT120 BKN200 FM060300
                       36003KT P6SM BKN200 FM061000 VRB03KT P6SM
                       BKN200=
202410050529 TAF KPAE 050529Z 0506/0606 04003KT P6SM SCT030 FM051100 VRB03KT
                       P6SM SCT005 BKN025 FM051300 VRB03KT 6SM
                       BR BKN005 BKN020 FM051800 35004KT P6SM FEW010
                       SCT120 BKN200 FM060300 36003KT P6SM BKN200=
202410050159 KPAE 050159Z 0502/0524 VRB03KT P6SM VCSH FEW015 BKN040 OVC060 FM050400
                       16005KT P6SM BKN045 FM051000 15004KT P6SM
                       BKN025 FM051700 17004KT P6SM OVC070 FM051900
                       35004KT P6SM BKN100=
202410042320 TAF KPAE 042320Z 0500/0524 VRB02KT P6SM VCSH FEW015 BKN040 OVC060
                       FM050100 20004KT P6SM VCSH OVC020 FM050400
                       17007KT P6SM BKN060 FM051000 15004KT P6SM
                       BKN025 FM051700 17004KT P6SM OVC070 FM051900
                       35004KT P6SM BKN100=
202410041728 TAF KPAE 041728Z 0418/0518 16011G21KT 6SM -RA BR BKN008 OVC070
                       FM041900 17010KT P6SM VCSH OVC019 FM042100
                       17008KT P6SM -SHRA BKN035 BKN050 FM042300
                       03006KT P6SM BKN050 FM050300 17007KT P6SM
                       SCT100 FM051200 15004KT P6SM BKN025=
202410041459 KPAE 041459Z 0415/0512 15006KT 5SM RA SCT015 OVC060 FM041600 16010G16KT
                       P6SM -RA OVC022 FM042100 VRB05KT P6SM -SHRA
                       BKN035 BKN050 FM050300 17007KT P6SM BKN050
                       BKN100 FM051100 16004KT P6SM BKN020 OVC030=
202410041120 TAF KPAE 041120Z 0412/0512 15004KT P6SM BKN120 FM041400 15006KT
                       P6SM -RA SCT009 OVC015 FM041600 16010G16KT
                       P6SM -RA OVC022 FM042100 VRB05KT P6SM -SHRA
                       BKN035 BKN050 FM050300 17007KT P6SM BKN050
                       BKN100 FM051100 16004KT P6SM BKN020 OVC030=
202410040525 TAF KPAE 040525Z 0406/0506 15004KT P6SM BKN120 FM040900 17008KT
                       P6SM OVC100 FM041400 15006KT P6SM -RA OVC035
                       FM041600 16010G16KT P6SM -RA OVC022 FM042100
                       18011KT P6SM -SHRA BKN025 BKN040 FM050300
                       20007KT P6SM VCSH BKN050 BKN100=
202410032328 TAF KPAE 032328Z 0400/0424 VRB03KT P6SM SCT200 FM040400 15005KT
                       P6SM BKN200 FM040800 20005KT P6SM SCT120
                       OVC200 FM041400 15006KT P6SM -RA OVC050
                       FM041700 16012KT P6SM -RA OVC025 FM042100
                       18009KT P6SM -SHRA BKN035=
202410031723 TAF KPAE 031723Z 0318/0418 36005KT P6SM SCT200 FM040400 15005KT
                       P6SM BKN200 FM041000 20005KT P6SM SCT120
                       OVC200 FM041400 15006KT P6SM -RA OVC050
                       FM041700 16012KT P6SM -RA OVC025=
202410031358 KPAE 031358Z 0314/0412 03004KT P6SM BCFG SCT003
                      TEMPO 0314/0316 BKN005 FM031800 36005KT P6SM
                       SCT200 FM040400 15005KT P6SM BKN200 FM041000
                       20005KT P6SM SCT120 OVC200=
202410031120 TAF KPAE 031120Z 0312/0412 03004KT P6SM BCFG SCT003 FM031800 36005KT
                       P6SM SCT200 FM040400 15005KT P6SM BKN200
                       FM041000 20005KT P6SM SCT120 OVC200=
202410030521 TAF KPAE 030521Z 0306/0406 03004KT P6SM SCT200 FM031300 35004KT
                       P6SM BCFG SCT002 FM031800 36005KT P6SM SCT200
                       FM040400 15005KT P6SM BKN200=
202410022320 TAF KPAE 022320Z 0300/0324 02005KT P6SM FEW250 FM030300 06005KT
                       P6SM SKC FM031200 35004KT P6SM SKC FM031800
                       36005KT P6SM SKC=
202410021720 TAF KPAE 021720Z 0218/0318 VRB04KT P6SM SCT050 FM022000 33005KT
                       P6SM FEW250 FM030300 06005KT P6SM SKC FM031200
                       35004KT P6SM SKC=
202410021120 TAF KPAE 021120Z 0212/0312 14002KT P6SM SCT027 OVC035 FM021600
                       VRB03KT P6SM SCT035 BKN050 FM022000 33005KT
                       P6SM FEW250 FM030300 06005KT P6SM SKC=
202410020858 KPAE 020858Z 0209/0306 35006KT P6SM SCT027 OVC035 FM021100 14002KT
                       P6SM SCT027 OVC035 FM021600 VRB03KT P6SM
                       SCT035 BKN050 FM022000 33005KT P6SM FEW250
                       FM030300 06005KT P6SM SKC=
202410020658 KPAE 020658Z 0207/0306 30008KT P6SM BKN012 OVC040 FM021100 14002KT
                       P6SM SCT027 OVC035 FM021600 VRB03KT P6SM
                       SCT035 BKN050 FM022000 33005KT P6SM FEW250
                       FM030300 06005KT P6SM SKC=
202410020520 TAF KPAE 020520Z 0206/0306 30005KT P6SM OVC040 FM021100 14002KT
                       P6SM SCT027 OVC035 FM021600 VRB03KT P6SM
                       SCT035 BKN050 FM022000 33005KT P6SM FEW250
                       FM030300 06005KT P6SM SKC=
202410012320 TAF KPAE 012320Z 0200/0224 35006KT P6SM OVC060 FM020500 30005KT
                       P6SM OVC040 FM021100 14002KT P6SM SCT027
                       OVC035 FM021600 VRB03KT P6SM SCT035 BKN050
                       FM022000 33005KT P6SM FEW250=
202410011754 TAF KPAE 011754Z 0118/0218 15008KT P6SM SKC FM011900 20004KT P6SM
                       SCT180 FM012200 35006KT P6SM VCSH SCT060
                       BKN150 FM020500 30005KT P6SM OVC040 FM021100
                       14002KT P6SM SCT027 OVC035 FM021600 VRB03KT
                       P6SM SCT035 BKN050=
202410011120 TAF KPAE 011120Z 0112/0212 20004KT P6SM SCT180 FM012200 35006KT
                       P6SM VCSH SCT060 BKN150 FM020500 30005KT
                       P6SM OVC040 FM021100 14002KT P6SM SCT027
                       OVC035=
202410010520 TAF KPAE 010520Z 0106/0206 00000KT P6SM SKC FM011200 20004KT P6SM
                       SCT180 FM020500 30005KT P6SM OVC120=