##########################################################
# Query made at 02/15/2025 23:17:33 UTC
# Time interval: from 11/01/2024 00:00  to 11/30/2024 23:59  UTC
##########################################################

##########################################################
# KPAE, Everett, Snohomish County Airport (United States)
# WMO index: -----. WIGOS ID: Unknown
# Latitude 47-55-23N. Longitude 122-16-57W. Altitude 184 m.
##########################################################

###################################
#  METAR/SPECI from KPAE
###################################
202411302353 METAR KPAE 302353Z AUTO 00000KT 10SM OVC075 08/03 A3027 RMK AO2 SLP254 T00780033 10083 20050 53000=
202411302253 METAR KPAE 302253Z 35003KT 10SM OVC080 08/03 A3026 RMK AO2 SLP249 T00780033=
202411302153 METAR KPAE 302153Z 24003KT 10SM BKN075 OVC090 08/04 A3026 RMK AO2 SLP252 T00780039=
202411302053 METAR KPAE 302053Z 20004KT 10SM SCT080 08/02 A3027 RMK AO2 SLP254 T00780017 58004=
202411301953 METAR KPAE 301953Z 18004KT 10SM CLR 07/02 A3028 RMK AO2 SLP259 T00720017=
202411301853 METAR KPAE 301853Z 15004KT 10SM CLR 06/02 A3028 RMK AO2 SLP258 T00610017=
202411301753 METAR KPAE 301753Z 17005KT 10SM CLR 05/01 A3028 RMK AO2 SLP258 T00500011 10050 20022 53011=
202411301653 METAR KPAE 301653Z 14005KT 10SM CLR 04/00 A3026 RMK AO2 SLP253 T00390000=
202411301553 METAR KPAE 301553Z 11004KT 10SM CLR 02/01 A3026 RMK AO2 SLP251 T00220006=
202411301453 METAR KPAE 301453Z 12004KT 10SM FEW080 03/00 A3025 RMK AO2 SLP247 T00280000 58006=
202411301353 METAR KPAE 301353Z AUTO 15004KT 10SM SCT065 SCT080 03/01 A3026 RMK AO2 SLP252 T00330006=
202411301253 METAR KPAE 301253Z AUTO 15007KT 10SM FEW085 03/01 A3026 RMK AO2 SLP250 T00330006=
202411301241 SPECI KPAE 301241Z AUTO 16005KT 10SM SCT012 03/01 A3026 RMK AO2 T00330006=
202411301153 METAR KPAE 301153Z AUTO 15005KT 10SM OVC011 03/01 A3027 RMK AO2 SLP253 T00330006 10044 20022 50001=
202411301053 METAR KPAE 301053Z AUTO 14004KT 10SM OVC012 04/01 A3029 RMK AO2 SLP260 T00390011=
202411301009 SPECI KPAE 301009Z AUTO 15005KT 10SM BKN013 03/01 A3029 RMK AO2 T00330006=
202411300953 METAR KPAE 300953Z AUTO 16004KT 10SM FEW013 03/01 A3029 RMK AO2 SLP261 T00330006=
202411300853 METAR KPAE 300853Z AUTO 17004KT 10SM CLR 03/01 A3026 RMK AO2 SLP252 T00280006 58001=
202411300753 METAR KPAE 300753Z AUTO 15006KT 10SM CLR 04/01 A3027 RMK AO2 SLP255 T00390006 400670022=
202411300701 SPECI KPAE 300701Z AUTO 00000KT 10SM SCT012 04/01 A3028 RMK AO2 T00390006=
202411300653 METAR KPAE 300653Z AUTO 00000KT 10SM BKN012 04/01 A3027 RMK AO2 SLP256 T00390006=
202411300612 SPECI KPAE 300612Z AUTO 00000KT 10SM BKN014 04/01 A3027 RMK AO2 T00390006=
202411300553 METAR KPAE 300553Z AUTO 00000KT 10SM FEW014 SCT110 04/01 A3026 RMK AO2 SLP253 T00390006 10056 20033 58001=
202411300453 METAR KPAE 300453Z 00000KT 10SM FEW110 04/01 A3027 RMK AO2 SLP255 T00390006=
202411300353 METAR KPAE 300353Z 00000KT 10SM CLR 04/01 A3027 RMK AO2 SLP254 T00440006=
202411300253 METAR KPAE 300253Z 15005KT 10SM OVC110 04/01 A3027 RMK AO2 SLP254 T00440006 57007=
202411300153 METAR KPAE 300153Z 15004KT 10SM CLR 04/01 A3027 RMK AO2 SLP256 T00440006=
202411300053 METAR KPAE 300053Z 00000KT 10SM CLR 05/00 A3028 RMK AO2 SLP258 T00500000=
202411292353 METAR KPAE 292353Z AUTO 18005KT 10SM CLR 06/00 A3029 RMK AO2 SLP261 T00560000 10067 20044 55002=
202411292259 SPECI KPAE 292259Z 15007KT 10SM SCT019 06/00 A3028 RMK AO2 T00610000=
202411292253 METAR KPAE 292253Z 16008KT 10SM BKN015 06/00 A3028 RMK AO2 SLP256 T00610000=
202411292153 METAR KPAE 292153Z 18007KT 10SM BKN021 06/01 A3029 RMK AO2 SLP260 T00610006=
202411292053 METAR KPAE 292053Z 18010KT 10SM BKN020 06/01 A3029 RMK AO2 SLP263 T00610006 55004=
202411292020 SPECI KPAE 292020Z 16008KT 10SM BKN013 06/01 A3028 RMK AO2 T00610011=
202411292015 SPECI KPAE 292015Z 18007KT 10SM SCT017 06/01 A3028 RMK AO2 T00610011=
202411292007 SPECI KPAE 292007Z 17006KT 10SM BKN017 06/01 A3029 RMK AO2 T00610011=
202411291953 METAR KPAE 291953Z 15005KT 6SM HZ SCT011 06/01 A3029 RMK AO2 SLP261 T00560011=
202411291951 SPECI KPAE 291951Z 16006KT 6SM HZ SCT011 06/01 A3029 RMK AO2=
202411291900 SPECI KPAE 291900Z 18006KT 5SM HZ BKN009 06/02 A3030 RMK AO2 T00560022=
202411291853 METAR KPAE 291853Z 18006KT 3SM HZ BKN003 06/02 A3031 RMK AO2 SLP267 T00560022=
202411291830 SPECI KPAE 291830Z 18007KT 3SM BR BKN003 04/02 A3030 RMK AO2 T00440022=
202411291753 METAR KPAE 291753Z 17006KT 3/4SM R16R/P6000FT BR BKN003 04/02 A3028 RMK AO2 SLP260 T00440022 10044 20028 51010=
202411291748 SPECI KPAE 291748Z 16006KT 3/4SM R16R/P6000FT BR BKN005 04/02 A3028 RMK AO2 CIG 002V007=
202411291657 SPECI KPAE 291657Z 16006KT 3/4SM R16R/P6000FT BR OVC002 03/02 A3027 RMK AO2 T00330022=
202411291655 SPECI KPAE 291655Z 17006KT 2SM BR OVC001 03/02 A3027 RMK AO2 T00330022=
202411291653 METAR KPAE 291653Z 16007KT 1/2SM R16R/P6000FT FG BKN001 03/02 A3027 RMK AO2 SLP255 T00330022=
202411291556 SPECI KPAE 291556Z 16005KT 1/2SM R16R/P6000FT FG BKN001 03/02 A3025 RMK AO2 T00280017=
202411291553 METAR KPAE 291553Z 16005KT 1SM R16R/P6000FT BR BKN003 03/02 A3025 RMK AO2 SLP250 T00330017=
202411291453 METAR KPAE 291453Z 15005KT 1SM R16R/P6000FT BR BKN003 OVC010 03/02 A3025 RMK AO2 SLP250 T00330022 50005=
202411291353 METAR KPAE 291353Z AUTO 18007KT 4SM BR OVC002 04/02 A3026 RMK AO2 SLP252 T00390022=
202411291340 SPECI KPAE 291340Z AUTO 19008KT 4SM BR OVC002 04/03 A3026 RMK AO2 T00390028=
202411291333 SPECI KPAE 291333Z AUTO 18006KT 3SM BR OVC001 04/03 A3025 RMK AO2 T00390028=
202411291325 SPECI KPAE 291325Z AUTO 18007KT 1 1/2SM R16R/4000VP6000FT BR OVC001 03/02 A3025 RMK AO2 T00330022=
202411291307 SPECI KPAE 291307Z AUTO 18008KT 1/2SM R16R/2000V2600FT FG VV001 03/02 A3025 RMK AO2 T00330022=
202411291253 METAR KPAE 291253Z AUTO 17007KT 1/4SM R16R/1800V2000FT FG VV001 03/02 A3024 RMK AO2 SLP246 T00330022=
202411291201 SPECI KPAE 291201Z AUTO 16006KT 1/4SM R16R/1200V1600FT FG VV001 03/02 A3024 RMK AO2 T00280017=
202411291153 METAR KPAE 291153Z AUTO 16007KT 1/4SM R16R/1600V1800FT FG VV002 03/02 A3024 RMK AO2 SLP243 T00330022 10039 20022 56003=
202411291150 SPECI KPAE 291150Z AUTO 16007KT 1/2SM R16R/1600V2400FT FG OVC002 03/02 A3024 RMK AO2=
202411291138 SPECI KPAE 291138Z AUTO 15006KT 1 1/2SM R16R/2200VP6000FT BR OVC002 03/02 A3024 RMK AO2 T00330022=
202411291127 SPECI KPAE 291127Z AUTO 15005KT 2SM BR OVC001 03/02 A3024 RMK AO2 T00330022=
202411291122 SPECI KPAE 291122Z AUTO 16005KT 3/4SM R16R/P6000FT BR VV001 03/02 A3024 RMK AO2 T00330022=
202411291112 SPECI KPAE 291112Z AUTO 15005KT 1/4SM R16R/1800VP6000FT FG VV001 03/02 A3024 RMK AO2 T00330022=
202411291053 METAR KPAE 291053Z AUTO 15003KT 1/4SM R16R/1600V2000FT FG VV001 03/02 A3024 RMK AO2 SLP245 T00330022=
202411291049 SPECI KPAE 291049Z AUTO 15003KT 1/4SM R16R/1600V2000FT FG VV001 03/02 A3025 RMK AO2=
202411291027 SPECI KPAE 291027Z AUTO 00000KT 3/4SM R16R/1600V1800FT BR VV001 03/02 A3025 RMK AO2 T00330022=
202411291013 SPECI KPAE 291013Z AUTO 00000KT 1/4SM R16R/1200V1800FT FG VV001 04/03 A3024 RMK AO2 T00390028=
202411291005 SPECI KPAE 291005Z AUTO 00000KT 1/2SM R16R/1600V2200FT FG VV001 03/02 A3024 RMK AO2 T00330022=
202411290953 METAR KPAE 290953Z AUTO 00000KT 1SM R16R/2400V3500FT BR VV001 03/02 A3023 RMK AO2 SLP242 T00330022=
202411290942 SPECI KPAE 290942Z AUTO 00000KT 1 3/4SM R16R/2000V6000FT BR OVC001 03/02 A3023 RMK AO2 T00330022=
202411290927 SPECI KPAE 290927Z AUTO 00000KT 3SM R16R/2000V4500FT BR OVC001 03/02 A3023 RMK AO2 T00330017=
202411290917 SPECI KPAE 290917Z AUTO 00000KT 1 3/4SM R16R/2200V4000FT BR OVC001 03/02 A3022 RMK AO2 T00280017=
202411290853 METAR KPAE 290853Z AUTO 00000KT 4SM BR BKN001 OVC024 02/01 A3022 RMK AO2 SLP236 T00220006 52002=
202411290753 METAR KPAE 290753Z AUTO 00000KT 9SM OVC024 03/01 A3022 RMK AO2 SLP236 T00330011 400780011=
202411290742 SPECI KPAE 290742Z AUTO 00000KT 9SM BKN024 03/01 A3021 RMK AO2 T00280011=
202411290653 METAR KPAE 290653Z AUTO 00000KT 8SM CLR 03/01 A3021 RMK AO2 SLP235 T00280011=
202411290553 METAR KPAE 290553Z AUTO 00000KT 10SM CLR 03/02 A3021 RMK AO2 SLP235 T00330017 10056 20022 51002=
202411290453 METAR KPAE 290453Z AUTO 00000KT 4SM BR SCT006 03/02 A3021 RMK AO2 SLP235 T00330017=
202411290353 METAR KPAE 290353Z 00000KT 6SM BR SCT006 04/02 A3021 RMK AO2 SLP236 T00390022=
202411290253 METAR KPAE 290253Z 00000KT 10SM SCT006 04/03 A3020 RMK AO2 SLP233 T00440028 56007=
202411290245 SPECI KPAE 290245Z 00000KT 10SM FEW006 04/03 A3020 RMK AO2 T00440028=
202411290153 METAR KPAE 290153Z 36003KT 10SM CLR 04/02 A3021 RMK AO2 SLP234 T00440022=
202411290053 METAR KPAE 290053Z 33003KT 10SM CLR 05/02 A3021 RMK AO2 SLP237 T00500022=
202411282353 METAR KPAE 282353Z 35008KT 10SM CLR 06/03 A3022 RMK AO2 SLP239 T00560028 10078 20050 56012=
202411282253 METAR KPAE 282253Z 35003KT 10SM CLR 06/02 A3023 RMK AO2 SLP242 T00610017=
202411282153 METAR KPAE 282153Z 32004KT 10SM CLR 07/01 A3024 RMK AO2 SLP246 T00670006=
202411282053 METAR KPAE 282053Z VRB03KT 10SM CLR 08/01 A3026 RMK AO2 SLP250 T00780011 58016=
202411281953 METAR KPAE 281953Z 36004KT 10SM OVC030 06/02 A3028 RMK AO2 SLP257 T00560022=
202411281853 METAR KPAE 281853Z 00000KT 10SM BKN032 06/01 A3029 RMK AO2 SLP262 T00560006=
202411281753 METAR KPAE 281753Z 00000KT 10SM FEW035 04/02 A3031 RMK AO2 SLP267 T00440017 10044 20011 53001=
202411281653 METAR KPAE 281653Z 00000KT 10SM CLR 03/01 A3030 RMK AO2 SLP267 T00280006=
202411281553 METAR KPAE 281553Z 12004KT 10SM CLR 03/01 A3031 RMK AO2 SLP268 T00280006=
202411281453 METAR KPAE 281453Z 00000KT 10SM CLR 02/00 A3031 RMK AO2 SLP268 T00170000 56009=
202411281353 METAR KPAE 281353Z AUTO 00000KT 10SM CLR 02/00 A3031 RMK AO2 SLP269 T00170000=
202411281253 METAR KPAE 281253Z AUTO 00000KT 10SM CLR 03/01 A3032 RMK AO2 SLP272 T00280006=
202411281153 METAR KPAE 281153Z AUTO 00000KT 10SM CLR 04/02 A3033 RMK AO2 SLP275 T00390017 10056 20033 58006=
202411281053 METAR KPAE 281053Z AUTO 11004KT 10SM CLR 04/02 A3035 RMK AO2 SLP280 T00390022=
202411280953 METAR KPAE 280953Z AUTO 00000KT 10SM FEW046 04/02 A3035 RMK AO2 SLP281 T00390022=
202411280853 METAR KPAE 280853Z AUTO 11004KT 10SM BKN046 04/03 A3035 RMK AO2 SLP281 T00440028 58004=
202411280753 METAR KPAE 280753Z AUTO 11005KT 10SM OVC047 05/03 A3036 RMK AO2 SLP285 T00500033 400830022=
202411280653 METAR KPAE 280653Z AUTO 00000KT 10SM OVC047 04/03 A3037 RMK AO2 SLP287 T00440028=
202411280553 METAR KPAE 280553Z AUTO 00000KT 10SM OVC048 04/02 A3036 RMK AO2 SLP285 T00390022 10078 20022 51002=
202411280453 METAR KPAE 280453Z AUTO 00000KT 10SM SCT049 04/02 A3036 RMK AO2 SLP285 T00390017=
202411280353 METAR KPAE 280353Z 00000KT 10SM CLR 03/01 A3036 RMK AO2 SLP285 T00280006=
202411280253 METAR KPAE 280253Z 00000KT 10SM CLR 03/02 A3035 RMK AO2 SLP283 T00330017 51005=
202411280153 METAR KPAE 280153Z 00000KT 10SM SCT055 05/02 A3035 RMK AO2 SLP282 T00500022=
202411280053 METAR KPAE 280053Z 00000KT 10SM CLR 06/02 A3035 RMK AO2 SLP279 T00610022=
202411272353 METAR KPAE 272353Z 00000KT 10SM CLR 07/02 A3034 RMK AO2 SLP277 T00720022 10083 20067 56009=
202411272253 METAR KPAE 272253Z VRB03KT 10SM SCT012 07/03 A3034 RMK AO2 SLP277 T00720028=
202411272153 METAR KPAE 272153Z 00000KT 10SM SCT008 BKN016 08/04 A3035 RMK AO2 SLP280 T00780044=
202411272053 METAR KPAE 272053Z 34003KT 10SM SCT006 BKN010 08/03 A3037 RMK AO2 SLP286 T00780033 58001=
202411272032 SPECI KPAE 272032Z 00000KT 10SM SCT006 BKN010 08/04 A3037 RMK AO2 T00780039=
202411271953 METAR KPAE 271953Z 00000KT 10SM BKN007 07/04 A3037 RMK AO2 SLP288 T00720039=
202411271853 METAR KPAE 271853Z 00000KT BKN004 BKN030 07/04 A3037 RMK AO2 SLP287 T00720039 $=
202411271810 SPECI KPAE 271810Z 00000KT BKN004 BKN030 07/04 A3037 RMK AO2 T00670039 $=
202411271753 METAR KPAE 271753Z 00000KT 10SM BKN008 BKN030 07/04 A3037 RMK AO2 SLP287 T00670039 10067 20056 51007=
202411271739 SPECI KPAE 271739Z 00000KT 10SM FEW008 BKN015 BKN055 07/04 A3037 RMK AO2 T00670039=
202411271653 METAR KPAE 271653Z 10SM SCT024 SCT042 OVC055 06/04 A3036 RMK AO2 SLP286 T00610039=
202411271626 SPECI KPAE 271626Z 00000KT 2SM BR SCT005 BKN040 06/04 A3036 RMK AO2 T00610039=
202411271601 SPECI KPAE 271601Z 00000KT 1/2SM R16R/P6000FT FG OVC040 06/04 A3035 RMK AO2 T00610044 $=
202411271559 SPECI KPAE 271559Z 00000KT 2SM BR OVC040 06/04 A3035 RMK AO2 T00610044 $=
202411271553 METAR KPAE 271553Z 10003KT OVC042 06/04 A3035 RMK AO2 SLP282 T00610039 $=
202411271453 METAR KPAE 271453Z 15004KT 10SM OVC039 06/04 A3035 RMK AO2 SLP280 T00610039 55000=
202411271353 METAR KPAE 271353Z AUTO 14003KT 10SM OVC038 06/03 A3034 RMK AO2 SLP279 T00560033=
202411271253 METAR KPAE 271253Z AUTO 12003KT 10SM BKN032 OVC042 06/03 A3035 RMK AO2 SLP280 T00560033=
202411271153 METAR KPAE 271153Z AUTO 00000KT 10SM FEW031 OVC055 06/04 A3035 RMK AO2 RAB00E09 SLP280 P0000 60000 T00610039 10061 20050 51009=
202411271053 METAR KPAE 271053Z AUTO 00000KT 10SM FEW031 OVC055 06/03 A3034 RMK AO2 SLP278 T00560033=
202411270953 METAR KPAE 270953Z AUTO 00000KT 10SM OVC050 06/03 A3033 RMK AO2 SLP275 T00610033=
202411270853 METAR KPAE 270853Z AUTO 00000KT 10SM OVC050 06/03 A3032 RMK AO2 SLP270 T00610033 51012=
202411270753 METAR KPAE 270753Z AUTO 00000KT 10SM OVC050 06/04 A3031 RMK AO2 SLP268 T00610039 400780050=
202411270653 METAR KPAE 270653Z AUTO 00000KT 10SM OVC049 06/03 A3030 RMK AO2 SLP263 T00560033=
202411270553 METAR KPAE 270553Z AUTO 00000KT 10SM OVC048 06/03 A3028 RMK AO2 SLP258 60000 T00610028 10067 20050 51011=
202411270453 METAR KPAE 270453Z 00000KT 10SM OVC050 05/03 A3027 RMK AO2 SLP256 T00500028=
202411270400 SPECI KPAE 270400Z 16003KT 10SM SCT029 06/03 A3027 RMK AO2 T00610028=
202411270353 METAR KPAE 270353Z 15004KT 10SM BKN029 OVC047 06/03 A3027 RMK AO2 SLP253 T00610028=
202411270253 METAR KPAE 270253Z 11004KT 10SM BKN029 OVC047 07/03 A3025 RMK AO2 SLP247 60000 T00670033 51009=
202411270245 SPECI KPAE 270245Z 11003KT 10SM BKN029 OVC047 07/03 A3025 RMK AO2 T00670033=
202411270153 METAR KPAE 270153Z 00000KT 10SM FEW015 BKN032 OVC048 06/04 A3025 RMK AO2 SLP246 T00610039=
202411270053 METAR KPAE 270053Z 01003KT 10SM BKN033 OVC040 07/03 A3023 RMK AO2 RAB36E46 SLP241 P0000 T00670033=
202411262353 METAR KPAE 262353Z 34003KT 10SM BKN030 OVC049 07/03 A3022 RMK AO2 SLP237 60000 T00720033 10078 20061 53013=
202411262253 METAR KPAE 262253Z 34003KT 10SM SCT017 OVC030 07/03 A3021 RMK AO2 SLP232 T00720033=
202411262153 METAR KPAE 262153Z 00000KT 10SM SCT030 OVC044 08/02 A3019 RMK AO2 SLP225 T00780022=
202411262103 SPECI KPAE 262103Z 33003KT 10SM FEW016 SCT033 OVC047 07/03 A3018 RMK AO2 T00720028=
202411262053 METAR KPAE 262053Z 31004KT 10SM BKN016 OVC046 07/03 A3018 RMK AO2 RAE1956 SLP224 P0000 60000 T00720033 53009=
202411261953 METAR KPAE 261953Z 00000KT 10SM -RA OVC044 07/03 A3017 RMK AO2 RAB47 SLP219 P0000 T00670028=
202411261853 METAR KPAE 261853Z 33003KT 10SM OVC045 07/03 A3016 RMK AO2 SLP217 T00670028=
202411261753 METAR KPAE 261753Z 35005KT 10SM OVC065 06/03 A3015 RMK AO2 SLP214 60000 T00610028 10061 20050 53022=
202411261653 METAR KPAE 261653Z 32003KT 10SM BKN037 OVC060 06/03 A3014 RMK AO2 SLP208 T00610033=
202411261553 METAR KPAE 261553Z 00000KT 10SM SCT038 BKN060 05/02 A3011 RMK AO2 SLP198 T00500022=
202411261453 METAR KPAE 261453Z 33003KT 10SM OVC065 05/03 A3009 RMK AO2 SLP192 60000 T00500028 51008=
202411261353 METAR KPAE 261353Z 33003KT 10SM FEW029 OVC039 06/03 A3008 RMK AO2 SLP189 T00560033=
202411261351 SPECI KPAE 261351Z 35003KT 10SM SCT029 OVC039 06/03 A3008 RMK AO2=
202411261253 METAR KPAE 261253Z 34003KT 10SM OVC027 06/03 A3007 RMK AO2 RAB17E27 SLP184 P0000 T00560033=
202411261153 METAR KPAE 261153Z 00000KT 10SM BKN028 OVC037 06/03 A3006 RMK AO2 SLP180 60000 70007 T00560033 10067 20056 51006=
202411261151 SPECI KPAE 261151Z 00000KT 10SM BKN028 OVC037 06/03 A3006 RMK AO2=
202411261053 METAR KPAE 261053Z 35004KT 10SM SCT030 OVC041 06/03 A3005 RMK AO2 RAB0957E14 SLP177 P0000 T00560033=
202411261041 SPECI KPAE 261041Z 35004KT 9SM BKN031 OVC044 06/04 A3005 RMK AO2 RAB0957E14 P0000 T00560039=
202411260953 METAR KPAE 260953Z VRB03KT 9SM OVC027 06/04 A3004 RMK AO2 RAE15 SLP174 P0000 T00560039=
202411260936 SPECI KPAE 260936Z 36005KT 10SM SCT002 OVC027 06/04 A3003 RMK AO2 RAE15 P0000 T00560039=
202411260853 METAR KPAE 260853Z 34003KT 4SM -RA BR OVC002 06/04 A3003 RMK AO2 RAB08E17B53 SLP172 P0000 60000 T00610044 50004=
202411260753 METAR KPAE 260753Z 36005KT 9SM BKN002 OVC019 06/04 A3003 RMK AO2 RAB19E36 SLP173 P0000 T00610044 400830061=
202411260750 SPECI KPAE 260750Z 36005KT 9SM BKN002 OVC019 06/04 A3003 RMK AO2 RAB19E36 P0000=
202411260707 SPECI KPAE 260707Z 35005KT 3SM R16R/5500VP6000FT BR OVC001 06/05 A3003 RMK AO2 T00610050=
202411260704 SPECI KPAE 260704Z 36005KT 2 1/2SM R16R/4000VP6000FT BR OVC002 06/05 A3002 RMK AO2 T00610050=
202411260653 METAR KPAE 260653Z 36005KT 3SM R16R/4000VP6000FT BR OVC002 06/05 A3002 RMK AO2 SLP168 T00610050=
202411260639 SPECI KPAE 260639Z 34005KT 2 1/2SM R16R/4000VP6000FT BR OVC002 06/05 A3002 RMK AO2 T00610050=
202411260553 METAR KPAE 260553Z 34005KT 6SM BR OVC001 07/05 A3001 RMK AO2 SLP167 T00670050 10078 20067 50008=
202411260548 SPECI KPAE 260548Z 33004KT 4SM BR OVC002 07/05 A3002 RMK AO2=
202411260526 SPECI KPAE 260526Z 35004KT 2 1/2SM BR OVC002 07/06 A3001 RMK AO2 T00670056=
202411260516 SPECI KPAE 260516Z 36003KT 3SM R16R/4000VP6000FT BR OVC001 07/06 A3001 RMK AO2 T00670056=
202411260510 SPECI KPAE 260510Z 35004KT 1 3/4SM R16R/3500VP6000FT BR OVC001 07/06 A3000 RMK AO2 T00670056=
202411260500 SPECI KPAE 260500Z 00000KT 3/4SM R16R/2600VP6000FT BR VV001 07/06 A3000 RMK AO2 T00670056=
202411260453 METAR KPAE 260453Z 35003KT 1/4SM R16R/3000V4000FT FG VV001 07/06 A3000 RMK AO2 SLP163 T00670056=
202411260418 SPECI KPAE 260418Z 34005KT 1/4SM R16R/1800V4500FT FG VV001 07/06 A3000 RMK AO2 T00670056=
202411260400 SPECI KPAE 260400Z 35004KT 1/4SM R16R/1400V2000FT FG VV001 07/06 A2999 RMK AO2 T00670056=
202411260353 METAR KPAE 260353Z 35003KT 1/2SM R16R/1800V3000FT FG OVC001 07/06 A2999 RMK AO2 SLP159 T00670056=
202411260348 SPECI KPAE 260348Z 35003KT 1/2SM R16R/1600V3000FT FG OVC001 07/06 A2999 RMK AO2=
202411260344 SPECI KPAE 260344Z 34005KT 1/4SM R16R/1600V2200FT FG OVC001 07/06 A2999 RMK AO2 T00670056=
202411260328 SPECI KPAE 260328Z 35004KT 1/2SM R16R/1200V3500FT FG OVC001 07/06 A2999 RMK AO2 T00670056=
202411260253 METAR KPAE 260253Z 35005KT 1/4SM R16R/1600V2000FT FG OVC001 07/06 A2998 RMK AO2 SLP155 T00720061 51004=
202411260207 SPECI KPAE 260207Z 35004KT 1/4SM R16R/1200V1400FT FG VV001 07/06 A2998 RMK AO2 T00720061=
202411260153 METAR KPAE 260153Z 35004KT 1/4SM R16R/1200V2800FT FG VV001 07/06 A2998 RMK AO2 SLP153 T00720061=
202411260138 SPECI KPAE 260138Z 34004KT 1/4SM R16R/2800VP6000FT FG VV001 07/06 A2997 RMK AO2 T00720061=
202411260119 SPECI KPAE 260119Z 33004KT 1/2SM R16R/1200VP6000FT FG VV001 07/06 A2997 RMK AO2 T00720061=
202411260053 METAR KPAE 260053Z 00000KT 1/4SM R16R/1200V1800FT FG VV001 08/06 A2997 RMK AO2 SLP150 T00780061=
202411260051 SPECI KPAE 260051Z 34003KT 1SM R16R/1200V2200FT BR VV001 08/06 A2997 RMK AO2=
202411260037 SPECI KPAE 260037Z 35003KT 1SM R16R/2000VP6000FT BR BKN003 OVC010 08/06 A2997 RMK AO2 T00780061=
202411260021 SPECI KPAE 260021Z 00000KT 1SM R16R/P6000FT BR SCT003 OVC010 08/06 A2996 RMK AO2 T00780061=
202411252353 METAR KPAE 252353Z 00000KT 1SM R16R/P6000FT BR BKN002 OVC012 08/06 A2996 RMK AO2 SLP148 60001 T00780061 10083 20072 53005=
202411252321 SPECI KPAE 252321Z 00000KT 1SM R16R/4500VP6000FT BR BKN002 OVC004 08/07 A2995 RMK AO2 T00830067=
202411252300 SPECI KPAE 252300Z 00000KT 3SM BR BKN004 OVC011 08/06 A2995 RMK AO2 T00830061=
202411252253 METAR KPAE 252253Z 00000KT 3SM BR BKN005 OVC019 08/07 A2995 RMK AO2 SLP144 T00830067=
202411252200 SPECI KPAE 252200Z 00000KT 3SM BR BKN005 OVC019 08/06 A2994 RMK AO2 T00830061=
202411252153 METAR KPAE 252153Z 14003KT 10SM BKN004 BKN019 OVC025 08/07 A2994 RMK AO2 SLP142 T00830067=
202411252053 METAR KPAE 252053Z VRB03KT 10SM BKN004 BKN019 OVC025 08/06 A2995 RMK AO2 RAB1959E12 SLP143 P0000 60001 T00780061 50003=
202411252033 SPECI KPAE 252033Z 15003KT 4SM BR BKN004 BKN019 OVC025 08/06 A2994 RMK AO2 RAB1959E12 P0000 T00780061=
202411252020 SPECI KPAE 252020Z 10004KT 2SM BR BKN004 BKN019 OVC025 08/06 A2994 RMK AO2 RAB1959E12 P0000 T00780061=
202411252011 SPECI KPAE 252011Z 00000KT 1 3/4SM -RA BR BKN004 BKN019 OVC025 08/06 A2995 RMK AO2 RAB1959 P0000 T00780061=
202411252002 SPECI KPAE 252002Z VRB03KT 1 1/2SM -RA BR SCT004 BKN019 OVC025 07/06 A2995 RMK AO2 RAB1959 P0000 T00720056=
202411251953 METAR KPAE 251953Z 00000KT 2SM BR BKN004 OVC027 08/06 A2995 RMK AO2 RAE44 SLP143 P0001 T00780061=
202411251853 METAR KPAE 251853Z 00000KT 2SM -RA BR BKN004 OVC013 07/06 A2995 RMK AO2 SLP143 P0000 T00720056=
202411251753 METAR KPAE 251753Z 09004KT 2SM -RA BR BKN006 OVC013 07/06 A2994 RMK AO2 SLP140 P0000 60006 T00720056 10072 20061 51012=
202411251700 SPECI KPAE 251700Z VRB05KT 2SM -RA BR BKN006 OVC013 07/05 A2993 RMK AO2 P0000 T00670050=
202411251653 METAR KPAE 251653Z 15005KT 2SM -RA BR BKN004 BKN028 OVC035 07/05 A2993 RMK AO2 SLP137 P0001 T00670050=
202411251553 METAR KPAE 251553Z 11005KT 2SM -RA BR BKN004 BKN026 OVC038 07/05 A2991 RMK AO2 SLP132 P0001 T00670050=
202411251546 SPECI KPAE 251546Z VRB05KT 4SM -RA BR BKN004 BKN026 OVC038 06/05 A2991 RMK AO2 P0001 T00610050=
202411251544 SPECI KPAE 251544Z 11006KT 4SM -RA BR FEW004 SCT020 OVC038 06/05 A2991 RMK AO2 P0001 T00610050=
202411251523 SPECI KPAE 251523Z 11005KT 5SM -RA BR SCT027 OVC042 06/05 A2991 RMK AO2 P0001 T00610050=
202411251507 SPECI KPAE 251507Z 11005KT 7SM -RA FEW021 OVC028 07/05 A2990 RMK AO2 P0001 T00670050=
202411251453 METAR KPAE 251453Z 11005KT 7SM -RA FEW021 OVC030 07/05 A2990 RMK AO2 SLP128 P0003 60004 T00670050 52006=
202411251353 METAR KPAE 251353Z 10005KT 8SM -RA FEW028 SCT036 OVC048 07/04 A2989 RMK AO2 SLP124 P0000 T00670044=
202411251330 SPECI KPAE 251330Z 09005KT 10SM -RA FEW020 OVC050 07/04 A2989 RMK AO2 P0000 T00670044=
202411251253 METAR KPAE 251253Z 05004KT 7SM -RA BKN023 OVC030 07/04 A2989 RMK AO2 SLP125 P0001 T00670044=
202411251214 SPECI KPAE 251214Z 00000KT 8SM -RA OVC029 07/04 A2989 RMK AO2 P0001 T00670044=
202411251153 METAR KPAE 251153Z 06003KT 7SM -RA OVC032 07/04 A2988 RMK AO2 SLP122 P0000 60001 70001 T00670044 10083 20061 53005=
202411251053 METAR KPAE 251053Z 00000KT 10SM -RA BKN038 OVC048 06/04 A2988 RMK AO2 SLP119 P0001 T00610044=
202411250953 METAR KPAE 250953Z 00000KT 10SM -RA OVC038 07/04 A2987 RMK AO2 SLP117 P0000 T00670039=
202411250853 METAR KPAE 250853Z 05005KT 10SM -RA BKN040 OVC050 08/04 A2987 RMK AO2 SLP115 P0000 60000 T00780039 58008=
202411250753 METAR KPAE 250753Z 10004KT 10SM -RA OVC050 07/04 A2989 RMK AO2 RAB28 SLP124 P0000 T00720039 400890061=
202411250653 METAR KPAE 250653Z 11003KT 10SM OVC045 08/03 A2989 RMK AO2 SLP125 T00780033=
202411250553 METAR KPAE 250553Z 00000KT 10SM OVC045 08/03 A2989 RMK AO2 SLP125 60000 T00830028 10083 20078 53001=
202411250453 METAR KPAE 250453Z 11004KT 10SM FEW040 BKN050 OVC100 08/03 A2989 RMK AO2 SLP123 T00780033=
202411250353 METAR KPAE 250353Z 00000KT 10SM SCT036 OVC050 08/04 A2988 RMK AO2 SLP121 T00780039=
202411250253 METAR KPAE 250253Z 10005KT 10SM OVC042 08/04 A2989 RMK AO2 SLP123 60000 T00780039 58002=
202411250153 METAR KPAE 250153Z VRB03KT 10SM OVC047 08/04 A2989 RMK AO2 RAB21E53 SLP125 P0000 T00780044=
202411250053 METAR KPAE 250053Z VRB04KT 10SM OVC038 08/04 A2990 RMK AO2 SLP127 T00830039=
202411242353 METAR KPAE 242353Z VRB03KT 10SM OVC031 08/04 A2989 RMK AO2 SLP125 60000 T00830039 10089 20067 53003=
202411242253 METAR KPAE 242253Z VRB06KT 10SM OVC044 08/04 A2988 RMK AO2 SLP122 T00830039=
202411242153 METAR KPAE 242153Z 10SM FEW028 SCT033 OVC044 09/04 A2988 RMK AO2 SLP120 T00890044=
202411242053 METAR KPAE 242053Z VRB05KT 10SM FEW026 BKN036 OVC048 08/05 A2988 RMK AO2 RAB42E53 SLP122 P0000 60000 T00830050 53004=
202411241953 METAR KPAE 241953Z 11006KT 10SM SCT033 OVC042 08/05 A2987 RMK AO2 SLP119 T00780050=
202411241853 METAR KPAE 241853Z 12005KT 10SM OVC037 07/04 A2988 RMK AO2 RAB00E06B36E47 SLP120 P0000 T00720044=
202411241813 SPECI KPAE 241813Z VRB03KT 10SM OVC030 07/04 A2988 RMK AO2 RAB00E06 P0000 T00670044=
202411241753 METAR KPAE 241753Z 12003KT 10SM OVC029 07/04 A2987 RMK AO2 RAE23 SLP117 P0000 60000 T00670044 10072 20061 53014=
202411241653 METAR KPAE 241653Z 11006KT 6SM -RA BR OVC030 06/04 A2986 RMK AO2 RAE1556B21 SLP113 P0000 T00610044=
202411241648 SPECI KPAE 241648Z 11005KT 2SM -RA BR FEW024 OVC031 06/04 A2986 RMK AO2 RAE1556B21 P0000=
202411241632 SPECI KPAE 241632Z 00000KT 2 1/2SM -RA BR OVC025 06/04 A2985 RMK AO2 RAE1556B21 P0000 T00610039=
202411241553 METAR KPAE 241553Z AUTO 9SM -RA FEW028 OVC034 06/04 A2984 RMK AO2 SLP107 P0000 T00610039=
202411241453 METAR KPAE 241453Z AUTO 14007KT 9SM -RA OVC040 06/03 A2983 RMK AO2 RAB01 SLP103 P0000 60000 T00610033 53012=
202411241353 METAR KPAE 241353Z AUTO 14009KT 10SM FEW035 OVC055 07/03 A2981 RMK AO2 RAB03E14 SLP098 P0000 T00670028=
202411241253 METAR KPAE 241253Z AUTO 14006KT 10SM BKN070 OVC100 07/02 A2980 RMK AO2 RAE04B21E52 SLP093 P0000 T00720022=
202411241153 METAR KPAE 241153Z AUTO 14005KT 10SM -RA BKN046 OVC070 07/02 A2979 RMK AO2 RAB18E32B48 SLP091 P0000 60000 T00720022 10072 20067 56007=
202411241053 METAR KPAE 241053Z AUTO 12004KT 10SM OVC065 07/02 A2981 RMK AO2 SLP094 T00670022=
202411240953 METAR KPAE 240953Z AUTO 12005KT 10SM BKN060 07/02 A2980 RMK AO2 SLP094 T00720022=
202411240853 METAR KPAE 240853Z AUTO 12004KT 10SM BKN044 OVC055 07/03 A2982 RMK AO2 SLP098 T00670028 51003=
202411240753 METAR KPAE 240753Z AUTO 12006KT 10SM OVC055 07/03 A2982 RMK AO2 SLP098 T00670033 401060067=
202411240653 METAR KPAE 240653Z AUTO 11006KT 10SM OVC060 07/03 A2982 RMK AO2 SLP098 T00670033=
202411240553 METAR KPAE 240553Z AUTO VRB03KT 10SM FEW039 FEW050 07/03 A2981 RMK AO2 SLP095 60000 T00670033 10100 20067 53009=
202411240453 METAR KPAE 240453Z 14004KT 10SM FEW039 BKN055 08/04 A2980 RMK AO2 SLP092 T00780039=
202411240353 METAR KPAE 240353Z VRB03KT 10SM OVC060 08/03 A2979 RMK AO2 SLP090 T00780033=
202411240253 METAR KPAE 240253Z 15009KT 10SM CLR 08/04 A2978 RMK AO2 SLP086 60000 T00830039 51013=
202411240153 METAR KPAE 240153Z 16007KT 10SM CLR 08/04 A2977 RMK AO2 RAE0054 SLP084 P0000 T00830039=
202411240053 METAR KPAE 240053Z AUTO 17012KT 10SM -RA BKN055 OVC070 09/04 A2976 RMK AO2 RAB39 SLP078 P0000 T00940039=
202411232353 METAR KPAE 232353Z 16011KT 10SM FEW047 10/04 A2974 RMK AO2 SLP073 T01000039 10106 20094 53007=
202411232253 METAR KPAE 232253Z 17012G24KT 10SM CLR 10/04 A2973 RMK AO2 SLP068 T01000044=
202411232211 SPECI KPAE 232211Z 17014G19KT 10SM SCT024 10/04 A2973 RMK AO2 T01000044=
202411232153 METAR KPAE 232153Z 18012KT 10SM BKN024 10/04 A2973 RMK AO2 SLP069 T01000044=
202411232053 METAR KPAE 232053Z 19016G27KT 10SM SCT025 BKN100 10/04 A2972 RMK AO2 PK WND 19027/2048 SLP066 T01000044 51011=
202411232012 SPECI KPAE 232012Z 18017KT 10SM FEW022 10/04 A2971 RMK AO2 T01000044=
202411231953 METAR KPAE 231953Z 18015G26KT 10SM BKN022 10/04 A2971 RMK AO2 PK WND 18026/1936 SLP062 T01000044=
202411231902 SPECI KPAE 231902Z 18014G20KT 10SM BKN020 10/05 A2971 RMK AO2 T01000050=
202411231853 METAR KPAE 231853Z 18012KT 10SM SCT019 10/05 A2971 RMK AO2 SLP062 T01000050=
202411231753 METAR KPAE 231753Z 16014KT 10SM OVC100 09/05 A2969 RMK AO2 SLP055 T00940050 10094 20078 52013=
202411231653 METAR KPAE 231653Z 16011KT 10SM OVC100 08/04 A2968 RMK AO2 SLP051 T00830044=
202411231553 METAR KPAE 231553Z 16009KT 10SM OVC090 08/04 A2966 RMK AO2 SLP045 T00780044=
202411231453 METAR KPAE 231453Z AUTO 17010KT 10SM OVC085 08/04 A2965 RMK AO2 SLP041 T00780039 55000=
202411231353 METAR KPAE 231353Z AUTO 16011KT 10SM SCT095 08/04 A2964 RMK AO2 SLP039 T00830039=
202411231253 METAR KPAE 231253Z AUTO 14010KT 10SM CLR 08/03 A2965 RMK AO2 SLP041 T00830033=
202411231153 METAR KPAE 231153Z AUTO 15010KT 10SM SCT043 09/03 A2965 RMK AO2 SLP041 70010 T00890033 10100 20083 56000=
202411231053 METAR KPAE 231053Z AUTO 14008KT 10SM SCT043 09/04 A2965 RMK AO2 SLP042 T00890039=
202411230953 METAR KPAE 230953Z AUTO 14009G19KT 10SM OVC042 09/04 A2965 RMK AO2 SLP040 T00940039=
202411230853 METAR KPAE 230853Z AUTO VRB04KT 10SM SCT036 08/04 A2965 RMK AO2 SLP041 T00830044 58005=
202411230753 METAR KPAE 230753Z AUTO 11005KT 10SM SCT043 09/05 A2966 RMK AO2 SLP046 T00890050 401500067=
202411230653 METAR KPAE 230653Z AUTO 17014G20KT 10SM CLR 09/05 A2967 RMK AO2 SLP046 T00940050=
202411230553 METAR KPAE 230553Z AUTO 16011G22KT 10SM FEW036 SCT049 10/06 A2967 RMK AO2 SLP048 60002 T01000056 10133 20094 53008=
202411230453 METAR KPAE 230453Z 16015G26KT 10SM CLR 10/06 A2964 RMK AO2 PK WND 17026/0449 RAE0357 SLP039 P0000 T01000056=
202411230353 METAR KPAE 230353Z 16011KT 10SM -RA FEW035 BKN048 OVC070 10/07 A2966 RMK AO2 RAB10 SLP045 P0001 T01000067=
202411230253 METAR KPAE 230253Z 17015G21KT 10SM FEW044 SCT070 BKN085 11/06 A2964 RMK AO2 PK WND 19029/0157 SLP039 60001 T01060056 51013=
202411230153 METAR KPAE 230153Z AUTO 18019G26KT 10SM SCT046 BKN080 OVC100 11/06 A2964 RMK AO2 PK WND 17032/0141 RAB0058E50 SLP039 P0001 T01110056=
202411230053 METAR KPAE 230053Z AUTO 19015G29KT 10SM SCT043 BKN055 OVC070 11/06 A2963 RMK AO2 PK WND 18031/0043 RAB05E48 SLP034 P0000 T01110061=
202411222353 METAR KPAE 222353Z AUTO 19022G27KT 10SM BKN047 OVC065 13/04 A2960 RMK AO2 PK WND 19032/2305 SLP025 60000 T01330044 10150 20100 53013=
202411222253 METAR KPAE 222253Z 18025G32KT 10SM SCT050 14/04 A2957 RMK AO2 PK WND 15034/2233 SLP015 T01390044=
202411222153 METAR KPAE 222153Z 15014G26KT 10SM BKN055 14/06 A2956 RMK AO2 PK WND 15026/2149 SLP009 T01440061=
202411222053 METAR KPAE 222053Z 15014G22KT 10SM BKN110 12/07 A2957 RMK AO2 SLP013 60000 T01220072 58001=
202411221953 METAR KPAE 221953Z 11010G17KT 10SM FEW030 12/08 A2957 RMK AO2 RAB1854E19 SLP014 P0000 T01170083=
202411221853 METAR KPAE 221853Z 14011G22KT 10SM FEW055 OVC085 12/07 A2959 RMK AO2 PK WND 15035/1817 RAE20 SLP022 P0000 T01170072=
202411221753 METAR KPAE 221753Z 14008G19KT 110V170 9SM -RA BKN060 OVC075 10/07 A2957 RMK AO2 SLP015 P0002 60008 T01000072 10100 20072 53021=
202411221653 METAR KPAE 221653Z VRB03KT 5SM -RA BR OVC044 09/07 A2955 RMK AO2 SLP008 P0001 T00940072=
202411221553 METAR KPAE 221553Z VRB04KT 10SM -RA OVC049 09/06 A2952 RMK AO2 SLP997 P0000 T00940061=
202411221453 METAR KPAE 221453Z 10008KT 10SM -RA SCT070 OVC100 09/06 A2951 RMK AO2 RAB1354 SLP993 P0001 60005 T00890061 56049=
202411221353 METAR KPAE 221353Z AUTO 10011G19KT 10SM BKN070 OVC085 09/05 A2954 RMK AO2 RAE48 SLP003 P0001 T00890050=
202411221253 METAR KPAE 221253Z AUTO 07007G14KT 10SM -RA BKN055 OVC070 08/05 A2960 RMK AO2 PRESFR SLP024 P0003 T00780050=
202411221153 METAR KPAE 221153Z AUTO 00000KT 10SM -RA OVC060 07/05 A2966 RMK AO2 RAB04 SLP044 P0000 60000 70002 T00720050 10089 20067 56021=
202411221053 METAR KPAE 221053Z AUTO 02003KT 10SM FEW070 OVC095 07/04 A2968 RMK AO2 SLP051 T00720044=
202411220953 METAR KPAE 220953Z AUTO 36004KT 10SM BKN110 07/04 A2970 RMK AO2 SLP057 T00670044=
202411220853 METAR KPAE 220853Z AUTO 02004KT 10SM CLR 07/04 A2972 RMK AO2 SLP066 T00670039 58051=
202411220753 METAR KPAE 220753Z AUTO 05007KT 10SM CLR 08/03 A2977 RMK AO2 SLP084 T00830028 401280067=
202411220653 METAR KPAE 220653Z AUTO 04007KT 10SM CLR 08/03 A2982 RMK AO2 SLP100 T00780033=
202411220553 METAR KPAE 220553Z AUTO 10007KT 10SM SCT060 08/03 A2987 RMK AO2 SLP118 60000 T00780033 10089 20067 58014=
202411220453 METAR KPAE 220453Z 10007KT 10SM SCT048 08/04 A2989 RMK AO2 RAB12E24 SLP122 P0000 T00830044=
202411220353 METAR KPAE 220353Z 00000KT 10SM FEW029 07/05 A2991 RMK AO2 SLP132 T00670050=
202411220253 METAR KPAE 220253Z 06003KT 10SM BKN037 OVC048 08/06 A2991 RMK AO2 SLP132 60000 T00780061 50005=
202411220153 METAR KPAE 220153Z 00000KT 10SM OVC043 08/07 A2992 RMK AO2 RAE43 SLP134 P0000 T00830067=
202411220053 METAR KPAE 220053Z 00000KT 10SM -RA OVC044 08/06 A2992 RMK AO2 RAB10 SLP134 P0000 T00830061=
202411220000 SPECI KPAE 220000Z 00000KT 10SM SCT050 BKN065 OVC080 09/06 A2990 RMK AO2 T00890061=
202411212353 METAR KPAE 212353Z 32003KT 10SM BKN020 OVC055 09/07 A2990 RMK AO2 RAE52 SLP126 P0002 60002 T00890072 10128 20089 53000=
202411212316 SPECI KPAE 212316Z 23003KT 6SM -RA BKN020 OVC055 10/06 A2990 RMK AO2 P0000 T01000056=
202411212253 METAR KPAE 212253Z 15005KT 10SM -RA BKN046 OVC055 11/03 A2989 RMK AO2 RAB27 SLP125 P0000 T01110033=
202411212153 METAR KPAE 212153Z 11005KT 10SM BKN095 12/04 A2988 RMK AO2 SLP121 T01170039=
202411212053 METAR KPAE 212053Z 15006KT 10SM OVC100 13/03 A2990 RMK AO2 SLP125 T01280033 58010=
202411211953 METAR KPAE 211953Z 00000KT 10SM BKN120 11/03 A2991 RMK AO2 SLP130 T01060028=
202411211853 METAR KPAE 211853Z 10006KT 10SM OVC050 11/03 A2992 RMK AO2 SLP132 T01060028=
202411211753 METAR KPAE 211753Z 12004KT 10SM OVC055 09/02 A2993 RMK AO2 SLP137 T00940022 10094 20072 51007=
202411211653 METAR KPAE 211653Z 11005KT 10SM CLR 08/02 A2993 RMK AO2 SLP137 T00780022=
202411211553 METAR KPAE 211553Z AUTO 11006KT 10SM OVC070 07/02 A2992 RMK AO2 SLP134 T00720022=
202411211453 METAR KPAE 211453Z AUTO 11006KT 10SM OVC065 07/03 A2991 RMK AO2 SLP130 T00720028 51007=
202411211353 METAR KPAE 211353Z AUTO VRB03KT 10SM SCT039 BKN055 OVC070 08/02 A2991 RMK AO2 SLP129 T00780022=
202411211253 METAR KPAE 211253Z AUTO 15007KT 10SM FEW049 BKN080 OVC095 07/02 A2990 RMK AO2 SLP125 T00720022=
202411211153 METAR KPAE 211153Z AUTO 15005KT 10SM OVC045 08/02 A2989 RMK AO2 RAB18E28 SLP122 P0000 60000 T00780022 10089 20072 51012=
202411211053 METAR KPAE 211053Z AUTO 16004KT 10SM BKN060 OVC080 08/02 A2987 RMK AO2 SLP118 T00780017=
202411210953 METAR KPAE 210953Z AUTO 11004KT 10SM OVC048 08/01 A2987 RMK AO2 SLP115 T00780011=
202411210853 METAR KPAE 210853Z AUTO 12004KT 10SM FEW043 OVC055 08/01 A2985 RMK AO2 SLP110 T00780011 51010=
202411210753 METAR KPAE 210753Z AUTO 00000KT 10SM OVC046 08/02 A2985 RMK AO2 SLP108 T00780017 401110061=
202411210653 METAR KPAE 210653Z AUTO 10SM SCT055 08/01 A2983 RMK AO2 SLP103 T00830006=
202411210553 METAR KPAE 210553Z AUTO 12003KT 10SM BKN060 09/01 A2982 RMK AO2 SLP099 T00890006 10111 20078 53016=
202411210453 METAR KPAE 210453Z 00000KT 10SM CLR 08/01 A2981 RMK AO2 SLP096 T00780006=
202411210353 METAR KPAE 210353Z 12005KT 10SM BKN060 08/01 A2978 RMK AO2 SLP087 T00830011=
202411210253 METAR KPAE 210253Z 11004KT 10SM OVC065 09/01 A2977 RMK AO2 SLP083 T00890006 53004=
202411210153 METAR KPAE 210153Z 15009KT 10SM SCT080 10/01 A2976 RMK AO2 SLP079 T01000011=
202411210053 METAR KPAE 210053Z VRB04KT 10SM OVC060 11/01 A2976 RMK AO2 SLP079 T01060011=
202411202353 METAR KPAE 202353Z 15010KT 10SM SCT060 SCT120 11/01 A2976 RMK AO2 SLP079 60000 T01110011 10111 20089 50003=
202411202253 METAR KPAE 202253Z 16006KT 10SM FEW055 BKN080 OVC100 11/04 A2976 RMK AO2 RAB01E10 SLP079 P0000 T01060039=
202411202153 METAR KPAE 202153Z VRB03KT 10SM SCT055 OVC070 11/04 A2975 RMK AO2 RAB05E25 SLP077 P0000 T01060039=
202411202053 METAR KPAE 202053Z VRB04KT 10SM FEW055 BKN070 OVC085 10/03 A2975 RMK AO2 SLP076 T01000028 51010=
202411201953 METAR KPAE 201953Z 11009KT 10SM FEW060 BKN110 09/02 A2975 RMK AO2 SLP074 T00940022=
202411201853 METAR KPAE 201853Z 11010G15KT 10SM SCT065 BKN090 10/03 A2975 RMK AO2 SLP076 T01000033=
202411201753 METAR KPAE 201753Z 14011G17KT 10SM SCT080 BKN100 09/02 A2972 RMK AO2 RAB24E34 SLP066 P0000 60000 T00890022 10089 20061 51027=
202411201653 METAR KPAE 201653Z VRB04G16KT 10SM BKN070 BKN090 07/03 A2970 RMK AO2 SLP061 T00720028=
202411201553 METAR KPAE 201553Z 14007G18KT 090V180 10SM CLR 07/02 A2967 RMK AO2 SLPNO T00720022=
202411201453 METAR KPAE 201453Z 14010G20KT 10SM CLR 07/03 A2964 RMK AO2 PK WND 16031/1356 SLP037 60000 T00720028 53016=
202411201353 METAR KPAE 201353Z AUTO 15018G27KT 10SM CLR 07/03 A2962 RMK AO2 PK WND 14027/1342 RAE1259 SLP031 P0000 T00720028 $=
202411201253 METAR KPAE 201253Z AUTO 11009G18KT 7SM -RA BKN034 OVC090 07/04 A2961 RMK AO2 RAE13B42 SLP028 P0000 T00670039 $=
202411201153 METAR KPAE 201153Z AUTO 13008G22KT 090V160 10SM -RA BKN039 BKN055 OVC085 07/03 A2959 RMK AO2 PK WND 15031/1120 SLP022 P0004 6//// 7//// T00670033 10094 20067 51031 $=
202411201053 METAR KPAE 201053Z AUTO 14010G18KT 9SM -RA OVC031 07/03 A2958 RMK AO2 SLP018 T00720033 PNO $=
202411201033 SPECI KPAE 201033Z AUTO 15013G21KT 7SM -RA OVC029 08/03 A2958 RMK AO2 T00780028 PNO $=
202411200953 METAR KPAE 200953Z AUTO 17011KT 10SM -RA OVC036 08/02 A2956 RMK AO2 PRESRR SLP011 T00830017 PNO $=
202411200853 METAR KPAE 200853Z AUTO VRB03KT 10SM -RA OVC050 09/00 A2950 RMK AO2 RAB49 SLP990 6//// T00940000 53024 PNO $=
202411200753 METAR KPAE 200753Z AUTO 10012G23KT 10SM OVC060 08/00 A2944 RMK AO2 PK WND 12032/0700 SLP970 T00830000 400940028 PNO $=
202411200653 METAR KPAE 200653Z AUTO 10018G32KT 10SM OVC065 08/01 A2942 RMK AO2 PK WND 11033/0555 RAE00B21E35 SLP963 T00780006 PNO $=
202411200553 METAR KPAE 200553Z AUTO 10015G27KT 10SM -RA OVC049 07/02 A2943 RMK AO2 PK WND 10031/0505 RAE22B39 SLP966 6//// T00670017 10094 20061 58031 PNO $=
202411200500 SPECI KPAE 200500Z AUTO 10016G27KT 10SM -RA OVC034 07/02 A2946 RMK AO2 T00670022 PNO $=
202411200453 METAR KPAE 200453Z 10015G31KT 10SM -RA OVC009 07/02 A2946 RMK AO2 PK WND 10035/0413 RAB17 SLP979 T00670022 PNO $=
202411200356 SPECI KPAE 200356Z 10022G42KT 5SM HZ OVC009 07/01 A2949 RMK AO2 T00720011 PNO $=
202411200353 METAR KPAE 200353Z 5SM HZ OVC009 A2949 RMK AO2 PK WND 15035/0302 RAEMM SLPNO PNO $=
202411200328 SPECI KPAE 200328Z 5SM HZ OVC009 A2949 RMK AO2 PK WND 15035/0302 RAEMM P0002 $=
202411200300 SPECI KPAE 200300Z 12015G33KT 7SM -RA BKN016 OVC029 08/01 A2952 RMK AO2 PK WND 13032/0259 P0001 T00830006=
202411200253 METAR KPAE 200253Z 13015G37KT 090V160 8SM -RA BKN014 OVC060 09/00 A2952 RMK AO2 PK WND 12037/0249 RAB36 SLP998 P0000 60000 T00890000 56046=
202411200234 SPECI KPAE 200234Z 12008G19KT 090V170 10SM BKN014 OVC060 09/M02 A2954 RMK AO2 T00941022=
202411200232 SPECI KPAE 200232Z 12009G19KT 10SM BKN014 OVC060 09/M02 A2954 RMK AO2 T00891017=
202411200153 METAR KPAE 200153Z 11009G18KT 090V160 10SM OVC060 08/M02 A2956 RMK AO2 PRESFR SLP011 T00831022=
202411200053 METAR KPAE 200053Z 11011G17KT 10SM OVC060 08/M02 A2960 RMK AO2 SLP027 T00831017=
202411192353 METAR KPAE 192353Z 11010KT 10SM OVC075 08/M01 A2966 RMK AO2 SLP046 T00781011 10078 20056 56049=
202411192253 METAR KPAE 192253Z 12009KT 10SM OVC095 08/M01 A2970 RMK AO2 SLP060 T00781006=
202411192153 METAR KPAE 192153Z 10011KT 10SM SCT120 07/00 A2974 RMK AO2 SLP074 T00720000=
202411192053 METAR KPAE 192053Z 11007KT 10SM SCT110 07/02 A2981 RMK AO2 SLP096 T00670017 58030=
202411191953 METAR KPAE 191953Z 14006KT 10SM CLR 06/01 A2985 RMK AO2 SLP111 T00610011=
202411191853 METAR KPAE 191853Z VRB03KT 10SM CLR 06/01 A2988 RMK AO2 SLP120 T00560011=
202411191753 METAR KPAE 191753Z VRB06KT 10SM CLR 06/02 A2989 RMK AO2 SLP127 60000 T00560017 10056 20028 58003=
202411191653 METAR KPAE 191653Z VRB03KT 10SM CLR 04/01 A2992 RMK AO2 SLP136 T00440011=
202411191553 METAR KPAE 191553Z 15007KT 10SM OVC044 04/02 A2992 RMK AO2 SLP137 T00390017=
202411191453 METAR KPAE 191453Z 11007KT 10SM SCT055 OVC075 04/02 A2990 RMK AO2 SLP130 60000 T00390017 58004=
202411191353 METAR KPAE 191353Z AUTO 14004KT 10SM OVC055 03/02 A2991 RMK AO2 RAE31 SLP132 P0000 T00330017=
202411191253 METAR KPAE 191253Z AUTO 15010KT 9SM -RA FEW004 SCT015 OVC035 03/02 A2992 RMK AO2 UPE11RAB06E07B11 SLP134 P0000 T00330017=
202411191208 SPECI KPAE 191208Z AUTO 14008KT 9SM UP SCT005 SCT010 OVC038 03/01 A2991 RMK AO2 RAB06E07 P0000 T00280011=
202411191153 METAR KPAE 191153Z AUTO 15009KT 10SM UP SCT006 BKN020 OVC032 03/01 A2992 RMK AO2 RAB10E53UPB53 SLP134 P0000 60001 70002 T00280011 10039 20028 52002=
202411191053 METAR KPAE 191053Z AUTO 15014KT 6SM BR OVC006 03/02 A2992 RMK AO2 SLP134 T00330017=
202411190953 METAR KPAE 190953Z AUTO 15010KT 8SM OVC005 04/02 A2991 RMK AO2 RAE41 CIG 003V009 SLP132 P0000 T00390022=
202411190900 SPECI KPAE 190900Z AUTO 16011G19KT 8SM -RA BKN007 OVC022 04/02 A2991 RMK AO2 P0000 T00390017=
202411190853 METAR KPAE 190853Z AUTO 16011G19KT 8SM -RA SCT006 BKN016 OVC022 04/02 A2991 RMK AO2 SLP133 P0001 60001 T00390017 56003=
202411190843 SPECI KPAE 190843Z AUTO 16013G20KT 6SM -RA BR FEW006 BKN016 OVC022 04/02 A2991 RMK AO2 P0001 T00390017=
202411190802 SPECI KPAE 190802Z AUTO 15010KT 10SM -RA FEW018 BKN029 OVC042 04/02 A2992 RMK AO2 P0000 T00390017=
202411190753 METAR KPAE 190753Z AUTO 15010KT 9SM -RA FEW007 BKN031 OVC043 03/02 A2991 RMK AO2 RAE25B44 SLP133 P0000 T00330017 400720033=
202411190745 SPECI KPAE 190745Z AUTO 14011KT 10SM -RA FEW007 BKN033 OVC043 03/02 A2991 RMK AO2 RAE25B44 P0000 T00330017=
202411190732 SPECI KPAE 190732Z AUTO 15012G18KT 10SM FEW008 BKN022 OVC027 04/02 A2991 RMK AO2 RAE25 P0000 T00390017=
202411190719 SPECI KPAE 190719Z AUTO 15010KT 10SM -RA BKN022 OVC029 04/02 A2992 RMK AO2 P0000 T00390017=
202411190653 METAR KPAE 190653Z AUTO 15012G20KT 10SM -RA BKN039 BKN046 OVC055 04/01 A2991 RMK AO2 SLP133 P0000 T00390011=
202411190620 SPECI KPAE 190620Z AUTO VRB05KT 10SM -RA FEW007 BKN036 OVC045 04/02 A2992 RMK AO2 P0000 T00390017=
202411190553 METAR KPAE 190553Z AUTO VRB06KT 10SM -RA SCT007 OVC023 04/02 A2992 RMK AO2 SLP136 P0001 60001 T00390017 10061 20039 58004=
202411190538 SPECI KPAE 190538Z AUTO VRB05KT 9SM -RA SCT008 BKN023 OVC034 04/02 A2993 RMK AO2 P0001 T00390017=
202411190506 SPECI KPAE 190506Z AUTO 15008G19KT 7SM -RA SCT011 OVC029 04/02 A2993 RMK AO2 P0000 T00440017=
202411190453 METAR KPAE 190453Z 17011G22KT 10SM -RA SCT026 BKN060 OVC100 04/02 A2993 RMK AO2 RAB27 SLP139 P0000 T00440017=
202411190353 METAR KPAE 190353Z 14008KT 10SM FEW021 SCT039 OVC110 05/03 A2993 RMK AO2 SLP138 T00500028=
202411190253 METAR KPAE 190253Z 15010KT 10SM SCT016 BKN031 BKN120 06/02 A2993 RMK AO2 SLP140 T00560017 53001=
202411190153 METAR KPAE 190153Z 18012KT 10SM FEW025 BKN110 06/01 A2993 RMK AO2 SLP139 T00560011=
202411190100 SPECI KPAE 190100Z 16010KT 10SM FEW022 06/02 A2993 RMK AO2 T00610017=
202411190053 METAR KPAE 190053Z 17008KT 10SM BKN015 06/02 A2993 RMK AO2 SLP137 T00610017=
202411182353 METAR KPAE 182353Z 16007KT 10SM BKN015 06/02 A2993 RMK AO2 SLP138 T00610017 10072 20056 51004=
202411182322 SPECI KPAE 182322Z 16009KT 10SM BKN015 07/02 A2993 RMK AO2 T00670017=
202411182315 SPECI KPAE 182315Z 16008KT 10SM SCT019 07/02 A2993 RMK AO2 T00670017=
202411182253 METAR KPAE 182253Z 18010KT 10SM BKN015 BKN019 OVC048 07/02 A2993 RMK AO2 SLP137 T00670017=
202411182153 METAR KPAE 182153Z 17008KT 10SM BKN015 BKN050 07/03 A2992 RMK AO2 SLP136 T00670028=
202411182114 SPECI KPAE 182114Z 16009KT 10SM BKN015 BKN050 07/03 A2992 RMK AO2 T00670028=
202411182053 METAR KPAE 182053Z 19011KT 10SM SCT014 BKN037 OVC049 07/03 A2992 RMK AO2 SLP133 T00720028 53004=
202411181953 METAR KPAE 181953Z 17009KT 10SM OVC100 06/03 A2991 RMK AO2 SLP131 T00610028=
202411181853 METAR KPAE 181853Z 17009KT 10SM FEW008 BKN034 06/03 A2991 RMK AO2 SLP129 T00610033=
202411181851 SPECI KPAE 181851Z 16009KT 10SM FEW008 SCT034 06/03 A2991 RMK AO2=
202411181753 METAR KPAE 181753Z 17008KT 10SM SCT036 06/03 A2989 RMK AO2 SLP126 60000 T00610033 10061 20050 53025=
202411181653 METAR KPAE 181653Z 15005KT 10SM BKN032 06/03 A2987 RMK AO2 SLP116 T00560033=
202411181600 SPECI KPAE 181600Z 17007KT 10SM FEW005 05/03 A2985 RMK AO2 T00500033=
202411181553 METAR KPAE 181553Z 15007KT 10SM BKN004 BKN032 06/03 A2984 RMK AO2 SLP108 T00560033=
202411181453 METAR KPAE 181453Z 19005KT 10SM BKN004 BKN032 05/03 A2982 RMK AO2 SLP101 60000 T00500033 53022=
202411181433 SPECI KPAE 181433Z 18006KT 10SM FEW004 FEW032 05/03 A2981 RMK AO2 T00500033=
202411181353 METAR KPAE 181353Z 15007KT 10SM BKN055 05/03 A2979 RMK AO2 SLP091 T00500028=
202411181053 METAR KPAE 181053Z 19010KT 10SM -RA OVC010 06/03 A2974 RMK AO2 RAB48 SLP072 P0000 T00560033=
202411180953 METAR KPAE 180953Z 19011KT 10SM OVC013 06/03 A2972 RMK AO2 SLP068 T00560033=
202411180938 SPECI KPAE 180938Z 18013KT 10SM BKN014 OVC020 06/03 A2972 RMK AO2 T00610033=
202411180910 SPECI KPAE 180910Z 17012KT 10SM BKN016 OVC022 06/03 A2972 RMK AO2 T00560033=
202411180853 METAR KPAE 180853Z 17010KT 10SM BKN013 OVC085 06/03 A2972 RMK AO2 SLP067 T00560028 52011=
202411180753 METAR KPAE 180753Z 19012KT 10SM OVC015 06/03 A2971 RMK AO2 SLP064 T00560028 401000050=
202411180653 METAR KPAE 180653Z 19011KT 10SM OVC018 06/03 A2969 RMK AO2 SLP058 T00560028=
202411180553 METAR KPAE 180553Z 18008KT 10SM OVC017 06/03 A2969 RMK AO2 SLP055 60018 T00560028 10061 20056 51016=
202411180538 SPECI KPAE 180538Z 19007KT 10SM SCT010 OVC017 06/03 A2968 RMK AO2 T00610033=
202411180500 SPECI KPAE 180500Z 10005KT 10SM OVC007 06/04 A2968 RMK AO2 CIG 005V012 T00610039=
202411180453 METAR KPAE 180453Z 11005KT 5SM BR BKN003 OVC026 06/04 A2967 RMK AO2 RAB02E51 SLP050 P0002 T00610039=
202411180403 SPECI KPAE 180403Z VRB03KT 5SM -RA BR BKN003 OVC026 06/04 A2966 RMK AO2 RAB02 P0000 T00610039=
202411180353 METAR KPAE 180353Z 14005KT 9SM OVC026 06/04 A2966 RMK AO2 RAE18 SLP046 P0000 T00610039=
202411180320 SPECI KPAE 180320Z 14005KT 10SM BKN028 OVC034 06/04 A2965 RMK AO2 RAE18 P0000 T00610039=
202411180300 SPECI KPAE 180300Z 15003KT 10SM -RA OVC038 06/03 A2964 RMK AO2 P0000 T00610033=
202411180253 METAR KPAE 180253Z 15003KT 10SM -RA OVC029 06/03 A2964 RMK AO2 SLP039 P0003 60016 T00610033 53017=
202411180153 METAR KPAE 180153Z 00000KT 4SM RA OVC025 06/03 A2962 RMK AO2 SLP033 P0006 T00610033=
202411180132 SPECI KPAE 180132Z 00000KT 5SM -RA OVC026 06/03 A2961 RMK AO2 P0004 T00610033=
202411180108 SPECI KPAE 180108Z 18004KT 1 1/2SM -RA BKN016 OVC026 06/03 A2961 RMK AO2 P0001 T00610033=
202411180100 SPECI KPAE 180100Z 16004KT 9SM -RA FEW016 OVC026 06/03 A2961 RMK AO2 P0001 T00560033=
202411180053 METAR KPAE 180053Z 15006KT 1 1/2SM -RA BR BKN010 OVC021 06/03 A2960 RMK AO2 SLP026 P0007 T00560033=
202411172353 METAR KPAE 172353Z 18004KT 1 1/2SM -RA BR BKN010 OVC031 06/03 A2959 RMK AO2 SLP021 P0007 60040 T00560033 10094 20056 51015=
202411172327 SPECI KPAE 172327Z 00000KT 1 1/2SM RA BR BKN010 OVC031 06/04 A2958 RMK AO2 P0002 T00560039=
202411172308 SPECI KPAE 172308Z 02004KT 7SM -RA BKN010 OVC031 06/04 A2957 RMK AO2 P0000 T00610044=
202411172300 SPECI KPAE 172300Z 8SM -RA FEW010 OVC031 06/04 A2957 RMK AO2 P0000 T00610044=
202411172253 METAR KPAE 172253Z 01005KT 5SM -RA BR BKN005 BKN010 OVC021 06/04 A2957 RMK AO2 SLP015 P0007 T00610039=
202411172202 SPECI KPAE 172202Z VRB04KT 5SM RA BR BKN005 BKN010 OVC021 06/04 A2957 RMK AO2 P0002 T00610039=
202411172155 SPECI KPAE 172155Z 32007KT 5SM RA BR SCT005 BKN010 OVC021 06/04 A2957 RMK AO2 P0000 T00610044=
202411172153 METAR KPAE 172153Z 33004KT 1 3/4SM RA BR SCT002 OVC008 06/04 A2956 RMK AO2 SLP013 P0013 T00610044=
202411172134 SPECI KPAE 172134Z 32009G17KT 1 3/4SM R16R/6000VP6000FT +RA BR OVC002 07/05 A2956 RMK AO2 P0007 T00670050=
202411172053 METAR KPAE 172053Z 00000KT 5SM -RA BR OVC005 08/06 A2954 RMK AO2 SLP005 P0011 60013 T00780061 58014=
202411171953 METAR KPAE 171953Z 01007KT 5SM RA BR BKN005 OVC010 07/06 A2955 RMK AO2 RAB11 CIG 003V008 SLP009 P0002 T00720056=
202411171853 METAR KPAE 171853Z 21009KT 10SM OVC007 09/06 A2958 RMK AO2 SLP017 T00940061=
202411171753 METAR KPAE 171753Z 20014G22KT 10SM OVC009 09/06 A2958 RMK AO2 SLP019 60007 T00940061 10100 20089 55002=
202411171702 SPECI KPAE 171702Z 21012KT 10SM OVC008 09/07 A2958 RMK AO2 T00940067=
202411171653 METAR KPAE 171653Z 21009KT 10SM OVC014 09/07 A2958 RMK AO2 SLP018 T00940067=
202411171618 SPECI KPAE 171618Z 18014G19KT 10SM OVC008 09/07 A2958 RMK AO2 T00940067=
202411171553 METAR KPAE 171553Z 17006KT 10SM BKN012 OVC018 09/07 A2958 RMK AO2 SLP018 T00940072=
202411171453 METAR KPAE 171453Z 16005KT 10SM BKN012 OVC018 09/07 A2959 RMK AO2 SLP022 60007 T00940067 58005=
202411171400 SPECI KPAE 171400Z AUTO 10007G17KT 10SM FEW006 OVC010 09/07 A2960 RMK AO2 T00940072=
202411171353 METAR KPAE 171353Z AUTO 14009KT 100V160 10SM BKN010 OVC016 09/07 A2960 RMK AO2 RAE45 CIG 005V012 SLP025 P0005 T00890072=
202411171338 SPECI KPAE 171338Z AUTO 05007KT 020V110 10SM -RA OVC014 09/07 A2960 RMK AO2 P0005 T00890072=
202411171328 SPECI KPAE 171328Z AUTO 11006KT 3SM -RA BR FEW006 FEW010 OVC016 09/07 A2960 RMK AO2 P0005 T00890072=
202411171314 SPECI KPAE 171314Z AUTO 11006KT 1 1/2SM RA BR FEW006 BKN016 OVC021 09/07 A2961 RMK AO2 P0003 T00890072=
202411171253 METAR KPAE 171253Z AUTO 06008KT 2 1/2SM -RA BR FEW004 OVC019 09/07 A2960 RMK AO2 RAB04 SLP026 P0002 T00890072=
202411171248 SPECI KPAE 171248Z AUTO 12005KT 3SM -RA BR FEW004 OVC019 09/07 A2959 RMK AO2 RAB04 P0002=
202411171234 SPECI KPAE 171234Z AUTO 10004KT 2SM -RA BR BKN019 OVC025 09/07 A2960 RMK AO2 RAB04 P0002 T00890072=
202411171217 SPECI KPAE 171217Z AUTO 00000KT 1 3/4SM R16R/5500VP6000FT -RA BR BKN018 OVC025 09/07 A2961 RMK AO2 RAB04 P0001 T00890072=
202411171153 METAR KPAE 171153Z AUTO 15004KT 10SM FEW003 BKN018 OVC036 09/07 A2961 RMK AO2 RAE28 SLP028 P0000 60000 70007 T00890072 10094 20078 51014=
202411171140 SPECI KPAE 171140Z AUTO 00000KT 10SM FEW002 BKN018 OVC038 09/07 A2961 RMK AO2 RAE28 P0000 T00890072=
202411171053 METAR KPAE 171053Z AUTO 25008G18KT 4SM -RA BR OVC003 09/08 A2959 RMK AO2 PK WND 20030/1006 RAB47 SLP024 P0000 T00940078=
202411171024 SPECI KPAE 171024Z AUTO 22013G24KT 10SM OVC004 09/08 A2959 RMK AO2 PK WND 20030/1006 T00940078=
202411170953 METAR KPAE 170953Z AUTO 20014G25KT 10SM OVC006 09/08 A2958 RMK AO2 PK WND 20030/0902 SLP018 T00940078=
202411170853 METAR KPAE 170853Z AUTO 18014G24KT 10SM OVC006 09/07 A2956 RMK AO2 PK WND 17026/0828 PRESFR SLP014 T00940072 58023=
202411170753 METAR KPAE 170753Z AUTO 18015G20KT 10SM OVC007 09/07 A2960 RMK AO2 SLP027 T00890072 400890039=
202411170653 METAR KPAE 170653Z AUTO 17013G18KT 10SM OVC006 08/07 A2962 RMK AO2 CIG 005V010 SLP032 T00830067=
202411170553 METAR KPAE 170553Z AUTO 14009G19KT 100V170 10SM OVC008 08/06 A2963 RMK AO2 PK WND 16026/0458 CIG 005V010 SLP037 60000 T00780056 10078 20056 57017=
202411170453 METAR KPAE 170453Z 16016G30KT 10SM BKN006 OVC011 08/06 A2965 RMK AO2 PK WND 16034/0427 CIG 004V009 SLP042 T00780056=
202411170353 METAR KPAE 170353Z 16017G26KT 6SM BR OVC005 07/06 A2967 RMK AO2 PK WND 16033/0254 CIG 004V008 SLP050 T00720056=
202411170253 METAR KPAE 170253Z 17017G33KT 8SM OVC005 07/05 A2969 RMK AO2 PK WND 16033/0246 CIG 003V007 SLP055 60000 T00670050 56040=
202411170208 SPECI KPAE 170208Z 16015G24KT 3SM BR OVC003 06/04 A2969 RMK AO2 T00610044=
202411170153 METAR KPAE 170153Z 16015G26KT 2 1/2SM BR OVC006 06/04 A2971 RMK AO2 PK WND 15026/0144 RAE43 SLP063 P0000 T00610044=
202411170053 METAR KPAE 170053Z 16013KT 2 1/2SM -RA BR OVC006 06/04 A2976 RMK AO2 RAE2354B22 SLP079 P0000 T00610044=
202411162353 METAR KPAE 162353Z 15013KT 2 1/2SM -RA BR OVC006 06/04 A2981 RMK AO2 RAB2257E20B42 SLP097 P0000 60007 T00560039 10067 20050 58041=
202411162343 SPECI KPAE 162343Z 14014G21KT 4SM -RA BR OVC006 06/03 A2981 RMK AO2 RAB2257E20B42 P0000 T00560033=
202411162253 METAR KPAE 162253Z 14011G19KT 10SM BKN026 OVC033 06/03 A2985 RMK AO2 RAE15 SLP111 P0000 T00560028=
202411162230 SPECI KPAE 162230Z 14012G21KT 6SM BR FEW009 OVC020 05/03 A2986 RMK AO2 RAE15 P0000 T00500028=
202411162210 SPECI KPAE 162210Z COR 14012G21KT 6SM BR FEW009 OVC020 05/03 A2986 RMK AO2 RAE15 P0000 T00500028=
202411162200 SPECI KPAE 162200Z 15015G26KT 2 1/2SM -RA FEW009 BKN035 OVC055 06/03 A2989 RMK AO2 P0000 T00560028=
202411162153 METAR KPAE 162153Z 15016G26KT 2 1/2SM RA OVC020 06/03 A2989 RMK AO2 PK WND 17029/2135 SLP126 P0006 T00560028=
202411162053 METAR KPAE 162053Z 16012G21KT 7SM -RA OVC020 06/03 A2993 RMK AO2 SLP139 P0001 60001 T00610028 56029=
202411162003 SPECI KPAE 162003Z 16014KT 8SM -RA OVC020 07/02 A2995 RMK AO2 P0000 T00670017=
202411161953 METAR KPAE 161953Z 17012G24KT 10SM -RA BKN033 OVC041 07/02 A2996 RMK AO2 RAB04 SLP149 P0000 T00670017=
202411161853 METAR KPAE 161853Z 15013KT 10SM OVC070 06/01 A2998 RMK AO2 RAB1759E24 SLP157 P0000 T00610011=
202411161753 METAR KPAE 161753Z 15012G18KT 10SM OVC040 06/00 A3002 RMK AO2 RAE1659 SLP168 P0000 60000 T00610000 10061 20039 56014 $=
202411161653 METAR KPAE 161653Z VRB04KT 10SM -RA BKN034 OVC045 05/01 A3003 RMK AO2 RAB35 SLP172 P0000 T00500011 $=
202411161614 SPECI KPAE 161614Z VRB05KT 10SM OVC030 05/01 A3004 RMK AO2 T00500011 $=
202411161553 METAR KPAE 161553Z VRB05KT 10SM OVC028 04/01 A3004 RMK AO2 SLP177 T00440011 $=
202411161453 METAR KPAE 161453Z 15007KT 10SM OVC027 04/01 A3006 RMK AO2 SLP182 T00390011 56011 $=
202411161425 SPECI KPAE 161425Z AUTO 15007KT 10SM BKN029 OVC036 04/01 A3006 RMK AO2 T00390011 $=
202411161353 METAR KPAE 161353Z AUTO VRB05KT 10SM CLR 04/02 A3007 RMK AO2 SLP185 T00390017 $=
202411161253 METAR KPAE 161253Z AUTO VRB05KT 10SM SCT004 04/02 A3008 RMK AO2 SLP189 T00390017 $=
202411161205 SPECI KPAE 161205Z AUTO 16004KT 10SM BKN004 OVC044 04/02 A3009 RMK AO2 CIG 003V007 T00390022 $=
202411161153 METAR KPAE 161153Z AUTO 17005KT 10SM SCT006 BKN044 04/02 A3009 RMK AO2 SLP193 T00390022 10044 20039 58009 $=
202411161053 METAR KPAE 161053Z AUTO 16005KT 10SM OVC044 04/02 A3011 RMK AO2 SLP198 T00390017 $=
202411160953 METAR KPAE 160953Z AUTO 15006KT 10SM SCT047 04/02 A3011 RMK AO2 SLP200 T00390017 $=
202411160853 METAR KPAE 160853Z AUTO 15005KT 10SM SCT029 04/02 A3012 RMK AO2 SLP202 T00440022 58004 $=
202411160845 SPECI KPAE 160845Z AUTO 14004KT 10SM BKN029 04/02 A3012 RMK AO2 T00440022 $=
202411160810 SPECI KPAE 160810Z AUTO 14004KT 10SM SCT023 04/02 A3012 RMK AO2 T00440022 $=
202411160753 METAR KPAE 160753Z AUTO 15005KT 10SM BKN023 04/03 A3013 RMK AO2 SLP205 T00440028 400940039 $=
202411160741 SPECI KPAE 160741Z AUTO 15003KT 10SM BKN025 04/03 A3013 RMK AO2 T00440028 $=
202411160653 METAR KPAE 160653Z AUTO 15004KT 10SM CLR 04/03 A3014 RMK AO2 SLP207 T00440028 $=
202411160553 METAR KPAE 160553Z AUTO 18003KT 10SM CLR 05/03 A3013 RMK AO2 SLP207 T00500028 10083 20044 50003=
202411160453 METAR KPAE 160453Z VRB03KT 10SM CLR 06/03 A3013 RMK AO2 SLP207 T00560028=
202411160353 METAR KPAE 160353Z 00000KT 10SM CLR 06/03 A3013 RMK AO2 SLP206 T00560028=
202411160253 METAR KPAE 160253Z 00000KT 10SM CLR 06/03 A3012 RMK AO2 SLP203 T00610028 52004=
202411160153 METAR KPAE 160153Z AUTO 00000KT 10SM OVC023 06/03 A3013 RMK AO2 SLP204 T00610028=
202411160131 SPECI KPAE 160131Z AUTO 00000KT 10SM BKN022 06/03 A3012 RMK AO2 T00610028=
202411160053 METAR KPAE 160053Z AUTO 00000KT 10SM CLR 06/03 A3011 RMK AO2 SLP199 T00610028=
202411152353 METAR KPAE 152353Z AUTO 35004KT 10SM CLR 08/02 A3011 RMK AO2 SLP200 T00830022 10094 20072 53009=
202411152253 METAR KPAE 152253Z 35005KT 10SM CLR 09/02 A3010 RMK AO2 SLP195 T00890017=
202411152153 METAR KPAE 152153Z 26004KT 10SM SCT025 08/03 A3009 RMK AO2 SLP192 T00780028=
202411152053 METAR KPAE 152053Z 23004KT 10SM CLR 08/04 A3008 RMK AO2 SLP190 T00780039 58001=
202411151953 METAR KPAE 151953Z VRB04KT 10SM SCT020 09/03 A3008 RMK AO2 SLP190 T00890033=
202411151853 METAR KPAE 151853Z 33006KT 10SM CLR 08/04 A3009 RMK AO2 SLP192 T00830039=
202411151753 METAR KPAE 151753Z 00000KT 10SM SCT055 08/04 A3009 RMK AO2 SLP191 T00830044 10083 20056 51009=
202411151700 SPECI KPAE 151700Z 00000KT 10SM BKN055 07/04 A3009 RMK AO2 T00720039=
202411151653 METAR KPAE 151653Z 00000KT 10SM SCT008 BKN011 07/04 A3008 RMK AO2 SLP190 T00720039=
202411151608 SPECI KPAE 151608Z 00000KT 10SM SCT008 BKN011 07/04 A3008 RMK AO2 T00670039=
202411151553 METAR KPAE 151553Z 29004KT 10SM BKN011 BKN031 06/03 A3008 RMK AO2 SLP187 T00610033=
202411151453 METAR KPAE 151453Z 00000KT 10SM OVC013 07/03 A3006 RMK AO2 SLP182 T00670028 53007=
202411151431 SPECI KPAE 151431Z AUTO 00000KT 10SM BKN013 OVC022 06/03 A3005 RMK AO2 T00610028=
202411151414 SPECI KPAE 151414Z AUTO 00000KT 10SM FEW013 BKN022 BKN029 06/03 A3005 RMK AO2 T00610028=
202411151353 METAR KPAE 151353Z AUTO 30003KT 10SM FEW025 SCT080 06/02 A3005 RMK AO2 SLP178 T00560022=
202411151253 METAR KPAE 151253Z AUTO 30004KT 10SM OVC080 06/03 A3005 RMK AO2 SLP177 T00610028=
202411151233 SPECI KPAE 151233Z AUTO 31004KT 10SM SCT015 OVC080 07/03 A3004 RMK AO2 T00670033=
202411151153 METAR KPAE 151153Z AUTO 29004KT 10SM SCT013 BKN019 OVC075 07/04 A3004 RMK AO2 SLP175 60000 70068 T00670039 10072 20061 50002=
202411151143 SPECI KPAE 151143Z AUTO 29003KT 10SM BKN013 BKN027 OVC070 07/04 A3004 RMK AO2 T00720039=
202411151053 METAR KPAE 151053Z AUTO 00000KT 10SM SCT031 SCT075 07/04 A3004 RMK AO2 SLP175 T00670039=
202411151031 SPECI KPAE 151031Z AUTO 00000KT 10SM FEW014 BKN075 07/04 A3004 RMK AO2 T00670039=
202411150953 METAR KPAE 150953Z AUTO 00000KT 10SM OVC017 07/04 A3004 RMK AO2 SLP175 T00720039=
202411150929 SPECI KPAE 150929Z AUTO 29003KT 10SM BKN017 OVC060 07/04 A3004 RMK AO2 T00720039=
202411150853 METAR KPAE 150853Z AUTO 00000KT 10SM FEW021 FEW050 OVC070 07/04 A3003 RMK AO2 RAB07E16 SLP172 P0000 60000 T00720044 51005=
202411150841 SPECI KPAE 150841Z AUTO 00000KT 10SM SCT023 SCT047 OVC060 07/04 A3003 RMK AO2 RAB07E16 P0000 T00670044=
202411150800 SPECI KPAE 150800Z AUTO 00000KT 10SM BKN021 BKN025 OVC080 07/04 A3003 RMK AO2 T00670044=
202411150753 METAR KPAE 150753Z AUTO 00000KT 10SM SCT021 SCT025 OVC080 07/04 A3003 RMK AO2 RAB31E40 SLP170 P0000 T00670039 401060067=
202411150743 SPECI KPAE 150743Z AUTO 00000KT 10SM BKN019 OVC080 07/03 A3003 RMK AO2 RAB31E40 P0000 T00670033=
202411150653 METAR KPAE 150653Z AUTO 14003KT 10SM SCT065 OVC080 07/04 A3002 RMK AO2 SLP169 T00670039=
202411150553 METAR KPAE 150553Z AUTO 12003KT 10SM OVC055 07/04 A3002 RMK AO2 SLP166 60013 T00670039 10083 20067 53003=
202411150453 METAR KPAE 150453Z 11003KT 10SM FEW055 BKN080 BKN090 07/04 A3001 RMK AO2 RAE0356 SLP164 P0000 T00670039=
202411150353 METAR KPAE 150353Z 02004KT 10SM -RA FEW029 BKN035 OVC046 07/04 A3001 RMK AO2 SLP163 P0003 T00720039=
202411150348 SPECI KPAE 150348Z 01006KT 10SM -RA BKN031 OVC044 07/04 A3001 RMK AO2 P0003=
202411150304 SPECI KPAE 150304Z 00000KT 6SM -RA OVC029 07/04 A3001 RMK AO2 P0001 T00720044=
202411150253 METAR KPAE 150253Z 00000KT 9SM -RA OVC031 07/04 A3001 RMK AO2 SLP164 P0003 60010 T00720044 51014=
202411150200 SPECI KPAE 150200Z 01005KT 9SM -RA OVC035 07/05 A3000 RMK AO2 P0001 T00720050=
202411150153 METAR KPAE 150153Z 02006KT 4SM -RA BR SCT003 BKN009 07/05 A3000 RMK AO2 SLP161 P0000 T00720050=
202411150056 SPECI KPAE 150056Z 01006KT 4SM -RA BR SCT003 BKN009 08/06 A2999 RMK AO2 P0000 T00780061=
202411150053 METAR KPAE 150053Z 01005KT 6SM -RA BR SCT004 BKN018 OVC029 08/06 A2999 RMK AO2 SLP156 P0007 T00780061=
202411150000 SPECI KPAE 150000Z 01005KT 5SM -RA BR BKN007 BKN015 OVC029 08/07 A2997 RMK AO2 P0001 T00830067=
202411142353 METAR KPAE 142353Z 34004KT 2 1/2SM -RA BR FEW007 OVC011 08/07 A2997 RMK AO2 SLP149 P0000 60055 T00830067 10106 20083 51013=
202411142253 METAR KPAE 142253Z 06004KT 2 1/2SM -RA BR FEW007 OVC011 09/07 A2995 RMK AO2 SLP145 P0005 T00890072=
202411142207 SPECI KPAE 142207Z 12005KT 1SM R16R/P6000FT -RA BR OVC012 09/07 A2995 RMK AO2 P0001 T00890067=
202411142200 SPECI KPAE 142200Z 10004KT 1SM R16R/P6000FT -RA BR OVC002 09/07 A2995 RMK AO2 P0001 T00890067=
202411142153 METAR KPAE 142153Z 11004KT 5SM -RA BR SCT002 BKN009 OVC030 09/07 A2995 RMK AO2 SLP143 P0025 T00890067=
202411142053 METAR KPAE 142053Z 35003KT 5SM R16R/6000VP6000FT -RA BR SCT002 BKN009 OVC030 09/07 A2993 RMK AO2 SLP136 P0015 60025 T00890072 53005=
202411142027 SPECI KPAE 142027Z 00000KT 5SM -RA BR SCT002 BKN009 OVC030 09/07 A2993 RMK AO2 P0013 T00940072=
202411141953 METAR KPAE 141953Z 17004KT 1SM R16R/2800V5000FT +RA BR BKN002 OVC030 09/07 A2993 RMK AO2 RAB01 SLP136 P0010 T00940072=
202411141913 SPECI KPAE 141913Z 19006KT 1 1/2SM R16R/3500VP6000FT -RA BR BKN002 OVC030 10/08 A2992 RMK AO2 RAB01 P0001 T01000078=
202411141853 METAR KPAE 141853Z 18003KT 1 1/2SM BR BKN005 OVC030 10/08 A2991 RMK AO2 SLP131 T01000078=
202411141850 SPECI KPAE 141850Z 17004KT 1 1/2SM BR BKN005 OVC030 10/08 A2991 RMK AO2=
202411141753 METAR KPAE 141753Z 22005KT 10SM BKN006 OVC014 10/08 A2990 RMK AO2 SLP126 60000 T01000078 10106 20100 51027=
202411141653 METAR KPAE 141653Z 22004KT 10SM BKN007 OVC019 10/08 A2987 RMK AO2 RAB06E14 SLP118 P0000 T01000078=
202411141553 METAR KPAE 141553Z 20007KT 10SM BKN008 BKN014 OVC030 10/08 A2985 RMK AO2 RAB09E49 SLP109 P0000 T01000078=
202411141510 SPECI KPAE 141510Z 19010KT 7SM -RA BKN008 BKN014 OVC030 10/07 A2982 RMK AO2 RAB09 P0000 T01000072=
202411141453 METAR KPAE 141453Z 18009KT 10SM SCT015 BKN022 OVC030 10/07 A2982 RMK AO2 RAE47 SLP097 P0000 60000 T01000072 51043=
202411141438 SPECI KPAE 141438Z AUTO 20011G17KT 8SM -RA BKN015 OVC022 10/07 A2981 RMK AO2 P0000 T01000072=
202411141353 METAR KPAE 141353Z AUTO 20014KT 10SM -RA OVC014 10/07 A2978 RMK AO2 PK WND 22028/1256 RAB51 SLP085 P0000 T01000072=
202411141253 METAR KPAE 141253Z AUTO 20017G31KT 10SM BKN012 OVC020 10/07 A2975 RMK AO2 PK WND 20033/1219 SLP073 T01000072=
202411141236 SPECI KPAE 141236Z AUTO 20018G30KT 10SM OVC014 10/07 A2973 RMK AO2 PK WND 20033/1219 T01000072=
202411141229 SPECI KPAE 141229Z AUTO 20019G30KT 10SM BKN016 OVC020 10/07 A2972 RMK AO2 PK WND 20033/1219 T01000067=
202411141153 METAR KPAE 141153Z AUTO 20020G32KT 10SM BKN014 OVC018 10/07 A2969 RMK AO2 PK WND 17035/1134 PRESRR SLP053 60000 70012 T01000072 10106 20100 53006=
202411141115 SPECI KPAE 141115Z AUTO 17020G29KT 10SM BKN013 BKN022 BKN050 10/07 A2966 RMK AO2 PK WND 18029/1113 T01000072=
202411141053 METAR KPAE 141053Z AUTO 17019G30KT 10SM BKN020 BKN031 OVC046 10/07 A2966 RMK AO2 PK WND 15030/0956 RAB0955E35 SLP045 P0000 T01000072=
202411140953 METAR KPAE 140953Z AUTO 16015G24KT 10SM FEW032 SCT042 OVC050 11/06 A2967 RMK AO2 RAB0858E43 SLP046 P0000 T01060061=
202411140853 METAR KPAE 140853Z AUTO 15012KT 10SM SCT040 BKN060 OVC070 10/06 A2967 RMK AO2 RAB23E49 SLP048 P0000 60000 T01000061 51010=
202411140753 METAR KPAE 140753Z AUTO 15013G19KT 10SM SCT042 OVC050 10/07 A2967 RMK AO2 SLP047 T01000067 401220094=
202411140653 METAR KPAE 140653Z AUTO 17013G20KT 10SM BKN036 OVC048 10/07 A2965 RMK AO2 RAE15 SLP041 P0000 T01000067=
202411140553 METAR KPAE 140553Z AUTO 17012G24KT 8SM -RA OVC050 10/07 A2964 RMK AO2 SLP038 P0000 60001 T01000072 10122 20100 51015=
202411140453 METAR KPAE 140453Z AUTO 16011KT 10SM -RA SCT042 OVC049 10/07 A2963 RMK AO2 RAB05 SLP034 P0001 T01000072=
202411140353 METAR KPAE 140353Z 16014KT 10SM SCT030 OVC041 10/07 A2961 RMK AO2 RAB0259E09B29E45 SLP028 P0000 T01000072=
202411140253 METAR KPAE 140253Z 16016KT 10SM FEW049 SCT080 BKN120 11/07 A2960 RMK AO2 SLP023 60000 T01060072 51020=
202411140153 METAR KPAE 140153Z 16014G24KT 10SM BKN047 BKN060 11/08 A2958 RMK AO2 SLP018 T01110078=
202411140053 METAR KPAE 140053Z 18014KT 10SM BKN070 11/07 A2956 RMK AO2 PK WND 16034/2355 RAB2359E11 SLP010 P0000 T01110067=
202411132353 METAR KPAE 132353Z 18018G31KT 9SM BKN050 OVC070 12/07 A2954 RMK AO2 PK WND 17031/2344 SLP002 P0001 60004 T01220072 10122 20106 55002=
202411132253 METAR KPAE 132253Z 15010KT 10SM BKN024 12/09 A2953 RMK AO2 RAE41 SLP000 P0000 T01170089=
202411132153 METAR KPAE 132153Z 11006KT 10SM -RA OVC005 12/09 A2952 RMK AO2 RAE21B41 SLP998 P0002 T01170094=
202411132131 SPECI KPAE 132131Z 18009KT 10SM OVC005 11/09 A2953 RMK AO2 RAE21 P0002 T01110094=
202411132100 SPECI KPAE 132100Z 20012G23KT 1 1/2SM RA BR SCT014 BKN019 OVC045 11/09 A2955 RMK AO2 P0001 T01110089=
202411132053 METAR KPAE 132053Z 21016G23KT 9SM -RA FEW010 BKN060 BKN075 12/09 A2955 RMK AO2 RAB20 SLP005 P0000 60001 T01170089 53002=
202411131953 METAR KPAE 131953Z 15013G21KT 10SM FEW049 BKN060 BKN075 12/09 A2954 RMK AO2 RAB17E37 SLP002 P0001 T01170089=
202411131910 SPECI KPAE 131910Z 15012G21KT 10SM BKN004 BKN046 OVC060 11/09 A2954 RMK AO2 T01110089=
202411131853 METAR KPAE 131853Z 15014G20KT 10SM BKN006 11/09 A2954 RMK AO2 SLP003 T01110089=
202411131804 SPECI KPAE 131804Z 15012G19KT 10SM BKN006 11/08 A2954 RMK AO2 T01110083=
202411131753 METAR KPAE 131753Z 13007G20KT 070V170 10SM SCT006 BKN030 11/08 A2954 RMK AO2 RAE17 SLP003 P0000 60007 T01060083 10111 20094 51006=
202411131653 METAR KPAE 131653Z 16014G23KT 10SM -RA FEW050 OVC065 11/08 A2953 RMK AO2 PK WND 14029/1633 SLP999 P0001 T01110083=
202411131553 METAR KPAE 131553Z VRB06G18KT 10SM -RA OVC050 11/08 A2953 RMK AO2 SLP001 P0002 T01060083=
202411131453 METAR KPAE 131453Z 14011G22KT 8SM -RA FEW032 SCT042 OVC050 10/08 A2952 RMK AO2 SLP998 P0001 60004 T01000078 55017=
202411131353 METAR KPAE 131353Z AUTO 11012G21KT 8SM -RA FEW007 BKN032 OVC042 10/08 A2952 RMK AO2 SLP995 P0002 T01000083=
202411131253 METAR KPAE 131253Z AUTO VRB04KT 3SM -RA BR SCT005 BKN013 OVC020 10/08 A2955 RMK AO2 SLP005 P0001 T01000083=
202411131244 SPECI KPAE 131244Z AUTO VRB05KT 2 1/2SM -RA BR FEW005 BKN012 OVC019 10/08 A2955 RMK AO2 P0001 T01000083=
202411131229 SPECI KPAE 131229Z AUTO VRB05KT 4SM -RA BR FEW007 OVC017 10/08 A2955 RMK AO2 P0001 T01000078=
202411131153 METAR KPAE 131153Z AUTO 15004KT 3SM -RA BR SCT017 BKN026 OVC031 10/08 A2957 RMK AO2 SLP015 P0003 60007 70017 T01000078 10100 20094 55016=
202411131053 METAR KPAE 131053Z AUTO VRB06KT 10SM -RA BKN034 BKN050 OVC070 10/07 A2956 RMK AO2 RAB17 SLP011 P0002 T01000072=
202411130953 METAR KPAE 130953Z AUTO VRB06KT 10SM OVC037 10/07 A2959 RMK AO2 RAB07E52 SLP019 P0000 T01000072=
202411130853 METAR KPAE 130853Z AUTO 14010G22KT 10SM OVC036 10/07 A2962 RMK AO2 RAE34 SLP031 P0000 60002 T01000072 56034=
202411130753 METAR KPAE 130753Z AUTO 14007G17KT 080V170 9SM -RA OVC041 10/07 A2965 RMK AO2 PRESFR SLP040 P0001 T01000072 401280089=
202411130653 METAR KPAE 130653Z AUTO VRB04KT 8SM -RA FEW031 BKN041 OVC048 09/07 A2969 RMK AO2 SLP055 P0001 T00940072=
202411130553 METAR KPAE 130553Z AUTO VRB05KT 8SM -RA FEW040 OVC048 10/07 A2972 RMK AO2 SLP065 P0001 60010 T01000072 10111 20094 58030=
202411130453 METAR KPAE 130453Z AUTO 15007G17KT 5SM -RA BR FEW025 OVC036 09/07 A2976 RMK AO2 PRESFR SLP079 P0009 T00940072=
202411130353 METAR KPAE 130353Z 15013G21KT 7SM -RA FEW036 OVC044 10/08 A2980 RMK AO2 SLP091 P0000 T01000078=
202411130253 METAR KPAE 130253Z 15013G19KT 10SM -RA SCT026 BKN040 OVC050 10/08 A2981 RMK AO2 SLP097 P0000 60000 T01000078 58022=
202411130153 METAR KPAE 130153Z 15011G17KT 9SM -RA SCT026 BKN040 OVC050 11/07 A2985 RMK AO2 RAB15 SLP109 P0000 T01060072=
202411130053 METAR KPAE 130053Z 14010G16KT 10SM FEW030 OVC042 11/08 A2986 RMK AO2 RAB21E29 SLP113 P0000 T01060078=
202411130035 SPECI KPAE 130035Z 14008G18KT 110V170 10SM FEW022 SCT030 OVC041 11/08 A2986 RMK AO2 RAB21E29 P0000 T01060083=
202411122353 METAR KPAE 122353Z 14007KT 10SM FEW023 BKN028 OVC039 11/08 A2988 RMK AO2 SLP118 60000 T01110078 10128 20106 56016=
202411122348 SPECI KPAE 122348Z 14008KT 10SM FEW023 BKN028 OVC036 11/08 A2988 RMK AO2=
202411122253 METAR KPAE 122253Z 15012KT 10SM OVC043 11/08 A2991 RMK AO2 PK WND 18026/2155 RAB21E22 SLP130 P0000 T01110078=
202411122153 METAR KPAE 122153Z 18019G25KT 10SM SCT030 12/07 A2993 RMK AO2 PK WND 17029/2131 SLP134 T01170072=
202411122058 SPECI KPAE 122058Z 18018G26KT 10SM FEW019 OVC080 12/07 A2992 RMK AO2 PK WND 18026/2057 T01220072=
202411122053 METAR KPAE 122053Z 18017G25KT 10SM BKN019 BKN022 BKN085 12/07 A2993 RMK AO2 PK WND 21028/1959 SLP134 T01170072 58005=
202411122044 SPECI KPAE 122044Z 18015G23KT 10SM BKN019 BKN022 BKN085 12/07 A2993 RMK AO2 PK WND 21028/1959 T01170072=
202411122037 SPECI KPAE 122037Z 18014G25KT 10SM SCT019 BKN085 12/07 A2993 RMK AO2 PK WND 21028/1959 T01170072=
202411122023 SPECI KPAE 122023Z 18020G27KT 10SM BKN019 BKN090 12/07 A2994 RMK AO2 PK WND 21028/1959 T01170067=
202411122012 SPECI KPAE 122012Z 19020G28KT 10SM SCT019 12/07 A2994 RMK AO2 PK WND 21028/1959 T01220067=
202411122002 SPECI KPAE 122002Z 18020G28KT 10SM BKN019 12/07 A2994 RMK AO2 PK WND 21028/1959 T01170072=
202411121953 METAR KPAE 121953Z 18016G25KT 10SM SCT019 12/07 A2994 RMK AO2 PK WND 19029/1928 SLP139 T01170072=
202411121931 SPECI KPAE 121931Z 18020G29KT 10SM SCT018 12/07 A2995 RMK AO2 PK WND 19029/1928 T01170067=
202411121900 SPECI KPAE 121900Z 19014G26KT 10SM OVC017 12/07 A2996 RMK AO2 PK WND 18026/1854 T01170072=
202411121853 METAR KPAE 121853Z 19015G21KT 10SM BKN012 BKN020 11/07 A2996 RMK AO2 PK WND 18026/1810 SLP146 T01110072=
202411121800 SPECI KPAE 121800Z 18017G23KT 10SM BKN012 BKN020 11/07 A2994 RMK AO2 T01060067=
202411121753 METAR KPAE 121753Z 18016G23KT 10SM OVC009 11/07 A2994 RMK AO2 SLP141 T01060067 10106 20094 50006=
202411121653 METAR KPAE 121653Z 18012G22KT 10SM OVC009 10/07 A2995 RMK AO2 SLP143 T01000067=
202411121553 METAR KPAE 121553Z 19014KT 10SM OVC009 10/07 A2994 RMK AO2 SLP141 T01000067=
202411121535 SPECI KPAE 121535Z 18012KT 10SM OVC014 09/07 A2994 RMK AO2 T00940067=
202411121506 SPECI KPAE 121506Z 19011KT 10SM BKN015 BKN110 09/06 A2993 RMK AO2 T00940061=
202411121453 METAR KPAE 121453Z 18011KT 10SM SCT015 BKN110 09/06 A2992 RMK AO2 SLP134 T00940061 51022=
202411121353 METAR KPAE 121353Z 19014KT 10SM FEW014 09/06 A2990 RMK AO2 SLP127 T00940061=
202411121253 METAR KPAE 121253Z 19014G21KT 10SM BKN013 09/07 A2989 RMK AO2 SLP122 T00940067=
202411121153 METAR KPAE 121153Z 19012G22KT 10SM BKN013 09/07 A2986 RMK AO2 SLP112 60000 70005 T00940067 10100 20089 51029=
202411121126 SPECI KPAE 121126Z 19016KT 10SM SCT013 BKN080 10/07 A2984 RMK AO2 T01000067=
202411121053 METAR KPAE 121053Z 19014G21KT 10SM BKN014 BKN085 10/07 A2983 RMK AO2 PK WND 19027/1002 SLP103 T01000072=
202411120953 METAR KPAE 120953Z 19018G25KT 10SM OVC012 09/07 A2980 RMK AO2 PK WND 16032/0857 SLP091 T00940067=
202411120938 SPECI KPAE 120938Z 19017KT 10SM BKN011 BKN018 OVC023 09/07 A2979 RMK AO2 PK WND 16032/0857 T00940067=
202411120853 METAR KPAE 120853Z 18018G29KT 10SM FEW010 BKN016 OVC026 09/07 A2977 RMK AO2 PK WND 18031/0843 CIG 011V022 SLP081 60000 T00940067 53002=
202411120753 METAR KPAE 120753Z 17018G27KT 10SM SCT013 BKN020 OVC044 09/07 A2976 RMK AO2 PK WND 18027/0747 RAB32E44 SLP080 P0000 T00940067 401170089=
202411120742 SPECI KPAE 120742Z 18016G24KT 10SM -RA SCT015 BKN024 OVC036 09/07 A2977 RMK AO2 PK WND 17027/0711 RAB32 P0000 T00890067=
202411120653 METAR KPAE 120653Z 17017G24KT 10SM FEW013 SCT045 SCT095 09/07 A2976 RMK AO2 PK WND 16027/0629 RAB0556E10B21E32 SLP079 P0000 T00890067=
202411120648 SPECI KPAE 120648Z 17015G24KT 10SM SCT013 SCT033 BKN045 09/07 A2976 RMK AO2 PK WND 16027/0629 RAB0556E10B21E32 P0000=
202411120634 SPECI KPAE 120634Z 16014G27KT 10SM SCT013 BKN026 BKN045 09/07 A2976 RMK AO2 PK WND 16027/0629 RAB0556E10B21E32 P0000 T00890067=
202411120625 SPECI KPAE 120625Z 16018G26KT 10SM -RA BKN011 BKN017 OVC050 09/07 A2976 RMK AO2 PK WND 15026/0624 RAB0556E10B21 P0000 T00890067=
202411120613 SPECI KPAE 120613Z 15015G23KT 10SM FEW009 BKN015 OVC039 09/07 A2975 RMK AO2 RAB0556E10 P0000 T00890067=
202411120553 METAR KPAE 120553Z 16017G27KT 10SM FEW029 BKN035 BKN044 09/07 A2975 RMK AO2 PK WND 16027/0552 SLP076 60001 T00890067 10106 20089 51009=
202411120453 METAR KPAE 120453Z 17015KT 10SM FEW014 BKN110 09/06 A2975 RMK AO2 SLP077 T00890061=
202411120353 METAR KPAE 120353Z 17015G23KT 10SM FEW007 09/07 A2974 RMK AO2 PK WND 16026/0308 RAB0259E18 SLP072 P0001 T00940072=
202411120253 METAR KPAE 120253Z 17014G23KT 10SM FEW009 SCT033 BKN120 09/07 A2973 RMK AO2 PK WND 16026/0231 RAE06 SLP066 P0000 60000 T00940072 50010=
202411120153 METAR KPAE 120153Z 16013KT 7SM -RA SCT006 BKN034 OVC048 10/07 A2973 RMK AO2 RAB14 SLP067 P0000 T01000072=
202411120147 SPECI KPAE 120147Z 16010KT 8SM -RA SCT006 BKN034 OVC048 10/07 A2973 RMK AO2 RAB14 P0000=
202411120053 METAR KPAE 120053Z 17012G21KT 10SM FEW013 SCT019 10/07 A2971 RMK AO2 PK WND 18027/2354 SLP062 T01000067=
202411112353 METAR KPAE 112353Z 17019G25KT 10SM SCT012 BKN095 11/07 A2970 RMK AO2 PK WND 19031/2303 SLP056 T01060067 10117 20106 53011=
202411112253 METAR KPAE 112253Z 18024G34KT 10SM BKN090 OVC110 11/06 A2967 RMK AO2 PK WND 19034/2250 SLP048 T01060061=
202411112153 METAR KPAE 112153Z 19021G26KT 10SM CLR 11/06 A2967 RMK AO2 PK WND 20035/2114 SLP047 T01060061=
202411112053 METAR KPAE 112053Z 19016G24KT 10SM FEW020 11/06 A2966 RMK AO2 PK WND 18028/2021 SLP045 T01110061 51015=
202411111953 METAR KPAE 111953Z 18022G31KT 10SM SCT110 11/07 A2965 RMK AO2 PK WND 19031/1944 SLP040 T01110067=
202411111853 METAR KPAE 111853Z 19013G23KT 10SM FEW016 SCT022 BKN120 12/07 A2965 RMK AO2 PK WND 18038/1802 SLP039 T01170072=
202411111753 METAR KPAE 111753Z 19023G32KT 10SM BKN055 12/07 A2962 RMK AO2 PK WND 19036/1738 PRESRR SLP029 60004 T01170072 10117 20106 53026=
202411111729 SPECI KPAE 111729Z 19018G27KT 10SM BKN055 11/07 A2959 RMK AO2 PK WND 18031/1658 T01110072=
202411111702 SPECI KPAE 111702Z 19020G31KT 10SM BKN006 BKN055 11/08 A2958 RMK AO2 PK WND 18031/1658 T01060078=
202411111653 METAR KPAE 111653Z 18021G30KT 10SM SCT006 BKN055 11/08 A2957 RMK AO2 PK WND 19031/1618 SLP012 T01060078=
202411111650 SPECI KPAE 111650Z 19023G30KT 10SM SCT006 BKN055 11/08 A2957 RMK AO2 PK WND 19031/1618=
202411111553 METAR KPAE 111553Z 16017G30KT 10SM BKN006 BKN022 OVC055 12/09 A2954 RMK AO2 PK WND 16032/1534 RAE46 SLP002 P0001 T01170094=
202411111511 SPECI KPAE 111511Z 16012G29KT 10SM -RA BKN006 BKN022 OVC055 11/09 A2952 RMK AO2 PK WND 16029/1503 P0000 T01110094=
202411111502 SPECI KPAE 111502Z 15013G24KT 10SM -RA BKN022 BKN055 OVC070 11/09 A2952 RMK AO2 P0000 T01110089=
202411111453 METAR KPAE 111453Z AUTO 16016G24KT 10SM -RA FEW022 BKN055 OVC070 11/09 A2951 RMK AO2 PK WND 16026/1402 SLP993 P0000 60003 T01110089 55000=
202411111353 METAR KPAE 111353Z AUTO 15016G26KT 10SM -RA FEW035 SCT047 BKN060 11/09 A2947 RMK AO2 PK WND 14026/1352 SLP980 P0001 T01110089=
202411111253 METAR KPAE 111253Z AUTO 14011G19KT 8SM -RA FEW008 FEW038 OVC055 11/09 A2949 RMK AO2 SLP987 P0002 T01110094=
202411111153 METAR KPAE 111153Z AUTO VRB06KT 3SM +RA BR FEW019 FEW037 OVC050 11/09 A2951 RMK AO2 SLP992 P0022 60045 70045 T01110089 10111 20100 55012=
202411111138 SPECI KPAE 111138Z AUTO 15011G18KT 4SM RA BR FEW005 BKN047 OVC055 11/09 A2951 RMK AO2 P0016 T01110089=
202411111122 SPECI KPAE 111122Z AUTO 22009KT 2 1/2SM R16R/5500VP6000FT +RA BR FEW005 BKN038 OVC055 11/09 A2953 RMK AO2 PRESRR P0012 T01060089=
202411111053 METAR KPAE 111053Z AUTO 14007G21KT 7SM -RA FEW036 FEW047 OVC060 11/09 A2950 RMK AO2 SLP989 P0004 T01110089=
202411110953 METAR KPAE 110953Z AUTO VRB06KT 10SM -RA FEW031 SCT039 OVC060 11/08 A2952 RMK AO2 SLP997 P0003 T01060083=
202411110853 METAR KPAE 110853Z AUTO VRB05KT 6SM -RA BR SCT043 OVC055 11/08 A2955 RMK AO2 SLP005 P0005 60016 T01060083 58027=
202411110753 METAR KPAE 110753Z AUTO 13007KT 090V160 5SM RA BR FEW038 SCT047 OVC060 10/08 A2958 RMK AO2 SLP017 P0007 T01000083 401390100=
202411110653 METAR KPAE 110653Z AUTO 13006KT 7SM -RA FEW034 OVC060 11/08 A2960 RMK AO2 SLP025 P0004 T01060078=
202411110553 METAR KPAE 110553Z AUTO 11010G20KT 10SM -RA FEW043 OVC065 11/07 A2963 RMK AO2 SLP033 P0000 60000 T01110072 10139 20111 56038=
202411110453 METAR KPAE 110453Z 13006KT 10SM -RA OVC060 12/06 A2966 RMK AO2 SLP043 P0000 T01220061=
202411110353 METAR KPAE 110353Z 11009KT 10SM -RA OVC070 12/06 A2969 RMK AO2 RAB09 SLP054 P0000 T01220061=
202411110253 METAR KPAE 110253Z VRB05KT 10SM OVC050 13/06 A2974 RMK AO2 SLP072 T01280056 58027=
202411110153 METAR KPAE 110153Z 15006KT 10SM OVC050 13/06 A2978 RMK AO2 SLP086 T01330056=
202411110053 METAR KPAE 110053Z 15009KT 10SM OVC060 13/06 A2980 RMK AO2 SLP093 T01330061=
202411102353 METAR KPAE 102353Z 15007KT 10SM OVC060 14/09 A2982 RMK AO2 SLP099 T01390089 10139 20117 58019=
202411102253 METAR KPAE 102253Z 15006KT 10SM CLR 14/08 A2984 RMK AO2 SLP107 T01390083=
202411102153 METAR KPAE 102153Z VRB06KT 10SM CLR 14/07 A2986 RMK AO2 SLP112 T01390072=
202411102053 METAR KPAE 102053Z 15005KT 10SM FEW070 13/08 A2988 RMK AO2 SLP119 T01330078 58019=
202411101953 METAR KPAE 101953Z 18008KT 10SM BKN050 13/08 A2992 RMK AO2 SLP132 T01330083=
202411101853 METAR KPAE 101853Z 15007KT 10SM CLR 12/09 A2993 RMK AO2 SLP135 T01220094=
202411101753 METAR KPAE 101753Z 15007KT 10SM CLR 12/08 A2994 RMK AO2 SLP138 T01170083 10122 20100 58009=
202411101653 METAR KPAE 101653Z VRB05KT 10SM BKN080 11/08 A2996 RMK AO2 SLP144 T01110083=
202411101553 METAR KPAE 101553Z VRB04KT 10SM FEW039 BKN070 11/08 A2996 RMK AO2 SLP147 T01060078=
202411101453 METAR KPAE 101453Z VRB04KT 10SM OVC070 10/08 A2997 RMK AO2 SLP148 T01000083 58002=
202411101420 SPECI KPAE 101420Z AUTO VRB03KT 10SM BKN030 OVC070 10/08 A2997 RMK AO2 T01000083=
202411101353 METAR KPAE 101353Z AUTO 16005KT 10SM OVC028 10/08 A2998 RMK AO2 SLP155 T01000083=
202411101253 METAR KPAE 101253Z AUTO VRB03KT 10SM FEW004 BKN019 OVC060 11/08 A2997 RMK AO2 SLP151 T01060083=
202411101153 METAR KPAE 101153Z AUTO 17007KT 10SM OVC004 11/09 A2998 RMK AO2 SLP152 70006 T01060089 10106 20100 56007=
202411101136 SPECI KPAE 101136Z AUTO 16008KT 9SM OVC004 11/09 A2998 RMK AO2 T01060089=
202411101108 SPECI KPAE 101108Z AUTO 16008KT 9SM OVC005 11/09 A2998 RMK AO2 CIG 002V007 T01060089=
202411101053 METAR KPAE 101053Z AUTO 16010KT 7SM OVC003 11/09 A2998 RMK AO2 CIG 002V006 SLP152 T01060089=
202411100953 METAR KPAE 100953Z AUTO 17008KT 9SM OVC003 11/09 A2998 RMK AO2 CIG 001V006 SLP154 T01060089=
202411100853 METAR KPAE 100853Z AUTO 17006KT 7SM OVC004 11/09 A3000 RMK AO2 CIG 002V007 SLP159 T01060089 50001=
202411100753 METAR KPAE 100753Z AUTO 15006KT 8SM OVC003 10/09 A3001 RMK AO2 SLP162 T01000089 401280100=
202411100653 METAR KPAE 100653Z AUTO 14005KT 3SM BR OVC003 10/08 A3000 RMK AO2 SLP160 T01000083=
202411100638 SPECI KPAE 100638Z AUTO VRB04KT 3SM BR BKN003 OVC007 10/08 A3000 RMK AO2 T01000083=
202411100614 SPECI KPAE 100614Z AUTO 16007KT 2 1/2SM BR OVC005 10/08 A3000 RMK AO2 CIG 003V008 T01000083=
202411100553 METAR KPAE 100553Z AUTO 15006KT 2 1/2SM BR OVC004 10/08 A3000 RMK AO2 CIG 003V008 SLP158 T01000083 10106 20100 52005=
202411100531 SPECI KPAE 100531Z AUTO 15006KT 2 1/2SM BR OVC005 10/08 A2999 RMK AO2 T01000083=
202411100500 SPECI KPAE 100500Z AUTO 15005KT 4SM BR OVC008 10/08 A2999 RMK AO2 CIG 004V010 T01000083=
202411100453 METAR KPAE 100453Z VRB04KT 5SM BR OVC003 10/08 A2999 RMK AO2 SLP157 T01000083=
202411100353 METAR KPAE 100353Z VRB03KT 4SM BR OVC003 10/08 A2998 RMK AO2 SLP154 T01000083=
202411100309 SPECI KPAE 100309Z 16009KT 8SM OVC008 11/08 A2999 RMK AO2 T01060083=
202411100300 SPECI KPAE 100300Z 15007KT 8SM OVC010 11/08 A2998 RMK AO2 T01060083=
202411100253 METAR KPAE 100253Z 14007KT 9SM OVC007 11/08 A2998 RMK AO2 SLP153 T01060083 51006=
202411100153 METAR KPAE 100153Z 15005KT 10SM OVC007 10/08 A2998 RMK AO2 SLP152 T01000083=
202411100053 METAR KPAE 100053Z 15008KT 10SM OVC005 10/08 A2997 RMK AO2 SLP148 T01000083=
202411100011 SPECI KPAE 100011Z 00000KT 6SM BR OVC005 10/08 A2997 RMK AO2 T01000083=
202411100000 SPECI KPAE 100000Z 14006KT 5SM BR OVC018 10/08 A2996 RMK AO2 T01000083=
202411092353 METAR KPAE 092353Z 15006KT 2SM BR BKN004 10/08 A2996 RMK AO2 SLP146 60006 T01000083 10117 20100 53003=
202411092315 SPECI KPAE 092315Z 15007KT 2SM BR BKN004 11/08 A2996 RMK AO2 T01060083=
202411092307 SPECI KPAE 092307Z 15008KT 3SM BR BKN004 10/08 A2996 RMK AO2 T01000083=
202411092253 METAR KPAE 092253Z 16008KT 1 3/4SM BR OVC004 11/09 A2996 RMK AO2 RAE01B23E47 SLP146 P0000 T01060089=
202411092237 SPECI KPAE 092237Z 16008KT 1 3/4SM -RA BR OVC004 11/09 A2995 RMK AO2 RAE01B23 P0000 T01060089=
202411092209 SPECI KPAE 092209Z 17006KT 1 3/4SM BR SCT005 OVC017 11/09 A2995 RMK AO2 RAE01 P0000 T01060089=
202411092153 METAR KPAE 092153Z 16008KT 1 3/4SM -RA BR BKN005 OVC009 11/09 A2995 RMK AO2 CIG 003V007 SLP142 P0003 T01060089=
202411092053 METAR KPAE 092053Z 15008KT 1 1/4SM R16R/5000VP6000FT -RA BR BKN005 OVC014 11/09 A2995 RMK AO2 SLP143 P0001 60003 T01060089 58001=
202411092012 SPECI KPAE 092012Z 15009KT 1 1/2SM -RA BR BKN005 OVC014 11/09 A2995 RMK AO2 P0000 T01060089=
202411091953 METAR KPAE 091953Z 15008KT 1SM R16R/5000VP6000FT -RA BR FEW008 OVC014 11/09 A2996 RMK AO2 SLP146 P0001 T01060089=
202411091948 SPECI KPAE 091948Z 16010KT 1SM R16R/P6000FT -RA BR FEW008 OVC014 11/09 A2996 RMK AO2 P0000=
202411091937 SPECI KPAE 091937Z 16008KT 2 1/2SM -RA BR FEW008 OVC014 11/08 A2996 RMK AO2 P0000 T01060083=
202411091925 SPECI KPAE 091925Z 15011KT 3SM -RA BR OVC016 11/08 A2996 RMK AO2 P0000 T01060083=
202411091923 SPECI KPAE 091923Z 15010KT 9SM -RA OVC016 11/08 A2996 RMK AO2 P0000 T01060083=
202411091853 METAR KPAE 091853Z 17007KT 4SM -RA OVC026 11/08 A2996 RMK AO2 RAB15 SLP147 P0001 T01110083=
202411091838 SPECI KPAE 091838Z 16008KT 10SM -RA OVC028 11/08 A2996 RMK AO2 RAB15 P0000 T01110078=
202411091836 SPECI KPAE 091836Z 15009KT 10SM -RA SCT028 OVC034 11/08 A2996 RMK AO2 RAB15 P0000 T01110078=
202411091753 METAR KPAE 091753Z 17006KT 10SM OVC050 12/08 A2995 RMK AO2 RAE03 SLP144 P0000 60000 T01170078 10122 20106 50003=
202411091653 METAR KPAE 091653Z 15010KT 10SM -RA OVC065 12/07 A2996 RMK AO2 SLP143 P0000 T01170067=
202411091553 METAR KPAE 091553Z 18006KT 10SM -RA BKN055 OVC080 11/07 A2996 RMK AO2 RAE20B46 SLP144 P0000 T01060072=
202411091453 METAR KPAE 091453Z 15006KT 10SM -RA BKN065 OVC080 11/07 A2995 RMK AO2 SLP140 P0000 60000 T01110067 56005=
202411091353 METAR KPAE 091353Z 11006KT 10SM -RA OVC085 11/07 A2995 RMK AO2 RAE32B48 SLP141 P0000 T01060067=
202411091253 METAR KPAE 091253Z 15005KT 10SM -RA OVC070 11/06 A2996 RMK AO2 RAB36 SLP145 P0000 T01110061=
202411091153 METAR KPAE 091153Z 14004KT 10SM OVC090 12/05 A2996 RMK AO2 SLP146 T01220050 10133 20117 58008=
202411091053 METAR KPAE 091053Z 15008KT 10SM BKN085 OVC110 12/05 A2998 RMK AO2 SLP151 T01220050=
202411090953 METAR KPAE 090953Z 15010KT 10SM OVC085 12/05 A2998 RMK AO2 SLP151 T01220050=
202411090853 METAR KPAE 090853Z 15007KT 10SM SCT075 OVC095 13/05 A2999 RMK AO2 SLP154 T01280050 55004=
202411090753 METAR KPAE 090753Z 16009KT 10SM OVC100 12/06 A2998 RMK AO2 SLP153 T01220056 401780100=
202411090653 METAR KPAE 090653Z 16007KT 10SM OVC100 13/06 A2999 RMK AO2 SLP157 T01280056=
202411090553 METAR KPAE 090553Z 17006KT 10SM BKN100 BKN120 13/06 A3000 RMK AO2 SLP158 T01280056 10161 20122 58000=
202411090453 METAR KPAE 090453Z 15007KT 10SM FEW085 14/06 A3000 RMK AO2 SLP158 T01390056=
202411090353 METAR KPAE 090353Z 18010KT 10SM SCT085 14/06 A3000 RMK AO2 SLP159 T01390056=
202411090253 METAR KPAE 090253Z 15011KT 10SM SCT120 15/04 A3000 RMK AO2 SLP158 T01500039 56001=
202411090153 METAR KPAE 090153Z 16012KT 10SM BKN120 15/03 A3000 RMK AO2 SLP159 T01500033=
202411090053 METAR KPAE 090053Z 17008KT 10SM CLR 15/04 A2999 RMK AO2 SLP156 T01500044=
202411082353 METAR KPAE 082353Z 16012KT 10SM CLR 16/04 A3000 RMK AO2 SLP160 T01610039 10178 20122 56020=
202411082253 METAR KPAE 082253Z 16010KT 10SM CLR 17/04 A3002 RMK AO2 SLP166 T01670039=
202411082153 METAR KPAE 082153Z 16010KT 10SM CLR 17/04 A3004 RMK AO2 SLP173 T01720044=
202411082053 METAR KPAE 082053Z 15011KT 10SM CLR 16/05 A3006 RMK AO2 SLP181 T01610050 58022=
202411081953 METAR KPAE 081953Z 15009KT 10SM CLR 15/04 A3009 RMK AO2 SLP190 T01500044=
202411081853 METAR KPAE 081853Z 15011G18KT 10SM CLR 14/04 A3012 RMK AO2 SLP198 T01390044=
202411081753 METAR KPAE 081753Z 16008KT 10SM CLR 12/05 A3013 RMK AO2 SLP203 T01220050 10122 20106 50003=
202411081653 METAR KPAE 081653Z 14008KT 10SM CLR 12/04 A3013 RMK AO2 SLP205 T01170039=
202411081553 METAR KPAE 081553Z 15009KT 10SM CLR 12/03 A3013 RMK AO2 SLP202 T01170033=
202411081453 METAR KPAE 081453Z 14007KT 10SM CLR 11/04 A3012 RMK AO2 SLP201 T01110039 56012=
202411081353 METAR KPAE 081353Z AUTO VRB04KT 10SM CLR 11/05 A3013 RMK AO2 SLP203 T01060050=
202411081253 METAR KPAE 081253Z AUTO VRB04KT 10SM CLR 11/04 A3014 RMK AO2 SLP206 T01110044=
202411081153 METAR KPAE 081153Z AUTO 11004KT 10SM CLR 11/04 A3016 RMK AO2 SLP213 T01060039 10133 20100 58004=
202411081053 METAR KPAE 081053Z AUTO 16003KT 10SM CLR 11/04 A3017 RMK AO2 SLP216 T01110039=
202411080953 METAR KPAE 080953Z AUTO 15010KT 10SM CLR 12/04 A3016 RMK AO2 SLP213 T01220039=
202411080853 METAR KPAE 080853Z AUTO VRB05KT 10SM CLR 12/04 A3017 RMK AO2 SLP216 T01170044 58003=
202411080753 METAR KPAE 080753Z AUTO 15004KT 10SM CLR 12/04 A3017 RMK AO2 SLP218 T01220039 401500056=
202411080653 METAR KPAE 080653Z AUTO 14005KT 10SM CLR 13/04 A3018 RMK AO2 SLP219 T01330039=
202411080553 METAR KPAE 080553Z AUTO VRB03KT 10SM CLR 13/04 A3018 RMK AO2 SLP219 T01280044 10133 20106 55000=
202411080453 METAR KPAE 080453Z 00000KT 10SM CLR 13/06 A3017 RMK AO2 SLP216 T01280056=
202411080353 METAR KPAE 080353Z 00000KT 10SM CLR 13/06 A3018 RMK AO2 SLP221 T01280056=
202411080253 METAR KPAE 080253Z 00000KT 10SM CLR 11/06 A3018 RMK AO2 SLP221 T01110056 56009=
202411080153 METAR KPAE 080153Z 15005KT 10SM CLR 11/06 A3018 RMK AO2 SLP222 T01110056=
202411080053 METAR KPAE 080053Z 27003KT 10SM CLR 12/06 A3020 RMK AO2 SLP228 T01220056=
202411072353 METAR KPAE 072353Z 00000KT 10SM CLR 13/06 A3020 RMK AO2 SLP230 T01330056 10150 20122 58008=
202411072253 METAR KPAE 072253Z 00000KT 10SM CLR 14/06 A3022 RMK AO2 SLP233 T01440056=
202411072153 METAR KPAE 072153Z 00000KT 10SM CLR 14/06 A3022 RMK AO2 SLP234 T01440056=
202411072053 METAR KPAE 072053Z 00000KT 10SM CLR 14/05 A3023 RMK AO2 SLP237 T01390050 58003=
202411071953 METAR KPAE 071953Z 00000KT 10SM CLR 13/05 A3024 RMK AO2 SLP240 T01280050=
202411071853 METAR KPAE 071853Z VRB03KT 10SM CLR 13/04 A3024 RMK AO2 SLP241 T01280039=
202411071753 METAR KPAE 071753Z 00000KT 10SM CLR 12/04 A3024 RMK AO2 SLP240 T01220044 10122 20056 53004=
202411071653 METAR KPAE 071653Z 12003KT 10SM CLR 11/04 A3024 RMK AO2 SLP241 T01060039=
202411071553 METAR KPAE 071553Z 11006KT 10SM CLR 08/03 A3022 RMK AO2 SLP236 T00830028=
202411071453 METAR KPAE 071453Z 00000KT 10SM CLR 07/03 A3023 RMK AO2 SLP237 T00720028 56009=
202411071353 METAR KPAE 071353Z AUTO 00000KT 10SM CLR 06/03 A3023 RMK AO2 SLP238 T00610028=
202411071253 METAR KPAE 071253Z AUTO 00000KT 10SM CLR 07/04 A3024 RMK AO2 SLP242 T00670039=
202411071153 METAR KPAE 071153Z AUTO 04003KT 10SM CLR 07/04 A3025 RMK AO2 SLP246 T00670039 10089 20056 56008=
202411071053 METAR KPAE 071053Z AUTO 00000KT 10SM CLR 07/03 A3026 RMK AO2 SLP247 T00720033=
202411070953 METAR KPAE 070953Z AUTO 00000KT 10SM CLR 07/04 A3027 RMK AO2 SLP252 T00720044=
202411070853 METAR KPAE 070853Z AUTO 04003KT 10SM CLR 08/03 A3028 RMK AO2 SLP254 T00780033 55003=
202411070753 METAR KPAE 070753Z AUTO 10004KT 10SM CLR 08/03 A3027 RMK AO2 SLP254 T00780033 401220061=
202411070653 METAR KPAE 070653Z AUTO 11004KT 10SM CLR 08/03 A3027 RMK AO2 SLP253 T00780033=
202411070553 METAR KPAE 070553Z AUTO 11005KT 10SM CLR 09/04 A3028 RMK AO2 SLP257 T00890039 10122 20083 56012=
202411070453 METAR KPAE 070453Z 00000KT 10SM CLR 09/05 A3029 RMK AO2 SLP260 T00890050=
202411070353 METAR KPAE 070353Z 05003KT 10SM OVC050 10/05 A3031 RMK AO2 SLP264 T01000050=
202411070253 METAR KPAE 070253Z 01003KT 10SM OVC055 09/05 A3032 RMK AO2 SLP270 T00940050 56005=
202411070153 METAR KPAE 070153Z 00000KT 10SM OVC055 10/05 A3032 RMK AO2 SLP270 T01000050=
202411070053 METAR KPAE 070053Z 00000KT 10SM OVC060 11/04 A3033 RMK AO2 SLP271 T01060039=
202411062353 METAR KPAE 062353Z 00000KT 10SM OVC065 12/01 A3034 RMK AO2 SLP275 T01220006 10122 20100 58014=
202411062253 METAR KPAE 062253Z 02003KT 10SM OVC070 12/01 A3035 RMK AO2 SLP280 T01220011=
202411062153 METAR KPAE 062153Z 01004KT 10SM OVC065 12/03 A3037 RMK AO2 SLP285 T01220028=
202411062053 METAR KPAE 062053Z VRB03KT 10SM OVC065 12/03 A3038 RMK AO2 SLP289 T01170033 58010=
202411061953 METAR KPAE 061953Z 34004KT 10SM OVC060 12/04 A3039 RMK AO2 SLP293 T01170039=
202411061853 METAR KPAE 061853Z 18004KT 10SM FEW065 BKN090 11/02 A3040 RMK AO2 SLP297 T01110022=
202411061753 METAR KPAE 061753Z 15006KT 10SM OVC055 10/01 A3041 RMK AO2 SLP300 T01000011 10100 20061 50002=
202411061653 METAR KPAE 061653Z 15004KT 10SM OVC055 08/02 A3041 RMK AO2 SLP303 T00830022=
202411061553 METAR KPAE 061553Z 15004KT 10SM SCT065 07/02 A3041 RMK AO2 SLP301 T00670017=
202411061453 METAR KPAE 061453Z 00000KT 10SM FEW065 07/02 A3041 RMK AO2 SLP299 T00670022 51004=
202411061353 METAR KPAE 061353Z AUTO 11004KT 10SM OVC065 07/02 A3040 RMK AO2 SLP299 T00670022=
202411061253 METAR KPAE 061253Z AUTO 00000KT 10SM BKN070 07/02 A3040 RMK AO2 SLP296 T00670022=
202411061153 METAR KPAE 061153Z AUTO 16003KT 10SM OVC085 07/02 A3039 RMK AO2 SLP294 70005 T00720022 10072 20067 56003=
202411061053 METAR KPAE 061053Z AUTO VRB03KT 10SM OVC080 07/03 A3039 RMK AO2 SLP295 T00720028=
202411060953 METAR KPAE 060953Z AUTO 12003KT 10SM OVC095 07/03 A3039 RMK AO2 SLP295 T00670033=
202411060853 METAR KPAE 060853Z AUTO 11004KT 10SM BKN090 OVC110 07/03 A3040 RMK AO2 SLP297 T00670028 50001=
202411060753 METAR KPAE 060753Z AUTO 11006KT 10SM OVC095 07/03 A3040 RMK AO2 SLP297 T00670033 401170050=
202411060653 METAR KPAE 060653Z AUTO 11006KT 10SM OVC100 07/04 A3040 RMK AO2 SLP297 T00670039=
202411060553 METAR KPAE 060553Z AUTO 11006KT 10SM SCT095 07/04 A3040 RMK AO2 SLP296 T00670044 10106 20050 50005=
202411060453 METAR KPAE 060453Z AUTO 11004KT 10SM CLR 07/04 A3040 RMK AO2 SLP297 T00720039=
202411060353 METAR KPAE 060353Z 12003KT 10SM CLR 07/03 A3040 RMK AO2 SLP295 T00720033=
202411060253 METAR KPAE 060253Z 00000KT 10SM CLR 07/03 A3038 RMK AO2 SLP291 T00670028 53010=
202411060153 METAR KPAE 060153Z 00000KT 10SM CLR 07/03 A3037 RMK AO2 SLP286 T00670028=
202411060053 METAR KPAE 060053Z AUTO 34003KT 10SM CLR 09/02 A3035 RMK AO2 SLP280 T00890022=
202411052353 METAR KPAE 052353Z AUTO 32003KT 10SM CLR 10/02 A3035 RMK AO2 SLP280 60001 T01000022 10117 20089 53008=
202411052253 METAR KPAE 052253Z 33006KT 10SM FEW025 12/02 A3033 RMK AO2 SLP274 T01170022=
202411052153 METAR KPAE 052153Z 34005KT 10SM SCT025 12/04 A3032 RMK AO2 SLP270 T01170039=
202411052053 METAR KPAE 052053Z 32008KT 10SM BKN022 BKN043 OVC060 11/05 A3033 RMK AO2 RAB06E15 SLP271 P0000 60001 T01060050 51008=
202411052000 SPECI KPAE 052000Z 33005KT 10SM BKN022 BKN043 OVC060 11/04 A3032 RMK AO2 T01060044=
202411051953 METAR KPAE 051953Z 36005KT 10SM BKN013 BKN027 OVC050 10/05 A3032 RMK AO2 SLP270 T01000050=
202411051907 SPECI KPAE 051907Z 33005KT 10SM BKN013 BKN027 OVC050 10/06 A3031 RMK AO2 T01000061=
202411051900 SPECI KPAE 051900Z VRB06KT 10SM FEW021 BKN027 OVC050 10/06 A3031 RMK AO2 T01000061=
202411051853 METAR KPAE 051853Z 31005KT 7SM BKN013 BKN027 OVC041 10/07 A3031 RMK AO2 RAE15 SLP267 P0001 T01000067=
202411051757 SPECI KPAE 051757Z 31007KT 7SM -RA BKN013 BKN027 OVC041 09/06 A3030 RMK AO2 P0000 T00890056=
202411051753 METAR KPAE 051753Z 33006KT 2 1/2SM RA BKN016 BKN038 OVC050 09/06 A3030 RMK AO2 RAB24 SLP263 P0001 60004 T00890056 10100 20061 50008=
202411051749 SPECI KPAE 051749Z 30007KT 4SM -RA BKN016 BKN038 OVC050 09/06 A3030 RMK AO2 RAB24 P0001=
202411051653 METAR KPAE 051653Z 34004KT 10SM SCT029 BKN060 09/06 A3029 RMK AO2 RAE1559 SLP259 P0000 T00940056=
202411051553 METAR KPAE 051553Z 34007KT 10SM -RA FEW019 BKN047 OVC065 09/06 A3028 RMK AO2 RAB19 SLP254 P0003 T00890056=
202411051515 SPECI KPAE 051515Z 31005KT 10SM SCT020 BKN024 OVC060 09/04 A3027 RMK AO2 T00940044=
202411051453 METAR KPAE 051453Z 30003KT 10SM SCT026 SCT038 BKN060 09/04 A3027 RMK AO2 SLP252 T00890039 51012=
202411051353 METAR KPAE 051353Z AUTO 00000KT 10SM FEW030 SCT039 09/03 A3026 RMK AO2 SLP249 T00890033=
202411051253 METAR KPAE 051253Z AUTO VRB03KT 10SM FEW033 07/03 A3025 RMK AO2 SLP247 T00720033=
202411051153 METAR KPAE 051153Z AUTO 00000KT 10SM SCT070 07/03 A3023 RMK AO2 SLP240 70006 T00670028 10100 20061 53014=
202411051053 METAR KPAE 051053Z AUTO 11004KT 10SM CLR 08/03 A3021 RMK AO2 SLP232 T00780028=
202411050953 METAR KPAE 050953Z AUTO VRB05KT 10SM CLR 07/03 A3021 RMK AO2 SLP230 T00720033=
202411050853 METAR KPAE 050853Z AUTO VRB04KT 10SM CLR 09/02 A3019 RMK AO2 SLP225 T00940022 51023=
202411050753 METAR KPAE 050753Z AUTO 30006KT 10SM CLR 09/01 A3017 RMK AO2 SLP220 T00940011 401390078=
202411050653 METAR KPAE 050653Z AUTO VRB03KT 10SM CLR 08/03 A3016 RMK AO2 SLP217 T00830033=
202411050553 METAR KPAE 050553Z AUTO VRB06KT 10SM CLR 09/01 A3012 RMK AO2 SLP203 T00940011 10122 20094 52025=
202411050453 METAR KPAE 050453Z 28007G18KT 250V320 10SM CLR 11/01 A3010 RMK AO2 PK WND 28026/0359 SLP193 T01060006=
202411050353 METAR KPAE 050353Z 28013G25KT 10SM FEW080 11/01 A3008 RMK AO2 SLP187 T01060011=
202411050253 METAR KPAE 050253Z 31008G20KT 10SM CLR 11/01 A3005 RMK AO2 PK WND 27027/0225 SLP177 T01060011 51028=
202411050153 METAR KPAE 050153Z 30012G25KT 10SM CLR 11/01 A3003 RMK AO2 PK WND 29026/0114 SLP170 T01060011=
202411050053 METAR KPAE 050053Z 31012G26KT 10SM FEW080 11/02 A3001 RMK AO2 PK WND 30026/0033 SLP162 T01110017=
202411042353 METAR KPAE 042353Z 32010G24KT 10SM CLR 12/03 A2997 RMK AO2 PK WND 32030/2312 SLP148 60003 T01220028 10139 20094 53019=
202411042253 METAR KPAE 042253Z 32013G28KT 10SM CLR 13/04 A2994 RMK AO2 PK WND 33028/2229 SLP138 T01280039=
202411042153 METAR KPAE 042153Z 27008G24KT 250V320 10SM FEW017 13/06 A2992 RMK AO2 SLP134 T01330061=
202411042053 METAR KPAE 042053Z 00000KT 10SM SCT008 13/09 A2991 RMK AO2 SLP129 60003 T01280089 52009=
202411042008 SPECI KPAE 042008Z 23004KT 10SM OVC005 11/09 A2989 RMK AO2 CIG 004V009 T01110094=
202411042000 SPECI KPAE 042000Z 19008KT 10SM OVC004 11/09 A2989 RMK AO2 CIG 004V009 T01110089=
202411041953 METAR KPAE 041953Z 21003KT 1 1/2SM BR OVC004 11/09 A2990 RMK AO2 RAE13 CIG 004V008 SLP124 P0001 T01060089=
202411041951 SPECI KPAE 041951Z 22005KT 1 1/2SM BR OVC004 11/09 A2990 RMK AO2 RAE13 CIG 004V008 P0001=
202411041853 METAR KPAE 041853Z 21013G20KT 1 1/2SM R16R/4500VP6000FT RA BR OVC007 09/08 A2988 RMK AO2 PK WND 17027/1806 RAB38 CIG 004V010 SLP120 P0002 T00940078=
202411041831 SPECI KPAE 041831Z 21008G22KT 7SM OVC007 09/07 A2988 RMK AO2 PK WND 17027/1806 PRESRR T00940072=
202411041806 SPECI KPAE 041806Z 17017G27KT 10SM BKN011 OVC016 09/07 A2985 RMK AO2 PK WND 17027/1806 T00940072=
202411041753 METAR KPAE 041753Z 16016G31KT 10SM BKN007 BKN017 OVC036 09/07 A2985 RMK AO2 PK WND 15031/1752 RAE36 SLP111 P0000 60003 T00940072 10106 20089 58022=
202411041742 SPECI KPAE 041742Z 17016G24KT 9SM BKN007 BKN019 OVC034 09/07 A2986 RMK AO2 PK WND 15027/1718 RAE36 P0000 T00940072=
202411041735 SPECI KPAE 041735Z 16013G23KT 6SM -RA BR SCT010 BKN019 OVC034 09/07 A2986 RMK AO2 PK WND 15027/1718 P0000 T00890067=
202411041653 METAR KPAE 041653Z 16019G29KT 10SM -RA FEW037 BKN055 OVC085 09/06 A2987 RMK AO2 PK WND 15035/1554 SLP118 P0003 T00890061=
202411041553 METAR KPAE 041553Z 16017G26KT 10SM -RA SCT029 OVC035 09/06 A2991 RMK AO2 PK WND 17037/1508 RAB25 SLP130 P0000 T00940056=
202411041453 METAR KPAE 041453Z 16021G32KT 10SM FEW019 BKN035 OVC085 10/06 A2992 RMK AO2 PK WND 15037/1432 RAB16E46 SLP133 P0000 60000 T01000056 58050=
202411041353 METAR KPAE 041353Z 17019G33KT 10SM FEW028 BKN050 OVC070 11/05 A2998 RMK AO2 PK WND 16034/1320 SLP154 T01060050=
202411041253 METAR KPAE 041253Z 15014G25KT 10SM FEW036 BKN050 OVC055 10/06 A3002 RMK AO2 PK WND 16033/1206 RAE23 SLP166 P0000 T01000061=
202411041153 METAR KPAE 041153Z 16017G25KT 10SM -RA SCT055 BKN075 OVC090 10/07 A3007 RMK AO2 PK WND 15028/1132 SLP184 P0001 60001 70001 T01000072 10106 20100 58034=
202411041129 SPECI KPAE 041129Z 16018G27KT 10SM -RA SCT028 BKN050 OVC070 10/07 A3010 RMK AO2 PK WND 16027/1129 P0000 T01000072=
202411041108 SPECI KPAE 041108Z 16017G25KT 7SM -RA BKN027 BKN037 OVC049 10/07 A3011 RMK AO2 P0000 T01000072=
202411041053 METAR KPAE 041053Z 16017KT 8SM -RA SCT021 BKN040 OVC049 10/07 A3013 RMK AO2 PK WND 17030/1002 RAB0954 SLP202 P0000 T01000072=
202411040953 METAR KPAE 040953Z 16018G30KT 10SM SCT015 BKN055 OVC080 11/07 A3015 RMK AO2 PK WND 15030/0952 SLP210 T01060072=
202411040934 SPECI KPAE 040934Z 16013KT 10SM BKN015 OVC080 11/07 A3016 RMK AO2 T01060072=
202411040900 SPECI KPAE 040900Z 16013G18KT 10SM BKN014 OVC080 10/07 A3017 RMK AO2 T01000072=
202411040853 METAR KPAE 040853Z 16012KT 10SM BKN015 OVC080 10/07 A3017 RMK AO2 SLP219 T01000072 57018=
202411040753 METAR KPAE 040753Z 15009KT 10SM SCT014 OVC020 10/07 A3020 RMK AO2 SLP227 T01000067 401280083=
202411040736 SPECI KPAE 040736Z 16009KT 10SM FEW014 BKN020 OVC100 10/07 A3020 RMK AO2 T01000072=
202411040653 METAR KPAE 040653Z 15008KT 10SM OVC085 10/07 A3021 RMK AO2 SLP230 T01000072=
202411040553 METAR KPAE 040553Z 14006KT 10SM FEW065 OVC090 10/07 A3023 RMK AO2 SLP238 60000 T01000067 10117 20094 56005=
202411040453 METAR KPAE 040453Z VRB03KT 10SM FEW055 OVC100 10/07 A3023 RMK AO2 RAB34E45 SLP239 P0000 T01000072=
202411040353 METAR KPAE 040353Z 18003KT 10SM BKN035 BKN050 OVC100 09/07 A3024 RMK AO2 SLP243 T00940072=
202411040253 METAR KPAE 040253Z 18004KT 10SM FEW048 BKN110 10/07 A3025 RMK AO2 SLP244 T01000072 53002=
202411040153 METAR KPAE 040153Z 14004KT 10SM SCT100 BKN120 11/07 A3024 RMK AO2 SLP241 T01110072=
202411040053 METAR KPAE 040053Z 20003KT 10SM BKN045 OVC100 11/07 A3024 RMK AO2 SLP244 T01060067=
202411032353 METAR KPAE 032353Z 21004KT 10SM SCT016 BKN055 OVC110 12/07 A3024 RMK AO2 SLP242 T01170072 10128 20094 51004=
202411032253 METAR KPAE 032253Z 24004KT 10SM BKN016 OVC044 12/07 A3024 RMK AO2 SLP241 T01170067=
202411032153 METAR KPAE 032153Z 22004KT 10SM BKN045 12/06 A3023 RMK AO2 SLP237 T01170056=
202411032053 METAR KPAE 032053Z 23007KT 10SM FEW029 OVC060 12/07 A3022 RMK AO2 SLP234 T01220067 51012=
202411032037 SPECI KPAE 032037Z 22008KT 10SM FEW022 SCT029 OVC060 12/07 A3021 RMK AO2 T01220072=
202411031953 METAR KPAE 031953Z 22005KT 10SM BKN018 OVC026 11/07 A3021 RMK AO2 SLP231 T01060072=
202411031853 METAR KPAE 031853Z 26005KT 10SM BKN019 OVC025 11/07 A3020 RMK AO2 SLP229 T01060067=
202411031753 METAR KPAE 031753Z 23004KT 10SM FEW004 BKN016 OVC037 09/07 A3018 RMK AO2 SLP223 60000 T00940072 10094 20083 53029=
202411031653 METAR KPAE 031653Z 00000KT 10SM BKN004 BKN016 OVC035 09/07 A3015 RMK AO2 SLP213 T00940072=
202411031643 SPECI KPAE 031643Z 31003KT 10SM BKN004 BKN016 OVC035 09/07 A3015 RMK AO2 T00940072=
202411031600 SPECI KPAE 031600Z 33003KT 10SM OVC029 09/07 A3013 RMK AO2 T00940072=
202411031553 METAR KPAE 031553Z 33003KT 10SM BKN012 OVC031 09/07 A3012 RMK AO2 SLP202 T00940072=
202411031453 METAR KPAE 031453Z 32003KT 10SM BKN012 OVC029 09/07 A3010 RMK AO2 RAE06 SLP193 P0000 60000 T00890067 51022=
202411031419 SPECI KPAE 031419Z AUTO 00000KT 10SM OVC013 09/07 A3008 RMK AO2 RAE06 P0000 T00890072=
202411031403 SPECI KPAE 031403Z AUTO 00000KT 8SM -RA FEW004 OVC015 08/07 A3008 RMK AO2 P0000 T00830067=
202411031353 METAR KPAE 031353Z AUTO 00000KT 9SM -RA BKN017 OVC021 08/07 A3007 RMK AO2 RAB04 SLP185 P0000 T00830067=
202411031338 SPECI KPAE 031338Z AUTO 00000KT 9SM -RA FEW007 SCT013 OVC021 08/07 A3007 RMK AO2 RAB04 P0000 T00830067=
202411031325 SPECI KPAE 031325Z AUTO 00000KT 3SM -RA BR FEW005 BKN013 OVC021 08/07 A3007 RMK AO2 RAB04 P0000 T00830067=
202411031320 SPECI KPAE 031320Z AUTO 00000KT 2 1/2SM -RA BR FEW005 SCT009 OVC015 08/07 A3007 RMK AO2 RAB04 P0000 T00830067=
202411031312 SPECI KPAE 031312Z AUTO 00000KT 5SM -RA BR SCT007 BKN012 OVC020 08/07 A3007 RMK AO2 RAB04 P0000 T00830067=
202411031253 METAR KPAE 031253Z AUTO 00000KT 4SM BR BKN008 OVC024 09/07 A3006 RMK AO2 RAB34E50 SLP180 P0000 T00890067=
202411031153 METAR KPAE 031153Z AUTO 00000KT 10SM OVC009 08/07 A3003 RMK AO2 RAE23 SLP170 P0000 60000 T00830067 10089 20083 51014=
202411031149 SPECI KPAE 031149Z AUTO 00000KT 10SM OVC009 08/07 A3003 RMK AO2 RAE23 P0000=
202411031053 METAR KPAE 031053Z AUTO 16005KT 10SM -RA BKN012 OVC019 08/06 A3001 RMK AO2 RAB16 SLP163 P0000 T00830061=
202411030953 METAR KPAE 030953Z AUTO VRB03KT 10SM BKN014 OVC021 09/06 A2999 RMK AO2 SLP156 T00890061=
202411030942 SPECI KPAE 030942Z AUTO 14004KT 10SM BKN014 OVC022 09/06 A2998 RMK AO2 T00890061=
202411030853 METAR KPAE 030853Z AUTO VRB03KT 10SM OVC017 09/05 A2996 RMK AO2 SLP148 T00890050 52020=
202411030753 METAR KPAE 030753Z AUTO 14004KT 10SM OVC017 09/05 A2994 RMK AO2 SLP141 T00890050 401110078=
202411030653 METAR KPAE 030653Z AUTO 14003KT 10SM OVC024 09/05 A2992 RMK AO2 SLP134 T00890050=
202411030621 SPECI KPAE 030621Z AUTO VRB04KT 10SM BKN025 OVC041 09/06 A2991 RMK AO2 T00890056=
202411030553 METAR KPAE 030553Z AUTO 15007KT 10SM BKN041 BKN070 09/06 A2990 RMK AO2 SLP127 T00890056 10111 20089 53016=
202411030453 METAR KPAE 030453Z AUTO 15006KT 10SM BKN047 OVC055 09/06 A2989 RMK AO2 SLP122 T00890061=
202411030353 METAR KPAE 030353Z 17011KT 10SM SCT042 BKN075 OVC095 09/06 A2987 RMK AO2 SLP115 T00940061=
202411030253 METAR KPAE 030253Z 18010KT 10SM FEW039 BKN047 OVC060 09/05 A2985 RMK AO2 SLP111 T00940050 53008=
202411030153 METAR KPAE 030153Z 19010KT 10SM FEW070 OVC090 09/05 A2984 RMK AO2 SLP105 T00940050=
202411030053 METAR KPAE 030053Z 19008KT 10SM SCT018 BKN060 OVC080 11/07 A2984 RMK AO2 SLP105 T01060067=
202411022356 SPECI KPAE 022356Z 19005KT 10SM FEW019 OVC080 11/06 A2983 RMK AO2 T01060061=
202411022353 METAR KPAE 022353Z 19006KT 10SM BKN014 BKN032 11/06 A2983 RMK AO2 SLP102 T01060061 10111 20094 51010=
202411022253 METAR KPAE 022253Z 19010KT 10SM BKN013 BKN030 BKN120 11/06 A2982 RMK AO2 SLP099 T01110061=
202411022228 SPECI KPAE 022228Z 20007KT 10SM BKN013 BKN030 BKN120 11/06 A2982 RMK AO2 T01110061=
202411022153 METAR KPAE 022153Z 18008KT 10SM BKN020 BKN026 11/06 A2981 RMK AO2 SLP095 T01110061=
202411022100 SPECI KPAE 022100Z 16007KT 10SM BKN020 11/06 A2980 RMK AO2 T01110061=
202411022053 METAR KPAE 022053Z 16007KT 10SM BKN014 BKN037 11/06 A2980 RMK AO2 SLP091 T01110061 58001=
202411022041 SPECI KPAE 022041Z 16006KT 10SM BKN014 BKN037 11/06 A2980 RMK AO2 T01060061=
202411021953 METAR KPAE 021953Z 16008KT 10SM SCT015 BKN037 11/07 A2980 RMK AO2 SLP091 T01110067=
202411021951 SPECI KPAE 021951Z 16008KT 10SM SCT015 BKN037 11/07 A2980 RMK AO2=
202411021853 METAR KPAE 021853Z 23003KT 10SM BKN008 OVC019 09/07 A2981 RMK AO2 SLP096 T00940072=
202411021753 METAR KPAE 021753Z 17005KT 10SM BKN007 OVC047 10/07 A2980 RMK AO2 SLP093 60000 T01000072 10100 20078 51013=
202411021653 METAR KPAE 021653Z 00000KT 10SM BKN050 09/07 A2979 RMK AO2 SLP089 T00940067=
202411021553 METAR KPAE 021553Z 00000KT 10SM OVC046 09/06 A2978 RMK AO2 SLP086 T00890061=
202411021500 SPECI KPAE 021500Z 33005KT 10SM SCT004 SCT009 OVC040 09/07 A2977 RMK AO2 T00890072=
202411021453 METAR KPAE 021453Z 32004KT 10SM OVC007 09/07 A2976 RMK AO2 SLP080 60000 T00890072 53014=
202411021353 METAR KPAE 021353Z 30003KT 10SM OVC007 09/07 A2975 RMK AO2 CIG 003V011 SLP077 T00890072=
202411021321 SPECI KPAE 021321Z AUTO 28004KT 10SM BKN005 09/07 A2974 RMK AO2 CIG 003V009 T00890072=
202411021253 METAR KPAE 021253Z AUTO 29003KT 10SM FEW005 FEW048 08/07 A2973 RMK AO2 RAE10 SLP068 P0000 T00830067=
202411021245 SPECI KPAE 021245Z AUTO 32003KT 10SM FEW005 SCT029 BKN048 09/07 A2973 RMK AO2 RAE10 P0000 T00890072=
202411021225 SPECI KPAE 021225Z AUTO 27004KT 10SM SCT006 BKN028 OVC040 09/07 A2973 RMK AO2 RAE10 P0000 T00890072=
202411021215 SPECI KPAE 021215Z AUTO 28005KT 10SM BKN028 BKN044 OVC060 09/07 A2973 RMK AO2 RAE10 P0000 T00890072=
202411021153 METAR KPAE 021153Z AUTO 28006KT 10SM -RA SCT028 OVC048 09/07 A2972 RMK AO2 RAB49 SLP065 P0000 60001 70001 T00940072 10106 20094 53007=
202411021109 SPECI KPAE 021109Z AUTO 27005KT 10SM SCT006 BKN048 OVC060 09/08 A2971 RMK AO2 T00940078=
202411021102 SPECI KPAE 021102Z AUTO 27004KT 10SM BKN006 BKN021 OVC060 09/08 A2970 RMK AO2 CIG 004V010 T00940078=
202411021053 METAR KPAE 021053Z AUTO 27005KT 10SM SCT006 BKN021 OVC043 09/08 A2970 RMK AO2 SLP059 T00940078=
202411021006 SPECI KPAE 021006Z AUTO 25006KT 10SM SCT005 SCT028 OVC036 10/08 A2970 RMK AO2 T01000083=
202411020953 METAR KPAE 020953Z AUTO 27007KT 10SM BKN005 BKN013 OVC060 10/08 A2970 RMK AO2 RAE02 CIG 004V009 SLP059 P0000 T01000083=
202411020943 SPECI KPAE 020943Z AUTO 25006KT 10SM SCT006 BKN010 OVC060 10/08 A2970 RMK AO2 RAE02 P0000 T01000083=
202411020931 SPECI KPAE 020931Z AUTO 25007KT 10SM SCT004 BKN030 OVC060 10/08 A2970 RMK AO2 RAE02 P0000 T01000083=
202411020913 SPECI KPAE 020913Z AUTO 22006KT 10SM BKN004 OVC009 10/08 A2969 RMK AO2 RAE02 CIG 003V007 P0000 T01000083=
202411020853 METAR KPAE 020853Z AUTO 22007KT 10SM -RA BKN009 OVC014 10/08 A2969 RMK AO2 RAE18B51 CIG 004V011 SLP055 P0000 60001 T01000083 53009=
202411020806 SPECI KPAE 020806Z AUTO 20010KT 10SM -RA BKN008 OVC011 11/08 A2967 RMK AO2 CIG 004V011 P0000 T01060083=
202411020753 METAR KPAE 020753Z AUTO 18010KT 10SM -RA SCT006 BKN011 OVC019 10/08 A2967 RMK AO2 RAE04B44 SLP048 P0000 T01000083 401060078=
202411020719 SPECI KPAE 020719Z AUTO 16009KT 10SM SCT006 BKN011 OVC031 10/08 A2967 RMK AO2 RAE04 P0000 T01000083=
202411020653 METAR KPAE 020653Z AUTO 16008KT 10SM -RA SCT008 BKN019 OVC036 10/08 A2967 RMK AO2 RAB32 SLP047 P0001 T01000083=
202411020645 SPECI KPAE 020645Z AUTO 15008KT 8SM -RA SCT008 BKN019 OVC035 10/08 A2966 RMK AO2 RAB32 P0001 T01000083=
202411020630 SPECI KPAE 020630Z AUTO 15008KT 10SM BKN008 BKN033 OVC041 10/08 A2966 RMK AO2 T01000083=
202411020620 SPECI KPAE 020620Z AUTO 14007KT 10SM FEW006 SCT010 OVC031 10/08 A2966 RMK AO2 T01000078=
202411020553 METAR KPAE 020553Z AUTO 14008KT 10SM BKN033 OVC044 10/08 A2966 RMK AO2 SLP045 60000 T01000078 10106 20100 53009=
202411020502 SPECI KPAE 020502Z AUTO 14008KT 10SM FEW007 SCT015 SCT035 10/08 A2965 RMK AO2 T01000083=
202411020453 METAR KPAE 020453Z AUTO 14006KT 10SM FEW007 BKN015 10/08 A2965 RMK AO2 SLP041 T01000083=
202411020427 SPECI KPAE 020427Z AUTO 14007KT 10SM SCT007 BKN017 10/08 A2964 RMK AO2 T01000083=
202411020400 SPECI KPAE 020400Z AUTO 14008KT 10SM FEW008 SCT022 11/08 A2963 RMK AO2 T01060083=
202411020353 METAR KPAE 020353Z AUTO 15010KT 10SM BKN005 BKN030 OVC049 11/08 A2964 RMK AO2 RAE11 SLP037 P0000 T01060083=
202411020253 METAR KPAE 020253Z 14007KT 10SM -RA BKN005 BKN027 OVC065 10/08 A2963 RMK AO2 RAB28 SLP036 P0000 60000 T01000083 51012=
202411020153 METAR KPAE 020153Z 14007KT 10SM BKN007 BKN019 OVC070 11/08 A2963 RMK AO2 SLP034 T01060083=
202411020053 METAR KPAE 020053Z 15008KT 10SM BKN005 OVC022 11/08 A2961 RMK AO2 SLP028 T01060083=
202411020051 SPECI KPAE 020051Z 15007KT 10SM BKN005 OVC022 11/08 A2961 RMK AO2=
202411012353 METAR KPAE 012353Z 16008KT 10SM BKN021 OVC026 11/08 A2960 RMK AO2 RAE2255 SLP024 P0000 60000 T01060083 10106 20089 53007=
202411012337 SPECI KPAE 012337Z 17008KT 10SM SCT007 SCT011 OVC021 11/08 A2960 RMK AO2 RAE2255 P0000 T01060083=
202411012300 SPECI KPAE 012300Z 16008KT 10SM BKN005 OVC013 10/08 A2959 RMK AO2 RAE2255 CIG 003V008 P0000 T01000083=
202411012253 METAR KPAE 012253Z 17007KT 10SM -RA OVC004 10/08 A2959 RMK AO2 CIG 003V008 SLP020 P0000 T01000083=
202411012220 SPECI KPAE 012220Z 15008KT 9SM -RA BKN004 OVC009 10/08 A2958 RMK AO2 CIG 003V007 P0000 T01000083=
202411012153 METAR KPAE 012153Z 15007KT 8SM -RA BKN006 BKN024 OVC034 09/08 A2958 RMK AO2 RAB14 SLP018 P0000 T00940078=
202411012111 SPECI KPAE 012111Z 15009KT 5SM BR BKN006 BKN024 OVC034 09/07 A2958 RMK AO2 T00940072=
202411012100 SPECI KPAE 012100Z 14006KT 4SM BR FEW006 OVC017 09/07 A2958 RMK AO2 T00940072=
202411012053 METAR KPAE 012053Z VRB05KT 4SM BR BKN006 BKN024 OVC034 09/07 A2958 RMK AO2 RAE31 SLP017 P0000 60000 T00940072 55002=
202411012051 SPECI KPAE 012051Z VRB06KT 4SM BR BKN006 BKN024 OVC034 09/07 A2958 RMK AO2 RAE31 P0000=
202411011953 METAR KPAE 011953Z 15006KT 2 1/2SM -RA BR BKN008 OVC037 09/07 A2958 RMK AO2 SLP017 P0000 T00890072=
202411011916 SPECI KPAE 011916Z 15008KT 4SM -RA BR BKN008 OVC037 09/07 A2958 RMK AO2 P0000 T00890067=
202411011907 SPECI KPAE 011907Z 15006KT 6SM -RA BR SCT008 SCT030 OVC037 09/07 A2958 RMK AO2 P0000 T00940072=
202411011853 METAR KPAE 011853Z 14007KT 4SM -RA BR OVC035 09/07 A2958 RMK AO2 SLP019 P0000 T00890067=
202411011753 METAR KPAE 011753Z 14007KT 100V160 10SM -RA OVC039 09/06 A2958 RMK AO2 SLP019 P0000 60000 T00940061 10094 20078 58008=
202411011653 METAR KPAE 011653Z VRB05KT 10SM -RA BKN055 OVC070 08/06 A2960 RMK AO2 SLP024 P0000 T00830061=
202411011553 METAR KPAE 011553Z VRB06KT 10SM -RA SCT029 OVC040 08/06 A2960 RMK AO2 SLP026 P0000 T00830056=
202411011540 SPECI KPAE 011540Z 13005G15KT 10SM -RA BKN029 OVC040 08/06 A2960 RMK AO2 P0000 T00780056=
202411011453 METAR KPAE 011453Z AUTO 12007KT 10SM -RA OVC037 08/06 A2961 RMK AO2 SLP027 P0000 60000 T00780061 58018=
202411011353 METAR KPAE 011353Z AUTO VRB06G14KT 10SM -RA BKN035 OVC043 08/06 A2963 RMK AO2 SLP035 P0000 T00780056=
202411011253 METAR KPAE 011253Z AUTO VRB06KT 10SM -RA FEW025 BKN035 OVC042 08/06 A2966 RMK AO2 SLP045 P0000 T00780056 $=
202411011251 SPECI KPAE 011251Z AUTO 13007KT 100V170 10SM -RA FEW025 SCT030 OVC039 08/06 A2966 RMK AO2 P0000 $=
202411011243 SPECI KPAE 011243Z AUTO 14007KT 110V200 10SM -RA FEW020 BKN026 OVC044 08/06 A2967 RMK AO2 P0000 T00780056 $=
202411011153 METAR KPAE 011153Z AUTO 14010KT 9SM -RA FEW024 BKN034 OVC046 08/06 A2968 RMK AO2 SLP051 P0001 60002 70014 T00780056 10083 20078 58012=
202411011123 SPECI KPAE 011123Z AUTO 14011KT 8SM -RA FEW016 BKN033 OVC048 08/06 A2969 RMK AO2 P0000 T00780061=
202411011053 METAR KPAE 011053Z AUTO 15012G18KT 5SM -RA BR BKN018 BKN032 OVC045 08/06 A2969 RMK AO2 SLP056 P0001 T00780061=
202411010953 METAR KPAE 010953Z AUTO 14009G21KT 4SM -RA BR FEW020 BKN025 OVC033 08/06 A2970 RMK AO2 RAE20B37 SLP060 P0000 T00780056=
202411010930 SPECI KPAE 010930Z AUTO 14011G19KT 10SM BKN020 OVC044 08/06 A2971 RMK AO2 RAE20 P0000 T00830056=
202411010853 METAR KPAE 010853Z AUTO 14009G21KT 100V170 10SM -RA FEW029 BKN048 OVC060 08/06 A2971 RMK AO2 SLP063 P0000 60000 T00830056 56014=
202411010813 SPECI KPAE 010813Z AUTO 14007G16KT 100V230 10SM -RA SCT027 OVC036 08/06 A2972 RMK AO2 P0000 T00830056=
202411010753 METAR KPAE 010753Z AUTO 14008G16KT 10SM -RA BKN028 OVC040 08/06 A2972 RMK AO2 RAB0659 SLP067 P0000 T00830056 401170072=
202411010746 SPECI KPAE 010746Z AUTO 14009KT 10SM -RA OVC028 08/06 A2973 RMK AO2 RAB0659 P0000 T00830056=
202411010653 METAR KPAE 010653Z AUTO 14007KT 110V180 10SM OVC033 08/06 A2974 RMK AO2 RAE09B30E52 SLP070 P0000 T00830056=
202411010638 SPECI KPAE 010638Z AUTO VRB05KT 10SM -RA SCT028 OVC035 08/06 A2974 RMK AO2 RAE09B30 P0000 T00830061=
202411010553 METAR KPAE 010553Z AUTO 11010KT 4SM -RA BR BKN029 OVC039 08/06 A2975 RMK AO2 SLP077 P0003 60012 T00830061 10106 20083 56015=
202411010453 METAR KPAE 010453Z AUTO 11008KT 10SM -RA OVC039 08/06 A2976 RMK AO2 SLP079 P0000 T00830056=
202411010353 METAR KPAE 010353Z AUTO 14007KT 8SM -RA SCT030 BKN041 OVC050 08/06 A2978 RMK AO2 SLP088 P0004 T00830056=
202411010253 METAR KPAE 010253Z 15008KT 6SM RA SCT030 OVC035 09/06 A2980 RMK AO2 SLP093 P0005 60005 T00890061 56006=
202411010153 METAR KPAE 010153Z 16006KT 9SM -RA OVC038 09/06 A2980 RMK AO2 SLP094 P0000 T00940061=
202411010053 METAR KPAE 010053Z 18006KT 10SM -RA FEW040 BKN065 OVC085 10/05 A2981 RMK AO2 RAB43 SLP097 P0000 T01000050=

# No short TAF reports from KPAE in databse.

###################################
#  large TAF from KPAE
###################################
202411302320 TAF KPAE 302320Z 0100/0124 35003KT P6SM OVC080 FM010300 VRB03KT
                       P6SM SCT050 BKN200 FM011100 03003KT 4SM
                       BR BKN005 FM011700 01004KT P6SM BKN013 FM012000
                       31003KT P6SM SCT100=
202411301720 TAF KPAE 301720Z 3018/0118 15006KT P6SM SCT100 FM302200 18004KT
                       P6SM SCT050 BKN100 FM010300 VRB03KT P6SM
                       SCT050 BKN200 FM011100 03003KT 6SM BR BKN005
                       FM011500 33003KT 2SM BR BKN003 FM011700
                       01004KT P6SM BKN013=
202411301304 KPAE 301304Z 3013/0112 15006KT P6SM SCT015 BKN090 FM301900 16004KT
                       P6SM SCT015 BKN050 FM302200 18004KT P6SM
                       SCT035 BKN100 FM010300 VRB03KT P6SM SCT120
                       BKN200 FM011100 03003KT 6SM BR BKN005=
202411301126 TAF KPAE 301126Z 3012/0112 14004KT 6SM BR BKN011 OVC030 FM301900
                       16004KT P6SM SCT015 BKN040 FM302200 18004KT
                       P6SM SCT035 BKN100 FM010300 VRB03KT P6SM
                       SCT120 BKN200 FM011100 03003KT 6SM BR BKN005=
202411300802 KPAE 300802Z 3008/0106 VRB03KT P6SM SCT012 BKN100
                      TEMPO 3008/3012 BKN011 FM301200 13004KT 6SM
                       BR BKN010 OVC030 FM301900 16004KT 6SM BR
                       SCT010 BKN035 FM302300 18004KT P6SM SCT035
                       BKN050=
202411300621 KPAE 300621Z 3006/0106 VRB03KT P6SM BKN012 FM300800 13004KT 4SM
                       BR BKN010 OVC030 FM301900 16004KT 6SM BR
                       SCT010 BKN035 FM302300 18004KT P6SM SCT035
                       BKN050=
202411300520 TAF KPAE 300520Z 3006/0106 VRB03KT P6SM SCT030 SCT100 FM300800
                       13004KT 4SM BR BKN010 OVC030 FM301900 16004KT
                       6SM BR SCT010 BKN035 FM302300 18004KT P6SM
                       SCT035 BKN050=
202411292320 KPAE 292320Z 2923/3024 17008KT P6SM SCT020 FM300100 13003KT P6SM
                       BKN045 FM300800 13004KT 4SM BR BKN009 OVC027
                       FM301900 19004KT 2SM BR BKN020 FM302300
                       08004KT P6SM BKN050=
202411291957 KPAE 291957Z 2920/3018 15005KT 6SM HZ SCT011 FM292100 17006KT P6SM
                       FEW005 OVC020 FM300100 13003KT P6SM OVC045
                       FM300800 13004KT 4SM BR OVC027 FM301400
                       18004KT 1/4SM FG OVC003 FM301700 19004KT
                       2SM BR OVC006=
202411291936 KPAE 291936Z 2920/3018 15005KT 5SM HZ BKN009 FM292100 17006KT 6SM
                       BR FEW005 OVC020 FM300100 13003KT P6SM OVC045
                       FM300800 13004KT 4SM BR OVC027 FM301400
                       18004KT 1/4SM FG OVC003 FM301700 19004KT
                       2SM BR OVC006=
202411291851 KPAE 291851Z 2919/3018 15005KT 3SM BR BKN005 FM292000 17006KT 6SM
                       BR FEW005 OVC020 FM300100 13003KT P6SM OVC045
                       FM300800 13004KT 4SM BR OVC027 FM301400
                       18004KT 1/4SM FG OVC003 FM301700 19004KT
                       2SM BR OVC006=
202411291752 KPAE 291752Z 2918/3018 15005KT 1SM BR BKN005 FM292000 17006KT 6SM
                       BR FEW005 OVC020 FM300100 13003KT P6SM OVC045
                       FM300800 13004KT 4SM BR OVC027 FM301400
                       18004KT 1/4SM FG OVC003 FM301700 19004KT
                       2SM BR OVC006=
202411291720 TAF KPAE 291720Z 2918/3018 15005KT 2SM BR BKN001 FM292000 17006KT
                       6SM BR FEW005 OVC020 FM300100 13003KT P6SM
                       OVC045 FM300800 13004KT 4SM BR OVC027 FM301400
                       18004KT 1/4SM FG OVC003 FM301700 19004KT
                       2SM BR OVC006=
202411291530 KPAE 291530Z 2916/3012 15005KT 1SM BR BKN003 OVC010 FM291900 16005KT
                       2SM BR OVC004 FM292200 17006KT P6SM FEW005
                       OVC020 FM300100 13003KT 6SM BR OVC030 FM300600
                       13004KT 4SM BR OVC003=
202411291120 TAF KPAE 291120Z 2912/3012 15003KT 1/4SM FG VV001 FM291900 16005KT
                       2SM BR OVC004 FM292200 17006KT P6SM FEW005
                       OVC020 FM300100 13003KT 6SM BR OVC030 FM300600
                       13004KT 4SM BR OVC003=
202411290520 TAF KPAE 290520Z 2906/3006 VRB03KT 5SM BR SCT006 SCT250 FM290700
                       14003KT 3SM BR BKN010 FM291300 15004KT P6SM
                       FEW005 BKN022
                      TEMPO 2913/2917 1SM BR OVC005 FM292200 17006KT
                       P6SM BKN035 FM300100 13003KT 6SM BR OVC030=
202411282320 TAF KPAE 282320Z 2900/2924 35003KT P6SM SCT250 FM290700 14003KT
                       P6SM BKN027 FM291300 15004KT P6SM FEW005
                       BKN022 FM292200 17006KT P6SM BKN035=
202411282057 KPAE 282057Z 2821/2918 31003KT P6SM SCT030 OVC040 FM290000 35003KT
                       P6SM BKN045 FM290700 14003KT P6SM BKN035
                       FM291400 15004KT P6SM FEW005 BKN035=
202411281721 TAF KPAE 281721Z 2818/2918 00000KT P6SM SCT025 FM282000 31003KT
                       P6SM BKN030 OVC040 FM290000 35003KT P6SM
                       BKN045 FM290700 14003KT P6SM BKN035 FM291400
                       15004KT P6SM FEW005 BKN035=
202411281120 TAF KPAE 281120Z 2812/2912 10004KT P6SM FEW045 FM281500 12002KT
                       1/4SM FG SCT001 OVC025 FM281800 18004KT
                       P6SM OVC025 FM290000 31003KT P6SM BKN030
                       OVC040=
202411280539 TAF KPAE 280539Z 2806/2906 00000KT P6SM SCT045 FM280700 VRB02KT
                       P6SM BKN035 FM281200 10002KT 6SM BR SCT025
                       OVC035 FM281500 12002KT 1/4SM FG SCT001
                       OVC025 FM281800 18004KT P6SM OVC025 FM290000
                       31003KT P6SM BKN030 OVC040=
202411272323 TAF KPAE 272323Z 2800/2824 VRB03KT P6SM SCT015 FM280700 VRB02KT
                       P6SM OVC030 FM281200 10002KT 6SM BR SCT025
                       OVC035 FM281500 12002KT 1/4SM FG SCT001
                       OVC025 FM281800 30002KT P6SM OVC025=
202411271938 KPAE 271938Z 2720/2818 00000KT P6SM BKN004 BKN030 FM272100 32003KT
                       P6SM OVC040 FM280000 35005KT P6SM OVC035
                       FM281200 10002KT 6SM BR SCT025 OVC035 FM281500
                       12002KT 1/4SM FG SCT001 OVC025=
202411271821 KPAE 271821Z 2718/2818 00000KT P6SM BKN030 OVC060
                      TEMPO 2718/2719 BKN004 FM272100 32003KT P6SM
                       OVC040 FM280000 35005KT P6SM OVC035 FM281200
                       10002KT 6SM BR SCT025 OVC035 FM281500 12002KT
                       1/4SM FG SCT001 OVC025=
202411271733 TAF KPAE 271733Z 2718/2818 00000KT P6SM SCT024 SCT040 OVC060 FM272100
                       32003KT P6SM OVC040 FM280000 35005KT P6SM
                       OVC035 FM281200 10002KT 6SM BR SCT025 OVC035
                       FM281500 12002KT 1/4SM FG SCT001 OVC025=
202411271120 TAF KPAE 271120Z 2712/2812 16005KT P6SM FEW030 OVC050 FM271400
                       00000KT 5SM BR OVC030 FM272100 32003KT P6SM
                       OVC028 FM280000 35005KT P6SM OVC035=
202411270520 TAF KPAE 270520Z 2706/2806 16003KT P6SM SCT030 OVC045 FM270900
                       12003KT 6SM BR SCT025 OVC030 FM271200 16005KT
                       4SM BR OVC025 FM272100 23003KT P6SM OVC028=
202411270254 KPAE 270254Z 2703/2724 11003KT 6SM BR BKN030 OVC045 FM270600 14003KT
                       4SM BR SCT025 OVC030 FM271200 16005KT 6SM
                       BR OVC025 FM272100 23003KT P6SM OVC028=
202411262330 TAF KPAE 262330Z 2700/2724 34003KT P6SM SCT015 OVC030 FM270200
                       05003KT 6SM BR SCT030 BKN040 FM270600 14003KT
                       4SM BR SCT025 OVC030 FM271200 16005KT 6SM
                       BR OVC025 FM272100 23003KT P6SM OVC028=
202411261725 TAF KPAE 261725Z 2618/2718 33003KT P6SM BKN035 OVC060 FM270200
                       08003KT 6SM BR SCT030 BKN040 FM270600 14003KT
                       4SM BR SCT025 OVC030 FM271200 16005KT 6SM
                       BR OVC025=
202411261120 TAF KPAE 261120Z 2612/2712 35004KT P6SM BKN030 OVC040 FM261900
                       00000KT P6SM SCT004 BKN008 OVC015 FM262200
                       VRB03KT P6SM SCT008 BKN015 OVC025 FM270200
                       VRB03KT 4SM BR OVC020=
202411260531 TAF KPAE 260531Z 2606/2706 35004KT 2SM BR VCSH OVC002 FM261900
                       00000KT P6SM SCT004 BKN008 OVC015 FM262200
                       VRB03KT P6SM SCT008 BKN015 OVC025 FM270200
                       VRB03KT 4SM BR OVC020=
202411252330 TAF KPAE 252330Z 2600/2624 00000KT 1SM BR BKN002 OVC004 FM260200
                       00000KT 3SM BR SCT002 BKN004 OVC015 FM260500
                       00000KT P6SM SCT006 BKN015 OVC025 FM261200
                       00000KT 4SM BR OVC004 FM261800 00000KT P6SM
                       SCT004 BKN008 OVC015 FM262100 00000KT P6SM
                       SCT008 BKN015 OVC025=
202411251741 TAF KPAE 251741Z 2518/2618 12004KT 2SM -RA BKN006 OVC012 FM252100
                       00000KT P6SM SCT006 BKN012 OVC020 FM252300
                       00000KT P6SM SCT015 BKN025 OVC040 FM260200
                       00000KT P6SM SCT025 OVC040 FM261200 00000KT
                       4SM BR OVC004=
202411251602 KPAE 251602Z 2516/2612 12006KT 2SM -RA BKN004 OVC020 FM251800 12006KT
                       P6SM -SHRA SCT006 BKN020 OVC035=
202411251138 TAF KPAE 251138Z 2512/2612 00000KT P6SM -SHRA OVC035 FM251400 14006KT
                       6SM -RA BR OVC025 FM251900 15005KT P6SM
                       -SHRA SCT015 OVC025=
202411250531 TAF KPAE 250531Z 2506/2606 11005KT P6SM -SHRA OVC035 FM250900 14006KT
                       6SM -RA BR OVC025 FM251900 15005KT P6SM
                       -SHRA SCT015 OVC025=
202411242331 TAF KPAE 242331Z 2500/2524 12006KT P6SM OVC035 FM250900 12006KT
                       P6SM -RA OVC025 FM251900 14006KT P6SM SCT025
                       OVC035=
202411241732 TAF KPAE 241732Z 2418/2518 12006KT P6SM -RA OVC025
                      TEMPO 2418/2420 4SM -RA FM242000 12006KT
                       P6SM OVC025 FM250000 12006KT P6SM -RA OVC021=
202411241130 TAF KPAE 241130Z 2412/2512 12004KT P6SM -RA SCT040 OVC070 FM241400
                       12004KT P6SM -RA OVC040 FM241800 14007KT
                       P6SM -RA OVC025 FM250900 13007KT P6SM -RA
                       OVC015=
202411240520 TAF KPAE 240520Z 2406/2506 14007KT P6SM SCT035 BKN050 FM241200
                       14008KT P6SM -SHRA BKN022 OVC035 FM250000
                       10005KT 6SM -SHRA BR OVC015=
202411232335 TAF KPAE 232335Z 2400/2424 16012G20KT P6SM SCT035 BKN050 FM240800
                       14010KT P6SM BKN050 FM241300 14010KT P6SM
                       -SHRA BKN022 OVC035=
202411231748 TAF KPAE 231748Z 2318/2418 16010KT P6SM BKN035 BKN150
                      TEMPO 2320/2323 -SHRA BKN025 BKN035 FM240400
                       16008KT P6SM BKN050 FM241000 10006KT P6SM
                       BKN050 FM241600 10006KT P6SM -SHRA BKN022
                       OVC035=
202411231123 TAF KPAE 231123Z 2312/2412 14008KT P6SM SCT045 FM231800 16011KT
                       P6SM OVC040 FM232200 17009KT P6SM -SHRA
                       BKN035 OVC050 FM240400 14008KT P6SM -SHRA
                       BKN030=
202411230532 TAF KPAE 230532Z 2306/2406 16013G22KT P6SM VCSH BKN040 FM231200
                       14009KT P6SM OVC040 FM231800 16011KT P6SM
                       VCSH OVC030 FM232200 17009KT P6SM -SHRA
                       BKN035 OVC050 FM240400 14008KT P6SM BKN030=
202411222323 TAF KPAE 222323Z 2300/2324 16015G25KT P6SM VCSH OVC050
                      TEMPO 2300/2303 18025G34KT -SHRA OVC030 FM230400
                       16013G22KT P6SM VCSH BKN040 FM231200 14009KT
                       P6SM OVC040 FM231800 16012KT P6SM VCSH OVC030=
202411221721 TAF KPAE 221721Z 2218/2318 VRB03KT 4SM -RA BR OVC040 FM222000 16015G25KT
                       P6SM -SHRA SCT020 OVC035 FM230400 16012KT
                       P6SM VCSH BKN040 FM231200 14009KT P6SM OVC040=
202411221407 KPAE 221407Z 2214/2312 10011G19KT P6SM -RA BKN070 OVC090 FM221600
                       16012G18KT P6SM -RA OVC030 FM222100 16015G25KT
                       P6SM -SHRA BKN022 OVC035 FM230400 16009KT
                       P6SM VCSH BKN050=
202411221120 TAF KPAE 221120Z 2212/2312 02003KT P6SM FEW070 OVC100 FM221300
                       03006KT P6SM -RA OVC060 FM221600 16012G18KT
                       P6SM -RA OVC030 FM222100 16015G25KT P6SM
                       -SHRA BKN022 OVC035 FM230400 16009KT P6SM
                       VCSH BKN050=
202411220540 TAF KPAE 220540Z 2206/2306 10007KT P6SM OVC050 FM221200 04007KT
                       P6SM -RA OVC035 FM221600 16012G18KT P6SM
                       -RA OVC030 FM222100 16015G25KT P6SM -SHRA
                       BKN022 OVC035 FM230400 16009KT P6SM VCSH
                       BKN050=
202411212338 TAF KPAE 212338Z 2200/2224 23003KT 6SM -RA BKN020 OVC040 FM220500
                       04006KT P6SM OVC050 FM221100 03007KT P6SM
                       -RA OVC040 FM221600 16014G23KT P6SM -RA
                       OVC050=
202411211738 TAF KPAE 211738Z 2118/2218 14006KT P6SM OVC050 FM212200 16007KT
                       P6SM -SHRA OVC040 FM220500 04006KT P6SM
                       OVC050 FM221100 03007KT P6SM -RA OVC040
                       FM221600 16014G23KT P6SM -RA OVC050=
202411211120 TAF KPAE 211120Z 2112/2212 16004KT P6SM VCSH BKN060 OVC080 FM211400
                       14006KT P6SM OVC050 FM212200 16007KT P6SM
                       -SHRA OVC040 FM220500 04006KT P6SM OVC050
                       FM221100 03007KT P6SM -RA OVC040=
202411210535 TAF KPAE 210535Z 2106/2206 13007KT P6SM BKN050 FM211400 14006KT
                       P6SM OVC050 FM212200 16007KT P6SM VCSH BKN035
                       FM220500 04006KT P6SM OVC050=
202411202323 TAF KPAE 202323Z 2100/2124 16006KT P6SM FEW060 BKN080 OVC100 FM210300
                       14012KT P6SM VCSH BKN040 FM211300 04005KT
                       P6SM BKN050 OVC100 FM211800 14006KT P6SM
                       OVC050=
202411201443 KPAE 201443Z 2015/2112 12017G27KT P6SM -SHRA OVC060 FM201900 12011G18KT
                       P6SM -SHRA OVC035 FM210300 14012KT P6SM
                       VCSH BKN040=
202411201120 TAF KPAE 201120Z 2012/2112 12008G17KT P6SM -RA OVC035 FM201300
                       12012G22KT P6SM -RA OVC025 FM201900 12011G18KT
                       P6SM -SHRA OVC035 FM210300 14012KT P6SM
                       VCSH BKN040=
202411200903 KPAE 200903Z 2009/2106 12007KT P6SM -RA OVC050 FM201300 12012G22KT
                       P6SM -RA OVC025 FM201900 12011G18KT P6SM
                       -SHRA OVC027 FM210300 14012KT P6SM VCSH
                       BKN040=
202411200535 TAF KPAE 200535Z 2006/2106 11017G27KT P6SM -RA OVC025 WS020/15055KT
                       FM200900 12015G25KT P6SM -RA OVC022 FM201300
                       12012G22KT P6SM -RA OVC025 FM201900 12011G18KT
                       P6SM -SHRA OVC027 FM210300 14012KT P6SM
                       VCSH BKN040=
202411200345 KPAE 200345Z 2004/2024 11017G27KT P6SM -RA OVC015 WS020/15055KT
                       FM200700 12015G25KT P6SM -RA OVC050 FM201100
                       12015G25KT P6SM -RA OVC025 FM201900 12014G25KT
                       P6SM -RA OVC035=
202411192329 TAF KPAE 192329Z 2000/2024 12010G25KT P6SM OVC070 WS020/15055KT
                       FM200300 11017G27KT P6SM -SHRA OVC060 WS020/15055KT
                       FM200700 12015G25KT P6SM -RA OVC050 FM201100
                       12015G25KT P6SM -RA OVC025 FM201900 12014G25KT
                       P6SM -RA OVC035=
202411191741 TAF KPAE 191741Z 1918/2018 11010KT P6SM OVC050 FM192200 10014G23KT
                       P6SM OVC070 FM200000 11016G25KT P6SM OVC070
                       WS020/15055KT FM200300 11017G27KT P6SM -SHRA
                       OVC060 FM200700 12015G25KT P6SM -RA OVC050
                       FM201100 12015G23KT P6SM -RA OVC025=
202411191127 TAF KPAE 191127Z 1912/2012 15012KT 6SM -SHRA OVC007 FM191400 14009KT
                       P6SM OVC035 FM191800 11010KT P6SM OVC050
                       FM192200 10014G23KT P6SM OVC070 FM200300
                       11017G27KT P6SM -SHRA OVC060 FM200700 12015G25KT
                       P6SM -RA OVC050=
202411190520 TAF KPAE 190520Z 1906/2006 16009KT P6SM FEW020 SCT040 OVC110 FM190800
                       15010KT P6SM -SHRA OVC015 FM191800 11010KT
                       P6SM OVC050 FM200000 11015G25KT P6SM OVC060=
202411182320 TAF KPAE 182320Z 1900/1924 17010KT P6SM BKN015 BKN050 FM190300
                       16009KT P6SM VCSH OVC025 FM190800 15010KT
                       P6SM -SHRA OVC015 FM191800 11010KT P6SM
                       OVC050=
202411181815 TAF KPAE 181815Z 1818/1918 19007KT P6SM VCSH SCT020 OVC035 FM182300
                       17010KT P6SM VCSH OVC050 FM190300 16009KT
                       P6SM VCSH OVC025 FM190800 15010KT P6SM -SHRA
                       OVC015=
202411181731 TAF KPAE 181731Z 1818/1918 19007KT P6SM VCSH SCT020 OVC035 FM182300
                       17010KT P6SM VCSH OVC050 FM190300 16009KT
                       P6SM VCSH OVC025 FM190800 15010KT P6SM -SHRA
                       OVC015=
202411181418 KPAE 181418Z 1814/1912 21010KT P6SM -SHRA BKN040 FM181800 19007KT
                       P6SM VCSH SCT020 OVC035 FM182300 17010KT
                       P6SM OVC050 FM190300 16009KT P6SM OVC025
                       FM190800 15008KT P6SM -SHRA OVC020=
202411181120 TAF KPAE 181120Z 1812/1912 21010KT P6SM -SHRA OVC010 FM181800 19007KT
                       P6SM VCSH SCT020 OVC035 FM182300 17010KT
                       P6SM OVC050 FM190300 16009KT P6SM OVC025
                       FM190800 15008KT P6SM -SHRA OVC020=
202411180929 KPAE 180929Z 1809/1906 16012KT P6SM VCSH BKN015 OVC020 FM181200
                       21006KT P6SM -SHRA OVC015 FM181700 19007KT
                       P6SM VCSH SCT020 OVC035 FM182300 17010KT
                       P6SM OVC040 FM190300 16009KT P6SM OVC025=
202411180526 TAF KPAE 180526Z 1806/1906 14005KT P6SM VCSH OVC007 FM181200 21006KT
                       P6SM -SHRA OVC015 FM181700 19007KT P6SM
                       VCSH SCT020 OVC035 FM182300 17010KT P6SM
                       OVC040 FM190300 16009KT P6SM OVC025=
202411180055 KPAE 180055Z 1801/1824 VRB05KT 5SM -RA BR BKN010 OVC030
                      TEMPO 1801/1804 1SM -RA BR BKN005 OVC010
                       FM180500 18005KT P6SM -SHRA OVC025 FM181200
                       21006KT P6SM OVC015
                      PROB30 1812/1815 P6SM -RA FM182000 19007KT
                       P6SM OVC040=
202411172320 TAF KPAE 172320Z 1800/1824 VRB05KT 5SM -RA BR BKN005 BKN010 OVC020
                       FM180500 18005KT P6SM -SHRA OVC025 FM181200
                       21006KT P6SM OVC015
                      PROB30 1812/1815 P6SM -RA FM182000 19007KT
                       P6SM OVC040=
202411172154 KPAE 172154Z 1722/1818 30006G17KT 2SM RA BR OVC002 FM180000 32005KT
                       5SM -RA BR OVC020 FM180500 18005KT P6SM
                       -SHRA OVC025=
202411171720 TAF KPAE 171720Z 1718/1818 19009G20KT P6SM -SHRA OVC008 FM172000
                       30006KT 5SM -RA BR OVC020 FM180500 18005KT
                       P6SM -SHRA OVC025=
202411171443 KPAE 171443Z 1715/1812 19009KT P6SM -SHRA FEW006 OVC010 FM172000
                       28006KT 5SM -RA BR OVC020 FM180500 VRB05KT
                       P6SM -SHRA OVC025=
202411171140 TAF KPAE 171140Z 1712/1812 25010G22KT 4SM -RA BR OVC003 FM171500
                       19009KT 6SM -SHRA BR OVC010 FM172000 28006KT
                       5SM -RA BR OVC020 FM180300 VRB05KT P6SM
                       -SHRA OVC025=
202411170520 TAF KPAE 170520Z 1706/1806 15015G26KT P6SM -SHRA OVC006 FM171100
                       17009KT 6SM -RA BR OVC015 FM172000 23005KT
                       5SM -RA BR OVC020 FM180300 17006KT P6SM
                       -SHRA OVC025=
202411170058 KPAE 170058Z 1701/1724 16014KT 2SM -RA BR OVC006 FM170300 15014G26KT
                       5SM -RA BR SCT007 OVC020 FM171000 17008KT
                       P6SM -RA OVC015 FM172100 18005KT 4SM RA
                       OVC007=
202411170000 KPAE 170000Z 1700/1724 16014G23KT P6SM -RA OVC025 FM170300 15014G26KT
                       5SM -RA BR OVC020 FM171000 17008KT P6SM
                       -RA OVC015 FM172100 18005KT 4SM RA OVC007=
202411162348 TAF KPAE 162348Z 1700/1724 16014G23KT P6SM -RA OVC025 FM170300
                       15014G26KT 5SM -RA BR OVC020 FM171000 17008KT
                       P6SM -RA OVC015 FM172100 18005KT 4SM RA
                       OVC007=
202411162139 KPAE 162139Z 1622/1718 15010G20KT 6SM -RA OVC015 FM170100 16014G23KT
                       4SM -RA BR OVC015 FM170300 15014G26KT 6SM
                       -RA BR OVC009 FM171000 17008KT 6SM -RA OVC010=
202411161746 TAF KPAE 161746Z 1618/1718 VRB04KT P6SM VCSH OVC035 FM162000 15007KT
                       P6SM -RA OVC035 FM162200 15010KT 6SM -RA
                       OVC015 FM170100 16014G23KT 4SM -RA BR OVC015
                       FM170300 15014G26KT 6SM -RA BR OVC009 FM171000
                       17008KT 6SM -RA OVC010=
202411161127 TAF KPAE 161127Z 1612/1712 14006KT P6SM OVC050 FM161800 14011KT
                       P6SM -RA OVC035 FM162200 16014G23KT 4SM
                       -RA BR OVC015 FM170300 15014G26KT 6SM -RA
                       BR OVC009=
202411160521 TAF KPAE 160521Z 1606/1706 VRB03KT P6SM SCT050 BKN200 FM160900
                       14006KT P6SM OVC050 FM161800 14011G21KT
                       P6SM -RA OVC050 FM162200 16014G23KT 4SM
                       -RA BR OVC015=
202411152331 TAF KPAE 152331Z 1600/1624 33004KT P6SM BKN050 FM160300 VRB03KT
                       P6SM SCT050 BKN200 FM160900 14006KT P6SM
                       OVC050 FM161800 14011G21KT P6SM -RA OVC050
                       FM162200 14012G21KT 4SM -RA BR OVC015=
202411151744 TAF KPAE 151744Z 1518/1618 33004KT P6SM BKN050 FM160300 VRB03KT
                       P6SM SCT050 BKN200 FM160900 14006KT P6SM
                       OVC050=
202411151439 KPAE 151439Z 1515/1612 VRB03KT P6SM BKN018 BKN060 FM151800 33004KT
                       P6SM SCT035 BKN050 FM160300 VRB03KT P6SM
                       SCT050 BKN200 FM160900 14006KT P6SM OVC050=
202411151120 TAF KPAE 151120Z 1512/1612 VRB03KT P6SM FEW015 BKN030 BKN060 FM151800
                       33004KT P6SM SCT035 BKN050 FM160300 VRB03KT
                       P6SM SCT050 BKN200 FM160900 14006KT P6SM
                       OVC050=
202411150810 KPAE 150810Z 1508/1606 VRB03KT P6SM OVC020 FM152000 33004KT P6SM
                       SCT025 BKN050 FM160300 VRB03KT P6SM SCT050
                       BKN250=
202411150522 TAF KPAE 150522Z 1506/1606 14004KT P6SM VCSH SCT022 OVC040 FM151000
                       25003KT P6SM OVC020 FM152000 33004KT P6SM
                       SCT025 BKN050 FM160300 VRB03KT P6SM SCT050
                       BKN250=
202411150225 KPAE 150225Z 1502/1524 01005KT P6SM -RA SCT007 OVC030 FM150400
                       18005KT P6SM -SHRA BKN015 OVC035 FM150700
                       18004KT P6SM VCSH BKN022 OVC035 FM151100
                       25003KT P6SM BKN022 OVC035 FM152000 33004KT
                       P6SM BKN050=
202411142348 TAF KPAE 142348Z 1500/1524 VRB05KT P6SM -RA BKN007 OVC015 FM150400
                       18005KT P6SM -SHRA BKN015 OVC035 FM150700
                       18004KT P6SM VCSH BKN022 OVC035 FM151100
                       25003KT P6SM BKN022 OVC035 FM152000 33004KT
                       P6SM BKN050=
202411141740 TAF KPAE 141740Z 1418/1518 19011KT P6SM -SHRA BKN008 OVC020 FM142100
                       VRB05KT P6SM -RA BKN007 OVC015 FM150400
                       18005KT P6SM -SHRA BKN015 OVC035 FM150700
                       18004KT P6SM VCSH BKN022 OVC035 FM151100
                       25003KT P6SM BKN022 OVC035=
202411141120 TAF KPAE 141120Z 1412/1512 17014G22KT P6SM -SHRA BKN020 OVC035
                       FM141700 19011KT P6SM -SHRA BKN020 OVC040
                       FM142300 22008KT P6SM -SHRA BKN028 OVC040
                       FM150400 18005KT P6SM VCSH BKN022 OVC035=
202411141028 KPAE 141028Z 1410/1506 16014G21KT P6SM -SHRA BKN035 OVC050 FM141200
                       16012G18KT P6SM -SHRA OVC025 FM141700 19010KT
                       P6SM -SHRA BKN020 OVC040 FM142300 22008KT
                       P6SM -SHRA BKN028 OVC040=
202411140903 KPAE 140903Z 1409/1506 16012KT P6SM -SHRA BKN035 OVC050 FM141200
                       16012KT P6SM -SHRA OVC025 FM141700 19010KT
                       P6SM -SHRA BKN020 OVC040 FM142300 22008KT
                       P6SM -SHRA BKN028 OVC040=
202411140520 TAF KPAE 140520Z 1406/1506 16011KT P6SM -RA SCT040 OVC050 FM140800
                       20010G20KT P6SM -SHRA OVC018 FM141700 19010KT
                       P6SM -SHRA BKN012 OVC018 FM142300 10008KT
                       P6SM -SHRA BKN028 OVC040=
202411132322 TAF KPAE 132322Z 1400/1424 19015G25KT P6SM -RA OVC025 FM140300
                       21011G25KT P6SM -SHRA SCT015 BKN022 OVC030
                       FM140800 20010G20KT P6SM -SHRA OVC018 FM141700
                       19010KT P6SM -SHRA BKN012 OVC018 FM142300
                       10008KT P6SM -SHRA BKN028 OVC040=
202411132200 KPAE 132200Z 1322/1418 17017G22KT 6SM -RA FEW010 BKN050 BKN070
                       TEMPO 1322/1324 OVC005 FM140000 19015G25KT
                       P6SM -SHRA SCT025 BKN035 OVC050 FM140800
                       20010G20KT P6SM -SHRA OVC022 FM141700 19010KT
                       P6SM -SHRA SCT018 OVC025=
202411132159 KPAE 132159Z 1322/1418 17017G22KT 6SM -RA FEW010 BKN050 BKN070
                       TEMPO 1322/1324 2SM RA BR OVC005 FM140000
                       19015G25KT P6SM -SHRA SCT025 BKN035 OVC050
                       FM140800 20010G20KT P6SM -SHRA OVC022 FM141700
                       19010KT P6SM -SHRA SCT018 OVC025=
202411132107 KPAE 132107Z 1321/1418 17017G22KT 6SM -RA FEW010 BKN050 BKN070
                       TEMPO 1321/1322 2SM RA BKN020 FM132200 19015G25KT
                       P6SM -SHRA SCT025 BKN035 OVC050 FM140800
                       20010G20KT P6SM -SHRA OVC022 FM141700 19010KT
                       P6SM -SHRA SCT018 OVC025=
202411132056 KPAE 132056Z 1321/1418 17017G22KT 6SM -RA FEW010 BKN050 BKN070
                       FM132200 19015G25KT P6SM -SHRA SCT025 BKN035
                       OVC050 FM140800 20010G20KT P6SM -SHRA OVC022
                       FM141700 19010KT P6SM -SHRA SCT018 OVC025=
202411132037 KPAE 132037Z 1321/1418 17017G22KT P6SM -SHRA FEW010 SCT050 BKN060
                       FM132200 19015G25KT P6SM -SHRA SCT025 BKN035
                       OVC050 FM140800 20010G20KT P6SM -SHRA OVC022
                       FM141700 19010KT P6SM -SHRA SCT018 OVC025=
202411131919 KPAE 131919Z 1319/1418 17017G22KT P6SM -SHRA SCT004 BKN030 FM132200
                       19015G25KT P6SM -SHRA SCT025 BKN035 OVC050
                       FM140800 20010G20KT P6SM -SHRA OVC022 FM141700
                       19010KT P6SM -SHRA SCT018 OVC025=
202411131804 KPAE 131804Z 1318/1418 17017G22KT P6SM -SHRA SCT006 BKN030 FM132000
                       19015G25KT P6SM -SHRA SCT025 BKN035 OVC050
                       FM140800 20010G20KT P6SM -SHRA OVC022 FM141700
                       19010KT P6SM -SHRA SCT018 OVC025=
202411131722 TAF KPAE 131722Z 1318/1418 17017G22KT P6SM -SHRA FEW030 SCT040
                       OVC050 FM132000 19015G25KT P6SM -SHRA SCT025
                       BKN035 OVC050 FM140800 20010G20KT P6SM -SHRA
                       OVC022 FM141700 19010KT P6SM -SHRA SCT018
                       OVC025=
202411131625 KPAE 131625Z 1316/1412 17017G27KT P6SM -SHRA FEW030 SCT040 OVC050
                       TEMPO 1316/1317 3SM RA FM132000 19015KT
                       P6SM -SHRA SCT025 BKN035 OVC050 FM140400
                       19012KT P6SM -SHRA SCT015 BKN022 OVC030=
202411131527 KPAE 131527Z 1315/1412 17017G27KT P6SM -SHRA FEW030 SCT040 OVC050
                       FM132000 19015KT P6SM -SHRA SCT025 BKN035
                       OVC050 FM140400 19012KT P6SM -SHRA SCT015
                       BKN022 OVC030=
202411131300 KPAE 131300Z 1313/1412 15010KT 6SM -RA BR BKN020 OVC030 WS020/18045KT
                       FM131500 17017G27KT P6SM -SHRA BKN025 OVC035
                       FM132000 19015KT P6SM -SHRA SCT025 BKN035
                       OVC050 FM140400 19012KT P6SM -SHRA SCT015
                       BKN022 OVC030=
202411131259 KPAE 131259Z 1313/1412 15010KT 6SM -RA BR OVC030 WS020/18045KT
                       FM131500 17017G27KT P6SM -SHRA BKN025 OVC035
                       FM132000 19015KT P6SM -SHRA SCT025 BKN035
                       OVC050 FM140400 19012KT P6SM -SHRA SCT015
                       BKN022 OVC030=
202411131124 TAF KPAE 131124Z 1312/1412 15015G25KT 6SM -RA BR OVC030 WS020/18045KT
                       FM131500 17017G27KT P6SM -SHRA BKN025 OVC035
                       FM132000 19015KT P6SM -SHRA SCT025 BKN035
                       OVC050 FM140400 19012KT P6SM -SHRA SCT015
                       BKN022 OVC030=
202411130530 TAF KPAE 130530Z 1306/1406 14012KT P6SM -RA OVC040 FM130900 15020G30KT
                       6SM RA BR OVC030 WS020/18045KT FM131500
                       19020G30KT P6SM -SHRA BKN025 OVC035 FM132000
                       19015KT P6SM -SHRA SCT025 BKN035 OVC050
                       FM140300 19012KT P6SM -SHRA SCT015 BKN022
                       OVC030=
202411130320 KPAE 130320Z 1303/1324 16015G25KT P6SM -RA OVC040 FM130800 16020G40KT
                       6SM -RA BR OVC025 WS020/18045KT FM131500
                       20020G35KT P6SM -RA OVC018 FM132300 20015G30KT
                       P6SM -RA OVC021=
202411122320 TAF KPAE 122320Z 1300/1324 16015G25KT P6SM VCSH SCT030 OVC040 FM130300
                       15018G28KT 6SM RA BR OVC030 WS020/18045KT
                       FM130800 16020G40KT 6SM -RA BR OVC025 WS020/18045KT
                       FM131500 20020G35KT P6SM -RA OVC018 FM132300
                       20015G30KT P6SM -RA OVC021=
202411121921 KPAE 121921Z 1219/1318 19015G25KT P6SM OVC015 FM122200 16012G20KT
                       P6SM -RA SCT025 OVC040 FM130300 15018G28KT
                       P6SM -RA OVC030 WS020/18045KT FM130800 16020G40KT
                       6SM RA BR OVC025 WS020/18045KT FM131500
                       20015G25KT P6SM -RA OVC022=
202411121722 TAF KPAE 121722Z 1218/1318 19012G18KT P6SM OVC009 FM122200 16012G20KT
                       P6SM -RA SCT025 OVC040 FM130300 15018G28KT
                       P6SM -RA OVC030 WS020/18045KT FM130800 16020G40KT
                       6SM RA BR OVC025 WS020/18045KT FM131500
                       20015G25KT P6SM -RA OVC022=
202411121209 KPAE 121209Z 1212/1312 19012G18KT P6SM VCSH BKN025 OVC050 FM122200
                       16012G20KT P6SM -RA OVC040 FM130300 15018G28KT
                       P6SM -RA OVC030 FM130800 16020G30KT 6SM
                       RA BR OVC025=
202411121126 TAF KPAE 121126Z 1212/1312 19012KT P6SM VCSH BKN025 OVC050 FM122200
                       16012G20KT P6SM -RA OVC040 FM130300 15018G28KT
                       P6SM -RA OVC030 FM130800 16020G30KT 6SM
                       RA BR OVC025=
202411120540 TAF KPAE 120540Z 1206/1306 17012G20KT P6SM SCT025 BKN040
                      TEMPO 1206/1209 -SHRA BKN025 OVC040 FM121200
                       19012KT P6SM SCT035 OVC060 FM122300 16015G25KT
                       P6SM -RA OVC040 FM130300 16020G30KT P6SM
                       -RA OVC030=
202411112326 TAF KPAE 112326Z 1200/1224 18020G32KT P6SM -SHRA FEW020 BKN040
                       OVC110 FM120600 17012G20KT P6SM -SHRA SCT020
                       BKN040 FM121200 17009KT P6SM VCSH OVC025
                       FM121600 17010KT P6SM OVC040=
202411112106 KPAE 112106Z 1121/1218 19016G24KT P6SM VCSH FEW020 BKN050 FM112200
                       16013G21KT 6SM -RA BR OVC025 FM121200 17009KT
                       P6SM VCSH OVC025=
202411111734 TAF KPAE 111734Z 1118/1218 19020G31KT P6SM -SHRA SCT010 SCT030
                       BKN060
                      TEMPO 1118/1120 BKN006 FM112000 18012KT P6SM
                       -SHRA SCT025 OVC050 FM120000 16013G21KT
                       6SM -RA BR OVC025 FM121200 17009KT P6SM
                       VCSH OVC025=
202411111122 TAF KPAE 111122Z 1112/1212 15010G18KT 6SM -RA BR SCT022 OVC035
                       FM111600 18012G18KT P6SM -SHRA SCT025 BKN035
                       OVC050 FM112000 18012KT P6SM -SHRA SCT025
                       OVC050 FM120500 16013G21KT 6SM -RA BR OVC025=
202411110538 TAF KPAE 110538Z 1106/1206 13010KT P6SM -RA OVC050 FM111100 13015G25KT
                       5SM -RA SCT012 OVC020 FM111600 18012KT P6SM
                       -SHRA SCT025 BKN035 OVC050 FM112000 18010KT
                       P6SM -SHRA SCT025 OVC050=
202411102326 TAF KPAE 102326Z 1100/1124 15008KT P6SM SCT035 OVC050 FM110300
                       13009KT P6SM -RA OVC045 FM111000 15014G22KT
                       5SM -RA OVC020 FM111400 17014G25KT P6SM
                       -SHRA OVC050=
202411101748 TAF KPAE 101748Z 1018/1118 VRB05KT P6SM OVC080 FM102100 15008KT
                       P6SM SCT035 OVC050 FM110400 13009KT P6SM
                       -RA OVC045 FM110900 15014G22KT 5SM -RA OVC020
                       FM111400 17014KT P6SM -RA OVC050=
202411101428 KPAE 101428Z 1014/1112 15006KT P6SM BKN030 OVC070 FM101900 13010KT
                       P6SM SCT035 OVC050 FM110100 15015G25KT P6SM
                       -RA OVC045 FM110800 15014G23KT P6SM -RA
                       OVC015=
202411101139 TAF KPAE 101139Z 1012/1112 15006KT 6SM BR OVC004 FM101500 15006KT
                       P6SM OVC015 FM101900 13010KT P6SM SCT035
                       OVC050 FM110100 15015G25KT P6SM -RA OVC045=
202411100539 TAF KPAE 100539Z 1006/1106 15006KT 2SM BR OVC004 FM101500 15006KT
                       P6SM OVC015 FM101900 13010KT P6SM SCT035
                       OVC050 FM110100 15015G25KT P6SM -RA OVC045=
202411092345 TAF KPAE 092345Z 1000/1024 16008KT 3SM -SHRA BR OVC004 FM100600
                       15005KT 4SM BR OVC010 FM101500 15007KT P6SM
                       OVC015 FM102100 14007KT P6SM OVC035=
202411092101 KPAE 092101Z 0921/1018 16008KT 3SM -RA BR BKN005 OVC014 FM092200
                       17006KT P6SM -SHRA OVC020 FM100000 18006KT
                       5SM -RA BR OVC015 FM101400 15006KT P6SM
                       OVC007=
202411091948 KPAE 091948Z 0920/1018 16008KT 3SM -RA BR FEW008 OVC014 FM092200
                       17006KT P6SM -SHRA OVC020 FM100000 18006KT
                       5SM -RA BR OVC015 FM101400 15006KT P6SM
                       OVC007=
202411091736 TAF KPAE 091736Z 0918/1018 15007KT P6SM -SHRA OVC060 FM092200 17006KT
                       P6SM -SHRA OVC020 FM100000 18006KT 5SM -RA
                       BR OVC015 FM101400 15006KT P6SM OVC007=
202411091132 TAF KPAE 091132Z 0912/1012 15007KT P6SM BKN080 OVC100 FM091300
                       16005KT P6SM VCSH OVC050 FM091700 16005KT
                       6SM -SHRA OVC025 FM092000 17006KT 5SM -SHRA
                       BR OVC020 FM100000 18006KT 4SM -RA BR OVC015
                       FM100700 16005KT 4SM BR OVC007=
202411090540 TAF KPAE 090540Z 0906/1006 15007KT P6SM FEW080 BKN110 FM091200
                       16005KT P6SM VCSH OVC030 FM091800 16005KT
                       6SM -SHRA OVC025 FM092000 17006KT 5SM -SHRA
                       BR OVC020 FM100000 18006KT 4SM -RA BR OVC015=
202411082323 TAF KPAE 082323Z 0900/0924 16010KT P6SM BKN200 FM090600 14006KT
                       P6SM OVC060 FM091200 14005KT P6SM -SHRA
                       OVC030 FM092000 16006KT 5SM -SHRA BR OVC020=
202411081720 TAF KPAE 081720Z 0818/0918 14008KT P6SM BKN200 FM082000 16006KT
                       P6SM OVC200 FM090300 14006KT P6SM OVC100
                       FM090900 15008KT P6SM OVC050 FM091100 14005KT
                       P6SM -SHRA OVC030=
202411081124 TAF KPAE 081124Z 0812/0912 14005KT P6SM BKN200 FM081800 16006KT
                       P6SM OVC200 FM090300 14006KT P6SM OVC100
                       FM090900 15008KT P6SM OVC050=
202411080539 TAF KPAE 080539Z 0806/0906 14005KT P6SM BKN200 FM081800 16006KT
                       P6SM OVC200 FM090300 14006KT P6SM OVC100=
202411072320 TAF KPAE 072320Z 0800/0824 VRB03KT P6SM SCT200 FM080300 14005KT
                       P6SM BKN200 FM081800 16008KT P6SM OVC200=
202411071720 TAF KPAE 071720Z 0718/0818 13005KT P6SM SCT200 FM072300 VRB03KT
                       P6SM SCT200 FM080300 14005KT P6SM BKN200=
202411071122 TAF KPAE 071122Z 0712/0812 VRB03KT P6SM BCFG FEW002 SCT200 FM071800
                       13004KT P6SM SCT200 FM072300 20003KT P6SM
                       SCT200 FM080300 17005KT P6SM BKN200=
202411070521 TAF KPAE 070521Z 0706/0806 04003KT P6SM OVC050 FM070800 VRB03KT
                       6SM BR SCT004 BKN050 FM071200 VRB03KT 5SM
                       BR OVC004 FM071800 18004KT P6SM SCT007 BKN250
                       FM072100 20003KT P6SM SCT250 FM080300 17004KT
                       P6SM BKN200=
202411062320 TAF KPAE 062320Z 0700/0724 35004KT P6SM OVC060 FM070400 04003KT
                       P6SM SCT060 SCT200 FM070800 VRB03KT 6SM
                       BR SCT004 BKN050 FM071200 VRB03KT 5SM BR
                       OVC004 FM071800 18004KT P6SM SCT007 BKN250=
202411061720 TAF KPAE 061720Z 0618/0718 13004KT P6SM BKN050 FM062000 VRB03KT
                       P6SM SCT060 BKN100 FM070100 35004KT P6SM
                       SCT120 SCT200 FM070400 04003KT P6SM SCT200
                       FM070800 VRB03KT 6SM BR SCT004 SCT120 BKN200
                       FM071200 VRB03KT 5SM BR OVC004=
202411061120 TAF KPAE 061120Z 0612/0712 12004KT P6SM BKN080 FM061800 VRB03KT
                       P6SM SCT045 BKN100 FM062200 35004KT P6SM
                       BKN120 BKN200 FM070800 VRB03KT 6SM BR SCT004
                       SCT120 BKN200=
202411060532 TAF KPAE 060532Z 0606/0706 12004KT P6SM BKN100 FM061800 VRB03KT
                       P6SM SCT045 BKN100 FM070000 35004KT P6SM
                       BKN200=
202411052320 TAF KPAE 052320Z 0600/0624 33004KT P6SM SCT025 SCT050 FM060300
                       VRB03KT P6SM BKN040 FM060900 09003KT P6SM
                       SCT020 BKN035 FM061400 VRB03KT P6SM SCT020
                       OVC030 FM062000 34004KT P6SM SCT020 BKN040=
202411051755 KPAE 051755Z 0518/0618 34004KT P6SM SCT030 BKN060
                      TEMPO 0518/0520 5SM -RA BR OVC020 FM052300
                       36004KT P6SM BKN050 FM060300 VRB03KT P6SM
                       BKN035 FM060900 09003KT P6SM SCT020 BKN030=
202411051720 TAF KPAE 051720Z 0518/0618 34004KT P6SM SCT030 BKN060 FM052300
                       36004KT P6SM BKN050 FM060300 VRB03KT P6SM
                       BKN035 FM060900 09003KT P6SM SCT020 BKN030=
202411051129 TAF KPAE 051129Z 0512/0612 VRB04KT P6SM SCT040 BKN200 FM051800
                       34004KT P6SM BKN050 BKN100 FM052300 36004KT
                       P6SM BKN050 FM060900 09003KT P6SM SCT020
                       BKN200=
202411050713 KPAE 050713Z 0507/0606 32008KT P6SM SCT040 BKN200 FM051200 31006KT
                       P6SM BKN040 FM051800 35002KT P6SM SCT060=
202411050520 TAF KPAE 050520Z 0506/0606 28010G20KT P6SM SCT040 FM050900 32008KT
                       P6SM SCT040 FM051200 31006KT P6SM BKN040
                       FM051800 35002KT P6SM SCT060=
202411042338 TAF KPAE 042338Z 0500/0524 32014G24KT P6SM SCT025 FM050600 32008KT
                       P6SM SCT040=
202411041858 KPAE 041858Z 0419/0518 22014G22KT P6SM -SHRA BKN006 OVC015 FM042200
                       32012KT P6SM -SHRA BKN025 BKN040 FM050100
                       29010KT P6SM BKN050=
202411041736 TAF KPAE 041736Z 0418/0518 18018G28KT P6SM -RA BKN035 OVC050 FM041900
                       22014G22KT P6SM SCT035 BKN050 FM042200 32012KT
                       P6SM -SHRA BKN025 BKN040 FM050100 29010KT
                       P6SM BKN050=
202411041129 TAF KPAE 041129Z 0412/0512 16018G28KT P6SM -SHRA SCT020 BKN040
                       OVC050 FM041500 15021G35KT P6SM VCSH OVC025
                       FM041800 19014G28KT 5SM -RA BKN015 OVC020
                       FM042100 29012G28KT P6SM VCSH OVC020 FM050200
                       27012G21KT P6SM BKN050 FM050600 27008KT
                       P6SM OVC050=
202411040520 TAF KPAE 040520Z 0406/0506 18005KT P6SM VCSH BKN035 BKN050 OVC100
                       FM040700 15009KT P6SM BKN025 OVC030 FM041200
                       15012G25KT P6SM VCSH OVC025 FM041800 19014G28KT
                       5SM -RA BKN015 OVC020 FM042100 22010G20KT
                       P6SM VCSH OVC020 FM050200 23012G21KT P6SM
                       BKN050=
202411032320 TAF KPAE 032320Z 0400/0424 29005KT P6SM BKN015 OVC040 FM040100
                       16005KT P6SM OVC050 FM040700 15006KT P6SM
                       BKN025 OVC030 FM041200 15013G25KT P6SM -RA
                       OVC025 FM041800 19014G28KT P6SM -RA BKN015
                       OVC020=
202411032059 KPAE 032059Z 0321/0418 29005KT P6SM FEW030 OVC050 FM040100 16005KT
                       P6SM OVC050 FM040700 15008KT P6SM BKN025
                       OVC030 FM041600 15013G22KT P6SM -SHRA OVC025=
202411031728 TAF KPAE 031728Z 0318/0418 25004KT P6SM VCSH BKN004 BKN015 FM032100
                       29005KT P6SM SCT025 OVC035 FM040100 16005KT
                       P6SM OVC050 FM040700 15008KT P6SM BKN025
                       OVC030 FM041600 15013G22KT P6SM -SHRA OVC025=
202411031315 KPAE 031315Z 0313/0412 00000KT 5SM BR BKN008 OVC025 FM031700 25004KT
                       P6SM VCSH OVC015 FM032100 29005KT P6SM SCT025
                       OVC035 FM040100 16005KT P6SM OVC050 FM040700
                       15008KT P6SM SCT025 OVC050 FM041100 15013G22KT
                       P6SM -SHRA OVC025=
202411031130 TAF KPAE 031130Z 0312/0412 16005KT P6SM -SHRA BKN015 OVC020 FM031500
                       25004KT P6SM VCSH OVC015 FM032100 29005KT
                       P6SM SCT025 OVC035 FM040100 16005KT P6SM
                       OVC050 FM040700 15008KT P6SM SCT025 OVC050
                       FM041100 15013G22KT P6SM -SHRA OVC025=
202411030711 KPAE 030711Z 0307/0406 15006KT P6SM OVC025 FM031200 26005KT P6SM
                       OVC015 FM032100 25005KT P6SM OVC035 FM040100
                       16005KT P6SM OVC050=
202411030526 TAF KPAE 030526Z 0306/0406 15006KT P6SM BKN050 OVC060 FM031200
                       26005KT P6SM OVC015 FM032100 25005KT P6SM
                       OVC035 FM040100 16005KT P6SM OVC050=
202411022327 TAF KPAE 022327Z 0300/0324 20008KT P6SM SCT025 BKN035 FM030200
                       16008KT P6SM -SHRA SCT015 OVC040 FM030600
                       17006KT P6SM VCSH OVC025 FM031200 26005KT
                       P6SM OVC015 FM032300 29004KT P6SM OVC025=
202411021720 TAF KPAE 021720Z 0218/0318 27005KT P6SM BKN050 OVC070 FM022100
                       20008KT P6SM SCT025 BKN040 FM030200 16008KT
                       P6SM -SHRA SCT015 OVC040 FM030600 17006KT
                       P6SM VCSH OVC025 FM031200 26005KT P6SM OVC015=
202411021124 TAF KPAE 021124Z 0212/0312 27005KT P6SM SCT006 BKN020 OVC060
                      TEMPO 0212/0216 BKN006 FM022100 20008KT P6SM
                       SCT025 BKN040 FM030200 16008KT P6SM -SHRA
                       SCT015 OVC040 FM030600 17006KT P6SM VCSH
                       OVC015=
202411020540 TAF KPAE 020540Z 0206/0306 15008KT P6SM SCT025 OVC040
                      TEMPO 0206/0210 BKN025 OVC040 FM021000 15008KT
                       P6SM BKN015 OVC025 FM022100 19008KT P6SM
                       SCT025 BKN040 FM030200 16008KT P6SM -SHRA
                       SCT015 BKN025 OVC040=
202411012326 TAF KPAE 012326Z 0200/0224 18008KT P6SM -SHRA BKN006 OVC015 FM020200
                       16006KT P6SM -SHRA BKN010 OVC020 FM020900
                       17005KT P6SM OVC025 FM021200 13004KT 6SM
                       BR OVC015=
202411011939 KPAE 011939Z 0120/0218 VRB05KT 4SM -RA BR BKN008 OVC035 FM012100
                       14008KT P6SM -RA OVC025 FM020000 18012KT
                       P6SM -SHRA SCT012 OVC022 FM020400 16006KT
                       P6SM -SHRA BKN007 OVC020 FM020900 17005KT
                       P6SM OVC025 FM021200 13004KT 6SM BR OVC015=
202411011720 TAF KPAE 011720Z 0118/0218 VRB05KT P6SM -RA BKN050 OVC070 FM012100
                       14008KT P6SM -RA OVC025 FM020000 18012KT
                       P6SM -SHRA SCT012 OVC022 FM020400 16006KT
                       P6SM -SHRA BKN007 OVC020 FM020900 17005KT
                       P6SM OVC025 FM021200 13004KT 6SM BR OVC015=
202411011334 KPAE 011334Z 0114/0212 14012G20KT 5SM -RA SCT025 BKN035 FM012100
                       14008KT P6SM -RA SCT012 OVC045 FM020000
                       18012KT P6SM -SHRA SCT012 OVC022 FM020400
                       16006KT P6SM -SHRA BKN007 OVC020=
202411011121 TAF KPAE 011121Z 0112/0212 14012G20KT 5SM -RA BKN012 OVC022 FM012100
                       14008KT P6SM -RA SCT012 OVC022 FM020000
                       18012KT P6SM -SHRA SCT012 OVC022 FM020600
                       16006KT P6SM -SHRA BKN007 OVC020=
202411010540 TAF KPAE 010540Z 0106/0206 12008KT P6SM -RA OVC035 FM011000 14012G20KT
                       5SM -RA BKN012 OVC022 FM012100 14008KT P6SM
                       -RA SCT012 OVC022 FM020000 18012KT P6SM
                       SCT012 OVC022 FM020500 16006KT P6SM -SHRA
                       BKN012 OVC022=