##########################################################
# Query made at 02/21/2025 22:42:12 UTC
# Time interval: from 08/01/2006 00:00  to 08/31/2006 23:59  UTC
##########################################################

##########################################################
# KBLI, Bellingham, Bellingham International Airport (United States)
# WMO index: -----. WIGOS ID: Unknown
# Latitude 48-47-58N. Longitude 122-32-21W. Altitude 48 m.
##########################################################

###################################
#  METAR/SPECI from KBLI
###################################
200608312353 METAR KBLI 312353Z VRB06KT 10SM CLR 20/08 A3020 RMK AO2 SLP232 T02000083 10206 20172 58015=
200608312253 METAR KBLI 312253Z 29007KT 10SM CLR 19/09 A3022 RMK AO2 SLP238 T01940089=
200608312153 METAR KBLI 312153Z 27009KT 10SM CLR 19/10 A3023 RMK AO2 SLP243 T01890100=
200608312053 METAR KBLI 312053Z 28009KT 10SM CLR 19/10 A3024 RMK AO2 SLP247 T01890100 55004=
200608311953 METAR KBLI 311953Z VRB05KT 10SM CLR 19/09 A3024 RMK AO2 SLP247 T01890094=
200608311853 METAR KBLI 311853Z 06005KT 10SM CLR 19/08 A3025 RMK AO2 SLP250 T01890083=
200608311753 METAR KBLI 311753Z 03005KT 10SM CLR 17/09 A3026 RMK AO2 SLP252 T01720089 10172 20083 53001=
200608311653 METAR KBLI 311653Z VRB04KT 10SM CLR 15/08 A3025 RMK AO2 SLP251 T01500083=
200608311553 METAR KBLI 311553Z 03004KT 10SM CLR 13/08 A3025 RMK AO2 SLP252 T01280083=
200608311453 METAR KBLI 311453Z 36003KT 10SM CLR 11/09 A3025 RMK AO2 SLP252 T01110089 51010=
200608311353 METAR KBLI 311353Z 00000KT 10SM CLR 08/07 A3024 RMK AO2 SLP249 T00830072=
200608311253 METAR KBLI 311253Z AUTO 00000KT 10SM CLR 09/07 A3023 RMK AO2 SLP244 T00890072=
200608311153 METAR KBLI 311153Z AUTO 00000KT 10SM BKN075 11/08 A3022 RMK AO2 SLP240 70003 T01060083 10139 20100 53007=
200608311053 METAR KBLI 311053Z AUTO 16004KT 10SM OVC070 13/09 A3021 RMK AO2 SLP236 T01280089=
200608310953 METAR KBLI 310953Z AUTO 00000KT 10SM OVC065 12/08 A3021 RMK AO2 SLP236 T01220083=
200608310853 METAR KBLI 310853Z AUTO 16005KT 10SM FEW070 OVC090 14/08 A3020 RMK AO2 SLP233 T01390078 51008=
200608310753 METAR KBLI 310753Z AUTO 16005KT 10SM OVC085 14/08 A3020 RMK AO2 SLP232 T01390078 401890117=
200608310653 METAR KBLI 310653Z AUTO 16008KT 10SM FEW065 OVC085 14/07 A3019 RMK AO2 SLP228 T01390072=
200608310553 METAR KBLI 310553Z AUTO 17007KT 10SM CLR 13/08 A3018 RMK AO2 SLP225 T01330078 10189 20133 51011=
200608310453 METAR KBLI 310453Z 16011KT 10SM CLR 14/08 A3017 RMK AO2 SLP221 T01440078=
200608310353 METAR KBLI 310353Z 17009KT 10SM CLR 15/08 A3016 RMK AO2 SLP218 T01500078=
200608310253 METAR KBLI 310253Z 17011KT 10SM CLR 16/08 A3014 RMK AO2 SLP213 T01560078 53008=
200608310153 METAR KBLI 310153Z 18010KT 10SM BKN070 16/08 A3013 RMK AO2 SLP210 T01610083=
200608310053 METAR KBLI 310053Z 18012KT 10SM BKN065 BKN080 17/09 A3013 RMK AO2 SLP209 T01720089=
200608302353 METAR KBLI 302353Z 18011KT 10SM FEW080 18/08 A3012 RMK AO2 SLP206 T01830083 10189 20144 51005=
200608302253 METAR KBLI 302253Z 20011KT 10SM FEW070 18/08 A3012 RMK AO2 SLP205 T01780078=
200608302153 METAR KBLI 302153Z 18010KT 10SM SCT070 18/08 A3012 RMK AO2 SLP204 T01830083=
200608302053 METAR KBLI 302053Z 19009KT 10SM FEW070 17/09 A3011 RMK AO2 SLP201 T01720094 51010=
200608301953 METAR KBLI 301953Z 19008KT 10SM SCT050 BKN070 16/09 A3009 RMK AO2 SLP197 T01610089=
200608301853 METAR KBLI 301853Z 18007KT 10SM BKN050 16/09 A3009 RMK AO2 SLP195 T01560089=
200608301753 METAR KBLI 301753Z 19006KT 10SM SCT022 SCT028 OVC050 14/10 A3008 RMK AO2 SLP191 P0003 60003 T01440100 10144 20122 53020=
200608301722 SPECI KBLI 301722Z 18009KT 10SM SCT022 SCT028 OVC050 14/10 A3007 RMK AO2=
200608301722 SPECI KBLI 301722Z 18009KT 10SM SCT022 SCT028 OVC050 14/10 A3007 RMK AO2=
200608301653 METAR KBLI 301653Z 18006KT 10SM FEW008 BKN020 BKN075 14/11 A3006 RMK AO2 SLP184 T01440106=
200608301636 SPECI KBLI 301636Z 18010KT 10SM FEW008 BKN020 BKN075 14/11 A3005 RMK AO2=
200608301636 SPECI KBLI 301636Z 18010KT 10SM FEW008 BKN020 BKN075 14/11 A3005 RMK AO2=
200608301553 METAR KBLI 301553Z 19008KT 10SM FEW030 SCT075 14/11 A3003 RMK AO2 SLP174 T01390106=
200608301453 METAR KBLI 301453Z 19005KT 10SM FEW022 SCT036 BKN075 13/11 A3002 RMK AO2 SLP170 T01280106 53017=
200608301353 METAR KBLI 301353Z AUTO 18006KT 10SM SCT025 BKN039 OVC070 12/10 A2999 RMK AO2 SLP162 T01220100=
200608301330 SPECI KBLI 301330Z AUTO 19005KT 10SM FEW017 BKN025 OVC042 12/11 A2998 RMK AO2 $=
200608301330 SPECI KBLI 301330Z AUTO 19005KT 10SM FEW017 BKN025 OVC042 12/11 A2998 RMK AO2 $=
200608301253 METAR KBLI 301253Z AUTO 19005KT 10SM BKN033 OVC075 12/10 A2998 RMK AO2 SLP157 T01220100 $=
200608301153 METAR KBLI 301153Z AUTO 17007KT 10SM SCT033 BKN043 OVC070 12/11 A2997 RMK AO2 RAB18E34 SLP153 P0000 6//// 7//// T01220106 10144 20117 51008 $=
200608301053 METAR KBLI 301053Z AUTO 16005KT 10SM FEW034 SCT043 OVC060 12/11 A2996 RMK AO2 RAE44 SLP151 P0003 T01220111 $=
200608300953 METAR KBLI 300953Z AUTO 00000KT 8SM -RA SCT012 BKN050 OVC060 12/11 A2995 RMK AO2 SLP147 T01220111 $=
200608300903 SPECI KBLI 300903Z AUTO 16005KT 10SM -RA FEW020 BKN055 OVC075 12/11 A2994 RMK AO2 PNO $=
200608300903 SPECI KBLI 300903Z AUTO 16005KT 10SM -RA FEW020 BKN055 OVC075 12/11 A2994 RMK AO2 PNO $=
200608300853 METAR KBLI 300853Z AUTO 16005KT 5SM -RA BR FEW020 BKN026 OVC049 12/11 A2994 RMK AO2 SLP145 6//// T01220106 50006 PNO $=
200608300842 SPECI KBLI 300842Z AUTO 18004KT 4SM RA BR SCT019 BKN027 OVC060 12/11 A2994 RMK AO2 PNO $=
200608300842 SPECI KBLI 300842Z AUTO 18004KT 4SM RA BR SCT019 BKN027 OVC060 12/11 A2994 RMK AO2 PNO $=
200608300826 SPECI KBLI 300826Z AUTO 18004KT 8SM -RA BKN031 BKN055 OVC070 12/11 A2994 RMK AO2 PNO $=
200608300826 SPECI KBLI 300826Z AUTO 18004KT 8SM -RA BKN031 BKN055 OVC070 12/11 A2994 RMK AO2 PNO $=
200608300818 SPECI KBLI 300818Z AUTO 15003KT 5SM -RA BR BKN029 BKN049 OVC060 12/11 A2994 RMK AO2 PNO $=
200608300818 SPECI KBLI 300818Z AUTO 15003KT 5SM -RA BR BKN029 BKN049 OVC060 12/11 A2994 RMK AO2 PNO $=
200608300753 METAR KBLI 300753Z AUTO VRB04KT 2 1/2SM RA BR FEW023 OVC029 13/11 A2994 RMK AO2 RAE19B44 SLP145 P0000 T01280106 401890128=
200608300700 SPECI KBLI 300700Z 00000KT 10SM -RA BKN027 OVC032 13/10 A2993 RMK AO2 P0000=
200608300700 SPECI KBLI 300700Z 00000KT 10SM -RA BKN027 OVC032 13/10 A2993 RMK AO2 P0000=
200608300653 METAR KBLI 300653Z 19004KT 10SM -RA OVC031 13/11 A2993 RMK AO2 RAB0559 SLP140 P0000 T01280106=
200608300553 METAR KBLI 300553Z 17006KT 10SM BKN033 BKN040 OVC048 14/09 A2992 RMK AO2 SLP139 T01440089 10178 20139 51004=
200608300453 METAR KBLI 300453Z 18007KT 10SM SCT055 14/09 A2992 RMK AO2 SLP138 T01440089=
200608300353 METAR KBLI 300353Z 18008KT 10SM BKN050 BKN100 15/08 A2992 RMK AO2 SLP138 T01500083=
200608300253 METAR KBLI 300253Z 17007KT 10SM SCT050 BKN100 16/08 A2991 RMK AO2 SLP135 T01560078 55001=
200608300153 METAR KBLI 300153Z 17009KT 10SM BKN060 16/08 A2991 RMK AO2 SLP134 T01610083=
200608300053 METAR KBLI 300053Z 17013KT 10SM BKN040 17/08 A2991 RMK AO2 SLP134 T01670083=
200608292353 METAR KBLI 292353Z 18013KT 10SM FEW036 SCT080 18/08 A2992 RMK AO2 SLP136 T01780078 10189 20150 58002=
200608292253 METAR KBLI 292253Z 17014G20KT 10SM SCT036 18/07 A2992 RMK AO2 SLP137 T01780072=
200608292153 METAR KBLI 292153Z 18011KT 10SM BKN036 BKN065 18/08 A2992 RMK AO2 SLP138 T01780078=
200608292053 METAR KBLI 292053Z 17012KT 10SM BKN036 BKN065 18/07 A2992 RMK AO2 SLP137 T01780072 51002=
200608291953 METAR KBLI 291953Z 16013KT 10SM BKN036 17/08 A2992 RMK AO2 SLP137 T01720078=
200608291853 METAR KBLI 291853Z 19008KT 10SM SCT038 BKN049 16/08 A2992 RMK AO2 SLP137 T01610078=
200608291753 METAR KBLI 291753Z 16012KT 10SM SCT049 OVC070 16/08 A2991 RMK AO2 SLP136 T01560083 10156 20133 51010=
200608291653 METAR KBLI 291653Z 16010KT 10SM SCT017 BKN030 14/09 A2991 RMK AO2 SLP134 T01390094=
200608291553 METAR KBLI 291553Z 16012KT 10SM SCT015 BKN120 14/10 A2990 RMK AO2 SLP131 T01390100=
200608291453 METAR KBLI 291453Z 18014G19KT 10SM FEW015 BKN120 14/10 A2989 RMK AO2 SLP126 T01390100 53011=
200608291353 METAR KBLI 291353Z AUTO 18013G21KT 10SM FEW015 SCT120 13/10 A2987 RMK AO2 SLP120 T01330100=
200608291342 SPECI KBLI 291342Z AUTO 18016G20KT 10SM FEW015 SCT120 13/10 A2986 RMK AO2=
200608291342 SPECI KBLI 291342Z AUTO 18016G20KT 10SM FEW015 SCT120 13/10 A2986 RMK AO2=
200608291332 SPECI KBLI 291332Z AUTO 17014G20KT 10SM BKN015 13/10 A2987 RMK AO2=
200608291332 SPECI KBLI 291332Z AUTO 17014G20KT 10SM BKN015 13/10 A2987 RMK AO2=
200608291325 SPECI KBLI 291325Z AUTO 17011G21KT 10SM SCT015 13/10 A2987 RMK AO2=
200608291325 SPECI KBLI 291325Z AUTO 17011G21KT 10SM SCT015 13/10 A2987 RMK AO2=
200608291318 SPECI KBLI 291318Z AUTO 17017G23KT 10SM BKN015 13/10 A2987 RMK AO2=
200608291318 SPECI KBLI 291318Z AUTO 17017G23KT 10SM BKN015 13/10 A2987 RMK AO2=
200608291304 SPECI KBLI 291304Z AUTO 17016G21KT 10SM SCT015 13/09 A2986 RMK AO2=
200608291304 SPECI KBLI 291304Z AUTO 17016G21KT 10SM SCT015 13/09 A2986 RMK AO2=
200608291253 METAR KBLI 291253Z AUTO 18015G21KT 10SM BKN015 BKN110 13/09 A2986 RMK AO2 SLP117 T01330094=
200608291228 SPECI KBLI 291228Z AUTO 18013KT 10SM BKN015 13/10 A2986 RMK AO2=
200608291228 SPECI KBLI 291228Z AUTO 18013KT 10SM BKN015 13/10 A2986 RMK AO2=
200608291153 METAR KBLI 291153Z AUTO 18016G22KT 10SM FEW015 13/10 A2985 RMK AO2 SLP115 T01330100 10156 20133 53008=
200608291053 METAR KBLI 291053Z AUTO 17010KT 10SM CLR 14/10 A2984 RMK AO2 SLP112 T01390100=
200608290953 METAR KBLI 290953Z AUTO 17011KT 10SM FEW120 14/11 A2983 RMK AO2 SLP107 T01440106=
200608290853 METAR KBLI 290853Z AUTO 17004KT 10SM FEW120 15/11 A2983 RMK AO2 SLP106 T01500106 53002=
200608290753 METAR KBLI 290753Z AUTO 19007KT 10SM CLR 15/12 A2982 RMK AO2 SLP103 T01500122 402390100=
200608290653 METAR KBLI 290653Z AUTO 19004KT 10SM CLR 15/12 A2982 RMK AO2 SLP104 T01500117=
200608290553 METAR KBLI 290553Z AUTO 20005KT 10SM CLR 16/12 A2982 RMK AO2 SLP103 T01560122 10228 20156 51007=
200608290453 METAR KBLI 290453Z 19006KT 10SM CLR 17/12 A2982 RMK AO2 SLP102 T01670117=
200608290353 METAR KBLI 290353Z 19008KT 10SM CLR 17/11 A2981 RMK AO2 SLP101 T01720111=
200608290253 METAR KBLI 290253Z 20005KT 10SM CLR 18/11 A2980 RMK AO2 SLP097 T01830111 55002=
200608290153 METAR KBLI 290153Z 21005KT 10SM CLR 20/11 A2980 RMK AO2 SLP096 T02000106=
200608290053 METAR KBLI 290053Z VRB05KT 10SM CLR 22/09 A2980 RMK AO2 SLP097 T02170094=
200608282353 METAR KBLI 282353Z VRB05KT 10SM CLR 22/10 A2981 RMK AO2 SLP099 T02220100 10239 20206 58011=
200608282253 METAR KBLI 282253Z 19008KT 10SM CLR 22/12 A2982 RMK AO2 SLP104 T02220122=
200608282153 METAR KBLI 282153Z 17008KT 10SM CLR 23/13 A2983 RMK AO2 SLP108 T02330128=
200608282053 METAR KBLI 282053Z VRB06KT 10SM CLR 23/12 A2984 RMK AO2 SLP110 T02280117 56011=
200608281953 METAR KBLI 281953Z 21005KT 10SM CLR 23/14 A2984 RMK AO2 SLP112 T02280144=
200608281853 METAR KBLI 281853Z 29006KT 10SM CLR 21/14 A2986 RMK AO2 SLP117 T02110144=
200608281753 METAR KBLI 281753Z VRB04KT 10SM CLR 22/13 A2987 RMK AO2 SLP121 T02170133 10217 20100 58008=
200608281653 METAR KBLI 281653Z VRB04KT 10SM CLR 21/13 A2988 RMK AO2 SLP122 T02060128=
200608281553 METAR KBLI 281553Z VRB04KT 10SM CLR 17/14 A2989 RMK AO2 SLP128 T01720139=
200608281453 METAR KBLI 281453Z 00000KT 10SM CLR 14/13 A2990 RMK AO2 SLP129 T01440128 56003=
200608281401 SPECI KBLI 281401Z 00000KT 10SM CLR 11/11 A2990 RMK AO2=
200608281401 SPECI KBLI 281401Z 00000KT 10SM CLR 11/11 A2990 RMK AO2=
200608281353 METAR KBLI 281353Z AUTO 00000KT 1/2SM FG CLR 11/11 A2990 RMK AO2 VIS M1/4V1 1/4 SLP129 T01110106 $=
200608281331 SPECI KBLI 281331Z AUTO 00000KT 1/2SM FG CLR 11/09 A2990 RMK AO2 $=
200608281331 SPECI KBLI 281331Z AUTO 00000KT 1/2SM FG CLR 11/09 A2990 RMK AO2 $=
200608281253 METAR KBLI 281253Z AUTO 00000KT 8SM CLR 11/09 A2989 RMK AO2 SLP129 T01060094=
200608281224 SPECI KBLI 281224Z AUTO 00000KT 9SM CLR 11/09 A2990 RMK AO2=
200608281224 SPECI KBLI 281224Z AUTO 00000KT 9SM CLR 11/09 A2990 RMK AO2=
200608281217 SPECI KBLI 281217Z AUTO 00000KT 2 1/2SM BR CLR 11/09 A2990 RMK AO2 VIS 3/4V5=
200608281217 SPECI KBLI 281217Z AUTO 00000KT 2 1/2SM BR CLR 11/09 A2990 RMK AO2 VIS 3/4V5=
200608281207 SPECI KBLI 281207Z AUTO 00000KT 3/4SM BR CLR 10/09 A2990 RMK AO2=
200608281207 SPECI KBLI 281207Z AUTO 00000KT 3/4SM BR CLR 10/09 A2990 RMK AO2=
200608281153 METAR KBLI 281153Z AUTO 00000KT 3SM BR CLR 11/09 A2990 RMK AO2 SLP132 T01060094 10144 20100 58004=
200608281114 SPECI KBLI 281114Z AUTO 00000KT 3SM BR CLR 11/09 A2991 RMK AO2=
200608281114 SPECI KBLI 281114Z AUTO 00000KT 3SM BR CLR 11/09 A2991 RMK AO2=
200608281109 SPECI KBLI 281109Z AUTO 00000KT 1SM BR CLR 11/10 A2991 RMK AO2=
200608281109 SPECI KBLI 281109Z AUTO 00000KT 1SM BR CLR 11/10 A2991 RMK AO2=
200608281053 METAR KBLI 281053Z AUTO 00000KT 10SM CLR 11/10 A2991 RMK AO2 SLP135 T01110100=
200608280953 METAR KBLI 280953Z AUTO 36004KT 7SM CLR 11/11 A2992 RMK AO2 SLP136 T01110106=
200608280949 SPECI KBLI 280949Z AUTO 36004KT 2 1/2SM BR CLR 11/11 A2992 RMK AO2=
200608280949 SPECI KBLI 280949Z AUTO 36004KT 2 1/2SM BR CLR 11/11 A2992 RMK AO2=
200608280941 SPECI KBLI 280941Z AUTO 00000KT 1 3/4SM BR CLR 11/11 A2992 RMK AO2=
200608280941 SPECI KBLI 280941Z AUTO 00000KT 1 3/4SM BR CLR 11/11 A2992 RMK AO2=
200608280853 METAR KBLI 280853Z AUTO 00000KT 10SM CLR 13/12 A2992 RMK AO2 SLP138 T01330117 58006=
200608280753 METAR KBLI 280753Z AUTO 18003KT 10SM CLR 14/12 A2993 RMK AO2 SLP141 T01390122 402560106=
200608280653 METAR KBLI 280653Z AUTO 00000KT 10SM CLR 14/12 A2994 RMK AO2 SLP143 T01390117=
200608280553 METAR KBLI 280553Z AUTO 00000KT 10SM CLR 13/12 A2994 RMK AO2 SLP144 T01330117 10256 20133 50002=
200608280453 METAR KBLI 280453Z 00000KT 10SM CLR 15/12 A2995 RMK AO2 SLP147 T01500122=
200608280353 METAR KBLI 280353Z 00000KT 10SM CLR 16/12 A2994 RMK AO2 SLP145 T01610122=
200608280253 METAR KBLI 280253Z VRB04KT 10SM CLR 20/13 A2993 RMK AO2 SLP142 T02000128 56012=
200608280153 METAR KBLI 280153Z 00000KT 10SM CLR 23/13 A2994 RMK AO2 SLP144 T02330133=
200608280053 METAR KBLI 280053Z 28004KT 10SM CLR 24/13 A2995 RMK AO2 SLP149 T02440128=
200608272353 METAR KBLI 272353Z VRB05KT 10SM CLR 26/12 A2997 RMK AO2 SLP153 T02560122 10256 20200 56017=
200608272253 METAR KBLI 272253Z 29007KT 10SM CLR 25/13 A2998 RMK AO2 SLP157 T02500133=
200608272153 METAR KBLI 272153Z 28004KT 10SM CLR 24/13 A3000 RMK AO2 SLP164 T02440133=
200608272053 METAR KBLI 272053Z VRB05KT 10SM CLR 23/14 A3002 RMK AO2 SLP171 T02330144 58007=
200608271953 METAR KBLI 271953Z VRB04KT 10SM CLR 22/14 A3002 RMK AO2 SLP173 T02170144=
200608271853 METAR KBLI 271853Z VRB04KT 10SM CLR 22/14 A3004 RMK AO2 SLP177 T02170139=
200608271753 METAR KBLI 271753Z 26004KT 10SM CLR 21/15 A3004 RMK AO2 SLP178 T02060150 10206 20106 58002=
200608271653 METAR KBLI 271653Z 00000KT 10SM SCT005 18/15 A3004 RMK AO2 SLP179 T01780150=
200608271608 SPECI KBLI 271608Z 00000KT 2SM BR OVC005 16/15 A3005 RMK AO2=
200608271608 SPECI KBLI 271608Z 00000KT 2SM BR OVC005 16/15 A3005 RMK AO2=
200608271600 SPECI KBLI 271600Z 14003KT 8SM OVC003 16/15 A3004 RMK AO2=
200608271600 SPECI KBLI 271600Z 14003KT 8SM OVC003 16/15 A3004 RMK AO2=
200608271553 METAR KBLI 271553Z VRB03KT 1SM BR OVC003 16/15 A3005 RMK AO2 SLP180 T01610150=
200608271549 SPECI KBLI 271549Z 17004KT 1SM BR OVC003 16/15 A3005 RMK AO2=
200608271549 SPECI KBLI 271549Z 17004KT 1SM BR OVC003 16/15 A3005 RMK AO2=
200608271500 SPECI KBLI 271500Z 18003KT 10SM OVC003 16/15 A3004 RMK AO2=
200608271500 SPECI KBLI 271500Z 18003KT 10SM OVC003 16/15 A3004 RMK AO2=
200608271453 METAR KBLI 271453Z 18003KT 10SM OVC005 16/14 A3004 RMK AO2 SLP179 T01560144 52010=
200608271400 SPECI KBLI 271400Z 00000KT 10SM OVC005 14/13 A3004 RMK AO2=
200608271400 SPECI KBLI 271400Z 00000KT 10SM OVC005 14/13 A3004 RMK AO2=
200608271353 METAR KBLI 271353Z 00000KT 10SM OVC003 13/12 A3003 RMK AO2 SLP176 T01330122=
200608271323 SPECI KBLI 271323Z AUTO 19003KT 10SM BKN003 13/12 A3003 RMK AO2=
200608271323 SPECI KBLI 271323Z AUTO 19003KT 10SM BKN003 13/12 A3003 RMK AO2=
200608271314 SPECI KBLI 271314Z AUTO 19003KT 2 1/2SM BR FEW005 12/11 A3002 RMK AO2=
200608271314 SPECI KBLI 271314Z AUTO 19003KT 2 1/2SM BR FEW005 12/11 A3002 RMK AO2=
200608271253 METAR KBLI 271253Z AUTO 00000KT 10SM CLR 12/11 A3002 RMK AO2 SLP172 T01220111=
200608271153 METAR KBLI 271153Z AUTO 00000KT 3SM BR CLR 12/11 A3001 RMK AO2 SLP169 T01170111 10144 20106 51003=
200608271053 METAR KBLI 271053Z AUTO 00000KT 6SM BR CLR 13/12 A3001 RMK AO2 SLP167 T01280117=
200608270953 METAR KBLI 270953Z AUTO 00000KT 10SM CLR 12/11 A3001 RMK AO2 SLP168 T01170106=
200608270853 METAR KBLI 270853Z AUTO 00000KT 10SM CLR 13/12 A3000 RMK AO2 SLP165 T01330117 53005=
200608270753 METAR KBLI 270753Z AUTO 00000KT 10SM CLR 13/11 A2999 RMK AO2 SLP162 T01280111 402440100=
200608270653 METAR KBLI 270653Z AUTO 00000KT 10SM CLR 13/12 A2999 RMK AO2 SLP160 T01280117=
200608270553 METAR KBLI 270553Z AUTO 00000KT 10SM CLR 14/12 A2999 RMK AO2 SLP160 T01440122 10244 20139 51008=
200608270453 METAR KBLI 270453Z 00000KT 10SM CLR 15/12 A2998 RMK AO2 SLP158 T01500122=
200608270353 METAR KBLI 270353Z 00000KT 10SM CLR 16/13 A2997 RMK AO2 SLP155 T01610128=
200608270253 METAR KBLI 270253Z 18003KT 10SM CLR 18/13 A2996 RMK AO2 SLP152 T01830128 56004=
200608270153 METAR KBLI 270153Z VRB03KT 10SM CLR 22/12 A2997 RMK AO2 SLP153 T02220122=
200608270053 METAR KBLI 270053Z 28004KT 10SM CLR 23/12 A2997 RMK AO2 SLP153 T02280122=
200608262353 METAR KBLI 262353Z VRB03KT 10SM CLR 24/14 A2997 RMK AO2 SLP156 T02390139 10244 20189 58010=
200608262253 METAR KBLI 262253Z 26004KT 10SM CLR 24/14 A2999 RMK AO2 SLP159 T02390139=
200608262153 METAR KBLI 262153Z VRB04KT 10SM CLR 23/14 A3000 RMK AO2 SLP164 T02330139=
200608262053 METAR KBLI 262053Z 29005KT 10SM CLR 22/14 A3000 RMK AO2 SLP166 T02220139 58012=
200608261953 METAR KBLI 261953Z VRB05KT 10SM CLR 21/14 A3002 RMK AO2 SLP172 T02060139=
200608261853 METAR KBLI 261853Z 27006KT 10SM CLR 21/14 A3003 RMK AO2 SLP176 T02060139=
200608261753 METAR KBLI 261753Z 23005KT 10SM CLR 19/14 A3004 RMK AO2 SLP178 T01890139 10194 20100 51001=
200608261653 METAR KBLI 261653Z VRB04KT 10SM CLR 18/14 A3004 RMK AO2 SLP178 T01780139=
200608261608 SPECI KBLI 261608Z 27004KT 10SM SCT008 17/14 A3004 RMK AO2=
200608261608 SPECI KBLI 261608Z 27004KT 10SM SCT008 17/14 A3004 RMK AO2=
200608261553 METAR KBLI 261553Z VRB03KT 10SM CLR 17/14 A3005 RMK AO2 SLP180 T01670139=
200608261453 METAR KBLI 261453Z 00000KT 10SM CLR 15/13 A3004 RMK AO2 SLP177 T01500133 53005=
200608261353 METAR KBLI 261353Z AUTO 00000KT 9SM CLR 12/11 A3003 RMK AO2 SLP173 T01220111=
200608261314 SPECI KBLI 261314Z AUTO 00000KT 3SM BR CLR 11/09 A3002 RMK AO2=
200608261314 SPECI KBLI 261314Z AUTO 00000KT 3SM BR CLR 11/09 A3002 RMK AO2=
200608261309 SPECI KBLI 261309Z AUTO 00000KT 1 3/4SM BR CLR 10/09 A3002 RMK AO2 VIS 1/2V5=
200608261309 SPECI KBLI 261309Z AUTO 00000KT 1 3/4SM BR CLR 10/09 A3002 RMK AO2 VIS 1/2V5=
200608261253 METAR KBLI 261253Z AUTO 00000KT 10SM CLR 10/09 A3002 RMK AO2 SLP171 T01000089=
200608261153 METAR KBLI 261153Z AUTO 00000KT 10SM CLR 12/10 A3002 RMK AO2 SLP171 T01170100 10156 20106 53006=
200608261053 METAR KBLI 261053Z AUTO 00000KT 9SM CLR 12/11 A3001 RMK AO2 SLP169 T01170106=
200608260953 METAR KBLI 260953Z AUTO 30003KT 10SM CLR 12/11 A3000 RMK AO2 SLP166 T01220106=
200608260853 METAR KBLI 260853Z AUTO 00000KT 10SM CLR 14/12 A3000 RMK AO2 SLP165 T01390117 53001=
200608260753 METAR KBLI 260753Z 21004KT 10SM CLR 15/13 A3000 RMK AO2 SLP165 T01500128 402440083=
200608260653 METAR KBLI 260653Z 00000KT 10SM CLR 13/11 A3000 RMK AO2 SLP163 T01280111=
200608260553 METAR KBLI 260553Z 18004KT 10SM CLR 14/12 A3000 RMK AO2 SLP164 T01440122 10244 20133 51004=
200608260453 METAR KBLI 260453Z 00000KT 10SM CLR 15/12 A3000 RMK AO2 SLP164 T01500122=
200608260353 METAR KBLI 260353Z 00000KT 10SM CLR 17/12 A2999 RMK AO2 SLP162 T01670122=
200608260253 METAR KBLI 260253Z 00000KT 10SM CLR 18/14 A2998 RMK AO2 SLP159 T01830139 56006=
200608260153 METAR KBLI 260153Z 21004KT 10SM CLR 21/14 A2999 RMK AO2 SLP161 T02110144=
200608260053 METAR KBLI 260053Z 28004KT 10SM CLR 24/11 A3000 RMK AO2 SLP163 T02390111=
200608252353 METAR KBLI 252353Z 27005KT 10SM CLR 23/12 A3000 RMK AO2 SLP166 T02330122 10239 20194 57016=
200608252253 METAR KBLI 252253Z 28007KT 10SM CLR 23/13 A3002 RMK AO2 SLP171 T02280128=
200608252153 METAR KBLI 252153Z 28008KT 250V320 10SM CLR 22/13 A3004 RMK AO2 SLP177 T02220128=
200608252053 METAR KBLI 252053Z 28008KT 10SM CLR 22/13 A3005 RMK AO2 SLP182 T02170133 58010=
200608251953 METAR KBLI 251953Z 28007KT 230V340 10SM CLR 21/13 A3007 RMK AO2 SLP187 T02060133=
200608251853 METAR KBLI 251853Z VRB06KT 10SM CLR 20/13 A3008 RMK AO2 SLP191 T02000128=
200608251753 METAR KBLI 251753Z VRB04KT 10SM CLR 19/12 A3008 RMK AO2 SLP192 T01940122 10194 20083 58004=
200608251653 METAR KBLI 251653Z 33006KT 10SM CLR 17/12 A3009 RMK AO2 SLP195 T01720122=
200608251553 METAR KBLI 251553Z 01004KT 10SM CLR 15/12 A3009 RMK AO2 SLP196 T01500117=
200608251453 METAR KBLI 251453Z 00000KT 10SM CLR 12/11 A3009 RMK AO2 SLP197 T01170106 53009=
200608251353 METAR KBLI 251353Z AUTO 00000KT 9SM CLR 09/08 A3008 RMK AO2 SLP194 T00890078=
200608251329 SPECI KBLI 251329Z AUTO 00000KT 3SM BR CLR 09/08 A3008 RMK AO2=
200608251329 SPECI KBLI 251329Z AUTO 00000KT 3SM BR CLR 09/08 A3008 RMK AO2=
200608251326 SPECI KBLI 251326Z AUTO 00000KT 1SM BR CLR 09/08 A3007 RMK AO2 VIS 1/2V5=
200608251326 SPECI KBLI 251326Z AUTO 00000KT 1SM BR CLR 09/08 A3007 RMK AO2 VIS 1/2V5=
200608251318 SPECI KBLI 251318Z AUTO 00000KT 3/4SM BR VV001 09/08 A3008 RMK AO2=
200608251318 SPECI KBLI 251318Z AUTO 00000KT 3/4SM BR VV001 09/08 A3008 RMK AO2=
200608251316 SPECI KBLI 251316Z AUTO 00000KT 1 1/4SM BR FEW001 09/08 A3008 RMK AO2=
200608251316 SPECI KBLI 251316Z AUTO 00000KT 1 1/4SM BR FEW001 09/08 A3008 RMK AO2=
200608251253 METAR KBLI 251253Z AUTO 00000KT 6SM BR FEW001 09/08 A3007 RMK AO2 SLP190 T00890083=
200608251231 SPECI KBLI 251231Z AUTO 00000KT 5SM BR FEW001 09/08 A3007 RMK AO2=
200608251231 SPECI KBLI 251231Z AUTO 00000KT 5SM BR FEW001 09/08 A3007 RMK AO2=
200608251228 SPECI KBLI 251228Z AUTO 00000KT 1 1/4SM BR FEW001 09/08 A3007 RMK AO2=
200608251228 SPECI KBLI 251228Z AUTO 00000KT 1 1/4SM BR FEW001 09/08 A3007 RMK AO2=
200608251220 SPECI KBLI 251220Z AUTO 00000KT 1 1/4SM BR CLR 09/08 A3007 RMK AO2=
200608251220 SPECI KBLI 251220Z AUTO 00000KT 1 1/4SM BR CLR 09/08 A3007 RMK AO2=
200608251210 SPECI KBLI 251210Z AUTO 00000KT 3SM BR CLR 09/08 A3007 RMK AO2=
200608251210 SPECI KBLI 251210Z AUTO 00000KT 3SM BR CLR 09/08 A3007 RMK AO2=
200608251207 SPECI KBLI 251207Z AUTO 00000KT 1SM BR CLR 09/09 A3007 RMK AO2 VIS 1/4V5=
200608251207 SPECI KBLI 251207Z AUTO 00000KT 1SM BR CLR 09/09 A3007 RMK AO2 VIS 1/4V5=
200608251200 SPECI KBLI 251200Z AUTO 00000KT 1/2SM FG CLR 09/09 A3007 RMK AO2=
200608251200 SPECI KBLI 251200Z AUTO 00000KT 1/2SM FG CLR 09/09 A3007 RMK AO2=
200608251156 SPECI KBLI 251156Z AUTO 00000KT 1 1/4SM BR CLR 09/08 A3007 RMK AO2=
200608251156 SPECI KBLI 251156Z AUTO 00000KT 1 1/4SM BR CLR 09/08 A3007 RMK AO2=
200608251153 METAR KBLI 251153Z AUTO 00000KT 6SM BR CLR 09/08 A3007 RMK AO2 SLP188 T00940083 10128 20094 50001=
200608251053 METAR KBLI 251053Z AUTO 00000KT 8SM CLR 10/09 A3007 RMK AO2 SLP187 T01000089=
200608250953 METAR KBLI 250953Z AUTO 00000KT 3SM BR CLR 10/09 A3007 RMK AO2 SLP189 T01000094=
200608250853 METAR KBLI 250853Z AUTO 00000KT 10SM CLR 11/09 A3006 RMK AO2 SLP187 T01060094 51002=
200608250753 METAR KBLI 250753Z 00000KT 9SM CLR 11/09 A3006 RMK AO2 SLP187 T01060094 401940106=
200608250653 METAR KBLI 250653Z 00000KT 10SM CLR 12/11 A3006 RMK AO2 SLP187 T01220106=
200608250553 METAR KBLI 250553Z 00000KT 10SM CLR 12/11 A3005 RMK AO2 SLP184 T01220106 10189 20117 50003=
200608250453 METAR KBLI 250453Z 19003KT 10SM CLR 14/12 A3006 RMK AO2 SLP184 T01440117=
200608250353 METAR KBLI 250353Z 19004KT 10SM CLR 15/12 A3005 RMK AO2 SLP182 T01500117=
200608250253 METAR KBLI 250253Z 19004KT 10SM CLR 16/12 A3005 RMK AO2 SLP181 T01610122 55001=
200608250153 METAR KBLI 250153Z VRB04KT 10SM CLR 18/12 A3004 RMK AO2 SLP178 T01780117=
200608250053 METAR KBLI 250053Z 21004KT 10SM FEW030 18/11 A3004 RMK AO2 SLP180 T01830111=
200608242353 METAR KBLI 242353Z 18007KT 10SM FEW015 18/12 A3005 RMK AO2 SLP181 T01830117 10194 20150 56014=
200608242253 METAR KBLI 242253Z 19006KT 10SM CLR 19/12 A3006 RMK AO2 SLP184 T01890117=
200608242153 METAR KBLI 242153Z 18008KT 10SM SCT019 18/12 A3008 RMK AO2 SLP190 T01830117=
200608242053 METAR KBLI 242053Z VRB04KT 10SM CLR 17/12 A3009 RMK AO2 SLP196 T01720117 56009=
200608241953 METAR KBLI 241953Z VRB06KT 10SM SCT019 BKN030 BKN048 17/11 A3010 RMK AO2 SLP199 T01670111=
200608241853 METAR KBLI 241853Z 21006KT 10SM FEW018 SCT030 OVC050 16/11 A3011 RMK AO2 SLP200 T01560106=
200608241753 METAR KBLI 241753Z 18006KT 10SM SCT018 OVC030 15/11 A3012 RMK AO2 SLP204 T01500106 10150 20128 51004=
200608241653 METAR KBLI 241653Z 19006KT 10SM FEW023 BKN033 OVC065 14/11 A3012 RMK AO2 SLP204 T01440106=
200608241553 METAR KBLI 241553Z 20006KT 10SM FEW023 BKN033 OVC070 13/11 A3011 RMK AO2 SLP204 T01330106=
200608241453 METAR KBLI 241453Z VRB05KT 10SM OVC070 13/11 A3011 RMK AO2 SLP202 T01330106 53002=
200608241353 METAR KBLI 241353Z AUTO 19006KT 10SM OVC070 13/11 A3010 RMK AO2 SLP199 T01330106=
200608241253 METAR KBLI 241253Z AUTO 18003KT 10SM OVC070 13/10 A3010 RMK AO2 SLP198 T01280100=
200608241153 METAR KBLI 241153Z AUTO 00000KT 10SM BKN060 OVC075 13/10 A3010 RMK AO2 SLP199 T01280100 10139 20128 58007=
200608241053 METAR KBLI 241053Z AUTO 19006KT 10SM OVC055 13/10 A3011 RMK AO2 SLP202 T01330100=
200608240953 METAR KBLI 240953Z AUTO 14005KT 10SM BKN080 13/10 A3012 RMK AO2 SLP205 T01330100=
200608240853 METAR KBLI 240853Z AUTO 17012KT 10SM BKN080 13/10 A3012 RMK AO2 SLP206 T01330100 56004=
200608240753 METAR KBLI 240753Z AUTO 17011KT 10SM BKN080 13/10 A3012 RMK AO2 SLP207 T01330100 401780122=
200608240653 METAR KBLI 240653Z AUTO 17012KT 10SM FEW060 BKN080 14/10 A3013 RMK AO2 SLP207 T01390100=
200608240553 METAR KBLI 240553Z AUTO 17010KT 10SM BKN070 14/10 A3013 RMK AO2 SLP210 T01390100 10172 20139 51004=
200608240453 METAR KBLI 240453Z 18011KT 10SM CLR 14/11 A3013 RMK AO2 SLP211 T01390106=
200608240353 METAR KBLI 240353Z 18010KT 10SM CLR 14/11 A3013 RMK AO2 SLP209 T01440106=
200608240253 METAR KBLI 240253Z 18012KT 10SM CLR 14/11 A3012 RMK AO2 SLP207 T01440111 56004=
200608240153 METAR KBLI 240153Z 18011KT 10SM BKN080 16/11 A3012 RMK AO2 SLP207 T01560111=
200608240053 METAR KBLI 240053Z 18009KT 10SM BKN080 16/12 A3013 RMK AO2 SLP210 T01610117=
200608232353 METAR KBLI 232353Z 19010KT 10SM BKN075 17/12 A3014 RMK AO2 SLP211 T01670117 10178 20144 58007=
200608232253 METAR KBLI 232253Z 19009KT 10SM OVC075 17/12 A3015 RMK AO2 SLP215 T01720117=
200608232153 METAR KBLI 232153Z 19011KT 10SM BKN075 17/12 A3016 RMK AO2 SLP217 T01670117=
200608232053 METAR KBLI 232053Z 17013KT 10SM SCT016 BKN075 17/12 A3016 RMK AO2 SLP218 T01720117 50002=
200608232020 SPECI KBLI 232020Z 17015KT 10SM SCT016 BKN075 17/12 A3016 RMK AO2=
200608232020 SPECI KBLI 232020Z 17015KT 10SM SCT016 BKN075 17/12 A3016 RMK AO2=
200608231953 METAR KBLI 231953Z 17014KT 10SM OVC016 17/12 A3016 RMK AO2 SLP219 T01670117=
200608231936 SPECI KBLI 231936Z 18014KT 10SM BKN016 OVC075 16/12 A3015 RMK AO2=
200608231936 SPECI KBLI 231936Z 18014KT 10SM BKN016 OVC075 16/12 A3015 RMK AO2=
200608231853 METAR KBLI 231853Z 18013KT 10SM OVC014 16/12 A3016 RMK AO2 SLP218 T01560117=
200608231825 SPECI KBLI 231825Z 19014KT 10SM SCT008 OVC012 15/12 A3015 RMK AO2=
200608231825 SPECI KBLI 231825Z 19014KT 10SM SCT008 OVC012 15/12 A3015 RMK AO2=
200608231753 METAR KBLI 231753Z 18013G17KT 10SM BKN008 OVC012 14/12 A3015 RMK AO2 SLP216 T01440117 10144 20122 51010=
200608231653 METAR KBLI 231653Z 19012KT 10SM BKN008 OVC014 14/12 A3015 RMK AO2 SLP215 T01390117=
200608231553 METAR KBLI 231553Z 18012KT 10SM BKN008 OVC014 14/12 A3013 RMK AO2 SLP210 T01390117=
200608231500 METAR KBLI NIL=
200608231453 METAR KBLI 231453Z 18007KT 10SM BKN008 13/12 A3012 RMK AO2 SLP206 T01330117 53012=
200608231353 METAR KBLI 231353Z AUTO 16005KT 10SM OVC008 13/11 A3011 RMK AO2 CIG 006V012 SLP201 T01330111=
200608231344 SPECI KBLI 231344Z AUTO 16005KT 10SM OVC008 13/11 A3010 RMK AO2 CIG 006V011=
200608231344 SPECI KBLI 231344Z AUTO 16005KT 10SM OVC008 13/11 A3010 RMK AO2 CIG 006V011=
200608231332 SPECI KBLI 231332Z AUTO 17005KT 10SM OVC010 13/11 A3010 RMK AO2 CIG 007V013=
200608231332 SPECI KBLI 231332Z AUTO 17005KT 10SM OVC010 13/11 A3010 RMK AO2 CIG 007V013=
200608231253 METAR KBLI 231253Z AUTO 16007KT 10SM BKN008 BKN012 OVC065 13/11 A3010 RMK AO2 CIG 006V010 SLP198 T01280111=
200608231245 SPECI KBLI 231245Z AUTO 17006KT 10SM BKN006 OVC065 13/11 A3010 RMK AO2 CIG 006V010=
200608231245 SPECI KBLI 231245Z AUTO 17006KT 10SM BKN006 OVC065 13/11 A3010 RMK AO2 CIG 006V010=
200608231224 SPECI KBLI 231224Z AUTO 18009KT 10SM FEW006 OVC065 13/11 A3009 RMK AO2=
200608231224 SPECI KBLI 231224Z AUTO 18009KT 10SM FEW006 OVC065 13/11 A3009 RMK AO2=
200608231213 SPECI KBLI 231213Z AUTO 19011KT 10SM BKN006 OVC070 12/11 A3009 RMK AO2 CIG 004V009=
200608231213 SPECI KBLI 231213Z AUTO 19011KT 10SM BKN006 OVC070 12/11 A3009 RMK AO2 CIG 004V009=
200608231153 METAR KBLI 231153Z AUTO 19010KT 160V230 10SM OVC004 12/11 A3009 RMK AO2 SLP194 T01220111 10144 20122 53001=
200608231139 SPECI KBLI 231139Z AUTO 18011KT 9SM OVC004 12/11 A3009 RMK AO2=
200608231139 SPECI KBLI 231139Z AUTO 18011KT 9SM OVC004 12/11 A3009 RMK AO2=
200608231126 SPECI KBLI 231126Z AUTO 18010KT 9SM BKN006 OVC070 12/11 A3009 RMK AO2=
200608231126 SPECI KBLI 231126Z AUTO 18010KT 9SM BKN006 OVC070 12/11 A3009 RMK AO2=
200608231101 SPECI KBLI 231101Z AUTO 19011KT 10SM FEW006 OVC070 12/11 A3008 RMK AO2=
200608231101 SPECI KBLI 231101Z AUTO 19011KT 10SM FEW006 OVC070 12/11 A3008 RMK AO2=
200608231053 METAR KBLI 231053Z AUTO 19012G17KT 10SM BKN070 12/11 A3008 RMK AO2 SLP191 T01220106=
200608230953 METAR KBLI 230953Z AUTO 18010KT 10SM BKN065 13/11 A3008 RMK AO2 SLP191 T01330106=
200608230853 METAR KBLI 230853Z AUTO 19008KT 10SM BKN120 14/11 A3008 RMK AO2 SLP192 T01390106 50001=
200608230753 METAR KBLI 230753Z AUTO 18005KT 10SM CLR 13/11 A3009 RMK AO2 SLP195 T01330111 401830122=
200608230653 METAR KBLI 230653Z AUTO 18008KT 10SM CLR 14/11 A3009 RMK AO2 SLP196 T01390111=
200608230553 METAR KBLI 230553Z 17010KT 10SM CLR 14/11 A3008 RMK AO2 SLP191 T01440111 10183 20144 50002=
200608230453 METAR KBLI 230453Z 18007KT 10SM CLR 15/11 A3008 RMK AO2 SLP193 T01500111=
200608230353 METAR KBLI 230353Z 17008KT 10SM CLR 15/11 A3008 RMK AO2 SLP192 T01500111=
200608230253 METAR KBLI 230253Z 19008KT 10SM CLR 16/12 A3007 RMK AO2 SLP189 T01610117 53002=
200608230153 METAR KBLI 230153Z 19008KT 170V230 10SM CLR 17/12 A3006 RMK AO2 SLP185 T01720117=
200608230053 METAR KBLI 230053Z 20009KT 10SM CLR 18/11 A3006 RMK AO2 SLP185 T01780111=
200608222353 METAR KBLI 222353Z 20009KT 10SM CLR 18/11 A3007 RMK AO2 SLP187 T01830111 10183 20150 58005=
200608222253 METAR KBLI 222253Z 18011KT 10SM CLR 18/11 A3008 RMK AO2 SLP192 T01830111=
200608222153 METAR KBLI 222153Z 19012G17KT 10SM CLR 18/12 A3008 RMK AO2 SLP193 T01780117=
200608222053 METAR KBLI 222053Z 19013G18KT 10SM CLR 17/11 A3008 RMK AO2 SLP192 T01670111 56003=
200608221953 METAR KBLI 221953Z 20013G19KT 10SM CLR 17/11 A3008 RMK AO2 SLP193 T01670111=
200608221853 METAR KBLI 221853Z 19012G17KT 10SM SCT011 16/12 A3009 RMK AO2 SLP194 T01560117=
200608221836 SPECI KBLI 221836Z 19009KT 10SM BKN015 16/11 A3009 RMK AO2=
200608221836 SPECI KBLI 221836Z 19009KT 10SM BKN015 16/11 A3009 RMK AO2=
200608221753 METAR KBLI 221753Z 20009KT 10SM OVC013 15/11 A3009 RMK AO2 SLP195 T01500111 10156 20122 51016=
200608221653 METAR KBLI 221653Z 19011G17KT 10SM FEW008 BKN011 14/11 A3008 RMK AO2 SLP190 T01440111=
200608221600 SPECI KBLI 221600Z 18012KT 10SM SCT008 BKN011 14/11 A3007 RMK AO2=
200608221600 SPECI KBLI 221600Z 18012KT 10SM SCT008 BKN011 14/11 A3007 RMK AO2=
200608221553 METAR KBLI 221553Z 19012KT 10SM BKN008 BKN011 14/11 A3006 RMK AO2 SLP186 BKN V SCT T01390111=
200608221529 SPECI KBLI 221529Z 18013KT 10SM BKN008 14/11 A3006 RMK AO2 BKN V SCT=
200608221529 SPECI KBLI 221529Z 18013KT 10SM BKN008 14/11 A3006 RMK AO2 BKN V SCT=
200608221453 METAR KBLI 221453Z 18010KT 10SM FEW008 13/11 A3004 RMK AO2 SLP179 T01330106 51010=
200608221353 METAR KBLI 221353Z 18010KT 10SM FEW008 SCT080 13/11 A3004 RMK AO2 SLP177 T01280111=
200608221253 METAR KBLI 221253Z AUTO 18013G18KT 10SM FEW006 13/11 A3003 RMK AO2 SLP173 T01280111=
200608221153 METAR KBLI 221153Z AUTO 19009KT 10SM FEW006 13/12 A3001 RMK AO2 SLP169 T01280117 10178 20128 51011=
200608221053 METAR KBLI 221053Z AUTO 19012G17KT 10SM CLR 14/11 A3000 RMK AO2 SLP165 T01390111=
200608220953 METAR KBLI 220953Z AUTO 19012KT 10SM CLR 14/11 A3000 RMK AO2 SLP163 T01390111=
200608220853 METAR KBLI 220853Z AUTO 18013G19KT 10SM CLR 15/11 A2998 RMK AO2 SLP157 T01500106 51008=
200608220753 METAR KBLI 220753Z AUTO 18014KT 10SM CLR 16/11 A2997 RMK AO2 SLP154 T01560106 402330117=
200608220653 METAR KBLI 220653Z AUTO 18017KT 10SM CLR 18/09 A2997 RMK AO2 SLP154 T01780094=
200608220553 METAR KBLI 220553Z AUTO 19011KT 10SM CLR 18/10 A2996 RMK AO2 SLP150 T01780100 10211 20167 51006=
200608220453 METAR KBLI 220453Z 18009G16KT 10SM CLR 17/11 A2996 RMK AO2 SLP149 T01720111=
200608220353 METAR KBLI 220353Z 19010KT 10SM CLR 17/12 A2995 RMK AO2 SLP148 T01670117=
200608220253 METAR KBLI 220253Z 19008KT 10SM CLR 18/13 A2994 RMK AO2 SLP143 T01830128 53004=
200608220153 METAR KBLI 220153Z 19009KT 10SM CLR 19/12 A2993 RMK AO2 SLP140 T01890117=
200608220053 METAR KBLI 220053Z 20006KT 10SM CLR 20/12 A2992 RMK AO2 SLP138 T02000122=
200608212353 METAR KBLI 212353Z VRB06KT 10SM CLR 21/13 A2993 RMK AO2 SLP139 T02110128 10233 20183 58007=
200608212253 METAR KBLI 212253Z 21006KT 10SM CLR 22/11 A2993 RMK AO2 SLP142 T02220111=
200608212153 METAR KBLI 212153Z 24005KT 10SM CLR 23/12 A2994 RMK AO2 SLP145 T02280122=
200608212053 METAR KBLI 212053Z VRB06KT 10SM CLR 23/13 A2995 RMK AO2 SLP145 T02280128 56014=
200608211953 METAR KBLI 211953Z 17005KT 10SM CLR 22/15 A2996 RMK AO2 SLP150 T02170150=
200608211853 METAR KBLI 211853Z 21005KT 10SM CLR 20/14 A2997 RMK AO2 SLP155 T02000139=
200608211753 METAR KBLI 211753Z 18006KT 10SM CLR 18/13 A2999 RMK AO2 SLP160 T01830128 10183 20117 50001=
200608211653 METAR KBLI 211653Z 18006KT 10SM SCT180 17/12 A2999 RMK AO2 SLP161 T01670117=
200608211553 METAR KBLI 211553Z 18005KT 10SM CLR 16/12 A2999 RMK AO2 SLP162 T01560117=
200608211453 METAR KBLI 211453Z 00000KT 10SM FEW100 15/13 A2998 RMK AO2 SLP159 T01500128 51009=
200608211353 METAR KBLI 211353Z AUTO 18003KT 10SM CLR 13/12 A2998 RMK AO2 SLP156 T01330122=
200608211253 METAR KBLI 211253Z AUTO 19003KT 9SM CLR 13/12 A2997 RMK AO2 SLP153 T01330117=
200608211153 METAR KBLI 211153Z AUTO 00000KT 9SM CLR 13/12 A2996 RMK AO2 SLP149 T01330117 10150 20117 51009=
200608211053 METAR KBLI 211053Z AUTO 17003KT 6SM BR CLR 12/11 A2995 RMK AO2 SLP148 T01220111=
200608210953 METAR KBLI 210953Z AUTO 00000KT 9SM CLR 12/11 A2993 RMK AO2 SLP142 T01220111=
200608210853 METAR KBLI 210853Z AUTO 18003KT 10SM CLR 14/13 A2993 RMK AO2 SLP139 T01440128 51005=
200608210753 METAR KBLI 210753Z AUTO 00000KT 10SM CLR 13/12 A2992 RMK AO2 SLP139 T01330117 402610111=
200608210653 METAR KBLI 210653Z AUTO 18003KT 10SM CLR 14/13 A2992 RMK AO2 SLP138 T01440128=
200608210553 METAR KBLI 210553Z AUTO 00000KT 10SM CLR 14/12 A2991 RMK AO2 SLP135 T01440122 10261 20139 51006=
200608210453 METAR KBLI 210453Z 00000KT 10SM CLR 14/12 A2991 RMK AO2 SLP134 T01440117=
200608210353 METAR KBLI 210353Z 00000KT 10SM CLR 17/12 A2990 RMK AO2 SLP131 T01670122=
200608210253 METAR KBLI 210253Z 00000KT 10SM CLR 21/13 A2989 RMK AO2 SLP128 T02060128 56009=
200608210153 METAR KBLI 210153Z 23003KT 10SM CLR 24/13 A2990 RMK AO2 SLP129 T02390133=
200608210053 METAR KBLI 210053Z 28006KT 10SM CLR 26/12 A2991 RMK AO2 SLP132 T02560122=
200608202353 METAR KBLI 202353Z 29006KT 10SM CLR 26/13 A2992 RMK AO2 SLP136 T02610133 10261 20206 58013=
200608202253 METAR KBLI 202253Z VRB04KT 10SM CLR 24/13 A2994 RMK AO2 SLP143 T02440133=
200608202153 METAR KBLI 202153Z 28006KT 10SM CLR 24/13 A2995 RMK AO2 SLP146 T02440133=
200608202053 METAR KBLI 202053Z 29005KT 10SM CLR 24/13 A2996 RMK AO2 SLP150 T02390133 58008=
200608201953 METAR KBLI 201953Z VRB05KT 10SM CLR 23/14 A2996 RMK AO2 SLP152 T02280144=
200608201853 METAR KBLI 201853Z VRB05KT 10SM CLR 22/14 A2997 RMK AO2 SLP156 T02170144=
200608201753 METAR KBLI 201753Z VRB04KT 10SM CLR 21/15 A2998 RMK AO2 SLP157 T02110150 10211 20117 50000=
200608201653 METAR KBLI 201653Z 00000KT 10SM CLR 19/14 A2998 RMK AO2 SLP158 T01890144=
200608201553 METAR KBLI 201553Z 13003KT 10SM CLR 17/14 A2998 RMK AO2 SLP158 T01720144=
200608201453 METAR KBLI 201453Z 17004KT 10SM CLR 16/14 A2998 RMK AO2 SLP157 T01560139 53009=
200608201353 METAR KBLI 201353Z 18004KT 10SM CLR 14/13 A2997 RMK AO2 SLP153 T01390128=
200608201253 METAR KBLI 201253Z AUTO 19003KT 10SM CLR 13/12 A2995 RMK AO2 SLP149 T01280117=
200608201153 METAR KBLI 201153Z AUTO 20005KT 10SM CLR 13/12 A2995 RMK AO2 SLP148 T01280117 10144 20111 51002=
200608201053 METAR KBLI 201053Z AUTO 23004KT 10SM CLR 12/11 A2995 RMK AO2 SLP147 T01220111=
200608200953 METAR KBLI 200953Z AUTO 18003KT 10SM CLR 13/12 A2995 RMK AO2 SLP148 T01330122=
200608200853 METAR KBLI 200853Z AUTO 21003KT 10SM CLR 13/11 A2994 RMK AO2 SLP145 T01280111 52003=
200608200753 METAR KBLI 200753Z AUTO 00000KT 10SM CLR 13/11 A2994 RMK AO2 SLP145 T01330111 402330100=
200608200653 METAR KBLI 200653Z AUTO 00000KT 10SM CLR 13/11 A2994 RMK AO2 SLP143 T01280106=
200608200553 METAR KBLI 200553Z AUTO 00000KT 10SM CLR 14/12 A2993 RMK AO2 SLP142 T01390117 10228 20133 52002=
200608200453 METAR KBLI 200453Z 00000KT 10SM CLR 14/12 A2993 RMK AO2 SLP142 T01440122=
200608200353 METAR KBLI 200353Z 00000KT 10SM CLR 15/13 A2993 RMK AO2 SLP141 T01500128=
200608200253 METAR KBLI 200253Z 00000KT 10SM CLR 18/13 A2993 RMK AO2 SLP140 T01830128 56007=
200608200153 METAR KBLI 200153Z 26003KT 10SM CLR 21/12 A2993 RMK AO2 SLP141 T02110122=
200608200053 METAR KBLI 200053Z 29006KT 10SM CLR 22/13 A2994 RMK AO2 SLP144 T02220128=
200608192353 METAR KBLI 192353Z VRB04KT 10SM CLR 23/13 A2995 RMK AO2 SLP148 T02280133 10233 20194 58016=
200608192253 METAR KBLI 192253Z VRB06KT 10SM CLR 23/13 A2997 RMK AO2 SLP153 T02280133=
200608192153 METAR KBLI 192153Z 28007KT 240V300 10SM CLR 22/13 A2998 RMK AO2 SLP159 T02220133=
200608192053 METAR KBLI 192053Z 29007KT 10SM CLR 22/14 A3000 RMK AO2 SLP164 T02220139 58010=
200608191953 METAR KBLI 191953Z VRB06KT 10SM CLR 22/14 A3001 RMK AO2 SLP168 T02170144=
200608191853 METAR KBLI 191853Z VRB04KT 10SM CLR 20/14 A3002 RMK AO2 SLP173 T02000139=
200608191753 METAR KBLI 191753Z 17004KT 10SM FEW016 19/14 A3003 RMK AO2 SLP174 T01940144 10194 20106 56004=
200608191653 METAR KBLI 191653Z 00000KT 10SM SCT012 18/14 A3003 RMK AO2 SLP174 T01780139=
200608191553 METAR KBLI 191553Z 00000KT 10SM CLR 17/14 A3003 RMK AO2 SLP176 T01720139=
200608191453 METAR KBLI 191453Z 00000KT 10SM CLR 16/13 A3004 RMK AO2 SLP178 T01560133 53005=
200608191353 METAR KBLI 191353Z 00000KT 10SM CLR 12/12 A3004 RMK AO2 SLP177 T01220117=
200608191253 METAR KBLI 191253Z AUTO 00000KT 10SM CLR 11/10 A3003 RMK AO2 SLP174 T01110100=
200608191153 METAR KBLI 191153Z AUTO 19003KT 10SM CLR 12/11 A3003 RMK AO2 SLP173 T01220111 10144 20100 58004=
200608191053 METAR KBLI 191053Z AUTO 00000KT 10SM CLR 12/11 A3003 RMK AO2 SLP175 T01220111=
200608190953 METAR KBLI 190953Z AUTO 00000KT 10SM CLR 13/12 A3003 RMK AO2 SLP176 T01280117=
200608190853 METAR KBLI 190853Z AUTO 21004KT 10SM CLR 14/12 A3004 RMK AO2 SLP177 T01390117 56002=
200608190753 METAR KBLI 190753Z 00000KT 10SM CLR 12/11 A3004 RMK AO2 SLP177 T01220106 402390083=
200608190653 METAR KBLI 190653Z 00000KT 10SM CLR 14/12 A3004 RMK AO2 SLP178 T01390117=
200608190553 METAR KBLI 190553Z 00000KT 10SM CLR 13/12 A3004 RMK AO2 SLP179 T01330122 10233 20133 50002=
200608190453 METAR KBLI 190453Z 00000KT 10SM CLR 14/13 A3005 RMK AO2 SLP180 T01440133=
200608190353 METAR KBLI 190353Z 00000KT 10SM CLR 16/13 A3004 RMK AO2 SLP178 T01610133=
200608190253 METAR KBLI 190253Z 26003KT 10SM CLR 18/13 A3004 RMK AO2 SLP177 T01830133 56014=
200608190153 METAR KBLI 190153Z 28005KT 10SM CLR 21/13 A3005 RMK AO2 SLP181 T02110128=
200608190053 METAR KBLI 190053Z VRB05KT 10SM CLR 22/13 A3006 RMK AO2 SLP184 T02220133=
200608182353 METAR KBLI 182353Z 29006KT 10SM CLR 23/14 A3008 RMK AO2 SLP191 T02280139 10239 20200 58021=
200608182253 METAR KBLI 182253Z VRB05KT 10SM CLR 23/13 A3010 RMK AO2 SLP198 T02280128=
200608182153 METAR KBLI 182153Z 31007KT 270V340 10SM CLR 23/13 A3012 RMK AO2 SLP206 T02330133=
200608182053 METAR KBLI 182053Z 31008KT 10SM CLR 23/14 A3014 RMK AO2 SLP212 T02280139 58015=
200608181953 METAR KBLI 181953Z VRB06KT 10SM CLR 22/13 A3016 RMK AO2 SLP220 T02170128=
200608181853 METAR KBLI 181853Z VRB06KT 10SM CLR 21/13 A3017 RMK AO2 SLP223 T02060133=
200608181753 METAR KBLI 181753Z VRB03KT 10SM CLR 21/13 A3018 RMK AO2 SLP227 T02060128 10206 20083 58003=
200608181653 METAR KBLI 181653Z 36005KT 9SM CLR 18/13 A3019 RMK AO2 SLP229 HAZY T01830128=
200608181553 METAR KBLI 181553Z 01004KT 8SM CLR 14/12 A3020 RMK AO2 SLP231 T01440122=
200608181453 METAR KBLI 181453Z 00000KT 10SM FEW001 11/11 A3019 RMK AO2 SLP231 T01110106 53003=
200608181402 SPECI KBLI 181402Z 00000KT 10SM FEW001 09/08 A3019 RMK AO2=
200608181402 SPECI KBLI 181402Z 00000KT 10SM FEW001 09/08 A3019 RMK AO2=
200608181353 METAR KBLI 181353Z AUTO 00000KT 3/4SM BR SCT001 BKN007 09/08 A3019 RMK AO2 SLP230 T00890083=
200608181351 SPECI KBLI 181351Z AUTO 00000KT 1SM BR SCT001 BKN007 09/08 A3019 RMK AO2=
200608181351 SPECI KBLI 181351Z AUTO 00000KT 1SM BR SCT001 BKN007 09/08 A3019 RMK AO2=
200608181346 SPECI KBLI 181346Z AUTO 00000KT 1/4SM FG BKN001 OVC007 09/08 A3019 RMK AO2=
200608181346 SPECI KBLI 181346Z AUTO 00000KT 1/4SM FG BKN001 OVC007 09/08 A3019 RMK AO2=
200608181329 SPECI KBLI 181329Z AUTO 00000KT 1/4SM FG SCT001 BKN007 09/08 A3018 RMK AO2=
200608181329 SPECI KBLI 181329Z AUTO 00000KT 1/4SM FG SCT001 BKN007 09/08 A3018 RMK AO2=
200608181322 SPECI KBLI 181322Z AUTO 00000KT 1/2SM FG VV001 09/08 A3018 RMK AO2 VIS M1/4V5=
200608181322 SPECI KBLI 181322Z AUTO 00000KT 1/2SM FG VV001 09/08 A3018 RMK AO2 VIS M1/4V5=
200608181319 SPECI KBLI 181319Z AUTO 00000KT 1 3/4SM BR FEW001 09/08 A3018 RMK AO2 VIS 1/4V5=
200608181319 SPECI KBLI 181319Z AUTO 00000KT 1 3/4SM BR FEW001 09/08 A3018 RMK AO2 VIS 1/4V5=
200608181253 METAR KBLI 181253Z AUTO 00000KT 10SM CLR 09/08 A3018 RMK AO2 SLP228 T00940083=
200608181153 METAR KBLI 181153Z AUTO 00000KT 9SM CLR 10/09 A3018 RMK AO2 SLP228 T01000089 10150 20094 58001=
200608181114 SPECI KBLI 181114Z AUTO 00000KT 9SM CLR 09/09 A3019 RMK AO2=
200608181114 SPECI KBLI 181114Z AUTO 00000KT 9SM CLR 09/09 A3019 RMK AO2=
200608181105 SPECI KBLI 181105Z AUTO 00000KT 2 1/2SM BR CLR 09/09 A3019 RMK AO2=
200608181105 SPECI KBLI 181105Z AUTO 00000KT 2 1/2SM BR CLR 09/09 A3019 RMK AO2=
200608181053 METAR KBLI 181053Z AUTO 00000KT 4SM BR CLR 10/09 A3019 RMK AO2 SLP231 T01000089=
200608180953 METAR KBLI 180953Z AUTO 00000KT 6SM BR CLR 11/09 A3019 RMK AO2 SLP230 T01110094=
200608180853 METAR KBLI 180853Z AUTO 00000KT 10SM CLR 11/10 A3019 RMK AO2 SLP230 T01110100 58001=
200608180753 METAR KBLI 180753Z AUTO 00000KT 10SM CLR 12/10 A3019 RMK AO2 SLP230 T01170100 401780117=
200608180653 METAR KBLI 180653Z 18006KT 10SM CLR 14/11 A3019 RMK AO2 SLP230 T01440111=
200608180553 METAR KBLI 180553Z 19007KT 10SM CLR 15/11 A3019 RMK AO2 SLP229 T01500111 10178 20144 51006=
200608180453 METAR KBLI 180453Z 18007KT 10SM CLR 16/11 A3019 RMK AO2 SLP229 T01560111=
200608180353 METAR KBLI 180353Z 19006KT 10SM CLR 15/12 A3018 RMK AO2 SLP228 T01500117=
200608180253 METAR KBLI 180253Z 19006KT 10SM CLR 16/11 A3017 RMK AO2 SLP224 T01610111 57005=
200608180153 METAR KBLI 180153Z VRB04KT 10SM CLR 17/12 A3018 RMK AO2 SLP226 T01670122=
200608180053 METAR KBLI 180053Z 18009KT 10SM CLR 17/12 A3018 RMK AO2 SLP227 T01720122=
200608172353 METAR KBLI 172353Z 18008KT 10SM CLR 18/11 A3019 RMK AO2 SLP229 T01780111 10178 20139 56010=
200608172253 METAR KBLI 172253Z 20008KT 10SM CLR 17/11 A3020 RMK AO2 SLP232 T01720111=
200608172153 METAR KBLI 172153Z 18010KT 10SM CLR 17/12 A3021 RMK AO2 SLP236 T01670117=
200608172053 METAR KBLI 172053Z 20007KT 030V230 10SM SCT011 16/12 A3022 RMK AO2 SLP239 T01560117 58004=
200608172043 SPECI KBLI 172043Z 20009KT 10SM SCT009 16/12 A3022 RMK AO2=
200608172043 SPECI KBLI 172043Z 20009KT 10SM SCT009 16/12 A3022 RMK AO2=
200608171953 METAR KBLI 171953Z 18008KT 9SM OVC009 15/12 A3023 RMK AO2 SLP243 T01500117=
200608171853 METAR KBLI 171853Z 20007KT 10SM OVC009 14/11 A3024 RMK AO2 CIG 007V013 SLP246 T01440111=
200608171800 METAR KBLI NIL=
200608171753 METAR KBLI 171753Z 19006KT 9SM BKN007 OVC011 14/11 A3023 RMK AO2 CIG 005V010 SLP244 T01390111 10139 20117 51010=
200608171653 METAR KBLI 171653Z 18010KT 10SM OVC005 13/11 A3022 RMK AO2 CIG 004V010 SLP241 T01330111=
200608171553 METAR KBLI 171553Z 18009KT 9SM OVC005 13/11 A3021 RMK AO2 SLP237 T01280111=
200608171453 METAR KBLI 171453Z 18010KT 8SM OVC005 12/11 A3020 RMK AO2 CIG 003V007 SLP234 T01220111 51017=
200608171353 METAR KBLI 171353Z 18009KT 6SM BR OVC003 12/11 A3019 RMK AO2 CIG 002V007 SLP229 T01220111=
200608171253 METAR KBLI 171253Z AUTO 18011KT 6SM BR OVC003 12/11 A3017 RMK AO2 SLP223 T01220111=
200608171211 SPECI KBLI 171211Z AUTO 19009KT 6SM BR OVC003 12/11 A3016 RMK AO2 CIG 002V006=
200608171211 SPECI KBLI 171211Z AUTO 19009KT 6SM BR OVC003 12/11 A3016 RMK AO2 CIG 002V006=
200608171153 METAR KBLI 171153Z AUTO 18010KT 9SM BKN005 12/11 A3015 RMK AO2 SLP217 T01220111 10150 20122 51011=
200608171125 SPECI KBLI 171125Z AUTO 18009KT 9SM BKN005 12/11 A3015 RMK AO2=
200608171125 SPECI KBLI 171125Z AUTO 18009KT 9SM BKN005 12/11 A3015 RMK AO2=
200608171116 SPECI KBLI 171116Z AUTO 19007KT 9SM SCT005 12/11 A3015 RMK AO2=
200608171116 SPECI KBLI 171116Z AUTO 19007KT 9SM SCT005 12/11 A3015 RMK AO2=
200608171053 METAR KBLI 171053Z AUTO 19008KT 10SM CLR 13/11 A3015 RMK AO2 SLP214 T01280111=
200608170953 METAR KBLI 170953Z AUTO 19007KT 10SM CLR 13/11 A3013 RMK AO2 SLP209 T01280111=
200608170853 METAR KBLI 170853Z AUTO 18005KT 10SM CLR 13/11 A3012 RMK AO2 SLP206 T01330111 53014=
200608170753 METAR KBLI 170753Z AUTO 18007KT 10SM CLR 14/12 A3011 RMK AO2 SLP201 T01390117 401940100=
200608170653 METAR KBLI 170653Z AUTO 19007KT 10SM CLR 14/11 A3009 RMK AO2 SLP195 T01440111=
200608170553 METAR KBLI 170553Z AUTO 19009KT 10SM CLR 14/12 A3008 RMK AO2 SLP192 T01440117 10194 20144 53017=
200608170453 METAR KBLI 170453Z 18010KT 10SM CLR 15/11 A3006 RMK AO2 SLP186 T01500111=
200608170353 METAR KBLI 170353Z 19007KT 10SM CLR 16/12 A3004 RMK AO2 SLP180 T01560117=
200608170253 METAR KBLI 170253Z 18007KT 10SM CLR 17/12 A3003 RMK AO2 SLP174 T01720117 55001=
200608170153 METAR KBLI 170153Z 18008KT 10SM CLR 19/12 A3002 RMK AO2 SLP172 T01890117=
200608170053 METAR KBLI 170053Z 19008KT 10SM CLR 19/12 A3002 RMK AO2 SLP172 T01890117=
200608162353 METAR KBLI 162353Z 19008KT 10SM CLR 19/11 A3003 RMK AO2 SLP175 T01940111 10194 20144 58009=
200608162253 METAR KBLI 162253Z 19009KT 10SM CLR 19/11 A3004 RMK AO2 SLP179 T01890111=
200608162153 METAR KBLI 162153Z 20007KT 10SM CLR 18/11 A3005 RMK AO2 SLP183 T01780111=
200608162053 METAR KBLI 162053Z 18007KT 10SM CLR 18/11 A3006 RMK AO2 SLP184 T01780111 56004=
200608161953 METAR KBLI 161953Z 18011KT 10SM FEW020 17/12 A3006 RMK AO2 SLP185 T01670117=
200608161914 SPECI KBLI 161914Z 20008KT 170V240 10SM FEW020 16/12 A3006 RMK AO2=
200608161914 SPECI KBLI 161914Z 20008KT 170V240 10SM FEW020 16/12 A3006 RMK AO2=
200608161853 METAR KBLI 161853Z 18009KT 10SM BKN020 16/12 A3006 RMK AO2 SLP186 T01560117=
200608161811 SPECI KBLI 161811Z 18008KT 10SM OVC016 14/12 A3007 RMK AO2=
200608161811 SPECI KBLI 161811Z 18008KT 10SM OVC016 14/12 A3007 RMK AO2=
200608161753 METAR KBLI 161753Z 19009KT 10SM BKN014 OVC080 15/12 A3007 RMK AO2 SLP188 T01500117 10150 20122 53005=
200608161653 METAR KBLI 161653Z 19009KT 10SM FEW007 SCT016 14/11 A3007 RMK AO2 SLP187 T01390111=
200608161553 METAR KBLI 161553Z 18010KT 10SM FEW007 SCT040 SCT080 13/11 A3005 RMK AO2 SLP182 T01330111 $=
200608161510 SPECI KBLI 161510Z 19010KT 10SM FEW007 SCT050 SCT080 13/11 A3005 RMK AO2 $=
200608161510 SPECI KBLI 161510Z 19010KT 10SM FEW007 SCT050 SCT080 13/11 A3005 RMK AO2 $=
200608161453 METAR KBLI 161453Z 19009KT 10SM CLR 13/11 A3005 RMK AO2 SLP182 T01330111 $=
200608161353 METAR KBLI 161353Z AUTO 18009KT 10SM FEW007 13/11 RMK AO2 SLPNO T01280111 TSNO $=
200608161305 SPECI KBLI 161305Z AUTO 19008KT 9SM FEW006 12/11 RMK AO2 TSNO $=
200608161305 SPECI KBLI 161305Z AUTO 19008KT 9SM FEW006 12/11 RMK AO2 TSNO $=
200608161253 METAR KBLI 161253Z AUTO 19008KT 10SM CLR 13/11 RMK AO2 SLPNO T01280111 TSNO $=
200608161153 METAR KBLI 161153Z AUTO 20006KT 10SM CLR 13/11 RMK AO2 SLPNO T01280111 10156 20100 TSNO $=
200608161053 METAR KBLI 161053Z AUTO 20005KT 10SM CLR 13/12 RMK AO2 SLPNO T01330117 TSNO $=
200608160953 METAR KBLI 160953Z AUTO 00000KT 10SM CLR 11/09 RMK AO2 SLPNO T01060094 TSNO $=
200608160853 METAR KBLI 160853Z 19004KT 10SM CLR 13/12 RMK AO2 SLPNO T01330117 $=
200608160753 METAR KBLI 160753Z 18003KT 10SM CLR 13/12 RMK AO2 SLPNO T01330117 402060117 $=
200608160653 METAR KBLI 160653Z 17005KT 10SM CLR 15/11 RMK AO2 SLPNO T01500111 $=
200608160553 METAR KBLI 160553Z 18008KT 10SM CLR 16/11 RMK AO2 SLPNO T01560106 10200 20150 $=
200608160453 METAR KBLI 160453Z 20005KT 10SM CLR 16/12 A2998 RMK AO2 SLP159 T01560122=
200608160353 METAR KBLI 160353Z 19005KT 10SM CLR 16/12 A2998 RMK AO2 SLP158 T01610117=
200608160253 METAR KBLI 160253Z 19003KT 10SM CLR 18/12 A2998 RMK AO2 SLP159 T01830117 55006=
200608160153 METAR KBLI 160153Z 18004KT 10SM CLR 19/11 A2998 RMK AO2 SLP158 T01940111=
200608160053 METAR KBLI 160053Z VRB04KT 10SM CLR 19/11 A2999 RMK AO2 SLP162 T01890111=
200608152353 METAR KBLI 152353Z AUTO 20005KT 10SM CLR 20/12 A3000 RMK AO2 SLP164 T02000117 10206 20172 57012=
200608152253 METAR KBLI 152253Z AUTO 19005KT 10SM CLR 19/11 A3001 RMK AO2 SLP168 T01940111 TSNO=
200608152153 METAR KBLI 152153Z VRB05KT 10SM CLR 19/11 A3002 RMK AO2 SLP172 T01940111=
200608152053 METAR KBLI 152053Z 18007KT 10SM CLR 18/11 A3003 RMK AO2 SLP176 T01830111 58006=
200608151953 METAR KBLI 151953Z 19006KT 10SM SCT070 19/12 A3004 RMK AO2 SLP178 T01890122=
200608151853 METAR KBLI 151853Z 19006KT 10SM FEW023 18/12 A3005 RMK AO2 SLP180 T01780117=
200608151753 METAR KBLI 151753Z 29006KT 10SM FEW023 18/11 A3005 RMK AO2 SLP182 T01830111 10183 20133 51004=
200608151741 SPECI KBLI 151741Z VRB06KT 10SM FEW021 18/11 A3005 RMK AO2=
200608151741 SPECI KBLI 151741Z VRB06KT 10SM FEW021 18/11 A3005 RMK AO2=
200608151653 METAR KBLI 151653Z 18008KT 10SM BKN017 16/12 A3005 RMK AO2 SLP182 T01610117=
200608151634 SPECI KBLI 151634Z VRB05KT 10SM BKN019 BKN080 16/12 A3005 RMK AO2=
200608151634 SPECI KBLI 151634Z VRB05KT 10SM BKN019 BKN080 16/12 A3005 RMK AO2=
200608151553 METAR KBLI 151553Z 18007KT 10SM CLR 15/12 A3005 RMK AO2 SLP180 T01500117=
200608151453 METAR KBLI 151453Z 18005KT 10SM SCT018 14/12 A3004 RMK AO2 SLP178 T01440122 51014=
200608151353 METAR KBLI 151353Z 19005KT 10SM FEW018 13/12 A3003 RMK AO2 SLP175 T01330122=
200608151253 METAR KBLI 151253Z AUTO 19005KT 10SM FEW075 13/12 A3001 RMK AO2 SLP168 T01330117=
200608151153 METAR KBLI 151153Z AUTO 20003KT 10SM SCT080 13/12 A3000 RMK AO2 SLP163 T01330117 10156 20117 53006=
200608151053 METAR KBLI 151053Z AUTO 19003KT 10SM BKN080 13/11 A2999 RMK AO2 SLP161 T01280111=
200608150953 METAR KBLI 150953Z AUTO 00000KT 10SM FEW080 13/11 A2998 RMK AO2 SLP159 T01280111=
200608150853 METAR KBLI 150853Z AUTO 18003KT 10SM SCT085 15/12 A2998 RMK AO2 SLP158 T01500122 53007=
200608150753 METAR KBLI 150753Z AUTO 18005KT 10SM CLR 15/12 A2998 RMK AO2 SLP157 T01500117 402500100=
200608150653 METAR KBLI 150653Z AUTO 20006KT 10SM CLR 16/13 A2997 RMK AO2 SLP153 T01560133=
200608150553 METAR KBLI 150553Z AUTO 00000KT 10SM CLR 14/13 A2996 RMK AO2 SLP152 T01390128 10244 20139 51012=
200608150453 METAR KBLI 150453Z 21003KT 10SM CLR 16/13 A2996 RMK AO2 SLP149 T01610133=
200608150353 METAR KBLI 150353Z 21003KT 10SM CLR 17/13 A2994 RMK AO2 SLP145 T01670133=
200608150253 METAR KBLI 150253Z 00000KT 10SM CLR 20/13 A2993 RMK AO2 SLP140 T02000128 55002=
200608150153 METAR KBLI 150153Z VRB04KT 10SM CLR 22/13 A2992 RMK AO2 SLP137 T02170128=
200608150053 METAR KBLI 150053Z VRB05KT 10SM CLR 24/12 A2993 RMK AO2 SLP141 T02390122=
200608142353 METAR KBLI 142353Z VRB03KT 10SM CLR 24/11 A2993 RMK AO2 SLP142 T02440106 10250 20194 58013=
200608142253 METAR KBLI 142253Z AUTO 28004KT 10SM CLR 24/11 A2995 RMK AO2 SLP146 T02390111 TSNO=
200608142153 METAR KBLI 142153Z VRB04KT 10SM CLR 23/13 A2996 RMK AO2 SLP152 T02330128=
200608142053 METAR KBLI 142053Z 25005KT 10SM CLR 22/13 A2997 RMK AO2 SLP155 T02170128 58006=
200608141953 METAR KBLI 141953Z 23007KT 210V290 10SM CLR 21/13 A2997 RMK AO2 SLP156 T02060133=
200608141853 METAR KBLI 141853Z VRB06KT 10SM CLR 21/14 A2999 RMK AO2 SLP160 T02060139=
200608141753 METAR KBLI 141753Z 28005KT 10SM CLR 19/14 A2999 RMK AO2 SLP161 T01940144 10194 20100 51002=
200608141653 METAR KBLI 141653Z VRB06KT 10SM CLR 18/14 A2999 RMK AO2 SLP160 T01830144=
200608141553 METAR KBLI 141553Z VRB03KT 10SM CLR 17/14 A2998 RMK AO2 SLP159 T01720139=
200608141453 METAR KBLI 141453Z 17003KT 10SM CLR 16/14 A2998 RMK AO2 SLP158 T01610139 53004=
200608141353 METAR KBLI 141353Z 00000KT 10SM CLR 12/11 A2997 RMK AO2 SLP156 T01170111=
200608141253 METAR KBLI 141253Z AUTO 00000KT 10SM CLR 11/09 A2997 RMK AO2 SLP155 T01060094=
200608141206 SPECI KBLI 141206Z AUTO 00000KT 4SM BR CLR 11/10 A2997 RMK AO2=
200608141206 SPECI KBLI 141206Z AUTO 00000KT 4SM BR CLR 11/10 A2997 RMK AO2=
200608141204 SPECI KBLI 141204Z AUTO 00000KT 1 1/2SM BR FEW007 11/10 A2997 RMK AO2=
200608141204 SPECI KBLI 141204Z AUTO 00000KT 1 1/2SM BR FEW007 11/10 A2997 RMK AO2=
200608141155 SPECI KBLI 141155Z AUTO 00000KT 3/4SM BR VV007 11/11 A2997 RMK AO2=
200608141155 SPECI KBLI 141155Z AUTO 00000KT 3/4SM BR VV007 11/11 A2997 RMK AO2=
200608141153 METAR KBLI 141153Z AUTO 00000KT 1SM BR CLR 11/11 A2997 RMK AO2 SLP154 T01110106 10144 20100 55001=
200608141149 SPECI KBLI 141149Z AUTO 00000KT 1 1/2SM BR CLR 11/10 A2997 RMK AO2 VIS 1/2V5=
200608141149 SPECI KBLI 141149Z AUTO 00000KT 1 1/2SM BR CLR 11/10 A2997 RMK AO2 VIS 1/2V5=
200608141129 SPECI KBLI 141129Z AUTO 00000KT 4SM BR CLR 11/11 A2997 RMK AO2=
200608141129 SPECI KBLI 141129Z AUTO 00000KT 4SM BR CLR 11/11 A2997 RMK AO2=
200608141124 SPECI KBLI 141124Z AUTO 00000KT 1 1/4SM BR CLR 11/10 A2997 RMK AO2=
200608141124 SPECI KBLI 141124Z AUTO 00000KT 1 1/4SM BR CLR 11/10 A2997 RMK AO2=
200608141053 METAR KBLI 141053Z AUTO 00000KT 10SM CLR 12/11 A2997 RMK AO2 SLP153 T01220106=
200608140953 METAR KBLI 140953Z AUTO 00000KT 9SM CLR 13/12 A2997 RMK AO2 SLP154 T01280117=
200608140853 METAR KBLI 140853Z AUTO 00000KT 10SM CLR 13/12 A2997 RMK AO2 SLP155 T01280117 56003=
200608140753 METAR KBLI 140753Z AUTO 18004KT 10SM CLR 14/12 A2997 RMK AO2 SLP156 T01390122 402390089=
200608140653 METAR KBLI 140653Z AUTO 00000KT 10SM CLR 13/12 A2998 RMK AO2 SLP157 T01280117=
200608140553 METAR KBLI 140553Z AUTO 00000KT 10SM CLR 14/12 A2998 RMK AO2 SLP159 T01440122 10239 20139 51006=
200608140453 METAR KBLI 140453Z 00000KT 10SM CLR 15/12 A2998 RMK AO2 SLP158 T01500122=
200608140353 METAR KBLI 140353Z 28005KT 10SM CLR 18/12 A2997 RMK AO2 SLP155 T01780122=
200608140253 METAR KBLI 140253Z 28005KT 10SM CLR 20/14 A2997 RMK AO2 SLP153 T02000139 56013=
200608140153 METAR KBLI 140153Z VRB03KT 10SM CLR 23/13 A2997 RMK AO2 SLP155 T02280133=
200608140053 METAR KBLI 140053Z 29004KT 10SM CLR 24/12 A2999 RMK AO2 SLP160 T02390122=
200608132353 METAR KBLI 132353Z 29006KT 10SM CLR 24/11 A3000 RMK AO2 SLP166 T02390111 10239 20200 58018=
200608132253 METAR KBLI 132253Z 30007KT 10SM CLR 23/12 A3003 RMK AO2 SLP173 T02330122=
200608132153 METAR KBLI 132153Z VRB06KT 10SM CLR 23/12 A3004 RMK AO2 SLP178 T02280122=
200608132053 METAR KBLI 132053Z 33008KT 10SM CLR 23/12 A3006 RMK AO2 SLP184 T02280122 58014=
200608131953 METAR KBLI 131953Z 29008KT 10SM CLR 21/12 A3007 RMK AO2 SLP189 T02110122=
200608131853 METAR KBLI 131853Z 10003KT 10SM CLR 22/12 A3009 RMK AO2 SLP194 T02170122=
200608131753 METAR KBLI 131753Z VRB04KT 10SM CLR 21/13 A3010 RMK AO2 SLP198 T02060128 10206 20089 58004=
200608131653 METAR KBLI 131653Z VRB03KT 10SM CLR 18/12 A3011 RMK AO2 SLP201 T01780122=
200608131553 METAR KBLI 131553Z 00000KT 7SM CLR 16/12 A3011 RMK AO2 SLP202 T01560122=
200608131453 METAR KBLI 131453Z 00000KT 10SM CLR 14/13 A3011 RMK AO2 SLP203 T01390128 53006=
200608131353 METAR KBLI 131353Z AUTO 00000KT 6SM BR CLR 10/09 A3010 RMK AO2 SLP199 T01000094=
200608131318 SPECI KBLI 131318Z AUTO 00000KT 3SM BR CLR 10/09 A3010 RMK AO2=
200608131318 SPECI KBLI 131318Z AUTO 00000KT 3SM BR CLR 10/09 A3010 RMK AO2=
200608131306 SPECI KBLI 131306Z AUTO 00000KT 3/4SM BR CLR 09/09 A3010 RMK AO2=
200608131306 SPECI KBLI 131306Z AUTO 00000KT 3/4SM BR CLR 09/09 A3010 RMK AO2=
200608131253 METAR KBLI 131253Z AUTO 00000KT 7SM CLR 09/09 A3010 RMK AO2 SLP198 T00940089=
200608131221 SPECI KBLI 131221Z AUTO 00000KT 3SM BR CLR 09/09 A3009 RMK AO2=
200608131221 SPECI KBLI 131221Z AUTO 00000KT 3SM BR CLR 09/09 A3009 RMK AO2=
200608131209 SPECI KBLI 131209Z AUTO 00000KT 1 3/4SM BR CLR 09/09 A3009 RMK AO2 VIS 1/2V5=
200608131209 SPECI KBLI 131209Z AUTO 00000KT 1 3/4SM BR CLR 09/09 A3009 RMK AO2 VIS 1/2V5=
200608131153 METAR KBLI 131153Z AUTO 00000KT 5SM BR CLR 11/09 A3009 RMK AO2 SLP196 T01060094 10133 20094 55001=
200608131053 METAR KBLI 131053Z AUTO 00000KT 9SM CLR 11/09 A3009 RMK AO2 SLP196 T01060094=
200608131018 SPECI KBLI 131018Z AUTO 05003KT 4SM BR CLR 10/09 A3009 RMK AO2=
200608131018 SPECI KBLI 131018Z AUTO 05003KT 4SM BR CLR 10/09 A3009 RMK AO2=
200608131007 SPECI KBLI 131007Z AUTO 00000KT 1 1/2SM BR CLR 11/10 A3010 RMK AO2=
200608131007 SPECI KBLI 131007Z AUTO 00000KT 1 1/2SM BR CLR 11/10 A3010 RMK AO2=
200608130953 METAR KBLI 130953Z AUTO 00000KT 5SM BR CLR 12/11 A3009 RMK AO2 SLP197 T01170106=
200608130853 METAR KBLI 130853Z AUTO 00000KT 9SM CLR 12/11 A3010 RMK AO2 SLP198 T01170106 52004=
200608130753 METAR KBLI 130753Z AUTO 00000KT 10SM CLR 12/11 A3010 RMK AO2 SLP197 T01220111 402170100=
200608130653 METAR KBLI 130653Z AUTO 19003KT 10SM CLR 13/12 A3009 RMK AO2 SLP194 T01330117=
200608130553 METAR KBLI 130553Z AUTO 00000KT 10SM CLR 13/11 A3009 RMK AO2 SLP194 T01280111 10217 20122 51007=
200608130453 METAR KBLI 130453Z 00000KT 10SM CLR 13/11 A3009 RMK AO2 SLP195 T01330111=
200608130353 METAR KBLI 130353Z VRB03KT 10SM CLR 16/12 A3007 RMK AO2 SLP190 T01560117=
200608130253 METAR KBLI 130253Z 00000KT 10SM CLR 18/11 A3007 RMK AO2 SLP187 T01780111 56008=
200608130153 METAR KBLI 130153Z 28005KT 10SM CLR 20/09 A3007 RMK AO2 SLP189 T02000094=
200608130053 METAR KBLI 130053Z 24006KT 10SM CLR 21/11 A3008 RMK AO2 SLP192 T02060106=
200608122353 METAR KBLI 122353Z 25004KT 10SM CLR 21/11 A3009 RMK AO2 SLP195 T02110106 10217 20161 58015=
200608122253 METAR KBLI 122253Z VRB04KT 10SM SCT040 22/11 A3011 RMK AO2 SLP201 T02170111=
200608122153 METAR KBLI 122153Z 24005KT 10SM SCT040 20/11 A3013 RMK AO2 SLP207 T02000106=
200608122053 METAR KBLI 122053Z VRB04KT 10SM SCT036 21/11 A3013 RMK AO2 SLP210 T02060111 56006=
200608121953 METAR KBLI 121953Z 00000KT 10SM SCT025 19/12 A3014 RMK AO2 SLP212 T01890117=
200608121853 METAR KBLI 121853Z 00000KT 10SM OVC046 17/11 A3015 RMK AO2 SLP216 T01720111=
200608121753 METAR KBLI 121753Z VRB03KT 10SM OVC044 16/11 A3016 RMK AO2 SLP217 T01610111 10161 20100 50002=
200608121653 METAR KBLI 121653Z 20003KT 10SM OVC044 14/11 A3016 RMK AO2 SLP219 T01390106=
200608121553 METAR KBLI 121553Z 00000KT 10SM FEW027 OVC046 13/11 A3016 RMK AO2 SLP218 T01330106=
200608121453 METAR KBLI 121453Z VRB03KT 10SM OVC048 13/11 A3015 RMK AO2 SLP215 T01280106 53010=
200608121353 METAR KBLI 121353Z AUTO VRB03KT 10SM OVC050 13/11 A3013 RMK AO2 SLP210 T01280106=
200608121253 METAR KBLI 121253Z AUTO 00000KT 10SM OVC050 12/11 A3013 RMK AO2 SLP207 T01220106=
200608121153 METAR KBLI 121153Z AUTO 00000KT 9SM OVC055 11/09 A3012 RMK AO2 SLP205 7//// T01060094 10128 20100 51001=
200608121053 METAR KBLI 121053Z AUTO 00000KT 10SM OVC055 10/09 A3012 RMK AO2 SLP205 T01000094=
200608120953 METAR KBLI 120953Z AUTO 00000KT 9SM SCT055 11/10 A3012 RMK AO2 SLP206 T01110100=
200608120853 METAR KBLI 120853Z AUTO 18003KT 10SM SCT060 11/10 A3011 RMK AO2 SLP204 T01110100 50002=
200608120753 METAR KBLI 120753Z AUTO 00000KT 10SM CLR 11/09 A3011 RMK AO2 SLP204 T01110094 401780106=
200608120653 METAR KBLI 120653Z AUTO 00000KT 10SM CLR 11/10 A3011 RMK AO2 SLP203 T01110100=
200608120553 METAR KBLI 120553Z AUTO 19003KT 10SM CLR 13/11 A3011 RMK AO2 SLP202 T01280106 10178 20128 51002=
200608120453 METAR KBLI 120453Z 19004KT 10SM CLR 14/11 A3010 RMK AO2 SLP201 T01390106=
200608120353 METAR KBLI 120353Z 17004KT 10SM CLR 14/11 A3011 RMK AO2 SLP201 T01390111=
200608120253 METAR KBLI 120253Z 20006KT 10SM CLR 16/11 A3010 RMK AO2 SLP199 T01610106 56008=
200608120153 METAR KBLI 120153Z 19007KT 10SM CLR 17/11 A3011 RMK AO2 SLP200 T01670111=
200608120053 METAR KBLI 120053Z 19007KT 10SM CLR 17/11 A3011 RMK AO2 SLP202 T01720111=
200608112353 METAR KBLI 112353Z VRB06KT 10SM CLR 17/11 A3013 RMK AO2 SLP207 T01720111 10172 20139 56009=
200608112253 METAR KBLI 112253Z AUTO 21008KT 160V250 10SM FEW030 17/12 A3013 RMK AO2 SLP210 T01720117 TSNO=
200608112153 METAR KBLI 112153Z 20011KT 10SM SCT030 SCT050 16/11 A3014 RMK AO2 SLP212 T01610111=
200608112053 METAR KBLI 112053Z 19009KT 10SM SCT028 BKN050 16/11 A3015 RMK AO2 SLP217 T01560106 51004=
200608112012 SPECI KBLI 112012Z 18009KT 10SM FEW012 BKN030 BKN060 15/11 A3016 RMK AO2=
200608112012 SPECI KBLI 112012Z 18009KT 10SM FEW012 BKN030 BKN060 15/11 A3016 RMK AO2=
200608112000 SPECI KBLI 112000Z 18010KT 10SM OVC023 15/11 A3016 RMK AO2=
200608112000 SPECI KBLI 112000Z 18010KT 10SM OVC023 15/11 A3016 RMK AO2=
200608111953 METAR KBLI 111953Z 20008KT 10SM FEW012 BKN030 BKN060 15/11 A3015 RMK AO2 SLP216 T01500111=
200608111853 METAR KBLI 111853Z 18012KT 10SM OVC020 14/11 A3014 RMK AO2 SLP213 T01440111=
200608111753 METAR KBLI 111753Z 18011KT 10SM OVC020 14/11 A3014 RMK AO2 SLP212 6//// T01440106 10161 20128 53009=
200608111653 METAR KBLI 111653Z 19012KT 10SM FEW013 BKN018 OVC050 14/11 A3013 RMK AO2 SLP208 T01390106 PNO=
200608111553 METAR KBLI 111553Z 18013G20KT 10SM BKN023 OVC050 14/11 A3012 RMK AO2 SLP205 T01440106 PNO=
200608111537 SPECI KBLI 111537Z 18014KT 10SM BKN023 OVC050 14/11 A3012 RMK AO2 PNO=
200608111537 SPECI KBLI 111537Z 18014KT 10SM BKN023 OVC050 14/11 A3012 RMK AO2 PNO=
200608111453 METAR KBLI 111453Z 18012KT 10SM SCT023 BKN050 OVC075 14/11 A3011 RMK AO2 SLP203 6//// T01390106 51013 PNO=
200608111353 METAR KBLI 111353Z 18014G18KT 10SM FEW013 SCT050 OVC080 13/11 A3010 RMK AO2 SLP199 T01330106 PNO=
200608111253 METAR KBLI 111253Z AUTO 17013G18KT 10SM SCT013 OVC055 13/11 A3009 RMK AO2 SLP197 T01330106 PNO=
200608111153 METAR KBLI 111153Z AUTO 18009KT 10SM BKN050 OVC110 13/11 A3008 RMK AO2 SLP190 6//// 7//// T01330106 10150 20128 53009 PNO=
200608111053 METAR KBLI 111053Z AUTO 18010KT 10SM BKN065 OVC110 13/11 A3006 RMK AO2 SLP186 T01280106 PNO=
200608110953 METAR KBLI 110953Z AUTO 19009KT 10SM FEW055 BKN110 13/11 A3005 RMK AO2 SLP182 T01330106 PNO=
200608110853 METAR KBLI 110853Z AUTO 19007KT 10SM BKN110 14/11 A3005 RMK AO2 SLP181 6//// T01390111 56000 PNO=
200608110753 METAR KBLI 110753Z AUTO 19008KT 10SM CLR 14/11 A3005 RMK AO2 SLP181 T01440111 401940128 PNO=
200608110653 METAR KBLI 110653Z AUTO 17007KT 10SM CLR 15/11 A3005 RMK AO2 SLP181 T01500106 PNO=
200608110553 METAR KBLI 110553Z AUTO VRB03KT 10SM CLR 15/11 A3005 RMK AO2 SLP181 6//// T01500111 10194 20150 50005 PNO=
200608110453 METAR KBLI 110453Z 19005KT 10SM BKN060 16/12 A3005 RMK AO2 SLP182 T01610117 PNO=
200608110353 METAR KBLI 110353Z 19005KT 10SM BKN090 17/12 A3004 RMK AO2 SLP178 T01720122 PNO=
200608110253 METAR KBLI 110253Z 19004KT 10SM OVC090 18/13 A3004 RMK AO2 SLP176 6//// T01780128 56005 PNO=
200608110153 METAR KBLI 110153Z 18005KT 10SM BKN100 18/13 A3004 RMK AO2 SLP178 T01830128 PNO=
200608110053 METAR KBLI 110053Z 19007KT 10SM SCT080 19/12 A3004 RMK AO2 SLP179 T01940117 PNO=
200608102353 METAR KBLI 102353Z 20005KT 10SM SCT075 19/12 A3005 RMK AO2 SLP181 6//// T01890122 10189 20150 56007 PNO=
200608102253 METAR KBLI 102253Z 19008KT 10SM SCT018 BKN080 19/12 A3005 RMK AO2 SLP182 T01890122 PNO=
200608102153 METAR KBLI 102153Z 20005KT 10SM SCT018 18/13 A3006 RMK AO2 SLP186 T01780128 PNO=
200608102134 SPECI KBLI 102134Z 18008KT 10SM SCT018 18/13 A3006 RMK AO2 PNO $=
200608102134 SPECI KBLI 102134Z 18008KT 10SM SCT018 18/13 A3006 RMK AO2 PNO $=
200608102053 METAR KBLI 102053Z VRB04KT 10SM FEW011 BKN016 OVC085 17/13 A3007 RMK AO2 SLP188 6//// T01720133 58000 PNO $=
200608102016 SPECI KBLI 102016Z VRB04KT 10SM FEW011 BKN016 OVC085 16/13 A3007 RMK AO2 PNO $=
200608102016 SPECI KBLI 102016Z VRB04KT 10SM FEW011 BKN016 OVC085 16/13 A3007 RMK AO2 PNO $=
200608101953 METAR KBLI 101953Z 16006KT 10SM BKN011 OVC080 16/13 A3007 RMK AO2 SLP189 T01610133 PNO $=
200608101925 SPECI KBLI 101925Z 18005KT 10SM FEW007 BKN011 OVC080 16/14 A3007 RMK AO2 PNO $=
200608101925 SPECI KBLI 101925Z 18005KT 10SM FEW007 BKN011 OVC080 16/14 A3007 RMK AO2 PNO $=
200608101911 SPECI KBLI 101911Z 19004KT 10SM BKN006 BKN011 OVC080 16/14 A3007 RMK AO2 PNO $=
200608101911 SPECI KBLI 101911Z 19004KT 10SM BKN006 BKN011 OVC080 16/14 A3007 RMK AO2 PNO $=
200608101902 SPECI KBLI 101902Z 20004KT 10SM SCT006 BKN011 OVC080 15/14 A3007 RMK AO2 PNO $=
200608101902 SPECI KBLI 101902Z 20004KT 10SM SCT006 BKN011 OVC080 15/14 A3007 RMK AO2 PNO $=
200608101853 METAR KBLI 101853Z 19004KT 10SM BKN006 OVC011 15/14 A3007 RMK AO2 RAE14 SLP189 T01500139 PNO $=
200608101804 SPECI KBLI 101804Z 16004KT 9SM -RA BKN008 BKN037 OVC075 15/14 A3007 RMK AO2 PNO $=
200608101804 SPECI KBLI 101804Z 16004KT 9SM -RA BKN008 BKN037 OVC075 15/14 A3007 RMK AO2 PNO $=
200608101753 METAR KBLI 101753Z 00000KT 9SM -RA FEW010 SCT043 OVC075 15/14 A3007 RMK AO2 SLP188 6//// T01500139 10150 20128 51005 PNO $=
200608101729 SPECI KBLI 101729Z 00000KT 7SM -RA FEW010 BKN021 OVC080 15/13 A3007 RMK AO2 PNO $=
200608101729 SPECI KBLI 101729Z 00000KT 7SM -RA FEW010 BKN021 OVC080 15/13 A3007 RMK AO2 PNO $=
200608101715 SPECI KBLI 101715Z 00000KT 9SM -RA FEW010 SCT021 OVC080 15/14 A3007 RMK AO2 PNO $=
200608101715 SPECI KBLI 101715Z 00000KT 9SM -RA FEW010 SCT021 OVC080 15/14 A3007 RMK AO2 PNO $=
200608101653 METAR KBLI 101653Z 00000KT 4SM -RA BR FEW011 BKN021 OVC080 14/13 A3006 RMK AO2 SLP186 T01440133 PNO $=
200608101553 METAR KBLI 101553Z VRB03KT 3SM -RA BR BKN017 OVC041 14/13 A3007 RMK AO2 RAB1459 SLP188 T01440128 PNO $=
200608101509 SPECI KBLI 101509Z 23004KT 10SM -RA BKN017 BKN041 OVC048 14/13 A3006 RMK AO2 RAB1459 P0000=
200608101509 SPECI KBLI 101509Z 23004KT 10SM -RA BKN017 BKN041 OVC048 14/13 A3006 RMK AO2 RAB1459 P0000=
200608101453 METAR KBLI 101453Z VRB03KT 10SM SCT015 OVC043 14/12 A3006 RMK AO2 SLP184 T01440122 52001=
200608101353 METAR KBLI 101353Z 19004KT 10SM FEW036 BKN050 BKN060 14/12 A3005 RMK AO2 SLP182 T01440122=
200608101253 METAR KBLI 101253Z AUTO 21003KT 10SM BKN110 13/12 A3006 RMK AO2 SLP183 T01330122=
200608101153 METAR KBLI 101153Z AUTO 00000KT 10SM FEW049 OVC110 14/12 A3005 RMK AO2 SLP182 T01390122 10150 20133 58008=
200608101053 METAR KBLI 101053Z AUTO 17004KT 10SM BKN047 OVC110 14/12 A3006 RMK AO2 SLP185 T01390122=
200608100953 METAR KBLI 100953Z AUTO 00000KT 10SM FEW045 OVC110 14/13 A3007 RMK AO2 SLP188 T01440128=
200608100853 METAR KBLI 100853Z AUTO 00000KT 10SM SCT049 OVC120 13/13 A3007 RMK AO2 SLP190 T01330128 58008=
200608100753 METAR KBLI 100753Z AUTO 00000KT 10SM OVC120 14/13 A3008 RMK AO2 SLP192 T01440128 402000133=
200608100653 METAR KBLI 100653Z AUTO 19004KT 10SM CLR 14/13 A3010 RMK AO2 SLP197 T01440128=
200608100553 METAR KBLI 100553Z AUTO 19003KT 10SM FEW120 14/13 A3010 RMK AO2 SLP198 T01390128 10200 20133 58002=
200608100453 METAR KBLI 100453Z 00000KT 10SM CLR 14/13 A3010 RMK AO2 SLP200 T01390128=
200608100353 METAR KBLI 100353Z 20003KT 9SM CLR 16/14 A3011 RMK AO2 SLP201 T01560139=
200608100253 METAR KBLI 100253Z 18003KT 10SM CLR 18/14 A3011 RMK AO2 SLP200 T01780144 56009=
200608100153 METAR KBLI 100153Z VRB03KT 10SM CLR 19/14 A3011 RMK AO2 SLP201 T01890139=
200608100053 METAR KBLI 100053Z 18006KT 10SM CLR 19/14 A3012 RMK AO2 SLP206 T01940139=
200608092353 METAR KBLI 092353Z 18007KT 10SM CLR 19/13 A3013 RMK AO2 SLP209 T01940133 10200 20150 58008=
200608092253 METAR KBLI 092253Z 17008KT 10SM CLR 19/14 A3015 RMK AO2 SLP214 T01940139=
200608092153 METAR KBLI 092153Z 21006KT 10SM SCT040 18/14 A3015 RMK AO2 SLP217 T01830144=
200608092151 SPECI KBLI 092151Z 20007KT 10SM SCT040 18/14 A3016 RMK AO2=
200608092151 SPECI KBLI 092151Z 20007KT 10SM SCT040 18/14 A3016 RMK AO2=
200608092053 METAR KBLI 092053Z 18006KT 10SM SCT008 BKN015 BKN045 18/15 A3016 RMK AO2 SLP220 T01830150 58001 $=
200608092041 SPECI KBLI 092041Z VRB06KT 10SM SCT008 BKN015 BKN045 17/14 A3016 RMK AO2 $=
200608092041 SPECI KBLI 092041Z VRB06KT 10SM SCT008 BKN015 BKN045 17/14 A3016 RMK AO2 $=
200608092026 SPECI KBLI 092026Z 20005KT 10SM BKN006 OVC047 17/15 A3016 RMK AO2 CIG 004V010 $=
200608092026 SPECI KBLI 092026Z 20005KT 10SM BKN006 OVC047 17/15 A3016 RMK AO2 CIG 004V010 $=
200608091953 METAR KBLI 091953Z 17007KT 9SM OVC004 16/14 A3016 RMK AO2 CIG 003V007 SLP220 VIS SE-SW 1 BR T01560144 $=
200608091901 SPECI KBLI 091901Z 18003KT 5SM BR OVC004 16/15 A3017 RMK AO2 CIG 002V006 $=
200608091901 SPECI KBLI 091901Z 18003KT 5SM BR OVC004 16/15 A3017 RMK AO2 CIG 002V006 $=
200608091853 METAR KBLI 091853Z VRB03KT 2SM BR OVC001 15/14 A3017 RMK AO2 SLP221 T01500144 $=
200608091753 METAR KBLI 091753Z 20003KT 2 1/2SM BR OVC002 15/14 A3017 RMK AO2 SLP221 60000 T01500144 10150 20144 53006 $=
200608091700 SPECI KBLI 091700Z 19006KT 2 1/2SM BR OVC002 14/14 A3016 RMK AO2=
200608091700 SPECI KBLI 091700Z 19006KT 2 1/2SM BR OVC002 14/14 A3016 RMK AO2=
200608091653 METAR KBLI 091653Z 20006KT 1 1/2SM BR OVC002 14/14 A3016=
200608091640 SPECI KBLI 091640Z 19006KT 1 1/2SM BR OVC002 14/14 A3016 RMK AO2=
200608091640 SPECI KBLI 091640Z 19006KT 1 1/2SM BR OVC002 14/14 A3016 RMK AO2=
200608091553 METAR KBLI 091553Z 19006KT 10SM OVC002 14/14 A3015 RMK AO2 SLP216 T01440139=
200608091540 SPECI KBLI 091540Z 19006KT 10SM OVC002 14/14 A3015 RMK AO2=
200608091540 SPECI KBLI 091540Z 19006KT 10SM OVC002 14/14 A3015 RMK AO2=
200608091453 METAR KBLI 091453Z 18007KT 2SM BR OVC002 14/14 A3015 RMK AO2 RAE16 SLP215 VIS NW 4 P0000 60000 T01440139 50006=
200608091449 SPECI KBLI 091449Z 18006KT 2SM BR OVC002 14/14 A3015 RMK AO2 RAE16 VIS NW 4 P0000=
200608091449 SPECI KBLI 091449Z 18006KT 2SM BR OVC002 14/14 A3015 RMK AO2 RAE16 VIS NW 4 P0000=
200608091353 METAR KBLI 091353Z 19004KT 1SM -RA BR OVC002 14/14 A3014 RMK AO2 RAE1256B13 SLP212 P0000 T01440139=
200608091346 SPECI KBLI 091346Z AUTO 20004KT 2SM -RA BR OVC002 14/14 A3014 RMK AO2 RAE1256B13 P0000=
200608091346 SPECI KBLI 091346Z AUTO 20004KT 2SM -RA BR OVC002 14/14 A3014 RMK AO2 RAE1256B13 P0000=
200608091330 SPECI KBLI 091330Z AUTO 19006KT 1 3/4SM -RA BR OVC002 14/14 A3014 RMK AO2 RAE1256B13 P0000=
200608091330 SPECI KBLI 091330Z AUTO 19006KT 1 3/4SM -RA BR OVC002 14/14 A3014 RMK AO2 RAE1256B13 P0000=
200608091253 METAR KBLI 091253Z AUTO 19006KT 5SM -RA BR OVC002 15/14 A3013 RMK AO2 RAB01 SLP209 P0000 T01500144=
200608091153 METAR KBLI 091153Z AUTO 21004KT 5SM BR OVC002 15/14 A3013 RMK AO2 RAE51 SLP208 P0000 60000 T01500144 10161 20150 57002=
200608091139 SPECI KBLI 091139Z AUTO 18004KT 3SM -RA BR BKN002 OVC015 16/15 A3013 RMK AO2 P0000=
200608091139 SPECI KBLI 091139Z AUTO 18004KT 3SM -RA BR BKN002 OVC015 16/15 A3013 RMK AO2 P0000=
200608091132 SPECI KBLI 091132Z AUTO 19005KT 2 1/2SM -RA BR BKN002 BKN009 OVC015 16/15 A3013 RMK AO2 P0000=
200608091132 SPECI KBLI 091132Z AUTO 19005KT 2 1/2SM -RA BR BKN002 BKN009 OVC015 16/15 A3013 RMK AO2 P0000=
200608091122 SPECI KBLI 091122Z AUTO 18004KT 3SM -RA BR BKN002 BKN009 OVC015 16/15 A3013 RMK AO2 P0000=
200608091122 SPECI KBLI 091122Z AUTO 18004KT 3SM -RA BR BKN002 BKN009 OVC015 16/15 A3013 RMK AO2 P0000=
200608091105 SPECI KBLI 091105Z AUTO 00000KT 3SM -RA BR SCT002 BKN012 OVC016 16/15 A3013 RMK AO2 P0000=
200608091105 SPECI KBLI 091105Z AUTO 00000KT 3SM -RA BR SCT002 BKN012 OVC016 16/15 A3013 RMK AO2 P0000=
200608091058 SPECI KBLI 091058Z AUTO 00000KT 2 1/2SM -RA BR BKN002 BKN008 OVC016 16/15 A3013 RMK AO2 P0000=
200608091058 SPECI KBLI 091058Z AUTO 00000KT 2 1/2SM -RA BR BKN002 BKN008 OVC016 16/15 A3013 RMK AO2 P0000=
200608091050 METAR KBLI 091050Z AUTO 00000KT 2SM -RA BR SCT002 OVC016 16/16 A3013 RMK AO2 SLP209 P0000 T01560156=
200608091049 SPECI KBLI 091049Z AUTO 00000KT 2SM -RA BR SCT002 OVC016 16/16 A3013 RMK AO2 P0000=
200608091049 SPECI KBLI 091049Z AUTO 00000KT 2SM -RA BR SCT002 OVC016 16/16 A3013 RMK AO2 P0000=
200608091027 SPECI KBLI 091027Z AUTO 00000KT 2SM -RA BR OVC014 16/15 A3013 RMK AO2 P0000=
200608091027 SPECI KBLI 091027Z AUTO 00000KT 2SM -RA BR OVC014 16/15 A3013 RMK AO2 P0000=
200608090953 METAR KBLI 090953Z AUTO 00000KT 2SM -RA BR OVC022 16/15 A3013 RMK AO2 SLP209 P0000 T01560150=
200608090922 SPECI KBLI 090922Z AUTO 00000KT 2 1/2SM -RA BR FEW008 BKN020 OVC027 16/15 A3013 RMK AO2 P0000=
200608090922 SPECI KBLI 090922Z AUTO 00000KT 2 1/2SM -RA BR FEW008 BKN020 OVC027 16/15 A3013 RMK AO2 P0000=
200608090912 SPECI KBLI 090912Z AUTO 00000KT 3SM -RA BR SCT008 OVC020 16/15 A3013 RMK AO2 P0000=
200608090912 SPECI KBLI 090912Z AUTO 00000KT 3SM -RA BR SCT008 OVC020 16/15 A3013 RMK AO2 P0000=
200608090853 METAR KBLI 090853Z AUTO 00000KT 2 1/2SM -RA BR BKN008 OVC026 16/15 A3013 RMK AO2 SLP210 P0000 60000 T01560150 58000=
200608090845 SPECI KBLI 090845Z AUTO 00000KT 4SM -RA BR BKN008 OVC026 16/15 A3013 RMK AO2 P0000=
200608090845 SPECI KBLI 090845Z AUTO 00000KT 4SM -RA BR BKN008 OVC026 16/15 A3013 RMK AO2 P0000=
200608090837 SPECI KBLI 090837Z AUTO 00000KT 3SM -RA BR SCT008 OVC029 16/15 A3013 RMK AO2 P0000=
200608090837 SPECI KBLI 090837Z AUTO 00000KT 3SM -RA BR SCT008 OVC029 16/15 A3013 RMK AO2 P0000=
200608090820 SPECI KBLI 090820Z AUTO 00000KT 4SM -RA BR OVC029 16/15 A3013 RMK AO2 P0000=
200608090820 SPECI KBLI 090820Z AUTO 00000KT 4SM -RA BR OVC029 16/15 A3013 RMK AO2 P0000=
200608090806 SPECI KBLI 090806Z AUTO 00000KT 2 1/2SM -RA BR OVC029 16/15 A3014 RMK AO2 P0000=
200608090806 SPECI KBLI 090806Z AUTO 00000KT 2 1/2SM -RA BR OVC029 16/15 A3014 RMK AO2 P0000=
200608090753 METAR KBLI 090753Z AUTO 00000KT 3SM -RA BR FEW004 OVC029 16/15 A3014 RMK AO2 RAB00 SLP211 P0000 T01560150 401890139=
200608090723 SPECI KBLI 090723Z AUTO 00000KT 3SM -RA BR FEW004 BKN029 OVC060 16/15 A3014 RMK AO2 RAB00 P0000=
200608090723 SPECI KBLI 090723Z AUTO 00000KT 3SM -RA BR FEW004 BKN029 OVC060 16/15 A3014 RMK AO2 RAB00 P0000=
200608090653 METAR KBLI 090653Z AUTO 00000KT 5SM BR SCT027 OVC060 16/15 A3014 RMK AO2 RAB0556E43 SLP211 P0000 T01610150=
200608090553 METAR KBLI 090553Z AUTO 00000KT 7SM BKN030 OVC055 16/15 A3013 RMK AO2 SLP210 60000 T01610150 10183 20161 52008=
200608090453 METAR KBLI 090453Z 00000KT 8SM BKN030 OVC060 16/14 A3013 RMK AO2 SLP209 T01610144=
200608090414 SPECI KBLI 090414Z 00000KT 8SM BKN030 OVC060 16/15 A3012 RMK AO2=
200608090414 SPECI KBLI 090414Z 00000KT 8SM BKN030 OVC060 16/15 A3012 RMK AO2=
200608090405 SPECI KBLI 090405Z 00000KT 8SM BKN029 OVC060 16/14 A3012 RMK AO2=
200608090405 SPECI KBLI 090405Z 00000KT 8SM BKN029 OVC060 16/14 A3012 RMK AO2=
200608090353 METAR KBLI 090353Z 00000KT 9SM OVC031 16/14 A3012 RMK AO2 RAB05E48 SLP204 P0000 T01610144=
200608090253 METAR KBLI 090253Z 34003KT 10SM FEW022 BKN039 OVC055 17/13 A3011 RMK AO2 SLP203 60000 T01670133 55002=
200608090153 METAR KBLI 090153Z 00000KT 10SM FEW024 BKN039 OVC060 17/13 A3011 RMK AO2 RAB0054E11 SLP201 P0000 T01720133=
200608090053 METAR KBLI 090053Z 00000KT 10SM SCT035 OVC050 17/13 A3011 RMK AO2 RAB12E52 SLP204 P0000 T01720128=
200608082353 METAR KBLI 082353Z 20004KT 10SM SCT044 OVC065 18/12 A3012 RMK AO2 SLP205 60000 T01780117 10189 20167 53002=
200608082253 METAR KBLI 082253Z VRB05KT 10SM SCT029 OVC038 18/12 A3012 RMK AO2 SLP205 T01830117=
200608082153 METAR KBLI 082153Z VRB04KT 10SM SCT027 BKN032 OVC041 17/12 A3011 RMK AO2 RAB35E47 SLP203 P0000 T01720122=
200608082053 METAR KBLI 082053Z 27006KT 10SM OVC047 19/12 A3011 RMK AO2 SLP203 T01890117 53005=
200608081953 METAR KBLI 081953Z 22010KT 180V250 10SM FEW075 BKN100 18/12 A3011 RMK AO2 SLP202 T01830117=
200608081853 METAR KBLI 081853Z 20013G18KT 10SM BKN085 17/11 A3010 RMK AO2 SLP198 T01720111=
200608081753 METAR KBLI 081753Z 19012KT 10SM BKN090 17/11 A3010 RMK AO2 SLP198 T01720111 10172 20139 53010=
200608081653 METAR KBLI 081653Z 19011G20KT 10SM SCT100 17/11 A3008 RMK AO2 SLP193 T01670111=
200608081553 METAR KBLI 081553Z 18015G20KT 10SM CLR 16/10 A3008 RMK AO2 SLP190 T01560100=
200608081453 METAR KBLI 081453Z 17011KT 10SM CLR 16/11 A3007 RMK AO2 SLP187 T01560106 52013=
200608081353 METAR KBLI 081353Z AUTO 16011KT 10SM CLR 14/10 A3005 RMK AO2 SLP183 T01440100=
200608081253 METAR KBLI 081253Z AUTO 17012G16KT 10SM CLR 14/10 A3004 RMK AO2 SLP179 T01390100=
200608081153 METAR KBLI 081153Z AUTO 18011KT 10SM CLR 14/09 A3003 RMK AO2 SLP174 T01440094 10172 20144 53012=
200608081053 METAR KBLI 081053Z AUTO 18010KT 10SM CLR 15/09 A3001 RMK AO2 SLP169 T01500094=
200608080953 METAR KBLI 080953Z AUTO 17011KT 10SM CLR 16/09 A3001 RMK AO2 SLP167 T01560089=
200608080853 METAR KBLI 080853Z AUTO 18014G20KT 10SM CLR 14/11 A2999 RMK AO2 SLP163 T01440106 53014=
200608080753 METAR KBLI 080753Z AUTO 18015G20KT 10SM CLR 17/08 A2997 RMK AO2 SLP154 T01720078 402170128=
200608080653 METAR KBLI 080653Z AUTO 18006KT 10SM CLR 16/08 A2996 RMK AO2 SLP152 T01610083=
200608080553 METAR KBLI 080553Z AUTO 18013G19KT 10SM CLR 17/08 A2995 RMK AO2 SLP149 T01720078 10211 20167 53019=
200608080453 METAR KBLI 080453Z 18015G21KT 10SM CLR 17/09 A2993 RMK AO2 SLP142 T01720094=
200608080353 METAR KBLI 080353Z 18016G23KT 10SM CLR 18/10 A2991 RMK AO2 SLP135 T01780100=
200608080253 METAR KBLI 080253Z 19012KT 10SM CLR 18/12 A2990 RMK AO2 SLP130 T01830122 56005=
200608080153 METAR KBLI 080153Z 19009G16KT 10SM CLR 19/12 A2990 RMK AO2 SLP130 T01940117=
200608080053 METAR KBLI 080053Z 19009KT 10SM CLR 21/11 A2990 RMK AO2 SLP132 T02060111=
200608072353 METAR KBLI 072353Z 19011KT 10SM CLR 21/12 A2991 RMK AO2 SLP135 T02110117 10217 20161 58006=
200608072253 METAR KBLI 072253Z 19011KT 10SM CLR 21/11 A2992 RMK AO2 SLP138 T02110106=
200608072153 METAR KBLI 072153Z 19011KT 10SM CLR 21/11 A2993 RMK AO2 SLP142 T02110111=
200608072053 METAR KBLI 072053Z 18010KT 10SM CLR 21/11 A2993 RMK AO2 SLP142 T02060111 56006=
200608071953 METAR KBLI 071953Z 19011G15KT 10SM CLR 20/12 A2993 RMK AO2 SLP142 T02000117=
200608071853 METAR KBLI 071853Z 19009KT 10SM CLR 18/12 A2994 RMK AO2 SLP145 T01780122=
200608071753 METAR KBLI 071753Z 20009G16KT 10SM FEW006 16/12 A2995 RMK AO2 SLP148 T01610122 10161 20128 51003=
200608071653 METAR KBLI 071653Z 19011G18KT 10SM FEW006 15/12 A2995 RMK AO2 SLP148 T01500117=
200608071553 METAR KBLI 071553Z 19007KT 170V240 10SM FEW004 14/12 A2995 RMK AO2 SLP147 T01440117=
200608071453 METAR KBLI 071453Z 18012KT 10SM FEW004 13/12 A2994 RMK AO2 SLP145 T01330117 52009=
200608071353 METAR KBLI 071353Z 18011KT 10SM FEW004 13/11 A2993 RMK AO2 SLP142 T01280111=
200608071333 SPECI KBLI 071333Z AUTO 19010KT 9SM FEW004 13/12 A2993 RMK AO2=
200608071333 SPECI KBLI 071333Z AUTO 19010KT 9SM FEW004 13/12 A2993 RMK AO2=
200608071253 METAR KBLI 071253Z AUTO 19010KT 10SM CLR 13/12 A2992 RMK AO2 SLP139 T01280117=
200608071153 METAR KBLI 071153Z AUTO 19012KT 10SM CLR 13/12 A2991 RMK AO2 SLP135 T01280117 10161 20128 53003=
200608071053 METAR KBLI 071053Z AUTO 19011KT 10SM CLR 13/12 A2991 RMK AO2 SLP133 T01330117=
200608070953 METAR KBLI 070953Z AUTO 19011KT 10SM CLR 14/12 A2991 RMK AO2 SLP132 T01390117=
200608070853 METAR KBLI 070853Z AUTO 19010KT 10SM CLR 14/12 A2990 RMK AO2 SLP131 T01440117 51003=
200608070753 METAR KBLI 070753Z AUTO 20005KT 10SM CLR 15/12 A2990 RMK AO2 SLP132 T01500122 402560128=
200608070653 METAR KBLI 070653Z AUTO 19009KT 10SM CLR 15/13 A2990 RMK AO2 SLP131 T01500128=
200608070553 METAR KBLI 070553Z AUTO 19008KT 10SM CLR 16/13 A2989 RMK AO2 SLP129 T01610128 10250 20156 57002=
200608070453 METAR KBLI 070453Z 19009KT 10SM CLR 17/13 A2990 RMK AO2 SLP129 T01720128=
200608070353 METAR KBLI 070353Z 19009KT 10SM CLR 18/13 A2990 RMK AO2 SLP130 T01830128=
200608070253 METAR KBLI 070253Z 18006KT 10SM CLR 20/12 A2990 RMK AO2 SLP131 T02000117 58010=
200608070153 METAR KBLI 070153Z 19006KT 10SM CLR 22/12 A2991 RMK AO2 SLP133 T02170117=
200608070053 METAR KBLI 070053Z 18006KT 10SM CLR 22/13 A2992 RMK AO2 SLP139 T02170128=
200608062353 METAR KBLI 062353Z 20005KT 10SM CLR 24/11 A2993 RMK AO2 SLP139 T02440111 10256 20183 58014=
200608062253 METAR KBLI 062253Z 18006KT 10SM CLR 24/12 A2995 RMK AO2 SLP145 T02440122=
200608062153 METAR KBLI 062153Z 21005KT 10SM CLR 24/12 A2996 RMK AO2 SLP151 T02440122=
200608062053 METAR KBLI 062053Z 23005KT 10SM CLR 23/11 A2997 RMK AO2 SLP154 T02280111 58010=
200608061953 METAR KBLI 061953Z 18007KT 10SM CLR 21/12 A2999 RMK AO2 SLP160 T02060122=
200608061853 METAR KBLI 061853Z 20007KT 140V250 10SM CLR 19/13 A3000 RMK AO2 SLP164 T01890128=
200608061753 METAR KBLI 061753Z 23005KT 10SM CLR 18/13 A3000 RMK AO2 SLP165 T01830128 10189 20128 50001=
200608061653 METAR KBLI 061653Z 18006KT 10SM CLR 16/12 A3000 RMK AO2 SLP166 T01560122=
200608061553 METAR KBLI 061553Z 18004KT 10SM CLR 16/12 A3001 RMK AO2 SLP168 T01560122=
200608061453 METAR KBLI 061453Z 18007KT 10SM CLR 14/12 A3000 RMK AO2 SLP164 T01440122 51009=
200608061353 METAR KBLI 061353Z 19004KT 10SM CLR 14/12 A2999 RMK AO2 SLP160 T01390122=
200608061253 METAR KBLI 061253Z AUTO 20005KT 10SM CLR 14/12 A2998 RMK AO2 SLP157 T01390117=
200608061153 METAR KBLI 061153Z AUTO VRB03KT 10SM CLR 14/12 A2997 RMK AO2 SLP154 T01440117 10161 20139 53001=
200608061053 METAR KBLI 061053Z AUTO 19004KT 10SM CLR 14/11 A2997 RMK AO2 SLP152 T01440111=
200608060953 METAR KBLI 060953Z AUTO 19004KT 10SM CLR 14/12 A2996 RMK AO2 SLP152 T01440117=
200608060853 METAR KBLI 060853Z AUTO 19005KT 10SM CLR 15/11 A2997 RMK AO2 SLP152 T01500111 50002=
200608060753 METAR KBLI 060753Z AUTO 19006KT 10SM CLR 16/12 A2997 RMK AO2 SLP153 T01560122 402560089=
200608060653 METAR KBLI 060653Z AUTO 19004KT 10SM CLR 16/12 A2997 RMK AO2 SLP152 T01610122=
200608060553 METAR KBLI 060553Z AUTO 00000KT 10SM CLR 15/12 A2996 RMK AO2 SLP152 T01500117 10256 20144 58001=
200608060453 METAR KBLI 060453Z 00000KT 10SM CLR 16/10 A2996 RMK AO2 SLP152 T01560100=
200608060353 METAR KBLI 060353Z 00000KT 10SM CLR 18/10 A2997 RMK AO2 SLP153 T01780100=
200608060253 METAR KBLI 060253Z 27004KT 10SM CLR 21/10 A2996 RMK AO2 SLP153 T02110100 56012=
200608060153 METAR KBLI 060153Z 29005KT 10SM CLR 24/06 A2997 RMK AO2 SLP155 T02440061=
200608060053 METAR KBLI 060053Z 29007KT 10SM CLR 24/07 A2999 RMK AO2 SLP159 T02440067=
200608052353 METAR KBLI 052353Z VRB04KT 10SM CLR 25/09 A3000 RMK AO2 SLP164 T02500089 10250 20206 58014=
200608052253 METAR KBLI 052253Z 29006KT 10SM CLR 24/09 A3001 RMK AO2 SLP169 T02440094=
200608052153 METAR KBLI 052153Z 30009KT 10SM CLR 24/10 A3003 RMK AO2 SLP174 T02390100=
200608052053 METAR KBLI 052053Z VRB06KT 10SM CLR 23/11 A3004 RMK AO2 SLP178 T02330111 58010=
200608051953 METAR KBLI 051953Z 31008KT 10SM CLR 23/12 A3005 RMK AO2 SLP182 T02280117=
200608051853 METAR KBLI 051853Z VRB06KT 10SM CLR 21/12 A3006 RMK AO2 SLP186 T02110122=
200608051753 METAR KBLI 051753Z 00000KT 10SM CLR 21/11 A3007 RMK AO2 SLP188 T02060106 10211 20089 56005=
200608051653 METAR KBLI 051653Z VRB05KT 10SM CLR 19/11 A3007 RMK AO2 SLP189 T01890111=
200608051553 METAR KBLI 051553Z 00000KT 10SM CLR 17/12 A3008 RMK AO2 SLP191 T01720117=
200608051453 METAR KBLI 051453Z 00000KT 10SM CLR 15/12 A3008 RMK AO2 SLP193 T01500117 53015=
200608051353 METAR KBLI 051353Z 00000KT 10SM CLR 11/09 A3007 RMK AO2 SLP187 T01060089=
200608051253 METAR KBLI 051253Z AUTO 00000KT 10SM CLR 09/08 A3005 RMK AO2 SLP183 T00890078=
200608051153 METAR KBLI 051153Z AUTO 00000KT 10SM CLR 09/08 A3004 RMK AO2 SLP179 T00940083 10139 20094 53001=
200608051053 METAR KBLI 051053Z AUTO 00000KT 10SM CLR 11/09 A3003 RMK AO2 SLP176 T01060089=
200608050953 METAR KBLI 050953Z AUTO 00000KT 10SM CLR 10/09 A3004 RMK AO2 SLP177 T01000089=
200608050853 METAR KBLI 050853Z AUTO 00000KT 10SM CLR 11/09 A3004 RMK AO2 SLP178 T01110089 53003=
200608050753 METAR KBLI 050753Z AUTO 00000KT 10SM CLR 12/09 A3003 RMK AO2 SLP176 T01170094 402330111=
200608050653 METAR KBLI 050653Z AUTO 00000KT 10SM CLR 12/09 A3003 RMK AO2 SLP176 T01220094=
200608050553 METAR KBLI 050553Z AUTO 00000KT 10SM CLR 13/09 A3003 RMK AO2 SLP175 T01330094 10222 20133 53006=
200608050453 METAR KBLI 050453Z 00000KT 10SM CLR 14/09 A3003 RMK AO2 SLP174 T01390089=
200608050353 METAR KBLI 050353Z 00000KT 10SM CLR 16/11 A3002 RMK AO2 SLP170 T01610106=
200608050253 METAR KBLI 050253Z 00000KT 10SM CLR 19/09 A3001 RMK AO2 SLP169 T01890094 56003=
200608050153 METAR KBLI 050153Z 28004KT 10SM CLR 21/07 A3002 RMK AO2 SLP171 T02110072=
200608050053 METAR KBLI 050053Z 26004KT 10SM CLR 22/08 A3002 RMK AO2 SLP171 T02170078=
200608042353 METAR KBLI 042353Z 29007KT 10SM CLR 22/08 A3002 RMK AO2 SLP173 T02170078 10233 20178 58008=
200608042253 METAR KBLI 042253Z VRB05KT 10SM CLR 22/08 A3003 RMK AO2 SLP176 T02220078 TSNO=
200608042153 METAR KBLI 042153Z 30009KT 10SM CLR 22/07 A3004 RMK AO2 SLP179 T02170072=
200608042053 METAR KBLI 042053Z 28009KT 10SM CLR 22/09 A3005 RMK AO2 SLP181 T02170089 58005=
200608041953 METAR KBLI 041953Z 29006KT 10SM CLR 21/09 A3006 RMK AO2 SLP184 T02060094=
200608041853 METAR KBLI 041853Z 32007KT 10SM CLR 19/11 A3006 RMK AO2 SLP187 T01940111=
200608041753 METAR KBLI 041753Z VRB05KT 10SM CLR 18/11 A3006 RMK AO2 SLP186 T01830106 10183 20111 51004=
200608041653 METAR KBLI 041653Z VRB06KT 10SM SCT021 BKN060 17/11 A3006 RMK AO2 SLP185 T01670106=
200608041553 METAR KBLI 041553Z VRB06KT 10SM BKN021 BKN060 16/11 A3006 RMK AO2 SLP185 T01560106=
200608041453 METAR KBLI 041453Z VRB05KT 10SM OVC019 15/12 A3005 RMK AO2 SLP182 T01500117 53012=
200608041433 SPECI KBLI 041433Z VRB03KT 10SM BKN019 15/11 A3005 RMK AO2=
200608041433 SPECI KBLI 041433Z VRB03KT 10SM BKN019 15/11 A3005 RMK AO2=
200608041353 METAR KBLI 041353Z AUTO 00000KT 10SM CLR 13/11 A3003 RMK AO2 SLP176 T01330111=
200608041253 METAR KBLI 041253Z AUTO 20003KT 10SM SCT060 12/11 A3003 RMK AO2 SLP175 T01170106=
200608041153 METAR KBLI 041153Z AUTO 19004KT 10SM CLR 13/11 A3002 RMK AO2 SLP170 T01280111 10144 20117 53003=
200608041053 METAR KBLI 041053Z AUTO 19004KT 10SM CLR 12/11 A3001 RMK AO2 SLP167 T01220106=
200608040953 METAR KBLI 040953Z AUTO 20005KT 10SM CLR 13/11 A3001 RMK AO2 SLP167 T01280106=
200608040853 METAR KBLI 040853Z AUTO 00000KT 10SM CLR 12/11 A3001 RMK AO2 SLP167 T01170106 55002=
200608040753 METAR KBLI 040753Z AUTO 00000KT 10SM CLR 13/12 A3001 RMK AO2 SLP167 T01330117 402170100=
200608040653 METAR KBLI 040653Z AUTO 19005KT 10SM CLR 14/12 A3000 RMK AO2 SLP166 T01440122=
200608040553 METAR KBLI 040553Z AUTO 31004KT 10SM CLR 14/12 A3001 RMK AO2 SLP169 T01390117 10217 20139 53005=
200608040453 METAR KBLI 040453Z 18003KT 10SM CLR 16/12 A3001 RMK AO2 SLP168 T01560122=
200608040353 METAR KBLI 040353Z 00000KT 10SM CLR 16/12 A3000 RMK AO2 SLP165 T01610117=
200608040253 METAR KBLI 040253Z 00000KT 10SM CLR 18/11 A3000 RMK AO2 SLP164 T01780111 56010=
200608040153 METAR KBLI 040153Z VRB03KT 10SM CLR 20/11 A3001 RMK AO2 SLP166 T02000106=
200608040053 METAR KBLI 040053Z 26005KT 10SM FEW110 21/10 A3002 RMK AO2 SLP170 T02060100=
200608032353 METAR KBLI 032353Z 31007KT 10SM CLR 21/10 A3003 RMK AO2 SLP175 T02110100 10217 20178 58012=
200608032253 METAR KBLI 032253Z 29006KT 10SM CLR 21/10 A3004 RMK AO2 SLP179 T02060100=
200608032153 METAR KBLI 032153Z VRB06KT 10SM CLR 21/11 A3006 RMK AO2 SLP184 T02110111=
200608032053 METAR KBLI 032053Z VRB05KT 10SM CLR 21/12 A3007 RMK AO2 SLP187 T02060122 58013=
200608031953 METAR KBLI 031953Z 29008KT 10SM CLR 19/13 A3009 RMK AO2 SLP194 T01940128=
200608031853 METAR KBLI 031853Z VRB05KT 10SM SCT018 18/13 A3009 RMK AO2 SLP197 T01830128=
200608031827 SPECI KBLI 031827Z 21005KT 10SM BKN018 18/13 A3010 RMK AO2=
200608031827 SPECI KBLI 031827Z 21005KT 10SM BKN018 18/13 A3010 RMK AO2=
200608031820 SPECI KBLI 031820Z VRB05KT 10SM SCT018 18/13 A3010 RMK AO2=
200608031820 SPECI KBLI 031820Z VRB05KT 10SM SCT018 18/13 A3010 RMK AO2=
200608031753 METAR KBLI 031753Z VRB05KT 10SM BKN018 18/13 A3010 RMK AO2 SLP200 T01780128 10183 20111 58002=
200608031653 METAR KBLI 031653Z 16007KT 10SM SCT008 16/12 A3011 RMK AO2 SLP201 T01610122=
200608031644 SPECI KBLI 031644Z 18005KT 10SM BKN007 16/12 A3011 RMK AO2=
200608031644 SPECI KBLI 031644Z 18005KT 10SM BKN007 16/12 A3011 RMK AO2=
200608031628 SPECI KBLI 031628Z VRB06KT 10SM SCT007 BKN011 16/12 A3011 RMK AO2=
200608031628 SPECI KBLI 031628Z VRB06KT 10SM SCT007 BKN011 16/12 A3011 RMK AO2=
200608031553 METAR KBLI 031553Z 18006KT 10SM FEW008 16/12 A3011 RMK AO2 SLP201 T01560117=
200608031544 SPECI KBLI 031544Z 17007KT 10SM FEW008 15/12 A3011 RMK AO2=
200608031544 SPECI KBLI 031544Z 17007KT 10SM FEW008 15/12 A3011 RMK AO2=
200608031453 METAR KBLI 031453Z 17004KT 10SM CLR 14/12 A3011 RMK AO2 SLP202 T01440117 53003=
200608031353 METAR KBLI 031353Z AUTO 18003KT 10SM FEW016 12/11 A3010 RMK AO2 SLP199 T01220106=
200608031253 METAR KBLI 031253Z AUTO 17003KT 10SM CLR 12/11 A3010 RMK AO2 SLP198 T01170106=
200608031153 METAR KBLI 031153Z AUTO 18004KT 10SM CLR 12/10 A3010 RMK AO2 SLP199 T01170100 10150 20100 55001=
200608031053 METAR KBLI 031053Z AUTO 00000KT 10SM CLR 12/11 A3010 RMK AO2 SLP198 T01220106=
200608030953 METAR KBLI 030953Z AUTO 18003KT 10SM CLR 12/11 A3010 RMK AO2 SLP198 T01220106=
200608030853 METAR KBLI 030853Z AUTO 00000KT 10SM CLR 12/11 A3010 RMK AO2 SLP199 T01220106 58005=
200608030753 METAR KBLI 030753Z AUTO 20003KT 10SM CLR 13/11 A3011 RMK AO2 SLP202 T01330111 402110100=
200608030653 METAR KBLI 030653Z AUTO 19003KT 10SM CLR 14/12 A3012 RMK AO2 SLP205 T01390117=
200608030553 METAR KBLI 030553Z AUTO 19005KT 10SM CLR 15/12 A3012 RMK AO2 SLP205 T01500117 10211 20144 58004=
200608030453 METAR KBLI 030453Z 19004KT 10SM CLR 15/12 A3013 RMK AO2 SLP208 T01500122=
200608030353 METAR KBLI 030353Z 20003KT 10SM CLR 16/12 A3013 RMK AO2 SLP208 T01560122=
200608030253 METAR KBLI 030253Z 24003KT 10SM CLR 18/10 A3013 RMK AO2 SLP209 T01830100 56009=
200608030153 METAR KBLI 030153Z VRB04KT 10SM CLR 21/09 A3014 RMK AO2 SLP211 T02060094=
200608030053 METAR KBLI 030053Z VRB05KT 10SM CLR 21/09 A3014 RMK AO2 SLP213 T02060089=
200608022353 METAR KBLI 022353Z 28006KT 10SM CLR 21/09 A3016 RMK AO2 SLP218 T02060094 10211 20167 58014=
200608022253 METAR KBLI 022253Z 21006KT 10SM CLR 21/11 A3017 RMK AO2 SLP224 T02060111=
200608022153 METAR KBLI 022153Z VRB05KT 10SM CLR 21/11 A3019 RMK AO2 SLP228 T02060111=
200608022053 METAR KBLI 022053Z VRB06KT 10SM BKN034 20/12 A3020 RMK AO2 SLP232 T02000117 58005=
200608021953 METAR KBLI 021953Z VRB06KT 10SM SCT022 19/12 A3021 RMK AO2 SLP235 T01940122=
200608021853 METAR KBLI 021853Z VRB06KT 10SM CLR 18/12 A3021 RMK AO2 SLP235 T01830122=
200608021800 SPECI KBLI 021800Z VRB05KT 10SM FEW028 SCT033 17/12 A3021 RMK AO2=
200608021800 SPECI KBLI 021800Z VRB05KT 10SM FEW028 SCT033 17/12 A3021 RMK AO2=
200608021753 METAR KBLI 021753Z VRB05KT 10SM BKN025 OVC030 17/12 A3021 RMK AO2 SLP237 T01670117 10178 20111 51008=
200608021653 METAR KBLI 021653Z 18007KT 10SM BKN025 BKN060 16/12 A3021 RMK AO2 SLP236 T01610117=
200608021553 METAR KBLI 021553Z 19006KT 10SM BKN025 BKN060 16/12 A3020 RMK AO2 SLP233 T01560117=
200608021543 SPECI KBLI 021543Z 18008KT 10SM BKN022 BKN027 BKN060 15/12 A3020 RMK AO2=
200608021543 SPECI KBLI 021543Z 18008KT 10SM BKN022 BKN027 BKN060 15/12 A3020 RMK AO2=
200608021453 METAR KBLI 021453Z 18010KT 10SM FEW060 14/12 A3019 RMK AO2 SLP229 T01440117 53013=
200608021353 METAR KBLI 021353Z AUTO 18011KT 10SM SCT065 13/11 A3017 RMK AO2 SLP223 T01330111=
200608021253 METAR KBLI 021253Z AUTO 18007KT 10SM BKN065 13/11 A3016 RMK AO2 SLP218 T01330111=
200608021153 METAR KBLI 021153Z AUTO 00000KT 10SM BKN070 11/10 A3015 RMK AO2 SLP216 T01110100 10161 20100 51007=
200608021053 METAR KBLI 021053Z AUTO 00000KT 10SM CLR 12/10 A3015 RMK AO2 SLP216 T01170100=
200608020953 METAR KBLI 020953Z AUTO 18004KT 10SM CLR 13/11 A3014 RMK AO2 SLP212 T01280106=
200608020853 METAR KBLI 020853Z AUTO 19004KT 10SM FEW060 13/11 A3013 RMK AO2 SLP209 T01330111 51006=
200608020753 METAR KBLI 020753Z AUTO 17006KT 10SM FEW060 14/11 A3013 RMK AO2 SLP209 T01440111 402000128=
200608020653 METAR KBLI 020653Z AUTO 19004KT 10SM FEW065 14/11 A3012 RMK AO2 SLP206 T01440111=
200608020553 METAR KBLI 020553Z AUTO 20007KT 10SM BKN065 16/11 A3011 RMK AO2 SLP203 T01610111 10200 20161 53014=
200608020453 METAR KBLI 020453Z 18008KT 10SM CLR 17/11 A3010 RMK AO2 SLP198 T01670106=
200608020353 METAR KBLI 020353Z 18008KT 10SM CLR 17/11 A3008 RMK AO2 SLP193 T01670106=
200608020253 METAR KBLI 020253Z 19012KT 10SM CLR 18/09 A3007 RMK AO2 SLP189 T01830094 58007=
200608020153 METAR KBLI 020153Z 18010KT 10SM CLR 19/09 A3008 RMK AO2 SLP192 T01940094=
200608020053 METAR KBLI 020053Z 18013KT 10SM CLR 20/10 A3009 RMK AO2 SLP194 T02000100=
200608012353 METAR KBLI 012353Z 18010KT 10SM CLR 19/11 A3009 RMK AO2 SLP197 T01940106 10194 20161 58001=
200608012253 METAR KBLI 012253Z 19011KT 10SM CLR 19/10 A3010 RMK AO2 SLP197 T01890100=
200608012153 METAR KBLI 012153Z 20011KT 10SM CLR 18/10 A3010 RMK AO2 SLP198 T01830100=
200608012053 METAR KBLI 012053Z 19011KT 10SM CLR 18/10 A3010 RMK AO2 SLP197 T01830100 53007=
200608011953 METAR KBLI 011953Z 17014G22KT 10SM CLR 18/09 A3008 RMK AO2 SLP193 T01830094=
200608011853 METAR KBLI 011853Z 18013G17KT 10SM CLR 16/11 A3008 RMK AO2 SLP193 T01610106=
200608011753 METAR KBLI 011753Z 20014G18KT 10SM SCT080 17/11 A3008 RMK AO2 SLP191 T01670106 10167 20133 51009=
200608011653 METAR KBLI 011653Z 18014G20KT 10SM CLR 16/11 A3007 RMK AO2 SLP188 T01560106=
200608011553 METAR KBLI 011553Z 18012G18KT 10SM FEW013 SCT060 14/10 A3006 RMK AO2 SLP186 T01440100=
200608011453 METAR KBLI 011453Z 18006KT 10SM FEW090 14/09 A3005 RMK AO2 SLP181 T01390094 53012=
200608011353 METAR KBLI 011353Z AUTO 18003KT 10SM FEW075 SCT090 13/09 A3004 RMK AO2 SLP178 T01330094=
200608011253 METAR KBLI 011253Z AUTO 16008KT 10SM CLR 13/10 A3002 RMK AO2 SLP171 T01330100=
200608011153 METAR KBLI 011153Z AUTO 18007KT 10SM CLR 13/09 A3001 RMK AO2 SLP169 T01330094 10150 20128 53005=
200608011053 METAR KBLI 011053Z AUTO 18006KT 10SM CLR 13/09 A3000 RMK AO2 SLP165 T01330094=
200608010953 METAR KBLI 010953Z AUTO 19006KT 10SM BKN075 14/11 A3000 RMK AO2 SLP164 T01390106=
200608010853 METAR KBLI 010853Z AUTO 19005KT 10SM CLR 13/09 A3000 RMK AO2 SLP164 T01280094 53002=
200608010753 METAR KBLI 010753Z AUTO 18004KT 10SM CLR 13/09 A3000 RMK AO2 SLP163 T01330094 402060078=
200608010653 METAR KBLI 010653Z AUTO 17005KT 10SM CLR 14/10 A3000 RMK AO2 SLP163 T01390100=
200608010553 METAR KBLI 010553Z AUTO 18005KT 10SM CLR 15/10 A2999 RMK AO2 SLP163 T01500100 10206 20150 53004=
200608010453 METAR KBLI 010453Z 18007KT 10SM CLR 16/11 A2999 RMK AO2 SLP161 T01610111=
200608010353 METAR KBLI 010353Z 18005KT 10SM CLR 16/11 A2998 RMK AO2 SLP159 T01610111=
200608010253 METAR KBLI 010253Z 00000KT 10SM CLR 18/09 A2998 RMK AO2 SLP159 T01830094 56005=
200608010153 METAR KBLI 010153Z VRB05KT 10SM SCT035 SCT080 19/08 A2999 RMK AO2 SLP160 T01940078=
200608010053 METAR KBLI 010053Z 30006KT 10SM SCT030 SCT080 20/08 A2999 RMK AO2 SLP161 T02000083=

# No short TAF reports from KBLI in databse.

###################################
#  large TAF from KBLI
###################################
200608312320 TAF KBLI 312320Z 010024 28009KT P6SM SKC FM0300 VRB03KT P6SM SKC
                       FM1800 28009KT P6SM SKC=
200608311722 TAF KBLI 311722Z 311818 16004KT P6SM SKC FM2100 28007KT P6SM SKC
                       FM0300 VRB03KT P6SM SKC=
200608311137 TAF KBLI 311137Z 311212 16004KT P6SM SCT070 FM1700 VRB02KT P6SM
                       SKC FM2100 28007KT P6SM SKC FM0300 VRB03KT
                       P6SM SKC=
200608310533 TAF KBLI 310533Z 310606 16009KT P6SM SKC FM1100 VRB03KT P6SM VCFG
                       SKC
                      TEMPO 1215 00000KT 4SM BR SCT002 FM1700 VRB02KT
                       P6SM SKC FM2100 28007KT P6SM SKC FM0300
                       VRB03KT P6SM SKC=
200608302320 TAF KBLI 302320Z 310024 18010KT P6SM SCT070 FM0500 VRB03KT P6SM
                       SKC FM1100 VRB03KT P6SM VCFG SKC
                      TEMPO 1214 00000KT 4SM BR SCT002 FM1600 19004KT
                       P6SM SKC=
200608301720 TAF KBLI 301720Z 301818 18008KT P6SM SCT025 BKN060
                      TEMPO 1819 BKN025 FM2100 20008KT P6SM SCT060
                       FM0500 VRB03KT P6SM SKC FM1100 VRB03KT P6SM
                       VCFG SKC
                      TEMPO 1214 00000KT 4SM BR SCT002 FM1600 19004KT
                       P6SM SKC=
200608301124 TAF KBLI 301124Z 301212 16007KT P6SM SCT040 OVC060 FM1300 17006KT
                       P6SM VCSH BKN030 OVC060
                      TEMPO 1317 P6SM -SHRA BKN020 OVC040 FM2000
                       21009KT P6SM VCSH SCT040 BKN060 FM0600 18004KT
                       P6SM SKC=
200608300801 KBLI 300801Z 300806 18007KT P6SM -SHRA OVC025
                      TEMPO 0810 2SM RA BR OVC015 FM2000 21009KT
                       P6SM VCSH BKN035=
200608300524 TAF KBLI 300524Z 300606 18009KT P6SM BKN050
                      TEMPO 0608 -SHRA BKN035 FM0800 18007KT P6SM
                       -SHRA OVC025
                      TEMPO 1115 OVC015 FM2000 21009KT P6SM VCSH
                       BKN035=
200608292320 TAF KBLI 292320Z 300024 19012G22KT P6SM BKN035 FM0500 18009KT P6SM
                       OVC035
                      TEMPO 0507 -SHRA BKN035 FM0700 18007KT P6SM
                       -SHRA OVC025
                      TEMPO 1115 OVC015 FM2000 21009KT P6SM VCSH
                       BKN035=
200608291720 TAF KBLI 291720Z 291818 19012G20KT P6SM SCT030 BKN040 FM2100 19014G22KT
                       P6SM BKN045 FM0600 18009KT P6SM -SHRA OVC035
                       FM1000 18007KT P6SM -SHRA OVC025
                      TEMPO 1115 OVC015=
200608291604 TAF AMD KBLI 291604Z 291612 17012G20KT P6SM SCT015 BKN120 FM1800
                       19012G20KT P6SM BKN040 BKN120 FM2100 19014G22KT
                       P6SM BKN045 FM0600 18006KT P6SM OVC045=
200608291127 TAF KBLI 291127Z 291212 18008KT P6SM BKN014 FM1400 18006KT P6SM
                       OVC014 FM1900 19010KT P6SM BKN025 BKN035
                       FM2100 19010KT P6SM BKN045 FM0600 18006KT
                       P6SM OVC045=
200608290523 TAF KBLI 290523Z 290606 19006KT P6SM FEW200 FM0600 19006KT P6SM
                       SCT060 FM0800 19009KT P6SM BKN045 FM1100
                       19008KT P6SM OVC018 FM1900 19010KT P6SM
                       VCSH BKN025 BKN035 FM2100 19010KT P6SM -SHRA
                       BKN035=
200608282325 TAF KBLI 282325Z 290024 19010KT P6SM SCT200 FM0300 19010KT P6SM
                       SCT060 FM0800 19009KT P6SM BKN060 FM1100
                       19008KT P6SM OVC018 FM1900 19010KT P6SM
                       VCSH BKN025 BKN035 FM2100 19010KT P6SM -SHRA
                       BKN035=
200608281720 TAF KBLI 281720Z 281818 19005KT P6SM SCT250 FM2000 18008KT P6SM
                       SCT250 FM0300 19010KT P6SM SCT060 FM0700
                       19008KT P6SM BKN060 FM1100 19005KT P6SM
                       OVC020=
200608281303 KBLI 281303Z 281312 VRB04KT P6SM SKC
                      TEMPO 1315 2SM BR SCT002 FM1700 19008KT P6SM
                       SCT250 FM0300 19006KT P6SM SCT060 FM0600
                       19006KT P6SM BKN060 FM1100 19004KT P6SM
                       OVC020=
200608281220 TAF AMD KBLI 281220Z 281212 VRB04KT 1SM BR SCT002
                      TEMPO 1215 1/2SM FG BKN002 FM1700 19008KT
                       P6SM SCT250 FM0300 19006KT P6SM SCT060 FM0600
                       19006KT P6SM BKN060 FM1100 19004KT P6SM
                       OVC020=
200608281135 TAF KBLI 281135Z 281212 VRB04KT P6SM SKC
                      TEMPO 1214 3SM BR FM1800 19008KT P6SM SCT250
                       FM0300 19006KT P6SM SCT060 FM0600 19006KT
                       P6SM BKN060 FM1100 19004KT P6SM OVC020=
200608280727 KBLI 280727Z 280706 VRB04KT P6SM SCT250 FM1500 19006KT P6SM SCT250
                       FM1900 21009KT P6SM FEW250 FM0400 19006KT
                       P6SM BKN060 BKN250=
200608280531 TAF KBLI 280531Z 280606 VRB04KT P6SM SCT250 FM1500 19006KT P6SM
                       BKN006 FM1900 21009KT P6SM FEW060 BKN250
                       FM0400 19006KT P6SM BKN060 BKN250=
200608272326 TAF KBLI 272326Z 280024 VRB04KT P6SM SCT250 FM1500 19006KT P6SM
                       BKN006 FM1800 19006KT P6SM BKN010 FM1900
                       21009KT P6SM FEW060 BKN250=
200608271728 TAF KBLI 271728Z 271818 VRB04KT P6SM SCT250 FM1500 19007KT P6SM
                       OVC008=
200608271610 KBLI 271610Z 271612 VRB03KT P6SM VCFG BKN003
                      TEMPO 1617 1SM BR FM1700 VRB03KT P6SM VCFG
                       SCT003
                      TEMPO 1718 BKN003 FM1800 VRB03KT P6SM SKC
                       FM2100 24006KT P6SM SKC FM0200 19004KT P6SM
                       SKC=
200608271502 KBLI 271502Z 271512 VRB03KT P6SM VCFG BKN005 FM1700 VRB03KT P6SM
                       FEW008 FM1800 VRB03KT P6SM SKC FM2100 24006KT
                       P6SM SKC FM0200 19004KT P6SM SKC=
200608271359 KBLI 271359Z 271412 00000KT P6SM VCFG OVC003 FM1500 VRB04KT P6SM
                       SKC FM2100 24006KT P6SM SKC FM0200 19004KT
                       P6SM SKC=
200608271122 TAF KBLI 271122Z 271212 18003KT P6SM VCFG SKC FM1600 VRB04KT P6SM
                       SKC FM2100 24006KT P6SM SKC FM0200 19004KT
                       P6SM SKC=
200608270520 TAF KBLI 270520Z 270606 VRB03KT P6SM FEW250 FM1200 00000KT P6SM
                       VCFG SKC FM1600 VRB04KT P6SM SKC=
200608262320 TAF KBLI 262320Z 270024 28006KT P6SM FEW250 FM0200 VRB03KT P6SM
                       FEW250 FM1200 00000KT P6SM VCFG SKC FM1600
                       VRB04KT P6SM SKC=
200608261730 TAF KBLI 261730Z 261818 28006KT P6SM SCT250 FM0200 VRB03KT P6SM
                       SCT250 FM1200 00000KT P6SM VCFG SKC FM1600
                       VRB03KT P6SM SKC=
200608261123 TAF KBLI 261123Z 261212 VRB04KT P6SM SCT250 FM2000 23007KT P6SM
                       SKC FM0600 19005KT P6SM SKC=
200608260521 TAF KBLI 260521Z 260606 VRB03KT P6SM SCT250 FM1900 21007KT P6SM
                       SKC=
200608252324 TAF KBLI 252324Z 260024 26006KT P6SM SCT250 FM0300 VRB03KT P6SM
                       SCT250 FM1900 24007KT P6SM SKC=
200608251737 TAF KBLI 251737Z 251818 31006KT P6SM SKC FM2200 24006KT P6SM SKC
                       FM0300 VRB03KT P6SM SKC=
200608251133 TAF KBLI 251133Z 251212 VRB03KT P6SM SKC
                      TEMPO 1214 3SM BR FM2200 24006KT P6SM SKC=
200608250533 TAF KBLI 250533Z 250606 VRB03KT P6SM SKC FM1100 VRB03KT 5SM BR
                       SCT001
                      TEMPO 1214 2SM BR FM1500 VRB03KT P6SM SKC=
200608242335 TAF KBLI 242335Z 250024 19006KT P6SM SCT035 FM0300 18005KT P6SM
                       SKC FM1600 20005KT P6SM SKC=
200608241733 TAF KBLI 241733Z 241818 19006KT P6SM FEW023 BKN035 OVC070
                      TEMPO 1921 SCT035 FM2100 21005KT P6SM SCT035
                       FM0000 21005KT P6SM SKC=
200608241127 TAF KBLI 241127Z 241212 19006KT P6SM OVC060 FM1800 19005KT P6SM
                       BKN090 FM0300 21005KT P6SM SCT120=
200608240540 TAF KBLI 240540Z 240606 18011KT P6SM OVC040 FM1100 17006KT P6SM
                       OVC020 FM1800 19005KT P6SM BKN020 BKN090
                       FM2200 24006KT P6SM BKN090=
200608232336 TAF KBLI 232336Z 240024 21008KT P6SM BKN070
                      TEMPO 0002 SCT070 FM1100 17006KT P6SM OVC020
                       TEMPO 1315 P6SM OVC010 FM1800 19005KT P6SM
                       SCT010 BKN020=
200608232033 KBLI 232033Z 232118 21008KT P6SM SCT015 BKN070
                      TEMPO 2101 BKN035 BKN070 FM1200 17006KT P6SM
                       OVC010=
200608231735 TAF KBLI 231735Z 231818 19012KT P6SM BKN008 OVC015
                      TEMPO 1820 SCT008 BKN015 FM2100 21008KT P6SM
                       SCT010 BKN025 FM1200 17006KT P6SM OVC010=
200608231632 KBLI 231632Z 231712 19011KT P6SM FEW008 OVC015
                      TEMPO 1718 BKN008 OVC015 FM1800 21008KT P6SM
                       SCT015 OVC030 FM2100 21008KT P6SM SCT020
                       BKN030=
200608231120 TAF KBLI 231120Z 231212 19011KT P6SM FEW006 OVC070
                      TEMPO 1216 BKN006 OVC070 FM1600 21008KT P6SM
                       OVC015 FM2100 21008KT P6SM SCT020 BKN090=
200608230523 TAF KBLI 230523Z 230606 18007KT P6SM SKC FM1300 21008KT P6SM OVC015
                       FM2100 21008KT P6SM SCT020 BKN200=
200608222335 TAF KBLI 222335Z 230024 18010KT P6SM SKC FM0600 21008KT P6SM SKC
                       FM1300 21008KT P6SM OVC015=
200608221737 TAF KBLI 221737Z 221818 19011G17KT P6SM FEW008 BKN012 FM2000 21007KT
                       P6SM SCT020 FM2200 20007KT P6SM SCT250 FM1100
                       21008KT P6SM OVC015=
200608221120 TAF KBLI 221120Z 221212 19012G17KT P6SM SCT250 FM1300 18006KT P6SM
                       OVC010 FM1900 21007KT P6SM SCT020 FM2200
                       20007KT P6SM SCT250=
200608220529 TAF KBLI 220529Z 220606 18009G16KT P6SM BKN250 FM0900 19006KT P6SM
                       SCT250 FM1300 18006KT P6SM OVC010 FM1900
                       21007KT P6SM SCT020 FM2200 20007KT P6SM
                       SCT250=
200608212331 TAF KBLI 212331Z 220024 21007KT P6SM SCT250 FM0900 19006KT P6SM
                       SCT250 FM1300 18006KT P6SM OVC010 FM1900
                       21007KT P6SM SCT020=
200608211738 TAF KBLI 211738Z 211818 18006KT P6SM SCT180 FM0200 21010KT P6SM
                       SCT250 FM0900 19006KT P6SM SCT250 FM1300
                       18006KT P6SM OVC010=
200608211130 TAF KBLI 211130Z 211212 VRB03KT P6SM SCT250
                      TEMPO 1214 5SM BR FM1800 21006KT P6SM SCT250
                       FM0200 21010KT P6SM SCT250=
200608210532 TAF KBLI 210532Z 210606 VRB03KT P6SM SCT250 FM1800 21006KT P6SM
                       SCT250=
200608202322 TAF KBLI 202322Z 210024 28006KT P6SM SKC FM0700 VRB03KT P6SM SCT250
                       FM1800 21006KT P6SM SCT250=
200608201725 TAF KBLI 201725Z 201818 VRB03KT P6SM SKC FM2000 25006KT P6SM SKC
                       FM0400 VRB03KT P6SM SKC=
200608201134 TAF KBLI 201134Z 201212 VRB03KT P6SM SKC FM2000 28006KT P6SM SKC
                       FM0400 VRB03KT P6SM SKC=
200608200526 TAF KBLI 200526Z 200606 VRB03KT P6SM SKC FM2000 28006KT P6SM SKC=
200608192320 TAF KBLI 192320Z 200024 28006KT P6SM SKC FM0400 VRB03KT P6SM SKC
                       FM2000 28006KT P6SM SKC=
200608191733 TAF KBLI 191733Z 191818 00000KT P6SM SKC FM2200 29006KT P6SM SKC
                       FM0400 VRB03KT P6SM SKC=
200608191137 TAF KBLI 191137Z 191212 VRB03KT P6SM SKC FM2200 29006KT P6SM SKC
                       FM0400 VRB03KT P6SM SKC=
200608190524 TAF KBLI 190524Z 190606 VRB03KT P6SM SKC FM2300 29006KT P6SM SKC=
200608182327 TAF KBLI 182327Z 190024 30005KT P6SM SKC FM0500 VRB03KT P6SM SKC=
200608181720 TAF KBLI 181720Z 181818 VRB05KT P6SM SKC FM2300 29006KT P6SM SKC
                       FM0500 VRB03KT P6SM SKC=
200608181330 KBLI 181330Z 181412 VRB03KT 1/2SM FG VV001
                      TEMPO 1415 5SM BR SCT001 FM1500 19004KT P6SM
                       SCT002
                      TEMPO 1516 2SM BR BKN002 FM1600 19006KT P6SM
                       SKC FM0100 29006KT P6SM SKC FM0500 VRB03KT
                       P6SM SKC=
200608181132 TAF KBLI 181132Z 181212 19006KT P6SM SKC FM0100 29006KT P6SM SKC
                       FM0500 VRB03KT P6SM SKC=
200608180526 TAF KBLI 180526Z 180606 19006KT P6SM SKC=
200608172328 TAF KBLI 172328Z 180024 19007KT P6SM SKC FM0500 18005KT P6SM SKC
                       FM2100 25006KT P6SM SKC=
200608171739 TAF KBLI 171739Z 171818 18010KT P6SM BKN006 FM1930 19007KT P6SM
                       SCT010 FM2100 19008KT P6SM SKC FM0500 18005KT
                       P6SM SKC=
200608171645 TAF AMD KBLI 171645Z 171712 18010KT P6SM OVC006 FM1800 18008KT
                       P6SM BKN010 FM1900 19007KT P6SM SCT012 FM2100
                       19008KT P6SM SKC=
200608171513 TAF AMD KBLI 171513Z 171512 18010KT P6SM OVC005 FM1700 20008KT
                       P6SM SKC=
200608171138 TAF KBLI 171138Z 171212 18008KT P6SM SCT006
                      TEMPO 1214 BKN006 FM1700 20008KT P6SM SKC=
200608170540 TAF KBLI 170540Z 170606 18010KT P6SM SKC FM1300 18004KT P6SM SCT012
                       FM1700 20008KT P6SM SKC=
200608162329 TAF KBLI 162329Z 170024 20008KT P6SM SKC FM1300 18004KT P6SM SCT012
                       FM1600 20007KT P6SM SKC=
200608161737 TAF KBLI 161737Z 161818 20007KT P6SM BKN015 BKN200 FM2000 21008KT
                       P6SM SCT020 SCT200 FM2300 20010KT P6SM SKC
                       FM1300 18004KT P6SM SCT015 FM1600 19007KT
                       P6SM SKC=
200608161120 TAF KBLI 161120Z 161212 19006KT P6SM SCT200 FM1400 19006KT P6SM
                       SCT050 SCT200 FM1800 20007KT P6SM SCT050
                       SCT200 FM0400 18005KT P6SM SCT200=
200608160520 TAF KBLI 160520Z 160606 19005KT P6SM SCT200 FM1300 VRB03KT P6SM
                       BKN018 FM1700 20006KT P6SM SCT025 SCT200
                       TEMPO 1718 BKN020=
200608152331 TAF KBLI 152331Z 160024 19005KT P6SM BKN200 FM0900 00000KT P6SM
                       SCT200 FM1800 20006KT P6SM SCT200=
200608151729 TAF KBLI 151729Z 151818 18008KT P6SM SCT020 SCT200 FM2000 22007KT
                       P6SM SCT200 FM0900 00000KT P6SM SCT200=
200608151120 TAF KBLI 151120Z 151212 18005KT P6SM SCT200
                      TEMPO 1416 BKN018 FM1600 18007KT P6SM SCT025
                       SCT200 FM1800 19007KT P6SM SCT200 FM0600
                       18005KT P6SM SCT200=
200608150520 TAF KBLI 150520Z 150606 21004KT P6SM SKC FM1200 18005KT P6SM OVC025
                       FM1700 21007KT P6SM SCT025 SCT200
                      TEMPO 1719 BKN025 FM2000 21007KT P6SM SCT200=
200608142322 TAF KBLI 142322Z 150024 28004KT P6SM SCT200 FM1200 18005KT P6SM
                       OVC015 FM2100 22007KT P6SM SCT025 SCT200=
200608141729 TAF KBLI 141729Z 141818 VRB06KT P6SM SCT200 FM2000 21007KT P6SM
                       SCT200 FM1200 18005KT P6SM OVC015=
200608141156 KBLI 141156Z 141212 00000KT P6SM SKC
                      TEMPO 1215 1SM BR FEW001 FM1800 18008KT P6SM
                       SCT200
                      TEMPO 1012 BKN015=
200608141120 TAF KBLI 141120Z 141212 VRB03KT P6SM SKC
                      TEMPO 1215 2SM BR FM1800 18008KT P6SM SCT200
                       TEMPO 1012 BKN015=
200608140520 TAF KBLI 140520Z 140606 VRB04KT P6SM SKC
                      TEMPO 1214 2SM BR FM1800 18008KT P6SM SCT200=
200608132325 TAF KBLI 132325Z 140024 30007KT P6SM SKC FM0100 VRB04KT P6SM SKC
                       TEMPO 1214 2SM BR FM1800 18008KT P6SM SCT200=
200608131720 TAF KBLI 131720Z 131818 VRB04KT P6SM SKC FM2000 22007KT P6SM SKC
                       FM0100 19005KT P6SM SKC FM1200 VRB03KT P6SM
                       SCT030=
200608131127 TAF KBLI 131127Z 131212 00000KT P6SM SKC
                      TEMPO 1216 2SM BR FM1800 23007KT P6SM SKC
                       FM0100 19005KT P6SM SKC=
200608131016 KBLI 131016Z 131006 VRB03KT 5SM BR SKC
                      TEMPO 1014 1SM BR BKN003 FM1800 23007KT P6SM
                       SKC FM0100 19005KT P6SM SKC=
200608131000 KBLI 131000Z 131006 VRB03KT P6SM SKC
                      TEMPO 1014 4SM BR FM1800 23007KT P6SM SKC
                       FM0100 19005KT P6SM SKC=
200608130520 TAF KBLI 130520Z 130606 VRB03KT P6SM SKC FM1800 23007KT P6SM SKC
                       FM0100 19005KT P6SM SKC=
200608122333 TAF KBLI 122333Z 130024 VRB04KT P6SM SCT040 FM0600 VRB03KT P6SM
                       SKC FM1800 24005KT P6SM SKC=
200608121724 TAF KBLI 121724Z 121818 20003KT P6SM BKN045 FM2000 19005KT P6SM
                       SCT045 FM2200 24006KT P6SM SKC FM0600 VRB03KT
                       P6SM SKC=
200608121120 TAF KBLI 121120Z 121212 VRB03KT P6SM BKN050 FM1800 22008KT P6SM
                       SCT060 FM0300 19005KT P6SM SKC=
200608120521 TAF KBLI 120521Z 120606 19004KT P6SM SCT035
                      TEMPO 1418 BKN025 BKN035 FM1800 22008KT P6SM
                       SCT040 FM0300 19005KT P6SM SKC=
200608112333 TAF KBLI 112333Z 120024 21008KT P6SM SCT030 FM0600 19006KT P6SM
                       SKC FM1800 22008KT P6SM SCT035=
200608111726 TAF KBLI 111726Z 111818 19012KT P6SM BKN020 OVC050 FM2000 21008KT
                       P6SM BKN025 FM2200 19008KT P6SM SCT030 FM0600
                       19006KT P6SM SKC=
200608111314 KBLI 111314Z 111312 17013G18KT P6SM SCT013 OVC060
                      TEMPO 1418 BKN015 OVC060 FM2000 21008KT P6SM
                       SCT060 FM0300 19006KT P6SM SKC=
200608111124 TAF KBLI 111124Z 111212 18008KT P6SM BKN060
                      TEMPO 1418 BKN020 OVC060 FM2000 21008KT P6SM
                       SCT060 FM0300 19006KT P6SM SKC=
200608110526 TAF KBLI 110526Z 110606 19005KT P6SM BKN060
                      TEMPO 0812 SCT060 FM1200 18005KT P6SM BKN050
                       FM1800 19007KT P6SM SCT060 FM2000 20007KT
                       P6SM SKC=
200608102320 TAF KBLI 102320Z 110024 20006KT P6SM SCT025 SCT060
                      TEMPO 0002 BKN060 FM1200 18005KT P6SM SCT060
                       FM2000 19007KT P6SM SKC=
200608102121 KBLI 102121Z 102118 20004KT P6SM SCT015 BKN060
                      TEMPO 2123 BKN015 FM2300 20008KT P6SM SCT050=
200608102003 KBLI 102003Z 102018 20006KT P6SM SCT015 BKN045
                      TEMPO 2021 BKN015 OVC045 FM2200 20008KT P6SM
                       SCT050=
200608101720 TAF KBLI 101720Z 101818 20006KT P6SM SCT015 BKN045 FM2100 20008KT
                       P6SM SCT050=
200608101404 KBLI 101404Z 101412 18006KT P6SM SCT015 BKN045
                      TEMPO 1518 4SM -RA BR BKN015 OVC040 FM1900
                       20008KT P6SM SCT060 BKN200=
200608101126 TAF KBLI 101126Z 101212 18004KT P6SM BKN050 BKN200
                      TEMPO 1418 BKN020 OVC050 FM1900 20008KT P6SM
                       SCT060 BKN200=
200608100520 TAF KBLI 100520Z 100606 VRB03KT P6SM BKN200 FM1400 VRB03KT P6SM
                       SCT020 BKN060 FM1900 20008KT P6SM SCT060
                       BKN200=
200608092339 TAF KBLI 092339Z 100024 17008KT P6SM SKC FM0400 VRB04KT P6SM SCT040
                       BKN200 FM1200 18006KT P6SM OVC030
                      TEMPO 1214 2SM BR OVC010 FM1900 19008KT P6SM
                       BKN030=
200608091736 TAF KBLI 091736Z 091818 18004KT P6SM BKN005 OVC020
                      TEMPO 1819 3SM BR OVC002 FM2000 20006KT P6SM
                       SCT016 OVC030 FM2200 20006KT P6SM SCT025
                       BKN050 FM0200 VRB04KT P6SM SCT060
                      TEMPO 1012 BKN020=
200608091436 KBLI 091436Z 091512 18004KT P6SM SCT012 OVC025
                      TEMPO 1517 1SM -RA BR OVC002 FM1900 20006KT
                       P6SM BKN060 FM0200 20006KT P6SM SCT060=
200608091151 KBLI 091151Z 091212 18004KT P6SM SCT002 OVC008
                      TEMPO 1215 2SM -RA BR OVC002 FM1500 18007KT
                       P6SM SCT012 BKN025
                      TEMPO 1517 BKN012 FM1900 20006KT P6SM BKN060
                       FM0200 20006KT P6SM SCT060=
200608091120 TAF KBLI 091120Z 091212 18006KT P6SM BKN012
                      TEMPO 1215 5SM BR OVC008 FM1600 18007KT P6SM
                       SCT010 BKN025 FM1900 20006KT P6SM BKN060
                       FM0200 20006KT P6SM SCT060=
200608090520 TAF KBLI 090520Z 090606 19005KT P6SM SCT025 BKN040 OVC060
                      TEMPO 0608 6SM -RA BR OVC025 FM0800 19005KT
                       P6SM BKN012 OVC025
                      TEMPO 1012 3SM -RA BR BKN008 FM1200 18006KT
                       P6SM BKN012
                      TEMPO 1214 5SM BR OVC008 FM1600 18007KT P6SM
                       SCT010 BKN025 FM1800 20006KT P6SM BKN045=
200608082332 TAF KBLI 082332Z 090024 VRB06KT P6SM SCT029 OVC040
                      TEMPO 0004 -RA BKN029 OVC040 FM0400 20011KT
                       P6SM BKN035 OVC080
                      TEMPO 0408 -RA FM0800 19007KT P6SM BKN035
                       FM1200 18006KT P6SM BKN030 FM1800 20006KT
                       P6SM BKN045=
200608081622 KBLI 081622Z 081612 17012KT P6SM FEW025 SCT120 BKN200 FM1800 20011KT
                       P6SM FEW030 BKN045 OVC100
                      TEMPO 2024 -RA BKN040=
200608081125 TAF KBLI 081125Z 081212 17010KT P6SM SCT120 BKN200 FM1400 18008KT
                       P6SM BKN100 OVC200 FM1900 20008KT P6SM BKN045
                       OVC100
                      TEMPO 2024 -RA BKN040=
200608080522 TAF KBLI 080522Z 080606 18014KT P6SM SCT200 FM1000 19008KT P6SM
                       SCT150 BKN200 FM1400 18008KT P6SM BKN100
                       OVC200 FM1900 20008KT P6SM BKN050 OVC100
                       TEMPO 2024 -RA BKN040=
200608072353 TAF KBLI 072353Z 080024 19011KT P6SM SKC FM0900 19006KT P6SM SCT150
                       BKN200 FM1400 18008KT P6SM BKN100 OVC200
                       FM1900 20008KT P6SM BKN050 OVC100
                      PROB30 1924 -RA=
200608071740 TAF KBLI 071740Z 071818 19010G15KT P6SM SKC FM0000 21010KT P6SM
                       SCT250 FM0900 19008KT P6SM BKN150 BKN200
                       FM1400 18008KT P6SM BKN100 OVC200=
200608071614 KBLI 071614Z 071612 19007KT P6SM FEW004 FM1700 19008KT P6SM SCT250
                       FM0900 19008KT P6SM BKN150=
200608071140 TAF KBLI 071140Z 071212 19008KT P6SM SKC FM1400 19008KT P6SM BKN003
                       TEMPO 1416 4SM BR FM1700 19008KT P6SM SCT250
                       FM0900 19008KT P6SM BKN150=
200608070532 TAF KBLI 070532Z 070606 19009KT P6SM SKC FM1400 19007KT P6SM SCT005
                       FM1700 20007KT P6SM SCT250=
200608062325 TAF KBLI 062325Z 070024 21006KT P6SM SKC FM0300 18007KT P6SM SKC
                       FM1400 19007KT P6SM SCT005 FM1700 20007KT
                       P6SM SCT250=
200608061728 TAF KBLI 061728Z 061818 18006KT P6SM SKC FM2100 24006KT P6SM SKC
                       FM0200 18007KT P6SM SKC=
200608061120 TAF KBLI 061120Z 061212 19004KT P6SM SKC FM2200 25006KT P6SM SKC
                       FM0200 18007KT P6SM SKC=
200608060521 TAF KBLI 060521Z 060606 00000KT P6SM SKC FM1600 19004KT P6SM SKC
                       FM2200 25006KT P6SM SKC FM0200 18005KT P6SM
                       SKC=
200608052320 TAF KBLI 052320Z 060024 27005KT P6SM SKC FM0300 00000KT P6SM SKC
                       FM1600 VRB04KT P6SM SKC=
200608051720 TAF KBLI 051720Z 051818 27005KT P6SM SKC FM0300 00000KT P6SM SCT250=
200608051120 TAF KBLI 051120Z 051212 00000KT P6SM SKC FM1600 27005KT P6SM SCT250
                       FM0300 18005KT P6SM SCT250=
200608050520 TAF KBLI 050520Z 050606 00000KT P6SM SKC FM1600 27005KT P6SM SCT250
                       FM0300 VRB03KT P6SM SCT250=
200608042320 TAF KBLI 042320Z 050024 24006KT P6SM SCT250 FM0300 VRB03KT P6SM
                       SCT250 FM1600 27005KT P6SM SCT250=
200608041741 TAF KBLI 041741Z 041818 28005KT P6SM SCT060 SCT250 FM2000 24006KT
                       P6SM SCT250=
200608041448 KBLI 041448Z 041512 19004KT P6SM SCT019 SCT250
                      TEMPO 1516 BKN019 BKN250 FM1800 23007KT P6SM
                       SCT250=
200608041121 TAF KBLI 041121Z 041212 19004KT P6SM SKC FM2000 23007KT P6SM SKC=
200608040522 TAF KBLI 040522Z 040606 18005KT P6SM SCT250 FM2000 23007KT P6SM
                       SKC=
200608032323 TAF KBLI 032323Z 040024 29008KT P6SM BKN250 FM0300 19005KT P6SM
                       BKN250 FM1900 23007KT P6SM SKC=
200608031725 TAF KBLI 031725Z 031818 18008KT P6SM SCT010 BKN250
                      TEMPO 1819 BKN010 BKN250 FM1900 21008KT P6SM
                       BKN250 FM0300 19005KT P6SM SCT250=
200608031626 KBLI 031626Z 031612 19006KT P6SM SCT008 BKN250
                      TEMPO 1618 BKN008 BKN250 FM1900 19008KT P6SM
                       SKC=
200608031122 TAF KBLI 031122Z 031212 00000KT P6SM FEW250 FM1900 19008KT P6SM
                       SKC=
200608030528 TAF KBLI 030528Z 030606 19004KT P6SM SCT200 FM1200 19006KT P6SM
                       SCT025 FM1700 19008KT P6SM SKC=
200608022337 TAF KBLI 022337Z 030024 21006KT P6SM FEW035 FM0600 18004KT P6SM
                       SCT200 FM1200 19006KT P6SM SCT025 FM1700
                       19008KT P6SM SKC=
200608021734 TAF KBLI 021734Z 021818 18006KT P6SM BKN025 BKN060 FM2000 19009KT
                       P6SM SCT090 FM0600 18006KT P6SM BKN200=
200608021133 TAF KBLI 021133Z 021212 00000KT P6SM SKC FM2100 19009KT P6SM SCT090=
200608020531 TAF KBLI 020531Z 020606 18008KT P6SM SKC FM1200 16006KT P6SM FEW040
                       FM2100 19009KT P6SM SCT100=
200608012327 TAF KBLI 012327Z 020024 19011KT P6SM SKC FM0600 18008KT P6SM SKC
                       FM1200 16006KT P6SM SCT040=
200608012052 KBLI 012052Z 012118 19012G20KT P6SM SKC FM0500 19009KT P6SM SKC
                       FM1200 16006KT P6SM BKN030=
200608011726 TAF KBLI 011726Z 011818 18010KT P6SM SCT200
                      TEMPO 1819 18012G20KT FM0000 19009KT P6SM
                       SCT200 FM1200 16006KT P6SM BKN030=
200608011120 TAF KBLI 011120Z 011212 18006KT P6SM SCT040 BKN200 FM1800 18008KT
                       P6SM SCT030 BKN200 FM0000 19009KT P6SM SCT200=
200608010530 TAF KBLI 010530Z 010606 18007KT P6SM SCT150 FM1200 VRB04KT P6SM
                       SCT020 BKN200 FM1800 18008KT P6SM SCT030
                       BKN200 FM2200 19009KT P6SM SCT200=