##########################################################
# Query made at 02/21/2025 22:53:55 UTC
# Time interval: from 03/01/2007 00:00  to 03/31/2007 23:59  UTC
##########################################################

##########################################################
# KBLI, Bellingham, Bellingham International Airport (United States)
# WMO index: -----. WIGOS ID: Unknown
# Latitude 48-47-58N. Longitude 122-32-21W. Altitude 48 m.
##########################################################

###################################
#  METAR/SPECI from KBLI
###################################
200703312353 METAR KBLI 312353Z VRB05KT 10SM CLR 09/M06 A3006 RMK AO2 SLP187 T00941061 10100 20061 56010=
200703312253 METAR KBLI 312253Z VRB04KT 10SM CLR 09/M02 A3006 RMK AO2 SLP188 T00941017=
200703312153 METAR KBLI 312153Z VRB05KT 10SM FEW028 09/01 A3008 RMK AO2 SLP192 T00940011=
200703312053 METAR KBLI 312053Z 32006KT 10SM SCT024 08/02 A3009 RMK AO2 SLP197 T00830022 58004=
200703312040 SPECI KBLI 312040Z 00000KT 10SM SCT024 07/01 A3009 RMK AO2=
200703312040 SPECI KBLI 312040Z 00000KT 10SM SCT024 07/01 A3009 RMK AO2=
200703311953 METAR KBLI 311953Z 30005KT 10SM BKN022 OVC028 07/02 A3010=
200703311853 METAR KBLI 311853Z VRB06KT 10SM BKN022 OVC027 06/02 A3010 RMK AO2 SLP201 T00610022=
200703311753 METAR KBLI 311753Z 28008KT 240V310 10SM BKN018 BKN023 OVC029 06/02 A3010 RMK AO2 SLP201 T00610022 10061 20044 53002=
200703311653 METAR KBLI 311653Z VRB05KT 10SM BKN017 OVC024 06/03 A3009 RMK AO2 SLP198 T00610028=
200703311553 METAR KBLI 311553Z 00000KT 10SM OVC015 06/03 A3008 RMK AO2 SLP195 T00560028=
200703311453 METAR KBLI 311453Z 00000KT 10SM OVC015 05/03 A3009 RMK AO2 SLP198 T00500028 53001=
200703311353 METAR KBLI 311353Z 00000KT 10SM OVC019 05/02 A3009 RMK AO2 SLP197 T00500022=
200703311253 METAR KBLI 311253Z AUTO VRB03KT 10SM BKN021 OVC060 06/03 A3009 RMK AO2 SLP197 T00560028=
200703311219 SPECI KBLI 311219Z AUTO 32004KT 10SM BKN021 BKN032 OVC049 06/03 A3009 RMK AO2=
200703311219 SPECI KBLI 311219Z AUTO 32004KT 10SM BKN021 BKN032 OVC049 06/03 A3009 RMK AO2=
200703311153 METAR KBLI 311153Z AUTO 00000KT 10SM FEW021 SCT032 OVC047 05/04 A3009 RMK AO2 RAE03 SLP197 P0000 60012 70013 T00500039 10067 20050 58004=
200703311053 METAR KBLI 311053Z AUTO 00000KT 10SM -RA OVC030 06/04 A3010 RMK AO2 RAE05B36 SLP200 P0000 T00560039=
200703310953 METAR KBLI 310953Z AUTO 00000KT 10SM -RA FEW028 BKN040 OVC047 06/04 A3010 RMK AO2 SLP202 P0002 T00560044=
200703310914 SPECI KBLI 310914Z AUTO 00000KT 10SM -RA SCT031 BKN039 OVC055 06/04 A3010 RMK AO2 P0001=
200703310914 SPECI KBLI 310914Z AUTO 00000KT 10SM -RA SCT031 BKN039 OVC055 06/04 A3010 RMK AO2 P0001=
200703310906 SPECI KBLI 310906Z AUTO 00000KT 9SM -RA BKN029 OVC038 06/03 A3010 RMK AO2 P0001=
200703310906 SPECI KBLI 310906Z AUTO 00000KT 9SM -RA BKN029 OVC038 06/03 A3010 RMK AO2 P0001=
200703310853 METAR KBLI 310853Z AUTO 00000KT 10SM -RA SCT024 OVC032 06/04 A3010 RMK AO2 SLP202 P0004 60010 T00610039 58003=
200703310810 SPECI KBLI 310810Z AUTO 00000KT 7SM -RA BKN020 OVC035 06/05 A3011 RMK AO2 P0001=
200703310753 METAR KBLI 310753Z AUTO 29004KT 10SM -RA OVC035 06/05 A3011 RMK AO2 SLP205 P0002 T00610050 401220039=
200703310653 METAR KBLI 310653Z AUTO 31004KT 7SM -RA BKN032 OVC042 06/05 A3011 RMK AO2 SLP205 P0004 T00610050=
200703310600 SPECI KBLI 310600Z AUTO 29004KT 8SM -RA SCT008 OVC044 07/06 A3011 RMK AO2 P0001=
200703310600 SPECI KBLI 310600Z AUTO 29004KT 8SM -RA SCT008 OVC044 07/06 A3011 RMK AO2 P0001=
200703310553 METAR KBLI 310553Z AUTO VRB04KT 10SM -RA BKN008 OVC044 07/05 A3011 RMK AO2 SLP204 P0001 60001 T00670050 10122 20067 51002=
200703310518 SPECI KBLI 310518Z 00000KT 10SM -RA BKN008 OVC048 07/05 A3011 RMK AO2 P0001=
200703310518 SPECI KBLI 310518Z 00000KT 10SM -RA BKN008 OVC048 07/05 A3011 RMK AO2 P0001=
200703310453 METAR KBLI 310453Z 00000KT 10SM -RA OVC050 07/05 A3011 RMK AO2 RAB14 SLP204 P0000 T00670050=
200703310353 METAR KBLI 310353Z 28004KT 10SM OVC055 07/04 A3011 RMK AO2 SLP205 T00720044=
200703310253 METAR KBLI 310253Z VRB04KT 10SM OVC065 08/06 A3011 RMK AO2 SLP203 T00830056 55001=
200703310153 METAR KBLI 310153Z 28006KT 10SM OVC065 09/05 A3010 RMK AO2 SLP202 T00940050=
200703310053 METAR KBLI 310053Z 22004KT 10SM OVC060 11/03 A3011 RMK AO2 SLP202 T01110028=
200703302353 METAR KBLI 302353Z 17007KT 10SM BKN060 12/03 A3011 RMK AO2 SLP204 T01170028 10122 20094 56005=
200703302253 METAR KBLI 302253Z 19009KT 10SM OVC065 12/02 A3011 RMK AO2 SLP205 T01170022=
200703302153 METAR KBLI 302153Z 19010KT 10SM BKN060 OVC075 12/02 A3012 RMK AO2 SLP208 T01220022=
200703302053 METAR KBLI 302053Z 17013KT 10SM BKN070 12/02 A3012 RMK AO2 SLP209 T01220017 58002=
200703301953 METAR KBLI 301953Z 18011KT 10SM OVC060 11/03 A3013 RMK AO2 SLP212 T01110033=
200703301853 METAR KBLI 301853Z 18009KT 10SM OVC060 10/04 A3014 RMK AO2 SLP214 T01000044=
200703301753 METAR KBLI 301753Z 19009KT 10SM OVC065 11/03 A3013 RMK AO2 SLP211 T01060028 10111 20050 53006=
200703301653 METAR KBLI 301653Z 19009KT 10SM FEW060 SCT070 BKN080 09/04 A3012 RMK AO2 SLP208 T00890039=
200703301553 METAR KBLI 301553Z 18008KT 10SM SCT075 BKN100 08/04 A3011 RMK AO2 SLP205 T00780044=
200703301453 METAR KBLI 301453Z 19009KT 10SM OVC100 08/04 A3011 RMK AO2 SLP205 T00780044 58001=
200703301353 METAR KBLI 301353Z 20006KT 10SM CLR 07/04 A3011 RMK AO2 SLP205 T00720044=
200703301253 METAR KBLI 301253Z AUTO 22004KT 10SM SCT110 06/04 A3012 RMK AO2 SLP206 T00560039=
200703301153 METAR KBLI 301153Z AUTO 00000KT 10SM CLR 06/04 A3011 RMK AO2 SLP205 T00560044 10067 20039 56008=
200703301053 METAR KBLI 301053Z AUTO 15004KT 10SM CLR 05/04 A3012 RMK AO2 SLP206 T00500039=
200703300953 METAR KBLI 300953Z AUTO 00000KT 8SM CLR 04/03 A3012 RMK AO2 SLP209 T00390033=
200703300853 METAR KBLI 300853Z AUTO 00000KT 8SM CLR 05/03 A3014 RMK AO2 SLP213 T00500033 58012=
200703300753 METAR KBLI 300753Z AUTO 00000KT 9SM CLR 04/03 A3015 RMK AO2 SLP219 T00440033 401560006=
200703300653 METAR KBLI 300653Z AUTO 00000KT 10SM CLR 05/03 A3016 RMK AO2 SLP221 T00500033=
200703300553 METAR KBLI 300553Z AUTO 00000KT 10SM CLR 07/04 A3017 RMK AO2 SLP226 T00720044 10150 20061 58011=
200703300453 METAR KBLI 300453Z 18003KT 10SM CLR 07/04 A3019 RMK AO2 SLP231 T00720044=
200703300353 METAR KBLI 300353Z 00000KT 10SM CLR 08/04 A3020 RMK AO2 SLP236 T00780044=
200703300253 METAR KBLI 300253Z 00000KT 10SM CLR 09/05 A3021 RMK AO2 SLP238 T00940050 56021=
200703300153 METAR KBLI 300153Z 30003KT 10SM CLR 12/04 A3022 RMK AO2 SLP242 T01170044=
200703300053 METAR KBLI 300053Z 05004KT 10SM CLR 14/03 A3024 RMK AO2 SLP249 T01390028=
200703292353 METAR KBLI 292353Z 00000KT 10SM CLR 15/02 A3027 RMK AO2 SLP258 T01500022 10156 20094 56027=
200703292253 METAR KBLI 292253Z 06005KT 10SM CLR 15/02 A3028=
200703292153 METAR KBLI 292153Z 00000KT 10SM CLR 14/02 A3031 RMK AO2 SLP271 T01440017=
200703292053 METAR KBLI 292053Z VRB03KT 10SM CLR 14/01 A3035 RMK AO2 SLP285 T01440011 58027=
200703291953 METAR KBLI 291953Z VRB06KT 10SM CLR 13/02 A3037 RMK AO2 SLP292 T01280022=
200703291853 METAR KBLI 291853Z 04004KT 10SM CLR 11/02 A3041=
200703291753 METAR KBLI 291753Z 06003KT 10SM CLR 10/03 A3043 RMK AO2 SLP311 T01000028 10100 20006 58010=
200703291653 METAR KBLI 291653Z 02003KT 10SM CLR 08/03 A3044=
200703291553 METAR KBLI 291553Z 04003KT 10SM CLR 05/02 A3045 RMK AO2 SLP320 T00500017=
200703291453 METAR KBLI 291453Z 00000KT 10SM CLR 02/01 A3046 RMK AO2 SLP322 T00170006 58009=
200703291353 METAR KBLI 291353Z 00000KT 10SM CLR 02/00 A3046 RMK AO2 SLP325 T00170000=
200703291253 METAR KBLI 291253Z AUTO 00000KT 10SM CLR 01/00 A3048 RMK AO2 SLP330 T00110000=
200703291153 METAR KBLI 291153Z AUTO 00000KT 10SM CLR 01/00 A3048 RMK AO2 SLP330 T00110000 10044 20006 56008=
200703291053 METAR KBLI 291053Z AUTO 03004KT 10SM CLR 02/00 A3048 RMK AO2 SLP330 T00170000=
200703290953 METAR KBLI 290953Z AUTO 04003KT 10SM FEW090 03/01 A3049 RMK AO2 SLP334 T00280006=
200703290853 METAR KBLI 290853Z AUTO 02004KT 10SM CLR 01/M01 A3051 RMK AO2 SLP339 T00111006 58014=
200703290753 METAR KBLI 290753Z AUTO 35003KT 10SM CLR 02/00 A3052 RMK AO2 SLP345 T00170000 401110011=
200703290653 METAR KBLI 290653Z AUTO 00000KT 10SM CLR 04/00 A3054 RMK AO2 SLP350 T00390000=
200703290553 METAR KBLI 290553Z AUTO 00000KT 10SM CLR 04/01 A3055 RMK AO2 SLP352 T00440006 10106 20033 50003=
200703290453 METAR KBLI 290453Z 00000KT 10SM CLR 04/01 A3055 RMK AO2 SLP356 T00440011=
200703290353 METAR KBLI 290353Z 00000KT 10SM CLR 06/02 A3056 RMK AO2 SLP357 T00560017=
200703290253 METAR KBLI 290253Z 20003KT 10SM BKN120 07/01 A3054 RMK AO2 SLP349 T00720011 56006=
200703290153 METAR KBLI 290153Z 19003KT 10SM CLR 09/01 A3055 RMK AO2 SLP352 T00940006=
200703290053 METAR KBLI 290053Z 18006KT 10SM CLR 10/00 A3054 RMK AO2 SLP351 T01000000=
200703282353 METAR KBLI 282353Z 19006KT 10SM CLR 11/M01 A3056 RMK AO2 SLP355 T01061006 10111 20078 55001=
200703282253 METAR KBLI 282253Z 19006KT 10SM CLR 10/01 A3055 RMK AO2 SLP354 T01000006=
200703282153 METAR KBLI 282153Z 21005KT 10SM CLR 10/00 A3056 RMK AO2 SLP356 T01000000=
200703282053 METAR KBLI 282053Z VRB06KT 10SM CLR 09/01 A3056 RMK AO2 SLP356 T00890006 50000=
200703281953 METAR KBLI 281953Z 18007KT 160V220 10SM CLR 09/01 A3057 RMK AO2 SLP360 T00890011=
200703281853 METAR KBLI 281853Z 18009KT 10SM CLR 08/01 A3057 RMK AO2 SLP360 T00830006=
200703281753 METAR KBLI 281753Z 17010KT 10SM FEW032 08/01 A3056 RMK AO2 SLP356 T00830011 10083 20039 51017=
200703281653 METAR KBLI 281653Z 19009KT 10SM SCT036 07/02 A3056 RMK AO2 SLP356 T00670022=
200703281553 METAR KBLI 281553Z 18009KT 10SM FEW023 SCT042 06/02 A3054 RMK AO2 SLP350 T00610022=
200703281545 SPECI KBLI 281545Z 18011KT 10SM SCT023 SCT035 BKN043 06/02 A3053 RMK AO2=
200703281545 SPECI KBLI 281545Z 18011KT 10SM SCT023 SCT035 BKN043 06/02 A3053 RMK AO2=
200703281528 SPECI KBLI 281528Z 17008KT 10SM BKN021 OVC037 06/02 A3053 RMK AO2=
200703281528 SPECI KBLI 281528Z 17008KT 10SM BKN021 OVC037 06/02 A3053 RMK AO2=
200703281453 METAR KBLI 281453Z 18009KT 10SM FEW019 06/02 A3051 RMK AO2 SLP339 T00610022 53022=
200703281353 METAR KBLI 281353Z 18010KT 10SM OVC060 06/02 A3048 RMK AO2 SLP331 T00560017=
200703281253 METAR KBLI 281253Z AUTO 14007KT 10SM OVC060 06/02 A3046 RMK AO2 SLP322 T00560022=
200703281153 METAR KBLI 281153Z AUTO 16003KT 10SM FEW065 BKN080 04/02 A3044 RMK AO2 SLP317 T00440017 10061 20039 53018=
200703281053 METAR KBLI 281053Z AUTO 00000KT 10SM BKN065 OVC080 05/02 A3042 RMK AO2 SLP309 T00500017=
200703280953 METAR KBLI 280953Z AUTO 17004KT 10SM BKN080 04/01 A3040 RMK AO2 SLP303 T00440011=
200703280853 METAR KBLI 280853Z AUTO 15004KT 10SM OVC060 04/01 A3039 RMK AO2 SLP299 T00390006 51023=
200703280753 METAR KBLI 280753Z AUTO 15006KT 10SM CLR 04/01 A3037 RMK AO2 SLP291 T00440006 401000033=
200703280653 METAR KBLI 280653Z AUTO 17007KT 10SM FEW047 BKN060 OVC070 06/01 A3035 RMK AO2 SLP284 T00610006=
200703280553 METAR KBLI 280553Z AUTO 18006KT 10SM OVC065 06/01 A3032 RMK AO2 SLP276 T00610006 10094 20061 53022=
200703280453 METAR KBLI 280453Z 17008KT 10SM BKN049 BKN080 07/01 A3029 RMK AO2 SLP265 T00670011=
200703280353 METAR KBLI 280353Z 16007KT 10SM FEW049 07/00 A3027 RMK AO2 SLP259 T00670000=
200703280253 METAR KBLI 280253Z 17005KT 10SM FEW046 07/M01 A3025 RMK AO2 SLP253 T00671006 53018=
200703280153 METAR KBLI 280153Z 19004KT 10SM CLR 08/M05 A3023 RMK AO2 SLP244 T00831050=
200703280053 METAR KBLI 280053Z 19006KT 10SM CLR 09/M05 A3021 RMK AO2 SLP237 T00941050=
200703272353 METAR KBLI 272353Z VRB03KT 10SM SCT050 BKN065 09/M04 A3020 RMK AO2 SLP235 T00941039 10100 20072 53018=
200703272253 METAR KBLI 272253Z 30006KT 10SM OVC055 09/M03 A3018 RMK AO2 SLP227 T00941033=
200703272153 METAR KBLI 272153Z VRB04KT 10SM OVC050 09/M03 A3016 RMK AO2 SLP222 T00941033=
200703272053 METAR KBLI 272053Z 31009KT 10SM BKN046 09/M02 A3015 RMK AO2 SLP216 T00941017 51022=
200703271953 METAR KBLI 271953Z 34007KT 300V010 10SM BKN044 08/M01 A3012 RMK AO2 SLP208 T00831011=
200703271853 METAR KBLI 271853Z 31010G14KT 10SM CLR 08/M02 A3011 RMK AO2 SLP204 T00831017=
200703271753 METAR KBLI 271753Z 29010G21KT 10SM SCT028 07/M01 A3008 RMK AO2 SLP194 T00721011 10072 20056 51031=
200703271653 METAR KBLI 271653Z 28008G17KT 240V310 10SM SCT028 07/M01 A3005 RMK AO2 SLP184 T00671006=
200703271553 METAR KBLI 271553Z 30008KT 260V320 10SM SCT025 07/00 A3002 RMK AO2 SLP175 T00670000=
200703271453 METAR KBLI 271453Z 29008KT 240V320 10SM FEW023 06/01 A2999 RMK AO2 SLP162 T00560006 51018=
200703271421 SPECI KBLI 271421Z 30008G15KT 250V330 10SM FEW025 06/01 A2998 RMK AO2=
200703271421 SPECI KBLI 271421Z 30008G15KT 250V330 10SM FEW025 06/01 A2998 RMK AO2=
200703271353 METAR KBLI 271353Z 30008G17KT 10SM BKN023 06/02 A2996 RMK AO2 SLP154 T00560017=
200703271349 SPECI KBLI 271349Z 30008G17KT 10SM BKN021 06/02 A2996 RMK AO2=
200703271349 SPECI KBLI 271349Z 30008G17KT 10SM BKN021 06/02 A2996 RMK AO2=
200703271329 SPECI KBLI 271329Z AUTO 29007KT 10SM SCT021 SCT090 06/02 A2995 RMK AO2=
200703271329 SPECI KBLI 271329Z AUTO 29007KT 10SM SCT021 SCT090 06/02 A2995 RMK AO2=
200703271253 METAR KBLI 271253Z AUTO 30006KT 10SM BKN019 BKN090 06/02 A2993=
200703271202 SPECI KBLI 271202Z AUTO 28007KT 10SM SCT020 OVC090 06/02 A2991=
200703271153 METAR KBLI 271153Z AUTO 29006KT 10SM BKN020 OVC090 06/02 A2990 RMK AO2 SLP133 T00610022 10067 20033 51027=
200703271105 SPECI KBLI 271105Z AUTO 30006KT 10SM BKN018 06/03 A2989 RMK AO2=
200703271105 SPECI KBLI 271105Z AUTO 30006KT 10SM BKN018 06/03 A2989 RMK AO2=
200703271053 METAR KBLI 271053Z AUTO 30004KT 10SM SCT018 06/03 A2988 RMK AO2 SLP125 T00610028=
200703270953 METAR KBLI 270953Z AUTO 30007KT 10SM CLR 07/03 A2985 RMK AO2 SLP114 T00670028=
200703270853 METAR KBLI 270853Z AUTO 30003KT 10SM CLR 04/02 A2982 RMK AO2 SLP106 T00440022 53015=
200703270753 METAR KBLI 270753Z AUTO 00000KT 10SM CLR 03/02 A2980 RMK AO2 SLP100 T00330022 401500006=
200703270653 METAR KBLI 270653Z 00000KT 10SM CLR 05/03 A2979 RMK AO2 SLP097 T00500028=
200703270553 METAR KBLI 270553Z 27003KT 10SM CLR 05/03 A2978 RMK AO2 SLP091 T00500028 10150 20039 52016=
200703270353 METAR KBLI 270353Z 00000KT 10SM BKN100 07/03 A2975 RMK AO2 SLP081 T00670028=
200703270253 METAR KBLI 270253Z 30005KT 10SM CLR 09/04 A2973 RMK AO2 SLP076 T00890039 55001=
200703270153 METAR KBLI 270153Z 29005KT 10SM FEW100 10/05 A2972 RMK AO2 SLP073 T01000050=
200703270053 METAR KBLI 270053Z 01008KT 10SM BKN110 13/00 A2972 RMK AO2 SLP070 T01330000=
200703262353 METAR KBLI 262353Z 04009KT 10SM BKN100 14/00 A2973 RMK AO2 SLP076 T01440000 10150 20094 56031=
200703262253 METAR KBLI 262253Z 04015KT 10SM SCT100 14/01 A2975 RMK AO2 SLP081 T01440006=
200703262153 METAR KBLI 262153Z 02011KT 10SM SCT100 14/00 A2979 RMK AO2 SLP096 T01440000=
200703262053 METAR KBLI 262053Z 02010KT 10SM SCT120 13/00 A2983 RMK AO2 SLP107 T01280000 58023=
200703261953 METAR KBLI 261953Z 03009KT 10SM FEW110 12/01 A2985 RMK AO2 SLP116 T01220011=
200703261853 METAR KBLI 261853Z 03011KT 10SM CLR 11/01 A2987 RMK AO2 SLP123 T01110006=
200703261753 METAR KBLI 261753Z 05010KT 10SM CLR 09/00 A2989 RMK AO2 SLP131 T00940000 10094 20011 58020=
200703261653 METAR KBLI 261653Z 05007KT 10SM CLR 07/01 A2991 RMK AO2 SLP138 T00720006=
200703261553 METAR KBLI 261553Z 04005KT 10SM CLR 05/01 A2993 RMK AO2 SLP144 T00500006=
200703261453 METAR KBLI 261453Z 02006KT 10SM CLR 02/00 A2995 RMK AO2 SLP152 T00220000 56023=
200703261353 METAR KBLI 261353Z 02006KT 10SM CLR 02/M01 A2997 RMK AO2 SLP159 T00171006=
200703261253 METAR KBLI 261253Z AUTO 04008KT 10SM CLR 02/M01 A3000 RMK AO2 SLP167 T00221006=
200703261153 METAR KBLI 261153Z AUTO 03005KT 10SM CLR 02/00 A3002 RMK AO2 SLP175 70001 T00170000 10056 20006 56028=
200703261053 METAR KBLI 261053Z AUTO 03006KT 10SM CLR 02/00 A3005 RMK AO2 SLP183 T00170000=
200703260953 METAR KBLI 260953Z AUTO 03005KT 10SM BKN044 02/01 A3007 RMK AO2 SLP191 T00170006=
200703260853 METAR KBLI 260853Z AUTO 02003KT 10SM CLR 02/01 A3011 RMK AO2 SLP203 T00170006 58011=
200703260753 METAR KBLI 260753Z 00000KT 10SM CLR 02/01 A3012 RMK AO2 SLP209 T00220011 401110022=
200703260653 METAR KBLI 260653Z 00000KT 10SM CLR 03/01 A3013 RMK AO2 SLP213 T00330011=
200703260553 METAR KBLI 260553Z 17003KT 10SM CLR 04/02 A3014 RMK AO2 SLP214 T00390017 10094 20033 50005=
200703260453 METAR KBLI 260453Z 00000KT 10SM FEW065 04/02 A3015 RMK AO2 SLP216 T00440017=
200703260353 METAR KBLI 260353Z 17004KT 10SM BKN065 07/02 A3014 RMK AO2 SLP213 T00670022=
200703260253 METAR KBLI 260253Z 17006KT 10SM SCT070 07/03 A3012 RMK AO2 SLP209 T00720028 51005=
200703260153 METAR KBLI 260153Z 18006KT 10SM CLR 08/03 A3012 RMK AO2 SLP208 T00830028=
200703260053 METAR KBLI 260053Z 19010KT 10SM FEW075 09/02 A3011 RMK AO2 SLP204 T00940022=
200703252353 METAR KBLI 252353Z 17010KT 10SM FEW024 SCT039 BKN055 09/03 A3011 RMK AO2 RAB2256E10B28E49 SLP203 P0001 60001 T00940033 10111 20083 51009=
200703252253 METAR KBLI 252253Z 18005KT 10SM BKN035 BKN060 BKN070 09/01 A3010 RMK AO2 RAB32E51 SLP201 P0000 T00890006=
200703252153 METAR KBLI 252153Z 18011KT 10SM OVC065 10/01 A3008 RMK AO2 SLP196 T01000006=
200703252053 METAR KBLI 252053Z 19011KT 10SM FEW045 BKN060 11/01 A3008=
200703251953 METAR KBLI 251953Z 18009KT 10SM SCT047 09/01 A3007 RMK AO2 SLP189 T00940011=
200703251853 METAR KBLI 251853Z 18009KT 10SM CLR 09/01 A3005 RMK AO2 SLP184 T00940011=
200703251753 METAR KBLI 251753Z 19010KT 10SM CLR 08/02 A3003 RMK AO2 SLP178 T00830017 10089 20028 51021=
200703251653 METAR KBLI 251653Z 17009KT 10SM SCT030 08/03 A3002 RMK AO2 SLP172 T00780033=
200703251553 METAR KBLI 251553Z 19005KT 10SM CLR 07/02 A3000 RMK AO2 SLP165 T00720022=
200703251453 METAR KBLI 251453Z 16004KT 10SM CLR 03/02 A2997 RMK AO2 SLP157 T00330017 53020=
200703251353 METAR KBLI 251353Z AUTO 00000KT 10SM CLR 03/02 A2995 RMK AO2 SLP149 T00330017=
200703251253 METAR KBLI 251253Z AUTO 16003KT 10SM CLR 04/02 A2993 RMK AO2 SLP144 T00390022=
200703251153 METAR KBLI 251153Z AUTO 16004KT 10SM CLR 04/03 A2991 RMK AO2 SLP137 70040 T00440028 10083 20033 50005=
200703251053 METAR KBLI 251053Z AUTO 00000KT 10SM FEW035 04/03 A2991 RMK AO2 SLP138 T00440028=
200703250953 METAR KBLI 250953Z AUTO 18004KT 10SM FEW030 06/03 A2990 RMK AO2 SLP134 T00560033=
200703250926 SPECI KBLI 250926Z AUTO 18005KT 10SM SCT026 07/03 A2990 RMK AO2=
200703250926 SPECI KBLI 250926Z AUTO 18005KT 10SM SCT026 07/03 A2990 RMK AO2=
200703250853 METAR KBLI 250853Z AUTO 17003KT 10SM BKN026 06/04 A2990 RMK AO2 SLP131 T00610039 53020=
200703250804 SPECI KBLI 250804Z AUTO 19003KT 10SM SCT027 BKN032 07/04 A2988 RMK AO2=
200703250804 SPECI KBLI 250804Z AUTO 19003KT 10SM SCT027 BKN032 07/04 A2988 RMK AO2=
200703250753 METAR KBLI 250753Z AUTO 20004KT 10SM BKN029 07/04 A2988 RMK AO2 SLP126 T00720039 401170067=
200703250653 METAR KBLI 250653Z 19009KT 10SM CLR 08/04 A2985 RMK AO2 SLP116 T00780039=
200703250553 METAR KBLI 250553Z 18011KT 10SM BKN120 08/05 A2984 RMK AO2 SLP111 60004 T00830050 10100 20078 51012=
200703250453 METAR KBLI 250453Z 19006KT 10SM OVC095 08/06 A2984 RMK AO2 SLP110 T00830056=
200703250353 METAR KBLI 250353Z VRB03KT 10SM OVC075 08/06 A2983 RMK AO2 SLP107 T00830056=
200703250253 METAR KBLI 250253Z VRB06KT 10SM SCT020 OVC085 09/05 A2980 RMK AO2 RAE25 SLP098 P0001 60004 T00940050 51005=
200703250153 METAR KBLI 250153Z 17008KT 5SM -RA BKN030 OVC055 09/06 A2980 RMK AO2 SLP097 P0001 T00890061=
200703250053 METAR KBLI 250053Z 18009KT 10SM -RA FEW018 SCT027 OVC055 09/07 A2980 RMK AO2 SLP098 P0002 T00940072=
200703242353 METAR KBLI 242353Z 18009KT 10SM -RA FEW027 BKN034 OVC050 10/07 A2979 RMK AO2 RAB22 SLP093 P0000 60020 T01000072 10111 20100 53007=
200703242253 METAR KBLI 242253Z 20011G15KT 180V240 10SM BKN070 OVC085 10/08 A2977 RMK AO2 RAE36 SLP088 P0002 T01000078=
200703242153 METAR KBLI 242153Z 19008KT 6SM -RA BR FEW018 BKN038 OVC055 10/09 A2977 RMK AO2 SLP088 P0007 T01000089=
200703242053 METAR KBLI 242053Z 19005KT 6SM -RA BR FEW014 BKN036 OVC055 11/09 A2977 RMK AO2 SLP086 P0005 60011 T01060094 53003=
200703241953 METAR KBLI 241953Z 18012G16KT 7SM -RA FEW016 BKN036 OVC049 11/09 A2976 RMK AO2 SLP083 P0004 T01060094=
200703241853 METAR KBLI 241853Z 17014KT 5SM -RA BR SCT014 BKN044 OVC055 11/09 A2976 RMK AO2 SLP083 P0002 T01060094=
200703241753 METAR KBLI 241753Z 18009G16KT 7SM -RA FEW014 BKN044 OVC055 11/09 A2976 RMK AO2 SLP084 P0004 60016 T01060094 10111 20100 56004=
200703241653 METAR KBLI 241653Z 18015KT 4SM -RA BR BKN019 OVC025 11/09 A2977 RMK AO2 SLP087 P0002 T01110089=
200703241553 METAR KBLI 241553Z 16010KT 10SM -RA OVC019 11/09 A2975 RMK AO2 RAE09B42 SLP082 P0000 T01110089=
200703241519 SPECI KBLI 241519Z 18013KT 7SM BKN019 BKN025 OVC055 11/09 A2977 RMK AO2 RAE09 P0000=
200703241519 SPECI KBLI 241519Z 18013KT 7SM BKN019 BKN025 OVC055 11/09 A2977 RMK AO2 RAE09 P0000=
200703241453 METAR KBLI 241453Z 18009KT 5SM -RA BR FEW020 BKN047 OVC055 10/09 A2977 RMK AO2 SLP088 P0003 60010 T01000089 57003=
200703241353 METAR KBLI 241353Z 18010KT 10SM -RA SCT020 SCT030 OVC050 11/09 A2977 RMK AO2 SLP088 P0004 T01060089=
200703241320 SPECI KBLI 241320Z AUTO 17011KT 9SM -RA FEW015 SCT021 OVC055 11/09 A2978 RMK AO2 P0002=
200703241320 SPECI KBLI 241320Z AUTO 17011KT 9SM -RA FEW015 SCT021 OVC055 11/09 A2978 RMK AO2 P0002=
200703241253 METAR KBLI 241253Z AUTO 18009KT 10SM -RA BKN017 OVC025 11/09 A2978 RMK AO2 SLP090 P0003 T01060089=
200703241153 METAR KBLI 241153Z AUTO 18013G18KT 10SM -RA BKN019 OVC055 11/09 A2978 RMK AO2 RAB09 SLP091 P0002 60019 70048 T01060089 10117 20106 56016=
200703241053 METAR KBLI 241053Z AUTO 18016G19KT 10SM BKN021 OVC060 11/09 A2978 RMK AO2 RAB01E16B33E51 SLP092 P0001 T01110089=
200703240953 METAR KBLI 240953Z AUTO 19011KT 10SM BKN018 BKN024 OVC050 11/09 A2981 RMK AO2 RAE27 SLP100 P0001 T01060089=
200703240853 METAR KBLI 240853Z AUTO 17016G23KT 7SM -RA BKN023 BKN038 OVC055 11/08 A2983 RMK AO2 SLP107 P0006 60015 T01060083 57009=
200703240833 SPECI KBLI 240833Z AUTO 17014G23KT 9SM -RA SCT021 BKN050 OVC060 11/08 A2982 RMK AO2 P0002=
200703240833 SPECI KBLI 240833Z AUTO 17014G23KT 9SM -RA SCT021 BKN050 OVC060 11/08 A2982 RMK AO2 P0002=
200703240819 SPECI KBLI 240819Z AUTO 17016G21KT 10SM -RA SCT021 BKN025 OVC055 11/08 A2982 RMK AO2 P0001=
200703240819 SPECI KBLI 240819Z AUTO 17016G21KT 10SM -RA SCT021 BKN025 OVC055 11/08 A2982 RMK AO2 P0001=
200703240753 METAR KBLI 240753Z AUTO 17012KT 9SM -RA FEW019 SCT024 OVC055 11/08 A2982 RMK AO2 SLP106 P0005 T01060083 401110061=
200703240653 METAR KBLI 240653Z AUTO 17014G25KT 6SM -RA BR FEW026 SCT047 OVC055 11/08 A2986 RMK AO2 SLP117 P0004 T01060083=
200703240553 METAR KBLI 240553Z AUTO 17014G21KT 10SM -RA FEW027 OVC060 11/08 A2985 RMK AO2 PK WND 17028/0458 SLP116 P0003 60018 T01060083 10111 20100 58013=
200703240543 SPECI KBLI 240543Z AUTO 17014G22KT 10SM -RA SCT027 OVC060 11/08 A2986 RMK AO2 PK WND 17028/0458 P0002=
200703240543 SPECI KBLI 240543Z AUTO 17014G22KT 10SM -RA SCT027 OVC060 11/08 A2986 RMK AO2 PK WND 17028/0458 P0002=
200703240453 METAR KBLI 240453Z 17018G23KT 10SM -RA OVC023 11/08 A2987 RMK AO2 PK WND 17027/0401 RAB0356 SLP122 P0001 T01060083=
200703240402 SPECI KBLI 240402Z 17019G27KT 10SM -RA FEW021 BKN027 OVC050 11/08 A2987=
200703240353 METAR KBLI 240353Z 17016G22KT 10SM FEW022 SCT028 OVC050 11/08 A2988 RMK AO2 RAE33 SLP126 P0003 T01110078=
200703240253 METAR KBLI 240253Z 17013KT 10SM -RA OVC022 11/08 A2989 RMK AO2 SLP128 P0002 60011 T01060083 56013=
200703240234 SPECI KBLI 240234Z 18013KT 10SM -RA BKN022 OVC060 11/08 A2989 RMK AO2 P0001=
200703240234 SPECI KBLI 240234Z 18013KT 10SM -RA BKN022 OVC060 11/08 A2989 RMK AO2 P0001=
200703240153 METAR KBLI 240153Z 17014G18KT 10SM -RA OVC060 11/08 A2989 RMK AO2 SLP129 P0005 T01060083=
200703240053 METAR KBLI 240053Z 17013KT 9SM -RA FEW017 OVC031 11/08 A2991 RMK AO2 SLP137 P0004 T01060083=
200703240007 SPECI KBLI 240007Z 18013G19KT 4SM -RA BR SCT024 BKN030 OVC036 10/08 A2992 RMK AO2 P0003=
200703232353 METAR KBLI 232353Z 18014G21KT 3SM RA BR BKN024 BKN028 OVC034 10/08 A2993 RMK AO2 RAB19 SLP142 P0004 60009 T01000083 10111 20100 55002=
200703232253 METAR KBLI 232253Z 17014G24KT 10SM FEW021 BKN025 OVC060 11/07 A2989 RMK AO2 PK WND 17032/2220 RAE08 SLP129 P0000 T01110072=
200703232153 METAR KBLI 232153Z 17022G30KT 10SM -RA OVC025 11/07 A2991 RMK AO2 PK WND 17030/2150 SLP137 P0001 T01110072=
200703232053 METAR KBLI 232053Z 17015G23KT 10SM -RA OVC025 11/07 A2993 RMK AO2 SLP144 P0001 60004 T01060072 55019=
200703231953 METAR KBLI 231953Z 16015KT 10SM -RA OVC023 11/07 A2993 RMK AO2 SLP143 P0001 T01060072=
200703231853 METAR KBLI 231853Z 15007KT 10SM -RA OVC027 11/07 A2998=
200703231753 METAR KBLI 231753Z 17005KT 10SM -RA OVC027 11/06 A2999 RMK AO2 RAB22 SLP164 P0001 60002 T01060061 10111 20061 55004=
200703231653 METAR KBLI 231653Z 17008G18KT 10SM SCT027 BKN031 OVC065 11/06 A2999=
200703231553 METAR KBLI 231553Z 15013G21KT 10SM SCT024 OVC032 11/06 A2999 RMK AO2 RAE44 SLP164 P0000 T01060056=
200703231453 METAR KBLI 231453Z 14014G17KT 10SM -RA FEW028 OVC036 09/06 A3000 RMK AO2 RAB23 SLP168 P0000 60001 T00940056 58017=
200703231445 SPECI KBLI 231445Z 13011KT 10SM -RA SCT028 OVC038 09/06 A3001 RMK AO2 RAB23 P0000=
200703231445 SPECI KBLI 231445Z 13011KT 10SM -RA SCT028 OVC038 09/06 A3001 RMK AO2 RAB23 P0000=
200703231353 METAR KBLI 231353Z 15006KT 10SM OVC028 09/05 A3003 RMK AO2 RAE42 SLP178 P0000 T00940050=
200703231253 METAR KBLI 231253Z AUTO 00000KT 5SM -RA BR BKN026 OVC055 06/06 A3004 RMK AO2 RAB44 SLP181 P0001 T00610056=
200703231211 SPECI KBLI 231211Z AUTO VRB04KT 6SM BR BKN024 BKN031 OVC050 06/06 A3006 RMK AO2=
200703231211 SPECI KBLI 231211Z AUTO VRB04KT 6SM BR BKN024 BKN031 OVC050 06/06 A3006 RMK AO2=
200703231153 METAR KBLI 231153Z AUTO 04005KT 5SM BR SCT024 OVC050 06/05 A3005 RMK AO2 SLP185 60000 70047 T00610050 10089 20061 58015=
200703231137 SPECI KBLI 231137Z AUTO 01005KT 7SM SCT024 OVC050 07/05 A3006 RMK AO2=
200703231137 SPECI KBLI 231137Z AUTO 01005KT 7SM SCT024 OVC050 07/05 A3006 RMK AO2=
200703231127 SPECI KBLI 231127Z AUTO 03005KT 10SM BKN024 OVC050 07/05 A3006 RMK AO2=
200703231127 SPECI KBLI 231127Z AUTO 03005KT 10SM BKN024 OVC050 07/05 A3006 RMK AO2=
200703231053 METAR KBLI 231053Z AUTO 14008KT 10SM FEW026 BKN048 BKN075 08/05 A3007 RMK AO2 SLP192 T00830050=
200703230953 METAR KBLI 230953Z AUTO 15006KT 10SM FEW022 BKN055 OVC090 08/06 A3010 RMK AO2 RAB0859E30 SLP201 P0000 T00830056=
200703230949 SPECI KBLI 230949Z AUTO 13007KT 10SM FEW022 BKN055 OVC085 08/06 A3010 RMK AO2 RAB0859E30 P0000=
200703230853 METAR KBLI 230853Z AUTO 15008KT 10SM OVC020 08/06 A3010 RMK AO2 RAE30 SLP201 P0000 60000 T00830056 51005=
200703230753 METAR KBLI 230753Z AUTO 15007KT 10SM -RA OVC019 09/06 A3009 RMK AO2 RAB11 SLP199 P0000 T00890056 400890067=
200703230730 SPECI KBLI 230730Z AUTO 16009KT 10SM -RA BKN021 OVC044 09/06 A3010 RMK AO2 RAB11 P0000=
200703230730 SPECI KBLI 230730Z AUTO 16009KT 10SM -RA BKN021 OVC044 09/06 A3010 RMK AO2 RAB11 P0000=
200703230653 METAR KBLI 230653Z AUTO 14009KT 10SM SCT021 OVC044 08/05 A3009 RMK AO2 SLP199 T00830050=
200703230553 METAR KBLI 230553Z AUTO 15007KT 10SM BKN030 OVC044 08/05 A3009 RMK AO2 RAE0459 SLP196 P0000 60019 T00830050 10083 20072 53010=
200703230453 METAR KBLI 230453Z 14007KT 10SM -RA OVC044 08/06 A3007 RMK AO2 RAB50 SLP189 P0000 T00830056=
200703230400 SPECI KBLI 230400Z 17010KT 10SM OVC042 08/05 A3006 RMK AO2=
200703230400 SPECI KBLI 230400Z 17010KT 10SM OVC042 08/05 A3006 RMK AO2=
200703230353 METAR KBLI 230353Z 16009KT 10SM BKN029 OVC037 08/05 A3006 RMK AO2 RAE26 SLP185 P0001 T00780050=
200703230253 METAR KBLI 230253Z 16010KT 7SM -RA BKN029 OVC035 08/06 A3006 RMK AO2 SLP186 P0006 60018 T00780061 53006=
200703230153 METAR KBLI 230153Z 15010KT 10SM -RA FEW018 BKN029 OVC038 08/06 A3004 RMK AO2 SLP182 P0005 T00830061=
200703230053 METAR KBLI 230053Z 15007KT 6SM -RA BR FEW018 BKN029 OVC038 08/07 A3003 RMK AO2 SLP178 P0007 T00830067=
200703222353 METAR KBLI 222353Z 16010KT 7SM -RA SCT024 OVC040 08/06 A3004 RMK AO2 SLP181 P0007 60019 T00830061 10089 20078 53003=
200703222253 METAR KBLI 222253Z 19003KT 7SM -RA OVC022 08/06 A3004 RMK AO2 SLP180 P0002 T00830061=
200703222153 METAR KBLI 222153Z VRB06KT 10SM -RA OVC026 08/06 A3003 RMK AO2 SLP176 P0003 T00830056=
200703222053 METAR KBLI 222053Z 17012KT 10SM -RA OVC026 09/06 A3003 RMK AO2 SLP178 P0001 60007 T00890056 56018=
200703221917 SPECI KBLI 221917Z 16009KT 10SM -RA SCT024 OVC047 08/06 A3006 RMK AO2 P0001=
200703221853 METAR KBLI 221853Z 14009KT 10SM -RA SCT020 BKN024 OVC047 08/06 A3006 RMK AO2 SLP187 P0003 T00830056=
200703221753 METAR KBLI 221753Z 15010KT 10SM -RA FEW020 BKN024 OVC049 08/06 A3009 RMK AO2 SLP196 P0003 60009 T00780056 10078 20067 56012=
200703221653 METAR KBLI 221653Z 16010KT 10SM -RA FEW020 BKN024 OVC049 08/05 A3009 RMK AO2 SLP199 P0002 T00780050=
200703221605 SPECI KBLI 221605Z 16010KT 10SM -RA FEW020 BKN024 OVC049 07/05 A3011 RMK AO2 P0000=
200703221605 SPECI KBLI 221605Z 16010KT 10SM -RA FEW020 BKN024 OVC049 07/05 A3011 RMK AO2 P0000=
200703221553 METAR KBLI 221553Z 16009KT 10SM -RA SCT023 BKN040 OVC047 07/04 A3011 RMK AO2 SLP203 P0002 T00720044=
200703221453 METAR KBLI 221453Z 15009KT 7SM -RA OVC041 07/05 A3012 RMK AO2 RAB13 SLP208 P0002 60002 T00720050 58015=
200703221353 METAR KBLI 221353Z 17008KT 10SM FEW021 OVC041 07/04 A3014 RMK AO2 SLP214 T00720044=
200703221253 METAR KBLI 221253Z AUTO 17008KT 10SM OVC041 07/04 A3015 RMK AO2 RAE22 SLP219 P0000 T00720044=
200703221234 SPECI KBLI 221234Z AUTO 17005KT 10SM FEW024 OVC041 07/04 A3016 RMK AO2 RAE22 P0000=
200703221234 SPECI KBLI 221234Z AUTO 17005KT 10SM FEW024 OVC041 07/04 A3016 RMK AO2 RAE22 P0000=
200703221153 METAR KBLI 221153Z AUTO 18007KT 10SM -RA OVC019 07/04 A3017 RMK AO2 RAE02B42 SLP223 P0000 60000 70003 T00670044 10078 20044 58009=
200703221053 METAR KBLI 221053Z AUTO 16007KT 10SM -RA OVC021 07/04 A3018 RMK AO2 RAB52 SLP226 P0000 T00720039=
200703220953 METAR KBLI 220953Z AUTO 16008KT 10SM BKN023 OVC040 07/03 A3019 RMK AO2 RAB16E25 SLP231 P0000 T00720033=
200703220853 METAR KBLI 220853Z AUTO 17008KT 10SM OVC025 08/03 A3019 RMK AO2 SLP233 T00780028 55009=
200703220753 METAR KBLI 220753Z AUTO 18013KT 10SM BKN027 OVC042 08/03 A3019 RMK AO2 SLP232 T00780028 400780006=
200703220653 METAR KBLI 220653Z AUTO 17014G19KT 10SM OVC042 08/02 A3020 RMK AO2 SLP235 T00780022=
200703220553 METAR KBLI 220553Z AUTO 03005KT 6SM BR OVC040 04/03 A3022 RMK AO2 RAE36 SLP243 P0001 60003 T00440033 10072 20044 58004=
200703220453 METAR KBLI 220453Z 35005KT 7SM -RA OVC036 04/03 A3024 RMK AO2 SLP249 P0001 T00440033=
200703220353 METAR KBLI 220353Z 03005KT 6SM -RA BR OVC036 04/03 A3025=
200703220253 METAR KBLI 220253Z 14009KT 10SM -RA OVC042 07/02 A3023 RMK AO2 RAE0156B35 SLP246 P0000 60000 T00670017 56012=
200703220153 METAR KBLI 220153Z 16008KT 10SM -RA BKN036 OVC045 07/02 A3023 RMK AO2 RAB46 SLP247 P0000 T00670017=
200703220053 METAR KBLI 220053Z 16011KT 10SM FEW032 BKN043 OVC050 07/01 A3024 RMK AO2 RAB15E52 SLP251 P0000 T00720011=
200703212353 METAR KBLI 212353Z 17008KT 10SM OVC040 07/M01 A3027 RMK AO2 SLP259 60000 T00721006 10078 20056 56010=
200703212253 METAR KBLI 212253Z 16009KT 10SM OVC036 07/00 A3027 RMK AO2 RAB05E40 SLP261 P0000 T00720000=
200703212153 METAR KBLI 212153Z 18010KT 10SM OVC032 07/01 A3028 RMK AO2 RAB23E51 SLP264 P0000 T00720006=
200703212053 METAR KBLI 212053Z 19011KT 10SM FEW042 07/01 A3030 RMK AO2 SLP269 T00720006 58009=
200703211953 METAR KBLI 211953Z 20007KT 10SM FEW055 07/01 A3031 RMK AO2 SLP274 T00670006=
200703211853 METAR KBLI 211853Z 19009KT 10SM FEW049 BKN070 OVC085 07/00 A3032 RMK AO2 SLP277 T00670000=
200703211753 METAR KBLI 211753Z 18011KT 10SM SCT039 OVC048 06/00 A3033 RMK AO2 SLP278 T00560000 10056 20011 50006=
200703211653 METAR KBLI 211653Z 17005KT 10SM OVC035 05/M01 A3033 RMK AO2 SLP280 T00501006=
200703211553 METAR KBLI 211553Z 16009KT 10SM BKN028 BKN037 OVC048 04/00 A3032=
200703211453 METAR KBLI 211453Z 14005KT 10SM BKN055 04/01 A3031 RMK AO2 SLP272 T00440011 51017=
200703211353 METAR KBLI 211353Z 17007KT 10SM FEW050 SCT110 03/01 A3029 RMK AO2 SLP268 T00330006=
200703211253 METAR KBLI 211253Z AUTO 17006KT 10SM SCT110 03/M01 A3028 RMK AO2 SLP263 T00281006=
200703211153 METAR KBLI 211153Z AUTO 16004KT 10SM SCT047 02/M01 A3026 RMK AO2 SLP255 70001 T00221011 10039 20006 51010=
200703211053 METAR KBLI 211053Z AUTO 16004KT 10SM FEW049 SCT060 02/M01 A3025 RMK AO2 SLP253 T00171011=
200703210953 METAR KBLI 210953Z AUTO 00000KT 10SM CLR 01/M01 A3025 RMK AO2 SLP252 T00111011=
200703210853 METAR KBLI 210853Z AUTO 00000KT 10SM FEW100 01/M02 A3023 RMK AO2 SLP245 T00061017 53014=
200703210753 METAR KBLI 210753Z AUTO 16004KT 10SM CLR 02/00 A3021 RMK AO2 SLP239 T00220000 400830017=
200703210653 METAR KBLI 210653Z AUTO 15005KT 10SM CLR 02/00 A3019 RMK AO2 SLP234 T00220000=
200703210553 METAR KBLI 210553Z AUTO 20004KT 10SM CLR 03/01 A3018 RMK AO2 SLP230 60000 T00330011 10083 20022 51027=
200703210453 METAR KBLI 210453Z 21003KT 10SM CLR 04/01 A3016 RMK AO2 SLP222 T00390006=
200703210353 METAR KBLI 210353Z 17003KT 10SM FEW044 SCT080 04/01 A3013 RMK AO2 RAB28E47 SLP212 P0000 T00440011=
200703210253 METAR KBLI 210253Z 20003KT 10SM FEW055 OVC090 06/M01 A3010 RMK AO2 SLP202 T00611006 53021=
200703210153 METAR KBLI 210153Z 27003KT 10SM BKN070 OVC090 07/M01 A3008 RMK AO2 SLP195 T00671011=
200703210053 METAR KBLI 210053Z 27006KT 10SM BKN095 07/M02 A3006 RMK AO2 SLP187 T00721022=
200703202353 METAR KBLI 202353Z 32009KT 10SM FEW075 08/M02 A3004 RMK AO2 SLP181 60001 T00781022 10083 20039 53011=
200703202253 METAR KBLI 202253Z 30011KT 10SM FEW075 08/M01 A3003 RMK AO2 SLP176 T00831011=
200703202153 METAR KBLI 202153Z 29009KT 10SM FEW039 08/M02 A3001 RMK AO2 SLP170 T00831017=
200703202053 METAR KBLI 202053Z 30008KT 10SM SCT060 BKN075 07/01 A3001 RMK AO2 SLP170 60001 T00720011 51023=
200703201953 METAR KBLI 201953Z 00000KT 10SM FEW023 BKN045 OVC060 04/02 A2999 RMK AO2 RAB26E52 SLP164 P0001 T00440017=
200703201853 METAR KBLI 201853Z 29008KT 10SM FEW024 SCT030 BKN070 07/01 A2997 RMK AO2 SLP157 T00720006=
200703201753 METAR KBLI 201753Z 25008G16KT 220V300 10SM BKN043 07/M02 A2994 RMK AO2 SLP147 T00721022 10078 20056 53029=
200703201653 METAR KBLI 201653Z 23008KT 200V280 10SM FEW055 07/M02 A2991 RMK AO2 SLP136 T00671017=
200703201553 METAR KBLI 201553Z 00000KT 10SM FEW030 BKN090 06/01 A2988 RMK AO2 SLP127 T00610006=
200703201453 METAR KBLI 201453Z 20004KT 10SM SCT050 06/00 A2985 RMK AO2 SLP117 T00560000 51043=
200703201353 METAR KBLI 201353Z 21008KT 10SM FEW050 SCT095 06/01 A2981 RMK AO2 SLP103 T00610006=
200703201253 METAR KBLI 201253Z AUTO VRB04KT 10SM FEW095 06/01 A2978=
200703201153 METAR KBLI 201153Z AUTO 00000KT 10SM BKN110 06/02 A2973=
200703201053 METAR KBLI 201053Z AUTO 20008KT 10SM SCT080 06/03 A2969 RMK AO2 SLP061 T00610028=
200703201010 SPECI KBLI 201010Z AUTO 20010G16KT 10SM SCT019 BKN030 OVC080 07/04 A2970 RMK AO2=
200703201010 SPECI KBLI 201010Z AUTO 20010G16KT 10SM SCT019 BKN030 OVC080 07/04 A2970 RMK AO2=
200703200953 METAR KBLI 200953Z AUTO 21009G15KT 10SM SCT017 BKN026 OVC031 07/06 A2970 RMK AO2 RAB17E52 SLP064 P0005 T00720056=
200703200853 METAR KBLI 200853Z AUTO 17016G20KT 10SM SCT017 BKN024 OVC030 08/05 A2966 RMK AO2 SLP050 60005 T00830050 58015=
200703200837 SPECI KBLI 200837Z AUTO 17014KT 10SM FEW018 BKN025 OVC040 08/06 A2967 RMK AO2=
200703200837 SPECI KBLI 200837Z AUTO 17014KT 10SM FEW018 BKN025 OVC040 08/06 A2967 RMK AO2=
200703200753 METAR KBLI 200753Z AUTO 17014G22KT 10SM FEW017 BKN041 OVC100 08/05 A2968 RMK AO2 SLP057 T00830050 401220083=
200703200653 METAR KBLI 200653Z 17016G22KT 10SM OVC029 08/05 A2969 RMK AO2 RAE43 SLP060 P0005 T00830050=
200703200553 METAR KBLI 200553Z 17014G20KT 10SM -RA BKN020 OVC026 09/06 A2970 RMK AO2 RAB18 SLP065 P0001 60003 T00890056 10100 20089 55000=
200703200453 METAR KBLI 200453Z 18014G21KT 10SM OVC028 09/06 A2970 RMK AO2 RAB12E35 SLP063 P0002 T00890061=
200703200413 SPECI KBLI 200413Z 18016G20KT 9SM -RA SCT023 BKN029 OVC036 09/06 A2970 RMK AO2 RAB12 P0000=
200703200413 SPECI KBLI 200413Z 18016G20KT 9SM -RA SCT023 BKN029 OVC036 09/06 A2970 RMK AO2 RAB12 P0000=
200703200353 METAR KBLI 200353Z 17018G23KT 10SM SCT030 BKN037 OVC060 10/06 A2969 RMK AO2 SLP061 T01000056=
200703200253 METAR KBLI 200253Z 16011KT 10SM OVC040 10/06 A2970 RMK AO2 SLP065 60000 T01000061 58004=
200703200214 SPECI KBLI 200214Z 17009KT 10SM SCT029 OVC034 10/06 A2971 RMK AO2=
200703200214 SPECI KBLI 200214Z 17009KT 10SM SCT029 OVC034 10/06 A2971 RMK AO2=
200703200153 METAR KBLI 200153Z 16013KT 10SM OVC027 10/07 A2971 RMK AO2 SLP066 T01000067=
200703200053 METAR KBLI 200053Z 17010KT 10SM OVC023 10/07 A2971 RMK AO2 RAE2358 SLP069 P0000 T01000067=
200703192353 METAR KBLI 192353Z 19006KT 10SM -RA OVC017 10/08 A2972 RMK AO2 RAE20B48 SLP069 P0001 60013 T01000078 10117 20094 58005=
200703192300 SPECI KBLI 192300Z 18010KT 10SM -RA FEW008 OVC016 10/08 A2972 RMK AO2 P0000=
200703192300 SPECI KBLI 192300Z 18010KT 10SM -RA FEW008 OVC016 10/08 A2972 RMK AO2 P0000=
200703192253 METAR KBLI 192253Z 19009KT 4SM -RA BR FEW008 OVC014 09/08 A2972 RMK AO2 SLP072 P0007 T00940083=
200703192233 SPECI KBLI 192233Z VRB05KT 4SM -RA BR FEW008 BKN014 OVC021 09/08 A2973 RMK AO2 P0006=
200703192233 SPECI KBLI 192233Z VRB05KT 4SM -RA BR FEW008 BKN014 OVC021 09/08 A2973 RMK AO2 P0006=
200703192215 SPECI KBLI 192215Z 18010KT 6SM -RA BR SCT016 BKN021 OVC048 10/08 A2973 RMK AO2 P0002=
200703192215 SPECI KBLI 192215Z 18010KT 6SM -RA BR SCT016 BKN021 OVC048 10/08 A2973 RMK AO2 P0002=
200703192153 METAR KBLI 192153Z 18011KT 5SM RA BR SCT038 OVC048 10/08 A2973 RMK AO2 RAB2055 SLP073 P0004 T01000083=
200703192053 METAR KBLI 192053Z 18014G20KT 10SM FEW028 OVC110 11/08 A2973 RMK AO2 RAE31 SLP074 P0000 60001 T01110078 50008=
200703192018 SPECI KBLI 192018Z 18014KT 10SM SCT021 SCT029 BKN036 11/08 A2973 RMK AO2 RAE10 P0000=
200703192018 SPECI KBLI 192018Z 18014KT 10SM SCT021 SCT029 BKN036 11/08 A2973 RMK AO2 RAE10 P0000=
200703191953 METAR KBLI 191953Z 18011G17KT 10SM -RA BKN021 BKN028 OVC036 11/08 A2974 RMK AO2 RAB1857 SLP077 P0001 T01060078=
200703191939 SPECI KBLI 191939Z 19013KT 10SM -RA BKN021 BKN028 OVC036 10/08 A2974 RMK AO2 RAB1857 P0001=
200703191939 SPECI KBLI 191939Z 19013KT 10SM -RA BKN021 BKN028 OVC036 10/08 A2974 RMK AO2 RAB1857 P0001=
200703191853 METAR KBLI 191853Z 18017G24KT 10SM BKN028 OVC060 11/07 A2973 RMK AO2 PK WND 18026/1831 SLP073 T01110072=
200703191809 SPECI KBLI 191809Z 18016G25KT 10SM BKN028 OVC040 11/07 A2971 RMK AO2=
200703191809 SPECI KBLI 191809Z 18016G25KT 10SM BKN028 OVC040 11/07 A2971 RMK AO2=
200703191753 METAR KBLI 191753Z 18020G26KT 10SM BKN030 BKN042 OVC090 12/07 A2971 RMK AO2 PK WND 19032/1723 SLP066 60000 T01170067 10117 20111 55000=
200703191653 METAR KBLI 191653Z 18017G26KT 10SM SCT025 BKN070 OVC085 12/07 A2970 RMK AO2 PK WND 17034/1623 SLP065 T01170067=
200703191553 METAR KBLI 191553Z 18015G21KT 10SM FEW028 OVC090 12/07 A2970 RMK AO2 PK WND 16027/1455 SLP065 T01170067=
200703191453 METAR KBLI 191453Z 16015G23KT 10SM FEW025 OVC080 12/07 A2971 RMK AO2 RAB34E43 SLP066 P0000 60000 T01170067 56016=
200703191353 METAR KBLI 191353Z 17016KT 10SM FEW029 BKN075 OVC090 12/07 A2972 RMK AO2 PK WND 16028/1316 SLP070 T01170067=
200703191253 METAR KBLI 191253Z AUTO 18013G19KT 10SM OVC100 11/07 A2974 RMK AO2 SLP077 T01110067=
200703191153 METAR KBLI 191153Z AUTO 17015KT 10SM FEW029 OVC095 12/07 A2975 RMK AO2 SLP082 70001 T01170072 10122 20094 56018=
200703191142 SPECI KBLI 191142Z AUTO 17012KT 10SM SCT029 OVC090 11/08 A2976 RMK AO2=
200703191142 SPECI KBLI 191142Z AUTO 17012KT 10SM SCT029 OVC090 11/08 A2976 RMK AO2=
200703191053 METAR KBLI 191053Z AUTO 17012G21KT 10SM BKN028 OVC034 12/07 A2976 RMK AO2 SLP086 T01220072=
200703191030 SPECI KBLI 191030Z AUTO 18010G16KT 10SM OVC028 12/07 A2977 RMK AO2=
200703191030 SPECI KBLI 191030Z AUTO 18010G16KT 10SM OVC028 12/07 A2977 RMK AO2=
200703190953 METAR KBLI 190953Z AUTO VRB03KT 10SM OVC032 11/07 A2978=
200703190853 METAR KBLI 190853Z AUTO VRB03KT 10SM BKN036 OVC049 11/08 A2981 RMK AO2 SLP100 T01110078 56011=
200703190753 METAR KBLI 190753Z AUTO VRB03KT 10SM OVC038 11/08 A2981 RMK AO2 SLP102 T01110083 401440089=
200703190653 METAR KBLI 190653Z 31003KT 10SM OVC042 10/08 A2982=
200703190553 METAR KBLI 190553Z 03005KT 10SM FEW039 10/08 A2984 RMK AO2 SLP111 T01000083 10144 20100 58019=
200703190453 METAR KBLI 190453Z 04007KT 10SM BKN047 OVC065 11/08 A2986 RMK AO2 SLP119 T01060083=
200703190353 METAR KBLI 190353Z 04005KT 10SM BKN040 BKN047 OVC070 11/09 A2989 RMK AO2 SLP127 T01110089=
200703190253 METAR KBLI 190253Z 04005KT 10SM BKN038 BKN047 OVC070 12/09 A2989 RMK AO2 SLP130 T01170089 56019=
200703190153 METAR KBLI 190153Z 00000KT 10SM SCT050 BKN065 12/09 A2991 RMK AO2 SLP135 T01220094=
200703190053 METAR KBLI 190053Z 19003KT 10SM SCT047 14/08 A2993 RMK AO2 SLP140 T01390083=
200703182353 METAR KBLI 182353Z 16004KT 10SM FEW065 14/08 A2995=
200703182253 METAR KBLI 182253Z 16006KT 10SM SCT060 13/08 A2997 RMK AO2 SLP156 T01280078=
200703182153 METAR KBLI 182153Z 16005KT 10SM OVC042 11/08 A2999 RMK AO2 SLP163 T01110083=
200703182125 SPECI KBLI 182125Z 20004KT 10SM SCT009 OVC042 11/09 A3000=
200703182115 SPECI KBLI 182115Z 23004KT 10SM SCT007 BKN029 OVC044 11/09 A3000 RMK AO2=
200703182115 SPECI KBLI 182115Z 23004KT 10SM SCT007 BKN029 OVC044 11/09 A3000 RMK AO2=
200703182103 SPECI KBLI 182103Z 20004KT 10SM SCT007 BKN031 OVC044 11/09 A3000 RMK AO2=
200703182103 SPECI KBLI 182103Z 20004KT 10SM SCT007 BKN031 OVC044 11/09 A3000 RMK AO2=
200703182053 METAR KBLI 182053Z VRB04KT 10SM BKN007 BKN017 OVC029 11/09 A3001 RMK AO2 SLP168 T01060089 58002=
200703182035 SPECI KBLI 182035Z 19006KT 10SM BKN007 BKN012 OVC025 11/09 A3001=
200703182021 SPECI KBLI 182021Z 20005KT 9SM FEW007 BKN014 OVC024 11/09 A3001 RMK AO2=
200703182021 SPECI KBLI 182021Z 20005KT 9SM FEW007 BKN014 OVC024 11/09 A3001 RMK AO2=
200703181953 METAR KBLI 181953Z 19005KT 10SM SCT009 OVC020 11/08 A3001 RMK AO2 SLP171 T01060083=
200703181853 METAR KBLI 181853Z 21005KT 10SM SCT005 OVC026 10/08 A3001 RMK AO2 SLP171 T01000083=
200703181753 METAR KBLI 181753Z 20006KT 10SM SCT004 BKN007 OVC023 09/09 A3001 RMK AO2 SLP171 60001 T00940089 10094 20089 51007=
200703181710 SPECI KBLI 181710Z 19007KT 9SM BKN009 BKN023 OVC050 09/08 A3001 RMK AO2=
200703181710 SPECI KBLI 181710Z 19007KT 9SM BKN009 BKN023 OVC050 09/08 A3001 RMK AO2=
200703181653 METAR KBLI 181653Z 19008KT 10SM SCT005 BKN017 OVC021 09/08 A3000 RMK AO2 SLP167 T00940083=
200703181553 METAR KBLI 181553Z 20008KT 10SM BKN017 OVC042 09/08 A2999 RMK AO2 RAE04 SLP164 P0000 T00890078=
200703181506 SPECI KBLI 181506Z 18006KT 10SM FEW008 BKN019 OVC035 09/08 A2999 RMK AO2 RAE04 P0000=
200703181453 METAR KBLI 181453Z 18008KT 8SM -RA FEW012 BKN017 OVC045 09/08 A2999 RMK AO2 RAB21 SLP162 P0000 60001 T00890078 55001=
200703181407 SPECI KBLI 181407Z 18008KT 10SM SCT015 BKN029 OVC041 09/08 A2999 RMK AO2=
200703181353 METAR KBLI 181353Z 17009KT 9SM SCT015 OVC030 09/08 A2999 RMK AO2 SLP161 T00890078=
200703181331 SPECI KBLI 181331Z AUTO 19007KT 10SM SCT024 BKN031 OVC043 09/08 A2998 RMK AO2=
200703181331 SPECI KBLI 181331Z AUTO 19007KT 10SM SCT024 BKN031 OVC043 09/08 A2998 RMK AO2=
200703181316 SPECI KBLI 181316Z AUTO 17007KT 9SM FEW015 BKN025 OVC030 09/08 A2998 RMK AO2=
200703181316 SPECI KBLI 181316Z AUTO 17007KT 9SM FEW015 BKN025 OVC030 09/08 A2998 RMK AO2=
200703181253 METAR KBLI 181253Z AUTO 18005KT 10SM FEW015 BKN033 OVC045 09/08 A2999 RMK AO2 RAE20 SLP161 P0001 T00890083=
200703181243 SPECI KBLI 181243Z AUTO 17006KT 10SM FEW013 SCT023 OVC045 09/08 A2998 RMK AO2 RAE20 P0001=
200703181243 SPECI KBLI 181243Z AUTO 17006KT 10SM FEW013 SCT023 OVC045 09/08 A2998 RMK AO2 RAE20 P0001=
200703181153 METAR KBLI 181153Z AUTO 18006KT 8SM -RA BKN024 OVC030 09/08 A2999=
200703181102 SPECI KBLI 181102Z AUTO 20006KT 3SM -RA BR FEW008 BKN024 OVC033 09/08 A2999 RMK AO2 P0001=
200703181102 SPECI KBLI 181102Z AUTO 20006KT 3SM -RA BR FEW008 BKN024 OVC033 09/08 A2999 RMK AO2 P0001=
200703181053 METAR KBLI 181053Z AUTO 20004KT 4SM -RA BR FEW010 OVC027 09/08 A2999 RMK AO2 SLP164 P0004 T00890083=
200703181006 SPECI KBLI 181006Z AUTO 20004KT 3SM -RA BR FEW016 SCT021 OVC026 09/08 A2999 RMK AO2 P0001=
200703180953 METAR KBLI 180953Z AUTO 19004KT 2 1/2SM -RA BR FEW014 OVC026 09/08 A3000 RMK AO2 SLP165 P0006 T00890083=
200703180853 METAR KBLI 180853Z AUTO 20004KT 4SM -RA BR FEW008 OVC020 09/08 A2999 RMK AO2 SLP164 P0001 60004 T00940083 51003=
200703180753 METAR KBLI 180753Z AUTO 18006KT 5SM -RA BR FEW006 SCT018 OVC022 09/09 A2999 RMK AO2 RAE21B51 SLP163 P0001 T00940089 401110056=
200703180741 SPECI KBLI 180741Z AUTO 18007KT 6SM BR SCT006 BKN018 OVC024 09/08 A2999 RMK AO2 RAE21 P0001=
200703180741 SPECI KBLI 180741Z AUTO 18007KT 6SM BR SCT006 BKN018 OVC024 09/08 A2999 RMK AO2 RAE21 P0001=
200703180653 METAR KBLI 180653Z AUTO 19006KT 5SM -RA BR FEW003 OVC008 09/08 A2999 RMK AO2 SLP164 P0002 T00890083=
200703180629 SPECI KBLI 180629Z AUTO VRB05KT 4SM -RA BR FEW003 OVC008 09/08 A2999 RMK AO2 P0001=
200703180629 SPECI KBLI 180629Z AUTO VRB05KT 4SM -RA BR FEW003 OVC008 09/08 A2999 RMK AO2 P0001=
200703180553 METAR KBLI 180553Z AUTO 22005KT 6SM -RA BR OVC010 09/09 A2998 RMK AO2 RAB27 SLP161 P0001 60023 T00940089 10111 20094 53009=
200703180500 SPECI KBLI 180500Z 18008KT 10SM OVC010 10/09 A2998 RMK AO2=
200703180500 SPECI KBLI 180500Z 18008KT 10SM OVC010 10/09 A2998 RMK AO2=
200703180453 METAR KBLI 180453Z 21005KT 10SM FEW010 BKN030 OVC070 10/09 A2998 RMK AO2 RAE53 SLP158 P0002 T01000089=
200703180400 SPECI KBLI 180400Z 18006KT 9SM -RA FEW010 BKN060 OVC070 10/09 A2996 RMK AO2 P0001=
200703180400 SPECI KBLI 180400Z 18006KT 9SM -RA FEW010 BKN060 OVC070 10/09 A2996 RMK AO2 P0001=
200703180353 METAR KBLI 180353Z 18006KT 10SM -RA BKN009 BKN036 OVC050 10/09 A2996 RMK AO2 SLP152 P0004 T01000089=
200703180301 SPECI KBLI 180301Z 19007KT 8SM -RA BKN009 BKN036 OVC050 10/09 A2995 RMK AO2 P0001=
200703180301 SPECI KBLI 180301Z 19007KT 8SM -RA BKN009 BKN036 OVC050 10/09 A2995 RMK AO2 P0001=
200703180253 METAR KBLI 180253Z 19007KT 10SM -RA BKN011 BKN036 OVC055 10/09 A2996 RMK AO2 CIG 004V014 SLP152 P0003 60016 T01000089 55003=
200703180220 SPECI KBLI 180220Z 18007KT 10SM -RA OVC013 11/09 A2996 RMK AO2 P0002=
200703180220 SPECI KBLI 180220Z 18007KT 10SM -RA OVC013 11/09 A2996 RMK AO2 P0002=
200703180153 METAR KBLI 180153Z 19006KT 4SM RA BR OVC015 11/09 A2995 RMK AO2 SLP151 P0005 T01060094=
200703180109 SPECI KBLI 180109Z 19004KT 10SM -RA BKN017 OVC060 11/09 A2994 RMK AO2 P0000=
200703180109 SPECI KBLI 180109Z 19004KT 10SM -RA BKN017 OVC060 11/09 A2994 RMK AO2 P0000=
200703180100 SPECI KBLI 180100Z 17006KT 10SM -RA SCT017 BKN032 OVC070 11/09 A2994 RMK AO2 P0000=
200703180100 SPECI KBLI 180100Z 17006KT 10SM -RA SCT017 BKN032 OVC070 11/09 A2994 RMK AO2 P0000=
200703180053 METAR KBLI 180053Z 16005KT 10SM -RA BKN029 OVC070 11/09 A2994 RMK AO2 SLP146 P0008 T01060094=
200703180027 SPECI KBLI 180027Z 15008KT 5SM -RA BR BKN033 BKN045 OVC060 10/09 A2994 RMK AO2 P0006=
200703180027 SPECI KBLI 180027Z 15008KT 5SM -RA BR BKN033 BKN045 OVC060 10/09 A2994 RMK AO2 P0006=
200703172353 METAR KBLI 172353Z 20006KT 4SM -RA BR BKN023 OVC030 10/09 A2997 RMK AO2 SLP155 P0014 60047 T01000089 10106 20089 56012=
200703172340 SPECI KBLI 172340Z 17010KT 4SM RA BR SCT020 BKN026 OVC060 10/09 A2996 RMK AO2 P0012=
200703172329 SPECI KBLI 172329Z VRB03KT 2 1/2SM RA BR SCT020 BKN027 OVC037 10/09 A2996 RMK AO2 P0009=
200703172329 SPECI KBLI 172329Z VRB03KT 2 1/2SM RA BR SCT020 BKN027 OVC037 10/09 A2996 RMK AO2 P0009=
200703172322 SPECI KBLI 172322Z 21003KT 3SM RA BR FEW020 BKN026 OVC050 10/09 A2997 RMK AO2 P0008=
200703172322 SPECI KBLI 172322Z 21003KT 3SM RA BR FEW020 BKN026 OVC050 10/09 A2997 RMK AO2 P0008=
200703172253 METAR KBLI 172253Z 24003KT 2 1/2SM RA BR BKN021 OVC050 11/09 A2997 RMK AO2 SLP158 P0006 T01060094=
200703172212 SPECI KBLI 172212Z 16008KT 4SM -RA BR BKN021 OVC050 10/09 A2997 RMK AO2 P0001=
200703172212 SPECI KBLI 172212Z 16008KT 4SM -RA BR BKN021 OVC050 10/09 A2997 RMK AO2 P0001=
200703172153 METAR KBLI 172153Z 19011KT 4SM -RA BR BKN021 BKN030 OVC055 10/09 A2998 RMK AO2 SLP159 P0012 T01000089=
200703172128 SPECI KBLI 172128Z 20008KT 4SM -RA BR BKN021 OVC055 10/09 A2999 RMK AO2 P0008=
200703172053 METAR KBLI 172053Z 18009KT 4SM -RA BR FEW019 OVC055 09/09 A3000 RMK AO2 SLP167 P0006 60015 T00940089 55007=
200703171953 METAR KBLI 171953Z 18009KT 5SM -RA BR FEW017 BKN037 OVC065 09/08 A3000 RMK AO2 SLP166 P0005 T00940083=
200703171935 SPECI KBLI 171935Z 19008KT 4SM -RA BR FEW009 SCT017 OVC035 09/08 A3000 RMK AO2 P0004=
200703171935 SPECI KBLI 171935Z 19008KT 4SM -RA BR FEW009 SCT017 OVC035 09/08 A3000 RMK AO2 P0004=
200703171900 SPECI KBLI 171900Z 19007KT 4SM -RA BR BKN033 OVC050 09/08 A3001 RMK AO2 P0001=
200703171900 SPECI KBLI 171900Z 19007KT 4SM -RA BR BKN033 OVC050 09/08 A3001 RMK AO2 P0001=
200703171853 METAR KBLI 171853Z 18008KT 4SM -RA BR BKN029 OVC050 09/08 A3001 RMK AO2 SLP169 P0004 T00890083=
200703171753 METAR KBLI 171753Z 18014KT 5SM -RA BR SCT046 OVC060 09/08 A3002 RMK AO2 SLP174 P0001 60013 T00940078 10094 20072 53005=
200703171653 METAR KBLI 171653Z 18007KT 4SM -RA BR BKN045 OVC055 09/08 A3001 RMK AO2 SLP172 P0005 T00890078=
200703171553 METAR KBLI 171553Z 18006KT 5SM -RA BR SCT040 OVC048 09/08 A3001 RMK AO2 SLP170 P0002 T00890078=
200703171453 METAR KBLI 171453Z 18006KT 4SM -RA BR FEW050 OVC060 08/07 A3001 RMK AO2 SLP169 P0005 60005 T00830072 57001=
200703171353 METAR KBLI 171353Z 21007KT 7SM -RA OVC050 08/07 A3001 RMK AO2 RAB20 SLP171 P0000 T00830072=
200703171253 METAR KBLI 171253Z AUTO 20009KT 6SM BR FEW002 OVC046 07/07 A3001 RMK AO2 SLP169 T00720067=
200703171234 SPECI KBLI 171234Z AUTO 19008KT 3SM BR SCT002 OVC046 07/07 A3000 RMK AO2=
200703171234 SPECI KBLI 171234Z AUTO 19008KT 3SM BR SCT002 OVC046 07/07 A3000 RMK AO2=
200703171227 SPECI KBLI 171227Z AUTO 18011KT 2 1/2SM BR BKN002 OVC046 07/07 A3000 RMK AO2=
200703171227 SPECI KBLI 171227Z AUTO 18011KT 2 1/2SM BR BKN002 OVC046 07/07 A3000 RMK AO2=
200703171218 SPECI KBLI 171218Z AUTO 18011KT 3SM BR SCT002 OVC046 07/07 A3001 RMK AO2=
200703171218 SPECI KBLI 171218Z AUTO 18011KT 3SM BR SCT002 OVC046 07/07 A3001 RMK AO2=
200703171209 SPECI KBLI 171209Z AUTO 19009KT 2 1/2SM BR BKN002 OVC044 07/07 A3001 RMK AO2=
200703171209 SPECI KBLI 171209Z AUTO 19009KT 2 1/2SM BR BKN002 OVC044 07/07 A3001 RMK AO2=
200703171153 METAR KBLI 171153Z AUTO 19007KT 1 1/2SM BR BKN002 OVC040 07/07 A3001 RMK AO2 RAE10 SLP170 P0000 60000 70009 T00720067 10072 20050 56012=
200703171148 SPECI KBLI 171148Z AUTO 19009KT 1 1/2SM BR BKN002 OVC040 07/07 A3001 RMK AO2 RAE10 P0000=
200703171148 SPECI KBLI 171148Z AUTO 19009KT 1 1/2SM BR BKN002 OVC040 07/07 A3001 RMK AO2 RAE10 P0000=
200703171144 SPECI KBLI 171144Z AUTO 19008KT 2SM BR SCT002 OVC040 07/07 A3001 RMK AO2 RAE10 P0000=
200703171144 SPECI KBLI 171144Z AUTO 19008KT 2SM BR SCT002 OVC040 07/07 A3001 RMK AO2 RAE10 P0000=
200703171114 SPECI KBLI 171114Z AUTO 16004KT 1SM BR FEW002 OVC042 07/07 A3001 RMK AO2 RAE10 P0000=
200703171114 SPECI KBLI 171114Z AUTO 16004KT 1SM BR FEW002 OVC042 07/07 A3001 RMK AO2 RAE10 P0000=
200703171053 METAR KBLI 171053Z AUTO 18006KT 1/2SM -RA FG SCT002 OVC040 07/06 A3002 RMK AO2 RAB38 SLP172 P0000 T00670061=
200703171038 SPECI KBLI 171038Z AUTO 17007KT 3/4SM -RA BR FEW002 SCT009 BKN042 07/06 A3002 RMK AO2 RAB38 P0000=
200703171038 SPECI KBLI 171038Z AUTO 17007KT 3/4SM -RA BR FEW002 SCT009 BKN042 07/06 A3002 RMK AO2 RAB38 P0000=
200703171034 SPECI KBLI 171034Z AUTO 17007KT 2 1/2SM BR FEW002 SCT023 BKN042 07/06 A3002 RMK AO2=
200703171034 SPECI KBLI 171034Z AUTO 17007KT 2 1/2SM BR FEW002 SCT023 BKN042 07/06 A3002 RMK AO2=
200703170953 METAR KBLI 170953Z AUTO 18005KT 5SM BR FEW042 06/05 A3003 RMK AO2 SLP177 T00610050=
200703170853 METAR KBLI 170853Z AUTO 19004KT 7SM OVC090 06/05 A3004 RMK AO2 SLP182 T00610050 51007=
200703170753 METAR KBLI 170753Z AUTO 21004KT 4SM BR OVC090 05/04 A3004 RMK AO2 SLP181 T00500044 401060028=
200703170653 METAR KBLI 170653Z AUTO 00000KT 5SM BR BKN090 05/04 A3003=
200703170553 METAR KBLI 170553Z AUTO 36003KT 9SM CLR 06/05 A3002 RMK AO2 SLP176 T00610050 10100 20056 55006=
200703170453 METAR KBLI 170453Z 01005KT 10SM CLR 07/06 A3002 RMK AO2 SLP176 T00670056=
200703170353 METAR KBLI 170353Z 04005KT 10SM BKN046 07/06 A3003 RMK AO2 SLP178 T00720056=
200703170253 METAR KBLI 170253Z 03006KT 10SM OVC044 08/06 A3004 RMK AO2 SLP182 T00780056 56020=
200703170153 METAR KBLI 170153Z 03006KT 10SM FEW044 08/06 A3006 RMK AO2 SLP187 T00780061=
200703170053 METAR KBLI 170053Z 03007KT 10SM SCT070 BKN110 09/07 A3008 RMK AO2 SLP192 T00940067=
200703162353 METAR KBLI 162353Z 03008KT 10SM BKN065 BKN100 10/07 A3010 RMK AO2 SLP201 T01000072 10106 20050 58010=
200703162253 METAR KBLI 162253Z 05007KT 10SM FEW045 BKN090 09/07 A3012 RMK AO2 SLP206 T00940072=
200703162153 METAR KBLI 162153Z 05007KT 10SM BKN055 BKN100 09/07 A3013 RMK AO2 SLP209 T00890072=
200703162053 METAR KBLI 162053Z 04006KT 10SM FEW100 08/07 A3013 RMK AO2 SLP211 T00830067 55008=
200703161953 METAR KBLI 161953Z 05007KT 10SM FEW043 08/06 A3013 RMK AO2 SLP209 T00830061=
200703161853 METAR KBLI 161853Z 04005KT 10SM OVC041 07/06 A3014 RMK AO2 SLP217 T00670056=
200703161753 METAR KBLI 161753Z 04005KT 10SM SCT002 OVC043 05/04 A3016 RMK AO2 SLP220 60009 T00500039 10050 20028 50004=
200703161653 METAR KBLI 161653Z 02007KT 8SM BKN002 OVC043 04/03 A3016 RMK AO2 SLP222 T00390033=
200703161553 METAR KBLI 161553Z 02006KT 5SM BR FEW002 OVC037 04/03 A3014 RMK AO2 RAB1454E24 SLP215 P0001 T00390033=
200703161453 METAR KBLI 161453Z 04007KT 6SM BR SCT002 OVC033 03/03 A3014 RMK AO2 RAE41 SLP217 P0004 60008 T00330028 53001=
200703161431 SPECI KBLI 161431Z 03006KT 4SM -RA BR FEW002 OVC033 03/03 A3014 RMK AO2 P0004=
200703161431 SPECI KBLI 161431Z 03006KT 4SM -RA BR FEW002 OVC033 03/03 A3014 RMK AO2 P0004=
200703161353 METAR KBLI 161353Z 01005KT 4SM -RA BR OVC033 03/03 A3014 RMK AO2 SLP217 P0001 T00330028=
200703161319 SPECI KBLI 161319Z AUTO 03005KT 7SM -RA SCT003 OVC035 03/02 A3013 RMK AO2 P0000=
200703161319 SPECI KBLI 161319Z AUTO 03005KT 7SM -RA SCT003 OVC035 03/02 A3013 RMK AO2 P0000=
200703161253 METAR KBLI 161253Z AUTO 03006KT 4SM -RA BR OVC003 03/02 A3014 RMK AO2 SLP214 P0003 T00280022=
200703161153 METAR KBLI 161153Z AUTO 03005KT 5SM -RA BR BKN003 OVC033 03/02 A3014 RMK AO2 SLP216 P0005 60013 70026 T00280022 10033 20028 58007=
200703161149 SPECI KBLI 161149Z AUTO 02006KT 5SM -RA BR BKN003 OVC033 03/02 A3015 RMK AO2 P0004=
200703161149 SPECI KBLI 161149Z AUTO 02006KT 5SM -RA BR BKN003 OVC033 03/02 A3015 RMK AO2 P0004=
200703161117 SPECI KBLI 161117Z AUTO 02006KT 5SM -RA BR FEW003 OVC039 03/02 A3015 RMK AO2 P0001=
200703161117 SPECI KBLI 161117Z AUTO 02006KT 5SM -RA BR FEW003 OVC039 03/02 A3015 RMK AO2 P0001=
200703161053 METAR KBLI 161053Z AUTO 01006KT 6SM -RA BR OVC039 03/02 A3016 RMK AO2 SLP221 P0001 T00330022=
200703160953 METAR KBLI 160953Z AUTO 03005KT 5SM -RA BR BKN040 OVC047 03/02 A3016 RMK AO2 RAE0859B20 SLP223 P0002 T00330022=
200703160853 METAR KBLI 160853Z AUTO 04007KT 10SM -RA SCT038 OVC050 03/02 A3017 RMK AO2 SLP224 P0001 60005 T00330022 58022=
200703160753 METAR KBLI 160753Z AUTO 03007KT 10SM -RA SCT036 OVC050 03/02 A3020 RMK AO2 SLP236 P0001 T00330022 400831006=
200703160653 METAR KBLI 160653Z AUTO 04008KT 9SM -RA OVC040 03/02 A3022 RMK AO2 SLP242 P0003 T00330022=
200703160553 METAR KBLI 160553Z AUTO 04009KT 8SM -RA BKN033 OVC041 04/02 A3023 RMK AO2 SLP247 P0002 60013 T00390022 10083 20039 56015=
200703160505 SPECI KBLI 160505Z 04008KT 9SM -RA BKN030 OVC044 04/03 A3024 RMK AO2 P0000=
200703160505 SPECI KBLI 160505Z 04008KT 9SM -RA BKN030 OVC044 04/03 A3024 RMK AO2 P0000=
200703160453 METAR KBLI 160453Z 04007KT 9SM -RA BKN028 BKN037 OVC045 04/03 A3025 RMK AO2 SLP252 P0005 T00390028=
200703160353 METAR KBLI 160353Z 05004KT 10SM -RA OVC026 04/03 A3026 RMK AO2 SLP254 P0004 T00440028=
200703160313 SPECI KBLI 160313Z 04004KT 8SM -RA OVC028 05/03 A3027 RMK AO2 P0001=
200703160313 SPECI KBLI 160313Z 04004KT 8SM -RA OVC028 05/03 A3027 RMK AO2 P0001=
200703160300 SPECI KBLI 160300Z 07004KT 9SM -RA OVC030 06/03 A3028 RMK AO2 P0000=
200703160300 SPECI KBLI 160300Z 07004KT 9SM -RA OVC030 06/03 A3028 RMK AO2 P0000=
200703160253 METAR KBLI 160253Z 07003KT 10SM -RA BKN027 OVC042 06/03 A3028 RMK AO2 SLP262 P0002 60002 T00560028 57005=
200703160212 SPECI KBLI 160212Z 11006KT 10SM -RA BKN027 OVC042 07/01 A3029 RMK AO2 P0000=
200703160212 SPECI KBLI 160212Z 11006KT 10SM -RA BKN027 OVC042 07/01 A3029 RMK AO2 P0000=
200703160153 METAR KBLI 160153Z 11004KT 10SM -RA SCT029 BKN042 OVC049 07/M01 A3029 RMK AO2 RAB33 SLP265 P0000 T00721011=
200703160053 METAR KBLI 160053Z 04005KT 10SM OVC049 08/M03 A3028 RMK AO2 SLP263 T00781028=
200703152353 METAR KBLI 152353Z 04005KT 10SM BKN049 08/M03 A3029 RMK AO2 SLP266 T00831028 10083 20039 56021=
200703152253 METAR KBLI 152253Z 04005KT 10SM OVC075 08/M03 A3031 RMK AO2 SLP274 T00831028=
200703152153 METAR KBLI 152153Z 03003KT 10SM BKN090 08/M03 A3032 RMK AO2 SLP277 T00781028=
200703152053 METAR KBLI 152053Z 02004KT 10SM FEW090 08/M01 A3035 RMK AO2 SLP287 T00831011 58010=
200703151953 METAR KBLI 151953Z VRB03KT 10SM CLR 07/M01 A3037 RMK AO2 SLP292 T00721006=
200703151853 METAR KBLI 151853Z 00000KT 10SM OVC100 06/M01 A3038 RMK AO2 SLP296 T00561006=
200703151753 METAR KBLI 151753Z 06004KT 10SM OVC095 04/M01 A3038 RMK AO2 SLP298 T00391006 10044 21006 51007=
200703151653 METAR KBLI 151653Z 02003KT 10SM SCT110 03/M01 A3038 RMK AO2 SLP298 T00331011=
200703151553 METAR KBLI 151553Z 02003KT 10SM CLR 01/M02 A3039 RMK AO2 SLP299 T00111017=
200703151453 METAR KBLI 151453Z 02003KT 10SM CLR 00/M02 A3036 RMK AO2 SLP291 T00001022 58010=
200703151353 METAR KBLI 151353Z 36003KT 10SM CLR 00/M02 A3039 RMK AO2 SLP301 T00001022=
200703151253 METAR KBLI 151253Z AUTO 00000KT 10SM CLR 00/M02 A3038 RMK AO2 SLP297 T00001022=
200703151153 METAR KBLI 151153Z AUTO 02004KT 10SM CLR M01/M02 A3039 RMK AO2 SLP302 T10061022 10039 21006 58006=
200703151053 METAR KBLI 151053Z AUTO 00000KT 10SM CLR 00/M02 A3040 RMK AO2 SLP303 T00001022=
200703150953 METAR KBLI 150953Z AUTO 36003KT 10SM SCT070 01/M02 A3041 RMK AO2 SLP308 T00061017=
200703150853 METAR KBLI 150853Z AUTO 12005KT 10SM OVC070 03/M01 A3041 RMK AO2 SLP308 T00331006 53003=
200703150753 METAR KBLI 150753Z AUTO 00000KT 10SM OVC070 04/M01 A3040 RMK AO2 SLP305 T00391006 400940028=
200703150653 METAR KBLI 150653Z AUTO 14004KT 10SM OVC070 03/M01 A3040 RMK AO2 SLP302 T00331011=
200703150553 METAR KBLI 150553Z AUTO 15006KT 10SM CLR 03/M02 A3040 RMK AO2 SLP305 T00281017 10089 20028 53006=
200703150453 METAR KBLI 150453Z 00000KT 10SM CLR 03/M02 A3040 RMK AO2 SLP303 T00331022=
200703150353 METAR KBLI 150353Z 17004KT 10SM CLR 04/M01 A3039 RMK AO2 SLP300 T00391006=
200703150253 METAR KBLI 150253Z 19004KT 10SM CLR 04/M02 A3039 RMK AO2 SLP299 T00441017 55001=
200703150153 METAR KBLI 150153Z 19004KT 10SM CLR 06/M02 A3038=
200703150053 METAR KBLI 150053Z 00000KT 10SM CLR 08/M03 A3039 RMK AO2 SLP298 T00781028=
200703142353 METAR KBLI 142353Z VRB04KT 10SM CLR 08/M03 A3039 RMK AO2 SLP300 T00831033 10094 20056 53003=
200703142253 METAR KBLI 142253Z 32007KT 10SM CLR 08/M03 A3039 RMK AO2 SLP298 T00831033=
200703142153 METAR KBLI 142153Z VRB05KT 10SM SCT048 08/M03 A3038 RMK AO2 SLP296 T00831033=
200703142053 METAR KBLI 142053Z VRB03KT 10SM FEW046 07/M04 A3038 RMK AO2 SLP297 T00721039 51011=
200703141953 METAR KBLI 141953Z VRB05KT 10SM SCT035 07/M03 A3038 RMK AO2 SLP295 T00721033=
200703141853 METAR KBLI 141853Z 23005KT 10SM SCT038 SCT048 06/M03 A3037 RMK AO2 SLP291 T00611028=
200703141753 METAR KBLI 141753Z 23006KT 10SM SCT036 BKN055 06/M02 A3035 RMK AO2 SLP287 T00611017 10061 20033 53037=
200703141653 METAR KBLI 141653Z 27004KT 10SM FEW050 05/M02 A3031 RMK AO2 SLP274 T00501022=
200703141553 METAR KBLI 141553Z 00000KT 10SM CLR 05/M01 A3028 RMK AO2 SLP262 T00501011=
200703141453 METAR KBLI 141453Z 00000KT 10SM CLR 04/M02 A3024 RMK AO2 SLP249 T00391022 53028=
200703141353 METAR KBLI 141353Z VRB04KT 10SM CLR 04/M02 A3021 RMK AO2 SLP240 T00391017=
200703141253 METAR KBLI 141253Z AUTO VRB03KT 10SM CLR 04/M01 A3018 RMK AO2 SLP228 T00391006=
200703141153 METAR KBLI 141153Z AUTO VRB04KT 10SM SCT100 04/00 A3016 RMK AO2 SLP221 60000 70019 T00390000 10056 20039 51016=
200703141053 METAR KBLI 141053Z AUTO 23007KT 190V270 10SM SCT075 05/01 A3014 RMK AO2 SLP217 T00500006=
200703140953 METAR KBLI 140953Z AUTO 25007KT 10SM FEW065 BKN080 05/01 A3013 RMK AO2 SLP211 T00500011=
200703140853 METAR KBLI 140853Z AUTO VRB05KT 10SM FEW075 OVC090 06/01 A3011 RMK AO2 SLP204 60000 T00560011 53004=
200703140753 METAR KBLI 140753Z AUTO 21009G15KT 10SM SCT080 05/02 A3010 RMK AO2 RAB0654E11 SLP200 P0000 T00500022 400780028=
200703140653 METAR KBLI 140653Z AUTO 21008KT 10SM BKN050 OVC060 06/03 A3010 RMK AO2 RAE0558 SLP200 P0000 T00560028=
200703140553 METAR KBLI 140553Z AUTO 20007KT 10SM -RA SCT038 BKN060 OVC100 05/03 A3010 RMK AO2 RAE15B33 SLP201 P0001 60010 T00500033 10072 20050 58002=
200703140505 SPECI KBLI 140505Z 19007KT 9SM -RA FEW016 BKN036 OVC070 05/03 A3010 RMK AO2 P0001=
200703140505 SPECI KBLI 140505Z 19007KT 9SM -RA FEW016 BKN036 OVC070 05/03 A3010 RMK AO2 P0001=
200703140453 METAR KBLI 140453Z 19005KT 10SM -RA FEW018 BKN027 OVC042 05/03 A3010 RMK AO2 RAE17B51 SLP202 P0001 T00500033=
200703140353 METAR KBLI 140353Z 00000KT 6SM -RA BR OVC023 05/03 A3010 RMK AO2 SLP202 P0005 T00500033=
200703140350 SPECI KBLI 140350Z 00000KT 6SM -RA BR OVC023 05/03 A3010 RMK AO2 P0005=
200703140350 SPECI KBLI 140350Z 00000KT 6SM -RA BR OVC023 05/03 A3010 RMK AO2 P0005=
200703140253 METAR KBLI 140253Z 20004KT 10SM -RA BKN035 OVC049 06/03 A3010 RMK AO2 RAB36 SLP203 P0001 60003 T00560028 56013=
200703140153 METAR KBLI 140153Z 18004KT 10SM SCT027 BKN037 OVC060 06/02 A3011 RMK AO2 RAE49 SLP206 P0002 T00560022=
200703140128 SPECI KBLI 140128Z VRB05KT 8SM -RA BKN029 BKN040 OVC048 06/03 A3013 RMK AO2 P0002=
200703140128 SPECI KBLI 140128Z VRB05KT 8SM -RA BKN029 BKN040 OVC048 06/03 A3013 RMK AO2 P0002=
200703140053 METAR KBLI 140053Z VRB04KT 10SM -RA SCT043 BKN050 OVC060 07/02 A3013 RMK AO2 RAB49 SLP210 P0000 T00670022=
200703132353 METAR KBLI 132353Z 19006KT 10SM FEW060 BKN090 07/03 A3014 RMK AO2 RAE12 SLP216 P0000 60009 T00670028 10078 20050 56004=
200703132312 SPECI KBLI 132312Z 20007KT 10SM SCT035 BKN046 OVC060 06/04 A3015 RMK AO2 RAE12 P0000=
200703132312 SPECI KBLI 132312Z 20007KT 10SM SCT035 BKN046 OVC060 06/04 A3015 RMK AO2 RAE12 P0000=
200703132253 METAR KBLI 132253Z VRB06KT 9SM -RA BKN024 BKN034 OVC047 06/03 A3016 RMK AO2 RAB02 SLP221 P0009 T00560033=
200703132228 SPECI KBLI 132228Z 18011G18KT 4SM RA BKN026 OVC035 06/02 A3016 RMK AO2 RAB02 P0002=
200703132228 SPECI KBLI 132228Z 18011G18KT 4SM RA BKN026 OVC035 06/02 A3016 RMK AO2 RAB02 P0002=
200703132153 METAR KBLI 132153Z 19012G20KT 10SM FEW037 OVC050 08/01 A3014 RMK AO2 SLP213 T00780011=
200703132053 METAR KBLI 132053Z 18014G20KT 10SM FEW034 OVC065 07/01 A3015 RMK AO2 SLP219 T00720011 55007=
200703131953 METAR KBLI 131953Z 18016KT 10SM OVC065 07/01 A3015 RMK AO2 SLP218 T00720006=
200703131853 METAR KBLI 131853Z 17017KT 10SM OVC065 07/01 A3016 RMK AO2 SLP223 T00670006=
200703131753 METAR KBLI 131753Z 17014G18KT 10SM FEW023 OVC060 06/01 A3017 RMK AO2 SLP226 60000 T00610011 10061 20028 58000=
200703131653 METAR KBLI 131653Z 17010KT 10SM FEW035 OVC049 05/01 A3018 RMK AO2 SLP229 T00500006=
200703131553 METAR KBLI 131553Z 14010KT 10SM FEW030 SCT046 OVC100 03/01 A3017 RMK AO2 RAB26E40 SLP227 P0000 T00330011=
200703131551 SPECI KBLI 131551Z 14010KT 10SM FEW025 SCT046 OVC100 04/02 A3017 RMK AO2 RAB26E40 P0000=
200703131551 SPECI KBLI 131551Z 14010KT 10SM FEW025 SCT046 OVC100 04/02 A3017 RMK AO2 RAB26E40 P0000=
200703131505 SPECI KBLI 131505Z 18008KT 10SM SCT020 BKN027 OVC100 04/01 A3018 RMK AO2=
200703131505 SPECI KBLI 131505Z 18008KT 10SM SCT020 BKN027 OVC100 04/01 A3018 RMK AO2=
200703131453 METAR KBLI 131453Z 18010KT 10SM SCT020 SCT027 BKN100 04/01 A3018 RMK AO2 SLP226 60000 T00440011 58002=
200703131353 METAR KBLI 131353Z 20004KT 10SM FEW050 SCT060 OVC075 04/00 A3018 RMK AO2 SLP229 T00440000=
200703131253 METAR KBLI 131253Z AUTO 19005KT 10SM FEW028 OVC060 04/01 A3018 RMK AO2 RAB07E44 SLP230 P0000 T00440006=
200703131241 SPECI KBLI 131241Z AUTO 19005KT 10SM -RA SCT030 BKN055 OVC080 04/01 A3018 RMK AO2 RAB07 P0000=
200703131241 SPECI KBLI 131241Z AUTO 19005KT 10SM -RA SCT030 BKN055 OVC080 04/01 A3018 RMK AO2 RAB07 P0000=
200703131233 SPECI KBLI 131233Z AUTO 19006KT 10SM -RA BKN028 BKN034 OVC055 05/01 A3018 RMK AO2 RAB07 P0000=
200703131233 SPECI KBLI 131233Z AUTO 19006KT 10SM -RA BKN028 BKN034 OVC055 05/01 A3018 RMK AO2 RAB07 P0000=
200703131153 METAR KBLI 131153Z AUTO 13005KT 10SM BKN037 OVC055 04/01 A3018 RMK AO2 RAE30 SLP229 P0001 60001 70001 T00440011 10061 20039 50000=
200703131053 METAR KBLI 131053Z AUTO VRB04KT 10SM -RA FEW023 BKN039 OVC060 05/M01 A3019 RMK AO2 RAB44 SLP231 P0000 T00501006=
200703130953 METAR KBLI 130953Z AUTO 19003KT 10SM FEW041 BKN060 OVC080 06/M01 A3019=
200703130853 METAR KBLI 130853Z AUTO 31005KT 10SM BKN090 05/M01 A3018 RMK AO2 SLP228 T00501011 51002=
200703130753 METAR KBLI 130753Z 19004KT 10SM SCT075 BKN090 OVC110 06/M02 A3018 RMK AO2 SLP228 T00561017 401110056=
200703130653 METAR KBLI 130653Z VRB04KT 10SM SCT080 BKN110 06/M02 A3018 RMK AO2 SLP227 T00611022=
200703130553 METAR KBLI 130553Z 22003KT 10SM OVC080 06/M03 A3018=
200703130453 METAR KBLI 130453Z VRB05KT 10SM OVC080 07/M03 A3017 RMK AO2 SLP226 T00671033=
200703130353 METAR KBLI 130353Z VRB04KT 10SM OVC080 07/M04 A3016 RMK AO2 SLP222 T00721039=
200703130253 METAR KBLI 130253Z VRB03KT 10SM OVC075 07/M03 A3015 RMK AO2 SLP219 T00721033 56005=
200703130153 METAR KBLI 130153Z 18007KT 10SM OVC075 08/00 A3016 RMK AO2 SLP220 T00780000=
200703130053 METAR KBLI 130053Z 19006KT 10SM OVC070 08/01 A3016 RMK AO2 SLP221 T00830011=
200703122353 METAR KBLI 122353Z 18006KT 10SM OVC070 08/M01 A3017 RMK AO2 SLP224 T00831011 10089 20078 58007=
200703122253 METAR KBLI 122253Z VRB04KT 10SM FEW055 BKN075 09/M02 A3018 RMK AO2 SLP227 T00891017=
200703122153 METAR KBLI 122153Z 21007KT 10SM FEW035 OVC070 09/M02 A3019 RMK AO2 SLP229 T00891022=
200703122053 METAR KBLI 122053Z 23007KT 180V260 10SM OVC070 08/M02 A3019 RMK AO2 SLP231 T00831017 50007=
200703121953 METAR KBLI 121953Z VRB06KT 10SM OVC075 08/M01 A3019 RMK AO2 SLP232 T00831011=
200703121853 METAR KBLI 121853Z 21009KT 10SM SCT037 BKN070 08/00 A3018 RMK AO2 SLP228 T00830000=
200703121753 METAR KBLI 121753Z 25009KT 210V280 10SM FEW050 BKN070 08/00 A3017 RMK AO2 SLP223 T00780000 10106 20078 51041=
200703121653 METAR KBLI 121653Z VRB06KT 10SM FEW050 BKN070 08/00 A3013 RMK AO2 SLP210 T00830000=
200703121553 METAR KBLI 121553Z VRB04KT 10SM FEW070 09/01 A3009 RMK AO2 SLP195 T00890006=
200703121453 METAR KBLI 121453Z 19005KT 10SM SCT050 09/03 A3005 RMK AO2 SLP181 T00890028 51036=
200703121353 METAR KBLI 121353Z AUTO 19006KT 10SM CLR 09/04 A3001 RMK AO2 SLP171 T00940039=
200703121253 METAR KBLI 121253Z AUTO 29004KT 10SM FEW036 11/06 A2998 RMK AO2 SLP160 T01060056=
200703121153 METAR KBLI 121153Z AUTO 18012G17KT 10SM SCT029 BKN037 OVC044 11/09 A2994 RMK AO2 SLP145 60001 70125 T01060089 10111 20106 53008=
200703121145 SPECI KBLI 121145Z AUTO 18011KT 10SM FEW024 BKN031 OVC040 11/09 A2993 RMK AO2=
200703121120 SPECI KBLI 121120Z AUTO 20010G20KT 180V240 10SM BKN026 OVC034 11/09 A2992 RMK AO2=
200703121120 SPECI KBLI 121120Z AUTO 20010G20KT 180V240 10SM BKN026 OVC034 11/09 A2992 RMK AO2=
200703121053 METAR KBLI 121053Z AUTO 19012KT 10SM SCT029 BKN033 OVC065 11/09 A2991 RMK AO2 SLP136 T01110089=
200703120953 METAR KBLI 120953Z AUTO 18012KT 10SM FEW029 BKN041 OVC050 11/09 A2991 RMK AO2 SLP137 T01060094=
200703120948 SPECI KBLI 120948Z AUTO 18013KT 10SM FEW019 BKN041 OVC050 11/09 A2992 RMK AO2=
200703120948 SPECI KBLI 120948Z AUTO 18013KT 10SM FEW019 BKN041 OVC050 11/09 A2992 RMK AO2=
200703120932 SPECI KBLI 120932Z AUTO 18012KT 10SM SCT013 BKN020 OVC044 11/09 A2992 RMK AO2=
200703120932 SPECI KBLI 120932Z AUTO 18012KT 10SM SCT013 BKN020 OVC044 11/09 A2992 RMK AO2=
200703120902 SPECI KBLI 120902Z AUTO 19011KT 10SM OVC011 11/09 A2992 RMK AO2 CIG 008V015=
200703120902 SPECI KBLI 120902Z AUTO 19011KT 10SM OVC011 11/09 A2992 RMK AO2 CIG 008V015=
200703120853 METAR KBLI 120853Z AUTO 18011KT 10SM OVC009 11/09 A2991 RMK AO2 SLP135 60001 T01060094 53008=
200703120753 METAR KBLI 120753Z AUTO 19010KT 10SM OVC009 11/09 A2990 RMK AO2 SLP131 T01060094 401560106=
200703120700 SPECI KBLI 120700Z 18011KT 10SM OVC009 11/09 A2990 RMK AO2 CIG 007V012=
200703120700 SPECI KBLI 120700Z 18011KT 10SM OVC009 11/09 A2990 RMK AO2 CIG 007V012=
200703120653 METAR KBLI 120653Z 18010KT 10SM OVC011 11/09 A2989 RMK AO2 RAE18 CIG 007V014 SLP130 P0001 T01060094=
200703120625 SPECI KBLI 120625Z 18014KT 10SM OVC013 11/09 A2988 RMK AO2 RAE18 P0001=
200703120625 SPECI KBLI 120625Z 18014KT 10SM OVC013 11/09 A2988 RMK AO2 RAE18 P0001=
200703120553 METAR KBLI 120553Z 19013KT 10SM -RA OVC015 11/09 A2989 RMK AO2 SLP127 P0005 60075 T01060094 10156 20106 51013=
200703120533 SPECI KBLI 120533Z 18012G18KT 8SM -RA OVC013 11/10 A2989 RMK AO2 P0004=
200703120533 SPECI KBLI 120533Z 18012G18KT 8SM -RA OVC013 11/10 A2989 RMK AO2 P0004=
200703120453 METAR KBLI 120453Z 19008KT 6SM -RA BR BKN007 OVC016 11/11 A2987 RMK AO2 SLP122 P0023 T01110106=
200703120408 SPECI KBLI 120408Z 17013KT 4SM +RA BR BKN009 OVC017 12/11 A2987 RMK AO2 P0009=
200703120353 METAR KBLI 120353Z 18010KT 4SM +RA BR FEW010 BKN015 OVC020 12/11 A2987 RMK AO2 SLP121 P0017 T01170106=
200703120253 METAR KBLI 120253Z 18013KT 5SM -RA BR BKN024 OVC029 12/10 A2985 RMK AO2 SLP114 P0017 60030 T01170100 53010=
200703120153 METAR KBLI 120153Z 19009KT 5SM RA BR OVC028 13/11 A2984 RMK AO2 PK WND 18026/0058 SLP113 P0013 T01280106=
200703120132 SPECI KBLI 120132Z 20007KT 4SM RA BKN028 OVC037 13/11 A2986 RMK AO2 PK WND 18026/0058 P0006=
200703120132 SPECI KBLI 120132Z 20007KT 4SM RA BKN028 OVC037 13/11 A2986 RMK AO2 PK WND 18026/0058 P0006=
200703120053 METAR KBLI 120053Z 18020G27KT 10SM -RA SCT027 OVC075 15/10 A2981 RMK AO2 PK WND 18032/0035 RAB27 SLP102 P0000 T01500100=
200703120001 SPECI KBLI 120001Z 19021G29KT 10SM SCT027 OVC075 15/11 A2981 RMK AO2 PK WND 19029/2354=
200703120001 SPECI KBLI 120001Z 19021G29KT 10SM SCT027 OVC075 15/11 A2981 RMK AO2 PK WND 19029/2354=
200703112353 METAR KBLI 112353Z 18021G31KT 10SM BKN027 OVC075 16/11 A2982 RMK AO2 PK WND 18035/2321 RAE27 SLP103 P0001 60009 T01560106 10156 20122 58012=
200703112253 METAR KBLI 112253Z 17023G34KT 10SM -RA SCT028 BKN049 OVC070 14/10 A2984 RMK AO2 PK WND 18034/2246 RAE01B38 SLP111 P0000 T01440100=
200703112153 METAR KBLI 112153Z 18022G34KT 10SM -RA BKN024 OVC030 15/11 A2983 RMK AO2 PK WND 18035/2129 RAE04B51 SLP108 P0000 T01500106=
200703112053 METAR KBLI 112053Z 18024G31KT 10SM -RA OVC020 14/11 A2985 RMK AO2 PK WND 18035/2038 SLP115 P0005 60008 T01440111 58012=
200703111953 METAR KBLI 111953Z 19016G24KT 6SM RA BR OVC018 13/11 A2989 RMK AO2 PK WND 18028/1925 SLP130 P0003 T01330111=
200703111853 METAR KBLI 111853Z 18020G27KT 10SM -RA OVC018 14/11 A2988 RMK AO2 PK WND 18027/1851 SLP125 P0000 T01390111=
200703111753 METAR KBLI 111753Z 19012G18KT 8SM -RA OVC018 12/11 A2989 RMK AO2 SLP127 P0008 60040 T01220106 10133 20106 56007=
200703111653 METAR KBLI 111653Z 18015G22KT 4SM -RA BR OVC018 12/11 A2989=
200703111553 METAR KBLI 111553Z 18020G28KT 10SM -RA OVC018 13/10 A2990 RMK AO2 PK WND 19028/1547 RAE1457B15 SLP133 P0000 T01330100=
200703111453 METAR KBLI 111453Z 16013G17KT 10SM -RA OVC020 13/10 A2991 RMK AO2 SLP135 P0005 60021 T01280100 58010=
200703111353 METAR KBLI 111353Z 16011G20KT 6SM RA BR BKN022 BKN027 OVC032 12/09 A2994 RMK AO2 SLP145 P0009 T01170094=
200703111350 SPECI KBLI 111350Z 16011G20KT 6SM RA BR BKN022 BKN029 OVC035 12/09 A2994 RMK AO2 P0009=
200703111350 SPECI KBLI 111350Z 16011G20KT 6SM RA BR BKN022 BKN029 OVC035 12/09 A2994 RMK AO2 P0009=
200703111253 METAR KBLI 111253Z AUTO 16013G20KT 7SM -RA FEW024 BKN031 OVC055 12/09 A2994 RMK AO2 SLP145 P0007 T01170094=
200703111213 SPECI KBLI 111213Z AUTO 13007KT 7SM -RA BKN024 BKN055 OVC070 11/09 A2996 RMK AO2 P0002=
200703111213 SPECI KBLI 111213Z AUTO 13007KT 7SM -RA BKN024 BKN055 OVC070 11/09 A2996 RMK AO2 P0002=
200703111153 METAR KBLI 111153Z AUTO 13009KT 10SM -RA FEW022 BKN055 OVC070 11/09 A2996 RMK AO2 SLP151 P0006 60025 70051 T01060089 10117 20106 58019=
200703111053 METAR KBLI 111053Z AUTO 14012G19KT 10SM -RA BKN055 OVC070 11/08 A2998 RMK AO2 SLP159 P0006 T01110083=
200703110953 METAR KBLI 110953Z AUTO 15016G20KT 7SM RA FEW025 SCT048 OVC060 11/08 A3000 RMK AO2 SLP165 P0006 T01110083=
200703110940 SPECI KBLI 110940Z AUTO 15014KT 6SM -RA SCT025 BKN046 OVC060 11/08 A3000 RMK AO2 P0004=
200703110940 SPECI KBLI 110940Z AUTO 15014KT 6SM -RA SCT025 BKN046 OVC060 11/08 A3000 RMK AO2 P0004=
200703110853 METAR KBLI 110853Z AUTO 14012KT 10SM -RA BKN024 BKN029 OVC046 11/08 A3001 RMK AO2 SLP170 P0004 60007 T01110083 50000=
200703110753 METAR KBLI 110753Z AUTO 15011KT 9SM -RA BKN024 OVC055 11/08 A3002 RMK AO2 SLP172 P0002 T01110078 401280083=
200703110653 METAR KBLI 110653Z AUTO 16015G21KT 10SM -RA OVC055 11/08 A3001 RMK AO2 SLP168 P0001 T01110078=
200703110613 SPECI KBLI 110613Z 16011KT 10SM FEW022 BKN060 OVC075 11/08 A3001 RMK AO2 RAE13 P0000=
200703110613 SPECI KBLI 110613Z 16011KT 10SM FEW022 BKN060 OVC075 11/08 A3001 RMK AO2 RAE13 P0000=
200703110553 METAR KBLI 110553Z 15015G20KT 10SM -RA BKN024 OVC055 11/08 A3001 RMK AO2 SLP169 P0002 60023 T01110078 10122 20106 51009=
200703110453 METAR KBLI 110453Z 14009KT 10SM -RA BKN026 OVC055 11/08 A3000 RMK AO2 SLP166 P0003 T01060078=
200703110353 METAR KBLI 110353Z 17013KT 9SM -RA SCT024 OVC055 11/08 A2998 RMK AO2 SLP161 P0004 T01060078=
200703110302 SPECI KBLI 110302Z 16017G22KT 10SM -RA BKN024 BKN034 OVC055 11/08 A2998 RMK AO2 P0000=
200703110302 SPECI KBLI 110302Z 16017G22KT 10SM -RA BKN024 BKN034 OVC055 11/08 A2998 RMK AO2 P0000=
200703110253 METAR KBLI 110253Z 16016G23KT 10SM -RA SCT024 BKN034 OVC060 11/08 A2997 RMK AO2 PK WND 16026/0207 SLP157 P0005 60014 T01060078 50002=
200703110153 METAR KBLI 110153Z 16016G24KT 6SM -RA FEW024 OVC037 11/08 A2998 RMK AO2 PK WND 16030/0108 SLP157 P0006 T01060078=
200703110053 METAR KBLI 110053Z 17014KT 10SM -RA OVC033 11/08 A2997=
200703102353 METAR KBLI 102353Z 17018G30KT 9SM -RA BKN036 OVC065 12/07 A2997 RMK AO2 PK WND 18033/2327 RAE06B32 SLP154 P0000 60002 T01220067 10128 20117 53013=
200703102253 METAR KBLI 102253Z 17022G31KT 10SM -RA SCT034 BKN045 OVC050 12/07 A2995 RMK AO2 PK WND 18037/2159 SLP150 P0002 T01170072=
200703102153 METAR KBLI 102153Z 17021G30KT 10SM -RA BKN050 BKN065 OVC075 12/07 A2993 RMK AO2 PK WND 17036/2134 RAB40 SLP142 P0000 T01170067=
200703102053 METAR KBLI 102053Z 16025G37KT 10SM SCT031 OVC080 13/06 A2993 RMK AO2 PK WND 17037/2047 RAB1954E16 SLP141 P0000 60000 T01280061 58038=
200703101953 METAR KBLI 101953Z 17016G21KT 10SM OVC029 13/07 A2998 RMK AO2 PK WND 15033/1859 SLP159 T01280067=
200703101932 SPECI KBLI 101932Z 16016G28KT 10SM BKN029 OVC085 13/06 A2999 RMK AO2 PK WND 15033/1859=
200703101904 SPECI KBLI 101904Z 16024G33KT 10SM BKN031 BKN095 12/07 A3000 RMK AO2 PK WND 15033/1859=
200703101904 SPECI KBLI 101904Z 16024G33KT 10SM BKN031 BKN095 12/07 A3000 RMK AO2 PK WND 15033/1859=
200703101853 METAR KBLI 101853Z 17013G22KT 10SM OVC029 12/07 A3001 RMK AO2 PK WND 16028/1840 SLP167 T01220067=
200703101753 METAR KBLI 101753Z 15016G24KT 10SM OVC029 12/07 A3004 RMK AO2 SLP179 60001 T01170067 10117 20083 58015=
200703101707 SPECI KBLI 101707Z 16013KT 10SM OVC029 11/07 A3006 RMK AO2=
200703101707 SPECI KBLI 101707Z 16013KT 10SM OVC029 11/07 A3006 RMK AO2=
200703101700 SPECI KBLI 101700Z 16013G17KT 10SM OVC031 11/07 A3006 RMK AO2=
200703101700 SPECI KBLI 101700Z 16013G17KT 10SM OVC031 11/07 A3006 RMK AO2=
200703101653 METAR KBLI 101653Z 16009KT 10SM BKN029 OVC035 11/07 A3006 RMK AO2 SLP185 T01110067=
200703101638 SPECI KBLI 101638Z 15009KT 10SM FEW024 BKN033 OVC041 11/07 A3006=
200703101553 METAR KBLI 101553Z 19006KT 10SM SCT019 OVC028 08/07 A3007 RMK AO2 RAE47 SLP190 P0001 T00830072=
200703101453 METAR KBLI 101453Z VRB06KT 5SM -RA BR SCT016 BKN021 OVC034 08/07 A3008 RMK AO2 RAB42 SLP195 P0000 60000 T00830067 50005=
200703101353 METAR KBLI 101353Z AUTO 19010G18KT 10SM BKN023 OVC029 09/06 A3008 RMK AO2 SLP195 T00890061=
200703101253 METAR KBLI 101253Z AUTO 18015G22KT 10SM OVC029 10/05 A3008 RMK AO2 SLP192 T01000050=
200703101210 SPECI KBLI 101210Z AUTO 17013G23KT 10SM BKN029 11/05 A3007 RMK AO2=
200703101153 METAR KBLI 101153Z AUTO 17015KT 10SM BKN031 BKN065 11/05 A3007 RMK AO2 SLP189 T01060050 10111 20100 50004=
200703101053 METAR KBLI 101053Z AUTO 17012G18KT 10SM OVC027 11/06 A3008 RMK AO2 SLP193 T01060056=
200703101032 SPECI KBLI 101032Z AUTO 18013G22KT 10SM BKN027 BKN033 OVC041 11/06 A3009 RMK AO2=
200703101032 SPECI KBLI 101032Z AUTO 18013G22KT 10SM BKN027 BKN033 OVC041 11/06 A3009 RMK AO2=
200703101009 SPECI KBLI 101009Z AUTO 18014G19KT 10SM OVC031 11/06 A3008 RMK AO2=
200703101009 SPECI KBLI 101009Z AUTO 18014G19KT 10SM OVC031 11/06 A3008 RMK AO2=
200703100953 METAR KBLI 100953Z AUTO 17015G23KT 10SM BKN027 OVC034 11/06 A3008 RMK AO2 SLP191 T01060061=
200703100853 METAR KBLI 100853Z AUTO 16012KT 10SM OVC027 11/06 A3006 RMK AO2 SLP185 T01110061 53012=
200703100753 METAR KBLI 100753Z AUTO 16014G22KT 10SM OVC025 11/06 A3004 RMK AO2 SLP180 T01110061 401220078=
200703100653 METAR KBLI 100653Z AUTO 17013G21KT 10SM OVC025 11/06 A3003 RMK AO2 SLP176 T01110061=
200703100553 METAR KBLI 100553Z 17013KT 10SM OVC027 11/06 A3002 RMK AO2 SLP174 T01110056 10117 20100 53003=
200703100453 METAR KBLI 100453Z 16013G23KT 10SM OVC029 12/05 A3000 RMK AO2 SLP167 T01170050=
200703100449 SPECI KBLI 100449Z 16013G21KT 10SM OVC029 11/06 A3000 RMK AO2=
200703100449 SPECI KBLI 100449Z 16013G21KT 10SM OVC029 11/06 A3000 RMK AO2=
200703100353 METAR KBLI 100353Z 19007KT 070V210 10SM OVC033 11/05 A3001 RMK AO2 SLP170 T01110050=
200703100253 METAR KBLI 100253Z 18010KT 10SM BKN040 OVC080 10/05 A2997 RMK AO2 SLP158 T01000050 53005=
200703100153 METAR KBLI 100153Z 17010KT 10SM BKN040 OVC075 10/06 A2996 RMK AO2 SLP154 T01000056=
200703100053 METAR KBLI 100053Z 19012KT 10SM FEW045 OVC080 11/04 A2996 RMK AO2 SLP151 T01110044=
200703092353 METAR KBLI 092353Z 17011KT 10SM SCT047 OVC075 11/04 A2996=
200703092253 METAR KBLI 092253Z 18011KT 10SM BKN049 OVC080 11/04 A2996 RMK AO2 SLP152 T01060039=
200703092153 METAR KBLI 092153Z 21008G17KT 180V240 10SM SCT043 OVC080 12/03 A2996 RMK AO2 SLP151 T01170033=
200703092053 METAR KBLI 092053Z 16013KT 10SM OVC080 12/03 A2995 RMK AO2 RAE33 SLP148 P0000 60000 T01170028 58007=
200703091953 METAR KBLI 091953Z 15014G20KT 10SM -RA BKN050 OVC070 11/04 A2995 RMK AO2 RAB22 SLP151 P0000 T01060039=
200703091853 METAR KBLI 091853Z 16013G19KT 10SM BKN039 OVC047 11/03 A2997 RMK AO2 SLP157 T01060028=
200703091753 METAR KBLI 091753Z 16011G19KT 10SM BKN039 BKN060 11/02 A2997 RMK AO2 SLP156 T01060022 10106 20078 51008=
200703091653 METAR KBLI 091653Z 15014KT 10SM OVC037 09/02 A2997 RMK AO2 SLP156 T00940022=
200703091553 METAR KBLI 091553Z 16012G18KT 10SM OVC035 09/02 A2995 RMK AO2 SLP150 T00940022=
200703091453 METAR KBLI 091453Z 16013G20KT 10SM SCT035 08/02 A2994 RMK AO2 SLP148 T00830017 53001=
200703091353 METAR KBLI 091353Z AUTO 16018G24KT 10SM BKN034 OVC075 08/02 A2994 RMK AO2 PK WND 16029/1334 SLP147 T00830017=
200703091253 METAR KBLI 091253Z AUTO 17018G23KT 10SM FEW031 08/02 A2994 RMK AO2 SLP145 T00830022=
200703091153 METAR KBLI 091153Z AUTO 17014G22KT 10SM BKN031 08/03 A2994 RMK AO2 PK WND 17026/1126 SLP146 70012 T00780028 10083 20078 58003=
200703091053 METAR KBLI 091053Z AUTO 17015G26KT 10SM SCT027 08/03 A2995 RMK AO2 PK WND 17027/1029 SLP149 T00780028=
200703091036 SPECI KBLI 091036Z AUTO 17016G27KT 10SM SCT027 08/03 A2995 RMK AO2 PK WND 17027/1029=
200703091036 SPECI KBLI 091036Z AUTO 17016G27KT 10SM SCT027 08/03 A2995 RMK AO2 PK WND 17027/1029=
200703090953 METAR KBLI 090953Z AUTO 17021G25KT 10SM OVC027 08/03 A2996 RMK AO2 PK WND 18028/0856 SLP152 T00830028=
200703090853 METAR KBLI 090853Z AUTO 17016G25KT 10SM OVC027 08/03 A2995 RMK AO2 SLP150 T00830033 50003=
200703090753 METAR KBLI 090753Z AUTO 17016G27KT 10SM OVC075 08/03 A2995 RMK AO2 PK WND 16029/0657 SLP151 T00830033 400890039=
200703090653 METAR KBLI 090653Z AUTO 17017G25KT 10SM BKN028 OVC032 08/03 A2995 RMK AO2 PK WND 18030/0554 SLP150 T00830033=
200703090644 SPECI KBLI 090644Z AUTO 17017G27KT 10SM BKN028 OVC075 08/03 A2995 RMK AO2 PK WND 18030/0554=
200703090644 SPECI KBLI 090644Z AUTO 17017G27KT 10SM BKN028 OVC075 08/03 A2995 RMK AO2 PK WND 18030/0554=
200703090629 SPECI KBLI 090629Z AUTO 17016G27KT 10SM SCT028 OVC075 08/03 A2995 RMK AO2 PK WND 18030/0554=
200703090629 SPECI KBLI 090629Z AUTO 17016G27KT 10SM SCT028 OVC075 08/03 A2995 RMK AO2 PK WND 18030/0554=
200703090553 METAR KBLI 090553Z 17020G26KT 10SM OVC028 08/03 A2994 RMK AO2 PK WND 16026/0547 RAB01E14 SLP147 P0000 60002 T00830028 10083 20078 53007=
200703090453 METAR KBLI 090453Z 17018G26KT 10SM OVC028 08/03 A2993 RMK AO2 PK WND 17029/0412 SLP144 T00830033=
200703090353 METAR KBLI 090353Z 16019G30KT 10SM OVC026 08/03 A2992 RMK AO2 PK WND 15030/0350 SLP140 T00830033=
200703090253 METAR KBLI 090253Z 17018G25KT 10SM OVC026 08/03 A2992 RMK AO2 PK WND 17028/0158 RAE30 SLP140 P0000 60002 T00780033 56010=
200703090153 METAR KBLI 090153Z 17020G28KT 10SM -RA OVC026 08/04 A2992 RMK AO2 PK WND 17028/0152 RAB51 SLP140 P0000 T00780039=
200703090053 METAR KBLI 090053Z 17014G22KT 10SM OVC024 08/04 A2993 RMK AO2 PK WND 17027/0022 RAE36 SLP144 P0002 T00780039=
200703082353 METAR KBLI 082353Z 17015G24KT 10SM -RA OVC028 08/04 A2995 RMK AO2 PK WND 17028/2338 RAB25 SLP150 P0001 60002 T00830039 10089 20067 56016=
200703082328 SPECI KBLI 082328Z 17015G22KT 10SM -RA BKN030 OVC037 08/04 A2995 RMK AO2 RAB25 P0000=
200703082328 SPECI KBLI 082328Z 17015G22KT 10SM -RA BKN030 OVC037 08/04 A2995 RMK AO2 RAB25 P0000=
200703082321 SPECI KBLI 082321Z 16014G22KT 10SM BKN028 OVC035 09/03 A2996 RMK AO2=
200703082321 SPECI KBLI 082321Z 16014G22KT 10SM BKN028 OVC035 09/03 A2996 RMK AO2=
200703082253 METAR KBLI 082253Z 17015G27KT 10SM BKN030 OVC036 09/03 A2996 RMK AO2 PK WND 16027/2246 SLP153 T00890033=
200703082153 METAR KBLI 082153Z 16016G22KT 10SM OVC032 09/04 A2997 RMK AO2 RAB2057E07 SLP156 P0000 T00890039=
200703082106 SPECI KBLI 082106Z 16016G21KT 10SM -RA OVC030 08/04 A2999 RMK AO2 RAB2057 P0000=
200703082053 METAR KBLI 082053Z 17011G17KT 10SM BKN028 OVC032 08/04 A3000 RMK AO2 RAE47 SLP166 P0000 60001 T00830039 56015=
200703081953 METAR KBLI 081953Z 16017G20KT 10SM -RA OVC026 08/04 A3001 RMK AO2 RAB10E34B50 SLP169 P0000 T00780039=
200703081853 METAR KBLI 081853Z 16014KT 10SM SCT022 BKN027 OVC047 07/04 A3003 RMK AO2 RAE51 SLP177 P0001 T00720039=
200703081835 SPECI KBLI 081835Z 17011KT 10SM -RA SCT025 BKN031 OVC044 07/04 A3004 RMK AO2 P0001=
200703081835 SPECI KBLI 081835Z 17011KT 10SM -RA SCT025 BKN031 OVC044 07/04 A3004 RMK AO2 P0001=
200703081753 METAR KBLI 081753Z 17017G23KT 10SM -RA BKN024 OVC030 07/03 A3004 RMK AO2 RAE01B24 SLP181 P0001 60008 T00670033 10067 20039 53008=
200703081703 SPECI KBLI 081703Z 16016G24KT 10SM BKN030 BKN035 OVC050 07/03 A3001 RMK AO2 RAE01 P0000=
200703081653 METAR KBLI 081653Z 16016G20KT 10SM -RA BKN029 OVC055 07/03 A3002 RMK AO2 RAB31 SLP172 P0000 T00670028=
200703081648 SPECI KBLI 081648Z 16015G19KT 10SM -RA BKN029 OVC055 07/03 A3002 RMK AO2 RAB31 P0000=
200703081648 SPECI KBLI 081648Z 16015G19KT 10SM -RA BKN029 OVC055 07/03 A3002 RMK AO2 RAB31 P0000=
200703081619 SPECI KBLI 081619Z 16014KT 10SM SCT026 OVC060 07/03 A3001 RMK AO2=
200703081619 SPECI KBLI 081619Z 16014KT 10SM SCT026 OVC060 07/03 A3001 RMK AO2=
200703081553 METAR KBLI 081553Z 16018G22KT 10SM BKN026 BKN055 OVC075 07/03 A3002 RMK AO2 SLP173 T00670028=
200703081453 METAR KBLI 081453Z 16009KT 10SM BKN030 BKN070 OVC100 06/03 A3001 RMK AO2 SLP170 60007 T00610033 51012=
200703081402 SPECI KBLI 081402Z AUTO 18011KT 10SM SCT017 BKN033 OVC080 06/03 A3000 RMK AO2=
200703081402 SPECI KBLI 081402Z AUTO 18011KT 10SM SCT017 BKN033 OVC080 06/03 A3000 RMK AO2=
200703081353 METAR KBLI 081353Z AUTO 18012G16KT 10SM SCT015 BKN021 OVC080 06/04 A3001 RMK AO2 RAE1256 SLP169 P0000 T00610039=
200703081320 SPECI KBLI 081320Z AUTO 18005KT 10SM BKN015 BKN021 04/03 A3000 RMK AO2 RAE1256 P0000=
200703081320 SPECI KBLI 081320Z AUTO 18005KT 10SM BKN015 BKN021 04/03 A3000 RMK AO2 RAE1256 P0000=
200703081300 SPECI KBLI 081300Z AUTO 17004KT 10SM FEW014 SCT027 04/03 A2999 RMK AO2 RAE1256 P0000=
200703081300 SPECI KBLI 081300Z AUTO 17004KT 10SM FEW014 SCT027 04/03 A2999 RMK AO2 RAE1256 P0000=
200703081253 METAR KBLI 081253Z AUTO 16003KT 10SM -RA FEW012 BKN029 04/03 A2999 RMK AO2 SLP164 P0007 T00440033=
200703081239 SPECI KBLI 081239Z AUTO 28003KT 7SM -RA SCT014 BKN020 OVC027 04/04 A2999 RMK AO2 P0007=
200703081239 SPECI KBLI 081239Z AUTO 28003KT 7SM -RA SCT014 BKN020 OVC027 04/04 A2999 RMK AO2 P0007=
200703081229 SPECI KBLI 081229Z AUTO 28006G14KT 5SM RA BR BKN013 OVC019 04/03 A2999 RMK AO2 P0006=
200703081229 SPECI KBLI 081229Z AUTO 28006G14KT 5SM RA BR BKN013 OVC019 04/03 A2999 RMK AO2 P0006=
200703081153 METAR KBLI 081153Z AUTO 20009KT 10SM -RA SCT019 OVC024 07/04 A2997 RMK AO2 RAB09 SLP158 P0000 60004 70045 T00670039 10067 20056 53004=
200703081053 METAR KBLI 081053Z AUTO 17009G17KT 10SM OVC022 07/04 A2996 RMK AO2 SLP153 T00670039=
200703081034 SPECI KBLI 081034Z AUTO 18008KT 10SM FEW017 BKN022 OVC035 07/04 A2996 RMK AO2=
200703081034 SPECI KBLI 081034Z AUTO 18008KT 10SM FEW017 BKN022 OVC035 07/04 A2996 RMK AO2=
200703080953 METAR KBLI 080953Z AUTO 15007KT 10SM FEW022 BKN037 OVC120 06/03 A2997 RMK AO2 SLP157 T00610033=
200703080853 METAR KBLI 080853Z AUTO 19006KT 10SM FEW047 SCT110 06/03 A2996 RMK AO2 RAB0757E25 SLP153 P0001 60004 T00610033 50005=
200703080753 METAR KBLI 080753Z AUTO 19006KT 10SM FEW040 BKN050 OVC090 07/04 A2996 RMK AO2 RAE0658 SLP154 P0000 T00670044 401500056=
200703080653 METAR KBLI 080653Z AUTO 17005KT 10SM -RA FEW023 BKN040 OVC070 06/04 A2995 RMK AO2 RAB0555 SLP150 P0003 T00560044=
200703080646 SPECI KBLI 080646Z AUTO 16005KT 10SM -RA SCT024 BKN037 OVC060 06/04 A2995 RMK AO2 RAB0555 P0003=
200703080646 SPECI KBLI 080646Z AUTO 16005KT 10SM -RA SCT024 BKN037 OVC060 06/04 A2995 RMK AO2 RAB0555 P0003=
200703080609 SPECI KBLI 080609Z 16005KT 7SM -RA FEW020 BKN027 OVC031 06/04 A2995 RMK AO2 RAB0555 P0001=
200703080609 SPECI KBLI 080609Z 16005KT 7SM -RA FEW020 BKN027 OVC031 06/04 A2995 RMK AO2 RAB0555 P0001=
200703080600 SPECI KBLI 080600Z 15006KT 10SM -RA OVC031 06/04 A2995 RMK AO2 RAB0555 P0000=
200703080600 SPECI KBLI 080600Z 15006KT 10SM -RA OVC031 06/04 A2995 RMK AO2 RAB0555 P0000=
200703080553 METAR KBLI 080553Z 14006KT 10SM BKN025 BKN030 OVC044 06/04 A2994 RMK AO2 RAE36 SLP148 P0005 60014 T00610044 10100 20061 53011=
200703080517 SPECI KBLI 080517Z 15007KT 4SM RA BR BKN025 BKN030 OVC037 06/05 A2994 RMK AO2 P0004=
200703080517 SPECI KBLI 080517Z 15007KT 4SM RA BR BKN025 BKN030 OVC037 06/05 A2994 RMK AO2 P0004=
200703080500 SPECI KBLI 080500Z 15006KT 10SM -RA BKN035 OVC046 07/05 A2994 RMK AO2 P0000=
200703080500 SPECI KBLI 080500Z 15006KT 10SM -RA BKN035 OVC046 07/05 A2994 RMK AO2 P0000=
200703080453 METAR KBLI 080453Z 15006KT 10SM -RA BKN026 BKN032 OVC048 07/05 A2993 RMK AO2 SLP144 P0005 T00670050=
200703080400 SPECI KBLI 080400Z 20003KT 10SM -RA SCT026 BKN037 OVC048 07/06 A2992 RMK AO2 P0001=
200703080400 SPECI KBLI 080400Z 20003KT 10SM -RA SCT026 BKN037 OVC048 07/06 A2992 RMK AO2 P0001=
200703080353 METAR KBLI 080353Z 20004KT 9SM -RA BKN026 OVC032 07/05 A2992 RMK AO2 RAB05 SLP140 P0004 T00670050=
200703080327 SPECI KBLI 080327Z 22006KT 8SM -RA OVC029 07/04 A2992 RMK AO2 RAB05 P0002=
200703080327 SPECI KBLI 080327Z 22006KT 8SM -RA OVC029 07/04 A2992 RMK AO2 RAB05 P0002=
200703080253 METAR KBLI 080253Z 27003KT 10SM OVC033 08/04 A2991 RMK AO2 RAB33E43 SLP137 P0000 60000 T00780039 53009=
200703080153 METAR KBLI 080153Z 15006KT 10SM SCT060 OVC095 08/03 A2990 RMK AO2 SLP132 T00830033=
200703080053 METAR KBLI 080053Z 16006KT 10SM FEW050 09/03 A2989 RMK AO2 SLP129 T00890033=
200703072353 METAR KBLI 072353Z 15007KT 10SM FEW090 OVC110 10/04 A2988 RMK AO2 SLP127 60020 T01000044 10100 20078 53004=
200703072253 METAR KBLI 072253Z 13007KT 10SM SCT070 BKN085 08/04 A2988 RMK AO2 RAE11 SLP125 P0000 T00780039=
200703072153 METAR KBLI 072153Z 14008KT 7SM -RA OVC038 08/03 A2987 RMK AO2 SLP122 P0002 T00830033=
200703072053 METAR KBLI 072053Z 25006KT 7SM -RA FEW009 OVC036 08/06 A2987 RMK AO2 SLP123 P0011 60018 T00780056 53015=
200703072043 SPECI KBLI 072043Z VRB03KT 6SM -RA BR FEW009 SCT018 OVC036 08/06 A2987 RMK AO2 P0011=
200703072043 SPECI KBLI 072043Z VRB03KT 6SM -RA BR FEW009 SCT018 OVC036 08/06 A2987 RMK AO2 P0011=
200703071953 METAR KBLI 071953Z 19009KT 1 1/2SM RA BR BKN002 OVC008 08/08 A2985 RMK AO2 CIG 002V006 SLP115 P0005 T00830078=
200703071943 SPECI KBLI 071943Z 19009KT 1 3/4SM -RA BR BKN002 BKN010 OVC016 08/08 A2985 RMK AO2 CIG 002V006 P0002=
200703071943 SPECI KBLI 071943Z 19009KT 1 3/4SM -RA BR BKN002 BKN010 OVC016 08/08 A2985 RMK AO2 CIG 002V006 P0002=
200703071915 SPECI KBLI 071915Z 19007KT 4SM -RA BR BKN002 OVC013 08/08 A2983 RMK AO2 P0000=
200703071915 SPECI KBLI 071915Z 19007KT 4SM -RA BR BKN002 OVC013 08/08 A2983 RMK AO2 P0000=
200703071853 METAR KBLI 071853Z 19009KT 3SM -RA BR FEW008 OVC017 09/08 A2983 RMK AO2 SLP108 P0002 T00890083=
200703071849 SPECI KBLI 071849Z 19011KT 3SM -RA BR FEW010 OVC016 09/08 A2983 RMK AO2 P0002=
200703071849 SPECI KBLI 071849Z 19011KT 3SM -RA BR FEW010 OVC016 09/08 A2983 RMK AO2 P0002=
200703071822 SPECI KBLI 071822Z 19010KT 3SM -RA BR FEW006 OVC013 09/08 A2983 RMK AO2 P0001=
200703071822 SPECI KBLI 071822Z 19010KT 3SM -RA BR FEW006 OVC013 09/08 A2983 RMK AO2 P0001=
200703071753 METAR KBLI 071753Z 18011KT 4SM -RA BR OVC013 09/08 A2983 RMK AO2 SLP109 P0001 60007 T00940083 10133 20094 51013=
200703071653 METAR KBLI 071653Z 18017G23KT 10SM -RA OVC013 10/08 A2983 RMK AO2 SLP107 P0001 T01000078=
200703071553 METAR KBLI 071553Z 18014KT 10SM -RA BKN025 OVC030 10/08 A2982 RMK AO2 PK WND 16026/1539 SLP104 P0002 T01000078=
200703071504 SPECI KBLI 071504Z 18019G23KT 10SM -RA OVC028 11/07 A2980=
200703071453 METAR KBLI 071453Z 18014KT 10SM -RA OVC030 11/07 A2979 RMK AO2 SLP096 P0002 60003 T01060067 55005=
200703071353 METAR KBLI 071353Z AUTO 17014G20KT 10SM -RA OVC070 12/07 A2979 RMK AO2 SLP094 P0001 T01170067=
200703071253 METAR KBLI 071253Z AUTO 14010G16KT 10SM -RA OVC070 12/06 A2980 RMK AO2 SLP097 P0000 T01220056=
200703071153 METAR KBLI 071153Z AUTO 16012G23KT 10SM -RA OVC075 13/05 A2981=
200703071053 METAR KBLI 071053Z AUTO 16010KT 10SM -RA OVC070 14/04 A2982 RMK AO2 RAB05 SLP102 P0000 T01390044=
200703070953 METAR KBLI 070953Z AUTO 16015G21KT 10SM OVC085 14/03 A2982 RMK AO2 SLP105 T01440033=
200703070853 METAR KBLI 070853Z AUTO 14010KT 10SM OVC090 14/04 A2985 RMK AO2 RAB02E45 SLP113 P0000 60000 T01390039 58018=
200703070753 METAR KBLI 070753Z AUTO 18009KT 10SM OVC080 13/06 A2988 RMK AO2 SLP126 T01280056 402000022=
200703070653 METAR KBLI 070653Z AUTO 00000KT 10SM OVC085 13/05 A2990 RMK AO2 SLP130 T01280050=
200703070553 METAR KBLI 070553Z 00000KT 10SM SCT100 14/05 A2990 RMK AO2 SLP131 T01390050 10183 20139 53004=
200703070453 METAR KBLI 070453Z 24007KT 10SM OVC110 14/05 A2989 RMK AO2 SLP129 T01440050=
200703070353 METAR KBLI 070353Z 16009KT 10SM OVC110 17/04 A2989 RMK AO2 SLP127 T01720039=
200703070253 METAR KBLI 070253Z 14011KT 10SM OVC110 17/04 A2989 RMK AO2 SLP127 T01670044 56014=
200703070153 METAR KBLI 070153Z 16010KT 10SM CLR 17/03 A2989 RMK AO2 SLP129 T01720033=
200703070053 METAR KBLI 070053Z 17014KT 10SM CLR 18/03 A2991 RMK AO2 SLP134 T01830028=
200703062353 METAR KBLI 062353Z 17010KT 10SM CLR 18/03 A2993 RMK AO2 SLP141 T01830033 10200 20106 56014=
200703062253 METAR KBLI 062253Z 17009G17KT 10SM CLR 18/04 A2994 RMK AO2 SLP146 T01780039=
200703062153 METAR KBLI 062153Z 18012KT 10SM CLR 19/03 A2995 RMK AO2 SLP149 T01940033=
200703062053 METAR KBLI 062053Z 16011KT 10SM CLR 19/04 A2997 RMK AO2 PRESFR SLP155 T01940039 58029=
200703061953 METAR KBLI 061953Z 00000KT 10SM CLR 15/06 A3001 RMK AO2 SLP169 T01500061=
200703061853 METAR KBLI 061853Z 18005KT 10SM CLR 13/07 A3004 RMK AO2 SLP179 T01280067=
200703061753 METAR KBLI 061753Z VRB03KT 10SM CLR 12/07 A3006 RMK AO2 SLP186 T01220072 10122 20022 58007=
200703061653 METAR KBLI 061653Z 05004KT 10SM CLR 09/06 A3007 RMK AO2 SLP190 T00890056=
200703061553 METAR KBLI 061553Z 00000KT 4SM BR CLR 03/02 A3008 RMK AO2 SLP193 T00280022=
200703061453 METAR KBLI 061453Z 00000KT 10SM CLR 03/03 A3008 RMK AO2 SLP193 T00330028 55002=
200703061353 METAR KBLI 061353Z AUTO 00000KT 10SM CLR 06/04 A3008 RMK AO2 SLP193 T00560039=
200703061253 METAR KBLI 061253Z AUTO 03006KT 10SM CLR 06/04 A3008 RMK AO2 SLP193 T00560044=
200703061153 METAR KBLI 061153Z AUTO 04006KT 10SM CLR 04/04 A3008 RMK AO2 SLP195 70010 T00440039 10072 20033 58007=
200703061053 METAR KBLI 061053Z AUTO 00000KT 10SM CLR 05/04 A3009 RMK AO2 SLP197 T00500044=
200703060953 METAR KBLI 060953Z AUTO 36003KT 8SM CLR 04/04 A3010 RMK AO2 SLP202 T00440039=
200703060933 SPECI KBLI 060933Z AUTO 00000KT 4SM BR CLR 04/04 A3010 RMK AO2=
200703060933 SPECI KBLI 060933Z AUTO 00000KT 4SM BR CLR 04/04 A3010 RMK AO2=
200703060929 SPECI KBLI 060929Z AUTO 00000KT 1SM BR CLR 05/04 A3010 RMK AO2=
200703060929 SPECI KBLI 060929Z AUTO 00000KT 1SM BR CLR 05/04 A3010 RMK AO2=
200703060921 SPECI KBLI 060921Z AUTO 00000KT 1/2SM FG CLR 04/03 A3009 RMK AO2=
200703060921 SPECI KBLI 060921Z AUTO 00000KT 1/2SM FG CLR 04/03 A3009 RMK AO2=
200703060912 SPECI KBLI 060912Z AUTO 00000KT 1 3/4SM BR CLR 04/03 A3010 RMK AO2=
200703060912 SPECI KBLI 060912Z AUTO 00000KT 1 3/4SM BR CLR 04/03 A3010 RMK AO2=
200703060853 METAR KBLI 060853Z 00000KT 9SM CLR 04/04 A3011 RMK AO2 SLP203 T00440044 50000=
200703060753 METAR KBLI 060753Z 04003KT 10SM CLR 06/05 A3011 RMK AO2 SLP204 T00610050 401280056=
200703060653 METAR KBLI 060653Z 34003KT 10SM CLR 06/05 A3011 RMK AO2 SLP204 T00560050=
200703060553 METAR KBLI 060553Z 05003KT 10SM CLR 07/06 A3010 RMK AO2 SLP202 60000 T00670056 10106 20067 57002=
200703060453 METAR KBLI 060453Z 02003KT 10SM CLR 07/06 A3011 RMK AO2 SLP204 T00670056=
200703060353 METAR KBLI 060353Z 04006KT 10SM OVC090 09/07 A3010 RMK AO2 SLP202 T00890067=
200703060253 METAR KBLI 060253Z 03006KT 10SM BKN080 08/07 A3011 RMK AO2 SLP204 60000 T00830067 56005=
200703060153 METAR KBLI 060153Z 02007KT 10SM OVC075 09/07 A3011 RMK AO2 RAB38E50 SLP204 P0000 T00940072=
200703060053 METAR KBLI 060053Z 03008KT 10SM BKN100 10/07 A3012=
200703052353 METAR KBLI 052353Z 03005KT 10SM OVC100 11/08 A3012 RMK AO2 SLP209 60001 T01060078 10128 20106 58005=
200703052253 METAR KBLI 052253Z 03008KT 10SM BKN040 OVC075 11/08 A3014 RMK AO2 SLP213 T01110078=
200703052153 METAR KBLI 052153Z VRB04KT 10SM BKN038 OVC060 12/06 A3014 RMK AO2 SLP213 T01220061=
200703052053 METAR KBLI 052053Z 17008KT 10SM SCT033 BKN060 OVC110 12/06 A3014 RMK AO2 SLP213 60001 T01170056 51004=
200703051953 METAR KBLI 051953Z 17008KT 10SM FEW038 BKN055 OVC110 11/07 A3014 RMK AO2 RAB14E29 SLP213 P0000 T01110067=
200703051853 METAR KBLI 051853Z 18010KT 10SM SCT060 OVC110 11/07 A3014 RMK AO2 SLP214 P0001 T01060067=
200703051753 METAR KBLI 051753Z 16005KT 10SM FEW028 BKN034 OVC060 11/07 A3013 RMK AO2 SLP209 60009 T01060072 10106 20067 51017=
200703051653 METAR KBLI 051653Z 32003KT 10SM BKN032 BKN041 OVC070 08/07 A3012 RMK AO2 RAE48 SLP209 P0000 T00780067=
200703051553 METAR KBLI 051553Z 35003KT 9SM -RA BKN039 OVC050 07/07 A3010 RMK AO2 SLP200 P0001 T00720067=
200703051453 METAR KBLI 051453Z AUTO 36004KT 10SM -RA OVC070 07/06 A3008 RMK AO2 RAE10B48 SLP192 P0000 60008 T00670061 55005=
200703051353 METAR KBLI 051353Z AUTO 03006KT 10SM -RA BKN060 OVC080 07/06 A3007 RMK AO2 SLP191 P0002 T00670061=
200703051309 SPECI KBLI 051309Z AUTO 02003KT 7SM -RA SCT028 OVC065 07/06 A3008 RMK AO2 P0001=
200703051309 SPECI KBLI 051309Z AUTO 02003KT 7SM -RA SCT028 OVC065 07/06 A3008 RMK AO2 P0001=
200703051253 METAR KBLI 051253Z AUTO 00000KT 6SM -RA BR BKN028 BKN036 OVC047 07/06 A3008 RMK AO2 SLP196 P0006 T00670061=
200703051246 SPECI KBLI 051246Z AUTO 00000KT 6SM -RA BR BKN028 BKN036 OVC047 07/06 A3009 RMK AO2 P0005=
200703051246 SPECI KBLI 051246Z AUTO 00000KT 6SM -RA BR BKN028 BKN036 OVC047 07/06 A3009 RMK AO2 P0005=
200703051153 METAR KBLI 051153Z AUTO 00000KT 10SM -RA OVC055 07/06 A3009 RMK AO2 SLP198 P0001 60004 70005 T00670061 10072 20061 55009=
200703051053 METAR KBLI 051053Z AUTO 03007KT 10SM -RA OVC065 07/06 A3009 RMK AO2 SLP197 P0000 T00670056=
200703050953 METAR KBLI 050953Z AUTO 04006KT 10SM -RA OVC060 07/06 A3010 RMK AO2 SLP200 P0001 T00670056=
200703050853 METAR KBLI 050853Z AUTO 04006KT 10SM -RA OVC060 07/06 A3012 RMK AO2 RAB02 SLP207 P0001 60002 T00720056 56007=
200703050753 METAR KBLI 050753Z 03004KT 6SM BR OVC060 07/06 A3012 RMK AO2 RAE22 SLP208 P0001 T00670061 401060028=
200703050653 METAR KBLI 050653Z 03004KT 5SM -RA BR FEW047 OVC065 07/06 A3013 RMK AO2 SLP212 P0000 T00670056=
200703050553 METAR KBLI 050553Z 00000KT 9SM -RA OVC065 06/06 A3014 RMK AO2 RAB15 SLP214 P0001 60001 T00610056 10100 20056 51002=
200703050453 METAR KBLI 050453Z 00000KT 10SM BKN080 OVC100 06/05 A3014 RMK AO2 SLP214 T00610050=
200703050353 METAR KBLI 050353Z 00000KT 10SM BKN100 BKN120 06/06 A3014 RMK AO2 SLP215 T00610056=
200703050253 METAR KBLI 050253Z 00000KT 10SM CLR 06/05 A3013 RMK AO2 SLP214 T00610050 56012=
200703050153 METAR KBLI 050153Z 29003KT 10SM BKN120 08/06 A3014 RMK AO2 SLP213 T00830056=
200703050053 METAR KBLI 050053Z 00000KT 10SM FEW110 09/06 A3015 RMK AO2 SLP218 T00940061=
200703042353 METAR KBLI 042353Z 25003KT 10SM CLR 09/06 A3017 RMK AO2 SLP225 T00890056 10106 20078 56008=
200703042253 METAR KBLI 042253Z 24004KT 10SM FEW100 10/06 A3018 RMK AO2 SLP228 T01000061=
200703042153 METAR KBLI 042153Z 18005KT 10SM FEW100 10/06 A3018 RMK AO2 SLP229 T01000061=
200703042053 METAR KBLI 042053Z 17004KT 10SM CLR 09/06 A3020 RMK AO2 SLP233 T00940056 58013=
200703041953 METAR KBLI 041953Z 19004KT 10SM CLR 08/05 A3022 RMK AO2 SLP241 T00830050=
200703041853 METAR KBLI 041853Z 33003KT 10SM FEW110 09/06 A3023 RMK AO2 SLP243 T00940056=
200703041753 METAR KBLI 041753Z 04008KT 10SM CLR 08/05 A3023 RMK AO2 SLP246 T00780050 10078 20028 58013=
200703041653 METAR KBLI 041653Z 03006KT 10SM SCT120 06/04 A3025 RMK AO2 SLP253 T00560044=
200703041553 METAR KBLI 041553Z 01007KT 10SM SCT120 04/04 A3026 RMK AO2 SLP257 T00440039=
200703041453 METAR KBLI 041453Z 01004KT 6SM BR FEW005 SCT110 03/03 A3027 RMK AO2 SLP260 T00330028 56007=
200703041428 SPECI KBLI 041428Z AUTO 03004KT 8SM BKN005 03/03 A3028 RMK AO2 CIG 002V006=
200703041428 SPECI KBLI 041428Z AUTO 03004KT 8SM BKN005 03/03 A3028 RMK AO2 CIG 002V006=
200703041344 SPECI KBLI 041344Z AUTO 03006KT 8SM BKN003 OVC110 04/03 A3028 RMK AO2=
200703041344 SPECI KBLI 041344Z AUTO 03006KT 8SM BKN003 OVC110 04/03 A3028 RMK AO2=
200703041323 SPECI KBLI 041323Z AUTO 01005KT 3SM BR SCT003 BKN007 OVC120 03/03 A3029 RMK AO2=
200703041323 SPECI KBLI 041323Z AUTO 01005KT 3SM BR SCT003 BKN007 OVC120 03/03 A3029 RMK AO2=
200703041320 SPECI KBLI 041320Z AUTO 01007KT 1SM BR BKN001 BKN007 OVC120 03/03 A3029 RMK AO2=
200703041320 SPECI KBLI 041320Z AUTO 01007KT 1SM BR BKN001 BKN007 OVC120 03/03 A3029 RMK AO2=
200703041253 METAR KBLI 041253Z AUTO 03005KT 1/2SM FG VV001 03/03 A3029 RMK AO2 SLP268 T00330028=
200703041234 SPECI KBLI 041234Z AUTO 02006KT 1/2SM FG VV001 03/03 A3030 RMK AO2=
200703041234 SPECI KBLI 041234Z AUTO 02006KT 1/2SM FG VV001 03/03 A3030 RMK AO2=
200703041226 SPECI KBLI 041226Z AUTO 02006KT 3/4SM BR OVC001 03/03 A3030 RMK AO2=
200703041226 SPECI KBLI 041226Z AUTO 02006KT 3/4SM BR OVC001 03/03 A3030 RMK AO2=
200703041215 SPECI KBLI 041215Z AUTO 02006KT 1SM BR OVC001 03/03 A3031 RMK AO2=
200703041215 SPECI KBLI 041215Z AUTO 02006KT 1SM BR OVC001 03/03 A3031 RMK AO2=
200703041153 METAR KBLI 041153Z AUTO 01006KT 1/2SM FG VV001 03/03 A3031 RMK AO2 SLP272 70004 T00330028 10050 20028 56024=
200703041150 SPECI KBLI 041150Z AUTO 01006KT 1/2SM FG VV001 03/03 A3031 RMK AO2=
200703041150 SPECI KBLI 041150Z AUTO 01006KT 1/2SM FG VV001 03/03 A3031 RMK AO2=
200703041143 SPECI KBLI 041143Z AUTO 02006KT 1 3/4SM BR BKN001 03/03 A3031 RMK AO2=
200703041143 SPECI KBLI 041143Z AUTO 02006KT 1 3/4SM BR BKN001 03/03 A3031 RMK AO2=
200703041132 SPECI KBLI 041132Z AUTO 02006KT 3SM BR BKN001 03/02 A3031 RMK AO2=
200703041132 SPECI KBLI 041132Z AUTO 02006KT 3SM BR BKN001 03/02 A3031 RMK AO2=
200703041118 SPECI KBLI 041118Z AUTO 03006KT 1SM BR VV001 03/02 A3032 RMK AO2=
200703041118 SPECI KBLI 041118Z AUTO 03006KT 1SM BR VV001 03/02 A3032 RMK AO2=
200703041053 METAR KBLI 041053Z AUTO 01004KT 1/4SM FG VV001 03/02 A3033 RMK AO2 SLP281 T00280022=
200703040953 METAR KBLI 040953Z AUTO 03005KT 1/4SM FG VV001 03/03 A3035 RMK AO2 SLP288 T00330033=
200703040853 METAR KBLI 040853Z AUTO 03006KT 1/4SM FG VV001 04/03 A3038 RMK AO2 SLP296 T00390033 58017=
200703040815 SPECI KBLI 040815Z AUTO 04004KT 1/4SM FG VV001 04/04 A3039 RMK AO2=
200703040815 SPECI KBLI 040815Z AUTO 04004KT 1/4SM FG VV001 04/04 A3039 RMK AO2=
200703040807 SPECI KBLI 040807Z AUTO 03004KT 3/4SM BR OVC001 04/04 A3039 RMK AO2=
200703040807 SPECI KBLI 040807Z AUTO 03004KT 3/4SM BR OVC001 04/04 A3039 RMK AO2=
200703040759 SPECI KBLI 040759Z AUTO 02005KT 2 1/2SM BR OVC001 04/04 A3040 RMK AO2=
200703040759 SPECI KBLI 040759Z AUTO 02005KT 2 1/2SM BR OVC001 04/04 A3040 RMK AO2=
200703040753 METAR KBLI 040753Z AUTO 02005KT 3SM BR OVC003 04/04 A3040 RMK AO2 SLP302 T00440039 400830022=
200703040726 SPECI KBLI 040726Z AUTO 01003KT 4SM BR BKN003 BKN019 04/04 A3041 RMK AO2=
200703040726 SPECI KBLI 040726Z AUTO 01003KT 4SM BR BKN003 BKN019 04/04 A3041 RMK AO2=
200703040708 SPECI KBLI 040708Z AUTO 02005KT 4SM BR FEW003 BKN019 04/04 A3041 RMK AO2=
200703040708 SPECI KBLI 040708Z AUTO 02005KT 4SM BR FEW003 BKN019 04/04 A3041 RMK AO2=
200703040653 METAR KBLI 040653Z AUTO 03005KT 5SM BR BKN019 05/04 A3041 RMK AO2 SLP308 T00500039=
200703040627 SPECI KBLI 040627Z AUTO 03005KT 5SM BR OVC019 05/04 A3042 RMK AO2=
200703040627 SPECI KBLI 040627Z AUTO 03005KT 5SM BR OVC019 05/04 A3042 RMK AO2=
200703040553 METAR KBLI 040553Z 02004KT 4SM BR FEW019 OVC065 05/04 A3043 RMK AO2 SLP313 T00500044 10078 20050 55004=
200703040453 METAR KBLI 040453Z 01004KT 7SM FEW040 OVC070 06/04 A3042 RMK AO2 SLP311 T00560044=
200703040353 METAR KBLI 040353Z 03005KT 10SM FEW028 BKN070 06/05 A3043 RMK AO2 SLP313 T00610050=
200703040253 METAR KBLI 040253Z 04004KT 10SM OVC010 07/06 A3044 RMK AO2 SLP318 T00720056 56009=
200703040153 METAR KBLI 040153Z 05004KT 10SM OVC010 07/06 A3044 RMK AO2 SLP319 T00720056=
200703040141 SPECI KBLI 040141Z 05004KT 10SM OVC010 07/06 A3045 RMK AO2=
200703040141 SPECI KBLI 040141Z 05004KT 10SM OVC010 07/06 A3045 RMK AO2=
200703040053 METAR KBLI 040053Z 04005KT 10SM OVC008 08/06 A3046 RMK AO2 SLP323 T00780056=
200703032353 METAR KBLI 032353Z 03004KT 10SM OVC008 08/06 A3047 RMK AO2 SLP327 T00780061 10083 20044 58002=
200703032253 METAR KBLI 032253Z 04004KT 10SM OVC010 08/06 A3047 RMK AO2 SLP328 T00780061=
200703032153 METAR KBLI 032153Z 03005KT 10SM OVC012 08/06 A3047 RMK AO2 SLP328 T00780061=
200703032053 METAR KBLI 032053Z 01004KT 10SM BKN009 OVC012 07/06 A3047 RMK AO2 CIG 005V010 SLP329 T00720056 58006=
200703031953 METAR KBLI 031953Z 36003KT 8SM OVC009 07/06 A3049 RMK AO2 CIG 005V012 SLP333 T00720056=
200703031918 SPECI KBLI 031918Z 00000KT 5SM BR FEW002 OVC012 06/05 A3049 RMK AO2=
200703031918 SPECI KBLI 031918Z 00000KT 5SM BR FEW002 OVC012 06/05 A3049 RMK AO2=
200703031911 SPECI KBLI 031911Z 00000KT 5SM BR SCT010 OVC014 06/05 A3049 RMK AO2=
200703031911 SPECI KBLI 031911Z 00000KT 5SM BR SCT010 OVC014 06/05 A3049 RMK AO2=
200703031853 METAR KBLI 031853Z 04004KT 3SM BR FEW002 BKN009 OVC015 06/05 A3049 RMK AO2 SLP334 T00610050=
200703031832 SPECI KBLI 031832Z 05004KT 3SM BR SCT002 BKN007 OVC017 06/04 A3049 RMK AO2 CIG 007V010=
200703031832 SPECI KBLI 031832Z 05004KT 3SM BR SCT002 BKN007 OVC017 06/04 A3049 RMK AO2 CIG 007V010=
200703031753 METAR KBLI 031753Z 02003KT 2SM BR SCT002 BKN007 OVC016 04/04 A3049 RMK AO2 SLP335 60004 T00440039 10044 20028 51015=
200703031746 SPECI KBLI 031746Z 04004KT 2SM BR SCT002 SCT009 OVC016 04/04 A3049 RMK AO2=
200703031746 SPECI KBLI 031746Z 04004KT 2SM BR SCT002 SCT009 OVC016 04/04 A3049 RMK AO2=
200703031724 SPECI KBLI 031724Z 02004KT 2SM BR SCT002 BKN009 OVC016 04/03 A3049 RMK AO2 CIG 007V011=
200703031724 SPECI KBLI 031724Z 02004KT 2SM BR SCT002 BKN009 OVC016 04/03 A3049 RMK AO2 CIG 007V011=
200703031653 METAR KBLI 031653Z 36006KT 2SM BR BKN002 BKN007 OVC014 04/03 A3048 RMK AO2 RAE1559 SLP329 P0000 T00390028=
200703031648 SPECI KBLI 031648Z 02006KT 2SM BR BKN002 OVC007 04/03 A3047 RMK AO2 RAE1559 P0000=
200703031648 SPECI KBLI 031648Z 02006KT 2SM BR BKN002 OVC007 04/03 A3047 RMK AO2 RAE1559 P0000=
200703031553 METAR KBLI 031553Z 03003KT 2SM -RA BR FEW002 BKN007 OVC014 03/03 A3045 RMK AO2 RAB1459E30B49 CIG 006V011 SLP319 P0001 T00330028=
200703031528 SPECI KBLI 031528Z 01003KT 1SM -RA BR SCT002 BKN007 OVC016 03/03 A3044 RMK AO2 RAB1459 CIG 006V009 P0001=
200703031528 SPECI KBLI 031528Z 01003KT 1SM -RA BR SCT002 BKN007 OVC016 03/03 A3044 RMK AO2 RAB1459 CIG 006V009 P0001=
200703031453 METAR KBLI 031453Z 01003KT 2SM BR SCT002 OVC005 03/02 A3043 RMK AO2 SLP315 60003 T00280022 51012=
200703031446 SPECI KBLI 031446Z 01003KT 2 1/2SM BR SCT002 OVC005 03/02 A3043 RMK AO2=
200703031446 SPECI KBLI 031446Z 01003KT 2 1/2SM BR SCT002 OVC005 03/02 A3043 RMK AO2=
200703031432 SPECI KBLI 031432Z AUTO 01004KT 3SM BR OVC005 03/02 A3043 RMK AO2 CIG 002V007=
200703031432 SPECI KBLI 031432Z AUTO 01004KT 3SM BR OVC005 03/02 A3043 RMK AO2 CIG 002V007=
200703031353 METAR KBLI 031353Z AUTO 00000KT 2SM BR OVC003 03/02 A3043 RMK AO2 RAE1254B11E42UPB1254E1258 CIG 001V006 SLP312 P0001 T00280022=
200703031341 SPECI KBLI 031341Z AUTO 00000KT 2SM -RA BR OVC003 03/02 A3043 RMK AO2 RAE1254B11UPB1254E1258 CIG 001V006 P0001=
200703031341 SPECI KBLI 031341Z AUTO 00000KT 2SM -RA BR OVC003 03/02 A3043 RMK AO2 RAE1254B11UPB1254E1258 CIG 001V006 P0001=
200703031320 SPECI KBLI 031320Z AUTO 01003KT 1 3/4SM -RA BR OVC003 03/02 A3043=
200703031253 METAR KBLI 031253Z AUTO 01004KT 2 1/2SM -RA BR OVC005 03/02 A3042 RMK AO2 CIG 002V010 SLP309 P0002 T00280022=
200703031153 METAR KBLI 031153Z AUTO 02003KT 2SM -RA BR OVC005 03/02 A3040 RMK AO2 UPB10E19B37E39 CIG 001V008 SLP303 P0002 60012 70023 T00280022 10028 20022 53009=
200703031136 SPECI KBLI 031136Z AUTO 00000KT 2SM -RA BR BKN007 OVC015 03/02 A3039 RMK AO2 UPB10E19 P0001=
200703031136 SPECI KBLI 031136Z AUTO 00000KT 2SM -RA BR BKN007 OVC015 03/02 A3039 RMK AO2 UPB10E19 P0001=
200703031123 SPECI KBLI 031123Z AUTO 00000KT 1 3/4SM -RA BR BKN007 OVC017 03/02 A3039 RMK AO2 UPB10E19 P0001=
200703031123 SPECI KBLI 031123Z AUTO 00000KT 1 3/4SM -RA BR BKN007 OVC017 03/02 A3039 RMK AO2 UPB10E19 P0001=
200703031053 METAR KBLI 031053Z AUTO 01003KT 2 1/2SM -RA BR BKN009 OVC020 03/02 A3038 RMK AO2 SLP297 P0003 T00280017=
200703031048 SPECI KBLI 031048Z AUTO 04004KT 2 1/2SM -RA BR BKN009 OVC018 03/02 A3038 RMK AO2 P0003=
200703031048 SPECI KBLI 031048Z AUTO 04004KT 2 1/2SM -RA BR BKN009 OVC018 03/02 A3038 RMK AO2 P0003=
200703030953 METAR KBLI 030953Z AUTO 03004KT 3SM -RA BR BKN009 OVC018 02/02 A3037 RMK AO2 SLP294 P0004 T00220017=
200703030942 SPECI KBLI 030942Z AUTO 05004KT 3SM -RA BR BKN009 OVC018 02/02 A3037 RMK AO2 P0003=
200703030942 SPECI KBLI 030942Z AUTO 05004KT 3SM -RA BR BKN009 OVC018 02/02 A3037 RMK AO2 P0003=
200703030927 SPECI KBLI 030927Z AUTO 03005KT 2 1/2SM -RA BR BKN009 OVC020 02/02 A3037 RMK AO2 P0003=
200703030927 SPECI KBLI 030927Z AUTO 03005KT 2 1/2SM -RA BR BKN009 OVC020 02/02 A3037 RMK AO2 P0003=
200703030853 METAR KBLI 030853Z AUTO 01004KT 4SM -RA BR BKN009 OVC022 02/02 A3036 RMK AO2 SLP289 P0001 60003 T00220017 51021=
200703030753 METAR KBLI 030753Z AUTO 04006KT 3SM -RA BR FEW003 OVC009 02/02 A3033 RMK AO2 UPB00E38RAB04 SLP281 P0002 T00220017 400441022=
200703030743 SPECI KBLI 030743Z AUTO 03004KT 3SM -RA BR FEW003 BKN009 OVC022 02/02 A3033 RMK AO2 UPB00E38RAB04 CIG 008V012 P0001=
200703030743 SPECI KBLI 030743Z AUTO 03004KT 3SM -RA BR FEW003 BKN009 OVC022 02/02 A3033 RMK AO2 UPB00E38RAB04 CIG 008V012 P0001=
200703030733 SPECI KBLI 030733Z AUTO 04004KT 3SM UP BR FEW003 BKN011 OVC022 02/02 A3033 RMK AO2 UPB00RAB04E23 P0001=
200703030733 SPECI KBLI 030733Z AUTO 04004KT 3SM UP BR FEW003 BKN011 OVC022 02/02 A3033 RMK AO2 UPB00RAB04E23 P0001=
200703030653 METAR KBLI 030653Z AUTO 36005KT 4SM BR OVC022 02/02 A3033 RMK AO2 RAE22 SLP279 P0000 T00220017=
200703030553 METAR KBLI 030553Z 01004KT 7SM -RA OVC024 02/01 A3029 RMK AO2 SLP268 P0002 60010 T00220011 10044 20022 51028=
200703030453 METAR KBLI 030453Z 03004KT 7SM -RA OVC024 02/01 A3027 RMK AO2 SLP260 P0002 T00220011=
200703030353 METAR KBLI 030353Z 01006KT 7SM -RA OVC024 02/01 A3024 RMK AO2 SLP251 P0003 T00220011=
200703030253 METAR KBLI 030253Z 02005KT 5SM -RA BR OVC026 02/01 A3021 RMK AO2 SLP240 P0003 60003 T00220011 53015=
200703030153 METAR KBLI 030153Z 02005KT 4SM -RA BR OVC028 03/01 A3019 RMK AO2 RAB26 SLP233 P0000 T00280006=
200703030053 METAR KBLI 030053Z 02006KT 10SM OVC032 04/M01 A3016 RMK AO2 SLP223 T00441011=
200703022353 METAR KBLI 022353Z 02008KT 10SM OVC034 04/M02 A3017 RMK AO2 SLP225 60000 T00441017 10044 20011 55004=
200703022253 METAR KBLI 022253Z 04010KT 10SM OVC034 04/M02 A3017 RMK AO2 SNE2155 SLP224 P0000 T00441022=
200703022153 METAR KBLI 022153Z 04011KT 9SM -SN OVC032 04/M02 A3016 RMK AO2 SLP225 P0000 T00391022=
200703022053 METAR KBLI 022053Z 04009KT 9SM -SN OVC032 04/M02 A3018 RMK AO2 SNB06 SLP230 P0000 60000 T00391022 58013=
200703021953 METAR KBLI 021953Z 04012KT 6SM BR OVC032 03/M02 A3020 RMK AO2 SNE19 SLP237 P0000 T00281022=
200703021853 METAR KBLI 021853Z 03007KT 4SM -SN BKN022 OVC032 02/M03 A3021 RMK AO2 SLP241 P0000 T00171028=
200703021753 METAR KBLI 021753Z 03009KT 3SM -SN OVC016 01/M04 A3022 RMK AO2 SNB12 SLP243 P0000 60001 T00111039 10017 21011 53015=
200703021707 SPECI KBLI 021707Z 04006KT 10SM OVC026 01/M05 A3021 RMK AO2=
200703021707 SPECI KBLI 021707Z 04006KT 10SM OVC026 01/M05 A3021 RMK AO2=
200703021653 METAR KBLI 021653Z 04009KT 10SM OVC033 01/M05 A3020 RMK AO2 SLP238 P0001 T00111050=
200703021553 METAR KBLI 021553Z 03007KT 10SM OVC060 00/M05 A3018 RMK AO2 SLP231 T00001050=
200703021453 METAR KBLI 021453Z 04007KT 10SM BKN075 BKN100 M01/M05 A3017 RMK AO2 SLP228 T10061050 56013=
200703021353 METAR KBLI 021353Z AUTO 04006KT 10SM FEW090 M01/M04 A3019 RMK AO2 SLP233 T10061044=
200703021253 METAR KBLI 021253Z AUTO 04005KT 10SM OVC100 M01/M04 A3019 RMK AO2 SLP235 T10111044=
200703021153 METAR KBLI 021153Z AUTO 02005KT 10SM BKN120 M01/M04 A3021 RMK AO2 SLP241 70016 T10111044 11006 21022 53002=
200703021053 METAR KBLI 021053Z AUTO 02003KT 10SM CLR M02/M04 A3020 RMK AO2 SLP238 T10171044=
200703020953 METAR KBLI 020953Z AUTO 02004KT 10SM CLR M02/M04 A3020 RMK AO2 SLP237 T10221039=
200703020853 METAR KBLI 020853Z AUTO 01004KT 10SM FEW049 M02/M04 A3021 RMK AO2 SLP239 T10221039 53004=
200703020753 METAR KBLI 020753Z AUTO 03006KT 10SM CLR M02/M04 A3019 RMK AO2 SLP235 T10171039 400391022=
200703020653 METAR KBLI 020653Z AUTO 03004KT 10SM FEW060 M02/M03 A3020 RMK AO2 SLP235 T10171033=
200703020553 METAR KBLI 020553Z 36004KT 10SM OVC060 M01/M03 A3019 RMK AO2 SLP234 60000 T10061028 10033 21006 53008=
200703020453 METAR KBLI 020453Z 00000KT 10SM OVC060 00/M02 A3018 RMK AO2 SLP230 T00001022=
200703020353 METAR KBLI 020353Z 00000KT 10SM BKN065 00/M02 A3017 RMK AO2 SLP227 T00001022=
200703020253 METAR KBLI 020253Z 00000KT 10SM SCT039 OVC049 02/M02 A3017 RMK AO2 SNE17 SLP226 P0000 60000 T00171022 53008=
200703020153 METAR KBLI 020153Z 34005KT 10SM -SN FEW030 OVC039 02/M02 A3015 RMK AO2 SNB41 SLP221 P0000 T00171022=
200703020053 METAR KBLI 020053Z VRB03KT 10SM FEW042 OVC065 03/M06 A3015 RMK AO2 SLP218 T00331056=
200703012353 METAR KBLI 012353Z 17005KT 10SM SCT065 03/M05 A3014 RMK AO2 SLP218 60016 T00331050 10039 20000 53011=
200703012253 METAR KBLI 012253Z 17007KT 10SM SCT035 04/M05 A3013 RMK AO2 SLP213 T00391050=
200703012153 METAR KBLI 012153Z 20006KT 10SM SCT035 03/M03 A3012 RMK AO2 SLP209 T00331033=
200703012053 METAR KBLI 012053Z 17010KT 10SM CLR 03/M03 A3011 RMK AO2 SLP206 P0001 60016 T00281033 51009=
200703011953 METAR KBLI 011953Z 16004KT 10SM FEW015 SCT023 BKN044 02/M02 A3010 RMK AO2 SLP204 P0014 T00221022=
200703011853 METAR KBLI 011853Z 13006KT 10SM FEW015 SCT023 OVC044 01/M02 A3009 RMK AO2 SLP200 P0001 T00111017=
200703011753 METAR KBLI 011753Z 00000KT 10SM FEW016 OVC023 00/M02 A3008 RMK AO2 SNE48 SLP197 P0000 60000 T00001022 10000 21017 51018=
200703011723 SPECI KBLI 011723Z 13003KT 6SM -SN BR SCT014 OVC020 00/M02 A3008 RMK AO2 P0000=
200703011723 SPECI KBLI 011723Z 13003KT 6SM -SN BR SCT014 OVC020 00/M02 A3008 RMK AO2 P0000=
200703011714 SPECI KBLI 011714Z 11004KT 6SM -SN BR BKN014 OVC022 M01/M02 A3007 RMK AO2 P0000=
200703011714 SPECI KBLI 011714Z 11004KT 6SM -SN BR BKN014 OVC022 M01/M02 A3007 RMK AO2 P0000=
200703011653 METAR KBLI 011653Z 11003KT 1 1/4SM -SN BR FEW007 OVC018 M01/M02 A3006 RMK AO2 SNB1555 SLP189 P0000 T10061017=
200703011616 SPECI KBLI 011616Z 12006KT 1 3/4SM -SN BR SCT014 BKN021 OVC029 M01/M02 A3004 RMK AO2 SNB1555 P0000=
200703011616 SPECI KBLI 011616Z 12006KT 1 3/4SM -SN BR SCT014 BKN021 OVC029 M01/M02 A3004 RMK AO2 SNB1555 P0000=
200703011553 METAR KBLI 011553Z 14005KT 6SM BR FEW005 BKN028 OVC049 M01/M02 A3003 RMK AO2 SNE1459 SLP179 P0000 T10061017=
200703011513 SPECI KBLI 011513Z 15004KT 6SM BR BKN005 OVC024 M01/M02 A3001 RMK AO2 SNE1459 CIG 003V009 P0000=
200703011513 SPECI KBLI 011513Z 15004KT 6SM BR BKN005 OVC024 M01/M02 A3001 RMK AO2 SNE1459 CIG 003V009 P0000=
200703011453 METAR KBLI 011453Z 17003KT 3SM -SN BR SCT008 BKN024 OVC029 M01/M02 A3001 RMK AO2 SNE02B23 SLP171 P0000 60000 T10111022 53024=
200703011445 SPECI KBLI 011445Z AUTO 15003KT 4SM -SN BR SCT010 SCT016 OVC024 M01/M02 A3000 RMK AO2 SNE02B23 P0000=
200703011445 SPECI KBLI 011445Z AUTO 15003KT 4SM -SN BR SCT010 SCT016 OVC024 M01/M02 A3000 RMK AO2 SNE02B23 P0000=
200703011434 SPECI KBLI 011434Z AUTO 14003KT 2 1/2SM -SN BR FEW005 BKN018 OVC024 M01/M02 A3000 RMK AO2 SNE02B23 P0000=
200703011434 SPECI KBLI 011434Z AUTO 14003KT 2 1/2SM -SN BR FEW005 BKN018 OVC024 M01/M02 A3000 RMK AO2 SNE02B23 P0000=
200703011427 SPECI KBLI 011427Z AUTO 00000KT 3SM -SN BR SCT005 BKN016 OVC024 M01/M02 A3000 RMK AO2 SNE02B23 P0000=
200703011400 SPECI KBLI 011400Z AUTO 00000KT 7SM -SN BKN005 OVC009 M01/M02 A2998 RMK AO2 P0000=
200703011400 SPECI KBLI 011400Z AUTO 00000KT 7SM -SN BKN005 OVC009 M01/M02 A2998 RMK AO2 P0000=
200703011353 METAR KBLI 011353Z AUTO 13003KT 6SM -SN BR BKN003 OVC009 M01/M02 A2998 RMK AO2 CIG 003V007 SLP163 P0000 T10061017=
200703011347 SPECI KBLI 011347Z AUTO 13003KT 3SM -SN BR BKN003 OVC009 M01/M02 A2998 RMK AO2 P0000=
200703011347 SPECI KBLI 011347Z AUTO 13003KT 3SM -SN BR BKN003 OVC009 M01/M02 A2998 RMK AO2 P0000=
200703011337 SPECI KBLI 011337Z AUTO 00000KT 1 1/4SM -SN BR BKN003 OVC015 M01/M01 A2998 RMK AO2 CIG 002V010 P0000=
200703011337 SPECI KBLI 011337Z AUTO 00000KT 1 1/4SM -SN BR BKN003 OVC015 M01/M01 A2998 RMK AO2 CIG 002V010 P0000=
200703011322 SPECI KBLI 011322Z AUTO 17003KT 1 3/4SM -SN BR OVC005 M01/M01 A2997 RMK AO2 P0000=
200703011322 SPECI KBLI 011322Z AUTO 17003KT 1 3/4SM -SN BR OVC005 M01/M01 A2997 RMK AO2 P0000=
200703011303 SPECI KBLI 011303Z AUTO 18003KT 4SM -SN BR BKN003 OVC014 M01/M02 A2996 RMK AO2 P0000=
200703011303 SPECI KBLI 011303Z AUTO 18003KT 4SM -SN BR BKN003 OVC014 M01/M02 A2996 RMK AO2 P0000=
200703011253 METAR KBLI 011253Z AUTO 17005KT 2 1/2SM -SN BR OVC003 M01/M01 A2996 RMK AO2 SLP154 P0000 T10061011=
200703011242 SPECI KBLI 011242Z AUTO 17004KT 2SM -SN BR OVC003 M01/M01 A2995 RMK AO2 P0000=
200703011242 SPECI KBLI 011242Z AUTO 17004KT 2SM -SN BR OVC003 M01/M01 A2995 RMK AO2 P0000=
200703011235 SPECI KBLI 011235Z AUTO 17007KT 3/4SM -SN BR OVC003 M01/M02 A2995 RMK AO2 P0000=
200703011235 SPECI KBLI 011235Z AUTO 17007KT 3/4SM -SN BR OVC003 M01/M02 A2995 RMK AO2 P0000=
200703011225 SPECI KBLI 011225Z AUTO 17007KT 1/2SM SN FZFG BKN005 OVC010 M01/M02 A2995 RMK AO2 P0000=
200703011225 SPECI KBLI 011225Z AUTO 17007KT 1/2SM SN FZFG BKN005 OVC010 M01/M02 A2995 RMK AO2 P0000=
200703011206 SPECI KBLI 011206Z AUTO 00000KT 1 1/2SM -SN BR BKN007 OVC013 M01/M02 A2994 RMK AO2 P0000=
200703011206 SPECI KBLI 011206Z AUTO 00000KT 1 1/2SM -SN BR BKN007 OVC013 M01/M02 A2994 RMK AO2 P0000=
200703011203 SPECI KBLI 011203Z AUTO 00000KT 2 1/2SM -SN BR SCT007 OVC013 M01/M02 A2994 RMK AO2 P0000=
200703011203 SPECI KBLI 011203Z AUTO 00000KT 2 1/2SM -SN BR SCT007 OVC013 M01/M02 A2994 RMK AO2 P0000=
200703011153 METAR KBLI 011153Z AUTO 12004KT 3SM -SN BR BKN007 OVC013 M01/M02 A2993 RMK AO2 CIG 003V009 SLP147 P0000 60000 70005 T10111017 11006 21022 51015=
200703011127 SPECI KBLI 011127Z AUTO 17003KT 1 1/4SM -SN BR FEW002 OVC007 M01/M02 A2993 RMK AO2 P0000=
200703011127 SPECI KBLI 011127Z AUTO 17003KT 1 1/4SM -SN BR FEW002 OVC007 M01/M02 A2993 RMK AO2 P0000=
200703011120 SPECI KBLI 011120Z AUTO 16004KT 3/4SM -SN BR OVC007 M01/M02 A2993 RMK AO2 P0000=
200703011120 SPECI KBLI 011120Z AUTO 16004KT 3/4SM -SN BR OVC007 M01/M02 A2993 RMK AO2 P0000=
200703011109 SPECI KBLI 011109Z AUTO 15003KT 1/4SM +SN FZFG BKN004 OVC011 M01/M02 A2992 RMK AO2 P0000=
200703011109 SPECI KBLI 011109Z AUTO 15003KT 1/4SM +SN FZFG BKN004 OVC011 M01/M02 A2992 RMK AO2 P0000=
200703011057 SPECI KBLI 011057Z AUTO 00000KT 1/2SM SN FZFG BKN006 OVC019 M02/M03 A2992 RMK AO2 P0000=
200703011057 SPECI KBLI 011057Z AUTO 00000KT 1/2SM SN FZFG BKN006 OVC019 M02/M03 A2992 RMK AO2 P0000=
200703011053 METAR KBLI 011053Z AUTO 00000KT 3/4SM -SN BR BKN013 OVC019 M02/M03 A2992 RMK AO2 SNB41 SLP142 P0000 T10171028=
200703011051 SPECI KBLI 011051Z AUTO 26003KT 3/4SM -SN BR VV018 M02/M03 A2992 RMK AO2 SNB41 P0000=
200703011051 SPECI KBLI 011051Z AUTO 26003KT 3/4SM -SN BR VV018 M02/M03 A2992 RMK AO2 SNB41 P0000=
200703011044 SPECI KBLI 011044Z AUTO 22003KT 2 1/2SM -SN BR BKN020 BKN039 OVC060 M02/M03 A2992 RMK AO2 SNB41 P0000=
200703011044 SPECI KBLI 011044Z AUTO 22003KT 2 1/2SM -SN BR BKN020 BKN039 OVC060 M02/M03 A2992 RMK AO2 SNB41 P0000=
200703010953 METAR KBLI 010953Z AUTO 00000KT 10SM FEW034 SCT041 BKN047 M02/M03 A2989 RMK AO2 SLP132 T10171033=
200703010853 METAR KBLI 010853Z AUTO 00000KT 10SM OVC070 M02/M03 A2987 RMK AO2 SLP123 T10171028 53019=
200703010753 METAR KBLI 010753Z AUTO 00000KT 10SM SCT050 M01/M03 A2984 RMK AO2 SLP112 T10111028 400501011=
200703010653 METAR KBLI 010653Z AUTO 00000KT 10SM BKN039 OVC050 M01/M03 A2982 RMK AO2 SLP108 T10111028=
200703010553 METAR KBLI 010553Z 13004KT 10SM FEW048 BKN060 OVC110 M01/M03 A2981 RMK AO2 SNE02 SLP105 P0000 60001 T10111028 10033 21011 53017=
200703010453 METAR KBLI 010453Z 31006KT 4SM -SN FEW016 BKN035 OVC070 00/M03 A2980 RMK AO2 SNB41 SLP100 P0000 T00001028=
200703010353 METAR KBLI 010353Z 17007KT 10SM BKN060 BKN100 01/M02 A2977 RMK AO2 SLP089 T00111017=
200703010253 METAR KBLI 010253Z 11004KT 10SM FEW019 00/M01 A2976 RMK AO2 FZRAE0155SNB0155E0156 SLP089 P0000 60001 T00001011 51014=

# No short TAF reports from KBLI in databse.

###################################
#  large TAF from KBLI
###################################
200703312320 TAF KBLI 312320Z 010024 VRB04KT P6SM SCT030 FM1000 20005KT P6SM
                       BKN020 FM1700 22008KT P6SM VCSH BKN030=
200703311734 TAF KBLI 311734Z 311818 VRB05KT P6SM VCSH BKN020 OVC040 FM2000
                       33008KT P6SM SCT020 BKN050 BKN150 FM0000
                       33006KT P6SM SCT050 FM1000 20005KT P6SM
                       BKN020 FM1700 22008KT P6SM VCSH BKN030=
200703311121 TAF KBLI 311121Z 311212 VRB05KT P6SM -RA SCT017 BKN030 FM1800 19006KT
                       P6SM SCT030 BKN070 FM0200 19007KT P6SM SCT040
                       FM0800 19006KT P6SM SCT035 BKN060=
200703310602 KBLI 310602Z 310606 27005KT P6SM -RA SCT017 OVC040
                      TEMPO 0610 BKN010 OVC030 FM1000 VRB05KT P6SM
                       -SHRA BKN030 BKN050 FM1900 22008KT P6SM
                       SCT030 FM0300 19006KT P6SM SCT040=
200703310520 TAF KBLI 310520Z 310606 27005KT P6SM -RA OVC040 FM1200 VRB05KT
                       P6SM -SHRA BKN030 BKN050 FM1900 22008KT
                       P6SM SCT030 FM0300 19006KT P6SM SCT040=
200703302320 TAF KBLI 302320Z 310024 21010KT P6SM SCT040 BKN070 FM0600 18008KT
                       P6SM -RA OVC040 FM1200 VRB05KT P6SM -SHRA
                       BKN025 BKN050 FM1800 30008KT P6SM SCT030=
200703301720 TAF KBLI 301720Z 301818 21010KT P6SM SCT040 BKN080 FM0400 18008KT
                       P6SM -RA OVC040 FM1200 VRB05KT P6SM -SHRA
                       BKN025 BKN050 FM1500 30008KT P6SM VCSH BKN030=
200703301120 TAF KBLI 301120Z 301212 VRB04KT P6SM SCT120 BKN200 FM1700 18007KT
                       P6SM BKN080 OVC120 FM2200 19010KT P6SM BKN060
                       OVC100
                      PROB30 2303 -RA FM0300 19006KT P6SM -RA OVC045=
200703300521 TAF KBLI 300521Z 300606 VRB05KT P6SM SCT120 BKN200 FM1600 18008KT
                       P6SM BKN080 OVC120
                      PROB30 1822 -RA FM2200 19010KT P6SM -RA OVC050=
200703292325 TAF KBLI 292325Z 300024 VRB05KT P6SM BKN200 FM0600 21006KT P6SM
                       SCT060 BKN200 FM1700 18008KT P6SM BKN060
                       BKN120=
200703291720 TAF KBLI 291720Z 291818 VRB04KT P6SM BKN200 FM2000 24006KT P6SM
                       BKN200 FM0600 21006KT P6SM BKN120 OVC200
                       FM1500 18008KT P6SM BKN060 BKN120=
200703291124 TAF KBLI 291124Z 291212 05005KT P6SM SCT120 BKN200 FM1900 11007KT
                       P6SM SCT120 BKN200 FM0400 15007KT P6SM BKN120
                       OVC200=
200703290520 TAF KBLI 290520Z 290606 VRB05KT P6SM BKN200 FM1900 16007KT P6SM
                       SCT120 BKN200=
200703282323 TAF KBLI 282323Z 290024 20006KT P6SM BKN250 FM0300 VRB03KT P6SM
                       BKN250 FM0900 04005KT P6SM BKN250 FM1800
                       15008KT P6SM BKN200=
200703281736 TAF KBLI 281736Z 281818 18007KT P6SM SCT035 BKN250 FM2100 20006KT
                       P6SM SCT045 BKN250 FM0300 VRB03KT P6SM BKN200
                       FM1200 15006KT P6SM BKN200=
200703281546 KBLI 281546Z 281612 17008KT P6SM SCT020 SCT035
                      TEMPO 1618 BKN020 BKN035 FM1800 18007KT P6SM
                       SCT035 BKN200 FM2200 20006KT P6SM SCT045
                       BKN200 FM0300 VRB03KT P6SM BKN200=
200703281120 TAF KBLI 281120Z 281212 00000KT P6SM OVC060 FM1600 15007KT P6SM
                       OVC060 FM2200 20006KT P6SM SCT045 FM0300
                       VRB03KT P6SM SKC=
200703280527 TAF KBLI 280527Z 280606 17008KT P6SM BKN050 BKN080 FM1200 19004KT
                       P6SM BKN200=
200703272345 TAF KBLI 272345Z 280024 30006KT P6SM SCT050
                      TEMPO 0002 BKN050 FM0300 21006KT P6SM SCT060
                       FM1200 19004KT P6SM BKN200=
200703271741 TAF KBLI 271741Z 271818 30010KT P6SM SCT050 FM0300 21006KT P6SM
                       SCT060=
200703271120 TAF KBLI 271120Z 271212 30006KT P6SM SCT015
                      TEMPO 1216 BKN015 FM1800 30010KT P6SM SCT050
                       FM0300 18006KT P6SM SCT060=
200703270926 KBLI 270926Z 270906 30006KT P6SM SCT100 BKN200 FM2200 30010KT P6SM
                       SCT060 FM0300 18006KT P6SM SCT060=
200703270521 TAF KBLI 270521Z 270606 15004KT P6SM SKC FM0900 20012KT P6SM SCT100
                       BKN200 FM2200 29010KT P6SM SCT060 FM0300
                       18006KT P6SM SCT060=
200703262326 TAF KBLI 262326Z 270024 02012KT P6SM SCT100 FM0300 04006KT P6SM
                       SCT100 BKN200 FM0900 26006KT P6SM SCT100
                       BKN200=
200703261736 TAF KBLI 261736Z 261818 05007KT P6SM BKN200 FM2000 04005KT P6SM
                       BKN090 BKN200 FM0300 29005KT P6SM VCSH BKN090
                       BKN200 FM0900 21006KT P6SM BKN060 BKN090=
200703261120 TAF KBLI 261120Z 261212 03006KT P6SM SKC FM1500 03004KT P6SM SCT250
                       FM2100 33007KT P6SM SCT050 SCT250 FM0300
                       VRB03KT P6SM SCT050 SCT250 FM0800 18006KT
                       P6SM BKN035=
200703260520 TAF KBLI 260520Z 260606 00000KT P6SM FEW070 SCT250 FM1500 03004KT
                       P6SM SCT250 FM2100 33007KT P6SM SCT050 SCT250
                       FM0300 VRB03KT P6SM SCT050 SCT250=
200703252322 TAF KBLI 252322Z 260024 18005KT P6SM SCT035 BKN060 FM0400 VRB03KT
                       P6SM SCT040 SCT060 FM1500 03004KT P6SM SCT250
                       FM2100 33007KT P6SM SCT250=
200703251731 TAF KBLI 251731Z 251818 17009KT P6SM SCT030 FM2200 22005KT P6SM
                       SCT040 SCT060 FM0600 VRB03KT P6SM SCT040
                       SCT060 FM1500 03004KT P6SM SCT250=
200703251120 TAF KBLI 251120Z 251212 00000KT P6SM SCT030 FM2200 22005KT P6SM
                       SCT040 SCT060 FM0400 18005KT P6SM SCT040
                       SCT060=
200703250923 KBLI 250923Z 250906 17003KT P6SM SCT026 OVC060
                      TEMPO 0913 BKN026 OVC060 FM1600 18003KT P6SM
                       SCT060 SCT100 FM2200 22005KT P6SM SCT040
                       SCT060 FM0400 18005KT P6SM SCT040 SCT060=
200703250530 TAF KBLI 250530Z 250606 19006KT P6SM BKN060 OVC100 FM1400 18006KT
                       P6SM SCT060 SCT100 FM2200 22005KT P6SM SCT040
                       SCT060 FM0400 18005KT P6SM SCT040 SCT060=
200703242342 TAF KBLI 242342Z 250024 20012G18KT P6SM -RA SCT025 OVC050
                      TEMPO 0204 -RA BKN025 OVC050 FM0400 20010KT
                       P6SM -SHRA BKN020 BKN040 FM0600 19010KT
                       P6SM VCSH SCT025 BKN045=
200703241739 TAF KBLI 241739Z 241818 16020G30KT 5SM -RA BKN015 OVC025 FM0400
                       19014KT P6SM -SHRA BKN020 BKN040 FM0800
                       19010KT P6SM VCSH SCT020 BKN040=
200703241501 TAF AMD KBLI 241501Z 241512 18010KT 5SM -RA SCT020 BKN040 OVC060
                       FM1800 16025G35KT 5SM -RA BR BKN025 OVC040
                       FM0400 19018G28KT P6SM -SHRA BKN020 BKN045=
200703241125 TAF KBLI 241125Z 241212 17016G23KT P6SM -RA BKN021 OVC060 FM1500
                       16025G35KT 5SM -RA BR BKN025 OVC050 FM0400
                       19018G28KT P6SM -SHRA BKN020 BKN045=
200703240938 KBLI 240938Z 241006 17016G23KT P6SM -RA BKN023 BKN040 OVC060 FM1600
                       16025G35KT 5SM -RA BR BKN025 OVC050 FM0400
                       18018G28KT 4SM -RA BR OVC020=
200703240809 KBLI 240809Z 240806 17012KT P6SM -RA FEW015 SCT025 OVC060
                      TEMPO 0812 SCT015 BKN025 OVC060 FM1600 16025G35KT
                       5SM -RA BR BKN025 OVC050 FM0400 18018G28KT
                       4SM -RA BR OVC020=
200703240527 TAF KBLI 240527Z 240606 17018G23KT P6SM -RA OVC023 FM1100 15012KT
                       P6SM -SHRA BKN020 OVC050 FM1700 16025G35KT
                       5SM -RA BR BKN025 OVC050 FM0400 18018G28KT
                       4SM -RA BR OVC020=
200703232320 TAF KBLI 232320Z 240024 17015G25KT P6SM -RA SCT015 BKN025 OVC035
                       TEMPO 0004 3SM -RA BR BKN012 OVC022 FM0900
                       15012KT P6SM -SHRA OVC020 FM1600 16012KT
                       P6SM VCSH OVC025=
200703231737 TAF KBLI 231737Z 231818 17012G18KT P6SM SCT025 BKN035 OVC050
                      TEMPO 1822 6SM -RA SCT015 BKN025 OVC035 FM2200
                       16012KT 5SM -RA BR SCT012 BKN022 OVC030
                       FM0900 15009KT P6SM -SHRA OVC020 FM1600
                       16012KT P6SM VCSH OVC025=
200703231316 KBLI 231316Z 231312 14008KT 6SM BR SCT025 OVC050
                      TEMPO 1317 4SM -RA BR BKN025 OVC050 FM1700
                       19008KT P6SM -RA BKN025 OVC050 FM0500 15009KT
                       P6SM VCSH OVC020=
200703231244 KBLI 231244Z 231312 14008KT 6SM BR SCT025 OVC050
                      TEMPO 1317 BKN025 OVC050 FM1700 19008KT P6SM
                       -RA BKN025 OVC050 FM0500 15009KT P6SM VCSH
                       OVC020=
200703231124 TAF KBLI 231124Z 231212 14008KT P6SM VCSH SCT025 BKN050 BKN080
                       FM1800 19008KT P6SM -RA BKN025 OVC050 FM0500
                       15009KT P6SM VCSH OVC020=
200703230531 TAF KBLI 230531Z 230606 14007KT P6SM -RA OVC045 FM1800 19008KT
                       P6SM -RA BKN025 OVC050=
200703222320 TAF KBLI 222320Z 230024 16010KT P6SM -RA OVC025 FM0800 19008KT
                       P6SM VCSH BKN025 BKN050 BKN100=
200703221720 TAF KBLI 221720Z 221818 16010KT P6SM -RA BKN025 OVC050 FM0300 19008KT
                       P6SM VCSH BKN025 BKN050 BKN100=
200703221317 TAF AMD KBLI 221317Z 221312 17009KT P6SM SCT025 OVC040
                      TEMPO 1317 -RA BKN025 OVC040 FM1700 17011KT
                       P6SM -RA BKN025 OVC040 FM0200 17007KT P6SM
                       VCSH BKN018 OVC025=
200703221120 TAF KBLI 221120Z 221212 16007KT P6SM -RA OVC021 FM0200 17007KT
                       P6SM VCSH BKN018 OVC025=
200703220523 TAF KBLI 220523Z 220606 35005KT P6SM -RA OVC035 FM1000 15008KT
                       P6SM -RA OVC030 FM0200 17007KT P6SM VCSH
                       BKN018 OVC025=
200703212333 TAF KBLI 212333Z 220024 17010KT P6SM SCT025 BKN035 OVC045 FM0200
                       17012KT P6SM -RA BKN035 OVC050 FM0800 17007KT
                       5SM -RA BR SCT012 OVC022 FM1500 17007KT
                       P6SM VCSH BKN018 OVC025=
200703211728 TAF KBLI 211728Z 211818 17006KT P6SM SCT025 BKN035 OVC045 FM0200
                       17008KT P6SM -RA BKN035 OVC050 FM0800 17007KT
                       5SM -RA BR SCT012 OVC022=
200703211120 TAF KBLI 211120Z 211212 16004KT P6SM SCT060 FM1700 17006KT P6SM
                       BKN050 OVC120 FM0000 17008KT P6SM -RA BKN035
                       OVC050=
200703210544 TAF KBLI 210544Z 210606 21003KT P6SM SCT200 FM0900 19004KT P6SM
                       BKN050 FM1700 17011KT P6SM BKN050 OVC080=
200703202327 TAF KBLI 202327Z 210024 27008KT P6SM SCT070 FM0600 21005KT P6SM
                       SCT070 FM0900 19004KT P6SM BKN050 FM1700
                       17011KT P6SM BKN050 OVC080
                      PROB30 1824 -RA=
200703201739 TAF KBLI 201739Z 201818 23008KT P6SM SCT050 FM2100 23010KT P6SM
                       VCSH BKN030 BKN050
                      TEMPO 2302 -SHRA BKN025 OVC050 FM0400 21005KT
                       P6SM SCT030 BKN060=
200703201120 TAF KBLI 201120Z 201212 20008KT P6SM VCSH SCT040 BKN080 OVC120
                       FM1800 24012KT P6SM VCSH BKN030 OVC050 FM0600
                       18005KT P6SM BKN120 BKN200=
200703200532 TAF KBLI 200532Z 200606 18014G21KT P6SM -SHRA OVC028 FM1100 21015G25KT
                       P6SM VCSH BKN015 OVC030 FM1800 24012KT P6SM
                       -SHRA BKN030 OVC050=
200703192334 TAF KBLI 192334Z 200024 16010KT P6SM VCSH SCT015 BKN100
                      TEMPO 0002 -RA BKN015 OVC030 FM0500 16015G25KT
                       P6SM -SHRA BKN025 OVC040 FM1100 21015G25KT
                       P6SM -SHRA BKN015 OVC030 FM1600 24012KT
                       P6SM -SHRA BKN030 OVC050=
200703191735 TAF KBLI 191735Z 191818 17015G25KT P6SM SCT025 BKN050 OVC090
                      TEMPO 1821 -RA BKN025 OVC050 FM2100 20015G25KT
                       P6SM VCSH SCT025 BKN050 OVC070
                      TEMPO 2123 BKN025 OVC050 FM0400 18013G22KT
                       P6SM -SHRA BKN025 OVC040 FM1000 20013G20KT
                       P6SM SCT025 BKN040
                      TEMPO 1012 -SHRA BKN025 OVC040=
200703191649 KBLI 191649Z 191712 17015G23KT P6SM SCT025 OVC090 FM1900 17015G25KT
                       P6SM SCT025 BKN050 OVC090
                      TEMPO 1922 -RA FM2200 20015G25KT P6SM -RA
                       BKN025 OVC040 FM0400 18013G22KT P6SM -SHRA
                       BKN025 OVC040 FM1000 20013G20KT P6SM SCT025
                       BKN040
                      TEMPO 1012 -SHRA BKN025 OVC040=
200703191120 TAF KBLI 191120Z 191212 16013G23KT P6SM OVC025
                      TEMPO 1215 -RA FM1500 16013G23KT 5SM -RA
                       BR OVC015 FM2200 18015G25KT 5SM -RA BR OVC015
                       FM0400 18013G22KT P6SM -SHRA BKN025 OVC040
                       FM1000 20013G20KT P6SM SCT025 BKN040
                      TEMPO 1012 -SHRA BKN025 OVC040=
200703191035 KBLI 191035Z 191106 16010KT P6SM OVC025
                      TEMPO 1115 -RA FM1500 15018G28KT 5SM -RA
                       BR OVC020 FM2100 18018G28KT 5SM -RA BR OVC012
                       FM0400 18012G22KT P6SM -RA BKN025 OVC040=
200703190540 TAF KBLI 190540Z 190606 06007KT P6SM OVC050 FM0900 10010KT P6SM
                       SCT025 OVC050
                      TEMPO 1215 -RA BKN025 OVC050 FM1500 15018G28KT
                       5SM -RA BR OVC020 FM2100 18018G28KT 5SM
                       -RA BR OVC012 FM0400 18012G22KT P6SM -RA
                       BKN025 OVC040=
200703182320 TAF KBLI 182320Z 190024 16006KT P6SM SCT030 BKN150 FM0900 16008KT
                       P6SM BKN030 OVC120 FM1800 16014G22KT P6SM
                       -RA OVC030=
200703182136 KBLI 182136Z 182218 20007KT P6SM SCT015 BKN045
                      TEMPO 2202 BKN015 OVC040 FM0800 16012KT P6SM
                       BKN030 OVC150 FM1700 16012G22KT P6SM -RA
                       OVC040=
200703182040 KBLI 182040Z 182118 18007KT P6SM BKN010 BKN030 FM2300 18007KT P6SM
                       SCT020 BKN200 FM1000 16012KT P6SM BKN040
                       OVC150 FM1700 16012G22KT P6SM -RA OVC040=
200703181721 TAF KBLI 181721Z 181818 18007KT P6SM SCT012 BKN050
                      TEMPO 1821 BKN012 FM0300 16010KT P6SM SCT040
                       BKN200 FM1000 16012KT P6SM BKN040 OVC150
                       FM1700 16012G22KT P6SM -RA OVC040=
200703181134 TAF KBLI 181134Z 181212 19006KT 4SM -DZ BR SCT008 OVC025
                      TEMPO 1214 2SM -DZ BR BKN008 OVC025 FM1400
                       19006KT 6SM BR OVC030
                      TEMPO 1418 6SM -DZ BR FM1800 22006KT P6SM
                       BKN060 OVC130 FM0200 17006KT P6SM SCT060
                       OVC130
                      PROB30 0912 -RA OVC060=
200703180926 KBLI 180926Z 180906 19006KT 5SM -RA BR FEW006 OVC020
                      TEMPO 0912 BKN006 OVC020 FM1200 19006KT 5SM
                       BR SCT006 OVC020
                      TEMPO 1214 3SM -DZ BR BKN006 OVC020 FM1400
                       VRB03KT P6SM OVC020 FM1800 VRB03KT P6SM
                       BKN030 OVC060 FM2100 23006KT P6SM BKN060
                       OVC130 FM0200 17006KT P6SM BKN060 OVC130=
200703180738 TAF AMD KBLI 180738Z 180806 19006KT 5SM BR FEW003 OVC010
                      TEMPO 0812 2SM -DZ BR BKN003 OVC010 FM1400
                       VRB03KT P6SM OVC020 FM1800 VRB03KT P6SM
                       BKN030 OVC060 FM2100 23006KT P6SM BKN060
                       OVC130 FM0200 17006KT P6SM BKN060 OVC130=
200703180538 TAF KBLI 180538Z 180606 19008KT P6SM BKN010 OVC030
                      TEMPO 0610 4SM -DZ BR FM1000 19006KT 4SM
                       BR OVC010
                      TEMPO 1014 4SM -DZ BR FM1400 VRB03KT P6SM
                       OVC020 FM1800 VRB03KT P6SM BKN030 OVC060
                       FM2100 23006KT P6SM BKN060 OVC130 FM0200
                       17006KT P6SM BKN060 OVC130=
200703180429 KBLI 180429Z 180424 19006KT P6SM SCT010 OVC060
                      TEMPO 0408 4SM -RA BR BKN010 OVC030 FM1600
                       18005KT P6SM SCT015 BKN030 FM2000 21005KT
                       P6SM SCT030 BKN050=
200703180203 TAF AMD KBLI 180203Z 180224 19006KT P6SM -RA BKN015 OVC040
                      TEMPO 0204 4SM RA BR OVC012 FM0400 23008KT
                       P6SM VCSH BKN015 BKN030 FM1600 18005KT P6SM
                       SCT015 BKN030 FM2000 21005KT P6SM SCT030
                       BKN050=
200703172321 TAF KBLI 172321Z 180024 23004KT 5SM -RA BR SCT020 OVC040
                      TEMPO 0004 2SM -RA BR OVC020 FM0400 23008KT
                       P6SM VCSH BKN015 BKN030 FM1600 18005KT P6SM
                       SCT015 BKN030 FM2000 21005KT P6SM SCT030
                       BKN050=
200703172300 KBLI 180429Z 180424 19006KT P6SM SCT010 OVC060
                      TEMPO 0408 4SM -RA BR BKN010 OVC030 FM1600
                       18005KT P6SM SCT015 BKN030 FM2000 21005KT
                       P6SM SCT030 BKN050=
200703171720 TAF KBLI 171720Z 171818 15012KT 5SM -RA BR OVC035
                      TEMPO 2024 3SM -RA BR OVC025 FM0000 23008KT
                       P6SM VCSH BKN015 BKN030 FM1600 VRB05KT P6SM
                       SCT015 BKN030=
200703171140 TAF KBLI 171140Z 171212 17006KT 3SM BR SCT003 OVC040
                      TEMPO 1214 3/4SM -DZ BR BKN003 OVC040 FM1400
                       17009KT 3SM -RA BR SCT007 BKN015 OVC030
                       TEMPO 1417 BKN007 OVC015 FM1700 17013KT
                       5SM -RA BR OVC015 FM0100 19008KT 6SM BR
                       BKN015 OVC030
                      PROB30 0107 -RA=
200703171113 KBLI 171113Z 171106 17006KT 2SM -DZ BR SCT003 OVC040
                      TEMPO 1216 1/2SM -DZ FG BKN003 OVC040 FM1600
                       15008KT P6SM OVC050 FM1900 17011KT P6SM
                       -RA BKN020 OVC040=
200703170807 KBLI 170807Z 170806 VRB03KT 5SM BR BKN070 OVC130 FM1600 15008KT
                       P6SM OVC050 FM1900 17011KT P6SM -RA BKN020
                       OVC040=
200703170521 TAF KBLI 170521Z 170606 VRB03KT 6SM BR SCT050 BKN200 FM1000 VRB03KT
                       6SM BR SCT050 SCT130 BKN200 FM1600 15008KT
                       P6SM OVC050
                      PROB30 1619 -RA FM1900 17011KT P6SM -RA BKN020
                       OVC040=
200703170250 KBLI 170250Z 170324 05005KT P6SM FEW040 SCT100 OVC200
                      TEMPO 0306 FEW040 BKN100 OVC200 FM0800 16008KT
                       P6SM BKN040 OVC080 FM1600 18012KT P6SM -RA
                       OVC030=
200703162323 TAF KBLI 162323Z 170024 05005KT P6SM SCT040 BKN080 FM0600 16008KT
                       P6SM BKN040 OVC080 FM1600 18012KT P6SM -RA
                       OVC030=
200703162300 KBLI 170250Z 170324 05005KT P6SM FEW040 SCT100 OVC200
                      TEMPO 0306 FEW040 BKN100 OVC200 FM0800 16008KT
                       P6SM BKN040 OVC080 FM1600 18012KT P6SM -RA
                       OVC030=
200703161720 TAF KBLI 161720Z 161818 VRB05KT P6SM SCT005 BKN040 OVC080
                      TEMPO 1820 4SM -DZ BR BKN005 OVC040 FM2100
                       18008KT P6SM BKN050 BKN100 FM1000 18010KT
                       P6SM BKN025 OVC050
                      TEMPO 1418 5SM -RA BR OVC020=
200703161217 KBLI 161217Z 161212 04006KT 6SM -RA BR SCT003 SCT018 OVC035
                      TEMPO 1216 BKN003 BKN018 OVC035 FM1600 04006KT
                       6SM -RA BR SCT003 OVC015 FM1900 10009KT
                       P6SM -RA BKN015 OVC030 FM2100 15012KT P6SM
                       BKN025 OVC050
                      TEMPO 2124 -RA FM0000 18012KT P6SM BKN050
                       OVC120
                      PROB30 0006 -RA FM0600 16008KT P6SM VCSH
                       BKN050 OVC120=
200703161139 TAF KBLI 161139Z 161212 04006KT 6SM -RA BR FEW003 SCT018 OVC035
                       TEMPO 1216 FEW003 BKN018 OVC035 FM1600 04006KT
                       6SM -RA BR SCT003 OVC015 FM1900 10009KT
                       P6SM -RA BKN015 OVC030 FM2100 15012KT P6SM
                       BKN025 OVC050
                      TEMPO 2124 -RA FM0000 18012KT P6SM BKN050
                       OVC120
                      PROB30 0006 -RA FM0600 16008KT P6SM VCSH
                       BKN050 OVC120=
200703160852 KBLI 160852Z 160906 05008KT P6SM -RA OVC050 FM1200 13012KT P6SM
                       -RA OVC030 FM1400 17015G22KT 6SM -RA BR
                       OVC012 FM1800 18015KT 6SM -RA BR OVC012
                       FM2200 19013KT P6SM -RA OVC025 FM0200 19009KT
                       P6SM BKN035 OVC070
                      PROB30 0206 -RA=
200703160546 TAF KBLI 160546Z 160606 05008KT P6SM -RA OVC030 FM1100 13012KT
                       P6SM -RA OVC020 FM1400 17015G22KT 6SM -RA
                       BR OVC012 FM1800 18015KT 6SM -RA BR OVC012
                       FM2200 19013KT P6SM -RA OVC025 FM0200 19009KT
                       P6SM BKN035 OVC070
                      PROB30 0206 -RA=
200703160228 TAF AMD KBLI 160228Z 160224 04006KT P6SM -RA SCT025 OVC040
                      TEMPO 0206 BKN025 OVC040 FM0600 15005KT P6SM
                       -RA BKN030 OVC050 FM1900 15010KT P6SM SCT035
                       BKN060=
200703152320 TAF KBLI 152320Z 160024 04005KT P6SM OVC080 FM0200 04006KT P6SM
                       -RA BKN050 OVC080 FM0600 15005KT P6SM -RA
                       BKN030 OVC050 FM1900 15010KT P6SM SCT035
                       BKN060=
200703152300 KBLI 160228Z 160224 04006KT P6SM -RA SCT025 OVC040
                      TEMPO 0206 BKN025 OVC040 FM0600 15005KT P6SM
                       -RA BKN030 OVC050 FM1900 15010KT P6SM SCT035
                       BKN060=
200703152225 KBLI 152225Z 152218 03003KT P6SM BKN060 OVC090 FM0000 VRB03KT P6SM
                       BKN050 OVC080
                      TEMPO 0003 -RA FM0300 05004KT P6SM BKN045
                       OVC070
                      TEMPO 0307 -RA FM0700 15005KT P6SM BKN030
                       OVC050=
200703151740 TAF KBLI 151740Z 151818 VRB03KT P6SM BKN110 OVC150 FM2100 01004KT
                       P6SM BKN080 OVC120 FM0200 04004KT P6SM BKN050
                       OVC080
                      TEMPO 0206 -RA FM0600 15005KT P6SM BKN040
                       OVC070=
200703151122 TAF KBLI 151122Z 151212 VRB03KT P6SM FEW070 SCT130 OVC200 FM1800
                       04006KT P6SM FEW070 BKN130 OVC200 FM0000
                       07006KT P6SM BKN070 OVC130
                      PROB30 0006 -RA FM0600 10009KT P6SM -RA OVC070
                       FM0900 13011KT P6SM -RA OVC040=
200703150817 TAF AMD KBLI 150817Z 150806 VRB03KT P6SM SCT070 BKN200
                      TEMPO 0812 BKN070 BKN200 FM1800 02006KT P6SM
                       SCT040 BKN100 OVC200 FM0000 02006KT P6SM
                       BKN070 OVC130
                      PROB30 0306 -RA OVC040=
200703150540 TAF KBLI 150540Z 150606 VRB03KT P6SM FEW070 BKN200 FM1800 02006KT
                       P6SM SCT040 BKN100 OVC200 FM0000 02006KT
                       P6SM BKN070 OVC130
                      PROB30 0306 -RA OVC040=
200703142320 TAF KBLI 142320Z 150024 32006KT P6SM SKC FM0400 36003KT P6SM SKC
                       FM1800 02005KT P6SM BKN150=
200703141732 TAF KBLI 141732Z 141818 24008KT P6SM SCT050 FM0200 VRB03KT P6SM
                       SCT050=
200703141144 TAF KBLI 141144Z 141212 23007KT P6SM VCSH SCT040 BKN080
                      TEMPO 1216 BKN040 OVC080 FM1800 22010KT P6SM
                       BKN050 FM0200 VRB03KT P6SM SCT050 BKN150=
200703140537 TAF KBLI 140537Z 140606 19008KT P6SM -SHRA SCT016 BKN035 OVC070
                       TEMPO 0610 BKN016 OVC035 FM1000 18010KT
                       P6SM VCSH SCT025 BKN050 FM1800 22010KT P6SM
                       SCT030 SCT050 BKN150=
200703132340 TAF KBLI 132340Z 140024 20010KT P6SM VCSH SCT030 BKN050 BKN080
                       TEMPO 0103 -SHRA BKN030 OVC050 FM0500 19012KT
                       P6SM -SHRA SCT025 BKN045 OVC060
                      TEMPO 0509 BKN025 OVC045 FM0900 18010KT P6SM
                       VCSH SCT025 BKN050 FM1300 24010KT P6SM SCT030
                       SCT050 BKN150=
200703131739 TAF KBLI 131739Z 131818 18010KT P6SM VCSH SCT030 SCT050 BKN080
                       TEMPO 1822 -SHRA SCT030 BKN040 BKN080 FM2200
                       19012KT P6SM SCT030 BKN050 BKN080
                      TEMPO 2202 -SHRA FM0500 17012KT P6SM -SHRA
                       SCT025 BKN045 OVC060 FM0900 18010KT P6SM
                       SCT025 BKN060=
200703131140 TAF KBLI 131140Z 131212 18008KT P6SM -SHRA SCT020 BKN040 OVC060
                       TEMPO 1216 BKN020 OVC040 FM0000 17012KT
                       P6SM -SHRA BKN025 OVC040=
200703130534 TAF KBLI 130534Z 130606 VRB05KT P6SM OVC080 FM1000 19006KT P6SM
                       BKN035 BKN050 FM1600 22008KT P6SM VCSH BKN035
                       OVC060=
200703122335 TAF KBLI 122335Z 130024 22007KT P6SM BKN070 OVC150 FM0300 19005KT
                       P6SM SCT070 BKN150 FM1200 19005KT P6SM VCSH
                       BKN040 OVC070=
200703121739 TAF KBLI 121739Z 121818 25005KT P6SM BKN070 BKN150 FM2300 22005KT
                       P6SM SCT070 FM0600 20006KT P6SM BKN050=
200703121125 TAF KBLI 121125Z 121212 19012KT P6SM SCT025 BKN035 BKN060
                      TEMPO 1216 BKN025 BKN035 FM1600 21009KT P6SM
                       SCT035 BKN050 FM2000 18004KT P6SM SCT035
                       SCT050 FM0600 25008KT P6SM OVC050=
200703120525 TAF KBLI 120525Z 120606 19012KT P6SM -RA BKN009 OVC020
                      TEMPO 0607 4SM RA BR FM0800 21008KT P6SM
                       -SHRA BKN020 BKN050 FM1800 21009KT P6SM
                       VCSH SCT035 BKN050 FM2000 18004KT P6SM SCT050=
200703112333 TAF KBLI 112333Z 120024 17023G34KT P6SM -RA SCT028 BKN050 OVC070
                       TEMPO 0105 3SM -RA BR OVC012 FM0500 20008KT
                       P6SM -SHRA OVC020 FM1500 18008KT P6SM BKN020
                       BKN050 FM2000 18004KT P6SM SCT050=
200703112131 TAF AMD KBLI 112131Z 112218 18024G35KT P6SM -RA OVC020
                      TEMPO 2303 4SM -RA BR OVC012 FM0300 20015KT
                       P6SM -RA OVC020 FM0600 20008KT P6SM VCSH
                       BKN020 BKN050 FM1500 18008KT P6SM VCSH BKN020
                       BKN050=
200703111733 TAF KBLI 111733Z 111818 18020G28KT 4SM -RA BR OVC018 FM0300 20015KT
                       P6SM -RA OVC020 FM0600 20008KT P6SM VCSH
                       BKN020 BKN050 FM1500 18008KT P6SM VCSH BKN020
                       BKN050=
200703111129 TAF KBLI 111129Z 111212 15020G30KT P6SM -RA SCT018 OVC050
                      TEMPO 1317 4SM -RA BR BKN018 OVC040 FM0300
                       20015KT P6SM -RA OVC020 FM0600 20013KT P6SM
                       OVC050=
200703110527 TAF KBLI 110527Z 110606 15012G25KT P6SM -RA BKN025 OVC045 FM1200
                       15022G35KT 5SM -RA BR BKN018 OVC030=
200703102331 TAF KBLI 102331Z 110024 16022G35KT P6SM -RA SCT035 OVC045 FM0700
                       15022G35KT 5SM -RA BR BKN018 OVC030=
200703102133 KBLI 102133Z 102218 16025G37KT P6SM SCT030 OVC080 FM0000 15022G32KT
                       P6SM -RA BKN030 OVC060 FM0400 15022G32KT
                       5SM -RA BR BKN018 OVC030=
200703101821 KBLI 101821Z 101818 15016G24KT P6SM OVC030 FM0000 15014G25KT P6SM
                       -RA OVC030 FM0400 15015G28KT 5SM -RA BR
                       BKN018 OVC030=
200703101724 TAF KBLI 101724Z 101818 16013KT P6SM OVC029 FM0000 15014G25KT P6SM
                       -RA OVC035 FM0400 15015G28KT 5SM -RA BR
                       BKN018 OVC030=
200703101120 TAF KBLI 101120Z 101212 17010KT P6SM SCT016 OVC030
                      TEMPO 1214 BKN016 OVC030 FM1400 17008KT P6SM
                       SCT016 OVC030
                      TEMPO 1418 BKN016 OVC030 FM1800 15012KT P6SM
                       BKN035 BKN050 FM2200 15014G25KT P6SM -RA
                       OVC035 FM0300 15014G25KT 5SM -RA BR BKN018
                       OVC030=
200703100531 TAF KBLI 100531Z 100606 17010KT P6SM SCT018 BKN030 FM1000 17008KT
                       P6SM SCT016 OVC030
                      TEMPO 1014 BKN016 OVC030 FM1400 17008KT P6SM
                       SCT016 OVC030
                      TEMPO 1418 BKN016 OVC030 FM1800 15012KT P6SM
                       BKN035 BKN050 FM2200 15014G25KT P6SM -RA
                       OVC035 FM0300 15014G25KT 5SM -RA BR BKN018
                       OVC030=
200703092324 TAF KBLI 092324Z 100024 18011KT P6SM BKN050 OVC080 FM0200 20008KT
                       P6SM VCSH BKN035 FM0500 18008KT P6SM SCT020
                       BKN035 FM1600 15012KT P6SM BKN035 BKN050
                       FM2200 15014G25KT P6SM -RA OVC035=
200703092311 KBLI 092311Z 092318 18011KT P6SM -SHRA BKN045 OVC070 FM0200 20008KT
                       P6SM VCSH BKN035 FM0500 18008KT P6SM SCT020
                       BKN035 FM1600 15012KT P6SM BKN035 BKN050=
200703091720 TAF KBLI 091720Z 091818 15014KT P6SM -SHRA OVC035 FM0200 20012KT
                       P6SM VCSH BKN035 FM0500 18008KT P6SM SCT020
                       BKN035 FM1600 15012KT P6SM BKN035 BKN050=
200703091128 TAF KBLI 091128Z 091212 15015G25KT P6SM VCSH SCT030 BKN050
                      TEMPO 1620 -SHRA BKN025 OVC050 FM0000 20012KT
                       P6SM VCSH BKN030=
200703090522 TAF KBLI 090522Z 090606 18015G25KT P6SM VCSH BKN025 OVC050 FM1200
                       15015KT P6SM VCSH BKN025 BKN050 FM1900 15017G27KT
                       P6SM -RA BKN025 OVC050
                      TEMPO 2202 5SM -RA BR OVC020 FM0200 23012KT
                       P6SM VCSH BKN030=
200703082348 TAF KBLI 082348Z 090024 17014G24KT P6SM -RA BKN030 OVC040 FM0200
                       17012G22KT P6SM -RA BKN022 OVC030 FM0800
                       15008KT P6SM -RA BKN025 OVC040 FM1600 13008KT
                       P6SM -RA BKN020 OVC035=
200703081747 TAF KBLI 081747Z 081818 19014G24KT P6SM VCSH SCT030 BKN040 OVC070
                       TEMPO 1822 -SHRA BKN030 BKN040 OVC070 FM0200
                       16012KT P6SM -RA BKN045 OVC070 FM1200 15007KT
                       P6SM -RA BKN040 OVC060=
200703081126 TAF KBLI 081126Z 081212 19012G22KT P6SM VCSH SCT022 BKN045 BKN100
                       TEMPO 1216 -SHRA BKN022 OVC045 FM0600 19012KT
                       P6SM -SHRA BKN030 OVC080=
200703080526 TAF KBLI 080526Z 080606 18012KT P6SM VCSH BKN040 BKN100
                      TEMPO 0610 5SM -SHRA BKN020 OVC040 FM2000
                       17015G25KT P6SM -SHRA BKN025 OVC050=
200703080201 TAF AMD KBLI 080201Z 080224 17008KT P6SM SCT040 OVC070
                      TEMPO 0206 4SM -SHRA BR BKN030 OVC050 FM0600
                       17013KT P6SM VCSH SCT030 BKN050 FM2200 17018G25KT
                       6SM -SHRA SCT020 BKN030=
200703072340 TAF KBLI 072340Z 080024 15006KT P6SM SCT060 FM0130 17008KT 4SM
                       -SHRA BR SCT020 BKN030 FM0300 17009KT P6SM
                       VCSH SCT050 BKN080 FM0500 17013KT P6SM VCSH
                       SCT030 BKN050
                      TEMPO 0509 5SM -SHRA SCT020 BKN030 FM2200
                       17018G25KT 6SM -SHRA SCT020 BKN030=
200703072300 KBLI 080201Z 080224 17008KT P6SM SCT040 OVC070
                      TEMPO 0206 4SM -SHRA BR BKN030 OVC050 FM0600
                       17013KT P6SM VCSH SCT030 BKN050 FM2200 17018G25KT
                       6SM -SHRA SCT020 BKN030=
200703071928 KBLI 071928Z 071918 18014KT P6SM -SHRA SCT006 BKN015 OVC030
                      TEMPO 1923 3SM -SHRA BR BKN006 OVC015 FM0000
                       17009KT P6SM FEW050 FM0300 17008KT P6SM
                       VCSH SCT035 BKN050 FM1600 16016KT P6SM BKN050
                       OVC070=
200703071737 TAF KBLI 071737Z 071818 18014KT P6SM -SHRA BKN015 OVC030 FM2100
                       19011KT P6SM SCT035 BKN060
                      TEMPO 2123 -SHRA FM0000 17009KT P6SM FEW050
                       FM0300 17008KT P6SM VCSH SCT035 BKN050 FM1600
                       16016KT P6SM BKN050 OVC070=
200703071124 TAF KBLI 071124Z 071212 18012G18KT P6SM -RA SCT040 OVC060
                      TEMPO 1216 BKN035 FM1600 18010KT P6SM -RA
                       SCT015 BKN030 OVC040 FM2000 17009KT P6SM
                       VCSH SCT035 BKN050 FM0400 18008KT P6SM VCSH
                       BKN050=
200703070535 TAF KBLI 070535Z 070606 20008KT P6SM SCT060 OVC100 FM0900 18012G18KT
                       P6SM SCT045 OVC070
                      TEMPO 0913 -RA BKN035 FM1300 17008KT P6SM
                       -RA SCT015 BKN030 OVC040 FM1900 17006KT
                       P6SM VCSH SCT035 BKN050 FM2300 18008KT P6SM
                       VCSH BKN050=
200703062343 TAF KBLI 062343Z 070024 15008KT P6SM SCT080 OVC120 FM1000 15012G18KT
                       P6SM SCT045 OVC070 FM1400 17008KT P6SM -RA
                       SCT012 BKN025 OVC040 FM1800 17006KT P6SM
                       SCT035 BKN050 FM2200 18008KT P6SM SCT050=
200703061742 TAF KBLI 061742Z 061818 05005KT P6SM SCT100 BKN200 FM0200 13009KT
                       P6SM SCT080 BKN120 FM0900 15014G20KT P6SM
                       -RA SCT030 OVC050 FM1300 17008KT P6SM -RA
                       SCT012 BKN025 OVC040 FM1700 17006KT P6SM
                       SCT035 BKN050=
200703061134 TAF KBLI 061134Z 061212 VRB04KT P6SM SCT120 BKN200 FM1600 14006KT
                       P6SM SCT080 BKN120 FM0100 13011KT P6SM VCSH
                       SCT070 OVC100 FM0700 13013KT P6SM -RA SCT040
                       OVC060=
200703060932 TAF AMD KBLI 060932Z 061006 04005KT 4SM BR SCT100 BKN200
                      TEMPO 1014 1/2SM FG BKN002 FM1400 15006KT
                       3SM BR FEW001 SCT070 BKN120 FM1700 14008KT
                       P6SM SCT060 OVC100 FM2300 13012KT P6SM SCT050
                       OVC070 FM0200 13020KT P6SM -RA SCT030 OVC050=
200703060536 TAF KBLI 060536Z 060606 04005KT P6SM SCT100 BKN200 FM1500 15006KT
                       P6SM SCT070 BKN120 FM2300 13012KT P6SM SCT050
                       OVC070 FM0200 13020KT P6SM -RA SCT030 OVC050=
200703052338 TAF KBLI 052338Z 060024 04005KT P6SM BKN040 OVC070 FM0800 07004KT
                       P6SM SCT120 FM2000 13012KT P6SM SCT040 OVC070
                       FM2300 13020KT P6SM VCSH SCT030 OVC050=
200703051741 TAF KBLI 051741Z 051818 VRB03KT P6SM SCT030 BKN040 OVC060
                      TEMPO 1822 -SHRA FM0300 12006KT P6SM SCT050
                       BKN120 FM1500 14011KT P6SM BKN070=
200703051258 KBLI 051258Z 051312 00000KT 6SM -RA BR BKN028 OVC045 FM1800 12006KT
                       P6SM BKN050 BKN120 FM2200 12006KT P6SM SCT050
                       BKN150 FM0600 VRB04KT P6SM BKN200=
200703051120 TAF KBLI 051120Z 051212 05007KT P6SM -RA OVC050 FM1800 12008KT
                       P6SM SCT050 BKN120 FM0600 VRB04KT P6SM BKN200=
200703050532 TAF KBLI 050532Z 050606 VRB04KT P6SM OVC080 FM0900 14008KT P6SM
                       -RA OVC050 FM1500 20008KT P6SM BKN030 BKN080
                       FM2000 20008KT P6SM SCT040 BKN120=
200703042340 TAF KBLI 042340Z 050024 05004KT P6SM SCT100 OVC150 FM0400 05004KT
                       P6SM -RA SCT020 OVC040 FM0800 VRB05KT 5SM
                       -RA BR SCT012 BKN020 OVC035 FM1500 17005KT
                       P6SM -RA SCT009 BKN015 OVC030 FM1900 16006KT
                       P6SM SCT020 BKN040=
200703041745 TAF KBLI 041745Z 041818 02005KT P6SM FEW009 SCT100 OVC150 FM2200
                       05004KT P6SM SCT040 BKN060 OVC120 FM0200
                       05004KT 6SM -RA SCT020 OVC040 FM0800 VRB05KT
                       5SM -RA BR SCT012 BKN020 OVC035=
200703041418 KBLI 041418Z 041412 02005KT P6SM BKN003 OVC110 FM1600 02005KT P6SM
                       SCT003 OVC110
                      TEMPO 1618 BKN003 OVC110 FM1800 VRB03KT P6SM
                       SCT005 BKN110 FM0200 15008KT P6SM BKN050
                       OVC100 FM0600 15008KT 4SM -RA BR OVC030=
200703041120 TAF KBLI 041120Z 041212 VRB03KT 1SM BR OVC003
                      TEMPO 1216 1/4SM FG VV002 FM1800 VRB03KT
                       P6SM SCT005 BKN150 FM0200 15008KT P6SM BKN050
                       OVC100 FM0600 15008KT 4SM -RA BR OVC030=
200703040804 KBLI 040804Z 040806 04004KT 2SM BR BKN003
                      TEMPO 0812 1/4SM FG VV002 FM1600 06006KT
                       P6SM BKN150=
200703040700 KBLI 040700Z 040706 04004KT 5SM BR BKN018
                      TEMPO 0711 3SM BR OVC015 FM1600 06006KT P6SM
                       BKN150=
200703040524 TAF KBLI 040524Z 040606 04004KT 5SM BR BKN050
                      TEMPO 0610 3SM BR FM1000 04004KT 3SM BR SCT003
                       SCT050 BKN150
                      TEMPO 1014 1SM BR BKN003 FM1800 06006KT P6SM
                       BKN150=
200703032340 TAF KBLI 032340Z 040024 02004KT P6SM BKN012 OVC020 FM1000 02004KT
                       3SM BR SCT003 BKN012 FM1600 03004KT P6SM
                       SCT100 BKN200 FM2200 06005KT P6SM SCT040
                       BKN100=
200703031743 TAF KBLI 031743Z 031818 04004KT 4SM BR SCT004 BKN009 OVC015 FM2200
                       02004KT P6SM SCT010 OVC018 FM0700 02004KT
                       3SM BR SCT003 OVC010=
200703031404 KBLI 031404Z 031412 VRB04KT 3SM -DZ BR BKN007 OVC012
                      TEMPO 1418 1 1/2SM -DZ BR BKN003 OVC007 FM1800
                       18006KT P6SM BKN015 FM0000 VRB03KT P6SM
                       BKN040 FM0600 00000KT 3SM BR BKN010=
200703031126 TAF KBLI 031126Z 031212 VRB04KT 3SM -DZ BR SCT007 OVC015
                      TEMPO 1216 1 1/2SM -DZ BR BKN007 OVC012 FM1800
                       18006KT P6SM BKN015 FM0600 00000KT 3SM BR
                       BKN010=
200703031008 KBLI 031008Z 031006 VRB05KT 5SM -RA BR BKN008 OVC015
                      TEMPO 1014 2SM -DZ BR OVC005 FM1600 17007KT
                       5SM -DZ BR OVC015 FM2100 17007KT P6SM BKN015=
200703030526 TAF KBLI 030526Z 030606 VRB05KT P6SM -RA OVC025
                      TEMPO 0610 4SM -RA BR OVC018 FM1000 18010KT
                       P6SM -SHRA OVC015 FM1800 18006KT P6SM BKN020=
200703022330 TAF KBLI 022330Z 030024 04010KT P6SM -RA OVC035 FM0300 14012G20KT
                       P6SM -RA OVC030 FM0700 17012KT P6SM -SHRA
                       BKN015 OVC035 FM1000 18008KT P6SM VCSH BKN015
                       BKN035 FM2000 18006KT P6SM SCT030 BKN050=
200703022252 KBLI 022252Z 022318 04011KT P6SM -SN OVC030 FM0000 05012KT P6SM
                       -RA OVC030 FM0600 16012G22KT P6SM -SHRA
                       BKN015 OVC035 FM1000 18008KT P6SM VCSH BKN015
                       BKN035=
200703022014 KBLI 022014Z 022018 04012KT 6SM -RA BR OVC030 FM2300 14012KT 5SM
                       -RA BR OVC025 FM0400 18012G22KT P6SM -SHRA
                       BKN015 OVC035 FM0800 18008KT P6SM VCSH BKN015
                       BKN035=
200703021734 TAF KBLI 021734Z 021818 04006KT 3SM -SN BR BKN015 OVC025 FM2100
                       14012KT 5SM -RA BR OVC025 FM0400 18012G22KT
                       P6SM -SHRA BKN015 OVC035 FM0800 18008KT
                       P6SM VCSH BKN015 BKN035=
200703021126 TAF KBLI 021126Z 021212 04006KT P6SM OVC100 FM1600 07007KT P6SM
                       OVC080 FM1900 14012KT P6SM -RA OVC040 FM0200
                       16015KT 5SM -RA BR OVC025 FM0900 18012G22KT
                       5SM -RA BR BKN015 OVC040=
200703020529 TAF KBLI 020529Z 020606 16006KT P6SM OVC050 FM1700 15014KT P6SM
                       -RA OVC035 FM2200 15015G25KT 5SM -RA BR
                       OVC030 FM0200 18012G22KT 3SM -RA BR OVC020=
200703012320 TAF KBLI 012320Z 020024 17007KT P6SM SCT035 BKN070 FM1000 16010KT
                       P6SM OVC050 FM1500 15014KT P6SM -RA OVC035
                       FM2200 15018G28KT 5SM -RA BR OVC030=
200703011727 TAF KBLI 011727Z 011818 11003KT P6SM VCSH FEW007 SCT018 OVC030
                       TEMPO 1821 1SM -SHSN BR BKN015 OVC025 FM2100
                       17005KT P6SM SCT030 BKN050 BKN070 FM1000
                       16010KT P6SM OVC050 FM1500 15014KT P6SM
                       -RA OVC035=
200703011517 TAF AMD KBLI 011517Z 011512 15004KT P6SM VCSH SCT005 BKN025 OVC040
                       TEMPO 1519 1SM -SHSN BR BKN005 OVC025 FM2000
                       22007KT P6SM SCT030 BKN050 BKN100 FM1000
                       18010KT P6SM OVC050=
200703011120 TAF KBLI 011120Z 011212 VRB05KT 5SM -SHSN BKN015 OVC030
                      TEMPO 1216 1SM -SHSN OVC008 FM1600 27007KT
                       P6SM VCSH BKN020 BKN050 FM2000 22007KT P6SM
                       SCT030 BKN050 BKN100 FM1000 18010KT P6SM
                       OVC050=
200703010520 TAF KBLI 010520Z 010606 31006KT P6SM VCSH SCT030 BKN060
                      TEMPO 0610 4SM -SHSN BKN030 OVC060 FM1600
                       16010KT P6SM SCT030 BKN050=