##########################################################
# Query made at 02/21/2025 22:58:53 UTC
# Time interval: from 06/01/2007 00:00  to 06/30/2007 23:59  UTC
##########################################################

##########################################################
# KBLI, Bellingham, Bellingham International Airport (United States)
# WMO index: -----. WIGOS ID: Unknown
# Latitude 48-47-58N. Longitude 122-32-21W. Altitude 48 m.
##########################################################

###################################
#  METAR/SPECI from KBLI
###################################
200706302353 METAR KBLI 302353Z 30006KT 10SM SCT049 21/08 A3015 RMK AO2 SLP215 T02060083 10211 20167 58015=
200706302253 METAR KBLI 302253Z 01009KT 10SM SCT046 SCT065 18/09 A3017 RMK AO2 SLP221 T01830089=
200706302153 METAR KBLI 302153Z 02006KT 10SM SCT050 BKN065 19/08 A3018 RMK AO2 SLP226 T01890078=
200706302053 METAR KBLI 302053Z VRB06KT 10SM FEW040 BKN065 19/09 A3019 RMK AO2 SLP230 T01890094 56003=
200706301953 METAR KBLI 301953Z 36007KT 270V070 10SM FEW055 SCT070 18/08 A3019 RMK AO2 SLP230 T01780083=
200706301853 METAR KBLI 301853Z VRB04KT 10SM FEW070 18/09 A3020 RMK AO2 SLP232 T01830094=
200706301753 METAR KBLI 301753Z 10007KT 10SM SCT034 OVC070 17/09 A3020 RMK AO2 SLP233 T01670089 10167 20111 51001=
200706301734 SPECI KBLI 301734Z VRB03KT 10SM SCT024 OVC034 17/09 A3020 RMK AO2=
200706301734 SPECI KBLI 301734Z VRB03KT 10SM SCT024 OVC034 17/09 A3020 RMK AO2=
200706301716 SPECI KBLI 301716Z VRB03KT 10SM BKN026 OVC070 17/11 A3020 RMK AO2=
200706301716 SPECI KBLI 301716Z VRB03KT 10SM BKN026 OVC070 17/11 A3020 RMK AO2=
200706301653 METAR KBLI 301653Z 00000KT 10SM OVC070 16/11 A3020 RMK AO2 SLP233 T01560106 $=
200706301553 METAR KBLI 301553Z 00000KT 10SM BKN070 14/10 A3021 RMK AO2 SLP236 T01440100=
200706301453 METAR KBLI 301453Z 12003KT 10SM BKN060 13/11 A3020 RMK AO2 SLP233 T01330106 51005=
200706301353 METAR KBLI 301353Z 00000KT 10SM CLR 11/11 A3019 RMK AO2 SLP230 T01110106=
200706301253 METAR KBLI 301253Z AUTO 00000KT 10SM BKN041 OVC070 11/11 A3019 RMK AO2 SLP231 T01110106=
200706301153 METAR KBLI 301153Z AUTO 00000KT 10SM FEW050 OVC075 12/11 A3018 RMK AO2 SLP228 60002 70019 T01170106 10128 20117 51007=
200706301053 METAR KBLI 301053Z AUTO 12003KT 10SM SCT060 OVC075 12/11 A3018 RMK AO2 RAB08E20 SLP225 P0000 T01220106=
200706300953 METAR KBLI 300953Z AUTO 00000KT 10SM BKN050 OVC065 12/11 A3018 RMK AO2 RAE0856 SLP224 P0000 T01220111=
200706300853 METAR KBLI 300853Z AUTO 16003KT 10SM -RA OVC060 13/11 A3016 RMK AO2 RAB09 SLP220 P0002 60002 T01280111 53007=
200706300753 METAR KBLI 300753Z AUTO 16004KT 10SM SCT007 BKN060 OVC075 13/12 A3016 RMK AO2 SLP218 T01280117 402000122=
200706300726 SPECI KBLI 300726Z AUTO 15003KT 10SM FEW007 OVC080 12/11 A3015 RMK AO2=
200706300726 SPECI KBLI 300726Z AUTO 15003KT 10SM FEW007 OVC080 12/11 A3015 RMK AO2=
200706300653 METAR KBLI 300653Z AUTO 17004KT 10SM BKN080 12/11 A3014 RMK AO2 RAE04 SLP214 P0000 T01220111=
200706300553 METAR KBLI 300553Z AUTO 16004KT 10SM -RA BKN060 OVC100 13/12 A3014 RMK AO2 RAB04 SLP213 P0000 60011 T01280117 10150 20128 53014=
200706300453 METAR KBLI 300453Z 15003KT 10SM OVC060 13/12 A3013 RMK AO2 SLP208 T01280117=
200706300353 METAR KBLI 300353Z 16006KT 10SM OVC090 13/11 A3010 RMK AO2 RAE33 SLP200 P0004 T01330111=
200706300253 METAR KBLI 300253Z 15006KT 4SM -RA BR FEW034 BKN042 OVC065 13/12 A3010 RMK AO2 SLP200 P0007 60007 T01330117 53022=
200706300153 METAR KBLI 300153Z VRB03KT 10SM -RA BKN055 14/12 A3007 RMK AO2 RAB48 SLP187 P0000 T01440122=
200706300053 METAR KBLI 300053Z 13006KT 10SM OVC055 14/11 A3005 RMK AO2 RAE04 SLP183 P0000 T01440111=
200706292353 METAR KBLI 292353Z VRB03KT 10SM -RA SCT036 BKN070 14/11 A3004 RMK AO2 RAB09 SLP178 P0006 60006 T01390111 10200 20133 53028=
200706292253 METAR KBLI 292253Z VRB06KT 10SM SCT060 16/10 A3000 RMK AO2 SLP165 T01610100=
200706292153 METAR KBLI 292153Z 17012G21KT 10SM CLR 19/11 A2996 RMK AO2 RAB26E36 SLP152 P0000 T01890111=
200706292053 METAR KBLI 292053Z 17010G20KT 150V210 10SM FEW042 19/11 A2995 RMK AO2 RAB13E29 SLP149 P0000 60000 T01890111 52004=
200706291953 METAR KBLI 291953Z 16013G20KT 10SM FEW095 18/11 A2995 RMK AO2 RAB13E22 SLP148 P0000 T01830111=
200706291853 METAR KBLI 291853Z 15008KT 120V190 10SM SCT045 SCT110 18/11 A2994 RMK AO2 SLP145 T01780111=
200706291753 METAR KBLI 291753Z 15007KT 120V190 10SM BKN040 BKN090 17/11 A2994 RMK AO2 SLP145 T01720106 10178 20139 53003=
200706291653 METAR KBLI 291653Z 17011KT 10SM CLR 18/10 A2993 RMK AO2 SLP142 T01780100=
200706291553 METAR KBLI 291553Z 16008KT 130V210 10SM BKN090 17/11 A2993 RMK AO2 SLP142 T01670111=
200706291453 METAR KBLI 291453Z VRB05KT 10SM CLR 14/11 A2993 RMK AO2 SLP141 T01390111 51010=
200706291353 METAR KBLI 291353Z 17009KT 10SM CLR 14/11 A2993 RMK AO2 SLP140 T01440111=
200706291253 METAR KBLI 291253Z AUTO 17009KT 10SM CLR 14/12 A2991 RMK AO2 SLP136 T01390117=
200706291153 METAR KBLI 291153Z AUTO 17008KT 10SM BKN075 14/12 A2990 RMK AO2 SLP131 70003 T01390122 10161 20133 51005=
200706291053 METAR KBLI 291053Z AUTO 16006KT 10SM FEW027 14/12 A2990 RMK AO2 SLP129 T01390117=
200706291040 SPECI KBLI 291040Z AUTO 16006KT 10SM FEW027 14/12 A2990 RMK AO2=
200706291040 SPECI KBLI 291040Z AUTO 16006KT 10SM FEW027 14/12 A2990 RMK AO2=
200706290953 METAR KBLI 290953Z AUTO 16009KT 10SM BKN022 OVC029 14/12 A2989 RMK AO2 SLP129 T01440122=
200706290918 SPECI KBLI 290918Z AUTO 16009KT 10SM BKN018 BKN024 OVC043 16/13 A2989 RMK AO2=
200706290918 SPECI KBLI 290918Z AUTO 16009KT 10SM BKN018 BKN024 OVC043 16/13 A2989 RMK AO2=
200706290853 METAR KBLI 290853Z AUTO 17007KT 10SM FEW026 BKN038 OVC080 16/13 A2989 RMK AO2 SLP126 T01560133 55001=
200706290842 SPECI KBLI 290842Z AUTO VRB06KT 10SM SCT026 BKN036 OVC048 16/13 A2989 RMK AO2=
200706290842 SPECI KBLI 290842Z AUTO VRB06KT 10SM SCT026 BKN036 OVC048 16/13 A2989 RMK AO2=
200706290820 SPECI KBLI 290820Z AUTO 15007KT 10SM BKN026 BKN035 OVC043 16/14 A2989 RMK AO2=
200706290820 SPECI KBLI 290820Z AUTO 15007KT 10SM BKN026 BKN035 OVC043 16/14 A2989 RMK AO2=
200706290753 METAR KBLI 290753Z AUTO VRB05KT 10SM SCT028 BKN041 OVC048 16/13 A2989 RMK AO2 SLP126 T01610133 402170128=
200706290750 SPECI KBLI 290750Z AUTO VRB05KT 10SM FEW025 BKN041 OVC048 16/13 A2988 RMK AO2 402170128=
200706290750 SPECI KBLI 290750Z AUTO VRB05KT 10SM FEW025 BKN041 OVC048 16/13 A2988 RMK AO2 402170128=
200706290728 SPECI KBLI 290728Z 11004KT 10SM BKN027 BKN032 BKN041 14/13 A2989 RMK AO2=
200706290728 SPECI KBLI 290728Z 11004KT 10SM BKN027 BKN032 BKN041 14/13 A2989 RMK AO2=
200706290653 METAR KBLI 290653Z 11005KT 10SM CLR 14/13 A2989 RMK AO2 SLP128 T01440133=
200706290553 METAR KBLI 290553Z VRB03KT 10SM FEW040 OVC100 16/14 A2990 RMK AO2 SLP130 60002 T01560144 10189 20156 55001=
200706290453 METAR KBLI 290453Z 00000KT 10SM FEW042 SCT050 16/14 A2988 RMK AO2 SLP126 T01610144=
200706290353 METAR KBLI 290353Z 10010KT 10SM SCT085 17/14 A2990 RMK AO2 RAE11 SLP129 P0000 T01670139=
200706290253 METAR KBLI 290253Z 11006KT 9SM -RA FEW032 SCT043 OVC085 17/14 A2990 RMK AO2 RAB18 SLP131 P0002 60002 T01720144 55002=
200706290153 METAR KBLI 290153Z 13008KT 10SM BKN043 OVC085 17/13 A2990 RMK AO2 SLP130 T01720128=
200706290053 METAR KBLI 290053Z 15007KT 120V200 10SM BKN090 18/12 A2990 RMK AO2 RAE2355 SLP129 P0000 T01830122=
200706282353 METAR KBLI 282353Z 16009G17KT 130V190 10SM -RA FEW036 BKN050 BKN065 19/13 A2991 RMK AO2 RAB19 SLP134 P0000 60000 T01890128 10217 20178 50004=
200706282253 METAR KBLI 282253Z 16008G16KT 10SM BKN055 19/12 A2991 RMK AO2 RAB18E34 SLP135 P0000 T01940117=
200706282153 METAR KBLI 282153Z VRB06KT 10SM BKN070 BKN080 20/11 A2991 RMK AO2 SLP133 T02000111=
200706282053 METAR KBLI 282053Z VRB05KT 10SM FEW055 BKN100 21/12 A2990 RMK AO2 SLP130 60000 T02110117 58006=
200706281953 METAR KBLI 281953Z 13006KT 10SM BKN085 21/12 A2990 RMK AO2 RAE29 SLP132 P0000 T02060117=
200706281853 METAR KBLI 281853Z 00000KT 10SM -RA CLR 19/12 A2992 RMK AO2 RAB46 SLP137 P0000 T01890122=
200706281753 METAR KBLI 281753Z 13007KT 10SM CLR 19/13 A2992 RMK AO2 SLP136 60001 T01890128 10189 20128 55008=
200706281653 METAR KBLI 281653Z 04005KT 10SM CLR 18/13 A2991 RMK AO2 SLP136 T01830128=
200706281553 METAR KBLI 281553Z 02006KT 10SM BKN090 16/13 A2993 RMK AO2 RAB08E26 SLP141 P0000 T01610128=
200706281453 METAR KBLI 281453Z 02003KT 10SM BKN090 15/12 A2994 RMK AO2 SLP144 60001 T01500122 58005=
200706281353 METAR KBLI 281353Z 00000KT 10SM OVC095 13/12 A2996 RMK AO2 SLP150 T01330117=
200706281253 METAR KBLI 281253Z AUTO 00000KT 10SM FEW060 BKN085 13/12 A2995 RMK AO2 RAE51 SLP148 P0001 T01280117=
200706281153 METAR KBLI 281153Z AUTO 00000KT 10SM -RA OVC095 13/12 A2995 RMK AO2 RAE17B41 SLP149 P0000 60001 70001 T01280117 10161 20128 53006=
200706281053 METAR KBLI 281053Z AUTO 20003KT 10SM -RA OVC090 14/11 A2995 RMK AO2 RAB36 SLP146 P0001 T01390111=
200706280953 METAR KBLI 280953Z AUTO 18006KT 10SM OVC100 14/11 A2994 RMK AO2 RAE0854B12E37 SLP146 P0000 T01390111=
200706280853 METAR KBLI 280853Z AUTO 00000KT 10SM -RA OVC095 14/12 A2994 RMK AO2 RAB0758 SLP143 P0000 60000 T01390122 58002=
200706280753 METAR KBLI 280753Z AUTO 16006KT 10SM OVC100 16/10 A2995 RMK AO2 SLP148 T01560100 401940122=
200706280653 METAR KBLI 280653Z 15006KT 10SM SCT110 16/10 A2994 RMK AO2 SLP145 T01560100=
200706280553 METAR KBLI 280553Z 16007KT 10SM FEW110 15/09 A2994 RMK AO2 SLP145 T01500094 10194 20150 55003=
200706280453 METAR KBLI 280453Z 17010KT 10SM CLR 15/08 A2994 RMK AO2 SLP143 T01500083=
200706280353 METAR KBLI 280353Z VRB05KT 10SM CLR 16/08 A2993 RMK AO2 SLP142 T01560083=
200706280253 METAR KBLI 280253Z VRB04KT 10SM CLR 16/08 A2995 RMK AO2 SLP148 T01610083 56015=
200706280153 METAR KBLI 280153Z 11006KT 10SM CLR 18/10 A2996 RMK AO2 SLP152 T01830100=
200706280053 METAR KBLI 280053Z 13006KT 10SM CLR 19/08 A2998 RMK AO2 SLP156 T01940078=
200706272353 METAR KBLI 272353Z VRB06KT 10SM CLR 19/09 A3000 RMK AO2 SLP163 T01940089 10194 20161 56023=
200706272253 METAR KBLI 272253Z 13009KT 10SM CLR 19/08 A3002 RMK AO2 SLP171 T01890078=
200706272153 METAR KBLI 272153Z 12008KT 10SM CLR 18/08 A3004 RMK AO2 SLP178 T01780078=
200706272053 METAR KBLI 272053Z 16008KT 120V190 10SM CLR 18/07 A3007 RMK AO2 SLP187 T01780072 58007=
200706271953 METAR KBLI 271953Z 14008KT 120V180 10SM CLR 18/08 A3008 RMK AO2 SLP191 T01780078=
200706271853 METAR KBLI 271853Z 16007KT 10SM CLR 17/07 A3009 RMK AO2 SLP193 T01670067=
200706271753 METAR KBLI 271753Z 16010KT 10SM CLR 16/08 A3009 RMK AO2 SLP194 T01610083 10161 20133 58005=
200706271653 METAR KBLI 271653Z 18006KT 10SM CLR 16/08 A3009 RMK AO2 SLP196 T01560083=
200706271553 METAR KBLI 271553Z 17009KT 10SM CLR 14/09 A3010 RMK AO2 SLP199 T01440089=
200706271453 METAR KBLI 271453Z 17008KT 10SM BKN110 14/09 A3010 RMK AO2 SLP199 T01390089 51014=
200706271353 METAR KBLI 271353Z 17003KT 10SM BKN095 BKN110 14/09 A3009 RMK AO2 SLP195 T01390094=
200706271253 METAR KBLI 271253Z AUTO 18007KT 10SM BKN100 14/08 A3008 RMK AO2 SLP190 T01390083=
200706271153 METAR KBLI 271153Z AUTO 17007KT 10SM OVC110 14/08 A3006 RMK AO2 SLP185 T01390083 10150 20122 53012=
200706271053 METAR KBLI 271053Z AUTO 18006KT 10SM BKN120 14/09 A3004 RMK AO2 SLP179 T01440089=
200706270953 METAR KBLI 270953Z AUTO 20003KT 10SM CLR 12/10 A3003 RMK AO2 SLP175 T01220100=
200706270853 METAR KBLI 270853Z AUTO 17006KT 10SM CLR 14/11 A3003 RMK AO2 SLP172 T01390106 51008=
200706270753 METAR KBLI 270753Z AUTO 16004KT 10SM FEW110 14/11 A3002 RMK AO2 SLP172 T01390111 402440072=
200706270653 METAR KBLI 270653Z AUTO 16003KT 10SM BKN110 15/12 A3002 RMK AO2 SLP170 T01500117=
200706270553 METAR KBLI 270553Z AUTO 17003KT 10SM CLR 14/12 A3000 RMK AO2 SLP165 T01440117 10194 20139 53009=
200706270453 METAR KBLI 270453Z 17004KT 10SM CLR 14/11 A3000 RMK AO2 SLP163 T01440111=
200706270353 METAR KBLI 270353Z VRB03KT 10SM CLR 16/12 A2997 RMK AO2 SLP155 T01560117=
200706270253 METAR KBLI 270253Z VRB06KT 10SM FEW100 16/12 A2997 RMK AO2 SLP156 T01610117 55006=
200706270153 METAR KBLI 270153Z VRB04KT 10SM CLR 18/11 A2997 RMK AO2 SLP153 T01780106=
200706270053 METAR KBLI 270053Z VRB03KT 10SM CLR 18/11 A2998 RMK AO2 SLP159 T01830111=
200706262353 METAR KBLI 262353Z VRB04KT 10SM CLR 19/12 A2999 RMK AO2 SLP163 T01940117 10244 20194 56019=
200706262253 METAR KBLI 262253Z VRB05KT 10SM CLR 22/12 A3001 RMK AO2 SLP168 T02170122=
200706262153 METAR KBLI 262153Z VRB06KT 10SM CLR 23/13 A3003 RMK AO2 SLP174 T02330128=
200706262053 METAR KBLI 262053Z 36009KT 10SM CLR 24/11 A3005 RMK AO2 SLP181 T02440106 58023=
200706261953 METAR KBLI 261953Z 03014G17KT 10SM CLR 23/08 A3008 RMK AO2 SLP190 T02280078=
200706261853 METAR KBLI 261853Z 01009KT 10SM CLR 21/09 A3010 RMK AO2 SLP197 T02110089=
200706261753 METAR KBLI 261753Z 01010KT 10SM CLR 21/09 A3012 RMK AO2 SLP204 T02060094 10206 20078 58014=
200706261653 METAR KBLI 261653Z 03004KT 10SM CLR 18/08 A3014 RMK AO2 SLP211 T01780078=
200706261553 METAR KBLI 261553Z 02003KT 10SM CLR 16/08 A3015 RMK AO2 SLP216 T01560078=
200706261453 METAR KBLI 261453Z 35004KT 10SM CLR 13/07 A3016 RMK AO2 SLP218 T01280072 58004=
200706261353 METAR KBLI 261353Z 36003KT 10SM CLR 11/07 A3016 RMK AO2 SLP220 T01060072=
200706261253 METAR KBLI 261253Z AUTO 00000KT 10SM CLR 08/06 A3017 RMK AO2 SLP223 T00780061 TSNO=
200706261153 METAR KBLI 261153Z AUTO 03003KT 10SM CLR 08/06 A3017 RMK AO2 SLP224 T00780056 10100 20072 56013 TSNO=
200706261053 METAR KBLI 261053Z AUTO 36004KT 10SM CLR 08/06 A3018 RMK AO2 SLP226 T00780061 TSNO=
200706260953 METAR KBLI 260953Z AUTO 36003KT 10SM CLR 08/07 A3020 RMK AO2 SLP232 T00830067 TSNO=
200706260853 METAR KBLI 260853Z AUTO 02006KT 10SM CLR 09/07 A3021 RMK AO2 SLP237 T00890072 56016 TSNO=
200706260753 METAR KBLI 260753Z AUTO 01005KT 10SM CLR 09/07 A3022 RMK AO2 SLP241 T00890072 401830089 TSNO=
200706260653 METAR KBLI 260653Z AUTO 02005KT 10SM CLR 09/08 A3024 RMK AO2 SLP248 T00940078 TSNO=
200706260553 METAR KBLI 260553Z AUTO 00000KT 10SM CLR 10/08 A3026 RMK AO2 SLP253 T01000083 10183 20100 56004 TSNO=
200706260453 METAR KBLI 260453Z 00000KT 10SM CLR 12/09 A3026 RMK AO2 SLP253 T01170089=
200706260353 METAR KBLI 260353Z 00000KT 10SM CLR 14/08 A3026 RMK AO2 SLP254 T01440083=
200706260253 METAR KBLI 260253Z 02005KT 10SM CLR 16/08 A3027 RMK AO2 SLP257 T01610078 56014=
200706260153 METAR KBLI 260153Z 02007KT 10SM CLR 18/06 A3028 RMK AO2 SLP260 T01830061=
200706260053 METAR KBLI 260053Z 12007KT 10SM CLR 18/04 A3030 RMK AO2 SLP267 T01780044=
200706252353 METAR KBLI 252353Z 12008KT 10SM CLR 18/04 A3031 RMK AO2 SLP270 T01780039 10178 20133 58004=
200706252253 METAR KBLI 252253Z 14006KT 10SM CLR 17/04 A3032 RMK AO2 SLP275 T01720039=
200706252153 METAR KBLI 252153Z VRB06KT 10SM CLR 17/06 A3033 RMK AO2 SLP276 T01720061=
200706252053 METAR KBLI 252053Z 17006KT 10SM CLR 16/06 A3032 RMK AO2 SLP275 T01610061 51012=
200706251953 METAR KBLI 251953Z 15009KT 10SM CLR 16/07 A3031 RMK AO2 SLP270 T01560072=
200706251853 METAR KBLI 251853Z 16010KT 10SM CLR 14/08 A3030 RMK AO2 SLP268 T01440078=
200706251753 METAR KBLI 251753Z 16011G19KT 10SM OVC070 13/08 A3029 RMK AO2 SLP263 T01330083 10133 20100 53017=
200706251653 METAR KBLI 251653Z 15010KT 10SM OVC065 13/07 A3027 RMK AO2 SLP256 T01280072=
200706251614 SPECI KBLI 251614Z 17012KT 10SM SCT026 OVC065 12/07 A3026 RMK AO2=
200706251614 SPECI KBLI 251614Z 17012KT 10SM SCT026 OVC065 12/07 A3026 RMK AO2=
200706251553 METAR KBLI 251553Z 17010KT 10SM OVC026 12/07 A3025 RMK AO2 SLP252 T01170072=
200706251453 METAR KBLI 251453Z 17012G18KT 10SM SCT017 BKN023 OVC070 11/07 A3024 RMK AO2 SLP246 T01110072 51023=
200706251353 METAR KBLI 251353Z 16009KT 10SM BKN021 OVC065 11/07 A3022 RMK AO2 SLP239 T01060067=
200706251253 METAR KBLI 251253Z AUTO 17011KT 10SM BKN021 OVC027 10/08 A3020 RMK AO2 SLP233 T01000078=
200706251153 METAR KBLI 251153Z AUTO 17006G14KT 10SM BKN017 11/08 A3017 RMK AO2 SLP223 70006 T01060078 10111 20089 51012=
200706251151 SPECI KBLI 251151Z AUTO 18007G14KT 10SM BKN017 11/08 A3017 RMK AO2=
200706251151 SPECI KBLI 251151Z AUTO 18007G14KT 10SM BKN017 11/08 A3017 RMK AO2=
200706251053 METAR KBLI 251053Z AUTO 17009KT 10SM FEW055 10/08 A3015 RMK AO2 SLP217 T01000078=
200706250953 METAR KBLI 250953Z AUTO 16007KT 10SM SCT050 BKN070 11/08 A3013 RMK AO2 SLP211 T01060078=
200706250853 METAR KBLI 250853Z AUTO 16008KT 10SM BKN050 11/07 A3012 RMK AO2 SLP205 T01060072 51009=
200706250753 METAR KBLI 250753Z AUTO 17006KT 10SM SCT060 OVC080 11/08 A3011 RMK AO2 SLP202 T01060078 401610089=
200706250653 METAR KBLI 250653Z AUTO 00000KT 10SM CLR 09/07 A3010 RMK AO2 SLP200 T00890072=
200706250553 METAR KBLI 250553Z AUTO 16004KT 10SM SCT070 09/08 A3009 RMK AO2 SLP196 60003 T00940078 10156 20089 53012=
200706250453 METAR KBLI 250453Z 00000KT 10SM FEW040 10/09 A3007 RMK AO2 SLP190 T01000089=
200706250353 METAR KBLI 250353Z 09006KT 10SM FEW100 11/10 A3005 RMK AO2 SLP184 T01110100=
200706250253 METAR KBLI 250253Z 03007KT 10SM OVC090 12/09 A3005 RMK AO2 RAE02 SLP184 P0000 60003 T01220094 51015=
200706250153 METAR KBLI 250153Z 14005KT 10SM -RA BKN050 BKN065 12/10 A3004 RMK AO2 SLP180 P0003 T01220100=
200706250053 METAR KBLI 250053Z VRB03KT 10SM -RA SCT027 BKN037 OVC055 13/09 A3002 RMK AO2 RAB43 SLP174 P0000 T01330094=
200706242353 METAR KBLI 242353Z 00000KT 10SM SCT040 BKN070 OVC085 15/08 A3001 RMK AO2 SLP169 60003 T01500078 10161 20111 51007=
200706242253 METAR KBLI 242253Z 00000KT 10SM SCT040 OVC065 15/10 A3001 RMK AO2 RAE12 SLP169 P0000 T01500100=
200706242153 METAR KBLI 242153Z 00000KT 3SM RA BR BKN042 OVC060 11/09 A3001 RMK AO2 TSB24E30RAB04 SLP169 TSE35 P0003 T01110089=
200706242130 SPECI KBLI 242130Z VRB03KT 10SM -RA OVC055 12/09 A3001 RMK AO2 TSB24E30RAB04 LTGCG TSB14 TS E MOV N P0001=
200706242130 SPECI KBLI 242130Z VRB03KT 10SM -RA OVC055 12/09 A3001 RMK AO2 TSB24E30RAB04 LTGCG TSB14 TS E MOV N P0001=
200706242053 METAR KBLI 242053Z VRB03KT 10SM SCT023 SCT043 BKN080 14/09 A2999 RMK AO2 SLP162 T01440089 55000=
200706241953 METAR KBLI 241953Z 17005KT 10SM SCT023 SCT043 BKN080 15/08 A2998 RMK AO2 SLP160 T01500083=
200706241911 SPECI KBLI 241911Z 15007KT 10SM SCT023 BKN055 BKN080 14/09 A2999 RMK AO2=
200706241911 SPECI KBLI 241911Z 15007KT 10SM SCT023 BKN055 BKN080 14/09 A2999 RMK AO2=
200706241853 METAR KBLI 241853Z 16009KT 10SM BKN023 BKN033 OVC055 14/09 A2999 RMK AO2 SLP162 T01440089=
200706241753 METAR KBLI 241753Z 16009G19KT 10SM BKN023 OVC042 14/09 A2999 RMK AO2 RAB06E24 SLP162 P0000 60000 T01390089 10139 20106 53006=
200706241704 SPECI KBLI 241704Z 16014G21KT 10SM BKN018 BKN034 OVC060 13/09 A2998 RMK AO2=
200706241704 SPECI KBLI 241704Z 16014G21KT 10SM BKN018 BKN034 OVC060 13/09 A2998 RMK AO2=
200706241653 METAR KBLI 241653Z 14016G21KT 10SM FEW034 OVC065 14/09 A2998 RMK AO2 SLP158 T01390089=
200706241624 SPECI KBLI 241624Z 14011G20KT 10SM FEW018 SCT024 OVC033 13/09 A2998 RMK AO2=
200706241624 SPECI KBLI 241624Z 14011G20KT 10SM FEW018 SCT024 OVC033 13/09 A2998 RMK AO2=
200706241553 METAR KBLI 241553Z 14012G18KT 10SM SCT019 BKN025 OVC040 13/08 A2998 RMK AO2 SLP158 T01280083=
200706241453 METAR KBLI 241453Z 15009G21KT 10SM SCT018 BKN040 OVC060 13/09 A2997 RMK AO2 RAE00 SLP155 P0000 60000 T01280089 50002=
200706241422 SPECI KBLI 241422Z 16009G15KT 10SM SCT018 BKN039 OVC060 12/09 A2997 RMK AO2 RAE00 P0000=
200706241422 SPECI KBLI 241422Z 16009G15KT 10SM SCT018 BKN039 OVC060 12/09 A2997 RMK AO2 RAE00 P0000=
200706241353 METAR KBLI 241353Z 13006KT 10SM -RA BKN022 BKN027 OVC035 12/09 A2997 RMK AO2 RAB51 SLP156 P0000 T01170089=
200706241325 SPECI KBLI 241325Z AUTO 16006KT 10SM BKN022 BKN028 OVC037 13/08 A2997 RMK AO2=
200706241325 SPECI KBLI 241325Z AUTO 16006KT 10SM BKN022 BKN028 OVC037 13/08 A2997 RMK AO2=
200706241253 METAR KBLI 241253Z AUTO 16008KT 10SM SCT026 BKN055 OVC090 12/08 A2997 RMK AO2 SLP154 T01220078=
200706241222 SPECI KBLI 241222Z AUTO 00000KT 10SM BKN026 BKN040 OVC047 11/09 A2997 RMK AO2=
200706241222 SPECI KBLI 241222Z AUTO 00000KT 10SM BKN026 BKN040 OVC047 11/09 A2997 RMK AO2=
200706241153 METAR KBLI 241153Z AUTO 00000KT 10SM FEW025 BKN050 OVC090 11/09 A2997 RMK AO2 SLP154 70022 T01110089 10122 20106 58002=
200706241132 SPECI KBLI 241132Z AUTO 00000KT 10SM SCT029 BKN050 OVC090 11/09 A2997 RMK AO2=
200706241132 SPECI KBLI 241132Z AUTO 00000KT 10SM SCT029 BKN050 OVC090 11/09 A2997 RMK AO2=
200706241053 METAR KBLI 241053Z AUTO 00000KT 10SM OVC029 11/09 A2998 RMK AO2 SLP156 T01110094=
200706240953 METAR KBLI 240953Z AUTO 00000KT 10SM SCT036 OVC044 11/10 A2997 RMK AO2 SLP156 T01110100=
200706240853 METAR KBLI 240853Z AUTO 00000KT 10SM OVC036 12/09 A2997 RMK AO2 SLP156 T01220089 56001=
200706240753 METAR KBLI 240753Z AUTO 00000KT 10SM BKN038 OVC080 11/09 A2997 RMK AO2 SLP157 T01110094 401830106=
200706240653 METAR KBLI 240653Z AUTO 00000KT 10SM BKN040 OVC050 11/10 A2997 RMK AO2 SLP156 T01110100=
200706240553 METAR KBLI 240553Z AUTO 00000KT 10SM FEW046 SCT060 OVC080 12/10 A2998 RMK AO2 RAE0454 SLP158 60000 T01170100 10183 20117 53004=
200706240453 METAR KBLI 240453Z 00000KT 10SM -RA OVC060 12/09 A2997 RMK AO2 RAB22 SLP156 P0000 T01220089=
200706240353 METAR KBLI 240353Z VRB04KT 10SM BKN060 OVC075 14/08 A2997 RMK AO2 RAB06E15B35E44 SLP154 P0000 T01440078=
200706240253 METAR KBLI 240253Z VRB04KT 10SM BKN075 BKN095 16/07 A2997 RMK AO2 SLP154 T01610067 56011=
200706240153 METAR KBLI 240153Z VRB03KT 10SM BKN090 17/05 A2997 RMK AO2 SLP157 T01670050=
200706240053 METAR KBLI 240053Z VRB03KT 10SM FEW040 18/07 A2998 RMK AO2 SLP159 T01780067=
200706232353 METAR KBLI 232353Z VRB04KT 10SM FEW040 17/08 A3000 RMK AO2 SLP164 60000 T01720078 10178 20128 58015=
200706232253 METAR KBLI 232253Z 14009KT 10SM FEW040 18/07 A3002 RMK AO2 SLP171 T01780072=
200706232153 METAR KBLI 232153Z 15007KT 10SM SCT040 17/07 A3003 RMK AO2 SLP175 T01670072=
200706232053 METAR KBLI 232053Z 15006KT 10SM BKN065 16/09 A3004 RMK AO2 SLP181 60000 T01610089 56013=
200706231953 METAR KBLI 231953Z 11003KT 10SM SCT019 SCT028 OVC070 14/09 A3005 RMK AO2 SLP184 T01440094=
200706231853 METAR KBLI 231853Z 03007KT 10SM FEW019 BKN070 14/11 A3007 RMK AO2 RAB39E48 SLP189 P0000 T01440106=
200706231800 SPECI KBLI 231800Z 02007KT 10SM FEW019 BKN039 BKN075 13/10 A3008 RMK AO2=
200706231800 SPECI KBLI 231800Z 02007KT 10SM FEW019 BKN039 BKN075 13/10 A3008 RMK AO2=
200706231753 METAR KBLI 231753Z 01004KT 10SM FEW019 BKN024 BKN039 13/10 A3008 RMK AO2 SLP193 60022 T01280100 10133 20106 58005=
200706231700 SPECI KBLI 231700Z 34004KT 10SM FEW006 BKN024 OVC070 13/11 A3009 RMK AO2=
200706231700 SPECI KBLI 231700Z 34004KT 10SM FEW006 BKN024 OVC070 13/11 A3009 RMK AO2=
200706231653 METAR KBLI 231653Z 35004KT 10SM SCT022 BKN045 OVC065 13/11 A3009 RMK AO2 RAB04E22 SLP195 P0001 T01280106=
200706231644 SPECI KBLI 231644Z 34003KT 10SM SCT024 SCT045 OVC070 13/11 A3009 RMK AO2 RAB04E22 P0001=
200706231644 SPECI KBLI 231644Z 34003KT 10SM SCT024 SCT045 OVC070 13/11 A3009 RMK AO2 RAB04E22 P0001=
200706231553 METAR KBLI 231553Z 01003KT 10SM FEW005 OVC020 12/11 A3010 RMK AO2 RAE33 SLP198 P0002 T01170106=
200706231453 METAR KBLI 231453Z 00000KT 6SM -RA BR BKN026 OVC035 12/10 A3009 RMK AO2 RAB03 SLP198 P0005 60019 T01170100 58003=
200706231428 SPECI KBLI 231428Z 00000KT 5SM -RA BR SCT026 BKN040 OVC049 11/10 A3010 RMK AO2 RAB03 P0004=
200706231428 SPECI KBLI 231428Z 00000KT 5SM -RA BR SCT026 BKN040 OVC049 11/10 A3010 RMK AO2 RAB03 P0004=
200706231418 SPECI KBLI 231418Z 00000KT 2SM RA BR FEW024 OVC042 11/10 A3010 RMK AO2 RAB03 P0003=
200706231418 SPECI KBLI 231418Z 00000KT 2SM RA BR FEW024 OVC042 11/10 A3010 RMK AO2 RAB03 P0003=
200706231353 METAR KBLI 231353Z 00000KT 10SM OVC042 11/10 A3010 RMK AO2 RAE41 SLP198 P0003 T01060100=
200706231253 METAR KBLI 231253Z AUTO 11003KT 4SM RA BR FEW040 OVC050 11/09 A3010 RMK AO2 SLP200 P0011 T01060094=
200706231153 METAR KBLI 231153Z AUTO 20003KT 8SM -RA BKN039 OVC048 12/09 A3010 RMK AO2 RAB11 SLP200 P0001 60001 70002 T01170094 10128 20106 53005=
200706231053 METAR KBLI 231053Z AUTO 18003KT 10SM OVC045 12/09 A3009 RMK AO2 SLP196 T01170089=
200706230953 METAR KBLI 230953Z AUTO 17003KT 10SM BKN070 OVC090 12/09 A3009 RMK AO2 RAB23E41 SLP195 P0000 T01170089=
200706230853 METAR KBLI 230853Z AUTO 15003KT 10SM FEW070 OVC085 12/09 A3009 RMK AO2 SLP195 T01170094 58001=
200706230753 METAR KBLI 230753Z AUTO 00000KT 10SM OVC075 12/09 A3009 RMK AO2 SLP196 T01170094 401890117=
200706230653 METAR KBLI 230653Z AUTO 18004KT 10SM OVC080 13/10 A3009 RMK AO2 SLP197 T01280100=
200706230553 METAR KBLI 230553Z AUTO 16004KT 10SM FEW080 12/09 A3009 RMK AO2 SLP197 60001 T01220089 10178 20117 53007=
200706230453 METAR KBLI 230453Z 15004KT 10SM BKN065 OVC085 13/09 A3008 RMK AO2 SLP194 T01280094=
200706230353 METAR KBLI 230353Z 12006KT 10SM OVC080 13/09 A3007 RMK AO2 RAE0259 SLP189 P0000 T01280089=
200706230253 METAR KBLI 230253Z 10004KT 10SM -RA OVC060 13/11 A3007 RMK AO2 RAB0157 SLP190 P0001 60001 T01280106 58003=
200706230153 METAR KBLI 230153Z VRB03KT 10SM OVC060 16/08 A3008 RMK AO2 RAB42E53 SLP192 P0000 T01560083=
200706230053 METAR KBLI 230053Z VRB05KT 10SM FEW070 OVC080 16/07 A3008 RMK AO2 SLP191 T01610067=
200706222353 METAR KBLI 222353Z 12007KT 10SM SCT040 BKN110 17/07 A3008 RMK AO2 SLP192 T01720067 10189 20133 56008=
200706222253 METAR KBLI 222253Z VRB05KT 10SM BKN090 18/05 A3008 RMK AO2 SLP193 T01780050=
200706222153 METAR KBLI 222153Z 13007KT 110V170 10SM SCT040 BKN085 17/07 A3010 RMK AO2 SLP198 T01720072=
200706222053 METAR KBLI 222053Z 15008KT 10SM SCT040 17/07 A3010 RMK AO2 SLP200 T01720072 58007=
200706221953 METAR KBLI 221953Z 15006KT 10SM SCT085 17/07 A3012 RMK AO2 SLP204 T01670072=
200706221853 METAR KBLI 221853Z 16005KT 10SM FEW050 BKN060 OVC070 14/07 A3012 RMK AO2 SLP207 T01440072=
200706221753 METAR KBLI 221753Z 16007KT 10SM OVC049 14/08 A3012 RMK AO2 RAE49 SLP207 P0000 60000 T01390083 10139 20122 51009=
200706221653 METAR KBLI 221653Z 17009KT 10SM -RA OVC049 14/09 A3011 RMK AO2 RAB50 SLP203 P0000 T01390089=
200706221553 METAR KBLI 221553Z 17008KT 10SM OVC049 13/09 A3011 RMK AO2 RAE1454 SLP202 T01330094=
200706221453 METAR KBLI 221453Z 16008KT 10SM -RA FEW005 OVC039 13/10 A3010 RMK AO2 SLP198 P0000 60000 T01280100 53007=
200706221400 SPECI KBLI 221400Z 17005KT 9SM -RA FEW005 OVC039 12/11 A3009 RMK AO2 P0000=
200706221400 SPECI KBLI 221400Z 17005KT 9SM -RA FEW005 OVC039 12/11 A3009 RMK AO2 P0000=
200706221353 METAR KBLI 221353Z 18005KT 9SM -RA OVC039 12/11 A3009 RMK AO2 RAB43 SLP195 P0000 T01220106=
200706221253 METAR KBLI 221253Z AUTO 17007KT 10SM OVC031 12/11 A3008 RMK AO2 RAB16E36 SLP191 P0000 T01220106=
200706221227 SPECI KBLI 221227Z AUTO 18010KT 10SM -RA BKN029 OVC037 12/11 A3008 RMK AO2 RAB16 P0000=
200706221227 SPECI KBLI 221227Z AUTO 18010KT 10SM -RA BKN029 OVC037 12/11 A3008 RMK AO2 RAB16 P0000=
200706221153 METAR KBLI 221153Z AUTO 17007KT 10SM BKN035 OVC046 13/10 A3008 RMK AO2 SLP190 T01280100 10144 20122 51001=
200706221053 METAR KBLI 221053Z AUTO 17007KT 10SM OVC048 13/10 A3007 RMK AO2 SLP189 T01280100=
200706220953 METAR KBLI 220953Z AUTO 17007KT 10SM OVC050 13/10 A3008 RMK AO2 SLP192 T01280100=
200706220853 METAR KBLI 220853Z AUTO 18006KT 10SM BKN048 OVC055 13/10 A3007 RMK AO2 SLP189 T01280100 53003=
200706220753 METAR KBLI 220753Z AUTO 18006KT 10SM SCT049 BKN055 BKN100 13/11 A3007 RMK AO2 SLP189 T01330106 402060128=
200706220653 METAR KBLI 220653Z 00000KT 10SM SCT055 OVC095 14/11 A3006 RMK AO2 SLP186 T01390106=
200706220553 METAR KBLI 220553Z 00000KT 10SM SCT060 OVC100 14/10 A3007 RMK AO2 SLP187 T01440100 10206 20144 53000=
200706220453 METAR KBLI 220453Z VRB05KT 10SM BKN100 15/09 A3006 RMK AO2 SLP184 T01500089=
200706220353 METAR KBLI 220353Z VRB04KT 10SM BKN070 BKN100 17/09 A3005 RMK AO2 SLP183 T01720089=
200706220253 METAR KBLI 220253Z VRB04KT 10SM BKN085 19/09 A3006 RMK AO2 SLP186 T01890094 56015=
200706220153 METAR KBLI 220153Z VRB04KT 10SM OVC090 20/09 A3007 RMK AO2 SLP190 T02000089=
200706220053 METAR KBLI 220053Z VRB04KT 10SM OVC085 19/09 A3009 RMK AO2 SLP195 T01940089=
200706212353 METAR KBLI 212353Z VRB06KT 10SM SCT085 20/09 A3011 RMK AO2 SLP201 60000 T02000089 10206 20144 58010=
200706212253 METAR KBLI 212253Z 13009KT 10SM SCT090 20/08 A3012 RMK AO2 SLP207 T02000083=
200706212153 METAR KBLI 212153Z 14008KT 10SM CLR 20/10 A3013 RMK AO2 SLP208 T02000100=
200706212053 METAR KBLI 212053Z 12008KT 10SM SCT049 18/10 A3014 RMK AO2 SLP211 60000 T01780100 58008=
200706211953 METAR KBLI 211953Z 15008KT 10SM OVC041 16/11 A3015 RMK AO2 RAB1858E07 SLP217 P0000 T01610106=
200706211853 METAR KBLI 211853Z 16008KT 10SM SCT020 OVC034 15/11 A3016 RMK AO2 SLP220 T01500111=
200706211753 METAR KBLI 211753Z 17006KT 10SM BKN030 OVC036 14/11 A3016 RMK AO2 SLP219 T01440106 10150 20133 51012=
200706211653 METAR KBLI 211653Z VRB04KT 10SM OVC016 14/11 A3016 RMK AO2 SLP217 T01390106=
200706211553 METAR KBLI 211553Z VRB05KT 10SM FEW015 OVC020 14/10 A3015 RMK AO2 SLP216 T01390100=
200706211529 SPECI KBLI 211529Z 18007KT 10SM BKN025 OVC075 14/11 A3014 RMK AO2=
200706211529 SPECI KBLI 211529Z 18007KT 10SM BKN025 OVC075 14/11 A3014 RMK AO2=
200706211453 METAR KBLI 211453Z 17010G21KT 10SM FEW024 OVC080 15/11 A3013 RMK AO2 SLP207 T01500106 53013 $=
200706211353 METAR KBLI 211353Z 17011G18KT 10SM CLR 15/10 A3011 RMK AO2 SLP201 T01500100=
200706211253 METAR KBLI 211253Z AUTO 17010G19KT 10SM SCT065 14/09 A3010 RMK AO2 SLP199 T01440094=
200706211153 METAR KBLI 211153Z AUTO 15009KT 10SM BKN060 14/09 A3009 RMK AO2 SLP194 T01440094 10161 20144 51006=
200706211053 METAR KBLI 211053Z AUTO 15010G17KT 10SM FEW037 SCT048 OVC060 14/11 A3008 RMK AO2 SLP191 T01440106=
200706210953 METAR KBLI 210953Z AUTO 16012G17KT 10SM BKN043 OVC050 14/11 A3008 RMK AO2 SLP192 T01440106=
200706210853 METAR KBLI 210853Z AUTO 15008KT 10SM BKN047 OVC055 15/10 A3007 RMK AO2 SLP188 T01500100 51028=
200706210753 METAR KBLI 210753Z AUTO 17009KT 10SM BKN045 14/11 A3005 RMK AO2 SLP183 T01440106 402060111=
200706210653 METAR KBLI 210653Z VRB05KT 10SM CLR 15/11 A3001 RMK AO2 SLP169 T01500111=
200706210553 METAR KBLI 210553Z 17009KT 10SM CLR 16/11 A2999 RMK AO2 SLP160 T01610111 10206 20161 53009=
200706210453 METAR KBLI 210453Z 16010KT 10SM CLR 17/10 A2998 RMK AO2 SLP158 T01670100=
200706210353 METAR KBLI 210353Z 14008KT 10SM CLR 18/10 A2996 RMK AO2 SLP151 T01780100=
200706210253 METAR KBLI 210253Z 15008KT 120V180 10SM CLR 18/10 A2996 RMK AO2 SLP151 T01830100 56009=
200706210153 METAR KBLI 210153Z 15007KT 120V210 10SM CLR 19/10 A2997 RMK AO2 SLP153 T01940100=
200706210053 METAR KBLI 210053Z 16007KT 120V190 10SM CLR 19/10 A2998 RMK AO2 SLP156 T01940100=
200706202353 METAR KBLI 202353Z 13009KT 10SM CLR 20/11 A2999 RMK AO2 SLP160 T02000106 10206 20172 58008=
200706202253 METAR KBLI 202253Z 13010KT 10SM CLR 19/10 A3000 RMK AO2 SLP165 T01940100=
200706202153 METAR KBLI 202153Z 15007KT 120V200 10SM CLR 19/10 A3001 RMK AO2 SLP168 T01940100=
200706202053 METAR KBLI 202053Z 17007KT 130V220 10SM CLR 19/09 A3001 RMK AO2 SLP169 T01890094 58005=
200706201953 METAR KBLI 201953Z 14007KT 10SM CLR 19/10 A3002 RMK AO2 SLP171 T01890100=
200706201853 METAR KBLI 201853Z VRB06KT 10SM CLR 18/09 A3003 RMK AO2 SLP173 T01830094=
200706201753 METAR KBLI 201753Z 17009KT 130V200 10SM CLR 17/09 A3003 RMK AO2 SLP173 T01720089 10172 20111 50003=
200706201653 METAR KBLI 201653Z VRB05G14KT 10SM CLR 16/10 A3003 RMK AO2 SLP175 T01560100=
200706201553 METAR KBLI 201553Z 17007KT 10SM CLR 14/09 A3002 RMK AO2 SLP173 T01440094=
200706201453 METAR KBLI 201453Z 17007KT 10SM CLR 13/09 A3002 RMK AO2 SLP170 T01280089 51008=
200706201353 METAR KBLI 201353Z 17008KT 10SM CLR 12/09 A3001 RMK AO2 SLP168 T01220089=
200706201253 METAR KBLI 201253Z AUTO 17007KT 10SM CLR 12/09 A3001 RMK AO2 SLP166 T01170089=
200706201153 METAR KBLI 201153Z AUTO 17006KT 10SM CLR 12/08 A2999 RMK AO2 SLP163 T01170083 10150 20117 51008=
200706201053 METAR KBLI 201053Z AUTO 18004KT 10SM CLR 12/09 A2999 RMK AO2 SLP160 T01170089=
200706200953 METAR KBLI 200953Z AUTO 19004KT 10SM CLR 12/09 A2998 RMK AO2 SLP158 T01220089=
200706200853 METAR KBLI 200853Z AUTO 18006KT 10SM CLR 13/09 A2997 RMK AO2 SLP155 T01280089 52004=
200706200753 METAR KBLI 200753Z AUTO 18005KT 10SM CLR 14/09 A2997 RMK AO2 SLP154 T01390094 402110061=
200706200653 METAR KBLI 200653Z AUTO 15004KT 10SM CLR 14/08 A2996 RMK AO2 SLP151 T01440083=
200706200553 METAR KBLI 200553Z AUTO 17005KT 10SM CLR 14/09 A2996 RMK AO2 SLP150 T01390089 10211 20139 53006=
200706200453 METAR KBLI 200453Z 17003KT 10SM CLR 15/09 A2995 RMK AO2 SLP146 T01500094=
200706200353 METAR KBLI 200353Z 13007KT 10SM CLR 16/11 A2994 RMK AO2 SLP145 T01560106=
200706200253 METAR KBLI 200253Z 11006KT 10SM CLR 19/09 A2994 RMK AO2 SLP144 T01890094 56008=
200706200200 METAR KBLI NIL=
200706200100 METAR KBLI NIL=
200706200053 METAR KBLI 200053Z 12008KT 10SM CLR 21/09 A2995 RMK AO2 SLP149 T02060094=
200706192353 METAR KBLI 192353Z VRB05KT 10SM CLR 21/08 A2996 RMK AO2 SLP153 T02060083 10206 20156 56006=
200706192253 METAR KBLI 192253Z 16007KT 10SM CLR 20/08 A2997 RMK AO2 SLP156 T02000078=
200706192153 METAR KBLI 192153Z 14007KT 110V190 10SM CLR 20/08 A2998 RMK AO2 SLP157 T02000083=
200706192053 METAR KBLI 192053Z VRB05KT 10SM CLR 19/09 A2998 RMK AO2 SLP160 T01890089 58008=
200706191953 METAR KBLI 191953Z 11008KT 10SM CLR 18/08 A2999 RMK AO2 SLP163 T01830083=
200706191853 METAR KBLI 191853Z VRB06KT 10SM CLR 18/09 A3000 RMK AO2 SLP166 T01780094=
200706191753 METAR KBLI 191753Z VRB04KT 10SM CLR 16/08 A3001 RMK AO2 SLP168 T01560083 10161 20067 58001=
200706191653 METAR KBLI 191653Z VRB05KT 10SM CLR 15/08 A3001 RMK AO2 SLP167 T01500083=
200706191553 METAR KBLI 191553Z VRB04KT 10SM CLR 13/09 A3001 RMK AO2 SLP170 T01330089=
200706191453 METAR KBLI 191453Z 00000KT 10SM CLR 12/08 A3001 RMK AO2 SLP169 T01220083 55005=
200706191353 METAR KBLI 191353Z 00000KT 10SM CLR 09/08 A3000 RMK AO2 SLP167 T00940078=
200706191253 METAR KBLI 191253Z AUTO 00000KT 10SM CLR 07/07 A3001 RMK AO2 SLP171 T00720067=
200706191153 METAR KBLI 191153Z AUTO 00000KT 10SM CLR 08/06 A3002 RMK AO2 SLP174 T00780061 10089 20061 56009=
200706191053 METAR KBLI 191053Z AUTO 00000KT 10SM CLR 07/06 A3003 RMK AO2 SLP177 T00720061=
200706190953 METAR KBLI 190953Z AUTO 00000KT 10SM CLR 07/06 A3004 RMK AO2 SLP180 T00720061=
200706190853 METAR KBLI 190853Z AUTO 00000KT 10SM CLR 08/07 A3005 RMK AO2 SLP184 T00830072 58010=
200706190753 METAR KBLI 190753Z AUTO 00000KT 10SM CLR 08/07 A3007 RMK AO2 SLP190 T00830072 401610078=
200706190653 METAR KBLI 190653Z AUTO 00000KT 10SM CLR 08/07 A3008 RMK AO2 SLP191 T00830072=
200706190553 METAR KBLI 190553Z AUTO 00000KT 10SM CLR 08/07 A3008 RMK AO2 SLP194 T00830072 10161 20083 58013=
200706190453 METAR KBLI 190453Z 00000KT 10SM CLR 10/08 A3010 RMK AO2 SLP200 T01000078=
200706190353 METAR KBLI 190353Z 00000KT 10SM CLR 12/08 A3011 RMK AO2 SLP202 T01170078=
200706190253 METAR KBLI 190253Z 17003KT 10SM CLR 14/06 A3012 RMK AO2 SLP207 T01440061 56003=
200706190153 METAR KBLI 190153Z VRB04KT 10SM CLR 15/06 A3012 RMK AO2 SLP207 T01500056=
200706190053 METAR KBLI 190053Z VRB05KT 10SM CLR 15/06 A3013 RMK AO2 SLP208 T01500056=
200706182353 METAR KBLI 182353Z 16006KT 10SM CLR 16/06 A3013 RMK AO2 SLP210 T01560061 10161 20128 58007=
200706182253 METAR KBLI 182253Z 17010KT 10SM CLR 16/06 A3014 RMK AO2 SLP214 T01560056=
200706182153 METAR KBLI 182153Z 17008KT 10SM CLR 16/06 A3015 RMK AO2 SLP215 T01560061=
200706182053 METAR KBLI 182053Z 15010KT 10SM OVC060 15/06 A3015 RMK AO2 SLP217 T01500061 51005=
200706181953 METAR KBLI 181953Z 16012KT 10SM OVC060 14/07 A3015 RMK AO2 SLP216 T01440067=
200706181853 METAR KBLI 181853Z 16011G19KT 10SM OVC060 14/07 A3014 RMK AO2 SLP215 T01390067=
200706181753 METAR KBLI 181753Z 16010G18KT 10SM OVC060 13/07 A3014 RMK AO2 SLP212 T01280072 10128 20100 53006=
200706181653 METAR KBLI 181653Z 17009G16KT 10SM FEW040 OVC060 12/07 A3013 RMK AO2 SLP209 T01170072=
200706181553 METAR KBLI 181553Z 17010KT 10SM FEW019 OVC055 11/07 A3013 RMK AO2 SLP208 T01060072=
200706181453 METAR KBLI 181453Z 16009KT 10SM FEW018 SCT055 11/07 A3012 RMK AO2 SLP206 T01110067 51003=
200706181353 METAR KBLI 181353Z 15009KT 10SM SCT016 BKN035 10/06 A3012 RMK AO2 SLP206 T01000061=
200706181253 METAR KBLI 181253Z AUTO 15010KT 10SM BKN031 10/06 A3011 RMK AO2 SLP203 T01000061=
200706181153 METAR KBLI 181153Z AUTO 15009KT 10SM OVC031 10/06 A3011 RMK AO2 SLP202 70023 T01000056 10106 20094 58006=
200706181053 METAR KBLI 181053Z AUTO 16007KT 10SM OVC031 10/06 A3012 RMK AO2 SLP205 T01000061=
200706180953 METAR KBLI 180953Z AUTO 15011KT 10SM CLR 09/06 A3013 RMK AO2 SLP209 T00940061=
200706180853 METAR KBLI 180853Z AUTO 16008KT 10SM CLR 10/06 A3013 RMK AO2 SLP208 T01000061 58007=
200706180753 METAR KBLI 180753Z AUTO 16013G18KT 10SM CLR 10/07 A3013 RMK AO2 SLP211 T01000067 401330100=
200706180653 METAR KBLI 180653Z AUTO 15010G17KT 10SM FEW080 10/07 A3014 RMK AO2 SLP214 T01000067=
200706180553 METAR KBLI 180553Z AUTO 16010KT 10SM CLR 11/07 A3015 RMK AO2 SLP216 T01060072 10133 20106 53003=
200706180453 METAR KBLI 180453Z 16011G20KT 10SM FEW070 11/08 A3014 RMK AO2 SLP215 T01110078=
200706180353 METAR KBLI 180353Z 15011G21KT 10SM FEW070 12/08 A3014 RMK AO2 SLP213 T01170078=
200706180253 METAR KBLI 180253Z 16014G20KT 10SM BKN065 13/09 A3014 RMK AO2 SLP213 T01280094 56013=
200706180153 METAR KBLI 180153Z 15013G21KT 10SM SCT016 OVC065 13/09 A3015 RMK AO2 SLP217 T01330094=
200706180131 SPECI KBLI 180131Z 16013G17KT 10SM SCT018 OVC065 13/09 A3015 RMK AO2=
200706180131 SPECI KBLI 180131Z 16013G17KT 10SM SCT018 OVC065 13/09 A3015 RMK AO2=
200706180053 METAR KBLI 180053Z 16011G19KT 10SM BKN018 OVC065 13/09 A3016 RMK AO2 SLP220 T01330094=
200706172353 METAR KBLI 172353Z 16012G17KT 10SM OVC060 13/09 A3018 RMK AO2 SLP226 60007 T01330094 10133 20106 56002=
200706172253 METAR KBLI 172253Z 15015G20KT 10SM FEW023 OVC060 13/10 A3018 RMK AO2 SLP226 T01280100=
200706172153 METAR KBLI 172153Z 16012G20KT 10SM BKN046 OVC055 12/09 A3017 RMK AO2 RAE02 SLP224 P0000 T01220094=
200706172053 METAR KBLI 172053Z 16010KT 10SM -RA FEW012 SCT034 OVC042 12/10 A3018 RMK AO2 RAB43 SLP228 P0000 60007 T01220100 51008=
200706172027 SPECI KBLI 172027Z 15010G17KT 10SM FEW012 BKN039 OVC048 12/10 A3018 RMK AO2=
200706172027 SPECI KBLI 172027Z 15010G17KT 10SM FEW012 BKN039 OVC048 12/10 A3018 RMK AO2=
200706172006 SPECI KBLI 172006Z 16010KT 10SM FEW009 BKN027 OVC050 12/11 A3018 RMK AO2=
200706172006 SPECI KBLI 172006Z 16010KT 10SM FEW009 BKN027 OVC050 12/11 A3018 RMK AO2=
200706171953 METAR KBLI 171953Z 16012KT 10SM BKN012 BKN024 OVC038 12/10 A3018 RMK AO2 RAE44 SLP225 P0002 T01170100=
200706171922 SPECI KBLI 171922Z 16009G19KT 3SM -RA BR BKN010 OVC018 12/10 A3018 RMK AO2 P0002=
200706171922 SPECI KBLI 171922Z 16009G19KT 3SM -RA BR BKN010 OVC018 12/10 A3018 RMK AO2 P0002=
200706171913 SPECI KBLI 171913Z 15008KT 1 3/4SM -RA BR BKN010 OVC018 11/10 A3018 RMK AO2 P0002=
200706171913 SPECI KBLI 171913Z 15008KT 1 3/4SM -RA BR BKN010 OVC018 11/10 A3018 RMK AO2 P0002=
200706171853 METAR KBLI 171853Z 16009KT 1 1/2SM -RA BR SCT010 OVC018 11/10 A3017 RMK AO2 RAB1756 SLP224 P0005 T01110100=
200706171846 SPECI KBLI 171846Z 16010KT 2SM -RA BR FEW008 BKN018 OVC023 11/10 A3017 RMK AO2 RAB1756 P0004=
200706171846 SPECI KBLI 171846Z 16010KT 2SM -RA BR FEW008 BKN018 OVC023 11/10 A3017 RMK AO2 RAB1756 P0004=
200706171822 SPECI KBLI 171822Z 16009KT 1 1/2SM -RA BR FEW014 OVC021 11/10 A3017 RMK AO2 RAB1756 P0002=
200706171822 SPECI KBLI 171822Z 16009KT 1 1/2SM -RA BR FEW014 OVC021 11/10 A3017 RMK AO2 RAB1756 P0002=
200706171753 METAR KBLI 171753Z 15011G16KT 7SM FEW004 SCT013 OVC021 11/09 A3016 RMK AO2 RAE09 SLP220 P0000 60016 T01060094 10111 20106 51014=
200706171739 SPECI KBLI 171739Z 16009KT 10SM FEW004 BKN014 OVC021 11/09 A3016 RMK AO2 RAE09 P0000=
200706171739 SPECI KBLI 171739Z 16009KT 10SM FEW004 BKN014 OVC021 11/09 A3016 RMK AO2 RAE09 P0000=
200706171729 SPECI KBLI 171729Z 17008KT 6SM BR SCT004 BKN019 OVC024 11/10 A3016 RMK AO2 RAE09 P0000=
200706171729 SPECI KBLI 171729Z 17008KT 6SM BR SCT004 BKN019 OVC024 11/10 A3016 RMK AO2 RAE09 P0000=
200706171653 METAR KBLI 171653Z 17009KT 3SM -RA BR BKN004 OVC021 11/10 A3015 RMK AO2 SLP216 P0004 T01060100=
200706171635 SPECI KBLI 171635Z 17008KT 2 1/2SM -RA BR BKN004 OVC011 11/10 A3015 RMK AO2 P0004=
200706171635 SPECI KBLI 171635Z 17008KT 2 1/2SM -RA BR BKN004 OVC011 11/10 A3015 RMK AO2 P0004=
200706171627 SPECI KBLI 171627Z 16007KT 1 3/4SM -RA BR BKN004 OVC013 11/10 A3014 RMK AO2 CIG 002V007 P0004=
200706171627 SPECI KBLI 171627Z 16007KT 1 3/4SM -RA BR BKN004 OVC013 11/10 A3014 RMK AO2 CIG 002V007 P0004=
200706171623 SPECI KBLI 171623Z 17009KT 2SM -RA BR SCT004 BKN013 OVC019 11/10 A3014 RMK AO2 P0003=
200706171623 SPECI KBLI 171623Z 17009KT 2SM -RA BR SCT004 BKN013 OVC019 11/10 A3014 RMK AO2 P0003=
200706171619 SPECI KBLI 171619Z 17009G15KT 3SM -RA BR BKN004 OVC013 11/10 A3014 RMK AO2 CIG 002V007 P0003=
200706171619 SPECI KBLI 171619Z 17009G15KT 3SM -RA BR BKN004 OVC013 11/10 A3014 RMK AO2 CIG 002V007 P0003=
200706171609 SPECI KBLI 171609Z 18009KT 2 1/2SM -RA BR BKN004 BKN013 OVC024 11/10 A3014 RMK AO2 P0002=
200706171609 SPECI KBLI 171609Z 18009KT 2 1/2SM -RA BR BKN004 BKN013 OVC024 11/10 A3014 RMK AO2 P0002=
200706171600 SPECI KBLI 171600Z 17009KT 4SM -RA BR SCT004 BKN013 OVC024 11/09 A3014 RMK AO2 P0001=
200706171600 SPECI KBLI 171600Z 17009KT 4SM -RA BR SCT004 BKN013 OVC024 11/09 A3014 RMK AO2 P0001=
200706171553 METAR KBLI 171553Z 17007KT 4SM -RA BR FEW004 BKN024 OVC031 11/10 A3013 RMK AO2 SLP211 P0004 T01060100=
200706171529 SPECI KBLI 171529Z 17008KT 4SM -RA BR FEW004 BKN015 OVC032 11/10 A3013 RMK AO2 P0003=
200706171529 SPECI KBLI 171529Z 17008KT 4SM -RA BR FEW004 BKN015 OVC032 11/10 A3013 RMK AO2 P0003=
200706171522 SPECI KBLI 171522Z 17008KT 2 1/2SM -RA BR FEW004 BKN015 OVC031 11/10 A3013 RMK AO2 P0003=
200706171522 SPECI KBLI 171522Z 17008KT 2 1/2SM -RA BR FEW004 BKN015 OVC031 11/10 A3013 RMK AO2 P0003=
200706171511 SPECI KBLI 171511Z 17008KT 2SM -RA BR FEW015 OVC033 11/10 A3013 RMK AO2 P0002=
200706171511 SPECI KBLI 171511Z 17008KT 2SM -RA BR FEW015 OVC033 11/10 A3013 RMK AO2 P0002=
200706171453 METAR KBLI 171453Z 17009KT 3SM -RA BR FEW007 SCT015 OVC033 11/09 A3012 RMK AO2 SLP206 P0006 60008 T01060094 53007=
200706171441 SPECI KBLI 171441Z 17009KT 3SM -RA BR FEW007 BKN015 OVC033 11/10 A3012 RMK AO2 P0005=
200706171441 SPECI KBLI 171441Z 17009KT 3SM -RA BR FEW007 BKN015 OVC033 11/10 A3012 RMK AO2 P0005=
200706171425 SPECI KBLI 171425Z 17005KT 3SM -RA BR SCT016 BKN024 OVC039 11/09 A3011 RMK AO2 P0004=
200706171425 SPECI KBLI 171425Z 17005KT 3SM -RA BR SCT016 BKN024 OVC039 11/09 A3011 RMK AO2 P0004=
200706171353 METAR KBLI 171353Z 17009G16KT 4SM -RA BR FEW007 SCT027 OVC034 11/09 A3011 RMK AO2 RAB29 SLP202 P0001 T01060094=
200706171319 SPECI KBLI 171319Z AUTO 16006KT 10SM FEW007 BKN025 OVC034 11/09 A3010 RMK AO2=
200706171319 SPECI KBLI 171319Z AUTO 16006KT 10SM FEW007 BKN025 OVC034 11/09 A3010 RMK AO2=
200706171253 METAR KBLI 171253Z AUTO 15005KT 10SM FEW007 OVC034 11/10 A3010 RMK AO2 RAB1155E47 SLP200 P0001 T01110100=
200706171217 SPECI KBLI 171217Z AUTO 16011KT 6SM -RA BR FEW027 OVC037 11/09 A3009 RMK AO2 RAB1155 P0001=
200706171217 SPECI KBLI 171217Z AUTO 16011KT 6SM -RA BR FEW027 OVC037 11/09 A3009 RMK AO2 RAB1155 P0001=
200706171153 METAR KBLI 171153Z AUTO 16011KT 10SM OVC025 11/09 A3010 RMK AO2 SLP199 60000 T01110089 10128 20111 53008=
200706171121 SPECI KBLI 171121Z AUTO 17009KT 10SM BKN027 OVC032 12/09 A3009 RMK AO2=
200706171121 SPECI KBLI 171121Z AUTO 17009KT 10SM BKN027 OVC032 12/09 A3009 RMK AO2=
200706171053 METAR KBLI 171053Z AUTO 16008KT 10SM OVC031 12/09 A3008 RMK AO2 SLP194 T01170089=
200706170953 METAR KBLI 170953Z AUTO 17007KT 10SM OVC035 12/09 A3008 RMK AO2 SLP194 T01170089=
200706170853 METAR KBLI 170853Z AUTO 16010KT 10SM OVC039 12/09 A3007 RMK AO2 SLP191 60000 T01170094 51001=
200706170753 METAR KBLI 170753Z AUTO 16006KT 10SM BKN043 OVC060 12/09 A3007 RMK AO2 SLP189 T01220089 401500111=
200706170653 METAR KBLI 170653Z AUTO 16008KT 10SM BKN032 OVC050 12/08 A3008 RMK AO2 RAB15E32 SLP192 P0000 T01220083=
200706170553 METAR KBLI 170553Z AUTO 15006KT 10SM OVC060 12/09 A3007 RMK AO2 RAB42E51 SLP190 P0000 60000 T01220094 10144 20122 51006=
200706170453 METAR KBLI 170453Z 15005KT 10SM FEW044 OVC065 13/10 A3007 RMK AO2 RAE09 SLP189 P0000 T01280100=
200706170353 METAR KBLI 170353Z 17003KT 10SM -RA FEW055 SCT065 OVC085 13/09 A3006 RMK AO2 RAB53 SLP186 P0000 T01280094=
200706170253 METAR KBLI 170253Z 15006KT 10SM FEW030 OVC046 13/09 A3005 RMK AO2 SLP184 T01280094 52003=
200706170153 METAR KBLI 170153Z 18004KT 10SM OVC030 13/09 A3006 RMK AO2 SLP185 T01330089=
200706170053 METAR KBLI 170053Z 16008KT 10SM BKN038 OVC070 14/09 A3004 RMK AO2 SLP180 T01390089=
200706162353 METAR KBLI 162353Z 16008KT 10SM BKN038 OVC046 13/09 A3005 RMK AO2 SLP181 T01330089 10150 20128 55000=
200706162253 METAR KBLI 162253Z 17008KT 10SM OVC045 14/08 A3004 RMK AO2 SLP181 T01390083=
200706162153 METAR KBLI 162153Z 16009KT 10SM OVC047 14/09 A3005 RMK AO2 SLP181 T01390089=
200706162053 METAR KBLI 162053Z 16011KT 10SM BKN039 OVC060 14/09 A3005 RMK AO2 SLP182 T01390089 51010=
200706161953 METAR KBLI 161953Z 17013G21KT 10SM BKN070 BKN090 14/09 A3004 RMK AO2 SLP180 T01440089=
200706161853 METAR KBLI 161853Z 17011G17KT 10SM FEW043 14/09 A3002 RMK AO2 SLP174 T01390089=
200706161753 METAR KBLI 161753Z 16010KT 10SM OVC037 13/08 A3002 RMK AO2 SLP172 T01280078 10133 20111 51007=
200706161653 METAR KBLI 161653Z 16008KT 10SM OVC031 12/08 A3001 RMK AO2 SLP170 T01220078=
200706161553 METAR KBLI 161553Z 16008KT 10SM OVC031 12/08 A3000 RMK AO2 SLP167 T01170078=
200706161453 METAR KBLI 161453Z 17007KT 10SM BKN031 OVC050 12/08 A3000 RMK AO2 SLP164 T01170078 53008=
200706161353 METAR KBLI 161353Z 17008KT 10SM BKN050 OVC060 12/08 A2999 RMK AO2 SLP161 T01170083=
200706161253 METAR KBLI 161253Z AUTO 17009KT 10SM FEW050 OVC065 11/09 A2998 RMK AO2 SLP159 T01110089=
200706161153 METAR KBLI 161153Z AUTO 17004KT 10SM SCT060 OVC100 12/10 A2997 RMK AO2 SLP156 70018 T01170100 10122 20100 57005=
200706161053 METAR KBLI 161053Z AUTO 16006KT 10SM SCT090 OVC110 12/10 A2998 RMK AO2 SLP158 T01170100=
200706160953 METAR KBLI 160953Z AUTO 16005KT 10SM OVC090 12/09 A2998 RMK AO2 SLP160 T01170089=
200706160853 METAR KBLI 160853Z AUTO 16005KT 10SM OVC090 12/10 A2999 RMK AO2 SLP162 T01170100 58005=
200706160753 METAR KBLI 160753Z AUTO 16005KT 10SM BKN085 11/09 A3000 RMK AO2 SLP165 T01110094 401500094=
200706160653 METAR KBLI 160653Z AUTO 00000KT 8SM CLR 10/09 A3001 RMK AO2 SLP169 T01000094=
200706160553 METAR KBLI 160553Z AUTO 15004KT 10SM BKN060 12/11 A3000 RMK AO2 SLP167 T01170106 10150 20111 58003=
200706160453 METAR KBLI 160453Z 00000KT 10SM CLR 12/11 A3001 RMK AO2 SLP169 T01170106=
200706160353 METAR KBLI 160353Z 17003KT 10SM CLR 13/11 A3001 RMK AO2 SLP169 T01330106=
200706160253 METAR KBLI 160253Z VRB05KT 10SM CLR 15/11 A3001 RMK AO2 SLP170 T01500111 56005=
200706160153 METAR KBLI 160153Z 17006KT 10SM OVC070 15/10 A3002 RMK AO2 SLP171 T01500100=
200706160053 METAR KBLI 160053Z 16007KT 10SM OVC070 14/11 A3002 RMK AO2 SLP174 T01440106=
200706152353 METAR KBLI 152353Z VRB05KT 10SM OVC070 14/11 A3003 RMK AO2 SLP176 60004 T01440111 10144 20117 56007=
200706152253 METAR KBLI 152253Z 17006KT 10SM SCT070 BKN090 14/11 A3003 RMK AO2 SLP177 T01440111=
200706152219 SPECI KBLI 152219Z 16006KT 10SM SCT009 BKN080 14/11 A3004 RMK AO2=
200706152219 SPECI KBLI 152219Z 16006KT 10SM SCT009 BKN080 14/11 A3004 RMK AO2=
200706152210 SPECI KBLI 152210Z 15006KT 10SM BKN011 BKN075 14/12 A3004 RMK AO2=
200706152210 SPECI KBLI 152210Z 15006KT 10SM BKN011 BKN075 14/12 A3004 RMK AO2=
200706152153 METAR KBLI 152153Z 00000KT 10SM SCT011 BKN075 14/12 A3004 RMK AO2 RAE04 SLP180 P0000 T01440117=
200706152143 SPECI KBLI 152143Z VRB03KT 10SM SCT011 OVC070 14/12 A3004 RMK AO2 RAE04 P0000=
200706152143 SPECI KBLI 152143Z VRB03KT 10SM SCT011 OVC070 14/12 A3004 RMK AO2 RAE04 P0000=
200706152120 SPECI KBLI 152120Z VRB04KT 10SM SCT005 BKN011 BKN070 13/11 A3005 RMK AO2 RAE04 P0000=
200706152120 SPECI KBLI 152120Z VRB04KT 10SM SCT005 BKN011 BKN070 13/11 A3005 RMK AO2 RAE04 P0000=
200706152112 SPECI KBLI 152112Z VRB03KT 10SM SCT005 SCT011 BKN070 13/11 A3005 RMK AO2 RAE04 P0000=
200706152112 SPECI KBLI 152112Z VRB03KT 10SM SCT005 SCT011 BKN070 13/11 A3005 RMK AO2 RAE04 P0000=
200706152053 METAR KBLI 152053Z VRB03KT 10SM -RA OVC007 13/12 A3005 RMK AO2 CIG 004V009 SLP183 P0000 60004 T01330122 53001=
200706151953 METAR KBLI 151953Z 20003KT 10SM -RA OVC007 13/12 A3005 RMK AO2 SLP181 P0002 T01330117=
200706151933 SPECI KBLI 151933Z 00000KT 10SM -RA BKN007 BKN070 13/11 A3005 RMK AO2 P0001=
200706151933 SPECI KBLI 151933Z 00000KT 10SM -RA BKN007 BKN070 13/11 A3005 RMK AO2 P0001=
200706151853 METAR KBLI 151853Z 18003KT 9SM -RA FEW008 SCT020 BKN032 12/11 A3004 RMK AO2 SLP180 P0002 T01220106=
200706151753 METAR KBLI 151753Z 00000KT 8SM -RA FEW008 BKN036 BKN070 12/10 A3005 RMK AO2 SLP181 P0002 60014 T01220100 10122 20106 50000=
200706151710 SPECI KBLI 151710Z 00000KT 10SM -RA FEW008 BKN036 BKN070 12/11 A3004 RMK AO2 P0000=
200706151710 SPECI KBLI 151710Z 00000KT 10SM -RA FEW008 BKN036 BKN070 12/11 A3004 RMK AO2 P0000=
200706151653 METAR KBLI 151653Z 00000KT 9SM -RA SCT024 BKN070 12/10 A3005 RMK AO2 SLP181 P0003 T01170100=
200706151609 SPECI KBLI 151609Z 18003KT 8SM -RA SCT024 BKN070 11/10 A3005 RMK AO2 P0001=
200706151609 SPECI KBLI 151609Z 18003KT 8SM -RA SCT024 BKN070 11/10 A3005 RMK AO2 P0001=
200706151600 SPECI KBLI 151600Z 17004KT 9SM -RA BKN024 BKN070 11/10 A3005 RMK AO2 P0000=
200706151600 SPECI KBLI 151600Z 17004KT 9SM -RA BKN024 BKN070 11/10 A3005 RMK AO2 P0000=
200706151553 METAR KBLI 151553Z 17004KT 9SM -RA SCT022 BKN070 11/10 A3005 RMK AO2 SLP183 P0004 T01110100=
200706151514 SPECI KBLI 151514Z 18004KT 6SM -RA BR BKN024 OVC070 11/10 A3005 RMK AO2 P0001=
200706151514 SPECI KBLI 151514Z 18004KT 6SM -RA BR BKN024 OVC070 11/10 A3005 RMK AO2 P0001=
200706151453 METAR KBLI 151453Z 00000KT 7SM -RA SCT026 OVC070 11/10 A3004 RMK AO2 SLP181 P0004 60005 T01110100 53006=
200706151353 METAR KBLI 151353Z 00000KT 8SM -RA BKN049 OVC075 11/10 A3004 RMK AO2 RAB01 SLP178 P0001 T01110100=
200706151253 METAR KBLI 151253Z AUTO 00000KT 10SM OVC075 11/09 A3002 RMK AO2 SLP171 T01110094=
200706151153 METAR KBLI 151153Z AUTO 16004KT 10SM OVC100 11/08 A3003 RMK AO2 SLP175 T01110083 10111 20094 53001=
200706151053 METAR KBLI 151053Z AUTO 00000KT 10SM BKN120 11/08 A3003 RMK AO2 SLP175 T01060078=
200706150953 METAR KBLI 150953Z AUTO 00000KT 10SM FEW110 10/08 A3002 RMK AO2 SLP174 T01000083=
200706150853 METAR KBLI 150853Z AUTO 00000KT 10SM CLR 10/08 A3003 RMK AO2 SLP174 T01000083 56005=
200706150753 METAR KBLI 150753Z AUTO 00000KT 10SM CLR 11/08 A3003 RMK AO2 SLP175 T01060083 401720094=
200706150653 METAR KBLI 150653Z AUTO 00000KT 10SM CLR 10/08 A3004 RMK AO2 SLP178 T01000078=
200706150553 METAR KBLI 150553Z AUTO 00000KT 10SM CLR 11/08 A3004 RMK AO2 SLP179 T01060083 10172 20100 58013=
200706150453 METAR KBLI 150453Z 00000KT 10SM CLR 11/08 A3006 RMK AO2 SLP185 T01060078=
200706150353 METAR KBLI 150353Z 00000KT 10SM CLR 13/08 A3006 RMK AO2 SLP187 T01280083=
200706150253 METAR KBLI 150253Z VRB04KT 10SM CLR 16/07 A3008 RMK AO2 SLP192 T01560072 56025=
200706150153 METAR KBLI 150153Z VRB05KT 10SM CLR 17/06 A3010 RMK AO2 SLP199 T01670061=
200706150053 METAR KBLI 150053Z VRB03KT 10SM CLR 17/06 A3013 RMK AO2 SLP208 T01720061=
200706142353 METAR KBLI 142353Z VRB06KT 10SM BKN070 17/07 A3015 RMK AO2 SLP217 T01670067 10172 20133 56016=
200706142253 METAR KBLI 142253Z VRB06KT 10SM OVC065 16/08 A3016 RMK AO2 SLP221 T01610078=
200706142153 METAR KBLI 142153Z 15007KT 120V210 10SM OVC070 16/08 A3018 RMK AO2 SLP227 T01610078=
200706142053 METAR KBLI 142053Z 16006KT 10SM BKN075 16/07 A3020 RMK AO2 SLP233 T01610072 58007=
200706141953 METAR KBLI 141953Z 17008KT 10SM OVC070 16/08 A3021 RMK AO2 SLP238 T01560083=
200706141853 METAR KBLI 141853Z 16010G14KT 10SM BKN070 14/08 A3021 RMK AO2 SLP238 T01440083=
200706141753 METAR KBLI 141753Z 17008KT 10SM OVC036 14/08 A3022 RMK AO2 SLP240 T01390083 10139 20106 51001=
200706141653 METAR KBLI 141653Z 17009KT 10SM SCT036 BKN075 13/08 A3022 RMK AO2 SLP240 T01330083=
200706141553 METAR KBLI 141553Z 16008KT 10SM OVC075 12/08 A3022 RMK AO2 SLP240 T01220083=
200706141453 METAR KBLI 141453Z 17007KT 10SM FEW060 OVC075 12/08 A3021 RMK AO2 SLP238 T01170083 53008=
200706141353 METAR KBLI 141353Z 17004KT 10SM OVC080 11/08 A3020 RMK AO2 SLP234 T01110078=
200706141253 METAR KBLI 141253Z AUTO 17009KT 10SM OVC080 11/08 A3020 RMK AO2 SLP234 T01060078=
200706141153 METAR KBLI 141153Z AUTO 17007KT 10SM FEW060 OVC080 11/08 A3019 RMK AO2 SLP230 T01060078 10128 20100 58002=
200706141053 METAR KBLI 141053Z AUTO 17007KT 10SM OVC070 11/08 A3019 RMK AO2 SLP231 T01110078=
200706140953 METAR KBLI 140953Z AUTO 00000KT 10SM BKN070 11/08 A3020 RMK AO2 SLP232 T01110078=
200706140853 METAR KBLI 140853Z AUTO 00000KT 10SM OVC065 12/08 A3020 RMK AO2 SLP232 T01170078 50000=
200706140753 METAR KBLI 140753Z 17004KT 10SM OVC065 12/08 A3020 RMK AO2 SLP234 T01220078 401610111=
200706140653 METAR KBLI 140653Z 16005KT 10SM BKN060 BKN080 OVC090 12/08 A3020 RMK AO2 SLP233 T01220078=
200706140553 METAR KBLI 140553Z VRB03KT 10SM OVC070 13/08 A3020 RMK AO2 SLP232 T01280078 10150 20128 53003=
200706140453 METAR KBLI 140453Z 16005KT 10SM OVC060 13/08 A3019 RMK AO2 SLP230 T01330078=
200706140353 METAR KBLI 140353Z 17004KT 10SM OVC055 13/08 A3019 RMK AO2 SLP229 T01330078=
200706140253 METAR KBLI 140253Z 16004KT 10SM OVC055 14/08 A3019 RMK AO2 SLP229 T01390078 56003=
200706140153 METAR KBLI 140153Z 16007KT 10SM FEW055 OVC085 14/08 A3019 RMK AO2 SLP229 T01440078=
200706140053 METAR KBLI 140053Z 16009KT 10SM FEW049 SCT080 BKN090 14/08 A3019 RMK AO2 SLP230 T01440078=
200706132353 METAR KBLI 132353Z 17007KT 10SM BKN060 OVC070 14/07 A3020 RMK AO2 SLP232 60000 T01440072 10161 20122 51002=
200706132253 METAR KBLI 132253Z 17008KT 10SM SCT055 BKN080 15/07 A3020 RMK AO2 SLP232 T01500072=
200706132153 METAR KBLI 132153Z 16008KT 10SM OVC049 14/07 A3019 RMK AO2 SLP231 T01440072=
200706132053 METAR KBLI 132053Z 16006KT 10SM OVC045 13/07 A3019 RMK AO2 SLP231 60000 T01330072 51014=
200706131953 METAR KBLI 131953Z 16008KT 10SM OVC047 13/08 A3019 RMK AO2 RAB36E45 SLP228 P0000 T01330083=
200706131853 METAR KBLI 131853Z 17008KT 10SM OVC041 12/09 A3017 RMK AO2 SLP223 T01220089=
200706131753 METAR KBLI 131753Z 18007KT 10SM OVC039 12/09 A3015 RMK AO2 SLP217 T01220089 10128 20111 53013=
200706131653 METAR KBLI 131653Z 15008KT 10SM OVC049 13/08 A3013 RMK AO2 SLP211 T01280083=
200706131553 METAR KBLI 131553Z 17008KT 10SM BKN047 OVC065 13/07 A3013 RMK AO2 SLP208 T01280072=
200706131453 METAR KBLI 131453Z 17008KT 10SM SCT047 OVC070 13/08 A3011 RMK AO2 SLP204 T01280083 53009=
200706131353 METAR KBLI 131353Z AUTO 16011KT 10SM OVC065 13/08 A3009 RMK AO2 SLP197 T01280083=
200706131253 METAR KBLI 131253Z AUTO 18009KT 10SM BKN060 12/09 A3008 RMK AO2 SLP192 T01220089=
200706131153 METAR KBLI 131153Z AUTO 16003KT 10SM BKN065 OVC080 11/10 A3008 RMK AO2 SLP194 60000 70003 T01110100 10122 20111 55000=
200706131053 METAR KBLI 131053Z AUTO 00000KT 10SM OVC060 12/11 A3008 RMK AO2 SLP194 T01170106=
200706130953 METAR KBLI 130953Z AUTO 00000KT 10SM OVC065 11/11 A3008 RMK AO2 SLP193 T01110106=
200706130853 METAR KBLI 130853Z AUTO 00000KT 10SM OVC070 11/11 A3008 RMK AO2 SLP194 60000 T01110106 56008=
200706130753 METAR KBLI 130753Z AUTO 00000KT 10SM OVC070 12/11 A3009 RMK AO2 SLP196 T01170106 401720083=
200706130653 METAR KBLI 130653Z AUTO 00000KT 9SM OVC060 12/11 A3010 RMK AO2 RAE17 SLP200 P0000 T01220111=
200706130553 METAR KBLI 130553Z AUTO 00000KT 10SM -RA BKN060 OVC080 12/11 A3011 RMK AO2 RAE11B45 SLP203 P0001 60002 T01220111 10167 20117 58001=
200706130453 METAR KBLI 130453Z 00000KT 8SM -RA OVC080 12/10 A3011 RMK AO2 RAB15 SLP205 P0001 T01220100=
200706130353 METAR KBLI 130353Z VRB03KT 10SM OVC090 14/10 A3011 RMK AO2 SLP203 T01390100=
200706130253 METAR KBLI 130253Z 00000KT 10SM OVC100 15/09 A3011 RMK AO2 SLP204 T01500089 56014=
200706130153 METAR KBLI 130153Z VRB05KT 10SM SCT100 16/08 A3012 RMK AO2 SLP206 T01560078=
200706130053 METAR KBLI 130053Z VRB03KT 10SM CLR 16/08 A3012 RMK AO2 SLP207 T01610078=
200706122353 METAR KBLI 122353Z VRB04KT 10SM BKN110 16/07 A3015 RMK AO2 SLP217 T01610072 10172 20133 58006=
200706122253 METAR KBLI 122253Z VRB05KT 10SM CLR 16/07 A3016 RMK AO2 SLP221 T01610072=
200706122153 METAR KBLI 122153Z 30006KT 10SM FEW033 SCT043 16/08 A3017 RMK AO2 SLP223 T01610078=
200706122053 METAR KBLI 122053Z VRB04KT 10SM FEW043 SCT060 17/07 A3017 RMK AO2 SLP224 T01670072 58011=
200706121953 METAR KBLI 121953Z VRB05KT 10SM BKN065 16/08 A3019 RMK AO2 SLP230 T01560078=
200706121853 METAR KBLI 121853Z 16005KT 10SM FEW027 OVC065 14/08 A3020 RMK AO2 SLP232 T01440078=
200706121753 METAR KBLI 121753Z VRB03KT 10SM OVC070 14/08 A3020 RMK AO2 SLP234 60001 T01390078 10139 20083 50006=
200706121653 METAR KBLI 121653Z VRB05KT 10SM OVC070 13/08 A3020 RMK AO2 SLP235 T01280083=
200706121553 METAR KBLI 121553Z VRB03KT 10SM FEW013 OVC060 12/08 A3020 RMK AO2 SLP233 T01170078=
200706121453 METAR KBLI 121453Z 36003KT 10SM SCT070 12/09 A3018 RMK AO2 RAE09 SLP228 P0000 60001 T01170094 51009=
200706121353 METAR KBLI 121353Z 00000KT 10SM -RA OVC060 11/09 A3017 RMK AO2 RAB1254 SLP225 P0001 T01060094=
200706121253 METAR KBLI 121253Z AUTO 00000KT 10SM OVC050 09/08 A3017 RMK AO2 SLP222 T00940083=
200706121153 METAR KBLI 121153Z AUTO 00000KT 10SM SCT055 OVC070 09/08 A3015 RMK AO2 SLP218 60000 70001 T00890078 10106 20089 51009=
200706121053 METAR KBLI 121053Z AUTO 00000KT 10SM OVC050 09/08 A3015 RMK AO2 RAB00E10 SLP216 P0000 T00940083=
200706120953 METAR KBLI 120953Z AUTO 00000KT 10SM OVC070 10/08 A3014 RMK AO2 RAE10 SLP213 P0000 T01000083=
200706120853 METAR KBLI 120853Z AUTO 00000KT 10SM -RA BKN055 OVC080 10/08 A3013 RMK AO2 RAB48 SLP210 P0000 60000 T01000078 52005=
200706120753 METAR KBLI 120753Z AUTO 15003KT 10SM BKN060 OVC120 09/07 A3012 RMK AO2 SLP207 T00940072 401560089=
200706120653 METAR KBLI 120653Z AUTO 17003KT 10SM FEW055 BKN075 BKN095 10/07 A3012 RMK AO2 SLP207 T01000072=
200706120553 METAR KBLI 120553Z AUTO 00000KT 10SM SCT050 OVC100 09/07 A3011 RMK AO2 SLP204 T00940067 10156 20094 53010=
200706120453 METAR KBLI 120453Z 22003KT 10SM BKN060 OVC110 11/07 A3010 RMK AO2 SLP201 T01060067=
200706120353 METAR KBLI 120353Z 00000KT 10SM SCT065 OVC100 12/07 A3009 RMK AO2 SLP197 T01170067=
200706120253 METAR KBLI 120253Z 00000KT 10SM OVC070 13/05 A3009 RMK AO2 SLP195 T01330050 50003=
200706120153 METAR KBLI 120153Z 00000KT 10SM OVC080 14/06 A3009 RMK AO2 SLP196 T01390061=
200706120053 METAR KBLI 120053Z 17005KT 10SM OVC070 14/06 A3008 RMK AO2 SLP193 T01440061=
200706112353 METAR KBLI 112353Z 17007KT 140V220 10SM SCT075 BKN090 BKN110 15/06 A3008 RMK AO2 SLP192 T01500056 10156 20122 51005=
200706112253 METAR KBLI 112253Z 17007KT 10SM BKN090 14/07 A3008 RMK AO2 SLP192 T01440067=
200706112153 METAR KBLI 112153Z 17008KT 10SM FEW095 15/06 A3007 RMK AO2 SLP188 T01500056=
200706112053 METAR KBLI 112053Z 16009KT 10SM CLR 14/07 A3006 RMK AO2 SLP186 T01390067 50003=
200706111953 METAR KBLI 111953Z 16009KT 10SM CLR 13/06 A3006 RMK AO2 SLP187 T01330061=
200706111853 METAR KBLI 111853Z 17008KT 10SM BKN095 13/07 A3005 RMK AO2 SLP184 T01330067=
200706111753 METAR KBLI 111753Z 15006KT 10SM FEW060 BKN090 12/06 A3005 RMK AO2 SLP183 60001 T01220061 10128 20089 51003=
200706111653 METAR KBLI 111653Z 14007KT 090V180 10SM FEW050 13/06 A3005 RMK AO2 SLP183 T01280061=
200706111553 METAR KBLI 111553Z 14005KT 10SM FEW047 BKN060 OVC080 11/06 A3005 RMK AO2 RAB12E25 SLP184 P0000 T01060061=
200706111453 METAR KBLI 111453Z 13004KT 10SM SCT050 OVC070 10/06 A3004 RMK AO2 RAB1354E11 SLP180 P0000 60001 T01000061 53010=
200706111353 METAR KBLI 111353Z 15004KT 10SM BKN048 OVC060 09/06 A3003 RMK AO2 RAB11E48 SLP176 P0001 T00940061=
200706111253 METAR KBLI 111253Z AUTO 15004KT 10SM BKN060 OVC070 09/06 A3002 RMK AO2 RAB41E51 SLP173 P0000 T00940056=
200706111153 METAR KBLI 111153Z AUTO 15004KT 10SM BKN060 BKN075 09/05 A3001 RMK AO2 SLP170 60000 70012 T00940050 10106 20094 52004=
200706111053 METAR KBLI 111053Z AUTO 16008KT 10SM OVC060 10/04 A3001 RMK AO2 RAB32E41 SLP168 P0000 T01000044=
200706110953 METAR KBLI 110953Z AUTO 12003KT 10SM OVC075 09/06 A3000 RMK AO2 SLP167 T00940061=
200706110853 METAR KBLI 110853Z AUTO 15007KT 10SM OVC070 10/06 A3000 RMK AO2 SLP165 60000 T01000056 50003=
200706110753 METAR KBLI 110753Z AUTO 15007KT 10SM OVC065 11/06 A3000 RMK AO2 SLP166 T01060061 401560100=
200706110653 METAR KBLI 110653Z AUTO 17005KT 10SM OVC070 11/07 A3000 RMK AO2 RAE0559B30E43 SLP165 P0000 T01060067=
200706110553 METAR KBLI 110553Z AUTO 16005KT 10SM -RA FEW038 OVC070 11/07 A2999 RMK AO2 RAB00E29B48 SLP161 P0000 60002 T01060072 10128 20100 53010=
200706110453 METAR KBLI 110453Z 13007KT 10SM BKN065 OVC080 11/08 A2997 RMK AO2 RAB02E14 SLP157 P0001 T01060078=
200706110353 METAR KBLI 110353Z 14008KT 10SM OVC070 11/08 A2996 RMK AO2 RAE27 SLP153 P0000 T01110083=
200706110253 METAR KBLI 110253Z 16004KT 10SM -RA OVC060 12/09 A2996 RMK AO2 SLP152 P0000 60001 T01170094 53010=
200706110153 METAR KBLI 110153Z 14008KT 10SM -RA OVC060 12/09 A2994 RMK AO2 SLP146 P0000 T01220089=
200706110053 METAR KBLI 110053Z 17005KT 10SM -RA OVC047 12/09 A2994 RMK AO2 RAB02 SLP145 P0001 T01220094=
200706102353 METAR KBLI 102353Z 17006KT 10SM OVC055 12/11 A2993 RMK AO2 RAE53 SLP142 P0002 60005 T01220106 10156 20122 51014=
200706102253 METAR KBLI 102253Z 18003KT 6SM -RA BR SCT023 OVC036 13/11 A2992 RMK AO2 SLP140 P0001 T01280106=
200706102200 SPECI KBLI 102200Z 00000KT 8SM -RA SCT029 OVC034 13/11 A2990 RMK AO2 P0000=
200706102200 SPECI KBLI 102200Z 00000KT 8SM -RA SCT029 OVC034 13/11 A2990 RMK AO2 P0000=
200706102153 METAR KBLI 102153Z 00000KT 5SM RA BKN029 OVC034 14/11 A2991 RMK AO2 RAB14 SLP134 P0002 T01390111=
200706102120 SPECI KBLI 102120Z VRB04KT 8SM -RA BKN025 OVC030 14/10 A2990 RMK AO2 RAB14 P0000=
200706102120 SPECI KBLI 102120Z VRB04KT 8SM -RA BKN025 OVC030 14/10 A2990 RMK AO2 RAB14 P0000=
200706102053 METAR KBLI 102053Z VRB04KT 10SM SCT025 BKN049 BKN095 15/09 A2989 RMK AO2 SLP128 T01500094 51008=
200706101953 METAR KBLI 101953Z 18007KT 150V220 10SM OVC041 15/10 A2989 RMK AO2 SLP126 T01500100=
200706101853 METAR KBLI 101853Z 18008G15KT 10SM BKN034 OVC080 14/09 A2988 RMK AO2 SLP122 T01440094=
200706101753 METAR KBLI 101753Z 16011G22KT 10SM BKN085 14/10 A2986 RMK AO2 SLP118 60005 T01440100 10144 20117 51002=
200706101653 METAR KBLI 101653Z 16010KT 10SM FEW028 SCT037 BKN065 14/10 A2986 RMK AO2 SLP118 T01390100=
200706101601 SPECI KBLI 101601Z 17007KT 10SM SCT022 BKN030 OVC036 13/10 A2986 RMK AO2=
200706101601 SPECI KBLI 101601Z 17007KT 10SM SCT022 BKN030 OVC036 13/10 A2986 RMK AO2=
200706101553 METAR KBLI 101553Z 17007KT 10SM BKN025 OVC030 13/10 A2987 RMK AO2 SLP120 T01330100=
200706101541 SPECI KBLI 101541Z 17009KT 10SM OVC028 12/10 A2986 RMK AO2=
200706101541 SPECI KBLI 101541Z 17009KT 10SM OVC028 12/10 A2986 RMK AO2=
200706101523 SPECI KBLI 101523Z 16012KT 10SM BKN030 OVC037 12/10 A2986 RMK AO2=
200706101523 SPECI KBLI 101523Z 16012KT 10SM BKN030 OVC037 12/10 A2986 RMK AO2=
200706101453 METAR KBLI 101453Z 16009KT 10SM OVC026 12/09 A2986 RMK AO2 RAE03 SLP117 P0000 60005 T01220094 51011=
200706101353 METAR KBLI 101353Z 16009KT 3SM -RA BR BKN019 OVC024 12/10 A2985 RMK AO2 RAB1254 SLP115 P0005 T01170100=
200706101253 METAR KBLI 101253Z AUTO 16012G16KT 10SM FEW022 OVC029 13/10 A2984 RMK AO2 SLP110 T01280100=
200706101153 METAR KBLI 101153Z AUTO 00000KT 10SM OVC036 12/11 A2982 RMK AO2 RAE19 SLP106 P0001 60002 70032 T01220106 10150 20117 53005=
200706101053 METAR KBLI 101053Z AUTO 17005KT 9SM -RA FEW022 OVC030 12/11 A2982 RMK AO2 RAE19B52 SLP103 P0001 T01220106=
200706101051 SPECI KBLI 101051Z AUTO 18006KT 10SM FEW022 OVC030 12/10 A2981 RMK AO2 RAE19 P0000=
200706101051 SPECI KBLI 101051Z AUTO 18006KT 10SM FEW022 OVC030 12/10 A2981 RMK AO2 RAE19 P0000=
200706100953 METAR KBLI 100953Z AUTO 18006KT 10SM -RA FEW012 SCT020 OVC025 13/11 A2981 RMK AO2 RAB49 SLP101 P0000 T01280111=
200706100901 SPECI KBLI 100901Z AUTO 18005KT 10SM SCT012 OVC025 13/11 A2979 RMK AO2=
200706100901 SPECI KBLI 100901Z AUTO 18005KT 10SM SCT012 OVC025 13/11 A2979 RMK AO2=
200706100853 METAR KBLI 100853Z AUTO 18007KT 10SM BKN012 OVC025 13/11 A2979 RMK AO2 SLP095 T01280111 53012=
200706100834 SPECI KBLI 100834Z AUTO 17010G18KT 10SM BKN014 OVC018 13/11 A2978 RMK AO2=
200706100834 SPECI KBLI 100834Z AUTO 17010G18KT 10SM BKN014 OVC018 13/11 A2978 RMK AO2=
200706100804 SPECI KBLI 100804Z AUTO 17011G22KT 10SM OVC016 14/11 A2977 RMK AO2=
200706100804 SPECI KBLI 100804Z AUTO 17011G22KT 10SM OVC016 14/11 A2977 RMK AO2=
200706100753 METAR KBLI 100753Z AUTO 17011G19KT 10SM OVC014 14/11 A2977 RMK AO2 SLP085 T01390111 401560106=
200706100743 SPECI KBLI 100743Z AUTO 16013G19KT 10SM OVC014 14/11 A2977 RMK AO2=
200706100743 SPECI KBLI 100743Z AUTO 16013G19KT 10SM OVC014 14/11 A2977 RMK AO2=
200706100653 METAR KBLI 100653Z AUTO 16011G21KT 10SM OVC020 14/11 A2977 RMK AO2 SLP085 T01440111=
200706100553 METAR KBLI 100553Z AUTO 16012G21KT 10SM BKN024 OVC031 14/11 A2976 RMK AO2 SLP082 60002 T01440111 10150 20128 56001=
200706100542 SPECI KBLI 100542Z AUTO 15017G23KT 10SM BKN024 OVC033 14/11 A2975 RMK AO2=
200706100542 SPECI KBLI 100542Z AUTO 15017G23KT 10SM BKN024 OVC033 14/11 A2975 RMK AO2=
200706100453 METAR KBLI 100453Z 16012G17KT 10SM SCT024 BKN033 14/11 A2976 RMK AO2 SLP084 T01440111=
200706100353 METAR KBLI 100353Z 16015G23KT 10SM FEW023 BKN031 14/11 A2975 RMK AO2 PK WND 14027/0315 SLP081 T01440111=
200706100253 METAR KBLI 100253Z 16014G22KT 10SM BKN021 BKN029 OVC034 14/11 A2976 RMK AO2 SLP084 60002 T01440111 56006=
200706100153 METAR KBLI 100153Z 16009G19KT 10SM BKN015 OVC021 14/12 A2977 RMK AO2 RAE12 SLP086 P0000 T01390117=
200706100150 SPECI KBLI 100150Z 16010G21KT 10SM BKN015 OVC021 14/12 A2977 RMK AO2 RAE12 P0000=
200706100150 SPECI KBLI 100150Z 16010G21KT 10SM BKN015 OVC021 14/12 A2977 RMK AO2 RAE12 P0000=
200706100053 METAR KBLI 100053Z 15005KT 6SM -RA BR BKN013 OVC028 13/12 A2978 RMK AO2 SLP090 P0002 T01330122=
200706100018 SPECI KBLI 100018Z 17006KT 5SM -RA BR FEW005 BKN012 OVC031 13/12 A2978 RMK AO2 P0001=
200706100018 SPECI KBLI 100018Z 17006KT 5SM -RA BR FEW005 BKN012 OVC031 13/12 A2978 RMK AO2 P0001=
200706092353 METAR KBLI 092353Z 16006KT 4SM -RA BR BKN005 BKN010 OVC020 13/12 A2979 RMK AO2 SLP093 P0004 60020 T01280117 10156 20122 58002=
200706092313 SPECI KBLI 092313Z 17006KT 4SM -RA BR BKN007 BKN019 OVC040 13/12 A2979 RMK AO2 P0002=
200706092313 SPECI KBLI 092313Z 17006KT 4SM -RA BR BKN007 BKN019 OVC040 13/12 A2979 RMK AO2 P0002=
200706092300 SPECI KBLI 092300Z 17008KT 4SM -RA BR SCT007 BKN024 OVC040 12/11 A2979 RMK AO2 P0001=
200706092300 SPECI KBLI 092300Z 17008KT 4SM -RA BR SCT007 BKN024 OVC040 12/11 A2979 RMK AO2 P0001=
200706092253 METAR KBLI 092253Z 17010KT 6SM -RA BR SCT011 BKN027 OVC040 12/11 A2979 RMK AO2 SLP095 P0003 T01220111=
200706092230 SPECI KBLI 092230Z 17010KT 7SM -RA FEW009 BKN024 OVC033 12/11 A2980 RMK AO2 P0002=
200706092230 SPECI KBLI 092230Z 17010KT 7SM -RA FEW009 BKN024 OVC033 12/11 A2980 RMK AO2 P0002=
200706092222 SPECI KBLI 092222Z 17012G19KT 5SM -RA BR FEW009 BKN033 OVC039 12/11 A2980 RMK AO2 P0001=
200706092222 SPECI KBLI 092222Z 17012G19KT 5SM -RA BR FEW009 BKN033 OVC039 12/11 A2980 RMK AO2 P0001=
200706092153 METAR KBLI 092153Z 17008KT 7SM -RA BKN024 OVC034 13/12 A2980 RMK AO2 RAB11 SLP097 P0006 T01330117=
200706092131 SPECI KBLI 092131Z 17010G20KT 5SM BR BKN027 OVC033 13/12 A2979 RMK AO2 RAB11E24 P0002=
200706092131 SPECI KBLI 092131Z 17010G20KT 5SM BR BKN027 OVC033 13/12 A2979 RMK AO2 RAB11E24 P0002=
200706092053 METAR KBLI 092053Z 17009KT 10SM BKN031 OVC038 14/12 A2979 RMK AO2 RAE25 SLP096 P0000 60007 T01440117 58015=
200706091953 METAR KBLI 091953Z 12008KT 10SM -RA FEW022 BKN039 15/12 A2981 RMK AO2 SLP100 P0004 T01500117=
200706091853 METAR KBLI 091853Z 00000KT 5SM -RA BR FEW031 OVC043 14/12 A2983 RMK AO2 SLP108 P0003 T01390117=
200706091753 METAR KBLI 091753Z 12004KT 7SM -RA SCT029 OVC036 14/12 A2984 RMK AO2 SLP111 P0004 60008 T01390117 10139 20111 56004=
200706091746 SPECI KBLI 091746Z 14003KT 6SM -RA BR OVC032 14/12 A2984 RMK AO2 P0003=
200706091746 SPECI KBLI 091746Z 14003KT 6SM -RA BR OVC032 14/12 A2984 RMK AO2 P0003=
200706091736 SPECI KBLI 091736Z 14004KT 7SM -RA BKN029 BKN037 OVC070 14/12 A2984 RMK AO2 P0002=
200706091736 SPECI KBLI 091736Z 14004KT 7SM -RA BKN029 BKN037 OVC070 14/12 A2984 RMK AO2 P0002=
200706091653 METAR KBLI 091653Z 13004KT 9SM -RA SCT023 BKN037 OVC080 14/12 A2984 RMK AO2 SLP111 P0004 T01390117=
200706091616 SPECI KBLI 091616Z 00000KT 6SM -RA BR BKN027 OVC049 13/11 A2985 RMK AO2 P0002=
200706091616 SPECI KBLI 091616Z 00000KT 6SM -RA BR BKN027 OVC049 13/11 A2985 RMK AO2 P0002=
200706091553 METAR KBLI 091553Z 00000KT 7SM -RA BKN033 BKN055 BKN070 13/10 A2984 RMK AO2 RAB41 SLP113 P0000 T01280100=
200706091453 METAR KBLI 091453Z 00000KT 10SM CLR 13/09 A2985 RMK AO2 SLP113 T01280094 58006=
200706091353 METAR KBLI 091353Z 00000KT 10SM OVC100 12/09 A2986 RMK AO2 SLP117 T01170094=
200706091253 METAR KBLI 091253Z AUTO 00000KT 10SM BKN110 12/09 A2986 RMK AO2 SLP118 T01170089=
200706091153 METAR KBLI 091153Z AUTO 00000KT 10SM BKN110 11/09 A2987 RMK AO2 SLP119 T01110089 10133 20106 56016=
200706091053 METAR KBLI 091053Z AUTO 17003KT 10SM OVC110 11/08 A2988 RMK AO2 SLP124 T01110083=
200706090953 METAR KBLI 090953Z AUTO 00000KT 10SM BKN110 12/09 A2989 RMK AO2 SLP129 T01170089=
200706090853 METAR KBLI 090853Z AUTO 00000KT 10SM OVC050 12/09 A2991 RMK AO2 SLP135 T01170094 56010=
200706090753 METAR KBLI 090753Z AUTO 00000KT 10SM BKN050 12/09 A2992 RMK AO2 SLP137 T01220094 401830056=
200706090653 METAR KBLI 090653Z AUTO 00000KT 10SM CLR 12/08 A2993 RMK AO2 SLP141 T01170083=
200706090553 METAR KBLI 090553Z AUTO 00000KT 10SM BKN070 13/09 A2994 RMK AO2 SLP146 T01330089 10178 20128 57003=
200706090453 METAR KBLI 090453Z 19003KT 10SM CLR 13/09 A2995 RMK AO2 SLP147 T01280094=
200706090353 METAR KBLI 090353Z 00000KT 10SM CLR 14/09 A2995 RMK AO2 SLP147 T01440094=
200706090253 METAR KBLI 090253Z VRB04KT 10SM CLR 16/09 A2995 RMK AO2 SLP149 T01560089 58013=
200706090153 METAR KBLI 090153Z 13005KT 10SM CLR 16/09 A2996 RMK AO2 SLP153 T01610089=
200706090053 METAR KBLI 090053Z 12008KT 10SM CLR 17/08 A2998 RMK AO2 SLP159 T01720083=
200706082353 METAR KBLI 082353Z 14009KT 10SM SCT040 18/08 A2999 RMK AO2 SLP162 T01780083 10183 20144 58013=
200706082253 METAR KBLI 082253Z 13008KT 10SM SCT040 18/08 A3000 RMK AO2 SLP167 T01830083=
200706082153 METAR KBLI 082153Z 13008KT 10SM SCT040 18/08 A3002 RMK AO2 SLP173 T01780083=
200706082053 METAR KBLI 082053Z 14007KT 10SM CLR 17/08 A3003 RMK AO2 SLP175 T01720078 56007=
200706081953 METAR KBLI 081953Z 15007KT 10SM CLR 17/08 A3003 RMK AO2 SLP177 T01670083=
200706081853 METAR KBLI 081853Z 16006KT 10SM CLR 15/08 A3004 RMK AO2 SLP180 T01500078=
200706081753 METAR KBLI 081753Z 16007KT 10SM CLR 14/08 A3005 RMK AO2 SLP183 T01440078 10144 20056 56009=
200706081653 METAR KBLI 081653Z 16008KT 10SM CLR 13/09 A3006 RMK AO2 SLP185 T01330089=
200706081553 METAR KBLI 081553Z 16006KT 10SM CLR 12/08 A3006 RMK AO2 SLP187 T01220083=
200706081453 METAR KBLI 081453Z 17004KT 10SM CLR 11/07 A3008 RMK AO2 SLP192 T01110072 58001=
200706081353 METAR KBLI 081353Z 16004KT 10SM BKN033 10/07 A3008 RMK AO2 SLP193 T01000072=
200706081253 METAR KBLI 081253Z AUTO 00000KT 9SM CLR 06/05 A3008 RMK AO2 SLP194 T00560050=
200706081153 METAR KBLI 081153Z AUTO 00000KT 10SM FEW033 06/05 A3008 RMK AO2 SLP193 T00610050 10111 20056 58005=
200706081053 METAR KBLI 081053Z AUTO 15003KT 10SM CLR 08/05 A3008 RMK AO2 SLP195 T00780050=
200706080953 METAR KBLI 080953Z AUTO 16004KT 10SM CLR 08/06 A3009 RMK AO2 SLP198 T00830056=
200706080853 METAR KBLI 080853Z AUTO 15004KT 10SM CLR 08/06 A3009 RMK AO2 SLP198 T00830056 58005=
200706080753 METAR KBLI 080753Z AUTO 00000KT 10SM CLR 08/06 A3010 RMK AO2 SLP200 T00830061 401500083=
200706080653 METAR KBLI 080653Z AUTO 14003KT 10SM CLR 09/06 A3011 RMK AO2 SLP201 T00940061=
200706080553 METAR KBLI 080553Z AUTO 15006KT 10SM CLR 11/06 A3011 RMK AO2 SLP203 T01110061 10150 20106 50000=
200706080453 METAR KBLI 080453Z 16007KT 10SM CLR 12/06 A3011 RMK AO2 SLP205 T01170061=
200706080353 METAR KBLI 080353Z 16005KT 10SM CLR 12/07 A3011 RMK AO2 SLP203 T01220072=
200706080253 METAR KBLI 080253Z 18006KT 10SM CLR 14/07 A3011 RMK AO2 SLP203 T01390067 57006=
200706080153 METAR KBLI 080153Z 16009KT 10SM CLR 14/07 A3012 RMK AO2 SLP205 T01440072=
200706080053 METAR KBLI 080053Z 16008KT 10SM CLR 14/08 A3012 RMK AO2 SLP206 T01440078=
200706072353 METAR KBLI 072353Z 17009KT 10SM BKN075 15/07 A3013 RMK AO2 SLP209 T01500072 10150 20122 58003=
200706072253 METAR KBLI 072253Z 17006KT 10SM BKN037 BKN045 OVC070 14/08 A3014 RMK AO2 SLP212 T01440078=
200706072153 METAR KBLI 072153Z 16012G16KT 10SM SCT027 OVC035 14/07 A3013 RMK AO2 SLP210 T01440072=
200706072129 SPECI KBLI 072129Z 16009KT 10SM BKN027 OVC035 14/08 A3013 RMK AO2=
200706072129 SPECI KBLI 072129Z 16009KT 10SM BKN027 OVC035 14/08 A3013 RMK AO2=
200706072053 METAR KBLI 072053Z 17007KT 10SM OVC035 14/07 A3014 RMK AO2 SLP212 T01390072 50000=
200706071953 METAR KBLI 071953Z 15008KT 10SM OVC031 14/09 A3014 RMK AO2 SLP213 T01390089=
200706071912 SPECI KBLI 071912Z VRB04KT 10SM FEW016 OVC035 13/08 A3014 RMK AO2=
200706071912 SPECI KBLI 071912Z VRB04KT 10SM FEW016 OVC035 13/08 A3014 RMK AO2=
200706071909 SPECI KBLI 071909Z 18004KT 10SM FEW016 BKN028 OVC037 13/08 A3014 RMK AO2=
200706071909 SPECI KBLI 071909Z 18004KT 10SM FEW016 BKN028 OVC037 13/08 A3014 RMK AO2=
200706071853 METAR KBLI 071853Z 14007KT 10SM FEW016 OVC035 13/09 A3014 RMK AO2 SLP213 T01330089=
200706071753 METAR KBLI 071753Z 15006KT 10SM BKN032 OVC040 12/09 A3014 RMK AO2 SLP212 T01220089 10122 20100 51005=
200706071653 METAR KBLI 071653Z 14009KT 9SM OVC028 12/09 A3013 RMK AO2 SLP211 T01170089=
200706071553 METAR KBLI 071553Z 16008KT 10SM OVC026 11/08 A3013 RMK AO2 SLP211 T01110083=
200706071453 METAR KBLI 071453Z 15006KT 10SM SCT019 OVC028 11/08 A3012 RMK AO2 SLP207 T01060083 51012=
200706071353 METAR KBLI 071353Z 17004KT 10SM BKN013 BKN023 OVC029 10/09 A3011 RMK AO2 SLP203 T01000089=
200706071316 SPECI KBLI 071316Z AUTO 16004KT 10SM OVC013 10/09 A3011 RMK AO2=
200706071316 SPECI KBLI 071316Z AUTO 16004KT 10SM OVC013 10/09 A3011 RMK AO2=
200706071253 METAR KBLI 071253Z AUTO 15005KT 6SM BR SCT010 OVC015 10/09 A3010 RMK AO2 SLP199 T01000089=
200706071240 SPECI KBLI 071240Z AUTO 16005KT 3SM BR FEW006 OVC012 10/09 A3010 RMK AO2=
200706071240 SPECI KBLI 071240Z AUTO 16005KT 3SM BR FEW006 OVC012 10/09 A3010 RMK AO2=
200706071233 SPECI KBLI 071233Z AUTO 16004KT 4SM BR SCT009 OVC015 10/09 A3010 RMK AO2=
200706071233 SPECI KBLI 071233Z AUTO 16004KT 4SM BR SCT009 OVC015 10/09 A3010 RMK AO2=
200706071153 METAR KBLI 071153Z AUTO 16005KT 6SM BR BKN007 OVC015 10/09 A3009 RMK AO2 CIG 004V010 SLP195 60002 70010 T01000089 10111 20100 53005=
200706071053 METAR KBLI 071053Z AUTO 17006KT 9SM OVC007 10/09 A3007 RMK AO2 CIG 004V008 SLP191 T01000089=
200706070953 METAR KBLI 070953Z AUTO 14004KT 10SM OVC009 10/09 A3007 RMK AO2 CIG 006V012 SLP190 P0001 T01000094=
200706070853 METAR KBLI 070853Z AUTO 15005KT 4SM BR OVC007 10/09 A3007 RMK AO2 RAB14E46 CIG 005V013 SLP190 P0001 60001 T01000094 51005=
200706070753 METAR KBLI 070753Z AUTO 15004KT 10SM BKN007 OVC015 11/09 A3007 RMK AO2 CIG 005V010 SLP189 T01060089 401390094=
200706070729 SPECI KBLI 070729Z 15004KT 9SM BKN009 OVC036 11/09 A3007 RMK AO2 CIG 007V012=
200706070729 SPECI KBLI 070729Z 15004KT 9SM BKN009 OVC036 11/09 A3007 RMK AO2 CIG 007V012=
200706070714 SPECI KBLI 070714Z 15005KT 8SM FEW009 SCT013 OVC036 11/09 A3006 RMK AO2=
200706070714 SPECI KBLI 070714Z 15005KT 8SM FEW009 SCT013 OVC036 11/09 A3006 RMK AO2=
200706070653 METAR KBLI 070653Z 16005KT 10SM OVC042 11/08 A3006 RMK AO2 SLP188 T01060083=
200706070615 SPECI KBLI 070615Z 15007KT 10SM SCT013 OVC035 11/08 A3006 RMK AO2=
200706070615 SPECI KBLI 070615Z 15007KT 10SM SCT013 OVC035 11/08 A3006 RMK AO2=
200706070601 SPECI KBLI 070601Z 16005KT 10SM BKN013 OVC037 11/08 A3006 RMK AO2=
200706070601 SPECI KBLI 070601Z 16005KT 10SM BKN013 OVC037 11/08 A3006 RMK AO2=
200706070553 METAR KBLI 070553Z 15005KT 10SM BKN015 OVC042 11/08 A3006 RMK AO2 SLP185 T01110083 10133 20111 51010=
200706070453 METAR KBLI 070453Z 16003KT 10SM OVC044 11/08 A3005 RMK AO2 SLP183 T01110083=
200706070353 METAR KBLI 070353Z 15005KT 10SM BKN047 OVC055 12/08 A3004 RMK AO2 SLP178 T01170078=
200706070253 METAR KBLI 070253Z 15007KT 10SM FEW038 OVC050 12/08 A3003 RMK AO2 SLP175 T01220078 53010=
200706070153 METAR KBLI 070153Z 15006KT 10SM OVC040 12/08 A3002 RMK AO2 SLP171 T01220078=
200706070053 METAR KBLI 070053Z 16008KT 10SM BKN040 OVC049 12/08 A3000 RMK AO2 SLP167 T01220078=
200706062353 METAR KBLI 062353Z 16009KT 10SM FEW021 OVC041 13/08 A3000 RMK AO2 RAB11E29 SLP165 P0000 60000 T01330078 10139 20100 51014=
200706062253 METAR KBLI 062253Z 15007KT 10SM FEW036 BKN055 OVC080 13/08 A2999 RMK AO2 SLP162 T01330078=
200706062153 METAR KBLI 062153Z 15007KT 10SM OVC049 13/07 A2998 RMK AO2 SLP158 T01280072=
200706062053 METAR KBLI 062053Z 15006KT 10SM OVC034 12/08 A2996 RMK AO2 SLP152 T01220078 53010=
200706062012 SPECI KBLI 062012Z 15012G20KT 10SM BKN026 BKN034 OVC041 13/09 A2995 RMK AO2=
200706062012 SPECI KBLI 062012Z 15012G20KT 10SM BKN026 BKN034 OVC041 13/09 A2995 RMK AO2=
200706061953 METAR KBLI 061953Z 17009KT 10SM FEW026 OVC032 12/08 A2994 RMK AO2 SLP146 T01220078=
200706061853 METAR KBLI 061853Z 15009KT 10SM BKN018 OVC025 11/08 A2993 RMK AO2 SLP142 T01110078=
200706061753 METAR KBLI 061753Z 18006KT 10SM SCT015 BKN023 OVC027 11/08 A2993 RMK AO2 RAE09 SLP141 P0000 60008 T01060078 10106 20094 53006=
200706061653 METAR KBLI 061653Z 20005KT 10SM -RA BKN015 OVC025 10/08 A2992 RMK AO2 SLP139 P0000 T01000078=
200706061553 METAR KBLI 061553Z 18006KT 10SM -RA SCT013 BKN028 OVC034 10/08 A2991 RMK AO2 SLP136 P0002 T01000078=
200706061550 SPECI KBLI 061550Z 17007KT 9SM -RA FEW015 BKN028 OVC034 10/08 A2991 RMK AO2 P0002=
200706061550 SPECI KBLI 061550Z 17007KT 9SM -RA FEW015 BKN028 OVC034 10/08 A2991 RMK AO2 P0002=
200706061453 METAR KBLI 061453Z 17005KT 9SM -RA FEW021 OVC030 10/08 A2990 RMK AO2 SLP132 P0003 60006 T01000078 51011=
200706061450 SPECI KBLI 061450Z 17004KT 9SM -RA FEW021 OVC030 10/08 A2990 RMK AO2 P0003=
200706061450 SPECI KBLI 061450Z 17004KT 9SM -RA FEW021 OVC030 10/08 A2990 RMK AO2 P0003=
200706061353 METAR KBLI 061353Z 00000KT 7SM -RA OVC028 09/07 A2988 RMK AO2 SLP127 P0002 T00940072=
200706061341 SPECI KBLI 061341Z AUTO 00000KT 8SM -RA OVC028 09/08 A2988 RMK AO2 P0002=
200706061341 SPECI KBLI 061341Z AUTO 00000KT 8SM -RA OVC028 09/08 A2988 RMK AO2 P0002=
200706061253 METAR KBLI 061253Z AUTO 18003KT 10SM -RA FEW022 BKN034 OVC060 10/07 A2987 RMK AO2 SLP121 P0001 T01000072=
200706061153 METAR KBLI 061153Z AUTO 16010KT 10SM -RA FEW020 OVC060 10/08 A2986 RMK AO2 RAB31 SLP117 P0000 60022 70023 T01000078 10117 20094 53008=
200706061053 METAR KBLI 061053Z AUTO 16003KT 10SM FEW031 OVC055 09/08 A2984 RMK AO2 RAE0954B20E45 SLP112 P0000 T00940078=
200706060953 METAR KBLI 060953Z AUTO 13005KT 10SM -RA BKN033 OVC050 09/08 A2983 RMK AO2 SLP110 P0001 T00940078=
200706060853 METAR KBLI 060853Z AUTO VRB05KT 6SM -RA BR FEW019 BKN031 OVC041 09/08 A2983 RMK AO2 SLP109 P0012 60021 T00940083 58001=
200706060803 SPECI KBLI 060803Z AUTO 16005KT 4SM RA BR BKN021 BKN028 OVC035 10/08 A2984 RMK AO2 P0004=
200706060803 SPECI KBLI 060803Z AUTO 16005KT 4SM RA BR BKN021 BKN028 OVC035 10/08 A2984 RMK AO2 P0004=
200706060753 METAR KBLI 060753Z AUTO 14007KT 2 1/2SM +RA BR OVC022 10/08 A2984 RMK AO2 RAB20 SLP111 P0009 T01000083 401500100=
200706060700 METAR KBLI NIL=
200706060653 METAR KBLI 060653Z AUTO 00000KT 10SM BKN019 BKN030 OVC075 11/09 A2984 RMK AO2 RAE14 SLP112 P0000 T01110094=
200706060628 SPECI KBLI 060628Z AUTO 00000KT 10SM SCT013 BKN022 OVC045 12/10 A2984 RMK AO2 RAE14 P0000=
200706060628 SPECI KBLI 060628Z AUTO 00000KT 10SM SCT013 BKN022 OVC045 12/10 A2984 RMK AO2 RAE14 P0000=
200706060553 METAR KBLI 060553Z AUTO 00000KT 10SM -RA FEW040 OVC055 12/09 A2984 RMK AO2 RAB16 SLP111 P0001 60001 T01170089 10150 20117 53011=
200706060453 METAR KBLI 060453Z 17005KT 10SM BKN050 BKN060 OVC095 13/06 A2982 RMK AO2 RAB14E28 SLP105 P0000 T01280056=
200706060353 METAR KBLI 060353Z 00000KT 10SM BKN060 OVC090 13/06 A2981 RMK AO2 RAB12E47 SLP101 P0000 T01280056=
200706060253 METAR KBLI 060253Z 15006KT 10SM OVC055 14/04 A2981 RMK AO2 SLP100 T01440044 56003=
200706060153 METAR KBLI 060153Z 16009KT 10SM OVC065 14/06 A2981 RMK AO2 SLP101 T01440056=
200706060053 METAR KBLI 060053Z 15007KT 10SM FEW090 15/06 A2981 RMK AO2 SLP099 T01500061=
200706052353 METAR KBLI 052353Z 15009KT 10SM BKN085 14/06 A2981 RMK AO2 SLP102 T01440061 10150 20128 58002=
200706052253 METAR KBLI 052253Z 16009KT 10SM OVC080 15/07 A2981 RMK AO2 SLP101 T01500072=
200706052153 METAR KBLI 052153Z 16010G17KT 10SM BKN070 15/08 A2982 RMK AO2 SLP104 T01500083=
200706052053 METAR KBLI 052053Z 16007KT 10SM FEW040 BKN075 14/08 A2982 RMK AO2 SLP105 T01440083 50000=
200706051953 METAR KBLI 051953Z 17006KT 10SM FEW026 BKN065 BKN085 14/09 A2983 RMK AO2 SLP108 T01390089=
200706051853 METAR KBLI 051853Z 16007KT 10SM BKN060 BKN075 13/09 A2983 RMK AO2 SLP107 T01330089=
200706051753 METAR KBLI 051753Z 17008KT 10SM SCT055 13/09 A2982 RMK AO2 RAE1654 SLP103 60000 T01330094 10139 20117 56008=
200706051653 METAR KBLI 051653Z 17005KT 10SM -RA OVC060 13/10 A2983 RMK AO2 RAB25 SLP106 P0000 T01280100=
200706051553 METAR KBLI 051553Z 17004KT 10SM OVC055 13/09 A2983 RMK AO2 SLP107 T01280094=
200706051453 METAR KBLI 051453Z VRB03KT 10SM OVC055 12/09 A2984 RMK AO2 SLP112 T01220094 53001=
200706051353 METAR KBLI 051353Z 17006KT 10SM OVC055 13/11 A2984 RMK AO2 SLP110 T01280106=
200706051253 METAR KBLI 051253Z AUTO 18005KT 10SM OVC048 13/11 A2984 RMK AO2 SLP110 T01330111=
200706051153 METAR KBLI 051153Z AUTO 17005KT 10SM OVC044 13/12 A2984 RMK AO2 SLP111 60005 70007 T01330117 10150 20133 58004=
200706051053 METAR KBLI 051053Z AUTO 16004KT 10SM BKN042 OVC055 13/12 A2985 RMK AO2 SLP115 T01330122=
200706050953 METAR KBLI 050953Z AUTO 00000KT 10SM BKN042 BKN050 OVC060 13/12 A2985 RMK AO2 SLP114 T01330122=
200706050853 METAR KBLI 050853Z AUTO VRB03KT 10SM BKN042 BKN055 OVC070 13/13 A2985 RMK AO2 RAE38 SLP115 P0001 60005 T01330128 56002=
200706050822 SPECI KBLI 050822Z AUTO 17006KT 9SM -RA FEW004 BKN035 OVC044 14/13 A2986 RMK AO2 P0001=
200706050822 SPECI KBLI 050822Z AUTO 17006KT 9SM -RA FEW004 BKN035 OVC044 14/13 A2986 RMK AO2 P0001=
200706050753 METAR KBLI 050753Z AUTO 17005KT 9SM -RA SCT006 BKN019 OVC027 14/13 A2986 RMK AO2 SLP116 P0004 T01390128 401940139=
200706050722 SPECI KBLI 050722Z AUTO 17007KT 8SM -RA BKN008 BKN013 OVC022 14/13 A2985 RMK AO2 P0001=
200706050722 SPECI KBLI 050722Z AUTO 17007KT 8SM -RA BKN008 BKN013 OVC022 14/13 A2985 RMK AO2 P0001=
200706050713 SPECI KBLI 050713Z AUTO 17005KT 7SM -RA SCT008 BKN013 OVC022 14/13 A2985 RMK AO2 P0001=
200706050713 SPECI KBLI 050713Z AUTO 17005KT 7SM -RA SCT008 BKN013 OVC022 14/13 A2985 RMK AO2 P0001=
200706050706 SPECI KBLI 050706Z AUTO 17004KT 7SM -RA BKN013 OVC023 14/13 A2985 RMK AO2 P0001=
200706050706 SPECI KBLI 050706Z AUTO 17004KT 7SM -RA BKN013 OVC023 14/13 A2985 RMK AO2 P0001=
200706050653 METAR KBLI 050653Z AUTO 17005KT 10SM -RA OVC015 15/13 A2985 RMK AO2 RAB52 SLP114 P0000 T01500128=
200706050553 METAR KBLI 050553Z AUTO 18007KT 10SM OVC022 15/12 A2986=
200706050453 METAR KBLI 050453Z 15006KT 10SM BKN033 16/12 A2986 RMK AO2 RAB04E20 SLP119 P0000 T01560117=
200706050353 METAR KBLI 050353Z 11007KT 10SM SCT060 OVC080 17/12 A2987 RMK AO2 SLP120 T01670122=
200706050253 METAR KBLI 050253Z VRB03KT 10SM OVC075 18/14 A2986 RMK AO2 RAB20E31 SLP116 P0000 60000 T01780144 58003=
200706050153 METAR KBLI 050153Z VRB05KT 10SM BKN090 18/13 A2987 RMK AO2 RAB0056E51 SLP120 P0000 T01780133=
200706050053 METAR KBLI 050053Z VRB06KT 10SM OVC095 18/13 A2987 RMK AO2 SLP120 T01780133=
200706042353 METAR KBLI 042353Z 04003KT 10SM BKN100 18/14 A2987 RMK AO2 SLP119 60002 T01830144 10194 20150 58009=
200706042253 METAR KBLI 042253Z VRB06KT 10SM SCT070 19/14 A2988 RMK AO2 RAE13 SLP122 P0000 T01890144=
200706042153 METAR KBLI 042153Z 11006KT 10SM -RA SCT044 BKN080 BKN100 18/14 A2989 RMK AO2 RAB00E16B38 SLP127 P0001 T01780139=
200706042053 METAR KBLI 042053Z 13008KT 10SM SCT055 BKN080 BKN110 17/13 A2989 RMK AO2 RAE10B32E48 SLP129 P0000 60001 T01720133 58003=
200706041953 METAR KBLI 041953Z 14007KT 120V180 10SM -RA FEW020 BKN080 BKN100 16/13 A2990 RMK AO2 RAE1855B49 SLP132 P0000 T01610128=
200706041853 METAR KBLI 041853Z 17006KT 10SM -RA FEW025 16/12 A2990 RMK AO2 SLP131 P0001 T01560122=
200706041753 METAR KBLI 041753Z 15008KT 10SM -RA CLR 17/12 A2990 RMK AO2 RAB53 SLP132 P0000 60000 T01670117 10183 20144 53017=
200706041653 METAR KBLI 041653Z 18009KT 10SM CLR 16/12 A2988 RMK AO2 SLP123 T01610117=
200706041553 METAR KBLI 041553Z 13008KT 10SM CLR 18/11 A2986 RMK AO2 SLP117 T01780111=
200706041508 SPECI KBLI 041508Z 11007KT 10SM SCT015 16/12 A2985 RMK AO2=
200706041508 SPECI KBLI 041508Z 11007KT 10SM SCT015 16/12 A2985 RMK AO2=
200706041453 METAR KBLI 041453Z VRB05KT 10SM BKN015 16/12 A2985 RMK AO2 SLP115 T01610122 51003=
200706041449 SPECI KBLI 041449Z VRB05KT 10SM OVC015 16/12 A2985 RMK AO2=
200706041449 SPECI KBLI 041449Z VRB05KT 10SM OVC015 16/12 A2985 RMK AO2=
200706041422 SPECI KBLI 041422Z 13004KT 10SM BKN013 16/12 A2984 RMK AO2=
200706041422 SPECI KBLI 041422Z 13004KT 10SM BKN013 16/12 A2984 RMK AO2=
200706041353 METAR KBLI 041353Z VRB03KT 10SM SCT013 15/12 A2986 RMK AO2 SLP116 T01500122=
200706041253 METAR KBLI 041253Z AUTO VRB03KT 8SM CLR 15/14 A2984 RMK AO2 SLP112 T01500139 $=
200706041153 METAR KBLI 041153Z AUTO 00000KT 8SM CLR 15/14 A2986 RMK AO2 SLP117 60001 70023 T01500139 10161 20139 58029 $=
200706041053 METAR KBLI 041053Z AUTO 35003KT 10SM OVC120 14/13 A2989 RMK AO2 SLP128 T01390128 $=
200706040953 METAR KBLI 040953Z AUTO 00000KT 10SM BKN100 BKN120 14/13 A2992 RMK AO2 SLP137 T01390128 $=
200706040853 METAR KBLI 040853Z AUTO 00000KT 10SM OVC090 14/13 A2995 RMK AO2 RAB03E38 SLP146 P0001 60001 T01440133 50009 $=
200706040753 METAR KBLI 040753Z AUTO 17007KT 10SM FEW075 OVC100 16/12 A2995 RMK AO2 SLP148 T01560117 402560128 $=
200706040653 METAR KBLI 040653Z AUTO 17008KT 10SM CLR 16/12 A2994 RMK AO2 SLP144 T01560122 $=
200706040553 METAR KBLI 040553Z AUTO VRB05KT 10SM FEW100 16/14 A2992 RMK AO2 LTG DSNT N AND NE TSB27E39RAE31 SLP138 P0018 60022 T01610144 10244 20161 52029 $=
200706040545 SPECI KBLI 040545Z AUTO 12007KT 10SM SCT095 17/14 A2992 RMK AO2 LTG DSNT NE TSB27E39RAE31 P0018 $=
200706040545 SPECI KBLI 040545Z AUTO 12007KT 10SM SCT095 17/14 A2992 RMK AO2 LTG DSNT NE TSB27E39RAE31 P0018 $=
200706040533 SPECI KBLI 040533Z AUTO 17006KT 10SM VCTS BKN100 16/14 A2992 RMK AO2 LTG DSNT NW TSB27RAE31 P0018 $=
200706040533 SPECI KBLI 040533Z AUTO 17006KT 10SM VCTS BKN100 16/14 A2992 RMK AO2 LTG DSNT NW TSB27RAE31 P0018 $=
200706040453 METAR KBLI 040453Z 16008KT 5SM RA SCT039 OVC100 17/13 A2990 RMK AO2 RAB05 SLP129 TS OVHD MOV N TG CTG P0004 T01670133 $=
200706040446 SPECI KBLI 040446Z 17010KT 10SM FEW060 OVC100 17/13 A2989 RMK AO2 RAB05E42 TS OVHD MOV N TG CTG P0001 $=
200706040446 SPECI KBLI 040446Z 17010KT 10SM FEW060 OVC100 17/13 A2989 RMK AO2 RAB05E42 TS OVHD MOV N TG CTG P0001 $=
200706040424 SPECI KBLI 040424Z 17012G22KT 10SM FEW070 SCT095 BKN120 17/12 A2987 RMK AO2 RAB05E17 P0000 $=
200706040424 SPECI KBLI 040424Z 17012G22KT 10SM FEW070 SCT095 BKN120 17/12 A2987 RMK AO2 RAB05E17 P0000 $=
200706040353 METAR KBLI 040353Z 17013G22KT 10SM SCT120 17/11 A2986 RMK AO2 SLP117 T01720111 $=
200706040253 METAR KBLI 040253Z 17009KT 10SM CLR 19/12 A2984 RMK AO2 SLP109 T01890122 53010 $=
200706040153 METAR KBLI 040153Z 16009KT 10SM CLR 21/12 A2982 RMK AO2 SLP105 T02110117 $=
200706040053 METAR KBLI 040053Z 14010KT 10SM CLR 21/12 A2982 RMK AO2 SLP102 T02110122 $=
200706032353 METAR KBLI 032353Z 12009KT 10SM CLR 23/13 A2980 RMK AO2 SLP098 T02330133 10256 20183 56016 $=
200706032253 METAR KBLI 032253Z VRB04KT 10SM CLR 24/13 A2982 RMK AO2 SLP101 T02440133 $=
200706032153 METAR KBLI 032153Z 12008KT 10SM CLR 24/13 A2984 RMK AO2 SLP109 T02390133 $=
200706032053 METAR KBLI 032053Z VRB06KT 10SM CLR 23/12 A2985 RMK AO2 SLP114 T02280122 58010 $=
200706031953 METAR KBLI 031953Z 13007KT 10SM CLR 22/13 A2986 RMK AO2 SLP117 T02220128 $=
200706031853 METAR KBLI 031853Z VRB05KT 10SM CLR 20/12 A2988 RMK AO2 SLP123 T02000122 $=
200706031753 METAR KBLI 031753Z 14008KT 10SM CLR 19/12 A2988 RMK AO2 SLP124 T01890117 10189 20128 50001 $=
200706031653 METAR KBLI 031653Z 15008KT 10SM CLR 16/12 A2988 RMK AO2 SLP126 T01610117=
200706031553 METAR KBLI 031553Z 14007KT 120V180 10SM CLR 16/11 A2988 RMK AO2 SLP125 T01610111=
200706031453 METAR KBLI 031453Z 16006KT 10SM CLR 14/11 A2988 RMK AO2 SLP123 T01440111 53006=
200706031353 METAR KBLI 031353Z 16003KT 10SM CLR 14/11 A2986 RMK AO2 SLP116 T01390106=
200706031253 METAR KBLI 031253Z AUTO 18006KT 10SM CLR 13/11 A2987 RMK AO2 SLP120 T01330106=
200706031153 METAR KBLI 031153Z AUTO 18004KT 10SM CLR 13/11 A2986 RMK AO2 SLP115 T01330111 10156 20128 56003=
200706031053 METAR KBLI 031053Z AUTO 18004KT 10SM CLR 14/11 A2986 RMK AO2 SLP116 T01390111=
200706030953 METAR KBLI 030953Z AUTO 00000KT 10SM CLR 13/11 A2986 RMK AO2 SLP115 T01330111=
200706030853 METAR KBLI 030853Z AUTO 17003KT 10SM CLR 14/12 A2987 RMK AO2 SLP118 T01390117 51001=
200706030753 METAR KBLI 030753Z AUTO 18003KT 10SM CLR 14/11 A2986 RMK AO2 SLP118 T01440111 402500089=
200706030653 METAR KBLI 030653Z AUTO 16006KT 10SM CLR 16/12 A2987 RMK AO2 SLP120 T01560117=
200706030553 METAR KBLI 030553Z AUTO 14005KT 10SM CLR 16/13 A2986 RMK AO2 SLP118 T01560128 10250 20156 50003=
200706030453 METAR KBLI 030453Z 13007KT 10SM CLR 17/13 A2987 RMK AO2 SLP120 T01670128=
200706030353 METAR KBLI 030353Z 11007KT 10SM CLR 16/12 A2986 RMK AO2 SLP117 T01610122=
200706030253 METAR KBLI 030253Z 11008KT 10SM CLR 20/12 A2985 RMK AO2 SLP115 T02000117 56006=
200706030153 METAR KBLI 030153Z VRB04KT 10SM CLR 24/11 A2986 RMK AO2 SLP116 T02390111=
200706030053 METAR KBLI 030053Z VRB05KT 10SM CLR 25/11 A2986 RMK AO2 SLP117 T02500111=
200706022353 METAR KBLI 022353Z 35009KT 10SM CLR 24/10 A2987 RMK AO2 SLP121 T02440100 10250 20189 56019=
200706022253 METAR KBLI 022253Z 36007KT 300V010 10SM CLR 25/12 A2989 RMK AO2 SLP126 T02500117=
200706022153 METAR KBLI 022153Z 33007KT 240V360 10SM CLR 24/12 A2991 RMK AO2 SLP132 T02390117=
200706022053 METAR KBLI 022053Z 33007KT 220V360 10SM CLR 23/13 A2993 RMK AO2 SLP140 T02330133 56008=
200706021953 METAR KBLI 021953Z VRB05KT 10SM CLR 22/12 A2994 RMK AO2 SLP143 T02170122=
200706021853 METAR KBLI 021853Z 31007KT 260V360 10SM CLR 21/13 A2994 RMK AO2 SLP144 T02060133=
200706021753 METAR KBLI 021753Z 13008KT 10SM CLR 19/12 A2995 RMK AO2 SLP148 T01890122 10189 20111 55002=
200706021653 METAR KBLI 021653Z 13007KT 10SM CLR 17/12 A2995 RMK AO2 SLP147 T01720117=
200706021553 METAR KBLI 021553Z 02006KT 10SM CLR 17/11 A2995 RMK AO2 SLP148 T01720111=
200706021453 METAR KBLI 021453Z 15003KT 10SM CLR 14/10 A2996 RMK AO2 SLP150 T01440100 51010=
200706021353 METAR KBLI 021353Z 16006KT 10SM CLR 13/09 A2995 RMK AO2 SLP148 T01330094=
200706021253 METAR KBLI 021253Z AUTO 18005KT 10SM CLR 12/09 A2995 RMK AO2 SLP147 T01170089=
200706021153 METAR KBLI 021153Z AUTO 19003KT 10SM CLR 11/08 A2993 RMK AO2 SLP141 T01110083 10150 20089 53003=
200706021053 METAR KBLI 021053Z AUTO 00000KT 10SM CLR 09/08 A2992 RMK AO2 SLP137 T00940078=
200706020953 METAR KBLI 020953Z AUTO 16003KT 10SM CLR 12/08 A2992 RMK AO2 SLP136 T01220083=
200706020853 METAR KBLI 020853Z AUTO 18005KT 10SM CLR 13/09 A2992 RMK AO2 SLP138 T01330089 51012=
200706020753 METAR KBLI 020753Z AUTO 18005KT 10SM CLR 13/08 A2991 RMK AO2 SLP135 T01330083 402280106=
200706020653 METAR KBLI 020653Z AUTO 18007KT 10SM CLR 14/09 A2990 RMK AO2 SLP131 T01440094=
200706020553 METAR KBLI 020553Z AUTO 17006KT 10SM CLR 15/12 A2989 RMK AO2 SLP126 T01500117 10222 20150 53007=
200706020453 METAR KBLI 020453Z VRB06KT 10SM CLR 16/12 A2988 RMK AO2 SLP123 T01610122=
200706020353 METAR KBLI 020353Z 11006KT 10SM CLR 18/13 A2987 RMK AO2 SLP119 T01780133=
200706020253 METAR KBLI 020253Z 11007KT 10SM CLR 20/13 A2987 RMK AO2 SLP119 T02000128 56007=
200706020153 METAR KBLI 020153Z VRB03KT 10SM CLR 20/11 A2987 RMK AO2 SLP121 T02000111=
200706020053 METAR KBLI 020053Z VRB04KT 10SM CLR 21/10 A2988 RMK AO2 SLP122 T02110100=
200706012353 METAR KBLI 012353Z VRB05KT 10SM CLR 22/09 A2989 RMK AO2 SLP126 T02170094 10228 20156 56014=
200706012253 METAR KBLI 012253Z VRB05KT 10SM CLR 23/11 A2990 RMK AO2 SLP130 T02280106=
200706012153 METAR KBLI 012153Z VRB05KT 10SM CLR 21/13 A2991 RMK AO2 SLP133 T02110133=
200706012053 METAR KBLI 012053Z 14008KT 10SM CLR 21/13 A2993 RMK AO2 SLP140 T02060128 56011=
200706011953 METAR KBLI 011953Z VRB06KT 10SM CLR 18/11 A2994 RMK AO2 SLP144 T01830111=
200706011853 METAR KBLI 011853Z 13007KT 10SM CLR 17/11 A2995 RMK AO2 SLP148 T01720111=
200706011753 METAR KBLI 011753Z VRB03KT 10SM CLR 16/11 A2996 RMK AO2 SLP152 T01560106 10156 20106 58003=
200706011653 METAR KBLI 011653Z 17005KT 10SM CLR 14/10 A2997 RMK AO2 SLP156 T01390100=
200706011553 METAR KBLI 011553Z 19006KT 10SM CLR 12/09 A2997 RMK AO2 SLP157 T01220094=
200706011522 SPECI KBLI 011522Z 17006KT 10SM FEW007 12/09 A2998 RMK AO2=
200706011522 SPECI KBLI 011522Z 17006KT 10SM FEW007 12/09 A2998 RMK AO2=
200706011453 METAR KBLI 011453Z 17008KT 10SM CLR 12/09 A2997 RMK AO2 SLP155 T01220094 51005=
200706011353 METAR KBLI 011353Z 17007KT 10SM CLR 12/09 A2997 RMK AO2 SLP154 T01170094=
200706011253 METAR KBLI 011253Z AUTO 17007KT 10SM CLR 11/09 A2997 RMK AO2 SLP154 T01060089=
200706011153 METAR KBLI 011153Z AUTO 17008KT 10SM CLR 11/09 A2996 RMK AO2 SLP150 T01110089 10144 20111 53005=
200706011053 METAR KBLI 011053Z AUTO 17010KT 10SM CLR 12/09 A2995 RMK AO2 SLP148 T01220094=
200706010953 METAR KBLI 010953Z AUTO 18008KT 10SM CLR 12/09 A2994 RMK AO2 SLP145 T01220094=
200706010853 METAR KBLI 010853Z AUTO 18006KT 10SM CLR 13/10 A2994 RMK AO2 SLP145 T01330100 50002=
200706010753 METAR KBLI 010753Z AUTO 18008KT 10SM CLR 13/10 A2995 RMK AO2 SLP147 T01330100 402000117=
200706010653 METAR KBLI 010653Z AUTO 18006KT 10SM CLR 14/10 A2994 RMK AO2 SLP145 T01390100=
200706010553 METAR KBLI 010553Z AUTO 17007KT 10SM CLR 14/10 A2994 RMK AO2 SLP143 T01440100 10200 20144 53001=
200706010453 METAR KBLI 010453Z 18010KT 10SM CLR 16/11 A2994 RMK AO2 SLP143 T01560106=
200706010353 METAR KBLI 010353Z 18009KT 10SM CLR 16/11 A2993 RMK AO2 SLP141 T01560111=
200706010253 METAR KBLI 010253Z 15009KT 10SM CLR 17/11 A2993 RMK AO2 SLP142 T01720111 56014=
200706010153 METAR KBLI 010153Z 15007KT 120V200 10SM CLR 18/11 A2994 RMK AO2 SLP145 T01830106=
200706010053 METAR KBLI 010053Z 15007KT 130V190 10SM CLR 18/11 A2996 RMK AO2 SLP151 T01830106=

# No short TAF reports from KBLI in databse.

###################################
#  large TAF from KBLI
###################################
200706302324 TAF KBLI 302324Z 010024 33006KT P6SM SCT060 FM0400 VRB03KT P6SM
                       SKC FM1200 VRB03KT P6SM BKN200 FM1700 19007KT
                       P6SM SCT120 BKN200=
200706301720 TAF KBLI 301720Z 301818 VRB03KT P6SM SCT060 FM2100 23008KT P6SM
                       SCT060 FM0400 VRB03KT P6SM SKC FM1200 VRB03KT
                       P6SM BKN200=
200706301120 TAF KBLI 301120Z 301212 18005KT P6SM BKN060 BKN080 FM1800 20007KT
                       P6SM SCT060 SCT080 FM2200 23008KT P6SM FEW080
                       FM0400 20004KT P6SM SCT200=
200706300937 KBLI 300937Z 301006 16006KT P6SM VCSH SCT030 OVC060 FM1200 18005KT
                       P6SM SCT035 BKN050 FM1800 20007KT P6SM SCT050
                       FM2200 23008KT P6SM SCT050 SCT080=
200706300526 TAF KBLI 300526Z 300606 16006KT P6SM VCSH SCT030 OVC060 FM0800
                       18005KT P6SM SCT035 BKN050 FM1800 20007KT
                       P6SM SCT050 FM2200 23008KT P6SM SCT050 SCT080=
200706292320 TAF KBLI 292320Z 300024 18012G20KT P6SM VCTS SCT030CB BKN050
                      TEMPO 0004 -SHRA BKN030CB OVC050 FM0400 18010KT
                       P6SM VCSH BKN035 BKN050 FM0800 18005KT P6SM
                       SCT035 BKN050 FM2000 20007KT P6SM SCT050=
200706291720 TAF KBLI 291720Z 291818 16009KT P6SM SCT050 FM2000 18012G20KT P6SM
                       SCT030 BKN050
                      TEMPO 2024 -SHRA BKN030 OVC050 FM0000 18012G20KT
                       P6SM SCT030 BKN050
                      TEMPO 0004 -SHRA BKN030 OVC050 FM0400 18008KT
                       P6SM VCSH BKN035 BKN050 FM0800 18005KT P6SM
                       SCT035 BKN050=
200706291124 TAF KBLI 291124Z 291212 16009KT P6SM VCSH SCT025 BKN060
                      TEMPO 1317 BKN020 OVC050 FM2000 18012G20KT
                       P6SM -SHRA BKN035 BKN050 FM0200 18008KT
                       P6SM VCSH BKN035 BKN050 FM0800 18005KT P6SM
                       BKN025=
200706290932 KBLI 290932Z 291006 16009KT P6SM VCSH BKN018 BKN024 OVC045 FM1700
                       16010KT P6SM VCSH SCT020 BKN030 OVC045 FM2000
                       19012G20KT P6SM -SHRA BKN035 BKN050 FM0200
                       18008KT P6SM VCSH BKN035 BKN050=
200706290520 TAF KBLI 290520Z 290606 00000KT P6SM SCT040 BKN060 FM1000 18006KT
                       P6SM VCSH BKN030 BKN080 FM2000 19012G20KT
                       P6SM -SHRA BKN035 BKN050 FM0200 18008KT
                       P6SM VCSH BKN035 BKN050=
200706282320 TAF KBLI 282320Z 290024 17012KT P6SM -SHRA BKN040 BKN080
                      TEMPO 0003 5SM SHRA BKN030CB FM0800 18010KT
                       P6SM VCSH BKN030 BKN080 FM1800 22012G20KT
                       P6SM VCSH BKN040=
200706281731 TAF KBLI 281731Z 281818 VRB03KT P6SM SCT050 BKN080 BKN150
                      TEMPO 1821 5SM -RA BKN050 OVC080 FM2100 16010KT
                       P6SM -RA SCT030 OVC050
                      TEMPO 2101 5SM RA OVC030 FM0100 18012KT P6SM
                       SCT030 BKN050 BKN090
                      TEMPO 0105 5SM SHRA BKN030CB FM0800 VRB03KT
                       P6SM BKN030 BKN050 BKN100=
200706281120 TAF KBLI 281120Z 281212 20003KT P6SM -RA OVC090 FM1400 16012KT
                       P6SM -RA SCT025 OVC050 FM2200 18012G20KT
                       P6SM -SHRA SCT025 OVC050 FM0400 15008KT
                       P6SM -SHRA SCT025 OVC050=
200706280532 TAF KBLI 280532Z 280606 17010KT P6SM BKN120 FM1000 16008KT P6SM
                       OVC100 FM1400 16012KT P6SM -RA SCT025 OVC050
                       FM2200 18010KT P6SM -RA SCT025 OVC050=
200706272320 TAF KBLI 272320Z 280024 14008KT P6SM BKN150 FM1000 16008KT P6SM
                       OVC100 FM2100 16012KT P6SM -RA OVC050=
200706271720 TAF KBLI 271720Z 271818 18007KT P6SM SCT150 OVC200 FM0200 21007KT
                       P6SM OVC120 FM0800 18008KT P6SM OVC080 FM1200
                       16010KT P6SM OVC050
                      PROB30 1218 -RA=
200706271120 TAF KBLI 271120Z 271212 18006KT P6SM BKN120 FM1800 20008KT P6SM
                       BKN120 FM0400 18008KT P6SM SCT050 OVC100
                       FM1000 16008KT P6SM BKN045 OVC080
                      PROB30 1012 -RA=
200706270520 TAF KBLI 270520Z 270606 17004KT P6SM SCT120 BKN200 FM1200 18008KT
                       P6SM SCT020 SCT060 BKN120 FM1800 20008KT
                       P6SM SCT060 BKN120 FM0400 18008KT P6SM SCT050
                       OVC100=
200706262320 TAF KBLI 262320Z 270024 VRB05KT P6SM BKN120 FM1200 21007KT P6SM
                       SCT020 SCT060 BKN120=
200706262016 KBLI 262016Z 262018 02014KT P6SM SCT200 FM0000 34012KT P6SM BKN120
                       FM1200 21007KT P6SM SCT012 SCT060 BKN120=
200706261720 TAF KBLI 261720Z 261818 02006KT P6SM SCT150 FM0000 32012KT P6SM
                       BKN120 FM1200 21007KT P6SM SCT012 SCT060
                       BKN120=
200706261120 TAF KBLI 261120Z 261212 36004KT P6SM SKC FM2100 26005KT P6SM BKN200
                       FM0200 20008KT P6SM BKN120 OVC200 FM0700
                       18008KT P6SM BKN120 OVC200=
200706260520 TAF KBLI 260520Z 260606 02005KT P6SM SCT200 FM2100 26005KT P6SM
                       BKN200 FM0200 20008KT P6SM BKN120 OVC200=
200706252320 TAF KBLI 252320Z 260024 VRB05KT P6SM FEW050 SCT250 FM0800 07007KT
                       P6SM BKN250=
200706251720 TAF KBLI 251720Z 251818 16008KT P6SM BKN050 FM2100 21004KT P6SM
                       SCT050 FM0600 06006KT P6SM SKC=
200706251220 KBLI 251220Z 251212 17009KT P6SM SCT015 SCT070
                      TEMPO 1216 BKN015 BKN120 FM1800 19010KT P6SM
                       SCT070 FM2100 21004KT P6SM BKN250 FM0300
                       25005KT P6SM SKC=
200706251121 TAF KBLI 251121Z 251212 17009KT P6SM SCT060 BKN120 FM1800 19010KT
                       P6SM BKN050 FM2100 21004KT P6SM BKN250 FM0300
                       25005KT P6SM SKC=
200706250540 TAF KBLI 250540Z 250606 00000KT P6SM VCSH FEW040 BKN200 FM1300
                       17007KT P6SM OVC025 FM1600 18011KT P6SM
                       BKN050 FM2200 22008KT P6SM SKC=
200706242340 TAF KBLI 242340Z 250024 18010G16KT P6SM SCT028 BKN050
                      TEMPO 0003 4SM -SHRA BKN028 OVC050 FM0300
                       18008KT P6SM SCT030 BKN060 FM1300 VRB03KT
                       P6SM SCT060 FM2200 29008KT P6SM SCT060=
200706241745 TAF KBLI 241745Z 241818 18012KT P6SM SCT022 BKN050
                      TEMPO 1822 -SHRA BKN022 OVC050 FM2200 18012KT
                       P6SM SCT022 BKN050
                      TEMPO 2202 -SHRA BKN022 OVC050 FM0200 18008KT
                       P6SM VCSH SCT025 BKN050
                      TEMPO 1216 BKN025 OVC050=
200706241309 KBLI 241309Z 241312 17008KT P6SM SCT025 OVC070
                      TEMPO 1317 -SHRA BKN025 OVC070 FM1700 19010KT
                       P6SM -SHRA SCT025 OVC050 FM0000 21009KT
                       P6SM VCSH SCT025 OVC050=
200706241120 TAF KBLI 241120Z 241212 00000KT P6SM -SHRA OVC029 FM0000 21009KT
                       P6SM VCSH SCT025 OVC050=
200706240532 TAF KBLI 240532Z 240606 00000KT P6SM -SHRA OVC060 FM0900 16008KT
                       P6SM -SHRA BKN035 OVC090 FM1200 18010KT
                       P6SM -RA BKN025 BKN040 OVC060 FM0000 21009KT
                       P6SM VCSH SCT025 OVC050=
200706232340 TAF KBLI 232340Z 240024 16008KT P6SM SCT060 BKN200
                      TEMPO 0104 BKN060 FM0900 16008KT P6SM SCT040
                       BKN060 OVC120 FM1300 16006KT P6SM VCSH SCT025
                       BKN040 BKN060
                      TEMPO 1316 BKN025=
200706231741 TAF KBLI 231741Z 231818 21010KT P6SM VCSH SCT030 BKN060
                      TEMPO 1820 -SHRA BKN030 OVC060 FM0600 21006KT
                       P6SM OVC050 FM1500 21006KT P6SM -SHRA BKN025
                       OVC040=
200706231300 KBLI 231300Z 231312 15005KT P6SM -SHRA FEW028 OVC050
                      TEMPO 1316 4SM SHRA BKN028 OVC050 FM1600
                       21010KT P6SM VCSH SCT030 BKN060 FM0600 21007KT
                       P6SM OVC050=
200706231133 TAF KBLI 231133Z 231212 18003KT P6SM OVC045
                      TEMPO 1216 BKN022 FM1600 21010KT P6SM VCSH
                       SCT030 BKN060 FM0600 21007KT P6SM OVC050=
200706230525 TAF KBLI 230525Z 230606 15004KT P6SM BKN070 OVC090 FM0800 17008KT
                       P6SM SCT035 BKN050
                      TEMPO 1014 BKN035 FM2100 21010KT P6SM SCT035
                       BKN060=
200706222338 TAF KBLI 222338Z 230024 17008KT P6SM BKN060 FM0800 17008KT P6SM
                       SCT035 BKN050
                      TEMPO 1014 BKN035 FM2100 21010KT P6SM SCT035
                       BKN060=
200706221728 TAF KBLI 221728Z 221818 17008KT P6SM -SHRA OVC045 FM2000 17008KT
                       P6SM SCT050
                      TEMPO 2023 BKN050 FM0800 17008KT P6SM SCT035
                       BKN050=
200706221250 KBLI 221250Z 221312 17007KT P6SM SCT028 OVC050
                      TEMPO 1316 BKN028 OVC050 FM2000 21007KT P6SM
                       SCT040 OVC120 FM0600 19005KT P6SM SCT120
                       BKN200=
200706221136 TAF KBLI 221136Z 221212 17007KT P6SM OVC050 FM2000 21007KT P6SM
                       SCT040 OVC120 FM0600 19005KT P6SM SCT120
                       BKN200=
200706220530 TAF KBLI 220530Z 220606 VRB05KT P6SM BKN100 FM1000 18008KT P6SM
                       BKN040 FM2000 21007KT P6SM SCT040=
200706212320 TAF KBLI 212320Z 220024 14008KT P6SM SCT040 SCT080 FM1000 18008KT
                       P6SM BKN040 FM2000 21007KT P6SM SCT040=
200706211802 KBLI 211802Z 211818 18008KT P6SM SCT015 BKN030 FM2100 20008KT P6SM
                       VCSH SCT035 BKN050
                      TEMPO 2124 BKN025 FM0600 18008KT P6SM BKN030=
200706211720 TAF KBLI 211720Z 211818 18008KT P6SM BKN015 BKN030 FM2100 20008KT
                       P6SM VCSH SCT035 BKN050
                      TEMPO 2124 BKN025 FM0600 18008KT P6SM BKN030=
200706211528 KBLI 211528Z 211512 18012G20KT P6SM VCSH SCT025 BKN050 FM1800 18012KT
                       P6SM -SHRA BKN035 OVC050 FM0500 18007KT
                       P6SM BKN040=
200706211121 TAF KBLI 211121Z 211212 16011KT P6SM SCT035 BKN050
                      TEMPO 1216 -SHRA BKN030 FM1600 18011KT P6SM
                       VCSH BKN035 FM2100 20009KT P6SM BKN045 FM0500
                       18007KT P6SM BKN040=
200706210520 TAF KBLI 210520Z 210606 14008KT P6SM FEW035
                      TEMPO 0810 BKN035 FM1000 18010KT P6SM BKN030
                       TEMPO 1216 -DZ OVC025 FM2200 19009KT P6SM
                       BKN040=
200706202320 TAF KBLI 202320Z 210024 14008KT P6SM FEW040 SCT120 BKN200 FM0500
                       18012KT P6SM SCT030 SCT100 BKN200 FM0800
                       18010KT P6SM BKN030
                      TEMPO 1518 -DZ OVC025=
200706201720 TAF KBLI 201720Z 201818 18007KT P6SM SCT200 FM0000 20010KT P6SM
                       SCT120 BKN200 FM0500 20010KT P6SM SCT030
                       BKN060 FM0900 18010KT P6SM BKN030 OVC050
                       PROB30 1218 -SHRA OVC025=
200706201123 TAF KBLI 201123Z 201212 18005KT P6SM SCT200 FM1800 19008KT P6SM
                       SCT120 BKN200 FM0100 18010KT P6SM BKN120
                       OVC200 FM0700 18009KT P6SM BKN070 OVC120
                       PROB30 0712 -SHRA=
200706200520 TAF KBLI 200520Z 200606 18005KT P6SM BKN250 FM1800 19009KT P6SM
                       SCT120 OVC200 FM0000 18010KT P6SM BKN070
                       OVC120
                      PROB30 0106 -SHRA=
200706192320 TAF KBLI 192320Z 200024 18008KT P6SM BKN250 FM1800 20010KT P6SM
                       BKN120=
200706191720 TAF KBLI 191720Z 191818 VRB05KT P6SM SCT200 FM0200 20008KT P6SM
                       SCT200=
200706191121 TAF KBLI 191121Z 191212 VRB03KT P6SM BKN200 FM2000 19007KT P6SM
                       SCT120 BKN200 FM0400 19006KT P6SM SCT200=
200706190521 TAF KBLI 190521Z 190606 VRB03KT P6SM SCT200 FM1100 VRB05KT P6SM
                       BKN200 FM2000 19007KT P6SM SCT120 BKN200=
200706182320 TAF KBLI 182320Z 190024 18008KT P6SM SCT040 FM1200 VRB03KT P6SM
                       SCT200 FM2000 21007KT P6SM BKN120 BKN200=
200706181720 TAF KBLI 181720Z 181818 18010KT P6SM BKN050 FM0300 19006KT P6SM
                       SCT050=
200706181121 TAF KBLI 181121Z 181212 17010KT P6SM BKN030
                      TEMPO 1216 SCT035 FM1600 19009KT P6SM BKN035
                       BKN070 FM2000 20010KT P6SM SCT060 BKN200
                       FM0300 19006KT P6SM FEW060 SCT200=
200706180520 TAF KBLI 180520Z 180606 18012KT P6SM SCT020 BKN050 FM1100 20010KT
                       P6SM OVC028 FM1800 19009KT P6SM BKN035 BKN070
                       FM0000 20007KT P6SM SCT060=
200706180102 TAF AMD KBLI 180102Z 180124 16012G20KT P6SM VCSH SCT020 OVC060
                       TEMPO 0104 BKN018 OVC060 FM0400 18009KT
                       P6SM SCT020 OVC040 FM1000 20008KT P6SM OVC020
                       FM2100 19009KT P6SM BKN040 BKN070=
200706172320 TAF KBLI 172320Z 180024 16012G20KT P6SM VCSH SCT020 OVC060 FM0400
                       18009KT P6SM OVC040 FM1000 20008KT P6SM
                       OVC020 FM2100 19009KT P6SM BKN040 BKN070=
200706172300 KBLI 180102Z 180124 16012G20KT P6SM VCSH SCT020 OVC060
                      TEMPO 0104 BKN018 OVC060 FM0400 18009KT P6SM
                       SCT020 OVC040 FM1000 20008KT P6SM OVC020
                       FM2100 19009KT P6SM BKN040 BKN070=
200706172040 KBLI 172040Z 172118 16010G20KT P6SM VCSH FEW010 BKN040 OVC050 FM0000
                       27010KT P6SM BKN030 BKN050 FM0600 26006KT
                       P6SM OVC040 FM1000 30005KT P6SM OVC020=
200706171731 TAF KBLI 171731Z 171818 19013KT P6SM VCSH SCT010 OVC020
                      TEMPO 1822 2SM -RA BKN005 FM2200 22013KT
                       P6SM VCSH BKN030 OVC050 FM0000 27010KT P6SM
                       BKN030 BKN050 FM0600 26006KT P6SM OVC040
                       FM1000 30005KT P6SM OVC020=
200706171518 KBLI 171518Z 171512 17009KT P6SM VCSH OVC035
                      TEMPO 1518 2SM -RA OVC025 FM1800 19013KT
                       P6SM VCSH BKN030 BKN060 FM2100 19013KT P6SM
                       BKN060 FM0600 19006KT P6SM BKN060=
200706171133 TAF KBLI 171133Z 171212 17009KT P6SM VCSH OVC025 FM1800 19013KT
                       P6SM VCSH BKN030 BKN060 FM2100 19013KT P6SM
                       BKN060 FM0600 19006KT P6SM BKN060=
200706170520 TAF KBLI 170520Z 170606 17006KT P6SM OVC050
                      TEMPO 0610 -SHRA FM1000 17006KT P6SM SCT018
                       OVC040
                      TEMPO 1012 -DZ BKN018 OVC040 FM1200 17006KT
                       P6SM OVC018 FM1800 19009KT P6SM BKN028 BKN060
                       PROB30 1821 -SHRA FM2100 19013KT P6SM SCT035
                       BKN060
                      PROB30 2102 -SHRA=
200706162322 TAF KBLI 162322Z 170024 18010KT P6SM VCSH SCT030 OVC050
                      TEMPO 0004 -SHRA BKN020 FM0600 18009KT P6SM
                       VCSH OVC030
                      TEMPO 0610 4SM -SHRA OVC020 FM1200 18012KT
                       P6SM VCSH OVC015 FM1900 18010KT P6SM BKN030
                       OVC050=
200706162017 KBLI 162017Z 162018 17014KT P6SM BKN030 BKN070
                      TEMPO 2024 4SM -SHRA BKN020 FM0200 19013KT
                       P6SM VCSH BKN030 OVC050 FM0600 18009KT P6SM
                       VCSH OVC030 FM1100 18012KT P6SM VCSH OVC015=
200706161727 TAF KBLI 161727Z 161818 17010KT P6SM VCSH OVC030
                      TEMPO 1822 4SM -SHRA OVC020 FM0200 19013KT
                       P6SM VCSH BKN030 OVC050 FM0600 18009KT P6SM
                       VCSH OVC030 FM1100 18012KT P6SM VCSH OVC015=
200706161120 TAF KBLI 161120Z 161212 17006KT P6SM OVC080 FM1400 17009KT P6SM
                       SCT020 OVC050 FM1800 19013KT P6SM VCSH SCT028
                       OVC050
                      PROB30 2102 -SHRA FM0200 19013KT P6SM SCT028
                       OVC050
                      PROB30 0206 -SHRA FM0600 18009KT P6SM OVC022
                       PROB30 0612 6SM -DZ=
200706160527 TAF KBLI 160527Z 160606 VRB03KT P6SM SCT060
                      TEMPO 0608 BKN060 FM0800 VRB03KT P6SM OVC060
                       FM1200 17008KT P6SM SCT022 OVC040
                      TEMPO 1214 BKN022 OVC040 FM1400 17013KT P6SM
                       OVC022 FM1900 19013KT P6SM SCT028 OVC050
                       PROB30 1922 -SHRA FM2200 19013KT P6SM BKN050
                       PROB30 2204 -SHRA=
200706152320 TAF KBLI 152320Z 160024 17006KT P6SM VCSH SCT070 BKN100 FM0300
                       18006KT P6SM SCT080 BKN100 FM1200 17009KT
                       P6SM BKN010 OVC030 FM1600 19009KT P6SM BKN020
                       OVC040 FM2100 20012KT P6SM OVC040=
200706152106 KBLI 152106Z 152118 18004KT P6SM -RA OVC010 FM2300 21008KT P6SM
                       VCSH SCT020 SCT045 BKN070 FM0400 18006KT
                       P6SM VCSH BKN070 OVC130 FM1200 17009KT P6SM
                       BKN020 OVC040=
200706151725 TAF KBLI 151725Z 151818 18004KT P6SM -RA FEW010 BKN030 BKN070 FM2200
                       21008KT P6SM VCSH SCT045 BKN070 FM0400 18006KT
                       P6SM VCSH BKN070 OVC130 FM1200 17009KT P6SM
                       BKN020 OVC040=
200706151135 TAF KBLI 151135Z 151212 18004KT P6SM VCSH SCT050 OVC090 FM1600
                       20007KT P6SM VCSH BKN045 OVC070 FM2200 21008KT
                       P6SM VCSH SCT045 BKN070 FM0400 18006KT P6SM
                       BKN070 OVC130=
200706150540 TAF KBLI 150540Z 150606 00000KT P6SM SCT060 BKN150 FM1100 VRB03KT
                       P6SM SCT050 OVC090 FM1600 20006KT P6SM VCSH
                       BKN045 OVC070 FM2100 22008KT P6SM VCSH SCT045
                       BKN070 FM0300 21005KT P6SM SCT080=
200706142320 TAF KBLI 142320Z 150024 20008KT P6SM SCT060 BKN200 FM0400 VRB04KT
                       P6SM SCT060 BKN160 FM1100 VRB04KT P6SM SCT060
                       OVC100 FM1600 18005KT P6SM VCSH BKN040 OVC060
                       FM1900 19007KT P6SM VCSH BKN035 OVC060=
200706141720 TAF KBLI 141720Z 141818 20008KT P6SM FEW025 BKN060 BKN200 FM2000
                       20008KT P6SM SCT060 BKN200 FM0400 18005KT
                       P6SM SCT060 BKN160=
200706141428 KBLI 141428Z 141412 17007KT P6SM SCT022 OVC060 FM1800 20008KT P6SM
                       SCT040 BKN200 FM0400 18005KT P6SM SCT060
                       BKN160=
200706141134 TAF KBLI 141134Z 141212 17007KT P6SM SCT022 OVC070
                      TEMPO 1216 BKN022 OVC070 FM1800 20008KT P6SM
                       SCT040 BKN200 FM0400 18005KT P6SM SCT060
                       BKN160=
200706140528 TAF KBLI 140528Z 140606 16005KT P6SM SCT030 OVC060
                      TEMPO 1216 BKN030 FM1800 19008KT P6SM SCT050
                       SCT200=
200706132320 TAF KBLI 132320Z 140024 16006KT P6SM BKN050 OVC100
                      TEMPO 1216 BKN030 FM1800 19008KT P6SM SCT050
                       SCT200=
200706131720 TAF KBLI 131720Z 131818 17008KT P6SM VCSH BKN045 OVC070 FM2000
                       19012KT P6SM VCSH SCT030 BKN050 OVC100
                      TEMPO 2024 BKN030 OVC050 FM0400 18007KT P6SM
                       SCT030 OVC045
                      TEMPO 1216 BKN030=
200706131140 TAF KBLI 131140Z 131212 00000KT P6SM VCSH SCT030 OVC060 FM1300
                       18010KT P6SM VCSH BKN025 OVC040 FM2000 19012KT
                       P6SM VCSH SCT030 BKN050 OVC100
                      TEMPO 2024 BKN030 OVC050 FM0400 18007KT P6SM
                       SCT018 OVC040=
200706130540 TAF KBLI 130540Z 130606 00000KT P6SM VCSH BKN060 OVC100 FM1000
                       18006KT P6SM VCSH SCT030 OVC050 FM1300 18010KT
                       P6SM VCSH BKN025 OVC040 FM2000 19012KT P6SM
                       VCSH SCT030 BKN050 OVC100
                      TEMPO 2024 BKN030 OVC050=
200706122320 TAF KBLI 122320Z 130024 VRB04KT P6SM SCT060 BKN200 FM0400 17008KT
                       P6SM SCT040 OVC070 FM1000 16010KT P6SM OVC025
                       TEMPO 1216 -RA OVC018 FM2000 18012KT P6SM
                       VCSH BKN035=
200706121720 TAF KBLI 121720Z 121818 18005KT P6SM BKN060
                      TEMPO 2024 SCT060 FM0000 19005KT P6SM SCT060
                       BKN200 FM0700 17008KT P6SM SCT040 OVC070
                       FM1100 16010KT P6SM -RA OVC035=
200706121136 TAF KBLI 121136Z 121212 00000KT P6SM OVC050 FM1500 19007KT P6SM
                       SCT060 BKN110 FM0700 17008KT P6SM SCT040
                       OVC070 FM1100 17010KT P6SM VCSH OVC035=
200706120535 TAF KBLI 120535Z 120606 22003KT P6SM SCT035 BKN070 OVC110 FM1500
                       19008KT P6SM SCT110 BKN250 FM2100 20007KT
                       P6SM BKN110=
200706112320 TAF KBLI 112320Z 120024 18007KT P6SM VCSH SCT030 SCT060
                      TEMPO 0004 -SHRA BKN030 FM0600 18006KT P6SM
                       SCT060 FM1800 19008KT P6SM SCT060=
200706111720 TAF KBLI 111720Z 111818 16005KT P6SM VCSH SCT030 BKN060 FM2000
                       18007KT P6SM VCSH SCT030 BKN060 FM0600 18007KT
                       P6SM SCT060=
200706111120 TAF KBLI 111120Z 111212 VRB04KT P6SM VCSH SCT030 BKN070
                      TEMPO 1216 -SHRA BKN030 OVC050 FM2000 21008KT
                       P6SM SCT030 BKN070=
200706110520 TAF KBLI 110520Z 110606 18008KT P6SM VCSH BKN050=
200706102325 TAF KBLI 102325Z 110024 18003KT P6SM -SHRA SCT025 BKN040 FM0400
                       17006KT P6SM VCSH SCT025 BKN045 FM2200 20006KT
                       P6SM SCT025 BKN045=
200706101728 TAF KBLI 101728Z 101818 16010KT P6SM SCT025 BKN045
                      TEMPO 1822 -SHRA BKN025 BKN045 FM2200 19008KT
                       P6SM VCSH SCT025 BKN045 FM0400 17006KT P6SM
                       VCSH SCT025 BKN045=
200706101120 TAF KBLI 101120Z 101212 18008KT P6SM VCSH BKN030=
200706100520 TAF KBLI 100520Z 100606 18014KT P6SM SCT020 BKN035
                      TEMPO 0610 BKN015 OVC030 FM1700 20010KT P6SM
                       VCSH SCT020 BKN035=
200706092321 TAF KBLI 092321Z 100024 17008KT 4SM -RA BR SCT007 BKN024 OVC040
                       TEMPO 0003 BKN007 OVC015 FM0300 20012KT
                       P6SM -SHRA BKN025 FM1000 18008KT P6SM -SHRA
                       BKN025 FM2000 20006KT P6SM VCSH SCT025 BKN040=
200706092227 KBLI 092227Z 092218 17012G22KT 5SM -RA BR FEW009 OVC035 FM0300
                       20012KT P6SM -SHRA BKN025 FM1000 18008KT
                       P6SM -SHRA BKN025=
200706092104 KBLI 092104Z 092118 17009KT P6SM -RA SCT020 BKN030 OVC040
                      TEMPO 2123 5SM -RA BR BKN015 OVC030 FM2300
                       17014KT 5SM -RA OVC015 FM0300 20012KT P6SM
                       -SHRA BKN025 FM1000 18008KT P6SM -SHRA BKN025=
200706091909 KBLI 091909Z 091918 00000KT 5SM -RA BR SCT030 OVC045
                      TEMPO 1923 BKN025 OVC040 FM2300 15014KT 5SM
                       -RA OVC025 FM0300 20012KT P6SM -SHRA BKN025
                       FM1000 18008KT P6SM -SHRA BKN025=
200706091720 TAF KBLI 091720Z 091818 13004KT P6SM -RA SCT025 BKN035 OVC080 FM2200
                       15012G22KT 5SM -RA OVC025 FM0300 20012KT
                       P6SM -SHRA BKN025 FM1000 18008KT P6SM -SHRA
                       BKN025=
200706091120 TAF KBLI 091120Z 091212 16006KT P6SM SCT040 OVC090 FM1500 16010KT
                       P6SM BKN040 OVC080 FM1800 16012KT P6SM -RA
                       OVC040 FM2200 18012G22KT 5SM -RA OVC025
                       FM0600 20012KT P6SM -SHRA BKN025=
200706090524 TAF KBLI 090524Z 090606 VRB04KT P6SM SCT050 OVC150 FM1200 16008KT
                       P6SM BKN050 OVC100 FM1800 18014KT P6SM -RA
                       OVC040 FM2200 18015G25KT 5SM -RA OVC025
                       FM0400 20015G25KT P6SM -SHRA BKN025=
200706082323 TAF KBLI 082323Z 090024 13008KT P6SM SCT040 BKN180 FM0900 16008KT
                       P6SM OVC080 FM1600 15012KT P6SM OVC050 FM1900
                       15015G25KT P6SM -RA OVC040=
200706081721 TAF KBLI 081721Z 081818 16008KT P6SM SKC FM2100 22006KT P6SM SKC
                       FM0600 17004KT P6SM SCT045 BKN200 FM0900
                       18005KT P6SM OVC120 FM1500 15008KT P6SM
                       OVC060=
200706081546 KBLI 081546Z 081612 17004KT P6SM SCT040 FM2000 20008KT P6SM SCT200
                       FM0600 17004KT P6SM SCT045 BKN200 FM1000
                       18005KT P6SM BKN040 OVC150=
200706081128 TAF KBLI 081128Z 081212 18005KT P6SM SCT025 BKN040 FM1800 19007KT
                       P6SM SCT035 FM2100 20008KT P6SM SCT200 FM0600
                       17004KT P6SM SCT045 BKN200 FM1000 18005KT
                       P6SM BKN040 OVC150=
200706080535 TAF KBLI 080535Z 080606 16007KT P6SM SCT035 BKN050 FM1100 18005KT
                       P6SM SCT025 BKN040 FM1800 19007KT P6SM SCT035
                       FM2100 20008KT P6SM SCT200 FM0500 17004KT
                       P6SM SCT045 BKN200=
200706072320 TAF KBLI 072320Z 080024 17009KT P6SM BKN040 OVC070 FM1000 00000KT
                       5SM BR BKN010 FM1600 20008KT P6SM BKN030
                       BKN060 FM1900 22007KT P6SM BKN050 BKN100=
200706071720 TAF KBLI 071720Z 071818 16010KT P6SM OVC030 FM2200 22006KT P6SM
                       SCT030 OVC060 FM1000 00000KT 5SM BR BKN010
                       FM1600 20008KT P6SM BKN030 BKN060=
200706071301 KBLI 071301Z 071312 18006KT P6SM SCT009 OVC015 FM1800 VRB04KT P6SM
                       BKN024 BKN050 FM2200 22006KT P6SM SCT030
                       BKN060 FM1000 00000KT 5SM BR BKN010=
200706071120 TAF KBLI 071120Z 071212 18006KT P6SM BKN007 OVC020
                      TEMPO 1216 4SM -DZ BR OVC005 FM1700 VRB04KT
                       P6SM BKN020 BKN050 FM2200 22006KT P6SM SCT030
                       BKN060 FM1000 00000KT 5SM BR BKN010=
200706070607 KBLI 070607Z 070606 18006KT P6SM BKN013 OVC040
                      TEMPO 0812 5SM -DZ OVC010 FM1800 21007KT
                       P6SM SCT020 BKN040=
200706070526 TAF KBLI 070526Z 070606 18006KT P6SM SCT025 OVC050
                      TEMPO 1014 BKN025 OVC040=
200706062321 TAF KBLI 062321Z 070024 15008KT P6SM VCSH SCT030 BKN050 OVC080
                       FM0600 18012KT P6SM VCSH BKN030 OVC060 FM1200
                       20007KT P6SM BKN040 BKN100 FM2000 22010KT
                       P6SM BKN060 BKN120=
200706062032 KBLI 062032Z 062118 16012G20KT P6SM VCSH BKN025 OVC040 FM0300 17010KT
                       P6SM VCSH BKN030 OVC050 FM1200 20007KT P6SM
                       OVC030=
200706061738 TAF KBLI 061738Z 061818 18008KT P6SM -RA BKN015 OVC025
                      TEMPO 1822 4SM BR OVC015 FM1700 19007KT P6SM
                       OVC030=
200706061154 TAF KBLI 061154Z 061212 16006KT P6SM SCT025 OVC050
                      TEMPO 1216 5SM -RA BR BKN025 OVC050 FM1600
                       18008KT 5SM -RA BR BKN025 OVC050 FM0200
                       28008KT P6SM VCSH BKN030 BKN060=
200706060734 TAF AMD KBLI 060734Z 060806 VRB04KT P6SM -SHRA BKN020 OVC050=
200706060520 TAF KBLI 060520Z 060606 18005KT P6SM SCT025 BKN050 FM1200 18008KT
                       P6SM -SHRA BKN025 OVC050=
200706052320 TAF KBLI 052320Z 060024 16010KT P6SM VCSH BKN050 FM1200 18010KT
                       5SM -RA BR OVC015 FM1600 18014G22KT 4SM
                       RA BR OVC012 FM1800 18016G25KT P6SM VCSH
                       BKN015 OVC025=
200706051720 TAF KBLI 051720Z 051818 17007KT P6SM BKN050 FM2000 20010KT P6SM
                       VCSH BKN040 FM0600 18007KT P6SM OVC025
                      TEMPO 1014 OVC018=
200706051120 TAF KBLI 051120Z 051212 17007KT P6SM BKN040 BKN080 FM2000 22010KT
                       P6SM VCSH BKN040
                      TEMPO 0004 SCT040=
200706050525 TAF KBLI 050525Z 050606 16007KT P6SM SCT020 BKN035 BKN100
                      TEMPO 1014 BKN020 OVC050 FM2000 22010KT P6SM
                       -SHRA BKN025 OVC050=
200706041740 TAF KBLI 041740Z 041818 19010KT P6SM FEW035 OVC070
                      TEMPO 2023 -SHRA FM2300 19008KT P6SM SCT035
                       OVC050 FM0300 18007KT P6SM -SHRA BKN030
                       OVC050=
200706041429 KBLI 041429Z 041412 VRB03KT P6SM VCSH SCT012 BKN100 BKN200
                      TEMPO 1416 BKN012 FM2000 23007KT P6SM -SHRA
                       BKN050 OVC100 FM0600 18008KT P6SM VCSH BKN030
                       OVC050=
200706041120 TAF KBLI 041120Z 041212 VRB03KT P6SM VCSH BKN100 BKN200 FM2000
                       23007KT P6SM -SHRA BKN050 OVC100 FM0600
                       18008KT P6SM VCSH BKN030 OVC050=
200706040549 KBLI 040549Z 040606 16010KT P6SM SCT050 OVC090 FM0800 18010KT P6SM
                       VCSH BKN050 BKN100 FM1200 18008KT P6SM -SHRA
                       SCT025 BKN050 BKN100
                      TEMPO 1216 BKN025 OVC050=
200706040520 TAF KBLI 040520Z 040606 18012KT P6SM -TSRA BKN050CB OVC090 FM0800
                       18010KT P6SM VCSH BKN050 BKN100 FM1200 18008KT
                       P6SM -SHRA SCT025 BKN050 BKN100
                      TEMPO 1216 BKN025 OVC050=
200706040402 TAF AMD KBLI 040402Z 040424 17012G22KT P6SM SCT050 BKN120 FM0600
                       18015KT P6SM VCTS BKN050CB OVC100 FM0900
                       17012KT P6SM -SHRA SCT025 BKN050 OVC100=
200706032320 TAF KBLI 032320Z 040024 19009KT P6SM SCT130 BKN200 FM0900 17009KT
                       P6SM BKN130 OVC200 FM1400 17009KT P6SM SCT018
                       SCT060 OVC110
                      PROB30 1418 -SHRA BKN018 OVC060 FM1800 17009KT
                       P6SM -SHRA SCT025 BKN060 OVC110=
200706032300 KBLI 040402Z 040424 17012G22KT P6SM SCT050 BKN120 FM0600 18015KT
                       P6SM VCTS BKN050CB OVC100 FM0900 17012KT
                       P6SM -SHRA SCT025 BKN050 OVC100=
200706031743 TAF KBLI 031743Z 031818 17008KT P6SM FEW130 SCT200 FM2000 19011KT
                       P6SM FEW130 SCT200 FM0300 17009KT P6SM SCT130
                       BKN200 FM0900 17009KT P6SM BKN130 OVC200
                       FM1400 14009KT P6SM FEW018 SCT060 OVC110
                       PROB30 1418 -SHRA FEW018 OVC060=
200706031120 TAF KBLI 031120Z 031212 18006KT P6SM SCT120 BKN200 FM1900 21010KT
                       P6SM SCT060 BKN120 FM0000 21012KT P6SM BKN060
                       BKN120 FM0900 18008KT P6SM -SHRA BKN040
                       OVC080=
200706030520 TAF KBLI 030520Z 030606 18008KT P6SM SCT120 BKN200 FM2000 21010KT
                       P6SM SCT060 BKN120 FM0500 21012KT P6SM BKN060
                       BKN120=
200706022322 TAF KBLI 022322Z 030024 36006KT P6SM BKN250 FM0600 18007KT P6SM
                       SCT250 FM1400 18007KT P6SM SCT012 SCT250
                       FM2100 21008KT P6SM SCT050 SCT080 BKN250=
200706021721 TAF KBLI 021721Z 021818 15005KT P6SM SCT250 FM2000 20006KT P6SM
                       BKN250 FM0600 18007KT P6SM SCT250 FM1400
                       18007KT P6SM SCT012=
200706021123 TAF KBLI 021123Z 021212 18005KT P6SM SCT250 FM2000 20006KT P6SM
                       BKN250 FM0600 18007KT P6SM SCT250=
200706020526 TAF KBLI 020526Z 020606 15006KT P6SM SCT250 FM1100 18005KT P6SM
                       SCT250 FM2000 22005KT P6SM BKN250=
200706012320 TAF KBLI 012320Z 020024 19007KT P6SM SCT250 FM1400 VRB03KT P6SM
                       SCT012 FM1800 23005KT P6SM SCT250=
200706011738 TAF KBLI 011738Z 011818 19007KT P6SM SCT250 FM1400 VRB03KT P6SM
                       SCT012=
200706011120 TAF KBLI 011120Z 011212 17010KT P6SM SKC FM1400 18006KT P6SM SCT005
                       FM1700 22007KT P6SM SCT250=
200706010521 TAF KBLI 010521Z 010606 18010KT P6SM SKC FM1400 18006KT P6SM SCT005
                       FM1700 22007KT P6SM SCT250=