##########################################################
# Query made at 02/21/2025 23:17:13 UTC
# Time interval: from 05/01/2008 00:00  to 05/31/2008 23:59  UTC
##########################################################

##########################################################
# KBLI, Bellingham, Bellingham International Airport (United States)
# WMO index: -----. WIGOS ID: Unknown
# Latitude 48-47-58N. Longitude 122-32-21W. Altitude 48 m.
##########################################################

###################################
#  METAR/SPECI from KBLI
###################################
200805312353 METAR KBLI 312353Z VRB03KT 10SM CLR 16/07 A3008 RMK AO2 SLP192 T01610072 10172 20150 58008=
200805312253 METAR KBLI 312253Z 17004KT 10SM CLR 16/07 A3009 RMK AO2 SLP195 T01610072=
200805312153 METAR KBLI 312153Z 25003KT 10SM CLR 16/06 A3010 RMK AO2 SLP199 T01610061=
200805312053 METAR KBLI 312053Z VRB04KT 10SM FEW110 17/08 A3010 RMK AO2 SLP200 T01670078 58005=
200805311953 METAR KBLI 311953Z VRB03KT 10SM CLR 17/08 A3011 RMK AO2 SLP202 T01670078=
200805311853 METAR KBLI 311853Z VRB06KT 10SM CLR 16/08 A3011 RMK AO2 SLP204 T01560083=
200805311753 METAR KBLI 311753Z 17006KT 10SM CLR 15/09 A3012 RMK AO2 SLP205 T01500089 10150 20044 58004=
200805311653 METAR KBLI 311653Z VRB03KT 10SM FEW020 14/09 A3012 RMK AO2 SLP206 T01390089=
200805311553 METAR KBLI 311553Z 00000KT 10SM CLR 12/08 A3013 RMK AO2 SLP209 T01220078=
200805311453 METAR KBLI 311453Z 00000KT 10SM CLR 11/07 A3013 RMK AO2 SLP209 T01110072 50001=
200805311353 METAR KBLI 311353Z 00000KT 9SM CLR 08/07 A3013 RMK AO2 SLP210 T00830072=
200805311253 METAR KBLI 311253Z AUTO 00000KT 10SM CLR 05/04 A3012 RMK AO2 SLP208 T00500044=
200805311153 METAR KBLI 311153Z AUTO 00000KT 8SM CLR 05/04 A3012 RMK AO2 SLP208 T00500039 10083 20050 56003=
200805311120 SPECI KBLI 311120Z AUTO 00000KT 10SM CLR 06/04 A3012 RMK AO2=
200805311120 SPECI KBLI 311120Z AUTO 00000KT 10SM CLR 06/04 A3012 RMK AO2=
200805311104 SPECI KBLI 311104Z AUTO 00000KT 1 3/4SM BR CLR 06/04 A3012 RMK AO2=
200805311104 SPECI KBLI 311104Z AUTO 00000KT 1 3/4SM BR CLR 06/04 A3012 RMK AO2=
200805311053 METAR KBLI 311053Z AUTO 00000KT 9SM FEW090 06/05 A3012 RMK AO2 SLP208 T00560050=
200805310953 METAR KBLI 310953Z AUTO 00000KT 10SM CLR 07/05 A3012 RMK AO2 SLP208 T00670050=
200805310853 METAR KBLI 310853Z AUTO 00000KT 10SM CLR 07/06 A3013 RMK AO2 SLP211 T00720056 58003=
200805310753 METAR KBLI 310753Z AUTO 00000KT 10SM CLR 07/06 A3013 RMK AO2 SLP212 T00670056 401610061=
200805310653 METAR KBLI 310653Z AUTO 00000KT 10SM CLR 07/06 A3015 RMK AO2 SLP216 T00720061=
200805310553 METAR KBLI 310553Z AUTO 00000KT 10SM CLR 08/06 A3014 RMK AO2 SLP214 T00830061 10161 20078 53002=
200805310453 METAR KBLI 310453Z 00000KT 10SM CLR 09/06 A3014 RMK AO2 SLP213 T00890061=
200805310353 METAR KBLI 310353Z 00000KT 10SM CLR 11/07 A3014 RMK AO2 SLP212 T01060067=
200805310253 METAR KBLI 310253Z 27003KT 10SM CLR 14/06 A3014 RMK AO2 SLP212 T01390056 56010=
200805310153 METAR KBLI 310153Z 26005KT 10SM CLR 14/05 A3014 RMK AO2 SLP214 T01440050=
200805310053 METAR KBLI 310053Z 29004KT 10SM CLR 15/06 A3015 RMK AO2 SLP217 T01500056=
200805302353 METAR KBLI 302353Z VRB06KT 10SM SCT036 BKN043 16/06 A3017 RMK AO2 SLP222 T01560061 10161 20122 56011=
200805302253 METAR KBLI 302253Z 19004KT 10SM SCT048 15/06 A3018 RMK AO2 SLP225 T01500061=
200805302153 METAR KBLI 302153Z VRB04KT 10SM BKN050 15/07 A3019 RMK AO2 SLP229 T01500067=
200805302053 METAR KBLI 302053Z 18004KT 10SM OVC048 13/06 A3020 RMK AO2 SLP233 T01330056 50001=
200805301953 METAR KBLI 301953Z 16007KT 10SM OVC048 13/05 A3020 RMK AO2 SLP234 T01280050=
200805301853 METAR KBLI 301853Z 16007KT 10SM OVC050 12/06 A3020 RMK AO2 SLP233 T01220056=
200805301753 METAR KBLI 301753Z 17006KT 10SM OVC050 12/06 A3020 RMK AO2 SLP232 T01220061 10122 20083 51002=
200805301653 METAR KBLI 301653Z 17004KT 10SM OVC050 11/07 A3019 RMK AO2 SLP231 T01110067=
200805301553 METAR KBLI 301553Z 17005KT 10SM OVC050 11/06 A3019 RMK AO2 SLP231 T01060061=
200805301453 METAR KBLI 301453Z 17005KT 10SM OVC050 10/06 A3019 RMK AO2 SLP230 T01000061 53003=
200805301353 METAR KBLI 301353Z 19003KT 10SM OVC050 10/07 A3019 RMK AO2 SLP229 T01000067=
200805301253 METAR KBLI 301253Z AUTO 00000KT 10SM OVC050 09/06 A3018 RMK AO2 SLP228 T00890061=
200805301153 METAR KBLI 301153Z AUTO 00000KT 10SM OVC055 08/07 A3018 RMK AO2 SLP227 T00830067 10089 20061 51002=
200805301053 METAR KBLI 301053Z AUTO 00000KT 10SM OVC049 08/06 A3018 RMK AO2 SLP227 T00780056=
200805300953 METAR KBLI 300953Z AUTO 00000KT 10SM OVC049 07/06 A3018 RMK AO2 SLP227 T00720056=
200805300853 METAR KBLI 300853Z AUTO 00000KT 10SM FEW095 07/05 A3018 RMK AO2 SLP226 T00670050 51005=
200805300753 METAR KBLI 300753Z AUTO 00000KT 10SM CLR 07/04 A3017 RMK AO2 SLP225 T00670044 401390061=
200805300653 METAR KBLI 300653Z AUTO 00000KT 10SM FEW055 08/05 A3017 RMK AO2 SLP224 T00780050=
200805300553 METAR KBLI 300553Z AUTO 00000KT 10SM CLR 08/06 A3016 RMK AO2 SLP221 T00830056 10133 20083 51012=
200805300453 METAR KBLI 300453Z 16004KT 10SM CLR 10/05 A3015 RMK AO2 SLP217 T01000050=
200805300353 METAR KBLI 300353Z 17004KT 10SM CLR 11/05 A3014 RMK AO2 SLP212 T01060050=
200805300253 METAR KBLI 300253Z 18007KT 10SM CLR 12/04 A3013 RMK AO2 SLP208 T01170044 53002=
200805300153 METAR KBLI 300153Z 17008KT 10SM FEW035 12/05 A3012 RMK AO2 SLP206 T01220050=
200805300053 METAR KBLI 300053Z 16009KT 10SM FEW042 13/04 A3012 RMK AO2 SLP206 T01330044=
200805292353 METAR KBLI 292353Z 18007G14KT 10SM OVC038 13/06 A3012 RMK AO2 SLP206 T01280056 10139 20100 50000=
200805292253 METAR KBLI 292253Z VRB05KT 10SM BKN034 13/05 A3012 RMK AO2 SLP207 T01280050=
200805292153 METAR KBLI 292153Z 16009KT 10SM OVC032 12/05 A3012 RMK AO2 SLP207 T01220050=
200805292125 SPECI KBLI 292125Z VRB06G14KT 10SM OVC030 12/06 A3012 RMK AO2=
200805292125 SPECI KBLI 292125Z VRB06G14KT 10SM OVC030 12/06 A3012 RMK AO2=
200805292053 METAR KBLI 292053Z 16007KT 10SM BKN026 OVC050 12/06 A3012 RMK AO2 SLP206 T01170056 51007=
200805291958 SPECI KBLI 291958Z 17008KT 10SM BKN026 OVC050 11/06 A3012 RMK AO2=
200805291958 SPECI KBLI 291958Z 17008KT 10SM BKN026 OVC050 11/06 A3012 RMK AO2=
200805291953 METAR KBLI 291953Z 16009KT 10SM BKN023 OVC046 11/06 A3012 RMK AO2 SLP205 T01110061=
200805291853 METAR KBLI 291853Z 16010KT 10SM OVC023 11/06 A3011 RMK AO2 SLP202 T01060056=
200805291753 METAR KBLI 291753Z 16009KT 10SM BKN025 OVC044 10/05 A3010 RMK AO2 SLP199 T01000050 10106 20100 51012=
200805291653 METAR KBLI 291653Z 17010KT 10SM OVC023 11/05 A3009 RMK AO2 SLP196 T01060050=
200805291553 METAR KBLI 291553Z 16010KT 10SM OVC023 10/06 A3007 RMK AO2 SLP191 T01000056=
200805291453 METAR KBLI 291453Z 16008G15KT 10SM OVC021 10/05 A3006 RMK AO2 SLP187 T01000050 53016=
200805291353 METAR KBLI 291353Z 17007KT 10SM OVC021 10/05 A3004 RMK AO2 SLP181 T01000050=
200805291253 METAR KBLI 291253Z AUTO 16011KT 10SM OVC019 10/05 A3003 RMK AO2 SLP174 T01000050=
200805291153 METAR KBLI 291153Z AUTO 15012KT 10SM OVC017 10/06 A3001 RMK AO2 SLP170 T01000056 10117 20100 51008=
200805291053 METAR KBLI 291053Z AUTO 17011G19KT 10SM OVC017 10/06 A3001 RMK AO2 SLP169 T01000061=
200805290953 METAR KBLI 290953Z AUTO 16011G19KT 10SM OVC019 11/07 A3000 RMK AO2 SLP165 T01060067=
200805290853 METAR KBLI 290853Z AUTO 16012G20KT 10SM OVC019 11/07 A2999 RMK AO2 SLP161 T01110067 51012=
200805290753 METAR KBLI 290753Z AUTO 16014G20KT 10SM OVC019 11/07 A2998 RMK AO2 SLP159 T01110072 401780106=
200805290713 SPECI KBLI 290713Z AUTO 17012G20KT 10SM BKN019 12/08 A2997 RMK AO2=
200805290713 SPECI KBLI 290713Z AUTO 17012G20KT 10SM BKN019 12/08 A2997 RMK AO2=
200805290653 METAR KBLI 290653Z AUTO 16014G21KT 10SM CLR 11/07 A2997 RMK AO2 SLP155 T01110072=
200805290553 METAR KBLI 290553Z AUTO 17013G22KT 10SM FEW060 12/08 A2995 RMK AO2 SLP150 T01170078 10161 20117 53012=
200805290453 METAR KBLI 290453Z 16015G23KT 10SM OVC060 12/08 A2994 RMK AO2 SLP147 T01220078=
200805290353 METAR KBLI 290353Z 15015G24KT 10SM FEW055 OVC070 13/08 A2992 RMK AO2 PK WND 16027/0341 SLP140 T01330078=
200805290253 METAR KBLI 290253Z 16012KT 10SM OVC070 14/09 A2992 RMK AO2 SLP138 T01440089 53004=
200805290153 METAR KBLI 290153Z 16012G19KT 10SM CLR 16/09 A2991 RMK AO2 SLP135 T01560094=
200805290053 METAR KBLI 290053Z 17012G19KT 10SM SCT120 16/10 A2991 RMK AO2 SLP135 T01560100=
200805282353 METAR KBLI 282353Z 17010G18KT 10SM FEW110 15/10 A2991 RMK AO2 SLP134 T01500100 10178 20144 55000=
200805282253 METAR KBLI 282253Z 18010KT 150V210 10SM CLR 16/11 A2990 RMK AO2 SLP131 T01610111=
200805282153 METAR KBLI 282153Z 18008G15KT 150V210 10SM CLR 17/12 A2990 RMK AO2 SLP132 T01720117=
200805282053 METAR KBLI 282053Z 18007KT 10SM CLR 17/12 A2991 RMK AO2 SLP133 T01720122 58004=
200805281953 METAR KBLI 281953Z 17006KT 10SM CLR 17/12 A2991 RMK AO2 SLP135 T01720122=
200805281853 METAR KBLI 281853Z 17007KT 10SM CLR 16/11 A2992 RMK AO2 SLP136 T01560111=
200805281753 METAR KBLI 281753Z 16007KT 10SM CLR 14/11 A2992 RMK AO2 SLP138 T01440106 10144 20106 58001=
200805281653 METAR KBLI 281653Z 16008KT 10SM CLR 13/10 A2992 RMK AO2 SLP139 T01330100=
200805281611 SPECI KBLI 281611Z 18007KT 10SM CLR 13/10 A2992 RMK AO2=
200805281611 SPECI KBLI 281611Z 18007KT 10SM CLR 13/10 A2992 RMK AO2=
200805281553 METAR KBLI 281553Z 19005KT 10SM BKN004 12/10 A2992 RMK AO2 SLP140 T01220100=
200805281531 SPECI KBLI 281531Z 17008KT 9SM BKN004 12/10 A2992 RMK AO2=
200805281531 SPECI KBLI 281531Z 17008KT 9SM BKN004 12/10 A2992 RMK AO2=
200805281503 SPECI KBLI 281503Z 17004KT 9SM FEW004 12/10 A2992 RMK AO2=
200805281503 SPECI KBLI 281503Z 17004KT 9SM FEW004 12/10 A2992 RMK AO2=
200805281453 METAR KBLI 281453Z 16004KT 10SM FEW090 12/10 A2992 RMK AO2 SLP138 VIS E-S 4 T01220100 55001=
200805281353 METAR KBLI 281353Z 00000KT 10SM FEW016 12/10 A2992 RMK AO2 SLP138 T01170100=
200805281253 METAR KBLI 281253Z AUTO 00000KT 6SM BR FEW040 11/09 A2992 RMK AO2 SLP138 T01060094=
200805281153 METAR KBLI 281153Z AUTO 16003KT 9SM SCT016 SCT021 OVC040 11/10 A2993 RMK AO2 SLP139 T01110100 10133 20111 56006=
200805281144 SPECI KBLI 281144Z AUTO 19003KT 9SM BKN016 BKN021 OVC040 11/10 A2993 RMK AO2=
200805281144 SPECI KBLI 281144Z AUTO 19003KT 9SM BKN016 BKN021 OVC040 11/10 A2993 RMK AO2=
200805281053 METAR KBLI 281053Z AUTO 00000KT 10SM SCT021 BKN038 11/10 A2993 RMK AO2 SLP141 T01110100=
200805280953 METAR KBLI 280953Z AUTO 18005KT 10SM OVC038 12/10 A2993 RMK AO2 SLP142 T01170100=
200805280853 METAR KBLI 280853Z AUTO 18004KT 10SM OVC036 12/11 A2994 RMK AO2 SLP145 T01220106 58002=
200805280753 METAR KBLI 280753Z AUTO 18004KT 10SM OVC036 12/11 A2995 RMK AO2 SLP146 T01220106 401890111=
200805280653 METAR KBLI 280653Z AUTO 18004KT 10SM OVC036 13/11 A2995 RMK AO2 SLP148 T01280106=
200805280553 METAR KBLI 280553Z AUTO 19005KT 10SM OVC032 13/11 A2995 RMK AO2 SLP148 T01280106 10189 20122 53004=
200805280453 METAR KBLI 280453Z 19003KT 10SM CLR 13/11 A2994 RMK AO2 SLP146 T01330106=
200805280353 METAR KBLI 280353Z 19003KT 10SM CLR 14/11 A2994 RMK AO2 SLP145 T01390111=
200805280253 METAR KBLI 280253Z 17004KT 10SM CLR 16/12 A2994 RMK AO2 SLP144 T01610122 56008=
200805280153 METAR KBLI 280153Z 18005KT 10SM CLR 18/13 A2994 RMK AO2 SLP143 T01780128=
200805280053 METAR KBLI 280053Z 00000KT 10SM CLR 18/12 A2994 RMK AO2 SLP146 T01830122=
200805272353 METAR KBLI 272353Z VRB05KT 10SM CLR 18/12 A2996 RMK AO2 SLP150 T01780117 10183 20133 58016=
200805272253 METAR KBLI 272253Z 16006KT 10SM CLR 18/12 A2997 RMK AO2 SLP155 T01780117=
200805272153 METAR KBLI 272153Z VRB05KT 10SM CLR 17/11 A2999 RMK AO2 SLP162 T01670111=
200805272053 METAR KBLI 272053Z 17007KT 10SM CLR 17/11 A3000 RMK AO2 SLP166 T01720111 57004=
200805271953 METAR KBLI 271953Z 18005KT 10SM FEW100 17/12 A3001 RMK AO2 SLP167 T01670117=
200805271853 METAR KBLI 271853Z 18009KT 10SM BKN100 15/11 A3001 RMK AO2 SLP171 T01500106=
200805271753 METAR KBLI 271753Z VRB04KT 10SM BKN090 14/11 A3002 RMK AO2 SLP172 60000 T01440106 10144 20111 51005=
200805271653 METAR KBLI 271653Z 16009KT 10SM BKN090 13/11 A3001 RMK AO2 SLP171 T01330106=
200805271553 METAR KBLI 271553Z 18005KT 10SM FEW020 BKN031 OVC090 12/11 A3001 RMK AO2 RAB1454E33 SLP169 P0000 T01170106=
200805271453 METAR KBLI 271453Z 17006KT 10SM FEW020 OVC031 12/10 A3000 RMK AO2 RAE00 SLP166 P0000 60000 T01170100 51007=
200805271353 METAR KBLI 271353Z 16003KT 10SM -RA OVC049 12/10 A2999 RMK AO2 RAB39 SLP163 P0000 T01170100=
200805271336 SPECI KBLI 271336Z AUTO 00000KT 10SM SCT015 OVC049 12/09 A2999 RMK AO2=
200805271336 SPECI KBLI 271336Z AUTO 00000KT 10SM SCT015 OVC049 12/09 A2999 RMK AO2=
200805271253 METAR KBLI 271253Z AUTO 18005KT 10SM OVC015 12/09 A2999 RMK AO2 SLP162 T01170094=
200805271153 METAR KBLI 271153Z AUTO 00000KT 10SM BKN011 OVC032 11/09 A2998 RMK AO2 SLP159 70009 T01110094 10139 20111 51005=
200805271131 SPECI KBLI 271131Z AUTO 00000KT 10SM BKN013 BKN032 OVC041 11/09 A2998 RMK AO2=
200805271131 SPECI KBLI 271131Z AUTO 00000KT 10SM BKN013 BKN032 OVC041 11/09 A2998 RMK AO2=
200805271053 METAR KBLI 271053Z AUTO 18003KT 10SM SCT037 OVC110 12/10 A2998 RMK AO2 SLP157 T01170100=
200805270953 METAR KBLI 270953Z AUTO 00000KT 10SM CLR 12/09 A2997 RMK AO2 SLP156 T01170094=
200805270853 METAR KBLI 270853Z AUTO 20003KT 10SM SCT120 12/09 A2997 RMK AO2 SLP154 T01220094 51009=
200805270753 METAR KBLI 270753Z AUTO 17005KT 10SM BKN110 13/09 A2996 RMK AO2 SLP153 T01280094 401610106=
200805270653 METAR KBLI 270653Z AUTO 16003KT 10SM OVC100 12/11 A2995 RMK AO2 SLP149 T01220106=
200805270553 METAR KBLI 270553Z AUTO 18006KT 10SM OVC100 13/10 A2994 RMK AO2 SLP145 T01280100 10161 20128 53014=
200805270453 METAR KBLI 270453Z 18006KT 10SM FEW080 SCT100 BKN110 13/11 A2993 RMK AO2 SLP142 T01280106=
200805270353 METAR KBLI 270353Z 18007KT 10SM OVC095 13/11 A2991 RMK AO2 SLP134 T01330111=
200805270253 METAR KBLI 270253Z 16007KT 10SM OVC100 13/11 A2990 RMK AO2 SLP131 T01330111 53008=
200805270153 METAR KBLI 270153Z 17004KT 10SM BKN095 15/12 A2989 RMK AO2 SLP128 T01500117=
200805270053 METAR KBLI 270053Z 19004KT 10SM BKN095 15/12 A2988 RMK AO2 SLP124 T01500117=
200805262353 METAR KBLI 262353Z 18005KT 10SM OVC095 15/12 A2987 RMK AO2 SLP123 60000 T01500117 10156 20122 55001=
200805262253 METAR KBLI 262253Z 18006KT 10SM BKN095 BKN110 15/12 A2987 RMK AO2 SLP121 T01500117=
200805262153 METAR KBLI 262153Z 18004KT 10SM BKN110 13/11 A2987 RMK AO2 SLP123 T01330106=
200805262053 METAR KBLI 262053Z 17006KT 10SM BKN065 13/11 A2988 RMK AO2 SLP124 60000 T01280106 50003=
200805261953 METAR KBLI 261953Z 18008KT 10SM OVC070 12/11 A2988 RMK AO2 RAB09E43 SLP124 P0000 T01220106=
200805261853 METAR KBLI 261853Z 18007KT 10SM OVC070 12/10 A2987 RMK AO2 SLP123 T01220100=
200805261753 METAR KBLI 261753Z 18006KT 10SM FEW070 BKN095 12/10 A2987 RMK AO2 SLP121 60009 T01220100 10128 20106 51005=
200805261653 METAR KBLI 261653Z 16009KT 10SM BKN070 OVC090 12/11 A2986 RMK AO2 SLP119 T01220106=
200805261553 METAR KBLI 261553Z 17009KT 10SM FEW008 BKN075 OVC085 12/10 A2986 RMK AO2 RAE25 SLP119 P0001 T01170100=
200805261453 METAR KBLI 261453Z 17005KT 5SM -RA BR FEW003 SCT036 OVC080 11/10 A2985 RMK AO2 SLP115 P0003 60008 T01110100 56003=
200805261401 SPECI KBLI 261401Z 18006KT 4SM -RA BR SCT008 BKN044 OVC080 11/10 A2986 RMK AO2 P0001=
200805261401 SPECI KBLI 261401Z 18006KT 4SM -RA BR SCT008 BKN044 OVC080 11/10 A2986 RMK AO2 P0001=
200805261353 METAR KBLI 261353Z 18005KT 4SM -RA BR BKN044 OVC080 11/10 A2986 RMK AO2 SLP116 P0005 T01060100=
200805261253 METAR KBLI 261253Z AUTO 17005KT 8SM -RA SCT070 OVC090 11/10 A2986 RMK AO2 RAB32 SLP117 P0000 T01110100=
200805261153 METAR KBLI 261153Z AUTO 18003KT 10SM OVC090 11/10 A2986 RMK AO2 SLP119 60000 70001 T01110100 10128 20111 56008=
200805261053 METAR KBLI 261053Z AUTO 00000KT 10SM OVC100 12/10 A2987 RMK AO2 SLP121 T01170100=
200805260953 METAR KBLI 260953Z AUTO 17004KT 10SM OVC095 12/10 A2988 RMK AO2 SLP123 T01170100=
200805260853 METAR KBLI 260853Z AUTO 18005KT 10SM OVC100 12/09 A2989 RMK AO2 SLP127 60000 T01220094 58005=
200805260753 METAR KBLI 260753Z AUTO 19005KT 10SM OVC100 12/09 A2990 RMK AO2 SLP131 T01170094 401940117=
200805260653 METAR KBLI 260653Z AUTO 20005KT 10SM SCT110 12/11 A2990 RMK AO2 RAE10 SLP131 P0000 T01220106=
200805260553 METAR KBLI 260553Z AUTO 17006KT 10SM -RA BKN070 OVC090 13/11 A2990 RMK AO2 RAB06 SLP132 P0001 60001 T01280111 10194 20128 55000=
200805260453 METAR KBLI 260453Z 18007KT 10SM BKN110 14/09 A2990 RMK AO2 SLP130 T01440094=
200805260353 METAR KBLI 260353Z 18004KT 10SM CLR 16/11 A2990 RMK AO2 SLP132 T01610111=
200805260253 METAR KBLI 260253Z 18005KT 10SM CLR 17/11 A2990 RMK AO2 SLP132 T01720106 56003=
200805260153 METAR KBLI 260153Z 17007KT 10SM CLR 19/11 A2991 RMK AO2 SLP133 T01890106=
200805260053 METAR KBLI 260053Z 17008KT 10SM CLR 18/09 A2990 RMK AO2 SLP132 T01830094=
200805252353 METAR KBLI 252353Z 17008KT 10SM CLR 18/09 A2991 RMK AO2 SLP135 T01830094 10189 20161 58012=
200805252253 METAR KBLI 252253Z 18007KT 10SM CLR 18/09 A2993 RMK AO2 SLP140 T01780094=
200805252153 METAR KBLI 252153Z 17009G14KT 10SM CLR 17/10 A2994 RMK AO2 SLP144 T01720100=
200805252053 METAR KBLI 252053Z 18008G16KT 10SM CLR 18/09 A2995 RMK AO2 SLP147 T01780089 58007=
200805251953 METAR KBLI 251953Z 20008G16KT 10SM CLR 18/10 A2996 RMK AO2 SLP152 T01780100=
200805251853 METAR KBLI 251853Z 18009KT 10SM CLR 17/09 A2997 RMK AO2 SLP155 T01670089=
200805251753 METAR KBLI 251753Z 17014G20KT 10SM CLR 17/09 A2997 RMK AO2 SLP154 T01670089 10172 20133 58000=
200805251653 METAR KBLI 251653Z 16012G18KT 10SM CLR 17/10 A2997 RMK AO2 SLP155 T01670100=
200805251553 METAR KBLI 251553Z 17013G18KT 10SM CLR 17/11 A2997 RMK AO2 SLP155 T01670106=
200805251453 METAR KBLI 251453Z 15005KT 10SM SCT095 BKN120 16/11 A2997 RMK AO2 SLP153 T01610106 53016=
200805251353 METAR KBLI 251353Z 16008KT 10SM OVC100 15/10 A2995 RMK AO2 SLP146 T01500100=
200805251253 METAR KBLI 251253Z AUTO 17006KT 10SM OVC090 16/10 A2993 RMK AO2 SLP140 T01560100=
200805251153 METAR KBLI 251153Z AUTO 00000KT 10SM BKN095 OVC110 14/10 A2992 RMK AO2 SLP137 T01440100 10150 20122 53014=
200805251053 METAR KBLI 251053Z AUTO 17003KT 10SM BKN100 OVC110 13/10 A2991 RMK AO2 SLP133 T01280100=
200805250953 METAR KBLI 250953Z AUTO 18004KT 10SM BKN120 14/10 A2989 RMK AO2 SLP127 T01390100=
200805250853 METAR KBLI 250853Z AUTO 00000KT 10SM SCT110 13/11 A2988 RMK AO2 SLP123 T01330106 51012=
200805250753 METAR KBLI 250753Z AUTO 00000KT 10SM BKN110 13/11 A2987 RMK AO2 SLP121 T01330111 402280089=
200805250653 METAR KBLI 250653Z AUTO 00000KT 10SM CLR 14/12 A2985 RMK AO2 SLP115 T01390117=
200805250553 METAR KBLI 250553Z AUTO 00000KT 10SM SCT120 14/12 A2984 RMK AO2 SLP112 T01440117 10228 20144 53008=
200805250453 METAR KBLI 250453Z 00000KT 10SM CLR 16/11 A2983 RMK AO2 SLP106 T01610111=
200805250353 METAR KBLI 250353Z 00000KT 10SM FEW120 18/11 A2982 RMK AO2 SLP103 T01780106=
200805250253 METAR KBLI 250253Z 35005KT 10SM CLR 21/09 A2982 RMK AO2 SLP104 T02110089 53010=
200805250153 METAR KBLI 250153Z 26003KT 10SM CLR 22/08 A2980 RMK AO2 SLP095 T02220083=
200805250053 METAR KBLI 250053Z VRB06KT 10SM CLR 22/08 A2979 RMK AO2 SLP093 T02220083=
200805242353 METAR KBLI 242353Z 29007KT 250V310 10SM CLR 23/09 A2979 RMK AO2 SLP093 T02280094 10228 20172 53003=
200805242253 METAR KBLI 242253Z 30008KT 10SM CLR 22/09 A2978 RMK AO2 SLP091 T02220094=
200805242153 METAR KBLI 242153Z 27008KT 10SM CLR 21/09 A2978 RMK AO2 SLP089 T02110089=
200805242053 METAR KBLI 242053Z 28007KT 240V300 10SM CLR 21/10 A2978 RMK AO2 SLP090 T02060100 58002=
200805241953 METAR KBLI 241953Z 29008KT 10SM CLR 20/11 A2979 RMK AO2 SLP092 T02000106=
200805241853 METAR KBLI 241853Z 17006KT 10SM CLR 18/11 A2979 RMK AO2 SLP094 T01830111=
200805241753 METAR KBLI 241753Z 17005KT 10SM CLR 17/12 A2979 RMK AO2 SLP093 T01720117 10172 20089 51004=
200805241653 METAR KBLI 241653Z 00000KT 10SM OVC100 17/11 A2978 RMK AO2 SLP092 T01670111=
200805241553 METAR KBLI 241553Z 00000KT 10SM BKN100 16/12 A2977 RMK AO2 SLP089 T01560117=
200805241453 METAR KBLI 241453Z 02003KT 10SM BKN100 13/10 A2977 RMK AO2 SLP089 T01280100 53009=
200805241353 METAR KBLI 241353Z 00000KT 10SM CLR 11/09 A2976 RMK AO2 SLP085 T01110094=
200805241253 METAR KBLI 241253Z AUTO 00000KT 4SM BR CLR 09/08 A2975 RMK AO2 SLP082 T00890083=
200805241153 METAR KBLI 241153Z AUTO 00000KT 6SM BR OVC100 09/08 A2975 RMK AO2 SLP080 T00940083 10106 20089 50001=
200805241053 METAR KBLI 241053Z AUTO 00000KT 9SM OVC110 10/09 A2975 RMK AO2 SLP081 T01000094=
200805240953 METAR KBLI 240953Z AUTO 00000KT 10SM CLR 11/09 A2975 RMK AO2 SLP080 T01060094=
200805240853 METAR KBLI 240853Z AUTO 00000KT 10SM CLR 10/09 A2974 RMK AO2 SLP079 T01000089 53004=
200805240753 METAR KBLI 240753Z AUTO 00000KT 10SM CLR 10/09 A2974 RMK AO2 SLP076 T01000089 401720067=
200805240653 METAR KBLI 240653Z AUTO 00000KT 10SM CLR 09/08 A2973 RMK AO2 SLP074 T00890078=
200805240553 METAR KBLI 240553Z AUTO 00000KT 10SM CLR 10/08 A2973 RMK AO2 SLP074 60000 T01000083 10133 20100 51006=
200805240453 METAR KBLI 240453Z 16005KT 10SM CLR 12/08 A2972 RMK AO2 SLP072 T01170083=
200805240353 METAR KBLI 240353Z 18003KT 10SM CLR 12/09 A2972 RMK AO2 SLP072 T01220089=
200805240253 METAR KBLI 240253Z 17005KT 10SM CLR 13/08 A2971 RMK AO2 SLP068 60000 T01280083 51009=
200805240153 METAR KBLI 240153Z 16003KT 10SM BKN100 13/09 A2971 RMK AO2 RAB05E14 SLP067 P0000 T01280094=
200805240053 METAR KBLI 240053Z 19004KT 10SM FEW035 13/09 A2970 RMK AO2 SLP063 T01330089=
200805232353 METAR KBLI 232353Z 18007KT 10SM BKN100 13/09 A2969 RMK AO2 SLP059 T01280089 10172 20128 51005=
200805232253 METAR KBLI 232253Z 00000KT 10SM OVC100 13/09 A2968 RMK AO2 SLP057 T01330094=
200805232153 METAR KBLI 232153Z 23003KT 10SM OVC110 15/10 A2968 RMK AO2 SLP059 T01500100=
200805232053 METAR KBLI 232053Z 16005KT 10SM SCT110 16/10 A2967 RMK AO2 SLP054 T01560100 56014=
200805231953 METAR KBLI 231953Z 25004KT 10SM FEW110 17/10 A2968 RMK AO2 SLP058 T01670100=
200805231853 METAR KBLI 231853Z 32006KT 10SM FEW110 14/10 A2970 RMK AO2 SLP064 T01440100=
200805231753 METAR KBLI 231753Z 32008KT 10SM FEW020 SCT110 13/09 A2971 RMK AO2 SLP069 T01280089 10128 20067 57018=
200805231653 METAR KBLI 231653Z 32006KT 10SM SCT008 SCT018 BKN090 11/09 A2973 RMK AO2 SLP075 T01110094=
200805231633 SPECI KBLI 231633Z 34006KT 10SM SCT008 SCT018 BKN090 10/09 A2974 RMK AO2=
200805231633 SPECI KBLI 231633Z 34006KT 10SM SCT008 SCT018 BKN090 10/09 A2974 RMK AO2=
200805231553 METAR KBLI 231553Z 35005KT 9SM FEW018 BKN090 10/08 A2975 RMK AO2 SLP079 T01000083=
200805231453 METAR KBLI 231453Z 01003KT 8SM FEW015 SCT090 09/08 A2977 RMK AO2 SLP086 T00890078 58007=
200805231353 METAR KBLI 231353Z AUTO 00000KT 9SM CLR 09/08 A2978 RMK AO2 SLP091 T00890078=
200805231253 METAR KBLI 231253Z AUTO 00000KT 10SM CLR 08/07 A2978 RMK AO2 SLP091 T00780072=
200805231153 METAR KBLI 231153Z AUTO 30004KT 10SM CLR 08/07 A2978 RMK AO2 SLP093 T00780067 10117 20067 58011=
200805231053 METAR KBLI 231053Z AUTO 30005KT 10SM CLR 08/07 A2980 RMK AO2 SLP097 T00830072=
200805230953 METAR KBLI 230953Z AUTO 32003KT 10SM CLR 07/06 A2981 RMK AO2 SLP101 T00670056=
200805230853 METAR KBLI 230853Z AUTO 00000KT 7SM CLR 07/06 A2982 RMK AO2 SLP104 T00720061 57008=
200805230753 METAR KBLI 230753Z AUTO 28003KT 10SM CLR 09/07 A2983 RMK AO2 SLP107 T00940072 401440089=
200805230653 METAR KBLI 230653Z AUTO 29003KT 10SM CLR 11/07 A2983 RMK AO2 SLP109 T01060072=
200805230553 METAR KBLI 230553Z AUTO 00000KT 10SM OVC046 12/07 A2984 RMK AO2 SLP112 T01170072 10144 20117 58005=
200805230453 METAR KBLI 230453Z 00000KT 10SM OVC046 13/07 A2986 RMK AO2 SLP117 T01280067=
200805230353 METAR KBLI 230353Z 32003KT 10SM OVC050 13/06 A2986 RMK AO2 SLP118 T01280061=
200805230253 METAR KBLI 230253Z 29006KT 10SM BKN055 13/07 A2986 RMK AO2 SLP117 T01330067 56013=
200805230153 METAR KBLI 230153Z 30005KT 10SM SCT055 14/07 A2987 RMK AO2 SLP121 T01390072=
200805230053 METAR KBLI 230053Z 28007KT 10SM FEW043 14/07 A2988 RMK AO2 SLP124 T01390067=
200805222353 METAR KBLI 222353Z 29007KT 10SM OVC043 13/06 A2990 RMK AO2 SLP131 60000 T01330056 10139 20100 56021=
200805222253 METAR KBLI 222253Z 28006G15KT 10SM OVC039 13/04 A2991 RMK AO2 SLP136 T01280044=
200805222153 METAR KBLI 222153Z 28008KT 10SM BKN036 13/05 A2993 RMK AO2 SLP142 T01280050=
200805222100 SPECI KBLI 222100Z VRB04KT 10SM SCT028 OVC036 13/06 A2995 RMK AO2=
200805222100 SPECI KBLI 222100Z VRB04KT 10SM SCT028 OVC036 13/06 A2995 RMK AO2=
200805222053 METAR KBLI 222053Z 28007KT 10SM BKN028 OVC036 12/06 A2996 RMK AO2 SLP151 60000 T01220061 58016=
200805222022 SPECI KBLI 222022Z 30008KT 10SM SCT021 BKN033 OVC042 12/07 A2997 RMK AO2=
200805222022 SPECI KBLI 222022Z 30008KT 10SM SCT021 BKN033 OVC042 12/07 A2997 RMK AO2=
200805221953 METAR KBLI 221953Z 25005KT 10SM BKN020 OVC031 13/08 A2998 RMK AO2 RAE16 SLP157 P0000 T01280078=
200805221853 METAR KBLI 221853Z 16007KT 10SM -RA OVC016 10/07 A3000 RMK AO2 RAB24E37B53 SLP167 P0000 T01000072=
200805221833 SPECI KBLI 221833Z 15007KT 10SM -RA BKN016 OVC020 10/08 A3000 RMK AO2 RAB24 P0000=
200805221833 SPECI KBLI 221833Z 15007KT 10SM -RA BKN016 OVC020 10/08 A3000 RMK AO2 RAB24 P0000=
200805221753 METAR KBLI 221753Z 17003KT 10SM OVC014 10/07 A3000 RMK AO2 SLP167 T01000072 10100 20089 58014=
200805221653 METAR KBLI 221653Z 17005KT 10SM OVC014 10/07 A3002 RMK AO2 SLP172 T01000067=
200805221553 METAR KBLI 221553Z 17006KT 10SM OVC014 09/07 A3004 RMK AO2 SLP178 T00940072=
200805221453 METAR KBLI 221453Z 17006KT 10SM SCT018 OVC027 09/07 A3004 RMK AO2 SLP181 T00940072 50001=
200805221353 METAR KBLI 221353Z AUTO 17006KT 10SM OVC020 09/07 A3005 RMK AO2 SLP182 T00890067=
200805221253 METAR KBLI 221253Z AUTO 17007KT 10SM BKN022 OVC027 09/07 A3006 RMK AO2 SLP185 T00890067=
200805221153 METAR KBLI 221153Z AUTO 18007KT 10SM OVC026 09/07 A3004 RMK AO2 SLP180 60000 T00890067 10094 20089 58008=
200805221053 METAR KBLI 221053Z AUTO 17005KT 10SM BKN024 BKN029 OVC065 09/06 A3006 RMK AO2 SLP185 T00890061=
200805221031 SPECI KBLI 221031Z AUTO 17005KT 10SM BKN028 OVC060 09/06 A3006 RMK AO2=
200805221031 SPECI KBLI 221031Z AUTO 17005KT 10SM BKN028 OVC060 09/06 A3006 RMK AO2=
200805220953 METAR KBLI 220953Z AUTO VRB04KT 10SM FEW028 OVC060 09/06 A3006 RMK AO2 SLP187 T00890061=
200805220853 METAR KBLI 220853Z AUTO 15005KT 10SM OVC070 09/06 A3007 RMK AO2 SLP188 60000 T00890061 53003=
200805220753 METAR KBLI 220753Z AUTO 17008G14KT 10SM BKN044 OVC070 09/06 A3006 RMK AO2 SLP185 T00890061 401390089=
200805220653 METAR KBLI 220653Z AUTO 18006KT 10SM BKN046 OVC060 09/07 A3006 RMK AO2 RAB10E41 SLP185 P0000 T00890067=
200805220553 METAR KBLI 220553Z AUTO 17008KT 10SM SCT050 OVC070 09/06 A3006 RMK AO2 SLP185 60000 T00940061 10139 20094 53003=
200805220453 METAR KBLI 220453Z 16004KT 10SM OVC070 10/07 A3005 RMK AO2 RAE20 SLP184 P0000 T01000072=
200805220353 METAR KBLI 220353Z 18006KT 10SM -RA OVC060 11/07 A3005 RMK AO2 RAB38 SLP182 P0000 T01060072=
200805220253 METAR KBLI 220253Z 19005KT 10SM BKN050 OVC070 11/06 A3005 RMK AO2 SLP182 T01110061 53005=
200805220153 METAR KBLI 220153Z 18004KT 10SM OVC070 13/06 A3003 RMK AO2 SLP177 T01280061=
200805220053 METAR KBLI 220053Z 20007KT 10SM SCT040 13/07 A3003 RMK AO2 SLP176 T01330067=
200805212353 METAR KBLI 212353Z 17010KT 10SM SCT070 14/07 A3003 RMK AO2 SLP177 T01390072 10139 20106 56006=
200805212253 METAR KBLI 212253Z 15011KT 10SM BKN042 BKN110 13/08 A3004 RMK AO2 SLP179 T01330078=
200805212153 METAR KBLI 212153Z 17013KT 10SM BKN070 13/07 A3004 RMK AO2 SLP180 T01330067=
200805212053 METAR KBLI 212053Z 17012KT 10SM OVC070 13/08 A3005 RMK AO2 SLP183 T01280078 56002=
200805211953 METAR KBLI 211953Z 16010KT 10SM SCT020 BKN060 13/08 A3005 RMK AO2 SLP183 T01280083=
200805211853 METAR KBLI 211853Z 17010KT 10SM SCT022 BKN050 12/08 A3005 RMK AO2 SLP183 T01170078=
200805211753 METAR KBLI 211753Z 18007KT 10SM OVC055 11/08 A3006 RMK AO2 SLP185 T01110078 10111 20089 58002=
200805211700 SPECI KBLI 211700Z 16008KT 10SM SCT007 SCT014 OVC060 10/08 A3006 RMK AO2=
200805211700 SPECI KBLI 211700Z 16008KT 10SM SCT007 SCT014 OVC060 10/08 A3006 RMK AO2=
200805211653 METAR KBLI 211653Z 17007KT 10SM SCT007 BKN014 OVC060 10/08 A3006 RMK AO2 SLP186 T01000078=
200805211553 METAR KBLI 211553Z 17007KT 10SM SCT007 BKN014 OVC085 09/08 A3006 RMK AO2 SLP187 T00940078=
200805211550 SPECI KBLI 211550Z 16007KT 10SM SCT007 BKN014 OVC085 10/08 A3006 RMK AO2=
200805211550 SPECI KBLI 211550Z 16007KT 10SM SCT007 BKN014 OVC085 10/08 A3006 RMK AO2=
200805211539 SPECI KBLI 211539Z 15008KT 10SM BKN007 BKN012 OVC085 09/08 A3006 RMK AO2 CIG 006V011=
200805211539 SPECI KBLI 211539Z 15008KT 10SM BKN007 BKN012 OVC085 09/08 A3006 RMK AO2 CIG 006V011=
200805211534 SPECI KBLI 211534Z 15007KT 10SM BKN010 BKN060 OVC085 10/08 A3006 RMK AO2=
200805211534 SPECI KBLI 211534Z 15007KT 10SM BKN010 BKN060 OVC085 10/08 A3006 RMK AO2=
200805211453 METAR KBLI 211453Z 16006KT 10SM FEW060 SCT100 10/07 A3004 RMK AO2 SLP180 T01000072 51005=
200805211353 METAR KBLI 211353Z 16006KT 10SM FEW013 OVC060 09/07 A3004 RMK AO2 SLP178 T00940072=
200805211253 METAR KBLI 211253Z AUTO 16007KT 10SM OVC060 09/07 A3004 RMK AO2 SLP178 T00890067=
200805211153 METAR KBLI 211153Z AUTO 16006KT 10SM FEW013 OVC065 09/07 A3003 RMK AO2 SLP175 70011 T00890067 10100 20089 51004=
200805211053 METAR KBLI 211053Z AUTO 16005KT 10SM SCT070 OVC100 09/06 A3002 RMK AO2 SLP172 T00890061=
200805210953 METAR KBLI 210953Z AUTO 17005KT 10SM OVC065 09/06 A3002 RMK AO2 SLP174 T00890061=
200805210853 METAR KBLI 210853Z AUTO 17006KT 10SM FEW060 OVC070 09/06 A3001 RMK AO2 SLP170 T00940061 51008=
200805210753 METAR KBLI 210753Z AUTO 17005KT 10SM FEW033 BKN046 OVC055 09/06 A3001 RMK AO2 SLP169 T00940061 401440094=
200805210653 METAR KBLI 210653Z AUTO 17003KT 10SM OVC043 09/06 A3000 RMK AO2 SLP167 T00940056=
200805210553 METAR KBLI 210553Z AUTO 19003KT 10SM FEW035 OVC070 10/06 A2999 RMK AO2 SLP162 60000 T01000056 10128 20100 51017=
200805210453 METAR KBLI 210453Z 00000KT 10SM FEW035 OVC070 10/06 A2997 RMK AO2 RAE09 SLP157 P0000 T01000061=
200805210353 METAR KBLI 210353Z 00000KT 10SM -RA FEW030 BKN055 OVC070 11/07 A2996 RMK AO2 RAB48 SLP151 P0000 T01060067=
200805210253 METAR KBLI 210253Z 21004KT 10SM OVC070 11/06 A2994 RMK AO2 SLP146 T01110056 53012=
200805210153 METAR KBLI 210153Z 17006KT 10SM SCT075 BKN100 12/07 A2992 RMK AO2 SLP138 T01220072=
200805210053 METAR KBLI 210053Z 17008KT 10SM FEW060 BKN075 12/08 A2992 RMK AO2 SLP137 T01220078=
200805202353 METAR KBLI 202353Z 16007KT 10SM FEW046 OVC060 12/08 A2990 RMK AO2 RAB16E52 SLP133 P0000 60001 T01170078 10122 20100 51006=
200805202253 METAR KBLI 202253Z 16007KT 10SM FEW036 OVC055 12/08 A2990 RMK AO2 SLP132 T01170078=
200805202153 METAR KBLI 202153Z 17007KT 10SM OVC049 11/09 A2989 RMK AO2 RAB26E44 SLP130 P0000 T01110094=
200805202053 METAR KBLI 202053Z 18004KT 10SM OVC043 12/09 A2989 RMK AO2 SLP128 60001 T01170094 51004=
200805201953 METAR KBLI 201953Z 18004KT 10SM FEW009 OVC044 11/09 A2988 RMK AO2 RAB1858E13 SLP127 P0000 T01110094=
200805201926 SPECI KBLI 201926Z 15005KT 10SM FEW007 OVC046 11/10 A2989 RMK AO2 RAB1858E13 P0000=
200805201926 SPECI KBLI 201926Z 15005KT 10SM FEW007 OVC046 11/10 A2989 RMK AO2 RAB1858E13 P0000=
200805201853 METAR KBLI 201853Z 16007KT 10SM FEW023 OVC050 11/09 A2989 RMK AO2 RAE32 SLP129 P0001 T01060089=
200805201753 METAR KBLI 201753Z 17010KT 7SM -RA FEW013 OVC050 11/09 A2988 RMK AO2 SLP124 P0003 60010 T01060094 10133 20100 53013=
200805201653 METAR KBLI 201653Z 18003KT 10SM -RA FEW013 OVC040 11/09 A2986 RMK AO2 SLP118 P0001 T01110094=
200805201625 SPECI KBLI 201625Z 15003KT 10SM -RA SCT010 BKN030 OVC034 11/09 A2984 RMK AO2 P0001=
200805201625 SPECI KBLI 201625Z 15003KT 10SM -RA SCT010 BKN030 OVC034 11/09 A2984 RMK AO2 P0001=
200805201553 METAR KBLI 201553Z 00000KT 9SM -RA BKN010 OVC018 10/09 A2984 RMK AO2 SLP111 P0003 T01000094=
200805201550 SPECI KBLI 201550Z 00000KT 9SM -RA BKN012 OVC018 10/09 A2984 RMK AO2 P0003=
200805201550 SPECI KBLI 201550Z 00000KT 9SM -RA BKN012 OVC018 10/09 A2984 RMK AO2 P0003=
200805201500 SPECI KBLI 201500Z 17010KT 10SM -RA FEW005 OVC016 11/09 A2983 RMK AO2 P0000=
200805201500 SPECI KBLI 201500Z 17010KT 10SM -RA FEW005 OVC016 11/09 A2983 RMK AO2 P0000=
200805201453 METAR KBLI 201453Z 18007KT 10SM -RA FEW005 OVC014 11/09 A2982 RMK AO2 SLP106 P0001 60003 T01060094 53007=
200805201401 SPECI KBLI 201401Z VRB03KT 8SM -RA FEW006 BKN012 OVC030 11/10 A2981 RMK AO2 P0000=
200805201401 SPECI KBLI 201401Z VRB03KT 8SM -RA FEW006 BKN012 OVC030 11/10 A2981 RMK AO2 P0000=
200805201353 METAR KBLI 201353Z 00000KT 8SM -RA BKN012 OVC030 11/10 A2979 RMK AO2 RAB07 SLP096 P0002 T01110100=
200805201253 METAR KBLI 201253Z AUTO 18008KT 10SM BKN012 OVC029 11/10 A2980 RMK AO2 LTG DSNT N SLP099 T01110100=
200805201250 SPECI KBLI 201250Z AUTO 17008KT 10SM BKN012 OVC029 12/10 A2980 RMK AO2 LTG DSNT N=
200805201250 SPECI KBLI 201250Z AUTO 17008KT 10SM BKN012 OVC029 12/10 A2980 RMK AO2 LTG DSNT N=
200805201153 METAR KBLI 201153Z AUTO 16010KT 10SM BKN027 OVC037 13/12 A2979 RMK AO2 SLP093 60009 70018 T01330117 10150 20117 58014=
200805201146 SPECI KBLI 201146Z AUTO 16010KT 10SM BKN027 OVC037 13/12 A2979 RMK AO2=
200805201146 SPECI KBLI 201146Z AUTO 16010KT 10SM BKN027 OVC037 13/12 A2979 RMK AO2=
200805201053 METAR KBLI 201053Z AUTO 20007KT 9SM FEW006 OVC035 12/11 A2982 RMK AO2 RAB04E41 SLP103 P0007 T01220111=
200805201033 SPECI KBLI 201033Z AUTO 20007KT 6SM -RA BR FEW006 BKN033 OVC039 12/11 A2982 RMK AO2 RAB04 P0007=
200805201033 SPECI KBLI 201033Z AUTO 20007KT 6SM -RA BR FEW006 BKN033 OVC039 12/11 A2982 RMK AO2 RAB04 P0007=
200805201023 SPECI KBLI 201023Z AUTO 22005KT 2 1/2SM +RA BR FEW004 OVC031 12/11 A2982 RMK AO2 RAB04 P0006=
200805201023 SPECI KBLI 201023Z AUTO 22005KT 2 1/2SM +RA BR FEW004 OVC031 12/11 A2982 RMK AO2 RAB04 P0006=
200805200953 METAR KBLI 200953Z AUTO 17010G16KT 9SM OVC031 12/11 A2982 RMK AO2 RAE0855B12E42 SLP103 P0001 T01220111=
200805200853 METAR KBLI 200853Z AUTO 17007KT 10SM -RA FEW013 SCT048 OVC080 13/12 A2983 RMK AO2 RAB27 SLP107 P0001 60001 T01280117 53001=
200805200844 SPECI KBLI 200844Z AUTO 18006KT 7SM -RA SCT013 BKN050 OVC085 13/12 A2982 RMK AO2 RAB27 P0001=
200805200844 SPECI KBLI 200844Z AUTO 18006KT 7SM -RA SCT013 BKN050 OVC085 13/12 A2982 RMK AO2 RAB27 P0001=
200805200837 SPECI KBLI 200837Z AUTO 17006KT 6SM RA BR BKN013 BKN018 OVC040 14/12 A2982 RMK AO2 RAB27 P0001=
200805200837 SPECI KBLI 200837Z AUTO 17006KT 6SM RA BR BKN013 BKN018 OVC040 14/12 A2982 RMK AO2 RAB27 P0001=
200805200820 SPECI KBLI 200820Z AUTO 19005KT 10SM BKN017 BKN025 BKN095 14/13 A2984 RMK AO2=
200805200820 SPECI KBLI 200820Z AUTO 19005KT 10SM BKN017 BKN025 BKN095 14/13 A2984 RMK AO2=
200805200753 METAR KBLI 200753Z AUTO 14003KT 10SM FEW021 SCT034 BKN100 14/13 A2983 RMK AO2 SLP106 T01440128 401830128=
200805200653 METAR KBLI 200653Z AUTO 00000KT 7SM FEW050 BKN100 BKN120 15/14 A2982 RMK AO2 SLP104 T01500139=
200805200553 METAR KBLI 200553Z AUTO 00000KT 6SM BR BKN090 OVC110 15/14 A2983 RMK AO2 SLP106 60004 T01500139 10167 20150 56014=
200805200453 METAR KBLI 200453Z 01004KT 7SM BKN100 BKN120 15/14 A2984 RMK AO2 SLP109 T01500139=
200805200353 METAR KBLI 200353Z 36004KT 7SM BKN090 OVC110 16/14 A2985 RMK AO2 RAE0254 SLP113 T01560144=
200805200253 METAR KBLI 200253Z 01004KT 7SM -RA FEW080 BKN090 16/15 A2987 RMK AO2 RAB06E15B43 SLP120 P0000 60004 T01610150 56022=
200805200153 METAR KBLI 200153Z 04005KT 6SM BR FEW055 OVC100 16/15 A2989 RMK AO2 RAE0057 SLP127 P0000 T01610150=
200805200053 METAR KBLI 200053Z 36006KT 7SM -RA SCT035 BKN095 17/15 A2991 RMK AO2 SLP133 P0004 T01670150=
200805200043 SPECI KBLI 200043Z VRB03KT 5SM -RA BR BKN030 BKN095 17/15 A2991 RMK AO2 P0003=
200805200043 SPECI KBLI 200043Z VRB03KT 5SM -RA BR BKN030 BKN095 17/15 A2991 RMK AO2 P0003=
200805192353 METAR KBLI 192353Z 00000KT 4SM -RA BR BKN026 BKN045 OVC080 17/14 A2994 RMK AO2 RAB18 SLP143 P0001 60005 T01670144 10183 20161 56000=
200805192350 SPECI KBLI 192350Z VRB04KT 5SM -RA BR BKN028 BKN047 OVC075 17/14 A2994 RMK AO2 RAB18 P0001=
200805192350 SPECI KBLI 192350Z VRB04KT 5SM -RA BR BKN028 BKN047 OVC075 17/14 A2994 RMK AO2 RAB18 P0001=
200805192253 METAR KBLI 192253Z 01005KT 10SM BKN110 17/14 A2992 RMK AO2 RAE07 SLP139 P0000 T01720139=
200805192153 METAR KBLI 192153Z 05004KT 10SM -RA SCT045 OVC070 17/14 A2994 RMK AO2 RAB2058 SLP143 P0003 T01670139=
200805192053 METAR KBLI 192053Z 00000KT 10SM SCT045 OVC075 17/13 A2995 RMK AO2 RAE51 SLP149 P0001 60001 T01670128 53000=
200805192013 SPECI KBLI 192013Z 00000KT 8SM -RA BR SCT022 OVC085 17/12 A2995 RMK AO2 P0001=
200805192013 SPECI KBLI 192013Z 00000KT 8SM -RA BR SCT022 OVC085 17/12 A2995 RMK AO2 P0001=
200805192003 SPECI KBLI 192003Z 00000KT 5SM -RA BR BKN017 BKN085 17/13 A2995 RMK AO2 P0001=
200805192003 SPECI KBLI 192003Z 00000KT 5SM -RA BR BKN017 BKN085 17/13 A2995 RMK AO2 P0001=
200805191953 METAR KBLI 191953Z 00000KT 7SM -RA SCT033 BKN090 17/13 A2995 RMK AO2 RAB1855E04B42 SLP147 P0000 T01720128=
200805191853 METAR KBLI 191853Z 00000KT 10SM BKN100 17/12 A2995 RMK AO2 RAB05E38 SLP146 P0000 T01720117=
200805191753 METAR KBLI 191753Z 22003KT 10SM OVC090 17/11 A2995 RMK AO2 SLP149 60000 T01670111 10172 20128 55001=
200805191653 METAR KBLI 191653Z 18003KT 10SM CLR 17/10 A2994 RMK AO2 SLP146 T01720100=
200805191553 METAR KBLI 191553Z 18003KT 10SM FEW090 SCT110 16/11 A2995 RMK AO2 SLP148 T01610106=
200805191453 METAR KBLI 191453Z 17005KT 10SM BKN095 14/10 A2996 RMK AO2 RAB10E46 SLP149 P0000 60000 T01440100 50006=
200805191353 METAR KBLI 191353Z 17010KT 10SM BKN090 13/09 A2996 RMK AO2 SLP152 T01330089=
200805191253 METAR KBLI 191253Z AUTO VRB04KT 10SM BKN100 OVC110 13/09 A2993 RMK AO2 SLP142 T01280094=
200805191153 METAR KBLI 191153Z AUTO 18007KT 10SM FEW055 OVC110 13/09 A2994 RMK AO2 SLP144 T01280089 10139 20128 58005=
200805191053 METAR KBLI 191053Z AUTO 17012G17KT 10SM BKN110 13/09 A2995 RMK AO2 SLP148 T01280089=
200805190953 METAR KBLI 190953Z AUTO 18010KT 10SM BKN120 13/09 A2995 RMK AO2 SLP149 T01280094=
200805190853 METAR KBLI 190853Z AUTO 18009G15KT 10SM SCT120 13/09 A2995 RMK AO2 SLP148 T01280094 58001=
200805190753 METAR KBLI 190753Z AUTO 17010G16KT 10SM SCT120 13/10 A2996 RMK AO2 SLP150 T01330100 401940122=
200805190653 METAR KBLI 190653Z AUTO 18009KT 10SM OVC120 13/10 A2996 RMK AO2 SLP151 T01330100=
200805190553 METAR KBLI 190553Z AUTO 18006KT 10SM SCT120 13/11 A2995 RMK AO2 SLP149 T01330106 10189 20128 58002=
200805190453 METAR KBLI 190453Z 18008KT 10SM SCT120 13/10 A2996 RMK AO2 SLP152 T01330100=
200805190353 METAR KBLI 190353Z 18009KT 10SM CLR 13/09 A2995 RMK AO2 SLP150 T01330094=
200805190253 METAR KBLI 190253Z 18007KT 10SM CLR 14/10 A2996 RMK AO2 SLP151 T01440100 56016=
200805190153 METAR KBLI 190153Z 18006KT 10SM CLR 16/09 A2997 RMK AO2 SLP155 T01560094=
200805190053 METAR KBLI 190053Z 18007KT 10SM CLR 17/09 A2999 RMK AO2 SLP161 T01720094=
200805182353 METAR KBLI 182353Z 18009KT 10SM CLR 19/11 A3001 RMK AO2 SLP167 T01890106 10194 20161 58014=
200805182253 METAR KBLI 182253Z 18007KT 10SM CLR 18/10 A3002 RMK AO2 SLP171 T01830100=
200805182153 METAR KBLI 182153Z 18009KT 10SM OVC085 18/11 A3004 RMK AO2 SLP177 T01830106=
200805182053 METAR KBLI 182053Z 16009KT 10SM BKN090 18/11 A3005 RMK AO2 SLP180 T01830106 58001=
200805181953 METAR KBLI 181953Z VRB05KT 10SM CLR 18/11 A3005 RMK AO2 SLP182 T01780106=
200805181853 METAR KBLI 181853Z 18010G16KT 10SM CLR 17/11 A3005 RMK AO2 SLP182 T01720106=
200805181753 METAR KBLI 181753Z 18010KT 10SM CLR 16/10 A3005 RMK AO2 SLP181 T01610100 10172 20122 50008=
200805181653 METAR KBLI 181653Z 18011G17KT 10SM CLR 16/10 A3005 RMK AO2 SLP182 T01560100=
200805181553 METAR KBLI 181553Z 17011KT 10SM FEW110 14/10 A3004 RMK AO2 SLP179 T01440100=
200805181453 METAR KBLI 181453Z 18011G18KT 10SM CLR 15/09 A3002 RMK AO2 SLP173 T01500094 51011=
200805181353 METAR KBLI 181353Z 14008KT 10SM CLR 16/10 A3001 RMK AO2 SLP168 T01610100=
200805181253 METAR KBLI 181253Z AUTO 17009KT 10SM CLR 13/09 A3001 RMK AO2 SLP167 T01280094=
200805181153 METAR KBLI 181153Z AUTO 17010KT 10SM CLR 13/09 A2999 RMK AO2 SLP161 T01330094 10161 20133 50006=
200805181053 METAR KBLI 181053Z AUTO 18009KT 10SM CLR 14/09 A3000 RMK AO2 SLP162 T01390094=
200805180953 METAR KBLI 180953Z AUTO 17009KT 10SM CLR 14/09 A2998 RMK AO2 SLP156 T01440094=
200805180853 METAR KBLI 180853Z AUTO 18011KT 10SM CLR 14/09 A2997 RMK AO2 SLP155 T01440094 53005=
200805180753 METAR KBLI 180753Z AUTO 17009G19KT 10SM CLR 16/11 A2995 RMK AO2 SLP148 T01560106 402780094=
200805180653 METAR KBLI 180653Z AUTO 18008KT 10SM CLR 15/11 A2996 RMK AO2 SLP149 T01500111=
200805180553 METAR KBLI 180553Z AUTO 17008KT 10SM CLR 16/11 A2996 RMK AO2 SLP150 T01610111 10272 20161 51016=
200805180453 METAR KBLI 180453Z 18012G18KT 10SM CLR 17/12 A2995 RMK AO2 SLP146 T01670117=
200805180353 METAR KBLI 180353Z 18010KT 10SM CLR 18/12 A2992 RMK AO2 SLP139 T01780117=
200805180253 METAR KBLI 180253Z 17009KT 10SM CLR 21/11 A2991 RMK AO2 SLP135 T02110111 55007=
200805180153 METAR KBLI 180153Z 18011KT 10SM CLR 20/11 A2991 RMK AO2 SLP134 T02000111=
200805180053 METAR KBLI 180053Z 17007KT 10SM CLR 26/12 A2992 RMK AO2 SLP136 T02560122=
200805172353 METAR KBLI 172353Z 00000KT 10SM CLR 26/12 A2993 RMK AO2 SLP141 T02610122 10278 20233 56014=
200805172253 METAR KBLI 172253Z VRB04KT 10SM CLR 26/12 A2995 RMK AO2 SLP147 T02610122=
200805172153 METAR KBLI 172153Z VRB05KT 10SM CLR 26/12 A2996 RMK AO2 SLP150 T02610122=
200805172053 METAR KBLI 172053Z VRB05KT 10SM CLR 28/13 A2997 RMK AO2 SLP155 T02780128 58015=
200805171953 METAR KBLI 171953Z VRB03KT 10SM CLR 27/13 A2999 RMK AO2 SLP160 T02670128=
200805171853 METAR KBLI 171853Z 36003KT 10SM CLR 26/13 A3000 RMK AO2 SLP165 T02560128=
200805171753 METAR KBLI 171753Z 35003KT 10SM CLR 23/14 A3002 RMK AO2 SLP170 T02330139 10233 20100 56013=
200805171653 METAR KBLI 171653Z 00000KT 10SM CLR 21/12 A3003 RMK AO2 SLP175 T02060117=
200805171553 METAR KBLI 171553Z 10006KT 10SM CLR 18/12 A3004 RMK AO2 SLP177 T01830117 $=
200805171453 METAR KBLI 171453Z 00000KT 10SM CLR 16/11 A3005 RMK AO2 SLP183 T01560111 53010=
200805171353 METAR KBLI 171353Z AUTO 00000KT 10SM CLR 13/12 A3004 RMK AO2 SLP178 T01330117=
200805171253 METAR KBLI 171253Z AUTO 00000KT 6SM BR CLR 10/09 A3003 RMK AO2 SLP174 T01000089=
200805171153 METAR KBLI 171153Z AUTO 00000KT 10SM CLR 11/10 A3002 RMK AO2 SLP173 T01110100 10133 20094 55004=
200805171053 METAR KBLI 171053Z AUTO 00000KT 9SM CLR 11/10 A3002 RMK AO2 SLP172 T01060100=
200805170953 METAR KBLI 170953Z AUTO 34004KT 9SM CLR 11/09 A3003 RMK AO2 SLP174 T01060094=
200805170853 METAR KBLI 170853Z AUTO 00000KT 10SM CLR 12/10 A3004 RMK AO2 SLP177 T01170100 51003=
200805170753 METAR KBLI 170753Z AUTO 00000KT 10SM CLR 12/10 A3003 RMK AO2 SLP176 T01170100 402330067=
200805170653 METAR KBLI 170653Z AUTO 00000KT 10SM CLR 13/11 A3004 RMK AO2 SLP177 T01280111=
200805170553 METAR KBLI 170553Z AUTO 00000KT 10SM CLR 13/11 A3003 RMK AO2 SLP174 T01330111 10233 20128 50001=
200805170453 METAR KBLI 170453Z 00000KT 10SM CLR 14/11 A3003 RMK AO2 SLP176 T01440111=
200805170353 METAR KBLI 170353Z 00000KT 10SM CLR 16/13 A3003 RMK AO2 SLP173 T01610128=
200805170253 METAR KBLI 170253Z 00000KT 10SM CLR 19/12 A3002 RMK AO2 SLP172 T01940122 56019=
200805170153 METAR KBLI 170153Z 25004KT 10SM CLR 22/10 A3003 RMK AO2 SLP175 T02170100=
200805170053 METAR KBLI 170053Z 29004KT 10SM CLR 23/12 A3005 RMK AO2 SLP182 T02330117=
200805162353 METAR KBLI 162353Z VRB05KT 10SM CLR 22/12 A3008 RMK AO2 SLP191 T02220117 10233 20200 56020=
200805162253 METAR KBLI 162253Z VRB03KT 10SM CLR 21/13 A3010 RMK AO2 SLP197 T02110128=
200805162153 METAR KBLI 162153Z VRB05KT 10SM CLR 23/14 A3012 RMK AO2 SLP204 T02280139=
200805162053 METAR KBLI 162053Z 25005KT 10SM CLR 21/13 A3014 RMK AO2 SLP211 T02110128 57014=
200805161953 METAR KBLI 161953Z 26007KT 10SM CLR 21/12 A3015 RMK AO2 SLP216 T02060117=
200805161853 METAR KBLI 161853Z 28005KT 10SM CLR 22/12 A3017 RMK AO2 SLP221 T02170117=
200805161753 METAR KBLI 161753Z 35007KT 10SM CLR 21/11 A3018 RMK AO2 SLP226 T02110106 10211 20072 58010=
200805161653 METAR KBLI 161653Z 31005KT 10SM CLR 18/11 A3019 RMK AO2 SLP230 T01830106=
200805161553 METAR KBLI 161553Z 35006KT 10SM CLR 16/10 A3020 RMK AO2 SLP233 T01610100=
200805161453 METAR KBLI 161453Z 35005KT 10SM CLR 13/09 A3021 RMK AO2 SLP236 T01280094 58003=
200805161353 METAR KBLI 161353Z 35003KT 10SM CLR 11/09 A3022 RMK AO2 SLP239 T01060089=
200805161253 METAR KBLI 161253Z 34003KT 9SM CLR 08/07 A3022 RMK AO2 SLP241 T00780072=
200805161206 SPECI KBLI 161206Z 34003KT 3SM BR CLR 08/07 A3022 RMK AO2=
200805161206 SPECI KBLI 161206Z 34003KT 3SM BR CLR 08/07 A3022 RMK AO2=
200805161153 METAR KBLI 161153Z 35003KT 1 1/4SM BR CLR 07/07 A3022 RMK AO2 SLP240 T00720067 10106 20067 58008=
200805161150 SPECI KBLI 161150Z 35003KT 1 3/4SM BR CLR 07/07 A3022 RMK AO2=
200805161150 SPECI KBLI 161150Z 35003KT 1 3/4SM BR CLR 07/07 A3022 RMK AO2=
200805161139 SPECI KBLI 161139Z 00000KT 4SM BR FEW080 08/07 A3023 RMK AO2=
200805161139 SPECI KBLI 161139Z 00000KT 4SM BR FEW080 08/07 A3023 RMK AO2=
200805161135 SPECI KBLI 161135Z 00000KT 1SM BR FEW075 08/07 A3023 RMK AO2 RVRNO=
200805161135 SPECI KBLI 161135Z 00000KT 1SM BR FEW075 08/07 A3023 RMK AO2 RVRNO=
200805161128 SPECI KBLI 161128Z 00000KT 1/2SM FG FEW065 08/08 A3023 RMK AO2 RVRNO=
200805161128 SPECI KBLI 161128Z 00000KT 1/2SM FG FEW065 08/08 A3023 RMK AO2 RVRNO=
200805161121 SPECI KBLI 161121Z 00000KT 1SM BR FEW080 08/08 A3023 RMK AO2 RVRNO=
200805161121 SPECI KBLI 161121Z 00000KT 1SM BR FEW080 08/08 A3023 RMK AO2 RVRNO=
200805161110 SPECI KBLI 161110Z 00000KT 2SM BR FEW008 08/07 A3023 RMK AO2=
200805161110 SPECI KBLI 161110Z 00000KT 2SM BR FEW008 08/07 A3023 RMK AO2=
200805161103 SPECI KBLI 161103Z 33003KT 3/4SM BR FEW008 SCT012 08/07 A3023 RMK AO2 RVRNO=
200805161103 SPECI KBLI 161103Z 33003KT 3/4SM BR FEW008 SCT012 08/07 A3023 RMK AO2 RVRNO=
200805161059 SPECI KBLI 161059Z 34003KT 3/4SM BR VV009 08/07 A3023 RMK AO2 RVRNO=
200805161059 SPECI KBLI 161059Z 34003KT 3/4SM BR VV009 08/07 A3023 RMK AO2 RVRNO=
200805161053 METAR KBLI 161053Z 35003KT 1/4SM FG BKN001 BKN007 08/07 A3023 RMK AO2 SLP244 T00780067 RVRNO=
200805161019 SPECI KBLI 161019Z 00000KT 1/2SM FG BKN001 BKN007 08/07 A3024 RMK AO2 RVRNO=
200805161019 SPECI KBLI 161019Z 00000KT 1/2SM FG BKN001 BKN007 08/07 A3024 RMK AO2 RVRNO=
200805161016 SPECI KBLI 161016Z 00000KT 1 1/2SM BR BKN001 BKN007 07/07 A3024 RMK AO2=
200805161016 SPECI KBLI 161016Z 00000KT 1 1/2SM BR BKN001 BKN007 07/07 A3024 RMK AO2=
200805161012 SPECI KBLI 161012Z 00000KT 5SM BR BKN001 BKN007 08/07 A3024 RMK AO2=
200805161012 SPECI KBLI 161012Z 00000KT 5SM BR BKN001 BKN007 08/07 A3024 RMK AO2=
200805161005 SPECI KBLI 161005Z 00000KT 2SM BR SCT001 BKN009 08/07 A3024 RMK AO2 VIS 1/2V5=
200805161005 SPECI KBLI 161005Z 00000KT 2SM BR SCT001 BKN009 08/07 A3024 RMK AO2 VIS 1/2V5=
200805160953 METAR KBLI 160953Z 00000KT 1 1/2SM BR FEW001 07/07 A3024 RMK AO2 SLP246 T00670067=
200805160951 SPECI KBLI 160951Z 00000KT 1 3/4SM BR FEW009 07/07 A3024 RMK AO2=
200805160951 SPECI KBLI 160951Z 00000KT 1 3/4SM BR FEW009 07/07 A3024 RMK AO2=
200805160946 SPECI KBLI 160946Z 00000KT 3SM BR FEW009 08/07 A3024 RMK AO2=
200805160946 SPECI KBLI 160946Z 00000KT 3SM BR FEW009 08/07 A3024 RMK AO2=
200805160943 SPECI KBLI 160943Z 00000KT 1 1/4SM BR FEW007 08/07 A3024 RMK AO2 VIS 1/2V5=
200805160943 SPECI KBLI 160943Z 00000KT 1 1/4SM BR FEW007 08/07 A3024 RMK AO2 VIS 1/2V5=
200805160935 SPECI KBLI 160935Z 00000KT 3/4SM BR VV007 08/07 A3024 RMK AO2 RVRNO=
200805160935 SPECI KBLI 160935Z 00000KT 3/4SM BR VV007 08/07 A3024 RMK AO2 RVRNO=
200805160932 SPECI KBLI 160932Z 00000KT 1 3/4SM BR FEW025 08/07 A3024 RMK AO2=
200805160932 SPECI KBLI 160932Z 00000KT 1 3/4SM BR FEW025 08/07 A3024 RMK AO2=
200805160920 SPECI KBLI 160920Z 00000KT 3SM BR CLR 08/07 A3024 RMK AO2=
200805160920 SPECI KBLI 160920Z 00000KT 3SM BR CLR 08/07 A3024 RMK AO2=
200805160911 SPECI KBLI 160911Z 00000KT 1 3/4SM BR FEW034 08/07 A3024 RMK AO2=
200805160911 SPECI KBLI 160911Z 00000KT 1 3/4SM BR FEW034 08/07 A3024 RMK AO2=
200805160902 SPECI KBLI 160902Z 00000KT 3SM BR CLR 08/07 A3024 RMK AO2=
200805160902 SPECI KBLI 160902Z 00000KT 3SM BR CLR 08/07 A3024 RMK AO2=
200805160853 METAR KBLI 160853Z 00000KT 1 1/2SM BR CLR 08/07 A3024 RMK AO2 SLP249 T00780072 58011=
200805160753 METAR KBLI 160753Z 00000KT 4SM BR CLR 09/08 A3025 RMK AO2 SLP252 T00890083 401830089=
200805160653 METAR KBLI 160653Z 00000KT 10SM CLR 10/09 A3027 RMK AO2 SLP257 T01000094=
200805160553 METAR KBLI 160553Z 00000KT 10SM CLR 11/10 A3028 RMK AO2 SLP260 T01060100 10183 20100 56006=
200805160453 METAR KBLI 160453Z 00000KT 10SM CLR 12/11 A3028 RMK AO2 SLP262 T01170106=
200805160353 METAR KBLI 160353Z 00000KT 10SM CLR 13/11 A3028 RMK AO2 SLP262 T01280111=
200805160253 METAR KBLI 160253Z 29004KT 10SM CLR 16/11 A3029 RMK AO2 SLP265 T01560111 56020=
200805160153 METAR KBLI 160153Z 29005KT 10SM CLR 17/12 A3031 RMK AO2 SLP271 T01720117=
200805160053 METAR KBLI 160053Z 31006KT 10SM CLR 18/12 A3033 RMK AO2 SLP278 T01780117=
200805152353 METAR KBLI 152353Z 29006KT 10SM CLR 18/11 A3036 RMK AO2 SLP285 T01780111 10183 20161 58023=
200805152253 METAR KBLI 152253Z 27008KT 10SM CLR 17/11 A3039 RMK AO2 SLP296 T01720106=
200805152153 METAR KBLI 152153Z 29011KT 10SM SCT024 18/12 A3041 RMK AO2 SLP303 T01780117=
200805152057 SPECI KBLI 152057Z VRB06KT 10SM SCT024 18/12 A3042 RMK AO2=
200805152057 SPECI KBLI 152057Z VRB06KT 10SM SCT024 18/12 A3042 RMK AO2=
200805152053 METAR KBLI 152053Z 30006KT 10SM BKN024 18/12 A3042 RMK AO2 SLP308 T01780122 58016=
200805151953 METAR KBLI 151953Z VRB05KT 10SM OVC024 17/12 A3044 RMK AO2 SLP314 T01670117=
200805151853 METAR KBLI 151853Z 29007KT 10SM OVC026 17/11 A3045 RMK AO2 SLP319 T01670111=
200805151753 METAR KBLI 151753Z 31007KT 10SM BKN019 OVC028 16/12 A3047 RMK AO2 SLP324 T01610117 10161 20122 58010=
200805151653 METAR KBLI 151653Z 36005KT 10SM FEW011 OVC028 15/12 A3048 RMK AO2 SLP330 T01500117=
200805151553 METAR KBLI 151553Z 36006KT 10SM SCT009 OVC026 13/11 A3050 RMK AO2 SLP334 T01330111=
200805151453 METAR KBLI 151453Z 01006KT 10SM FEW007 OVC026 13/11 A3050 RMK AO2 SLP335 T01280111 53001=
200805151444 SPECI KBLI 151444Z 35004KT 10SM SCT007 OVC026 13/11 A3050 RMK AO2=
200805151444 SPECI KBLI 151444Z 35004KT 10SM SCT007 OVC026 13/11 A3050 RMK AO2=
200805151353 METAR KBLI 151353Z 36006KT 10SM BKN005 OVC026 12/11 A3050 RMK AO2 SLP335 T01220111=
200805151253 METAR KBLI 151253Z AUTO 34004KT 5SM BR OVC005 12/11 A3049 RMK AO2 SLP332 T01220111=
200805151217 SPECI KBLI 151217Z AUTO 31004KT 5SM BR SCT004 BKN008 OVC030 12/12 A3050 RMK AO2=
200805151217 SPECI KBLI 151217Z AUTO 31004KT 5SM BR SCT004 BKN008 OVC030 12/12 A3050 RMK AO2=
200805151153 METAR KBLI 151153Z AUTO 32006KT 5SM BR OVC004 12/11 A3050 RMK AO2 SLP334 70033 T01220111 10128 20122 56005=
200805151139 SPECI KBLI 151139Z AUTO 33003KT 5SM BR BKN004 OVC031 12/11 A3050 RMK AO2=
200805151139 SPECI KBLI 151139Z AUTO 33003KT 5SM BR BKN004 OVC031 12/11 A3050 RMK AO2=
200805151100 METAR KBLI NIL=
200805151057 SPECI KBLI 151057Z AUTO 33003KT 6SM BR SCT006 OVC015 12/11 A3050 RMK AO2=
200805151057 SPECI KBLI 151057Z AUTO 33003KT 6SM BR SCT006 OVC015 12/11 A3050 RMK AO2=
200805151053 METAR KBLI 151053Z AUTO 00000KT 6SM BR BKN006 OVC013 12/11 A3050 RMK AO2 CIG 005V010 SLP336 T01220111=
200805150953 METAR KBLI 150953Z AUTO 32004KT 7SM OVC006 12/11 A3050 RMK AO2 SLP336 T01220111=
200805150853 METAR KBLI 150853Z AUTO 00000KT 10SM OVC006 12/11 A3051 RMK AO2 SLP339 T01220111 55001=
200805150753 METAR KBLI 150753Z AUTO 00000KT 9SM OVC008 12/11 A3051 RMK AO2 SLP338 T01220111 401440100=
200805150739 SPECI KBLI 150739Z AUTO 00000KT 9SM OVC008 12/12 A3051 RMK AO2=
200805150739 SPECI KBLI 150739Z AUTO 00000KT 9SM OVC008 12/12 A3051 RMK AO2=
200805150653 METAR KBLI 150653Z AUTO 00000KT 10SM OVC010 12/12 A3051 RMK AO2 SLP340 T01220117=
200805150606 SPECI KBLI 150606Z AUTO 00000KT 10SM OVC010 12/11 A3052 RMK AO2=
200805150606 SPECI KBLI 150606Z AUTO 00000KT 10SM OVC010 12/11 A3052 RMK AO2=
200805150553 METAR KBLI 150553Z AUTO 00000KT 10SM OVC008 12/12 A3051 RMK AO2 CIG 007V010 SLP340 T01220117 10144 20122 52009=
200805150453 METAR KBLI 150453Z 00000KT 10SM OVC008 12/11 A3051 RMK AO2 SLP338 T01220111=
200805150353 METAR KBLI 150353Z 00000KT 10SM OVC012 13/12 A3049 RMK AO2 SLP333 T01330117=
200805150253 METAR KBLI 150253Z 00000KT 10SM SCT007 BKN012 OVC020 13/12 A3049 RMK AO2 SLP331 T01330117 51008=
200805150228 SPECI KBLI 150228Z 00000KT 10SM SCT007 BKN020 OVC026 14/12 A3049 RMK AO2=
200805150228 SPECI KBLI 150228Z 00000KT 10SM SCT007 BKN020 OVC026 14/12 A3049 RMK AO2=
200805150221 SPECI KBLI 150221Z 00000KT 10SM BKN007 BKN020 OVC026 14/12 A3048 RMK AO2=
200805150221 SPECI KBLI 150221Z 00000KT 10SM BKN007 BKN020 OVC026 14/12 A3048 RMK AO2=
200805150212 SPECI KBLI 150212Z 00000KT 10SM SCT007 BKN020 OVC026 13/12 A3048 RMK AO2=
200805150212 SPECI KBLI 150212Z 00000KT 10SM SCT007 BKN020 OVC026 13/12 A3048 RMK AO2=
200805150153 METAR KBLI 150153Z 20003KT 10SM OVC020 14/12 A3048 RMK AO2 SLP328 T01390117=
200805150053 METAR KBLI 150053Z 18006KT 10SM BKN020 BKN042 14/12 A3047 RMK AO2 SLP326 T01390117=
200805150000 SPECI KBLI 150000Z VRB06KT 10SM SCT020 OVC044 14/12 A3046 RMK AO2=
200805150000 SPECI KBLI 150000Z VRB06KT 10SM SCT020 OVC044 14/12 A3046 RMK AO2=
200805142353 METAR KBLI 142353Z 18007KT 10SM FEW006 BKN020 OVC044 14/12 A3046 RMK AO2 SLP322 60008 T01390117 10144 20111 51011=
200805142341 SPECI KBLI 142341Z 18005KT 10SM SCT006 BKN020 OVC044 14/12 A3046 RMK AO2=
200805142341 SPECI KBLI 142341Z 18005KT 10SM SCT006 BKN020 OVC044 14/12 A3046 RMK AO2=
200805142253 METAR KBLI 142253Z 19006KT 10SM BKN006 OVC020 13/12 A3046 RMK AO2 SLP321 T01330117=
200805142239 SPECI KBLI 142239Z 17006KT 10SM OVC006 13/12 A3045 RMK AO2=
200805142239 SPECI KBLI 142239Z 17006KT 10SM OVC006 13/12 A3045 RMK AO2=
200805142213 SPECI KBLI 142213Z VRB06KT 10SM BKN004 OVC020 13/12 A3045 RMK AO2=
200805142213 SPECI KBLI 142213Z VRB06KT 10SM BKN004 OVC020 13/12 A3045 RMK AO2=
200805142153 METAR KBLI 142153Z 17008KT 4SM BR BKN003 OVC020 13/12 A3045 RMK AO2 CIG 002V005 SLP317 T01280117=
200805142053 METAR KBLI 142053Z 17008KT 1SM BR BKN003 OVC018 12/12 A3043 RMK AO2 RAE43 SLP312 P0002 60008 T01220117 52024 RVRNO=
200805141953 METAR KBLI 141953Z 17006KT 1SM -RA BR BKN003 OVC011 12/12 A3041 RMK AO2 SLP304 P0002 T01220117 RVRNO=
200805141853 METAR KBLI 141853Z 16008KT 1SM -RA BR BKN003 OVC013 12/11 A3038 RMK AO2 SLP295 P0004 T01170111 RVRNO=
200805141826 SPECI KBLI 141826Z 16006KT 1SM -RA BR BKN003 BKN008 OVC011 12/11 A3037 RMK AO2 P0002 RVRNO=
200805141826 SPECI KBLI 141826Z 16006KT 1SM -RA BR BKN003 BKN008 OVC011 12/11 A3037 RMK AO2 P0002 RVRNO=
200805141753 METAR KBLI 141753Z 17009KT 2SM -RA BR BKN003 BKN008 OVC012 11/11 A3036 RMK AO2 SLP287 P0005 60025 T01110106 10117 20100 51020=
200805141653 METAR KBLI 141653Z 18007KT 2SM -RA BR BKN003 BKN008 OVC012 11/10 A3034 RMK AO2 SLP281 P0004 T01060100=
200805141600 SPECI KBLI 141600Z 18006KT 1 3/4SM -RA BR BKN003 BKN008 OVC024 11/10 A3032 RMK AO2 P0001=
200805141600 SPECI KBLI 141600Z 18006KT 1 3/4SM -RA BR BKN003 BKN008 OVC024 11/10 A3032 RMK AO2 P0001=
200805141553 METAR KBLI 141553Z 18009KT 2SM -RA BR BKN003 BKN017 OVC022 11/10 A3032 RMK AO2 SLP275 P0005 T01060100=
200805141514 SPECI KBLI 141514Z 16008KT 1 3/4SM -RA BR BKN003 BKN017 OVC022 11/10 A3031 RMK AO2 P0002=
200805141514 SPECI KBLI 141514Z 16008KT 1 3/4SM -RA BR BKN003 BKN017 OVC022 11/10 A3031 RMK AO2 P0002=
200805141505 SPECI KBLI 141505Z 16008KT 2SM -RA BR BKN003 OVC020 11/10 A3030 RMK AO2 P0001=
200805141505 SPECI KBLI 141505Z 16008KT 2SM -RA BR BKN003 OVC020 11/10 A3030 RMK AO2 P0001=
200805141453 METAR KBLI 141453Z 16008KT 3SM -RA BR BKN003 OVC020 10/09 A3030 RMK AO2 SLP267 P0004 60011 T01000094 53022=
200805141434 SPECI KBLI 141434Z 17009KT 2SM -RA BR BKN003 OVC017 10/09 A3029 RMK AO2 P0003=
200805141434 SPECI KBLI 141434Z 17009KT 2SM -RA BR BKN003 OVC017 10/09 A3029 RMK AO2 P0003=
200805141420 SPECI KBLI 141420Z 16007KT 1 3/4SM -RA BR BKN003 BKN014 OVC019 10/09 A3029 RMK AO2 P0002=
200805141420 SPECI KBLI 141420Z 16007KT 1 3/4SM -RA BR BKN003 BKN014 OVC019 10/09 A3029 RMK AO2 P0002=
200805141410 SPECI KBLI 141410Z 17008KT 2SM -RA BR BKN003 OVC014 10/09 A3029 RMK AO2 P0001=
200805141410 SPECI KBLI 141410Z 17008KT 2SM -RA BR BKN003 OVC014 10/09 A3029 RMK AO2 P0001=
200805141353 METAR KBLI 141353Z 16007KT 3SM -RA BR BKN003 BKN012 OVC019 10/09 A3027 RMK AO2 SLP259 P0002 T01000094=
200805141328 SPECI KBLI 141328Z AUTO 16009KT 2 1/2SM -RA BR BKN003 OVC019 10/09 A3027 RMK AO2 CIG 003V007 P0001=
200805141328 SPECI KBLI 141328Z AUTO 16009KT 2 1/2SM -RA BR BKN003 OVC019 10/09 A3027 RMK AO2 CIG 003V007 P0001=
200805141253 METAR KBLI 141253Z AUTO 17008KT 4SM -RA BR BKN003 OVC019 10/09 A3026 RMK AO2 CIG 003V007 SLP252 P0005 T01000094=
200805141223 SPECI KBLI 141223Z AUTO 16008KT 4SM -RA BR FEW003 OVC023 10/09 A3025 RMK AO2 P0003=
200805141223 SPECI KBLI 141223Z AUTO 16008KT 4SM -RA BR FEW003 OVC023 10/09 A3025 RMK AO2 P0003=
200805141153 METAR KBLI 141153Z AUTO 16006KT 5SM -RA BR FEW003 OVC014 10/09 A3023 RMK AO2 SLP245 P0006 60027 70088 T01000094 10106 20100 53019=
200805141146 SPECI KBLI 141146Z AUTO 17007KT 4SM -RA BR FEW003 OVC014 11/09 A3023 RMK AO2 P0005=
200805141146 SPECI KBLI 141146Z AUTO 17007KT 4SM -RA BR FEW003 OVC014 11/09 A3023 RMK AO2 P0005=
200805141116 SPECI KBLI 141116Z AUTO 17004KT 5SM -RA BR FEW007 OVC018 11/09 A3022 RMK AO2 P0002=
200805141116 SPECI KBLI 141116Z AUTO 17004KT 5SM -RA BR FEW007 OVC018 11/09 A3022 RMK AO2 P0002=
200805141053 METAR KBLI 141053Z AUTO 17005KT 6SM -RA BR FEW010 OVC020 11/09 A3021 RMK AO2 SLP238 P0003 T01060094=
200805140953 METAR KBLI 140953Z AUTO 17004KT 7SM -RA FEW015 SCT020 OVC026 11/09 A3019 RMK AO2 SLP231 P0005 T01060094=
200805140933 SPECI KBLI 140933Z AUTO 17005KT 6SM -RA BR FEW005 BKN020 OVC028 11/09 A3019 RMK AO2 P0003=
200805140933 SPECI KBLI 140933Z AUTO 17005KT 6SM -RA BR FEW005 BKN020 OVC028 11/09 A3019 RMK AO2 P0003=
200805140853 METAR KBLI 140853Z AUTO 00000KT 4SM -RA BR BKN005 OVC011 10/09 A3018 RMK AO2 CIG 002V008 SLP226 P0005 60013 T01000089 53011=
200805140845 SPECI KBLI 140845Z AUTO 00000KT 4SM -RA BR BKN005 OVC011 10/09 A3017 RMK AO2 CIG 002V008 P0004=
200805140845 SPECI KBLI 140845Z AUTO 00000KT 4SM -RA BR BKN005 OVC011 10/09 A3017 RMK AO2 CIG 002V008 P0004=
200805140806 SPECI KBLI 140806Z AUTO 00000KT 3SM -RA BR BKN003 OVC008 10/09 A3017 RMK AO2 P0001=
200805140806 SPECI KBLI 140806Z AUTO 00000KT 3SM -RA BR BKN003 OVC008 10/09 A3017 RMK AO2 P0001=
200805140753 METAR KBLI 140753Z AUTO 00000KT 3SM -RA BR FEW003 BKN009 OVC012 10/09 A3016 RMK AO2 CIG 006V010 SLP221 P0003 T01000094 401060078=
200805140739 SPECI KBLI 140739Z AUTO 00000KT 3SM -RA BR FEW003 OVC013 10/09 A3016 RMK AO2 P0002=
200805140739 SPECI KBLI 140739Z AUTO 00000KT 3SM -RA BR FEW003 OVC013 10/09 A3016 RMK AO2 P0002=
200805140728 SPECI KBLI 140728Z AUTO 00000KT 4SM -RA BR OVC013 10/09 A3016 RMK AO2 P0001=
200805140728 SPECI KBLI 140728Z AUTO 00000KT 4SM -RA BR OVC013 10/09 A3016 RMK AO2 P0001=
200805140653 METAR KBLI 140653Z AUTO 00000KT 7SM -RA BKN017 BKN025 OVC036 10/09 A3015 RMK AO2 SLP216 P0005 T01000094=
200805140639 SPECI KBLI 140639Z AUTO 00000KT 6SM -RA BR BKN015 BKN021 OVC036 10/09 A3015 RMK AO2 P0004=
200805140639 SPECI KBLI 140639Z AUTO 00000KT 6SM -RA BR BKN015 BKN021 OVC036 10/09 A3015 RMK AO2 P0004=
200805140600 SPECI KBLI 140600Z AUTO 00000KT 5SM -RA BR BKN014 BKN022 OVC034 10/09 A3014 RMK AO2 P0001=
200805140600 SPECI KBLI 140600Z AUTO 00000KT 5SM -RA BR BKN014 BKN022 OVC034 10/09 A3014 RMK AO2 P0001=
200805140553 METAR KBLI 140553Z AUTO 00000KT 5SM -RA BR FEW011 BKN022 OVC034 10/09 A3014 RMK AO2 SLP215 P0007 60027 T01000094 10106 20100 53010=
200805140516 SPECI KBLI 140516Z 12003KT 4SM -RA BR FEW013 SCT021 OVC030 10/09 A3013 RMK AO2 P0003=
200805140516 SPECI KBLI 140516Z 12003KT 4SM -RA BR FEW013 SCT021 OVC030 10/09 A3013 RMK AO2 P0003=
200805140453 METAR KBLI 140453Z 14003KT 4SM -RA BR SCT013 BKN021 OVC034 10/09 A3013 RMK AO2 SLP212 P0006 T01000094=
200805140447 SPECI KBLI 140447Z 00000KT 4SM -RA BR SCT015 SCT021 OVC032 10/09 A3013 RMK AO2 P0005=
200805140447 SPECI KBLI 140447Z 00000KT 4SM -RA BR SCT015 SCT021 OVC032 10/09 A3013 RMK AO2 P0005=
200805140353 METAR KBLI 140353Z 13005KT 2 1/2SM -RA BR OVC015 10/09 A3012 RMK AO2 SLP206 P0004 T01000089=
200805140253 METAR KBLI 140253Z 00000KT 2 1/2SM -RA BR OVC017 10/09 A3011 RMK AO2 SLP205 P0003 60010 T01000089 50007=
200805140153 METAR KBLI 140153Z 00000KT 3SM -RA BR OVC017 10/09 A3011 RMK AO2 SLP205 P0007 T01000089=
200805140056 SPECI KBLI 140056Z 15003KT 3SM -RA BR OVC021 11/08 A3011 RMK AO2 P0000=
200805140056 SPECI KBLI 140056Z 15003KT 3SM -RA BR OVC021 11/08 A3011 RMK AO2 P0000=
200805140053 METAR KBLI 140053Z 00000KT 5SM -RA BR OVC021 11/08 A3011 RMK AO2 SLP203 P0000 T01060083=
200805132353 METAR KBLI 132353Z 14007KT 4SM -RA BR BKN023 BKN029 OVC033 11/09 A3009 RMK AO2 SLP198 P0004 60024 T01060089 10106 20089 58002=
200805132253 METAR KBLI 132253Z AUTO 00000KT 4SM -RA BR SCT015 OVC021 10/08 A3011 RMK AO2 SLP203 P0006 T01000083 TSNO=
200805132251 SPECI KBLI 132251Z 00000KT 4SM -RA BR SCT015 OVC021 10/08 A3011 RMK AO2 P0006=
200805132251 SPECI KBLI 132251Z 00000KT 4SM -RA BR SCT015 OVC021 10/08 A3011 RMK AO2 P0006=
200805132153 METAR KBLI 132153Z 00000KT 2 1/2SM -RA BR OVC022 10/08 A3010 RMK AO2 SLP199 P0004 T01000083=
200805132053 METAR KBLI 132053Z VRB05KT 8SM -RA OVC022 10/08 A3008 RMK AO2 SLP194 P0003 60010 T01000078 56005=
200805131953 METAR KBLI 131953Z 14004KT 8SM -RA OVC024 10/07 A3008 RMK AO2 SLP196 P0003 T01000072=
200805131853 METAR KBLI 131853Z 16004KT 7SM -RA OVC026 09/07 A3009 RMK AO2 SLP196 P0004 T00940072=
200805131753 METAR KBLI 131753Z 10003KT 5SM -RA BR OVC022 09/08 A3009 RMK AO2 SLP198 P0004 60010 T00890078 10089 20078 58001=
200805131735 SPECI KBLI 131735Z 05003KT 5SM -RA BR FEW006 OVC022 09/08 A3010 RMK AO2 P0002=
200805131735 SPECI KBLI 131735Z 05003KT 5SM -RA BR FEW006 OVC022 09/08 A3010 RMK AO2 P0002=
200805131653 METAR KBLI 131653Z 05003KT 6SM -RA BR BKN022 OVC038 09/07 A3010 RMK AO2 SLP201 P0004 T00890072=
200805131553 METAR KBLI 131553Z 00000KT 7SM -RA SCT032 OVC040 09/07 A3011 RMK AO2 RAB17 SLP204 P0002 T00890072=
200805131453 METAR KBLI 131453Z 00000KT 10SM BKN045 OVC060 09/07 A3010 RMK AO2 RAE17 SLP198 P0000 60000 T00890067 58000=
200805131353 METAR KBLI 131353Z AUTO 00000KT 10SM -RA BKN048 OVC055 08/07 A3009 RMK AO2 RAB22 SLP197 P0000 T00830072 $=
200805131253 METAR KBLI 131253Z AUTO 00000KT 10SM OVC055 08/07 A3010 RMK AO2 SLP200 T00830067 $=
200805131153 METAR KBLI 131153Z AUTO 00000KT 10SM OVC065 08/07 A3010 RMK AO2 SLP199 T00830067 10089 20078 58013 $=
200805131053 METAR KBLI 131053Z AUTO 00000KT 10SM OVC060 08/06 A3011 RMK AO2 SLP204 T00830061 $=
200805130953 METAR KBLI 130953Z AUTO 00000KT 10SM OVC065 09/06 A3012 RMK AO2 SLP208 T00890056 $=
200805130853 METAR KBLI 130853Z AUTO 00000KT 10SM OVC065 09/06 A3013 RMK AO2 SLP211 T00890061 56004 $=
200805130753 METAR KBLI 130753Z AUTO 00000KT 10SM BKN090 08/05 A3013 RMK AO2 SLP211 T00830050 401280044 $=
200805130653 METAR KBLI 130653Z AUTO 00000KT 10SM OVC110 09/05 A3014 RMK AO2 SLP214 T00890050 $=
200805130553 METAR KBLI 130553Z AUTO 00000KT 10SM OVC100 09/05 A3015 RMK AO2 SLP216 T00890050 10128 20083 57001 $=
200805130453 METAR KBLI 130453Z 00000KT 10SM FEW110 09/05 A3015 RMK AO2 SLP217 T00890050 $=
200805130353 METAR KBLI 130353Z 00000KT 10SM BKN120 10/04 A3015 RMK AO2 SLP217 T01000044 $=
200805130253 METAR KBLI 130253Z 00000KT 10SM CLR 11/03 A3015 RMK AO2 SLP217 T01110028 58012 $=
200805130153 METAR KBLI 130153Z 00000KT 10SM CLR 12/04 A3017 RMK AO2 SLP223 T01170039 $=
200805130053 METAR KBLI 130053Z 15005KT 10SM CLR 12/02 A3018 RMK AO2 SLP228 T01220022 $=
200805122353 METAR KBLI 122353Z 10SM FEW055 12/01 A3018 RMK AO2 SLP229 T01220006 10128 20100 58001 $=
200805122253 METAR KBLI 122253Z 14005KT 10SM BKN050 OVC060 13/03 A3019 RMK AO2 SLP231 T01280033=
200805122153 METAR KBLI 122153Z 16005KT 10SM OVC050 12/03 A3019 RMK AO2 SLP232 T01170028=
200805122053 METAR KBLI 122053Z 16005KT 10SM OVC055 11/03 A3019 RMK AO2 SLP230 T01110033 56003=
200805121953 METAR KBLI 121953Z 18006KT 10SM OVC055 11/04 A3019 RMK AO2 SLP231 T01110039=
200805121853 METAR KBLI 121853Z 16005KT 10SM FEW040 SCT060 11/04 A3019 RMK AO2 SLP232 T01110039=
200805121753 METAR KBLI 121753Z 18007KT 10SM CLR 09/03 A3020 RMK AO2 SLP233 T00940033 10100 20067 58001=
200805121653 METAR KBLI 121653Z 17009KT 10SM SCT065 09/04 A3021 RMK AO2 SLP238 T00940039=
200805121553 METAR KBLI 121553Z 15010KT 10SM SCT025 OVC065 09/04 A3021 RMK AO2 SLP237 T00890044=
200805121453 METAR KBLI 121453Z 16010KT 10SM FEW015 OVC065 09/04 A3020 RMK AO2 SLP235 T00890044 51008=
200805121353 METAR KBLI 121353Z 13005KT 10SM OVC065 08/04 A3020 RMK AO2 SLP233 T00780044=
200805121253 METAR KBLI 121253Z AUTO 14003KT 10SM OVC065 07/04 A3019 RMK AO2 SLP230 T00670039=
200805121153 METAR KBLI 121153Z AUTO 15006KT 10SM OVC065 07/04 A3018 RMK AO2 SLP227 T00670039 10067 20044 51004=
200805121053 METAR KBLI 121053Z AUTO 15005KT 10SM OVC060 06/03 A3018 RMK AO2 SLP227 T00610033=
200805120953 METAR KBLI 120953Z AUTO 15004KT 10SM SCT055 04/02 A3017 RMK AO2 SLP226 T00440022=
200805120853 METAR KBLI 120853Z AUTO 17004KT 10SM CLR 06/03 A3016 RMK AO2 SLP223 T00560028 53006=
200805120753 METAR KBLI 120753Z AUTO 00000KT 10SM SCT060 05/03 A3016 RMK AO2 SLP220 T00500028 401170050=
200805120653 METAR KBLI 120653Z AUTO 16003KT 10SM CLR 06/03 A3015 RMK AO2 SLP217 T00560033=
200805120553 METAR KBLI 120553Z AUTO 00000KT 10SM FEW065 06/04 A3015 RMK AO2 SLP217 T00560039 10117 20056 51014=
200805120453 METAR KBLI 120453Z 00000KT 10SM FEW090 06/04 A3014 RMK AO2 SLP213 T00610039=
200805120353 METAR KBLI 120353Z 17003KT 10SM SCT085 08/04 A3012 RMK AO2 SLP207 T00830044=
200805120253 METAR KBLI 120253Z 18005KT 10SM SCT080 10/03 A3011 RMK AO2 SLP203 T01000033 53002=
200805120153 METAR KBLI 120153Z 16008KT 10SM FEW085 11/03 A3010 RMK AO2 SLP199 T01110028=
200805120053 METAR KBLI 120053Z 19006KT 10SM CLR 12/03 A3010 RMK AO2 SLP200 T01170028=
200805112353 METAR KBLI 112353Z 18006KT 10SM BKN080 11/03 A3010 RMK AO2 SLP201 T01110028 10117 20089 51002=
200805112253 METAR KBLI 112253Z 17008KT 10SM OVC070 11/02 A3010 RMK AO2 SLP201 T01060022=
200805112153 METAR KBLI 112153Z 18005KT 10SM OVC060 10/02 A3010 RMK AO2 SLP200 T01000022=
200805112053 METAR KBLI 112053Z 16008KT 10SM BKN043 OVC060 10/03 A3009 RMK AO2 SLP199 T01000033 51012=
200805111953 METAR KBLI 111953Z 16007KT 10SM FEW045 OVC060 10/02 A3009 RMK AO2 SLP196 T01000022=
200805111853 METAR KBLI 111853Z 16007KT 10SM BKN035 OVC044 09/03 A3007 RMK AO2 SLP192 T00940028=
200805111753 METAR KBLI 111753Z 18006G14KT 10SM BKN035 OVC047 09/03 A3006 RMK AO2 SLP187 T00940028 10106 20056 51010=
200805111653 METAR KBLI 111653Z VRB03KT 10SM BKN036 08/02 A3005 RMK AO2 SLP185 T00830022=
200805111553 METAR KBLI 111553Z VRB05KT 10SM FEW029 BKN043 08/03 A3004 RMK AO2 SLP179 T00780033=
200805111453 METAR KBLI 111453Z 14005KT 10SM FEW050 BKN070 08/03 A3003 RMK AO2 SLP177 T00780028 53015=
200805111353 METAR KBLI 111353Z AUTO 00000KT 10SM FEW050 SCT070 06/03 A3001 RMK AO2 SLP171 T00610033=
200805111253 METAR KBLI 111253Z AUTO 00000KT 10SM FEW047 OVC110 07/03 A2999 RMK AO2 SLP165 T00670033=
200805111153 METAR KBLI 111153Z AUTO 17006KT 10SM FEW080 OVC100 07/04 A2998 RMK AO2 RAE36 SLP160 P0001 60011 70044 T00720044 10089 20072 52020=
200805111053 METAR KBLI 111053Z AUTO 15004KT 8SM -RA FEW030 OVC041 07/06 A2996 RMK AO2 SLP153 P0008 T00720056=
200805110953 METAR KBLI 110953Z AUTO 18005KT 9SM -RA BKN030 OVC038 08/05 A2994 RMK AO2 RAB39 SLP147 P0001 T00780050=
200805110853 METAR KBLI 110853Z AUTO 17008KT 10SM OVC038 08/04 A2992 RMK AO2 SLP140 60001 T00780044 53018=
200805110753 METAR KBLI 110753Z AUTO 17008KT 10SM FEW034 BKN043 OVC100 08/05 A2991 RMK AO2 SLP134 T00830050 401390078=
200805110706 SPECI KBLI 110706Z AUTO 19004KT 10SM FEW016 SCT032 OVC041 09/06 A2989 RMK AO2=
200805110706 SPECI KBLI 110706Z AUTO 19004KT 10SM FEW016 SCT032 OVC041 09/06 A2989 RMK AO2=
200805110653 METAR KBLI 110653Z AUTO 19003KT 10SM BKN016 BKN027 OVC042 09/06 A2989 RMK AO2 RAE42 SLP127 P0001 T00890061=
200805110553 METAR KBLI 110553Z AUTO 18004KT 6SM -RA BR FEW005 BKN023 OVC050 09/08 A2987 RMK AO2 SLP122 P0004 60033 T00890083 10117 20089 53008=
200805110539 SPECI KBLI 110539Z AUTO 00000KT 7SM -RA BKN005 BKN009 OVC024 09/08 A2987 RMK AO2 CIG 002V006 P0004=
200805110539 SPECI KBLI 110539Z AUTO 00000KT 7SM -RA BKN005 BKN009 OVC024 09/08 A2987 RMK AO2 CIG 002V006 P0004=
200805110530 SPECI KBLI 110530Z AUTO 18004KT 6SM -RA BR BKN003 BKN009 OVC026 09/08 A2986 RMK AO2 CIG 002V007 P0004=
200805110530 SPECI KBLI 110530Z AUTO 18004KT 6SM -RA BR BKN003 BKN009 OVC026 09/08 A2986 RMK AO2 CIG 002V007 P0004=
200805110510 SPECI KBLI 110510Z 18004KT 3SM -RA BR BKN005 BKN010 OVC021 09/09 A2986 RMK AO2 P0003=
200805110510 SPECI KBLI 110510Z 18004KT 3SM -RA BR BKN005 BKN010 OVC021 09/09 A2986 RMK AO2 P0003=
200805110453 METAR KBLI 110453Z 00000KT 2SM RA BR BKN007 OVC010 09/09 A2985 RMK AO2 SLP116 P0019 T00940089=
200805110447 SPECI KBLI 110447Z 00000KT 2SM RA BR BKN007 OVC010 09/09 A2985 RMK AO2 P0017=
200805110447 SPECI KBLI 110447Z 00000KT 2SM RA BR BKN007 OVC010 09/09 A2985 RMK AO2 P0017=
200805110432 SPECI KBLI 110432Z 00000KT 3SM RA BR FEW004 BKN010 OVC022 09/09 A2985 RMK AO2 CIG 007V012 P0012=
200805110432 SPECI KBLI 110432Z 00000KT 3SM RA BR FEW004 BKN010 OVC022 09/09 A2985 RMK AO2 CIG 007V012 P0012=
200805110353 METAR KBLI 110353Z 00000KT 3SM RA BR BKN026 BKN034 OVC050 09/09 A2984 RMK AO2 SLP113 P0009 T00940089=
200805110253 METAR KBLI 110253Z 36004KT 5SM -RA BR OVC034 10/08 A2985 RMK AO2 RAB35 SLP114 P0001 60001 T01000083 58020=
200805110153 METAR KBLI 110153Z 00000KT 10SM OVC036 11/08 A2986 RMK AO2 SLP120 T01110078=
200805110053 METAR KBLI 110053Z 35003KT 10SM OVC038 12/09 A2989 RMK AO2 RAE48 SLP129 P0000 T01170089=
200805102353 METAR KBLI 102353Z 12006KT 10SM -RA OVC040 13/06 A2991 RMK AO2 RAB39 SLP134 P0000 60000 T01280056 10139 20122 58014=
200805102253 METAR KBLI 102253Z 34003KT 10SM OVC040 12/07 A2993 RMK AO2 SLP141 T01220067=
200805102153 METAR KBLI 102153Z 00000KT 10SM OVC042 13/05 A2994 RMK AO2 SLP147 T01280050=
200805102053 METAR KBLI 102053Z 19006KT 10SM OVC044 13/05 A2995 RMK AO2 SLP148 T01280050 58004=
200805101953 METAR KBLI 101953Z 18006KT 10SM OVC046 13/06 A2995 RMK AO2 SLP149 T01330056=
200805101853 METAR KBLI 101853Z 17007KT 10SM OVC046 13/04 A2997 RMK AO2 SLP155 T01280044=
200805101753 METAR KBLI 101753Z 14008KT 10SM OVC055 14/03 A2996 RMK AO2 SLP152 60000 T01390033 10139 20078 56003=
200805101653 METAR KBLI 101653Z 13009G15KT 10SM OVC055 13/03 A2996 RMK AO2 RAE1556 SLP152 P0000 T01280033=
200805101553 METAR KBLI 101553Z 13009G17KT 10SM -RA OVC060 12/04 A2996 RMK AO2 RAB20 SLP154 P0000 T01170039=
200805101453 METAR KBLI 101453Z 00000KT 10SM FEW050 OVC065 10/07 A2997 RMK AO2 RAE07 SLP155 P0000 60000 T01000072 58003=
200805101353 METAR KBLI 101353Z AUTO 00000KT 8SM -RA BKN060 OVC075 08/06 A2998 RMK AO2 RAB43 SLP159 P0000 T00830061=
200805101253 METAR KBLI 101253Z AUTO 00000KT 10SM OVC075 08/06 A2998 RMK AO2 SLP158 T00780061=
200805101153 METAR KBLI 101153Z AUTO 00000KT 10SM OVC080 09/06 A2998 RMK AO2 SLP158 T00890061 10094 20078 56016=
200805101053 METAR KBLI 101053Z AUTO 17003KT 10SM OVC090 08/06 A2999 RMK AO2 SLP162 T00830056=
200805100953 METAR KBLI 100953Z AUTO 00000KT 10SM OVC100 08/06 A3000 RMK AO2 SLP165 T00830061=
200805100853 METAR KBLI 100853Z AUTO 00000KT 10SM OVC075 08/06 A3002 RMK AO2 SLP173 T00830061 56002=
200805100753 METAR KBLI 100753Z AUTO 00000KT 10SM BKN120 08/05 A3002 RMK AO2 SLP174 T00830050 401390017=
200805100653 METAR KBLI 100653Z AUTO 00000KT 10SM BKN110 08/05 A3002 RMK AO2 SLP174 T00830050=
200805100553 METAR KBLI 100553Z AUTO 00000KT 10SM CLR 07/04 A3003 RMK AO2 SLP176 T00720044 10133 20072 58003=
200805100453 METAR KBLI 100453Z 00000KT 10SM CLR 09/05 A3004 RMK AO2 SLP180 T00890050=
200805100353 METAR KBLI 100353Z 00000KT 10SM CLR 10/06 A3004 RMK AO2 SLP180 T01000056=
200805100253 METAR KBLI 100253Z 00000KT 10SM CLR 12/04 A3004 RMK AO2 SLP179 T01170044 58014=
200805100153 METAR KBLI 100153Z 00000KT 10SM CLR 12/03 A3005 RMK AO2 SLP184 T01220033=
200805100053 METAR KBLI 100053Z VRB03KT 10SM CLR 13/03 A3007 RMK AO2 SLP191 T01280033=
200805092353 METAR KBLI 092353Z VRB03KT 10SM CLR 13/03 A3008 RMK AO2 SLP193 T01330028 10139 20094 56015=
200805092253 METAR KBLI 092253Z VRB05KT 10SM CLR 13/03 A3009 RMK AO2 SLP198 T01330028=
200805092153 METAR KBLI 092153Z 17006KT 10SM CLR 13/03 A3010 RMK AO2 SLP202 T01280028=
200805092053 METAR KBLI 092053Z 17007KT 130V200 10SM CLR 13/04 A3012 RMK AO2 SLP207 T01330039 56007=
200805091953 METAR KBLI 091953Z 16009KT 10SM CLR 12/04 A3013 RMK AO2 SLP210 T01170044=
200805091853 METAR KBLI 091853Z 17008KT 10SM CLR 11/04 A3013 RMK AO2 SLP211 T01110044=
200805091753 METAR KBLI 091753Z 18009G14KT 10SM FEW065 09/04 A3014 RMK AO2 SLP214 T00940044 10094 20017 58002=
200805091653 METAR KBLI 091653Z 16009KT 10SM CLR 09/04 A3015 RMK AO2 SLP216 T00890044=
200805091553 METAR KBLI 091553Z 17003KT 10SM CLR 09/04 A3015 RMK AO2 SLP217 T00890039=
200805091453 METAR KBLI 091453Z 16006KT 10SM CLR 07/04 A3014 RMK AO2 SLP216 T00720039 53006=
200805091353 METAR KBLI 091353Z 00000KT 10SM CLR 04/03 A3013 RMK AO2 SLP212 T00440028=
200805091253 METAR KBLI 091253Z AUTO 00000KT 10SM SCT070 02/01 A3013 RMK AO2 SLP212 T00220011 FZRANO=
200805091153 METAR KBLI 091153Z AUTO 00000KT 9SM OVC075 02/01 A3013 RMK AO2 SLP210 70004 T00220011 10050 20022 53004 FZRANO=
200805091053 METAR KBLI 091053Z AUTO 00000KT 10SM CLR 02/01 A3012 RMK AO2 SLP206 T00220011 FZRANO=
200805090953 METAR KBLI 090953Z AUTO 00000KT 10SM CLR 05/02 A3011 RMK AO2 SLP204 T00500022=
200805090853 METAR KBLI 090853Z AUTO 00000KT 10SM CLR 04/02 A3012 RMK AO2 SLP206 T00390017 58000=
200805090753 METAR KBLI 090753Z AUTO 00000KT 10SM CLR 03/02 A3012 RMK AO2 SLP207 T00330017 401170033=
200805090653 METAR KBLI 090653Z AUTO 00000KT 10SM FEW110 04/03 A3012 RMK AO2 SLP207 T00440028=
200805090553 METAR KBLI 090553Z AUTO 00000KT 10SM CLR 04/02 A3012 RMK AO2 SLP206 T00440017 10117 20039 53001=
200805090453 METAR KBLI 090453Z 00000KT 10SM CLR 05/02 A3012 RMK AO2 SLP206 T00500022=
200805090353 METAR KBLI 090353Z 00000KT 10SM CLR 07/03 A3011 RMK AO2 SLP205 T00720033=
200805090253 METAR KBLI 090253Z 00000KT 10SM FEW080 09/03 A3011 RMK AO2 SLP205 T00940033 53000=
200805090153 METAR KBLI 090153Z 17004KT 10SM FEW085 11/01 A3011 RMK AO2 SLP202 T01110011=
200805090053 METAR KBLI 090053Z 16006KT 10SM FEW065 12/02 A3011 RMK AO2 SLP204 T01170017=
200805082353 METAR KBLI 082353Z 17004KT 10SM FEW065 12/02 A3011 RMK AO2 SLP205 T01170022 10117 20072 56008=
200805082253 METAR KBLI 082253Z 16009KT 10SM FEW065 11/03 A3012 RMK AO2 SLP208 T01110033=
200805082153 METAR KBLI 082153Z 16011KT 10SM CLR 11/03 A3013 RMK AO2 SLP210 T01060033=
200805082053 METAR KBLI 082053Z 17010KT 10SM SCT035 BKN060 10/03 A3014 RMK AO2 SLP213 T01000028 58005=
200805081953 METAR KBLI 081953Z 17008KT 10SM SCT024 BKN036 OVC050 09/03 A3015 RMK AO2 SLP217 T00940028=
200805081900 SPECI KBLI 081900Z 15011KT 10SM SCT024 BKN036 OVC050 08/03 A3015 RMK AO2=
200805081900 SPECI KBLI 081900Z 15011KT 10SM SCT024 BKN036 OVC050 08/03 A3015 RMK AO2=
200805081853 METAR KBLI 081853Z 16009KT 10SM BKN024 OVC055 08/03 A3015 RMK AO2 SLP219 T00830033=
200805081753 METAR KBLI 081753Z 17008KT 10SM OVC024 07/03 A3015 RMK AO2 RAB00E14B31E46 SLP218 P0000 60004 T00720033 10072 20061 58002=
200805081653 METAR KBLI 081653Z 14005KT 10SM OVC018 07/03 A3016 RMK AO2 SLP221 T00670033=
200805081553 METAR KBLI 081553Z 15007KT 10SM OVC018 07/04 A3016 RMK AO2 RAB10E20 SLP220 P0000 T00670039=
200805081519 SPECI KBLI 081519Z 17007KT 10SM -RA OVC016 06/04 A3016 RMK AO2 RAB10 P0000=
200805081519 SPECI KBLI 081519Z 17007KT 10SM -RA OVC016 06/04 A3016 RMK AO2 RAB10 P0000=
200805081500 SPECI KBLI 081500Z 16010KT 10SM OVC014 06/04 A3016 RMK AO2=
200805081500 SPECI KBLI 081500Z 16010KT 10SM OVC014 06/04 A3016 RMK AO2=
200805081453 METAR KBLI 081453Z 16008KT 7SM FEW014 BKN021 OVC036 06/04 A3016 RMK AO2 RAE32 SLP220 P0001 60004 T00610044 53000=
200805081410 SPECI KBLI 081410Z 17008KT 7SM -RA FEW014 BKN021 OVC036 07/04 A3015 RMK AO2 P0001=
200805081410 SPECI KBLI 081410Z 17008KT 7SM -RA FEW014 BKN021 OVC036 07/04 A3015 RMK AO2 P0001=
200805081406 SPECI KBLI 081406Z 17007KT 2 1/2SM RA BR SCT014 BKN025 OVC036 07/04 A3015 RMK AO2 P0001=
200805081406 SPECI KBLI 081406Z 17007KT 2 1/2SM RA BR SCT014 BKN025 OVC036 07/04 A3015 RMK AO2 P0001=
200805081353 METAR KBLI 081353Z 18005KT 9SM -RA BKN014 BKN041 OVC048 07/04 A3015 RMK AO2 RAE24B53 SLP218 P0001 T00670044=
200805081342 SPECI KBLI 081342Z AUTO 17007KT 10SM BKN014 OVC048 07/04 A3015 RMK AO2 RAE24 P0001=
200805081342 SPECI KBLI 081342Z AUTO 17007KT 10SM BKN014 OVC048 07/04 A3015 RMK AO2 RAE24 P0001=
200805081253 METAR KBLI 081253Z AUTO 15007KT 8SM -RA FEW019 OVC033 07/04 A3015 RMK AO2 SLP218 P0002 T00670044=
200805081153 METAR KBLI 081153Z AUTO 16006KT 5SM -RA BR FEW034 OVC043 07/04 A3016 RMK AO2 RAB20 SLP220 P0000 60001 70003 T00670044 10072 20067 50001=
200805081053 METAR KBLI 081053Z AUTO 15006KT 10SM SCT039 OVC049 07/04 A3016 RMK AO2 SLP220 T00670039=
200805080953 METAR KBLI 080953Z AUTO 16006KT 10SM FEW045 OVC060 07/04 A3015 RMK AO2 SLP219 T00670039=
200805080853 METAR KBLI 080853Z AUTO 16007KT 10SM OVC060 07/04 A3015 RMK AO2 SLP219 60001 T00670039 51005=
200805080753 METAR KBLI 080753Z AUTO 16008KT 10SM BKN060 OVC090 07/04 A3015 RMK AO2 SLP218 T00720044 401280067=
200805080653 METAR KBLI 080653Z AUTO 16006KT 10SM SCT042 BKN060 07/04 A3014 RMK AO2 RAB02E27 SLP214 P0001 T00670044=
200805080553 METAR KBLI 080553Z AUTO 15008KT 10SM SCT046 OVC065 07/04 A3014 RMK AO2 RAB0454E51 SLP214 P0002 60002 T00720044 10122 20072 50008=
200805080531 SPECI KBLI 080531Z AUTO 17010KT 5SM -RA SCT028 BKN036 OVC070 07/04 A3014 RMK AO2 RAB0454 P0002=
200805080531 SPECI KBLI 080531Z AUTO 17010KT 5SM -RA SCT028 BKN036 OVC070 07/04 A3014 RMK AO2 RAB0454 P0002=
200805080523 SPECI KBLI 080523Z 16009KT 5SM -RA BKN028 BKN034 OVC050 08/04 A3014 RMK AO2 RAB0454 P0001=
200805080523 SPECI KBLI 080523Z 16009KT 5SM -RA BKN028 BKN034 OVC050 08/04 A3014 RMK AO2 RAB0454 P0001=
200805080453 METAR KBLI 080453Z 16009G16KT 10SM SCT039 SCT050 OVC060 09/03 A3014 RMK AO2 SLP215 T00890033=
200805080353 METAR KBLI 080353Z 15008KT 10SM SCT070 BKN085 10/03 A3012 RMK AO2 SLP208 T01000033=
200805080253 METAR KBLI 080253Z 17008KT 10SM CLR 10/04 A3012 RMK AO2 SLP206 T01000039 55004=
200805080153 METAR KBLI 080153Z 16009G14KT 10SM CLR 11/03 A3011 RMK AO2 SLP204 T01110028=
200805080053 METAR KBLI 080053Z 18008KT 10SM CLR 12/02 A3012 RMK AO2 SLP208 T01170022=
200805072353 METAR KBLI 072353Z 18011KT 10SM CLR 12/06 A3013 RMK AO2 SLP210 T01170056 10128 20089 58006=
200805072253 METAR KBLI 072253Z 17009KT 10SM FEW065 12/04 A3015 RMK AO2 SLP215 T01170044=
200805072153 METAR KBLI 072153Z 18008G14KT 10SM BKN065 11/04 A3015 RMK AO2 SLP218 T01110044=
200805072053 METAR KBLI 072053Z 15007KT 10SM FEW060 12/04 A3015 RMK AO2 SLP216 T01170044 58002=
200805071953 METAR KBLI 071953Z 13009KT 10SM BKN030 BKN038 OVC055 11/04 A3016 RMK AO2 SLP220 T01060039=
200805071917 SPECI KBLI 071917Z 00000KT 10SM SCT024 BKN035 OVC055 10/04 A3016 RMK AO2 $=
200805071917 SPECI KBLI 071917Z 00000KT 10SM SCT024 BKN035 OVC055 10/04 A3016 RMK AO2 $=
200805071853 METAR KBLI 071853Z 27003KT 10SM OVC026 09/04 A3016 RMK AO2 SLP222 T00890039=
200805071753 METAR KBLI 071753Z 00000KT 10SM OVC031 09/03 A3015 RMK AO2 SLP219 T00890028 10094 20083 51006=
200805071653 METAR KBLI 071653Z 00000KT 10SM OVC035 09/04 A3015 RMK AO2 SLP216 T00890039=
200805071624 SPECI KBLI 071624Z VRB04KT 10SM SCT025 OVC033 09/03 A3015 RMK AO2=
200805071624 SPECI KBLI 071624Z VRB04KT 10SM SCT025 OVC033 09/03 A3015 RMK AO2=
200805071553 METAR KBLI 071553Z 28004KT 10SM BKN021 BKN027 OVC050 09/04 A3015 RMK AO2 SLP218 T00890039=
200805071453 METAR KBLI 071453Z 18004KT 10SM BKN017 OVC027 08/06 A3014 RMK AO2 SLP213 T00830061 51012=
200805071353 METAR KBLI 071353Z 18005KT 10SM OVC021 08/06 A3013 RMK AO2 SLP209 T00830061=
200805071329 SPECI KBLI 071329Z AUTO 00000KT 10SM BKN021 OVC055 08/06 A3013 RMK AO2=
200805071329 SPECI KBLI 071329Z AUTO 00000KT 10SM BKN021 OVC055 08/06 A3013 RMK AO2=
200805071253 METAR KBLI 071253Z AUTO VRB04KT 10SM FEW019 OVC050 08/06 A3012 RMK AO2 SLP205 T00830056=
200805071217 SPECI KBLI 071217Z AUTO 18005KT 10SM FEW020 OVC050 08/06 A3011 RMK AO2=
200805071217 SPECI KBLI 071217Z AUTO 18005KT 10SM FEW020 OVC050 08/06 A3011 RMK AO2=
200805071153 METAR KBLI 071153Z AUTO 16007KT 10SM FEW019 OVC024 08/06 A3010 RMK AO2 SLP200 T00830056 10100 20078 50000=
200805071053 METAR KBLI 071053Z AUTO 17009KT 10SM OVC020 08/06 A3011 RMK AO2 SLP202 T00830061=
200805071015 SPECI KBLI 071015Z AUTO 17009KT 10SM BKN024 BKN050 08/06 A3010 RMK AO2=
200805071015 SPECI KBLI 071015Z AUTO 17009KT 10SM BKN024 BKN050 08/06 A3010 RMK AO2=
200805070953 METAR KBLI 070953Z AUTO 16011G16KT 10SM CLR 08/06 A3010 RMK AO2 SLP199 T00780056=
200805070853 METAR KBLI 070853Z AUTO 17007G16KT 10SM CLR 08/06 A3010 RMK AO2 SLP200 T00830061 51005=
200805070753 METAR KBLI 070753Z AUTO 17010KT 10SM OVC050 09/06 A3010 RMK AO2 SLP199 T00890056 401280078=
200805070653 METAR KBLI 070653Z AUTO 16013G18KT 10SM OVC044 09/06 A3009 RMK AO2 SLP196 T00940056=
200805070553 METAR KBLI 070553Z AUTO 16011G18KT 10SM OVC043 10/06 A3009 RMK AO2 SLP195 T01000056 10128 20100 53004=
200805070453 METAR KBLI 070453Z 16009KT 10SM FEW045 10/06 A3008 RMK AO2 SLP194 T01000056=
200805070353 METAR KBLI 070353Z 17008KT 10SM CLR 10/06 A3007 RMK AO2 SLP191 T01000056=
200805070253 METAR KBLI 070253Z 16009KT 10SM CLR 11/06 A3007 RMK AO2 SLP191 T01060061 55001=
200805070153 METAR KBLI 070153Z 18008G15KT 10SM CLR 11/06 A3007 RMK AO2 SLP190 T01110061=
200805070053 METAR KBLI 070053Z 17008G16KT 10SM CLR 12/06 A3007 RMK AO2 SLP191 T01170061=
200805062353 METAR KBLI 062353Z 17010G17KT 10SM CLR 12/07 A3008 RMK AO2 SLP192 T01220072 10128 20100 58004=
200805062253 METAR KBLI 062253Z 17012G16KT 10SM CLR 12/08 A3008 RMK AO2 SLP193 T01220078=
200805062200 METAR KBLI NIL=
200805062153 METAR KBLI 062153Z 17008KT 10SM FEW020 13/07 A3009 RMK AO2 SLP196 T01280072=
200805062149 SPECI KBLI 062149Z 16010KT 10SM SCT020 12/07 A3009 RMK AO2=
200805062149 SPECI KBLI 062149Z 16010KT 10SM SCT020 12/07 A3009 RMK AO2=
200805062053 METAR KBLI 062053Z 17009KT 10SM FEW011 OVC020 12/07 A3010 RMK AO2 SLP198 T01220072 51001=
200805061953 METAR KBLI 061953Z 19008KT 10SM OVC018 11/07 A3010 RMK AO2 SLP198 T01060067=
200805061853 METAR KBLI 061853Z 19008KT 10SM OVC022 11/07 A3010 RMK AO2 SLP199 T01060067=
200805061753 METAR KBLI 061753Z 16011KT 10SM OVC020 11/07 A3009 RMK AO2 SLP198 T01060067 10106 20083 51005=
200805061653 METAR KBLI 061653Z 17009KT 10SM OVC016 09/06 A3009 RMK AO2 SLP197 T00940061=
200805061553 METAR KBLI 061553Z 14008KT 10SM OVC014 10/06 A3009 RMK AO2 SLP196 T01000061=
200805061453 METAR KBLI 061453Z 14006KT 10SM BKN012 OVC055 09/06 A3008 RMK AO2 SLP193 T00890061 53008=
200805061353 METAR KBLI 061353Z 14007KT 10SM BKN012 BKN055 OVC085 08/06 A3007 RMK AO2 SLP189 T00830061=
200805061253 METAR KBLI 061253Z AUTO 13008KT 10SM OVC012 08/06 A3006 RMK AO2 SLP186 T00830061=
200805061228 SPECI KBLI 061228Z AUTO 15006KT 10SM BKN012 OVC060 08/06 A3006 RMK AO2=
200805061228 SPECI KBLI 061228Z AUTO 15006KT 10SM BKN012 OVC060 08/06 A3006 RMK AO2=
200805061153 METAR KBLI 061153Z AUTO 17006KT 10SM SCT008 BKN065 OVC080 08/07 A3006 RMK AO2 SLP185 T00830067 10094 20078 53007=
200805061103 SPECI KBLI 061103Z AUTO 17004KT 10SM FEW008 OVC080 08/07 A3004 RMK AO2=
200805061103 SPECI KBLI 061103Z AUTO 17004KT 10SM FEW008 OVC080 08/07 A3004 RMK AO2=
200805061053 METAR KBLI 061053Z AUTO 17005KT 10SM OVC080 09/07 A3004 RMK AO2 SLP181 T00890067=
200805060953 METAR KBLI 060953Z AUTO 16004KT 10SM OVC070 08/06 A3004 RMK AO2 SLP179 T00780061=
200805060853 METAR KBLI 060853Z AUTO 16005KT 10SM CLR 08/06 A3003 RMK AO2 SLP177 T00830061 51002=
200805060753 METAR KBLI 060753Z AUTO 17008KT 10SM BKN060 09/07 A3003 RMK AO2 SLP177 T00890067 401560050=
200805060653 METAR KBLI 060653Z AUTO 17009KT 10SM CLR 09/07 A3003 RMK AO2 SLP176 T00890067=
200805060553 METAR KBLI 060553Z AUTO 18006KT 10SM CLR 09/07 A3003 RMK AO2 SLP175 T00940067 10144 20094 51005=
200805060453 METAR KBLI 060453Z 18009KT 10SM CLR 10/07 A3003 RMK AO2 SLP174 T01000067=
200805060353 METAR KBLI 060353Z 17008KT 10SM OVC095 11/07 A3002 RMK AO2 SLP171 T01110067=
200805060253 METAR KBLI 060253Z 18008KT 10SM BKN090 12/07 A3001 RMK AO2 SLP170 T01170067 55006=
200805060153 METAR KBLI 060153Z 17009KT 10SM BKN090 14/04 A3001 RMK AO2 SLP170 T01390044=
200805060053 METAR KBLI 060053Z 17009G14KT 10SM SCT075 BKN095 14/06 A3002 RMK AO2 SLP173 T01440061=
200805052353 METAR KBLI 052353Z 18007KT 10SM FEW080 BKN100 14/08 A3003 RMK AO2 SLP176 T01390078 10156 20056 58007=
200805052253 METAR KBLI 052253Z 17007KT 10SM OVC080 15/08 A3004 RMK AO2 SLP180 T01500083=
200805052153 METAR KBLI 052153Z VRB05KT 10SM BKN080 14/08 A3005 RMK AO2 SLP183 T01440083=
200805052053 METAR KBLI 052053Z 17006KT 10SM OVC080 14/08 A3005 RMK AO2 SLP184 T01440083 58001=
200805051953 METAR KBLI 051953Z 16006KT 10SM BKN080 13/08 A3005 RMK AO2 SLP184 T01280083=
200805051853 METAR KBLI 051853Z 16007KT 10SM BKN090 13/08 A3006 RMK AO2 SLP186 T01280083=
200805051753 METAR KBLI 051753Z 17005KT 10SM FEW100 12/08 A3006 RMK AO2 SLP185 T01170078 10122 20050 55004=
200805051653 METAR KBLI 051653Z 00000KT 10SM BKN100 12/08 A3005 RMK AO2 SLP184 T01170083=
200805051553 METAR KBLI 051553Z 00000KT 10SM OVC080 09/07 A3007 RMK AO2 SLP189 T00940072=
200805051453 METAR KBLI 051453Z 18003KT 10SM FEW048 SCT095 09/07 A3007 RMK AO2 SLP189 T00940072 51003=
200805051353 METAR KBLI 051353Z 21004KT 10SM CLR 08/07 A3007 RMK AO2 SLP189 T00780067=
200805051253 METAR KBLI 051253Z AUTO 00000KT 6SM BR CLR 06/04 A3006 RMK AO2 SLP187 T00560044 $=
200805051153 METAR KBLI 051153Z AUTO 00000KT 10SM CLR 06/04 A3006 RMK AO2 SLP186 T00610044 10100 20050 55000 $=
200805051053 METAR KBLI 051053Z AUTO 00000KT 10SM CLR 07/06 A3006 RMK AO2 SLP185 T00670061 $=
200805050953 METAR KBLI 050953Z AUTO 00000KT 10SM CLR 08/07 A3006 RMK AO2 SLP186 T00780067 $=
200805050853 METAR KBLI 050853Z AUTO 18004KT 10SM CLR 09/07 A3006 RMK AO2 SLP187 T00940072 57007 $=
200805050753 METAR KBLI 050753Z AUTO 00000KT 10SM CLR 09/07 A3008 RMK AO2 SLP191 T00890072 401500039 $=
200805050653 METAR KBLI 050653Z AUTO 00000KT 10SM CLR 09/07 A3007 RMK AO2 SLP189 T00940072 $=
200805050553 METAR KBLI 050553Z AUTO 15003KT 10SM CLR 08/07 A3008 RMK AO2 SLP194 T00830067 10144 20083 58004 $=
200805050453 METAR KBLI 050453Z 00000KT 10SM CLR 09/07 A3009 RMK AO2 SLP196 T00940067 $=
200805050353 METAR KBLI 050353Z 00000KT 10SM CLR 11/07 A3009 RMK AO2 SLP196 T01060072 $=
200805050253 METAR KBLI 050253Z 00000KT 10SM CLR 13/07 A3010 RMK AO2 SLP198 T01330067 56009 $=
200805050153 METAR KBLI 050153Z 00000KT 10SM CLR 14/07 A3010 RMK AO2 SLP199 T01390067 $=
200805050053 METAR KBLI 050053Z VRB03KT 10SM CLR 14/06 A3011 RMK AO2 SLP205 T01390061 $=
200805042353 METAR KBLI 042353Z 15004KT 10SM CLR 14/08 A3012 RMK AO2 SLP209 T01390083 10150 20111 56014 $=
200805042253 METAR KBLI 042253Z VRB04KT 10SM CLR 14/08 A3014 RMK AO2 SLP212 T01440083 $=
200805042153 METAR KBLI 042153Z 21005KT 10SM SCT024 14/08 A3015 RMK AO2 SLP216 T01440078 $=
200805042053 METAR KBLI 042053Z 00000KT 10SM SCT024 14/08 A3017 RMK AO2 SLP222 T01390083 58013 $=
200805041953 METAR KBLI 041953Z VRB05KT 10SM BKN021 BKN026 13/07 A3018 RMK AO2 SLP227 T01330072 $=
200805041853 METAR KBLI 041853Z VRB03KT 10SM BKN019 12/07 A3020 RMK AO2 SLP234 T01170072 $=
200805041753 METAR KBLI 041753Z 00000KT 10SM BKN017 OVC028 11/07 A3020 RMK AO2 SLP236 T01110072 10117 20039 55001 $=
200805041728 SPECI KBLI 041728Z 31006KT 10SM BKN015 BKN027 11/07 A3020 RMK AO2 $=
200805041728 SPECI KBLI 041728Z 31006KT 10SM BKN015 BKN027 11/07 A3020 RMK AO2 $=
200805041653 METAR KBLI 041653Z 00000KT 10SM FEW008 11/07 A3020 RMK AO2 SLP235 T01110072 $=
200805041640 SPECI KBLI 041640Z 00000KT 10SM FEW008 11/08 A3020 RMK AO2 $=
200805041640 SPECI KBLI 041640Z 00000KT 10SM FEW008 11/08 A3020 RMK AO2 $=
200805041618 SPECI KBLI 041618Z 00000KT 3SM BR BKN005 10/08 A3020 RMK AO2 $=
200805041618 SPECI KBLI 041618Z 00000KT 3SM BR BKN005 10/08 A3020 RMK AO2 $=
200805041610 SPECI KBLI 041610Z 00000KT 3SM BR SCT005 09/07 A3020 RMK AO2 $=
200805041610 SPECI KBLI 041610Z 00000KT 3SM BR SCT005 09/07 A3020 RMK AO2 $=
200805041600 SPECI KBLI 041600Z 00000KT 3SM BR BKN003 09/08 A3020 RMK AO2 $=
200805041600 SPECI KBLI 041600Z 00000KT 3SM BR BKN003 09/08 A3020 RMK AO2 $=
200805041553 METAR KBLI 041553Z 00000KT 2 1/2SM BR BKN003 09/08 A3020 RMK AO2 SLP236 T00890078 $=
200805041539 SPECI KBLI 041539Z 00000KT 2SM BR BKN003 08/07 A3020 RMK AO2 $=
200805041539 SPECI KBLI 041539Z 00000KT 2SM BR BKN003 08/07 A3020 RMK AO2 $=
200805041528 SPECI KBLI 041528Z 00000KT 1SM BR OVC001 08/07 A3021 RMK AO2 RVRNO $=
200805041528 SPECI KBLI 041528Z 00000KT 1SM BR OVC001 08/07 A3021 RMK AO2 RVRNO $=
200805041453 METAR KBLI 041453Z 13003KT 3/4SM BR OVC001 08/07 A3021 RMK AO2 SLP237 T00780072 53004 RVRNO $=
200805041420 SPECI KBLI 041420Z 00000KT 3/4SM BR BKN001 07/06 A3020 RMK AO2 RVRNO $=
200805041420 SPECI KBLI 041420Z 00000KT 3/4SM BR BKN001 07/06 A3020 RMK AO2 RVRNO $=
200805041353 METAR KBLI 041353Z 00000KT 10SM FEW001 06/05 A3019 RMK AO2 SLP232 T00560050 $=
200805041351 SPECI KBLI 041351Z 00000KT 10SM FEW001 SCT014 05/04 A3019 RMK AO2 $=
200805041351 SPECI KBLI 041351Z 00000KT 10SM FEW001 SCT014 05/04 A3019 RMK AO2 $=
200805041344 SPECI KBLI 041344Z AUTO 00000KT 4SM BR FEW001 BKN014 05/04 A3019 RMK AO2 $=
200805041344 SPECI KBLI 041344Z AUTO 00000KT 4SM BR FEW001 BKN014 05/04 A3019 RMK AO2 $=
200805041341 SPECI KBLI 041341Z AUTO 00000KT 1 1/4SM BR FEW001 BKN014 05/04 A3019 RMK AO2 $=
200805041341 SPECI KBLI 041341Z AUTO 00000KT 1 1/4SM BR FEW001 BKN014 05/04 A3019 RMK AO2 $=
200805041334 SPECI KBLI 041334Z AUTO 00000KT 1/4SM FG SCT001 BKN014 04/04 A3019 RMK AO2 RVRNO $=
200805041334 SPECI KBLI 041334Z AUTO 00000KT 1/4SM FG SCT001 BKN014 04/04 A3019 RMK AO2 RVRNO $=
200805041326 SPECI KBLI 041326Z AUTO 00000KT 3/4SM BR SCT001 BKN014 04/04 A3019 RMK AO2 RVRNO $=
200805041326 SPECI KBLI 041326Z AUTO 00000KT 3/4SM BR SCT001 BKN014 04/04 A3019 RMK AO2 RVRNO $=
200805041322 SPECI KBLI 041322Z AUTO 00000KT 1 1/2SM BR FEW001 SCT014 04/04 A3019 RMK AO2 $=
200805041322 SPECI KBLI 041322Z AUTO 00000KT 1 1/2SM BR FEW001 SCT014 04/04 A3019 RMK AO2 $=
200805041309 SPECI KBLI 041309Z AUTO 00000KT 1 3/4SM BR FEW015 05/04 A3019 RMK AO2 $=
200805041309 SPECI KBLI 041309Z AUTO 00000KT 1 3/4SM BR FEW015 05/04 A3019 RMK AO2 $=
200805041253 METAR KBLI 041253Z AUTO 00000KT 9SM SCT019 05/04 A3019 RMK AO2 SLP233 T00500044 $=
200805041153 METAR KBLI 041153Z AUTO 00000KT 4SM BR BKN021 05/04 A3019 RMK AO2 SLP231 70016 T00500039 10072 20044 55000 $=
200805041130 SPECI KBLI 041130Z AUTO 00000KT 6SM BR BKN023 05/04 A3019 RMK AO2 $=
200805041130 SPECI KBLI 041130Z AUTO 00000KT 6SM BR BKN023 05/04 A3019 RMK AO2 $=
200805041121 SPECI KBLI 041121Z AUTO 00000KT 6SM BR SCT023 05/04 A3019 RMK AO2 $=
200805041121 SPECI KBLI 041121Z AUTO 00000KT 6SM BR SCT023 05/04 A3019 RMK AO2 $=
200805041112 SPECI KBLI 041112Z AUTO 00000KT 2SM BR FEW023 04/04 A3019 RMK AO2 $=
200805041112 SPECI KBLI 041112Z AUTO 00000KT 2SM BR FEW023 04/04 A3019 RMK AO2 $=
200805041053 METAR KBLI 041053Z AUTO 00000KT 10SM SCT025 05/04 A3018 RMK AO2 SLP229 T00500044 $=
200805040953 METAR KBLI 040953Z AUTO 00000KT 10SM BKN029 07/06 A3019 RMK AO2 SLP231 T00670056 $=
200805040900 METAR KBLI NIL=
200805040853 METAR KBLI 040853Z AUTO 00000KT 10SM CLR 06/05 A3019=
200805040836 SPECI KBLI 040836Z AUTO 00000KT 10SM SCT026 07/06 A3019 RMK AO2 $=
200805040836 SPECI KBLI 040836Z AUTO 00000KT 10SM SCT026 07/06 A3019 RMK AO2 $=
200805040753 METAR KBLI 040753Z AUTO 00000KT 10SM OVC026 07/06 A3019 RMK AO2 SLP232 T00670056 401110050 $=
200805040739 SPECI KBLI 040739Z AUTO 00000KT 10SM BKN026 06/04 A3019 RMK AO2 $=
200805040739 SPECI KBLI 040739Z AUTO 00000KT 10SM BKN026 06/04 A3019 RMK AO2 $=
200805040653 METAR KBLI 040653Z AUTO 00000KT 10SM CLR 06/05 A3019 RMK AO2 SLP232 T00610050 $=
200805040553 METAR KBLI 040553Z AUTO 00000KT 10SM CLR 07/06 A3019 RMK AO2 SLP231 T00670056 10111 20061 53008 $=
200805040453 METAR KBLI 040453Z 00000KT 10SM CLR 07/06 A3018 RMK AO2 SLP229 T00670056 $=
200805040353 METAR KBLI 040353Z 00000KT 10SM SCT055 09/06 A3017 RMK AO2 SLP224 T00940061 $=
200805040253 METAR KBLI 040253Z 21003KT 10SM FEW043 OVC055 10/06 A3017 RMK AO2 SLP223 T01000061 55001 $=
200805040153 METAR KBLI 040153Z 20004KT 10SM OVC055 11/06 A3016 RMK AO2 SLP221 T01060056 $=
200805040053 METAR KBLI 040053Z 10SM SCT018 SCT023 OVC050 11/08 A3016 RMK AO2 SLP221 T01110078 $=
200805032353 METAR KBLI 032353Z 25005KT 10SM SCT013 BKN018 OVC050 11/07 A3017 RMK AO2 RAE06 SLP223 P0000 60004 T01110072 10111 20094 58002 $=
200805032345 SPECI KBLI 032345Z VRB05KT 6SM HZ SCT008 BKN013 OVC050 11/08 A3017 RMK AO2 RAE06 P0000 $=
200805032345 SPECI KBLI 032345Z VRB05KT 6SM HZ SCT008 BKN013 OVC050 11/08 A3017 RMK AO2 RAE06 P0000 $=
200805032253 METAR KBLI 032253Z 25005KT 6SM -RA BR BKN005 OVC010 10/08 A3017 RMK AO2 CIG 004V008 SLP226 P0000 T01000083 $=
200805032153 METAR KBLI 032153Z 28004KT 3SM -RA BR BKN007 OVC013 10/08 A3017 RMK AO2 SLP226 P0000 T01000078 $=
200805032053 METAR KBLI 032053Z 27003KT 3SM -RA BR BKN007 OVC012 09/08 A3018 RMK AO2 CIG 005V011 SLP226 P0001 60004 T00940083 51002 $=
200805031953 METAR KBLI 031953Z 00000KT 4SM -RA BR BKN007 OVC020 09/08 A3018 RMK AO2 CIG 005V012 SLP226 P0002 T00940083 $=
200805031939 SPECI KBLI 031939Z 20003KT 4SM -RA BR BKN007 BKN011 OVC020 09/08 A3018 RMK AO2 CIG 006V009 P0001 $=
200805031939 SPECI KBLI 031939Z 20003KT 4SM -RA BR BKN007 BKN011 OVC020 09/08 A3018 RMK AO2 CIG 006V009 P0001 $=
200805031853 METAR KBLI 031853Z 18003KT 2SM -RA BR SCT007 OVC020 09/08 A3017 RMK AO2 SLP224 P0001 T00940083 $=
200805031753 METAR KBLI 031753Z 18004KT 2SM -RA BR BKN007 BKN011 OVC042 09/08 A3017 RMK AO2 CIG 004V010 SLP223 P0002 60012 T00940083 10094 20078 51004 $=
200805031749 SPECI KBLI 031749Z 16004KT 2SM -RA BR BKN007 BKN011 OVC042 09/08 A3017 RMK AO2 CIG 004V010 P0002 $=
200805031749 SPECI KBLI 031749Z 16004KT 2SM -RA BR BKN007 BKN011 OVC042 09/08 A3017 RMK AO2 CIG 004V010 P0002 $=
200805031700 SPECI KBLI 031700Z 18005KT 10SM -RA OVC005 09/07 A3016 RMK AO2 CIG 003V008 P0000 $=
200805031700 SPECI KBLI 031700Z 18005KT 10SM -RA OVC005 09/07 A3016 RMK AO2 CIG 003V008 P0000 $=
200805031653 METAR KBLI 031653Z 17003KT 2SM -RA BR BKN003 OVC050 09/08 A3016 RMK AO2 SLP221 P0003 T00890078 $=
200805031602 SPECI KBLI 031602Z 17004KT 2SM -RA BR BKN003 OVC050 08/07 A3016 RMK AO2 P0001 $=
200805031602 SPECI KBLI 031602Z 17004KT 2SM -RA BR BKN003 OVC050 08/07 A3016 RMK AO2 P0001 $=
200805031553 METAR KBLI 031553Z 18003KT 3SM -RA BR BKN005 BKN029 OVC050 09/08 A3016 RMK AO2 SLP219 P0002 T00890078 $=
200805031538 SPECI KBLI 031538Z 18004KT 3SM -RA BR BKN006 BKN029 OVC050 09/08 A3015 RMK AO2 P0002 $=
200805031538 SPECI KBLI 031538Z 18004KT 3SM -RA BR BKN006 BKN029 OVC050 09/08 A3015 RMK AO2 P0002 $=
200805031523 SPECI KBLI 031523Z 16003KT 6SM -RA BR SCT006 BKN029 OVC050 09/07 A3015 RMK AO2 P0001 $=
200805031523 SPECI KBLI 031523Z 16003KT 6SM -RA BR SCT006 BKN029 OVC050 09/07 A3015 RMK AO2 P0001 $=
200805031453 METAR KBLI 031453Z 00000KT 10SM -RA BKN045 OVC050 08/07 A3015 RMK AO2 SLP216 P0003 60005 T00830072 53008 $=
200805031353 METAR KBLI 031353Z 00000KT 10SM -RA OVC055 08/07 A3014 RMK AO2 SLP213 P0001 T00780067 $=
200805031253 METAR KBLI 031253Z AUTO 00000KT 10SM -RA OVC055 08/07 A3013 RMK AO2 SLP210 P0001 T00780067 $=
200805031153 METAR KBLI 031153Z AUTO 00000KT 10SM -RA OVC060 08/06 A3012 RMK AO2 RAB06 SLP208 P0000 60000 T00830061 10100 20083 53005 $=
200805031053 METAR KBLI 031053Z AUTO 00000KT 10SM OVC060 09/06 A3012 RMK AO2 SLP205 T00890056 $=
200805030953 METAR KBLI 030953Z AUTO 36005KT 10SM FEW080 09/05 A3011 RMK AO2 SLP202 T00890050 $=
200805030853 METAR KBLI 030853Z AUTO 35005KT 10SM FEW095 SCT110 09/05 A3011 RMK AO2 SLP202 T00890050 56007 $=
200805030753 METAR KBLI 030753Z AUTO 36005KT 10SM BKN110 09/05 A3011 RMK AO2 SLP204 T00940050 401440028 $=
200805030653 METAR KBLI 030653Z AUTO 36008KT 10SM SCT080 BKN100 10/04 A3012 RMK AO2 SLP206 T01000044 $=
200805030553 METAR KBLI 030553Z AUTO 36005KT 10SM SCT070 OVC090 10/04 A3013 RMK AO2 SLP209 60000 T01000044 10128 20100 56004 $=
200805030453 METAR KBLI 030453Z 36005KT 10SM OVC070 11/05 A3013 RMK AO2 RAE0356 SLP209 P0000 T01060050 $=
200805030353 METAR KBLI 030353Z 34006KT 10SM -RA OVC070 11/06 A3013 RMK AO2 RAE06B26 SLP210 P0000 T01060056 $=
200805030253 METAR KBLI 030253Z 35006KT 10SM -RA BKN060 OVC080 12/05 A3014 RMK AO2 RAB47 SLP214 P0000 60000 T01170050 56008=
200805030153 METAR KBLI 030153Z 00000KT 10SM BKN065 12/05 A3014 RMK AO2 SLP215 T01220050=
200805030053 METAR KBLI 030053Z 02004KT 10SM OVC060 12/06 A3015 RMK AO2 RAB08E32 SLP218 P0000 T01170056=
200805022353 METAR KBLI 022353Z 00000KT 10SM FEW047 BKN070 12/04 A3016 RMK AO2 SLP222 T01220039 10144 20106 52004=
200805022253 METAR KBLI 022253Z 27005KT 10SM BKN085 13/04 A3016 RMK AO2 SLP220 T01280039=
200805022153 METAR KBLI 022153Z 00000KT 10SM OVC085 13/04 A3015 RMK AO2 SLP219 T01280044=
200805022053 METAR KBLI 022053Z 27003KT 10SM FEW080 14/03 A3015 RMK AO2 SLP218 T01440033 58006=
200805021953 METAR KBLI 021953Z 34004KT 10SM CLR 13/04 A3015 RMK AO2 SLP219 T01330039=
200805021853 METAR KBLI 021853Z 00000KT 10SM FEW080 12/04 A3017 RMK AO2 SLP223 T01220039=
200805021753 METAR KBLI 021753Z 00000KT 10SM SCT095 11/04 A3017 RMK AO2 SLP224 T01060039 10106 20033 53009=
200805021653 METAR KBLI 021653Z 00000KT 10SM BKN085 09/03 A3016 RMK AO2 SLP221 T00890028=
200805021553 METAR KBLI 021553Z 00000KT 10SM OVC090 08/03 A3015 RMK AO2 SLP217 T00830033 $=
200805021453 METAR KBLI 021453Z 00000KT 10SM OVC095 07/02 A3014 RMK AO2 SLP214 T00670022 56005 $=
200805021353 METAR KBLI 021353Z 33023KT 10SM FEW100 06/02 A3014 RMK AO2 SLP216 T00560022 $=
200805021253 METAR KBLI 021253Z AUTO 02004KT 10SM BKN110 04/01 A3014 RMK AO2 SLP216 T00390011 $=
200805021153 METAR KBLI 021153Z AUTO 01003KT 10SM FEW120 03/01 A3016 RMK AO2 SLP220 T00330011 10056 20028 56012 $=
200805021053 METAR KBLI 021053Z AUTO 02004KT 10SM CLR 03/01 A3017 RMK AO2 SLP224 T00330011 $=
200805020953 METAR KBLI 020953Z AUTO 01004KT 10SM CLR 03/01 A3018 RMK AO2 SLP226 T00330011 TSNO $=
200805020853 METAR KBLI 020853Z AUTO 36006KT 10SM CLR 03/01 A3019 RMK AO2 SLP232 T00330011 58004 $=
200805020753 METAR KBLI 020753Z AUTO 35003KT 10SM CLR 04/02 A3020 RMK AO2 SLP236 T00390017 401220033 $=
200805020653 METAR KBLI 020653Z AUTO 01003KT 10SM CLR 04/02 A3020 RMK AO2 SLP236 T00390017 $=
200805020553 METAR KBLI 020553Z AUTO 01003KT 10SM CLR 05/02 A3020 RMK AO2 SLP236 T00500022 10122 20044 56007 $=
200805020453 METAR KBLI 020453Z 00000KT 10SM CLR 07/03 A3021 RMK AO2 SLP238 T00720028 $=
200805020353 METAR KBLI 020353Z 00000KT 10SM CLR 08/03 A3022 RMK AO2 SLP241 T00780028 $=
200805020253 METAR KBLI 020253Z 00000KT 10SM CLR 10/02 A3023 RMK AO2 SLP244 T01000022 56010=
200805020153 METAR KBLI 020153Z 35004KT 10SM FEW060 12/02 A3023 RMK AO2 SLP246 T01170022=
200805020053 METAR KBLI 020053Z 00000KT 10SM FEW048 BKN065 11/02 A3025 RMK AO2 SLP251 T01110017=
200805012353 METAR KBLI 012353Z 00000KT 10SM SCT065 12/02 A3026 RMK AO2 SLP254 T01220017 10122 20083 56006=
200805012253 METAR KBLI 012253Z 15005KT 10SM SCT047 BKN065 12/00 A3026 RMK AO2 SLP256 T01170000=
200805012153 METAR KBLI 012153Z 16008KT 10SM SCT065 11/01 A3027 RMK AO2 SLP257 T01110011=
200805012053 METAR KBLI 012053Z VRB05KT 10SM OVC055 10/02 A3027 RMK AO2 SLP260 T01000022 58003=
200805011953 METAR KBLI 011953Z 17004KT 10SM OVC045 09/02 A3028 RMK AO2 SLP262 T00890017=
200805011853 METAR KBLI 011853Z 16011KT 10SM OVC035 09/02 A3028 RMK AO2 SLP262 T00940017=
200805011753 METAR KBLI 011753Z 18008KT 10SM SCT027 BKN035 OVC080 08/01 A3028 RMK AO2 SLP263 T00830011 10089 20061 51009=
200805011653 METAR KBLI 011653Z 16006KT 10SM SCT039 BKN048 OVC080 08/02 A3028 RMK AO2 SLP260 T00830022=
200805011553 METAR KBLI 011553Z 14004KT 10SM FEW019 SCT026 OVC047 07/02 A3027 RMK AO2 SLP259 T00670017=
200805011500 SPECI KBLI 011500Z 17007KT 10SM BKN017 BKN047 OVC060 07/02 A3026 RMK AO2=
200805011500 SPECI KBLI 011500Z 17007KT 10SM BKN017 BKN047 OVC060 07/02 A3026 RMK AO2=
200805011453 METAR KBLI 011453Z 17009KT 10SM SCT022 BKN047 OVC060 07/02 A3026 RMK AO2 SLP254 T00670022 53011=
200805011353 METAR KBLI 011353Z 16008KT 10SM SCT019 BKN026 OVC031 07/02 A3024 RMK AO2 SLP249 T00670022=
200805011253 METAR KBLI 011253Z AUTO 16010G15KT 10SM BKN019 BKN024 BKN080 07/03 A3022 RMK AO2 SLP243 T00670028=
200805011248 SPECI KBLI 011248Z AUTO 15006KT 10SM SCT019 BKN024 BKN080 07/03 A3022 RMK AO2=
200805011248 SPECI KBLI 011248Z AUTO 15006KT 10SM SCT019 BKN024 BKN080 07/03 A3022 RMK AO2=
200805011236 SPECI KBLI 011236Z AUTO 15009KT 10SM SCT021 SCT026 BKN085 07/02 A3022 RMK AO2=
200805011236 SPECI KBLI 011236Z AUTO 15009KT 10SM SCT021 SCT026 BKN085 07/02 A3022 RMK AO2=
200805011207 SPECI KBLI 011207Z AUTO 15005KT 10SM BKN021 OVC095 06/02 A3022 RMK AO2=
200805011207 SPECI KBLI 011207Z AUTO 15005KT 10SM BKN021 OVC095 06/02 A3022 RMK AO2=
200805011153 METAR KBLI 011153Z AUTO 15006KT 10SM SCT021 OVC090 06/02 A3022 RMK AO2 SLP240 T00610022 10083 20061 53007=
200805011053 METAR KBLI 011053Z AUTO 15008KT 10SM FEW019 OVC080 07/02 A3021 RMK AO2 SLP237 T00670022=
200805010953 METAR KBLI 010953Z AUTO 15007KT 10SM FEW019 OVC080 07/02 A3020 RMK AO2 SLP234 T00720022=
200805010853 METAR KBLI 010853Z AUTO 15008KT 10SM OVC080 07/02 A3019 RMK AO2 SLP232 T00720022 53014=
200805010753 METAR KBLI 010753Z AUTO 14005KT 10SM OVC085 07/01 A3017 RMK AO2 SLP225 T00720011 401110050=
200805010653 METAR KBLI 010653Z AUTO 14008KT 10SM OVC090 07/01 A3016 RMK AO2 SLP222 T00720011=
200805010553 METAR KBLI 010553Z AUTO 15007KT 10SM FEW048 OVC090 08/02 A3015 RMK AO2 SLP218 T00830017 10111 20083 51018=
200805010453 METAR KBLI 010453Z 15008KT 10SM OVC090 09/02 A3014 RMK AO2 SLP213 T00890017=
200805010353 METAR KBLI 010353Z 17005KT 10SM BKN090 09/02 A3012 RMK AO2 SLP206 T00940017=
200805010253 METAR KBLI 010253Z 17007KT 10SM BKN085 10/00 A3010 RMK AO2 SLP200 T01000000 50000=
200805010153 METAR KBLI 010153Z 17004KT 10SM OVC085 11/01 A3010 RMK AO2 SLP201 T01060006=
200805010053 METAR KBLI 010053Z 16007KT 10SM BKN080 10/00 A3010 RMK AO2 SLP201 T01000000=

# No short TAF reports from KBLI in databse.

###################################
#  large TAF from KBLI
###################################
200805312324 TAF KBLI 312324Z 010024 20005KT P6SM VCSH BKN120 BKN200 FM0300
                       19005KT P6SM SCT120 BKN200 FM0800 19008KT
                       P6SM BKN080 FM1600 18009KT P6SM BKN025 BKN080
                       FM1900 18009KT P6SM BKN040=
200805311741 TAF KBLI 311741Z 311818 VRB04KT P6SM SCT100 BKN200 FM2100 24007KT
                       P6SM BKN100 BKN200 FM0300 19005KT P6SM BKN100
                       BKN200 FM0800 19008KT P6SM VCSH BKN060 BKN100
                       FM1600 18009KT P6SM BKN025 BKN080=
200805311137 TAF KBLI 311137Z 311212 VRB06KT P6SM SKC FM1800 18006KT P6SM SCT100
                       SCT250 FM2200 22009KT P6SM BKN040 FM0500
                       17012KT P6SM VCSH BKN030=
200805310539 TAF KBLI 310539Z 310606 VRB06KT P6SM SKC FM1900 18006KT P6SM SCT040
                       FM2200 22009KT P6SM BKN040=
200805302320 TAF KBLI 302320Z 310024 18006KT P6SM SCT040 FM1100 18008KT P6SM
                       BKN035 FM1900 18006KT P6SM SCT040=
200805302010 KBLI 302010Z 302018 18006KT P6SM BKN045 FM2300 18006KT P6SM SCT045
                       FM0900 18008KT P6SM BKN035=
200805301737 TAF KBLI 301737Z 301818 VRB03KT P6SM OVC050 FM1900 20006KT P6SM
                       SCT050 SCT250 FM0400 VRB04KT P6SM FEW050
                       SCT250 FM1200 18004KT P6SM SCT040=
200805301120 TAF KBLI 301120Z 301212 VRB03KT P6SM OVC040 FM1800 20006KT P6SM
                       SCT040 SCT250 FM2200 22008KT P6SM FEW050
                       SCT250 FM0400 VRB04KT P6SM FEW050 SCT250=
200805301008 KBLI 301008Z 301006 18004KT P6SM OVC040 FM1800 20008KT P6SM SCT040
                       SCT250 FM2200 22008KT P6SM FEW050 SCT250
                       FM0400 18004KT P6SM FEW050 SCT250=
200805300525 TAF KBLI 300525Z 300606 18006KT P6SM SCT025
                      TEMPO 0810 BKN025 FM1000 18006KT P6SM OVC020
                       FM1600 19007KT P6SM BKN018 FM1800 20008KT
                       P6SM SCT040 SCT250 FM2200 22008KT P6SM FEW050
                       SCT250 FM0400 18004KT P6SM FEW050 SCT250=
200805292334 TAF KBLI 292334Z 300024 19006KT P6SM BKN035
                      TEMPO 0003 SCT035 FM0500 19008KT P6SM SCT020
                       OVC035 FM1000 18006KT P6SM OVC020 FM1600
                       19007KT P6SM BKN018 BKN250 FM1800 20008KT
                       P6SM SCT040 BKN250=
200805291737 TAF KBLI 291737Z 291818 17010KT P6SM OVC023 FM2200 19010KT P6SM
                       BKN030
                      TEMPO 2303 SCT030 FM0500 19008KT P6SM SCT020
                       OVC030 FM1000 18006KT P6SM OVC020=
200805291120 TAF KBLI 291120Z 291212 18011G20KT P6SM OVC015 FM2000 19010KT P6SM
                       BKN025 OVC040 FM2200 19008KT P6SM BKN045=
200805290535 TAF KBLI 290535Z 290606 18012KT P6SM FEW025 SCT050 BKN100
                      TEMPO 0810 BKN025 FM1000 18010KT P6SM OVC012
                       FM2100 19008KT P6SM VCSH BKN025 OVC040=
200805282329 TAF KBLI 282329Z 290024 18010KT P6SM SKC FM0300 21010KT P6SM SCT035
                       BKN060 OVC100 FM1000 18010KT P6SM OVC012
                       FM2100 19008KT P6SM VCSH BKN025 OVC040=
200805281730 TAF KBLI 281730Z 281818 16008KT P6SM SCT040 BKN090 FM2100 20009KT
                       P6SM BKN045 BKN090 FM0400 21010KT P6SM SCT035
                       OVC060 FM1000 18010KT P6SM OVC012=
200805281606 KBLI 281606Z 281612 19005KT P6SM BKN004
                      TEMPO 1620 SCT004 OVC090 FM2000 24008KT P6SM
                       SCT040 FM0500 24008KT P6SM OVC012=
200805281132 TAF KBLI 281132Z 281212 36005KT P6SM SCT015 BKN035
                      TEMPO 1216 BKN015 FM1600 23007KT P6SM BKN025
                       FM2000 24008KT P6SM SCT040 FM0500 24008KT
                       P6SM OVC012=
200805280520 TAF KBLI 280520Z 280606 17004KT P6SM SCT100 FM1200 18004KT P6SM
                       BKN015 FM1700 19008KT P6SM SCT025
                      TEMPO 0406 BKN025=
200805272329 TAF KBLI 272329Z 280024 16006KT P6SM SCT030 FM0500 18005KT P6SM
                       SCT045 BKN100 FM1200 18004KT P6SM BKN015
                       FM1700 19008KT P6SM SCT030=
200805271728 TAF KBLI 271728Z 271818 16009KT P6SM VCSH SCT030 BKN100 FM2100
                       19006KT P6SM VCSH SCT040 BKN070 BKN120 FM0500
                       18005KT P6SM SCT045 BKN100 FM1200 18004KT
                       P6SM BKN015=
200805271613 KBLI 271613Z 271612 18005KT P6SM SCT020 BKN030 OVC090 FM1800 19006KT
                       P6SM VCSH SCT030 BKN060 BKN100 FM0200 18005KT
                       P6SM SCT060=
200805271137 KBLI 271137Z 271212 17005KT P6SM SCT015 BKN030 BKN100
                      TEMPO 1216 BKN015 FM1800 19006KT P6SM VCSH
                       SCT030 BKN060 BKN100 FM0200 18005KT P6SM
                       SCT060=
200805271120 TAF KBLI 271120Z 271212 17005KT P6SM SCT030 BKN100 FM1600 19006KT
                       P6SM VCSH SCT030 BKN060 BKN100 FM0200 18005KT
                       P6SM SCT060=
200805270520 TAF KBLI 270520Z 270606 18006KT P6SM SCT080 OVC100 FM1100 17005KT
                       P6SM SCT040 BKN060 BKN100 FM1600 19007KT
                       P6SM VCSH SCT030 BKN060 BKN120 FM0300 29007KT
                       P6SM VCSH SCT030 SCT060=
200805262333 TAF KBLI 262333Z 270024 18006KT P6SM VCSH SCT035 BKN060 BKN120
                       FM0400 18006KT P6SM BKN070 OVC110 FM1200
                       17005KT P6SM SCT020 BKN070 OVC110 FM1600
                       19007KT P6SM VCSH SCT018 BKN060 BKN120=
200805261733 TAF KBLI 261733Z 261818 16009KT P6SM VCSH SCT030 BKN060 OVC090
                       FM2000 18008KT P6SM VCSH SCT025 BKN045 OVC100
                       FM0400 16005KT P6SM SCT040 BKN070 OVC110=
200805261139 TAF KBLI 261139Z 261212 18005KT P6SM VCSH SCT060 BKN100 FM2000
                       18008KT P6SM VCSH BKN050 BKN100 FM0300 16005KT
                       P6SM BKN070=
200805260532 TAF KBLI 260532Z 260606 18006KT P6SM SCT050 BKN100
                      TEMPO 0610 -SHRA BKN050 OVC100 FM1000 18008KT
                       P6SM VCSH BKN040 BKN090 FM2000 18008KT P6SM
                       SCT050 BKN100=
200805252320 TAF KBLI 252320Z 260024 18008KT P6SM SCT060 BKN120 FM0600 18008KT
                       P6SM VCSH BKN060CB BKN120 FM1000 18008KT
                       P6SM VCSH BKN040CB BKN120=
200805251720 TAF KBLI 251720Z 251818 18015KT P6SM SKC FM2100 21008KT P6SM SCT080
                       FM0400 18008KT P6SM BKN080 FM1200 18008KT
                       P6SM SCT020 BKN080=
200805251630 KBLI 251630Z 251712 18015KT P6SM SKC FM2100 21008KT P6SM SCT080
                       FM0400 18008KT P6SM BKN080=
200805251120 TAF KBLI 251120Z 251212 16007KT P6SM BKN100 OVC120 FM1800 21007KT
                       P6SM BKN060 OVC100 FM0400 17005KT P6SM OVC070=
200805250520 TAF KBLI 250520Z 250606 VRB05KT P6SM BKN120 FM0900 16007KT P6SM
                       BKN100 OVC150 FM1800 21007KT P6SM BKN060
                       OVC100=
200805242321 TAF KBLI 242321Z 250024 30008KT P6SM FEW060 SCT200 FM0500 VRB03KT
                       P6SM BKN200 FM1200 VRB03KT P6SM BKN120=
200805241736 TAF KBLI 241736Z 241818 00000KT P6SM BKN100 FM2100 VRB04KT P6SM
                       SCT100 BKN200
                      TEMPO 2202 33007KT P6SM BKN100=
200805241257 KBLI 241257Z 241312 VRB05KT P6SM BKN100
                      TEMPO 1315 3SM BR FM1900 26005KT P6SM SCT060
                       SCT120 FM0500 20004KT P6SM BKN120=
200805241123 TAF KBLI 241123Z 241212 VRB05KT P6SM BKN100 FM1900 26005KT P6SM
                       SCT060 SCT120 FM0500 20004KT P6SM BKN120=
200805240527 TAF KBLI 240527Z 240606 VRB05KT P6SM SCT120 FM1700 24005KT P6SM
                       SCT070 SCT120=
200805232328 TAF KBLI 232328Z 240024 VRB04KT P6SM SCT060 OVC120=
200805232039 KBLI 232039Z 232118 VRB04KT P6SM BKN100=
200805231720 TAF KBLI 231720Z 231818 33010KT P6SM SCT008 SCT020 OVC080
                      TEMPO 1821 BKN015 OVC060 FM2100 33008KT P6SM
                       SCT025 BKN060 OVC100 FM0400 VRB04KT P6SM
                       BKN070 BKN100=
200805231133 TAF KBLI 231133Z 231212 30005KT P6SM SKC FM1400 33006KT P6SM BKN080
                       BKN150 FM1800 36010KT P6SM BKN060 OVC150
                       TEMPO 1923 02015G25KT FM0000 32005KT P6SM
                       BKN060 BKN100 FM0300 VRB05KT P6SM SCT070=
200805231017 KBLI 231017Z 231006 VRB05KT P6SM SKC FM1400 33006KT P6SM BKN080
                       BKN150 FM1900 30010KT P6SM BKN070 OVC150=
200805230521 TAF KBLI 230521Z 230606 VRB05KT P6SM BKN045 FM1500 33006KT P6SM
                       SCT015 BKN040 BKN150 FM1900 30009KT P6SM
                       BKN070 OVC150=
200805222332 TAF KBLI 222332Z 230024 28008KT P6SM OVC040 FM0500 VRB03KT P6SM
                       SCT045 SCT200 FM1500 29006KT P6SM SCT015
                       BKN040 BKN120 FM1900 28009KT P6SM BKN080
                       OVC150
                      PROB30 1924 -RA=
200805221727 TAF KBLI 221727Z 221818 17006KT P6SM BKN014 OVC027 FM2000 19006KT
                       P6SM SCT025 BKN040 BKN060 FM2200 22008KT
                       P6SM SCT040 BKN060 FM1500 33006KT P6SM SCT015
                       BKN040=
200805221650 KBLI 221650Z 221712 17006KT P6SM BKN014 OVC027 FM2000 19006KT P6SM
                       SCT025 BKN040 BKN060 FM2200 22008KT P6SM
                       SCT040 BKN060=
200805221130 TAF KBLI 221130Z 221212 17006KT P6SM BKN025 OVC040
                      TEMPO 1418 SCT025 BKN040 BKN060 FM1800 19006KT
                       P6SM SCT025 BKN040 BKN060 FM2200 22008KT
                       P6SM SCT040 BKN060=
200805220539 TAF KBLI 220539Z 220606 17006KT P6SM SCT040 BKN060 FM1900 22008KT
                       P6SM SCT040 BKN060=
200805212335 TAF KBLI 212335Z 220024 16012KT P6SM BKN040 BKN100 FM0600 18007KT
                       P6SM BKN040 OVC050 FM1900 22009KT P6SM BKN050=
200805211720 TAF KBLI 211720Z 211818 17007KT P6SM VCSH SCT007 BKN015 OVC060
                       TEMPO 1822 FEW007 SCT015 OVC060 FM2200 19012KT
                       P6SM SCT025 BKN080
                      TEMPO 2201 -SHRA FM0400 20007KT P6SM SCT028
                       BKN050=
200805211128 TAF KBLI 211128Z 211212 16005KT P6SM VCSH SCT060 OVC100 FM1300
                       18007KT P6SM SCT030 OVC070
                      TEMPO 1317 BKN030 OVC060 FM2100 18007KT P6SM
                       SCT040 BKN080=
200805210521 TAF KBLI 210521Z 210606 00000KT P6SM VCSH FEW035 OVC070 FM1000
                       19007KT P6SM VCSH SCT025 OVC050 FM1300 19007KT
                       P6SM SCT025 OVC050
                      TEMPO 1317 BKN025 OVC045 FM2100 19006KT P6SM
                       SCT035 BKN070=
200805202321 TAF KBLI 202321Z 210024 18010KT P6SM VCSH SCT012 BKN035 OVC050
                       FM0400 18008KT P6SM VCSH BKN025 BKN050 FM1400
                       18008KT P6SM SCT015 BKN025 OVC040 FM2100
                       18010KT P6SM SCT018 BKN028 OVC040=
200805201733 TAF KBLI 201733Z 201818 18010KT P6SM -SHRA SCT012 BKN035 OVC050
                       FM2000 19009KT P6SM VCSH SCT035 BKN050 FM0400
                       18008KT P6SM VCSH BKN025 BKN050 FM1400 18008KT
                       P6SM SCT015 BKN025 OVC040=
200805201606 KBLI 201606Z 201612 20007KT P6SM -SHRA FEW006 OVC035
                      TEMPO 1618 5SM SHRA BR SCT004 OVC010 FM1800
                       18010KT P6SM VCSH SCT020 BKN035 FM2100 19009KT
                       P6SM VCSH SCT035 BKN050 FM0400 18008KT P6SM
                       VCSH BKN030 BKN050=
200805201120 TAF KBLI 201120Z 201212 20007KT P6SM -SHRA FEW006 OVC035
                      TEMPO 1214 5SM SHRA BR SCT004 OVC015 FM1400
                       18010KT P6SM VCSH SCT020 BKN035 FM2100 19009KT
                       P6SM VCSH SCT035 BKN050 FM0400 18008KT P6SM
                       VCSH BKN030 BKN050=
200805201028 KBLI 201028Z 201006 19008KT P6SM -SHRA SCT015 OVC030
                      TEMPO 1013 3SM SHRA BR SCT004 OVC015 FM1600
                       18010KT P6SM VCSH SCT020 BKN035 FM2100 19009KT
                       P6SM VCSH SCT035 BKN050=
200805200822 KBLI 200822Z 200806 18010KT P6SM -RA BKN017 BKN025 BKN100 FM1600
                       18010KT P6SM VCSH SCT020 BKN035 FM2100 19009KT
                       P6SM VCSH SCT035 BKN050=
200805200520 TAF KBLI 200520Z 200606 VRB04KT P6SM BKN100 BKN120 FM0900 17010KT
                       5SM -RA BR SCT015 OVC025 FM1600 18010KT
                       P6SM VCSH SCT020 BKN035 FM2100 19009KT P6SM
                       VCSH SCT035 BKN050=
200805200431 TAF AMD KBLI 200431Z 200524 36004KT P6SM BKN090 OVC110 FM0700 17010KT
                       5SM -RA BR SCT015 OVC025 FM1200 19006KT
                       P6SM -SHRA SCT015 BKN025 OVC040 FM1700 18010KT
                       P6SM VCSH SCT020 BKN035 FM2100 19009KT P6SM
                       VCSH SCT035 BKN050=
200805192358 KBLI 192358Z 200024 18008KT P6SM -RA SCT025 BKN045
                      TEMPO 0004 4SM -RA BR BKN025 OVC045 FM0400
                       16012KT P6SM -RA OVC040 FM0700 17014KT 5SM
                       -RA BR SCT015 OVC025 FM1200 19006KT P6SM
                       -SHRA SCT015 BKN025 OVC040 FM1700 18010KT
                       P6SM VCSH SCT020 BKN035 FM2100 19009KT P6SM
                       VCSH SCT035 BKN050=
200805192330 TAF KBLI 192330Z 200024 18008KT P6SM -RA SCT045 OVC080 FM0400 16012KT
                       P6SM -RA OVC040 FM0700 17014KT 5SM -RA BR
                       SCT015 OVC025 FM1200 19006KT P6SM -SHRA
                       SCT015 BKN025 OVC040 FM1700 18010KT P6SM
                       VCSH SCT020 BKN035 FM2100 19009KT P6SM VCSH
                       SCT035 BKN050=
200805192300 KBLI 200431Z 200524 36004KT P6SM BKN090 OVC110 FM0700 17010KT 5SM
                       -RA BR SCT015 OVC025 FM1200 19006KT P6SM
                       -SHRA SCT015 BKN025 OVC040 FM1700 18010KT
                       P6SM VCSH SCT020 BKN035 FM2100 19009KT P6SM
                       VCSH SCT035 BKN050=
200805191741 TAF KBLI 191741Z 191818 17006KT P6SM OVC080
                      TEMPO 1822 -RA FM2200 18008KT P6SM VCSH OVC050
                       FM0200 16012KT P6SM -RA OVC040 FM0700 17014KT
                       5SM -RA BR SCT015 OVC025 FM1200 19006KT
                       P6SM -SHRA SCT015 BKN025 OVC040 FM1700 18010KT
                       P6SM VCSH SCT020 BKN035=
200805191227 KBLI 191227Z 191212 18011KT P6SM SCT050 OVC110 FM2300 18008KT P6SM
                       BKN040 OVC070 FM0200 16012KT P6SM -RA OVC040
                       FM1000 15014KT P6SM -RA OVC030=
200805191120 TAF KBLI 191120Z 191212 17012G17KT P6SM BKN100 FM2300 18008KT P6SM
                       BKN040 OVC070 FM0200 16012KT P6SM -RA OVC040
                       FM1000 15014KT P6SM -RA OVC030=
200805190520 TAF KBLI 190520Z 190606 18008KT P6SM BKN120 BKN200 FM1200 15008KT
                       P6SM BKN080 BKN200 FM2300 19008KT P6SM BKN040
                       OVC070 FM0200 18008KT P6SM -RA OVC040=
200805182338 TAF KBLI 182338Z 190024 19008KT P6SM BKN250 FM1200 15008KT P6SM
                       BKN080 BKN200 FM2300 15008KT P6SM BKN040
                       OVC070
                      PROB30 2324 -RA=
200805181737 TAF KBLI 181737Z 181818 19010KT P6SM SCT250 FM1200 15008KT P6SM
                       BKN080 BKN200=
200805181120 TAF KBLI 181120Z 181212 18009KT P6SM FEW010 BKN200 FM1800 20008KT
                       P6SM SCT200 FM0800 18008KT P6SM OVC080=
200805180524 TAF KBLI 180524Z 180606 18012G18KT P6SM SCT200 FM0800 18008KT P6SM
                       SCT200 FM1200 18006KT P6SM SCT012 BKN200
                       FM1800 20008KT P6SM SCT200=
200805172320 TAF KBLI 172320Z 180024 20010KT P6SM BKN200 FM1200 18006KT P6SM
                       SCT012 BKN200 FM1800 20008KT P6SM SCT200=
200805171733 TAF KBLI 171733Z 171818 18008KT P6SM SCT200 FM2100 20010KT P6SM
                       SCT200 FM0400 18007KT P6SM SCT200
                      TEMPO 1216 BKN012=
200805171728 TAF KBLI 171728Z 171818 18008KT P6SM SCT200 FM2100 20010KT P6SM
                       SCT200 FM0400 18007KT P6SM SCT200
                      TEMPO 1216 SCT015=
200805171120 TAF KBLI 171120Z 171212 00000KT P6SM SKC FM1500 18008KT P6SM SCT200
                       FM2200 20012KT P6SM SCT200 FM0400 18008KT
                       P6SM SCT200=
200805170528 TAF KBLI 170528Z 170606 00000KT P6SM SCT200 FM1400 18008KT P6SM
                       SCT200 FM2200 20012KT P6SM SCT200 FM0400
                       18008KT P6SM SCT200=
200805162326 TAF KBLI 162326Z 170024 32008KT P6SM SKC FM0400 VRB03KT P6SM SKC
                       FM1400 19008KT P6SM SKC=
200805161722 TAF KBLI 161722Z 161818 32008KT P6SM SKC FM0400 VRB03KT P6SM SKC
                       FM1400 19008KT P6SM SKC=
200805161402 KBLI 161402Z 161412 02005KT P6SM SKC FM2100 30005KT P6SM SKC=
200805161120 TAF KBLI 161120Z 161212 00000KT 2SM BR FEW008
                      TEMPO 1216 1/2SM FG BKN001 BKN007 FM1700
                       02005KT P6SM SKC FM2100 30005KT P6SM SKC=
200805161032 KBLI 161032Z 161106 00000KT 1/2SM FG BKN001 OVC007 FM1800 30007KT
                       P6SM SKC=
200805160524 TAF KBLI 160524Z 160606 00000KT P6SM SKC FM1800 30007KT P6SM SKC=
200805152320 TAF KBLI 152320Z 160024 29008KT P6SM SKC FM0400 36004KT P6SM SKC
                       FM1800 30007KT P6SM SKC=
200805151728 TAF KBLI 151728Z 151818 36006KT P6SM BKN028 FM1900 36006KT P6SM
                       SCT028 FM2000 32007KT P6SM SKC FM0300 VRB03KT
                       P6SM SKC=
200805151434 KBLI 151434Z 151512 36006KT P6SM BKN005 OVC026 FM1600 36006KT P6SM
                       SCT006 OVC026 FM1800 36005KT P6SM BKN026
                       FM1900 31007KT P6SM SKC=
200805151123 TAF KBLI 151123Z 151212 33003KT P6SM SCT006 OVC015
                      TEMPO 1215 3SM BR OVC001 FM1800 31005KT P6SM
                       BKN015 FM2100 31004KT P6SM SKC=
200805150534 TAF KBLI 150534Z 150606 00000KT P6SM OVC008 FM1000 01004KT P6SM
                       VCFG SCT015 FM1800 31005KT P6SM SKC=
200805150357 TAF AMD KBLI 150357Z 150424 00000KT P6SM OVC012 FM1000 01004KT
                       P6SM VCFG SCT015 FM1800 31005KT P6SM SKC=
200805150103 TAF AMD KBLI 150103Z 150124 17006KT P6SM BKN020 BKN040 FM0300 VRB03KT
                       P6SM SCT040 FM1500 01004KT P6SM FEW010 FM1800
                       31005KT P6SM SKC=
200805142321 TAF KBLI 142321Z 150024 17006KT P6SM BKN006 OVC020 FM0300 VRB03KT
                       P6SM OVC008 FM1500 01004KT P6SM FEW010 FM1800
                       31005KT P6SM SKC=
200805142300 KBLI 150357Z 150424 00000KT P6SM OVC012 FM1000 01004KT P6SM VCFG
                       SCT015 FM1800 31005KT P6SM SKC=
200805141729 TAF KBLI 141729Z 141818 18007KT 2SM -RA BR BKN008 OVC012
                      TEMPO 1820 1SM -RA BR OVC003 FM2200 VRB03KT
                       P6SM BKN018 BKN050 FM0200 VRB03KT P6SM SCT020
                       FM1500 03004KT P6SM SKC=
200805141446 KBLI 141446Z 141512 17009KT 2SM -RA BR BKN003 OVC017 FM1800 17005KT
                       P6SM VCSH OVC025 FM2300 VRB03KT P6SM SCT035
                       BKN050 FM0200 VRB03KT P6SM SCT050 FM0900
                       19003KT P6SM SKC=
200805141129 TAF KBLI 141129Z 141212 17004KT 5SM -RA BR SCT007 OVC018 FM1800
                       17005KT P6SM VCSH OVC025 FM2300 VRB03KT
                       P6SM SCT035 BKN050 FM0200 VRB03KT P6SM SCT050
                       FM0900 19003KT P6SM SKC=
200805140810 KBLI 140810Z 140806 00000KT 3SM -RA BR BKN003 OVC008 FM1200 17005KT
                       P6SM -SHRA SCT015 OVC025 FM1800 17005KT
                       P6SM BKN035 FM2300 VRB03KT P6SM SCT035 BKN050
                       FM0200 VRB03KT P6SM SCT050=
200805140528 TAF KBLI 140528Z 140606 12003KT 4SM -RA BR FEW013 SCT021 OVC030
                       FM1200 17005KT P6SM VCSH SCT025 BKN035 FM1800
                       17005KT P6SM BKN035 FM2300 VRB03KT P6SM
                       SCT035 BKN050 FM0200 VRB03KT P6SM SCT050=
200805132337 TAF KBLI 132337Z 140024 VRB03KT 4SM -RA BR OVC020
                      TEMPO 0004 2SM -RA BR OVC013 FM1200 17005KT
                       P6SM VCSH SCT025 BKN035 FM1800 17005KT P6SM
                       BKN035 FM2300 VRB03KT P6SM SCT035 BKN050=
200805132036 KBLI 132036Z 132118 15005KT P6SM -RA OVC023 FM2200 21008KT P6SM
                       VCSH BKN025 OVC035 FM0600 19003KT P6SM BKN025
                       FM1400 VRB03KT P6SM SCT025 BKN035=
200805131733 TAF KBLI 131733Z 131818 VRB03KT P6SM -RA BKN022 OVC040 FM1900 18005KT
                       P6SM -RA OVC018 FM2200 21008KT P6SM VCSH
                       BKN025 OVC035 FM0600 19003KT P6SM BKN025
                       FM1400 VRB03KT P6SM SCT025 BKN035=
200805131612 KBLI 131612Z 131612 00000KT P6SM -RA SCT030 OVC040 FM2300 21011KT
                       P6SM -SHRA BKN025 OVC050 FM0400 20008KT
                       P6SM VCSH BKN025 OVC045=
200805131120 TAF KBLI 131120Z 131212 00000KT P6SM OVC060 FM1600 17009KT 6SM
                       -RA BKN030 OVC050 FM2300 21011KT P6SM -SHRA
                       BKN025 OVC050 FM0400 20008KT P6SM VCSH BKN025
                       OVC045=
200805130524 TAF KBLI 130524Z 130606 00000KT P6SM SCT110 OVC200 FM1200 18006KT
                       P6SM SCT040 OVC090
                      TEMPO 1216 -RA FM1600 17009KT 6SM -RA BKN030
                       OVC050 FM2300 21011KT P6SM -SHRA BKN025
                       OVC050=
200805122322 TAF KBLI 122322Z 130024 15006KT P6SM BKN050 OVC160 FM0600 16006KT
                       P6SM BKN060 OVC100
                      PROB30 0912 -RA FM1200 18006KT P6SM SCT040
                       OVC090
                      TEMPO 1216 -RA FM1600 17009KT 6SM -RA BKN030
                       OVC050=
200805121744 TAF KBLI 121744Z 121818 17009KT P6SM SCT070 BKN250 FM2300 19009KT
                       P6SM SCT070 BKN200 FM0600 18005KT P6SM BKN080
                       OVC150
                      PROB30 0912 -RA FM1200 18006KT P6SM SCT040
                       OVC120
                      PROB30 1214 -RA FM1400 17007KT P6SM BKN045
                       OVC080
                      TEMPO 1418 -RA=
200805121123 TAF KBLI 121123Z 121212 16005KT P6SM BKN050 BKN080 FM1800 18007KT
                       P6SM SCT060 SCT200 FM2200 19009KT P6SM SCT070
                       BKN200 FM0600 18005KT P6SM BKN080 OVC150
                       PROB30 0912 -RA=
200805120520 TAF KBLI 120520Z 120606 18005KT P6SM BKN050 BKN080
                      TEMPO 1115 BKN030 FM1600 18005KT P6SM SCT060
                       SCT200 FM2200 19009KT P6SM SCT070 BKN200=
200805112320 TAF KBLI 112320Z 120024 18008KT P6SM SCT045 BKN060 FM0400 18006KT
                       P6SM BKN040 BKN070 FM1600 18008KT P6SM SCT070
                       SCT200=
200805111720 TAF KBLI 111720Z 111818 18008KT P6SM BKN035 BKN060 FM2100 18008KT
                       P6SM SCT045 BKN060 FM0400 18006KT P6SM BKN040
                       BKN070=
200805111121 TAF KBLI 111121Z 111212 18009KT P6SM VCSH SCT030 BKN045
                      TEMPO 1216 -SHRA BKN030 FM1600 18011KT P6SM
                       VCSH SCT030 BKN050 FM2000 18011KT P6SM BKN040
                       BKN060 FM0400 18007KT P6SM BKN040 BKN070=
200805110521 TAF KBLI 110521Z 110606 18009KT P6SM -SHRA SCT012 BKN030
                      TEMPO 0610 3SM SHRA BR BKN007 OVC025 FM1000
                       18010KT P6SM VCSH BKN022 BKN040 FM1400 18011KT
                       P6SM VCSH BKN030 BKN050 FM1800 18012KT P6SM
                       BKN040 BKN060 FM0000 18008KT P6SM BKN045
                       BKN070=
200805102320 TAF KBLI 102320Z 110024 VRB05KT P6SM VCSH OVC040
                      TEMPO 0004 -SHRA OVC030 FM0400 18010KT P6SM
                       OVC025 FM1800 18010KT P6SM BKN040 BKN060=
200805101733 TAF KBLI 101733Z 101818 17013KT P6SM OVC040
                      TEMPO 1822 -RA FM2200 19013KT P6SM -SHRA
                       BKN025 OVC040 FM0800 19013KT P6SM VCSH BKN040
                       BKN060 FM1200 18010KT P6SM BKN040 BKN060=
200805101121 TAF KBLI 101121Z 101212 17008KT P6SM OVC070 FM1800 17013KT P6SM
                       OVC040
                      TEMPO 1822 -RA FM2200 19013KT P6SM -SHRA
                       BKN025 OVC040 FM0600 19013KT P6SM BKN040
                       BKN090
                      PROB30 0612 -SHRA=
200805100537 TAF KBLI 100537Z 100606 VRB03KT P6SM FEW110 OVC200 FM0900 14006KT
                       P6SM FEW070 OVC110 FM1500 17008KT P6SM FEW040
                       OVC070
                      PROB30 1519 -RA FM1900 17013KT P6SM -RA SCT025
                       OVC040
                      TEMPO 2024 BKN025 OVC040 FM0000 20013KT P6SM
                       -SHRA BKN025 OVC040=
200805092320 TAF KBLI 092320Z 100024 18006KT P6SM FEW050 SCT200 FM0300 17004KT
                       P6SM FEW120 BKN200 FM0900 14006KT P6SM SCT050
                       OVC120 FM1600 15004KT P6SM BKN050 FM1900
                       18008KT P6SM VCSH SCT025 BKN035
                      TEMPO 2022 -SHRA BKN025=
200805091720 TAF KBLI 091720Z 091818 18005KT P6SM SKC FM0200 17006KT P6SM FEW120
                       BKN200 FM0900 14006KT P6SM SCT050 OVC120
                       FM1600 15004KT P6SM BKN050=
200805091134 TAF KBLI 091134Z 091212 VRB03KT P6SM SCT050 FM1800 20008KT P6SM
                       SCT200 FM0200 17006KT P6SM FEW120 BKN200
                       FM0900 14006KT P6SM SCT050 OVC120=
200805090535 TAF KBLI 090535Z 090606 VRB03KT P6SM FEW060 FM1800 19008KT P6SM
                       SCT200=
200805082332 TAF KBLI 082332Z 090024 17008KT P6SM SCT050 FM0600 15004KT P6SM
                       BKN070 FM1700 19006KT P6SM SKC=
200805081738 TAF KBLI 081738Z 081818 16007KT P6SM VCSH OVC020 FM2200 18009KT
                       P6SM SCT030 BKN050 FM0000 19007KT P6SM SCT060
                       FM0800 15004KT P6SM BKN070 FM1600 17005KT
                       P6SM SKC=
200805081345 KBLI 081345Z 081412 16007KT P6SM SCT015 OVC040
                      TEMPO 1417 -SHRA BKN015 OVC040 FM1800 19011KT
                       P6SM BKN050 BKN200 FM2100 19011KT P6SM SCT060
                       BKN200 FM0200 17006KT P6SM SCT060 BKN200
                       FM0600 VRB04KT P6SM BKN200=
200805081120 TAF KBLI 081120Z 081212 16007KT P6SM OVC040 FM1800 19011KT P6SM
                       BKN050 BKN200 FM2100 19011KT P6SM SCT060
                       BKN200 FM0200 17006KT P6SM SCT060 BKN200
                       FM0600 VRB04KT P6SM BKN200=
200805081024 KBLI 081024Z 081006 17007KT P6SM OVC050 FM1800 19012KT P6SM VCSH
                       SCT028 BKN050 BKN200 FM2100 19012KT P6SM
                       BKN060 BKN200 FM0200 19007KT P6SM BKN060
                       BKN200=
200805080535 TAF KBLI 080535Z 080606 17009KT P6SM SCT025 OVC050
                      TEMPO 0609 -SHRA BKN025 OVC040 FM0900 17009KT
                       P6SM VCSH BKN025 OVC040 FM1800 19012KT P6SM
                       VCSH SCT028 BKN050 BKN200 FM2100 19012KT
                       P6SM BKN060 BKN200 FM0200 19007KT P6SM BKN060
                       BKN200=
200805080234 KBLI 080234Z 080324 18009KT P6SM SKC FM0600 18008KT P6SM BKN040
                       FM0900 18009KT P6SM SCT018 BKN030 FM1800
                       18010KT P6SM SCT030 FM2100 19009KT P6SM
                       SCT090=
200805072336 TAF KBLI 072336Z 080024 19008KT P6SM SCT060 FM0600 18008KT P6SM
                       BKN040 FM0900 18009KT P6SM SCT018 BKN030
                       FM1800 18010KT P6SM SCT030 FM2100 19009KT
                       P6SM SCT090=
200805072300 KBLI 080234Z 080324 18009KT P6SM SKC FM0600 18008KT P6SM BKN040
                       FM0900 18009KT P6SM SCT018 BKN030 FM1800
                       18010KT P6SM SCT030 FM2100 19009KT P6SM
                       SCT090=
200805071739 TAF KBLI 071739Z 071818 17009KT P6SM SCT025 BKN035 FM2200 19008KT
                       P6SM SCT040 FM0400 18008KT P6SM BKN040 FM0800
                       18009KT P6SM SCT018 BKN030=
200805071141 TAF KBLI 071141Z 071212 17009KT P6SM OVC020 FM1900 20012KT P6SM
                       BKN045 BKN200 FM2000 20014G22KT P6SM SCT025
                       BKN045 FM0100 20010KT P6SM SCT045 BKN130
                       FM0400 20008KT P6SM BKN080=
200805070539 TAF KBLI 070539Z 070606 16009KT P6SM SCT045
                      TEMPO 0610 BKN045 FM1000 18010KT P6SM OVC022
                       FM1900 20012KT P6SM BKN045 BKN200=
200805062333 TAF KBLI 062333Z 070024 18010G18KT P6SM SCT200 FM0400 17009KT P6SM
                       SCT200 FM0900 17005KT P6SM OVC022 FM1900
                       20010KT P6SM SCT200=
200805061730 TAF KBLI 061730Z 061818 19008KT P6SM OVC018 FM2000 19008KT P6SM
                       BKN020 OVC050
                      TEMPO 2022 SCT020 BKN050 FM0000 18009KT P6SM
                       BKN070=
200805061140 TAF KBLI 061140Z 061212 17004KT P6SM SCT008 OVC080
                      TEMPO 1216 OVC008 FM1800 19008KT P6SM BKN045
                       OVC130 FM2000 19009KT P6SM SCT045 BKN130=
200805060539 TAF KBLI 060539Z 060606 18009KT P6SM SCT090 FM1300 18006KT P6SM
                       SCT013 BKN060 OVC130 FM1700 19008KT P6SM
                       BKN045 OVC130 FM2100 19009KT P6SM SCT045
                       BKN130=
200805052320 TAF KBLI 052320Z 060024 18007KT P6SM SCT080 BKN200 FM0400 19005KT
                       P6SM SCT050 BKN200 FM1500 18004KT P6SM SCT025
                       BKN200 FM1800 20007KT P6SM BKN200=
200805051742 TAF KBLI 051742Z 051818 VRB03KT P6SM BKN100 BKN250 FM2100 23007KT
                       P6SM BKN100 BKN250 FM0100 19005KT P6SM SCT050
                       SCT120 BKN250=
200805051145 TAF KBLI 051145Z 051212 00000KT P6SM BKN120 OVC200 FM1700 20008KT
                       P6SM SCT100 BKN250 FM0300 19008KT P6SM SCT250=
200805050539 TAF KBLI 050539Z 050606 00000KT P6SM BKN200 FM1100 18007KT P6SM
                       BKN120 OVC200 FM1900 19006KT P6SM SCT100
                       BKN250=
200805042320 TAF KBLI 042320Z 050024 VRB04KT P6SM BKN200 FM0400 20005KT P6SM
                       BKN200 FM1100 18007KT P6SM BKN110 FM1900
                       19006KT P6SM SCT080=
200805042031 KBLI 042031Z 042118 31006KT P6SM SCT021 SCT250
                      TEMPO 2122 BKN021 BKN250 FM0400 20005KT P6SM
                       SCT250 FM1100 18007KT P6SM BKN120=
200805041742 KBLI 041742Z 041818 31006KT P6SM BKN015 BKN027 FM2000 32005KT P6SM
                       SCT040 SCT250 FM0400 20005KT P6SM SCT250
                       FM1100 18007KT P6SM BKN120=
200805041720 TAF KBLI 041720Z 041818 00000KT P6SM SCT010 FM2000 32005KT P6SM
                       SCT250 FM0400 20005KT P6SM SCT250 FM1100
                       18007KT P6SM BKN120=
200805041337 KBLI 041337Z 041412 00000KT 1/4SM FG SCT001 BKN014
                      TEMPO 1416 2SM BR FM1700 19005KT P6SM SCT030
                       FM2000 32005KT P6SM SCT250 FM0400 20005KT
                       P6SM SCT250=
200805041137 TAF KBLI 041137Z 041212 00000KT P6SM SCT023
                      TEMPO 1216 2SM BR BKN023 FM1700 19005KT P6SM
                       SCT030 FM2000 32005KT P6SM SCT250 FM0400
                       20005KT P6SM SCT250=
200805040527 TAF KBLI 040527Z 040606 00000KT P6SM SCT060 BKN120
                      TEMPO 0610 BKN060 BKN120 FM1000 00000KT P6SM
                       SCT007
                      TEMPO 1115 BKN007 FM1900 32005KT P6SM SCT250=
200805032320 TAF KBLI 032320Z 040024 25005KT P6SM VCSH SCT005 OVC012 FM0100
                       19004KT P6SM BKN025 BKN040 BKN120 FM0500
                       VRB03KT P6SM SCT045 SCT120 FM1900 32005KT
                       P6SM SCT250=
200805032223 KBLI 032223Z 032218 28004KT 3SM -SHRA BKN007 OVC013 FM0000 19004KT
                       P6SM VCSH SCT015 BKN030 BKN045 FM0200 19004KT
                       P6SM BKN045 BKN120 FM0400 19004KT P6SM SCT045
                       SCT120 FM1000 18006KT P6SM SCT040=
200805032003 KBLI 032003Z 032018 00000KT 4SM -RA BR BKN007 OVC020 FM2200 19004KT
                       P6SM VCSH SCT015 BKN035 FM0000 19004KT P6SM
                       SCT040 FM0400 19004KT P6SM SCT060 FM1000
                       18006KT P6SM SCT040=
200805031720 TAF KBLI 031720Z 031818 18005KT P6SM -RA SCT005 BKN035
                      TEMPO 1820 3SM -RA BR OVC005 FM2000 19008KT
                       P6SM SCT025 BKN040 FM0400 19004KT P6SM SCT060
                       FM1000 18006KT P6SM SCT040=
200805031551 TAF KBLI 031551Z 031612 18004KT 3SM -RA BR BKN006 BKN029 OVC050
                       TEMPO 1618 P6SM NSW SCT006 BKN025 OVC045
                       FM1800 19008KT P6SM VCSH SCT025 BKN045 FM2000
                       19008KT P6SM SCT030 BKN050 FM0400 19004KT
                       P6SM SCT060 BKN120 FM1000 19003KT P6SM SCT120
                       BKN250=
200805031550 KBLI 031550Z 031612 18004KT 3SM -RA BR BKN006 BKN029 OVC050
                      TEMPO 1618 SCT006 BKN025 OVC045 FM1800 19008KT
                       P6SM VCSH SCT025 BKN045 FM2000 19008KT P6SM
                       SCT030 BKN050 FM0400 19004KT P6SM SCT060
                       BKN120 FM1000 19003KT P6SM SCT120 BKN250=
200805031129 TAF KBLI 031129Z 031212 00000KT P6SM VCSH SCT040 OVC060
                      TEMPO 1418 BKN025 OVC045 FM1800 19008KT P6SM
                       VCSH SCT025 BKN045 FM2000 19008KT P6SM SCT030
                       BKN050 FM0400 19004KT P6SM SCT060 BKN120
                       FM1000 19003KT P6SM SCT120 BKN250=
200805030537 TAF KBLI 030537Z 030606 36005KT P6SM SCT040 OVC070
                      TEMPO 0610 -RA BKN040 OVC070 FM1000 16006KT
                       P6SM VCSH SCT025 OVC045
                      TEMPO 1418 BKN025 OVC045 FM1800 19008KT P6SM
                       VCSH SCT025 BKN045 FM2000 19008KT P6SM SCT030
                       BKN050=
200805022320 TAF KBLI 022320Z 030024 27004KT P6SM OVC070 FM0400 20006KT P6SM
                       -SHRA SCT025 OVC040 FM1000 18008KT P6SM
                       VCSH SCT015 BKN025 FM1800 22006KT P6SM SCT040
                       TEMPO 1821 BKN040=
200805021724 TAF KBLI 021724Z 021818 VRB03KT P6SM OVC090 FM2200 18008KT P6SM
                       VCSH BKN050 OVC070 FM0200 18008KT P6SM -SHRA
                       SCT025 OVC040 FM1000 18008KT P6SM VCSH SCT015
                       BKN025=
200805021647 KBLI 021647Z 021712 VRB03KT P6SM OVC090 FM2200 18008KT P6SM VCSH
                       BKN040 OVC070 FM0200 18008KT P6SM -SHRA
                       SCT025 OVC040 FM0900 18008KT P6SM VCSH SCT015
                       BKN030=
200805021120 TAF KBLI 021120Z 021212 02005KT P6SM BKN120 OVC200 FM1600 14008KT
                       P6SM BKN070 OVC120 FM2200 18010KT P6SM VCSH
                       BKN040 OVC070 FM0200 18012KT P6SM -RA OVC040=
200805020520 TAF KBLI 020520Z 020606 VRB04KT P6SM SCT120 BKN200 FM1000 14008KT
                       P6SM BKN120 OVC200 FM1600 14008KT P6SM BKN070
                       OVC120 FM2200 18010KT P6SM VCSH BKN040 OVC070
                       FM0200 18012KT P6SM -RA OVC040=
200805012322 TAF KBLI 012322Z 020024 15008KT P6SM SCT050 BKN060 FM0400 11005KT
                       P6SM SCT100 BKN250 FM1200 12010KT P6SM BKN070
                       BKN200 FM2100 18009KT P6SM VCSH BKN040 OVC060=
200805011730 TAF KBLI 011730Z 011818 16008KT P6SM SCT040 BKN050 BKN100 FM2000
                       18008KT P6SM SCT050 BKN100 FM0800 13010KT
                       P6SM BKN050 OVC100 FM1500 12010KT P6SM OVC040=
200805011120 TAF KBLI 011120Z 011212 15007KT P6SM SCT020 BKN080
                      TEMPO 1216 BKN020 OVC050 FM1800 18008KT P6SM
                       SCT040 BKN150 FM2200 18008KT P6SM SCT040
                       OVC070 FM0800 18010KT P6SM -RA OVC040=
200805011002 KBLI 011002Z 011006 15007KT P6SM SCT020 BKN080
                      TEMPO 1216 BKN020 OVC050 FM1800 18008KT P6SM
                       SCT040 BKN150=
200805010520 TAF KBLI 010520Z 010606 15008KT P6SM SCT040 BKN080
                      TEMPO 0610 BKN040 FM1000 16008KT P6SM BKN030
                       BKN200 FM1800 18008KT P6SM SCT040 BKN150=