##########################################################
# Query made at 02/21/2025 23:22:16 UTC
# Time interval: from 08/01/2008 00:00  to 08/31/2008 23:59  UTC
##########################################################

##########################################################
# KBLI, Bellingham, Bellingham International Airport (United States)
# WMO index: -----. WIGOS ID: Unknown
# Latitude 48-47-58N. Longitude 122-32-21W. Altitude 48 m.
##########################################################

###################################
#  METAR/SPECI from KBLI
###################################
200808312353 METAR KBLI 312353Z 25006KT 10SM CLR 16/08 A2999 RMK AO2 SLP164 T01610083 10167 20128 56003=
200808312253 METAR KBLI 312253Z VRB03KT 10SM CLR 16/07 A3000 RMK AO2 SLP165 T01610067=
200808312153 METAR KBLI 312153Z 27008KT 10SM FEW027 BKN038 17/09 A3000 RMK AO2 SLP166 T01670089=
200808312053 METAR KBLI 312053Z 27008KT 10SM SCT021 SCT040 16/09 A3000 RMK AO2 SLP167 T01560094 57001=
200808312018 SPECI KBLI 312018Z VRB05KT 10SM SCT018 SCT025 15/09 A3000 RMK AO2=
200808312018 SPECI KBLI 312018Z VRB05KT 10SM SCT018 SCT025 15/09 A3000 RMK AO2=
200808312010 SPECI KBLI 312010Z 00000KT 10SM BKN018 14/09 A3000 RMK AO2=
200808312010 SPECI KBLI 312010Z 00000KT 10SM BKN018 14/09 A3000 RMK AO2=
200808311953 METAR KBLI 311953Z VRB04KT 10SM SCT016 SCT021 14/09 A3000 RMK AO2 SLP167 T01390094=
200808311853 METAR KBLI 311853Z VRB04KT 10SM BKN020 BKN027 13/09 A3001 RMK AO2 SLP168 T01330089=
200808311753 METAR KBLI 311753Z VRB03KT 10SM BKN015 OVC075 13/09 A3001 RMK AO2 SLP168 T01280094 10133 20078 51007=
200808311653 METAR KBLI 311653Z 16004KT 10SM OVC017 12/09 A3001 RMK AO2 SLP168 T01170089=
200808311553 METAR KBLI 311553Z 17004KT 10SM OVC017 12/09 A2999 RMK AO2 SLP164 T01170089=
200808311453 METAR KBLI 311453Z 00000KT 10SM OVC017 11/09 A2999 RMK AO2 SLP162 T01060089 53006=
200808311353 METAR KBLI 311353Z 00000KT 10SM OVC080 09/07 A2998 RMK AO2 SLP157 T00890072=
200808311312 SPECI KBLI 311312Z AUTO 19003KT 10SM FEW020 SCT029 OVC060 09/08 A2997 RMK AO2=
200808311312 SPECI KBLI 311312Z AUTO 19003KT 10SM FEW020 SCT029 OVC060 09/08 A2997 RMK AO2=
200808311253 METAR KBLI 311253Z AUTO 20003KT 10SM BKN020 OVC029 09/08 A2997 RMK AO2 SLP155 T00890078=
200808311227 SPECI KBLI 311227Z AUTO 00000KT 10SM BKN020 OVC065 08/07 A2997 RMK AO2=
200808311227 SPECI KBLI 311227Z AUTO 00000KT 10SM BKN020 OVC065 08/07 A2997 RMK AO2=
200808311153 METAR KBLI 311153Z AUTO 00000KT 10SM BKN065 09/07 A2997 RMK AO2 SLP155 T00890072 10106 20067 52002=
200808311053 METAR KBLI 311053Z AUTO 00000KT 10SM OVC060 08/07 A2997 RMK AO2 SLP155 T00780072=
200808310953 METAR KBLI 310953Z AUTO 00000KT 10SM SCT055 07/06 A2996 RMK AO2 SLP154 T00670056=
200808310853 METAR KBLI 310853Z AUTO 18003KT 10SM SCT055 10/08 A2996 RMK AO2 SLP153 T01000078 51004=
200808310753 METAR KBLI 310753Z AUTO 00000KT 10SM FEW055 09/07 A2996 RMK AO2 SLP153 T00890072 401670078=
200808310653 METAR KBLI 310653Z AUTO 16003KT 10SM FEW055 09/08 A2995 RMK AO2 SLP150 T00940078=
200808310553 METAR KBLI 310553Z AUTO 17003KT 10SM SCT055 10/08 A2995 RMK AO2 SLP149 T01000078 10161 20089 51003=
200808310453 METAR KBLI 310453Z 17003KT 10SM CLR 10/07 A2995 RMK AO2 SLP149 T01000072=
200808310353 METAR KBLI 310353Z 17004KT 10SM CLR 12/07 A2995 RMK AO2 SLP149 T01220072=
200808310253 METAR KBLI 310253Z 18005KT 10SM CLR 13/08 A2994 RMK AO2 SLP146 T01330078 56006=
200808310153 METAR KBLI 310153Z 18003KT 10SM CLR 14/08 A2995 RMK AO2 SLP147 T01440078=
200808310053 METAR KBLI 310053Z 18004KT 10SM CLR 16/07 A2995 RMK AO2 SLP150 T01560067=
200808302353 METAR KBLI 302353Z 25003KT 10SM CLR 16/06 A2996 RMK AO2 SLP152 T01560056 10167 20139 58007=
200808302253 METAR KBLI 302253Z VRB03KT 10SM CLR 16/07 A2997 RMK AO2 SLP155 T01610067=
200808302153 METAR KBLI 302153Z VRB06KT 10SM CLR 16/06 A2998 RMK AO2 SLP159 T01560061=
200808302053 METAR KBLI 302053Z VRB06KT 10SM CLR 16/06 A2998 RMK AO2 SLP160 T01610061 58003=
200808301953 METAR KBLI 301953Z VRB03KT 10SM BKN032 14/07 A2999 RMK AO2 SLP161 T01440067=
200808301853 METAR KBLI 301853Z 19004KT 10SM FEW030 BKN036 14/07 A2999 RMK AO2 SLP162 T01390067=
200808301753 METAR KBLI 301753Z 17006KT 10SM FEW028 OVC036 14/07 A2999 RMK AO2 SLP162 T01390067 10139 20083 51006=
200808301653 METAR KBLI 301653Z 16005KT 10SM OVC036 13/08 A2998 RMK AO2 SLP161 T01280083=
200808301553 METAR KBLI 301553Z 18007KT 10SM OVC034 12/09 A2998 RMK AO2 SLP159 T01170089=
200808301453 METAR KBLI 301453Z 17006KT 10SM OVC036 11/08 A2997 RMK AO2 SLP156 T01110083 53010=
200808301353 METAR KBLI 301353Z 16004KT 10SM FEW032 BKN070 09/08 A2996 RMK AO2 SLP153 T00890078=
200808301253 METAR KBLI 301253Z AUTO 15004KT 10SM SCT070 09/07 A2995 RMK AO2 SLP148 T00890072=
200808301153 METAR KBLI 301153Z AUTO 19003KT 10SM BKN070 10/08 A2994 RMK AO2 SLP146 70021 T01000078 10122 20100 53004=
200808301053 METAR KBLI 301053Z AUTO 18005KT 10SM OVC070 11/08 A2993 RMK AO2 SLP144 T01110078=
200808300953 METAR KBLI 300953Z AUTO 16005KT 10SM OVC070 11/08 A2993 RMK AO2 SLP142 T01110083=
200808300853 METAR KBLI 300853Z AUTO 18006KT 10SM BKN070 12/08 A2993 RMK AO2 SLP142 T01170083 50005=
200808300753 METAR KBLI 300753Z AUTO 18005KT 10SM OVC065 12/08 A2993 RMK AO2 SLP142 T01170083 401720117=
200808300653 METAR KBLI 300653Z AUTO 17007KT 10SM OVC060 12/08 A2993 RMK AO2 SLP139 T01220083=
200808300553 METAR KBLI 300553Z AUTO VRB03KT 10SM SCT050 12/08 A2991 RMK AO2 SLP136 T01220083 10172 20122 51016=
200808300453 METAR KBLI 300453Z 18007KT 10SM BKN048 13/09 A2991 RMK AO2 SLP133 T01330089=
200808300353 METAR KBLI 300353Z 19004KT 10SM FEW034 BKN044 15/12 A2990 RMK AO2 SLP129 T01500117=
200808300253 METAR KBLI 300253Z VRB04KT 10SM FEW045 16/12 A2987 RMK AO2 SLP119 T01560117 53008=
200808300153 METAR KBLI 300153Z 17007KT 10SM CLR 16/13 A2985 RMK AO2 SLP115 T01610128=
200808300053 METAR KBLI 300053Z 18004KT 10SM CLR 17/14 A2985 RMK AO2 SLP114 T01720139=
200808292353 METAR KBLI 292353Z 18006KT 10SM SCT075 17/14 A2984 RMK AO2 SLP111 60016 T01720139 10172 20156 58001=
200808292253 METAR KBLI 292253Z 18005KT 10SM OVC060 17/14 A2984 RMK AO2 RAE20 SLP110 P0006 T01670144=
200808292227 SPECI KBLI 292227Z 17008KT 10SM FEW008 SCT014 OVC060 17/14 A2984 RMK AO2 RAE20 P0006=
200808292227 SPECI KBLI 292227Z 17008KT 10SM FEW008 SCT014 OVC060 17/14 A2984 RMK AO2 RAE20 P0006=
200808292211 SPECI KBLI 292211Z VRB06KT 7SM -RA SCT010 BKN020 OVC050 16/14 A2984 RMK AO2 P0006=
200808292211 SPECI KBLI 292211Z VRB06KT 7SM -RA SCT010 BKN020 OVC050 16/14 A2984 RMK AO2 P0006=
200808292201 SPECI KBLI 292201Z 17007KT 4SM +RA BR FEW008 BKN022 OVC041 16/14 A2985 RMK AO2 P0005=
200808292201 SPECI KBLI 292201Z 17007KT 4SM +RA BR FEW008 BKN022 OVC041 16/14 A2985 RMK AO2 P0005=
200808292155 SPECI KBLI 292155Z 17008G14KT 2SM RA BR FEW012 BKN020 OVC041 17/14 A2985 RMK AO2 VIS 1 1/4V3 P0001=
200808292155 SPECI KBLI 292155Z 17008G14KT 2SM RA BR FEW012 BKN020 OVC041 17/14 A2985 RMK AO2 VIS 1 1/4V3 P0001=
200808292153 METAR KBLI 292153Z 17010G14KT 4SM +RA BR SCT012 SCT020 OVC041 17/14 A2985 RMK AO2 SLP113 P0006 T01670144=
200808292053 METAR KBLI 292053Z 20005KT 10SM -RA OVC035 16/15 A2984 RMK AO2 RAB49 SLP112 P0000 60004 T01610150 56009=
200808292025 SPECI KBLI 292025Z 19005KT 10SM SCT028 OVC037 17/15 A2984 RMK AO2=
200808292025 SPECI KBLI 292025Z 19005KT 10SM SCT028 OVC037 17/15 A2984 RMK AO2=
200808292000 SPECI KBLI 292000Z 17006KT 10SM SCT016 BKN021 OVC026 16/15 A2985 RMK AO2=
200808292000 SPECI KBLI 292000Z 17006KT 10SM SCT016 BKN021 OVC026 16/15 A2985 RMK AO2=
200808291953 METAR KBLI 291953Z 18004KT 10SM FEW005 BKN014 OVC021 16/15 A2985 RMK AO2 RAE46 SLP113 P0002 T01610150=
200808291907 SPECI KBLI 291907Z 18007KT 5SM -RA BR FEW005 BKN010 OVC014 16/15 A2985 RMK AO2 CIG 009V012 P0000=
200808291907 SPECI KBLI 291907Z 18007KT 5SM -RA BR FEW005 BKN010 OVC014 16/15 A2985 RMK AO2 CIG 009V012 P0000=
200808291853 METAR KBLI 291853Z 17006KT 5SM -RA BR BKN007 OVC010 16/15 A2985 RMK AO2 CIG 004V010 SLP115 P0002 T01610150=
200808291753 METAR KBLI 291753Z VRB03KT 8SM -RA BKN010 OVC016 16/15 A2987 RMK AO2 RAE1658B32 CIG 008V013 SLP120 P0005 60005 T01610150 10167 20156 56013=
200808291745 SPECI KBLI 291745Z 20003KT 3SM -RA BR BKN010 OVC016 16/15 A2987 RMK AO2 RAE1658B32 CIG 008V013 P0005=
200808291745 SPECI KBLI 291745Z 20003KT 3SM -RA BR BKN010 OVC016 16/15 A2987 RMK AO2 RAE1658B32 CIG 008V013 P0005=
200808291738 SPECI KBLI 291738Z 17006KT 2 1/2SM +RA BR BKN008 OVC016 17/15 A2987 RMK AO2 RAE1658B32 P0004=
200808291738 SPECI KBLI 291738Z 17006KT 2 1/2SM +RA BR BKN008 OVC016 17/15 A2987 RMK AO2 RAE1658B32 P0004=
200808291705 SPECI KBLI 291705Z VRB05KT 10SM FEW008 BKN014 OVC021 16/15 A2987 RMK AO2 RAE1658 P0000=
200808291705 SPECI KBLI 291705Z VRB05KT 10SM FEW008 BKN014 OVC021 16/15 A2987 RMK AO2 RAE1658 P0000=
200808291653 METAR KBLI 291653Z 18007KT 10SM -RA FEW008 BKN018 OVC023 17/15 A2987 RMK AO2 RAB49 SLP122 P0000 T01670150=
200808291630 SPECI KBLI 291630Z 18006KT 10SM FEW005 OVC018 17/15 A2988 RMK AO2=
200808291630 SPECI KBLI 291630Z 18006KT 10SM FEW005 OVC018 17/15 A2988 RMK AO2=
200808291553 METAR KBLI 291553Z 17010G15KT 10SM OVC020 17/15 A2989 RMK AO2 SLP127 CIG LWR S HIGHER N T01670150=
200808291453 METAR KBLI 291453Z 18008KT 10SM SCT005 OVC017 16/15 A2991 RMK AO2 SLP134 T01610150 56010=
200808291410 SPECI KBLI 291410Z 17007KT 10SM SCT007 BKN017 OVC041 16/14 A2991 RMK AO2=
200808291410 SPECI KBLI 291410Z 17007KT 10SM SCT007 BKN017 OVC041 16/14 A2991 RMK AO2=
200808291403 SPECI KBLI 291403Z 20005G15KT 10SM BKN010 OVC017 16/14 A2991 RMK AO2=
200808291403 SPECI KBLI 291403Z 20005G15KT 10SM BKN010 OVC017 16/14 A2991 RMK AO2=
200808291353 METAR KBLI 291353Z 18005KT 10SM BKN008 OVC015 16/14 A2991 RMK AO2 SLP135 T01610144=
200808291253 METAR KBLI 291253Z AUTO VRB05KT 10SM BKN006 OVC014 16/14 A2992 RMK AO2 CIG 004V009 SLP138 T01560144=
200808291224 SPECI KBLI 291224Z AUTO 19007KT 10SM BKN008 OVC017 16/14 A2993 RMK AO2 CIG 007V011=
200808291224 SPECI KBLI 291224Z AUTO 19007KT 10SM BKN008 OVC017 16/14 A2993 RMK AO2 CIG 007V011=
200808291153 METAR KBLI 291153Z AUTO 19007G16KT 10SM FEW009 SCT012 OVC017 16/14 A2994 RMK AO2 SLP144 60000 70020 T01560144 10167 20156 56015=
200808291137 SPECI KBLI 291137Z AUTO 19006KT 10SM SCT009 OVC016 16/14 A2994 RMK AO2=
200808291137 SPECI KBLI 291137Z AUTO 19006KT 10SM SCT009 OVC016 16/14 A2994 RMK AO2=
200808291107 SPECI KBLI 291107Z AUTO 17009KT 10SM OVC011 16/14 A2995 RMK AO2=
200808291107 SPECI KBLI 291107Z AUTO 17009KT 10SM OVC011 16/14 A2995 RMK AO2=
200808291053 METAR KBLI 291053Z AUTO 18008KT 10SM OVC009 16/14 A2994 RMK AO2 SLP146 T01560144=
200808290953 METAR KBLI 290953Z AUTO 17009KT 10SM OVC009 16/14 A2997 RMK AO2 CIG 007V012 SLP153 T01560144=
200808290902 SPECI KBLI 290902Z AUTO 16007KT 10SM OVC011 16/15 A2998 RMK AO2=
200808290902 SPECI KBLI 290902Z AUTO 16007KT 10SM OVC011 16/15 A2998 RMK AO2=
200808290853 METAR KBLI 290853Z AUTO 17006KT 10SM BKN009 OVC013 16/15 A2998 RMK AO2 RAB07E32 CIG 006V011 SLP159 P0000 60000 T01610150 58006=
200808290839 SPECI KBLI 290839Z AUTO 17005KT 10SM BKN007 OVC012 16/14 A2999 RMK AO2 RAB07E32 P0000=
200808290839 SPECI KBLI 290839Z AUTO 17005KT 10SM BKN007 OVC012 16/14 A2999 RMK AO2 RAB07E32 P0000=
200808290818 SPECI KBLI 290818Z AUTO 16005KT 7SM -RA SCT007 OVC014 16/14 A3000 RMK AO2 RAB07 P0000=
200808290818 SPECI KBLI 290818Z AUTO 16005KT 7SM -RA SCT007 OVC014 16/14 A3000 RMK AO2 RAB07 P0000=
200808290753 METAR KBLI 290753Z AUTO 17006KT 10SM OVC014 16/15 A3000 RMK AO2 SLP163 T01610150 401780128=
200808290733 SPECI KBLI 290733Z AUTO 17007KT 10SM OVC014 17/15 A3000 RMK AO2=
200808290733 SPECI KBLI 290733Z AUTO 17007KT 10SM OVC014 17/15 A3000 RMK AO2=
200808290653 METAR KBLI 290653Z AUTO 18007KT 10SM OVC018 17/14 A3000 RMK AO2 SLP164 T01670144=
200808290553 METAR KBLI 290553Z AUTO 17007KT 10SM BKN024 BKN028 OVC070 17/14 A3000 RMK AO2 RAE07 SLP165 P0001 60001 T01720144 10178 20156 58008=
200808290453 METAR KBLI 290453Z 16008KT 10SM -RA OVC033 18/15 A3001 RMK AO2 RAB42 SLP170 P0000 T01780150=
200808290353 METAR KBLI 290353Z 00000KT 10SM BKN033 OVC045 16/15 A3002 RMK AO2 SLP171 T01610150=
200808290253 METAR KBLI 290253Z 17003KT 10SM FEW033 OVC042 16/14 A3003 RMK AO2 SLP173 60000 T01610144 56018=
200808290153 METAR KBLI 290153Z 14004KT 10SM OVC040 17/14 A3004 RMK AO2 RAB03E31 SLP177 P0000 T01670144=
200808290053 METAR KBLI 290053Z 15007KT 10SM OVC036 17/14 A3006 RMK AO2 RAE01 SLP185 P0000 T01670139=
200808282353 METAR KBLI 282353Z 12008KT 9SM -RA OVC032 16/14 A3008 RMK AO2 RAE31B50 SLP191 P0001 60004 T01610144 10167 20144 58010=
200808282344 SPECI KBLI 282344Z 13008KT 9SM OVC032 16/14 A3009 RMK AO2 RAE31 P0001=
200808282344 SPECI KBLI 282344Z 13008KT 9SM OVC032 16/14 A3009 RMK AO2 RAE31 P0001=
200808282253 METAR KBLI 282253Z 15005KT 4SM -RA BR OVC028 16/14 A3010 RMK AO2 RAB14 SLP198 P0001 T01560144=
200808282153 METAR KBLI 282153Z 16010G14KT 10SM OVC029 16/13 A3011 RMK AO2 RAE52 SLP200 P0000 T01610128=
200808282053 METAR KBLI 282053Z 17007KT 10SM -RA OVC029 16/13 A3011 RMK AO2 RAE22B43 SLP201 P0001 60002 T01610128 58001=
200808281953 METAR KBLI 281953Z 12008KT 9SM -RA SCT020 OVC027 16/13 A3011 RMK AO2 RAE33B51 SLP203 P0000 T01560128=
200808281853 METAR KBLI 281853Z 14011KT 7SM -RA SCT023 OVC029 15/12 A3011 RMK AO2 RAE00B17 SLP203 P0001 T01500117=
200808281753 METAR KBLI 281753Z 15008KT 3SM -RA BR FEW010 OVC025 14/12 A3011 RMK AO2 SLP202 VIS N 1 VIS S 6 P0001 60015 T01440122 10144 20128 51005=
200808281653 METAR KBLI 281653Z 14008KT 2SM -RA BR BKN019 OVC027 14/12 A3011 RMK AO2 SLP201 VIS N 1 BR VIS S 6 P0002 T01440122=
200808281618 SPECI KBLI 281618Z 15006KT 7SM BKN021 OVC025 14/12 A3010 RMK AO2 RAE18 VIS N 2 BR P0000=
200808281618 SPECI KBLI 281618Z 15006KT 7SM BKN021 OVC025 14/12 A3010 RMK AO2 RAE18 VIS N 2 BR P0000=
200808281553 METAR KBLI 281553Z 14007KT 2SM -RA BR SCT006 BKN020 OVC029 13/12 A3009 RMK AO2 SLP197 P0003 T01330117=
200808281536 SPECI KBLI 281536Z 15005KT 2SM -RA BR SCT006 BKN020 OVC029 13/12 A3010 RMK AO2 P0001=
200808281536 SPECI KBLI 281536Z 15005KT 2SM -RA BR SCT006 BKN020 OVC029 13/12 A3010 RMK AO2 P0001=
200808281513 SPECI KBLI 281513Z 16008KT 1 1/2SM -RA BR SCT006 BKN020 OVC029 13/12 A3010 RMK AO2 P0001=
200808281513 SPECI KBLI 281513Z 16008KT 1 1/2SM -RA BR SCT006 BKN020 OVC029 13/12 A3010 RMK AO2 P0001=
200808281453 METAR KBLI 281453Z 15010KT 4SM -RA BR SCT006 BKN020 OVC029 13/11 A3009 RMK AO2 SLP196 P0001 60009 T01330111 56002=
200808281425 SPECI KBLI 281425Z 15010KT 8SM -RA SCT006 BKN022 OVC032 13/11 A3009 RMK AO2 P0001=
200808281425 SPECI KBLI 281425Z 15010KT 8SM -RA SCT006 BKN022 OVC032 13/11 A3009 RMK AO2 P0001=
200808281406 SPECI KBLI 281406Z 15009KT 3SM -RA BR FEW016 BKN022 OVC035 13/12 A3009 RMK AO2 P0001=
200808281406 SPECI KBLI 281406Z 15009KT 3SM -RA BR FEW016 BKN022 OVC035 13/12 A3009 RMK AO2 P0001=
200808281353 METAR KBLI 281353Z AUTO 16007KT 3SM -RA BR FEW015 SCT022 OVC035 13/12 A3009 RMK AO2 SLP196 P0003 T01280117=
200808281323 SPECI KBLI 281323Z AUTO 18007G14KT 9SM -RA FEW007 BKN019 OVC037 13/12 A3009 RMK AO2 P0001=
200808281323 SPECI KBLI 281323Z AUTO 18007G14KT 9SM -RA FEW007 BKN019 OVC037 13/12 A3009 RMK AO2 P0001=
200808281309 SPECI KBLI 281309Z AUTO 17009KT 10SM SCT005 BKN013 OVC022 13/12 A3009 RMK AO2 RAE1259 P0000=
200808281309 SPECI KBLI 281309Z AUTO 17009KT 10SM SCT005 BKN013 OVC022 13/12 A3009 RMK AO2 RAE1259 P0000=
200808281253 METAR KBLI 281253Z AUTO 18008KT 8SM -RA BKN003 BKN007 OVC014 13/12 A3009 RMK AO2 SLP195 P0005 T01280117=
200808281153 METAR KBLI 281153Z AUTO 19005KT 3SM -RA BR OVC003 13/12 A3010 RMK AO2 CIG 002V008 SLP198 P0007 60014 70015 T01280122 10150 20128 56009=
200808281146 SPECI KBLI 281146Z AUTO 19006KT 3SM -RA BR BKN003 OVC008 13/12 A3010 RMK AO2 CIG 002V006 P0006=
200808281146 SPECI KBLI 281146Z AUTO 19006KT 3SM -RA BR BKN003 OVC008 13/12 A3010 RMK AO2 CIG 002V006 P0006=
200808281133 SPECI KBLI 281133Z AUTO 19006KT 3SM -RA BR BKN005 BKN011 OVC017 13/12 A3010 RMK AO2 CIG 002V008 P0006=
200808281133 SPECI KBLI 281133Z AUTO 19006KT 3SM -RA BR BKN005 BKN011 OVC017 13/12 A3010 RMK AO2 CIG 002V008 P0006=
200808281130 SPECI KBLI 281130Z AUTO 19004KT 2 1/2SM -RA BR BKN003 BKN011 OVC017 13/12 A3010 RMK AO2 CIG 002V008 P0006=
200808281130 SPECI KBLI 281130Z AUTO 19004KT 2 1/2SM -RA BR BKN003 BKN011 OVC017 13/12 A3010 RMK AO2 CIG 002V008 P0006=
200808281119 SPECI KBLI 281119Z AUTO 18005KT 3SM -RA BR BKN003 BKN007 OVC018 13/12 A3010 RMK AO2 P0004=
200808281119 SPECI KBLI 281119Z AUTO 18005KT 3SM -RA BR BKN003 BKN007 OVC018 13/12 A3010 RMK AO2 P0004=
200808281105 SPECI KBLI 281105Z AUTO 00000KT 2 1/2SM -RA BR BKN005 BKN010 OVC019 13/12 A3010 RMK AO2 CIG 002V007 P0001=
200808281105 SPECI KBLI 281105Z AUTO 00000KT 2 1/2SM -RA BR BKN005 BKN010 OVC019 13/12 A3010 RMK AO2 CIG 002V007 P0001=
200808281053 METAR KBLI 281053Z AUTO 00000KT 3SM -RA BR BKN003 OVC011 13/12 A3010 RMK AO2 CIG 002V007 SLP200 P0005 T01280117=
200808281031 SPECI KBLI 281031Z AUTO 00000KT 6SM -RA BR FEW003 BKN013 OVC021 13/12 A3010 RMK AO2 P0004=
200808281031 SPECI KBLI 281031Z AUTO 00000KT 6SM -RA BR FEW003 BKN013 OVC021 13/12 A3010 RMK AO2 P0004=
200808280953 METAR KBLI 280953Z AUTO 17004KT 6SM -RA BR OVC021 13/12 A3011 RMK AO2 SLP201 P0002 T01280117=
200808280853 METAR KBLI 280853Z AUTO 17007KT 9SM -RA OVC029 13/12 A3012 RMK AO2 RAB24 SLP207 P0000 60000 T01330117 55000=
200808280841 SPECI KBLI 280841Z AUTO 17007KT 10SM -RA OVC029 13/11 A3012 RMK AO2 RAB24 P0000=
200808280841 SPECI KBLI 280841Z AUTO 17007KT 10SM -RA OVC029 13/11 A3012 RMK AO2 RAB24 P0000=
200808280753 METAR KBLI 280753Z AUTO 17006KT 10SM OVC031 14/11 A3011 RMK AO2 RAE14 SLP203 P0000 T01390106 401720122=
200808280653 METAR KBLI 280653Z AUTO 16005KT 10SM -RA OVC035 14/11 A3012 RMK AO2 RAB46 SLP205 P0000 T01440106=
200808280553 METAR KBLI 280553Z AUTO 16006KT 10SM BKN041 BKN048 OVC060 15/10 A3012 RMK AO2 SLP207 60000 T01500100 10167 20144 50005=
200808280453 METAR KBLI 280453Z 17006KT 10SM OVC046 15/10 A3013 RMK AO2 RAB03E15 SLP208 P0000 T01500100=
200808280353 METAR KBLI 280353Z 16007KT 10SM FEW050 BKN060 OVC110 15/10 A3012 RMK AO2 SLP206 T01500100=
200808280253 METAR KBLI 280253Z 17007KT 10SM BKN060 OVC110 14/10 A3011 RMK AO2 SLP203 T01440100 53004=
200808280153 METAR KBLI 280153Z 16009KT 10SM CLR 16/11 A3010 RMK AO2 SLP199 T01560106=
200808280053 METAR KBLI 280053Z 17011KT 10SM BKN070 16/11 A3010 RMK AO2 SLP198 T01560106=
200808272353 METAR KBLI 272353Z 17011KT 10SM BKN070 16/11 A3010 RMK AO2 SLP199 T01560106 10172 20139 51012=
200808272253 METAR KBLI 272253Z 17009KT 10SM OVC065 17/11 A3008 RMK AO2 SLP193 T01670111=
200808272153 METAR KBLI 272153Z 15011KT 10SM OVC070 16/11 A3008 RMK AO2 SLP193 T01610106=
200808272053 METAR KBLI 272053Z 16010KT 10SM OVC070 16/11 A3006 RMK AO2 SLP186 T01560106 51021=
200808271953 METAR KBLI 271953Z 17012G18KT 10SM OVC075 16/11 A3004 RMK AO2 SLP179 T01560106=
200808271853 METAR KBLI 271853Z 17013G17KT 10SM OVC070 14/10 A3002 RMK AO2 SLP173 T01440100=
200808271753 METAR KBLI 271753Z 17010G16KT 10SM FEW016 OVC060 14/11 A3000 RMK AO2 SLP165 60001 T01390111 10139 20122 51023=
200808271751 SPECI KBLI 271751Z 17011G16KT 10SM SCT016 OVC060 14/11 A3000 RMK AO2=
200808271751 SPECI KBLI 271751Z 17011G16KT 10SM SCT016 OVC060 14/11 A3000 RMK AO2=
200808271653 METAR KBLI 271653Z 16014G20KT 10SM SCT016 BKN021 OVC065 13/11 A2996 RMK AO2 SLP154 T01330106=
200808271553 METAR KBLI 271553Z 16012KT 10SM BKN021 OVC065 13/11 A2993 RMK AO2 SLP142 T01330106=
200808271453 METAR KBLI 271453Z 16011G21KT 10SM FEW005 SCT015 OVC050 13/10 A2990 RMK AO2 SLP133 60001 T01280100 53022=
200808271401 SPECI KBLI 271401Z 15011KT 10SM FEW004 SCT015 OVC040 12/09 A2987 RMK AO2=
200808271401 SPECI KBLI 271401Z 15011KT 10SM FEW004 SCT015 OVC040 12/09 A2987 RMK AO2=
200808271353 METAR KBLI 271353Z 15012KT 10SM OVC070 12/09 A2987 RMK AO2 RAE1259 SLP121 P0000 T01220094=
200808271253 METAR KBLI 271253Z AUTO 17017G23KT 10SM -RA SCT027 BKN035 OVC045 12/09 A2986 RMK AO2 SLP116 P0001 T01220094=
200808271218 SPECI KBLI 271218Z AUTO 16010G19KT 10SM -RA FEW023 BKN033 OVC042 12/09 A2985 RMK AO2 P0000=
200808271218 SPECI KBLI 271218Z AUTO 16010G19KT 10SM -RA FEW023 BKN033 OVC042 12/09 A2985 RMK AO2 P0000=
200808271153 METAR KBLI 271153Z AUTO 15013G18KT 10SM -RA SCT021 BKN028 OVC037 12/09 A2984 RMK AO2 RAB03 SLP110 P0001 60003 70039 T01220094 10133 20111 53000=
200808271149 SPECI KBLI 271149Z AUTO 15008G21KT 10SM -RA BKN024 BKN029 OVC038 12/09 A2984 RMK AO2 RAB03 P0001=
200808271149 SPECI KBLI 271149Z AUTO 15008G21KT 10SM -RA BKN024 BKN029 OVC038 12/09 A2984 RMK AO2 RAB03 P0001=
200808271053 METAR KBLI 271053Z AUTO 16013G23KT 10SM OVC045 13/09 A2982 RMK AO2 RAB36E48 SLP104 P0000 T01280089=
200808270953 METAR KBLI 270953Z AUTO 16013G21KT 10SM FEW037 BKN049 OVC070 13/09 A2984 RMK AO2 RAB0855E23 SLP110 P0000 T01280089=
200808270853 METAR KBLI 270853Z AUTO 16012G20KT 10SM BKN047 OVC060 12/09 A2986 RMK AO2 SLP116 60002 T01220089 58017=
200808270753 METAR KBLI 270753Z AUTO 15011KT 10SM SCT027 BKN046 OVC060 12/09 A2987 RMK AO2 SLP122 T01220089 401720111=
200808270717 SPECI KBLI 270717Z AUTO 15010KT 10SM SCT029 BKN050 OVC060 12/09 A2988 RMK AO2=
200808270717 SPECI KBLI 270717Z AUTO 15010KT 10SM SCT029 BKN050 OVC060 12/09 A2988 RMK AO2=
200808270704 SPECI KBLI 270704Z AUTO 15014G18KT 10SM BKN027 BKN033 OVC055 12/08 A2989 RMK AO2=
200808270704 SPECI KBLI 270704Z AUTO 15014G18KT 10SM BKN027 BKN033 OVC055 12/08 A2989 RMK AO2=
200808270653 METAR KBLI 270653Z AUTO 15013G20KT 10SM BKN030 BKN035 OVC060 12/08 A2990 RMK AO2 RAE50 SLP132 P0002 T01220083=
200808270553 METAR KBLI 270553Z AUTO 01003KT 4SM -RA BR FEW026 SCT041 OVC065 11/11 A2991 RMK AO2 SLP134 P0009 60036 T01110106 10161 20111 58019=
200808270501 SPECI KBLI 270501Z 00000KT 4SM RA BR FEW004 BKN029 OVC039 12/11 A2994 RMK AO2 P0002=
200808270501 SPECI KBLI 270501Z 00000KT 4SM RA BR FEW004 BKN029 OVC039 12/11 A2994 RMK AO2 P0002=
200808270453 METAR KBLI 270453Z 00000KT 4SM RA BR SCT024 BKN035 OVC045 12/11 A2994 RMK AO2 SLP145 P0014 T01170106=
200808270353 METAR KBLI 270353Z 35004KT 5SM RA BR BKN039 OVC048 12/11 A2995 RMK AO2 SLP150 P0009 T01220111=
200808270253 METAR KBLI 270253Z 00000KT 6SM -RA BR SCT042 BKN049 OVC075 13/12 A2996 RMK AO2 SLP153 P0003 60004 T01330122 56022=
200808270153 METAR KBLI 270153Z 00000KT 6SM -RA BR BKN043 BKN050 OVC065 14/12 A2998 RMK AO2 RAB22 SLP160 P0001 T01390122=
200808270053 METAR KBLI 270053Z 00000KT 10SM SCT070 SCT090 16/10 A3000 RMK AO2 SLP165 T01610100=
200808262353 METAR KBLI 262353Z 19003KT 10SM SCT070 17/08 A3003 RMK AO2 SLP174 T01670083 10172 20144 56024=
200808262253 METAR KBLI 262253Z 20004KT 10SM CLR 17/09 A3005 RMK AO2 SLP182 T01670089=
200808262153 METAR KBLI 262153Z 17007KT 10SM CLR 17/08 A3007 RMK AO2 SLP189 T01670083=
200808262053 METAR KBLI 262053Z VRB05KT 10SM FEW044 16/08 A3010 RMK AO2 SLP199 T01610083 58013=
200808261953 METAR KBLI 261953Z 16009KT 10SM CLR 17/09 A3012 RMK AO2 SLP204 T01670094=
200808261853 METAR KBLI 261853Z 18006KT 10SM CLR 15/09 A3013 RMK AO2 SLP209 T01500089=
200808261753 METAR KBLI 261753Z 16011G18KT 10SM FEW018 14/09 A3014 RMK AO2 SLP212 T01440094 10144 20111 51008=
200808261653 METAR KBLI 261653Z 16010KT 10SM FEW050 13/09 A3014 RMK AO2 SLP212 T01330089=
200808261553 METAR KBLI 261553Z 17011KT 10SM BKN050 12/09 A3012 RMK AO2 SLP208 T01220094=
200808261453 METAR KBLI 261453Z 17006KT 10SM BKN070 12/09 A3011 RMK AO2 SLP204 T01220094 53009=
200808261353 METAR KBLI 261353Z 16003KT 10SM OVC070 12/09 A3011 RMK AO2 SLP202 T01170094=
200808261253 METAR KBLI 261253Z AUTO 15004KT 10SM OVC075 12/09 A3009 RMK AO2 SLP195 T01170089=
200808261153 METAR KBLI 261153Z AUTO 14003KT 10SM OVC080 12/09 A3009 RMK AO2 SLP194 T01170089 10133 20117 51010=
200808261053 METAR KBLI 261053Z AUTO 15004KT 10SM FEW060 OVC080 12/08 A3008 RMK AO2 SLP192 T01170083=
200808260953 METAR KBLI 260953Z AUTO 17004KT 10SM SCT060 12/08 A3007 RMK AO2 SLP188 T01170083=
200808260853 METAR KBLI 260853Z AUTO 16004KT 10SM FEW024 BKN060 OVC080 13/08 A3006 RMK AO2 SLP184 T01280083 53015=
200808260753 METAR KBLI 260753Z AUTO 17003KT 10SM FEW055 BKN070 OVC090 13/09 A3004 RMK AO2 SLP179 T01280089 401830106=
200808260653 METAR KBLI 260653Z AUTO 17005KT 10SM FEW060 BKN070 12/09 A3002 RMK AO2 SLP174 T01220094=
200808260553 METAR KBLI 260553Z AUTO 18004KT 10SM CLR 12/09 A3001 RMK AO2 RAE02 SLP170 P0000 60000 T01220094 10178 20122 51016=
200808260453 METAR KBLI 260453Z 18003KT 10SM -RA BKN070 OVC090 14/09 A3000 RMK AO2 RAB46 SLP165 P0000 T01440094=
200808260353 METAR KBLI 260353Z 18004KT 10SM SCT050 BKN070 15/09 A2998 RMK AO2 SLP159 T01500094=
200808260253 METAR KBLI 260253Z 17005KT 10SM CLR 15/08 A2996 RMK AO2 SLP153 T01500083 53004=
200808260153 METAR KBLI 260153Z 17007KT 10SM CLR 16/08 A2996 RMK AO2 SLP151 T01610078=
200808260053 METAR KBLI 260053Z 16007KT 10SM CLR 17/09 A2995 RMK AO2 SLP149 T01720089=
200808252353 METAR KBLI 252353Z 17007KT 10SM CLR 17/09 A2995 RMK AO2 SLP148 T01720089 10183 20144 53004=
200808252253 METAR KBLI 252253Z 16009KT 10SM CLR 18/09 A2994 RMK AO2 SLP145 T01830094=
200808252153 METAR KBLI 252153Z 17010KT 10SM CLR 17/10 A2994 RMK AO2 SLP143 T01720100=
200808252053 METAR KBLI 252053Z 17009KT 10SM CLR 17/10 A2994 RMK AO2 SLP144 T01670100 51005=
200808251953 METAR KBLI 251953Z 19008KT 10SM CLR 16/10 A2994 RMK AO2 SLP143 T01610100=
200808251853 METAR KBLI 251853Z 17010KT 10SM CLR 16/11 A2993 RMK AO2 SLP142 T01560111=
200808251753 METAR KBLI 251753Z 18007KT 10SM FEW046 BKN055 14/11 A2993 RMK AO2 SLP141 T01440111 10144 20106 53008=
200808251653 METAR KBLI 251653Z 17006KT 10SM FEW050 13/11 A2992 RMK AO2 SLP137 T01330111=
200808251553 METAR KBLI 251553Z 18006KT 10SM BKN050 OVC060 13/11 A2991 RMK AO2 SLP136 T01330106=
200808251453 METAR KBLI 251453Z 00000KT 10SM BKN046 13/11 A2990 RMK AO2 SLP133 T01280106 53005=
200808251353 METAR KBLI 251353Z 00000KT 10SM CLR 11/10 A2989 RMK AO2 SLP130 T01110100=
200808251253 METAR KBLI 251253Z AUTO 00000KT 10SM CLR 11/10 A2989 RMK AO2 SLP128 T01110100=
200808251153 METAR KBLI 251153Z AUTO 00000KT 10SM BKN043 12/11 A2989 RMK AO2 SLP126 70061 T01170106 10139 20117 51008=
200808251053 METAR KBLI 251053Z AUTO 17003KT 10SM CLR 12/11 A2988 RMK AO2 SLP125 T01220106=
200808250953 METAR KBLI 250953Z AUTO 17004KT 10SM CLR 13/11 A2988 RMK AO2 SLP124 T01330111=
200808250853 METAR KBLI 250853Z AUTO 18004KT 10SM FEW070 13/12 A2986 RMK AO2 SLP118 T01330117 52004=
200808250753 METAR KBLI 250753Z AUTO 18006KT 10SM OVC070 14/12 A2986 RMK AO2 SLP117 T01390122 401830133=
200808250653 METAR KBLI 250653Z AUTO 18004KT 10SM OVC060 14/12 A2985 RMK AO2 SLP115 T01390122=
200808250553 METAR KBLI 250553Z AUTO 19006KT 10SM BKN060 BKN075 13/12 A2985 RMK AO2 SLP114 60004 T01330117 10167 20133 50001=
200808250453 METAR KBLI 250453Z 18006KT 10SM OVC055 14/13 A2986 RMK AO2 SLP116 T01390128=
200808250353 METAR KBLI 250353Z 18008KT 10SM FEW004 BKN033 OVC040 14/13 A2985 RMK AO2 SLP115 T01390128=
200808250323 SPECI KBLI 250323Z 18008KT 10SM SCT004 OVC035 14/13 A2985 RMK AO2=
200808250323 SPECI KBLI 250323Z 18008KT 10SM SCT004 OVC035 14/13 A2985 RMK AO2=
200808250253 METAR KBLI 250253Z 17006G14KT 9SM BKN004 OVC027 14/13 A2985 RMK AO2 RAE41 SLP112 P0001 60004 T01390133 55002=
200808250236 SPECI KBLI 250236Z 17007KT 4SM -RA BR BKN004 OVC027 14/13 A2984 RMK AO2 P0001=
200808250236 SPECI KBLI 250236Z 17007KT 4SM -RA BR BKN004 OVC027 14/13 A2984 RMK AO2 P0001=
200808250226 SPECI KBLI 250226Z 18007KT 6SM -RA BR SCT004 BKN007 OVC027 14/13 A2983 RMK AO2 P0001=
200808250226 SPECI KBLI 250226Z 18007KT 6SM -RA BR SCT004 BKN007 OVC027 14/13 A2983 RMK AO2 P0001=
200808250209 SPECI KBLI 250209Z 19006KT 6SM -RA BR SCT007 OVC025 14/14 A2984 RMK AO2 P0000=
200808250209 SPECI KBLI 250209Z 19006KT 6SM -RA BR SCT007 OVC025 14/14 A2984 RMK AO2 P0000=
200808250200 SPECI KBLI 250200Z 18006KT 10SM -RA BKN007 OVC025 14/14 A2984 RMK AO2 CIG 002V009 P0000=
200808250200 SPECI KBLI 250200Z 18006KT 10SM -RA BKN007 OVC025 14/14 A2984 RMK AO2 CIG 002V009 P0000=
200808250153 METAR KBLI 250153Z 17006KT 2SM -RA BR BKN002 14/14 A2984 RMK AO2 RAE13B53 SLP111 P0000 T01440139=
200808250057 SPECI KBLI 250057Z 17004KT 1SM -RA BR BKN003 OVC006 15/14 A2985 RMK AO2 CIG 002V006 P0000 RVRNO=
200808250057 SPECI KBLI 250057Z 17004KT 1SM -RA BR BKN003 OVC006 15/14 A2985 RMK AO2 CIG 002V006 P0000 RVRNO=
200808250053 METAR KBLI 250053Z 17005KT 1SM -RA BR OVC006 15/14 A2985 RMK AO2 RAB16 CIG 002V008 SLP114 P0003 T01500144 RVRNO=
200808250048 SPECI KBLI 250048Z 18004KT 1SM -RA BR OVC004 15/14 A2985 RMK AO2 RAB16 CIG 002V010 P0002 RVRNO=
200808250048 SPECI KBLI 250048Z 18004KT 1SM -RA BR OVC004 15/14 A2985 RMK AO2 RAB16 CIG 002V010 P0002 RVRNO=
200808250032 SPECI KBLI 250032Z VRB03KT 3/4SM -RA BR OVC004 16/14 A2986 RMK AO2 RAB16 CIG 002V007 P0001 RVRNO=
200808250032 SPECI KBLI 250032Z VRB03KT 3/4SM -RA BR OVC004 16/14 A2986 RMK AO2 RAB16 CIG 002V007 P0001 RVRNO=
200808250009 SPECI KBLI 250009Z VRB04KT 8SM BKN004 BKN009 OVC015 16/14 A2985 RMK AO2=
200808250009 SPECI KBLI 250009Z VRB04KT 8SM BKN004 BKN009 OVC015 16/14 A2985 RMK AO2=
200808242359 SPECI KBLI 242359Z 21004KT 7SM FEW004 BKN009 OVC015 16/15 A2984 RMK AO2 CIG 006V013=
200808242359 SPECI KBLI 242359Z 21004KT 7SM FEW004 BKN009 OVC015 16/15 A2984 RMK AO2 CIG 006V013=
200808242355 SPECI KBLI 242355Z 19006KT 6SM BR SCT010 OVC015 17/15 A2985 RMK AO2=
200808242355 SPECI KBLI 242355Z 19006KT 6SM BR SCT010 OVC015 17/15 A2985 RMK AO2=
200808242353 METAR KBLI 242353Z VRB05KT 6SM BR BKN005 OVC013 17/15 A2984 RMK AO2 RAE38 SLP110 P0001 60049 T01670150 10178 20167 58007=
200808242347 SPECI KBLI 242347Z 17007G15KT 4SM BR BKN005 OVC013 17/15 A2983 RMK AO2 RAE38 P0001=
200808242347 SPECI KBLI 242347Z 17007G15KT 4SM BR BKN005 OVC013 17/15 A2983 RMK AO2 RAE38 P0001=
200808242322 SPECI KBLI 242322Z 16010G17KT 10SM -RA OVC014 18/16 A2985 RMK AO2 P0001=
200808242322 SPECI KBLI 242322Z 16010G17KT 10SM -RA OVC014 18/16 A2985 RMK AO2 P0001=
200808242253 METAR KBLI 242253Z 17003KT 10SM -RA BKN016 OVC022 17/16 A2985 RMK AO2 SLP115 P0002 T01720156=
200808242153 METAR KBLI 242153Z 13009KT 3SM -RA BR BKN024 BKN039 OVC060 17/16 A2985 RMK AO2 SLP114 P0016 T01670161=
200808242130 SPECI KBLI 242130Z 15010KT 3SM RA BR SCT022 BKN032 OVC060 17/16 A2986 RMK AO2 P0012=
200808242130 SPECI KBLI 242130Z 15010KT 3SM RA BR SCT022 BKN032 OVC060 17/16 A2986 RMK AO2 P0012=
200808242053 METAR KBLI 242053Z 16005KT 2SM RA BR FEW014 SCT018 OVC025 17/16 A2986 RMK AO2 SLP118 P0014 60030 T01670156 53010=
200808241953 METAR KBLI 241953Z 15005KT 4SM RA BR BKN022 BKN034 OVC065 18/16 A2985 RMK AO2 SLP114 P0009 T01780156=
200808241853 METAR KBLI 241853Z 00000KT 6SM -RA BR BKN026 BKN048 OVC070 17/15 A2984 RMK AO2 SLP111 P0007 T01720150=
200808241843 SPECI KBLI 241843Z 18003KT 7SM -RA BKN026 OVC048 17/14 A2984 RMK AO2 P0006=
200808241843 SPECI KBLI 241843Z 18003KT 7SM -RA BKN026 OVC048 17/14 A2984 RMK AO2 P0006=
200808241753 METAR KBLI 241753Z 18004KT 4SM RA BKN038 OVC047 17/14 A2983 RMK AO2 SLP108 P0006 60008 T01720139 10183 20150 53009=
200808241653 METAR KBLI 241653Z 15009KT 9SM -RA BKN060 OVC090 18/13 A2980 RMK AO2 RAB43 SLP098 P0000 T01830133=
200808241553 METAR KBLI 241553Z 15008KT 10SM OVC100 18/13 A2980 RMK AO2 RAB21E51 SLP096 P0000 T01830133=
200808241453 METAR KBLI 241453Z 18003KT 10SM FEW047 OVC110 16/14 A2980 RMK AO2 RAE49 SLP098 P0002 60002 T01610139 53000=
200808241353 METAR KBLI 241353Z 00000KT 10SM -RA OVC110 16/14 A2979 RMK AO2 RAB34 SLP093 P0000 T01560144=
200808241253 METAR KBLI 241253Z AUTO 00000KT 10SM BKN120 15/14 A2979 RMK AO2 SLP094 T01500139=
200808241153 METAR KBLI 241153Z AUTO 00000KT 10SM FEW120 15/14 A2980 RMK AO2 SLP097 T01500139 10161 20139 58004=
200808241053 METAR KBLI 241053Z AUTO 00000KT 10SM CLR 16/14 A2981 RMK AO2 SLP098 T01560139=
200808240953 METAR KBLI 240953Z AUTO 00000KT 10SM CLR 15/13 A2981 RMK AO2 SLP100 T01500133=
200808240853 METAR KBLI 240853Z AUTO 00000KT 10SM CLR 14/13 A2981 RMK AO2 SLP101 T01440133 56008=
200808240753 METAR KBLI 240753Z AUTO 00000KT 9SM CLR 14/13 A2982 RMK AO2 SLP101 T01440133 402610122=
200808240653 METAR KBLI 240653Z AUTO 00000KT 10SM CLR 16/13 A2982 RMK AO2 SLP103 T01560133=
200808240553 METAR KBLI 240553Z AUTO 00000KT 10SM CLR 16/13 A2984 RMK AO2 SLP110 T01560128 10256 20144 58000=
200808240453 METAR KBLI 240453Z 16003KT 10SM CLR 17/13 A2984 RMK AO2 SLP110 T01670128=
200808240353 METAR KBLI 240353Z 00000KT 10SM CLR 17/14 A2985 RMK AO2 SLP113 T01720139=
200808240253 METAR KBLI 240253Z 00000KT 10SM CLR 20/13 A2984 RMK AO2 SLP111 T02000133 58012=
200808240153 METAR KBLI 240153Z 26004KT 10SM CLR 22/14 A2986 RMK AO2 SLP117 T02170139=
200808240053 METAR KBLI 240053Z 28004KT 10SM CLR 24/15 A2986 RMK AO2 SLP117 T02440150=
200808232353 METAR KBLI 232353Z 01005KT 10SM CLR 26/14 A2988 RMK AO2 SLP121 T02610139 10261 20189 56023=
200808232253 METAR KBLI 232253Z 36003KT 10SM CLR 26/14 A2990 RMK AO2 SLP128 T02560139=
200808232153 METAR KBLI 232153Z 36006KT 10SM CLR 25/13 A2991 RMK AO2 SLP134 T02500128=
200808232053 METAR KBLI 232053Z 00000KT 10SM CLR 24/13 A2994 RMK AO2 SLP145 T02440128 58012=
200808231953 METAR KBLI 231953Z 35004KT 10SM CLR 23/13 A2997 RMK AO2 SLP153 T02330128=
200808231853 METAR KBLI 231853Z 00000KT 10SM CLR 22/13 A2998 RMK AO2 SLP157 T02170128=
200808231753 METAR KBLI 231753Z 01003KT 10SM CLR 19/13 A2998 RMK AO2 SLP157 T01940133 10194 20133 58006=
200808231653 METAR KBLI 231653Z 00000KT 10SM CLR 18/13 A2999 RMK AO2 SLP162 T01780133=
200808231553 METAR KBLI 231553Z 00000KT 10SM SCT090 BKN100 17/13 A3000 RMK AO2 SLP164 T01670128=
200808231453 METAR KBLI 231453Z 00000KT 10SM OVC085 14/13 A3000 RMK AO2 SLP164 T01440128 53001=
200808231353 METAR KBLI 231353Z 00000KT 10SM OVC085 14/13 A2999 RMK AO2 SLP162 T01390128=
200808231253 METAR KBLI 231253Z AUTO 00000KT 10SM OVC085 13/12 A2999 RMK AO2 SLP163 T01330122=
200808231153 METAR KBLI 231153Z AUTO 00000KT 10SM OVC090 13/12 A2999 RMK AO2 SLP163 T01330122 10144 20122 50000=
200808231053 METAR KBLI 231053Z AUTO 00000KT 10SM FEW090 OVC110 13/12 A3000 RMK AO2 SLP163 T01330122=
200808230953 METAR KBLI 230953Z AUTO 00000KT 10SM CLR 13/12 A3000 RMK AO2 SLP164 T01280117=
200808230853 METAR KBLI 230853Z AUTO 00000KT 10SM CLR 13/12 A2999 RMK AO2 SLP163 T01280117 58000=
200808230753 METAR KBLI 230753Z AUTO 00000KT 10SM OVC085 13/11 A3000 RMK AO2 SLP164 T01280111 402220089=
200808230653 METAR KBLI 230653Z AUTO 00000KT 10SM FEW090 BKN120 14/12 A2999 RMK AO2 SLP161 T01390117=
200808230553 METAR KBLI 230553Z AUTO 00000KT 10SM FEW100 14/12 A2999 RMK AO2 SLP163 T01440117 10222 20144 50002=
200808230453 METAR KBLI 230453Z 00000KT 10SM CLR 16/12 A3000 RMK AO2 SLP165 T01560117=
200808230353 METAR KBLI 230353Z 00000KT 10SM SCT110 16/12 A3000 RMK AO2 SLP165 T01560117=
200808230253 METAR KBLI 230253Z 00000KT 10SM CLR 17/11 A2999 RMK AO2 SLP161 T01720111 55007=
200808230153 METAR KBLI 230153Z 26003KT 10SM BKN120 19/12 A2999 RMK AO2 SLP161 T01940117=
200808230053 METAR KBLI 230053Z 26006KT 10SM CLR 20/12 A3001 RMK AO2 SLP167 T02000117=
200808222353 METAR KBLI 222353Z 28005KT 10SM CLR 21/12 A3001 RMK AO2 SLP169 T02110117 10222 20161 56014=
200808222253 METAR KBLI 222253Z AUTO 26004KT 10SM CLR 22/11 A3002 RMK AO2 SLP171 T02170111 TSNO=
200808222153 METAR KBLI 222153Z VRB04KT 10SM CLR 21/11 A3004 RMK AO2 SLP178 T02110111=
200808222053 METAR KBLI 222053Z VRB03KT 10SM CLR 21/11 A3005 RMK AO2 SLP183 T02060106 58007=
200808221953 METAR KBLI 221953Z 00000KT 10SM CLR 20/10 A3006 RMK AO2 SLP184 T02000100=
200808221853 METAR KBLI 221853Z 00000KT 10SM CLR 19/11 A3008 RMK AO2 SLP191 T01890106=
200808221753 METAR KBLI 221753Z 32004KT 10SM CLR 16/11 A3008 RMK AO2 SLP191 T01610106 10172 20089 55001=
200808221653 METAR KBLI 221653Z 00000KT 10SM CLR 16/12 A3008 RMK AO2 SLP190 T01610122=
200808221553 METAR KBLI 221553Z 00000KT 10SM CLR 12/11 A3008 RMK AO2 SLP192 T01220106=
200808221453 METAR KBLI 221453Z 00000KT 10SM CLR 11/10 A3008 RMK AO2 SLP193 T01110100 56000=
200808221353 METAR KBLI 221353Z 00000KT 10SM CLR 10/09 A3008 RMK AO2 SLP193 T01000089=
200808221253 METAR KBLI 221253Z AUTO 00000KT 10SM CLR 09/09 A3008 RMK AO2 SLP192 T00940089=
200808221153 METAR KBLI 221153Z AUTO 00000KT 10SM CLR 09/08 A3008 RMK AO2 SLP193 70009 T00890083 10128 20089 55002=
200808221058 SPECI KBLI 221058Z AUTO 00000KT 3SM BR CLR 09/08 A3008 RMK AO2=
200808221058 SPECI KBLI 221058Z AUTO 00000KT 3SM BR CLR 09/08 A3008 RMK AO2=
200808221053 METAR KBLI 221053Z AUTO 33003KT 1 1/2SM BR CLR 09/08 A3008 RMK AO2 VIS 3/4V4 SLP193 T00890083=
200808221044 SPECI KBLI 221044Z AUTO 00000KT 1 3/4SM BR CLR 09/08 A3008 RMK AO2=
200808221044 SPECI KBLI 221044Z AUTO 00000KT 1 3/4SM BR CLR 09/08 A3008 RMK AO2=
200808221008 SPECI KBLI 221008Z AUTO 00000KT 4SM BR CLR 09/08 A3008 RMK AO2=
200808221008 SPECI KBLI 221008Z AUTO 00000KT 4SM BR CLR 09/08 A3008 RMK AO2=
200808220957 SPECI KBLI 220957Z AUTO 00000KT 1 1/2SM BR FEW075 09/09 A3008 RMK AO2=
200808220957 SPECI KBLI 220957Z AUTO 00000KT 1 1/2SM BR FEW075 09/09 A3008 RMK AO2=
200808220953 METAR KBLI 220953Z AUTO 00000KT 9SM CLR 09/09 A3008 RMK AO2 SLP194 T00940089=
200808220939 SPECI KBLI 220939Z AUTO 00000KT 1 1/2SM BR CLR 09/09 A3008 RMK AO2=
200808220939 SPECI KBLI 220939Z AUTO 00000KT 1 1/2SM BR CLR 09/09 A3008 RMK AO2=
200808220853 METAR KBLI 220853Z AUTO 00000KT 10SM CLR 10/09 A3009 RMK AO2 SLP196 T01000089 51013=
200808220753 METAR KBLI 220753Z AUTO 00000KT 10SM SCT055 11/09 A3008 RMK AO2 SLP193 T01060094 401830100=
200808220653 METAR KBLI 220653Z AUTO 00000KT 10SM CLR 12/11 A3006 RMK AO2 SLP187 T01220106=
200808220553 METAR KBLI 220553Z AUTO 00000KT 10SM CLR 13/11 A3005 RMK AO2 SLP183 T01280106 10183 20117 51010=
200808220453 METAR KBLI 220453Z 00000KT 10SM FEW085 13/11 A3005 RMK AO2 SLP182 T01280106=
200808220353 METAR KBLI 220353Z 00000KT 10SM FEW080 13/11 A3004 RMK AO2 SLP178 T01280106=
200808220253 METAR KBLI 220253Z 17003KT 10SM SCT090 15/11 A3002 RMK AO2 SLP172 T01500111 51016=
200808220153 METAR KBLI 220153Z 17005KT 10SM FEW090 17/10 A3001 RMK AO2 SLP167 T01720100=
200808220053 METAR KBLI 220053Z 17007KT 10SM OVC090 18/09 A2999 RMK AO2 SLP162 T01780094=
200808212353 METAR KBLI 212353Z 17009KT 10SM OVC090 17/11 A2997 RMK AO2 SLP155 T01720106 10178 20150 51021=
200808212253 METAR KBLI 212253Z 17008KT 10SM OVC080 17/11 A2996 RMK AO2 SLP150 T01720106=
200808212153 METAR KBLI 212153Z 17009KT 10SM CLR 17/11 A2994 RMK AO2 SLP143 T01720111=
200808212053 METAR KBLI 212053Z 16013KT 10SM FEW040 17/11 A2991 RMK AO2 SLP135 T01720111 51024=
200808211953 METAR KBLI 211953Z 17009KT 10SM OVC080 17/12 A2990 RMK AO2 SLP129 T01720117=
200808211853 METAR KBLI 211853Z 17009KT 10SM FEW065 OVC085 16/12 A2986 RMK AO2 SLP119 T01560117=
200808211800 SPECI KBLI 211800Z 17009G16KT 10SM FEW013 OVC080 15/12 A2984 RMK AO2=
200808211800 SPECI KBLI 211800Z 17009G16KT 10SM FEW013 OVC080 15/12 A2984 RMK AO2=
200808211753 METAR KBLI 211753Z 18009G16KT 10SM BKN013 BKN045 OVC085 15/12 A2984 RMK AO2 SLP110 60009 T01500117 10150 20128 53027=
200808211742 SPECI KBLI 211742Z 16009KT 10SM BKN013 BKN040 OVC085 15/12 A2984 RMK AO2=
200808211742 SPECI KBLI 211742Z 16009KT 10SM BKN013 BKN040 OVC085 15/12 A2984 RMK AO2=
200808211710 SPECI KBLI 211710Z 17009KT 10SM FEW008 SCT013 BKN070 15/12 A2982 RMK AO2=
200808211710 SPECI KBLI 211710Z 17009KT 10SM FEW008 SCT013 BKN070 15/12 A2982 RMK AO2=
200808211700 SPECI KBLI 211700Z 17008KT 10SM FEW008 BKN013 BKN070 14/12 A2982 RMK AO2=
200808211700 SPECI KBLI 211700Z 17008KT 10SM FEW008 BKN013 BKN070 14/12 A2982 RMK AO2=
200808211653 METAR KBLI 211653Z 17008G14KT 10SM SCT011 BKN017 BKN080 14/12 A2981 RMK AO2 RAE09 SLP102 P0000 T01390122=
200808211642 SPECI KBLI 211642Z 17009KT 10SM SCT009 BKN017 OVC065 14/12 A2981 RMK AO2 RAE09 P0000=
200808211642 SPECI KBLI 211642Z 17009KT 10SM SCT009 BKN017 OVC065 14/12 A2981 RMK AO2 RAE09 P0000=
200808211634 SPECI KBLI 211634Z 18008KT 10SM FEW007 BKN014 OVC065 14/13 A2980 RMK AO2 RAE09 P0000=
200808211634 SPECI KBLI 211634Z 18008KT 10SM FEW007 BKN014 OVC065 14/13 A2980 RMK AO2 RAE09 P0000=
200808211600 SPECI KBLI 211600Z 17006KT 10SM -RA FEW008 BKN031 OVC045 13/12 A2979 RMK AO2 P0000=
200808211600 SPECI KBLI 211600Z 17006KT 10SM -RA FEW008 BKN031 OVC045 13/12 A2979 RMK AO2 P0000=
200808211553 METAR KBLI 211553Z 17008KT 8SM -RA SCT020 BKN030 OVC035 13/12 A2978 RMK AO2 SLP092 P0001 T01330122=
200808211453 METAR KBLI 211453Z 16004KT 4SM -RA BR FEW008 SCT021 OVC036 13/12 A2976 RMK AO2 SLP084 P0003 60008 T01280117 53022=
200808211353 METAR KBLI 211353Z 18004KT 6SM RA BR FEW007 BKN043 OVC050 13/12 A2973 RMK AO2 SLP073 P0003 T01280117=
200808211333 SPECI KBLI 211333Z AUTO 17004KT 10SM -RA FEW007 BKN045 OVC065 13/12 A2972 RMK AO2 P0001=
200808211333 SPECI KBLI 211333Z AUTO 17004KT 10SM -RA FEW007 BKN045 OVC065 13/12 A2972 RMK AO2 P0001=
200808211253 METAR KBLI 211253Z AUTO 18003KT 7SM -RA FEW031 BKN055 OVC070 13/12 A2971 RMK AO2 RAB12 SLP066 P0002 T01330122=
200808211153 METAR KBLI 211153Z AUTO 00000KT 10SM FEW044 BKN075 OVC110 13/12 A2969 RMK AO2 RAE25 SLP060 P0001 60006 70021 T01330122 10139 20133 53011=
200808211108 SPECI KBLI 211108Z AUTO 18004KT 9SM -RA SCT029 BKN038 OVC075 13/12 A2969 RMK AO2 P0001=
200808211108 SPECI KBLI 211108Z AUTO 18004KT 9SM -RA SCT029 BKN038 OVC075 13/12 A2969 RMK AO2 P0001=
200808211053 METAR KBLI 211053Z AUTO 17005KT 9SM -RA FEW006 BKN029 OVC034 14/13 A2968 RMK AO2 LTG DSNT NE RAE0957B49 SLP056 P0000 T01390128=
200808211005 SPECI KBLI 211005Z AUTO 17005KT 10SM FEW008 BKN029 OVC075 14/13 A2967 RMK AO2 RAE0957 P0000=
200808211005 SPECI KBLI 211005Z AUTO 17005KT 10SM FEW008 BKN029 OVC075 14/13 A2967 RMK AO2 RAE0957 P0000=
200808210953 METAR KBLI 210953Z AUTO 17005KT 10SM -RA FEW008 SCT055 OVC075 14/13 A2967 RMK AO2 RAB25 SLP051 P0000 T01390128=
200808210853 METAR KBLI 210853Z AUTO 17006KT 10SM OVC034 14/13 A2966 RMK AO2 RAB0755E17 SLP049 P0001 60005 T01390128 51005=
200808210805 SPECI KBLI 210805Z AUTO VRB03KT 10SM -RA FEW009 BKN040 OVC110 14/12 A2966 RMK AO2 RAB0755 P0000=
200808210805 SPECI KBLI 210805Z AUTO VRB03KT 10SM -RA FEW009 BKN040 OVC110 14/12 A2966 RMK AO2 RAB0755 P0000=
200808210753 METAR KBLI 210753Z AUTO 15007KT 10SM FEW021 BKN044 OVC110 14/12 A2966 RMK AO2 RAE37 SLP049 P0001 T01390122 401720133=
200808210653 METAR KBLI 210653Z AUTO 17006KT 6SM -RA BR FEW006 BKN049 OVC065 13/12 A2966 RMK AO2 RAB19 SLP049 P0003 T01330122=
200808210646 SPECI KBLI 210646Z AUTO 17008KT 8SM -RA SCT006 BKN049 OVC065 13/12 A2966 RMK AO2 RAB19 P0002=
200808210646 SPECI KBLI 210646Z AUTO 17008KT 8SM -RA SCT006 BKN049 OVC065 13/12 A2966 RMK AO2 RAB19 P0002=
200808210639 SPECI KBLI 210639Z AUTO 17009G16KT 7SM -RA SCT006 BKN009 OVC049 13/12 A2966 RMK AO2 RAB19 P0002=
200808210639 SPECI KBLI 210639Z AUTO 17009G16KT 7SM -RA SCT006 BKN009 OVC049 13/12 A2966 RMK AO2 RAB19 P0002=
200808210601 SPECI KBLI 210601Z AUTO 17013G18KT 10SM FEW006 BKN032 OVC039 14/12 A2965 RMK AO2=
200808210601 SPECI KBLI 210601Z AUTO 17013G18KT 10SM FEW006 BKN032 OVC039 14/12 A2965 RMK AO2=
200808210553 METAR KBLI 210553Z AUTO 17012G17KT 10SM FEW006 BKN023 OVC039 14/13 A2964 RMK AO2 RAB0457E01 SLP044 P0000 60003 T01390128 10161 20133 51015=
200808210546 SPECI KBLI 210546Z AUTO 18007KT 10SM SCT006 BKN027 OVC040 14/13 A2964 RMK AO2 RAB0457E01 P0000=
200808210546 SPECI KBLI 210546Z AUTO 18007KT 10SM SCT006 BKN027 OVC040 14/13 A2964 RMK AO2 RAB0457E01 P0000=
200808210526 SPECI KBLI 210526Z AUTO 00000KT 10SM SCT024 BKN029 OVC070 14/12 A2964 RMK AO2 RAB0457E01 P0000=
200808210526 SPECI KBLI 210526Z AUTO 00000KT 10SM SCT024 BKN029 OVC070 14/12 A2964 RMK AO2 RAB0457E01 P0000=
200808210453 METAR KBLI 210453Z 00000KT 10SM BKN080 OVC100 13/13 A2964 RMK AO2 SLP043 T01330128=
200808210353 METAR KBLI 210353Z 00000KT 10SM SCT080 OVC095 14/13 A2961 RMK AO2 RAB0257E10 SLP033 P0000 T01440133=
200808210253 METAR KBLI 210253Z 00000KT 10SM SCT017 BKN050 OVC085 15/14 A2960 RMK AO2 RAE04B24E46 SLP029 P0003 60003 T01500139 53007=
200808210153 METAR KBLI 210153Z 00000KT 9SM -RA FEW009 BKN019 OVC060 16/14 A2959 RMK AO2 RAE0054B51 SLP025 P0000 T01560139=
200808210143 SPECI KBLI 210143Z 00000KT 10SM SCT009 BKN024 OVC055 15/14 A2959 RMK AO2 RAE0054=
200808210143 SPECI KBLI 210143Z 00000KT 10SM SCT009 BKN024 OVC055 15/14 A2959 RMK AO2 RAE0054=
200808210135 SPECI KBLI 210135Z 00000KT 10SM FEW009 BKN031 OVC055 16/14 A2959 RMK AO2 RAE0054=
200808210135 SPECI KBLI 210135Z 00000KT 10SM FEW009 BKN031 OVC055 16/14 A2959 RMK AO2 RAE0054=
200808210106 SPECI KBLI 210106Z 00000KT 10SM SCT020 BKN033 OVC070 16/13 A2959 RMK AO2 RAE0054=
200808210106 SPECI KBLI 210106Z 00000KT 10SM SCT020 BKN033 OVC070 16/13 A2959 RMK AO2 RAE0054=
200808210053 METAR KBLI 210053Z 20003KT 10SM -RA SCT017 BKN024 OVC065 16/14 A2959 RMK AO2 RAE09B25 SLP025 P0000 T01560139=
200808210029 SPECI KBLI 210029Z 00000KT 10SM -RA BKN022 BKN027 OVC090 16/13 A2959 RMK AO2 RAE09B25 P0000=
200808210029 SPECI KBLI 210029Z 00000KT 10SM -RA BKN022 BKN027 OVC090 16/13 A2959 RMK AO2 RAE09B25 P0000=
200808202353 METAR KBLI 202353Z 11004KT 10SM -RA SCT024 BKN050 BKN085 16/13 A2958 RMK AO2 SLP022 P0003 60012 T01560133 10172 20144 56014=
200808202327 SPECI KBLI 202327Z 16006KT 9SM -RA FEW019 SCT025 OVC032 16/13 A2959 RMK AO2 P0002=
200808202327 SPECI KBLI 202327Z 16006KT 9SM -RA FEW019 SCT025 OVC032 16/13 A2959 RMK AO2 P0002=
200808202253 METAR KBLI 202253Z 00000KT 5SM -RA BKN027 OVC036 15/12 A2960 RMK AO2 RAB23 SLP030 P0009 T01500122=
200808202234 SPECI KBLI 202234Z 22003KT 3SM RA FEW019 OVC036 16/13 A2959 RMK AO2 RAB23 P0007=
200808202234 SPECI KBLI 202234Z 22003KT 3SM RA FEW019 OVC036 16/13 A2959 RMK AO2 RAB23 P0007=
200808202229 SPECI KBLI 202229Z VRB03KT 1 3/4SM RA FEW016 OVC036 17/12 A2959 RMK AO2 RAB23 P0006=
200808202229 SPECI KBLI 202229Z VRB03KT 1 3/4SM RA FEW016 OVC036 17/12 A2959 RMK AO2 RAB23 P0006=
200808202153 METAR KBLI 202153Z 01003KT 10SM SCT028 OVC033 17/13 A2959 RMK AO2 SLP024 T01670128=
200808202053 METAR KBLI 202053Z 03007KT 10SM SCT028 OVC033 16/12 A2962 RMK AO2 SLP036 T01610122 58010=
200808201953 METAR KBLI 201953Z 00000KT 10SM FEW055 17/11 A2965 RMK AO2 SLP044 T01670106=
200808201853 METAR KBLI 201853Z 17005KT 10SM OVC030 16/11 A2965 RMK AO2 SLP047 T01610106=
200808201753 METAR KBLI 201753Z VRB04KT 10SM OVC034 16/12 A2965 RMK AO2 RAE42 SLP046 P0000 60000 T01560117 10161 20144 53012=
200808201653 METAR KBLI 201653Z 14005KT 6SM -RA SCT005 OVC030 16/12 A2964 RMK AO2 RAB44 SLP041 P0000 T01560117=
200808201553 METAR KBLI 201553Z 13005KT 10SM OVC030 16/12 A2961 RMK AO2 SLP034 T01560122=
200808201453 METAR KBLI 201453Z 17005KT 10SM SCT003 OVC036 14/14 A2962 RMK AO2 SLP034 60000 T01440139 51007=
200808201401 SPECI KBLI 201401Z 17006KT 10SM SCT009 OVC029 15/14 A2961 RMK AO2=
200808201401 SPECI KBLI 201401Z 17006KT 10SM SCT009 OVC029 15/14 A2961 RMK AO2=
200808201353 METAR KBLI 201353Z 16008KT 9SM FEW009 OVC032 15/13 A2961 RMK AO2 SLP034 T01500133=
200808201344 SPECI KBLI 201344Z AUTO 17007KT 10SM FEW009 OVC032 15/13 A2961 RMK AO2=
200808201344 SPECI KBLI 201344Z AUTO 17007KT 10SM FEW009 OVC032 15/13 A2961 RMK AO2=
200808201334 SPECI KBLI 201334Z AUTO 17006KT 10SM SCT009 BKN024 OVC032 15/14 A2961 RMK AO2=
200808201334 SPECI KBLI 201334Z AUTO 17006KT 10SM SCT009 BKN024 OVC032 15/14 A2961 RMK AO2=
200808201311 SPECI KBLI 201311Z AUTO 16008KT 10SM FEW009 SCT024 BKN034 16/14 A2960 RMK AO2=
200808201311 SPECI KBLI 201311Z AUTO 16008KT 10SM FEW009 SCT024 BKN034 16/14 A2960 RMK AO2=
200808201253 METAR KBLI 201253Z AUTO 16007KT 10SM FEW014 SCT032 BKN040 15/14 A2959 RMK AO2 RAE1157 SLP027 P0000 T01500139=
200808201153 METAR KBLI 201153Z AUTO 17008G16KT 10SM -RA FEW020 OVC040 16/14 A2959 RMK AO2 RAB10 SLP027 P0000 60005 70022 T01560139 10172 20156 51007=
200808201130 SPECI KBLI 201130Z AUTO 17007KT 10SM -RA FEW015 SCT032 OVC045 16/14 A2960 RMK AO2 RAB10 P0000=
200808201130 SPECI KBLI 201130Z AUTO 17007KT 10SM -RA FEW015 SCT032 OVC045 16/14 A2960 RMK AO2 RAB10 P0000=
200808201053 METAR KBLI 201053Z AUTO 18007G16KT 10SM BKN019 BKN024 OVC030 16/14 A2959 RMK AO2 RAE27 SLP025 P0000 T01610139=
200808200953 METAR KBLI 200953Z AUTO 15015G24KT 10SM -RA OVC023 17/14 A2958 RMK AO2 PK WND 15028/0906 RAB0857 SLP022 P0001 T01670139=
200808200853 METAR KBLI 200853Z AUTO 15014G25KT 10SM BKN026 OVC070 17/13 A2957 RMK AO2 PK WND 15030/0828 RAE17 SLP019 P0000 60004 T01720133 56002=
200808200810 SPECI KBLI 200810Z AUTO 15016G26KT 10SM -RA SCT026 BKN070 OVC095 17/14 A2957 RMK AO2 PK WND 16027/0758 P0000=
200808200810 SPECI KBLI 200810Z AUTO 15016G26KT 10SM -RA SCT026 BKN070 OVC095 17/14 A2957 RMK AO2 PK WND 16027/0758 P0000=
200808200753 METAR KBLI 200753Z AUTO 15016G23KT 10SM -RA BKN028 BKN070 OVC090 17/13 A2957 RMK AO2 RAE18B45 SLP020 P0001 T01720133 402110139=
200808200733 SPECI KBLI 200733Z AUTO 15016G21KT 10SM BKN028 OVC070 17/13 A2957 RMK AO2 RAE18 P0001=
200808200733 SPECI KBLI 200733Z AUTO 15016G21KT 10SM BKN028 OVC070 17/13 A2957 RMK AO2 RAE18 P0001=
200808200705 SPECI KBLI 200705Z AUTO 15015G25KT 10SM -RA SCT029 OVC070 17/14 A2958 RMK AO2 P0001=
200808200705 SPECI KBLI 200705Z AUTO 15015G25KT 10SM -RA SCT029 OVC070 17/14 A2958 RMK AO2 P0001=
200808200653 METAR KBLI 200653Z AUTO 14013G19KT 10SM -RA BKN029 OVC070 17/13 A2958 RMK AO2 PK WND 12026/0635 SLP021 P0003 T01670133=
200808200639 SPECI KBLI 200639Z AUTO 14011G26KT 10SM -RA BKN029 OVC080 17/14 A2958 RMK AO2 PK WND 12026/0635 P0003=
200808200639 SPECI KBLI 200639Z AUTO 14011G26KT 10SM -RA BKN029 OVC080 17/14 A2958 RMK AO2 PK WND 12026/0635 P0003=
200808200553 METAR KBLI 200553Z AUTO 13015G20KT 7SM -RA FEW023 BKN034 OVC041 16/15 A2959 RMK AO2 SLP027 P0008 60015 T01610150 10211 20161 58020=
200808200453 METAR KBLI 200453Z 15010KT 9SM -RA FEW034 SCT050 OVC090 17/14 A2962 RMK AO2 SLP037 P0007 T01670139=
200808200353 METAR KBLI 200353Z 17009KT 10SM -RA BKN045 OVC060 18/14 A2964 RMK AO2 RAB06 SLP042 P0000 T01780139=
200808200253 METAR KBLI 200253Z 13005KT 10SM BKN049 BKN110 20/12 A2965 RMK AO2 SLP047 T02000117 58027=
200808200153 METAR KBLI 200153Z 15008KT 10SM FEW047 21/12 A2968 RMK AO2 SLP055 T02110117=
200808200053 METAR KBLI 200053Z 19005KT 10SM SCT043 OVC055 20/13 A2971 RMK AO2 SLP066 T02000128=
200808192353 METAR KBLI 192353Z 16007KT 10SM BKN042 OVC050 21/12 A2973 RMK AO2 SLP074 60001 T02110122 10211 20156 56028=
200808192253 METAR KBLI 192253Z 05004KT 10SM SCT037 BKN045 OVC095 21/14 A2976 RMK AO2 SLP082 T02110144=
200808192153 METAR KBLI 192153Z 00000KT 10SM BKN036 OVC043 19/13 A2979 RMK AO2 SLP092 T01890133=
200808192053 METAR KBLI 192053Z 18004KT 10SM FEW030 BKN080 18/13 A2982 RMK AO2 SLP102 60001 T01780133 58011=
200808192042 SPECI KBLI 192042Z 17003KT 10SM SCT028 OVC080 18/14 A2982 RMK AO2=
200808192042 SPECI KBLI 192042Z 17003KT 10SM SCT028 OVC080 18/14 A2982 RMK AO2=
200808191953 METAR KBLI 191953Z 00000KT 10SM BKN024 BKN030 OVC039 16/14 A2983 RMK AO2 RAE21 SLP106 P0001 T01560139=
200808191853 METAR KBLI 191853Z 19004KT 10SM -RA BKN024 OVC032 16/13 A2984 RMK AO2 RAB29 SLP112 P0000 T01610133=
200808191817 SPECI KBLI 191817Z 19005KT 10SM BKN024 OVC032 16/13 A2985 RMK AO2=
200808191817 SPECI KBLI 191817Z 19005KT 10SM BKN024 OVC032 16/13 A2985 RMK AO2=
200808191753 METAR KBLI 191753Z 17007KT 10SM OVC036 17/13 A2985 RMK AO2 SLP113 60001 T01670133 10167 20139 53002=
200808191653 METAR KBLI 191653Z 17005KT 10SM FEW003 OVC042 16/14 A2984 RMK AO2 RAE1556 SLP110 P0000 T01560139=
200808191556 SPECI KBLI 191556Z 18006KT 10SM FEW003 BKN042 OVC060 14/13 A2985 RMK AO2 RAE56 P0000=
200808191556 SPECI KBLI 191556Z 18006KT 10SM FEW003 BKN042 OVC060 14/13 A2985 RMK AO2 RAE56 P0000=
200808191553 METAR KBLI 191553Z 18006KT 10SM -RA FEW003 BKN040 OVC090 14/13 A2985 RMK AO2 RAB42 SLP112 P0000 T01440133=
200808191513 SPECI KBLI 191513Z 17008KT 10SM FEW003 BKN040 OVC090 14/13 A2984 RMK AO2=
200808191513 SPECI KBLI 191513Z 17008KT 10SM FEW003 BKN040 OVC090 14/13 A2984 RMK AO2=
200808191453 METAR KBLI 191453Z 18007KT 10SM BKN040 OVC065 14/13 A2984 RMK AO2 SLP111 60001 T01440133 50005=
200808191353 METAR KBLI 191353Z AUTO 20003KT 10SM FEW026 BKN050 OVC060 14/13 A2984 RMK AO2 RAE1259 SLP111 P0000 T01440133=
200808191346 SPECI KBLI 191346Z AUTO 15003KT 10SM SCT028 BKN035 OVC060 14/13 A2984 RMK AO2 RAE1259 P0000=
200808191346 SPECI KBLI 191346Z AUTO 15003KT 10SM SCT028 BKN035 OVC060 14/13 A2984 RMK AO2 RAE1259 P0000=
200808191253 METAR KBLI 191253Z AUTO 18007KT 9SM -RA OVC027 14/13 A2984 RMK AO2 RAB39 SLP110 P0001 T01440133=
200808191153 METAR KBLI 191153Z AUTO 17006KT 10SM FEW004 OVC021 14/13 A2983 RMK AO2 RAE17 SLP106 P0001 60002 70006 T01440133 10161 20144 51006=
200808191127 SPECI KBLI 191127Z AUTO 18006KT 8SM FEW004 BKN021 OVC050 14/13 A2983 RMK AO2 RAE17 P0001=
200808191127 SPECI KBLI 191127Z AUTO 18006KT 8SM FEW004 BKN021 OVC050 14/13 A2983 RMK AO2 RAE17 P0001=
200808191053 METAR KBLI 191053Z AUTO 17005KT 5SM -RA BR FEW021 SCT028 OVC055 14/14 A2982 RMK AO2 RAB22 SLP105 P0001 T01440139=
200808191049 SPECI KBLI 191049Z AUTO 19004KT 7SM -RA SCT021 SCT028 OVC055 14/13 A2982 RMK AO2 RAB22 P0001=
200808191049 SPECI KBLI 191049Z AUTO 19004KT 7SM -RA SCT021 SCT028 OVC055 14/13 A2982 RMK AO2 RAB22 P0001=
200808191022 SPECI KBLI 191022Z AUTO 17007KT 9SM -RA BKN021 BKN050 OVC060 15/13 A2982 RMK AO2 RAB22 P0000=
200808191022 SPECI KBLI 191022Z AUTO 17007KT 9SM -RA BKN021 BKN050 OVC060 15/13 A2982 RMK AO2 RAB22 P0000=
200808190953 METAR KBLI 190953Z AUTO 16005KT 10SM SCT021 OVC055 15/14 A2981 RMK AO2 RAB21E52 SLP100 P0000 T01500139=
200808190909 SPECI KBLI 190909Z AUTO 19003KT 10SM BKN021 OVC065 15/13 A2981 RMK AO2=
200808190909 SPECI KBLI 190909Z AUTO 19003KT 10SM BKN021 OVC065 15/13 A2981 RMK AO2=
200808190853 METAR KBLI 190853Z AUTO 18005KT 10SM FEW023 OVC065 15/13 A2981 RMK AO2 RAE17B41E52 SLP100 P0000 60000 T01500133 58001=
200808190753 METAR KBLI 190753Z AUTO 16008KT 10SM -RA FEW019 OVC060 16/13 A2981 RMK AO2 RAB39 SLP101 P0000 T01610133 401780150=
200808190745 SPECI KBLI 190745Z AUTO 16008KT 10SM -RA SCT019 OVC060 16/13 A2981 RMK AO2 LTG DSNT SE RAB39 P0000=
200808190745 SPECI KBLI 190745Z AUTO 16008KT 10SM -RA SCT019 OVC060 16/13 A2981 RMK AO2 LTG DSNT SE RAB39 P0000=
200808190736 SPECI KBLI 190736Z AUTO 15010KT 10SM BKN019 OVC060 16/13 A2981 RMK AO2 LTG DSNT SE=
200808190736 SPECI KBLI 190736Z AUTO 15010KT 10SM BKN019 OVC060 16/13 A2981 RMK AO2 LTG DSNT SE=
200808190653 METAR KBLI 190653Z AUTO 17010KT 10SM OVC060 16/13 A2981 RMK AO2 SLP101 T01560128=
200808190553 METAR KBLI 190553Z AUTO 16010G18KT 10SM OVC060 16/13 A2981 RMK AO2 RAB12E25 SLP101 P0000 60002 T01560133 10172 20150 51009=
200808190453 METAR KBLI 190453Z 15014G20KT 10SM OVC065 16/13 A2980 RMK AO2 RAB25E36 SLP098 P0001 T01610133=
200808190353 METAR KBLI 190353Z 16010G16KT 10SM FEW016 BKN080 OVC120 15/13 A2980 RMK AO2 RAB0256E48 SLP097 P0000 T01500128=
200808190253 METAR KBLI 190253Z 15012KT 10SM FEW035 BKN110 15/13 A2979 RMK AO2 RAE50 SLP092 P0001 60001 T01500128 56006=
200808190153 METAR KBLI 190153Z 16015G20KT 10SM -RA BKN050 OVC100 17/13 A2979 RMK AO2 RAB53 SLP093 P0000 T01670128=
200808190053 METAR KBLI 190053Z 15013KT 10SM OVC047 17/13 A2979 RMK AO2 SLP094 T01720128=
200808182353 METAR KBLI 182353Z 16008KT 10SM BKN036 OVC110 17/13 A2981 RMK AO2 SLP098 60001 T01670133 10172 20161 58008=
200808182253 METAR KBLI 182253Z 16009KT 10SM BKN040 BKN110 17/14 A2983 RMK AO2 SLP106 T01670139=
200808182153 METAR KBLI 182153Z 16007KT 10SM SCT025 BKN041 BKN100 17/15 A2982 RMK AO2 RAE47 SLP104 P0001 T01720150=
200808182053 METAR KBLI 182053Z 18006G14KT 10SM -RA BKN100 17/14 A2983 RMK AO2 RAB15E29B51 SLP107 P0000 60000 T01670144 50001=
200808181953 METAR KBLI 181953Z 18007G15KT 10SM FEW020 SCT044 BKN100 17/13 A2984 RMK AO2 SLP110 T01670133=
200808181853 METAR KBLI 181853Z 18009G17KT 10SM CLR 17/14 A2983 RMK AO2 SLP108 T01720139=
200808181753 METAR KBLI 181753Z 18014G21KT 10SM CLR 17/13 A2983 RMK AO2 SLP106 60001 T01670133 10178 20150 53019=
200808181653 METAR KBLI 181653Z 17009KT 10SM CLR 16/13 A2978 RMK AO2 SLP091 T01610128=
200808181553 METAR KBLI 181553Z 22008G14KT 10SM CLR 16/13 A2977 RMK AO2 RAE26 PRESRR SLP088 P0000 T01560133=
200808181453 METAR KBLI 181453Z 16011KT 10SM -RA SCT090 15/13 A2977 RMK AO2 PK WND 17027/1407 RAE17B44 SLP088 P0000 60001 T01500128 53004=
200808181353 METAR KBLI 181353Z 14005KT 10SM -RA SCT070 BKN110 16/13 A2976 RMK AO2 PK WND 17026/1305 RAB28 SLP082 P0000 T01560133=
200808181253 METAR KBLI 181253Z AUTO 17014G22KT 10SM SCT070 15/13 A2975 RMK AO2 RAB18E53 SLP081 P0001 T01500133=
200808181153 METAR KBLI 181153Z AUTO 19005KT 10SM SCT110 16/13 A2976 RMK AO2 SLP083 60000 70001 T01560133 10178 20150 50007=
200808181053 METAR KBLI 181053Z AUTO 17005KT 10SM FEW100 16/13 A2976 RMK AO2 RAB37E51 SLP083 P0000 T01560128=
200808180953 METAR KBLI 180953Z AUTO 18011G16KT 10SM CLR 16/13 A2977 RMK AO2 SLP086 T01560128=
200808180853 METAR KBLI 180853Z AUTO 00000KT 10SM FEW095 17/13 A2974 RMK AO2 RAB37E46 SLP075 P0000 60000 T01670133 50002=
200808180753 METAR KBLI 180753Z AUTO 13003KT 10SM CLR 17/13 A2976 RMK AO2 SLP082 T01670133 402780156=
200808180653 METAR KBLI 180653Z AUTO 16003KT 10SM CLR 18/13 A2976 RMK AO2 SLP082 T01780133=
200808180553 METAR KBLI 180553Z AUTO 00000KT 10SM CLR 17/14 A2973 RMK AO2 SLP073 60000 T01720139 10211 20167 58003=
200808180453 METAR KBLI 180453Z 18011G18KT 10SM FEW100 19/14 A2976 RMK AO2 SLP081 T01890139=
200808180353 METAR KBLI 180353Z 17007KT 10SM CLR 17/13 A2975 RMK AO2 SLP080 T01720133=
200808180253 METAR KBLI 180253Z 18006KT 10SM CLR 18/14 A2974 RMK AO2 SLP077 60000 T01830144 51019=
200808180153 METAR KBLI 180153Z 00000KT 10SM CLR 20/16 A2974 RMK AO2 RAB0054E04 SLP076 P0000 T02000161=
200808180053 METAR KBLI 180053Z 17007KT 10SM CLR 21/16 A2975 RMK AO2 RAE05 SLP080 LTG W CG P0000 T02060156=
200808172353 METAR KBLI 172353Z 36005KT 10SM -RA FEW090 21/16 A2969 RMK AO2 RAB45 SLP058 P0000 60000 T02060156 10278 20206 58012=
200808172253 METAR KBLI 172253Z 16004KT 10SM CLR 23/16 A2972 RMK AO2 RAB11E23 SLP068 P0000 T02280161=
200808172153 METAR KBLI 172153Z 00000KT 10SM CLR 22/17 A2972 RMK AO2 RAB21E37 SLP070 P0000 T02170167=
200808172053 METAR KBLI 172053Z 00000KT 10SM CLR 24/18 A2972 RMK AO2 SLP070 T02440178 55006=
200808171953 METAR KBLI 171953Z VRB05KT 10SM CLR 26/18 A2972 RMK AO2 SLP068 T02560178=
200808171853 METAR KBLI 171853Z VRB03KT 10SM CLR 26/18 A2973 RMK AO2 SLP071 T02560178=
200808171753 METAR KBLI 171753Z 02005KT 10SM CLR 25/17 A2974 RMK AO2 SLP077 60001 T02500172 10256 20167 56010=
200808171653 METAR KBLI 171653Z 35005KT 10SM CLR 22/17 A2974 RMK AO2 RAB07E17 SLP077 P0000 T02220172=
200808171553 METAR KBLI 171553Z 32007KT 8SM CLR 17/16 A2974 RMK AO2 RAB07E37 SLP076 P0001 T01720156=
200808171453 METAR KBLI 171453Z 02005KT 10SM CLR 18/15 A2977 RMK AO2 LTG DSNT NW SLP087 T01780150 50004=
200808171353 METAR KBLI 171353Z 17006KT 10SM CLR 18/14 A2978 RMK AO2 SLP088 T01830139=
200808171253 METAR KBLI 171253Z AUTO 17008KT 10SM CLR 17/14 A2978 RMK AO2 SLP088 T01670144=
200808171153 METAR KBLI 171153Z AUTO 17007KT 10SM CLR 17/14 A2976 RMK AO2 SLP082 T01670144 10194 20156 53007=
200808171053 METAR KBLI 171053Z AUTO 16003KT 10SM CLR 16/14 A2975 RMK AO2 SLP078 T01610144=
200808170953 METAR KBLI 170953Z AUTO 15003KT 10SM CLR 16/14 A2974 RMK AO2 SLP075 T01610144=
200808170853 METAR KBLI 170853Z AUTO 00000KT 10SM CLR 17/16 A2974 RMK AO2 SLP075 T01670156 50003=
200808170753 METAR KBLI 170753Z AUTO 00000KT 10SM CLR 17/15 A2974 RMK AO2 SLP075 T01670150 402780133=
200808170653 METAR KBLI 170653Z AUTO 19005KT 10SM CLR 19/15 A2974 RMK AO2 SLP074 T01890150=
200808170553 METAR KBLI 170553Z AUTO 17003KT 10SM CLR 19/16 A2973 RMK AO2 SLP072 T01890156 10278 20178 53001=
200808170453 METAR KBLI 170453Z 00000KT 10SM CLR 18/16 A2973 RMK AO2 SLP072 T01830161=
200808170353 METAR KBLI 170353Z 00000KT 10SM CLR 20/16 A2973 RMK AO2 SLP071 T02000161=
200808170253 METAR KBLI 170253Z 00000KT 10SM CLR 22/17 A2973 RMK AO2 SLP072 T02170172 56014=
200808170153 METAR KBLI 170153Z 26003KT 10SM CLR 25/16 A2973 RMK AO2 SLP073 T02500156=
200808170053 METAR KBLI 170053Z 00000KT 10SM CLR 27/17 A2975 RMK AO2 SLP079 T02720172=
200808162353 METAR KBLI 162353Z 29003KT 10SM CLR 27/18 A2977 RMK AO2 SLP086 T02720178 10278 20244 58024=
200808162253 METAR KBLI 162253Z 28004KT 10SM CLR 28/17 A2980 RMK AO2 SLP094 T02780172=
200808162153 METAR KBLI 162153Z 26006KT 10SM CLR 27/17 A2982 RMK AO2 SLP102 T02720172=
200808162053 METAR KBLI 162053Z VRB06KT 10SM CLR 27/18 A2984 RMK AO2 SLP109 T02670178 58016=
200808161953 METAR KBLI 161953Z 29005KT 10SM CLR 26/17 A2986 RMK AO2 SLP115 T02560172=
200808161853 METAR KBLI 161853Z VRB04KT 10SM CLR 26/17 A2987 RMK AO2 SLP120 T02560172=
200808161753 METAR KBLI 161753Z 00000KT 10SM CLR 25/17 A2989 RMK AO2 SLP125 T02500172 10250 20133 58006=
200808161653 METAR KBLI 161653Z 31004KT 10SM CLR 22/17 A2990 RMK AO2 SLP128 T02220167=
200808161553 METAR KBLI 161553Z 00000KT 10SM CLR 19/17 A2990 RMK AO2 SLP129 T01940167=
200808161453 METAR KBLI 161453Z 00000KT 10SM CLR 18/16 A2990 RMK AO2 SLP131 T01780161 51002=
200808161353 METAR KBLI 161353Z 00000KT 10SM CLR 14/13 A2990 RMK AO2 SLP130 T01440133=
200808161345 SPECI KBLI 161345Z AUTO 00000KT 1/2SM FG CLR 14/13 A2990 RMK AO2 VIS M1/4V5 RVRNO=
200808161345 SPECI KBLI 161345Z AUTO 00000KT 1/2SM FG CLR 14/13 A2990 RMK AO2 VIS M1/4V5 RVRNO=
200808161338 SPECI KBLI 161338Z AUTO 00000KT 3/4SM BR CLR 13/13 A2990 RMK AO2 VIS M1/4V5 RVRNO=
200808161338 SPECI KBLI 161338Z AUTO 00000KT 3/4SM BR CLR 13/13 A2990 RMK AO2 VIS M1/4V5 RVRNO=
200808161253 METAR KBLI 161253Z AUTO 00000KT 6SM BR CLR 14/13 A2990 RMK AO2 SLP131 T01390128=
200808161153 METAR KBLI 161153Z AUTO 00000KT 3SM BR CLR 15/14 A2990 RMK AO2 SLP129 T01500139 10172 20139 57002=
200808161137 SPECI KBLI 161137Z AUTO 00000KT 1 3/4SM BR CLR 14/13 A2990 RMK AO2 VIS 1/2V5=
200808161137 SPECI KBLI 161137Z AUTO 00000KT 1 3/4SM BR CLR 14/13 A2990 RMK AO2 VIS 1/2V5=
200808161053 METAR KBLI 161053Z AUTO 00000KT 10SM CLR 15/14 A2990 RMK AO2 SLP130 T01500139=
200808160953 METAR KBLI 160953Z AUTO 00000KT 10SM CLR 16/14 A2990 RMK AO2 SLP130 T01560144=
200808160853 METAR KBLI 160853Z AUTO 00000KT 10SM CLR 16/14 A2990 RMK AO2 SLP131 T01560144 56002=
200808160753 METAR KBLI 160753Z AUTO 00000KT 10SM CLR 17/15 A2990 RMK AO2 SLP131 T01670150 402940150=
200808160653 METAR KBLI 160653Z AUTO 15003KT 10SM CLR 17/15 A2990 RMK AO2 SLP131 T01720150=
200808160553 METAR KBLI 160553Z AUTO 00000KT 10SM CLR 17/16 A2991 RMK AO2 SLP132 T01720156 10261 20161 50002=
200808160453 METAR KBLI 160453Z 00000KT 10SM CLR 18/16 A2991 RMK AO2 SLP133 T01780156=
200808160353 METAR KBLI 160353Z 28003KT 10SM CLR 19/16 A2991 RMK AO2 SLP132 T01890161=
200808160253 METAR KBLI 160253Z 00000KT 10SM CLR 21/17 A2990 RMK AO2 SLP131 T02110172 56014=
200808160153 METAR KBLI 160153Z 22004KT 10SM CLR 23/17 A2991 RMK AO2 SLP134 T02330167=
200808160053 METAR KBLI 160053Z 00000KT 10SM CLR 25/16 A2992 RMK AO2 SLP136 T02500156=
200808152353 METAR KBLI 152353Z 29005KT 10SM CLR 23/16 A2995 RMK AO2 SLP145 T02330156 10294 20233 56010=
200808152253 METAR KBLI 152253Z 27008KT 10SM CLR 24/17 A2995 RMK AO2 SLP146 T02440167=
200808152153 METAR KBLI 152153Z 27007KT 10SM CLR 26/17 A2995 RMK AO2 SLP147 T02560167=
200808152053 METAR KBLI 152053Z 00000KT 10SM CLR 28/18 A2998 RMK AO2 SLP155 T02830183 58007=
200808151953 METAR KBLI 151953Z 35003KT 10SM CLR 27/18 A2999 RMK AO2 SLP160 T02670183=
200808151853 METAR KBLI 151853Z VRB03KT 10SM CLR 24/18 A3001 RMK AO2 SLP166 T02440178=
200808151753 METAR KBLI 151753Z 32004KT 10SM CLR 25/17 A3000 RMK AO2 SLP163 T02500172 10256 20150 53007=
200808151653 METAR KBLI 151653Z 35005KT 10SM CLR 24/17 A2999 RMK AO2 SLP160 T02390167=
200808151553 METAR KBLI 151553Z 00000KT 10SM CLR 21/16 A2998 RMK AO2 SLP158 T02110161=
200808151453 METAR KBLI 151453Z 00000KT 10SM CLR 19/16 A2998 RMK AO2 SLP156 T01890156 53005=
200808151353 METAR KBLI 151353Z 00000KT 10SM CLR 16/15 A2997 RMK AO2 SLP152 T01610150=
200808151253 METAR KBLI 151253Z AUTO 00000KT 9SM CLR 15/14 A2996 RMK AO2 SLP149 T01500139=
200808151153 METAR KBLI 151153Z AUTO 00000KT 10SM CLR 16/15 A2996 RMK AO2 SLP150 T01610150 10178 20156 58002=
200808151053 METAR KBLI 151053Z AUTO 00000KT 10SM CLR 16/14 A2997 RMK AO2 SLP154 T01560144=
200808150953 METAR KBLI 150953Z AUTO 00000KT 10SM CLR 17/14 A2997 RMK AO2 SLP153 T01670144=
200808150853 METAR KBLI 150853Z AUTO 00000KT 10SM CLR 17/15 A2997 RMK AO2 SLP153 T01720150 51003=
200808150753 METAR KBLI 150753Z AUTO 00000KT 10SM CLR 17/16 A2997 RMK AO2 SLP152 T01720156 402670122=
200808150653 METAR KBLI 150653Z AUTO 00000KT 10SM CLR 18/15 A2997 RMK AO2 SLP152 T01780150=
200808150553 METAR KBLI 150553Z AUTO 00000KT 10SM CLR 18/16 A2996 RMK AO2 SLP149 T01780156 10267 20172 51003=
200808150453 METAR KBLI 150453Z 00000KT 10SM CLR 19/16 A2996 RMK AO2 SLP149 T01890161=
200808150353 METAR KBLI 150353Z 00000KT 10SM CLR 19/16 A2995 RMK AO2 SLP148 T01940161=
200808150253 METAR KBLI 150253Z 00000KT 10SM CLR 23/18 A2995 RMK AO2 SLP147 T02280178 56012=
200808150153 METAR KBLI 150153Z 00000KT 10SM CLR 26/17 A2995 RMK AO2 SLP148 T02610167=
200808150053 METAR KBLI 150053Z 29005KT 10SM CLR 26/16 A2997 RMK AO2 SLP153 T02610156=
200808142353 METAR KBLI 142353Z 27007KT 10SM CLR 26/16 A2998 RMK AO2 SLP158 T02610156 10267 20233 56012=
200808142253 METAR KBLI 142253Z VRB05KT 10SM CLR 26/17 A2999 RMK AO2 SLP159 T02610167=
200808142153 METAR KBLI 142153Z 28005KT 10SM CLR 25/16 A3001 RMK AO2 SLP167 T02500161=
200808142053 METAR KBLI 142053Z 28007KT 10SM CLR 26/16 A3002 RMK AO2 SLP170 T02560161 56013=
200808141953 METAR KBLI 141953Z 28009KT 10SM CLR 26/16 A3003 RMK AO2 SLP173 T02560161=
200808141853 METAR KBLI 141853Z VRB03KT 10SM CLR 26/16 A3004 RMK AO2 SLP178 T02560161=
200808141753 METAR KBLI 141753Z VRB05KT 10SM CLR 23/16 A3006 RMK AO2 SLP183 T02330156 10233 20122 58004=
200808141653 METAR KBLI 141653Z 34004KT 10SM CLR 22/15 A3007 RMK AO2 SLP186 T02170150=
200808141553 METAR KBLI 141553Z 01004KT 10SM CLR 19/16 A3007 RMK AO2 SLP188 T01940156=
200808141453 METAR KBLI 141453Z 36003KT 10SM CLR 17/14 A3007 RMK AO2 SLP188 T01670144 53004=
200808141353 METAR KBLI 141353Z 00000KT 9SM CLR 13/13 A3007 RMK AO2 SLP187 T01330128=
200808141340 SPECI KBLI 141340Z AUTO 00000KT 6SM BR CLR 13/12 A3006 RMK AO2=
200808141340 SPECI KBLI 141340Z AUTO 00000KT 6SM BR CLR 13/12 A3006 RMK AO2=
200808141331 SPECI KBLI 141331Z AUTO 00000KT 2 1/2SM BR CLR 12/12 A3006 RMK AO2=
200808141331 SPECI KBLI 141331Z AUTO 00000KT 2 1/2SM BR CLR 12/12 A3006 RMK AO2=
200808141314 SPECI KBLI 141314Z AUTO 00000KT 4SM BR CLR 12/12 A3006 RMK AO2=
200808141314 SPECI KBLI 141314Z AUTO 00000KT 4SM BR CLR 12/12 A3006 RMK AO2=
200808141311 SPECI KBLI 141311Z AUTO 00000KT 1SM BR CLR 13/12 A3006 RMK AO2 RVRNO=
200808141311 SPECI KBLI 141311Z AUTO 00000KT 1SM BR CLR 13/12 A3006 RMK AO2 RVRNO=
200808141303 SPECI KBLI 141303Z AUTO 00000KT 1/2SM FG CLR 12/12 A3006 RMK AO2 RVRNO=
200808141303 SPECI KBLI 141303Z AUTO 00000KT 1/2SM FG CLR 12/12 A3006 RMK AO2 RVRNO=
200808141300 SPECI KBLI 141300Z AUTO 00000KT 1 1/4SM BR CLR 13/12 A3006 RMK AO2=
200808141300 SPECI KBLI 141300Z AUTO 00000KT 1 1/4SM BR CLR 13/12 A3006 RMK AO2=
200808141253 METAR KBLI 141253Z AUTO 00000KT 5SM BR CLR 13/12 A3006 RMK AO2 SLP184 T01280117=
200808141206 SPECI KBLI 141206Z AUTO 00000KT 10SM CLR 13/12 A3006 RMK AO2=
200808141206 SPECI KBLI 141206Z AUTO 00000KT 10SM CLR 13/12 A3006 RMK AO2=
200808141157 SPECI KBLI 141157Z AUTO 00000KT 1SM BR CLR 13/12 A3006 RMK AO2 RVRNO=
200808141157 SPECI KBLI 141157Z AUTO 00000KT 1SM BR CLR 13/12 A3006 RMK AO2 RVRNO=
200808141153 METAR KBLI 141153Z AUTO 00000KT 1/2SM FG CLR 13/12 A3006 RMK AO2 SLP184 T01330122 10156 20128 55001 RVRNO=
200808141151 SPECI KBLI 141151Z AUTO 00000KT 1/2SM FG CLR 13/12 A3006 RMK AO2 RVRNO=
200808141151 SPECI KBLI 141151Z AUTO 00000KT 1/2SM FG CLR 13/12 A3006 RMK AO2 RVRNO=
200808141146 SPECI KBLI 141146Z AUTO 00000KT 1 3/4SM BR CLR 13/12 A3006 RMK AO2=
200808141146 SPECI KBLI 141146Z AUTO 00000KT 1 3/4SM BR CLR 13/12 A3006 RMK AO2=
200808141053 METAR KBLI 141053Z AUTO 00000KT 10SM CLR 14/13 A3006 RMK AO2 SLP182 T01390128=
200808140953 METAR KBLI 140953Z AUTO 00000KT 10SM CLR 14/13 A3006 RMK AO2 SLP182 T01440133=
200808140853 METAR KBLI 140853Z AUTO 00000KT 10SM CLR 14/13 A3006 RMK AO2 SLP184 T01440133 50000=
200808140753 METAR KBLI 140753Z AUTO 00000KT 10SM CLR 14/13 A3006 RMK AO2 SLP186 T01440133 402440128=
200808140653 METAR KBLI 140653Z AUTO 00000KT 10SM CLR 15/14 A3006 RMK AO2 SLP185 T01500139=
200808140553 METAR KBLI 140553Z AUTO 00000KT 10SM CLR 16/14 A3006 RMK AO2 SLP184 T01610139 10233 20156 50001=
200808140453 METAR KBLI 140453Z 00000KT 10SM CLR 17/14 A3006 RMK AO2 SLP185 T01670144=
200808140353 METAR KBLI 140353Z 00000KT 10SM CLR 18/14 A3006 RMK AO2 SLP185 T01780139=
200808140253 METAR KBLI 140253Z 00000KT 10SM CLR 20/14 A3006 RMK AO2 SLP184 T02000144 58005=
200808140153 METAR KBLI 140153Z VRB04KT 10SM CLR 22/13 A3006 RMK AO2 SLP186 T02220133=
200808140053 METAR KBLI 140053Z 25005KT 10SM CLR 23/13 A3007 RMK AO2 SLP188 T02280133=
200808132353 METAR KBLI 132353Z 26005KT 10SM CLR 23/14 A3007 RMK AO2 SLP188 T02330139 10244 20200 56012=
200808132253 METAR KBLI 132253Z 28006KT 10SM CLR 23/15 A3008 RMK AO2 SLP192 T02330150=
200808132153 METAR KBLI 132153Z 26005KT 10SM CLR 23/14 A3010 RMK AO2 SLP196 T02280144=
200808132053 METAR KBLI 132053Z VRB06KT 10SM CLR 23/15 A3011 RMK AO2 SLP200 T02280150 58001=
200808131953 METAR KBLI 131953Z VRB05KT 10SM CLR 22/15 A3011 RMK AO2 SLP201 T02170150=
200808131853 METAR KBLI 131853Z 28006KT 10SM CLR 21/14 A3011 RMK AO2 SLP203 T02060144=
200808131753 METAR KBLI 131753Z 00000KT 10SM SCT015 20/14 A3011 RMK AO2 SLP203 T02000144 10206 20128 51007=
200808131653 METAR KBLI 131653Z 00000KT 10SM CLR 18/14 A3011 RMK AO2 SLP201 T01830139=
200808131553 METAR KBLI 131553Z 00000KT 10SM FEW009 17/13 A3010 RMK AO2 SLP200 T01720133=
200808131523 SPECI KBLI 131523Z 17004KT 10SM FEW009 17/13 A3010 RMK AO2=
200808131523 SPECI KBLI 131523Z 17004KT 10SM FEW009 17/13 A3010 RMK AO2=
200808131453 METAR KBLI 131453Z 00000KT 10SM CLR 16/13 A3009 RMK AO2 SLP195 T01610133 51007=
200808131353 METAR KBLI 131353Z 00000KT 10SM CLR 14/13 A3009 RMK AO2 SLP194 T01440133=
200808131253 METAR KBLI 131253Z AUTO 00000KT 10SM CLR 13/12 A3007 RMK AO2 SLP190 T01330122=
200808131153 METAR KBLI 131153Z AUTO 19003KT 10SM SCT055 14/13 A3007 RMK AO2 SLP188 T01440128 10167 20139 52005=
200808131053 METAR KBLI 131053Z AUTO 19003KT 10SM SCT055 15/13 A3006 RMK AO2 SLP187 T01500128=
200808130953 METAR KBLI 130953Z AUTO 17004KT 10SM FEW060 OVC070 16/13 A3006 RMK AO2 SLP184 T01560133=
200808130853 METAR KBLI 130853Z AUTO 18004KT 10SM OVC080 16/13 A3005 RMK AO2 SLP183 T01610133 51003=
200808130753 METAR KBLI 130753Z AUTO 00000KT 10SM FEW055 OVC075 16/14 A3005 RMK AO2 SLP183 T01610139 402170089=
200808130653 METAR KBLI 130653Z AUTO 00000KT 10SM BKN050 OVC060 16/13 A3005 RMK AO2 SLP181 T01610133=
200808130553 METAR KBLI 130553Z AUTO 18004KT 10SM OVC050 17/13 A3004 RMK AO2 SLP180 T01670133 10194 20167 51004=
200808130453 METAR KBLI 130453Z 00000KT 10SM OVC055 17/13 A3004 RMK AO2 SLP178 T01670133=
200808130353 METAR KBLI 130353Z 16003KT 10SM OVC060 17/13 A3004 RMK AO2 SLP179 T01670133=
200808130253 METAR KBLI 130253Z 00000KT 10SM OVC090 18/13 A3003 RMK AO2 SLP176 T01780133 51003=
200808130153 METAR KBLI 130153Z 18003KT 10SM BKN100 19/13 A3003 RMK AO2 SLP174 T01890133=
200808130053 METAR KBLI 130053Z 19005KT 10SM FEW110 19/13 A3003 RMK AO2 SLP175 T01890133=
200808122353 METAR KBLI 122353Z 19004KT 10SM CLR 19/14 A3002 RMK AO2 SLP173 T01940139 10217 20183 53003=
200808122253 METAR KBLI 122253Z VRB06KT 10SM FEW070 21/13 A3002 RMK AO2 SLP172 T02060133=
200808122153 METAR KBLI 122153Z 17005KT 10SM CLR 21/13 A3002 RMK AO2 SLP170 T02110128=
200808122053 METAR KBLI 122053Z 18007KT 10SM CLR 21/13 A3002 RMK AO2 SLP170 T02060128 52003=
200808121953 METAR KBLI 121953Z 17009KT 10SM CLR 21/13 A3001 RMK AO2 SLP169 T02060133=
200808121853 METAR KBLI 121853Z 17007KT 10SM CLR 18/13 A3001 RMK AO2 SLP169 T01830133=
200808121753 METAR KBLI 121753Z 17004KT 10SM CLR 19/13 A3001 RMK AO2 SLP168 T01890133 10189 20089 53001=
200808121653 METAR KBLI 121653Z 00000KT 10SM CLR 18/13 A3000 RMK AO2 SLP165 T01780133=
200808121553 METAR KBLI 121553Z 24003KT 10SM CLR 17/13 A3001 RMK AO2 SLP167 T01670133=
200808121453 METAR KBLI 121453Z 00000KT 10SM CLR 14/13 A3001 RMK AO2 SLP166 T01440128 53005=
200808121353 METAR KBLI 121353Z AUTO 00000KT 10SM CLR 11/11 A2999 RMK AO2 SLP163 T01110106=
200808121315 SPECI KBLI 121315Z AUTO 00000KT 10SM CLR 11/09 A2998 RMK AO2=
200808121315 SPECI KBLI 121315Z AUTO 00000KT 10SM CLR 11/09 A2998 RMK AO2=
200808121308 SPECI KBLI 121308Z AUTO 00000KT 1 1/2SM BR CLR 09/08 A2998 RMK AO2=
200808121308 SPECI KBLI 121308Z AUTO 00000KT 1 1/2SM BR CLR 09/08 A2998 RMK AO2=
200808121303 SPECI KBLI 121303Z AUTO 00000KT 1/4SM FG CLR 09/08 A2998 RMK AO2 RVRNO=
200808121303 SPECI KBLI 121303Z AUTO 00000KT 1/4SM FG CLR 09/08 A2998 RMK AO2 RVRNO=
200808121256 SPECI KBLI 121256Z AUTO 00000KT 3/4SM BR CLR 09/09 A2998 RMK AO2 VIS M1/4V5 RVRNO=
200808121256 SPECI KBLI 121256Z AUTO 00000KT 3/4SM BR CLR 09/09 A2998 RMK AO2 VIS M1/4V5 RVRNO=
200808121253 METAR KBLI 121253Z AUTO 00000KT 4SM BR CLR 10/09 A2998 RMK AO2 SLP159 T01000089=
200808121153 METAR KBLI 121153Z AUTO 00000KT 10SM CLR 10/09 A2999 RMK AO2 SLP161 T01000089 10139 20094 56004=
200808121053 METAR KBLI 121053Z AUTO 00000KT 10SM CLR 10/09 A2999 RMK AO2 SLP162 T01000089=
200808121016 SPECI KBLI 121016Z AUTO 00000KT 5SM BR CLR 11/09 A2999 RMK AO2=
200808121016 SPECI KBLI 121016Z AUTO 00000KT 5SM BR CLR 11/09 A2999 RMK AO2=
200808121006 SPECI KBLI 121006Z AUTO 00000KT 1 3/4SM BR CLR 11/10 A2999 RMK AO2=
200808121006 SPECI KBLI 121006Z AUTO 00000KT 1 3/4SM BR CLR 11/10 A2999 RMK AO2=
200808120953 METAR KBLI 120953Z AUTO 00000KT 9SM CLR 11/10 A2999 RMK AO2 SLP163 T01060100=
200808120853 METAR KBLI 120853Z AUTO 00000KT 10SM CLR 12/11 A3000 RMK AO2 SLP165 T01170106 58006=
200808120753 METAR KBLI 120753Z AUTO 00000KT 10SM CLR 12/11 A3001 RMK AO2 SLP168 T01220111 402330094=
200808120653 METAR KBLI 120653Z AUTO 00000KT 10SM CLR 13/12 A3001 RMK AO2 SLP169 T01280117=
200808120553 METAR KBLI 120553Z AUTO 00000KT 10SM CLR 13/12 A3002 RMK AO2 SLP171 T01330117 10222 20133 58004=
200808120453 METAR KBLI 120453Z 00000KT 10SM CLR 14/12 A3003 RMK AO2 SLP173 T01440122=
200808120353 METAR KBLI 120353Z 00000KT 10SM CLR 16/12 A3003 RMK AO2 SLP174 T01560122=
200808120253 METAR KBLI 120253Z 27003KT 10SM CLR 19/12 A3003 RMK AO2 SLP175 T01890117 56015=
200808120153 METAR KBLI 120153Z 26004KT 10SM CLR 21/11 A3004 RMK AO2 SLP179 T02110111=
200808120053 METAR KBLI 120053Z 27006KT 10SM CLR 22/11 A3006 RMK AO2 SLP185 T02170111=
200808112353 METAR KBLI 112353Z 28004KT 10SM CLR 22/11 A3008 RMK AO2 SLP190 T02220111 10233 20194 58015=
200808112253 METAR KBLI 112253Z 31006KT 10SM CLR 23/12 A3009 RMK AO2 SLP195 T02330122=
200808112153 METAR KBLI 112153Z VRB05KT 10SM CLR 22/12 A3011 RMK AO2 SLP202 T02220117=
200808112053 METAR KBLI 112053Z VRB06KT 10SM SCT035 22/11 A3012 RMK AO2 SLP205 T02220111 58008=
200808111956 SPECI KBLI 111956Z 00000KT 10SM SCT035 22/12 A3013 RMK AO2=
200808111956 SPECI KBLI 111956Z 00000KT 10SM SCT035 22/12 A3013 RMK AO2=
200808111953 METAR KBLI 111953Z 00000KT 10SM BKN035 OVC045 21/12 A3013 RMK AO2 SLP208 T02060117=
200808111853 METAR KBLI 111853Z 00000KT 10SM FEW035 20/11 A3014 RMK AO2 SLP212 T02000111=
200808111753 METAR KBLI 111753Z VRB03KT 10SM CLR 20/12 A3014 RMK AO2 SLP213 T02000117 10200 20094 52001=
200808111653 METAR KBLI 111653Z 00000KT 10SM CLR 18/12 A3014 RMK AO2 SLP213 T01830117=
200808111553 METAR KBLI 111553Z 00000KT 10SM CLR 16/12 A3014 RMK AO2 SLP212 T01610117=
200808111453 METAR KBLI 111453Z 00000KT 10SM CLR 13/11 A3014 RMK AO2 SLP212 T01330111 53003=
200808111353 METAR KBLI 111353Z 00000KT 10SM CLR 11/11 A3013 RMK AO2 SLP210 T01110106=
200808111253 METAR KBLI 111253Z AUTO 00000KT 10SM BKN055 10/09 A3013 RMK AO2 SLP209 T01000094=
200808111153 METAR KBLI 111153Z AUTO 00000KT 10SM BKN070 11/09 A3013 RMK AO2 SLP208 70021 T01060094 10128 20094 56001=
200808111053 METAR KBLI 111053Z AUTO 00000KT 10SM OVC055 11/10 A3013 RMK AO2 SLP208 T01110100=
200808110953 METAR KBLI 110953Z AUTO 00000KT 10SM BKN055 OVC070 11/10 A3013 RMK AO2 SLP208 T01110100=
200808110853 METAR KBLI 110853Z AUTO 00000KT 10SM CLR 11/10 A3013 RMK AO2 SLP209 T01110100 58000=
200808110753 METAR KBLI 110753Z AUTO 00000KT 10SM CLR 11/10 A3014 RMK AO2 SLP211 T01110100 401940111=
200808110653 METAR KBLI 110653Z AUTO 00000KT 10SM FEW075 12/10 A3013 RMK AO2 SLP210 T01170100=
200808110553 METAR KBLI 110553Z AUTO 00000KT 10SM BKN075 13/11 A3013 RMK AO2 SLP210 T01280111 10194 20122 58002=
200808110453 METAR KBLI 110453Z 00000KT 10SM CLR 13/11 A3014 RMK AO2 SLP212 T01330111=
200808110353 METAR KBLI 110353Z 00000KT 10SM OVC085 16/12 A3014 RMK AO2 SLP211 T01560117=
200808110253 METAR KBLI 110253Z 00000KT 10SM OVC080 17/12 A3014 RMK AO2 SLP212 T01720117 56003=
200808110153 METAR KBLI 110153Z 17005KT 10SM OVC080 19/09 A3014 RMK AO2 SLP213 T01890094=
200808110053 METAR KBLI 110053Z 18007KT 10SM CLR 19/09 A3014 RMK AO2 SLP213 T01890094=
200808102353 METAR KBLI 102353Z 22005KT 10SM CLR 19/10 A3015 RMK AO2 SLP215 60001 T01940100 10194 20156 58002=
200808102253 METAR KBLI 102253Z 19007KT 10SM FEW070 18/09 A3016 RMK AO2 SLP218 T01830094=
200808102153 METAR KBLI 102153Z 16008KT 10SM CLR 18/09 A3015 RMK AO2 SLP217 T01830094=
200808102053 METAR KBLI 102053Z 16007KT 10SM CLR 18/11 A3016 RMK AO2 SLP218 60001 T01780106 51004=
200808101953 METAR KBLI 101953Z 18008KT 10SM CLR 18/11 A3015 RMK AO2 SLP217 T01780106=
200808101853 METAR KBLI 101853Z 16011KT 10SM SCT075 17/10 A3016 RMK AO2 SLP220 P0001 T01670100=
200808101753 METAR KBLI 101753Z 17009KT 10SM OVC060 16/11 A3014 RMK AO2 SLP214 60020 T01560111 10156 20133 51008=
200808101653 METAR KBLI 101653Z 15007KT 10SM BKN065 OVC080 14/12 A3014 RMK AO2 SLP213 T01440122=
200808101553 METAR KBLI 101553Z 16007KT 10SM BKN031 14/13 A3014 RMK AO2 SLP212 T01440128=
200808101535 SPECI KBLI 101535Z 15010KT 10SM FEW006 SCT031 SCT070 13/12 A3013 RMK AO2=
200808101535 SPECI KBLI 101535Z 15010KT 10SM FEW006 SCT031 SCT070 13/12 A3013 RMK AO2=
200808101513 SPECI KBLI 101513Z 17006KT 10SM FEW007 SCT014 BKN024 13/12 A3012 RMK AO2=
200808101513 SPECI KBLI 101513Z 17006KT 10SM FEW007 SCT014 BKN024 13/12 A3012 RMK AO2=
200808101453 METAR KBLI 101453Z 16006KT 10SM FEW012 BKN027 OVC060 13/12 A3012 RMK AO2 RAB1359E29 SLP207 P0001 60020 T01330122 51009=
200808101414 SPECI KBLI 101414Z 17005KT 6SM -RA BR FEW009 BKN032 OVC060 13/12 A3011 RMK AO2 RAB1359 P0001=
200808101414 SPECI KBLI 101414Z 17005KT 6SM -RA BR FEW009 BKN032 OVC060 13/12 A3011 RMK AO2 RAB1359 P0001=
200808101353 METAR KBLI 101353Z 17006KT 10SM SCT016 BKN021 OVC070 13/12 A3012 RMK AO2 RAE19 SLP205 P0001 T01330117=
200808101334 SPECI KBLI 101334Z AUTO 16006KT 10SM SCT023 BKN040 OVC070 13/12 A3011 RMK AO2 RAE19 P0001=
200808101334 SPECI KBLI 101334Z AUTO 16006KT 10SM SCT023 BKN040 OVC070 13/12 A3011 RMK AO2 RAE19 P0001=
200808101304 SPECI KBLI 101304Z AUTO 17006KT 6SM -RA BR BKN015 OVC023 13/12 A3011 RMK AO2 P0001=
200808101304 SPECI KBLI 101304Z AUTO 17006KT 6SM -RA BR BKN015 OVC023 13/12 A3011 RMK AO2 P0001=
200808101253 METAR KBLI 101253Z AUTO 19005KT 2 1/2SM +RA BR BKN015 OVC025 13/12 A3011 RMK AO2 VIS 1 1/4V5 RAB1155 SLP201 P0018 T01330117=
200808101228 SPECI KBLI 101228Z AUTO 00000KT 10SM -RA BKN015 BKN023 OVC050 13/12 A3010 RMK AO2 RAB1155 P0012=
200808101228 SPECI KBLI 101228Z AUTO 00000KT 10SM -RA BKN015 BKN023 OVC050 13/12 A3010 RMK AO2 RAB1155 P0012=
200808101219 SPECI KBLI 101219Z AUTO 19003KT 2 1/2SM +RA BR FEW015 BKN023 OVC048 13/12 A3010 RMK AO2 RAB1155 P0012=
200808101219 SPECI KBLI 101219Z AUTO 19003KT 2 1/2SM +RA BR FEW015 BKN023 OVC048 13/12 A3010 RMK AO2 RAB1155 P0012=
200808101153 METAR KBLI 101153Z AUTO 17009KT 10SM FEW029 BKN036 OVC075 13/12 A3009 RMK AO2 RAE22 SLP197 P0004 60011 70067 T01330117 10144 20133 52004=
200808101149 SPECI KBLI 101149Z AUTO 17009KT 10SM SCT029 BKN036 OVC075 13/11 A3009 RMK AO2 RAE22 P0004=
200808101149 SPECI KBLI 101149Z AUTO 17009KT 10SM SCT029 BKN036 OVC075 13/11 A3009 RMK AO2 RAE22 P0004=
200808101053 METAR KBLI 101053Z AUTO 17006KT 7SM -RA BKN023 BKN028 OVC038 13/12 A3008 RMK AO2 RAB07 SLP193 P0006 T01330122=
200808101007 SPECI KBLI 101007Z AUTO 17008KT 9SM -RA BKN025 OVC055 14/12 A3008 RMK AO2 RAB07 P0000=
200808101007 SPECI KBLI 101007Z AUTO 17008KT 9SM -RA BKN025 OVC055 14/12 A3008 RMK AO2 RAB07 P0000=
200808100953 METAR KBLI 100953Z AUTO 17007KT 10SM SCT023 BKN055 OVC085 14/12 A3008 RMK AO2 SLP192 T01390122=
200808100853 METAR KBLI 100853Z AUTO 17007KT 10SM FEW023 BKN039 OVC080 14/13 A3008 RMK AO2 SLP191 60001 T01440128 53007=
200808100753 METAR KBLI 100753Z AUTO 15005KT 10SM OVC039 14/13 A3007 RMK AO2 SLP189 T01440128 401780128=
200808100653 METAR KBLI 100653Z AUTO 17005KT 10SM FEW060 SCT090 13/12 A3006 RMK AO2 RAE09 SLP185 P0001 T01330122=
200808100553 METAR KBLI 100553Z AUTO 17003KT 9SM -RA FEW060 OVC080 13/12 A3006 RMK AO2 RAB17 SLP185 P0001 60016 T01330122 10161 20128 51013=
200808100453 METAR KBLI 100453Z 00000KT 9SM SCT018 SCT037 OVC085 13/12 A3005 RMK AO2 SLP182 T01280122=
200808100353 METAR KBLI 100353Z 00000KT 10SM BKN020 OVC026 13/12 A3003 RMK AO2 RAB12E28 SLP176 P0001 T01330122=
200808100253 METAR KBLI 100253Z 28003KT 10SM FEW019 BKN027 OVC039 13/13 A3002 RMK AO2 RAE32 SLP172 P0001 60014 T01330128 53004=
200808100153 METAR KBLI 100153Z VRB05KT 6SM -RA BR FEW010 SCT018 BKN028 14/13 A3000 RMK AO2 RAB13 SLP166 P0003 T01440133=
200808100139 SPECI KBLI 100139Z 00000KT 6SM -RA BR BKN028 BKN041 OVC050 15/14 A3000 RMK AO2 RAB13 P0001=
200808100139 SPECI KBLI 100139Z 00000KT 6SM -RA BR BKN028 BKN041 OVC050 15/14 A3000 RMK AO2 RAB13 P0001=
200808100053 METAR KBLI 100053Z 00000KT 6SM BR SCT025 OVC060 15/14 A3000 RMK AO2 RAB2356E31 SLP166 P0010 T01500139=
200808100029 SPECI KBLI 100029Z 00000KT 6SM -RA SCT025 OVC060 16/13 A3001 RMK AO2 RAB2356 P0010=
200808100029 SPECI KBLI 100029Z 00000KT 6SM -RA SCT025 OVC060 16/13 A3001 RMK AO2 RAB2356 P0010=
200808100016 SPECI KBLI 100016Z 00000KT 4SM RA SCT021 BKN065 16/13 A3001 RMK AO2 RAB2356 P0010=
200808100016 SPECI KBLI 100016Z 00000KT 4SM RA SCT021 BKN065 16/13 A3001 RMK AO2 RAB2356 P0010=
200808100007 SPECI KBLI 100007Z 17006KT 1 1/2SM +RA SCT021 OVC060 16/13 A3001 RMK AO2 VIS 3/4V5 RAB2356 P0007=
200808100007 SPECI KBLI 100007Z 17006KT 1 1/2SM +RA SCT021 OVC060 16/13 A3001 RMK AO2 VIS 3/4V5 RAB2356 P0007=
200808092353 METAR KBLI 092353Z 00000KT 10SM OVC065 16/13 A3001 RMK AO2 RAE42 SLP167 P0001 60002 T01610133 10178 20133 51003=
200808092253 METAR KBLI 092253Z 15007KT 8SM -RA BKN041 OVC075 16/13 A3001 RMK AO2 RAB14 SLP167 P0000 T01610133=
200808092153 METAR KBLI 092153Z 16009KT 10SM SCT055 BKN080 17/11 A3000 RMK AO2 SLP165 T01670111=
200808092053 METAR KBLI 092053Z 17008KT 10SM OVC060 17/11 A3000 RMK AO2 SLP164 60001 T01720111 53014=
200808091953 METAR KBLI 091953Z 18008KT 10SM FEW065 17/11 A2997 RMK AO2 SLP156 P0001 T01720111=
200808091853 METAR KBLI 091853Z 15006KT 10SM FEW029 BKN041 OVC049 16/13 A2997 RMK AO2 RAB25E34 SLP155 P0000 T01610133=
200808091844 SPECI KBLI 091844Z 15010KT 10SM SCT029 BKN039 OVC049 15/13 A2997 RMK AO2 RAB25E34 P0000=
200808091844 SPECI KBLI 091844Z 15010KT 10SM SCT029 BKN039 OVC049 15/13 A2997 RMK AO2 RAB25E34 P0000=
200808091825 SPECI KBLI 091825Z 16008KT 8SM -RA OVC029 14/13 A2996 RMK AO2 RAB25 P0000=
200808091825 SPECI KBLI 091825Z 16008KT 8SM -RA OVC029 14/13 A2996 RMK AO2 RAB25 P0000=
200808091800 SPECI KBLI 091800Z 18007KT 10SM SCT007 OVC031 13/12 A2996 RMK AO2=
200808091800 SPECI KBLI 091800Z 18007KT 10SM SCT007 OVC031 13/12 A2996 RMK AO2=
200808091753 METAR KBLI 091753Z 18007KT 10SM SCT007 BKN014 OVC024 13/12 A2996 RMK AO2 RAE1655 SLP150 P0000 60038 T01330122 10144 20133 53013=
200808091653 METAR KBLI 091653Z 17007KT 10SM -RA SCT007 BKN010 OVC024 14/13 A2994 RMK AO2 RAE02B36 SLP143 P0000 T01440133=
200808091626 SPECI KBLI 091626Z 17007KT 10SM SCT005 OVC012 14/13 A2994 RMK AO2 RAE02 P0000=
200808091626 SPECI KBLI 091626Z 17007KT 10SM SCT005 OVC012 14/13 A2994 RMK AO2 RAE02 P0000=
200808091601 SPECI KBLI 091601Z 17007KT 10SM -RA BKN007 BKN010 OVC019 14/13 A2993 RMK AO2 P0000=
200808091601 SPECI KBLI 091601Z 17007KT 10SM -RA BKN007 BKN010 OVC019 14/13 A2993 RMK AO2 P0000=
200808091553 METAR KBLI 091553Z 16007KT 9SM -RA SCT007 BKN010 OVC019 14/13 A2993 RMK AO2 RAE34B50 SLP141 P0006 T01390133=
200808091531 SPECI KBLI 091531Z 17007KT 7SM -RA SCT006 BKN009 OVC026 14/13 A2993 RMK AO2 P0005=
200808091531 SPECI KBLI 091531Z 17007KT 7SM -RA SCT006 BKN009 OVC026 14/13 A2993 RMK AO2 P0005=
200808091523 SPECI KBLI 091523Z 17007KT 2SM RA BR BKN006 OVC009 14/13 A2993 RMK AO2 CIG 003V007 P0005=
200808091523 SPECI KBLI 091523Z 17007KT 2SM RA BR BKN006 OVC009 14/13 A2993 RMK AO2 CIG 003V007 P0005=
200808091513 SPECI KBLI 091513Z 17006KT 3SM RA BR OVC006 14/13 A2992 RMK AO2 CIG 002V011 P0003=
200808091513 SPECI KBLI 091513Z 17006KT 3SM RA BR OVC006 14/13 A2992 RMK AO2 CIG 002V011 P0003=
200808091453 METAR KBLI 091453Z 16007KT 3SM -RA BR OVC004 14/13 A2992 RMK AO2 SLP137 P0010 60032 T01390128 53006=
200808091417 SPECI KBLI 091417Z 17007KT 1 1/4SM RA BR BKN004 BKN027 OVC050 14/13 A2991 RMK AO2 P0004=
200808091417 SPECI KBLI 091417Z 17007KT 1 1/4SM RA BR BKN004 BKN027 OVC050 14/13 A2991 RMK AO2 P0004=
200808091353 METAR KBLI 091353Z 17007KT 3SM -RA BR BKN004 BKN008 OVC042 14/13 A2991 RMK AO2 SLP133 P0020 T01390128=
200808091346 SPECI KBLI 091346Z AUTO 17007KT 2 1/2SM RA BR BKN004 OVC008 13/13 A2991 RMK AO2 P0019=
200808091346 SPECI KBLI 091346Z AUTO 17007KT 2 1/2SM RA BR BKN004 OVC008 13/13 A2991 RMK AO2 P0019=
200808091324 SPECI KBLI 091324Z AUTO 17008KT 1 3/4SM RA BR BKN002 BKN006 OVC016 14/13 A2991 RMK AO2 P0011=
200808091324 SPECI KBLI 091324Z AUTO 17008KT 1 3/4SM RA BR BKN002 BKN006 OVC016 14/13 A2991 RMK AO2 P0011=
200808091302 SPECI KBLI 091302Z AUTO 17007KT 2 1/2SM RA BR FEW004 BKN022 OVC045 14/13 A2990 RMK AO2 P0002=
200808091302 SPECI KBLI 091302Z AUTO 17007KT 2 1/2SM RA BR FEW004 BKN022 OVC045 14/13 A2990 RMK AO2 P0002=
200808091253 METAR KBLI 091253Z AUTO 18007KT 5SM -RA BR SCT026 OVC042 14/13 A2990 RMK AO2 SLP132 P0002 T01390128=
200808091153 METAR KBLI 091153Z AUTO 18006KT 10SM -RA BKN033 OVC040 14/12 A2990 RMK AO2 RAB1059E13B47 SLP131 P0000 60000 T01440122 10156 20139 50003=
200808091053 METAR KBLI 091053Z AUTO 16007KT 10SM OVC041 15/12 A2990 RMK AO2 SLP131 T01500122=
200808090953 METAR KBLI 090953Z AUTO 16005KT 10SM FEW120 14/12 A2990 RMK AO2 SLP130 T01440122=
200808090853 METAR KBLI 090853Z AUTO 19003KT 10SM CLR 14/12 A2989 RMK AO2 SLP127 T01390122 50002=
200808090753 METAR KBLI 090753Z AUTO 18004KT 10SM FEW034 14/12 A2989 RMK AO2 SLP129 T01390117 401780117=
200808090653 METAR KBLI 090653Z AUTO 17007KT 10SM CLR 15/11 A2989 RMK AO2 SLP127 T01500111=
200808090553 METAR KBLI 090553Z AUTO 17007KT 10SM CLR 15/12 A2989 RMK AO2 SLP126 T01500117 10178 20150 51003=
200808090453 METAR KBLI 090453Z 18006KT 10SM CLR 16/12 A2988 RMK AO2 SLP126 T01560117=
200808090353 METAR KBLI 090353Z 17010KT 10SM CLR 16/12 A2988 RMK AO2 SLP123 T01610117=
200808090253 METAR KBLI 090253Z 17009KT 10SM CLR 17/11 A2987 RMK AO2 SLP122 T01720111 53007=
200808090153 METAR KBLI 090153Z 16010KT 10SM CLR 17/11 A2986 RMK AO2 SLP118 T01670111=
200808090053 METAR KBLI 090053Z 17010G18KT 10SM CLR 17/11 A2986 RMK AO2 SLP117 T01670111=
200808082353 METAR KBLI 082353Z 17012KT 10SM CLR 17/11 A2985 RMK AO2 SLP115 T01720111 10178 20139 58004=
200808082253 METAR KBLI 082253Z 18007KT 10SM CLR 17/11 A2986 RMK AO2 SLP118 T01670111=
200808082153 METAR KBLI 082153Z 17012KT 10SM FEW060 17/11 A2987 RMK AO2 SLP121 T01670111=
200808082053 METAR KBLI 082053Z 17013G20KT 10SM FEW060 16/11 A2987 RMK AO2 SLP120 T01610111 53002=
200808081953 METAR KBLI 081953Z 19012G18KT 8SM SCT044 14/11 A2986 RMK AO2 SLP117 T01440106=
200808081853 METAR KBLI 081853Z 18012G18KT 5SM HZ SCT012 BKN044 14/11 A2986 RMK AO2 SLP118 T01390106=
200808081753 METAR KBLI 081753Z 17010G18KT 5SM HZ SCT004 OVC044 14/11 A2986 RMK AO2 SLP118 T01390111 10144 20117 53005=
200808081703 SPECI KBLI 081703Z 17012G18KT 4SM BR SCT004 13/11 A2985 RMK AO2=
200808081703 SPECI KBLI 081703Z 17012G18KT 4SM BR SCT004 13/11 A2985 RMK AO2=
200808081653 METAR KBLI 081653Z 16009G20KT 4SM BR OVC004 13/11 A2985 RMK AO2 SLP114 T01330111=
200808081642 SPECI KBLI 081642Z 18010G16KT 8SM OVC004 13/11 A2985 RMK AO2=
200808081642 SPECI KBLI 081642Z 18010G16KT 8SM OVC004 13/11 A2985 RMK AO2=
200808081553 METAR KBLI 081553Z 18007KT 2SM BR OVC002 12/11 A2985 RMK AO2 SLP114 T01220106=
200808081453 METAR KBLI 081453Z 17007KT 3SM BR OVC002 12/11 A2985 RMK AO2 SLP113 T01220106 51012=
200808081353 METAR KBLI 081353Z AUTO 18007KT 5SM BR OVC003 12/11 A2984 RMK AO2 SLP109 T01170106=
200808081345 SPECI KBLI 081345Z AUTO 18006KT 5SM BR BKN003 12/11 A2983 RMK AO2=
200808081345 SPECI KBLI 081345Z AUTO 18006KT 5SM BR BKN003 12/11 A2983 RMK AO2=
200808081328 SPECI KBLI 081328Z AUTO 18010KT 6SM BR SCT003 12/11 A2983 RMK AO2=
200808081328 SPECI KBLI 081328Z AUTO 18010KT 6SM BR SCT003 12/11 A2983 RMK AO2=
200808081253 METAR KBLI 081253Z AUTO 17011G17KT 7SM BKN003 12/11 A2983 RMK AO2 SLP106 T01170106=
200808081244 SPECI KBLI 081244Z AUTO 16009KT 8SM BKN003 12/11 A2982 RMK AO2=
200808081244 SPECI KBLI 081244Z AUTO 16009KT 8SM BKN003 12/11 A2982 RMK AO2=
200808081214 SPECI KBLI 081214Z AUTO 16011KT 8SM FEW003 12/11 A2981 RMK AO2=
200808081214 SPECI KBLI 081214Z AUTO 16011KT 8SM FEW003 12/11 A2981 RMK AO2=
200808081153 METAR KBLI 081153Z AUTO 17013G22KT 8SM CLR 12/11 A2981 RMK AO2 SLP101 T01220106 10167 20122 53008=
200808081053 METAR KBLI 081053Z AUTO 18011G17KT 10SM CLR 14/10 A2980 RMK AO2 SLP096 T01390100=
200808080953 METAR KBLI 080953Z AUTO 17014G21KT 10SM CLR 14/09 A2979 RMK AO2 SLP093 T01440094=
200808080853 METAR KBLI 080853Z AUTO 17012KT 10SM CLR 14/11 A2979 RMK AO2 SLP093 T01440106 51003=
200808080753 METAR KBLI 080753Z AUTO 15008KT 10SM CLR 15/12 A2979 RMK AO2 SLP092 T01500117 402110133=
200808080653 METAR KBLI 080653Z AUTO 16004KT 10SM CLR 17/11 A2979 RMK AO2 SLP092 T01670111=
200808080553 METAR KBLI 080553Z AUTO 17009G17KT 10SM CLR 14/11 A2978 RMK AO2 SLP090 T01440111 10211 20144 53001=
200808080453 METAR KBLI 080453Z 17011G16KT 10SM CLR 15/12 A2977 RMK AO2 SLP088 T01500117=
200808080353 METAR KBLI 080353Z 17009KT 10SM CLR 16/12 A2977 RMK AO2 SLP087 T01610117=
200808080253 METAR KBLI 080253Z 18008KT 10SM CLR 17/12 A2978 RMK AO2 SLP089 T01720117 57020=
200808080153 METAR KBLI 080153Z 18008KT 10SM CLR 18/12 A2980 RMK AO2 SLP097 T01780117=
200808080053 METAR KBLI 080053Z 17010KT 10SM CLR 19/12 A2982 RMK AO2 SLP102 T01940122=
200808072353 METAR KBLI 072353Z 17007KT 10SM CLR 20/12 A2984 RMK AO2 SLP109 T02000122 10200 20156 58020=
200808072253 METAR KBLI 072253Z 18006KT 10SM CLR 20/13 A2986 RMK AO2 SLP116 T02000128=
200808072153 METAR KBLI 072153Z 16008KT 10SM CLR 19/12 A2988 RMK AO2 SLP124 T01940122=
200808072053 METAR KBLI 072053Z 17008KT 10SM CLR 18/12 A2990 RMK AO2 SLP130 T01830117 58008=
200808071953 METAR KBLI 071953Z 20007KT 10SM CLR 17/12 A2990 RMK AO2 SLP132 T01720117=
200808071853 METAR KBLI 071853Z 17010KT 10SM CLR 17/11 A2992 RMK AO2 SLP137 T01670111=
200808071753 METAR KBLI 071753Z 16010G16KT 10SM CLR 16/11 A2992 RMK AO2 SLP138 T01560111 10161 20133 58000=
200808071653 METAR KBLI 071653Z VRB05KT 10SM CLR 15/11 A2993 RMK AO2 SLP139 T01500111=
200808071553 METAR KBLI 071553Z 17011KT 10SM CLR 14/11 A2993 RMK AO2 SLP142 T01390106=
200808071453 METAR KBLI 071453Z 16009G15KT 10SM CLR 13/11 A2992 RMK AO2 SLP139 T01330106 53007=
200808071353 METAR KBLI 071353Z 18016G21KT 10SM CLR 13/11 A2992 RMK AO2 SLP136 T01330106=
200808071253 METAR KBLI 071253Z AUTO 18015G22KT 10SM CLR 15/09 A2991 RMK AO2 SLP132 T01500094=
200808071153 METAR KBLI 071153Z AUTO 17013G17KT 10SM CLR 16/08 A2990 RMK AO2 SLP130 T01610083 10178 20150 51001=
200808071053 METAR KBLI 071053Z AUTO 18005KT 10SM CLR 16/11 A2990 RMK AO2 SLP130 T01560106=
200808070953 METAR KBLI 070953Z AUTO 16007KT 10SM CLR 16/11 A2990 RMK AO2 SLP130 T01560111=
200808070853 METAR KBLI 070853Z AUTO 17007KT 10SM CLR 16/11 A2990 RMK AO2 SLP130 T01560111 57005=
200808070753 METAR KBLI 070753Z AUTO 17010KT 10SM CLR 17/10 A2991 RMK AO2 SLP132 T01670100 402720117=
200808070653 METAR KBLI 070653Z AUTO 17006KT 10SM CLR 17/11 A2991 RMK AO2 SLP132 T01720111=
200808070553 METAR KBLI 070553Z AUTO 16004KT 10SM CLR 17/12 A2991 RMK AO2 SLP135 T01720122 10250 20172 53005=
200808070453 METAR KBLI 070453Z 20004KT 10SM CLR 18/12 A2991 RMK AO2 SLP133 T01780117=
200808070353 METAR KBLI 070353Z 18009KT 10SM CLR 20/10 A2990 RMK AO2 SLP129 T02000100=
200808070253 METAR KBLI 070253Z 17007KT 10SM CLR 19/12 A2990 RMK AO2 SLP130 T01940117 58002=
200808070153 METAR KBLI 070153Z 17009KT 10SM CLR 21/12 A2990 RMK AO2 SLP131 T02110122=
200808070053 METAR KBLI 070053Z 17008KT 10SM CLR 23/13 A2990 RMK AO2 SLP131 T02280128=
200808062353 METAR KBLI 062353Z 18006KT 10SM CLR 25/13 A2990 RMK AO2 SLP131 T02500128 10272 20222 56006=
200808062253 METAR KBLI 062253Z VRB04KT 10SM CLR 26/15 A2991 RMK AO2 SLP132 T02560150=
200808062153 SPECI KBLI 062153Z 26004KT 10SM CLR 26/12 A2992 RMK AO2 SLP135 T02610122=
200808062053 METAR KBLI 062053Z 25004KT 10SM CLR 26/13 A2992 RMK AO2 SLP137 T02610133 57012=
200808061953 METAR KBLI 061953Z 30006KT 10SM CLR 26/15 A2993 RMK AO2 SLP141 T02610150=
200808061853 METAR KBLI 061853Z 00000KT 10SM CLR 24/16 A2995 RMK AO2 SLP145 T02440161=
200808061753 METAR KBLI 061753Z 04003KT 10SM CLR 24/13 A2996 RMK AO2 SLP149 T02440133 10244 20117 58002=
200808061653 METAR KBLI 061653Z 01004KT 10SM CLR 23/13 A2996 RMK AO2 SLP149 T02280133=
200808061553 METAR KBLI 061553Z 00000KT 10SM CLR 19/14 A2996 RMK AO2 SLP151 T01940139=
200808061453 METAR KBLI 061453Z 00000KT 10SM CLR 16/14 A2996 RMK AO2 SLP150 T01610139 53004=
200808061353 METAR KBLI 061353Z 00000KT 10SM CLR 13/12 A2995 RMK AO2 SLP148 T01280117=
200808061253 METAR KBLI 061253Z AUTO 00000KT 7SM CLR 12/11 A2995 RMK AO2 SLP146 T01220111=
200808061249 SPECI KBLI 061249Z AUTO 00000KT 2 1/2SM BR CLR 12/11 A2995 RMK AO2=
200808061249 SPECI KBLI 061249Z AUTO 00000KT 2 1/2SM BR CLR 12/11 A2995 RMK AO2=
200808061153 METAR KBLI 061153Z AUTO 00000KT 10SM CLR 13/12 A2995 RMK AO2 SLP145 T01330122 10161 20128 53003=
200808061053 METAR KBLI 061053Z AUTO 00000KT 10SM CLR 14/12 A2994 RMK AO2 SLP144 T01390122=
200808060953 METAR KBLI 060953Z AUTO 00000KT 10SM CLR 13/12 A2994 RMK AO2 SLP142 T01330122=
200808060853 METAR KBLI 060853Z AUTO 00000KT 10SM CLR 14/13 A2994 RMK AO2 SLP142 T01440133 50004=
200808060753 METAR KBLI 060753Z AUTO 00000KT 10SM CLR 15/13 A2994 RMK AO2 SLP142 T01500133 402670094=
200808060653 METAR KBLI 060653Z AUTO 00000KT 10SM CLR 16/13 A2993 RMK AO2 SLP139 T01560133=
200808060553 METAR KBLI 060553Z AUTO 00000KT 10SM CLR 16/13 A2993 RMK AO2 SLP138 T01610128 10261 20156 53007=
200808060453 METAR KBLI 060453Z 00000KT 10SM CLR 17/14 A2991 RMK AO2 SLP135 T01670139=
200808060353 METAR KBLI 060353Z 00000KT 10SM CLR 18/15 A2991 RMK AO2 SLP132 T01830150=
200808060253 METAR KBLI 060253Z 00000KT 10SM CLR 22/14 A2990 RMK AO2 SLP131 T02220144 56008=
200808060153 METAR KBLI 060153Z 29003KT 10SM CLR 25/14 A2991 RMK AO2 SLP133 T02500139=
200808060053 METAR KBLI 060053Z 28006KT 10SM CLR 26/14 A2992 RMK AO2 SLP136 T02560139=
200808052353 METAR KBLI 052353Z 29007KT 10SM CLR 26/14 A2993 RMK AO2 SLP140 T02560144 10267 20233 56019=
200808052253 METAR KBLI 052253Z 29005KT 10SM CLR 27/15 A2995 RMK AO2 SLP145 T02670150=
200808052153 METAR KBLI 052153Z 26006KT 10SM CLR 26/14 A2997 RMK AO2 SLP152 T02560139=
200808052053 METAR KBLI 052053Z 26007KT 10SM CLR 25/14 A2998 RMK AO2 SLP158 T02500139 57006=
200808051953 METAR KBLI 051953Z 28006KT 10SM CLR 24/14 A2999 RMK AO2 SLP161 T02440144=
200808051853 METAR KBLI 051853Z 27006KT 10SM CLR 23/15 A3000 RMK AO2 SLP163 T02330150=
200808051753 METAR KBLI 051753Z 02006KT 10SM CLR 23/13 A3000 RMK AO2 SLP164 T02330128 10233 20094 58004=
200808051653 METAR KBLI 051653Z 30004KT 10SM CLR 21/14 A3001 RMK AO2 SLP168 T02060139=
200808051553 METAR KBLI 051553Z 35004KT 10SM CLR 19/14 A3001 RMK AO2 SLP169 T01890139=
200808051453 METAR KBLI 051453Z 35003KT 10SM CLR 15/13 A3002 RMK AO2 SLP170 T01500128 53009=
200808051353 METAR KBLI 051353Z 00000KT 10SM CLR 11/11 A3001 RMK AO2 SLP167 T01110106=
200808051314 SPECI KBLI 051314Z AUTO 00000KT 4SM BR CLR 10/09 A3000 RMK AO2=
200808051314 SPECI KBLI 051314Z AUTO 00000KT 4SM BR CLR 10/09 A3000 RMK AO2=
200808051255 SPECI KBLI 051255Z AUTO 00000KT 1 3/4SM BR CLR 09/09 A2999 RMK AO2=
200808051255 SPECI KBLI 051255Z AUTO 00000KT 1 3/4SM BR CLR 09/09 A2999 RMK AO2=
200808051253 METAR KBLI 051253Z AUTO 00000KT 3SM BR CLR 10/09 A2999 RMK AO2 SLP163 T01000094=
200808051207 SPECI KBLI 051207Z AUTO 00000KT 10SM CLR 11/09 A2999 RMK AO2=
200808051207 SPECI KBLI 051207Z AUTO 00000KT 10SM CLR 11/09 A2999 RMK AO2=
200808051200 SPECI KBLI 051200Z AUTO 00000KT 2 1/2SM BR CLR 10/09 A2999 RMK AO2=
200808051200 SPECI KBLI 051200Z AUTO 00000KT 2 1/2SM BR CLR 10/09 A2999 RMK AO2=
200808051153 METAR KBLI 051153Z AUTO 36003KT 3/4SM BR CLR 11/10 A2999 RMK AO2 SLP161 T01060100 10144 20106 53002 RVRNO=
200808051150 SPECI KBLI 051150Z AUTO 00000KT 1/2SM FG CLR 11/11 A2999 RMK AO2 RVRNO=
200808051150 SPECI KBLI 051150Z AUTO 00000KT 1/2SM FG CLR 11/11 A2999 RMK AO2 RVRNO=
200808051144 SPECI KBLI 051144Z AUTO 00000KT 1 1/2SM BR CLR 11/10 A2999 RMK AO2=
200808051144 SPECI KBLI 051144Z AUTO 00000KT 1 1/2SM BR CLR 11/10 A2999 RMK AO2=
200808051129 SPECI KBLI 051129Z AUTO 00000KT 3SM BR CLR 11/10 A2999 RMK AO2=
200808051129 SPECI KBLI 051129Z AUTO 00000KT 3SM BR CLR 11/10 A2999 RMK AO2=
200808051119 SPECI KBLI 051119Z AUTO 00000KT 1 1/2SM BR CLR 11/10 A2999 RMK AO2 VIS 3/4V5=
200808051119 SPECI KBLI 051119Z AUTO 00000KT 1 1/2SM BR CLR 11/10 A2999 RMK AO2 VIS 3/4V5=
200808051053 METAR KBLI 051053Z AUTO 00000KT 10SM CLR 12/11 A2998 RMK AO2 SLP160 T01170106=
200808051038 SPECI KBLI 051038Z AUTO 00000KT 3SM BR CLR 12/11 A2998 RMK AO2=
200808051038 SPECI KBLI 051038Z AUTO 00000KT 3SM BR CLR 12/11 A2998 RMK AO2=
200808051026 SPECI KBLI 051026Z AUTO 00000KT 1 3/4SM BR CLR 11/11 A2998 RMK AO2 VIS 1/2V5=
200808051026 SPECI KBLI 051026Z AUTO 00000KT 1 3/4SM BR CLR 11/11 A2998 RMK AO2 VIS 1/2V5=
200808050953 METAR KBLI 050953Z AUTO 00000KT 10SM CLR 12/11 A2998 RMK AO2 SLP159 T01220111=
200808050853 METAR KBLI 050853Z AUTO 00000KT 10SM CLR 13/12 A2998 RMK AO2 SLP158 T01330117 50002=
200808050753 METAR KBLI 050753Z AUTO 00000KT 10SM CLR 12/12 A2998 RMK AO2 SLP159 T01220117 402440089=
200808050653 METAR KBLI 050653Z AUTO 00000KT 10SM CLR 13/12 A2998 RMK AO2 SLP157 T01330122=
200808050553 METAR KBLI 050553Z AUTO 00000KT 10SM CLR 14/12 A2997 RMK AO2 SLP156 T01390122 10244 20133 52002=
200808050453 METAR KBLI 050453Z 00000KT 10SM CLR 15/13 A2998 RMK AO2 SLP156 T01500133=
200808050353 METAR KBLI 050353Z 00000KT 10SM CLR 18/14 A2997 RMK AO2 SLP154 T01780139=
200808050253 METAR KBLI 050253Z 26004KT 10SM CLR 21/14 A2997 RMK AO2 SLP154 T02060139 56012=
200808050153 METAR KBLI 050153Z 00000KT 10SM CLR 23/14 A2997 RMK AO2 SLP155 T02280144=
200808050053 METAR KBLI 050053Z 27005KT 10SM CLR 24/14 A2999 RMK AO2 SLP160 T02390144=
200808042353 METAR KBLI 042353Z 27006KT 10SM CLR 23/14 A3000 RMK AO2 SLP166 T02330139 10244 20211 58014=
200808042253 METAR KBLI 042253Z 28008KT 10SM CLR 24/14 A3002 RMK AO2 SLP172 T02390139=
200808042153 METAR KBLI 042153Z VRB06KT 10SM CLR 23/13 A3003 RMK AO2 SLP176 T02330133=
200808042053 METAR KBLI 042053Z VRB06KT 10SM CLR 23/13 A3004 RMK AO2 SLP180 T02330133 56014=
200808041953 METAR KBLI 041953Z VRB06KT 10SM CLR 23/13 A3006 RMK AO2 SLP185 T02280133=
200808041853 METAR KBLI 041853Z 28007KT 10SM CLR 22/14 A3007 RMK AO2 SLP188 T02170139=
200808041753 METAR KBLI 041753Z 03004KT 10SM CLR 21/13 A3008 RMK AO2 SLP193 T02110133 10211 20089 58002=
200808041653 METAR KBLI 041653Z 35006KT 10SM CLR 19/13 A3009 RMK AO2 SLP196 T01890128=
200808041600 METAR KBLI NIL=
200808041553 METAR KBLI 041553Z 32005KT 10SM CLR 16/12 A3009 RMK AO2 SLP195 T01610122=
200808041453 METAR KBLI 041453Z 00000KT 10SM CLR 14/12 A3009 RMK AO2 SLP195 T01390117 53009=
200808041353 METAR KBLI 041353Z AUTO 00000KT 9SM CLR 11/10 A3008 RMK AO2 SLP191 T01060100=
200808041253 METAR KBLI 041253Z AUTO 00000KT 3SM BR CLR 09/08 A3007 RMK AO2 SLP188 T00940083=
200808041153 METAR KBLI 041153Z AUTO 00000KT 10SM CLR 09/08 A3006 RMK AO2 SLP186 T00940083 10139 20089 53002=
200808041053 METAR KBLI 041053Z AUTO 00000KT 7SM CLR 09/09 A3006 RMK AO2 SLP184 T00940089=
200808040953 METAR KBLI 040953Z AUTO 00000KT 10SM CLR 11/10 A3006 RMK AO2 SLP184 T01110100=
200808040853 METAR KBLI 040853Z AUTO 00000KT 10SM CLR 11/09 A3006 RMK AO2 SLP184 T01110094 51006=
200808040753 METAR KBLI 040753Z AUTO 20004KT 10SM FEW090 13/11 A3005 RMK AO2 SLP183 T01330111 402170072=
200808040653 METAR KBLI 040653Z AUTO 18005KT 10SM CLR 14/12 A3005 RMK AO2 SLP180 T01390117=
200808040553 METAR KBLI 040553Z AUTO 00000KT 10SM CLR 13/12 A3004 RMK AO2 SLP179 T01330117 10211 20122 53004=
200808040453 METAR KBLI 040453Z 18003KT 10SM CLR 14/11 A3003 RMK AO2 SLP177 T01440111=
200808040353 METAR KBLI 040353Z 18003KT 10SM CLR 15/11 A3003 RMK AO2 SLP175 T01500111=
200808040253 METAR KBLI 040253Z 00000KT 10SM CLR 18/11 A3003 RMK AO2 SLP174 T01830106 55004=
200808040153 METAR KBLI 040153Z VRB03KT 10SM CLR 20/11 A3002 RMK AO2 SLP173 T02000111=
200808040053 METAR KBLI 040053Z 27004KT 10SM CLR 21/11 A3004 RMK AO2 SLP177 T02060111=
200808032353 METAR KBLI 032353Z 28006KT 10SM CLR 21/11 A3004 RMK AO2 SLP178 T02060111 10217 20144 58008=
200808032253 METAR KBLI 032253Z VRB04KT 10SM CLR 21/11 A3005 RMK AO2 SLP182 T02060106=
200808032153 METAR KBLI 032153Z 28007KT 10SM CLR 19/11 A3006 RMK AO2 SLP185 T01940111=
200808032053 METAR KBLI 032053Z VRB06KT 10SM FEW029 18/11 A3006 RMK AO2 SLP187 T01830111 56010=
200808032007 SPECI KBLI 032007Z VRB05KT 10SM BKN021 BKN027 18/12 A3007 RMK AO2=
200808032007 SPECI KBLI 032007Z VRB05KT 10SM BKN021 BKN027 18/12 A3007 RMK AO2=
200808031953 METAR KBLI 031953Z VRB04KT 10SM FEW019 18/13 A3007 RMK AO2 SLP188 T01830128=
200808031853 METAR KBLI 031853Z 18004KT 10SM CLR 17/12 A3008 RMK AO2 SLP193 T01670117=
200808031753 METAR KBLI 031753Z 17004KT 10SM CLR 14/11 A3009 RMK AO2 SLP198 T01440111 10144 20072 53001=
200808031653 METAR KBLI 031653Z 18006KT 10SM SCT019 13/11 A3009 RMK AO2 SLP198 T01330106=
200808031553 METAR KBLI 031553Z 17003KT 10SM SCT021 BKN030 OVC035 13/11 A3009 RMK AO2 SLP197 T01280106=
200808031453 METAR KBLI 031453Z VRB03KT 9SM OVC033 11/10 A3009 RMK AO2 SLP197 T01110100 52009=
200808031353 METAR KBLI 031353Z 00000KT 10SM SCT031 BKN085 08/07 A3009 RMK AO2 SLP195 T00830072=
200808031253 METAR KBLI 031253Z AUTO 00000KT 6SM BR CLR 08/07 A3007 RMK AO2 SLP190 T00780067=
200808031153 METAR KBLI 031153Z AUTO 00000KT 10SM CLR 08/07 A3007 RMK AO2 SLP188 T00780067 10122 20078 53001=
200808031144 SPECI KBLI 031144Z AUTO 00000KT 3SM BR CLR 08/07 A3007 RMK AO2=
200808031144 SPECI KBLI 031144Z AUTO 00000KT 3SM BR CLR 08/07 A3007 RMK AO2=
200808031135 SPECI KBLI 031135Z AUTO 00000KT 3/4SM BR VV001 08/08 A3006 RMK AO2 RVRNO=
200808031135 SPECI KBLI 031135Z AUTO 00000KT 3/4SM BR VV001 08/08 A3006 RMK AO2 RVRNO=
200808031132 SPECI KBLI 031132Z AUTO 00000KT 1 1/4SM BR CLR 09/08 A3006 RMK AO2=
200808031132 SPECI KBLI 031132Z AUTO 00000KT 1 1/4SM BR CLR 09/08 A3006 RMK AO2=
200808031053 METAR KBLI 031053Z AUTO 00000KT 5SM BR CLR 08/08 A3006 RMK AO2 SLP187 T00830078=
200808031027 SPECI KBLI 031027Z AUTO 00000KT 1 1/2SM BR CLR 09/08 A3006 RMK AO2 VIS 3/4V5=
200808031027 SPECI KBLI 031027Z AUTO 00000KT 1 1/2SM BR CLR 09/08 A3006 RMK AO2 VIS 3/4V5=
200808030953 METAR KBLI 030953Z AUTO 00000KT 6SM BR CLR 09/08 A3006 RMK AO2 SLP187 T00890083=
200808030853 METAR KBLI 030853Z AUTO 20003KT 10SM CLR 12/10 A3006 RMK AO2 SLP187 T01170100 58005=
200808030753 METAR KBLI 030753Z AUTO 17003KT 10SM CLR 12/10 A3007 RMK AO2 SLP190 T01170100 401830117=
200808030653 METAR KBLI 030653Z AUTO 17004KT 10SM CLR 12/10 A3008 RMK AO2 SLP191 T01170100=
200808030553 METAR KBLI 030553Z AUTO 18004KT 10SM CLR 12/10 A3008 RMK AO2 SLP192 T01220100 10183 20122 51003=
200808030453 METAR KBLI 030453Z 17004KT 10SM CLR 13/10 A3008 RMK AO2 SLP192 T01330100=
200808030353 METAR KBLI 030353Z 18005KT 10SM CLR 14/11 A3007 RMK AO2 SLP190 T01440106=
200808030253 METAR KBLI 030253Z 16004KT 10SM CLR 16/11 A3007 RMK AO2 SLP189 T01560111 55004=
200808030153 METAR KBLI 030153Z 18007KT 10SM CLR 17/10 A3006 RMK AO2 SLP186 T01720100=
200808030053 METAR KBLI 030053Z 17006KT 10SM CLR 18/10 A3007 RMK AO2 SLP190 T01780100=
200808022353 METAR KBLI 022353Z 16007KT 10SM CLR 18/10 A3008 RMK AO2 SLP191 T01780100 10183 20133 56003=
200808022253 METAR KBLI 022253Z 18008KT 10SM CLR 18/10 A3008 RMK AO2 SLP191 T01830100=
200808022153 METAR KBLI 022153Z 17007KT 10SM CLR 18/11 A3009 RMK AO2 SLP194 T01780106=
200808022053 METAR KBLI 022053Z 15008KT 10SM CLR 17/11 A3009 RMK AO2 SLP195 T01720106 58001=
200808022030 SPECI KBLI 022030Z 17008KT 10SM SCT018 17/11 A3009 RMK AO2=
200808022030 SPECI KBLI 022030Z 17008KT 10SM SCT018 17/11 A3009 RMK AO2=
200808021953 METAR KBLI 021953Z 17008KT 10SM BKN018 16/10 A3009 RMK AO2 SLP195 T01610100=
200808021853 METAR KBLI 021853Z 18009KT 10SM FEW015 BKN090 14/11 A3010 RMK AO2 SLP198 T01440106=
200808021831 SPECI KBLI 021831Z 16008KT 10SM FEW015 BKN033 BKN055 14/11 A3010 RMK AO2=
200808021831 SPECI KBLI 021831Z 16008KT 10SM FEW015 BKN033 BKN055 14/11 A3010 RMK AO2=
200808021753 SPECI KBLI 021753Z 18008KT 10SM OVC015 13/10 A3009 RMK AO2 SLP197 T01330100 10133 20122 53008=
200808021653 METAR KBLI 021653Z 16006KT 10SM OVC017 13/11 A3008 RMK AO2 SLP192 T01330106=
200808021553 METAR KBLI 021553Z 17005KT 10SM FEW017 BKN029 OVC043 13/11 A3007 RMK AO2 SLP188 T01330106=
200808021545 SPECI KBLI 021545Z 18007KT 10SM SCT013 BKN029 OVC043 13/10 A3007 RMK AO2=
200808021545 SPECI KBLI 021545Z 18007KT 10SM SCT013 BKN029 OVC043 13/10 A3007 RMK AO2=
200808021453 METAR KBLI 021453Z 18007KT 10SM OVC011 12/10 A3007 RMK AO2 SLP187 T01220100 52010=
200808021353 METAR KBLI 021353Z AUTO 18004KT 10SM OVC011 12/11 A3006 RMK AO2 SLP184 T01220106=
200808021303 SPECI KBLI 021303Z AUTO 18006KT 10SM BKN011 OVC048 12/11 A3005 RMK AO2=
200808021303 SPECI KBLI 021303Z AUTO 18006KT 10SM BKN011 OVC048 12/11 A3005 RMK AO2=
200808021253 METAR KBLI 021253Z AUTO 18005KT 10SM SCT011 BKN036 OVC065 12/11 A3005 RMK AO2 SLP180 T01220106=
200808021238 SPECI KBLI 021238Z AUTO 18004KT 10SM SCT013 BKN032 OVC065 12/11 A3004 RMK AO2=
200808021238 SPECI KBLI 021238Z AUTO 18004KT 10SM SCT013 BKN032 OVC065 12/11 A3004 RMK AO2=
200808021153 METAR KBLI 021153Z AUTO 18006KT 10SM OVC011 12/11 A3004 RMK AO2 SLP177 70001 T01220106 10139 20122 51007=
200808021105 SPECI KBLI 021105Z AUTO 18006KT 10SM OVC011 13/11 A3003 RMK AO2=
200808021105 SPECI KBLI 021105Z AUTO 18006KT 10SM OVC011 13/11 A3003 RMK AO2=
200808021053 METAR KBLI 021053Z AUTO 18005KT 10SM OVC009 13/11 A3003 RMK AO2 SLP175 T01280111=
200808020953 METAR KBLI 020953Z AUTO 18004KT 10SM OVC009 13/11 A3002 RMK AO2 SLP172 T01280111=
200808020853 METAR KBLI 020853Z AUTO 00000KT 10SM OVC005 13/12 A3001 RMK AO2 SLP169 T01330117 50002=
200808020842 SPECI KBLI 020842Z AUTO 19003KT 10SM OVC005 13/12 A3002 RMK AO2=
200808020842 SPECI KBLI 020842Z AUTO 19003KT 10SM OVC005 13/12 A3002 RMK AO2=
200808020809 SPECI KBLI 020809Z AUTO 21003KT 10SM BKN003 OVC015 13/12 A3002 RMK AO2=
200808020809 SPECI KBLI 020809Z AUTO 21003KT 10SM BKN003 OVC015 13/12 A3002 RMK AO2=
200808020753 METAR KBLI 020753Z AUTO 18003KT 10SM FEW003 BKN015 OVC055 13/12 A3002 RMK AO2 SLP171 T01330122 402000117=
200808020719 SPECI KBLI 020719Z AUTO 00000KT 10SM FEW003 BKN055 OVC095 13/12 A3002 RMK AO2=
200808020719 SPECI KBLI 020719Z AUTO 00000KT 10SM FEW003 BKN055 OVC095 13/12 A3002 RMK AO2=
200808020704 SPECI KBLI 020704Z AUTO 00000KT 10SM SCT023 BKN043 OVC075 14/12 A3001 RMK AO2=
200808020704 SPECI KBLI 020704Z AUTO 00000KT 10SM SCT023 BKN043 OVC075 14/12 A3001 RMK AO2=
200808020653 METAR KBLI 020653Z AUTO 00000KT 10SM BKN023 BKN037 OVC075 14/13 A3001 RMK AO2 SLP168 T01390128=
200808020637 SPECI KBLI 020637Z AUTO 00000KT 10SM BKN023 OVC070 14/13 A3001 RMK AO2=
200808020637 SPECI KBLI 020637Z AUTO 00000KT 10SM BKN023 OVC070 14/13 A3001 RMK AO2=
200808020609 SPECI KBLI 020609Z AUTO 00000KT 10SM FEW006 BKN055 OVC075 14/13 A3001 RMK AO2=
200808020609 SPECI KBLI 020609Z AUTO 00000KT 10SM FEW006 BKN055 OVC075 14/13 A3001 RMK AO2=
200808020553 METAR KBLI 020553Z AUTO 17004KT 10SM OVC055 14/12 A3001 RMK AO2 SLP168 60000 T01440122 10194 20139 52010=
200808020453 METAR KBLI 020453Z 22003KT 10SM OVC046 14/12 A3000 RMK AO2 SLP165 T01440122=
200808020353 METAR KBLI 020353Z 00000KT 10SM SCT040 BKN047 OVC055 16/13 A2999 RMK AO2 RAB31E52 SLP160 P0000 T01560133=
200808020253 METAR KBLI 020253Z 00000KT 10SM BKN049 OVC095 17/12 A2998 RMK AO2 SLP157 60000 T01720117 51006=
200808020153 METAR KBLI 020153Z 00000KT 10SM FEW038 BKN080 OVC090 17/12 A2997 RMK AO2 RAE24 SLP156 P0000 T01720117=
200808020053 METAR KBLI 020053Z 26006KT 10SM -RA BKN075 OVC090 17/12 A2997 RMK AO2 RAB42 SLP155 P0000 T01720117=
200808012353 METAR KBLI 012353Z 24007KT 210V270 10SM FEW040 OVC100 19/11 A2996 RMK AO2 SLP151 T01940106 10200 20172 53011=
200808012253 METAR KBLI 012253Z VRB04KT 10SM BKN095 19/11 A2994 RMK AO2 SLP146 T01890111=
200808012153 METAR KBLI 012153Z VRB05KT 10SM OVC090 19/11 A2994 RMK AO2 SLP143 T01940106=
200808012053 METAR KBLI 012053Z 20009G15KT 10SM CLR 19/11 A2993 RMK AO2 SLP140 T01940106 53007=
200808011953 METAR KBLI 011953Z 18011G18KT 10SM FEW100 19/11 A2992 RMK AO2 SLP137 T01890111=
200808011853 METAR KBLI 011853Z 17012G17KT 10SM FEW095 19/11 A2991 RMK AO2 SLP134 T01890111=
200808011753 METAR KBLI 011753Z 18009KT 10SM FEW090 18/11 A2991 RMK AO2 SLP132 60001 T01780111 10178 20133 51014=
200808011653 METAR KBLI 011653Z 17011KT 10SM BKN090 16/11 A2989 RMK AO2 SLP128 T01560106=
200808011553 METAR KBLI 011553Z 16008KT 10SM FEW027 BKN090 16/12 A2988 RMK AO2 SLP125 P0001 T01610117=
200808011453 METAR KBLI 011453Z 17007KT 10SM FEW029 SCT034 BKN090 15/12 A2986 RMK AO2 SLP119 60000 T01500122 53015=
200808011410 SPECI KBLI 011410Z 19004KT 10SM SCT024 BKN029 14/12 A2985 RMK AO2=
200808011410 SPECI KBLI 011410Z 19004KT 10SM SCT024 BKN029 14/12 A2985 RMK AO2=
200808011401 SPECI KBLI 011401Z VRB03KT 10SM SCT022 BKN030 OVC035 14/12 A2985 RMK AO2=
200808011401 SPECI KBLI 011401Z VRB03KT 10SM SCT022 BKN030 OVC035 14/12 A2985 RMK AO2=
200808011353 METAR KBLI 011353Z 21003KT 10SM SCT021 BKN026 OVC032 14/12 A2985 RMK AO2 SLP113 T01390117=
200808011253 METAR KBLI 011253Z AUTO 17006KT 10SM OVC015 13/12 A2983 RMK AO2 RAB08E18 SLP108 P0000 T01330117=
200808011153 METAR KBLI 011153Z AUTO 18008KT 10SM OVC017 14/12 A2982 RMK AO2 SLP105 60001 70020 T01390117 10144 20117 53005=
200808011053 METAR KBLI 011053Z AUTO 16006KT 10SM OVC015 14/12 A2981 RMK AO2 SLP101 T01390117=
200808011039 SPECI KBLI 011039Z AUTO 17006KT 10SM OVC015 14/12 A2981 RMK AO2=
200808011039 SPECI KBLI 011039Z AUTO 17006KT 10SM OVC015 14/12 A2981 RMK AO2=
200808011017 SPECI KBLI 011017Z AUTO 17009KT 10SM OVC013 14/12 A2980 RMK AO2=
200808011017 SPECI KBLI 011017Z AUTO 17009KT 10SM OVC013 14/12 A2980 RMK AO2=
200808010953 METAR KBLI 010953Z AUTO 16008KT 10SM OVC015 13/12 A2980 RMK AO2 SLP098 T01330117=
200808010908 SPECI KBLI 010908Z AUTO 00000KT 9SM SCT007 OVC015 12/11 A2981 RMK AO2=
200808010908 SPECI KBLI 010908Z AUTO 00000KT 9SM SCT007 OVC015 12/11 A2981 RMK AO2=
200808010853 METAR KBLI 010853Z AUTO 32004KT 9SM BKN007 BKN014 OVC020 12/11 A2981 RMK AO2 RAB0754E14 CIG 002V009 SLP100 P0000 60001 T01170111 53003=
200808010851 SPECI KBLI 010851Z AUTO 35004KT 8SM BKN007 BKN014 OVC020 12/11 A2981 RMK AO2 RAB0754E14 P0000=
200808010851 SPECI KBLI 010851Z AUTO 35004KT 8SM BKN007 BKN014 OVC020 12/11 A2981 RMK AO2 RAB0754E14 P0000=
200808010841 SPECI KBLI 010841Z AUTO 00000KT 8SM SCT007 BKN012 OVC020 12/11 A2980 RMK AO2 RAB0754E14 P0000=
200808010841 SPECI KBLI 010841Z AUTO 00000KT 8SM SCT007 BKN012 OVC020 12/11 A2980 RMK AO2 RAB0754E14 P0000=
200808010828 SPECI KBLI 010828Z AUTO 35004KT 10SM BKN009 BKN012 OVC020 12/11 A2979 RMK AO2 RAB0754E14 CIG 006V011 P0000=
200808010828 SPECI KBLI 010828Z AUTO 35004KT 10SM BKN009 BKN012 OVC020 12/11 A2979 RMK AO2 RAB0754E14 CIG 006V011 P0000=
200808010821 SPECI KBLI 010821Z AUTO 35003KT 10SM SCT005 BKN018 OVC025 12/11 A2979 RMK AO2 RAB0754E14 P0000=
200808010821 SPECI KBLI 010821Z AUTO 35003KT 10SM SCT005 BKN018 OVC025 12/11 A2979 RMK AO2 RAB0754E14 P0000=
200808010753 METAR KBLI 010753Z AUTO 35003KT 8SM SCT006 BKN011 OVC023 12/11 A2980 RMK AO2 RAB11E36 SLP097 P0000 T01170111 401560072=
200808010653 METAR KBLI 010653Z AUTO 00000KT 10SM OVC009 12/11 A2979 RMK AO2 RAB00E37 CIG 005V012 SLP096 P0001 T01220111=
200808010626 SPECI KBLI 010626Z AUTO 00000KT 10SM -RA BKN009 OVC014 12/11 A2980 RMK AO2 RAB00 CIG 006V010 P0001=
200808010626 SPECI KBLI 010626Z AUTO 00000KT 10SM -RA BKN009 OVC014 12/11 A2980 RMK AO2 RAB00 CIG 006V010 P0001=
200808010611 SPECI KBLI 010611Z AUTO 00000KT 6SM -RA BR FEW009 OVC014 12/11 A2981 RMK AO2 RAB00 P0001=
200808010611 SPECI KBLI 010611Z AUTO 00000KT 6SM -RA BR FEW009 OVC014 12/11 A2981 RMK AO2 RAB00 P0001=
200808010603 SPECI KBLI 010603Z AUTO 00000KT 8SM -RA FEW009 OVC016 12/11 A2980 RMK AO2 RAB00 P0000=
200808010603 SPECI KBLI 010603Z AUTO 00000KT 8SM -RA FEW009 OVC016 12/11 A2980 RMK AO2 RAB00 P0000=
200808010553 METAR KBLI 010553Z AUTO VRB03KT 10SM FEW008 OVC014 13/11 A2981 RMK AO2 RAE04 SLP101 P0000 60013 T01280106 10139 20122 58007=
200808010535 SPECI KBLI 010535Z AUTO 00000KT 10SM OVC014 12/11 A2981 RMK AO2 RAE04 P0000=
200808010535 SPECI KBLI 010535Z AUTO 00000KT 10SM OVC014 12/11 A2981 RMK AO2 RAE04 P0000=
200808010453 METAR KBLI 010453Z 14004KT 5SM -RA BR OVC020 13/11 A2982 RMK AO2 SLP105 P0002 T01280111=
200808010416 SPECI KBLI 010416Z 15013KT 10SM -RA BKN022 BKN031 OVC038 13/11 A2983 RMK AO2 P0001=
200808010416 SPECI KBLI 010416Z 15013KT 10SM -RA BKN022 BKN031 OVC038 13/11 A2983 RMK AO2 P0001=
200808010353 METAR KBLI 010353Z 17005KT 6SM -RA BR OVC036 13/12 A2982 RMK AO2 SLP106 P0006 T01330117=
200808010253 METAR KBLI 010253Z 06003KT 8SM -RA FEW024 OVC046 13/12 A2983 RMK AO2 SLP108 P0000 60005 T01330117 56017=
200808010153 METAR KBLI 010153Z 02004KT 9SM -RA FEW038 OVC060 13/12 A2985 RMK AO2 SLP114 P0002 T01330122=
200808010053 METAR KBLI 010053Z 02004KT 8SM -RA BKN045 OVC055 13/12 A2986 RMK AO2 SLP117 P0003 T01330117=

# No short TAF reports from KBLI in databse.

###################################
#  large TAF from KBLI
###################################
200808312332 TAF KBLI 312332Z 010024 VRB06KT P6SM FEW060 FM0500 VRB03KT P6SM
                       SKC FM1200 18005KT P6SM SKC FM1400 18006KT
                       P6SM SCT019 FM1800 20006KT P6SM SCT045=
200808311741 TAF KBLI 311741Z 311818 16006KT P6SM BKN017 OVC080
                      TEMPO 1821 -SHRA FM2100 19006KT P6SM SCT022
                       BKN060 FM0000 20006KT P6SM SCT060 FM0600
                       VRB03KT P6SM FEW060 FM1300 18005KT P6SM
                       BKN020=
200808311621 KBLI 311621Z 311612 17004KT P6SM SCT017 OVC060
                      TEMPO 1619 -SHRA OVC017 FM1900 19006KT P6SM
                       SCT025 BKN060
                      TEMPO 1921 -SHRA BKN025 OVC060 FM0600 VRB03KT
                       P6SM SCT060=
200808311257 KBLI 311257Z 311312 VRB03KT P6SM BKN020 OVC030 FM1600 20005KT P6SM
                       SCT025 BKN060 FM1900 19006KT P6SM BKN060
                       FM0600 VRB03KT P6SM SCT060=
200808311138 TAF KBLI 311138Z 311212 VRB03KT P6SM BKN060 FM1900 19006KT P6SM
                       BKN060 FM0600 VRB03KT P6SM SCT060=
200808310536 TAF KBLI 310536Z 310606 VRB03KT P6SM SKC FM1900 19006KT P6SM SCT060=
200808302326 TAF KBLI 302326Z 310024 20006KT P6SM SKC FM0500 19006KT P6SM SKC
                       FM1500 17005KT P6SM SCT020=
200808301738 TAF KBLI 301738Z 301818 17007KT P6SM BKN035 FM2000 22008KT P6SM
                       SCT035 BKN060 FM0500 19006KT P6SM SCT060
                       FM1500 17005KT P6SM SCT020=
200808301137 TAF KBLI 301137Z 301212 19006KT P6SM BKN060 FM1900 22008KT P6SM
                       SCT035 BKN060 FM0500 19006KT P6SM SCT060=
200808300539 TAF KBLI 300539Z 300606 19008KT P6SM BKN045 FM1200 19008KT P6SM
                       SCT050 FM1900 22008KT P6SM SCT030 BKN050=
200808292337 TAF KBLI 292337Z 300024 20010KT P6SM BKN060 FM0300 22011KT P6SM
                       SCT050 BKN080 FM1000 21009KT P6SM SCT025
                       SCT050 FM1700 22007KT P6SM SCT025 BKN050
                       PROB30 1924 -SHRA=
200808292053 KBLI 292053Z 292118 19005KT P6SM SCT028 OVC035
                      TEMPO 2122 5SM -RA BKN028 OVC035 FM2200 21012G20KT
                       P6SM -SHRA SCT015 BKN025 BKN040 FM0200 22011KT
                       P6SM SCT025 BKN045 FM1000 21009KT P6SM SCT015
                       OVC025 FM1700 22007KT P6SM SCT025 BKN050=
200808291742 TAF KBLI 291742Z 291818 18012KT P6SM FEW008 BKN014 OVC021
                      TEMPO 1822 3SM RA BKN008 OVC015 FM2200 21012G20KT
                       P6SM -SHRA SCT015 BKN025 BKN040 FM0200 22011KT
                       P6SM SCT025 BKN045 FM1000 21009KT P6SM SCT015
                       OVC025 FM1700 22007KT P6SM SCT025 BKN050=
200808291138 TAF KBLI 291138Z 291212 16012KT P6SM SCT008 OVC015
                      TEMPO 1519 4SM -RA BKN008 OVC015 FM1900 16012KT
                       4SM -RA BKN008 OVC015 FM2200 21010KT P6SM
                       -SHRA SCT015 BKN025 BKN040 FM0600 21010KT
                       P6SM BKN015 OVC025=
200808291006 KBLI 291006Z 291006 16012KT P6SM OVC008 FM1500 16012KT P6SM SCT008
                       OVC015
                      TEMPO 1519 4SM -RA BKN008 OVC015 FM1900 16012KT
                       4SM -RA BKN008 OVC015 FM2200 21010KT P6SM
                       -SHRA SCT015 BKN025 BKN040=
200808290540 TAF KBLI 290540Z 290606 16008KT P6SM SCT025 BKN035 OVC050 FM1000
                       16012KT P6SM SCT035 BKN050 OVC080 FM1500
                       16012KT P6SM -RA SCT025 OVC040 FM1800 16012KT
                       P6SM -RA SCT015 OVC025 FM2100 21010KT P6SM
                       -SHRA SCT015 BKN025 BKN040=
200808282333 TAF KBLI 282333Z 290024 16007KT P6SM FEW012 OVC025
                      TEMPO 0004 4SM -RA BR FM0400 16007KT 4SM
                       -RA BR FEW007 OVC015 FM1500 16013G20KT 4SM
                       -RA BR BKN007 OVC015 FM1900 19015G25KT P6SM
                       -RA BKN015 OVC030 FM2200 21013G20KT P6SM
                       BKN028 BKN050
                      TEMPO 2224 -RA=
200808282146 KBLI 282146Z 282218 18011KT P6SM -RA OVC025 FM0000 18011KT P6SM
                       SCT025 OVC050 FM0600 16007KT P6SM OVC025
                       FM0900 16007KT 4SM BR OVC015=
200808281735 TAF KBLI 281735Z 281818 16013KT 6SM -RA BR FEW008 OVC020
                      TEMPO 1821 2SM -RA BR FM2100 18015G22KT P6SM
                       -RA BKN020 OVC040 FM0000 18011KT P6SM SCT025
                       OVC050 FM0600 16007KT P6SM OVC025 FM0900
                       16007KT 4SM BR OVC015=
200808281534 KBLI 281534Z 281612 17009KT 4SM -RA BR SCT006 BKN020 OVC040
                      TEMPO 1618 1 1/2SM -RA BR BKN006 OVC015 FM2100
                       21010KT P6SM SCT015 BKN025 OVC040 FM0300
                       21010KT P6SM SCT025 BKN040=
200808281424 KBLI 281424Z 281412 17009KT 6SM -RA BR FEW006 BKN020 OVC040
                      TEMPO 1418 3SM -RA BR BKN006 OVC015 FM2100
                       21010KT P6SM SCT015 BKN025 OVC040 FM0300
                       21010KT P6SM SCT025 BKN040=
200808281139 TAF KBLI 281139Z 281212 18008KT P6SM -RA SCT006 BKN012 OVC020
                      TEMPO 1216 3SM -RA BKN006 OVC012 FM1600 18008KT
                       P6SM -RA SCT006 BKN012 OVC020
                      TEMPO 1620 3SM -RA BKN006 OVC012 FM2100 21010KT
                       P6SM SCT015 BKN025 OVC040 FM0300 21010KT
                       P6SM SCT025 BKN040=
200808280544 TAF KBLI 280544Z 280606 16008KT P6SM BKN040 OVC070 FM1000 16012KT
                       P6SM -RA SCT015 BKN025 OVC040 FM1400 16012KT
                       P6SM -RA SCT008 OVC015
                      TEMPO 1418 4SM -RA FM2100 19010KT P6SM SCT015
                       BKN025 OVC040 FM0300 19010KT P6SM SCT025
                       BKN040=
200808272331 TAF KBLI 272331Z 280024 16011KT P6SM BKN070 FM0600 16009KT P6SM
                       BKN050 OVC100 FM0900 16013KT P6SM SCT025
                       OVC050
                      PROB30 0912 -RA BKN025 OVC050 FM1200 16013KT
                       5SM -RA BR OVC018 FM2100 18015KT P6SM BKN022
                       OVC040
                      PROB30 2124 -RA=
200808272221 KBLI 272221Z 272218 16011KT P6SM BKN070 BKN200 FM0600 16009KT P6SM
                       FEW025 OVC050 FM1100 16014KT P6SM BKN025
                       OVC050
                      PROB30 1115 -RA FM1500 16014KT 4SM -RA BR
                       OVC018=
200808271741 TAF KBLI 271741Z 271818 18013KT P6SM VCSH SCT022 BKN050
                      TEMPO 1820 18013G20KT BKN022 OVC050 FM2000
                       18013KT P6SM FEW030 BKN050 BKN200 FM0200
                       18009KT P6SM FEW040 BKN070 BKN200 FM0600
                       16009KT P6SM FEW025 OVC050 FM1100 16014KT
                       P6SM BKN025 OVC050
                      PROB30 1115 -RA FM1500 16014KT 4SM -RA BR
                       OVC018=
200808271610 KBLI 271610Z 271612 18013KT P6SM SCT025 OVC050
                      TEMPO 1618 -RA BKN025 OVC050 FM1900 19013KT
                       P6SM BKN030 BKN040 FM0000 19008KT P6SM BKN040
                       FM0600 17007KT P6SM OVC020=
200808271423 KBLI 271423Z 271412 17013KT P6SM FEW006 SCT015 OVC040
                      TEMPO 1416 17013G22KT -RA FEW006 BKN015 OVC040
                       FM1600 19013KT P6SM FEW015 SCT028 OVC050
                       TEMPO 1618 19013G20KT -RA FM1900 19013KT
                       P6SM BKN030 BKN040 FM0000 19008KT P6SM BKN040
                       FM0600 17007KT P6SM OVC020=
200808271134 TAF KBLI 271134Z 271212 18015G25KT P6SM VCSH SCT030 OVC045
                      TEMPO 1216 -SHRA BKN030 FM1900 19013KT P6SM
                       BKN030 BKN040 FM0000 19008KT P6SM BKN040
                       FM0600 17007KT P6SM OVC020=
200808270535 TAF KBLI 270535Z 270606 17010G20KT 4SM RA BR BKN030 OVC040
                      TEMPO 0610 OVC020 FM1400 18015G25KT P6SM
                       VCSH BKN025 OVC040 FM1800 18013KT P6SM SCT025
                       BKN040 FM0000 19010KT P6SM BKN040=
200808262339 TAF KBLI 262339Z 270024 18008KT P6SM SCT050 BKN080 OVC150
                      TEMPO 0103 -RA FM0300 15010KT P6SM -RA SCT020
                       OVC050 FM0600 15015KT 5SM -RA BR OVC020
                       FM1400 18015G25KT P6SM BKN025 OVC040
                      TEMPO 1417 -RA FM1800 18013KT P6SM SCT025
                       BKN050 BKN200=
200808262011 KBLI 262011Z 262018 18010KT P6SM SCT100 BKN200 FM0000 18010KT P6SM
                       SCT050 OVC100
                      TEMPO 0103 -RA FM0300 15010KT P6SM -RA SCT025
                       OVC050 FM0600 15015KT P6SM -RA OVC025 FM1400
                       18015G25KT P6SM -RA BKN018 OVC030=
200808261721 TAF KBLI 261721Z 261818 18010KT P6SM SCT050 SCT200 FM2100 18010KT
                       P6SM SCT100 BKN200 FM0000 18010KT P6SM SCT050
                       OVC100
                      TEMPO 0103 -RA FM0300 15010KT P6SM -RA SCT025
                       OVC050 FM0600 15015KT P6SM -RA OVC025 FM1400
                       18015G25KT P6SM -RA BKN018 OVC030=
200808261130 TAF KBLI 261130Z 261212 16004KT P6SM FEW060 OVC080 FM1800 18007KT
                       P6SM SCT070 SCT200 FM0200 16007KT P6SM SCT050
                       BKN200 FM0900 15010KT P6SM VCSH BKN025 OVC040=
200808260529 TAF KBLI 260529Z 260606 18007KT P6SM BKN070 OVC090
                      TEMPO 0609 -RA BKN040 FM0900 18006KT P6SM
                       SKC FM1200 18004KT P6SM SCT010 FM1800 20007KT
                       P6SM SCT200 FM0000 20007KT P6SM BKN200=
200808252341 TAF KBLI 252341Z 260024 18009KT P6SM FEW060 FM0600 18004KT P6SM
                       SKC FM1200 18004KT P6SM SCT010 FM1800 20007KT
                       P6SM SCT200=
200808251720 TAF KBLI 251720Z 251818 17006KT P6SM FEW012 SCT060 SCT200 FM2000
                       20009KT P6SM SCT060
                      TEMPO 2202 BKN060 FM0600 18005KT P6SM FEW060
                       FM1200 18005KT P6SM SCT010=
200808251122 TAF KBLI 251122Z 251212 18005KT P6SM OVC100 FM1900 20009KT P6SM
                       VCSH BKN030 BKN040 FM2300 20008KT P6SM BKN030
                       FM0900 21005KT P6SM OVC030=
200808250538 TAF KBLI 250538Z 250606 19009KT P6SM SCT030 OVC050 FM1000 18005KT
                       P6SM BKN025
                      TEMPO 1014 2SM BR SCT005 BKN010 FM1800 20009KT
                       P6SM BKN030 BKN040 FM2200 20008KT P6SM SCT040=
200808250304 TAF AMD KBLI 250304Z 250324 19009KT P6SM VCSH SCT010 OVC025
                      TEMPO 0306 4SM -SHRA BKN004 FM1200 18005KT
                       P6SM VCSH BKN025 BKN040 FM2200 20008KT P6SM
                       SCT040=
200808242334 TAF KBLI 242334Z 250024 17010KT P6SM -RA BKN024 OVC040
                      TEMPO 0003 17010G16KT 4SM RA BKN008 OVC015
                       FM0300 19008KT P6SM -SHRA BKN025 BKN040
                       FM1200 18005KT P6SM VCSH BKN025 BKN040 FM2200
                       20008KT P6SM SCT040=
200808242300 KBLI 250304Z 250324 19009KT P6SM VCSH SCT010 OVC025
                      TEMPO 0306 4SM -SHRA BKN004 FM1200 18005KT
                       P6SM VCSH BKN025 BKN040 FM2200 20008KT P6SM
                       SCT040=
200808241909 KBLI 241909Z 241918 18010KT 4SM RA BKN025 OVC045
                      TEMPO 2303 18010G16KT -RA BKN015 OVC035 FM0300
                       19008KT P6SM -SHRA OVC025 FM1200 18005KT
                       P6SM VCSH OVC020 FM1700 19009KT P6SM BKN030=
200808241803 KBLI 241803Z 241818 18010KT 4SM RA BKN035 OVC045
                      TEMPO 2303 18010G16KT -RA BKN020 OVC040 FM0300
                       19008KT P6SM -SHRA OVC025 FM1200 18005KT
                       P6SM VCSH OVC020 FM1700 19009KT P6SM BKN030=
200808241729 TAF KBLI 241729Z 241818 16010G16KT P6SM -RA BKN050 OVC090
                      TEMPO 2303 -RA BKN030 OVC050 FM0300 19008KT
                       P6SM -SHRA OVC025 FM1200 18005KT P6SM VCSH
                       OVC020 FM1700 19009KT P6SM BKN030=
200808241138 TAF KBLI 241138Z 241212 VRB05KT P6SM BKN200 FM1500 17008KT P6SM
                       SCT060 BKN150 FM1800 16010G18KT P6SM -RA
                       BKN030 OVC040 FM0300 19008KT P6SM -SHRA
                       OVC030 FM0600 18006KT P6SM OVC020=
200808240536 TAF KBLI 240536Z 240606 16005KT P6SM BKN200 FM1000 19007KT P6SM
                       BKN100 OVC150 FM1200 18010KT P6SM SCT030
                       BKN050 OVC100 FM1700 16010G18KT P6SM -RA
                       OVC020 FM0200 19008KT P6SM -SHRA BKN030
                       OVC040=
200808232330 TAF KBLI 232330Z 240024 VRB04KT P6SM SCT120 BKN200 FM0500 19007KT
                       P6SM BKN100 OVC150 FM1200 18010KT P6SM SCT030
                       BKN050 OVC100 FM1700 16010G18KT P6SM -RA
                       OVC020=
200808231720 TAF KBLI 231720Z 231818 00000KT P6SM SCT010 BKN150 FM1900 VRB04KT
                       P6SM SCT100 BKN150 FM0500 19007KT P6SM BKN100
                       OVC150 FM1100 18010KT P6SM SCT030 BKN050
                       OVC100 FM1700 18010G18KT P6SM -RA OVC020=
200808231133 TAF KBLI 231133Z 231212 VRB03KT P6SM SCT120 BKN200 FM1900 20007KT
                       P6SM SCT120 BKN200 FM0500 19007KT P6SM BKN100
                       OVC200 FM1100 18011KT P6SM BKN050 OVC100=
200808230521 TAF KBLI 230521Z 230606 VRB03KT P6SM SCT200 FM1100 VRB03KT P6SM
                       BCFG SCT200 FM1900 23006KT P6SM SCT120 BKN200
                       FM0400 19006KT P6SM BKN120 OVC200=
200808222320 TAF KBLI 222320Z 230024 VRB04KT P6SM SCT150 FM0900 VRB03KT P6SM
                       BCFG SCT150 FM1800 23005KT P6SM SCT150=
200808221723 TAF KBLI 221723Z 221818 00000KT P6SM SCT200 FM2100 22007KT P6SM
                       SCT200 FM0400 VRB04KT P6SM SCT200 FM1700
                       26004KT P6SM SCT200=
200808221320 KBLI 221320Z 221312 00000KT P6SM BKN200 FM1600 VRB04KT P6SM BKN200
                       FM2100 22007KT P6SM BKN200 FM0400 VRB04KT
                       P6SM SCT200=
200808221123 TAF KBLI 221123Z 221212 VRB03KT 5SM BR BKN200
                      TEMPO 1216 1SM BR FM1600 VRB04KT P6SM BKN200
                       FM2100 22007KT P6SM BKN200 FM0400 VRB04KT
                       P6SM SCT200=
200808221002 KBLI 221002Z 221006 VRB03KT P6SM SCT070 SCT200
                      TEMPO 1014 1SM BR FM1400 15005KT P6SM SCT002
                       BKN200
                      TEMPO 1416 1SM BR FM1800 21006KT P6SM BKN200
                       FM0400 VRB03KT P6SM SCT200=
200808220520 TAF KBLI 220520Z 220606 VRB03KT P6SM SCT070 SCT200 FM1200 15005KT
                       P6SM SCT002 BKN200
                      TEMPO 1216 1SM BR BKN002 FM1800 21006KT P6SM
                       BKN200 FM0400 VRB03KT P6SM SCT200=
200808212320 TAF KBLI 212320Z 220024 18007KT P6SM SCT030 BKN060 FM0500 00000KT
                       P6SM SCT060 FM1200 04004KT P6SM SCT002
                      TEMPO 1216 1SM BR BKN002 FM1800 VRB03KT P6SM
                       BKN200=
200808212159 KBLI 212159Z 212218 18008KT P6SM SCT040 FM0600 VRB04KT P6SM SKC
                       TEMPO 1216 2SM BR BKN002=
200808211755 KBLI 211755Z 211818 16010KT P6SM VCSH SCT013 BKN040 BKN080
                      TEMPO 1820 BKN013 OVC040 FM2000 18012KT P6SM
                       VCSH SCT025 BKN050
                      TEMPO 2022 BKN025 BKN050 FM0000 VRB05KT P6SM
                       SCT050 FM0600 04004KT P6SM SKC
                      TEMPO 1216 2SM BR BKN002=
200808211720 TAF KBLI 211720Z 211818 18012KT P6SM SCT025 BKN050 FM0000 VRB05KT
                       P6SM SCT050 FM0600 04004KT P6SM SKC
                      TEMPO 1216 2SM BR BKN002=
200808211123 TAF KBLI 211123Z 211212 18007KT P6SM VCSH SCT022 BKN045
                      TEMPO 1216 SHRA BKN017 OVC030 FM1600 18010KT
                       P6SM VCSH BKN030 BKN050 FM2000 20010KT P6SM
                       VCSH SCT030 BKN050 FM0400 19005KT P6SM SCT050=
200808210521 TAF KBLI 210521Z 210606 18007KT P6SM VCSH BKN045 BKN070
                      TEMPO 0610 -SHRA BKN030 FM1000 18006KT P6SM
                       VCSH BKN035 BKN060 FM2000 20010KT P6SM VCSH
                       SCT030 BKN050 FM0300 19006KT P6SM SCT050=
200808202320 TAF KBLI 202320Z 210024 18005KT P6SM VCSH BKN025 OVC040
                      TEMPO 0004 3SM SHRA BR OVC015 FM0600 19012KT
                       P6SM VCSH BKN025 BKN050 FM2000 23010KT P6SM
                       VCSH SCT030 BKN050=
200808201720 TAF KBLI 201720Z 201818 16010KT P6SM VCSH SCT010 BKN030 BKN060
                       FM2200 21014KT P6SM -SHRA BKN025 OVC050
                       TEMPO 2202 5SM SHRA OVC020 FM0600 21010KT
                       P6SM VCSH BKN025 BKN050=
200808201329 KBLI 201329Z 201312 17010KT P6SM VCSH FEW010 SCT025 BKN040 FM1600
                       18008KT P6SM VCSH SCT025 BKN040 FM0200 18012KT
                       P6SM -SHRA BKN025 OVC040
                      TEMPO 0206 4SM -SHRA BKN015 OVC025=
200808201140 TAF KBLI 201140Z 201212 20012KT P6SM -SHRA SCT015 BKN035 OVC040
                       TEMPO 1215 -SHRA BKN015 OVC035 FM1600 18008KT
                       P6SM VCSH SCT025 BKN040 FM0200 18012KT P6SM
                       -SHRA BKN025 OVC040
                      TEMPO 0206 4SM -SHRA BKN015 OVC025=
200808200539 TAF KBLI 200539Z 200606 16015G25KT P6SM -RA SCT020 OVC040
                      TEMPO 0912 4SM RA BR OVC020 FM1200 22012KT
                       P6SM -SHRA SCT020 BKN030 FM1600 22012KT
                       P6SM VCSH SCT025 BKN040 FM0200 19010KT P6SM
                       -SHRA BKN025 OVC040=
200808192320 TAF KBLI 192320Z 200024 VRB05KT P6SM BKN040 OVC100
                      TEMPO 0205 -RA OVC040 FM0500 16015G25KT P6SM
                       -RA OVC040
                      TEMPO 0812 4SM RA BR OVC020 FM1400 22012KT
                       P6SM -SHRA BKN030=
200808191720 TAF KBLI 191720Z 191818 17012KT P6SM BKN040 OVC080 FM0300 16014G22KT
                       P6SM -RA OVC040 FM1000 18014G22KT 5SM -RA
                       BR OVC020 FM1600 22012KT P6SM -SHRA BKN020
                       BKN040=
200808191139 TAF KBLI 191139Z 191212 17008KT P6SM SCT025 OVC040
                      TEMPO 1216 BKN025 OVC040 FM1900 15006KT P6SM
                       SCT040 BKN070 OVC120 FM0400 15012G20KT P6SM
                       -RA SCT025 OVC040 FM1100 21008KT P6SM -SHRA
                       SCT015 BKN025 BKN040=
200808190540 TAF KBLI 190540Z 190606 15012KT P6SM SCT030 OVC060 FM1200 17008KT
                       P6SM SCT025 OVC040
                      TEMPO 1216 BKN025 OVC040 FM1900 15006KT P6SM
                       SCT030 BKN050 BKN100 FM0500 15010KT P6SM
                       -RA SCT025 OVC040=
200808182332 TAF KBLI 182332Z 190024 16008KT P6SM -SHRA VCTS BKN040 BKN100CB
                       FM0700 18008KT P6SM SCT025 BKN100
                      TEMPO 1216 OVC025 FM1600 18010KT P6SM BKN030
                       BKN100 FM1900 18011KT P6SM BKN050 BKN100=
200808181730 TAF KBLI 181730Z 181818 18008KT P6SM SCT100 FM2000 18008KT P6SM
                       -SHRA VCTS BKN100CB FM0300 18008KT P6SM
                       SCT025 BKN100
                      TEMPO 1216 OVC015=
200808181312 KBLI 181312Z 181312 17009KT P6SM VCSH SCT070 BKN130
                      TEMPO 1315 17012G22KT FM1500 19006KT P6SM
                       SCT015 BKN100 FM1900 21008KT P6SM SCT030
                       BKN100 FM0500 21008KT P6SM SCT025 BKN045
                       OVC070 FM1100 21008KT P6SM OVC015=
200808181139 TAF KBLI 181139Z 181212 19006KT P6SM SCT120CB BKN200 FM1500 19006KT
                       P6SM SCT015 BKN100 FM1900 21008KT P6SM SCT030
                       BKN100 FM0500 21008KT P6SM SCT025 BKN045
                       OVC070 FM1100 21008KT P6SM OVC015=
200808180535 TAF KBLI 180535Z 180606 19010KT P6SM SCT120CB BKN200 FM1500 19006KT
                       P6SM SCT015 BKN100 FM1900 21008KT P6SM SCT030
                       BKN100=
200808172331 TAF KBLI 172331Z 180024 16004KT P6SM VCTS SCT120CB BKN200 FM0400
                       20006KT P6SM SCT150 BKN200 FM1500 19006KT
                       P6SM OVC020 FM1900 21008KT P6SM SCT020 BKN050=
200808172111 KBLI 172111Z 172118 VRB03KT P6SM VCTS BKN120CB BKN200 FM2300 20005KT
                       P6SM SCT120 BKN200 FM0400 20008KT P6SM BKN120CB
                       BKN200 FM0900 18006KT P6SM SCT120 BKN200
                       FM1500 19006KT P6SM OVC020=
200808171730 TAF KBLI 171730Z 171818 35005KT P6SM SCT120 BKN200 FM0400 20008KT
                       P6SM BKN120CB BKN200 FM0900 18006KT P6SM
                       SCT120 BKN200 FM1500 19006KT P6SM OVC020=
200808171122 TAF KBLI 171122Z 171212 VRB03KT P6SM BKN200 FM0600 20008KT P6SM
                       SCT070 BKN120=
200808170532 TAF KBLI 170532Z 170606 VRB03KT P6SM BKN200
                      TEMPO 1114 3SM BR FM0300 20008KT P6SM BKN200=
200808162328 TAF KBLI 162328Z 170024 29006KT P6SM SCT250 FM0300 21006KT P6SM
                       SCT250 FM1000 19006KT P6SM SCT120 SCT200
                       FM2000 21006KT P6SM BKN120=
200808161727 TAF KBLI 161727Z 161818 VRB03KT P6SM SKC FM1900 29006KT P6SM SCT250
                       FM0300 21006KT P6SM SCT250 FM1000 19006KT
                       P6SM SCT120 SCT200=
200808161514 KBLI 161514Z 161512 VRB03KT P6SM SKC FM1900 29006KT P6SM SCT250
                       FM0300 21006KT P6SM SCT250=
200808161347 KBLI 161347Z 161412 00000KT 3SM BR SKC
                      TEMPO 1416 1/2SM FG FM1700 VRB03KT P6SM SKC
                       FM1900 29006KT P6SM SCT250 FM0300 21006KT
                       P6SM SCT250=
200808161142 TAF KBLI 161142Z 161212 VRB03KT P6SM SCT250
                      TEMPO 1214 2SM BR FM1900 29006KT P6SM SCT250
                       FM0300 21006KT P6SM SCT250=
200808161133 TAF KBLI 161133Z 161212 VRB03KT P6SM SCT250 FM1900 29006KT P6SM
                       SCT250 FM0300 21006KT P6SM SCT250=
200808160524 TAF KBLI 160524Z 160606 VRB03KT P6SM SCT250 FM1900 29006KT P6SM
                       SCT250 FM0300 21006KT P6SM SCT250=
200808152330 TAF KBLI 152330Z 160024 27007KT P6SM BKN150 FM0300 21006KT P6SM
                       SCT250 FM0600 19003KT P6SM SCT250 FM2000
                       26006KT P6SM SCT250=
200808151744 TAF KBLI 151744Z 151818 34005KT P6SM SCT250 FM0300 19006KT P6SM
                       SCT250=
200808151124 TAF KBLI 151124Z 151212 VRB04KT P6SM BKN250 FM1800 27007KT P6SM
                       SCT250 FM0700 19006KT P6SM SCT250=
200808150537 TAF KBLI 150537Z 150606 VRB04KT P6SM SKC FM1800 28005KT P6SM SKC=
200808142320 TAF KBLI 142320Z 150024 28005KT P6SM FEW250 FM0600 VRB04KT P6SM
                       SKC FM1800 28005KT P6SM SKC=
200808141728 TAF KBLI 141728Z 141818 VRB04KT P6SM FEW250 FM2100 30008KT P6SM
                       FEW250 FM0600 VRB04KT P6SM SKC=
200808141126 TAF KBLI 141126Z 141212 VRB04KT P6SM SKC FM1900 28007KT P6SM SKC
                       FM0600 20005KT P6SM SKC=
200808140526 TAF KBLI 140526Z 140606 VRB04KT P6SM SKC FM1900 28007KT P6SM SKC=
200808132320 TAF KBLI 132320Z 140024 28006KT P6SM SKC=
200808131720 TAF KBLI 131720Z 131818 VRB03KT P6SM SKC FM0000 30008KT P6SM SKC=
200808131125 TAF KBLI 131125Z 131212 VRB03KT P6SM VCFG SCT040 FM1800 22006KT
                       P6SM SKC FM0300 VRB03KT P6SM SKC=
200808131017 KBLI 131017Z 131006 VRB03KT P6SM BKN060 FM1200 VRB03KT P6SM VCFG
                       SCT060 FM1800 22006KT P6SM SCT200=
200808130541 TAF KBLI 130541Z 130606 VRB03KT P6SM OVC050 FM1000 VRB03KT P6SM
                       OVC030 FM1200 VRB03KT P6SM OVC015 FM1400
                       VRB03KT P6SM VCFG OVC005 FM1800 22006KT
                       P6SM BKN009 BKN200 FM1900 22006KT P6SM SCT200=
200808122320 TAF KBLI 122320Z 130024 VRB06KT P6SM SCT040 OVC100
                      TEMPO 0206 -RA BKN040 OVC080 FM0600 VRB04KT
                       P6SM VCSH SCT025 BKN040 OVC080 FM1000 00000KT
                       P6SM SCT010 OVC030
                      TEMPO 1216 BKN010 OVC030 FM1700 VRB04KT P6SM
                       BKN030 FM2000 32008KT P6SM SCT030=
200808121720 TAF KBLI 121720Z 121818 VRB04KT P6SM BKN120 BKN200 FM0600 VRB04KT
                       P6SM SCT030 BKN080 OVC120 FM1000 18006KT
                       P6SM BKN020 OVC050
                      PROB30 1016 3SM -DZ BR OVC010=
200808121135 TAF KBLI 121135Z 121212 VRB03KT P6SM VCFG FEW200 FM1500 17006KT
                       P6SM VCFG FEW003 FEW130 BKN200 FM1800 17006KT
                       P6SM FEW008 SCT130 OVC200 FM2100 19009KT
                       P6SM SCT090 OVC130 FM0000 19009KT P6SM BKN090
                       OVC130 FM0600 VRB03KT P6SM SCT090 BKN130=
200808120530 TAF KBLI 120530Z 120606 VRB03KT P6SM FEW200 FM1500 17006KT P6SM
                       FEW130 BKN200 FM2100 19009KT P6SM SCT090
                       OVC130 FM0000 19009KT P6SM BKN090 OVC130=
200808112334 TAF KBLI 112334Z 120024 31006KT P6SM SKC FM0400 VRB03KT P6SM SCT200
                       FM2000 19006KT P6SM BKN120 OVC200=
200808111720 TAF KBLI 111720Z 111818 VRB04KT P6SM FEW030 FM2000 22006KT P6SM
                       SKC FM0300 VRB03KT P6SM SCT200=
200808111128 TAF KBLI 111128Z 111212 VRB03KT P6SM BKN050 FM1800 VRB03KT P6SM
                       SCT050 FM2000 22006KT P6SM SKC FM0300 VRB03KT
                       P6SM SCT200=
200808110539 TAF KBLI 110539Z 110606 VRB03KT P6SM SCT070 FM0900 VRB03KT P6SM
                       BKN050 FM1800 VRB03KT P6SM SCT050 FM2000
                       22006KT P6SM SKC FM0300 VRB03KT P6SM SKC=
200808102338 TAF KBLI 102338Z 110024 19007KT P6SM SCT070 SCT120 FM0600 18006KT
                       P6SM FEW070 FM0900 20006KT P6SM SKC FM1500
                       22007KT P6SM SKC=
200808101737 TAF KBLI 101737Z 101818 16009KT P6SM BKN060 BKN080 FM2200 20006KT
                       P6SM SCT070 FM0600 VRB03KT P6SM SKC FM1500
                       20006KT P6SM SKC=
200808101120 TAF KBLI 101120Z 101212 17007KT P6SM -SHRA BKN022 OVC040 FM1600
                       17007KT P6SM SCT028 OVC050
                      TEMPO 1620 -SHRA FM2000 19009KT P6SM FEW035
                       BKN070 FM0200 19006KT P6SM SCT070 FM0600
                       VRB03KT P6SM SKC=
200808100946 KBLI 100946Z 101006 17005KT P6SM VCSH FEW020 OVC040 FM1200 17005KT
                       P6SM BKN020 OVC040 FM1900 19009KT P6SM FEW030
                       BKN050 FM2200 19009KT P6SM SCT050=
200808100542 TAF KBLI 100542Z 100606 17005KT P6SM SCT015 BKN070
                      TEMPO 0608 -SHRA BKN015 BKN050 FM0800 17005KT
                       P6SM VCSH SCT015 BKN050
                      TEMPO 0812 BKN015 BKN050 FM1200 17005KT P6SM
                       BKN015 OVC050 FM1800 17007KT P6SM BKN025
                       BKN050 FM1900 19009KT P6SM FEW030 BKN050
                       FM2200 19009KT P6SM SCT050=
200808092332 TAF KBLI 092332Z 100024 16010KT P6SM -SHRA SCT030 BKN040 OVC070
                       TEMPO 0004 18010G20KT 4SM SHRA BKN025 FM0400
                       18008KT P6SM VCSH BKN030 OVC050 FM0700 15006KT
                       P6SM OVC025 FM1800 21008KT P6SM BKN040=
200808091736 TAF KBLI 091736Z 091818 17010KT P6SM VCSH SCT015 BKN025
                      TEMPO 1821 18010G20KT -SHRA BKN015 FM2100
                       18013G20KT P6SM -SHRA BKN025CB OVC050 FM0300
                       18008KT P6SM VCSH BKN030 FM0900 15006KT
                       P6SM OVC020=
200808091428 KBLI 091428Z 091412 17008KT 3SM -RA BR BKN015 OVC050
                      TEMPO 1416 1 1/2SM -SHRA BKN004 FM1600 18009KT
                       P6SM -SHRA OVC020 FM2100 18013G20KT P6SM
                       -SHRA BKN030CB OVC050 FM0300 18008KT P6SM
                       -SHRA OVC050 FM0600 15006KT P6SM BKN050
                       BKN200
                      PROB30 0609 -SHRA=
200808091328 KBLI 091328Z 091312 17008KT 1 1/2SM RA BR BKN002 BKN006 OVC016
                       TEMPO 1314 -SHRA BKN020 OVC040 FM1400 18009KT
                       P6SM -SHRA OVC020 FM2100 18013G20KT P6SM
                       -SHRA BKN030CB OVC050 FM0300 18008KT P6SM
                       -SHRA OVC050 FM0600 15006KT P6SM BKN050
                       BKN200
                      PROB30 0609 -SHRA=
200808091142 TAF KBLI 091142Z 091212 18008KT P6SM SCT020 OVC040
                      TEMPO 1214 -SHRA BKN020 OVC040 FM1400 18009KT
                       P6SM -SHRA OVC020 FM2100 18013G20KT P6SM
                       -SHRA BKN030CB OVC050 FM0300 18008KT P6SM
                       -SHRA OVC050 FM0600 15006KT P6SM BKN050
                       BKN200
                      PROB30 0609 -SHRA=
200808090545 TAF KBLI 090545Z 090606 18008KT P6SM FEW035 BKN130 BKN200 FM1000
                       18008KT P6SM SCT035 OVC110 FM1200 18008KT
                       P6SM BKN035 OVC110 FM1800 18013G20KT P6SM
                       -SHRA BKN025CB OVC050 FM0300 18010KT P6SM
                       SCT025 BKN050
                      PROB30 0306 -SHRA=
200808082338 TAF KBLI 082338Z 090024 18009KT P6SM FEW060 SCT100 FM0600 20006KT
                       P6SM SCT050 BKN100 FM1000 18004KT P6SM OVC030
                       FM1900 18010KT P6SM VCSH BKN040 OVC050=
200808081725 TAF KBLI 081725Z 081818 18010G20KT P6SM SCT005 BKN040 BKN100 FM2000
                       20012KT P6SM BKN040 FM0900 18004KT P6SM
                       OVC030=
200808081611 KBLI 081611Z 081612 16009KT P6SM SCT005 BKN050 BKN140
                      TEMPO 1618 2SM BR OVC002 FM1800 18008KT P6SM
                       FEW060 SCT200 FM0300 35006KT P6SM SCT060
                       FM0600 03004KT P6SM OVC050=
200808081246 KBLI 081246Z 081312 16009KT P6SM BKN003
                      TEMPO 1316 SCT010 FM1800 18008KT P6SM FEW060
                       SCT200 FM0300 35006KT P6SM SCT060 FM0600
                       03004KT P6SM OVC050=
200808081126 TAF KBLI 081126Z 081212 17010G18KT P6SM SKC
                      TEMPO 1216 SCT010 FM1800 18008KT P6SM FEW060
                       SCT200 FM0300 35006KT P6SM SCT060 FM0600
                       03004KT P6SM OVC050=
200808080533 TAF KBLI 080533Z 080606 17008KT P6SM FEW200
                      TEMPO 1317 SCT010 FM2000 18010KT P6SM FEW150
                       SCT200=
200808072320 TAF KBLI 072320Z 080024 17008KT P6SM SCT200
                      TEMPO 1317 SCT010 FM2000 18010KT P6SM FEW100
                       SCT200=
200808071720 TAF KBLI 071720Z 071818 17009KT P6SM SCT200=
200808071122 TAF KBLI 071122Z 071212 17008KT P6SM SCT200 FM2100 21008KT P6SM
                       SCT200=
200808070521 TAF KBLI 070521Z 070606 19006KT P6SM SCT100 SCT200 FM1200 18006KT
                       P6SM SCT007 SCT200 FM1800 20008KT P6SM SCT200=
200808062321 TAF KBLI 062321Z 070024 19006KT P6SM SCT100 BKN200=
200808061720 TAF KBLI 061720Z 061818 VRB03KT P6SM FEW250 FM2000 29006KT P6SM
                       SCT200 FM0100 18006KT P6SM FEW120 BKN200=
200808061128 TAF KBLI 061128Z 061212 00000KT P6SM SKC
                      TEMPO 1214 2SM BR FM2000 21006KT P6SM SKC
                       FM0300 18006KT P6SM FEW120=
200808060520 TAF KBLI 060520Z 060606 00000KT P6SM SKC
                      TEMPO 1214 2SM BR FM2000 21006KT P6SM SKC=
200808052320 TAF KBLI 052320Z 060024 26006KT P6SM SKC FM0200 VRB03KT P6SM SKC
                       FM2000 21006KT P6SM SKC=
200808051720 TAF KBLI 051720Z 051818 32005KT P6SM SKC FM2000 29006KT P6SM SKC
                       FM0200 VRB03KT P6SM SKC=
200808051156 KBLI 051156Z 051212 00000KT P6SM SKC
                      TEMPO 1215 1/2SM FG SKC FM2000 24006KT P6SM
                       SKC FM0200 VRB03KT P6SM SKC=
200808051120 TAF KBLI 051120Z 051212 00000KT P6SM SKC
                      TEMPO 1214 2SM BR SKC FM2000 24006KT P6SM
                       SKC FM0200 VRB03KT P6SM SKC=
200808050603 TAF KBLI 050603Z 050606 00000KT P6SM SKC FM2000 24006KT P6SM SKC
                       FM0200 VRB03KT P6SM SKC=
200808042320 TAF KBLI 042320Z 050024 28006KT P6SM SKC FM0400 VRB04KT P6SM SKC
                       FM2000 26008KT P6SM SKC=
200808041720 TAF KBLI 041720Z 041818 32005KT P6SM SKC FM2000 29006KT P6SM SKC
                       FM0400 18006KT P6SM SKC=
200808041133 TAF KBLI 041133Z 041212 VRB03KT P6SM SKC
                      TEMPO 1315 2SM BR FM2000 29006KT P6SM SKC=
200808040520 TAF KBLI 040520Z 040606 VRB03KT P6SM SKC FM2000 29006KT P6SM SKC=
200808032320 TAF KBLI 032320Z 040024 VRB04KT P6SM SKC FM1000 VRB04KT P6SM BCFG
                       SCT010 FM1800 26006KT P6SM FEW015=
200808031740 TAF KBLI 031740Z 031818 18005KT P6SM SCT025 FM2100 26007KT P6SM
                       SCT025 FM0600 19004KT P6SM SCT010 FM1000
                       33006KT P6SM BCFG SCT010=
200808031604 KBLI 031604Z 031612 VRB03KT P6SM SCT020 BKN030 OVC035 FM1800 23005KT
                       P6SM SKC FM0600 19004KT P6SM SKC=
200808031128 TAF KBLI 031128Z 031212 VRB03KT 5SM BR SKC
                      TEMPO 1214 1 1/2SM BR BKN003 FM1400 19004KT
                       P6SM SCT010 FM1900 23005KT P6SM SKC FM0600
                       19004KT P6SM SKC=
200808031045 KBLI 031045Z 031106 00000KT 1 1/2SM BR SCT020 FM1200 VRB03KT 3SM
                       BR BKN010 FM1900 23005KT P6SM SCT030 FM2100
                       23008KT P6SM SKC=
200808030534 TAF KBLI 030534Z 030606 17004KT P6SM SKC FM1000 00000KT P6SM SCT020
                       FM1900 23005KT P6SM SCT030 FM2100 23008KT
                       P6SM SKC=
200808022320 TAF KBLI 022320Z 030024 18008KT P6SM SCT080 FM0600 VRB04KT P6SM
                       SCT080 FM1000 00000KT P6SM SCT015 FM1900
                       23005KT P6SM SCT030=
200808021733 TAF KBLI 021733Z 021818 18006KT P6SM OVC017
                      TEMPO 1921 SCT017 BKN040 FM2100 20008KT P6SM
                       SCT040 FM0600 VRB03KT P6SM SKC=
200808021500 KBLI 021500Z 021512 18007KT P6SM OVC011
                      TEMPO 1517 SCT011 BKN050 FM1700 18007KT P6SM
                       SCT020 BKN050 FM2000 23006KT P6SM SCT040=
200808021121 TAF KBLI 021121Z 021212 18007KT P6SM BKN015 OVC040
                      TEMPO 1216 OVC010 FM1700 18007KT P6SM BKN020
                       BKN050 FM2000 23006KT P6SM SCT040=
200808020823 KBLI 020823Z 020806 VRB04KT P6SM SCT003 OVC015
                      TEMPO 0812 BKN003 OVC015 FM1600 VRB04KT P6SM
                       BKN020 FM1900 30006KT P6SM SCT030=
200808020809 KBLI 020809Z 020806 VRB04KT P6SM SCT015 BKN050
                      TEMPO 0912 BKN015 OVC050 FM1200 00000KT P6SM
                       OVC015 FM1600 VRB04KT P6SM BKN020 FM1900
                       30006KT P6SM SCT030=
200808020520 TAF KBLI 020520Z 020606 VRB04KT P6SM SCT025 BKN050
                      TEMPO 0912 BKN025 OVC050 FM1200 00000KT P6SM
                       OVC020
                      TEMPO 1216 OVC015 FM1700 VRB04KT P6SM BKN025
                       FM1900 30006KT P6SM SCT030=
200808020108 TAF AMD KBLI 020108Z 020124 VRB04KT P6SM OVC070
                      TEMPO 0103 -SHRA FM0300 20006KT P6SM BKN050
                       FM0800 19004KT P6SM BKN030 FM1900 21007KT
                       P6SM SCT030=
200808012323 TAF KBLI 012323Z 020024 VRB04KT P6SM SCT050 BKN090 FM0300 20006KT
                       P6SM SCT035 BKN050 FM0800 19004KT P6SM BKN030
                       FM1900 21007KT P6SM SCT030=
200808012300 KBLI 020108Z 020124 VRB04KT P6SM OVC070
                      TEMPO 0103 -SHRA FM0300 20006KT P6SM BKN050
                       FM0800 19004KT P6SM BKN030 FM1900 21007KT
                       P6SM SCT030=
200808011735 TAF KBLI 011735Z 011818 17011KT P6SM BKN090 FM2100 21007KT P6SM
                       SCT035 BKN050 FM0300 19004KT P6SM BKN035
                       FM0800 00000KT P6SM BKN030 FM1700 VRB03KT
                       P6SM SCT030=
200808011618 KBLI 011618Z 011612 16008KT P6SM FEW027 BKN090 FM2100 21007KT P6SM
                       SCT030 BKN050 FM0600 30005KT P6SM BKN030=
200808011453 KBLI 011453Z 011512 19004KT P6SM SCT024 BKN029 FM1700 18007KT P6SM
                       SCT025 BKN035 FM2100 21007KT P6SM SCT030
                       BKN050 FM0600 30005KT P6SM BKN030=
200808011120 TAF KBLI 011120Z 011212 16006KT P6SM OVC015 FM1700 18007KT P6SM
                       BKN025 BKN050 FM2100 21007KT P6SM SCT030
                       BKN050 FM0600 30005KT P6SM BKN030=
200808010700 KBLI 010700Z 010706 VRB04KT P6SM SCT008 OVC020
                      TEMPO 0711 5SM -RA BR BKN008 OVC020 FM1100
                       20007KT P6SM -SHRA BKN020 BKN040 FM1900
                       VRB05KT P6SM VCSH SCT020 BKN050=
200808010520 TAF KBLI 010520Z 010606 16006KT 5SM -RA BR OVC020
                      TEMPO 0812 3SM RA BR OVC015 FM1600 20007KT
                       P6SM -SHRA BKN020 BKN040 FM1900 VRB05KT
                       P6SM VCSH SCT020 BKN050=
200808010019 TAF AMD KBLI 010019Z 010024 VRB03KT P6SM -RA SCT022 OVC050
                      TEMPO 0004 6SM -RA BR BKN022 OVC050 FM0400
                       14008KT 6SM -RA BR OVC022 FM0700 18010KT
                       P6SM VCSH OVC030 FM1200 19007KT P6SM OVC030
                       FM2000 21008KT P6SM BKN040=