##########################################################
# Query made at 02/21/2025 23:30:41 UTC
# Time interval: from 01/01/2009 00:00  to 01/31/2009 23:59  UTC
##########################################################

##########################################################
# KBLI, Bellingham, Bellingham International Airport (United States)
# WMO index: -----. WIGOS ID: Unknown
# Latitude 48-47-58N. Longitude 122-32-21W. Altitude 48 m.
##########################################################

###################################
#  METAR/SPECI from KBLI
###################################
200901312353 METAR KBLI 312353Z 16005KT 10SM FEW035 06/01 A3042 RMK AO2 SLP311 T00610006 10072 20050 53007=
200901312253 METAR KBLI 312253Z 18007KT 10SM SCT036 BKN046 07/M01 A3041 RMK AO2 SLP307 T00671006=
200901312153 METAR KBLI 312153Z 20004KT 10SM SCT036 06/01 A3040 RMK AO2 SLP304 T00610006=
200901312053 METAR KBLI 312053Z 18007KT 10SM FEW032 SCT050 07/00 A3040 RMK AO2 SLP304 T00670000 58007=
200901311953 METAR KBLI 311953Z VRB04KT 10SM CLR 06/M01 A3042 RMK AO2 SLP310 T00611006=
200901311853 METAR KBLI 311853Z VRB04KT 10SM CLR 06/00 A3042 RMK AO2 SLP311 T00560000=
200901311753 METAR KBLI 311753Z 17005KT 10SM CLR 05/M02 A3042 RMK AO2 SLP311 T00501017 10050 20017 51021=
200901311653 METAR KBLI 311653Z 17004KT 10SM CLR 04/M01 A3041 RMK AO2 SLP308 T00391011=
200901311553 METAR KBLI 311553Z 17006KT 10SM SCT039 04/M01 A3038 RMK AO2 SLP298 T00391006=
200901311453 METAR KBLI 311453Z 19006KT 10SM FEW085 03/M02 A3036 RMK AO2 SLP290 T00281017 58000=
200901311353 METAR KBLI 311353Z AUTO 17004KT 10SM CLR 03/M02 A3036 RMK AO2 SLP291 T00331017=
200901311253 METAR KBLI 311253Z AUTO 21005KT 10SM CLR 04/M02 A3036 RMK AO2 SLP292 T00391022=
200901311153 METAR KBLI 311153Z AUTO 19005KT 10SM CLR 04/M01 A3036 RMK AO2 SLP290 T00391011 10044 20028 51017=
200901311053 METAR KBLI 311053Z AUTO VRB05KT 10SM CLR 04/M01 A3035 RMK AO2 SLP287 T00391006=
200901310953 METAR KBLI 310953Z AUTO 16004KT 10SM CLR 04/M03 A3033 RMK AO2 SLP281 T00391028=
200901310853 METAR KBLI 310853Z AUTO 18005KT 10SM CLR 04/M02 A3031 RMK AO2 SLP273 T00391017 53012=
200901310753 METAR KBLI 310753Z AUTO 18006KT 10SM CLR 04/M02 A3029 RMK AO2 SLP267 T00441017 400721028=
200901310653 METAR KBLI 310653Z AUTO 18003KT 10SM FEW060 04/M03 A3028 RMK AO2 SLP263 T00391028=
200901310553 METAR KBLI 310553Z 18003KT 10SM CLR 04/M03 A3028 RMK AO2 SLP261 60000 T00441033 10072 20028 51033=
200901310453 METAR KBLI 310453Z 17003KT 10SM CLR 06/M03 A3025 RMK AO2 SLP252 T00561028=
200901310353 METAR KBLI 310353Z VRB06KT 10SM CLR 06/M02 A3022 RMK AO2 SLP244 T00611022=
200901310253 METAR KBLI 310253Z 18011G16KT 10SM FEW033 06/03 A3018 RMK AO2 SLP228 60000 T00610028 53012=
200901310205 SPECI KBLI 310205Z 18011G20KT 10SM SCT020 BKN034 07/03 A3013 RMK AO2=
200901310205 SPECI KBLI 310205Z 18011G20KT 10SM SCT020 BKN034 07/03 A3013 RMK AO2=
200901310153 METAR KBLI 310153Z 19009G22KT 10SM BKN020 BKN030 OVC037 07/03 A3015 RMK AO2 RAE0055 SLP217 P0000 T00670033=
200901310053 METAR KBLI 310053Z 18011G20KT 10SM -RA OVC022 06/03 A3015 RMK AO2 RAB45 SLP219 P0000 T00610028=
200901302353 METAR KBLI 302353Z 17014G21KT 8SM OVC029 04/03 A3014 RMK AO2 SLP217 60000 T00440028 10044 21006 56019=
200901302300 SPECI KBLI 302300Z 18012G18KT 7SM SCT004 BKN018 OVC039 03/02 A3016 RMK AO2=
200901302300 SPECI KBLI 302300Z 18012G18KT 7SM SCT004 BKN018 OVC039 03/02 A3016 RMK AO2=
200901302253 METAR KBLI 302253Z 17011G18KT 6SM BR BKN004 BKN039 OVC048 03/02 A3016 RMK AO2 RAB40E47 SLP224 P0000 T00330022=
200901302231 SPECI KBLI 302231Z 19009G15KT 7SM BKN004 OVC050 03/02 A3017 RMK AO2=
200901302231 SPECI KBLI 302231Z 19009G15KT 7SM BKN004 OVC050 03/02 A3017 RMK AO2=
200901302202 SPECI KBLI 302202Z 18009G17KT 10SM FEW006 OVC065 03/02 A3017 RMK AO2=
200901302202 SPECI KBLI 302202Z 18009G17KT 10SM FEW006 OVC065 03/02 A3017 RMK AO2=
200901302153 METAR KBLI 302153Z 18012G21KT 10SM OVC065 03/02 A3017 RMK AO2 SLP227 T00330017=
200901302053 METAR KBLI 302053Z 17013G19KT 10SM SCT001 03/02 A3020 RMK AO2 SLP236 T00330022 58039=
200901302044 SPECI KBLI 302044Z 17010KT 6SM BR FEW003 03/02 A3022 RMK AO2=
200901302044 SPECI KBLI 302044Z 17010KT 6SM BR FEW003 03/02 A3022 RMK AO2=
200901302031 SPECI KBLI 302031Z 16013KT 1/4SM FG VV001 02/02 A3022 RMK AO2 RVRNO=
200901302031 SPECI KBLI 302031Z 16013KT 1/4SM FG VV001 02/02 A3022 RMK AO2 RVRNO=
200901302024 SPECI KBLI 302024Z 17010KT 1SM FG VV001 02/02 A3023 RMK AO2 RVRNO=
200901302024 SPECI KBLI 302024Z 17010KT 1SM FG VV001 02/02 A3023 RMK AO2 RVRNO=
200901301953 METAR KBLI 301953Z 17007KT 1/16SM FG VV000 02/02 A3025 RMK AO2 PRESFR SLP255 T00170017 RVRNO=
200901301853 METAR KBLI 301853Z 15003KT 0SM FG VV000 00/00 A3027 RMK AO2 SLP261 T00000000 RVRNO=
200901301822 SPECI KBLI 301822Z 16004KT 1/2SM FZFG OVC001 M01/M01 A3030 RMK AO2 RVRNO=
200901301822 SPECI KBLI 301822Z 16004KT 1/2SM FZFG OVC001 M01/M01 A3030 RMK AO2 RVRNO=
200901301812 SPECI KBLI 301812Z 00000KT 1SM BR BKN001 M01/M01 A3031 RMK AO2 RVRNO=
200901301812 SPECI KBLI 301812Z 00000KT 1SM BR BKN001 M01/M01 A3031 RMK AO2 RVRNO=
200901301759 SPECI KBLI 301759Z 00000KT 5SM BR BKN001 M01/M01 A3031 RMK AO2=
200901301759 SPECI KBLI 301759Z 00000KT 5SM BR BKN001 M01/M01 A3031 RMK AO2=
200901301753 METAR KBLI 301753Z 00000KT 10SM CLR M01/M01 A3031 RMK AO2 SLP275 T10061006 11006 21022 58020=
200901301729 SPECI KBLI 301729Z 00000KT 10SM CLR M01/M02 A3032 RMK AO2=
200901301729 SPECI KBLI 301729Z 00000KT 10SM CLR M01/M02 A3032 RMK AO2=
200901301653 METAR KBLI 301653Z 00000KT 1/4SM FZFG VV001 M02/M02 A3034 RMK AO2 SLP284 FOG BANK ALONG RUNWAY AND WEST OF AIRPORT T10171017 RVRNO=
200901301630 SPECI KBLI 301630Z 00000KT 1/4SM FZFG VV001 M02/M03 A3035 RMK AO2 FOG BANK ALONG RUNWAY AND WEST OF AIRPORT RVRNO=
200901301630 SPECI KBLI 301630Z 00000KT 1/4SM FZFG VV001 M02/M03 A3035 RMK AO2 FOG BANK ALONG RUNWAY AND WEST OF AIRPORT RVRNO=
200901301616 SPECI KBLI 301616Z 00000KT 10SM CLR M02/M03 A3035 RMK AO2 FOG BANK ALONG RUNWAY AND WEST OF AIRPORT=
200901301616 SPECI KBLI 301616Z 00000KT 10SM CLR M02/M03 A3035 RMK AO2 FOG BANK ALONG RUNWAY AND WEST OF AIRPORT=
200901301553 METAR KBLI 301553Z 00000KT M1/4SM FZFG VV001 M02/M03 A3036 RMK AO2 SLP290 T10221028 RVRNO=
200901301453 METAR KBLI 301453Z 35004KT 1/4SM FZFG VV001 M02/M03 A3037 RMK AO2 SLP295 T10171028 58033 RVRNO=
200901301353 METAR KBLI 301353Z AUTO 00000KT 1/4SM FZFG VV001 M02/M02 A3041 RMK AO2 SLP307 T10171017 RVRNO=
200901301336 SPECI KBLI 301336Z AUTO 02004KT 1/4SM FZFG VV001 M01/M02 A3042 RMK AO2 RVRNO=
200901301336 SPECI KBLI 301336Z AUTO 02004KT 1/4SM FZFG VV001 M01/M02 A3042 RMK AO2 RVRNO=
200901301328 SPECI KBLI 301328Z AUTO 02005KT 1/4SM FZFG VV003 M01/M02 A3042 RMK AO2 RVRNO=
200901301328 SPECI KBLI 301328Z AUTO 02005KT 1/4SM FZFG VV003 M01/M02 A3042 RMK AO2 RVRNO=
200901301321 SPECI KBLI 301321Z AUTO 02005KT 3/4SM BR VV003 M01/M02 A3043 RMK AO2 RVRNO=
200901301321 SPECI KBLI 301321Z AUTO 02005KT 3/4SM BR VV003 M01/M02 A3043 RMK AO2 RVRNO=
200901301317 SPECI KBLI 301317Z AUTO 01005KT 1 3/4SM BR SCT002 SCT017 M01/M02 A3043 RMK AO2=
200901301317 SPECI KBLI 301317Z AUTO 01005KT 1 3/4SM BR SCT002 SCT017 M01/M02 A3043 RMK AO2=
200901301253 METAR KBLI 301253Z AUTO 02004KT 7SM FEW007 M02/M02 A3044 RMK AO2 SLP318 T10171022=
200901301240 SPECI KBLI 301240Z AUTO 35003KT 3SM BR SCT007 SCT018 M02/M02 A3045 RMK AO2=
200901301240 SPECI KBLI 301240Z AUTO 35003KT 3SM BR SCT007 SCT018 M02/M02 A3045 RMK AO2=
200901301238 SPECI KBLI 301238Z AUTO 35003KT 2SM BR FEW002 BKN007 M02/M02 A3045 RMK AO2=
200901301238 SPECI KBLI 301238Z AUTO 35003KT 2SM BR FEW002 BKN007 M02/M02 A3045 RMK AO2=
200901301226 SPECI KBLI 301226Z AUTO 35003KT 3/4SM BR SCT002 OVC007 M02/M02 A3045 RMK AO2 RVRNO=
200901301226 SPECI KBLI 301226Z AUTO 35003KT 3/4SM BR SCT002 OVC007 M02/M02 A3045 RMK AO2 RVRNO=
200901301217 SPECI KBLI 301217Z AUTO 01004KT 1/2SM FZFG BKN002 OVC007 M02/M02 A3046 RMK AO2 RVRNO=
200901301217 SPECI KBLI 301217Z AUTO 01004KT 1/2SM FZFG BKN002 OVC007 M02/M02 A3046 RMK AO2 RVRNO=
200901301209 SPECI KBLI 301209Z AUTO 00000KT 1SM BR BKN002 OVC007 M02/M03 A3046 RMK AO2 RVRNO=
200901301209 SPECI KBLI 301209Z AUTO 00000KT 1SM BR BKN002 OVC007 M02/M03 A3046 RMK AO2 RVRNO=
200901301153 METAR KBLI 301153Z AUTO 00000KT 1 3/4SM BR FEW002 OVC007 M02/M03 A3047 RMK AO2 SLP327 70001 T10221028 11006 21028 58024=
200901301134 SPECI KBLI 301134Z AUTO 34003KT 3/4SM BR BKN007 M02/M03 A3048 RMK AO2 RVRNO=
200901301134 SPECI KBLI 301134Z AUTO 34003KT 3/4SM BR BKN007 M02/M03 A3048 RMK AO2 RVRNO=
200901301119 SPECI KBLI 301119Z AUTO 35004KT 1SM BR BKN007 BKN036 M03/M03 A3049 RMK AO2 RVRNO=
200901301119 SPECI KBLI 301119Z AUTO 35004KT 1SM BR BKN007 BKN036 M03/M03 A3049 RMK AO2 RVRNO=
200901301053 METAR KBLI 301053Z AUTO 36003KT 1/2SM FZFG BKN007 OVC014 M03/M03 A3050 RMK AO2 SLP338 T10281033 RVRNO=
200901300953 METAR KBLI 300953Z AUTO 35003KT 1/2SM FZFG FEW001 OVC007 M03/M04 A3052 RMK AO2 SLP344 T10281039 RVRNO=
200901300922 SPECI KBLI 300922Z AUTO 00000KT 1/4SM FZFG SCT001 OVC007 M02/M03 A3053 RMK AO2 RVRNO=
200901300922 SPECI KBLI 300922Z AUTO 00000KT 1/4SM FZFG SCT001 OVC007 M02/M03 A3053 RMK AO2 RVRNO=
200901300908 SPECI KBLI 300908Z AUTO 35003KT 1/4SM FZFG BKN001 OVC007 M02/M03 A3053 RMK AO2 RVRNO=
200901300908 SPECI KBLI 300908Z AUTO 35003KT 1/4SM FZFG BKN001 OVC007 M02/M03 A3053 RMK AO2 RVRNO=
200901300853 METAR KBLI 300853Z AUTO 00000KT 1/4SM FZFG SCT001 OVC007 M02/M03 A3054 RMK AO2 SLP351 T10221028 58016 RVRNO=
200901300753 METAR KBLI 300753Z AUTO 00000KT 1/4SM FZFG BKN007 BKN029 M02/M02 A3056 RMK AO2 SLP358 T10171022 400671022 RVRNO=
200901300737 SPECI KBLI 300737Z AUTO 00000KT 1/2SM FZFG BKN007 BKN029 M02/M03 A3056 RMK AO2 RVRNO=
200901300737 SPECI KBLI 300737Z AUTO 00000KT 1/2SM FZFG BKN007 BKN029 M02/M03 A3056 RMK AO2 RVRNO=
200901300735 SPECI KBLI 300735Z AUTO 00000KT 1SM BR BKN007 BKN040 M02/M03 A3057 RMK AO2 RVRNO=
200901300735 SPECI KBLI 300735Z AUTO 00000KT 1SM BR BKN007 BKN040 M02/M03 A3057 RMK AO2 RVRNO=
200901300733 SPECI KBLI 300733Z AUTO 00000KT 3SM BR BKN007 BKN037 M02/M03 A3057 RMK AO2=
200901300733 SPECI KBLI 300733Z AUTO 00000KT 3SM BR BKN007 BKN037 M02/M03 A3057 RMK AO2=
200901300728 SPECI KBLI 300728Z AUTO 00000KT 1SM BR BKN007 BKN022 M02/M02 A3057 RMK AO2 RVRNO=
200901300728 SPECI KBLI 300728Z AUTO 00000KT 1SM BR BKN007 BKN022 M02/M02 A3057 RMK AO2 RVRNO=
200901300653 METAR KBLI 300653Z AUTO 00000KT 1/4SM FZFG SCT001 OVC007 M02/M02 A3057 RMK AO2 SLP362 T10171022 RVRNO=
200901300624 SPECI KBLI 300624Z 00000KT 1/4SM FZFG BKN001 OVC007 M01/M02 A3058 RMK AO2 RVRNO=
200901300624 SPECI KBLI 300624Z 00000KT 1/4SM FZFG BKN001 OVC007 M01/M02 A3058 RMK AO2 RVRNO=
200901300612 SPECI KBLI 300612Z 00000KT 3SM BR BKN001 BKN007 OVC014 M01/M02 A3058 RMK AO2=
200901300612 SPECI KBLI 300612Z 00000KT 3SM BR BKN001 BKN007 OVC014 M01/M02 A3058 RMK AO2=
200901300605 SPECI KBLI 300605Z 00000KT 3SM BR SCT001 BKN007 OVC014 M01/M02 A3058 RMK AO2=
200901300605 SPECI KBLI 300605Z 00000KT 3SM BR SCT001 BKN007 OVC014 M01/M02 A3058 RMK AO2=
200901300553 METAR KBLI 300553Z 00000KT 6SM BR FEW005 BKN014 M01/M02 A3059 RMK AO2 SLP367 T10111022 10067 21011 58012=
200901300547 SPECI KBLI 300547Z 00000KT 6SM BR FEW008 BKN014 M01/M02 A3059 RMK AO2=
200901300547 SPECI KBLI 300547Z 00000KT 6SM BR FEW008 BKN014 M01/M02 A3059 RMK AO2=
200901300514 SPECI KBLI 300514Z 00000KT 6SM BR FEW014 M01/M01 A3059 RMK AO2=
200901300514 SPECI KBLI 300514Z 00000KT 6SM BR FEW014 M01/M01 A3059 RMK AO2=
200901300502 SPECI KBLI 300502Z 00000KT 1/4SM FG CLR 00/M01 A3060 RMK AO2 RVRNO=
200901300502 SPECI KBLI 300502Z 00000KT 1/4SM FG CLR 00/M01 A3060 RMK AO2 RVRNO=
200901300455 SPECI KBLI 300455Z 00000KT 3/4SM BR CLR 01/M01 A3060 RMK AO2 VIS 1/4V2 RVRNO=
200901300455 SPECI KBLI 300455Z 00000KT 3/4SM BR CLR 01/M01 A3060 RMK AO2 VIS 1/4V2 RVRNO=
200901300453 METAR KBLI 300453Z 00000KT 6SM BR CLR 00/M01 A3060 RMK AO2 SLP372 T00001011=
200901300353 METAR KBLI 300353Z 00000KT 5SM BR CLR 02/01 A3061 RMK AO2 SLP375 T00170006=
200901300253 METAR KBLI 300253Z 00000KT 8SM CLR 03/02 A3062 RMK AO2 SLP379 T00280017 58010=
200901300153 METAR KBLI 300153Z 03003KT 10SM SCT019 BKN055 03/02 A3063 RMK AO2 SLP382 T00280017=
200901300053 METAR KBLI 300053Z 03005KT 10SM SCT019 BKN032 OVC060 04/02 A3064 RMK AO2 SLP387 T00440022=
200901292353 METAR KBLI 292353Z 17003KT 10SM FEW018 OVC034 07/02 A3065 RMK AO2 SLP388 T00670022 10067 20050 53001=
200901292253 METAR KBLI 292253Z 17005KT 10SM OVC034 06/02 A3065 RMK AO2 SLP387 T00610022=
200901292153 METAR KBLI 292153Z 17007KT 10SM OVC034 06/02 A3064 RMK AO2 SLP387 T00610022=
200901292053 METAR KBLI 292053Z 17010KT 10SM OVC034 06/02 A3065 RMK AO2 SLP389 T00560022 58006=
200901291953 METAR KBLI 291953Z 17012KT 10SM BKN036 OVC046 06/02 A3066 RMK AO2 SLP393 T00560022=
200901291853 METAR KBLI 291853Z 17008G16KT 10SM OVC036 06/02 A3067 RMK AO2 SLP394 T00560022=
200901291753 METAR KBLI 291753Z 16006KT 10SM OVC030 05/02 A3067 RMK AO2 SLP394 60001 T00500022 10050 20039 51012=
200901291706 SPECI KBLI 291706Z 17006KT 10SM FEW026 OVC034 04/02 A3066 RMK AO2=
200901291706 SPECI KBLI 291706Z 17006KT 10SM FEW026 OVC034 04/02 A3066 RMK AO2=
200901291653 METAR KBLI 291653Z 16007KT 10SM OVC029 04/02 A3066 RMK AO2 SLP391 T00440017=
200901291553 METAR KBLI 291553Z 17007KT 10SM OVC021 04/02 A3065 RMK AO2 SLP389 T00440017=
200901291509 SPECI KBLI 291509Z 15005KT 10SM BKN021 BKN040 OVC049 04/02 A3063 RMK AO2=
200901291509 SPECI KBLI 291509Z 15005KT 10SM BKN021 BKN040 OVC049 04/02 A3063 RMK AO2=
200901291453 METAR KBLI 291453Z 16005KT 10SM FEW019 BKN041 OVC060 04/02 A3063 RMK AO2 RAB21E42 SLP383 P0001 60001 T00390022 53003=
200901291437 SPECI KBLI 291437Z AUTO 15007KT 10SM -RA FEW017 BKN034 OVC060 04/02 A3063 RMK AO2 RAB21 P0000=
200901291437 SPECI KBLI 291437Z AUTO 15007KT 10SM -RA FEW017 BKN034 OVC060 04/02 A3063 RMK AO2 RAB21 P0000=
200901291353 METAR KBLI 291353Z AUTO 16007KT 10SM OVC017 04/03 A3063 RMK AO2 RAB1256E50 SLP381 P0000 T00440028=
200901291253 METAR KBLI 291253Z AUTO 15010KT 8SM OVC017 04/03 A3062 RMK AO2 RAB1158E26 SLP380 P0000 T00440028=
200901291212 SPECI KBLI 291212Z AUTO 16009KT 9SM -RA BKN022 BKN041 OVC050 04/03 A3062 RMK AO2 RAB1158 P0000=
200901291212 SPECI KBLI 291212Z AUTO 16009KT 9SM -RA BKN022 BKN041 OVC050 04/03 A3062 RMK AO2 RAB1158 P0000=
200901291153 METAR KBLI 291153Z AUTO 16010KT 10SM FEW022 BKN044 OVC050 05/03 A3062 RMK AO2 RAB12E40 SLP380 P0000 60000 T00500028 10056 20039 51001=
200901291130 SPECI KBLI 291130Z AUTO 17009G15KT 10SM -RA SCT022 BKN026 OVC042 05/03 A3063 RMK AO2 RAB12 P0000=
200901291130 SPECI KBLI 291130Z AUTO 17009G15KT 10SM -RA SCT022 BKN026 OVC042 05/03 A3063 RMK AO2 RAB12 P0000=
200901291053 METAR KBLI 291053Z AUTO 17010KT 10SM SCT023 BKN030 OVC055 05/02 A3062 RMK AO2 SLP378 T00500022=
200901290953 METAR KBLI 290953Z AUTO 16008KT 10SM OVC060 05/02 A3062 RMK AO2 SLP377 T00500022=
200901290853 METAR KBLI 290853Z AUTO 15004KT 10SM BKN060 OVC080 05/02 A3061 RMK AO2 SLP375 T00500017 51005=
200901290753 METAR KBLI 290753Z AUTO 16005KT 10SM BKN047 OVC070 04/01 A3061 RMK AO2 SLP376 T00440011 400720000=
200901290653 METAR KBLI 290653Z AUTO 16005KT 10SM BKN047 OVC055 04/01 A3061 RMK AO2 SLP374 T00440011=
200901290553 METAR KBLI 290553Z 15004KT 10SM BKN045 OVC095 04/01 A3060 RMK AO2 SLP371 T00440011 10061 20006 51005=
200901290453 METAR KBLI 290453Z 16004KT 10SM SCT043 OVC110 04/01 A3059 RMK AO2 SLP369 T00390006=
200901290353 METAR KBLI 290353Z 00000KT 10SM FEW044 OVC110 01/M01 A3059 RMK AO2 SLP371 T00111006=
200901290253 METAR KBLI 290253Z 00000KT 10SM FEW110 01/M01 A3059 RMK AO2 SLP368 T00111011 53004=
200901290153 METAR KBLI 290153Z 00000KT 10SM BKN120 02/M01 A3058 RMK AO2 SLP364 T00221006=
200901290053 METAR KBLI 290053Z 17003KT 10SM CLR 06/01 A3057 RMK AO2 SLP363 T00560006=
200901282353 METAR KBLI 282353Z 19003KT 10SM CLR 06/01 A3057 RMK AO2 SLP362 T00610006 10072 20050 53007=
200901282253 METAR KBLI 282253Z 20005KT 10SM CLR 07/01 A3055 RMK AO2 SLP356 T00720006=
200901282153 METAR KBLI 282153Z 18004KT 10SM CLR 07/01 A3055 RMK AO2 SLP355 T00720006=
200901282053 METAR KBLI 282053Z VRB03KT 10SM CLR 07/02 A3055 RMK AO2 SLP355 T00670017 51006=
200901281953 SPECI KBLI 281953Z 17004KT 10SM CLR 06/02 A3055 RMK AO2 SLP355 T00610017 $=
200901281853 METAR KBLI 281853Z 23003KT 10SM FEW070 06/02 A3055 RMK AO2 SLP355 T00560017 $=
200901281753 METAR KBLI 281753Z 00000KT 10SM OVC065 05/02 A3053 RMK AO2 SLP349 T00500022 10050 20000 53024 $=
200901281653 METAR KBLI 281653Z 18003KT 10SM OVC065 03/02 A3051 RMK AO2 SLP340 T00280017 $=
200901281553 METAR KBLI 281553Z 00000KT 7SM SCT065 OVC110 01/M01 A3049 RMK AO2 SLP333 T00061006=
200901281514 SPECI KBLI 281514Z 00000KT 7SM BKN065 OVC120 01/00 A3047 RMK AO2=
200901281514 SPECI KBLI 281514Z 00000KT 7SM BKN065 OVC120 01/00 A3047 RMK AO2=
200901281453 METAR KBLI 281453Z 00000KT 1 1/2SM BR FEW037 BKN070 OVC120 01/00 A3046 RMK AO2 SLP324 T00060000 53014=
200901281405 SPECI KBLI 281405Z AUTO 00000KT 1 1/2SM BR FEW060 OVC120 01/00 A3044 RMK AO2=
200901281405 SPECI KBLI 281405Z AUTO 00000KT 1 1/2SM BR FEW060 OVC120 01/00 A3044 RMK AO2=
200901281353 METAR KBLI 281353Z AUTO 00000KT 2SM BR SCT065 OVC120 01/01 A3043 RMK AO2 SLP315 T00110006=
200901281253 METAR KBLI 281253Z AUTO 00000KT 1 1/2SM BR OVC065 01/01 A3042 RMK AO2 SLP311 T00110006=
200901281153 METAR KBLI 281153Z AUTO 00000KT 2 1/2SM BR SCT050 OVC065 02/01 A3042 RMK AO2 SLP311 70002 T00170006 10044 20011 51025 TSNO=
200901281145 SPECI KBLI 281145Z AUTO 00000KT 2SM BR FEW048 OVC065 01/00 A3041 RMK AO2=
200901281145 SPECI KBLI 281145Z AUTO 00000KT 2SM BR FEW048 OVC065 01/00 A3041 RMK AO2=
200901281053 METAR KBLI 281053Z AUTO 00000KT 3SM BR OVC038 02/01 A3040 RMK AO2 SLP303 T00170006=
200901281013 SPECI KBLI 281013Z AUTO 00000KT 4SM BR FEW013 OVC038 02/01 A3038 RMK AO2=
200901281013 SPECI KBLI 281013Z AUTO 00000KT 4SM BR FEW013 OVC038 02/01 A3038 RMK AO2=
200901280953 METAR KBLI 280953Z AUTO 00000KT 4SM BR BKN013 OVC038 02/01 A3038 RMK AO2 SLP297 T00220011=
200901280943 SPECI KBLI 280943Z AUTO 00000KT 5SM BR BKN013 BKN019 OVC038 02/01 A3037 RMK AO2=
200901280943 SPECI KBLI 280943Z AUTO 00000KT 5SM BR BKN013 BKN019 OVC038 02/01 A3037 RMK AO2=
200901280853 METAR KBLI 280853Z AUTO 17003KT 5SM BR FEW010 OVC036 02/01 A3035 RMK AO2 SLP286 T00170006 51022=
200901280753 METAR KBLI 280753Z AUTO 00000KT 9SM BKN036 OVC070 02/01 A3033 RMK AO2 SLP279 T00220011 400561017=
200901280736 SPECI KBLI 280736Z AUTO 18003KT 9SM SCT009 OVC036 02/01 A3032 RMK AO2=
200901280736 SPECI KBLI 280736Z AUTO 18003KT 9SM SCT009 OVC036 02/01 A3032 RMK AO2=
200901280711 SPECI KBLI 280711Z 00000KT 10SM BKN009 BKN036 OVC065 03/01 A3031 RMK AO2 CIG 007V012=
200901280711 SPECI KBLI 280711Z 00000KT 10SM BKN009 BKN036 OVC065 03/01 A3031 RMK AO2 CIG 007V012=
200901280704 SPECI KBLI 280704Z 00000KT 10SM SCT009 BKN036 BKN065 03/02 A3031 RMK AO2=
200901280704 SPECI KBLI 280704Z 00000KT 10SM SCT009 BKN036 BKN065 03/02 A3031 RMK AO2=
200901280653 METAR KBLI 280653Z VRB03KT 10SM FEW011 BKN065 03/02 A3031 RMK AO2 SLP272 T00330017=
200901280618 SPECI KBLI 280618Z 00000KT 10SM SCT013 OVC070 04/02 A3029 RMK AO2=
200901280618 SPECI KBLI 280618Z 00000KT 10SM SCT013 OVC070 04/02 A3029 RMK AO2=
200901280553 METAR KBLI 280553Z 28003KT 10SM OVC013 04/02 A3028 RMK AO2 SLP263 T00390022 10056 20000 53033=
200901280500 SPECI KBLI 280500Z 19003KT 10SM OVC020 06/03 A3025 RMK AO2=
200901280500 SPECI KBLI 280500Z 19003KT 10SM OVC020 06/03 A3025 RMK AO2=
200901280453 METAR KBLI 280453Z 00000KT 10SM SCT027 OVC070 06/03 A3024 RMK AO2 SLP250 T00560028=
200901280353 METAR KBLI 280353Z 17007KT 10SM OVC060 05/02 A3021 RMK AO2 SLP239 T00500022=
200901280253 METAR KBLI 280253Z 17008KT 10SM BKN055 OVC080 04/02 A3018 RMK AO2 SLP229 T00440022 53010=
200901280153 METAR KBLI 280153Z 16010KT 10SM SCT060 04/02 A3016 RMK AO2 SLP223 T00390017=
200901280053 METAR KBLI 280053Z 17009KT 10SM SCT015 OVC060 04/02 A3015 RMK AO2 SLP218 T00390017=
200901272353 METAR KBLI 272353Z 03003KT 6SM BR OVC019 00/M01 A3015 RMK AO2 SLP219 60002 T00001006 10039 21006 53007=
200901272253 METAR KBLI 272253Z 16010KT 10SM OVC019 04/01 A3012 RMK AO2 SLP208 T00390011=
200901272153 METAR KBLI 272153Z 00000KT 7SM OVC019 M01/M01 A3012 RMK AO2 UPE2055FZRAB17E21SNB2055E07 SLP211 P0001 T10061011=
200901272127 SPECI KBLI 272127Z 36005KT 6SM BR FEW002 OVC019 M01/M02 A3013 RMK AO2 UPE2055FZRAB17E21SNB2055E07 P0001=
200901272127 SPECI KBLI 272127Z 36005KT 6SM BR FEW002 OVC019 M01/M02 A3013 RMK AO2 UPE2055FZRAB17E21SNB2055E07 P0001=
200901272117 SPECI KBLI 272117Z 01006KT 5SM -FZRA BR FEW002 BKN015 OVC021 M01/M02 A3013 RMK AO2 UPE2055FZRAB17SNB2055E07 P0001=
200901272117 SPECI KBLI 272117Z 01006KT 5SM -FZRA BR FEW002 BKN015 OVC021 M01/M02 A3013 RMK AO2 UPE2055FZRAB17SNB2055E07 P0001=
200901272053 METAR KBLI 272053Z 03007KT 3SM UP BR FEW002 OVC013 M01/M02 A3013 RMK AO2 RAE13UPB16E21B51FZRAB21E26SNB26E51 SLP213 P0001 60001 T10061017 58005=
200901272050 SPECI KBLI 272050Z 02010KT 3SM -SN BR FEW002 OVC013 M01/M02 A3013 RMK AO2 RAE13UPB16E21FZRAB21E26SNB26 P0001=
200901272050 SPECI KBLI 272050Z 02010KT 3SM -SN BR FEW002 OVC013 M01/M02 A3013 RMK AO2 RAE13UPB16E21FZRAB21E26SNB26 P0001=
200901272026 SPECI KBLI 272026Z 01005KT 2 1/2SM -SN BR FEW002 OVC018 M01/M02 A3014 RMK AO2 RAE13UPB16E21FZRAB21E26SNB26 WNDSHFT 2007 P0000=
200901272026 SPECI KBLI 272026Z 01005KT 2 1/2SM -SN BR FEW002 OVC018 M01/M02 A3014 RMK AO2 RAE13UPB16E21FZRAB21E26SNB26 WNDSHFT 2007 P0000=
200901272015 SPECI KBLI 272015Z 02005KT 5SM BR FEW002 OVC018 00/M01 A3014 RMK AO2 RAE13 WNDSHFT 2007 P0000=
200901272015 SPECI KBLI 272015Z 02005KT 5SM BR FEW002 OVC018 00/M01 A3014 RMK AO2 RAE13 WNDSHFT 2007 P0000=
200901272007 SPECI KBLI 272007Z 01005KT 5SM -RA BR OVC018 00/M01 A3014 RMK AO2 WNDSHFT 2007 P0000=
200901272007 SPECI KBLI 272007Z 01005KT 5SM -RA BR OVC018 00/M01 A3014 RMK AO2 WNDSHFT 2007 P0000=
200901271953 METAR KBLI 271953Z 16010G18KT 7SM -RA OVC020 03/00 A3014 RMK AO2 RAB23 SLP217 P0000 T00280000=
200901271853 METAR KBLI 271853Z 16009G19KT 10SM BKN028 OVC035 03/M02 A3014 RMK AO2 SLP215 T00281022=
200901271826 SPECI KBLI 271826Z 15008G18KT 10SM BKN028 OVC035 03/M03 A3012 RMK AO2=
200901271826 SPECI KBLI 271826Z 15008G18KT 10SM BKN028 OVC035 03/M03 A3012 RMK AO2=
200901271819 SPECI KBLI 271819Z 15011KT 10SM FEW026 OVC035 02/M03 A3012 RMK AO2=
200901271819 SPECI KBLI 271819Z 15011KT 10SM FEW026 OVC035 02/M03 A3012 RMK AO2=
200901271753 METAR KBLI 271753Z 15011KT 10SM OVC027 02/M03 A3015 RMK AO2 SLP218 60000 T00171028 10028 20000 58018=
200901271653 METAR KBLI 271653Z 12010KT 10SM FEW012 SCT027 OVC038 01/M03 A3017 RMK AO2 SNE19 SLP225 P0000 T00061033=
200901271623 SPECI KBLI 271623Z 13008KT 9SM SCT025 BKN030 OVC038 01/M03 A3018 RMK AO2 SNE19 P0000=
200901271623 SPECI KBLI 271623Z 13008KT 9SM SCT025 BKN030 OVC038 01/M03 A3018 RMK AO2 SNE19 P0000=
200901271614 SPECI KBLI 271614Z 13008KT 6SM -SN BKN028 OVC038 00/M03 A3018 RMK AO2 P0000=
200901271614 SPECI KBLI 271614Z 13008KT 6SM -SN BKN028 OVC038 00/M03 A3018 RMK AO2 P0000=
200901271553 METAR KBLI 271553Z 12007KT 5SM -SN FEW025 BKN031 OVC037 01/M04 A3020 RMK AO2 RAB42E43UPB43E46SNB46 SLP235 P0000 T00061039=
200901271513 SPECI KBLI 271513Z 14011G18KT 10SM SCT028 OVC040 01/M04 A3020 RMK AO2=
200901271513 SPECI KBLI 271513Z 14011G18KT 10SM SCT028 OVC040 01/M04 A3020 RMK AO2=
200901271501 SPECI KBLI 271501Z 14012G19KT 10SM BKN028 OVC040 01/M04 A3020 RMK AO2=
200901271501 SPECI KBLI 271501Z 14012G19KT 10SM BKN028 OVC040 01/M04 A3020 RMK AO2=
200901271453 METAR KBLI 271453Z 13012G19KT 10SM BKN030 OVC038 01/M04 A3020 RMK AO2 PK WND 14026/1431 SLP236 60000 T00061044 56023=
200901271353 METAR KBLI 271353Z AUTO 14010KT 10SM BKN042 OVC055 02/M06 A3021 RMK AO2 SLP241 T00171061=
200901271253 METAR KBLI 271253Z AUTO 15010G19KT 10SM BKN050 OVC060 03/M09 A3024 RMK AO2 PK WND 16033/1206 SNB00E16 SLP251 P0000 T00281094=
200901271153 METAR KBLI 271153Z AUTO 16012G24KT 10SM BKN038 OVC049 03/M11 A3027 RMK AO2 SLP258 T00281111 10033 21017 58020=
200901271053 METAR KBLI 271053Z AUTO 15010G18KT 10SM OVC055 03/M12 A3028 RMK AO2 SLP264 T00281122=
200901270953 METAR KBLI 270953Z AUTO 14008KT 10SM OVC060 03/M12 A3031 RMK AO2 SLP273 T00281122=
200901270853 METAR KBLI 270853Z AUTO 14010KT 10SM OVC050 02/M09 A3033 RMK AO2 SLP278 T00221094 58020=
200901270753 METAR KBLI 270753Z AUTO 00000KT 10SM OVC055 M02/M09 A3035 RMK AO2 SLP289 T10171089 400221078=
200901270653 METAR KBLI 270653Z AUTO 00000KT 10SM OVC065 M01/M09 A3039 RMK AO2 SLP302 T10111089=
200901270553 METAR KBLI 270553Z 00000KT 10SM BKN075 OVC090 M01/M09 A3038 RMK AO2 SLP299 T10111094 10017 21017 56006=
200901270453 METAR KBLI 270453Z 00000KT 10SM OVC080 M01/M10 A3039 RMK AO2 SLP304 T10111100=
200901270353 METAR KBLI 270353Z 00000KT 10SM OVC090 M01/M12 A3039 RMK AO2 SLP302 T10111117=
200901270253 METAR KBLI 270253Z 04003KT 10SM OVC100 M02/M11 A3040 RMK AO2 SLP307 T10171106 58003=
200901270153 METAR KBLI 270153Z 00000KT 10SM BKN100 OVC120 M01/M11 A3042 RMK AO2 SLP312 T10061106=
200901270053 METAR KBLI 270053Z 00000KT 10SM CLR 00/M11 A3042 RMK AO2 SLP312 T00001106=
200901262353 METAR KBLI 262353Z 00000KT 10SM CLR 02/M12 A3041 RMK AO2 SLP309 T00171117 10022 21033 56012=
200901262253 METAR KBLI 262253Z 17003KT 10SM CLR 02/M12 A3042 RMK AO2 SLP313 T00171117=
200901262153 METAR KBLI 262153Z VRB03KT 10SM CLR 02/M12 A3043 RMK AO2 SLP316 T00171122=
200901262053 METAR KBLI 262053Z 31003KT 10SM CLR 01/M12 A3045 RMK AO2 SLP321 T00061122 58001=
200901261953 METAR KBLI 261953Z 36004KT 10SM CLR 01/M11 A3045 RMK AO2 SLP323 T00061111=
200901261853 METAR KBLI 261853Z 04003KT 10SM CLR M01/M11 A3047 RMK AO2 SLP327 T10111106=
200901261753 METAR KBLI 261753Z 03004KT 10SM CLR M03/M13 A3045 RMK AO2 SLP323 T10331133 11033 21078 51013=
200901261653 METAR KBLI 261653Z 01003KT 10SM CLR M06/M14 A3045 RMK AO2 SLP323 T10611144=
200901261553 METAR KBLI 261553Z 35004KT 10SM CLR M07/M16 A3044 RMK AO2 SLP320 T10721161=
200901261453 METAR KBLI 261453Z AUTO 36005KT 10SM CLR M07/M16 A3041 RMK AO2 SLP310 T10721156 53016=
200901261353 METAR KBLI 261353Z AUTO 03004KT 10SM CLR M07/M16 A3040 RMK AO2 SLP304 T10721161=
200901261253 METAR KBLI 261253Z AUTO 35004KT 10SM CLR M07/M16 A3038 RMK AO2 SLP299 T10671161=
200901261153 METAR KBLI 261153Z AUTO 02004KT 10SM CLR M07/M16 A3037 RMK AO2 SLP294 T10671161 11017 21067 50001=
200901261053 METAR KBLI 261053Z AUTO 04004KT 10SM FEW090 M06/M17 A3037 RMK AO2 SLP296 T10611167=
200901260953 METAR KBLI 260953Z AUTO 01008KT 10SM CLR M04/M17 A3037 RMK AO2 SLP295 T10441172=
200901260853 METAR KBLI 260853Z AUTO 02010G16KT 10SM CLR M03/M18 A3036 RMK AO2 SLP292 T10281178 51017=
200901260753 METAR KBLI 260753Z AUTO 04008G19KT 10SM CLR M03/M18 A3035 RMK AO2 SLP288 T10281183 400001033=
200901260653 METAR KBLI 260653Z AUTO 02012G20KT 10SM CLR M02/M19 A3033 RMK AO2 SLP280 T10221189=
200901260553 METAR KBLI 260553Z 02011G18KT 10SM CLR M02/M18 A3031 RMK AO2 SLP275 T10221183 11006 21033 53014=
200901260453 METAR KBLI 260453Z 02007KT 10SM CLR M03/M18 A3030 RMK AO2 SLP272 T10281178=
200901260353 METAR KBLI 260353Z 01011KT 10SM CLR M02/M18 A3027 RMK AO2 SLP261 T10221178=
200901260253 METAR KBLI 260253Z 02009KT 10SM CLR M02/M18 A3027 RMK AO2 SLP261 T10171178 53014=
200901260153 METAR KBLI 260153Z 01011KT 10SM FEW055 M02/M18 A3026 RMK AO2 SLP257 T10171178=
200901260053 METAR KBLI 260053Z 03012G19KT 10SM CLR M01/M18 A3024 RMK AO2 PK WND 02026/0002 SLP251 T10111178=
200901252353 METAR KBLI 252353Z 02013G23KT 10SM FEW049 M01/M18 A3023 RMK AO2 PK WND 03029/2326 SLP247 T10061178 10000 21028 53001=
200901252253 METAR KBLI 252253Z 01013G23KT 10SM SCT049 OVC080 M01/M17 A3023 RMK AO2 PK WND 35030/2205 SLP246 T10061172=
200901252153 METAR KBLI 252153Z 02019G27KT 10SM OVC045 M01/M18 A3022 RMK AO2 PK WND 35030/2129 SLP244 T10061178=
200901252053 METAR KBLI 252053Z 02019G28KT 10SM OVC037 M01/M18 A3023 RMK AO2 PK WND 03034/2037 SLP246 T10111178 50000=
200901251953 METAR KBLI 251953Z 02019G39KT 10SM OVC035 M02/M18 A3023 RMK AO2 PK WND 03039/1944 SLP248 T10171178=
200901251853 METAR KBLI 251853Z 03015G29KT 10SM BKN036 OVC060 M02/M17 A3024 RMK AO2 PK WND 03037/1801 SLP249 T10221172=
200901251753 METAR KBLI 251753Z 02023G34KT 10SM OVC065 M03/M17 A3023 RMK AO2 PK WND 03035/1656 SLP246 T10281172 11011 21028 51016=
200901251653 METAR KBLI 251653Z 02020G36KT 10SM BKN065 M03/M17 A3021 RMK AO2 PK WND 01037/1559 SLP241 T10281167=
200901251553 METAR KBLI 251553Z 02019G34KT 10SM BKN065 OVC100 M02/M16 A3020 RMK AO2 PK WND 02034/1551 SLP236 T10221161=
200901251453 METAR KBLI 251453Z 02016G34KT 10SM OVC075 M02/M16 A3018 RMK AO2 PK WND 03034/1445 SLP231 T10221156 53006=
200901251353 METAR KBLI 251353Z AUTO 01017G32KT 10SM OVC085 M02/M15 A3017 RMK AO2 PK WND 03034/1258 SLP227 T10221150=
200901251253 METAR KBLI 251253Z AUTO 02017G31KT 10SM OVC085 M02/M14 A3017 RMK AO2 PK WND 02031/1250 SLP225 T10171144=
200901251153 METAR KBLI 251153Z AUTO 02017G23KT 10SM OVC070 M01/M13 A3016 RMK AO2 PK WND 01032/1107 SLP225 T10111133 10011 21017 53003=
200901251053 METAR KBLI 251053Z AUTO 02020G29KT 10SM OVC065 M01/M13 A3016 RMK AO2 PK WND 01030/1030 SLP223 T10111128=
200901250953 METAR KBLI 250953Z AUTO 02014G25KT 10SM OVC065 M01/M12 A3016 RMK AO2 PK WND 02026/0937 SLP222 T10061122=
200901250853 METAR KBLI 250853Z AUTO 02016G24KT 10SM OVC060 M01/M13 A3016 RMK AO2 SLP222 T10061128 50002=
200901250753 METAR KBLI 250753Z AUTO 01013KT 10SM FEW032 OVC050 00/M12 A3016 RMK AO2 SLP222 T00001122 400331028=
200901250653 METAR KBLI 250653Z AUTO 02012G23KT 10SM FEW032 OVC043 01/M12 A3015 RMK AO2 SLP221 T00061117=
200901250553 METAR KBLI 250553Z 02012G18KT 10SM OVC032 01/M11 A3015 RMK AO2 SLP220 T00111111 10022 20006 52007=
200901250539 SPECI KBLI 250539Z 03014G20KT 10SM OVC030 01/M11 A3015 RMK AO2=
200901250539 SPECI KBLI 250539Z 03014G20KT 10SM OVC030 01/M11 A3015 RMK AO2=
200901250529 SPECI KBLI 250529Z 03011G19KT 10SM BKN028 BKN034 OVC047 01/M10 A3015 RMK AO2=
200901250529 SPECI KBLI 250529Z 03011G19KT 10SM BKN028 BKN034 OVC047 01/M10 A3015 RMK AO2=
200901250453 METAR KBLI 250453Z 03006KT 10SM SCT025 OVC043 01/M08 A3014 RMK AO2 SLP218 T00111083=
200901250353 METAR KBLI 250353Z 03006KT 10SM SCT045 OVC060 02/M09 A3013 RMK AO2 SLP214 T00171089=
200901250253 METAR KBLI 250253Z 04010G17KT 10SM SCT060 OVC085 02/M09 A3013 RMK AO2 SLP213 T00171094 55001=
200901250153 METAR KBLI 250153Z 03011KT 10SM OVC055 02/M10 A3013 RMK AO2 SLP212 T00171100=
200901250053 METAR KBLI 250053Z 36006KT 10SM BKN060 OVC075 01/M10 A3013 RMK AO2 SLP213 T00061100=
200901242353 METAR KBLI 242353Z 02008KT 10SM FEW060 OVC070 01/M10 A3013 RMK AO2 SLP213 T00111100 10033 21017 56005=
200901242253 METAR KBLI 242253Z 01011KT 10SM OVC075 02/M10 A3013 RMK AO2 SLP214 T00171100=
200901242153 METAR KBLI 242153Z 01009KT 10SM BKN070 02/M10 A3014 RMK AO2 SLP217 T00221100=
200901242053 METAR KBLI 242053Z 01010KT 10SM CLR 02/M10 A3015 RMK AO2 SLP218 T00221100 58007=
200901241953 METAR KBLI 241953Z 36008KT 10SM CLR 03/M09 A3016 RMK AO2 SLP223 T00281094=
200901241853 METAR KBLI 241853Z 02010KT 10SM OVC070 01/M10 A3017 RMK AO2 SLP227 T00061100=
200901241753 METAR KBLI 241753Z 02016G21KT 10SM OVC075 M01/M11 A3017 RMK AO2 SLP226 T10111111 11011 21028 51006=
200901241653 METAR KBLI 241653Z 01012G18KT 10SM BKN075 M02/M11 A3016 RMK AO2 SLP223 T10171106=
200901241553 METAR KBLI 241553Z 01010KT 10SM CLR M02/M11 A3016 RMK AO2 SLP223 T10221106=
200901241453 METAR KBLI 241453Z 01008KT 10SM CLR M02/M10 A3015 RMK AO2 SLP219 T10221100 55002=
200901241353 METAR KBLI 241353Z AUTO 02008KT 10SM CLR M02/M10 A3014 RMK AO2 SLP217 T10171100=
200901241253 METAR KBLI 241253Z AUTO 01009KT 10SM CLR M02/M10 A3015 RMK AO2 SLP219 T10171100=
200901241153 METAR KBLI 241153Z AUTO 02010KT 10SM CLR M02/M10 A3016 RMK AO2 SLP221 T10171100 10000 21022 55002=
200901241053 METAR KBLI 241053Z AUTO 02011G19KT 10SM CLR M02/M09 A3015 RMK AO2 SLP219 T10171094=
200901240953 METAR KBLI 240953Z AUTO 02013KT 10SM CLR M01/M09 A3015 RMK AO2 SLP218 T10111094=
200901240853 METAR KBLI 240853Z AUTO 01012G19KT 10SM CLR M01/M09 A3016 RMK AO2 SLP223 T10111089 58001=
200901240753 METAR KBLI 240753Z AUTO 01012KT 10SM CLR M01/M09 A3017 RMK AO2 SLP225 T10061089 400671044=
200901240653 METAR KBLI 240653Z 02011G18KT 10SM CLR M01/M08 A3017 RMK AO2 SLP226 T10061083=
200901240553 METAR KBLI 240553Z 01010KT 10SM CLR 00/M08 A3016 RMK AO2 SLP225 T00001083 10056 20000 55004=
200901240453 METAR KBLI 240453Z 01008KT 10SM CLR 00/M08 A3016 RMK AO2 SLP224 T00001078=
200901240353 METAR KBLI 240353Z 01008KT 10SM CLR 01/M07 A3017 RMK AO2 SLP227 T00061072=
200901240253 METAR KBLI 240253Z 33005KT 10SM CLR 02/M04 A3018 RMK AO2 SLP229 T00171039 55004=
200901240153 METAR KBLI 240153Z 34006KT 10SM CLR 02/M06 A3017 RMK AO2 SLP228 T00221056=
200901240053 METAR KBLI 240053Z 35007KT 10SM CLR 04/M07 A3017 RMK AO2 SLP228 T00391072=
200901232353 METAR KBLI 232353Z 36007KT 10SM CLR 06/M07 A3019 RMK AO2 SLP232 T00561067 10067 21028 58014=
200901232253 METAR KBLI 232253Z 35009KT 10SM CLR 06/M06 A3021 RMK AO2 SLP239 T00611056=
200901232153 METAR KBLI 232153Z 36013G18KT 10SM CLR 06/M06 A3022 RMK AO2 SLP241 T00611056=
200901232053 METAR KBLI 232053Z 03012G17KT 10SM CLR 06/M06 A3023 RMK AO2 SLP246 T00561056 58015=
200901231953 METAR KBLI 231953Z 01003KT 10SM CLR 01/M03 A3026 RMK AO2 SLP257 T00111028=
200901231853 METAR KBLI 231853Z 00000KT 10SM SCT001 M01/M01 A3027 RMK AO2 SLP261 VIS SE 1/2 FG T10061011=
200901231849 SPECI KBLI 231849Z 00000KT 10SM SCT001 M01/M01 A3027 RMK AO2=
200901231849 SPECI KBLI 231849Z 00000KT 10SM SCT001 M01/M01 A3027 RMK AO2=
200901231842 SPECI KBLI 231842Z 00000KT 1SM BR VV001 M01/M02 A3027 RMK AO2 RVRNO=
200901231842 SPECI KBLI 231842Z 00000KT 1SM BR VV001 M01/M02 A3027 RMK AO2 RVRNO=
200901231753 METAR KBLI 231753Z 16003KT M1/4SM FZFG VV001 M03/M03 A3026 RMK AO2 SLP259 T10281033 11028 21044 53006 RVRNO=
200901231703 SPECI KBLI 231703Z 13003KT 1/4SM FZFG VV000 M03/M04 A3026 RMK AO2 RVRNO=
200901231703 SPECI KBLI 231703Z 13003KT 1/4SM FZFG VV000 M03/M04 A3026 RMK AO2 RVRNO=
200901231653 METAR KBLI 231653Z 00000KT 10SM CLR M03/M04 A3025 RMK AO2 SLP255 T10331044=
200901231612 SPECI KBLI 231612Z 00000KT 10SM FEW001 SCT008 M04/M06 A3025 RMK AO2=
200901231612 SPECI KBLI 231612Z 00000KT 10SM FEW001 SCT008 M04/M06 A3025 RMK AO2=
200901231605 SPECI KBLI 231605Z 00000KT 3/4SM BR SCT001 SCT008 M04/M06 A3025 RMK AO2 RVRNO=
200901231605 SPECI KBLI 231605Z 00000KT 3/4SM BR SCT001 SCT008 M04/M06 A3025 RMK AO2 RVRNO=
200901231601 SPECI KBLI 231601Z 00000KT 3/4SM BR SCT001 BKN008 M04/M05 A3025 RMK AO2 RVRNO=
200901231601 SPECI KBLI 231601Z 00000KT 3/4SM BR SCT001 BKN008 M04/M05 A3025 RMK AO2 RVRNO=
200901231553 METAR KBLI 231553Z 00000KT 1/4SM FZFG BKN001 OVC008 M04/M06 A3025 RMK AO2 SLP255 T10441056 RVRNO=
200901231453 METAR KBLI 231453Z 00000KT 1/4SM FZFG VV001 M04/M04 A3025 RMK AO2 SLP253 T10391044 53001 RVRNO=
200901231353 METAR KBLI 231353Z AUTO 00000KT 1/4SM FZFG VV001 M03/M03 A3024 RMK AO2 SLP252 T10281033 RVRNO=
200901231253 METAR KBLI 231253Z AUTO 00000KT 1/4SM FZFG VV001 M03/M03 A3024 RMK AO2 SLP252 T10281033 RVRNO=
200901231153 METAR KBLI 231153Z AUTO 00000KT 1/4SM FZFG VV001 M03/M03 A3024 RMK AO2 SLP252 T10281033 11017 21028 51004 RVRNO=
200901231105 SPECI KBLI 231105Z AUTO 00000KT 1/2SM FZFG OVC001 M02/M03 A3024 RMK AO2 RVRNO=
200901231105 SPECI KBLI 231105Z AUTO 00000KT 1/2SM FZFG OVC001 M02/M03 A3024 RMK AO2 RVRNO=
200901231053 METAR KBLI 231053Z AUTO 02003KT 1 3/4SM BR OVC001 M02/M03 A3024 RMK AO2 SLP251 T10221028=
200901231048 SPECI KBLI 231048Z AUTO 00000KT 1 3/4SM BR OVC001 M02/M03 A3024 RMK AO2=
200901231048 SPECI KBLI 231048Z AUTO 00000KT 1 3/4SM BR OVC001 M02/M03 A3024 RMK AO2=
200901231025 SPECI KBLI 231025Z AUTO 35004KT 2 1/2SM BR OVC001 M02/M03 A3024 RMK AO2=
200901231025 SPECI KBLI 231025Z AUTO 35004KT 2 1/2SM BR OVC001 M02/M03 A3024 RMK AO2=
200901230953 METAR KBLI 230953Z AUTO 36004KT 1 1/2SM BR OVC001 M02/M02 A3023 RMK AO2 SLP248 T10171022=
200901230900 SPECI KBLI 230900Z AUTO 36004KT 1 1/4SM BR OVC001 M02/M02 A3023 RMK AO2=
200901230900 SPECI KBLI 230900Z AUTO 36004KT 1 1/4SM BR OVC001 M02/M02 A3023 RMK AO2=
200901230853 METAR KBLI 230853Z AUTO 36005KT 3/4SM BR OVC001 M02/M02 A3023 RMK AO2 SLP246 T10171022 53009 RVRNO=
200901230828 SPECI KBLI 230828Z AUTO 35004KT 3/4SM BR BKN001 OVC007 M02/M02 A3022 RMK AO2 RVRNO=
200901230828 SPECI KBLI 230828Z AUTO 35004KT 3/4SM BR BKN001 OVC007 M02/M02 A3022 RMK AO2 RVRNO=
200901230753 METAR KBLI 230753Z AUTO 01004KT 1/2SM FZFG OVC001 M02/M03 A3022 RMK AO2 SLP244 T10171028 400391056 RVRNO=
200901230741 SPECI KBLI 230741Z AUTO 34005KT 1 1/2SM BR OVC001 M02/M03 A3022 RMK AO2=
200901230741 SPECI KBLI 230741Z AUTO 34005KT 1 1/2SM BR OVC001 M02/M03 A3022 RMK AO2=
200901230730 SPECI KBLI 230730Z AUTO 03005KT 2 1/2SM BR OVC001 M02/M03 A3022 RMK AO2=
200901230730 SPECI KBLI 230730Z AUTO 03005KT 2 1/2SM BR OVC001 M02/M03 A3022 RMK AO2=
200901230653 METAR KBLI 230653Z AUTO 36004KT 1SM BR OVC001 M02/M02 A3020 RMK AO2 SLP238 T10171022 RVRNO=
200901230648 SPECI KBLI 230648Z AUTO 01003KT 1SM BR OVC001 M02/M02 A3020 RMK AO2 RVRNO=
200901230648 SPECI KBLI 230648Z AUTO 01003KT 1SM BR OVC001 M02/M02 A3020 RMK AO2 RVRNO=
200901230641 SPECI KBLI 230641Z AUTO 03004KT 3/4SM BR OVC001 M02/M02 A3020 RMK AO2 RVRNO=
200901230641 SPECI KBLI 230641Z AUTO 03004KT 3/4SM BR OVC001 M02/M02 A3020 RMK AO2 RVRNO=
200901230553 METAR KBLI 230553Z 02004KT 1/4SM FZFG VV001 M02/M02 A3019 RMK AO2 SLP233 T10171022 10028 21017 51015 RVRNO=
200901230453 METAR KBLI 230453Z 33004KT 1/4SM FZFG VV001 M02/M02 A3017 RMK AO2 SLP229 T10171017 RVRNO=
200901230353 METAR KBLI 230353Z 34005KT 1/4SM FZFG VV001 M01/M02 A3016 RMK AO2 SLP225 T10111017 RVRNO=
200901230253 METAR KBLI 230253Z 34005KT 1/4SM FZFG VV001 M01/M01 A3014 RMK AO2 SLP219 T10061011 53014 RVRNO=
200901230210 SPECI KBLI 230210Z 36005KT 1/4SM FZFG VV001 M01/M01 A3013 RMK AO2 RVRNO=
200901230210 SPECI KBLI 230210Z 36005KT 1/4SM FZFG VV001 M01/M01 A3013 RMK AO2 RVRNO=
200901230203 SPECI KBLI 230203Z 35003KT 3/4SM BR VV001 M01/M02 A3012 RMK AO2 RVRNO=
200901230203 SPECI KBLI 230203Z 35003KT 3/4SM BR VV001 M01/M02 A3012 RMK AO2 RVRNO=
200901230156 SPECI KBLI 230156Z 35005KT 1 1/2SM BR BKN003 M01/M02 A3012 RMK AO2=
200901230156 SPECI KBLI 230156Z 35005KT 1 1/2SM BR BKN003 M01/M02 A3012 RMK AO2=
200901230150 METAR KBLI 230150Z 00000KT 3SM BR BKN003 M01/M02 A3012 RMK AO2 SLP210 T10061017=
200901230149 SPECI KBLI 230149Z 00000KT 3SM BR BKN003 M01/M02 A3012 RMK AO2=
200901230149 SPECI KBLI 230149Z 00000KT 3SM BR BKN003 M01/M02 A3012 RMK AO2=
200901230053 METAR KBLI 230053Z 00000KT 9SM CLR 00/M02 A3011 RMK AO2 SLP206 T00001022=
200901222353 METAR KBLI 222353Z 31003KT 10SM CLR 03/M01 A3010 RMK AO2 SLP204 T00281011 10039 21022 56004=
200901222253 METAR KBLI 222253Z 30003KT 10SM CLR 03/M01 A3011 RMK AO2 SLP205 T00331011=
200901222153 METAR KBLI 222153Z 36004KT 10SM CLR 03/M02 A3011 RMK AO2 SLP205 T00331017=
200901222053 METAR KBLI 222053Z 02004KT 10SM CLR 00/M02 A3012 RMK AO2 SLP208 T00001022 58001=
200901221953 METAR KBLI 221953Z 02006KT 10SM CLR M01/M03 A3013 RMK AO2 SLP212 T10061028=
200901221853 METAR KBLI 221853Z 01004KT 8SM CLR M01/M03 A3013 RMK AO2 SLP215 T10111033=
200901221753 METAR KBLI 221753Z 36003KT 6SM BR CLR M02/M04 A3012 RMK AO2 SLP209 T10221044 11022 21056 53009=
200901221653 METAR KBLI 221653Z 36004KT 5SM BR CLR M05/M07 A3011 RMK AO2 SLP207 T10501067=
200901221553 METAR KBLI 221553Z 00000KT 5SM BR FEW002 M05/M07 A3010 RMK AO2 SLP204 T10501067=
200901221539 SPECI KBLI 221539Z 01003KT 5SM BR SCT002 M06/M07 A3010 RMK AO2=
200901221539 SPECI KBLI 221539Z 01003KT 5SM BR SCT002 M06/M07 A3010 RMK AO2=
200901221529 SPECI KBLI 221529Z 36003KT 5SM BR BKN002 M06/M07 A3010 RMK AO2=
200901221529 SPECI KBLI 221529Z 36003KT 5SM BR BKN002 M06/M07 A3010 RMK AO2=
200901221521 SPECI KBLI 221521Z 34003KT 3SM BR SCT002 M06/M07 A3010 RMK AO2=
200901221521 SPECI KBLI 221521Z 34003KT 3SM BR SCT002 M06/M07 A3010 RMK AO2=
200901221453 METAR KBLI 221453Z 34004KT 7SM CLR M06/M07 A3009 RMK AO2 SLP201 T10561072 53002=
200901221425 SPECI KBLI 221425Z AUTO 00000KT 3SM BR SCT001 SCT008 M05/M07 A3008 RMK AO2=
200901221425 SPECI KBLI 221425Z AUTO 00000KT 3SM BR SCT001 SCT008 M05/M07 A3008 RMK AO2=
200901221420 SPECI KBLI 221420Z AUTO 00000KT 1 3/4SM BR BKN001 BKN008 M05/M06 A3008 RMK AO2=
200901221420 SPECI KBLI 221420Z AUTO 00000KT 1 3/4SM BR BKN001 BKN008 M05/M06 A3008 RMK AO2=
200901221411 SPECI KBLI 221411Z AUTO 00000KT 3/4SM BR BKN001 OVC008 M05/M06 A3008 RMK AO2 RVRNO=
200901221411 SPECI KBLI 221411Z AUTO 00000KT 3/4SM BR BKN001 OVC008 M05/M06 A3008 RMK AO2 RVRNO=
200901221403 SPECI KBLI 221403Z AUTO 00000KT 1SM BR OVC001 M05/M06 A3008 RMK AO2 RVRNO=
200901221403 SPECI KBLI 221403Z AUTO 00000KT 1SM BR OVC001 M05/M06 A3008 RMK AO2 RVRNO=
200901221353 METAR KBLI 221353Z AUTO 00000KT 3/4SM BR VV001 M04/M06 A3009 RMK AO2 SLP200 T10441056 RVRNO=
200901221325 SPECI KBLI 221325Z AUTO 02005KT 1/2SM FZFG VV001 M04/M06 A3009 RMK AO2 RVRNO=
200901221325 SPECI KBLI 221325Z AUTO 02005KT 1/2SM FZFG VV001 M04/M06 A3009 RMK AO2 RVRNO=
200901221313 SPECI KBLI 221313Z AUTO 01006KT 1/2SM FZFG VV002 M04/M06 A3009 RMK AO2 RVRNO=
200901221313 SPECI KBLI 221313Z AUTO 01006KT 1/2SM FZFG VV002 M04/M06 A3009 RMK AO2 RVRNO=
200901221253 METAR KBLI 221253Z AUTO 02004KT 1/4SM FZFG VV001 M04/M05 A3008 RMK AO2 SLP197 T10391050 RVRNO=
200901221237 SPECI KBLI 221237Z AUTO 00000KT 1/4SM FZFG VV001 M03/M05 A3008 RMK AO2 RVRNO=
200901221237 SPECI KBLI 221237Z AUTO 00000KT 1/4SM FZFG VV001 M03/M05 A3008 RMK AO2 RVRNO=
200901221226 SPECI KBLI 221226Z AUTO 36003KT 1/4SM FZFG VV002 M04/M05 A3009 RMK AO2 RVRNO=
200901221226 SPECI KBLI 221226Z AUTO 36003KT 1/4SM FZFG VV002 M04/M05 A3009 RMK AO2 RVRNO=
200901221153 METAR KBLI 221153Z AUTO 01004KT 1/4SM FZFG VV001 M03/M04 A3009 RMK AO2 SLP198 T10331044 11028 21039 57001 RVRNO=
200901221148 SPECI KBLI 221148Z AUTO 00000KT 1/4SM FZFG VV001 M03/M04 A3009 RMK AO2 RVRNO=
200901221148 SPECI KBLI 221148Z AUTO 00000KT 1/4SM FZFG VV001 M03/M04 A3009 RMK AO2 RVRNO=
200901221117 SPECI KBLI 221117Z AUTO 00000KT 1/4SM FZFG VV002 M04/M05 A3009 RMK AO2 RVRNO=
200901221117 SPECI KBLI 221117Z AUTO 00000KT 1/4SM FZFG VV002 M04/M05 A3009 RMK AO2 RVRNO=
200901221053 METAR KBLI 221053Z AUTO 00000KT 1/4SM FZFG VV001 M03/M04 A3009 RMK AO2 SLP199 T10331044 RVRNO=
200901220953 METAR KBLI 220953Z AUTO 00000KT 1/4SM FZFG VV001 M03/M04 A3009 RMK AO2 SLP199 T10281039 RVRNO=
200901220853 METAR KBLI 220853Z AUTO 00000KT 1/4SM FZFG VV001 M03/M04 A3009 RMK AO2 SLP198 T10281039 52002 RVRNO=
200901220753 METAR KBLI 220753Z AUTO 32003KT 1/4SM FZFG VV001 M03/M03 A3008 RMK AO2 SLP195 T10281033 400441061 RVRNO=
200901220653 METAR KBLI 220653Z AUTO 36004KT 1/4SM FZFG VV001 M03/M03 A3009 RMK AO2 SLP198 T10281033 RVRNO=
200901220553 METAR KBLI 220553Z 00000KT 1/4SM FZFG VV001 M03/M04 A3008 RMK AO2 SLP195 T10281039 10022 21033 53007 RVRNO=
200901220453 METAR KBLI 220453Z 00000KT 1/4SM FZFG VV001 M03/M03 A3007 RMK AO2 SLP194 T10281033 RVRNO=
200901220410 SPECI KBLI 220410Z 00000KT 1/4SM FZFG OVC001 M03/M03 A3006 RMK AO2 RVRNO=
200901220410 SPECI KBLI 220410Z 00000KT 1/4SM FZFG OVC001 M03/M03 A3006 RMK AO2 RVRNO=
200901220353 METAR KBLI 220353Z 00000KT 4SM BR SCT001 M02/M03 A3006 RMK AO2 SLP190 VIS NW-N 1/2 DRFG T10221028=
200901220349 SPECI KBLI 220349Z 00000KT 4SM BR SCT001 M02/M03 A3006 RMK AO2 VIS NW-N 1/2 DRFG=
200901220349 SPECI KBLI 220349Z 00000KT 4SM BR SCT001 M02/M03 A3006 RMK AO2 VIS=
200901220334 SPECI KBLI 220334Z 01003KT 3/4SM BR VV001 M02/M03 A3006 RMK AO2 RVRNO=
200901220334 SPECI KBLI 220334Z 01003KT 3/4SM BR VV001 M02/M03 A3006 RMK AO2 RVRNO=
200901220311 SPECI KBLI 220311Z 00000KT 10SM SCT001 M02/M03 A3007 RMK AO2=
200901220311 SPECI KBLI 220311Z 00000KT 10SM SCT001 M02/M03 A3007 RMK AO2=
200901220253 METAR KBLI 220253Z 00000KT 10SM CLR M02/M03 A3007 RMK AO2 SLP194 T10171033 56006=
200901220153 METAR KBLI 220153Z 00000KT 10SM CLR M01/M02 A3007 RMK AO2 SLP195 T10111022=
200901220053 METAR KBLI 220053Z 34004KT 8SM CLR 00/M02 A3008 RMK AO2 SLP197 T00001017=
200901212353 METAR KBLI 212353Z 34003KT 10SM CLR 02/M01 A3009 RMK AO2 SLP200 T00221006 10044 21011 56014=
200901212253 METAR KBLI 212253Z 33003KT 10SM CLR 03/00 A3009 RMK AO2 SLP200 T00330000=
200901212153 METAR KBLI 212153Z 01003KT 10SM CLR 04/M02 A3011 RMK AO2 SLP205 T00391017=
200901212053 METAR KBLI 212053Z 00000KT 10SM CLR 03/M02 A3013 RMK AO2 SLP214 T00331022 58015=
200901211953 METAR KBLI 211953Z 02004KT 10SM CLR 02/M02 A3015 RMK AO2 SLP220 T00171017=
200901211853 METAR KBLI 211853Z 01004KT 10SM CLR 00/M02 A3016 RMK AO2 SLP225 T00001022=
200901211753 METAR KBLI 211753Z 00000KT 10SM CLR M02/M03 A3018 RMK AO2 SLP229 T10171028 11017 21061 58002=
200901211653 METAR KBLI 211653Z 00000KT 10SM CLR M04/M04 A3018 RMK AO2 SLP230 T10391044=
200901211553 METAR KBLI 211553Z 00000KT 8SM CLR M06/M07 A3019 RMK AO2 SLP233 T10561067=
200901211453 METAR KBLI 211453Z 00000KT 9SM CLR M05/M07 A3018 RMK AO2 SLP232 T10501067 55005=
200901211353 METAR KBLI 211353Z AUTO 00000KT 8SM CLR M05/M07 A3018 RMK AO2 SLP229 T10501067=
200901211253 METAR KBLI 211253Z AUTO 00000KT 8SM CLR M05/M06 A3018 RMK AO2 SLP230 T10501061=
200901211153 METAR KBLI 211153Z AUTO 00000KT 8SM CLR M05/M07 A3020 RMK AO2 SLP236 T10501067 11028 21056 58010=
200901211053 METAR KBLI 211053Z AUTO 34003KT 9SM CLR M04/M05 A3021 RMK AO2 SLP241 T10391050=
200901210953 METAR KBLI 210953Z AUTO 00000KT 8SM CLR M04/M06 A3023 RMK AO2 SLP247 T10441061=
200901210853 METAR KBLI 210853Z AUTO 00000KT 5SM BR CLR M03/M05 A3023 RMK AO2 SLP245 T10331050 56003=
200901210849 SPECI KBLI 210849Z AUTO 00000KT 2SM BR CLR M04/M04 A3023 RMK AO2=
200901210849 SPECI KBLI 210849Z AUTO 00000KT 2SM BR CLR M04/M04 A3023 RMK AO2=
200901210753 METAR KBLI 210753Z 00000KT 8SM CLR M03/M04 A3022 RMK AO2 SLP245 T10331044 400781044=
200901210703 SPECI KBLI 210703Z 00000KT 4SM BR CLR M03/M04 A3024 RMK AO2=
200901210703 SPECI KBLI 210703Z 00000KT 4SM BR CLR M03/M04 A3024 RMK AO2=
200901210653 METAR KBLI 210653Z 00000KT 1SM BR CLR M03/M04 A3023 RMK AO2 SLP249 T10331044 RVRNO=
200901210651 SPECI KBLI 210651Z 00000KT 1 1/2SM BR CLR M03/M04 A3023 RMK AO2=
200901210651 SPECI KBLI 210651Z 00000KT 1 1/2SM BR CLR M03/M04 A3023 RMK AO2=
200901210553 METAR KBLI 210553Z 00000KT 3SM BR CLR M03/M04 A3023 RMK AO2 SLP246 T10281039 10061 21033 55000=
200901210541 SPECI KBLI 210541Z 00000KT 3SM BR CLR M03/M04 A3023 RMK AO2=
200901210541 SPECI KBLI 210541Z 00000KT 3SM BR CLR M03/M04 A3023 RMK AO2=
200901210534 SPECI KBLI 210534Z 00000KT 1SM BR CLR M03/M04 A3023 RMK AO2 RVRNO=
200901210534 SPECI KBLI 210534Z 00000KT 1SM BR CLR M03/M04 A3023 RMK AO2 RVRNO=
200901210500 SPECI KBLI 210500Z 00000KT 1/4SM FZFG FEW008 SCT028 M03/M04 A3023 RMK AO2 RVRNO=
200901210500 SPECI KBLI 210500Z 00000KT 1/4SM FZFG FEW008 SCT028 M03/M04 A3023 RMK AO2 RVRNO=
200901210453 METAR KBLI 210453Z 00000KT 1/2SM FZFG VV008 M03/M04 A3023 RMK AO2 SLP247 T10331039 RVRNO=
200901210444 SPECI KBLI 210444Z 00000KT 1/2SM FZFG SCT008 SCT022 M03/M04 A3023 RMK AO2 RVRNO=
200901210444 SPECI KBLI 210444Z 00000KT 1/2SM FZFG SCT008 SCT022 M03/M04 A3023 RMK AO2 RVRNO=
200901210353 METAR KBLI 210353Z 00000KT 1/4SM FZFG FEW001 OVC007 M02/M02 A3023 RMK AO2 SLP246 T10171022 RVRNO=
200901210331 SPECI KBLI 210331Z 00000KT 1/4SM FZFG BKN009 M02/M03 A3023 RMK AO2 RVRNO=
200901210331 SPECI KBLI 210331Z 00000KT 1/4SM FZFG BKN009 M02/M03 A3023 RMK AO2 RVRNO=
200901210322 SPECI KBLI 210322Z 00000KT 1/4SM FZFG SCT009 BKN029 M02/M03 A3023 RMK AO2 RVRNO=
200901210322 SPECI KBLI 210322Z 00000KT 1/4SM FZFG SCT009 BKN029 M02/M03 A3023 RMK AO2 RVRNO=
200901210315 SPECI KBLI 210315Z 00000KT 3SM BR FEW009 SCT023 M02/M02 A3023 RMK AO2=
200901210315 SPECI KBLI 210315Z 00000KT 3SM BR FEW009 SCT023 M02/M02 A3023 RMK AO2=
200901210305 SPECI KBLI 210305Z 00000KT 1 3/4SM BR FEW090 M01/M02 A3023 RMK AO2=
200901210305 SPECI KBLI 210305Z 00000KT 1 3/4SM BR FEW090 M01/M02 A3023 RMK AO2=
200901210253 METAR KBLI 210253Z 29003KT 3SM BR CLR M01/M01 A3023 RMK AO2 SLP246 T10061011 55003=
200901210153 METAR KBLI 210153Z 00000KT 7SM CLR 00/M02 A3023 RMK AO2 SLP246 T00001017=
200901210053 METAR KBLI 210053Z 00000KT 10SM CLR 03/01 A3023 RMK AO2 SLP246 T00280006=
200901202353 METAR KBLI 202353Z 33003KT 10SM CLR 06/01 A3024 RMK AO2 SLP249 T00610006 10078 20006 56017=
200901202253 METAR KBLI 202253Z 34004KT 10SM CLR 07/00 A3024 RMK AO2 SLP250 T00720000=
200901202153 METAR KBLI 202153Z 01005KT 10SM CLR 07/M01 A3026 RMK AO2 SLP256 T00721011=
200901202053 METAR KBLI 202053Z 10SM 06/M01 A3029 RMK AO2 SLP265 T00611011 58009 $=
200901201953 METAR KBLI 201953Z 35004KT 10SM 05/M01 A3031 RMK AO2 SLP273 T00501006 $=
200901201853 METAR KBLI 201853Z 04003KT 10SM CLR 03/M01 A3032 RMK AO2 SLP277 T00281011=
200901201753 METAR KBLI 201753Z 00000KT 10SM CLR 01/M01 A3031 RMK AO2 SLP275 T00061011 10006 21044 51007=
200901201653 METAR KBLI 201653Z 00000KT 10SM CLR M02/M03 A3031 RMK AO2 SLP273 T10221033=
200901201553 METAR KBLI 201553Z 00000KT 10SM CLR M03/M04 A3031 RMK AO2 SLP274 T10331044=
200901201453 METAR KBLI 201453Z 00000KT 9SM CLR M04/M05 A3029 RMK AO2 SLP268 T10391050 56008=
200901201353 METAR KBLI 201353Z AUTO 00000KT 10SM CLR M03/M04 A3030 RMK AO2 SLP270 T10281039 TSNO=
200901201253 METAR KBLI 201253Z AUTO 35003KT 10SM CLR M03/M04 A3029 RMK AO2 SLP268 T10281039 TSNO=
200901201153 METAR KBLI 201153Z AUTO 00000KT 7SM CLR M04/M05 A3031 RMK AO2 SLP276 T10391050 11022 21039 58004 TSNO=
200901201053 METAR KBLI 201053Z AUTO 00000KT 8SM CLR M04/M05 A3032 RMK AO2 SLP278 T10391050 TSNO=
200901200953 METAR KBLI 200953Z AUTO 00000KT 6SM BR CLR M02/M04 A3032 RMK AO2 SLP276 T10221039 TSNO=
200901200853 METAR KBLI 200853Z AUTO 00000KT 7SM CLR M03/M04 A3033 RMK AO2 SLP279 T10281039 52001 TSNO=
200901200753 METAR KBLI 200753Z AUTO 00000KT 3SM BR CLR M03/M04 A3032 RMK AO2 SLP278 T10281039 401001033 TSNO=
200901200748 SPECI KBLI 200748Z AUTO 00000KT 2 1/2SM BR FEW007 M02/M03 A3033 RMK AO2 VIS 1V4 401001033 TSNO=
200901200748 SPECI KBLI 200748Z AUTO 00000KT 2 1/2SM BR FEW007 M02/M03 A3033 RMK AO2 VIS 1V4 401001033 TSNO=
200901200730 SPECI KBLI 200730Z AUTO 00000KT 1 1/4SM BR FEW007 M02/M04 A3033 RMK AO2 TSNO=
200901200730 SPECI KBLI 200730Z AUTO 00000KT 1 1/4SM BR FEW007 M02/M04 A3033 RMK AO2 TSNO=
200901200725 SPECI KBLI 200725Z AUTO 00000KT 3/4SM BR VV007 M03/M04 A3033 RMK AO2 VIS 1/4V1 3/4 TSNO RVRNO=
200901200725 SPECI KBLI 200725Z AUTO 00000KT 3/4SM BR VV007 M03/M04 A3033 RMK AO2 VIS 1/4V1 3/4 TSNO RVRNO=
200901200701 SPECI KBLI 200701Z AUTO 00000KT 1 1/4SM BR CLR M03/M04 A3033 RMK AO2 VIS 3/4V2 1/2 TSNO=
200901200701 SPECI KBLI 200701Z AUTO 00000KT 1 1/4SM BR CLR M03/M04 A3033 RMK AO2 VIS 3/4V2 1/2 TSNO=
200901200653 METAR KBLI 200653Z AUTO 00000KT 2 1/2SM BR CLR M03/M04 A3032 RMK AO2 VIS 3/4V5 SLP279 T10281039 TSNO=
200901200555 SPECI KBLI 200555Z 00000KT 3SM BR FEW007 M03/M03 A3032 RMK AO2=
200901200555 SPECI KBLI 200555Z 00000KT 3SM BR FEW007 M03/M03 A3032 RMK AO2=
200901200553 METAR KBLI 200553Z 00000KT 3SM BR BKN007 M02/M03 A3032 RMK AO2 SLP279 T10221028 10044 21028 53004=
200901200549 SPECI KBLI 200549Z 00000KT 3/4SM BR VV007 M02/M03 A3032 RMK AO2 RVRNO=
200901200549 SPECI KBLI 200549Z 00000KT 3/4SM BR VV007 M02/M03 A3032 RMK AO2 RVRNO=
200901200534 SPECI KBLI 200534Z 00000KT 1 3/4SM BR CLR M03/M04 A3032 RMK AO2=
200901200534 SPECI KBLI 200534Z 00000KT 1 3/4SM BR CLR M03/M04 A3032 RMK AO2=
200901200453 METAR KBLI 200453Z 30003KT 5SM BR CLR M02/M03 A3032 RMK AO2 SLP276 T10171028=
200901200357 SPECI KBLI 200357Z 00000KT 5SM BR FEW007 M02/M03 A3031 RMK AO2=
200901200357 SPECI KBLI 200357Z 00000KT 5SM BR FEW007 M02/M03 A3031 RMK AO2=
200901200353 METAR KBLI 200353Z 00000KT 1 1/2SM BR CLR M01/M02 A3031 RMK AO2 SLP274 T10111017=
200901200323 SPECI KBLI 200323Z 31004KT 5SM BR FEW007 M01/M02 A3031 RMK AO2=
200901200323 SPECI KBLI 200323Z 31004KT 5SM BR FEW007 M01/M02 A3031 RMK AO2=
200901200317 SPECI KBLI 200317Z 30005KT 3SM BR SCT007 M01/M01 A3031 RMK AO2=
200901200317 SPECI KBLI 200317Z 30005KT 3SM BR SCT007 M01/M01 A3031 RMK AO2=
200901200314 SPECI KBLI 200314Z 30004KT 1 1/4SM BR SCT007 M01/M01 A3031 RMK AO2=
200901200314 SPECI KBLI 200314Z 30004KT 1 1/4SM BR SCT007 M01/M01 A3031 RMK AO2=
200901200309 SPECI KBLI 200309Z 29003KT 3/4SM BR VV007 M02/M02 A3031 RMK AO2 RVRNO=
200901200309 SPECI KBLI 200309Z 29003KT 3/4SM BR VV007 M02/M02 A3031 RMK AO2 RVRNO=
200901200253 METAR KBLI 200253Z 00000KT 1/2SM FG FEW001 BKN007 00/M01 A3031 RMK AO2 SLP275 T00001011 57012 RVRNO=
200901200235 SPECI KBLI 200235Z 00000KT 2SM BR SCT007 M01/M01 A3032 RMK AO2=
200901200235 SPECI KBLI 200235Z 00000KT 2SM BR SCT007 M01/M01 A3032 RMK AO2=
200901200218 SPECI KBLI 200218Z 36003KT 6SM BR SCT007 M01/M01 A3031 RMK AO2=
200901200218 SPECI KBLI 200218Z 36003KT 6SM BR SCT007 M01/M01 A3031 RMK AO2=
200901200153 METAR KBLI 200153Z 00000KT 6SM BR CLR 00/M01 A3032 RMK AO2 SLP279 T00001006=
200901200053 METAR KBLI 200053Z 00000KT 7SM CLR 02/00 A3034 RMK AO2 SLP284 T00170000=
200901192353 METAR KBLI 192353Z 28004KT 10SM CLR 04/02 A3035 RMK AO2 SLP287 T00440022 10100 20028 56008=
200901192253 METAR KBLI 192253Z 30004KT 10SM CLR 07/02 A3036 RMK AO2 SLP289 T00720022=
200901192153 METAR KBLI 192153Z AUTO 33005KT 10SM CLR 09/01 A3036 RMK AO2 SLP288 T00940006=
200901192053 METAR KBLI 192053Z AUTO 29003KT 10SM CLR 08/01 A3037 RMK AO2 SLP295 T00830006 58020=
200901191953 METAR KBLI 191953Z AUTO 35004KT 10SM CLR 08/01 A3039 RMK AO2 SLP301 T00780006=
200901191853 METAR KBLI 191853Z AUTO 36003KT 10SM CLR 05/M01 A3042 RMK AO2 SLP310 T00501006=
200901191753 METAR KBLI 191753Z AUTO 35004KT 10SM CLR 03/M01 A3043 RMK AO2 SLP316 T00281006 10028 21033 50001=
200901191653 METAR KBLI 191653Z AUTO 00000KT 10SM CLR M01/M02 A3044 RMK AO2 SLP317 T10061022=
200901191553 METAR KBLI 191553Z AUTO 35004KT 10SM CLR 01/M03 A3043 RMK AO2 SLP314 T00061028=
200901191453 METAR KBLI 191453Z AUTO 36004KT 10SM CLR M01/M03 A3043 RMK AO2 SLP315 T10061033 56003=
200901191353 METAR KBLI 191353Z AUTO 00000KT 10SM CLR M03/M04 A3043 RMK AO2 SLP316 T10281044=
200901191253 METAR KBLI 191253Z AUTO 00000KT 10SM CLR M02/M04 A3043 RMK AO2 SLP316 T10221039=
200901191153 METAR KBLI 191153Z AUTO 34004KT 10SM CLR M01/M02 A3044 RMK AO2 SLP317 T10061022 10000 21033 50000=
200901191123 SPECI KBLI 191123Z AUTO 00000KT 5SM BR CLR M02/M03 A3044 RMK AO2=
200901191123 SPECI KBLI 191123Z AUTO 00000KT 5SM BR CLR M02/M03 A3044 RMK AO2=
200901191104 SPECI KBLI 191104Z AUTO 00000KT 1 3/4SM BR CLR M03/M04 A3044 RMK AO2 VIS 3/4V5=
200901191104 SPECI KBLI 191104Z AUTO 00000KT 1 3/4SM BR CLR M03/M04 A3044 RMK AO2 VIS 3/4V5=
200901191053 METAR KBLI 191053Z AUTO 00000KT 4SM BR CLR M02/M04 A3044 RMK AO2 SLP318 T10221039=
200901190953 METAR KBLI 190953Z AUTO 00000KT 7SM CLR M02/M03 A3044 RMK AO2 SLP316 T10171028=
200901190853 METAR KBLI 190853Z AUTO 00000KT 9SM CLR M02/M02 A3044 RMK AO2 SLP317 T10171022 58000=
200901190753 METAR KBLI 190753Z AUTO 34003KT 8SM CLR M02/M04 A3044 RMK AO2 SLP318 T10221039 401001033=
200901190653 METAR KBLI 190653Z AUTO 01003KT 8SM CLR M02/M03 A3044 RMK AO2 SLP319 T10171028=
200901190553 METAR KBLI 190553Z 00000KT 5SM BR CLR M02/M03 A3044 RMK AO2 SLP318 T10221028 10072 21022 53006=
200901190453 METAR KBLI 190453Z 31003KT 7SM CLR 01/M01 A3043 RMK AO2 SLP316 T00061006=
200901190353 METAR KBLI 190353Z 34003KT 7SM CLR 02/01 A3043 RMK AO2 SLP314 T00220011=
200901190253 METAR KBLI 190253Z 36003KT 5SM BR CLR 00/M01 A3042 RMK AO2 SLP312 T00001006 53000=
200901190153 METAR KBLI 190153Z 00000KT 9SM CLR 02/01 A3042 RMK AO2 SLP313 T00220011=
200901190053 METAR KBLI 190053Z 00000KT 10SM CLR 04/02 A3041 RMK AO2 SLP310 T00390022=
200901182353 METAR KBLI 182353Z 00000KT 10SM CLR 07/03 A3042 RMK AO2 SLP311 T00720028 10100 20006 55001=
200901182253 METAR KBLI 182253Z 28004KT 10SM CLR 09/03 A3042 RMK AO2 SLP309 T00940033=
200901182153 METAR KBLI 182153Z 33004KT 10SM CLR 10/02 A3042 RMK AO2 SLP309 T01000022=
200901182053 METAR KBLI 182053Z 31004KT 10SM CLR 09/02 A3043 RMK AO2 SLP312 T00890017 58011=
200901181953 METAR KBLI 181953Z 35004KT 10SM CLR 07/02 A3044 RMK AO2 SLP316 T00720022=
200901181853 METAR KBLI 181853Z 00000KT 10SM CLR 03/01 A3046 RMK AO2 SLP324 T00280006=
200901181753 METAR KBLI 181753Z 00000KT 10SM CLR 01/01 A3046 RMK AO2 SLP325 T00060006 10006 21033 51013=
200901181653 METAR KBLI 181653Z 00000KT 9SM CLR M02/M02 A3045 RMK AO2 SLP321 T10221022=
200901181553 METAR KBLI 181553Z 00000KT 10SM CLR M02/M03 A3043 RMK AO2 SLP316 T10171033=
200901181453 METAR KBLI 181453Z 00000KT 10SM CLR M03/M04 A3042 RMK AO2 SLP312 T10281039 55004=
200901181353 METAR KBLI 181353Z AUTO 31003KT 9SM CLR M02/M03 A3042 RMK AO2 SLP311 T10221033=
200901181253 METAR KBLI 181253Z AUTO 00000KT 7SM CLR M03/M04 A3043 RMK AO2 SLP314 T10281039=
200901181153 METAR KBLI 181153Z AUTO 35003KT 6SM BR CLR M03/M04 A3043 RMK AO2 SLP315 T10281039 11006 21028 58006=
200901181132 SPECI KBLI 181132Z AUTO 33004KT 3SM BR CLR M03/M03 A3043 RMK AO2=
200901181132 SPECI KBLI 181132Z AUTO 33004KT 3SM BR CLR M03/M03 A3043 RMK AO2=
200901181123 SPECI KBLI 181123Z AUTO 35003KT 1 3/4SM BR FEW007 M03/M03 A3044 RMK AO2=
200901181123 SPECI KBLI 181123Z AUTO 35003KT 1 3/4SM BR FEW007 M03/M03 A3044 RMK AO2=
200901181112 SPECI KBLI 181112Z AUTO 00000KT 3SM BR SCT007 M02/M03 A3044 RMK AO2=
200901181112 SPECI KBLI 181112Z AUTO 00000KT 3SM BR SCT007 M02/M03 A3044 RMK AO2=
200901181107 SPECI KBLI 181107Z AUTO 00000KT 1 1/4SM BR SCT007 M02/M03 A3044 RMK AO2=
200901181107 SPECI KBLI 181107Z AUTO 00000KT 1 1/4SM BR SCT007 M02/M03 A3044 RMK AO2=
200901181101 SPECI KBLI 181101Z AUTO 00000KT 3/4SM BR BKN007 M02/M03 A3044 RMK AO2 RVRNO=
200901181101 SPECI KBLI 181101Z AUTO 00000KT 3/4SM BR BKN007 M02/M03 A3044 RMK AO2 RVRNO=
200901181053 METAR KBLI 181053Z AUTO 00000KT 1/2SM FZFG BKN007 M02/M03 A3045 RMK AO2 SLP320 T10221033 RVRNO=
200901180953 METAR KBLI 180953Z AUTO 00000KT 1/2SM FZFG SCT001 OVC007 M02/M03 A3045 RMK AO2 SLP321 T10221028 RVRNO=
200901180944 SPECI KBLI 180944Z AUTO 00000KT 3/4SM BR FEW001 BKN007 M02/M03 A3045 RMK AO2 RVRNO=
200901180944 SPECI KBLI 180944Z AUTO 00000KT 3/4SM BR FEW001 BKN007 M02/M03 A3045 RMK AO2 RVRNO=
200901180936 SPECI KBLI 180936Z AUTO 00000KT 2 1/2SM BR SCT001 BKN007 M02/M03 A3044 RMK AO2 VIS 1 1/4V4=
200901180936 SPECI KBLI 180936Z AUTO 00000KT 2 1/2SM BR SCT001 BKN007 M02/M03 A3044 RMK AO2 VIS 1 1/4V4=
200901180909 SPECI KBLI 180909Z AUTO 00000KT 3SM BR FEW001 SCT007 M02/M03 A3045 RMK AO2=
200901180909 SPECI KBLI 180909Z AUTO 00000KT 3SM BR FEW001 SCT007 M02/M03 A3045 RMK AO2=
200901180902 SPECI KBLI 180902Z AUTO 00000KT 1 1/4SM BR SCT007 M02/M03 A3045 RMK AO2=
200901180902 SPECI KBLI 180902Z AUTO 00000KT 1 1/4SM BR SCT007 M02/M03 A3045 RMK AO2=
200901180853 METAR KBLI 180853Z AUTO 31003KT 3/4SM BR FEW001 BKN007 M02/M03 A3044 RMK AO2 SLP319 T10221028 56004 RVRNO=
200901180818 SPECI KBLI 180818Z AUTO 31003KT 1/2SM FZFG SCT001 OVC007 M02/M03 A3044 RMK AO2 RVRNO=
200901180818 SPECI KBLI 180818Z AUTO 31003KT 1/2SM FZFG SCT001 OVC007 M02/M03 A3044 RMK AO2 RVRNO=
200901180753 METAR KBLI 180753Z AUTO 00000KT 1/4SM FZFG BKN001 OVC007 M02/M02 A3044 RMK AO2 SLP320 T10171022 400671022 RVRNO=
200901180740 SPECI KBLI 180740Z AUTO 00000KT 1/4SM FZFG BKN001 OVC007 M02/M02 A3045 RMK AO2 RVRNO=
200901180740 SPECI KBLI 180740Z AUTO 00000KT 1/4SM FZFG BKN001 OVC007 M02/M02 A3045 RMK AO2 RVRNO=
200901180714 SPECI KBLI 180714Z AUTO 00000KT 1/2SM FZFG SCT001 OVC007 M02/M02 A3045 RMK AO2 RVRNO=
200901180714 SPECI KBLI 180714Z AUTO 00000KT 1/2SM FZFG SCT001 OVC007 M02/M02 A3045 RMK AO2 RVRNO=
200901180653 METAR KBLI 180653Z AUTO 00000KT 1/4SM FZFG VV001 M02/M02 A3045 RMK AO2 SLP322 T10171022 RVRNO=
200901180553 METAR KBLI 180553Z 00000KT 1/4SM FZFG VV001 M01/M02 A3046 RMK AO2 SLP324 T10111017 10044 21011 53004 RVRNO=
200901180453 METAR KBLI 180453Z 00000KT 1/4SM FG VV001 01/00 A3044 RMK AO2 SLP319 T00060000 RVRNO=
200901180353 METAR KBLI 180353Z 00000KT 1/8SM FG VV001 01/00 A3044 RMK AO2 SLP319 T00060000 RVRNO=
200901180253 METAR KBLI 180253Z 00000KT 1/4SM FG VV001 01/01 A3045 RMK AO2 SLP320 T00060006 50000 RVRNO=
200901180153 METAR KBLI 180153Z 28003KT 1/4SM FG VV001 01/01 A3044 RMK AO2 SLP320 T00110006 RVRNO=
200901180111 SPECI KBLI 180111Z 28004KT 1/4SM FG VV001 02/01 A3044 RMK AO2 RVRNO=
200901180111 SPECI KBLI 180111Z 28004KT 1/4SM FG VV001 02/01 A3044 RMK AO2 RVRNO=
200901180106 SPECI KBLI 180106Z 28003KT 3/4SM BR SCT001 SCT007 02/01 A3044 RMK AO2 RVRNO=
200901180106 SPECI KBLI 180106Z 28003KT 3/4SM BR SCT001 SCT007 02/01 A3044 RMK AO2 RVRNO=
200901180053 METAR KBLI 180053Z 27004KT 5SM BR FEW001 02/01 A3045 RMK AO2 SLP320 T00220011=
200901172353 METAR KBLI 172353Z 00000KT 10SM CLR 04/02 A3045 RMK AO2 SLP319 T00440022 10067 21011 56009=
200901172253 METAR KBLI 172253Z 33004KT 10SM CLR 06/02 A3045 RMK AO2 SLP320 T00610017=
200901172153 METAR KBLI 172153Z 32003KT 10SM CLR 06/02 A3045 RMK AO2 SLP320 T00560017=
200901172053 METAR KBLI 172053Z 35003KT 10SM CLR 03/01 A3047 RMK AO2 SLP329 T00280011 58006=
200901172007 SPECI KBLI 172007Z 00000KT 9SM SCT001 01/01 A3048 RMK AO2=
200901172007 SPECI KBLI 172007Z 00000KT 9SM SCT001 01/01 A3048 RMK AO2=
200901172000 SPECI KBLI 172000Z 32003KT 8SM BKN001 01/00 A3049 RMK AO2=
200901172000 SPECI KBLI 172000Z 32003KT 8SM BKN001 01/00 A3049 RMK AO2=
200901171953 METAR KBLI 171953Z 00000KT 1SM BR BKN001 00/M01 A3049 RMK AO2 SLP334 T00001006 RVRNO=
200901171928 SPECI KBLI 171928Z 00000KT 3/4SM BR OVC001 00/M01 A3049 RMK AO2 RVRNO=
200901171928 SPECI KBLI 171928Z 00000KT 3/4SM BR OVC001 00/M01 A3049 RMK AO2 RVRNO=
200901171853 METAR KBLI 171853Z 00000KT 1/4SM FZFG VV001 M01/M01 A3049 RMK AO2 SLP336 T10061011 RVRNO=
200901171851 SPECI KBLI 171851Z 00000KT 1SM BR OVC001 M01/M01 A3049 RMK AO2 RVRNO=
200901171851 SPECI KBLI 171851Z 00000KT 1SM BR OVC001 M01/M01 A3049 RMK AO2 RVRNO=
200901171838 SPECI KBLI 171838Z 31004KT 1/4SM FZFG OVC001 M01/M02 A3050 RMK AO2 RVRNO=
200901171838 SPECI KBLI 171838Z 31004KT 1/4SM FZFG OVC001 M01/M02 A3050 RMK AO2 RVRNO=
200901171753 METAR KBLI 171753Z 00000KT 1SM BR BKN001 M01/M02 A3049 RMK AO2 SLP335 T10111017 11011 21022 51004 RVRNO=
200901171749 SPECI KBLI 171749Z 00000KT 1/2SM FZFG VV001 M01/M02 A3049 RMK AO2 RVRNO=
200901171749 SPECI KBLI 171749Z 00000KT 1/2SM FZFG VV001 M01/M02 A3049 RMK AO2 RVRNO=
200901171741 SPECI KBLI 171741Z 00000KT 1SM BR VV001 M02/M02 A3049 RMK AO2 RVRNO=
200901171741 SPECI KBLI 171741Z 00000KT 1SM BR VV001 M02/M02 A3049 RMK AO2 RVRNO=
200901171653 METAR KBLI 171653Z 00000KT 1/4SM FZFG VV001 M02/M03 A3048 RMK AO2 SLP333 T10221028 RVRNO=
200901171553 METAR KBLI 171553Z 00000KT 1/4SM FZFG VV001 M02/M03 A3048 RMK AO2 SLP331 T10221028 RVRNO=
200901171453 METAR KBLI 171453Z 00000KT 1/4SM FZFG VV001 M02/M02 A3048 RMK AO2 SLP331 T10171022 56004 RVRNO=
200901171353 METAR KBLI 171353Z AUTO 33003KT 1/4SM FZFG VV001 M02/M02 A3048 RMK AO2 SLP333 T10171022 RVRNO=
200901171253 METAR KBLI 171253Z AUTO 36003KT 1/4SM FZFG VV001 M02/M03 A3048 RMK AO2 SLP330 T10171028 RVRNO=
200901171153 METAR KBLI 171153Z AUTO 33003KT 1/4SM FZFG VV001 M02/M02 A3049 RMK AO2 SLP336 T10171022 10006 21017 51003 RVRNO=
200901171053 METAR KBLI 171053Z AUTO 35003KT 1/4SM FZFG VV001 M01/M02 A3049 RMK AO2 SLP335 T10111017 RVRNO=
200901170953 METAR KBLI 170953Z AUTO 00000KT 1/4SM FZFG VV001 M01/M02 A3048 RMK AO2 SLP333 T10111017 RVRNO=
200901170853 METAR KBLI 170853Z AUTO 03003KT 1/4SM FZFG VV001 M01/M01 A3048 RMK AO2 SLP332 T10111011 50002 RVRNO=
200901170753 METAR KBLI 170753Z AUTO 00000KT 1/4SM FZFG VV001 M01/M01 A3049 RMK AO2 SLP336 T10061011 400441022 RVRNO=
200901170653 METAR KBLI 170653Z AUTO 00000KT 1/4SM FG VV001 00/M01 A3049 RMK AO2 SLP334 T00001006 RVRNO=
200901170553 METAR KBLI 170553Z 02003KT 1/4SM FG VV001 01/00 A3048 RMK AO2 SLP330 T00060000 10039 20006 53010 RVRNO=
200901170453 METAR KBLI 170453Z AUTO 00000KT 1/4SM FG VV001 01/01 A3046 RMK AO2 SLP327 T00110006 TSNO RVRNO=
200901170353 METAR KBLI 170353Z 00000KT 1/4SM FG VV001 01/01 A3045 RMK AO2 SLP323 T00110006 RVRNO=
200901170253 METAR KBLI 170253Z 00000KT 1/4SM FG VV001 01/01 A3045 RMK AO2 SLP320 T00110006 53004 RVRNO=
200901170153 METAR KBLI 170153Z 00000KT 1/2SM FG VV001 02/01 A3044 RMK AO2 SLP318 T00170011 RVRNO=
200901170144 SPECI KBLI 170144Z 00000KT 1/2SM FG OVC002 02/01 A3044 RMK AO2 RVRNO=
200901170144 SPECI KBLI 170144Z 00000KT 1/2SM FG OVC002 02/01 A3044 RMK AO2 RVRNO=
200901170137 SPECI KBLI 170137Z 00000KT 1 3/4SM BR OVC002 02/01 A3044 RMK AO2=
200901170137 SPECI KBLI 170137Z 00000KT 1 3/4SM BR OVC002 02/01 A3044 RMK AO2=
200901170053 METAR KBLI 170053Z 00000KT 5SM BR OVC004 02/01 A3044 RMK AO2 SLP317 T00170011=
200901170051 SPECI KBLI 170051Z 00000KT 5SM BR OVC004 02/01 A3043 RMK AO2=
200901170051 SPECI KBLI 170051Z 00000KT 5SM BR OVC004 02/01 A3043 RMK AO2=
200901162353 METAR KBLI 162353Z 00000KT 9SM SCT007 04/02 A3044 RMK AO2 SLP317 T00390017 10044 21017 55003=
200901162253 METAR KBLI 162253Z 36005KT 10SM FEW007 04/02 A3043 RMK AO2 SLP314 T00440017=
200901162215 SPECI KBLI 162215Z 00000KT 10SM FEW007 03/02 A3044 RMK AO2=
200901162215 SPECI KBLI 162215Z 00000KT 10SM FEW007 03/02 A3044 RMK AO2=
200901162153 METAR KBLI 162153Z 00000KT 10SM CLR 03/01 A3044 RMK AO2 SLP317 T00280011=
200901162053 METAR KBLI 162053Z 00000KT 10SM SCT001 01/01 A3045 RMK AO2 SLP320 T00110006 56005=
200901162019 SPECI KBLI 162019Z 00000KT 5SM BR SCT001 01/00 A3045 RMK AO2=
200901162019 SPECI KBLI 162019Z 00000KT 5SM BR SCT001 01/00 A3045 RMK AO2=
200901162012 SPECI KBLI 162012Z 00000KT 3SM BR OVC001 00/00 A3045 RMK AO2=
200901162012 SPECI KBLI 162012Z 00000KT 3SM BR OVC001 00/00 A3045 RMK AO2=
200901161953 METAR KBLI 161953Z 00000KT 1SM BR OVC001 M01/M01 A3045 RMK AO2 SLP323 BINOVC OHD T10061011 RVRNO=
200901161951 SPECI KBLI 161951Z 00000KT 1SM BR OVC001 M01/M01 A3045 RMK AO2 BINOVC OHD RVRNO=
200901161951 SPECI KBLI 161951Z 00000KT 1SM BR OVC001 M01/M01 A3045 RMK AO2 BINOVC OHD RVRNO=
200901161853 METAR KBLI 161853Z 00000KT 1/4SM FZFG VV001 M01/M02 A3046 RMK AO2 SLP326 T10111017 RVRNO=
200901161753 METAR KBLI 161753Z 03003KT 1/4SM FZFG VV001 M02/M02 A3044 RMK AO2 SLP319 T10171022 11017 21022 51007 RVRNO=
200901161653 METAR KBLI 161653Z 04003KT 1/4SM FZFG VV001 M02/M03 A3044 RMK AO2 SLP318 T10221028 RVRNO=
200901161553 METAR KBLI 161553Z 34003KT 1/4SM FZFG VV001 M02/M03 A3043 RMK AO2 SLP315 T10221028 RVRNO=
200901161453 METAR KBLI 161453Z AUTO 00000KT 1/4SM FZFG VV001 M02/M02 A3042 RMK AO2 SLP311 T10171022 53008 RVRNO=
200901161353 METAR KBLI 161353Z AUTO 00000KT 1/2SM FZFG VV001 M02/M02 A3041 RMK AO2 SLP308 T10221022 RVRNO=
200901161253 METAR KBLI 161253Z AUTO 36003KT 1/4SM FZFG VV001 M02/M02 A3040 RMK AO2 SLP305 T10171022 RVRNO=
200901161153 METAR KBLI 161153Z AUTO 00000KT 1/4SM FZFG VV001 M02/M02 A3039 RMK AO2 SLP303 T10171022 10011 21017 50001 RVRNO=
200901161053 METAR KBLI 161053Z AUTO 05003KT 1/4SM FZFG VV001 M02/M02 A3040 RMK AO2 SLP304 T10171022 RVRNO=
200901160953 METAR KBLI 160953Z AUTO 35004KT 1/2SM FZFG BKN001 OVC006 M01/M02 A3039 RMK AO2 SLP302 T10111017 RVRNO=
200901160853 METAR KBLI 160853Z AUTO 00000KT 1/4SM FZFG VV001 M01/M02 A3039 RMK AO2 SLP301 T10111017 51003 RVRNO=
200901160753 METAR KBLI 160753Z AUTO 00000KT 1/4SM FZFG VV001 M01/M01 A3039 RMK AO2 SLP301 T10111011 400441011 RVRNO=
200901160653 METAR KBLI 160653Z AUTO 00000KT 1/4SM FG VV001 00/M01 A3038 RMK AO2 SLP299 T00001006 RVRNO=
200901160553 METAR KBLI 160553Z 36003KT 1/4SM FG VV001 01/01 A3038 RMK AO2 SLP298 T00060006 10033 20006 50003 RVRNO=
200901160453 METAR KBLI 160453Z 35003KT 1/4SM FG VV001 02/01 A3038 RMK AO2 SLP298 T00170011 RVRNO=
200901160353 METAR KBLI 160353Z 00000KT 1/4SM FG VV001 02/02 A3037 RMK AO2 SLP295 T00170017 RVRNO=
200901160253 METAR KBLI 160253Z 00000KT 1/4SM FG VV001 02/02 A3037 RMK AO2 SLP295 T00220017 58001 RVRNO=
200901160245 SPECI KBLI 160245Z 00000KT 1/2SM FG VV001 02/02 A3037 RMK AO2 RVRNO=
200901160245 SPECI KBLI 160245Z 00000KT 1/2SM FG VV001 02/02 A3037 RMK AO2 RVRNO=
200901160237 SPECI KBLI 160237Z 03003KT 1SM BR OVC001 02/02 A3037 RMK AO2 RVRNO=
200901160237 SPECI KBLI 160237Z 03003KT 1SM BR OVC001 02/02 A3037 RMK AO2 RVRNO=
200901160153 METAR KBLI 160153Z 29003KT 1/2SM FG VV001 02/02 A3037 RMK AO2 SLP296 T00220017 RVRNO=
200901160108 SPECI KBLI 160108Z 00000KT 1/2SM FG OVC001 03/02 A3038 RMK AO2 RVRNO=
200901160108 SPECI KBLI 160108Z 00000KT 1/2SM FG OVC001 03/02 A3038 RMK AO2 RVRNO=
200901160053 METAR KBLI 160053Z 36003KT 3/4SM BR OVC001 03/02 A3038 RMK AO2 SLP295 T00280022 RVRNO=
200901160047 SPECI KBLI 160047Z 01003KT 3/4SM BR OVC001 03/02 A3038 RMK AO2 RVRNO=
200901160047 SPECI KBLI 160047Z 01003KT 3/4SM BR OVC001 03/02 A3038 RMK AO2 RVRNO=
200901160040 SPECI KBLI 160040Z 29003KT 1 3/4SM BR OVC003 03/02 A3037 RMK AO2=
200901160040 SPECI KBLI 160040Z 29003KT 1 3/4SM BR OVC003 03/02 A3037 RMK AO2=
200901152353 METAR KBLI 152353Z 00000KT 6SM BR OVC003 03/02 A3037 RMK AO2 SLP295 T00330022 10044 21006 58005=
200901152253 METAR KBLI 152253Z 32003KT 7SM OVC005 04/03 A3038 RMK AO2 SLP296 T00390028=
200901152224 SPECI KBLI 152224Z 00000KT 7SM OVC005 03/03 A3038 RMK AO2=
200901152224 SPECI KBLI 152224Z 00000KT 7SM OVC005 03/03 A3038 RMK AO2=
200901152153 METAR KBLI 152153Z 00000KT 7SM OVC003 03/02 A3039 RMK AO2 SLP300 VIS E SE 3 T00330022=
200901152151 SPECI KBLI 152151Z 00000KT 7SM OVC003 03/02 A3039 RMK AO2 VIS E SE 3=
200901152151 SPECI KBLI 152151Z 00000KT 7SM OVC003 03/02 A3039 RMK AO2 VIS E SE 3=
200901152141 SPECI KBLI 152141Z 00000KT 5SM BR OVC001 03/02 A3039 RMK AO2=
200901152141 SPECI KBLI 152141Z 00000KT 5SM BR OVC001 03/02 A3039 RMK AO2=
200901152128 SPECI KBLI 152128Z 34003KT 3/4SM BR OVC001 03/02 A3040 RMK AO2 RVRNO=
200901152128 SPECI KBLI 152128Z 34003KT 3/4SM BR OVC001 03/02 A3040 RMK AO2 RVRNO=
200901152115 SPECI KBLI 152115Z 32003KT 1SM BR OVC001 02/02 A3040 RMK AO2 RVRNO=
200901152115 SPECI KBLI 152115Z 32003KT 1SM BR OVC001 02/02 A3040 RMK AO2 RVRNO=
200901152053 METAR KBLI 152053Z 00000KT 1/4SM FG OVC001 02/01 A3040 RMK AO2 SLP304 T00170011 58005 RVRNO=
200901151953 METAR KBLI 151953Z 00000KT 3/4SM BR OVC001 01/01 A3042 RMK AO2 SLP309 T00110006 RVRNO=
200901151931 SPECI KBLI 151931Z VRB03KT 3/4SM BR OVC001 01/01 A3042 RMK AO2 RVRNO=
200901151931 SPECI KBLI 151931Z VRB03KT 3/4SM BR OVC001 01/01 A3042 RMK AO2 RVRNO=
200901151922 SPECI KBLI 151922Z 03003KT 1SM BR OVC001 01/01 A3042 RMK AO2 RVRNO=
200901151922 SPECI KBLI 151922Z 03003KT 1SM BR OVC001 01/01 A3042 RMK AO2 RVRNO=
200901151853 SPECI KBLI 151853Z 32003KT 1/4SM FG VV001 00/00 A3043 RMK AO2 SLP313 T00000000 RVRNO=
200901151753 METAR KBLI 151753Z 32003KT 1/4SM FZFG VV001 M01/M01 A3042 RMK AO2 SLP311 T10061011 10000 21011 50003 RVRNO=
200901151653 METAR KBLI 151653Z 35003KT 1/4SM FZFG VV001 M01/M01 A3042 RMK AO2 SLP311 T10111011 RVRNO=
200901151622 SPECI KBLI 151622Z 03003KT 1/4SM FZFG VV001 M01/M01 A3041 RMK AO2 RVRNO=
200901151622 SPECI KBLI 151622Z 03003KT 1/4SM FZFG VV001 M01/M01 A3041 RMK AO2 RVRNO=
200901151553 METAR KBLI 151553Z 00000KT 1/2SM FZFG VV001 M01/M01 A3042 RMK AO2 SLP310 T10061011 RVRNO=
200901151453 METAR KBLI 151453Z 00000KT 1/2SM FZFG BKN001 OVC007 M01/M01 A3041 RMK AO2 SLP308 T10061011 56006 RVRNO=
200901151353 METAR KBLI 151353Z AUTO 00000KT 1/4SM FZFG VV001 M01/M01 A3041 RMK AO2 SLP307 T10061006 RVRNO=
200901151253 METAR KBLI 151253Z AUTO 34004KT 1/4SM FG BKN001 OVC007 00/M01 A3041 RMK AO2 SLP308 T00001006 RVRNO=
200901151153 METAR KBLI 151153Z AUTO 04003KT 1/4SM FG VV001 00/M01 A3043 RMK AO2 SLP313 T00001006 10022 20000 52001 RVRNO=
200901151053 METAR KBLI 151053Z AUTO 01003KT 1/4SM FG VV001 01/00 A3043 RMK AO2 SLP314 T00060000 RVRNO=
200901150953 METAR KBLI 150953Z AUTO 01003KT 1/2SM FG VV001 01/00 A3042 RMK AO2 SLP310 T00060000 RVRNO=
200901150853 METAR KBLI 150853Z AUTO 02003KT 1/2SM FG OVC001 01/01 A3042 RMK AO2 SLP311 T00110006 58003 RVRNO=
200901150833 SPECI KBLI 150833Z AUTO 03004KT 3/4SM BR BKN001 OVC007 01/01 A3042 RMK AO2 RVRNO=
200901150833 SPECI KBLI 150833Z AUTO 03004KT 3/4SM BR BKN001 OVC007 01/01 A3042 RMK AO2 RVRNO=
200901150753 METAR KBLI 150753Z AUTO 02003KT 1/2SM FG VV001 02/01 A3043 RMK AO2 SLP313 T00170011 400500017 RVRNO=
200901150653 METAR KBLI 150653Z AUTO 34005KT 1/4SM FG VV001 02/02 A3043 RMK AO2 SLP312 T00220017 RVRNO=
200901150642 SPECI KBLI 150642Z AUTO 00000KT 1/2SM FG OVC001 02/02 A3042 RMK AO2 RVRNO=
200901150642 SPECI KBLI 150642Z AUTO 00000KT 1/2SM FG OVC001 02/02 A3042 RMK AO2 RVRNO=
200901150622 SPECI KBLI 150622Z 00000KT 1 1/4SM BR OVC001 02/02 A3043 RMK AO2=
200901150622 SPECI KBLI 150622Z 00000KT 1 1/4SM BR OVC001 02/02 A3043 RMK AO2=
200901150553 METAR KBLI 150553Z 00000KT 1/2SM FG VV001 02/02 A3043 RMK AO2 SLP314 T00220017 10044 20022 55001 RVRNO=
200901150551 SPECI KBLI 150551Z 00000KT 1/2SM FG VV001 02/02 A3043 RMK AO2 RVRNO=
200901150551 SPECI KBLI 150551Z 00000KT 1/2SM FG VV001 02/02 A3043 RMK AO2 RVRNO=
200901150543 SPECI KBLI 150543Z 34003KT 3/4SM BR VV001 02/02 A3043 RMK AO2 RVRNO=
200901150543 SPECI KBLI 150543Z 34003KT 3/4SM BR VV001 02/02 A3043 RMK AO2 RVRNO=
200901150525 SPECI KBLI 150525Z 34003KT 1/2SM BR FG OVC002 02/02 A3043 RMK AO2 RVRNO=
200901150525 SPECI KBLI 150525Z 34003KT 1/2SM BR FG OVC002 02/02 A3043 RMK AO2 RVRNO=
200901150453 METAR KBLI 150453Z 35003KT 1SM BR OVC002 02/02 A3042 RMK AO2 SLP312 T00220017 RVRNO=
200901150438 SPECI KBLI 150438Z 36004KT 1 3/4SM BR OVC002 02/02 A3042 RMK AO2=
200901150438 SPECI KBLI 150438Z 36004KT 1 3/4SM BR OVC002 02/02 A3042 RMK AO2=
200901150353 METAR KBLI 150353Z 34003KT 4SM BR OVC004 03/02 A3043 RMK AO2 SLP315 T00280017=
200901150253 METAR KBLI 150253Z 32003KT 4SM BR OVC004 03/02 A3043 RMK AO2 SLP314 T00280017 55002=
200901150208 SPECI KBLI 150208Z 32003KT 6SM BR OVC004 03/02 A3043 RMK AO2=
200901150208 SPECI KBLI 150208Z 32003KT 6SM BR OVC004 03/02 A3043 RMK AO2=
200901150153 METAR KBLI 150153Z 35004KT 7SM OVC006 03/02 A3043 RMK AO2 SLP313 T00330017=
200901150053 METAR KBLI 150053Z VRB04KT 8SM OVC010 04/02 A3044 RMK AO2 CIG 007V012 SLP316 T00390022=
200901142353 METAR KBLI 142353Z 30003KT 10SM OVC012 04/02 A3043 RMK AO2 SLP314 T00440022 10050 20017 56007=
200901142253 METAR KBLI 142253Z 00000KT 10SM OVC012 05/02 A3043 RMK AO2 SLP315 T00500022=
200901142153 METAR KBLI 142153Z 36003KT 10SM OVC010 05/02 A3044 RMK AO2 SLP316 T00500022=
200901142134 SPECI KBLI 142134Z 35005KT 10SM OVC010 04/02 A3044 RMK AO2 CIG 007V013=
200901142134 SPECI KBLI 142134Z 35005KT 10SM OVC010 04/02 A3044 RMK AO2 CIG 007V013=
200901142053 METAR KBLI 142053Z 01003KT 10SM OVC006 04/02 A3045 RMK AO2 SLP321 T00390017 58013=
200901142040 SPECI KBLI 142040Z 02004KT 10SM OVC006 04/02 A3045 RMK AO2=
200901142040 SPECI KBLI 142040Z 02004KT 10SM OVC006 04/02 A3045 RMK AO2=
200901141953 METAR KBLI 141953Z 36004KT 10SM BKN004 OVC014 03/02 A3047 RMK AO2 SLP326 T00330017=
200901141939 SPECI KBLI 141939Z 35003KT 10SM BKN004 OVC012 03/02 A3047 RMK AO2=
200901141939 SPECI KBLI 141939Z 35003KT 10SM BKN004 OVC012 03/02 A3047 RMK AO2=
200901141932 SPECI KBLI 141932Z 36004KT 10SM SCT004 OVC012 03/02 A3047 RMK AO2=
200901141932 SPECI KBLI 141932Z 36004KT 10SM SCT004 OVC012 03/02 A3047 RMK AO2=
200901141908 SPECI KBLI 141908Z 01004KT 10SM BKN004 OVC010 03/01 A3049 RMK AO2=
200901141908 SPECI KBLI 141908Z 01004KT 10SM BKN004 OVC010 03/01 A3049 RMK AO2=
200901141853 METAR KBLI 141853Z 02003KT 10SM SCT004 OVC010 03/02 A3049 RMK AO2 SLP335 T00280017=
200901141835 SPECI KBLI 141835Z 03003KT 10SM SCT002 OVC010 02/02 A3049 RMK AO2=
200901141835 SPECI KBLI 141835Z 03003KT 10SM SCT002 OVC010 02/02 A3049 RMK AO2=
200901141753 METAR KBLI 141753Z 02005KT 5SM BR BKN002 OVC011 02/01 A3049 RMK AO2 CIG 002V006 SLP334 T00170011 10033 20017 53002=
200901141734 SPECI KBLI 141734Z 36004KT 3SM BR BKN002 OVC006 02/01 A3049 RMK AO2=
200901141734 SPECI KBLI 141734Z 36004KT 3SM BR BKN002 OVC006 02/01 A3049 RMK AO2=
200901141653 METAR KBLI 141653Z 01005KT 1SM BR OVC003 02/02 A3048 RMK AO2 SLP332 T00170017 RVRNO=
200901141553 METAR KBLI 141553Z 35005KT 3SM BR OVC003 02/02 A3048 RMK AO2 SLP330 T00220017=
200901141501 SPECI KBLI 141501Z 34005KT 3SM BR OVC003 02/02 A3048 RMK AO2=
200901141501 SPECI KBLI 141501Z 34005KT 3SM BR OVC003 02/02 A3048 RMK AO2=
200901141453 METAR KBLI 141453Z 33004KT 6SM BR OVC001 02/02 A3048 RMK AO2 SLP332 T00170017 56008=
200901141419 SPECI KBLI 141419Z AUTO 01003KT 3SM BR OVC001 02/02 A3048 RMK AO2=
200901141419 SPECI KBLI 141419Z AUTO 01003KT 3SM BR OVC001 02/02 A3048 RMK AO2=
200901141401 SPECI KBLI 141401Z AUTO 36003KT 1 1/2SM BR OVC001 02/02 A3049 RMK AO2=
200901141401 SPECI KBLI 141401Z AUTO 36003KT 1 1/2SM BR OVC001 02/02 A3049 RMK AO2=
200901141353 METAR KBLI 141353Z AUTO 35004KT 3/4SM BR VV001 02/02 A3048 RMK AO2 SLP332 T00220017 RVRNO=
200901141253 METAR KBLI 141253Z AUTO 02005KT 1/4SM FG VV001 03/02 A3049 RMK AO2 SLP335 T00280022 RVRNO=
200901141234 SPECI KBLI 141234Z AUTO 01005KT 1/2SM FG VV001 03/03 A3050 RMK AO2 RVRNO=
200901141234 SPECI KBLI 141234Z AUTO 01005KT 1/2SM FG VV001 03/03 A3050 RMK AO2 RVRNO=
200901141220 SPECI KBLI 141220Z AUTO 35005KT 1SM BR BKN001 OVC006 03/03 A3050 RMK AO2 RVRNO=
200901141220 SPECI KBLI 141220Z AUTO 35005KT 1SM BR BKN001 OVC006 03/03 A3050 RMK AO2 RVRNO=
200901141200 SPECI KBLI 141200Z AUTO 35003KT 1/4SM FG BKN001 OVC006 03/03 A3051 RMK AO2 RVRNO=
200901141200 SPECI KBLI 141200Z AUTO 35003KT 1/4SM FG BKN001 OVC006 03/03 A3051 RMK AO2 RVRNO=
200901141153 METAR KBLI 141153Z AUTO 35003KT 1/4SM FG OVC003 03/03 A3051 RMK AO2 SLP341 T00330028 10056 20033 58002 RVRNO=
200901141142 SPECI KBLI 141142Z AUTO 34003KT 1/4SM FG OVC003 03/03 A3051 RMK AO2 RVRNO=
200901141142 SPECI KBLI 141142Z AUTO 34003KT 1/4SM FG OVC003 03/03 A3051 RMK AO2 RVRNO=
200901141129 SPECI KBLI 141129Z AUTO 01003KT 1/4SM FG OVC001 03/03 A3051 RMK AO2 RVRNO=
200901141129 SPECI KBLI 141129Z AUTO 01003KT 1/4SM FG OVC001 03/03 A3051 RMK AO2 RVRNO=
200901141121 SPECI KBLI 141121Z AUTO 01003KT 3/4SM BR OVC001 04/03 A3051 RMK AO2 RVRNO=
200901141121 SPECI KBLI 141121Z AUTO 01003KT 3/4SM BR OVC001 04/03 A3051 RMK AO2 RVRNO=
200901141109 SPECI KBLI 141109Z AUTO 01004KT 1 3/4SM BR OVC003 04/03 A3052 RMK AO2 CIG 001V006=
200901141109 SPECI KBLI 141109Z AUTO 01004KT 1 3/4SM BR OVC003 04/03 A3052 RMK AO2 CIG 001V006=
200901141053 METAR KBLI 141053Z AUTO 35004KT 2 1/2SM BR OVC003 04/03 A3052 RMK AO2 CIG 002V007 SLP342 T00440033=
200901141051 SPECI KBLI 141051Z AUTO 35004KT 3SM BR OVC003 04/03 A3052 RMK AO2 CIG 002V007=
200901141051 SPECI KBLI 141051Z AUTO 35004KT 3SM BR OVC003 04/03 A3052 RMK AO2 CIG 002V007=
200901141028 SPECI KBLI 141028Z AUTO 35003KT 2 1/2SM BR BKN003 OVC024 04/03 A3052 RMK AO2=
200901141028 SPECI KBLI 141028Z AUTO 35003KT 2 1/2SM BR BKN003 OVC024 04/03 A3052 RMK AO2=
200901141020 SPECI KBLI 141020Z AUTO 35004KT 2 1/2SM BR SCT003 OVC024 04/03 A3051 RMK AO2=
200901141020 SPECI KBLI 141020Z AUTO 35004KT 2 1/2SM BR SCT003 OVC024 04/03 A3051 RMK AO2=
200901140953 METAR KBLI 140953Z AUTO 03003KT 3SM BR FEW003 OVC022 04/03 A3052 RMK AO2 SLP342 T00440033=
200901140935 SPECI KBLI 140935Z AUTO 02004KT 3SM BR FEW004 OVC022 04/04 A3052 RMK AO2=
200901140935 SPECI KBLI 140935Z AUTO 02004KT 3SM BR FEW004 OVC022 04/04 A3052 RMK AO2=
200901140919 SPECI KBLI 140919Z AUTO 00000KT 3SM BR BKN004 OVC022 04/04 A3052 RMK AO2=
200901140919 SPECI KBLI 140919Z AUTO 00000KT 3SM BR BKN004 OVC022 04/04 A3052 RMK AO2=
200901140905 SPECI KBLI 140905Z AUTO 00000KT 2 1/2SM BR BKN004 OVC022 04/04 A3052 RMK AO2=
200901140905 SPECI KBLI 140905Z AUTO 00000KT 2 1/2SM BR BKN004 OVC022 04/04 A3052 RMK AO2=
200901140853 METAR KBLI 140853Z AUTO 00000KT 3SM BR BKN004 OVC022 04/04 A3053 RMK AO2 SLP346 T00440039 56004=
200901140830 SPECI KBLI 140830Z AUTO 00000KT 3SM BR BKN004 OVC018 04/04 A3053 RMK AO2=
200901140830 SPECI KBLI 140830Z AUTO 00000KT 3SM BR BKN004 OVC018 04/04 A3053 RMK AO2=
200901140816 SPECI KBLI 140816Z AUTO 00000KT 2 1/2SM BR SCT002 OVC018 04/04 A3053 RMK AO2=
200901140816 SPECI KBLI 140816Z AUTO 00000KT 2 1/2SM BR SCT002 OVC018 04/04 A3053 RMK AO2=
200901140753 METAR KBLI 140753Z AUTO 01004KT 2 1/2SM BR OVC002 05/04 A3053 RMK AO2 SLP348 T00500039 400720050=
200901140740 SPECI KBLI 140740Z AUTO 02004KT 2 1/2SM BR OVC002 05/04 A3053 RMK AO2=
200901140740 SPECI KBLI 140740Z AUTO 02004KT 2 1/2SM BR OVC002 05/04 A3053 RMK AO2=
200901140653 METAR KBLI 140653Z AUTO 35003KT 3SM BR OVC002 05/04 A3053 RMK AO2 SLP347 T00500044=
200901140553 METAR KBLI 140553Z 01003KT 3SM BR BKN004 OVC008 06/04 A3054 RMK AO2 SLP349 T00560044 10067 20056 56002=
200901140453 METAR KBLI 140453Z 00000KT 4SM BR OVC004 06/04 A3054 RMK AO2 SLP349 T00560044=
200901140407 SPECI KBLI 140407Z 36003KT 5SM BR OVC004 06/04 A3054 RMK AO2=
200901140407 SPECI KBLI 140407Z 36003KT 5SM BR OVC004 06/04 A3054 RMK AO2=
200901140400 SPECI KBLI 140400Z 36003KT 5SM BR SCT004 BKN008 OVC032 06/04 A3054 RMK AO2=
200901140400 SPECI KBLI 140400Z 36003KT 5SM BR SCT004 BKN008 OVC032 06/04 A3054 RMK AO2=
200901140353 METAR KBLI 140353Z 36003KT 6SM BR BKN010 OVC032 06/04 A3054 RMK AO2 SLP351 T00560044=
200901140300 SPECI KBLI 140300Z 00000KT 6SM BR BKN010 OVC032 06/04 A3054 RMK AO2=
200901140300 SPECI KBLI 140300Z 00000KT 6SM BR BKN010 OVC032 06/04 A3054 RMK AO2=
200901140253 METAR KBLI 140253Z 00000KT 7SM SCT010 OVC032 06/04 A3054 RMK AO2 SLP352 T00560044 56001=
200901140250 SPECI KBLI 140250Z 00000KT 7SM BKN009 OVC032 06/04 A3054 RMK AO2 CIG 006V010=
200901140250 SPECI KBLI 140250Z 00000KT 7SM BKN009 OVC032 06/04 A3054 RMK AO2 CIG 006V010=
200901140240 SPECI KBLI 140240Z 29003KT 7SM SCT009 OVC032 06/04 A3054 RMK AO2=
200901140240 SPECI KBLI 140240Z 29003KT 7SM SCT009 OVC032 06/04 A3054 RMK AO2=
200901140153 METAR KBLI 140153Z 00000KT 10SM OVC030 06/04 A3054 RMK AO2 SLP353 T00560044=
200901140140 SPECI KBLI 140140Z 00000KT 10SM OVC030 06/04 A3055 RMK AO2=
200901140140 SPECI KBLI 140140Z 00000KT 10SM OVC030 06/04 A3055 RMK AO2=
200901140100 SPECI KBLI 140100Z 00000KT 10SM SCT018 BKN026 OVC031 06/04 A3055 RMK AO2=
200901140100 SPECI KBLI 140100Z 00000KT 10SM SCT018 BKN026 OVC031 06/04 A3055 RMK AO2=
200901140053 METAR KBLI 140053Z 00000KT 10SM BKN010 OVC020 06/04 A3055 RMK AO2 SLP352 T00610039=
200901140036 SPECI KBLI 140036Z 00000KT 10SM BKN010 OVC020 07/04 A3055 RMK AO2=
200901140036 SPECI KBLI 140036Z 00000KT 10SM BKN010 OVC020 07/04 A3055 RMK AO2=
200901140029 SPECI KBLI 140029Z 00000KT 10SM BKN008 OVC020 06/04 A3055 RMK AO2=
200901140029 SPECI KBLI 140029Z 00000KT 10SM BKN008 OVC020 06/04 A3055 RMK AO2=
200901140009 SPECI KBLI 140009Z 00000KT 10SM BKN010 BKN015 OVC029 07/04 A3055 RMK AO2=
200901140009 SPECI KBLI 140009Z 00000KT 10SM BKN010 BKN015 OVC029 07/04 A3055 RMK AO2=
200901132353 METAR KBLI 132353Z 00000KT 10SM FEW010 BKN028 OVC035 07/04 A3055 RMK AO2 SLP354 T00670044 10072 20061 55004=
200901132253 METAR KBLI 132253Z 00000KT 10SM OVC028 07/04 A3055 RMK AO2 SLP352 T00720039=
200901132153 METAR KBLI 132153Z 00000KT 10SM OVC020 07/04 A3055 RMK AO2 SLP354 T00720044=
200901132110 SPECI KBLI 132110Z 00000KT 10SM FEW009 OVC024 07/04 A3056 RMK AO2=
200901132110 SPECI KBLI 132110Z 00000KT 10SM FEW009 OVC024 07/04 A3056 RMK AO2=
200901132053 METAR KBLI 132053Z 00000KT 10SM OVC026 07/05 A3057 RMK AO2 SLP359 T00670050 58007=
200901131953 METAR KBLI 131953Z 00000KT 10SM FEW004 OVC026 06/05 A3058 RMK AO2 SLP365 T00610050=
200901131853 METAR KBLI 131853Z 17003KT 10SM FEW004 OVC026 06/05 A3059 RMK AO2 SLP367 T00610050=
200901131753 METAR KBLI 131753Z 00000KT 10SM FEW005 OVC028 06/05 A3059 RMK AO2 SLP366 T00610050 10061 20056 53006=
200901131653 METAR KBLI 131653Z 00000KT 8SM FEW004 OVC028 06/04 A3058 RMK AO2 SLP363 T00610044=
200901131553 METAR KBLI 131553Z 18004KT 10SM OVC026 06/04 A3057 RMK AO2 SLP359 T00560044=
200901131453 METAR KBLI 131453Z 19003KT 10SM OVC026 06/04 A3057 RMK AO2 SLP360 T00560044 58005=
200901131353 METAR KBLI 131353Z AUTO 15003KT 10SM BKN026 OVC033 06/04 A3058 RMK AO2 SLP362 T00560044=
200901131253 METAR KBLI 131253Z AUTO 17005KT 10SM OVC026 06/04 A3059 RMK AO2 SLP366 T00560044=
200901131153 METAR KBLI 131153Z AUTO 19004KT 10SM OVC024 06/05 A3058 RMK AO2 SLP365 70014 T00610050 10072 20061 58005=
200901131053 METAR KBLI 131053Z AUTO 18005KT 10SM OVC024 07/05 A3059 RMK AO2 SLP368 T00670050=
200901130953 METAR KBLI 130953Z AUTO 18003KT 10SM OVC026 07/05 A3060 RMK AO2 SLP370 T00670050=
200901130853 METAR KBLI 130853Z AUTO 19003KT 10SM FEW012 BKN026 OVC036 07/06 A3060 RMK AO2 SLP369 T00670056 50000=
200901130826 SPECI KBLI 130826Z AUTO 17004KT 10SM FEW012 BKN026 OVC036 07/06 A3061 RMK AO2=
200901130826 SPECI KBLI 130826Z AUTO 17004KT 10SM FEW012 BKN026 OVC036 07/06 A3061 RMK AO2=
200901130816 SPECI KBLI 130816Z AUTO 18003KT 10SM BKN012 BKN026 OVC036 07/06 A3061 RMK AO2=
200901130816 SPECI KBLI 130816Z AUTO 18003KT 10SM BKN012 BKN026 OVC036 07/06 A3061 RMK AO2=
200901130753 METAR KBLI 130753Z AUTO 17003KT 10SM SCT012 OVC036 07/06 A3060 RMK AO2 SLP370 T00670056 400780050=
200901130735 SPECI KBLI 130735Z AUTO 17004KT 10SM FEW010 SCT016 OVC034 07/06 A3060 RMK AO2=
200901130735 SPECI KBLI 130735Z AUTO 17004KT 10SM FEW010 SCT016 OVC034 07/06 A3060 RMK AO2=
200901130721 SPECI KBLI 130721Z AUTO 17005KT 10SM FEW008 BKN018 OVC034 07/06 A3061 RMK AO2=
200901130721 SPECI KBLI 130721Z AUTO 17005KT 10SM FEW008 BKN018 OVC034 07/06 A3061 RMK AO2=
200901130705 SPECI KBLI 130705Z AUTO 18003KT 10SM SCT009 BKN013 OVC032 07/06 A3061 RMK AO2=
200901130705 SPECI KBLI 130705Z AUTO 18003KT 10SM SCT009 BKN013 OVC032 07/06 A3061 RMK AO2=
200901130653 METAR KBLI 130653Z AUTO 17004KT 10SM BKN009 BKN014 OVC032 07/06 A3061 RMK AO2 CIG 007V012 SLP374 T00670061=
200901130627 SPECI KBLI 130627Z 17005KT 10SM BKN009 BKN029 OVC034 07/06 A3061 RMK AO2 CIG 006V013=
200901130627 SPECI KBLI 130627Z 17005KT 10SM BKN009 BKN029 OVC034 07/06 A3061 RMK AO2 CIG 006V013=
200901130614 SPECI KBLI 130614Z 18006KT 10SM FEW007 BKN029 07/06 A3060 RMK AO2=
200901130614 SPECI KBLI 130614Z 18006KT 10SM FEW007 BKN029 07/06 A3060 RMK AO2=
200901130553 METAR KBLI 130553Z 17007KT 10SM BKN029 07/06 A3060 RMK AO2 SLP369 T00720061 10078 20072 58005=
200901130519 SPECI KBLI 130519Z 17006KT 10SM FEW005 OVC028 07/06 A3061 RMK AO2=
200901130519 SPECI KBLI 130519Z 17006KT 10SM FEW005 OVC028 07/06 A3061 RMK AO2=
200901130453 METAR KBLI 130453Z 17009KT 10SM OVC005 07/07 A3062 RMK AO2 CIG 003V008 SLP376 T00720067=
200901130353 METAR KBLI 130353Z 17008KT 10SM OVC005 08/07 A3062 RMK AO2 CIG 003V008 SLP376 T00780067=
200901130253 METAR KBLI 130253Z 17008KT 10SM OVC005 08/07 A3061 RMK AO2 SLP374 T00780067 58003=
200901130153 METAR KBLI 130153Z 17008KT 10SM OVC011 07/07 A3062 RMK AO2 CIG 008V012 SLP376 T00720067=
200901130141 SPECI KBLI 130141Z 17008KT 10SM BKN011 OVC038 08/07 A3062 RMK AO2=
200901130141 SPECI KBLI 130141Z 17008KT 10SM BKN011 OVC038 08/07 A3062 RMK AO2=
200901130108 SPECI KBLI 130108Z 16009KT 10SM SCT004 BKN030 OVC038 08/07 A3062 RMK AO2=
200901130108 SPECI KBLI 130108Z 16009KT 10SM SCT004 BKN030 OVC038 08/07 A3062 RMK AO2=
200901130053 METAR KBLI 130053Z 17008KT 10SM BKN004 BKN022 OVC029 07/07 A3062 RMK AO2 CIG 002V008 SLP378 T00720067=
200901122353 METAR KBLI 122353Z 17009KT 6SM BR BKN004 BKN024 OVC036 07/07 A3062 RMK AO2 SLP378 60010 T00720067 10072 20056 55003=
200901122253 METAR KBLI 122253Z 18009KT 5SM BR OVC002 07/07 A3062 RMK AO2 RAE12 CIG 001V004 SLP377 P0000 T00720067=
200901122226 SPECI KBLI 122226Z 17006KT 3/4SM BR OVC002 07/07 A3062 RMK AO2 RAE12 P0000 RVRNO=
200901122226 SPECI KBLI 122226Z 17006KT 3/4SM BR OVC002 07/07 A3062 RMK AO2 RAE12 P0000 RVRNO=
200901122205 SPECI KBLI 122205Z 18007KT 1/4SM -RA FG VV001 07/06 A3063 RMK AO2 P0000 RVRNO=
200901122205 SPECI KBLI 122205Z 18007KT 1/4SM -RA FG VV001 07/06 A3063 RMK AO2 P0000 RVRNO=
200901122153 METAR KBLI 122153Z 18008KT 1/2SM -RA FG OVC003 07/06 A3063 RMK AO2 SLP381 P0002 T00670061 RVRNO=
200901122148 SPECI KBLI 122148Z 17007KT 1/2SM -RA FG OVC003 07/06 A3063 RMK AO2 P0002 RVRNO=
200901122148 SPECI KBLI 122148Z 17007KT 1/2SM -RA FG OVC003 07/06 A3063 RMK AO2 P0002 RVRNO=
200901122053 METAR KBLI 122053Z 19007KT 1SM -RA BR OVC004 07/06 A3064 RMK AO2 RAE01B36 CIG 002V007 SLP383 VIS SW-NW 1/2SM P0001 60008 T00670061 58012 RVRNO=
200901122037 SPECI KBLI 122037Z 17004KT 3/4SM -RA BR OVC004 07/06 A3064 RMK AO2 RAE01B36 CIG 002V007 P0001 RVRNO=
200901122037 SPECI KBLI 122037Z 17004KT 3/4SM -RA BR OVC004 07/06 A3064 RMK AO2 RAE01B36 CIG 002V007 P0001 RVRNO=
200901121953 METAR KBLI 121953Z 17004KT 1/2SM -RA FG OVC002 06/06 A3065 RMK AO2 SLP388 P0003 T00610056 RVRNO=
200901121922 SPECI KBLI 121922Z 18005KT 1/2SM -RA FG BKN002 OVC006 06/06 A3067 RMK AO2 P0002 RVRNO=
200901121922 SPECI KBLI 121922Z 18005KT 1/2SM -RA FG BKN002 OVC006 06/06 A3067 RMK AO2 P0002 RVRNO=
200901121853 METAR KBLI 121853Z 17005KT 3/4SM -RA BR BKN002 OVC007 06/05 A3067 RMK AO2 SLP395 P0004 T00560050 RVRNO=
200901121840 SPECI KBLI 121840Z 17005KT 3/4SM -RA BR BKN002 OVC007 06/05 A3067 RMK AO2 P0003 RVRNO=
200901121840 SPECI KBLI 121840Z 17005KT 3/4SM -RA BR BKN002 OVC007 06/05 A3067 RMK AO2 P0003 RVRNO=
200901121831 SPECI KBLI 121831Z 17005KT 3/4SM -RA BR SCT002 OVC007 06/05 A3067 RMK AO2 P0003 RVRNO=
200901121831 SPECI KBLI 121831Z 17005KT 3/4SM -RA BR SCT002 OVC007 06/05 A3067 RMK AO2 P0003 RVRNO=
200901121753 METAR KBLI 121753Z 18005KT 3/4SM -RA BR OVC002 06/05 A3067 RMK AO2 RAB40 SLP396 P0002 60004 T00560050 10056 20050 53004 RVRNO=
200901121700 SPECI KBLI 121700Z 00000KT 3/4SM BR OVC002 05/05 A3067 RMK AO2 RVRNO=
200901121700 SPECI KBLI 121700Z 00000KT 3/4SM BR OVC002 05/05 A3067 RMK AO2 RVRNO=
200901121653 METAR KBLI 121653Z 00000KT 1/2SM FG VV002 05/04 A3066 RMK AO2 SLP393 P0001 T00500044 RVRNO=
200901121619 SPECI KBLI 121619Z 00000KT 1/2SM FG VV001 05/05 A3065 RMK AO2 P0001 RVRNO=
200901121619 SPECI KBLI 121619Z 00000KT 1/2SM FG VV001 05/05 A3065 RMK AO2 P0001 RVRNO=
200901121607 SPECI KBLI 121607Z 00000KT 3/4SM BR VV002 05/05 A3065 RMK AO2 P0001 RVRNO=
200901121607 SPECI KBLI 121607Z 00000KT 3/4SM BR VV002 05/05 A3065 RMK AO2 P0001 RVRNO=
200901121553 METAR KBLI 121553Z 00000KT 1/2SM FG VV001 05/04 A3066 RMK AO2 SLP391 T00500044 RVRNO=
200901121550 SPECI KBLI 121550Z 00000KT 1/2SM FG VV001 05/04 A3066 RMK AO2 RVRNO=
200901121550 SPECI KBLI 121550Z 00000KT 1/2SM FG VV001 05/04 A3066 RMK AO2 RVRNO=
200901121516 SPECI KBLI 121516Z 00000KT 3/4SM BR OVC001 05/05 A3066 RMK AO2 RVRNO=
200901121516 SPECI KBLI 121516Z 00000KT 3/4SM BR OVC001 05/05 A3066 RMK AO2 RVRNO=
200901121501 SPECI KBLI 121501Z 00000KT 3/4SM BR OVC003 05/05 A3065 RMK AO2 RVRNO=
200901121501 SPECI KBLI 121501Z 00000KT 3/4SM BR OVC003 05/05 A3065 RMK AO2 RVRNO=
200901121453 METAR KBLI 121453Z AUTO 00000KT 2SM BR OVC003 05/04 A3066 RMK AO2 SLP390 60001 T00500044 55001=
200901121428 SPECI KBLI 121428Z AUTO 00000KT 2 1/2SM BR OVC003 05/04 A3066 RMK AO2=
200901121428 SPECI KBLI 121428Z AUTO 00000KT 2 1/2SM BR OVC003 05/04 A3066 RMK AO2=
200901121353 METAR KBLI 121353Z AUTO 00000KT 4SM BR OVC003 05/05 A3065 RMK AO2 RAB1259E21 SLP390 P0001 T00500050=
200901121351 SPECI KBLI 121351Z AUTO 00000KT 4SM BR OVC003 05/04 A3065 RMK AO2 RAB1259E21 P0001=
200901121351 SPECI KBLI 121351Z AUTO 00000KT 4SM BR OVC003 05/04 A3065 RMK AO2 RAB1259E21 P0001=
200901121336 SPECI KBLI 121336Z AUTO 00000KT 2 1/2SM BR OVC003 05/04 A3065 RMK AO2 RAB1259E21 P0001=
200901121336 SPECI KBLI 121336Z AUTO 00000KT 2 1/2SM BR OVC003 05/04 A3065 RMK AO2 RAB1259E21 P0001=
200901121313 SPECI KBLI 121313Z AUTO 00000KT 3SM -RA BR BKN003 OVC012 05/04 A3066 RMK AO2 RAB1259 CIG 003V007 P0001=
200901121313 SPECI KBLI 121313Z AUTO 00000KT 3SM -RA BR BKN003 OVC012 05/04 A3066 RMK AO2 RAB1259 CIG 003V007 P0001=
200901121253 METAR KBLI 121253Z AUTO 00000KT 3SM BR BKN007 BKN012 OVC019 05/04 A3066 RMK AO2 RAE09 SLP390 P0000 T00500044=
200901121248 SPECI KBLI 121248Z AUTO 00000KT 2 1/2SM BR BKN007 BKN012 OVC019 05/04 A3066 RMK AO2 RAE09 P0000=
200901121248 SPECI KBLI 121248Z AUTO 00000KT 2 1/2SM BR BKN007 BKN012 OVC019 05/04 A3066 RMK AO2 RAE09 P0000=
200901121234 SPECI KBLI 121234Z AUTO 00000KT 3SM BR FEW001 BKN007 OVC028 05/04 A3065 RMK AO2 RAE09 P0000=
200901121234 SPECI KBLI 121234Z AUTO 00000KT 3SM BR FEW001 BKN007 OVC028 05/04 A3065 RMK AO2 RAE09 P0000=
200901121217 SPECI KBLI 121217Z AUTO 00000KT 2SM BR SCT001 BKN007 OVC047 05/04 A3066 RMK AO2 RAE09 P0000=
200901121217 SPECI KBLI 121217Z AUTO 00000KT 2SM BR SCT001 BKN007 OVC047 05/04 A3066 RMK AO2 RAE09 P0000=
200901121215 SPECI KBLI 121215Z AUTO 00000KT 1 3/4SM BR SCT001 BKN012 OVC047 05/04 A3065 RMK AO2 RAE09 P0000=
200901121215 SPECI KBLI 121215Z AUTO 00000KT 1 3/4SM BR SCT001 BKN012 OVC047 05/04 A3065 RMK AO2 RAE09 P0000=
200901121205 SPECI KBLI 121205Z AUTO 00000KT 1 1/2SM -RA BR BKN001 BKN006 OVC022 05/04 A3066 RMK AO2 P0000=
200901121205 SPECI KBLI 121205Z AUTO 00000KT 1 1/2SM -RA BR BKN001 BKN006 OVC022 05/04 A3066 RMK AO2 P0000=
200901121156 SPECI KBLI 121156Z AUTO 00000KT 1 3/4SM -RA BR SCT001 BKN006 OVC013 05/04 A3066 RMK AO2 P0000=
200901121156 SPECI KBLI 121156Z AUTO 00000KT 1 3/4SM -RA BR SCT001 BKN006 OVC013 05/04 A3066 RMK AO2 P0000=
200901121153 METAR KBLI 121153Z AUTO 00000KT 2SM -RA BR BKN001 BKN006 OVC013 05/04 A3066 RMK AO2 RAB20 SLP391 P0001 60002 70005 T00500044 10056 20050 53001=
200901121151 SPECI KBLI 121151Z AUTO 00000KT 2SM -RA BR BKN001 OVC006 05/04 A3066 RMK AO2 RAB20 P0001=
200901121151 SPECI KBLI 121151Z AUTO 00000KT 2SM -RA BR BKN001 OVC006 05/04 A3066 RMK AO2 RAB20 P0001=
200901121139 SPECI KBLI 121139Z AUTO 00000KT 1 3/4SM -RA BR BKN001 OVC006 05/04 A3067 RMK AO2 RAB20 P0001=
200901121139 SPECI KBLI 121139Z AUTO 00000KT 1 3/4SM -RA BR BKN001 OVC006 05/04 A3067 RMK AO2 RAB20 P0001=
200901121123 SPECI KBLI 121123Z AUTO 00000KT 1 3/4SM -RA BR BKN003 OVC014 05/04 A3066 RMK AO2 RAB20 P0000=
200901121123 SPECI KBLI 121123Z AUTO 00000KT 1 3/4SM -RA BR BKN003 OVC014 05/04 A3066 RMK AO2 RAB20 P0000=
200901121111 SPECI KBLI 121111Z AUTO 00000KT 2SM BR BKN001 OVC014 05/04 A3066 RMK AO2=
200901121111 SPECI KBLI 121111Z AUTO 00000KT 2SM BR BKN001 OVC014 05/04 A3066 RMK AO2=
200901121103 SPECI KBLI 121103Z AUTO 30003KT 3/4SM BR BKN001 BKN007 OVC014 05/04 A3067 RMK AO2 RVRNO=
200901121103 SPECI KBLI 121103Z AUTO 30003KT 3/4SM BR BKN001 BKN007 OVC014 05/04 A3067 RMK AO2 RVRNO=
200901121053 METAR KBLI 121053Z AUTO 00000KT 1/2SM FG BKN001 OVC007 05/04 A3065 RMK AO2 SLP387 T00500044 RVRNO=
200901120953 METAR KBLI 120953Z AUTO 00000KT 1/2SM FG BKN001 OVC009 05/04 A3066 RMK AO2 RAB11E31 SLP390 P0000 T00500044 RVRNO=
200901120853 METAR KBLI 120853Z AUTO 00000KT 1/2SM FG VV001 05/04 A3066 RMK AO2 RAB16E49 SLP391 P0001 60001 T00500044 53002 RVRNO=
200901120841 SPECI KBLI 120841Z AUTO 31003KT 1/2SM -RA FG OVC003 05/04 A3066 RMK AO2 RAB16 P0001 RVRNO=
200901120841 SPECI KBLI 120841Z AUTO 31003KT 1/2SM -RA FG OVC003 05/04 A3066 RMK AO2 RAB16 P0001 RVRNO=
200901120829 SPECI KBLI 120829Z AUTO 00000KT 1SM BR OVC003 05/05 A3066 RMK AO2 RAB16E26 P0001 RVRNO=
200901120829 SPECI KBLI 120829Z AUTO 00000KT 1SM BR OVC003 05/05 A3066 RMK AO2 RAB16E26 P0001 RVRNO=
200901120753 METAR KBLI 120753Z AUTO 00000KT 3/4SM BR OVC003 06/05 A3065 RMK AO2 SLP388 T00560050 400670022 RVRNO=
200901120738 SPECI KBLI 120738Z AUTO 00000KT 1SM BR OVC001 06/05 A3065 RMK AO2 RVRNO=
200901120738 SPECI KBLI 120738Z AUTO 00000KT 1SM BR OVC001 06/05 A3065 RMK AO2 RVRNO=
200901120729 SPECI KBLI 120729Z AUTO 00000KT 3/4SM BR OVC001 06/05 A3065 RMK AO2 RVRNO=
200901120729 SPECI KBLI 120729Z AUTO 00000KT 3/4SM BR OVC001 06/05 A3065 RMK AO2 RVRNO=
200901120709 SPECI KBLI 120709Z AUTO 00000KT 1/2SM FG VV001 06/05 A3065 RMK AO2 RVRNO=
200901120709 SPECI KBLI 120709Z AUTO 00000KT 1/2SM FG VV001 06/05 A3065 RMK AO2 RVRNO=
200901120653 METAR KBLI 120653Z AUTO 00000KT 3/4SM BR OVC002 05/05 A3065 RMK AO2 SLP387 T00500050 RVRNO=
200901120632 SPECI KBLI 120632Z AUTO 00000KT 1SM BR OVC002 05/05 A3065 RMK AO2 TSNO RVRNO=
200901120632 SPECI KBLI 120632Z AUTO 00000KT 1SM BR OVC002 05/05 A3065 RMK AO2 TSNO RVRNO=
200901120624 SPECI KBLI 120624Z 00000KT 3/4SM BR OVC002 06/05 A3065 RMK AO2 RVRNO=
200901120624 SPECI KBLI 120624Z 00000KT 3/4SM BR OVC002 06/05 A3065 RMK AO2 RVRNO=
200901120553 METAR KBLI 120553Z 00000KT 1/2SM FG BKN002 OVC007 05/04 A3066 RMK AO2 SLP390 T00500044 10067 20050 58000 RVRNO=
200901120545 SPECI KBLI 120545Z 00000KT 1/2SM FG BKN002 OVC007 06/05 A3065 RMK AO2 RVRNO=
200901120545 SPECI KBLI 120545Z 00000KT 1/2SM FG BKN002 OVC007 06/05 A3065 RMK AO2 RVRNO=
200901120533 SPECI KBLI 120533Z 00000KT 1/2SM FG SCT002 OVC007 05/05 A3066 RMK AO2 RVRNO=
200901120533 SPECI KBLI 120533Z 00000KT 1/2SM FG SCT002 OVC007 05/05 A3066 RMK AO2 RVRNO=
200901120453 METAR KBLI 120453Z 34003KT 1/2SM FG BKN002 OVC007 06/05 A3066 RMK AO2 SLP392 T00560050 RVRNO=
200901120353 METAR KBLI 120353Z 01003KT 1/2SM FG BKN002 OVC007 06/05 A3067 RMK AO2 SLP394 T00560050 RVRNO=
200901120346 SPECI KBLI 120346Z 35003KT 1/2SM FG BKN002 OVC007 06/05 A3067 RMK AO2 RVRNO=
200901120346 SPECI KBLI 120346Z 35003KT 1/2SM FG BKN002 OVC007 06/05 A3067 RMK AO2 RVRNO=
200901120339 SPECI KBLI 120339Z 34003KT 3/4SM BR BKN001 OVC007 06/05 A3067 RMK AO2 RVRNO=
200901120339 SPECI KBLI 120339Z 34003KT 3/4SM BR BKN001 OVC007 06/05 A3067 RMK AO2 RVRNO=
200901120253 METAR KBLI 120253Z 31004KT 1/2SM FG BKN001 OVC007 06/05 A3066 RMK AO2 SLP391 T00560050 53008 RVRNO=
200901120208 SPECI KBLI 120208Z 00000KT 1/2SM FG VV001 06/05 A3064 RMK AO2 RVRNO=
200901120208 SPECI KBLI 120208Z 00000KT 1/2SM FG VV001 06/05 A3064 RMK AO2 RVRNO=
200901120153 METAR KBLI 120153Z 28003KT 1/2SM FG OVC002 06/06 A3064 RMK AO2 SLP385 T00610056 RVRNO=
200901120053 METAR KBLI 120053Z 21004KT 1/2SM FG OVC002 07/06 A3065 RMK AO2 SLP388 T00670061 RVRNO=
200901120036 SPECI KBLI 120036Z 21005KT 1/2SM FG OVC002 07/06 A3065 RMK AO2 RVRNO=
200901120036 SPECI KBLI 120036Z 21005KT 1/2SM FG OVC002 07/06 A3065 RMK AO2 RVRNO=
200901120010 SPECI KBLI 120010Z 20003KT 3/4SM BR OVC002 07/06 A3064 RMK AO2 RVRNO=
200901120010 SPECI KBLI 120010Z 20003KT 3/4SM BR OVC002 07/06 A3064 RMK AO2 RVRNO=
200901112353 METAR KBLI 112353Z 20004KT 1SM BR OVC002 07/06 A3063 RMK AO2 SLP383 60001 T00670061 10067 20061 51007 RVRNO=
200901112351 SPECI KBLI 112351Z 21003KT 1SM BR OVC002 07/06 A3063 RMK AO2 RVRNO=
200901112351 SPECI KBLI 112351Z 21003KT 1SM BR OVC002 07/06 A3063 RMK AO2 RVRNO=
200901112308 SPECI KBLI 112308Z 20005KT 2 1/2SM BR OVC004 07/06 A3063 RMK AO2 CIG 002V006=
200901112308 SPECI KBLI 112308Z 20005KT 2 1/2SM BR OVC004 07/06 A3063 RMK AO2 CIG 002V006=
200901112253 METAR KBLI 112253Z VRB06KT 10SM OVC006 07/06 A3063 RMK AO2 SLP381 T00670056=
200901112153 METAR KBLI 112153Z 18004KT 10SM SCT003 OVC008 07/06 A3061 RMK AO2 RAE28 SLP376 P0001 T00670056=
200901112053 METAR KBLI 112053Z 17006KT 6SM -RA BR SCT003 OVC008 07/06 A3061 RMK AO2 RAB02E11B42 SLP376 P0000 60000 T00670056 50003=
200901112025 SPECI KBLI 112025Z 19004KT 4SM BR OVC008 07/06 A3062 RMK AO2 RAB02E11 CIG 006V012 P0000=
200901112025 SPECI KBLI 112025Z 19004KT 4SM BR OVC008 07/06 A3062 RMK AO2 RAB02E11 CIG 006V012 P0000=
200901111953 METAR KBLI 111953Z 17007KT 7SM SCT005 OVC014 07/06 A3062 RMK AO2 SLP378 T00670056=
200901111853 METAR KBLI 111853Z 18007KT 5SM BR FEW002 OVC014 07/06 A3062 RMK AO2 SLP377 T00670056=
200901111836 SPECI KBLI 111836Z 18004G14KT 4SM BR SCT002 BKN009 OVC014 07/06 A3061 RMK AO2=
200901111836 SPECI KBLI 111836Z 18004G14KT 4SM BR SCT002 BKN009 OVC014 07/06 A3061 RMK AO2=
200901111753 METAR KBLI 111753Z 20007KT 170V230 2SM BR BKN002 OVC014 07/06 A3060 RMK AO2 RAE48 SLP373 P0001 60002 T00670056 10067 20028 53019=
200901111653 METAR KBLI 111653Z 18008KT 1/2SM -RA FG OVC002 06/06 A3058 RMK AO2 RAB25 SLP366 P0001 T00610056 RVRNO=
200901111634 SPECI KBLI 111634Z 19006KT 3/4SM -RA BR OVC002 06/06 A3058 RMK AO2 RAB25 P0001 RVRNO=
200901111634 SPECI KBLI 111634Z 19006KT 3/4SM -RA BR OVC002 06/06 A3058 RMK AO2 RAB25 P0001 RVRNO=
200901111553 METAR KBLI 111553Z 21006KT 4SM BR OVC004 06/05 A3056 RMK AO2 SLP357 T00560050=
200901111543 SPECI KBLI 111543Z 19006KT 8SM OVC004 06/04 A3055 RMK AO2 CIG 003V007=
200901111543 SPECI KBLI 111543Z 19006KT 8SM OVC004 06/04 A3055 RMK AO2 CIG 003V007=
200901111453 METAR KBLI 111453Z 19005KT 10SM BKN008 BKN014 OVC025 06/04 A3055 RMK AO2 CIG 007V011 SLP354 T00560044 53003=
200901111434 SPECI KBLI 111434Z AUTO 18008G15KT 10SM BKN014 OVC027 06/05 A3054 RMK AO2=
200901111434 SPECI KBLI 111434Z AUTO 18008G15KT 10SM BKN014 OVC027 06/05 A3054 RMK AO2=
200901111353 METAR KBLI 111353Z AUTO 15006KT 10SM FEW016 OVC027 06/04 A3054 RMK AO2 SLP349 T00560044=
200901111253 METAR KBLI 111253Z AUTO 00000KT 3SM BR FEW001 OVC027 03/02 A3054 RMK AO2 SLP351 T00280022=
200901111241 SPECI KBLI 111241Z AUTO 00000KT 4SM BR FEW001 SCT005 OVC025 03/02 A3053 RMK AO2=
200901111241 SPECI KBLI 111241Z AUTO 00000KT 4SM BR FEW001 SCT005 OVC025 03/02 A3053 RMK AO2=
200901111219 SPECI KBLI 111219Z AUTO 00000KT 3SM BR BKN003 OVC017 03/02 A3054 RMK AO2 CIG 003V009=
200901111219 SPECI KBLI 111219Z AUTO 00000KT 3SM BR BKN003 OVC017 03/02 A3054 RMK AO2 CIG 003V009=
200901111210 SPECI KBLI 111210Z AUTO 00000KT 2 1/2SM BR BKN003 OVC008 03/02 A3054 RMK AO2 CIG 003V006=
200901111210 SPECI KBLI 111210Z AUTO 00000KT 2 1/2SM BR BKN003 OVC008 03/02 A3054 RMK AO2 CIG 003V006=
200901111153 METAR KBLI 111153Z AUTO 00000KT 2SM BR BKN005 OVC017 03/02 A3054 RMK AO2 UPE06 CIG 001V008 SLP351 P0001 60007 70112 T00280022 10028 20022 51014=
200901111110 SPECI KBLI 111110Z AUTO 00000KT 2SM BR SCT002 BKN009 OVC013 03/02 A3054 RMK AO2 UPE06 CIG 007V010 P0000=
200901111110 SPECI KBLI 111110Z AUTO 00000KT 2SM BR SCT002 BKN009 OVC013 03/02 A3054 RMK AO2 UPE06 CIG 007V010 P0000=
200901111053 METAR KBLI 111053Z AUTO 00000KT 2SM UP BR BKN002 OVC007 02/02 A3053 RMK AO2 UPE03B48RAB03E48 CIG 001V006 SLP348 P0002 T00220017=
200901110953 METAR KBLI 110953Z AUTO 36003KT 2 1/2SM UP BR BKN002 OVC016 02/02 A3051 RMK AO2 RAE52UPB52 CIG 001V005 SLP342 P0003 T00220017=
200901110911 SPECI KBLI 110911Z AUTO 35003KT 2SM -RA BR BKN002 OVC019 02/02 A3050 RMK AO2 P0001=
200901110911 SPECI KBLI 110911Z AUTO 35003KT 2SM -RA BR BKN002 OVC019 02/02 A3050 RMK AO2 P0001=
200901110900 SPECI KBLI 110900Z AUTO 33003KT 2 1/2SM -RA BR SCT002 OVC019 02/02 A3050 RMK AO2 P0000=
200901110900 SPECI KBLI 110900Z AUTO 33003KT 2 1/2SM -RA BR SCT002 OVC019 02/02 A3050 RMK AO2 P0000=
200901110853 METAR KBLI 110853Z AUTO 32004KT 3SM -RA BR FEW002 OVC019 02/02 A3050 RMK AO2 RAE00B52UPB00E02 SLP337 P0000 60001 T00220017 53020=
200901110807 SPECI KBLI 110807Z AUTO 00000KT 3SM BR OVC019 02/02 A3047 RMK AO2 RAE00UPB00E02 P0000=
200901110807 SPECI KBLI 110807Z AUTO 00000KT 3SM BR OVC019 02/02 A3047 RMK AO2 RAE00UPB00E02 P0000=
200901110753 METAR KBLI 110753Z AUTO 03004KT 2 1/2SM -RA BR FEW003 OVC021 02/02 A3048 RMK AO2 UPE0655B23E40RAB41 SLP330 P0001 T00220017 400500022=
200901110715 SPECI KBLI 110715Z AUTO 01007KT 4SM BR FEW002 OVC023 02/02 A3046 RMK AO2 UPE0655 P0000=
200901110715 SPECI KBLI 110715Z AUTO 01007KT 4SM BR FEW002 OVC023 02/02 A3046 RMK AO2 UPE0655 P0000=
200901110653 METAR KBLI 110653Z AUTO 05004KT 3SM UP BR OVC023 02/02 A3043 RMK AO2 RAE20B45E50UPB51 SLP315 P0000 T00220017=
200901110553 METAR KBLI 110553Z 35004KT 5SM -RA BR BKN023 OVC027 03/02 A3044 RMK AO2 SLP317 P0002 60037 T00280017 10050 20022 51006=
200901110453 METAR KBLI 110453Z 34003KT 4SM -RA BR BKN023 OVC030 03/02 A3043 RMK AO2 SLP314 P0005 T00280017=
200901110353 METAR KBLI 110353Z 11007KT 7SM -RA OVC023 05/02 A3044 RMK AO2 SLP315 P0007 T00500022=
200901110253 METAR KBLI 110253Z 12010G16KT 7SM -RA BKN023 OVC034 05/02 A3042 RMK AO2 SLP311 P0008 60023 T00500022 56009=
200901110153 METAR KBLI 110153Z 12008G17KT 6SM RA BR OVC023 05/03 A3042 RMK AO2 SLP312 P0008 T00500028=
200901110111 SPECI KBLI 110111Z 12010KT 10SM -RA BKN023 OVC033 04/02 A3042 RMK AO2 P0001=
200901110111 SPECI KBLI 110111Z 12010KT 10SM -RA BKN023 OVC033 04/02 A3042 RMK AO2 P0001=
200901110053 METAR KBLI 110053Z 12012KT 8SM -RA OVC033 04/02 A3042 RMK AO2 SLP311 P0007 T00390017=
200901110043 SPECI KBLI 110043Z 11009G17KT 9SM -RA BKN030 OVC038 04/02 A3043 RMK AO2 P0006=
200901110043 SPECI KBLI 110043Z 11009G17KT 9SM -RA BKN030 OVC038 04/02 A3043 RMK AO2 P0006=
200901102353 METAR KBLI 102353Z 12012KT 7SM -RA BKN022 OVC026 04/02 A3045 RMK AO2 SLP321 P0014 60043 T00390017 10044 20033 56014=
200901102253 METAR KBLI 102253Z 12008KT 7SM -RA BKN023 OVC028 04/02 A3047 RMK AO2 SLP326 P0010 T00440022=
200901102153 METAR KBLI 102153Z 11007KT 7SM -RA BKN021 OVC029 04/02 A3047 RMK AO2 SLP327 P0006 T00440022=
200901102053 METAR KBLI 102053Z 12006KT 7SM -RA OVC023 04/03 A3049 RMK AO2 SLP335 P0005 60013 T00440028 58007=
200901101953 METAR KBLI 101953Z 00000KT 6SM -RA BR BKN023 OVC031 04/03 A3051 RMK AO2 SLP341 P0004 T00440028=
200901101853 METAR KBLI 101853Z 00000KT 6SM -RA BR BKN025 OVC036 03/03 A3053 RMK AO2 SLP346 P0004 T00330028=
200901101806 SPECI KBLI 101806Z 01003KT 7SM -RA BKN023 OVC034 03/03 A3052 RMK AO2 P0001=
200901101806 SPECI KBLI 101806Z 01003KT 7SM -RA BKN023 OVC034 03/03 A3052 RMK AO2 P0001=
200901101753 METAR KBLI 101753Z 00000KT 4SM -RA BR SCT023 OVC035 04/03 A3051 RMK AO2 SLP342 P0006 60025 T00390028 10044 20033 53005=
200901101738 SPECI KBLI 101738Z 00000KT 3SM -RA BR BKN023 BKN030 OVC035 04/03 A3051 RMK AO2 P0005=
200901101738 SPECI KBLI 101738Z 00000KT 3SM -RA BR BKN023 BKN030 OVC035 04/03 A3051 RMK AO2 P0005=
200901101653 METAR KBLI 101653Z 00000KT 6SM -RA BR FEW022 OVC035 04/02 A3051 RMK AO2 SLP343 P0004 T00390022=
200901101553 METAR KBLI 101553Z 13005KT 9SM -RA FEW024 OVC037 04/02 A3049 RMK AO2 SLP333 P0003 T00390022=
200901101453 METAR KBLI 101453Z AUTO 13008KT 9SM -RA FEW021 OVC035 04/02 A3050 RMK AO2 SLP337 P0004 60012 T00390022 55004=
200901101353 METAR KBLI 101353Z AUTO 16009KT 10SM -RA FEW021 OVC031 04/02 A3050 RMK AO2 SLP336 P0003 T00440017=
200901101253 METAR KBLI 101253Z AUTO 15006KT 9SM -RA OVC033 04/02 A3050 RMK AO2 SLP339 P0005 T00440017=
200901101153 METAR KBLI 101153Z AUTO 15013G21KT 8SM -RA FEW022 BKN034 OVC041 04/02 A3051 RMK AO2 SLP341 P0002 60002 70004 T00440017 10056 20044 53006=
200901101053 METAR KBLI 101053Z AUTO 15011KT 10SM -RA FEW023 OVC040 04/01 A3050 RMK AO2 RAB22 SLP336 P0000 T00440011=
200901100953 METAR KBLI 100953Z AUTO 15009KT 10SM OVC038 05/01 A3050 RMK AO2 SLP339 T00500011=
200901100853 METAR KBLI 100853Z AUTO 15008G18KT 10SM OVC038 05/01 A3049 RMK AO2 SLP335 T00500011 50001=
200901100753 METAR KBLI 100753Z AUTO 15011G22KT 10SM OVC040 05/01 A3050 RMK AO2 SLP337 T00500006 400610022=
200901100653 METAR KBLI 100653Z AUTO 15012G18KT 10SM OVC042 06/00 A3050 RMK AO2 SLP336 T00560000=
200901100553 METAR KBLI 100553Z 15008KT 10SM OVC048 06/00 A3049 RMK AO2 SLP334 T00560000 10061 20039 55005=
200901100453 METAR KBLI 100453Z 14011KT 10SM OVC060 06/00 A3048 RMK AO2 SLP331 T00560000=
200901100353 METAR KBLI 100353Z 14011G20KT 10SM OVC065 05/00 A3049 RMK AO2 SLP334 T00500000=
200901100253 METAR KBLI 100253Z AUTO 15010KT 10SM OVC060 05/00 A3050 RMK AO2 SLP339 T00500000 58008 TSNO=
200901100153 METAR KBLI 100153Z 15014G20KT 10SM BKN080 BKN120 04/00 A3052 RMK AO2 SLP344 T00440000=
200901100053 METAR KBLI 100053Z 17010G17KT 10SM OVC120 04/00 A3052 RMK AO2 SLP346 T00440000=
200901092353 SPECI KBLI 092353Z 17006KT 10SM OVC100 04/01 A3053 RMK AO2 SLP348 60002 T00390006 10050 20033 57018=
200901092253 METAR KBLI 092253Z 15005KT 10SM OVC095 03/01 A3055 RMK AO2 RAE18 SLP354 P0001 T00330006=
200901092213 SPECI KBLI 092213Z 12011KT 10SM -RA SCT024 OVC100 03/01 A3055 RMK AO2 P0001=
200901092213 SPECI KBLI 092213Z 12011KT 10SM -RA SCT024 OVC100 03/01 A3055 RMK AO2 P0001=
200901092153 METAR KBLI 092153Z 14013KT 8SM -RA OVC022 03/01 A3056 RMK AO2 SLP359 P0001 T00330011=
200901092053 METAR KBLI 092053Z 16010KT 10SM -RA OVC023 04/00 A3058 RMK AO2 RAB36 SLP366 P0000 60000 T00440000 58002=
200901092046 SPECI KBLI 092046Z 16009G17KT 10SM -RA OVC025 04/00 A3059 RMK AO2 RAB36 P0000=
200901092046 SPECI KBLI 092046Z 16009G17KT 10SM -RA OVC025 04/00 A3059 RMK AO2 RAB36 P0000=
200901091953 METAR KBLI 091953Z 16010KT 10SM SCT039 SCT048 BKN060 05/00 A3059 RMK AO2 SLP367 T00500000=
200901091853 METAR KBLI 091853Z 18007KT 10SM FEW020 OVC041 04/00 A3059 RMK AO2 SLP368 T00390000=
200901091753 METAR KBLI 091753Z 18010KT 10SM BKN050 04/M01 A3059 RMK AO2 SLP368 T00391006 10044 20028 53007=
200901091653 METAR KBLI 091653Z 16010KT 10SM CLR 04/M01 A3056 RMK AO2 SLP357 T00391011=
200901091553 METAR KBLI 091553Z 15009KT 10SM CLR 03/M01 A3056 RMK AO2 SLP359 T00281011=
200901091531 SPECI KBLI 091531Z 15009KT 10SM FEW021 03/M01 A3057 RMK AO2=
200901091531 SPECI KBLI 091531Z 15009KT 10SM FEW021 03/M01 A3057 RMK AO2=
200901091501 SPECI KBLI 091501Z 15008KT 10SM BKN023 BKN050 03/00 A3057 RMK AO2=
200901091501 SPECI KBLI 091501Z 15008KT 10SM BKN023 BKN050 03/00 A3057 RMK AO2=
200901091453 METAR KBLI 091453Z 14008KT 10SM SCT023 OVC055 03/M01 A3057 RMK AO2 SLP361 T00331006 53010=
200901091353 METAR KBLI 091353Z AUTO 14006KT 10SM SCT036 OVC050 03/01 A3055 RMK AO2 SLP356 T00330006=
200901091337 SPECI KBLI 091337Z AUTO 14007KT 10SM SCT026 BKN037 OVC050 03/01 A3055 RMK AO2=
200901091337 SPECI KBLI 091337Z AUTO 14007KT 10SM SCT026 BKN037 OVC050 03/01 A3055 RMK AO2=
200901091325 SPECI KBLI 091325Z AUTO 13006KT 10SM BKN026 BKN033 OVC048 03/01 A3055 RMK AO2=
200901091325 SPECI KBLI 091325Z AUTO 13006KT 10SM BKN026 BKN033 OVC048 03/01 A3055 RMK AO2=
200901091317 SPECI KBLI 091317Z AUTO 13008KT 10SM SCT026 BKN033 OVC048 03/01 A3054 RMK AO2=
200901091317 SPECI KBLI 091317Z AUTO 13008KT 10SM SCT026 BKN033 OVC048 03/01 A3054 RMK AO2=
200901091305 SPECI KBLI 091305Z AUTO 14007KT 10SM BKN028 BKN033 OVC048 03/01 A3054 RMK AO2=
200901091305 SPECI KBLI 091305Z AUTO 14007KT 10SM BKN028 BKN033 OVC048 03/01 A3054 RMK AO2=
200901091253 METAR KBLI 091253Z AUTO 16006KT 10SM SCT030 BKN034 OVC046 03/01 A3054 RMK AO2 SLP351 T00330006=
200901091153 METAR KBLI 091153Z AUTO 14003KT 10SM OVC040 03/01 A3054 RMK AO2 SLP351 60000 70012 T00280006 10044 20022 51018=
200901091053 METAR KBLI 091053Z AUTO 19003KT 10SM FEW026 03/01 A3052 RMK AO2 SLP346 T00280006=
200901091051 SPECI KBLI 091051Z AUTO 19003KT 10SM SCT026 03/01 A3052 RMK AO2=
200901091051 SPECI KBLI 091051Z AUTO 19003KT 10SM SCT026 03/01 A3052 RMK AO2=
200901091011 SPECI KBLI 091011Z AUTO 14004KT 10SM BKN026 03/01 A3050 RMK AO2=
200901091011 SPECI KBLI 091011Z AUTO 14004KT 10SM BKN026 03/01 A3050 RMK AO2=
200901091002 SPECI KBLI 091002Z AUTO 16005KT 10SM SCT028 03/01 A3050 RMK AO2=
200901091002 SPECI KBLI 091002Z AUTO 16005KT 10SM SCT028 03/01 A3050 RMK AO2=
200901090953 METAR KBLI 090953Z AUTO 16006KT 10SM BKN026 03/01 A3049 RMK AO2 SLP333 T00330011=
200901090925 SPECI KBLI 090925Z AUTO 16004KT 10SM BKN019 OVC060 03/01 A3048 RMK AO2=
200901090925 SPECI KBLI 090925Z AUTO 16004KT 10SM BKN019 OVC060 03/01 A3048 RMK AO2=
200901090853 METAR KBLI 090853Z AUTO 12003KT 10SM SCT024 SCT040 OVC060 04/01 A3046 RMK AO2 SLP324 60000 T00390011 51023=
200901090850 SPECI KBLI 090850Z AUTO 12004KT 10SM SCT024 BKN040 OVC060 04/01 A3046 RMK AO2=
200901090850 SPECI KBLI 090850Z AUTO 12004KT 10SM SCT024 BKN040 OVC060 04/01 A3046 RMK AO2=
200901090753 METAR KBLI 090753Z AUTO 00000KT 10SM BKN024 OVC030 04/02 A3044 RMK AO2 SLP318 T00390017 400830033=
200901090653 METAR KBLI 090653Z AUTO 00000KT 10SM OVC021 04/03 A3039 RMK AO2 RAB07E18 SLP301 P0000 T00390028=
200901090553 METAR KBLI 090553Z 13004KT 10SM OVC028 04/02 A3035 RMK AO2 SLP285 T00440022 10056 20033 51042=
200901090505 SPECI KBLI 090505Z 00000KT 10SM OVC028 04/02 A3032 RMK AO2=
200901090505 SPECI KBLI 090505Z 00000KT 10SM OVC028 04/02 A3032 RMK AO2=
200901090453 METAR KBLI 090453Z 00000KT 10SM OVC030 03/01 A3032 RMK AO2 SLP275 T00330011=
200901090416 SPECI KBLI 090416Z 00000KT 10SM SCT027 OVC055 04/01 A3029 RMK AO2=
200901090416 SPECI KBLI 090416Z 00000KT 10SM SCT027 OVC055 04/01 A3029 RMK AO2=
200901090353 METAR KBLI 090353Z 28003KT 10SM OVC027 04/01 A3027 RMK AO2 SLP259 T00440011=
200901090253 METAR KBLI 090253Z 00000KT 10SM OVC023 05/02 A3022 RMK AO2 PRESRR SLP242 T00500017 53049=
200901090153 METAR KBLI 090153Z 00000KT 10SM OVC019 05/02 A3016 RMK AO2 SLP222 T00500017=
200901090053 METAR KBLI 090053Z 26004KT 10SM OVC027 05/02 A3012 RMK AO2 SLP207 T00500017=
200901090016 SPECI KBLI 090016Z 25004KT 10SM BKN022 BKN027 OVC039 06/02 A3009 RMK AO2=
200901090016 SPECI KBLI 090016Z 25004KT 10SM BKN022 BKN027 OVC039 06/02 A3009 RMK AO2=
200901082353 METAR KBLI 082353Z 00000KT 10SM SCT021 BKN041 OVC048 06/03 A3008 RMK AO2 RAB26E38 PRESRR SLP193 P0000 60009 T00560028 10078 20050 51062=
200901082253 METAR KBLI 082253Z VRB04KT 7SM SCT028 SCT040 OVC050 06/03 A3001 RMK AO2 RAE46 SLP171 P0002 T00560033=
200901082242 SPECI KBLI 082242Z VRB04KT 6SM -RA BR FEW016 BKN028 OVC048 05/03 A3000 RMK AO2 P0002=
200901082242 SPECI KBLI 082242Z VRB04KT 6SM -RA BR FEW016 BKN028 OVC048 05/03 A3000 RMK AO2 P0002=
200901082208 SPECI KBLI 082208Z VRB06G15KT 3SM -RA BR BKN010 BKN014 OVC025 06/04 A2998 RMK AO2 PRESRR P0001=
200901082208 SPECI KBLI 082208Z VRB06G15KT 3SM -RA BR BKN010 BKN014 OVC025 06/04 A2998 RMK AO2 PRESRR P0001=
200901082205 SPECI KBLI 082205Z VRB06G15KT 4SM -RA BR FEW008 BKN012 OVC025 06/04 A2998 RMK AO2 P0001=
200901082205 SPECI KBLI 082205Z VRB06G15KT 4SM -RA BR FEW008 BKN012 OVC025 06/04 A2998 RMK AO2 P0001=
200901082153 METAR KBLI 082153Z 26007G18KT 220V290 4SM -RA BR FEW010 BKN016 OVC028 06/04 A2996 RMK AO2 SLP154 P0002 T00560039=
200901082121 SPECI KBLI 082121Z 27007G16KT 10SM -RA FEW010 SCT015 OVC027 06/04 A2992 RMK AO2 P0001=
200901082121 SPECI KBLI 082121Z 27007G16KT 10SM -RA FEW010 SCT015 OVC027 06/04 A2992 RMK AO2 P0001=
200901082053 METAR KBLI 082053Z 27006KT 3SM -RA BR BKN013 OVC018 07/06 A2989 RMK AO2 RAB29 SLP130 P0003 60005 T00670056 51036=
200901081953 METAR KBLI 081953Z 17004KT 10SM BKN026 BKN031 OVC047 08/05 A2985 RMK AO2 RAB23E46 SLP117 P0000 T00780050=
200901081853 METAR KBLI 081853Z 17004KT 10SM OVC046 07/05 A2983 RMK AO2 RAE47 SLP108 P0002 T00720050=
200901081753 METAR KBLI 081753Z 19008KT 10SM -RA OVC046 07/05 A2979 RMK AO2 SLP094 P0002 60003 T00720050 10083 20072 53034=
200901081653 METAR KBLI 081653Z 17006KT 10SM -RA OVC050 07/05 A2975 RMK AO2 SLP083 P0001 T00720050=
200901081553 METAR KBLI 081553Z 18010G18KT 10SM -RA BKN070 OVC085 07/05 A2971 RMK AO2 RAB50 SLP070 P0000 T00720050=
200901081453 METAR KBLI 081453Z 17011G19KT 10SM FEW017 BKN075 OVC090 08/05 A2968 RMK AO2 SLP060 T00780050 51025=
200901081353 METAR KBLI 081353Z AUTO 17010KT 10SM SCT095 BKN120 08/06 A2966 RMK AO2 SLP051 T00780056=
200901081253 METAR KBLI 081253Z AUTO 16012KT 10SM SCT040 BKN048 BKN110 08/06 A2964 RMK AO2 SLP044 T00780061=
200901081153 METAR KBLI 081153Z AUTO 16007KT 10SM OVC050 08/07 A2961 RMK AO2 RAE40 SLP034 P0001 60033 70150 T00830067 10089 20067 51021=
200901081053 METAR KBLI 081053Z AUTO 16008KT 10SM -RA FEW001 BKN046 OVC060 08/07 A2960 RMK AO2 SLP031 P0004 T00780067=
200901081040 SPECI KBLI 081040Z AUTO 18005KT 3SM -RA BR FEW001 BKN034 OVC047 08/07 A2960 RMK AO2 P0003=
200901081040 SPECI KBLI 081040Z AUTO 18005KT 3SM -RA BR FEW001 BKN034 OVC047 08/07 A2960 RMK AO2 P0003=
200901081036 SPECI KBLI 081036Z AUTO 17005KT 1 1/2SM -RA BR FEW001 BKN034 OVC045 08/07 A2959 RMK AO2 P0003=
200901081036 SPECI KBLI 081036Z AUTO 17005KT 1 1/2SM -RA BR FEW001 BKN034 OVC045 08/07 A2959 RMK AO2 P0003=
200901081027 SPECI KBLI 081027Z AUTO 15003KT 3/4SM -RA BR FEW001 BKN040 OVC047 08/07 A2959 RMK AO2 P0003 RVRNO=
200901081027 SPECI KBLI 081027Z AUTO 15003KT 3/4SM -RA BR FEW001 BKN040 OVC047 08/07 A2959 RMK AO2 P0003 RVRNO=
200901081016 SPECI KBLI 081016Z AUTO 16004KT 1 3/4SM -RA BR SCT001 BKN031 OVC042 08/07 A2959 RMK AO2 P0002=
200901081016 SPECI KBLI 081016Z AUTO 16004KT 1 3/4SM -RA BR SCT001 BKN031 OVC042 08/07 A2959 RMK AO2 P0002=
200901081009 SPECI KBLI 081009Z AUTO 17004KT 4SM -RA BR SCT001 OVC042 08/07 A2959 RMK AO2 P0001=
200901081009 SPECI KBLI 081009Z AUTO 17004KT 4SM -RA BR SCT001 OVC042 08/07 A2959 RMK AO2 P0001=
200901080953 METAR KBLI 080953Z AUTO 00000KT 3SM -RA BR BKN001 OVC042 07/06 A2958 RMK AO2 SLP023 P0005 T00670056=
200901080903 SPECI KBLI 080903Z AUTO 00000KT 3SM -RA BR OVC001 07/06 A2955 RMK AO2 P0001=
200901080903 SPECI KBLI 080903Z AUTO 00000KT 3SM -RA BR OVC001 07/06 A2955 RMK AO2 P0001=
200901080853 METAR KBLI 080853Z AUTO 05003KT 2 1/2SM -RA BR OVC001 07/06 A2955 RMK AO2 SLP013 P0005 60023 T00670061 55003=
200901080843 SPECI KBLI 080843Z AUTO 01004KT 2SM RA BR OVC001 07/07 A2954 RMK AO2 P0005=
200901080843 SPECI KBLI 080843Z AUTO 01004KT 2SM RA BR OVC001 07/07 A2954 RMK AO2 P0005=
200901080753 METAR KBLI 080753Z AUTO 19004KT 5SM -RA BR BKN003 OVC035 08/08 A2954 RMK AO2 SLP009 P0008 T00830078 401000078=
200901080744 SPECI KBLI 080744Z AUTO 18004KT 6SM -RA BR BKN003 OVC037 08/08 A2954 RMK AO2 P0007=
200901080744 SPECI KBLI 080744Z AUTO 18004KT 6SM -RA BR BKN003 OVC037 08/08 A2954 RMK AO2 P0007=
200901080653 METAR KBLI 080653Z AUTO 17007KT 6SM RA BR OVC005 08/08 A2954 RMK AO2 SLP012 P0010 T00830078=
200901080553 METAR KBLI 080553Z 17006KT 6SM -RA BR OVC005 08/08 A2956 RMK AO2 CIG 005V009 SLP016 P0008 60055 T00830078 10094 20078 57018=
200901080453 METAR KBLI 080453Z 16004KT 5SM RA BR BKN007 OVC024 08/07 A2957 RMK AO2 CIG 005V011 SLP021 P0013 T00780072=
200901080353 METAR KBLI 080353Z 19003KT 5SM RA BR SCT012 BKN026 OVC043 09/08 A2959 RMK AO2 SLP029 P0010 T00890078=
200901080253 METAR KBLI 080253Z 14005KT 5SM RA BR FEW027 BKN035 OVC043 09/08 A2961 RMK AO2 SLP034 P0010 60024 T00890078 56019=
200901080153 METAR KBLI 080153Z 15007KT 7SM -RA BKN039 OVC050 09/08 A2962 RMK AO2 SLP039 P0007 T00890078=
200901080053 METAR KBLI 080053Z 15009KT 6SM -RA BR FEW010 SCT038 OVC050 09/08 A2965 RMK AO2 SLP047 P0007 T00940083=
200901080042 SPECI KBLI 080042Z 15008KT 6SM -RA BR FEW010 SCT025 OVC050 09/08 A2965 RMK AO2 P0005=
200901080042 SPECI KBLI 080042Z 15008KT 6SM -RA BR FEW010 SCT025 OVC050 09/08 A2965 RMK AO2 P0005=
200901080033 SPECI KBLI 080033Z 15006KT 6SM -RA BR SCT010 BKN025 OVC050 09/08 A2966 RMK AO2 P0004=
200901080033 SPECI KBLI 080033Z 15006KT 6SM -RA BR SCT010 BKN025 OVC050 09/08 A2966 RMK AO2 P0004=
200901072353 METAR KBLI 072353Z 15007KT 5SM -RA BR FEW024 BKN041 OVC055 09/08 A2966 RMK AO2 SLP053 P0006 60032 T00940083 10100 20089 58010=
200901072343 SPECI KBLI 072343Z 15007KT 5SM -RA BR FEW024 BKN043 OVC055 09/08 A2966 RMK AO2 P0005=
200901072343 SPECI KBLI 072343Z 15007KT 5SM -RA BR FEW024 BKN043 OVC055 09/08 A2966 RMK AO2 P0005=
200901072253 METAR KBLI 072253Z 17007KT 5SM -RA BR OVC018 09/08 A2968 RMK AO2 SLP057 P0004 T00890078=
200901072153 METAR KBLI 072153Z 16011G17KT 7SM -RA BKN016 OVC022 10/08 A2969 RMK AO2 SLP059 P0002 T01000083=
200901072053 METAR KBLI 072053Z 16014KT 7SM -RA BKN017 BKN026 OVC050 09/08 A2969 RMK AO2 SLP063 P0008 60020 T00940083 50003=
200901071953 METAR KBLI 071953Z 16015G21KT 3SM RA BR FEW015 BKN020 OVC027 09/08 A2970 RMK AO2 PK WND 17026/1915 SLP065 P0007 T00940083=
200901071853 METAR KBLI 071853Z 16013G18KT 4SM RA BR BKN019 OVC025 09/08 A2970 RMK AO2 SLP064 P0005 T00940083=
200901071806 SPECI KBLI 071806Z 17010G17KT 9SM -RA FEW005 OVC015 09/08 A2969 RMK AO2 P0001=
200901071806 SPECI KBLI 071806Z 17010G17KT 9SM -RA FEW005 OVC015 09/08 A2969 RMK AO2 P0001=
200901071753 METAR KBLI 071753Z 17012G21KT 8SM -RA BKN015 OVC025 09/08 A2968 RMK AO2 SLP060 P0005 60030 T00890078 10100 20089 53006=
200901071653 METAR KBLI 071653Z 17011KT 10SM -RA OVC019 10/08 A2967 RMK AO2 SLP055 P0001 T01000078=
200901071553 METAR KBLI 071553Z 17010KT 10SM -RA BKN017 OVC022 10/08 A2967 RMK AO2 SLP055 P0001 T01000078=
200901071453 METAR KBLI 071453Z 17013G20KT 10SM -RA BKN015 BKN022 OVC055 09/08 A2967 RMK AO2 SLP053 P0004 60023 T00890078 55001=
200901071407 SPECI KBLI 071407Z AUTO 17012G19KT 6SM -RA BR FEW008 BKN017 OVC024 09/08 A2966 RMK AO2 P0002=
200901071407 SPECI KBLI 071407Z AUTO 17012G19KT 6SM -RA BR FEW008 BKN017 OVC024 09/08 A2966 RMK AO2 P0002=
200901071353 METAR KBLI 071353Z AUTO 17012KT 5SM RA BR BKN016 BKN023 OVC055 09/08 A2966 RMK AO2 SLP052 P0010 T00890078=
200901071331 SPECI KBLI 071331Z AUTO 17011G20KT 5SM RA BR SCT016 BKN023 OVC055 09/08 A2967 RMK AO2 P0006=
200901071331 SPECI KBLI 071331Z AUTO 17011G20KT 5SM RA BR SCT016 BKN023 OVC055 09/08 A2967 RMK AO2 P0006=
200901071324 SPECI KBLI 071324Z AUTO 17012G20KT 6SM RA BR SCT016 BKN055 OVC070 09/08 A2966 RMK AO2 P0004=
200901071324 SPECI KBLI 071324Z AUTO 17012G20KT 6SM RA BR SCT016 BKN055 OVC070 09/08 A2966 RMK AO2 P0004=
200901071253 METAR KBLI 071253Z AUTO 17012G19KT 6SM RA BR BKN016 BKN022 OVC036 09/08 A2966 RMK AO2 SLP050 P0009 T00890078=
200901071153 METAR KBLI 071153Z 17013G23KT 8SM -RA OVC016 09/08 A2967 RMK AO2 SLP054 P0006 60042 70156 T00940078 10100 20094 50006=
200901071053 METAR KBLI 071053Z 17014G24KT 10SM -RA OVC016 09/08 A2967 RMK AO2 SLP055 P0004 T00940078=
200901070953 METAR KBLI 070953Z 17016G22KT 10SM -RA BKN018 OVC023 10/08 A2965 RMK AO2 PK WND 16026/0926 SLP048 P0000 T01000078=
200901070853 METAR KBLI 070853Z 17013G22KT 10SM -RA OVC021 09/08 A2965 RMK AO2 SLP047 P0001 60032 T00940078 58003=
200901070753 METAR KBLI 070753Z 16011G18KT 10SM -RA OVC017 09/08 A2965 RMK AO2 SLP048 P0003 T00940078 401000044=
200901070653 METAR KBLI 070653Z 18013G22KT 4SM +RA BR BKN017 OVC024 09/08 A2966 RMK AO2 SLP052 P0028 T00940078=
200901070553 METAR KBLI 070553Z 17010G19KT 4SM RA BR SCT017 BKN021 OVC029 10/08 A2966 RMK AO2 SLP050 P0018 60049 T01000083 10100 20089 52003=
200901070453 METAR KBLI 070453Z 18013G22KT 7SM RA OVC016 10/08 A2966 RMK AO2 PK WND 20026/0439 SLP050 P0008 T01000083=
200901070415 SPECI KBLI 070415Z 19009G18KT 10SM -RA OVC016 10/08 A2965 RMK AO2 P0000=
200901070415 SPECI KBLI 070415Z 19009G18KT 10SM -RA OVC016 10/08 A2965 RMK AO2 P0000=
200901070401 SPECI KBLI 070401Z 18014G23KT 10SM -RA OVC014 10/08 A2964 RMK AO2 P0000=
200901070401 SPECI KBLI 070401Z 18014G23KT 10SM -RA OVC014 10/08 A2964 RMK AO2 P0000=
200901070353 METAR KBLI 070353Z 17015G23KT 10SM -RA OVC016 10/08 A2965 RMK AO2 SLP047 P0006 T01000078=
200901070253 METAR KBLI 070253Z 18011G21KT 7SM -RA OVC013 09/08 A2963 RMK AO2 SLP040 P0006 60017 T00940078 58008=
200901070240 SPECI KBLI 070240Z 17013G22KT 9SM -RA OVC013 09/08 A2963 RMK AO2 P0004=
200901070240 SPECI KBLI 070240Z 17013G22KT 9SM -RA OVC013 09/08 A2963 RMK AO2 P0004=
200901070153 METAR KBLI 070153Z 18011G21KT 4SM RA BR SCT013 BKN019 OVC025 09/08 A2964 RMK AO2 PK WND 17028/0114 SLP044 P0008 T00890078=
200901070053 METAR KBLI 070053Z 16015G23KT 7SM -RA SCT013 BKN020 OVC024 09/08 A2964 RMK AO2 PK WND 18033/0002 RAB2354 SLP046 P0003 T00890078=
200901062353 METAR KBLI 062353Z 17015G27KT 10SM BKN022 OVC026 09/07 A2965 RMK AO2 PK WND 17028/2327 RAE11 SLP048 P0000 60038 T00940067 10100 20056 56024=
200901062253 METAR KBLI 062253Z 17017G22KT 10SM -RA FEW019 OVC026 09/07 A2967 RMK AO2 SLP055 P0003 T00890067=
200901062153 METAR KBLI 062153Z 16009KT 10SM -RA OVC020 08/06 A2968 RMK AO2 SLP060 P0000 T00780056=
200901062053 METAR KBLI 062053Z 15009KT 3SM -RA BR OVC018 07/06 A2972 RMK AO2 SLP072 P0013 60035 T00720056 58023=
200901061953 METAR KBLI 061953Z 15009KT 4SM RA BR FEW016 BKN021 OVC029 07/05 A2975 RMK AO2 SLP083 P0012 T00670050=
200901061853 METAR KBLI 061853Z 16008KT 6SM -RA BR SCT019 BKN024 OVC034 07/04 A2978 RMK AO2 SLP091 P0010 T00670044=
200901061753 METAR KBLI 061753Z 13008KT 4SM RA BR BKN020 BKN028 OVC036 06/04 A2979 RMK AO2 SLP095 P0011 60027 T00560039 10056 20044 56015=
200901061653 METAR KBLI 061653Z 14010KT 7SM -RA BKN020 OVC033 06/03 A2980 RMK AO2 SLP100 P0006 T00560033=
200901061553 METAR KBLI 061553Z 13008KT 9SM -RA FEW027 OVC033 06/03 A2982 RMK AO2 SLP106 P0005 T00560033=
200901061516 SPECI KBLI 061516Z 13012KT 8SM -RA SCT026 OVC031 06/03 A2983 RMK AO2 P0001=
200901061516 SPECI KBLI 061516Z 13012KT 8SM -RA SCT026 OVC031 06/03 A2983 RMK AO2 P0001=
200901061509 SPECI KBLI 061509Z 14012KT 9SM -RA OVC029 06/04 A2983 RMK AO2 P0001=
200901061509 SPECI KBLI 061509Z 14012KT 9SM -RA OVC029 06/04 A2983 RMK AO2 P0001=
200901061453 METAR KBLI 061453Z 14012KT 10SM -RA SCT025 OVC036 06/03 A2983 RMK AO2 SLP110 P0002 60005 T00560033 56027=
200901061353 METAR KBLI 061353Z AUTO 12004KT 10SM -RA SCT022 BKN039 OVC049 05/03 A2986 RMK AO2 SLP121 P0001 T00500033=
200901061253 METAR KBLI 061253Z AUTO 15003KT 8SM -RA OVC034 04/04 A2988 RMK AO2 SLP126 P0002 T00440039=
200901061200 SPECI KBLI 061200Z AUTO 16004KT 10SM -RA SCT027 BKN042 OVC055 04/04 A2991 RMK AO2 P0000=
200901061200 SPECI KBLI 061200Z AUTO 16004KT 10SM -RA SCT027 BKN042 OVC055 04/04 A2991 RMK AO2 P0000=
200901061153 METAR KBLI 061153Z AUTO 16004KT 10SM -RA BKN027 BKN040 OVC055 04/04 A2991 RMK AO2 SLP138 P0001 60009 70017 T00440039 10061 20044 56009=
200901061145 SPECI KBLI 061145Z AUTO 16004KT 10SM -RA BKN027 OVC044 05/04 A2991 RMK AO2 P0001=
200901061145 SPECI KBLI 061145Z AUTO 16004KT 10SM -RA BKN027 OVC044 05/04 A2991 RMK AO2 P0001=
200901061053 METAR KBLI 061053Z AUTO 18003KT 10SM -RA OVC065 04/04 A2992 RMK AO2 SLP139 P0000 T00440039=
200901060953 METAR KBLI 060953Z AUTO 17006KT 10SM -RA SCT016 OVC045 05/04 A2993 RMK AO2 SLP145 P0002 T00500039=
200901060853 METAR KBLI 060853Z AUTO 17004KT 10SM -RA BKN020 OVC027 05/04 A2994 RMK AO2 SLP148 P0004 60006 T00500044 58001=
200901060804 SPECI KBLI 060804Z AUTO 16005KT 7SM -RA BKN020 OVC031 06/04 A2996 RMK AO2 P0001=
200901060804 SPECI KBLI 060804Z AUTO 16005KT 7SM -RA BKN020 OVC031 06/04 A2996 RMK AO2 P0001=
200901060753 METAR KBLI 060753Z AUTO 17007KT 8SM -RA SCT018 OVC031 06/04 A2995 RMK AO2 RAE0659B22 SLP151 P0002 T00560039 400670006=
200901060653 METAR KBLI 060653Z AUTO 17008KT 10SM -RA BKN040 OVC060 06/04 A2995 RMK AO2 RAB46 SLP151 P0000 T00560039=
200901060553 METAR KBLI 060553Z 17009KT 10SM BKN048 OVC095 06/04 A2994 RMK AO2 SLP149 T00610044 10067 20056 51010=
200901060453 METAR KBLI 060453Z 17008KT 10SM BKN047 BKN085 BKN120 06/04 A2994 RMK AO2 SLP148 T00560044=
200901060353 METAR KBLI 060353Z 16008KT 10SM OVC040 06/04 A2992 RMK AO2 SLP142 T00610044=
200901060253 METAR KBLI 060253Z 17011KT 10SM FEW013 OVC042 06/04 A2991 RMK AO2 SLP139 T00610044 51016=
200901060153 METAR KBLI 060153Z 17011KT 10SM FEW028 OVC042 06/04 A2990 RMK AO2 SLP134 T00610044=
200901060053 METAR KBLI 060053Z 16010KT 10SM SCT042 OVC050 06/04 A2989 RMK AO2 SLP131 T00610044=
200901052353 METAR KBLI 052353Z 17007KT 10SM FEW015 OVC055 06/06 A2987 RMK AO2 SLP123 T00610056 10067 20017 51016=
200901052253 METAR KBLI 052253Z 17008KT 10SM BKN015 OVC034 07/06 A2985 RMK AO2 SLP117 T00670056=
200901052153 METAR KBLI 052153Z 00000KT 10SM OVC015 06/06 A2985 RMK AO2 SLP116 T00610061=
200901052053 METAR KBLI 052053Z VRB03KT 10SM OVC017 06/05 A2982 RMK AO2 SLP107 T00560050 53021=
200901051953 METAR KBLI 051953Z 00000KT 7SM BKN020 OVC032 04/04 A2980 RMK AO2 SLP099 T00440044=
200901051903 SPECI KBLI 051903Z 00000KT 5SM BR FEW002 BKN016 OVC030 03/03 A2977 RMK AO2 PRESRR $=
200901051903 SPECI KBLI 051903Z 00000KT 5SM BR FEW002 BKN016 OVC030 03/03 A2977 RMK AO2 PRESRR $=
200901051853 METAR KBLI 051853Z 00000KT 6SM BR FEW016 OVC030 03/03 A2976 RMK AO2 SLP086 T00330033 $=
200901051811 SPECI KBLI 051811Z 03004KT 4SM BR FEW016 BKN022 OVC032 02/02 A2973 RMK AO2=
200901051811 SPECI KBLI 051811Z 03004KT 4SM BR FEW016 BKN022 OVC032 02/02 A2973 RMK AO2=
200901051804 SPECI KBLI 051804Z 00000KT 4SM BR FEW012 SCT022 OVC032 02/02 A2974 RMK AO2=
200901051804 SPECI KBLI 051804Z 00000KT 4SM BR FEW012 SCT022 OVC032 02/02 A2974 RMK AO2=
200901051753 METAR KBLI 051753Z 00000KT 4SM BR FEW010 BKN022 OVC034 02/02 A2973 RMK AO2 SLP076 60008 T00170017 10017 20006 51029=
200901051749 SPECI KBLI 051749Z 00000KT 4SM BR SCT010 BKN016 OVC034 02/02 A2973 RMK AO2=
200901051749 SPECI KBLI 051749Z 00000KT 4SM BR SCT010 BKN016 OVC034 02/02 A2973 RMK AO2=
200901051735 SPECI KBLI 051735Z 00000KT 4SM BR BKN010 OVC016 02/02 A2973 RMK AO2 CIG 008V014=
200901051735 SPECI KBLI 051735Z 00000KT 4SM BR BKN010 OVC016 02/02 A2973 RMK AO2 CIG 008V014=
200901051653 METAR KBLI 051653Z 00000KT 4SM BR SCT003 OVC008 01/01 A2969 RMK AO2 PRESRR SLP064 T00110011=
200901051638 SPECI KBLI 051638Z 01004KT 4SM BR SCT003 BKN008 OVC013 01/01 A2967 RMK AO2=
200901051638 SPECI KBLI 051638Z 01004KT 4SM BR SCT003 BKN008 OVC013 01/01 A2967 RMK AO2=
200901051614 SPECI KBLI 051614Z 35004KT 5SM BR BKN003 OVC008 01/01 A2966 RMK AO2 CIG 002V006=
200901051614 SPECI KBLI 051614Z 35004KT 5SM BR BKN003 OVC008 01/01 A2966 RMK AO2 CIG 002V006=
200901051553 METAR KBLI 051553Z 00000KT 5SM BR OVC005 01/01 A2964 RMK AO2 CIG 001V009 SLP047 T00110011=
200901051512 SPECI KBLI 051512Z 00000KT 3SM BR FEW002 OVC007 01/01 A2962 RMK AO2=
200901051512 SPECI KBLI 051512Z 00000KT 3SM BR FEW002 OVC007 01/01 A2962 RMK AO2=
200901051453 METAR KBLI 051453Z AUTO 00000KT 2SM BR SCT002 OVC007 01/01 A2961 RMK AO2 RAE10UPB10E44 SLP036 P0001 60008 T00110011 53035=
200901051438 SPECI KBLI 051438Z AUTO 02003KT 2SM UP BR FEW002 OVC009 01/01 A2960 RMK AO2 RAE10UPB10 P0001=
200901051438 SPECI KBLI 051438Z AUTO 02003KT 2SM UP BR FEW002 OVC009 01/01 A2960 RMK AO2 RAE10UPB10 P0001=
200901051429 SPECI KBLI 051429Z AUTO 36003KT 3SM UP BR FEW002 OVC009 01/01 A2960 RMK AO2 RAE10UPB10 P0001=
200901051429 SPECI KBLI 051429Z AUTO 36003KT 3SM UP BR FEW002 OVC009 01/01 A2960 RMK AO2 RAE10UPB10 P0001=
200901051422 SPECI KBLI 051422Z AUTO 36003KT 2 1/2SM UP BR OVC009 01/01 A2959 RMK AO2 RAE10UPB10 P0000=
200901051422 SPECI KBLI 051422Z AUTO 36003KT 2 1/2SM UP BR OVC009 01/01 A2959 RMK AO2 RAE10UPB10 P0000=
200901051353 METAR KBLI 051353Z AUTO 01005KT 6SM -RA BR FEW002 OVC009 01/01 A2957 RMK AO2 SLP022 P0003 T00060006=
200901051320 SPECI KBLI 051320Z AUTO 01004KT 5SM -RA BR SCT002 OVC014 01/01 A2955 RMK AO2 P0001=
200901051320 SPECI KBLI 051320Z AUTO 01004KT 5SM -RA BR SCT002 OVC014 01/01 A2955 RMK AO2 P0001=
200901051301 SPECI KBLI 051301Z AUTO 02003KT 6SM -RA BR SCT002 OVC016 01/01 A2953 RMK AO2 P0001=
200901051301 SPECI KBLI 051301Z AUTO 02003KT 6SM -RA BR SCT002 OVC016 01/01 A2953 RMK AO2 P0001=
200901051253 METAR KBLI 051253Z AUTO 02004KT 5SM -RA BR BKN002 OVC016 01/01 A2953 RMK AO2 SLP007 P0004 T00060006=
200901051234 SPECI KBLI 051234Z AUTO 36006KT 5SM -RA BR BKN002 OVC016 01/01 A2952 RMK AO2 P0003=
200901051234 SPECI KBLI 051234Z AUTO 36006KT 5SM -RA BR BKN002 OVC016 01/01 A2952 RMK AO2 P0003=
200901051205 SPECI KBLI 051205Z AUTO 35004KT 4SM -RA BR FEW005 BKN014 OVC019 01/01 A2951 RMK AO2 P0002=
200901051205 SPECI KBLI 051205Z AUTO 35004KT 4SM -RA BR FEW005 BKN014 OVC019 01/01 A2951 RMK AO2 P0002=
200901051153 METAR KBLI 051153Z AUTO 36004KT 2 1/2SM -RA BR FEW005 BKN010 OVC016 01/01 A2951 RMK AO2 CIG 009V012 SLP001 P0005 60015 70028 T00060006 10039 20006 53009=
200901051133 SPECI KBLI 051133Z AUTO 35003KT 2 1/2SM -RA BR FEW009 BKN014 OVC023 01/01 A2951 RMK AO2 P0003=
200901051133 SPECI KBLI 051133Z AUTO 35003KT 2 1/2SM -RA BR FEW009 BKN014 OVC023 01/01 A2951 RMK AO2 P0003=
200901051122 SPECI KBLI 051122Z AUTO 33005KT 2 1/2SM -RA BR BKN018 OVC025 01/01 A2950 RMK AO2 P0002=
200901051122 SPECI KBLI 051122Z AUTO 33005KT 2 1/2SM -RA BR BKN018 OVC025 01/01 A2950 RMK AO2 P0002=
200901051053 METAR KBLI 051053Z AUTO 05004KT 4SM -RA BR BKN020 OVC028 01/01 A2949 RMK AO2 SLP994 P0001 T00110011=
200901050953 METAR KBLI 050953Z AUTO 11004KT 10SM -RA BKN021 BKN025 OVC032 03/02 A2947 RMK AO2 SLP989 P0007 T00330022=
200901050853 METAR KBLI 050853Z AUTO 14010KT 10SM -RA BKN024 OVC031 04/01 A2948 RMK AO2 RAB49 SLP991 P0001 60002 T00390006 58016=
200901050753 METAR KBLI 050753Z AUTO 12010G17KT 10SM OVC022 03/01 A2950 RMK AO2 RAB02E08FZRAE25 SLP998 P0000 T00280006 400561011=
200901050731 SPECI KBLI 050731Z AUTO 14009KT 10SM BKN022 OVC028 03/01 A2951 RMK AO2 RAB02E08FZRAE25 P0000=
200901050731 SPECI KBLI 050731Z AUTO 14009KT 10SM BKN022 OVC028 03/01 A2951 RMK AO2 RAB02E08FZRAE25 P0000=
200901050653 METAR KBLI 050653Z AUTO 13009KT 10SM -FZRA FEW016 BKN024 OVC033 02/00 A2953 RMK AO2 RAE34FZRAB28 SLP009 P0001 T00220000=
200901050640 SPECI KBLI 050640Z AUTO 13009KT 10SM -FZRA SCT018 BKN023 OVC033 02/00 A2953 RMK AO2 RAE34FZRAB28 P0001=
200901050640 SPECI KBLI 050640Z AUTO 13009KT 10SM -FZRA SCT018 BKN023 OVC033 02/00 A2953 RMK AO2 RAE34FZRAB28 P0001=
200901050553 METAR KBLI 050553Z 14013G23KT 7SM -RA BKN018 OVC023 03/00 A2953 RMK AO2 PK WND 15027/0500 RAB0455FZRAE0455 SLP007 P0002 60013 T00280000 10028 20011 56035=
200901050455 SPECI KBLI 050455Z 15015G23KT 5SM -RA BR BKN023 OVC031 02/00 A2956 RMK AO2 RAB55FZRAE55 P0000=
200901050455 SPECI KBLI 050455Z 15015G23KT 5SM -RA BR BKN023 OVC031 02/00 A2956 RMK AO2 RAB55FZRAE55 P0000=
200901050453 METAR KBLI 050453Z 15016G23KT 5SM -FZRA BR BKN020 OVC027 02/00 A2956 RMK AO2 RAB07E53FZRAE07B53SNB07E49 SLP018 P0001 T00220000=
200901050412 SPECI KBLI 050412Z 15013G22KT 9SM -SNRA BKN020 OVC025 02/00 A2959 RMK AO2 RAB07FZRAE07SNB07 P0000=
200901050412 SPECI KBLI 050412Z 15013G22KT 9SM -SNRA BKN020 OVC025 02/00 A2959 RMK AO2 RAB07FZRAE07SNB07 P0000=
200901050353 METAR KBLI 050353Z 15016G28KT 8SM -FZRA BKN015 OVC022 02/00 A2960 RMK AO2 PK WND 13028/0351 RAE53FZRAB53SNB0256E49 SLP033 P0004 T00220000=
200901050259 SPECI KBLI 050259Z 13019G24KT 8SM -SNRA BKN015 OVC021 02/00 A2962 RMK AO2 SNB56 P0000=
200901050259 SPECI KBLI 050259Z 13019G24KT 8SM -SNRA BKN015 OVC021 02/00 A2962 RMK AO2 SNB56 P0000=
200901050253 METAR KBLI 050253Z 14016G31KT 8SM -RA BKN014 OVC023 02/00 A2963 RMK AO2 PK WND 14031/0244 RAB00FZRAB07E22SNE00 SLP043 P0004 60006 T00220000 56039=
200901050225 SPECI KBLI 050225Z 14015G26KT 6SM -RA BR BKN014 OVC021 02/M01 A2963 RMK AO2 PK WND 14029/0204 RAB00FZRAB07E22SNE00 P0002=
200901050225 SPECI KBLI 050225Z 14015G26KT 6SM -RA BR BKN014 OVC021 02/M01 A2963 RMK AO2 PK WND 14029/0204 RAB00FZRAB07E22SNE00 P0002=
200901050213 SPECI KBLI 050213Z 14017G29KT 5SM -FZRA BR BKN016 OVC021 02/M01 A2963 RMK AO2 PK WND 14029/0204 RAB00E07FZRAB07SNE00 P0001=
200901050213 SPECI KBLI 050213Z 14017G29KT 5SM -FZRA BR BKN016 OVC021 02/M01 A2963 RMK AO2 PK WND 14029/0204 RAB00E07FZRAB07SNE00 P0001=
200901050153 METAR KBLI 050153Z 14014G24KT 6SM -SN BR BKN016 OVC022 02/M01 A2964 RMK AO2 PK WND 14031/0110 SLP045 P0002 T00171006=
200901050101 SPECI KBLI 050101Z 14020G31KT 5SM -SN BKN023 OVC029 02/M01 A2965 RMK AO2 PK WND 15028/0055 P0000=
200901050101 SPECI KBLI 050101Z 14020G31KT 5SM -SN BKN023 OVC029 02/M01 A2965 RMK AO2 PK WND 15028/0055 P0000=
200901050053 METAR KBLI 050053Z 14022G33KT 6SM -SN FEW018 SCT024 OVC032 02/M01 A2966 RMK AO2 PK WND 13043/0036 RAB14E35UPB35E38SNB38 PRESFR SLP053 P0000 T00221011=
200901042353 METAR KBLI 042353Z 13027G38KT 10SM OVC070 03/M02 A2975 RMK AO2 PK WND 14039/2329 SLP082 T00281017 10056 20006 58045=
200901042253 METAR KBLI 042253Z 15016G27KT 10SM SCT043 OVC055 06/M06 A2979 RMK AO2 PK WND 15032/2231 WSHFT 2221 SLP096 T00561056=
200901042241 SPECI KBLI 042241Z 15017G31KT 10SM OVC055 06/M06 A2980 RMK AO2 PK WND 15032/2231 WSHFT 2221=
200901042241 SPECI KBLI 042241Z 15017G31KT 10SM OVC055 06/M06 A2980 RMK AO2 PK WND 15032/2231 WSHFT 2221=
200901042153 METAR KBLI 042153Z 00000KT 10SM OVC055 01/M02 A2986 RMK AO2 SLP119 T00061022=
200901042053 METAR KBLI 042053Z 36007KT 10SM OVC055 01/M02 A2988 RMK AO2 PRESFR SLP127 T00061022 58051=
200901041953 METAR KBLI 041953Z 36004KT 10SM SCT080 01/M02 A2996 RMK AO2 SLP153 T00061022=
200901041853 METAR KBLI 041853Z 26003KT 10SM BKN110 02/M02 A3000 RMK AO2 SLP167 T00171017=
200901041753 METAR KBLI 041753Z 04003KT 10SM CLR 01/M02 A3003 RMK AO2 SLP179 T00061017 10039 21011 58023=
200901041653 METAR KBLI 041653Z 03005KT 10SM CLR M01/M03 A3007 RMK AO2 SLP191 T10111028=
200901041553 METAR KBLI 041553Z 36005KT 10SM CLR M01/M03 A3007 RMK AO2 SLP194 T10111028=
200901041453 METAR KBLI 041453Z 35004KT 10SM OVC080 M01/M02 A3010 RMK AO2 SLP204 T10061022 56021=
200901041353 METAR KBLI 041353Z AUTO 14008KT 10SM FEW033 OVC075 04/M02 A3011 RMK AO2 SLP206 T00391017=
200901041253 METAR KBLI 041253Z AUTO 00000KT 10SM FEW033 OVC075 M01/M03 A3014 RMK AO2 SLP215 T10061028=
200901041153 METAR KBLI 041153Z AUTO 14007KT 10SM SCT029 OVC080 03/M01 A3016 RMK AO2 SLP224 60000 T00331011 10033 20022 58010=
200901041123 SPECI KBLI 041123Z AUTO 13005KT 10SM SCT027 OVC075 03/M01 A3017 RMK AO2=
200901041123 SPECI KBLI 041123Z AUTO 13005KT 10SM SCT027 OVC075 03/M01 A3017 RMK AO2=
200901041053 METAR KBLI 041053Z AUTO 15011KT 10SM BKN025 OVC075 03/M01 A3018 RMK AO2 SLP231 T00331011=
200901041017 SPECI KBLI 041017Z AUTO 15009KT 10SM SCT023 BKN080 OVC095 03/M01 A3019 RMK AO2=
200901041017 SPECI KBLI 041017Z AUTO 15009KT 10SM SCT023 BKN080 OVC095 03/M01 A3019 RMK AO2=
200901040953 METAR KBLI 040953Z AUTO 14011KT 10SM OVC023 03/M01 A3019 RMK AO2 SLP233 T00281011=
200901040940 SPECI KBLI 040940Z AUTO 13012KT 10SM BKN023 OVC060 03/M01 A3019 RMK AO2=
200901040940 SPECI KBLI 040940Z AUTO 13012KT 10SM BKN023 OVC060 03/M01 A3019 RMK AO2=
200901040853 METAR KBLI 040853Z AUTO 15011KT 10SM SCT023 BKN080 OVC095 03/M01 A3020 RMK AO2 RAE03 SLP234 P0000 60000 T00281011 55001=
200901040848 SPECI KBLI 040848Z AUTO 14013KT 10SM SCT023 BKN080 OVC095 03/M01 A3019 RMK AO2 RAE03 P0000=
200901040848 SPECI KBLI 040848Z AUTO 14013KT 10SM SCT023 BKN080 OVC095 03/M01 A3019 RMK AO2 RAE03 P0000=
200901040753 METAR KBLI 040753Z AUTO 15010G17KT 10SM -RA OVC023 03/M01 A3020 RMK AO2 RAB51 SLP234 P0000 T00331011 400331033=
200901040653 METAR KBLI 040653Z AUTO 14010KT 10SM BKN023 OVC060 02/M01 A3020 RMK AO2 SLP236 T00221006=
200901040650 SPECI KBLI 040650Z AUTO 14012KT 10SM SCT023 OVC055 02/M01 A3020 RMK AO2=
200901040650 SPECI KBLI 040650Z AUTO 14012KT 10SM SCT023 OVC055 02/M01 A3020 RMK AO2=
200901040640 SPECI KBLI 040640Z AUTO 14012KT 10SM BKN021 OVC055 02/M01 A3020 RMK AO2=
200901040640 SPECI KBLI 040640Z AUTO 14012KT 10SM BKN021 OVC055 02/M01 A3020 RMK AO2=
200901040553 METAR KBLI 040553Z 15009G18KT 10SM SCT019 BKN055 BKN080 02/M01 A3020 RMK AO2 RAB0456E05B30E50UPB47E49 SLP236 P0000 60000 T00221006 10033 20017 58001=
200901040453 METAR KBLI 040453Z 15012G17KT 10SM OVC021 03/M01 A3020 RMK AO2 RAB43E52 SLP237 P0000 T00281006=
200901040353 METAR KBLI 040353Z 15012KT 10SM BKN021 OVC055 03/M01 A3020 RMK AO2 RAB0258E14 SLP238 P0000 T00331006=
200901040329 SPECI KBLI 040329Z 15011KT 10SM FEW021 BKN047 OVC055 03/M01 A3019 RMK AO2 RAB0258E14 P0000=
200901040329 SPECI KBLI 040329Z 15011KT 10SM FEW021 BKN047 OVC055 03/M01 A3019 RMK AO2 RAB0258E14 P0000=
200901040304 SPECI KBLI 040304Z 14010KT 10SM -RA BKN023 OVC046 03/M01 A3019 RMK AO2 RAB0258 P0000=
200901040304 SPECI KBLI 040304Z 14010KT 10SM -RA BKN023 OVC046 03/M01 A3019 RMK AO2 RAB0258 P0000=
200901040253 METAR KBLI 040253Z 14010KT 10SM FEW021 SCT031 OVC048 03/M01 A3019 RMK AO2 SLP233 T00281006 51001=
200901040153 METAR KBLI 040153Z 13011KT 10SM OVC050 02/M01 A3019 RMK AO2 SLP232 T00221011=
200901040053 METAR KBLI 040053Z 13008KT 10SM FEW035 OVC048 02/M01 A3019 RMK AO2 SLP234 T00221011=
200901040018 SPECI KBLI 040018Z 14008KT 10SM SCT023 BKN031 OVC050 03/M01 A3019 RMK AO2=
200901040018 SPECI KBLI 040018Z 14008KT 10SM SCT023 BKN031 OVC050 03/M01 A3019 RMK AO2=
200901040006 SPECI KBLI 040006Z 15007KT 10SM BKN023 OVC033 03/M01 A3019 RMK AO2=
200901040006 SPECI KBLI 040006Z 15007KT 10SM BKN023 OVC033 03/M01 A3019 RMK AO2=
200901032353 METAR KBLI 032353Z 13004KT 10SM SCT023 BKN033 OVC055 03/M02 A3018 RMK AO2 SNB2254E09 SLP232 P0000 60000 T00281017 10028 21017 53001=
200901032253 METAR KBLI 032253Z 14009KT 10SM SCT023 OVC055 02/M02 A3018 RMK AO2 SLP230 T00221017=
200901032219 SPECI KBLI 032219Z 13007KT 10SM BKN023 BKN033 OVC050 02/M02 A3018 RMK AO2=
200901032219 SPECI KBLI 032219Z 13007KT 10SM BKN023 BKN033 OVC050 02/M02 A3018 RMK AO2=
200901032153 METAR KBLI 032153Z 13008KT 10SM FEW023 OVC049 03/M02 A3018 RMK AO2 SLP228 T00281017=
200901032101 SPECI KBLI 032101Z 32003KT 10SM SCT026 BKN030 OVC055 01/M03 A3018 RMK AO2=
200901032101 SPECI KBLI 032101Z 32003KT 10SM SCT026 BKN030 OVC055 01/M03 A3018 RMK AO2=
200901032053 METAR KBLI 032053Z 31004KT 10SM BKN026 BKN030 OVC055 00/M03 A3018 RMK AO2 SLP231 T00001033 58004=
200901031953 METAR KBLI 031953Z 10006KT 10SM BKN026 BKN045 OVC060 02/M03 A3019 RMK AO2 SLP234 T00171028=
200901031853 METAR KBLI 031853Z VRB03KT 10SM FEW026 OVC032 M01/M03 A3020 RMK AO2 SLP238 T10111033=
200901031808 SPECI KBLI 031808Z 36003KT 10SM SCT026 BKN044 OVC060 M02/M04 A3020 RMK AO2=
200901031808 SPECI KBLI 031808Z 36003KT 10SM SCT026 BKN044 OVC060 M02/M04 A3020 RMK AO2=
200901031753 METAR KBLI 031753Z 03005KT 10SM BKN024 BKN046 OVC060 M02/M04 A3020 RMK AO2 SLP235 T10171044 11017 21033 53013=
200901031745 SPECI KBLI 031745Z 02003KT 10SM BKN024 OVC048 M02/M04 A3020 RMK AO2=
200901031745 SPECI KBLI 031745Z 02003KT 10SM BKN024 OVC048 M02/M04 A3020 RMK AO2=
200901031700 SPECI KBLI 031700Z 35003KT 10SM SCT020 BKN048 OVC070 M02/M04 A3019 RMK AO2=
200901031700 SPECI KBLI 031700Z 35003KT 10SM SCT020 BKN048 OVC070 M02/M04 A3019 RMK AO2=
200901031653 METAR KBLI 031653Z 35003KT 10SM BKN020 OVC046 M02/M04 A3018 RMK AO2 SLP232 T10221039=
200901031630 SPECI KBLI 031630Z 00000KT 10SM BKN020 OVC046 M02/M04 A3018 RMK AO2=
200901031630 SPECI KBLI 031630Z 00000KT 10SM BKN020 OVC046 M02/M04 A3018 RMK AO2=
200901031605 SPECI KBLI 031605Z 00000KT 10SM SCT022 OVC050 M03/M04 A3017 RMK AO2=
200901031605 SPECI KBLI 031605Z 00000KT 10SM SCT022 OVC050 M03/M04 A3017 RMK AO2=
200901031553 METAR KBLI 031553Z 00000KT 10SM BKN022 OVC050 M03/M04 A3016 RMK AO2 SLP225 T10281044=
200901031453 METAR KBLI 031453Z 00000KT 10SM FEW023 OVC050 M03/M04 A3016 RMK AO2 SLP224 T10331044 51010=
200901031444 SPECI KBLI 031444Z AUTO 04003KT 10SM FEW023 OVC050 M03/M04 A3016 RMK AO2=
200901031444 SPECI KBLI 031444Z AUTO 04003KT 10SM FEW023 OVC050 M03/M04 A3016 RMK AO2=
200901031353 METAR KBLI 031353Z AUTO 34003KT 10SM SCT021 BKN025 OVC045 M03/M04 A3015 RMK AO2 SLP221 T10331044=
200901031253 METAR KBLI 031253Z AUTO 00000KT 10SM OVC023 M03/M04 A3014 RMK AO2 SLP217 T10281039=
200901031221 SPECI KBLI 031221Z AUTO 02006KT 10SM BKN023 OVC042 M03/M04 A3014 RMK AO2=
200901031221 SPECI KBLI 031221Z AUTO 02006KT 10SM BKN023 OVC042 M03/M04 A3014 RMK AO2=
200901031153 METAR KBLI 031153Z AUTO 03006KT 10SM SCT024 OVC036 M03/M04 A3013 RMK AO2 SLP213 P0002 60003 70006 T10331044 11022 21044 51012=
200901031150 SPECI KBLI 031150Z AUTO 04006KT 10SM SCT024 BKN032 OVC040 M03/M04 A3013 RMK AO2 P0002=
200901031150 SPECI KBLI 031150Z AUTO 04006KT 10SM SCT024 BKN032 OVC040 M03/M04 A3013 RMK AO2 P0002=
200901031121 SPECI KBLI 031121Z AUTO 02007KT 3SM BR FEW002 OVC020 M03/M04 A3012 RMK AO2 P0002=
200901031121 SPECI KBLI 031121Z AUTO 02007KT 3SM BR FEW002 OVC020 M03/M04 A3012 RMK AO2 P0002=
200901031116 SPECI KBLI 031116Z AUTO 02006KT 1 3/4SM BR SCT002 OVC020 M03/M04 A3013 RMK AO2 P0002=
200901031116 SPECI KBLI 031116Z AUTO 02006KT 1 3/4SM BR SCT002 OVC020 M03/M04 A3013 RMK AO2 P0002=
200901031108 SPECI KBLI 031108Z AUTO 36006KT 1SM BR BKN004 OVC020 M03/M04 A3013 RMK AO2 P0002 RVRNO=
200901031108 SPECI KBLI 031108Z AUTO 36006KT 1SM BR BKN004 OVC020 M03/M04 A3013 RMK AO2 P0002 RVRNO=
200901031053 METAR KBLI 031053Z AUTO 32005KT 1/2SM FZFG BKN004 OVC022 M03/M04 A3013 RMK AO2 SLP213 P0001 T10281044 RVRNO=
200901031050 SPECI KBLI 031050Z AUTO 32005KT 3/4SM BR BKN004 OVC022 M03/M04 A3013 RMK AO2 P0001 RVRNO=
200901031050 SPECI KBLI 031050Z AUTO 32005KT 3/4SM BR BKN004 OVC022 M03/M04 A3013 RMK AO2 P0001 RVRNO=
200901031039 SPECI KBLI 031039Z AUTO 30005KT 1 3/4SM BR FEW008 OVC022 M03/M05 A3013 RMK AO2=
200901031039 SPECI KBLI 031039Z AUTO 30005KT 1 3/4SM BR FEW008 OVC022 M03/M05 A3013 RMK AO2=
200901031030 SPECI KBLI 031030Z AUTO 30005KT 4SM HZ BKN024 BKN031 OVC055 M02/M05 A3012 RMK AO2=
200901031030 SPECI KBLI 031030Z AUTO 30005KT 4SM HZ BKN024 BKN031 OVC055 M02/M05 A3012 RMK AO2=
200901030953 METAR KBLI 030953Z AUTO 34004KT 10SM SCT026 BKN050 OVC060 M03/M05 A3009 RMK AO2 SLP201 T10281050=
200901030853 METAR KBLI 030853Z AUTO 01003KT 10SM SCT055 OVC075 M03/M05 A3007 RMK AO2 SLP194 T10281050 51013=
200901030753 METAR KBLI 030753Z AUTO 00000KT 10SM BKN060 M04/M06 A3007 RMK AO2 SLP193 T10391056 400171044=
200901030653 METAR KBLI 030653Z AUTO 01003KT 10SM BKN055 M04/M06 A3005 RMK AO2 SLP187 T10441056=
200901030553 METAR KBLI 030553Z 00000KT 9SM OVC049 M03/M04 A3004 RMK AO2 SLP181 T10331044 10000 21044 51017=
200901030453 METAR KBLI 030453Z 00000KT 10SM OVC045 M04/M05 A3002 RMK AO2 SLP176 T10391050=
200901030353 METAR KBLI 030353Z 00000KT 10SM CLR M04/M06 A3000 RMK AO2 SLP169 T10391056=
200901030253 METAR KBLI 030253Z 00000KT 10SM FEW080 M03/M05 A2998 RMK AO2 SLP164 T10281050 51021=
200901030153 METAR KBLI 030153Z 00000KT 10SM CLR M03/M04 A2997 RMK AO2 SLP158 T10281044=
200901030053 METAR KBLI 030053Z 00000KT 10SM CLR M02/M04 A2995 RMK AO2 SLP150 T10221039=
200901022353 METAR KBLI 022353Z 01003KT 10SM CLR 00/M04 A2992 RMK AO2 SLP143 60000 T00001039 10017 20000 51025=
200901022253 METAR KBLI 022253Z 33003KT 10SM CLR 02/M03 A2990 RMK AO2 SLP135 T00171033=
200901022153 METAR KBLI 022153Z 00000KT 10SM CLR 02/M02 A2987 RMK AO2 SLP126 T00171022=
200901022100 SPECI KBLI 022100Z 36008KT 10SM FEW011 01/M02 A2985 RMK AO2=
200901022100 SPECI KBLI 022100Z 36008KT 10SM FEW011 01/M02 A2985 RMK AO2=
200901022053 METAR KBLI 022053Z 36007KT 10SM SCT009 SCT017 BKN026 01/M02 A2985 RMK AO2 SLP118 60000 T00061022 51031=
200901021953 METAR KBLI 021953Z 01007KT 10SM FEW009 01/M01 A2983 RMK AO2 SLP110 T00111011=
200901021924 SPECI KBLI 021924Z 35005KT 10SM FEW009 BKN055 01/M01 A2981 RMK AO2=
200901021924 SPECI KBLI 021924Z 35005KT 10SM FEW009 BKN055 01/M01 A2981 RMK AO2=
200901021853 METAR KBLI 021853Z 00000KT 10SM FEW039 OVC048 01/M02 A2980 RMK AO2 UPE21FZRAB21E26SNB1754E03B05E16 SLP100 P0000 T00061017=
200901021804 SPECI KBLI 021804Z 00000KT 9SM UP FEW024 BKN035 OVC043 01/M02 A2977 RMK AO2 SNB1754E03 P0000=
200901021804 SPECI KBLI 021804Z 00000KT 9SM UP FEW024 BKN035 OVC043 01/M02 A2977 RMK AO2 SNB1754E03 P0000=
200901021753 METAR KBLI 021753Z 00000KT 10SM UP BKN026 OVC037 01/M02 A2976 RMK AO2 UPB52 SLP086 P0000 60003 T00061017 10011 20000 53047=
200901021706 SPECI KBLI 021706Z 00000KT 10SM BKN022 OVC030 00/M02 A2972 RMK AO2=
200901021706 SPECI KBLI 021706Z 00000KT 10SM BKN022 OVC030 00/M02 A2972 RMK AO2=
200901021653 METAR KBLI 021653Z 00000KT 10SM SCT022 OVC026 00/M01 A2971 RMK AO2 SLP070 T00001011=
200901021553 METAR KBLI 021553Z 00000KT 10SM FEW019 BKN024 OVC032 01/M02 A2966 RMK AO2 UPB45E47SNB06E45 SLP053 P0003 T00061017=
200901021532 SPECI KBLI 021532Z VRB04KT 5SM -SN BR BKN017 OVC025 01/M01 A2964 RMK AO2 SNB06 P0003=
200901021532 SPECI KBLI 021532Z VRB04KT 5SM -SN BR BKN017 OVC025 01/M01 A2964 RMK AO2 SNB06 P0003=
200901021523 SPECI KBLI 021523Z 29004KT 2 1/2SM -SN BR BKN017 OVC025 01/M01 A2964 RMK AO2 VIS 1 1/4V4 SNB06 P0003=
200901021523 SPECI KBLI 021523Z 29004KT 2 1/2SM -SN BR BKN017 OVC025 01/M01 A2964 RMK AO2 VIS 1 1/4V4 SNB06 P0003=
200901021514 SPECI KBLI 021514Z 25003KT 4SM -SN BR BKN021 OVC027 00/M01 A2963 RMK AO2 SNB06 P0002=
200901021514 SPECI KBLI 021514Z 25003KT 4SM -SN BR BKN021 OVC027 00/M01 A2963 RMK AO2 SNB06 P0002=
200901021453 METAR KBLI 021453Z AUTO 00000KT 10SM SCT023 OVC034 01/M01 A2962 RMK AO2 SNB29E41 SLP039 P0000 60000 T00061011 53025 TSNO=
200901021353 METAR KBLI 021353Z AUTO 00000KT 8SM FEW018 BKN023 OVC030 00/M01 A2958 RMK AO2 UPB16E22SNB22E42 SLP028 P0000 T00001011 TSNO=
200901021253 METAR KBLI 021253Z AUTO 01003KT 5SM BR SCT009 BKN017 OVC050 00/M01 A2956 RMK AO2 SLP020 T00001006 TSNO=
200901021236 SPECI KBLI 021236Z AUTO 27003KT 6SM BR FEW009 BKN019 OVC043 00/M01 A2956 RMK AO2 TSNO=
200901021236 SPECI KBLI 021236Z AUTO 27003KT 6SM BR FEW009 BKN019 OVC043 00/M01 A2956 RMK AO2 TSNO=
200901021220 SPECI KBLI 021220Z AUTO 00000KT 6SM BR FEW019 BKN040 OVC047 00/M01 A2955 RMK AO2 TSNO=
200901021220 SPECI KBLI 021220Z AUTO 00000KT 6SM BR FEW019 BKN040 OVC047 00/M01 A2955 RMK AO2 TSNO=
200901021211 SPECI KBLI 021211Z AUTO 34003KT 6SM BR SCT005 BKN020 OVC040 00/M01 A2955 RMK AO2 TSNO=
200901021211 SPECI KBLI 021211Z AUTO 34003KT 6SM BR SCT005 BKN020 OVC040 00/M01 A2955 RMK AO2 TSNO=
200901021153 METAR KBLI 021153Z AUTO 00000KT 6SM BR OVC005 00/M01 A2954 RMK AO2 CIG 002V007 SLP013 70034 T00001011 10011 21006 53013 TSNO=
200901021142 SPECI KBLI 021142Z AUTO 30004KT 6SM BR BKN003 OVC031 00/M01 A2954 RMK AO2 CIG 002V005 TSNO=
200901021142 SPECI KBLI 021142Z AUTO 30004KT 6SM BR BKN003 OVC031 00/M01 A2954 RMK AO2 CIG 002V005 TSNO=
200901021130 SPECI KBLI 021130Z AUTO 32003KT 6SM BR SCT003 OVC031 00/M01 A2953 RMK AO2 TSNO=
200901021130 SPECI KBLI 021130Z AUTO 32003KT 6SM BR SCT003 OVC031 00/M01 A2953 RMK AO2 TSNO=
200901021103 SPECI KBLI 021103Z AUTO 33004KT 10SM BKN027 00/M01 A2951 RMK AO2 TSNO=
200901021103 SPECI KBLI 021103Z AUTO 33004KT 10SM BKN027 00/M01 A2951 RMK AO2 TSNO=
200901021053 METAR KBLI 021053Z AUTO 32005KT 10SM SCT025 M01/M02 A2950 RMK AO2 SLP000 T10061017 TSNO=
200901020953 METAR KBLI 020953Z AUTO 32003KT 10SM CLR 00/M01 A2948 RMK AO2 SLP993 T00001011 TSNO=
200901020853 METAR KBLI 020853Z AUTO 00000KT 10SM FEW021 BKN037 01/M01 A2950 RMK AO2 SLP000 T00061006 56025 TSNO=
200901020842 SPECI KBLI 020842Z AUTO 30003KT 10SM SCT021 SCT027 OVC037 00/M01 A2950 RMK AO2 TSNO=
200901020842 SPECI KBLI 020842Z AUTO 30003KT 10SM SCT021 SCT027 OVC037 00/M01 A2950 RMK AO2 TSNO=
200901020833 SPECI KBLI 020833Z AUTO 31003KT 10SM SCT021 BKN027 OVC037 00/M01 A2951 RMK AO2 TSNO=
200901020833 SPECI KBLI 020833Z AUTO 31003KT 10SM SCT021 BKN027 OVC037 00/M01 A2951 RMK AO2 TSNO=
200901020753 METAR KBLI 020753Z AUTO 00000KT 9SM FEW021 SCT029 OVC042 00/M01 A2952 RMK AO2 SLP006 T00001006 400220000 TSNO=
200901020718 SPECI KBLI 020718Z AUTO 00000KT 8SM SCT022 BKN027 OVC040 01/M01 A2955 RMK AO2 TSNO=
200901020718 SPECI KBLI 020718Z AUTO 00000KT 8SM SCT022 BKN027 OVC040 01/M01 A2955 RMK AO2 TSNO=
200901020653 METAR KBLI 020653Z AUTO 00000KT 9SM BKN038 01/M01 A2956 RMK AO2 SLP019 T00061006 TSNO=
200901020553 METAR KBLI 020553Z 00000KT 6SM BR OVC033 00/M01 A2958 RMK AO2 SLP025 60002 T00001006 10022 20000 58012=
200901020512 SPECI KBLI 020512Z 00000KT 6SM BR BKN035 01/00 A2958 RMK AO2=
200901020512 SPECI KBLI 020512Z 00000KT 6SM BR BKN035 01/00 A2958 RMK AO2=
200901020505 SPECI KBLI 020505Z 00000KT 2SM BR FEW035 01/00 A2958 RMK AO2=
200901020505 SPECI KBLI 020505Z 00000KT 2SM BR FEW035 01/00 A2958 RMK AO2=
200901020453 METAR KBLI 020453Z 00000KT 6SM BR BKN035 01/00 A2959 RMK AO2 SLP029 T00060000=
200901020405 SPECI KBLI 020405Z 00000KT 5SM BR FEW019 SCT025 OVC035 01/01 A2960 RMK AO2=
200901020405 SPECI KBLI 020405Z 00000KT 5SM BR FEW019 SCT025 OVC035 01/01 A2960 RMK AO2=
200901020353 METAR KBLI 020353Z 00000KT 5SM BR BKN023 OVC032 01/01 A2961 RMK AO2 SLP037 T00110006=
200901020253 METAR KBLI 020253Z 00000KT 7SM FEW017 BKN026 OVC034 01/01 A2961 RMK AO2 SLP037 60002 T00110006 58002=
200901020153 METAR KBLI 020153Z 15003KT 10SM FEW016 BKN024 OVC044 02/01 A2962 RMK AO2 RAE18 SLP041 P0000 T00170011=
200901020053 METAR KBLI 020053Z 15003KT 6SM -RA BR SCT018 BKN026 OVC044 02/01 A2962 RMK AO2 RAE15B48 SLP041 P0002 T00170011=
200901020039 SPECI KBLI 020039Z 13005KT 10SM SCT005 BKN011 OVC020 02/01 A2962 RMK AO2 RAE15 P0001=
200901020039 SPECI KBLI 020039Z 13005KT 10SM SCT005 BKN011 OVC020 02/01 A2962 RMK AO2 RAE15 P0001=
200901020031 SPECI KBLI 020031Z 13005KT 8SM SCT011 BKN019 OVC025 02/01 A2962 RMK AO2 RAE15 P0001=
200901020031 SPECI KBLI 020031Z 13005KT 8SM SCT011 BKN019 OVC025 02/01 A2962 RMK AO2 RAE15 P0001=
200901012353 METAR KBLI 012353Z 16004KT 5SM -RA BR BKN005 OVC011 02/01 A2962 RMK AO2 RAB34 CIG 002V008 SLP038 P0001 60002 T00170011 10022 20000 51017=
200901012315 SPECI KBLI 012315Z 00000KT 6SM BR OVC005 02/01 A2960 RMK AO2 CIG 003V009=
200901012315 SPECI KBLI 012315Z 00000KT 6SM BR OVC005 02/01 A2960 RMK AO2 CIG 003V009=
200901012253 METAR KBLI 012253Z 10003KT 2SM BR OVC005 02/00 A2960 RMK AO2 RAB26E47 CIG 002V010 SLP032 P0001 T00170000=
200901012244 SPECI KBLI 012244Z 00000KT 3SM -RA BR OVC005 02/01 A2960 RMK AO2 RAB26 P0001=
200901012244 SPECI KBLI 012244Z 00000KT 3SM -RA BR OVC005 02/01 A2960 RMK AO2 RAB26 P0001=
200901012224 SPECI KBLI 012224Z 00000KT 2 1/2SM BR BKN002 OVC008 02/01 A2959 RMK AO2=
200901012224 SPECI KBLI 012224Z 00000KT 2 1/2SM BR BKN002 OVC008 02/01 A2959 RMK AO2=
200901012153 METAR KBLI 012153Z 00000KT 1 1/4SM BR BKN004 OVC011 02/01 A2960 RMK AO2 SLP031 T00170006=
200901012142 SPECI KBLI 012142Z 31003KT 1 3/4SM BR BKN004 OVC011 02/01 A2959 RMK AO2=
200901012142 SPECI KBLI 012142Z 31003KT 1 3/4SM BR BKN004 OVC011 02/01 A2959 RMK AO2=
200901012053 METAR KBLI 012053Z 34005KT 3SM BR BKN004 OVC022 01/01 A2957 RMK AO2 SLP022 60000 T00110006 53011=
200901012000 SPECI KBLI 012000Z 01006KT 4SM BR BKN004 OVC024 01/00 A2955 RMK AO2=
200901012000 SPECI KBLI 012000Z 01006KT 4SM BR BKN004 OVC024 01/00 A2955 RMK AO2=
200901011953 METAR KBLI 011953Z 35007KT 4SM BR SCT004 OVC016 01/00 A2955 RMK AO2 UPB04E16 SLP014 P0000 T00110000=
200901011853 METAR KBLI 011853Z 36006KT 4SM BR SCT004 OVC016 01/M01 A2954 RMK AO2 UPE1757FZRAB1757E25 SLP012 P0000 T00061006=
200901011831 SPECI KBLI 011831Z 36005KT 3SM BR FEW004 BKN018 OVC026 01/00 A2954 RMK AO2 UPE1757FZRAB1757E25 P0000=
200901011831 SPECI KBLI 011831Z 36005KT 3SM BR FEW004 BKN018 OVC026 01/00 A2954 RMK AO2 UPE1757FZRAB1757E25 P0000=
200901011757 SPECI KBLI 011757Z 01007KT 3SM -FZRA BR BKN018 OVC027 00/M01 A2954 RMK AO2 UPE57FZRAB57 P0000=
200901011757 SPECI KBLI 011757Z 01007KT 3SM -FZRA BR BKN018 OVC027 00/M01 A2954 RMK AO2 UPE57FZRAB57 P0000=
200901011753 METAR KBLI 011753Z 01005KT 2 1/2SM UP BR SCT016 OVC029 00/M01 A2954 RMK AO2 UPB14E19B52FZRAB19E30SNE14B30E52 SLP012 P0005 60030 T00001006 10017 20000 56005=
200901011735 SPECI KBLI 011735Z 01007KT 2 1/2SM -SN BR SCT016 OVC029 00/M01 A2953 RMK AO2 UPB14E19FZRAB19E30SNE14B30 P0004=
200901011735 SPECI KBLI 011735Z 01007KT 2 1/2SM -SN BR SCT016 OVC029 00/M01 A2953 RMK AO2 UPB14E19FZRAB19E30SNE14B30 P0004=
200901011722 SPECI KBLI 011722Z 01006KT 3SM -FZRA BR SCT018 OVC029 00/M01 A2953 RMK AO2 UPB14E19FZRAB19SNE14 P0003=
200901011722 SPECI KBLI 011722Z 01006KT 3SM -FZRA BR SCT018 OVC029 00/M01 A2953 RMK AO2 UPB14E19FZRAB19SNE14 P0003=
200901011709 SPECI KBLI 011709Z 01006KT 2 1/2SM -SN BR BKN018 OVC029 00/M01 A2953 RMK AO2 P0003=
200901011709 SPECI KBLI 011709Z 01006KT 2 1/2SM -SN BR BKN018 OVC029 00/M01 A2953 RMK AO2 P0003=
200901011653 METAR KBLI 011653Z 01006KT 3SM -SN BR BKN020 OVC031 00/M01 A2954 RMK AO2 UPB37E41FZRAB41E44SNE37B44 SLP013 P0007 T00001006=
200901011651 SPECI KBLI 011651Z 01005KT 3SM -SN BR BKN020 OVC031 00/M01 A2954 RMK AO2 UPB37E41FZRAB41E44SNE37B44 P0007=
200901011651 SPECI KBLI 011651Z 01005KT 3SM -SN BR BKN020 OVC031 00/M01 A2954 RMK AO2 UPB37E41FZRAB41E44SNE37B44 P0007=
200901011553 METAR KBLI 011553Z 02007KT 2SM -SN BR SCT002 OVC018 00/M01 A2955 RMK AO2 UPB51E52SNE51B52 SLP017 P0004 T00001006=
200901011536 SPECI KBLI 011536Z 02006KT 4SM -SN BR SCT002 OVC023 00/M01 A2956 RMK AO2 P0003=
200901011536 SPECI KBLI 011536Z 02006KT 4SM -SN BR SCT002 OVC023 00/M01 A2956 RMK AO2 P0003=
200901011453 METAR KBLI 011453Z 03007KT 5SM -SN BR SCT002 BKN013 OVC021 00/M01 A2959 RMK AO2 UPB09E13FZRAE09B13E23SNB23 SLP028 P0005 60014 T00001006 58066=
200901011444 SPECI KBLI 011444Z AUTO 01004KT 5SM -SN BR SCT002 BKN013 OVC021 00/M01 A2960 RMK AO2 UPB09E13FZRAE09B13E23SNB23 P0005=
200901011444 SPECI KBLI 011444Z AUTO 01004KT 5SM -SN BR SCT002 BKN013 OVC021 00/M01 A2960 RMK AO2 UPB09E13FZRAE09B13E23SNB23 P0005=
200901011423 SPECI KBLI 011423Z AUTO 02006KT 5SM -SN BR BKN015 OVC021 00/M01 A2962 RMK AO2 UPB09E13FZRAE09B13E23SNB23 P0003=
200901011423 SPECI KBLI 011423Z AUTO 02006KT 5SM -SN BR BKN015 OVC021 00/M01 A2962 RMK AO2 UPB09E13FZRAE09B13E23SNB23 P0003=
200901011419 SPECI KBLI 011419Z AUTO 03007KT 5SM -FZRA BR BKN014 OVC019 00/M01 A2962 RMK AO2 UPB09E13FZRAE09B13 PRESFR P0002=
200901011419 SPECI KBLI 011419Z AUTO 03007KT 5SM -FZRA BR BKN014 OVC019 00/M01 A2962 RMK AO2 UPB09E13FZRAE09B13 PRESFR P0002=
200901011409 SPECI KBLI 011409Z AUTO 01006KT 5SM UP BR BKN014 OVC021 00/M01 A2964 RMK AO2 UPB09FZRAE09 P0001=
200901011409 SPECI KBLI 011409Z AUTO 01006KT 5SM UP BR BKN014 OVC021 00/M01 A2964 RMK AO2 UPB09FZRAE09 P0001=
200901011353 METAR KBLI 011353Z AUTO 03006KT 6SM -FZRA BR BKN017 OVC021 00/M01 A2965 RMK AO2 RAB04E09B37E41 SLP050 P0005 T00001006=
200901011253 METAR KBLI 011253Z AUTO 04006KT 5SM -FZRA BR OVC019 01/00 A2972 RMK AO2 RAB1159E03B31E36 PRESFR SLP072 P0004 T00060000=
200901011153 METAR KBLI 011153Z AUTO 10004KT 7SM -FZRA OVC019 02/01 A2978 RMK AO2 RAE1058B26E31FZRAB1058 SLP094 P0005 60021 70025 T00170006 10022 20011 58046=
200901011104 SPECI KBLI 011104Z AUTO 12006KT 9SM -FZRA OVC017 02/00 A2983 RMK AO2 RAE1058FZRAB1058 P0001=
200901011104 SPECI KBLI 011104Z AUTO 12006KT 9SM -FZRA OVC017 02/00 A2983 RMK AO2 RAE1058FZRAB1058 P0001=
200901011053 METAR KBLI 011053Z AUTO 12006KT 9SM -RA OVC017 02/00 A2984 RMK AO2 RAB21E25B53FZRAE53 SLP114 P0004 T00170000=
200901011007 SPECI KBLI 011007Z AUTO 14008KT 5SM -FZRA BR OVC015 02/00 A2987 RMK AO2 P0001=
200901011007 SPECI KBLI 011007Z AUTO 14008KT 5SM -FZRA BR OVC015 02/00 A2987 RMK AO2 P0001=
200901010953 METAR KBLI 010953Z AUTO 13008KT 7SM -FZRA OVC013 02/00 A2988 RMK AO2 RAB16E20B48E53 SLP128 P0004 T00170000=
200901010853 METAR KBLI 010853Z AUTO 13006KT 7SM -FZRA BKN013 BKN022 OVC032 02/01 A2992 RMK AO2 RAB11E15B43E48 SLP140 P0001 60008 T00170006 58032=
200901010829 SPECI KBLI 010829Z AUTO 14006KT 10SM -FZRA BKN013 OVC025 02/01 A2994 RMK AO2 RAB11E15 P0000=
200901010829 SPECI KBLI 010829Z AUTO 14006KT 10SM -FZRA BKN013 OVC025 02/01 A2994 RMK AO2 RAB11E15 P0000=
200901010821 SPECI KBLI 010821Z AUTO 16008KT 10SM -FZRA SCT011 OVC025 02/01 A2994 RMK AO2 RAB11E15 P0000=
200901010821 SPECI KBLI 010821Z AUTO 16008KT 10SM -FZRA SCT011 OVC025 02/01 A2994 RMK AO2 RAB11E15 P0000=
200901010811 SPECI KBLI 010811Z AUTO 16008KT 10SM -RA SCT009 BKN017 OVC025 02/01 A2995 RMK AO2 RAB11FZRAE11 P0000=
200901010811 SPECI KBLI 010811Z AUTO 16008KT 10SM -RA SCT009 BKN017 OVC025 02/01 A2995 RMK AO2 RAB11FZRAE11 P0000=
200901010753 METAR KBLI 010753Z AUTO 15009KT 9SM -FZRA BKN009 OVC017 02/01 A2996 RMK AO2 RAB06E11B39E43 SLP154 P0003 T00220006 400560011=
200901010719 SPECI KBLI 010719Z AUTO 11004KT 5SM -FZRA BR OVC009 02/01 A2998 RMK AO2 RAB06E11 CIG 005V014 P0002=
200901010719 SPECI KBLI 010719Z AUTO 11004KT 5SM -FZRA BR OVC009 02/01 A2998 RMK AO2 RAB06E11 CIG 005V014 P0002=
200901010711 SPECI KBLI 010711Z AUTO 15005KT 5SM -FZRA BR SCT007 OVC011 02/01 A2998 RMK AO2 RAB06E11 P0001=
200901010711 SPECI KBLI 010711Z AUTO 15005KT 5SM -FZRA BR SCT007 OVC011 02/01 A2998 RMK AO2 RAB06E11 P0001=
200901010707 SPECI KBLI 010707Z AUTO 16007KT 5SM -RA BR BKN007 OVC013 02/01 A2999 RMK AO2 RAB06FZRAE06 P0001=
200901010707 SPECI KBLI 010707Z AUTO 16007KT 5SM -RA BR BKN007 OVC013 02/01 A2999 RMK AO2 RAB06FZRAE06 P0001=
200901010705 SPECI KBLI 010705Z AUTO 17006KT 6SM -FZRA BR BKN011 OVC016 02/01 A2999 RMK AO2 P0000=
200901010705 SPECI KBLI 010705Z AUTO 17006KT 6SM -FZRA BR BKN011 OVC016 02/01 A2999 RMK AO2 P0000=
200901010653 METAR KBLI 010653Z AUTO 17005KT 5SM -FZRA BR FEW009 OVC015 02/01 A2999 RMK AO2 RAE38FZRAB38 SLP164 P0004 T00170006=
200901010644 SPECI KBLI 010644Z AUTO 17006KT 5SM -FZRA BR BKN017 OVC023 02/01 A2999 RMK AO2 RAE38FZRAB38 P0003=
200901010644 SPECI KBLI 010644Z AUTO 17006KT 5SM -FZRA BR BKN017 OVC023 02/01 A2999 RMK AO2 RAE38FZRAB38 P0003=
200901010606 SPECI KBLI 010606Z 17008KT 8SM -RA FEW007 BKN019 OVC024 02/01 A3001 RMK AO2 P0001=
200901010606 SPECI KBLI 010606Z 17008KT 8SM -RA FEW007 BKN019 OVC024 02/01 A3001 RMK AO2 P0001=
200901010553 METAR KBLI 010553Z 16010G14KT 10SM -RA SCT007 BKN012 OVC017 02/01 A3001 RMK AO2 FZRAB33E47SNB20E29 SLP173 P0002 60004 T00170006 10039 20011 58012=
200901010539 SPECI KBLI 010539Z 17010KT 10SM -FZRA BKN007 BKN010 OVC014 01/00 A3002 RMK AO2 RAE33FZRAB33SNB20E29 CIG 004V008 P0002=
200901010539 SPECI KBLI 010539Z 17010KT 10SM -FZRA BKN007 BKN010 OVC014 01/00 A3002 RMK AO2 RAE33FZRAB33SNB20E29 CIG 004V008 P0002=
200901010515 SPECI KBLI 010515Z 16014G19KT 9SM -RA BKN007 OVC010 02/00 A3002 RMK AO2 P0001=
200901010515 SPECI KBLI 010515Z 16014G19KT 9SM -RA BKN007 OVC010 02/00 A3002 RMK AO2 P0001=
200901010453 METAR KBLI 010453Z 19005KT 7SM -RA FEW006 BKN010 OVC018 01/01 A3003 RMK AO2 RAB0358 SLP177 P0002 T00110006=
200901010434 SPECI KBLI 010434Z 18008KT 8SM -RA SCT006 BKN018 OVC024 01/00 A3003 RMK AO2 RAB0358 P0001=
200901010434 SPECI KBLI 010434Z 18008KT 8SM -RA SCT006 BKN018 OVC024 01/00 A3003 RMK AO2 RAB0358 P0001=
200901010427 SPECI KBLI 010427Z 17009KT 9SM -RA FEW004 BKN009 OVC023 01/01 A3003 RMK AO2 RAB0358 P0001=
200901010427 SPECI KBLI 010427Z 17009KT 9SM -RA FEW004 BKN009 OVC023 01/01 A3003 RMK AO2 RAB0358 P0001=
200901010353 METAR KBLI 010353Z 16012KT 10SM FEW006 BKN013 OVC050 02/01 A3004 RMK AO2 RAE06B24E36 SLP181 P0000 T00170006=
200901010345 SPECI KBLI 010345Z 16010G17KT 10SM FEW006 BKN024 OVC048 02/00 A3004 RMK AO2 RAE06B24E36 P0000=
200901010345 SPECI KBLI 010345Z 16010G17KT 10SM FEW006 BKN024 OVC048 02/00 A3004 RMK AO2 RAE06B24E36 P0000=
200901010309 SPECI KBLI 010309Z 17009G14KT 10SM SCT015 BKN024 OVC032 03/00 A3004 RMK AO2 RAE06 P0000=
200901010309 SPECI KBLI 010309Z 17009G14KT 10SM SCT015 BKN024 OVC032 03/00 A3004 RMK AO2 RAE06 P0000=
200901010253 METAR KBLI 010253Z 17007KT 10SM -RA SCT021 BKN031 OVC055 03/M01 A3005 RMK AO2 RAB31 SLP184 P0000 60000 T00281006 50001=
200901010153 METAR KBLI 010153Z 19007KT 10SM BKN070 OVC080 03/M02 A3005 RMK AO2 SLP185 T00331017=
200901010053 METAR KBLI 010053Z 15007KT 10SM OVC080 03/M01 A3006 RMK AO2 SLP188 T00331006=

# No short TAF reports from KBLI in databse.

###################################
#  large TAF from KBLI
###################################
200901312327 TAF KBLI 312327Z 0100/0124 18007KT P6SM SCT035 BKN050 FM010200
                       19006KT P6SM SCT060 SCT120 BKN250 FM011200
                       VRB03KT P6SM OVC100 FM012000 07007KT P6SM
                       SCT025 OVC040
                      TEMPO 0120/0124 -RA=
200901311740 TAF KBLI 311740Z 3118/0118 17004KT P6SM SCT040 BKN090 FM010300
                       34002KT P6SM SCT120 BKN250 FM011200 02003KT
                       P6SM OVC100=
200901311120 TAF KBLI 311120Z 3112/0112 VRB04KT P6SM SCT040 SCT080
                      TEMPO 3114/3118 BKN040 BKN080 FM312100 23006KT
                       P6SM SCT025 BKN050
                      TEMPO 0100/0104 SCT050=
200901310520 TAF KBLI 310520Z 3106/0106 18006KT P6SM SCT030 FM311000 18008KT
                       P6SM BKN040=
200901302320 TAF KBLI 302320Z 3100/3124 18014G22KT P6SM SCT004 OVC040
                      TEMPO 3100/3104 -RA BKN004 OVC020 FM310400
                       22012G22KT P6SM -SHRA OVC030 FM310600 22012KT
                       P6SM VCSH OVC020 FM311200 18008KT P6SM VCSH
                       BKN050=
200901301924 KBLI 301924Z 3019/3118 15003KT 1/4SM FG VV001
                      TEMPO 3019/3021 2SM BR BKN006 FM302100 18012KT
                       P6SM SCT040 BKN080 FM310000 22012G22KT P6SM
                       -SHRA OVC030 FM310600 22012KT P6SM VCSH
                       OVC020 FM311200 18008KT P6SM VCSH BKN050=
200901301736 TAF KBLI 301736Z 3018/3118 00000KT 1/4SM FZFG VV001
                      TEMPO 3018/3019 2SM BR BKN006 FM301900 18008KT
                       P6SM SCT120 BKN200 FM302100 18012KT P6SM
                       SCT040 BKN080 FM310000 22012G22KT P6SM -SHRA
                       OVC030 FM310600 22012KT P6SM VCSH OVC020
                       FM311200 18008KT P6SM VCSH BKN050=
200901301550 KBLI 301550Z 3016/3112 35004KT 1/4SM FZFG VV001
                      TEMPO 3017/3019 2SM BR BKN006 FM301900 18008KT
                       P6SM SCT120 BKN200 FM302100 18012KT P6SM
                       SCT040 BKN080 FM310000 22012G22KT P6SM -SHRA
                       BKN030 FM310600 22012KT P6SM VCSH BKN020=
200901301123 TAF KBLI 301123Z 3012/3112 00000KT 2SM BR BKN006
                      TEMPO 3012/3016 1/2SM FZFG VV002 FM301600
                       16006KT 2SM BR BKN005 FM301900 18008KT P6SM
                       SCT120 BKN200 FM302100 18012KT P6SM SCT040
                       BKN080 FM310000 22012G22KT P6SM -SHRA BKN030
                       FM310600 22012KT P6SM VCSH BKN020=
200901300825 KBLI 300825Z 3008/3106 00000KT 2SM BR BKN005
                      TEMPO 3008/3012 1/4SM FZFG VV002 FM301900
                       16010KT P6SM OVC120 FM302100 16014KT P6SM
                       OVC070 FM302300 20015KT P6SM -RA OVC050
                       FM310200 22012G20KT P6SM -SHRA BKN025 OVC040=
200901300528 TAF KBLI 300528Z 3006/3106 00000KT 4SM BR SCT010
                      TEMPO 3006/3009 1/2SM FG BKN005 FM300900
                       00000KT 2SM BR BKN005
                      TEMPO 3009/3013 1/4SM FG VV002 FM301900 16010KT
                       P6SM OVC120 FM302100 16014KT P6SM OVC070
                       FM302300 20015KT P6SM -RA OVC050 FM310200
                       22012G20KT P6SM -SHRA BKN025 OVC040=
200901292328 TAF KBLI 292328Z 3000/3024 17005KT P6SM OVC035 FM300200 16008KT
                       P6SM SCT035 BKN200 FM301500 15014KT P6SM
                       SCT035 OVC080 FM302200 15018G28KT P6SM -RA
                       BKN035 OVC050=
200901291737 TAF KBLI 291737Z 2918/3018 17006KT P6SM SCT026 OVC035 FM292100
                       18008KT P6SM BKN035 FM292300 17006KT P6SM
                       SCT035 FM300800 15007KT P6SM SCT035 BKN180
                       FM301500 15014KT P6SM BKN035 OVC080=
200901291137 TAF KBLI 291137Z 2912/3012 18008KT 5SM -DZ BKN022 OVC040 FM292100
                       18008KT P6SM BKN030 FM300500 18005KT P6SM
                       OVC020=
200901290520 TAF KBLI 290520Z 2906/3006 15005KT P6SM SCT030 OVC060
                      TEMPO 2906/2910 BKN030 OVC060 FM291000 18006KT
                       5SM -DZ OVC020 FM292100 18008KT P6SM BKN030
                       FM300500 18005KT P6SM OVC020=
200901282338 TAF KBLI 282338Z 2900/2924 20005KT P6SM SKC FM290400 18008KT P6SM
                       BKN035 OVC050 FM291000 16012KT P6SM BKN020
                       OVC035
                      PROB30 2912/2918 -RA FM292000 29008KT P6SM
                       SCT025 BKN035=
200901281736 TAF KBLI 281736Z 2818/2918 19005KT P6SM SCT020 OVC040 FM282000
                       19006KT P6SM SCT030 BKN050 BKN100 FM290600
                       18008KT P6SM BKN035 OVC050 FM291000 16008KT
                       P6SM BKN020 OVC035
                      PROB30 2912/2918 -RA=
200901281136 TAF KBLI 281136Z 2812/2912 VRB03KT P6SM SCT020 OVC035
                      TEMPO 2812/2815 3SM BR BKN020 OVC035 FM281500
                       19003KT P6SM BKN020 OVC040 FM281700 19005KT
                       P6SM SCT020 OVC040 FM281900 19006KT P6SM
                       SCT030 OVC050 FM290600 18008KT P6SM OVC050
                       PROB30 2906/2912 -RA=
200901280929 TAF AMD KBLI 280929Z 2809/2906 17007KT P6SM SCT010 OVC035
                      TEMPO 2810/2814 BKN009 OVC035 FM281400 17007KT
                       P6SM BKN015 OVC035 FM281700 19006KT P6SM
                       BKN030 OVC050 FM281900 22007KT P6SM SCT035
                       BKN060=
200901280536 TAF KBLI 280536Z 2806/2906 17007KT P6SM BKN020 OVC060 FM281200
                       17007KT P6SM BKN015 OVC050 FM281700 19006KT
                       P6SM BKN025 OVC050 FM281900 22007KT P6SM
                       BKN035 BKN060=
200901272340 TAF KBLI 272340Z 2800/2824 18008KT P6SM -SHRA OVC020 FM280600 17010KT
                       P6SM VCSH OVC020 FM280900 17008KT P6SM OVC015
                       FM281500 19006KT P6SM OVC025 FM281800 22007KT
                       P6SM BKN030 BKN040=
200901272210 KBLI 272210Z 2722/2818 01008KT P6SM -SHRA OVC020 FM280300 17010KT
                       P6SM VCSH OVC020=
200901271738 TAF KBLI 271738Z 2718/2818 13014G22KT P6SM -SN SCT015 BKN030 FM272000
                       18012KT P6SM -SHRA OVC015 FM272200 19012KT
                       P6SM -SHRA BKN020 OVC035 FM280300 17010KT
                       P6SM VCSH OVC020=
200901271123 TAF KBLI 271123Z 2712/2812 14014G22KT P6SM -SN OVC040 FM271300
                       15015G25KT P6SM -SN BKN025 OVC040 FM271500
                       16015G25KT P6SM -SN OVC015 FM271800 18012KT
                       P6SM -RASN OVC015 FM272100 19012KT P6SM
                       -SHRA BKN020 OVC035 FM280300 17010KT P6SM
                       VCSH OVC020=
200901270542 TAF KBLI 270542Z 2706/2806 15007KT P6SM OVC080 FM271100 14014G22KT
                       P6SM -SN BKN040 OVC060 FM271300 15015G25KT
                       P6SM -SN BKN025 OVC040 FM271500 16015G25KT
                       P6SM -SN OVC015 FM271800 18012KT P6SM VCSH
                       OVC015=
200901262340 TAF KBLI 262340Z 2700/2724 17004KT P6SM SCT200 FM270600 13008KT
                       P6SM SCT100 BKN200 FM271000 14009KT P6SM
                       BKN040 BKN100 FM271300 15014KT P6SM -SN
                       BKN025 OVC040 FM271900 18012KT P6SM -RA
                       BKN025 OVC030 FM272100 19010KT P6SM -SHRA
                       BKN030 BKN040=
200901261740 TAF KBLI 261740Z 2618/2718 02005KT P6SM FEW250 FM270300 VRB03KT
                       P6SM SCT100 BKN200 FM271000 14006KT P6SM
                       BKN060 BKN100 FM271300 15012KT P6SM -SN
                       BKN025 OVC040=
200901261135 TAF KBLI 261135Z 2612/2712 03005KT P6SM SCT250 FM270300 VRB03KT
                       P6SM SCT100 BKN200 FM271000 14006KT P6SM
                       BKN060 BKN100=
200901260524 TAF KBLI 260524Z 2606/2706 02009KT P6SM SKC FM261200 03005KT P6SM
                       SCT250 FM270400 18006KT P6SM BKN200=
200901252326 TAF KBLI 252326Z 2600/2624 01015G25KT P6SM SCT050 OVC080 FM260600
                       02010KT P6SM SKC FM261200 36004KT P6SM SKC=
200901251736 TAF KBLI 251736Z 2518/2618 02020G34KT P6SM BKN070 WS010/03010KT
                       FM260200 02010KT P6SM SKC FM260900 36003KT
                       P6SM SKC=
200901251646 KBLI 251646Z 2517/2612 02020G34KT P6SM BKN070 OVC100 WS010/03010KT
                       FM252200 02018G28KT P6SM SCT100 FM260200
                       02010KT P6SM SKC FM260600 02005KT P6SM SKC=
200901251120 TAF KBLI 251120Z 2512/2612 02018G28KT P6SM OVC060 FM251700 02018G28KT
                       P6SM SCT060 BKN100 FM252000 02018G28KT P6SM
                       SCT100 FM260200 02010KT P6SM SKC FM260600
                       02005KT P6SM SKC=
200901250537 TAF KBLI 250537Z 2506/2606 03012G22KT P6SM BKN025 OVC035 FM251000
                       04014G24KT P6SM SCT025 BKN035 FM251200 02014G24KT
                       P6SM BKN250 FM260000 02010KT P6SM SCT250=
200901242328 TAF KBLI 242328Z 2500/2524 01011KT P6SM OVC080 FM250300 03016G24KT
                       P6SM OVC070 FM251000 04016G26KT P6SM BKN100
                       FM251200 02006KT P6SM BKN250=
200901241740 TAF KBLI 241740Z 2418/2518 01012G18KT P6SM BKN080 FM242200 03014G22KT
                       P6SM OVC070 FM250300 03016G24KT P6SM OVC070
                       PROB30 2503/2509 -SN FM251000 04016G26KT
                       P6SM BKN100=
200901241131 TAF KBLI 241131Z 2412/2512 02012G20KT P6SM SCT200 FM242200 03014G22KT
                       P6SM BKN060 OVC120 FM250600 04016G26KT P6SM
                       BKN080 BKN150=
200901240733 KBLI 240733Z 2408/2506 02012KT P6SM SCT200 FM241200 03015G22KT
                       P6SM SCT200 FM250000 03016G25KT P6SM SCT200=
200901240529 TAF KBLI 240529Z 2406/2506 01008KT P6SM SCT250 FM241000 03008KT
                       P6SM BKN250=
200901232326 TAF KBLI 232326Z 2400/2424 35009KT P6SM BKN250 FM240900 03003KT
                       2SM BR SCT006 BKN250 FM241600 02004KT P6SM
                       OVC250=
200901231720 TAF KBLI 231720Z 2318/2418 00000KT P6SM SKC
                      TEMPO 2318/2319 1SM BR SCT001 SCT008 FM240900
                       03003KT 1 1/2SM BR BKN250 FM241600 02004KT
                       P6SM OVC250=
200901231120 TAF KBLI 231120Z 2312/2412 34004KT 2SM BR OVC001
                      TEMPO 2312/2314 1/2SM FZFG OVC001 FM231600
                       02006KT 5SM BR SCT004 SCT200 FM231700 02008KT
                       P6SM SCT200 FM232000 03012KT P6SM SCT200=
200901230912 KBLI 230912Z 2309/2406 34004KT 1 1/2SM BR OVC001
                      TEMPO 2309/2313 1/2SM FZFG OVC001 FM231300
                       02007KT 5SM BR SCT004 SCT200 FM231500 02013KT
                       P6SM SCT200 FM232000 03013G22KT P6SM SCT200=
200901230524 TAF KBLI 230524Z 2306/2406 34004KT 1/4SM FZFG VV001 FM231300 02007KT
                       5SM BR SCT004 SCT200 FM231500 02013KT P6SM
                       SCT200 FM232000 03013G22KT P6SM SCT200=
200901230232 KBLI 230232Z 2303/2324 36005KT 1/4SM FZFG VV001 FM230800 02010KT
                       5SM BR SCT004 SCT200 FM231000 02013KT P6SM
                       SCT200
                      TEMPO 2316/2320 03015G25KT FM232000 03013G22KT
                       P6SM SCT200=
200901230134 KBLI 230134Z 2302/2324 34003KT P6SM SKC
                      TEMPO 2302/2305 BKN012 FM230600 01010KT P6SM
                       SCT200 FM231400 03013KT P6SM SCT200
                      TEMPO 2316/2320 03015G25KT FM232000 03013G22KT
                       P6SM SCT200=
200901222339 TAF KBLI 222339Z 2300/2324 33005KT P6SM SCT200 FM230600 01010KT
                       P6SM SCT200 FM231400 03013KT P6SM SCT200
                       TEMPO 2316/2320 03015G25KT FM232000 03013G22KT
                       P6SM SCT200=
200901221736 TAF KBLI 221736Z 2218/2318 36005KT 5SM BR SCT200 FM230000 03008KT
                       P6SM SCT200 FM230600 03013KT P6SM SKC
                      TEMPO 2314/2318 03015G25KT=
200901221606 KBLI 221606Z 2216/2312 VRB03KT 6SM BR FEW002 SCT200
                      TEMPO 2216/2218 3SM BR BKN002 FM221800 VRB03KT
                       P6SM SCT200 FM230200 VRB03KT P6SM SCT200
                       FM230800 VRB03KT 1SM BR BKN001 FM230900
                       00000KT 1/4SM FG VV001=
200901221438 KBLI 221438Z 2215/2312 VRB03KT 3SM BR SCT001
                      TEMPO 2215/2217 3/4SM BR BKN001 FM221700
                       VRB03KT 5SM BR SCT100 SCT200 FM221900 VRB03KT
                       P6SM SCT200 FM230200 VRB03KT P6SM SCT200
                       FM230800 VRB03KT 1SM BR BKN001 FM230900
                       00000KT 1/4SM FG VV001=
200901221120 TAF KBLI 221120Z 2212/2312 VRB03KT 1SM BR BKN002
                      TEMPO 2212/2214 1/4SM FZFG VV002 FM221700
                       VRB03KT 5SM BR SCT100 SCT200 FM221900 VRB03KT
                       P6SM SCT200 FM230200 VRB03KT P6SM SCT200
                       FM230800 VRB03KT 1SM BR BKN001 FM230900
                       00000KT 1/4SM FG VV001=
200901220529 TAF KBLI 220529Z 2206/2306 VRB03KT 1/4SM FZFG VV001 FM221200 VRB03KT
                       1SM BR BKN002
                      TEMPO 2212/2214 1/2SM FG VV002 FM221600 35004KT
                       5SM BR SCT100 SCT200 FM221800 35004KT P6SM
                       SCT200 FM230200 VRB03KT P6SM SCT200=
200901220348 KBLI 220348Z 2204/2224 VRB03KT 2SM BR SCT001 BKN200
                      TEMPO 2204/2208 1/2SM FG VV001 FM220800 VRB03KT
                       1SM BR VV002 FM221600 35004KT P6SM SCT100
                       SCT200=
200901212335 TAF KBLI 212335Z 2200/2224 VRB03KT P6SM FEW110 BKN200 FM221800
                       35004KT P6SM SCT200=
200901211742 TAF KBLI 211742Z 2118/2218 VRB03KT P6SM BKN200=
200901211138 TAF KBLI 211138Z 2112/2212 00000KT P6SM SKC FM220800 00000KT 2SM
                       BR SCT001=
200901210536 TAF KBLI 210536Z 2106/2206 VRB03KT 3SM BR SCT001
                      TEMPO 2106/2110 1/2SM FG BKN001 FM211000
                       00000KT 1/4SM FZFG VV001 FM211800 00000KT
                       1SM BR BKN002 FM212000 00000KT P6SM SKC=
200901210401 KBLI 210401Z 2104/2124 VRB03KT 3SM BR SCT001
                      TEMPO 2104/2108 1/2SM FG BKN001 FM210800
                       00000KT 2SM BR SCT001
                      TEMPO 2112/2116 1/4SM FZFG VV001 FM211600
                       00000KT 1/4SM FG VV001 FM212100 VRB03KT
                       3SM BR BKN004 BKN200=
200901202326 TAF KBLI 202326Z 2100/2124 VRB03KT P6SM SKC FM210600 00000KT 6SM
                       BR SKC FM211200 00000KT 2SM BR SKC
                      TEMPO 2112/2116 1/4SM FZFG VV001 FM211600
                       00000KT 1/4SM FG VV001 FM212100 VRB03KT
                       3SM BR BKN004 BKN200=
200901201742 TAF KBLI 201742Z 2018/2118 VRB03KT P6SM SKC FM210600 00000KT 6SM
                       BR SKC FM211200 00000KT 2SM BR SKC
                      TEMPO 2112/2116 1/4SM FZFG VV001=
200901201138 TAF KBLI 201138Z 2012/2112 00000KT P6SM SKC FM210400 VRB03KT 5SM
                       BR SCT001
                      TEMPO 2107/2111 2SM BR SCT001=
200901200538 TAF KBLI 200538Z 2006/2106 00000KT 5SM BR SCT001
                      TEMPO 2006/2010 1SM BR FM201000 00000KT 5SM
                       BR SCT001
                      TEMPO 2010/2014 1SM BR FM201600 VRB03KT P6SM
                       SKC FM210400 VRB03KT 5SM BR SCT001=
200901192324 TAF KBLI 192324Z 2000/2024 VRB03KT P6SM VCFG SKC FM200600 00000KT
                       6SM BR SKC
                      TEMPO 2011/2015 1SM MIFG VV001 FM201800 VRB03KT
                       P6SM VCFG SKC=
200901191734 TAF KBLI 191734Z 1918/2018 35004KT P6SM VCFG SKC FM192000 35004KT
                       P6SM SKC FM200600 00000KT 5SM BR SKC
                      TEMPO 2011/2015 1/2SM FZFG VV001=
200901191417 KBLI 191417Z 1914/2012 00000KT P6SM SKC FM200600 00000KT 5SM BR
                       SCT001=
200901191129 TAF KBLI 191129Z 1912/2012 00000KT 4SM BR SCT001
                      TEMPO 1912/1915 1SM BR SCT001 FM191600 00000KT
                       P6SM SKC FM200600 00000KT 5SM BR SCT001=
200901190534 TAF KBLI 190534Z 1906/2006 00000KT P6SM SKC
                      TEMPO 1906/1909 4SM BR SCT002 FM190900 00000KT
                       4SM BR SCT001
                      TEMPO 1909/1913 3/4SM BR BKN001 FM191600
                       00000KT P6SM SKC=
200901182335 TAF KBLI 182335Z 1900/1924 VRB03KT P6SM SKC FM190600 00000KT 5SM
                       BR FEW008 FM191400 VRB03KT 1SM BR BKN005
                       FM192000 32006KT 5SM BR SCT005=
200901181736 TAF KBLI 181736Z 1818/1918 VRB03KT P6SM SKC FM190600 00000KT 5SM
                       BR FEW008 FM191400 VRB03KT 1SM BR BKN005=
200901181302 KBLI 181302Z 1813/1912 VRB03KT P6SM SKC FM182000 VRB03KT 5SM BR
                       FEW008 FM182300 VRB03KT P6SM SKC FM190600
                       00000KT 5SM BR FEW008=
200901181150 TAF KBLI 181150Z 1812/1912 VRB03KT 1SM BR BKN006
                      TEMPO 1812/1815 1/2SM FG OVC002 FM181800
                       35005KT 5SM BR BKN008 FM182000 VRB03KT 5SM
                       BR FEW008 FM182300 VRB03KT P6SM SKC FM190600
                       00000KT 5SM BR FEW008=
200901181009 KBLI 181009Z 1810/1906 00000KT 1/2SM FZFG OVC002 FM181500 VRB03KT
                       3SM BR OVC002 FM181800 35005KT 5SM BR BKN008
                       FM182000 VRB03KT 5SM BR FEW008 FM182300
                       00000KT P6SM SKC=
200901180536 TAF KBLI 180536Z 1806/1906 00000KT 1/4SM FG VV001 FM181800 35005KT
                       5SM BR BKN008 FM182000 VRB03KT 5SM BR SCT008
                       FM182300 00000KT P6SM SKC=
200901180119 KBLI 180119Z 1801/1824 VRB03KT 1/2SM FG OVC001
                      TEMPO 1801/1803 3SM BR BKN002 FM180600 00000KT
                       1/4SM FG VV001 FM181800 35005KT 5SM BR BKN010=
200901172338 TAF KBLI 172338Z 1800/1824 VRB03KT P6SM SCT002 FM180300 00000KT
                       4SM BR BKN002 FM180600 00000KT 1/4SM FG
                       VV001 FM181800 35005KT 5SM BR BKN010=
200901172011 KBLI 172011Z 1720/1818 VRB03KT P6SM SCT002 FM180200 00000KT 4SM
                       BR BKN002 FM180400 00000KT 1/4SM FG VV001=
200901171733 TAF KBLI 171733Z 1718/1818 00000KT 1/4SM FG VV001 FM172000 00000KT
                       2SM BR OVC002 FM172200 00000KT P6SM SCT002
                       FM180200 00000KT 4SM BR BKN002 FM180400
                       00000KT 1/4SM FG VV001=
200901171132 TAF KBLI 171132Z 1712/1812 00000KT 1/4SM FG VV001 FM171900 00000KT
                       2SM BR OVC002 FM172100 00000KT P6SM SCT002
                       FM180200 00000KT 4SM BR BKN002 FM180400
                       00000KT 1/4SM FG VV001=
200901170532 TAF KBLI 170532Z 1706/1806 00000KT 1/4SM FG VV001 FM171800 00000KT
                       2SM BR OVC002 FM172100 00000KT P6SM SCT002
                       FM180200 00000KT 4SM BR BKN002 FM180400
                       00000KT 1/4SM FG VV001=
200901162338 TAF KBLI 162338Z 1700/1724 VRB04KT P6SM FEW007
                      TEMPO 1700/1704 1SM BR OVC001 FM170400 00000KT
                       1/4SM FG VV001 FM171800 00000KT 2SM BR OVC002
                       TEMPO 1720/1724 P6SM NSW SCT005=
200901162020 KBLI 162020Z 1620/1718 00000KT 3SM BR OVC001
                      TEMPO 1621/1701 P6SM NSW SCT002 FM170200
                       00000KT 1SM BR OVC001 FM170500 00000KT 1/4SM
                       FG VV001=
200901161726 TAF KBLI 161726Z 1618/1718 00000KT 1/4SM FZFG VV001
                      TEMPO 1623/1703 1SM BR OVC001=
200901161407 KBLI 161407Z 1614/1712 00000KT 1/2SM FZFG VV001 FM161800 00000KT
                       1/2SM FG VV001=
200901161135 TAF KBLI 161135Z 1612/1712 00000KT 1/4SM FG VV001=
200901160520 TAF KBLI 160520Z 1606/1706 00000KT 1/4SM FG VV001 FM162300 00000KT
                       1SM BR OVC002=
200901160154 KBLI 160154Z 1602/1624 29003KT 3/4SM BR OVC001 FM160300 00000KT
                       3/4SM BR BKN002 FM160500 00000KT 1/4SM FZFG
                       VV001 FM161900 00000KT 3/4SM BR OVC001 FM162200
                       35003KT 6SM HZ BKN005=
200901160049 KBLI 160049Z 1601/1624 29003KT 1 1/2SM BR OVC003 FM160300 00000KT
                       3/4SM BR BKN002 FM160500 00000KT 1/4SM FZFG
                       VV001 FM161900 00000KT 3/4SM BR OVC001 FM162200
                       35003KT 6SM HZ BKN005=
200901152333 TAF KBLI 152333Z 1600/1624 35003KT 5SM BR OVC005 FM160600 00000KT
                       3/4SM BR BKN002 FM161000 00000KT 1/4SM FZFG
                       VV001 FM161900 00000KT 3/4SM BR OVC001 FM162200
                       35003KT 6SM HZ BKN005=
200901152146 KBLI 152146Z 1522/1618 35003KT 5SM BR BKN003 FM160600 00000KT 1SM
                       BR BKN002 FM161000 00000KT 1/4SM FZFG VV001=
200901151740 TAF KBLI 151740Z 1518/1618 00000KT 1/2SM FG OVC001 FM152000 35003KT
                       3SM BR BKN003 FM152300 00000KT P6SM SKC
                       FM160500 00000KT 1SM BR BKN002 FM161000
                       00000KT 1/4SM FZFG VV001=
200901151138 TAF KBLI 151138Z 1512/1612 00000KT 1/4SM FG OVC001 FM151800 00000KT
                       1SM BR BKN002 FM151900 00000KT 3SM BR BKN003
                       FM152000 00000KT P6SM SKC FM160800 00000KT
                       1/2SM FG VV001=
200901150535 TAF KBLI 150535Z 1506/1606 00000KT 3/4SM BR OVC001 FM150900 00000KT
                       1/4SM FG OVC001 FM151800 00000KT 1SM BR
                       BKN002 FM151900 00000KT 3SM BR BKN003 FM152000
                       00000KT P6SM SKC=
200901150212 KBLI 150212Z 1502/1524 VRB03KT 5SM BR OVC004 FM150500 00000KT 2SM
                       BR OVC003 FM150700 00000KT 1/4SM FZFG OVC001
                       FM151700 36003KT 5SM BR SCT002 FM151900
                       35003KT P6SM SKC=
200901150159 KBLI 150159Z 1502/1524 VRB03KT P6SM OVC006 FM150800 00000KT 2SM
                       BR OVC006 FM151000 00000KT 1/4SM FZFG OVC001
                       FM151700 36003KT 5SM BR SCT002 FM151900
                       35003KT P6SM SKC=
200901142338 TAF KBLI 142338Z 1500/1524 VRB03KT P6SM OVC012 FM150600 VRB03KT
                       P6SM SCT009 FM150800 00000KT 2SM BR OVC006
                       FM151000 00000KT 1/4SM FZFG OVC001 FM151700
                       36003KT 5SM BR SCT002 FM151900 35003KT P6SM
                       SKC=
200901141741 TAF KBLI 141741Z 1418/1518 35003KT 4SM BR OVC004 FM142100 VRB03KT
                       P6SM BKN008 FM150100 VRB03KT P6SM SCT007
                       FM150400 00000KT 2SM BR OVC006 FM150700
                       00000KT 1/4SM FZFG OVC001 FM151700 36003KT
                       5SM BR SCT002=
200901141137 TAF KBLI 141137Z 1412/1512 01003KT 1/2SM FG VV001 FM141800 35003KT
                       3SM BR BKN005 FM142100 VRB03KT P6SM BKN008
                       FM150300 00000KT 2SM BR OVC006 FM150600
                       00000KT 1/2SM FG OVC001=
200901141005 KBLI 141005Z 1410/1506 00000KT 3SM BR SCT004 OVC020
                      TEMPO 1410/1413 1/2SM FG BKN002 FM141300
                       00000KT 1/2SM FG VV001 FM141800 VRB03KT
                       3SM BR BKN008 FM142200 VRB03KT P6SM FEW012=
200901140539 TAF KBLI 140539Z 1406/1506 00000KT 4SM BR OVC004
                      TEMPO 1406/1410 1/2SM FG OVC002 FM141000
                       00000KT 1/2SM FG VV001 FM141800 VRB03KT
                       3SM BR BKN008 FM142200 VRB03KT P6SM FEW012=
200901140048 KBLI 140048Z 1401/1424 00000KT P6SM SCT010 OVC020
                      TEMPO 1401/1404 BKN010 OVC020 FM140400 00000KT
                       5SM BR OVC010 FM140900 00000KT 2SM BR OVC006
                       FM141200 00000KT 3/4SM BR OVC004 FM141900
                       VRB03KT 3SM BR BKN008 FM142200 VRB03KT P6SM
                       FEW012=
200901132328 TAF KBLI 132328Z 1400/1424 VRB03KT P6SM BKN025 OVC200 FM140400
                       00000KT 5SM BR OVC012 FM140900 00000KT 2SM
                       BR OVC006 FM141200 00000KT 3/4SM BR OVC004
                       FM141900 VRB03KT 3SM BR BKN008 FM142200
                       VRB03KT P6SM FEW012=
200901131745 TAF KBLI 131745Z 1318/1418 VRB03KT P6SM FEW004 OVC028 FM140000
                       VRB03KT P6SM BKN030 FM140400 00000KT 5SM
                       BR OVC018 FM140900 00000KT 2SM BR OVC008
                       FM141400 00000KT 3/4SM BR OVC004=
200901131135 TAF KBLI 131135Z 1312/1412 18008KT P6SM OVC025
                      TEMPO 1313/1317 2SM BR BKN007 FM131700 VRB05KT
                       P6SM OVC018 FM132300 VRB05KT P6SM OVC012
                       FM140600 06004KT 2SM BR OVC007 FM140900
                       10007KT 1SM BR OVC004=
200901131012 KBLI 131012Z 1310/1406 18008KT P6SM OVC025
                      TEMPO 1312/1316 2SM BR BKN004 FM131600 VRB03KT
                       4SM BR OVC008 FM131800 VRB03KT 4SM BR OVC010
                       FM132200 VRB03KT P6SM BKN010=
200901130532 TAF KBLI 130532Z 1306/1406 18008KT P6SM SCT005 OVC025
                      TEMPO 1306/1310 3/4SM BR OVC002 FM131000
                       18005KT 1/2SM FG VV001 FM131800 VRB03KT
                       4SM BR OVC006 FM132200 VRB03KT P6SM BKN011=
200901122335 TAF KBLI 122335Z 1300/1324 18008KT 5SM BR BKN002 OVC005 FM130400
                       18008KT 2SM BR OVC002 FM130800 18008KT 3/4SM
                       BR OVC002
                      TEMPO 1310/1314 1/2SM FG FM131400 18005KT
                       1/2SM FG OVC002 FM131900 VRB03KT 4SM BR
                       OVC006 FM132200 VRB03KT P6SM BKN011=
200901122219 KBLI 122219Z 1222/1318 VRB03KT 1SM BR OVC004
                      TEMPO 1222/1224 1/4SM -DZ FG VV001 FM130000
                       VRB03KT 4SM BR BKN007 OVC015 FM130200 17008KT
                       P6SM OVC015 FM130600 17008KT 4SM BR OVC009=
200901122014 KBLI 122014Z 1220/1318 VRB03KT 1SM BR SCT002 OVC007
                      TEMPO 1220/1223 1/2SM -DZ FG OVC002 FM122300
                       VRB03KT 4SM BR BKN007 OVC015 FM130200 17008KT
                       P6SM OVC015 FM130600 17008KT 4SM BR OVC009=
200901121731 TAF KBLI 121731Z 1218/1318 00000KT 1 1/2SM BR OVC005
                      TEMPO 1218/1220 3/4SM BR VV002 FM122000 VRB03KT
                       4SM BR OVC009 FM122200 VRB03KT P6SM OVC015
                       FM130200 17008KT P6SM OVC015 FM130600 17008KT
                       4SM BR OVC009=
200901121640 KBLI 121640Z 1217/1312 00000KT 3/4SM BR VV003
                      TEMPO 1217/1219 1/2SM FG VV002 FM121900 VRB05KT
                       P6SM OVC012 FM130600 VRB05KT 2SM BR OVC007=
200901121139 TAF KBLI 121139Z 1212/1312 VRB03KT 2SM BR BKN003 OVC010
                      TEMPO 1212/1216 1SM BR BKN001 FM121700 VRB05KT
                       3SM BR SCT006 OVC012 FM121900 VRB05KT P6SM
                       OVC012 FM130600 VRB05KT 2SM BR OVC007=
200901120538 TAF KBLI 120538Z 1206/1306 VRB03KT 1/2SM FG BKN001 FM121700 VRB05KT
                       3SM BR OVC004 FM121900 VRB05KT P6SM BKN006
                       OVC012 FM122200 VRB05KT P6SM BKN015=
200901120502 KBLI 120502Z 1205/1224 VRB03KT 1/2SM FG OVC002 FM121400 00000KT
                       3SM BR OVC004 FM121800 VRB03KT P6SM BKN006
                       OVC012=
200901120042 KBLI 120042Z 1201/1224 20004KT 6SM -RA BR SCT003 OVC008
                      TEMPO 1201/1205 1/2SM -RA FG OVC002 FM120600
                       00000KT 3SM BR OVC003 FM121200 00000KT 3SM
                       BR OVC004
                      TEMPO 1212/1216 1/2SM FG OVC001 FM121800
                       VRB03KT P6SM BKN006 OVC012=
200901112328 TAF KBLI 112328Z 1200/1224 20004KT 6SM -RA BR SCT003 OVC008
                      TEMPO 1200/1203 2SM -RA BR OVC003 FM120300
                       VRB03KT 5SM -RA BR OVC003
                      TEMPO 1203/1206 2SM -RA BR FM120700 00000KT
                       4SM BR OVC003 FM121200 00000KT 3SM BR OVC004
                       TEMPO 1212/1216 1/2SM FG OVC001 FM121800
                       VRB03KT P6SM BKN006 OVC012=
200901112008 KBLI 112008Z 1120/1218 18008KT P6SM SCT005 OVC012 FM120000 VRB03KT
                       5SM -RA BR OVC005 FM120700 VRB03KT 5SM BR
                       OVC007 FM121200 00000KT 3SM BR OVC004
                      TEMPO 1212/1216 1/2SM FG OVC001 FM121700
                       VRB03KT P6SM BKN006 OVC012=
200901111745 TAF KBLI 111745Z 1118/1218 18008KT 3SM -RA BR SCT002 OVC007
                      TEMPO 1118/1122 1/2SM -RA FG OVC002 FM112200
                       VRB03KT 3SM -RA BR OVC003 FM120700 VRB03KT
                       5SM BR OVC007 FM121200 00000KT 3SM BR OVC004
                       TEMPO 1212/1216 1/2SM FG OVC001 FM121700
                       VRB03KT P6SM BKN006 OVC012=
200901111417 KBLI 111417Z 1114/1212 15006KT P6SM SCT006 SCT016 OVC027
                      TEMPO 1114/1118 4SM -RA BR BKN006 OVC012
                       FM111800 VRB05KT 4SM BR OVC012 FM120600
                       VRB05KT 5SM BR OVC015=
200901111140 TAF KBLI 111140Z 1112/1212 13006KT 2SM -RA BR SCT002 OVC010
                      TEMPO 1112/1116 BKN002 FM111600 VRB05KT 4SM
                       BR OVC012 FM120600 VRB05KT 5SM BR OVC015=
200901110957 KBLI 110957Z 1110/1206 13006KT 2SM -RA BR SCT002 OVC020
                      TEMPO 1110/1112 BKN002 FM111200 VRB05KT 3SM
                       BR OVC010 FM111400 VRB05KT P6SM OVC015 FM112000
                       02006KT P6SM VCSH OVC012=
200901110934 KBLI 110934Z 1110/1206 13006KT 2SM -RA BR SCT002 OVC020 FM111100
                       VRB05KT 3SM BR OVC010 FM111400 VRB05KT P6SM
                       OVC015 FM112000 02006KT P6SM VCSH OVC012=
200901110537 TAF KBLI 110537Z 1106/1206 13008KT 4SM -RA OVC020 FM110900 13006KT
                       4SM BR VCSH OVC013 FM111300 VRB05KT P6SM
                       OVC015 FM112000 02006KT P6SM VCSH OVC012=
200901102337 TAF KBLI 102337Z 1100/1124 12008KT P6SM -RA OVC023 FM110200 13008KT
                       4SM -RA OVC018 FM110900 13006KT 4SM BR VCSH
                       OVC013=
200901102111 KBLI 102111Z 1021/1118 12006KT 6SM -RA OVC021 FM110100 13009KT
                       4SM -RA OVC018 FM110900 13006KT 4SM BR OVC013=
200901101737 TAF KBLI 101737Z 1018/1118 00000KT P6SM -RA FEW022 OVC035
                      TEMPO 1018/1020 4SM -RA OVC022 FM102100 10008KT
                       4SM -RA OVC015 FM110900 13006KT 4SM BR OVC015=
200901101140 TAF KBLI 101140Z 1012/1112 15012KT P6SM -RA SCT020 BKN030 OVC040
                       FM101700 16012KT P6SM -RA OVC015 FM110600
                       13006KT 4SM BR OVC015=
200901100533 TAF KBLI 100533Z 1006/1106 15009KT P6SM VCSH SCT030 OVC060 FM100900
                       14012KT P6SM -RA BKN030 OVC040 FM101700
                       16012KT P6SM -RA OVC015 FM110200 13010KT
                       P6SM VCSH OVC025=
200901092338 TAF KBLI 092338Z 1000/1024 15005KT P6SM BKN025 OVC100
                      TEMPO 1000/1004 -RA FM100400 16009KT P6SM
                       -RA OVC022 FM101600 16011KT P6SM -RA OVC015=
200901092142 KBLI 092142Z 0922/1018 16010KT P6SM OVC030
                      TEMPO 1002/1006 -RA OVC040 FM100600 16012KT
                       P6SM -RA OVC030 FM101600 16015KT P6SM -RA
                       OVC020=
200901091951 KBLI 091951Z 0920/1018 18007KT P6SM FEW020 OVC040
                      TEMPO 1002/1006 -RA OVC040 FM100600 16012KT
                       P6SM -RA OVC030 FM101600 16015KT P6SM -RA
                       OVC020=
200901091740 TAF KBLI 091740Z 0918/1018 19003KT P6SM BKN120 FM091900 16008KT
                       P6SM SCT035 OVC080 FM092300 16010KT P6SM
                       SCT035 OVC060
                      TEMPO 1002/1006 -RA OVC040 FM100600 16012KT
                       P6SM -RA OVC030 FM101600 16015KT P6SM -RA
                       OVC020=
200901091120 TAF KBLI 091120Z 0912/1012 19003KT P6SM BKN025 FM091900 16008KT
                       P6SM SCT035 OVC080 FM092300 16010KT P6SM
                       SCT035 OVC060
                      TEMPO 1002/1006 -RA FM100600 16014KT P6SM
                       -RA OVC030=
200901090523 TAF KBLI 090523Z 0906/1006 00000KT P6SM OVC028 FM091000 18010KT
                       P6SM BKN020 FM091800 16008KT P6SM SCT025
                       OVC080 FM092300 16010KT P6SM SCT025 OVC050
                       TEMPO 1002/1006 -RA BKN025 OVC050=
200901082320 TAF KBLI 082320Z 0900/0924 VRB08KT P6SM VCSH BKN030
                      TEMPO 0900/0904 32012KT P6SM SCT040 FM090800
                       VRB04KT P6SM BKN030 FM091000 18010KT P6SM
                       BKN020=
200901082204 KBLI 082204Z 0822/0918 26007G18KT 4SM -SHRA BR BKN015 OVC030 FM090200
                       32012KT P6SM SCT025 BKN040 FM091000 18010KT
                       P6SM BKN020=
200901081720 TAF KBLI 081720Z 0818/0918 18010KT P6SM -SHRA SCT020 BKN040
                      TEMPO 0818/0822 BKN020 OVC040 FM082200 20008KT
                       P6SM VCSH SCT025 BKN040 FM090400 18007KT
                       P6SM SCT025 BKN040 FM091000 18010KT P6SM
                       BKN020=
200901081120 TAF KBLI 081120Z 0812/0912 16008KT P6SM -SHRA SCT010 BKN045 OVC060
                       FM081600 18014KT P6SM -SHRA BKN015 BKN040
                       FM082000 20008KT P6SM VCSH SCT025 BKN040
                       FM090400 18007KT P6SM SCT025 BKN040=
200901081003 KBLI 081003Z 0810/0906 00000KT 3SM -RA BR BKN001 OVC040 FM081100
                       19006KT 5SM -SHRA BR BKN010 OVC040 FM081900
                       19008KT P6SM VCSH BKN025 BKN040=
200901080801 KBLI 080801Z 0808/0906 19004KT 5SM -RA BR BKN003 OVC035 FM081100
                       22010G18KT P6SM -SHRA BKN015 OVC030 FM081900
                       19008KT P6SM VCSH BKN025 BKN040=
200901080522 TAF KBLI 080522Z 0806/0906 18010KT 4SM RA BKN007 OVC025 FM081100
                       22010G18KT P6SM -SHRA BKN015 OVC030 FM081900
                       19008KT P6SM VCSH BKN025 BKN040=
200901072320 TAF KBLI 072320Z 0800/0824 18010KT 4SM RA OVC015 FM081500 22012G22KT
                       P6SM -SHRA BKN015 OVC030 FM081900 30012KT
                       P6SM VCSH SCT025 BKN040=
200901072015 KBLI 072015Z 0720/0818 18014G22KT 4SM RA BR SCT012 OVC020
                      TEMPO 0720/0724 2SM RA BR OVC012 FM080000
                       18012G22KT 2SM RA OVC010 FM081500 21008KT
                       P6SM -SHRA BKN010 OVC030=
200901071727 TAF KBLI 071727Z 0718/0818 18012KT 5SM -RA BR SCT008 OVC015
                      TEMPO 0718/0722 3SM -RA BR BKN008 OVC012
                       FM080500 20012KT 2SM RA OVC005 FM081500
                       21008KT P6SM -SHRA BKN010 OVC030=
200901071121 TAF KBLI 071121Z 0712/0812 17014G24KT P6SM -RA OVC016 FM080000
                       16015KT 4SM RA BKN005 OVC012=
200901070533 TAF KBLI 070533Z 0706/0806 18012G25KT 6SM RA OVC015 FM080000 16015KT
                       4SM RA BKN005 OVC012=
200901062320 TAF KBLI 062320Z 0700/0724 17015G25KT 5SM -RA BKN020 OVC035
                      TEMPO 0700/0704 3SM -RA BR OVC015=
200901061720 TAF KBLI 061720Z 0618/0718 14012G22KT P6SM -RA BKN020 OVC035 FM070200
                       17020G30KT 2SM -RA BR OVC005=
200901061404 KBLI 061404Z 0614/0712 VRB04KT P6SM -RA SCT022 OVC040
                      TEMPO 0614/0618 BKN022 OVC040 FM061800 06005KT
                       2SM -RA BR OVC005 WS020/19040KT FM070200
                       16022G35KT 4SM -RA OVC005=
200901061120 TAF KBLI 061120Z 0612/0712 18003KT P6SM -RA OVC070 FM061400 06005KT
                       3SM -RA BR BKN005 OVC012 FM061800 06005KT
                       2SM -RA BR OVC005 WS020/19040KT FM070200
                       16022G35KT 4SM -RA OVC005=
200901060843 KBLI 060843Z 0609/0706 16005KT P6SM -RA BKN020 OVC030 FM061400
                       06005KT 3SM -RA BR BKN005 OVC012=
200901060534 TAF KBLI 060534Z 0606/0706 17008KT P6SM BKN045 BKN090 BKN120 FM061000
                       16006KT P6SM -RA OVC035 FM061400 06005KT
                       3SM -RA BR BKN005 OVC012=
200901060019 KBLI 060019Z 0600/0624 VRB03KT P6SM SCT015 BKN035 OVC050
                      TEMPO 0600/0602 6SM BR BKN015 OVC025 FM060200
                       19008KT P6SM SCT025 BKN040 FM060800 16006KT
                       P6SM -RA OVC025 FM061200 12010G20KT 3SM
                       -RA BR BKN005 OVC012=
200901052344 TAF KBLI 052344Z 0600/0624 VRB03KT P6SM BKN015 OVC025 FM060100
                       19008KT P6SM SCT025 BKN040 FM060800 16006KT
                       P6SM -RA OVC025 FM061200 12010G20KT 3SM
                       -RA BR BKN005 OVC012=
200901051949 KBLI 051949Z 0520/0618 VRB03KT 6SM BR SCT025 OVC050
                      TEMPO 0520/0523 4SM -SHRA BR BKN015 OVC025
                       FM052300 19012KT P6SM -SHRA SCT012 BKN022
                       OVC035 FM060100 19008KT P6SM SCT025 BKN040
                       FM060800 16006KT P6SM -RA OVC025 FM061200
                       12010G20KT 3SM -RA BR OVC012=
200901051903 KBLI 051903Z 0519/0618 VRB03KT 6SM BR SCT025 OVC050
                      TEMPO 0519/0521 5SM -SHRA OVC025 FM052200
                       19012KT P6SM -SHRA SCT012 BKN022 OVC035
                       FM060100 19008KT P6SM SCT025 BKN040 FM060800
                       16006KT P6SM -RA OVC025 FM061200 12010G20KT
                       3SM -RA BR OVC012=
200901051740 TAF KBLI 051740Z 0518/0618 VRB03KT 6SM BR SCT005 BKN015 OVC025
                       TEMPO 0518/0521 2SM -SHRASN BR BKN005 OVC015
                       FM052200 19012KT P6SM -SHRA SCT012 BKN022
                       OVC035 FM060100 19008KT P6SM SCT025 BKN040
                       FM060800 16006KT P6SM -RA OVC025 FM061200
                       12010G20KT 3SM -RA BR OVC012=
200901051602 KBLI 051602Z 0516/0612 VRB03KT 6SM BR SCT005 OVC015
                      TEMPO 0516/0519 2SM -SHRASN BR BKN005 OVC015
                       FM051900 19012KT P6SM -SHRA SCT012 BKN022
                       OVC035 FM060100 19008KT P6SM SCT025 BKN040
                       FM060800 16006KT P6SM -RA OVC025=
200901051429 KBLI 051429Z 0514/0612 VRB03KT 6SM -SHRA BR SCT008 OVC015
                      TEMPO 0514/0516 2SM -SHRASN BR BKN008 OVC015
                       FM051900 19012KT P6SM -SHRA SCT012 BKN022
                       OVC035 FM060100 19008KT P6SM SCT025 BKN040
                       FM060800 16006KT P6SM -RA OVC025=
200901051141 TAF KBLI 051141Z 0512/0612 VRB03KT P6SM -SHRA SCT008 BKN015 OVC030
                       TEMPO 0512/0516 3SM -SHRA BKN008 OVC015
                       FM051900 19012KT P6SM -SHRA SCT012 BKN022
                       OVC035 FM060100 19008KT P6SM SCT025 BKN040
                       FM060800 16006KT P6SM -RA OVC025=
200901050546 TAF KBLI 050546Z 0506/0606 16020G30KT 5SM -RA OVC022 FM050900 19012KT
                       6SM -RA SCT010 BKN018 OVC035 FM051100 19012KT
                       P6SM -SHRA SCT012 BKN025 OVC035 FM052200
                       19008KT P6SM SCT025 BKN040=
200901050004 KBLI 050004Z 0500/0524 15025G35KT 6SM -RASN SCT020 OVC040
                      TEMPO 0502/0505 2SM -SN OVC012 FM050500 16020G30KT
                       5SM -RASN OVC020 FM050800 19014KT 6SM -RA
                       SCT010 BKN018 OVC035 FM051300 14008KT P6SM
                       -SHRA SCT012 BKN025 OVC035=
200901042338 TAF KBLI 042338Z 0500/0524 16020G30KT 6SM -RASN SCT020 OVC040
                      TEMPO 0502/0505 2SM -SN OVC012 FM050500 16020G30KT
                       5SM -RASN OVC020 FM050800 19014KT 6SM -RA
                       SCT010 BKN018 OVC035 FM051300 14008KT P6SM
                       -SHRA SCT012 BKN025 OVC035=
200901042258 KBLI 042258Z 0423/0518 16020G30KT P6SM -RA OVC040 FM050400 16020G30KT
                       P6SM -RA OVC020 FM050800 19014KT P6SM -SHRA
                       SCT010 BKN020 OVC035=
200901042202 KBLI 042202Z 0422/0518 VRB05KT P6SM BKN040 OVC100 FM042300 16020G30KT
                       P6SM -RA OVC040 FM050400 16020G30KT P6SM
                       -RA OVC020 FM050800 19014KT P6SM -SHRA SCT010
                       BKN020 OVC035=
200901041733 TAF KBLI 041733Z 0418/0518 03007KT P6SM SCT100 OVC200 FM042000
                       16012KT P6SM SCT050 BKN100 OVC200 FM042300
                       16020G30KT P6SM -RA OVC040 FM050400 16020G30KT
                       P6SM -RA OVC020 FM050800 19014KT P6SM -SHRA
                       SCT010 BKN020 OVC035=
200901041136 TAF KBLI 041136Z 0412/0512 15008KT P6SM SCT025 BKN070 OVC120 FM041500
                       15008KT P6SM SCT100 OVC200 FM042000 16012KT
                       P6SM SCT050 BKN100 OVC200 FM042300 16020G30KT
                       P6SM -RA OVC040 FM050400 16020G30KT P6SM
                       -RA OVC020 FM050800 19014KT P6SM -SHRA SCT010
                       BKN020 OVC035=
200901040542 TAF KBLI 040542Z 0406/0506 16012KT P6SM SCT025 BKN040 OVC060
                      TEMPO 0406/0410 5SM -RASN BKN025 OVC040 FM041700
                       16014G22KT P6SM SCT050 BKN120 OVC200 FM042300
                       16016G26KT P6SM -RA OVC040=
200901032338 TAF KBLI 032338Z 0400/0424 14009KT P6SM VCSH SCT023 OVC060 FM040600
                       15010KT P6SM SCT040 BKN200 FM041500 14010KT
                       P6SM VCSH SCT025 BKN050 OVC120 FM042100
                       13011G21KT P6SM -RA OVC050=
200901031725 TAF KBLI 031725Z 0318/0418 35003KT P6SM VCSH SCT020 BKN050 OVC070
                       FM031900 15006KT P6SM -SHRA SCT012 BKN022
                       OVC040 FM040600 15010KT P6SM SCT040 BKN200
                       FM041500 14010KT P6SM SCT025 BKN050 OVC120=
200901031139 TAF KBLI 031139Z 0312/0412 VRB03KT P6SM SCT004 BKN025 OVC040
                      TEMPO 0312/0315 3SM BR BKN004 OVC025 FM031500
                       18006KT P6SM VCSH SCT012 BKN022 OVC040 FM032100
                       15006KT P6SM -SHRA SCT012 BKN022 OVC040
                       FM040600 15010KT P6SM SCT040 BKN200=
200901030538 TAF KBLI 030538Z 0306/0406 VRB03KT P6SM SCT025 BKN040 OVC060
                      TEMPO 0309/0313 3SM -SHSN BKN025 OVC040 FM031300
                       18006KT P6SM VCSH SCT012 BKN022 OVC040 FM032000
                       15006KT P6SM SCT025 BKN040=
200901022332 TAF KBLI 022332Z 0300/0324 33003KT P6SM VCSH SCT025 BKN045 FM030800
                       17003KT 2SM -SN BKN008 OVC015 FM031800 18003KT
                       P6SM SCT008 BKN015 OVC030=
200901021737 TAF KBLI 021737Z 0218/0318 00000KT P6SM BKN022 OVC030 FM022200
                       18006KT P6SM VCSH SCT025 BKN045 FM030400
                       17003KT 2SM -SN BKN008 OVC015 FM031100 18003KT
                       P6SM SCT008 BKN015 OVC030=
200901021140 TAF KBLI 021140Z 0212/0312 33006KT P6SM SCT005 BKN025
                      TEMPO 0212/0214 5SM BR FM021500 33006KT P6SM
                       SCT060 FM030000 18006KT P6SM SCT025 BKN045=
200901020544 TAF KBLI 020544Z 0206/0306 36004KT P6SM BKN035
                      TEMPO 0206/0210 4SM BR FM021700 36004KT P6SM
                       -SHRASN SCT005 BKN015 OVC030 FM022200 32006KT
                       P6SM VCSH SCT020 BKN035=
200901012354 TAF KBLI 012354Z 0200/0224 VRB03KT P6SM SCT005 OVC020
                      TEMPO 0200/0203 5SM BR BKN005 OVC020 FM020600
                       36003KT P6SM VCSH OVC005 FM021500 36005KT
                       P6SM -SHRASN SCT005 BKN015 OVC030=
200901012051 KBLI 012051Z 0121/0218 02007KT P6SM SCT015 OVC024
                      TEMPO 0121/0123 4SM BR BKN004 BKN015 OVC024
                       FM012300 36005KT P6SM SCT015 BKN025 OVC040
                       FM020200 33008KT P6SM BKN020 OVC040 FM020700
                       31010KT P6SM -SHRASN BKN020 OVC040=
200901011754 TAF KBLI 011754Z 0118/0218 02007KT 5SM -SN BR SCT010 BKN016 OVC025
                       TEMPO 0118/0122 2SM -SN BR BKN009 BKN016
                       OVC025 FM012200 36005KT P6SM -SN BKN009
                       OVC015 FM020200 33008KT P6SM -RA BKN017
                       OVC030 FM020700 31010KT P6SM -SHRASN BKN020
                       OVC040=
200901011607 KBLI 011607Z 0116/0212 02007KT 5SM -SN BR SCT002 OVC014
                      TEMPO 0116/0119 1SM -SN BR BKN002 OVC010
                       FM011900 36007KT P6SM -SN BKN002 BKN015
                       OVC025 FM012200 20011KT P6SM -RA BKN017
                       OVC030 FM020700 18010KT P6SM -SHRASN BKN020
                       OVC040=
200901011125 TAF KBLI 011125Z 0112/0212 12010KT P6SM -RA SCT008 BKN014 OVC025
                       TEMPO 0112/0116 5SM -RASN BR OVC010 FM011600
                       11009KT P6SM -RA BKN015 OVC025 FM012200
                       20011KT P6SM -RA BKN017 OVC030 FM020700
                       18010KT P6SM -SHRASN BKN020 OVC040=
200901010536 TAF KBLI 010536Z 0106/0206 16012KT P6SM -RA SCT012 OVC027
                      TEMPO 0106/0109 -RA BKN009 OVC015 FM010900
                       15011KT P6SM -RA SCT008 BKN014 OVC025
                      TEMPO 0109/0113 5SM -RASN BR OVC010 FM011300
                       11009KT P6SM -RA BKN014 OVC025 FM012000
                       18012KT P6SM -RA BKN012 OVC025 FM020400
                       18010KT P6SM -SHRA BKN020 OVC040=
200901010433 KBLI 010433Z 0105/0124 16010KT P6SM -RA SCT015 OVC025
                      TEMPO 0105/0109 -RA BKN009 OVC015 FM010900
                       15011KT P6SM -RA BKN015 OVC030
                      TEMPO 0109/0113 5SM -RASN BR OVC010 FM011300
                       15009KT P6SM -RA BKN015 OVC025 FM011800
                       19012KT P6SM -RA BKN007 OVC010=