##########################################################
# Query made at 02/21/2025 23:35:45 UTC
# Time interval: from 04/01/2009 00:00  to 04/30/2009 23:59  UTC
##########################################################

##########################################################
# KBLI, Bellingham, Bellingham International Airport (United States)
# WMO index: -----. WIGOS ID: Unknown
# Latitude 48-47-58N. Longitude 122-32-21W. Altitude 48 m.
##########################################################

###################################
#  METAR/SPECI from KBLI
###################################
200904302353 METAR KBLI 302353Z 30006KT 10SM CLR 17/01 A3020 RMK AO2 SLP234 T01720011 10172 20117 58014=
200904302253 METAR KBLI 302253Z VRB04KT 10SM CLR 17/01 A3022 RMK AO2 SLP240 T01720006=
200904302200 METAR KBLI NIL=
200904302100 METAR KBLI NIL=
200904301953 METAR KBLI 301953Z 16005KT 10SM CLR 14/04 A3025 RMK AO2 SLP251 T01390044=
200904301853 METAR KBLI 301853Z 18006KT 10SM CLR 14/04 A3026 RMK AO2 SLP254 T01390044=
200904301753 METAR KBLI 301753Z VRB06KT 10SM CLR 11/04 A3027 RMK AO2 SLP257 T01110044 10117 20067 58004=
200904301653 METAR KBLI 301653Z 18007KT 10SM CLR 12/03 A3027 RMK AO2 SLP258 T01170033=
200904301553 METAR KBLI 301553Z 00000KT 10SM CLR 11/03 A3028 RMK AO2 SLP260 T01110033=
200904301453 METAR KBLI 301453Z 00000KT 10SM CLR 10/04 A3028 RMK AO2 SLP261 T01000044 53006=
200904301353 METAR KBLI 301353Z 00000KT 10SM BKN110 09/04 A3026 RMK AO2 SLP255 T00890044=
200904301253 METAR KBLI 301253Z AUTO 00000KT 10SM OVC120 07/05 A3026 RMK AO2 SLP253 T00720050=
200904301153 METAR KBLI 301153Z AUTO 00000KT 10SM OVC120 08/05 A3026 RMK AO2 SLP254 T00830050 10106 20078 51005=
200904301053 METAR KBLI 301053Z AUTO 19004KT 10SM OVC110 09/06 A3026 RMK AO2 SLP253 T00890056=
200904300953 METAR KBLI 300953Z AUTO 00000KT 10SM FEW100 08/06 A3025 RMK AO2 SLP251 T00830056=
200904300853 METAR KBLI 300853Z AUTO 17004KT 10SM OVC110 09/05 A3025 RMK AO2 SLP249 T00940050 51003=
200904300753 METAR KBLI 300753Z AUTO 17004KT 10SM OVC110 10/04 A3024 RMK AO2 SLP249 T01000044 401560039=
200904300653 METAR KBLI 300653Z AUTO 17004KT 10SM OVC110 10/04 A3024 RMK AO2 SLP247 T01000044=
200904300553 METAR KBLI 300553Z AUTO 00000KT 10SM OVC110 10/03 A3024 RMK AO2 SLP246 T01000033 10150 20094 50000=
200904300453 METAR KBLI 300453Z 00000KT 10SM OVC100 11/03 A3024 RMK AO2 SLP247 T01060028=
200904300353 METAR KBLI 300353Z 00000KT 10SM OVC110 11/02 A3024 RMK AO2 SLP246 T01110022=
200904300253 METAR KBLI 300253Z 00000KT 10SM OVC110 13/03 A3024 RMK AO2 SLP246 T01280028 58001=
200904300153 METAR KBLI 300153Z 00000KT 10SM SCT110 14/02 A3024 RMK AO2 SLP246 T01390017=
200904300053 METAR KBLI 300053Z 27006KT 10SM FEW120 14/01 A3024 RMK AO2 SLP247 T01440011=
200904292353 METAR KBLI 292353Z 26006KT 10SM CLR 15/02 A3024 RMK AO2 SLP246 T01500017 10156 20106 58002=
200904292253 METAR KBLI 292253Z 19005KT 10SM CLR 14/01 A3024 RMK AO2 SLP246 T01390011=
200904292153 METAR KBLI 292153Z 16005KT 10SM CLR 15/01 A3025 RMK AO2 SLP250 T01500006=
200904292053 METAR KBLI 292053Z 16008KT 10SM BKN090 13/02 A3024 RMK AO2 SLP249 T01330022 53000=
200904291953 METAR KBLI 291953Z 17006KT 10SM FEW080 OVC095 13/03 A3024 RMK AO2 SLP247 T01280028=
200904291853 METAR KBLI 291853Z VRB05KT 10SM BKN090 13/02 A3024 RMK AO2 SLP248 T01280022=
200904291753 METAR KBLI 291753Z 19004KT 10SM OVC080 11/03 A3024 RMK AO2 SLP248 T01060033 10111 20039 51006=
200904291653 METAR KBLI 291653Z 18005KT 10SM BKN080 11/03 A3024 RMK AO2 SLP246 T01060033=
200904291553 METAR KBLI 291553Z 00000KT 10SM OVC080 09/04 A3023 RMK AO2 SLP245 T00890039=
200904291453 METAR KBLI 291453Z 16004KT 10SM OVC090 09/06 A3023 RMK AO2 SLP242 T00890056 53014=
200904291353 METAR KBLI 291353Z 00000KT 10SM OVC095 07/04 A3021 RMK AO2 SLP236 T00670044=
200904291253 METAR KBLI 291253Z AUTO 16003KT 10SM OVC095 06/03 A3019 RMK AO2 SLP231 T00560033=
200904291153 METAR KBLI 291153Z AUTO 00000KT 10SM CLR 04/02 A3018 RMK AO2 SLP228 T00440022 10106 20044 52012=
200904291053 METAR KBLI 291053Z AUTO 00000KT 10SM SCT100 06/03 A3017 RMK AO2 SLP225 T00560033=
200904290953 METAR KBLI 290953Z AUTO 00000KT 10SM OVC100 07/04 A3016 RMK AO2 SLP220 T00720039=
200904290853 METAR KBLI 290853Z AUTO 00000KT 10SM BKN110 08/04 A3015 RMK AO2 SLP217 T00780044 53014=
200904290753 METAR KBLI 290753Z AUTO 00000KT 10SM OVC100 09/04 A3013 RMK AO2 SLP209 T00940044 401890078=
200904290653 METAR KBLI 290653Z AUTO 16005KT 10SM CLR 09/05 A3011 RMK AO2 SLP205 T00940050=
200904290553 METAR KBLI 290553Z AUTO 17006KT 10SM FEW095 11/04 A3011 RMK AO2 SLP203 T01060039 10183 20100 51027=
200904290453 METAR KBLI 290453Z 17011G19KT 10SM FEW110 11/04 A3009 RMK AO2 SLP197 T01110039=
200904290353 METAR KBLI 290353Z 16010KT 10SM BKN110 12/01 A3007 RMK AO2 SLP188 T01220011=
200904290253 METAR KBLI 290253Z 17003KT 10SM OVC110 12/01 A3003 RMK AO2 SLP176 T01220006 51017=
200904290153 METAR KBLI 290153Z 26008KT 10SM BKN110 14/M01 A3001 RMK AO2 SLP170 T01391011=
200904290053 METAR KBLI 290053Z 00000KT 10SM OVC110 15/M02 A3000 RMK AO2 SLP167 T01501017=
200904282353 METAR KBLI 282353Z 01008G16KT 10SM FEW110 18/M07 A2998 RMK AO2 SLP159 T01831067 10189 20139 53001=
200904282253 METAR KBLI 282253Z AUTO 36008KT 10SM CLR 19/M06 A2998 RMK AO2 SLP157 T01891061 TSNO=
200904282153 METAR KBLI 282153Z 04013G20KT 10SM CLR 17/M07 A2998 RMK AO2 SLP158 T01721072=
200904282053 METAR KBLI 282053Z 02015G21KT 10SM FEW100 17/M07 A2998 RMK AO2 SLP158 T01721067 50001=
200904281953 METAR KBLI 281953Z 02009G23KT 10SM FEW090 17/M06 A2998 RMK AO2 SLP157 T01671061=
200904281853 METAR KBLI 281853Z 03012G23KT 10SM FEW090 14/M07 A2997 RMK AO2 PK WND 04026/1821 SLP157 T01441072=
200904281753 METAR KBLI 281753Z 01013G22KT 10SM SCT110 13/M07 A2997 RMK AO2 PK WND 03027/1710 SLP156 T01331067 10133 20078 53008=
200904281653 METAR KBLI 281653Z 04012G27KT 10SM BKN080 13/M07 A2996 RMK AO2 PK WND 03031/1608 SLP153 T01281067=
200904281553 METAR KBLI 281553Z 04014G24KT 10SM BKN080 12/M06 A2995 RMK AO2 PK WND 04030/1512 SLP150 T01221061=
200904281453 METAR KBLI 281453Z 03013G21KT 10SM CLR 12/M05 A2995 RMK AO2 SLP149 T01171050 52002=
200904281353 METAR KBLI 281353Z 36005KT 10SM BKN080 10/M03 A2995 RMK AO2 SLP148 T01001028=
200904281253 METAR KBLI 281253Z AUTO 03005KT 10SM CLR 09/M03 A2994 RMK AO2 SLP147 T00941028 TSNO=
200904281153 METAR KBLI 281153Z AUTO 35003KT 10SM FEW120 09/M03 A2994 RMK AO2 SLP147 T00891033 10133 20083 53004 TSNO=
200904281053 METAR KBLI 281053Z AUTO 00000KT 10SM BKN110 09/M02 A2994 RMK AO2 SLP145 T00891022 TSNO=
200904280953 METAR KBLI 280953Z AUTO 35003KT 10SM OVC110 09/01 A2993 RMK AO2 SLP142 T00890006 TSNO=
200904280853 METAR KBLI 280853Z AUTO 00000KT 10SM OVC120 10/01 A2993 RMK AO2 SLP143 T01000006 50004 TSNO=
200904280753 METAR KBLI 280753Z AUTO 23005KT 10SM OVC110 12/M01 A2994 RMK AO2 SLP144 T01171006 401830022 TSNO=
200904280653 METAR KBLI 280653Z 21004KT 10SM OVC100 12/M03 A2993 RMK AO2 SLP142 T01171028=
200904280553 METAR KBLI 280553Z 12005KT 10SM OVC095 12/M04 A2992 RMK AO2 SLP139 T01221044 10167 20106 53009=
200904280453 METAR KBLI 280453Z 01008KT 10SM BKN120 12/M06 A2990 RMK AO2 SLP130 T01171056=
200904280353 METAR KBLI 280353Z 34003KT 10SM FEW095 12/M03 A2990 RMK AO2 SLP130 T01171028=
200904280253 METAR KBLI 280253Z 29007KT 10SM FEW120 14/M06 A2989 RMK AO2 SLP130 T01391056 58007=
200904280153 METAR KBLI 280153Z 31009KT 10SM SCT110 14/M04 A2990 RMK AO2 SLP132 T01441044=
200904280053 METAR KBLI 280053Z 29009G18KT 10SM CLR 16/M07 A2991 RMK AO2 SLP135 T01561067=
200904272353 METAR KBLI 272353Z 29008G15KT 10SM CLR 16/M05 A2991 RMK AO2 SLP137 T01611050 10183 20150 56009=
200904272253 METAR KBLI 272253Z 29012G17KT 10SM CLR 17/M06 A2992 RMK AO2 SLP139 T01721056=
200904272153 METAR KBLI 272153Z 35009G16KT 310V010 10SM CLR 18/M08 A2993 RMK AO2 SLP143 T01781078=
200904272053 METAR KBLI 272053Z 34011G16KT 10SM CLR 17/M07 A2994 RMK AO2 SLP146 T01721072 58016=
200904271953 METAR KBLI 271953Z 03009G20KT 10SM CLR 17/M06 A2996 RMK AO2 SLP151 T01671061=
200904271853 METAR KBLI 271853Z 01014G21KT 10SM CLR 16/M06 A2998 RMK AO2 SLP157 T01561061=
200904271753 METAR KBLI 271753Z 02016G26KT 10SM CLR 15/M06 A2999 RMK AO2 PK WND 01032/1732 SLP162 T01501061 10150 20050 56018=
200904271653 METAR KBLI 271653Z 03017G25KT 10SM CLR 14/M04 A3000 RMK AO2 PK WND 02027/1641 SLP166 T01391044=
200904271553 METAR KBLI 271553Z 36010KT 10SM CLR 11/01 A3002 RMK AO2 SLP174 T01110011=
200904271453 METAR KBLI 271453Z 35007KT 10SM CLR 08/03 A3004 RMK AO2 SLP180 T00830028 58007=
200904271353 METAR KBLI 271353Z 31008KT 10SM CLR 07/03 A3006 RMK AO2 SLP185 T00670028=
200904271253 METAR KBLI 271253Z AUTO 33007KT 10SM FEW100 06/02 A3006 RMK AO2 SLP186 T00560022=
200904271153 METAR KBLI 271153Z AUTO 32008KT 10SM CLR 06/02 A3006 RMK AO2 SLP188 T00560022 10067 20022 56005=
200904271053 METAR KBLI 271053Z AUTO 32006KT 9SM CLR 04/02 A3006 RMK AO2 SLP189 T00390017=
200904270953 METAR KBLI 270953Z AUTO 00000KT 9SM CLR 04/02 A3007 RMK AO2 SLP191 T00390017=
200904270853 METAR KBLI 270853Z AUTO 35003KT 9SM CLR 03/02 A3008 RMK AO2 SLP194 T00330017 58012=
200904270753 METAR KBLI 270753Z AUTO 28003KT 10SM CLR 06/03 A3009 RMK AO2 SLP197 T00560028 401440011=
200904270653 METAR KBLI 270653Z AUTO 00000KT 10SM CLR 06/03 A3011 RMK AO2 SLP205 T00560028=
200904270553 METAR KBLI 270553Z AUTO 00000KT 10SM CLR 07/03 A3012 RMK AO2 SLP206 T00670028 10139 20056 58005=
200904270453 METAR KBLI 270453Z 00000KT 10SM CLR 07/03 A3012 RMK AO2 SLP209 T00720033=
200904270353 METAR KBLI 270353Z 00000KT 10SM CLR 07/03 A3013 RMK AO2 SLP211 T00720028=
200904270253 METAR KBLI 270253Z 00000KT 10SM CLR 11/03 A3013 RMK AO2 SLP211 T01110028 56012=
200904270153 METAR KBLI 270153Z 00000KT 10SM CLR 13/02 A3013 RMK AO2 SLP212 T01280017=
200904270053 METAR KBLI 270053Z VRB03KT 10SM CLR 14/03 A3015 RMK AO2 SLP217 T01390033=
200904262353 METAR KBLI 262353Z 20005KT 10SM CLR 14/04 A3017 RMK AO2 SLP223 T01390044 10144 20094 58020=
200904262253 METAR KBLI 262253Z VRB05KT 10SM CLR 14/03 A3019 RMK AO2 SLP231 T01390033=
200904262153 METAR KBLI 262153Z 16007KT 10SM CLR 13/04 A3021 RMK AO2 SLP237 T01330039=
200904262053 METAR KBLI 262053Z 22006KT 10SM CLR 12/04 A3022 RMK AO2 SLP243 T01220039 58018=
200904261953 METAR KBLI 261953Z 17009KT 10SM CLR 12/03 A3024 RMK AO2 SLP249 T01170033=
200904261853 METAR KBLI 261853Z 18006KT 10SM CLR 11/03 A3027 RMK AO2 SLP258 T01060028=
200904261753 METAR KBLI 261753Z 17006KT 10SM CLR 09/04 A3028 RMK AO2 SLP260 T00940039 10100 20011 58004=
200904261653 METAR KBLI 261653Z 18007KT 10SM CLR 08/03 A3029 RMK AO2 SLP264 T00830033=
200904261553 METAR KBLI 261553Z 20005KT 10SM CLR 08/04 A3029 RMK AO2 SLP266 T00780039=
200904261453 METAR KBLI 261453Z 00000KT 10SM CLR 07/03 A3029 RMK AO2 SLP264 T00720033 53010=
200904261353 METAR KBLI 261353Z 00000KT 8SM CLR 02/01 A3027 RMK AO2 SLP259 T00220006=
200904261253 METAR KBLI 261253Z AUTO 00000KT 10SM CLR 01/M01 A3026 RMK AO2 SLP254 T00111006=
200904261153 METAR KBLI 261153Z AUTO 00000KT 8SM CLR 02/00 A3026 RMK AO2 SLP254 T00170000 10067 20017 53010=
200904261053 METAR KBLI 261053Z AUTO 00000KT 10SM FEW060 03/01 A3024 RMK AO2 SLP248 T00330011=
200904260953 METAR KBLI 260953Z AUTO 16003KT 10SM CLR 04/02 A3023 RMK AO2 SLP245 T00440017=
200904260853 METAR KBLI 260853Z AUTO 00000KT 10SM CLR 04/02 A3023 RMK AO2 SLP244 T00440017 51012=
200904260753 METAR KBLI 260753Z AUTO 00000KT 10SM CLR 04/02 A3022 RMK AO2 SLP242 T00440017 401220039=
200904260653 METAR KBLI 260653Z AUTO 00000KT 10SM CLR 04/02 A3020 RMK AO2 SLP236 T00440017=
200904260553 METAR KBLI 260553Z AUTO 00000KT 10SM BKN060 06/03 A3019 RMK AO2 SLP232 T00610028 10122 20056 51016=
200904260453 METAR KBLI 260453Z 19003KT 10SM BKN060 07/03 A3018 RMK AO2 SLP229 T00720028=
200904260353 METAR KBLI 260353Z 00000KT 10SM CLR 07/02 A3016 RMK AO2 SLP222 T00720022=
200904260253 METAR KBLI 260253Z 00000KT 10SM CLR 10/02 A3014 RMK AO2 SLP216 T01000017 53003=
200904260153 METAR KBLI 260153Z 18004KT 10SM CLR 11/01 A3014 RMK AO2 SLP214 T01110011=
200904260053 METAR KBLI 260053Z 24004KT 10SM CLR 11/01 A3014 RMK AO2 SLP213 T01110011=
200904252353 METAR KBLI 252353Z 17007KT 150V230 10SM CLR 12/01 A3014 RMK AO2 SLP213 T01170006 10117 20089 58001=
200904252253 METAR KBLI 252253Z VRB06KT 10SM CLR 12/01 A3014 RMK AO2 SLP215 T01170011=
200904252153 METAR KBLI 252153Z 17006KT 10SM FEW038 SCT045 11/01 A3014 RMK AO2 SLP215 T01060011=
200904252053 METAR KBLI 252053Z VRB05KT 10SM BKN038 OVC060 10/01 A3014 RMK AO2 SLP213 T01000011 51005=
200904251953 METAR KBLI 251953Z VRB06KT 10SM FEW027 BKN035 OVC044 10/02 A3013 RMK AO2 SLP212 T01000017=
200904251853 METAR KBLI 251853Z VRB06KT 10SM SCT037 OVC055 09/00 A3013 RMK AO2 SLP210 T00890000=
200904251753 METAR KBLI 251753Z 26004KT 10SM SCT035 BKN045 OVC065 09/00 A3012 RMK AO2 SLP208 T00890000 10089 20067 53011=
200904251704 SPECI KBLI 251704Z 26006KT 10SM FEW029 OVC038 09/01 A3011 RMK AO2=
200904251704 SPECI KBLI 251704Z 26006KT 10SM FEW029 OVC038 09/01 A3011 RMK AO2=
200904251653 METAR KBLI 251653Z VRB03KT 10SM BKN029 OVC038 08/02 A3011 RMK AO2 SLP204 T00830022=
200904251600 SPECI KBLI 251600Z 18003KT 10SM BKN030 BKN036 OVC055 08/02 A3010 RMK AO2=
200904251600 SPECI KBLI 251600Z 18003KT 10SM BKN030 BKN036 OVC055 08/02 A3010 RMK AO2=
200904251553 METAR KBLI 251553Z 19004KT 10SM FEW020 BKN029 OVC034 08/03 A3010 RMK AO2 SLP200 T00780028=
200904251535 SPECI KBLI 251535Z 19003KT 10SM FEW020 BKN029 OVC034 08/03 A3010 RMK AO2=
200904251535 SPECI KBLI 251535Z 19003KT 10SM FEW020 BKN029 OVC034 08/03 A3010 RMK AO2=
200904251453 METAR KBLI 251453Z VRB04KT 10SM SCT032 OVC055 07/03 A3009 RMK AO2 SLP197 T00720028 53011=
200904251424 SPECI KBLI 251424Z 17004KT 10SM FEW030 OVC055 08/03 A3008 RMK AO2=
200904251424 SPECI KBLI 251424Z 17004KT 10SM FEW030 OVC055 08/03 A3008 RMK AO2=
200904251353 METAR KBLI 251353Z 19006KT 10SM BKN027 OVC034 07/02 A3007 RMK AO2 SLP189 T00720022=
200904251302 SPECI KBLI 251302Z AUTO 00000KT 10SM BKN025 BKN032 OVC085 07/02 A3006 RMK AO2=
200904251302 SPECI KBLI 251302Z AUTO 00000KT 10SM BKN025 BKN032 OVC085 07/02 A3006 RMK AO2=
200904251253 METAR KBLI 251253Z AUTO 18006KT 10SM SCT025 BKN030 OVC085 07/02 A3006 RMK AO2 SLP185 T00720022=
200904251208 SPECI KBLI 251208Z AUTO 00000KT 10SM BKN029 OVC065 07/02 A3005 RMK AO2=
200904251208 SPECI KBLI 251208Z AUTO 00000KT 10SM BKN029 OVC065 07/02 A3005 RMK AO2=
200904251153 METAR KBLI 251153Z AUTO 17004KT 10SM SCT031 BKN065 OVC080 07/02 A3005 RMK AO2 SLP183 T00670017 10100 20050 53004=
200904251053 METAR KBLI 251053Z AUTO 16005KT 10SM SCT029 BKN080 06/01 A3004 RMK AO2 SLP180 T00610011=
200904251046 SPECI KBLI 251046Z AUTO 16006KT 10SM BKN029 BKN080 07/01 A3004 RMK AO2=
200904251046 SPECI KBLI 251046Z AUTO 16006KT 10SM BKN029 BKN080 07/01 A3004 RMK AO2=
200904250953 METAR KBLI 250953Z AUTO 18005KT 10SM CLR 06/01 A3003 RMK AO2 SLP178 T00610006=
200904250853 METAR KBLI 250853Z AUTO 16006KT 10SM CLR 07/00 A3004 RMK AO2 SLP179 T00720000 58003=
200904250753 METAR KBLI 250753Z AUTO 19007KT 10SM CLR 08/01 A3005 RMK AO2 SLP183 T00830006 401440006=
200904250653 METAR KBLI 250653Z AUTO 17005KT 10SM CLR 09/M01 A3005 RMK AO2 SLP184 T00891011=
200904250553 METAR KBLI 250553Z AUTO 16010KT 10SM FEW120 10/01 A3005 RMK AO2 SLP182 T01000006 10144 20100 58002=
200904250453 METAR KBLI 250453Z 16007KT 10SM CLR 11/02 A3005 RMK AO2 SLP184 T01060017=
200904250353 METAR KBLI 250353Z 17007KT 10SM CLR 11/03 A3006 RMK AO2 SLP187 T01060028=
200904250253 METAR KBLI 250253Z 18008KT 10SM CLR 11/02 A3005 RMK AO2 SLP185 T01110022 56011=
200904250153 METAR KBLI 250153Z 17008KT 10SM CLR 12/00 A3006 RMK AO2 SLP188 T01220000=
200904250053 METAR KBLI 250053Z 17008KT 10SM CLR 13/M02 A3008 RMK AO2 SLP192 T01331017=
200904242353 METAR KBLI 242353Z 17005KT 10SM CLR 14/M03 A3009 RMK AO2 SLP196 T01391033 10144 20094 58012=
200904242253 METAR KBLI 242253Z AUTO 17007KT 10SM CLR 13/M02 A3010 RMK AO2 SLP200 T01331017 TSNO=
200904242153 METAR KBLI 242153Z 17007KT 10SM CLR 13/M01 A3011 RMK AO2 SLP204 T01331006=
200904242053 METAR KBLI 242053Z 15009KT 10SM CLR 13/02 A3012 RMK AO2 SLP209 T01280017 58006=
200904241953 METAR KBLI 241953Z 17011G16KT 10SM CLR 12/02 A3013 RMK AO2 SLP211 T01170017=
200904241853 METAR KBLI 241853Z 20007KT 160V230 10SM CLR 11/03 A3014 RMK AO2 SLP214 T01110028=
200904241753 METAR KBLI 241753Z 20007KT 10SM CLR 09/02 A3014 RMK AO2 SLP215 T00940022 10094 20006 50001=
200904241653 METAR KBLI 241653Z 17010KT 10SM CLR 09/01 A3015 RMK AO2 SLP217 T00890011=
200904241553 METAR KBLI 241553Z VRB04KT 10SM CLR 08/02 A3015 RMK AO2 SLP216 T00830022=
200904241453 METAR KBLI 241453Z 00000KT 10SM CLR 04/M01 A3014 RMK AO2 SLP213 T00441006 53013=
200904241353 METAR KBLI 241353Z 00000KT 10SM CLR 02/M02 A3012 RMK AO2 SLP206 T00171017=
200904241253 METAR KBLI 241253Z AUTO 00000KT 10SM CLR 01/M02 A3010 RMK AO2 SLP202 T00061017=
200904241153 METAR KBLI 241153Z AUTO 00000KT 10SM CLR 02/M01 A3010 RMK AO2 SLP201 70004 T00221006 10067 20022 53005=
200904241053 METAR KBLI 241053Z AUTO 15005KT 10SM CLR 05/M01 A3009 RMK AO2 SLP197 T00501006=
200904240953 METAR KBLI 240953Z AUTO 15007KT 10SM CLR 06/00 A3008 RMK AO2 SLP194 T00610000=
200904240853 METAR KBLI 240853Z AUTO 16006KT 10SM CLR 04/M01 A3009 RMK AO2 SLP196 T00441011 51008=
200904240753 METAR KBLI 240753Z AUTO 15005KT 10SM CLR 04/M03 A3008 RMK AO2 SLP196 T00441028 401170011=
200904240653 METAR KBLI 240653Z AUTO 16003KT 10SM CLR 05/M03 A3008 RMK AO2 SLP192 T00501033=
200904240553 METAR KBLI 240553Z AUTO 00000KT 10SM CLR 06/M03 A3006 RMK AO2 SLP188 T00561028 10117 20044 51006=
200904240453 METAR KBLI 240453Z 14005KT 10SM CLR 06/M04 A3006 RMK AO2 SLP186 T00611039=
200904240353 METAR KBLI 240353Z 00000KT 10SM CLR 06/M02 A3005 RMK AO2 SLP185 T00611022=
200904240253 METAR KBLI 240253Z 00000KT 10SM CLR 08/M03 A3004 RMK AO2 SLP181 T00831033 55001=
200904240153 METAR KBLI 240153Z 28006KT 10SM CLR 11/M04 A3004 RMK AO2 SLP180 T01111044=
200904240053 METAR KBLI 240053Z 28005KT 10SM CLR 11/M06 A3004 RMK AO2 SLP181 T01111056=
200904232353 METAR KBLI 232353Z VRB06KT 10SM CLR 11/M01 A3005 RMK AO2 SLP182 60004 T01111011 10117 20067 58006=
200904232253 METAR KBLI 232253Z 27008KT 10SM SCT060 11/01 A3005 RMK AO2 SLP185 T01110011=
200904232153 METAR KBLI 232153Z VRB06KT 10SM CLR 11/02 A3006 RMK AO2 SLP188 T01060017=
200904232053 METAR KBLI 232053Z 00000KT 10SM BKN050 07/02 A3006 RMK AO2 RAB12E48 SLP189 P0004 60004 T00720017 55001=
200904232031 SPECI KBLI 232031Z 35011G17KT 320V030 5SM -RA BKN026 OVC035 07/01 A3007 RMK AO2 RAB12 P0004=
200904232031 SPECI KBLI 232031Z 35011G17KT 320V030 5SM -RA BKN026 OVC035 07/01 A3007 RMK AO2 RAB12 P0004=
200904231953 METAR KBLI 231953Z 27007KT 230V290 10SM FEW085 10/01 A3005 RMK AO2 SLP185 T01000011=
200904231853 METAR KBLI 231853Z 29005KT 10SM SCT029 BKN046 OVC060 09/02 A3007 RMK AO2 SLP190 T00890017=
200904231850 SPECI KBLI 231850Z 28005KT 10SM BKN029 OVC047 09/02 A3007 RMK AO2=
200904231850 SPECI KBLI 231850Z 28005KT 10SM BKN029 OVC047 09/02 A3007 RMK AO2=
200904231801 SPECI KBLI 231801Z 31005KT 10SM BKN032 09/01 A3007 RMK AO2=
200904231801 SPECI KBLI 231801Z 31005KT 10SM BKN032 09/01 A3007 RMK AO2=
200904231753 METAR KBLI 231753Z VRB04KT 10SM BKN029 BKN035 09/01 A3007 RMK AO2 SLP189 T00890011 10089 20011 51004=
200904231653 METAR KBLI 231653Z VRB04KT 10SM BKN017 OVC028 08/03 A3006 RMK AO2 SLP188 T00830033=
200904231643 SPECI KBLI 231643Z 17003KT 10SM SCT019 BKN028 OVC038 08/03 A3006 RMK AO2=
200904231643 SPECI KBLI 231643Z 17003KT 10SM SCT019 BKN028 OVC038 08/03 A3006 RMK AO2=
200904231613 SPECI KBLI 231613Z 00000KT 10SM FEW021 BKN030 OVC036 07/02 A3006 RMK AO2=
200904231613 SPECI KBLI 231613Z 00000KT 10SM FEW021 BKN030 OVC036 07/02 A3006 RMK AO2=
200904231553 METAR KBLI 231553Z 00000KT 10SM BKN016 BKN024 OVC029 07/02 A3006 RMK AO2 SLP188 T00670017=
200904231508 SPECI KBLI 231508Z 00000KT 10SM FEW016 BKN021 BKN032 06/02 A3005 RMK AO2=
200904231508 SPECI KBLI 231508Z 00000KT 10SM FEW016 BKN021 BKN032 06/02 A3005 RMK AO2=
200904231453 METAR KBLI 231453Z 00000KT 10SM SCT026 05/02 A3005 RMK AO2 SLP185 T00500017 53017=
200904231353 METAR KBLI 231353Z 07003KT 10SM FEW026 BKN033 03/00 A3004 RMK AO2 SLP180 T00280000=
200904231306 SPECI KBLI 231306Z AUTO 00000KT 10SM OVC033 03/00 A3002 RMK AO2=
200904231306 SPECI KBLI 231306Z AUTO 00000KT 10SM OVC033 03/00 A3002 RMK AO2=
200904231253 METAR KBLI 231253Z AUTO 00000KT 10SM OVC029 03/01 A3002 RMK AO2 SLP173 T00280006=
200904231214 SPECI KBLI 231214Z AUTO 34005KT 10SM BKN023 02/00 A3001 RMK AO2=
200904231214 SPECI KBLI 231214Z AUTO 34005KT 10SM BKN023 02/00 A3001 RMK AO2=
200904231153 METAR KBLI 231153Z AUTO 00000KT 10SM CLR 03/01 A3000 RMK AO2 SLP168 T00330006 10056 20028 53012=
200904231053 METAR KBLI 231053Z AUTO 00000KT 10SM CLR 04/01 A2999 RMK AO2 SLP164 T00440006=
200904230953 METAR KBLI 230953Z AUTO 00000KT 10SM SCT080 BKN100 04/01 A2998 RMK AO2 SLP160 T00440006=
200904230853 METAR KBLI 230853Z AUTO 14006KT 10SM FEW032 BKN090 OVC110 06/01 A2997 RMK AO2 SLP157 T00560006 53006=
200904230753 METAR KBLI 230753Z AUTO 00000KT 10SM CLR 04/M01 A2997 RMK AO2 SLP156 T00441006 401170033=
200904230653 METAR KBLI 230653Z AUTO 16003KT 10SM CLR 04/01 A2995 RMK AO2 SLP151 T00440006=
200904230553 METAR KBLI 230553Z AUTO 00000KT 10SM CLR 05/00 A2995 RMK AO2 SLP150 60000 T00500000 10117 20050 53007=
200904230453 METAR KBLI 230453Z 27005KT 10SM SCT100 07/M02 A2995 RMK AO2 SLP149 T00721017=
200904230353 METAR KBLI 230353Z 00000KT 10SM BKN085 BKN110 09/M05 A2992 RMK AO2 SLP140 T00891050=
200904230253 METAR KBLI 230253Z VRB05KT 10SM FEW049 BKN065 OVC095 09/M06 A2993 RMK AO2 RAB10E21 SLP144 P0000 60000 T00891061 58006=
200904230153 METAR KBLI 230153Z 28005KT 10SM BKN060 BKN070 OVC100 11/M02 A2994 RMK AO2 SLP147 T01061022=
200904230053 METAR KBLI 230053Z 17006KT 10SM BKN085 BKN110 11/01 A2994 RMK AO2 SLP148 T01060006=
200904222353 METAR KBLI 222353Z 17007KT 10SM SCT100 11/M02 A2995 RMK AO2 SLP149 T01111022 10117 20089 58016=
200904222253 METAR KBLI 222253Z 17009KT 10SM CLR 12/M01 A2996 RMK AO2 SLP154 T01171011=
200904222153 METAR KBLI 222153Z 15006KT 10SM FEW050 11/M02 A2998 RMK AO2 SLP160 T01111017=
200904222053 METAR KBLI 222053Z VRB03KT 10SM FEW046 11/M02 A3000 RMK AO2 SLP165 T01061017 58009=
200904221953 METAR KBLI 221953Z 00000KT 10SM CLR 11/M01 A3001 RMK AO2 SLP170 T01061011=
200904221853 METAR KBLI 221853Z 31009KT 270V330 10SM FEW039 OVC049 10/M02 A3002 RMK AO2 SLP174 T01001017=
200904221753 METAR KBLI 221753Z 28005KT 10SM OVC049 09/00 A3003 RMK AO2 SLP174 T00940000 10100 20067 55002=
200904221653 METAR KBLI 221653Z 30006KT 10SM SCT047 09/M01 A3002 RMK AO2 SLP174 T00891011=
200904221553 METAR KBLI 221553Z 30006KT 10SM FEW047 BKN085 08/00 A3003 RMK AO2 SLP175 T00780000=
200904221453 METAR KBLI 221453Z 00000KT 10SM CLR 08/01 A3003 RMK AO2 SLP176 T00780006 55001=
200904221353 METAR KBLI 221353Z 28003KT 10SM SCT046 07/01 A3003 RMK AO2 SLP176 T00670006=
200904221253 METAR KBLI 221253Z AUTO 28004KT 10SM BKN046 07/01 A3003 RMK AO2 SLP176 T00670011=
200904221153 METAR KBLI 221153Z AUTO 29007KT 10SM OVC044 08/02 A3003 RMK AO2 SLP177 60002 70002 T00780022 10117 20078 53005=
200904221053 METAR KBLI 221053Z AUTO 26004KT 10SM OVC030 08/04 A3003 RMK AO2 SLP174 T00830039=
200904221040 SPECI KBLI 221040Z AUTO 27005KT 10SM OVC030 09/04 A3002 RMK AO2=
200904221040 SPECI KBLI 221040Z AUTO 27005KT 10SM OVC030 09/04 A3002 RMK AO2=
200904220953 METAR KBLI 220953Z AUTO 00000KT 10SM OVC028 09/06 A3002 RMK AO2 SLP173 T00890056=
200904220853 METAR KBLI 220853Z AUTO 25004KT 10SM OVC026 10/07 A3002 RMK AO2 SLP172 60002 T01000072 55002=
200904220810 SPECI KBLI 220810Z AUTO VRB06KT 10SM FEW016 BKN024 OVC030 11/08 A3002 RMK AO2=
200904220810 SPECI KBLI 220810Z AUTO VRB06KT 10SM FEW016 BKN024 OVC030 11/08 A3002 RMK AO2=
200904220753 METAR KBLI 220753Z AUTO VRB04KT 10SM BKN033 OVC065 11/08 A3001 RMK AO2 RAE35 SLP169 P0000 T01110083 401830061=
200904220653 METAR KBLI 220653Z AUTO 19006KT 10SM -RA OVC070 12/09 A3000 RMK AO2 SLP167 P0002 T01170089=
200904220553 METAR KBLI 220553Z AUTO 18005KT 9SM -RA OVC070 12/09 A3003 RMK AO2 RAB22 SLP174 P0000 60000 T01170089 10167 20117 58003=
200904220453 METAR KBLI 220453Z 18007KT 10SM OVC090 12/08 A3003 RMK AO2 SLP177 T01170083=
200904220353 METAR KBLI 220353Z 18006KT 10SM BKN110 12/08 A3003 RMK AO2 SLP176 T01220078=
200904220253 METAR KBLI 220253Z 20005KT 10SM CLR 13/08 A3004 RMK AO2 SLP178 T01330083 56008=
200904220153 METAR KBLI 220153Z VRB03KT 10SM CLR 16/07 A3004 RMK AO2 SLP181 T01560072=
200904220053 METAR KBLI 220053Z 18007KT 10SM CLR 17/08 A3004 RMK AO2 SLP180 T01670083=
200904212353 METAR KBLI 212353Z 16009KT 10SM CLR 17/08 A3006 RMK AO2 SLP185 T01670083 10183 20139 56016=
200904212253 METAR KBLI 212253Z AUTO 18009KT 10SM CLR 18/07 A3007 RMK AO2 SLP189 T01780072=
200904212153 METAR KBLI 212153Z 16011KT 10SM CLR 18/09 A3009 RMK AO2 SLP197 T01780089=
200904212053 SPECI KBLI 212053Z 17013KT 10SM CLR 17/07 A3011 RMK AO2 SLP202 T01720072 58014=
200904211953 METAR KBLI 211953Z 17012G17KT 10SM CLR 16/08 A3012 RMK AO2 SLP206 T01560083=
200904211853 METAR KBLI 211853Z 18010KT 10SM CLR 14/08 A3014 RMK AO2 SLP213 T01440078=
200904211753 METAR KBLI 211753Z 15006KT 10SM CLR 14/08 A3015 RMK AO2 SLP216 T01390078 10139 20061 58011=
200904211653 METAR KBLI 211653Z VRB03KT 9SM SCT004 12/09 A3017 RMK AO2 SLP225 T01220094=
200904211553 METAR KBLI 211553Z 00000KT 6SM BR BKN004 11/09 A3018 RMK AO2 SLP226 VIS S-SW 2 T01110089=
200904211517 SPECI KBLI 211517Z VRB03KT 8SM BKN004 11/09 A3018 RMK AO2 VIS S-SW 2=
200904211517 SPECI KBLI 211517Z VRB03KT 8SM BKN004 11/09 A3018 RMK AO2 VIS S-SW 2=
200904211453 METAR KBLI 211453Z 00000KT 7SM FEW004 11/09 A3018 RMK AO2 SLP227 T01060089 56005=
200904211353 METAR KBLI 211353Z 00000KT 10SM BCFG CLR 07/06 A3018 RMK AO2 SLP227 T00670056=
200904211328 SPECI KBLI 211328Z AUTO 00000KT 3SM BR CLR 07/05 A3018 RMK AO2=
200904211328 SPECI KBLI 211328Z AUTO 00000KT 3SM BR CLR 07/05 A3018 RMK AO2=
200904211323 SPECI KBLI 211323Z AUTO 00000KT 1 3/4SM BR CLR 07/04 A3018 RMK AO2=
200904211323 SPECI KBLI 211323Z AUTO 00000KT 1 3/4SM BR CLR 07/04 A3018 RMK AO2=
200904211300 SPECI KBLI 211300Z AUTO 00000KT 4SM BR CLR 07/06 A3019 RMK AO2=
200904211300 SPECI KBLI 211300Z AUTO 00000KT 4SM BR CLR 07/06 A3019 RMK AO2=
200904211253 METAR KBLI 211253Z AUTO 14003KT 2SM BR CLR 07/06 A3019 RMK AO2 SLP229 T00670056=
200904211243 SPECI KBLI 211243Z AUTO 00000KT 1 1/2SM BR CLR 07/06 A3019 RMK AO2=
200904211243 SPECI KBLI 211243Z AUTO 00000KT 1 1/2SM BR CLR 07/06 A3019 RMK AO2=
200904211153 METAR KBLI 211153Z AUTO 16003KT 5SM BR CLR 07/06 A3019 RMK AO2 SLP231 T00720061 10100 20067 56001=
200904211053 METAR KBLI 211053Z AUTO 00000KT 4SM BR CLR 08/06 A3019 RMK AO2 SLP231 T00780061=
200904211008 SPECI KBLI 211008Z AUTO 00000KT 6SM BR CLR 07/06 A3019 RMK AO2=
200904211008 SPECI KBLI 211008Z AUTO 00000KT 6SM BR CLR 07/06 A3019 RMK AO2=
200904210953 METAR KBLI 210953Z AUTO 00000KT 2 1/2SM BR CLR 08/06 A3019 RMK AO2 SLP230 T00780061=
200904210928 SPECI KBLI 210928Z AUTO 00000KT 3SM BR CLR 08/07 A3019 RMK AO2=
200904210928 SPECI KBLI 210928Z AUTO 00000KT 3SM BR CLR 08/07 A3019 RMK AO2=
200904210912 SPECI KBLI 210912Z AUTO 16003KT 1 1/2SM BR CLR 08/07 A3019 RMK AO2 VIS 1/2V5=
200904210912 SPECI KBLI 210912Z AUTO 16003KT 1 1/2SM BR CLR 08/07 A3019 RMK AO2 VIS 1/2V5=
200904210853 METAR KBLI 210853Z AUTO 00000KT 3SM BR CLR 09/07 A3020 RMK AO2 SLP232 T00890072 56003=
200904210843 SPECI KBLI 210843Z AUTO 15003KT 2SM BR CLR 08/07 A3020 RMK AO2 VIS 1V4=
200904210843 SPECI KBLI 210843Z AUTO 15003KT 2SM BR CLR 08/07 A3020 RMK AO2 VIS 1V4=
200904210753 METAR KBLI 210753Z AUTO 00000KT 5SM BR CLR 09/07 A3020 RMK AO2 SLP234 T00890072 402170056=
200904210653 METAR KBLI 210653Z AUTO 00000KT 10SM CLR 09/07 A3020 RMK AO2 SLP233 T00940067=
200904210553 METAR KBLI 210553Z AUTO 00000KT 10SM CLR 10/07 A3021 RMK AO2 SLP235 T01000072 10217 20089 51009=
200904210453 METAR KBLI 210453Z 00000KT 10SM CLR 11/07 A3021 RMK AO2 SLP235 T01110072=
200904210353 METAR KBLI 210353Z 00000KT 10SM CLR 12/07 A3019 RMK AO2 SLP231 T01220072=
200904210253 METAR KBLI 210253Z 27007KT 10SM CLR 15/07 A3018 RMK AO2 SLP226 T01500072 56013=
200904210153 METAR KBLI 210153Z 27005KT 10SM CLR 18/09 A3018 RMK AO2 SLP228 T01830089=
200904210053 METAR KBLI 210053Z 33003KT 10SM CLR 21/08 A3020 RMK AO2 SLP233 T02110078=
200904202353 METAR KBLI 202353Z 01005KT 10SM CLR 22/09 A3022 RMK AO2 SLP237 T02170089 10217 20150 58016=
200904202253 METAR KBLI 202253Z VRB06KT 10SM CLR 21/09 A3024 RMK AO2 SLP245 T02110089=
200904202153 METAR KBLI 202153Z 35006KT 10SM CLR 21/08 A3025 RMK AO2 SLP250 T02060078=
200904202053 METAR KBLI 202053Z 34007KT 10SM CLR 20/08 A3026 RMK AO2 SLP253 T02000078 58014=
200904201953 METAR KBLI 201953Z 04006KT 10SM CLR 18/08 A3027 RMK AO2 SLP258 T01780083=
200904201853 METAR KBLI 201853Z 04005KT 10SM CLR 17/08 A3029 RMK AO2 SLP264 T01670083=
200904201753 METAR KBLI 201753Z 33004KT 10SM OVC080 16/08 A3030 RMK AO2 SLP268 T01560078 10156 20056 50003=
200904201653 METAR KBLI 201653Z 32003KT 10SM OVC075 13/08 A3030 RMK AO2 SLP269 T01330078=
200904201553 METAR KBLI 201553Z 00000KT 10SM BKN075 12/07 A3031 RMK AO2 SLP269 T01220072=
200904201453 METAR KBLI 201453Z 00000KT 10SM FEW110 10/08 A3029 RMK AO2 SLP265 T01000078 53003=
200904201415 SPECI KBLI 201415Z 00000KT 10SM CLR 07/05 A3029 RMK AO2=
200904201415 SPECI KBLI 201415Z 00000KT 10SM CLR 07/05 A3029 RMK AO2=
200904201358 SPECI KBLI 201358Z 00000KT 1 3/4SM BR CLR 07/05 A3029 RMK AO2=
200904201358 SPECI KBLI 201358Z 00000KT 1 3/4SM BR CLR 07/05 A3029 RMK AO2=
200904201353 METAR KBLI 201353Z 00000KT 4SM BR CLR 06/05 A3029 RMK AO2 SLP265 T00560050=
200904201253 METAR KBLI 201253Z AUTO 00000KT 6SM BR CLR 06/04 A3028 RMK AO2 SLP262 T00610044=
200904201215 SPECI KBLI 201215Z AUTO 00000KT 3SM BR CLR 07/06 A3028 RMK AO2=
200904201215 SPECI KBLI 201215Z AUTO 00000KT 3SM BR CLR 07/06 A3028 RMK AO2=
200904201204 SPECI KBLI 201204Z AUTO 00000KT 1 1/2SM BR CLR 07/06 A3029 RMK AO2 VIS 1/2V4=
200904201204 SPECI KBLI 201204Z AUTO 00000KT 1 1/2SM BR CLR 07/06 A3029 RMK AO2 VIS 1/2V4=
200904201153 METAR KBLI 201153Z AUTO 00000KT 7SM CLR 07/05 A3028 RMK AO2 SLP262 T00670050 10100 20067 58003=
200904201053 METAR KBLI 201053Z AUTO 00000KT 9SM BKN060 08/06 A3029 RMK AO2 SLP265 T00780061=
200904200953 METAR KBLI 200953Z AUTO 00000KT 10SM FEW065 SCT075 08/06 A3029 RMK AO2 SLP265 T00780061=
200904200853 METAR KBLI 200853Z AUTO 00000KT 10SM OVC075 10/07 A3029 RMK AO2 SLP266 T01000072 50000=
200904200753 METAR KBLI 200753Z AUTO 00000KT 10SM SCT075 09/07 A3030 RMK AO2 SLP267 T00940067 401670078=
200904200653 METAR KBLI 200653Z AUTO 00000KT 10SM BKN075 09/06 A3030 RMK AO2 SLP266 T00890061=
200904200553 METAR KBLI 200553Z AUTO 00000KT 10SM BKN070 10/07 A3030 RMK AO2 SLP266 T01000067 10161 20100 51008=
200904200453 METAR KBLI 200453Z 00000KT 10SM BKN080 OVC090 11/07 A3029 RMK AO2 SLP265 T01110072=
200904200353 METAR KBLI 200353Z 31003KT 10SM FEW080 12/07 A3028 RMK AO2 SLP262 T01170067=
200904200253 METAR KBLI 200253Z 00000KT 10SM BKN095 14/06 A3027 RMK AO2 SLP258 T01390061 56010=
200904200153 METAR KBLI 200153Z 30005KT 10SM OVC090 16/06 A3027 RMK AO2 SLP259 T01560056=
200904200053 METAR KBLI 200053Z 23003KT 10SM OVC100 16/04 A3029 RMK AO2 SLP263 T01560039=
200904192353 METAR KBLI 192353Z 19003KT 10SM BKN095 16/03 A3030 RMK AO2 SLP268 T01560033 10167 20128 56012=
200904192253 METAR KBLI 192253Z VRB05KT 10SM CLR 16/04 A3031 RMK AO2 SLP271 T01610039=
200904192153 METAR KBLI 192153Z 00000KT 10SM FEW060 15/04 A3032 RMK AO2 SLP275 T01500044=
200904192053 METAR KBLI 192053Z 17004KT 10SM CLR 14/04 A3034 RMK AO2 SLP281 T01440039 58000=
200904191953 METAR KBLI 191953Z VRB05KT 10SM CLR 14/03 A3035 RMK AO2 SLP284 T01390028=
200904191853 METAR KBLI 191853Z VRB04KT 10SM CLR 14/03 A3034 RMK AO2 SLP282 T01390033=
200904191753 METAR KBLI 191753Z VRB04KT 10SM OVC070 13/04 A3034 RMK AO2 SLP281 T01280039 10128 20078 51005=
200904191653 METAR KBLI 191653Z 00000KT 10SM BKN070 12/04 A3034 RMK AO2 SLP280 T01220039=
200904191553 METAR KBLI 191553Z 00000KT 10SM OVC065 10/04 A3034 RMK AO2 SLP280 T01000044=
200904191453 METAR KBLI 191453Z 00000KT 10SM BKN055 OVC070 09/05 A3033 RMK AO2 SLP276 T00890050 53006=
200904191353 METAR KBLI 191353Z 00000KT 10SM OVC060 08/06 A3032 RMK AO2 SLP273 T00830056=
200904191253 METAR KBLI 191253Z AUTO 00000KT 10SM FEW060 OVC080 08/05 A3031 RMK AO2 SLP272 T00830050=
200904191153 METAR KBLI 191153Z AUTO 00000KT 10SM OVC065 09/05 A3031 RMK AO2 SLP270 T00890050 10100 20083 58007=
200904191053 METAR KBLI 191053Z AUTO 09003KT 10SM OVC065 09/05 A3031 RMK AO2 SLP272 T00890050=
200904190953 METAR KBLI 190953Z AUTO 00000KT 10SM OVC065 09/05 A3033 RMK AO2 SLP277 T00890050=
200904190853 METAR KBLI 190853Z AUTO 00000KT 10SM OVC070 09/05 A3033 RMK AO2 SLP277 T00940050 53004=
200904190753 METAR KBLI 190753Z AUTO 00000KT 10SM OVC080 09/05 A3032 RMK AO2 SLP273 T00940050 401500022=
200904190653 METAR KBLI 190653Z AUTO 00000KT 10SM OVC080 09/04 A3031 RMK AO2 SLP272 T00940039=
200904190553 METAR KBLI 190553Z AUTO 00000KT 10SM OVC085 09/04 A3032 RMK AO2 SLP273 T00940039 10128 20089 50000=
200904190453 METAR KBLI 190453Z 33004KT 10SM OVC090 09/03 A3031 RMK AO2 SLP273 T00890033=
200904190353 METAR KBLI 190353Z 15003KT 10SM OVC100 10/03 A3032 RMK AO2 SLP274 T01000033=
200904190253 METAR KBLI 190253Z 00000KT 10SM BKN120 11/02 A3032 RMK AO2 SLP274 T01110022 56004=
200904190153 METAR KBLI 190153Z 28003KT 10SM SCT120 12/00 A3032 RMK AO2 SLP274 T01170000=
200904190053 METAR KBLI 190053Z 27005KT 10SM CLR 12/01 A3032 RMK AO2 SLP276 T01220006=
200904182353 METAR KBLI 182353Z 26005KT 10SM CLR 13/01 A3033 RMK AO2 SLP278 T01280011 10150 20106 56016=
200904182253 METAR KBLI 182253Z 30005KT 10SM CLR 14/02 A3034 RMK AO2 SLP281 T01440022=
200904182153 METAR KBLI 182153Z VRB03KT 10SM CLR 14/02 A3035 RMK AO2 SLP286 T01440022=
200904182053 METAR KBLI 182053Z 36004KT 10SM CLR 14/02 A3037 RMK AO2 SLP293 T01390017 57021=
200904181953 METAR KBLI 181953Z 31006KT 10SM CLR 13/02 A3040 RMK AO2 SLP301 T01280017=
200904181853 METAR KBLI 181853Z 32004KT 10SM CLR 12/03 A3042 RMK AO2 SLP308 T01170028=
200904181753 METAR KBLI 181753Z 02004KT 10SM CLR 11/03 A3044 RMK AO2 SLP315 T01110033 10111 20022 58008=
200904181653 METAR KBLI 181653Z 00000KT 10SM CLR 09/03 A3045 RMK AO2 SLP319 T00940033=
200904181553 METAR KBLI 181553Z 04004KT 10SM SCT050 07/02 A3046 RMK AO2 SLP322 T00670022=
200904181453 METAR KBLI 181453Z 01003KT 10SM OVC050 05/02 A3046 RMK AO2 SLP323 T00500017 53010=
200904181353 METAR KBLI 181353Z AUTO 00000KT 10SM OVC044 03/01 A3044 RMK AO2 SLP317 T00330006=
200904181253 METAR KBLI 181253Z AUTO 34003KT 10SM CLR 03/00 A3043 RMK AO2 SLP314 T00280000=
200904181153 METAR KBLI 181153Z AUTO 00000KT 10SM BKN045 03/00 A3043 RMK AO2 SLP313 70025 T00280000 10067 20028 58003=
200904181053 METAR KBLI 181053Z AUTO 01003KT 10SM BKN047 03/01 A3043 RMK AO2 SLP313 T00330006=
200904180953 METAR KBLI 180953Z AUTO 00000KT 10SM OVC047 06/01 A3044 RMK AO2 SLP316 T00610011=
200904180853 METAR KBLI 180853Z AUTO 00000KT 10SM FEW049 06/00 A3044 RMK AO2 SLP315 T00560000 50000=
200904180753 METAR KBLI 180753Z AUTO 00000KT 10SM FEW060 04/01 A3044 RMK AO2 SLP318 T00440006 401440044=
200904180653 METAR KBLI 180653Z AUTO 00000KT 10SM CLR 06/01 A3044 RMK AO2 SLP316 T00560006=
200904180553 METAR KBLI 180553Z AUTO 09004KT 10SM CLR 07/01 A3044 RMK AO2 SLP315 T00670006 10144 20067 51022=
200904180453 METAR KBLI 180453Z 23004KT 10SM CLR 09/M02 A3044 RMK AO2 SLP313 T00941017=
200904180353 METAR KBLI 180353Z 00000KT 10SM CLR 10/M03 A3041 RMK AO2 SLP303 T01001028=
200904180253 METAR KBLI 180253Z 00000KT 10SM CLR 11/M03 A3037 RMK AO2 SLP292 T01111028 53012=
200904180153 METAR KBLI 180153Z VRB03KT 10SM CLR 13/M02 A3036 RMK AO2 SLP288 T01281017=
200904180053 METAR KBLI 180053Z 22007KT 200V260 10SM CLR 13/M02 A3035 RMK AO2 SLP283 T01331017=
200904172353 METAR KBLI 172353Z VRB05G15KT 10SM CLR 14/M01 A3034 RMK AO2 SLP279 60010 T01391011 10139 20094 50013=
200904172253 METAR KBLI 172253Z 27007G18KT 240V310 10SM FEW041 14/03 A3034 RMK AO2 SLP281 T01390028=
200904172153 METAR KBLI 172153Z 21006KT 10SM FEW025 12/07 A3031 RMK AO2 SLP272 T01170067=
200904172053 METAR KBLI 172053Z 19006KT 10SM FEW047 BKN065 11/08 A3030 RMK AO2 RAB06E39 SLP266 P0010 60010 T01110083 53013 $=
200904172028 SPECI KBLI 172028Z 17010G17KT 10SM FEW018 SCT027 OVC046 09/06 A3030 RMK AO2 RAB06RAEMM P0010=
200904172028 SPECI KBLI 172028Z 17010G17KT 10SM FEW018 SCT027 OVC046 09/06 A3030 RMK AO2 RAB06RAEMM P0010=
200904172019 SPECI KBLI 172019Z 19009G16KT 2 1/2SM -RA BKN025 OVC060 11/08 A3031 RMK AO2 RAB06 PRESRR P0008=
200904172019 SPECI KBLI 172019Z 19009G16KT 2 1/2SM -RA BKN025 OVC060 11/08 A3031 RMK AO2 RAB06 PRESRR P0008=
200904171953 METAR KBLI 171953Z 18008KT 10SM BKN060 OVC090 11/07 A3028 RMK AO2 SLP262 T01110072=
200904171853 METAR KBLI 171853Z 16011KT 10SM FEW060 SCT090 11/07 A3027 RMK AO2 RAB43E52 SLP257 P0000 T01110072=
200904171753 METAR KBLI 171753Z 17010G18KT 10SM FEW020 BKN045 OVC090 11/07 A3026 RMK AO2 SLP254 60015 T01110072 10111 20089 53010=
200904171653 METAR KBLI 171653Z 17012KT 10SM BKN025 BKN060 10/07 A3024 RMK AO2 SLP247 T01000072=
200904171622 SPECI KBLI 171622Z 16013KT 10SM SCT013 BKN025 OVC049 10/07 A3023 RMK AO2=
200904171622 SPECI KBLI 171622Z 16013KT 10SM SCT013 BKN025 OVC049 10/07 A3023 RMK AO2=
200904171553 METAR KBLI 171553Z 16009G16KT 10SM BKN013 OVC019 10/07 A3023 RMK AO2 RAE1456 SLP244 P0000 T01000067=
200904171453 METAR KBLI 171453Z 15008G16KT 10SM -RA OVC015 09/07 A3023 RMK AO2 SLP243 P0002 60015 T00940067 53006=
200904171353 METAR KBLI 171353Z AUTO 14009KT 10SM -RA BKN019 BKN029 OVC039 09/07 A3021 RMK AO2 SLP236 P0006 T00890067=
200904171253 METAR KBLI 171253Z AUTO 14007KT 8SM -RA OVC019 09/07 A3021 RMK AO2 SLP237 P0007 T00890067=
200904171153 METAR KBLI 171153Z AUTO 15007KT 7SM -RA OVC019 09/07 A3021 RMK AO2 SLP236 P0009 60029 70029 T00940067 10144 20094 56000=
200904171053 METAR KBLI 171053Z AUTO 15004KT 8SM -RA BKN021 OVC027 09/07 A3021 RMK AO2 SLP237 P0008 T00940067=
200904171014 SPECI KBLI 171014Z AUTO 15010G16KT 8SM -RA BKN029 OVC037 09/06 A3021 RMK AO2 P0003=
200904171014 SPECI KBLI 171014Z AUTO 15010G16KT 8SM -RA BKN029 OVC037 09/06 A3021 RMK AO2 P0003=
200904170953 METAR KBLI 170953Z AUTO 14008KT 8SM -RA BKN036 OVC043 10/07 A3021 RMK AO2 SLP236 P0007 T01000067=
200904170853 METAR KBLI 170853Z AUTO 14011KT 10SM -RA OVC047 11/06 A3021 RMK AO2 SLP237 P0003 60005 T01060056 51014=
200904170753 METAR KBLI 170753Z AUTO 14009G16KT 10SM -RA OVC055 11/06 A3020 RMK AO2 SLP234 P0002 T01110061 401500017=
200904170653 METAR KBLI 170653Z AUTO 19004KT 10SM -RA OVC055 12/06 A3019 RMK AO2 RAB09 SLP230 P0000 T01170056=
200904170553 METAR KBLI 170553Z AUTO 15013G21KT 10SM OVC060 14/02 A3017 RMK AO2 SLP223 60000 T01440017 10150 20122 58011=
200904170453 METAR KBLI 170453Z 14013G21KT 10SM OVC070 14/M01 A3018 RMK AO2 RAB10E47 SLP227 P0000 T01441006=
200904170353 METAR KBLI 170353Z 16003KT 10SM BKN065 OVC075 13/03 A3019 RMK AO2 RAB19E47 SLP231 P0000 T01280028=
200904170253 METAR KBLI 170253Z 00000KT 10SM BKN070 OVC085 13/02 A3020 RMK AO2 SLP235 T01280022 56008=
200904170153 METAR KBLI 170153Z 00000KT 10SM BKN080 13/01 A3021 RMK AO2 SLP238 T01330011=
200904170053 METAR KBLI 170053Z VRB03KT 10SM OVC080 14/01 A3022 RMK AO2 SLP241 T01390011=
200904162353 METAR KBLI 162353Z 21006KT 10SM BKN095 14/02 A3023 RMK AO2 SLP244 T01390022 10144 20100 58015=
200904162253 METAR KBLI 162253Z 22005KT 10SM CLR 14/02 A3024 RMK AO2 SLP249 T01390022=
200904162153 METAR KBLI 162153Z 18008KT 10SM CLR 14/03 A3026 RMK AO2 SLP254 T01390028=
200904162053 METAR KBLI 162053Z 18008KT 10SM CLR 13/03 A3027 RMK AO2 SLP258 T01280033 58011=
200904161953 METAR KBLI 161953Z VRB05KT 10SM CLR 12/03 A3029 RMK AO2 SLP264 T01220033=
200904161853 METAR KBLI 161853Z VRB03KT 10SM CLR 11/03 A3029 RMK AO2 SLP266 T01110033=
200904161753 METAR KBLI 161753Z 21004KT 10SM CLR 10/03 A3030 RMK AO2 SLP269 T01000028 10100 20022 58005=
200904161653 METAR KBLI 161653Z VRB04KT 10SM CLR 09/04 A3032 RMK AO2 SLP274 T00890039=
200904161553 METAR KBLI 161553Z 19003KT 10SM CLR 08/02 A3032 RMK AO2 SLP275 T00780022=
200904161453 METAR KBLI 161453Z 00000KT 10SM CLR 06/03 A3032 RMK AO2 SLP274 T00610033 52006=
200904161353 METAR KBLI 161353Z 00000KT 10SM CLR 03/02 A3031 RMK AO2 SLP273 T00280017=
200904161253 METAR KBLI 161253Z AUTO 00000KT 10SM CLR 03/01 A3030 RMK AO2 SLP270 T00280006=
200904161153 METAR KBLI 161153Z AUTO 00000KT 10SM CLR 02/01 A3030 RMK AO2 SLP269 T00220006 10078 20017 53015=
200904161053 METAR KBLI 161053Z AUTO 00000KT 10SM CLR 02/01 A3028 RMK AO2 SLP263 T00220006=
200904160953 METAR KBLI 160953Z AUTO 16003KT 10SM CLR 05/02 A3027 RMK AO2 SLP258 T00500017=
200904160853 METAR KBLI 160853Z AUTO 15003KT 10SM CLR 06/02 A3026 RMK AO2 SLP254 T00560017 53006=
200904160753 METAR KBLI 160753Z AUTO 17003KT 10SM CLR 06/02 A3025 RMK AO2 SLP252 T00610017 401170000=
200904160653 METAR KBLI 160653Z AUTO 14006KT 10SM CLR 07/02 A3024 RMK AO2 SLP249 T00720022=
200904160553 METAR KBLI 160553Z AUTO 16006KT 10SM CLR 08/02 A3024 RMK AO2 SLP248 T00780022 10117 20078 51014=
200904160453 METAR KBLI 160453Z 16007KT 10SM CLR 08/03 A3023 RMK AO2 SLP244 T00830033=
200904160353 METAR KBLI 160353Z 16008KT 10SM CLR 08/03 A3021 RMK AO2 SLP238 T00830028=
200904160253 METAR KBLI 160253Z 16008KT 10SM CLR 09/04 A3020 RMK AO2 SLP233 T00890039 53009=
200904160153 METAR KBLI 160153Z 17008KT 10SM CLR 11/02 A3018 RMK AO2 SLP228 T01060022=
200904160053 METAR KBLI 160053Z 18006KT 10SM CLR 12/02 A3017 RMK AO2 SLP225 T01170022=
200904152353 METAR KBLI 152353Z 17010KT 10SM CLR 12/02 A3017 RMK AO2 SLP224 T01170022 10117 20089 56005=
200904152253 METAR KBLI 152253Z 16011KT 10SM CLR 11/03 A3017 RMK AO2 SLP224 T01110033=
200904152153 METAR KBLI 152153Z 16011KT 10SM CLR 11/04 A3018 RMK AO2 SLP229 T01110039=
200904152053 METAR KBLI 152053Z 17010G15KT 10SM CLR 11/03 A3018 RMK AO2 SLP229 T01060033 55003=
200904151953 METAR KBLI 151953Z 18011KT 10SM CLR 10/03 A3018 RMK AO2 SLP228 T01000028=
200904151853 METAR KBLI 151853Z 17010KT 10SM CLR 09/04 A3019 RMK AO2 SLP231 T00890039=
200904151753 METAR KBLI 151753Z 20009G16KT 10SM CLR 09/03 A3019 RMK AO2 SLP232 T00890028 10089 20000 51007=
200904151653 METAR KBLI 151653Z 16010KT 10SM CLR 08/03 A3019 RMK AO2 SLP231 T00830028=
200904151553 METAR KBLI 151553Z 14004KT 10SM CLR 08/02 A3019 RMK AO2 SLP230 T00780022=
200904151453 METAR KBLI 151453Z 15003KT 10SM CLR 06/02 A3017 RMK AO2 SLP225 T00610017 53016=
200904151353 METAR KBLI 151353Z 00000KT 10SM CLR 01/M01 A3016 RMK AO2 SLP221 T00061011=
200904151253 METAR KBLI 151253Z AUTO 00000KT 10SM CLR 01/M02 A3014 RMK AO2 SLP215 T00061017=
200904151153 METAR KBLI 151153Z AUTO 00000KT 10SM CLR 01/M02 A3013 RMK AO2 SLP209 T00111017 10050 20006 51009=
200904151053 METAR KBLI 151053Z AUTO 00000KT 10SM CLR 01/M02 A3012 RMK AO2 SLP207 T00111017=
200904150953 METAR KBLI 150953Z AUTO 00000KT 10SM CLR 02/M01 A3011 RMK AO2 SLP203 T00221006=
200904150853 METAR KBLI 150853Z AUTO 15003KT 10SM CLR 04/M01 A3010 RMK AO2 SLP200 T00391006 52008=
200904150753 METAR KBLI 150753Z AUTO 15004KT 10SM FEW090 03/00 A3009 RMK AO2 SLP197 T00330000 401170000=
200904150653 METAR KBLI 150653Z AUTO 00000KT 10SM FEW100 04/01 A3008 RMK AO2 SLP194 T00390006=
200904150553 METAR KBLI 150553Z AUTO 00000KT 10SM CLR 05/01 A3007 RMK AO2 SLP191 T00500006 10111 20033 50003=
200904150453 METAR KBLI 150453Z 00000KT 10SM FEW110 06/02 A3007 RMK AO2 SLP192 T00610017=
200904150353 METAR KBLI 150353Z 00000KT 10SM OVC110 08/02 A3007 RMK AO2 SLP190 T00780017=
200904150253 METAR KBLI 150253Z 00000KT 10SM OVC110 09/01 A3006 RMK AO2 SLP189 T00890011 55000=
200904150153 METAR KBLI 150153Z VRB05KT 10SM BKN100 09/01 A3006 RMK AO2 SLP188 T00940006=
200904150053 METAR KBLI 150053Z 28006KT 10SM CLR 10/01 A3006 RMK AO2 SLP189 T01000006=
200904142353 METAR KBLI 142353Z VRB05KT 10SM CLR 12/01 A3007 RMK AO2 SLP189 T01170006 10117 20072 56009=
200904142253 METAR KBLI 142253Z 29008KT 10SM CLR 11/M01 A3007 RMK AO2 SLP191 T01111011=
200904142153 METAR KBLI 142153Z 29009KT 10SM FEW100 10/M01 A3009 RMK AO2 SLP196 T01001006=
200904142053 METAR KBLI 142053Z 25008G18KT 200V280 10SM SCT034 10/01 A3009 RMK AO2 SLP198 T01000006 56009=
200904141953 METAR KBLI 141953Z 27007KT 10SM SCT034 09/01 A3010 RMK AO2 SLP201 T00940011=
200904141917 SPECI KBLI 141917Z 29005KT 10SM SCT029 BKN035 09/01 A3010 RMK AO2=
200904141917 SPECI KBLI 141917Z 29005KT 10SM SCT029 BKN035 09/01 A3010 RMK AO2=
200904141853 METAR KBLI 141853Z 33006KT 10SM BKN027 BKN032 10/01 A3011 RMK AO2 SLP204 T01000011=
200904141801 SPECI KBLI 141801Z 35005KT 10SM BKN024 08/02 A3012 RMK AO2=
200904141801 SPECI KBLI 141801Z 35005KT 10SM BKN024 08/02 A3012 RMK AO2=
200904141753 METAR KBLI 141753Z 30005KT 10SM SCT018 07/02 A3012 RMK AO2 SLP208 T00720017 10078 20000 55001=
200904141653 METAR KBLI 141653Z 00000KT 10SM SCT028 07/03 A3012 RMK AO2 SLP207 T00720028=
200904141553 METAR KBLI 141553Z 34004KT 10SM SCT028 05/02 A3012 RMK AO2 SLP209 T00500022=
200904141453 METAR KBLI 141453Z 35003KT 7SM SCT028 03/02 A3012 RMK AO2 SLP209 T00280017 53007=
200904141353 METAR KBLI 141353Z 34003KT 10SM CLR 00/M01 A3011 RMK AO2 SLP207 T00001011=
200904141313 SPECI KBLI 141313Z AUTO 00000KT 10SM SCT011 01/M01 A3011 RMK AO2=
200904141313 SPECI KBLI 141313Z AUTO 00000KT 10SM SCT011 01/M01 A3011 RMK AO2=
200904141253 METAR KBLI 141253Z AUTO 35003KT 10SM BKN009 01/M01 A3010 RMK AO2 SLP203 T00061011=
200904141250 SPECI KBLI 141250Z AUTO 36003KT 10SM BKN009 01/M01 A3010 RMK AO2=
200904141250 SPECI KBLI 141250Z AUTO 36003KT 10SM BKN009 01/M01 A3010 RMK AO2=
200904141238 SPECI KBLI 141238Z AUTO 00000KT 10SM SCT009 01/M01 A3010 RMK AO2=
200904141238 SPECI KBLI 141238Z AUTO 00000KT 10SM SCT009 01/M01 A3010 RMK AO2=
200904141153 METAR KBLI 141153Z AUTO 00000KT 10SM CLR 02/01 A3009 RMK AO2 SLP200 T00220006 10044 20022 58003=
200904141053 METAR KBLI 141053Z AUTO 15004KT 10SM CLR 04/01 A3010 RMK AO2 SLP201 T00390011=
200904140953 METAR KBLI 140953Z AUTO 17004KT 10SM OVC037 04/01 A3010 RMK AO2 SLP200 T00390011=
200904140853 METAR KBLI 140853Z AUTO 00000KT 10SM FEW040 03/01 A3010 RMK AO2 SLP202 T00280006 51003=
200904140753 METAR KBLI 140753Z AUTO 14003KT 10SM FEW044 BKN065 03/01 A3010 RMK AO2 SLP202 T00330006 401000022=
200904140653 METAR KBLI 140653Z AUTO 14004KT 10SM BKN070 04/01 A3010 RMK AO2 SLP199 T00390006=
200904140553 METAR KBLI 140553Z AUTO 00000KT 10SM FEW060 03/00 A3009 RMK AO2 SLP200 T00280000 10089 20022 51012=
200904140453 METAR KBLI 140453Z 00000KT 10SM CLR 04/01 A3008 RMK AO2 SLP195 T00440006=
200904140353 METAR KBLI 140353Z 14004KT 10SM CLR 06/00 A3007 RMK AO2 SLP191 T00610000=
200904140253 METAR KBLI 140253Z 00000KT 10SM CLR 07/00 A3006 RMK AO2 SLP187 T00720000 53001=
200904140153 METAR KBLI 140153Z 16005KT 10SM CLR 08/M01 A3006 RMK AO2 SLP185 T00781011=
200904140053 METAR KBLI 140053Z 16008KT 10SM CLR 08/00 A3006 RMK AO2 SLP185 T00780000=
200904132353 METAR KBLI 132353Z 17013KT 10SM CLR 08/01 A3006 RMK AO2 SLP186 T00830006 10100 20083 53001=
200904132253 METAR KBLI 132253Z 17011G18KT 10SM CLR 09/01 A3005 RMK AO2 SLP184 TCU SW NE T00890011=
200904132153 METAR KBLI 132153Z 17014KT 10SM CLR 09/01 A3005 RMK AO2 SLP185 T00890006 $=
200904132053 METAR KBLI 132053Z 17012G18KT 10SM CLR 10/02 A3005 RMK AO2 SLP185 T01000017 58005 $=
200904131953 METAR KBLI 131953Z 17013G17KT 10SM CLR 09/02 A3006 RMK AO2 SLP187 T00890022 $=
200904131853 METAR KBLI 131853Z 17009G15KT 10SM SCT070 BKN080 08/02 A3007 RMK AO2 SLP189 T00830017 $=
200904131753 METAR KBLI 131753Z 16012KT 10SM BKN036 08/02 A3007 RMK AO2 SLP190 T00830022 10089 20044 55000 $=
200904131653 METAR KBLI 131653Z 16009KT 10SM CLR 08/02 A3006 RMK AO2 SLP188 T00830022 $=
200904131553 METAR KBLI 131553Z 16009KT 10SM CLR 07/02 A3006 RMK AO2 SLP188 T00720022 $=
200904131453 METAR KBLI 131453Z 18006KT 10SM BKN065 07/02 A3007 RMK AO2 SLP191 T00670017 53002 $=
200904131353 METAR KBLI 131353Z 17007KT 10SM OVC085 06/02 A3006 RMK AO2 SLP187 T00610017 $=
200904131253 METAR KBLI 131253Z AUTO 13003KT 10SM FEW065 BKN090 BKN110 06/01 A3006 RMK AO2 SLP186 T00610006 $=
200904131153 METAR KBLI 131153Z AUTO 00000KT 10SM FEW110 05/00 A3006 RMK AO2 SLP188 70041 T00500000 10083 20050 53002 $=
200904131053 METAR KBLI 131053Z AUTO 18009KT 10SM FEW100 SCT120 07/01 A3005 RMK AO2 SLP184 T00670006 $=
200904130953 METAR KBLI 130953Z AUTO VRB04KT 10SM CLR 07/01 A3006 RMK AO2 SLP186 T00670006 $=
200904130853 METAR KBLI 130853Z AUTO 16004KT 10SM BKN095 06/02 A3006 RMK AO2 SLP186 T00560022 53006 $=
200904130753 METAR KBLI 130753Z AUTO 17003KT 10SM BKN100 07/02 A3005 RMK AO2 SLP185 T00670017 401110061 $=
200904130653 METAR KBLI 130653Z AUTO 22006G16KT 10SM SCT028 BKN100 08/02 A3004 RMK AO2 SLP180 T00780017 $=
200904130651 SPECI KBLI 130651Z AUTO 19010G16KT 150V230 10SM SCT028 BKN100 08/02 A3004 RMK AO2 $=
200904130651 SPECI KBLI 130651Z AUTO 19010G16KT 150V230 10SM SCT028 BKN100 08/02 A3004 RMK AO2 $=
200904130640 SPECI KBLI 130640Z AUTO 21005KT 10SM BKN028 BKN035 OVC100 08/02 A3004 RMK AO2 $=
200904130640 SPECI KBLI 130640Z AUTO 21005KT 10SM BKN028 BKN035 OVC100 08/02 A3004 RMK AO2 $=
200904130553 METAR KBLI 130553Z AUTO 17007KT 10SM CLR 08/02 A3002 RMK AO2 SLP175 60001 T00780022 10100 20061 51027 $=
200904130453 METAR KBLI 130453Z 20004KT 10SM FEW029 06/03 A3002 RMK AO2 SLP174 T00610028 $=
200904130353 METAR KBLI 130353Z 16006KT 10SM CLR 08/03 A2997 RMK AO2 SLP156 T00780028 $=
200904130253 METAR KBLI 130253Z 00000KT 10SM OVC090 09/05 A2994 RMK AO2 SLP147 60001 T00890050 53011 $=
200904130153 METAR KBLI 130153Z VRB05KT 10SM FEW022 OVC080 09/06 A2993 RMK AO2 RAE04 SLP141 P0001 T00890061 $=
200904130053 METAR KBLI 130053Z VRB03KT 10SM -RA OVC042 09/07 A2992 RMK AO2 SLP140 P0000 T00940067 $=
200904130002 SPECI KBLI 130002Z 25004KT 7SM -RA FEW006 BKN034 OVC044 09/08 A2991 RMK AO2 P0000 $=
200904130002 SPECI KBLI 130002Z 25004KT 7SM -RA FEW006 BKN034 OVC044 09/08 A2991 RMK AO2 P0000 $=
200904122353 METAR KBLI 122353Z 22004KT 7SM -RA FEW006 BKN029 OVC044 09/08 A2991 RMK AO2 SLP135 P0010 60027 T00940083 10111 20094 50004 $=
200904122348 SPECI KBLI 122348Z 19004KT 8SM -RA FEW006 BKN028 OVC044 09/08 A2992 RMK AO2 P0010 $=
200904122348 SPECI KBLI 122348Z 19004KT 8SM -RA FEW006 BKN028 OVC044 09/08 A2992 RMK AO2 P0010 $=
200904122333 SPECI KBLI 122333Z VRB04KT 3SM RA BR FEW006 BKN009 OVC029 09/08 A2992 RMK AO2 P0009 $=
200904122333 SPECI KBLI 122333Z VRB04KT 3SM RA BR FEW006 BKN009 OVC029 09/08 A2992 RMK AO2 P0009 $=
200904122253 METAR KBLI 122253Z 18008G16KT 4SM RA BR BKN013 BKN026 OVC032 10/08 A2990 RMK AO2 SLP133 P0011 T01000083 $=
200904122231 SPECI KBLI 122231Z VRB05G16KT 4SM RA BR BKN017 OVC039 10/08 A2990 RMK AO2 P0005 $=
200904122231 SPECI KBLI 122231Z VRB05G16KT 4SM RA BR BKN017 OVC039 10/08 A2990 RMK AO2 P0005 $=
200904122153 METAR KBLI 122153Z 16015G24KT 6SM -RA FEW025 OVC040 11/08 A2990 RMK AO2 SLP131 P0005 T01060078 $=
200904122137 SPECI KBLI 122137Z 16015G22KT 6SM -RA FEW022 BKN036 OVC044 11/07 A2990 RMK AO2 P0003 $=
200904122137 SPECI KBLI 122137Z 16015G22KT 6SM -RA FEW022 BKN036 OVC044 11/07 A2990 RMK AO2 P0003 $=
200904122053 METAR KBLI 122053Z 15019G25KT 10SM -RA OVC024 11/07 A2989 RMK AO2 PK WND 15026/2025 SLP129 P0000 60001 T01110067 57014 $=
200904121953 METAR KBLI 121953Z 14017G25KT 10SM -RA OVC026 11/06 A2990 RMK AO2 PK WND 14026/1937 RAE1859B49 SLP132 P0000 T01060061 $=
200904121853 METAR KBLI 121853Z 14016G26KT 10SM -RA OVC026 11/06 A2992 RMK AO2 PK WND 14027/1809 SLP140 P0001 T01060061 $=
200904121825 SPECI KBLI 121825Z 15016G22KT 10SM -RA BKN028 OVC060 10/06 A2993 RMK AO2 PK WND 14027/1809 P0001 $=
200904121825 SPECI KBLI 121825Z 15016G22KT 10SM -RA BKN028 OVC060 10/06 A2993 RMK AO2 PK WND 14027/1809 P0001 $=
200904121753 METAR KBLI 121753Z 14016G27KT 10SM -RA SCT028 SCT048 OVC060 10/06 A2993 RMK AO2 PK WND 13027/1748 SLP143 P0001 60013 T01000056 10100 20078 58010 $=
200904121731 SPECI KBLI 121731Z 14012G22KT 10SM -RA BKN028 BKN042 OVC049 10/06 A2994 RMK AO2 P0001 $=
200904121731 SPECI KBLI 121731Z 14012G22KT 10SM -RA BKN028 BKN042 OVC049 10/06 A2994 RMK AO2 P0001 $=
200904121720 SPECI KBLI 121720Z 14017G23KT 10SM -RA SCT028 BKN037 OVC049 09/06 A2995 RMK AO2 P0001 $=
200904121720 SPECI KBLI 121720Z 14017G23KT 10SM -RA SCT028 BKN037 OVC049 09/06 A2995 RMK AO2 P0001 $=
200904121653 METAR KBLI 121653Z 14016G23KT 7SM -RA BKN028 BKN034 OVC048 09/06 A2995 RMK AO2 SLP150 P0005 T00890056 $=
200904121614 SPECI KBLI 121614Z 14013G21KT 6SM -RA SCT028 SCT035 OVC050 09/06 A2996 RMK AO2 P0002 $=
200904121614 SPECI KBLI 121614Z 14013G21KT 6SM -RA SCT028 SCT035 OVC050 09/06 A2996 RMK AO2 P0002 $=
200904121553 METAR KBLI 121553Z 13015G21KT 10SM -RA BKN028 BKN035 OVC050 09/06 A2996 RMK AO2 SLP154 P0002 T00890056 $=
200904121500 SPECI KBLI 121500Z 12011G18KT 10SM -RA FEW027 SCT034 OVC048 09/05 A2997 RMK AO2 P0001 $=
200904121500 SPECI KBLI 121500Z 12011G18KT 10SM -RA FEW027 SCT034 OVC048 09/05 A2997 RMK AO2 P0001 $=
200904121453 METAR KBLI 121453Z 12009G18KT 10SM -RA BKN027 BKN038 OVC048 08/05 A2997 RMK AO2 SLP156 P0002 60005 T00830050 56016 $=
200904121402 SPECI KBLI 121402Z 12010KT 10SM -RA BKN027 BKN038 OVC048 08/05 A2998 RMK AO2 P0000 $=
200904121402 SPECI KBLI 121402Z 12010KT 10SM -RA BKN027 BKN038 OVC048 08/05 A2998 RMK AO2 P0000 $=
200904121353 METAR KBLI 121353Z AUTO 12009KT 10SM -RA SCT027 BKN038 OVC048 08/06 A2998 RMK AO2 SLP159 P0003 T00830056 $=
200904121253 METAR KBLI 121253Z AUTO 11009KT 10SM -RA FEW030 BKN038 OVC049 08/05 A3000 RMK AO2 SLP166 P0000 T00830050 $=
200904121153 METAR KBLI 121153Z AUTO 16015G28KT 10SM -RA SCT045 BKN060 OVC085 10/04 A3002 RMK AO2 PK WND 16028/1150 RAB51 SLP172 P0000 60000 T01000039 10111 20100 58005 $=
200904121053 METAR KBLI 121053Z AUTO 15011G23KT 10SM BKN049 BKN060 OVC080 11/04 A3004 RMK AO2 RAB0954E07 SLP178 P0000 T01060039 $=
200904120953 METAR KBLI 120953Z AUTO 14012G20KT 100V170 10SM SCT031 OVC080 11/04 A3004 RMK AO2 SLP180 T01060044 $=
200904120853 METAR KBLI 120853Z AUTO 15014G19KT 10SM BKN031 OVC110 11/04 A3003 RMK AO2 SLP177 T01110039 58008=
200904120753 METAR KBLI 120753Z AUTO 14013G19KT 10SM BKN033 OVC110 11/04 A3005 RMK AO2 SLP182 T01110039 401330078=
200904120653 METAR KBLI 120653Z AUTO VRB04KT 10SM OVC031 11/04 A3006 RMK AO2 SLP187 T01110039=
200904120553 METAR KBLI 120553Z AUTO 14011G17KT 10SM OVC033 11/04 A3006 RMK AO2 SLP185 T01110039 10133 20094 51004=
200904120453 METAR KBLI 120453Z 14010KT 10SM BKN037 11/03 A3005 RMK AO2 SLP184 T01060033=
200904120353 METAR KBLI 120353Z 13008KT 10SM CLR 10/03 A3005 RMK AO2 SLP185 T01000033=
200904120253 METAR KBLI 120253Z 15011KT 10SM CLR 11/03 A3005 RMK AO2 SLP181 T01060033 58000=
200904120153 METAR KBLI 120153Z 17010KT 10SM CLR 11/04 A3005 RMK AO2 SLP184 T01110044=
200904120053 METAR KBLI 120053Z 17010KT 10SM FEW055 12/04 A3004 RMK AO2 SLP181 T01170039=
200904112353 METAR KBLI 112353Z 17012G19KT 10SM CLR 13/03 A3005 RMK AO2 SLP181 60000 T01330033 10133 20089 53004=
200904112253 METAR KBLI 112253Z 16012G19KT 10SM BKN060 13/03 A3004 RMK AO2 SLP179 T01280033=
200904112153 METAR KBLI 112153Z 17008G16KT 10SM OVC060 12/04 A3004 RMK AO2 SLP179 T01170039=
200904112053 METAR KBLI 112053Z 18011G16KT 10SM FEW044 BKN055 BKN070 11/04 A3003 RMK AO2 SLP177 60000 T01110044 51013=
200904111953 METAR KBLI 111953Z 17011G17KT 10SM FEW033 OVC060 11/05 A3003 RMK AO2 SLP175 T01060050=
200904111853 METAR KBLI 111853Z 17011KT 10SM SCT020 BKN031 OVC065 10/05 A3001 RMK AO2 RAB12E36 SLP169 P0000 T01000050=
200904111833 SPECI KBLI 111833Z 16009KT 10SM -RA BKN019 BKN039 OVC070 09/06 A3000 RMK AO2 RAB12 P0000=
200904111833 SPECI KBLI 111833Z 16009KT 10SM -RA BKN019 BKN039 OVC070 09/06 A3000 RMK AO2 RAB12 P0000=
200904111800 SPECI KBLI 111800Z 16011KT 10SM SCT028 BKN035 OVC044 09/04 A3000 RMK AO2=
200904111800 SPECI KBLI 111800Z 16011KT 10SM SCT028 BKN035 OVC044 09/04 A3000 RMK AO2=
200904111753 METAR KBLI 111753Z 16011KT 10SM BKN027 OVC045 09/04 A3000 RMK AO2 RAB1658E23 SLP165 P0000 60000 T00940044 10094 20078 53022=
200904111653 METAR KBLI 111653Z 16011KT 10SM BKN027 OVC047 09/04 A2997 RMK AO2 RAB1557E50 SLP157 P0000 T00890044=
200904111613 SPECI KBLI 111613Z 17010KT 10SM -RA BKN025 OVC032 09/04 A2995 RMK AO2 RAB1557 P0000=
200904111613 SPECI KBLI 111613Z 17010KT 10SM -RA BKN025 OVC032 09/04 A2995 RMK AO2 RAB1557 P0000=
200904111553 METAR KBLI 111553Z 18007KT 10SM FEW027 BKN034 BKN070 09/04 A2995 RMK AO2 SLP150 T00890044=
200904111453 METAR KBLI 111453Z 18008KT 10SM FEW029 BKN110 09/04 A2993 RMK AO2 SLP143 T00890044 53009=
200904111353 METAR KBLI 111353Z 19003KT 10SM FEW025 BKN110 08/04 A2992 RMK AO2 SLP140 T00780044=
200904111253 METAR KBLI 111253Z AUTO 19003KT 10SM FEW024 SCT075 08/05 A2991 RMK AO2 SLP137 T00780050=
200904111226 SPECI KBLI 111226Z AUTO 18003KT 10SM FEW015 SCT024 OVC075 08/05 A2991 RMK AO2=
200904111226 SPECI KBLI 111226Z AUTO 18003KT 10SM FEW015 SCT024 OVC075 08/05 A2991 RMK AO2=
200904111153 METAR KBLI 111153Z AUTO 18005KT 10SM SCT012 OVC018 08/05 A2990 RMK AO2 SLP134 T00830050 10089 20083 53002=
200904111053 METAR KBLI 111053Z AUTO 16009KT 10SM BKN023 OVC030 09/06 A2989 RMK AO2 SLP130 T00890056=
200904111041 SPECI KBLI 111041Z AUTO 17008KT 10SM FEW022 BKN029 OVC036 09/06 A2989 RMK AO2=
200904111041 SPECI KBLI 111041Z AUTO 17008KT 10SM FEW022 BKN029 OVC036 09/06 A2989 RMK AO2=
200904111015 SPECI KBLI 111015Z AUTO 18005KT 10SM SCT021 OVC037 09/06 A2989 RMK AO2=
200904111015 SPECI KBLI 111015Z AUTO 18005KT 10SM SCT021 OVC037 09/06 A2989 RMK AO2=
200904111000 SPECI KBLI 111000Z AUTO 17006KT 10SM BKN021 BKN035 OVC070 08/06 A2989 RMK AO2=
200904111000 SPECI KBLI 111000Z AUTO 17006KT 10SM BKN021 BKN035 OVC070 08/06 A2989 RMK AO2=
200904110953 METAR KBLI 110953Z AUTO 19003KT 10SM SCT021 BKN033 OVC070 08/06 A2989 RMK AO2 SLP131 T00830056=
200904110946 SPECI KBLI 110946Z AUTO 00000KT 10SM SCT021 BKN027 OVC070 08/06 A2989 RMK AO2=
200904110946 SPECI KBLI 110946Z AUTO 00000KT 10SM SCT021 BKN027 OVC070 08/06 A2989 RMK AO2=
200904110936 SPECI KBLI 110936Z AUTO 19003KT 10SM FEW024 BKN036 OVC070 08/06 A2989 RMK AO2=
200904110936 SPECI KBLI 110936Z AUTO 19003KT 10SM FEW024 BKN036 OVC070 08/06 A2989 RMK AO2=
200904110853 METAR KBLI 110853Z AUTO 18003KT 10SM BKN026 OVC048 08/06 A2990 RMK AO2 SLP132 T00830056 58000=
200904110820 SPECI KBLI 110820Z AUTO 00000KT 10SM FEW010 BKN018 OVC023 08/06 A2990 RMK AO2=
200904110820 SPECI KBLI 110820Z AUTO 00000KT 10SM FEW010 BKN018 OVC023 08/06 A2990 RMK AO2=
200904110753 METAR KBLI 110753Z AUTO 18003KT 10SM BKN010 OVC017 08/06 A2990 RMK AO2 SLP133 T00830056 401060056=
200904110705 SPECI KBLI 110705Z AUTO 18006KT 10SM SCT019 OVC028 08/06 A2990 RMK AO2=
200904110705 SPECI KBLI 110705Z AUTO 18006KT 10SM SCT019 OVC028 08/06 A2990 RMK AO2=
200904110653 METAR KBLI 110653Z AUTO 18005KT 10SM FEW016 SCT024 OVC030 09/06 A2990 RMK AO2 SLP134 T00890056=
200904110614 SPECI KBLI 110614Z AUTO 19006KT 10SM BKN027 OVC036 09/06 A2990 RMK AO2=
200904110614 SPECI KBLI 110614Z AUTO 19006KT 10SM BKN027 OVC036 09/06 A2990 RMK AO2=
200904110553 METAR KBLI 110553Z AUTO 17008KT 10SM FEW027 SCT036 OVC050 09/06 A2990 RMK AO2 SLP132 60000 T00890056 10100 20089 50003=
200904110453 METAR KBLI 110453Z 17007KT 10SM OVC048 09/06 A2990 RMK AO2 SLP132 T00890056=
200904110353 METAR KBLI 110353Z 18005KT 10SM OVC055 09/05 A2989 RMK AO2 SLP131 T00890050=
200904110253 METAR KBLI 110253Z 18006KT 10SM OVC050 09/04 A2989 RMK AO2 RAB32E53 SLP129 P0000 60000 T00890044 58007=
200904110153 METAR KBLI 110153Z 17007KT 10SM OVC060 09/06 A2990 RMK AO2 SLP132 T00940056=
200904110053 METAR KBLI 110053Z 19006KT 10SM OVC060 09/06 A2990 RMK AO2 SLP134 T00940061=
200904102353 METAR KBLI 102353Z 17006KT 10SM OVC070 10/06 A2991 RMK AO2 SLP136 T01000061 10106 20094 58009=
200904102253 METAR KBLI 102253Z 18004KT 10SM OVC075 10/06 A2992 RMK AO2 SLP141 T01000056=
200904102153 METAR KBLI 102153Z 17006KT 10SM OVC075 10/06 A2994 RMK AO2 SLP145 T01000056=
200904102053 METAR KBLI 102053Z 18005KT 10SM FEW015 BKN030 BKN095 10/05 A2994 RMK AO2 SLP145 T01000050 58004=
200904101953 METAR KBLI 101953Z 21005KT 10SM SCT015 BKN090 09/05 A2994 RMK AO2 SLP147 T00940050=
200904101920 SPECI KBLI 101920Z VRB05KT 10SM BKN013 BKN045 OVC095 09/05 A2995 RMK AO2=
200904101920 SPECI KBLI 101920Z VRB05KT 10SM BKN013 BKN045 OVC095 09/05 A2995 RMK AO2=
200904101900 SPECI KBLI 101900Z 24003KT 10SM SCT015 BKN045 OVC100 09/05 A2995 RMK AO2=
200904101900 SPECI KBLI 101900Z 24003KT 10SM SCT015 BKN045 OVC100 09/05 A2995 RMK AO2=
200904101853 METAR KBLI 101853Z 29004KT 10SM BKN015 BKN045 OVC100 09/05 A2995 RMK AO2 SLP151 T00940050=
200904101800 SPECI KBLI 101800Z 16005KT 10SM OVC017 09/05 A2995 RMK AO2=
200904101800 SPECI KBLI 101800Z 16005KT 10SM OVC017 09/05 A2995 RMK AO2=
200904101753 METAR KBLI 101753Z VRB04KT 10SM BKN012 OVC075 10/05 A2995 RMK AO2 SLP149 T01000050 10100 20056 52009=
200904101653 METAR KBLI 101653Z 22004KT 10SM FEW006 BKN012 OVC075 08/05 A2994 RMK AO2 SLP146 T00830050=
200904101638 SPECI KBLI 101638Z 27003KT 10SM BKN012 OVC075 09/05 A2994 RMK AO2=
200904101638 SPECI KBLI 101638Z 27003KT 10SM BKN012 OVC075 09/05 A2994 RMK AO2=
200904101628 SPECI KBLI 101628Z 24003KT 10SM FEW006 SCT012 OVC075 08/05 A2994 RMK AO2=
200904101628 SPECI KBLI 101628Z 24003KT 10SM FEW006 SCT012 OVC075 08/05 A2994 RMK AO2=
200904101553 METAR KBLI 101553Z 17004KT 10SM OVC075 08/05 A2993 RMK AO2 SLP142 T00780050=
200904101453 METAR KBLI 101453Z 00000KT 10SM OVC080 07/04 A2992 RMK AO2 SLP139 T00720044 53005=
200904101353 METAR KBLI 101353Z AUTO 00000KT 10SM FEW060 OVC085 06/04 A2990 RMK AO2 SLP132 T00610039=
200904101253 METAR KBLI 101253Z AUTO 00000KT 10SM BKN060 OVC090 06/04 A2989 RMK AO2 SLP130 T00560039=
200904101153 METAR KBLI 101153Z AUTO 12003KT 10SM BKN050 OVC080 06/03 A2990 RMK AO2 SLP134 T00610033 10083 20056 53002=
200904101053 METAR KBLI 101053Z AUTO 00000KT 10SM OVC050 06/03 A2990 RMK AO2 SLP133 T00610033=
200904100953 METAR KBLI 100953Z AUTO 36004KT 10SM OVC055 06/03 A2989 RMK AO2 SLP130 T00610033=
200904100853 METAR KBLI 100853Z AUTO 00000KT 10SM FEW049 OVC060 07/04 A2990 RMK AO2 SLP132 T00720039 51008=
200904100753 METAR KBLI 100753Z AUTO 00000KT 10SM BKN060 07/03 A2989 RMK AO2 SLP130 T00670033 401440056=
200904100653 METAR KBLI 100653Z AUTO 00000KT 10SM OVC060 06/03 A2988 RMK AO2 SLP127 T00610033=
200904100553 METAR KBLI 100553Z AUTO 00000KT 10SM BKN060 08/03 A2987 RMK AO2 SLP124 T00780033 10144 20067 50003=
200904100453 METAR KBLI 100453Z 01003KT 10SM BKN060 08/04 A2988 RMK AO2 SLP125 T00780039=
200904100353 METAR KBLI 100353Z 33003KT 10SM SCT050 BKN100 10/04 A2987 RMK AO2 SLP124 T01000039=
200904100253 METAR KBLI 100253Z 35003KT 10SM CLR 11/04 A2986 RMK AO2 SLP121 T01060044 55001=
200904100153 METAR KBLI 100153Z 02003KT 10SM FEW055 13/04 A2986 RMK AO2 SLP117 T01330039=
200904100053 METAR KBLI 100053Z 00000KT 10SM BKN039 13/03 A2986 RMK AO2 SLP119 T01280033=
200904092353 METAR KBLI 092353Z 00000KT 10SM FEW049 SCT060 SCT120 13/04 A2987 RMK AO2 SLP121 T01330039 10133 20089 56008=
200904092253 METAR KBLI 092253Z 02005KT 10SM FEW034 BKN045 OVC055 12/04 A2988 RMK AO2 SLP124 T01220044=
200904092153 METAR KBLI 092153Z 17006KT 10SM BKN049 OVC055 12/04 A2988 RMK AO2 SLP127 T01170039=
200904092053 METAR KBLI 092053Z 19005KT 10SM OVC039 11/03 A2989 RMK AO2 SLP130 T01110033 56002=
200904091953 METAR KBLI 091953Z 17009KT 10SM BKN034 OVC044 11/04 A2989 RMK AO2 SLP131 T01060039=
200904091853 METAR KBLI 091853Z 15007KT 10SM OVC030 10/04 A2990 RMK AO2 SLP132 T01000044=
200904091817 SPECI KBLI 091817Z 18007KT 10SM SCT025 BKN033 09/04 A2990 RMK AO2=
200904091817 SPECI KBLI 091817Z 18007KT 10SM SCT025 BKN033 09/04 A2990 RMK AO2=
200904091753 METAR KBLI 091753Z 17004KT 10SM BKN025 OVC031 09/04 A2990 RMK AO2 SLP133 60000 T00890039 10089 20078 51009=
200904091653 METAR KBLI 091653Z 16004KT 10SM BKN022 OVC030 08/04 A2989 RMK AO2 SLP130 T00830039=
200904091604 SPECI KBLI 091604Z 12006KT 10SM BKN026 OVC032 08/04 A2988 RMK AO2=
200904091604 SPECI KBLI 091604Z 12006KT 10SM BKN026 OVC032 08/04 A2988 RMK AO2=
200904091553 METAR KBLI 091553Z 15007KT 10SM SCT024 OVC031 08/03 A2988 RMK AO2 RAB09E27 SLP128 P0000 T00830033=
200904091517 SPECI KBLI 091517Z 12006KT 10SM -RA BKN026 OVC032 08/03 A2988 RMK AO2 RAB09 P0000=
200904091517 SPECI KBLI 091517Z 12006KT 10SM -RA BKN026 OVC032 08/03 A2988 RMK AO2 RAB09 P0000=
200904091453 METAR KBLI 091453Z 15005KT 10SM BKN032 OVC039 08/03 A2987 RMK AO2 RAB24E51 SLP124 P0000 60000 T00780033 53005=
200904091353 METAR KBLI 091353Z 15006KT 10SM FEW024 SCT038 OVC065 08/03 A2987 RMK AO2 SLP121 T00780033=
200904091253 METAR KBLI 091253Z AUTO 18007KT 10SM FEW049 OVC070 08/03 A2986 RMK AO2 SLP118 T00780028=
200904091153 METAR KBLI 091153Z AUTO 17007KT 10SM BKN034 OVC065 08/03 A2986 RMK AO2 SLP119 T00780028 10094 20078 55000=
200904091053 METAR KBLI 091053Z AUTO 17007KT 10SM BKN048 OVC120 08/03 A2985 RMK AO2 SLP116 T00780033=
200904090953 METAR KBLI 090953Z AUTO 16008KT 10SM BKN042 OVC050 08/04 A2986 RMK AO2 SLP119 T00780039=
200904090853 METAR KBLI 090853Z AUTO 17007KT 10SM SCT048 OVC060 08/03 A2986 RMK AO2 SLP119 T00780033 53004=
200904090753 METAR KBLI 090753Z AUTO 16010KT 10SM FEW044 OVC060 08/03 A2985 RMK AO2 SLP116 T00830033 401110072=
200904090653 METAR KBLI 090653Z AUTO 16009KT 10SM BKN046 OVC060 09/03 A2984 RMK AO2 SLP114 T00890028=
200904090553 METAR KBLI 090553Z AUTO 17005KT 10SM OVC046 09/04 A2985 RMK AO2 SLP114 T00890044 10111 20089 51006=
200904090453 METAR KBLI 090453Z 16008KT 10SM OVC042 10/03 A2984 RMK AO2 SLP113 T01000033=
200904090353 METAR KBLI 090353Z 17008KT 10SM OVC050 10/03 A2983 RMK AO2 SLP110 T01000028=
200904090253 METAR KBLI 090253Z 17004KT 10SM OVC050 10/03 A2983 RMK AO2 SLP108 T01000033 51001=
200904090153 METAR KBLI 090153Z 00000KT 10SM OVC050 11/04 A2983 RMK AO2 SLP108 T01060039=
200904090053 METAR KBLI 090053Z 18006KT 10SM BKN046 11/03 A2983 RMK AO2 SLP107 T01110028=
200904082353 METAR KBLI 082353Z 17007KT 10SM CLR 11/03 A2982 RMK AO2 SLP106 T01060028 10111 20089 51002=
200904082253 METAR KBLI 082253Z 19007G14KT 10SM CLR 11/03 A2982 RMK AO2 SLP106 T01060033=
200904082153 METAR KBLI 082153Z 17011G17KT 10SM CLR 11/03 A2982 RMK AO2 SLP106 T01110033=
200904082053 METAR KBLI 082053Z 16012KT 10SM BKN034 BKN043 BKN049 11/03 A2982 RMK AO2 SLP104 T01060033 50006=
200904081953 METAR KBLI 081953Z 18008KT 10SM OVC034 09/04 A2982 RMK AO2 SLP106 T00890044=
200904081853 METAR KBLI 081853Z 17014G21KT 10SM BKN028 OVC034 09/03 A2981 RMK AO2 SLP104 T00940033=
200904081753 METAR KBLI 081753Z 17015G24KT 10SM OVC030 09/03 A2980 RMK AO2 PK WND 15027/1724 SLP100 CIG LWR S-W T00940033 10100 20078 51008=
200904081748 SPECI KBLI 081748Z 16016G23KT 10SM OVC030 10/03 A2980 RMK AO2 PK WND 15027/1724 CIG LWR S-W=
200904081748 SPECI KBLI 081748Z 16016G23KT 10SM OVC030 10/03 A2980 RMK AO2 PK WND 15027/1724 CIG LWR S-W=
200904081717 SPECI KBLI 081717Z 16018G23KT 10SM OVC028 09/03 A2979 RMK AO2 CIG LWR S-W=
200904081717 SPECI KBLI 081717Z 16018G23KT 10SM OVC028 09/03 A2979 RMK AO2 CIG LWR S-W=
200904081653 METAR KBLI 081653Z 15016G26KT 10SM OVC030 09/03 A2979 RMK AO2 PK WND 15027/1642 SLP094 CIG LWR S-W T00940033=
200904081553 METAR KBLI 081553Z 15019G24KT 10SM OVC024 09/03 A2978 RMK AO2 PK WND 16028/1512 SLP091 T00890028=
200904081540 SPECI KBLI 081540Z 16015G25KT 10SM BKN024 09/03 A2978 RMK AO2 PK WND 16028/1512=
200904081540 SPECI KBLI 081540Z 16015G25KT 10SM BKN024 09/03 A2978 RMK AO2 PK WND 16028/1512=
200904081453 METAR KBLI 081453Z 16019G27KT 10SM SCT018 08/03 A2976 RMK AO2 PK WND 15027/1451 SLP087 T00780033 53015=
200904081353 METAR KBLI 081353Z 18015G24KT 10SM CLR 08/04 A2975 RMK AO2 SLP080 T00780044=
200904081253 METAR KBLI 081253Z AUTO 17012G19KT 10SM CLR 09/04 A2973 RMK AO2 SLP075 T00940039=
200904081153 METAR KBLI 081153Z AUTO 17011G17KT 10SM CLR 10/04 A2972 RMK AO2 SLP071 T01000039 10100 20072 53009=
200904081053 METAR KBLI 081053Z AUTO 17007KT 10SM CLR 10/04 A2970 RMK AO2 SLP066 T01000039=
200904080953 METAR KBLI 080953Z AUTO 18006KT 10SM CLR 09/04 A2969 RMK AO2 SLP062 T00890039=
200904080853 METAR KBLI 080853Z AUTO 18006KT 10SM CLR 09/06 A2969 RMK AO2 SLP061 T00890056 55000=
200904080753 METAR KBLI 080753Z AUTO 17003KT 10SM CLR 07/04 A2969 RMK AO2 SLP060 T00720039 401720017=
200904080653 METAR KBLI 080653Z AUTO 17004KT 10SM CLR 08/04 A2969 RMK AO2 SLP060 T00830039=
200904080553 METAR KBLI 080553Z AUTO 19005KT 10SM CLR 09/04 A2969 RMK AO2 SLP061 T00940044 10161 20083 50001=
200904080453 METAR KBLI 080453Z 00000KT 10SM CLR 09/05 A2969 RMK AO2 SLP062 T00940050=
200904080353 METAR KBLI 080353Z 00000KT 10SM CLR 09/05 A2969 RMK AO2 SLP062 T00940050=
200904080253 METAR KBLI 080253Z 00000KT 10SM CLR 11/04 A2969 RMK AO2 SLP062 T01110044 56022=
200904080153 METAR KBLI 080153Z 00000KT 10SM CLR 13/04 A2971 RMK AO2 SLP068 T01330039=
200904080053 METAR KBLI 080053Z 28004KT 10SM CLR 15/03 A2973 RMK AO2 SLP074 T01500033=
200904072353 METAR KBLI 072353Z 29007KT 10SM CLR 16/03 A2975 RMK AO2 SLP082 T01610033 10172 20139 56033=
200904072253 METAR KBLI 072253Z 30009KT 10SM CLR 17/04 A2978 RMK AO2 SLP091 T01670039=
200904072153 METAR KBLI 072153Z 27007KT 10SM CLR 17/05 A2982 RMK AO2 SLP103 T01720050=
200904072053 METAR KBLI 072053Z 29009KT 10SM CLR 16/05 A2985 RMK AO2 SLP116 T01610050 58029=
200904071953 METAR KBLI 071953Z 27008KT 10SM CLR 16/04 A2988 RMK AO2 SLP126 T01610039=
200904071853 METAR KBLI 071853Z VRB06KT 10SM CLR 16/02 A2992 RMK AO2 SLP140 T01560017=
200904071753 METAR KBLI 071753Z 02008KT 10SM CLR 14/02 A2994 RMK AO2 SLP145 T01390017 10139 20017 58016=
200904071653 METAR KBLI 071653Z 01006KT 10SM CLR 11/02 A2996 RMK AO2 SLP151 T01060022=
200904071553 METAR KBLI 071553Z 01004KT 10SM CLR 08/03 A2998 RMK AO2 SLP159 T00780028=
200904071453 METAR KBLI 071453Z 00000KT 10SM CLR 05/03 A2998 RMK AO2 SLP162 T00500033 56008=
200904071353 METAR KBLI 071353Z 00000KT 10SM CLR 02/01 A2999 RMK AO2 SLP164 T00220011=
200904071351 SPECI KBLI 071351Z 00000KT 10SM CLR 02/01 A3000 RMK AO2=
200904071351 SPECI KBLI 071351Z 00000KT 10SM CLR 02/01 A3000 RMK AO2=
200904071340 SPECI KBLI 071340Z 00000KT 2 1/2SM BR CLR 02/01 A3000 RMK AO2=
200904071340 SPECI KBLI 071340Z 00000KT 2 1/2SM BR CLR 02/01 A3000 RMK AO2=
200904071326 SPECI KBLI 071326Z AUTO 00000KT 1 3/4SM BR CLR 02/01 A3000 RMK AO2=
200904071326 SPECI KBLI 071326Z AUTO 00000KT 1 3/4SM BR CLR 02/01 A3000 RMK AO2=
200904071320 SPECI KBLI 071320Z AUTO 00000KT 3SM BR CLR 03/01 A3000 RMK AO2=
200904071320 SPECI KBLI 071320Z AUTO 00000KT 3SM BR CLR 03/01 A3000 RMK AO2=
200904071310 SPECI KBLI 071310Z AUTO 00000KT 1 3/4SM BR CLR 02/01 A3000 RMK AO2 VIS 3/4V5=
200904071310 SPECI KBLI 071310Z AUTO 00000KT 1 3/4SM BR CLR 02/01 A3000 RMK AO2 VIS 3/4V5=
200904071253 METAR KBLI 071253Z AUTO 00000KT 3SM BR CLR 03/01 A3001 RMK AO2 SLP169 T00280011=
200904071250 SPECI KBLI 071250Z AUTO 00000KT 2 1/2SM BR CLR 03/01 A3001 RMK AO2=
200904071250 SPECI KBLI 071250Z AUTO 00000KT 2 1/2SM BR CLR 03/01 A3001 RMK AO2=
200904071237 SPECI KBLI 071237Z AUTO 00000KT 3SM BR CLR 02/01 A3001 RMK AO2=
200904071237 SPECI KBLI 071237Z AUTO 00000KT 3SM BR CLR 02/01 A3001 RMK AO2=
200904071221 SPECI KBLI 071221Z AUTO 00000KT 1 1/2SM BR CLR 03/01 A3002 RMK AO2 VIS 1/2V5=
200904071221 SPECI KBLI 071221Z AUTO 00000KT 1 1/2SM BR CLR 03/01 A3002 RMK AO2 VIS 1/2V5=
200904071153 METAR KBLI 071153Z AUTO 00000KT 10SM CLR 03/01 A3003 RMK AO2 SLP175 T00330011 10089 20028 56010=
200904071053 METAR KBLI 071053Z AUTO 00000KT 8SM CLR 04/02 A3003 RMK AO2 SLP178 T00390017=
200904070953 METAR KBLI 070953Z AUTO 00000KT 10SM CLR 04/03 A3005 RMK AO2 SLP182 T00440028=
200904070853 METAR KBLI 070853Z AUTO 00000KT 10SM CLR 05/03 A3006 RMK AO2 SLP185 T00500028 50000=
200904070753 METAR KBLI 070753Z AUTO 00000KT 10SM CLR 08/04 A3006 RMK AO2 SLP185 T00830044 402060017=
200904070653 METAR KBLI 070653Z AUTO 19004KT 10SM CLR 08/03 A3006 RMK AO2 SLP185 T00780028=
200904070553 METAR KBLI 070553Z AUTO 00000KT 10SM CLR 08/02 A3006 RMK AO2 SLP185 T00780017 10200 20072 50000=
200904070453 METAR KBLI 070453Z 00000KT 10SM CLR 09/02 A3006 RMK AO2 SLP187 T00890017=
200904070353 METAR KBLI 070353Z 00000KT 10SM CLR 11/02 A3007 RMK AO2 SLP188 T01060017=
200904070253 METAR KBLI 070253Z 00000KT 10SM CLR 14/02 A3006 RMK AO2 SLP186 T01390017 56016=
200904070153 METAR KBLI 070153Z 00000KT 10SM CLR 18/01 A3006 RMK AO2 SLP188 T01830006=
200904070053 METAR KBLI 070053Z 00000KT 10SM CLR 20/00 A3008 RMK AO2 SLP194 T02000000=
200904062353 METAR KBLI 062353Z 26004KT 10SM CLR 19/01 A3010 RMK AO2 SLP201 T01940006 10206 20128 56019=
200904062253 METAR KBLI 062253Z 28004KT 10SM CLR 20/00 A3012 RMK AO2 SLP206 T02000000=
200904062153 METAR KBLI 062153Z 21003KT 10SM CLR 19/03 A3014 RMK AO2 SLP213 T01890028=
200904062053 METAR KBLI 062053Z 20005KT 10SM CLR 18/04 A3016 RMK AO2 SLP220 T01830039 58020=
200904061953 METAR KBLI 061953Z VRB03KT 10SM CLR 18/03 A3019 RMK AO2 SLP231 T01780033=
200904061853 METAR KBLI 061853Z 00000KT 10SM CLR 14/04 A3021 RMK AO2 SLP237 T01440039=
200904061753 METAR KBLI 061753Z 00000KT 10SM CLR 12/03 A3022 RMK AO2 SLP242 T01220033 10128 20017 56006=
200904061653 METAR KBLI 061653Z 14004KT 10SM CLR 11/04 A3023 RMK AO2 SLP245 T01060039=
200904061553 METAR KBLI 061553Z 00000KT 10SM CLR 09/02 A3023 RMK AO2 SLP244 T00890022=
200904061453 METAR KBLI 061453Z 00000KT 10SM CLR 05/02 A3024 RMK AO2 SLP248 T00500017 53002=
200904061353 METAR KBLI 061353Z 00000KT 9SM CLR 03/01 A3023 RMK AO2 SLP245 T00280006=
200904061253 METAR KBLI 061253Z AUTO 00000KT 10SM CLR 02/01 A3023 RMK AO2 SLP245 T00220011=
200904061153 METAR KBLI 061153Z AUTO 00000KT 10SM CLR 03/01 A3023 RMK AO2 SLP246 T00280011 10061 20028 58004=
200904061053 METAR KBLI 061053Z AUTO 00000KT 10SM CLR 04/02 A3024 RMK AO2 SLP247 T00390022=
200904060953 METAR KBLI 060953Z AUTO 00000KT 10SM CLR 04/02 A3024 RMK AO2 SLP248 T00440022=
200904060853 METAR KBLI 060853Z AUTO 00000KT 10SM CLR 04/02 A3024 RMK AO2 SLP249 T00390022 51003=
200904060753 METAR KBLI 060753Z AUTO 00000KT 10SM CLR 04/02 A3024 RMK AO2 SLP249 T00440022 401890006=
200904060653 METAR KBLI 060653Z AUTO 00000KT 10SM CLR 05/02 A3024 RMK AO2 SLP248 T00500022=
200904060553 METAR KBLI 060553Z AUTO 00000KT 10SM CLR 05/02 A3023 RMK AO2 SLP246 T00500022 10156 20050 51011=
200904060453 METAR KBLI 060453Z 00000KT 10SM CLR 07/03 A3023 RMK AO2 SLP244 T00720028=
200904060353 METAR KBLI 060353Z 00000KT 10SM CLR 08/04 A3022 RMK AO2 SLP240 T00830039=
200904060253 METAR KBLI 060253Z 00000KT 10SM CLR 11/04 A3020 RMK AO2 SLP235 T01060039 55001=
200904060153 METAR KBLI 060153Z 00000KT 10SM CLR 13/03 A3020 RMK AO2 SLP234 T01330028=
200904060053 METAR KBLI 060053Z 00000KT 10SM CLR 15/04 A3020 RMK AO2 SLP234 T01500044=
200904052353 METAR KBLI 052353Z 26005KT 10SM CLR 16/04 A3021 RMK AO2 SLP236 T01610044 10189 20128 55002=
200904052253 METAR KBLI 052253Z 27005KT 10SM CLR 17/03 A3021 RMK AO2 SLP235 T01720033=
200904052153 METAR KBLI 052153Z 34004KT 10SM CLR 18/M02 A3021 RMK AO2 SLP238 T01831017=
200904052053 METAR KBLI 052053Z 35006G14KT 10SM CLR 17/M01 A3021 RMK AO2 SLP238 T01721011 56007=
200904051953 METAR KBLI 051953Z 01010KT 10SM CLR 17/01 A3022 RMK AO2 SLP240 T01670011=
200904051853 METAR KBLI 051853Z 36007KT 10SM CLR 16/01 A3023 RMK AO2 SLP242 T01560011=
200904051753 METAR KBLI 051753Z 03006KT 10SM CLR 13/01 A3023 RMK AO2 SLP246 T01280006 10133 20006 50002=
200904051653 METAR KBLI 051653Z 00000KT 10SM CLR 10/02 A3024 RMK AO2 SLP248 T01000017=
200904051553 METAR KBLI 051553Z 01004KT 10SM CLR 07/02 A3024 RMK AO2 SLP248 T00720017=
200904051453 METAR KBLI 051453Z 00000KT 10SM CLR 04/01 A3023 RMK AO2 SLP244 T00390011 53010=
200904051353 METAR KBLI 051353Z 00000KT 10SM CLR 02/M01 A3022 RMK AO2 SLP240 T00171006=
200904051253 METAR KBLI 051253Z AUTO 00000KT 10SM CLR 02/M01 A3021 RMK AO2 SLP237 T00171011=
200904051153 METAR KBLI 051153Z AUTO 00000KT 10SM CLR 02/M01 A3020 RMK AO2 SLP234 T00221006 10067 20011 53001=
200904051053 METAR KBLI 051053Z AUTO 00000KT 10SM CLR 02/M01 A3019 RMK AO2 SLP232 T00221006=
200904050953 METAR KBLI 050953Z AUTO 02003KT 10SM CLR 04/00 A3019 RMK AO2 SLP232 T00390000=
200904050853 METAR KBLI 050853Z AUTO 01004KT 10SM CLR 04/01 A3020 RMK AO2 SLP233 T00390006 50001=
200904050753 METAR KBLI 050753Z AUTO 01004KT 10SM CLR 05/01 A3020 RMK AO2 SLP234 T00500006 401391011 $=
200904050653 METAR KBLI 050653Z AUTO 36003KT 10SM CLR 06/01 A3020 RMK AO2 SLP233 T00560011=
200904050553 METAR KBLI 050553Z AUTO 00000KT 10SM CLR 05/02 A3019 RMK AO2 SLP233 T00500022 10133 20044 50002=
200904050453 METAR KBLI 050453Z 00000KT 10SM CLR 06/02 A3020 RMK AO2 SLP234 T00610022=
200904050353 METAR KBLI 050353Z 00000KT 10SM CLR 07/03 A3019 RMK AO2 SLP232 T00720028=
200904050253 METAR KBLI 050253Z 00000KT 10SM CLR 09/02 A3019 RMK AO2 SLP230 T00890022 55005=
200904050153 METAR KBLI 050153Z 28004KT 10SM CLR 11/02 A3018 RMK AO2 SLP230 T01060022=
200904050053 METAR KBLI 050053Z 27004KT 10SM CLR 12/02 A3019 RMK AO2 SLP232 T01220022=
200904042353 METAR KBLI 042353Z 27005KT 10SM CLR 13/02 A3020 RMK AO2 SLP235 T01330017 10139 20078 56014=
200904042253 METAR KBLI 042253Z 28006KT 10SM CLR 13/02 A3021 RMK AO2 SLP239 T01330022=
200904042153 METAR KBLI 042153Z 00000KT 10SM CLR 13/01 A3023 RMK AO2 SLP244 T01280006=
200904042053 METAR KBLI 042053Z VRB04KT 10SM CLR 12/02 A3024 RMK AO2 SLP250 T01220022 56012=
200904041953 SPECI KBLI 041953Z 28003KT 10SM CLR 11/01 A3025 RMK AO2 SLP253 T01060011=
200904041853 METAR KBLI 041853Z 08004KT 10SM CLR 10/01 A3026 RMK AO2 SLP256 T01000011=
200904041753 METAR KBLI 041753Z 00000KT 10SM CLR 08/01 A3028 RMK AO2 SLP262 T00780011 10078 21006 58001=
200904041653 METAR KBLI 041653Z 00000KT 10SM CLR 06/02 A3029 RMK AO2 SLP265 T00610017=
200904041553 METAR KBLI 041553Z 00000KT 10SM CLR 04/01 A3028 RMK AO2 SLP263 T00440011=
200904041453 METAR KBLI 041453Z 00000KT 10SM BKN038 03/01 A3028 RMK AO2 SLP263 T00330011 53011=
200904041353 METAR KBLI 041353Z 00000KT 9SM OVC038 01/M01 A3027 RMK AO2 SLP260 T00061011=
200904041253 METAR KBLI 041253Z AUTO 00000KT 9SM OVC040 00/M02 A3026 RMK AO2 SLP255 T00001017=
200904041153 METAR KBLI 041153Z AUTO 00000KT 8SM OVC040 M01/M02 A3025 RMK AO2 SLP252 T10061022 10028 21011 53013=
200904041053 METAR KBLI 041053Z AUTO 00000KT 7SM CLR M01/M02 A3023 RMK AO2 SLP247 T10061022=
200904040953 METAR KBLI 040953Z AUTO 00000KT 9SM CLR 00/M02 A3022 RMK AO2 SLP244 T00001017=
200904040853 METAR KBLI 040853Z AUTO 00000KT 10SM CLR 01/M01 A3021 RMK AO2 SLP239 T00061011 53007=
200904040753 METAR KBLI 040753Z AUTO 00000KT 10SM CLR 01/M01 A3020 RMK AO2 SLP237 T00111011 400890011=
200904040653 METAR KBLI 040653Z AUTO 00000KT 10SM CLR 02/M01 A3019 RMK AO2 SLP232 T00171006=
200904040553 METAR KBLI 040553Z AUTO 00000KT 10SM CLR 02/M01 A3019 RMK AO2 SLP232 T00221006 10089 20017 51016=
200904040453 METAR KBLI 040453Z 00000KT 10SM CLR 03/00 A3018 RMK AO2 SLP231 T00330000=
200904040353 METAR KBLI 040353Z 00000KT 10SM CLR 04/00 A3017 RMK AO2 SLP224 T00390000=
200904040253 METAR KBLI 040253Z 00000KT 10SM OVC070 07/M01 A3014 RMK AO2 SLP214 T00721006 53015=
200904040153 METAR KBLI 040153Z 27003KT 10SM OVC065 08/M01 A3012 RMK AO2 SLP208 T00831006=
200904040053 METAR KBLI 040053Z 27005KT 10SM CLR 08/M01 A3011 RMK AO2 SLP204 T00831006=
200904032353 METAR KBLI 032353Z VRB05KT 10SM CLR 08/M01 A3010 RMK AO2 SLP200 60000 T00831006 10089 20050 51006=
200904032253 METAR KBLI 032253Z VRB03KT 10SM CLR 08/00 A3009 RMK AO2 SLP199 T00830000=
200904032153 METAR KBLI 032153Z 23006KT 10SM SCT023 08/01 A3009 RMK AO2 SLP198 T00830006=
200904032053 METAR KBLI 032053Z 17007KT 10SM CLR 08/02 A3008 RMK AO2 SLP194 60000 T00780017 51014=
200904031953 METAR KBLI 031953Z 16011KT 10SM FEW055 07/01 A3007 RMK AO2 RAE22 SLP190 P0000 T00670006=
200904031937 SPECI KBLI 031937Z 15010KT 10SM FEW018 SCT023 BKN055 06/01 A3007 RMK AO2 RAE22 P0000=
200904031937 SPECI KBLI 031937Z 15010KT 10SM FEW018 SCT023 BKN055 06/01 A3007 RMK AO2 RAE22 P0000=
200904031853 METAR KBLI 031853Z 16011KT 10SM -RA OVC025 06/01 A3006 RMK AO2 RAB05 SLP188 P0000 T00560006=
200904031753 METAR KBLI 031753Z 17008KT 10SM OVC027 06/M01 A3004 RMK AO2 SLP180 60000 T00561011 10056 20050 53026=
200904031653 METAR KBLI 031653Z 19006KT 10SM OVC027 06/M01 A3001 RMK AO2 SLP170 T00561011=
200904031617 SPECI KBLI 031617Z VRB04KT 10SM BKN029 BKN038 OVC049 06/M01 A3000 RMK AO2=
200904031617 SPECI KBLI 031617Z VRB04KT 10SM BKN029 BKN038 OVC049 06/M01 A3000 RMK AO2=
200904031553 METAR KBLI 031553Z 25004KT 10SM FEW031 SCT039 OVC049 06/M02 A2998 RMK AO2 RAE1455 SLP161 P0000 T00561017=
200904031453 METAR KBLI 031453Z 00000KT 10SM -RA BKN030 OVC035 05/M02 A2996 RMK AO2 RAB09 SLP154 P0000 60000 T00501017 53025=
200904031353 METAR KBLI 031353Z VRB06KT 10SM BKN033 OVC042 05/M03 A2994 RMK AO2 RAB26E36 SLP146 P0000 T00501028=
200904031253 METAR KBLI 031253Z AUTO 18003KT 10SM OVC035 05/M04 A2991 RMK AO2 SLP137 T00501039=
200904031153 METAR KBLI 031153Z AUTO 00000KT 10SM OVC037 05/M03 A2989 RMK AO2 SLP129 7//// T00501033 10061 20050 53015=
200904031053 METAR KBLI 031053Z AUTO 27006KT 10SM OVC039 05/M03 A2987 RMK AO2 SLP122 T00501033=
200904030953 METAR KBLI 030953Z AUTO 26005KT 10SM BKN041 OVC080 05/M03 A2986 RMK AO2 SLP118 T00501033=
200904030853 METAR KBLI 030853Z AUTO 00000KT 10SM BKN043 OVC065 06/M03 A2985 RMK AO2 SLP114 T00561033 53012=
200904030753 METAR KBLI 030753Z AUTO 00000KT 10SM SCT041 SCT070 06/M03 A2983 RMK AO2 SLP110 T00561028 400830022=
200904030653 METAR KBLI 030653Z AUTO 00000KT 10SM OVC037 06/M01 A2982 RMK AO2 SLP108 T00561011=
200904030553 METAR KBLI 030553Z AUTO VRB03KT 10SM BKN037 OVC120 06/M01 A2981 RMK AO2 SLP104 T00611006 10083 20056 51016=
200904030453 METAR KBLI 030453Z 18003KT 10SM SCT110 06/02 A2980 RMK AO2 SLP101 T00560022=
200904030353 METAR KBLI 030353Z 21003KT 10SM FEW030 OVC046 06/03 A2979 RMK AO2 SLP095 T00610028=
200904030253 METAR KBLI 030253Z VRB04KT 10SM BKN047 07/02 A2976 RMK AO2 SLP088 T00720017 53008=
200904030153 METAR KBLI 030153Z 27004KT 10SM FEW030 07/01 A2975 RMK AO2 SLP085 T00720011=
200904030124 SPECI KBLI 030124Z 27004KT 10SM BKN031 BKN038 OVC047 08/01 A2975 RMK AO2=
200904030124 SPECI KBLI 030124Z 27004KT 10SM BKN031 BKN038 OVC047 08/01 A2975 RMK AO2=
200904030053 METAR KBLI 030053Z 26004KT 10SM OVC029 08/01 A2974 RMK AO2 SLPNO T00780006=
200904022353 METAR KBLI 022353Z VRB04KT 10SM OVC035 07/01 A2974 RMK AO2 SLPNO T00720006 10078 20044 53001=
200904022253 METAR KBLI 022253Z 22004KT 10SM SCT029 OVC036 07/01 A2973 RMK AO2 SLP077 T00720011=
200904022153 METAR KBLI 022153Z 17006KT 10SM BKN030 OVC036 07/01 A2974 RMK AO2 SLP079 T00670011=
200904022053 METAR KBLI 022053Z 16004KT 10SM BKN044 OVC055 06/01 A2974 RMK AO2 SLP078 T00610006 51004=
200904022013 SPECI KBLI 022013Z 16005KT 10SM SCT018 OVC060 06/02 A2973 RMK AO2=
200904022013 SPECI KBLI 022013Z 16005KT 10SM SCT018 OVC060 06/02 A2973 RMK AO2=
200904021953 METAR KBLI 021953Z 16006KT 10SM BKN016 OVC022 06/02 A2973 RMK AO2 SLP077 T00610017=
200904021853 METAR KBLI 021853Z 21003KT 10SM FEW014 OVC021 06/02 A2973 RMK AO2 SLP077 T00560022=
200904021753 METAR KBLI 021753Z 20004KT 10SM BKN010 OVC015 04/02 A2972 RMK AO2 SLP074 6//// T00440022 53013=
200904021735 SPECI KBLI 021735Z VRB03KT 10SM BKN010 OVC015 04/02 A2972 RMK AO2=
200904021735 SPECI KBLI 021735Z VRB03KT 10SM BKN010 OVC015 04/02 A2972 RMK AO2=
200904021724 SPECI KBLI 021724Z 19003KT 10SM BKN007 BKN013 OVC023 04/02 A2972 RMK AO2 CIG 006V010=
200904021724 SPECI KBLI 021724Z 19003KT 10SM BKN007 BKN013 OVC023 04/02 A2972 RMK AO2 CIG 006V010=
200904021718 SPECI KBLI 021718Z 21003KT 10SM BKN010 BKN013 OVC020 05/02 A2972 RMK AO2 CIG 006V010=
200904021718 SPECI KBLI 021718Z 21003KT 10SM BKN010 BKN013 OVC020 05/02 A2972 RMK AO2 CIG 006V010=
200904021653 METAR KBLI 021653Z 00000KT 10SM BKN008 BKN020 OVC029 04/03 A2971 RMK AO2 RAE40 SLP068 P0000 T00440028=
200904021610 SPECI KBLI 021610Z 00000KT 9SM -RA BKN008 BKN020 OVC029 04/02 A2970 RMK AO2 P0000 $=
200904021610 SPECI KBLI 021610Z 00000KT 9SM -RA BKN008 BKN020 OVC029 04/02 A2970 RMK AO2 P0000 $=
200904021603 SPECI KBLI 021603Z 00000KT 4SM -RA BR SCT008 BKN020 OVC029 03/02 A2970 RMK AO2 P0000 $=
200904021603 SPECI KBLI 021603Z 00000KT 4SM -RA BR SCT008 BKN020 OVC029 03/02 A2970 RMK AO2 P0000 $=
200904021553 METAR KBLI 021553Z 00000KT 2SM -RA BR SCT002 SCT006 OVC012 03/02 A2970 RMK AO2 UPB1455E09 SLP067 P0002 T00330022 $=
200904021533 SPECI KBLI 021533Z 00000KT 2SM -RA BR SCT005 OVC014 03/02 A2970 RMK AO2 UPB1455E09 P0001 $=
200904021533 SPECI KBLI 021533Z 00000KT 2SM -RA BR SCT005 OVC014 03/02 A2970 RMK AO2 UPB1455E09 P0001 $=
200904021528 SPECI KBLI 021528Z 00000KT 3SM -RA BR SCT005 OVC014 03/02 A2970 RMK AO2 UPB1455E09 P0000 $=
200904021528 SPECI KBLI 021528Z 00000KT 3SM -RA BR SCT005 OVC014 03/02 A2970 RMK AO2 UPB1455E09 P0000 $=
200904021453 METAR KBLI 021453Z 00000KT 7SM -RA OVC003 03/02 A2969 RMK AO2 RAB05 CIG 003V007 SLP062 P0001 6//// T00280017 53018 $=
200904021353 METAR KBLI 021353Z 31004KT 4SM BR OVC003 02/01 A2967 RMK AO2 RAB1258E16 SLP054 P0000 T00220011=
200904021326 SPECI KBLI 021326Z AUTO 33004KT 3SM BR OVC003 02/01 A2965 RMK AO2 RAB1258E16 P0000 $=
200904021326 SPECI KBLI 021326Z AUTO 33004KT 3SM BR OVC003 02/01 A2965 RMK AO2 RAB1258E16 P0000 $=
200904021253 METAR KBLI 021253Z AUTO 33005KT A2964 RMK AO2 SLPNO PWINO FZRANO RVRNO $=
200904021153 METAR KBLI 021153Z AUTO A2963 RMK AO2 RAEMM SLPNO P0000 60013 70073 10033 20022 53002 PWINO FZRANO RVRNO $=
200904021125 SPECI KBLI 021125Z AUTO 02/01 A2962 RMK AO2 RAEMM P0000 PWINO FZRANO RVRNO $=
200904021125 SPECI KBLI 021125Z AUTO 02/01 A2962 RMK AO2 RAEMM P0000 PWINO FZRANO RVRNO $=
200904021053 METAR KBLI 021053Z AUTO 34004KT 6SM -RA BR OVC005 02/01 A2962 RMK AO2 CIG 002V006 SLP040 P0002 T00220011=
200904020953 METAR KBLI 020953Z AUTO 35003KT 7SM -RA OVC007 02/01 A2962 RMK AO2 SLP039 P0003 T00220011=
200904020853 METAR KBLI 020853Z AUTO 03006KT 4SM -RA BR FEW003 OVC009 02/01 A2963 RMK AO2 SLP042 P0004 60008 T00220011 56009=
200904020848 SPECI KBLI 020848Z AUTO 03006KT 5SM -RA BR SCT003 OVC011 02/01 A2963 RMK AO2 P0003=
200904020848 SPECI KBLI 020848Z AUTO 03006KT 5SM -RA BR SCT003 OVC011 02/01 A2963 RMK AO2 P0003=
200904020827 SPECI KBLI 020827Z AUTO 02005KT 5SM -RA BR BKN003 OVC013 02/01 A2963 RMK AO2 P0002=
200904020827 SPECI KBLI 020827Z AUTO 02005KT 5SM -RA BR BKN003 OVC013 02/01 A2963 RMK AO2 P0002=
200904020804 SPECI KBLI 020804Z AUTO 02006KT 4SM -RA BR FEW003 BKN017 OVC024 02/01 A2963 RMK AO2 P0000=
200904020804 SPECI KBLI 020804Z AUTO 02006KT 4SM -RA BR FEW003 BKN017 OVC024 02/01 A2963 RMK AO2 P0000=
200904020753 METAR KBLI 020753Z AUTO 02006KT 5SM -RA BR BKN019 OVC025 03/01 A2964 RMK AO2 SLP045 P0002 T00280011 400610028=
200904020705 SPECI KBLI 020705Z AUTO 04006KT 7SM -RA BKN025 OVC041 03/02 A2965 RMK AO2 P0000=
200904020705 SPECI KBLI 020705Z AUTO 04006KT 7SM -RA BKN025 OVC041 03/02 A2965 RMK AO2 P0000=
200904020653 METAR KBLI 020653Z AUTO 03005KT 8SM -RA FEW023 SCT028 OVC040 03/02 A2966 RMK AO2 SLP052 P0002 T00330017=
200904020612 SPECI KBLI 020612Z AUTO 05004KT 6SM -RA BR FEW022 SCT028 OVC034 03/02 A2968 RMK AO2 P0001=
200904020612 SPECI KBLI 020612Z AUTO 05004KT 6SM -RA BR FEW022 SCT028 OVC034 03/02 A2968 RMK AO2 P0001=
200904020553 METAR KBLI 020553Z AUTO 05006KT 6SM -RA BR OVC025 03/02 A2969 RMK AO2 SLP062 P0009 60053 T00280017 10056 20028 58016=
200904020453 METAR KBLI 020453Z 04005KT 4SM RA BR FEW003 OVC019 03/02 A2972 RMK AO2 SLP073 P0013 T00330022=
200904020449 SPECI KBLI 020449Z 05005KT 4SM RA BR FEW003 BKN017 OVC022 03/02 A2972 RMK AO2 P0012=
200904020449 SPECI KBLI 020449Z 05005KT 4SM RA BR FEW003 BKN017 OVC022 03/02 A2972 RMK AO2 P0012=
200904020353 METAR KBLI 020353Z 02004KT 6SM RA BR OVC019 04/02 A2973 RMK AO2 SLP077 P0010 T00390022=
200904020253 METAR KBLI 020253Z 11006KT 6SM RA OVC021 04/02 A2976 RMK AO2 SLP087 P0011 60021 T00440017 56026=
200904020153 METAR KBLI 020153Z 14008KT 5SM -RA OVC021 05/02 A2978 RMK AO2 SLP094 P0006 T00500017=
200904020053 METAR KBLI 020053Z 14009KT 7SM -RA OVC023 05/02 A2981 RMK AO2 SLP102 P0004 T00500017=
200904012353 METAR KBLI 012353Z 14008KT 10SM -RA OVC024 06/02 A2984 RMK AO2 RAB04 SLP113 P0000 60001 T00560017 10061 20033 56028=
200904012253 METAR KBLI 012253Z 14011KT 10SM BKN024 BKN047 OVC060 06/01 A2986 RMK AO2 SLP119 T00610011=
200904012153 METAR KBLI 012153Z 15013G19KT 10SM BKN024 BKN047 OVC060 06/01 A2989 RMK AO2 RAE2058 SLP131 P0000 T00560011=
200904012128 SPECI KBLI 012128Z 14014KT 10SM BKN021 OVC060 06/01 A2990 RMK AO2 RAE2058 P0000=
200904012128 SPECI KBLI 012128Z 14014KT 10SM BKN021 OVC060 06/01 A2990 RMK AO2 RAE2058 P0000=
200904012121 SPECI KBLI 012121Z 14012G20KT 10SM SCT021 OVC060 06/01 A2990 RMK AO2 RAE2058 P0000=
200904012121 SPECI KBLI 012121Z 14012G20KT 10SM SCT021 OVC060 06/01 A2990 RMK AO2 RAE2058 P0000=
200904012053 METAR KBLI 012053Z 14012G17KT 10SM -RA BKN021 BKN032 OVC043 05/02 A2992 RMK AO2 SLP142 P0000 60001 T00500017 58026=
200904012000 SPECI KBLI 012000Z 14011G18KT 10SM -RA OVC019 05/02 A2995 RMK AO2 P0000=
200904012000 SPECI KBLI 012000Z 14011G18KT 10SM -RA OVC019 05/02 A2995 RMK AO2 P0000=
200904011953 METAR KBLI 011953Z 15011G17KT 10SM -RA BKN012 BKN024 OVC031 05/01 A2996 RMK AO2 SLP153 P0001 T00500011=
200904011853 METAR KBLI 011853Z 15009KT 10SM -RA BKN012 OVC031 04/01 A2999 RMK AO2 SLP165 P0000 T00440011=
200904011805 SPECI KBLI 011805Z 15011G18KT 10SM -RA SCT011 BKN027 OVC031 03/01 A3000 RMK AO2 P0000=
200904011805 SPECI KBLI 011805Z 15011G18KT 10SM -RA SCT011 BKN027 OVC031 03/01 A3000 RMK AO2 P0000=
200904011753 METAR KBLI 011753Z 17011G18KT 6SM -RA BR BKN011 BKN023 OVC033 03/01 A3000 RMK AO2 SLP168 P0001 60006 T00330011 10044 20028 58014=
200904011741 SPECI KBLI 011741Z 16011KT 6SM -RA BR BKN011 OVC023 03/01 A3001 RMK AO2 P0001=
200904011741 SPECI KBLI 011741Z 16011KT 6SM -RA BR BKN011 OVC023 03/01 A3001 RMK AO2 P0001=
200904011718 SPECI KBLI 011718Z 16014G19KT 6SM -RA BR SCT010 BKN015 OVC024 03/01 A3001 RMK AO2 P0001=
200904011718 SPECI KBLI 011718Z 16014G19KT 6SM -RA BR SCT010 BKN015 OVC024 03/01 A3001 RMK AO2 P0001=
200904011653 METAR KBLI 011653Z 16012KT 5SM -RA BKN014 OVC021 03/01 A3002 RMK AO2 SLP175 P0001 T00330006=
200904011633 SPECI KBLI 011633Z 17008KT 5SM -RA OVC014 03/01 A3002 RMK AO2 P0001=
200904011633 SPECI KBLI 011633Z 17008KT 5SM -RA OVC014 03/01 A3002 RMK AO2 P0001=
200904011553 METAR KBLI 011553Z 15009KT 5SM -RA BR BKN016 OVC021 03/01 A3003 RMK AO2 SLP177 P0002 T00280006=
200904011453 METAR KBLI 011453Z 15009G17KT 5SM -RA BR FEW013 OVC017 03/01 A3004 RMK AO2 SLP182 P0002 60002 T00280006 56006=
200904011401 SPECI KBLI 011401Z 17012G21KT 5SM -RA SCT019 BKN029 OVC034 04/00 A3004 RMK AO2 P0000=
200904011401 SPECI KBLI 011401Z 17012G21KT 5SM -RA SCT019 BKN029 OVC034 04/00 A3004 RMK AO2 P0000=
200904011353 METAR KBLI 011353Z 15010G17KT 5SM -RA FEW021 SCT027 OVC036 04/M01 A3004 RMK AO2 RAB52 SLP183 P0000 T00441006=
200904011253 METAR KBLI 011253Z AUTO 12005KT 10SM SCT042 OVC055 04/00 A3005 RMK AO2 SLP183 T00440000=
200904011153 METAR KBLI 011153Z AUTO 16010KT 10SM FEW032 OVC055 04/01 A3006 RMK AO2 RAB22E32 SLP187 P0000 60000 70009 T00440006 10056 20039 58008=
200904011141 SPECI KBLI 011141Z AUTO 16013G18KT 10SM FEW019 BKN047 OVC055 04/01 A3006 RMK AO2 RAB22E32 P0000=
200904011141 SPECI KBLI 011141Z AUTO 16013G18KT 10SM FEW019 BKN047 OVC055 04/01 A3006 RMK AO2 RAB22E32 P0000=
200904011103 SPECI KBLI 011103Z AUTO 18010G16KT 10SM FEW011 BKN027 OVC034 05/01 A3007 RMK AO2=
200904011103 SPECI KBLI 011103Z AUTO 18010G16KT 10SM FEW011 BKN027 OVC034 05/01 A3007 RMK AO2=
200904011053 METAR KBLI 011053Z AUTO 18004KT 10SM FEW026 BKN034 OVC048 05/00 A3008 RMK AO2 SLP193 T00500000=
200904010953 METAR KBLI 010953Z AUTO 16004KT 10SM FEW032 OVC060 05/01 A3007 RMK AO2 RAE0856 SLP192 P0000 T00500006=
200904010853 METAR KBLI 010853Z AUTO 15004KT 10SM -RA OVC046 05/01 A3008 RMK AO2 RAB47 SLP195 P0000 60000 T00500006 51006=
200904010753 METAR KBLI 010753Z AUTO 17003KT 10SM SCT065 OVC080 04/00 A3008 RMK AO2 SLP194 T00440000 400940039=
200904010653 METAR KBLI 010653Z AUTO 13005KT 10SM OVC065 04/00 A3008 RMK AO2 SLP193 T00440000=
200904010553 METAR KBLI 010553Z AUTO 16003KT 10SM OVC065 05/00 A3007 RMK AO2 SLP189 T00500000 10089 20044 51019=
200904010453 METAR KBLI 010453Z 17007KT 10SM BKN065 06/01 A3005 RMK AO2 SLP184 T00560006=
200904010353 METAR KBLI 010353Z 15009KT 10SM FEW060 06/00 A3003 RMK AO2 SLP177 T00560000=
200904010253 METAR KBLI 010253Z 17008KT 10SM CLR 06/M01 A3001 RMK AO2 SLP170 T00561006 53013=
200904010153 METAR KBLI 010153Z 17008KT 10SM FEW046 BKN060 07/01 A3000 RMK AO2 SLP166 T00670011=
200904010053 METAR KBLI 010053Z 24007KT 170V290 10SM BKN060 OVC080 08/M05 A2998 RMK AO2 SLP160 T00831050=

# No short TAF reports from KBLI in databse.

###################################
#  large TAF from KBLI
###################################
200904302328 TAF KBLI 302328Z 0100/0124 23004KT P6SM SKC FM011200 03004KT P6SM
                       SKC=
200904301733 TAF KBLI 301733Z 3018/0118 18007KT P6SM SKC FM010100 23004KT P6SM
                       SKC=
200904301138 TAF KBLI 301138Z 3012/0112 18004KT P6SM OVC100 FM301600 21006KT
                       P6SM SCT100 FM010300 VRB03KT P6SM SKC=
200904300908 KBLI 300908Z 3009/0106 00000KT P6SM SCT100 FM301900 21006KT P6SM
                       SCT200 FM010300 VRB03KT P6SM FEW200=
200904300520 TAF KBLI 300520Z 3006/0106 VRB03KT P6SM BKN100 FM300800 00000KT
                       P6SM SCT100 FM301900 21006KT P6SM SCT200
                       FM310300 VRB03KT P6SM FEW200=
200904292341 TAF KBLI 292341Z 3000/3024 19005KT P6SM BKN120 BKN250 FM300700
                       00000KT P6SM SCT120 FM301900 21004KT P6SM
                       SCT200=
200904291729 TAF KBLI 291729Z 2918/3018 18005KT P6SM BKN080 FM292100 22005KT
                       P6SM BKN100 FM300700 00000KT P6SM SCT120=
200904291120 TAF KBLI 291120Z 2912/3012 01005KT P6SM SCT100 FM291900 27005KT
                       P6SM SCT120 FM300300 VRB03KT P6SM SCT120=
200904290523 TAF KBLI 290523Z 2906/3006 18008KT P6SM SCT200 FM291000 01005KT
                       P6SM BKN200 FM291900 27005KT P6SM SCT200=
200904282329 TAF KBLI 282329Z 2900/2924 36008KT P6SM BKN200 FM290600 00000KT
                       P6SM SCT200 FM291500 32005KT P6SM BKN200=
200904281737 TAF KBLI 281737Z 2818/2918 04012G27KT P6SM BKN080 FM282200 36006KT
                       P6SM BKN090 FM290600 00000KT P6SM SCT100=
200904281120 TAF KBLI 281120Z 2812/2912 VRB03KT P6SM OVC090 FM282000 36006KT
                       P6SM SCT060 BKN090=
200904280522 TAF KBLI 280522Z 2806/2906 01007KT P6SM BKN120 FM281300 VRB05KT
                       P6SM VCSH BKN040 BKN080 FM282000 36006KT
                       P6SM VCSH SCT050 BKN100=
200904272330 TAF KBLI 272330Z 2800/2824 29012G17KT P6SM SKC FM280400 04006KT
                       P6SM BKN060 BKN100 FM281100 36005KT P6SM
                       VCSH BKN040 BKN070=
200904271732 TAF KBLI 271732Z 2718/2818 03017G25KT P6SM SKC FM272300 33006KT
                       P6SM BKN070 BKN120 BKN200 FM280600 04006KT
                       P6SM BKN060 BKN100
                      PROB30 2807/2812 -SHRA=
200904271122 TAF KBLI 271122Z 2712/2812 VRB04KT P6SM SCT050 SCT100 BKN200 FM271800
                       32008KT P6SM SCT050 BKN120 BKN200 FM272300
                       33006KT P6SM BKN070 BKN120 BKN200 FM280600
                       04006KT P6SM BKN060 BKN100
                      PROB30 2807/2812 -SHRA=
200904270522 TAF KBLI 270522Z 2706/2806 VRB03KT P6SM FEW120 SCT250 FM271200
                       03003KT P6SM SCT120 BKN250 FM272000 31008KT
                       P6SM SCT060 BKN120 FM280500 05006KT P6SM
                       VCSH BKN050 BKN100=
200904262335 TAF KBLI 262335Z 2700/2724 19005KT P6SM SKC FM270400 17006KT P6SM
                       BKN120 OVC250 FM271200 03003KT P6SM BKN120
                       OVC250 FM272000 31008KT P6SM SCT050 BKN100=
200904261742 TAF KBLI 261742Z 2618/2718 18007KT P6SM SKC FM270200 20006KT P6SM
                       BKN120 OVC250 FM271500 05004KT P6SM SCT250=
200904261138 TAF KBLI 261138Z 2612/2712 VRB03KT P6SM SCT060 FM262200 23006KT
                       P6SM SCT250 FM270600 03006KT P6SM SKC=
200904260538 TAF KBLI 260538Z 2606/2706 18004KT P6SM BKN060 FM260900 VRB03KT
                       P6SM SCT250=
200904251725 TAF KBLI 251725Z 2518/2618 VRB03KT P6SM SCT030 OVC050
                      TEMPO 2518/2522 BKN030 OVC050 FM260000 29006KT
                       P6SM SCT060 FM260600 19003KT P6SM SCT060=
200904251138 TAF KBLI 251138Z 2512/2612 17008KT P6SM SCT030 BKN060
                      TEMPO 2514/2518 BKN030 BKN060 FM260100 29006KT
                       P6SM SCT060 FM260600 VRB03KT P6SM SCT060=
200904242320 TAF KBLI 242320Z 2500/2524 17007KT P6SM SKC FM250800 18007KT P6SM
                       BKN250 FM251200 18010KT P6SM VCSH BKN022
                       OVC040 FM252000 21009KT P6SM VCSH SCT025
                       BKN050=
200904241729 TAF KBLI 241729Z 2418/2518 17010KT P6SM SKC FM242100 20008KT P6SM
                       SCT250 FM250800 18007KT P6SM BKN250 FM251200
                       18010KT P6SM VCSH BKN022 OVC040=
200904241136 TAF KBLI 241136Z 2412/2512 17006KT P6SM SKC FM242100 22006KT P6SM
                       SCT250=
200904240530 TAF KBLI 240530Z 2406/2506 VRB03KT P6SM SKC FM242100 22006KT P6SM
                       SCT250=
200904232324 TAF KBLI 232324Z 2400/2424 27008KT P6SM SCT060 FM240300 24005KT
                       P6SM SKC FM241700 20003KT P6SM SCT250 FM242100
                       22007KT P6SM SCT250=
200904231721 TAF KBLI 231721Z 2318/2418 VRB04KT P6SM BKN017 OVC028 FM232000
                       20007KT P6SM SCT030 FM240300 24005KT P6SM
                       SKC=
200904231138 TAF KBLI 231138Z 2312/2412 15004KT P6SM SCT050 FM232000 20007KT
                       P6SM SKC=
200904230530 TAF KBLI 230530Z 2306/2406 VRB05KT P6SM SCT040 BKN100
                      TEMPO 2308/2312 -SHRA BKN030 FM231500 09004KT
                       P6SM BKN030 FM231800 03006KT P6SM SCT030
                       FM232200 31007KT P6SM SKC=
200904222345 TAF KBLI 222345Z 2300/2324 22008KT P6SM VCSH BKN060 FM230500 18007KT
                       P6SM SCT020 BKN035 OVC060
                      TEMPO 2306/2310 -SHRA FM231200 09004KT P6SM
                       SCT012 BKN045 FM231800 03006KT P6SM SCT030
                       FM232200 31007KT P6SM SKC=
200904221725 TAF KBLI 221725Z 2218/2318 30008KT P6SM VCSH SCT025 BKN050 FM230500
                       18007KT P6SM VCSH BKN035 BKN060=
200904221706 KBLI 221706Z 2217/2312 30008KT P6SM VCSH SCT025 BKN050 FM230500
                       18007KT P6SM VCSH BKN035 BKN060=
200904221123 TAF KBLI 221123Z 2212/2312 19008KT P6SM VCSH FEW015 BKN025 OVC050
                       FM222000 21007KT P6SM SCT020 BKN050 FM230500
                       18007KT P6SM VCSH BKN035 BKN060=
200904220813 KBLI 220813Z 2208/2306 18009KT P6SM FEW020 OVC070
                      TEMPO 2208/2210 -SHRA BKN022 OVC060 FM221000
                       19011KT P6SM VCSH FEW015 BKN025 OVC050 FM222200
                       21007KT P6SM SCT020 BKN050 FM230400 18007KT
                       P6SM BKN035 BKN060=
200904220812 KBLI 220812Z 2208/2306 18009KT P6SM FEW020 OVC070
                      TEMPO 2208/2210 -SHRA BKN022 OVC060 FM221100
                       19011KT P6SM VCSH FEW015 BKN025 OVC050 FM222200
                       21007KT P6SM SCT020 BKN050 FM230400 18007KT
                       P6SM BKN035 BKN060=
200904220530 TAF KBLI 220530Z 2206/2306 18009KT P6SM FEW020 OVC070
                      TEMPO 2207/2210 -SHRA BKN040 OVC060 FM221100
                       19011KT P6SM VCSH FEW015 BKN035 OVC050 FM222200
                       21007KT P6SM SCT020 BKN050 FM230400 18007KT
                       P6SM BKN035 BKN060=
200904212327 TAF KBLI 212327Z 2200/2224 18009KT P6SM SCT250 FM221100 21012KT
                       P6SM VCSH OVC012 FM222200 18007KT P6SM BKN014=
200904211726 TAF KBLI 211726Z 2118/2218 VRB03KT P6SM SCT250 FM212300 19010KT
                       P6SM SCT200 FM221000 18008KT P6SM SCT012
                       BKN025
                      TEMPO 2210/2212 BKN010 FM221200 18007KT P6SM
                       OVC010=
200904211120 TAF KBLI 211120Z 2112/2212 00000KT 4SM BR SKC
                      TEMPO 2112/2115 2SM BR FM211500 18005KT P6SM
                       SCT200 FM212300 19010KT P6SM SCT200 FM221000
                       18008KT P6SM SCT012 BKN025
                      TEMPO 2210/2212 BKN010=
200904210854 KBLI 210854Z 2109/2206 15003KT 5SM BR SKC
                      TEMPO 2109/2113 2SM BR FM211500 18005KT P6SM
                       SCT200 FM212300 19010KT P6SM SCT200=
200904210528 TAF KBLI 210528Z 2106/2206 00000KT P6SM SKC FM211200 18005KT P6SM
                       SCT200 FM212300 19010KT P6SM SCT200=
200904202334 TAF KBLI 202334Z 2100/2124 22006KT P6SM FEW250=
200904201727 TAF KBLI 201727Z 2018/2118 32003KT P6SM OVC080 FM202200 21003KT
                       P6SM SCT250=
200904201130 TAF KBLI 201130Z 2012/2112 00000KT P6SM BKN060 FM201800 23007KT
                       P6SM SCT080=
200904200522 TAF KBLI 200522Z 2006/2106 VRB04KT P6SM SCT080 BKN200 FM202000
                       23007KT P6SM SKC=
200904192320 TAF KBLI 192320Z 2000/2024 VRB04KT P6SM SCT120 BKN200=
200904191720 TAF KBLI 191720Z 1918/2018 VRB04KT P6SM BKN080 BKN120 FM200000
                       VRB04KT P6SM SCT120 BKN200=
200904191120 TAF KBLI 191120Z 1912/2012 09003KT P6SM OVC070 FM191800 18006KT
                       P6SM BKN120 OVC200 FM200300 VRB03KT P6SM
                       SCT120 BKN200=
200904190536 TAF KBLI 190536Z 1906/2006 34004KT P6SM OVC100 FM191200 VRB03KT
                       P6SM OVC100 FM191800 18006KT P6SM SCT100
                       OVC200 FM200300 VRB03KT P6SM FEW100 BKN200=
200904182320 TAF KBLI 182320Z 1900/1924 32006KT P6SM OVC150 FM191200 17007KT
                       P6SM OVC120 FM191700 VRB04KT P6SM BKN200=
200904181720 TAF KBLI 181720Z 1818/1918 VRB04KT P6SM BKN150 FM190200 18008KT
                       P6SM OVC120=
200904181120 TAF KBLI 181120Z 1812/1912 VRB03KT P6SM SCT040 BKN200
                      TEMPO 1812/1815 BKN040 FM181800 24006KT P6SM
                       SCT100 BKN200 FM190300 VRB03KT P6SM BKN060
                       BKN200=
200904180521 TAF KBLI 180521Z 1806/1906 19005KT P6SM SCT200 FM181200 VRB03KT
                       P6SM SCT008 BKN200 FM181800 24006KT P6SM
                       BKN200 FM190300 VRB03KT P6SM BKN050 BKN200=
200904172326 TAF KBLI 172326Z 1800/1824 21008G15KT P6SM SCT030 BKN050 FM180300
                       19005KT P6SM SCT200 FM181200 VRB03KT P6SM
                       SCT008 BKN200 FM181800 24006KT P6SM BKN200=
200904172249 KBLI 172249Z 1723/1818 21008KT P6SM SCT030 BKN050 FM180300 19005KT
                       P6SM SCT200 FM181200 VRB03KT P6SM SCT008
                       BKN200=
200904172110 KBLI 172110Z 1721/1818 19012G22KT P6SM VCSH SCT015 BKN070 FM180000
                       21012KT P6SM SCT030 BKN050 FM180300 19005KT
                       P6SM SCT200 FM181200 VRB03KT P6SM SCT008
                       BKN200=
200904172100 KBLI 172100Z 1721/1818 25015G25KT P6SM -SHRA SCT015 BKN025CB OVC070
                       TEMPO 1721/1724 29020G30KT 3SM SHRA BKN012
                       OVC025CB FM180000 21012G22KT P6SM -SHRA
                       SCT030 BKN050 FM180200 22010G20KT P6SM SCT030
                       FM180500 19005KT P6SM SCT200 FM181200 VRB03KT
                       P6SM SCT008 BKN200=
200904171827 KBLI 171827Z 1718/1818 15010G20KT P6SM -SHRA SCT015 OVC025 FM172000
                       21012G22KT P6SM -SHRA SCT030 BKN050 FM172200
                       22010G20KT P6SM SCT030 FM180300 19005KT
                       P6SM SCT200 FM181200 VRB03KT P6SM SCT008
                       BKN200=
200904171729 TAF KBLI 171729Z 1718/1818 15010KT P6SM -SHRA SCT015 OVC025 FM172000
                       21012KT P6SM -SHRA SCT030 BKN050 FM172200
                       22007KT P6SM SCT030 FM180300 19005KT P6SM
                       SCT200 FM181200 VRB03KT P6SM SCT008 BKN200=
200904171237 KBLI 171237Z 1713/1812 15010KT P6SM -RA OVC019 FM171900 21012KT
                       P6SM -SHRA SCT030 BKN050 FM172100 22007KT
                       P6SM SCT030 FM180300 19005KT P6SM SCT200=
200904171131 TAF KBLI 171131Z 1712/1812 15012G20KT P6SM -RA OVC030
                      TEMPO 1712/1716 BKN020 FM171900 21012KT P6SM
                       -SHRA SCT030 BKN050 FM172100 22007KT P6SM
                       SCT030 FM180300 19005KT P6SM SCT200=
200904170536 TAF KBLI 170536Z 1706/1806 13012G20KT P6SM -RA SCT040 OVC070 FM170900
                       15012G22KT P6SM -RA OVC025 FM172000 21010KT
                       P6SM VCSH SCT030 BKN050 FM180200 22007KT
                       P6SM SCT030=
200904162333 TAF KBLI 162333Z 1700/1724 20008KT P6SM SCT050 SCT100 OVC200 FM170400
                       14012KT P6SM BKN050 OVC120 FM170600 13012KT
                       P6SM -RA OVC035 FM170900 15012G22KT P6SM
                       -RA OVC026 FM172000 21010KT P6SM VCSH SCT025
                       BKN050=
200904161734 TAF KBLI 161734Z 1618/1718 18006KT P6SM SCT120 BKN200 FM162300
                       18010KT P6SM SCT040 BKN200 FM170200 14012KT
                       P6SM BKN050 OVC120 FM170500 13012KT P6SM
                       OVC035
                      PROB30 1705/1709 -RA FM170900 15012G18KT
                       P6SM -RA OVC026=
200904161135 TAF KBLI 161135Z 1612/1712 17006KT P6SM FEW200
                      TEMPO 1612/1616 BKN040 FM162000 18010KT P6SM
                       SCT040 BKN200 FM170300 14012KT P6SM BKN040
                       OVC100 FM170600 13012KT P6SM OVC030
                      PROB30 1706/1712 -RA=
200904160538 TAF KBLI 160538Z 1606/1706 17006KT P6SM SKC FM161500 16008KT P6SM
                       SCT100 OVC200 FM162100 16012KT P6SM SCT040
                       OVC100 FM170300 14010KT P6SM BKN040 OVC080=
200904152320 TAF KBLI 152320Z 1600/1624 16011KT P6SM SKC FM160600 17006KT P6SM
                       SCT250 FM161500 16008KT P6SM SCT100 OVC200
                       FM162100 16012KT P6SM SCT040 OVC100=
200904151734 TAF KBLI 151734Z 1518/1618 16010KT P6SM SCT020 FM152000 19008KT
                       P6SM SCT040 FM160600 17006KT P6SM SCT100
                       SCT250 FM161500 16008KT P6SM BKN100 OVC200=
200904151136 TAF KBLI 151136Z 1512/1612 20004KT P6SM FEW100 FM152000 19008KT
                       P6SM SCT070 FM160600 17006KT P6SM SCT100
                       SCT250=
200904150527 TAF KBLI 150527Z 1506/1606 20004KT P6SM SCT100 FM150700 18005KT
                       P6SM SKC FM151800 19008KT P6SM SCT070 FM160200
                       21008KT P6SM FEW070 FEW250=
200904142326 TAF KBLI 142326Z 1500/1524 29008KT P6SM SCT250 FM150500 18005KT
                       P6SM SKC FM151300 19008KT P6SM SCT040=
200904141732 TAF KBLI 141732Z 1418/1518 30007KT P6SM SCT028 BKN250
                      TEMPO 1418/1420 BKN030 BKN250 FM150000 24006KT
                       P6SM SCT040 FM150500 18005KT P6SM SKC=
200904141253 KBLI 141253Z 1413/1512 16005KT P6SM SCT012
                      TEMPO 1413/1416 BKN009 FM141800 28006KT P6SM
                       SCT035 SCT070 FM150400 24006KT P6SM SCT040=
200904141128 TAF KBLI 141128Z 1412/1512 16005KT P6SM SKC FM141800 28006KT P6SM
                       SCT035 SCT070 FM150400 24006KT P6SM SCT040=
200904140535 TAF KBLI 140535Z 1406/1506 VRB05KT P6SM SCT100 FM141000 20006KT
                       P6SM SCT040 SCT100 FM141800 29006KT P6SM
                       SCT035 SCT050=
200904132327 TAF KBLI 132327Z 1400/1424 17011G18KT P6SM SCT035 BKN200 FM140500
                       18006KT P6SM VCSH SCT040 BKN140 FM141000
                       VRB04KT P6SM SCT035 BKN050
                      PROB30 1410/1418 -SHRA FM141800 29006KT P6SM
                       SCT035 SCT050=
200904131738 TAF KBLI 131738Z 1318/1418 16009KT P6SM SCT035 BKN120 FM132200
                       19010KT P6SM VCSH SCT030 BKN080 FM140500
                       18006KT P6SM VCSH SCT040 BKN100 FM141000
                       VRB04KT P6SM SCT035 BKN050
                      PROB30 1410/1418 -SHRA=
200904131120 TAF KBLI 131120Z 1312/1412 18009KT P6SM SCT030 SCT100 FM131900
                       19010KT P6SM VCSH SCT030 BKN050 FM140000
                       18006KT P6SM VCSH SCT030 BKN050=
200904130524 TAF KBLI 130524Z 1306/1406 18004KT P6SM SCT030 BKN060 FM131200
                       17010KT P6SM -SHRA BKN020 OVC035 FM131900
                       19010KT P6SM -SHRA BKN035 BKN050 FM140000
                       18006KT P6SM VCSH SCT030 BKN050=
200904130153 KBLI 130153Z 1302/1324 VRB03KT P6SM -SHRA SCT030 BKN045 FM130500
                       20008KT P6SM -SHRA BKN025 OVC040 FM131200
                       20010KT P6SM -SHRA BKN020 OVC035 FM131700
                       22008KT P6SM -SHRA SCT025 BKN040=
200904122347 TAF KBLI 122347Z 1300/1324 20012KT P6SM -RA BKN009 OVC025 FM130100
                       20012KT P6SM -SHRA BKN015 OVC030 FM130400
                       20010KT P6SM -SHRA BKN025 OVC040 FM131200
                       20010KT P6SM -SHRA BKN020 OVC035 FM131700
                       22008KT P6SM -SHRA SCT025 BKN040=
200904121743 TAF KBLI 121743Z 1218/1318 14015G25KT P6SM -RA BKN025 OVC040 FM122100
                       17012G25KT 5SM -RA BR BKN020 OVC030 FM122300
                       20012KT P6SM -SHRA BKN025 OVC040 FM130300
                       18008KT P6SM VCSH SCT025 OVC045 FM131200
                       16012KT P6SM -SHRA SCT020 OVC035=
200904121425 KBLI 121425Z 1214/1312 14012G20KT P6SM BKN035 OVC050 FM121500 13012KT
                       P6SM -RA BKN025 OVC040 FM122000 17012G25KT
                       P6SM -RA BKN025 OVC040 FM122300 20012KT
                       P6SM -SHRA BKN025 OVC040 FM130400 18008KT
                       P6SM VCSH SCT025 OVC040 FM130800 16012KT
                       P6SM -SHRA SCT020 OVC035=
200904121120 TAF KBLI 121120Z 1212/1312 14012G20KT P6SM BKN035 OVC050 FM121500
                       13012G24KT P6SM -RA BKN030 OVC045 FM122000
                       17012G25KT P6SM -RA BKN025 OVC040 FM122300
                       20012KT P6SM -SHRA BKN025 OVC040 FM130400
                       18008KT P6SM VCSH SCT025 OVC040 FM130800
                       16012KT P6SM -SHRA SCT020 OVC035=
200904121029 KBLI 121029Z 1210/1306 14012G20KT P6SM BKN035 OVC050 FM121500 13012G24KT
                       P6SM -RA BKN030 OVC045 FM122000 17012G25KT
                       P6SM -RA BKN025 OVC040 FM122300 20012KT
                       P6SM -SHRA BKN025 OVC040 FM130400 18008KT
                       P6SM VCSH SCT025 OVC040=
200904120520 TAF KBLI 120520Z 1206/1306 14010KT P6SM BKN035 FM121000 14010KT
                       P6SM -RA BKN030 OVC045 FM121500 13012G24KT
                       P6SM -RA BKN030 OVC045 FM122000 17012G25KT
                       P6SM -RA BKN025 OVC040 FM122300 20012KT
                       P6SM -SHRA BKN025 OVC040 FM130400 18008KT
                       P6SM VCSH SCT025 OVC040=
200904112322 TAF KBLI 112322Z 1200/1224 17010KT P6SM SCT060 FM120400 16008KT
                       P6SM BKN060 FM121000 16010KT P6SM -RA BKN030
                       OVC045 FM121500 14012G24KT P6SM -RA BKN030
                       OVC045 FM122000 18012KT P6SM -RA BKN025
                       OVC040 FM122300 20012KT P6SM -SHRA SCT025
                       OVC040=
200904111739 TAF KBLI 111739Z 1118/1218 16009KT P6SM SCT025 BKN050 OVC080
                      TEMPO 1118/1120 -RA BKN025 OVC050 FM112200
                       19008KT P6SM SCT025 BKN050 OVC080 FM120200
                       16008KT P6SM SCT030 OVC045 FM121000 16010KT
                       P6SM -RA BKN030 OVC045=
200904111500 KBLI 111500Z 1115/1212 18009KT P6SM SCT025 BKN050 OVC100
                      TEMPO 1115/1118 -RA BKN025 OVC050 FM112200
                       19008KT P6SM SCT025 BKN045 OVC070 FM120200
                       16008KT P6SM SCT030 OVC045=
200904111120 TAF KBLI 111120Z 1112/1212 16009KT P6SM BKN023 OVC030 FM111500
                       16012KT P6SM -RA SCT025 OVC040
                      TEMPO 1115/1119 BKN025 OVC040 FM112200 19008KT
                       P6SM VCSH BKN025 OVC045 FM120200 16008KT
                       P6SM SCT030 OVC045=
200904110637 KBLI 110637Z 1107/1206 19006KT P6SM BKN027 OVC035 FM111200 16010KT
                       P6SM -RA SCT025 OVC040 FM111700 16012KT
                       P6SM -RA BKN025 OVC040 FM112200 19008KT
                       P6SM VCSH BKN025 OVC045 FM120200 16008KT
                       P6SM SCT030 OVC045=
200904110524 TAF KBLI 110524Z 1106/1206 17007KT P6SM SCT025 OVC050 FM111200
                       16010KT P6SM -RA OVC040 FM111700 16012KT
                       P6SM -RA BKN025 OVC040 FM112200 19008KT
                       P6SM VCSH BKN025 OVC045 FM120200 16008KT
                       P6SM SCT030 OVC045=
200904102340 TAF KBLI 102340Z 1100/1124 18005KT P6SM OVC060 FM111200 18008KT
                       P6SM -RA OVC040 FM111500 18008KT P6SM -RA
                       BKN025 OVC040 FM112100 18011KT P6SM BKN030
                       OVC045=
200904101743 TAF KBLI 101743Z 1018/1118 25004KT P6SM BKN012 OVC050 FM102000
                       24005KT P6SM BKN025 OVC050 FM102100 22006KT
                       P6SM SCT025 OVC050 FM110100 20005KT P6SM
                       BKN070 FM111100 16012KT P6SM -RA OVC035=
200904101120 TAF KBLI 101120Z 1012/1112 00000KT P6SM OVC045 FM101700 16007KT
                       P6SM SCT045 BKN070 FM111100 16012KT P6SM
                       -RA OVC035=
200904100520 TAF KBLI 100520Z 1006/1106 01003KT P6SM BKN060 FM101200 VRB03KT
                       P6SM SCT030 BKN060 FM101700 18007KT P6SM
                       SCT040 BKN070=
200904092320 TAF KBLI 092320Z 1000/1024 02005KT P6SM SCT025 BKN050 FM101200
                       18006KT P6SM BKN022 FM101700 21007KT P6SM
                       VCSH BKN040=
200904091727 TAF KBLI 091727Z 0918/1018 VRB04KT P6SM VCSH BKN025 OVC040 FM101200
                       18006KT P6SM BKN022 FM101700 21007KT P6SM
                       VCSH BKN040=
200904091120 TAF KBLI 091120Z 0912/1012 17007KT P6SM BKN035 BKN050 OVC120 FM091600
                       16012KT P6SM -RA OVC030 FM092000 20010KT
                       P6SM VCSH BKN030 OVC050 FM100200 18008KT
                       P6SM SCT035 BKN060=
200904090523 TAF KBLI 090523Z 0906/1006 16008KT P6SM OVC040 FM090900 16012KT
                       P6SM OVC035 FM091600 16012KT P6SM -RA OVC030
                       FM092000 20010KT P6SM VCSH BKN030 OVC050
                       FM100200 18008KT P6SM SCT035 BKN060=
200904082320 TAF KBLI 082320Z 0900/0924 19012KT P6SM SCT040 BKN200 FM090400
                       18010KT P6SM BKN040 FM090900 18012KT P6SM
                       OVC035 FM091600 18010KT P6SM -RA OVC025
                       FM092000 22012KT P6SM VCSH BKN030 OVC050=
200904082005 KBLI 082005Z 0820/0918 18012KT P6SM BKN035 BKN050 FM082200 21010KT
                       P6SM SCT035 BKN050 FM090300 18010KT P6SM
                       BKN030 FM091000 18008KT P6SM -RA OVC025=
200904081739 TAF KBLI 081739Z 0818/0918 17015G22KT P6SM BKN030 BKN050 FM082200
                       22012KT P6SM SCT035 BKN050 FM090300 18010KT
                       P6SM BKN030 FM091000 18008KT P6SM -RA OVC025=
200904081403 KBLI 081403Z 0814/0912 17012G22KT P6SM SCT025 SCT100 BKN200
                      TEMPO 0814/0817 BKN025 FM081700 18015KT P6SM
                       BKN025 OVC050 FM090000 18007KT P6SM OVC050=
200904081221 KBLI 081221Z 0812/0912 17012KT P6SM SCT100 BKN200 FM081500 18010KT
                       P6SM BKN025 OVC050 FM090000 18007KT P6SM
                       OVC050=
200904081120 TAF KBLI 081120Z 0812/0912 17007KT P6SM SCT100 BKN200 FM081500
                       18010KT P6SM BKN025 OVC050 FM090000 18007KT
                       P6SM OVC050=
200904080536 TAF KBLI 080536Z 0806/0906 00000KT P6SM OVC200 FM081400 18006KT
                       P6SM OVC100 FM081600 18010KT P6SM BKN025
                       OVC050 FM090000 18007KT P6SM OVC100=
200904072322 TAF KBLI 072322Z 0800/0824 30008KT P6SM BKN250 FM080400 23006KT
                       P6SM BKN250 FM081000 18005KT P6SM SCT120
                       OVC200 FM081600 17010KT P6SM SCT025 BKN045=
200904071916 TAF KBLI 071916Z 0719/0818 VRB06KT P6SM SCT250 FM081300 18006KT
                       P6SM BKN120 OVC200=
200904071317 KBLI 071317Z 0713/0812 00000KT P6SM SCT250
                      TEMPO 0713/0716 2SM BR FM072200 24005KT P6SM
                       SCT250=
200904071128 TAF KBLI 071128Z 0712/0812 00000KT P6SM SCT250 FM072200 24005KT
                       P6SM SCT250=
200904070520 TAF KBLI 070520Z 0706/0806 VRB03KT P6SM SKC FM072200 24005KT P6SM
                       SCT250=
200904061720 TAF KBLI 061720Z 0618/0718 VRB04KT P6SM SCT250 FM061900 25006KT
                       P6SM SCT200 FM070300 VRB04KT P6SM SCT250=
200904061120 TAF KBLI 061120Z 0612/0712 00000KT P6SM SCT200 FM061900 25006KT
                       P6SM SCT200=
200904060525 TAF KBLI 060525Z 0606/0706 00000KT P6SM SCT200 FM061900 25006KT
                       P6SM SCT200=
200904052320 TAF KBLI 052320Z 0600/0624 VRB03KT P6SM SCT200 FM061900 25006KT
                       P6SM SCT200=
200904051723 TAF KBLI 051723Z 0518/0618 VRB03KT P6SM SCT200=
200904051120 TAF KBLI 051120Z 0512/0612 00000KT P6SM SCT200 FM052000 34005KT
                       P6SM BKN200=
200904050539 TAF KBLI 050539Z 0506/0606 00000KT P6SM SCT200 FM052000 34005KT
                       P6SM BKN200=
200904042320 TAF KBLI 042320Z 0500/0524 VRB04KT P6SM SCT250 FM052000 34005KT
                       P6SM SCT250=
200904041720 TAF KBLI 041720Z 0418/0518 00000KT P6SM SKC FM042100 02005KT P6SM
                       SCT250 FM050200 VRB03KT P6SM SCT250=
200904041120 TAF KBLI 041120Z 0412/0512 00000KT P6SM SKC FM042200 07007KT P6SM
                       SCT250=
200904040531 TAF KBLI 040531Z 0406/0506 00000KT P6SM SKC FM041800 07007KT P6SM
                       SCT250=
200904032320 TAF KBLI 032320Z 0400/0424 VRB04KT P6SM FEW060 FM040300 VRB03KT
                       P6SM SCT250 FM041800 07007KT P6SM SCT250=
200904031730 TAF KBLI 031730Z 0318/0418 27006KT P6SM SCT025 BKN060
                      TEMPO 0318/0320 BKN025 FM040000 23007KT P6SM
                       FEW060 FM040200 VRB03KT P6SM SCT250=
200904031121 TAF KBLI 031121Z 0312/0412 27006KT P6SM BKN040 FM031800 27006KT
                       P6SM SCT060
                      TEMPO 0318/0320 BKN060 FM040000 23007KT P6SM
                       FEW060 FM040200 VRB03KT P6SM SCT250=
200904030536 TAF KBLI 030536Z 0306/0406 VRB04KT P6SM SCT060 FM032100 25008KT
                       P6SM FEW060 FM040200 VRB03KT P6SM SCT250=
200904030215 KBLI 030215Z 0302/0324 28008KT P6SM SCT035
                      TEMPO 0302/0304 BKN035 FM031000 30006KT P6SM
                       SCT035=
200904022320 TAF KBLI 022320Z 0300/0324 22006KT P6SM SCT020 OVC030 FM030200
                       30012G22KT P6SM SCT020 OVC030 FM030600 30008KT
                       P6SM SCT035 FM031000 30006KT P6SM SCT035=
200904021731 TAF KBLI 021731Z 0218/0318 20006KT P6SM -SHRA SCT008 BKN015 OVC025
                       TEMPO 0218/0221 6SM -RA OVC008 FM022100
                       28011KT P6SM VCSH BKN025 BKN040 FM030000
                       30012G22KT P6SM BKN040 FM030600 30007KT
                       P6SM SCT040 FM031000 VRB04KT P6SM SCT040=
200904021204 TAF KBLI 021204Z 0212/0312 28008KT P6SM SCT009 BKN015 OVC050
                      TEMPO 0212/0216 -SHRA FM021600 28012KT P6SM
                       SCT020 BKN060
                      TEMPO 0216/0218 28010G20KT -SHRA BKN020 OVC060
                       FM021800 28012G22KT P6SM VCSH SCT035 BKN060
                       FM022000 28012G22KT P6SM VCSH SCT060 FM030300
                       25008KT P6SM SCT050=
200904020546 TAF KBLI 020546Z 0206/0306 04005KT 4SM -RA BR FEW003 OVC015 FM020900
                       32006KT 6SM -RA SCT006 OVC015
                      TEMPO 0209/0212 3SM RA BR BKN006 OVC015 FM021200
                       28009KT P6SM -SHRA SCT015 OVC030
                      TEMPO 0216/0218 28010G20KT FM021800 28012G22KT
                       P6SM VCSH SCT030 BKN050
                      PROB30 0218/0221 -SHRA FM022100 28012G22KT
                       P6SM VCSH SCT050
                      PROB30 0221/0301 -SHRA BKN050 FM030300 25010KT
                       P6SM SCT050=
200904020307 KBLI 020307Z 0203/0224 10006KT 6SM -RA FEW013 OVC022 FM021100 21008KT
                       P6SM -SHRA SCT015 BKN022 OVC035 FM021900
                       21012G20KT P6SM VCSH BKN030 BKN045=
200904020243 KBLI 020243Z 0203/0224 14012KT 6SM -RA FEW013 OVC022 FM021100 21008KT
                       P6SM -SHRA SCT015 BKN022 OVC035 FM021900
                       21012G20KT P6SM VCSH BKN030 BKN045=
200904012324 TAF KBLI 012324Z 0200/0224 16012G22KT P6SM -RA BKN020 OVC030 FM020300
                       16012KT P6SM -RA BKN020 OVC030 FM021100
                       21008KT P6SM -SHRA SCT015 BKN022 OVC035
                       FM021900 21012G20KT P6SM VCSH BKN030 BKN045=
200904011820 TAF KBLI 011820Z 0118/0218 16012G22KT P6SM -RA BKN018 OVC030 FM020300
                       16012KT P6SM -RA BKN011 OVC020 FM021100
                       21008KT P6SM -SHRA SCT015 BKN022 OVC035=
200904011712 KBLI 011712Z 0117/0212 16012G20KT 5SM -RA BKN014 OVC025
                      TEMPO 0117/0119 3SM -RA SCT014 OVC025 FM012200
                       16012G22KT P6SM -RA BKN020 OVC030 FM020300
                       16012KT P6SM -RA BKN011 OVC020 FM021100
                       21008KT P6SM -SHRA SCT015 BKN022 OVC035=
200904011438 KBLI 011438Z 0115/0212 16012G22KT P6SM -RA SCT020 OVC035
                      TEMPO 0115/0119 5SM -RA BKN020 OVC035 FM012200
                       16012G22KT P6SM -RA BKN025 OVC040 FM020300
                       16012KT P6SM -RA BKN011 OVC020 FM021100
                       21008KT P6SM -SHRA SCT015 BKN022 OVC035=
200904011137 TAF KBLI 011137Z 0112/0212 16012KT P6SM SCT030 OVC050
                      TEMPO 0112/0114 BKN030 OVC050 FM011600 16012KT
                       P6SM -RA BKN035 OVC050 FM012200 16012KT
                       P6SM -RA BKN025 OVC040 FM020300 16012KT
                       P6SM -RA BKN011 OVC020 FM021100 21008KT
                       P6SM -SHRA SCT015 BKN022 OVC035=
200904010538 TAF KBLI 010538Z 0106/0206 15008KT P6SM BKN070 BKN200 FM011200
                       15008KT P6SM BKN050 OVC090 FM011700 15012KT
                       P6SM -RA BKN035 OVC050 FM012200 15012KT
                       P6SM -RA BKN025 OVC040 FM020300 17010KT
                       P6SM -RA BKN011 OVC020=