##########################################################
# Query made at 02/21/2025 23:37:23 UTC
# Time interval: from 05/01/2009 00:00  to 05/31/2009 23:59  UTC
##########################################################

##########################################################
# KBLI, Bellingham, Bellingham International Airport (United States)
# WMO index: -----. WIGOS ID: Unknown
# Latitude 48-47-58N. Longitude 122-32-21W. Altitude 48 m.
##########################################################

###################################
#  METAR/SPECI from KBLI
###################################
200905312353 METAR KBLI 312353Z 25006KT 10SM CLR 22/09 A2991 RMK AO2 SLP134 T02220094 10228 20189 56013=
200905312253 METAR KBLI 312253Z 28004KT 10SM CLR 23/11 A2991 RMK AO2 SLP135 T02280106=
200905312153 METAR KBLI 312153Z 26003KT 10SM CLR 22/11 A2993 RMK AO2 SLP141 T02170106=
200905312053 METAR KBLI 312053Z 26004KT 10SM CLR 21/10 A2995 RMK AO2 SLP147 T02060100 58005=
200905311953 METAR KBLI 311953Z VRB03KT 10SM CLR 21/10 A2995 RMK AO2 SLP149 T02060100=
200905311853 METAR KBLI 311853Z VRB03KT 10SM CLR 20/12 A2997 RMK AO2 SLP153 T02000117=
200905311753 METAR KBLI 311753Z 18004KT 10SM CLR 19/12 A2996 RMK AO2 SLP152 T01940117 10194 20100 58000=
200905311653 METAR KBLI 311653Z 00000KT 10SM CLR 18/12 A2997 RMK AO2 SLP155 T01830117=
200905311553 METAR KBLI 311553Z 16003KT 10SM CLR 16/11 A2997 RMK AO2 SLP156 T01610111=
200905311453 METAR KBLI 311453Z 17003KT 10SM CLR 15/11 A2996 RMK AO2 SLP152 T01500106 53006=
200905311353 METAR KBLI 311353Z 00000KT 10SM CLR 14/10 A2995 RMK AO2 SLP149 T01390100=
200905311253 METAR KBLI 311253Z AUTO 00000KT 10SM CLR 11/09 A2995 RMK AO2 SLP148 T01110094=
200905311153 METAR KBLI 311153Z AUTO 00000KT 10SM CLR 11/09 A2995 RMK AO2 SLP146 T01110089 10139 20111 56003=
200905311053 METAR KBLI 311053Z AUTO 00000KT 10SM CLR 13/08 A2995 RMK AO2 SLP147 T01280083=
200905310953 METAR KBLI 310953Z AUTO 23003KT 10SM CLR 13/09 A2994 RMK AO2 SLP146 T01280089=
200905310853 METAR KBLI 310853Z AUTO 00000KT 10SM CLR 12/08 A2995 RMK AO2 SLP149 T01220083 51003=
200905310753 METAR KBLI 310753Z AUTO 00000KT 10SM CLR 13/09 A2995 RMK AO2 SLP149 T01280089 402170106=
200905310653 METAR KBLI 310653Z AUTO 00000KT 10SM CLR 13/09 A2995 RMK AO2 SLP147 T01330089=
200905310553 METAR KBLI 310553Z AUTO 00000KT 10SM CLR 13/09 A2994 RMK AO2 SLP145 T01330089 10217 20128 53007=
200905310453 METAR KBLI 310453Z 00000KT 10SM CLR 14/09 A2993 RMK AO2 SLP142 T01440094=
200905310353 METAR KBLI 310353Z 00000KT 10SM CLR 16/11 A2992 RMK AO2 SLP136 T01560106=
200905310253 METAR KBLI 310253Z 00000KT 10SM CLR 17/11 A2992 RMK AO2 SLP138 T01670106 58015=
200905310153 METAR KBLI 310153Z 25003KT 10SM CLR 19/08 A2994 RMK AO2 SLP143 T01940083=
200905310053 METAR KBLI 310053Z VRB04KT 10SM CLR 21/10 A2996 RMK AO2 SLP149 T02060100=
200905302353 METAR KBLI 302353Z 26006KT 10SM CLR 21/10 A2997 RMK AO2 SLP153 T02060100 10211 20167 56015=
200905302253 METAR KBLI 302253Z 28008KT 10SM CLR 21/11 A2998 RMK AO2 SLP157 T02060106=
200905302153 METAR KBLI 302153Z 26003KT 10SM CLR 21/12 A2999 RMK AO2 SLP163 T02110122=
200905302053 METAR KBLI 302053Z VRB04KT 10SM CLR 19/11 A3001 RMK AO2 SLP168 T01940111 58007=
200905301953 METAR KBLI 301953Z 28004KT 10SM CLR 19/11 A3002 RMK AO2 SLP172 T01890111=
200905301853 METAR KBLI 301853Z VRB05KT 10SM CLR 18/11 A3003 RMK AO2 SLP175 T01780111=
200905301753 METAR KBLI 301753Z VRB05KT 10SM CLR 17/10 A3003 RMK AO2 SLP175 T01670100 10172 20106 58009=
200905301653 METAR KBLI 301653Z 28003KT 10SM CLR 17/11 A3004 RMK AO2 SLP177 T01670106=
200905301553 METAR KBLI 301553Z 22004KT 10SM FEW016 15/10 A3005 RMK AO2 SLP182 T01500100=
200905301453 METAR KBLI 301453Z VRB04KT 10SM CLR 14/09 A3006 RMK AO2 SLP184 T01440094 53004=
200905301353 METAR KBLI 301353Z 00000KT 10SM CLR 13/09 A3005 RMK AO2 SLP182 T01330094=
200905301253 METAR KBLI 301253Z AUTO 18003KT 10SM CLR 11/09 A3004 RMK AO2 SLP179 T01110089=
200905301153 METAR KBLI 301153Z AUTO 18003KT 10SM CLR 11/09 A3004 RMK AO2 SLP179 T01110089 10144 20111 53004=
200905301053 METAR KBLI 301053Z AUTO 19004KT 10SM CLR 12/08 A3003 RMK AO2 SLP174 T01220083=
200905300953 METAR KBLI 300953Z AUTO 18005KT 10SM CLR 12/08 A3003 RMK AO2 SLP176 T01220083=
200905300853 METAR KBLI 300853Z AUTO 19004KT 10SM CLR 12/08 A3003 RMK AO2 SLP175 T01220078 51016=
200905300753 METAR KBLI 300753Z AUTO 18009KT 10SM CLR 13/07 A3003 RMK AO2 SLP174 T01280072 402330083=
200905300653 METAR KBLI 300653Z AUTO 18008KT 10SM CLR 14/07 A3000 RMK AO2 SLP164 T01390072=
200905300553 METAR KBLI 300553Z AUTO 18009KT 10SM CLR 14/07 A2998 RMK AO2 SLP159 T01440067 10233 20144 53013=
200905300453 METAR KBLI 300453Z 18011G17KT 10SM CLR 15/07 A2997 RMK AO2 SLP155 T01500072=
200905300353 METAR KBLI 300353Z 18009KT 10SM CLR 17/09 A2995 RMK AO2 SLP148 T01670089=
200905300253 METAR KBLI 300253Z 18009KT 10SM CLR 17/09 A2995 RMK AO2 SLP146 T01720089 55007=
200905300153 METAR KBLI 300153Z 17007KT 10SM CLR 20/10 A2994 RMK AO2 SLP145 T02000100=
200905300053 METAR KBLI 300053Z 17010KT 10SM CLR 23/09 A2995 RMK AO2 SLP148 T02280094=
200905292353 METAR KBLI 292353Z 17011KT 10SM CLR 23/09 A2997 RMK AO2 SLP153 T02280089 10233 20194 58010=
200905292253 METAR KBLI 292253Z 17008KT 10SM CLR 23/10 A2999 RMK AO2 SLP160 T02280100=
200905292153 METAR KBLI 292153Z 18009KT 10SM CLR 23/10 A2999 RMK AO2 SLP160 T02280100=
200905292053 METAR KBLI 292053Z 16008KT 10SM CLR 22/09 A3000 RMK AO2 SLP164 T02170094 51004=
200905291953 METAR KBLI 291953Z 22006KT 10SM CLR 22/10 A2999 RMK AO2 SLP162 T02170100=
200905291853 METAR KBLI 291853Z 17006KT 10SM CLR 21/12 A2999 RMK AO2 SLP163 T02060117=
200905291753 METAR KBLI 291753Z 19005KT 10SM CLR 20/12 A2999 RMK AO2 SLP160 T02000117 10206 20083 51006=
200905291653 METAR KBLI 291653Z 00000KT 10SM CLR 19/11 A2998 RMK AO2 SLP159 T01940111=
200905291553 METAR KBLI 291553Z 00000KT 10SM CLR 18/11 A2997 RMK AO2 SLP155 T01780106=
200905291453 METAR KBLI 291453Z 00000KT 10SM CLR 16/10 A2997 RMK AO2 SLP154 T01610100 50004=
200905291353 METAR KBLI 291353Z 00000KT 8SM CLR 13/11 A2997 RMK AO2 SLP154 T01280106=
200905291253 METAR KBLI 291253Z AUTO 00000KT 7SM CLR 09/08 A2996 RMK AO2 SLP150 T00940078=
200905291153 METAR KBLI 291153Z AUTO 00000KT 7SM CLR 09/07 A2995 RMK AO2 SLP149 T00890072 10128 20089 53006=
200905291053 METAR KBLI 291053Z AUTO 00000KT 9SM CLR 10/08 A2994 RMK AO2 SLP145 T01000083=
200905290953 METAR KBLI 290953Z AUTO 00000KT 10SM CLR 11/08 A2994 RMK AO2 SLP145 T01060083=
200905290853 METAR KBLI 290853Z AUTO 00000KT 10SM CLR 11/09 A2994 RMK AO2 SLP143 T01110089 56004=
200905290753 METAR KBLI 290753Z AUTO 00000KT 10SM CLR 12/08 A2994 RMK AO2 SLP144 T01170083 402330050=
200905290653 METAR KBLI 290653Z AUTO 05003KT 10SM CLR 11/08 A2994 RMK AO2 SLP145 T01060078=
200905290553 METAR KBLI 290553Z AUTO 00000KT 10SM CLR 13/09 A2995 RMK AO2 SLP147 T01280089 10233 20128 56006=
200905290453 METAR KBLI 290453Z 00000KT 10SM CLR 14/08 A2996 RMK AO2 SLP149 T01390083=
200905290353 METAR KBLI 290353Z 00000KT 10SM CLR 16/08 A2995 RMK AO2 SLP149 T01610083=
200905290253 METAR KBLI 290253Z 27003KT 10SM CLR 20/09 A2997 RMK AO2 SLP153 T02000094 56017=
200905290153 METAR KBLI 290153Z 28004KT 10SM CLR 23/11 A2998 RMK AO2 SLP158 T02280106=
200905290053 METAR KBLI 290053Z 28006KT 10SM CLR 23/10 A3000 RMK AO2 SLP163 T02280100=
200905282353 METAR KBLI 282353Z 27004KT 10SM CLR 23/11 A3002 RMK AO2 SLP171 T02330106 10233 20178 58019=
200905282253 METAR KBLI 282253Z 26006KT 10SM CLR 22/10 A3004 RMK AO2 SLP178 T02220100=
200905282153 METAR KBLI 282153Z 29005KT 10SM CLR 22/10 A3006 RMK AO2 SLP186 T02170100=
200905282053 METAR KBLI 282053Z 32004KT 10SM CLR 22/10 A3007 RMK AO2 SLP190 T02170100 58010=
200905281953 METAR KBLI 281953Z VRB03KT 10SM CLR 21/09 A3009 RMK AO2 SLP196 T02060089=
200905281853 METAR KBLI 281853Z 00000KT 10SM CLR 19/07 A3010 RMK AO2 SLP200 T01890072=
200905281753 METAR KBLI 281753Z VRB03KT 10SM CLR 18/08 A3010 RMK AO2 SLP200 T01780083 10178 20050 58006=
200905281653 METAR KBLI 281653Z 00000KT 10SM CLR 16/07 A3011 RMK AO2 SLP204 T01560072=
200905281553 METAR KBLI 281553Z 01003KT 10SM CLR 13/08 A3012 RMK AO2 SLP206 T01330078=
200905281453 METAR KBLI 281453Z 01005KT 10SM CLR 11/07 A3012 RMK AO2 SLP207 T01110072 51004=
200905281353 METAR KBLI 281353Z AUTO 00000KT 10SM CLR 09/07 A3012 RMK AO2 SLP206 T00890067=
200905281253 METAR KBLI 281253Z AUTO 00000KT 10SM CLR 06/04 A3012 RMK AO2 SLP206 T00610044=
200905281153 METAR KBLI 281153Z AUTO 00000KT 10SM CLR 07/05 A3011 RMK AO2 SLP203 T00670050 10106 20056 51001=
200905281053 METAR KBLI 281053Z AUTO 00000KT 10SM CLR 07/04 A3011 RMK AO2 SLP202 T00670044=
200905280953 METAR KBLI 280953Z AUTO 00000KT 10SM CLR 08/06 A3011 RMK AO2 SLP204 T00830061=
200905280853 METAR KBLI 280853Z AUTO 00000KT 10SM CLR 08/06 A3011 RMK AO2 SLP202 T00780056 50002=
200905280753 METAR KBLI 280753Z AUTO 00000KT 10SM CLR 08/05 A3011 RMK AO2 SLP203 T00830050 401720078=
200905280653 METAR KBLI 280653Z AUTO 00000KT 10SM CLR 08/04 A3011 RMK AO2 SLP202 T00780044=
200905280553 METAR KBLI 280553Z AUTO 00000KT 10SM CLR 11/06 A3010 RMK AO2 SLP199 T01060056 10172 20094 55000=
200905280453 METAR KBLI 280453Z 00000KT 10SM CLR 11/05 A3010 RMK AO2 SLP199 T01060050=
200905280400 METAR KBLI NIL=
200905280353 METAR KBLI 280353Z 00000KT 10SM CLR 12/07 A3010 RMK AO2 SLP199 T01220067=
200905280253 METAR KBLI 280253Z 00000KT 10SM CLR 14/07 A3010 RMK AO2 SLP199 T01440067 56011=
200905280153 METAR KBLI 280153Z 00000KT 10SM CLR 16/04 A3011 RMK AO2 SLP201 T01610039=
200905280053 METAR KBLI 280053Z VRB04KT 10SM CLR 17/07 A3012 RMK AO2 SLP205 T01670072=
200905272353 METAR KBLI 272353Z 20004KT 10SM CLR 16/07 A3013 RMK AO2 SLP210 T01610067 10172 20133 57011=
200905272253 METAR KBLI 272253Z VRB05KT 10SM CLR 17/07 A3014 RMK AO2 SLP213 T01670067=
200905272153 METAR KBLI 272153Z 14008KT 10SM CLR 16/07 A3016 RMK AO2 SLP219 T01560072=
200905272053 METAR KBLI 272053Z 16007KT 10SM CLR 15/06 A3016 RMK AO2 SLP222 T01500061 58008=
200905271953 METAR KBLI 271953Z 19008KT 10SM CLR 14/06 A3018 RMK AO2 SLP226 T01390061=
200905271853 METAR KBLI 271853Z 16009KT 10SM CLR 13/06 A3019 RMK AO2 SLP231 T01330061=
200905271753 METAR KBLI 271753Z 19006KT 10SM CLR 13/06 A3019 RMK AO2 SLP230 T01330061 10133 20089 51009=
200905271653 METAR KBLI 271653Z 16009KT 10SM CLR 12/06 A3019 RMK AO2 SLP229 T01220056=
200905271553 METAR KBLI 271553Z 15011KT 10SM CLR 12/06 A3018 RMK AO2 SLP226 T01170056=
200905271453 METAR KBLI 271453Z 17007KT 10SM FEW031 BKN055 11/05 A3016 RMK AO2 SLP221 T01060050 53009=
200905271353 METAR KBLI 271353Z 17006KT 10SM BKN055 10/05 A3016 RMK AO2 SLP218 T01000050=
200905271253 METAR KBLI 271253Z AUTO 16006KT 10SM OVC055 09/05 A3014 RMK AO2 SLP214 T00940050=
200905271153 METAR KBLI 271153Z AUTO 17005KT 10SM CLR 09/05 A3014 RMK AO2 SLP212 70012 T00940050 10122 20094 53008=
200905271053 METAR KBLI 271053Z AUTO 16006KT 10SM CLR 10/05 A3012 RMK AO2 SLP208 T01000050=
200905270953 METAR KBLI 270953Z AUTO 16009KT 10SM CLR 11/04 A3012 RMK AO2 SLP206 T01110044=
200905270853 METAR KBLI 270853Z AUTO 17010KT 10SM FEW055 12/05 A3011 RMK AO2 SLP203 T01170050 51006=
200905270753 METAR KBLI 270753Z AUTO 16005KT 10SM FEW040 12/06 A3011 RMK AO2 SLP201 T01170061 401830117=
200905270653 METAR KBLI 270653Z AUTO 16006KT 10SM BKN042 12/07 A3010 RMK AO2 SLP201 T01170067=
200905270553 METAR KBLI 270553Z AUTO 17006KT 10SM CLR 12/07 A3010 RMK AO2 SLP198 T01220067 10172 20122 53005=
200905270453 METAR KBLI 270453Z 17007KT 10SM FEW040 13/07 A3009 RMK AO2 SLP196 T01280067=
200905270353 METAR KBLI 270353Z 17009KT 10SM SCT060 13/07 A3008 RMK AO2 SLP193 T01330072=
200905270253 METAR KBLI 270253Z 17007KT 10SM SCT031 OVC065 14/08 A3008 RMK AO2 SLP193 T01440083 55001=
200905270153 METAR KBLI 270153Z 17006KT 10SM FEW031 SCT042 OVC065 15/09 A3008 RMK AO2 SLP192 T01500089=
200905270053 METAR KBLI 270053Z 18007KT 10SM FEW040 SCT050 BKN065 16/09 A3008 RMK AO2 SLP192 T01560094=
200905262353 METAR KBLI 262353Z 18007KT 160V220 10SM BKN060 17/09 A3008 RMK AO2 SLP193 T01670094 10183 20133 55001=
200905262253 METAR KBLI 262253Z 17006KT 10SM BKN060 17/11 A3008 RMK AO2 SLP193 T01720106=
200905262153 METAR KBLI 262153Z 18006KT 10SM BKN060 17/11 A3009 RMK AO2 SLP195 T01720111=
200905262053 METAR KBLI 262053Z 17008KT 10SM BKN070 BKN090 17/11 A3009 RMK AO2 SLP195 T01670106 50004=
200905261953 METAR KBLI 261953Z 18006KT 10SM FEW028 OVC041 15/10 A3009 RMK AO2 SLP197 T01500100=
200905261853 METAR KBLI 261853Z 18009G14KT 10SM FEW021 BKN065 15/12 A3008 RMK AO2 SLP193 T01500117=
200905261753 METAR KBLI 261753Z 19006KT 10SM SCT024 OVC060 14/11 A3008 RMK AO2 RAE50 SLP191 P0000 60012 T01390111 10139 20122 53012=
200905261653 METAR KBLI 261653Z 17009G15KT 8SM -RA SCT024 OVC065 13/11 A3006 RMK AO2 SLP186 P0004 T01330111=
200905261553 METAR KBLI 261553Z 18008KT 7SM -RA FEW019 BKN065 12/11 A3005 RMK AO2 RAE1455B34 SLP183 P0001 T01220106=
200905261453 METAR KBLI 261453Z 18009G17KT 10SM -RA FEW008 SCT012 OVC070 12/10 A3004 RMK AO2 RAE14B46 SLP179 P0000 60007 T01220100 57001=
200905261448 SPECI KBLI 261448Z 18009KT 10SM -RA SCT023 BKN070 OVC080 12/10 A3004 RMK AO2 RAE14B46 P0000=
200905261448 SPECI KBLI 261448Z 18009KT 10SM -RA SCT023 BKN070 OVC080 12/10 A3004 RMK AO2 RAE14B46 P0000=
200905261353 METAR KBLI 261353Z 17006KT 10SM -RA FEW005 BKN027 BKN070 12/11 A3004 RMK AO2 SLP179 P0002 T01220106=
200905261337 SPECI KBLI 261337Z AUTO 17004KT 10SM -RA SCT005 BKN027 OVC070 12/11 A3004 RMK AO2 P0002=
200905261337 SPECI KBLI 261337Z AUTO 17004KT 10SM -RA SCT005 BKN027 OVC070 12/11 A3004 RMK AO2 P0002=
200905261324 SPECI KBLI 261324Z AUTO 18007KT 7SM -RA BKN005 BKN019 OVC070 12/11 A3004 RMK AO2 P0002=
200905261324 SPECI KBLI 261324Z AUTO 18007KT 7SM -RA BKN005 BKN019 OVC070 12/11 A3004 RMK AO2 P0002=
200905261302 SPECI KBLI 261302Z AUTO 16007KT 6SM -RA BR SCT005 BKN010 OVC015 12/11 A3004 RMK AO2 P0000=
200905261302 SPECI KBLI 261302Z AUTO 16007KT 6SM -RA BR SCT005 BKN010 OVC015 12/11 A3004 RMK AO2 P0000=
200905261253 METAR KBLI 261253Z AUTO 15008KT 7SM -RA FEW005 BKN008 OVC018 12/11 A3004 RMK AO2 SLP179 P0005 T01220106=
200905261246 SPECI KBLI 261246Z AUTO 16007KT 7SM -RA SCT008 BKN015 OVC027 12/11 A3004 RMK AO2 P0004=
200905261246 SPECI KBLI 261246Z AUTO 16007KT 7SM -RA SCT008 BKN015 OVC027 12/11 A3004 RMK AO2 P0004=
200905261153 METAR KBLI 261153Z AUTO 18006KT 7SM -RA OVC020 12/11 A3004 RMK AO2 SLP177 P0003 60003 70003 T01220106 10139 20122 53004=
200905261140 SPECI KBLI 261140Z AUTO 18007KT 7SM -RA BKN022 BKN027 OVC032 12/11 A3004 RMK AO2 P0002=
200905261140 SPECI KBLI 261140Z AUTO 18007KT 7SM -RA BKN022 BKN027 OVC032 12/11 A3004 RMK AO2 P0002=
200905261053 METAR KBLI 261053Z AUTO 18008KT 10SM -RA OVC070 12/10 A3003 RMK AO2 SLP175 P0000 T01220100=
200905260953 METAR KBLI 260953Z AUTO 18007KT 10SM -RA SCT060 OVC080 13/10 A3003 RMK AO2 RAB0858 SLP175 P0000 T01280100=
200905260853 METAR KBLI 260853Z AUTO 17006KT 10SM OVC050 13/09 A3003 RMK AO2 SLP173 T01280094 58001=
200905260753 METAR KBLI 260753Z AUTO 18006KT 10SM OVC085 13/09 A3003 RMK AO2 SLP176 T01280094 401720083=
200905260653 METAR KBLI 260653Z AUTO 18009KT 10SM OVC080 13/09 A3003 RMK AO2 SLP174 T01330089=
200905260553 METAR KBLI 260553Z AUTO 18007KT 10SM FEW075 14/09 A3003 RMK AO2 SLP174 T01390089 10172 20139 53002=
200905260453 METAR KBLI 260453Z 18007KT 10SM CLR 14/09 A3003 RMK AO2 SLP174 T01440089=
200905260353 METAR KBLI 260353Z 17008KT 10SM CLR 15/08 A3002 RMK AO2 SLP171 T01500083=
200905260253 METAR KBLI 260253Z 17009KT 10SM CLR 16/08 A3002 RMK AO2 SLP173 T01560083 56005=
200905260153 METAR KBLI 260153Z 17009KT 10SM CLR 17/08 A3002 RMK AO2 SLP173 T01720078=
200905260053 METAR KBLI 260053Z 17010KT 10SM CLR 17/08 A3003 RMK AO2 SLP177 T01720078=
200905252353 METAR KBLI 252353Z 17010G17KT 10SM CLR 17/07 A3004 RMK AO2 SLP179 T01720072 10172 20144 56016=
200905252253 METAR KBLI 252253Z 17011G16KT 10SM CLR 17/08 A3005 RMK AO2 SLP184 T01720078=
200905252153 METAR KBLI 252153Z 17006G15KT 10SM CLR 16/08 A3007 RMK AO2 SLP188 T01610078=
200905252053 METAR KBLI 252053Z 18011G19KT 10SM CLR 16/07 A3008 RMK AO2 SLP194 T01610067 58004=
200905251953 METAR KBLI 251953Z 16012G20KT 10SM CLR 16/07 A3009 RMK AO2 SLP198 T01610072=
200905251853 METAR KBLI 251853Z 18011G16KT 10SM CLR 15/07 A3010 RMK AO2 SLP199 T01500072=
200905251753 METAR KBLI 251753Z 17012KT 10SM CLR 14/07 A3010 RMK AO2 SLP199 T01440067 10150 20089 58002=
200905251653 METAR KBLI 251653Z 16012G19KT 10SM CLR 14/06 A3010 RMK AO2 SLP201 T01390061=
200905251553 METAR KBLI 251553Z 17010G19KT 10SM CLR 13/06 A3010 RMK AO2 SLP200 T01330056=
200905251453 METAR KBLI 251453Z 17012G16KT 10SM CLR 12/06 A3010 RMK AO2 SLP200 T01220056 50006=
200905251353 METAR KBLI 251353Z 15006KT 10SM CLR 11/04 A3011 RMK AO2 SLP202 T01110044=
200905251253 METAR KBLI 251253Z AUTO 14007KT 10SM CLR 10/04 A3009 RMK AO2 SLP196 T01000044=
200905251153 METAR KBLI 251153Z AUTO 17003KT 10SM CLR 09/04 A3008 RMK AO2 SLP194 T00890044 10128 20083 53006=
200905251053 METAR KBLI 251053Z AUTO 18004KT 10SM CLR 09/04 A3008 RMK AO2 SLP191 T00940044=
200905250953 METAR KBLI 250953Z AUTO 17006KT 10SM CLR 11/06 A3007 RMK AO2 SLP189 T01060056=
200905250853 METAR KBLI 250853Z AUTO 16005KT 10SM CLR 11/05 A3007 RMK AO2 SLP188 T01060050 50004=
200905250753 METAR KBLI 250753Z AUTO 17005KT 10SM CLR 12/07 A3007 RMK AO2 SLP189 T01170067 401940106=
200905250653 METAR KBLI 250653Z AUTO 17007KT 10SM CLR 12/07 A3006 RMK AO2 SLP185 T01220072=
200905250553 METAR KBLI 250553Z AUTO 18010KT 10SM CLR 13/07 A3005 RMK AO2 SLP184 T01280067 10189 20128 53006=
200905250453 METAR KBLI 250453Z 18007KT 10SM CLR 13/08 A3004 RMK AO2 SLP181 T01280083=
200905250353 METAR KBLI 250353Z 17005KT 10SM CLR 14/08 A3004 RMK AO2 SLP179 T01390078=
200905250253 METAR KBLI 250253Z 17007KT 10SM CLR 15/08 A3003 RMK AO2 SLP177 T01500078 55005=
200905250153 METAR KBLI 250153Z 17006KT 10SM CLR 17/09 A3003 RMK AO2 SLP177 T01670089=
200905250053 METAR KBLI 250053Z 19004KT 10SM CLR 18/08 A3003 RMK AO2 SLP176 T01830078=
200905242353 METAR KBLI 242353Z 16006KT 10SM CLR 19/08 A3005 RMK AO2 SLP182 T01890083 10194 20144 58013=
200905242253 METAR KBLI 242253Z 30006KT 10SM CLR 19/07 A3007 RMK AO2 SLP187 T01890067=
200905242153 METAR KBLI 242153Z 27007KT 230V290 10SM CLR 18/07 A3008 RMK AO2 SLP191 T01830072=
200905242053 METAR KBLI 242053Z VRB05KT 10SM CLR 17/07 A3009 RMK AO2 SLP194 T01720072 58004=
200905241953 METAR KBLI 241953Z VRB05KT 10SM CLR 17/07 A3010 RMK AO2 SLP198 T01670067=
200905241853 METAR KBLI 241853Z VRB04KT 10SM CLR 16/07 A3010 RMK AO2 SLP198 T01610067=
200905241753 METAR KBLI 241753Z 21007KT 180V240 10SM CLR 14/08 A3010 RMK AO2 SLP199 T01440078 10150 20106 53000=
200905241653 METAR KBLI 241653Z VRB05KT 10SM CLR 14/08 A3009 RMK AO2 SLP197 T01390078=
200905241553 METAR KBLI 241553Z 16008KT 10SM SCT016 13/08 A3010 RMK AO2 SLP200 T01280083=
200905241501 SPECI KBLI 241501Z 18006KT 10SM SCT016 12/08 A3010 RMK AO2=
200905241501 SPECI KBLI 241501Z 18006KT 10SM SCT016 12/08 A3010 RMK AO2=
200905241453 METAR KBLI 241453Z 17006KT 10SM BKN016 12/08 A3010 RMK AO2 SLP199 T01170078 51014=
200905241353 METAR KBLI 241353Z 18008KT 10SM OVC016 11/08 A3009 RMK AO2 SLP195 T01110078=
200905241253 METAR KBLI 241253Z AUTO 17005KT 10SM BKN016 12/07 A3007 RMK AO2 SLP190 T01170072=
200905241153 METAR KBLI 241153Z AUTO 17007KT 10SM CLR 11/07 A3006 RMK AO2 SLP184 T01110067 10122 20111 51003=
200905241053 METAR KBLI 241053Z AUTO 18007KT 10SM CLR 11/07 A3006 RMK AO2 SLP184 T01110067=
200905240953 METAR KBLI 240953Z AUTO 20005KT 10SM CLR 11/07 A3006 RMK AO2 SLP183 T01110067=
200905240853 METAR KBLI 240853Z AUTO 18006KT 10SM CLR 11/08 A3005 RMK AO2 SLP182 T01110078 53003=
200905240753 METAR KBLI 240753Z AUTO 18007KT 10SM CLR 12/08 A3005 RMK AO2 SLP180 T01170083 401890083=
200905240653 METAR KBLI 240653Z AUTO 18005KT 10SM CLR 12/09 A3004 RMK AO2 SLP178 T01220089=
200905240553 METAR KBLI 240553Z AUTO 17005KT 10SM CLR 11/08 A3004 RMK AO2 SLP179 T01110083 10189 20100 53007=
200905240453 METAR KBLI 240453Z 00000KT 10SM CLR 11/07 A3003 RMK AO2 SLP176 T01110072=
200905240353 METAR KBLI 240353Z 00000KT 10SM CLR 13/08 A3002 RMK AO2 SLP172 T01280078=
200905240253 METAR KBLI 240253Z 00000KT 10SM CLR 16/07 A3002 RMK AO2 SLP171 T01560067 56008=
200905240153 METAR KBLI 240153Z 00000KT 10SM CLR 17/06 A3002 RMK AO2 SLP172 T01720056=
200905240053 METAR KBLI 240053Z 28005KT 10SM CLR 18/06 A3003 RMK AO2 SLP175 T01780061=
200905232353 METAR KBLI 232353Z VRB03KT 10SM CLR 18/07 A3004 RMK AO2 SLP180 T01830072 10183 20139 56012=
200905232253 METAR KBLI 232253Z 27003KT 10SM CLR 18/08 A3005 RMK AO2 SLP182 T01830083=
200905232153 METAR KBLI 232153Z 29005KT 10SM CLR 18/09 A3006 RMK AO2 SLP186 T01780089=
200905232053 METAR KBLI 232053Z VRB04KT 10SM CLR 17/09 A3008 RMK AO2 SLP191 T01670094 56008=
200905231953 METAR KBLI 231953Z 29007KT 10SM FEW020 17/09 A3008 RMK AO2 SLP193 T01670094=
200905231913 SPECI KBLI 231913Z 00000KT 10SM FEW018 16/09 A3009 RMK AO2=
200905231913 SPECI KBLI 231913Z 00000KT 10SM FEW018 16/09 A3009 RMK AO2=
200905231853 METAR KBLI 231853Z 31006KT 10SM BKN018 16/10 A3009 RMK AO2 SLP197 T01610100=
200905231806 SPECI KBLI 231806Z VRB05KT 10SM OVC016 16/10 A3010 RMK AO2=
200905231806 SPECI KBLI 231806Z VRB05KT 10SM OVC016 16/10 A3010 RMK AO2=
200905231753 METAR KBLI 231753Z VRB04KT 10SM OVC014 14/09 A3010 RMK AO2 SLP199 T01390089 10144 20083 58001=
200905231653 METAR KBLI 231653Z 00000KT 10SM OVC012 13/09 A3011 RMK AO2 SLP201 T01280094=
200905231553 METAR KBLI 231553Z 00000KT 10SM OVC012 12/08 A3011 RMK AO2 SLP202 CIG 009V014 T01220083=
200905231518 SPECI KBLI 231518Z 00000KT 10SM OVC014 12/08 A3011 RMK AO2=
200905231518 SPECI KBLI 231518Z 00000KT 10SM OVC014 12/08 A3011 RMK AO2=
200905231453 METAR KBLI 231453Z 00000KT 10SM OVC018 12/08 A3010 RMK AO2 SLP200 T01170083 53006=
200905231429 SPECI KBLI 231429Z 27003KT 10SM BKN018 12/08 A3010 RMK AO2=
200905231429 SPECI KBLI 231429Z 27003KT 10SM BKN018 12/08 A3010 RMK AO2=
200905231353 METAR KBLI 231353Z VRB03KT 10SM CLR 11/09 A3009 RMK AO2 SLP197 T01110089=
200905231253 METAR KBLI 231253Z AUTO 00000KT 8SM CLR 09/07 A3009 RMK AO2 SLP195 T00890072=
200905231153 METAR KBLI 231153Z AUTO 00000KT 10SM CLR 09/07 A3008 RMK AO2 SLP194 T00890072 10128 20089 54000=
200905231053 METAR KBLI 231053Z AUTO 18003KT 10SM CLR 09/07 A3009 RMK AO2 SLP195 T00890072=
200905230953 METAR KBLI 230953Z AUTO 17005KT 10SM CLR 11/07 A3008 RMK AO2 SLP193 T01060072=
200905230853 METAR KBLI 230853Z AUTO 18004KT 10SM CLR 11/07 A3008 RMK AO2 SLP193 T01060067 50005=
200905230753 METAR KBLI 230753Z AUTO 00000KT 10SM CLR 10/07 A3009 RMK AO2 SLP195 T01000067 402000061=
200905230653 METAR KBLI 230653Z AUTO 19004KT 10SM CLR 12/07 A3007 RMK AO2 SLP191 T01170067=
200905230553 METAR KBLI 230553Z AUTO 19004KT 10SM CLR 12/08 A3007 RMK AO2 SLP189 T01220078 10183 20117 53005=
200905230453 METAR KBLI 230453Z 18004KT 10SM CLR 12/08 A3006 RMK AO2 SLP187 T01220083=
200905230353 METAR KBLI 230353Z 00000KT 10SM CLR 13/09 A3005 RMK AO2 SLP184 T01280089=
200905230253 METAR KBLI 230253Z 18003KT 10SM CLR 16/08 A3005 RMK AO2 SLP184 T01560083 56009=
200905230153 METAR KBLI 230153Z 18004KT 10SM CLR 17/08 A3006 RMK AO2 SLP185 T01720078=
200905230053 METAR KBLI 230053Z 18004KT 10SM CLR 18/08 A3006 RMK AO2 SLP187 T01780078=
200905222353 METAR KBLI 222353Z 17006KT 10SM CLR 18/08 A3008 RMK AO2 SLP193 T01830083 10200 20150 58008=
200905222253 METAR KBLI 222253Z VRB04KT 10SM CLR 19/07 A3009 RMK AO2 SLP196 T01890067=
200905222153 METAR KBLI 222153Z 29007KT 10SM CLR 18/07 A3010 RMK AO2 SLP201 T01830067=
200905222053 METAR KBLI 222053Z 27004KT 10SM CLR 18/07 A3011 RMK AO2 SLP202 T01780072 57009=
200905221953 METAR KBLI 221953Z VRB05KT 10SM CLR 17/08 A3012 RMK AO2 SLP205 T01720078=
200905221853 METAR KBLI 221853Z VRB04KT 10SM CLR 16/09 A3012 RMK AO2 SLP207 T01560089=
200905221753 METAR KBLI 221753Z VRB03KT 10SM CLR 15/09 A3013 RMK AO2 SLP210 T01500089 10150 20061 56001=
200905221653 METAR KBLI 221653Z 17003KT 10SM CLR 14/09 A3013 RMK AO2 SLP211 T01440089=
200905221553 METAR KBLI 221553Z VRB03KT 10SM CLR 13/08 A3013 RMK AO2 SLP211 T01280078=
200905221453 METAR KBLI 221453Z 15004KT 10SM CLR 11/08 A3013 RMK AO2 SLP211 T01110078 51009=
200905221353 METAR KBLI 221353Z 15003KT 10SM CLR 10/08 A3013 RMK AO2 SLP209 T01000078=
200905221253 METAR KBLI 221253Z AUTO 00000KT 10SM CLR 07/05 A3012 RMK AO2 SLP206 T00670050=
200905221153 METAR KBLI 221153Z AUTO 00000KT 10SM CLR 07/06 A3011 RMK AO2 SLP202 T00720056 10094 20061 52004=
200905221053 METAR KBLI 221053Z AUTO 00000KT 10SM CLR 07/06 A3010 RMK AO2 SLP201 T00720056=
200905220953 METAR KBLI 220953Z AUTO 00000KT 10SM CLR 06/05 A3010 RMK AO2 SLP199 T00610050=
200905220853 METAR KBLI 220853Z AUTO 00000KT 10SM CLR 08/06 A3010 RMK AO2 SLP198 T00780061 57003=
200905220753 METAR KBLI 220753Z AUTO 00000KT 10SM CLR 08/06 A3010 RMK AO2 SLP199 T00780061 401780033=
200905220653 METAR KBLI 220653Z AUTO 00000KT 10SM CLR 08/07 A3010 RMK AO2 SLP200 T00830067=
200905220553 METAR KBLI 220553Z AUTO 00000KT 10SM CLR 09/07 A3010 RMK AO2 SLP201 T00940072 10178 20094 53004=
200905220453 METAR KBLI 220453Z 00000KT 10SM CLR 11/08 A3010 RMK AO2 SLP200 T01060078=
200905220353 METAR KBLI 220353Z 00000KT 10SM CLR 13/07 A3009 RMK AO2 SLP196 T01280072=
200905220253 METAR KBLI 220253Z 28004KT 10SM CLR 16/05 A3009 RMK AO2 SLP197 T01610050 56016=
200905220153 METAR KBLI 220153Z 29004KT 10SM CLR 17/06 A3010 RMK AO2 SLP200 T01720056=
200905220053 METAR KBLI 220053Z 27007KT 10SM CLR 17/05 A3012 RMK AO2 SLP207 T01720050=
200905212353 METAR KBLI 212353Z 28006KT 10SM CLR 17/06 A3014 RMK AO2 SLP213 T01720056 10178 20139 56013=
200905212253 METAR KBLI 212253Z 27010KT 10SM CLR 17/07 A3015 RMK AO2 SLP216 T01720067=
200905212153 METAR KBLI 212153Z 28007KT 230V310 10SM CLR 17/08 A3016 RMK AO2 SLP221 T01670083=
200905212053 METAR KBLI 212053Z 28008KT 10SM CLR 16/08 A3018 RMK AO2 SLP226 T01610083 58013=
200905211953 METAR KBLI 211953Z 29007KT 10SM SCT030 16/08 A3019 RMK AO2 SLP231 T01560083=
200905211853 METAR KBLI 211853Z VRB05KT 10SM CLR 16/07 A3020 RMK AO2 SLP235 T01610072=
200905211753 METAR KBLI 211753Z 02006KT 10SM SCT025 14/07 A3022 RMK AO2 SLP239 T01440072 10144 20039 58004=
200905211653 METAR KBLI 211653Z 00000KT 10SM CLR 13/06 A3022 RMK AO2 SLP242 T01280061=
200905211553 METAR KBLI 211553Z 03006KT 10SM CLR 11/06 A3023 RMK AO2 SLP243 T01110061=
200905211453 METAR KBLI 211453Z 36004KT 10SM CLR 09/06 A3023 RMK AO2 SLP243 T00890056 53008=
200905211353 METAR KBLI 211353Z 02003KT 10SM CLR 07/04 A3022 RMK AO2 SLP241 T00670044=
200905211253 METAR KBLI 211253Z AUTO 35003KT 6SM BR CLR 04/03 A3021 RMK AO2 SLP238 T00440033=
200905211153 METAR KBLI 211153Z AUTO 34003KT 6SM BR CLR 04/03 A3020 RMK AO2 SLP236 70001 T00440028 10083 20033 58007=
200905211053 METAR KBLI 211053Z AUTO 00000KT 7SM CLR 04/03 A3022 RMK AO2 SLP239 T00440028=
200905210953 METAR KBLI 210953Z AUTO 00000KT 10SM CLR 05/03 A3022 RMK AO2 SLP242 T00500033=
200905210853 METAR KBLI 210853Z AUTO 00000KT 10SM CLR 06/03 A3023 RMK AO2 SLP243 T00560033 58005=
200905210753 METAR KBLI 210753Z AUTO 00000KT 9SM CLR 06/04 A3023 RMK AO2 SLP245 T00560039 401500056=
200905210653 METAR KBLI 210653Z 00000KT 10SM CLR 08/04 A3024 RMK AO2 SLP247 T00780044=
200905210553 METAR KBLI 210553Z 00000KT 10SM CLR 08/05 A3024 RMK AO2 SLP248 T00780050 10144 20078 53002=
200905210453 METAR KBLI 210453Z 18003KT 10SM CLR 09/06 A3024 RMK AO2 SLP248 T00890056=
200905210353 METAR KBLI 210353Z 18003KT 10SM CLR 11/05 A3023 RMK AO2 SLP245 T01060050=
200905210253 METAR KBLI 210253Z 17005KT 10SM CLR 12/04 A3024 RMK AO2 SLP246 T01220039 56008=
200905210153 METAR KBLI 210153Z 18009KT 10SM CLR 13/04 A3024 RMK AO2 SLP248 T01330044=
200905210053 METAR KBLI 210053Z 17010G16KT 10SM CLR 14/04 A3025 RMK AO2 SLP251 T01390044=
200905202353 METAR KBLI 202353Z 17011G17KT 10SM CLR 14/03 A3026 RMK AO2 SLP254 T01440033 10150 20122 58001=
200905202253 METAR KBLI 202253Z 16012KT 10SM CLR 15/03 A3026 RMK AO2 SLP255 T01500033=
200905202153 METAR KBLI 202153Z 16012G17KT 10SM CLR 15/04 A3026 RMK AO2 SLP255 T01500044=
200905202053 METAR KBLI 202053Z 17011KT 10SM CLR 14/05 A3026 RMK AO2 SLP256 T01390050 50006=
200905201953 METAR KBLI 201953Z 17013KT 10SM CLR 14/06 A3027 RMK AO2 SLP256 T01390061=
200905201853 METAR KBLI 201853Z 17010KT 10SM SCT028 13/07 A3026 RMK AO2 SLP254 T01330067=
200905201753 METAR KBLI 201753Z 16010G17KT 10SM CLR 13/07 A3025 RMK AO2 SLP249 60001 T01280072 10128 20089 53013=
200905201653 METAR KBLI 201653Z 16009KT 10SM SCT025 12/07 A3023 RMK AO2 SLP244 T01170067=
200905201553 METAR KBLI 201553Z 16010G16KT 10SM FEW018 BKN080 10/06 A3022 RMK AO2 SLP239 T01000061=
200905201453 METAR KBLI 201453Z 18005KT 10SM SCT011 OVC080 09/07 A3021 RMK AO2 SLP236 60001 T00940067 51016=
200905201353 METAR KBLI 201353Z 16009KT 10SM FEW011 BKN048 OVC075 09/06 A3020 RMK AO2 SLP232 T00940061=
200905201253 METAR KBLI 201253Z AUTO 16008KT 10SM SCT044 BKN055 OVC075 09/06 A3018 RMK AO2 RAE22 SLP226 P0001 T00890061=
200905201153 METAR KBLI 201153Z AUTO 15007KT 10SM -RA BKN049 BKN060 OVC075 09/06 A3016 RMK AO2 RAB17 SLP220 P0000 60005 70009 T00890061 10100 20089 51014=
200905201053 METAR KBLI 201053Z AUTO 17006KT 10SM BKN049 OVC055 09/06 A3015 RMK AO2 RAE39 SLP218 P0003 T00890061=
200905200953 METAR KBLI 200953Z AUTO 16004KT 5SM RA SCT030 BKN038 OVC055 09/06 A3014 RMK AO2 RAB14 SLP214 P0002 T00890061=
200905200853 METAR KBLI 200853Z AUTO 18004KT 10SM FEW037 SCT050 OVC060 09/05 A3012 RMK AO2 SLP206 T00940050 51018=
200905200753 METAR KBLI 200753Z AUTO 18003KT 10SM FEW043 SCT060 OVC075 09/05 A3011 RMK AO2 SLP201 T00940050 401390078=
200905200653 METAR KBLI 200653Z AUTO 18005KT 10SM SCT039 BKN048 OVC070 10/06 A3008 RMK AO2 SLP194 T01000061=
200905200553 METAR KBLI 200553Z AUTO 00000KT 10SM FEW041 SCT070 09/08 A3007 RMK AO2 RAE0459B22E32 SLP188 P0000 60003 T00940078 10133 20094 53016=
200905200453 METAR KBLI 200453Z 08004KT 10SM -RA BKN060 OVC075 10/07 A3005 RMK AO2 RAB0355 SLP183 P0002 T01000072=
200905200353 METAR KBLI 200353Z 19003KT 10SM BKN040 OVC049 11/07 A3003 RMK AO2 RAE10 SLP174 P0001 T01060072=
200905200253 METAR KBLI 200253Z 19003KT 10SM -RA FEW026 SCT049 OVC055 12/07 A3002 RMK AO2 RAB43 SLP173 P0000 60000 T01170067 53014=
200905200153 METAR KBLI 200153Z 16008KT 10SM FEW060 BKN080 OVC095 12/06 A3000 RMK AO2 RAB26E37 SLP166 P0000 T01220056=
200905200053 METAR KBLI 200053Z 15012KT 10SM CLR 13/06 A2999 RMK AO2 SLP162 T01280061=
200905192353 METAR KBLI 192353Z 16011KT 10SM FEW045 SCT060 12/06 A2998 RMK AO2 SLP159 60001 T01220056 10139 20111 50004=
200905192253 METAR KBLI 192253Z 18010KT 10SM FEW028 SCT039 BKN048 12/08 A2998 RMK AO2 RAB26E42 SLP159 P0001 T01220078=
200905192153 METAR KBLI 192153Z 16010G18KT 10SM FEW047 BKN065 13/06 A2997 RMK AO2 SLP157 T01280056=
200905192100 METAR KBLI NIL=
200905192053 METAR KBLI 192053Z 17012KT 10SM FEW046 13/06 A2997 RMK AO2 SLP154 T01280056 53012=
200905191953 METAR KBLI 191953Z 17009KT 10SM FEW047 BKN060 BKN075 13/06 A2995 RMK AO2 SLP149 T01280056=
200905191853 METAR KBLI 191853Z 17014G20KT 10SM SCT037 13/06 A2994 RMK AO2 SLP146 T01280061=
200905191753 METAR KBLI 191753Z 17009KT 10SM BKN100 12/06 A2993 RMK AO2 SLP142 T01170056 10117 20078 51015=
200905191653 METAR KBLI 191653Z 16008KT 10SM FEW031 SCT095 11/04 A2992 RMK AO2 SLP139 T01110044=
200905191553 METAR KBLI 191553Z 15009KT 10SM BKN095 11/05 A2990 RMK AO2 SLP133 T01060050=
200905191453 METAR KBLI 191453Z 16007KT 10SM FEW024 SCT045 BKN100 09/06 A2989 RMK AO2 SLP127 T00940056 52014=
200905191353 METAR KBLI 191353Z 15007KT 10SM SCT045 SCT080 BKN100 09/06 A2987 RMK AO2 SLP123 T00890056=
200905191253 METAR KBLI 191253Z AUTO 16003KT 10SM FEW018 SCT024 BKN120 08/06 A2986 RMK AO2 SLP118 T00780061=
200905191153 METAR KBLI 191153Z AUTO 17006KT 10SM FEW021 BKN120 08/06 A2985 RMK AO2 SLP114 60014 70055 T00830056 10100 20083 51005=
200905191150 SPECI KBLI 191150Z AUTO 18004KT 10SM FEW021 SCT085 OVC120 08/06 A2985 RMK AO2=
200905191150 SPECI KBLI 191150Z AUTO 18004KT 10SM FEW021 SCT085 OVC120 08/06 A2985 RMK AO2=
200905191141 SPECI KBLI 191141Z AUTO 18003KT 10SM SCT021 BKN025 OVC120 08/06 A2985 RMK AO2=
200905191141 SPECI KBLI 191141Z AUTO 18003KT 10SM SCT021 BKN025 OVC120 08/06 A2985 RMK AO2=
200905191053 METAR KBLI 191053Z AUTO 19004KT 10SM FEW012 BKN090 OVC120 08/07 A2984 RMK AO2 RAE05 SLP111 P0000 T00830067=
200905190953 METAR KBLI 190953Z AUTO 17004KT 10SM -RA FEW012 SCT049 OVC060 09/06 A2983 RMK AO2 SLP109 P0003 T00890056=
200905190853 METAR KBLI 190853Z AUTO 19004KT 9SM -RA FEW010 OVC043 09/07 A2983 RMK AO2 SLP108 P0005 60011 T00940072 53002=
200905190753 METAR KBLI 190753Z AUTO 17006KT 10SM -RA FEW013 SCT018 OVC039 09/08 A2983 RMK AO2 SLP107 P0004 T00940078 401440094=
200905190653 METAR KBLI 190653Z AUTO 18008KT 10SM -RA BKN040 OVC048 09/08 A2982 RMK AO2 RAB16 SLP106 P0002 T00940078=
200905190612 SPECI KBLI 190612Z AUTO 18006KT 10SM SCT009 BKN050 OVC085 10/08 A2982 RMK AO2=
200905190612 SPECI KBLI 190612Z AUTO 18006KT 10SM SCT009 BKN050 OVC085 10/08 A2982 RMK AO2=
200905190553 METAR KBLI 190553Z AUTO 17007KT 10SM FEW010 BKN070 OVC090 10/08 A2982 RMK AO2 RAE51 SLP106 P0006 60041 T01000083 10128 20100 55004=
200905190532 SPECI KBLI 190532Z AUTO 17006KT 7SM -RA FEW014 BKN034 OVC045 10/08 A2983 RMK AO2 P0006=
200905190532 SPECI KBLI 190532Z AUTO 17006KT 7SM -RA FEW014 BKN034 OVC045 10/08 A2983 RMK AO2 P0006=
200905190523 SPECI KBLI 190523Z 18005KT 7SM -RA FEW009 BKN027 OVC032 10/08 A2983 RMK AO2 P0005=
200905190523 SPECI KBLI 190523Z 18005KT 7SM -RA FEW009 BKN027 OVC032 10/08 A2983 RMK AO2 P0005=
200905190514 SPECI KBLI 190514Z 17008KT 6SM RA BR BKN009 BKN017 OVC029 10/08 A2983 RMK AO2 CIG 006V014 P0004=
200905190514 SPECI KBLI 190514Z 17008KT 6SM RA BR BKN009 BKN017 OVC029 10/08 A2983 RMK AO2 CIG 006V014 P0004=
200905190508 SPECI KBLI 190508Z 18006KT 7SM -RA SCT009 BKN015 OVC038 10/08 A2983 RMK AO2 P0003=
200905190508 SPECI KBLI 190508Z 18006KT 7SM -RA SCT009 BKN015 OVC038 10/08 A2983 RMK AO2 P0003=
200905190453 METAR KBLI 190453Z 18007KT 6SM -RA BR BKN009 BKN015 OVC035 10/09 A2982 RMK AO2 SLP105 P0011 T01000089=
200905190434 SPECI KBLI 190434Z 17007KT 7SM -RA BKN009 OVC055 10/09 A2982 RMK AO2 P0006=
200905190434 SPECI KBLI 190434Z 17007KT 7SM -RA BKN009 OVC055 10/09 A2982 RMK AO2 P0006=
200905190353 METAR KBLI 190353Z 14004KT 8SM -RA SCT008 BKN047 OVC060 11/09 A2982 RMK AO2 SLP104 P0007 T01060089=
200905190333 SPECI KBLI 190333Z 00000KT 6SM -RA BR FEW008 BKN045 OVC060 10/08 A2982 RMK AO2 P0005=
200905190333 SPECI KBLI 190333Z 00000KT 6SM -RA BR FEW008 BKN045 OVC060 10/08 A2982 RMK AO2 P0005=
200905190253 METAR KBLI 190253Z 00000KT 4SM RA BR BKN043 OVC050 11/08 A2984 RMK AO2 SLP110 P0010 60017 T01060083 56011=
200905190153 METAR KBLI 190153Z 00000KT 5SM -RA BR BKN038 OVC050 11/09 A2985 RMK AO2 SLP115 P0007 T01110089=
200905190053 METAR KBLI 190053Z 00000KT 10SM -RA OVC048 13/08 A2985 RMK AO2 RAB49 SLP115 P0000 T01280083=
200905182353 METAR KBLI 182353Z VRB03KT 10SM FEW041 BKN055 OVC090 13/08 A2987 RMK AO2 SLP121 T01280083 10144 20128 56008=
200905182253 METAR KBLI 182253Z 25004KT 10SM OVC090 13/08 A2987 RMK AO2 SLP122 T01280083=
200905182153 METAR KBLI 182153Z VRB03KT 10SM FEW017 OVC090 14/09 A2988 RMK AO2 SLP124 T01390089=
200905182053 METAR KBLI 182053Z 18006KT 10SM CLR 14/08 A2989 RMK AO2 SLP130 T01390083 56013=
200905181953 METAR KBLI 181953Z VRB05KT 10SM OVC095 13/08 A2989 RMK AO2 SLP130 T01280083=
200905181853 METAR KBLI 181853Z 17011KT 10SM BKN043 13/08 A2992 RMK AO2 SLP137 T01280078=
200905181753 METAR KBLI 181753Z 16010KT 10SM SCT045 OVC100 13/09 A2993 RMK AO2 SLP142 T01280089 10128 20106 58002=
200905181653 METAR KBLI 181653Z 17007KT 10SM BKN043 OVC050 12/08 A2993 RMK AO2 SLP143 T01220083=
200905181553 METAR KBLI 181553Z 17006KT 10SM BKN045 OVC050 12/08 A2994 RMK AO2 SLP143 T01170083=
200905181453 METAR KBLI 181453Z 17010G18KT 10SM FEW007 OVC050 11/08 A2994 RMK AO2 SLP143 T01110083 53002=
200905181421 SPECI KBLI 181421Z 19010KT 10SM SCT007 OVC050 11/08 A2993 RMK AO2=
200905181421 SPECI KBLI 181421Z 19010KT 10SM SCT007 OVC050 11/08 A2993 RMK AO2=
200905181353 METAR KBLI 181353Z 17011G18KT 9SM OVC055 11/08 A2993 RMK AO2 SLP139 T01060083=
200905181253 METAR KBLI 181253Z AUTO 17011G15KT 10SM SCT055 OVC100 11/08 A2992 RMK AO2 SLP136 T01060083=
200905181153 METAR KBLI 181153Z AUTO 17010G15KT 10SM BKN060 OVC110 11/08 A2993 RMK AO2 SLP141 T01110083 10150 20111 56007=
200905181053 METAR KBLI 181053Z AUTO 18009KT 10SM OVC065 11/09 A2993 RMK AO2 SLP142 T01110089=
200905180953 METAR KBLI 180953Z AUTO 18009G16KT 10SM BKN065 12/09 A2994 RMK AO2 SLP146 T01170089=
200905180853 METAR KBLI 180853Z AUTO 18009KT 10SM OVC070 12/09 A2995 RMK AO2 SLP148 T01220094 58006=
200905180753 METAR KBLI 180753Z AUTO 18006KT 10SM BKN070 14/10 A2996 RMK AO2 SLP151 T01390100 402280094=
200905180653 METAR KBLI 180653Z AUTO 18004KT 10SM FEW110 14/11 A2996 RMK AO2 SLP153 T01440106=
200905180553 METAR KBLI 180553Z AUTO 17008KT 10SM CLR 14/11 A2997 RMK AO2 SLP154 T01440106 10217 20139 58004=
200905180453 METAR KBLI 180453Z 19003KT 10SM CLR 16/10 A2997 RMK AO2 SLP156 T01560100=
200905180353 METAR KBLI 180353Z 18004KT 10SM CLR 17/11 A2998 RMK AO2 SLP156 T01670106=
200905180253 METAR KBLI 180253Z 00000KT 10SM CLR 19/11 A2998 RMK AO2 SLP158 T01890111 56017=
200905180153 METAR KBLI 180153Z 00000KT 10SM CLR 20/12 A2999 RMK AO2 SLP162 T02000117=
200905180053 METAR KBLI 180053Z 28003KT 10SM CLR 22/11 A3001 RMK AO2 SLP168 T02170106=
200905172353 METAR KBLI 172353Z 20005KT 10SM CLR 22/10 A3003 RMK AO2 SLP174 T02170100 10228 20167 58017=
200905172253 METAR KBLI 172253Z 00000KT 10SM CLR 22/11 A3005 RMK AO2 SLP180 T02220111=
200905172153 METAR KBLI 172153Z VRB03KT 10SM CLR 21/12 A3006 RMK AO2 SLP186 T02060117=
200905172053 METAR KBLI 172053Z VRB05KT 10SM CLR 19/12 A3008 RMK AO2 SLP191 T01940117 58011=
200905171953 METAR KBLI 171953Z 18007KT 10SM CLR 19/11 A3009 RMK AO2 SLP196 T01890106=
200905171853 METAR KBLI 171853Z 18007KT 10SM CLR 18/10 A3011 RMK AO2 SLP201 T01780100=
200905171753 METAR KBLI 171753Z 18008KT 10SM CLR 16/09 A3011 RMK AO2 SLP202 T01610089 10167 20117 58001=
200905171653 METAR KBLI 171653Z 17009KT 10SM CLR 16/08 A3011 RMK AO2 SLP203 T01560078=
200905171553 METAR KBLI 171553Z 19006KT 10SM CLR 14/07 A3012 RMK AO2 SLP204 T01440067=
200905171453 METAR KBLI 171453Z 18009KT 10SM CLR 13/06 A3011 RMK AO2 SLP203 T01280061 51005=
200905171353 METAR KBLI 171353Z 18007KT 10SM FEW120 13/07 A3011 RMK AO2 SLP202 T01280067=
200905171253 METAR KBLI 171253Z AUTO 19007KT 10SM CLR 12/07 A3011 RMK AO2 SLP201 T01170072=
200905171153 METAR KBLI 171153Z AUTO 18006KT 10SM CLR 12/09 A3010 RMK AO2 SLP198 T01170089 10128 20094 53005=
200905171053 METAR KBLI 171053Z AUTO 16003KT 5SM BR CLR 10/08 A3009 RMK AO2 SLP195 T01000083=
200905170953 METAR KBLI 170953Z AUTO 18003KT 10SM CLR 12/09 A3008 RMK AO2 SLP193 T01220094=
200905170853 METAR KBLI 170853Z AUTO 17003KT 10SM CLR 11/09 A3008 RMK AO2 SLP193 T01110094 53001=
200905170753 METAR KBLI 170753Z AUTO 00000KT 10SM CLR 12/09 A3009 RMK AO2 SLP194 T01170094 402110072=
200905170653 METAR KBLI 170653Z AUTO 00000KT 10SM CLR 12/09 A3008 RMK AO2 SLP191 T01170089=
200905170553 METAR KBLI 170553Z AUTO 00000KT 10SM CLR 12/09 A3008 RMK AO2 SLP193 T01220094 10206 20117 51005=
200905170453 METAR KBLI 170453Z 00000KT 10SM CLR 14/11 A3008 RMK AO2 SLP191 T01390106=
200905170353 METAR KBLI 170353Z 28003KT 10SM CLR 16/11 A3007 RMK AO2 SLP188 T01560111=
200905170253 METAR KBLI 170253Z 00000KT 10SM CLR 18/11 A3007 RMK AO2 SLP187 T01830106 58011=
200905170153 METAR KBLI 170153Z 00000KT 10SM CLR 19/10 A3008 RMK AO2 SLP191 T01940100=
200905170053 METAR KBLI 170053Z 29003KT 10SM FEW080 21/08 A3009 RMK AO2 SLP195 T02060078=
200905162353 METAR KBLI 162353Z 00000KT 10SM SCT080 21/08 A3010 RMK AO2 SLP199 T02060078 10211 20156 58012=
200905162253 METAR KBLI 162253Z 27003KT 10SM OVC070 20/09 A3012 RMK AO2 SLP205 T02000089=
200905162153 METAR KBLI 162153Z 30004KT 10SM FEW070 21/10 A3012 RMK AO2 SLP206 T02060100=
200905162053 METAR KBLI 162053Z 00000KT 10SM OVC075 20/09 A3013 RMK AO2 SLP210 T02000089 58008=
200905161953 METAR KBLI 161953Z VRB03KT 10SM BKN075 19/09 A3015 RMK AO2 SLP215 T01890089=
200905161853 METAR KBLI 161853Z 34005KT 10SM OVC060 17/09 A3016 RMK AO2 SLP219 T01720089=
200905161753 METAR KBLI 161753Z 00000KT 10SM BKN080 16/09 A3016 RMK AO2 SLP219 T01560094 10156 20072 56005=
200905161653 METAR KBLI 161653Z 00000KT 10SM OVC080 14/09 A3017 RMK AO2 SLP224 T01440094=
200905161553 METAR KBLI 161553Z 00000KT 10SM BKN085 OVC110 13/09 A3016 RMK AO2 SLP219 T01280089=
200905161453 METAR KBLI 161453Z 00000KT 10SM OVC110 10/08 A3017 RMK AO2 SLP225 T01000078 53002=
200905161353 METAR KBLI 161353Z AUTO 00000KT 10SM OVC100 09/07 A3017 RMK AO2 SLP224 T00940072=
200905161253 METAR KBLI 161253Z AUTO 00000KT 10SM FEW110 08/06 A3016 RMK AO2 SLP221 T00780061=
200905161153 METAR KBLI 161153Z AUTO 00000KT 8SM SCT120 07/06 A3017 RMK AO2 SLP223 T00720061 10106 20072 55003=
200905161053 METAR KBLI 161053Z AUTO 00000KT 6SM BR BKN120 08/06 A3016 RMK AO2 SLP222 T00780061=
200905160953 METAR KBLI 160953Z AUTO 00000KT 10SM CLR 08/07 A3018 RMK AO2 SLP226 T00830067=
200905160853 METAR KBLI 160853Z AUTO 16004KT 10SM CLR 10/08 A3018 RMK AO2 SLP226 T01000078 56006=
200905160753 METAR KBLI 160753Z AUTO 00000KT 10SM CLR 09/07 A3019 RMK AO2 SLP229 T00890067 401720039=
200905160653 METAR KBLI 160653Z AUTO 00000KT 10SM FEW085 09/07 A3018 RMK AO2 SLP228 T00890067=
200905160553 METAR KBLI 160553Z AUTO 00000KT 10SM CLR 10/07 A3020 RMK AO2 SLP232 T01000072 10167 20094 55000=
200905160453 METAR KBLI 160453Z 00000KT 10SM CLR 11/07 A3019 RMK AO2 SLP230 T01060072=
200905160353 METAR KBLI 160353Z 00000KT 10SM CLR 12/08 A3019 RMK AO2 SLP230 T01220078=
200905160253 METAR KBLI 160253Z 00000KT 10SM CLR 14/07 A3020 RMK AO2 SLP232 T01440072 56009=
200905160153 METAR KBLI 160153Z 26003KT 10SM CLR 16/06 A3020 RMK AO2 SLP232 T01610056=
200905160053 METAR KBLI 160053Z 26003KT 10SM CLR 16/06 A3021 RMK AO2 SLP237 T01610056=
200905152353 METAR KBLI 152353Z 28005KT 10SM CLR 17/06 A3022 RMK AO2 SLP242 T01670061 10172 20128 58010=
200905152253 METAR KBLI 152253Z 25006KT 10SM CLR 16/07 A3024 RMK AO2 SLP246 T01610067=
200905152153 METAR KBLI 152153Z 28009KT 10SM CLR 16/07 A3025 RMK AO2 SLP249 T01610072=
200905152053 METAR KBLI 152053Z 29006KT 10SM CLR 15/07 A3026 RMK AO2 SLP252 T01500072 56007=
200905151953 METAR KBLI 151953Z 00000KT 10SM SCT029 BKN035 15/08 A3026 RMK AO2 SLP254 T01500078=
200905151853 METAR KBLI 151853Z 16006KT 10SM CLR 14/07 A3027 RMK AO2 SLP256 T01390072=
200905151753 METAR KBLI 151753Z 18006KT 10SM CLR 13/07 A3027 RMK AO2 SLP259 T01280067 10133 20039 58002=
200905151653 METAR KBLI 151653Z 00000KT 10SM CLR 13/06 A3028 RMK AO2 SLP260 T01280061=
200905151553 METAR KBLI 151553Z 00000KT 10SM CLR 12/06 A3028 RMK AO2 SLP262 T01170056=
200905151453 METAR KBLI 151453Z 00000KT 10SM SCT028 10/06 A3028 RMK AO2 SLP261 T01000061 53011=
200905151353 METAR KBLI 151353Z 36005KT 10SM SCT028 08/06 A3026 RMK AO2 SLP254 T00780061=
200905151309 SPECI KBLI 151309Z AUTO 00000KT 8SM BKN026 05/04 A3026 RMK AO2=
200905151309 SPECI KBLI 151309Z AUTO 00000KT 8SM BKN026 05/04 A3026 RMK AO2=
200905151302 SPECI KBLI 151302Z AUTO 03003KT 2 1/2SM BR BKN026 04/03 A3026 RMK AO2=
200905151302 SPECI KBLI 151302Z AUTO 03003KT 2 1/2SM BR BKN026 04/03 A3026 RMK AO2=
200905151253 METAR KBLI 151253Z AUTO 00000KT 5SM BR CLR 05/03 A3025 RMK AO2 SLP253 T00500033=
200905151153 METAR KBLI 151153Z AUTO 00000KT 10SM CLR 06/04 A3025 RMK AO2 SLP251 70002 T00560039 10111 20050 53006=
200905151053 METAR KBLI 151053Z AUTO 00000KT 10SM CLR 06/04 A3024 RMK AO2 SLP246 T00610044=
200905150953 METAR KBLI 150953Z AUTO 15004KT 10SM CLR 08/04 A3023 RMK AO2 SLP243 T00830044=
200905150853 METAR KBLI 150853Z AUTO 00000KT 10SM CLR 08/05 A3023 RMK AO2 SLP243 T00780050 51017=
200905150753 METAR KBLI 150753Z AUTO 16004KT 10SM CLR 09/05 A3022 RMK AO2 SLP241 T00940050 401390061=
200905150653 METAR KBLI 150653Z AUTO 16005KT 10SM CLR 11/06 A3020 RMK AO2 SLP234 T01060056=
200905150553 METAR KBLI 150553Z AUTO 16006KT 10SM BKN070 11/06 A3018 RMK AO2 SLP227 T01110061 10139 20106 53020=
200905150453 METAR KBLI 150453Z 16005KT 10SM CLR 11/05 A3016 RMK AO2 SLP221 T01060050=
200905150353 METAR KBLI 150353Z 17005KT 10SM CLR 11/06 A3014 RMK AO2 SLP213 T01060056=
200905150253 METAR KBLI 150253Z 18004KT 10SM CLR 12/04 A3012 RMK AO2 SLP206 T01220044 53009=
200905150153 METAR KBLI 150153Z 18004KT 10SM CLR 14/03 A3010 RMK AO2 SLP201 T01390033=
200905150053 METAR KBLI 150053Z 15006KT 10SM CLR 14/04 A3010 RMK AO2 SLP200 T01390044=
200905142353 METAR KBLI 142353Z 17007KT 10SM CLR 13/05 A3009 RMK AO2 SLP198 T01330050 10139 20094 51011=
200905142253 METAR KBLI 142253Z 16006KT 10SM FEW034 13/04 A3008 RMK AO2 SLP194 T01330044=
200905142153 METAR KBLI 142153Z 30005KT 10SM CLR 13/04 A3008 RMK AO2 SLP191 T01280039=
200905142053 METAR KBLI 142053Z VRB06KT 10SM SCT032 12/04 A3006 RMK AO2 SLP187 T01170039 51029=
200905142009 SPECI KBLI 142009Z 18004KT 10SM SCT030 12/04 A3004 RMK AO2=
200905142009 SPECI KBLI 142009Z 18004KT 10SM SCT030 12/04 A3004 RMK AO2=
200905141953 METAR KBLI 141953Z 00000KT 10SM SCT021 OVC029 11/04 A3003 RMK AO2 SLP178 T01060039=
200905141853 METAR KBLI 141853Z 27006KT 10SM FEW021 OVC029 10/04 A3001 RMK AO2 SLP170 T01000044=
200905141753 METAR KBLI 141753Z 28004KT 10SM SCT019 OVC027 09/06 A2997 RMK AO2 SLP158 60002 T00940056 10094 20061 53020=
200905141653 METAR KBLI 141653Z 00000KT 10SM OVC019 08/06 A2994 RMK AO2 SLP147 T00830061=
200905141553 METAR KBLI 141553Z 00000KT 10SM OVC017 08/06 A2991 RMK AO2 RAB22E36 SLP137 P0000 T00780061=
200905141544 SPECI KBLI 141544Z 00000KT 10SM BKN009 OVC015 08/06 A2991 RMK AO2 RAB22E36 P0000=
200905141544 SPECI KBLI 141544Z 00000KT 10SM BKN009 OVC015 08/06 A2991 RMK AO2 RAB22E36 P0000=
200905141507 SPECI KBLI 141507Z 10003KT 10SM SCT008 OVC014 07/06 A2989 RMK AO2=
200905141507 SPECI KBLI 141507Z 10003KT 10SM SCT008 OVC014 07/06 A2989 RMK AO2=
200905141453 METAR KBLI 141453Z 00000KT 10SM OVC012 07/06 A2988 RMK AO2 RAB31E53 SLP127 P0000 60002 T00720056 53021=
200905141353 METAR KBLI 141353Z AUTO 00000KT 10SM OVC010 07/05 A2985 RMK AO2 RAE38 SLP116 P0001 T00670050=
200905141338 SPECI KBLI 141338Z AUTO 00000KT 10SM BKN010 OVC016 07/05 A2984 RMK AO2 RAE38 P0001=
200905141338 SPECI KBLI 141338Z AUTO 00000KT 10SM BKN010 OVC016 07/05 A2984 RMK AO2 RAE38 P0001=
200905141253 METAR KBLI 141253Z AUTO 00000KT 6SM -RA BR SCT004 BKN022 OVC030 07/05 A2982 RMK AO2 SLP106 P0001 T00670050=
200905141249 SPECI KBLI 141249Z AUTO 00000KT 4SM -RA BR SCT004 BKN026 OVC030 07/06 A2982 RMK AO2 P0001=
200905141249 SPECI KBLI 141249Z AUTO 00000KT 4SM -RA BR SCT004 BKN026 OVC030 07/06 A2982 RMK AO2 P0001=
200905141153 METAR KBLI 141153Z AUTO 32003KT 10SM -RA BKN015 OVC026 06/05 A2979 RMK AO2 SLP097 P0003 60042 70081 T00610050 10072 20061 51019=
200905141149 SPECI KBLI 141149Z AUTO 33003KT 10SM -RA BKN015 BKN020 OVC026 06/05 A2979 RMK AO2 P0003=
200905141149 SPECI KBLI 141149Z AUTO 33003KT 10SM -RA BKN015 BKN020 OVC026 06/05 A2979 RMK AO2 P0003=
200905141111 SPECI KBLI 141111Z AUTO 31006KT 9SM -RA SCT004 BKN011 OVC035 06/05 A2977 RMK AO2 P0002=
200905141111 SPECI KBLI 141111Z AUTO 31006KT 9SM -RA SCT004 BKN011 OVC035 06/05 A2977 RMK AO2 P0002=
200905141056 SPECI KBLI 141056Z AUTO 33004KT 7SM -RA BKN004 OVC043 07/05 A2977 RMK AO2 P0000=
200905141056 SPECI KBLI 141056Z AUTO 33004KT 7SM -RA BKN004 OVC043 07/05 A2977 RMK AO2 P0000=
200905141053 METAR KBLI 141053Z AUTO 34004KT 8SM -RA SCT004 BKN036 OVC043 07/05 A2977 RMK AO2 SLP089 P0003 T00670050=
200905141023 SPECI KBLI 141023Z AUTO 31006KT 10SM -RA FEW006 SCT012 OVC032 07/05 A2975 RMK AO2 P0001=
200905141023 SPECI KBLI 141023Z AUTO 31006KT 10SM -RA FEW006 SCT012 OVC032 07/05 A2975 RMK AO2 P0001=
200905141011 SPECI KBLI 141011Z AUTO 32006KT 10SM -RA FEW008 BKN012 OVC032 07/05 A2975 RMK AO2 P0000=
200905141011 SPECI KBLI 141011Z AUTO 32006KT 10SM -RA FEW008 BKN012 OVC032 07/05 A2975 RMK AO2 P0000=
200905140953 METAR KBLI 140953Z AUTO 32007KT 10SM -RA BKN008 OVC032 07/06 A2974 RMK AO2 CIG 005V013 SLP078 P0001 T00670056=
200905140932 SPECI KBLI 140932Z AUTO 34008KT 9SM -RA BKN006 BKN010 OVC033 07/06 A2973 RMK AO2 P0001=
200905140932 SPECI KBLI 140932Z AUTO 34008KT 9SM -RA BKN006 BKN010 OVC033 07/06 A2973 RMK AO2 P0001=
200905140853 METAR KBLI 140853Z AUTO 36010KT 7SM -RA FEW005 BKN031 OVC035 07/06 A2972 RMK AO2 SLP073 P0009 60035 T00670056 53002=
200905140846 SPECI KBLI 140846Z AUTO 35007KT 6SM -RA BR FEW005 OVC031 07/06 A2973 RMK AO2 P0008=
200905140846 SPECI KBLI 140846Z AUTO 35007KT 6SM -RA BR FEW005 OVC031 07/06 A2973 RMK AO2 P0008=
200905140822 SPECI KBLI 140822Z AUTO 36008KT 5SM -RA BR FEW005 OVC029 07/06 A2972 RMK AO2 P0005=
200905140822 SPECI KBLI 140822Z AUTO 36008KT 5SM -RA BR FEW005 OVC029 07/06 A2972 RMK AO2 P0005=
200905140753 METAR KBLI 140753Z AUTO 35008KT 5SM -RA BR BKN005 OVC025 07/06 A2972 RMK AO2 CIG 004V010 SLP071 P0016 T00670056 401110067=
200905140750 SPECI KBLI 140750Z AUTO 35008KT 6SM -RA BR BKN005 BKN010 OVC025 07/06 A2972 RMK AO2 CIG 004V008 P0016 401110067=
200905140750 SPECI KBLI 140750Z AUTO 35008KT 6SM -RA BR BKN005 BKN010 OVC025 07/06 A2972 RMK AO2 CIG 004V008 P0016 401110067=
200905140716 SPECI KBLI 140716Z AUTO 01012KT 3SM RA BR SCT005 OVC026 07/06 A2971 RMK AO2 P0011=
200905140716 SPECI KBLI 140716Z AUTO 01012KT 3SM RA BR SCT005 OVC026 07/06 A2971 RMK AO2 P0011=
200905140701 SPECI KBLI 140701Z AUTO 34007KT 2 1/2SM +RA BR BKN005 OVC021 07/06 A2972 RMK AO2 CIG 002V008 P0004=
200905140701 SPECI KBLI 140701Z AUTO 34007KT 2 1/2SM +RA BR BKN005 OVC021 07/06 A2972 RMK AO2 CIG 002V008 P0004=
200905140653 METAR KBLI 140653Z AUTO 36006KT 3SM RA BR BKN005 OVC021 07/06 A2972 RMK AO2 CIG 003V008 SLP071 P0010 T00720056=
200905140634 SPECI KBLI 140634Z AUTO 02006KT 4SM -RA BR FEW005 OVC023 07/06 A2971 RMK AO2 P0006=
200905140634 SPECI KBLI 140634Z AUTO 02006KT 4SM -RA BR FEW005 OVC023 07/06 A2971 RMK AO2 P0006=
200905140553 METAR KBLI 140553Z AUTO 02007KT 4SM RA BR OVC027 07/06 A2973 RMK AO2 SLP074 P0008 60035 T00670056 10083 20067 56025=
200905140541 SPECI KBLI 140541Z AUTO 01006KT 5SM -RA BR OVC029 07/06 A2974 RMK AO2 P0006=
200905140541 SPECI KBLI 140541Z AUTO 01006KT 5SM -RA BR OVC029 07/06 A2974 RMK AO2 P0006=
200905140453 METAR KBLI 140453Z 03006KT 6SM -RA BR OVC031 07/06 A2975 RMK AO2 SLP081 P0008 T00670056=
200905140353 METAR KBLI 140353Z 01005KT 8SM -RA BKN030 OVC034 07/06 A2977 RMK AO2 SLP090 P0007 T00670056=
200905140253 METAR KBLI 140253Z 00000KT 4SM -RA BR SCT006 BKN017 OVC026 07/06 A2980 RMK AO2 SLP100 P0005 60012 T00720056 56038=
200905140153 METAR KBLI 140153Z 02006KT 4SM -RA BR BKN015 OVC021 07/06 A2983 RMK AO2 SLP110 P0004 T00720056=
200905140145 SPECI KBLI 140145Z 02004KT 5SM -RA BR BKN015 BKN021 OVC035 08/06 A2984 RMK AO2 P0003=
200905140145 SPECI KBLI 140145Z 02004KT 5SM -RA BR BKN015 BKN021 OVC035 08/06 A2984 RMK AO2 P0003=
200905140053 METAR KBLI 140053Z 11004KT 10SM -RA OVC036 08/04 A2987 RMK AO2 SLP124 P0003 T00830044=
200905132353 METAR KBLI 132353Z 14006KT 10SM -RA OVC034 08/04 A2991 RMK AO2 SLP138 P0002 60004 T00830044 10111 20078 58027=
200905132253 METAR KBLI 132253Z 17011G16KT 7SM -RA OVC030 08/04 A2995 RMK AO2 SLP149 P0001 T00830044=
200905132153 METAR KBLI 132153Z 12008G19KT 7SM -RA OVC049 10/03 A2997 RMK AO2 RAB14E28B45 SLP156 P0001 T01000033=
200905132053 METAR KBLI 132053Z 17003KT 10SM FEW075 11/03 A3000 RMK AO2 SLP164 T01110028 56023=
200905131953 METAR KBLI 131953Z VRB03KT 10SM FEW030 SCT043 11/03 A3001 RMK AO2 SLP171 T01110028=
200905131853 METAR KBLI 131853Z 15007KT 10SM SCT036 BKN048 11/03 A3004 RMK AO2 SLP180 T01110028=
200905131753 METAR KBLI 131753Z 18006KT 10SM BKN040 10/02 A3006 RMK AO2 SLP189 T01000017 10106 20078 58025=
200905131653 METAR KBLI 131653Z VRB05KT 10SM FEW038 11/01 A3009 RMK AO2 SLP197 T01060011=
200905131553 METAR KBLI 131553Z VRB03KT 10SM CLR 09/02 A3012 RMK AO2 SLP205 T00940022=
200905131453 METAR KBLI 131453Z 12007KT 10SM FEW049 09/03 A3014 RMK AO2 SLP213 T00890028 58011=
200905131353 METAR KBLI 131353Z 16005KT 10SM FEW032 OVC049 08/03 A3015 RMK AO2 SLP218 T00830028=
200905131253 METAR KBLI 131253Z AUTO 13005KT 10SM OVC040 08/03 A3016 RMK AO2 SLP221 T00780028=
200905131153 METAR KBLI 131153Z AUTO 14006KT 10SM OVC040 08/02 A3017 RMK AO2 SLP224 70007 T00780022 10089 20072 58001=
200905131053 METAR KBLI 131053Z AUTO 13006KT 10SM BKN038 08/02 A3018 RMK AO2 SLP227 T00780017=
200905130953 METAR KBLI 130953Z AUTO 17007KT 10SM FEW039 08/01 A3018 RMK AO2 SLP228 T00830011=
200905130853 METAR KBLI 130853Z AUTO 14007KT 10SM OVC039 08/02 A3018 RMK AO2 SLP225 T00830017 51006=
200905130753 METAR KBLI 130753Z AUTO 20003KT 10SM BKN045 08/01 A3018 RMK AO2 SLP226 T00830006 401280044=
200905130653 METAR KBLI 130653Z AUTO VRB05KT 10SM SCT085 09/01 A3017 RMK AO2 SLP225 T00890011=
200905130553 METAR KBLI 130553Z AUTO 16007KT 10SM CLR 09/02 A3016 RMK AO2 SLP220 T00890017 10128 20089 51020=
200905130453 METAR KBLI 130453Z 16008KT 10SM BKN080 10/03 A3015 RMK AO2 SLP218 T01000028=
200905130353 METAR KBLI 130353Z 16010KT 10SM BKN050 11/03 A3012 RMK AO2 SLP207 T01060028=
200905130253 METAR KBLI 130253Z 17005KT 10SM CLR 12/04 A3010 RMK AO2 SLP200 T01170039 53007=
200905130153 METAR KBLI 130153Z 18007KT 10SM CLR 12/04 A3009 RMK AO2 SLP196 T01220039=
200905130053 METAR KBLI 130053Z 17011KT 10SM CLR 12/01 A3008 RMK AO2 SLP194 T01220011=
200905122353 METAR KBLI 122353Z 17007KT 10SM CLR 12/03 A3008 RMK AO2 SLP193 60007 T01220033 10128 20089 51010=
200905122253 METAR KBLI 122253Z 18008KT 10SM CLR 12/03 A3007 RMK AO2 SLP190 T01220033=
200905122153 METAR KBLI 122153Z 16010KT 10SM CLR 12/03 A3006 RMK AO2 SLP187 T01170033=
200905122053 METAR KBLI 122053Z 16009KT 10SM SCT035 11/03 A3005 RMK AO2 SLP183 60007 T01110033 51019=
200905121953 METAR KBLI 121953Z 17006G16KT 10SM FEW120 10/04 A3003 RMK AO2 SLP178 T01000044=
200905121853 METAR KBLI 121853Z 18010KT 10SM BKN016 09/06 A3001 RMK AO2 RAE47 SLP172 P0007 T00890056=
200905121800 SPECI KBLI 121800Z 17008KT 10SM -RA SCT018 OVC026 08/04 A2999 RMK AO2 P0000=
200905121800 SPECI KBLI 121800Z 17008KT 10SM -RA SCT018 OVC026 08/04 A2999 RMK AO2 P0000=
200905121753 METAR KBLI 121753Z 17007KT 10SM -RA SCT018 BKN049 OVC060 08/04 A2999 RMK AO2 RAB1659E09B36 SLP163 P0000 60000 T00830044 10083 20044 53021=
200905121653 METAR KBLI 121653Z 17005KT 10SM SCT018 BKN049 OVC060 07/04 A2997 RMK AO2 RAB26E45 SLP155 P0000 T00720039=
200905121553 METAR KBLI 121553Z 17008KT 10SM BKN085 OVC100 08/03 A2994 RMK AO2 SLP147 T00780033=
200905121453 METAR KBLI 121453Z 17005KT 10SM SCT065 OVC090 07/04 A2993 RMK AO2 SLP142 T00720039 53014=
200905121353 METAR KBLI 121353Z 17003KT 10SM OVC060 05/03 A2991 RMK AO2 SLP135 T00500033=
200905121253 METAR KBLI 121253Z AUTO 18003KT 10SM CLR 04/03 A2989 RMK AO2 SLP130 T00440028 $=
200905121153 METAR KBLI 121153Z AUTO 15003KT 10SM BKN095 05/03 A2989 RMK AO2 SLP128 60028 70048 T00500028 10078 20050 55005 $=
200905121053 METAR KBLI 121053Z AUTO 10007KT 10SM BKN070 OVC090 05/03 A2988 RMK AO2 RAE09 SLP126 P0000 T00500028 $=
200905121003 SPECI KBLI 121003Z AUTO 10004KT 10SM -RA FEW022 BKN044 OVC060 06/03 A2989 RMK AO2 P0000 $=
200905121003 SPECI KBLI 121003Z AUTO 10004KT 10SM -RA FEW022 BKN044 OVC060 06/03 A2989 RMK AO2 P0000 $=
200905120953 METAR KBLI 120953Z AUTO 11007KT 5SM -RA BR BKN025 BKN031 OVC060 06/03 A2990 RMK AO2 SLP132 P0009 T00560033 $=
200905120853 METAR KBLI 120853Z AUTO 09005KT 10SM -RA BKN028 OVC036 06/04 A2990 RMK AO2 SLP132 P0005 60019 T00610044 56007 $=
200905120753 METAR KBLI 120753Z AUTO 11006KT 9SM -RA OVC032 07/04 A2991 RMK AO2 SLP134 P0009 T00670044 401560067 $=
200905120738 SPECI KBLI 120738Z AUTO 11005KT 8SM -RA BKN032 OVC042 07/04 A2990 RMK AO2 P0007 $=
200905120738 SPECI KBLI 120738Z AUTO 11005KT 8SM -RA BKN032 OVC042 07/04 A2990 RMK AO2 P0007 $=
200905120653 METAR KBLI 120653Z AUTO 17003KT 5SM -RA BR FEW018 BKN028 OVC038 07/05 A2991 RMK AO2 SLP136 P0005 T00720050 $=
200905120553 METAR KBLI 120553Z AUTO 15008KT 6SM RA BR FEW019 OVC030 08/06 A2992 RMK AO2 SLP139 P0005 60014 T00780056 10128 20078 51009 $=
200905120536 SPECI KBLI 120536Z AUTO 15006KT 9SM -RA FEW021 BKN029 OVC036 08/06 A2992 RMK AO2 P0003 $=
200905120536 SPECI KBLI 120536Z AUTO 15006KT 9SM -RA FEW021 BKN029 OVC036 08/06 A2992 RMK AO2 P0003 $=
200905120453 METAR KBLI 120453Z 18003KT 10SM -RA FEW030 OVC038 08/06 A2992 RMK AO2 SLP138 P0002 T00830061 $=
200905120353 METAR KBLI 120353Z 13005KT 7SM -RA FEW008 BKN030 BKN060 09/06 A2990 RMK AO2 RAE10B28 SLP133 P0001 T00890061 $=
200905120253 METAR KBLI 120253Z 14004KT 4SM -RA FEW019 BKN041 OVC049 09/06 A2989 RMK AO2 RAB0157 SLP130 P0005 60006 T00940061 53004 $=
200905120153 METAR KBLI 120153Z VRB03KT 10SM OVC047 11/05 A2988 RMK AO2 RAB09E39 SLP126 P0001 T01060050 $=
200905120053 METAR KBLI 120053Z VRB03KT 10SM SCT028 OVC045 13/06 A2988 RMK AO2 SLP126 T01280061 $=
200905112353 METAR KBLI 112353Z VRB05G15KT 10SM SCT028 OVC045 13/08 A2988 RMK AO2 SLP126 60000 T01280078 10156 20117 56003 $=
200905112253 METAR KBLI 112253Z 17010G21KT 10SM OVC095 15/08 A2988 RMK AO2 SLP125 T01500083=
200905112153 METAR KBLI 112153Z 16015G21KT 10SM BKN032 BKN039 OVC055 15/08 A2989 RMK AO2 RAE28 SLP129 P0000 T01500083=
200905112100 SPECI KBLI 112100Z 17011KT 10SM BKN032 BKN039 OVC055 14/08 A2990 RMK AO2 RAE2059 P0000=
200905112100 SPECI KBLI 112100Z 17011KT 10SM BKN032 BKN039 OVC055 14/08 A2990 RMK AO2 RAE2059 P0000=
200905112053 METAR KBLI 112053Z 16012KT 10SM -RA BKN024 OVC032 14/08 A2990 RMK AO2 RAB48 SLP130 P0000 60000 T01390083 56007=
200905111953 METAR KBLI 111953Z 17011G15KT 10SM BKN024 OVC032 14/08 A2990 RMK AO2 SLP131 T01390083=
200905111853 METAR KBLI 111853Z 14009KT 10SM OVC020 12/08 A2991 RMK AO2 SLP136 T01220083=
200905111753 METAR KBLI 111753Z 15010G17KT 10SM OVC016 12/08 A2992 RMK AO2 RAE13 SLP138 P0000 60006 T01170083 10117 20100 55002=
200905111653 METAR KBLI 111653Z 16009KT 8SM -RA OVC016 11/08 A2991 RMK AO2 RAB07 SLP136 P0002 T01060078=
200905111553 METAR KBLI 111553Z 15008KT 10SM OVC018 11/09 A2992 RMK AO2 RAE47 SLP138 P0000 T01060089=
200905111453 METAR KBLI 111453Z 15009KT 7SM -RA OVC020 10/07 A2992 RMK AO2 RAE1359B27 SLP140 P0001 60004 T01000072 53004=
200905111422 SPECI KBLI 111422Z 14006KT 10SM BKN020 OVC032 10/07 A2992 RMK AO2 RAE1359 P0000=
200905111422 SPECI KBLI 111422Z 14006KT 10SM BKN020 OVC032 10/07 A2992 RMK AO2 RAE1359 P0000=
200905111353 METAR KBLI 111353Z 14008KT 10SM -RA FEW005 SCT025 OVC032 10/07 A2992 RMK AO2 SLP139 P0001 T01000072=
200905111335 SPECI KBLI 111335Z 17004KT 10SM -RA SCT025 OVC032 10/07 A2992 RMK AO2 P0001=
200905111335 SPECI KBLI 111335Z 17004KT 10SM -RA SCT025 OVC032 10/07 A2992 RMK AO2 P0001=
200905111253 METAR KBLI 111253Z AUTO 17009KT 7SM -RA FEW005 SCT012 OVC027 10/08 A2992 RMK AO2 SLP137 P0002 T01000083=
200905111243 SPECI KBLI 111243Z AUTO 17009G17KT 9SM -RA SCT005 BKN012 OVC025 10/08 A2991 RMK AO2 P0001=
200905111243 SPECI KBLI 111243Z AUTO 17009G17KT 9SM -RA SCT005 BKN012 OVC025 10/08 A2991 RMK AO2 P0001=
200905111153 METAR KBLI 111153Z AUTO VRB04KT 5SM -RA BR BKN005 OVC012 10/08 A2991 RMK AO2 CIG 003V008 SLP136 P0006 60024 70026 T01000083 10111 20100 57001=
200905111143 SPECI KBLI 111143Z AUTO VRB03KT 5SM -RA BR BKN007 OVC013 10/09 A2991 RMK AO2 CIG 003V010 P0006=
200905111143 SPECI KBLI 111143Z AUTO VRB03KT 5SM -RA BR BKN007 OVC013 10/09 A2991 RMK AO2 CIG 003V010 P0006=
200905111112 SPECI KBLI 111112Z AUTO 00000KT 5SM -RA BR FEW005 BKN010 OVC021 10/09 A2991 RMK AO2 CIG 007V012 P0002=
200905111112 SPECI KBLI 111112Z AUTO 00000KT 5SM -RA BR FEW005 BKN010 OVC021 10/09 A2991 RMK AO2 CIG 007V012 P0002=
200905111100 SPECI KBLI 111100Z AUTO 00000KT 5SM -RA BR SCT005 BKN015 OVC023 11/09 A2991 RMK AO2 P0000=
200905111100 SPECI KBLI 111100Z AUTO 00000KT 5SM -RA BR SCT005 BKN015 OVC023 11/09 A2991 RMK AO2 P0000=
200905111053 METAR KBLI 111053Z AUTO 00000KT 5SM -RA BR SCT005 BKN010 OVC015 10/09 A2991 RMK AO2 CIG 008V011 SLP136 P0003 T01000094=
200905111032 SPECI KBLI 111032Z AUTO 00000KT 5SM -RA BR FEW007 BKN015 OVC021 11/09 A2992 RMK AO2 P0001=
200905111032 SPECI KBLI 111032Z AUTO 00000KT 5SM -RA BR FEW007 BKN015 OVC021 11/09 A2992 RMK AO2 P0001=
200905110953 METAR KBLI 110953Z AUTO 00000KT 8SM -RA OVC007 10/09 A2992 RMK AO2 RAE12B48 CIG 004V010 SLP137 P0000 T01000089=
200905110928 SPECI KBLI 110928Z AUTO 32003KT 6SM BR BKN005 BKN022 OVC035 10/09 A2992 RMK AO2 RAE12 CIG 002V008 P0000=
200905110928 SPECI KBLI 110928Z AUTO 32003KT 6SM BR BKN005 BKN022 OVC035 10/09 A2992 RMK AO2 RAE12 CIG 002V008 P0000=
200905110900 SPECI KBLI 110900Z AUTO 32003KT 7SM -RA FEW007 SCT011 OVC055 10/09 A2992 RMK AO2 P0000=
200905110900 SPECI KBLI 110900Z AUTO 32003KT 7SM -RA FEW007 SCT011 OVC055 10/09 A2992 RMK AO2 P0000=
200905110853 METAR KBLI 110853Z AUTO 31003KT 7SM -RA SCT007 BKN011 OVC055 10/09 A2992 RMK AO2 SLP137 P0005 60015 T01000089 58007=
200905110843 SPECI KBLI 110843Z AUTO 31003KT 7SM -RA BKN005 BKN011 OVC050 10/09 A2992 RMK AO2 CIG 002V006 P0005=
200905110843 SPECI KBLI 110843Z AUTO 31003KT 7SM -RA BKN005 BKN011 OVC050 10/09 A2992 RMK AO2 CIG 002V006 P0005=
200905110824 SPECI KBLI 110824Z AUTO 26004KT 5SM -RA BR BKN003 BKN007 OVC033 11/09 A2992 RMK AO2 P0003=
200905110824 SPECI KBLI 110824Z AUTO 26004KT 5SM -RA BR BKN003 BKN007 OVC033 11/09 A2992 RMK AO2 P0003=
200905110753 METAR KBLI 110753Z AUTO 00000KT 4SM -RA BR BKN005 BKN038 OVC047 10/09 A2993 RMK AO2 CIG 004V009 SLP141 P0007 T01000089 401780039=
200905110750 SPECI KBLI 110750Z AUTO 34003KT 4SM -RA BR BKN005 BKN038 OVC048 10/09 A2993 RMK AO2 CIG 004V009 P0007 401780039=
200905110750 SPECI KBLI 110750Z AUTO 34003KT 4SM -RA BR BKN005 BKN038 OVC048 10/09 A2993 RMK AO2 CIG 004V009 P0007 401780039=
200905110741 SPECI KBLI 110741Z AUTO 21004KT 5SM -RA BR SCT005 BKN040 OVC050 10/09 A2994 RMK AO2 P0006=
200905110741 SPECI KBLI 110741Z AUTO 21004KT 5SM -RA BR SCT005 BKN040 OVC050 10/09 A2994 RMK AO2 P0006=
200905110653 METAR KBLI 110653Z AUTO 29005KT 7SM -RA SCT040 BKN050 OVC060 10/09 A2994 RMK AO2 SLP145 P0003 T01000089=
200905110553 METAR KBLI 110553Z AUTO 32006KT 10SM -RA BKN060 OVC075 11/09 A2993 RMK AO2 RAB17 SLP142 P0000 60002 T01060089 10161 20106 58006=
200905110453 METAR KBLI 110453Z 31005KT 10SM BKN060 BKN070 OVC100 11/08 A2995 RMK AO2 RAB04E52 SLP148 P0002 T01110083=
200905110353 METAR KBLI 110353Z 00000KT 10SM BKN065 OVC080 13/08 A2994 RMK AO2 RAB04E14 SLP147 P0000 T01280078=
200905110253 METAR KBLI 110253Z 01006KT 10SM BKN055 BKN070 OVC080 12/08 A2995 RMK AO2 RAE01 SLP148 P0000 60000 T01220078 58009=
200905110153 METAR KBLI 110153Z 00000KT 10SM -RA BKN060 13/08 A2997 RMK AO2 RAB41 SLP154 P0000 T01280078=
200905110053 METAR KBLI 110053Z VRB03KT 10SM CLR 16/07 A2997 RMK AO2 SLP155 T01560067=
200905102353 METAR KBLI 102353Z VRB04KT 10SM CLR 16/06 A2997 RMK AO2 SLP157 T01610061 10178 20139 56018=
200905102253 METAR KBLI 102253Z 28005KT 10SM CLR 16/07 A2998 RMK AO2 SLP160 T01560067=
200905102153 METAR KBLI 102153Z 28004KT 10SM CLR 17/07 A3000 RMK AO2 SLP167 T01670072=
200905102053 METAR KBLI 102053Z VRB04KT 10SM CLR 17/08 A3003 RMK AO2 SLP175 T01670083 56023=
200905101953 METAR KBLI 101953Z 31004KT 10SM CLR 17/07 A3005 RMK AO2 SLP181 T01720072=
200905101853 METAR KBLI 101853Z VRB04KT 10SM CLR 15/05 A3007 RMK AO2 SLP189 T01500050=
200905101753 METAR KBLI 101753Z VRB03KT 10SM CLR 14/07 A3009 RMK AO2 SLP198 T01440067 10150 20039 58018=
200905101653 METAR KBLI 101653Z 32003KT 10SM CLR 13/06 A3012 RMK AO2 SLP205 T01330061=
200905101553 METAR KBLI 101553Z 00000KT 10SM CLR 11/07 A3013 RMK AO2 SLP211 T01110072=
200905101453 METAR KBLI 101453Z 21004KT 10SM CLR 09/07 A3015 RMK AO2 SLP216 T00940067 56008=
200905101353 METAR KBLI 101353Z AUTO 00000KT 9SM CLR 07/05 A3015 RMK AO2 SLP217 T00670050=
200905101347 SPECI KBLI 101347Z AUTO 00000KT 3SM BR CLR 06/04 A3015 RMK AO2=
200905101347 SPECI KBLI 101347Z AUTO 00000KT 3SM BR CLR 06/04 A3015 RMK AO2=
200905101337 SPECI KBLI 101337Z AUTO 00000KT 1 3/4SM BR CLR 06/04 A3015 RMK AO2=
200905101337 SPECI KBLI 101337Z AUTO 00000KT 1 3/4SM BR CLR 06/04 A3015 RMK AO2=
200905101253 METAR KBLI 101253Z AUTO 00000KT 9SM CLR 04/03 A3015 RMK AO2 SLP217 T00440028=
200905101153 METAR KBLI 101153Z AUTO 00000KT 7SM CLR 05/03 A3017 RMK AO2 SLP224 T00500028 10083 20039 55005=
200905101142 SPECI KBLI 101142Z AUTO 00000KT 4SM BR CLR 05/03 A3017 RMK AO2=
200905101142 SPECI KBLI 101142Z AUTO 00000KT 4SM BR CLR 05/03 A3017 RMK AO2=
200905101137 SPECI KBLI 101137Z AUTO 00000KT 1SM BR CLR 05/03 A3017 RMK AO2 VIS 1/2V5 RVRNO=
200905101137 SPECI KBLI 101137Z AUTO 00000KT 1SM BR CLR 05/03 A3017 RMK AO2 VIS 1/2V5 RVRNO=
200905101053 METAR KBLI 101053Z AUTO 00000KT 10SM CLR 05/03 A3017 RMK AO2 SLP224 T00500033=
200905100953 METAR KBLI 100953Z AUTO 00000KT 10SM CLR 06/03 A3018 RMK AO2 SLP227 T00560033=
200905100853 METAR KBLI 100853Z AUTO 00000KT 8SM CLR 06/04 A3019 RMK AO2 SLP230 T00610039 58004=
200905100753 METAR KBLI 100753Z AUTO 00000KT 10SM CLR 06/04 A3020 RMK AO2 SLP233 T00610044 401670022=
200905100653 METAR KBLI 100653Z AUTO 00000KT 10SM CLR 08/05 A3020 RMK AO2 SLP233 T00780050=
200905100553 METAR KBLI 100553Z AUTO 00000KT 10SM CLR 08/06 A3020 RMK AO2 SLP234 T00830056 10167 20078 51009=
200905100453 METAR KBLI 100453Z 17003KT 10SM CLR 09/06 A3020 RMK AO2 SLP232 T00890056=
200905100353 METAR KBLI 100353Z 00000KT 10SM CLR 10/06 A3019 RMK AO2 SLP231 T01000061=
200905100253 METAR KBLI 100253Z 00000KT 10SM CLR 13/07 A3018 RMK AO2 SLP225 T01280067 56008=
200905100153 METAR KBLI 100153Z 26003KT 10SM CLR 16/06 A3018 RMK AO2 SLP227 T01560056=
200905100053 METAR KBLI 100053Z 29003KT 10SM CLR 16/06 A3019 RMK AO2 SLP232 T01610056=
200905092353 METAR KBLI 092353Z 23004KT 10SM CLR 16/05 A3020 RMK AO2 SLP235 T01610050 10161 20122 58015=
200905092253 METAR KBLI 092253Z VRB05KT 10SM CLR 16/06 A3022 RMK AO2 SLP240 T01560056=
200905092153 METAR KBLI 092153Z 26007KT 10SM CLR 16/06 A3023 RMK AO2 SLP245 T01560061=
200905092053 METAR KBLI 092053Z 29006KT 10SM CLR 15/07 A3024 RMK AO2 SLP249 T01500067 56010=
200905091953 METAR KBLI 091953Z 29005KT 10SM SCT025 14/07 A3025 RMK AO2 SLP252 T01390072=
200905091853 METAR KBLI 091853Z 30006KT 10SM SCT026 13/07 A3026 RMK AO2 SLP255 T01330067=
200905091814 SPECI KBLI 091814Z VRB04KT 10SM SCT026 12/07 A3027 RMK AO2=
200905091814 SPECI KBLI 091814Z VRB04KT 10SM SCT026 12/07 A3027 RMK AO2=
200905091753 METAR KBLI 091753Z 00000KT 10SM BKN026 13/06 A3028 RMK AO2 SLP260 T01280061 10133 20022 58005=
200905091653 METAR KBLI 091653Z 04005KT 10SM CLR 12/06 A3028 RMK AO2 SLP261 T01170061=
200905091553 METAR KBLI 091553Z 02004KT 10SM CLR 09/06 A3029 RMK AO2 SLP264 T00940056=
200905091453 METAR KBLI 091453Z 01003KT 10SM CLR 07/05 A3029 RMK AO2 SLP266 T00720050 51002=
200905091353 METAR KBLI 091353Z 00000KT 10SM CLR 03/02 A3029 RMK AO2 SLP266 T00330022=
200905091253 METAR KBLI 091253Z AUTO 00000KT 10SM CLR 03/01 A3029 RMK AO2 SLP264 T00280011=
200905091153 METAR KBLI 091153Z AUTO 00000KT 10SM CLR 03/01 A3028 RMK AO2 SLP263 T00280011 10072 20022 56000=
200905091053 METAR KBLI 091053Z AUTO 00000KT 10SM CLR 04/02 A3028 RMK AO2 SLP263 T00390022=
200905090953 METAR KBLI 090953Z AUTO 00000KT 10SM CLR 04/03 A3028 RMK AO2 SLP262 T00440028=
200905090940 SPECI KBLI 090940Z AUTO 00000KT 3SM BR CLR 04/03 A3028 RMK AO2=
200905090940 SPECI KBLI 090940Z AUTO 00000KT 3SM BR CLR 04/03 A3028 RMK AO2=
200905090935 SPECI KBLI 090935Z AUTO 00000KT 1 3/4SM BR CLR 04/02 A3028 RMK AO2=
200905090935 SPECI KBLI 090935Z AUTO 00000KT 1 3/4SM BR CLR 04/02 A3028 RMK AO2=
200905090853 METAR KBLI 090853Z AUTO 00000KT 10SM CLR 04/03 A3029 RMK AO2 SLP264 T00440028 56008=
200905090753 METAR KBLI 090753Z AUTO 00000KT 10SM CLR 06/03 A3029 RMK AO2 SLP265 T00560033 401390039=
200905090653 METAR KBLI 090653Z AUTO 00000KT 10SM CLR 06/04 A3030 RMK AO2 SLP269 T00610039=
200905090553 METAR KBLI 090553Z AUTO 00000KT 10SM CLR 06/04 A3031 RMK AO2 SLP272 T00610039 10139 20061 58003=
200905090453 METAR KBLI 090453Z 00000KT 10SM CLR 08/05 A3032 RMK AO2 SLP277 T00780050=
200905090353 METAR KBLI 090353Z 00000KT 10SM CLR 09/05 A3032 RMK AO2 SLP275 T00940050=
200905090253 METAR KBLI 090253Z 28003KT 10SM CLR 12/04 A3032 RMK AO2 SLP274 T01170039 56007=
200905090153 METAR KBLI 090153Z 26004KT 10SM CLR 13/03 A3032 RMK AO2 SLP276 T01330033=
200905090053 METAR KBLI 090053Z 28005KT 10SM FEW060 14/03 A3033 RMK AO2 SLP280 T01390028=
200905082353 METAR KBLI 082353Z VRB05KT 10SM CLR 13/03 A3034 RMK AO2 SLP283 T01330028 10139 20106 58013=
200905082253 METAR KBLI 082253Z VRB05KT 10SM CLR 13/03 A3036 RMK AO2 SLP289 T01330033=
200905082153 METAR KBLI 082153Z 25004KT 10SM BKN050 13/04 A3037 RMK AO2 SLP291 T01330044=
200905082053 METAR KBLI 082053Z 19004KT 10SM OVC060 13/04 A3038 RMK AO2 SLP296 T01280044 58010=
200905081953 METAR KBLI 081953Z VRB04KT 10SM CLR 12/04 A3039 RMK AO2 SLP300 T01220039=
200905081853 METAR KBLI 081853Z 17008KT 10SM SCT047 12/04 A3040 RMK AO2 SLP304 T01170039=
200905081753 METAR KBLI 081753Z 17008KT 150V220 10SM FEW047 11/04 A3041 RMK AO2 SLP305 T01060039 10111 20039 51003=
200905081653 METAR KBLI 081653Z VRB06KT 10SM FEW024 11/04 A3041 RMK AO2 SLP305 T01060044=
200905081553 METAR KBLI 081553Z 17009KT 10SM FEW018 10/04 A3041 RMK AO2 SLP303 T01000039=
200905081453 METAR KBLI 081453Z 15008KT 10SM FEW016 OVC070 09/04 A3040 RMK AO2 SLP301 T00940044 51006=
200905081353 METAR KBLI 081353Z 17005KT 10SM FEW070 07/04 A3039 RMK AO2 SLP301 T00720039=
200905081253 METAR KBLI 081253Z AUTO 00000KT 10SM CLR 05/03 A3038 RMK AO2 SLP297 T00500028=
200905081153 METAR KBLI 081153Z AUTO 16006KT 10SM CLR 06/02 A3038 RMK AO2 SLP296 70019 T00560022 10061 20039 50002=
200905081053 METAR KBLI 081053Z 17004KT 10SM FEW049 06/03 A3038 RMK AO2 SLP296 T00560028=
200905080953 METAR KBLI 080953Z 17004KT 10SM SCT047 06/03 A3038 RMK AO2 SLP295 T00610028=
200905080853 METAR KBLI 080853Z 16004KT 10SM BKN049 06/03 A3037 RMK AO2 SLP294 T00560033 51007=
200905080753 METAR KBLI 080753Z 00000KT 10SM CLR 04/02 A3037 RMK AO2 SLP292 T00390022 401280039=
200905080653 METAR KBLI 080653Z 00000KT 10SM CLR 06/03 A3036 RMK AO2 SLP290 T00560028=
200905080553 METAR KBLI 080553Z 00000KT 10SM CLR 06/03 A3035 RMK AO2 SLP287 T00560033 10128 20056 51019=
200905080453 METAR KBLI 080453Z 00000KT 10SM CLR 07/04 A3034 RMK AO2 SLP282 T00720039=
200905080353 METAR KBLI 080353Z VRB03KT 10SM SCT042 10/03 A3032 RMK AO2 SLP275 T01000033=
200905080253 METAR KBLI 080253Z 17005KT 10SM FEW050 11/04 A3030 RMK AO2 SLP267 T01060044 53006=
200905080153 METAR KBLI 080153Z 16008KT 10SM BKN049 11/04 A3029 RMK AO2 SLP264 T01110044=
200905080053 METAR KBLI 080053Z 16009KT 10SM BKN047 12/04 A3028 RMK AO2 SLP262 T01170039=
200905072353 METAR KBLI 072353Z 16011G16KT 10SM CLR 12/04 A3028 RMK AO2 SLP260 60001 T01220044 10128 20089 51005=
200905072253 METAR KBLI 072253Z 16012KT 10SM BKN060 13/05 A3028 RMK AO2 SLP260 T01280050=
200905072153 METAR KBLI 072153Z 16012G17KT 10SM OVC049 12/06 A3027 RMK AO2 RAE2058 SLP258 P0000 T01170056=
200905072053 METAR KBLI 072053Z 17010G16KT 10SM -RA OVC045 11/06 A3026 RMK AO2 RAE21B39 SLP254 P0000 60001 T01060056 51020=
200905071953 METAR KBLI 071953Z 16011G17KT 10SM -RA OVC045 10/06 A3024 RMK AO2 RAE26B51 SLP249 P0000 T01000061=
200905071853 METAR KBLI 071853Z 17009KT 10SM -RA SCT032 OVC045 09/06 A3023 RMK AO2 RAB00 SLP245 P0001 T00890056=
200905071823 SPECI KBLI 071823Z 17010G16KT 10SM -RA FEW018 BKN036 OVC045 09/06 A3022 RMK AO2 RAB00 P0000=
200905071823 SPECI KBLI 071823Z 17010G16KT 10SM -RA FEW018 BKN036 OVC045 09/06 A3022 RMK AO2 RAB00 P0000=
200905071753 METAR KBLI 071753Z 17011G17KT 10SM FEW010 BKN025 OVC048 09/06 A3020 RMK AO2 SLP235 60018 T00890061 10089 20078 52028=
200905071653 METAR KBLI 071653Z 17007KT 10SM SCT015 BKN026 OVC042 08/06 A3017 RMK AO2 RAE45 SLP225 P0001 T00830056=
200905071553 METAR KBLI 071553Z 17009G18KT 10SM -RA SCT018 OVC040 08/05 A3015 RMK AO2 SLP218 P0002 T00830050=
200905071453 METAR KBLI 071453Z 18007G14KT 10SM -RA FEW018 OVC042 08/05 A3012 RMK AO2 SLP207 P0003 60015 T00780050 53027=
200905071423 SPECI KBLI 071423Z 18009KT 10SM -RA BKN034 OVC048 08/04 A3011 RMK AO2 P0003=
200905071423 SPECI KBLI 071423Z 18009KT 10SM -RA BKN034 OVC048 08/04 A3011 RMK AO2 P0003=
200905071353 METAR KBLI 071353Z 17008KT 7SM RA BKN027 OVC032 08/04 A3009 RMK AO2 SLP199 P0012 T00780039=
200905071253 METAR KBLI 071253Z AUTO 18007KT 10SM -RA BKN060 OVC070 08/03 A3006 RMK AO2 RAB27 SLP187 P0000 T00830033=
200905071153 METAR KBLI 071153Z AUTO 17005KT 10SM OVC080 09/02 A3004 RMK AO2 SLP180 60000 70057 T00890017 10094 20083 53019=
200905071053 METAR KBLI 071053Z AUTO VRB04KT 10SM OVC070 09/02 A3001 RMK AO2 RAB05E14 SLP172 P0000 T00890022=
200905070953 METAR KBLI 070953Z AUTO 00000KT 10SM OVC080 09/03 A3000 RMK AO2 SLP166 T00890028=
200905070853 METAR KBLI 070853Z AUTO VRB06KT 10SM OVC080 09/04 A2998 RMK AO2 SLP159 60000 T00890039 53029=
200905070753 METAR KBLI 070753Z AUTO 00000KT 10SM FEW028 BKN060 OVC100 08/07 A2995 RMK AO2 SLP150 T00830067 401110050=
200905070653 METAR KBLI 070653Z AUTO 18003KT 10SM FEW029 OVC055 09/07 A2992 RMK AO2 RAE08B26E51 SLP138 P0000 T00890067=
200905070553 METAR KBLI 070553Z AUTO 17008KT 10SM -RA FEW030 BKN065 OVC085 09/06 A2990 RMK AO2 RAB14 SLP131 P0004 60041 T00890061 10106 20089 53020=
200905070534 SPECI KBLI 070534Z AUTO 16009G20KT 10SM SCT019 BKN030 OVC070 10/07 A2988 RMK AO2 RAB14E34 P0003=
200905070534 SPECI KBLI 070534Z AUTO 16009G20KT 10SM SCT019 BKN030 OVC070 10/07 A2988 RMK AO2 RAB14E34 P0003=
200905070527 SPECI KBLI 070527Z AUTO 18011G20KT 6SM -RA BR BKN021 BKN030 OVC047 10/08 A2989 RMK AO2 RAB14 P0003=
200905070527 SPECI KBLI 070527Z AUTO 18011G20KT 6SM -RA BR BKN021 BKN030 OVC047 10/08 A2989 RMK AO2 RAB14 P0003=
200905070453 METAR KBLI 070453Z 19008G14KT 10SM FEW019 BKN049 OVC060 11/07 A2986 RMK AO2 RAE41 SLP119 P0014 T01060072=
200905070442 SPECI KBLI 070442Z 18007G14KT 10SM SCT014 BKN049 OVC060 10/07 A2986 RMK AO2 RAE41 P0014=
200905070442 SPECI KBLI 070442Z 18007G14KT 10SM SCT014 BKN049 OVC060 10/07 A2986 RMK AO2 RAE41 P0014=
200905070408 SPECI KBLI 070408Z 00000KT 4SM RA BR OVC014 09/08 A2986 RMK AO2 P0006=
200905070408 SPECI KBLI 070408Z 00000KT 4SM RA BR OVC014 09/08 A2986 RMK AO2 P0006=
200905070353 METAR KBLI 070353Z VRB03KT 4SM RA BR OVC017 09/08 A2985 RMK AO2 RAB21 SLP116 P0004 T00940078=
200905070253 METAR KBLI 070253Z 09005KT 10SM OVC019 09/07 A2984 RMK AO2 RAE50 SLP111 P0003 60019 T00940067 50001=
200905070153 METAR KBLI 070153Z 00000KT 7SM -RA OVC019 09/07 A2984 RMK AO2 SLP112 P0007 T00940072=
200905070053 METAR KBLI 070053Z 00000KT 4SM -RA BR OVC019 09/07 A2984 RMK AO2 SLP113 P0009 T00940072=
200905062353 METAR KBLI 062353Z 02004KT 6SM -RA OVC027 10/07 A2983 RMK AO2 SLP110 P0003 60016 T01000072 10111 20100 53003=
200905062320 SPECI KBLI 062320Z 06004KT 10SM -RA OVC029 10/07 A2983 RMK AO2 P0001=
200905062320 SPECI KBLI 062320Z 06004KT 10SM -RA OVC029 10/07 A2983 RMK AO2 P0001=
200905062253 METAR KBLI 062253Z 05005KT 10SM -RA OVC031 10/07 A2983 RMK AO2 SLP108 P0003 T01000072=
200905062153 METAR KBLI 062153Z 07004KT 8SM -RA BKN037 OVC045 10/07 A2983 RMK AO2 SLP108 P0004 T01000072=
200905062104 SPECI KBLI 062104Z 10005KT 8SM -RA FEW013 BKN032 OVC039 11/07 A2982 RMK AO2 P0001=
200905062104 SPECI KBLI 062104Z 10005KT 8SM -RA FEW013 BKN032 OVC039 11/07 A2982 RMK AO2 P0001=
200905062053 METAR KBLI 062053Z 09004KT 10SM -RA FEW013 BKN021 OVC041 11/07 A2982 RMK AO2 SLP107 P0002 60006 T01060067 56005=
200905062008 SPECI KBLI 062008Z 16003KT 8SM -RA FEW013 BKN021 OVC036 11/08 A2983 RMK AO2 P0001=
200905062008 SPECI KBLI 062008Z 16003KT 8SM -RA FEW013 BKN021 OVC036 11/08 A2983 RMK AO2 P0001=
200905061953 METAR KBLI 061953Z 09004KT 9SM -RA SCT025 OVC038 11/08 A2983 RMK AO2 SLP108 P0003 T01060078=
200905061853 METAR KBLI 061853Z VRB04KT 10SM -RA FEW034 OVC043 11/07 A2983 RMK AO2 SLP109 P0001 T01110072=
200905061753 METAR KBLI 061753Z 02006KT 10SM -RA BKN041 OVC060 11/06 A2984 RMK AO2 RAB50 SLP111 P0000 60000 T01110061 10111 20056 58007=
200905061653 METAR KBLI 061653Z 04006KT 10SM FEW044 09/06 A2985 RMK AO2 SLP115 T00940056=
200905061553 METAR KBLI 061553Z 01006KT 10SM OVC040 09/06 A2986 RMK AO2 SLP118 T00890056=
200905061453 METAR KBLI 061453Z 04004KT 10SM BKN044 07/05 A2986 RMK AO2 SLP120 T00720050 58003=
200905061353 METAR KBLI 061353Z 36003KT 10SM BKN040 OVC047 06/04 A2987 RMK AO2 SLP123 T00610044=
200905061253 METAR KBLI 061253Z AUTO 00000KT 10SM OVC034 06/04 A2986 RMK AO2 SLP120 T00610044=
200905061153 METAR KBLI 061153Z AUTO 03003KT 10SM BKN034 06/04 A2987 RMK AO2 SLP123 60001 70021 T00560039 10089 20050 58023=
200905061053 METAR KBLI 061053Z AUTO 00000KT 10SM SCT039 OVC095 06/04 A2991 RMK AO2 SLP135 T00610044=
200905060953 METAR KBLI 060953Z AUTO 00000KT 10SM BKN047 07/05 A2992 RMK AO2 SLP141 T00670050=
200905060853 METAR KBLI 060853Z AUTO 00000KT 10SM FEW038 OVC085 07/06 A2994 RMK AO2 RAE22 SLP145 P0001 60001 T00720056 58009=
200905060753 METAR KBLI 060753Z AUTO 17003KT 7SM -RA OVC037 08/06 A2996 RMK AO2 RAB50 SLP153 P0000 T00780061 401330078=
200905060653 METAR KBLI 060653Z AUTO 13010KT 10SM OVC045 08/06 A2997 RMK AO2 SLP154 T00830056=
200905060553 METAR KBLI 060553Z AUTO 16008KT 10SM OVC055 09/06 A2997 RMK AO2 SLP155 60008 T00890056 10106 20083 51021=
200905060453 METAR KBLI 060453Z 16006KT 10SM BKN047 OVC055 08/06 A2996 RMK AO2 RAE15 SLP154 P0000 T00830061=
200905060353 METAR KBLI 060353Z 17003KT 10SM -RA BKN049 OVC055 09/06 A2993 RMK AO2 SLP143 P0003 T00890061=
200905060253 METAR KBLI 060253Z 16003KT 8SM -RA BKN043 OVC050 09/06 A2991 RMK AO2 SLP134 P0003 60005 T00940061 53020=
200905060153 METAR KBLI 060153Z 16007KT 6SM -RA BKN045 OVC055 09/07 A2988 RMK AO2 RAE05B42 SLP125 P0002 T00940067=
200905060053 METAR KBLI 060053Z 19003KT 10SM -RA OVC037 10/06 A2987 RMK AO2 RAB48 SLP120 P0000 T01000061=
200905052353 METAR KBLI 052353Z 00000KT 6SM HZ OVC031 10/07 A2985 RMK AO2 RAE24 SLP113 P0002 60012 T01000067 10133 20083 51029=
200905052253 METAR KBLI 052253Z VRB06KT 6SM -RA BR FEW014 OVC030 08/07 A2983 RMK AO2 RAB25 SLP111 P0010 T00830067=
200905052246 SPECI KBLI 052246Z VRB05KT 2 1/2SM RA BR FEW014 SCT023 OVC030 08/07 A2983 RMK AO2 RAB25 P0009=
200905052246 SPECI KBLI 052246Z VRB05KT 2 1/2SM RA BR FEW014 SCT023 OVC030 08/07 A2983 RMK AO2 RAB25 P0009=
200905052237 SPECI KBLI 052237Z 26008G22KT 1 3/4SM +RA BR FEW014 BKN023 OVC040 08/06 A2983 RMK AO2 RAB25 P0007=
200905052237 SPECI KBLI 052237Z 26008G22KT 1 3/4SM +RA BR FEW014 BKN023 OVC040 08/06 A2983 RMK AO2 RAB25 P0007=
200905052230 SPECI KBLI 052230Z 28014G22KT 7SM -RA FEW014 BKN023 OVC044 09/06 A2983 RMK AO2 RAB25 P0000=
200905052230 SPECI KBLI 052230Z 28014G22KT 7SM -RA FEW014 BKN023 OVC044 09/06 A2983 RMK AO2 RAB25 P0000=
200905052153 METAR KBLI 052153Z 17014G23KT 10SM BKN038 OVC046 12/07 A2978 RMK AO2 PK WND 17027/2059 SLP092 T01220067=
200905052053 METAR KBLI 052053Z 16015G25KT 10SM OVC037 13/07 A2976 RMK AO2 SLP084 T01280067 51019=
200905051953 METAR KBLI 051953Z 17011G26KT 10SM FEW029 OVC036 12/07 A2975 RMK AO2 PK WND 18026/1949 SLP080 T01220067=
200905051853 METAR KBLI 051853Z 17015G18KT 10SM OVC034 12/06 A2973 RMK AO2 SLP075 T01220061=
200905051753 METAR KBLI 051753Z 17011G19KT 10SM OVC034 11/06 A2970 RMK AO2 SLP066 60000 T01110061 10111 20100 51051=
200905051653 METAR KBLI 051653Z 16016G26KT 10SM FEW020 BKN030 OVC080 11/06 A2966 RMK AO2 PK WND 15028/1559 SLP052 T01060061=
200905051553 METAR KBLI 051553Z 15013G24KT 10SM BKN075 BKN090 11/06 A2961 RMK AO2 PK WND 15026/1458 SLP034 T01060056=
200905051453 METAR KBLI 051453Z 15016G26KT 10SM FEW022 SCT080 BKN110 10/05 A2955 RMK AO2 PK WND 15026/1445 SLP014 60000 T01000050 53029=
200905051353 METAR KBLI 051353Z 15018G25KT 10SM SCT022 OVC110 10/05 A2952 RMK AO2 PK WND 16032/1321 SLP001 T01000050=
200905051253 METAR KBLI 051253Z AUTO 16018G28KT 10SM SCT024 BKN070 BKN090 11/06 A2946 RMK AO2 PK WND 17029/1239 RAB13E22 SLP984 P0000 T01060061=
200905051219 SPECI KBLI 051219Z AUTO 15017G23KT 10SM -RA BKN024 BKN055 OVC075 11/07 A2944 RMK AO2 RAB13 P0000=
200905051219 SPECI KBLI 051219Z AUTO 15017G23KT 10SM -RA BKN024 BKN055 OVC075 11/07 A2944 RMK AO2 RAB13 P0000=
200905051153 METAR KBLI 051153Z AUTO 16019G26KT 10SM BKN065 OVC085 11/06 A2943 RMK AO2 PK WND 16035/1118 SLP973 60010 70016 T01060061 10133 20106 53031=
200905051053 METAR KBLI 051053Z AUTO 16022G31KT 10SM FEW021 BKN090 OVC110 11/07 A2939 RMK AO2 PK WND 17034/1016 RAE0959 SLP960 P0000 T01060067=
200905050953 METAR KBLI 050953Z AUTO 15020G30KT 10SM -RA BKN080 OVC090 11/07 A2935 RMK AO2 PK WND 14032/0939 SLP946 P0006 T01060067=
200905050853 METAR KBLI 050853Z AUTO 15017G28KT 5SM RA FEW034 BKN044 OVC060 11/08 A2934 RMK AO2 PK WND 15031/0756 RAB18 SLP942 P0003 60004 T01110078 53003=
200905050753 METAR KBLI 050753Z AUTO 14023G31KT 10SM OVC100 13/07 A2932 RMK AO2 PK WND 15032/0743 RAE02 SLP935 P0000 T01280067 401670039=
200905050653 METAR KBLI 050653Z AUTO 14021G28KT 10SM -RA BKN065 BKN090 OVC110 12/07 A2931 RMK AO2 PK WND 14028/0651 RAB17 SLP930 P0001 T01220072=
200905050553 METAR KBLI 050553Z AUTO 14019G30KT 10SM SCT048 BKN090 OVC110 13/06 A2933 RMK AO2 PK WND 14031/0533 RAE13 SLP938 P0000 60006 T01280061 10156 20106 58012=
200905050453 METAR KBLI 050453Z 13012G24KT 10SM -RA BKN040 OVC049 11/07 A2934 RMK AO2 PK WND 11028/0435 SLP943 P0002 T01110072=
200905050353 METAR KBLI 050353Z 09008G18KT 10SM -RA OVC055 11/07 A2936 RMK AO2 SLP949 P0002 T01110072=
200905050253 METAR KBLI 050253Z 14012G19KT 10SM -RA BKN047 OVC060 13/07 A2936 RMK AO2 PK WND 14029/0214 SLP950 P0002 60002 T01280067 56029=
200905050153 METAR KBLI 050153Z 12005KT 10SM -RA OVC060 15/04 A2938 RMK AO2 RAB02 SLP954 P0000 T01500044=
200905050053 METAR KBLI 050053Z 01003KT 10SM BKN065 BKN080 14/06 A2942 RMK AO2 RAB2355E06 SLP970 P0000 T01390056=
200905042353 METAR KBLI 042353Z 00000KT 10SM SCT060 BKN080 14/04 A2945 RMK AO2 PRESFR SLP980 T01440044 10167 20144 56072=
200905042253 METAR KBLI 042253Z 00000KT 10SM CLR 16/03 A2952 RMK AO2 SLP004 T01610033=
200905042153 METAR KBLI 042153Z 01005KT 10SM CLR 16/04 A2959 RMK AO2 SLP025 T01610039=
200905042053 METAR KBLI 042053Z 18004KT 10SM SCT090 16/02 A2966 RMK AO2 SLP052 T01560017 58049=
200905041953 METAR KBLI 041953Z VRB06KT 10SM FEW085 16/03 A2972 RMK AO2 SLP070 T01560028=
200905041853 METAR KBLI 041853Z 18007KT 10SM BKN085 16/03 A2977 RMK AO2 SLP087 T01560033=
200905041753 METAR KBLI 041753Z 11006KT 10SM SCT047 BKN095 15/04 A2981 RMK AO2 SLP101 T01500039 10150 20044 58024=
200905041653 METAR KBLI 041653Z 15012KT 10SM BKN080 14/03 A2985 RMK AO2 SLP114 T01390028=
200905041553 METAR KBLI 041553Z 03003KT 10SM BKN080 12/04 A2987 RMK AO2 SLP121 T01170044=
200905041453 METAR KBLI 041453Z 01005KT 10SM BKN100 09/05 A2988 RMK AO2 SLP126 T00890050 56019=
200905041353 METAR KBLI 041353Z 02003KT 10SM SCT095 07/04 A2990 RMK AO2 SLP132 T00720044=
200905041253 METAR KBLI 041253Z AUTO 02003KT 10SM BKN110 06/03 A2992 RMK AO2 SLP139 T00560028=
200905041153 METAR KBLI 041153Z AUTO 02003KT 10SM FEW100 04/02 A2994 RMK AO2 SLP145 T00440022 10083 20039 58016=
200905041053 METAR KBLI 041053Z AUTO 00000KT 10SM SCT070 BKN110 04/03 A2996 RMK AO2 SLP152 T00440033=
200905040953 METAR KBLI 040953Z AUTO 00000KT 10SM CLR 06/03 A2997 RMK AO2 SLP157 T00560033=
200905040853 METAR KBLI 040853Z AUTO 00000KT 10SM CLR 07/04 A2999 RMK AO2 SLP161 T00670039 58007=
200905040753 METAR KBLI 040753Z AUTO 00000KT 10SM CLR 07/04 A2999 RMK AO2 SLP163 T00670044 401610056=
200905040653 METAR KBLI 040653Z AUTO 00000KT 10SM SCT090 08/04 A3001 RMK AO2 SLP168 T00830044=
200905040553 METAR KBLI 040553Z AUTO 00000KT 10SM FEW090 07/04 A3001 RMK AO2 SLP168 T00720039 10156 20072 50002=
200905040453 METAR KBLI 040453Z 00000KT 10SM FEW080 OVC095 10/06 A3001 RMK AO2 SLP170 T01000056=
200905040353 METAR KBLI 040353Z 00000KT 10SM OVC075 12/04 A3002 RMK AO2 SLP173 T01170044=
200905040253 METAR KBLI 040253Z 00000KT 10SM SCT075 OVC090 12/03 A3000 RMK AO2 SLP167 T01220033 51004=
200905040153 METAR KBLI 040153Z VRB04KT 10SM OVC100 13/03 A3000 RMK AO2 SLP167 T01330028=
200905040053 METAR KBLI 040053Z 19003KT 10SM FEW110 14/03 A3000 RMK AO2 SLP164 T01440033=
200905032353 METAR KBLI 032353Z 16006KT 10SM CLR 15/03 A2999 RMK AO2 SLP162 T01500033 10161 20122 58005=
200905032253 METAR KBLI 032253Z VRB03KT 10SM SCT035 15/M01 A3000 RMK AO2 SLP165 T01501006=
200905032153 METAR KBLI 032153Z 17003KT 10SM SCT035 14/00 A3001 RMK AO2 SLP168 T01440000=
200905032053 METAR KBLI 032053Z 15006KT 10SM FEW025 15/03 A3001 RMK AO2 SLP168 T01500028 58001=
200905031953 METAR KBLI 031953Z 21006KT 10SM CLR 14/03 A3001 RMK AO2 SLP168 T01440028=
200905031853 METAR KBLI 031853Z VRB03KT 10SM FEW025 13/06 A3001 RMK AO2 SLP169 T01330056=
200905031753 METAR KBLI 031753Z 19006KT 10SM CLR 12/06 A3001 RMK AO2 SLP169 T01220061 10128 20056 51005=
200905031653 METAR KBLI 031653Z 15007KT 10SM CLR 11/06 A3000 RMK AO2 SLP167 T01110061=
200905031553 METAR KBLI 031553Z 17007KT 10SM CLR 11/06 A3000 RMK AO2 SLP165 T01060061=
200905031453 METAR KBLI 031453Z 17005KT 10SM CLR 10/06 A2999 RMK AO2 SLP164 T01000056 56005=
200905031353 METAR KBLI 031353Z 12003KT 10SM CLR 07/06 A2999 RMK AO2 SLP164 T00720056=
200905031253 METAR KBLI 031253Z AUTO 00000KT 10SM BKN047 07/05 A3000 RMK AO2 SLP165 T00720050=
200905031153 METAR KBLI 031153Z AUTO 00000KT 10SM FEW046 BKN075 06/05 A3001 RMK AO2 SLP169 60000 70016 T00610050 10100 20061 53005=
200905031053 METAR KBLI 031053Z AUTO 17003KT 10SM CLR 08/06 A3000 RMK AO2 SLP166 T00780061=
200905030953 METAR KBLI 030953Z AUTO 16005KT 10SM FEW055 09/06 A3000 RMK AO2 SLP165 T00940061=
200905030853 METAR KBLI 030853Z AUTO 16006KT 10SM OVC060 10/07 A3000 RMK AO2 SLP164 60000 T01000067 51037=
200905030753 METAR KBLI 030753Z AUTO 17005KT 10SM SCT060 BKN075 OVC090 09/07 A2998 RMK AO2 SLP160 T00940067 401670050=
200905030653 METAR KBLI 030653Z AUTO 16003KT 10SM BKN070 10/06 A2994 RMK AO2 RAE0558 PRESRR SLP146 P0000 T01000061=
200905030553 METAR KBLI 030553Z AUTO 18003KT 10SM -RA FEW029 OVC050 10/07 A2989 RMK AO2 PK WND 17035/0508 SLP127 P0009 60016 T01000072 10167 20100 53049=
200905030542 SPECI KBLI 030542Z AUTO 18006KT 7SM -RA FEW023 BKN042 OVC049 11/07 A2988 RMK AO2 PK WND 17035/0508 P0009=
200905030542 SPECI KBLI 030542Z AUTO 18006KT 7SM -RA FEW023 BKN042 OVC049 11/07 A2988 RMK AO2 PK WND 17035/0508 P0009=
200905030515 SPECI KBLI 030515Z 16022G35KT 10SM -RA BKN023 BKN031 OVC065 12/08 A2983 RMK AO2 PK WND 17035/0508 PRESRR P0001=
200905030515 SPECI KBLI 030515Z 16022G35KT 10SM -RA BKN023 BKN031 OVC065 12/08 A2983 RMK AO2 PK WND 17035/0508 PRESRR P0001=
200905030453 METAR KBLI 030453Z 15026G38KT 7SM -RA SCT026 SCT033 OVC060 12/08 A2980 RMK AO2 PK WND 15038/0446 SLP099 P0003 T01170083=
200905030353 METAR KBLI 030353Z 14012G19KT 9SM -RA BKN048 OVC060 12/09 A2976 RMK AO2 WSHFT 0243 SLP086 P0004 T01220089=
200905030303 SPECI KBLI 030303Z 16009G18KT 10SM -RA OVC060 13/08 A2975 RMK AO2 WSHFT 0243 P0001=
200905030303 SPECI KBLI 030303Z 16009G18KT 10SM -RA OVC060 13/08 A2975 RMK AO2 WSHFT 0243 P0001=
200905030253 METAR KBLI 030253Z 17012G25KT 7SM -RA FEW049 OVC060 13/08 A2974 RMK AO2 RAE0159B31 SLP078 P0000 60000 T01280083 55001=
200905030153 METAR KBLI 030153Z 02006KT 10SM -RA SCT045 BKN065 16/07 A2971 RMK AO2 RAB45 SLP067 P0000 T01560072=
200905030053 METAR KBLI 030053Z 03010KT 10SM CLR 16/07 A2972 RMK AO2 RAE00 SLP071 P0000 T01610067=
200905022353 METAR KBLI 022353Z 03008KT 10SM -RA OVC070 15/08 A2975 RMK AO2 RAE12B49 SLP079 P0000 60000 T01500078 10167 20139 58015=
200905022253 METAR KBLI 022253Z 18007KT 10SM -RA SCT046 OVC060 14/08 A2977 RMK AO2 RAB45 SLP088 P0000 T01390078=
200905022153 METAR KBLI 022153Z 18006KT 10SM FEW048 16/06 A2978 RMK AO2 SLP091 T01610056=
200905022053 METAR KBLI 022053Z 16007G15KT 10SM FEW048 BKN070 16/05 A2979 RMK AO2 RAE36 SLP094 P0000 60000 T01610050 50001=
200905021953 METAR KBLI 021953Z 15006G14KT 10SM -RA SCT055 BKN070 15/07 A2979 RMK AO2 RAB48 SLP095 P0000 T01500072=
200905021853 METAR KBLI 021853Z 17010KT 10SM CLR 16/06 A2979 RMK AO2 SLP094 T01610061=
200905021753 METAR KBLI 021753Z 16008KT 10SM CLR 16/06 A2979 RMK AO2 SLP094 T01610056 10161 20050 51007=
200905021653 METAR KBLI 021653Z 16009KT 10SM CLR 16/06 A2978 RMK AO2 SLP092 T01560056=
200905021553 METAR KBLI 021553Z 00000KT 10SM FEW110 13/06 A2978 RMK AO2 SLP090 T01330056=
200905021453 METAR KBLI 021453Z 00000KT 10SM OVC100 11/04 A2977 RMK AO2 SLP086 T01060044 53009=
200905021353 METAR KBLI 021353Z 00000KT 10SM BKN095 08/03 A2974 RMK AO2 SLP079 T00830033=
200905021253 METAR KBLI 021253Z AUTO 00000KT 10SM BKN100 07/03 A2974 RMK AO2 SLP078 T00670028=
200905021153 METAR KBLI 021153Z AUTO 00000KT 10SM CLR 06/02 A2974 RMK AO2 SLP077 T00560022 10094 20050 56002=
200905021053 METAR KBLI 021053Z AUTO 00000KT 10SM CLR 05/02 A2974 RMK AO2 SLP077 T00500017=
200905020953 METAR KBLI 020953Z AUTO 00000KT 10SM CLR 06/02 A2973 RMK AO2 SLP076 T00560022=
200905020853 METAR KBLI 020853Z AUTO 00000KT 10SM CLR 08/02 A2975 RMK AO2 SLP078 T00780022 58009=
200905020753 METAR KBLI 020753Z AUTO 00000KT 10SM CLR 06/03 A2975 RMK AO2 SLP083 T00610033 402220028=
200905020653 METAR KBLI 020653Z AUTO 00000KT 10SM CLR 07/04 A2976 RMK AO2 SLP086 T00720039=
200905020553 METAR KBLI 020553Z AUTO 00000KT 10SM CLR 09/04 A2977 RMK AO2 SLP089 T00940044 10206 20078 56012=
200905020453 METAR KBLI 020453Z VRB03KT 10SM CLR 08/04 A2979 RMK AO2 SLP093 T00780044=
200905020353 METAR KBLI 020353Z 00000KT 10SM CLR 12/06 A2979 RMK AO2 SLP096 T01170061=
200905020253 METAR KBLI 020253Z 16003KT 10SM CLR 15/06 A2981 RMK AO2 SLP101 T01500056 56020=
200905020153 METAR KBLI 020153Z 27004KT 10SM CLR 18/04 A2982 RMK AO2 SLP105 T01830044=
200905020053 METAR KBLI 020053Z 23004KT 10SM CLR 19/06 A2984 RMK AO2 SLP112 T01890056=
200905012353 METAR KBLI 012353Z 27006KT 10SM CLR 20/06 A2987 RMK AO2 SLP121 T02000061 10222 20183 58030=
200905012253 METAR KBLI 012253Z 26008KT 10SM CLR 19/06 A2990 RMK AO2 SLP131 T01940056=
200905012153 METAR KBLI 012153Z 27008KT 10SM CLR 19/06 A2993 RMK AO2 SLP143 T01890056=
200905012053 METAR KBLI 012053Z 04005KT 10SM CLR 22/M02 A2996 RMK AO2 SLP152 T02221017 58030=
200905011953 METAR KBLI 011953Z 35008KT 10SM CLR 21/M01 A2999 RMK AO2 SLP162 T02111011=
200905011853 METAR KBLI 011853Z 35005KT 10SM CLR 21/01 A3003 RMK AO2 SLP174 T02060011=
200905011753 METAR KBLI 011753Z VRB05KT 10SM CLR 18/04 A3005 RMK AO2 SLP182 T01830039 10183 20033 58015=
200905011653 METAR KBLI 011653Z 35005KT 10SM CLR 16/04 A3007 RMK AO2 SLP188 T01610039=
200905011553 METAR KBLI 011553Z 01006KT 10SM CLR 13/04 A3008 RMK AO2 SLP193 T01280039=
200905011453 METAR KBLI 011453Z 36004KT 10SM CLR 09/04 A3009 RMK AO2 SLP197 T00940039 56008=
200905011353 METAR KBLI 011353Z 00000KT 10SM CLR 07/02 A3010 RMK AO2 SLP201 T00670022=
200905011253 METAR KBLI 011253Z AUTO 35004KT 10SM CLR 04/02 A3010 RMK AO2 SLP201 T00390017=
200905011153 METAR KBLI 011153Z AUTO 00000KT 10SM CLR 06/02 A3012 RMK AO2 SLP206 T00610022 10089 20028 56013=
200905011053 METAR KBLI 011053Z AUTO 34003KT 10SM CLR 03/02 A3013 RMK AO2 SLP209 T00330017=
200905010953 METAR KBLI 010953Z AUTO 00000KT 10SM CLR 04/02 A3014 RMK AO2 SLP214 T00440022=
200905010853 METAR KBLI 010853Z AUTO 00000KT 10SM CLR 06/02 A3015 RMK AO2 SLP218 T00560022 58003=
200905010753 METAR KBLI 010753Z AUTO 00000KT 10SM CLR 07/03 A3016 RMK AO2 SLP221 T00670033 401720061=
200905010653 METAR KBLI 010653Z AUTO 00000KT 10SM FEW090 07/03 A3016 RMK AO2 SLP220 T00670033=
200905010553 METAR KBLI 010553Z AUTO 00000KT 10SM CLR 08/04 A3016 RMK AO2 SLP221 T00830039 10172 20072 58002=
200905010453 METAR KBLI 010453Z 00000KT 10SM CLR 09/04 A3017 RMK AO2 SLP225 T00940039=
200905010353 METAR KBLI 010353Z 00000KT 10SM CLR 11/03 A3017 RMK AO2 SLP223 T01060028=
200905010253 METAR KBLI 010253Z 00000KT 10SM CLR 13/03 A3017 RMK AO2 SLP223 T01330033 56011=
200905010153 METAR KBLI 010153Z VRB03KT 10SM CLR 16/00 A3017 RMK AO2 SLP225 T01610000=
200905010053 METAR KBLI 010053Z 26003KT 10SM CLR 17/01 A3019 RMK AO2 SLP229 T01670011=

# No short TAF reports from KBLI in databse.

###################################
#  large TAF from KBLI
###################################
200905312320 TAF KBLI 312320Z 0100/0124 VRB05KT P6SM BKN250 FM010400 00000KT
                       P6SM BKN250 FM011700 34005KT P6SM SCT250=
200905311720 TAF KBLI 311720Z 3118/0118 19003KT P6SM BKN250 FM312000 25008KT
                       P6SM BKN250 FM010400 VRB05KT P6SM BKN250
                       FM011100 04009KT P6SM BKN250=
200905311132 TAF KBLI 311132Z 3112/0112 20004KT P6SM BKN250 FM311800 25008KT
                       P6SM BKN250 FM010600 VRB05KT P6SM BKN250
                       FM011100 04009KT P6SM BKN250=
200905310525 TAF KBLI 310525Z 3106/0106 22004KT P6SM BKN250 FM311800 25008KT
                       P6SM BKN250=
200905302320 TAF KBLI 302320Z 3100/3124 25007KT P6SM BKN250 FM310400 20003KT
                       P6SM BKN250 FM311800 25007KT P6SM BKN250=
200905301720 TAF KBLI 301720Z 3018/3118 24007KT P6SM BKN250 FM310400 20003KT
                       P6SM BKN200=
200905301126 TAF KBLI 301126Z 3012/3112 20007KT P6SM SKC FM301800 23008KT P6SM
                       FEW250 FM310400 20004KT P6SM FEW250=
200905300525 TAF KBLI 300525Z 3006/3106 20010KT P6SM SKC FM301800 23008KT P6SM
                       SKC=
200905292320 TAF KBLI 292320Z 3000/3024 22006KT P6SM SKC FM300400 19004KT P6SM
                       SKC FM301800 23005KT P6SM SKC=
200905291740 TAF KBLI 291740Z 2918/3018 24006KT P6SM SKC FM300400 19004KT P6SM
                       SKC FM301700 22005KT P6SM SKC=
200905291120 TAF KBLI 291120Z 2912/3012 00000KT P6SM SKC FM291900 22007KT P6SM
                       SKC FM300400 19006KT P6SM SKC=
200905290520 TAF KBLI 290520Z 2906/3006 00000KT P6SM SKC FM291900 22007KT P6SM
                       SKC=
200905282320 TAF KBLI 282320Z 2900/2924 VRB04KT P6SM SKC=
200905281720 TAF KBLI 281720Z 2818/2918 VRB04KT P6SM SKC=
200905281120 TAF KBLI 281120Z 2812/2912 00000KT P6SM SKC FM282000 23005KT P6SM
                       SKC FM290400 VRB03KT P6SM SKC=
200905280520 TAF KBLI 280520Z 2806/2906 00000KT P6SM SCT250 FM282000 33005KT
                       P6SM SKC=
200905272320 TAF KBLI 272320Z 2800/2824 17007KT P6SM SCT200 FM280500 05005KT
                       P6SM SCT200 FM282000 33008KT P6SM SKC=
200905271720 TAF KBLI 271720Z 2718/2818 16008KT P6SM SCT030 BKN200 FM272200
                       23008KT P6SM SCT050 BKN250 FM280400 02005KT
                       P6SM SCT200=
200905271309 KBLI 271309Z 2713/2812 16006KT P6SM SCT060 BKN200
                      TEMPO 2713/2715 BKN060 BKN200 FM272000 23005KT
                       P6SM SCT080 BKN200 FM280200 18007KT P6SM
                       SCT060 SCT200=
200905271120 TAF KBLI 271120Z 2712/2812 16006KT P6SM BKN200 FM272000 23005KT
                       P6SM SCT080 BKN200 FM280200 18007KT P6SM
                       SCT060 SCT200=
200905270520 TAF KBLI 270520Z 2706/2806 17007KT P6SM SCT040 FM270900 18008KT
                       P6SM SCT025 BKN040 FM272000 23005KT P6SM
                       SCT040 FM280200 18007KT P6SM SKC=
200905270358 KBLI 270358Z 2704/2724 17009KT P6SM SCT025 SCT060 FM270900 18008KT
                       P6SM SCT025 BKN040 FM271800 VRB05KT P6SM
                       SCT040=
200905262320 TAF KBLI 262320Z 2700/2724 18008KT P6SM SCT025 BKN050 FM270900
                       22007KT P6SM BKN025 FM271800 VRB05KT P6SM
                       SCT040=
200905261720 TAF KBLI 261720Z 2618/2718 17010G20KT P6SM VCSH SCT030 BKN050 BKN100
                       TEMPO 2620/2624 -RA BKN030 OVC050 FM270000
                       22010KT P6SM VCSH BKN025 OVC050 FM270600
                       20007KT P6SM VCSH BKN020 OVC040=
200905261424 KBLI 261424Z 2614/2712 18008KT P6SM SCT005 BKN025 OVC060
                      TEMPO 2614/2618 4SM -RA BR BKN005 OVC020
                       FM261800 18008KT P6SM -SHRA SCT020 BKN035
                       OVC050 FM262000 18008KT P6SM VCSH SCT020
                       BKN035 BKN050=
200905261309 KBLI 261309Z 2613/2712 17009KT 6SM -RA BR SCT005 OVC012
                      TEMPO 2613/2616 4SM -RA BR BKN005 OVC012
                       FM261600 15008KT P6SM -SHRA SCT020 BKN035
                       OVC050 FM262000 18008KT P6SM VCSH SCT020
                       BKN035 BKN050=
200905261144 KBLI 261144Z 2612/2712 18007KT P6SM -RA SCT022 OVC035
                      TEMPO 2612/2616 BKN020 OVC030 FM261600 15008KT
                       P6SM -SHRA SCT020 BKN035 OVC050 FM262000
                       18008KT P6SM VCSH SCT020 BKN035 BKN050=
200905261124 TAF KBLI 261124Z 2612/2712 18008KT P6SM -RA SCT040 OVC070 FM261600
                       15008KT P6SM -SHRA SCT020 BKN035 OVC050
                       FM262000 18008KT P6SM VCSH SCT020 BKN035
                       BKN050=
200905260520 TAF KBLI 260520Z 2606/2706 17008KT P6SM FEW050 BKN200 FM261200
                       15008KT P6SM SCT025 OVC050 FM261600 15008KT
                       P6SM -SHRA SCT020 BKN035 OVC050 FM262000
                       18008KT P6SM VCSH SCT020 BKN035 BKN050=
200905252325 TAF KBLI 252325Z 2600/2624 17012KT P6SM BKN200 FM260700 17008KT
                       P6SM BKN120 OVC200 FM261200 15008KT P6SM
                       OVC050 FM262200 15008KT P6SM -SHRA SCT020
                       BKN035 OVC050=
200905251738 TAF KBLI 251738Z 2518/2618 17012KT P6SM SCT200 FM260100 17008KT
                       P6SM SCT120 BKN200 FM260700 17008KT P6SM
                       BKN120 OVC200 FM261200 15008KT P6SM OVC050=
200905251122 TAF KBLI 251122Z 2512/2612 18007KT P6SM SCT200
                      TEMPO 2513/2517 18007KT P6SM BKN015 BKN200
                       FM251700 18007KT P6SM BKN200 FM260300 17007KT
                       P6SM OVC120 FM260900 18004KT P6SM VCSH OVC050=
200905250527 TAF KBLI 250527Z 2506/2606 18007KT P6SM SCT200
                      TEMPO 2513/2517 18007KT P6SM BKN015 BKN200
                       FM251700 18007KT P6SM BKN200 FM260300 17007KT
                       P6SM OVC120=
200905242334 TAF KBLI 242334Z 2500/2524 30006KT P6SM SKC FM250400 VRB03KT P6SM
                       SKC FM251300 18007KT P6SM BKN015 FM251700
                       18007KT P6SM SKC=
200905241738 TAF KBLI 241738Z 2418/2518 18007KT P6SM SKC FM251300 18007KT P6SM
                       BKN015 FM251700 18007KT P6SM SKC=
200905241302 KBLI 241302Z 2413/2512 18007KT P6SM SCT011
                      TEMPO 2413/2417 BKN011 FM241800 18007KT P6SM
                       SKC=
200905241120 TAF KBLI 241120Z 2412/2512 18007KT P6SM SKC=
200905240526 TAF KBLI 240526Z 2406/2506 00000KT P6SM SKC=
200905232320 TAF KBLI 232320Z 2400/2424 29006KT P6SM SKC FM240600 VRB03KT P6SM
                       SKC=
200905231724 TAF KBLI 231724Z 2318/2418 00000KT P6SM BKN015 FM231900 19006KT
                       P6SM SKC=
200905231508 KBLI 231508Z 2315/2412 18003KT P6SM OVC015 FM231800 22007KT P6SM
                       SKC=
200905231120 TAF KBLI 231120Z 2312/2412 18003KT P6SM SKC FM231800 22007KT P6SM
                       SKC=
200905230520 TAF KBLI 230520Z 2306/2406 18004KT P6SM SKC FM231200 19005KT P6SM
                       FEW020 FM231800 22007KT P6SM SKC=
200905222320 TAF KBLI 222320Z 2300/2324 21007KT P6SM SCT250 FM231200 19005KT
                       P6SM FEW020 FM231800 22007KT P6SM SKC=
200905221739 TAF KBLI 221739Z 2218/2318 20006KT P6SM SKC FM222000 23007KT P6SM
                       SCT250 FM231200 19005KT P6SM FEW020=
200905221121 TAF KBLI 221121Z 2212/2312 00000KT P6SM SKC FM221700 20006KT P6SM
                       SKC FM222000 23007KT P6SM SCT250=
200905220522 TAF KBLI 220522Z 2206/2306 00000KT P6SM SKC FM221700 20006KT P6SM
                       SCT250 FM222000 27007KT P6SM SCT250=
200905212323 TAF KBLI 212323Z 2200/2224 28007KT P6SM SKC FM220400 VRB03KT P6SM
                       SKC FM221700 20006KT P6SM SCT250 FM222000
                       27007KT P6SM SCT250=
200905211720 TAF KBLI 211720Z 2118/2218 29005KT P6SM SKC FM220400 VRB03KT P6SM
                       SKC FM221700 20006KT P6SM SCT250=
200905211120 TAF KBLI 211120Z 2112/2212 00000KT P6SM SKC FM211600 16005KT P6SM
                       SCT250 FM212000 23007KT P6SM SCT250=
200905210531 TAF KBLI 210531Z 2106/2206 18003KT P6SM SKC FM211600 16005KT P6SM
                       SCT250 FM212000 23007KT P6SM SCT250=
200905202335 TAF KBLI 202335Z 2100/2124 16010KT P6SM SCT040 FM210300 VRB03KT
                       P6SM SKC FM211600 16005KT P6SM SCT250 FM212000
                       23007KT P6SM SCT250=
200905201727 TAF KBLI 201727Z 2018/2118 17008KT P6SM SCT035 SCT050 FM202100
                       21007KT P6SM SCT050 FM210300 VRB04KT P6SM
                       SCT250=
200905201629 KBLI 201629Z 2016/2112 17008KT P6SM SCT050 BKN080 FM201800 19008KT
                       P6SM SCT035 SCT050
                      TEMPO 2018/2021 BKN035 BKN050 FM202100 21007KT
                       P6SM SCT050 FM210300 VRB04KT P6SM SCT250=
200905201121 TAF KBLI 201121Z 2012/2112 17006KT P6SM VCSH BKN050 OVC060 FM202100
                       17009KT P6SM SCT035 FM210200 21007KT P6SM
                       SKC=
200905200534 TAF KBLI 200534Z 2006/2106 08004KT P6SM VCSH BKN060 OVC080 FM200800
                       16008KT P6SM VCSH BKN025 OVC035 FM201700
                       17009KT P6SM SCT035 FM202100 21007KT P6SM
                       SKC=
200905192337 TAF KBLI 192337Z 2000/2024 19013G20KT P6SM VCSH SCT035 BKN050 FM200800
                       16008KT P6SM VCSH BKN025 OVC035 FM201700
                       17009KT P6SM SCT035 FM202100 21007KT P6SM
                       SKC=
200905191728 TAF KBLI 191728Z 1918/2018 16013KT P6SM VCSH SCT030 BKN060 FM192100
                       19013G20KT P6SM VCSH SCT030CB BKN060 FM200200
                       19009KT P6SM SCT030 BKN060 FM200800 19006KT
                       P6SM OVC025=
200905191142 TAF KBLI 191142Z 1912/2012 19009KT P6SM VCSH FEW018 OVC090 FM191800
                       19013KT P6SM VCSH SCT030 BKN060 FM192100
                       19013G20KT P6SM SCT030CB BKN060
                      PROB30 1921/2002 -SHRA OVC030CB FM200200
                       19009KT P6SM SCT030 BKN060
                      PROB30 2002/2006 -SHRA FM200800 19006KT P6SM
                       OVC025=
200905190546 TAF KBLI 190546Z 1906/2006 18008KT P6SM -RA SCT020 OVC040
                      TEMPO 1906/1908 BKN020 OVC040 FM190800 18008KT
                       P6SM SCT025 OVC050
                      TEMPO 1910/1912 BKN025 OVC050 FM191200 18013KT
                       P6SM OVC025 FM191800 18013KT P6SM SCT025
                       BKN050 FM192100 20013KT P6SM SCT030CB BKN050
                       PROB30 1921/2002 -SHRA OVC030CB FM200200
                       17006KT P6SM BKN050=
200905190232 KBLI 190232Z 1903/1924 18006KT 5SM -RA BR SCT020 OVC040 FM190400
                       18009KT 5SM -RA BR OVC020 FM191200 18009KT
                       P6SM -SHRA BKN015 OVC025 FM191800 20012KT
                       P6SM -SHRA SCT025 BKN040=
200905182320 TAF KBLI 182320Z 1900/1924 VRB04KT P6SM -RA BKN045 OVC090 FM190300
                       18006KT P6SM -RA BKN025 OVC045 FM190500
                       18006KT P6SM -RA OVC020 FM191200 18007KT
                       P6SM -SHRA BKN015 OVC025 FM191800 17007KT
                       P6SM -SHRA SCT025 BKN040=
200905181745 TAF KBLI 181745Z 1818/1918 18008KT P6SM BKN045 OVC090 FM190200
                       18006KT P6SM SCT025 OVC045
                      TEMPO 1902/1905 -RA FM190500 18006KT P6SM
                       -RA SCT025 OVC040 FM190700 18008KT P6SM
                       -RA OVC025 FM191000 17007KT P6SM -SHRA OVC018=
200905181124 TAF KBLI 181124Z 1812/1912 18009KT P6SM BKN070 OVC130 FM181400
                       18009KT P6SM SCT007 BKN070 OVC130 FM181800
                       18009KT P6SM SCT012 OVC070 FM182000 18009KT
                       P6SM SCT030 OVC060
                      TEMPO 1820/1822 -RA FM182200 18012KT P6SM
                       -RA SCT025 OVC040 FM190000 18012KT P6SM
                       -RA OVC025=
200905180905 KBLI 180905Z 1809/1906 17007KT P6SM BKN070 OVC130 FM181400 17007KT
                       P6SM BKN007 OVC070 FM181800 17007KT P6SM
                       BKN011 BKN060 OVC130 FM182000 19009KT P6SM
                       FEW030 OVC060
                      TEMPO 1820/1822 -RA FM182200 19012KT P6SM
                       -RA SCT025 OVC040 FM190000 19012KT P6SM
                       -RA OVC025=
200905180541 TAF KBLI 180541Z 1806/1906 VRB03KT P6SM FEW130 BKN200 FM181400
                       17007KT P6SM BKN007 OVC130 FM181800 17007KT
                       P6SM BKN011 BKN060 OVC130 FM182000 19009KT
                       P6SM FEW030 OVC060
                      TEMPO 1820/1822 -RA FM182200 19012KT P6SM
                       -RA SCT025 OVC040 FM190000 19012KT P6SM
                       -RA OVC025=
200905172334 TAF KBLI 172334Z 1800/1824 19008KT P6SM BKN200 FM181100 19005KT
                       P6SM SCT070 BKN200
                      TEMPO 1812/1816 SCT007 FM181800 23009KT P6SM
                       BKN100 BKN150=
200905171731 TAF KBLI 171731Z 1718/1818 19009KT P6SM BKN200 FM172000 20010KT
                       P6SM SCT080 BKN200 FM181100 19005KT P6SM
                       SCT010 SCT070 BKN200
                      TEMPO 1813/1817 BKN007=
200905171125 TAF KBLI 171125Z 1712/1812 17006KT P6SM VCFG SCT080 OVC200 FM171800
                       20008KT P6SM SCT080 BKN200 FM180300 17006KT
                       P6SM SCT080 BKN200=
200905170541 TAF KBLI 170541Z 1706/1806 VRB03KT P6SM FEW100 BKN200 FM171200
                       17005KT P6SM BKN100 OVC200 FM171800 20008KT
                       P6SM SCT100 BKN200 FM180300 17006KT P6SM
                       FEW100 BKN200=
200905162338 TAF KBLI 162338Z 1700/1724 VRB05KT P6SM BKN070 BKN200 FM171200
                       19006KT P6SM SCT050 BKN150 BKN200 FM171800
                       23007KT P6SM BKN050 BKN100=
200905161733 TAF KBLI 161733Z 1618/1718 22006KT P6SM BKN080 BKN200 FM170600
                       19004KT P6SM SCT100 BKN150=
200905161127 TAF KBLI 161127Z 1612/1712 VRB03KT P6SM BKN120 BKN200 FM161800
                       VRB03KT P6SM SCT120 BKN200 FM162100 24006KT
                       P6SM SCT200 FM170200 19004KT P6SM BKN200=
200905160521 TAF KBLI 160521Z 1606/1706 VRB03KT P6SM BKN200 FM162100 24006KT
                       P6SM SCT200 FM170200 19004KT P6SM BKN200=
200905152321 TAF KBLI 152321Z 1600/1624 25007KT P6SM SCT250 FM160700 19004KT
                       P6SM SCT250 FM161800 20007KT P6SM SCT200=
200905151730 TAF KBLI 151730Z 1518/1618 VRB04KT P6SM FEW250 FM152000 26007KT
                       P6SM FEW250 FM160000 24008KT P6SM FEW070
                       SCT250 FM160600 19004KT P6SM SCT250=
200905151131 TAF KBLI 151131Z 1512/1612 VRB03KT P6SM BKN250 FM152000 29008KT
                       P6SM SCT250 FM160300 VRB03KT P6SM SKC=
200905150520 TAF KBLI 150520Z 1506/1606 18005KT P6SM SKC FM152000 29008KT P6SM
                       SKC FM160300 VRB03KT P6SM SKC=
200905142320 TAF KBLI 142320Z 1500/1524 30006KT P6SM SCT045 FM150400 18005KT
                       P6SM SKC=
200905141720 TAF KBLI 141720Z 1418/1518 28006KT P6SM SCT018 BKN040
                      TEMPO 1418/1420 BKN018 FM142200 24006KT P6SM
                       SCT045 FM150400 19005KT P6SM FEW050=
200905141504 KBLI 141504Z 1415/1512 32006KT P6SM SCT012 OVC035
                      TEMPO 1415/1417 OVC012 FM141700 28006KT P6SM
                       SCT016 BKN040 FM141900 24006KT P6SM SCT045
                       FM150400 19005KT P6SM SCT050=
200905141138 TAF KBLI 141138Z 1412/1512 32006KT P6SM -RA SCT010 OVC035
                      TEMPO 1412/1415 BKN010 OVC030 FM141600 28006KT
                       P6SM SCT016 BKN040 FM141900 24006KT P6SM
                       SCT045 FM150400 19005KT P6SM SCT050=
200905141011 KBLI 141011Z 1410/1506 32006KT P6SM -RA OVC030
                      TEMPO 1410/1412 BKN008 OVC030 FM141200 27006KT
                       P6SM -SHRA BKN040 FM142100 17006KT P6SM
                       SCT050=
200905140701 KBLI 140701Z 1407/1506 35006KT P6SM -RA SCT005 OVC030
                      TEMPO 1407/1409 3SM -RA BR BKN005 OVC020
                       FM140900 32006KT P6SM -RA OVC030 FM141200
                       27006KT P6SM -SHRA BKN040 FM142100 17006KT
                       P6SM SCT050=
200905140536 TAF KBLI 140536Z 1406/1506 03006KT P6SM -RA OVC035
                      TEMPO 1406/1409 4SM -RA BR OVC025 FM140900
                       34006KT P6SM -RA OVC030 FM141200 27006KT
                       P6SM -SHRA BKN040 FM142100 17006KT P6SM
                       SCT050=
200905132351 TAF KBLI 132351Z 1400/1424 12008KT P6SM -RA OVC040 FM140200 10005KT
                       P6SM -RA OVC030 FM140800 34006KT P6SM -RA
                       OVC030 FM141200 27006KT P6SM -SHRA BKN040
                       FM141800 17006KT P6SM SCT050=
200905131720 TAF KBLI 131720Z 1318/1418 14005KT P6SM BKN040 FM132100 14005KT
                       P6SM -RA OVC040 FM140200 10005KT P6SM -RA
                       OVC025 FM141000 34006KT P6SM -SHRA BKN035=
200905131137 TAF KBLI 131137Z 1312/1412 13006KT P6SM BKN040
                      TEMPO 1316/1320 SCT040 BKN100 FM132200 19009KT
                       P6SM -RA OVC040 FM140200 VRB04KT P6SM -RA
                       OVC025=
200905130540 TAF KBLI 130540Z 1306/1406 16008KT P6SM BKN080 FM131200 19008KT
                       P6SM OVC100 FM140200 03007KT P6SM -RA OVC025=
200905122320 TAF KBLI 122320Z 1300/1324 16010KT P6SM BKN050 FM130400 18009KT
                       P6SM SCT050 FM130800 18006KT P6SM SCT050
                       BKN200 FM132000 16008KT P6SM BKN050=
200905121905 KBLI 121905Z 1219/1318 17006KT P6SM VCSH SCT015 OVC040
                      TEMPO 1219/1221 -SHRA OVC015 FM122200 19010KT
                       P6SM VCSH SCT030 OVC050 FM130000 18011KT
                       P6SM BKN050 FM130400 18009KT P6SM SCT050
                       FM130800 18006KT P6SM SCT050 BKN100=
200905121720 TAF KBLI 121720Z 1218/1318 17006KT P6SM -SHRA SCT020 OVC040 FM122200
                       19010KT P6SM VCSH SCT030 OVC050 FM130000
                       18011KT P6SM BKN050 FM130400 18009KT P6SM
                       SCT050 FM130800 18006KT P6SM SCT050 BKN100=
200905121140 TAF KBLI 121140Z 1212/1312 10007KT P6SM -SHRA BKN025 OVC050
                      TEMPO 1212/1216 SCT025 BKN050 FM121600 17010KT
                       P6SM -SHRA BKN020 OVC040 FM122000 19010KT
                       P6SM -SHRA SCT030 OVC050 FM130000 18011KT
                       P6SM VCSH OVC050 FM130400 18009KT P6SM SCT050
                       FM130800 18006KT P6SM SCT050 BKN100=
200905120521 TAF KBLI 120521Z 1206/1306 18003KT P6SM -SHRA SCT030 OVC040 FM121000
                       17007KT P6SM -SHRA OVC030 FM122000 18012KT
                       P6SM -SHRA SCT030 OVC050 FM130300 18008KT
                       P6SM VCSH SCT040 BKN100=
200905112320 TAF KBLI 112320Z 1200/1224 22015G25KT P6SM -SHRA SCT020 BKN050
                       TEMPO 1200/1204 -RA OVC020 FM120400 22008KT
                       P6SM -SHRA BKN020 FM122100 16008KT P6SM
                       VCSH OVC025=
200905111720 TAF KBLI 111720Z 1118/1218 19008KT P6SM -SHRA SCT008 BKN015 OVC025
                       FM112000 22006KT P6SM -SHRA SCT015 BKN025
                       BKN040 FM120300 22006KT P6SM SCT025 BKN040
                       FM121100 16008KT P6SM -SHRA OVC025=
200905111345 KBLI 111345Z 1114/1212 17004KT P6SM -RA SCT012 OVC030
                      TEMPO 1114/1115 4SM -RA BKN006 OVC012 FM111600
                       19008KT P6SM -SHRA SCT008 BKN015 OVC025
                       FM112000 22006KT P6SM -SHRA SCT015 BKN025
                       BKN040 FM120300 22006KT P6SM SCT025 BKN040
                       FM121100 16008KT P6SM -RA OVC030=
200905111140 TAF KBLI 111140Z 1112/1212 14008KT P6SM -RA SCT006 BKN012 OVC020
                       TEMPO 1112/1115 4SM -RA BKN006 OVC012 FM111600
                       19008KT P6SM -SHRA SCT008 BKN015 OVC025
                       FM112000 22006KT P6SM -SHRA SCT015 BKN025
                       BKN040 FM120300 22006KT P6SM SCT025 BKN040
                       FM121100 16008KT P6SM -RA OVC030=
200905110530 TAF KBLI 110530Z 1106/1206 VRB03KT P6SM -RA BKN050 OVC080 FM111100
                       14008KT P6SM -RA SCT015 OVC035 FM111700
                       19008KT P6SM -SHRA BKN015 OVC025 FM112100
                       22006KT P6SM -SHRA SCT015 BKN025 BKN040
                       FM120300 22006KT P6SM SCT025 BKN040=
200905110141 KBLI 110141Z 1102/1124 VRB03KT P6SM SCT090 OVC130 FM110300 VRB03KT
                       P6SM BKN090 OVC130 FM110500 VRB03KT P6SM
                       -RA OVC040 FM111000 14008KT P6SM -RA SCT015
                       OVC035 FM112000 19008KT P6SM -SHRA BKN015
                       OVC025 FM112200 22006KT P6SM VCSH SCT020
                       BKN035=
200905102320 TAF KBLI 102320Z 1100/1124 28005KT P6SM OVC100 FM110500 VRB03KT
                       P6SM -RA OVC040 FM111000 14008KT P6SM -RA
                       SCT015 OVC035 FM112000 19008KT P6SM -SHRA
                       BKN015 OVC025 FM112200 22006KT P6SM VCSH
                       SCT020 BKN035=
200905101724 TAF KBLI 101724Z 1018/1118 32003KT P6SM BKN200 FM110200 VRB03KT
                       P6SM OVC100 FM110600 VRB03KT P6SM -RA OVC040
                       FM111200 14008KT P6SM -RA SCT015 OVC035
                       FM111600 19008KT P6SM -SHRA BKN015 OVC025=
200905101138 TAF KBLI 101138Z 1012/1112 00000KT P6SM SKC FM102000 04004KT P6SM
                       OVC200 FM110500 VRB03KT P6SM -RA OVC040
                       FM111000 17008KT P6SM -RA SCT015 OVC025=
200905100530 TAF KBLI 100530Z 1006/1106 00000KT P6SM SKC FM102000 04004KT P6SM
                       OVC200 FM110500 VRB03KT P6SM -RA OVC040=
200905092320 TAF KBLI 092320Z 1000/1024 VRB05KT P6SM SKC FM100500 00000KT P6SM
                       SKC FM102000 04004KT P6SM OVC200=
200905091720 TAF KBLI 091720Z 0918/1018 04005KT P6SM SKC FM092100 27006KT P6SM
                       SKC FM100500 VRB04KT P6SM SKC=
200905091656 KBLI 091656Z 0917/1012 04005KT P6SM FEW030 FM092100 27006KT P6SM
                       SKC FM100500 VRB04KT P6SM SKC=
200905091148 TAF KBLI 091148Z 0912/1012 00000KT P6SM VCFG SKC FM092100 27006KT
                       P6SM SKC FM100500 VRB04KT P6SM SKC=
200905090520 TAF KBLI 090520Z 0906/1006 00000KT P6SM SKC FM091900 VRB04KT P6SM
                       SKC=
200905082320 TAF KBLI 082320Z 0900/0924 VRB05KT P6SM SKC FM090500 18005KT P6SM
                       SKC FM091900 VRB04KT P6SM SKC=
200905081725 TAF KBLI 081725Z 0818/0918 VRB06KT P6SM SCT025 FM082200 22006KT
                       P6SM SCT050 FM090500 18005KT P6SM SKC=
200905081134 TAF KBLI 081134Z 0812/0912 17004KT P6SM SCT050
                      TEMPO 0812/0816 BKN050 FM081800 20007KT P6SM
                       SCT030 SCT050 FM082200 22006KT P6SM SCT050
                       FM090500 18005KT P6SM SKC=
200905080532 TAF KBLI 080532Z 0806/0906 00000KT P6SM SCT050 FM081300 18006KT
                       P6SM BKN024 BKN045 FM081800 20007KT P6SM
                       SCT030 SCT050 FM082200 22006KT P6SM SCT050=
200905080047 KBLI 080047Z 0801/0824 17012KT P6SM SCT060 FM080400 18006KT P6SM
                       SCT035 BKN050 FM081300 18006KT P6SM BKN020
                       BKN035 FM081900 20007KT P6SM SCT040=
200905072326 TAF KBLI 072326Z 0800/0824 16012KT P6SM VCSH SCT040 BKN060 FM080400
                       18006KT P6SM SCT035 BKN050 FM081300 18006KT
                       P6SM BKN020 BKN035 FM081900 20007KT P6SM
                       SCT040=
200905071720 TAF KBLI 071720Z 0718/0818 17007KT P6SM SCT015 BKN026 OVC040
                      TEMPO 0718/0719 -SHRA FM071900 18011KT P6SM
                       VCSH BKN035 OVC050 FM080200 18006KT P6SM
                       SCT035 BKN050 FM081300 18006KT P6SM BKN020
                       BKN035=
200905071701 KBLI 071701Z 0717/0812 17007KT P6SM SCT015 BKN026 OVC040
                      TEMPO 0717/0719 -SHRA FM071900 18011KT P6SM
                       VCSH BKN035 OVC050 FM080200 19007KT P6SM
                       SCT035 BKN050=
200905071136 TAF KBLI 071136Z 0712/0812 18006KT P6SM SCT035 OVC070
                      TEMPO 0715/0719 -SHRA FM071900 18011KT P6SM
                       VCSH BKN035 OVC050 FM080200 19007KT P6SM
                       SCT035 BKN050=
200905070534 TAF KBLI 070534Z 0706/0806 19010G20KT P6SM SCT020 OVC050
                      TEMPO 0706/0710 -SHRA BKN020 OVC050 FM071000
                       18012KT P6SM BKN029 BKN045 OVC070
                      TEMPO 0710/0714 -SHRA FM072000 18010KT P6SM
                       VCSH BKN030 OVC050 FM080200 19007KT P6SM
                       SCT035 BKN050=
200905070400 KBLI 070400Z 0704/0724 VRB03KT 4SM RA BR OVC017 FM070500 17013G19KT
                       P6SM BKN030 BKN050
                      TEMPO 0705/0707 -SHRA FM071400 18010KT P6SM
                       SCT030 BKN045 OVC070 FM072000 18010KT P6SM
                       VCSH BKN030 OVC050=
200905070103 KBLI 070103Z 0701/0724 VRB04KT 6SM -RA BR OVC020
                      TEMPO 0701/0703 4SM -RA BR FM070300 14010KT
                       P6SM -SHRA BKN020 OVC050 FM070500 17013KT
                       P6SM BKN030 BKN050
                      TEMPO 0705/0707 -SHRA FM071400 18010KT P6SM
                       SCT030 BKN045 OVC070 FM072000 18010KT P6SM
                       VCSH BKN030 OVC050=
200905062326 TAF KBLI 062326Z 0700/0724 10007KT P6SM -RA BKN025 OVC060 FM070200
                       21012G22KT P6SM -SHRA BKN020 BKN050 FM070600
                       20012KT P6SM BKN030 BKN050 FM071400 18010KT
                       P6SM SCT030 BKN045 OVC070 FM072000 18010KT
                       P6SM VCSH BKN030 OVC050=
200905062116 KBLI 062116Z 0621/0718 10007KT 6SM -RA SCT030 OVC060
                      TEMPO 0621/0624 3SM RA BR BKN020 OVC030 FM070200
                       21012G22KT P6SM -SHRA BKN020 BKN050 FM070600
                       20012KT P6SM BKN030 BKN050 FM071400 18010KT
                       P6SM SCT030 BKN045 OVC070=
200905061726 TAF KBLI 061726Z 0618/0718 05005KT 6SM -RA SCT030 OVC060
                      TEMPO 0618/0621 3SM RA BR BKN020 OVC030 FM062100
                       14012KT P6SM -RA BKN025 OVC050 FM070000
                       21012G22KT P6SM -SHRA BKN020 BKN050 FM070600
                       20012KT P6SM BKN030 BKN050 FM071400 18010KT
                       P6SM SCT030 BKN045 OVC070=
200905061634 KBLI 061634Z 0617/0712 05005KT 6SM -RA SCT030 OVC060
                      TEMPO 0617/0621 3SM RA BR BKN020 OVC030 FM062100
                       14012KT P6SM -RA BKN025 OVC050 FM070000
                       21012G22KT P6SM -SHRA BKN020 BKN050 FM070600
                       23012KT P6SM SCT025 BKN050=
200905061120 TAF KBLI 061120Z 0612/0712 05005KT P6SM SCT030 OVC060
                      TEMPO 0614/0618 5SM -RA BR OVC030 FM061800
                       14012KT P6SM -RA BKN025 OVC050 FM070000
                       21012G22KT P6SM -SHRA BKN020 BKN050 FM070600
                       23012KT P6SM SCT025 BKN050=
200905060520 TAF KBLI 060520Z 0606/0706 18008KT P6SM VCSH SCT030 BKN050 FM061200
                       16008KT P6SM -RA BKN025 OVC050 FM061800
                       14014KT 5SM -RA BR OVC020 FM070000 22012G20KT
                       P6SM -SHRA BKN020 BKN050 FM070500 22012KT
                       P6SM SCT025 BKN050=
200905052324 TAF KBLI 052324Z 0600/0624 21010G18KT P6SM VCSH SCT015 BKN050
                      TEMPO 0600/0603 SHRA BKN015 FM060300 16010KT
                       P6SM VCSH BKN035 BKN060 FM061000 16012G20KT
                       P6SM -SHRA BKN025 OVC050 FM062200 18010KT
                       P6SM -SHRA BKN035 BKN050=
200905051744 TAF KBLI 051744Z 0518/0618 17015G25KT P6SM -SHRA BKN025 OVC045
                       FM052200 18015G25KT P6SM VCSH SCT025 BKN050
                       TEMPO 0522/0601 -SHRA BKN025 FM060200 16010KT
                       P6SM BKN030 BKN060 FM061000 16012G20KT P6SM
                       -SHRA BKN025 OVC050=
200905051120 TAF KBLI 051120Z 0512/0612 17020G32KT P6SM -SHRA SCT025 BKN050
                       OVC100
                      TEMPO 0512/0516 4SM SHRA BR OVC025 FM052000
                       21015G25KT P6SM VCSH SCT025 BKN050 FM060300
                       16010KT P6SM BKN030 BKN060 FM061000 16012KT
                       P6SM -SHRA BKN025 OVC050=
200905050520 TAF KBLI 050520Z 0506/0606 15015G25KT P6SM -SHRA SCT025 BKN050
                       TEMPO 0506/0510 5SM SHRA BR BKN025 OVC050
                       FM051000 17022G32KT P6SM -SHRA BKN020 BKN050
                       FM051900 20015G25KT P6SM VCSH SCT025 BKN050=
200905042320 TAF KBLI 042320Z 0500/0524 16010KT P6SM OVC060 FM050300 18014G24KT
                       P6SM -RA OVC040 FM050800 18022G32KT P6SM
                       -RA OVC025 FM051400 20015G22KT P6SM -SHRA
                       BKN035 FM051800 20012KT P6SM -SHRA BKN040=
200905041721 TAF KBLI 041721Z 0418/0518 15010KT P6SM SCT060 BKN100 OVC200 FM041900
                       15010KT P6SM OVC060 FM050000 16012G22KT
                       P6SM -RA OVC040 FM050600 18020G30KT P6SM
                       -RA OVC025=
200905041120 TAF KBLI 041120Z 0412/0512 15005KT P6SM SCT060 BKN120 OVC200 FM041900
                       15010KT P6SM OVC060 FM050000 16012G22KT
                       P6SM -RA OVC040 FM050600 18020G30KT P6SM
                       -RA OVC025=
200905040520 TAF KBLI 040520Z 0406/0506 00000KT P6SM SCT100 BKN200 FM041800
                       16008KT P6SM BKN060 OVC100 FM050000 16012G22KT
                       5SM RA BR OVC025=
200905032334 TAF KBLI 032334Z 0400/0424 17006KT P6SM SCT040 BKN200 FM040600
                       VRB03KT P6SM SCT060 BKN120 FM041800 16008KT
                       P6SM BKN060 OVC100=
200905031724 TAF KBLI 031724Z 0318/0418 17007KT P6SM SCT060 FM040600 VRB03KT
                       P6SM SCT060 BKN120 FM041500 16008KT P6SM
                       BKN060 OVC100=
200905031520 KBLI 031520Z 0315/0412 17004KT P6SM SCT050 FM032000 17007KT P6SM
                       SCT060 FM041000 16012KT P6SM BKN050 OVC100=
200905031120 TAF KBLI 031120Z 0312/0412 VRB04KT P6SM SCT050 BKN200 FM040200
                       21007KT P6SM BKN080 OVC200 FM041000 16012KT
                       P6SM BKN050 OVC100=
200905031013 KBLI 031013Z 0310/0406 18006KT P6SM SCT050
                      TEMPO 0310/0314 BKN050=
200905030520 TAF KBLI 030520Z 0306/0406 17025G35KT P6SM -RA BKN035 OVC050
                      TEMPO 0306/0309 5SM RA BR OVC025 FM030900
                       20012G20KT P6SM VCSH BKN025 BKN050 FM031600
                       20008KT P6SM BKN035 FM031900 24006KT P6SM
                       SCT050=
200905022332 TAF KBLI 022332Z 0300/0324 18007KT P6SM -RA SCT045 OVC060
                      TEMPO 0302/0304 3SM SHRA BKN030CB OVC050
                       FM030400 17012G20KT P6SM -SHRA BKN030 OVC050
                       FM031200 17010KT P6SM BKN040 FM031900 20005KT
                       P6SM SCT050=
200905021747 KBLI 021747Z 0218/0318 16008KT P6SM SCT080 OVC100
                      TEMPO 0300/0304 -RA BKN060 OVC080 FM030400
                       17012G20KT P6SM -SHRA BKN025 OVC050 FM031200
                       17010KT P6SM BKN035=
200905021739 TAF KBLI 021739Z 0218/0318 16009KT P6SM SKC FM030200 18015KT P6SM
                       -SHRA BKN025 OVC050=
200905021124 TAF KBLI 021124Z 0212/0312 14006KT P6SM OVC070
                      TEMPO 0214/0218 -RA OVC050 FM021800 16010KT
                       P6SM -RA SCT025 OVC050 FM030200 18015KT
                       P6SM -SHRA BKN025 OVC050=
200905020520 TAF KBLI 020520Z 0206/0306 VRB03KT P6SM BKN200 FM021200 10005KT
                       P6SM BKN060 OVC100 FM022000 18010KT P6SM
                       -RA OVC040=
200905012328 TAF KBLI 012328Z 0200/0224 33008KT P6SM FEW250 FM020400 VRB03KT
                       P6SM SCT250 FM021200 10005KT P6SM BKN060
                       OVC100 FM022000 18010KT P6SM -RA OVC040=
200905011720 TAF KBLI 011720Z 0118/0218 01008KT P6SM FEW250 FM020600 VRB03KT
                       P6SM SCT060 BKN150 FM021700 10007KT P6SM
                       OVC060=
200905011139 TAF KBLI 011139Z 0112/0212 34003KT P6SM SKC FM012000 30008KT P6SM
                       SCT250 FM020400 13003KT P6SM BKN250=
200905010538 TAF KBLI 010538Z 0106/0206 00000KT P6SM SKC FM012000 30008KT P6SM
                       SKC=