##########################################################
# Query made at 02/21/2025 23:38:59 UTC
# Time interval: from 06/01/2009 00:00  to 06/30/2009 23:59  UTC
##########################################################

##########################################################
# KBLI, Bellingham, Bellingham International Airport (United States)
# WMO index: -----. WIGOS ID: Unknown
# Latitude 48-47-58N. Longitude 122-32-21W. Altitude 48 m.
##########################################################

###################################
#  METAR/SPECI from KBLI
###################################
200906302353 METAR KBLI 302353Z 27006KT 10SM CLR 19/08 A3013 RMK AO2 SLP208 T01940078 10200 20178 58005=
200906302253 METAR KBLI 302253Z 26008KT 10SM CLR 19/07 A3013 RMK AO2 SLP210 T01890067=
200906302153 METAR KBLI 302153Z VRB06KT 10SM CLR 19/08 A3014 RMK AO2 SLP213 T01890078=
200906302053 METAR KBLI 302053Z 25007KT 10SM CLR 19/08 A3014 RMK AO2 SLP213 T01940083 50001=
200906301953 METAR KBLI 301953Z VRB05KT 10SM CLR 18/09 A3014 RMK AO2 SLP213 T01830089=
200906301853 METAR KBLI 301853Z 29007KT 240V310 10SM CLR 19/09 A3014 RMK AO2 SLP214 T01890094=
200906301753 METAR KBLI 301753Z 32007KT 10SM CLR 18/09 A3014 RMK AO2 SLP212 T01780094 10178 20100 58002=
200906301653 METAR KBLI 301653Z 30006KT 10SM CLR 16/09 A3014 RMK AO2 SLP214 T01610089=
200906301553 METAR KBLI 301553Z 31007KT 10SM BKN018 15/09 A3015 RMK AO2 SLP216 T01500089=
200906301453 METAR KBLI 301453Z 26003KT 10SM BKN016 13/09 A3015 RMK AO2 SLP215 T01330094 52010=
200906301353 METAR KBLI 301353Z 00000KT 10SM FEW075 13/09 A3014 RMK AO2 SLP212 T01330094=
200906301253 METAR KBLI 301253Z AUTO 00000KT 10SM FEW080 11/08 A3012 RMK AO2 SLP207 T01060083=
200906301153 METAR KBLI 301153Z AUTO 00000KT 10SM CLR 11/08 A3012 RMK AO2 SLP204 T01060078 10128 20094 53005=
200906301053 METAR KBLI 301053Z AUTO 00000KT 10SM CLR 10/08 A3010 RMK AO2 SLP200 T01000078=
200906300953 METAR KBLI 300953Z AUTO 19003KT 10SM CLR 12/08 A3010 RMK AO2 SLP200 T01170083=
200906300853 METAR KBLI 300853Z AUTO 17006KT 10SM CLR 12/08 A3010 RMK AO2 SLP199 T01220083 53005=
200906300753 METAR KBLI 300753Z AUTO 19005KT 10SM CLR 12/09 A3009 RMK AO2 SLP197 T01220089 402060100=
200906300653 METAR KBLI 300653Z AUTO 19004KT 10SM CLR 12/09 A3009 RMK AO2 SLP196 T01220094=
200906300553 METAR KBLI 300553Z AUTO 00000KT 10SM CLR 11/08 A3009 RMK AO2 SLP195 T01110078 10206 20111 53003=
200906300453 METAR KBLI 300453Z 00000KT 10SM CLR 13/08 A3009 RMK AO2 SLP195 T01280078=
200906300353 METAR KBLI 300353Z 00000KT 10SM CLR 16/08 A3007 RMK AO2 SLP190 T01560083=
200906300253 METAR KBLI 300253Z 00000KT 10SM CLR 18/08 A3008 RMK AO2 SLP191 T01830078 56009=
200906300153 METAR KBLI 300153Z 27004KT 10SM CLR 18/07 A3008 RMK AO2 SLP193 T01830067=
200906300053 METAR KBLI 300053Z 29006KT 10SM CLR 19/08 A3009 RMK AO2 SLP196 T01940078=
200906292353 METAR KBLI 292353Z VRB04KT 10SM CLR 20/07 A3011 RMK AO2 SLP200 T02000067 10206 20156 58009=
200906292253 METAR KBLI 292253Z 27006KT 10SM CLR 19/06 A3012 RMK AO2 SLP205 T01940056=
200906292153 METAR KBLI 292153Z VRB03KT 10SM CLR 19/07 A3013 RMK AO2 SLP209 T01890072=
200906292053 METAR KBLI 292053Z VRB03KT 10SM CLR 18/08 A3013 RMK AO2 SLP209 T01780078 58006=
200906291953 METAR KBLI 291953Z VRB05KT 10SM CLR 18/09 A3014 RMK AO2 SLP211 T01780089=
200906291853 METAR KBLI 291853Z VRB03KT 10SM SCT020 17/10 A3014 RMK AO2 SLP213 T01720100=
200906291828 SPECI KBLI 291828Z VRB03KT 10SM SCT020 17/09 A3015 RMK AO2=
200906291828 SPECI KBLI 291828Z VRB03KT 10SM SCT020 17/09 A3015 RMK AO2=
200906291753 METAR KBLI 291753Z 00000KT 10SM OVC019 16/09 A3015 RMK AO2 SLP216 T01560094 10156 20100 50001=
200906291653 METAR KBLI 291653Z 00000KT 10SM OVC015 14/09 A3015 RMK AO2 SLP218 T01390094=
200906291603 SPECI KBLI 291603Z 17005KT 10SM BKN013 13/09 A3015 RMK AO2=
200906291603 SPECI KBLI 291603Z 17005KT 10SM BKN013 13/09 A3015 RMK AO2=
200906291553 METAR KBLI 291553Z 17004KT 10SM SCT022 14/09 A3015 RMK AO2 SLP217 T01390094=
200906291453 METAR KBLI 291453Z VRB03KT 10SM CLR 14/09 A3015 RMK AO2 SLP214 T01390094 53000=
200906291353 METAR KBLI 291353Z 18003KT 10SM CLR 13/10 A3015 RMK AO2 SLP214 T01280100=
200906291253 METAR KBLI 291253Z AUTO 18004KT 10SM CLR 11/09 A3014 RMK AO2 SLP212 T01110089=
200906291153 METAR KBLI 291153Z AUTO 17005KT 10SM CLR 11/08 A3015 RMK AO2 SLP214 T01060083 10122 20100 58005=
200906291053 METAR KBLI 291053Z AUTO VRB03KT 10SM CLR 10/07 A3015 RMK AO2 SLP217 T01000072=
200906290953 METAR KBLI 290953Z AUTO 18004KT 10SM CLR 11/08 A3016 RMK AO2 SLP218 T01110078=
200906290853 METAR KBLI 290853Z AUTO 18005KT 10SM CLR 11/08 A3016 RMK AO2 SLP219 T01110078 58005=
200906290753 METAR KBLI 290753Z AUTO 17004KT 10SM CLR 11/08 A3017 RMK AO2 SLP221 T01110083 402000106=
200906290653 METAR KBLI 290653Z AUTO 18005KT 10SM CLR 12/08 A3017 RMK AO2 SLP223 T01170083=
200906290553 METAR KBLI 290553Z AUTO 17004KT 10SM CLR 12/09 A3018 RMK AO2 SLP224 T01220089 10194 20106 56001=
200906290453 METAR KBLI 290453Z 00000KT 10SM CLR 11/08 A3018 RMK AO2 SLP226 T01060078=
200906290353 METAR KBLI 290353Z 00000KT 10SM CLR 14/07 A3017 RMK AO2 SLP224 T01390072=
200906290253 METAR KBLI 290253Z 00000KT 10SM CLR 17/06 A3018 RMK AO2 SLP226 T01670061 56009=
200906290153 METAR KBLI 290153Z 25005KT 10SM CLR 17/06 A3019 RMK AO2 SLP228 T01720061=
200906290053 METAR KBLI 290053Z VRB05KT 10SM CLR 19/06 A3020 RMK AO2 SLP231 T01890061=
200906290017 SPECI KBLI 290017Z 28004KT 10SM CLR 19/05 A3020 RMK AO2=
200906290017 SPECI KBLI 290017Z 28004KT 10SM CLR 19/05 A3020 RMK AO2=
200906282353 METAR KBLI 282353Z VRB06KT 10SM CLR 19/06 A3021 RMK AO2 SLP235 T01890056 10200 20156 58016=
200906282253 METAR KBLI 282253Z 30007KT 250V310 10SM CLR 20/06 A3023 RMK AO2 SLP241 T02000061=
200906282153 METAR KBLI 282153Z VRB04KT 10SM CLR 19/07 A3024 RMK AO2 SLP247 T01890067=
200906282053 METAR KBLI 282053Z VRB05KT 10SM FEW031 18/08 A3025 RMK AO2 SLP250 T01830083 58001=
200906281953 METAR KBLI 281953Z VRB03KT 10SM SCT028 17/09 A3026 RMK AO2 SLP253 T01720089=
200906281853 METAR KBLI 281853Z 30003KT 10SM SCT019 17/10 A3026 RMK AO2 SLP254 T01720100=
200906281753 METAR KBLI 281753Z 18006KT 9SM FEW019 16/10 A3026 RMK AO2 SLP252 T01610100 10161 20122 51010=
200906281653 METAR KBLI 281653Z 16009KT 10SM OVC019 14/09 A3025 RMK AO2 SLP251 T01440089=
200906281553 METAR KBLI 281553Z 17008KT 10SM OVC017 13/09 A3024 RMK AO2 SLP247 T01330094=
200906281453 METAR KBLI 281453Z 17009KT 10SM OVC017 13/09 A3023 RMK AO2 SLP241 T01330094 53011=
200906281353 METAR KBLI 281353Z 18005KT 10SM BKN015 OVC038 13/10 A3021 RMK AO2 SLP237 T01330100=
200906281253 METAR KBLI 281253Z AUTO 18007KT 10SM SCT006 BKN013 OVC018 13/11 A3020 RMK AO2 SLP234 T01280106=
200906281153 METAR KBLI 281153Z AUTO 17006KT 10SM OVC006 13/11 A3019 RMK AO2 SLP230 60000 T01280111 10144 20117 53008=
200906281102 SPECI KBLI 281102Z AUTO 18006KT 10SM BKN006 OVC026 13/11 A3018 RMK AO2=
200906281102 SPECI KBLI 281102Z AUTO 18006KT 10SM BKN006 OVC026 13/11 A3018 RMK AO2=
200906281053 METAR KBLI 281053Z AUTO 17006KT 10SM SCT006 OVC026 13/12 A3018 RMK AO2 SLP227 T01330117=
200906281035 SPECI KBLI 281035Z AUTO 18003KT 10SM FEW005 BKN026 OVC049 13/12 A3018 RMK AO2=
200906281035 SPECI KBLI 281035Z AUTO 18003KT 10SM FEW005 BKN026 OVC049 13/12 A3018 RMK AO2=
200906281004 SPECI KBLI 281004Z AUTO 00000KT 10SM SCT009 OVC049 13/11 A3018 RMK AO2=
200906281004 SPECI KBLI 281004Z AUTO 00000KT 10SM SCT009 OVC049 13/11 A3018 RMK AO2=
200906280953 METAR KBLI 280953Z AUTO 18003KT 10SM BKN009 BKN049 13/11 A3018 RMK AO2 SLP224 T01280111=
200906280930 SPECI KBLI 280930Z AUTO 00000KT 10SM BKN009 12/10 A3017 RMK AO2=
200906280930 SPECI KBLI 280930Z AUTO 00000KT 10SM BKN009 12/10 A3017 RMK AO2=
200906280918 SPECI KBLI 280918Z AUTO 00000KT 10SM SCT009 12/11 A3017 RMK AO2=
200906280918 SPECI KBLI 280918Z AUTO 00000KT 10SM SCT009 12/11 A3017 RMK AO2=
200906280853 METAR KBLI 280853Z AUTO 00000KT 10SM FEW050 13/11 A3017 RMK AO2 SLP222 60000 T01280111 53002=
200906280753 METAR KBLI 280753Z AUTO 00000KT 10SM BKN060 OVC070 14/12 A3017 RMK AO2 SLP222 T01390117 402110072=
200906280653 METAR KBLI 280653Z AUTO 00000KT 10SM OVC060 14/12 A3016 RMK AO2 RAE01 SLP219 P0000 T01390117=
200906280553 METAR KBLI 280553Z AUTO 00000KT 10SM -RA FEW035 SCT042 OVC070 14/12 A3017 RMK AO2 RAE0455B38 SLP221 P0000 60000 T01440122 10200 20144 50002=
200906280453 METAR KBLI 280453Z 02007KT 330V100 10SM -RA BKN048 OVC060 15/12 A3017 RMK AO2 RAB08 SLP221 P0000 T01500117=
200906280353 METAR KBLI 280353Z 33004KT 10SM OVC042 16/11 A3016 RMK AO2 RAB13E39 SLP219 P0000 T01560111=
200906280253 METAR KBLI 280253Z 28007KT 10SM FEW060 16/11 A3016 RMK AO2 SLP219 T01610106 53006=
200906280153 METAR KBLI 280153Z 29010G15KT 10SM CLR 18/09 A3015 RMK AO2 SLP216 T01830094=
200906280053 METAR KBLI 280053Z 18004KT 10SM CLR 18/08 A3014 RMK AO2 SLP213 T01830083=
200906272353 METAR KBLI 272353Z 17008KT 10SM CLR 20/09 A3014 RMK AO2 SLP213 T02000089 10211 20161 57013=
200906272253 METAR KBLI 272253Z 18008KT 10SM CLR 20/08 A3016 RMK AO2 SLP218 T02000083=
200906272153 METAR KBLI 272153Z 16008KT 10SM CLR 21/08 A3016 RMK AO2 SLP220 T02060083=
200906272053 METAR KBLI 272053Z 22009KT 10SM CLR 20/08 A3018 RMK AO2 SLP226 T02000083 56016=
200906271953 METAR KBLI 271953Z 19007KT 10SM CLR 18/08 A3019 RMK AO2 SLP230 T01830083=
200906271853 METAR KBLI 271853Z 19006KT 10SM CLR 18/08 A3021 RMK AO2 SLP236 T01780083=
200906271753 METAR KBLI 271753Z 15004KT 10SM CLR 16/08 A3023 RMK AO2 SLP242 T01610078 10161 20072 58008=
200906271653 METAR KBLI 271653Z VRB03KT 10SM CLR 15/08 A3024 RMK AO2 SLP247 T01500083=
200906271553 METAR KBLI 271553Z 17004KT 10SM CLR 14/09 A3025 RMK AO2 SLP251 T01440089=
200906271453 METAR KBLI 271453Z 17003KT 10SM CLR 13/08 A3025 RMK AO2 SLP250 T01280078 53002=
200906271353 METAR KBLI 271353Z 15003KT 10SM CLR 12/08 A3025 RMK AO2 SLP249 T01170078=
200906271253 METAR KBLI 271253Z AUTO 00000KT 9SM CLR 07/06 A3025 RMK AO2 SLP249 T00720056=
200906271251 SPECI KBLI 271251Z AUTO 00000KT 10SM CLR 08/06 A3025 RMK AO2=
200906271251 SPECI KBLI 271251Z AUTO 00000KT 10SM CLR 08/06 A3025 RMK AO2=
200906271244 SPECI KBLI 271244Z AUTO 00000KT 2 1/2SM BR CLR 07/06 A3024 RMK AO2=
200906271244 SPECI KBLI 271244Z AUTO 00000KT 2 1/2SM BR CLR 07/06 A3024 RMK AO2=
200906271153 METAR KBLI 271153Z AUTO 00000KT 10SM CLR 08/06 A3024 RMK AO2 SLP248 T00830061 10133 20078 58001=
200906271053 METAR KBLI 271053Z AUTO 00000KT 10SM CLR 08/07 A3025 RMK AO2 SLP249 T00830067=
200906270953 METAR KBLI 270953Z AUTO 00000KT 10SM CLR 09/07 A3025 RMK AO2 SLP250 T00890067=
200906270853 METAR KBLI 270853Z AUTO 00000KT 10SM CLR 09/07 A3025 RMK AO2 SLP249 T00940067 50002=
200906270753 METAR KBLI 270753Z AUTO 00000KT 10SM CLR 11/07 A3025 RMK AO2 SLP250 T01060067 401940106=
200906270653 METAR KBLI 270653Z AUTO 15005KT 10SM CLR 13/07 A3025 RMK AO2 SLP249 T01280072=
200906270553 METAR KBLI 270553Z AUTO 17005KT 10SM CLR 13/08 A3024 RMK AO2 SLP246 T01330083 10194 20128 53003=
200906270453 METAR KBLI 270453Z 17005KT 10SM CLR 14/08 A3024 RMK AO2 SLP247 T01390078=
200906270353 METAR KBLI 270353Z 00000KT 10SM CLR 13/08 A3023 RMK AO2 SLP243 T01330083=
200906270253 METAR KBLI 270253Z 24003KT 10SM CLR 17/07 A3023 RMK AO2 SLP243 T01670072 56002=
200906270153 METAR KBLI 270153Z 18004KT 10SM CLR 18/07 A3024 RMK AO2 SLP244 T01780067=
200906270053 METAR KBLI 270053Z 17006KT 10SM CLR 19/07 A3023 RMK AO2 SLP242 T01890072=
200906262353 METAR KBLI 262353Z 19005KT 10SM CLR 19/07 A3024 RMK AO2 SLP245 T01890067 10194 20144 58008=
200906262253 METAR KBLI 262253Z VRB04KT 10SM CLR 19/07 A3025 RMK AO2 SLP248 T01890067=
200906262153 METAR KBLI 262153Z VRB03KT 10SM CLR 18/06 A3025 RMK AO2 SLP250 T01830061=
200906262053 METAR KBLI 262053Z 24005KT 10SM CLR 17/06 A3026 RMK AO2 SLP253 T01720061 53003=
200906261953 METAR KBLI 261953Z VRB03KT 10SM SCT028 16/08 A3025 RMK AO2 SLP251 T01560078=
200906261905 SPECI KBLI 261905Z 26005KT 10SM FEW023 SCT028 BKN050 16/08 A3025 RMK AO2=
200906261905 SPECI KBLI 261905Z 26005KT 10SM FEW023 SCT028 BKN050 16/08 A3025 RMK AO2=
200906261900 SPECI KBLI 261900Z 00000KT 10SM BKN023 BKN030 BKN050 16/08 A3025 RMK AO2=
200906261900 SPECI KBLI 261900Z 00000KT 10SM BKN023 BKN030 BKN050 16/08 A3025 RMK AO2=
200906261853 METAR KBLI 261853Z 21004KT 10SM SCT021 OVC060 16/08 A3025 RMK AO2 SLP250 T01560083=
200906261753 METAR KBLI 261753Z VRB03KT 10SM FEW023 OVC055 15/09 A3025 RMK AO2 SLP250 T01500089 10150 20111 51008=
200906261653 METAR KBLI 261653Z 19005KT 10SM OVC050 13/08 A3024 RMK AO2 SLP249 T01330078=
200906261553 METAR KBLI 261553Z 18005KT 10SM SCT023 OVC050 13/08 A3024 RMK AO2 SLP246 T01280078=
200906261532 SPECI KBLI 261532Z 15004KT 10SM SCT021 OVC050 13/08 A3024 RMK AO2=
200906261532 SPECI KBLI 261532Z 15004KT 10SM SCT021 OVC050 13/08 A3024 RMK AO2=
200906261453 METAR KBLI 261453Z 16003KT 10SM BKN023 OVC049 12/08 A3023 RMK AO2 SLP243 T01220078 53009=
200906261353 METAR KBLI 261353Z 19004KT 10SM OVC049 12/08 A3021 RMK AO2 SLP238 T01170078=
200906261253 METAR KBLI 261253Z AUTO 18005KT 10SM OVC049 11/08 A3021 RMK AO2 SLP235 T01110078=
200906261153 METAR KBLI 261153Z AUTO 18006KT 10SM OVC033 11/08 A3020 RMK AO2 SLP233 70010 T01110078 10133 20111 53008=
200906261053 METAR KBLI 261053Z AUTO 17006KT 10SM BKN049 OVC060 11/07 A3019 RMK AO2 SLP229 T01110072=
200906260953 METAR KBLI 260953Z AUTO 19007KT 10SM SCT033 BKN070 11/07 A3018 RMK AO2 SLP226 T01110072=
200906260853 METAR KBLI 260853Z AUTO 19004KT 10SM CLR 12/07 A3017 RMK AO2 SLP224 T01170072 51003=
200906260817 SPECI KBLI 260817Z AUTO 17004KT 10SM SCT028 OVC060 12/07 A3017 RMK AO2=
200906260817 SPECI KBLI 260817Z AUTO 17004KT 10SM SCT028 OVC060 12/07 A3017 RMK AO2=
200906260753 METAR KBLI 260753Z AUTO 16004KT 10SM OVC026 12/07 A3017 RMK AO2 SLP224 T01220072 401830122=
200906260653 METAR KBLI 260653Z AUTO 17004KT 10SM OVC017 13/07 A3017 RMK AO2 SLP224 T01280067=
200906260638 SPECI KBLI 260638Z AUTO 18004KT 10SM BKN017 OVC060 13/07 A3017 RMK AO2=
200906260638 SPECI KBLI 260638Z AUTO 18004KT 10SM BKN017 OVC060 13/07 A3017 RMK AO2=
200906260553 METAR KBLI 260553Z AUTO 00000KT 10SM OVC055 13/06 A3016 RMK AO2 SLP221 T01330061 10172 20133 51013=
200906260453 METAR KBLI 260453Z 16008KT 10SM OVC050 14/07 A3016 RMK AO2 SLP218 T01440067=
200906260353 METAR KBLI 260353Z 16007KT 10SM OVC055 14/07 A3014 RMK AO2 SLP213 T01440067=
200906260253 METAR KBLI 260253Z 17007KT 10SM OVC055 15/08 A3013 RMK AO2 SLP208 T01500078 53003=
200906260153 METAR KBLI 260153Z 16013KT 10SM OVC050 15/08 A3012 RMK AO2 SLP206 T01500078=
200906260053 METAR KBLI 260053Z 16012G17KT 10SM BKN060 OVC080 17/09 A3011 RMK AO2 SLP202 T01720094=
200906252353 METAR KBLI 252353Z 17013G19KT 10SM BKN065 OVC085 16/09 A3012 RMK AO2 SLP205 60001 T01610094 10183 20133 50003=
200906252253 METAR KBLI 252253Z 16014G20KT 10SM FEW080 17/10 A3012 RMK AO2 SLP206 T01670100=
200906252153 METAR KBLI 252153Z 16011G20KT 10SM CLR 18/11 A3011 RMK AO2 SLP203 T01830106=
200906252053 METAR KBLI 252053Z 16013G20KT 10SM OVC075 18/11 A3011 RMK AO2 SLP201 60001 T01780111 51006=
200906251953 METAR KBLI 251953Z 16009G15KT 10SM FEW026 OVC070 16/11 A3011 RMK AO2 SLP201 T01560111=
200906251853 METAR KBLI 251853Z 16011KT 10SM SCT025 BKN055 OVC080 14/12 A3010 RMK AO2 RAE20 SLP197 P0001 T01440117=
200906251846 SPECI KBLI 251846Z 15011KT 10SM SCT025 BKN055 OVC080 14/12 A3009 RMK AO2 RAE20 P0001=
200906251846 SPECI KBLI 251846Z 15011KT 10SM SCT025 BKN055 OVC080 14/12 A3009 RMK AO2 RAE20 P0001=
200906251753 METAR KBLI 251753Z 18008KT 5SM -RA BKN024 OVC029 13/11 A3009 RMK AO2 RAB20 SLP195 P0002 60009 T01330106 10144 20128 53022=
200906251727 SPECI KBLI 251727Z 19004G14KT 7SM -RA FEW018 BKN026 OVC050 14/11 A3008 RMK AO2 RAB20 P0000=
200906251727 SPECI KBLI 251727Z 19004G14KT 7SM -RA FEW018 BKN026 OVC050 14/11 A3008 RMK AO2 RAB20 P0000=
200906251653 METAR KBLI 251653Z 16012G18KT 10SM SCT019 BKN050 BKN070 14/11 A3006 RMK AO2 RAE37 SLP186 P0000 T01440111=
200906251636 SPECI KBLI 251636Z 15012G19KT 9SM -RA SCT027 BKN045 OVC065 13/11 A3006 RMK AO2 P0000=
200906251636 SPECI KBLI 251636Z 15012G19KT 9SM -RA SCT027 BKN045 OVC065 13/11 A3006 RMK AO2 P0000=
200906251553 METAR KBLI 251553Z 17008KT 7SM -RA BKN019 OVC023 13/11 A3005 RMK AO2 SLP183 P0007 T01280106=
200906251529 SPECI KBLI 251529Z 18008G14KT 2SM RA BR OVC019 13/11 A3005 RMK AO2 P0004=
200906251529 SPECI KBLI 251529Z 18008G14KT 2SM RA BR OVC019 13/11 A3005 RMK AO2 P0004=
200906251453 METAR KBLI 251453Z 17010G17KT 10SM -RA BKN021 BKN036 OVC050 14/10 A3003 RMK AO2 RAB51 SLP173 P0000 60000 T01390100 53026=
200906251353 METAR KBLI 251353Z 17010KT 10SM FEW022 BKN065 OVC110 14/10 A3000 RMK AO2 SLP164 T01390100=
200906251253 METAR KBLI 251253Z AUTO 16009KT 10SM FEW030 SCT065 OVC100 14/10 A2997 RMK AO2 SLP155 T01390100=
200906251236 SPECI KBLI 251236Z AUTO 17009G15KT 10SM FEW020 BKN060 OVC110 14/10 A2997 RMK AO2=
200906251236 SPECI KBLI 251236Z AUTO 17009G15KT 10SM FEW020 BKN060 OVC110 14/10 A2997 RMK AO2=
200906251153 METAR KBLI 251153Z AUTO 17012G22KT 10SM OVC022 14/09 A2995 RMK AO2 SLP147 60000 70027 T01440094 10156 20144 53012=
200906251053 METAR KBLI 251053Z AUTO 17013G20KT 10SM OVC026 14/09 A2993 RMK AO2 SLP142 T01440094=
200906250953 METAR KBLI 250953Z AUTO 16010G22KT 10SM OVC026 15/09 A2991 RMK AO2 SLP136 T01500089=
200906250853 METAR KBLI 250853Z AUTO 16014G23KT 10SM BKN026 BKN032 BKN090 15/09 A2991 RMK AO2 SLP135 60000 T01500089 51019=
200906250753 METAR KBLI 250753Z AUTO 15011G21KT 10SM BKN055 15/09 A2990 RMK AO2 RAE04 SLP130 P0000 T01500089 402000128=
200906250653 METAR KBLI 250653Z AUTO 16013G23KT 10SM -RA OVC038 16/08 A2988 RMK AO2 RAB53 SLP123 P0000 T01560083=
200906250553 METAR KBLI 250553Z AUTO 16012G23KT 10SM OVC032 16/09 A2986 RMK AO2 RAB18E35 SLP116 P0001 60001 T01560094 10200 20150 51017=
200906250453 METAR KBLI 250453Z 17007KT 10SM OVC037 16/11 A2985 RMK AO2 SLP113 T01560106=
200906250353 METAR KBLI 250353Z 00000KT 10SM SCT034 OVC045 15/13 A2982 RMK AO2 RAE05 SLP104 P0000 T01500133=
200906250253 METAR KBLI 250253Z 17004KT 9SM -RA OVC034 16/13 A2981 RMK AO2 RAB43 SLP100 P0000 60000 T01610128 53013=
200906250153 METAR KBLI 250153Z 27005KT 10SM OVC038 17/11 A2979 RMK AO2 SLP094 T01720111=
200906250053 METAR KBLI 250053Z VRB03KT 10SM BKN044 OVC055 19/12 A2977 RMK AO2 SLP088 T01890117=
200906242353 METAR KBLI 242353Z 14006KT 10SM BKN041 OVC060 20/12 A2977 RMK AO2 SLP087 60016 T02000122 10200 20144 58002=
200906242253 METAR KBLI 242253Z 00000KT 10SM FEW045 OVC070 18/12 A2977 RMK AO2 RAE20 SLP088 P0000 T01830117=
200906242153 METAR KBLI 242153Z 22003KT 10SM -RA OVC050 17/12 A2978 RMK AO2 RAB48 SLP089 P0000 T01670117=
200906242053 METAR KBLI 242053Z VRB04KT 10SM SCT100 18/13 A2978 RMK AO2 SLP089 60016 T01830128 55007=
200906241953 METAR KBLI 241953Z 05005KT 10SM BKN065 BKN080 17/14 A2977 RMK AO2 RAE36 SLP088 P0004 T01670139=
200906241934 SPECI KBLI 241934Z 04003KT 10SM -RA SCT038 BKN080 16/14 A2978 RMK AO2 P0004=
200906241934 SPECI KBLI 241934Z 04003KT 10SM -RA SCT038 BKN080 16/14 A2978 RMK AO2 P0004=
200906241853 METAR KBLI 241853Z 05003KT 4SM -RA BR BKN022 OVC070 14/13 A2979 RMK AO2 SLP092 P0012 T01440128=
200906241834 SPECI KBLI 241834Z 05004KT 4SM RA BR BKN025 BKN047 OVC075 14/12 A2979 RMK AO2 P0009=
200906241834 SPECI KBLI 241834Z 05004KT 4SM RA BR BKN025 BKN047 OVC075 14/12 A2979 RMK AO2 P0009=
200906241753 METAR KBLI 241753Z 32005KT 4SM -RA BR OVC075 14/13 A2980 RMK AO2 PRESRR SLP096 P0007 60010 T01440128 10150 20128 53005=
200906241653 METAR KBLI 241653Z 33003KT 4SM -RA BR FEW022 OVC070 14/12 A2978 RMK AO2 SLP090 P0003 T01440122=
200906241553 METAR KBLI 241553Z 00000KT 10SM -RA FEW060 OVC075 15/12 A2977 RMK AO2 RAB01E16B42 SLP085 P0000 T01500122=
200906241453 METAR KBLI 241453Z 00000KT 10SM OVC075 14/12 A2978 RMK AO2 RAB1359E45 SLP090 P0000 60000 T01440117 56009=
200906241353 METAR KBLI 241353Z 00000KT 10SM OVC080 14/11 A2979 RMK AO2 RAB39E50 SLP093 P0000 T01390106=
200906241253 METAR KBLI 241253Z AUTO 00000KT 10SM OVC080 13/10 A2979 RMK AO2 SLP093 T01330100=
200906241153 METAR KBLI 241153Z AUTO 00000KT 10SM OVC095 13/09 A2981 RMK AO2 SLP100 60000 T01330094 10150 20133 58017=
200906241053 METAR KBLI 241053Z AUTO 18004KT 10SM OVC090 13/09 A2983 RMK AO2 RAB30E39 SLP109 P0000 T01330094=
200906240953 METAR KBLI 240953Z AUTO 17006KT 10SM OVC095 14/09 A2985 RMK AO2 SLP114 T01440089=
200906240853 METAR KBLI 240853Z AUTO 18004KT 10SM OVC100 14/09 A2986 RMK AO2 SLP117 T01390094 57014=
200906240753 METAR KBLI 240753Z AUTO 17005KT 10SM OVC100 14/09 A2987 RMK AO2 SLP122 T01440094 402170061=
200906240653 METAR KBLI 240653Z AUTO 00000KT 10SM OVC100 14/09 A2988 RMK AO2 SLP125 T01440094=
200906240553 METAR KBLI 240553Z AUTO 00000KT 10SM OVC110 15/10 A2990 RMK AO2 SLP130 T01500100 10200 20144 56007=
200906240453 METAR KBLI 240453Z 00000KT 10SM OVC100 14/09 A2990 RMK AO2 SLP131 T01440094=
200906240353 METAR KBLI 240353Z 00000KT 10SM BKN090 17/08 A2991 RMK AO2 SLP134 T01670083=
200906240253 METAR KBLI 240253Z 28003KT 10SM FEW100 18/08 A2992 RMK AO2 SLP137 T01780083 56013=
200906240153 METAR KBLI 240153Z 00000KT 10SM CLR 19/09 A2992 RMK AO2 SLP138 T01940089=
200906240053 METAR KBLI 240053Z VRB03KT 10SM CLR 19/08 A2995 RMK AO2 SLP148 T01940083=
200906232353 METAR KBLI 232353Z 26005KT 10SM CLR 20/07 A2996 RMK AO2 SLP151 T02000067 10217 20172 56014=
200906232253 METAR KBLI 232253Z 28005KT 10SM CLR 21/07 A2996 RMK AO2 SLP153 T02060072=
200906232153 METAR KBLI 232153Z 00000KT 10SM CLR 21/07 A2998 RMK AO2 SLP156 T02110072=
200906232053 METAR KBLI 232053Z 30005KT 10SM CLR 21/08 A3000 RMK AO2 SLP164 T02060083 58016=
200906231953 METAR KBLI 231953Z 00000KT 10SM SCT038 19/08 A3002 RMK AO2 SLP170 T01890078=
200906231853 METAR KBLI 231853Z VRB03KT 10SM SCT033 19/09 A3003 RMK AO2 SLP176 T01940089=
200906231753 METAR KBLI 231753Z 00000KT 10SM FEW032 18/10 A3005 RMK AO2 SLP181 T01780100 10178 20061 56011=
200906231653 METAR KBLI 231653Z 00000KT 10SM CLR 16/08 A3006 RMK AO2 SLP185 T01610083=
200906231553 METAR KBLI 231553Z 00000KT 10SM CLR 14/09 A3007 RMK AO2 SLP187 T01440089=
200906231453 METAR KBLI 231453Z 16003KT 10SM CLR 13/09 A3008 RMK AO2 SLP192 T01280094 57005=
200906231353 METAR KBLI 231353Z 00000KT 10SM CLR 10/08 A3009 RMK AO2 SLP195 T01000078=
200906231253 METAR KBLI 231253Z AUTO 00000KT 10SM CLR 08/07 A3009 RMK AO2 SLP196 T00830067=
200906231153 METAR KBLI 231153Z AUTO 00000KT 3SM BR CLR 07/05 A3010 RMK AO2 SLP198 T00670050 10128 20067 56006=
200906231053 METAR KBLI 231053Z AUTO 00000KT 4SM BR CLR 07/06 A3010 RMK AO2 SLP199 T00720056=
200906230953 METAR KBLI 230953Z AUTO 00000KT 10SM CLR 08/06 A3011 RMK AO2 SLP201 T00780061=
200906230853 METAR KBLI 230853Z AUTO 00000KT 10SM CLR 08/06 A3011 RMK AO2 SLP204 T00830061 58005=
200906230753 METAR KBLI 230753Z AUTO 00000KT 10SM CLR 10/06 A3012 RMK AO2 SLP207 T01000061 401830100=
200906230653 METAR KBLI 230653Z AUTO 16004KT 10SM CLR 12/07 A3013 RMK AO2 SLP208 T01170067=
200906230553 METAR KBLI 230553Z AUTO 15005KT 10SM CLR 13/07 A3013 RMK AO2 SLP209 T01280067 10172 20122 53005=
200906230453 METAR KBLI 230453Z 16005KT 10SM CLR 14/07 A3012 RMK AO2 SLP207 T01390072=
200906230353 METAR KBLI 230353Z 17007KT 10SM CLR 14/07 A3011 RMK AO2 SLP203 T01440072=
200906230253 METAR KBLI 230253Z 16008KT 10SM CLR 16/08 A3011 RMK AO2 SLP204 T01560078 55000=
200906230153 METAR KBLI 230153Z 17010KT 10SM CLR 16/08 A3010 RMK AO2 SLP200 T01610078=
200906230053 METAR KBLI 230053Z 16013G17KT 10SM CLR 17/08 A3011 RMK AO2 SLP202 T01720083=
200906222353 METAR KBLI 222353Z 17010G18KT 10SM CLR 17/08 A3011 RMK AO2 SLP203 T01720078 10183 20122 51005=
200906222253 METAR KBLI 222253Z 16012KT 10SM BKN060 17/08 A3011 RMK AO2 SLP202 T01670078=
200906222153 METAR KBLI 222153Z 18009KT 10SM FEW050 17/08 A3010 RMK AO2 SLP199 T01670078=
200906222053 METAR KBLI 222053Z 17011KT 10SM OVC046 16/07 A3010 RMK AO2 SLP198 T01610067 51003=
200906221953 METAR KBLI 221953Z 16010KT 10SM BKN046 OVC060 16/08 A3010 RMK AO2 SLP197 T01560083=
200906221853 METAR KBLI 221853Z 16009KT 10SM OVC044 14/09 A3009 RMK AO2 SLP196 T01390089=
200906221753 METAR KBLI 221753Z 15009KT 10SM OVC034 12/09 A3009 RMK AO2 RAB00E49 SLP195 P0000 60000 T01220094 10128 20122 53016=
200906221700 SPECI KBLI 221700Z 15009KT 4SM -RA BR BKN023 OVC034 13/09 A3007 RMK AO2 RAB00 P0000=
200906221700 SPECI KBLI 221700Z 15009KT 4SM -RA BR BKN023 OVC034 13/09 A3007 RMK AO2 RAB00 P0000=
200906221653 METAR KBLI 221653Z 16007KT 10SM SCT023 OVC034 13/08 A3007 RMK AO2 SLP190 T01280083=
200906221553 METAR KBLI 221553Z 15008KT 10SM OVC034 13/08 A3005 RMK AO2 SLP184 T01280078=
200906221453 METAR KBLI 221453Z 16007KT 10SM BKN038 BKN055 OVC070 12/08 A3004 RMK AO2 SLP179 T01220083 53014=
200906221353 METAR KBLI 221353Z 16005KT 10SM SCT037 BKN047 OVC065 13/08 A3002 RMK AO2 SLP172 T01280083=
200906221253 METAR KBLI 221253Z AUTO 16009KT 10SM OVC040 13/08 A3001 RMK AO2 SLP169 T01280083=
200906221153 METAR KBLI 221153Z AUTO 16008KT 10SM OVC048 13/08 A3000 RMK AO2 SLP164 T01280078 10139 20122 51007=
200906221053 METAR KBLI 221053Z AUTO 16006KT 10SM BKN050 BKN110 12/08 A2999 RMK AO2 SLP162 T01220078=
200906220953 METAR KBLI 220953Z AUTO 14007KT 10SM SCT070 BKN100 OVC120 13/08 A2999 RMK AO2 SLP161 T01280078=
200906220853 METAR KBLI 220853Z AUTO 16008KT 10SM OVC070 13/08 A2998 RMK AO2 SLP157 T01280078 51005=
200906220753 METAR KBLI 220753Z AUTO 13009KT 10SM OVC065 13/08 A2997 RMK AO2 SLP156 T01280078 401890117=
200906220653 METAR KBLI 220653Z AUTO 14009KT 10SM OVC065 14/07 A2997 RMK AO2 SLP156 T01390067=
200906220553 METAR KBLI 220553Z AUTO 16009KT 10SM OVC070 14/07 A2996 RMK AO2 RAB0459E30 SLP152 P0000 60000 T01390072 10189 20139 53010=
200906220453 METAR KBLI 220453Z 17004KT 10SM OVC065 15/07 A2995 RMK AO2 SLP149 T01500072=
200906220353 METAR KBLI 220353Z 18004KT 10SM BKN070 15/08 A2994 RMK AO2 SLP144 T01500078=
200906220253 METAR KBLI 220253Z 18003KT 10SM OVC090 15/08 A2993 RMK AO2 SLP143 T01500083 55000=
200906220153 METAR KBLI 220153Z 18004KT 10SM SCT100 16/08 A2993 RMK AO2 SLP140 T01610078=
200906220053 METAR KBLI 220053Z 19006KT 10SM SCT038 SCT095 17/07 A2993 RMK AO2 SLP140 T01670072=
200906212353 METAR KBLI 212353Z 16005KT 10SM CLR 18/06 A2993 RMK AO2 SLP142 T01830061 10183 20133 58005=
200906212253 METAR KBLI 212253Z 16006KT 10SM CLR 18/06 A2994 RMK AO2 SLP144 T01780061=
200906212153 METAR KBLI 212153Z VRB06KT 10SM FEW090 17/07 A2994 RMK AO2 SLP145 T01720067=
200906212053 METAR KBLI 212053Z 16007KT 10SM SCT024 SCT090 17/07 A2995 RMK AO2 SLP146 T01670072 56004=
200906211953 METAR KBLI 211953Z 16007KT 10SM SCT024 SCT085 16/07 A2995 RMK AO2 SLP146 T01560067=
200906211853 METAR KBLI 211853Z 17006KT 10SM SCT027 BKN085 14/08 A2995 RMK AO2 SLP150 T01440078=
200906211753 METAR KBLI 211753Z 18007KT 10SM BKN027 14/08 A2996 RMK AO2 SLP151 T01390083 10144 20117 51010=
200906211653 METAR KBLI 211653Z 20006KT 10SM BKN027 13/09 A2995 RMK AO2 SLP149 T01330089=
200906211553 METAR KBLI 211553Z VRB06KT 10SM BKN027 13/08 A2994 RMK AO2 SLP146 T01330083=
200906211453 METAR KBLI 211453Z 18007KT 10SM FEW100 13/08 A2993 RMK AO2 SLP140 T01280083 53007=
200906211353 METAR KBLI 211353Z 19004KT 10SM BKN100 12/08 A2992 RMK AO2 SLP137 T01220083=
200906211253 METAR KBLI 211253Z AUTO 00000KT 10SM OVC090 12/08 A2991 RMK AO2 SLP135 T01170078=
200906211153 METAR KBLI 211153Z AUTO 16005KT 10SM OVC090 12/07 A2991 RMK AO2 SLP133 T01170072 10133 20117 53003=
200906211053 METAR KBLI 211053Z AUTO 16005KT 10SM FEW033 SCT042 OVC065 13/07 A2990 RMK AO2 SLP132 T01280072=
200906210953 METAR KBLI 210953Z AUTO 17006KT 10SM FEW044 OVC065 13/07 A2990 RMK AO2 SLP131 T01280067=
200906210853 METAR KBLI 210853Z AUTO 16005KT 10SM BKN060 OVC085 13/07 A2990 RMK AO2 SLP130 T01280072 53003=
200906210753 METAR KBLI 210753Z AUTO 16004KT 10SM BKN060 13/07 A2989 RMK AO2 SLP127 T01280067 401780100=
200906210653 METAR KBLI 210653Z AUTO 17005KT 10SM SCT065 OVC080 13/07 A2989 RMK AO2 SLP127 T01280072=
200906210553 METAR KBLI 210553Z AUTO 18003KT 10SM BKN070 13/08 A2989 RMK AO2 SLP128 T01280078 10178 20122 53000=
200906210453 METAR KBLI 210453Z 17003KT 10SM CLR 12/08 A2989 RMK AO2 SLP128 T01220078=
200906210353 METAR KBLI 210353Z 00000KT 10SM CLR 14/08 A2988 RMK AO2 SLP126 T01390078=
200906210253 METAR KBLI 210253Z 18003KT 10SM CLR 16/08 A2989 RMK AO2 SLP127 T01610078 58002=
200906210153 METAR KBLI 210153Z VRB03KT 10SM CLR 17/05 A2989 RMK AO2 SLP128 T01670050=
200906210053 METAR KBLI 210053Z 25004KT 10SM BKN080 17/05 A2989 RMK AO2 SLP128 T01670050=
200906202353 METAR KBLI 202353Z VRB04KT 10SM FEW012 OVC080 17/04 A2989 RMK AO2 SLP129 T01720044 10178 20150 56004=
200906202253 METAR KBLI 202253Z 19004KT 10SM FEW012 OVC100 17/06 A2990 RMK AO2 SLP131 T01670056=
200906202153 METAR KBLI 202153Z 24003KT 10SM CLR 17/06 A2990 RMK AO2 SLP131 T01670061=
200906202053 METAR KBLI 202053Z 17006KT 10SM BKN080 18/07 A2991 RMK AO2 SLP133 T01780072 58007=
200906201953 METAR KBLI 201953Z 19006G14KT 10SM SCT012 BKN080 16/07 A2991 RMK AO2 SLP137 T01610067=
200906201853 METAR KBLI 201853Z 17006G15KT 10SM SCT012 OVC075 17/08 A2992 RMK AO2 SLP137 T01670083=
200906201753 METAR KBLI 201753Z 18008KT 10SM OVC080 15/08 A2993 RMK AO2 SLP140 T01500083 10150 20111 50001=
200906201653 METAR KBLI 201653Z 18006KT 10SM OVC075 14/09 A2993 RMK AO2 SLP140 T01390089=
200906201553 METAR KBLI 201553Z 17008KT 10SM FEW015 OVC070 13/08 A2993 RMK AO2 SLP142 T01280083=
200906201453 METAR KBLI 201453Z 16010KT 10SM FEW014 OVC070 13/08 A2992 RMK AO2 SLP140 T01280083 50002=
200906201353 METAR KBLI 201353Z 15007KT 10SM BKN042 BKN050 12/07 A2993 RMK AO2 SLP141 T01170072=
200906201253 METAR KBLI 201253Z AUTO 15005KT 10SM OVC042 12/07 A2992 RMK AO2 SLP138 T01170072=
200906201153 METAR KBLI 201153Z AUTO 14006KT 10SM OVC042 11/07 A2992 RMK AO2 SLP136 70003 T01110072 10139 20100 51006=
200906201053 METAR KBLI 201053Z AUTO 15005KT 10SM BKN042 11/07 A2991 RMK AO2 SLP136 T01110072=
200906200953 METAR KBLI 200953Z AUTO 11003KT 10SM SCT036 10/07 A2991 RMK AO2 SLP135 T01000067=
200906200853 METAR KBLI 200853Z AUTO 17006KT 10SM CLR 12/07 A2990 RMK AO2 SLP131 T01170072 51013=
200906200753 METAR KBLI 200753Z AUTO 00000KT 10SM CLR 12/07 A2990 RMK AO2 SLP130 T01170067 401780111=
200906200653 METAR KBLI 200653Z AUTO VRB03KT 10SM CLR 13/07 A2988 RMK AO2 SLP125 T01330067=
200906200553 METAR KBLI 200553Z AUTO 17010G15KT 10SM FEW070 14/09 A2986 RMK AO2 SLP118 60003 T01390089 10172 20139 53004=
200906200453 METAR KBLI 200453Z 15006KT 10SM OVC050 14/12 A2986 RMK AO2 SLP117 T01440117=
200906200353 METAR KBLI 200353Z 17007KT 10SM BKN043 OVC050 15/12 A2985 RMK AO2 RAE19 SLP113 P0001 T01500122=
200906200253 METAR KBLI 200253Z 16007KT 8SM -RA BKN041 OVC070 14/12 A2985 RMK AO2 RAB23 SLP114 P0002 60002 T01440117 53001=
200906200153 METAR KBLI 200153Z 17012KT 10SM BKN055 BKN075 OVC095 16/11 A2984 RMK AO2 SLP110 T01610106=
200906200053 METAR KBLI 200053Z 16012G20KT 10SM OVC075 17/10 A2984 RMK AO2 SLP109 T01670100=
200906192353 METAR KBLI 192353Z 16011G19KT 10SM BKN065 OVC090 17/11 A2985 RMK AO2 SLP112 T01720106 10178 20144 51003=
200906192253 METAR KBLI 192253Z 17010G17KT 10SM SCT080 17/11 A2984 RMK AO2 SLP112 T01720111=
200906192153 METAR KBLI 192153Z 17008KT 10SM FEW011 OVC090 18/11 A2984 RMK AO2 SLP111 T01780106=
200906192053 METAR KBLI 192053Z 17010KT 10SM BKN090 18/11 A2984 RMK AO2 SLP110 T01780111 53002=
200906191953 METAR KBLI 191953Z 16010KT 10SM BKN090 17/11 A2983 RMK AO2 SLP108 T01670111=
200906191853 METAR KBLI 191853Z 17009KT 10SM SCT006 BKN035 OVC100 16/11 A2983 RMK AO2 SLP108 T01560111=
200906191849 SPECI KBLI 191849Z 16009KT 10SM SCT006 BKN035 OVC100 16/11 A2983 RMK AO2=
200906191849 SPECI KBLI 191849Z 16009KT 10SM SCT006 BKN035 OVC100 16/11 A2983 RMK AO2=
200906191753 METAR KBLI 191753Z 16009KT 10SM SCT004 BKN011 OVC038 14/12 A2983 RMK AO2 RAE53 SLP106 P0000 60000 T01440122 10144 20133 50003=
200906191736 SPECI KBLI 191736Z 16007KT 5SM -RA BR SCT004 BKN011 OVC038 14/13 A2983 RMK AO2 P0000=
200906191736 SPECI KBLI 191736Z 16007KT 5SM -RA BR SCT004 BKN011 OVC038 14/13 A2983 RMK AO2 P0000=
200906191712 SPECI KBLI 191712Z 15012KT 2SM -RA BR SCT004 BKN011 OVC038 14/12 A2983 RMK AO2 P0000=
200906191712 SPECI KBLI 191712Z 15012KT 2SM -RA BR SCT004 BKN011 OVC038 14/12 A2983 RMK AO2 P0000=
200906191653 METAR KBLI 191653Z 16007KT 5SM -RA BR SCT006 BKN012 OVC035 14/12 A2983 RMK AO2 SLP107 P0000 T01390122=
200906191558 SPECI KBLI 191558Z 16008KT 10SM -RA SCT006 BKN012 OVC035 14/12 A2983 RMK AO2 P0000=
200906191558 SPECI KBLI 191558Z 16008KT 10SM -RA SCT006 BKN012 OVC035 14/12 A2983 RMK AO2 P0000=
200906191553 METAR KBLI 191553Z 16007KT 10SM -RA SCT006 OVC035 13/12 A2983 RMK AO2 RAB25 SLP106 P0000 T01330117=
200906191453 METAR KBLI 191453Z 16007KT 10SM FEW006 OVC035 14/11 A2982 RMK AO2 RAB00E16 SLP103 P0000 60000 T01390111 55001=
200906191435 SPECI KBLI 191435Z 17006KT 10SM FEW006 OVC035 14/12 A2982 RMK AO2 RAB00E16 P0000=
200906191435 SPECI KBLI 191435Z 17006KT 10SM FEW006 OVC035 14/12 A2982 RMK AO2 RAB00E16 P0000=
200906191353 METAR KBLI 191353Z 18006KT 10SM SCT037 OVC060 14/11 A2982 RMK AO2 SLP102 T01390106=
200906191253 METAR KBLI 191253Z AUTO 17005KT 10SM BKN036 OVC048 14/11 A2982 RMK AO2 SLP103 T01390106=
200906191153 METAR KBLI 191153Z AUTO 18006KT 10SM OVC036 14/10 A2982 RMK AO2 SLP104 60000 T01390100 10161 20139 55006=
200906191053 METAR KBLI 191053Z AUTO 18003KT 10SM SCT042 OVC065 14/11 A2982 RMK AO2 SLP103 T01390106=
200906190953 METAR KBLI 190953Z AUTO 18004KT 10SM BKN039 OVC095 14/11 A2982 RMK AO2 SLP105 T01390106=
200906190853 METAR KBLI 190853Z AUTO 18004KT 10SM SCT044 OVC060 14/11 A2984 RMK AO2 RAB27E43 SLP110 P0000 60000 T01440106 55007=
200906190753 METAR KBLI 190753Z AUTO 18006KT 10SM OVC044 15/10 A2984 RMK AO2 SLP110 T01500100 402110144=
200906190653 METAR KBLI 190653Z AUTO 17006KT 10SM SCT049 BKN095 BKN120 16/11 A2984 RMK AO2 SLP112 T01560106=
200906190553 METAR KBLI 190553Z AUTO 19005KT 10SM BKN043 OVC060 16/11 A2986 RMK AO2 SLP117 T01610111 10206 20161 56006=
200906190453 METAR KBLI 190453Z 18007KT 10SM CLR 16/11 A2987 RMK AO2 SLP121 T01610106=
200906190353 METAR KBLI 190353Z 17005KT 10SM CLR 17/11 A2986 RMK AO2 SLP119 T01720106=
200906190253 METAR KBLI 190253Z 16006KT 10SM CLR 17/11 A2988 RMK AO2 SLP123 T01720106 58014=
200906190153 METAR KBLI 190153Z 17006KT 10SM CLR 18/11 A2989 RMK AO2 SLP128 T01830111=
200906190053 METAR KBLI 190053Z 18006KT 10SM CLR 18/11 A2992 RMK AO2 SLP136 T01830111=
200906182353 METAR KBLI 182353Z VRB05KT 10SM CLR 20/11 A2992 RMK AO2 SLP138 T02000106 10211 20172 58015=
200906182253 METAR KBLI 182253Z 19006KT 10SM CLR 20/11 A2994 RMK AO2 SLP143 T02000106=
200906182153 METAR KBLI 182153Z 19008KT 10SM CLR 20/09 A2996 RMK AO2 SLP150 T02000089=
200906182053 METAR KBLI 182053Z 17007KT 10SM CLR 19/12 A2997 RMK AO2 SLP153 T01940122 58011=
200906181953 METAR KBLI 181953Z 17009KT 10SM SCT039 19/12 A2998 RMK AO2 SLP159 T01890122=
200906181853 METAR KBLI 181853Z 17012KT 10SM CLR 18/12 A3000 RMK AO2 SLP164 T01830122=
200906181753 METAR KBLI 181753Z 16009G15KT 10SM SCT041 18/12 A3000 RMK AO2 SLP164 T01780122 10178 20144 58001=
200906181653 METAR KBLI 181653Z 17011G17KT 10SM SCT041 OVC070 17/12 A3001 RMK AO2 SLP167 T01670122=
200906181553 METAR KBLI 181553Z 17012G19KT 10SM BKN048 OVC065 16/12 A3000 RMK AO2 SLP164 T01560117=
200906181453 METAR KBLI 181453Z 17009G15KT 10SM BKN042 15/12 A3000 RMK AO2 SLP165 T01500117 53001=
200906181353 METAR KBLI 181353Z AUTO 17009KT 10SM SCT039 OVC060 14/12 A2999 RMK AO2 SLP162 T01440117=
200906181253 METAR KBLI 181253Z AUTO 18008KT 10SM OVC037 14/12 A3000 RMK AO2 SLP164 T01440117=
200906181153 METAR KBLI 181153Z AUTO 19005KT 10SM OVC090 14/12 A3000 RMK AO2 SLP163 70007 T01440117 10167 20144 50000=
200906181053 METAR KBLI 181053Z AUTO 17004KT 10SM OVC090 16/11 A3001 RMK AO2 SLP167 T01560111=
200906180953 METAR KBLI 180953Z AUTO 17008KT 10SM SCT038 OVC095 16/12 A3001 RMK AO2 SLP169 T01610117=
200906180853 METAR KBLI 180853Z AUTO 17006KT 10SM FEW075 OVC090 16/11 A3000 RMK AO2 SLP163 T01610111 53003=
200906180753 METAR KBLI 180753Z AUTO 17007KT 10SM BKN055 17/11 A2999 RMK AO2 SLP161 T01670111 402000133=
200906180653 METAR KBLI 180653Z AUTO 17007KT 10SM BKN047 BKN090 17/11 A2999 RMK AO2 SLP161 T01670106=
200906180553 METAR KBLI 180553Z AUTO 18008KT 10SM FEW050 17/11 A2999 RMK AO2 SLP160 T01670111 10200 20161 50006=
200906180453 METAR KBLI 180453Z 17010KT 10SM FEW070 16/12 A2999 RMK AO2 SLP161 T01610117=
200906180353 METAR KBLI 180353Z 17010KT 10SM FEW070 17/12 A2998 RMK AO2 SLP158 T01720122=
200906180253 METAR KBLI 180253Z 15011KT 10SM FEW060 19/12 A2997 RMK AO2 SLP154 T01890122 56008=
200906180153 METAR KBLI 180153Z 16010G16KT 10SM BKN100 19/12 A2998 RMK AO2 SLP157 T01890122=
200906180053 METAR KBLI 180053Z 17013G18KT 10SM OVC075 19/12 A2999 RMK AO2 SLP160 T01940122=
200906172353 SPECI KBLI 172353Z 17015KT 10SM OVC065 19/12 A2999 RMK AO2 SLP163 T01940122 10200 20161 58004=
200906172253 METAR KBLI 172253Z 17011KT 10SM SCT060 19/12 A3000 RMK AO2 SLP165 T01940122=
200906172153 METAR KBLI 172153Z 17012KT 10SM SCT050 BKN070 19/13 A3001 RMK AO2 SLP167 T01940128=
200906172053 METAR KBLI 172053Z 16011KT 10SM BKN050 BKN065 19/13 A3001 RMK AO2 SLP167 T01890128 51006=
200906171953 METAR KBLI 171953Z 16012KT 10SM BKN050 BKN100 18/12 A3000 RMK AO2 SLP166 T01780122=
200906171853 METAR KBLI 171853Z 17013G18KT 10SM OVC041 16/12 A3000 RMK AO2 SLP165 T01610117=
200906171753 METAR KBLI 171753Z 17010G17KT 10SM FEW012 OVC050 16/12 A2999 RMK AO2 SLP161 60007 T01610122 10161 20133 53007=
200906171653 METAR KBLI 171653Z 17009G17KT 10SM FEW013 OVC049 15/12 A2998 RMK AO2 SLP157 T01500117=
200906171553 METAR KBLI 171553Z 16006KT 10SM FEW010 BKN039 OVC070 16/12 A2998 RMK AO2 SLP157 T01560122=
200906171453 METAR KBLI 171453Z 12006KT 10SM FEW004 OVC035 14/12 A2997 RMK AO2 RAE32 SLP154 P0001 60007 T01440122 51010=
200906171449 SPECI KBLI 171449Z 12005KT 10SM FEW004 OVC035 14/12 A2997 RMK AO2 RAE32 P0001=
200906171449 SPECI KBLI 171449Z 12005KT 10SM FEW004 OVC035 14/12 A2997 RMK AO2 RAE32 P0001=
200906171400 SPECI KBLI 171400Z 17009KT 7SM -RA FEW002 BKN016 OVC035 13/12 A2996 RMK AO2 P0001=
200906171400 SPECI KBLI 171400Z 17009KT 7SM -RA FEW002 BKN016 OVC035 13/12 A2996 RMK AO2 P0001=
200906171353 METAR KBLI 171353Z 17008KT 3SM -RA BR FEW016 OVC025 13/12 A2996 RMK AO2 RAB10 SLP150 P0006 T01330117=
200906171337 SPECI KBLI 171337Z AUTO 17009KT 1 1/2SM RA BR SCT016 OVC025 13/12 A2995 RMK AO2 RAB10 P0004=
200906171337 SPECI KBLI 171337Z AUTO 17009KT 1 1/2SM RA BR SCT016 OVC025 13/12 A2995 RMK AO2 RAB10 P0004=
200906171323 SPECI KBLI 171323Z AUTO 18008KT 2 1/2SM -RA BR FEW016 BKN027 OVC040 14/12 A2995 RMK AO2 RAB10 P0000=
200906171323 SPECI KBLI 171323Z AUTO 18008KT 2 1/2SM -RA BR FEW016 BKN027 OVC040 14/12 A2995 RMK AO2 RAB10 P0000=
200906171253 METAR KBLI 171253Z AUTO 19006KT 10SM OVC048 14/11 A2994 RMK AO2 SLP143 T01390111=
200906171153 METAR KBLI 171153Z AUTO 19006KT 10SM OVC055 14/11 A2993 RMK AO2 SLP140 60000 T01390106 10156 20139 50000=
200906171053 METAR KBLI 171053Z AUTO 17007KT 10SM OVC055 14/11 A2993 RMK AO2 SLP140 T01390111=
200906170953 METAR KBLI 170953Z AUTO 18006KT 10SM OVC060 14/11 A2993 RMK AO2 SLP141 T01440111=
200906170853 METAR KBLI 170853Z AUTO 18005KT 10SM OVC070 14/11 A2993 RMK AO2 SLP140 60000 T01440111 53005=
200906170753 METAR KBLI 170753Z AUTO 19004KT 10SM OVC070 14/11 A2993 RMK AO2 SLP139 T01440111 401890100=
200906170653 METAR KBLI 170653Z AUTO 18007KT 10SM OVC075 15/12 A2991 RMK AO2 RAB11E30 SLP134 P0000 T01500117=
200906170553 METAR KBLI 170553Z AUTO 17008KT 10SM OVC080 16/11 A2991 RMK AO2 SLP135 T01560111 10189 20156 53003=
200906170453 METAR KBLI 170453Z 19004KT 10SM OVC110 16/12 A2991 RMK AO2 SLP133 T01560117=
200906170353 METAR KBLI 170353Z 17006KT 10SM CLR 17/11 A2990 RMK AO2 SLP130 T01670106=
200906170253 METAR KBLI 170253Z 19006KT 10SM CLR 16/11 A2990 RMK AO2 SLP132 T01610111 55006=
200906170153 SPECI KBLI 170153Z 18005KT 10SM CLR 18/12 A2990 RMK AO2 SLP131 T01780117=
200906170053 METAR KBLI 170053Z 18005KT 10SM CLR 18/12 A2991 RMK AO2 SLP134 T01780117=
200906162353 METAR KBLI 162353Z 18006KT 10SM CLR 18/11 A2992 RMK AO2 SLP138 T01830111 10189 20161 58006=
200906162253 METAR KBLI 162253Z 18007KT 10SM CLR 18/12 A2993 RMK AO2 SLP140 T01830117=
200906162153 METAR KBLI 162153Z 19005KT 10SM CLR 18/11 A2993 RMK AO2 SLP142 T01830111=
200906162053 METAR KBLI 162053Z 17005KT 10SM CLR 18/11 A2994 RMK AO2 SLP144 T01830106 58003=
200906161953 METAR KBLI 161953Z VRB04KT 10SM CLR 18/11 A2994 RMK AO2 SLP143 T01780106=
200906161853 METAR KBLI 161853Z 18006KT 10SM CLR 17/11 A2995 RMK AO2 SLP148 T01670106=
200906161753 METAR KBLI 161753Z 18005KT 10SM CLR 16/11 A2995 RMK AO2 SLP146 T01610106 10167 20100 58007=
200906161653 METAR KBLI 161653Z 17005KT 10SM CLR 16/11 A2996 RMK AO2 SLP150 T01560106=
200906161553 METAR KBLI 161553Z 17005KT 10SM CLR 14/10 A2996 RMK AO2 SLP152 T01390100=
200906161453 METAR KBLI 161453Z 18007KT 10SM CLR 13/10 A2997 RMK AO2 SLP153 T01330100 55000=
200906161353 METAR KBLI 161353Z 18006KT 10SM CLR 13/10 A2996 RMK AO2 SLP151 T01330100=
200906161253 METAR KBLI 161253Z AUTO 17003KT 10SM CLR 11/09 A2996 RMK AO2 SLP150 T01060089=
200906161153 METAR KBLI 161153Z AUTO 00000KT 10SM CLR 10/08 A2997 RMK AO2 SLP153 T01000083 10156 20100 56001=
200906161053 METAR KBLI 161053Z AUTO 00000KT 10SM CLR 11/09 A2997 RMK AO2 SLP153 T01060089=
200906160953 METAR KBLI 160953Z AUTO 14003KT 10SM CLR 12/09 A2997 RMK AO2 SLP154 T01220089=
200906160853 METAR KBLI 160853Z AUTO 15005KT 10SM CLR 12/09 A2997 RMK AO2 SLP154 T01220089 58004=
200906160753 METAR KBLI 160753Z AUTO 00000KT 10SM SCT060 14/09 A2998 RMK AO2 SLP158 T01390089 401940122=
200906160653 METAR KBLI 160653Z AUTO 15005KT 10SM CLR 14/09 A2998 RMK AO2 SLP158 T01440089=
200906160553 METAR KBLI 160553Z AUTO 15007KT 10SM CLR 16/09 A2998 RMK AO2 SLP159 T01560094 10194 20156 53006=
200906160453 METAR KBLI 160453Z 17008KT 10SM CLR 16/09 A2997 RMK AO2 SLP156 T01610094=
200906160353 METAR KBLI 160353Z 16009KT 10SM CLR 17/09 A2996 RMK AO2 SLP151 T01720094=
200906160253 METAR KBLI 160253Z 17009G17KT 10SM CLR 18/10 A2996 RMK AO2 SLP152 T01780100 55002=
200906160153 METAR KBLI 160153Z 16011G19KT 10SM CLR 18/10 A2996 RMK AO2 SLP152 T01830100=
200906160053 METAR KBLI 160053Z 16012G20KT 10SM CLR 19/10 A2996 RMK AO2 SLP152 T01890100=
200906152353 METAR KBLI 152353Z 16014KT 10SM CLR 19/10 A2997 RMK AO2 SLP154 T01890100 10194 20150 58006=
200906152253 METAR KBLI 152253Z AUTO 17010KT 10SM CLR 19/10 A2997 RMK AO2 SLP155 T01890100 TSNO=
200906152153 METAR KBLI 152153Z 19008G15KT 150V220 10SM CLR 19/09 A2998 RMK AO2 SLP159 T01890094=
200906152053 METAR KBLI 152053Z 17010KT 10SM CLR 18/09 A2999 RMK AO2 SLP160 T01780094 50003=
200906151953 METAR KBLI 151953Z 15012G21KT 10SM CLR 18/09 A2999 RMK AO2 SLP161 T01780094=
200906151853 METAR KBLI 151853Z 17013G18KT 10SM BKN060 16/09 A2999 RMK AO2 SLP160 T01610089=
200906151753 METAR KBLI 151753Z 17009G14KT 10SM BKN060 15/09 A2998 RMK AO2 SLP157 T01500094 10156 20122 51004=
200906151653 METAR KBLI 151653Z 16013G18KT 10SM SCT019 BKN060 16/09 A2998 RMK AO2 SLP156 T01560094=
200906151604 SPECI KBLI 151604Z 17010KT 10SM SCT019 BKN060 14/09 A2997 RMK AO2=
200906151604 SPECI KBLI 151604Z 17010KT 10SM SCT019 BKN060 14/09 A2997 RMK AO2=
200906151553 METAR KBLI 151553Z 17010G17KT 10SM BKN019 BKN060 14/09 A2997 RMK AO2 SLP156 T01440094=
200906151453 METAR KBLI 151453Z 16008KT 10SM FEW015 OVC055 13/09 A2997 RMK AO2 SLP153 T01330089 51009=
200906151353 METAR KBLI 151353Z AUTO 15010KT 10SM FEW060 13/09 A2996 RMK AO2 SLP151 T01330089=
200906151253 METAR KBLI 151253Z AUTO 16008KT 10SM CLR 12/08 A2995 RMK AO2 SLP148 T01220083=
200906151153 METAR KBLI 151153Z AUTO 16007KT 10SM OVC050 12/08 A2994 RMK AO2 SLP145 T01220083 10133 20122 53005=
200906151053 METAR KBLI 151053Z AUTO 15007KT 10SM BKN055 12/08 A2993 RMK AO2 SLP140 T01220083=
200906150953 METAR KBLI 150953Z AUTO 16007KT 10SM CLR 12/08 A2993 RMK AO2 SLP142 T01220083=
200906150853 METAR KBLI 150853Z AUTO 15010KT 10SM CLR 12/08 A2993 RMK AO2 SLP141 T01220083 58001=
200906150753 METAR KBLI 150753Z AUTO 16007G16KT 10SM CLR 12/08 A2993 RMK AO2 SLP141 T01220083 401670122=
200906150653 METAR KBLI 150653Z AUTO 15010KT 10SM CLR 13/09 A2993 RMK AO2 SLP142 T01280089=
200906150553 METAR KBLI 150553Z AUTO 16011KT 10SM CLR 13/08 A2993 RMK AO2 SLP142 T01330083 10167 20133 51010=
200906150453 METAR KBLI 150453Z 16008KT 10SM CLR 14/09 A2993 RMK AO2 SLP142 T01390089=
200906150353 METAR KBLI 150353Z 17010KT 10SM CLR 14/09 A2991 RMK AO2 SLP136 T01390094=
200906150253 METAR KBLI 150253Z 17009G16KT 10SM CLR 15/09 A2990 RMK AO2 SLP132 T01500094 55002=
200906150153 METAR KBLI 150153Z 18010G17KT 10SM CLR 16/09 A2990 RMK AO2 SLP131 T01560094=
200906150053 METAR KBLI 150053Z 18013G21KT 10SM CLR 16/09 A2990 RMK AO2 SLP129 T01610094=
200906142353 METAR KBLI 142353Z 18013G19KT 10SM CLR 17/09 A2991 RMK AO2 SLP133 T01670094 10167 20133 56014=
200906142253 METAR KBLI 142253Z 18009G17KT 160V220 10SM CLR 16/09 A2992 RMK AO2 SLP136 T01610089=
200906142153 METAR KBLI 142153Z 18011G16KT 10SM CLR 16/09 A2993 RMK AO2 SLP142 T01610089=
200906142107 SPECI KBLI 142107Z 19011G17KT 10SM SCT020 16/09 A2994 RMK AO2=
200906142107 SPECI KBLI 142107Z 19011G17KT 10SM SCT020 16/09 A2994 RMK AO2=
200906142100 SPECI KBLI 142100Z 16011G17KT 10SM BKN020 16/09 A2995 RMK AO2=
200906142100 SPECI KBLI 142100Z 16011G17KT 10SM BKN020 16/09 A2995 RMK AO2=
200906142053 METAR KBLI 142053Z 18011KT 10SM SCT020 16/09 A2995 RMK AO2 SLP147 T01560089 58006=
200906141953 METAR KBLI 141953Z 16011KT 10SM OVC018 15/09 A2996 RMK AO2 SLP151 T01500089=
200906141933 SPECI KBLI 141933Z 16012KT 10SM FEW012 OVC021 15/09 A2996 RMK AO2=
200906141933 SPECI KBLI 141933Z 16012KT 10SM FEW012 OVC021 15/09 A2996 RMK AO2=
200906141853 METAR KBLI 141853Z 16011G16KT 10SM BKN012 OVC021 14/09 A2997 RMK AO2 SLP153 T01440089=
200906141835 SPECI KBLI 141835Z 17010G16KT 10SM SCT012 OVC019 14/09 A2997 RMK AO2=
200906141835 SPECI KBLI 141835Z 17010G16KT 10SM SCT012 OVC019 14/09 A2997 RMK AO2=
200906141753 METAR KBLI 141753Z 17009KT 10SM OVC012 13/09 A2997 RMK AO2 SLP154 60000 T01330089 10133 20122 50001=
200906141653 METAR KBLI 141653Z 18006KT 10SM OVC014 13/09 A2997 RMK AO2 SLP156 T01330089=
200906141553 METAR KBLI 141553Z 16008KT 10SM OVC014 13/09 A2997 RMK AO2 SLP154 T01280089=
200906141453 METAR KBLI 141453Z 16010KT 10SM OVC014 12/08 A2996 RMK AO2 SLP152 60000 T01220083 51014=
200906141353 METAR KBLI 141353Z 16010KT 10SM OVC014 12/08 A2995 RMK AO2 SLP148 T01220083=
200906141253 METAR KBLI 141253Z AUTO 16014G20KT 10SM OVC014 12/09 A2994 RMK AO2 RAE03 SLP143 P0000 T01220089=
200906141236 SPECI KBLI 141236Z AUTO 16013G22KT 10SM OVC014 12/09 A2993 RMK AO2 RAE03 P0000=
200906141236 SPECI KBLI 141236Z AUTO 16013G22KT 10SM OVC014 12/09 A2993 RMK AO2 RAE03 P0000=
200906141206 SPECI KBLI 141206Z AUTO 15013G20KT 10SM BKN018 12/09 A2993 RMK AO2 RAE03 P0000=
200906141206 SPECI KBLI 141206Z AUTO 15013G20KT 10SM BKN018 12/09 A2993 RMK AO2 RAE03 P0000=
200906141153 METAR KBLI 141153Z AUTO 16013G20KT 10SM -RA FEW018 SCT080 12/09 A2992 RMK AO2 RAB51 SLP138 P0000 60000 T01220089 10144 20122 53010=
200906141053 METAR KBLI 141053Z AUTO 16017G22KT 10SM CLR 12/09 A2991 RMK AO2 PK WND 15026/1024 SLP134 T01220089=
200906140953 METAR KBLI 140953Z AUTO 16015G24KT 10SM FEW060 13/09 A2990 RMK AO2 SLP129 T01330089=
200906140853 METAR KBLI 140853Z AUTO 15013G20KT 10SM CLR 14/09 A2989 RMK AO2 SLP128 T01440089 51007=
200906140753 METAR KBLI 140753Z AUTO 16011KT 10SM CLR 14/09 A2988 RMK AO2 SLP126 T01440089 401940117=
200906140653 METAR KBLI 140653Z AUTO 16013G21KT 10SM CLR 14/09 A2988 RMK AO2 SLP123 T01390094=
200906140553 METAR KBLI 140553Z AUTO 16015G21KT 10SM CLR 14/09 A2987 RMK AO2 SLP120 T01440094 10194 20144 53007=
200906140453 METAR KBLI 140453Z 16015G21KT 10SM CLR 14/09 A2986 RMK AO2 SLP117 T01440094=
200906140353 METAR KBLI 140353Z 17014G20KT 10SM CLR 16/10 A2985 RMK AO2 SLP112 T01560100=
200906140253 METAR KBLI 140253Z 17014G19KT 10SM CLR 18/11 A2985 RMK AO2 SLP114 T01780111 50005=
200906140153 METAR KBLI 140153Z 16013G20KT 10SM CLR 18/11 A2985 RMK AO2 SLP114 T01830111=
200906140053 METAR KBLI 140053Z 16013G22KT 10SM CLR 19/12 A2985 RMK AO2 SLP113 T01890117=
200906132353 METAR KBLI 132353Z 17012G17KT 10SM CLR 19/12 A2984 RMK AO2 SLP109 T01890117 10194 20144 56007=
200906132253 METAR KBLI 132253Z 17011G16KT 10SM CLR 19/11 A2984 RMK AO2 SLP111 T01890111=
200906132153 METAR KBLI 132153Z 17009KT 10SM CLR 19/11 A2985 RMK AO2 SLP112 T01890111=
200906132053 METAR KBLI 132053Z 18008KT 10SM CLR 18/12 A2986 RMK AO2 SLP116 T01780117 58012=
200906131953 METAR KBLI 131953Z 17010G17KT 10SM HZ CLR 17/11 A2988 RMK AO2 SLP122 T01670111=
200906131853 METAR KBLI 131853Z 18009G15KT 10SM HZ SCT006 16/11 A2989 RMK AO2 SLP127 T01560111=
200906131759 SPECI KBLI 131759Z 19008KT 10SM HZ SCT006 14/11 A2989 RMK AO2=
200906131759 SPECI KBLI 131759Z 19008KT 10SM HZ SCT006 14/11 A2989 RMK AO2=
200906131753 METAR KBLI 131753Z 17007G15KT 6SM HZ BKN006 14/11 A2989 RMK AO2 SLP129 T01440106 10144 20117 58003=
200906131656 SPECI KBLI 131656Z 18009KT 6SM HZ SCT006 14/11 A2990 RMK AO2=
200906131656 SPECI KBLI 131656Z 18009KT 6SM HZ SCT006 14/11 A2990 RMK AO2=
200906131653 METAR KBLI 131653Z 18009KT 10SM HZ CLR 14/11 A2990 RMK AO2 SLP131 T01440106=
200906131553 METAR KBLI 131553Z 17007KT 6SM HZ SCT006 13/10 A2990 RMK AO2 SLP132 T01330100=
200906131549 SPECI KBLI 131549Z VRB06KT 10SM SCT006 13/10 A2990 RMK AO2=
200906131549 SPECI KBLI 131549Z VRB06KT 10SM SCT006 13/10 A2990 RMK AO2=
200906131453 METAR KBLI 131453Z 18006KT 10SM CLR 13/10 A2990 RMK AO2 SLP131 T01330100 51008=
200906131353 METAR KBLI 131353Z 17007KT 9SM CLR 13/10 A2990 RMK AO2 SLP130 T01280100=
200906131253 METAR KBLI 131253Z AUTO 18006KT 8SM CLR 12/09 A2989 RMK AO2 SLP126 T01170094=
200906131153 METAR KBLI 131153Z AUTO 18005KT 10SM CLR 12/09 A2988 RMK AO2 SLP124 T01170094 10150 20117 53000=
200906131053 METAR KBLI 131053Z AUTO 18005KT 10SM CLR 13/09 A2988 RMK AO2 SLP123 T01280094=
200906130953 METAR KBLI 130953Z AUTO 18005KT 10SM CLR 13/09 A2988 RMK AO2 SLP123 T01280094=
200906130853 METAR KBLI 130853Z AUTO 19004KT 10SM CLR 13/10 A2988 RMK AO2 SLP123 T01280100 50000=
200906130753 METAR KBLI 130753Z AUTO 18004KT 10SM CLR 14/11 A2988 RMK AO2 SLP124 T01390106 402170128=
200906130653 METAR KBLI 130653Z AUTO 17007KT 10SM CLR 14/11 A2988 RMK AO2 SLP122 T01390106=
200906130553 METAR KBLI 130553Z AUTO 18007KT 10SM CLR 15/11 A2988 RMK AO2 SLP123 T01500111 10211 20150 53002=
200906130453 METAR KBLI 130453Z 18005KT 10SM CLR 16/11 A2988 RMK AO2 SLP123 T01560111=
200906130353 METAR KBLI 130353Z 18008KT 10SM CLR 17/11 A2987 RMK AO2 SLP121 T01670111=
200906130253 METAR KBLI 130253Z 17008G16KT 10SM CLR 17/11 A2987 RMK AO2 SLP122 T01720111 56005=
200906130153 METAR KBLI 130153Z 17007KT 10SM CLR 18/12 A2987 RMK AO2 SLP122 T01830117=
200906130053 METAR KBLI 130053Z 16008KT 10SM CLR 20/12 A2988 RMK AO2 SLP125 T02000117=
200906122353 METAR KBLI 122353Z 16007KT 10SM CLR 21/12 A2989 RMK AO2 SLP127 T02060122 10217 20167 58018=
200906122300 METAR KBLI NIL=
200906122253 METAR KBLI 122253Z 17005KT 10SM CLR 21/12 A2991 RMK AO2 SLP135 T02110122=
200906122153 METAR KBLI 122153Z 17006KT 10SM CLR 21/12 A2993 RMK AO2 SLP140 T02060122=
200906122053 METAR KBLI 122053Z 19007KT 10SM CLR 19/12 A2994 RMK AO2 SLP145 T01890117 58008=
200906121953 METAR KBLI 121953Z 19007KT 10SM CLR 18/11 A2996 RMK AO2 SLP150 T01780106=
200906121853 METAR KBLI 121853Z 18009KT 10SM CLR 18/11 A2996 RMK AO2 SLP152 T01780111=
200906121753 METAR KBLI 121753Z 17011G16KT 10SM SCT060 17/11 A2997 RMK AO2 SLP154 T01720106 10172 20133 50000=
200906121653 METAR KBLI 121653Z 16013KT 10SM CLR 17/10 A2997 RMK AO2 SLP154 T01670100=
200906121553 METAR KBLI 121553Z 17009KT 10SM FEW055 17/11 A2997 RMK AO2 SLP155 T01670106=
200906121453 METAR KBLI 121453Z 17007KT 10SM FEW055 15/11 A2997 RMK AO2 SLP154 T01500106 52003=
200906121353 METAR KBLI 121353Z 14004KT 10SM SCT060 14/10 A2997 RMK AO2 SLP153 T01440100=
200906121253 METAR KBLI 121253Z AUTO 16004KT 10SM SCT065 13/10 A2996 RMK AO2 SLP151 T01330100=
200906121153 METAR KBLI 121153Z AUTO 19004KT 10SM BKN055 BKN075 13/09 A2996 RMK AO2 SLP150 T01280094 10150 20128 53005=
200906121053 METAR KBLI 121053Z AUTO 16005KT 10SM BKN060 OVC075 14/09 A2995 RMK AO2 SLP148 T01390094=
200906120953 METAR KBLI 120953Z AUTO 17006KT 10SM BKN060 14/10 A2995 RMK AO2 SLP146 T01390100=
200906120853 METAR KBLI 120853Z AUTO 17007KT 10SM FEW065 14/10 A2994 RMK AO2 SLP145 T01390100 53004=
200906120753 METAR KBLI 120753Z AUTO 17004KT 10SM CLR 14/09 A2994 RMK AO2 SLP143 T01390089 401940128=
200906120653 METAR KBLI 120653Z AUTO 16006KT 10SM CLR 14/09 A2993 RMK AO2 SLP141 T01440089=
200906120553 METAR KBLI 120553Z AUTO 16006KT 10SM CLR 15/10 A2993 RMK AO2 SLP141 T01500100 10194 20150 53005=
200906120453 METAR KBLI 120453Z 17007KT 10SM CLR 16/11 A2993 RMK AO2 SLP139 T01560106=
200906120353 METAR KBLI 120353Z 17008KT 10SM CLR 16/11 A2991 RMK AO2 SLP135 T01610111=
200906120253 METAR KBLI 120253Z 18006KT 10SM CLR 17/11 A2991 RMK AO2 SLP136 T01670106 55003=
200906120153 METAR KBLI 120153Z 18007KT 10SM CLR 18/11 A2991 RMK AO2 SLP135 T01780111=
200906120053 METAR KBLI 120053Z 18009G14KT 10SM CLR 19/11 A2992 RMK AO2 SLP136 T01890106=
200906112353 METAR KBLI 112353Z 18009KT 10SM CLR 19/11 A2992 RMK AO2 SLP139 T01890106 10194 20150 55006=
200906112253 METAR KBLI 112253Z 17011KT 10SM CLR 19/11 A2992 RMK AO2 SLP137 T01940106=
200906112153 METAR KBLI 112153Z 18009KT 10SM CLR 19/11 A2993 RMK AO2 SLP140 T01890106 $=
200906112053 METAR KBLI 112053Z 18009G15KT 10SM CLR 18/10 A2994 RMK AO2 SLP145 T01780100 58007 $=
200906111953 METAR KBLI 111953Z 17011G18KT 10SM CLR 17/10 A2995 RMK AO2 SLP148 T01720100 $=
200906111853 METAR KBLI 111853Z 18012G18KT 10SM CLR 17/10 A2996 RMK AO2 SLP151 T01670100 $=
200906111753 METAR KBLI 111753Z 17011KT 10SM CLR 15/09 A2996 RMK AO2 SLP152 T01500094 10156 20133 55000 $=
200906111653 METAR KBLI 111653Z 17012G18KT 10SM FEW060 16/09 A2996 RMK AO2 SLP152 T01560094 $=
200906111553 METAR KBLI 111553Z 16012G18KT 10SM OVC065 14/09 A2996 RMK AO2 SLP152 T01440094 $=
200906111453 METAR KBLI 111453Z 17009KT 10SM OVC065 15/09 A2996 RMK AO2 SLP152 T01500089 53009 $=
200906111353 METAR KBLI 111353Z 16005KT 10SM SCT065 14/08 A2995 RMK AO2 SLP147 T01440083 $=
200906111253 METAR KBLI 111253Z AUTO 15007KT 10SM OVC070 14/08 A2994 RMK AO2 SLP144 T01390078 $=
200906111153 METAR KBLI 111153Z AUTO 14008KT 10SM BKN065 BKN075 13/08 A2993 RMK AO2 SLP142 T01330078 10156 20128 50005 $=
200906111053 METAR KBLI 111053Z AUTO 15009KT 10SM OVC080 14/08 A2994 RMK AO2 SLP143 T01390078 $=
200906110953 METAR KBLI 110953Z AUTO 17006KT 10SM CLR 13/09 A2993 RMK AO2 SLP141 T01330089 $=
200906110853 METAR KBLI 110853Z AUTO 19008KT 10SM CLR 14/08 A2992 RMK AO2 SLP137 T01390083 51003 $=
200906110753 METAR KBLI 110753Z AUTO 18006KT 10SM CLR 14/08 A2992 RMK AO2 SLP137 T01440078 402170128 $=
200906110653 METAR KBLI 110653Z AUTO 17007KT 10SM CLR 15/09 A2992 RMK AO2 SLP136 T01500089 $=
200906110553 METAR KBLI 110553Z AUTO 18008KT 10SM CLR 16/09 A2991 RMK AO2 SLP134 T01560094 10211 20156 53007 $=
200906110453 METAR KBLI 110453Z 18008KT 10SM CLR 16/10 A2989 RMK AO2 SLP128 T01560100 $=
200906110353 METAR KBLI 110353Z 18007KT 10SM CLR 17/11 A2989 RMK AO2 SLP126 T01670106 $=
200906110253 METAR KBLI 110253Z 17006KT 10SM CLR 18/11 A2989 RMK AO2 SLP127 T01780111 53003 $=
200906110153 METAR KBLI 110153Z 18006KT 10SM CLR 19/11 A2987 RMK AO2 SLP122 T01940111 $=
200906110053 METAR KBLI 110053Z 17007KT 10SM CLR 21/11 A2987 RMK AO2 SLP121 T02060111 $=
200906102353 METAR KBLI 102353Z 17007KT 10SM CLR 21/11 A2988 RMK AO2 SLP124 T02060111 10217 20172 56008 $=
200906102253 METAR KBLI 102253Z 17007KT 10SM CLR 21/11 A2988 RMK AO2 SLP124 T02110111 $=
200906102153 METAR KBLI 102153Z 17009KT 10SM CLR 21/11 A2989 RMK AO2 SLP127 T02060106 $=
200906102053 METAR KBLI 102053Z 18010G19KT 10SM CLR 19/10 A2990 RMK AO2 SLP132 T01940100 58008 $=
200906101953 METAR KBLI 101953Z 17011KT 10SM CLR 19/11 A2992 RMK AO2 SLP136 T01940106 $=
200906101853 METAR KBLI 101853Z 16012G17KT 10SM CLR 18/11 A2993 RMK AO2 SLP141 T01830106 $=
200906101753 METAR KBLI 101753Z 16012G19KT 10SM CLR 17/11 A2993 RMK AO2 SLP140 T01720106 10172 20128 58001 $=
200906101653 METAR KBLI 101653Z 17013G18KT 10SM CLR 16/10 A2993 RMK AO2 SLP142 T01610100 $=
200906101553 METAR KBLI 101553Z 16016G19KT 10SM CLR 16/09 A2993 RMK AO2 SLP142 T01610094 $=
200906101453 METAR KBLI 101453Z 17008KT 10SM CLR 16/09 A2993 RMK AO2 SLP139 T01610094 53012 $=
200906101353 METAR KBLI 101353Z 16005KT 10SM CLR 15/09 A2991 RMK AO2 SLP135 T01500089 $=
200906101253 METAR KBLI 101253Z AUTO 16004KT 10SM CLR 13/10 A2990 RMK AO2 SLP132 T01280100 $=
200906101153 METAR KBLI 101153Z AUTO 17005KT 10SM CLR 13/09 A2989 RMK AO2 SLP128 T01330094 10167 20128 53010 $=
200906101053 METAR KBLI 101053Z AUTO 19005KT 10SM CLR 13/09 A2988 RMK AO2 SLP123 T01330094 $=
200906100953 METAR KBLI 100953Z AUTO 18004KT 10SM CLR 14/10 A2987 RMK AO2 SLP121 T01390100 $=
200906100853 METAR KBLI 100853Z AUTO 20003KT 10SM CLR 14/11 A2986 RMK AO2 SLP119 T01390106 51011 $=
200906100753 METAR KBLI 100753Z AUTO 17005KT 10SM CLR 15/11 A2986 RMK AO2 SLP115 T01500106 402440100 $=
200906100653 METAR KBLI 100653Z AUTO 18003KT 10SM CLR 14/12 A2984 RMK AO2 SLP112 T01440122 $=
200906100553 METAR KBLI 100553Z AUTO 19004KT 10SM CLR 17/12 A2983 RMK AO2 SLP107 T01670117 10244 20150 53014 $=
200906100453 METAR KBLI 100453Z 00000KT 10SM CLR 16/12 A2982 RMK AO2 SLP103 T01610117 $=
200906100353 METAR KBLI 100353Z 16003KT 10SM CLR 18/11 A2980 RMK AO2 SLP095 T01780111 $=
200906100253 METAR KBLI 100253Z 27004KT 10SM CLR 21/11 A2979 RMK AO2 SLP093 T02110106 55004 $=
200906100153 METAR KBLI 100153Z 28004KT 10SM CLR 23/11 A2979 RMK AO2 SLP092 T02330111 $=
200906100053 METAR KBLI 100053Z VRB06KT 10SM CLR 24/11 A2979 RMK AO2 SLP094 T02390106 $=
200906092353 METAR KBLI 092353Z 29006KT 10SM CLR 24/11 A2980 RMK AO2 SLP097 T02440106 10244 20189 56015 $=
200906092253 METAR KBLI 092253Z 29006KT 10SM CLR 24/12 A2982 RMK AO2 SLP102 T02440117 $=
200906092153 METAR KBLI 092153Z VRB05KT 10SM CLR 24/12 A2983 RMK AO2 SLP105 T02390117 $=
200906092053 METAR KBLI 092053Z 29003KT 10SM CLR 23/13 A2984 RMK AO2 SLP112 T02280128 57010 $=
200906091953 METAR KBLI 091953Z 00000KT 10SM CLR 22/13 A2986 RMK AO2 SLP115 T02220128 $=
200906091853 METAR KBLI 091853Z VRB04KT 10SM CLR 22/13 A2986 RMK AO2 SLP118 T02170128 $=
200906091753 METAR KBLI 091753Z 23003KT 10SM CLR 19/12 A2987 RMK AO2 SLP122 T01890122 10189 20106 50001 $=
200906091653 METAR KBLI 091653Z VRB03KT 10SM CLR 18/12 A2988 RMK AO2 SLP123 T01780117 $=
200906091553 METAR KBLI 091553Z 00000KT 10SM FEW110 16/11 A2988 RMK AO2 SLP123 T01560111 $=
200906091453 METAR KBLI 091453Z 23003KT 10SM CLR 14/11 A2987 RMK AO2 SLP121 T01390106 51007 $=
200906091353 METAR KBLI 091353Z AUTO 00000KT 8SM CLR 12/10 A2987 RMK AO2 SLP120 T01220100 $=
200906091253 METAR KBLI 091253Z AUTO 00000KT 9SM OVC050 11/09 A2986 RMK AO2 SLP118 T01110094 $=
200906091153 METAR KBLI 091153Z AUTO 00000KT 8SM OVC046 11/09 A2985 RMK AO2 SLP114 T01060089 10139 20100 55000 $=
200906091053 METAR KBLI 091053Z AUTO 16003KT 10SM CLR 12/10 A2985 RMK AO2 SLP113 T01220100 $=
200906090953 METAR KBLI 090953Z AUTO 17006KT 10SM CLR 13/10 A2985 RMK AO2 SLP114 T01330100 $=
200906090853 METAR KBLI 090853Z AUTO 17005KT 10SM CLR 13/11 A2985 RMK AO2 SLP114 T01280106 58001 $=
200906090753 METAR KBLI 090753Z AUTO 00000KT 10SM CLR 13/11 A2986 RMK AO2 SLP116 T01280106 402060128 $=
200906090653 METAR KBLI 090653Z AUTO 18003KT 10SM CLR 13/11 A2986 RMK AO2 SLP115 T01330111 $=
200906090553 METAR KBLI 090553Z AUTO 17005KT 10SM CLR 14/11 A2985 RMK AO2 SLP115 T01390111 10206 20128 53001 $=
200906090453 METAR KBLI 090453Z 18003KT 10SM CLR 14/11 A2985 RMK AO2 SLP115 T01440106 $=
200906090353 METAR KBLI 090353Z 18005KT 10SM CLR 16/11 A2985 RMK AO2 SLP114 T01560106 $=
200906090253 METAR KBLI 090253Z 17003KT 10SM CLR 17/12 A2985 RMK AO2 SLP114 T01720117 56007 $=
200906090153 METAR KBLI 090153Z 17004KT 10SM CLR 19/11 A2985 RMK AO2 SLP115 T01890106 $=
200906090053 METAR KBLI 090053Z 19003KT 10SM CLR 19/11 A2986 RMK AO2 SLP117 T01890111 $=
200906082353 METAR KBLI 082353Z 31004KT 10SM CLR 20/11 A2987 RMK AO2 SLP121 T02000111 10206 20150 58014 $=
200906082253 METAR KBLI 082253Z 16006KT 10SM CLR 19/11 A2989 RMK AO2 SLP127 T01940111 $=
200906082153 METAR KBLI 082153Z VRB04KT 10SM CLR 19/10 A2990 RMK AO2 SLP130 T01890100 $=
200906082053 SPECI KBLI 082053Z 17007KT 10SM CLR 18/09 A2991 RMK AO2 SLP135 T01830094 58004 $=
200906081953 METAR KBLI 081953Z VRB04KT 10SM OVC042 16/09 A2992 RMK AO2 SLP139 T01610094 $=
200906081853 METAR KBLI 081853Z 18006KT 10SM OVC040 15/09 A2993 RMK AO2 SLP141 T01500094 $=
200906081753 METAR KBLI 081753Z 16009KT 10SM OVC042 16/09 A2992 RMK AO2 SLP139 T01560094 10156 20139 51004 $=
200906081653 METAR KBLI 081653Z 17014G18KT 10SM BKN050 BKN060 OVC080 15/09 A2992 RMK AO2 SLP137 T01500094 $=
200906081553 METAR KBLI 081553Z 16011G19KT 10SM SCT055 SCT080 14/09 A2992 RMK AO2 SLP138 T01440089 $=
200906081453 METAR KBLI 081453Z 16011G17KT 10SM FEW060 BKN080 14/08 A2991 RMK AO2 SLP135 T01390083 50001 $=
200906081353 METAR KBLI 081353Z 16011KT 10SM BKN060 OVC080 14/08 A2991 RMK AO2 SLP135 T01390078 $=
200906081253 METAR KBLI 081253Z AUTO 16011KT 10SM OVC060 14/07 A2991 RMK AO2 SLP134 T01440072 $=
200906081153 METAR KBLI 081153Z AUTO 15009KT 10SM OVC085 14/08 A2991 RMK AO2 SLP134 T01440078 10150 20139 50000 $=
200906081053 METAR KBLI 081053Z AUTO 16008KT 10SM SCT065 OVC085 14/08 A2992 RMK AO2 SLP138 T01440078 $=
200906080953 METAR KBLI 080953Z AUTO 17010G15KT 10SM BKN070 OVC085 14/08 A2992 RMK AO2 SLP137 T01440083 $=
200906080853 METAR KBLI 080853Z AUTO 16012G18KT 10SM OVC080 15/08 A2991 RMK AO2 SLP134 T01500078 53002 $=
200906080753 METAR KBLI 080753Z AUTO 15013KT 10SM OVC080 15/08 A2990 RMK AO2 SLP131 T01500083 402000144 $=
200906080653 METAR KBLI 080653Z AUTO 16010KT 10SM FEW075 15/09 A2991 RMK AO2 SLP134 T01500089 $=
200906080553 METAR KBLI 080553Z AUTO 16008KT 10SM FEW080 15/09 A2990 RMK AO2 SLP132 T01500094 10194 20150 53005 $=
200906080453 METAR KBLI 080453Z 16009KT 10SM CLR 16/09 A2990 RMK AO2 SLP129 T01560094 $=
200906080353 METAR KBLI 080353Z 16008KT 10SM CLR 17/09 A2989 RMK AO2 SLP127 T01670094 $=
200906080253 METAR KBLI 080253Z 17008KT 10SM CLR 17/11 A2989 RMK AO2 SLP127 T01670106 56001 $=
200906080153 METAR KBLI 080153Z 17007KT 10SM CLR 18/11 A2989 RMK AO2 SLP128 T01780106 $=
200906080053 METAR KBLI 080053Z 18007KT 10SM CLR 19/10 A2989 RMK AO2 SLP126 T01890100 $=
200906072353 METAR KBLI 072353Z 17009KT 10SM CLR 19/10 A2989 RMK AO2 SLP128 T01940100 10200 20167 56010 $=
200906072253 METAR KBLI 072253Z 17011G15KT 10SM CLR 20/10 A2990 RMK AO2 SLP131 T02000100 $=
200906072153 METAR KBLI 072153Z 18009G15KT 10SM CLR 19/10 A2991 RMK AO2 SLP134 T01940100 $=
200906072053 METAR KBLI 072053Z 17008KT 10SM CLR 19/10 A2992 RMK AO2 SLP139 T01890100 58001 $=
200906071953 METAR KBLI 071953Z 16009KT 10SM CLR 18/10 A2992 RMK AO2 SLP138 T01830100 $=
200906071853 METAR KBLI 071853Z 19008KT 10SM FEW075 17/10 A2993 RMK AO2 SLP140 T01720100 $=
200906071753 METAR KBLI 071753Z 18008G14KT 10SM BKN070 17/11 A2993 RMK AO2 SLP139 T01670106 10167 20144 53004 $=
200906071653 METAR KBLI 071653Z 18009KT 10SM BKN070 OVC085 16/11 A2992 RMK AO2 SLP137 T01560111 $=
200906071553 METAR KBLI 071553Z 17008KT 10SM OVC065 15/11 A2992 RMK AO2 SLP137 T01500106 $=
200906071453 METAR KBLI 071453Z 16007KT 10SM OVC070 15/11 A2991 RMK AO2 SLP135 T01500106 53004 $=
200906071353 METAR KBLI 071353Z 16008KT 10SM FEW060 OVC075 15/11 A2991 RMK AO2 SLP133 T01500106 $=
200906071253 METAR KBLI 071253Z AUTO 16005KT 10SM OVC070 14/11 A2990 RMK AO2 SLP132 T01440111 $=
200906071153 METAR KBLI 071153Z AUTO 17004KT 10SM FEW024 OVC070 14/11 A2990 RMK AO2 SLP131 T01440111 10150 20133 53003 $=
200906071053 METAR KBLI 071053Z AUTO 17004KT 10SM OVC065 15/11 A2989 RMK AO2 SLP128 T01500111 $=
200906070953 METAR KBLI 070953Z AUTO 17005KT 10SM OVC060 15/11 A2990 RMK AO2 SLP130 T01500111 $=
200906070853 METAR KBLI 070853Z AUTO 16005KT 10SM OVC060 15/11 A2989 RMK AO2 SLP128 T01500111 51006 $=
200906070753 METAR KBLI 070753Z AUTO 17003KT 10SM OVC060 14/11 A2989 RMK AO2 SLP126 T01440106 401830133 $=
200906070653 METAR KBLI 070653Z AUTO 00000KT 10SM BKN055 14/11 A2988 RMK AO2 SLP124 T01440106 $=
200906070553 METAR KBLI 070553Z AUTO 18003KT 10SM CLR 13/11 A2987 RMK AO2 SLP122 T01330106 10183 20133 51005 $=
200906070453 METAR KBLI 070453Z 00000KT 10SM CLR 14/11 A2987 RMK AO2 SLP121 T01390106 $=
200906070353 METAR KBLI 070353Z 18003KT 10SM OVC060 16/11 A2986 RMK AO2 SLP117 T01610111 $=
200906070253 METAR KBLI 070253Z VRB04KT 10SM BKN055 17/11 A2986 RMK AO2 SLP117 T01720111 53002 $=
200906070153 METAR KBLI 070153Z 17005KT 10SM CLR 18/11 A2985 RMK AO2 SLP114 T01780111 $=
200906070053 METAR KBLI 070053Z 18006KT 10SM CLR 18/11 A2985 RMK AO2 SLP113 T01830106 $=
200906062353 METAR KBLI 062353Z 19006KT 10SM SCT035 SCT043 OVC060 18/11 A2985 RMK AO2 SLP114 T01780106 10183 20156 58003 $=
200906062253 METAR KBLI 062253Z 19005KT 10SM BKN038 OVC060 18/11 A2985 RMK AO2 SLP115 T01830111 $=
200906062153 METAR KBLI 062153Z 17007KT 10SM BKN036 OVC060 18/11 A2986 RMK AO2 SLP117 T01780111 $=
200906062053 METAR KBLI 062053Z 17008KT 10SM OVC034 17/12 A2986 RMK AO2 SLP117 T01720117 53002 $=
200906061953 METAR KBLI 061953Z 00000KT 10SM SCT029 BKN038 OVC055 17/11 A2986 RMK AO2 SLP117 T01670111 $=
200906061928 SPECI KBLI 061928Z 18004KT 10SM SCT027 BKN040 OVC055 17/11 A2986 RMK AO2 $=
200906061928 SPECI KBLI 061928Z 18004KT 10SM SCT027 BKN040 OVC055 17/11 A2986 RMK AO2 $=
200906061911 SPECI KBLI 061911Z 19005KT 10SM BKN027 BKN031 OVC050 16/11 A2986 RMK AO2 $=
200906061911 SPECI KBLI 061911Z 19005KT 10SM BKN027 BKN031 OVC050 16/11 A2986 RMK AO2 $=
200906061900 SPECI KBLI 061900Z 18006KT 10SM SCT027 BKN039 OVC050 16/11 A2986 RMK AO2 $=
200906061900 SPECI KBLI 061900Z 18006KT 10SM SCT027 BKN039 OVC050 16/11 A2986 RMK AO2 $=
200906061853 METAR KBLI 061853Z 20007KT 10SM BKN022 BKN033 OVC039 16/11 A2986 RMK AO2 SLP115 T01610111 $=
200906061753 METAR KBLI 061753Z 17006KT 10SM OVC024 16/12 A2986 RMK AO2 SLP116 T01560117 10156 20139 53007 $=
200906061723 SPECI KBLI 061723Z 17005KT 10SM BKN024 OVC032 16/12 A2985 RMK AO2 $=
200906061723 SPECI KBLI 061723Z 17005KT 10SM BKN024 OVC032 16/12 A2985 RMK AO2 $=
200906061653 METAR KBLI 061653Z 16006KT 10SM SCT026 OVC030 16/12 A2985 RMK AO2 SLP113 T01560117 $=
200906061642 SPECI KBLI 061642Z 16005KT 10SM BKN026 OVC032 16/12 A2985 RMK AO2 $=
200906061642 SPECI KBLI 061642Z 16005KT 10SM BKN026 OVC032 16/12 A2985 RMK AO2 $=
200906061553 METAR KBLI 061553Z 17007KT 10SM SCT025 BKN032 OVC049 16/11 A2984 RMK AO2 SLP111 T01560111 $=
200906061453 METAR KBLI 061453Z 18006KT 10SM OVC026 14/12 A2983 RMK AO2 SLP108 T01440117 53007 $=
200906061353 METAR KBLI 061353Z 18005KT 10SM OVC026 14/12 A2983 RMK AO2 SLP107 T01440117 $=
200906061311 SPECI KBLI 061311Z AUTO 19004KT 10SM BKN026 OVC065 14/11 A2982 RMK AO2 $=
200906061311 SPECI KBLI 061311Z AUTO 19004KT 10SM BKN026 OVC065 14/11 A2982 RMK AO2 $=
200906061253 METAR KBLI 061253Z AUTO 17004KT 10SM OVC065 14/11 A2982 RMK AO2 SLP102 T01390111 $=
200906061237 SPECI KBLI 061237Z AUTO 17006KT 10SM SCT027 OVC065 14/11 A2981 RMK AO2 $=
200906061237 SPECI KBLI 061237Z AUTO 17006KT 10SM SCT027 OVC065 14/11 A2981 RMK AO2 $=
200906061153 METAR KBLI 061153Z AUTO 17005KT 10SM OVC023 14/11 A2981 RMK AO2 SLP101 T01390111 10167 20139 53008 $=
200906061053 METAR KBLI 061053Z AUTO 18006KT 10SM OVC023 14/11 A2980 RMK AO2 SLP097 T01390111 $=
200906061028 SPECI KBLI 061028Z AUTO 18007KT 10SM BKN023 OVC070 14/11 A2980 RMK AO2 $=
200906061028 SPECI KBLI 061028Z AUTO 18007KT 10SM BKN023 OVC070 14/11 A2980 RMK AO2 $=
200906061016 SPECI KBLI 061016Z AUTO 18008G15KT 10SM SCT025 OVC070 14/11 A2979 RMK AO2 $=
200906061016 SPECI KBLI 061016Z AUTO 18008G15KT 10SM SCT025 OVC070 14/11 A2979 RMK AO2 $=
200906060953 METAR KBLI 060953Z AUTO 18009G15KT 10SM OVC023 14/11 A2979 RMK AO2 SLP095 T01390111 $=
200906060853 METAR KBLI 060853Z AUTO 17007G15KT 10SM BKN023 OVC070 14/11 A2979 RMK AO2 SLP093 T01440111 51010 $=
200906060753 METAR KBLI 060753Z AUTO 16014G23KT 10SM OVC021 16/11 A2978 RMK AO2 SLP091 T01610111 402000150 $=
200906060653 METAR KBLI 060653Z AUTO 17011KT 10SM BKN019 16/12 A2978 RMK AO2 SLP089 T01560122 $=
200906060553 METAR KBLI 060553Z AUTO 17014G23KT 10SM CLR 16/11 A2976 RMK AO2 SLP083 T01560111 10200 20156 53015 $=
200906060453 METAR KBLI 060453Z 16014G18KT 10SM CLR 16/12 A2974 RMK AO2 SLP078 T01610117 $=
200906060353 METAR KBLI 060353Z 16012G21KT 10SM CLR 16/11 A2972 RMK AO2 SLP070 T01610111 $=
200906060253 METAR KBLI 060253Z 17013KT 10SM CLR 18/12 A2971 RMK AO2 SLP068 T01780117 55007 $=
200906060153 METAR KBLI 060153Z 17012G20KT 10SM CLR 19/12 A2971 RMK AO2 SLP066 T01890117 $=
200906060053 METAR KBLI 060053Z 17012KT 10SM CLR 19/12 A2973 RMK AO2 SLP071 T01890122 $=
200906052353 METAR KBLI 052353Z 17013G17KT 10SM CLR 19/12 A2973 RMK AO2 SLP075 T01940122 10200 20183 56015 $=
200906052253 METAR KBLI 052253Z AUTO 17011KT 10SM CLR 20/12 A2974 RMK AO2 SLP077 T02000122 TSNO $=
200906052153 METAR KBLI 052153Z 19006G15KT 10SM CLR 19/12 A2976 RMK AO2 SLP083 T01940117 $=
200906052053 METAR KBLI 052053Z 18010G16KT 10SM CLR 20/12 A2978 RMK AO2 SLP088 T02000117 58010 $=
200906051953 METAR KBLI 051953Z 18012G18KT 10SM CLR 19/12 A2979 RMK AO2 SLP092 T01940117 $=
200906051853 METAR KBLI 051853Z 19009KT 10SM CLR 20/12 A2980 RMK AO2 SLP096 T02000117 $=
200906051753 METAR KBLI 051753Z 18009G17KT 10SM CLR 18/12 A2981 RMK AO2 SLP099 T01830117 10189 20161 58009 $=
200906051653 METAR KBLI 051653Z 18009G16KT 10SM CLR 18/13 A2982 RMK AO2 SLP101 T01830128=
200906051553 METAR KBLI 051553Z 17010KT 10SM CLR 18/12 A2983 RMK AO2 SLP105 T01780122=
200906051453 METAR KBLI 051453Z 17010KT 10SM CLR 17/12 A2983 RMK AO2 SLP108 T01670122 50003=
200906051353 METAR KBLI 051353Z 16010KT 10SM CLR 17/12 A2984 RMK AO2 SLP108 T01670122=
200906051253 METAR KBLI 051253Z AUTO 16010G18KT 10SM CLR 17/12 A2983 RMK AO2 SLP105 T01670117=
200906051153 METAR KBLI 051153Z AUTO 17010G18KT 10SM CLR 16/12 A2982 RMK AO2 SLP104 T01610117 10222 20156 53011=
200906051100 METAR KBLI NIL=
200906051053 METAR KBLI 051053Z AUTO 17016G24KT 10SM CLR 18/12 A2980 RMK AO2 SLP095 T01780117=
200906050953 METAR KBLI 050953Z AUTO 17014KT 10SM CLR 19/11 A2980 RMK AO2 SLP095 T01890111=
200906050853 METAR KBLI 050853Z AUTO 17010KT 10SM CLR 19/12 A2979 RMK AO2 SLP093 T01890117 51019=
200906050753 METAR KBLI 050753Z AUTO 17017G26KT 10SM CLR 19/12 A2978 RMK AO2 PK WND 17030/0740 SLP089 T01940117 402890100=
200906050653 METAR KBLI 050653Z AUTO 16013G20KT 10SM CLR 20/11 A2976 RMK AO2 PRESRR SLP084 T02000106=
200906050553 METAR KBLI 050553Z AUTO 00000KT 10SM CLR 17/12 A2973 RMK AO2 SLP073 T01670122 10289 20161 53002=
200906050453 METAR KBLI 050453Z 00000KT 10SM CLR 19/13 A2973 RMK AO2 SLP073 T01890128=
200906050353 METAR KBLI 050353Z 00000KT 9SM CLR 22/13 A2973 RMK AO2 SLP070 T02170133=
200906050253 METAR KBLI 050253Z 00000KT 10SM CLR 24/16 A2973 RMK AO2 SLP071 T02440161 55009=
200906050153 METAR KBLI 050153Z 00000KT 10SM CLR 27/14 A2972 RMK AO2 SLP070 T02720144=
200906050053 METAR KBLI 050053Z 31003KT 10SM CLR 28/13 A2973 RMK AO2 SLP072 T02830128=
200906042353 METAR KBLI 042353Z 29005KT 10SM CLR 29/10 A2975 RMK AO2 SLP080 T02890100 10289 20256 58021=
200906042253 METAR KBLI 042253Z 29007KT 10SM CLR 28/08 A2978 RMK AO2 SLP088 T02830083=
200906042153 METAR KBLI 042153Z 26005KT 10SM CLR 28/11 A2980 RMK AO2 SLP096 T02780106=
200906042053 METAR KBLI 042053Z 29007KT 10SM CLR 27/11 A2982 RMK AO2 SLP101 T02720106 56013=
200906041953 METAR KBLI 041953Z 28008KT 10SM CLR 26/11 A2983 RMK AO2 SLP106 T02610111=
200906041853 METAR KBLI 041853Z 28007KT 10SM CLR 26/11 A2984 RMK AO2 SLP109 T02610111=
200906041753 METAR KBLI 041753Z 29005KT 10SM CLR 26/09 A2985 RMK AO2 SLP114 T02610089 10261 20106 58008=
200906041653 METAR KBLI 041653Z 34006KT 10SM CLR 24/10 A2987 RMK AO2 SLP119 T02440100=
200906041553 METAR KBLI 041553Z 02006KT 10SM CLR 22/10 A2988 RMK AO2 SLP122 T02170100=
200906041453 METAR KBLI 041453Z 02003KT 10SM CLR 18/09 A2988 RMK AO2 SLP123 T01830094 58002=
200906041353 METAR KBLI 041353Z 00000KT 10SM CLR 14/11 A2988 RMK AO2 SLP124 T01390111=
200906041253 METAR KBLI 041253Z AUTO 00000KT 10SM CLR 12/08 A2988 RMK AO2 SLP124 T01220078=
200906041153 METAR KBLI 041153Z AUTO 00000KT 10SM CLR 11/08 A2988 RMK AO2 SLP124 T01110083 10178 20100 58004=
200906041053 METAR KBLI 041053Z AUTO 00000KT 10SM CLR 10/08 A2989 RMK AO2 SLP127 T01000078=
200906040953 METAR KBLI 040953Z AUTO 00000KT 10SM CLR 12/09 A2990 RMK AO2 SLP129 T01220094=
200906040853 METAR KBLI 040853Z 00000KT 10SM CLR 13/09 A2990 RMK AO2 SLP128 T01330094 50004=
200906040753 METAR KBLI 040753Z 00000KT 10SM CLR 16/11 A2990 RMK AO2 SLP130 T01560106 402890100=
200906040653 METAR KBLI 040653Z 00000KT 7SM CLR 16/10 A2988 RMK AO2 SLP124 T01610100=
200906040553 METAR KBLI 040553Z 00000KT 10SM CLR 17/11 A2988 RMK AO2 SLP124 T01720111 10289 20161 53002=
200906040453 METAR KBLI 040453Z 00000KT 8SM CLR 18/11 A2988 RMK AO2 SLP123 T01830106=
200906040353 METAR KBLI 040353Z 00000KT 10SM CLR 20/12 A2987 RMK AO2 SLP120 T02000122=
200906040253 METAR KBLI 040253Z 00000KT 10SM CLR 24/14 A2988 RMK AO2 SLP122 T02390139 56014=
200906040153 METAR KBLI 040153Z 00000KT 10SM CLR 27/09 A2989 RMK AO2 SLP126 T02720089=
200906040053 METAR KBLI 040053Z 00000KT 10SM CLR 28/07 A2990 RMK AO2 SLP131 T02830072=
200906032353 METAR KBLI 032353Z 28007KT 10SM CLR 28/06 A2992 RMK AO2 SLP136 T02830056 10283 20261 58011=
200906032253 METAR KBLI 032253Z 28008KT 10SM CLR 28/06 A2993 RMK AO2 SLP140 T02780061=
200906032153 METAR KBLI 032153Z 27007KT 10SM CLR 27/09 A2994 RMK AO2 SLP144 T02670094=
200906032053 METAR KBLI 032053Z VRB06KT 10SM CLR 27/11 A2995 RMK AO2 SLP147 T02720111 56010=
200906031953 METAR KBLI 031953Z 28007KT 10SM CLR 27/12 A2996 RMK AO2 SLP150 T02670117=
200906031853 METAR KBLI 031853Z 32005KT 10SM CLR 28/08 A2997 RMK AO2 SLP153 T02780083=
200906031753 METAR KBLI 031753Z 03006KT 10SM CLR 27/08 A2998 RMK AO2 SLP157 T02670083 10267 20100 58006=
200906031653 METAR KBLI 031653Z 35006KT 10SM CLR 25/10 A2999 RMK AO2 SLP160 T02500100=
200906031553 METAR KBLI 031553Z 36003KT 10SM CLR 21/10 A3000 RMK AO2 SLP163 T02110100=
200906031453 METAR KBLI 031453Z 00000KT 10SM CLR 18/10 A3000 RMK AO2 SLP163 T01780100 51008=
200906031353 METAR KBLI 031353Z 35004KT 10SM CLR 15/10 A2999 RMK AO2 SLP161 T01500100=
200906031253 METAR KBLI 031253Z AUTO 00000KT 10SM CLR 12/09 A2999 RMK AO2 SLP159 T01220094=
200906031153 METAR KBLI 031153Z AUTO 00000KT 10SM CLR 12/09 A2997 RMK AO2 SLP155 T01170089 10161 20111 53007=
200906031053 METAR KBLI 031053Z AUTO 33003KT 10SM CLR 12/10 A2997 RMK AO2 SLP152 T01220100=
200906030953 METAR KBLI 030953Z AUTO 02003KT 10SM CLR 12/09 A2996 RMK AO2 SLP149 T01170094=
200906030853 METAR KBLI 030853Z AUTO 00000KT 10SM CLR 13/11 A2995 RMK AO2 SLP148 T01330106 53008=
200906030753 METAR KBLI 030753Z AUTO 00000KT 10SM CLR 13/10 A2995 RMK AO2 SLP147 T01330100 402890100=
200906030653 METAR KBLI 030653Z AUTO 00000KT 10SM CLR 14/09 A2993 RMK AO2 SLP141 T01440094=
200906030553 METAR KBLI 030553Z AUTO 00000KT 10SM CLR 16/12 A2993 RMK AO2 SLP140 T01610117 10272 20161 51007=
200906030453 METAR KBLI 030453Z 00000KT 10SM CLR 17/12 A2993 RMK AO2 SLP140 T01720122=
200906030353 METAR KBLI 030353Z 00000KT 10SM CLR 19/13 A2992 RMK AO2 SLP135 T01940128=
200906030253 METAR KBLI 030253Z 00000KT 10SM CLR 23/13 A2991 RMK AO2 SLP133 T02280128 56006=
200906030153 METAR KBLI 030153Z 00000KT 10SM CLR 23/12 A2991 RMK AO2 SLP133 T02330117=
200906030053 METAR KBLI 030053Z 00000KT 10SM CLR 27/07 A2992 RMK AO2 SLP136 T02670072=
200906022353 METAR KBLI 022353Z 25006KT 10SM CLR 27/08 A2993 RMK AO2 SLP139 T02720078 10289 20250 58010=
200906022253 METAR KBLI 022253Z VRB04KT 10SM CLR 28/08 A2994 RMK AO2 SLP144 T02780083=
200906022153 METAR KBLI 022153Z 28008KT 10SM CLR 27/09 A2995 RMK AO2 SLP146 T02720089=
200906022053 METAR KBLI 022053Z 28008KT 10SM CLR 27/12 A2996 RMK AO2 SLP149 T02670117 58009=
200906021953 METAR KBLI 021953Z 27006KT 10SM CLR 27/12 A2997 RMK AO2 SLP153 T02670117=
200906021853 METAR KBLI 021853Z 05008G14KT 010V090 10SM CLR 27/10 A2998 RMK AO2 SLP156 T02720100=
200906021753 METAR KBLI 021753Z 01005KT 10SM CLR 27/08 A2998 RMK AO2 SLP158 T02670083 10267 20100 50002=
200906021653 METAR KBLI 021653Z 00000KT 10SM CLR 24/11 A2999 RMK AO2 SLP159 T02390111=
200906021553 METAR KBLI 021553Z 00000KT 10SM CLR 21/10 A2999 RMK AO2 SLP160 T02110100=
200906021453 METAR KBLI 021453Z 36004KT 10SM CLR 18/10 A2998 RMK AO2 SLP156 T01780100 51008=
200906021353 METAR KBLI 021353Z 00000KT 10SM CLR 14/10 A2997 RMK AO2 SLP154 T01440100=
200906021253 METAR KBLI 021253Z AUTO 00000KT 7SM CLR 12/09 A2996 RMK AO2 SLP152 T01170089=
200906021153 METAR KBLI 021153Z AUTO 00000KT 9SM CLR 12/09 A2995 RMK AO2 SLP149 T01220094 10144 20106 52012=
200906021053 METAR KBLI 021053Z AUTO 00000KT 9SM CLR 12/09 A2994 RMK AO2 SLP143 T01170089=
200906020953 METAR KBLI 020953Z AUTO 00000KT 10SM CLR 12/09 A2993 RMK AO2 SLP140 T01220094=
200906020853 METAR KBLI 020853Z AUTO 00000KT 10SM CLR 13/09 A2992 RMK AO2 SLP136 T01280094 53011=
200906020753 METAR KBLI 020753Z 00000KT 10SM CLR 13/10 A2991 RMK AO2 SLP132 T01280100 402830094=
200906020653 METAR KBLI 020653Z 15004KT 10SM CLR 13/10 A2989 RMK AO2 SLP127 T01330100=
200906020553 METAR KBLI 020553Z 00000KT 10SM CLR 14/10 A2989 RMK AO2 SLP125 T01390100 10250 20139 51007=
200906020453 METAR KBLI 020453Z 00000KT 10SM CLR 15/11 A2988 RMK AO2 SLP123 T01500106=
200906020353 METAR KBLI 020353Z 00000KT 10SM CLR 18/11 A2987 RMK AO2 SLP121 T01780111=
200906020253 METAR KBLI 020253Z 17003KT 10SM CLR 22/11 A2986 RMK AO2 SLP118 T02170111 56005=
200906020153 METAR KBLI 020153Z 19003KT 10SM CLR 24/09 A2986 RMK AO2 SLP118 T02390094=
200906020053 METAR KBLI 020053Z 00000KT 10SM CLR 24/09 A2987 RMK AO2 SLP122 T02440094=
200906012353 METAR KBLI 012353Z 27007KT 10SM CLR 24/10 A2988 RMK AO2 SLP123 T02440100 10283 20244 56005=
200906012253 METAR KBLI 012253Z AUTO 30009KT 10SM CLR 27/09 A2988 RMK AO2 SLP123 T02670089 TSNO=
200906012153 METAR KBLI 012153Z 26006KT 10SM CLR 28/10 A2989 RMK AO2 SLP125 T02780100=
200906012053 METAR KBLI 012053Z 35008KT 10SM CLR 28/04 A2989 RMK AO2 SLP128 T02830039 58007=
200906011953 METAR KBLI 011953Z 36011KT 10SM CLR 28/04 A2990 RMK AO2 SLP130 T02780044=
200906011853 METAR KBLI 011853Z 02013G23KT 10SM CLR 26/03 A2991 RMK AO2 SLP134 T02610028=
200906011753 METAR KBLI 011753Z 02013G24KT 10SM CLR 25/03 A2991 RMK AO2 SLP134 T02500033 10250 20094 58010=
200906011653 METAR KBLI 011653Z 02012G19KT 10SM CLR 23/06 A2992 RMK AO2 SLP137 T02330056=
200906011553 METAR KBLI 011553Z 00000KT 10SM CLR 19/11 A2994 RMK AO2 SLP145 T01890106=
200906011453 METAR KBLI 011453Z 00000KT 10SM CLR 16/12 A2994 RMK AO2 SLP145 T01610122 50005=
200906011353 METAR KBLI 011353Z 00000KT 7SM CLR 13/11 A2994 RMK AO2 SLP146 T01330111=
200906011253 METAR KBLI 011253Z AUTO 00000KT 4SM BR CLR 09/08 A2993 RMK AO2 SLP142 T00940083=
200906011153 METAR KBLI 011153Z AUTO 00000KT 6SM BR CLR 10/08 A2993 RMK AO2 SLP140 T01000083 10144 20094 53001=
200906011053 METAR KBLI 011053Z AUTO 00000KT 10SM CLR 11/09 A2992 RMK AO2 SLP138 T01060089=
200906010953 METAR KBLI 010953Z AUTO 00000KT 9SM CLR 11/09 A2993 RMK AO2 SLP140 T01110094=
200906010853 METAR KBLI 010853Z AUTO 00000KT 10SM CLR 12/10 A2993 RMK AO2 SLP139 T01220100 53005=
200906010753 METAR KBLI 010753Z AUTO 00000KT 10SM CLR 13/11 A2992 RMK AO2 SLP137 T01280106 402280100=
200906010653 METAR KBLI 010653Z AUTO 00000KT 10SM CLR 13/11 A2992 RMK AO2 SLP136 T01330106=
200906010553 METAR KBLI 010553Z AUTO 00000KT 10SM CLR 14/11 A2991 RMK AO2 SLP134 T01440106 10217 20133 53009=
200906010453 METAR KBLI 010453Z 00000KT 10SM CLR 14/11 A2990 RMK AO2 SLP131 T01440106=
200906010353 METAR KBLI 010353Z 00000KT 10SM CLR 16/11 A2989 RMK AO2 SLP126 T01610111=
200906010253 METAR KBLI 010253Z 00000KT 10SM CLR 19/12 A2989 RMK AO2 SLP126 T01890117 56008=
200906010153 METAR KBLI 010153Z 00000KT 10SM CLR 21/11 A2989 RMK AO2 SLP127 T02060111=
200906010053 METAR KBLI 010053Z 25004KT 10SM CLR 21/10 A2990 RMK AO2 SLP130 T02110100=

# No short TAF reports from KBLI in databse.

###################################
#  large TAF from KBLI
###################################
200906302327 TAF KBLI 302327Z 0100/0124 28008KT P6SM SKC FM010300 18004KT P6SM
                       SKC FM011200 VRB04KT P6SM SKC FM011800 36008KT
                       P6SM SKC=
200906301734 TAF KBLI 301734Z 3018/0118 30008KT P6SM SKC FM010300 18004KT P6SM
                       SKC FM011200 VRB04KT P6SM FEW020=
200906301140 TAF KBLI 301140Z 3012/0112 00000KT P6SM SKC FM301800 18008KT P6SM
                       SKC FM010300 18004KT P6SM SKC=
200906300536 TAF KBLI 300536Z 3006/0106 00000KT P6SM SKC FM301500 18007KT P6SM
                       SCT013 FM301800 18008KT P6SM SKC FM010300
                       18004KT P6SM SKC=
200906292322 TAF KBLI 292322Z 3000/3024 27006KT P6SM SKC FM300400 20004KT P6SM
                       SKC FM301200 19003KT P6SM SKC FM301800 20008KT
                       P6SM SKC=
200906291738 TAF KBLI 291738Z 2918/3018 00000KT P6SM OVC015 FM291900 24006KT
                       P6SM SCT015 FM292000 24008KT P6SM SCT250
                       FM300400 20004KT P6SM SKC FM301200 19008KT
                       P6SM SKC=
200906291613 KBLI 291613Z 2916/3012 17005KT P6SM SCT013
                      TEMPO 2916/2917 P6SM BKN013 FM291800 18008KT
                       P6SM SKC=
200906291120 TAF KBLI 291120Z 2912/3012 VRB03KT P6SM SKC FM291800 18008KT P6SM
                       SKC=
200906290539 TAF KBLI 290539Z 2906/3006 18003KT P6SM SKC FM291800 18008KT P6SM
                       SKC=
200906282320 TAF KBLI 282320Z 2900/2924 19007KT P6SM SKC FM290400 19004KT P6SM
                       SKC FM291200 19003KT P6SM SKC FM292100 21008KT
                       P6SM SKC=
200906281809 KBLI 281809Z 2818/2918 18007KT P6SM SCT020 FM282100 19008KT P6SM
                       SKC FM290400 20004KT P6SM SKC=
200906281740 TAF KBLI 281740Z 2818/2918 17008KT P6SM BKN020 FM281900 18007KT
                       P6SM SCT020 FM282100 19008KT P6SM SKC FM290400
                       20004KT P6SM SKC=
200906281142 TAF KBLI 281142Z 2812/2912 18006KT P6SM SCT006 OVC026
                      TEMPO 2812/2816 OVC006 FM281800 18007KT P6SM
                       SCT020 BKN050 FM282100 18008KT P6SM SCT050
                       BKN250 FM290400 18004KT P6SM SKC=
200906280525 TAF KBLI 280525Z 2806/2906 02007KT P6SM -RA SCT020 OVC050 FM281200
                       18006KT P6SM VCSH OVC015 FM281800 18007KT
                       P6SM SCT020 BKN050 FM282100 18008KT P6SM
                       SCT050 BKN250=
200906272344 TAF KBLI 272344Z 2800/2824 18008KT P6SM SCT200 FM280200 20007KT
                       P6SM SCT080 OVC200 FM280900 18007KT P6SM
                       BKN030 OVC060
                      PROB30 2809/2812 -RA FM282100 32008KT P6SM
                       SCT030 SCT050=
200906271728 TAF KBLI 271728Z 2718/2818 VRB03KT P6SM SKC FM271900 18008KT P6SM
                       SCT200 FM280200 20007KT P6SM SCT120 OVC200
                       FM281000 18007KT P6SM BKN030 BKN060=
200906271120 TAF KBLI 271120Z 2712/2812 VRB05KT P6SM SCT200 FM271900 18008KT
                       P6SM BKN200 FM280200 20007KT P6SM SCT120
                       OVC200 FM281000 18007KT P6SM BKN030 BKN060=
200906270523 TAF KBLI 270523Z 2706/2806 VRB05KT P6SM FEW060 SCT200 FM271800
                       18008KT P6SM SCT200 FM280200 20007KT P6SM
                       SCT120 OVC200=
200906262330 TAF KBLI 262330Z 2700/2724 20006KT P6SM SKC FM270600 18005KT P6SM
                       FEW060 SCT200 FM271800 18008KT P6SM SKC=
200906261732 TAF KBLI 261732Z 2618/2718 19007KT P6SM SCT025 BKN050 FM261900
                       20008KT P6SM SCT050 FM270600 18005KT P6SM
                       SCT200=
200906261120 TAF KBLI 261120Z 2612/2712 19007KT P6SM SCT035 BKN060
                      TEMPO 2612/2616 BKN030 FM261900 20008KT P6SM
                       SCT050 FM270600 18005KT P6SM SKC=
200906260826 KBLI 260826Z 2608/2706 17008KT P6SM SCT025 OVC050
                      TEMPO 2608/2612 BKN025 FM261200 19006KT P6SM
                       OVC025 FM261800 22008KT P6SM SCT040 FM270100
                       31005KT P6SM SCT050=
200906260730 KBLI 260730Z 2608/2706 17008KT P6SM BKN018 OVC040 FM261200 19006KT
                       P6SM OVC025 FM261800 22008KT P6SM SCT040
                       FM270100 31005KT P6SM SCT050=
200906260521 TAF KBLI 260521Z 2606/2706 17008KT P6SM FEW030 BKN050 FM261200
                       19006KT P6SM BKN035 FM261800 22008KT P6SM
                       SCT040 FM270100 31005KT P6SM SCT050=
200906252326 TAF KBLI 252326Z 2600/2624 17012G20KT P6SM FEW040 SCT070 FM260700
                       18006KT P6SM SCT030 BKN070 FM261200 20008KT
                       P6SM BKN030 FM261800 22008KT P6SM SCT040=
200906252209 KBLI 252209Z 2522/2618 18012G20KT P6SM SCT040 SCT070 FM260400 19010KT
                       P6SM BKN040 BKN060 FM260800 18006KT P6SM
                       BKN030=
200906251724 TAF KBLI 251724Z 2518/2618 18012G20KT P6SM VCSH SCT020 BKN050 BKN070
                       FM252000 19012KT P6SM VCSH BKN030 BKN050
                       FM260100 19010KT P6SM BKN040 BKN060 FM260800
                       18006KT P6SM BKN030=
200906251122 TAF KBLI 251122Z 2512/2612 18012G20KT P6SM VCSH BKN027 BKN050
                      TEMPO 2512/2516 SCT030 BKN060 FM251600 18012KT
                       P6SM VCSH BKN035 BKN060 FM260100 19010KT
                       P6SM BKN040 BKN060 FM260800 18006KT P6SM
                       BKN030=
200906250738 KBLI 250738Z 2508/2606 17012G20KT P6SM VCSH SCT035 BKN050
                      TEMPO 2508/2511 BKN030 FM251100 18011KT P6SM
                       VCSH OVC030 FM252000 18011KT P6SM BKN035
                       BKN060 FM260100 19009KT P6SM BKN040 BKN060=
200906250520 TAF KBLI 250520Z 2506/2606 17010KT P6SM VCSH SCT035 BKN050
                      TEMPO 2507/2511 BKN030 FM251100 18011KT P6SM
                       VCSH OVC030 FM252000 18011KT P6SM BKN035
                       BKN060 FM260100 19009KT P6SM BKN040 BKN060=
200906242333 TAF KBLI 242333Z 2500/2524 19011KT P6SM VCSH SCT040 BKN070
                      TEMPO 2500/2504 -SHRA BKN030 FM250600 17010KT
                       P6SM VCSH BKN030 BKN040 FM251000 18012KT
                       P6SM OVC030 FM252000 18012KT P6SM BKN030=
200906241727 TAF KBLI 241727Z 2418/2518 17008KT P6SM -RA SCT040 OVC070
                      TEMPO 2418/2421 4SM RA BKN030 FM242100 19011KT
                       P6SM -SHRA BKN035 OVC070 FM250400 17009KT
                       P6SM VCSH BKN035 BKN050 FM251000 18010KT
                       P6SM OVC030=
200906241452 KBLI 241452Z 2415/2512 16007KT P6SM VCSH BKN070 OVC100 FM241700
                       17008KT P6SM -SHRA SCT040 OVC070 FM242000
                       19011KT P6SM -SHRA BKN035 OVC070 FM250400
                       17009KT P6SM VCSH BKN035 BKN050=
200906241120 TAF KBLI 241120Z 2412/2512 16007KT P6SM BKN070 OVC100 FM241700
                       17008KT P6SM VCSH SCT040 OVC070 FM242000
                       19011KT P6SM -SHRA BKN035 OVC070 FM250400
                       17009KT P6SM VCSH BKN035 BKN050=
200906240522 TAF KBLI 240522Z 2406/2506 VRB05KT P6SM SCT070 OVC100 FM241100
                       16007KT P6SM BKN070 OVC100 FM241800 17010KT
                       P6SM VCSH SCT040 OVC070 FM242000 19011KT
                       P6SM -SHRA BKN040 OVC070 FM250200 20010KT
                       P6SM VCSH BKN040=
200906232342 TAF KBLI 232342Z 2400/2424 VRB05KT P6SM OVC250 FM241100 16009KT
                       P6SM BKN100 OVC200 FM241500 17012KT P6SM
                       SCT040 BKN070 OVC200 FM242000 19012KT P6SM
                       VCSH BKN040 OVC100=
200906231720 TAF KBLI 231720Z 2318/2418 20005KT P6SM SCT250 FM240300 19005KT
                       P6SM BKN250 FM241100 16009KT P6SM BKN100
                       OVC200 FM241500 16012KT P6SM SCT040 BKN070
                       OVC200=
200906231145 TAF KBLI 231145Z 2312/2412 00000KT P6SM BKN200
                      TEMPO 2312/2315 3SM BR FM231900 22006KT P6SM
                       BKN200 FM240300 19005KT P6SM SCT250 FM241100
                       17009KT P6SM BKN100 OVC200=
200906230536 TAF KBLI 230536Z 2306/2406 16005KT P6SM SKC FM231100 VRB03KT P6SM
                       SKC FM231900 22006KT P6SM BKN200 FM240500
                       19005KT P6SM SCT250=
200906222328 TAF KBLI 222328Z 2300/2324 21008KT P6SM SCT030 BKN050 FM230200
                       20006KT P6SM SCT050=
200906221745 TAF KBLI 221745Z 2218/2318 16008KT P6SM SCT025 OVC040
                      TEMPO 2218/2219 4SM -RA BKN025 OVC040 FM222000
                       21008KT P6SM SCT030 BKN050 FM230200 25008KT
                       P6SM SCT050 FM230800 20006KT P6SM SCT050=
200906221704 KBLI 221704Z 2217/2312 16006KT P6SM SCT025 OVC040
                      TEMPO 2217/2219 4SM -RA BKN025 OVC040 FM221900
                       21008KT P6SM SCT030 BKN050 FM222200 30007KT
                       P6SM SCT050=
200906221120 TAF KBLI 221120Z 2212/2312 16006KT P6SM BKN050 BKN100 FM221800
                       21008KT P6SM SCT030 BKN050 FM222200 30007KT
                       P6SM SCT050=
200906220905 KBLI 220905Z 2209/2306 16008KT P6SM BKN070 FM221800 21008KT P6SM
                       SCT030 BKN050 FM222200 30007KT P6SM SCT050=
200906220520 TAF KBLI 220520Z 2206/2306 18006KT P6SM SCT030 OVC070
                      TEMPO 2208/2212 BKN025 OVC050 FM221200 18006KT
                       P6SM BKN025 FM221800 21008KT P6SM SCT030
                       BKN050 FM222200 30007KT P6SM SCT050=
200906212323 TAF KBLI 212323Z 2200/2224 16006KT P6SM SCT035 BKN090
                      TEMPO 2200/2204 -SHRA BKN030 OVC060 FM220700
                       17008KT P6SM BKN020 FM221900 18008KT P6SM
                       SCT030 BKN050=
200906211728 TAF KBLI 211728Z 2118/2218 20006KT P6SM VCSH BKN027 OVC090 FM212200
                       22010KT P6SM SCT030 BKN060
                      TEMPO 2122/2202 -SHRA BKN030 OVC060 FM220700
                       33008KT P6SM BKN020=
200906211123 TAF KBLI 211123Z 2112/2212 16006KT P6SM SCT035 BKN070
                      TEMPO 2113/2117 BKN035 OVC060 FM211700 18008KT
                       P6SM VCSH BKN030 BKN070 FM212200 22010KT
                       P6SM SCT030 BKN060
                      TEMPO 2122/2202 -SHRA BKN030 OVC060 FM220700
                       33008KT P6SM BKN020=
200906210520 TAF KBLI 210520Z 2106/2206 VRB04KT P6SM SCT040 BKN080 FM211200
                       VRB04KT P6SM BKN030 BKN080 FM212000 22010KT
                       P6SM VCSH BKN040 BKN080=
200906202327 TAF KBLI 202327Z 2100/2124 19004KT P6SM SCT012 BKN100 FM211300
                       18009KT P6SM OVC050 FM211800 21007KT P6SM
                       SCT025 BKN045 FM212200 21012KT P6SM SCT045
                       SCT100=
200906201720 TAF KBLI 201720Z 2018/2118 18006KT P6SM OVC080 FM202100 23007KT
                       P6SM SCT060 BKN100 FM211300 18009KT P6SM
                       OVC050=
200906201130 TAF KBLI 201130Z 2012/2112 15005KT P6SM BKN040 OVC060 FM201500
                       18006KT P6SM SCT040 BKN060 FM201700 19007KT
                       P6SM SCT060 BKN100 FM202100 23007KT P6SM
                       SCT060 BKN100=
200906200544 TAF KBLI 200544Z 2006/2106 16007KT P6SM BKN050 FM201300 17005KT
                       P6SM SCT015 BKN050 FM201700 19007KT P6SM
                       BKN050 FM202100 23007KT P6SM SCT060=
200906192320 TAF KBLI 192320Z 2000/2024 17010G17KT P6SM VCSH BKN080 OVC150 FM200200
                       18011G18KT P6SM BKN050 FM201000 20009KT
                       P6SM OVC015 FM201700 16007KT P6SM SCT018
                       OVC045=
200906191734 TAF KBLI 191734Z 1918/2018 15012KT P6SM VCSH SCT004 BKN011 OVC040
                       TEMPO 1918/1920 3SM -SHRA BKN015 OVC030
                       FM192000 16013KT P6SM VCSH SCT012 OVC025
                       FM200200 18011KT P6SM BKN030 FM200800 20009KT
                       P6SM OVC015 FM201700 16007KT P6SM SCT018
                       OVC045=
200906191120 TAF KBLI 191120Z 1912/2012 VRB03KT P6SM -RA OVC040
                      TEMPO 1914/1918 5SM -RA BR OVC030 FM191800
                       18012KT P6SM VCSH SCT020 BKN040
                      TEMPO 1922/2002 5SM SHRA BR BKN015 OVC030
                       FM200200 30008KT P6SM VCSH BKN030=
200906190720 TAF KBLI 190720Z 1907/2006 18008KT P6SM VCSH BKN050 OVC090 FM191100
                       18012KT P6SM -SHRA BKN015 OVC030 FM192200
                       27007KT P6SM VCSH SCT020 BKN040=
200906182323 TAF KBLI 182323Z 1900/1924 19006KT P6SM SCT035 SCT150 FM190500
                       16007KT P6SM BKN040 OVC100 FM191400 16010G18KT
                       P6SM -RA BKN025 OVC035 FM192000 20008KT
                       P6SM VCSH SCT025 BKN035=
200906181729 TAF KBLI 181729Z 1818/1918 17011G17KT P6SM SCT040 OVC070 FM182100
                       19008KT P6SM SCT050 BKN200 FM190500 18006KT
                       P6SM BKN040 OVC100 FM191000 17007KT P6SM
                       BKN035=
200906181624 KBLI 181624Z 1816/1912 17012G19KT P6SM BKN050 OVC070 FM182000 18006KT
                       P6SM BKN040 FM182200 21006KT P6SM SCT050
                       BKN200 FM190500 VRB03KT P6SM BKN040 OVC100
                       FM191000 18007KT P6SM VCSH OVC025=
200906181136 TAF KBLI 181136Z 1812/1912 16006KT P6SM SCT025 BKN050
                      TEMPO 1814/1818 BKN025 OVC050 FM181900 18006KT
                       P6SM BKN040 FM182100 21006KT P6SM SCT050
                       BKN200 FM190500 VRB03KT P6SM BKN040 OVC100
                       FM191000 18007KT P6SM VCSH OVC025=
200906180633 KBLI 180633Z 1807/1906 17010KT P6SM SCT030 BKN050 FM181200 19006KT
                       P6SM BKN020 OVC040 FM182000 19006KT P6SM
                       SCT035 BKN050=
200906180521 TAF KBLI 180521Z 1806/1906 17010KT P6SM BKN030 OVC050 FM181600
                       19006KT P6SM BKN025 OVC035 FM182000 19006KT
                       P6SM SCT035 BKN050=
200906172326 TAF KBLI 172326Z 1800/1824 17011KT P6SM SCT050 BKN070 FM180500
                       17008KT P6SM BKN030 OVC050 FM181600 19006KT
                       P6SM BKN025 OVC035 FM182000 19006KT P6SM
                       SCT035 BKN050=
200906172238 KBLI 172238Z 1723/1818 17012KT P6SM SCT050 BKN070 FM180600 17008KT
                       P6SM BKN030 OVC050 FM181600 19006KT P6SM
                       BKN025 OVC035=
200906171728 TAF KBLI 171728Z 1718/1818 17009G17KT P6SM SCT015 OVC050 FM172100
                       20007KT P6SM BKN050 BKN080 FM180600 17008KT
                       P6SM BKN030 OVC050 FM181600 19006KT P6SM
                       BKN025 OVC035=
200906171636 KBLI 171636Z 1717/1812 16006KT P6SM FEW010 BKN035 OVC070 FM172100
                       20007KT P6SM BKN050 BKN080 FM180600 19008KT
                       P6SM BKN030 OVC050=
200906171433 KBLI 171433Z 1715/1812 17009KT P6SM FEW002 BKN016 OVC035
                      TEMPO 1715/1719 -RA FM171900 20007KT P6SM
                       BKN030 OVC050 FM172100 20007KT P6SM BKN050
                       BKN080 FM180600 19008KT P6SM BKN030 OVC050=
200906171121 TAF KBLI 171121Z 1712/1812 18006KT P6SM OVC050 FM171500 17007KT
                       P6SM BKN025 OVC040 FM171900 20007KT P6SM
                       BKN030 OVC050 FM172100 20007KT P6SM BKN050
                       BKN080 FM180600 19008KT P6SM BKN030 OVC050=
200906170541 TAF KBLI 170541Z 1706/1806 18005KT P6SM OVC100 FM170900 18005KT
                       P6SM BKN050 OVC080 FM171200 17007KT P6SM
                       BKN025 OVC040 FM171800 20007KT P6SM BKN030
                       OVC050 FM172100 20007KT P6SM BKN050 BKN080
                       FM180000 19008KT P6SM SCT050 BKN100=
200906162338 TAF KBLI 162338Z 1700/1724 19006KT P6SM BKN150 OVC200 FM170300
                       18005KT P6SM SCT050 BKN100 OVC150 FM170900
                       18008KT P6SM SCT030 BKN060 OVC100 FM171200
                       17008KT P6SM BKN025 OVC040 FM171900 20008KT
                       P6SM BKN030=
200906161739 TAF KBLI 161739Z 1618/1718 18007KT P6SM BKN200 FM170000 19006KT
                       P6SM BKN100 OVC200 FM170700 18005KT P6SM
                       BKN040 OVC100 FM171200 18008KT P6SM BKN025
                       OVC040=
200906161120 TAF KBLI 161120Z 1612/1712 15005KT P6SM BKN200 FM161800 18007KT
                       P6SM OVC200 FM162200 20007KT P6SM OVC150
                       FM170100 19006KT P6SM BKN100 OVC150 FM170700
                       18005KT P6SM BKN030 OVC050=
200906160520 TAF KBLI 160520Z 1606/1706 17007KT P6SM SCT200 FM161000 17005KT
                       P6SM BKN200 FM162100 20007KT P6SM BKN150=
200906152334 TAF KBLI 152334Z 1600/1624 16012G20KT P6SM SCT040 FM160700 19007KT
                       P6SM SCT040 FM161000 18008KT P6SM BKN030
                       FM161800 18008KT P6SM SCT040 SCT250=
200906152008 KBLI 152008Z 1520/1618 16012G20KT P6SM SCT040 FM160400 18008KT
                       P6SM SCT040 FM161200 19007KT P6SM BKN025=
200906151727 TAF KBLI 151727Z 1518/1618 16012G20KT P6SM SCT020 FM160400 18008KT
                       P6SM SCT040 FM161200 19007KT P6SM BKN025=
200906151120 TAF KBLI 151120Z 1512/1612 16008KT P6SM SCT025
                      TEMPO 1514/1516 BKN025 FM152000 18008KT P6SM
                       SCT250=
200906150524 TAF KBLI 150524Z 1506/1606 17010G18KT P6SM SKC FM151200 16010KT
                       P6SM OVC016 FM152000 18008KT P6SM SCT250=
200906142320 TAF KBLI 142320Z 1500/1524 18010G18KT P6SM SKC FM151200 16010KT
                       P6SM OVC016 FM152000 18008KT P6SM SCT250=
200906142116 KBLI 142116Z 1421/1518 19012G18KT P6SM SCT020 FM142300 17014G20KT
                       P6SM SCT025 BKN250 FM151200 16010KT P6SM
                       OVC016=
200906141730 TAF KBLI 141730Z 1418/1518 18006KT P6SM OVC014 FM142200 17012G18KT
                       P6SM SCT025 BKN250 FM151200 16010KT P6SM
                       OVC016=
200906141304 KBLI 141304Z 1413/1512 18012G20KT P6SM OVC014 FM141600 17010KT
                       P6SM OVC018 FM141900 17010KT P6SM SCT250=
200906141120 TAF KBLI 141120Z 1412/1512 18012G20KT P6SM BKN200 FM141300 17010KT
                       P6SM SCT015
                      TEMPO 1414/1417 BKN015 FM141900 17010KT P6SM
                       SCT250=
200906140520 TAF KBLI 140520Z 1406/1506 18012G20KT P6SM BKN200 FM140800 18010KT
                       P6SM BKN200 FM141300 17008KT P6SM SCT010
                       TEMPO 1414/1417 BKN010 FM141900 17010KT
                       P6SM SCT250=
200906132323 TAF KBLI 132323Z 1400/1424 17012G18KT P6SM FEW040 SCT200 FM140500
                       18008KT P6SM BKN200 FM141300 17008KT P6SM
                       SCT010
                      TEMPO 1414/1417 BKN010 FM141900 17010KT P6SM
                       SCT250=
200906131720 TAF KBLI 131720Z 1318/1418 18009KT P6SM SCT006 FM131900 20007KT
                       P6SM SCT200 FM140300 18006KT P6SM BKN200
                       FM141300 17009KT P6SM SCT010
                      TEMPO 1414/1417 BKN010=
200906131133 TAF KBLI 131133Z 1312/1412 18005KT P6SM SCT200 FM131900 20007KT
                       P6SM SCT200 FM140300 18006KT P6SM BKN200=
200906130534 TAF KBLI 130534Z 1306/1406 18005KT P6SM BKN200 FM131900 20007KT
                       P6SM BKN200 FM140300 18006KT P6SM BKN200=
200906122324 TAF KBLI 122324Z 1300/1324 20008KT P6SM FEW040 FM130600 16004KT
                       P6SM SCT250 FM131300 18006KT P6SM OVC015
                       FM131900 19007KT P6SM SCT035 BKN250=
200906121738 TAF KBLI 121738Z 1218/1318 16010KT P6SM SCT040 FM122100 20008KT
                       P6SM SCT040 BKN080
                      TEMPO 1300/1304 BKN040 BKN120 FM130800 18006KT
                       P6SM SCT250=
200906121124 TAF KBLI 121124Z 1212/1312 18006KT P6SM BKN060 FM121700 18010KT
                       P6SM SCT060 SCT250=
200906120543 TAF KBLI 120543Z 1206/1306 18010KT P6SM SCT250=
200906112342 TAF KBLI 112342Z 1200/1224 17009KT P6SM FEW060CB FM120400 17006KT
                       P6SM SCT120 FM121400 17010KT P6SM SCT012
                       SCT120
                      TEMPO 1214/1218 BKN012 BKN120 FM121800 17010KT
                       P6SM SCT022
                      TEMPO 1218/1220 17010G20KT FM122000 17010KT
                       P6SM SCT050CB=
200906111744 TAF KBLI 111744Z 1118/1218 17012G20KT P6SM SCT060 FM112000 19009KT
                       P6SM SCT060CB FM120400 17006KT P6SM SCT120
                       FM121400 17010KT P6SM SCT012 SCT120
                      TEMPO 1214/1218 BKN012 BKN120=
200906111605 KBLI 111605Z 1116/1212 17012G20KT P6SM BKN060 FM111900 17008KT
                       P6SM SCT250=
200906111133 TAF KBLI 111133Z 1112/1212 17008KT P6SM BKN060 FM111700 17008KT
                       P6SM SCT250=
200906110540 TAF KBLI 110540Z 1106/1206 19008KT P6SM SCT250=
200906102327 TAF KBLI 102327Z 1100/1124 17008KT P6SM FEW070 FM110400 17006KT
                       P6SM SCT130 FM111500 17012G20KT P6SM SCT008
                       SCT130 FM111800 17012G20KT P6SM SCT012 SCT060
                       FM111900 19009KT P6SM SCT060CB=
200906102102 KBLI 102102Z 1021/1118 19012KT P6SM SCT070 FM110400 16005KT P6SM
                       SCT130 FM111500 16012KT P6SM FEW008 SCT130=
200906101741 TAF KBLI 101741Z 1018/1118 17013G20KT P6SM FEW070 FM102000 19008KT
                       P6SM SCT070 FM110400 16005KT P6SM SCT130
                       FM111500 16012KT P6SM FEW008 SCT130=
200906101559 KBLI 101559Z 1016/1112 17013KT P6SM FEW070
                      TEMPO 1016/1018 17012G22KT FM101800 17013KT
                       P6SM FEW070 FM102000 19008KT P6SM SCT070
                       FM110400 16005KT P6SM SCT130=
200906101131 TAF KBLI 101131Z 1012/1112 20006KT P6SM SCT250=
200906100545 TAF KBLI 100545Z 1006/1106 VRB03KT P6SM SCT250 FM101900 21006KT
                       P6SM SCT250=
200906092330 TAF KBLI 092330Z 1000/1024 VRB04KT P6SM SCT250 FM100600 17006KT
                       P6SM SCT130 SCT250 FM101500 17009KT P6SM
                       FEW009 SCT130 FM101900 19009KT P6SM SCT060
                       SCT130=
200906091748 TAF KBLI 091748Z 0918/1018 21006KT P6SM FEW060 SCT120 FM100000
                       21006KT P6SM FEW060 BKN120 FM100600 17006KT
                       P6SM SCT120 FM101500 17009KT P6SM FEW009
                       SCT120=
200906091128 TAF KBLI 091128Z 0912/1012 VRB03KT P6SM SCT250 FM091700 19007KT
                       P6SM SCT250=
200906090528 TAF KBLI 090528Z 0906/1006 VRB03KT P6SM SCT250 FM091700 19007KT
                       P6SM SCT250=
200906082324 TAF KBLI 082324Z 0900/0924 16005KT P6SM SKC FM091800 19007KT P6SM
                       SKC=
200906082001 KBLI 082001Z 0820/0918 19008KT P6SM BKN050 FM090000 19008KT P6SM
                       SCT060 FM090300 18006KT P6SM SKC=
200906081729 TAF KBLI 081729Z 0818/0918 18013KT P6SM BKN070
                      TEMPO 0818/0820 18010G20KT FM082000 20010KT
                       P6SM SCT070 FM090300 18006KT P6SM SKC=
200906081601 KBLI 081601Z 0816/0912 17012KT P6SM SCT070
                      TEMPO 0816/0820 BKN070 FM082000 20010KT P6SM
                       SCT060 FM090500 18007KT P6SM SCT050=
200906081122 TAF KBLI 081122Z 0812/0912 17009KT P6SM SCT045 BKN070 FM082000
                       20010KT P6SM SCT060 FM090500 18007KT P6SM
                       SCT050=
200906080520 TAF KBLI 080520Z 0806/0906 18009KT P6SM SCT060 FM081000 18005KT
                       P6SM SCT025 BKN050 FM082000 19008KT P6SM
                       SCT060 FM082300 21009KT P6SM SCT060=
200906072321 TAF KBLI 072321Z 0800/0824 17011G15KT P6SM SKC FM080400 18009KT
                       P6SM SCT060 FM081000 18005KT P6SM SCT025
                       BKN050 FM082000 19008KT P6SM SCT060=
200906071722 TAF KBLI 071722Z 0718/0818 18009KT P6SM BKN070 FM072000 19008KT
                       P6SM SCT040 SCT070 FM072300 19009KT P6SM
                       SCT050 BKN200 FM081000 18005KT P6SM SCT025
                       BKN050=
200906071120 TAF KBLI 071120Z 0712/0812 18005KT P6SM SCT035 OVC060 FM071700
                       18006KT P6SM OVC045 FM072100 19008KT P6SM
                       SCT040 BKN070 FM072300 19009KT P6SM SCT050
                       BKN200 FM080700 18005KT P6SM BKN050=
200906070520 TAF KBLI 070520Z 0706/0806 19005KT P6SM SCT050 SCT100
                      TEMPO 0706/0709 BKN045 FM070900 18005KT P6SM
                       SCT027 OVC040 FM071300 18006KT P6SM OVC025
                       FM072000 19008KT P6SM BKN050 FM072300 19009KT
                       P6SM SCT050 BKN200=
200906062320 TAF KBLI 062320Z 0700/0724 19005KT P6SM BKN040 OVC060 FM070900
                       18005KT P6SM BKN027 FM071500 18006KT P6SM
                       OVC024 FM072000 19008KT P6SM OVC050=
200906061733 TAF KBLI 061733Z 0618/0718 16006KT P6SM SCT026 OVC035
                      TEMPO 0618/0620 BKN026 OVC035 FM062000 18008KT
                       P6SM BKN035 OVC045 FM062300 18011KT P6SM
                       SCT035 SCT050 FM070900 18005KT P6SM BKN027
                       FM071500 18006KT P6SM OVC024=
200906061121 TAF KBLI 061121Z 0612/0712 18008KT P6SM BKN025 BKN060 FM061900
                       18008KT P6SM BKN035 BKN060 FM062300 18011KT
                       P6SM SCT035 SCT070 FM070900 18005KT P6SM
                       BKN027=
200906060520 TAF KBLI 060520Z 0606/0706 18012G19KT P6SM SCT030 BKN200
                      TEMPO 0607/0611 BKN018 FM061100 18010KT P6SM
                       BKN017 BKN035 FM061700 18008KT P6SM BKN022
                       FM062200 18007KT P6SM SCT030 SCT250=
200906052320 TAF KBLI 052320Z 0600/0624 19009G17KT P6SM BKN250 FM060300 18012G19KT
                       P6SM SCT120 BKN250 FM061100 18010KT P6SM
                       OVC015 FM061700 18008KT P6SM BKN022 FM062200
                       18007KT P6SM SCT030 SCT250=
200906051721 TAF KBLI 051721Z 0518/0618 18011KT P6SM FEW030 BKN250 FM060300
                       18012G19KT P6SM SCT250 FM061100 18010KT
                       P6SM BKN015 FM061700 18008KT P6SM BKN022=
200906051151 KBLI 051151Z 0512/0612 17016G24KT P6SM SKC FM051500 18011KT P6SM
                       SKC FM061000 18007KT P6SM BKN015=
200906051120 TAF KBLI 051120Z 0512/0612 18011KT P6SM SCT120 FM061000 18007KT
                       P6SM BKN015=
200906050520 TAF KBLI 050520Z 0506/0606 29005KT P6SM SCT120 FM051400 21007KT
                       P6SM SCT007 BKN200 FM051900 20005KT P6SM
                       SCT120=
200906042330 TAF KBLI 042330Z 0500/0524 29007KT P6SM SKC FM051400 21007KT P6SM
                       SCT007 BKN200 FM051900 20005KT P6SM SCT120=
200906041723 TAF KBLI 041723Z 0418/0518 34006KT P6SM SKC FM042300 24007KT P6SM
                       SCT250 FM051400 21007KT P6SM SCT007 BKN200=
200906041122 TAF KBLI 041122Z 0412/0512 00000KT P6SM SKC FM041900 24007KT P6SM
                       SCT250=
200906040524 TAF KBLI 040524Z 0406/0506 00000KT P6SM FEW250 FM041800 24006KT
                       P6SM SCT250=
200906032326 TAF KBLI 032326Z 0400/0424 28008KT P6SM SKC FM040400 18004KT P6SM
                       SKC FM040800 VRB03KT P6SM SKC FM041800 24006KT
                       P6SM SKC=
200906031720 TAF KBLI 031720Z 0318/0418 35006KT P6SM SKC FM032000 27008KT P6SM
                       FEW250 FM040300 18006KT P6SM SKC FM040800
                       VRB03KT P6SM SKC=
200906031131 TAF KBLI 031131Z 0312/0412 VRB04KT P6SM FEW250 FM032000 27008KT
                       P6SM FEW250 FM040300 18006KT P6SM SKC=
200906030525 TAF KBLI 030525Z 0306/0406 VRB04KT P6SM SCT250 FM031400 03008KT
                       P6SM SCT250 FM032000 27008KT P6SM FEW250
                       FM040200 20006KT P6SM FEW250=
200906022330 TAF KBLI 022330Z 0300/0324 28006KT P6SM BKN250 FM030200 VRB03KT
                       P6SM BKN250 FM031400 03008KT P6SM SCT250
                       FM032000 28008KT P6SM SKC=
200906022003 KBLI 022003Z 0220/0318 28006KT P6SM SCT250 FM030200 VRB03KT P6SM
                       SCT250=
200906021724 TAF KBLI 021724Z 0218/0318 02009KT P6SM SCT250
                      TEMPO 0218/0220 02012G22KT FM022100 33008KT
                       P6SM SCT250 FM030000 28006KT P6SM SCT250
                       FM030200 VRB03KT P6SM SCT250=
200906021451 KBLI 021451Z 0215/0312 02005KT P6SM BKN250 FM021600 02012KT P6SM
                       SCT250
                      TEMPO 0216/0219 02015G25KT FM022000 04008KT
                       P6SM SCT250 FM030300 VRB05KT P6SM SCT250=
200906021135 TAF KBLI 021135Z 0212/0312 VRB05KT P6SM SCT250 FM022000 04008KT
                       P6SM SCT250 FM030300 VRB05KT P6SM SCT250=
200906020537 TAF KBLI 020537Z 0206/0306 VRB05KT P6SM SCT250 FM021500 02012KT
                       P6SM SCT250
                      TEMPO 0215/0219 02015G25KT=
200906012345 TAF KBLI 012345Z 0200/0224 31008KT P6SM BKN250 FM020300 VRB03KT
                       P6SM BKN250 FM021500 02012KT P6SM SCT250
                       TEMPO 0215/0219 02015G25KT=
200906011809 KBLI 011809Z 0118/0218 02012KT P6SM BKN250
                      TEMPO 0118/0120 02013G23KT FM012100 32006KT
                       P6SM BKN250 FM020600 02006KT P6SM SCT250=
200906011720 TAF KBLI 011720Z 0118/0218 02012KT P6SM BKN250 FM012100 32006KT
                       P6SM BKN250 FM020600 02006KT P6SM SCT250=
200906011701 KBLI 011701Z 0117/0212 02012KT P6SM BKN250 FM012100 32006KT P6SM
                       BKN250 FM020600 02006KT P6SM SCT250=
200906011133 TAF KBLI 011133Z 0112/0212 VRB05KT P6SM SCT250 FM012000 30006KT
                       P6SM SCT250 FM020600 VRB05KT P6SM BKN250=
200906010529 TAF KBLI 010529Z 0106/0206 VRB05KT P6SM BKN250 FM011700 34005KT
                       P6SM SCT250=