##########################################################
# Query made at 02/21/2025 23:48:52 UTC
# Time interval: from 12/01/2009 00:00  to 12/31/2009 23:59  UTC
##########################################################

##########################################################
# KBLI, Bellingham, Bellingham International Airport (United States)
# WMO index: -----. WIGOS ID: Unknown
# Latitude 48-47-58N. Longitude 122-32-21W. Altitude 48 m.
##########################################################

###################################
#  METAR/SPECI from KBLI
###################################
200912312353 METAR KBLI 312353Z 02008KT 4SM -RA BR BKN025 OVC033 03/03 A2979 RMK AO2 SLP095 P0004 60016 T00330028 10072 20028 55013=
200912312317 SPECI KBLI 312317Z 02008KT 10SM -RA OVC033 04/03 A2979 RMK AO2 P0001=
200912312317 SPECI KBLI 312317Z 02008KT 10SM -RA OVC033 04/03 A2979 RMK AO2 P0001=
200912312253 METAR KBLI 312253Z 04010G15KT 3SM RA BR BKN023 OVC029 04/03 A2978 RMK AO2 SLP092 P0010 T00440028=
200912312153 METAR KBLI 312153Z 14008KT 5SM -RA OVC024 06/02 A2981 RMK AO2 RAE00B16 SLP102 P0002 T00560022=
200912312140 SPECI KBLI 312140Z 14007KT 5SM -RA OVC026 06/02 A2981 RMK AO2 RAE00B16 P0001=
200912312140 SPECI KBLI 312140Z 14007KT 5SM -RA OVC026 06/02 A2981 RMK AO2 RAE00B16 P0001=
200912312053 METAR KBLI 312053Z VRB06KT 9SM -RA OVC038 07/01 A2982 RMK AO2 RAB48 SLP107 P0000 60000 T00720006 56036=
200912311953 METAR KBLI 311953Z 02006KT 10SM FEW090 05/02 A2985 RMK AO2 SLP117 T00500022=
200912311853 METAR KBLI 311853Z 02008KT 10SM OVC100 05/02 A2989 RMK AO2 SLP131 T00500022=
200912311753 METAR KBLI 311753Z 01008KT 10SM CLR 03/02 A2993 RMK AO2 SLP144 T00280017 10067 20017 56025=
200912311653 METAR KBLI 311653Z 02007KT 10SM CLR 02/01 A2995 RMK AO2 SLP152 T00220011=
200912311553 METAR KBLI 311553Z 03007KT 10SM FEW041 SCT049 SCT070 02/01 A2998 RMK AO2 SLP159 T00170011=
200912311453 METAR KBLI 311453Z 01005KT 10SM OVC036 02/01 A3000 RMK AO2 SLP169 T00220011 58030=
200912311353 METAR KBLI 311353Z AUTO 03005KT 10SM OVC036 06/03 A3004 RMK AO2 SLP182 T00560028=
200912311315 SPECI KBLI 311315Z AUTO 09004KT 10SM SCT025 BKN030 OVC036 06/03 A3006 RMK AO2=
200912311315 SPECI KBLI 311315Z AUTO 09004KT 10SM SCT025 BKN030 OVC036 06/03 A3006 RMK AO2=
200912311253 METAR KBLI 311253Z AUTO 11003KT 10SM OVC023 06/03 A3006 RMK AO2 SLP190 T00610033=
200912311153 METAR KBLI 311153Z AUTO 00000KT 10SM BKN029 OVC033 06/03 A3009 RMK AO2 SLP199 70030 T00560028 10067 20056 58012=
200912311053 METAR KBLI 311053Z AUTO 16006KT 10SM BKN025 OVC032 07/03 A3012 RMK AO2 SLP207 T00670033=
200912310953 METAR KBLI 310953Z AUTO 15005KT 10SM BKN025 OVC033 07/03 A3012 RMK AO2 SLP208 T00670033=
200912310853 METAR KBLI 310853Z AUTO 15008KT 10SM OVC037 07/03 A3013 RMK AO2 SLP211 T00670033 51003=
200912310753 METAR KBLI 310753Z AUTO 13007KT 10SM FEW037 SCT075 06/03 A3012 RMK AO2 SLP209 T00560033 400670006=
200912310653 METAR KBLI 310653Z AUTO 16007KT 10SM BKN080 06/04 A3013 RMK AO2 SLP211 T00610039=
200912310625 SPECI KBLI 310625Z 16007KT 10SM SCT018 BKN034 OVC075 06/04 A3013 RMK AO2=
200912310625 SPECI KBLI 310625Z 16007KT 10SM SCT018 BKN034 OVC075 06/04 A3013 RMK AO2=
200912310604 SPECI KBLI 310604Z 19006KT 10SM BKN020 BKN025 OVC034 06/04 A3012 RMK AO2=
200912310604 SPECI KBLI 310604Z 19006KT 10SM BKN020 BKN025 OVC034 06/04 A3012 RMK AO2=
200912310553 METAR KBLI 310553Z VRB03KT 10SM FEW020 SCT025 OVC034 07/04 A3012 RMK AO2 SLP208 60000 T00670044 10067 20017 52012=
200912310453 METAR KBLI 310453Z 17008KT 10SM FEW019 BKN040 OVC080 07/04 A3010 RMK AO2 SLP203 T00670044=
200912310353 METAR KBLI 310353Z 16008KT 10SM OVC036 06/04 A3010 RMK AO2 SLP200 T00610044=
200912310331 SPECI KBLI 310331Z 16007KT 10SM FEW020 OVC036 07/04 A3009 RMK AO2=
200912310331 SPECI KBLI 310331Z 16007KT 10SM FEW020 OVC036 07/04 A3009 RMK AO2=
200912310318 SPECI KBLI 310318Z 16008KT 10SM SCT018 BKN028 OVC038 06/04 A3008 RMK AO2=
200912310318 SPECI KBLI 310318Z 16008KT 10SM SCT018 BKN028 OVC038 06/04 A3008 RMK AO2=
200912310253 METAR KBLI 310253Z 16006KT 10SM FEW018 BKN039 OVC110 06/04 A3008 RMK AO2 UPE00RAB26E35 SLP196 P0000 60000 T00610044 53008=
200912310213 SPECI KBLI 310213Z 16005KT 10SM SCT016 BKN032 04/03 A3008 RMK AO2 UPE00 P0000=
200912310213 SPECI KBLI 310213Z 16005KT 10SM SCT016 BKN032 04/03 A3008 RMK AO2 UPE00 P0000=
200912310153 METAR KBLI 310153Z 00000KT 9SM UP BKN016 BKN029 OVC034 03/02 A3007 RMK AO2 UPB50 SLP193 P0000 T00280022=
200912310132 SPECI KBLI 310132Z 00000KT 6SM BR SCT016 BKN031 OVC035 02/01 A3007 RMK AO2=
200912310132 SPECI KBLI 310132Z 00000KT 6SM BR SCT016 BKN031 OVC035 02/01 A3007 RMK AO2=
200912310053 METAR KBLI 310053Z 01003KT 7SM OVC029 02/01 A3006 RMK AO2 RAB35E45 SLP189 P0000 T00170011=
200912302353 METAR KBLI 302353Z 01003KT 6SM BR OVC025 02/02 A3006 RMK AO2 SLP188 60011 T00220017 10028 20011 51013=
200912302311 SPECI KBLI 302311Z 00000KT 6SM BR SCT012 OVC021 02/02 A3005 RMK AO2=
200912302311 SPECI KBLI 302311Z 00000KT 6SM BR SCT012 OVC021 02/02 A3005 RMK AO2=
200912302253 METAR KBLI 302253Z 01004KT 6SM BR SCT001 OVC014 02/01 A3005 RMK AO2 SLP185 T00170011=
200912302153 METAR KBLI 302153Z 35003KT 5SM BR FEW002 BKN014 OVC022 02/01 A3003 RMK AO2 UPE2054RAB2054E2055 SLP180 P0000 T00170011=
200912302111 SPECI KBLI 302111Z 01005KT 5SM BR FEW002 BKN014 OVC028 02/01 A3003 RMK AO2 UPE2054RAB2054E2055 P0000=
200912302111 SPECI KBLI 302111Z 01005KT 5SM BR FEW002 BKN014 OVC028 02/01 A3003 RMK AO2 UPE2054RAB2054E2055 P0000=
200912302100 SPECI KBLI 302100Z 01004KT 4SM BR FEW002 SCT012 OVC028 02/01 A3002 RMK AO2 UPE2054RAB2054E2055 P0000=
200912302100 SPECI KBLI 302100Z 01004KT 4SM BR FEW002 SCT012 OVC028 02/01 A3002 RMK AO2 UPE2054RAB2054E2055 P0000=
200912302053 METAR KBLI 302053Z 02004KT 4SM UP BR FEW002 BKN010 OVC028 02/02 A3002 RMK AO2 RAE47UPB47 SLP175 P0004 60011 T00170017 51004=
200912302049 SPECI KBLI 302049Z VRB04KT 4SM UP BR FEW002 SCT010 OVC028 02/01 A3002 RMK AO2 RAE47UPB47 P0004=
200912302049 SPECI KBLI 302049Z VRB04KT 4SM UP BR FEW002 SCT010 OVC028 02/01 A3002 RMK AO2 RAE47UPB47 P0004=
200912302041 SPECI KBLI 302041Z 36004KT 3SM -RA BR FEW002 BKN010 OVC028 02/01 A3002 RMK AO2 CIG 006V013 P0004=
200912302041 SPECI KBLI 302041Z 36004KT 3SM -RA BR FEW002 BKN010 OVC028 02/01 A3002 RMK AO2 CIG 006V013 P0004=
200912302005 SPECI KBLI 302005Z 36003KT 2SM -RA BR FEW002 BKN010 OVC016 01/01 A3002 RMK AO2 CIG 008V012 P0002=
200912302005 SPECI KBLI 302005Z 36003KT 2SM -RA BR FEW002 BKN010 OVC016 01/01 A3002 RMK AO2 CIG 008V012 P0002=
200912301953 METAR KBLI 301953Z 35005KT 1 3/4SM -RA BR FEW002 OVC012 01/01 A3002 RMK AO2 SLP176 P0005 T00110011=
200912301940 SPECI KBLI 301940Z 35003KT 1 3/4SM RA BR SCT002 OVC012 01/01 A3002 RMK AO2 P0004=
200912301940 SPECI KBLI 301940Z 35003KT 1 3/4SM RA BR SCT002 OVC012 01/01 A3002 RMK AO2 P0004=
200912301910 SPECI KBLI 301910Z 00000KT 3SM -RA BR FEW002 OVC012 01/01 A3001 RMK AO2 P0000=
200912301910 SPECI KBLI 301910Z 00000KT 3SM -RA BR FEW002 OVC012 01/01 A3001 RMK AO2 P0000=
200912301853 METAR KBLI 301853Z 36004KT 3SM -RA BR OVC014 01/01 A3001 RMK AO2 RAB17 SLP172 P0002 T00110006=
200912301753 METAR KBLI 301753Z 01005KT 4SM BR FEW003 OVC012 01/01 A3000 RMK AO2 SLP168 60019 T00110006 10028 20006 53021=
200912301740 SPECI KBLI 301740Z 01005KT 5SM BR FEW003 OVC012 01/01 A2999 RMK AO2=
200912301740 SPECI KBLI 301740Z 01005KT 5SM BR FEW003 OVC012 01/01 A2999 RMK AO2=
200912301653 METAR KBLI 301653Z 01004KT 5SM BR OVC010 01/01 A2997 RMK AO2 RAE49 SLP157 P0001 T00110006=
200912301553 METAR KBLI 301553Z 01003KT 4SM -RA BR OVC012 01/01 A2995 RMK AO2 SLP151 P0006 T00060006=
200912301516 SPECI KBLI 301516Z 02003KT 3SM -RA BR OVC014 01/01 A2994 RMK AO2 P0003=
200912301516 SPECI KBLI 301516Z 02003KT 3SM -RA BR OVC014 01/01 A2994 RMK AO2 P0003=
200912301453 METAR KBLI 301453Z 02006KT 2 1/2SM -RA BR OVC014 01/01 A2993 RMK AO2 SLP147 P0007 60012 T00060006 53018=
200912301444 SPECI KBLI 301444Z 03006KT 2 1/2SM -RA BR OVC014 01/00 A2993 RMK AO2 P0006=
200912301444 SPECI KBLI 301444Z 03006KT 2 1/2SM -RA BR OVC014 01/00 A2993 RMK AO2 P0006=
200912301432 SPECI KBLI 301432Z 01005KT 3SM -RA BR OVC016 01/00 A2993 RMK AO2 P0004=
200912301432 SPECI KBLI 301432Z 01005KT 3SM -RA BR OVC016 01/00 A2993 RMK AO2 P0004=
200912301425 SPECI KBLI 301425Z AUTO 01004KT 2 1/2SM RA BR OVC014 01/00 A2993 RMK AO2 P0003=
200912301425 SPECI KBLI 301425Z AUTO 01004KT 2 1/2SM RA BR OVC014 01/00 A2993 RMK AO2 P0003=
200912301403 SPECI KBLI 301403Z AUTO 36005KT 3SM -RA BR OVC014 01/00 A2992 RMK AO2 P0001=
200912301403 SPECI KBLI 301403Z AUTO 36005KT 3SM -RA BR OVC014 01/00 A2992 RMK AO2 P0001=
200912301353 METAR KBLI 301353Z AUTO 36005KT 2 1/2SM -RA BR FEW010 OVC016 01/00 A2992 RMK AO2 SLP141 P0005 T00060000=
200912301339 SPECI KBLI 301339Z AUTO 34003KT 2 1/2SM -RA BR OVC016 01/00 A2992 RMK AO2 P0004=
200912301339 SPECI KBLI 301339Z AUTO 34003KT 2 1/2SM -RA BR OVC016 01/00 A2992 RMK AO2 P0004=
200912301253 METAR KBLI 301253Z AUTO 34003KT 6SM -RA BR OVC020 02/01 A2990 RMK AO2 SLP133 P0000 T00220006=
200912301153 METAR KBLI 301153Z AUTO 00000KT 10SM -RA OVC022 02/M01 A2988 RMK AO2 RAB34 SLP128 P0000 60000 T00171011 10033 20000 51014=
200912301053 METAR KBLI 301053Z AUTO 34004KT 10SM OVC024 01/M03 A2988 RMK AO2 SLP127 T00111028=
200912300953 METAR KBLI 300953Z AUTO 00000KT 10SM BKN028 OVC033 02/M03 A2986 RMK AO2 RAB36E47 SLP121 P0000 T00171028=
200912300853 METAR KBLI 300853Z AUTO 01006KT 10SM SCT042 BKN050 OVC060 01/M03 A2984 RMK AO2 SLP115 T00111028 53016=
200912300753 METAR KBLI 300753Z AUTO 35003KT 10SM OVC075 01/M02 A2983 RMK AO2 SLP109 T00111017 400391039=
200912300653 METAR KBLI 300653Z AUTO 33003KT 10SM BKN075 OVC090 00/M02 A2981 RMK AO2 SLP103 T00001022=
200912300553 METAR KBLI 300553Z 00000KT 10SM SCT080 OVC100 00/M02 A2980 RMK AO2 SLP099 T00001022 10022 20000 53006=
200912300453 METAR KBLI 300453Z 00000KT 10SM BKN100 OVC110 01/M02 A2979 RMK AO2 SLP098 T00061022=
200912300353 METAR KBLI 300353Z 00000KT 10SM BKN090 OVC110 01/M03 A2978 RMK AO2 SLP095 T00111028=
200912300253 METAR KBLI 300253Z 00000KT 10SM BKN080 OVC095 01/M03 A2978 RMK AO2 SLP094 T00061028 56014=
200912300153 METAR KBLI 300153Z 36004KT 10SM FEW100 01/M03 A2978 RMK AO2 SLP094 T00111028=
200912300053 METAR KBLI 300053Z 01005KT 10SM SCT110 02/M02 A2980 RMK AO2 SLP100 T00171022=
200912292353 METAR KBLI 292353Z 01004KT 10SM CLR 02/M03 A2982 RMK AO2 SLP108 T00221028 10039 20000 56021=
200912292253 METAR KBLI 292253Z 01007KT 10SM CLR 03/M02 A2983 RMK AO2 SLP111 T00281022=
200912292153 METAR KBLI 292153Z 36006KT 10SM CLR 03/M01 A2986 RMK AO2 SLP121 T00331011=
200912292053 METAR KBLI 292053Z 03006KT 10SM CLR 03/M01 A2988 RMK AO2 SLP128 T00331006 58035=
200912291953 METAR KBLI 291953Z 01004KT 10SM CLR 03/M02 A2993 RMK AO2 SLP144 T00281017=
200912291853 METAR KBLI 291853Z 36003KT 10SM CLR 01/M02 A2996 RMK AO2 SLP157 T00111022=
200912291753 METAR KBLI 291753Z 35003KT 10SM CLR 00/M02 A2999 RMK AO2 SLP164 T00001017 10000 21039 56012=
200912291653 METAR KBLI 291653Z 35003KT 10SM CLR M02/M04 A2999 RMK AO2 SLP166 T10221039=
200912291553 METAR KBLI 291553Z 00000KT 10SM CLR M03/M05 A3000 RMK AO2 SLP168 T10331050=
200912291453 METAR KBLI 291453Z 00000KT 10SM CLR M03/M05 A3002 RMK AO2 SLP176 T10331050 58014=
200912291353 METAR KBLI 291353Z AUTO 00000KT 10SM CLR M02/M04 A3003 RMK AO2 SLP181 T10171039=
200912291253 METAR KBLI 291253Z AUTO 35003KT 10SM CLR M02/M04 A3005 RMK AO2 SLP186 T10171039=
200912291153 METAR KBLI 291153Z AUTO 36003KT 10SM CLR M02/M04 A3006 RMK AO2 SLP190 T10171044 10011 21017 58011=
200912291053 METAR KBLI 291053Z AUTO 00000KT 10SM BKN050 OVC110 00/M04 A3009 RMK AO2 SLP199 T00001039=
200912290953 METAR KBLI 290953Z AUTO 36004KT 10SM OVC055 00/M04 A3009 RMK AO2 SLP200 T00001039=
200912290853 METAR KBLI 290853Z AUTO 35003KT 10SM OVC100 01/M03 A3010 RMK AO2 SLP200 T00061033 56012=
200912290753 METAR KBLI 290753Z AUTO 35003KT 10SM OVC100 01/M03 A3010 RMK AO2 SLP204 T00061033 400281033=
200912290653 METAR KBLI 290653Z AUTO 36003KT 10SM FEW043 OVC065 01/M03 A3012 RMK AO2 SLP209 T00111033=
200912290553 METAR KBLI 290553Z 36004KT 10SM OVC045 01/M03 A3013 RMK AO2 SLP214 T00111033 10017 20011 56005=
200912290453 METAR KBLI 290453Z 36004KT 10SM BKN045 OVC050 01/M03 A3013 RMK AO2 SLP215 T00111033=
200912290353 METAR KBLI 290353Z 36003KT 10SM OVC048 02/M03 A3014 RMK AO2 SLP216 T00171033=
200912290253 METAR KBLI 290253Z 02005KT 10SM OVC044 01/M03 A3015 RMK AO2 SLP218 T00111033 58014=
200912290153 METAR KBLI 290153Z 01006KT 10SM OVC050 01/M03 A3016 RMK AO2 SLP222 T00111033=
200912290053 METAR KBLI 290053Z 34003KT 10SM OVC048 02/M03 A3018 RMK AO2 SLP229 T00171033=
200912282353 METAR KBLI 282353Z 01005KT 10SM OVC038 02/M03 A3019 RMK AO2 SLP232 60000 T00171033 10028 20006 57012=
200912282253 METAR KBLI 282253Z 01008KT 10SM OVC036 02/M03 A3019 RMK AO2 SLP235 T00171033=
200912282153 METAR KBLI 282153Z 36008KT 10SM OVC032 02/M03 A3022 RMK AO2 SLP242 T00221033=
200912282053 METAR KBLI 282053Z 01008KT 10SM BKN036 02/M03 A3022 RMK AO2 SLP244 60000 T00221028 58017=
200912281953 METAR KBLI 281953Z 01007KT 10SM OVC032 02/M03 A3024 RMK AO2 RAE03 SLP252 P0000 T00171028=
200912281853 METAR KBLI 281853Z 36005KT 10SM -RA OVC036 01/M03 A3027 RMK AO2 UPB17E46RAB46 SLP259 P0000 T00111028=
200912281753 METAR KBLI 281753Z 35004KT 10SM OVC042 01/M03 A3027 RMK AO2 SLP262 T00061033 10006 21028 55002=
200912281653 METAR KBLI 281653Z 35003KT 10SM OVC048 00/M03 A3027 RMK AO2 SLP260 T00001033=
200912281553 METAR KBLI 281553Z 36004KT 10SM OVC050 M01/M04 A3027 RMK AO2 SLP261 T10061039=
200912281453 METAR KBLI 281453Z 36004KT 10SM OVC060 M01/M04 A3028 RMK AO2 SLP264 T10111044 58002=
200912281353 METAR KBLI 281353Z AUTO 00000KT 10SM BKN060 M02/M06 A3029 RMK AO2 SLP266 T10221056=
200912281253 METAR KBLI 281253Z AUTO 00000KT 10SM SCT090 M02/M05 A3028 RMK AO2 SLP265 T10171050=
200912281153 METAR KBLI 281153Z AUTO 34003KT 10SM OVC090 M01/M04 A3028 RMK AO2 SLP265 T10111039 11011 21033 50007=
200912281053 METAR KBLI 281053Z AUTO 36003KT 10SM OVC090 M02/M05 A3029 RMK AO2 SLP266 T10221050=
200912280953 METAR KBLI 280953Z AUTO 34003KT 10SM FEW095 M02/M06 A3028 RMK AO2 SLP263 T10221056=
200912280853 METAR KBLI 280853Z AUTO 01003KT 10SM CLR M02/M06 A3026 RMK AO2 SLP258 T10221056 51009=
200912280753 METAR KBLI 280753Z AUTO 35003KT 10SM CLR M03/M06 A3026 RMK AO2 SLP258 T10281056 400611056=
200912280653 METAR KBLI 280653Z AUTO 00000KT 10SM CLR M02/M06 A3025 RMK AO2 SLP255 T10221056=
200912280553 METAR KBLI 280553Z 34003KT 10SM CLR M03/M06 A3024 RMK AO2 SLP249 T10281056 10039 21028 53008=
200912280453 METAR KBLI 280453Z 35004KT 10SM CLR M02/M05 A3022 RMK AO2 SLP245 T10171050=
200912280353 METAR KBLI 280353Z 00000KT 10SM CLR M02/M05 A3022 RMK AO2 SLP244 T10171050=
200912280253 METAR KBLI 280253Z 33003KT 8SM CLR M01/M03 A3021 RMK AO2 SLP241 T10111028 51008=
200912280153 METAR KBLI 280153Z 00000KT 10SM CLR 01/M02 A3021 RMK AO2 SLP240 T00111022=
200912280053 METAR KBLI 280053Z 00000KT 10SM CLR 01/M04 A3020 RMK AO2 SLP238 T00111039=
200912272353 METAR KBLI 272353Z 35004KT 10SM CLR 04/M04 A3019 RMK AO2 SLP233 T00391039 10061 20006 53005=
200912272253 METAR KBLI 272253Z 01006KT 10SM CLR 06/M04 A3018 RMK AO2 SLP229 T00611039=
200912272153 METAR KBLI 272153Z 01005KT 10SM CLR 06/M04 A3018 RMK AO2 SLP228 T00611039=
200912272053 METAR KBLI 272053Z 36005KT 10SM CLR 06/M03 A3017 RMK AO2 SLP228 T00611033 50002=
200912271953 METAR KBLI 271953Z 02005KT 10SM CLR 05/M03 A3018 RMK AO2 SLP229 T00501028=
200912271853 METAR KBLI 271853Z 36004KT 10SM CLR 03/M03 A3018 RMK AO2 SLP230 T00331028=
200912271753 METAR KBLI 271753Z 35004KT 10SM CLR 01/M03 A3017 RMK AO2 SLP226 T00061033 10006 21056 53015=
200912271653 METAR KBLI 271653Z 34005KT 10SM CLR M02/M05 A3015 RMK AO2 SLP221 T10171050=
200912271553 METAR KBLI 271553Z 36005KT 10SM CLR M03/M05 A3014 RMK AO2 SLP216 T10281050=
200912271453 METAR KBLI 271453Z AUTO 35003KT 10SM FEW090 M03/M05 A3012 RMK AO2 SLP211 T10331050 51009=
200912271353 METAR KBLI 271353Z AUTO 00000KT 10SM CLR M03/M06 A3012 RMK AO2 SLP209 T10331056=
200912271253 METAR KBLI 271253Z AUTO 00000KT 10SM CLR M04/M06 A3011 RMK AO2 SLP206 T10441061=
200912271153 METAR KBLI 271153Z AUTO 00000KT 10SM CLR M03/M05 A3010 RMK AO2 SLP202 T10281050 11017 21044 50007=
200912271053 METAR KBLI 271053Z AUTO 00000KT 9SM CLR M03/M06 A3010 RMK AO2 SLP201 T10331056=
200912270953 METAR KBLI 270953Z AUTO 00000KT 8SM CLR M03/M04 A3009 RMK AO2 SLP199 T10281044=
200912270853 METAR KBLI 270853Z AUTO 00000KT 10SM CLR M04/M05 A3007 RMK AO2 SLP193 T10391050 51008=
200912270753 METAR KBLI 270753Z AUTO 00000KT 10SM CLR M04/M06 A3007 RMK AO2 SLP194 T10391056 400781050=
200912270653 METAR KBLI 270653Z AUTO 00000KT 10SM CLR M03/M06 A3007 RMK AO2 SLP192 T10331056=
200912270553 METAR KBLI 270553Z 00000KT 10SM CLR M03/M06 A3005 RMK AO2 SLP186 T10281056 10050 21039 51013=
200912270453 METAR KBLI 270453Z 00000KT 10SM CLR M02/M04 A3004 RMK AO2 SLP183 T10171044=
200912270353 METAR KBLI 270353Z 00000KT 10SM CLR M02/M05 A3003 RMK AO2 SLP179 T10171050=
200912270253 METAR KBLI 270253Z 31003KT 10SM CLR 02/M04 A3001 RMK AO2 SLP173 T00171044 53001=
200912270153 METAR KBLI 270153Z 34004KT 10SM CLR 02/M05 A3001 RMK AO2 SLP171 T00171050=
200912270053 METAR KBLI 270053Z 36006KT 10SM CLR 04/M05 A3000 RMK AO2 SLP168 T00391050=
200912262353 METAR KBLI 262353Z 01006KT 10SM CLR 05/M04 A3001 RMK AO2 SLP172 T00501039 10078 20011 56014=
200912262253 METAR KBLI 262253Z 03007KT 10SM CLR 07/M03 A3002 RMK AO2 SLP175 T00671033=
200912262153 METAR KBLI 262153Z 36007KT 10SM CLR 07/M02 A3003 RMK AO2 SLP178 T00721022=
200912262053 METAR KBLI 262053Z 36004KT 10SM CLR 07/M01 A3005 RMK AO2 SLP185 T00721011 58005=
200912261953 METAR KBLI 261953Z 01005KT 10SM CLR 06/M01 A3007 RMK AO2 SLP190 T00561011=
200912261853 METAR KBLI 261853Z 36003KT 10SM CLR 03/M02 A3007 RMK AO2 SLP192 T00281017=
200912261753 METAR KBLI 261753Z 36003KT 10SM CLR 01/M03 A3006 RMK AO2 SLP191 T00111028 10011 21050 53004=
200912261653 METAR KBLI 261653Z 34004KT 10SM CLR M02/M03 A3005 RMK AO2 SLP187 T10221033=
200912261553 METAR KBLI 261553Z 00000KT 10SM CLR M03/M04 A3005 RMK AO2 SLP186 T10281044=
200912261453 METAR KBLI 261453Z 00000KT 8SM CLR M04/M06 A3005 RMK AO2 SLP187 T10441056 56003=
200912261353 METAR KBLI 261353Z AUTO 00000KT 8SM CLR M04/M05 A3006 RMK AO2 SLP188 T10391050=
200912261253 METAR KBLI 261253Z AUTO 00000KT 9SM CLR M04/M04 A3005 RMK AO2 SLP187 T10391044=
200912261153 METAR KBLI 261153Z AUTO 00000KT 10SM CLR M03/M04 A3006 RMK AO2 SLP191 T10331039 11006 21039 57007=
200912261053 METAR KBLI 261053Z AUTO 35003KT 10SM CLR M01/M04 A3007 RMK AO2 SLP192 T10111039=
200912260953 METAR KBLI 260953Z AUTO 36004KT 10SM CLR M02/M04 A3008 RMK AO2 SLP194 T10221039=
200912260853 METAR KBLI 260853Z AUTO 34003KT 9SM CLR M03/M04 A3008 RMK AO2 SLP198 T10331044 58007=
200912260753 METAR KBLI 260753Z AUTO 00000KT 10SM CLR M03/M04 A3009 RMK AO2 SLP201 T10281039 400611033=
200912260653 METAR KBLI 260653Z AUTO 00000KT 7SM CLR M02/M03 A3010 RMK AO2 SLP204 T10221033=
200912260553 METAR KBLI 260553Z 00000KT 6SM BR CLR M02/M03 A3010 RMK AO2 SLP204 T10221033 10039 21033 58003=
200912260453 METAR KBLI 260453Z 00000KT 6SM BR CLR M02/M03 A3011 RMK AO2 SLP205 T10171028=
200912260353 METAR KBLI 260353Z 00000KT 8SM CLR M02/M03 A3011 RMK AO2 SLP207 T10171028=
200912260253 METAR KBLI 260253Z 34003KT 8SM CLR 00/M01 A3011 RMK AO2 SLP207 T00001011 58014=
200912260153 METAR KBLI 260153Z 34003KT 7SM CLR 01/M01 A3013 RMK AO2 SLP213 T00061006=
200912260053 METAR KBLI 260053Z 30004KT 10SM CLR 01/M01 A3014 RMK AO2 SLP217 T00111011=
200912252353 METAR KBLI 252353Z 36004KT 10SM CLR 04/M03 A3015 RMK AO2 SLP221 T00391028 10061 20011 56009=
200912252253 METAR KBLI 252253Z 36003KT 10SM CLR 05/M02 A3016 RMK AO2 SLP223 T00501022=
200912252153 METAR KBLI 252153Z 36009KT 10SM CLR 06/M03 A3017 RMK AO2 SLP225 T00611028=
200912252053 METAR KBLI 252053Z 02012KT 10SM CLR 04/M03 A3018 RMK AO2 SLP231 T00441033 58014=
200912251953 METAR KBLI 251953Z 03005KT 10SM CLR 04/M03 A3020 RMK AO2 SLP236 T00441033=
200912251853 METAR KBLI 251853Z 08003KT 10SM CLR 03/M04 A3022 RMK AO2 SLP243 T00281039=
200912251753 METAR KBLI 251753Z 01008KT 10SM CLR 01/M04 A3022 RMK AO2 SLP245 T00111044 10011 21022 55004=
200912251653 METAR KBLI 251653Z 01006KT 10SM CLR M01/M05 A3022 RMK AO2 SLP243 T10111050=
200912251553 METAR KBLI 251553Z 01006KT 10SM CLR M02/M05 A3022 RMK AO2 SLP245 T10221050=
200912251453 METAR KBLI 251453Z 01005KT 10SM CLR M02/M05 A3024 RMK AO2 SLP249 T10171050 57007=
200912251353 METAR KBLI 251353Z AUTO 01009G15KT 10SM CLR M01/M04 A3024 RMK AO2 SLP250 T10061044=
200912251253 METAR KBLI 251253Z AUTO 35007KT 10SM CLR M01/M04 A3025 RMK AO2 SLP255 T10111044=
200912251153 METAR KBLI 251153Z AUTO 02007KT 10SM CLR M02/M05 A3026 RMK AO2 SLP256 T10171050 11017 21022 58002=
200912251053 METAR KBLI 251053Z AUTO 35005KT 10SM CLR M02/M05 A3027 RMK AO2 SLP261 T10221050=
200912250953 METAR KBLI 250953Z AUTO 36003KT 10SM CLR M02/M04 A3026 RMK AO2 SLP258 T10171044=
200912250853 METAR KBLI 250853Z AUTO 35006KT 10SM CLR M02/M05 A3026 RMK AO2 SLP257 T10221050 58008=
200912250753 METAR KBLI 250753Z AUTO 02007KT 10SM CLR M02/M04 A3027 RMK AO2 SLP261 T10171044 400331022=
200912250653 METAR KBLI 250653Z AUTO 02006KT 10SM CLR M02/M05 A3028 RMK AO2 SLP265 T10221050=
200912250553 METAR KBLI 250553Z 02003KT 10SM CLR M02/M05 A3028 RMK AO2 SLP265 T10221050 10011 21022 58007=
200912250453 METAR KBLI 250453Z 36005KT 10SM CLR M01/M04 A3029 RMK AO2 SLP267 T10111044=
200912250353 METAR KBLI 250353Z 02006KT 10SM CLR M01/M05 A3031 RMK AO2 SLP273 T10111050=
200912250253 METAR KBLI 250253Z 34004KT 10SM CLR M01/M05 A3031 RMK AO2 SLP273 T10111050 50001=
200912250153 METAR KBLI 250153Z 30003KT 10SM CLR 00/M04 A3032 RMK AO2 SLP277 T00001044=
200912250053 METAR KBLI 250053Z 35004KT 10SM CLR 00/M04 A3030 RMK AO2 SLP271 T00001044=
200912242353 METAR KBLI 242353Z 36005KT 10SM CLR 01/M04 A3030 RMK AO2 SLP271 T00111044 10033 20000 58011=
200912242253 METAR KBLI 242253Z 02007KT 10SM CLR 03/M04 A3032 RMK AO2 SLP279 T00281039=
200912242153 METAR KBLI 242153Z 36005KT 10SM CLR 03/M04 A3033 RMK AO2 SLP279 T00281039=
200912242053 METAR KBLI 242053Z 01004KT 10SM CLR 03/M04 A3033 RMK AO2 SLP281 T00331039 58021=
200912241953 METAR KBLI 241953Z 01007KT 10SM CLR 03/M03 A3036 RMK AO2 SLP289 T00281033=
200912241853 METAR KBLI 241853Z 36005KT 10SM CLR 02/M04 A3039 RMK AO2 SLP301 T00171044=
200912241753 METAR KBLI 241753Z 02004KT 10SM CLR 00/M04 A3040 RMK AO2 SLP303 T00001044 10000 21022 53000=
200912241653 METAR KBLI 241653Z 36004KT 10SM CLR M01/M05 A3038 RMK AO2 SLP299 T10111050=
200912241553 METAR KBLI 241553Z 01005KT 10SM CLR M02/M06 A3039 RMK AO2 SLP300 T10221056=
200912241453 METAR KBLI 241453Z 01003KT 10SM CLR M02/M06 A3039 RMK AO2 SLP303 T10221056 56010=
200912241353 METAR KBLI 241353Z AUTO 01006KT 10SM CLR M02/M06 A3040 RMK AO2 SLP305 T10171056=
200912241253 METAR KBLI 241253Z AUTO 01004KT 10SM CLR M02/M06 A3041 RMK AO2 SLP307 T10221056=
200912241153 METAR KBLI 241153Z AUTO 36004KT 10SM CLR M02/M06 A3043 RMK AO2 SLP313 T10221056 10000 21022 58003=
200912241053 METAR KBLI 241053Z AUTO 01004KT 10SM CLR M02/M06 A3043 RMK AO2 SLP316 T10171056=
200912240953 METAR KBLI 240953Z AUTO 35004KT 10SM CLR M02/M05 A3044 RMK AO2 SLP317 T10171050=
200912240853 METAR KBLI 240853Z AUTO 36005KT 10SM CLR M01/M04 A3043 RMK AO2 SLP315 T10061044 57003=
200912240753 METAR KBLI 240753Z AUTO 35004KT 10SM CLR 00/M04 A3043 RMK AO2 SLP316 T00001044 400331006=
200912240653 METAR KBLI 240653Z AUTO 01004KT 10SM CLR 00/M04 A3044 RMK AO2 SLP319 T00001044=
200912240553 METAR KBLI 240553Z 01004KT 10SM CLR 00/M04 A3044 RMK AO2 SLP319 T00001044 10017 21006 58007=
200912240453 METAR KBLI 240453Z 01003KT 10SM CLR 00/M04 A3045 RMK AO2 SLP322 T00001044=
200912240353 METAR KBLI 240353Z 36005KT 10SM CLR 00/M04 A3046 RMK AO2 SLP325 T00001044=
200912240253 METAR KBLI 240253Z 35004KT 10SM CLR 01/M04 A3046 RMK AO2 SLP327 T00061044 50000=
200912240153 METAR KBLI 240153Z 35004KT 10SM SCT048 01/M04 A3047 RMK AO2 SLP328 T00061044=
200912240053 METAR KBLI 240053Z 36005KT 10SM BKN047 01/M04 A3046 RMK AO2 SLP326 T00111039=
200912232353 METAR KBLI 232353Z 35005KT 10SM OVC045 02/M03 A3046 RMK AO2 SLP326 T00171033 10033 20011 50000=
200912232253 METAR KBLI 232253Z 01006KT 10SM OVC045 02/M03 A3047 RMK AO2 SLP328 T00221033=
200912232153 METAR KBLI 232153Z 01005KT 10SM OVC043 03/M02 A3046 RMK AO2 SLP325 T00281022=
200912232053 METAR KBLI 232053Z 36005KT 10SM OVC049 03/M01 A3046 RMK AO2 SLP325 T00331011 58004=
200912231953 METAR KBLI 231953Z 36005KT 10SM BKN043 OVC050 02/M02 A3048 RMK AO2 SLP331 T00221022=
200912231853 METAR KBLI 231853Z 35004KT 10SM FEW030 OVC044 02/M03 A3048 RMK AO2 SLP333 T00171028=
200912231753 METAR KBLI 231753Z 35003KT 10SM OVC044 01/M03 A3048 RMK AO2 SLP331 T00111028 10011 20000 53011=
200912231653 METAR KBLI 231653Z 35003KT 10SM BKN036 BKN043 OVC050 01/M02 A3046 RMK AO2 SLP326 T00061022=
200912231553 METAR KBLI 231553Z 00000KT 10SM OVC049 00/M02 A3045 RMK AO2 SLP320 T00001022=
200912231453 METAR KBLI 231453Z 01004KT 10SM OVC049 00/M03 A3044 RMK AO2 SLP319 T00001028 51013=
200912231353 METAR KBLI 231353Z AUTO 34003KT 10SM OVC049 01/M03 A3043 RMK AO2 SLP315 T00061028=
200912231253 METAR KBLI 231253Z AUTO 36003KT 10SM OVC047 00/M03 A3042 RMK AO2 SLP311 T00001028=
200912231153 METAR KBLI 231153Z AUTO 35003KT 10SM OVC047 01/M03 A3040 RMK AO2 SLP305 T00061028 10006 20000 50006=
200912231053 METAR KBLI 231053Z AUTO 35004KT 10SM BKN038 OVC049 01/M02 A3041 RMK AO2 SLP307 T00061022=
200912230953 METAR KBLI 230953Z AUTO 34003KT 10SM FEW036 OVC049 01/M02 A3040 RMK AO2 SLP303 T00061017=
200912230853 METAR KBLI 230853Z AUTO 00000KT 10SM FEW036 OVC049 01/M01 A3039 RMK AO2 SLP299 T00061011 51016=
200912230753 METAR KBLI 230753Z AUTO 00000KT 10SM FEW036 OVC049 01/M01 A3038 RMK AO2 SLP296 T00061011 400561017=
200912230653 METAR KBLI 230653Z AUTO 00000KT 10SM BKN034 OVC045 01/M01 A3036 RMK AO2 SLP290 T00061011=
200912230553 METAR KBLI 230553Z 00000KT 10SM OVC034 00/M02 A3034 RMK AO2 SLP284 T00001017 10028 21017 51018=
200912230453 METAR KBLI 230453Z 00000KT 10SM BKN032 OVC120 00/M02 A3032 RMK AO2 SLP278 T00001017=
200912230353 METAR KBLI 230353Z 00000KT 10SM FEW032 BKN046 M01/M02 A3031 RMK AO2 SLP276 T10111017=
200912230253 METAR KBLI 230253Z 00000KT 10SM CLR M01/M02 A3028 RMK AO2 SLP266 T10111022 51017=
200912230153 METAR KBLI 230153Z 00000KT 10SM CLR M01/M02 A3027 RMK AO2 SLP262 T10061022=
200912230053 METAR KBLI 230053Z 00000KT 10SM SCT024 02/M02 A3025 RMK AO2 SLP254 T00221022=
200912222353 METAR KBLI 222353Z 00000KT 10SM SCT022 03/00 A3023 RMK AO2 SLP247 T00280000 10056 20017 53018=
200912222253 METAR KBLI 222253Z 28004KT 10SM CLR 04/M01 A3021 RMK AO2 SLP238 T00441006=
200912222153 METAR KBLI 222153Z 00000KT 10SM CLR 06/M01 A3018 RMK AO2 SLP230 T00561006=
200912222053 METAR KBLI 222053Z 36003KT 10SM BKN049 05/00 A3018 RMK AO2 SLP229 T00500000 51016=
200912222000 SPECI KBLI 222000Z 00000KT 10SM SCT023 BKN049 04/00 A3017 RMK AO2=
200912222000 SPECI KBLI 222000Z 00000KT 10SM SCT023 BKN049 04/00 A3017 RMK AO2=
200912221953 METAR KBLI 221953Z 00000KT 10SM BKN015 OVC041 04/00 A3017 RMK AO2 SLP225 T00390000=
200912221900 SPECI KBLI 221900Z 00000KT 10SM BKN015 OVC041 03/00 A3016 RMK AO2=
200912221900 SPECI KBLI 221900Z 00000KT 10SM BKN015 OVC041 03/00 A3016 RMK AO2=
200912221853 METAR KBLI 221853Z 01003KT 10SM SCT015 OVC041 03/00 A3015 RMK AO2 SLP219 T00280000=
200912221753 METAR KBLI 221753Z 36003KT 10SM OVC015 02/M01 A3013 RMK AO2 SLP213 T00221006 10022 20000 52033=
200912221734 SPECI KBLI 221734Z 00000KT 10SM BKN013 01/M01 A3012 RMK AO2=
200912221734 SPECI KBLI 221734Z 00000KT 10SM BKN013 01/M01 A3012 RMK AO2=
200912221653 METAR KBLI 221653Z 00000KT 10SM FEW030 01/M01 A3010 RMK AO2 SLP203 T00061006 $=
200912221628 SPECI KBLI 221628Z 00000KT 10SM OVC030 01/M01 A3008 RMK AO2 $=
200912221628 SPECI KBLI 221628Z 00000KT 10SM OVC030 01/M01 A3008 RMK AO2 $=
200912221600 SPECI KBLI 221600Z 36003KT 7SM SCT012 BKN018 BKN050 01/00 A3007 RMK AO2 $=
200912221600 SPECI KBLI 221600Z 36003KT 7SM SCT012 BKN018 BKN050 01/00 A3007 RMK AO2 $=
200912221553 METAR KBLI 221553Z 00000KT 7SM BKN013 BKN050 01/00 A3007 RMK AO2 SLP191 T00110000=
200912221528 SPECI KBLI 221528Z 34003KT 6SM BR BKN013 BKN018 OVC036 02/01 A3006 RMK AO2=
200912221528 SPECI KBLI 221528Z 34003KT 6SM BR BKN013 BKN018 OVC036 02/01 A3006 RMK AO2=
200912221453 METAR KBLI 221453Z 34004KT 6SM BR OVC034 01/01 A3004 RMK AO2 SLP180 T00110011 51021=
200912221353 METAR KBLI 221353Z AUTO 33003KT 8SM SCT014 OVC030 01/01 A3001 RMK AO2 SLP171 T00110006=
200912221253 METAR KBLI 221253Z AUTO 00000KT 9SM OVC027 01/00 A2997 RMK AO2 SLP159 T00060000=
200912221153 METAR KBLI 221153Z AUTO 00000KT 8SM FEW017 OVC021 00/M01 A2995 RMK AO2 SLP151 70025 T00001006 10039 21011 53029=
200912221135 SPECI KBLI 221135Z AUTO 00000KT 6SM BR FEW016 BKN023 M01/M01 A2994 RMK AO2=
200912221135 SPECI KBLI 221135Z AUTO 00000KT 6SM BR FEW016 BKN023 M01/M01 A2994 RMK AO2=
200912221053 METAR KBLI 221053Z AUTO 00000KT 6SM BR FEW022 M01/M02 A2992 RMK AO2 SLP142 T10111017=
200912221045 SPECI KBLI 221045Z AUTO 00000KT 7SM SCT022 M01/M01 A2992 RMK AO2=
200912221045 SPECI KBLI 221045Z AUTO 00000KT 7SM SCT022 M01/M01 A2992 RMK AO2=
200912221022 SPECI KBLI 221022Z AUTO 00000KT 7SM BKN022 M01/M01 A2991 RMK AO2=
200912221022 SPECI KBLI 221022Z AUTO 00000KT 7SM BKN022 M01/M01 A2991 RMK AO2=
200912220953 METAR KBLI 220953Z AUTO 00000KT 8SM FEW120 00/M01 A2989 RMK AO2 SLP131 T00001006=
200912220853 METAR KBLI 220853Z AUTO 00000KT 10SM FEW075 SCT095 01/01 A2987 RMK AO2 SLP122 T00110006 51024=
200912220753 METAR KBLI 220753Z AUTO 00000KT 10SM OVC050 02/02 A2984 RMK AO2 SLP114 T00220017 401220022=
200912220653 METAR KBLI 220653Z AUTO 00000KT 10SM FEW039 BKN085 OVC100 03/01 A2982 RMK AO2 SLP107 T00330011=
200912220553 METAR KBLI 220553Z 09004KT 10SM OVC095 03/01 A2979 RMK AO2 SLP098 60000 T00330006 10056 20033 53006=
200912220453 METAR KBLI 220453Z 10005KT 10SM FEW025 SCT080 OVC100 03/01 A2978 RMK AO2 RAB30E37 SLP093 P0000 T00330011=
200912220428 SPECI KBLI 220428Z 11006KT 10SM SCT025 BKN036 OVC065 04/01 A2978 RMK AO2=
200912220428 SPECI KBLI 220428Z 11006KT 10SM SCT025 BKN036 OVC065 04/01 A2978 RMK AO2=
200912220353 METAR KBLI 220353Z 11004KT 10SM BKN027 BKN070 OVC085 04/02 A2978 RMK AO2 SLP091 T00390017=
200912220351 SPECI KBLI 220351Z 12003KT 10SM BKN027 BKN031 OVC085 04/02 A2978 RMK AO2=
200912220351 SPECI KBLI 220351Z 12003KT 10SM BKN027 BKN031 OVC085 04/02 A2978 RMK AO2=
200912220253 METAR KBLI 220253Z 15003KT 10SM FEW022 BKN085 OVC110 04/02 A2977 RMK AO2 SLP088 T00390017 51016=
200912220153 METAR KBLI 220153Z 12004KT 10SM BKN065 OVC090 04/01 A2975 RMK AO2 SLP084 T00390011=
200912220053 METAR KBLI 220053Z 17007KT 10SM SCT060 BKN075 OVC095 05/01 A2974 RMK AO2 SLP078 T00500011=
200912212353 METAR KBLI 212353Z 16008KT 10SM OVC055 06/01 A2972 RMK AO2 SLP072 60012 T00560011 10067 20050 53025=
200912212253 METAR KBLI 212253Z 17006KT 10SM BKN100 06/01 A2969 RMK AO2 SLP062 T00610006=
200912212153 METAR KBLI 212153Z VRB04KT 10SM FEW037 SCT065 SCT095 06/01 A2967 RMK AO2 SLP055 T00610011=
200912212053 METAR KBLI 212053Z 19004KT 10SM FEW037 BKN055 06/03 A2964 RMK AO2 SLP046 60012 T00610033 53021=
200912212038 SPECI KBLI 212038Z 19003KT 10SM FEW023 BKN039 BKN060 06/04 A2964 RMK AO2=
200912212038 SPECI KBLI 212038Z 19003KT 10SM FEW023 BKN039 BKN060 06/04 A2964 RMK AO2=
200912211953 METAR KBLI 211953Z VRB03KT 10SM SCT005 SCT011 OVC016 06/05 A2961 RMK AO2 RAE45 SLP036 P0003 T00610050=
200912211949 SPECI KBLI 211949Z 16003KT 10SM SCT005 BKN010 OVC016 06/05 A2961 RMK AO2 RAE45 P0003=
200912211949 SPECI KBLI 211949Z 16003KT 10SM SCT005 BKN010 OVC016 06/05 A2961 RMK AO2 RAE45 P0003=
200912211853 METAR KBLI 211853Z 21004KT 5SM -RA BR OVC005 06/05 A2958 RMK AO2 CIG 003V009 SLP026 P0009 T00560050=
200912211753 METAR KBLI 211753Z VRB06KT 5SM RA BR BKN005 BKN010 OVC017 07/06 A2954 RMK AO2 RAB1657 CIG 003V009 SLP012 P0010 60013 T00670061 10122 20067 51030=
200912211751 SPECI KBLI 211751Z 23005KT 5SM RA BR BKN007 BKN010 OVC017 07/06 A2954 RMK AO2 RAB1657 CIG 003V009 P0010=
200912211751 SPECI KBLI 211751Z 23005KT 5SM RA BR BKN007 BKN010 OVC017 07/06 A2954 RMK AO2 RAB1657 CIG 003V009 P0010=
200912211744 SPECI KBLI 211744Z VRB05KT 2 1/2SM RA BR BKN007 BKN016 OVC029 07/06 A2954 RMK AO2 RAB1657 CIG 004V012 PRESRR P0007=
200912211744 SPECI KBLI 211744Z VRB05KT 2 1/2SM RA BR BKN007 BKN016 OVC029 07/06 A2954 RMK AO2 RAB1657 CIG 004V012 PRESRR P0007=
200912211707 SPECI KBLI 211707Z 18007KT 10SM -RA FEW003 SCT009 OVC022 09/08 A2950 RMK AO2 RAB1657 P0000=
200912211707 SPECI KBLI 211707Z 18007KT 10SM -RA FEW003 SCT009 OVC022 09/08 A2950 RMK AO2 RAB1657 P0000=
200912211700 SPECI KBLI 211700Z 16008KT 10SM -RA SCT003 BKN010 OVC022 08/08 A2949 RMK AO2 RAB1657 CIG 008V011 P0000=
200912211700 SPECI KBLI 211700Z 16008KT 10SM -RA SCT003 BKN010 OVC022 08/08 A2949 RMK AO2 RAB1657 CIG 008V011 P0000=
200912211653 METAR KBLI 211653Z 17011KT 6SM BR BKN003 OVC013 09/08 A2949 RMK AO2 PK WND 16031/1608 RAE50 SLP992 P0001 T00890078=
200912211637 SPECI KBLI 211637Z 17013G26KT 2 1/2SM -RA BR BKN013 OVC020 09/09 A2947 RMK AO2 PK WND 16031/1608 P0001=
200912211637 SPECI KBLI 211637Z 17013G26KT 2 1/2SM -RA BR BKN013 OVC020 09/09 A2947 RMK AO2 PK WND 16031/1608 P0001=
200912211553 METAR KBLI 211553Z 16013G27KT 7SM -RA OVC023 11/08 A2945 RMK AO2 PK WND 15033/1503 SLP981 P0002 T01060083=
200912211453 METAR KBLI 211453Z 16017G25KT 10SM -RA BKN027 OVC033 12/08 A2946 RMK AO2 PK WND 16029/1439 RAB35 SLP983 P0000 60000 T01170078 55010=
200912211435 SPECI KBLI 211435Z AUTO 15020G29KT 10SM -RA OVC032 12/07 A2945 RMK AO2 PK WND 16029/1434 RAB35 P0000=
200912211435 SPECI KBLI 211435Z AUTO 15020G29KT 10SM -RA OVC032 12/07 A2945 RMK AO2 PK WND 16029/1434 RAB35 P0000=
200912211353 METAR KBLI 211353Z AUTO 15017G26KT 10SM BKN027 OVC090 12/07 A2946 RMK AO2 PK WND 15028/1318 SLP982 T01170072=
200912211343 SPECI KBLI 211343Z AUTO 14016G24KT 10SM SCT029 OVC090 12/07 A2946 RMK AO2 PK WND 15028/1318=
200912211343 SPECI KBLI 211343Z AUTO 14016G24KT 10SM SCT029 OVC090 12/07 A2946 RMK AO2 PK WND 15028/1318=
200912211253 METAR KBLI 211253Z AUTO 15016G25KT 10SM BKN029 BKN033 BKN120 12/07 A2948 RMK AO2 PK WND 14026/1235 SLP988 T01170072=
200912211153 METAR KBLI 211153Z AUTO 15012G20KT 10SM OVC022 12/09 A2949 RMK AO2 RAB10E26 SLP992 P0000 60004 70008 T01220089 10128 20106 58012=
200912211053 METAR KBLI 211053Z AUTO 16013G21KT 10SM OVC022 12/09 A2951 RMK AO2 PK WND 15027/1009 RAE16 SLP001 P0000 T01220089=
200912210953 METAR KBLI 210953Z AUTO 16014G19KT 10SM -RA OVC020 11/09 A2952 RMK AO2 PK WND 15029/0906 RAB06 SLP005 P0001 T01110089=
200912210853 METAR KBLI 210853Z AUTO 15016G28KT 10SM OVC020 12/09 A2952 RMK AO2 PK WND 15028/0848 RAE35 SLP005 P0002 60003 T01170089 58007=
200912210753 METAR KBLI 210753Z AUTO 16016G23KT 10SM -RA BKN022 OVC030 11/09 A2954 RMK AO2 PK WND 16028/0719 RAB13 SLP010 P0001 T01110089 401330056=
200912210653 METAR KBLI 210653Z AUTO 16012G28KT 10SM OVC024 12/08 A2954 RMK AO2 PK WND 15028/0644 RAE24 SLP009 P0000 T01220083=
200912210553 METAR KBLI 210553Z 15015G25KT 10SM -RA OVC026 12/08 A2954 RMK AO2 PK WND 17031/0529 RAB26 SLP012 P0000 60001 T01220083 10133 20067 56005=
200912210453 METAR KBLI 210453Z 16015G21KT 10SM OVC024 12/09 A2956 RMK AO2 PK WND 15028/0435 SLP016 T01220089=
200912210353 METAR KBLI 210353Z 16018G25KT 10SM OVC021 13/09 A2955 RMK AO2 PK WND 16028/0314 WSHFT 0258 SLP013 T01280094=
200912210318 SPECI KBLI 210318Z 16016G28KT 10SM BKN023 OVC029 13/09 A2954 RMK AO2 PK WND 16028/0314 WSHFT 0258=
200912210318 SPECI KBLI 210318Z 16016G28KT 10SM BKN023 OVC029 13/09 A2954 RMK AO2 PK WND 16028/0314 WSHFT 0258=
200912210253 METAR KBLI 210253Z 00000KT 10SM OVC023 07/06 A2956 RMK AO2 RAE34 SLP017 P0001 60001 T00670056 58010=
200912210153 METAR KBLI 210153Z VRB04KT 10SM -RA OVC025 07/06 A2958 RMK AO2 RAE01B31 SLP024 P0000 T00670056=
200912210053 METAR KBLI 210053Z 18005KT 10SM -RA OVC027 12/09 A2958 RMK AO2 RAB17 SLP024 P0000 T01170089=
200912202353 METAR KBLI 202353Z 15012G17KT 10SM OVC027 13/09 A2959 RMK AO2 SLP027 60000 T01280089 10128 20067 58026=
200912202253 METAR KBLI 202253Z VRB03KT 10SM OVC027 07/06 A2962 RMK AO2 SLP039 T00720056=
200912202153 METAR KBLI 202153Z 36006KT 10SM OVC023 07/06 A2964 RMK AO2 SLP045 T00670056=
200912202053 METAR KBLI 202053Z VRB04KT 10SM OVC025 07/05 A2967 RMK AO2 RAB11E44 SLP053 P0000 60000 T00670050 58018=
200912202046 SPECI KBLI 202046Z 36006KT 10SM BKN027 OVC033 07/05 A2967 RMK AO2 RAB11E44 P0000=
200912202046 SPECI KBLI 202046Z 36006KT 10SM BKN027 OVC033 07/05 A2967 RMK AO2 RAB11E44 P0000=
200912201953 METAR KBLI 201953Z 35006KT 10SM OVC034 07/06 A2969 RMK AO2 SLP061 T00720056=
200912201853 METAR KBLI 201853Z 35006KT 10SM OVC034 07/06 A2971 RMK AO2 RAB29E45 SLP069 P0000 T00720056=
200912201753 METAR KBLI 201753Z 34005KT 10SM BKN036 OVC045 07/06 A2972 RMK AO2 SLP071 60003 T00670056 10067 20056 55014=
200912201653 METAR KBLI 201653Z 34004KT 10SM SCT036 SCT080 BKN100 06/05 A2971 RMK AO2 RAE1555 SLP070 P0000 T00560050=
200912201626 SPECI KBLI 201626Z 36005KT 10SM BKN031 OVC080 06/05 A2973 RMK AO2 RAE1555 P0000=
200912201626 SPECI KBLI 201626Z 36005KT 10SM BKN031 OVC080 06/05 A2973 RMK AO2 RAE1555 P0000=
200912201553 METAR KBLI 201553Z 35006KT 10SM -RA BKN026 OVC095 06/04 A2973 RMK AO2 RAB26 SLP077 P0001 T00560044=
200912201453 METAR KBLI 201453Z 01005KT 10SM OVC031 06/04 A2976 RMK AO2 RAE36 SLP085 P0000 60002 T00560044 56022=
200912201439 SPECI KBLI 201439Z AUTO 34005KT 10SM FEW023 OVC031 06/04 A2976 RMK AO2 RAE36 P0000=
200912201439 SPECI KBLI 201439Z AUTO 34005KT 10SM FEW023 OVC031 06/04 A2976 RMK AO2 RAE36 P0000=
200912201353 METAR KBLI 201353Z AUTO 34003KT 8SM -RA OVC021 06/05 A2978 RMK AO2 SLP092 P0002 T00610050=
200912201253 METAR KBLI 201253Z AUTO 02006KT 10SM -RA OVC023 06/05 A2979 RMK AO2 SLP094 P0000 T00610050=
200912201229 SPECI KBLI 201229Z AUTO 02007KT 10SM SCT013 OVC021 06/04 A2980 RMK AO2 RAE22 P0000=
200912201229 SPECI KBLI 201229Z AUTO 02007KT 10SM SCT013 OVC021 06/04 A2980 RMK AO2 RAE22 P0000=
200912201153 METAR KBLI 201153Z AUTO 01005KT 10SM -RA OVC013 06/04 A2982 RMK AO2 RAB27 SLP107 P0001 60002 70008 T00610044 10067 20056 58021=
200912201053 METAR KBLI 201053Z AUTO 03004KT 8SM BKN013 OVC017 07/05 A2986 RMK AO2 SLP119 T00670050=
200912201045 SPECI KBLI 201045Z AUTO 03004KT 5SM BR BKN013 BKN018 OVC023 07/05 A2986 RMK AO2=
200912201045 SPECI KBLI 201045Z AUTO 03004KT 5SM BR BKN013 BKN018 OVC023 07/05 A2986 RMK AO2=
200912200953 METAR KBLI 200953Z AUTO 02006KT 8SM OVC020 07/04 A2988 RMK AO2 SLP125 T00670044=
200912200853 METAR KBLI 200853Z AUTO 01007KT 10SM OVC022 07/04 A2989 RMK AO2 RAE0759 SLP129 P0000 60001 T00670044 58029=
200912200753 METAR KBLI 200753Z AUTO 03009KT 6SM -RA BR OVC024 06/05 A2992 RMK AO2 RAE17B36 SLP140 P0000 T00610050 400780050=
200912200653 METAR KBLI 200653Z AUTO 02008KT 4SM -RA BR OVC028 06/04 A2995 RMK AO2 SLP152 P0001 T00560044=
200912200644 SPECI KBLI 200644Z AUTO 02008KT 5SM -RA BR OVC028 06/04 A2996 RMK AO2 P0001=
200912200644 SPECI KBLI 200644Z AUTO 02008KT 5SM -RA BR OVC028 06/04 A2996 RMK AO2 P0001=
200912200553 METAR KBLI 200553Z 01009KT 6SM -RA BR BKN036 OVC046 06/04 A2997 RMK AO2 SLP158 P0001 60004 T00560039 10067 20050 56023=
200912200453 METAR KBLI 200453Z 01008KT 9SM -RA OVC060 06/04 A2998 RMK AO2 SLP160 P0002 T00560044=
200912200353 METAR KBLI 200353Z 35005KT 7SM -RA OVC034 06/04 A3002 RMK AO2 RAB22 SLP173 P0001 T00560044=
200912200253 METAR KBLI 200253Z 36004KT 9SM FEW006 OVC032 06/05 A3004 RMK AO2 SLP181 T00610050 56010=
200912200250 SPECI KBLI 200250Z 35004KT 8SM FEW006 OVC032 06/06 A3004 RMK AO2=
200912200250 SPECI KBLI 200250Z 35004KT 8SM FEW006 OVC032 06/06 A3004 RMK AO2=
200912200207 SPECI KBLI 200207Z 33003KT 2SM BR BKN003 OVC030 06/06 A3005 RMK AO2=
200912200207 SPECI KBLI 200207Z 33003KT 2SM BR BKN003 OVC030 06/06 A3005 RMK AO2=
200912200158 SPECI KBLI 200158Z 33004KT 2SM BR BKN001 OVC030 06/06 A3005 RMK AO2 CIG 001V005=
200912200158 SPECI KBLI 200158Z 33004KT 2SM BR BKN001 OVC030 06/06 A3005 RMK AO2 CIG 001V005=
200912200153 METAR KBLI 200153Z 35003KT 1 3/4SM BR BKN003 OVC030 06/06 A3005 RMK AO2 CIG 001V005 SLP184 T00610061=
200912200053 METAR KBLI 200053Z 31003KT 2 1/2SM BR OVC003 06/06 A3007 RMK AO2 SLP191 T00610061=
200912200028 SPECI KBLI 200028Z 00000KT 3SM BR BKN003 OVC008 07/06 A3007 RMK AO2=
200912200028 SPECI KBLI 200028Z 00000KT 3SM BR BKN003 OVC008 07/06 A3007 RMK AO2=
200912200009 SPECI KBLI 200009Z 34003KT 2SM BR BKN005 OVC010 07/06 A3008 RMK AO2 CIG 003V008=
200912200009 SPECI KBLI 200009Z 34003KT 2SM BR BKN005 OVC010 07/06 A3008 RMK AO2 CIG 003V008=
200912192353 METAR KBLI 192353Z 33003KT 3SM BR BKN005 BKN010 OVC014 07/06 A3008 RMK AO2 SLP195 T00670061 10072 20061 56007=
200912192300 SPECI KBLI 192300Z 32004KT 4SM BR BKN005 OVC010 07/06 A3008 RMK AO2=
200912192300 SPECI KBLI 192300Z 32004KT 4SM BR BKN005 OVC010 07/06 A3008 RMK AO2=
200912192253 METAR KBLI 192253Z 33003KT 2SM BR OVC005 07/06 A3008 RMK AO2 CIG 004V011 SLP195 T00670061=
200912192153 METAR KBLI 192153Z 33004KT 2SM BR OVC005 07/07 A3008 RMK AO2 CIG 002V007 SLP195 T00670067=
200912192127 SPECI KBLI 192127Z 33003KT 2SM BR OVC005 07/07 A3009 RMK AO2=
200912192127 SPECI KBLI 192127Z 33003KT 2SM BR OVC005 07/07 A3009 RMK AO2=
200912192120 SPECI KBLI 192120Z 32003KT 1SM BR BKN001 OVC005 07/07 A3009 RMK AO2 RVRNO=
200912192120 SPECI KBLI 192120Z 32003KT 1SM BR BKN001 OVC005 07/07 A3009 RMK AO2 RVRNO=
200912192053 METAR KBLI 192053Z 00000KT 1/4SM FG VV001 07/07 A3010 RMK AO2 SLP202 T00670067 58010 RVRNO=
200912191953 METAR KBLI 191953Z 32003KT 1/4SM FG VV001 06/06 A3011 RMK AO2 SLP205 T00610061 RVRNO=
200912191853 METAR KBLI 191853Z 00000KT 1/4SM FG VV001 06/06 A3013 RMK AO2 SLP211 T00610061 RVRNO=
200912191830 SPECI KBLI 191830Z 33003KT 1/2SM FG OVC002 06/06 A3014 RMK AO2 RVRNO=
200912191830 SPECI KBLI 191830Z 33003KT 1/2SM FG OVC002 06/06 A3014 RMK AO2 RVRNO=
200912191823 SPECI KBLI 191823Z 00000KT 1 1/4SM BR OVC002 06/06 A3014 RMK AO2=
200912191823 SPECI KBLI 191823Z 00000KT 1 1/4SM BR OVC002 06/06 A3014 RMK AO2=
200912191802 SPECI KBLI 191802Z 30005KT 2 1/2SM BR OVC004 06/06 A3014 RMK AO2=
200912191802 SPECI KBLI 191802Z 30005KT 2 1/2SM BR OVC004 06/06 A3014 RMK AO2=
200912191753 METAR KBLI 191753Z 30003KT 3SM BR OVC004 06/06 A3013 RMK AO2 SLP212 60002 T00610056 10067 20061 53006=
200912191653 METAR KBLI 191653Z 00000KT 3SM BR OVC004 06/06 A3012 RMK AO2 RAB02E13 SLP208 P0000 T00610056=
200912191614 SPECI KBLI 191614Z 31003KT 4SM BR OVC004 06/06 A3012 RMK AO2 RAB02E13 P0000=
200912191614 SPECI KBLI 191614Z 31003KT 4SM BR OVC004 06/06 A3012 RMK AO2 RAB02E13 P0000=
200912191553 METAR KBLI 191553Z 00000KT 2 1/2SM BR OVC004 06/06 A3011 RMK AO2 RAB33E45 CIG 002V006 SLP203 P0000 T00610056=
200912191544 SPECI KBLI 191544Z 00000KT 2 1/2SM -RA BR OVC004 06/06 A3011 RMK AO2 RAB33 P0000=
200912191544 SPECI KBLI 191544Z 00000KT 2 1/2SM -RA BR OVC004 06/06 A3011 RMK AO2 RAB33 P0000=
200912191453 METAR KBLI 191453Z 29004KT 6SM BR OVC004 06/06 A3012 RMK AO2 SLP206 60002 T00610056 55000=
200912191409 SPECI KBLI 191409Z AUTO 00000KT 4SM BR OVC004 06/06 A3010 RMK AO2 CIG 002V006=
200912191409 SPECI KBLI 191409Z AUTO 00000KT 4SM BR OVC004 06/06 A3010 RMK AO2 CIG 002V006=
200912191353 METAR KBLI 191353Z AUTO 30003KT 2SM BR OVC004 07/06 A3010 RMK AO2 RAB29E48 CIG 002V007 SLP201 P0002 T00670061=
200912191345 SPECI KBLI 191345Z AUTO 31004KT 2SM -RA BR OVC002 07/06 A3011 RMK AO2 RAB29 CIG 002V007 P0001=
200912191345 SPECI KBLI 191345Z AUTO 31004KT 2SM -RA BR OVC002 07/06 A3011 RMK AO2 RAB29 CIG 002V007 P0001=
200912191315 SPECI KBLI 191315Z AUTO 29004KT 1 3/4SM BR OVC004 07/06 A3011 RMK AO2 CIG 001V007 P0001=
200912191315 SPECI KBLI 191315Z AUTO 29004KT 1 3/4SM BR OVC004 07/06 A3011 RMK AO2 CIG 001V007 P0001=
200912191253 METAR KBLI 191253Z AUTO 29003KT 2 1/2SM BR OVC004 07/07 A3011 RMK AO2 CIG 002V007 SLP203 T00670067=
200912191236 SPECI KBLI 191236Z AUTO 30003KT 2SM BR OVC002 07/07 A3011 RMK AO2=
200912191236 SPECI KBLI 191236Z AUTO 30003KT 2SM BR OVC002 07/07 A3011 RMK AO2=
200912191153 METAR KBLI 191153Z AUTO 00000KT 1 1/4SM BR OVC002 07/07 A3012 RMK AO2 SLP207 P0001 60013 70015 T00670067 10078 20067 58001=
200912191053 METAR KBLI 191053Z AUTO 00000KT 1 1/2SM BR OVC002 07/07 A3013 RMK AO2 SLP210 T00720067=
200912191040 SPECI KBLI 191040Z AUTO 00000KT 1 1/4SM BR OVC002 07/07 A3012 RMK AO2=
200912191040 SPECI KBLI 191040Z AUTO 00000KT 1 1/4SM BR OVC002 07/07 A3012 RMK AO2=
200912191030 SPECI KBLI 191030Z AUTO 00000KT 3/4SM BR OVC002 07/07 A3012 RMK AO2 RVRNO=
200912191030 SPECI KBLI 191030Z AUTO 00000KT 3/4SM BR OVC002 07/07 A3012 RMK AO2 RVRNO=
200912191023 SPECI KBLI 191023Z AUTO 00000KT 1/2SM FG OVC002 07/07 A3012 RMK AO2 RVRNO=
200912191023 SPECI KBLI 191023Z AUTO 00000KT 1/2SM FG OVC002 07/07 A3012 RMK AO2 RVRNO=
200912190953 METAR KBLI 190953Z AUTO 00000KT 3/4SM BR OVC002 07/07 A3012 RMK AO2 RAE34 SLP208 P0001 T00670067 RVRNO=
200912190930 SPECI KBLI 190930Z AUTO 00000KT 1/2SM -RA FG OVC002 07/07 A3012 RMK AO2 P0000 RVRNO=
200912190930 SPECI KBLI 190930Z AUTO 00000KT 1/2SM -RA FG OVC002 07/07 A3012 RMK AO2 P0000 RVRNO=
200912190923 SPECI KBLI 190923Z AUTO 00000KT 3/4SM -RA BR OVC002 07/07 A3012 RMK AO2 P0000 RVRNO=
200912190923 SPECI KBLI 190923Z AUTO 00000KT 3/4SM -RA BR OVC002 07/07 A3012 RMK AO2 P0000 RVRNO=
200912190853 METAR KBLI 190853Z AUTO 00000KT 1 1/2SM -RA BR OVC002 07/07 A3012 RMK AO2 SLP208 P0003 60011 T00720072 58011=
200912190840 SPECI KBLI 190840Z AUTO 30004KT 1 1/4SM -RA BR OVC002 08/07 A3012 RMK AO2 CIG 001V004 P0002=
200912190840 SPECI KBLI 190840Z AUTO 30004KT 1 1/4SM -RA BR OVC002 08/07 A3012 RMK AO2 CIG 001V004 P0002=
200912190826 SPECI KBLI 190826Z AUTO 00000KT 2 1/2SM -RA BR OVC002 08/07 A3013 RMK AO2 CIG 001V005 P0001=
200912190826 SPECI KBLI 190826Z AUTO 00000KT 2 1/2SM -RA BR OVC002 08/07 A3013 RMK AO2 CIG 001V005 P0001=
200912190753 METAR KBLI 190753Z AUTO 00000KT 1 3/4SM -RA BR OVC004 07/07 A3014 RMK AO2 CIG 001V007 SLP213 P0006 T00720067 400830028=
200912190653 METAR KBLI 190653Z AUTO 00000KT 1SM -RA BR OVC004 07/07 A3015 RMK AO2 RAB0558 SLP216 P0002 T00670067 RVRNO=
200912190642 SPECI KBLI 190642Z AUTO 00000KT 1 1/4SM -RA BR OVC004 07/06 A3015 RMK AO2 RAB0558 P0002=
200912190642 SPECI KBLI 190642Z AUTO 00000KT 1 1/4SM -RA BR OVC004 07/06 A3015 RMK AO2 RAB0558 P0002=
200912190620 SPECI KBLI 190620Z 00000KT 1 3/4SM -RA BR BKN006 BKN013 OVC025 07/06 A3015 RMK AO2 RAB0558 P0000=
200912190620 SPECI KBLI 190620Z 00000KT 1 3/4SM -RA BR BKN006 BKN013 OVC025 07/06 A3015 RMK AO2 RAB0558 P0000=
200912190615 SPECI KBLI 190615Z 00000KT 2SM -RA BR SCT006 BKN013 OVC025 07/06 A3015 RMK AO2 RAB0558 P0000=
200912190615 SPECI KBLI 190615Z 00000KT 2SM -RA BR SCT006 BKN013 OVC025 07/06 A3015 RMK AO2 RAB0558 P0000=
200912190605 SPECI KBLI 190605Z 00000KT 2SM -RA BR SCT015 OVC025 07/06 A3015 RMK AO2 RAB0558 P0000=
200912190605 SPECI KBLI 190605Z 00000KT 2SM -RA BR SCT015 OVC025 07/06 A3015 RMK AO2 RAB0558 P0000=
200912190553 METAR KBLI 190553Z 00000KT 3SM BR FEW013 SCT018 OVC025 07/06 A3015 RMK AO2 SLP219 60001 T00670061 10078 20067 58006=
200912190518 SPECI KBLI 190518Z 00000KT 3SM BR FEW002 OVC018 07/06 A3016 RMK AO2=
200912190518 SPECI KBLI 190518Z 00000KT 3SM BR FEW002 OVC018 07/06 A3016 RMK AO2=
200912190453 METAR KBLI 190453Z 00000KT 3SM BR BKN016 BKN021 OVC049 07/06 A3017 RMK AO2 RAB06E28 SLP223 P0001 T00670061=
200912190353 METAR KBLI 190353Z 00000KT 5SM BR FEW025 OVC032 07/07 A3017 RMK AO2 SLP224 T00670067=
200912190253 METAR KBLI 190253Z 00000KT 7SM OVC032 07/06 A3017 RMK AO2 SLP225 T00670061 55001=
200912190153 METAR KBLI 190153Z 00000KT 8SM BKN030 OVC042 07/07 A3017 RMK AO2 SLP226 T00720067=
200912190053 METAR KBLI 190053Z 00000KT 7SM OVC030 07/07 A3017 RMK AO2 SLP226 T00720067=
200912182353 METAR KBLI 182353Z 00000KT 9SM BKN041 OVC050 08/07 A3018 RMK AO2 SLP226 60001 T00780072 10083 20072 58006=
200912182253 METAR KBLI 182253Z 00000KT 10SM OVC050 08/07 A3018 RMK AO2 SLP229 T00780067=
200912182153 METAR KBLI 182153Z 00000KT 10SM OVC060 08/07 A3019 RMK AO2 RAE14B31E48 SLP232 P0000 T00830067=
200912182053 METAR KBLI 182053Z 00000KT 8SM -RA BKN038 OVC047 08/07 A3019 RMK AO2 SLP232 P0001 60001 T00830067 58007=
200912181953 METAR KBLI 181953Z 00000KT 10SM -RA BKN048 OVC065 08/06 A3020 RMK AO2 RAB06E17B40 SLP234 P0000 T00780056=
200912181853 METAR KBLI 181853Z 00000KT 10SM BKN055 OVC070 07/05 A3022 RMK AO2 RAB15E50 SLP241 P0000 T00720050=
200912181753 METAR KBLI 181753Z 01004KT 10SM BKN050 OVC070 07/05 A3021 RMK AO2 RAB10E40 SLP239 P0000 60000 T00720050 10072 20028 53012=
200912181653 METAR KBLI 181653Z 35004KT 10SM OVC075 06/04 A3019 RMK AO2 SLP231 T00610039=
200912181553 METAR KBLI 181553Z 32003KT 10SM OVC075 06/03 A3017 RMK AO2 SLP224 T00560033=
200912181453 METAR KBLI 181453Z 00000KT 10SM OVC080 05/03 A3018 RMK AO2 SLP228 T00500033 55002=
200912181353 METAR KBLI 181353Z AUTO 00000KT 10SM BKN095 04/03 A3017 RMK AO2 SLP225 T00390033=
200912181253 METAR KBLI 181253Z AUTO 00000KT 10SM FEW110 04/03 A3018 RMK AO2 SLP230 T00390028=
200912181153 METAR KBLI 181153Z AUTO 00000KT 10SM CLR 04/03 A3019 RMK AO2 SLP230 T00390028 10067 20039 53006=
200912181053 METAR KBLI 181053Z AUTO 32004KT 10SM CLR 05/03 A3016 RMK AO2 SLP221 T00500033=
200912180953 METAR KBLI 180953Z AUTO 01004KT 10SM OVC110 06/04 A3017 RMK AO2 SLP224 T00560039=
200912180853 METAR KBLI 180853Z AUTO 04006KT 10SM OVC090 06/04 A3017 RMK AO2 SLP224 T00610044 58008=
200912180753 METAR KBLI 180753Z AUTO 01004KT 10SM OVC038 07/04 A3019 RMK AO2 SLP230 T00670044 401000039=
200912180653 METAR KBLI 180653Z AUTO 02003KT 10SM OVC036 07/05 A3020 RMK AO2 SLP234 T00670050=
200912180553 METAR KBLI 180553Z 01004KT 10SM OVC036 07/05 A3019 RMK AO2 SLP231 60000 T00670050 10078 20067 58003=
200912180453 METAR KBLI 180453Z 04006KT 10SM OVC038 07/05 A3019 RMK AO2 RAE44 SLP232 P0000 T00670050=
200912180353 METAR KBLI 180353Z 02005KT 10SM -RA BKN036 BKN050 OVC075 07/05 A3020 RMK AO2 RAB01 SLP236 P0000 T00670050=
200912180253 METAR KBLI 180253Z 00000KT 10SM OVC042 07/06 A3020 RMK AO2 SLP234 60000 T00720056 58001=
200912180153 METAR KBLI 180153Z 03003KT 10SM OVC042 07/05 A3020 RMK AO2 RAB25E49 SLP235 P0000 T00720050=
200912180053 METAR KBLI 180053Z 36003KT 10SM OVC042 07/05 A3021 RMK AO2 SLP237 T00720050=
200912172353 METAR KBLI 172353Z 03005KT 10SM OVC040 08/06 A3020 RMK AO2 SLP235 T00780056 10100 20067 55002=
200912172253 METAR KBLI 172253Z 02004KT 10SM BKN038 OVC090 08/06 A3020 RMK AO2 SLP235 T00830056=
200912172153 METAR KBLI 172153Z 03006KT 10SM FEW044 OVC100 08/06 A3020 RMK AO2 SLP235 T00830061=
200912172053 METAR KBLI 172053Z 01005KT 10SM FEW042 OVC110 09/07 A3021 RMK AO2 SLP238 T00890067 58007=
200912171953 METAR KBLI 171953Z 05004KT 10SM SCT027 OVC041 08/07 A3023 RMK AO2 SLP243 T00830067=
200912171853 METAR KBLI 171853Z 03005KT 10SM SCT027 OVC036 08/06 A3024 RMK AO2 SLP248 T00780061=
200912171844 SPECI KBLI 171844Z 02005KT 10SM SCT027 OVC036 07/06 A3024 RMK AO2=
200912171844 SPECI KBLI 171844Z 02005KT 10SM SCT027 OVC036 07/06 A3024 RMK AO2=
200912171753 METAR KBLI 171753Z 35003KT 10SM BKN025 OVC034 07/06 A3023 RMK AO2 SLP245 T00670056 10089 20039 53004=
200912171712 SPECI KBLI 171712Z 00000KT 9SM BKN025 OVC035 06/05 A3022 RMK AO2=
200912171712 SPECI KBLI 171712Z 00000KT 9SM BKN025 OVC035 06/05 A3022 RMK AO2=
200912171653 METAR KBLI 171653Z 00000KT 9SM SCT027 BKN035 05/04 A3022 RMK AO2 SLP242 T00500044=
200912171648 SPECI KBLI 171648Z 02003KT 10SM SCT027 BKN035 05/04 A3022 RMK AO2=
200912171648 SPECI KBLI 171648Z 02003KT 10SM SCT027 BKN035 05/04 A3022 RMK AO2=
200912171624 SPECI KBLI 171624Z 00000KT 8SM BKN027 OVC033 04/04 A3022 RMK AO2=
200912171624 SPECI KBLI 171624Z 00000KT 8SM BKN027 OVC033 04/04 A3022 RMK AO2=
200912171553 METAR KBLI 171553Z 00000KT 9SM BKN035 OVC090 04/03 A3022 RMK AO2 SLP241 T00390033=
200912171453 METAR KBLI 171453Z 15005KT 10SM CLR 08/05 A3020 RMK AO2 SLP235 T00780050 53009=
200912171353 METAR KBLI 171353Z AUTO 15004KT 10SM CLR 07/05 A3019 RMK AO2 SLP231 T00720050=
200912171253 METAR KBLI 171253Z AUTO 16003KT 10SM SCT050 07/06 A3018 RMK AO2 SLP226 T00720056=
200912171153 METAR KBLI 171153Z AUTO 16003KT 10SM FEW046 BKN060 OVC090 08/06 A3018 RMK AO2 SLP226 70073 T00830061 10094 20078 51023=
200912171053 METAR KBLI 171053Z AUTO 18007KT 10SM BKN055 OVC085 09/07 A3016 RMK AO2 SLP220 T00890067=
200912170953 METAR KBLI 170953Z AUTO 14007KT 10SM BKN050 OVC060 08/07 A3013 RMK AO2 SLP212 T00830067=
200912170853 METAR KBLI 170853Z AUTO 16005KT 10SM OVC055 09/07 A3011 RMK AO2 SLP203 T00890072 51027=
200912170753 METAR KBLI 170753Z AUTO 14009KT 10SM FEW015 OVC060 08/07 A3008 RMK AO2 SLP192 T00830067 401170078=
200912170653 METAR KBLI 170653Z AUTO 15004KT 10SM SCT016 BKN065 08/07 A3006 RMK AO2 SLP185 T00780067=
200912170628 SPECI KBLI 170628Z 14005KT 10SM BKN016 BKN100 08/07 A3004 RMK AO2=
200912170628 SPECI KBLI 170628Z 14005KT 10SM BKN016 BKN100 08/07 A3004=
200912170553 METAR KBLI 170553Z 15009KT 10SM SCT016 09/07 A3003 RMK AO2 RAE06 SLP175 P0001 60028 T00890072 10100 20083 51018=
200912170529 SPECI KBLI 170529Z 17009KT 10SM SCT016 09/07 A3001 RMK AO2 RAE06 P0001=
200912170529 SPECI KBLI 170529Z 17009KT 10SM SCT016 09/07 A3001 RMK AO2 RAE06 P0001=
200912170510 SPECI KBLI 170510Z 16011KT 10SM BKN016 BKN023 BKN060 09/07 A3001 RMK AO2 RAE06 P0001=
200912170510 SPECI KBLI 170510Z 16011KT 10SM BKN016 BKN023 BKN060 09/07 A3001 RMK AO2 RAE06 P0001=
200912170503 SPECI KBLI 170503Z 16010KT 9SM -RA BKN014 BKN023 OVC044 09/07 A3000 RMK AO2 P0001=
200912170503 SPECI KBLI 170503Z 16010KT 9SM -RA BKN014 BKN023 OVC044 09/07 A3000 RMK AO2 P0001=
200912170453 METAR KBLI 170453Z 15010KT 4SM -RA BR SCT014 BKN020 OVC045 09/08 A3000 RMK AO2 RAB02 SLP167 P0012 T00890078=
200912170449 SPECI KBLI 170449Z 17007KT 3SM RA BR SCT014 BKN020 OVC033 09/08 A3001 RMK AO2 RAB02 P0012=
200912170449 SPECI KBLI 170449Z 17007KT 3SM RA BR SCT014 BKN020 OVC033 09/08 A3001 RMK AO2 RAB02 P0012=
200912170409 SPECI KBLI 170409Z 16012KT 7SM -RA FEW016 BKN041 OVC050 09/08 A2999 RMK AO2 RAB02 P0001=
200912170409 SPECI KBLI 170409Z 16012KT 7SM -RA FEW016 BKN041 OVC050 09/08 A2999 RMK AO2 RAB02 P0001=
200912170353 METAR KBLI 170353Z 15013G21KT 10SM BKN016 BKN043 OVC055 09/08 A2997 RMK AO2 RAE41 SLP157 P0004 T00940078=
200912170319 SPECI KBLI 170319Z 15006KT 10SM BKN016 OVC022 09/08 A2996 RMK AO2 RAE18 P0003=
200912170319 SPECI KBLI 170319Z 15006KT 10SM BKN016 OVC022 09/08 A2996 RMK AO2 RAE18 P0003=
200912170253 METAR KBLI 170253Z 00000KT 3SM RA BR BKN014 OVC020 09/08 A2995 RMK AO2 SLP148 P0005 60011 T00890083 51017=
200912170216 SPECI KBLI 170216Z 17006KT 9SM -RA SCT016 BKN023 OVC060 09/08 A2993 RMK AO2 P0000=
200912170216 SPECI KBLI 170216Z 17006KT 9SM -RA SCT016 BKN023 OVC060 09/08 A2993 RMK AO2 P0000=
200912170153 METAR KBLI 170153Z 16007KT 6SM -RA BR BKN040 OVC046 09/08 A2993 RMK AO2 SLP143 P0003 T00940083=
200912170129 SPECI KBLI 170129Z 17006KT 10SM -RA FEW013 OVC038 09/08 A2993 RMK AO2 P0001=
200912170129 SPECI KBLI 170129Z 17006KT 10SM -RA FEW013 OVC038 09/08 A2993 RMK AO2 P0001=
200912170115 SPECI KBLI 170115Z 16008KT 9SM -RA SCT013 BKN025 OVC041 09/08 A2992 RMK AO2 P0001=
200912170115 SPECI KBLI 170115Z 16008KT 9SM -RA SCT013 BKN025 OVC041 09/08 A2992 RMK AO2 P0001=
200912170106 SPECI KBLI 170106Z 17008KT 9SM -RA BKN013 BKN019 OVC043 09/08 A2992 RMK AO2 P0001=
200912170106 SPECI KBLI 170106Z 17008KT 9SM -RA BKN013 BKN019 OVC043 09/08 A2992 RMK AO2 P0001=
200912170053 METAR KBLI 170053Z 18009KT 7SM -RA FEW012 BKN023 OVC046 09/08 A2992 RMK AO2 SLP138 P0003 T00940083=
200912170017 SPECI KBLI 170017Z 17008KT 10SM -RA FEW028 BKN048 OVC060 09/08 A2990 RMK AO2 P0001=
200912170017 SPECI KBLI 170017Z 17008KT 10SM -RA FEW028 BKN048 OVC060 09/08 A2990 RMK AO2 P0001=
200912170013 SPECI KBLI 170013Z 18006G14KT 3SM -RA BR FEW025 BKN048 OVC060 09/08 A2990 RMK AO2 P0001=
200912170013 SPECI KBLI 170013Z 18006G14KT 3SM -RA BR FEW025 BKN048 OVC060 09/08 A2990 RMK AO2 P0001=
200912162353 METAR KBLI 162353Z 17007KT 3SM +RA BR FEW009 BKN023 OVC034 08/07 A2990 RMK AO2 RAB14 SLP131 P0034 60045 T00830067 10117 20083 53032=
200912162340 SPECI KBLI 162340Z 00000KT 3SM +RA BR FEW008 BKN019 OVC036 09/08 A2989 RMK AO2 RAB14 P0019=
200912162340 SPECI KBLI 162340Z 00000KT 3SM +RA BR FEW008 BKN019 OVC036 09/08 A2989 RMK AO2 RAB14 P0019=
200912162253 METAR KBLI 162253Z 16017G23KT 7SM BKN020 BKN037 OVC070 11/08 A2984 RMK AO2 PK WND 16029/2221 RAE51 SLP113 P0001 T01060078=
200912162153 METAR KBLI 162153Z 15019G29KT 7SM -RA BKN022 BKN030 OVC039 10/08 A2980 RMK AO2 PK WND 14031/2055 SLP099 P0005 T01000078=
200912162053 METAR KBLI 162053Z 16020G28KT 3SM RA BKN024 BKN036 OVC046 10/07 A2980 RMK AO2 PK WND 15042/2012 SLP099 P0005 60005 T01000072 50006=
200912161953 METAR KBLI 161953Z 16021G33KT 10SM -RA SCT028 BKN055 OVC075 11/06 A2980 RMK AO2 PK WND 15040/1921 RAB51 SLP096 P0000 T01110056=
200912161853 METAR KBLI 161853Z 15022G37KT 10SM FEW030 SCT055 BKN075 12/06 A2979 RMK AO2 PK WND 16038/1840 RAB09E19 SLP093 P0000 T01170061=
200912161753 METAR KBLI 161753Z 16022G38KT 10SM FEW032 BKN070 BKN090 12/06 A2979 RMK AO2 PK WND 16038/1749 SLP095 60000 T01170056 10117 20111 53012=
200912161653 METAR KBLI 161653Z 15022G39KT 10SM FEW080 12/05 A2976 RMK AO2 PK WND 14043/1627 SLP083 T01170050=
200912161553 METAR KBLI 161553Z 15021G34KT 10SM FEW037 OVC085 12/05 A2976 RMK AO2 PK WND 17037/1534 RAE1459 SLP083 P0000 T01170050 $=
200912161453 METAR KBLI 161453Z 16018G35KT 10SM -RA FEW034 BKN060 OVC090 11/06 A2976 RMK AO2 PK WND 16037/1432 RAB17E29B45 SLP083 P0000 60000 T01110056 56002 $=
200912161353 METAR KBLI 161353Z AUTO 15017G32KT 10SM SCT070 OVC090 12/06 A2976 RMK AO2 PK WND 15032/1350 SLP084 T01170056 $=
200912161253 METAR KBLI 161253Z AUTO 15015G23KT 10SM BKN095 11/06 A2976 RMK AO2 SLP085 T01110061 $=
200912161153 METAR KBLI 161153Z AUTO 15017G24KT 10SM FEW030 OVC100 11/06 A2976 RMK AO2 SLP086 7//// T01110061 10111 20094 58004 $=
200912161053 METAR KBLI 161053Z AUTO 15016G26KT 10SM SCT028 BKN095 OVC120 11/06 A2977 RMK AO2 PK WND 14026/1052 SLP090 T01110061 $=
200912160953 METAR KBLI 160953Z AUTO 15015G21KT 10SM OVC032 11/07 A2977 RMK AO2 SLP090 T01060067 $=
200912160900 SPECI KBLI 160900Z AUTO 15011G16KT 10SM FEW022 BKN030 BKN034 10/07 A2977 RMK AO2 $=
200912160900 SPECI KBLI 160900Z AUTO 15011G16KT 10SM FEW022 BKN030 BKN034 10/07 A2977 RMK AO2 $=
200912160853 METAR KBLI 160853Z AUTO 15012G16KT 10SM BKN027 BKN034 OVC085 10/07 A2978 RMK AO2 SLPNO T01000067 51014 $=
200912160753 METAR KBLI 160753Z AUTO 15011KT 10SM OVC020 10/07 A2977 RMK AO2 SLP090 T01000072 401061022 $=
200912160653 METAR KBLI 160653Z AUTO 15012G19KT 10SM OVC017 10/07 A2976 RMK AO2 SLP087 T01000072 $=
200912160553 METAR KBLI 160553Z 16014G21KT 10SM OVC015 10/07 A2973 RMK AO2 PK WND 17027/0509 SLP076 60001 T01000072 10106 20011 53028 $=
200912160506 SPECI KBLI 160506Z 16014G27KT 10SM OVC017 09/07 A2970 RMK AO2 PK WND 15027/0502 $=
200912160506 SPECI KBLI 160506Z 16014G27KT 10SM OVC017 09/07 A2970 RMK AO2 PK WND 15027/0502 $=
200912160453 METAR KBLI 160453Z 16017G25KT 10SM SCT022 OVC060 09/07 A2970 RMK AO2 PK WND 16027/0440 SLP065 T00940067 $=
200912160353 METAR KBLI 160353Z 16015G24KT 10SM SCT024 OVC060 10/07 A2967 RMK AO2 PK WND 15026/0300 RAE11 SLP057 P0000 T01000067 $=
200912160318 SPECI KBLI 160318Z 15013G21KT 10SM SCT024 OVC060 10/07 A2966 RMK AO2 PK WND 15026/0300 RAE11 P0000 $=
200912160318 SPECI KBLI 160318Z 15013G21KT 10SM SCT024 OVC060 10/07 A2966 RMK AO2 PK WND 15026/0300 RAE11 P0000 $=
200912160310 SPECI KBLI 160310Z 15016G21KT 10SM -RA BKN024 OVC060 10/07 A2966 RMK AO2 PK WND 15026/0300 P0000 $=
200912160310 SPECI KBLI 160310Z 15016G21KT 10SM -RA BKN024 OVC060 10/07 A2966 RMK AO2 PK WND 15026/0300 P0000 $=
200912160253 METAR KBLI 160253Z 15016G26KT 10SM -RA FEW024 OVC060 10/07 A2965 RMK AO2 PK WND 15034/0217 RAB28 SLPNO P0001 60001 T01000072 53002 $=
200912160153 METAR KBLI 160153Z 13009KT 10SM OVC026 09/06 A2962 RMK AO2 SLP038 T00890061 $=
200912160142 SPECI KBLI 160142Z 13010G16KT 10SM OVC028 08/06 A2963 RMK AO2 $=
200912160142 SPECI KBLI 160142Z 13010G16KT 10SM OVC028 08/06 A2963 RMK AO2 $=
200912160053 METAR KBLI 160053Z 04008KT 10SM OVC035 02/01 A2963 RMK AO2 RAB15E41 SLP043 P0000 T00170011 $=
200912152353 METAR KBLI 152353Z 03009KT 10SM BKN030 01/01 A2964 RMK AO2 RAEMM SLP048 P0000 6//// T00110006 10017 20000 56028 $=
200912152253 METAR KBLI 152253Z 01005KT 8SM -RA OVC018 01/ A2966 RMK AO2 RAB2156 SLP054 P0006 T0011=
200912152217 SPECI KBLI 152217Z 03006KT 8SM -RA OVC018 01/ A2968 RMK AO2 RAB2156 P0002 $=
200912152217 SPECI KBLI 152217Z 03006KT 8SM -RA OVC018 01/ A2968 RMK AO2 RAB2156 P0002 $=
200912152200 SPECI KBLI 152200Z 01/M01 A2970 RMK AO2 RAB2156RAEMM P0001 RVRNO $=
200912152200 SPECI KBLI 152200Z 01/M01 A2970 RMK AO2 RAB2156RAEMM P0001 RVRNO $=
200912152153 METAR KBLI 152153Z 36008KT 10SM BKN018 OVC031 01/ A2969 RMK AO2 RAB16RAEMM SLP064 T0011 $=
200912152101 SPECI KBLI 152101Z 36008KT 10SM BKN018 OVC031 01/ A2972 RMK AO2 $=
200912152101 SPECI KBLI 152101Z 36008KT 10SM BKN018 OVC031 01/ A2972 RMK AO2 $=
200912152053 METAR KBLI 152053Z A2972 RMK AO2 SLPNO 6//// RVRNO $=
200912151953 METAR KBLI 151953Z 36012KT 10SM BKN018 OVC031 01/M02 A2974 RMK AO2 SLP081 T00061017 $=
200912151853 METAR KBLI 151853Z 01012KT 10SM BKN018 OVC025 00/M02 A2977 RMK AO2 SLP092 T00001017 $=
200912151753 METAR KBLI 151753Z 01012KT 10SM BKN018 OVC025 02/ A2978 RMK AO2 SLP095 6//// T0017 10017 21017 50003 $=
200912151653 METAR KBLI 151653Z 34005KT 10SM OVC018 00/M02 A2979 RMK AO2 SLP097 T00001017 $=
200912151553 METAR KBLI 151553Z 35005KT 7SM OVC016 M01/M02 A2978 RMK AO2 SLP095 T10061017 $=
200912151502 SPECI KBLI 151502Z 33006KT 5SM BR OVC016 M01/M02 A2977 RMK AO2 $=
200912151502 SPECI KBLI 151502Z 33006KT 5SM BR OVC016 M01/M02 A2977 RMK AO2 $=
200912151453 METAR KBLI 151453Z A2977 RMK AO2 SLPNO 6//// 51011 RVRNO $=
200912151353 METAR KBLI 151353Z AUTO M01/M02 A2976 RMK AO2 SLP088 T10111022 RVRNO $=
200912151349 SPECI KBLI 151349Z AUTO 35004KT M01/M02 A2976 RMK AO2 RVRNO $=
200912151349 SPECI KBLI 151349Z AUTO 35004KT M01/M02 A2976 RMK AO2 RVRNO $=
200912151308 SPECI KBLI 151308Z AUTO 36006KT 10SM OVC018 M01/M03 A2975 RMK AO2 $=
200912151308 SPECI KBLI 151308Z AUTO 36006KT 10SM OVC018 M01/M03 A2975 RMK AO2 $=
200912151253 METAR KBLI 151253Z AUTO 36005KT 10SM M02/M03 A2974 RMK AO2 SLP081 T10171028 $=
200912151201 SPECI KBLI 151201Z AUTO M02/M03 A2974 RMK AO2 PWINO FZRANO RVRNO $=
200912151201 SPECI KBLI 151201Z AUTO M02/M03 A2974 RMK AO2 PWINO FZRANO RVRNO $=
200912151153 METAR KBLI 151153Z AUTO 35003KT 10SM OVC021 M02/M03 A2974 RMK AO2 SLP080 6//// 7//// T10171028 11011 21022 51009 $=
200912151112 SPECI KBLI 151112Z AUTO 35005KT 10SM OVC023 M02/M02 A2974 RMK AO2 $=
200912151112 SPECI KBLI 151112Z AUTO 35005KT 10SM OVC023 M02/M02 A2974 RMK AO2 $=
200912151053 METAR KBLI 151053Z AUTO 35006KT 10SM M02/M03 A2974 RMK AO2 SLP079 T10171028 $=
200912151009 SPECI KBLI 151009Z AUTO 34006KT M02/M03 A2974 RMK AO2 RVRNO $=
200912151009 SPECI KBLI 151009Z AUTO 34006KT M02/M03 A2974 RMK AO2 RVRNO $=
200912150953 METAR KBLI 150953Z AUTO 34005KT 10SM BKN029 OVC033 M02/M03 A2973 RMK AO2 SLP077 T10171028 $=
200912150944 SPECI KBLI 150944Z AUTO 02006KT 10SM OVC029 M02/M03 A2972 RMK AO2 $=
200912150944 SPECI KBLI 150944Z AUTO 02006KT 10SM OVC029 M02/M03 A2972 RMK AO2 $=
200912150853 METAR KBLI 150853Z AUTO 35008KT 10SM OVC030 M02/M03 A2971 RMK AO2 PRESRR SLP071 6//// T10171028 53008 $=
200912150753 METAR KBLI 150753Z AUTO 10SM M02/M03 A2968 RMK AO2 UPB16E44FZRAB0658FZRAEMM SLP060 T10171028 410111028 $=
200912150749 SPECI KBLI 150749Z AUTO 01009KT 10SM BKN031 OVC065 M02/M03 A2967 RMK AO2 UPB16E44FZRAB0658FZRAEMM 410111028 $=
200912150749 SPECI KBLI 150749Z AUTO 01009KT 10SM BKN031 OVC065 M02/M03 A2967 RMK AO2 UPB16E44FZRAB0658FZRAEMM 410111028 $=
200912150739 SPECI KBLI 150739Z AUTO 36007KT 10SM UP BKN029 OVC065 M02/M02 A2968 RMK AO2 UPB16FZRAB0658FZRAEMM $=
200912150739 SPECI KBLI 150739Z AUTO 36007KT 10SM UP BKN029 OVC065 M02/M02 A2968 RMK AO2 UPB16FZRAB0658FZRAEMM $=
200912150653 METAR KBLI 150653Z AUTO 01008KT M01/M02 A2969 RMK AO2 FZDZE33FZRAB33FZRAEMM SLP063 P0005 T10111022 RVRNO $=
200912150639 SPECI KBLI 150639Z AUTO 02009KT 6SM -FZRA BR OVC030 M01/M02 A2969 RMK AO2 FZDZE33FZRAB33 P0004=
200912150639 SPECI KBLI 150639Z AUTO 02009KT 6SM -FZRA BR OVC030 M01/M02 A2969 RMK AO2 FZDZE33FZRAB33 P0004=
200912150600 METAR KBLI NIL=
200912150553 METAR KBLI 150553Z 03011G19KT 6SM -FZDZ BR OVC035 M02/M03 A2970 RMK AO2 SLP067 P0004 60011 T10171028 11011 21022 56049=
200912150453 METAR KBLI 150453Z 02013KT 8SM -FZDZ OVC032 M02/M03 A2973 RMK AO2 SLP079 P0002 T10171028=
200912150353 METAR KBLI 150353Z 02012G18KT 10SM -FZDZ OVC031 M02/M04 A2979 RMK AO2 SLP098 P0003 T10171044=
200912150253 METAR KBLI 150253Z 02011KT 7SM -FZDZ OVC026 M02/M04 A2985 RMK AO2 FZDZB0155SNE0155 SLP116 P0002 60002 T10221044 58031=
200912150200 SPECI KBLI 150200Z 02010KT 8SM -FZDZ BKN024 OVC029 M02/M06 A2988 RMK AO2 FZDZB0155SNE0155 PRESFR P0001=
200912150200 SPECI KBLI 150200Z 02010KT 8SM -FZDZ BKN024 OVC029 M02/M06 A2988 RMK AO2 FZDZB0155SNE0155 PRESFR P0001=
200912150153 METAR KBLI 150153Z 02010KT 8SM -SN BKN024 OVC029 M02/M07 A2990 RMK AO2 UPE10SNB10 SLP133 P0000 T10221067=
200912150111 SPECI KBLI 150111Z 02009KT 8SM -SN OVC028 M02/M07 A2993 RMK AO2 UPE10SNB10 P0000=
200912150111 SPECI KBLI 150111Z 02009KT 8SM -SN OVC028 M02/M07 A2993 RMK AO2 UPE10SNB10 P0000=
200912150053 METAR KBLI 150053Z 02009KT 9SM UP OVC030 M02/M08 A2993 RMK AO2 UPB44 SLP146 P0000 T10171083=
200912150009 SPECI KBLI 150009Z 03009KT 10SM BKN027 OVC032 M02/M09 A2993 RMK AO2=
200912150009 SPECI KBLI 150009Z 03009KT 10SM BKN027 OVC032 M02/M09 A2993 RMK AO2=
200912142353 METAR KBLI 142353Z 03012KT 10SM OVC032 M02/M09 A2994 RMK AO2 SLP147 T10171094 11011 21022 58024=
200912142253 METAR KBLI 142253Z 02012G18KT 10SM BKN034 OVC060 M02/M09 A2997 RMK AO2 SLP157 T10171094=
200912142153 METAR KBLI 142153Z 02009KT 10SM OVC060 M02/M09 A2999 RMK AO2 SLP166 T10171094=
200912142053 METAR KBLI 142053Z 02011G20KT 10SM OVC065 M02/M09 A3001 RMK AO2 SLP172 T10171094 58021=
200912141953 METAR KBLI 141953Z 03009KT 10SM OVC060 M02/M10 A3004 RMK AO2 SLP181 T10171100=
200912141853 METAR KBLI 141853Z 02011KT 10SM OVC060 M02/M10 A3006 RMK AO2 SLP191 T10221100=
200912141753 METAR KBLI 141753Z 02010KT 10SM SCT016 BKN055 OVC070 M02/M10 A3007 RMK AO2 SLP192 T10221100 11022 21028 51013=
200912141653 METAR KBLI 141653Z 03008KT 10SM OVC016 M03/M10 A3007 RMK AO2 SLP192 T10281100=
200912141553 METAR KBLI 141553Z 01008KT 10SM OVC014 M03/M10 A3005 RMK AO2 SLP185 T10281100=
200912141453 METAR KBLI 141453Z 03009KT 10SM OVC011 M03/M10 A3003 RMK AO2 SLP179 T10281100 50003=
200912141353 METAR KBLI 141353Z AUTO 03010KT 10SM OVC011 M02/M10 A3003 RMK AO2 SLP180 T10221100=
200912141253 METAR KBLI 141253Z AUTO 03011KT 10SM OVC013 M02/M09 A3002 RMK AO2 SLP176 T10221094=
200912141232 SPECI KBLI 141232Z AUTO 02011KT 10SM OVC013 M02/M09 A3003 RMK AO2=
200912141232 SPECI KBLI 141232Z AUTO 02011KT 10SM OVC013 M02/M09 A3003 RMK AO2=
200912141153 METAR KBLI 141153Z AUTO 02011G17KT 10SM OVC017 M02/M09 A3002 RMK AO2 SLP176 70003 T10221094 11017 21028 51014=
200912141053 METAR KBLI 141053Z AUTO 02011KT 10SM BKN015 OVC021 M03/M09 A3001 RMK AO2 SLP174 T10281089=
200912141010 SPECI KBLI 141010Z AUTO 02012KT 10SM BKN013 M03/M08 A3000 RMK AO2=
200912141010 SPECI KBLI 141010Z AUTO 02012KT 10SM BKN013 M03/M08 A3000 RMK AO2=
200912140953 METAR KBLI 140953Z AUTO 02009KT 10SM OVC015 M02/M08 A3000 RMK AO2 SLP168 T10221083=
200912140913 SPECI KBLI 140913Z AUTO 03009G17KT 10SM OVC015 M02/M08 A2999 RMK AO2=
200912140913 SPECI KBLI 140913Z AUTO 03009G17KT 10SM OVC015 M02/M08 A2999 RMK AO2=
200912140853 METAR KBLI 140853Z AUTO 02010KT 10SM OVC013 M02/M07 A2998 RMK AO2 SLP162 T10221072 53019=
200912140753 METAR KBLI 140753Z AUTO 02009KT 10SM OVC011 M02/M06 A2996 RMK AO2 SLP155 T10171061 400221056=
200912140653 METAR KBLI 140653Z AUTO 02005KT 10SM OVC011 M02/M05 A2994 RMK AO2 SLP150 T10171050=
200912140553 METAR KBLI 140553Z 02006KT 10SM OVC011 M02/M04 A2992 RMK AO2 SLP143 60000 T10171044 10022 21022 50014=
200912140550 SPECI KBLI 140550Z 02005KT 10SM OVC011 M02/M04 A2992 RMK AO2=
200912140550 SPECI KBLI 140550Z 02005KT 10SM OVC011 M02/M04 A2992 RMK AO2=
200912140453 METAR KBLI 140453Z 02005KT 10SM OVC009 M02/M03 A2990 RMK AO2 SNE12 SLP137 P0000 T10221033=
200912140431 SPECI KBLI 140431Z 01005KT 10SM BKN009 OVC012 M02/M03 A2990 RMK AO2 SNE12 CIG 008V011 P0000=
200912140431 SPECI KBLI 140431Z 01005KT 10SM BKN009 OVC012 M02/M03 A2990 RMK AO2 SNE12 CIG 008V011 P0000=
200912140353 METAR KBLI 140353Z 02004KT 5SM -SN BR OVC013 M02/M03 A2988 RMK AO2 SNB44 SLP130 P0000 T10171028=
200912140307 SPECI KBLI 140307Z 01006KT 5SM BR BKN015 OVC070 M02/M02 A2987 RMK AO2=
200912140307 SPECI KBLI 140307Z 01006KT 5SM BR BKN015 OVC070 M02/M02 A2987 RMK AO2=
200912140300 SPECI KBLI 140300Z 35005KT 5SM BR SCT015 OVC070 M01/M02 A2987 RMK AO2=
200912140300 SPECI KBLI 140300Z 35005KT 5SM BR SCT015 OVC070 M01/M02 A2987 RMK AO2=
200912140253 METAR KBLI 140253Z 35004KT 6SM BR BKN011 BKN019 OVC065 M01/M02 A2987 RMK AO2 SLP125 T10111022 51016=
200912140232 SPECI KBLI 140232Z 00000KT 6SM BR BKN011 BKN019 OVC065 M01/M02 A2986 RMK AO2=
200912140232 SPECI KBLI 140232Z 00000KT 6SM BR BKN011 BKN019 OVC065 M01/M02 A2986 RMK AO2=
200912140225 SPECI KBLI 140225Z 00000KT 6SM BR SCT011 SCT019 OVC065 M01/M02 A2986 RMK AO2=
200912140225 SPECI KBLI 140225Z 00000KT 6SM BR SCT011 SCT019 OVC065 M01/M02 A2986 RMK AO2=
200912140204 SPECI KBLI 140204Z 03005KT 7SM OVC011 M01/M02 A2986 RMK AO2=
200912140204 SPECI KBLI 140204Z 03005KT 7SM OVC011 M01/M02 A2986 RMK AO2=
200912140153 METAR KBLI 140153Z 35004KT 7SM OVC009 M01/M02 A2986 RMK AO2 SLP121 T10061017=
200912140127 SPECI KBLI 140127Z 07004KT 9SM OVC009 00/M01 A2985 RMK AO2=
200912140127 SPECI KBLI 140127Z 07004KT 9SM OVC009 00/M01 A2985 RMK AO2=
200912140100 SPECI KBLI 140100Z 15003KT 10SM OVC014 02/M01 A2984 RMK AO2=
200912140100 SPECI KBLI 140100Z 15003KT 10SM OVC014 02/M01 A2984 RMK AO2=
200912140053 METAR KBLI 140053Z 13004KT 6SM BR BKN021 BKN038 OVC080 02/M01 A2984 RMK AO2 SLP115 T00171006=
200912132353 METAR KBLI 132353Z 17009G18KT 6SM HZ BKN021 BKN038 OVC080 02/M01 A2982 RMK AO2 SLP108 60003 T00171011 10022 21011 53009=
200912132301 SPECI KBLI 132301Z 16012G17KT 10SM BKN021 OVC030 02/M01 A2981 RMK AO2=
200912132301 SPECI KBLI 132301Z 16012G17KT 10SM BKN021 OVC030 02/M01 A2981 RMK AO2=
200912132253 METAR KBLI 132253Z 16011KT 10SM SCT021 OVC030 02/M01 A2981 RMK AO2 SLP104 T00221011=
200912132241 SPECI KBLI 132241Z 16012G15KT 10SM FEW021 BKN028 OVC033 02/M01 A2980 RMK AO2=
200912132241 SPECI KBLI 132241Z 16012G15KT 10SM FEW021 BKN028 OVC033 02/M01 A2980 RMK AO2=
200912132153 METAR KBLI 132153Z 00000KT 5SM BR SCT020 OVC033 M01/M02 A2979 RMK AO2 SNE15 SLP099 P0000 T10061017=
200912132149 SPECI KBLI 132149Z 00000KT 5SM BR SCT020 OVC033 M01/M02 A2979 RMK AO2 SNE15 P0000=
200912132149 SPECI KBLI 132149Z 00000KT 5SM BR SCT020 OVC033 M01/M02 A2979 RMK AO2 SNE15 P0000=
200912132053 METAR KBLI 132053Z 00000KT 3SM -SN BR OVC020 M01/M02 A2980 RMK AO2 SLP100 P0002 60003 T10061017 58002=
200912132035 SPECI KBLI 132035Z 00000KT 2 1/2SM -SN BR SCT018 BKN023 OVC036 M01/M02 A2980 RMK AO2 P0001=
200912132035 SPECI KBLI 132035Z 00000KT 2 1/2SM -SN BR SCT018 BKN023 OVC036 M01/M02 A2980 RMK AO2 P0001=
200912132012 SPECI KBLI 132012Z 35004KT 2SM -SN BR FEW016 OVC034 00/M01 A2980 RMK AO2 P0000=
200912132012 SPECI KBLI 132012Z 35004KT 2SM -SN BR FEW016 OVC034 00/M01 A2980 RMK AO2 P0000=
200912132004 SPECI KBLI 132004Z 11003KT 1 1/2SM -SN BR SCT016 OVC034 01/M01 A2980 RMK AO2 P0000=
200912132004 SPECI KBLI 132004Z 11003KT 1 1/2SM -SN BR SCT016 OVC034 01/M01 A2980 RMK AO2 P0000=
200912131953 METAR KBLI 131953Z 09003KT 2SM -SN BR BKN014 BKN029 OVC034 01/M01 A2980 RMK AO2 SLP101 P0001 T00061006=
200912131945 SPECI KBLI 131945Z 00000KT 1 3/4SM -SN BR BKN014 OVC030 01/M01 A2980 RMK AO2 P0001=
200912131945 SPECI KBLI 131945Z 00000KT 1 3/4SM -SN BR BKN014 OVC030 01/M01 A2980 RMK AO2 P0001=
200912131935 SPECI KBLI 131935Z 13003KT 1 3/4SM -SN BR SCT008 OVC015 01/M01 A2980 RMK AO2 P0001=
200912131935 SPECI KBLI 131935Z 13003KT 1 3/4SM -SN BR SCT008 OVC015 01/M01 A2980 RMK AO2 P0001=
200912131906 SPECI KBLI 131906Z 13003KT 1SM -SN BR BKN008 OVC016 01/M01 A2980 RMK AO2 P0000 RVRNO=
200912131906 SPECI KBLI 131906Z 13003KT 1SM -SN BR BKN008 OVC016 01/M01 A2980 RMK AO2 P0000 RVRNO=
200912131857 SPECI KBLI 131857Z 14004KT 3/4SM -SN BR BKN010 BKN016 OVC041 01/M01 A2980 RMK AO2 P0000 RVRNO=
200912131857 SPECI KBLI 131857Z 14004KT 3/4SM -SN BR BKN010 BKN016 OVC041 01/M01 A2980 RMK AO2 P0000 RVRNO=
200912131853 METAR KBLI 131853Z 14005KT 1SM -SN BR SCT010 BKN016 OVC043 01/M01 A2980 RMK AO2 SNB07 SLP102 P0000 T00061006 RVRNO=
200912131850 SPECI KBLI 131850Z 14006KT 3/4SM -SN BR FEW010 BKN026 OVC043 01/M01 A2980 RMK AO2 SNB07 P0000 RVRNO=
200912131850 SPECI KBLI 131850Z 14006KT 3/4SM -SN BR FEW010 BKN026 OVC043 01/M01 A2980 RMK AO2 SNB07 P0000 RVRNO=
200912131842 SPECI KBLI 131842Z 15006KT 1/2SM SN FG SCT015 BKN026 OVC043 01/M01 A2980 RMK AO2 SNB07 P0000 RVRNO=
200912131842 SPECI KBLI 131842Z 15006KT 1/2SM SN FG SCT015 BKN026 OVC043 01/M01 A2980 RMK AO2 SNB07 P0000 RVRNO=
200912131826 SPECI KBLI 131826Z 15006KT 1 1/4SM -SN BR FEW025 SCT045 OVC060 01/M01 A2980 RMK AO2 SNB07 P0000=
200912131826 SPECI KBLI 131826Z 15006KT 1 1/4SM -SN BR FEW025 SCT045 OVC060 01/M01 A2980 RMK AO2 SNB07 P0000=
200912131810 SPECI KBLI 131810Z 14009KT 3SM -SN FEW020 BKN055 OVC070 01/M03 A2979 RMK AO2 SNB07 P0000=
200912131810 SPECI KBLI 131810Z 14009KT 3SM -SN FEW020 BKN055 OVC070 01/M03 A2979 RMK AO2 SNB07 P0000=
200912131753 METAR KBLI 131753Z 00000KT 7SM BKN041 BKN050 OVC065 M01/M02 A2979 RMK AO2 SLP098 T10111022 11011 21056 53014=
200912131653 METAR KBLI 131653Z 00000KT 7SM OVC070 M03/M05 A2977 RMK AO2 SLP091 T10331050=
200912131553 METAR KBLI 131553Z 00000KT 9SM OVC065 M04/M06 A2976 RMK AO2 SLP090 T10441056=
200912131453 METAR KBLI 131453Z 00000KT 8SM OVC060 M04/M06 A2975 RMK AO2 SLP084 T10441061 51008=
200912131353 METAR KBLI 131353Z AUTO 00000KT 9SM OVC060 M04/M06 A2975 RMK AO2 SLP084 T10391056=
200912131253 METAR KBLI 131253Z AUTO 36003KT 9SM CLR M04/M06 A2973 RMK AO2 SLP079 T10391056=
200912131153 METAR KBLI 131153Z AUTO 01003KT 9SM CLR M04/M06 A2973 RMK AO2 SLP077 T10391056 11006 21050 51006=
200912131053 METAR KBLI 131053Z AUTO 36003KT 10SM CLR M04/M07 A2973 RMK AO2 SLP077 T10391067=
200912130953 METAR KBLI 130953Z AUTO 35003KT 9SM OVC070 M02/M06 A2972 RMK AO2 SLP075 T10171056=
200912130853 METAR KBLI 130853Z AUTO 00000KT 10SM OVC070 M01/M05 A2971 RMK AO2 SLP070 T10111050 51001=
200912130753 METAR KBLI 130753Z AUTO 00000KT 10SM OVC065 M01/M04 A2971 RMK AO2 SLP070 T10111044 400111017=
200912130653 METAR KBLI 130653Z AUTO 00000KT 9SM OVC060 M01/M04 A2971 RMK AO2 SLP070 T10111039=
200912130553 METAR KBLI 130553Z 00000KT 9SM OVC060 M01/M04 A2971 RMK AO2 SLP069 T10061039 10006 21011 53000=
200912130453 METAR KBLI 130453Z 00000KT 9SM OVC060 M01/M04 A2970 RMK AO2 SLP068 T10061039=
200912130353 METAR KBLI 130353Z 00000KT 9SM OVC055 M01/M04 A2970 RMK AO2 SLP068 T10111039=
200912130253 METAR KBLI 130253Z 00000KT 9SM OVC055 M01/M04 A2970 RMK AO2 SLP069 T10061039 58005=
200912130153 METAR KBLI 130153Z 00000KT 10SM OVC055 M01/M04 A2971 RMK AO2 SLP071 T10061039=
200912130053 METAR KBLI 130053Z 34003KT 10SM OVC055 01/M04 A2972 RMK AO2 SLP073 T00061044=
200912122353 METAR KBLI 122353Z 00000KT 10SM OVC055 01/M04 A2972 RMK AO2 SLP074 T00061044 10011 20000 56003=
200912122253 METAR KBLI 122253Z 31003KT 10SM OVC050 01/M04 A2972 RMK AO2 SLP074 T00111044=
200912122153 METAR KBLI 122153Z 03005KT 10SM OVC050 01/M04 A2972 RMK AO2 SLP074 T00111044=
200912122053 METAR KBLI 122053Z 02005KT 10SM OVC055 01/M04 A2973 RMK AO2 SLP077 T00111044 58013=
200912121953 METAR KBLI 121953Z 01004KT 10SM OVC050 01/M04 A2975 RMK AO2 SLP083 T00111044=
200912121853 METAR KBLI 121853Z 00000KT 10SM OVC050 01/M04 A2976 RMK AO2 SLP088 T00061039=
200912121753 METAR KBLI 121753Z 01003KT 10SM OVC048 00/M04 A2977 RMK AO2 SLP090 T00001039 10000 21017 50003=
200912121653 METAR KBLI 121653Z 02003KT 10SM OVC050 M01/M04 A2977 RMK AO2 SLP091 T10061039=
200912121553 METAR KBLI 121553Z 36003KT 10SM SCT034 OVC050 M01/M04 A2976 RMK AO2 SLP087 T10111039=
200912121453 METAR KBLI 121453Z 01003KT 10SM OVC055 M01/M04 A2976 RMK AO2 SLP087 T10111044 56010=
200912121353 METAR KBLI 121353Z AUTO 00000KT 10SM OVC055 M01/M04 A2977 RMK AO2 SLP090 T10111044=
200912121253 METAR KBLI 121253Z AUTO 00000KT 10SM OVC055 M01/M04 A2978 RMK AO2 SLP093 T10111044=
200912121153 METAR KBLI 121153Z AUTO 00000KT 10SM FEW029 OVC055 M01/M04 A2979 RMK AO2 SLP098 T10111044 11011 21017 58005=
200912121053 METAR KBLI 121053Z AUTO 00000KT 10SM SCT030 OVC055 M01/M04 A2980 RMK AO2 SLP102 T10111044=
200912120953 METAR KBLI 120953Z AUTO 00000KT 10SM OVC055 M02/M04 A2980 RMK AO2 SLP103 T10171044=
200912120853 METAR KBLI 120853Z AUTO 00000KT 10SM OVC055 M01/M05 A2981 RMK AO2 SLP103 T10111050 58005=
200912120753 METAR KBLI 120753Z AUTO 00000KT 10SM OVC050 M02/M05 A2982 RMK AO2 SLP107 T10171050 400001022=
200912120653 METAR KBLI 120653Z AUTO 00000KT 10SM OVC050 M02/M05 A2982 RMK AO2 SLP109 T10171050=
200912120553 METAR KBLI 120553Z 36003KT 10SM FEW025 OVC050 M02/M05 A2982 RMK AO2 SLP109 T10171050 11006 21022 57006=
200912120453 METAR KBLI 120453Z 00000KT 10SM OVC050 M01/M05 A2983 RMK AO2 SLP110 T10111050=
200912120353 METAR KBLI 120353Z 35004KT 10SM OVC055 M02/M05 A2984 RMK AO2 SLP113 T10171050=
200912120253 METAR KBLI 120253Z 35003KT 10SM OVC049 M01/M05 A2984 RMK AO2 SLP115 T10111050 56012=
200912120153 METAR KBLI 120153Z 01004KT 10SM OVC049 M01/M05 A2985 RMK AO2 SLP117 T10111050=
200912120053 METAR KBLI 120053Z 00000KT 10SM OVC049 M01/M05 A2987 RMK AO2 SLP123 T10111050=
200912112353 METAR KBLI 112353Z 00000KT 10SM OVC047 M01/M05 A2988 RMK AO2 SLP127 T10061050 10000 21017 56008=
200912112253 METAR KBLI 112253Z 00000KT 10SM OVC047 00/M05 A2988 RMK AO2 SLP129 T00001050=
200912112153 METAR KBLI 112153Z 00000KT 10SM SCT024 OVC032 M01/M05 A2989 RMK AO2 SLP131 T10061050=
200912112053 METAR KBLI 112053Z 00000KT 10SM SCT024 OVC032 M01/M06 A2990 RMK AO2 SLP135 T10061056 58014=
200912112030 SPECI KBLI 112030Z 02003KT 10SM BKN026 OVC032 M01/M06 A2990 RMK AO2=
200912112030 SPECI KBLI 112030Z 02003KT 10SM BKN026 OVC032 M01/M06 A2990 RMK AO2=
200912111953 METAR KBLI 111953Z 00000KT 10SM OVC039 M01/M06 A2991 RMK AO2 SLP140 T10111056=
200912111853 METAR KBLI 111853Z 36003KT 10SM OVC041 M01/M06 A2993 RMK AO2 SLP146 T10111061=
200912111753 METAR KBLI 111753Z 00000KT 10SM OVC041 M02/M06 A2994 RMK AO2 SLP150 T10171061 11017 21022 56006=
200912111653 METAR KBLI 111653Z 35003KT 10SM OVC035 M02/M07 A2994 RMK AO2 SLP150 T10221067=
200912111553 METAR KBLI 111553Z 01004KT 10SM OVC038 M02/M07 A2994 RMK AO2 SLP150 T10221067=
200912111453 METAR KBLI 111453Z 01003KT 10SM OVC039 M02/M07 A2996 RMK AO2 SLP156 T10221067 56013=
200912111353 METAR KBLI 111353Z AUTO 03004KT 10SM OVC039 M02/M07 A2997 RMK AO2 SLP157 T10221067=
200912111253 METAR KBLI 111253Z AUTO 35003KT 10SM OVC041 M02/M06 A2998 RMK AO2 SLP162 T10221061=
200912111153 METAR KBLI 111153Z AUTO 34003KT 10SM OVC037 M02/M06 A3000 RMK AO2 SLP168 T10221061 11017 21022 58006=
200912111053 METAR KBLI 111053Z AUTO 00000KT 10SM OVC035 M02/M06 A3001 RMK AO2 SLP171 T10221061=
200912110953 METAR KBLI 110953Z AUTO 00000KT 10SM OVC035 M02/M07 A3001 RMK AO2 SLP174 T10221067=
200912110853 METAR KBLI 110853Z AUTO 35003KT 10SM OVC035 M02/M07 A3002 RMK AO2 SLP174 T10221067 56007=
200912110753 METAR KBLI 110753Z AUTO 01006KT 10SM OVC037 M02/M07 A3002 RMK AO2 SLP177 T10221067 410171100=
200912110653 METAR KBLI 110653Z AUTO 01003KT 10SM OVC035 M02/M06 A3003 RMK AO2 SLP180 T10221061=
200912110553 METAR KBLI 110553Z 02003KT 10SM OVC037 M02/M06 A3004 RMK AO2 SLP182 T10221061 11017 21022 58010=
200912110453 METAR KBLI 110453Z 35004KT 10SM BKN032 OVC044 M02/M07 A3005 RMK AO2 SLP188 T10221067=
200912110431 SPECI KBLI 110431Z 35003KT 10SM SCT030 OVC044 M02/M07 A3005 RMK AO2=
200912110431 SPECI KBLI 110431Z 35003KT 10SM SCT030 OVC044 M02/M07 A3005 RMK AO2=
200912110353 METAR KBLI 110353Z 00000KT 10SM OVC028 M02/M07 A3006 RMK AO2 SLP190 T10171067=
200912110302 SPECI KBLI 110302Z 01003KT 10SM BKN026 BKN033 OVC048 M02/M07 A3006 RMK AO2=
200912110302 SPECI KBLI 110302Z 01003KT 10SM BKN026 BKN033 OVC048 M02/M07 A3006 RMK AO2=
200912110253 METAR KBLI 110253Z 02003KT 10SM SCT026 BKN033 OVC048 M02/M07 A3007 RMK AO2 SLP193 T10171067 56011=
200912110153 METAR KBLI 110153Z 00000KT 10SM FEW030 OVC048 M02/M07 A3007 RMK AO2 SLP194 T10171067=
200912110134 SPECI KBLI 110134Z 00000KT 10SM BKN030 BKN034 OVC048 M02/M07 A3007 RMK AO2=
200912110134 SPECI KBLI 110134Z 00000KT 10SM BKN030 BKN034 OVC048 M02/M07 A3007 RMK AO2=
200912110117 SPECI KBLI 110117Z AUTO 00000KT 10SM OVC028 M02/M07 A3008 RMK AO2 TSNO=
200912110117 SPECI KBLI 110117Z AUTO 00000KT 10SM OVC028 M02/M07 A3008 RMK AO2 TSNO=
200912110053 METAR KBLI 110053Z AUTO 00000KT 10SM OVC033 M02/M07 A3009 RMK AO2 SLP200 T10171067 TSNO=
200912102353 METAR KBLI 102353Z AUTO 02003KT 10SM OVC032 M02/M07 A3010 RMK AO2 SLP204 T10221067 11017 21050 56008 TSNO=
200912102253 METAR KBLI 102253Z 00000KT 10SM BKN034 OVC043 M02/M07 A3011 RMK AO2 SLP207 T10221067=
200912102153 METAR KBLI 102153Z 00000KT 10SM OVC038 M02/M07 A3011 RMK AO2 SLP208 T10221072=
200912102053 METAR KBLI 102053Z 00000KT 10SM OVC040 M03/M07 A3012 RMK AO2 SLP212 T10281072 58015=
200912101953 METAR KBLI 101953Z 01004KT 10SM OVC038 M03/M07 A3014 RMK AO2 SLP219 T10331072=
200912101853 METAR KBLI 101853Z 31003KT 10SM OVC038 M04/M07 A3017 RMK AO2 SLP226 T10391072=
200912101753 METAR KBLI 101753Z 34003KT 10SM OVC038 M05/M08 A3017 RMK AO2 SLP227 T10501078 11050 21100 53001=
200912101653 METAR KBLI 101653Z 35005KT 10SM BKN036 M06/M08 A3017 RMK AO2 SLP226 T10561078=
200912101553 METAR KBLI 101553Z 00000KT 10SM OVC034 M07/M09 A3016 RMK AO2 SLP226 T10721094=
200912101453 METAR KBLI 101453Z 00000KT 10SM OVC032 M08/M10 A3016 RMK AO2 SLP227 T10781100 58010=
200912101353 METAR KBLI 101353Z AUTO 34003KT 10SM CLR M10/M12 A3017 RMK AO2 SLP230 T11001117=
200912101253 METAR KBLI 101253Z AUTO 00000KT 10SM CLR M09/M11 A3018 RMK AO2 SLP233 T10941111=
200912101153 METAR KBLI 101153Z AUTO 00000KT 10SM CLR M09/M11 A3019 RMK AO2 SLP235 T10941111 11072 21100 58011=
200912101053 METAR KBLI 101053Z AUTO 00000KT 10SM CLR M09/M11 A3021 RMK AO2 SLP242 T10891111=
200912100953 METAR KBLI 100953Z AUTO 00000KT 9SM CLR M09/M11 A3021 RMK AO2 SLP243 T10941111=
200912100853 METAR KBLI 100853Z AUTO 00000KT 10SM CLR M08/M11 A3022 RMK AO2 SLP246 T10831111 58009=
200912100753 METAR KBLI 100753Z AUTO 00000KT 10SM CLR M09/M11 A3024 RMK AO2 SLP252 T10891111 400061089=
200912100653 METAR KBLI 100653Z AUTO 00000KT 9SM CLR M08/M11 A3025 RMK AO2 SLP255 T10831106=
200912100553 METAR KBLI 100553Z 00000KT 10SM CLR M08/M11 A3025 RMK AO2 SLP256 T10781106 11017 21078 55004=
200912100453 METAR KBLI 100453Z 00000KT 10SM CLR M07/M11 A3025 RMK AO2 SLP256 T10721106=
200912100353 METAR KBLI 100353Z 00000KT 10SM CLR M07/M09 A3025 RMK AO2 SLP256 T10671094=
200912100253 METAR KBLI 100253Z 00000KT 10SM CLR M06/M10 A3026 RMK AO2 SLP259 T10611100 56006=
200912100153 METAR KBLI 100153Z 00000KT 10SM CLR M06/M09 A3027 RMK AO2 SLP260 T10611094=
200912100053 METAR KBLI 100053Z 00000KT 10SM CLR M06/M10 A3027 RMK AO2 SLP264 T10561100=
200912092353 METAR KBLI 092353Z 00000KT 10SM CLR M02/M11 A3028 RMK AO2 SLP265 T10171111 10006 21033 58006=
200912092253 METAR KBLI 092253Z 01004KT 10SM CLR 01/M11 A3029 RMK AO2 SLP269 T00061111=
200912092153 METAR KBLI 092153Z 00000KT 10SM CLR M01/M12 A3029 RMK AO2 SLP269 T10061122=
200912092053 METAR KBLI 092053Z 20003KT 10SM CLR M01/M11 A3030 RMK AO2 SLP271 T10061111 58008=
200912091953 METAR KBLI 091953Z 00000KT 10SM CLR M01/M12 A3031 RMK AO2 SLP276 T10111122=
200912091853 METAR KBLI 091853Z 00000KT 10SM CLR M02/M10 A3033 RMK AO2 SLP281 T10171100=
200912091753 METAR KBLI 091753Z 03004KT 10SM SCT046 M03/M09 A3032 RMK AO2 SLP279 T10331089 11033 21089 50005=
200912091653 METAR KBLI 091653Z 00000KT 10SM OVC048 M05/M09 A3033 RMK AO2 SLP282 T10501094=
200912091553 METAR KBLI 091553Z 01003KT 10SM OVC048 M06/M10 A3032 RMK AO2 SLP280 T10561100=
200912091453 METAR KBLI 091453Z 00000KT 10SM OVC050 M06/M09 A3031 RMK AO2 SLP275 T10611094 52001=
200912091353 METAR KBLI 091353Z AUTO 00000KT 10SM OVC050 M07/M10 A3031 RMK AO2 SLP275 T10671100=
200912091253 METAR KBLI 091253Z AUTO 00000KT 10SM BKN050 M08/M12 A3030 RMK AO2 SLP275 T10831117=
200912091153 METAR KBLI 091153Z AUTO 00000KT 10SM CLR M08/M12 A3031 RMK AO2 SLP274 T10831122 11050 21083 50004=
200912091053 METAR KBLI 091053Z AUTO 00000KT 10SM CLR M07/M12 A3031 RMK AO2 SLP275 T10671117=
200912090953 METAR KBLI 090953Z AUTO 00000KT 10SM CLR M07/M10 A3030 RMK AO2 SLP272 T10671100=
200912090853 METAR KBLI 090853Z AUTO 00000KT 10SM CLR M07/M10 A3029 RMK AO2 SLP270 T10671100 50001=
200912090753 METAR KBLI 090753Z AUTO 00000KT 10SM CLR M07/M11 A3030 RMK AO2 SLP270 T10671106 400061083=
200912090653 METAR KBLI 090653Z AUTO 00000KT 10SM CLR M07/M10 A3030 RMK AO2 SLP272 T10721100=
200912090553 METAR KBLI 090553Z 14003KT 10SM CLR M05/M09 A3029 RMK AO2 SLP268 T10501094 11017 21078 53000=
200912090453 METAR KBLI 090453Z 00000KT 10SM CLR M06/M11 A3028 RMK AO2 SLP266 T10611106=
200912090353 METAR KBLI 090353Z 00000KT 10SM CLR M07/M12 A3029 RMK AO2 SLP269 T10721117=
200912090253 METAR KBLI 090253Z 00000KT 10SM CLR M06/M12 A3029 RMK AO2 SLP269 T10611117 51006=
200912090153 METAR KBLI 090153Z 00000KT 10SM CLR M06/M11 A3029 RMK AO2 SLP268 T10611106=
200912090053 METAR KBLI 090053Z 00000KT 10SM CLR M05/M11 A3028 RMK AO2 SLP266 T10501111=
200912082353 METAR KBLI 082353Z 00000KT 10SM CLR M02/M13 A3027 RMK AO2 SLP262 T10171128 10006 21028 53005=
200912082253 METAR KBLI 082253Z 00000KT 10SM CLR M01/M13 A3027 RMK AO2 SLP260 T10061133=
200912082153 METAR KBLI 082153Z 05006KT 10SM CLR 01/M16 A3026 RMK AO2 SLP257 T00061161=
200912082053 METAR KBLI 082053Z 06007KT 10SM CLR M01/M17 A3026 RMK AO2 SLP257 T10061167 50000=
200912081953 METAR KBLI 081953Z 06006KT 10SM CLR M01/M16 A3026 RMK AO2 SLP258 T10111156=
200912081853 METAR KBLI 081853Z 06006KT 10SM CLR M02/M15 A3026 RMK AO2 SLP258 T10171150=
200912081753 METAR KBLI 081753Z 05010KT 10SM CLR M03/M15 A3026 RMK AO2 SLP257 T10281150 11028 21083 51025=
200912081653 METAR KBLI 081653Z VRB04KT 10SM CLR M04/M15 A3025 RMK AO2 SLP254 T10391150=
200912081553 METAR KBLI 081553Z 05003KT 10SM CLR M07/M14 A3020 RMK AO2 SLP239 T10721144=
200912081453 METAR KBLI 081453Z 00000KT 10SM CLR M08/M13 A3018 RMK AO2 SLP231 T10781133 51015=
200912081353 METAR KBLI 081353Z AUTO 00000KT 10SM CLR M07/M13 A3017 RMK AO2 SLP227 T10721128=
200912081253 METAR KBLI 081253Z AUTO 00000KT 10SM CLR M07/M14 A3015 RMK AO2 SLP223 T10671144=
200912081153 METAR KBLI 081153Z AUTO 01004KT 10SM CLR M07/M16 A3014 RMK AO2 SLP217 T10671156 11033 21078 53012=
200912081053 METAR KBLI 081053Z AUTO 00000KT 10SM CLR M07/M17 A3013 RMK AO2 SLP213 T10721167=
200912080953 METAR KBLI 080953Z AUTO 03004KT 10SM CLR M07/M18 A3011 RMK AO2 SLP207 T10671178=
200912080853 METAR KBLI 080853Z AUTO 35003KT 10SM CLR M06/M19 A3010 RMK AO2 SLP205 T10611189 53006=
200912080753 METAR KBLI 080753Z AUTO 36004KT 10SM CLR M05/M21 A3009 RMK AO2 SLP202 T10501206 410061050=
200912080653 METAR KBLI 080653Z AUTO 04007KT 10SM FEW110 M03/M21 A3009 RMK AO2 SLP199 T10331206=
200912080553 METAR KBLI 080553Z 07006KT 10SM SCT120 M03/M21 A3008 RMK AO2 SLP198 T10331211 11017 21050 53004=
200912080453 METAR KBLI 080453Z 05006KT 10SM CLR M04/M21 A3007 RMK AO2 SLP194 T10391206=
200912080353 METAR KBLI 080353Z 03011G18KT 10SM CLR M03/M21 A3007 RMK AO2 SLP193 T10331206=
200912080253 METAR KBLI 080253Z 05007G14KT 030V090 10SM CLR M03/M20 A3007 RMK AO2 SLP194 T10331200 58004=
200912080153 METAR KBLI 080153Z 02009KT 10SM CLR M03/M19 A3007 RMK AO2 SLP195 T10331194=
200912080053 METAR KBLI 080053Z 03010KT 10SM CLR M03/M20 A3008 RMK AO2 SLP199 T10281200=
200912072353 METAR KBLI 072353Z 04011G19KT 10SM CLR M02/M21 A3008 RMK AO2 SLP196 T10171211 11006 21028 56011=
200912072253 METAR KBLI 072253Z 03015G23KT 10SM CLR M01/M21 A3009 RMK AO2 PK WND 04026/2202 SLP199 T10111206=
200912072153 METAR KBLI 072153Z 04017G25KT 10SM CLR M01/M20 A3010 RMK AO2 PK WND 04026/2123 SLP203 T10061200=
200912072053 METAR KBLI 072053Z 03018G27KT 10SM CLR M01/M20 A3011 RMK AO2 PK WND 03027/2050 SLP207 T10111200 58013=
200912071953 METAR KBLI 071953Z 01011G23KT 10SM CLR M01/M19 A3013 RMK AO2 SLP214 T10111194=
200912071853 METAR KBLI 071853Z 04013G21KT 10SM CLR M02/M19 A3015 RMK AO2 SLP219 T10171194=
200912071753 METAR KBLI 071753Z 03015G23KT 10SM CLR M03/M19 A3015 RMK AO2 PK WND 04030/1737 SLP220 T10281189 11028 21044 56001=
200912071653 METAR KBLI 071653Z 02013G24KT 10SM CLR M04/M19 A3015 RMK AO2 PK WND 03029/1620 SLP221 T10391194=
200912071553 METAR KBLI 071553Z 03014G26KT 10SM CLR M04/M19 A3015 RMK AO2 PK WND 02030/1522 SLP222 T10441189=
200912071453 METAR KBLI 071453Z 02019G29KT 10SM CLR M04/M19 A3015 RMK AO2 PK WND 04032/1402 SLP222 T10441194 58002=
200912071353 METAR KBLI 071353Z AUTO 02020G27KT 10SM CLR M04/M19 A3016 RMK AO2 PK WND 02030/1335 SLP223 T10391194=
200912071253 METAR KBLI 071253Z AUTO 02017G23KT 10SM CLR M04/M19 A3016 RMK AO2 PK WND 03026/1206 SLP225 T10391189=
200912071153 METAR KBLI 071153Z AUTO 03016G26KT 10SM CLR M03/M19 A3016 RMK AO2 PK WND 04027/1119 SLP224 T10331189 11017 21033 53000=
200912071053 METAR KBLI 071053Z AUTO 03018G33KT 10SM CLR M03/M19 A3016 RMK AO2 PK WND 02035/1021 SLP223 T10331189=
200912070953 METAR KBLI 070953Z AUTO 03020G29KT 10SM CLR M03/M19 A3016 RMK AO2 PK WND 03031/0931 SLP223 T10281189=
200912070853 METAR KBLI 070853Z AUTO 03017G28KT 10SM CLR M02/M18 A3016 RMK AO2 PK WND 02030/0837 SLP223 T10221183 58003=
200912070753 METAR KBLI 070753Z AUTO 03016G32KT 10SM CLR M02/M18 A3017 RMK AO2 PK WND 02033/0711 SLP226 T10221183 400221022=
200912070653 METAR KBLI 070653Z AUTO 04017G28KT 10SM CLR M02/M18 A3017 RMK AO2 PK WND 03032/0643 SLP227 T10221183=
200912070553 METAR KBLI 070553Z 03021G31KT 10SM CLR M02/M18 A3017 RMK AO2 PK WND 02032/0517 SLP226 T10171183 10011 21017 58002=
200912070453 METAR KBLI 070453Z 02016G28KT 10SM CLR M01/M18 A3018 RMK AO2 PK WND 03034/0406 SLP230 T10111178=
200912070353 METAR KBLI 070353Z 03023G30KT 10SM CLR M01/M18 A3017 RMK AO2 PK WND 02035/0318 SLP228 T10111178=
200912070253 METAR KBLI 070253Z 03016G30KT 10SM CLR M01/M17 A3018 RMK AO2 PK WND 02034/0200 SLP228 T10061172 58001=
200912070153 METAR KBLI 070153Z 03018G28KT 10SM CLR 00/M17 A3018 RMK AO2 PK WND 03035/0131 SLP230 T00001172=
200912070053 METAR KBLI 070053Z 02016G29KT 10SM CLR 00/M17 A3017 RMK AO2 PK WND 01031/0029 SLP228 T00001167=
200912062353 METAR KBLI 062353Z 03017G27KT 10SM CLR 01/M16 A3018 RMK AO2 PK WND 03032/2307 SLP229 T00111161 10022 20011 55007=
200912062253 METAR KBLI 062253Z 03022G30KT 10SM CLR 02/M17 A3018 RMK AO2 PK WND 02036/2222 SLP228 T00171167=
200912062153 METAR KBLI 062153Z 03024G32KT 10SM CLR 02/M17 A3018 RMK AO2 PK WND 04039/2123 SLP228 T00221167=
200912062053 METAR KBLI 062053Z 03021G35KT 10SM CLR 02/M16 A3020 RMK AO2 PK WND 03039/2043 SLP235 T00221161 58015=
200912061953 METAR KBLI 061953Z 03024G35KT 10SM CLR 02/M16 A3022 RMK AO2 PK WND 02039/1926 SLP242 T00171161=
200912061853 METAR KBLI 061853Z 02024G37KT 10SM CLR 02/M16 A3024 RMK AO2 PK WND 02039/1841 SLP248 T00171156=
200912061753 METAR KBLI 061753Z 03025G43KT 10SM CLR 01/M16 A3024 RMK AO2 PK WND 03043/1749 SLP250 T00111156 10011 20000 50001=
200912061653 METAR KBLI 061653Z 02023G34KT 10SM CLR 01/M14 A3025 RMK AO2 PK WND 03041/1634 SLP251 T00061144=
200912061553 METAR KBLI 061553Z 03025G33KT 10SM CLR 01/M14 A3024 RMK AO2 PK WND 02040/1518 SLP250 T00061144=
200912061453 METAR KBLI 061453Z 02021G33KT 10SM CLR 01/M14 A3024 RMK AO2 PK WND 03034/1407 SLP249 T00061139 58007=
200912061353 METAR KBLI 061353Z AUTO 03014G26KT 10SM CLR 01/M13 A3025 RMK AO2 PK WND 01037/1301 SLP254 T00061133=
200912061253 METAR KBLI 061253Z AUTO 02026G37KT 10SM CLR 01/M13 A3025 RMK AO2 PK WND 02037/1252 SLP254 T00111128=
200912061153 METAR KBLI 061153Z AUTO 02018G30KT 10SM CLR 01/M12 A3026 RMK AO2 PK WND 04038/1136 SLP257 T00111122 10028 20011 50002=
200912061053 METAR KBLI 061053Z AUTO 03018G39KT 10SM CLR 02/M12 A3027 RMK AO2 PK WND 02039/1050 SLP259 T00171117=
200912060953 METAR KBLI 060953Z AUTO 03021G32KT 10SM CLR 02/M11 A3026 RMK AO2 PK WND 03040/0937 SLP258 T00171111=
200912060853 METAR KBLI 060853Z AUTO 03024G36KT 10SM OVC100 02/M11 A3026 RMK AO2 PK WND 01037/0834 SLP255 T00221111 58002=
200912060753 METAR KBLI 060753Z AUTO 03021G32KT 10SM OVC110 02/M11 A3026 RMK AO2 PK WND 03036/0738 SLP257 T00221106 400611028=
200912060653 METAR KBLI 060653Z AUTO 03022G33KT 10SM OVC090 02/M11 A3026 RMK AO2 PK WND 04036/0613 SLP255 T00221106=
200912060553 METAR KBLI 060553Z 03019G35KT 10SM BKN060 OVC075 02/M11 A3026 RMK AO2 PK WND 01036/0536 SLP257 T00221106 10039 20022 53003=
200912060453 METAR KBLI 060453Z 03024G32KT 10SM OVC100 02/M11 A3025 RMK AO2 PK WND 03033/0430 SLP252 T00221111=
200912060353 METAR KBLI 060353Z 03022G36KT 10SM FEW090 02/M12 A3025 RMK AO2 PK WND 03036/0347 SLP251 T00221117=
200912060253 METAR KBLI 060253Z 03019G29KT 10SM CLR 02/M12 A3025 RMK AO2 PK WND 02035/0236 SLP253 T00221117 56014=
200912060153 METAR KBLI 060153Z 02019G28KT 10SM CLR 03/M12 A3026 RMK AO2 PK WND 02034/0111 SLP256 T00281122=
200912060053 METAR KBLI 060053Z 02020G30KT 10SM CLR 03/M12 A3027 RMK AO2 PK WND 01030/0051 SLP258 T00331122=
200912052353 METAR KBLI 052353Z 01018G30KT 10SM CLR 04/M12 A3029 RMK AO2 PK WND 02030/2346 SLP268 T00391117 10061 20039 56017=
200912052253 METAR KBLI 052253Z 02015G25KT 10SM CLR 05/M12 A3031 RMK AO2 PK WND 03029/2221 SLP271 T00501117=
200912052153 METAR KBLI 052153Z 04016G29KT 10SM CLR 06/M13 A3032 RMK AO2 PK WND 03030/2141 SLP277 T00561128=
200912052053 METAR KBLI 052053Z 03019G26KT 10SM CLR 06/M11 A3035 RMK AO2 PK WND 01031/2027 SLP285 T00561111 58015=
200912051953 METAR KBLI 051953Z 02018G26KT 10SM CLR 06/M11 A3036 RMK AO2 PK WND 01028/1904 SLP289 T00561106=
200912051853 METAR KBLI 051853Z 02016G26KT 10SM CLR 05/M11 A3039 RMK AO2 PK WND 02029/1827 SLP300 T00501106=
200912051753 METAR KBLI 051753Z 02017G29KT 10SM CLR 04/M11 A3039 RMK AO2 PK WND 03031/1743 SLP300 T00441106 10044 21011 50001=
200912051653 METAR KBLI 051653Z 02016G25KT 10SM CLR 03/M09 A3040 RMK AO2 SLP303 T00331094=
200912051553 METAR KBLI 051553Z 03014KT 10SM CLR 02/M08 A3040 RMK AO2 SLP303 T00221083=
200912051453 METAR KBLI 051453Z 03015G22KT 10SM CLR 03/M08 A3039 RMK AO2 SLP300 T00281078 51006=
200912051353 METAR KBLI 051353Z AUTO 01010KT 10SM CLR 01/M06 A3038 RMK AO2 SLP297 T00061061=
200912051253 METAR KBLI 051253Z AUTO 35007KT 10SM CLR 01/M06 A3038 RMK AO2 SLP298 T00061061=
200912051153 METAR KBLI 051153Z AUTO 36008KT 10SM CLR 01/M06 A3037 RMK AO2 SLP293 T00061056 10006 21028 51012=
200912051053 METAR KBLI 051053Z 35007KT 10SM CLR M01/M06 A3037 RMK AO2 SLP292 T10061056=
200912050953 METAR KBLI 050953Z 34003KT 10SM CLR M02/M04 A3034 RMK AO2 SLP284 T10171044=
200912050853 METAR KBLI 050853Z 34004KT 10SM CLR M01/M04 A3033 RMK AO2 SLP281 T10061039 50006=
200912050753 METAR KBLI 050753Z 36004KT 10SM CLR M01/M04 A3033 RMK AO2 SLP281 T10061039 400611017=
200912050653 METAR KBLI 050653Z 34004KT 10SM CLR M01/M03 A3033 RMK AO2 SLP279 T10061033=
200912050553 METAR KBLI 050553Z 34004KT 8SM CLR M01/M03 A3031 RMK AO2 SLP275 T10111028 10039 21017 53019=
200912050453 METAR KBLI 050453Z 33004KT 9SM CLR 00/M02 A3029 RMK AO2 SLP268 T00001022=
200912050353 METAR KBLI 050353Z 35005KT 9SM CLR 01/M02 A3028 RMK AO2 SLP262 T00061017=
200912050253 METAR KBLI 050253Z 00000KT 6SM BR CLR M01/M02 A3026 RMK AO2 SLP256 T10111022 51007=
200912050153 METAR KBLI 050153Z 00000KT 9SM CLR M01/M02 A3025 RMK AO2 SLP254 T10061017=
200912050053 METAR KBLI 050053Z 31003KT 10SM CLR 00/M02 A3024 RMK AO2 SLP251 T00001017=
200912042353 METAR KBLI 042353Z 33003KT 10SM CLR 04/M01 A3024 RMK AO2 SLP249 T00391006 10061 20022 53010=
200912042253 METAR KBLI 042253Z 33004KT 10SM CLR 06/M01 A3023 RMK AO2 SLP246 T00561006=
200912042153 METAR KBLI 042153Z 34005KT 10SM CLR 06/M01 A3021 RMK AO2 SLP239 T00561006=
200912042053 METAR KBLI 042053Z 36005KT 10SM CLR 06/01 A3021 RMK AO2 SLP238 T00560006 51002=
200912041953 METAR KBLI 041953Z 00000KT 9SM FEW031 04/01 A3021 RMK AO2 SLP238 T00440011=
200912041915 SPECI KBLI 041915Z 00000KT 8SM OVC031 03/01 A3021 RMK AO2=
200912041915 SPECI KBLI 041915Z 00000KT 8SM OVC031 03/01 A3021 RMK AO2=
200912041853 METAR KBLI 041853Z 35005KT 7SM FEW020 BKN027 OVC034 03/01 A3022 RMK AO2 SLP241 T00280006=
200912041753 METAR KBLI 041753Z 35004KT 6SM BR SCT024 BKN043 02/01 A3020 RMK AO2 SLP238 T00220006 10044 20011 53006=
200912041653 METAR KBLI 041653Z 00000KT 10SM FEW024 BKN043 02/00 A3020 RMK AO2 SLP235 T00170000=
200912041553 METAR KBLI 041553Z 23003KT 10SM SCT024 SCT036 03/01 A3019 RMK AO2 SLP231 T00330006=
200912041453 METAR KBLI 041453Z 00000KT 10SM FEW021 BKN027 OVC035 04/01 A3019 RMK AO2 SLP231 T00390011 55010=
200912041433 SPECI KBLI 041433Z AUTO 17003KT 10SM BKN025 OVC030 04/01 A3018 RMK AO2=
200912041433 SPECI KBLI 041433Z AUTO 17003KT 10SM BKN025 OVC030 04/01 A3018 RMK AO2=
200912041426 SPECI KBLI 041426Z AUTO 00000KT 10SM SCT025 OVC030 04/01 A3018 RMK AO2=
200912041426 SPECI KBLI 041426Z AUTO 00000KT 10SM SCT025 OVC030 04/01 A3018 RMK AO2=
200912041353 METAR KBLI 041353Z AUTO 18006KT 10SM SCT023 OVC029 03/01 A3018 RMK AO2 SLP228 T00330011=
200912041334 SPECI KBLI 041334Z AUTO 17004KT 10SM SCT020 BKN027 OVC033 03/01 A3019 RMK AO2=
200912041334 SPECI KBLI 041334Z AUTO 17004KT 10SM SCT020 BKN027 OVC033 03/01 A3019 RMK AO2=
200912041303 SPECI KBLI 041303Z AUTO 16003KT 10SM SCT022 OVC032 03/01 A3019 RMK AO2=
200912041303 SPECI KBLI 041303Z AUTO 16003KT 10SM SCT022 OVC032 03/01 A3019 RMK AO2=
200912041253 METAR KBLI 041253Z AUTO 16004KT 10SM BKN022 BKN027 OVC034 03/01 A3019 RMK AO2 SLP233 T00330011=
200912041153 METAR KBLI 041153Z AUTO 16004KT 10SM BKN022 OVC027 02/01 A3022 RMK AO2 SLP241 T00170006 10028 21017 58005=
200912041053 METAR KBLI 041053Z AUTO 17003KT 10SM BKN016 OVC024 02/00 A3022 RMK AO2 SLP244 T00220000=
200912040953 METAR KBLI 040953Z AUTO 00000KT 8SM OVC023 00/M01 A3023 RMK AO2 SLP245 T00001006=
200912040909 SPECI KBLI 040909Z AUTO 00000KT 8SM BKN025 M01/M02 A3023 RMK AO2=
200912040909 SPECI KBLI 040909Z AUTO 00000KT 8SM BKN025 M01/M02 A3023 RMK AO2=
200912040853 METAR KBLI 040853Z AUTO 00000KT 8SM FEW025 M02/M03 A3023 RMK AO2 SLP246 T10171033 53003=
200912040753 METAR KBLI 040753Z AUTO 00000KT 9SM OVC080 00/M02 A3024 RMK AO2 SLP248 T00001022 400611033=
200912040653 METAR KBLI 040653Z AUTO 00000KT 10SM OVC090 01/M02 A3022 RMK AO2 SLP241 T00061017=
200912040553 METAR KBLI 040553Z 00000KT 10SM OVC100 M02/M03 A3022 RMK AO2 SLP245 T10171028 10039 21022 53010=
200912040453 METAR KBLI 040453Z 00000KT 10SM CLR M01/M03 A3020 RMK AO2 SLP236 T10111033=
200912040353 METAR KBLI 040353Z 00000KT 10SM CLR M01/M03 A3020 RMK AO2 SLP237 T10061028=
200912040300 METAR KBLI NIL=
200912040253 METAR KBLI 040253Z 00000KT 10SM CLR 02/M02 A3019 RMK AO2 SLP234 T00171022 56012=
200912040153 METAR KBLI 040153Z 33005KT 10SM CLR 01/M02 A3020 RMK AO2 SLP236 T00111022=
200912040053 METAR KBLI 040053Z 32003KT 10SM CLR 01/M02 A3021 RMK AO2 SLP239 T00111022=
200912032353 METAR KBLI 032353Z 00000KT 10SM CLR 04/M02 A3023 RMK AO2 SLP247 T00391017 10061 20006 56007=
200912032253 METAR KBLI 032253Z 31004KT 10SM CLR 06/M02 A3025 RMK AO2 SLP251 T00561022=
200912032153 METAR KBLI 032153Z 00000KT 10SM CLR 06/M02 A3023 RMK AO2 SLP247 T00611022=
200912032053 METAR KBLI 032053Z 00000KT 10SM CLR 05/M01 A3025 RMK AO2 SLP254 T00501011 56013=
200912031953 METAR KBLI 031953Z 04004KT 10SM CLR 03/M02 A3026 RMK AO2 SLP256 T00331017=
200912031853 METAR KBLI 031853Z 00000KT 10SM CLR 02/M02 A3026 RMK AO2 SLP258 T00221022=
200912031753 METAR KBLI 031753Z 04004KT 10SM CLR 01/M03 A3029 RMK AO2 SLP266 T00111028 10011 21028 51012=
200912031653 METAR KBLI 031653Z 34003KT 10SM CLR M01/M04 A3028 RMK AO2 SLP265 T10111039=
200912031553 METAR KBLI 031553Z 03003KT 10SM CLR M02/M04 A3026 RMK AO2 SLP258 T10171039=
200912031453 METAR KBLI 031453Z 00000KT 10SM CLR M01/M03 A3025 RMK AO2 SLP254 T10111033 55005=
200912031353 METAR KBLI 031353Z AUTO 01004KT 10SM CLR M02/M04 A3025 RMK AO2 SLP253 T10171044=
200912031253 METAR KBLI 031253Z AUTO 35003KT 10SM CLR M01/M04 A3027 RMK AO2 SLP260 T10111044=
200912031153 METAR KBLI 031153Z AUTO 36003KT 10SM CLR M03/M04 A3027 RMK AO2 SLP260 T10281044 10000 21033 53001=
200912031053 METAR KBLI 031053Z AUTO 35003KT 10SM CLR M02/M04 A3027 RMK AO2 SLP258 T10171039=
200912030953 METAR KBLI 030953Z AUTO 00000KT 10SM CLR M03/M04 A3026 RMK AO2 SLP257 T10281039=
200912030853 METAR KBLI 030853Z AUTO 00000KT 10SM CLR M03/M05 A3026 RMK AO2 SLP257 T10281050 50002=
200912030753 METAR KBLI 030753Z AUTO 00000KT 10SM CLR M02/M04 A3027 RMK AO2 SLP259 T10221044 400671033=
200912030653 METAR KBLI 030653Z AUTO 00000KT 10SM CLR M02/M04 A3026 RMK AO2 SLP257 T10221044=
200912030553 METAR KBLI 030553Z 06003KT 10SM CLR 00/M04 A3026 RMK AO2 SLP255 T00001044 10050 21017 53006=
200912030453 METAR KBLI 030453Z 35003KT 10SM CLR 01/M03 A3025 RMK AO2 SLP253 T00061033=
200912030353 METAR KBLI 030353Z 00000KT 10SM CLR M02/M03 A3024 RMK AO2 SLP250 T10171033=
200912030253 METAR KBLI 030253Z 00000KT 10SM CLR M01/M03 A3024 RMK AO2 SLP250 T10111033 53007=
200912030153 METAR KBLI 030153Z 00000KT 10SM CLR M01/M03 A3023 RMK AO2 SLP245 T10061028=
200912030053 METAR KBLI 030053Z 33003KT 10SM CLR 02/M03 A3022 RMK AO2 SLP244 T00171033=
200912022353 METAR KBLI 022353Z 00000KT 10SM CLR 05/M04 A3022 RMK AO2 SLP242 T00501039 10067 20033 55007=
200912022253 METAR KBLI 022253Z 34005KT 10SM CLR 07/M04 A3021 RMK AO2 SLP240 T00671044=
200912022153 METAR KBLI 022153Z 02007KT 10SM CLR 07/M04 A3022 RMK AO2 SLP243 T00671039=
200912022053 METAR KBLI 022053Z 36007KT 10SM CLR 07/M05 A3024 RMK AO2 SLP248 T00671050 58010=
200912021953 METAR KBLI 021953Z 35008KT 10SM CLR 06/M06 A3025 RMK AO2 SLP252 T00561056=
200912021853 METAR KBLI 021853Z 35009KT 10SM CLR 05/M06 A3026 RMK AO2 SLP257 T00501056=
200912021753 METAR KBLI 021753Z 02008KT 10SM CLR 03/M06 A3027 RMK AO2 SLP259 T00331056 10033 20000 50005=
200912021653 METAR KBLI 021653Z 36008KT 10SM CLR 02/M06 A3027 RMK AO2 SLP261 T00171056=
200912021553 METAR KBLI 021553Z 01007KT 10SM CLR 01/M06 A3026 RMK AO2 SLP256 T00061061=
200912021453 METAR KBLI 021453Z 35007KT 10SM CLR 01/M06 A3025 RMK AO2 SLP254 T00111061 58006=
200912021353 METAR KBLI 021353Z AUTO 36008KT 10SM CLR 01/M06 A3027 RMK AO2 SLP259 T00111056=
200912021253 METAR KBLI 021253Z AUTO 01008KT 10SM CLR 01/M06 A3027 RMK AO2 SLP259 T00061056=
200912021153 METAR KBLI 021153Z AUTO 35005KT 10SM CLR 00/M05 A3027 RMK AO2 SLP260 T00001050 10011 21006 51002=
200912021053 METAR KBLI 021053Z AUTO 01004KT 10SM CLR M01/M05 A3027 RMK AO2 SLP260 T10061050=
200912020953 METAR KBLI 020953Z AUTO 36007KT 10SM CLR 00/M04 A3027 RMK AO2 SLP260 T00001044=
200912020853 METAR KBLI 020853Z AUTO 01007KT 10SM CLR 01/M04 A3027 RMK AO2 SLP258 T00061044 58000=
200912020753 METAR KBLI 020753Z AUTO 36009KT 10SM CLR 01/M04 A3027 RMK AO2 SLP259 T00111044 400720006=
200912020653 METAR KBLI 020653Z AUTO 01008KT 10SM CLR 01/M04 A3027 RMK AO2 SLP259 T00061044=
200912020553 METAR KBLI 020553Z 01007KT 10SM CLR 01/M04 A3027 RMK AO2 SLP259 T00061039 10050 20006 51007=
200912020453 METAR KBLI 020453Z 36008KT 10SM CLR 02/M04 A3026 RMK AO2 SLP258 T00171039=
200912020353 METAR KBLI 020353Z 01007KT 10SM CLR 02/M04 A3026 RMK AO2 SLP255 T00171039=
200912020253 METAR KBLI 020253Z 36007KT 10SM CLR 02/M04 A3025 RMK AO2 SLP252 T00171039 56004=
200912020153 METAR KBLI 020153Z 01007KT 10SM CLR 02/M04 A3025 RMK AO2 SLP252 T00221039=
200912020053 METAR KBLI 020053Z 01008KT 10SM CLR 03/M04 A3026 RMK AO2 SLP255 T00331044=
200912012353 METAR KBLI 012353Z 01009KT 10SM CLR 05/M04 A3026 RMK AO2 SLP256 T00501044 10072 20050 55005=
200912012253 METAR KBLI 012253Z 02008G16KT 10SM CLR 07/M04 A3026 RMK AO2 SLP255 T00671039=
200912012153 METAR KBLI 012153Z 02010KT 10SM CLR 07/M04 A3026 RMK AO2 SLP257 T00721044=
200912012053 METAR KBLI 012053Z 03009G18KT 10SM CLR 07/M04 A3027 RMK AO2 SLP261 T00721039 58009=
200912011953 METAR KBLI 011953Z 02012G20KT 10SM CLR 07/M04 A3029 RMK AO2 SLP266 T00671039=
200912011853 METAR KBLI 011853Z 02013G21KT 10SM CLR 06/M04 A3030 RMK AO2 SLP271 T00611039=
200912011753 METAR KBLI 011753Z 02014G23KT 10SM CLR 05/M04 A3030 RMK AO2 SLP269 T00501039 10050 20028 51008=
200912011653 METAR KBLI 011653Z 02011G17KT 10SM CLR 03/M03 A3029 RMK AO2 SLP267 T00331033=
200912011553 METAR KBLI 011553Z 02013G19KT 10SM CLR 03/M03 A3028 RMK AO2 SLP264 T00331033=
200912011453 METAR KBLI 011453Z 02012G18KT 10SM CLR 03/M03 A3028 RMK AO2 SLP261 T00331028 51005=
200912011353 METAR KBLI 011353Z AUTO 02010G16KT 10SM CLR 03/M02 A3027 RMK AO2 SLP261 T00331022=
200912011253 METAR KBLI 011253Z AUTO 01008KT 10SM CLR 03/M02 A3027 RMK AO2 SLP260 T00331017=
200912011153 METAR KBLI 011153Z AUTO 36008KT 10SM CLR 03/01 A3026 RMK AO2 SLP257 70028 T00280006 10056 20017 51007=
200912011109 SPECI KBLI 011109Z AUTO 35004KT 5SM BR CLR 02/02 A3026 RMK AO2=
200912011109 SPECI KBLI 011109Z AUTO 35004KT 5SM BR CLR 02/02 A3026 RMK AO2=
200912011101 SPECI KBLI 011101Z AUTO 00000KT 2 1/2SM BR CLR 02/02 A3026 RMK AO2=
200912011101 SPECI KBLI 011101Z AUTO 00000KT 2 1/2SM BR CLR 02/02 A3026 RMK AO2=
200912011053 METAR KBLI 011053Z AUTO 00000KT 3SM BR CLR 02/02 A3026 RMK AO2 SLP256 T00220017=
200912010953 METAR KBLI 010953Z AUTO 35004KT 8SM CLR 02/02 A3025 RMK AO2 SLP253 T00220017=
200912010853 METAR KBLI 010853Z AUTO 33003KT 9SM FEW026 03/03 A3024 RMK AO2 SLP249 T00330028 51004=
200912010851 SPECI KBLI 010851Z AUTO 34003KT 9SM FEW026 03/03 A3024 RMK AO2=
200912010851 SPECI KBLI 010851Z AUTO 34003KT 9SM FEW026 03/03 A3024 RMK AO2=
200912010753 METAR KBLI 010753Z AUTO 08003KT 10SM OVC024 05/04 A3023 RMK AO2 SLP247 T00500039 401060028=
200912010653 METAR KBLI 010653Z AUTO 00000KT 10SM OVC026 05/04 A3023 RMK AO2 SLP245 T00500039=
200912010553 METAR KBLI 010553Z 00000KT 10SM BKN024 04/03 A3022 RMK AO2 SLP242 T00390033 10072 20028 53005=
200912010536 SPECI KBLI 010536Z 00000KT 10SM BKN022 03/02 A3022 RMK AO2=
200912010536 SPECI KBLI 010536Z 00000KT 10SM BKN022 03/02 A3022 RMK AO2=
200912010453 METAR KBLI 010453Z 00000KT 10SM SCT055 03/02 A3021 RMK AO2 SLP238 T00280022=
200912010353 METAR KBLI 010353Z 00000KT 10SM BKN055 05/03 A3020 RMK AO2 SLP236 T00500033=
200912010253 METAR KBLI 010253Z 00000KT 10SM OVC060 06/04 A3020 RMK AO2 SLP236 T00560044 53015=
200912010153 METAR KBLI 010153Z 32003KT 10SM OVC060 06/04 A3019 RMK AO2 SLP231 T00610039=
200912010053 METAR KBLI 010053Z 00000KT 10SM OVC060 06/06 A3016 RMK AO2 SLP222 T00610056=

# No short TAF reports from KBLI in databse.

###################################
#  large TAF from KBLI
###################################
200912312339 TAF KBLI 312339Z 0100/0124 03010KT P6SM -RA SCT024 OVC045
                      TEMPO 0100/0104 5SM -RA BR OVC024 FM010400
                       15011KT 5SM -RA BR OVC024 FM011000 16012G23KT
                       P6SM -SHRA SCT015 BKN028 OVC040 FM011600
                       16015G29KT 6SM -SHRA BKN018 OVC035=
200912311741 TAF KBLI 311741Z 3118/0118 03007KT P6SM SCT045 BKN100 OVC200 FM312100
                       05010KT 5SM -RA BR BKN024 OVC045 FM010300
                       08011KT 5SM -RA BR OVC014 FM011300 16012G20KT
                       P6SM SCT015 BKN028 OVC040
                      PROB30 0113/0118 -SHRA=
200912311143 KBLI 311143Z 3112/0112 17008KT P6SM SCT022 BKN040
                      TEMPO 3112/3116 BKN022 FM311600 05006KT P6SM
                       VCSH FEW017 BKN035 OVC050 FM312100 05009KT
                       5SM -RA BR BKN014 OVC025 FM010600 14011KT
                       5SM -RA BR OVC014=
200912311142 KBLI 311142Z 3112/0112 17008KT P6SM SCT017 BKN040 FM311500 05006KT
                       P6SM FEW017 BKN035 OVC050 FM312100 05009KT
                       5SM -RA BR BKN014 OVC025 FM010600 14011KT
                       5SM -RA BR OVC014=
200912311140 TAF KBLI 311140Z 3112/0112 17008KT P6SM SCT017 BKN040 FM311500
                       05006KT P6SM FEW017 BKN035 OVC050 FM312100
                       05009KT 5SM -RA BR BKN014 OVC025 FM010400
                       14011KT 5SM -RA BR OVC014=
200912310529 TAF KBLI 310529Z 3106/0106 17008KT P6SM SCT017 BKN040 FM311500
                       05006KT P6SM FEW017 BKN035 OVC050 FM312100
                       05009KT 5SM -RA BR BKN014 OVC025 FM010400
                       14011KT 5SM -RA BR OVC014=
200912302335 TAF KBLI 302335Z 3100/3124 VRB04KT 5SM BR SCT012 OVC020 FM311000
                       06005KT 3SM BR BKN008 OVC015 FM312000 05009KT
                       6SM -RA BR BKN015 OVC025=
200912302236 KBLI 302236Z 3023/3118 35006KT P6SM SCT015 OVC025 FM310400 VRB03KT
                       P6SM SCT020 BKN035 OVC070 FM310900 15007KT
                       P6SM BKN015 OVC025=
200912301754 TAF KBLI 301754Z 3018/3118 03003KT 6SM BR SCT015 OVC025
                      TEMPO 3018/3021 3SM -SHRA BR BKN015 OVC025
                       FM302100 16008KT P6SM SCT015 OVC025 FM310400
                       VRB03KT P6SM SCT020 BKN035 OVC070 FM310900
                       15007KT P6SM BKN015 OVC025=
200912301454 KBLI 301454Z 3015/3112 03003KT 6SM BR SCT015 OVC025
                      TEMPO 3015/3019 3SM -SHRA BR BKN015 OVC025
                       FM301900 16008KT P6SM SCT015 OVC025 FM310400
                       VRB03KT P6SM SCT025 BKN040 OVC070=
200912301136 TAF KBLI 301136Z 3012/3112 VRB03KT P6SM SCT015 OVC025
                      TEMPO 3014/3018 -SHRA BKN015 OVC025 FM301800
                       16008KT P6SM SCT015 OVC025 FM310400 VRB03KT
                       P6SM SCT025 BKN040 OVC070=
200912300540 TAF KBLI 300540Z 3006/3106 01004KT P6SM OVC100 FM300900 VRB03KT
                       P6SM -RA OVC050 FM301500 16008KT P6SM SCT020
                       BKN035 FM310000 16008KT P6SM -SHRA BKN025
                       OVC040=
200912292332 TAF KBLI 292332Z 3000/3024 01007KT P6SM OVC200 FM300600 01004KT
                       P6SM -RA OVC050 FM301300 12008KT 5SM -RA
                       BR BKN018 OVC030 FM301700 17010KT P6SM VCSH
                       BKN018 BKN030 FM302200 16008KT P6SM SCT020
                       BKN035=
200912291728 TAF KBLI 291728Z 2918/3018 35003KT P6SM BKN200 FM300000 01004KT
                       P6SM SCT050 OVC080 FM300600 01004KT P6SM
                       -RA OVC050 FM301300 01004KT 5SM -RA BR BKN018
                       OVC030=
200912291138 TAF KBLI 291138Z 2912/3012 01004KT P6SM BKN050 OVC100 FM291700
                       01004KT P6SM SCT050 BKN200 FM300000 01004KT
                       P6SM SCT050 OVC080 FM300500 01004KT P6SM
                       -RA OVC050=
200912290538 TAF KBLI 290538Z 2906/3006 01004KT P6SM OVC050 FM291400 01004KT
                       P6SM SCT120 BKN200 FM300000 01004KT P6SM
                       SCT050 OVC080 FM300500 01004KT P6SM -RA
                       OVC050=
200912282334 TAF KBLI 282334Z 2900/2924 01008KT P6SM OVC035 FM290200 04005KT
                       P6SM SCT040 BKN200 FM291100 04004KT P6SM
                       VCFG SCT005 BKN200 FM291600 04006KT P6SM
                       SCT120 BKN200=
200912281720 TAF KBLI 281720Z 2818/2918 35003KT P6SM OVC050 FM282300 04004KT
                       P6SM SCT050 SCT120 BKN200 FM291000 04004KT
                       P6SM VCFG SCT005 SCT120 BKN200 FM291600
                       04006KT P6SM SCT120 BKN200=
200912281140 TAF KBLI 281140Z 2812/2912 01006KT P6SM OVC090 FM281600 01006KT
                       P6SM BKN050 OVC080 FM282200 04006KT P6SM
                       SCT120 BKN200=
200912280538 TAF KBLI 280538Z 2806/2906 01006KT P6SM SKC FM281100 01006KT P6SM
                       BKN120 OVC200 FM282300 04006KT P6SM SCT120
                       BKN200=
200912272331 TAF KBLI 272331Z 2800/2824 01006KT P6SM SKC FM280800 02003KT P6SM
                       BKN150 OVC200 FM281900 04006KT P6SM VCSH
                       BKN050 OVC120=
200912271737 TAF KBLI 271737Z 2718/2818 34005KT P6SM SCT250 FM272200 05005KT
                       P6SM SCT120 BKN200 FM280300 02003KT P6SM
                       BKN150 OVC200=
200912271124 TAF KBLI 271124Z 2712/2812 01004KT P6SM SKC=
200912270526 TAF KBLI 270526Z 2706/2806 01004KT P6SM SKC=
200912262328 TAF KBLI 262328Z 2700/2724 03007KT P6SM SKC=
200912261730 TAF KBLI 261730Z 2618/2718 34004KT P6SM SKC=
200912261120 TAF KBLI 261120Z 2612/2712 36003KT P6SM SKC FM261800 06006KT P6SM
                       SKC=
200912260540 TAF KBLI 260540Z 2606/2706 36003KT P6SM SKC FM261800 06007KT P6SM
                       SKC=
200912252330 TAF KBLI 252330Z 2600/2624 36003KT P6SM SKC FM261800 06007KT P6SM
                       SKC=
200912251738 TAF KBLI 251738Z 2518/2618 01006KT P6SM SKC=
200912251127 TAF KBLI 251127Z 2512/2612 35006KT P6SM SKC=
200912250900 TAF KBLI 250900Z 2509/2606 36005KT P6SM SKC
                      TEMPO 2513/2516 1SM BR FM251800 03003KT P6SM
                       SKC=
200912242320 TAF KBLI 242320Z 2500/2524 02007KT P6SM BKN200 FM250600 03004KT
                       P6SM SKC=
200912241721 TAF KBLI 241721Z 2418/2518 36004KT P6SM SKC FM250600 03004KT P6SM
                       SKC=
200912241520 KBLI 241520Z 2415/2512 01003KT P6SM BKN200 FM250600 01002KT 4SM
                       BR SKC FM251100 03002KT 1SM BR SKC=
200912241139 TAF KBLI 241139Z 2412/2512 01004KT P6SM SKC FM241300 00000KT P6SM
                       VCFG SCT005
                      TEMPO 2414/2416 3SM BR BKN005 FM241800 02003KT
                       P6SM SCT250 FM250600 01002KT 4SM BR SKC
                       FM251100 03002KT 1SM BR SKC=
200912241042 KBLI 241042Z 2411/2506 35004KT P6SM SKC FM241200 00000KT P6SM VCFG
                       SCT002 BKN030
                      TEMPO 2412/2416 3SM BR BKN005 FM241800 03005KT
                       P6SM FEW010 FM242000 01005KT P6SM SKC=
200912240531 TAF KBLI 240531Z 2406/2506 01003KT P6SM SKC FM241000 00000KT P6SM
                       VCFG SCT002 BKN030
                      TEMPO 2410/2414 3SM BR BKN005 FM241800 03005KT
                       P6SM FEW010 FM242000 01005KT P6SM SKC=
200912232334 TAF KBLI 232334Z 2400/2424 01003KT P6SM BKN045 BKN150 FM241000
                       00000KT P6SM VCFG SCT002 BKN030
                      TEMPO 2410/2414 3SM BR BKN005 FM241800 03005KT
                       P6SM FEW010=
200912232203 KBLI 232203Z 2322/2418 01005KT P6SM OVC045 FM241000 04006KT P6SM
                       VCFG SCT002 BKN030
                      TEMPO 2410/2414 1SM BR BKN001=
200912231739 TAF KBLI 231739Z 2318/2418 03005KT P6SM SCT030 BKN040 OVC050
                      TEMPO 2318/2322 BKN030 OVC040 FM232200 03006KT
                       P6SM SCT050 BKN150 FM241000 04006KT P6SM
                       VCFG SCT002
                      TEMPO 2410/2414 1SM BR BKN001=
200912231138 TAF KBLI 231138Z 2312/2412 01006KT P6SM OVC040 FM232100 03006KT
                       P6SM SCT050 BKN200=
200912230530 TAF KBLI 230530Z 2306/2406 00000KT P6SM OVC040 FM231200 04006KT
                       P6SM SCT050 BKN200=
200912222320 TAF KBLI 222320Z 2300/2324 28004KT P6SM SCT030 FM230400 04006KT
                       P6SM BKN200=
200912222007 KBLI 222007Z 2220/2318 00000KT P6SM SCT023 BKN050 FM222300 03006KT
                       P6SM SCT050 FM230400 04006KT P6SM BKN200=
200912221800 KBLI 221800Z 2218/2318 36003KT P6SM OVC015 FM222200 03003KT P6SM
                       SCT015 BKN030 FM230000 03006KT P6SM SKC
                       FM230400 04006KT P6SM BKN200=
200912221720 TAF KBLI 221720Z 2218/2318 00000KT P6SM FEW030 FM222300 03006KT
                       P6SM SKC FM230400 04006KT P6SM BKN200=
200912221233 KBLI 221233Z 2213/2312 VRB03KT P6SM OVC022 FM221800 03006KT P6SM
                       SCT035 FM222300 03012KT P6SM SKC=
200912221139 TAF KBLI 221139Z 2212/2312 VRB03KT P6SM SCT035 FM222000 03012KT
                       P6SM SKC=
200912220540 TAF KBLI 220540Z 2206/2306 09006KT P6SM SCT035 BKN060 FM221100
                       03006KT P6SM SCT035 BKN060 FM230200 03014KT
                       P6SM SCT050=
200912212325 TAF KBLI 212325Z 2200/2224 17006KT P6SM SCT035 BKN060 FM220800
                       03006KT P6SM SCT035 SCT060=
200912212106 KBLI 212106Z 2121/2218 19004KT P6SM VCSH SCT020 BKN050 FM220800
                       03006KT P6SM SCT035 SCT050=
200912212010 KBLI 212010Z 2120/2218 VRB03KT P6SM VCSH SCT011 OVC016 FM220300
                       VRB04KT P6SM SCT015 BKN050 FM220800 03006KT
                       P6SM SCT035 SCT050=
200912211755 KBLI 211755Z 2118/2218 23005KT P6SM -SHRA SCT010 BKN015 BKN045
                       TEMPO 2118/2120 4SM SHRA BKN007 OVC012 FM212000
                       18008KT P6SM -SHRA SCT035 BKN050 FM220300
                       VRB04KT P6SM SCT035 BKN050 FM220800 03006KT
                       P6SM SCT035 SCT050=
200912211737 TAF KBLI 211737Z 2118/2218 18007KT P6SM -RA FEW003 SCT009 OVC022
                       FM212100 18008KT P6SM -SHRA SCT035 BKN050
                       FM220300 VRB04KT P6SM SCT035 BKN050 FM220800
                       03006KT P6SM SCT035 SCT050=
200912211139 TAF KBLI 211139Z 2112/2212 15014G20KT P6SM -RA OVC022 FM211600
                       18012KT P6SM SCT022 BKN035 OVC050 FM212100
                       18012KT P6SM -SHRA SCT035 BKN050 FM221100
                       03006KT P6SM SCT035 BKN050=
200912210554 TAF KBLI 210554Z 2106/2206 15014G20KT P6SM -RA OVC022 FM211400
                       18012KT P6SM SCT022 BKN035 OVC050 FM212100
                       18012KT P6SM -SHRA SCT035 BKN050=
200912202339 TAF KBLI 202339Z 2100/2124 15011KT P6SM -RA BKN025 OVC035 FM210600
                       15014KT P6SM -RA BKN018 OVC020 FM211500
                       17015G22KT P6SM -RA BKN030 FM212100 19012KT
                       P6SM -SHRA BKN030=
200912201754 KBLI 201754Z 2018/2118 34004KT P6SM SCT035 BKN080
                      TEMPO 2018/2022 -RA BKN030 FM202200 15011KT
                       P6SM -RA BKN025 OVC035 FM210300 15012G18KT
                       P6SM -RA BKN018 OVC025 FM211700 17012G20KT
                       P6SM -RA BKN030=
200912201739 TAF KBLI 201739Z 2018/2118 34004KT P6SM SCT035 SCT080 BKN100 FM202300
                       15011KT P6SM -RA BKN018 OVC030 FM210400
                       15012G18KT P6SM -RA BKN020 OVC035=
200912201618 KBLI 201618Z 2016/2112 02005KT 5SM -RA BR BKN025 OVC090 FM202300
                       15011KT P6SM -RA BKN018 OVC030 FM210400
                       15012G18KT P6SM -RA BKN020 OVC035=
200912201133 TAF KBLI 201133Z 2012/2112 04005KT 5SM -RA BR OVC015 FM201700 09007KT
                       P6SM -RA BKN018 OVC030 FM202200 15011KT
                       P6SM -RA BKN018 OVC030 FM210400 15012G18KT
                       P6SM -RA BKN020 OVC035=
200912200520 TAF KBLI 200520Z 2006/2106 02007KT P6SM -RA SCT015 OVC035
                      TEMPO 2006/2010 5SM -RA BR OVC015 FM201000
                       07007KT 5SM -RA BR OVC015 FM201800 15011KT
                       P6SM -RA BKN015 OVC030=
200912200257 KBLI 200257Z 2003/2024 32004KT 6SM BR SCT005 OVC025
                      TEMPO 2003/2007 2SM -RA BR OVC005 FM200700
                       07007KT 3SM -RA BR OVC005 FM201600 15011KT
                       P6SM -SHRA BKN015 OVC030=
200912200157 KBLI 200157Z 2002/2024 32004KT 4SM BR BKN005 OVC010
                      TEMPO 2002/2006 1SM -RA BR OVC003 FM200600
                       07007KT 3SM -RA BR OVC005 FM201600 15011KT
                       P6SM -SHRA BKN015 OVC030=
200912192320 TAF KBLI 192320Z 2000/2024 32004KT 4SM BR BKN005 OVC010 FM200400
                       07007KT 3SM -RA BR OVC005 FM201600 15011KT
                       P6SM -SHRA BKN015 OVC030=
200912192143 KBLI 192143Z 1922/2018 33003KT 2SM BR OVC005 FM192300 02003KT 2SM
                       BR OVC004 FM200200 04006KT P6SM -RA BKN006
                       OVC015 FM200500 07007KT 3SM -RA BR OVC005
                       FM201600 15011KT P6SM -SHRA BKN015 OVC030=
200912192106 KBLI 192106Z 1921/2018 00000KT 1/4SM FG VV001 FM192300 02003KT
                       2SM BR OVC004 FM200200 04006KT P6SM -RA
                       BKN006 OVC015 FM200500 07007KT 3SM -RA BR
                       OVC005 FM201600 15011KT P6SM -SHRA BKN015
                       OVC030=
200912191841 KBLI 191841Z 1919/2018 33003KT 1/2SM FG OVC002 FM192100 02003KT
                       4SM BR OVC005 FM200200 04006KT P6SM -RA
                       BKN008 OVC015 FM200500 07007KT 3SM -RA BR
                       OVC008 FM201600 15011KT P6SM -SHRA BKN015
                       OVC030=
200912191733 TAF KBLI 191733Z 1918/2018 00000KT 3SM BR OVC004 FM191900 02005KT
                       P6SM SCT008 BKN018 OVC025 FM200200 04006KT
                       P6SM -RA BKN015 OVC020 FM200500 07007KT
                       3SM -RA BR OVC008 FM201600 15011KT P6SM
                       -SHRA BKN015 OVC030=
200912191550 KBLI 191550Z 1916/2012 00000KT P6SM BKN004 OVC008
                      TEMPO 1916/1918 2SM -RA BR OVC004 FM191800
                       VRB03KT P6SM SCT007 OVC015 FM192100 02005KT
                       P6SM SCT015 BKN030 FM200000 03005KT P6SM
                       SCT017 BKN030 FM200500 04006KT P6SM -RA
                       SCT015 OVC025 FM200800 07007KT 4SM -RA BR
                       SCT005 OVC010=
200912191529 KBLI 191529Z 1915/2012 29004KT 6SM BR OVC004 FM191800 VRB03KT P6SM
                       SCT007 OVC015 FM192100 02005KT P6SM SCT015
                       BKN030 FM200000 03005KT P6SM SCT017 BKN030
                       FM200500 04006KT P6SM -RA SCT015 OVC025
                       FM200800 07007KT 4SM -RA BR SCT005 OVC010=
200912191137 TAF KBLI 191137Z 1912/2012 VRB03KT 2SM BR VCSH BKN004 OVC012
                      TEMPO 1912/1916 4SM BR SCT005 OVC015 FM191600
                       VRB03KT 5SM BR VCSH SCT009 OVC018 FM192100
                       02005KT P6SM SCT015 BKN030 FM200000 03005KT
                       P6SM SCT017 BKN030
                      TEMPO 2004/2007 -RA BKN027 FM200700 07007KT
                       P6SM -RA OVC020=
200912190645 KBLI 190645Z 1907/2006 VRB03KT 4SM BR VCSH SCT007 BKN014
                      TEMPO 1907/1911 1 1/2SM BR BKN005 OVC012
                       FM191100 VRB03KT 4SM BR VCSH BKN010 OVC022
                       FM191800 01004KT P6SM VCSH SCT012 OVC022
                       FM192200 03005KT P6SM SCT022 OVC035=
200912190521 TAF KBLI 190521Z 1906/2006 VRB03KT 5SM BR VCSH SCT015 BKN022
                      TEMPO 1906/1910 3SM BR BKN010 OVC020 FM191000
                       VRB03KT 5SM BR VCSH BKN014 OVC022 FM191800
                       01004KT P6SM VCSH SCT012 OVC022 FM192200
                       03005KT P6SM SCT022 OVC035=
200912182336 TAF KBLI 182336Z 1900/1924 VRB05KT P6SM BKN035 OVC050
                      TEMPO 1902/1906 5SM -SHRA BKN025 OVC035 FM190900
                       20004KT P6SM BKN018 OVC035
                      TEMPO 1911/1915 P6SM -SHRA BKN012 OVC018
                       FM191800 01004KT P6SM VCSH SCT010 OVC016
                       FM192200 02005KT P6SM SCT025 OVC035=
200912182202 KBLI 182202Z 1822/1918 35005KT P6SM BKN050 OVC070
                      TEMPO 1900/1904 VRB03KT 5SM -SHRA BKN022
                       OVC035 FM190400 20004KT P6SM BKN022 OVC035
                       TEMPO 1904/1908 P6SM -SHRA OVC018 FM190800
                       19004KT P6SM VCSH SCT010 OVC016
                      TEMPO 1910/1914 P6SM OVC008=
200912181736 TAF KBLI 181736Z 1818/1918 35005KT P6SM BKN050 OVC070 FM182200
                       VRB03KT P6SM BKN022 OVC035
                      TEMPO 1822/1902 -RA OVC018 FM190200 20004KT
                       P6SM BKN022 OVC035
                      TEMPO 1902/1906 P6SM -SHRA OVC018 FM190600
                       19004KT P6SM VCSH SCT010 OVC016
                      TEMPO 1910/1914 P6SM OVC008=
200912181140 TAF KBLI 181140Z 1812/1912 03004KT P6SM OVC070 FM181600 01003KT
                       P6SM OVC045 FM182000 VRB03KT P6SM BKN022
                       OVC035
                      TEMPO 1820/1824 -RA OVC018 FM190000 20004KT
                       P6SM BKN022 OVC035
                      TEMPO 1900/1904 P6SM -SHRA OVC018 FM190400
                       19004KT P6SM VCSH SCT010 OVC016
                      TEMPO 1908/1912 P6SM OVC008=
200912180540 TAF KBLI 180540Z 1806/1906 04006KT P6SM OVC040
                      TEMPO 1809/1813 -RA BKN035 OVC060 FM181300
                       04006KT 5SM -RA BR OVC025 FM181800 VRB04KT
                       P6SM -RA SCT010 OVC022
                      TEMPO 1818/1822 4SM -RA BR BKN010 OVC016
                       FM182200 17006KT P6SM -SHRA SCT013 BKN025
                       OVC040=
200912172338 TAF KBLI 172338Z 1800/1824 04004KT P6SM BKN030 OVC070
                      TEMPO 1802/1806 -RA FM180600 04006KT P6SM
                       -RA SCT020 OVC030 FM181200 15006KT P6SM
                       -RA SCT012 OVC022 FM181900 05004KT P6SM
                       SCT015 BKN030=
200912171740 TAF KBLI 171740Z 1718/1818 07003KT P6SM BKN025 OVC035 FM180200
                       04005KT P6SM OVC040
                      TEMPO 1802/1806 -RA FM180600 04006KT P6SM
                       -RA SCT020 OVC030 FM181400 15006KT P6SM
                       SCT012 OVC022=
200912171140 TAF KBLI 171140Z 1712/1812 18007KT P6SM SCT025 BKN060 OVC090
                      TEMPO 1713/1717 OVC025 FM171700 VRB03KT P6SM
                       SCT045 OVC100 FM172300 04005KT P6SM OVC035
                       TEMPO 1802/1806 -RA FM180600 04006KT P6SM
                       -RA OVC030=
200912170901 KBLI 170901Z 1709/1806 14009KT P6SM VCSH SCT025 OVC060 FM171200
                       16004KT P6SM OVC020 FM171800 VRB03KT P6SM
                       BKN050 OVC100 FM172300 VRB03KT P6SM OVC030
                       TEMPO 1802/1806 -RA=
200912170520 TAF KBLI 170520Z 1706/1806 16010KT P6SM VCSH BKN014 BKN023 OVC045
                       FM171000 13004KT P6SM OVC012 FM171800 05006KT
                       P6SM BKN025 OVC040 FM180000 06005KT P6SM
                       -RA OVC025=
200912170213 KBLI 170213Z 1702/1724 16010KT P6SM SCT020 BKN035 OVC070
                      TEMPO 1702/1704 4SM -SHRA BKN020 OVC040 FM170400
                       17006KT P6SM VCSH BKN015 OVC025 FM171400
                       13004KT P6SM OVC012 FM171800 05006KT P6SM
                       BKN025 OVC040=
200912162329 TAF KBLI 162329Z 1700/1724 16017G23KT P6SM BKN020 BKN035 OVC070
                       TEMPO 1700/1704 4SM -SHRA FM170400 17006KT
                       P6SM VCSH BKN015 OVC025 FM171400 13004KT
                       P6SM OVC012 FM171800 05006KT P6SM BKN025
                       OVC040=
200912162107 KBLI 162107Z 1621/1718 16020G28KT 5SM -SHRA SCT024 BKN035 OVC045
                       TEMPO 1621/1623 3SM SHRA BR BKN024 OVC035
                       FM162300 16012G25KT P6SM -SHRA SCT012 OVC025
                       FM170400 17006KT P6SM VCSH BKN015 OVC025
                       FM171400 06005KT P6SM OVC012=
200912161738 TAF KBLI 161738Z 1618/1718 15022G35KT P6SM SCT035 OVC060 FM162000
                       16022G35KT P6SM -SHRA SCT015 BKN035 OVC050
                       FM170000 16012G25KT P6SM -SHRA SCT012 OVC030
                       FM170400 17006KT P6SM VCSH BKN015 OVC025
                       FM171400 06005KT P6SM OVC012=
200912161129 TAF KBLI 161129Z 1612/1712 15016G26KT P6SM VCSH SCT030 BKN070 FM161500
                       15018G28KT P6SM -SHRA BKN025 OVC040 FM162000
                       17016G26KT P6SM -RA BKN015 OVC025
                      TEMPO 1623/1703 4SM -RA OVC007 FM170400 17006KT
                       P6SM VCSH BKN010 OVC020=
200912160523 TAF KBLI 160523Z 1606/1706 16014G27KT P6SM VCSH OVC017 FM161700
                       14012G22KT P6SM SCT012 OVC035 FM162000 16012G22KT
                       P6SM -SHRA SCT012 OVC035=
200912160123 KBLI 160123Z 1601/1624 04008KT P6SM -RA SCT018 OVC035
                      TEMPO 1601/1605 P6SM -RA BKN018 OVC030 FM160500
                       14012KT P6SM VCSH SCT015 OVC035 FM161700
                       14012G22KT P6SM SCT012 OVC035 FM162000 16012G22KT
                       P6SM -SHRA SCT012 OVC035=
200912152326 TAF KBLI 152326Z 1600/1624 01005KT P6SM -RA OVC018 FM160500 14012KT
                       P6SM VCSH SCT012 OVC035 FM161700 14012G22KT
                       P6SM SCT012 OVC035 FM162000 16012G22KT P6SM
                       -SHRA SCT012 OVC035=
200912151724 TAF KBLI 151724Z 1518/1618 03005KT P6SM OVC018 FM160000 06008KT
                       P6SM -RA OVC018 FM160500 14012KT P6SM SCT012
                       OVC035=
200912151150 TAF KBLI 151150Z 1512/1612 03006KT P6SM SCT012 OVC022
                      TEMPO 1515/1519 BKN012 OVC022 FM151900 03006KT
                       P6SM SCT020 OVC035 FM160200 14012KT P6SM
                       -RA OVC040 FM160700 16012KT P6SM SCT012
                       OVC022=
200912150544 TAF KBLI 150544Z 1506/1606 02012G18KT P6SM -FZRA OVC030 FM151100
                       06008KT P6SM BKN012 OVC030 FM151700 06008KT
                       P6SM SCT020 OVC035 FM160200 06008KT P6SM
                       -RA OVC040=
200912150337 KBLI 150337Z 1504/1524 02012G18KT P6SM -FZRA OVC025 FM151100 07008KT
                       P6SM BKN012 OVC030 FM151900 12008KT P6SM
                       SCT020 OVC035=
200912142322 TAF KBLI 142322Z 1500/1524 02012G18KT P6SM BKN035 OVC060 FM150400
                       02010KT 3SM -SN BR SCT008 OVC015
                      TEMPO 1508/1511 1SM -SN BR OVC005 FM151100
                       07008KT P6SM BKN012 OVC030=
200912141831 KBLI 141831Z 1419/1518 02010KT P6SM SCT016 BKN060 OVC070 FM150100
                       02010KT P6SM OVC015 FM150300 03008KT 3SM
                       -SN BR SCT005 OVC010
                      TEMPO 1508/1511 1SM -SN BR OVC005 FM151100
                       08008KT P6SM BKN012 OVC030=
200912141736 TAF KBLI 141736Z 1418/1518 03008KT P6SM OVC016 FM150300 03008KT
                       3SM -SN BR SCT005 OVC010
                      TEMPO 1508/1511 1SM -SN BR OVC005 FM151100
                       08008KT P6SM BKN012 OVC030=
200912141643 KBLI 141643Z 1417/1512 02008KT P6SM OVC014 FM150300 03008KT 3SM
                       -SN BR SCT005 OVC010 FM151100 19008KT P6SM
                       BKN012 OVC030=
200912141146 TAF KBLI 141146Z 1412/1512 03014KT P6SM BKN015 OVC025 FM141600
                       03014KT P6SM SCT015 BKN025 OVC040 FM142000
                       03008KT P6SM SCT020 BKN035 OVC050 FM150300
                       03008KT P6SM -RASN OVC030 FM150600 15012KT
                       P6SM -RA OVC040 FM151100 19008KT P6SM -SHRA
                       BKN018 OVC030=
200912140543 TAF KBLI 140543Z 1406/1506 03006KT P6SM OVC009 FM140900 03014KT
                       P6SM SCT010 BKN020 OVC040 FM141200 03014KT
                       P6SM SCT020 BKN035 OVC050 FM141600 03014KT
                       P6SM BKN050 OVC100 FM150300 03014KT P6SM
                       -RASN OVC030=
200912140106 KBLI 140106Z 1401/1424 13005KT P6SM SCT014 OVC030
                      TEMPO 1401/1405 3SM -SHSN BKN014 OVC030 FM140500
                       06005KT P6SM OVC030
                      TEMPO 1405/1407 3SM -SN OVC023 FM140700 03014G22KT
                       P6SM SCT025 OVC050 FM141000 03014G23KT P6SM
                       SCT050 FM142100 04011KT P6SM BKN045 OVC100=
200912132346 TAF KBLI 132346Z 1400/1424 16010G15KT P6SM SCT021 OVC030
                      TEMPO 1400/1404 3SM -SHSN BKN020 OVC035 FM140400
                       06005KT P6SM OVC035
                      TEMPO 1404/1407 3SM -SN OVC023 FM140700 03014G22KT
                       P6SM SCT025 OVC050 FM141000 03014G23KT P6SM
                       SCT050 FM142100 04011KT P6SM BKN045 OVC100=
200912131936 KBLI 131936Z 1320/1418 00000KT 5SM -SN SCT025 OVC040
                      TEMPO 1320/1321 1SM -SN BKN009 OVC022 FM132100
                       VRB03KT P6SM SCT024 OVC035
                      TEMPO 1321/1401 3SM -SHSN BKN020 OVC035 FM140700
                       03014G22KT P6SM SCT050=
200912131853 KBLI 131853Z 1319/1418 00000KT 5SM -SN SCT025 OVC040
                      TEMPO 1319/1321 1SM -SN OVC022 FM132100 VRB03KT
                       P6SM SCT024 OVC035
                      TEMPO 1321/1401 3SM -SHSN BKN020 OVC035 FM140700
                       03014G22KT P6SM SCT050=
200912131746 TAF KBLI 131746Z 1318/1418 00000KT P6SM SCT035 OVC070
                      TEMPO 1318/1322 3SM -SN SCT022 OVC035 FM132200
                       VRB03KT 3SM -SHSN BKN020 OVC035 FM140700
                       03014G22KT P6SM SCT050=
200912131134 TAF KBLI 131134Z 1312/1412 00000KT P6SM SCT050 FM131500 00000KT
                       P6SM BKN050 FM140000 VRB03KT 3SM -SHSN BKN020
                       OVC035 FM140600 03014G22KT P6SM SCT050=
200912130543 TAF KBLI 130543Z 1306/1406 00000KT P6SM OVC050 FM132100 VRB03KT
                       3SM -SHSN BKN020 OVC035=
200912122333 TAF KBLI 122333Z 1300/1324 36003KT P6SM OVC050 FM130400 00000KT
                       P6SM OVC050 FM131900 VRB03KT P6SM OVC045
                       PROB30 1319/1324 -SN=
200912121746 TAF KBLI 121746Z 1218/1318 02003KT P6SM OVC050
                      TEMPO 1218/1222 BKN030 OVC050=
200912121130 TAF KBLI 121130Z 1212/1312 02004KT P6SM SCT030 OVC050
                      TEMPO 1216/1220 BKN030 OVC050=
200912120539 TAF KBLI 120539Z 1206/1306 00000KT P6SM OVC045 FM121800 01004KT
                       P6SM BKN035 BKN080
                      PROB30 1218/1224 -SN=
200912112341 TAF KBLI 112341Z 1200/1224 00000KT P6SM OVC045 FM120500 01003KT
                       P6SM OVC040
                      PROB30 1209/1218 -SN FM121800 01004KT P6SM
                       BKN035 BKN080
                      PROB30 1218/1224 -SN=
200912111743 TAF KBLI 111743Z 1118/1218 35003KT P6SM OVC035 FM112300 01004KT
                       P6SM BKN035 BKN100 FM120500 01004KT P6SM
                       OVC035=
200912111148 TAF KBLI 111148Z 1112/1212 00000KT P6SM OVC035 FM111900 01004KT
                       P6SM SCT035 SCT100 SCT250 FM120600 01004KT
                       P6SM OVC035=
200912110522 TAF KBLI 110522Z 1106/1206 00000KT P6SM BKN030 OVC045 FM111000
                       00000KT P6SM SCT015 OVC025
                      TEMPO 1112/1116 OVC015 FM112000 01004KT P6SM
                       SCT040 OVC070=
200912110404 KBLI 110404Z 1104/1124 00000KT P6SM BKN025 OVC045 FM111000 00000KT
                       P6SM SCT015 OVC025
                      TEMPO 1112/1116 OVC015 FM112000 01004KT P6SM
                       SCT040 OVC070=
200912102323 TAF KBLI 102323Z 1100/1124 00000KT P6SM BKN035 OVC045 FM110400
                       00000KT P6SM BKN100 FM111000 00000KT P6SM
                       SCT015 BKN040 OVC070
                      TEMPO 1112/1116 OVC015 FM112000 01004KT P6SM
                       SCT040 OVC070=
200912101740 TAF KBLI 101740Z 1018/1118 35005KT P6SM BKN035
                      TEMPO 1018/1020 SCT035 FM102000 36003KT P6SM
                       SCT250 FM110400 00000KT P6SM BKN100 FM111000
                       00000KT P6SM SCT015 BKN040 OVC070
                      TEMPO 1112/1116 OVC015=
200912101514 KBLI 101514Z 1015/1112 00000KT P6SM OVC030 FM101800 35002KT P6SM
                       BKN250 FM110300 00000KT P6SM BKN100 FM110900
                       00000KT P6SM SCT015 BKN040=
200912101124 TAF KBLI 101124Z 1012/1112 VRB04KT P6SM SKC=
200912100520 TAF KBLI 100520Z 1006/1106 VRB04KT P6SM SKC=
200912092325 TAF KBLI 092325Z 1000/1024 01004KT P6SM SCT250 FM100800 00000KT
                       P6SM SCT070 BKN250 FM101500 03004KT P6SM
                       BKN040 OVC070=
200912091726 TAF KBLI 091726Z 0918/1018 00000KT P6SM OVC050 FM092100 33004KT
                       P6SM SCT050 FM100300 00000KT P6SM BKN250
                       FM101500 05003KT P6SM BKN050=
200912091124 TAF KBLI 091124Z 0912/1012 00000KT P6SM SCT250 FM092000 14004KT
                       P6SM SCT250 FM100600 06005KT P6SM SCT250=
200912090520 TAF KBLI 090520Z 0906/1006 00000KT P6SM SKC FM090800 00000KT P6SM
                       SCT250 FM092000 06004KT P6SM SCT100 SCT200=
200912082326 TAF KBLI 082326Z 0900/0924 00000KT P6SM SKC FM090800 00000KT P6SM
                       BKN250 FM092000 06004KT P6SM BKN070 OVC130=
200912081737 TAF KBLI 081737Z 0818/0918 03003KT P6SM SKC FM090600 00000KT P6SM
                       SCT250=
200912081135 TAF KBLI 081135Z 0812/0912 03005KT P6SM FEW150 FM081800 03007KT
                       P6SM FEW150 FM090200 06005KT P6SM FEW150=
200912080520 TAF KBLI 080520Z 0806/0906 05010KT P6SM SCT150 FM081000 05010KT
                       P6SM BKN150 FM081800 03010KT P6SM SCT150
                       FM090200 02005KT P6SM SCT150=
200912080214 KBLI 080214Z 0802/0824 03010KT P6SM SCT080 BKN150 FM081800 03010KT
                       P6SM SCT150=
200912072320 TAF KBLI 072320Z 0800/0824 03014G24KT P6SM SCT080 BKN150 FM081800
                       03010KT P6SM SCT150=
200912071724 TAF KBLI 071724Z 0718/0818 03012G22KT P6SM SKC FM072100 03010G20KT
                       P6SM SCT150 FM080300 02008KT P6SM BKN150=
200912071122 TAF KBLI 071122Z 0712/0812 03018G28KT P6SM SKC FM071800 03012G20KT
                       P6SM SKC FM072100 03012KT P6SM SCT150 FM080000
                       02007KT P6SM BKN150=
200912070528 TAF KBLI 070528Z 0706/0806 03018G28KT P6SM SKC FM071800 03012G22KT
                       P6SM SKC FM072300 02010KT P6SM BKN150=
200912062338 TAF KBLI 062338Z 0700/0724 03020G30KT P6SM SKC FM071800 05012G22KT
                       P6SM BKN150=
200912061726 TAF KBLI 061726Z 0618/0718 03025G35KT P6SM SKC FM070600 03017G27KT
                       P6SM SKC FM071500 05012G22KT P6SM SKC=
200912061130 TAF KBLI 061130Z 0612/0712 03025G35KT P6SM BKN120
                      TEMPO 0612/0616 03030G40KT FM061600 03025G35KT
                       P6SM SCT150 FM061800 03025G35KT P6SM SKC=
200912060531 TAF KBLI 060531Z 0606/0706 03025G35KT P6SM OVC100 FM061400 03025G35KT
                       P6SM SCT150 FM061800 03020G30KT P6SM SKC=
200912052320 TAF KBLI 052320Z 0600/0624 03015G25KT P6SM SCT070 FM060900 03025G35KT
                       P6SM SCT050=
200912051723 TAF KBLI 051723Z 0518/0618 03015G25KT P6SM SKC FM060600 03025G35KT
                       P6SM SCT060=
200912051510 KBLI 051510Z 0515/0612 03015G22KT P6SM SKC FM060200 03018G28KT
                       P6SM SCT080
                      TEMPO 0608/0612 03024G35KT=
200912051140 TAF KBLI 051140Z 0512/0612 36007KT P6SM SKC FM051600 02012KT P6SM
                       SKC
                      TEMPO 0516/0520 03014G22KT FM052000 03015G22KT
                       P6SM SKC FM060200 03018G25KT P6SM SCT030
                       BKN120
                      TEMPO 0608/0612 02024G35KT=
200912050535 TAF KBLI 050535Z 0506/0606 33005KT P6SM SKC FM051000 04010KT P6SM
                       SKC FM051900 04017G27KT P6SM SKC=
200912042320 TAF KBLI 042320Z 0500/0524 36010KT P6SM SCT040 FM051000 04012G22KT
                       P6SM SKC FM051900 04017G27KT P6SM SKC=
200912041741 TAF KBLI 041741Z 0418/0518 VRB03KT P6SM SCT025 BKN040 FM042100
                       36010KT P6SM SCT040 FM050600 04015G25KT
                       P6SM SKC=
200912041514 KBLI 041514Z 0415/0512 VRB03KT P6SM BKN025 FM041900 32006KT P6SM
                       SCT040 SCT250 FM042100 02011KT P6SM SCT040
                       SCT250 FM050600 04016G22KT P6SM SKC=
200912041131 TAF KBLI 041131Z 0412/0512 VRB03KT P6SM BKN016 BKN025 FM041600
                       32006KT P6SM SCT040 SCT250 FM042100 02011KT
                       P6SM SCT040 SCT250 FM050300 02010KT P6SM
                       SKC=
200912041106 KBLI 041106Z 0411/0506 VRB03KT P6SM BKN016 BKN025 FM041400 32006KT
                       P6SM SCT250 FM042100 02011KT P6SM SKC=
200912040533 TAF KBLI 040533Z 0406/0506 VRB03KT P6SM SCT100 BKN150 FM041400
                       32006KT P6SM SCT250 FM042100 02011KT P6SM
                       SKC=
200912032324 TAF KBLI 032324Z 0400/0424 VRB03KT P6SM BKN250 FM041400 32006KT
                       P6SM SCT250 FM042100 02011KT P6SM SKC=
200912031737 TAF KBLI 031737Z 0318/0418 34003KT P6SM BKN250 FM040300 VRB03KT
                       P6SM SCT150 BKN250=
200912031121 TAF KBLI 031121Z 0312/0412 35005KT P6SM SCT200 FM031800 01005KT
                       P6SM SCT200 FM040300 00000KT P6SM SCT150
                       SCT200=
200912030523 TAF KBLI 030523Z 0306/0406 35005KT P6SM SKC FM030900 00000KT P6SM
                       SKC FM032000 02005KT P6SM SCT200=
200912022324 TAF KBLI 022324Z 0300/0324 35007KT P6SM SKC FM030600 00000KT P6SM
                       SCT200=
200912021734 TAF KBLI 021734Z 0218/0318 36007KT P6SM SKC FM030600 00000KT P6SM
                       SCT200=
200912021120 TAF KBLI 021120Z 0212/0312 02006KT P6SM SKC=
200912020520 TAF KBLI 020520Z 0206/0306 36008KT P6SM SKC FM020800 04007KT P6SM
                       SKC=
200912012336 TAF KBLI 012336Z 0200/0224 02008G16KT P6SM SCT250 FM020400 02004KT
                       P6SM SKC FM021500 04006KT P6SM SCT250=
200912011732 TAF KBLI 011732Z 0118/0218 02011G17KT P6SM SKC FM012300 02006KT
                       P6SM SCT250=
200912011220 KBLI 011220Z 0112/0212 36008KT P6SM VCFG SKC FM011500 04007KT P6SM
                       SKC=
200912011122 TAF KBLI 011122Z 0112/0212 00000KT 2SM BR VCFG SKC FM011500 04007KT
                       P6SM SKC=
200912010645 KBLI 010645Z 0107/0206 00000KT P6SM SCT024 BKN200
                      TEMPO 0107/0111 BKN024 BKN200 FM011100 04005KT
                       P6SM VCFG SCT002 BKN200 FM011500 04007KT
                       P6SM SKC=
200912010520 TAF KBLI 010520Z 0106/0206 00000KT P6SM SCT060 FM011000 04005KT
                       P6SM VCFG SCT002 FM011500 04007KT P6SM SKC=
200912010323 KBLI 010323Z 0103/0124 00000KT P6SM OVC060 FM010800 04005KT P6SM
                       SCT020 BKN045 FM011800 01006KT P6SM SCT200=