##########################################################
# Query made at 02/16/2025 19:30:14 UTC
# Time interval: from 11/01/2010 00:00  to 11/30/2010 23:59  UTC
##########################################################

##########################################################
# KBLI, Bellingham, Bellingham International Airport (United States)
# WMO index: -----. WIGOS ID: Unknown
# Latitude 48-47-58N. Longitude 122-32-21W. Altitude 48 m.
##########################################################

###################################
#  METAR/SPECI from KBLI
###################################
201011302353 METAR KBLI 302353Z 16012G18KT 6SM -RA BR BKN020 OVC026 08/06 A2993 RMK AO2 SLP141 P0002 60003 T00780061 10100 20078 53021=
201011302253 METAR KBLI 302253Z 16013G20KT 9SM -RA BKN020 BKN028 OVC049 08/06 A2990 RMK AO2 PK WND 16027/2157 SLP132 P0001 T00830056=
201011302153 METAR KBLI 302153Z 16014G23KT 10SM -RA OVC024 09/05 A2988 RMK AO2 PK WND 17032/2101 RAB32 SLP127 P0000 T00890050=
201011302138 SPECI KBLI 302138Z 16017G25KT 10SM -RA BKN026 OVC050 09/05 A2988 RMK AO2 PK WND 17032/2101 RAB32 P0000=
201011302138 SPECI KBLI 302138Z 16017G25KT 10SM -RA BKN026 OVC050 09/05 A2988 RMK AO2 PK WND 17032/2101 RAB32 P0000=
201011302053 METAR KBLI 302053Z 15022G34KT 10SM OVC060 09/04 A2986 RMK AO2 PK WND 14034/2052 RAB18E40 SLP120 P0000 60000 T00940044 58017=
201011302030 SPECI KBLI 302030Z 16020G28KT 10SM -RA SCT029 OVC060 10/04 A2987 RMK AO2 PK WND 16030/2007 RAB18 P0000=
201011302030 SPECI KBLI 302030Z 16020G28KT 10SM -RA SCT029 OVC060 10/04 A2987 RMK AO2 PK WND 16030/2007 RAB18 P0000=
201011302000 SPECI KBLI 302000Z 15012G26KT 10SM OVC029 10/04 A2988 RMK AO2=
201011302000 SPECI KBLI 302000Z 15012G26KT 10SM OVC029 10/04 A2988 RMK AO2=
201011301953 METAR KBLI 301953Z 15018G26KT 10SM SCT029 OVC060 10/04 A2988 RMK AO2 PK WND 15030/1858 RAE15 SLP127 P0000 T01000044=
201011301912 SPECI KBLI 301912Z 14019G27KT 10SM -RA SCT029 OVC060 09/04 A2989 RMK AO2 PK WND 15030/1858 P0000=
201011301912 SPECI KBLI 301912Z 14019G27KT 10SM -RA SCT029 OVC060 09/04 A2989 RMK AO2 PK WND 15030/1858 P0000=
201011301905 SPECI KBLI 301905Z 14020G30KT 10SM -RA BKN029 OVC060 09/04 A2989 RMK AO2 PK WND 15030/1858 P0000=
201011301905 SPECI KBLI 301905Z 14020G30KT 10SM -RA BKN029 OVC060 09/04 A2989 RMK AO2 PK WND 15030/1858 P0000=
201011301853 METAR KBLI 301853Z 14015G23KT 10SM -RA BKN031 OVC055 09/04 A2990 RMK AO2 RAB37 SLP133 P0000 T00940044=
201011301825 SPECI KBLI 301825Z 14013G20KT 10SM SCT027 BKN034 OVC060 09/04 A2991 RMK AO2=
201011301825 SPECI KBLI 301825Z 14013G20KT 10SM SCT027 BKN034 OVC060 09/04 A2991 RMK AO2=
201011301753 METAR KBLI 301753Z 13009G17KT 10SM BKN027 BKN034 OVC060 09/04 A2991 RMK AO2 RAB09E19 SLP137 P0000 60011 T00940044 10094 20078 56009=
201011301653 METAR KBLI 301653Z 15009G19KT 10SM SCT018 BKN029 OVC055 09/04 A2992 RMK AO2 RAB1555E50 SLP140 P0001 T00890044=
201011301553 METAR KBLI 301553Z 15012G21KT 10SM SCT028 OVC055 09/04 A2992 RMK AO2 PK WND 15028/1521 RAE43 SLP141 P0001 T00890044=
201011301453 METAR KBLI 301453Z 15014G23KT 10SM -RA SCT028 OVC055 08/04 A2994 RMK AO2 PK WND 15026/1433 SLP146 P0001 60009 T00830044 56010=
201011301432 SPECI KBLI 301432Z AUTO 15014G21KT 10SM -RA FEW025 SCT031 OVC055 08/04 A2994 RMK AO2 P0001=
201011301432 SPECI KBLI 301432Z AUTO 15014G21KT 10SM -RA FEW025 SCT031 OVC055 08/04 A2994 RMK AO2 P0001=
201011301353 METAR KBLI 301353Z AUTO 14015G27KT 8SM -RA BKN027 BKN048 OVC055 08/04 A2995 RMK AO2 PK WND 14027/1346 SLP150 P0003 T00830044=
201011301303 SPECI KBLI 301303Z AUTO 14014G25KT 8SM -RA BKN029 BKN047 OVC055 08/04 A2995 RMK AO2 P0001=
201011301303 SPECI KBLI 301303Z AUTO 14014G25KT 8SM -RA BKN029 BKN047 OVC055 08/04 A2995 RMK AO2 P0001=
201011301253 METAR KBLI 301253Z AUTO 14017G25KT 6SM -RA FEW024 BKN031 OVC055 08/04 A2995 RMK AO2 PK WND 13034/1211 SLP150 P0005 T00780039=
201011301153 METAR KBLI 301153Z AUTO 15012G29KT 10SM -RA BKN030 BKN050 OVC060 08/03 A2997 RMK AO2 PK WND 14031/1132 SLP156 P0001 60003 70003 T00780033 10083 20072 58024=
201011301053 METAR KBLI 301053Z AUTO 14013G23KT 10SM -RA BKN030 BKN036 OVC048 08/03 A2999 RMK AO2 PK WND 13026/1004 SLP164 P0001 T00780033=
201011300953 METAR KBLI 300953Z AUTO 15013G20KT 10SM -RA OVC033 08/03 A3002 RMK AO2 PK WND 14027/0916 SLP174 P0001 T00780028=
201011300853 METAR KBLI 300853Z AUTO 15014G25KT 10SM -RA BKN035 OVC050 08/02 A3004 RMK AO2 PK WND 13030/0825 RAB21 SLP180 P0000 60000 T00830022 58019=
201011300753 METAR KBLI 300753Z AUTO 14016G28KT 10SM OVC065 08/02 A3006 RMK AO2 PK WND 17028/0746 SLP189 T00830017 400831011=
201011300653 METAR KBLI 300653Z AUTO 14018G28KT 10SM SCT038 OVC090 08/02 A3008 RMK AO2 PK WND 15028/0653 SLP194 T00780017=
201011300553 METAR KBLI 300553Z 13014G25KT 10SM OVC080 07/02 A3010 RMK AO2 PK WND 14030/0521 SLP200 60000 T00720017 10072 20056 56026=
201011300453 METAR KBLI 300453Z 15015G31KT 10SM BKN080 OVC100 07/02 A3012 RMK AO2 PK WND 13031/0450 RAE46 SLP209 P0000 T00670017=
201011300353 METAR KBLI 300353Z 13016G29KT 10SM -RA BKN031 OVC055 07/02 A3015 RMK AO2 PK WND 14030/0327 RAB37 SLP218 P0000 T00670017=
201011300253 METAR KBLI 300253Z 15013G23KT 10SM FEW033 OVC055 07/01 A3017 RMK AO2 SLP227 60000 T00670011 58021=
201011300153 METAR KBLI 300153Z 12013G18KT 10SM OVC049 06/02 A3019 RMK AO2 RAB0057E40 SLP233 P0000 T00610017=
201011300053 METAR KBLI 300053Z 11011G15KT 10SM FEW026 SCT034 OVC047 06/02 A3022 RMK AO2 RAE46 SLP243 P0000 T00560017=
201011292353 METAR KBLI 292353Z 12014G20KT 10SM -RA OVC031 06/01 A3024 RMK AO2 RAB2257E10B40 SLP248 P0000 60000 T00610011 10072 20033 56014=
201011292253 METAR KBLI 292253Z 13011KT 10SM BKN037 OVC044 07/00 A3024 RMK AO2 SLP251 T00670000=
201011292153 METAR KBLI 292153Z 13009KT 10SM SCT037 OVC050 07/01 A3025 RMK AO2 RAB31E41 SLP254 P0000 T00670006=
201011292053 METAR KBLI 292053Z 13008G18KT 10SM SCT035 OVC046 07/00 A3028 RMK AO2 SLP262 T00720000 58014=
201011291953 METAR KBLI 291953Z 04005KT 10SM FEW038 BKN050 04/01 A3029 RMK AO2 SLP267 T00440006=
201011291853 METAR KBLI 291853Z 03006KT 10SM BKN036 04/01 A3031 RMK AO2 SLP272 T00390006=
201011291753 METAR KBLI 291753Z 02003KT 10SM BKN032 03/00 A3032 RMK AO2 SLP276 T00330000 10033 21011 53002=
201011291653 METAR KBLI 291653Z 00000KT 10SM OVC029 02/M01 A3031 RMK AO2 SLP274 T00221006=
201011291553 METAR KBLI 291553Z 02004KT 10SM OVC029 01/M01 A3031 RMK AO2 SLP274 T00111006=
201011291453 METAR KBLI 291453Z 00000KT 10SM OVC029 01/M01 A3031 RMK AO2 SLP274 T00111006 50001=
201011291445 SPECI KBLI 291445Z AUTO 01003KT 10SM BKN029 OVC034 01/M01 A3031 RMK AO2=
201011291445 SPECI KBLI 291445Z AUTO 01003KT 10SM BKN029 OVC034 01/M01 A3031 RMK AO2=
201011291353 METAR KBLI 291353Z AUTO 00000KT 10SM BKN032 OVC047 01/M01 A3032 RMK AO2 SLP275 T00061011=
201011291253 METAR KBLI 291253Z AUTO 35003KT 10SM BKN038 01/M01 A3031 RMK AO2 SLP275 T00061011=
201011291153 METAR KBLI 291153Z AUTO 03003KT 5SM BR CLR M01/M02 A3031 RMK AO2 SLP274 70001 T10061017 10011 21006 50005=
201011291053 METAR KBLI 291053Z AUTO 00000KT 4SM BR SCT065 M01/M02 A3032 RMK AO2 SLP276 T10061017=
201011291038 SPECI KBLI 291038Z AUTO 00000KT 3SM BR OVC065 00/M01 A3032 RMK AO2=
201011291038 SPECI KBLI 291038Z AUTO 00000KT 3SM BR OVC065 00/M01 A3032 RMK AO2=
201011291027 SPECI KBLI 291027Z AUTO 00000KT 2SM BR OVC065 00/M01 A3032 RMK AO2=
201011291027 SPECI KBLI 291027Z AUTO 00000KT 2SM BR OVC065 00/M01 A3032 RMK AO2=
201011291019 SPECI KBLI 291019Z AUTO 00000KT 3/4SM R16/P6000FT BR BKN065 00/M01 A3032 RMK AO2=
201011291019 SPECI KBLI 291019Z AUTO 00000KT 3/4SM R16/P6000FT BR BKN065 00/M01 A3032 RMK AO2=
201011291008 SPECI KBLI 291008Z AUTO 00000KT 1 3/4SM R16/3500VP6000FT BR BKN065 00/M02 A3031 RMK AO2=
201011291008 SPECI KBLI 291008Z AUTO 00000KT 1 3/4SM R16/3500VP6000FT BR BKN065 00/M02 A3031 RMK AO2=
201011290953 METAR KBLI 290953Z AUTO 00000KT 4SM BR FEW065 00/M01 A3031 RMK AO2 SLP273 T00001011=
201011290853 METAR KBLI 290853Z AUTO 00000KT 4SM BR OVC065 01/00 A3030 RMK AO2 SLP269 T00110000 53013=
201011290753 METAR KBLI 290753Z AUTO 00000KT 5SM BR SCT025 OVC065 01/00 A3028 RMK AO2 SLP264 T00110000 400610000=
201011290653 METAR KBLI 290653Z AUTO 00000KT 5SM BR SCT020 BKN028 OVC065 01/00 A3026 RMK AO2 SLP257 T00110000=
201011290648 SPECI KBLI 290648Z AUTO 00000KT 4SM BR SCT020 BKN027 OVC065 01/M01 A3026 RMK AO2=
201011290648 SPECI KBLI 290648Z AUTO 00000KT 4SM BR SCT020 BKN027 OVC065 01/M01 A3026 RMK AO2=
201011290553 METAR KBLI 290553Z 00000KT 4SM BR OVC065 01/M01 A3025 RMK AO2 SLP253 T00061006 10050 20006 51014=
201011290544 SPECI KBLI 290544Z 00000KT 3SM BR BKN065 01/M01 A3025 RMK AO2=
201011290544 SPECI KBLI 290544Z 00000KT 3SM BR BKN065 01/M01 A3025 RMK AO2=
201011290536 SPECI KBLI 290536Z 00000KT 1 3/4SM BR BKN065 01/M01 A3025 RMK AO2=
201011290536 SPECI KBLI 290536Z 00000KT 1 3/4SM BR BKN065 01/M01 A3025 RMK AO2=
201011290521 SPECI KBLI 290521Z 00000KT 3SM BR FEW028 BKN065 01/M01 A3025 RMK AO2=
201011290521 SPECI KBLI 290521Z 00000KT 3SM BR FEW028 BKN065 01/M01 A3025 RMK AO2=
201011290514 SPECI KBLI 290514Z 00000KT 2 1/2SM BR FEW028 OVC065 01/00 A3025 RMK AO2=
201011290514 SPECI KBLI 290514Z 00000KT 2 1/2SM BR FEW028 OVC065 01/00 A3025 RMK AO2=
201011290453 METAR KBLI 290453Z 00000KT 8SM FEW028 BKN060 01/M01 A3024 RMK AO2 SLP251 T00061011=
201011290353 METAR KBLI 290353Z 00000KT 8SM OVC060 02/00 A3023 RMK AO2 SLP245 T00170000=
201011290253 METAR KBLI 290253Z 00000KT 6SM BR BKN065 02/01 A3021 RMK AO2 SLP240 T00170006 51017=
201011290153 METAR KBLI 290153Z 00000KT 10SM OVC060 02/01 A3020 RMK AO2 SLP236 T00220011=
201011290126 SPECI KBLI 290126Z 00000KT 10SM FEW025 BKN055 02/01 A3019 RMK AO2=
201011290126 SPECI KBLI 290126Z 00000KT 10SM FEW025 BKN055 02/01 A3019 RMK AO2=
201011290100 SPECI KBLI 290100Z 00000KT 10SM OVC023 02/01 A3018 RMK AO2=
201011290100 SPECI KBLI 290100Z 00000KT 10SM OVC023 02/01 A3018 RMK AO2=
201011290053 METAR KBLI 290053Z 00000KT 10SM SCT023 03/01 A3018 RMK AO2 SLP229 T00280011=
201011290012 SPECI KBLI 290012Z 00000KT 10SM SCT024 BKN055 04/01 A3017 RMK AO2=
201011290012 SPECI KBLI 290012Z 00000KT 10SM SCT024 BKN055 04/01 A3017 RMK AO2=
201011282353 METAR KBLI 282353Z 00000KT 10SM BKN020 05/01 A3016 RMK AO2 SLP223 T00500011 10061 20039 53017=
201011282337 SPECI KBLI 282337Z 18003KT 10SM BKN020 OVC055 05/01 A3016 RMK AO2=
201011282337 SPECI KBLI 282337Z 18003KT 10SM BKN020 OVC055 05/01 A3016 RMK AO2=
201011282253 METAR KBLI 282253Z 00000KT 10SM SCT016 BKN033 OVC055 06/02 A3014 RMK AO2 SLP215 T00560017=
201011282220 SPECI KBLI 282220Z 17005KT 10SM SCT016 BKN033 OVC055 06/02 A3013 RMK AO2=
201011282220 SPECI KBLI 282220Z 17005KT 10SM SCT016 BKN033 OVC055 06/02 A3013 RMK AO2=
201011282153 METAR KBLI 282153Z 17007KT 10SM BKN016 BKN026 OVC055 05/03 A3012 RMK AO2 SLP209 T00500028=
201011282110 SPECI KBLI 282110Z 18003KT 10SM BKN018 BKN026 OVC055 05/02 A3011 RMK AO2=
201011282110 SPECI KBLI 282110Z 18003KT 10SM BKN018 BKN026 OVC055 05/02 A3011 RMK AO2=
201011282053 METAR KBLI 282053Z 17005KT 10SM SCT018 OVC055 05/02 A3011 RMK AO2 SLP206 T00500022 51015=
201011281953 METAR KBLI 281953Z 16005KT 10SM FEW004 SCT016 OVC055 05/02 A3009 RMK AO2 SLP200 T00500017=
201011281944 SPECI KBLI 281944Z 16005KT 10SM FEW004 SCT016 OVC055 05/02 A3009 RMK AO2=
201011281944 SPECI KBLI 281944Z 16005KT 10SM FEW004 SCT016 OVC055 05/02 A3009 RMK AO2=
201011281853 METAR KBLI 281853Z 18004KT 10SM FEW011 SCT023 OVC055 05/02 A3009 RMK AO2 SLP198 T00500022=
201011281753 METAR KBLI 281753Z 18004KT 10SM FEW016 SCT024 OVC050 04/02 A3007 RMK AO2 RAB25E34 SLP191 P0000 60001 T00390022 10039 20028 51023=
201011281743 SPECI KBLI 281743Z 18003KT 10SM FEW016 SCT024 OVC050 04/02 A3006 RMK AO2 RAB25E34 P0000=
201011281743 SPECI KBLI 281743Z 18003KT 10SM FEW016 SCT024 OVC050 04/02 A3006 RMK AO2 RAB25E34 P0000=
201011281653 METAR KBLI 281653Z 00000KT 10SM FEW016 BKN024 OVC047 03/03 A3005 RMK AO2 RAB12E25 SLP185 P0000 T00330028=
201011281553 METAR KBLI 281553Z 00000KT 9SM BKN025 OVC034 03/02 A3002 RMK AO2 SLP176 T00280017=
201011281528 SPECI KBLI 281528Z 18003KT 9SM BKN025 OVC034 03/02 A3001 RMK AO2=
201011281528 SPECI KBLI 281528Z 18003KT 9SM BKN025 OVC034 03/02 A3001 RMK AO2=
201011281507 SPECI KBLI 281507Z 16003KT 10SM FEW020 OVC031 03/02 A3001 RMK AO2=
201011281507 SPECI KBLI 281507Z 16003KT 10SM FEW020 OVC031 03/02 A3001 RMK AO2=
201011281453 METAR KBLI 281453Z 17004KT 10SM BKN020 OVC027 03/02 A3000 RMK AO2 SLP168 60001 T00330022 53015=
201011281426 SPECI KBLI 281426Z AUTO 17003KT 10SM SCT019 BKN027 OVC038 03/02 A2999 RMK AO2=
201011281426 SPECI KBLI 281426Z AUTO 17003KT 10SM SCT019 BKN027 OVC038 03/02 A2999 RMK AO2=
201011281353 METAR KBLI 281353Z AUTO 17003KT 10SM FEW021 SCT032 OVC048 03/02 A2998 RMK AO2 RAB41E53 SLP162 P0000 T00330017=
201011281308 SPECI KBLI 281308Z AUTO 17003KT 10SM SCT017 BKN038 OVC045 03/02 A2998 RMK AO2=
201011281308 SPECI KBLI 281308Z AUTO 17003KT 10SM SCT017 BKN038 OVC045 03/02 A2998 RMK AO2=
201011281253 METAR KBLI 281253Z AUTO 19004KT 10SM BKN017 OVC040 03/02 A2997 RMK AO2 RAE13 SLP159 P0001 T00330017=
201011281241 SPECI KBLI 281241Z AUTO 00000KT 10SM FEW014 SCT019 OVC038 03/02 A2997 RMK AO2 RAE13 P0001=
201011281241 SPECI KBLI 281241Z AUTO 00000KT 10SM FEW014 SCT019 OVC038 03/02 A2997 RMK AO2 RAE13 P0001=
201011281231 SPECI KBLI 281231Z AUTO 19004KT 10SM BKN016 OVC036 03/02 A2997 RMK AO2 RAE13 P0001=
201011281231 SPECI KBLI 281231Z AUTO 19004KT 10SM BKN016 OVC036 03/02 A2997 RMK AO2 RAE13 P0001=
201011281202 SPECI KBLI 281202Z AUTO 16004KT 10SM -RA FEW020 SCT027 OVC036 03/02 A2996 RMK AO2 P0001=
201011281202 SPECI KBLI 281202Z AUTO 16004KT 10SM -RA FEW020 SCT027 OVC036 03/02 A2996 RMK AO2 P0001=
201011281153 METAR KBLI 281153Z AUTO 18004KT 8SM -RA FEW020 BKN027 OVC034 03/02 A2996 RMK AO2 SLP153 P0002 60002 70004 T00330022 10039 20011 53011=
201011281122 SPECI KBLI 281122Z AUTO 17004KT 6SM -RA BR SCT011 BKN020 OVC029 04/02 A2995 RMK AO2 P0001=
201011281122 SPECI KBLI 281122Z AUTO 17004KT 6SM -RA BR SCT011 BKN020 OVC029 04/02 A2995 RMK AO2 P0001=
201011281115 SPECI KBLI 281115Z AUTO 17004KT 5SM -RA BR BKN013 BKN018 OVC028 04/02 A2995 RMK AO2 P0001=
201011281115 SPECI KBLI 281115Z AUTO 17004KT 5SM -RA BR BKN013 BKN018 OVC028 04/02 A2995 RMK AO2 P0001=
201011281053 METAR KBLI 281053Z AUTO 19004KT 7SM -RA BKN015 BKN040 OVC070 03/02 A2994 RMK AO2 RAB53 SLP149 P0000 T00330022=
201011281025 SPECI KBLI 281025Z AUTO 00000KT 5SM BR FEW021 OVC040 03/02 A2993 RMK AO2=
201011281025 SPECI KBLI 281025Z AUTO 00000KT 5SM BR FEW021 OVC040 03/02 A2993 RMK AO2=
201011281017 SPECI KBLI 281017Z AUTO 00000KT 5SM BR FEW012 BKN024 OVC042 03/02 A2993 RMK AO2=
201011281017 SPECI KBLI 281017Z AUTO 00000KT 5SM BR FEW012 BKN024 OVC042 03/02 A2993 RMK AO2=
201011281001 SPECI KBLI 281001Z AUTO VRB03KT 3SM BR OVC014 03/02 A2993 RMK AO2=
201011281001 SPECI KBLI 281001Z AUTO VRB03KT 3SM BR OVC014 03/02 A2993 RMK AO2=
201011280953 METAR KBLI 280953Z AUTO 00000KT 2 1/2SM BR OVC014 02/01 A2992 RMK AO2 SLP142 T00220011=
201011280948 SPECI KBLI 280948Z AUTO 00000KT 2 1/2SM BR BKN014 OVC024 02/01 A2992 RMK AO2=
201011280948 SPECI KBLI 280948Z AUTO 00000KT 2 1/2SM BR BKN014 OVC024 02/01 A2992 RMK AO2=
201011280938 SPECI KBLI 280938Z AUTO 00000KT 1 3/4SM BR BKN014 BKN024 OVC075 01/01 A2992 RMK AO2=
201011280938 SPECI KBLI 280938Z AUTO 00000KT 1 3/4SM BR BKN014 BKN024 OVC075 01/01 A2992 RMK AO2=
201011280853 METAR KBLI 280853Z AUTO 00000KT 1 1/2SM BR OVC044 02/01 A2990 RMK AO2 SLP135 T00220011 51015=
201011280838 SPECI KBLI 280838Z AUTO 00000KT 1 1/2SM BR SCT031 OVC047 02/01 A2990 RMK AO2=
201011280838 SPECI KBLI 280838Z AUTO 00000KT 1 1/2SM BR SCT031 OVC047 02/01 A2990 RMK AO2=
201011280820 SPECI KBLI 280820Z AUTO 00000KT 2SM BR SCT027 BKN031 OVC047 02/01 A2990 RMK AO2=
201011280820 SPECI KBLI 280820Z AUTO 00000KT 2SM BR SCT027 BKN031 OVC047 02/01 A2990 RMK AO2=
201011280809 SPECI KBLI 280809Z AUTO 00000KT 2SM BR BKN025 BKN033 OVC047 02/01 A2990 RMK AO2=
201011280809 SPECI KBLI 280809Z AUTO 00000KT 2SM BR BKN025 BKN033 OVC047 02/01 A2990 RMK AO2=
201011280802 SPECI KBLI 280802Z AUTO 00000KT 1 1/2SM BR FEW025 SCT035 OVC047 02/01 A2990 RMK AO2=
201011280802 SPECI KBLI 280802Z AUTO 00000KT 1 1/2SM BR FEW025 SCT035 OVC047 02/01 A2990 RMK AO2=
201011280753 METAR KBLI 280753Z AUTO 00000KT 2SM BR BKN037 OVC047 02/01 A2989 RMK AO2 SLP132 T00170011 400671006=
201011280705 SPECI KBLI 280705Z AUTO 00000KT 3SM BR SCT005 OVC046 02/01 A2988 RMK AO2=
201011280705 SPECI KBLI 280705Z AUTO 00000KT 3SM BR SCT005 OVC046 02/01 A2988 RMK AO2=
201011280653 METAR KBLI 280653Z AUTO 00000KT 2 1/2SM BR SCT005 OVC046 02/01 A2988 RMK AO2 SLP126 T00220011=
201011280636 SPECI KBLI 280636Z AUTO 00000KT 3SM BR FEW016 OVC046 02/01 A2987 RMK AO2=
201011280636 SPECI KBLI 280636Z AUTO 00000KT 3SM BR FEW016 OVC046 02/01 A2987 RMK AO2=
201011280629 SPECI KBLI 280629Z AUTO 00000KT 3SM BR SCT014 BKN021 OVC046 02/01 A2987 RMK AO2=
201011280629 SPECI KBLI 280629Z AUTO 00000KT 3SM BR SCT014 BKN021 OVC046 02/01 A2987 RMK AO2=
201011280613 SPECI KBLI 280613Z AUTO 34003KT 2SM BR FEW004 BKN015 OVC042 02/01 A2987 RMK AO2=
201011280613 SPECI KBLI 280613Z AUTO 34003KT 2SM BR FEW004 BKN015 OVC042 02/01 A2987 RMK AO2=
201011280553 METAR KBLI 280553Z 00000KT 2 1/2SM BR FEW015 OVC042 02/01 A2986 RMK AO2 SLP120 60002 T00220011 10056 20017 53014=
201011280546 SPECI KBLI 280546Z 04003KT 2 1/2SM BR OVC042 02/01 A2986 RMK AO2=
201011280546 SPECI KBLI 280546Z 04003KT 2 1/2SM BR OVC042 02/01 A2986 RMK AO2=
201011280521 SPECI KBLI 280521Z 00000KT 4SM BR SCT012 OVC042 03/02 A2985 RMK AO2=
201011280521 SPECI KBLI 280521Z 00000KT 4SM BR SCT012 OVC042 03/02 A2985 RMK AO2=
201011280514 SPECI KBLI 280514Z 00000KT 4SM BR BKN012 OVC042 03/02 A2985 RMK AO2=
201011280514 SPECI KBLI 280514Z 00000KT 4SM BR BKN012 OVC042 03/02 A2985 RMK AO2=
201011280505 SPECI KBLI 280505Z 23003KT 2SM R16/5000VP6000FT BR BKN012 OVC040 02/01 A2985 RMK AO2=
201011280505 SPECI KBLI 280505Z 23003KT 2SM R16/5000VP6000FT BR BKN012 OVC040 02/01 A2985 RMK AO2=
201011280500 SPECI KBLI 280500Z 00000KT 1 1/2SM R16/4000VP6000FT BR SCT012 OVC040 02/01 A2985 RMK AO2=
201011280500 SPECI KBLI 280500Z 00000KT 1 1/2SM R16/4000VP6000FT BR SCT012 OVC040 02/01 A2985 RMK AO2=
201011280453 METAR KBLI 280453Z 00000KT 4SM BR OVC040 02/02 A2985 RMK AO2 SLP115 T00220017=
201011280436 SPECI KBLI 280436Z 00000KT 4SM R16/4000VP6000FT BR FEW026 OVC042 02/01 A2984 RMK AO2=
201011280436 SPECI KBLI 280436Z 00000KT 4SM R16/4000VP6000FT BR FEW026 OVC042 02/01 A2984 RMK AO2=
201011280422 SPECI KBLI 280422Z 00000KT 3/4SM R16/5500VP6000FT BR SCT026 OVC042 02/01 A2984 RMK AO2=
201011280422 SPECI KBLI 280422Z 00000KT 3/4SM R16/5500VP6000FT BR SCT026 OVC042 02/01 A2984 RMK AO2=
201011280417 SPECI KBLI 280417Z 00000KT 1 1/4SM BR BKN026 OVC042 02/02 A2984 RMK AO2=
201011280417 SPECI KBLI 280417Z 00000KT 1 1/4SM BR BKN026 OVC042 02/02 A2984 RMK AO2=
201011280410 SPECI KBLI 280410Z 00000KT 2SM BR BKN026 BKN034 BKN044 02/01 A2984 RMK AO2=
201011280410 SPECI KBLI 280410Z 00000KT 2SM BR BKN026 BKN034 BKN044 02/01 A2984 RMK AO2=
201011280353 METAR KBLI 280353Z 00000KT 5SM BR FEW028 SCT034 BKN048 03/02 A2983 RMK AO2 RAB0257E44 SLP110 P0002 T00280017=
201011280345 SPECI KBLI 280345Z 00000KT 5SM BR SCT029 BKN050 BKN055 03/02 A2982 RMK AO2 RAB0257E44 P0002=
201011280345 SPECI KBLI 280345Z 00000KT 5SM BR SCT029 BKN050 BKN055 03/02 A2982 RMK AO2 RAB0257E44 P0002=
201011280318 SPECI KBLI 280318Z 00000KT 4SM -RA BR FEW018 BKN023 OVC029 03/02 A2982 RMK AO2 RAB0257 P0001=
201011280318 SPECI KBLI 280318Z 00000KT 4SM -RA BR FEW018 BKN023 OVC029 03/02 A2982 RMK AO2 RAB0257 P0001=
201011280253 METAR KBLI 280253Z 30003KT 6SM BR FEW021 BKN042 OVC070 03/02 A2982 RMK AO2 RAB07E46 SLP107 P0000 60000 T00330017 53010=
201011280153 METAR KBLI 280153Z 00000KT 9SM FEW015 SCT024 OVC034 03/02 A2981 RMK AO2 SLP102 T00330017=
201011280123 SPECI KBLI 280123Z 00000KT 10SM SCT025 OVC032 03/02 A2980 RMK AO2=
201011280123 SPECI KBLI 280123Z 00000KT 10SM SCT025 OVC032 03/02 A2980 RMK AO2=
201011280053 METAR KBLI 280053Z 00000KT 10SM SCT018 BKN023 BKN030 04/02 A2979 RMK AO2 SLP096 T00390017=
201011272353 METAR KBLI 272353Z 17005KT 10SM FEW032 06/02 A2978 RMK AO2 SLP093 60000 T00560022 10067 20028 53003=
201011272253 METAR KBLI 272253Z 18005KT 10SM FEW070 06/02 A2977 RMK AO2 SLP090 T00610022=
201011272153 METAR KBLI 272153Z 17004KT 10SM FEW030 SCT060 BKN075 07/03 A2977 RMK AO2 RAB26E39 SLP090 P0000 T00670028=
201011272053 METAR KBLI 272053Z 15006KT 10SM FEW026 SCT044 OVC055 06/02 A2977 RMK AO2 SLP090 T00610022 56002=
201011272048 SPECI KBLI 272048Z 17006KT 10SM SCT026 SCT044 OVC055 06/02 A2977 RMK AO2=
201011272048 SPECI KBLI 272048Z 17006KT 10SM SCT026 SCT044 OVC055 06/02 A2977 RMK AO2=
201011271953 METAR KBLI 271953Z 00000KT 10SM OVC024 05/03 A2977 RMK AO2 SLP088 T00500028=
201011271853 METAR KBLI 271853Z 00000KT 10SM OVC022 04/02 A2978 RMK AO2 SLP092 T00390022=
201011271840 SPECI KBLI 271840Z 00000KT 10SM OVC022 04/02 A2978 RMK AO2=
201011271840 SPECI KBLI 271840Z 00000KT 10SM OVC022 04/02 A2978 RMK AO2=
201011271753 METAR KBLI 271753Z 00000KT 10SM FEW026 BKN060 03/01 A2977 RMK AO2 SLP091 T00280011 10028 21006 53011=
201011271653 METAR KBLI 271653Z 00000KT 10SM FEW026 BKN060 02/01 A2976 RMK AO2 SLP087 T00170006=
201011271603 SPECI KBLI 271603Z 00000KT 10SM SCT026 BKN060 OVC075 01/00 A2975 RMK AO2=
201011271603 SPECI KBLI 271603Z 00000KT 10SM SCT026 BKN060 OVC075 01/00 A2975 RMK AO2=
201011271553 METAR KBLI 271553Z 31003KT 10SM BKN026 BKN060 OVC075 00/M01 A2975 RMK AO2 SLP083 T00001011=
201011271453 METAR KBLI 271453Z 00000KT 7SM OVC085 01/M01 A2974 RMK AO2 SLP080 T00061006 53002=
201011271353 METAR KBLI 271353Z AUTO 00000KT 7SM OVC090 01/M01 A2974 RMK AO2 SLP079 T00061011=
201011271337 SPECI KBLI 271337Z AUTO 35003KT 3SM BR OVC090 00/M01 A2974 RMK AO2=
201011271337 SPECI KBLI 271337Z AUTO 35003KT 3SM BR OVC090 00/M01 A2974 RMK AO2=
201011271313 SPECI KBLI 271313Z AUTO 00000KT 1SM R16/2200VP6000FT BR OVC090 00/M01 A2974 RMK AO2=
201011271313 SPECI KBLI 271313Z AUTO 00000KT 1SM R16/2200VP6000FT BR OVC090 00/M01 A2974 RMK AO2=
201011271308 SPECI KBLI 271308Z AUTO 00000KT 1/2SM R16/2200VP6000FT FG OVC090 01/M01 A2974 RMK AO2=
201011271308 SPECI KBLI 271308Z AUTO 00000KT 1/2SM R16/2200VP6000FT FG OVC090 01/M01 A2974 RMK AO2=
201011271301 SPECI KBLI 271301Z AUTO 00000KT 1 3/4SM BR OVC090 00/M02 A2974 RMK AO2=
201011271301 SPECI KBLI 271301Z AUTO 00000KT 1 3/4SM BR OVC090 00/M02 A2974 RMK AO2=
201011271253 METAR KBLI 271253Z AUTO 00000KT 7SM OVC090 01/00 A2974 RMK AO2 SLP079 T00060000=
201011271249 SPECI KBLI 271249Z AUTO 00000KT 9SM OVC090 02/01 A2974 RMK AO2=
201011271249 SPECI KBLI 271249Z AUTO 00000KT 9SM OVC090 02/01 A2974 RMK AO2=
201011271240 SPECI KBLI 271240Z AUTO 00000KT 2 1/2SM BR OVC090 02/01 A2974 RMK AO2=
201011271240 SPECI KBLI 271240Z AUTO 00000KT 2 1/2SM BR OVC090 02/01 A2974 RMK AO2=
201011271153 METAR KBLI 271153Z AUTO 13003KT 10SM CLR 02/00 A2974 RMK AO2 SLP080 70021 T00170000 10050 20006 58010=
201011271141 SPECI KBLI 271141Z AUTO 00000KT 3SM BR CLR 01/00 A2974 RMK AO2=
201011271141 SPECI KBLI 271141Z AUTO 00000KT 3SM BR CLR 01/00 A2974 RMK AO2=
201011271129 SPECI KBLI 271129Z AUTO 00000KT 1 3/4SM BR FEW034 01/00 A2975 RMK AO2 VIS 1V4=
201011271129 SPECI KBLI 271129Z AUTO 00000KT 1 3/4SM BR FEW034 01/00 A2975 RMK AO2 VIS 1V4=
201011271124 SPECI KBLI 271124Z AUTO 00000KT 3SM BR FEW027 SCT036 02/00 A2975 RMK AO2=
201011271124 SPECI KBLI 271124Z AUTO 00000KT 3SM BR FEW027 SCT036 02/00 A2975 RMK AO2=
201011271115 SPECI KBLI 271115Z AUTO 00000KT 2 1/2SM BR FEW027 BKN036 02/01 A2975 RMK AO2 VIS 1 1/2V5=
201011271115 SPECI KBLI 271115Z AUTO 00000KT 2 1/2SM BR FEW027 BKN036 02/01 A2975 RMK AO2 VIS 1 1/2V5=
201011271053 METAR KBLI 271053Z AUTO 00000KT 9SM SCT025 BKN040 BKN050 02/01 A2976 RMK AO2 SLP087 T00220006=
201011270953 METAR KBLI 270953Z AUTO 16004KT 10SM BKN049 03/02 A2977 RMK AO2 SLP087 T00330017=
201011270929 SPECI KBLI 270929Z AUTO 15005KT 10SM SCT020 04/02 A2977 RMK AO2=
201011270929 SPECI KBLI 270929Z AUTO 15005KT 10SM SCT020 04/02 A2977 RMK AO2=
201011270916 SPECI KBLI 270916Z AUTO 15003KT 10SM BKN020 03/02 A2977 RMK AO2=
201011270916 SPECI KBLI 270916Z AUTO 15003KT 10SM BKN020 03/02 A2977 RMK AO2=
201011270853 METAR KBLI 270853Z AUTO 17004KT 10SM SCT060 04/02 A2977 RMK AO2 SLP089 T00440022 50001=
201011270753 METAR KBLI 270753Z AUTO 00000KT 10SM FEW017 OVC060 03/02 A2979 RMK AO2 SLP095 T00330017 400890011=
201011270653 METAR KBLI 270653Z AUTO 08003KT 10SM FEW039 SCT070 03/01 A2978 RMK AO2 SLP093 T00280011=
201011270553 METAR KBLI 270553Z 15003KT 10SM OVC080 05/02 A2977 RMK AO2 RAE05 SLP088 P0000 60013 T00500022 10083 20050 53000=
201011270453 METAR KBLI 270453Z 15011KT 9SM -RA FEW015 OVC031 06/03 A2976 RMK AO2 SLP086 P0010 T00610033=
201011270449 SPECI KBLI 270449Z 15011KT 7SM -RA FEW015 SCT024 OVC028 06/03 A2976 RMK AO2 P0010=
201011270449 SPECI KBLI 270449Z 15011KT 7SM -RA FEW015 SCT024 OVC028 06/03 A2976 RMK AO2 P0010=
201011270440 SPECI KBLI 270440Z 17010G19KT 2SM RA BR SCT015 OVC022 06/04 A2976 RMK AO2 P0009=
201011270440 SPECI KBLI 270440Z 17010G19KT 2SM RA BR SCT015 OVC022 06/04 A2976 RMK AO2 P0009=
201011270353 METAR KBLI 270353Z 17011G21KT 6SM -RA OVC021 07/04 A2977 RMK AO2 PK WND 17031/0259 RAB0258 SLP088 P0003 T00670039=
201011270253 METAR KBLI 270253Z 16012G24KT 10SM BKN023 OVC030 08/03 A2975 RMK AO2 PK WND 14033/0221 SLP083 60000 T00830033 55011=
201011270153 METAR KBLI 270153Z 15013G20KT 10SM OVC028 08/03 A2975 RMK AO2 PK WND 14028/0123 SLP082 T00780033=
201011270053 METAR KBLI 270053Z 15010G19KT 10SM OVC025 08/03 A2976 RMK AO2 RAE52 SLP085 P0000 T00780033=
201011262353 METAR KBLI 262353Z 16010KT 8SM -RA BKN027 OVC037 08/04 A2979 RMK AO2 RAB28 SLP094 P0001 60001 T00780039 10083 20067 56018=
201011262253 METAR KBLI 262253Z 16009KT 10SM OVC027 08/03 A2980 RMK AO2 SLP098 T00830033=
201011262153 METAR KBLI 262153Z 15012KT 10SM OVC025 08/03 A2980 RMK AO2 SLP099 T00830033=
201011262053 METAR KBLI 262053Z 13010KT 10SM BKN019 OVC029 08/04 A2984 RMK AO2 SLP113 60000 T00780039 58019=
201011262001 SPECI KBLI 262001Z 13013KT 10SM BKN019 BKN023 BKN041 07/04 A2987 RMK AO2=
201011262001 SPECI KBLI 262001Z 13013KT 10SM BKN019 BKN023 BKN041 07/04 A2987 RMK AO2=
201011261953 METAR KBLI 261953Z 13010KT 10SM SCT019 SCT023 BKN041 07/04 A2987 RMK AO2 SLP122 T00720039=
201011261853 METAR KBLI 261853Z 16006KT 10SM SCT016 BKN033 OVC080 07/03 A2990 RMK AO2 RAE23 SLP136 P0000 T00670033=
201011261753 METAR KBLI 261753Z 15012G16KT 10SM -RA SCT016 BKN070 OVC090 07/03 A2990 RMK AO2 RAB13E24B52 SLP133 P0000 60007 T00670033 10083 20056 51018=
201011261653 METAR KBLI 261653Z 15011KT 10SM FEW010 SCT060 OVC075 07/03 A2988 RMK AO2 SLP128 T00670033=
201011261553 METAR KBLI 261553Z 15012KT 10SM OVC075 06/03 A2987 RMK AO2 PK WND 16028/1504 SLP124 T00610028=
201011261453 METAR KBLI 261453Z 16017G25KT 10SM OVC027 06/03 A2984 RMK AO2 PK WND 16027/1436 RAE25 SLP114 P0000 60007 T00610028 53020=
201011261353 METAR KBLI 261353Z AUTO 17016G26KT 7SM -RA SCT019 BKN024 OVC036 06/03 A2983 RMK AO2 PK WND 16034/1305 SLP109 P0003 T00610033=
201011261253 METAR KBLI 261253Z AUTO 16024G37KT 3SM -RA BKN023 OVC032 07/03 A2978 RMK AO2 PK WND 16044/1206 RAB29 SLP095 P0004 T00670028=
201011261248 SPECI KBLI 261248Z AUTO 16026G42KT 3SM RA BKN025 OVC036 07/03 A2978 RMK AO2 PK WND 16044/1206 RAB29 P0003=
201011261248 SPECI KBLI 261248Z AUTO 16026G42KT 3SM RA BKN025 OVC036 07/03 A2978 RMK AO2 PK WND 16044/1206 RAB29 P0003=
201011261153 METAR KBLI 261153Z AUTO 15027G41KT 10SM SCT029 BKN060 OVC090 08/02 A2974 RMK AO2 PK WND 14051/1122 RAB35E51 SLP079 P0000 60000 70016 T00830022 10089 20011 56031=
201011261053 METAR KBLI 261053Z AUTO 16027G40KT 10SM BKN085 OVC100 08/01 A2975 RMK AO2 PK WND 14045/1038 RAB17E28 SLP085 P0000 T00780011=
201011260953 METAR KBLI 260953Z AUTO 14021G37KT 10SM OVC080 08/01 A2980 RMK AO2 PK WND 14037/0951 SLP101 T00780006=
201011260853 METAR KBLI 260853Z AUTO 14024G30KT 10SM BKN037 BKN049 07/01 A2983 RMK AO2 PK WND 14030/0852 PRESFR SLP110 T00720006 58038=
201011260753 METAR KBLI 260753Z AUTO 36004KT 10SM OVC047 02/M01 A2989 RMK AO2 PRESFR SLP131 T00171006 400611044=
201011260653 METAR KBLI 260653Z AUTO 00000KT 10SM OVC045 02/M01 A2993 RMK AO2 SLP145 T00171006=
201011260553 METAR KBLI 260553Z 02007KT 10SM BKN037 BKN049 OVC100 01/M01 A2994 RMK AO2 SLP149 T00111011 10061 21006 56043=
201011260533 SPECI KBLI 260533Z 13012G18KT 10SM SCT026 OVC100 06/02 A2996 RMK AO2=
201011260533 SPECI KBLI 260533Z 13012G18KT 10SM SCT026 OVC100 06/02 A2996 RMK AO2=
201011260453 METAR KBLI 260453Z VRB04KT 10SM OVC024 01/M01 A2998 RMK AO2 SLP161 T00111006=
201011260353 METAR KBLI 260353Z 02004KT 10SM OVC020 01/M01 A3003 RMK AO2 SLP181 T00061011=
201011260253 METAR KBLI 260253Z 01005KT 10SM OVC020 01/M02 A3007 RMK AO2 SLP193 T00061017 58019=
201011260153 METAR KBLI 260153Z 02004KT 10SM OVC018 00/M02 A3009 RMK AO2 SLP198 T00001017=
201011260053 METAR KBLI 260053Z 01003KT 8SM OVC016 M01/M02 A3011 RMK AO2 SLP206 T10061022=
201011252353 METAR KBLI 252353Z 01004KT 7SM OVC016 M01/M02 A3012 RMK AO2 UPB05E21 SLP211 P0000 60008 T10061022 11006 21022 56018=
201011252253 METAR KBLI 252253Z 35003KT 7SM OVC018 M01/M03 A3014 RMK AO2 FZRAE09 SLP216 P0000 T10111028=
201011252215 SPECI KBLI 252215Z 36007KT 7SM OVC020 M01/M03 A3015 RMK AO2 FZRAE09 P0000=
201011252215 SPECI KBLI 252215Z 36007KT 7SM OVC020 M01/M03 A3015 RMK AO2 FZRAE09 P0000=
201011252153 METAR KBLI 252153Z 01006KT 5SM -FZRA BR OVC020 M01/M03 A3015 RMK AO2 UPB38E41FZRAB37E38B41SNE37 SLP220 P0002 T10111028=
201011252141 SPECI KBLI 252141Z 36006KT 5SM -FZRA BR FEW011 OVC022 M01/M03 A3016 RMK AO2 UPB38E41FZRAB37E38B41SNE37 P0001=
201011252141 SPECI KBLI 252141Z 36006KT 5SM -FZRA BR FEW011 OVC022 M01/M03 A3016 RMK AO2 UPB38E41FZRAB37E38B41SNE37 P0001=
201011252119 SPECI KBLI 252119Z 02008KT 3SM -SN BR BKN009 OVC022 M01/M03 A3017 RMK AO2 P0001=
201011252119 SPECI KBLI 252119Z 02008KT 3SM -SN BR BKN009 OVC022 M01/M03 A3017 RMK AO2 P0001=
201011252053 METAR KBLI 252053Z 03007KT 1 3/4SM -SN BR BKN009 OVC020 M01/M03 A3018 RMK AO2 SLP230 P0002 60006 T10111028 58027=
201011252015 SPECI KBLI 252015Z 02005KT 1SM R16/6000VP6000FT -SN BR OVC009 M01/M03 A3020 RMK AO2 P0002=
201011252015 SPECI KBLI 252015Z 02005KT 1SM R16/6000VP6000FT -SN BR OVC009 M01/M03 A3020 RMK AO2 P0002=
201011251953 METAR KBLI 251953Z 01007KT 1 1/2SM -SN BR OVC011 M01/M03 A3021 RMK AO2 SLP241 P0001 T10111033=
201011251853 METAR KBLI 251853Z 02007KT 1SM R16/P6000FT -SN BR BKN013 OVC020 M02/M03 A3024 RMK AO2 SLP251 P0003 T10171033=
201011251842 SPECI KBLI 251842Z 02006KT 1SM R16/P6000FT -SN BR OVC013 M02/M03 A3025 RMK AO2 P0002=
201011251842 SPECI KBLI 251842Z 02006KT 1SM R16/P6000FT -SN BR OVC013 M02/M03 A3025 RMK AO2 P0002=
201011251753 METAR KBLI 251753Z 02006KT 3/4SM R16/4500VP6000FT -SN BR SCT007 BKN012 OVC020 M02/M04 A3026 RMK AO2 SLP258 P0002 60008 T10221039 11022 21044 58010=
201011251738 SPECI KBLI 251738Z 03007KT 3/4SM R16/4500V5500FT -SN BR BKN007 BKN015 OVC021 M02/M04 A3026 RMK AO2 P0002=
201011251738 SPECI KBLI 251738Z 03007KT 3/4SM R16/4500V5500FT -SN BR BKN007 BKN015 OVC021 M02/M04 A3026 RMK AO2 P0002=
201011251726 SPECI KBLI 251726Z 03007KT 1/2SM R16/4500V6000FT SN FZFG BKN007 OVC018 M02/M04 A3026 RMK AO2 P0001=
201011251726 SPECI KBLI 251726Z 03007KT 1/2SM R16/4500V6000FT SN FZFG BKN007 OVC018 M02/M04 A3026 RMK AO2 P0001=
201011251659 SPECI KBLI 251659Z 02007KT 1/2SM R16/5500VP6000FT -SN FZFG FEW009 OVC017 M03/M04 A3028 RMK AO2 P0000=
201011251659 SPECI KBLI 251659Z 02007KT 1/2SM R16/5500VP6000FT -SN FZFG FEW009 OVC017 M03/M04 A3028 RMK AO2 P0000=
201011251653 METAR KBLI 251653Z 02007KT 3/4SM R16/P6000FT -SN BR FEW007 BKN013 OVC020 M03/M04 A3028 RMK AO2 SLP264 P0001 T10281044=
201011251624 SPECI KBLI 251624Z 02006KT 3/4SM R16/P6000FT -SN BR FEW007 BKN013 OVC020 M03/M05 A3028 RMK AO2 P0000=
201011251624 SPECI KBLI 251624Z 02006KT 3/4SM R16/P6000FT -SN BR FEW007 BKN013 OVC020 M03/M05 A3028 RMK AO2 P0000=
201011251553 METAR KBLI 251553Z 03006KT 1 1/4SM -SN BR FEW009 BKN019 OVC025 M03/M05 A3028 RMK AO2 SLP265 P0001 T10331050=
201011251510 SPECI KBLI 251510Z 02008KT 3/4SM R16/P6000FT -SN BR BKN007 OVC023 M04/M06 A3029 RMK AO2 P0000=
201011251510 SPECI KBLI 251510Z 02008KT 3/4SM R16/P6000FT -SN BR BKN007 OVC023 M04/M06 A3029 RMK AO2 P0000=
201011251501 SPECI KBLI 251501Z 02007KT 1SM R16/P6000FT -SN BR BKN009 OVC023 M04/M06 A3029 RMK AO2 P0000=
201011251501 SPECI KBLI 251501Z 02007KT 1SM R16/P6000FT -SN BR BKN009 OVC023 M04/M06 A3029 RMK AO2 P0000=
201011251453 METAR KBLI 251453Z 02006KT 1SM R16/P6000FT -SN BR FEW013 OVC023 M04/M06 A3029 RMK AO2 SNB48 SLP267 P0003 60004 T10391056 56016=
201011251353 METAR KBLI 251353Z AUTO 02005KT 1 1/2SM BR OVC015 M04/M06 A3030 RMK AO2 SLP271 P0001 T10391061=
201011251253 METAR KBLI 251253Z AUTO 01005KT 1 3/4SM BR BKN017 OVC035 M04/M06 A3031 RMK AO2 SLP276 T10391061=
201011251235 SPECI KBLI 251235Z AUTO 02005KT 1 1/2SM BR BKN021 OVC036 M04/M06 A3032 RMK AO2=
201011251235 SPECI KBLI 251235Z AUTO 02005KT 1 1/2SM BR BKN021 OVC036 M04/M06 A3032 RMK AO2=
201011251226 SPECI KBLI 251226Z AUTO 02005KT 1 3/4SM BR SCT027 BKN038 OVC050 M04/M06 A3032 RMK AO2=
201011251226 SPECI KBLI 251226Z AUTO 02005KT 1 3/4SM BR SCT027 BKN038 OVC050 M04/M06 A3032 RMK AO2=
201011251153 METAR KBLI 251153Z AUTO 02005KT 2SM BR BKN022 OVC034 M04/M06 A3033 RMK AO2 SLP283 P0001 60001 70001 T10391061 11028 21044 58009=
201011251139 SPECI KBLI 251139Z AUTO 02005KT 2SM BR OVC022 M04/M06 A3034 RMK AO2 P0001=
201011251139 SPECI KBLI 251139Z AUTO 02005KT 2SM BR OVC022 M04/M06 A3034 RMK AO2 P0001=
201011251126 SPECI KBLI 251126Z AUTO 03004KT 1 3/4SM BR OVC020 M04/M06 A3034 RMK AO2 P0001=
201011251126 SPECI KBLI 251126Z AUTO 03004KT 1 3/4SM BR OVC020 M04/M06 A3034 RMK AO2 P0001=
201011251118 SPECI KBLI 251118Z AUTO 02006KT 1 1/2SM BR OVC014 M04/M06 A3035 RMK AO2 P0001=
201011251118 SPECI KBLI 251118Z AUTO 02006KT 1 1/2SM BR OVC014 M04/M06 A3035 RMK AO2 P0001=
201011251106 SPECI KBLI 251106Z AUTO 02005KT 3/4SM R16/6000VP6000FT BR VV011 M04/M06 A3035 RMK AO2=
201011251106 SPECI KBLI 251106Z AUTO 02005KT 3/4SM R16/6000VP6000FT BR VV011 M04/M06 A3035 RMK AO2=
201011251053 METAR KBLI 251053Z AUTO 02006KT 1 1/2SM HZ BKN018 OVC045 M04/M07 A3035 RMK AO2 SLP289 T10391067=
201011251049 SPECI KBLI 251049Z AUTO 02006KT 1 3/4SM BR BKN020 OVC045 M04/M06 A3035 RMK AO2=
201011251049 SPECI KBLI 251049Z AUTO 02006KT 1 3/4SM BR BKN020 OVC045 M04/M06 A3035 RMK AO2=
201011251039 SPECI KBLI 251039Z AUTO 01007KT 3SM HZ BKN024 OVC047 M04/M07 A3035 RMK AO2=
201011251039 SPECI KBLI 251039Z AUTO 01007KT 3SM HZ BKN024 OVC047 M04/M07 A3035 RMK AO2=
201011251024 SPECI KBLI 251024Z AUTO 03005KT 2SM HZ BKN018 OVC048 M04/M07 A3035 RMK AO2=
201011251024 SPECI KBLI 251024Z AUTO 03005KT 2SM HZ BKN018 OVC048 M04/M07 A3035 RMK AO2=
201011251000 SPECI KBLI 251000Z AUTO 03007KT 1 1/2SM HZ BKN014 OVC029 M04/M08 A3036 RMK AO2=
201011251000 SPECI KBLI 251000Z AUTO 03007KT 1 1/2SM HZ BKN014 OVC029 M04/M08 A3036 RMK AO2=
201011250953 METAR KBLI 250953Z AUTO 02006KT 2SM HZ BKN014 OVC029 M03/M09 A3036 RMK AO2 SLP291 T10331089=
201011250853 METAR KBLI 250853Z AUTO 01004KT 10SM OVC029 M03/M11 A3036 RMK AO2 SLP292 T10331106 50002=
201011250833 SPECI KBLI 250833Z AUTO 02004KT 10SM OVC029 M03/M11 A3036 RMK AO2=
201011250833 SPECI KBLI 250833Z AUTO 02004KT 10SM OVC029 M03/M11 A3036 RMK AO2=
201011250753 METAR KBLI 250753Z AUTO 36003KT 10SM BKN031 OVC043 M03/M11 A3037 RMK AO2 SLP296 T10331106 410221111=
201011250653 METAR KBLI 250653Z AUTO 02003KT 10SM OVC043 M03/M11 A3036 RMK AO2 SLP291 T10331111=
201011250553 METAR KBLI 250553Z 01004KT 10SM OVC043 M03/M12 A3035 RMK AO2 SLP290 T10331117 11022 21033 53002=
201011250453 METAR KBLI 250453Z 01003KT 10SM OVC041 M03/M12 A3035 RMK AO2 SLP287 T10331117=
201011250353 METAR KBLI 250353Z 02003KT 10SM OVC039 M03/M12 A3034 RMK AO2 SLP287 T10331117=
201011250253 METAR KBLI 250253Z 04004KT 10SM OVC039 M03/M12 A3035 RMK AO2 SLP288 T10331122 53001=
201011250153 METAR KBLI 250153Z AUTO 04004KT 10SM BKN042 OVC050 M03/M12 A3034 RMK AO2 SLP286 T10281122 TSNO=
201011250053 METAR KBLI 250053Z AUTO 05004KT 10SM OVC046 M03/M12 A3034 RMK AO2 SLP286 T10281117 TSNO=
201011242353 METAR KBLI 242353Z AUTO 03005KT 10SM OVC050 M02/M12 A3035 RMK AO2 SLP288 T10221117 11022 21050 53004 TSNO=
201011242253 METAR KBLI 242253Z 02005KT 10SM OVC055 M02/M12 A3034 RMK AO2 SLP285 T10221117=
201011242153 METAR KBLI 242153Z 05004KT 10SM BKN060 M02/M12 A3034 RMK AO2 SLP286 T10221122=
201011242053 METAR KBLI 242053Z 02005KT 10SM FEW041 SCT049 OVC055 M02/M12 A3033 RMK AO2 SLP283 T10221117 55001=
201011241953 METAR KBLI 241953Z 35004KT 10SM BKN060 M03/M12 A3033 RMK AO2 SLP281 T10281117=
201011241853 METAR KBLI 241853Z 36003KT 10SM R16/0400VP6000FT OVC060 M04/M12 A3032 RMK AO2 SLP280 T10391117=
201011241753 METAR KBLI 241753Z 01004KT 10SM OVC060 M05/M12 A3034 RMK AO2 SLP285 T10501117 11050 21083 53011=
201011241653 METAR KBLI 241653Z 03005KT 10SM OVC060 M06/M12 A3032 RMK AO2 SLP281 T10611117=
201011241553 METAR KBLI 241553Z 02003KT 10SM OVC055 M07/M12 A3031 RMK AO2 SLP276 T10671117=
201011241453 METAR KBLI 241453Z 02005KT 10SM BKN050 OVC060 M07/M12 A3030 RMK AO2 SLP274 T10721117 53009=
201011241353 METAR KBLI 241353Z AUTO 03003KT 10SM BKN060 OVC110 M07/M12 A3029 RMK AO2 SLP269 T10721117=
201011241253 METAR KBLI 241253Z AUTO 02003KT 10SM BKN050 OVC110 M07/M12 A3028 RMK AO2 SLP267 T10721122=
201011241153 METAR KBLI 241153Z AUTO 36003KT 10SM OVC050 M08/M12 A3028 RMK AO2 SLP265 T10831122 11083 21111 53010=
201011241053 METAR KBLI 241053Z AUTO 00000KT 10SM OVC110 M09/M13 A3026 RMK AO2 SLP259 T10941133=
201011240953 METAR KBLI 240953Z AUTO 00000KT 10SM SCT120 M11/M14 A3025 RMK AO2 SLP254 T11061144=
201011240853 METAR KBLI 240853Z AUTO 00000KT 10SM CLR M11/M15 A3025 RMK AO2 SLP255 T11061150 51012=
201011240753 METAR KBLI 240753Z AUTO 00000KT 10SM FEW120 M10/M15 A3024 RMK AO2 SLP252 T11001150 410391106=
201011240653 METAR KBLI 240653Z AUTO 00000KT 10SM CLR M09/M14 A3023 RMK AO2 SLP248 T10941144=
201011240553 METAR KBLI 240553Z 00000KT 10SM CLR M09/M16 A3021 RMK AO2 SLP243 T10941161 11056 21106 53013=
201011240453 METAR KBLI 240453Z 00000KT 10SM CLR M10/M17 A3020 RMK AO2 SLP238 T11001172=
201011240353 METAR KBLI 240353Z 02003KT 10SM CLR M09/M18 A3018 RMK AO2 SLP233 T10941178=
201011240253 METAR KBLI 240253Z 02003KT 10SM CLR M09/M18 A3017 RMK AO2 SLP230 T10891178 53008=
201011240153 METAR KBLI 240153Z 36005KT 10SM CLR M08/M19 A3016 RMK AO2 SLP226 T10781194=
201011240053 METAR KBLI 240053Z 36004KT 10SM CLR M07/M20 A3015 RMK AO2 SLP223 T10721200=
201011232353 METAR KBLI 232353Z 01007KT 10SM CLR M06/M21 A3015 RMK AO2 SLP222 T10561206 11039 21067 53008=
201011232253 METAR KBLI 232253Z 01009KT 10SM CLR M04/M22 A3014 RMK AO2 SLP217 T10391217=
201011232153 METAR KBLI 232153Z 01010G15KT 10SM CLR M04/M22 A3013 RMK AO2 SLP215 T10391217=
201011232053 METAR KBLI 232053Z 02009KT 10SM CLR M04/M22 A3013 RMK AO2 SLP213 T10391217 53001=
201011231953 METAR KBLI 231953Z 02011KT 10SM CLR M04/M22 A3012 RMK AO2 SLP211 T10441222=
201011231853 METAR KBLI 231853Z 03015G22KT 10SM CLR M06/M22 A3012 RMK AO2 SLP211 T10611222=
201011231753 METAR KBLI 231753Z 02015G20KT 10SM CLR M07/M23 A3012 RMK AO2 SLP213 T10721228 11067 21094 51010=
201011231653 METAR KBLI 231653Z 03015G24KT 10SM CLR M08/M23 A3011 RMK AO2 SLP208 T10831228=
201011231553 METAR KBLI 231553Z 04012G18KT 10SM CLR M09/M23 A3011 RMK AO2 PK WND 04028/1505 SLP207 T10891228=
201011231453 METAR KBLI 231453Z 04019G26KT 10SM FEW095 M09/M23 A3009 RMK AO2 PK WND 02034/1409 SLP202 T10891228 53031=
201011231353 METAR KBLI 231353Z AUTO 02017G25KT 10SM CLR M09/M22 A3006 RMK AO2 PK WND 03034/1307 SLP193 T10891222=
201011231253 METAR KBLI 231253Z AUTO 01022G35KT 10SM FEW075 M08/M22 A3000 RMK AO2 PK WND 02040/1212 SLP173 T10831217=
201011231153 METAR KBLI 231153Z AUTO 02021G35KT 10SM CLR M08/M22 A3000 RMK AO2 PK WND 02039/1105 SLP171 T10831217 11067 21083 51030=
201011231053 METAR KBLI 231053Z AUTO 01023G34KT 10SM CLR M08/M22 A2998 RMK AO2 PK WND 01043/0958 SLP162 T10781217=
201011230953 METAR KBLI 230953Z AUTO 02025G39KT 10SM FEW070 M08/M21 A2994 RMK AO2 PK WND 36044/0926 SLP150 T10781211=
201011230853 METAR KBLI 230853Z AUTO 02030G40KT 10SM CLR M07/M21 A2991 RMK AO2 PK WND 01043/0826 SLP140 T10721206 53034=
201011230753 METAR KBLI 230753Z AUTO 02026G39KT 10SM OVC070 M07/M20 A2987 RMK AO2 PK WND 02045/0740 SLP126 T10721200 410441072=
201011230653 METAR KBLI 230653Z AUTO 02023G47KT 10SM OVC060 M07/M19 A2983 RMK AO2 PK WND 02054/0614 SLP113 T10671194=
201011230553 METAR KBLI 230553Z 02028G43KT 10SM BKN055 OVC070 M07/M19 A2981 RMK AO2 PK WND 02049/0509 SLP106 T10671189 11056 21067 51037=
201011230453 METAR KBLI 230453Z 02029G46KT 10SM OVC055 M06/M19 A2977 RMK AO2 PK WND 03048/0436 SLP092 T10611194=
201011230353 METAR KBLI 230353Z 02027G44KT 10SM OVC046 M06/M19 A2974 RMK AO2 PK WND 03049/0328 SLP083 T10611189=
201011230253 METAR KBLI 230253Z 02026G40KT 10SM OVC050 M06/M19 A2970 RMK AO2 PK WND 03048/0222 SLP068 T10611189 53014=
201011230153 METAR KBLI 230153Z 02029G48KT 10SM OVC055 M06/M19 A2968 RMK AO2 PK WND 03056/0103 SLP062 T10611189=
201011230053 METAR KBLI 230053Z 02031G46KT 10SM BKN070 OVC090 M06/M19 A2967 RMK AO2 PK WND 03050/0039 SLP056 T10611189=
201011222353 METAR KBLI 222353Z 02027G41KT 10SM BKN065 OVC080 M06/M18 A2966 RMK AO2 PK WND 04047/2322 SLP054 T10561183 11044 21056 55004=
201011222253 METAR KBLI 222253Z 02032G42KT 10SM BKN050 M05/M18 A2966 RMK AO2 PK WND 02043/2240 SLP053 T10501183=
201011222153 METAR KBLI 222153Z 03027G42KT 10SM OVC042 M05/M18 A2967 RMK AO2 PK WND 02042/2148 SLP057 T10501178=
201011222053 METAR KBLI 222053Z 02022G42KT 10SM OVC040 M04/M17 A2967 RMK AO2 PK WND 03042/2044 SLP059 T10441172 58036=
201011222015 SPECI KBLI 222015Z 02025G38KT 10SM OVC034 M04/M17 A2970 RMK AO2 PK WND 03039/1959=
201011222015 SPECI KBLI 222015Z 02025G38KT 10SM OVC034 M04/M17 A2970 RMK AO2 PK WND 03039/1959=
201011221953 METAR KBLI 221953Z 03023G33KT 10SM OVC026 M04/M17 A2971 RMK AO2 PK WND 01035/1931 SLP071 T10441167=
201011221853 METAR KBLI 221853Z 03020G27KT 10SM OVC026 M04/M17 A2976 RMK AO2 PK WND 04028/1811 SLP087 T10441172=
201011221842 SPECI KBLI 221842Z 03016G27KT 10SM OVC030 M04/M17 A2976 RMK AO2 PK WND 04028/1811=
201011221842 SPECI KBLI 221842Z 03016G27KT 10SM OVC030 M04/M17 A2976 RMK AO2 PK WND 04028/1811=
201011221835 SPECI KBLI 221835Z 03018G24KT 10SM OVC028 M04/M17 A2976 RMK AO2 PK WND 04028/1811=
201011221835 SPECI KBLI 221835Z 03018G24KT 10SM OVC028 M04/M17 A2976 RMK AO2 PK WND 04028/1811=
201011221753 METAR KBLI 221753Z 03021G28KT 10SM OVC042 M05/M17 A2978 RMK AO2 PK WND 03030/1703 SLP095 T10501172 11050 21056 56016=
201011221653 METAR KBLI 221653Z 02018G24KT 10SM OVC060 M05/M17 A2979 RMK AO2 PK WND 02028/1618 SLP099 T10501172=
201011221553 METAR KBLI 221553Z 02015G22KT 10SM SCT060 OVC085 M06/M17 A2980 RMK AO2 SLP101 T10561172=
201011221453 METAR KBLI 221453Z 03014G21KT 10SM OVC060 M05/M17 A2983 RMK AO2 PK WND 02030/1408 SLP111 T10501172 55004 $=
201011221353 METAR KBLI 221353Z AUTO 03015G26KT 10SM SCT060 M05/M17 A2981 RMK AO2 PK WND 04031/1326 SLP107 T10501172 $=
201011221253 METAR KBLI 221253Z AUTO 02023G33KT 10SM CLR M05/M17 A2983 RMK AO2 PK WND 02033/1252 SLP111 T10501172 $=
201011221153 METAR KBLI 221153Z AUTO 02019G28KT 10SM CLR M05/M17 A2984 RMK AO2 PK WND 02032/1105 SLP115 T10501172 11039 21056 53004 $=
201011221053 METAR KBLI 221053Z AUTO 03019G28KT 10SM CLR M05/M17 A2983 RMK AO2 PK WND 02029/1040 SLP113 T10501167 $=
201011220953 METAR KBLI 220953Z AUTO 01014G25KT 10SM CLR M05/M16 A2983 RMK AO2 PK WND 03029/0939 SLP111 T10501161 $=
201011220853 METAR KBLI 220853Z AUTO 01015G27KT 10SM CLR M04/M16 A2982 RMK AO2 PK WND 02030/0826 SLP111 T10441156 50011 $=
201011220753 METAR KBLI 220753Z AUTO 02017G26KT 10SM CLR M04/M16 A2983 RMK AO2 PK WND 36030/0726 SLP112 T10441156 410061044 $=
201011220653 METAR KBLI 220653Z AUTO 01024G33KT 10SM CLR M04/M16 A2981 RMK AO2 PK WND 01033/0653 SLP107 T10391156 $=
201011220553 METAR KBLI 220553Z 01019G28KT 10SM CLR M04/M15 A2979 RMK AO2 PK WND 01035/0536 SLP099 T10391150 11022 21039 53014 $=
201011220453 METAR KBLI 220453Z 02018G31KT 10SM CLR M03/M15 A2977 RMK AO2 PK WND 36033/0413 SLP092 T10331150 $=
201011220353 METAR KBLI 220353Z 02018G29KT 10SM CLR M03/M14 A2977 RMK AO2 PK WND 02033/0334 SLP092 T10331144 $=
201011220253 METAR KBLI 220253Z 01020G30KT 10SM CLR M03/M14 A2975 RMK AO2 PK WND 02035/0210 SLP086 T10331144 53011 $=
201011220153 METAR KBLI 220153Z 01019G36KT 10SM CLR M03/M14 A2973 RMK AO2 PK WND 02036/0149 SLP079 T10281139 $=
201011220053 METAR KBLI 220053Z 02016G30KT 10SM CLR M03/M13 A2973 RMK AO2 PK WND 36031/0025 SLP076 T10281133 $=
201011212353 METAR KBLI 212353Z 02019G34KT 10SM CLR M02/M13 A2972 RMK AO2 PK WND 03034/2350 SLP074 T10221128 11017 21022 53001 $=
201011212253 METAR KBLI 212253Z 02018G30KT 10SM CLR M02/M12 A2971 RMK AO2 PK WND 02033/2241 SLP070 T10171122 $=
201011212153 METAR KBLI 212153Z 02022G30KT 10SM CLR M02/M12 A2971 RMK AO2 PK WND 02037/2118 SLP070 T10171122 $=
201011212053 METAR KBLI 212053Z 01020G29KT 10SM SCT060 M02/M12 A2971 RMK AO2 PK WND 02031/2007 SLP072 T10171117 58012 $=
201011211953 METAR KBLI 211953Z 02021G28KT 10SM OVC070 M02/M11 A2973 RMK AO2 PK WND 03033/1918 SLP077 T10171111 $=
201011211853 METAR KBLI 211853Z 02013G26KT 10SM OVC075 M02/M11 A2974 RMK AO2 PK WND 02029/1841 SLP081 T10171106 $=
201011211753 METAR KBLI 211753Z 01017G31KT 10SM BKN075 OVC090 M02/M10 A2975 RMK AO2 PK WND 03031/1751 SLP084 T10171100 11017 21028 55001 $=
201011211653 METAR KBLI 211653Z 02012G23KT 10SM BKN055 OVC085 M02/M10 A2975 RMK AO2 SLP083 T10171100 $=
201011211553 METAR KBLI 211553Z 02013G24KT 10SM OVC080 M02/M09 A2975 RMK AO2 SLP083 T10221094 $=
201011211453 METAR KBLI 211453Z 02013G18KT 10SM OVC080 M02/M09 A2975 RMK AO2 SLP085 T10221089 58009 $=
201011211353 METAR KBLI 211353Z AUTO 01012G18KT 10SM OVC080 M02/M08 A2976 RMK AO2 SLP088 T10221083 $=
201011211253 METAR KBLI 211253Z AUTO 02013G24KT 10SM OVC085 M02/M09 A2978 RMK AO2 SLP093 T10221089 $=
201011211153 METAR KBLI 211153Z AUTO 02019G27KT 10SM BKN060 OVC085 M02/M09 A2978 RMK AO2 PK WND 03029/1101 SLP094 T10171094 10000 21017 58012 $=
201011211053 METAR KBLI 211053Z AUTO 02015G28KT 10SM SCT060 OVC085 M01/M09 A2980 RMK AO2 PK WND 03028/1050 SLP100 T10111094 $=
201011210953 METAR KBLI 210953Z AUTO 02019G27KT 10SM BKN060 OVC090 M01/M10 A2981 RMK AO2 PK WND 03029/0940 SLP104 T10111100 $=
201011210853 METAR KBLI 210853Z AUTO 01017G28KT 10SM OVC085 M01/M11 A2982 RMK AO2 PK WND 01031/0818 SLP106 T10061106 58003 $=
201011210753 METAR KBLI 210753Z AUTO 01017G28KT 10SM OVC080 M01/M11 A2983 RMK AO2 PK WND 01030/0705 SLP111 T10061106 400061017 $=
201011210653 METAR KBLI 210653Z AUTO 01018G29KT 10SM OVC080 M01/M11 A2982 RMK AO2 PK WND 01031/0624 SLP109 T10061106 $=
201011210553 METAR KBLI 210553Z 01019G29KT 10SM OVC080 00/M11 A2983 RMK AO2 PK WND 02030/0455 SLP110 T00001106 10000 21006 50001 $=
201011210453 METAR KBLI 210453Z 01019G28KT 10SM OVC080 M01/M11 A2983 RMK AO2 PK WND 01032/0406 SLP110 T10061111 $=
201011210353 METAR KBLI 210353Z 01019G28KT 10SM OVC080 00/M11 A2982 RMK AO2 PK WND 36030/0319 SLP109 T00001111 $=
201011210253 METAR KBLI 210253Z 02020G29KT 10SM OVC075 M01/M11 A2982 RMK AO2 PK WND 02032/0201 SLP109 T10061111 53008 $=
201011210153 METAR KBLI 210153Z 02018G29KT 10SM CLR M01/M11 A2981 RMK AO2 PK WND 01035/0128 SLP106 T10061111 $=
201011210053 METAR KBLI 210053Z 01021G32KT 10SM CLR M01/M11 A2980 RMK AO2 PK WND 02038/0001 SLP101 T10061111 $=
201011202353 METAR KBLI 202353Z 01019G31KT 10SM FEW080 00/M11 A2980 RMK AO2 PK WND 02039/2256 SLP100 T00001111 10006 21006 52006 $=
201011202253 METAR KBLI 202253Z 02019G35KT 9SM CLR 01/M11 A2980 RMK AO2 PK WND 02042/2239 SLP101 T00061106 $=
201011202153 METAR KBLI 202153Z 01024G37KT 6SM HZ CLR 00/M10 A2978 RMK AO2 PK WND 03039/2142 SLP094 T00001100 $=
201011202053 METAR KBLI 202053Z 01024G34KT 10SM CLR 00/M11 A2978 RMK AO2 PK WND 03040/2003 SLP095 T00001106 50001 $=
201011201953 METAR KBLI 201953Z 02026G35KT 10SM CLR 01/M11 A2978 RMK AO2 PK WND 02040/1937 SLP095 T00061106 $=
201011201853 METAR KBLI 201853Z 02023G37KT 10SM CLR 00/M11 A2979 RMK AO2 PK WND 02041/1825 SLP096 T00001106 $=
201011201753 METAR KBLI 201753Z 02026G39KT 10SM FEW080 00/M11 A2978 RMK AO2 PK WND 02039/1753 SLP093 60000 T00001106 10000 21011 53009 $=
201011201653 METAR KBLI 201653Z 02025G33KT 10SM SCT065 M01/M11 A2977 RMK AO2 PK WND 02040/1603 FZRAE1557 SLP090 P0000 T10061106 $=
201011201603 SPECI KBLI 201603Z 02025G40KT 7SM R16/5500VP6000FT FEW065 BKN075 OVC090 M01/M11 A2975 RMK AO2 PK WND 02040/1603 FZRAE1557 P0000 $=
201011201603 SPECI KBLI 201603Z 02025G40KT 7SM R16/5500VP6000FT FEW065 BKN075 OVC090 M01/M11 A2975 RMK AO2 PK WND 02040/1603 FZRAE1557 P0000 $=
201011201553 METAR KBLI 201553Z 03026G40KT 10SM -FZRA BKN085 M01/M11 A2975 RMK AO2 PK WND 04040/1552 UPB02E06FZRAE02B06 SLP085 P0000 T10061111 $=
201011201550 SPECI KBLI 201550Z 02022G32KT 10SM -FZRA BKN090 M01/M11 A2975 RMK AO2 PK WND 03038/1514 UPB02E06FZRAE02B06 P0000 $=
201011201550 SPECI KBLI 201550Z 02022G32KT 10SM -FZRA BKN090 M01/M11 A2975 RMK AO2 PK WND 03038/1514 UPB02E06FZRAE02B06 P0000 $=
201011201540 SPECI KBLI 201540Z 02023G35KT 10SM BKN095 M01/M11 A2975 RMK AO2 PK WND 03038/1514 UPB02E06FZRAE02B06E34 P0000 $=
201011201540 SPECI KBLI 201540Z 02023G35KT 10SM BKN095 M01/M11 A2975 RMK AO2 PK WND 03038/1514 UPB02E06FZRAE02B06E34 P0000 $=
201011201453 METAR KBLI 201453Z 02024G35KT 8SM -FZRA FEW055 OVC070 M01/M11 A2974 RMK AO2 PK WND 02037/1435 UPB1359E01B31E33FZRAE1357B01E29B36 SLP080 P0000 60000 T10111106 51010 $=
201011201442 SPECI KBLI 201442Z AUTO 03022G37KT 8SM -FZRA FEW055 M01/M11 A2974 RMK AO2 PK WND 02037/1435 UPB1359E01B31E33FZRAE1357B01E29B36 P0000 $=
201011201442 SPECI KBLI 201442Z AUTO 03022G37KT 8SM -FZRA FEW055 M01/M11 A2974 RMK AO2 PK WND 02037/1435 UPB1359E01B31E33FZRAE1357B01E29B36 P0000 $=
201011201435 SPECI KBLI 201435Z AUTO 02025G37KT 9SM FEW060 SCT090 M01/M11 A2973 RMK AO2 PK WND 02037/1435 UPB1359E01B31E33FZRAE1357B01E29 P0000 $=
201011201435 SPECI KBLI 201435Z AUTO 02025G37KT 9SM FEW060 SCT090 M01/M11 A2973 RMK AO2 PK WND 02037/1435 UPB1359E01B31E33FZRAE1357B01E29 P0000 $=
201011201353 METAR KBLI 201353Z AUTO 03021G34KT 10SM -FZRA OVC050 M01/M10 A2973 RMK AO2 PK WND 03035/1334 UPB24E29FZRAB29SNE24 SLP076 P0000 T10061100 $=
201011201329 SPECI KBLI 201329Z AUTO 02022G35KT 8SM -FZRA SCT019 SCT032 OVC055 M01/M09 A2972 RMK AO2 PK WND 03035/1325 UPB24E29FZRAB29SNE24 P0000 $=
201011201329 SPECI KBLI 201329Z AUTO 02022G35KT 8SM -FZRA SCT019 SCT032 OVC055 M01/M09 A2972 RMK AO2 PK WND 03035/1325 UPB24E29FZRAB29SNE24 P0000 $=
201011201323 SPECI KBLI 201323Z AUTO 03020G32KT 8SM -SN BKN019 BKN030 OVC055 M01/M10 A2972 RMK AO2 PK WND 03033/1313 P0000 $=
201011201323 SPECI KBLI 201323Z AUTO 03020G32KT 8SM -SN BKN019 BKN030 OVC055 M01/M10 A2972 RMK AO2 PK WND 03033/1313 P0000 $=
201011201253 METAR KBLI 201253Z AUTO 03018G33KT 8SM -SN SCT025 BKN035 OVC065 M01/M10 A2972 RMK AO2 PK WND 01033/1244 UPE29SNB43 SLP075 P0000 T10061100 $=
201011201153 METAR KBLI 201153Z AUTO 03021G33KT 10SM UP BKN043 OVC050 M01/M09 A2971 RMK AO2 PK WND 02033/1149 UPB38 SLP069 P0000 60002 70007 T10061094 10000 21022 51015 $=
201011201053 METAR KBLI 201053Z AUTO 03017G29KT 10SM SCT030 BKN037 OVC065 M02/M06 A2970 RMK AO2 PK WND 03031/1030 UPB39E49SNE12 SLP067 P0000 T10171056 $=
201011201028 SPECI KBLI 201028Z AUTO 03018G26KT 10SM FEW024 OVC032 M01/M07 A2969 RMK AO2 PK WND 04028/1013 SNE12 P0000 $=
201011201028 SPECI KBLI 201028Z AUTO 03018G26KT 10SM FEW024 OVC032 M01/M07 A2969 RMK AO2 PK WND 04028/1013 SNE12 P0000 $=
201011200953 METAR KBLI 200953Z AUTO 03013G27KT 9SM -SN FEW016 BKN024 OVC030 00/M08 A2969 RMK AO2 PK WND 03036/0941 UPB03E27B49E53SNB39E49B53 SLP065 P0000 T00001078 $=
201011200853 METAR KBLI 200853Z AUTO 03017G30KT 10SM BKN034 OVC046 M01/M07 A2966 RMK AO2 PK WND 02030/0850 UPB0757E06SNE0757B06E26 SLP054 P0000 60002 T10061067 51010 $=
201011200829 SPECI KBLI 200829Z AUTO 04011G21KT 9SM SCT021 BKN035 OVC042 M01/M06 A2967 RMK AO2 UPB0757E06SNE0757B06E26 P0000 $=
201011200829 SPECI KBLI 200829Z AUTO 04011G21KT 9SM SCT021 BKN035 OVC042 M01/M06 A2967 RMK AO2 UPB0757E06SNE0757B06E26 P0000 $=
201011200753 METAR KBLI 200753Z AUTO 03017G30KT 6SM -SN BR BKN017 OVC030 M02/M04 A2966 RMK AO2 PK WND 03030/0745 SNB05 SLP053 P0001 T10171039 400331022 $=
201011200734 SPECI KBLI 200734Z AUTO 03017G24KT 5SM -SN BR OVC017 M02/M04 A2965 RMK AO2 SNB05 P0001 $=
201011200734 SPECI KBLI 200734Z AUTO 03017G24KT 5SM -SN BR OVC017 M02/M04 A2965 RMK AO2 SNB05 P0001 $=
201011200720 SPECI KBLI 200720Z AUTO 03016G23KT 2 1/2SM -SN OVC017 M02/M04 A2965 RMK AO2 SNB05 P0000 $=
201011200720 SPECI KBLI 200720Z AUTO 03016G23KT 2 1/2SM -SN OVC017 M02/M04 A2965 RMK AO2 SNB05 P0000 $=
201011200703 SPECI KBLI 200703Z AUTO 02011G23KT 1 1/4SM R16/4000VP6000FT HZ SCT002 OVC017 M02/M04 A2966 RMK AO2 PWINO FZRANO $=
201011200703 SPECI KBLI 200703Z AUTO 02011G23KT 1 1/4SM R16/4000VP6000FT HZ SCT002 OVC017 M02/M04 A2966 RMK AO2 PWINO FZRANO $=
201011200653 METAR KBLI 200653Z AUTO 03018G32KT 1SM R16/3500V4500FT BR BKN002 OVC017 M02/M04 A2965 RMK AO2 PK WND 02032/0645 SNEMM SLP051 P0001 T10221039 PWINO FZRANO $=
201011200645 SPECI KBLI 200645Z AUTO 03022G32KT 3/4SM R16/3000V4000FT BR VV002 M02/M04 A2965 RMK AO2 PK WND 02032/0645 SNEMM P0001 PWINO FZRANO $=
201011200645 SPECI KBLI 200645Z AUTO 03022G32KT 3/4SM R16/3000V4000FT BR VV002 M02/M04 A2965 RMK AO2 PK WND 02032/0645 SNEMM P0001 PWINO FZRANO $=
201011200634 SPECI KBLI 200634Z AUTO 04016G25KT 1/2SM R16/2000V2600FT FZFG VV001 M02/M04 A2964 RMK AO2 PK WND 02031/0557 SNEMM P0000 PWINO FZRANO $=
201011200634 SPECI KBLI 200634Z AUTO 04016G25KT 1/2SM R16/2000V2600FT FZFG VV001 M02/M04 A2964 RMK AO2 PK WND 02031/0557 SNEMM P0000 PWINO FZRANO $=
201011200621 SPECI KBLI 200621Z 04018G28KT 1/4SM R16/1600V2200FT FZFG VV001 M02/M04 A2963 RMK AO2 PK WND 02031/0557 SNEMM P0000 $=
201011200621 SPECI KBLI 200621Z 04018G28KT 1/4SM R16/1600V2200FT FZFG VV001 M02/M04 A2963 RMK AO2 PK WND 02031/0557 SNEMM P0000 $=
201011200610 SPECI KBLI 200610Z 03020G29KT 1/2SM R16/1800V2200FT SN FZFG VV002 M02/M04 A2963 RMK AO2 PK WND 02031/0557 P0000=
201011200610 SPECI KBLI 200610Z 03020G29KT 1/2SM R16/1800V2200FT SN FZFG VV002 M02/M04 A2963 RMK AO2 PK WND 02031/0557 P0000=
201011200558 SPECI KBLI 200558Z 03022G33KT 1/2SM R16/2000V3500FT SN FZFG VV004 M02/M04 A2963 RMK AO2 PK WND 02031/0557 P0000=
201011200558 SPECI KBLI 200558Z 03022G33KT 1/2SM R16/2000V3500FT SN FZFG VV004 M02/M04 A2963 RMK AO2 PK WND 02031/0557 P0000=
201011200553 METAR KBLI 200553Z 03021G33KT 3/4SM R16/2600V4500FT -SN BR BKN006 OVC019 M02/M04 A2963 RMK AO2 PK WND 02035/0530 SLP044 P0000 60001 T10171039 10017 21017 58002=
201011200541 SPECI KBLI 200541Z 03022G34KT 1 1/4SM R16/5000VP6000FT -SN BR BKN006 OVC019 M02/M04 A2963 RMK AO2 PK WND 02035/0530 P0000=
201011200541 SPECI KBLI 200541Z 03022G34KT 1 1/4SM R16/5000VP6000FT -SN BR BKN006 OVC019 M02/M04 A2963 RMK AO2 PK WND 02035/0530 P0000=
201011200520 SPECI KBLI 200520Z 03019G30KT 1 1/4SM R16/4500V6000FT -SN BR BKN004 OVC019 M02/M04 A2963 RMK AO2 PK WND 05030/0520 P0000=
201011200520 SPECI KBLI 200520Z 03019G30KT 1 1/4SM R16/4500V6000FT -SN BR BKN004 OVC019 M02/M04 A2963 RMK AO2 PK WND 05030/0520 P0000=
201011200512 SPECI KBLI 200512Z 03018G27KT 3/4SM R16/3000V6000FT -SN BR VV004 M02/M04 A2963 RMK AO2 PK WND 04029/0457 P0000=
201011200512 SPECI KBLI 200512Z 03018G27KT 3/4SM R16/3000V6000FT -SN BR VV004 M02/M04 A2963 RMK AO2 PK WND 04029/0457 P0000=
201011200503 SPECI KBLI 200503Z 02017G29KT 1/2SM R16/2800V3500FT SN FZFG VV004 M02/M04 A2963 RMK AO2 PK WND 04029/0457 P0000=
201011200503 SPECI KBLI 200503Z 02017G29KT 1/2SM R16/2800V3500FT SN FZFG VV004 M02/M04 A2963 RMK AO2 PK WND 04029/0457 P0000=
201011200453 METAR KBLI 200453Z 03022G28KT 3/4SM R16/3500V4500FT -SN VV006 M01/M04 A2963 RMK AO2 PK WND 03032/0440 SNB30 SLP044 P0000 T10111044=
201011200437 SPECI KBLI 200437Z 03020G31KT 2 1/2SM R16/6000VP6000FT -SN OVC014 01/M07 A2963 RMK AO2 PK WND 03031/0430 SNB30 P0000=
201011200437 SPECI KBLI 200437Z 03020G31KT 2 1/2SM R16/6000VP6000FT -SN OVC014 01/M07 A2963 RMK AO2 PK WND 03031/0430 SNB30 P0000=
201011200353 METAR KBLI 200353Z 03020G30KT 10SM OVC028 01/M08 A2964 RMK AO2 PK WND 04031/0343 SLP046 T00111078=
201011200351 SPECI KBLI 200351Z 03019G31KT 10SM OVC028 01/M08 A2964 RMK AO2 PK WND 04031/0343=
201011200351 SPECI KBLI 200351Z 03019G31KT 10SM OVC028 01/M08 A2964 RMK AO2 PK WND 04031/0343=
201011200253 METAR KBLI 200253Z 04015G27KT 10SM OVC050 02/M07 A2964 RMK AO2 PK WND 04027/0250 SLP047 60001 T00171072 58007=
201011200153 METAR KBLI 200153Z 02015G24KT 10SM OVC060 01/M06 A2965 RMK AO2 UPB28E29SNE28B29E30 SLP049 P0000 T00111061=
201011200124 SPECI KBLI 200124Z 01017G25KT 8SM -SN OVC033 01/M06 A2965 RMK AO2 P0000=
201011200124 SPECI KBLI 200124Z 01017G25KT 8SM -SN OVC033 01/M06 A2965 RMK AO2 P0000=
201011200053 METAR KBLI 200053Z 02013G23KT 6SM -SN OVC026 01/M06 A2967 RMK AO2 PK WND 01026/0043 RAB39E43SNB43 SLP056 P0001 T00111056=
201011200048 SPECI KBLI 200048Z 01015G26KT 7SM -SN OVC026 01/M06 A2966 RMK AO2 PK WND 01026/0043 RAB39E43SNB43 P0001=
201011200048 SPECI KBLI 200048Z 01015G26KT 7SM -SN OVC026 01/M06 A2966 RMK AO2 PK WND 01026/0043 RAB39E43SNB43 P0001=
201011192353 METAR KBLI 192353Z 02017G26KT 10SM FEW033 OVC055 02/M06 A2967 RMK AO2 PK WND 03026/2353 RAB15E28UPB42E46SNB28E42 SLP056 P0001 60002 T00171056 10033 20006 56027=
201011192253 METAR KBLI 192253Z 02012G23KT 10SM OVC075 02/M06 A2969 RMK AO2 SLP062 T00221056=
201011192153 METAR KBLI 192153Z 02012G19KT 10SM OVC080 02/M04 A2972 RMK AO2 SLP071 T00221044=
201011192053 METAR KBLI 192053Z 03013G18KT 10SM OVC036 03/M03 A2975 RMK AO2 SLP083 60001 T00281033 58024=
201011191953 METAR KBLI 191953Z 02013KT 10SM OVC032 02/M03 A2978 RMK AO2 RAB1855E10 SLP092 P0000 T00221033=
201011191939 SPECI KBLI 191939Z 02013G19KT 10SM OVC032 02/M03 A2978 RMK AO2 RAB1855E10 P0000=
201011191939 SPECI KBLI 191939Z 02013G19KT 10SM OVC032 02/M03 A2978 RMK AO2 RAB1855E10 P0000=
201011191853 METAR KBLI 191853Z 02009KT 10SM OVC027 01/M04 A2981 RMK AO2 RAB1758E02FZRAB02E30SNE1758 SLP102 P0001 T00111039=
201011191836 SPECI KBLI 191836Z 02012KT 10SM SCT020 OVC028 01/M03 A2981 RMK AO2 RAB1758E02FZRAB02E30SNE1758 P0001=
201011191836 SPECI KBLI 191836Z 02012KT 10SM SCT020 OVC028 01/M03 A2981 RMK AO2 RAB1758E02FZRAB02E30SNE1758 P0001=
201011191808 SPECI KBLI 191808Z 02010KT 7SM -FZRA OVC020 01/M03 A2982 RMK AO2 RAB1758E02FZRAB02SNE1758 P0001=
201011191808 SPECI KBLI 191808Z 02010KT 7SM -FZRA OVC020 01/M03 A2982 RMK AO2 RAB1758E02FZRAB02SNE1758 P0001=
201011191753 METAR KBLI 191753Z 02010KT 7SM -SN OVC020 01/M03 A2982 RMK AO2 RAB23E43FZRAB43E47SNB47 SLP108 P0001 60002 T00061033 10011 20000 58003=
201011191653 METAR KBLI 191653Z 03008KT 10SM OVC022 01/M03 A2983 RMK AO2 SLP110 T00111033=
201011191553 METAR KBLI 191553Z 03007KT 10SM OVC020 01/M02 A2983 RMK AO2 FZRAE04 SLP111 P0000 T00061022=
201011191510 SPECI KBLI 191510Z 02008KT 10SM OVC022 01/M02 A2983 RMK AO2 FZRAE04 P0000=
201011191510 SPECI KBLI 191510Z 02008KT 10SM OVC022 01/M02 A2983 RMK AO2 FZRAE04 P0000=
201011191453 METAR KBLI 191453Z 03006KT 9SM -FZRA OVC020 01/M02 A2983 RMK AO2 UPB35E44FZRAB44 SLP111 P0001 60001 T00061017 55007=
201011191450 SPECI KBLI 191450Z AUTO 02006KT 9SM -FZRA OVC020 01/M02 A2983 RMK AO2 UPB35E44FZRAB44 P0001=
201011191450 SPECI KBLI 191450Z AUTO 02006KT 9SM -FZRA OVC020 01/M02 A2983 RMK AO2 UPB35E44FZRAB44 P0001=
201011191353 METAR KBLI 191353Z AUTO 36006KT 10SM OVC018 01/M01 A2985 RMK AO2 FZRAE16 SLP116 P0000 T00061011=
201011191322 SPECI KBLI 191322Z AUTO 35004KT 10SM BKN018 OVC024 01/M01 A2985 RMK AO2 FZRAE16 P0000=
201011191322 SPECI KBLI 191322Z AUTO 35004KT 10SM BKN018 OVC024 01/M01 A2985 RMK AO2 FZRAE16 P0000=
201011191253 METAR KBLI 191253Z AUTO 01008KT 10SM -FZRA OVC018 01/M01 A2985 RMK AO2 RAE51FZRAB51 SLP118 P0000 T00061011=
201011191153 METAR KBLI 191153Z AUTO 36003KT 10SM -RA BKN023 OVC030 01/M01 A2986 RMK AO2 RAB01 SLP119 P0002 60004 70007 T00111011 10022 20011 58008=
201011191115 SPECI KBLI 191115Z AUTO 02007KT 8SM -RA BKN021 BKN026 OVC034 01/M01 A2987 RMK AO2 RAB01 P0001=
201011191115 SPECI KBLI 191115Z AUTO 02007KT 8SM -RA BKN021 BKN026 OVC034 01/M01 A2987 RMK AO2 RAB01 P0001=
201011191053 METAR KBLI 191053Z AUTO 02007KT 10SM FEW023 OVC031 01/M01 A2987 RMK AO2 RAE10 SLP125 P0000 T00111011=
201011191046 SPECI KBLI 191046Z AUTO 01006KT 10SM OVC031 01/M01 A2988 RMK AO2 RAE10 P0000=
201011191046 SPECI KBLI 191046Z AUTO 01006KT 10SM OVC031 01/M01 A2988 RMK AO2 RAE10 P0000=
201011190953 METAR KBLI 190953Z AUTO 36005KT 10SM -RA BKN020 OVC025 01/M01 A2988 RMK AO2 RAB03 SLP126 P0002 T00111011=
201011190853 METAR KBLI 190853Z AUTO 02007KT 10SM OVC020 02/M02 A2988 RMK AO2 SLP127 T00171017 56006=
201011190753 METAR KBLI 190753Z AUTO 36006KT 10SM OVC022 02/M01 A2989 RMK AO2 SLP129 T00221006 400670017=
201011190653 METAR KBLI 190653Z AUTO 02005KT 10SM OVC024 02/M01 A2989 RMK AO2 SLP130 T00171011=
201011190553 METAR KBLI 190553Z 02006KT 10SM BKN026 OVC031 02/M01 A2990 RMK AO2 SLP133 T00171006 10061 20017 53002=
201011190453 METAR KBLI 190453Z 03008KT 10SM BKN027 BKN032 OVC085 02/M01 A2989 RMK AO2 SLP131 T00171006=
201011190448 SPECI KBLI 190448Z 03008KT 10SM BKN029 BKN033 OVC085 02/M01 A2989 RMK AO2=
201011190448 SPECI KBLI 190448Z 03008KT 10SM BKN029 BKN033 OVC085 02/M01 A2989 RMK AO2=
201011190441 SPECI KBLI 190441Z 02006KT 10SM BKN031 OVC085 02/M01 A2989 RMK AO2=
201011190441 SPECI KBLI 190441Z 02006KT 10SM BKN031 OVC085 02/M01 A2989 RMK AO2=
201011190406 SPECI KBLI 190406Z 02006KT 10SM OVC028 02/M01 A2989 RMK AO2=
201011190406 SPECI KBLI 190406Z 02006KT 10SM OVC028 02/M01 A2989 RMK AO2=
201011190353 METAR KBLI 190353Z 02007KT 10SM OVC030 02/00 A2989 RMK AO2 SLP131 T00170000=
201011190253 METAR KBLI 190253Z 01005KT 10SM FEW027 BKN055 OVC110 02/00 A2989 RMK AO2 SLP132 T00170000 51009=
201011190153 METAR KBLI 190153Z VRB03KT 10SM SCT022 BKN046 BKN065 02/01 A2989 RMK AO2 SLP129 T00220011=
201011190123 SPECI KBLI 190123Z 03003KT 10SM BKN022 OVC041 03/01 A2989 RMK AO2=
201011190123 SPECI KBLI 190123Z 03003KT 10SM BKN022 OVC041 03/01 A2989 RMK AO2=
201011190053 METAR KBLI 190053Z AUTO 36006KT 10SM SCT020 OVC041 04/02 A2989 RMK AO2 SLP129 T00390017 TSNO=
201011182353 METAR KBLI 182353Z 13009KT 10SM FEW038 BKN048 BKN060 06/02 A2987 RMK AO2 SLP122 60003 T00610022 10067 20050 53004=
201011182300 SPECI KBLI 182300Z 15010G14KT 10SM BKN031 BKN038 OVC055 07/03 A2986 RMK AO2=
201011182300 SPECI KBLI 182300Z 15010G14KT 10SM BKN031 BKN038 OVC055 07/03 A2986 RMK AO2=
201011182253 METAR KBLI 182253Z 15007KT 10SM BKN017 BKN031 OVC050 07/03 A2986 RMK AO2 SLP120 T00670028=
201011182153 METAR KBLI 182153Z 14010KT 10SM BKN015 BKN022 OVC034 07/04 A2985 RMK AO2 SLP118 T00670044=
201011182053 METAR KBLI 182053Z 11006KT 10SM OVC015 06/03 A2985 RMK AO2 RAE47 SLP118 P0002 60003 T00560028 51006=
201011181953 METAR KBLI 181953Z 13008KT 10SM -RA OVC019 06/02 A2985 RMK AO2 RAB1856 SLP118 P0001 T00560022=
201011181924 SPECI KBLI 181924Z 13010KT 10SM -RA OVC019 06/02 A2985 RMK AO2 RAB1856 P0001=
201011181924 SPECI KBLI 181924Z 13010KT 10SM -RA OVC019 06/02 A2985 RMK AO2 RAB1856 P0001=
201011181853 METAR KBLI 181853Z 12011KT 10SM SCT021 OVC070 06/02 A2985 RMK AO2 SLP116 T00610022=
201011181753 METAR KBLI 181753Z 12006KT 10SM FEW021 OVC046 06/02 A2983 RMK AO2 SLP111 60000 T00560017 10056 20017 51023=
201011181653 METAR KBLI 181653Z 15005KT 10SM OVC035 04/02 A2981 RMK AO2 SLP105 T00440017=
201011181553 METAR KBLI 181553Z 15005KT 10SM BKN023 BKN055 03/01 A2979 RMK AO2 SLP097 T00280011=
201011181453 METAR KBLI 181453Z AUTO 11004KT 10SM BKN023 03/01 A2976 RMK AO2 SLP088 60000 T00330011 51016=
201011181449 SPECI KBLI 181449Z AUTO 14004KT 10SM BKN023 03/01 A2976 RMK AO2=
201011181449 SPECI KBLI 181449Z AUTO 14004KT 10SM BKN023 03/01 A2976 RMK AO2=
201011181353 METAR KBLI 181353Z AUTO 17004KT 10SM CLR 02/01 A2973 RMK AO2 SLP077 T00220006=
201011181253 METAR KBLI 181253Z AUTO 14004KT 10SM FEW030 02/01 A2972 RMK AO2 RAE12 SLP072 P0000 T00220011=
201011181211 SPECI KBLI 181211Z AUTO 14005KT 10SM -RA SCT019 SCT031 BKN039 03/02 A2970 RMK AO2 P0000=
201011181211 SPECI KBLI 181211Z AUTO 14005KT 10SM -RA SCT019 SCT031 BKN039 03/02 A2970 RMK AO2 P0000=
201011181153 METAR KBLI 181153Z AUTO 18004KT 6SM RA BR OVC015 03/01 A2970 RMK AO2 RAB10 SLP067 P0016 60034 70046 T00280011 10050 20028 53007=
201011181123 SPECI KBLI 181123Z AUTO VRB04KT 8SM -RA FEW017 BKN022 OVC042 03/01 A2970 RMK AO2 RAB10 P0003=
201011181123 SPECI KBLI 181123Z AUTO VRB04KT 8SM -RA FEW017 BKN022 OVC042 03/01 A2970 RMK AO2 RAB10 P0003=
201011181053 METAR KBLI 181053Z AUTO 10005KT 10SM FEW017 SCT044 OVC085 03/02 A2969 RMK AO2 RAE38 SLP062 P0008 T00330017=
201011181039 SPECI KBLI 181039Z AUTO 10005KT 10SM FEW016 BKN060 OVC090 04/02 A2968 RMK AO2 RAE38 P0008=
201011181039 SPECI KBLI 181039Z AUTO 10005KT 10SM FEW016 BKN060 OVC090 04/02 A2968 RMK AO2 RAE38 P0008=
201011180953 METAR KBLI 180953Z AUTO 12010KT 10SM -RA OVC024 04/03 A2968 RMK AO2 SLP057 P0005 T00440028=
201011180853 METAR KBLI 180853Z AUTO 00000KT 10SM -RA BKN018 OVC025 04/03 A2968 RMK AO2 SLP059 P0005 60005 T00440028 55003=
201011180814 SPECI KBLI 180814Z AUTO 12003KT 10SM -RA BKN028 OVC043 05/02 A2968 RMK AO2 P0001=
201011180814 SPECI KBLI 180814Z AUTO 12003KT 10SM -RA BKN028 OVC043 05/02 A2968 RMK AO2 P0001=
201011180753 METAR KBLI 180753Z AUTO 13006KT 10SM -RA BKN035 OVC043 05/02 A2968 RMK AO2 RAB44 SLP058 P0000 T00500022 400940039=
201011180653 METAR KBLI 180653Z AUTO 00000KT 10SM CLR 04/02 A2968 RMK AO2 SLP058 T00390017=
201011180612 SPECI KBLI 180612Z 11003KT 10SM SCT018 SCT023 BKN055 04/02 A2969 RMK AO2=
201011180612 SPECI KBLI 180612Z 11003KT 10SM SCT018 SCT023 BKN055 04/02 A2969 RMK AO2=
201011180553 METAR KBLI 180553Z 15004KT 10SM BKN018 BKN034 04/02 A2969 RMK AO2 SLP061 T00440022 10072 20039 53003=
201011180453 METAR KBLI 180453Z 19005KT 10SM FEW085 06/02 A2968 RMK AO2 SLP058 T00560022=
201011180353 METAR KBLI 180353Z 17008KT 10SM SCT110 06/03 A2968 RMK AO2 SLP059 T00610033=
201011180253 METAR KBLI 180253Z 18007KT 10SM FEW028 OVC100 07/02 A2968 RMK AO2 SLP059 T00670022 51004=
201011180153 METAR KBLI 180153Z 18007KT 10SM FEW065 BKN100 07/03 A2968 RMK AO2 SLP058 T00720028=
201011180053 METAR KBLI 180053Z 15005KT 10SM FEW016 07/03 A2967 RMK AO2 SLP056 T00670028=
201011172353 METAR KBLI 172353Z 16008KT 10SM FEW018 SCT090 07/03 A2967 RMK AO2 SLP054 60012 T00720033 10094 20067 51003=
201011172253 METAR KBLI 172253Z 16006KT 10SM BKN075 BKN095 08/05 A2966 RMK AO2 RAE12 SLP052 P0000 T00780050=
201011172206 SPECI KBLI 172206Z 17007G16KT 10SM -RA FEW025 BKN032 OVC070 07/04 A2966 RMK AO2 P0000=
201011172206 SPECI KBLI 172206Z 17007G16KT 10SM -RA FEW025 BKN032 OVC070 07/04 A2966 RMK AO2 P0000=
201011172153 METAR KBLI 172153Z 17008KT 9SM -RA SCT017 BKN022 OVC075 07/04 A2967 RMK AO2 RAB36 SLP055 P0002 T00720044=
201011172053 METAR KBLI 172053Z 17010G16KT 10SM FEW015 OVC021 07/05 A2966 RMK AO2 RAB16E46 SLP051 P0000 60010 T00720050 51024=
201011172004 SPECI KBLI 172004Z 17013G20KT 10SM FEW008 BKN023 OVC060 08/06 A2965 RMK AO2=
201011172004 SPECI KBLI 172004Z 17013G20KT 10SM FEW008 BKN023 OVC060 08/06 A2965 RMK AO2=
201011171953 METAR KBLI 171953Z 17012G18KT 10SM FEW008 BKN038 OVC049 08/06 A2964 RMK AO2 RAE47 SLP044 P0003 T00780056=
201011171905 SPECI KBLI 171905Z 18005KT 9SM -RA FEW015 OVC036 08/06 A2964 RMK AO2 P0001=
201011171905 SPECI KBLI 171905Z 18005KT 9SM -RA FEW015 OVC036 08/06 A2964 RMK AO2 P0001=
201011171853 METAR KBLI 171853Z 16014G28KT 5SM RA SCT013 BKN022 OVC034 08/06 A2963 RMK AO2 PK WND 16039/1822 SLP042 P0007 T00830056=
201011171753 METAR KBLI 171753Z 16021G40KT 10SM -RA BKN028 OVC060 09/04 A2959 RMK AO2 PK WND 14044/1732 RAB51 SLP027 P0000 60000 T00940039 10094 20078 55038=
201011171653 METAR KBLI 171653Z 14023G35KT 10SM OVC028 09/03 A2958 RMK AO2 PK WND 12040/1603 SLP026 T00890033=
201011171641 SPECI KBLI 171641Z 14026G39KT 10SM OVC028 09/03 A2960 RMK AO2 PK WND 12040/1603=
201011171641 SPECI KBLI 171641Z 14026G39KT 10SM OVC028 09/03 A2960 RMK AO2 PK WND 12040/1603=
201011171553 METAR KBLI 171553Z 15022G37KT 10SM OVC030 09/03 A2963 RMK AO2 PK WND 15038/1541 SLP042 T00890028=
201011171453 METAR KBLI 171453Z 13022G29KT 10SM SCT025 BKN034 OVC070 08/03 A2970 RMK AO2 PK WND 15036/1354 RAE38 SLP065 P0000 60000 T00780033 58050=
201011171353 METAR KBLI 171353Z AUTO 14019G32KT 10SM -RA OVC034 09/02 A2976 RMK AO2 PK WND 14035/1332 RAB50 SLP084 P0000 T00890022=
201011171253 METAR KBLI 171253Z AUTO 14019G27KT 10SM SCT036 OVC085 09/03 A2979 RMK AO2 PK WND 15029/1238 RAE01B40E52 SLP096 P0000 T00890028=
201011171153 METAR KBLI 171153Z AUTO 14014G24KT 10SM -RA SCT040 BKN060 OVC090 08/03 A2985 RMK AO2 PK WND 15028/1054 RAE25B45 SLP115 P0000 60001 70016 T00830033 10089 20083 58045=
201011171053 METAR KBLI 171053Z AUTO 15019G24KT 10SM -RA BKN042 OVC065 08/04 A2990 RMK AO2 PK WND 14030/1041 RAB18 SLP134 P0000 T00830039=
201011170953 METAR KBLI 170953Z AUTO 14017G22KT 10SM BKN040 BKN047 OVC055 09/04 A2993 RMK AO2 PK WND 15026/0937 RAE21 SLP143 P0000 T00890039=
201011170938 SPECI KBLI 170938Z AUTO 15019G26KT 10SM SCT027 BKN041 OVC055 09/04 A2995 RMK AO2 PK WND 15026/0937 RAE21 P0000=
201011170938 SPECI KBLI 170938Z AUTO 15019G26KT 10SM SCT027 BKN041 OVC055 09/04 A2995 RMK AO2 PK WND 15026/0937 RAE21 P0000=
201011170853 METAR KBLI 170853Z AUTO 14012KT 10SM -RA BKN023 OVC035 08/04 A2998 RMK AO2 RAB32 SLP160 P0001 60001 T00830044 56021=
201011170828 SPECI KBLI 170828Z AUTO 14006KT 10SM BKN023 BKN028 OVC035 08/04 A2999 RMK AO2=
201011170828 SPECI KBLI 170828Z AUTO 14006KT 10SM BKN023 BKN028 OVC035 08/04 A2999 RMK AO2=
201011170753 METAR KBLI 170753Z AUTO 15010KT 10SM BKN037 OVC045 08/04 A3000 RMK AO2 SLP168 T00830044 401170072=
201011170653 METAR KBLI 170653Z AUTO 15007KT 10SM SCT049 BKN110 08/04 A3002 RMK AO2 SLP174 T00830044=
201011170553 METAR KBLI 170553Z 16007KT 10SM OVC050 09/04 A3004 RMK AO2 SLP182 60000 T00890044 10089 20072 58010=
201011170453 METAR KBLI 170453Z 17006KT 10SM FEW050 BKN085 09/04 A3006 RMK AO2 SLP189 T00890039=
201011170353 METAR KBLI 170353Z 16007KT 10SM FEW048 SCT090 08/04 A3007 RMK AO2 SLP191 T00830044=
201011170253 METAR KBLI 170253Z 12005KT 10SM SCT120 08/05 A3007 RMK AO2 SLP191 60000 T00780050 58008=
201011170153 METAR KBLI 170153Z 17004KT 10SM SCT055 08/05 A3008 RMK AO2 SLP194 T00780050=
201011170100 SPECI KBLI 170100Z 18004KT 10SM OVC047 08/07 A3009 RMK AO2=
201011170100 SPECI KBLI 170100Z 18004KT 10SM OVC047 08/07 A3009 RMK AO2=
201011170053 METAR KBLI 170053Z 16004KT 10SM BKN025 OVC030 08/07 A3009 RMK AO2 RAE05 SLP198 P0000 T00830067=
201011162353 METAR KBLI 162353Z 10003KT 9SM -RA FEW019 BKN027 OVC043 09/07 A3010 RMK AO2 SLP200 P0002 60013 T00890072 10117 20083 51006=
201011162253 METAR KBLI 162253Z 00000KT 3SM -RA BR BKN025 OVC032 09/07 A3009 RMK AO2 RAE2159B15 SLP197 P0011 T00890067=
201011162221 SPECI KBLI 162221Z 00000KT 7SM R16/6000VP6000FT -RA BKN029 OVC036 10/06 A3009 RMK AO2 RAE2159B15 P0001=
201011162221 SPECI KBLI 162221Z 00000KT 7SM R16/6000VP6000FT -RA BKN029 OVC036 10/06 A3009 RMK AO2 RAE2159B15 P0001=
201011162153 METAR KBLI 162153Z 00000KT 10SM -RA OVC033 11/05 A3009 RMK AO2 RAB2057E11B47 SLP196 P0000 T01060050=
201011162053 METAR KBLI 162053Z 00000KT 10SM SCT036 OVC044 11/04 A3008 RMK AO2 RAE1955 SLP192 P0000 60000 T01060044 51008=
201011161953 METAR KBLI 161953Z 21003KT 10SM -RA BKN036 OVC065 11/05 A3007 RMK AO2 RAB39 SLP190 P0000 T01060050=
201011161853 METAR KBLI 161853Z 00000KT 10SM OVC034 11/07 A3007 RMK AO2 RAB36E45 SLP191 P0000 T01060067=
201011161753 METAR KBLI 161753Z 00000KT 10SM BKN034 BKN047 OVC060 09/07 A3005 RMK AO2 RAE01 SLP184 P0000 60002 T00940072 10100 20089 51031=
201011161653 METAR KBLI 161653Z 00000KT 10SM -RA SCT045 OVC055 09/07 A3003 RMK AO2 SLP175 P0001 T00940072=
201011161553 METAR KBLI 161553Z 14004KT 10SM -RA BKN047 OVC055 09/07 A2999 RMK AO2 RAB10 SLP163 P0001 T00890072=
201011161453 METAR KBLI 161453Z 17005KT 10SM OVC060 10/07 A2996 RMK AO2 RAB10E19 SLP153 P0000 60000 T01000072 51026=
201011161353 METAR KBLI 161353Z AUTO 18004KT 10SM OVC055 10/07 A2994 RMK AO2 RAE46 SLP147 P0000 T01000072 TSNO=
201011161253 METAR KBLI 161253Z AUTO 17003KT 10SM -RA OVC055 10/07 A2992 RMK AO2 RAE03B43 SLP137 P0000 T01000067 TSNO=
201011161153 METAR KBLI 161153Z AUTO 00000KT 10SM -RA BKN065 OVC080 10/06 A2988 RMK AO2 RAB13E34B51 SLP127 P0000 60000 70030 T01000061 10111 20094 51021 TSNO=
201011161053 METAR KBLI 161053Z AUTO 00000KT 10SM OVC060 10/06 A2987 RMK AO2 SLP121 T01000056 TSNO=
201011160953 METAR KBLI 160953Z AUTO 19004KT 10SM OVC060 09/06 A2984 RMK AO2 SLP112 T00940056=
201011160853 METAR KBLI 160853Z AUTO 00000KT 10SM BKN035 OVC065 10/05 A2982 RMK AO2 SLP106 T01000050 51029 TSNO=
201011160753 METAR KBLI 160753Z AUTO VRB04KT 10SM FEW060 BKN075 10/04 A2979 RMK AO2 SLP096 T01000044 401280089=
201011160653 METAR KBLI 160653Z AUTO 22007KT 160V260 10SM SCT075 11/04 A2977 RMK AO2 SLP088 T01060039=
201011160553 METAR KBLI 160553Z VRB06KT 10SM BKN075 OVC095 11/03 A2974 RMK AO2 SLP077 60000 T01110033 10128 20111 53007=
201011160453 METAR KBLI 160453Z 23008G30KT 190V260 10SM CLR 12/03 A2967 RMK AO2 PK WND 21030/0444 RAB11E23 SLP055 P0000 T01220033=
201011160353 METAR KBLI 160353Z 19011G17KT 10SM SCT037 BKN050 OVC090 13/09 A2966 RMK AO2 RAB29E39 SLP051 P0000 T01280089=
201011160253 METAR KBLI 160253Z 20009G16KT 170V230 10SM BKN100 13/08 A2972 RMK AO2 SLP070 T01280083 58037=
201011160153 METAR KBLI 160153Z 19009G18KT 10SM BKN095 BKN120 13/09 A2977 RMK AO2 PK WND 20034/0102 PRESFR SLP088 T01280089=
201011160113 SPECI KBLI 160113Z 18009G19KT 10SM SCT016 BKN110 13/10 A2981 RMK AO2 PK WND 20034/0102=
201011160113 SPECI KBLI 160113Z 18009G19KT 10SM SCT016 BKN110 13/10 A2981 RMK AO2 PK WND 20034/0102=
201011160053 METAR KBLI 160053Z 19012G21KT 10SM OVC016 13/10 A2982 RMK AO2 PK WND 16028/0008 SLP104 T01280100=
201011152353 METAR KBLI 152353Z 17017G25KT 10SM BKN017 OVC024 12/09 A2983 RMK AO2 RAE53 SLP107 P0002 60023 T01220094 10122 20100 56058=
201011152253 METAR KBLI 152253Z 16013G22KT 10SM -RA OVC019 12/09 A2987 RMK AO2 RAB46 PRESFR SLP121 P0000 T01220089=
201011152153 METAR KBLI 152153Z 16016G23KT 10SM FEW016 OVC027 11/09 A2994 RMK AO2 RAE2057 PRESFR SLP146 P0000 T01110089=
201011152110 SPECI KBLI 152110Z 16012G20KT 6SM BR SCT016 OVC029 10/09 A2999 RMK AO2 RAE2057 P0000=
201011152110 SPECI KBLI 152110Z 16012G20KT 6SM BR SCT016 OVC029 10/09 A2999 RMK AO2 RAE2057 P0000=
201011152053 METAR KBLI 152053Z 16013G20KT 3SM -RA BR SCT016 BKN022 OVC032 10/08 A3000 RMK AO2 SLP167 P0008 60021 T01000083 56042=
201011152018 SPECI KBLI 152018Z 16009KT 5SM RA BR SCT017 BKN024 OVC031 10/09 A3003 RMK AO2 P0006=
201011152018 SPECI KBLI 152018Z 16009KT 5SM RA BR SCT017 BKN024 OVC031 10/09 A3003 RMK AO2 P0006=
201011152010 SPECI KBLI 152010Z 17006KT 6SM RA BR SCT017 BKN031 OVC041 10/09 A3004 RMK AO2 P0004=
201011152010 SPECI KBLI 152010Z 17006KT 6SM RA BR SCT017 BKN031 OVC041 10/09 A3004 RMK AO2 P0004=
201011151953 METAR KBLI 151953Z 15010KT 3SM RA BR FEW003 BKN017 OVC036 10/08 A3004 RMK AO2 SLP180 P0010 T01000083=
201011151921 SPECI KBLI 151921Z 15008KT 3SM RA BR FEW003 BKN017 OVC036 10/08 A3005 RMK AO2 P0002=
201011151921 SPECI KBLI 151921Z 15008KT 3SM RA BR FEW003 BKN017 OVC036 10/08 A3005 RMK AO2 P0002=
201011151859 SPECI KBLI 151859Z 16009KT 9SM -RA SCT003 BKN016 OVC034 10/08 A3006 RMK AO2 P0000=
201011151859 SPECI KBLI 151859Z 16009KT 9SM -RA SCT003 BKN016 OVC034 10/08 A3006 RMK AO2 P0000=
201011151853 METAR KBLI 151853Z 16008KT 8SM -RA BKN003 BKN008 OVC031 10/09 A3007 RMK AO2 RAB1755 PRESFR SLP191 P0003 T01000089=
201011151753 METAR KBLI 151753Z 17009KT 10SM BKN003 BKN008 OVC025 10/09 A3012 RMK AO2 SLP208 60007 T01000089 10100 20094 58024=
201011151740 SPECI KBLI 151740Z 16008KT 10SM BKN003 BKN008 OVC025 10/09 A3013 RMK AO2 PRESFR=
201011151740 SPECI KBLI 151740Z 16008KT 10SM BKN003 BKN008 OVC025 10/09 A3013 RMK AO2 PRESFR=
201011151653 METAR KBLI 151653Z 16006KT 10SM FEW003 BKN008 OVC025 10/08 A3016 RMK AO2 RAE41 PRESFR SLP219 P0001 T01000083=
201011151645 SPECI KBLI 151645Z 16006KT 10SM SCT003 BKN008 OVC020 10/08 A3017 RMK AO2 RAE41 P0001=
201011151645 SPECI KBLI 151645Z 16006KT 10SM SCT003 BKN008 OVC020 10/08 A3017 RMK AO2 RAE41 P0001=
201011151609 SPECI KBLI 151609Z 17008KT 3SM -RA BR OVC003 10/09 A3018 RMK AO2 P0000=
201011151609 SPECI KBLI 151609Z 17008KT 3SM -RA BR OVC003 10/09 A3018 RMK AO2 P0000=
201011151553 METAR KBLI 151553Z 16009KT 3SM -RA BR BKN005 BKN011 OVC035 10/08 A3018 RMK AO2 SLP226 P0000 T01000083=
201011151453 METAR KBLI 151453Z AUTO 16007KT 10SM -RA BKN009 BKN017 OVC065 10/08 A3020 RMK AO2 CIG 007V012 SLP232 P0002 60006 T01000083 56021=
201011151440 SPECI KBLI 151440Z AUTO 16009KT 10SM -RA BKN009 OVC065 10/08 A3019 RMK AO2 CIG 007V012 P0002=
201011151440 SPECI KBLI 151440Z AUTO 16009KT 10SM -RA BKN009 OVC065 10/08 A3019 RMK AO2 CIG 007V012 P0002=
201011151353 METAR KBLI 151353Z AUTO 17007KT 8SM -RA FEW013 SCT047 OVC065 10/08 A3022 RMK AO2 SLP239 P0003 T01000083=
201011151312 SPECI KBLI 151312Z AUTO 18005KT 9SM -RA SCT003 SCT055 OVC075 10/09 A3023 RMK AO2 P0001=
201011151312 SPECI KBLI 151312Z AUTO 18005KT 9SM -RA SCT003 SCT055 OVC075 10/09 A3023 RMK AO2 P0001=
201011151253 METAR KBLI 151253Z AUTO 17009KT 7SM -RA BKN003 OVC008 10/09 A3022 RMK AO2 SLP240 P0001 T01000089=
201011151200 SPECI KBLI 151200Z AUTO 18004KT 3SM R16/5500VP6000FT -RA BR BKN003 OVC011 10/09 A3025 RMK AO2 P0000=
201011151200 SPECI KBLI 151200Z AUTO 18004KT 3SM R16/5500VP6000FT -RA BR BKN003 OVC011 10/09 A3025 RMK AO2 P0000=
201011151153 METAR KBLI 151153Z AUTO 00000KT 1 1/2SM R16/3500VP6000FT -RA BR BKN001 BKN007 OVC029 09/08 A3026 RMK AO2 SLP253 P0002 60002 70005 T00940083 10100 20089 53000=
201011151134 SPECI KBLI 151134Z AUTO 00000KT 1 1/4SM R16/3500V6000FT -RA BR BKN001 OVC029 09/09 A3025 RMK AO2 P0001=
201011151134 SPECI KBLI 151134Z AUTO 00000KT 1 1/4SM R16/3500V6000FT -RA BR BKN001 OVC029 09/09 A3025 RMK AO2 P0001=
201011151109 SPECI KBLI 151109Z AUTO 15003KT 3/4SM R16/1800V2600FT -RA BR VV001 10/09 A3025 RMK AO2 P0001=
201011151109 SPECI KBLI 151109Z AUTO 15003KT 3/4SM R16/1800V2600FT -RA BR VV001 10/09 A3025 RMK AO2 P0001=
201011151053 METAR KBLI 151053Z AUTO 00000KT 1/2SM R16/1600V1800FT -RA FG VV001 09/08 A3026 RMK AO2 RAB52 SLP255 P0000 T00940083=
201011150953 METAR KBLI 150953Z AUTO 17003KT 1/4SM R16/1200V1400FT FG VV001 09/08 A3025 RMK AO2 SLP250 T00940083=
201011150853 METAR KBLI 150853Z AUTO 00000KT 1/4SM R16/1200FT FG VV001 09/08 A3026 RMK AO2 SLP253 T00890083 58004=
201011150753 METAR KBLI 150753Z AUTO 00000KT 1/2SM R16/1600V1800FT FG VV001 09/08 A3027 RMK AO2 SLP257 T00890083 401060072=
201011150744 SPECI KBLI 150744Z AUTO 00000KT 1/2SM R16/1600V2200FT FG VV001 09/08 A3026 RMK AO2=
201011150744 SPECI KBLI 150744Z AUTO 00000KT 1/2SM R16/1600V2200FT FG VV001 09/08 A3026 RMK AO2=
201011150737 SPECI KBLI 150737Z AUTO 00000KT 3/4SM R16/2200V3000FT BR VV001 09/08 A3026 RMK AO2=
201011150737 SPECI KBLI 150737Z AUTO 00000KT 3/4SM R16/2200V3000FT BR VV001 09/08 A3026 RMK AO2=
201011150730 SPECI KBLI 150730Z AUTO 00000KT 1SM R16/2600V4500FT BR OVC001 09/08 A3026 RMK AO2=
201011150730 SPECI KBLI 150730Z AUTO 00000KT 1SM R16/2600V4500FT BR OVC001 09/08 A3026 RMK AO2=
201011150723 SPECI KBLI 150723Z AUTO 00000KT 2SM R16/3500V6000FT BR OVC001 09/08 A3026 RMK AO2=
201011150723 SPECI KBLI 150723Z AUTO 00000KT 2SM R16/3500V6000FT BR OVC001 09/08 A3026 RMK AO2=
201011150653 METAR KBLI 150653Z AUTO 00000KT 2 1/2SM R16/6000VP6000FT BR OVC003 09/08 A3026 RMK AO2 SLP255 T00890078=
201011150611 SPECI KBLI 150611Z AUTO 00000KT 3SM R16/4000VP6000FT BR OVC001 09/08 A3027 RMK AO2=
201011150611 SPECI KBLI 150611Z AUTO 00000KT 3SM R16/4000VP6000FT BR OVC001 09/08 A3027 RMK AO2=
201011150602 SPECI KBLI 150602Z 30003KT 1 1/4SM R16/3000V4000FT BR OVC001 09/08 A3027 RMK AO2=
201011150602 SPECI KBLI 150602Z 30003KT 1 1/4SM R16/3000V4000FT BR OVC001 09/08 A3027 RMK AO2=
201011150553 METAR KBLI 150553Z 00000KT 3/4SM R16/2200V3000FT BR VV001 09/08 A3027 RMK AO2 SLP258 T00940083 10106 20094 51010=
201011150535 SPECI KBLI 150535Z 00000KT 3/4SM R16/2000V2400FT BR VV001 09/08 A3026 RMK AO2=
201011150535 SPECI KBLI 150535Z 00000KT 3/4SM R16/2000V2400FT BR VV001 09/08 A3026 RMK AO2=
201011150453 METAR KBLI 150453Z 29004KT 1/2SM R16/1600V1800FT FG VV001 09/08 A3026 RMK AO2 SLP256 T00940083=
201011150430 SPECI KBLI 150430Z 00000KT 1/2SM R16/1800V2200FT FG VV001 09/08 A3026 RMK AO2=
201011150430 SPECI KBLI 150430Z 00000KT 1/2SM R16/1800V2200FT FG VV001 09/08 A3026 RMK AO2=
201011150403 SPECI KBLI 150403Z 00000KT 3/4SM R16/2800V3500FT BR VV001 09/09 A3025 RMK AO2=
201011150403 SPECI KBLI 150403Z 00000KT 3/4SM R16/2800V3500FT BR VV001 09/09 A3025 RMK AO2=
201011150353 METAR KBLI 150353Z 25003KT 1 1/4SM R16/3500VP6000FT BR OVC002 09/08 A3025 RMK AO2 SLP252 T00940083=
201011150350 SPECI KBLI 150350Z 27004KT 1 3/4SM R16/4000VP6000FT BR OVC002 10/08 A3025 RMK AO2=
201011150350 SPECI KBLI 150350Z 27004KT 1 3/4SM R16/4000VP6000FT BR OVC002 10/08 A3025 RMK AO2=
201011150313 SPECI KBLI 150313Z VRB05KT 9SM OVC004 10/09 A3024 RMK AO2 CIG 003V007=
201011150313 SPECI KBLI 150313Z VRB05KT 9SM OVC004 10/09 A3024 RMK AO2 CIG 003V007=
201011150253 METAR KBLI 150253Z 18004KT 10SM OVC006 10/09 A3024 RMK AO2 SLP247 T01000089 58006=
201011150153 METAR KBLI 150153Z 19007KT 10SM OVC006 11/09 A3025 RMK AO2 SLP250 T01060089=
201011150053 METAR KBLI 150053Z 19004KT 10SM OVC008 11/09 A3025 RMK AO2 SLP253 T01060089=
201011150050 SPECI KBLI 150050Z 18005KT 10SM OVC008 11/09 A3026 RMK AO2=
201011150050 SPECI KBLI 150050Z 18005KT 10SM OVC008 11/09 A3026 RMK AO2=
201011150010 SPECI KBLI 150010Z 18005KT 10SM OVC010 11/09 A3025 RMK AO2=
201011150010 SPECI KBLI 150010Z 18005KT 10SM OVC010 11/09 A3025 RMK AO2=
201011142353 METAR KBLI 142353Z 18005KT 10SM OVC008 10/09 A3024 RMK AO2 SLP248 T01000089 10100 20083 58007=
201011142305 SPECI KBLI 142305Z 19006KT 5SM BR SCT002 OVC008 10/09 A3025 RMK AO2=
201011142305 SPECI KBLI 142305Z 19006KT 5SM BR SCT002 OVC008 10/09 A3025 RMK AO2=
201011142253 METAR KBLI 142253Z 17007KT 4SM BR BKN002 OVC008 10/09 A3025 RMK AO2 SLP251 T01000089=
201011142153 METAR KBLI 142153Z 18006KT 4SM BR OVC002 10/09 A3026 RMK AO2 SLP256 T01000089=
201011142053 METAR KBLI 142053Z 18005KT 5SM BR OVC002 09/08 A3026 RMK AO2 CIG 002V007 SLP256 T00940083 58012=
201011142023 SPECI KBLI 142023Z 18007KT 5SM BR BKN005 OVC012 10/08 A3026 RMK AO2=
201011142023 SPECI KBLI 142023Z 18007KT 5SM BR BKN005 OVC012 10/08 A3026 RMK AO2=
201011142008 SPECI KBLI 142008Z 18005KT 5SM BR BKN003 OVC026 09/08 A3027 RMK AO2 CIG 002V006=
201011142008 SPECI KBLI 142008Z 18005KT 5SM BR BKN003 OVC026 09/08 A3027 RMK AO2 CIG 002V006=
201011141953 METAR KBLI 141953Z 21005KT 2 1/2SM BR OVC003 09/08 A3027 RMK AO2 SLP260 T00940083=
201011141905 SPECI KBLI 141905Z 00000KT 2 1/2SM BR OVC003 09/08 A3028 RMK AO2=
201011141905 SPECI KBLI 141905Z 00000KT 2 1/2SM BR OVC003 09/08 A3028 RMK AO2=
201011141853 METAR KBLI 141853Z 00000KT 2SM BR OVC005 09/08 A3029 RMK AO2 SLP264 T00890078=
201011141817 SPECI KBLI 141817Z 00000KT 1SM R16/P6000FT BR SCT001 OVC007 08/07 A3029 RMK AO2=
201011141817 SPECI KBLI 141817Z 00000KT 1SM R16/P6000FT BR SCT001 OVC007 08/07 A3029 RMK AO2=
201011141810 SPECI KBLI 141810Z 00000KT 5SM BR SCT001 OVC005 08/07 A3030 RMK AO2=
201011141810 SPECI KBLI 141810Z 00000KT 5SM BR SCT001 OVC005 08/07 A3030 RMK AO2=
201011141800 SPECI KBLI 141800Z 00000KT 3SM BR BKN001 OVC007 08/07 A3030 RMK AO2=
201011141800 SPECI KBLI 141800Z 00000KT 3SM BR BKN001 OVC007 08/07 A3030 RMK AO2=
201011141753 METAR KBLI 141753Z 00000KT 3/4SM R16/P6000FT BR SCT001 OVC007 08/07 A3030 RMK AO2 SLP267 P0001 60003 T00830072 10083 20072 53003=
201011141653 METAR KBLI 141653Z 00000KT 3/4SM R16/5500VP6000FT BR FEW001 OVC007 08/07 A3029 RMK AO2 CIG 005V010 SLP266 T00780067=
201011141553 METAR KBLI 141553Z 00000KT 1SM R16/6000VP6000FT BR FEW001 OVC007 08/07 A3028 RMK AO2 SLP262 P0001 T00780067=
201011141452 METAR KBLI 141452Z 00000KT 1 1/2SM BR BKN009 OVC014 08/06 A3029 RMK AO2 SLP264 60001 T00780061 56004=
201011141451 SPECI KBLI 141451Z 00000KT 1 1/2SM BR BKN009 OVC014 08/06 A3029 RMK AO2=
201011141451 SPECI KBLI 141451Z 00000KT 1 1/2SM BR BKN009 OVC014 08/06 A3029 RMK AO2=
201011141353 METAR KBLI 141353Z AUTO 00000KT 4SM BR FEW001 OVC011 07/06 A3029 RMK AO2 SLP266 P0001 T00720061=
201011141304 SPECI KBLI 141304Z AUTO 00000KT 4SM BR FEW001 OVC013 07/06 A3029 RMK AO2=
201011141304 SPECI KBLI 141304Z AUTO 00000KT 4SM BR FEW001 OVC013 07/06 A3029 RMK AO2=
201011141253 METAR KBLI 141253Z AUTO 36003KT 4SM BR OVC013 07/06 A3029 RMK AO2 RAE13 SLP267 P0000 T00720061=
201011141235 SPECI KBLI 141235Z AUTO 00000KT 3SM BR SCT003 BKN013 OVC021 07/06 A3028 RMK AO2 RAE13 P0000=
201011141235 SPECI KBLI 141235Z AUTO 00000KT 3SM BR SCT003 BKN013 OVC021 07/06 A3028 RMK AO2 RAE13 P0000=
201011141153 METAR KBLI 141153Z AUTO 02006KT 4SM -RA BR OVC003 07/06 A3030 RMK AO2 RAB05 SLP269 P0001 60010 70026 T00720061 10072 20072 55004=
201011141053 METAR KBLI 141053Z AUTO 36003KT 4SM BR OVC003 07/06 A3030 RMK AO2 RAE50 SLP268 P0004 T00720061=
201011141024 SPECI KBLI 141024Z AUTO 03004KT 4SM RA BR BKN003 OVC012 07/06 A3030 RMK AO2 P0003=
201011141024 SPECI KBLI 141024Z AUTO 03004KT 4SM RA BR BKN003 OVC012 07/06 A3030 RMK AO2 P0003=
201011141004 SPECI KBLI 141004Z AUTO 36005KT 4SM -RA BR SCT001 OVC010 07/06 A3030 RMK AO2 P0000=
201011141004 SPECI KBLI 141004Z AUTO 36005KT 4SM -RA BR SCT001 OVC010 07/06 A3030 RMK AO2 P0000=
201011140953 METAR KBLI 140953Z AUTO 01003KT 4SM -RA BR BKN001 OVC010 07/06 A3029 RMK AO2 SLP265 P0001 T00720061=
201011140853 METAR KBLI 140853Z AUTO 01004KT 5SM -RA BR BKN001 OVC009 07/06 A3031 RMK AO2 RAB19 SLP273 P0002 60004 T00720061 56016=
201011140838 SPECI KBLI 140838Z AUTO 01003KT 6SM -RA BR BKN001 OVC009 07/06 A3031 RMK AO2 RAB19 P0001=
201011140838 SPECI KBLI 140838Z AUTO 01003KT 6SM -RA BR BKN001 OVC009 07/06 A3031 RMK AO2 RAB19 P0001=
201011140830 SPECI KBLI 140830Z AUTO 02003KT 6SM -RA BR SCT001 OVC009 07/06 A3030 RMK AO2 RAB19 PRESFR P0000=
201011140830 SPECI KBLI 140830Z AUTO 02003KT 6SM -RA BR SCT001 OVC009 07/06 A3030 RMK AO2 RAB19 PRESFR P0000=
201011140823 SPECI KBLI 140823Z AUTO 01003KT 5SM -RA BR SCT001 OVC011 07/06 A3032 RMK AO2 RAB19 P0000=
201011140823 SPECI KBLI 140823Z AUTO 01003KT 5SM -RA BR SCT001 OVC011 07/06 A3032 RMK AO2 RAB19 P0000=
201011140753 METAR KBLI 140753Z AUTO 00000KT 4SM BR OVC011 07/06 A3032 RMK AO2 SLP275 P0001 T00720056 400890061=
201011140707 SPECI KBLI 140707Z AUTO 00000KT 4SM BR FEW003 BKN011 OVC022 07/06 A3033 RMK AO2=
201011140707 SPECI KBLI 140707Z AUTO 00000KT 4SM BR FEW003 BKN011 OVC022 07/06 A3033 RMK AO2=
201011140653 METAR KBLI 140653Z AUTO 01004KT 4SM BR FEW003 OVC022 07/06 A3035 RMK AO2 RAB09E51 SLP285 P0001 T00720061=
201011140635 SPECI KBLI 140635Z AUTO 00000KT 4SM -RA BR FEW003 BKN015 OVC024 07/06 A3035 RMK AO2 RAB09 P0001=
201011140635 SPECI KBLI 140635Z AUTO 00000KT 4SM -RA BR FEW003 BKN015 OVC024 07/06 A3035 RMK AO2 RAB09 P0001=
201011140553 METAR KBLI 140553Z 00000KT 6SM BR OVC022 07/06 A3036 RMK AO2 SLP288 60013 T00720061 10083 20072 58005=
201011140453 METAR KBLI 140453Z 03004KT 4SM BR OVC018 07/06 A3037 RMK AO2 RAE44 SLP293 P0002 T00720056=
201011140353 METAR KBLI 140353Z 34003KT 8SM -RA OVC017 07/06 A3039 RMK AO2 RAB0257 SLP298 P0001 T00720056=
201011140253 METAR KBLI 140253Z 03003KT 10SM OVC017 07/06 A3037 RMK AO2 RAE45 SLP294 P0002 60010 T00720056 58015=
201011140153 METAR KBLI 140153Z 00000KT 6SM -RA BR BKN023 OVC043 07/06 A3039 RMK AO2 SLP299 P0004 T00720061=
201011140118 SPECI KBLI 140118Z 00000KT 7SM -RA BKN025 OVC045 08/06 A3040 RMK AO2 P0002=
201011140118 SPECI KBLI 140118Z 00000KT 7SM -RA BKN025 OVC045 08/06 A3040 RMK AO2 P0002=
201011140053 METAR KBLI 140053Z 02003KT 8SM -RA BKN047 OVC070 08/06 A3041 RMK AO2 SLP306 P0004 T00780061=
201011132353 METAR KBLI 132353Z 00000KT 7SM -RA OVC045 08/06 A3042 RMK AO2 RAB2257 SLP309 P0002 60002 T00830061 10089 20072 58012=
201011132326 SPECI KBLI 132326Z 01003KT 8SM -RA SCT028 OVC047 08/06 A3043 RMK AO2 RAB2257 P0001=
201011132326 SPECI KBLI 132326Z 01003KT 8SM -RA SCT028 OVC047 08/06 A3043 RMK AO2 RAB2257 P0001=
201011132253 METAR KBLI 132253Z 03003KT 10SM OVC028 08/06 A3043 RMK AO2 SLP314 T00830061=
201011132153 METAR KBLI 132153Z 01003KT 10SM OVC049 09/06 A3045 RMK AO2 SLP320 T00890056=
201011132053 METAR KBLI 132053Z 35003KT 10SM OVC031 09/06 A3045 RMK AO2 SLP321 T00890061 58008=
201011131953 METAR KBLI 131953Z 00000KT 10SM OVC031 09/06 A3047 RMK AO2 SLP325 T00890056=
201011131944 SPECI KBLI 131944Z 35003KT 10SM OVC031 08/06 A3047 RMK AO2=
201011131944 SPECI KBLI 131944Z 35003KT 10SM OVC031 08/06 A3047 RMK AO2=
201011131937 SPECI KBLI 131937Z 01004KT 10SM OVC028 08/06 A3047 RMK AO2=
201011131937 SPECI KBLI 131937Z 01004KT 10SM OVC028 08/06 A3047 RMK AO2=
201011131853 METAR KBLI 131853Z 02005KT 10SM OVC032 08/06 A3047 RMK AO2 SLP326 T00780056=
201011131753 METAR KBLI 131753Z 02003KT 10SM SCT028 OVC033 07/05 A3048 RMK AO2 SLP329 60001 T00720050 10078 20061 58005=
201011131653 METAR KBLI 131653Z 03004KT 10SM SCT028 OVC033 07/05 A3050 RMK AO2 SLP338 T00670050=
201011131553 METAR KBLI 131553Z 05004KT 10SM SCT028 BKN035 OVC070 07/04 A3050 RMK AO2 SLP338 T00670044=
201011131453 METAR KBLI 131453Z 00000KT 10SM BKN043 OVC060 06/04 A3049 RMK AO2 RAE1354B18E44 SLP335 P0000 60001 T00610044 56019=
201011131353 METAR KBLI 131353Z AUTO 03003KT 10SM -RA FEW031 OVC055 07/05 A3050 RMK AO2 RAB29 SLP337 P0000 T00670050=
201011131253 METAR KBLI 131253Z AUTO 10004KT 10SM OVC065 07/04 A3054 RMK AO2 RAE46 SLP349 P0001 T00720044=
201011131153 METAR KBLI 131153Z AUTO 00000KT 10SM -RA OVC034 07/05 A3055 RMK AO2 SLP354 P0001 60008 70008 T00670050 10072 20061 56010=
201011131053 METAR KBLI 131053Z AUTO 00000KT 7SM -RA SCT030 OVC037 07/05 A3055 RMK AO2 SLP355 P0006 T00670050=
201011130953 METAR KBLI 130953Z AUTO 00000KT 10SM -RA OVC040 07/04 A3057 RMK AO2 RAB27 SLP360 P0001 T00670044=
201011130853 METAR KBLI 130853Z AUTO 00000KT 10SM BKN065 BKN080 OVC100 06/04 A3058 RMK AO2 SLP364 T00610044 56019=
201011130753 METAR KBLI 130753Z AUTO 00000KT 10SM FEW055 BKN070 BKN100 07/04 A3059 RMK AO2 SLP367 T00670044 401060033=
201011130653 METAR KBLI 130653Z AUTO 00000KT 10SM FEW080 SCT100 07/05 A3060 RMK AO2 SLP371 T00670050=
201011130553 METAR KBLI 130553Z 00000KT 10SM BKN050 BKN080 BKN110 07/05 A3064 RMK AO2 SLP383 T00720050 10094 20072 56007=
201011130453 METAR KBLI 130453Z 00000KT 10SM SCT085 BKN110 08/05 A3064 RMK AO2 SLP384 T00780050=
201011130353 METAR KBLI 130353Z 00000KT 10SM FEW050 08/04 A3064 RMK AO2 SLP385 T00830044=
201011130253 METAR KBLI 130253Z 13003KT 10SM OVC110 09/04 A3066 RMK AO2 SLP390 T00890044 58000=
201011130153 METAR KBLI 130153Z 16003KT 10SM BKN049 09/04 A3067 RMK AO2 SLP392 T00940044=
201011130053 METAR KBLI 130053Z 16005KT 10SM BKN055 09/05 A3066 RMK AO2 SLP392 T00890050=
201011122353 METAR KBLI 122353Z 17005KT 10SM CLR 09/06 A3066 RMK AO2 SLP391 T00940056 10106 20089 56001=
201011122253 METAR KBLI 122253Z 17008KT 10SM CLR 11/06 A3066 RMK AO2 SLP391 T01060061=
201011122153 METAR KBLI 122153Z 17006KT 10SM FEW110 11/05 A3066 RMK AO2 SLP389 T01060050=
201011122053 METAR KBLI 122053Z 17008KT 10SM FEW035 11/06 A3066 RMK AO2 SLP391 T01060056 52004=
201011121953 METAR KBLI 121953Z 17011KT 10SM CLR 10/05 A3065 RMK AO2 SLP387 T01000050=
201011121853 METAR KBLI 121853Z 17006KT 10SM CLR 10/05 A3066 RMK AO2 SLP392 T01000050=
201011121753 METAR KBLI 121753Z 17006KT 10SM CLR 09/05 A3065 RMK AO2 SLP387 T00890050 10089 20033 53022=
201011121653 METAR KBLI 121653Z 00000KT 10SM FEW034 07/06 A3062 RMK AO2 SLP378 T00670056=
201011121553 METAR KBLI 121553Z 00000KT 9SM CLR 03/02 A3060 RMK AO2 SLP372 T00330017=
201011121453 METAR KBLI 121453Z AUTO 00000KT 10SM FEW041 05/04 A3058 RMK AO2 SLP365 T00500039 50011 TSNO=
201011121407 SPECI KBLI 121407Z AUTO 00000KT 10SM FEW014 BKN045 06/04 A3059 RMK AO2 TSNO=
201011121407 SPECI KBLI 121407Z AUTO 00000KT 10SM FEW014 BKN045 06/04 A3059 RMK AO2 TSNO=
201011121353 METAR KBLI 121353Z AUTO 00000KT 10SM SCT014 BKN023 OVC045 06/05 A3059 RMK AO2 SLP365 T00610050 TSNO=
201011121351 SPECI KBLI 121351Z AUTO 00000KT 10SM BKN014 BKN023 OVC045 06/05 A3058 RMK AO2 TSNO=
201011121351 SPECI KBLI 121351Z AUTO 00000KT 10SM BKN014 BKN023 OVC045 06/05 A3058 RMK AO2 TSNO=
201011121253 METAR KBLI 121253Z AUTO 20003KT 10SM BKN024 06/05 A3055 RMK AO2 SLP354 T00610050 TSNO=
201011121246 SPECI KBLI 121246Z AUTO 00000KT 10SM BKN024 06/05 A3055 RMK AO2 TSNO=
201011121246 SPECI KBLI 121246Z AUTO 00000KT 10SM BKN024 06/05 A3055 RMK AO2 TSNO=
201011121153 METAR KBLI 121153Z AUTO 00000KT 10SM BKN047 OVC060 07/05 A3053 RMK AO2 SLP345 70004 T00670050 10083 20056 51025 TSNO=
201011121053 METAR KBLI 121053Z AUTO 00000KT 10SM OVC047 06/04 A3050 RMK AO2 SLP338 T00610044 TSNO=
201011120953 METAR KBLI 120953Z AUTO 18004KT 10SM OVC070 07/04 A3048 RMK AO2 SLP329 T00720044 TSNO=
201011120853 METAR KBLI 120853Z AUTO 18003KT 10SM BKN048 OVC070 06/04 A3045 RMK AO2 SLP319 T00610044 51032 TSNO=
201011120753 METAR KBLI 120753Z AUTO 00000KT 10SM FEW023 SCT070 06/04 A3042 RMK AO2 SLP311 T00560044 401060011 TSNO=
201011120728 SPECI KBLI 120728Z AUTO 00000KT 10SM FEW026 07/05 A3040 RMK AO2 TSNO=
201011120728 SPECI KBLI 120728Z AUTO 00000KT 10SM FEW026 07/05 A3040 RMK AO2 TSNO=
201011120653 METAR KBLI 120653Z AUTO 17005KT 10SM BKN026 08/06 A3039 RMK AO2 SLP298 T00780056 TSNO=
201011120553 METAR KBLI 120553Z 17003KT 10SM CLR 08/06 A3035 RMK AO2 SLP287 60003 T00830056 10106 20083 53033=
201011120506 SPECI KBLI 120506Z 17006KT 10SM FEW017 09/06 A3033 RMK AO2=
201011120506 SPECI KBLI 120506Z 17006KT 10SM FEW017 09/06 A3033 RMK AO2=
201011120453 METAR KBLI 120453Z 18007KT 10SM BKN019 09/06 A3032 RMK AO2 SLP276 T00890061=
201011120353 METAR KBLI 120353Z 16010KT 10SM BKN017 BKN022 OVC060 09/06 A3029 RMK AO2 RAE12 SLP264 P0000 T00890061=
201011120253 METAR KBLI 120253Z 17011G19KT 10SM -RA FEW011 OVC020 09/07 A3026 RMK AO2 RAB03 SLP254 P0002 60003 T00890072 53013=
201011120217 SPECI KBLI 120217Z 16014G22KT 10SM -RA SCT016 SCT030 OVC049 09/07 A3024 RMK AO2 RAB03 P0001=
201011120217 SPECI KBLI 120217Z 16014G22KT 10SM -RA SCT016 SCT030 OVC049 09/07 A3024 RMK AO2 RAB03 P0001=
201011120153 METAR KBLI 120153Z 16014G21KT 10SM BKN018 OVC025 09/07 A3023 RMK AO2 RAE15 SLP246 P0000 T00940067=
201011120107 SPECI KBLI 120107Z 15014G21KT 10SM -RA BKN023 BKN028 OVC065 09/06 A3022 RMK AO2 P0000=
201011120107 SPECI KBLI 120107Z 15014G21KT 10SM -RA BKN023 BKN028 OVC065 09/06 A3022 RMK AO2 P0000=
201011120053 METAR KBLI 120053Z 15013G21KT 10SM -RA FEW027 BKN050 OVC065 09/06 A3021 RMK AO2 PK WND 14027/0022 SLP241 P0001 T00940056=
201011112353 METAR KBLI 112353Z 15011G17KT 10SM -RA BKN030 BKN041 OVC055 11/05 A3022 RMK AO2 RAB50 SLP241 P0000 60001 T01060050 10106 20067 53004=
201011112253 METAR KBLI 112253Z 12012G20KT 10SM FEW043 BKN055 OVC075 10/05 A3020 RMK AO2 RAE51 SLP237 P0000 T01000050=
201011112153 METAR KBLI 112153Z 15012KT 10SM -RA BKN039 OVC048 11/04 A3021 RMK AO2 RAB30 SLP239 P0001 T01060039=
201011112053 METAR KBLI 112053Z 12009KT 10SM BKN037 OVC047 10/03 A3021 RMK AO2 RAB1958E08 SLP237 P0000 60000 T01000033 58023=
201011111953 METAR KBLI 111953Z 35004KT 10SM OVC037 07/04 A3027 RMK AO2 SLP260 T00720044=
201011111853 METAR KBLI 111853Z 02005KT 10SM OVC039 07/04 A3028 RMK AO2 SLP262 T00720044=
201011111753 METAR KBLI 111753Z 35003KT 10SM OVC040 07/04 A3027 RMK AO2 SLP261 T00670039 10067 20011 55005=
201011111653 METAR KBLI 111653Z 03003KT 10SM OVC042 05/03 A3027 RMK AO2 SLP258 T00500028=
201011111553 METAR KBLI 111553Z 00000KT 10SM OVC044 04/02 A3029 RMK AO2 SLP266 T00390022=
201011111453 METAR KBLI 111453Z 00000KT 10SM OVC044 03/01 A3029 RMK AO2 SLP266 T00280011 53005=
201011111353 METAR KBLI 111353Z AUTO 00000KT 10SM CLR 02/01 A3029 RMK AO2 SLP265 T00220011=
201011111253 METAR KBLI 111253Z AUTO 00000KT 10SM FEW030 02/01 A3027 RMK AO2 SLP260 T00170006=
201011111153 METAR KBLI 111153Z AUTO 00000KT 8SM SCT047 02/00 A3028 RMK AO2 SLP262 T00170000 10033 20011 58013=
201011111053 METAR KBLI 111053Z AUTO 00000KT 9SM FEW029 01/00 A3031 RMK AO2 SLP271 T00110000=
201011110953 METAR KBLI 110953Z AUTO 00000KT 3SM BR CLR 02/01 A3032 RMK AO2 SLP275 T00220011=
201011110853 METAR KBLI 110853Z AUTO 00000KT 10SM BKN036 02/01 A3031 RMK AO2 SLP274 T00220011 50002=
201011110753 METAR KBLI 110753Z AUTO 00000KT 9SM OVC036 03/01 A3032 RMK AO2 SLP275 T00280011 401110022=
201011110653 METAR KBLI 110653Z AUTO 00000KT 9SM FEW038 02/01 A3031 RMK AO2 SLP273 T00220011=
201011110631 SPECI KBLI 110631Z AUTO 00000KT 3SM BR CLR 02/01 A3031 RMK AO2=
201011110631 SPECI KBLI 110631Z AUTO 00000KT 3SM BR CLR 02/01 A3031 RMK AO2=
201011110628 SPECI KBLI 110628Z AUTO 00000KT 1 1/2SM BR FEW001 02/01 A3031 RMK AO2=
201011110628 SPECI KBLI 110628Z AUTO 00000KT 1 1/2SM BR FEW001 02/01 A3031 RMK AO2=
201011110621 SPECI KBLI 110621Z AUTO 00000KT 1 3/4SM BR CLR 03/02 A3031 RMK AO2=
201011110621 SPECI KBLI 110621Z AUTO 00000KT 1 3/4SM BR CLR 03/02 A3031 RMK AO2=
201011110553 METAR KBLI 110553Z 00000KT 10SM CLR 04/03 A3031 RMK AO2 SLP271 T00390028 10094 20028 53015=
201011110453 METAR KBLI 110453Z 00000KT 9SM FEW034 03/01 A3029 RMK AO2 SLP266 T00280011=
201011110353 METAR KBLI 110353Z 00000KT 10SM CLR 04/02 A3028 RMK AO2 SLP262 T00390022=
201011110253 METAR KBLI 110253Z 00000KT 10SM CLR 04/02 A3027 RMK AO2 SLP258 T00390022 51013=
201011110153 METAR KBLI 110153Z 00000KT 10SM CLR 05/03 A3026 RMK AO2 SLP255 T00500028=
201011110053 METAR KBLI 110053Z 26004KT 10SM CLR 08/04 A3024 RMK AO2 SLP248 T00780039=
201011102353 METAR KBLI 102353Z 25004KT 10SM CLR 09/04 A3023 RMK AO2 SLP244 T00940044 10111 20083 53008=
201011102253 METAR KBLI 102253Z 28004KT 10SM CLR 11/03 A3021 RMK AO2 SLP239 T01060033=
201011102153 METAR KBLI 102153Z 30006KT 10SM CLR 11/04 A3021 RMK AO2 SLP238 T01110039=
201011102053 METAR KBLI 102053Z 31004KT 10SM CLR 11/03 A3020 RMK AO2 SLP236 T01060033 53015=
201011101953 METAR KBLI 101953Z 01005KT 10SM CLR 11/02 A3018 RMK AO2 SLP229 T01060022=
201011101853 METAR KBLI 101853Z 31005KT 10SM CLR 10/03 A3018 RMK AO2 SLP227 T01000028=
201011101753 METAR KBLI 101753Z 35006KT 10SM CLR 08/03 A3016 RMK AO2 SLP221 T00830033 10083 20039 51027=
201011101653 METAR KBLI 101653Z 34006KT 10SM CLR 07/03 A3013 RMK AO2 SLP212 T00670028=
201011101553 METAR KBLI 101553Z 34003KT 10SM CLR 04/02 A3011 RMK AO2 SLP206 T00390017=
201011101453 METAR KBLI 101453Z 34005KT 10SM CLR 04/02 A3008 RMK AO2 SLP194 T00440017 53030=
201011101353 METAR KBLI 101353Z AUTO 33005KT 10SM CLR 04/02 A3004 RMK AO2 SLP181 T00440022=
201011101253 METAR KBLI 101253Z AUTO 36005KT 10SM SCT075 06/03 A3001 RMK AO2 SLP170 T00560028=
201011101153 METAR KBLI 101153Z AUTO 36006KT 10SM OVC070 07/03 A2999 RMK AO2 SLP162 60000 70008 T00670033 10067 20061 51024=
201011101053 METAR KBLI 101053Z AUTO 36005KT 10SM OVC065 07/03 A2997 RMK AO2 SLP156 T00670033=
201011100953 METAR KBLI 100953Z AUTO 36006KT 10SM BKN060 OVC085 07/03 A2994 RMK AO2 SLP148 T00670033=
201011100853 METAR KBLI 100853Z AUTO 01006KT 10SM OVC065 07/03 A2991 RMK AO2 RAB0759E18 SLP138 P0000 60000 T00670033 51024=
201011100753 METAR KBLI 100753Z AUTO 01006KT 10SM OVC060 07/03 A2990 RMK AO2 RAB18E35 SLP131 P0000 T00670033 400830050=
201011100653 METAR KBLI 100653Z AUTO 01005KT 10SM BKN065 OVC090 07/04 A2987 RMK AO2 SLP123 T00670039=
201011100553 METAR KBLI 100553Z 01006KT 10SM BKN044 OVC060 07/04 A2984 RMK AO2 SLP113 60005 T00670039 10072 20061 53025=
201011100453 METAR KBLI 100453Z 02006KT 10SM BKN042 OVC050 06/04 A2981 RMK AO2 RAE23 SLP103 P0000 T00610039=
201011100353 METAR KBLI 100353Z 02005KT 10SM -RA BKN040 OVC050 06/04 A2979 RMK AO2 SLP096 P0002 T00610039=
201011100253 METAR KBLI 100253Z 03007KT 10SM -RA OVC040 06/04 A2977 RMK AO2 SLP088 P0002 60003 T00610039 53019=
201011100153 METAR KBLI 100153Z 02008KT 10SM -RA OVC038 07/04 A2975 RMK AO2 RAB17 SLP082 P0001 T00670039=
201011100053 METAR KBLI 100053Z 03006KT 10SM OVC038 07/04 A2973 RMK AO2 RAE45 SLP074 P0000 T00670039=
201011092353 METAR KBLI 092353Z 05006KT 10SM -RA OVC040 07/04 A2971 RMK AO2 RAB2255 SLP069 P0001 60003 T00720039 10083 20067 53005=
201011092253 METAR KBLI 092253Z 04007KT 10SM OVC042 08/03 A2970 RMK AO2 RAE20 SLP065 P0000 T00780033=
201011092153 METAR KBLI 092153Z 02005KT 10SM -RA OVC040 08/03 A2969 RMK AO2 RAB10 SLP063 P0001 T00780033=
201011092053 METAR KBLI 092053Z 03009KT 10SM OVC055 08/03 A2970 RMK AO2 SLP064 60001 T00780028 56029=
201011091953 METAR KBLI 091953Z 04011KT 10SM SCT044 BKN090 08/04 A2971 RMK AO2 RAB13E51 SLP068 P0000 T00830039=
201011091853 METAR KBLI 091853Z 06006KT 10SM OVC065 07/03 A2975 RMK AO2 RAE38 SLP083 P0001 T00720028=
201011091753 METAR KBLI 091753Z 07006KT 10SM -RA FEW025 OVC044 08/02 A2978 RMK AO2 SLP093 P0000 60000 T00780022 10078 20050 58022=
201011091653 METAR KBLI 091653Z 09006KT 10SM -RA FEW037 OVC044 08/02 A2981 RMK AO2 RAB44 SLP102 P0000 T00780022=
201011091553 METAR KBLI 091553Z 11008KT 10SM BKN041 OVC048 08/02 A2983 RMK AO2 SLP109 T00780017=
201011091453 METAR KBLI 091453Z 10007KT 10SM SCT039 OVC065 07/02 A2985 RMK AO2 SLP115 T00670022 58028=
201011091353 METAR KBLI 091353Z AUTO 02003KT 10SM OVC041 06/03 A2988 RMK AO2 SLP128 T00560033=
201011091253 METAR KBLI 091253Z AUTO 35003KT 10SM OVC039 05/03 A2992 RMK AO2 SLP140 T00500028=
201011091153 METAR KBLI 091153Z AUTO 12007KT 10SM BKN034 07/02 A2993 RMK AO2 SLP143 70004 T00720022 10072 20061 58022=
201011091053 METAR KBLI 091053Z AUTO 12007KT 10SM FEW028 07/02 A2996 RMK AO2 SLP152 T00670022=
201011091003 SPECI KBLI 091003Z AUTO 13010KT 10SM FEW023 07/03 A2997 RMK AO2=
201011091003 SPECI KBLI 091003Z AUTO 13010KT 10SM FEW023 07/03 A2997 RMK AO2=
201011090953 METAR KBLI 090953Z AUTO 12007KT 10SM BKN023 07/03 A2997 RMK AO2 SLP157 T00670028=
201011090918 SPECI KBLI 090918Z AUTO 13009KT 10SM BKN023 07/03 A2998 RMK AO2=
201011090918 SPECI KBLI 090918Z AUTO 13009KT 10SM BKN023 07/03 A2998 RMK AO2=
201011090902 SPECI KBLI 090902Z AUTO 12008KT 10SM SCT025 SCT040 07/03 A2999 RMK AO2=
201011090902 SPECI KBLI 090902Z AUTO 12008KT 10SM SCT025 SCT040 07/03 A2999 RMK AO2=
201011090853 METAR KBLI 090853Z AUTO 11008KT 10SM BKN025 BKN040 07/03 A3000 RMK AO2 SLP165 T00670028 58009=
201011090753 METAR KBLI 090753Z AUTO 13008KT 10SM BKN025 OVC030 07/03 A3001 RMK AO2 SLP171 T00720033 401000050=
201011090728 SPECI KBLI 090728Z AUTO 12009KT 10SM BKN028 BKN034 OVC055 07/03 A3002 RMK AO2=
201011090728 SPECI KBLI 090728Z AUTO 12009KT 10SM BKN028 BKN034 OVC055 07/03 A3002 RMK AO2=
201011090717 SPECI KBLI 090717Z AUTO 13009KT 10SM SCT026 BKN032 OVC055 07/03 A3002 RMK AO2=
201011090717 SPECI KBLI 090717Z AUTO 13009KT 10SM SCT026 BKN032 OVC055 07/03 A3002 RMK AO2=
201011090653 METAR KBLI 090653Z AUTO 11009KT 10SM BKN024 BKN050 OVC060 07/03 A3002 RMK AO2 SLP174 T00670033=
201011090651 SPECI KBLI 090651Z AUTO 12008KT 10SM SCT024 BKN029 BKN050 07/03 A3002 RMK AO2=
201011090651 SPECI KBLI 090651Z AUTO 12008KT 10SM SCT024 BKN029 BKN050 07/03 A3002 RMK AO2=
201011090553 METAR KBLI 090553Z 14009G14KT 10SM FEW032 06/03 A3003 RMK AO2 SLP178 60004 T00610033 10089 20050 56006=
201011090453 METAR KBLI 090453Z 15004KT 10SM FEW047 OVC055 07/04 A3004 RMK AO2 SLP179 T00670039=
201011090353 METAR KBLI 090353Z 00000KT 10SM SCT050 BKN070 05/04 A3004 RMK AO2 SLP181 T00500039=
201011090253 METAR KBLI 090253Z 16003KT 10SM CLR 06/04 A3005 RMK AO2 SLP184 60004 T00610039 57003=
201011090153 METAR KBLI 090153Z 16004KT 10SM FEW060 07/05 A3006 RMK AO2 RAE11 SLP186 P0000 T00670050=
201011090053 METAR KBLI 090053Z 13005KT 8SM -RA BKN032 BKN044 OVC095 08/06 A3006 RMK AO2 RAB02 SLP186 P0004 T00830056=
201011090020 SPECI KBLI 090020Z 16008G16KT 7SM -RA BKN030 BKN037 BKN110 08/04 A3006 RMK AO2 RAB02 P0002=
201011090020 SPECI KBLI 090020Z 16008G16KT 7SM -RA BKN030 BKN037 BKN110 08/04 A3006 RMK AO2 RAB02 P0002=
201011082353 METAR KBLI 082353Z 17007KT 10SM BKN110 09/05 A3006 RMK AO2 SLP187 60000 T00890050 10100 20078 53002=
201011082253 METAR KBLI 082253Z 17009KT 10SM CLR 09/04 A3006 RMK AO2 SLP186 T00940044=
201011082153 METAR KBLI 082153Z 17008KT 10SM CLR 09/04 A3006 RMK AO2 SLP185 T00940039=
201011082053 METAR KBLI 082053Z 16008G16KT 10SM CLR 09/04 A3006 RMK AO2 SLP185 60000 T00940039 58002=
201011081953 METAR KBLI 081953Z 17010G15KT 10SM SCT028 BKN046 09/04 A3006 RMK AO2 RAB08E32 SLP188 P0000 T00890039=
201011081950 SPECI KBLI 081950Z 16011G15KT 10SM SCT028 BKN046 09/04 A3006 RMK AO2 RAB08E32 P0000=
201011081950 SPECI KBLI 081950Z 16011G15KT 10SM SCT028 BKN046 09/04 A3006 RMK AO2 RAB08E32 P0000=
201011081939 SPECI KBLI 081939Z 17008KT 10SM BKN028 BKN037 BKN044 08/04 A3006 RMK AO2 RAB08E32 P0000=
201011081939 SPECI KBLI 081939Z 17008KT 10SM BKN028 BKN037 BKN044 08/04 A3006 RMK AO2 RAB08E32 P0000=
201011081853 METAR KBLI 081853Z 17012G18KT 10SM FEW036 09/04 A3006 RMK AO2 RAB24E36 SLP188 P0000 T00890044=
201011081753 METAR KBLI 081753Z 16010KT 10SM R16/5500VP6000FT FEW012 BKN043 08/04 A3005 RMK AO2 SLP185 T00780044 10083 20056 51015=
201011081653 METAR KBLI 081653Z 17007KT 10SM CLR 08/04 A3004 RMK AO2 SLP180 T00780044=
201011081553 METAR KBLI 081553Z 16006KT 10SM CLR 07/04 A3003 RMK AO2 SLP176 T00670039=
201011081453 METAR KBLI 081453Z 16005KT 10SM SCT037 07/04 A3001 RMK AO2 SLP170 T00670039 51015=
201011081353 METAR KBLI 081353Z AUTO 17006KT 10SM FEW070 07/04 A3000 RMK AO2 SLP166 T00720039=
201011081253 METAR KBLI 081253Z AUTO 16007KT 10SM CLR 07/04 A2998 RMK AO2 SLP161 T00720044=
201011081153 METAR KBLI 081153Z AUTO 17007KT 10SM BKN100 OVC120 08/06 A2997 RMK AO2 SLP154 60002 70003 T00830056 10089 20078 51010=
201011081053 METAR KBLI 081053Z AUTO 17010KT 10SM FEW023 BKN065 BKN090 08/06 A2996 RMK AO2 SLP152 T00830061=
201011081034 SPECI KBLI 081034Z AUTO 16008KT 10SM FEW019 SCT025 BKN085 08/06 A2996 RMK AO2=
201011081034 SPECI KBLI 081034Z AUTO 16008KT 10SM FEW019 SCT025 BKN085 08/06 A2996 RMK AO2=
201011080953 METAR KBLI 080953Z AUTO 16005KT 10SM SCT022 BKN028 BKN080 08/06 A2995 RMK AO2 RAE0859 SLP149 P0000 T00830061=
201011080853 METAR KBLI 080853Z AUTO 12008KT 10SM -RA BKN060 OVC100 08/06 A2994 RMK AO2 RAB00 SLP144 P0002 60002 T00830061 50002=
201011080753 METAR KBLI 080753Z AUTO 15007KT 10SM FEW045 BKN060 OVC095 09/06 A2994 RMK AO2 RAE19 SLP147 P0000 T00890061 401330083=
201011080653 METAR KBLI 080653Z AUTO 17003KT 10SM -RA FEW023 OVC041 08/07 A2994 RMK AO2 RAB48 SLP144 P0000 T00830067=
201011080553 METAR KBLI 080553Z 14006KT 10SM OVC039 08/06 A2993 RMK AO2 RAB01E11B35E48 SLP142 P0000 60000 T00830061 10111 20083 51007=
201011080453 METAR KBLI 080453Z 14006KT 10SM OVC035 09/06 A2993 RMK AO2 SLP142 T00890056=
201011080353 METAR KBLI 080353Z 14005KT 10SM SCT024 OVC033 09/06 A2992 RMK AO2 SLP139 T00940056=
201011080337 SPECI KBLI 080337Z 15009KT 10SM BKN024 BKN030 OVC055 10/06 A2992 RMK AO2=
201011080337 SPECI KBLI 080337Z 15009KT 10SM BKN024 BKN030 OVC055 10/06 A2992 RMK AO2=
201011080330 SPECI KBLI 080330Z 16007KT 10SM SCT023 BKN030 OVC055 09/07 A2992 RMK AO2=
201011080330 SPECI KBLI 080330Z 16007KT 10SM SCT023 BKN030 OVC055 09/07 A2992 RMK AO2=
201011080323 SPECI KBLI 080323Z 18006KT 10SM BKN028 OVC055 10/07 A2991 RMK AO2=
201011080323 SPECI KBLI 080323Z 18006KT 10SM BKN028 OVC055 10/07 A2991 RMK AO2=
201011080253 METAR KBLI 080253Z 00000KT 10SM OVC055 08/07 A2991 RMK AO2 RAE12B40E52 SLP136 P0000 60000 T00830067 53006=
201011080153 METAR KBLI 080153Z 00000KT 10SM -RA OVC055 09/07 A2990 RMK AO2 RAB43 SLP132 P0000 T00940072=
201011080053 METAR KBLI 080053Z 00000KT 10SM FEW050 BKN065 OVC110 11/07 A2989 RMK AO2 SLP130 T01060067=
201011072353 METAR KBLI 072353Z 17003KT 10SM CLR 11/06 A2989 RMK AO2 SLP128 T01110061 10122 20111 53010=
201011072253 METAR KBLI 072253Z 18006KT 10SM CLR 12/06 A2988 RMK AO2 SLP125 T01170061=
201011072153 METAR KBLI 072153Z 16006KT 10SM FEW025 12/06 A2987 RMK AO2 SLP121 T01220061=
201011072053 METAR KBLI 072053Z 18008KT 10SM CLR 12/06 A2986 RMK AO2 SLP119 T01220061 51009=
201011071953 METAR KBLI 071953Z 16005KT 10SM FEW110 11/07 A2986 RMK AO2 SLP117 T01110067=
201011071853 METAR KBLI 071853Z 16010KT 10SM FEW035 11/07 A2986 RMK AO2 SLP118 T01110072=
201011071753 METAR KBLI 071753Z 17009KT 10SM OVC065 12/07 A2983 RMK AO2 SLP110 60001 T01170072 10117 20089 51020=
201011071653 METAR KBLI 071653Z 17005KT 10SM BKN070 10/06 A2982 RMK AO2 SLP104 T01000061=
201011071553 METAR KBLI 071553Z AUTO 14003KT 10SM SCT080 BKN095 09/07 A2980 RMK AO2 RAE1457 SLP098 P0000 T00890067=
201011071453 METAR KBLI 071453Z AUTO 15004KT 10SM -RA FEW044 BKN055 OVC090 09/07 A2978 RMK AO2 RAB01 SLP090 P0001 60001 T00940067 51025=
201011071353 METAR KBLI 071353Z AUTO 18003KT 10SM BKN075 OVC100 10/07 A2976 RMK AO2 SLP083 T01000067=
201011071253 METAR KBLI 071253Z AUTO 00000KT 10SM FEW080 09/07 A2973 RMK AO2 SLP075 T00890067=
201011071153 METAR KBLI 071153Z AUTO 16005KT 10SM SCT070 BKN095 10/08 A2970 RMK AO2 RAE25 SLP065 P0001 60011 70018 T01000078 10144 20100 53029=
201011071053 METAR KBLI 071053Z AUTO 15005KT 10SM -RA OVC050 10/08 A2966 RMK AO2 SLP052 P0002 T01000083=
201011070953 METAR KBLI 070953Z AUTO 18005KT 10SM -RA SCT047 OVC070 11/08 A2964 RMK AO2 SLP045 P0006 T01060083=
201011070853 METAR KBLI 070853Z AUTO 17011G18KT 9SM -RA FEW023 SCT033 OVC048 12/09 A2962 RMK AO2 RAB09 SLP036 P0002 60002 T01170089 51018=
201011070816 SPECI KBLI 070816Z AUTO 17013G21KT 10SM -RA BKN028 OVC033 13/08 A2960 RMK AO2 RAB09 P0000=
201011070816 SPECI KBLI 070816Z AUTO 17013G21KT 10SM -RA BKN028 OVC033 13/08 A2960 RMK AO2 RAB09 P0000=
201011070753 METAR KBLI 070753Z AUTO 17015G27KT 10SM FEW030 SCT036 OVC090 13/07 A2959 RMK AO2 PK WND 15034/0707 RAE03 SLP028 P0000 T01330072 401440083=
201011070653 METAR KBLI 070653Z AUTO 15021G35KT 10SM -RA BKN070 OVC095 13/07 A2956 RMK AO2 PK WND 14035/0644 RAB36 SLP018 P0000 T01330072=
201011070553 METAR KBLI 070553Z AUTO 15020G34KT 10SM FEW030 OVC090 14/08 A2954 RMK AO2 PK WND 15040/0455 SLP011 60006 T01440083 10144 20100 55008=
201011070453 METAR KBLI 070453Z 14021G44KT 10SM FEW028 OVC110 14/09 A2953 RMK AO2 PK WND 14044/0449 SLP005 T01440089=
201011070353 METAR KBLI 070353Z 15019G33KT 10SM SCT030 BKN090 14/09 A2953 RMK AO2 PK WND 14036/0340 WSHFT 0246 SLP008 T01440089=
201011070314 SPECI KBLI 070314Z 14022G28KT 10SM SCT028 BKN033 OVC100 14/09 A2954 RMK AO2 PK WND 14029/0257 WSHFT 0246=
201011070314 SPECI KBLI 070314Z 14022G28KT 10SM SCT028 BKN033 OVC100 14/09 A2954 RMK AO2 PK WND 14029/0257 WSHFT 0246=
201011070306 SPECI KBLI 070306Z 14019G29KT 10SM BKN028 BKN034 OVC100 14/09 A2956 RMK AO2 PK WND 14029/0257 WSHFT 0246=
201011070306 SPECI KBLI 070306Z 14019G29KT 10SM BKN028 BKN034 OVC100 14/09 A2956 RMK AO2 PK WND 14029/0257 WSHFT 0246=
201011070253 METAR KBLI 070253Z 14016G26KT 10SM BKN030 BKN035 OVC046 13/09 A2957 RMK AO2 PK WND 13026/0249 RAE16 SLP019 P0001 60006 T01330094 56021=
201011070153 METAR KBLI 070153Z 03007KT 10SM -RA BKN031 OVC060 11/09 A2960 RMK AO2 SLP029 P0005 T01060089=
201011070150 SPECI KBLI 070150Z 04007KT 10SM -RA BKN031 BKN055 OVC065 11/09 A2960 RMK AO2 P0005=
201011070150 SPECI KBLI 070150Z 04007KT 10SM -RA BKN031 BKN055 OVC065 11/09 A2960 RMK AO2 P0005=
201011070116 SPECI KBLI 070116Z 04005KT 8SM -RA BKN027 OVC033 11/09 A2962 RMK AO2 P0002=
201011070116 SPECI KBLI 070116Z 04005KT 8SM -RA BKN027 OVC033 11/09 A2962 RMK AO2 P0002=
201011070053 METAR KBLI 070053Z 04004KT 10SM -RA OVC034 11/09 A2963 RMK AO2 RAB53 SLP041 P0000 T01060089=
201011070020 SPECI KBLI 070020Z 02005KT 10SM BKN030 OVC037 11/09 A2964 RMK AO2=
201011070020 SPECI KBLI 070020Z 02005KT 10SM BKN030 OVC037 11/09 A2964 RMK AO2=
201011062353 METAR KBLI 062353Z 34004KT 10SM BKN028 OVC032 11/09 A2966 RMK AO2 SLP051 T01060089 10111 20094 58023=
201011062253 METAR KBLI 062253Z 03005KT 10SM OVC023 11/09 A2968 RMK AO2 SLP058 T01110089=
201011062222 SPECI KBLI 062222Z 01004KT 10SM BKN023 OVC027 11/09 A2971 RMK AO2=
201011062222 SPECI KBLI 062222Z 01004KT 10SM BKN023 OVC027 11/09 A2971 RMK AO2=
201011062153 METAR KBLI 062153Z 02004KT 10SM SCT021 BKN030 OVC035 11/09 A2972 RMK AO2 SLP069 T01060089=
201011062135 SPECI KBLI 062135Z 35006KT 10SM SCT024 OVC034 11/09 A2971 RMK AO2=
201011062135 SPECI KBLI 062135Z 35006KT 10SM SCT024 OVC034 11/09 A2971 RMK AO2=
201011062053 METAR KBLI 062053Z 03006KT 10SM FEW006 BKN021 OVC026 11/09 A2973 RMK AO2 SLP076 T01060089 58028=
201011062045 SPECI KBLI 062045Z 02005KT 10SM SCT006 OVC024 11/09 A2974 RMK AO2=
201011062045 SPECI KBLI 062045Z 02005KT 10SM SCT006 OVC024 11/09 A2974 RMK AO2=
201011062009 SPECI KBLI 062009Z 03007KT 10SM BKN006 BKN018 OVC025 11/08 A2976 RMK AO2=
201011062009 SPECI KBLI 062009Z 03007KT 10SM BKN006 BKN018 OVC025 11/08 A2976 RMK AO2=
201011061953 METAR KBLI 061953Z 03007KT 5SM BR BKN004 OVC016 10/08 A2977 RMK AO2 SLP087 T01000083=
201011061900 SPECI KBLI 061900Z 02006KT 10SM OVC004 09/08 A2980 RMK AO2 CIG 003V006=
201011061900 SPECI KBLI 061900Z 02006KT 10SM OVC004 09/08 A2980 RMK AO2 CIG 003V006=
201011061853 METAR KBLI 061853Z 02006KT 1 1/2SM BR OVC004 09/08 A2980 RMK AO2 CIG 002V006 SLP098 T00940083=
201011061753 METAR KBLI 061753Z 02003KT 1SM R16/P6000FT BR BKN002 OVC012 09/08 A2981 RMK AO2 SLP103 60001 T00940078 10094 20089 58000=
201011061725 SPECI KBLI 061725Z 00000KT 1SM R16/5500VP6000FT BR BKN002 OVC010 09/08 A2981 RMK AO2=
201011061725 SPECI KBLI 061725Z 00000KT 1SM R16/5500VP6000FT BR BKN002 OVC010 09/08 A2981 RMK AO2=
201011061716 SPECI KBLI 061716Z 00000KT 1SM R16/5500V6000FT BR SCT002 OVC010 09/08 A2981 RMK AO2=
201011061716 SPECI KBLI 061716Z 00000KT 1SM R16/5500V6000FT BR SCT002 OVC010 09/08 A2981 RMK AO2=
201011061708 SPECI KBLI 061708Z 00000KT 2 1/2SM R16/5500VP6000FT BR FEW002 BKN010 OVC013 09/08 A2981 RMK AO2 CIG 008V012=
201011061708 SPECI KBLI 061708Z 00000KT 2 1/2SM R16/5500VP6000FT BR FEW002 BKN010 OVC013 09/08 A2981 RMK AO2 CIG 008V012=
201011061700 SPECI KBLI 061700Z 00000KT 3SM BR FEW002 OVC013 09/08 A2981 RMK AO2=
201011061700 SPECI KBLI 061700Z 00000KT 3SM BR FEW002 OVC013 09/08 A2981 RMK AO2=
201011061653 METAR KBLI 061653Z 00000KT 2SM BR BKN010 OVC015 09/08 A2982 RMK AO2 SLP105 T00940078=
201011061643 SPECI KBLI 061643Z 00000KT 2SM BR SCT010 OVC015 09/08 A2982 RMK AO2=
201011061643 SPECI KBLI 061643Z 00000KT 2SM BR SCT010 OVC015 09/08 A2982 RMK AO2=
201011061628 SPECI KBLI 061628Z 00000KT 2SM BR BKN010 OVC015 09/08 A2981 RMK AO2 CIG 008V013=
201011061628 SPECI KBLI 061628Z 00000KT 2SM BR BKN010 OVC015 09/08 A2981 RMK AO2 CIG 008V013=
201011061611 SPECI KBLI 061611Z 00000KT 1 1/2SM BR SCT002 OVC008 09/08 A2981 RMK AO2=
201011061611 SPECI KBLI 061611Z 00000KT 1 1/2SM BR SCT002 OVC008 09/08 A2981 RMK AO2=
201011061553 METAR KBLI 061553Z 00000KT 3/4SM R16/P6000FT BR OVC002 09/08 A2981 RMK AO2 SLP104 T00890078=
201011061453 METAR KBLI 061453Z 00000KT 3/4SM R16/P6000FT BR BKN002 OVC010 09/08 A2982 RMK AO2 SLP105 60001 T00890078 56007=
201011061353 METAR KBLI 061353Z 00000KT 3/4SM R16/P6000FT BR OVC002 09/08 A2982 RMK AO2 SLP105 T00890078=
201011061333 SPECI KBLI 061333Z AUTO 00000KT 3SM BR OVC002 09/08 A2982 RMK AO2=
201011061333 SPECI KBLI 061333Z AUTO 00000KT 3SM BR OVC002 09/08 A2982 RMK AO2=
201011061321 SPECI KBLI 061321Z AUTO 00000KT 2 1/2SM BR OVC002 09/07 A2982 RMK AO2=
201011061321 SPECI KBLI 061321Z AUTO 00000KT 2 1/2SM BR OVC002 09/07 A2982 RMK AO2=
201011061253 METAR KBLI 061253Z AUTO 00000KT 1 3/4SM R16/5000VP6000FT BR BKN002 OVC015 09/07 A2982 RMK AO2 SLP107 P0001 T00890072=
201011061234 SPECI KBLI 061234Z AUTO 00000KT 2 1/2SM R16/6000VP6000FT BR OVC002 09/07 A2983 RMK AO2 P0001=
201011061234 SPECI KBLI 061234Z AUTO 00000KT 2 1/2SM R16/6000VP6000FT BR OVC002 09/07 A2983 RMK AO2 P0001=
201011061225 SPECI KBLI 061225Z AUTO 00000KT 1 1/2SM R16/3500VP6000FT BR OVC002 09/08 A2983 RMK AO2 P0001=
201011061225 SPECI KBLI 061225Z AUTO 00000KT 1 1/2SM R16/3500VP6000FT BR OVC002 09/08 A2983 RMK AO2 P0001=
201011061214 SPECI KBLI 061214Z AUTO 00000KT 2 1/2SM R16/4500VP6000FT BR OVC002 09/08 A2983 RMK AO2 P0001=
201011061214 SPECI KBLI 061214Z AUTO 00000KT 2 1/2SM R16/4500VP6000FT BR OVC002 09/08 A2983 RMK AO2 P0001=
201011061153 METAR KBLI 061153Z AUTO 00000KT 3SM BR OVC002 09/08 A2984 RMK AO2 SLP112 70013 T00890078 10089 20083 58006=
201011061053 METAR KBLI 061053Z AUTO 00000KT 5SM BR OVC004 09/07 A2985 RMK AO2 SLP115 T00890072=
201011060953 METAR KBLI 060953Z AUTO 00000KT 4SM BR BKN002 OVC021 09/08 A2985 RMK AO2 SLP116 T00890078=
201011060853 METAR KBLI 060853Z AUTO 00000KT 6SM BR BKN004 OVC024 08/07 A2986 RMK AO2 SLP118 T00830072 56005=
201011060845 SPECI KBLI 060845Z AUTO 00000KT 6SM BR BKN004 OVC024 08/07 A2986 RMK AO2=
201011060845 SPECI KBLI 060845Z AUTO 00000KT 6SM BR BKN004 OVC024 08/07 A2986 RMK AO2=
201011060831 SPECI KBLI 060831Z AUTO 00000KT 6SM BR SCT004 OVC024 09/07 A2985 RMK AO2=
201011060831 SPECI KBLI 060831Z AUTO 00000KT 6SM BR SCT004 OVC024 09/07 A2985 RMK AO2=
201011060753 METAR KBLI 060753Z AUTO 00000KT 6SM BR BKN004 OVC025 09/07 A2986 RMK AO2 SLP118 T00890072 401060083=
201011060724 SPECI KBLI 060724Z AUTO 00000KT 7SM BKN004 OVC025 08/07 A2986 RMK AO2=
201011060724 SPECI KBLI 060724Z AUTO 00000KT 7SM BKN004 OVC025 08/07 A2986 RMK AO2=
201011060710 SPECI KBLI 060710Z AUTO 00000KT 8SM FEW004 OVC025 09/07 A2986 RMK AO2=
201011060710 SPECI KBLI 060710Z AUTO 00000KT 8SM FEW004 OVC025 09/07 A2986 RMK AO2=
201011060653 METAR KBLI 060653Z AUTO 00000KT 7SM BKN025 OVC031 08/07 A2986 RMK AO2 SLP119 T00830072=
201011060553 METAR KBLI 060553Z AUTO 00000KT 5SM BR OVC044 08/07 A2987 RMK AO2 SLP123 60001 T00830072 10089 20083 55001=
201011060509 SPECI KBLI 060509Z 00000KT 9SM SCT025 OVC046 09/08 A2987 RMK AO2=
201011060509 SPECI KBLI 060509Z 00000KT 9SM SCT025 OVC046 09/08 A2987 RMK AO2=
201011060453 METAR KBLI 060453Z 00000KT 8SM BKN025 OVC046 09/07 A2986 RMK AO2 SLP120 T00890072=
201011060353 METAR KBLI 060353Z 00000KT 9SM OVC027 09/07 A2987 RMK AO2 SLP123 T00890072=
201011060344 SPECI KBLI 060344Z 00000KT 10SM BKN027 OVC049 09/08 A2987 RMK AO2=
201011060344 SPECI KBLI 060344Z 00000KT 10SM BKN027 OVC049 09/08 A2987 RMK AO2=
201011060253 METAR KBLI 060253Z 00000KT 8SM OVC049 09/08 A2987 RMK AO2 RAB19E53 SLP123 P0000 60001 T00890078 58002=
201011060153 METAR KBLI 060153Z 00000KT 10SM FEW017 OVC037 09/07 A2988 RMK AO2 SLP124 T00890072=
201011060119 SPECI KBLI 060119Z 00000KT 6SM BR SCT015 OVC027 09/08 A2988 RMK AO2=
201011060119 SPECI KBLI 060119Z 00000KT 6SM BR SCT015 OVC027 09/08 A2988 RMK AO2=
201011060100 SPECI KBLI 060100Z 00000KT 3SM BR BKN015 BKN027 OVC034 09/07 A2988 RMK AO2=
201011060100 SPECI KBLI 060100Z 00000KT 3SM BR BKN015 BKN027 OVC034 09/07 A2988 RMK AO2=
201011060053 METAR KBLI 060053Z 00000KT 2SM BR BKN010 BKN027 OVC034 09/08 A2988 RMK AO2 RAB10E26 SLP126 P0001 T00890078=
201011060028 SPECI KBLI 060028Z 00000KT 1 1/2SM BR SCT005 BKN010 OVC016 09/07 A2988 RMK AO2 RAB10E26 P0001=
201011060028 SPECI KBLI 060028Z 00000KT 1 1/2SM BR SCT005 BKN010 OVC016 09/07 A2988 RMK AO2 RAB10E26 P0001=
201011052352 METAR KBLI 052352Z 00000KT 2SM R16/3000V5000FT BR BKN013 BKN018 OVC025 09/08 A2988 RMK AO2 RAB03E51 SLP125 P0001 60008 T00890078 10100 20089 55000=
201011052351 SPECI KBLI 052351Z 00000KT 2SM R16/3000V5000FT BR BKN013 BKN018 OVC025 09/08 A2988 RMK AO2 RAB03E51 P0001=
201011052351 SPECI KBLI 052351Z 00000KT 2SM R16/3000V5000FT BR BKN013 BKN018 OVC025 09/08 A2988 RMK AO2 RAB03E51 P0001=
201011052253 METAR KBLI 052253Z 00000KT 5SM BR SCT011 BKN019 OVC030 09/07 A2987 RMK AO2 RAE37 SLP123 P0001 T00890072=
201011052251 SPECI KBLI 052251Z 00000KT 5SM BR SCT011 BKN019 OVC030 09/07 A2987 RMK AO2 RAE37 P0001=
201011052251 SPECI KBLI 052251Z 00000KT 5SM BR SCT011 BKN019 OVC030 09/07 A2987 RMK AO2 RAE37 P0001=
201011052240 SPECI KBLI 052240Z 00000KT 3SM BR BKN006 BKN011 OVC014 09/07 A2987 RMK AO2 RAE37 P0001=
201011052240 SPECI KBLI 052240Z 00000KT 3SM BR BKN006 BKN011 OVC014 09/07 A2987 RMK AO2 RAE37 P0001=
201011052153 METAR KBLI 052153Z 31003KT 2SM -RA BR BKN004 OVC010 09/08 A2988 RMK AO2 RAB18 SLP125 P0003 T00940078=
201011052126 SPECI KBLI 052126Z 00000KT 2 1/2SM -RA BR BKN006 OVC013 09/08 A2987 RMK AO2 RAB18 P0001=
201011052126 SPECI KBLI 052126Z 00000KT 2 1/2SM -RA BR BKN006 OVC013 09/08 A2987 RMK AO2 RAB18 P0001=
201011052110 SPECI KBLI 052110Z 00000KT 2 1/2SM BR BKN004 OVC013 09/08 A2987 RMK AO2 P0001=
201011052110 SPECI KBLI 052110Z 00000KT 2 1/2SM BR BKN004 OVC013 09/08 A2987 RMK AO2 P0001=
201011052101 SPECI KBLI 052101Z 00000KT 2 1/2SM BR BKN006 OVC013 09/08 A2987 RMK AO2=
201011052101 SPECI KBLI 052101Z 00000KT 2 1/2SM BR BKN006 OVC013 09/08 A2987 RMK AO2=
201011052053 METAR KBLI 052053Z 27003KT 3SM BR BKN006 BKN011 OVC033 09/08 A2988 RMK AO2 SLP125 60003 T00940078 55002=
201011052000 SPECI KBLI 052000Z 00000KT 3SM BR BKN006 BKN011 OVC021 10/08 A2988 RMK AO2=
201011052000 SPECI KBLI 052000Z 00000KT 3SM BR BKN006 BKN011 OVC021 10/08 A2988 RMK AO2=
201011051953 METAR KBLI 051953Z 00000KT 2SM BR BKN006 BKN011 OVC021 10/08 A2988 RMK AO2 RAB19E29 SLP125 P0001 T01000083=
201011051853 METAR KBLI 051853Z 00000KT 3SM BR OVC009 10/08 A2988 RMK AO2 RAE38 CIG 005V015 SLP127 P0002 T01000083=
201011051829 SPECI KBLI 051829Z 34003KT 3SM -RA BR BKN006 OVC011 10/08 A2988 RMK AO2 CIG 003V009 P0002=
201011051829 SPECI KBLI 051829Z 34003KT 3SM -RA BR BKN006 OVC011 10/08 A2988 RMK AO2 CIG 003V009 P0002=
201011051800 SPECI KBLI 051800Z 00000KT 2 1/2SM R16/5500VP6000FT -RA BR BKN006 OVC010 10/09 A2989 RMK AO2 CIG 003V009 P0000=
201011051800 SPECI KBLI 051800Z 00000KT 2 1/2SM R16/5500VP6000FT -RA BR BKN006 OVC010 10/09 A2989 RMK AO2 CIG 003V009 P0000=
201011051753 METAR KBLI 051753Z 00000KT 2SM -RA BR FEW002 BKN004 OVC010 10/08 A2989 RMK AO2 RAE09B39 SLP127 P0002 60004 T01000083 10106 20100 50008=
201011051705 SPECI KBLI 051705Z 29004KT 3SM -RA BR FEW002 BKN004 OVC010 10/08 A2988 RMK AO2 P0000=
201011051705 SPECI KBLI 051705Z 29004KT 3SM -RA BR FEW002 BKN004 OVC010 10/08 A2988 RMK AO2 P0000=
201011051658 SPECI KBLI 051658Z 29005KT 5SM -RA BR BKN006 OVC010 10/08 A2989 RMK AO2 CIG 002V009 P0000=
201011051658 SPECI KBLI 051658Z 29005KT 5SM -RA BR BKN006 OVC010 10/08 A2989 RMK AO2 CIG 002V009 P0000=
201011051653 METAR KBLI 051653Z 29005KT 2SM -RA BR BKN004 OVC010 10/08 A2989 RMK AO2 RAE18B35 CIG 002V007 SLP127 P0001 T01000083=
201011051600 SPECI KBLI 051600Z 00000KT 2SM -RA BR OVC002 11/09 A2986 RMK AO2 P0000=
201011051600 SPECI KBLI 051600Z 00000KT 2SM -RA BR OVC002 11/09 A2986 RMK AO2 P0000=
201011051553 METAR KBLI 051553Z 00000KT 1SM R16/P6000FT -RA BR OVC002 11/09 A2986 RMK AO2 RAB41 CIG 001V005 SLP119 P0001 T01060094=
201011051549 SPECI KBLI 051549Z 00000KT 3/4SM R16/P6000FT -RA BR VV001 11/09 A2986 RMK AO2 RAB41 P0001=
201011051549 SPECI KBLI 051549Z 00000KT 3/4SM R16/P6000FT -RA BR VV001 11/09 A2986 RMK AO2 RAB41 P0001=
201011051453 METAR KBLI 051453Z 00000KT 2 1/2SM BR OVC003 10/09 A2984 RMK AO2 RAB15E42 SLP113 P0000 60000 T01000094 55000=
201011051450 SPECI KBLI 051450Z 00000KT 2 1/2SM BR OVC003 10/09 A2984 RMK AO2 RAB15E42 P0000=
201011051450 SPECI KBLI 051450Z 00000KT 2 1/2SM BR OVC003 10/09 A2984 RMK AO2 RAB15E42 P0000=
201011051416 SPECI KBLI 051416Z 28004KT 5SM -RA BR BKN005 BKN011 OVC021 11/09 A2984 RMK AO2 RAB15 P0000=
201011051416 SPECI KBLI 051416Z 28004KT 5SM -RA BR BKN005 BKN011 OVC021 11/09 A2984 RMK AO2 RAB15 P0000=
201011051353 METAR KBLI 051353Z 00000KT 6SM BR BKN013 OVC020 11/09 A2984 RMK AO2 SLP112 T01060089=
201011051349 SPECI KBLI 051349Z 00000KT 7SM BKN013 OVC018 11/09 A2984 RMK AO2=
201011051349 SPECI KBLI 051349Z 00000KT 7SM BKN013 OVC018 11/09 A2984 RMK AO2=
201011051253 METAR KBLI 051253Z AUTO 00000KT 6SM BR FEW003 OVC029 10/09 A2985 RMK AO2 SLP116 T01000089=
201011051238 SPECI KBLI 051238Z AUTO 00000KT 5SM BR SCT001 OVC031 10/09 A2986 RMK AO2=
201011051238 SPECI KBLI 051238Z AUTO 00000KT 5SM BR SCT001 OVC031 10/09 A2986 RMK AO2=
201011051208 SPECI KBLI 051208Z AUTO 10004KT 3SM BR OVC001 10/09 A2987 RMK AO2=
201011051208 SPECI KBLI 051208Z AUTO 10004KT 3SM BR OVC001 10/09 A2987 RMK AO2=
201011051153 METAR KBLI 051153Z AUTO 08003KT 1SM R16/2800V5500FT BR VV001 10/09 A2988 RMK AO2 SLP124 T01000089 10111 20083 58008=
201011051137 SPECI KBLI 051137Z AUTO 08004KT 1/2SM R16/1800V2600FT FG VV001 09/08 A2988 RMK AO2=
201011051137 SPECI KBLI 051137Z AUTO 08004KT 1/2SM R16/1800V2600FT FG VV001 09/08 A2988 RMK AO2=
201011051128 SPECI KBLI 051128Z AUTO 08003KT 1SM R16/2000V3500FT BR VV001 09/08 A2988 RMK AO2=
201011051128 SPECI KBLI 051128Z AUTO 08003KT 1SM R16/2000V3500FT BR VV001 09/08 A2988 RMK AO2=
201011051112 SPECI KBLI 051112Z AUTO 00000KT 1/2SM R16/2600V4500FT FG VV001 10/09 A2990 RMK AO2=
201011051112 SPECI KBLI 051112Z AUTO 00000KT 1/2SM R16/2600V4500FT FG VV001 10/09 A2990 RMK AO2=
201011051101 SPECI KBLI 051101Z AUTO 00000KT 1SM R16/2000VP6000FT BR VV001 10/09 A2990 RMK AO2=
201011051101 SPECI KBLI 051101Z AUTO 00000KT 1SM R16/2000VP6000FT BR VV001 10/09 A2990 RMK AO2=
201011051053 METAR KBLI 051053Z AUTO 00000KT 1/2SM R16/1600V3000FT FG VV001 10/09 A2989 RMK AO2 SLP127 T01000094=
201011051042 SPECI KBLI 051042Z AUTO 00000KT 1/2SM R16/1600V2000FT FG VV001 10/09 A2990 RMK AO2=
201011051042 SPECI KBLI 051042Z AUTO 00000KT 1/2SM R16/1600V2000FT FG VV001 10/09 A2990 RMK AO2=
201011051037 SPECI KBLI 051037Z AUTO 00000KT 3/4SM R16/1800V3500FT BR VV001 10/09 A2990 RMK AO2=
201011051037 SPECI KBLI 051037Z AUTO 00000KT 3/4SM R16/1800V3500FT BR VV001 10/09 A2990 RMK AO2=
201011051030 SPECI KBLI 051030Z AUTO 00000KT 2SM R16/3000V4500FT BR OVC002 10/08 A2990 RMK AO2=
201011051030 SPECI KBLI 051030Z AUTO 00000KT 2SM R16/3000V4500FT BR OVC002 10/08 A2990 RMK AO2=
201011051020 SPECI KBLI 051020Z AUTO 00000KT 5SM BR BKN002 BKN050 10/08 A2990 RMK AO2=
201011051020 SPECI KBLI 051020Z AUTO 00000KT 5SM BR BKN002 BKN050 10/08 A2990 RMK AO2=
201011051004 SPECI KBLI 051004Z AUTO 27003KT 10SM SCT002 SCT050 BKN085 09/08 A2991 RMK AO2=
201011051004 SPECI KBLI 051004Z AUTO 27003KT 10SM SCT002 SCT050 BKN085 09/08 A2991 RMK AO2=
201011050953 METAR KBLI 050953Z AUTO 23003KT 10SM BKN085 09/07 A2992 RMK AO2 SLP139 T00940072=
201011050853 METAR KBLI 050853Z AUTO 00000KT 10SM CLR 09/07 A2990 RMK AO2 SLP132 T00890072 58018=
201011050753 METAR KBLI 050753Z AUTO 00000KT 10SM CLR 09/07 A2994 RMK AO2 SLP144 T00890072 401610044=
201011050653 METAR KBLI 050653Z AUTO 16005KT 10SM CLR 11/07 A2995 RMK AO2 SLP149 T01060072=
201011050553 METAR KBLI 050553Z AUTO 18006KT 10SM CLR 11/07 A2996 RMK AO2 SLP151 T01110072 10144 20083 51001=
201011050453 METAR KBLI 050453Z 18006KT 10SM CLR 11/08 A2995 RMK AO2 SLP150 T01060078=
201011050353 METAR KBLI 050353Z 16003KT 10SM CLR 08/07 A2995 RMK AO2 SLP151 T00830067=
201011050253 METAR KBLI 050253Z 00000KT 10SM CLR 10/08 A2995 RMK AO2 SLP150 T01000078 55004=
201011050153 METAR KBLI 050153Z 00000KT 10SM CLR 11/08 A2995 RMK AO2 SLP149 T01060078=
201011050053 METAR KBLI 050053Z 00000KT 10SM CLR 12/08 A2996 RMK AO2 SLP153 T01220083=
201011042353 METAR KBLI 042353Z 00000KT 10SM CLR 14/10 A2996 RMK AO2 SLP154 T01440100 10161 20122 56022=
201011042253 METAR KBLI 042253Z 07004KT 10SM CLR 16/09 A2998 RMK AO2 SLP157 T01560089=
201011042153 METAR KBLI 042153Z 00000KT 10SM CLR 16/07 A3000 RMK AO2 SLP167 T01610072=
201011042053 METAR KBLI 042053Z 00000KT 10SM CLR 15/09 A3003 RMK AO2 SLP176 T01500089 58016=
201011041953 METAR KBLI 041953Z 00000KT 10SM CLR 14/08 A3004 RMK AO2 SLP181 T01390078=
201011041853 METAR KBLI 041853Z 00000KT 10SM CLR 13/07 A3007 RMK AO2 SLP191 T01330072=
201011041753 METAR KBLI 041753Z 00000KT 10SM CLR 12/07 A3008 RMK AO2 SLP191 T01220072 10122 20044 50002=
201011041653 METAR KBLI 041653Z 01003KT 10SM CLR 10/06 A3008 RMK AO2 SLP195 T01000061=
201011041553 METAR KBLI 041553Z 00000KT 10SM CLR 07/05 A3008 RMK AO2 SLP194 T00670050=
201011041453 METAR KBLI 041453Z 00000KT 10SM CLR 05/03 A3007 RMK AO2 SLP190 T00500033 58002=
201011041353 METAR KBLI 041353Z AUTO 00000KT 10SM CLR 04/03 A3008 RMK AO2 SLP193 T00440033=
201011041305 SPECI KBLI 041305Z AUTO 00000KT 8SM CLR 05/03 A3008 RMK AO2=
201011041305 SPECI KBLI 041305Z AUTO 00000KT 8SM CLR 05/03 A3008 RMK AO2=
201011041256 SPECI KBLI 041256Z AUTO 00000KT 2 1/2SM BR FEW001 05/03 A3009 RMK AO2 VIS 3/4V5=
201011041256 SPECI KBLI 041256Z AUTO 00000KT 2 1/2SM BR FEW001 05/03 A3009 RMK AO2 VIS 3/4V5=
201011041253 METAR KBLI 041253Z AUTO 00000KT 5SM BR CLR 04/03 A3009 RMK AO2 SLP196 T00440033=
201011041153 METAR KBLI 041153Z AUTO 00000KT 10SM CLR 05/03 A3008 RMK AO2 SLP191 T00500033 10078 20044 58005=
201011041053 METAR KBLI 041053Z AUTO 00000KT 10SM CLR 06/04 A3009 RMK AO2 SLP196 T00560044=
201011040953 METAR KBLI 040953Z AUTO 35003KT 10SM CLR 05/03 A3009 RMK AO2 SLP195 T00500033=
201011040853 METAR KBLI 040853Z AUTO 00000KT 10SM CLR 06/03 A3009 RMK AO2 SLP197 T00560033 58008=
201011040753 METAR KBLI 040753Z AUTO 00000KT 10SM CLR 07/04 A3010 RMK AO2 SLP199 T00670044 401940050=
201011040653 METAR KBLI 040653Z AUTO 00000KT 10SM CLR 07/05 A3011 RMK AO2 SLP203 T00670050=
201011040553 METAR KBLI 040553Z AUTO 00000KT 10SM CLR 07/05 A3012 RMK AO2 SLP205 T00720050 10150 20072 55001=
201011040453 METAR KBLI 040453Z 00000KT 10SM CLR 08/06 A3011 RMK AO2 SLP205 T00780056=
201011040353 METAR KBLI 040353Z 00000KT 10SM CLR 09/06 A3012 RMK AO2 SLP207 T00940056=
201011040253 METAR KBLI 040253Z 33004KT 10SM CLR 11/06 A3012 RMK AO2 SLP208 T01060056 53008=
201011040153 METAR KBLI 040153Z 00000KT 10SM CLR 11/08 A3011 RMK AO2 SLP202 T01060078=
201011040053 METAR KBLI 040053Z 29003KT 10SM CLR 12/09 A3011 RMK AO2 SLP201 T01220089=
201011032353 METAR KBLI 032353Z 00000KT 10SM CLR 15/09 A3010 RMK AO2 SLP198 T01500089 10194 20133 56021=
201011032253 METAR KBLI 032253Z 00000KT 10SM CLR 18/06 A3011 RMK AO2 SLP203 T01830061=
201011032153 METAR KBLI 032153Z 00000KT 10SM CLR 18/06 A3012 RMK AO2 SLP206 T01830061=
201011032053 METAR KBLI 032053Z 00000KT 10SM CLR 17/06 A3016 RMK AO2 SLP219 T01720056 58028=
201011031953 METAR KBLI 031953Z VRB03KT 10SM CLR 17/06 A3020 RMK AO2 SLP233 T01670056=
201011031853 METAR KBLI 031853Z 00000KT 10SM CLR 14/07 A3022 RMK AO2 SLP241 T01440067=
201011031753 METAR KBLI 031753Z 00000KT 10SM CLR 14/06 A3024 RMK AO2 SLP248 T01390056 10139 20050 58013=
201011031653 METAR KBLI 031653Z 00000KT 10SM CLR 10/06 A3026 RMK AO2 SLP254 T01000056=
201011031553 METAR KBLI 031553Z 00000KT 10SM CLR 06/04 A3027 RMK AO2 SLP258 T00610039=
201011031453 METAR KBLI 031453Z 00000KT 10SM CLR 05/03 A3028 RMK AO2 SLP262 T00500033 58013=
201011031353 METAR KBLI 031353Z 00000KT 10SM CLR 07/04 A3030 RMK AO2 SLP268 T00720039=
201011031253 METAR KBLI 031253Z AUTO 00000KT 10SM CLR 08/05 A3032 RMK AO2 SLP273 T00780050=
201011031153 METAR KBLI 031153Z AUTO 35005KT 10SM CLR 09/04 A3032 RMK AO2 SLP274 T00940044 10100 20089 56025=
201011031053 METAR KBLI 031053Z AUTO 04004KT 10SM CLR 09/04 A3035 RMK AO2 SLP283 T00940044=
201011030953 METAR KBLI 030953Z AUTO 01009KT 10SM CLR 10/04 A3037 RMK AO2 SLP290 T01000044=
201011030853 METAR KBLI 030853Z AUTO 01007KT 10SM CLR 09/05 A3039 RMK AO2 SLP300 T00940050 56021=
201011030753 METAR KBLI 030753Z AUTO 35006KT 10SM CLR 09/05 A3041 RMK AO2 SLP306 T00940050 401610089=
201011030653 METAR KBLI 030653Z AUTO 02009KT 10SM CLR 09/05 A3043 RMK AO2 SLP313 T00940050=
201011030553 METAR KBLI 030553Z AUTO 02007KT 10SM CLR 09/06 A3046 RMK AO2 SLP321 T00940056 10144 20089 58013=
201011030453 METAR KBLI 030453Z 02006KT 10SM CLR 09/06 A3047 RMK AO2 SLP327 T00940061=
201011030353 METAR KBLI 030353Z 02009KT 10SM CLR 10/07 A3049 RMK AO2 SLP333 T01000067=
201011030253 METAR KBLI 030253Z 01008KT 10SM CLR 11/07 A3050 RMK AO2 SLP334 T01110072 58010=
201011030153 METAR KBLI 030153Z 36005KT 10SM CLR 11/07 A3052 RMK AO2 SLP341 T01110072=
201011030053 METAR KBLI 030053Z 01007KT 10SM CLR 13/08 A3051 RMK AO2 SLP340 T01280083=
201011022353 METAR KBLI 022353Z 02006KT 10SM CLR 14/08 A3053 RMK AO2 SLP344 T01440078 10161 20117 56024=
201011022253 METAR KBLI 022253Z 36007KT 10SM CLR 16/08 A3054 RMK AO2 SLP347 T01560078=
201011022153 METAR KBLI 022153Z 01006KT 10SM CLR 16/09 A3056 RMK AO2 SLP355 T01610094=
201011022053 METAR KBLI 022053Z 00000KT 10SM CLR 15/08 A3060 RMK AO2 SLP368 T01500083 58004=
201011021953 METAR KBLI 021953Z 16005KT 10SM CLR 14/09 A3061 RMK AO2 SLP374 T01390089=
201011021853 METAR KBLI 021853Z 12004KT 10SM CLR 14/09 A3062 RMK AO2 SLP375 T01390094=
201011021753 METAR KBLI 021753Z 17004KT 10SM CLR 12/10 A3061 RMK AO2 SLP372 T01220100 10122 20094 51024=
201011021653 METAR KBLI 021653Z 16005KT 10SM CLR 12/09 A3059 RMK AO2 SLP366 T01220094=
201011021553 METAR KBLI 021553Z 16004KT 10SM CLR 11/09 A3057 RMK AO2 SLP358 T01060089=
201011021453 METAR KBLI 021453Z 18005KT 10SM FEW025 10/08 A3053 RMK AO2 SLP347 T01000083 51030=
201011021353 METAR KBLI 021353Z 18005KT 10SM FEW026 11/09 A3052 RMK AO2 SLP341 T01060094=
201011021253 METAR KBLI 021253Z AUTO 19003KT 10SM CLR 12/08 A3048 RMK AO2 PRESRR SLP330 T01170083=
201011021153 METAR KBLI 021153Z AUTO 15004KT 10SM CLR 11/08 A3045 RMK AO2 SLP317 P0001 60001 70075 T01060083 10122 20100 53025=
201011021053 METAR KBLI 021053Z AUTO 16005KT 10SM CLR 11/09 A3042 RMK AO2 SLP307 T01060089=
201011020953 METAR KBLI 020953Z AUTO 16007KT 10SM CLR 11/09 A3040 RMK AO2 SLP302 T01110094=
201011020853 METAR KBLI 020853Z AUTO 19005KT 10SM SCT026 BKN037 12/10 A3037 RMK AO2 SLP292 60000 T01170100 53021=
201011020826 SPECI KBLI 020826Z AUTO 19005KT 10SM BKN026 OVC120 12/10 A3036 RMK AO2=
201011020826 SPECI KBLI 020826Z AUTO 19005KT 10SM BKN026 OVC120 12/10 A3036 RMK AO2=
201011020753 METAR KBLI 020753Z AUTO 17005KT 10SM FEW020 SCT120 12/10 A3034 RMK AO2 RAE00 SLP283 P0000 T01170100 401440094=
201011020653 METAR KBLI 020653Z AUTO 18005KT 10SM -RA BKN060 BKN070 OVC110 12/11 A3031 RMK AO2 RAE07B43 SLP272 P0000 T01170106=
201011020610 SPECI KBLI 020610Z AUTO 16009KT 10SM SCT020 OVC055 12/11 A3031 RMK AO2 RAE07 P0000=
201011020610 SPECI KBLI 020610Z AUTO 16009KT 10SM SCT020 OVC055 12/11 A3031 RMK AO2 RAE07 P0000=
201011020553 METAR KBLI 020553Z AUTO 18005KT 9SM -RA FEW006 BKN024 OVC060 12/11 A3031 RMK AO2 SLP271 P0015 60027 T01220106 10133 20117 51040=
201011020548 SPECI KBLI 020548Z AUTO 19005KT 7SM -RA FEW006 BKN027 OVC055 12/11 A3031 RMK AO2 P0015=
201011020548 SPECI KBLI 020548Z AUTO 19005KT 7SM -RA FEW006 BKN027 OVC055 12/11 A3031 RMK AO2 P0015=
201011020540 SPECI KBLI 020540Z AUTO 18008KT 8SM RA BKN010 BKN023 OVC037 12/11 A3031 RMK AO2 CIG 004V015 P0014=
201011020540 SPECI KBLI 020540Z AUTO 18008KT 8SM RA BKN010 BKN023 OVC037 12/11 A3031 RMK AO2 CIG 004V015 P0014=
201011020525 SPECI KBLI 020525Z 17009KT 5SM -RA BR BKN009 BKN025 OVC043 12/11 A3029 RMK AO2 P0011=
201011020525 SPECI KBLI 020525Z 17009KT 5SM -RA BR BKN009 BKN025 OVC043 12/11 A3029 RMK AO2 P0011=
201011020520 SPECI KBLI 020520Z VRB04KT 3SM +RA BR FEW005 BKN025 OVC043 12/11 A3029 RMK AO2 P0011=
201011020520 SPECI KBLI 020520Z VRB04KT 3SM +RA BR FEW005 BKN025 OVC043 12/11 A3029 RMK AO2 P0011=
201011020453 METAR KBLI 020453Z 17009KT 9SM -RA BKN036 BKN048 OVC055 12/11 A3025 RMK AO2 SLP250 P0009 T01220106=
201011020353 METAR KBLI 020353Z 17013G21KT 10SM -RA FEW020 BKN055 OVC070 13/10 A3019 RMK AO2 RAB44 SLP231 P0000 T01280100=
201011020253 METAR KBLI 020253Z 16011G18KT 10SM FEW023 OVC065 13/10 A3016 RMK AO2 RAE0157B38E51 SLP222 P0000 60003 T01280100 53017=
201011020243 SPECI KBLI 020243Z 15012G18KT 10SM -RA FEW019 SCT024 OVC070 13/10 A3016 RMK AO2 RAE0157B38 P0000=
201011020243 SPECI KBLI 020243Z 15012G18KT 10SM -RA FEW019 SCT024 OVC070 13/10 A3016 RMK AO2 RAE0157B38 P0000=
201011020153 METAR KBLI 020153Z 17005G14KT 10SM -RA BKN017 BKN023 OVC045 13/11 A3014 RMK AO2 RAB29 SLP214 P0003 T01280106=
201011020145 SPECI KBLI 020145Z 15009G14KT 8SM RA BKN020 OVC046 13/11 A3014 RMK AO2 RAB29 P0003=
201011020145 SPECI KBLI 020145Z 15009G14KT 8SM RA BKN020 OVC046 13/11 A3014 RMK AO2 RAB29 P0003=
201011020053 METAR KBLI 020053Z 18008KT 10SM FEW037 BKN060 OVC075 13/11 A3013 RMK AO2 RAE22 SLP210 P0000 T01280106=
201011020023 SPECI KBLI 020023Z 15010KT 10SM FEW020 BKN065 OVC085 13/11 A3012 RMK AO2 RAE22 P0000=
201011020023 SPECI KBLI 020023Z 15010KT 10SM FEW020 BKN065 OVC085 13/11 A3012 RMK AO2 RAE22 P0000=
201011020010 SPECI KBLI 020010Z 16009KT 10SM -RA FEW019 BKN029 OVC085 13/11 A3012 RMK AO2 P0000=
201011020010 SPECI KBLI 020010Z 16009KT 10SM -RA FEW019 BKN029 OVC085 13/11 A3012 RMK AO2 P0000=
201011012353 METAR KBLI 012353Z 16011G15KT 10SM -RA SCT026 OVC034 13/11 A3011 RMK AO2 RAB44 SLP205 P0000 60000 T01330106 10144 20128 53025=
201011012253 METAR KBLI 012253Z 16013G18KT 10SM BKN041 BKN065 OVC080 13/12 A3008 RMK AO2 SLP193 T01330117=
201011012237 SPECI KBLI 012237Z 16011KT 10SM SCT017 BKN041 OVC085 13/12 A3007 RMK AO2=
201011012237 SPECI KBLI 012237Z 16011KT 10SM SCT017 BKN041 OVC085 13/12 A3007 RMK AO2=
201011012212 SPECI KBLI 012212Z 17010KT 10SM BKN016 BKN021 OVC044 13/12 A3007 RMK AO2=
201011012212 SPECI KBLI 012212Z 17010KT 10SM BKN016 BKN021 OVC044 13/12 A3007 RMK AO2=
201011012202 SPECI KBLI 012202Z 16011G18KT 10SM SCT016 BKN037 OVC044 13/12 A3006 RMK AO2=
201011012202 SPECI KBLI 012202Z 16011G18KT 10SM SCT016 BKN037 OVC044 13/12 A3006 RMK AO2=
201011012153 METAR KBLI 012153Z 16010KT 10SM BKN016 BKN031 OVC037 13/12 A3006 RMK AO2 SLP187 T01330122=
201011012053 METAR KBLI 012053Z 16012G20KT 10SM BKN015 BKN020 OVC025 13/12 A3004 RMK AO2 SLP180 60000 T01330117 50022=
201011011953 METAR KBLI 011953Z 20004KT 10SM OVC015 13/12 A3004 RMK AO2 SLP181 T01280117=
201011011853 METAR KBLI 011853Z 18009G19KT 10SM BKN019 BKN024 OVC060 14/12 A3000 RMK AO2 PK WND 14028/1754 RAE04 SLP167 P0000 T01390122=
201011011842 SPECI KBLI 011842Z 18006KT 10SM BKN022 OVC060 14/12 A3000 RMK AO2 PK WND 14028/1754 RAE04 P0000=
201011011842 SPECI KBLI 011842Z 18006KT 10SM BKN022 OVC060 14/12 A3000 RMK AO2 PK WND 14028/1754 RAE04 P0000=
201011011753 METAR KBLI 011753Z 15018G27KT 10SM -RA FEW017 BKN038 OVC065 13/12 A2997 RMK AO2 PK WND 14032/1706 SLP157 P0004 60047 T01330117 10144 20128 51014=
201011011653 METAR KBLI 011653Z 14018G22KT 8SM -RA BKN044 BKN055 OVC075 13/12 A2998 RMK AO2 SLP157 P0007 T01330117=
201011011553 METAR KBLI 011553Z 15016G26KT 8SM RA FEW024 BKN050 OVC065 13/11 A2998 RMK AO2 PK WND 15033/1526 PRESRR SLP157 P0008 T01330106=
201011011514 SPECI KBLI 011514Z 17012G24KT 5SM -RA BKN028 OVC050 13/10 A2995 RMK AO2 PK WND 17028/1456 P0003=
201011011514 SPECI KBLI 011514Z 17012G24KT 5SM -RA BKN028 OVC050 13/10 A2995 RMK AO2 PK WND 17028/1456 P0003=
201011011453 METAR KBLI 011453Z 16019G30KT 8SM -RA FEW031 BKN060 OVC075 14/10 A2993 RMK AO2 PK WND 14034/1412 PRESRR SLP143 P0010 60028 T01390100 53023=
201011011353 METAR KBLI 011353Z 15020G33KT 8SM RA FEW047 OVC070 14/09 A2989 RMK AO2 PK WND 15035/1343 SLP129 P0011 T01390094=
201011011253 METAR KBLI 011253Z AUTO 15021G28KT 8SM RA FEW039 BKN047 OVC080 14/10 A2987 RMK AO2 PK WND 14033/1212 SLP121 P0007 T01390100=
201011011153 METAR KBLI 011153Z AUTO 15021G31KT 10SM -RA OVC085 14/08 A2986 RMK AO2 PK WND 14033/1105 RAB1057 SLP119 P0000 60007 70008 T01440083 10144 20094 56033=
201011011053 METAR KBLI 011053Z AUTO 14019G27KT 10SM FEW065 OVC085 14/07 A2989 RMK AO2 PK WND 12032/1005 SLP129 T01390067=
201011010953 METAR KBLI 010953Z AUTO 14018G25KT 10SM OVC100 13/06 A2993 RMK AO2 SLP142 T01280061=
201011010853 METAR KBLI 010853Z AUTO 31006KT 10SM FEW047 OVC100 11/07 A2996 RMK AO2 RAE00 SLP152 P0000 60007 T01060067 58022=
201011010753 METAR KBLI 010753Z AUTO 11012G21KT 10SM -RA BKN060 OVC075 10/07 A2998 RMK AO2 PK WND 11026/0728 PRESFR SLP159 P0004 T01000067 401280094=
201011010653 METAR KBLI 010653Z AUTO 12012KT 10SM -RA OVC050 10/06 A3003 RMK AO2 SLP177 P0003 T01000061=
201011010553 METAR KBLI 010553Z AUTO 11010KT 10SM -RA BKN050 OVC060 10/06 A3002 RMK AO2 SLP174 P0001 60001 T01000056 10122 20100 57000=
201011010453 METAR KBLI 010453Z 14008KT 10SM -RA OVC055 11/04 A3002 RMK AO2 RAB08 SLP173 P0000 T01110044=
201011010353 METAR KBLI 010353Z 12012G17KT 10SM BKN070 OVC090 12/03 A3003 RMK AO2 SLP175 T01170033=
201011010253 METAR KBLI 010253Z 15011G17KT 10SM OVC100 12/03 A3003 RMK AO2 SLP174 T01220033 56009=
201011010153 METAR KBLI 010153Z 12008KT 10SM OVC110 11/04 A3003 RMK AO2 SLP175 T01110044=
201011010053 METAR KBLI 010053Z 13009KT 10SM FEW110 12/05 A3005 RMK AO2 SLP181 T01170050=

# No short TAF reports from KBLI in databse.

###################################
#  large TAF from KBLI
###################################
201011302320 TAF KBLI 302320Z 0100/0124 16012G22KT P6SM SCT020 OVC040
                      TEMPO 0100/0104 4SM -SHRA BR BKN020 OVC040
                       FM010400 19012KT P6SM VCSH BKN040 FM010900
                       VRB04KT P6SM VCSH BKN030 FM011800 16006KT
                       P6SM SCT030 BKN050=
201011302118 KBLI 302118Z 3021/0118 15022G34KT P6SM SCT025 OVC060
                      TEMPO 3021/3024 4SM -RA BR BKN025 OVC040
                       FM010000 20012G22KT P6SM -SHRA SCT025 BKN040
                       FM010300 20010KT P6SM VCSH SCT020 BKN035
                       BKN060 FM010600 19008KT P6SM VCSH BKN020
                       BKN050 FM011700 VRB04KT P6SM SCT025 BKN050=
201011301720 TAF KBLI 301720Z 3018/0118 15010G20KT P6SM -RA SCT015 OVC040
                      TEMPO 3018/3022 4SM RA BR BKN015 OVC040 FM302200
                       20012G22KT P6SM -SHRA BKN015 OVC030 FM010000
                       20010KT P6SM VCSH SCT020 BKN035 BKN060 FM010600
                       19008KT P6SM VCSH BKN020 BKN050 FM011700
                       VRB04KT P6SM SCT025 BKN050=
201011301141 TAF KBLI 301141Z 3012/0112 15015G25KT P6SM -RA FEW018 OVC030 FM301800
                       18020G30KT 5SM -RA BR FEW009 OVC018 FM302100
                       18013KT P6SM -SHRA BKN018 OVC030 FM010000
                       17009KT P6SM SCT022 BKN035 BKN050
                      TEMPO 0100/0104 -SHRA FM010400 15006KT P6SM
                       BKN025 BKN050
                      PROB30 0104/0108 -SHRA FM010800 15006KT P6SM
                       OVC018
                      PROB30 0108/0112 -SHRA=
201011300552 TAF KBLI 300552Z 3006/0106 15017G27KT P6SM SCT035 OVC060
                      TEMPO 3006/3009 -RA FM300900 15017G27KT P6SM
                       -RA SCT018 OVC035 FM301200 15022G32KT 5SM
                       -RA BR FEW012 OVC025 FM301800 18022G32KT
                       5SM -RA BR FEW009 OVC018 FM302100 18013KT
                       P6SM -SHRA BKN018 OVC030 FM010000 17009KT
                       P6SM SCT022 BKN035 BKN050
                      TEMPO 0100/0104 -SHRA FM010400 15006KT P6SM
                       BKN025 BKN050
                      PROB30 0104/0106 -SHRA=
201011300305 KBLI 300305Z 3003/3024 14015G23KT P6SM SCT035 OVC050
                      TEMPO 3003/3005 -RA BKN035 OVC050 FM300500
                       13017G27KT 5SM -RA BR SCT015 OVC025 FM301800
                       18012G20KT P6SM -SHRA BKN020 OVC050 FM302200
                       20012KT P6SM VCSH SCT020 BKN050=
201011292325 TAF KBLI 292325Z 3000/3024 12012G20KT P6SM -RA BKN035 OVC045 FM300400
                       13017G27KT 5SM -RA BR SCT015 OVC025 FM301800
                       18012G20KT P6SM -SHRA BKN020 OVC050 FM302200
                       20012KT P6SM VCSH SCT020 BKN050=
201011292112 KBLI 292112Z 2921/3018 13010G20KT P6SM SCT035 OVC045 FM300000 12015G25KT
                       P6SM -RA OVC030 FM300600 13017G27KT 5SM
                       -RA BR SCT015 OVC025 FM301700 18012G20KT
                       P6SM -SHRA BKN020 OVC050=
201011291720 TAF KBLI 291720Z 2918/3018 00000KT P6SM BKN030 OVC070 FM292200
                       12012G22KT P6SM -RA OVC030 FM300600 13017G27KT
                       5SM -RA BR SCT015 OVC025 FM301700 18012G20KT
                       P6SM -SHRA BKN020 OVC050=
201011291454 KBLI 291454Z 2915/3012 01003KT P6SM BKN028 OVC035
                      TEMPO 2915/2918 SCT028 OVC045 FM291800 09006KT
                       P6SM FEW028 OVC060 FM300000 12011KT 6SM
                       -RA BR SCT028 OVC040 FM300600 13015G25KT
                       5SM -RA BR SCT015 OVC028=
201011291258 KBLI 291258Z 2913/3012 VRB03KT 6SM BR FEW028 SCT050 OVC150
                      TEMPO 2913/2916 3SM BR FEW028 BKN050 OVC150
                       FM291800 09006KT P6SM FEW028 OVC060 FM300000
                       12011KT 6SM -RA BR SCT028 OVC040 FM300600
                       13015G25KT 5SM -RA BR SCT015 OVC028=
201011291143 TAF KBLI 291143Z 2912/3012 VRB03KT 4SM BR FEW028 SCT060 OVC150
                       TEMPO 2912/2916 1SM BR FEW028 BKN060 OVC150
                       FM291800 09006KT P6SM FEW028 OVC060
                      PROB30 2921/2924 -RA FM300000 12011KT 6SM
                       -RA BR SCT028 OVC040 FM300600 13015G25KT
                       5SM -RA BR SCT015 OVC028=
201011291011 KBLI 291011Z 2910/3006 VRB03KT 4SM BR FEW028 BKN060 OVC150
                      TEMPO 2910/2914 1SM BR FM291800 10007KT P6SM
                       FEW028 OVC060
                      PROB30 2921/2924 -RA FM300000 13011KT 6SM
                       -RA BR SCT028 OVC040=
201011290911 KBLI 290911Z 2909/3006 VRB03KT 5SM BR FEW028 BKN060 OVC150 FM291800
                       10007KT P6SM FEW028 OVC060
                      PROB30 2921/2924 -RA FM300000 13011KT 6SM
                       -RA BR SCT028 OVC040=
201011290537 TAF KBLI 290537Z 2906/3006 00000KT 6SM BR SCT028 SCT060 BKN150
                       TEMPO 2906/2909 2SM BR BKN028 BKN060 BKN150
                       FM290900 VRB03KT P6SM FEW028 BKN060 OVC150
                       FM291800 10007KT P6SM FEW028 OVC060
                      PROB30 2921/2924 -RA FM300000 13011KT 6SM
                       -RA BR SCT028 OVC040=
201011290228 KBLI 290228Z 2902/2924 00000KT P6SM OVC050 FM290600 16005KT P6SM
                       SCT030 BKN200 FM291200 15008KT P6SM SCT030
                       BKN070 BKN120 FM291900 14010KT P6SM SCT040
                       BKN050 OVC100=
201011282335 TAF KBLI 282335Z 2900/2924 18004KT P6SM SCT015 BKN030 BKN050 FM290600
                       16005KT P6SM SCT030 BKN200 FM291200 15008KT
                       P6SM SCT030 BKN070 BKN120 FM291900 14010KT
                       P6SM SCT040 BKN050 OVC100=
201011281735 TAF KBLI 281735Z 2818/2918 VRB03KT P6SM SCT015 BKN025 OVC050 FM282100
                       VRB03KT P6SM BKN030 BKN050 FM290000 VRB03KT
                       P6SM SCT030 BKN150 FM290900 12008KT P6SM
                       BKN060 OVC150=
201011281125 TAF KBLI 281125Z 2812/2912 VRB03KT 6SM BR VCSH SCT015 OVC040
                      TEMPO 2812/2815 2SM BR BKN015 OVC040 FM281500
                       VRB03KT 4SM BR VCSH OVC015 FM281800 VRB03KT
                       P6SM OVC022 FM282100 VRB03KT P6SM BKN030
                       BKN150 FM290000 VRB03KT P6SM SCT040 BKN150
                       FM290900 12008KT P6SM BKN060 OVC150=
201011280904 KBLI 280904Z 2809/2906 00000KT 3SM BR VCSH FEW007 SCT020 OVC040
                       TEMPO 2809/2813 1 1/2SM BR FEW007 BKN020
                       OVC040 FM281800 VRB03KT P6SM OVC020 FM282100
                       VRB03KT P6SM BKN030 BKN150=
201011280542 TAF KBLI 280542Z 2806/2906 00000KT 4SM BR VCSH SCT012 OVC040
                      TEMPO 2806/2809 1SM BR BKN012 OVC040 FM280900
                       00000KT 4SM BR VCSH FEW007 OVC012 FM281800
                       VRB03KT P6SM OVC020 FM282100 VRB03KT P6SM
                       BKN030 BKN150=
201011280417 KBLI 280417Z 2804/2824 VRB03KT 6SM BR VCSH SCT020 BKN040
                      TEMPO 2804/2806 2SM BR BKN020 BKN040 FM280700
                       VRB03KT P6SM BKN022 FM281800 18004KT P6SM
                       BKN030=
201011280254 KBLI 280254Z 2803/2824 VRB03KT P6SM SCT020 OVC035
                      TEMPO 2803/2806 -SHRA BKN020 OVC035 FM280700
                       VRB03KT P6SM BKN022 FM281800 18004KT P6SM
                       BKN030=
201011272331 TAF KBLI 272331Z 2800/2824 20005KT P6SM VCSH BKN040 FM280700 VRB03KT
                       P6SM BKN022 FM281800 18004KT P6SM BKN030=
201011271736 TAF KBLI 271736Z 2718/2818 VRB04KT P6SM VCSH SCT025 BKN060 FM272100
                       20005KT P6SM VCSH BKN030 BKN050 FM280400
                       VRB03KT P6SM SCT030 SCT050 FM280900 VRB03KT
                       P6SM BKN022=
201011271141 KBLI 271141Z 2712/2812 VRB03KT P6SM VCFG FEW012 SCT025 BKN040
                      TEMPO 2712/2716 1 1/2SM BR BKN012 BKN025
                       OVC040 FM271800 VRB04KT P6SM SCT030 SCT050
                       FM272100 20005KT P6SM BKN050
                      PROB30 2721/2803 -SHRA FM280300 VRB03KT P6SM
                       SCT030 SCT050 FM280900 VRB03KT P6SM BKN022=
201011271130 TAF KBLI 271130Z 2712/2812 VRB03KT P6SM VCFG FEW012 SCT025 BKN040
                       TEMPO 2714/2716 FEW012 BKN025 OVC040 FM271800
                       VRB04KT P6SM SCT030 SCT050 FM272100 20005KT
                       P6SM BKN050
                      PROB30 2721/2803 -SHRA FM280300 VRB03KT P6SM
                       SCT030 SCT050 FM280900 VRB03KT P6SM BKN022=
201011270903 TAF AMD KBLI 270903Z 2709/2806 15005KT P6SM SCT035 SCT050
                      TEMPO 2709/2713 BKN025 BKN050 FM271800 VRB03KT
                       P6SM SCT030 BKN050
                      PROB30 2720/2802 4SM SHRA BKN022 OVC040 FM280200
                       VRB03KT P6SM SCT030 SCT050=
201011270520 TAF KBLI 270520Z 2706/2806 15011KT P6SM FEW015 BKN035 OVC050
                      TEMPO 2706/2708 -SHRA BKN015 OVC035 FM270800
                       13007KT P6SM SCT035 BKN050 BKN080 FM271000
                       VRB03KT P6SM FEW028 SCT050 SCT080 FM271800
                       VRB03KT P6SM SCT030 BKN050
                      PROB30 2720/2802 4SM SHRA BKN022 OVC040 FM280200
                       VRB03KT P6SM SCT030 SCT050=
201011270317 KBLI 270317Z 2703/2724 16013G22KT P6SM BKN025 OVC040
                      TEMPO 2703/2705 -SHRA FM270500 14011KT P6SM
                       SCT025 BKN040 OVC070
                      TEMPO 2705/2709 -SHRA BKN025 OVC040 FM271200
                       13005KT P6SM VCSH BKN020 OVC035 FM271800
                       VRB04KT P6SM VCSH BKN030 BKN050=
201011262330 TAF KBLI 262330Z 2700/2724 15010KT P6SM -SHRA BKN030 BKN060
                      TEMPO 2700/2704 BKN025 FM270400 13005KT P6SM
                       -SHRA BKN025 OVC040 FM271200 13005KT P6SM
                       VCSH BKN020 OVC035 FM271800 VRB04KT P6SM
                       VCSH BKN030 BKN050=
201011261729 TAF KBLI 261729Z 2618/2718 15012G20KT P6SM -SHRA SCT015 BKN030
                       BKN060 FM262000 15010KT P6SM -SHRA BKN030
                       BKN060 FM270100 13005KT P6SM BKN035 BKN080
                       FM270500 13005KT P6SM -SHRA BKN020 OVC035=
201011261123 TAF KBLI 261123Z 2612/2712 16025G40KT P6SM -RA BKN040 OVC100 FM261600
                       18016G26KT P6SM -SHRA BKN020 OVC040 FM262100
                       17010KT P6SM BKN030 OVC060 FM270100 13005KT
                       P6SM BKN035 BKN080 FM270500 13005KT P6SM
                       -SHRA BKN020 OVC035=
201011260520 TAF KBLI 260520Z 2606/2706 03004KT P6SM OVC025 FM260800 15008KT
                       P6SM BKN040 OVC080 FM261000 16018G28KT 4SM
                       -RA OVC020 FM261600 18013KT P6SM -SHRA BKN020
                       OVC040 FM262100 17010KT P6SM BKN030 BKN060
                       FM270100 13005KT P6SM BKN035 BKN080=
201011252328 TAF KBLI 252328Z 2600/2624 16010KT 6SM BR OVC018
                      TEMPO 2600/2602 -FZRA FM260600 16015G25KT
                       5SM -RA OVC015 FM261100 16018G28KT 4SM -RA
                       OVC015 FM261600 18013KT P6SM -SHRA BKN020=
201011252147 KBLI 252147Z 2522/2618 36006KT 5SM -FZRA BR SCT012 OVC022 FM260000
                       16010KT 5SM -RA BR OVC015 FM260900 16018G28KT
                       5SM -RA OVC015 FM261600 18013KT P6SM -SHRA
                       BKN020=
201011251733 TAF KBLI 251733Z 2518/2618 02006KT 3SM -SN SCT008 OVC015
                      TEMPO 2518/2522 1/2SM SN OVC008 FM252200
                       12006KT P6SM -RASN OVC015 FM252300 12006KT
                       P6SM -RA OVC018
                      TEMPO 2523/2602 -RA FM260200 16012KT 5SM
                       -RA BR OVC015 FM260900 16018G28KT 5SM -RA
                       OVC015 FM261600 18013KT P6SM -SHRA BKN020=
201011251135 TAF KBLI 251135Z 2512/2612 02005KT 3/4SM BR VV011
                      TEMPO 2512/2514 3SM -SN OVC015 FM251400 02006KT
                       2SM -SN OVC012
                      TEMPO 2514/2518 1/2SM -SN FZFG VV001 FM251800
                       12006KT P6SM OVC015
                      TEMPO 2518/2522 -SN FM252200 12006KT P6SM
                       OVC015
                      TEMPO 2522/2602 -RA FM260200 13007KT 5SM
                       -RA BR OVC015=
201011250530 TAF KBLI 250530Z 2506/2606 01003KT P6SM BKN025 OVC040
                      TEMPO 2506/2510 SCT025 BKN040 OVC050 FM251100
                       02005KT 6SM -SN OVC030 FM251300 02006KT
                       2SM -SN OVC015 FM252100 18006KT P6SM -FZRA
                       OVC015 FM252300 18006KT P6SM -RA OVC015=
201011242351 TAF KBLI 242351Z 2500/2524 02005KT P6SM OVC050 FM251100 02005KT
                       6SM -SHSN OVC030 FM251300 02006KT 2SM -SN
                       OVC015 FM252100 18006KT P6SM -FZRA OVC015
                       FM252300 18006KT P6SM -RA OVC015=
201011241737 TAF KBLI 241737Z 2418/2518 03005KT P6SM OVC050
                      TEMPO 2418/2421 -SHSN FM242100 14005KT P6SM
                       OVC050 FM250900 13003KT P6SM OVC050 FM251200
                       15003KT 6SM -SHSN OVC030 FM251500 16006KT
                       2SM -SN OVC015=
201011241507 TAF AMD KBLI 241507Z 2415/2512 VRB03KT P6SM BKN050 OVC100 FM250300
                       14004KT P6SM OVC050
                      TEMPO 2510/2512 P6SM -SN=
201011241130 TAF KBLI 241130Z 2412/2512 VRB03KT P6SM OVC110 FM250300 14004KT
                       P6SM OVC050
                      TEMPO 2510/2512 P6SM -SN=
201011240535 TAF KBLI 240535Z 2406/2506 02003KT P6SM SKC FM240900 11004KT P6SM
                       BKN250 FM250000 16004KT P6SM OVC100=
201011232320 TAF KBLI 232320Z 2400/2424 01010KT P6SM SKC FM240900 15003KT P6SM
                       FEW200=
201011231740 TAF KBLI 231740Z 2318/2418 03015G25KT P6SM SKC FM232100 03012G20KT
                       P6SM SKC FM240000 03010KT P6SM SKC FM240600
                       15003KT P6SM SKC=
201011231135 TAF KBLI 231135Z 2312/2412 01023G34KT P6SM SCT100 FM231500 02019G30KT
                       P6SM SKC FM231800 03013G23KT P6SM SKC FM232200
                       03010KT P6SM SKC FM240600 15003KT P6SM SKC=
201011230530 TAF KBLI 230530Z 2306/2406 02030G45KT P6SM OVC060 FM231000 03020G30KT
                       P6SM SKC FM231800 02006KT P6SM SKC FM240300
                       13003KT P6SM SKC=
201011222342 TAF KBLI 222342Z 2300/2324 03032G48KT P6SM BKN050 FM230500 03020G30KT
                       P6SM SKC FM231000 03015KT P6SM SKC=
201011221751 TAF KBLI 221751Z 2218/2318 03022G35KT P6SM SCT020 OVC060
                      TEMPO 2218/2220 6SM -SHSN BLSN OVC020 FM222000
                       03030G45KT 6SM BLSN BKN060 FM230000 03028G40KT
                       P6SM SCT060 FM230500 03018G28KT P6SM SKC
                       FM231000 03015KT P6SM SKC=
201011221125 TAF KBLI 221125Z 2212/2312 03018G28KT P6SM SCT070 FM221600 04028G40KT
                       P6SM SCT090 FM230500 03018G28KT P6SM SKC=
201011220530 TAF KBLI 220530Z 2206/2306 02018G30KT P6SM SCT070 FM221200 02018G25KT
                       P6SM SCT120 FM221600 04028G40KT P6SM SCT120=
201011220208 KBLI 220208Z 2202/2224 02022G35KT P6SM FEW090 FM221200 02018G25KT
                       P6SM SCT120 FM221600 04028G40KT P6SM SKC=
201011212320 TAF KBLI 212320Z 2200/2224 02018G30KT P6SM BKN150 FM220800 02015G25KT
                       P6SM SCT120 FM221600 04028G40KT P6SM SKC=
201011212104 TAF AMD KBLI 212104Z 2121/2218 01020G30KT P6SM SCT060 FM220400
                       02015G25KT P6SM SCT060 FM221700 04025G38KT
                       P6SM SCT120=
201011211730 TAF KBLI 211730Z 2118/2218 02012G23KT P6SM BKN060 OVC090 FM220300
                       02012KT P6SM SCT060 BKN120 FM221700 04025G38KT
                       P6SM SCT120=
201011211125 TAF KBLI 211125Z 2112/2212 02015G27KT P6SM BKN050 OVC090
                      TEMPO 2112/2116 -SHSN BKN035 OVC050 FM211600
                       02013G20KT P6SM BKN060 BKN090 FM212300 02010KT
                       P6SM SCT060 BKN120=
201011210530 TAF KBLI 210530Z 2106/2206 01018G28KT P6SM BKN080 FM210900 02015G25KT
                       P6SM BKN040 OVC080 FM211400 02013G20KT P6SM
                       SCT040 BKN080=
201011202327 TAF KBLI 202327Z 2100/2124 02019G35KT P6SM BKN150 FM210200 02015G24KT
                       P6SM BKN150 FM210600 02012KT P6SM SCT040
                       BKN150=
201011201726 TAF KBLI 201726Z 2018/2118 02027G35KT P6SM SCT070 FM202300 02018G28KT
                       P6SM SCT070 FM210200 02015KT P6SM SCT050
                       BKN120=
201011201125 TAF KBLI 201125Z 2012/2112 03018G28KT P6SM SCT030 BKN040 OVC070
                       TEMPO 2012/2016 -SN BKN030 OVC040 FM201600
                       03015G25KT P6SM SCT040 BKN090 FM210300 02012KT
                       P6SM SCT050 BKN120=
201011200521 TAF KBLI 200521Z 2006/2106 03020G30KT 3/4SM -SN BR VV004
                      TEMPO 2006/2009 3SM -SN OVC014 FM200900 03018G28KT
                       P6SM -SN BKN015 OVC035 FM201100 03018G28KT
                       P6SM BKN035 BKN060 FM201500 03015G25KT P6SM
                       SCT040 BKN090=
201011200441 KBLI 200441Z 2005/2024 03020G30KT P6SM -SN OVC028
                      TEMPO 2005/2009 2SM -SN OVC014 FM201100 03018G28KT
                       P6SM BKN035 BKN060 FM201500 03015G25KT P6SM
                       SCT040 BKN090=
201011200429 KBLI 200429Z 2004/2024 03020G30KT P6SM -SN OVC028 FM201100 03018G28KT
                       P6SM BKN035 BKN060 FM201500 03015G25KT P6SM
                       SCT040 BKN090=
201011200217 KBLI 200217Z 2002/2024 02015G25KT P6SM -SN SCT028 OVC060
                      TEMPO 2002/2004 6SM -SHSN BKN028 OVC040 FM200400
                       02015G25KT 4SM -SN OVC025
                      TEMPO 2006/2009 1SM -SN OVC015 FM200900 03015G26KT
                       6SM -SHSN BKN020 OVC030 FM201200 03015G26KT
                       P6SM VCSH BKN025 BKN045=
201011200036 KBLI 200036Z 2001/2024 03015G25KT P6SM VCSH BKN030 BKN060
                      TEMPO 2001/2004 6SM -SHSN OVC025 FM200400
                       02015G25KT 4SM -SN OVC025
                      TEMPO 2006/2009 1SM -SN OVC015 FM200900 03015G26KT
                       6SM -SHSN BKN020 OVC030 FM201200 03015G26KT
                       P6SM VCSH BKN025 BKN045=
201011192338 TAF KBLI 192338Z 2000/2024 03014G22KT P6SM -SHSN BKN030 BKN060
                       TEMPO 2000/2004 4SM -SHSN OVC025 FM200400
                       02014G24KT 4SM -SN OVC025
                      TEMPO 2006/2009 1SM -SN OVC015 FM200900 03015G26KT
                       6SM -SHSN BKN020 OVC030 FM201200 03015G26KT
                       P6SM VCSH BKN025 BKN045=
201011191747 TAF KBLI 191747Z 1918/2018 03010KT P6SM VCSH OVC025 FM192100 04014G22KT
                       P6SM -SHSN BKN025 BKN080 FM200600 05018G28KT
                       P6SM SCT030 BKN080=
201011191131 TAF KBLI 191131Z 1912/2012 02009KT P6SM FEW025 OVC035
                      TEMPO 1912/1916 -SHRASN OVC025 FM191600 03010KT
                       P6SM SCT030 BKN060 FM191900 04012G18KT P6SM
                       SCT035 BKN080 FM200400 05015G22KT P6SM -SHRASN
                       BKN035 BKN060=
201011190523 TAF KBLI 190523Z 1906/2006 03008KT P6SM SCT025 OVC090
                      TEMPO 1906/1910 -SHRASN OVC025 FM191000 03008KT
                       P6SM SCT025 BKN090
                      TEMPO 1910/1914 -SHRASN OVC025 FM191400 03010KT
                       P6SM SCT030 BKN100
                      TEMPO 1914/1918 -SHRASN OVC030 FM191800 04012G18KT
                       P6SM SCT035 BKN120=
201011182325 TAF KBLI 182325Z 1900/1924 15010KT P6SM VCSH BKN025 BKN045 FM190200
                       02008KT P6SM SCT025 BKN045 FM190600 02010KT
                       P6SM VCSH BKN030 BKN045 FM191400 03010KT
                       P6SM -SHRASN BKN025 BKN045 FM192000 03010KT
                       6SM -SHSN BR OVC020=
201011181720 TAF KBLI 181720Z 1818/1918 14005KT P6SM -SHRA BKN025 BKN045 FM182100
                       07006KT P6SM -SHRA BKN025 BKN045 FM190200
                       02008KT P6SM -SHRASN BKN030 BKN045 FM190600
                       02010KT P6SM -SHSN BKN030 BKN045=
201011181132 TAF KBLI 181132Z 1812/1912 11005KT P6SM FEW015 SCT025 BKN060
                      TEMPO 1812/1816 -SHRA BKN020 OVC045 FM181800
                       07005KT P6SM SCT035 BKN090
                      PROB30 1821/1903 -SHRA BKN035 OVC090=
201011180904 TAF AMD KBLI 180904Z 1809/1906 13005KT P6SM SCT018 BKN045 OVC090
                       TEMPO 1809/1813 -SHRA BKN018 OVC045 FM181800
                       09005KT P6SM SCT035 BKN090
                      PROB30 1822/1904 -SHRA BKN035 OVC090=
201011180533 TAF KBLI 180533Z 1806/1906 19007KT P6SM SCT025 BKN090
                      TEMPO 1806/1809 BKN025 OVC090 FM180900 14006KT
                       P6SM SCT030 BKN060
                      TEMPO 1811/1815 -SHRA BKN020 OVC030 FM181800
                       09005KT P6SM SCT035 BKN090
                      PROB30 1822/1904 -SHRA BKN035 OVC090=
201011172336 TAF KBLI 172336Z 1800/1824 17008KT P6SM -SHRA SCT035 BKN050
                      TEMPO 1800/1804 BKN030 FM180600 19008KT P6SM
                       -SHRA OVC030 FM180900 14006KT P6SM VCSH
                       OVC030 FM181800 VRB05KT P6SM VCSH BKN030
                       BKN050=
201011171730 TAF KBLI 171730Z 1718/1818 16025G35KT P6SM -RA OVC025
                      TEMPO 1718/1722 5SM RA BR FM172200 18015G25KT
                       P6SM -SHRA BKN030 FM180300 20012KT P6SM
                       VCSH BKN035 FM180900 14006KT P6SM VCSH OVC030=
201011171120 TAF KBLI 171120Z 1712/1812 15017G27KT P6SM -RA OVC040
                      TEMPO 1712/1716 5SM -RA BR OVC025 FM171600
                       16020G30KT 5SM RA BR OVC025 FM171900 18015G25KT
                       P6SM -SHRA BKN030 FM180300 20012KT P6SM
                       VCSH BKN035=
201011170520 TAF KBLI 170520Z 1706/1806 18010KT P6SM SCT030 OVC060 FM170900
                       16012G22KT P6SM -RA OVC030 FM171200 15015G25KT
                       4SM RA OVC025 FM171900 18015G25KT P6SM -SHRA
                       BKN030 FM180300 20012KT P6SM VCSH BKN035=
201011162336 TAF KBLI 162336Z 1700/1724 18007KT P6SM SCT025 BKN040 OVC200
                      TEMPO 1700/1702 3SM -SHRA BKN025 FM170900
                       16012KT P6SM -RA OVC030 FM171200 15015G25KT
                       4SM RA OVC025 FM171900 18015G25KT P6SM -SHRA
                       BKN030=
201011161736 TAF KBLI 161736Z 1618/1718 18007KT P6SM SCT040 BKN050 FM162200
                       18007KT P6SM SCT050 BKN200 FM170400 16009KT
                       P6SM BKN050 OVC120 FM171000 16018G28KT P6SM
                       -RA OVC030=
201011161120 TAF KBLI 161120Z 1612/1712 VRB04KT P6SM SCT025 BKN050 FM162200
                       18010KT P6SM SCT050 BKN200 FM170400 16012G22KT
                       P6SM BKN050 OVC120 FM171000 16017G27KT P6SM
                       -RA OVC030=
201011161014 KBLI 161014Z 1610/1706 20010KT P6SM SCT030 BKN050 FM170500 16012KT
                       P6SM BKN040 OVC100=
201011160520 TAF KBLI 160520Z 1606/1706 23020G30KT P6SM VCSH SCT020 BKN040 FM161200
                       30010G20KT P6SM VCSH SCT020 BKN040 FM161800
                       20012KT P6SM BKN020 BKN035=
201011160005 TAF KBLI 160005Z 1600/1624 17014G25KT P6SM -RA OVC015 FM160600
                       20014G22KT P6SM -SHRA BKN018 OVC040 FM161200
                       21010KT P6SM VCSH BKN030 BKN040 FM161800
                       20008KT P6SM BKN020 BKN035=
201011152047 KBLI 152047Z 1521/1618 17010KT P6SM -RA SCT015 OVC025
                      TEMPO 1521/1524 3SM RA BR OVC015 FM160600
                       21012KT P6SM -SHRA BKN025 OVC040 FM161200
                       21010KT P6SM VCSH BKN030 BKN040=
201011151730 TAF KBLI 151730Z 1518/1618 VRB03KT 6SM -RA BR SCT004 BKN008 BKN025
                       TEMPO 1518/1520 3SM -RA BR BKN004 FM152000
                       18010KT 5SM -RA BR OVC008 FM152100 18012G20KT
                       P6SM -RA OVC015 FM160600 21012KT P6SM -SHRA
                       BKN025 OVC040 FM161200 21010KT P6SM VCSH
                       BKN030 BKN040=
201011151510 KBLI 151510Z 1515/1612 VRB03KT 6SM -DZ BR SCT004 BKN008
                      TEMPO 1516/1519 3SM -RA BR BKN004 FM151900
                       18010KT 4SM -RA BR OVC007 FM152100 18012G20KT
                       P6SM -RA OVC015 FM160600 21012KT P6SM -SHRA
                       BKN025 OVC040=
201011151120 TAF KBLI 151120Z 1512/1612 VRB03KT 3SM -DZ BR OVC004
                      TEMPO 1512/1516 1/2SM FG VV001 FM151800 18010KT
                       4SM -RA BR OVC007 FM152100 18012G20KT P6SM
                       -RA OVC015 FM160600 21012KT P6SM -SHRA BKN025
                       OVC040=
201011151016 KBLI 151016Z 1510/1606 VRB03KT 2SM -DZ BR OVC004
                      TEMPO 1510/1514 1/4SM FG VV001 FM151500 17010KT
                       4SM -RA BR OVC007 FM152000 17012G20KT P6SM
                       -RA OVC015 FM160000 21012KT P6SM -SHRA BKN025
                       OVC040=
201011150520 TAF KBLI 150520Z 1506/1606 VRB04KT 2SM -DZ BR OVC004
                      TEMPO 1506/1510 1/2SM FG VV001 FM151500 17010KT
                       4SM -RA BR OVC007 FM152000 17012G20KT P6SM
                       -RA OVC015 FM160000 21012KT P6SM -SHRA BKN025
                       OVC040=
201011150416 KBLI 150416Z 1504/1524 VRB03KT 2SM -DZ BR OVC004
                      TEMPO 1504/1508 1/2SM FG VV001 FM151500 17010KT
                       4SM -RA BR OVC007 FM152000 17013G20KT P6SM
                       -RA OVC015=
201011150126 KBLI 150126Z 1501/1524 18005KT P6SM VCFG OVC010
                      TEMPO 1501/1505 5SM BR OVC007 FM150500 18005KT
                       4SM BR OVC007 FM151500 17008KT 4SM -RA BR
                       OVC007 FM152000 17013G20KT 4SM -RA BR OVC011=
201011150026 KBLI 150026Z 1500/1524 18005KT P6SM VCFG OVC010 FM150400 18005KT
                       4SM BR OVC008
                      PROB30 1509/1515 -RA BR FM151500 17008KT
                       4SM -RA BR OVC008 FM152000 17013G20KT 4SM
                       -RA BR OVC011=
201011142340 TAF KBLI 142340Z 1500/1524 18005KT 4SM BR OVC008
                      TEMPO 1500/1502 2SM BR FM150900 VRB03KT 4SM
                       BR OVC008
                      PROB30 1509/1515 -RA BR FM151500 17008KT
                       4SM -RA BR OVC008 FM152000 17013G20KT 4SM
                       -RA BR OVC011=
201011142114 KBLI 142114Z 1421/1518 18005KT 5SM BR BKN005 OVC012
                      TEMPO 1421/1423 2SM BR OVC002 FM150900 VRB03KT
                       5SM BR OVC015
                      PROB30 1509/1515 -RA BR FM151500 17008KT
                       4SM -RA BR OVC008=
201011142007 KBLI 142007Z 1420/1518 18005KT 4SM BR OVC005
                      TEMPO 1420/1422 1SM BR OVC003 FM142200 18005KT
                       5SM BR OVC011 FM150900 VRB03KT 5SM BR OVC015
                       PROB30 1509/1515 -RA BR FM151500 17008KT
                       4SM -RA BR OVC008=
201011141740 TAF KBLI 141740Z 1418/1518 00000KT 2SM BR BKN007 OVC015
                      TEMPO 1418/1420 3/4SM BR OVC003 FM142000
                       18005KT 6SM BR OVC015 FM150900 VRB03KT 5SM
                       BR OVC015
                      PROB30 1509/1515 -RA BR FM151500 17008KT
                       4SM -RA BR OVC008=
201011141520 KBLI 141520Z 1415/1512 VRB03KT 4SM BR SCT005 OVC010
                      TEMPO 1415/1417 2SM -DZ BR OVC005 FM141800
                       17003KT 6SM BR OVC007
                      TEMPO 1421/1501 P6SM NSW SCT007 OVC020 FM150600
                       19002KT 4SM BR OVC004
                      TEMPO 1508/1512 2SM -RA BR=
201011141136 TAF KBLI 141136Z 1412/1512 VRB03KT 4SM BR OVC003
                      TEMPO 1412/1416 2SM -RA BR FM141800 17003KT
                       6SM BR OVC007
                      TEMPO 1421/1501 P6SM NSW SCT007 OVC020 FM150600
                       19002KT 4SM BR OVC004
                      TEMPO 1508/1512 2SM -RA BR=
201011140540 TAF KBLI 140540Z 1406/1506 03004KT 4SM BR OVC018 FM140900 08004KT
                       5SM BR SCT007 OVC015
                      TEMPO 1409/1413 2SM -RA BR OVC005 FM141400
                       18003KT P6SM SCT010 OVC020 FM141800 19005KT
                       P6SM SCT016 OVC029
                      PROB30 1418/1506 -RA=
201011132341 TAF KBLI 132341Z 1400/1424 03003KT P6SM SCT028 OVC045
                      TEMPO 1400/1402 -RA BKN028 OVC045 FM140200
                       VRB03KT 5SM -RA BR OVC018 FM140600 16003KT
                       5SM -RA BR BKN008 OVC016 FM141400 18003KT
                       P6SM SCT010 OVC020 FM141800 19005KT P6SM
                       SCT016 OVC029
                      PROB30 1418/1424 -RA=
201011131738 TAF KBLI 131738Z 1318/1418 04004KT P6SM SCT028 OVC035
                      TEMPO 1318/1322 -RA BKN028 OVC035 FM132200
                       05004KT P6SM SCT019 OVC030
                      TEMPO 1322/1402 -RA FM140200 VRB03KT 5SM
                       -RA BR OVC015 FM140600 16003KT 5SM -RA BR
                       BKN008 OVC016 FM141600 18003KT P6SM SCT010
                       OVC020=
201011131508 KBLI 131508Z 1315/1412 VRB02KT P6SM BKN045 OVC060
                      TEMPO 1316/1320 -RA BKN030 OVC045 FM132000
                       17005KT 5SM -RA BR SCT015 OVC030 FM140100
                       17005KT 3SM -RA BR OVC007=
201011131138 TAF KBLI 131138Z 1312/1412 00000KT P6SM -RA SCT020 OVC040 FM131500
                       00000KT P6SM -RA BKN025 OVC040 FM131900
                       17005KT 5SM -RA BR BKN015 OVC030 FM140100
                       17005KT 3SM -RA BR OVC007=
201011130535 TAF KBLI 130535Z 1306/1406 17006KT P6SM BKN070 OVC120 FM131300
                       15006KT P6SM -RA BKN035 OVC070 FM131700
                       16005KT 5SM -RA BR BKN020 OVC035 FM140100
                       16005KT 3SM -RA BR OVC010=
201011122332 TAF KBLI 122332Z 1300/1324 17007KT P6SM BKN250 FM130400 17006KT
                       P6SM BKN120 OVC200 FM130700 15006KT P6SM
                       BKN070 OVC120 FM131000 15008KT P6SM -RA
                       BKN035 OVC060 FM131500 16005KT P6SM -RA
                       OVC028 FM131900 16005KT 6SM -RA BR OVC019=
201011121735 TAF KBLI 121735Z 1218/1318 00000KT P6SM FEW035 FM122100 18004KT
                       P6SM SCT045 BKN200 FM130100 17006KT P6SM
                       SCT050 BKN120 OVC200 FM130500 15006KT P6SM
                       BKN070 OVC120 FM131000 15008KT P6SM -RA
                       BKN035 OVC060 FM131700 16005KT P6SM -RA
                       OVC028=
201011121139 TAF KBLI 121139Z 1212/1312 18005KT P6SM BKN045 BKN070 FM121900
                       18004KT P6SM BKN045 BKN200 FM130100 17006KT
                       P6SM SCT050 BKN120 OVC200 FM130500 15006KT
                       P6SM BKN070 OVC120 FM131100 15008KT P6SM
                       -RA BKN035 OVC060=
201011120524 TAF KBLI 120524Z 1206/1306 17008KT P6SM VCSH BKN015 BKN035 BKN060
                       TEMPO 1206/1209 SCT015 BKN040 FM120900 17007KT
                       P6SM BKN025 BKN045 FM121900 18004KT P6SM
                       BKN045 FM122200 17006KT P6SM SCT050 BKN120
                       OVC200 FM130500 15006KT P6SM BKN070 OVC120=
201011112329 TAF KBLI 112329Z 1200/1224 12012G20KT P6SM -RA BKN035 OVC050
                      TEMPO 1200/1203 5SM -RA BR BKN025 OVC040
                       FM120300 17005KT P6SM VCSH BKN035 OVC045
                       FM121200 18003KT P6SM BKN020 BKN045 FM122100
                       18006KT P6SM BKN045=
201011111733 TAF KBLI 111733Z 1118/1218 03003KT P6SM OVC040 FM112300 16008KT
                       P6SM -RA BKN025 OVC045 FM120900 17005KT
                       P6SM VCSH BKN035 OVC045 FM121200 18003KT
                       P6SM BKN020 BKN045=
201011111137 TAF KBLI 111137Z 1112/1212 00000KT 5SM BR FEW030 FM111400 VRB03KT
                       P6SM SCT120 OVC200 FM111700 14005KT P6SM
                       SCT025 OVC050 FM112300 16008KT P6SM -RA
                       BKN025 OVC045 FM120900 17005KT P6SM VCSH
                       BKN035 OVC045=
201011110541 TAF KBLI 110541Z 1106/1206 00000KT P6SM FEW035 FM111100 15004KT
                       P6SM BKN120 OVC200 FM111700 14005KT P6SM
                       SCT025 OVC050 FM112300 16008KT P6SM -RA
                       BKN025 OVC045=
201011102344 TAF KBLI 102344Z 1100/1124 28004KT P6SM SKC FM111100 15004KT P6SM
                       BKN120 OVC200 FM111700 14005KT P6SM SCT025
                       OVC050 FM112300 16008KT P6SM -RA BKN025
                       OVC045=
201011101747 TAF KBLI 101747Z 1018/1118 34006KT P6SM SCT040 FM111000 02004KT
                       P6SM BKN050 FM111700 14005KT P6SM SCT025
                       BKN050=
201011101147 TAF KBLI 101147Z 1012/1112 36006KT P6SM SCT040 OVC060 FM101400
                       02005KT P6SM SCT030 BKN050 FM101800 01006KT
                       P6SM SCT050 BKN070 FM110300 VRB03KT P6SM
                       SCT050 FM111000 02004KT P6SM BKN050=
201011100536 TAF KBLI 100536Z 1006/1106 02006KT P6SM BKN040 OVC050 FM101400
                       04006KT P6SM SCT030 BKN045 FM102000 32005KT
                       P6SM SCT050=
201011092334 TAF KBLI 092334Z 1000/1024 04007KT P6SM -RA OVC040
                      TEMPO 1000/1004 -RA OVC030 FM100400 VRB03KT
                       P6SM BKN030 BKN045 FM101400 04006KT P6SM
                       SCT030 BKN045 FM102000 32005KT P6SM SCT050=
201011091722 TAF KBLI 091722Z 0918/1018 07008KT P6SM -RA SCT030 OVC050
                      TEMPO 0918/0922 -RA BKN030 OVC050 FM092300
                       05006KT P6SM -SHRA BKN030 OVC045 FM100600
                       VRB03KT P6SM BKN030 BKN045 FM101200 04006KT
                       P6SM SCT030 BKN045=
201011091155 TAF KBLI 091155Z 0912/1012 12007KT P6SM FEW030 SCT040 FM091400
                       11007KT P6SM -RA BKN035 OVC040 FM091800
                       10007KT P6SM -RA OVC025 FM092300 08006KT
                       P6SM VCSH BKN025 OVC050 FM100600 VRB03KT
                       P6SM BKN030 OVC050=
201011090527 TAF KBLI 090527Z 0906/1006 VRB03KT P6SM FEW040 BKN050 FM090800
                       04004KT P6SM SCT060 OVC120 FM091500 11007KT
                       P6SM -RA BKN040 OVC080 FM091900 10007KT
                       P6SM -RA OVC025 FM092300 08006KT P6SM VCSH
                       BKN025 OVC050=
201011082335 TAF KBLI 082335Z 0900/0924 17009KT P6SM VCSH SCT035 BKN100 FM090200
                       VRB03KT P6SM SCT050 FM090800 04004KT P6SM
                       SCT060 OVC120 FM091500 11007KT P6SM -RA
                       BKN040 OVC080 FM091900 10007KT P6SM -RA
                       OVC025 FM092300 08006KT P6SM VCSH BKN025
                       OVC050=
201011081739 TAF KBLI 081739Z 0818/0918 17007KT P6SM SCT035 BKN070 FM082000
                       16006KT P6SM VCSH SCT035 BKN070 FM090200
                       VRB03KT P6SM SCT050 FM090800 04004KT P6SM
                       SCT060 OVC120 FM091500 11007KT P6SM -RA
                       BKN040 OVC080=
201011081139 TAF KBLI 081139Z 0812/0912 16008KT P6SM SCT025 BKN045 BKN070 FM082000
                       16006KT P6SM SCT035 BKN070 FM090200 VRB03KT
                       P6SM SCT050 FM090800 04004KT P6SM SCT060
                       OVC120=
201011080539 TAF KBLI 080539Z 0806/0906 16006KT P6SM SCT025 BKN035 OVC060
                      TEMPO 0808/0812 -SHRA BKN025 OVC035 FM081800
                       16006KT P6SM VCSH SCT025 BKN045 FM090200
                       16008KT P6SM SCT050=
201011072327 TAF KBLI 072327Z 0800/0824 18006KT P6SM SCT030 BKN070
                      TEMPO 0800/0804 -SHRA BKN030 OVC060 FM080400
                       17006KT P6SM VCSH SCT030 BKN060 BKN100 FM081500
                       18003KT P6SM VCSH OVC020 FM081800 18006KT
                       P6SM VCSH SCT020 BKN045=
201011071730 TAF KBLI 071730Z 0718/0818 17006KT P6SM SCT025 BKN070
                      TEMPO 0718/0722 -SHRA BKN022 OVC040 FM072200
                       17006KT P6SM -SHRA SCT025 OVC040 FM080300
                       17006KT P6SM VCSH SCT030 BKN060 BKN100 FM081500
                       18002KT P6SM VCSH OVC020=
201011071135 TAF KBLI 071135Z 0712/0812 15005KT P6SM SCT040 BKN070
                      TEMPO 0712/0716 -SHRA OVC040 FM071900 17008KT
                       P6SM VCSH SCT025 BKN050 OVC080 FM080300
                       17008KT P6SM -SHRA BKN030 OVC050=
201011070524 TAF KBLI 070524Z 0706/0806 14018G34KT P6SM FEW028 OVC110 FM070800
                       15015G22KT P6SM SCT030 BKN090
                      TEMPO 0708/0712 -RA BKN030 OVC060 FM071200
                       17010KT P6SM -SHRA SCT013 BKN022 OVC035
                       FM071900 17008KT P6SM VCSH SCT020 BKN040
                       OVC060=
201011070438 KBLI 070438Z 0705/0724 15019G33KT P6SM SCT030 BKN090 FM070800 15015G22KT
                       P6SM SCT030 BKN090
                      TEMPO 0709/0713 -RA BKN030 OVC060 FM071300
                       17010KT P6SM -SHRA SCT013 BKN022 OVC035
                       FM071900 17008KT P6SM VCSH SCT020 BKN040
                       OVC060=
201011070111 KBLI 070111Z 0701/0724 05005KT P6SM -RA SCT020 OVC040
                      TEMPO 0701/0705 4SM -RA BR BKN015 OVC030
                       FM070500 19012KT 3SM -RA BR OVC010 FM071300
                       17010KT P6SM -SHRA SCT013 BKN022 OVC035
                       FM071900 17008KT P6SM VCSH SCT020 BKN040
                       OVC060=
201011062326 TAF KBLI 062326Z 0700/0724 03005KT P6SM SCT012 OVC023
                      TEMPO 0700/0701 -RA BKN012 OVC020 FM070100
                       15008KT 5SM -RA BR OVC018 FM070700 15012KT
                       3SM -RA BR OVC010 FM071300 17010KT P6SM
                       -SHRA SCT013 BKN022 OVC035 FM071900 17008KT
                       P6SM VCSH SCT020 BKN040 OVC060=
201011061730 TAF KBLI 061730Z 0618/0718 00000KT P6SM SCT005 BKN014 OVC025
                      TEMPO 0618/0621 1SM BR BKN005 OVC015 FM062100
                       16006KT P6SM SCT020 OVC040
                      TEMPO 0621/0701 BKN020 OVC040 FM070100 15008KT
                       5SM -RA BR OVC020 FM070700 15012KT 3SM -RA
                       BR OVC012 FM071300 17010KT P6SM -SHRA SCT013
                       BKN022 OVC035=
201011061630 KBLI 061630Z 0617/0712 00000KT 4SM BR SCT008 OVC015
                      TEMPO 0617/0619 1SM BR BKN008 OVC015 FM061900
                       15006KT P6SM SCT015 BKN025 OVC040 FM062100
                       15006KT P6SM SCT025 OVC040 FM070200 15008KT
                       P6SM -RA OVC025=
201011061237 KBLI 061237Z 0613/0712 00000KT 4SM BR BKN002 OVC020
                      TEMPO 0613/0616 1SM BR OVC002 FM061600 00000KT
                       P6SM SCT004 BKN012 OVC020 FM061800 15006KT
                       P6SM SCT015 BKN025 OVC040 FM062100 15006KT
                       P6SM SCT025 OVC040 FM070200 15008KT P6SM
                       -RA OVC025=
201011061141 TAF KBLI 061141Z 0612/0712 00000KT 4SM BR BKN004 OVC020 FM061600
                       00000KT P6SM SCT004 BKN012 OVC020 FM061800
                       15006KT P6SM SCT015 BKN025 OVC040 FM062100
                       15006KT P6SM SCT025 OVC040 FM070200 15008KT
                       P6SM -RA OVC025=
201011060906 KBLI 060906Z 0609/0706 00000KT P6SM BKN004 OVC020
                      TEMPO 0609/0613 4SM BR FM061300 00000KT P6SM
                       SCT004 BKN012 OVC020 FM070200 15008KT P6SM
                       -RA OVC025=
201011060544 TAF KBLI 060544Z 0606/0706 00000KT P6SM SCT025 OVC045
                      TEMPO 0606/0610 BKN025 OVC045 FM070200 15008KT
                       P6SM -RA OVC025=
201011060314 KBLI 060314Z 0603/0624 00000KT P6SM SCT025 OVC045
                      TEMPO 0605/0609 BKN025 OVC045 FM061200 VRB03KT
                       4SM -RA OVC007 FM061600 17003KT P6SM -RA
                       BKN010 OVC030 FM062000 36002KT P6SM -RA
                       OVC025=
201011060032 KBLI 060032Z 0601/0624 00000KT 3SM BR SCT005 OVC015
                      TEMPO 0601/0604 1SM -RA BR BKN005 OVC010
                       FM060400 17003KT 4SM BR OVC007
                      TEMPO 0612/0616 4SM -RA OVC007 FM061600 17003KT
                       P6SM -RA BKN010 OVC030 FM062000 36002KT
                       P6SM -RA OVC025=
201011052330 TAF KBLI 052330Z 0600/0624 00000KT 5SM BR SCT010 BKN020 OVC030
                       TEMPO 0600/0604 3SM -RA BR BKN010 OVC020
                       FM060400 17003KT 4SM BR OVC007
                      TEMPO 0612/0616 4SM -RA OVC007 FM061600 17003KT
                       P6SM -RA BKN010 OVC030 FM062000 36002KT
                       P6SM -RA OVC025=
201011051730 TAF KBLI 051730Z 0518/0618 29004KT 3SM -RA BR BKN004 OVC010
                      TEMPO 0519/0523 P6SM -RA SCT006 OVC015 FM052300
                       30003KT P6SM SCT008 OVC020 FM060400 17003KT
                       4SM BR OVC007
                      TEMPO 0612/0616 4SM -RA OVC007 FM061600 17003KT
                       P6SM -RA BKN010 OVC030=
201011051306 KBLI 051306Z 0513/0612 00000KT P6SM FEW003 OVC030
                      TEMPO 0513/0515 1/2SM FG OVC001 FM051500
                       00000KT P6SM SCT004 OVC030
                      TEMPO 0515/0517 4SM BR BKN004 FM052000 00000KT
                       4SM -RA BKN006 OVC012 FM052300 18006KT P6SM
                       SCT006 BKN012 OVC020 FM060300 18006KT P6SM
                       BKN025 FM061000 VRB03KT 3SM BR BKN002=
201011051139 TAF KBLI 051139Z 0512/0612 00000KT 1/2SM FG OVC001 FM051400 00000KT
                       P6SM SCT004 OVC040
                      TEMPO 0514/0516 4SM BR BKN004 OVC040 FM052000
                       00000KT 4SM -RA BKN006 OVC012 FM052300 18006KT
                       P6SM SCT006 BKN012 OVC020 FM060300 18006KT
                       P6SM BKN025 FM061000 VRB03KT 3SM BR BKN002=
201011050547 TAF KBLI 050547Z 0506/0606 18006KT P6SM SCT120 BKN200 FM051200
                       18006KT P6SM -RA SCT006 BKN012 OVC020
                      TEMPO 0515/0519 3SM -RA BKN006 OVC012 FM052300
                       18006KT P6SM SCT006 BKN012 OVC020=
201011042320 TAF KBLI 042320Z 0500/0524 VRB03KT P6SM SCT150 BKN200 FM050700
                       VRB03KT P6SM BKN050 OVC100 FM051000 18004KT
                       P6SM BKN025
                      TEMPO 0510/0514 -RA BKN020 FM051400 18004KT
                       P6SM BKN040
                      PROB30 0514/0520 -RA=
201011041735 TAF KBLI 041735Z 0418/0518 18003KT P6SM SCT200 FM050200 VRB03KT
                       P6SM BKN200 FM050700 VRB03KT P6SM SCT050
                       BKN100 BKN200 FM051200 18004KT P6SM BKN015=
201011041301 KBLI 041301Z 0413/0512 VRB03KT P6SM SKC
                      TEMPO 0413/0415 2SM BR FEW001 FM042300 VRB03KT
                       P6SM BKN250 FM050600 VRB03KT P6SM BKN120
                       OVC200=
201011041138 TAF KBLI 041138Z 0412/0512 VRB03KT P6SM SKC FM042300 VRB03KT P6SM
                       BKN250 FM050600 VRB03KT P6SM BKN120 OVC200=
201011040536 TAF KBLI 040536Z 0406/0506 VRB03KT P6SM SKC FM041800 VRB03KT P6SM
                       BKN250=
201011032324 TAF KBLI 032324Z 0400/0424 VRB03KT P6SM SCT250 FM041800 VRB03KT
                       P6SM BKN250=
201011031720 TAF KBLI 031720Z 0318/0418 02006KT P6SM SCT250 FM040100 VRB03KT
                       P6SM SKC=
201011031128 TAF KBLI 031128Z 0312/0412 03006KT P6SM SCT120 FM031500 01005KT
                       P6SM SKC FM040000 VRB03KT P6SM SKC=
201011030521 TAF KBLI 030521Z 0306/0406 02006KT P6SM SCT200
                      TEMPO 0312/0316 4SM BR SCT002 FM031700 01003KT
                       P6SM SKC=
201011022330 TAF KBLI 022330Z 0300/0324 36007KT P6SM SCT250 FM030400 02003KT
                       P6SM SCT250
                      TEMPO 0312/0316 4SM BR SCT002 FM031700 01003KT
                       P6SM SKC=
201011021723 TAF KBLI 021723Z 0218/0318 16005KT P6SM SKC FM021900 02004KT P6SM
                       SCT250
                      TEMPO 0312/0316 4SM BR SCT002=
201011021120 TAF KBLI 021120Z 0212/0312 16007KT P6SM SCT018
                      TEMPO 0213/0216 VRB04KT 4SM BR SCT002 BKN018
                       FM021600 VRB04KT 5SM BR OVC018 FM021900
                       02004KT P6SM SCT250
                      TEMPO 0310/0312 4SM BR SCT002=
201011020531 TAF KBLI 020531Z 0206/0306 17011KT P6SM VCSH BKN035 BKN050 FM020800
                       18010KT P6SM SCT018 BKN030 FM021100 18007KT
                       P6SM BKN018 FM021300 16002KT 5SM BR OVC012
                       FM022000 02004KT P6SM SCT250=
201011012330 TAF KBLI 012330Z 0200/0224 16015G25KT P6SM SCT015 BKN040 OVC070
                       TEMPO 0200/0204 P6SM -SHRA OVC015 FM020400
                       17012G20KT P6SM VCSH OVC015 FM021300 16002KT
                       5SM BR OVC012 FM022000 02004KT P6SM SCT250=
201011011720 TAF KBLI 011720Z 0118/0218 14018G27KT P6SM -RA SCT015 BKN035 OVC050
                       TEMPO 0118/0122 3SM RA BR BKN015 OVC025
                       FM012200 18012G20KT P6SM -SHRA BKN025 OVC040
                       FM020600 17007KT P6SM VCSH BKN025 BKN045
                       FM021200 17003KT 5SM BR OVC012=
201011011124 TAF KBLI 011124Z 0112/0212 15017G27KT P6SM -RA SCT035 OVC060
                      TEMPO 0112/0116 5SM RA BR BKN025 OVC040 FM011600
                       15015G25KT 5SM RA BR OVC020 FM012200 18012G20KT
                       P6SM -RA BKN025 OVC040 FM020600 17007KT
                       P6SM VCSH BKN025 BKN045=
201011010540 TAF KBLI 010540Z 0106/0206 16012G18KT P6SM -RA SCT035 OVC050
                      TEMPO 0107/0110 -RA OVC025 FM011000 15017G27KT
                       P6SM -RA BKN020 OVC040 FM011600 19015G25KT
                       5SM RA BR OVC020 FM012200 22012G20KT P6SM
                       -SHRA BKN025 BKN050 FM020500 20007KT P6SM
                       VCSH BKN027 BKN045=