##########################################################
# Query made at 02/16/2025 19:25:16 UTC
# Time interval: from 08/01/2010 00:00  to 08/31/2010 23:59  UTC
##########################################################

##########################################################
# KBLI, Bellingham, Bellingham International Airport (United States)
# WMO index: -----. WIGOS ID: Unknown
# Latitude 48-47-58N. Longitude 122-32-21W. Altitude 48 m.
##########################################################

###################################
#  METAR/SPECI from KBLI
###################################
201008312353 METAR KBLI 312353Z 16013G20KT 3SM -RA BR SCT018 OVC025 14/12 A2989 RMK AO2 SLP127 P0006 60024 T01390117 10150 20128 58010=
201008312253 METAR KBLI 312253Z 15012G18KT 4SM RA OVC020 14/11 A2990 RMK AO2 RAB05 SLP131 P0013 T01390111=
201008312153 METAR KBLI 312153Z 15012G21KT 10SM BKN020 OVC026 14/11 A2991 RMK AO2 SLP134 T01440106=
201008312053 METAR KBLI 312053Z 15015G21KT 10SM OVC020 14/10 A2992 RMK AO2 PK WND 15028/2005 RAE1955B32E50 SLP138 P0000 60005 T01390100 58010=
201008311953 METAR KBLI 311953Z 15014G22KT 10SM -RA BKN022 OVC040 13/10 A2993 RMK AO2 PK WND 15027/1931 RAE08B37 SLP141 P0001 T01330100=
201008311853 METAR KBLI 311853Z 15013G23KT 10SM -RA OVC022 13/09 A2994 RMK AO2 PK WND 14031/1813 RAB1758 SLP146 P0004 T01330094=
201008311753 METAR KBLI 311753Z 14019G24KT 10SM OVC024 13/09 A2995 RMK AO2 PK WND 14027/1733 RAE51 SLP148 P0004 60039 T01330089 10144 20122 58011=
201008311713 SPECI KBLI 311713Z 14017G24KT 7SM -RA BKN026 OVC045 13/09 A2995 RMK AO2 P0004=
201008311713 SPECI KBLI 311713Z 14017G24KT 7SM -RA BKN026 OVC045 13/09 A2995 RMK AO2 P0004=
201008311653 METAR KBLI 311653Z 14013G24KT 6SM RA FEW024 SCT030 OVC046 13/09 A2996 RMK AO2 SLP151 P0014 T01280094=
201008311553 METAR KBLI 311553Z 15015G22KT 5SM RA FEW033 BKN046 OVC055 13/09 A2998 RMK AO2 SLP157 P0015 T01280094=
201008311453 METAR KBLI 311453Z 16011KT 10SM -RA BKN048 OVC065 13/09 A2998 RMK AO2 SLP159 P0005 60006 T01280094 58005=
201008311353 METAR KBLI 311353Z 17009KT 10SM -RA OVC055 13/09 A2999 RMK AO2 RAB05 SLP162 P0001 T01280094=
201008311253 METAR KBLI 311253Z AUTO 17010KT 10SM OVC065 13/09 A3000 RMK AO2 SLP164 T01330089=
201008311153 METAR KBLI 311153Z AUTO 16006KT 10SM OVC075 14/08 A3000 RMK AO2 SLP165 T01440083 10156 20139 58001=
201008311053 METAR KBLI 311053Z AUTO 13005KT 10SM FEW055 OVC085 14/08 A3000 RMK AO2 SLP165 T01440083=
201008310953 METAR KBLI 310953Z AUTO 18006KT 10SM SCT060 BKN080 OVC095 14/09 A3000 RMK AO2 SLP165 T01440089=
201008310853 METAR KBLI 310853Z AUTO 18008KT 10SM OVC090 14/09 A3000 RMK AO2 SLP165 T01440089 53006=
201008310753 METAR KBLI 310753Z AUTO 17009KT 10SM CLR 16/07 A2999 RMK AO2 SLP162 T01560072 402060072=
201008310653 METAR KBLI 310653Z AUTO 16009KT 10SM SCT120 16/07 A2999 RMK AO2 SLP160 T01560067=
201008310553 METAR KBLI 310553Z AUTO 16010KT 10SM SCT070 16/07 A2998 RMK AO2 SLP159 T01560072 10206 20156 51009=
201008310453 METAR KBLI 310453Z 16008KT 10SM CLR 16/08 A2998 RMK AO2 SLP157 T01560083=
201008310353 METAR KBLI 310353Z 17008KT 10SM CLR 16/08 A2997 RMK AO2 SLP153 T01610078=
201008310253 METAR KBLI 310253Z 17007KT 10SM CLR 16/08 A2996 RMK AO2 SLP151 T01610083 51005=
201008310153 METAR KBLI 310153Z 18007KT 10SM CLR 17/09 A2995 RMK AO2 SLP150 T01720089=
201008310053 METAR KBLI 310053Z 19005KT 10SM CLR 18/09 A2995 RMK AO2 SLP147 T01830089=
201008302353 METAR KBLI 302353Z 22004KT 10SM CLR 20/06 A2994 RMK AO2 SLP144 T02000061 10206 20172 58001=
201008302253 METAR KBLI 302253Z VRB04KT 10SM CLR 20/07 A2995 RMK AO2 SLP146 T02000067=
201008302153 METAR KBLI 302153Z 27007KT 240V300 10SM CLR 20/08 A2994 RMK AO2 SLP144 T02000083=
201008302053 METAR KBLI 302053Z 27007KT 10SM CLR 20/08 A2994 RMK AO2 SLP146 T02000083 51002=
201008301953 METAR KBLI 301953Z VRB05KT 10SM SCT032 19/09 A2994 RMK AO2 SLP145 T01890094=
201008301853 METAR KBLI 301853Z 27005KT 10SM SCT025 BKN031 18/11 A2994 RMK AO2 SLP143 T01780106=
201008301753 METAR KBLI 301753Z 32004KT 10SM CLR 18/09 A2994 RMK AO2 SLP143 T01780094 10178 20072 51005=
201008301653 METAR KBLI 301653Z 00000KT 10SM CLR 16/10 A2994 RMK AO2 SLP143 T01560100=
201008301553 METAR KBLI 301553Z 00000KT 10SM CLR 14/11 A2993 RMK AO2 SLP141 T01440106=
201008301453 METAR KBLI 301453Z 00000KT 10SM CLR 11/09 A2992 RMK AO2 SLP139 T01110094 53014=
201008301353 METAR KBLI 301353Z AUTO 00000KT 10SM CLR 08/07 A2991 RMK AO2 SLP134 T00830072=
201008301342 SPECI KBLI 301342Z AUTO 00000KT 4SM BR CLR 08/07 A2990 RMK AO2=
201008301342 SPECI KBLI 301342Z AUTO 00000KT 4SM BR CLR 08/07 A2990 RMK AO2=
201008301338 SPECI KBLI 301338Z AUTO 00000KT 3/4SM R16/P6000FT BR CLR 08/07 A2990 RMK AO2=
201008301338 SPECI KBLI 301338Z AUTO 00000KT 3/4SM R16/P6000FT BR CLR 08/07 A2990 RMK AO2=
201008301330 SPECI KBLI 301330Z AUTO 00000KT 1 1/2SM BR CLR 08/07 A2990 RMK AO2 VIS 1/4V5=
201008301330 SPECI KBLI 301330Z AUTO 00000KT 1 1/2SM BR CLR 08/07 A2990 RMK AO2 VIS 1/4V5=
201008301253 METAR KBLI 301253Z AUTO 00000KT 6SM BR CLR 08/07 A2989 RMK AO2 SLP127 T00830067=
201008301153 METAR KBLI 301153Z AUTO 00000KT 10SM CLR 09/08 A2988 RMK AO2 SLP124 T00940078 10139 20089 51005=
201008301053 METAR KBLI 301053Z AUTO 00000KT 10SM CLR 10/08 A2987 RMK AO2 SLP122 T01000083=
201008300953 METAR KBLI 300953Z AUTO 00000KT 10SM CLR 11/09 A2987 RMK AO2 SLP122 T01060089=
201008300853 METAR KBLI 300853Z AUTO 00000KT 10SM OVC080 12/10 A2986 RMK AO2 SLP118 T01220100 50002=
201008300753 METAR KBLI 300753Z AUTO 00000KT 10SM OVC075 13/10 A2986 RMK AO2 SLP118 T01280100 401720111=
201008300653 METAR KBLI 300653Z AUTO 16004KT 10SM OVC075 14/09 A2986 RMK AO2 SLP118 T01390094=
201008300553 METAR KBLI 300553Z AUTO 00000KT 10SM BKN070 13/10 A2986 RMK AO2 SLP117 T01280100 10167 20122 51004=
201008300453 METAR KBLI 300453Z 16003KT 10SM FEW070 13/09 A2985 RMK AO2 SLP116 T01280094=
201008300353 METAR KBLI 300353Z 17003KT 10SM BKN060 14/09 A2985 RMK AO2 SLP116 T01440094=
201008300253 METAR KBLI 300253Z 16005KT 10SM OVC055 15/09 A2984 RMK AO2 SLP113 T01500094 53001=
201008300153 METAR KBLI 300153Z 18005KT 10SM FEW047 16/09 A2984 RMK AO2 SLP111 T01610094=
201008300053 METAR KBLI 300053Z 18004KT 10SM OVC041 17/09 A2984 RMK AO2 SLP110 T01670089=
201008292353 METAR KBLI 292353Z 19006KT 10SM OVC033 17/09 A2984 RMK AO2 SLP110 T01670094 10172 20144 57003=
201008292253 METAR KBLI 292253Z 18008KT 10SM BKN030 OVC120 16/09 A2984 RMK AO2 SLP113 T01560094=
201008292153 METAR KBLI 292153Z 18011G19KT 10SM SCT030 BKN120 17/09 A2985 RMK AO2 SLP112 T01670094=
201008292053 METAR KBLI 292053Z 17012G19KT 10SM SCT025 BKN070 16/09 A2985 RMK AO2 SLP114 T01610094 56006=
201008292000 METAR KBLI NIL=
201008291953 METAR KBLI 291953Z 17013G22KT 10SM SCT009 BKN120 16/10 A2985 RMK AO2 SLP115 T01610100=
201008291900 METAR KBLI NIL=
201008291800 METAR KBLI NIL=
201008291653 METAR KBLI 291653Z 18009G18KT 10SM SCT011 BKN120 14/10 A2986 RMK AO2 SLP119 T01440100=
201008291553 METAR KBLI 291553Z 17008KT 10SM CLR 13/09 A2986 RMK AO2 SLP118 T01330089=
201008291453 METAR KBLI 291453Z 18006KT 10SM CLR 13/09 A2986 RMK AO2 SLP116 T01280094 53007=
201008291353 METAR KBLI 291353Z AUTO 00000KT 10SM BKN100 11/09 A2985 RMK AO2 SLP113 T01110094=
201008291253 METAR KBLI 291253Z AUTO 17004KT 10SM CLR 12/09 A2983 RMK AO2 SLP108 T01170094=
201008291153 METAR KBLI 291153Z AUTO 19004KT 10SM CLR 12/09 A2983 RMK AO2 SLP108 T01170094 10139 20111 53005=
201008291053 METAR KBLI 291053Z AUTO 18004KT 10SM CLR 12/09 A2982 RMK AO2 SLP105 T01220089=
201008290953 METAR KBLI 290953Z AUTO 17008KT 10SM CLR 13/09 A2982 RMK AO2 SLP104 T01330089=
201008290853 METAR KBLI 290853Z AUTO 18008KT 10SM CLR 13/09 A2982 RMK AO2 SLP103 T01330094 51004=
201008290753 METAR KBLI 290753Z AUTO 17005KT 10SM CLR 14/09 A2982 RMK AO2 SLP103 T01390094 402110061=
201008290653 METAR KBLI 290653Z AUTO 17005KT 10SM CLR 13/10 A2981 RMK AO2 SLP101 T01330100=
201008290553 METAR KBLI 290553Z AUTO 16003KT 10SM CLR 13/10 A2981 RMK AO2 SLP099 T01330100 10211 20133 51005=
201008290453 METAR KBLI 290453Z 18003KT 10SM CLR 13/11 A2980 RMK AO2 SLP098 T01330106=
201008290353 METAR KBLI 290353Z 00000KT 10SM CLR 14/11 A2980 RMK AO2 SLP097 T01390111=
201008290253 METAR KBLI 290253Z 00000KT 10SM CLR 16/12 A2979 RMK AO2 SLP095 T01610117 56002=
201008290153 METAR KBLI 290153Z 20005KT 10SM CLR 18/12 A2979 RMK AO2 SLP095 T01780117=
201008290053 METAR KBLI 290053Z VRB05KT 10SM CLR 21/07 A2979 RMK AO2 SLP096 T02110072=
201008282353 METAR KBLI 282353Z VRB05KT 10SM CLR 21/08 A2980 RMK AO2 SLP097 T02060083 10211 20161 56011=
201008282253 METAR KBLI 282253Z 27005KT 10SM CLR 21/09 A2981 RMK AO2 SLP099 T02060094=
201008282153 METAR KBLI 282153Z VRB06KT 10SM CLR 21/10 A2982 RMK AO2 SLP102 T02060100=
201008282053 METAR KBLI 282053Z 28007KT 250V310 10SM CLR 19/11 A2983 RMK AO2 SLP107 T01940106 56016=
201008281953 METAR KBLI 281953Z 28009KT 10SM SCT027 19/11 A2984 RMK AO2 SLP111 T01890106=
201008281853 METAR KBLI 281853Z VRB04KT 10SM SCT027 18/10 A2986 RMK AO2 SLP118 T01830100=
201008281753 METAR KBLI 281753Z 00000KT 10SM BKN020 17/10 A2988 RMK AO2 SLP124 T01720100 10172 20061 58009=
201008281653 METAR KBLI 281653Z 05004KT 10SM BKN020 15/09 A2989 RMK AO2 SLP130 T01500094=
201008281553 METAR KBLI 281553Z 03005KT 10SM BKN022 13/09 A2990 RMK AO2 SLP132 T01280094=
201008281453 METAR KBLI 281453Z 00000KT 10SM CLR 11/09 A2990 RMK AO2 SLP133 T01060089 53005=
201008281353 METAR KBLI 281353Z 33003KT 8SM CLR 08/07 A2990 RMK AO2 SLP130 T00780067=
201008281253 METAR KBLI 281253Z AUTO 34003KT 10SM CLR 07/05 A2989 RMK AO2 SLP129 T00670050=
201008281153 METAR KBLI 281153Z AUTO 00000KT 10SM CLR 07/06 A2989 RMK AO2 SLP128 T00720056 10106 20067 56008=
201008281053 METAR KBLI 281053Z AUTO 00000KT 10SM CLR 08/06 A2989 RMK AO2 SLP128 T00780061=
201008280953 METAR KBLI 280953Z AUTO 00000KT 10SM FEW031 08/07 A2990 RMK AO2 SLP132 T00780067=
201008280853 METAR KBLI 280853Z AUTO 00000KT 10SM CLR 09/08 A2991 RMK AO2 SLP136 T00940078 58005=
201008280753 METAR KBLI 280753Z AUTO 00000KT 10SM CLR 10/08 A2992 RMK AO2 SLP138 T01000078 401890094=
201008280653 METAR KBLI 280653Z AUTO 00000KT 10SM CLR 10/08 A2992 RMK AO2 SLP140 T01000083=
201008280553 METAR KBLI 280553Z AUTO 00000KT 10SM CLR 11/09 A2993 RMK AO2 SLP141 T01060089 10183 20106 58003=
201008280453 METAR KBLI 280453Z 00000KT 10SM CLR 12/09 A2993 RMK AO2 SLP143 T01170094=
201008280353 METAR KBLI 280353Z 00000KT 10SM CLR 13/09 A2994 RMK AO2 SLP144 T01330094=
201008280253 METAR KBLI 280253Z 00000KT 10SM CLR 14/09 A2994 RMK AO2 SLP143 T01440089 56010=
201008280153 METAR KBLI 280153Z 20003KT 10SM CLR 18/09 A2994 RMK AO2 SLP144 T01780094=
201008280053 METAR KBLI 280053Z VRB04KT 10SM CLR 18/09 A2995 RMK AO2 SLP148 T01830089=
201008272353 METAR KBLI 272353Z 17007KT 10SM CLR 18/09 A2997 RMK AO2 SLP153 T01830094 10189 20156 58019=
201008272253 METAR KBLI 272253Z 16007KT 10SM CLR 18/09 A2998 RMK AO2 SLP159 T01830089=
201008272153 METAR KBLI 272153Z 18007KT 10SM SCT030 18/09 A3001 RMK AO2 SLP167 T01830089=
201008272053 METAR KBLI 272053Z 16009KT 10SM CLR 17/09 A3002 RMK AO2 SLP172 T01720094 56016=
201008271953 METAR KBLI 271953Z 17010G15KT 10SM FEW013 SCT050 17/10 A3004 RMK AO2 SLP178 T01720100=
201008271853 METAR KBLI 271853Z 17009G16KT 10SM CLR 17/11 A3005 RMK AO2 SLP183 T01670106=
201008271753 METAR KBLI 271753Z 17015G19KT 10SM FEW013 SCT050 16/11 A3007 RMK AO2 SLP189 T01560106 10156 20133 58001=
201008271653 METAR KBLI 271653Z 17011KT 10SM FEW012 SCT065 BKN090 15/11 A3007 RMK AO2 SLP189 T01500106=
201008271553 METAR KBLI 271553Z 17009G17KT 10SM OVC085 14/10 A3008 RMK AO2 SLP191 T01390100=
201008271453 METAR KBLI 271453Z 16009KT 10SM FEW055 OVC080 14/10 A3007 RMK AO2 SLP190 T01390100 53004=
201008271353 METAR KBLI 271353Z 16008KT 10SM SCT055 OVC085 13/10 A3007 RMK AO2 SLP188 T01330100=
201008271253 METAR KBLI 271253Z AUTO 16006KT 10SM BKN060 OVC085 14/09 A3006 RMK AO2 SLP186 T01390094=
201008271153 METAR KBLI 271153Z AUTO 16008KT 10SM BKN060 OVC085 14/09 A3006 RMK AO2 SLP186 T01390094 10156 20139 53004=
201008271053 METAR KBLI 271053Z AUTO 16005KT 10SM OVC055 14/09 A3006 RMK AO2 SLP184 T01440094=
201008270953 METAR KBLI 270953Z AUTO 17006KT 10SM SCT070 OVC080 14/10 A3005 RMK AO2 SLP182 T01440100=
201008270853 METAR KBLI 270853Z AUTO 17006KT 10SM SCT070 OVC085 14/10 A3005 RMK AO2 SLP181 T01440100 50005=
201008270753 METAR KBLI 270753Z AUTO 17008KT 10SM FEW065 OVC080 14/09 A3005 RMK AO2 SLP182 T01440094 402060133=
201008270653 METAR KBLI 270653Z AUTO 18005KT 10SM OVC090 15/09 A3004 RMK AO2 SLP179 T01500089=
201008270553 METAR KBLI 270553Z AUTO 16005KT 10SM OVC060 16/08 A3003 RMK AO2 LTG DSNT N SLP176 T01560083 10200 20156 51019=
201008270453 METAR KBLI 270453Z 17009KT 10SM BKN060 OVC080 16/08 A3002 RMK AO2 SLP172 T01560083=
201008270353 METAR KBLI 270353Z 16005KT 10SM OVC075 16/08 A3000 RMK AO2 SLP166 T01610078=
201008270253 METAR KBLI 270253Z 17010KT 10SM BKN080 OVC095 17/08 A2998 RMK AO2 SLP157 T01670083 53003=
201008270153 METAR KBLI 270153Z 17010KT 10SM BKN070 OVC090 17/09 A2998 RMK AO2 SLP156 T01720089=
201008270053 METAR KBLI 270053Z 16010G17KT 10SM SCT095 18/09 A2997 RMK AO2 SLP154 T01830089=
201008262353 METAR KBLI 262353Z 16014G19KT 10SM BKN090 19/09 A2997 RMK AO2 SLP154 60000 T01940089 10206 20144 51004=
201008262253 METAR KBLI 262253Z 16011G20KT 10SM OVC085 20/09 A2997 RMK AO2 SLP153 T02000089=
201008262153 METAR KBLI 262153Z 16013G18KT 10SM SCT070 19/09 A2997 RMK AO2 SLP155 T01940089=
201008262053 METAR KBLI 262053Z 15014KT 10SM CLR 18/09 A2996 RMK AO2 SLP151 60000 T01830089 53015=
201008261953 METAR KBLI 261953Z 16010KT 10SM OVC090 17/09 A2995 RMK AO2 SLP147 T01670094=
201008261900 SPECI KBLI 261900Z 17012KT 10SM FEW013 OVC085 16/11 A2993 RMK AO2=
201008261900 SPECI KBLI 261900Z 17012KT 10SM FEW013 OVC085 16/11 A2993 RMK AO2=
201008261853 METAR KBLI 261853Z 15012KT 10SM SCT015 BKN023 BKN080 16/11 A2992 RMK AO2 RAE03 SLP139 P0000 T01610111=
201008261753 METAR KBLI 261753Z 16009KT 10SM -RA SCT015 BKN025 OVC080 14/12 A2992 RMK AO2 RAE1659B40 SLP136 P0000 60000 T01440117 10150 20133 51026=
201008261745 SPECI KBLI 261745Z 15009KT 10SM -RA FEW015 SCT025 OVC080 15/12 A2991 RMK AO2 RAE1659B40 P0000=
201008261745 SPECI KBLI 261745Z 15009KT 10SM -RA FEW015 SCT025 OVC080 15/12 A2991 RMK AO2 RAE1659B40 P0000=
201008261715 SPECI KBLI 261715Z 16010KT 10SM BKN025 OVC080 14/11 A2991 RMK AO2 RAE1659 P0000=
201008261715 SPECI KBLI 261715Z 16010KT 10SM BKN025 OVC080 14/11 A2991 RMK AO2 RAE1659 P0000=
201008261653 METAR KBLI 261653Z 16007KT 10SM -RA SCT023 BKN055 OVC080 14/11 A2989 RMK AO2 RAE1557B41 SLP129 P0000 T01440111=
201008261636 SPECI KBLI 261636Z 16008KT 10SM FEW019 OVC080 14/11 A2988 RMK AO2 RAE1557 P0000=
201008261636 SPECI KBLI 261636Z 16008KT 10SM FEW019 OVC080 14/11 A2988 RMK AO2 RAE1557 P0000=
201008261553 METAR KBLI 261553Z 16006KT 10SM -RA OVC019 14/11 A2987 RMK AO2 RAB41 SLP120 P0000 T01390111=
201008261520 SPECI KBLI 261520Z 18009KT 10SM BKN019 OVC080 14/11 A2986 RMK AO2=
201008261520 SPECI KBLI 261520Z 18009KT 10SM BKN019 OVC080 14/11 A2986 RMK AO2=
201008261513 SPECI KBLI 261513Z 18006KT 10SM SCT019 OVC080 14/11 A2985 RMK AO2=
201008261513 SPECI KBLI 261513Z 18006KT 10SM SCT019 OVC080 14/11 A2985 RMK AO2=
201008261453 METAR KBLI 261453Z 17008KT 10SM OVC016 14/11 A2984 RMK AO2 SLP110 T01440106 53009=
201008261407 SPECI KBLI 261407Z 17012G19KT 10SM BKN014 BKN085 13/11 A2983 RMK AO2=
201008261407 SPECI KBLI 261407Z 17012G19KT 10SM BKN014 BKN085 13/11 A2983 RMK AO2=
201008261353 METAR KBLI 261353Z 17011G18KT 10SM BKN016 BKN085 13/11 A2983 RMK AO2 SLP105 T01330106=
201008261253 METAR KBLI 261253Z AUTO 18009KT 10SM SCT080 13/11 A2981 RMK AO2 SLP101 T01330106=
201008261153 METAR KBLI 261153Z AUTO 18011G17KT 10SM CLR 13/11 A2981 RMK AO2 SLP101 T01330106 10178 20133 53008=
201008261053 METAR KBLI 261053Z AUTO 18010G17KT 10SM CLR 14/11 A2980 RMK AO2 SLP096 T01390106=
201008260953 METAR KBLI 260953Z AUTO 18008KT 10SM CLR 16/11 A2979 RMK AO2 SLP094 T01560111=
201008260853 METAR KBLI 260853Z AUTO 18008KT 10SM CLR 16/12 A2979 RMK AO2 SLP092 T01610117 50000=
201008260753 METAR KBLI 260753Z AUTO 17010G15KT 10SM CLR 17/12 A2979 RMK AO2 SLP093 T01720122 402610111=
201008260653 METAR KBLI 260653Z AUTO 18011KT 10SM CLR 17/12 A2979 RMK AO2 SLP093 T01670122=
201008260553 METAR KBLI 260553Z AUTO 17011KT 10SM CLR 18/12 A2979 RMK AO2 SLP091 T01780117 10244 20178 58005=
201008260453 METAR KBLI 260453Z 17007KT 10SM CLR 19/12 A2980 RMK AO2 SLP094 T01890122=
201008260353 METAR KBLI 260353Z 18008KT 10SM CLR 19/13 A2980 RMK AO2 SLP098 T01890128=
201008260253 METAR KBLI 260253Z 17007KT 10SM CLR 19/12 A2980 RMK AO2 SLP098 T01940122 58019=
201008260153 METAR KBLI 260153Z 18006KT 10SM CLR 22/11 A2982 RMK AO2 SLP104 T02170106=
201008260053 METAR KBLI 260053Z 17009KT 10SM CLR 23/11 A2984 RMK AO2 SLP111 T02280106=
201008252353 METAR KBLI 252353Z 16007KT 10SM CLR 23/12 A2986 RMK AO2 SLP117 T02330122 10261 20211 58017=
201008252253 METAR KBLI 252253Z 16005KT 10SM CLR 24/13 A2988 RMK AO2 SLP124 T02440128=
201008252153 METAR KBLI 252153Z 22005KT 10SM CLR 26/13 A2990 RMK AO2 SLP128 T02560133=
201008252053 METAR KBLI 252053Z 00000KT 10SM CLR 26/13 A2991 RMK AO2 SLP133 T02560133 58013=
201008251953 METAR KBLI 251953Z 25005KT 10SM CLR 24/14 A2993 RMK AO2 SLP139 T02390139=
201008251853 METAR KBLI 251853Z VRB03KT 10SM CLR 23/13 A2994 RMK AO2 SLP143 T02330133=
201008251753 METAR KBLI 251753Z 17004KT 10SM CLR 22/13 A2995 RMK AO2 SLP147 T02170133 10217 20111 58004=
201008251653 METAR KBLI 251653Z VRB03KT 10SM CLR 20/13 A2996 RMK AO2 SLP150 T02000133=
201008251553 METAR KBLI 251553Z 00000KT 10SM CLR 18/14 A2996 RMK AO2 SLP151 T01780139=
201008251453 METAR KBLI 251453Z 00000KT 10SM CLR 16/14 A2996 RMK AO2 SLP151 T01560139 53001=
201008251353 METAR KBLI 251353Z 00000KT 10SM CLR 12/11 A2995 RMK AO2 SLP149 T01170106=
201008251333 SPECI KBLI 251333Z AUTO 00000KT 4SM BR CLR 12/11 A2995 RMK AO2=
201008251333 SPECI KBLI 251333Z AUTO 00000KT 4SM BR CLR 12/11 A2995 RMK AO2=
201008251321 SPECI KBLI 251321Z AUTO 00000KT 1 3/4SM BR CLR 12/10 A2995 RMK AO2 VIS 1/2V5=
201008251321 SPECI KBLI 251321Z AUTO 00000KT 1 3/4SM BR CLR 12/10 A2995 RMK AO2 VIS 1/2V5=
201008251253 METAR KBLI 251253Z AUTO 00000KT 10SM CLR 12/10 A2995 RMK AO2 SLP149 T01220100=
201008251153 METAR KBLI 251153Z AUTO 00000KT 10SM CLR 12/11 A2996 RMK AO2 SLP150 T01220106 10150 20117 56002=
201008251053 METAR KBLI 251053Z AUTO 00000KT 10SM CLR 12/11 A2996 RMK AO2 SLP149 T01220106=
201008251040 SPECI KBLI 251040Z AUTO 00000KT 2 1/2SM BR CLR 13/11 A2996 RMK AO2=
201008251040 SPECI KBLI 251040Z AUTO 00000KT 2 1/2SM BR CLR 13/11 A2996 RMK AO2=
201008250953 METAR KBLI 250953Z AUTO 00000KT 10SM CLR 13/11 A2996 RMK AO2 SLP150 T01280111=
201008250853 METAR KBLI 250853Z AUTO 00000KT 10SM FEW100 14/12 A2996 RMK AO2 SLP152 T01390122 56003=
201008250753 METAR KBLI 250753Z AUTO 00000KT 10SM CLR 15/12 A2997 RMK AO2 SLP153 T01500122 402610089=
201008250653 METAR KBLI 250653Z AUTO 00000KT 10SM CLR 15/13 A2997 RMK AO2 SLP154 T01500128=
201008250553 METAR KBLI 250553Z AUTO 00000KT 10SM CLR 15/12 A2997 RMK AO2 SLP155 T01500117 10250 20150 50001=
201008250453 METAR KBLI 250453Z 00000KT 10SM CLR 16/12 A2998 RMK AO2 SLP156 T01560117=
201008250353 METAR KBLI 250353Z 00000KT 10SM CLR 17/12 A2997 RMK AO2 SLP155 T01720117=
201008250253 METAR KBLI 250253Z 00000KT 10SM CLR 20/13 A2997 RMK AO2 SLP155 T02000128 56017=
201008250153 METAR KBLI 250153Z 00000KT 10SM CLR 24/12 A2998 RMK AO2 SLP157 T02390117=
201008250053 METAR KBLI 250053Z 28005KT 10SM CLR 24/12 A3000 RMK AO2 SLP164 T02440122=
201008242353 METAR KBLI 242353Z 27007KT 10SM CLR 25/12 A3002 RMK AO2 SLP171 T02500122 10261 20222 56023=
201008242253 METAR KBLI 242253Z 26006KT 10SM CLR 25/13 A3004 RMK AO2 SLP178 T02500128=
201008242153 METAR KBLI 242153Z 28008KT 10SM CLR 25/13 A3006 RMK AO2 SLP186 T02500133=
201008242053 METAR KBLI 242053Z 27009KT 10SM CLR 23/13 A3009 RMK AO2 SLP195 T02330128 58022=
201008241953 METAR KBLI 241953Z 29007KT 260V320 10SM CLR 24/13 A3011 RMK AO2 SLP203 T02440128=
201008241853 METAR KBLI 241853Z VRB05KT 10SM CLR 24/11 A3014 RMK AO2 SLP211 T02390106=
201008241753 METAR KBLI 241753Z 36008KT 10SM CLR 22/11 A3016 RMK AO2 SLP216 T02220106 10222 20089 56018=
201008241653 METAR KBLI 241653Z 02010KT 10SM CLR 21/10 A3017 RMK AO2 SLP221 T02060100=
201008241553 METAR KBLI 241553Z 01008KT 10SM CLR 17/11 A3019 RMK AO2 SLP229 T01720106=
201008241453 METAR KBLI 241453Z 34005KT 10SM CLR 14/10 A3021 RMK AO2 SLP235 T01390100 58005=
201008241353 METAR KBLI 241353Z 00000KT 10SM CLR 11/09 A3022 RMK AO2 SLP239 T01110094=
201008241253 METAR KBLI 241253Z AUTO 00000KT 10SM CLR 10/08 A3021 RMK AO2 SLP238 T01000078=
201008241153 METAR KBLI 241153Z AUTO 00000KT 10SM CLR 10/08 A3022 RMK AO2 SLP240 T01000078 10156 20089 56011=
201008241053 METAR KBLI 241053Z AUTO 33003KT 10SM CLR 09/08 A3023 RMK AO2 SLP241 T00940078=
201008240953 METAR KBLI 240953Z AUTO 00000KT 10SM CLR 11/08 A3024 RMK AO2 SLP245 T01060083=
201008240853 METAR KBLI 240853Z AUTO 00000KT 10SM CLR 12/09 A3025 RMK AO2 SLP251 T01170089 58009=
201008240753 METAR KBLI 240753Z AUTO 00000KT 10SM CLR 12/08 A3026 RMK AO2 SLP255 T01170083 402220089=
201008240653 METAR KBLI 240653Z AUTO 00000KT 10SM CLR 13/09 A3027 RMK AO2 SLP256 T01280089=
201008240553 METAR KBLI 240553Z AUTO 30003KT 10SM CLR 16/09 A3028 RMK AO2 SLP260 T01560094 10217 20139 58011=
201008240453 METAR KBLI 240453Z 00000KT 10SM CLR 14/09 A3029 RMK AO2 SLP263 T01440094=
201008240353 METAR KBLI 240353Z 00000KT 10SM CLR 15/09 A3031 RMK AO2 SLP270 T01500089=
201008240253 METAR KBLI 240253Z AUTO 29005KT 10SM CLR 18/08 A3031 RMK AO2 SLP271 T01830078 56009 TSNO=
201008240153 METAR KBLI 240153Z 28004KT 10SM CLR 20/09 A3031 RMK AO2 SLP271 T02000089=
201008240053 METAR KBLI 240053Z 28005KT 10SM CLR 22/07 A3032 RMK AO2 SLP272 T02170072=
201008232353 METAR KBLI 232353Z 26005KT 10SM CLR 21/08 A3034 RMK AO2 SLP280 T02110078 10222 20167 58017=
201008232253 METAR KBLI 232253Z 29003KT 10SM CLR 22/08 A3036 RMK AO2 SLP285 T02170083=
201008232153 METAR KBLI 232153Z VRB04KT 10SM CLR 21/09 A3038 RMK AO2 SLP294 T02110094=
201008232053 METAR KBLI 232053Z 00000KT 10SM CLR 19/08 A3039 RMK AO2 SLP298 T01940083 57007=
201008231953 METAR KBLI 231953Z 18006KT 10SM CLR 19/09 A3040 RMK AO2 SLP300 T01890089=
201008231853 METAR KBLI 231853Z VRB04KT 10SM CLR 18/08 A3041 RMK AO2 SLP302 T01780078=
201008231753 METAR KBLI 231753Z 19006KT 10SM CLR 17/08 A3041 RMK AO2 SLP305 T01670078 10172 20089 51006=
201008231653 METAR KBLI 231653Z 17007KT 10SM CLR 16/08 A3041 RMK AO2 SLP304 T01560078=
201008231553 METAR KBLI 231553Z 16006KT 10SM CLR 15/09 A3040 RMK AO2 SLP302 T01500094=
201008231453 METAR KBLI 231453Z 00000KT 10SM CLR 14/08 A3040 RMK AO2 SLP299 T01390078 53015=
201008231353 METAR KBLI 231353Z AUTO 00000KT 10SM CLR 10/07 A3037 RMK AO2 SLP291 T01000072=
201008231253 METAR KBLI 231253Z AUTO 00000KT 10SM CLR 10/07 A3036 RMK AO2 SLP287 T01000072=
201008231153 METAR KBLI 231153Z AUTO 00000KT 10SM BKN080 12/08 A3035 RMK AO2 SLP284 T01170083 10139 20117 53012=
201008231053 METAR KBLI 231053Z AUTO 00000KT 10SM OVC085 13/08 A3034 RMK AO2 SLP281 T01280078=
201008230953 METAR KBLI 230953Z AUTO 16003KT 10SM OVC085 13/08 A3032 RMK AO2 SLP275 T01330083=
201008230853 METAR KBLI 230853Z AUTO 16005KT 10SM FEW075 OVC085 13/08 A3032 RMK AO2 SLP272 T01330083 51015=
201008230753 METAR KBLI 230753Z AUTO 17005KT 10SM BKN075 14/08 A3030 RMK AO2 SLP268 T01390078 401940117=
201008230653 METAR KBLI 230653Z AUTO 18003KT 10SM FEW065 13/08 A3029 RMK AO2 SLP262 T01280083=
201008230553 METAR KBLI 230553Z AUTO 17006KT 10SM BKN065 14/08 A3027 RMK AO2 SLP256 T01390078 10194 20139 51019=
201008230453 METAR KBLI 230453Z 16006KT 10SM CLR 15/07 A3026 RMK AO2 SLP253 T01500072=
201008230353 METAR KBLI 230353Z 16005KT 10SM SCT070 16/07 A3023 RMK AO2 SLP244 T01610072=
201008230253 METAR KBLI 230253Z 17006KT 10SM CLR 17/08 A3021 RMK AO2 SLP237 T01670078 51008=
201008230153 METAR KBLI 230153Z 16009KT 10SM CLR 18/07 A3021 RMK AO2 SLP235 T01830067=
201008230053 METAR KBLI 230053Z 16008G15KT 10SM FEW055 18/08 A3020 RMK AO2 SLP233 T01830078=
201008222353 METAR KBLI 222353Z 17012KT 10SM CLR 19/08 A3019 RMK AO2 SLP228 T01890078 10189 20161 51010=
201008222253 METAR KBLI 222253Z 17009G17KT 10SM FEW080 18/09 A3018 RMK AO2 SLP226 T01780089=
201008222153 METAR KBLI 222153Z 17011G16KT 10SM BKN075 17/10 A3017 RMK AO2 SLP222 T01720100=
201008222053 METAR KBLI 222053Z 16011KT 10SM SCT060 OVC075 17/11 A3016 RMK AO2 SLP218 T01670106 53015=
201008221953 METAR KBLI 221953Z 18009G16KT 10SM OVC075 16/11 A3014 RMK AO2 SLP211 T01610106=
201008221853 METAR KBLI 221853Z 16012KT 10SM BKN085 17/11 A3013 RMK AO2 SLP208 T01720106=
201008221753 METAR KBLI 221753Z 18007G14KT 150V220 10SM OVC075 16/10 A3011 RMK AO2 SLP203 T01610100 10161 20122 53018=
201008221653 METAR KBLI 221653Z 17007KT 10SM FEW041 OVC070 15/10 A3009 RMK AO2 SLP197 T01500100=
201008221553 METAR KBLI 221553Z 17009KT 10SM FEW042 OVC065 14/09 A3008 RMK AO2 SLP192 T01440094=
201008221453 METAR KBLI 221453Z 16007KT 10SM BKN036 OVC065 14/09 A3006 RMK AO2 SLP185 T01390094 53019=
201008221353 METAR KBLI 221353Z 17003KT 10SM FEW031 OVC041 13/09 A3004 RMK AO2 SLP178 T01330094=
201008221253 METAR KBLI 221253Z AUTO 16003KT 10SM BKN041 BKN060 13/10 A3002 RMK AO2 SLP171 T01280100=
201008221153 METAR KBLI 221153Z AUTO 15004KT 10SM BKN042 13/10 A3000 RMK AO2 SLP166 T01280100 10167 20117 53012=
201008221053 METAR KBLI 221053Z AUTO 16003KT 10SM CLR 12/10 A2999 RMK AO2 SLP160 T01220100=
201008220953 METAR KBLI 220953Z AUTO 17005KT 10SM CLR 14/10 A2997 RMK AO2 SLP156 T01390100=
201008220853 METAR KBLI 220853Z AUTO 19006KT 10SM BKN100 14/10 A2997 RMK AO2 SLP154 T01440100 53008=
201008220753 METAR KBLI 220753Z AUTO 17004KT 10SM FEW120 15/10 A2996 RMK AO2 SLP152 T01500100 401940117=
201008220653 METAR KBLI 220653Z AUTO 17007KT 10SM FEW090 BKN110 16/11 A2995 RMK AO2 SLP147 T01610106=
201008220553 METAR KBLI 220553Z AUTO 18006KT 10SM BKN090 16/11 A2994 RMK AO2 SLP146 T01610106 10194 20161 53017=
201008220453 METAR KBLI 220453Z 17007KT 10SM CLR 17/11 A2993 RMK AO2 SLP139 T01670106=
201008220353 METAR KBLI 220353Z 18008KT 10SM FEW075 16/11 A2991 RMK AO2 SLP134 T01610111=
201008220253 METAR KBLI 220253Z 18010G17KT 10SM BKN080 17/11 A2990 RMK AO2 SLP129 T01670111 53003=
201008220153 METAR KBLI 220153Z 17011G16KT 10SM CLR 18/11 A2989 RMK AO2 SLP126 T01780106=
201008220053 METAR KBLI 220053Z 17012G17KT 10SM CLR 19/10 A2988 RMK AO2 SLP125 T01890100=
201008212353 METAR KBLI 212353Z 17009G16KT 10SM CLR 19/11 A2989 RMK AO2 SLP126 T01940106 10194 20150 51001=
201008212253 METAR KBLI 212253Z AUTO 18009KT 10SM CLR 19/11 A2989 RMK AO2 SLP126 T01890111 TSNO=
201008212153 METAR KBLI 212153Z 16011KT 10SM CLR 19/11 A2989 RMK AO2 SLP126 T01940111=
201008212053 METAR KBLI 212053Z 17008KT 10SM CLR 18/11 A2988 RMK AO2 SLP125 T01830111 53003=
201008211953 METAR KBLI 211953Z 16008KT 10SM CLR 18/11 A2988 RMK AO2 SLP123 T01780111=
201008211853 METAR KBLI 211853Z 18006KT 10SM CLR 17/11 A2988 RMK AO2 SLP122 T01720106=
201008211753 METAR KBLI 211753Z 16006KT 10SM SCT024 15/11 A2987 RMK AO2 SLP123 T01500106 10150 20117 52009=
201008211653 METAR KBLI 211653Z 19007KT 10SM FEW020 SCT026 14/11 A2987 RMK AO2 SLP121 T01390106=
201008211553 METAR KBLI 211553Z 17007KT 10SM SCT023 13/10 A2985 RMK AO2 SLP116 T01330100=
201008211453 METAR KBLI 211453Z 17008KT 10SM SCT023 13/10 A2985 RMK AO2 SLP113 T01280100 53009=
201008211353 METAR KBLI 211353Z 17006KT 10SM CLR 12/10 A2984 RMK AO2 SLP109 T01220100=
201008211253 METAR KBLI 211253Z AUTO 18005KT 10SM CLR 12/09 A2983 RMK AO2 SLP106 T01220094=
201008211153 METAR KBLI 211153Z AUTO 18005KT 10SM CLR 12/09 A2982 RMK AO2 SLP104 T01170094 10133 20117 53001=
201008211053 METAR KBLI 211053Z AUTO 00000KT 10SM CLR 12/09 A2981 RMK AO2 SLP101 T01170094=
201008210953 METAR KBLI 210953Z AUTO 17005KT 10SM CLR 12/09 A2981 RMK AO2 SLP101 T01220094=
201008210853 METAR KBLI 210853Z AUTO 19003KT 10SM CLR 12/09 A2982 RMK AO2 SLP103 T01220094 58005=
201008210753 METAR KBLI 210753Z AUTO 17005KT 10SM CLR 13/09 A2983 RMK AO2 SLP106 T01330094 401830117=
201008210653 METAR KBLI 210653Z AUTO 19003KT 10SM CLR 13/10 A2983 RMK AO2 SLP107 T01280100=
201008210553 METAR KBLI 210553Z AUTO 00000KT 10SM CLR 12/09 A2983 RMK AO2 SLP110 T01220094 10178 20122 58004=
201008210453 METAR KBLI 210453Z 19003KT 10SM CLR 13/09 A2984 RMK AO2 SLP112 T01330094=
201008210353 METAR KBLI 210353Z 00000KT 10SM CLR 14/09 A2984 RMK AO2 SLP112 T01390094=
201008210253 METAR KBLI 210253Z 19004KT 10SM CLR 16/09 A2985 RMK AO2 SLP113 T01560089 56013=
201008210153 METAR KBLI 210153Z 17004KT 10SM CLR 17/08 A2986 RMK AO2 SLP116 T01720083=
201008210053 METAR KBLI 210053Z 17005KT 10SM CLR 17/09 A2987 RMK AO2 SLP120 T01720089=
201008202353 METAR KBLI 202353Z 18006KT 10SM CLR 18/09 A2989 RMK AO2 SLP126 T01780089 10183 20156 58013=
201008202253 METAR KBLI 202253Z 18007KT 10SM CLR 18/08 A2990 RMK AO2 SLP131 T01780083=
201008202153 METAR KBLI 202153Z 19007KT 10SM CLR 18/08 A2992 RMK AO2 SLP136 T01780083=
201008202053 METAR KBLI 202053Z 16007KT 10SM CLR 17/09 A2992 RMK AO2 SLP138 T01670089 58010=
201008201953 METAR KBLI 201953Z 16008KT 10SM CLR 16/09 A2994 RMK AO2 SLP144 T01610089=
201008201853 METAR KBLI 201853Z 15010KT 10SM CLR 17/09 A2995 RMK AO2 SLP148 T01670089=
201008201753 METAR KBLI 201753Z 15012KT 10SM CLR 16/09 A2995 RMK AO2 SLP148 T01560089 10156 20117 51000=
201008201653 METAR KBLI 201653Z 15012KT 10SM CLR 15/09 A2995 RMK AO2 SLP148 T01500089=
201008201553 METAR KBLI 201553Z 16010G14KT 10SM CLR 14/09 A2995 RMK AO2 SLP149 T01440089=
201008201453 METAR KBLI 201453Z 16008KT 10SM CLR 13/08 A2995 RMK AO2 SLP148 T01330083 53003=
201008201353 METAR KBLI 201353Z 14007KT 10SM BKN060 12/08 A2995 RMK AO2 SLP148 T01220078=
201008201253 METAR KBLI 201253Z AUTO 16008KT 10SM SCT060 13/08 A2994 RMK AO2 SLP145 T01280078=
201008201153 METAR KBLI 201153Z AUTO 15009KT 10SM SCT050 OVC065 13/08 A2994 RMK AO2 SLP145 T01280078 10150 20117 57002=
201008201053 METAR KBLI 201053Z AUTO 15007KT 10SM BKN050 12/08 A2994 RMK AO2 SLP146 T01220078=
201008200953 METAR KBLI 200953Z AUTO 15008KT 10SM CLR 12/08 A2995 RMK AO2 SLP146 T01220078=
201008200853 METAR KBLI 200853Z AUTO 16007KT 10SM CLR 13/07 A2995 RMK AO2 SLP147 T01280072 56003=
201008200753 METAR KBLI 200753Z AUTO 16011G19KT 10SM CLR 13/07 A2995 RMK AO2 SLP147 T01330072 401890133=
201008200653 METAR KBLI 200653Z AUTO 16012G20KT 10SM CLR 13/08 A2995 RMK AO2 SLP148 T01330078=
201008200553 METAR KBLI 200553Z AUTO 15010KT 10SM CLR 14/06 A2996 RMK AO2 SLP151 T01440061 10183 20144 50001=
201008200453 METAR KBLI 200453Z 16009KT 10SM CLR 15/09 A2997 RMK AO2 SLP154 T01500094=
201008200353 METAR KBLI 200353Z 17007KT 10SM CLR 15/11 A2996 RMK AO2 SLP152 T01500106=
201008200253 METAR KBLI 200253Z 18006KT 10SM CLR 16/11 A2996 RMK AO2 SLP150 T01610111 56013=
201008200153 METAR KBLI 200153Z 17007KT 10SM CLR 17/12 A2996 RMK AO2 SLP152 T01720117=
201008200053 METAR KBLI 200053Z 17008KT 10SM BKN050 18/12 A2998 RMK AO2 SLP157 T01830117=
201008192353 METAR KBLI 192353Z 19005KT 10SM BKN050 18/11 A2999 RMK AO2 SLP163 T01780111 10189 20156 58006=
201008192253 METAR KBLI 192253Z 16006KT 10SM OVC050 18/11 A3001 RMK AO2 SLP168 T01780111=
201008192153 METAR KBLI 192153Z 17008KT 10SM FEW029 BKN060 18/11 A3001 RMK AO2 SLP169 T01830111=
201008192053 METAR KBLI 192053Z 17009KT 10SM SCT027 BKN048 BKN065 18/11 A3001 RMK AO2 SLP169 T01780111 51000=
201008191953 METAR KBLI 191953Z 18010KT 10SM OVC027 17/11 A3001 RMK AO2 SLP167 T01670111=
201008191853 METAR KBLI 191853Z 18007KT 10SM OVC022 16/12 A3002 RMK AO2 SLP170 T01610117=
201008191753 METAR KBLI 191753Z 18007KT 10SM OVC022 16/12 A3001 RMK AO2 SLP168 T01560117 10156 20144 53009=
201008191714 SPECI KBLI 191714Z 18007KT 160V220 10SM BKN020 OVC043 15/12 A3000 RMK AO2=
201008191714 SPECI KBLI 191714Z 18007KT 160V220 10SM BKN020 OVC043 15/12 A3000 RMK AO2=
201008191653 METAR KBLI 191653Z 17010KT 10SM FEW020 OVC043 15/11 A3000 RMK AO2 SLP164 T01500111=
201008191643 SPECI KBLI 191643Z 17008KT 10SM SCT020 OVC045 15/12 A3000 RMK AO2=
201008191643 SPECI KBLI 191643Z 17008KT 10SM SCT020 OVC045 15/12 A3000 RMK AO2=
201008191614 SPECI KBLI 191614Z 16010G17KT 10SM BKN022 OVC047 15/12 A2999 RMK AO2=
201008191614 SPECI KBLI 191614Z 16010G17KT 10SM BKN022 OVC047 15/12 A2999 RMK AO2=
201008191553 METAR KBLI 191553Z 17008KT 10SM BKN047 OVC065 15/11 A2999 RMK AO2 SLP161 T01500111=
201008191530 SPECI KBLI 191530Z 17010KT 10SM SCT019 OVC065 15/12 A2999 RMK AO2=
201008191530 SPECI KBLI 191530Z 17010KT 10SM SCT019 OVC065 15/12 A2999 RMK AO2=
201008191453 METAR KBLI 191453Z 17009KT 10SM BKN019 OVC065 14/11 A2998 RMK AO2 SLP159 T01440111 53008=
201008191353 METAR KBLI 191353Z 17010KT 10SM FEW011 OVC017 14/11 A2998 RMK AO2 SLP157 T01440111=
201008191253 METAR KBLI 191253Z AUTO 17010G15KT 10SM OVC017 14/11 A2996 RMK AO2 SLP152 T01440111=
201008191153 METAR KBLI 191153Z AUTO 17010KT 10SM OVC019 14/11 A2996 RMK AO2 SLP151 T01440111 10161 20144 53002=
201008191053 METAR KBLI 191053Z AUTO 16011KT 10SM OVC021 14/11 A2995 RMK AO2 SLP149 T01440111=
201008190953 METAR KBLI 190953Z AUTO 16011KT 10SM OVC021 14/11 A2996 RMK AO2 SLP150 T01440111=
201008190925 SPECI KBLI 190925Z AUTO 16011G17KT 10SM BKN021 14/11 A2996 RMK AO2=
201008190925 SPECI KBLI 190925Z AUTO 16011G17KT 10SM BKN021 14/11 A2996 RMK AO2=
201008190853 METAR KBLI 190853Z AUTO 16011G19KT 10SM CLR 14/11 A2995 RMK AO2 SLP148 T01440111 53005=
201008190753 METAR KBLI 190753Z AUTO 17010KT 10SM CLR 15/11 A2994 RMK AO2 SLP144 T01500111 402000133=
201008190653 METAR KBLI 190653Z AUTO 17010KT 10SM CLR 16/12 A2994 RMK AO2 SLP144 T01560117=
201008190553 METAR KBLI 190553Z AUTO 17009KT 10SM CLR 16/12 A2994 RMK AO2 SLP143 T01610122 10200 20161 51007=
201008190453 METAR KBLI 190453Z 16007KT 10SM CLR 17/12 A2993 RMK AO2 SLP142 T01670117=
201008190353 METAR KBLI 190353Z 16008KT 10SM CLR 16/12 A2993 RMK AO2 SLP141 T01610117=
201008190253 METAR KBLI 190253Z 17005KT 10SM CLR 17/12 A2992 RMK AO2 SLP136 T01720122 55007=
201008190153 METAR KBLI 190153Z 17007KT 10SM CLR 18/12 A2992 RMK AO2 SLP136 T01830122=
201008190053 METAR KBLI 190053Z 16010KT 10SM CLR 19/12 A2993 RMK AO2 SLP140 T01890122=
201008182353 METAR KBLI 182353Z 18008G15KT 150V220 10SM CLR 19/12 A2994 RMK AO2 SLP144 T01890117 10194 20156 56013=
201008182253 METAR KBLI 182253Z AUTO 18009KT 10SM CLR 19/11 A2995 RMK AO2 SLP147 T01890111 TSNO=
201008182153 METAR KBLI 182153Z 19008KT 160V240 10SM CLR 18/11 A2996 RMK AO2 SLP152 T01830111=
201008182053 METAR KBLI 182053Z 19008G14KT 10SM FEW026 18/11 A2998 RMK AO2 SLP157 T01780111 50002=
201008182026 SPECI KBLI 182026Z VRB06KT 10SM SCT025 18/12 A2998 RMK AO2=
201008182026 SPECI KBLI 182026Z VRB06KT 10SM SCT025 18/12 A2998 RMK AO2=
201008181953 METAR KBLI 181953Z 19008G15KT 10SM OVC027 17/11 A2998 RMK AO2 SLP158 T01720111=
201008181853 METAR KBLI 181853Z 17010KT 10SM OVC021 17/11 A2998 RMK AO2 SLP157 T01670111=
201008181753 METAR KBLI 181753Z 16009KT 10SM OVC017 16/12 A2997 RMK AO2 SLP155 T01560117 10156 20133 51010=
201008181653 METAR KBLI 181653Z 18006KT 10SM OVC015 15/12 A2997 RMK AO2 SLP154 T01500117=
201008181553 METAR KBLI 181553Z 17009G19KT 10SM FEW009 OVC015 15/11 A2995 RMK AO2 SLP148 T01500111=
201008181453 METAR KBLI 181453Z 17008G16KT 10SM FEW009 OVC013 14/12 A2994 RMK AO2 SLP145 T01390117 53014=
201008181415 SPECI KBLI 181415Z 17011G16KT 10SM SCT009 OVC013 14/12 A2993 RMK AO2=
201008181415 SPECI KBLI 181415Z 17011G16KT 10SM SCT009 OVC013 14/12 A2993 RMK AO2=
201008181353 METAR KBLI 181353Z AUTO 16011KT 10SM OVC013 14/12 A2993 RMK AO2 SLP139 T01390117=
201008181321 SPECI KBLI 181321Z AUTO 17008KT 10SM BKN011 14/12 A2992 RMK AO2=
201008181321 SPECI KBLI 181321Z AUTO 17008KT 10SM BKN011 14/12 A2992 RMK AO2=
201008181253 METAR KBLI 181253Z AUTO 16010G18KT 10SM BKN009 13/12 A2991 RMK AO2 CIG 006V011 SLP133 T01330117=
201008181232 SPECI KBLI 181232Z AUTO 17009KT 10SM BKN009 14/12 A2991 RMK AO2 CIG 006V011=
201008181232 SPECI KBLI 181232Z AUTO 17009KT 10SM BKN009 14/12 A2991 RMK AO2 CIG 006V011=
201008181221 SPECI KBLI 181221Z AUTO 17011G17KT 10SM SCT009 14/12 A2991 RMK AO2=
201008181221 SPECI KBLI 181221Z AUTO 17011G17KT 10SM SCT009 14/12 A2991 RMK AO2=
201008181153 METAR KBLI 181153Z AUTO 17012G22KT 10SM CLR 14/12 A2990 RMK AO2 PK WND 16026/1105 SLP131 T01440122 10167 20139 53015=
201008181053 METAR KBLI 181053Z AUTO 17017G25KT 10SM FEW006 14/12 A2988 RMK AO2 PK WND 18026/0954 SLP124 T01390117=
201008180953 METAR KBLI 180953Z AUTO 17017G26KT 10SM CLR 14/11 A2987 RMK AO2 PK WND 17026/0953 SLP118 T01390111=
201008180853 METAR KBLI 180853Z AUTO 17017G24KT 10SM CLR 16/11 A2986 RMK AO2 PK WND 17027/0824 SLP116 T01560111 53023=
201008180753 METAR KBLI 180753Z AUTO 18013G21KT 10SM CLR 15/11 A2983 RMK AO2 SLP105 T01500111 402670133=
201008180653 METAR KBLI 180653Z AUTO 17010KT 10SM CLR 16/12 A2981 RMK AO2 SLP100 T01560122=
201008180553 METAR KBLI 180553Z AUTO 18009KT 10SM CLR 17/12 A2979 RMK AO2 SLP093 T01670122 10256 20167 53011=
201008180453 METAR KBLI 180453Z 18008KT 10SM CLR 17/13 A2978 RMK AO2 SLP091 T01720128=
201008180353 METAR KBLI 180353Z 18007KT 10SM CLR 18/13 A2977 RMK AO2 SLP085 T01830128=
201008180253 METAR KBLI 180253Z 18006KT 10SM CLR 19/12 A2976 RMK AO2 SLP083 T01890117 56007=
201008180153 METAR KBLI 180153Z 17006KT 10SM CLR 21/13 A2977 RMK AO2 SLP085 T02060133=
201008180053 METAR KBLI 180053Z 16004KT 10SM CLR 24/14 A2977 RMK AO2 SLP084 T02440139=
201008172353 METAR KBLI 172353Z 20003KT 10SM CLR 26/14 A2978 RMK AO2 SLP089 T02610139 10267 20206 58012=
201008172253 METAR KBLI 172253Z 20004KT 10SM CLR 26/13 A2979 RMK AO2 SLP093 T02610133=
201008172153 METAR KBLI 172153Z 22005KT 10SM CLR 24/14 A2980 RMK AO2 SLP097 T02440139=
201008172053 METAR KBLI 172053Z 23004KT 10SM CLR 24/14 A2981 RMK AO2 SLP100 T02390139 56009=
201008171953 METAR KBLI 171953Z 17006KT 10SM CLR 22/13 A2982 RMK AO2 SLP102 T02220128=
201008171853 METAR KBLI 171853Z 20004KT 10SM CLR 22/14 A2983 RMK AO2 SLP104 T02220139=
201008171753 METAR KBLI 171753Z 15003KT 10SM CLR 21/14 A2984 RMK AO2 SLP109 T02060139 10206 20133 58002=
201008171653 METAR KBLI 171653Z 17005KT 10SM CLR 18/13 A2984 RMK AO2 SLP111 T01830133=
201008171553 METAR KBLI 171553Z 18003KT 10SM CLR 17/13 A2984 RMK AO2 SLP111 T01670128=
201008171453 METAR KBLI 171453Z 17003KT 10SM CLR 15/12 A2985 RMK AO2 SLP112 T01500122 58002=
201008171353 METAR KBLI 171353Z 00000KT 10SM CLR 14/12 A2985 RMK AO2 SLP113 T01390122=
201008171253 METAR KBLI 171253Z AUTO 00000KT 10SM CLR 14/12 A2985 RMK AO2 SLP113 T01390117=
201008171153 METAR KBLI 171153Z AUTO 16003KT 10SM CLR 14/12 A2985 RMK AO2 SLP113 T01440117 10194 20144 50003=
201008171053 METAR KBLI 171053Z AUTO 17005KT 10SM CLR 16/12 A2985 RMK AO2 SLP114 T01560122=
201008170953 METAR KBLI 170953Z AUTO 18006KT 10SM FEW100 16/12 A2985 RMK AO2 SLP112 T01610122=
201008170853 METAR KBLI 170853Z AUTO 00000KT 10SM CLR 17/13 A2984 RMK AO2 SLP110 T01670128 58005=
201008170753 METAR KBLI 170753Z AUTO 18005KT 10SM CLR 18/13 A2985 RMK AO2 SLP113 T01780128 402780150=
201008170653 METAR KBLI 170653Z AUTO 00000KT 10SM CLR 18/14 A2986 RMK AO2 SLP115 T01830139=
201008170553 METAR KBLI 170553Z AUTO 00000KT 10SM CLR 18/13 A2986 RMK AO2 SLP115 T01780128 10272 20178 58003=
201008170453 METAR KBLI 170453Z 17006KT 10SM CLR 21/12 A2986 RMK AO2 SLP118 T02110117=
201008170353 METAR KBLI 170353Z 18006KT 10SM CLR 21/12 A2986 RMK AO2 SLP117 T02060117=
201008170253 METAR KBLI 170253Z 18005KT 10SM CLR 22/13 A2986 RMK AO2 SLP117 T02170133 56012=
201008170153 METAR KBLI 170153Z 17005KT 10SM CLR 25/13 A2987 RMK AO2 SLP120 T02500133=
201008170053 METAR KBLI 170053Z 17003KT 10SM CLR 27/14 A2988 RMK AO2 SLP124 T02720139=
201008162353 METAR KBLI 162353Z 15005KT 10SM CLR 27/13 A2990 RMK AO2 SLP129 T02720133 10278 20206 56017=
201008162253 METAR KBLI 162253Z 19004KT 10SM CLR 27/12 A2992 RMK AO2 SLP135 T02670122=
201008162153 METAR KBLI 162153Z 16006KT 10SM CLR 27/13 A2993 RMK AO2 SLP140 T02720133=
201008162053 METAR KBLI 162053Z VRB06KT 10SM CLR 26/14 A2995 RMK AO2 SLP146 T02560139 56013=
201008161953 METAR KBLI 161953Z 19004KT 10SM CLR 24/14 A2996 RMK AO2 SLP150 T02390139=
201008161853 METAR KBLI 161853Z 19005KT 10SM CLR 22/14 A2997 RMK AO2 SLP154 T02220139=
201008161753 METAR KBLI 161753Z 21005KT 10SM CLR 21/14 A2999 RMK AO2 SLP159 T02060139 10211 20150 50001=
201008161653 METAR KBLI 161653Z 18004KT 10SM CLR 19/13 A2999 RMK AO2 SLP160 T01940133=
201008161553 METAR KBLI 161553Z 17006KT 10SM CLR 18/13 A2999 RMK AO2 SLP159 T01830128=
201008161453 METAR KBLI 161453Z 17006KT 10SM CLR 17/13 A2998 RMK AO2 SLP158 T01720128 53007=
201008161353 METAR KBLI 161353Z 18003KT 10SM CLR 17/13 A2997 RMK AO2 SLP154 T01670133=
201008161253 METAR KBLI 161253Z AUTO 18003KT 10SM CLR 17/14 A2996 RMK AO2 SLP149 T01720139=
201008161153 METAR KBLI 161153Z AUTO 16003KT 10SM CLR 15/13 A2996 RMK AO2 SLP150 T01500128 10200 20150 53005=
201008161053 METAR KBLI 161053Z AUTO 00000KT 10SM CLR 16/14 A2996 RMK AO2 SLP147 T01560139=
201008160953 METAR KBLI 160953Z AUTO 00000KT 10SM CLR 17/14 A2995 RMK AO2 SLP144 T01670139=
201008160853 METAR KBLI 160853Z AUTO 00000KT 10SM CLR 17/14 A2995 RMK AO2 SLP144 T01720139 50005=
201008160753 METAR KBLI 160753Z AUTO 00000KT 10SM CLR 18/14 A2995 RMK AO2 SLP145 T01780139 403220139=
201008160653 METAR KBLI 160653Z AUTO 17006KT 10SM CLR 20/13 A2994 RMK AO2 SLP142 T02000128=
201008160553 METAR KBLI 160553Z AUTO 00000KT 10SM CLR 20/13 A2993 RMK AO2 SLP139 T02000128 10317 20194 53003=
201008160453 METAR KBLI 160453Z 00000KT 10SM CLR 21/13 A2992 RMK AO2 SLP138 T02060128=
201008160353 METAR KBLI 160353Z 00000KT 10SM CLR 22/15 A2992 RMK AO2 SLP136 T02170150=
201008160253 METAR KBLI 160253Z 00000KT 10SM CLR 24/17 A2992 RMK AO2 SLP137 T02440172 56010=
201008160153 METAR KBLI 160153Z 00000KT 10SM CLR 28/15 A2992 RMK AO2 SLP137 T02830150=
201008160053 METAR KBLI 160053Z 26003KT 10SM CLR 31/13 A2994 RMK AO2 SLP143 T03060128=
201008152353 METAR KBLI 152353Z 28006KT 10SM CLR 32/12 A2995 RMK AO2 SLP147 T03170117 10322 20267 58013=
201008152253 METAR KBLI 152253Z VRB04KT 10SM CLR 32/13 A2997 RMK AO2 SLP151 T03170133=
201008152153 METAR KBLI 152153Z VRB05KT 10SM CLR 31/13 A2998 RMK AO2 SLP156 T03110133=
201008152053 METAR KBLI 152053Z 28006KT 10SM CLR 30/14 A2999 RMK AO2 SLP159 T03000139 58011=
201008151953 METAR KBLI 151953Z 28006KT 10SM CLR 30/14 A3000 RMK AO2 SLP162 T03000144=
201008151853 METAR KBLI 151853Z 14004KT 10SM CLR 28/17 A3002 RMK AO2 SLP169 T02830167=
201008151753 METAR KBLI 151753Z 30003KT 10SM CLR 28/13 A3002 RMK AO2 SLP171 T02780128 10278 20139 50003=
201008151653 METAR KBLI 151653Z 00000KT 10SM CLR 26/14 A3002 RMK AO2 SLP172 T02560139=
201008151553 METAR KBLI 151553Z 00000KT 10SM CLR 23/14 A3002 RMK AO2 SLP170 T02280139=
201008151453 METAR KBLI 151453Z 35003KT 10SM CLR 19/14 A3001 RMK AO2 SLP168 T01940144 53006=
201008151353 METAR KBLI 151353Z 00000KT 10SM CLR 16/13 A3000 RMK AO2 SLP165 T01560133=
201008151253 METAR KBLI 151253Z AUTO 00000KT 10SM CLR 15/13 A3000 RMK AO2 SLP164 T01500133=
201008151153 METAR KBLI 151153Z AUTO 00000KT 10SM CLR 15/13 A2999 RMK AO2 SLP162 T01500133 10189 20150 52010=
201008151053 METAR KBLI 151053Z AUTO 00000KT 10SM CLR 16/14 A2999 RMK AO2 SLP159 T01610139=
201008150953 METAR KBLI 150953Z AUTO 00000KT 10SM CLR 17/14 A2997 RMK AO2 SLP155 T01670144=
201008150853 METAR KBLI 150853Z AUTO 00000KT 10SM CLR 18/15 A2997 RMK AO2 SLP152 T01780150 53005=
201008150753 METAR KBLI 150753Z AUTO 00000KT 10SM CLR 18/15 A2996 RMK AO2 SLP150 T01780150 403110122=
201008150653 METAR KBLI 150653Z AUTO 00000KT 10SM CLR 18/15 A2995 RMK AO2 SLP148 T01830150=
201008150553 METAR KBLI 150553Z AUTO 00000KT 10SM CLR 18/16 A2995 RMK AO2 SLP147 T01830156 10311 20183 51005=
201008150453 METAR KBLI 150453Z 00000KT 10SM CLR 19/15 A2995 RMK AO2 SLP146 T01940150=
201008150353 METAR KBLI 150353Z 00000KT 10SM CLR 21/16 A2994 RMK AO2 SLP144 T02110156=
201008150253 METAR KBLI 150253Z 00000KT 10SM CLR 24/17 A2994 RMK AO2 SLP143 T02440167 55005=
201008150153 METAR KBLI 150153Z 00000KT 10SM CLR 28/16 A2994 RMK AO2 SLP142 T02780161=
201008150053 METAR KBLI 150053Z 26004KT 10SM CLR 30/13 A2995 RMK AO2 SLP145 T03000128=
201008142353 METAR KBLI 142353Z 28007KT 10SM CLR 31/12 A2995 RMK AO2 SLP148 T03110122 10311 20244 56008=
201008142253 METAR KBLI 142253Z 27008KT 10SM CLR 30/11 A2996 RMK AO2 SLP150 T03000106=
201008142153 METAR KBLI 142153Z 27008KT 10SM CLR 30/12 A2997 RMK AO2 SLP152 T03000122=
201008142053 METAR KBLI 142053Z 27006KT 10SM CLR 29/14 A2998 RMK AO2 SLP156 T02890144 58010=
201008141953 METAR KBLI 141953Z 19004KT 10SM CLR 28/16 A2999 RMK AO2 SLP160 T02830156=
201008141853 METAR KBLI 141853Z 21005KT 10SM CLR 27/16 A3000 RMK AO2 SLP164 T02670161=
201008141753 METAR KBLI 141753Z 18004KT 10SM CLR 25/13 A3001 RMK AO2 SLP166 T02500128 10272 20122 50003=
201008141653 METAR KBLI 141653Z 00000KT 10SM CLR 24/14 A3001 RMK AO2 SLP167 T02440139=
201008141553 METAR KBLI 141553Z 00000KT 10SM CLR 21/14 A3001 RMK AO2 SLP167 T02060139=
201008141453 METAR KBLI 141453Z 00000KT 10SM CLR 18/13 A3000 RMK AO2 SLP163 T01830133 53008=
201008141353 METAR KBLI 141353Z 00000KT 10SM CLR 14/13 A2999 RMK AO2 SLP160 T01390128=
201008141253 METAR KBLI 141253Z AUTO 00000KT 8SM CLR 13/11 A2998 RMK AO2 SLP156 T01280111=
201008141153 METAR KBLI 141153Z AUTO 00000KT 5SM BR CLR 13/12 A2998 RMK AO2 SLP156 T01280117 10167 20128 51004=
201008141102 SPECI KBLI 141102Z AUTO 00000KT 7SM CLR 13/12 A2998 RMK AO2=
201008141102 SPECI KBLI 141102Z AUTO 00000KT 7SM CLR 13/12 A2998 RMK AO2=
201008141053 METAR KBLI 141053Z AUTO 00000KT 2SM BR CLR 13/12 A2997 RMK AO2 VIS 1V5 SLP155 T01330122=
201008140953 METAR KBLI 140953Z AUTO 00000KT 10SM CLR 14/12 A2997 RMK AO2 SLP153 T01440122=
201008140853 METAR KBLI 140853Z AUTO 00000KT 10SM CLR 15/13 A2997 RMK AO2 SLP151 T01500128 51013=
201008140753 METAR KBLI 140753Z AUTO 00000KT 10SM CLR 16/13 A2996 RMK AO2 SLP149 T01560133 403220106=
201008140653 METAR KBLI 140653Z AUTO 00000KT 10SM CLR 15/13 A2994 RMK AO2 SLP143 T01500133=
201008140553 METAR KBLI 140553Z AUTO 00000KT 10SM CLR 16/14 A2993 RMK AO2 SLP139 T01610139 10289 20156 51005=
201008140453 METAR KBLI 140453Z 00000KT 10SM CLR 18/14 A2993 RMK AO2 SLP139 T01780139=
201008140353 METAR KBLI 140353Z 00000KT 10SM CLR 19/15 A2992 RMK AO2 SLP135 T01890150=
201008140253 METAR KBLI 140253Z 00000KT 10SM CLR 22/16 A2991 RMK AO2 SLP134 T02220161 55005=
201008140153 METAR KBLI 140153Z 00000KT 10SM CLR 24/15 A2991 RMK AO2 SLP134 T02440150=
201008140053 METAR KBLI 140053Z 00000KT 10SM CLR 28/14 A2992 RMK AO2 SLP135 T02780144=
201008132353 METAR KBLI 132353Z 29008KT 10SM CLR 28/14 A2993 RMK AO2 SLP138 T02830144 10322 20250 58005=
201008132253 METAR KBLI 132253Z 27010KT 10SM CLR 27/15 A2994 RMK AO2 SLP142 T02670150=
201008132153 METAR KBLI 132153Z 24011KT 10SM CLR 26/16 A2994 RMK AO2 SLP144 T02610156=
201008132053 METAR KBLI 132053Z 01012G19KT 10SM CLR 32/08 A2994 RMK AO2 SLP143 T03220083 56011=
201008131953 METAR KBLI 131953Z 01015G20KT 10SM CLR 31/10 A2995 RMK AO2 SLP145 T03060100=
201008131853 METAR KBLI 131853Z 36012KT 10SM CLR 29/12 A2996 RMK AO2 SLP149 T02890122=
201008131753 METAR KBLI 131753Z 01010G18KT 10SM CLR 26/13 A2997 RMK AO2 SLP154 T02610133 10261 20106 58010=
201008131653 METAR KBLI 131653Z 36010KT 10SM CLR 23/14 A2999 RMK AO2 SLP159 T02280144=
201008131553 METAR KBLI 131553Z 34010KT 10SM CLR 19/15 A3000 RMK AO2 SLP164 T01940150=
201008131453 METAR KBLI 131453Z 34005KT 10SM CLR 16/14 A3000 RMK AO2 SLP165 T01610144 51009=
201008131353 METAR KBLI 131353Z 00000KT 10SM CLR 12/12 A3000 RMK AO2 SLP164 T01220122=
201008131253 METAR KBLI 131253Z AUTO 31004KT 9SM CLR 11/11 A2999 RMK AO2 SLP160 T01110106=
201008131159 SPECI KBLI 131159Z AUTO 00000KT 3SM R16/1400VP6000FT BR FEW047 11/11 A2997 RMK AO2=
201008131159 SPECI KBLI 131159Z AUTO 00000KT 3SM R16/1400VP6000FT BR FEW047 11/11 A2997 RMK AO2=
201008131153 METAR KBLI 131153Z AUTO 00000KT 1 1/2SM R16/3500VP6000FT BR FEW065 11/11 A2997 RMK AO2 VIS 1 1/4V2 1/2 SLP156 T01110106 10144 20111 53005=
201008131146 SPECI KBLI 131146Z AUTO 00000KT 2SM R16/6000VP6000FT BR CLR 11/11 A2997 RMK AO2=
201008131146 SPECI KBLI 131146Z AUTO 00000KT 2SM R16/6000VP6000FT BR CLR 11/11 A2997 RMK AO2=
201008131129 SPECI KBLI 131129Z AUTO 00000KT 1 3/4SM R16/4000VP6000FT BR FEW080 12/11 A2997 RMK AO2=
201008131129 SPECI KBLI 131129Z AUTO 00000KT 1 3/4SM R16/4000VP6000FT BR FEW080 12/11 A2997 RMK AO2=
201008131053 METAR KBLI 131053Z AUTO 00000KT 7SM CLR 12/12 A2997 RMK AO2 SLP155 T01220117=
201008130953 METAR KBLI 130953Z AUTO 35003KT 6SM BR CLR 12/12 A2996 RMK AO2 SLP151 T01170117=
201008130853 METAR KBLI 130853Z AUTO 00000KT 10SM CLR 13/12 A2996 RMK AO2 SLP151 T01280117 50004=
201008130753 METAR KBLI 130753Z AUTO 00000KT 10SM CLR 14/13 A2996 RMK AO2 SLP151 T01390128 402390122=
201008130653 METAR KBLI 130653Z AUTO 00000KT 10SM CLR 14/13 A2996 RMK AO2 SLP150 T01390128=
201008130553 METAR KBLI 130553Z AUTO 00000KT 10SM CLR 14/13 A2995 RMK AO2 SLP146 T01440128 10228 20139 53007=
201008130453 METAR KBLI 130453Z 00000KT 10SM CLR 15/13 A2994 RMK AO2 SLP145 T01500133=
201008130353 METAR KBLI 130353Z 00000KT 10SM CLR 16/13 A2993 RMK AO2 SLP141 T01610133=
201008130253 METAR KBLI 130253Z 00000KT 10SM CLR 19/14 A2993 RMK AO2 SLP139 T01890139 55005=
201008130153 METAR KBLI 130153Z 27007KT 10SM CLR 22/13 A2992 RMK AO2 SLP138 T02170128=
201008130053 METAR KBLI 130053Z 28006KT 10SM CLR 22/13 A2993 RMK AO2 SLP140 T02220133=
201008122353 METAR KBLI 122353Z 27005KT 10SM CLR 23/15 A2994 RMK AO2 SLP145 T02280150 10239 20144 56015=
201008122253 SPECI KBLI 122253Z 29003KT 10SM CLR 24/16 A2995 RMK AO2 SLP145 T02390156=
201008122153 METAR KBLI 122153Z 25003KT 10SM CLR 22/15 A2997 RMK AO2 SLP155 T02220150=
201008122053 METAR KBLI 122053Z 18007KT 10SM CLR 21/15 A2999 RMK AO2 SLP160 T02110150 56010=
201008121953 METAR KBLI 121953Z VRB04KT 10SM CLR 20/14 A2999 RMK AO2 SLP160 T02000144=
201008121853 METAR KBLI 121853Z 18005KT 10SM CLR 17/13 A3000 RMK AO2 SLP165 T01720133=
201008121753 METAR KBLI 121753Z 18006KT 10SM SCT001 SCT020 14/12 A3002 RMK AO2 SLP170 VIS S-SW 1 T01440122 10144 20122 56002=
201008121720 SPECI KBLI 121720Z 18006KT 3SM BR SCT002 14/12 A3002 RMK AO2=
201008121720 SPECI KBLI 121720Z 18006KT 3SM BR SCT002 14/12 A3002 RMK AO2=
201008121700 SPECI KBLI 121700Z 18007KT 3SM R16/5000VP6000FT BR OVC002 13/12 A3002 RMK AO2=
201008121700 SPECI KBLI 121700Z 18007KT 3SM R16/5000VP6000FT BR OVC002 13/12 A3002 RMK AO2=
201008121653 METAR KBLI 121653Z 17007KT 3/4SM R16/5000VP6000FT BR VV001 13/12 A3002 RMK AO2 SLP170 T01280117=
201008121553 METAR KBLI 121553Z 19006KT 3/4SM R16/1800VP6000FT BR VV001 12/12 A3002 RMK AO2 SLP171 T01220117=
201008121540 SPECI KBLI 121540Z 19006KT 1/4SM R16/2400VP6000FT FG VV001 12/12 A3002 RMK AO2=
201008121540 SPECI KBLI 121540Z 19006KT 1/4SM R16/2400VP6000FT FG VV001 12/12 A3002 RMK AO2=
201008121500 SPECI KBLI 121500Z 18005KT 10SM OVC002 12/12 A3003 RMK AO2=
201008121500 SPECI KBLI 121500Z 18005KT 10SM OVC002 12/12 A3003 RMK AO2=
201008121453 METAR KBLI 121453Z 17007KT 10SM BKN005 12/12 A3002 RMK AO2 SLP172 T01220117 53006=
201008121420 SPECI KBLI 121420Z 18006KT 10SM BKN005 13/12 A3002 RMK AO2=
201008121420 SPECI KBLI 121420Z 18006KT 10SM BKN005 13/12 A3002 RMK AO2=
201008121353 METAR KBLI 121353Z 18004KT 10SM SCT005 13/12 A3001 RMK AO2 SLP169 T01280122=
201008121253 METAR KBLI 121253Z AUTO 16005KT 10SM CLR 13/12 A3001 RMK AO2 SLP167 T01280122=
201008121153 METAR KBLI 121153Z AUTO 18005KT 10SM CLR 13/12 A3000 RMK AO2 SLP165 T01330122 10144 20122 52002=
201008121053 METAR KBLI 121053Z AUTO 18003KT 10SM FEW060 13/12 A3000 RMK AO2 SLP165 T01330122=
201008120953 METAR KBLI 120953Z AUTO 18003KT 10SM FEW100 14/13 A3000 RMK AO2 SLP163 T01390128=
201008120853 METAR KBLI 120853Z AUTO 18003KT 10SM CLR 14/13 A3000 RMK AO2 SLP163 T01390128 50004=
201008120753 METAR KBLI 120753Z AUTO 00000KT 10SM CLR 13/12 A3000 RMK AO2 SLP163 T01280117 402220117=
201008120653 METAR KBLI 120653Z AUTO 00000KT 10SM CLR 14/12 A3000 RMK AO2 SLP163 T01390122=
201008120553 METAR KBLI 120553Z AUTO 00000KT 10SM CLR 14/13 A2998 RMK AO2 SLP160 T01390128 10222 20139 51009=
201008120453 METAR KBLI 120453Z 18003KT 10SM CLR 16/13 A2998 RMK AO2 SLP157 T01560133=
201008120353 METAR KBLI 120353Z 16004KT 10SM CLR 17/14 A2997 RMK AO2 SLP156 T01670139=
201008120253 METAR KBLI 120253Z 00000KT 10SM CLR 19/14 A2996 RMK AO2 SLP150 T01940139 56002=
201008120153 METAR KBLI 120153Z 17004KT 10SM CLR 21/13 A2996 RMK AO2 SLP152 T02110133=
201008120053 METAR KBLI 120053Z 18005KT 10SM CLR 22/12 A2996 RMK AO2 SLP150 T02170122=
201008112353 METAR KBLI 112353Z 17006KT 10SM R16/4000VP6000FT CLR 22/12 A2996 RMK AO2 SLP152 T02170122 10222 20133 56007=
201008112253 METAR KBLI 112253Z 15006KT 10SM CLR 21/13 A2997 RMK AO2 SLP155 T02110128=
201008112153 METAR KBLI 112153Z 18005KT 10SM CLR 21/13 A2997 RMK AO2 SLP155 T02110128=
201008112053 METAR KBLI 112053Z 18006KT 10SM CLR 19/12 A2998 RMK AO2 SLP159 T01940122 58004=
201008111953 METAR KBLI 111953Z VRB05KT 10SM HZ CLR 18/13 A2999 RMK AO2 SLP161 T01780133=
201008111853 METAR KBLI 111853Z 16004KT 10SM HZ OVC034 16/13 A3000 RMK AO2 SLP164 T01560128=
201008111817 SPECI KBLI 111817Z 16004KT 5SM HZ SCT005 OVC034 14/12 A3000 RMK AO2=
201008111817 SPECI KBLI 111817Z 16004KT 5SM HZ SCT005 OVC034 14/12 A3000 RMK AO2=
201008111807 SPECI KBLI 111807Z 24003KT 5SM HZ BKN005 OVC034 14/12 A3000 RMK AO2=
201008111807 SPECI KBLI 111807Z 24003KT 5SM HZ BKN005 OVC034 14/12 A3000 RMK AO2=
201008111753 METAR KBLI 111753Z 17006KT 4SM BR OVC003 13/12 A3000 RMK AO2 SLP163 T01330122 10133 20117 51005=
201008111653 METAR KBLI 111653Z 17005KT 4SM BR OVC003 13/12 A2999 RMK AO2 SLP162 T01280117=
201008111553 METAR KBLI 111553Z 17005KT 3SM BR OVC003 12/12 A2999 RMK AO2 SLP162 T01220117=
201008111546 SPECI KBLI 111546Z 00000KT 3SM BR OVC003 12/12 A2999 RMK AO2=
201008111546 SPECI KBLI 111546Z 00000KT 3SM BR OVC003 12/12 A2999 RMK AO2=
201008111533 SPECI KBLI 111533Z 17004KT 2SM BR OVC001 12/12 A2999 RMK AO2=
201008111533 SPECI KBLI 111533Z 17004KT 2SM BR OVC001 12/12 A2999 RMK AO2=
201008111453 METAR KBLI 111453Z 16004KT 1/2SM R16/3500VP6000FT FG VV001 12/12 A2998 RMK AO2 SLP158 T01170117 50006=
201008111420 SPECI KBLI 111420Z 18005KT 1/2SM R16/3500VP6000FT FG VV001 12/12 A2998 RMK AO2=
201008111420 SPECI KBLI 111420Z 18005KT 1/2SM R16/3500VP6000FT FG VV001 12/12 A2998 RMK AO2=
201008111353 METAR KBLI 111353Z 17004KT 1SM R16/P6000FT BR OVC002 12/12 A2998 RMK AO2 SLP159 T01170117=
201008111253 METAR KBLI 111253Z AUTO 17005KT 8SM OVC002 12/12 A2997 RMK AO2 SLP155 T01220117=
201008111235 SPECI KBLI 111235Z AUTO 17003KT 10SM BKN004 12/12 A2997 RMK AO2=
201008111235 SPECI KBLI 111235Z AUTO 17003KT 10SM BKN004 12/12 A2997 RMK AO2=
201008111221 SPECI KBLI 111221Z AUTO 17004KT 10SM FEW004 13/12 A2997 RMK AO2=
201008111221 SPECI KBLI 111221Z AUTO 17004KT 10SM FEW004 13/12 A2997 RMK AO2=
201008111153 METAR KBLI 111153Z AUTO 19004KT 10SM CLR 13/12 A2996 RMK AO2 SLP152 T01280117 10150 20128 53005=
201008111053 METAR KBLI 111053Z AUTO 18005KT 10SM CLR 13/12 A2995 RMK AO2 SLP149 T01280122=
201008110953 METAR KBLI 110953Z AUTO 18005KT 10SM CLR 13/12 A2995 RMK AO2 SLP148 T01330122=
201008110853 METAR KBLI 110853Z AUTO 17006KT 10SM CLR 14/13 A2995 RMK AO2 SLP147 T01390128 52001=
201008110753 METAR KBLI 110753Z AUTO 18005KT 10SM CLR 15/13 A2995 RMK AO2 SLP147 T01500128 402110133=
201008110653 METAR KBLI 110653Z AUTO 19003KT 10SM FEW110 14/12 A2995 RMK AO2 SLP147 T01390122=
201008110553 METAR KBLI 110553Z AUTO 00000KT 10SM FEW110 15/12 A2995 RMK AO2 SLP147 T01500122 10211 20150 53005=
201008110453 METAR KBLI 110453Z 28003KT 10SM BKN110 16/13 A2994 RMK AO2 SLP145 T01610128=
201008110353 METAR KBLI 110353Z 00000KT 10SM OVC110 18/13 A2993 RMK AO2 SLP142 T01780128=
201008110253 METAR KBLI 110253Z 28004KT 10SM OVC110 19/12 A2993 RMK AO2 SLP141 T01940122 55006=
201008110153 METAR KBLI 110153Z 30004KT 10SM OVC110 19/13 A2993 RMK AO2 SLP140 T01940128=
201008110053 METAR KBLI 110053Z 27004KT 10SM R16/6000VP6000FT OVC110 20/12 A2994 RMK AO2 SLP143 T02000122=
201008102353 METAR KBLI 102353Z 25004KT 10SM R16/2000VP6000FT CLR 21/12 A2995 RMK AO2 SLP147 T02060122 10211 20156 58007=
201008102253 METAR KBLI 102253Z 29003KT 10SM FEW090 21/13 A2996 RMK AO2 SLP151 T02060128=
201008102153 METAR KBLI 102153Z VRB05KT 10SM SCT023 SCT027 19/13 A2997 RMK AO2 SLP153 T01940128=
201008102053 METAR KBLI 102053Z VRB04KT 10SM FEW025 19/12 A2997 RMK AO2 SLP154 T01890122 58001=
201008101953 METAR KBLI 101953Z VRB05KT 10SM FEW015 BKN045 18/12 A2997 RMK AO2 SLP154 T01780122=
201008101853 METAR KBLI 101853Z 20007KT 10SM FEW011 BKN049 17/12 A2997 RMK AO2 SLP156 T01720122=
201008101753 METAR KBLI 101753Z 19007KT 10SM OVC049 16/12 A2997 RMK AO2 SLP155 T01560122 10156 20133 51007=
201008101743 SPECI KBLI 101743Z 18007KT 10SM FEW009 OVC049 15/12 A2997 RMK AO2=
201008101743 SPECI KBLI 101743Z 18007KT 10SM FEW009 OVC049 15/12 A2997 RMK AO2=
201008101710 SPECI KBLI 101710Z 19005KT 10SM FEW006 BKN016 BKN026 16/12 A2997 RMK AO2=
201008101710 SPECI KBLI 101710Z 19005KT 10SM FEW006 BKN016 BKN026 16/12 A2997 RMK AO2=
201008101653 METAR KBLI 101653Z VRB04KT 10SM BKN006 BKN026 OVC043 14/12 A2997 RMK AO2 SLP155 T01440122=
201008101553 METAR KBLI 101553Z 17006KT 10SM BKN006 OVC045 14/12 A2996 RMK AO2 SLP152 T01390122=
201008101453 METAR KBLI 101453Z 17008KT 10SM BKN006 OVC016 14/12 A2995 RMK AO2 SLP148 T01390122 53004=
201008101425 SPECI KBLI 101425Z 18006KT 10SM FEW008 OVC016 14/12 A2995 RMK AO2=
201008101425 SPECI KBLI 101425Z 18006KT 10SM FEW008 OVC016 14/12 A2995 RMK AO2=
201008101353 METAR KBLI 101353Z 17006KT 10SM SCT008 OVC013 14/12 A2995 RMK AO2 SLP148 T01390117=
201008101304 SPECI KBLI 101304Z AUTO 17005KT 10SM FEW008 OVC013 14/12 A2994 RMK AO2=
201008101304 SPECI KBLI 101304Z AUTO 17005KT 10SM FEW008 OVC013 14/12 A2994 RMK AO2=
201008101253 METAR KBLI 101253Z AUTO 17005KT 10SM BKN013 OVC038 14/12 A2994 RMK AO2 SLP144 T01390117=
201008101250 SPECI KBLI 101250Z AUTO 18005KT 10SM BKN013 OVC038 14/12 A2994 RMK AO2=
201008101250 SPECI KBLI 101250Z AUTO 18005KT 10SM BKN013 OVC038 14/12 A2994 RMK AO2=
201008101224 SPECI KBLI 101224Z AUTO 18004KT 10SM SCT008 OVC038 14/12 A2994 RMK AO2=
201008101224 SPECI KBLI 101224Z AUTO 18004KT 10SM SCT008 OVC038 14/12 A2994 RMK AO2=
201008101153 METAR KBLI 101153Z AUTO 17006KT 10SM BKN008 OVC038 14/12 A2994 RMK AO2 RAB1055E24 SLP143 P0000 60000 70007 T01390117 10156 20139 52004=
201008101144 SPECI KBLI 101144Z AUTO 17005KT 10SM BKN008 OVC060 14/12 A2993 RMK AO2 RAB1055E24 P0000=
201008101144 SPECI KBLI 101144Z AUTO 17005KT 10SM BKN008 OVC060 14/12 A2993 RMK AO2 RAB1055E24 P0000=
201008101117 SPECI KBLI 101117Z AUTO 16006KT 10SM -RA FEW008 SCT018 OVC060 14/12 A2993 RMK AO2 RAB1055 P0000=
201008101117 SPECI KBLI 101117Z AUTO 16006KT 10SM -RA FEW008 SCT018 OVC060 14/12 A2993 RMK AO2 RAB1055 P0000=
201008101113 SPECI KBLI 101113Z AUTO 17006KT 10SM -RA FEW010 BKN018 OVC060 14/12 A2992 RMK AO2 RAB1055 P0000=
201008101113 SPECI KBLI 101113Z AUTO 17006KT 10SM -RA FEW010 BKN018 OVC060 14/12 A2992 RMK AO2 RAB1055 P0000=
201008101053 METAR KBLI 101053Z AUTO 17005KT 10SM BKN010 OVC040 14/12 A2993 RMK AO2 SLP141 T01440122=
201008101049 SPECI KBLI 101049Z AUTO 17006KT 10SM BKN010 BKN015 OVC040 14/12 A2993 RMK AO2=
201008101049 SPECI KBLI 101049Z AUTO 17006KT 10SM BKN010 BKN015 OVC040 14/12 A2993 RMK AO2=
201008101029 SPECI KBLI 101029Z AUTO 17005KT 10SM SCT008 BKN015 OVC100 14/12 A2993 RMK AO2=
201008101029 SPECI KBLI 101029Z AUTO 17005KT 10SM SCT008 BKN015 OVC100 14/12 A2993 RMK AO2=
201008101013 SPECI KBLI 101013Z AUTO 17006KT 10SM FEW008 BKN080 OVC100 14/12 A2993 RMK AO2=
201008101013 SPECI KBLI 101013Z AUTO 17006KT 10SM FEW008 BKN080 OVC100 14/12 A2993 RMK AO2=
201008101005 SPECI KBLI 101005Z AUTO 17008KT 10SM FEW008 BKN012 OVC100 14/12 A2992 RMK AO2=
201008101005 SPECI KBLI 101005Z AUTO 17008KT 10SM FEW008 BKN012 OVC100 14/12 A2992 RMK AO2=
201008100953 METAR KBLI 100953Z AUTO 16007KT 10SM BKN012 BKN080 OVC100 14/12 A2992 RMK AO2 SLP139 T01440122=
201008100930 SPECI KBLI 100930Z AUTO 16006KT 10SM BKN012 OVC100 14/12 A2992 RMK AO2=
201008100930 SPECI KBLI 100930Z AUTO 16006KT 10SM BKN012 OVC100 14/12 A2992 RMK AO2=
201008100918 SPECI KBLI 100918Z AUTO 15006KT 10SM SCT012 SCT080 OVC100 14/12 A2992 RMK AO2=
201008100918 SPECI KBLI 100918Z AUTO 15006KT 10SM SCT012 SCT080 OVC100 14/12 A2992 RMK AO2=
201008100903 SPECI KBLI 100903Z AUTO 16005KT 10SM BKN012 BKN065 OVC080 14/12 A2993 RMK AO2=
201008100903 SPECI KBLI 100903Z AUTO 16005KT 10SM BKN012 BKN065 OVC080 14/12 A2993 RMK AO2=
201008100853 METAR KBLI 100853Z AUTO 17005KT 10SM SCT012 BKN080 OVC100 14/12 A2993 RMK AO2 SLP142 T01440122 58003=
201008100753 METAR KBLI 100753Z AUTO 17005KT 10SM BKN065 OVC095 14/12 A2994 RMK AO2 SLP145 T01440122 401610139=
201008100653 METAR KBLI 100653Z AUTO 17008KT 10SM OVC090 15/13 A2994 RMK AO2 SLP145 T01500128=
201008100553 METAR KBLI 100553Z AUTO 15007KT 10SM OVC090 15/13 A2994 RMK AO2 SLP145 T01500128 10161 20150 50001=
201008100516 SPECI KBLI 100516Z 16008KT 10SM SCT010 SCT017 OVC085 15/13 A2995 RMK AO2=
201008100516 SPECI KBLI 100516Z 16008KT 10SM SCT010 SCT017 OVC085 15/13 A2995 RMK AO2=
201008100453 METAR KBLI 100453Z 16006KT 10SM BKN010 OVC055 15/13 A2995 RMK AO2 CIG 005V013 SLP149 T01500128=
201008100353 METAR KBLI 100353Z 17005KT 10SM SCT042 BKN055 OVC070 16/13 A2994 RMK AO2 SLP144 T01560133=
201008100253 METAR KBLI 100253Z 16005KT 10SM OVC034 16/13 A2994 RMK AO2 SLP143 T01610133 58007=
201008100153 METAR KBLI 100153Z 17006KT 10SM OVC038 16/13 A2994 RMK AO2 SLP145 T01610133=
201008100053 METAR KBLI 100053Z 17006KT 10SM BKN044 OVC070 16/13 A2995 RMK AO2 SLP148 T01610133=
201008100016 SPECI KBLI 100016Z 00000KT 10SM FEW008 SCT023 OVC080 16/13 A2996 RMK AO2=
201008100016 SPECI KBLI 100016Z 00000KT 10SM FEW008 SCT023 OVC080 16/13 A2996 RMK AO2=
201008092353 METAR KBLI 092353Z 17005KT 10SM SCT021 OVC080 16/13 A2996 RMK AO2 SLP150 60007 T01610133 10161 20150 58006=
201008092253 METAR KBLI 092253Z 17006KT 10SM FEW006 BKN017 OVC035 16/13 A2997 RMK AO2 RAB04E31 SLP153 P0001 T01560133=
201008092201 SPECI KBLI 092201Z 18007KT 10SM FEW007 OVC015 16/14 A2997 RMK AO2=
201008092201 SPECI KBLI 092201Z 18007KT 10SM FEW007 OVC015 16/14 A2997 RMK AO2=
201008092153 METAR KBLI 092153Z 18007KT 10SM FEW007 BKN013 OVC035 16/14 A2997 RMK AO2 RAE46 SLP154 P0001 T01560139=
201008092141 SPECI KBLI 092141Z 18004KT 10SM -RA FEW007 BKN013 OVC035 16/14 A2997 RMK AO2 P0001=
201008092141 SPECI KBLI 092141Z 18004KT 10SM -RA FEW007 BKN013 OVC035 16/14 A2997 RMK AO2 P0001=
201008092111 SPECI KBLI 092111Z VRB04KT 8SM -RA SCT005 BKN015 15/13 A2998 RMK AO2 P0001=
201008092111 SPECI KBLI 092111Z VRB04KT 8SM -RA SCT005 BKN015 15/13 A2998 RMK AO2 P0001=
201008092053 METAR KBLI 092053Z 20004KT 7SM -RA BKN015 OVC040 15/14 A2997 RMK AO2 SLP156 P0003 60005 T01500139 53003=
201008091953 METAR KBLI 091953Z 17006KT 10SM -RA BKN015 OVC040 15/13 A2997 RMK AO2 RAB07 SLP153 P0002 T01500133=
201008091930 SPECI KBLI 091930Z 18006KT 10SM -RA BKN015 OVC040 15/13 A2997 RMK AO2 RAB07 P0001=
201008091930 SPECI KBLI 091930Z 18006KT 10SM -RA BKN015 OVC040 15/13 A2997 RMK AO2 RAB07 P0001=
201008091853 METAR KBLI 091853Z 19006KT 10SM SCT010 BKN041 OVC100 16/13 A2996 RMK AO2 SLP152 T01560128=
201008091753 METAR KBLI 091753Z 18006KT 10SM BKN033 OVC045 16/13 A2996 RMK AO2 SLP153 T01560128 10161 20139 53009=
201008091653 METAR KBLI 091653Z 17008KT 10SM FEW007 SCT055 15/12 A2995 RMK AO2 SLP147 T01500122=
201008091553 METAR KBLI 091553Z 17007KT 10SM FEW007 SCT046 15/12 A2994 RMK AO2 SLP144 T01500122=
201008091533 SPECI KBLI 091533Z 17009KT 10SM FEW007 SCT046 15/12 A2994 RMK AO2=
201008091533 SPECI KBLI 091533Z 17009KT 10SM FEW007 SCT046 15/12 A2994 RMK AO2=
201008091453 METAR KBLI 091453Z 17009G14KT 10SM SCT046 15/12 A2994 RMK AO2 SLP143 T01500122 55002=
201008091353 METAR KBLI 091353Z AUTO 18007KT 10SM SCT048 14/12 A2994 RMK AO2 SLP143 T01390122=
201008091253 METAR KBLI 091253Z AUTO 19003KT 10SM OVC039 14/12 A2994 RMK AO2 SLP144 T01440122=
201008091153 METAR KBLI 091153Z AUTO 18007KT 10SM OVC065 14/12 A2994 RMK AO2 SLP146 T01440117 10161 20133 53001=
201008091053 METAR KBLI 091053Z AUTO 17006KT 10SM OVC060 14/12 A2994 RMK AO2 SLP145 T01390122=
201008090953 METAR KBLI 090953Z AUTO 17005KT 10SM OVC055 16/13 A2993 RMK AO2 SLP142 T01560128=
201008090853 METAR KBLI 090853Z AUTO 17006KT 10SM OVC041 15/12 A2994 RMK AO2 SLP145 T01500122 58002=
201008090753 METAR KBLI 090753Z AUTO 18005KT 10SM OVC043 15/12 A2995 RMK AO2 SLP148 T01500122 401940133=
201008090653 METAR KBLI 090653Z AUTO 00000KT 10SM CLR 14/12 A2995 RMK AO2 SLP147 T01390122=
201008090553 METAR KBLI 090553Z AUTO 17004KT 10SM CLR 16/13 A2995 RMK AO2 SLP147 T01610128 10189 20156 50001=
201008090453 METAR KBLI 090453Z 16005KT 10SM CLR 16/12 A2995 RMK AO2 SLP148 T01610117=
201008090353 METAR KBLI 090353Z 17005KT 10SM CLR 16/12 A2995 RMK AO2 SLP146 T01610122=
201008090253 METAR KBLI 090253Z 18005KT 10SM CLR 17/12 A2994 RMK AO2 SLP146 T01720122 55002=
201008090153 METAR KBLI 090153Z 17006KT 10SM CLR 18/12 A2994 RMK AO2 SLP145 T01780122=
201008090053 METAR KBLI 090053Z 17007KT 10SM CLR 18/12 A2994 RMK AO2 SLP145 T01830122=
201008082353 METAR KBLI 082353Z 18009KT 10SM FEW041 19/13 A2995 RMK AO2 SLP148 60000 T01890128 10194 20156 58005=
201008082253 METAR KBLI 082253Z 17010KT 10SM OVC039 19/12 A2996 RMK AO2 SLP151 T01890122=
201008082153 METAR KBLI 082153Z 18008KT 10SM OVC037 18/12 A2996 RMK AO2 SLP152 T01830122=
201008082100 SPECI KBLI 082100Z 18008KT 10SM OVC033 17/12 A2997 RMK AO2=
201008082100 SPECI KBLI 082100Z 18008KT 10SM OVC033 17/12 A2997 RMK AO2=
201008082053 METAR KBLI 082053Z 17007KT 10SM BKN024 OVC031 17/12 A2996 RMK AO2 RAE09B37E47 SLP153 P0000 60000 T01720122 51005=
201008081953 METAR KBLI 081953Z 18007KT 10SM -RA BKN024 OVC031 17/13 A2996 RMK AO2 RAB44 SLP151 P0000 T01670128=
201008081853 METAR KBLI 081853Z 16009G17KT 10SM OVC020 16/12 A2996 RMK AO2 SLP150 T01610117=
201008081753 METAR KBLI 081753Z 18008KT 10SM FEW010 OVC019 16/12 A2995 RMK AO2 RAB05E18 SLP148 P0000 60000 T01560122 10156 20139 52008=
201008081700 SPECI KBLI 081700Z 17008KT 10SM OVC017 15/13 A2994 RMK AO2=
201008081700 SPECI KBLI 081700Z 17008KT 10SM OVC017 15/13 A2994 RMK AO2=
201008081653 METAR KBLI 081653Z 17010KT 4SM BR SCT006 BKN012 OVC029 15/13 A2994 RMK AO2 RAE1557 SLP144 P0000 T01500133=
201008081633 SPECI KBLI 081633Z 17007KT 4SM BR SCT006 BKN012 OVC029 14/13 A2994 RMK AO2 RAE1557 P0000=
201008081633 SPECI KBLI 081633Z 17007KT 4SM BR SCT006 BKN012 OVC029 14/13 A2994 RMK AO2 RAE1557 P0000=
201008081618 SPECI KBLI 081618Z 17007KT 5SM BR SCT006 BKN009 OVC029 14/13 A2994 RMK AO2 RAE1557 P0000=
201008081618 SPECI KBLI 081618Z 17007KT 5SM BR SCT006 BKN009 OVC029 14/13 A2994 RMK AO2 RAE1557 P0000=
201008081600 SPECI KBLI 081600Z 17008KT 2SM BR BKN006 BKN015 OVC022 14/13 A2993 RMK AO2 RAE1557 P0000=
201008081600 SPECI KBLI 081600Z 17008KT 2SM BR BKN006 BKN015 OVC022 14/13 A2993 RMK AO2 RAE1557 P0000=
201008081553 METAR KBLI 081553Z 17008KT 1SM R16/P6000FT -RA BR FEW006 SCT015 OVC022 14/13 A2993 RMK AO2 RAB02 SLP142 P0000 T01440133=
201008081545 SPECI KBLI 081545Z 17009KT 1SM R16/P6000FT -RA BR FEW006 BKN015 OVC020 14/13 A2993 RMK AO2 RAB02 P0000=
201008081545 SPECI KBLI 081545Z 17009KT 1SM R16/P6000FT -RA BR FEW006 BKN015 OVC020 14/13 A2993 RMK AO2 RAB02 P0000=
201008081531 SPECI KBLI 081531Z 17007KT 1SM R16/P6000FT BR SCT006 OVC013 14/13 A2993 RMK AO2 RAB02E23 P0000=
201008081531 SPECI KBLI 081531Z 17007KT 1SM R16/P6000FT BR SCT006 OVC013 14/13 A2993 RMK AO2 RAB02E23 P0000=
201008081453 METAR KBLI 081453Z 17006KT 1SM R16/P6000FT BR BKN006 BKN009 OVC014 14/13 A2993 RMK AO2 SLP139 T01440133 53009=
201008081428 SPECI KBLI 081428Z 18007KT 1 1/2SM BR BKN006 BKN014 OVC025 14/13 A2992 RMK AO2=
201008081428 SPECI KBLI 081428Z 18007KT 1 1/2SM BR BKN006 BKN014 OVC025 14/13 A2992 RMK AO2=
201008081353 METAR KBLI 081353Z AUTO 18007KT 10SM SCT006 OVC014 14/13 A2991 RMK AO2 SLP134 T01390128=
201008081316 SPECI KBLI 081316Z AUTO 17008KT 10SM FEW005 OVC014 14/13 A2990 RMK AO2=
201008081316 SPECI KBLI 081316Z AUTO 17008KT 10SM FEW005 OVC014 14/13 A2990 RMK AO2=
201008081307 SPECI KBLI 081307Z AUTO 17007KT 10SM FEW005 BKN016 OVC022 14/13 A2990 RMK AO2=
201008081307 SPECI KBLI 081307Z AUTO 17007KT 10SM FEW005 BKN016 OVC022 14/13 A2990 RMK AO2=
201008081253 METAR KBLI 081253Z AUTO 18006KT 10SM FEW015 BKN021 OVC075 14/13 A2990 RMK AO2 SLP131 T01390128=
201008081201 SPECI KBLI 081201Z AUTO 17006KT 10SM SCT010 BKN020 OVC065 14/13 A2990 RMK AO2=
201008081201 SPECI KBLI 081201Z AUTO 17006KT 10SM SCT010 BKN020 OVC065 14/13 A2990 RMK AO2=
201008081200 METAR KBLI NIL=
201008081148 METAR KBLI 081148Z AUTO 19005KT 10SM SCT007 BKN013 OVC090 14/13 A2990=
201008081147 SPECI KBLI 081147Z AUTO 19005KT 10SM SCT007 BKN013 OVC090 14/13 A2990 RMK AO2=
201008081147 SPECI KBLI 081147Z AUTO 19005KT 10SM SCT007 BKN013 OVC090 14/13 A2990 RMK AO2=
201008081105 SPECI KBLI 081105Z AUTO 18007KT 10SM FEW008 BKN075 OVC090 15/13 A2988 RMK AO2=
201008081105 SPECI KBLI 081105Z AUTO 18007KT 10SM FEW008 BKN075 OVC090 15/13 A2988 RMK AO2=
201008081053 METAR KBLI 081053Z AUTO VRB06KT 10SM FEW010 BKN075 OVC090 16/14 A2988 RMK AO2 SLP125 T01560139=
201008080953 METAR KBLI 080953Z AUTO 17008KT 10SM FEW004 OVC075 16/15 A2988 RMK AO2 SLP124 T01610150=
201008080935 SPECI KBLI 080935Z AUTO 17007KT 10SM FEW004 BKN055 OVC075 16/15 A2988 RMK AO2=
201008080935 SPECI KBLI 080935Z AUTO 17007KT 10SM FEW004 BKN055 OVC075 16/15 A2988 RMK AO2=
201008080853 METAR KBLI 080853Z AUTO 17006KT 10SM OVC002 16/16 A2988 RMK AO2 SLP123 60001 T01610156 58002=
201008080753 METAR KBLI 080753Z AUTO 16003KT 10SM OVC004 17/16 A2988 RMK AO2 RAE05 CIG 003V008 SLP125 P0000 T01670156 401720150=
201008080653 METAR KBLI 080653Z AUTO 16004KT 6SM -RA BR BKN004 BKN009 OVC031 17/16 A2989 RMK AO2 RAB38 CIG 003V007 SLP126 P0001 T01670156=
201008080646 SPECI KBLI 080646Z AUTO 16004KT 8SM -RA SCT006 BKN014 OVC031 17/16 A2989 RMK AO2 RAB38 P0000=
201008080646 SPECI KBLI 080646Z AUTO 16004KT 8SM -RA SCT006 BKN014 OVC031 17/16 A2989 RMK AO2 RAB38 P0000=
201008080623 SPECI KBLI 080623Z AUTO 16006KT 10SM SCT003 OVC033 17/16 A2989 RMK AO2=
201008080623 SPECI KBLI 080623Z AUTO 16006KT 10SM SCT003 OVC033 17/16 A2989 RMK AO2=
201008080553 METAR KBLI 080553Z AUTO 16004KT 10SM OVC003 17/16 A2989 RMK AO2 SLP126 60003 T01670156 10172 20167 58002=
201008080541 SPECI KBLI 080541Z AUTO 16004KT 6SM BR BKN003 BKN007 OVC014 17/16 A2989 RMK AO2 CIG 002V005=
201008080541 SPECI KBLI 080541Z AUTO 16004KT 6SM BR BKN003 BKN007 OVC014 17/16 A2989 RMK AO2 CIG 002V005=
201008080534 SPECI KBLI 080534Z AUTO 15005KT 6SM BR BKN005 OVC014 17/16 A2989 RMK AO2 CIG 002V009=
201008080534 SPECI KBLI 080534Z AUTO 15005KT 6SM BR BKN005 OVC014 17/16 A2989 RMK AO2 CIG 002V009=
201008080525 SPECI KBLI 080525Z AUTO 15004KT 5SM BR SCT007 OVC014 17/16 A2989 RMK AO2=
201008080525 SPECI KBLI 080525Z AUTO 15004KT 5SM BR SCT007 OVC014 17/16 A2989 RMK AO2=
201008080453 METAR KBLI 080453Z 17004KT 6SM BR OVC014 17/16 A2989 RMK AO2 RAB0356E33 SLP128 P0001 T01670156=
201008080448 SPECI KBLI 080448Z 16004KT 6SM BR OVC014 17/16 A2989 RMK AO2 RAB0356E33 P0001=
201008080448 SPECI KBLI 080448Z 16004KT 6SM BR OVC014 17/16 A2989 RMK AO2 RAB0356E33 P0001=
201008080433 SPECI KBLI 080433Z 17003KT 6SM BR FEW003 OVC016 17/16 A2989 RMK AO2 RAB0356E33 P0001=
201008080433 SPECI KBLI 080433Z 17003KT 6SM BR FEW003 OVC016 17/16 A2989 RMK AO2 RAB0356E33 P0001=
201008080405 SPECI KBLI 080405Z 17004KT 5SM -RA BR FEW006 BKN013 OVC019 17/16 A2989 RMK AO2 RAB0356 P0000=
201008080405 SPECI KBLI 080405Z 17004KT 5SM -RA BR FEW006 BKN013 OVC019 17/16 A2989 RMK AO2 RAB0356 P0000=
201008080353 METAR KBLI 080353Z 17005KT 6SM BR FEW009 BKN015 OVC021 17/16 A2989 RMK AO2 RAB12E18 SLP128 P0001 T01670156=
201008080351 SPECI KBLI 080351Z 18005KT 6SM BR FEW009 BKN015 OVC021 17/16 A2989 RMK AO2 RAB12E18 P0001=
201008080351 SPECI KBLI 080351Z 18005KT 6SM BR FEW009 BKN015 OVC021 17/16 A2989 RMK AO2 RAB12E18 P0001=
201008080344 SPECI KBLI 080344Z 17005KT 7SM FEW006 BKN013 OVC018 17/16 A2989 RMK AO2 RAB12E18 P0001=
201008080344 SPECI KBLI 080344Z 17005KT 7SM FEW006 BKN013 OVC018 17/16 A2989 RMK AO2 RAB12E18 P0001=
201008080253 METAR KBLI 080253Z 16004KT 10SM BKN027 OVC032 17/16 A2988 RMK AO2 RAE10 SLP125 P0000 60001 T01720156 58004=
201008080235 SPECI KBLI 080235Z 17004KT 7SM FEW005 SCT018 OVC025 17/16 A2989 RMK AO2 RAE10 P0000=
201008080235 SPECI KBLI 080235Z 17004KT 7SM FEW005 SCT018 OVC025 17/16 A2989 RMK AO2 RAE10 P0000=
201008080153 METAR KBLI 080153Z 17004KT 7SM -RA BKN022 BKN028 OVC035 17/16 A2989 RMK AO2 RAB09E18B51 SLP126 P0000 T01720161=
201008080103 SPECI KBLI 080103Z 17003KT 10SM SCT003 BKN018 OVC026 17/16 A2989 RMK AO2=
201008080103 SPECI KBLI 080103Z 17003KT 10SM SCT003 BKN018 OVC026 17/16 A2989 RMK AO2=
201008080053 METAR KBLI 080053Z 17004KT 10SM BKN003 BKN018 OVC028 17/16 A2989 RMK AO2 RAE37 SLP129 P0001 T01670156=
201008072353 METAR KBLI 072353Z 16004KT 3SM -RA BR OVC003 17/16 A2990 RMK AO2 SLP129 P0003 60019 T01670156 10167 20156 56007=
201008072253 METAR KBLI 072253Z 17005KT 3SM -RA BR BKN003 OVC055 17/15 A2990 RMK AO2 CIG 003V006 SLP131 P0003 T01670150=
201008072202 SPECI KBLI 072202Z 16005KT 1 1/2SM -RA BR OVC003 16/15 A2990 RMK AO2 P0001=
201008072202 SPECI KBLI 072202Z 16005KT 1 1/2SM -RA BR OVC003 16/15 A2990 RMK AO2 P0001=
201008072153 METAR KBLI 072153Z 17006KT 4SM -RA BR OVC005 16/15 A2991 RMK AO2 SLP133 P0004 T01610150=
201008072142 SPECI KBLI 072142Z 16004KT 4SM -RA BR BKN005 BKN021 OVC075 16/15 A2991 RMK AO2 P0003=
201008072142 SPECI KBLI 072142Z 16004KT 4SM -RA BR BKN005 BKN021 OVC075 16/15 A2991 RMK AO2 P0003=
201008072053 METAR KBLI 072053Z VRB04KT 4SM -RA BR SCT007 BKN024 OVC036 16/14 A2992 RMK AO2 SLP136 P0005 60009 T01560144 50000=
201008072007 SPECI KBLI 072007Z 17009KT 9SM -RA BKN026 OVC031 16/14 A2992 RMK AO2 P0001=
201008072007 SPECI KBLI 072007Z 17009KT 9SM -RA BKN026 OVC031 16/14 A2992 RMK AO2 P0001=
201008072000 SPECI KBLI 072000Z 15011KT 10SM -RA OVC031 16/14 A2992 RMK AO2 P0000=
201008072000 SPECI KBLI 072000Z 15011KT 10SM -RA OVC031 16/14 A2992 RMK AO2 P0000=
201008071953 METAR KBLI 071953Z 17009KT 10SM -RA BKN026 OVC034 16/14 A2992 RMK AO2 SLP137 P0001 T01610139=
201008071922 SPECI KBLI 071922Z 17010KT 10SM -RA BKN026 OVC036 16/14 A2992 RMK AO2 P0001=
201008071922 SPECI KBLI 071922Z 17010KT 10SM -RA BKN026 OVC036 16/14 A2992 RMK AO2 P0001=
201008071908 SPECI KBLI 071908Z 17011G17KT 10SM -RA FEW023 SCT028 OVC036 16/14 A2992 RMK AO2 P0001=
201008071908 SPECI KBLI 071908Z 17011G17KT 10SM -RA FEW023 SCT028 OVC036 16/14 A2992 RMK AO2 P0001=
201008071853 METAR KBLI 071853Z 17011KT 10SM -RA BKN026 OVC036 16/14 A2991 RMK AO2 SLP136 P0003 T01560139=
201008071753 METAR KBLI 071753Z 17010G19KT 5SM -RA BR SCT007 OVC024 16/13 A2991 RMK AO2 SLP134 P0001 60004 T01560133 10161 20150 52005=
201008071653 METAR KBLI 071653Z 17013G18KT 6SM -RA BR SCT007 OVC020 15/13 A2990 RMK AO2 SLP132 P0001 T01500133=
201008071553 METAR KBLI 071553Z 17013G19KT 7SM -RA SCT005 OVC018 15/13 A2990 RMK AO2 SLP131 P0001 T01500133=
201008071453 METAR KBLI 071453Z 17010G19KT 10SM -RA FEW007 OVC018 15/13 A2990 RMK AO2 RAB15 SLP129 P0001 60001 T01500133 53005=
201008071436 SPECI KBLI 071436Z 17010G18KT 10SM -RA FEW007 OVC016 15/13 A2990 RMK AO2 RAB15 P0000=
201008071436 SPECI KBLI 071436Z 17010G18KT 10SM -RA FEW007 OVC016 15/13 A2990 RMK AO2 RAB15 P0000=
201008071353 METAR KBLI 071353Z 16010G17KT 10SM OVC012 16/13 A2989 RMK AO2 SLP127 T01610133=
201008071253 METAR KBLI 071253Z AUTO 17011G19KT 10SM OVC012 16/13 A2988 RMK AO2 SLP124 T01610133=
201008071153 METAR KBLI 071153Z AUTO 17011G19KT 10SM OVC012 16/14 A2988 RMK AO2 SLP124 T01560139 10167 20156 50000=
201008071123 SPECI KBLI 071123Z AUTO 16012G17KT 10SM SCT008 OVC012 16/14 A2988 RMK AO2=
201008071123 SPECI KBLI 071123Z AUTO 16012G17KT 10SM SCT008 OVC012 16/14 A2988 RMK AO2=
201008071053 METAR KBLI 071053Z AUTO 17012G19KT 10SM OVC014 16/13 A2988 RMK AO2 SLP125 T01610133=
201008070953 METAR KBLI 070953Z AUTO 16013G22KT 10SM OVC020 17/13 A2988 RMK AO2 SLP123 T01670128=
201008070853 METAR KBLI 070853Z AUTO 18014G20KT 10SM FEW014 OVC019 16/13 A2988 RMK AO2 PK WND 16027/0800 SLP124 T01560128 58003=
201008070849 SPECI KBLI 070849Z AUTO 18012G20KT 10SM FEW014 BKN019 OVC100 16/13 A2988 RMK AO2 PK WND 16027/0800=
201008070849 SPECI KBLI 070849Z AUTO 18012G20KT 10SM FEW014 BKN019 OVC100 16/13 A2988 RMK AO2 PK WND 16027/0800=
201008070753 METAR KBLI 070753Z AUTO 16017G24KT 10SM OVC012 16/13 A2989 RMK AO2 PK WND 16028/0707 SLP129 T01560128 401830133=
201008070706 SPECI KBLI 070706Z AUTO 16017G27KT 10SM BKN014 BKN019 16/13 A2989 RMK AO2 PK WND 16027/0659=
201008070706 SPECI KBLI 070706Z AUTO 16017G27KT 10SM BKN014 BKN019 16/13 A2989 RMK AO2 PK WND 16027/0659=
201008070653 METAR KBLI 070653Z AUTO 17015G26KT 10SM BKN016 16/13 A2989 RMK AO2 PK WND 16026/0647 SLP126 T01610128=
201008070553 METAR KBLI 070553Z AUTO 16014G21KT 10SM CLR 16/12 A2988 RMK AO2 SLP124 T01610122 10183 20156 50001=
201008070453 METAR KBLI 070453Z 15013G20KT 10SM CLR 16/13 A2988 RMK AO2 SLP126 T01610128=
201008070353 METAR KBLI 070353Z 17010G18KT 10SM CLR 16/13 A2989 RMK AO2 SLP126 T01610128=
201008070253 METAR KBLI 070253Z 17009KT 10SM CLR 17/13 A2988 RMK AO2 SLP123 T01720133 56009=
201008070153 METAR KBLI 070153Z 18010G15KT 10SM CLR 18/13 A2988 RMK AO2 SLP123 T01830133=
201008070053 METAR KBLI 070053Z 17008G15KT 10SM CLR 18/13 A2989 RMK AO2 SLP127 T01830133=
201008062353 METAR KBLI 062353Z 17011G15KT 10SM CLR 18/13 A2990 RMK AO2 SLP132 T01830128 10183 20156 58006=
201008062253 METAR KBLI 062253Z 17010G22KT 10SM CLR 18/13 A2992 RMK AO2 SLP137 T01780128=
201008062153 METAR KBLI 062153Z 18011G21KT 10SM CLR 18/13 A2992 RMK AO2 SLP136 T01830128=
201008062053 METAR KBLI 062053Z 18012G18KT 10SM CLR 17/13 A2992 RMK AO2 SLP139 T01720128 58002=
201008061953 METAR KBLI 061953Z 17013G19KT 10SM FEW008 17/13 A2993 RMK AO2 SLP141 T01720128=
201008061951 SPECI KBLI 061951Z 18009G16KT 10SM FEW008 17/13 A2993 RMK AO2=
201008061951 SPECI KBLI 061951Z 18009G16KT 10SM FEW008 17/13 A2993 RMK AO2=
201008061928 SPECI KBLI 061928Z 18011G16KT 10SM BKN006 16/13 A2993 RMK AO2 CIG 004V010=
201008061928 SPECI KBLI 061928Z 18011G16KT 10SM BKN006 16/13 A2993 RMK AO2 CIG 004V010=
201008061853 METAR KBLI 061853Z 18010G18KT 4SM BR OVC004 16/13 A2993 RMK AO2 SLP141 T01560133=
201008061753 METAR KBLI 061753Z 17010G18KT 4SM BR HZ OVC002 16/13 A2992 RMK AO2 SLP137 T01560133 10156 20133 51008=
201008061653 METAR KBLI 061653Z 17011KT 3SM BR HZ OVC002 14/13 A2992 RMK AO2 SLP136 T01440128=
201008061600 SPECI KBLI 061600Z 17011KT 4SM BR HZ OVC002 14/12 A2991 RMK AO2=
201008061600 SPECI KBLI 061600Z 17011KT 4SM BR HZ OVC002 14/12 A2991 RMK AO2=
201008061553 METAR KBLI 061553Z 17010KT 1SM R16/P6000FT BR HZ OVC002 14/12 A2991 RMK AO2 SLP134 T01390122=
201008061535 SPECI KBLI 061535Z 17011G17KT 1SM R16/P6000FT BR HZ OVC002 13/12 A2991 RMK AO2=
201008061535 SPECI KBLI 061535Z 17011G17KT 1SM R16/P6000FT BR HZ OVC002 13/12 A2991 RMK AO2=
201008061453 METAR KBLI 061453Z 17013G18KT 5SM BR HZ OVC003 14/12 A2990 RMK AO2 SLP129 T01390122 51018=
201008061436 SPECI KBLI 061436Z 17008G18KT 5SM BR HZ OVC003 14/12 A2989 RMK AO2=
201008061436 SPECI KBLI 061436Z 17008G18KT 5SM BR HZ OVC003 14/12 A2989 RMK AO2=
201008061353 METAR KBLI 061353Z 17014G19KT 10SM OVC005 14/12 A2988 RMK AO2 SLP124 T01390122=
201008061337 SPECI KBLI 061337Z AUTO 17011G19KT 10SM BKN005 14/12 A2988 RMK AO2=
201008061337 SPECI KBLI 061337Z AUTO 17011G19KT 10SM BKN005 14/12 A2988 RMK AO2=
201008061319 SPECI KBLI 061319Z AUTO 17010G20KT 10SM FEW005 14/12 A2987 RMK AO2=
201008061319 SPECI KBLI 061319Z AUTO 17010G20KT 10SM FEW005 14/12 A2987 RMK AO2=
201008061253 METAR KBLI 061253Z AUTO 17012G19KT 10SM CLR 14/12 A2986 RMK AO2 SLP118 T01440122=
201008061153 METAR KBLI 061153Z AUTO 16011G18KT 10SM CLR 16/12 A2984 RMK AO2 SLP110 T01560122 10189 20144 53008=
201008061053 METAR KBLI 061053Z AUTO 17012KT 10SM CLR 16/12 A2983 RMK AO2 SLP105 T01560122=
201008060953 METAR KBLI 060953Z AUTO 17014G21KT 10SM CLR 16/12 A2983 RMK AO2 SLP105 T01560122=
201008060853 METAR KBLI 060853Z AUTO 17015KT 10SM CLR 17/13 A2982 RMK AO2 SLP102 T01670128 53002=
201008060753 METAR KBLI 060753Z AUTO 17010G16KT 10SM CLR 18/13 A2981 RMK AO2 SLP100 T01780133 402440161=
201008060653 METAR KBLI 060653Z AUTO 18007KT 10SM CLR 18/13 A2981 RMK AO2 SLP100 T01830133=
201008060553 METAR KBLI 060553Z AUTO 17007KT 10SM FEW080 19/14 A2981 RMK AO2 SLP100 T01890139 10228 20183 51005=
201008060453 METAR KBLI 060453Z 18009KT 10SM FU HZ CLR 18/14 A2981 RMK AO2 SLP101 T01830139=
201008060353 METAR KBLI 060353Z 18008KT 6SM FU HZ CLR 19/15 A2980 RMK AO2 SLP098 T01890150=
201008060253 METAR KBLI 060253Z 17008KT 6SM FU HZ CLR 20/15 A2980 RMK AO2 SLP096 T02000150 58010=
201008060153 METAR KBLI 060153Z 17005KT 10SM FU HZ CLR 21/14 A2981 RMK AO2 SLP100 T02060139=
201008060053 METAR KBLI 060053Z 18005KT 6SM FU HZ CLR 22/14 A2982 RMK AO2 SLP103 T02170144=
201008052353 METAR KBLI 052353Z 17007KT 6SM FU HZ CLR 23/15 A2983 RMK AO2 SLP106 T02280150 10244 20194 56016=
201008052253 METAR KBLI 052253Z 18004KT 6SM FU HZ CLR 24/15 A2984 RMK AO2 SLP109 T02390150=
201008052153 METAR KBLI 052153Z 19003KT 10SM CLR 24/14 A2986 RMK AO2 SLP116 T02390144=
201008052053 METAR KBLI 052053Z 18005KT 10SM CLR 22/15 A2988 RMK AO2 SLP121 T02220150 56010=
201008051953 METAR KBLI 051953Z 16006KT 10SM CLR 21/15 A2989 RMK AO2 SLP125 T02110150=
201008051853 METAR KBLI 051853Z 19004KT 10SM CLR 21/15 A2989 RMK AO2 SLP127 T02060150=
201008051753 METAR KBLI 051753Z VRB04KT 10SM CLR 19/14 A2990 RMK AO2 SLP131 T01890144 10189 20161 56005=
201008051653 METAR KBLI 051653Z 17005KT 10SM CLR 18/15 A2991 RMK AO2 SLP133 T01830150=
201008051553 METAR KBLI 051553Z 16005KT 10SM BKN110 18/14 A2991 RMK AO2 SLP133 T01780144=
201008051453 METAR KBLI 051453Z 18005KT 10SM BKN110 17/14 A2992 RMK AO2 SLP136 T01670144 51009=
201008051353 METAR KBLI 051353Z AUTO 18005KT 10SM CLR 16/14 A2991 RMK AO2 SLP133 T01610144=
201008051253 METAR KBLI 051253Z AUTO 18005KT 10SM CLR 17/14 A2991 RMK AO2 SLP132 T01670144=
201008051153 METAR KBLI 051153Z AUTO 20003KT 10SM FEW085 17/14 A2989 RMK AO2 SLP127 60017 70017 T01670144 10200 20167 56005=
201008051053 METAR KBLI 051053Z AUTO 17003KT 10SM CLR 17/16 A2989 RMK AO2 SLP128 T01720156=
201008050953 METAR KBLI 050953Z AUTO 20004KT 10SM CLR 18/16 A2990 RMK AO2 LTG DSNT NW SLP131 T01780161=
201008050853 METAR KBLI 050853Z AUTO 00000KT 8SM SCT070 19/17 A2991 RMK AO2 RAE25 SLP132 P0000 60017 T01890172 58005=
201008050753 METAR KBLI 050753Z AUTO 00000KT 9SM -RA OVC055 19/17 A2991 RMK AO2 TSE10B12E51RAB03 SLP132 P0009 T01890172 402670133=
201008050712 SPECI KBLI 050712Z AUTO 00000KT 6SM VCTS -RA BR BKN055 OVC110 19/18 A2992 RMK AO2 LTG DSNT NW TSE10B12RAB03 P0002=
201008050712 SPECI KBLI 050712Z AUTO 00000KT 6SM VCTS -RA BR BKN055 OVC110 19/18 A2992 RMK AO2 LTG DSNT NW TSE10B12RAB03 P0002=
201008050653 METAR KBLI 050653Z AUTO 00000KT 9SM TS FEW033 OVC110 19/18 A2992 RMK AO2 TSB46RAE52 SLP137 P0008 T01940178=
201008050553 METAR KBLI 050553Z AUTO 00000KT 10SM -RA BKN070 OVC120 20/16 A2992 RMK AO2 RAB50 SLP138 P0000 60000 T02000156 10256 20189 51004=
201008050453 METAR KBLI 050453Z 00000KT 10SM BKN095 BKN120 19/16 A2992 RMK AO2 RAE07 SLP138 P0000 T01940156=
201008050353 METAR KBLI 050353Z 18003KT 10SM -RA BKN070 BKN110 21/17 A2992 RMK AO2 RAE0259B15 SLP135 P0000 T02060167=
201008050253 METAR KBLI 050253Z 16003KT 10SM -RA CLR 23/17 A2991 RMK AO2 RAB21 SLP134 P0000 60000 T02330172 58004=
201008050153 METAR KBLI 050153Z 00000KT 10SM CLR 25/15 A2992 RMK AO2 SLP136 T02500150=
201008050053 METAR KBLI 050053Z 18005KT 10SM CLR 24/16 A2992 RMK AO2 SLP137 T02440156=
201008042353 METAR KBLI 042353Z 17005KT 10SM CLR 26/16 A2993 RMK AO2 SLP138 T02560161 10267 20194 58020=
201008042253 METAR KBLI 042253Z VRB03KT 10SM CLR 26/16 A2995 RMK AO2 SLP145 T02560156=
201008042153 METAR KBLI 042153Z 00000KT 10SM CLR 25/16 A2997 RMK AO2 SLP152 T02500161=
201008042053 METAR KBLI 042053Z 23005KT 10SM CLR 24/16 A2998 RMK AO2 SLP158 T02390156 58016=
201008041953 METAR KBLI 041953Z 21005KT 10SM CLR 23/17 A3000 RMK AO2 SLP163 T02330167=
201008041853 METAR KBLI 041853Z VRB03KT 10SM CLR 23/16 A3002 RMK AO2 SLP170 FU ALQDS T02280161=
201008041753 METAR KBLI 041753Z 18004KT 6SM BR FU FEW002 19/15 A3003 RMK AO2 SLP175 T01940150 10194 20133 58002=
201008041653 METAR KBLI 041653Z 18003KT 6SM BR FU FEW002 18/14 A3004 RMK AO2 SLP178 T01780144=
201008041553 METAR KBLI 041553Z 17004KT 6SM BR FU SCT002 17/14 A3004 RMK AO2 SLP179 T01670144=
201008041453 METAR KBLI 041453Z 00000KT 10SM CLR 17/15 A3004 RMK AO2 SLP176 T01670150 51007=
201008041353 METAR KBLI 041353Z VRB03KT 9SM CLR 14/13 A3003 RMK AO2 SLP174 T01440128=
201008041308 SPECI KBLI 041308Z AUTO 00000KT 4SM BR CLR 14/13 A3002 RMK AO2=
201008041308 SPECI KBLI 041308Z AUTO 00000KT 4SM BR CLR 14/13 A3002 RMK AO2=
201008041306 SPECI KBLI 041306Z AUTO 00000KT 1SM R16/P6000FT BR VV001 14/13 A3002 RMK AO2=
201008041306 SPECI KBLI 041306Z AUTO 00000KT 1SM R16/P6000FT BR VV001 14/13 A3002 RMK AO2=
201008041303 SPECI KBLI 041303Z AUTO 00000KT 1/2SM R16/P6000FT FG VV001 13/12 A3002 RMK AO2=
201008041303 SPECI KBLI 041303Z AUTO 00000KT 1/2SM R16/P6000FT FG VV001 13/12 A3002 RMK AO2=
201008041256 SPECI KBLI 041256Z AUTO 00000KT 3/4SM R16/P6000FT BR CLR 13/12 A3003 RMK AO2 VIS 1/4V5=
201008041256 SPECI KBLI 041256Z AUTO 00000KT 3/4SM R16/P6000FT BR CLR 13/12 A3003 RMK AO2 VIS 1/4V5=
201008041253 METAR KBLI 041253Z AUTO 00000KT 2SM BR CLR 13/12 A3003 RMK AO2 VIS 1/2V5 SLP174 T01330117=
201008041153 METAR KBLI 041153Z AUTO 00000KT 8SM FEW075 14/13 A3002 RMK AO2 SLP170 T01440133 10172 20139 56004=
201008041053 METAR KBLI 041053Z AUTO 00000KT 8SM SCT100 15/13 A3002 RMK AO2 SLP172 T01500133=
201008040953 METAR KBLI 040953Z AUTO 00000KT 6SM BR CLR 15/14 A3001 RMK AO2 SLP169 T01500139=
201008040944 SPECI KBLI 040944Z AUTO 00000KT 4SM BR CLR 15/13 A3002 RMK AO2=
201008040944 SPECI KBLI 040944Z AUTO 00000KT 4SM BR CLR 15/13 A3002 RMK AO2=
201008040932 SPECI KBLI 040932Z AUTO 00000KT 1 3/4SM BR CLR 14/13 A3002 RMK AO2 VIS 3/4V5=
201008040932 SPECI KBLI 040932Z AUTO 00000KT 1 3/4SM BR CLR 14/13 A3002 RMK AO2 VIS 3/4V5=
201008040853 METAR KBLI 040853Z AUTO 00000KT 9SM FEW110 15/14 A3003 RMK AO2 SLP174 T01500139 58001=
201008040753 METAR KBLI 040753Z AUTO 00000KT 10SM CLR 17/15 A3003 RMK AO2 SLP176 T01670150 402330133=
201008040653 METAR KBLI 040653Z AUTO 00000KT 7SM FEW100 16/14 A3004 RMK AO2 SLP177 T01610144=
201008040553 METAR KBLI 040553Z AUTO 00000KT 10SM BKN110 17/15 A3003 RMK AO2 SLP175 T01670150 10228 20161 53001=
201008040453 METAR KBLI 040453Z 00000KT 10SM SCT110 18/16 A3003 RMK AO2 SLP174 T01780156=
201008040353 METAR KBLI 040353Z 00000KT 10SM CLR 19/17 A3003 RMK AO2 SLP174 T01940167=
201008040253 METAR KBLI 040253Z 00000KT 10SM CLR 22/16 A3003 RMK AO2 SLP174 T02220161 55004=
201008040153 METAR KBLI 040153Z 31005KT 10SM R16/1800VP6000FT CLR 23/16 A3002 RMK AO2 SLP171 T02280156=
201008040053 METAR KBLI 040053Z 00000KT 10SM SCT100 22/15 A3004 RMK AO2 SLP178 T02170150=
201008032353 METAR KBLI 032353Z 26003KT 10SM CLR 22/15 A3004 RMK AO2 SLP178 T02220150 10233 20161 56008=
201008032253 METAR KBLI 032253Z VRB03KT 10SM CLR 22/14 A3005 RMK AO2 SLP182 T02170139=
201008032153 METAR KBLI 032153Z VRB04KT 10SM CLR 21/14 A3005 RMK AO2 SLP181 T02060139=
201008032053 METAR KBLI 032053Z 17005KT 10SM FEW100 21/14 A3007 RMK AO2 SLP187 T02060139 58006=
201008031953 METAR KBLI 031953Z 17004KT 10SM FEW100 18/13 A3008 RMK AO2 SLP192 T01830128=
201008031853 METAR KBLI 031853Z 17006KT 10SM BKN050 18/13 A3008 RMK AO2 SLP193 T01780128=
201008031753 METAR KBLI 031753Z 21006KT 10SM BKN050 16/13 A3008 RMK AO2 SLP193 T01610128 10161 20133 50004=
201008031653 METAR KBLI 031653Z 00000KT 10SM SCT004 15/13 A3009 RMK AO2 SLP194 T01500128=
201008031631 SPECI KBLI 031631Z 15003KT 10SM SCT004 14/13 A3008 RMK AO2=
201008031631 SPECI KBLI 031631Z 15003KT 10SM SCT004 14/13 A3008 RMK AO2=
201008031553 METAR KBLI 031553Z 16004KT 5SM BR OVC004 14/13 A3009 RMK AO2 SLP194 T01440128=
201008031523 SPECI KBLI 031523Z 18004KT 2SM BR OVC002 14/13 A3008 RMK AO2=
201008031523 SPECI KBLI 031523Z 18004KT 2SM BR OVC002 14/13 A3008 RMK AO2=
201008031453 METAR KBLI 031453Z 18004KT 8SM OVC002 13/12 A3007 RMK AO2 SLP189 T01330122 53012=
201008031353 METAR KBLI 031353Z AUTO 18004KT 10SM BKN002 13/12 A3006 RMK AO2 SLP184 T01330122=
201008031336 SPECI KBLI 031336Z AUTO 18004KT 10SM SCT002 13/12 A3005 RMK AO2=
201008031336 SPECI KBLI 031336Z AUTO 18004KT 10SM SCT002 13/12 A3005 RMK AO2=
201008031253 METAR KBLI 031253Z AUTO 19004KT 10SM CLR 14/13 A3005 RMK AO2 SLP181 T01390128=
201008031153 METAR KBLI 031153Z AUTO 00000KT 10SM CLR 13/12 A3004 RMK AO2 SLP177 T01330122 10167 20133 53002=
201008031053 METAR KBLI 031053Z AUTO 18006KT 10SM CLR 14/13 A3003 RMK AO2 SLP173 T01440128 TSNO=
201008030953 METAR KBLI 030953Z AUTO 17006KT 10SM CLR 15/13 A3003 RMK AO2 SLP173 T01500133 TSNO=
201008030853 METAR KBLI 030853Z AUTO 16006KT 10SM CLR 16/13 A3003 RMK AO2 SLP174 T01560133 51003=
201008030753 METAR KBLI 030753Z AUTO 16007KT 10SM CLR 16/14 A3003 RMK AO2 SLP174 T01610139 402330122=
201008030653 METAR KBLI 030653Z AUTO 16006KT 10SM CLR 16/14 A3003 RMK AO2 SLP173 T01610139=
201008030553 METAR KBLI 030553Z AUTO 17006KT 10SM CLR 17/14 A3002 RMK AO2 SLP172 T01670139 10233 20167 53006=
201008030453 METAR KBLI 030453Z 18005KT 10SM CLR 17/14 A3002 RMK AO2 SLP170 T01720139=
201008030353 METAR KBLI 030353Z 00000KT 10SM CLR 17/14 A3001 RMK AO2 SLP168 T01720144=
201008030253 METAR KBLI 030253Z 00000KT 10SM CLR 20/14 A3001 RMK AO2 SLP166 T02000144 56005=
201008030153 METAR KBLI 030153Z 00000KT 10SM CLR 22/13 A3001 RMK AO2 SLP167 T02170133=
201008030053 METAR KBLI 030053Z 25004KT 10SM CLR 22/13 A3001 RMK AO2 SLP168 T02220133=
201008022353 METAR KBLI 022353Z VRB04KT 10SM CLR 23/13 A3002 RMK AO2 SLP170 T02330133 10233 20172 58010=
201008022253 METAR KBLI 022253Z 22005KT 10SM CLR 23/13 A3003 RMK AO2 SLP175 T02280133=
201008022153 METAR KBLI 022153Z 30005KT 10SM CLR 22/14 A3004 RMK AO2 SLP178 T02220139=
201008022053 METAR KBLI 022053Z VRB03KT 10SM CLR 22/14 A3005 RMK AO2 SLP181 T02220139 58009=
201008021953 METAR KBLI 021953Z 18005KT 10SM CLR 21/14 A3006 RMK AO2 SLP186 T02110144=
201008021853 METAR KBLI 021853Z 23005KT 10SM CLR 19/13 A3007 RMK AO2 SLP190 T01940133=
201008021753 METAR KBLI 021753Z 19005KT 10SM CLR 17/13 A3008 RMK AO2 SLP191 T01720128 10178 20139 50002=
201008021653 METAR KBLI 021653Z 19005KT 10SM FEW005 16/13 A3008 RMK AO2 SLP192 T01610128=
201008021639 SPECI KBLI 021639Z 16005KT 10SM FEW005 16/12 A3008 RMK AO2=
201008021639 SPECI KBLI 021639Z 16005KT 10SM FEW005 16/12 A3008 RMK AO2=
201008021553 METAR KBLI 021553Z 17004KT 10SM OVC070 14/12 A3007 RMK AO2 SLP190 T01440122=
201008021453 METAR KBLI 021453Z 18004KT 10SM OVC070 14/12 A3007 RMK AO2 SLP189 T01390122 51007=
201008021353 METAR KBLI 021353Z 17005KT 10SM OVC070 14/12 A3007 RMK AO2 SLP187 T01390122=
201008021253 METAR KBLI 021253Z AUTO 00000KT 10SM OVC065 14/12 A3006 RMK AO2 SLP184 T01390122=
201008021153 METAR KBLI 021153Z AUTO 19003KT 10SM OVC065 14/12 A3005 RMK AO2 SLP182 T01390122 10144 20122 52001=
201008021053 METAR KBLI 021053Z AUTO 00000KT 10SM BKN050 OVC070 14/13 A3005 RMK AO2 SLP182 T01440128=
201008020953 METAR KBLI 020953Z AUTO 17004KT 10SM FEW055 OVC070 14/12 A3005 RMK AO2 SLP181 T01440122=
201008020853 METAR KBLI 020853Z AUTO 00000KT 10SM FEW055 SCT070 13/12 A3005 RMK AO2 SLP181 T01280117 58002=
201008020753 METAR KBLI 020753Z AUTO 00000KT 10SM FEW050 SCT065 13/11 A3005 RMK AO2 SLP183 T01280111 401830122=
201008020653 METAR KBLI 020653Z AUTO 00000KT 10SM CLR 13/12 A3005 RMK AO2 SLP181 T01330117=
201008020553 METAR KBLI 020553Z AUTO 14003KT 10SM FEW050 14/12 A3005 RMK AO2 SLP183 T01390122 10183 20139 53013=
201008020453 METAR KBLI 020453Z 19004KT 10SM CLR 14/13 A3004 RMK AO2 SLP178 T01440128=
201008020353 METAR KBLI 020353Z 00000KT 10SM CLR 16/13 A3002 RMK AO2 SLP172 T01610128=
201008020253 METAR KBLI 020253Z 20004KT 10SM CLR 17/13 A3002 RMK AO2 SLP170 T01720128 55008=
201008020153 METAR KBLI 020153Z 18006KT 10SM CLR 18/13 A3002 RMK AO2 SLP170 T01780128=
201008020053 METAR KBLI 020053Z VRB03KT 10SM FEW060 18/13 A3003 RMK AO2 SLP176 T01830128=
201008012353 METAR KBLI 012353Z 18006KT 10SM CLR 17/12 A3004 RMK AO2 SLP178 T01720122 10178 20144 58010=
201008012253 METAR KBLI 012253Z 19005KT 10SM CLR 17/12 A3005 RMK AO2 SLP183 T01720122=
201008012153 METAR KBLI 012153Z 18008KT 10SM CLR 17/12 A3006 RMK AO2 SLP185 T01670122=
201008012053 METAR KBLI 012053Z 18007KT 10SM SCT009 16/12 A3007 RMK AO2 SLP188 T01610122 50000=
201008012004 SPECI KBLI 012004Z VRB06KT 7SM SCT009 OVC014 16/12 A3008 RMK AO2=
201008012004 SPECI KBLI 012004Z VRB06KT 7SM SCT009 OVC014 16/12 A3008 RMK AO2=
201008011953 METAR KBLI 011953Z 17009G14KT 7SM BKN009 OVC014 16/12 A3007 RMK AO2 SLP190 T01610122=
201008011853 METAR KBLI 011853Z VRB06KT 5SM HZ BKN009 BKN016 OVC048 15/12 A3007 RMK AO2 CIG 007V011 SLP187 T01500122=
201008011753 METAR KBLI 011753Z 18006KT 5SM BR BKN009 OVC014 14/12 A3007 RMK AO2 SLP188 T01440122 10144 20133 51010=
201008011653 METAR KBLI 011653Z VRB06KT 5SM BR BKN007 OVC014 14/12 A3006 RMK AO2 CIG 005V010 SLP185 T01390117=
201008011600 SPECI KBLI 011600Z 17006KT 5SM BR BKN007 BKN016 OVC048 13/12 A3005 RMK AO2=
201008011600 SPECI KBLI 011600Z 17006KT 5SM BR BKN007 BKN016 OVC048 13/12 A3005 RMK AO2=
201008011553 METAR KBLI 011553Z 17006KT 5SM BR BKN004 BKN013 OVC050 13/12 A3005 RMK AO2 SLP181 T01330117=
201008011453 METAR KBLI 011453Z 17009G15KT 10SM BKN004 BKN013 OVC050 13/12 A3004 RMK AO2 SLP177 T01330117 51004=
201008011353 METAR KBLI 011353Z 17007KT 10SM BKN004 OVC013 13/12 A3004 RMK AO2 SLP177 T01330117=
201008011339 SPECI KBLI 011339Z 17008KT 10SM BKN006 OVC013 13/12 A3003 RMK AO2=
201008011339 SPECI KBLI 011339Z 17008KT 10SM BKN006 OVC013 13/12 A3003 RMK AO2=
201008011317 SPECI KBLI 011317Z AUTO 17009G14KT 10SM SCT006 BKN013 13/12 A3003 RMK AO2=
201008011317 SPECI KBLI 011317Z AUTO 17009G14KT 10SM SCT006 BKN013 13/12 A3003 RMK AO2=
201008011253 METAR KBLI 011253Z AUTO 17008KT 10SM FEW006 13/12 A3002 RMK AO2 SLP173 T01330117=
201008011153 METAR KBLI 011153Z AUTO 17008KT 10SM CLR 13/12 A3001 RMK AO2 SLP170 70004 T01330117 10161 20133 51010=
201008011053 METAR KBLI 011053Z AUTO 17009KT 10SM CLR 13/12 A3001 RMK AO2 SLP167 T01330117=
201008010953 METAR KBLI 010953Z AUTO 17007KT 10SM CLR 14/12 A3000 RMK AO2 SLP164 T01390117=
201008010853 METAR KBLI 010853Z AUTO 17008KT 10SM FEW055 14/12 A2998 RMK AO2 SLP159 T01440117 58001=
201008010753 METAR KBLI 010753Z AUTO 17005KT 10SM OVC050 16/13 A3000 RMK AO2 SLP164 T01560128 401830122=
201008010653 METAR KBLI 010653Z AUTO 15009KT 10SM OVC050 16/13 A3000 RMK AO2 SLP163 T01610128=
201008010553 METAR KBLI 010553Z AUTO 15004KT 10SM BKN048 16/12 A2999 RMK AO2 SLP160 60000 T01560122 10183 20144 53007=
201008010453 METAR KBLI 010453Z 17009G14KT 10SM CLR 15/13 A2996 RMK AO2 SLP152 T01500128=
201008010353 METAR KBLI 010353Z 00000KT 10SM FEW120 16/13 A2996 RMK AO2 RAB03E15 SLP151 P0000 T01610133=
201008010253 METAR KBLI 010253Z 16005KT 10SM CLR 17/14 A2997 RMK AO2 SLP153 T01670139 53003=
201008010153 METAR KBLI 010153Z 17003KT 10SM CLR 18/14 A2997 RMK AO2 SLP153 T01830144=
201008010053 METAR KBLI 010053Z 00000KT 10SM CLR 17/15 A2995 RMK AO2 SLP147 T01720150=

# No short TAF reports from KBLI in databse.

###################################
#  large TAF from KBLI
###################################
201008312335 TAF KBLI 312335Z 0100/0124 15012G20KT P6SM -SHRA BKN020 OVC040
                       TEMPO 0100/0103 5SM -SHRA BR BKN012 OVC020
                       FM010300 17008KT P6SM -SHRA BKN015 OVC030
                       FM010800 17006KT P6SM BKN015 OVC025 FM011200
                       18005KT P6SM OVC008 FM011700 18004KT P6SM
                       BKN020 OVC040 FM012000 18006KT P6SM SCT025
                       BKN045=
201008311745 TAF KBLI 311745Z 3118/0118 14015G25KT 6SM -RA BR BKN025 OVC045
                       FM312000 15015G25KT P6SM -RA BKN018 OVC030
                       FM010000 16012KT P6SM -SHRA BKN020 OVC040
                       FM010300 17007KT P6SM -SHRA BKN015 OVC025
                       FM010800 17006KT P6SM BKN015 OVC025 FM011200
                       18006KT P6SM OVC008=
201008311609 KBLI 311609Z 3116/0112 16015G25KT 5SM -RA BR BKN035 OVC060 FM311800
                       16015G25KT 4SM -RA BR BKN015 OVC025 FM010200
                       19011KT P6SM -SHRA BKN020 OVC040=
201008311124 TAF KBLI 311124Z 3112/0112 16006KT P6SM FEW060 OVC090 FM311400
                       16006KT P6SM -RA BKN030 OVC060 FM311700
                       17009KT 5SM -RA BR BKN015 OVC025 FM010200
                       19011KT P6SM -SHRA BKN020 OVC040=
201008310524 TAF KBLI 310524Z 3106/0106 16008KT P6SM BKN150 FM311000 16004KT
                       P6SM OVC100 FM311300 16006KT P6SM -RA BKN025
                       OVC040 FM311700 17009KT 5SM -RA BR BKN015
                       OVC025 FM010200 19011KT P6SM -RA BKN020
                       OVC040=
201008302341 TAF KBLI 302341Z 3100/3124 VRB03KT P6SM SCT250 FM310600 17003KT
                       P6SM SCT100 BKN200 FM311000 16004KT P6SM
                       OVC100 FM311300 16006KT P6SM -RA BKN025
                       OVC040 FM311700 17009KT 5SM -RA BR BKN015
                       OVC025=
201008301728 TAF KBLI 301728Z 3018/3118 00000KT P6SM SKC FM302000 22005KT P6SM
                       SKC FM310300 17003KT P6SM SCT110 BKN200
                       FM310600 17003KT P6SM BKN100 BKN200 FM310900
                       16004KT P6SM BKN050 OVC100 FM311400 15006KT
                       P6SM -RA BKN025 OVC040=
201008301335 KBLI 301335Z 3014/3112 00000KT P6SM SKC
                      TEMPO 3014/3016 1SM BR SKC FM301800 28006KT
                       P6SM SCT050 SCT200 FM302100 21006KT P6SM
                       SCT050 SCT200 FM310300 18008KT P6SM SCT110
                       BKN200 FM310600 15008KT P6SM SCT050 OVC110
                       FM310900 15008KT P6SM SCT028 OVC050
                      PROB30 3109/3112 -RA=
201008301132 TAF KBLI 301132Z 3012/3112 VRB03KT P6SM FEW030 SCT050
                      TEMPO 3012/3016 BKN030 BKN050 FM301800 28006KT
                       P6SM SCT050 SCT200 FM302100 21006KT P6SM
                       SCT050 SCT200 FM310300 18008KT P6SM SCT110
                       BKN200 FM310600 15008KT P6SM SCT050 OVC110
                       FM310900 15008KT P6SM SCT028 OVC050
                      PROB30 3109/3112 -RA=
201008300743 KBLI 300743Z 3008/3106 VRB03KT P6SM BKN070 BKN150 FM301800 21007KT
                       P6SM SCT070 SCT200 FM310300 18009KT P6SM
                       SCT110 BKN200=
201008300536 TAF KBLI 300536Z 3006/3106 VRB03KT P6SM SCT070 BKN150 FM301800
                       21007KT P6SM SCT070 SCT200 FM310300 18009KT
                       P6SM SCT110 BKN200=
201008300112 KBLI 300112Z 3001/3024 18004KT P6SM OVC040 FM300600 16005KT P6SM
                       SCT030 OVC120 FM301400 33005KT P6SM SCT070
                       BKN120 FM301800 20008KT P6SM SCT120=
201008292357 TAF KBLI 292357Z 3000/3024 18008KT P6SM BKN030 OVC120 FM300600
                       16005KT P6SM SCT030 OVC120 FM301400 33005KT
                       P6SM SCT070 BKN120 FM301800 20008KT P6SM
                       SCT120=
201008291752 TAF KBLI 291752Z 2918/3018 17010KT P6SM FEW015 SCT100
                      TEMPO 2918/2920 BKN015 FM292000 19013KT P6SM
                       FEW018 SCT070 BKN200 FM300000 17009KT P6SM
                       SCT070 OVC200 FM300600 VRB03KT P6SM BKN070
                       OVC130 FM301600 33005KT P6SM BKN070 BKN130=
201008291554 KBLI 291554Z 2916/3012 17010KT P6SM FEW020 SCT100
                      TEMPO 2917/2919 BKN020 FM292000 19013KT P6SM
                       FEW025 SCT070 BKN200 FM300000 17009KT P6SM
                       SCT070 OVC200 FM300600 VRB03KT P6SM BKN070
                       OVC130
                      PROB30 3006/3012 -SHRA=
201008291120 TAF KBLI 291120Z 2912/3012 17006KT P6SM FEW200 FM291300 17009KT
                       P6SM VCFG SCT005 SCT200
                      TEMPO 2913/2915 BKN005 BKN200 FM291500 17013KT
                       P6SM VCFG OVC005 FM291800 17013KT P6SM BKN011
                       BKN070 BKN200 FM292000 19013KT P6SM SCT070
                       BKN200 FM300000 17009KT P6SM SCT070 OVC200
                       FM300600 VRB03KT P6SM BKN070 OVC130
                      PROB30 3006/3012 -SHRA=
201008290546 TAF KBLI 290546Z 2906/3006 17006KT P6SM FEW200 FM291300 17009KT
                       P6SM SCT011 SCT200
                      TEMPO 2913/2915 BKN011 BKN200 FM291500 17013KT
                       P6SM OVC011 FM291800 17013KT P6SM BKN022
                       BKN200 FM292000 19013KT P6SM FEW050 FEW090
                       BKN200=
201008282320 TAF KBLI 282320Z 2900/2924 26006KT P6SM SKC FM290600 19006KT P6SM
                       SKC FM291600 18004KT P6SM SCT010 FM291800
                       19010KT P6SM FEW025=
201008281738 TAF KBLI 281738Z 2818/2918 03006KT P6SM SCT020
                      TEMPO 2818/2820 BKN020 FM282100 34006KT P6SM
                       SCT030 FM290300 18004KT P6SM SKC FM291600
                       18004KT P6SM FEW010=
201008281125 TAF KBLI 281125Z 2812/2912 VRB03KT P6SM FEW035 FM281800 31006KT
                       P6SM SCT050 FM290000 25006KT P6SM SCT050
                       FM290300 19004KT P6SM SKC=
201008280544 TAF KBLI 280544Z 2806/2906 VRB03KT P6SM FEW080 FM281800 29006KT
                       P6SM SCT050 FM290000 25006KT P6SM SCT050
                       FM290300 20006KT P6SM SKC=
201008272320 TAF KBLI 272320Z 2800/2824 19006KT P6SM SCT030 SCT200 FM280200
                       VRB03KT P6SM SCT200 FM281200 03004KT P6SM
                       SCT025
                      TEMPO 2814/2817 BKN025 FM281900 21005KT P6SM
                       FEW050=
201008271720 TAF KBLI 271720Z 2718/2818 17007KT P6SM BKN070 BKN200 FM272100
                       21006KT P6SM SCT070 SCT200 FM280200 VRB03KT
                       P6SM SCT200 FM281200 03004KT P6SM SCT025
                       TEMPO 2814/2817 BKN025=
201008271120 TAF KBLI 271120Z 2712/2812 17007KT P6SM FEW028 OVC050
                      TEMPO 2714/2718 BKN028 OVC050 FM271800 17007KT
                       P6SM BKN050 BKN200 FM272100 21006KT P6SM
                       SCT050 SCT200 FM280200 VRB03KT P6SM SCT200=
201008270539 TAF KBLI 270539Z 2706/2806 17009KT P6SM OVC060 FM271000 17009KT
                       P6SM FEW018 OVC035
                      TEMPO 2712/2716 BKN018 OVC035 FM271800 17009KT
                       P6SM SCT025 BKN050 BKN200 FM272000 21006KT
                       P6SM SCT050 SCT200
                      TEMPO 2720/2724 BKN050 BKN200=
201008270239 KBLI 270239Z 2703/2724 17012KT P6SM OVC070 FM270500 17010KT P6SM
                       SCT080 FM270900 16007KT P6SM BKN020 FM271800
                       18008KT P6SM BKN050 FM272100 21008KT P6SM
                       SCT250=
201008262339 TAF KBLI 262339Z 2700/2724 18013G20KT P6SM BKN080 FM270400 17010KT
                       P6SM SCT080 FM270900 16007KT P6SM BKN020
                       FM271800 18008KT P6SM BKN050 FM272100 21008KT
                       P6SM SCT250=
201008261740 TAF KBLI 261740Z 2618/2718 18010KT P6SM BKN025 BKN080
                      TEMPO 2618/2620 SCT025 BKN080 FM262000 18015G24KT
                       P6SM SCT030
                      TEMPO 2620/2621 BKN030 FM262200 18013G20KT
                       P6SM SCT030 BKN060 FM270200 18012KT P6SM
                       BKN070 FM270800 18008KT P6SM BKN020 BKN070=
201008261442 KBLI 261442Z 2615/2712 18013G20KT P6SM BKN014 BKN080
                      TEMPO 2615/2618 SCT014 BKN080 FM261800 18013G20KT
                       P6SM SCT070 BKN150 FM262100 18013G20KT P6SM
                       BKN070 BKN150 FM270200 18012KT P6SM BKN070
                       FM270900 18008KT P6SM BKN020 BKN070=
201008261120 TAF KBLI 261120Z 2612/2712 18013KT P6SM SCT150 FM261400 18013G20KT
                       P6SM FEW010 BKN150 FM261800 18013G20KT P6SM
                       SCT070 BKN150 FM262100 18013G20KT P6SM BKN070
                       BKN150
                      PROB30 2621/2702 -SHRA FM270200 18012KT P6SM
                       BKN070 FM270900 18008KT P6SM BKN020 BKN070=
201008260548 TAF KBLI 260548Z 2606/2706 17008KT P6SM SKC FM261400 17013KT P6SM
                       FEW012 FM261500 17013KT P6SM OVC012 FM261900
                       17013KT P6SM OVC020 FM262100 19013KT P6SM
                       BKN050 BKN150
                      PROB30 2621/2702 -SHRA=
201008252337 TAF KBLI 252337Z 2600/2624 20007KT P6SM SKC FM261400 18008KT P6SM
                       BKN015 FM261700 20008KT P6SM BKN020 BKN050
                       FM262100 20012KT P6SM BKN050=
201008251728 TAF KBLI 251728Z 2518/2618 VRB03KT P6SM SKC FM252100 27006KT P6SM
                       SKC FM260300 19005KT P6SM SCT100 SCT200
                       FM260600 18010KT P6SM SCT100 BKN200 FM261200
                       18010KT P6SM BKN015 OVC100 FM261400 18010KT
                       P6SM OVC015=
201008251328 KBLI 251328Z 2513/2612 00000KT P6SM SKC
                      TEMPO 2513/2515 1SM BR SCT001 FM251900 29006KT
                       P6SM SKC FM260300 19006KT P6SM SCT100 BKN250
                       FM261000 18009KT P6SM OVC015=
201008251207 TAF KBLI 251207Z 2512/2612 00000KT P6SM SKC FM251900 29006KT P6SM
                       SKC FM260300 19006KT P6SM SCT100 BKN250
                       FM261000 18009KT P6SM OVC015=
201008250520 TAF KBLI 250520Z 2506/2606 18003KT P6SM SKC FM251900 29006KT P6SM
                       SKC FM260200 19006KT P6SM SKC=
201008242320 TAF KBLI 242320Z 2500/2524 29007KT P6SM SKC FM250400 18004KT P6SM
                       SKC FM251700 19005KT P6SM SKC FM252100 23008KT
                       P6SM SKC=
201008241720 TAF KBLI 241720Z 2418/2518 36009KT P6SM SKC FM250000 29005KT P6SM
                       SKC FM250400 18004KT P6SM SKC FM251700 19005KT
                       P6SM SKC=
201008241130 TAF KBLI 241130Z 2412/2512 33003KT P6SM SKC FM250000 23005KT P6SM
                       SKC FM250400 18004KT P6SM SKC=
201008240520 TAF KBLI 240520Z 2406/2506 00000KT P6SM SCT250 FM241700 01005KT
                       P6SM SKC FM242100 27005KT P6SM SCT250=
201008232320 TAF KBLI 232320Z 2400/2424 25004KT P6SM SKC FM240300 VRB03KT P6SM
                       SKC FM241700 01005KT P6SM SKC FM242100 27005KT
                       P6SM SCT250=
201008231736 TAF KBLI 231736Z 2318/2418 18007KT P6SM SKC FM232100 21006KT P6SM
                       SKC FM232300 24006KT P6SM SKC FM240300 19003KT
                       P6SM SKC FM241600 17005KT P6SM SKC=
201008231504 TAF AMD KBLI 231504Z 2315/2412 00000KT P6SM SKC FM231700 18006KT
                       P6SM SKC FM232100 25006KT P6SM SKC FM240300
                       19003KT P6SM SKC=
201008231120 TAF KBLI 231120Z 2312/2412 00000KT P6SM OVC090 FM231700 17006KT
                       P6SM SCT090 BKN250 FM240300 19003KT P6SM
                       SCT250=
201008230530 TAF KBLI 230530Z 2306/2406 16006KT P6SM SCT250 FM231200 17003KT
                       P6SM BKN100 FM231700 18007KT P6SM SCT250
                       FM240300 19003KT P6SM SCT250=
201008222320 TAF KBLI 222320Z 2300/2324 17009G17KT P6SM SCT070 FM230700 16004KT
                       P6SM SCT050 FM231000 16004KT P6SM SCT015
                       SCT030
                      TEMPO 2313/2317 BKN015 BKN030 FM232000 25006KT
                       P6SM SCT040=
201008221724 TAF KBLI 221724Z 2218/2318 17007KT P6SM VCSH FEW040 OVC070 FM230000
                       17004KT P6SM SCT015 BKN040=
201008221140 TAF KBLI 221140Z 2212/2312 16003KT P6SM VCSH SCT018 FM221400 19007KT
                       P6SM VCSH SCT018 BKN045 FM221800 19010KT
                       P6SM VCSH SCT018 BKN030 OVC050 FM230000
                       18008KT P6SM BKN045 BKN100=
201008220540 TAF KBLI 220540Z 2206/2306 17007KT P6SM SCT030 OVC080 FM220900
                       18008KT P6SM VCSH OVC025 FM221400 19007KT
                       P6SM VCSH BKN017 OVC025 FM221800 19010KT
                       P6SM VCSH SCT018 BKN030 OVC050 FM230000
                       18008KT P6SM BKN045 BKN100=
201008212321 TAF KBLI 212321Z 2200/2224 18009KT P6SM SCT100 BKN200 FM220400
                       17006KT P6SM SCT035 OVC100 FM220800 17009KT
                       P6SM VCSH SCT015 OVC025 FM221000 17012KT
                       P6SM VCSH OVC015 FM221900 18010KT P6SM VCSH
                       SCT020 BKN035=
201008211720 TAF KBLI 211720Z 2118/2218 19007KT P6SM SCT022 SCT100 BKN200 FM220400
                       17006KT P6SM SCT035 OVC100 FM220800 17009KT
                       P6SM VCSH SCT015 OVC025 FM221000 17012KT
                       P6SM VCSH OVC015=
201008211120 TAF KBLI 211120Z 2112/2212 19004KT P6SM BKN250 FM211600 18006KT
                       P6SM BKN120 OVC250 FM220400 17006KT P6SM
                       OVC100 FM220800 17006KT P6SM VCSH OVC045=
201008210530 TAF KBLI 210530Z 2106/2206 19003KT P6SM SCT250 FM211200 19004KT
                       P6SM BKN250 FM211600 18006KT P6SM OVC250
                       FM220400 17006KT P6SM OVC100=
201008202320 TAF KBLI 202320Z 2100/2124 18007KT P6SM BKN200 FM211000 18007KT
                       P6SM SCT030 BKN200
                      TEMPO 2115/2119 BKN030 BKN200 FM212000 19007KT
                       P6SM SCT035 BKN200=
201008201724 TAF KBLI 201724Z 2018/2118 15012KT P6SM SCT025 FM202000 16010KT
                       P6SM SCT050 SCT250 FM202200 19010KT P6SM
                       SCT250 FM210300 18006KT P6SM SCT250=
201008201123 TAF KBLI 201123Z 2012/2112 16006KT P6SM BKN050 FM201900 19007KT
                       P6SM SCT050 SCT250 FM202100 19007KT P6SM
                       SCT250=
201008200924 KBLI 200924Z 2009/2106 16006KT P6SM SKC FM201200 17005KT P6SM OVC020
                       FM201900 19007KT P6SM SCT030 SCT250 FM202100
                       19007KT P6SM SCT250=
201008200528 TAF KBLI 200528Z 2006/2106 17008KT P6SM SKC FM200800 17005KT P6SM
                       BKN025 FM201900 19007KT P6SM SCT030 SCT250
                       FM202100 19007KT P6SM SCT250=
201008192330 TAF KBLI 192330Z 2000/2024 17008KT P6SM BKN050 FM200200 17008KT
                       P6SM SKC FM201000 17005KT P6SM BKN025 FM201900
                       19007KT P6SM SCT030 SCT250 FM202100 19007KT
                       P6SM SCT250=
201008191724 TAF KBLI 191724Z 1918/2018 19008KT P6SM BKN020 OVC040 FM192200
                       19010KT P6SM SCT025 FM200700 17005KT P6SM
                       OVC020=
201008191125 TAF KBLI 191125Z 1912/2012 16010KT P6SM OVC020 FM191800 19008KT
                       P6SM OVC025 FM192200 19010KT P6SM SCT025
                       FM200700 17005KT P6SM OVC020=
201008190527 TAF KBLI 190527Z 1906/2006 16007KT P6SM SKC FM190900 17008KT P6SM
                       OVC014 FM191900 19009KT P6SM BKN020 FM192200
                       19009KT P6SM SCT025 FM200500 17005KT P6SM
                       OVC020=
201008182335 TAF KBLI 182335Z 1900/1924 18010KT P6SM SKC FM190900 17008KT P6SM
                       OVC014 FM191900 19009KT P6SM BKN020 FM192100
                       19009KT P6SM BKN025=
201008181724 TAF KBLI 181724Z 1818/1918 17010G20KT P6SM OVC015 FM182100 18010KT
                       P6SM SCT025 FM190900 17008KT P6SM OVC010=
201008181123 TAF KBLI 181123Z 1812/1912 17014G20KT P6SM SCT006
                      TEMPO 1812/1814 BKN006 FM181400 18012KT P6SM
                       OVC008 FM182000 18010KT P6SM SCT250 FM190900
                       17008KT P6SM OVC010=
201008180526 TAF KBLI 180526Z 1806/1906 18008KT P6SM SKC FM181400 18009KT 3SM
                       BR OVC003 FM182000 17009KT P6SM SKC=
201008172338 TAF KBLI 172338Z 1800/1824 19006KT P6SM SKC FM181400 18009KT P6SM
                       SCT005
                      TEMPO 1814/1818 BKN005 FM181900 17009KT P6SM
                       SKC=
201008171721 TAF KBLI 171721Z 1718/1818 18006KT P6SM SKC=
201008171128 TAF KBLI 171128Z 1712/1812 18006KT P6SM SKC=
201008170525 TAF KBLI 170525Z 1706/1806 17006KT P6SM SKC=
201008162321 TAF KBLI 162321Z 1700/1724 19006KT P6SM SKC=
201008161720 TAF KBLI 161720Z 1618/1718 19006KT P6SM SKC=
201008161120 TAF KBLI 161120Z 1612/1712 VRB04KT P6SM SKC=
201008160520 TAF KBLI 160520Z 1606/1706 22006KT P6SM SKC=
201008152327 TAF KBLI 152327Z 1600/1624 22004KT P6SM SKC=
201008151734 TAF KBLI 151734Z 1518/1618 23005KT P6SM SKC=
201008151120 TAF KBLI 151120Z 1512/1612 VRB04KT P6SM SKC=
201008150520 TAF KBLI 150520Z 1506/1606 VRB03KT P6SM SKC=
201008142322 TAF KBLI 142322Z 1500/1524 27006KT P6SM SKC=
201008141724 TAF KBLI 141724Z 1418/1518 32003KT P6SM SKC=
201008141120 TAF KBLI 141120Z 1412/1512 00000KT P6SM SKC
                      TEMPO 1412/1415 2SM MIFG FM141700 07007KT
                       P6SM SKC=
201008140520 TAF KBLI 140520Z 1406/1506 00000KT P6SM SKC FM141200 07006KT P6SM
                       SKC=
201008132340 TAF KBLI 132340Z 1400/1424 27010KT P6SM SKC FM140500 18004KT P6SM
                       SKC FM141800 07006KT P6SM SKC=
201008131730 TAF KBLI 131730Z 1318/1418 36010KT P6SM SKC FM131900 32008KT P6SM
                       SKC FM140500 18004KT P6SM SKC=
201008131133 TAF KBLI 131133Z 1312/1412 VRB03KT P6SM SKC
                      TEMPO 1312/1316 2SM BR FM131900 32008KT P6SM
                       SKC FM140500 18004KT P6SM SKC=
201008130525 TAF KBLI 130525Z 1306/1406 VRB03KT P6SM SKC FM131900 30008KT P6SM
                       SKC FM140500 18004KT P6SM SKC=
201008122320 TAF KBLI 122320Z 1300/1324 21004KT P6SM SKC FM130500 18003KT P6SM
                       SKC FM131900 30008KT P6SM SKC=
201008121732 TAF KBLI 121732Z 1218/1318 17007KT P6SM SCT003
                      TEMPO 1218/1219 4SM BR BKN003 FM122000 20008KT
                       P6SM SKC FM130500 VRB03KT P6SM SKC=
201008121636 KBLI 121636Z 1217/1312 18004KT 3/4SM BR VV002
                      TEMPO 1217/1218 P6SM NSW FEW003 FM121800
                       24006KT P6SM SKC FM130500 VRB03KT P6SM SKC=
201008121438 KBLI 121438Z 1215/1312 18004KT P6SM FEW005
                      TEMPO 1215/1216 1SM BR BKN005 FM121630 18005KT
                       P6SM SCT006 FM121800 24006KT P6SM SKC FM130500
                       VRB03KT P6SM SKC=
201008121120 TAF KBLI 121120Z 1212/1312 18004KT P6SM FEW003
                      TEMPO 1212/1216 1SM BR BKN002 FM121600 18005KT
                       P6SM SCT006 FM121800 24006KT P6SM SKC FM130500
                       VRB03KT P6SM SKC=
201008120523 TAF KBLI 120523Z 1206/1306 18004KT P6SM SKC FM121400 18005KT P6SM
                       SCT006 FM121800 23006KT P6SM SKC=
201008112320 TAF KBLI 112320Z 1200/1224 18004KT P6SM SKC
                      TEMPO 1212/1215 3SM BR BKN002 FM121800 23006KT
                       P6SM SKC=
201008111859 KBLI 111859Z 1119/1218 16004KT P6SM SCT035
                      TEMPO 1119/1120 BKN035 FM112100 21007KT P6SM
                       SKC FM120300 18003KT P6SM SKC
                      TEMPO 1212/1215 3SM BR BKN002=
201008111739 TAF KBLI 111739Z 1118/1218 17005KT 5SM BR OVC004 FM111900 17005KT
                       P6SM SCT020 FM112100 21007KT P6SM SKC FM120300
                       18003KT P6SM SKC
                      TEMPO 1212/1215 3SM BR BKN002=
201008111604 KBLI 111604Z 1116/1212 17005KT 3SM BR VCFG OVC003 FM111730 19006KT
                       P6SM SCT200 FM112200 23007KT P6SM SCT200
                       FM120300 18003KT P6SM SKC=
201008111142 TAF KBLI 111142Z 1112/1212 18004KT P6SM VCFG SCT001
                      TEMPO 1113/1116 1SM BR BKN001 BKN008 FM111700
                       19006KT P6SM SCT200 FM112200 23007KT P6SM
                       SCT200 FM120300 18003KT P6SM SKC=
201008110537 TAF KBLI 110537Z 1106/1206 VRB03KT P6SM BKN110 FM110800 VRB03KT
                       P6SM SCT110 FM111000 00000KT P6SM SKC FM111200
                       00000KT P6SM VCFG SCT001 FM111500 19003KT
                       P6SM SCT250 FM111800 19006KT P6SM SCT250
                       FM112200 24007KT P6SM SCT250=
201008102331 TAF KBLI 102331Z 1100/1124 21004KT P6SM FEW030 SCT060 FM111000
                       00000KT P6SM SCT028
                      TEMPO 1113/1116 BKN028 FM111800 20007KT P6SM
                       FEW040=
201008101737 TAF KBLI 101737Z 1018/1118 VRB04KT P6SM SCT006 BKN020 BKN045
                      TEMPO 1018/1020 BKN006 OVC020 FM102000 20007KT
                       P6SM SCT035 BKN050 BKN080 FM102200 20008KT
                       P6SM SCT050 FM111000 00000KT P6SM SCT028
                       TEMPO 1112/1116 BKN028=
201008101607 KBLI 101607Z 1016/1112 17006KT P6SM BKN006 OVC045 FM101800 17007KT
                       P6SM BKN045 BKN080 FM102000 20007KT P6SM
                       SCT045 BKN080 FM102200 20008KT P6SM SCT050
                       BKN080 FM110100 19008KT P6SM SCT250=
201008101148 KBLI 101148Z 1012/1112 17005KT P6SM VCSH SCT008 OVC040
                      TEMPO 1012/1016 BKN008 OVC040 FM101600 19006KT
                       P6SM BKN040 OVC080 FM102000 20007KT P6SM
                       SCT045 BKN080 FM102200 20008KT P6SM SCT050
                       BKN080 FM110100 19008KT P6SM SCT250=
201008101124 TAF KBLI 101124Z 1012/1112 17005KT P6SM VCSH SCT010 OVC040
                      TEMPO 1012/1016 BKN010 OVC040 FM101600 19006KT
                       P6SM BKN040 OVC080 FM102000 20007KT P6SM
                       SCT045 BKN080 FM102200 20008KT P6SM SCT050
                       BKN080 FM110100 19008KT P6SM SCT250=
201008100539 TAF KBLI 100539Z 1006/1106 17006KT P6SM FEW010 OVC060 FM100900
                       17004KT P6SM BKN025 OVC050 FM101200 17004KT
                       P6SM BKN010 OVC024 FM101700 18005KT P6SM
                       SCT012 BKN025 OVC040 FM102000 19006KT P6SM
                       BKN045 FM110100 24006KT P6SM SCT050 BKN080=
201008092332 TAF KBLI 092332Z 1000/1024 17006KT P6SM VCSH BKN017 OVC035 FM100200
                       17006KT P6SM BKN035 BKN050 FM101000 VRB03KT
                       P6SM OVC020 FM102100 19006KT P6SM BKN035=
201008092004 KBLI 092004Z 0920/1018 19008KT P6SM -RA BKN015 OVC040 FM092300
                       19007KT P6SM VCSH SCT020 BKN070 FM100600
                       17006KT P6SM BKN035 OVC050=
201008091843 KBLI 091843Z 0919/1018 19008KT P6SM -SHRA BKN035 OVC050 FM100000
                       19007KT P6SM VCSH BKN070 FM100600 17006KT
                       P6SM BKN035 OVC050=
201008091730 TAF KBLI 091730Z 0918/1018 17008KT P6SM FEW007 BKN060 FM092000
                       19008KT P6SM -SHRA BKN035 OVC050 FM100000
                       19007KT P6SM VCSH BKN070 FM100600 17006KT
                       P6SM BKN035 OVC050=
201008091142 TAF KBLI 091142Z 0912/1012 17005KT P6SM OVC060 FM091500 17008KT
                       P6SM SCT030 BKN060 OVC080 FM091900 18006KT
                       P6SM -SHRA BKN050 OVC080 FM100000 19007KT
                       P6SM VCSH BKN070 OVC100 FM100600 17006KT
                       P6SM VCSH BKN045 OVC080=
201008090533 TAF KBLI 090533Z 0906/1006 17005KT P6SM FEW040 FM090800 17005KT
                       P6SM BKN035 FM091100 17005KT P6SM BKN015
                       OVC030 FM091900 18006KT P6SM BKN025 OVC045
                       FM092100 19007KT P6SM SCT030 BKN045 FM092300
                       19007KT P6SM VCSH BKN045 OVC080=
201008082325 TAF KBLI 082325Z 0900/0924 18008KT P6SM BKN040
                      TEMPO 0900/0903 SCT040 FM090500 17006KT P6SM
                       SCT010 OVC020
                      TEMPO 0912/0916 4SM BR BKN008 OVC015 FM091900
                       18008KT P6SM BKN025 OVC050
                      PROB30 0921/0924 -SHRA OVC025=
201008081722 TAF KBLI 081722Z 0818/0918 18008KT P6SM BKN020 OVC040
                      TEMPO 0818/0822 5SM -DZ BKN015 OVC030 FM090500
                       21007KT P6SM SCT010 OVC020
                      TEMPO 0912/0916 4SM BR BKN008 OVC015=
201008081434 KBLI 081434Z 0815/0912 17007KT 3SM BR SCT006 BKN012 OVC025
                      TEMPO 0815/0817 1SM -DZ BR BKN006 OVC012
                       FM081800 18007KT P6SM SCT010 OVC020 FM082000
                       19005KT P6SM BKN025 OVC040 FM082200 20007KT
                       P6SM SCT025 BKN040 FM090500 18007KT P6SM
                       BKN025=
201008081127 TAF KBLI 081127Z 0812/0912 17007KT P6SM SCT006 BKN012 OVC025
                      TEMPO 0812/0816 4SM -DZ BR BKN006 OVC012
                       FM081800 18007KT P6SM OVC012 FM082000 19005KT
                       P6SM BKN025 OVC040 FM082200 20007KT P6SM
                       SCT025 BKN040 FM090500 18007KT P6SM BKN025=
201008080616 KBLI 080616Z 0806/0906 16004KT P6SM SCT003 OVC007
                      TEMPO 0806/0810 5SM BR OVC003 FM081000 00000KT
                       4SM -DZ BR OVC005 FM081600 VRB03KT P6SM
                       OVC012 FM082000 19005KT P6SM BKN025 OVC040
                       FM082200 20007KT P6SM SCT025 BKN040=
201008080540 TAF KBLI 080540Z 0806/0906 16004KT 6SM BR SCT007 OVC014
                      TEMPO 0806/0810 BKN007 OVC014 FM081000 00000KT
                       4SM -DZ BR OVC008 FM081600 VRB03KT P6SM
                       OVC012 FM082000 19005KT P6SM BKN025 OVC040
                       FM082200 20007KT P6SM SCT025 BKN040=
201008080405 KBLI 080405Z 0804/0824 18006KT 6SM BR SCT009 OVC015
                      TEMPO 0804/0806 BKN009 OVC015 FM080600 VRB03KT
                       6SM BR OVC008
                      TEMPO 0806/0810 4SM -DZ BR FM081000 VRB03KT
                       5SM BR OVC006 FM081700 VRB03KT P6SM OVC012
                       FM082000 VRB04KT P6SM SCT020 BKN040=
201008072320 TAF KBLI 072320Z 0800/0824 18006KT 5SM -RA SCT003 SCT015 OVC040
                       TEMPO 0800/0804 3SM -RA BR BKN003 OVC012
                       FM080600 VRB03KT P6SM BKN015 OVC030
                      TEMPO 0808/0812 4SM -DZ BR OVC010 FM082000
                       VRB04KT P6SM SCT020 BKN040=
201008072210 KBLI 072210Z 0722/0818 20008KT 4SM -RA SCT003 OVC010
                      TEMPO 0722/0801 1 1/2SM -RA BR OVC003 FM080600
                       21007KT P6SM VCSH BKN007 BKN020 OVC040 FM081400
                       21007KT P6SM BKN020=
201008072104 KBLI 072104Z 0721/0818 20008KT 5SM -RA SCT007 BKN022 OVC035
                      TEMPO 0721/0724 3SM -RA BR BKN007 OVC020
                       FM080800 21007KT 5SM BR OVC007 FM081700
                       21007KT P6SM BKN015=
201008071720 TAF KBLI 071720Z 0718/0818 18015KT 5SM -RA SCT007 OVC020
                      TEMPO 0718/0722 3SM -RA BR BKN007 OVC012
                       FM080800 21007KT 5SM BR OVC007 FM081700
                       21007KT P6SM BKN015=
201008071608 KBLI 071608Z 0716/0812 17012G20KT P6SM -RA SCT005 OVC018
                      TEMPO 0716/0720 4SM -RA BR BKN005 OVC015
                       FM072000 17010KT P6SM -RA OVC015 FM072200
                       17008KT P6SM OVC020 FM080700 18007KT P6SM
                       OVC015=
201008071140 TAF KBLI 071140Z 0712/0812 17012KT P6SM OVC012
                      TEMPO 0712/0716 -DZ BKN008 OVC012 FM071600
                       17008KT P6SM OVC008 FM071800 17010KT P6SM
                       -RA OVC012 FM072200 17008KT P6SM OVC020
                       FM080700 18007KT P6SM OVC015=
201008071023 KBLI 071023Z 0710/0806 15015G25KT P6SM OVC015 FM071200 17012KT
                       P6SM OVC012 FM071400 17010KT P6SM OVC015
                       FM071800 17010KT P6SM OVC018
                      TEMPO 0718/0721 -RA FM072100 16012KT P6SM
                       OVC025=
201008070736 KBLI 070736Z 0708/0806 15015G25KT P6SM OVC015 FM070900 17012KT
                       P6SM OVC012 FM071400 17010KT P6SM OVC015
                       FM071800 17010KT P6SM OVC018
                      PROB30 0718/0721 -RA FM072100 16012KT P6SM
                       OVC025=
201008070538 TAF KBLI 070538Z 0706/0806 15010G18KT P6SM BKN030 FM070800 17009KT
                       P6SM BKN025 FM071400 17010KT P6SM OVC015
                       FM071800 17010KT P6SM OVC018
                      PROB30 0718/0721 -RA FM072100 16012KT P6SM
                       OVC025=
201008062340 TAF KBLI 062340Z 0700/0724 17010G22KT P6SM SKC FM070800 17009KT
                       P6SM BKN025 FM071500 17010KT 5SM -RA OVC015
                       FM072100 16012KT P6SM OVC025=
201008062054 KBLI 062054Z 0621/0718 18012G20KT P6SM FEW008 FM070300 20008KT
                       P6SM SCT025 FM070600 17009KT P6SM BKN025
                       FM070900 16007KT 5SM -RA OVC015
                      TEMPO 0712/0715 3SM -RA OVC006=
201008061735 TAF KBLI 061735Z 0618/0718 17012KT 3SM BR OVC002 FM061900 17012KT
                       P6SM OVC010 FM062100 18012KT P6SM BKN020
                       FM062300 20008KT P6SM SCT025 FM070300 17009KT
                       P6SM BKN025 FM070900 16007KT 5SM -RA OVC015
                       TEMPO 0712/0715 3SM -RA OVC006=
201008061552 KBLI 061552Z 0616/0712 18012KT P6SM OVC005
                      TEMPO 0616/0618 1SM BR OVC002 FM061900 20012KT
                       P6SM BKN012 FM062100 20012KT P6SM SCT030
                       FM071000 20012KT P6SM OVC015=
201008061411 KBLI 061411Z 0614/0712 18012KT P6SM OVC005 FM061900 20012KT P6SM
                       BKN012 FM062100 20012KT P6SM SCT030 FM071000
                       20012KT P6SM OVC015=
201008061138 TAF KBLI 061138Z 0612/0712 18012KT P6SM SCT200 FM061500 18012KT
                       P6SM OVC012 FM061900 20012KT P6SM BKN015
                       FM062100 20012KT P6SM SCT030 FM071000 20012KT
                       P6SM OVC015=
201008060546 TAF KBLI 060546Z 0606/0706 18008KT P6SM SCT200
                      TEMPO 0606/0610 5SM FU FM061300 18010KT P6SM
                       OVC004 FM061600 20010KT P6SM OVC009 FM061900
                       20010KT P6SM BKN015 FM062100 20010KT P6SM
                       SCT030=
201008052320 TAF KBLI 052320Z 0600/0624 18007KT 6SM HZ SCT200 FM061100 18012KT
                       P6SM VCFG SCT003 FM061300 18012KT 5SM BR
                       OVC005 FM061900 20010KT P6SM BKN015 FM062100
                       21010KT P6SM SCT030=
201008051720 TAF KBLI 051720Z 0518/0618 19007KT P6SM FEW080 SCT110
                      TEMPO 0518/0520 FEW080 BKN110 FM052000 19007KT
                       P6SM SCT080CB SCT110 FM060300 17007KT P6SM
                       SCT110 FM061200 17009KT P6SM VCFG FEW003
                       FM061500 17013KT P6SM OVC005=
201008051433 KBLI 051433Z 0515/0612 18006KT P6SM VCTS FEW025 SCT100CB
                      TEMPO 0515/0518 -SHRA FEW025 BKN100CB FM051900
                       19006KT P6SM SCT100=
201008051138 TAF KBLI 051138Z 0512/0612 VRB03KT P6SM BKN100 FM051900 19006KT
                       P6SM SCT100=
201008050540 TAF KBLI 050540Z 0506/0606 VRB03KT P6SM BKN120 FM051200 VRB03KT
                       P6SM SKC=
201008042336 TAF KBLI 042336Z 0500/0524 VRB03KT P6SM FEW060CB FM050600 VRB03KT
                       P6SM FEW100 FM051200 VRB03KT P6SM BCFG SKC
                       TEMPO 0512/0516 1/2SM FG VV001 FM051800
                       19006KT P6SM FEW060=
201008041731 TAF KBLI 041731Z 0418/0518 VRB03KT 6SM FU FEW004 FM041900 VRB03KT
                       P6SM FEW060CB FM050600 VRB03KT P6SM FEW100
                       FM051200 VRB03KT P6SM BCFG SKC
                      TEMPO 0512/0516 1/2SM FG VV001=
201008041307 KBLI 041307Z 0413/0512 VRB03KT P6SM SCT100
                      TEMPO 0413/0415 1/2SM FG VV001 FM041800 21006KT
                       P6SM SCT060=
201008041139 TAF KBLI 041139Z 0412/0512 VRB03KT P6SM SCT100
                      TEMPO 0412/0415 5SM BR FM041800 21006KT P6SM
                       SCT060=
201008040537 TAF KBLI 040537Z 0406/0506 VRB03KT P6SM SCT100 FM041800 21006KT
                       P6SM SCT060=
201008032320 TAF KBLI 032320Z 0400/0424 19006KT P6SM SCT060CB
                      TEMPO 0401/0403 BKN060CB FM040300 17004KT
                       P6SM BKN060CB FM040600 17004KT P6SM SCT060
                       FM041800 21006KT P6SM SCT060CB=
201008031742 TAF KBLI 031742Z 0318/0418 VRB03KT P6SM SCT007 SCT060CB FM031900
                       20006KT P6SM VCTS SCT060CB FM040000 25006KT
                       P6SM BKN060CB FM040600 VRB03KT P6SM BKN060
                       FM041200 VRB03KT P6SM SCT060=
201008031622 KBLI 031622Z 0316/0412 19006KT 6SM BR BKN004
                      TEMPO 0316/0317 2SM BR FM031800 19006KT P6SM
                       SCT060=
201008031424 KBLI 031424Z 0314/0412 19006KT P6SM VCFG SCT002
                      TEMPO 0314/0317 3/4SM BR BKN002 FM031800
                       19006KT P6SM SCT060=
201008031138 TAF KBLI 031138Z 0312/0412 19006KT P6SM SKC FM031500 19006KT P6SM
                       SCT006 FM031800 19006KT P6SM SCT060=
201008030542 TAF KBLI 030542Z 0306/0406 20006KT P6SM SKC FM031400 20006KT 6SM
                       BR OVC008 FM031800 20006KT P6SM OVC012 FM031900
                       20006KT P6SM SCT040 BKN070=
201008022328 TAF KBLI 022328Z 0300/0324 20006KT P6SM SKC FM031200 17009KT 2SM
                       BR OVC003 FM031600 17013KT 6SM BR OVC007
                       FM031800 17013KT P6SM OVC012 FM032100 20007KT
                       P6SM BKN030 BKN070CB=
201008021733 TAF KBLI 021733Z 0218/0318 19006KT P6SM FEW005 FEW150 FM021900
                       19006KT P6SM SCT150 FM031200 17009KT 2SM
                       BR OVC003 FM031600 17013KT 6SM BR OVC007=
201008021138 TAF KBLI 021138Z 0212/0312 VRB03KT P6SM OVC060 FM021600 18006KT
                       P6SM SCT050 BKN100 FM022200 20008KT P6SM
                       SCT100=
201008020536 TAF KBLI 020536Z 0206/0306 18005KT P6SM SCT120 FM021400 18005KT
                       P6SM SCT008 SCT015 FM021900 20008KT P6SM
                       FEW100=
201008012322 TAF KBLI 012322Z 0200/0224 19006KT P6SM BKN120 FM021300 17005KT
                       P6SM BKN006 OVC015 FM022000 20008KT P6SM
                       FEW100=
201008011721 TAF KBLI 011721Z 0118/0218 18006KT P6SM BKN010 OVC018 FM012000
                       18006KT P6SM SCT090 BKN200 FM021300 18006KT
                       P6SM BKN006 OVC015=
201008011131 TAF KBLI 011131Z 0112/0212 17006KT P6SM FEW100 FM011300 17006KT
                       P6SM BKN008 BKN060 FM011900 18008KT P6SM
                       SCT090 BKN200 FM020400 18006KT P6SM SCT200=
201008010524 TAF KBLI 010524Z 0106/0206 18007KT P6SM SCT060 BKN150 FM011000
                       17006KT P6SM SCT060 BKN120 FM011300 17006KT
                       P6SM BKN008 BKN060 FM011900 18008KT P6SM
                       SCT090 BKN200 FM020400 18006KT P6SM SCT200=