##########################################################
# Query made at 02/16/2025 19:26:54 UTC
# Time interval: from 09/01/2010 00:00  to 09/30/2010 23:59  UTC
##########################################################

##########################################################
# KBLI, Bellingham, Bellingham International Airport (United States)
# WMO index: -----. WIGOS ID: Unknown
# Latitude 48-47-58N. Longitude 122-32-21W. Altitude 48 m.
##########################################################

###################################
#  METAR/SPECI from KBLI
###################################
201009302353 METAR KBLI 302353Z 00000KT 10SM R16/6000VP6000FT CLR 19/12 A2984 RMK AO2 SLP109 T01890122 10200 20139 56020=
201009302253 METAR KBLI 302253Z VRB03KT 10SM CLR 19/13 A2986 RMK AO2 SLP115 T01940133=
201009302153 METAR KBLI 302153Z 26004KT 10SM CLR 19/13 A2987 RMK AO2 SLP120 T01940128=
201009302053 METAR KBLI 302053Z VRB03KT 10SM CLR 20/14 A2989 RMK AO2 SLP130 T02000139 58021=
201009301953 METAR KBLI 301953Z 00000KT 10SM CLR 18/13 A2992 RMK AO2 SLP138 T01830133=
201009301853 METAR KBLI 301853Z 00000KT 10SM CLR 16/13 A2994 RMK AO2 SLP146 VIS SE-SW 1 T01610133=
201009301818 SPECI KBLI 301818Z 12003KT 10SM SCT005 15/13 A2995 RMK AO2 VIS SE-SW 1=
201009301818 SPECI KBLI 301818Z 12003KT 10SM SCT005 15/13 A2995 RMK AO2 VIS SE-SW 1=
201009301757 SPECI KBLI 301757Z 00000KT 10SM BKN005 14/12 A2996 RMK AO2 CIG 003V007=
201009301757 SPECI KBLI 301757Z 00000KT 10SM BKN005 14/12 A2996 RMK AO2 CIG 003V007=
201009301753 METAR KBLI 301753Z 00000KT 2SM BR BKN003 14/12 A2996 RMK AO2 CIG 003V007 SLP151 T01390122 10139 20100 58004=
201009301731 SPECI KBLI 301731Z 00000KT 2SM BR OVC003 14/12 A2996 RMK AO2=
201009301731 SPECI KBLI 301731Z 00000KT 2SM BR OVC003 14/12 A2996 RMK AO2=
201009301728 SPECI KBLI 301728Z 00000KT 1 1/2SM BR OVC001 13/12 A2996 RMK AO2=
201009301728 SPECI KBLI 301728Z 00000KT 1 1/2SM BR OVC001 13/12 A2996 RMK AO2=
201009301653 METAR KBLI 301653Z 00000KT 1/4SM R16/2200V4000FT FG VV001 12/11 A2996 RMK AO2 SLP153 T01220111=
201009301553 METAR KBLI 301553Z 00000KT 1/8SM R16/1000V1200FT FG VV000 11/10 A2997 RMK AO2 SLP155 T01110100=
201009301529 SPECI KBLI 301529Z 00000KT 1/8SM R16/1200V1600FT FG VV000 11/10 A2997 RMK AO2=
201009301529 SPECI KBLI 301529Z 00000KT 1/8SM R16/1200V1600FT FG VV000 11/10 A2997 RMK AO2=
201009301511 SPECI KBLI 301511Z 00000KT 1/4SM R16/1200V4500FT FG VV001 11/09 A2997 RMK AO2=
201009301511 SPECI KBLI 301511Z 00000KT 1/4SM R16/1200V4500FT FG VV001 11/09 A2997 RMK AO2=
201009301453 METAR KBLI 301453Z 00000KT 1/4SM R16/0700V1000FT FG VV001 11/10 A2997 RMK AO2 SLP155 T01060100 56003=
201009301353 METAR KBLI 301353Z 00000KT 1/4SM R16/0800V1000FT FG VV001 11/09 A2997 RMK AO2 SLP156 T01060094=
201009301309 SPECI KBLI 301309Z AUTO 00000KT 1/2SM R16/1600V1800FT FG VV001 10/09 A2997 RMK AO2=
201009301309 SPECI KBLI 301309Z AUTO 00000KT 1/2SM R16/1600V1800FT FG VV001 10/09 A2997 RMK AO2=
201009301253 METAR KBLI 301253Z AUTO 00000KT 1/2SM R16/1600V2800FT FG VV001 10/09 A2997 RMK AO2 SLP155 T01000094=
201009301153 METAR KBLI 301153Z AUTO 00000KT 1/4SM R16/1000FT FG VV001 10/09 A2998 RMK AO2 SLP158 60001 70001 T01000094 10106 20078 58006=
201009301140 SPECI KBLI 301140Z AUTO 00000KT 1/2SM R16/1000V2000FT FG VV001 10/09 A2998 RMK AO2=
201009301140 SPECI KBLI 301140Z AUTO 00000KT 1/2SM R16/1000V2000FT FG VV001 10/09 A2998 RMK AO2=
201009301132 SPECI KBLI 301132Z AUTO 00000KT 3/4SM R16/1800V5000FT BR OVC001 10/09 A2998 RMK AO2=
201009301132 SPECI KBLI 301132Z AUTO 00000KT 3/4SM R16/1800V5000FT BR OVC001 10/09 A2998 RMK AO2=
201009301123 SPECI KBLI 301123Z AUTO 00000KT 2SM R16/5000VP6000FT BR OVC001 10/09 A2998 RMK AO2=
201009301123 SPECI KBLI 301123Z AUTO 00000KT 2SM R16/5000VP6000FT BR OVC001 10/09 A2998 RMK AO2=
201009301115 SPECI KBLI 301115Z AUTO 00000KT 1SM R16/4000VP6000FT BR OVC003 10/09 A2998 RMK AO2 CIG 001V004=
201009301115 SPECI KBLI 301115Z AUTO 00000KT 1SM R16/4000VP6000FT BR OVC003 10/09 A2998 RMK AO2 CIG 001V004=
201009301109 SPECI KBLI 301109Z AUTO 00000KT 1/2SM R16/2200VP6000FT FG BKN003 OVC008 09/09 A2998 RMK AO2=
201009301109 SPECI KBLI 301109Z AUTO 00000KT 1/2SM R16/2200VP6000FT FG BKN003 OVC008 09/09 A2998 RMK AO2=
201009301101 SPECI KBLI 301101Z AUTO 00000KT 1/4SM R16/1200V2200FT FG BKN003 OVC008 09/08 A2999 RMK AO2=
201009301101 SPECI KBLI 301101Z AUTO 00000KT 1/4SM R16/1200V2200FT FG BKN003 OVC008 09/08 A2999 RMK AO2=
201009301053 METAR KBLI 301053Z AUTO 00000KT 1/4SM R16/0800V1400FT FG BKN001 OVC008 09/08 A2999 RMK AO2 SLP161 T00940083=
201009300953 METAR KBLI 300953Z AUTO 00000KT 1/4SM R16/1200V1600FT FG VV001 09/08 A3000 RMK AO2 SLP164 T00940083=
201009300951 SPECI KBLI 300951Z AUTO 00000KT 1/4SM R16/1400V2000FT FG VV001 09/08 A3000 RMK AO2=
201009300951 SPECI KBLI 300951Z AUTO 00000KT 1/4SM R16/1400V2000FT FG VV001 09/08 A3000 RMK AO2=
201009300934 SPECI KBLI 300934Z AUTO 00000KT 1/2SM R16/1600V3000FT FG VV001 09/08 A3000 RMK AO2=
201009300934 SPECI KBLI 300934Z AUTO 00000KT 1/2SM R16/1600V3000FT FG VV001 09/08 A3000 RMK AO2=
201009300918 SPECI KBLI 300918Z AUTO 00000KT 1/4SM R16/1200V1400FT FG OVC003 09/08 A3000 RMK AO2=
201009300918 SPECI KBLI 300918Z AUTO 00000KT 1/4SM R16/1200V1400FT FG OVC003 09/08 A3000 RMK AO2=
201009300908 SPECI KBLI 300908Z AUTO 00000KT 1/4SM R16/1600V4500FT FG OVC003 09/08 A3000 RMK AO2=
201009300908 SPECI KBLI 300908Z AUTO 00000KT 1/4SM R16/1600V4500FT FG OVC003 09/08 A3000 RMK AO2=
201009300853 METAR KBLI 300853Z AUTO 00000KT 1/2SM R16/1800VP6000FT FG SCT001 BKN007 08/07 A3000 RMK AO2 SLP166 60001 T00780067 55006=
201009300843 SPECI KBLI 300843Z AUTO 00000KT 3/4SM R16/2400VP6000FT BR VV001 08/07 A3000 RMK AO2=
201009300843 SPECI KBLI 300843Z AUTO 00000KT 3/4SM R16/2400VP6000FT BR VV001 08/07 A3000 RMK AO2=
201009300838 SPECI KBLI 300838Z AUTO 00000KT 1 3/4SM R16/2600VP6000FT BR SCT001 08/07 A3000 RMK AO2=
201009300838 SPECI KBLI 300838Z AUTO 00000KT 1 3/4SM R16/2600VP6000FT BR SCT001 08/07 A3000 RMK AO2=
201009300829 SPECI KBLI 300829Z AUTO 00000KT 9SM R16/2600VP6000FT FEW001 08/07 A3000 RMK AO2=
201009300829 SPECI KBLI 300829Z AUTO 00000KT 9SM R16/2600VP6000FT FEW001 08/07 A3000 RMK AO2=
201009300820 SPECI KBLI 300820Z AUTO 00000KT 2SM R16/1600VP6000FT BR SCT001 SCT011 09/08 A3000 RMK AO2=
201009300820 SPECI KBLI 300820Z AUTO 00000KT 2SM R16/1600VP6000FT BR SCT001 SCT011 09/08 A3000 RMK AO2=
201009300753 METAR KBLI 300753Z AUTO 00000KT 4SM R16/3000VP6000FT BR FEW001 10/08 A3000 RMK AO2 SLP165 P0001 T01000083 401830078=
201009300748 SPECI KBLI 300748Z AUTO 00000KT 3SM R16/5000VP6000FT BR FEW001 09/08 A3000 RMK AO2 P0001 401830078=
201009300748 SPECI KBLI 300748Z AUTO 00000KT 3SM R16/5000VP6000FT BR FEW001 09/08 A3000 RMK AO2 P0001 401830078=
201009300737 SPECI KBLI 300737Z AUTO 00000KT 1 3/4SM BR FEW016 09/08 A3000 RMK AO2 VIS 3/4V5 P0001=
201009300737 SPECI KBLI 300737Z AUTO 00000KT 1 3/4SM BR FEW016 09/08 A3000 RMK AO2 VIS 3/4V5 P0001=
201009300731 SPECI KBLI 300731Z AUTO 00000KT 3SM BR CLR 09/08 A3000 RMK AO2 P0001=
201009300731 SPECI KBLI 300731Z AUTO 00000KT 3SM BR CLR 09/08 A3000 RMK AO2 P0001=
201009300709 SPECI KBLI 300709Z AUTO 00000KT 1 1/2SM R16/2400VP6000FT BR CLR 10/09 A3001 RMK AO2=
201009300709 SPECI KBLI 300709Z AUTO 00000KT 1 1/2SM R16/2400VP6000FT BR CLR 10/09 A3001 RMK AO2=
201009300702 SPECI KBLI 300702Z AUTO 00000KT 2SM BR CLR 10/08 A3001 RMK AO2 VIS 1V5=
201009300702 SPECI KBLI 300702Z AUTO 00000KT 2SM BR CLR 10/08 A3001 RMK AO2 VIS 1V5=
201009300653 METAR KBLI 300653Z AUTO 00000KT 5SM R16/3000VP6000FT BR CLR 10/09 A3001 RMK AO2 SLP170 T01000089=
201009300553 METAR KBLI 300553Z AUTO 00000KT 7SM CLR 11/09 A3002 RMK AO2 SLP172 T01060094 10172 20100 58002=
201009300453 METAR KBLI 300453Z 00000KT 5SM BR CLR 11/09 A3003 RMK AO2 SLP175 T01060089=
201009300353 METAR KBLI 300353Z 00000KT 10SM CLR 11/10 A3003 RMK AO2 SLP175 T01110100=
201009300253 METAR KBLI 300253Z 00000KT 10SM CLR 12/10 A3003 RMK AO2 SLP174 T01170100 56005=
201009300153 METAR KBLI 300153Z 00000KT 10SM CLR 14/11 A3003 RMK AO2 SLP175 T01390111=
201009300053 METAR KBLI 300053Z 27005KT 10SM CLR 16/12 A3003 RMK AO2 SLP177 T01560117=
201009292353 METAR KBLI 292353Z 27005KT 10SM CLR 17/12 A3004 RMK AO2 SLP179 T01720122 10183 20133 56022=
201009292253 METAR KBLI 292253Z 28006KT 10SM CLR 18/12 A3006 RMK AO2 SLP185 T01780122=
201009292153 METAR KBLI 292153Z VRB05KT 10SM CLR 17/11 A3008 RMK AO2 SLP193 T01720111=
201009292129 SPECI KBLI 292129Z 27005KT 10SM FEW018 SCT025 18/12 A3009 RMK AO2=
201009292129 SPECI KBLI 292129Z 27005KT 10SM FEW018 SCT025 18/12 A3009 RMK AO2=
201009292053 METAR KBLI 292053Z VRB04KT 10SM SCT016 BKN022 17/12 A3011 RMK AO2 SLP202 T01670122 56016=
201009292023 SPECI KBLI 292023Z 00000KT 6SM HZ SCT014 OVC024 17/13 A3012 RMK AO2=
201009292023 SPECI KBLI 292023Z 00000KT 6SM HZ SCT014 OVC024 17/13 A3012 RMK AO2=
201009291953 METAR KBLI 291953Z 00000KT 6SM HZ FEW007 OVC014 16/13 A3012 RMK AO2 SLP207 T01610128=
201009291942 SPECI KBLI 291942Z 00000KT 6SM HZ FEW007 OVC014 16/12 A3013 RMK AO2=
201009291942 SPECI KBLI 291942Z 00000KT 6SM HZ FEW007 OVC014 16/12 A3013 RMK AO2=
201009291935 SPECI KBLI 291935Z 00000KT 6SM HZ SCT007 OVC016 16/13 A3013 RMK AO2=
201009291935 SPECI KBLI 291935Z 00000KT 6SM HZ SCT007 OVC016 16/13 A3013 RMK AO2=
201009291853 METAR KBLI 291853Z 00000KT 10SM OVC007 15/13 A3014 RMK AO2 CIG 005V012 SLP212 T01500128=
201009291830 SPECI KBLI 291830Z 26004KT 4SM BR OVC005 14/12 A3014 RMK AO2=
201009291830 SPECI KBLI 291830Z 26004KT 4SM BR OVC005 14/12 A3014 RMK AO2=
201009291753 METAR KBLI 291753Z 00000KT 2SM BR OVC003 13/12 A3015 RMK AO2 SLP218 T01330122 10133 20078 58001=
201009291742 SPECI KBLI 291742Z 01004KT 2SM BR OVC003 13/12 A3016 RMK AO2 CIG 001V006=
201009291742 SPECI KBLI 291742Z 01004KT 2SM BR OVC003 13/12 A3016 RMK AO2 CIG 001V006=
201009291653 METAR KBLI 291653Z 33004KT 1 1/2SM BR OVC001 13/12 A3016 RMK AO2 SLP221 T01280117=
201009291632 SPECI KBLI 291632Z 00000KT 1SM R16/P6000FT BR OVC001 12/11 A3017 RMK AO2=
201009291632 SPECI KBLI 291632Z 00000KT 1SM R16/P6000FT BR OVC001 12/11 A3017 RMK AO2=
201009291553 METAR KBLI 291553Z 00000KT 1/2SM R16/2600VP6000FT FG VV001 12/11 A3016 RMK AO2 SLP221 T01170106=
201009291512 SPECI KBLI 291512Z 00000KT 3/4SM R16/1600V2400FT BR BKN001 OVC006 10/09 A3016 RMK AO2=
201009291512 SPECI KBLI 291512Z 00000KT 3/4SM R16/1600V2400FT BR BKN001 OVC006 10/09 A3016 RMK AO2=
201009291506 SPECI KBLI 291506Z 00000KT 3/4SM R16/1600V2200FT BR BKN001 OVC006 10/09 A3016 RMK AO2=
201009291506 SPECI KBLI 291506Z 00000KT 3/4SM R16/1600V2200FT BR BKN001 OVC006 10/09 A3016 RMK AO2=
201009291456 SPECI KBLI 291456Z 00000KT 3/4SM R16/2200V5000FT BR SCT001 OVC006 10/08 A3016 RMK AO2=
201009291456 SPECI KBLI 291456Z 00000KT 3/4SM R16/2200V5000FT BR SCT001 OVC006 10/08 A3016 RMK AO2=
201009291453 METAR KBLI 291453Z 00000KT 1SM R16/2200VP6000FT BR BKN001 OVC006 10/08 A3016 RMK AO2 SLP219 T01000083 51003=
201009291451 SPECI KBLI 291451Z 00000KT 1SM R16/2200VP6000FT BR BKN001 OVC006 10/08 A3016 RMK AO2=
201009291451 SPECI KBLI 291451Z 00000KT 1SM R16/2200VP6000FT BR BKN001 OVC006 10/08 A3016 RMK AO2=
201009291448 SPECI KBLI 291448Z 00000KT 3/4SM R16/3000VP6000FT BR SCT001 OVC006 10/08 A3016 RMK AO2=
201009291448 SPECI KBLI 291448Z 00000KT 3/4SM R16/3000VP6000FT BR SCT001 OVC006 10/08 A3016 RMK AO2=
201009291433 SPECI KBLI 291433Z 00000KT 1/4SM R16/2000V3000FT FG VV001 09/09 A3016 RMK AO2=
201009291433 SPECI KBLI 291433Z 00000KT 1/4SM R16/2000V3000FT FG VV001 09/09 A3016 RMK AO2=
201009291425 SPECI KBLI 291425Z 00000KT 1/4SM R16/2000V2200FT FG VV001 09/08 A3016 RMK AO2=
201009291425 SPECI KBLI 291425Z 00000KT 1/4SM R16/2000V2200FT FG VV001 09/08 A3016 RMK AO2=
201009291353 METAR KBLI 291353Z 00000KT 1/4SM R16/3000VP6000FT FG OVC001 08/07 A3015 RMK AO2 SLP217 T00830072=
201009291345 SPECI KBLI 291345Z AUTO 01003KT 1SM R16/4500V6000FT BR VV001 08/07 A3015 RMK AO2=
201009291345 SPECI KBLI 291345Z AUTO 01003KT 1SM R16/4500V6000FT BR VV001 08/07 A3015 RMK AO2=
201009291334 SPECI KBLI 291334Z AUTO 36003KT 1/2SM R16/1600V4500FT FG VV001 08/08 A3015 RMK AO2=
201009291334 SPECI KBLI 291334Z AUTO 36003KT 1/2SM R16/1600V4500FT FG VV001 08/08 A3015 RMK AO2=
201009291318 SPECI KBLI 291318Z AUTO 35003KT 1/4SM R16/0800V2200FT FG VV001 09/08 A3015 RMK AO2=
201009291318 SPECI KBLI 291318Z AUTO 35003KT 1/4SM R16/0800V2200FT FG VV001 09/08 A3015 RMK AO2=
201009291253 METAR KBLI 291253Z AUTO 00000KT 1/4SM R16/2000V2600FT FG BKN003 OVC007 08/07 A3015 RMK AO2 SLP216 T00830072=
201009291224 SPECI KBLI 291224Z AUTO 00000KT 1/2SM R16/1800VP6000FT FG SCT001 OVC007 08/07 A3015 RMK AO2=
201009291224 SPECI KBLI 291224Z AUTO 00000KT 1/2SM R16/1800VP6000FT FG SCT001 OVC007 08/07 A3015 RMK AO2=
201009291212 SPECI KBLI 291212Z AUTO 00000KT 3/4SM R16/2600VP6000FT BR OVC007 08/07 A3015 RMK AO2=
201009291212 SPECI KBLI 291212Z AUTO 00000KT 3/4SM R16/2600VP6000FT BR OVC007 08/07 A3015 RMK AO2=
201009291153 METAR KBLI 291153Z AUTO 00000KT 1/2SM R16/1800VP6000FT FG OVC009 09/08 A3015 RMK AO2 SLP218 60001 70006 T00890078 10122 20089 58003=
201009291129 SPECI KBLI 291129Z AUTO 00000KT 1/2SM R16/1800V4000FT FG SCT001 OVC008 10/08 A3016 RMK AO2=
201009291129 SPECI KBLI 291129Z AUTO 00000KT 1/2SM R16/1800V4000FT FG SCT001 OVC008 10/08 A3016 RMK AO2=
201009291121 SPECI KBLI 291121Z AUTO 00000KT 3/4SM R16/2000V4000FT BR BKN001 OVC008 10/09 A3016 RMK AO2=
201009291121 SPECI KBLI 291121Z AUTO 00000KT 3/4SM R16/2000V4000FT BR BKN001 OVC008 10/09 A3016 RMK AO2=
201009291053 METAR KBLI 291053Z AUTO 00000KT 1/4SM R16/1000V1200FT FG VV001 10/09 A3016 RMK AO2 SLP220 T01000089=
201009291049 SPECI KBLI 291049Z AUTO 00000KT 1/4SM R16/1000V1400FT FG VV001 10/09 A3016 RMK AO2=
201009291049 SPECI KBLI 291049Z AUTO 00000KT 1/4SM R16/1000V1400FT FG VV001 10/09 A3016 RMK AO2=
201009291028 SPECI KBLI 291028Z AUTO 00000KT 1/2SM R16/1800V2600FT FG VV001 09/08 A3016 RMK AO2=
201009291028 SPECI KBLI 291028Z AUTO 00000KT 1/2SM R16/1800V2600FT FG VV001 09/08 A3016 RMK AO2=
201009291021 SPECI KBLI 291021Z AUTO 00000KT 3/4SM R16/2000VP6000FT BR VV001 10/09 A3016 RMK AO2=
201009291021 SPECI KBLI 291021Z AUTO 00000KT 3/4SM R16/2000VP6000FT BR VV001 10/09 A3016 RMK AO2=
201009291012 SPECI KBLI 291012Z AUTO 00000KT 1/2SM R16/1600VP6000FT FG BKN001 OVC007 10/08 A3016 RMK AO2=
201009291012 SPECI KBLI 291012Z AUTO 00000KT 1/2SM R16/1600VP6000FT FG BKN001 OVC007 10/08 A3016 RMK AO2=
201009291002 SPECI KBLI 291002Z AUTO 00000KT 1/4SM R16/1400V2000FT FG BKN001 OVC007 09/08 A3016 RMK AO2=
201009291002 SPECI KBLI 291002Z AUTO 00000KT 1/4SM R16/1400V2000FT FG BKN001 OVC007 09/08 A3016 RMK AO2=
201009290953 METAR KBLI 290953Z AUTO 00000KT 1/4SM R16/1200V2600FT FG FEW001 OVC007 09/08 A3016 RMK AO2 SLP220 T00940083=
201009290944 SPECI KBLI 290944Z AUTO 00000KT 1/4SM R16/1200V2000FT FG FEW001 OVC007 09/08 A3016 RMK AO2=
201009290944 SPECI KBLI 290944Z AUTO 00000KT 1/4SM R16/1200V2000FT FG FEW001 OVC007 09/08 A3016 RMK AO2=
201009290933 SPECI KBLI 290933Z AUTO 00000KT 1/4SM R16/1200V3000FT FG SCT001 OVC009 10/09 A3016 RMK AO2=
201009290933 SPECI KBLI 290933Z AUTO 00000KT 1/4SM R16/1200V3000FT FG SCT001 OVC009 10/09 A3016 RMK AO2=
201009290924 SPECI KBLI 290924Z AUTO 00000KT 1/2SM R16/1200V1600FT FG SCT001 OVC009 10/09 A3017 RMK AO2=
201009290924 SPECI KBLI 290924Z AUTO 00000KT 1/2SM R16/1200V1600FT FG SCT001 OVC009 10/09 A3017 RMK AO2=
201009290921 SPECI KBLI 290921Z AUTO 00000KT 1SM R16/1400V3000FT BR BKN001 OVC009 10/09 A3017 RMK AO2=
201009290921 SPECI KBLI 290921Z AUTO 00000KT 1SM R16/1400V3000FT BR BKN001 OVC009 10/09 A3017 RMK AO2=
201009290914 SPECI KBLI 290914Z AUTO 00000KT 2 1/2SM R16/2600VP6000FT BR BKN003 BKN009 10/09 A3017 RMK AO2=
201009290914 SPECI KBLI 290914Z AUTO 00000KT 2 1/2SM R16/2600VP6000FT BR BKN003 BKN009 10/09 A3017 RMK AO2=
201009290909 SPECI KBLI 290909Z AUTO 00000KT 1SM R16/2200VP6000FT BR SCT003 BKN009 10/08 A3016 RMK AO2=
201009290909 SPECI KBLI 290909Z AUTO 00000KT 1SM R16/2200VP6000FT BR SCT003 BKN009 10/08 A3016 RMK AO2=
201009290858 SPECI KBLI 290858Z AUTO 00000KT 1/2SM R16/2000VP6000FT FG VV009 10/09 A3017 RMK AO2=
201009290858 SPECI KBLI 290858Z AUTO 00000KT 1/2SM R16/2000VP6000FT FG VV009 10/09 A3017 RMK AO2=
201009290856 SPECI KBLI 290856Z AUTO 00000KT 3/4SM R16/4000VP6000FT BR VV011 10/09 A3017 RMK AO2=
201009290856 SPECI KBLI 290856Z AUTO 00000KT 3/4SM R16/4000VP6000FT BR VV011 10/09 A3017 RMK AO2=
201009290853 METAR KBLI 290853Z AUTO 00000KT 1SM R16/4000VP6000FT BR FEW035 09/08 A3017 RMK AO2 SLP222 P0001 60001 T00940083 51003=
201009290840 SPECI KBLI 290840Z AUTO 00000KT 3SM R16/4000VP6000FT BR FEW022 11/09 A3016 RMK AO2 P0001=
201009290840 SPECI KBLI 290840Z AUTO 00000KT 3SM R16/4000VP6000FT BR FEW022 11/09 A3016 RMK AO2 P0001=
201009290837 SPECI KBLI 290837Z AUTO 00000KT 1 1/2SM R16/3500VP6000FT BR FEW016 11/09 A3016 RMK AO2 P0001=
201009290837 SPECI KBLI 290837Z AUTO 00000KT 1 1/2SM R16/3500VP6000FT BR FEW016 11/09 A3016 RMK AO2 P0001=
201009290830 SPECI KBLI 290830Z AUTO 00000KT 3/4SM R16/3500VP6000FT BR FEW024 11/09 A3016 RMK AO2 P0001=
201009290830 SPECI KBLI 290830Z AUTO 00000KT 3/4SM R16/3500VP6000FT BR FEW024 11/09 A3016 RMK AO2 P0001=
201009290820 SPECI KBLI 290820Z AUTO 00000KT 1 3/4SM BR CLR 10/09 A3016 RMK AO2 P0001=
201009290820 SPECI KBLI 290820Z AUTO 00000KT 1 3/4SM BR CLR 10/09 A3016 RMK AO2 P0001=
201009290803 SPECI KBLI 290803Z AUTO 00000KT 5SM R16/3500VP6000FT BR CLR 11/10 A3016 RMK AO2 P0001=
201009290803 SPECI KBLI 290803Z AUTO 00000KT 5SM R16/3500VP6000FT BR CLR 11/10 A3016 RMK AO2 P0001=
201009290753 METAR KBLI 290753Z AUTO 00000KT 2SM BR CLR 11/09 A3016 RMK AO2 SLP220 T01110094 402000111=
201009290749 SPECI KBLI 290749Z AUTO 00000KT 1 3/4SM BR CLR 11/10 A3016 RMK AO2 402000111=
201009290749 SPECI KBLI 290749Z AUTO 00000KT 1 3/4SM BR CLR 11/10 A3016 RMK AO2 402000111=
201009290653 METAR KBLI 290653Z AUTO 00000KT 10SM CLR 11/09 A3016 RMK AO2 SLP221 T01110094=
201009290553 METAR KBLI 290553Z AUTO 00000KT 10SM CLR 12/11 A3016 RMK AO2 SLP218 T01220106 10189 20117 51008=
201009290453 METAR KBLI 290453Z 00000KT 10SM CLR 13/12 A3015 RMK AO2 SLP216 T01330117=
201009290353 METAR KBLI 290353Z 00000KT 10SM CLR 12/11 A3015 RMK AO2 SLP215 T01220111=
201009290253 METAR KBLI 290253Z 00000KT 10SM CLR 14/12 A3013 RMK AO2 SLP210 T01390122 53008=
201009290153 METAR KBLI 290153Z 00000KT 10SM CLR 15/13 A3012 RMK AO2 SLP206 T01500133=
201009290053 METAR KBLI 290053Z 00000KT 10SM CLR 18/12 A3012 RMK AO2 SLP205 T01780122=
201009282353 METAR KBLI 282353Z 18004KT 10SM R16/5500VP6000FT CLR 19/12 A3011 RMK AO2 SLP202 T01890122 10200 20161 58001=
201009282253 METAR KBLI 282253Z 19005KT 10SM CLR 19/13 A3011 RMK AO2 SLP201 T01890128=
201009282153 METAR KBLI 282153Z 21003KT 10SM CLR 19/12 A3012 RMK AO2 SLP204 T01890122=
201009282053 METAR KBLI 282053Z 16007KT 10SM CLR 18/12 A3011 RMK AO2 SLP203 T01830122 53006=
201009281953 METAR KBLI 281953Z 18006KT 10SM CLR 18/13 A3011 RMK AO2 SLP202 T01780128=
201009281853 METAR KBLI 281853Z 17007KT 10SM CLR 16/13 A3009 RMK AO2 SLP197 T01610133=
201009281753 METAR KBLI 281753Z 16003KT 10SM FEW090 BKN100 16/13 A3010 RMK AO2 SLP197 60005 T01610128 10167 20156 53013=
201009281653 METAR KBLI 281653Z 15004KT 10SM OVC080 16/14 A3008 RMK AO2 RAE1557 SLP191 P0000 T01610139=
201009281553 METAR KBLI 281553Z 14005KT 8SM -RA SCT036 BKN043 OVC060 16/13 A3006 RMK AO2 SLP186 P0004 T01560133=
201009281543 SPECI KBLI 281543Z 14007KT 8SM -RA FEW029 OVC040 16/14 A3007 RMK AO2 P0004=
201009281543 SPECI KBLI 281543Z 14007KT 8SM -RA FEW029 OVC040 16/14 A3007 RMK AO2 P0004=
201009281523 SPECI KBLI 281523Z 17003KT 5SM -RA BR FEW002 BKN008 OVC036 16/14 A3006 RMK AO2 P0004=
201009281523 SPECI KBLI 281523Z 17003KT 5SM -RA BR FEW002 BKN008 OVC036 16/14 A3006 RMK AO2 P0004=
201009281500 SPECI KBLI 281500Z 00000KT 2SM -RA BR BKN002 BKN022 OVC050 16/15 A3006 RMK AO2 P0001=
201009281500 SPECI KBLI 281500Z 00000KT 2SM -RA BR BKN002 BKN022 OVC050 16/15 A3006 RMK AO2 P0001=
201009281453 METAR KBLI 281453Z 00000KT 1 1/2SM -RA BR BKN002 BKN025 OVC070 16/15 A3006 RMK AO2 RAB34 SLP184 P0000 60001 T01610150 50010=
201009281449 SPECI KBLI 281449Z VRB03KT 1 1/2SM -RA BR BKN002 BKN025 OVC070 16/15 A3006 RMK AO2 RAB34 PRESRR P0000=
201009281449 SPECI KBLI 281449Z VRB03KT 1 1/2SM -RA BR BKN002 BKN025 OVC070 16/15 A3006 RMK AO2 RAB34 PRESRR P0000=
201009281433 SPECI KBLI 281433Z VRB03KT 2SM BR SCT002 BKN025 OVC070 16/15 A3004 RMK AO2=
201009281433 SPECI KBLI 281433Z VRB03KT 2SM BR SCT002 BKN025 OVC070 16/15 A3004 RMK AO2=
201009281353 METAR KBLI 281353Z 00000KT 10SM SCT046 BKN060 OVC075 16/15 A3003 RMK AO2 RAE27 SLP174 P0000 T01610150=
201009281253 METAR KBLI 281253Z AUTO 17003KT 10SM -RA SCT035 OVC048 16/15 A3003 RMK AO2 SLP174 P0001 T01610150=
201009281153 METAR KBLI 281153Z AUTO 19004KT 9SM -RA OVC046 17/16 A3001 RMK AO2 SLP168 P0003 60013 70022 T01670156 10178 20167 53008=
201009281125 SPECI KBLI 281125Z AUTO 17005KT 10SM -RA FEW002 OVC040 17/16 A3000 RMK AO2 P0002=
201009281125 SPECI KBLI 281125Z AUTO 17005KT 10SM -RA FEW002 OVC040 17/16 A3000 RMK AO2 P0002=
201009281053 METAR KBLI 281053Z AUTO 16007KT 6SM -RA BR BKN002 BKN029 OVC034 17/16 A2999 RMK AO2 SLP162 P0004 T01670156=
201009281048 SPECI KBLI 281048Z AUTO 17008KT 7SM -RA SCT002 OVC034 17/16 A2999 RMK AO2 P0003=
201009281048 SPECI KBLI 281048Z AUTO 17008KT 7SM -RA SCT002 OVC034 17/16 A2999 RMK AO2 P0003=
201009281002 SPECI KBLI 281002Z AUTO 19003KT 6SM -RA BR FEW002 OVC028 17/16 A2999 RMK AO2 P0001=
201009281002 SPECI KBLI 281002Z AUTO 19003KT 6SM -RA BR FEW002 OVC028 17/16 A2999 RMK AO2 P0001=
201009280953 METAR KBLI 280953Z AUTO 16005KT 5SM -RA BR OVC030 17/16 A2999 RMK AO2 SLP160 P0004 T01720161=
201009280941 SPECI KBLI 280941Z AUTO 18004KT 5SM -RA BR OVC030 17/16 A2999 RMK AO2 P0003=
201009280941 SPECI KBLI 280941Z AUTO 18004KT 5SM -RA BR OVC030 17/16 A2999 RMK AO2 P0003=
201009280853 METAR KBLI 280853Z AUTO 18005KT 7SM RA BKN028 OVC033 17/16 A2999 RMK AO2 RAB37 SLP159 P0002 60002 T01720156 55000=
201009280753 METAR KBLI 280753Z AUTO 17008KT 10SM BKN031 OVC040 17/16 A2998 RMK AO2 SLP158 T01670156 402280161=
201009280653 METAR KBLI 280653Z AUTO 16006KT 9SM FEW032 OVC055 17/16 A2998 RMK AO2 SLP158 T01670156=
201009280641 SPECI KBLI 280641Z AUTO 17006KT 7SM R16/6000VP6000FT FEW002 BKN055 OVC065 17/16 A2999 RMK AO2=
201009280641 SPECI KBLI 280641Z AUTO 17006KT 7SM R16/6000VP6000FT FEW002 BKN055 OVC065 17/16 A2999 RMK AO2=
201009280631 SPECI KBLI 280631Z AUTO 17006KT 2SM R16/3000V4500FT BR SCT002 OVC055 17/16 A2998 RMK AO2=
201009280631 SPECI KBLI 280631Z AUTO 17006KT 2SM R16/3000V4500FT BR SCT002 OVC055 17/16 A2998 RMK AO2=
201009280616 SPECI KBLI 280616Z AUTO 17005KT 1 3/4SM R16/3000VP6000FT BR BKN002 BKN005 OVC055 17/16 A2998 RMK AO2=
201009280616 SPECI KBLI 280616Z AUTO 17005KT 1 3/4SM R16/3000VP6000FT BR BKN002 BKN005 OVC055 17/16 A2998 RMK AO2=
201009280608 SPECI KBLI 280608Z AUTO 17003KT 10SM BKN002 OVC060 18/17 A2999 RMK AO2=
201009280608 SPECI KBLI 280608Z AUTO 17003KT 10SM BKN002 OVC060 18/17 A2999 RMK AO2=
201009280553 METAR KBLI 280553Z AUTO VRB03KT 10SM BKN006 BKN060 OVC080 18/17 A2999 RMK AO2 SLP159 60009 T01780167 10206 20178 58000=
201009280530 SPECI KBLI 280530Z AUTO 00000KT 10SM SCT008 BKN060 OVC100 18/17 A2998 RMK AO2=
201009280530 SPECI KBLI 280530Z AUTO 00000KT 10SM SCT008 BKN060 OVC100 18/17 A2998 RMK AO2=
201009280453 METAR KBLI 280453Z 00000KT 4SM BR SCT002 BKN006 OVC060 18/17 A2999 RMK AO2 RAE44 SLP161 P0002 T01830172=
201009280353 METAR KBLI 280353Z 00000KT 3SM RA BR FEW002 OVC008 18/17 A2999 RMK AO2 RAE05B34 SLP160 P0004 T01830172=
201009280350 SPECI KBLI 280350Z 00000KT 4SM RA BR FEW002 OVC008 18/17 A2999 RMK AO2 RAE05B34 P0003=
201009280350 SPECI KBLI 280350Z 00000KT 4SM RA BR FEW002 OVC008 18/17 A2999 RMK AO2 RAE05B34 P0003=
201009280253 METAR KBLI 280253Z 00000KT 9SM -RA FEW022 BKN034 OVC085 19/18 A2996 RMK AO2 RAB22 SLP151 P0002 60003 T01890178 55004=
201009280204 SPECI KBLI 280204Z 00000KT 10SM BKN026 BKN031 OVC070 19/18 A2995 RMK AO2=
201009280204 SPECI KBLI 280204Z 00000KT 10SM BKN026 BKN031 OVC070 19/18 A2995 RMK AO2=
201009280153 METAR KBLI 280153Z 00000KT 10SM SCT026 BKN031 OVC070 19/18 A2995 RMK AO2 RAE51 SLP148 P0001 T01940178=
201009280053 METAR KBLI 280053Z VRB03KT 10SM -RA BKN027 BKN033 OVC070 20/18 A2996 RMK AO2 RAB12 SLP149 P0000 T02000178=
201009272353 METAR KBLI 272353Z 17003KT 10SM BKN023 OVC032 21/17 A2997 RMK AO2 RAB40E49 SLP154 P0000 60000 T02060172 10228 20200 58009=
201009272253 METAR KBLI 272253Z 16004KT 10SM BKN023 OVC040 21/17 A2999 RMK AO2 SLP162 T02060167=
201009272153 METAR KBLI 272153Z 18007KT 10SM OVC021 21/16 A3000 RMK AO2 SLP164 T02060161=
201009272053 METAR KBLI 272053Z 18010G21KT 10SM OVC023 21/16 A3000 RMK AO2 SLP163 T02110161 51010=
201009272050 SPECI KBLI 272050Z 17010G21KT 10SM OVC023 21/16 A3000 RMK AO2=
201009272050 SPECI KBLI 272050Z 17010G21KT 10SM OVC023 21/16 A3000 RMK AO2=
201009271953 METAR KBLI 271953Z 16012G21KT 10SM BKN030 OVC075 22/16 A2998 RMK AO2 SLP157 T02170161=
201009271853 METAR KBLI 271853Z 16010KT 10SM FEW028 OVC070 22/16 A2997 RMK AO2 SLP153 T02220156=
201009271753 METAR KBLI 271753Z 14016G22KT 10SM SCT028 OVC070 22/16 A2997 RMK AO2 SLP154 T02170156 10217 20161 55005=
201009271751 SPECI KBLI 271751Z 14015G22KT 10SM SCT028 OVC070 22/16 A2997 RMK AO2=
201009271751 SPECI KBLI 271751Z 14015G22KT 10SM SCT028 OVC070 22/16 A2997 RMK AO2=
201009271742 SPECI KBLI 271742Z 14011G18KT 10SM BKN028 OVC033 22/15 A2998 RMK AO2=
201009271742 SPECI KBLI 271742Z 14011G18KT 10SM BKN028 OVC033 22/15 A2998 RMK AO2=
201009271653 METAR KBLI 271653Z 14013G17KT 10SM SCT021 OVC030 21/16 A2998 RMK AO2 SLP157 T02110161=
201009271638 SPECI KBLI 271638Z 12008KT 10SM SCT021 OVC030 21/16 A2998 RMK AO2=
201009271638 SPECI KBLI 271638Z 12008KT 10SM SCT021 OVC030 21/16 A2998 RMK AO2=
201009271553 METAR KBLI 271553Z 15009KT 10SM BKN021 BKN026 OVC070 19/16 A2999 RMK AO2 SLP161 T01940156=
201009271550 SPECI KBLI 271550Z 16010G15KT 10SM BKN021 BKN026 OVC070 19/16 A2999 RMK AO2=
201009271550 SPECI KBLI 271550Z 16010G15KT 10SM BKN021 BKN026 OVC070 19/16 A2999 RMK AO2=
201009271453 METAR KBLI 271453Z 18004KT 10SM SCT020 OVC075 18/16 A2999 RMK AO2 SLP162 T01780156 58003=
201009271353 METAR KBLI 271353Z 14009KT 10SM FEW019 16/14 A2999 RMK AO2 SLP161 T01610144=
201009271336 SPECI KBLI 271336Z AUTO 16007KT 10SM FEW012 SCT018 BKN022 17/15 A3001 RMK AO2=
201009271336 SPECI KBLI 271336Z AUTO 16007KT 10SM FEW012 SCT018 BKN022 17/15 A3001 RMK AO2=
201009271253 METAR KBLI 271253Z AUTO 15006KT 10SM BKN014 OVC022 16/15 A3001 RMK AO2 SLP168 T01610150=
201009271153 METAR KBLI 271153Z AUTO 17006KT 10SM BKN016 BKN020 OVC027 17/15 A3000 RMK AO2 RAB30E39 SLP165 P0000 60000 70004 T01670150 10178 20161 53006=
201009271133 SPECI KBLI 271133Z AUTO 17006KT 10SM -RA BKN014 BKN023 OVC042 17/16 A3000 RMK AO2 RAB30 P0000=
201009271133 SPECI KBLI 271133Z AUTO 17006KT 10SM -RA BKN014 BKN023 OVC042 17/16 A3000 RMK AO2 RAB30 P0000=
201009271053 METAR KBLI 271053Z AUTO 19004KT 10SM BKN021 BKN029 OVC048 17/16 A2999 RMK AO2 SLP162 T01720156=
201009271038 SPECI KBLI 271038Z AUTO 19003KT 10SM BKN023 BKN031 OVC050 18/16 A2999 RMK AO2=
201009271038 SPECI KBLI 271038Z AUTO 19003KT 10SM BKN023 BKN031 OVC050 18/16 A2999 RMK AO2=
201009270953 METAR KBLI 270953Z AUTO 00000KT 7SM FEW022 BKN035 OVC042 17/16 A2999 RMK AO2 SLP160 T01670156=
201009270945 SPECI KBLI 270945Z AUTO 00000KT 7SM SCT020 BKN035 OVC050 17/16 A2999 RMK AO2=
201009270945 SPECI KBLI 270945Z AUTO 00000KT 7SM SCT020 BKN035 OVC050 17/16 A2999 RMK AO2=
201009270901 SPECI KBLI 270901Z AUTO 00000KT 8SM SCT002 BKN020 OVC033 17/16 A2999 RMK AO2=
201009270901 SPECI KBLI 270901Z AUTO 00000KT 8SM SCT002 BKN020 OVC033 17/16 A2999 RMK AO2=
201009270853 METAR KBLI 270853Z AUTO 36003KT 8SM BKN020 BKN027 OVC033 17/16 A2998 RMK AO2 SLP158 60000 T01670156 50000=
201009270811 SPECI KBLI 270811Z AUTO 00000KT 9SM FEW007 BKN022 OVC032 17/15 A2999 RMK AO2=
201009270811 SPECI KBLI 270811Z AUTO 00000KT 9SM FEW007 BKN022 OVC032 17/15 A2999 RMK AO2=
201009270803 SPECI KBLI 270803Z AUTO 00000KT 9SM SCT005 BKN032 OVC040 17/15 A2999 RMK AO2=
201009270803 SPECI KBLI 270803Z AUTO 00000KT 9SM SCT005 BKN032 OVC040 17/15 A2999 RMK AO2=
201009270753 METAR KBLI 270753Z AUTO 35003KT 9SM SCT005 BKN018 OVC034 17/15 A2999 RMK AO2 RAB07E41 SLP160 P0000 T01670150 401780156=
201009270744 SPECI KBLI 270744Z AUTO 00000KT 10SM BKN005 BKN014 OVC030 17/15 A2999 RMK AO2 RAB07E41 CIG 004V008 P0000=
201009270744 SPECI KBLI 270744Z AUTO 00000KT 10SM BKN005 BKN014 OVC030 17/15 A2999 RMK AO2 RAB07E41 CIG 004V008 P0000=
201009270722 SPECI KBLI 270722Z AUTO 00000KT 8SM -RA SCT005 OVC019 17/15 A2999 RMK AO2 RAB07 P0000=
201009270722 SPECI KBLI 270722Z AUTO 00000KT 8SM -RA SCT005 OVC019 17/15 A2999 RMK AO2 RAB07 P0000=
201009270653 METAR KBLI 270653Z AUTO 00000KT 10SM OVC021 17/15 A2998 RMK AO2 SLP159 T01670150=
201009270553 METAR KBLI 270553Z AUTO 00000KT 10SM OVC021 16/15 A2998 RMK AO2 RAE01 SLP158 P0000 60000 T01610150 10172 20161 52000=
201009270531 SPECI KBLI 270531Z AUTO 00000KT 10SM BKN019 OVC027 16/15 A2998 RMK AO2 RAE01 P0000=
201009270531 SPECI KBLI 270531Z AUTO 00000KT 10SM BKN019 OVC027 16/15 A2998 RMK AO2 RAE01 P0000=
201009270503 SPECI KBLI 270503Z 00000KT 1 1/2SM BR SCT002 SCT014 OVC022 16/15 A2998 RMK AO2 RAE01 P0000=
201009270503 SPECI KBLI 270503Z 00000KT 1 1/2SM BR SCT002 SCT014 OVC022 16/15 A2998 RMK AO2 RAE01 P0000=
201009270453 METAR KBLI 270453Z 00000KT 1 1/2SM -RA BR SCT002 BKN014 OVC024 16/16 A2998 RMK AO2 RAB52 SLP158 P0000 T01610156=
201009270419 SPECI KBLI 270419Z 00000KT 1 1/2SM BR BKN002 OVC022 17/16 A2998 RMK AO2=
201009270419 SPECI KBLI 270419Z 00000KT 1 1/2SM BR BKN002 OVC022 17/16 A2998 RMK AO2=
201009270353 METAR KBLI 270353Z 00000KT 3/4SM R16/P6000FT BR BKN002 BKN020 OVC050 17/16 A2998 RMK AO2 SLP158 T01670156=
201009270351 SPECI KBLI 270351Z 14003KT 3/4SM R16/P6000FT BR BKN002 BKN020 OVC050 17/16 A2998 RMK AO2=
201009270351 SPECI KBLI 270351Z 14003KT 3/4SM R16/P6000FT BR BKN002 BKN020 OVC050 17/16 A2998 RMK AO2=
201009270336 SPECI KBLI 270336Z 14003KT 3/4SM R16/3000VP6000FT BR FEW002 BKN024 BKN055 17/16 A2998 RMK AO2=
201009270336 SPECI KBLI 270336Z 14003KT 3/4SM R16/3000VP6000FT BR FEW002 BKN024 BKN055 17/16 A2998 RMK AO2=
201009270325 SPECI KBLI 270325Z 16003KT 1/2SM R16/2800VP6000FT FG FEW002 BKN024 BKN055 17/15 A2998 RMK AO2=
201009270325 SPECI KBLI 270325Z 16003KT 1/2SM R16/2800VP6000FT FG FEW002 BKN024 BKN055 17/15 A2998 RMK AO2=
201009270313 SPECI KBLI 270313Z 00000KT 10SM FEW002 BKN024 BKN055 17/15 A2998 RMK AO2=
201009270313 SPECI KBLI 270313Z 00000KT 10SM FEW002 BKN024 BKN055 17/15 A2998 RMK AO2=
201009270300 SPECI KBLI 270300Z 17003KT 10SM BKN024 BKN060 OVC080 17/15 A2998 RMK AO2=
201009270300 SPECI KBLI 270300Z 17003KT 10SM BKN024 BKN060 OVC080 17/15 A2998 RMK AO2=
201009270253 METAR KBLI 270253Z 17003KT 10SM SCT024 BKN060 BKN075 17/15 A2998 RMK AO2 SLP158 T01670150 50002=
201009270153 METAR KBLI 270153Z 18003KT 10SM BKN024 OVC049 17/16 A2998 RMK AO2 SLP157 T01720156=
201009270121 SPECI KBLI 270121Z 18005KT 10SM SCT003 BKN012 OVC039 17/16 A2998 RMK AO2=
201009270121 SPECI KBLI 270121Z 18005KT 10SM SCT003 BKN012 OVC039 17/16 A2998 RMK AO2=
201009270053 METAR KBLI 270053Z 17006KT 10SM BKN005 BKN010 OVC055 17/16 A2997 RMK AO2 SLP156 VIS SE-W 1 1/2 T01720161=
201009262353 METAR KBLI 262353Z 18005KT 10SM BKN005 OVC010 17/16 A2997 RMK AO2 SLP155 VIS NE-S 2 60001 T01720156 10178 20167 50001=
201009262322 SPECI KBLI 262322Z 17007KT 10SM BKN005 OVC010 17/16 A2998 RMK AO2 VIS=
201009262322 SPECI KBLI 262322Z 17007KT 10SM BKN005 OVC010 17/16 A2998 RMK AO2 VIS NE-S 2=
201009262253 METAR KBLI 262253Z 17006KT 10SM SCT005 BKN025 BKN070 18/16 A2998 RMK AO2 SLP157 P0001 T01780156=
201009262233 SPECI KBLI 262233Z 18007KT 10SM SCT005 BKN025 OVC033 18/16 A2997 RMK AO2 P0001=
201009262233 SPECI KBLI 262233Z 18007KT 10SM SCT005 BKN025 OVC033 18/16 A2997 RMK AO2 P0001=
201009262153 METAR KBLI 262153Z 17005KT 10SM BKN007 BKN013 OVC020 18/16 A2997 RMK AO2 SLP154 T01780156=
201009262139 SPECI KBLI 262139Z 17006KT 9SM SCT007 BKN013 OVC021 18/16 A2997 RMK AO2=
201009262139 SPECI KBLI 262139Z 17006KT 9SM SCT007 BKN013 OVC021 18/16 A2997 RMK AO2=
201009262053 METAR KBLI 262053Z 18006KT 10SM SCT013 BKN019 OVC031 17/15 A2998 RMK AO2 SLP157 T01720150 53004=
201009261953 METAR KBLI 261953Z VRB05KT 10SM SCT003 BKN018 OVC032 17/16 A2996 RMK AO2 SLP152 T01720156=
201009261935 SPECI KBLI 261935Z 18007KT 3SM BR BKN003 OVC030 17/16 A2996 RMK AO2=
201009261935 SPECI KBLI 261935Z 18007KT 3SM BR BKN003 OVC030 17/16 A2996 RMK AO2=
201009261853 METAR KBLI 261853Z 18007KT 3/4SM R16/P6000FT BR OVC003 17/16 A2996 RMK AO2 SLP153 T01670156=
201009261807 SPECI KBLI 261807Z 17010KT 1SM R16/P6000FT BR BKN003 BKN031 OVC039 17/16 A2995 RMK AO2=
201009261807 SPECI KBLI 261807Z 17010KT 1SM R16/P6000FT BR BKN003 BKN031 OVC039 17/16 A2995 RMK AO2=
201009261759 SPECI KBLI 261759Z 17008KT 1SM R16/P6000FT BR SCT003 BKN007 OVC039 17/15 A2995 RMK AO2 CIG 006V010=
201009261759 SPECI KBLI 261759Z 17008KT 1SM R16/P6000FT BR SCT003 BKN007 OVC039 17/15 A2995 RMK AO2 CIG 006V010=
201009261753 METAR KBLI 261753Z 17009KT 2SM BR SCT003 BKN017 OVC039 17/15 A2995 RMK AO2 SLP148 60003 T01670150 10167 20156 53017=
201009261749 SPECI KBLI 261749Z 17010KT 2SM BR BKN003 BKN017 OVC031 17/15 A2995 RMK AO2 CIG 002V010=
201009261749 SPECI KBLI 261749Z 17010KT 2SM BR BKN003 BKN017 OVC031 17/15 A2995 RMK AO2 CIG 002V010=
201009261729 SPECI KBLI 261729Z 17009KT 3SM BR FEW003 BKN015 OVC020 16/15 A2994 RMK AO2=
201009261729 SPECI KBLI 261729Z 17009KT 3SM BR FEW003 BKN015 OVC020 16/15 A2994 RMK AO2=
201009261716 SPECI KBLI 261716Z 17011KT 2SM BR FEW005 SCT010 OVC015 16/15 A2994 RMK AO2=
201009261716 SPECI KBLI 261716Z 17011KT 2SM BR FEW005 SCT010 OVC015 16/15 A2994 RMK AO2=
201009261705 SPECI KBLI 261705Z 17010KT 2SM BR BKN010 OVC014 16/15 A2994 RMK AO2 CIG 006V012=
201009261705 SPECI KBLI 261705Z 17010KT 2SM BR BKN010 OVC014 16/15 A2994 RMK AO2 CIG 006V012=
201009261653 METAR KBLI 261653Z 17010KT 2SM BR BKN007 OVC014 16/15 A2993 RMK AO2 RAE1554B25E34 CIG 004V011 SLP140 P0000 T01610150=
201009261630 SPECI KBLI 261630Z 17009KT 2SM -RA BR FEW004 BKN009 OVC012 16/15 A2992 RMK AO2 RAE1554B25 CIG 007V012 P0000=
201009261630 SPECI KBLI 261630Z 17009KT 2SM -RA BR FEW004 BKN009 OVC012 16/15 A2992 RMK AO2 RAE1554B25 CIG 007V012 P0000=
201009261613 SPECI KBLI 261613Z 17008KT 1SM R16/P6000FT BR SCT001 BKN014 OVC021 16/15 A2992 RMK AO2 RAE1554=
201009261613 SPECI KBLI 261613Z 17008KT 1SM R16/P6000FT BR SCT001 BKN014 OVC021 16/15 A2992 RMK AO2 RAE1554=
201009261553 METAR KBLI 261553Z 18007KT 1/2SM R16/6000VP6000FT -RA FG OVC001 16/15 A2991 RMK AO2 SLP133 P0000 T01610150=
201009261538 SPECI KBLI 261538Z 19005KT 1/2SM R16/P6000FT -RA FG BKN001 OVC008 16/14 A2991 RMK AO2 P0000=
201009261538 SPECI KBLI 261538Z 19005KT 1/2SM R16/P6000FT -RA FG BKN001 OVC008 16/14 A2991 RMK AO2 P0000=
201009261524 SPECI KBLI 261524Z 17007KT 1 1/2SM -RA BR BKN003 OVC008 16/14 A2991 RMK AO2 P0000=
201009261524 SPECI KBLI 261524Z 17007KT 1 1/2SM -RA BR BKN003 OVC008 16/14 A2991 RMK AO2 P0000=
201009261519 SPECI KBLI 261519Z 17006KT 5SM -RA BR SCT003 BKN008 OVC014 16/14 A2991 RMK AO2 CIG 006V010 P0000=
201009261519 SPECI KBLI 261519Z 17006KT 5SM -RA BR SCT003 BKN008 OVC014 16/14 A2991 RMK AO2 CIG 006V010 P0000=
201009261510 SPECI KBLI 261510Z 17008KT 10SM -RA BKN010 OVC016 16/14 A2991 RMK AO2 CIG 006V012 P0000=
201009261510 SPECI KBLI 261510Z 17008KT 10SM -RA BKN010 OVC016 16/14 A2991 RMK AO2 CIG 006V012 P0000=
201009261453 METAR KBLI 261453Z 18006KT 9SM -RA OVC018 16/14 A2990 RMK AO2 RAB33 SLP130 P0000 60003 T01610144 53013=
201009261353 METAR KBLI 261353Z 00000KT 10SM OVC022 16/14 A2988 RMK AO2 RAE34 SLP124 P0001 T01560144=
201009261253 METAR KBLI 261253Z AUTO 19005KT 10SM -RA BKN025 BKN065 OVC090 16/14 A2987 RMK AO2 SLP118 P0002 T01560144=
201009261237 SPECI KBLI 261237Z AUTO 18006KT 10SM -RA BKN025 BKN048 OVC100 16/14 A2987 RMK AO2 P0002=
201009261237 SPECI KBLI 261237Z AUTO 18006KT 10SM -RA BKN025 BKN048 OVC100 16/14 A2987 RMK AO2 P0002=
201009261224 SPECI KBLI 261224Z AUTO 17008KT 10SM -RA SCT027 BKN047 OVC100 16/14 A2986 RMK AO2 P0002=
201009261224 SPECI KBLI 261224Z AUTO 17008KT 10SM -RA SCT027 BKN047 OVC100 16/14 A2986 RMK AO2 P0002=
201009261153 METAR KBLI 261153Z AUTO 17007KT 10SM -RA BKN027 OVC055 16/14 A2986 RMK AO2 SLP117 P0013 60048 70049 T01610144 10178 20156 55014=
201009261144 SPECI KBLI 261144Z AUTO 19005KT 7SM RA BKN027 BKN032 OVC060 16/14 A2988 RMK AO2 P0012=
201009261144 SPECI KBLI 261144Z AUTO 19005KT 7SM RA BKN027 BKN032 OVC060 16/14 A2988 RMK AO2 P0012=
201009261053 METAR KBLI 261053Z AUTO 18008KT 10SM RA FEW031 BKN080 OVC090 17/14 A2985 RMK AO2 SLP113 P0004 T01670139=
201009260953 METAR KBLI 260953Z AUTO 14011G18KT 10SM -RA BKN060 OVC100 17/14 A2985 RMK AO2 PRESFR SLP112 P0008 T01670144=
201009260931 SPECI KBLI 260931Z AUTO 00000KT 9SM -RA OVC036 16/14 A2988 RMK AO2 PRESFR P0008=
201009260931 SPECI KBLI 260931Z AUTO 00000KT 9SM -RA OVC036 16/14 A2988 RMK AO2 PRESFR P0008=
201009260914 SPECI KBLI 260914Z AUTO 24004KT 5SM RA BR BKN029 OVC075 16/14 A2991 RMK AO2 P0005=
201009260914 SPECI KBLI 260914Z AUTO 24004KT 5SM RA BR BKN029 OVC075 16/14 A2991 RMK AO2 P0005=
201009260853 METAR KBLI 260853Z AUTO VRB03KT 6SM RA BR BKN035 OVC090 16/14 A2990 RMK AO2 SLP131 P0009 60023 T01610144 55002=
201009260753 METAR KBLI 260753Z AUTO 16006KT 7SM RA FEW037 SCT050 OVC065 16/14 A2990 RMK AO2 SLP130 P0013 T01610139 402280106 TSNO=
201009260653 METAR KBLI 260653Z AUTO 14004KT 10SM -RA SCT055 BKN080 OVC100 17/14 A2988 RMK AO2 RAB33 SLP123 P0001 T01670139 TSNO=
201009260553 METAR KBLI 260553Z AUTO 00000KT 10SM FEW037 OVC090 16/14 A2991 RMK AO2 RAB20E43 SLP134 P0001 60001 T01610139 10222 20161 50023 TSNO=
201009260453 METAR KBLI 260453Z 25009G27KT 10SM BKN085 BKN110 21/12 A2991 RMK AO2 PK WND 16031/0421 PRESRR SLP134 T02110117=
201009260353 METAR KBLI 260353Z 15017G30KT 10SM CLR 22/12 A2984 RMK AO2 PK WND 14031/0312 SLP111 T02170117=
201009260253 METAR KBLI 260253Z 15016G25KT 10SM CLR 22/12 A2984 RMK AO2 PK WND 15031/0158 SLP111 T02220122 56020=
201009260153 METAR KBLI 260153Z 16016G27KT 10SM SCT120 22/12 A2986 RMK AO2 PK WND 15030/0140 SLP116 T02220117=
201009260053 METAR KBLI 260053Z 16014G22KT 10SM CLR 22/12 A2987 RMK AO2 SLP120 T02170117=
201009252353 METAR KBLI 252353Z 17010G19KT 10SM CLR 22/12 A2990 RMK AO2 SLP131 T02170117 10228 20194 56015=
201009252253 METAR KBLI 252253Z 16010G16KT 10SM CLR 22/11 A2991 RMK AO2 SLP134 T02170111=
201009252153 METAR KBLI 252153Z 17010G20KT 130V200 10SM CLR 22/11 A2992 RMK AO2 SLP139 T02220111=
201009252053 METAR KBLI 252053Z 18009G17KT 10SM CLR 22/11 A2994 RMK AO2 SLP146 T02170111 55008=
201009251953 METAR KBLI 251953Z 17012G19KT 10SM CLR 22/11 A2994 RMK AO2 SLP145 T02220106=
201009251853 METAR KBLI 251853Z 16011G25KT 10SM CLR 23/09 A2995 RMK AO2 SLP147 T02280094=
201009251753 METAR KBLI 251753Z 32004KT 10SM CLR 19/13 A2997 RMK AO2 SLP154 T01940133 10194 20106 58017=
201009251653 METAR KBLI 251653Z 35004KT 10SM CLR 16/12 A2998 RMK AO2 SLP159 T01610117=
201009251553 METAR KBLI 251553Z 00000KT 10SM CLR 13/11 A3000 RMK AO2 SLP167 T01280106=
201009251453 METAR KBLI 251453Z 34003KT 10SM CLR 12/10 A3002 RMK AO2 SLP172 T01170100 58004=
201009251353 METAR KBLI 251353Z 00000KT 10SM CLR 11/09 A3003 RMK AO2 SLP175 T01110094=
201009251253 METAR KBLI 251253Z AUTO 31003KT 10SM CLR 11/09 A3003 RMK AO2 SLP174 T01060094=
201009251153 METAR KBLI 251153Z AUTO 00000KT 10SM CLR 12/11 A3003 RMK AO2 SLP175 70001 T01220106 10133 20117 58009=
201009251053 METAR KBLI 251053Z AUTO 33003KT 10SM OVC120 13/11 A3004 RMK AO2 SLP180 T01280106=
201009250953 METAR KBLI 250953Z AUTO 00000KT 10SM OVC110 13/11 A3005 RMK AO2 SLP182 T01280106=
201009250853 METAR KBLI 250853Z AUTO 35004KT 10SM FEW095 BKN120 13/11 A3006 RMK AO2 SLP185 T01280111 58003=
201009250753 METAR KBLI 250753Z AUTO 35003KT 10SM OVC120 13/11 A3006 RMK AO2 SLP187 T01280111 401830106=
201009250653 METAR KBLI 250653Z AUTO 34003KT 10SM OVC100 13/11 A3007 RMK AO2 SLP189 T01280111=
201009250553 METAR KBLI 250553Z AUTO 35004KT 10SM OVC085 13/11 A3007 RMK AO2 SLP188 T01330111 10183 20133 56007=
201009250453 METAR KBLI 250453Z 35003KT 10SM FEW080 13/11 A3007 RMK AO2 SLP190 T01330111=
201009250353 METAR KBLI 250353Z 02003KT 10SM OVC075 14/12 A3008 RMK AO2 SLP192 T01390117=
201009250253 METAR KBLI 250253Z 00000KT 10SM BKN090 BKN110 14/11 A3009 RMK AO2 SLP195 T01440111 58004=
201009250153 METAR KBLI 250153Z 00000KT 10SM BKN065 OVC110 15/12 A3009 RMK AO2 SLP197 T01500122=
201009250053 METAR KBLI 250053Z 35003KT 10SM OVC065 17/12 A3010 RMK AO2 SLP199 T01670122=
201009242353 METAR KBLI 242353Z VRB05KT 10SM OVC065 18/10 A3010 RMK AO2 SLP198 60001 T01830100 10183 20133 56008=
201009242253 METAR KBLI 242253Z VRB04KT 10SM OVC070 16/12 A3011 RMK AO2 SLP201 T01610122=
201009242153 METAR KBLI 242153Z VRB03KT 10SM SCT045 BKN070 17/12 A3011 RMK AO2 SLP201 T01670122=
201009242053 METAR KBLI 242053Z 03004KT 10SM OVC075 15/12 A3012 RMK AO2 SLP206 60001 T01500122 50002=
201009241953 METAR KBLI 241953Z 04003KT 10SM FEW055 OVC075 14/12 A3013 RMK AO2 RAE22B38E52 SLP211 P0001 T01440117=
201009241853 METAR KBLI 241853Z 36003KT 10SM -RA FEW041 BKN085 14/12 A3012 RMK AO2 RAB1756 SLP208 P0000 T01390117=
201009241753 METAR KBLI 241753Z 01005KT 10SM SCT060 BKN075 14/11 A3012 RMK AO2 SLP205 T01390111 10139 20106 53004=
201009241653 METAR KBLI 241653Z 02004KT 10SM FEW095 13/11 A3011 RMK AO2 SLP203 T01330111=
201009241553 METAR KBLI 241553Z 00000KT 10SM CLR 13/11 A3009 RMK AO2 SLP198 T01280106=
201009241453 METAR KBLI 241453Z 04004KT 10SM FEW028 12/11 A3010 RMK AO2 SLP200 T01170106 51010=
201009241353 METAR KBLI 241353Z AUTO 04004KT 10SM CLR 12/10 A3010 RMK AO2 SLP199 T01170100=
201009241253 METAR KBLI 241253Z AUTO 00000KT 10SM CLR 11/10 A3008 RMK AO2 SLP194 T01110100=
201009241153 METAR KBLI 241153Z AUTO 16004KT 10SM OVC120 13/11 A3007 RMK AO2 SLP190 60007 70015 T01280106 10133 20117 53009=
201009241053 METAR KBLI 241053Z AUTO 15004KT 10SM FEW120 12/11 A3005 RMK AO2 SLP183 T01220106=
201009240953 METAR KBLI 240953Z AUTO 17005KT 10SM FEW016 SCT100 13/11 A3005 RMK AO2 SLP181 T01280106=
201009240943 SPECI KBLI 240943Z AUTO 16005KT 10SM SCT016 BKN100 13/11 A3005 RMK AO2=
201009240943 SPECI KBLI 240943Z AUTO 16005KT 10SM SCT016 BKN100 13/11 A3005 RMK AO2=
201009240920 SPECI KBLI 240920Z AUTO 16008KT 10SM BKN016 OVC060 13/11 A3005 RMK AO2=
201009240920 SPECI KBLI 240920Z AUTO 16008KT 10SM BKN016 OVC060 13/11 A3005 RMK AO2=
201009240853 METAR KBLI 240853Z AUTO 16007KT 10SM FEW047 BKN060 13/11 A3004 RMK AO2 RAE0755 SLP181 P0000 60007 T01330111 51010=
201009240753 METAR KBLI 240753Z AUTO 16007KT 10SM -RA BKN048 BKN060 OVC075 13/11 A3003 RMK AO2 SLP177 P0004 T01330111 401560128=
201009240653 METAR KBLI 240653Z AUTO 19006KT 10SM -RA FEW047 OVC060 13/12 A3003 RMK AO2 SLP177 P0003 T01330117=
201009240629 SPECI KBLI 240629Z AUTO 17007G14KT 10SM -RA SCT014 SCT044 OVC060 13/12 A3002 RMK AO2 P0002=
201009240629 SPECI KBLI 240629Z AUTO 17007G14KT 10SM -RA SCT014 SCT044 OVC060 13/12 A3002 RMK AO2 P0002=
201009240553 METAR KBLI 240553Z AUTO 17008KT 10SM -RA OVC018 13/11 A3002 RMK AO2 SLP170 P0001 60008 T01330111 10139 20128 51018=
201009240542 SPECI KBLI 240542Z AUTO 18009KT 10SM -RA BKN018 OVC065 14/11 A3001 RMK AO2 P0001=
201009240542 SPECI KBLI 240542Z AUTO 18009KT 10SM -RA BKN018 OVC065 14/11 A3001 RMK AO2 P0001=
201009240453 METAR KBLI 240453Z 16008KT 10SM -RA OVC075 13/11 A2999 RMK AO2 SLP161 P0000 T01330111=
201009240353 METAR KBLI 240353Z 15013G18KT 10SM -RA SCT055 OVC070 13/11 A2999 RMK AO2 RAB00 SLP161 P0002 T01330111=
201009240253 METAR KBLI 240253Z 16005KT 10SM BKN065 BKN080 OVC100 13/11 A2996 RMK AO2 RAE48 SLP153 P0001 60005 T01330106 51009=
201009240153 METAR KBLI 240153Z 15010KT 10SM -RA OVC060 13/11 A2995 RMK AO2 SLP150 P0003 T01330106=
201009240053 METAR KBLI 240053Z 16007KT 9SM -RA BKN048 OVC065 13/11 A2995 RMK AO2 RAB08 SLP149 P0001 T01330106=
201009232353 METAR KBLI 232353Z 17011KT 10SM FEW022 14/09 A2993 RMK AO2 SLP142 60000 T01390094 10150 20133 53008=
201009232253 METAR KBLI 232253Z 16014G22KT 10SM FEW020 14/09 A2992 RMK AO2 SLP137 T01440094=
201009232242 SPECI KBLI 232242Z 16015G22KT 10SM FEW020 SCT036 BKN060 14/09 A2991 RMK AO2=
201009232242 SPECI KBLI 232242Z 16015G22KT 10SM FEW020 SCT036 BKN060 14/09 A2991 RMK AO2=
201009232153 METAR KBLI 232153Z 16015G22KT 10SM BKN018 OVC038 14/09 A2991 RMK AO2 SLP137 T01390089=
201009232053 METAR KBLI 232053Z 16014G20KT 10SM OVC020 13/09 A2991 RMK AO2 SLP135 60000 T01330089 53014=
201009232046 SPECI KBLI 232046Z 17014G21KT 10SM OVC022 13/09 A2991 RMK AO2=
201009232046 SPECI KBLI 232046Z 17014G21KT 10SM OVC022 13/09 A2991 RMK AO2=
201009231953 METAR KBLI 231953Z 16010G21KT 10SM OVC031 14/07 A2989 RMK AO2 RAE07 SLP129 P0000 T01440072=
201009231853 METAR KBLI 231853Z 16012G18KT 10SM -RA BKN039 OVC050 14/08 A2988 RMK AO2 RAB02 SLP125 P0000 T01390083=
201009231753 METAR KBLI 231753Z 16011G18KT 10SM OVC065 15/06 A2987 RMK AO2 RAE50 SLP119 P0000 60000 T01500061 10156 20139 53009=
201009231653 METAR KBLI 231653Z 15014G21KT 10SM -RA FEW060 BKN075 16/06 A2985 RMK AO2 RAB52 SLP114 P0000 T01560061=
201009231553 METAR KBLI 231553Z 15014G19KT 10SM OVC070 15/07 A2985 RMK AO2 RAE10 SLP114 P0000 T01500072=
201009231453 METAR KBLI 231453Z 16012G19KT 10SM -RA OVC070 14/09 A2984 RMK AO2 RAB24 SLP112 P0000 60000 T01390089 53007=
201009231353 METAR KBLI 231353Z 14012G19KT 10SM OVC080 14/07 A2983 RMK AO2 SLP107 T01440067=
201009231253 METAR KBLI 231253Z AUTO 16013G24KT 10SM OVC090 14/07 A2983 RMK AO2 SLP106 T01440072=
201009231153 METAR KBLI 231153Z AUTO 16015G23KT 10SM OVC100 14/08 A2982 RMK AO2 SLP103 T01440078 10144 20122 50004=
201009231053 METAR KBLI 231053Z AUTO 15010KT 10SM SCT080 14/11 A2982 RMK AO2 SLP103 T01440106=
201009230953 METAR KBLI 230953Z AUTO 17006KT 10SM BKN085 14/11 A2981 RMK AO2 SLP101 T01390111=
201009230853 METAR KBLI 230853Z AUTO 17004KT 10SM OVC039 13/11 A2981 RMK AO2 SLP099 T01330106 50000=
201009230753 METAR KBLI 230753Z AUTO 00000KT 10SM OVC090 13/10 A2980 RMK AO2 SLP098 T01280100 401940056=
201009230653 METAR KBLI 230653Z AUTO 00000KT 10SM OVC090 13/10 A2981 RMK AO2 SLP100 T01280100=
201009230553 METAR KBLI 230553Z AUTO 19005KT 10SM OVC090 13/10 A2981 RMK AO2 SLP100 T01330100 10183 20117 51004=
201009230453 METAR KBLI 230453Z 00000KT 10SM OVC090 13/11 A2980 RMK AO2 SLP099 T01280106=
201009230353 METAR KBLI 230353Z 00000KT 10SM OVC090 12/10 A2980 RMK AO2 SLP098 T01220100=
201009230253 METAR KBLI 230253Z 00000KT 10SM CLR 12/10 A2979 RMK AO2 SLP096 T01220100 56002=
201009230153 METAR KBLI 230153Z 00000KT 10SM CLR 13/11 A2979 RMK AO2 SLP096 T01330106=
201009230053 METAR KBLI 230053Z 00000KT 10SM CLR 17/10 A2980 RMK AO2 SLP096 T01720100=
201009222353 METAR KBLI 222353Z 28005KT 10SM CLR 18/09 A2980 RMK AO2 SLP098 T01780094 10194 20144 56011=
201009222253 METAR KBLI 222253Z 28007KT 10SM CLR 18/09 A2981 RMK AO2 SLP102 T01780094=
201009222153 METAR KBLI 222153Z 00000KT 10SM CLR 19/07 A2982 RMK AO2 SLP104 T01890072=
201009222053 METAR KBLI 222053Z 28004KT 10SM CLR 18/07 A2983 RMK AO2 SLP109 T01780067 56010=
201009221953 METAR KBLI 221953Z 02004KT 10SM CLR 17/08 A2985 RMK AO2 SLP113 T01720078=
201009221853 METAR KBLI 221853Z 35003KT 10SM CLR 16/08 A2985 RMK AO2 SLP114 T01610078=
201009221753 METAR KBLI 221753Z VRB03KT 10SM CLR 14/08 A2986 RMK AO2 SLP120 T01440078 10144 20056 58002=
201009221653 METAR KBLI 221653Z 04003KT 10SM CLR 13/08 A2987 RMK AO2 SLP122 T01280078=
201009221553 METAR KBLI 221553Z 02006KT 10SM CLR 10/07 A2987 RMK AO2 SLP121 T01000072=
201009221453 METAR KBLI 221453Z 34003KT 10SM CLR 08/06 A2987 RMK AO2 SLP121 T00780061 51004=
201009221353 METAR KBLI 221353Z 00000KT 9SM CLR 06/05 A2986 RMK AO2 SLP119 T00610050=
201009221253 METAR KBLI 221253Z AUTO 00000KT 10SM CLR 07/05 A2986 RMK AO2 SLP120 T00670050=
201009221153 METAR KBLI 221153Z AUTO 00000KT 10SM CLR 07/06 A2986 RMK AO2 SLP117 P0001 60001 70001 T00720056 10094 20061 55000=
201009221139 SPECI KBLI 221139Z AUTO 00000KT 2 1/2SM BR CLR 07/05 A2986 RMK AO2 VIS 1V5 P0001=
201009221139 SPECI KBLI 221139Z AUTO 00000KT 2 1/2SM BR CLR 07/05 A2986 RMK AO2 VIS 1V5 P0001=
201009221053 METAR KBLI 221053Z AUTO 00000KT 10SM CLR 07/06 A2985 RMK AO2 SLP116 T00720056=
201009220953 METAR KBLI 220953Z AUTO 00000KT 10SM CLR 07/06 A2985 RMK AO2 SLP117 T00720056=
201009220853 METAR KBLI 220853Z AUTO 00000KT 10SM CLR 08/06 A2986 RMK AO2 SLP118 T00830061 57001=
201009220753 METAR KBLI 220753Z AUTO 00000KT 10SM CLR 09/07 A2986 RMK AO2 SLP118 T00890067 401890083=
201009220653 METAR KBLI 220653Z AUTO 00000KT 10SM CLR 09/07 A2986 RMK AO2 SLP118 T00940067=
201009220553 METAR KBLI 220553Z AUTO 32005KT 10SM CLR 11/08 A2986 RMK AO2 SLP118 T01060078 10178 20089 50001=
201009220453 METAR KBLI 220453Z 00000KT 10SM CLR 10/08 A2987 RMK AO2 SLP120 T01000078=
201009220353 METAR KBLI 220353Z 00000KT 10SM CLR 11/08 A2986 RMK AO2 SLP118 T01060083=
201009220253 METAR KBLI 220253Z 31004KT 10SM CLR 12/09 A2986 RMK AO2 SLP118 T01220089 50000=
201009220153 METAR KBLI 220153Z 29007KT 10SM CLR 15/09 A2986 RMK AO2 SLP119 T01500089=
201009220053 METAR KBLI 220053Z 28006KT 10SM CLR 17/09 A2986 RMK AO2 SLP117 T01670094=
201009212353 METAR KBLI 212353Z 26005KT 10SM CLR 18/09 A2986 RMK AO2 SLP116 T01780089 10189 20133 56014=
201009212253 METAR KBLI 212253Z 02007KT 10SM CLR 19/06 A2987 RMK AO2 SLP120 T01890056=
201009212153 METAR KBLI 212153Z VRB05KT 10SM CLR 19/06 A2988 RMK AO2 SLP125 T01890056=
201009212053 METAR KBLI 212053Z 02004KT 10SM CLR 18/07 A2990 RMK AO2 SLP130 T01830072 56009=
201009211953 METAR KBLI 211953Z VRB03KT 10SM FEW032 17/08 A2991 RMK AO2 SLP133 T01670078=
201009211853 METAR KBLI 211853Z 04005KT 10SM CLR 15/09 A2991 RMK AO2 SLP136 T01500089=
201009211753 METAR KBLI 211753Z 00000KT 10SM FEW013 SCT038 13/10 A2993 RMK AO2 SLP140 60000 T01330100 10144 20106 50003=
201009211714 SPECI KBLI 211714Z 35004KT 10SM SCT016 OVC038 13/10 A2993 RMK AO2=
201009211714 SPECI KBLI 211714Z 35004KT 10SM SCT016 OVC038 13/10 A2993 RMK AO2=
201009211653 METAR KBLI 211653Z 01004KT 10SM BKN016 12/11 A2993 RMK AO2 SLP142 T01220106=
201009211629 SPECI KBLI 211629Z 34004KT 10SM BKN016 BKN023 OVC075 12/10 A2993 RMK AO2=
201009211629 SPECI KBLI 211629Z 34004KT 10SM BKN016 BKN023 OVC075 12/10 A2993 RMK AO2=
201009211553 METAR KBLI 211553Z 34003KT 10SM OVC070 11/09 A2992 RMK AO2 SLP140 T01110094=
201009211519 SPECI KBLI 211519Z 36003KT 10SM FEW003 SCT039 OVC070 11/09 A2992 RMK AO2=
201009211519 SPECI KBLI 211519Z 36003KT 10SM FEW003 SCT039 OVC070 11/09 A2992 RMK AO2=
201009211453 METAR KBLI 211453Z 00000KT 10SM BKN037 OVC070 11/09 A2992 RMK AO2 SLP137 60000 T01110094 53005=
201009211440 SPECI KBLI 211440Z 00000KT 10SM SCT018 OVC035 11/09 A2992 RMK AO2=
201009211440 SPECI KBLI 211440Z 00000KT 10SM SCT018 OVC035 11/09 A2992 RMK AO2=
201009211353 METAR KBLI 211353Z 00000KT 10SM BKN016 OVC031 11/09 A2990 RMK AO2 RAB26E50 SLP133 P0000 T01060094=
201009211253 METAR KBLI 211253Z AUTO 00000KT 10SM OVC016 11/09 A2990 RMK AO2 SLP132 T01110094=
201009211153 METAR KBLI 211153Z AUTO 00000KT 10SM OVC018 11/09 A2990 RMK AO2 RAB11E22 SLP132 P0000 60014 70028 T01110094 10128 20111 51003=
201009211124 SPECI KBLI 211124Z AUTO 36003KT 10SM BKN018 BKN030 OVC065 11/09 A2990 RMK AO2 RAB11E22 P0000=
201009211124 SPECI KBLI 211124Z AUTO 36003KT 10SM BKN018 BKN030 OVC065 11/09 A2990 RMK AO2 RAB11E22 P0000=
201009211053 METAR KBLI 211053Z AUTO 02003KT 10SM FEW031 BKN037 OVC065 11/10 A2990 RMK AO2 RAE52 SLP132 P0003 T01110100=
201009211012 SPECI KBLI 211012Z AUTO 05003KT 10SM -RA FEW022 SCT033 OVC060 11/10 A2990 RMK AO2 P0002=
201009211012 SPECI KBLI 211012Z AUTO 05003KT 10SM -RA FEW022 SCT033 OVC060 11/10 A2990 RMK AO2 P0002=
201009211005 SPECI KBLI 211005Z AUTO 06003KT 7SM -RA BKN022 BKN032 OVC055 11/10 A2990 RMK AO2 P0002=
201009211005 SPECI KBLI 211005Z AUTO 06003KT 7SM -RA BKN022 BKN032 OVC055 11/10 A2990 RMK AO2 P0002=
201009210953 METAR KBLI 210953Z AUTO 00000KT 6SM -RA BR SCT022 BKN030 OVC055 11/10 A2990 RMK AO2 SLP133 P0011 T01110100=
201009210905 SPECI KBLI 210905Z AUTO 02006KT 10SM -RA SCT019 BKN026 OVC070 12/09 A2990 RMK AO2 P0000=
201009210905 SPECI KBLI 210905Z AUTO 02006KT 10SM -RA SCT019 BKN026 OVC070 12/09 A2990 RMK AO2 P0000=
201009210853 METAR KBLI 210853Z AUTO 00000KT 10SM -RA SCT028 SCT034 OVC065 12/10 A2989 RMK AO2 RAB50 SLP130 P0000 60000 T01220100 51010=
201009210753 METAR KBLI 210753Z AUTO 17005KT 10SM FEW032 BKN080 12/10 A2989 RMK AO2 SLP127 T01220100 401670117=
201009210653 METAR KBLI 210653Z AUTO 18005KT 10SM OVC080 12/10 A2988 RMK AO2 SLP126 T01220100=
201009210553 METAR KBLI 210553Z AUTO 17007KT 10SM BKN080 13/10 A2986 RMK AO2 SLP119 T01280100 10161 20122 50006=
201009210453 METAR KBLI 210453Z 17007KT 10SM OVC080 13/09 A2987 RMK AO2 SLP119 T01330089=
201009210353 METAR KBLI 210353Z 17004KT 10SM OVC080 13/09 A2986 RMK AO2 SLP117 T01280094=
201009210253 METAR KBLI 210253Z 15005KT 10SM OVC080 13/09 A2985 RMK AO2 SLP113 T01330094 53006=
201009210153 METAR KBLI 210153Z 15005KT 10SM CLR 14/09 A2984 RMK AO2 SLP110 T01390094=
201009210053 METAR KBLI 210053Z 16006KT 10SM SCT080 15/10 A2983 RMK AO2 SLP108 T01500100=
201009202353 METAR KBLI 202353Z 16007KT 10SM OVC065 14/11 A2983 RMK AO2 SLP107 60003 T01440111 10167 20133 53008=
201009202253 METAR KBLI 202253Z 19007KT 10SM OVC070 14/11 A2982 RMK AO2 SLP103 T01440111=
201009202153 METAR KBLI 202153Z 18010KT 10SM OVC060 14/12 A2981 RMK AO2 RAB2059E42 SLP100 P0003 T01440117=
201009202053 METAR KBLI 202053Z 17012G18KT 10SM FEW040 OVC055 14/12 A2980 RMK AO2 RAB25E46 SLP098 P0000 60000 T01440117 51013=
201009201953 METAR KBLI 201953Z 15010KT 10SM BKN065 BKN080 17/12 A2980 RMK AO2 SLP096 T01670122=
201009201853 METAR KBLI 201853Z 17007KT 10SM SCT013 OVC065 15/12 A2979 RMK AO2 SLP093 T01500117=
201009201753 METAR KBLI 201753Z 18008KT 10SM SCT080 16/13 A2977 RMK AO2 SLP085 60011 T01610128 10161 20144 53013=
201009201653 METAR KBLI 201653Z 17010G16KT 10SM SCT060 OVC075 15/13 A2975 RMK AO2 SLP078 T01500128=
201009201553 METAR KBLI 201553Z 18007G15KT 10SM SCT060 SCT070 BKN090 15/13 A2974 RMK AO2 RAB1454E09 SLP076 P0000 T01500128=
201009201453 METAR KBLI 201453Z 17009KT 10SM FEW022 BKN050 OVC065 15/13 A2973 RMK AO2 RAB19E52 SLP072 P0003 60011 T01500128 52005=
201009201443 SPECI KBLI 201443Z 17009KT 10SM -RA FEW024 BKN050 OVC070 14/13 A2972 RMK AO2 RAB19 P0003=
201009201443 SPECI KBLI 201443Z 17009KT 10SM -RA FEW024 BKN050 OVC070 14/13 A2972 RMK AO2 RAB19 P0003=
201009201353 METAR KBLI 201353Z 17010KT 10SM BKN028 BKN039 OVC046 14/13 A2972 RMK AO2 RAE45 SLP069 P0008 T01440128=
201009201348 SPECI KBLI 201348Z 16009KT 10SM FEW013 BKN028 OVC040 14/13 A2972 RMK AO2 RAE45 P0008=
201009201348 SPECI KBLI 201348Z 16009KT 10SM FEW013 BKN028 OVC040 14/13 A2972 RMK AO2 RAE45 P0008=
201009201336 SPECI KBLI 201336Z AUTO 17009KT 9SM -RA SCT013 BKN030 OVC041 14/13 A2972 RMK AO2 P0008=
201009201336 SPECI KBLI 201336Z AUTO 17009KT 9SM -RA SCT013 BKN030 OVC041 14/13 A2972 RMK AO2 P0008=
201009201329 SPECI KBLI 201329Z AUTO 17009KT 7SM -RA BKN013 BKN024 OVC034 14/13 A2972 RMK AO2 P0008=
201009201329 SPECI KBLI 201329Z AUTO 17009KT 7SM -RA BKN013 BKN024 OVC034 14/13 A2972 RMK AO2 P0008=
201009201253 METAR KBLI 201253Z AUTO 17007G15KT 10SM -RA BKN017 OVC038 15/13 A2971 RMK AO2 RAB41 SLP067 P0000 T01500128=
201009201153 METAR KBLI 201153Z AUTO 17011G18KT 10SM OVC020 16/12 A2971 RMK AO2 SLP065 60002 70029 T01560122 10161 20156 55001=
201009201053 METAR KBLI 201053Z AUTO 17009G17KT 10SM OVC018 16/12 A2970 RMK AO2 RAE01 SLP062 P0000 T01560122=
201009200953 METAR KBLI 200953Z AUTO 15012G20KT 10SM -RA OVC022 16/12 A2971 RMK AO2 RAB00E20B45 SLP065 P0001 T01610122=
201009200932 SPECI KBLI 200932Z AUTO 15013G18KT 10SM BKN024 OVC075 16/12 A2970 RMK AO2 RAB00E20 P0001=
201009200932 SPECI KBLI 200932Z AUTO 15013G18KT 10SM BKN024 OVC075 16/12 A2970 RMK AO2 RAB00E20 P0001=
201009200900 SPECI KBLI 200900Z AUTO 16012G21KT 10SM -RA SCT024 SCT060 OVC075 16/12 A2971 RMK AO2 RAB00 P0000=
201009200900 SPECI KBLI 200900Z AUTO 16012G21KT 10SM -RA SCT024 SCT060 OVC075 16/12 A2971 RMK AO2 RAB00 P0000=
201009200853 METAR KBLI 200853Z AUTO 15015G21KT 10SM BKN024 OVC070 16/12 A2971 RMK AO2 SLP066 60001 T01610117 58005=
201009200753 METAR KBLI 200753Z AUTO 15010G16KT 10SM BKN026 OVC080 16/12 A2972 RMK AO2 RAE46 SLP069 P0000 T01610117 401940150=
201009200744 SPECI KBLI 200744Z AUTO 17008G16KT 10SM -RA BKN026 OVC075 16/12 A2972 RMK AO2 P0000=
201009200744 SPECI KBLI 200744Z AUTO 17008G16KT 10SM -RA BKN026 OVC075 16/12 A2972 RMK AO2 P0000=
201009200723 SPECI KBLI 200723Z AUTO 15009KT 10SM -RA FEW026 OVC070 16/12 A2971 RMK AO2 P0000=
201009200723 SPECI KBLI 200723Z AUTO 15009KT 10SM -RA FEW026 OVC070 16/12 A2971 RMK AO2 P0000=
201009200653 METAR KBLI 200653Z AUTO 16008KT 10SM -RA BKN026 OVC065 16/12 A2973 RMK AO2 RAB38 SLP072 P0001 T01560122=
201009200636 SPECI KBLI 200636Z AUTO 16007KT 10SM BKN026 OVC080 16/12 A2972 RMK AO2=
201009200636 SPECI KBLI 200636Z AUTO 16007KT 10SM BKN026 OVC080 16/12 A2972 RMK AO2=
201009200610 SPECI KBLI 200610Z AUTO 16007KT 10SM SCT028 OVC095 16/12 A2973 RMK AO2=
201009200610 SPECI KBLI 200610Z AUTO 16007KT 10SM SCT028 OVC095 16/12 A2973 RMK AO2=
201009200553 METAR KBLI 200553Z AUTO 16007KT 10SM BKN028 OVC095 16/12 A2972 RMK AO2 SLP071 60004 T01610122 10167 20156 51004=
201009200538 SPECI KBLI 200538Z AUTO 16010KT 10SM BKN026 OVC090 16/12 A2972 RMK AO2=
201009200538 SPECI KBLI 200538Z AUTO 16010KT 10SM BKN026 OVC090 16/12 A2972 RMK AO2=
201009200512 SPECI KBLI 200512Z 16008KT 10SM SCT023 BKN043 OVC085 16/12 A2972 RMK AO2=
201009200512 SPECI KBLI 200512Z 16008KT 10SM SCT023 BKN043 OVC085 16/12 A2972 RMK AO2=
201009200453 METAR KBLI 200453Z 15009KT 10SM BKN023 OVC041 16/13 A2972 RMK AO2 SLP071 T01610133=
201009200353 METAR KBLI 200353Z 16006KT 10SM BKN029 OVC040 16/14 A2972 RMK AO2 SLP069 T01560139=
201009200253 METAR KBLI 200253Z 00000KT 10SM OVC032 16/14 A2971 RMK AO2 SLP068 60004 T01560139 53006=
201009200153 METAR KBLI 200153Z 00000KT 10SM OVC038 16/14 A2970 RMK AO2 RAE07 SLP064 P0000 T01560144=
201009200053 METAR KBLI 200053Z 17005KT 10SM -RA OVC040 16/14 A2970 RMK AO2 SLP062 P0004 T01560139=
201009192353 METAR KBLI 192353Z 17008KT 10SM -RA SCT045 SCT065 BKN090 17/14 A2970 RMK AO2 RAE2258B34 SLP062 P0000 60023 T01670139 10178 20150 51002=
201009192253 METAR KBLI 192253Z 17006KT 10SM -RA OVC045 17/14 A2970 RMK AO2 RAB47 SLP062 P0000 T01720139=
201009192153 METAR KBLI 192153Z 16007KT 10SM BKN045 OVC055 17/13 A2970 RMK AO2 SLP063 T01670133=
201009192053 METAR KBLI 192053Z 16005KT 10SM BKN055 OVC090 17/14 A2969 RMK AO2 RAE36 SLP059 P0002 60023 T01720144 51012=
201009192023 SPECI KBLI 192023Z 16005KT 10SM -RA FEW003 BKN032 BKN080 16/14 A2968 RMK AO2 P0002=
201009192023 SPECI KBLI 192023Z 16005KT 10SM -RA FEW003 BKN032 BKN080 16/14 A2968 RMK AO2 P0002=
201009192014 SPECI KBLI 192014Z 15007KT 10SM -RA SCT003 BKN025 BKN042 16/14 A2968 RMK AO2 P0002=
201009192014 SPECI KBLI 192014Z 15007KT 10SM -RA SCT003 BKN025 BKN042 16/14 A2968 RMK AO2 P0002=
201009191953 METAR KBLI 191953Z 17007KT 9SM -RA BKN003 OVC043 15/14 A2968 RMK AO2 SLP056 P0011 T01500139=
201009191936 SPECI KBLI 191936Z 16007KT 9SM -RA FEW003 OVC043 15/14 A2968 RMK AO2 P0010=
201009191936 SPECI KBLI 191936Z 16007KT 9SM -RA FEW003 OVC043 15/14 A2968 RMK AO2 P0010=
201009191926 SPECI KBLI 191926Z 00000KT 2SM -RA BR BKN040 OVC047 15/14 A2967 RMK AO2 P0009=
201009191926 SPECI KBLI 191926Z 00000KT 2SM -RA BR BKN040 OVC047 15/14 A2967 RMK AO2 P0009=
201009191853 METAR KBLI 191853Z 22004KT 2SM +RA BR SCT014 BKN028 OVC047 16/13 A2967 RMK AO2 RAB09 SLP054 P0010 T01560133=
201009191851 SPECI KBLI 191851Z 24007KT 210V280 2 1/2SM RA BR SCT014 BKN028 OVC047 16/13 A2967 RMK AO2 RAB09 P0008=
201009191851 SPECI KBLI 191851Z 24007KT 210V280 2 1/2SM RA BR SCT014 BKN028 OVC047 16/13 A2967 RMK AO2 RAB09 P0008=
201009191824 SPECI KBLI 191824Z VRB03KT 10SM -RA BKN014 BKN019 OVC024 16/14 A2967 RMK AO2 RAB09 P0000=
201009191824 SPECI KBLI 191824Z VRB03KT 10SM -RA BKN014 BKN019 OVC024 16/14 A2967 RMK AO2 RAB09 P0000=
201009191807 SPECI KBLI 191807Z 19006G16KT 10SM FEW013 BKN023 OVC035 17/14 A2966 RMK AO2=
201009191807 SPECI KBLI 191807Z 19006G16KT 10SM FEW013 BKN023 OVC035 17/14 A2966 RMK AO2=
201009191753 METAR KBLI 191753Z 18010G16KT 10SM FEW022 SCT027 OVC037 18/14 A2965 RMK AO2 SLP047 60000 T01780139 10194 20172 55000=
201009191653 METAR KBLI 191653Z 15012G17KT 10SM FEW023 BKN029 OVC036 18/14 A2964 RMK AO2 SLP043 T01780139=
201009191638 SPECI KBLI 191638Z 16012G18KT 10SM FEW024 SCT029 OVC037 18/14 A2964 RMK AO2=
201009191638 SPECI KBLI 191638Z 16012G18KT 10SM FEW024 SCT029 OVC037 18/14 A2964 RMK AO2=
201009191553 METAR KBLI 191553Z 16011G17KT 10SM BKN020 OVC027 18/14 A2965 RMK AO2 RAB06E19 SLP046 P0000 T01780144=
201009191533 SPECI KBLI 191533Z 15013G19KT 10SM FEW020 BKN029 OVC037 18/14 A2965 RMK AO2 RAB06E19 P0000=
201009191533 SPECI KBLI 191533Z 15013G19KT 10SM FEW020 BKN029 OVC037 18/14 A2965 RMK AO2 RAB06E19 P0000=
201009191519 SPECI KBLI 191519Z 15014G20KT 10SM FEW020 SCT026 OVC037 18/14 A2965 RMK AO2 RAB06E19 P0000=
201009191519 SPECI KBLI 191519Z 15014G20KT 10SM FEW020 SCT026 OVC037 18/14 A2965 RMK AO2 RAB06E19 P0000=
201009191453 METAR KBLI 191453Z 14008KT 10SM BKN023 BKN028 OVC075 18/14 A2965 RMK AO2 SLP047 T01780139 55002=
201009191353 METAR KBLI 191353Z AUTO 15009KT 10SM OVC021 18/14 A2965 RMK AO2 SLP044 T01780139=
201009191253 METAR KBLI 191253Z AUTO 15012G21KT 10SM OVC025 18/14 A2965 RMK AO2 SLP044 T01780139=
201009191153 METAR KBLI 191153Z AUTO 16009KT 10SM BKN023 OVC029 17/14 A2966 RMK AO2 RAE08 SLP048 P0000 60025 70036 T01720144 10172 20161 58009=
201009191053 METAR KBLI 191053Z AUTO 00000KT 10SM -RA FEW019 OVC024 17/16 A2966 RMK AO2 RAE01B20 SLP049 P0001 T01670156=
201009190953 METAR KBLI 190953Z AUTO 00000KT 10SM -RA BKN023 BKN028 OVC090 17/16 A2969 RMK AO2 SLP057 P0004 T01670156=
201009190926 SPECI KBLI 190926Z AUTO 08004KT 9SM RA SCT016 SCT030 OVC034 17/16 A2968 RMK AO2 P0003=
201009190926 SPECI KBLI 190926Z AUTO 08004KT 9SM RA SCT016 SCT030 OVC034 17/16 A2968 RMK AO2 P0003=
201009190853 METAR KBLI 190853Z AUTO 00000KT 10SM -RA OVC018 17/16 A2969 RMK AO2 SLP059 P0004 60020 T01670156 56014=
201009190753 METAR KBLI 190753Z AUTO 05003KT 10SM -RA OVC020 17/16 A2970 RMK AO2 SLP064 P0006 T01670156 402280150=
201009190653 METAR KBLI 190653Z AUTO 04005KT 4SM RA BR SCT019 BKN024 OVC032 17/15 A2972 RMK AO2 SLP068 P0010 T01670150=
201009190644 SPECI KBLI 190644Z AUTO 01004KT 4SM -RA BR BKN022 OVC036 16/15 A2972 RMK AO2 P0009=
201009190644 SPECI KBLI 190644Z AUTO 01004KT 4SM -RA BR BKN022 OVC036 16/15 A2972 RMK AO2 P0009=
201009190625 SPECI KBLI 190625Z AUTO 01003KT 3SM -RA BR FEW024 BKN037 OVC044 16/15 A2972 RMK AO2 P0007=
201009190625 SPECI KBLI 190625Z AUTO 01003KT 3SM -RA BR FEW024 BKN037 OVC044 16/15 A2972 RMK AO2 P0007=
201009190617 SPECI KBLI 190617Z AUTO 00000KT 2 1/2SM RA BR SCT022 BKN044 OVC050 16/15 A2973 RMK AO2 P0006=
201009190617 SPECI KBLI 190617Z AUTO 00000KT 2 1/2SM RA BR SCT022 BKN044 OVC050 16/15 A2973 RMK AO2 P0006=
201009190553 METAR KBLI 190553Z AUTO 00000KT 6SM -RA BR FEW002 OVC050 16/15 A2973 RMK AO2 SLP074 P0002 60007 T01610150 10222 20161 58002=
201009190541 SPECI KBLI 190541Z AUTO 03003KT 7SM -RA FEW002 OVC055 16/15 A2973 RMK AO2 P0001=
201009190541 SPECI KBLI 190541Z AUTO 03003KT 7SM -RA FEW002 OVC055 16/15 A2973 RMK AO2 P0001=
201009190453 METAR KBLI 190453Z 00000KT 6SM -RA BR FEW044 OVC065 16/15 A2974 RMK AO2 SLP077 P0004 T01610150=
201009190353 METAR KBLI 190353Z 19003KT 10SM -RA BKN080 OVC100 17/14 A2975 RMK AO2 RAB30 SLP081 P0001 T01670144=
201009190253 METAR KBLI 190253Z 00000KT 10SM OVC095 17/14 A2974 RMK AO2 RAB38E47 SLP076 P0000 60000 T01720144 56012=
201009190153 METAR KBLI 190153Z 35004KT 10SM CLR 19/14 A2975 RMK AO2 SLP080 T01940139=
201009190053 METAR KBLI 190053Z 02005KT 10SM CLR 21/14 A2976 RMK AO2 SLP083 T02110139=
201009182353 METAR KBLI 182353Z 01007KT 10SM CLR 22/14 A2978 RMK AO2 SLP087 T02220139 10228 20178 58022=
201009182253 METAR KBLI 182253Z 35005KT 10SM CLR 21/14 A2980 RMK AO2 SLP097 T02110139=
201009182153 METAR KBLI 182153Z 34003KT 10SM FEW025 21/14 A2982 RMK AO2 SLP102 T02110144=
201009182121 SPECI KBLI 182121Z 05004KT 10SM SCT027 BKN034 21/14 A2983 RMK AO2=
201009182121 SPECI KBLI 182121Z 05004KT 10SM SCT027 BKN034 21/14 A2983 RMK AO2=
201009182053 METAR KBLI 182053Z VRB04KT 10SM BKN023 BKN028 21/14 A2984 RMK AO2 SLP111 T02060144 58013=
201009182020 SPECI KBLI 182020Z 35005KT 10SM BKN020 BKN034 OVC048 20/14 A2986 RMK AO2=
201009182020 SPECI KBLI 182020Z 35005KT 10SM BKN020 BKN034 OVC048 20/14 A2986 RMK AO2=
201009181953 METAR KBLI 181953Z VRB04KT 10SM FEW014 BKN050 OVC060 20/15 A2987 RMK AO2 SLP119 T02000150=
201009181853 METAR KBLI 181853Z 34004KT 10SM OVC010 18/14 A2988 RMK AO2 SLP123 T01780139=
201009181753 METAR KBLI 181753Z 35004KT 10SM OVC010 17/14 A2988 RMK AO2 SLP124 60004 T01670139 10167 20150 53007=
201009181653 METAR KBLI 181653Z 36003KT 10SM OVC010 16/14 A2987 RMK AO2 SLP121 T01560139=
201009181624 SPECI KBLI 181624Z 00000KT 10SM BKN013 OVC021 16/13 A2987 RMK AO2=
201009181624 SPECI KBLI 181624Z 00000KT 10SM BKN013 OVC021 16/13 A2987 RMK AO2=
201009181553 METAR KBLI 181553Z 35005KT 10SM BKN015 OVC023 16/13 A2986 RMK AO2 SLP117 T01560133=
201009181453 METAR KBLI 181453Z 35003KT 10SM BKN015 OVC020 16/14 A2986 RMK AO2 RAE02 SLP117 P0000 60004 T01560139 51005=
201009181437 SPECI KBLI 181437Z 00000KT 10SM BKN015 OVC020 16/14 A2986 RMK AO2 RAE02 P0000=
201009181437 SPECI KBLI 181437Z 00000KT 10SM BKN015 OVC020 16/14 A2986 RMK AO2 RAE02 P0000=
201009181353 METAR KBLI 181353Z AUTO 36004KT 10SM -RA FEW003 OVC010 16/14 A2986 RMK AO2 SLP116 P0002 T01560139=
201009181350 SPECI KBLI 181350Z AUTO 36004KT 10SM -RA FEW003 BKN010 OVC014 16/14 A2985 RMK AO2 P0002=
201009181350 SPECI KBLI 181350Z AUTO 36004KT 10SM -RA FEW003 BKN010 OVC014 16/14 A2985 RMK AO2 P0002=
201009181318 SPECI KBLI 181318Z AUTO 00000KT 8SM -RA BKN008 OVC013 15/14 A2985 RMK AO2 P0001=
201009181318 SPECI KBLI 181318Z AUTO 00000KT 8SM -RA BKN008 OVC013 15/14 A2985 RMK AO2 P0001=
201009181253 METAR KBLI 181253Z AUTO 36004KT 9SM -RA OVC013 16/14 A2984 RMK AO2 SLP111 P0002 T01560139=
201009181248 SPECI KBLI 181248Z AUTO 01004KT 10SM -RA OVC013 16/14 A2984 RMK AO2 P0001=
201009181248 SPECI KBLI 181248Z AUTO 01004KT 10SM -RA OVC013 16/14 A2984 RMK AO2 P0001=
201009181238 SPECI KBLI 181238Z AUTO 36003KT 10SM -RA OVC015 16/14 A2984 RMK AO2 P0001=
201009181238 SPECI KBLI 181238Z AUTO 36003KT 10SM -RA OVC015 16/14 A2984 RMK AO2 P0001=
201009181231 SPECI KBLI 181231Z AUTO 02003KT 10SM -RA OVC014 16/14 A2984 RMK AO2 P0001=
201009181231 SPECI KBLI 181231Z AUTO 02003KT 10SM -RA OVC014 16/14 A2984 RMK AO2 P0001=
201009181153 METAR KBLI 181153Z AUTO 02004KT 10SM -RA OVC023 16/14 A2984 RMK AO2 SLP111 P0002 60025 70036 T01560144 10161 20156 55001=
201009181053 METAR KBLI 181053Z AUTO 01004KT 7SM -RA SCT021 OVC029 16/14 A2984 RMK AO2 SLP110 P0005 T01560144=
201009181028 SPECI KBLI 181028Z AUTO 01004KT 5SM -RA BR BKN019 OVC036 16/14 A2985 RMK AO2 P0002=
201009181028 SPECI KBLI 181028Z AUTO 01004KT 5SM -RA BR BKN019 OVC036 16/14 A2985 RMK AO2 P0002=
201009180953 METAR KBLI 180953Z AUTO 01006KT 4SM RA BR BKN040 OVC060 16/14 A2984 RMK AO2 SLP111 P0008 T01610144=
201009180853 METAR KBLI 180853Z AUTO 00000KT 5SM -RA BR OVC038 16/14 A2985 RMK AO2 SLP112 P0004 60010 T01610144 51004=
201009180753 METAR KBLI 180753Z AUTO 00000KT 6SM -RA BR OVC038 16/14 A2985 RMK AO2 SLP111 P0004 T01560144 402500156=
201009180653 METAR KBLI 180653Z AUTO 00000KT 10SM -RA OVC042 16/14 A2984 RMK AO2 SLP111 P0002 T01560144=
201009180553 METAR KBLI 180553Z AUTO 00000KT 7SM -RA OVC049 16/14 A2984 RMK AO2 SLP109 P0004 60009 T01560144 10239 20156 50006=
201009180453 METAR KBLI 180453Z 00000KT 8SM -RA OVC055 16/14 A2984 RMK AO2 SLP112 P0005 T01560139=
201009180353 METAR KBLI 180353Z 18003KT 10SM -RA BKN055 OVC065 16/14 A2985 RMK AO2 RAB0257 SLP113 P0000 T01610139=
201009180253 METAR KBLI 180253Z 00000KT 10SM OVC060 17/13 A2982 RMK AO2 SLP104 T01720133 53002=
201009180153 METAR KBLI 180153Z 16006KT 10SM OVC065 18/13 A2981 RMK AO2 SLP101 T01830128=
201009180053 METAR KBLI 180053Z 01004KT 10SM OVC075 23/09 A2980 RMK AO2 SLP096 T02280089=
201009172353 METAR KBLI 172353Z 01008KT 10SM BKN080 23/08 A2981 RMK AO2 SLP101 T02330083 10250 20189 57013=
201009172253 METAR KBLI 172253Z 36010G19KT 10SM SCT075 24/09 A2983 RMK AO2 SLP105 T02390089=
201009172153 METAR KBLI 172153Z 03012G17KT 10SM OVC075 24/08 A2984 RMK AO2 SLP109 T02390083=
201009172053 METAR KBLI 172053Z 03012G21KT 10SM CLR 23/09 A2985 RMK AO2 SLP113 T02280089 56018=
201009171953 METAR KBLI 171953Z 02012G18KT 10SM CLR 23/11 A2987 RMK AO2 SLP118 T02330111=
201009171853 METAR KBLI 171853Z 01008KT 10SM SCT080 21/13 A2988 RMK AO2 SLP125 T02060133=
201009171753 METAR KBLI 171753Z 34004KT 10SM FEW050 SCT100 19/14 A2990 RMK AO2 SLP132 60002 T01890139 10189 20156 58000=
201009171653 METAR KBLI 171653Z 01005KT 10SM FEW045 OVC080 18/14 A2991 RMK AO2 SLP133 T01780139=
201009171553 METAR KBLI 171553Z 01006KT 10SM SCT035 BKN045 17/14 A2991 RMK AO2 SLP133 T01720139=
201009171453 METAR KBLI 171453Z 36005KT 10SM BKN033 OVC041 16/14 A2990 RMK AO2 RAB1354E04 SLP132 P0000 60002 T01610139 56004=
201009171417 SPECI KBLI 171417Z 02005KT 10SM OVC031 16/14 A2991 RMK AO2 RAB1354E04 P0000=
201009171417 SPECI KBLI 171417Z 02005KT 10SM OVC031 16/14 A2991 RMK AO2 RAB1354E04 P0000=
201009171353 METAR KBLI 171353Z AUTO 01010KT 10SM BKN024 OVC030 16/13 A2991 RMK AO2 RAE04B24E35 SLP134 P0001 T01610133=
201009171253 METAR KBLI 171253Z AUTO 03007KT 7SM -RA BKN020 OVC025 16/14 A2991 RMK AO2 SLP133 P0001 T01560139=
201009171203 SPECI KBLI 171203Z AUTO 36004KT 4SM -RA BR FEW008 OVC022 16/14 A2991 RMK AO2 P0001=
201009171203 SPECI KBLI 171203Z AUTO 36004KT 4SM -RA BR FEW008 OVC022 16/14 A2991 RMK AO2 P0001=
201009171153 METAR KBLI 171153Z AUTO 00000KT 5SM -RA BR OVC022 16/14 A2992 RMK AO2 RAB03 SLP136 P0002 60011 70036 T01610144 10167 20161 53003=
201009171114 SPECI KBLI 171114Z AUTO VRB03KT 6SM -RA BR OVC016 16/14 A2991 RMK AO2 RAB03 P0001=
201009171114 SPECI KBLI 171114Z AUTO VRB03KT 6SM -RA BR OVC016 16/14 A2991 RMK AO2 RAB03 P0001=
201009171053 METAR KBLI 171053Z AUTO 03007KT 10SM OVC012 16/14 A2991 RMK AO2 RAB05E37 SLP135 P0000 T01610144=
201009171023 SPECI KBLI 171023Z AUTO 03003KT 7SM -RA OVC014 16/15 A2991 RMK AO2 RAB05 P0000=
201009171023 SPECI KBLI 171023Z AUTO 03003KT 7SM -RA OVC014 16/15 A2991 RMK AO2 RAB05 P0000=
201009170953 METAR KBLI 170953Z AUTO 02005KT 10SM OVC020 16/15 A2991 RMK AO2 RAE02 SLP134 P0000 T01610150=
201009170920 SPECI KBLI 170920Z AUTO 03004KT 8SM FEW003 BKN015 OVC022 16/15 A2991 RMK AO2 RAE02 P0000=
201009170920 SPECI KBLI 170920Z AUTO 03004KT 8SM FEW003 BKN015 OVC022 16/15 A2991 RMK AO2 RAE02 P0000=
201009170911 SPECI KBLI 170911Z AUTO 02004KT 8SM BKN003 BKN015 OVC022 16/15 A2991 RMK AO2 RAE02 P0000=
201009170911 SPECI KBLI 170911Z AUTO 02004KT 8SM BKN003 BKN015 OVC022 16/15 A2991 RMK AO2 RAE02 P0000=
201009170900 SPECI KBLI 170900Z AUTO 03005KT 6SM -RA BR SCT003 BKN015 OVC022 16/15 A2991 RMK AO2 P0000=
201009170900 SPECI KBLI 170900Z AUTO 03005KT 6SM -RA BR SCT003 BKN015 OVC022 16/15 A2991 RMK AO2 P0000=
201009170853 METAR KBLI 170853Z AUTO 03005KT 4SM -RA BR BKN003 BKN017 OVC022 16/15 A2991 RMK AO2 RAB16 SLP133 P0001 60009 T01610150 58004=
201009170753 METAR KBLI 170753Z AUTO 01006KT 6SM BR BKN003 OVC017 16/15 A2992 RMK AO2 RAE37 CIG 002V005 SLP137 P0001 T01610150 402170150=
201009170653 METAR KBLI 170653Z AUTO 36005KT 3SM -RA BR BKN003 OVC028 16/15 A2992 RMK AO2 SLP137 P0007 T01610150=
201009170611 SPECI KBLI 170611Z AUTO 36005KT 3SM -RA BR BKN003 OVC026 16/15 A2992 RMK AO2 P0005=
201009170611 SPECI KBLI 170611Z AUTO 36005KT 3SM -RA BR BKN003 OVC026 16/15 A2992 RMK AO2 P0005=
201009170553 METAR KBLI 170553Z AUTO 01006KT 2SM +RA BR BKN003 OVC017 17/15 A2992 RMK AO2 SLP138 P0009 60020 T01670150 10167 20161 58000=
201009170505 SPECI KBLI 170505Z 02005KT 4SM -RA BR OVC003 17/15 A2993 RMK AO2 CIG 002V007 P0001=
201009170505 SPECI KBLI 170505Z 02005KT 4SM -RA BR OVC003 17/15 A2993 RMK AO2 CIG 002V007 P0001=
201009170453 METAR KBLI 170453Z 02004KT 2 1/2SM RA BR OVC003 17/15 A2992 RMK AO2 RAE05B25 SLP139 P0002 T01670150=
201009170353 METAR KBLI 170353Z 01006KT 5SM -RA BR BKN003 OVC028 17/15 A2993 RMK AO2 SLP140 P0000 T01670150=
201009170253 METAR KBLI 170253Z 36004KT 3SM -RA BR OVC003 17/15 A2992 RMK AO2 SLP138 P0002 60009 T01670150 57005=
201009170155 SPECI KBLI 170155Z 00000KT 5SM -RA BR BKN003 OVC038 17/16 A2993 RMK AO2 P0000=
201009170155 SPECI KBLI 170155Z 00000KT 5SM -RA BR BKN003 OVC038 17/16 A2993 RMK AO2 P0000=
201009170153 METAR KBLI 170153Z 00000KT 2SM -RA BR SCT003 OVC038 17/16 A2993 RMK AO2 SLP141 P0003 T01670156=
201009170113 SPECI KBLI 170113Z 00000KT 2SM -RA BR SCT003 OVC032 17/16 A2993 RMK AO2 P0001=
201009170113 SPECI KBLI 170113Z 00000KT 2SM -RA BR SCT003 OVC032 17/16 A2993 RMK AO2 P0001=
201009170100 SPECI KBLI 170100Z 00000KT 5SM -RA BR SCT003 OVC032 17/15 A2993 RMK AO2 P0001=
201009170100 SPECI KBLI 170100Z 00000KT 5SM -RA BR SCT003 OVC032 17/15 A2993 RMK AO2 P0001=
201009170053 METAR KBLI 170053Z 00000KT 5SM -RA BR OVC034 17/15 A2993 RMK AO2 SLP141 P0004 T01670150=
201009162353 METAR KBLI 162353Z 00000KT 5SM -RA BR FEW004 BKN032 OVC045 16/15 A2994 RMK AO2 SLP143 P0004 60005 T01610150 10217 20161 56009=
201009162253 METAR KBLI 162253Z 26004KT 7SM -RA SCT026 BKN034 OVC043 17/14 A2995 RMK AO2 RAB19 SLP148 P0001 T01720144=
201009162153 METAR KBLI 162153Z 27005KT 10SM SCT024 OVC033 20/14 A2995 RMK AO2 SLP147 T02000144=
201009162121 SPECI KBLI 162121Z 36003KT 10SM SCT024 OVC033 21/14 A2996 RMK AO2=
201009162121 SPECI KBLI 162121Z 36003KT 10SM SCT024 OVC033 21/14 A2996 RMK AO2=
201009162114 SPECI KBLI 162114Z 01004KT 10SM BKN024 OVC033 21/14 A2996 RMK AO2=
201009162114 SPECI KBLI 162114Z 01004KT 10SM BKN024 OVC033 21/14 A2996 RMK AO2=
201009162053 METAR KBLI 162053Z 34003KT 10SM SCT022 BKN033 BKN090 21/14 A2996 RMK AO2 SLP152 T02060144 58004=
201009162030 SPECI KBLI 162030Z 00000KT 10SM SCT024 BKN030 BKN090 21/15 A2997 RMK AO2=
201009162030 SPECI KBLI 162030Z 00000KT 10SM SCT024 BKN030 BKN090 21/15 A2997 RMK AO2=
201009161953 METAR KBLI 161953Z VRB03KT 10SM SCT018 BKN023 OVC030 20/15 A2997 RMK AO2 SLP156 T02000150=
201009161853 METAR KBLI 161853Z 30003KT 10SM SCT015 BKN030 BKN036 19/15 A2998 RMK AO2 SLP157 T01890150=
201009161844 SPECI KBLI 161844Z 00000KT 10SM SCT012 BKN018 OVC036 18/15 A2998 RMK AO2=
201009161844 SPECI KBLI 161844Z 00000KT 10SM SCT012 BKN018 OVC036 18/15 A2998 RMK AO2=
201009161753 METAR KBLI 161753Z 00000KT 10SM BKN008 OVC012 18/15 A2998 RMK AO2 CIG 006V010 SLP157 T01780150 10178 20150 51003=
201009161723 SPECI KBLI 161723Z 00000KT 10SM FEW006 BKN012 OVC032 17/15 A2998 RMK AO2=
201009161723 SPECI KBLI 161723Z 00000KT 10SM FEW006 BKN012 OVC032 17/15 A2998 RMK AO2=
201009161653 METAR KBLI 161653Z 00000KT 10SM BKN010 OVC032 16/14 A2998 RMK AO2 CIG 007V013 SLP156 T01610144=
201009161628 SPECI KBLI 161628Z 16003KT 8SM OVC012 16/14 A2997 RMK AO2=
201009161628 SPECI KBLI 161628Z 16003KT 8SM OVC012 16/14 A2997 RMK AO2=
201009161615 SPECI KBLI 161615Z 00000KT 8SM BKN009 BKN016 OVC031 16/14 A2997 RMK AO2 CIG 008V012=
201009161615 SPECI KBLI 161615Z 00000KT 8SM BKN009 BKN016 OVC031 16/14 A2997 RMK AO2 CIG 008V012=
201009161607 SPECI KBLI 161607Z 00000KT 8SM SCT009 BKN013 OVC031 16/14 A2997 RMK AO2=
201009161607 SPECI KBLI 161607Z 00000KT 8SM SCT009 BKN013 OVC031 16/14 A2997 RMK AO2=
201009161553 METAR KBLI 161553Z 00000KT 8SM FEW013 OVC029 16/14 A2997 RMK AO2 SLP154 T01560144=
201009161453 METAR KBLI 161453Z 18003KT 8SM BKN024 OVC031 15/14 A2997 RMK AO2 SLP154 T01500139 51010=
201009161353 METAR KBLI 161353Z 00000KT 7SM FEW002 BKN024 OVC031 15/14 A2996 RMK AO2 SLP151 T01500139=
201009161344 SPECI KBLI 161344Z 00000KT 7SM SCT002 BKN021 OVC026 15/14 A2996 RMK AO2=
201009161344 SPECI KBLI 161344Z 00000KT 7SM SCT002 BKN021 OVC026 15/14 A2996 RMK AO2=
201009161253 METAR KBLI 161253Z AUTO 00000KT 6SM BR OVC002 15/14 A2995 RMK AO2 RAE1154 SLP148 T01500139=
201009161208 SPECI KBLI 161208Z AUTO 00000KT 6SM BR BKN002 OVC017 15/14 A2994 RMK AO2 RAE1154=
201009161208 SPECI KBLI 161208Z AUTO 00000KT 6SM BR BKN002 OVC017 15/14 A2994 RMK AO2 RAE1154=
201009161153 METAR KBLI 161153Z AUTO 00000KT 7SM -RA SCT002 BKN017 OVC022 16/14 A2994 RMK AO2 RAB30 SLP144 P0001 60001 70001 T01560139 10161 20156 51003=
201009161053 METAR KBLI 161053Z AUTO 00000KT 10SM OVC004 16/14 A2994 RMK AO2 SLP144 T01560144=
201009161027 SPECI KBLI 161027Z AUTO 00000KT 10SM BKN006 OVC018 16/14 A2994 RMK AO2=
201009161027 SPECI KBLI 161027Z AUTO 00000KT 10SM BKN006 OVC018 16/14 A2994 RMK AO2=
201009161017 SPECI KBLI 161017Z AUTO 00000KT 10SM SCT006 BKN016 OVC041 16/14 A2993 RMK AO2=
201009161017 SPECI KBLI 161017Z AUTO 00000KT 10SM SCT006 BKN016 OVC041 16/14 A2993 RMK AO2=
201009160953 METAR KBLI 160953Z AUTO 00000KT 10SM BKN018 BKN024 OVC040 16/14 A2993 RMK AO2 SLP141 T01560144=
201009160931 SPECI KBLI 160931Z AUTO 00000KT 10SM BKN022 OVC030 16/14 A2993 RMK AO2=
201009160931 SPECI KBLI 160931Z AUTO 00000KT 10SM BKN022 OVC030 16/14 A2993 RMK AO2=
201009160921 SPECI KBLI 160921Z AUTO 00000KT 10SM FEW018 BKN030 OVC041 16/14 A2993 RMK AO2=
201009160921 SPECI KBLI 160921Z AUTO 00000KT 10SM FEW018 BKN030 OVC041 16/14 A2993 RMK AO2=
201009160853 METAR KBLI 160853Z AUTO 00000KT 10SM BKN020 BKN026 OVC034 16/14 A2993 RMK AO2 SLP140 T01560139 51009=
201009160753 METAR KBLI 160753Z AUTO 00000KT 10SM OVC028 16/14 A2992 RMK AO2 SLP136 T01610144 402060106=
201009160653 METAR KBLI 160653Z AUTO 00000KT 10SM BKN032 OVC039 16/14 A2991 RMK AO2 SLP135 T01610144=
201009160553 METAR KBLI 160553Z AUTO 00000KT 10SM OVC045 16/14 A2990 RMK AO2 SLP130 60000 T01560144 10172 20156 51002=
201009160453 METAR KBLI 160453Z 05004KT 9SM BKN047 OVC060 16/14 A2990 RMK AO2 RAB37E48 SLP129 P0000 T01610144=
201009160403 SPECI KBLI 160403Z 00000KT 10SM SCT009 OVC085 16/15 A2990 RMK AO2=
201009160403 SPECI KBLI 160403Z 00000KT 10SM SCT009 OVC085 16/15 A2990 RMK AO2=
201009160353 METAR KBLI 160353Z 21003KT 8SM OVC085 16/14 A2990 RMK AO2 SLP131 T01610144=
201009160253 METAR KBLI 160253Z 00000KT 9SM OVC070 17/15 A2989 RMK AO2 SLP128 60000 T01670150 56006=
201009160153 METAR KBLI 160153Z 29003KT 10SM OVC080 17/15 A2989 RMK AO2 SLP128 T01720150=
201009160053 METAR KBLI 160053Z 00000KT 10SM FEW100 17/15 A2989 RMK AO2 RAE51 SLP128 P0000 T01720150=
201009152353 METAR KBLI 152353Z 16005KT 10SM -RA FEW024 SCT090 17/14 A2991 RMK AO2 SLP134 P0000 60000 T01720144 10206 20167 50001=
201009152343 SPECI KBLI 152343Z 16005KT 10SM -RA FEW029 BKN095 17/14 A2992 RMK AO2 P0000=
201009152343 SPECI KBLI 152343Z 16005KT 10SM -RA FEW029 BKN095 17/14 A2992 RMK AO2 P0000=
201009152317 SPECI KBLI 152317Z 00000KT 10SM -RA BKN028 BKN085 18/14 A2992 RMK AO2 P0000=
201009152317 SPECI KBLI 152317Z 00000KT 10SM -RA BKN028 BKN085 18/14 A2992 RMK AO2 P0000=
201009152253 METAR KBLI 152253Z 22003KT 10SM -RA FEW037 SCT090 18/14 A2992 RMK AO2 RAB50 SLP138 P0000 T01780139=
201009152153 METAR KBLI 152153Z 18004KT 10SM CLR 18/13 A2991 RMK AO2 SLP134 T01830133=
201009152053 METAR KBLI 152053Z 20003KT 10SM CLR 18/13 A2991 RMK AO2 SLP133 T01830128 55007=
201009151953 METAR KBLI 151953Z 00000KT 10SM CLR 19/12 A2991 RMK AO2 SLP133 T01940122=
201009151853 METAR KBLI 151853Z 00000KT 10SM CLR 18/12 A2992 RMK AO2 SLP136 T01780122=
201009151753 METAR KBLI 151753Z 00000KT 10SM SCT002 17/14 A2993 RMK AO2 SLP140 T01720144 10172 20106 50000=
201009151736 SPECI KBLI 151736Z 00000KT 6SM BR SCT002 16/14 A2992 RMK AO2=
201009151736 SPECI KBLI 151736Z 00000KT 6SM BR SCT002 16/14 A2992 RMK AO2=
201009151719 SPECI KBLI 151719Z 00000KT 1/2SM FG OVC001 14/13 A2993 RMK AO2 RVRNO=
201009151719 SPECI KBLI 151719Z 00000KT 1/2SM FG OVC001 14/13 A2993 RMK AO2 RVRNO=
201009151712 SPECI KBLI 151712Z 00000KT 3SM FG OVC001 14/13 A2993 RMK AO2=
201009151712 SPECI KBLI 151712Z 00000KT 3SM FG OVC001 14/13 A2993 RMK AO2=
201009151705 SPECI KBLI 151705Z 00000KT 1SM FG OVC001 14/13 A2994 RMK AO2 RVRNO=
201009151705 SPECI KBLI 151705Z 00000KT 1SM FG OVC001 14/13 A2994 RMK AO2 RVRNO=
201009151653 METAR KBLI 151653Z 16003KT 1/4SM FG VV001 14/13 A2994 RMK AO2 SLP144 T01390128 RVRNO=
201009151635 SPECI KBLI 151635Z 19003KT 1/2SM BR OVC002 14/13 A2994 RMK AO2 RVRNO=
201009151635 SPECI KBLI 151635Z 19003KT 1/2SM BR OVC002 14/13 A2994 RMK AO2 RVRNO=
201009151622 SPECI KBLI 151622Z 18004KT 1 3/4SM BR OVC002 14/13 A2994 RMK AO2=
201009151622 SPECI KBLI 151622Z 18004KT 1 3/4SM BR OVC002 14/13 A2994 RMK AO2=
201009151553 METAR KBLI 151553Z 00000KT 4SM BR BKN002 14/12 A2993 RMK AO2 SLP140 VIS SE-SW 1/2 FG T01390122=
201009151538 SPECI KBLI 151538Z 00000KT 4SM BR OVC002 13/12 A2993 RMK AO2 VIS SE-SW 1/2 FG=
201009151538 SPECI KBLI 151538Z 00000KT 4SM BR OVC002 13/12 A2993 RMK AO2 VIS SE-SW 1/2 FG=
201009151511 SPECI KBLI 151511Z 00000KT 10SM SCT002 13/11 A2993 RMK AO2 VIS SE-SW 1/2 FG=
201009151511 SPECI KBLI 151511Z 00000KT 10SM SCT002 13/11 A2993 RMK AO2 VIS SE-SW 1/2 FG=
201009151453 METAR KBLI 151453Z 00000KT 10SM CLR 12/12 A2993 RMK AO2 SLP143 T01220117 55001=
201009151403 SPECI KBLI 151403Z 00000KT 6SM BR FEW002 11/10 A2993 RMK AO2=
201009151403 SPECI KBLI 151403Z 00000KT 6SM BR FEW002 11/10 A2993 RMK AO2=
201009151353 METAR KBLI 151353Z 00000KT 6SM BR BKN002 11/10 A2993 RMK AO2 SLP140 T01110100=
201009151334 SPECI KBLI 151334Z AUTO 00000KT 5SM BR BKN002 11/10 A2992 RMK AO2=
201009151334 SPECI KBLI 151334Z AUTO 00000KT 5SM BR BKN002 11/10 A2992 RMK AO2=
201009151327 SPECI KBLI 151327Z AUTO 00000KT 2 1/2SM BR BKN002 11/10 A2993 RMK AO2=
201009151327 SPECI KBLI 151327Z AUTO 00000KT 2 1/2SM BR BKN002 11/10 A2993 RMK AO2=
201009151309 SPECI KBLI 151309Z AUTO 00000KT 5SM BR SCT002 11/10 A2993 RMK AO2=
201009151309 SPECI KBLI 151309Z AUTO 00000KT 5SM BR SCT002 11/10 A2993 RMK AO2=
201009151253 METAR KBLI 151253Z AUTO 00000KT 4SM BR OVC002 12/11 A2994 RMK AO2 SLP143 T01170106=
201009151244 SPECI KBLI 151244Z AUTO 00000KT 2SM BR OVC002 11/11 A2994 RMK AO2=
201009151244 SPECI KBLI 151244Z AUTO 00000KT 2SM BR OVC002 11/11 A2994 RMK AO2=
201009151237 SPECI KBLI 151237Z AUTO 00000KT 3/4SM BR OVC002 12/11 A2993 RMK AO2 RVRNO=
201009151237 SPECI KBLI 151237Z AUTO 00000KT 3/4SM BR OVC002 12/11 A2993 RMK AO2 RVRNO=
201009151201 SPECI KBLI 151201Z AUTO 36003KT 1/2SM FG VV001 12/11 A2993 RMK AO2 RVRNO=
201009151201 SPECI KBLI 151201Z AUTO 36003KT 1/2SM FG VV001 12/11 A2993 RMK AO2 RVRNO=
201009151153 METAR KBLI 151153Z AUTO 34003KT 1 1/4SM BR BKN002 12/11 A2994 RMK AO2 SLP143 P0001 60001 70001 T01170106 10122 20106 57003=
201009151140 SPECI KBLI 151140Z AUTO 34003KT 2 1/2SM BR BKN002 11/10 A2994 RMK AO2 CIG 001V005 P0001=
201009151140 SPECI KBLI 151140Z AUTO 34003KT 2 1/2SM BR BKN002 11/10 A2994 RMK AO2 CIG 001V005 P0001=
201009151136 SPECI KBLI 151136Z AUTO 35003KT 4SM BR SCT002 11/10 A2994 RMK AO2 P0001=
201009151136 SPECI KBLI 151136Z AUTO 35003KT 4SM BR SCT002 11/10 A2994 RMK AO2 P0001=
201009151053 METAR KBLI 151053Z AUTO 00000KT 8SM FEW011 11/09 A2994 RMK AO2 SLP146 T01060094=
201009151050 SPECI KBLI 151050Z AUTO 00000KT 8SM SCT009 11/09 A2994 RMK AO2=
201009151050 SPECI KBLI 151050Z AUTO 00000KT 8SM SCT009 11/09 A2994 RMK AO2=
201009151038 SPECI KBLI 151038Z AUTO 00000KT 3SM BR BKN001 11/10 A2995 RMK AO2=
201009151038 SPECI KBLI 151038Z AUTO 00000KT 3SM BR BKN001 11/10 A2995 RMK AO2=
201009151024 SPECI KBLI 151024Z AUTO 00000KT 1SM BR BKN001 OVC013 11/09 A2995 RMK AO2 RVRNO=
201009151024 SPECI KBLI 151024Z AUTO 00000KT 1SM BR BKN001 OVC013 11/09 A2995 RMK AO2 RVRNO=
201009150953 METAR KBLI 150953Z AUTO 00000KT 1/4SM FG VV001 11/10 A2995 RMK AO2 SLP150 T01110100 RVRNO=
201009150937 SPECI KBLI 150937Z AUTO 00000KT 1/4SM FG VV001 11/11 A2995 RMK AO2 RVRNO=
201009150937 SPECI KBLI 150937Z AUTO 00000KT 1/4SM FG VV001 11/11 A2995 RMK AO2 RVRNO=
201009150927 SPECI KBLI 150927Z AUTO 00000KT 1/2SM FG BKN003 BKN007 12/11 A2995 RMK AO2 RVRNO=
201009150927 SPECI KBLI 150927Z AUTO 00000KT 1/2SM FG BKN003 BKN007 12/11 A2995 RMK AO2 RVRNO=
201009150921 SPECI KBLI 150921Z AUTO 00000KT 1 1/2SM BR BKN003 11/11 A2995 RMK AO2=
201009150921 SPECI KBLI 150921Z AUTO 00000KT 1 1/2SM BR BKN003 11/11 A2995 RMK AO2=
201009150918 SPECI KBLI 150918Z AUTO 00000KT 2 1/2SM BR SCT003 12/11 A2995 RMK AO2=
201009150918 SPECI KBLI 150918Z AUTO 00000KT 2 1/2SM BR SCT003 12/11 A2995 RMK AO2=
201009150913 SPECI KBLI 150913Z AUTO 00000KT 2SM BR BKN003 12/11 A2995 RMK AO2 VIS 1 1/4V5=
201009150913 SPECI KBLI 150913Z AUTO 00000KT 2SM BR BKN003 12/11 A2995 RMK AO2 VIS 1 1/4V5=
201009150907 SPECI KBLI 150907Z AUTO 31003KT 1 3/4SM BR BKN001 11/10 A2995 RMK AO2 VIS 1 1/4V5=
201009150907 SPECI KBLI 150907Z AUTO 31003KT 1 3/4SM BR BKN001 11/10 A2995 RMK AO2 VIS 1 1/4V5=
201009150905 SPECI KBLI 150905Z AUTO 00000KT 2SM BR BKN003 OVC013 11/10 A2995 RMK AO2 VIS 1 1/4V5=
201009150905 SPECI KBLI 150905Z AUTO 00000KT 2SM BR BKN003 OVC013 11/10 A2995 RMK AO2 VIS 1 1/4V5=
201009150853 METAR KBLI 150853Z AUTO 00000KT 1 1/4SM BR BKN006 BKN011 11/10 A2995 RMK AO2 SLP150 T01110100 56005=
201009150851 SPECI KBLI 150851Z AUTO 00000KT 1SM BR BKN006 BKN011 11/10 A2995 RMK AO2 RVRNO=
201009150851 SPECI KBLI 150851Z AUTO 00000KT 1SM BR BKN006 BKN011 11/10 A2995 RMK AO2 RVRNO=
201009150842 SPECI KBLI 150842Z AUTO 00000KT 1 1/2SM BR SCT014 12/10 A2995 RMK AO2=
201009150842 SPECI KBLI 150842Z AUTO 00000KT 1 1/2SM BR SCT014 12/10 A2995 RMK AO2=
201009150820 SPECI KBLI 150820Z AUTO 00000KT 9SM CLR 11/10 A2996 RMK AO2=
201009150820 SPECI KBLI 150820Z AUTO 00000KT 9SM CLR 11/10 A2996 RMK AO2=
201009150810 SPECI KBLI 150810Z AUTO 00000KT 2SM BR CLR 11/10 A2996 RMK AO2 VIS 3/4V5=
201009150810 SPECI KBLI 150810Z AUTO 00000KT 2SM BR CLR 11/10 A2996 RMK AO2 VIS 3/4V5=
201009150753 METAR KBLI 150753Z AUTO 00000KT 6SM BR FEW001 12/10 A2997 RMK AO2 SLP155 T01170100 401890111=
201009150751 SPECI KBLI 150751Z AUTO 00000KT 4SM BR FEW001 11/10 A2997 RMK AO2 401890111=
201009150751 SPECI KBLI 150751Z AUTO 00000KT 4SM BR FEW001 11/10 A2997 RMK AO2 401890111=
201009150749 SPECI KBLI 150749Z AUTO 00000KT 2 1/2SM BR CLR 11/10 A2997 RMK AO2 VIS 3/4V5 401890111=
201009150749 SPECI KBLI 150749Z AUTO 00000KT 2 1/2SM BR CLR 11/10 A2997 RMK AO2 VIS 3/4V5 401890111=
201009150722 SPECI KBLI 150722Z AUTO 00000KT 3SM BR FEW039 12/11 A2998 RMK AO2=
201009150722 SPECI KBLI 150722Z AUTO 00000KT 3SM BR FEW039 12/11 A2998 RMK AO2=
201009150707 SPECI KBLI 150707Z AUTO 00000KT 1 1/2SM BR CLR 12/11 A2998 RMK AO2=
201009150707 SPECI KBLI 150707Z AUTO 00000KT 1 1/2SM BR CLR 12/11 A2998 RMK AO2=
201009150653 METAR KBLI 150653Z AUTO 00000KT 4SM BR CLR 12/11 A2999 RMK AO2 SLP161 T01170106=
201009150559 SPECI KBLI 150559Z AUTO 00000KT 4SM BR CLR 12/11 A2999 RMK AO2=
201009150559 SPECI KBLI 150559Z AUTO 00000KT 4SM BR CLR 12/11 A2999 RMK AO2=
201009150553 METAR KBLI 150553Z AUTO 00000KT 1 1/4SM BR CLR 12/11 A2999 RMK AO2 SLP162 T01220111 10189 20122 58002=
201009150548 SPECI KBLI 150548Z AUTO 00000KT 1 3/4SM BR CLR 12/11 A2999 RMK AO2=
201009150548 SPECI KBLI 150548Z AUTO 00000KT 1 3/4SM BR CLR 12/11 A2999 RMK AO2=
201009150453 METAR KBLI 150453Z 00000KT 10SM CLR 13/11 A2999 RMK AO2 SLP164 T01280111=
201009150353 METAR KBLI 150353Z 00000KT 9SM CLR 13/12 A3000 RMK AO2 SLP165 T01330122=
201009150253 METAR KBLI 150253Z 00000KT 10SM CLR 14/13 A3000 RMK AO2 SLP164 T01440128 56005=
201009150153 METAR KBLI 150153Z 17003KT 10SM CLR 17/13 A3000 RMK AO2 SLP163 T01670133=
201009150053 METAR KBLI 150053Z 00000KT 10SM CLR 18/13 A3000 RMK AO2 SLP166 T01830133=
201009142353 METAR KBLI 142353Z 00000KT 10SM CLR 18/14 A3001 RMK AO2 SLP169 T01830139 10183 20139 58008=
201009142253 METAR KBLI 142253Z VRB03KT 10SM CLR 17/13 A3002 RMK AO2 SLP171 T01720133=
201009142227 SPECI KBLI 142227Z 19004KT 10SM CLR 17/13 A3003 RMK AO2=
201009142227 SPECI KBLI 142227Z 19004KT 10SM CLR 17/13 A3003 RMK AO2=
201009142153 METAR KBLI 142153Z 17005KT 10SM BKN005 17/13 A3003 RMK AO2 SLP175 VIS=
201009142100 SPECI KBLI 142100Z VRB04KT 10SM BKN005 15/13 A3003 RMK AO2 VIS SE-W 3/4 FG=
201009142100 SPECI KBLI 142100Z VRB04KT 10SM BKN005 15/13 A3003 RMK AO2 VIS SE-W 3/4 FG=
201009142053 METAR KBLI 142053Z 17005KT 10SM BKN003 15/12 A3004 RMK AO2 SLP178 VIS=
201009142013 SPECI KBLI 142013Z 15004KT 10SM OVC003 15/13 A3004 RMK AO2 VIS SE-W 3/4=
201009142013 SPECI KBLI 142013Z 15004KT 10SM OVC003 15/13 A3004 RMK AO2 VIS SE-W 3/4=
201009142000 SPECI KBLI 142000Z 15004KT 10SM BR OVC003 15/13 A3004 RMK AO2=
201009142000 SPECI KBLI 142000Z 15004KT 10SM BR OVC003 15/13 A3004 RMK AO2=
201009141953 METAR KBLI 141953Z VRB04KT 3/4SM BR OVC003 14/13 A3005 RMK AO2 SLP182 T01440128 RVRNO=
201009141853 METAR KBLI 141853Z 00000KT 3/4SM BR OVC003 14/13 A3005 RMK AO2 CIG 002V007 SLP184 T01390128 RVRNO=
201009141807 SPECI KBLI 141807Z 15004KT 3/4SM BR OVC003 14/12 A3005 RMK AO2 RVRNO=
201009141807 SPECI KBLI 141807Z 15004KT 3/4SM BR OVC003 14/12 A3005 RMK AO2 RVRNO=
201009141800 SPECI KBLI 141800Z 19003KT 6SM BR OVC003 14/13 A3005 RMK AO2=
201009141800 SPECI KBLI 141800Z 19003KT 6SM BR OVC003 14/13 A3005 RMK AO2=
201009141753 METAR KBLI 141753Z 00000KT 3/4SM BR OVC003 14/13 A3005 RMK AO2 SLP184 T01390128 10139 20128 53006 RVRNO=
201009141709 SPECI KBLI 141709Z 00000KT 3/4SM BR OVC003 13/13 A3005 RMK AO2 RVRNO=
201009141709 SPECI KBLI 141709Z 00000KT 3/4SM BR OVC003 13/13 A3005 RMK AO2 RVRNO=
201009141653 METAR KBLI 141653Z 00000KT 3/4SM BR OVC001 13/13 A3005 RMK AO2 SLP181 T01330128 RVRNO=
201009141638 SPECI KBLI 141638Z 00000KT 3/4SM BR OVC001 13/12 A3004 RMK AO2 RVRNO=
201009141638 SPECI KBLI 141638Z 00000KT 3/4SM BR OVC001 13/12 A3004 RMK AO2 RVRNO=
201009141631 SPECI KBLI 141631Z 00000KT 4SM BR OVC001 13/12 A3004 RMK AO2=
201009141631 SPECI KBLI 141631Z 00000KT 4SM BR OVC001 13/12 A3004 RMK AO2=
201009141621 SPECI KBLI 141621Z 00000KT 2SM BR OVC001 13/12 A3004 RMK AO2=
201009141621 SPECI KBLI 141621Z 00000KT 2SM BR OVC001 13/12 A3004 RMK AO2=
201009141609 SPECI KBLI 141609Z 00000KT 3SM BR OVC001 13/12 A3004 RMK AO2=
201009141609 SPECI KBLI 141609Z 00000KT 3SM BR OVC001 13/12 A3004 RMK AO2=
201009141602 SPECI KBLI 141602Z 00000KT 1SM BR OVC001 13/12 A3004 RMK AO2 VIS 1/4V3 RVRNO=
201009141602 SPECI KBLI 141602Z 00000KT 1SM BR OVC001 13/12 A3004 RMK AO2 VIS 1/4V3 RVRNO=
201009141553 METAR KBLI 141553Z 00000KT 1/2SM FG VV001 13/12 A3004 RMK AO2 SLP179 T01280122 RVRNO=
201009141453 METAR KBLI 141453Z 32003KT 1/2SM FG VV001 13/12 A3004 RMK AO2 SLP178 T01280122 51003 RVRNO=
201009141353 METAR KBLI 141353Z 35003KT 1/2SM FG VV001 13/12 A3003 RMK AO2 SLP176 T01280117 RVRNO=
201009141324 SPECI KBLI 141324Z AUTO 00000KT 1/2SM FG VV001 13/12 A3004 RMK AO2 RVRNO=
201009141324 SPECI KBLI 141324Z AUTO 00000KT 1/2SM FG VV001 13/12 A3004 RMK AO2 RVRNO=
201009141306 SPECI KBLI 141306Z AUTO 00000KT 3/4SM BR BKN001 OVC006 13/12 A3003 RMK AO2 RVRNO=
201009141306 SPECI KBLI 141306Z AUTO 00000KT 3/4SM BR BKN001 OVC006 13/12 A3003 RMK AO2 RVRNO=
201009141253 METAR KBLI 141253Z AUTO 00000KT 1/2SM FG BKN001 OVC006 13/12 A3003 RMK AO2 SLP175 T01280117 RVRNO=
201009141203 SPECI KBLI 141203Z AUTO 00000KT 1/2SM FG VV001 13/12 A3003 RMK AO2 RVRNO=
201009141203 SPECI KBLI 141203Z AUTO 00000KT 1/2SM FG VV001 13/12 A3003 RMK AO2 RVRNO=
201009141153 METAR KBLI 141153Z AUTO 00000KT 1 1/4SM BR OVC001 13/12 A3003 RMK AO2 SLP174 70001 T01330122 10133 20111 55000=
201009141122 SPECI KBLI 141122Z AUTO 33003KT 1 1/4SM BR BKN001 OVC006 13/12 A3002 RMK AO2=
201009141122 SPECI KBLI 141122Z AUTO 33003KT 1 1/4SM BR BKN001 OVC006 13/12 A3002 RMK AO2=
201009141053 METAR KBLI 141053Z AUTO 00000KT 3/4SM BR VV001 13/12 A3002 RMK AO2 SLP172 T01280117 RVRNO=
201009141010 SPECI KBLI 141010Z AUTO 00000KT 3/4SM BR VV001 13/12 A3002 RMK AO2 RVRNO=
201009141010 SPECI KBLI 141010Z AUTO 00000KT 3/4SM BR VV001 13/12 A3002 RMK AO2 RVRNO=
201009140953 METAR KBLI 140953Z AUTO 00000KT 1SM BR OVC002 13/12 A3003 RMK AO2 SLP174 T01330122 RVRNO=
201009140939 SPECI KBLI 140939Z AUTO 31003KT 1 1/4SM BR OVC002 13/12 A3003 RMK AO2=
201009140939 SPECI KBLI 140939Z AUTO 31003KT 1 1/4SM BR OVC002 13/12 A3003 RMK AO2=
201009140923 SPECI KBLI 140923Z AUTO 00000KT 2 1/2SM BR OVC002 13/12 A3003 RMK AO2=
201009140923 SPECI KBLI 140923Z AUTO 00000KT 2 1/2SM BR OVC002 13/12 A3003 RMK AO2=
201009140853 METAR KBLI 140853Z AUTO 00000KT 10SM OVC004 12/11 A3003 RMK AO2 CIG 002V007 SLP174 T01220111 58002=
201009140830 SPECI KBLI 140830Z AUTO 00000KT 3SM BR OVC006 12/11 A3003 RMK AO2=
201009140830 SPECI KBLI 140830Z AUTO 00000KT 3SM BR OVC006 12/11 A3003 RMK AO2=
201009140824 SPECI KBLI 140824Z AUTO 00000KT 1SM BR OVC006 12/11 A3003 RMK AO2 RVRNO=
201009140824 SPECI KBLI 140824Z AUTO 00000KT 1SM BR OVC006 12/11 A3003 RMK AO2 RVRNO=
201009140753 METAR KBLI 140753Z AUTO 00000KT 1/2SM FG SCT002 OVC008 12/11 A3003 RMK AO2 SLP175 T01170111 402110111 RVRNO=
201009140743 SPECI KBLI 140743Z AUTO 00000KT 1/2SM FG SCT002 BKN008 12/11 A3003 RMK AO2 RVRNO=
201009140743 SPECI KBLI 140743Z AUTO 00000KT 1/2SM FG SCT002 BKN008 12/11 A3003 RMK AO2 RVRNO=
201009140734 SPECI KBLI 140734Z AUTO 00000KT 3/4SM BR FEW002 BKN008 12/11 A3003 RMK AO2 RVRNO=
201009140734 SPECI KBLI 140734Z AUTO 00000KT 3/4SM BR FEW002 BKN008 12/11 A3003 RMK AO2 RVRNO=
201009140728 SPECI KBLI 140728Z AUTO 00000KT 2 1/2SM BR SCT002 SCT008 12/11 A3003 RMK AO2 VIS 1V5=
201009140728 SPECI KBLI 140728Z AUTO 00000KT 2 1/2SM BR SCT002 SCT008 12/11 A3003 RMK AO2 VIS 1V5=
201009140720 SPECI KBLI 140720Z AUTO 00000KT 2 1/2SM BR CLR 12/10 A3003 RMK AO2 VIS 1 1/2V5=
201009140720 SPECI KBLI 140720Z AUTO 00000KT 2 1/2SM BR CLR 12/10 A3003 RMK AO2 VIS 1 1/2V5=
201009140653 METAR KBLI 140653Z AUTO 00000KT 3SM BR CLR 12/10 A3004 RMK AO2 SLP178 T01170100=
201009140553 METAR KBLI 140553Z AUTO 00000KT 7SM CLR 12/11 A3003 RMK AO2 SLP177 T01220106 10211 20117 51004=
201009140459 SPECI KBLI 140459Z 00000KT 3SM BR CLR 12/11 A3003 RMK AO2=
201009140459 SPECI KBLI 140459Z 00000KT 3SM BR CLR 12/11 A3003 RMK AO2=
201009140453 METAR KBLI 140453Z 00000KT 1 3/4SM BR CLR 12/11 A3003 RMK AO2 VIS 1V5 SLP176 T01220106=
201009140353 METAR KBLI 140353Z 00000KT 10SM CLR 13/12 A3003 RMK AO2 SLP177 T01330117=
201009140253 METAR KBLI 140253Z 00000KT 10SM CLR 14/12 A3002 RMK AO2 SLP172 T01440122 56006=
201009140153 METAR KBLI 140153Z 27006KT 10SM CLR 16/13 A3003 RMK AO2 SLP173 T01610133=
201009140053 METAR KBLI 140053Z 25006KT 10SM CLR 18/14 A3003 RMK AO2 SLP175 T01780139=
201009140027 SPECI KBLI 140027Z 26005KT 10SM FEW024 19/14 A3004 RMK AO2=
201009140027 SPECI KBLI 140027Z 26005KT 10SM FEW024 19/14 A3004 RMK AO2=
201009140013 SPECI KBLI 140013Z VRB05KT 10SM BKN024 21/13 A3004 RMK AO2=
201009140013 SPECI KBLI 140013Z VRB05KT 10SM BKN024 21/13 A3004 RMK AO2=
201009132353 METAR KBLI 132353Z 35006KT 10SM SCT024 21/13 A3004 RMK AO2 SLP179 T02060133 10211 20156 58013=
201009132302 SPECI KBLI 132302Z 36004KT 10SM SCT024 20/13 A3005 RMK AO2=
201009132302 SPECI KBLI 132302Z 36004KT 10SM SCT024 20/13 A3005 RMK AO2=
201009132253 METAR KBLI 132253Z 36006KT 10SM BKN024 19/13 A3005 RMK AO2 SLP183 T01940128=
201009132242 SPECI KBLI 132242Z VRB03KT 10SM FEW024 20/13 A3006 RMK AO2=
201009132242 SPECI KBLI 132242Z VRB03KT 10SM FEW024 20/13 A3006 RMK AO2=
201009132212 SPECI KBLI 132212Z 01005KT 10SM BKN024 19/13 A3006 RMK AO2=
201009132212 SPECI KBLI 132212Z 01005KT 10SM BKN024 19/13 A3006 RMK AO2=
201009132200 SPECI KBLI 132200Z 31005KT 10SM SCT022 19/13 A3007 RMK AO2=
201009132200 SPECI KBLI 132200Z 31005KT 10SM SCT022 19/13 A3007 RMK AO2=
201009132153 METAR KBLI 132153Z VRB04KT 10SM SCT019 BKN025 19/13 A3007 RMK AO2 SLP188 T01940133=
201009132053 METAR KBLI 132053Z VRB03KT 10SM OVC023 19/14 A3008 RMK AO2 SLP192 T01890144 58005=
201009131953 METAR KBLI 131953Z 02006KT 10SM OVC021 17/14 A3008 RMK AO2 SLP193 T01720139=
201009131912 SPECI KBLI 131912Z 01004KT 10SM OVC015 16/14 A3009 RMK AO2=
201009131912 SPECI KBLI 131912Z 01004KT 10SM OVC015 16/14 A3009 RMK AO2=
201009131853 METAR KBLI 131853Z 01008KT 10SM OVC013 16/13 A3009 RMK AO2 SLP196 T01610133=
201009131841 SPECI KBLI 131841Z 02006KT 10SM SCT006 OVC011 16/14 A3009 RMK AO2=
201009131841 SPECI KBLI 131841Z 02006KT 10SM SCT006 OVC011 16/14 A3009 RMK AO2=
201009131753 METAR KBLI 131753Z 36006KT 10SM BKN004 OVC009 16/14 A3010 RMK AO2 RAE1657 SLP197 P0000 60001 T01560139 10156 20139 53005=
201009131731 SPECI KBLI 131731Z 02003KT 10SM BKN004 OVC010 16/14 A3009 RMK AO2 RAE1657 P0000=
201009131731 SPECI KBLI 131731Z 02003KT 10SM BKN004 OVC010 16/14 A3009 RMK AO2 RAE1657 P0000=
201009131717 SPECI KBLI 131717Z 01004KT 10SM SCT004 BKN010 OVC015 16/14 A3009 RMK AO2 RAE1657 P0000=
201009131717 SPECI KBLI 131717Z 01004KT 10SM SCT004 BKN010 OVC015 16/14 A3009 RMK AO2 RAE1657 P0000=
201009131653 METAR KBLI 131653Z 04004KT 10SM -RA BKN004 OVC011 15/14 A3009 RMK AO2 RAB01E12B43 SLP195 P0000 T01500139=
201009131608 SPECI KBLI 131608Z 01005KT 7SM -RA BKN004 OVC009 14/13 A3009 RMK AO2 RAB01 P0000=
201009131608 SPECI KBLI 131608Z 01005KT 7SM -RA BKN004 OVC009 14/13 A3009 RMK AO2 RAB01 P0000=
201009131553 METAR KBLI 131553Z 01003KT 10SM SCT004 OVC009 14/13 A3009 RMK AO2 SLP194 T01440133=
201009131500 SPECI KBLI 131500Z 35003KT 10SM FEW004 OVC009 14/13 A3008 RMK AO2=
201009131500 SPECI KBLI 131500Z 35003KT 10SM FEW004 OVC009 14/13 A3008 RMK AO2=
201009131453 METAR KBLI 131453Z 35003KT 10SM BKN004 OVC011 14/13 A3008 RMK AO2 RAE1358 SLP192 P0001 60001 T01390128 53004=
201009131353 METAR KBLI 131353Z AUTO 00000KT 8SM -RA OVC002 14/13 A3007 RMK AO2 RAB43 SLP189 P0000 T01390128=
201009131307 SPECI KBLI 131307Z AUTO 34003KT 10SM BKN002 OVC015 14/13 A3007 RMK AO2=
201009131307 SPECI KBLI 131307Z AUTO 34003KT 10SM BKN002 OVC015 14/13 A3007 RMK AO2=
201009131300 SPECI KBLI 131300Z AUTO 33003KT 10SM SCT002 OVC015 14/13 A3007 RMK AO2=
201009131300 SPECI KBLI 131300Z AUTO 33003KT 10SM SCT002 OVC015 14/13 A3007 RMK AO2=
201009131253 METAR KBLI 131253Z AUTO 01003KT 10SM BKN002 OVC015 14/13 A3007 RMK AO2 SLP188 T01390128=
201009131153 METAR KBLI 131153Z AUTO 02004KT 10SM BKN002 OVC018 14/13 A3007 RMK AO2 RAB00E50 SLP189 P0003 60013 70083 T01390128 10144 20139 51001=
201009131053 METAR KBLI 131053Z AUTO 01003KT 10SM BKN002 OVC011 14/13 A3007 RMK AO2 RAE28 SLP188 P0003 T01390128=
201009130953 METAR KBLI 130953Z AUTO 35004KT 5SM -RA BR BKN002 OVC014 14/13 A3007 RMK AO2 SLP188 P0002 T01390128=
201009130853 METAR KBLI 130853Z AUTO 01003KT 7SM -RA BKN002 OVC014 14/13 A3007 RMK AO2 RAE24B46 SLP187 P0002 60005 T01390133 53002=
201009130814 SPECI KBLI 130814Z AUTO 36003KT 5SM -RA BR BKN002 BKN017 OVC027 14/13 A3006 RMK AO2 P0001=
201009130814 SPECI KBLI 130814Z AUTO 36003KT 5SM -RA BR BKN002 BKN017 OVC027 14/13 A3006 RMK AO2 P0001=
201009130753 METAR KBLI 130753Z AUTO 36003KT 5SM -RA BR FEW002 BKN026 OVC032 14/13 A3006 RMK AO2 SLP186 P0003 T01390133 401560122=
201009130653 METAR KBLI 130653Z AUTO 00000KT 10SM -RA FEW003 OVC022 14/13 A3006 RMK AO2 RAB45 SLP184 P0000 T01440133=
201009130613 SPECI KBLI 130613Z AUTO 03004KT 8SM FEW014 OVC026 14/13 A3006 RMK AO2=
201009130613 SPECI KBLI 130613Z AUTO 03004KT 8SM FEW014 OVC026 14/13 A3006 RMK AO2=
201009130553 METAR KBLI 130553Z AUTO 02004KT 10SM FEW002 SCT024 OVC032 14/13 A3006 RMK AO2 RAE51 SLP186 P0002 60011 T01390133 10156 20139 58000=
201009130533 SPECI KBLI 130533Z AUTO 02004KT 7SM -RA FEW002 BKN030 OVC036 14/13 A3006 RMK AO2 P0001=
201009130533 SPECI KBLI 130533Z AUTO 02004KT 7SM -RA FEW002 BKN030 OVC036 14/13 A3006 RMK AO2 P0001=
201009130522 SPECI KBLI 130522Z AUTO 02003KT 6SM -RA BR SCT002 SCT011 OVC029 14/13 A3006 RMK AO2 P0001=
201009130522 SPECI KBLI 130522Z AUTO 02003KT 6SM -RA BR SCT002 SCT011 OVC029 14/13 A3006 RMK AO2 P0001=
201009130453 METAR KBLI 130453Z 01005KT 6SM -RA BR SCT002 BKN010 OVC033 14/13 A3006 RMK AO2 SLP187 P0006 T01440133=
201009130440 SPECI KBLI 130440Z 36004KT 4SM -RA BR SCT002 BKN012 OVC037 14/13 A3006 RMK AO2 P0005=
201009130440 SPECI KBLI 130440Z 36004KT 4SM -RA BR SCT002 BKN012 OVC037 14/13 A3006 RMK AO2 P0005=
201009130430 SPECI KBLI 130430Z 35003KT 3SM RA BR BKN002 BKN012 OVC029 14/13 A3006 RMK AO2 P0004=
201009130430 SPECI KBLI 130430Z 35003KT 3SM RA BR BKN002 BKN012 OVC029 14/13 A3006 RMK AO2 P0004=
201009130404 SPECI KBLI 130404Z 01003KT 4SM -RA BR SCT004 BKN010 OVC015 14/13 A3006 RMK AO2 P0001=
201009130404 SPECI KBLI 130404Z 01003KT 4SM -RA BR SCT004 BKN010 OVC015 14/13 A3006 RMK AO2 P0001=
201009130353 METAR KBLI 130353Z 02003KT 5SM -RA BR BKN004 OVC010 14/13 A3006 RMK AO2 RAB09 CIG 002V005 SLP187 P0003 T01440133=
201009130253 METAR KBLI 130253Z 36004KT 10SM OVC004 14/13 A3005 RMK AO2 RAE20B43E53 CIG 002V008 SLP184 P0000 60000 T01440133 53000=
201009130207 SPECI KBLI 130207Z 36004KT 10SM -RA BKN002 BKN019 OVC030 15/13 A3005 RMK AO2 P0000=
201009130207 SPECI KBLI 130207Z 36004KT 10SM -RA BKN002 BKN019 OVC030 15/13 A3005 RMK AO2 P0000=
201009130153 METAR KBLI 130153Z 01003KT 10SM -RA SCT002 BKN019 OVC030 15/14 A3005 RMK AO2 RAB35 SLP182 P0000 T01500139=
201009130141 SPECI KBLI 130141Z 00000KT 10SM -RA SCT002 BKN019 OVC032 15/14 A3005 RMK AO2 RAB35 P0000=
201009130141 SPECI KBLI 130141Z 00000KT 10SM -RA SCT002 BKN019 OVC032 15/14 A3005 RMK AO2 RAB35 P0000=
201009130122 SPECI KBLI 130122Z 00000KT 10SM FEW002 SCT019 OVC030 15/14 A3005 RMK AO2=
201009130122 SPECI KBLI 130122Z 00000KT 10SM FEW002 SCT019 OVC030 15/14 A3005 RMK AO2=
201009130102 SPECI KBLI 130102Z 00000KT 10SM SCT017 OVC030 15/14 A3005 RMK AO2=
201009130102 SPECI KBLI 130102Z 00000KT 10SM SCT017 OVC030 15/14 A3005 RMK AO2=
201009130053 METAR KBLI 130053Z 00000KT 10SM BKN017 OVC030 15/14 A3005 RMK AO2 RAB08E16B39E49 SLP183 P0000 T01500139=
201009130040 SPECI KBLI 130040Z 00000KT 10SM -RA BKN017 OVC028 16/14 A3006 RMK AO2 RAB08E16B39 P0000=
201009130040 SPECI KBLI 130040Z 00000KT 10SM -RA BKN017 OVC028 16/14 A3006 RMK AO2 RAB08E16B39 P0000=
201009122353 METAR KBLI 122353Z 00000KT 10SM FEW007 BKN030 OVC037 15/14 A3005 RMK AO2 SLP183 60025 T01500139 10150 20139 58002=
201009122338 SPECI KBLI 122338Z 00000KT 10SM FEW009 BKN030 OVC035 15/13 A3005 RMK AO2=
201009122338 SPECI KBLI 122338Z 00000KT 10SM FEW009 BKN030 OVC035 15/13 A3005 RMK AO2=
201009122331 SPECI KBLI 122331Z 00000KT 10SM SCT009 BKN020 OVC035 15/13 A3005 RMK AO2=
201009122331 SPECI KBLI 122331Z 00000KT 10SM SCT009 BKN020 OVC035 15/13 A3005 RMK AO2=
201009122306 SPECI KBLI 122306Z 00000KT 9SM SCT004 BKN010 OVC019 15/14 A3006 RMK AO2=
201009122306 SPECI KBLI 122306Z 00000KT 9SM SCT004 BKN010 OVC019 15/14 A3006 RMK AO2=
201009122253 METAR KBLI 122253Z 00000KT 7SM BKN004 OVC019 15/13 A3006 RMK AO2 RAE45 SLP185 P0002 T01500133=
201009122219 SPECI KBLI 122219Z 17003KT 4SM -RA BR BKN004 OVC016 14/13 A3006 RMK AO2 CIG 003V008 P0001=
201009122219 SPECI KBLI 122219Z 17003KT 4SM -RA BR BKN004 OVC016 14/13 A3006 RMK AO2 CIG 003V008 P0001=
201009122207 SPECI KBLI 122207Z 00000KT 4SM -RA BR SCT006 BKN010 OVC023 14/13 A3006 RMK AO2 P0001=
201009122207 SPECI KBLI 122207Z 00000KT 4SM -RA BR SCT006 BKN010 OVC023 14/13 A3006 RMK AO2 P0001=
201009122153 METAR KBLI 122153Z 00000KT 3SM -RA BR SCT006 BKN017 OVC023 14/13 A3006 RMK AO2 SLP186 P0004 T01440133=
201009122128 SPECI KBLI 122128Z 00000KT 3SM -RA BR FEW005 BKN017 OVC023 14/13 A3006 RMK AO2 P0003=
201009122128 SPECI KBLI 122128Z 00000KT 3SM -RA BR FEW005 BKN017 OVC023 14/13 A3006 RMK AO2 P0003=
201009122053 METAR KBLI 122053Z 16003KT 3SM -RA BR BKN024 OVC037 15/13 A3006 RMK AO2 SLP185 P0006 60019 T01500133 53001=
201009121953 METAR KBLI 121953Z 17006KT 3SM -RA BR BKN019 OVC026 14/13 A3006 RMK AO2 SLP185 P0006 T01440128=
201009121916 SPECI KBLI 121916Z 16006KT 3SM -RA BR FEW007 BKN021 OVC026 14/13 A3005 RMK AO2 P0002=
201009121916 SPECI KBLI 121916Z 16006KT 3SM -RA BR FEW007 BKN021 OVC026 14/13 A3005 RMK AO2 P0002=
201009121909 SPECI KBLI 121909Z 17005KT 4SM -RA BR SCT009 BKN014 OVC023 14/13 A3005 RMK AO2 P0001=
201009121909 SPECI KBLI 121909Z 17005KT 4SM -RA BR SCT009 BKN014 OVC023 14/13 A3005 RMK AO2 P0001=
201009121853 METAR KBLI 121853Z 18005KT 4SM -RA BR FEW005 BKN016 OVC021 14/13 A3005 RMK AO2 SLP184 P0007 T01390128=
201009121842 SPECI KBLI 121842Z 18005KT 4SM -RA BR SCT005 BKN011 OVC017 14/13 A3005 RMK AO2 P0006=
201009121842 SPECI KBLI 121842Z 18005KT 4SM -RA BR SCT005 BKN011 OVC017 14/13 A3005 RMK AO2 P0006=
201009121825 SPECI KBLI 121825Z 18006KT 3SM -RA BR BKN007 BKN013 OVC018 14/13 A3005 RMK AO2 CIG 004V009 P0004=
201009121825 SPECI KBLI 121825Z 18006KT 3SM -RA BR BKN007 BKN013 OVC018 14/13 A3005 RMK AO2 CIG 004V009 P0004=
201009121809 SPECI KBLI 121809Z 18005KT 3SM -RA BR FEW007 BKN018 OVC026 14/12 A3005 RMK AO2 P0002=
201009121809 SPECI KBLI 121809Z 18005KT 3SM -RA BR FEW007 BKN018 OVC026 14/12 A3005 RMK AO2 P0002=
201009121753 METAR KBLI 121753Z 19007KT 5SM -RA BR FEW010 BKN020 OVC029 14/12 A3005 RMK AO2 SLP184 P0003 60034 T01390122 10139 20128 53005=
201009121727 SPECI KBLI 121727Z 18006KT 9SM -RA BKN021 OVC032 14/12 A3005 RMK AO2 P0001=
201009121727 SPECI KBLI 121727Z 18006KT 9SM -RA BKN021 OVC032 14/12 A3005 RMK AO2 P0001=
201009121653 METAR KBLI 121653Z 18008KT 8SM -RA OVC032 14/11 A3005 RMK AO2 SLP181 P0003 T01390111=
201009121553 METAR KBLI 121553Z 17005KT 10SM -RA OVC034 13/12 A3004 RMK AO2 SLP181 P0004 T01330117=
201009121453 METAR KBLI 121453Z 18006KT 10SM -RA FEW022 OVC032 13/11 A3004 RMK AO2 SLP179 P0004 60024 T01330111 53002=
201009121353 METAR KBLI 121353Z 17011G15KT 7SM -RA OVC037 13/11 A3004 RMK AO2 SLP177 P0007 T01280106=
201009121253 METAR KBLI 121253Z AUTO 16006KT 7SM -RA FEW015 OVC039 13/11 A3003 RMK AO2 SLP175 P0013 T01280111=
201009121153 METAR KBLI 121153Z AUTO 00000KT 4SM RA BR FEW001 OVC047 13/12 A3003 RMK AO2 SLP176 P0010 60023 70026 T01280117 10133 20122 55000=
201009121140 SPECI KBLI 121140Z AUTO 00000KT 4SM RA BR FEW001 OVC047 12/12 A3003 RMK AO2 P0007=
201009121140 SPECI KBLI 121140Z AUTO 00000KT 4SM RA BR FEW001 OVC047 12/12 A3003 RMK AO2 P0007=
201009121053 METAR KBLI 121053Z AUTO 00000KT 5SM -RA BR SCT039 OVC046 12/12 A3003 RMK AO2 SLP174 P0007 T01220117=
201009120953 METAR KBLI 120953Z AUTO 34003KT 6SM -RA BR OVC050 13/11 A3002 RMK AO2 SLP173 P0005 T01280111=
201009120853 METAR KBLI 120853Z AUTO 35004KT 10SM -RA FEW042 OVC050 13/11 A3004 RMK AO2 SLP177 P0000 60001 T01280111 55006=
201009120753 METAR KBLI 120753Z AUTO 01003KT 10SM -RA OVC060 13/11 A3003 RMK AO2 SLP176 P0000 T01280111 401830094=
201009120653 METAR KBLI 120653Z AUTO 03003KT 10SM -RA BKN045 OVC065 13/11 A3004 RMK AO2 SLP180 P0001 T01280111=
201009120553 METAR KBLI 120553Z AUTO 00000KT 10SM -RA BKN045 OVC070 13/12 A3005 RMK AO2 SLP184 P0001 60003 T01330117 10172 20133 58004=
201009120453 METAR KBLI 120453Z 00000KT 10SM -RA BKN070 OVC080 13/12 A3006 RMK AO2 SLP185 P0001 T01330117=
201009120353 METAR KBLI 120353Z 00000KT 10SM -RA OVC080 13/12 A3007 RMK AO2 SLP189 P0000 T01330117=
201009120253 METAR KBLI 120253Z 00000KT 10SM -RA FEW065 OVC080 14/12 A3007 RMK AO2 RAB00 SLP188 P0001 60001 T01390122 56007=
201009120153 METAR KBLI 120153Z 00000KT 10SM BKN070 16/11 A3007 RMK AO2 SLP188 T01610106=
201009120053 METAR KBLI 120053Z 00000KT 10SM OVC075 17/09 A3007 RMK AO2 SLP190 T01670094=
201009112353 METAR KBLI 112353Z 19004KT 10SM OVC080 17/09 A3009 RMK AO2 SLP194 T01720089 10183 20144 56007=
201009112253 METAR KBLI 112253Z 19004KT 10SM FEW110 17/09 A3009 RMK AO2 SLP194 T01720089=
201009112153 METAR KBLI 112153Z 17008KT 10SM CLR 17/08 A3010 RMK AO2 SLP198 T01720083=
201009112053 METAR KBLI 112053Z 18008KT 10SM CLR 17/09 A3011 RMK AO2 SLP201 T01670089 57005=
201009111953 METAR KBLI 111953Z 17008KT 10SM CLR 16/08 A3011 RMK AO2 SLP202 T01610083=
201009111853 METAR KBLI 111853Z 17008KT 10SM CLR 15/09 A3012 RMK AO2 SLP205 T01500094=
201009111753 METAR KBLI 111753Z 17010G15KT 10SM CLR 14/09 A3012 RMK AO2 SLP206 T01440094 10144 20094 53002=
201009111653 METAR KBLI 111653Z 17010KT 10SM CLR 14/10 A3011 RMK AO2 SLP203 T01390100=
201009111553 METAR KBLI 111553Z 15007KT 10SM CLR 14/09 A3011 RMK AO2 SLP203 T01390094=
201009111453 METAR KBLI 111453Z 00000KT 10SM CLR 11/09 A3012 RMK AO2 SLP205 T01110089 53005=
201009111353 METAR KBLI 111353Z 00000KT 10SM CLR 10/08 A3011 RMK AO2 SLP201 T01000083=
201009111253 METAR KBLI 111253Z AUTO 00000KT 10SM FEW070 10/09 A3010 RMK AO2 SLP201 T01000089=
201009111153 METAR KBLI 111153Z AUTO 16005KT 10SM CLR 11/08 A3010 RMK AO2 SLP200 T01110083 10139 20106 53000=
201009111053 METAR KBLI 111053Z AUTO 17004KT 10SM CLR 12/08 A3010 RMK AO2 SLP198 T01170083=
201009110953 METAR KBLI 110953Z AUTO 16004KT 10SM CLR 12/09 A3010 RMK AO2 SLP198 T01220089=
201009110853 METAR KBLI 110853Z AUTO 17005KT 10SM BKN065 OVC080 13/09 A3010 RMK AO2 SLP198 T01330089 55001=
201009110753 METAR KBLI 110753Z AUTO 17006KT 10SM OVC080 13/09 A3010 RMK AO2 SLP197 T01330089 401780133=
201009110653 METAR KBLI 110653Z AUTO 17007KT 10SM BKN075 OVC090 14/09 A3010 RMK AO2 SLP198 T01390089=
201009110553 METAR KBLI 110553Z AUTO 17005KT 10SM OVC085 14/09 A3010 RMK AO2 RAE33 SLP199 P0000 60000 T01390094 10167 20133 50004=
201009110453 METAR KBLI 110453Z 15006KT 10SM -RA OVC065 14/09 A3011 RMK AO2 RAB50 SLP201 P0000 T01440089=
201009110353 METAR KBLI 110353Z 17007KT 10SM OVC060 14/08 A3010 RMK AO2 SLP199 T01440083=
201009110253 METAR KBLI 110253Z 16007KT 10SM OVC070 14/09 A3009 RMK AO2 SLP195 T01440089 56003=
201009110153 METAR KBLI 110153Z 16005KT 10SM FEW055 OVC075 16/10 A3010 RMK AO2 SLP197 T01560100=
201009110053 METAR KBLI 110053Z 18007KT 10SM OVC080 16/10 A3009 RMK AO2 SLP196 T01610100=
201009102353 METAR KBLI 102353Z 17008KT 10SM OVC080 17/11 A3010 RMK AO2 SLP198 T01670106 10178 20144 58004=
201009102253 METAR KBLI 102253Z 15008KT 10SM OVC085 18/10 A3011 RMK AO2 SLP201 T01780100=
201009102153 METAR KBLI 102153Z 18008KT 10SM OVC085 17/11 A3011 RMK AO2 SLP203 T01720106=
201009102053 METAR KBLI 102053Z 22004KT 10SM OVC080 16/10 A3011 RMK AO2 SLP203 T01610100 53004=
201009101953 METAR KBLI 101953Z VRB05KT 10SM FEW040 OVC080 16/11 A3011 RMK AO2 SLP201 T01610111=
201009101853 METAR KBLI 101853Z 21006KT 10SM FEW040 OVC075 15/11 A3010 RMK AO2 SLP200 T01500106=
201009101753 METAR KBLI 101753Z 18005KT 10SM FEW032 OVC044 15/11 A3010 RMK AO2 SLP199 60000 T01500106 10150 20139 53007=
201009101653 METAR KBLI 101653Z 17004KT 10SM OVC032 14/10 A3009 RMK AO2 SLP196 T01440100=
201009101553 METAR KBLI 101553Z 14007KT 10SM FEW034 SCT043 OVC055 14/09 A3008 RMK AO2 RAB15E24 SLP193 P0000 T01440094=
201009101453 METAR KBLI 101453Z 13008KT 10SM BKN055 OVC070 14/09 A3008 RMK AO2 SLP192 T01390094 53008=
201009101353 METAR KBLI 101353Z AUTO 15004KT 10SM OVC049 14/09 A3007 RMK AO2 SLP187 T01390094=
201009101253 METAR KBLI 101253Z AUTO 16004KT 10SM OVC049 14/09 A3006 RMK AO2 SLP184 T01390094=
201009101153 METAR KBLI 101153Z AUTO 14009KT 10SM OVC047 14/09 A3006 RMK AO2 SLP184 T01440094 10150 20144 51007=
201009101053 METAR KBLI 101053Z AUTO 16008KT 10SM OVC043 14/10 A3005 RMK AO2 SLP182 T01440100=
201009100953 METAR KBLI 100953Z AUTO 17007KT 10SM OVC050 15/09 A3005 RMK AO2 SLP181 T01500094=
201009100853 METAR KBLI 100853Z AUTO 17006KT 10SM OVC044 15/09 A3004 RMK AO2 SLP177 T01500094 53009=
201009100753 METAR KBLI 100753Z AUTO 17006KT 10SM OVC038 15/09 A3003 RMK AO2 SLP174 T01500094 401830100=
201009100653 METAR KBLI 100653Z AUTO 17007KT 10SM OVC040 15/09 A3001 RMK AO2 SLP170 T01500094=
201009100553 METAR KBLI 100553Z AUTO 17008KT 10SM OVC036 15/10 A3001 RMK AO2 SLP168 T01500100 10172 20150 51013=
201009100453 METAR KBLI 100453Z 18006KT 10SM OVC032 15/10 A3000 RMK AO2 SLP164 T01500100=
201009100425 SPECI KBLI 100425Z 17006KT 10SM OVC030 15/10 A2999 RMK AO2=
201009100425 SPECI KBLI 100425Z 17006KT 10SM OVC030 15/10 A2999 RMK AO2=
201009100353 METAR KBLI 100353Z 17008KT 10SM BKN028 OVC100 15/10 A2998 RMK AO2 SLP159 T01500100=
201009100253 METAR KBLI 100253Z 17008KT 10SM SCT100 16/09 A2997 RMK AO2 SLP154 T01560094 53010=
201009100153 METAR KBLI 100153Z 17009KT 10SM SCT100 16/10 A2995 RMK AO2 SLP149 T01610100=
201009100053 METAR KBLI 100053Z 17010G17KT 10SM CLR 16/11 A2995 RMK AO2 SLP148 T01610111=
201009092353 METAR KBLI 092353Z 17009G15KT 10SM SCT095 17/11 A2994 RMK AO2 SLP144 T01720106 10183 20156 51003=
201009092253 METAR KBLI 092253Z 18007G15KT 150V210 10SM CLR 18/11 A2994 RMK AO2 SLP144 T01780106=
201009092153 METAR KBLI 092153Z 17010G15KT 10SM CLR 18/11 A2993 RMK AO2 SLP142 T01830106=
201009092053 METAR KBLI 092053Z 19009KT 150V220 10SM CLR 18/11 A2993 RMK AO2 SLP141 T01780106 53006=
201009091953 METAR KBLI 091953Z 16010KT 10SM CLR 17/11 A2992 RMK AO2 SLP139 T01670106=
201009091853 METAR KBLI 091853Z 16008KT 10SM CLR 17/11 A2992 RMK AO2 SLP137 T01670106=
201009091753 METAR KBLI 091753Z 16006KT 10SM OVC036 16/10 A2991 RMK AO2 SLP135 T01560100 10156 20100 51009=
201009091653 METAR KBLI 091653Z 15006KT 10SM OVC034 14/11 A2991 RMK AO2 SLP134 T01440106=
201009091609 SPECI KBLI 091609Z 18004KT 10SM OVC030 13/11 A2990 RMK AO2=
201009091609 SPECI KBLI 091609Z 18004KT 10SM OVC030 13/11 A2990 RMK AO2=
201009091553 METAR KBLI 091553Z 18008KT 10SM OVC028 13/11 A2990 RMK AO2 SLP129 T01330106=
201009091453 METAR KBLI 091453Z 16004KT 10SM BKN022 BKN034 13/11 A2989 RMK AO2 SLP126 T01280106 53008=
201009091353 METAR KBLI 091353Z 16005KT 10SM SCT019 13/11 A2987 RMK AO2 SLP120 T01280106=
201009091309 SPECI KBLI 091309Z AUTO 17006KT 10SM SCT007 BKN021 OVC100 13/11 A2986 RMK AO2=
201009091309 SPECI KBLI 091309Z AUTO 17006KT 10SM SCT007 BKN021 OVC100 13/11 A2986 RMK AO2=
201009091253 METAR KBLI 091253Z AUTO 18005KT 10SM BKN007 OVC100 12/11 A2986 RMK AO2 CIG 005V010 SLP118 T01220106=
201009091217 SPECI KBLI 091217Z AUTO 00000KT 9SM BKN008 11/10 A2986 RMK AO2 CIG 003V010=
201009091217 SPECI KBLI 091217Z AUTO 00000KT 9SM BKN008 11/10 A2986 RMK AO2 CIG 003V010=
201009091153 METAR KBLI 091153Z AUTO 00000KT 10SM FEW008 13/11 A2985 RMK AO2 SLP113 T01280111 10128 20106 51004=
201009091134 SPECI KBLI 091134Z AUTO 16003KT 10SM SCT006 12/11 A2984 RMK AO2=
201009091134 SPECI KBLI 091134Z AUTO 16003KT 10SM SCT006 12/11 A2984 RMK AO2=
201009091103 SPECI KBLI 091103Z AUTO 00000KT 10SM BKN006 BKN029 BKN100 12/11 A2985 RMK AO2=
201009091103 SPECI KBLI 091103Z AUTO 00000KT 10SM BKN006 BKN029 BKN100 12/11 A2985 RMK AO2=
201009091053 METAR KBLI 091053Z AUTO 00000KT 10SM SCT006 BKN100 12/11 A2984 RMK AO2 SLP111 T01220111=
201009091049 SPECI KBLI 091049Z AUTO 18004KT 10SM BKN006 OVC100 12/11 A2984 RMK AO2=
201009091049 SPECI KBLI 091049Z AUTO 18004KT 10SM BKN006 OVC100 12/11 A2984 RMK AO2=
201009091037 SPECI KBLI 091037Z AUTO 00000KT 10SM SCT008 BKN100 12/11 A2984 RMK AO2=
201009091037 SPECI KBLI 091037Z AUTO 00000KT 10SM SCT008 BKN100 12/11 A2984 RMK AO2=
201009091025 SPECI KBLI 091025Z AUTO 00000KT 10SM SCT021 OVC100 12/11 A2984 RMK AO2=
201009091025 SPECI KBLI 091025Z AUTO 00000KT 10SM SCT021 OVC100 12/11 A2984 RMK AO2=
201009091009 SPECI KBLI 091009Z AUTO 00000KT 10SM FEW017 BKN021 OVC100 12/10 A2984 RMK AO2=
201009091009 SPECI KBLI 091009Z AUTO 00000KT 10SM FEW017 BKN021 OVC100 12/10 A2984 RMK AO2=
201009090953 METAR KBLI 090953Z AUTO 00000KT 10SM FEW021 OVC100 12/11 A2983 RMK AO2 SLP108 T01170106=
201009090937 SPECI KBLI 090937Z AUTO 00000KT 10SM SCT019 OVC095 12/11 A2983 RMK AO2=
201009090937 SPECI KBLI 090937Z AUTO 00000KT 10SM SCT019 OVC095 12/11 A2983 RMK AO2=
201009090919 SPECI KBLI 090919Z AUTO 17003KT 10SM FEW006 OVC019 12/10 A2983 RMK AO2=
201009090919 SPECI KBLI 090919Z AUTO 17003KT 10SM FEW006 OVC019 12/10 A2983 RMK AO2=
201009090853 METAR KBLI 090853Z AUTO 00000KT 10SM OVC008 12/10 A2983 RMK AO2 SLP108 T01170100 53006=
201009090834 SPECI KBLI 090834Z AUTO 00000KT 10SM BKN008 OVC075 11/10 A2983 RMK AO2=
201009090834 SPECI KBLI 090834Z AUTO 00000KT 10SM BKN008 OVC075 11/10 A2983 RMK AO2=
201009090825 SPECI KBLI 090825Z AUTO 00000KT 10SM SCT008 OVC075 11/09 A2983 RMK AO2=
201009090825 SPECI KBLI 090825Z AUTO 00000KT 10SM SCT008 OVC075 11/09 A2983 RMK AO2=
201009090753 METAR KBLI 090753Z AUTO 00000KT 10SM FEW028 OVC075 11/09 A2982 RMK AO2 SLP104 T01110094 401890100=
201009090653 METAR KBLI 090653Z AUTO 00000KT 10SM CLR 12/10 A2982 RMK AO2 SLP103 T01170100=
201009090553 METAR KBLI 090553Z 00000KT 10SM FEW095 13/11 A2982 RMK AO2 SLP103 T01280106 10178 20128 51003=
201009090453 METAR KBLI 090453Z 00000KT 10SM SCT090 13/12 A2981 RMK AO2 SLP103 T01280117=
201009090353 METAR KBLI 090353Z 20003KT 10SM SCT070 OVC090 15/12 A2981 RMK AO2 SLP102 T01500122=
201009090253 METAR KBLI 090253Z 00000KT 10SM BKN041 BKN065 OVC075 16/12 A2981 RMK AO2 SLP099 T01560122 53010=
201009090153 METAR KBLI 090153Z 00000KT 10SM FEW075 SCT090 17/12 A2980 RMK AO2 SLP095 T01720117=
201009090053 METAR KBLI 090053Z 17006KT 10SM FEW070 17/12 A2979 RMK AO2 SLP092 T01720117=
201009082353 METAR KBLI 082353Z 18005G14KT 10SM CLR 18/12 A2978 RMK AO2 SLP089 T01780117 10189 20156 55004=
201009082253 METAR KBLI 082253Z 17008KT 10SM CLR 19/11 A2977 RMK AO2 SLP088 T01890111=
201009082153 METAR KBLI 082153Z 18008KT 10SM CLR 18/11 A2978 RMK AO2 SLP091 T01830106=
201009082053 METAR KBLI 082053Z 17007KT 10SM CLR 18/11 A2979 RMK AO2 SLP093 T01830111 55004=
201009081953 METAR KBLI 081953Z 17006KT 10SM CLR 18/13 A2979 RMK AO2 SLP092 T01780128=
201009081853 METAR KBLI 081853Z VRB04KT 10SM CLR 17/12 A2979 RMK AO2 SLP094 T01670117=
201009081830 SPECI KBLI 081830Z 16005KT 10SM FEW011 17/12 A2980 RMK AO2=
201009081830 SPECI KBLI 081830Z 16005KT 10SM FEW011 17/12 A2980 RMK AO2=
201009081823 SPECI KBLI 081823Z 15006KT 10SM BKN011 17/12 A2980 RMK AO2=
201009081823 SPECI KBLI 081823Z 15006KT 10SM BKN011 17/12 A2980 RMK AO2=
201009081811 SPECI KBLI 081811Z 15005KT 10SM SCT013 17/12 A2980 RMK AO2=
201009081811 SPECI KBLI 081811Z 15005KT 10SM SCT013 17/12 A2980 RMK AO2=
201009081753 METAR KBLI 081753Z 17004KT 10SM BKN011 16/12 A2980 RMK AO2 SLP096 T01610122 10161 20111 50002=
201009081746 SPECI KBLI 081746Z 14004KT 10SM BKN011 16/12 A2980 RMK AO2=
201009081746 SPECI KBLI 081746Z 14004KT 10SM BKN011 16/12 A2980 RMK AO2=
201009081653 METAR KBLI 081653Z 18004KT 5SM BR BKN005 OVC008 14/12 A2980 RMK AO2 SLP098 T01390122=
201009081626 SPECI KBLI 081626Z 00000KT 7SM OVC005 13/12 A2980 RMK AO2 CIG 003V007=
201009081626 SPECI KBLI 081626Z 00000KT 7SM OVC005 13/12 A2980 RMK AO2 CIG 003V007=
201009081614 SPECI KBLI 081614Z 14003KT 6SM BR OVC003 13/12 A2980 RMK AO2 CIG 002V008=
201009081614 SPECI KBLI 081614Z 14003KT 6SM BR OVC003 13/12 A2980 RMK AO2 CIG 002V008=
201009081553 METAR KBLI 081553Z 00000KT 3SM BR OVC001 13/12 A2980 RMK AO2 SLP096 T01330122=
201009081546 SPECI KBLI 081546Z 00000KT 3SM BR OVC001 13/12 A2979 RMK AO2=
201009081546 SPECI KBLI 081546Z 00000KT 3SM BR OVC001 13/12 A2979 RMK AO2=
201009081533 SPECI KBLI 081533Z 00000KT 1SM BR VV001 13/12 A2979 RMK AO2 RVRNO=
201009081533 SPECI KBLI 081533Z 00000KT 1SM BR VV001 13/12 A2979 RMK AO2 RVRNO=
201009081453 METAR KBLI 081453Z 00000KT 1/4SM FG VV001 13/12 A2979 RMK AO2 SLP095 T01280117 53006 RVRNO=
201009081410 SPECI KBLI 081410Z 00000KT 1/4SM FG VV001 12/12 A2978 RMK AO2 RVRNO=
201009081410 SPECI KBLI 081410Z 00000KT 1/4SM FG VV001 12/12 A2978 RMK AO2 RVRNO=
201009081403 SPECI KBLI 081403Z 00000KT 3/4SM BR VV001 12/11 A2978 RMK AO2 RVRNO=
201009081403 SPECI KBLI 081403Z 00000KT 3/4SM BR VV001 12/11 A2978 RMK AO2 RVRNO=
201009081353 METAR KBLI 081353Z 00000KT 1 3/4SM BR OVC002 12/11 A2978 RMK AO2 SLP091 T01220111=
201009081323 SPECI KBLI 081323Z AUTO 00000KT 2 1/2SM BR OVC002 12/11 A2978 RMK AO2=
201009081323 SPECI KBLI 081323Z AUTO 00000KT 2 1/2SM BR OVC002 12/11 A2978 RMK AO2=
201009081253 METAR KBLI 081253Z AUTO 00000KT 5SM BR OVC002 12/11 A2977 RMK AO2 CIG 001V004 SLP089 T01170106=
201009081249 SPECI KBLI 081249Z AUTO 00000KT 6SM BR OVC002 12/11 A2977 RMK AO2 CIG 001V004=
201009081249 SPECI KBLI 081249Z AUTO 00000KT 6SM BR OVC002 12/11 A2977 RMK AO2 CIG 001V004=
201009081240 SPECI KBLI 081240Z AUTO 00000KT 2 1/2SM BR BKN004 11/10 A2977 RMK AO2 VIS 1 1/2V4 CIG 001V007=
201009081240 SPECI KBLI 081240Z AUTO 00000KT 2 1/2SM BR BKN004 11/10 A2977 RMK AO2 VIS 1 1/2V4 CIG 001V007=
201009081153 METAR KBLI 081153Z AUTO 00000KT 6SM BR OVC004 12/11 A2977 RMK AO2 SLP087 60001 70012 T01220111 10133 20100 55001=
201009081139 SPECI KBLI 081139Z AUTO 00000KT 8SM OVC004 12/11 A2977 RMK AO2=
201009081139 SPECI KBLI 081139Z AUTO 00000KT 8SM OVC004 12/11 A2977 RMK AO2=
201009081053 METAR KBLI 081053Z AUTO 00000KT 9SM OVC006 12/11 A2977 RMK AO2 SLP086 T01220111=
201009081044 SPECI KBLI 081044Z AUTO 00000KT 7SM BKN006 OVC095 12/11 A2977 RMK AO2=
201009081044 SPECI KBLI 081044Z AUTO 00000KT 7SM BKN006 OVC095 12/11 A2977 RMK AO2=
201009081035 SPECI KBLI 081035Z AUTO 00000KT 9SM SCT008 OVC095 12/11 A2977 RMK AO2=
201009081035 SPECI KBLI 081035Z AUTO 00000KT 9SM SCT008 OVC095 12/11 A2977 RMK AO2=
201009080953 METAR KBLI 080953Z AUTO 00000KT 10SM OVC090 12/11 A2977 RMK AO2 SLP087 T01170106=
201009080853 METAR KBLI 080853Z AUTO 00000KT 10SM FEW001 OVC090 12/11 A2977 RMK AO2 SLP088 P0001 60001 T01170111 55003=
201009080753 METAR KBLI 080753Z AUTO 00000KT 4SM BR CLR 11/10 A2977 RMK AO2 SLP088 T01110100 401780106=
201009080747 SPECI KBLI 080747Z AUTO 00000KT 3SM BR CLR 11/09 A2977 RMK AO2 401780106=
201009080747 SPECI KBLI 080747Z AUTO 00000KT 3SM BR CLR 11/09 A2977 RMK AO2 401780106=
201009080737 SPECI KBLI 080737Z AUTO 00000KT 1 1/2SM BR CLR 11/09 A2977 RMK AO2=
201009080737 SPECI KBLI 080737Z AUTO 00000KT 1 1/2SM BR CLR 11/09 A2977 RMK AO2=
201009080653 METAR KBLI 080653Z AUTO 00000KT 10SM CLR 12/11 A2977 RMK AO2 SLP088 T01170111=
201009080553 METAR KBLI 080553Z AUTO 00000KT 10SM SCT090 13/12 A2978 RMK AO2 RAB10E39 SLP091 P0000 60000 T01330117 10161 20128 58004=
201009080453 METAR KBLI 080453Z 00000KT 10SM FEW042 BKN100 13/12 A2979 RMK AO2 RAB0355E14 SLP095 P0000 T01330122=
201009080353 METAR KBLI 080353Z 00000KT 10SM OVC090 14/12 A2980 RMK AO2 RAB12E43 SLP099 P0000 T01390122=
201009080253 METAR KBLI 080253Z 00000KT 10SM BKN030 OVC080 14/12 A2980 RMK AO2 RAB37E48 SLP097 P0000 60000 T01440122 56001=
201009080223 SPECI KBLI 080223Z 16003KT 10SM OVC030 15/12 A2980 RMK AO2=
201009080223 SPECI KBLI 080223Z 16003KT 10SM OVC030 15/12 A2980 RMK AO2=
201009080153 METAR KBLI 080153Z 16003KT 10SM BKN026 BKN037 OVC095 16/12 A2980 RMK AO2 SLP097 T01560117=
201009080053 METAR KBLI 080053Z 00000KT 10SM BKN090 16/11 A2979 RMK AO2 SLP095 T01610111=
201009080021 SPECI KBLI 080021Z 25003KT 10SM SCT024 OVC080 16/11 A2980 RMK AO2=
201009080021 SPECI KBLI 080021Z 25003KT 10SM SCT024 OVC080 16/11 A2980 RMK AO2=
201009080011 SPECI KBLI 080011Z 29003KT 10SM BKN024 OVC075 17/11 A2980 RMK AO2=
201009080011 SPECI KBLI 080011Z 29003KT 10SM BKN024 OVC075 17/11 A2980 RMK AO2=
201009072353 METAR KBLI 072353Z VRB03KT 10SM FEW024 BKN070 OVC100 17/11 A2980 RMK AO2 SLP096 T01670111 10178 20156 56003=
201009072253 METAR KBLI 072253Z 26005KT 10SM SCT024 BKN060 17/12 A2980 RMK AO2 SLP097 T01670117=
201009072153 METAR KBLI 072153Z VRB05KT 10SM FEW015 BKN024 OVC070 17/12 A2980 RMK AO2 SLP098 T01720122=
201009072053 METAR KBLI 072053Z 27007KT 10SM SCT024 OVC070 17/12 A2981 RMK AO2 SLP099 T01670122 56007=
201009072018 SPECI KBLI 072018Z VRB04KT 10SM SCT013 BKN019 OVC024 17/13 A2981 RMK AO2=
201009072018 SPECI KBLI 072018Z VRB04KT 10SM SCT013 BKN019 OVC024 17/13 A2981 RMK AO2=
201009072007 SPECI KBLI 072007Z VRB04KT 10SM BKN013 BKN024 OVC070 17/13 A2981 RMK AO2=
201009072007 SPECI KBLI 072007Z VRB04KT 10SM BKN013 BKN024 OVC070 17/13 A2981 RMK AO2=
201009071953 METAR KBLI 071953Z 25004KT 10SM FEW024 SCT050 OVC065 16/13 A2981 RMK AO2 SLP101 T01610128=
201009071939 SPECI KBLI 071939Z 21004KT 10SM FEW016 SCT027 OVC065 16/13 A2981 RMK AO2=
201009071939 SPECI KBLI 071939Z 21004KT 10SM FEW016 SCT027 OVC065 16/13 A2981 RMK AO2=
201009071853 METAR KBLI 071853Z 00000KT 10SM SCT010 BKN016 OVC060 17/12 A2982 RMK AO2 SLP104 T01670117=
201009071804 SPECI KBLI 071804Z 29004KT 10SM SCT010 BKN016 OVC060 16/13 A2982 RMK AO2=
201009071804 SPECI KBLI 071804Z 29004KT 10SM SCT010 BKN016 OVC060 16/13 A2982 RMK AO2=
201009071753 METAR KBLI 071753Z 35004KT 10SM BKN008 OVC060 16/13 A2983 RMK AO2 SLP106 60011 T01610128 10161 20122 58004=
201009071739 SPECI KBLI 071739Z 01003KT 10SM BKN008 OVC060 16/13 A2983 RMK AO2=
201009071739 SPECI KBLI 071739Z 01003KT 10SM BKN008 OVC060 16/13 A2983 RMK AO2=
201009071713 SPECI KBLI 071713Z 33004KT 10SM FEW006 OVC055 15/12 A2983 RMK AO2=
201009071713 SPECI KBLI 071713Z 33004KT 10SM FEW006 OVC055 15/12 A2983 RMK AO2=
201009071653 METAR KBLI 071653Z 01005KT 10SM FEW039 OVC055 14/12 A2983 RMK AO2 RAB1559E10 SLP109 P0000 T01440122=
201009071617 SPECI KBLI 071617Z 34003KT 10SM FEW008 BKN030 OVC049 14/12 A2983 RMK AO2 RAB1559E10 P0000=
201009071617 SPECI KBLI 071617Z 34003KT 10SM FEW008 BKN030 OVC049 14/12 A2983 RMK AO2 RAB1559E10 P0000=
201009071600 SPECI KBLI 071600Z 00000KT 9SM -RA SCT010 BKN021 OVC037 13/12 A2984 RMK AO2 RAB1559 P0000=
201009071600 SPECI KBLI 071600Z 00000KT 9SM -RA SCT010 BKN021 OVC037 13/12 A2984 RMK AO2 RAB1559 P0000=
201009071553 METAR KBLI 071553Z 00000KT 10SM FEW002 BKN046 OVC060 13/12 A2984 RMK AO2 RAE1458 SLP111 P0000 T01330122=
201009071540 SPECI KBLI 071540Z 05003KT 10SM FEW002 BKN046 OVC060 13/12 A2984 RMK AO2 RAE1458 P0000=
201009071540 SPECI KBLI 071540Z 05003KT 10SM FEW002 BKN046 OVC060 13/12 A2984 RMK AO2 RAE1458 P0000=
201009071528 SPECI KBLI 071528Z 03003KT 10SM SCT027 BKN046 OVC060 13/12 A2984 RMK AO2 RAE1458 P0000=
201009071528 SPECI KBLI 071528Z 03003KT 10SM SCT027 BKN046 OVC060 13/12 A2984 RMK AO2 RAE1458 P0000=
201009071509 SPECI KBLI 071509Z 04004KT 10SM SCT002 BKN026 OVC046 13/12 A2984 RMK AO2 RAE1458 P0000=
201009071509 SPECI KBLI 071509Z 04004KT 10SM SCT002 BKN026 OVC046 13/12 A2984 RMK AO2 RAE1458 P0000=
201009071453 METAR KBLI 071453Z 36003KT 6SM -RA BR BKN002 BKN021 OVC044 13/12 A2984 RMK AO2 RAB44 SLP111 P0000 60011 T01280117 56000=
201009071415 SPECI KBLI 071415Z 03003KT 6SM BR BKN002 OVC023 12/11 A2984 RMK AO2=
201009071415 SPECI KBLI 071415Z 03003KT 6SM BR BKN002 OVC023 12/11 A2984 RMK AO2=
201009071353 METAR KBLI 071353Z 00000KT 10SM FEW002 OVC027 12/11 A2984 RMK AO2 RAE39 SLP111 P0007 T01220111=
201009071253 METAR KBLI 071253Z AUTO 36003KT 6SM -RA BR FEW002 BKN027 OVC040 12/11 A2984 RMK AO2 SLP111 P0004 T01220111=
201009071243 SPECI KBLI 071243Z AUTO 00000KT 6SM -RA BR SCT002 BKN027 OVC034 12/12 A2984 RMK AO2 P0004=
201009071243 SPECI KBLI 071243Z AUTO 00000KT 6SM -RA BR SCT002 BKN027 OVC034 12/12 A2984 RMK AO2 P0004=
201009071225 SPECI KBLI 071225Z AUTO 03003KT 7SM -RA FEW002 BKN032 OVC039 12/11 A2984 RMK AO2 P0001=
201009071225 SPECI KBLI 071225Z AUTO 03003KT 7SM -RA FEW002 BKN032 OVC039 12/11 A2984 RMK AO2 P0001=
201009071201 SPECI KBLI 071201Z AUTO 36004KT 8SM -RA FEW003 BKN029 OVC037 12/11 A2984 RMK AO2 P0001=
201009071201 SPECI KBLI 071201Z AUTO 36004KT 8SM -RA FEW003 BKN029 OVC037 12/11 A2984 RMK AO2 P0001=
201009071153 METAR KBLI 071153Z AUTO 36004KT 6SM -RA BR FEW003 SCT026 OVC033 12/11 A2984 RMK AO2 RAB1059 SLP111 P0009 60014 70054 T01220111 10128 20122 58009=
201009071129 SPECI KBLI 071129Z AUTO 36004KT 3SM RA BR SCT005 BKN024 OVC033 13/11 A2985 RMK AO2 RAB1059 P0006=
201009071129 SPECI KBLI 071129Z AUTO 36004KT 3SM RA BR SCT005 BKN024 OVC033 13/11 A2985 RMK AO2 RAB1059 P0006=
201009071103 SPECI KBLI 071103Z AUTO 00000KT 9SM -RA BKN005 OVC022 13/12 A2985 RMK AO2 RAB1059 P0000=
201009071103 SPECI KBLI 071103Z AUTO 00000KT 9SM -RA BKN005 OVC022 13/12 A2985 RMK AO2 RAB1059 P0000=
201009071053 METAR KBLI 071053Z AUTO 36004KT 9SM SCT005 OVC022 13/12 A2985 RMK AO2 RAB0956E39 SLP115 P0001 T01280117=
201009070953 METAR KBLI 070953Z AUTO 01004KT 7SM FEW004 OVC018 13/12 A2986 RMK AO2 RAB17E53 SLP118 P0001 T01280117=
201009070944 SPECI KBLI 070944Z AUTO 01004KT 6SM -RA BR FEW004 OVC018 13/12 A2986 RMK AO2 RAB17 P0001=
201009070944 SPECI KBLI 070944Z AUTO 01004KT 6SM -RA BR FEW004 OVC018 13/12 A2986 RMK AO2 RAB17 P0001=
201009070853 METAR KBLI 070853Z AUTO 02005KT 7SM BKN004 OVC018 13/12 A2987 RMK AO2 RAE24 SLP121 P0000 60003 T01280117 58011=
201009070753 METAR KBLI 070753Z AUTO 36003KT 7SM -RA OVC002 13/12 A2988 RMK AO2 SLP126 P0002 T01280117 401390111=
201009070740 SPECI KBLI 070740Z AUTO 36003KT 7SM -RA BKN002 OVC011 13/12 A2989 RMK AO2 P0002=
201009070740 SPECI KBLI 070740Z AUTO 36003KT 7SM -RA BKN002 OVC011 13/12 A2989 RMK AO2 P0002=
201009070720 SPECI KBLI 070720Z AUTO 01003KT 7SM -RA FEW002 BKN011 OVC020 13/12 A2989 RMK AO2 P0002=
201009070720 SPECI KBLI 070720Z AUTO 01003KT 7SM -RA FEW002 BKN011 OVC020 13/12 A2989 RMK AO2 P0002=
201009070710 SPECI KBLI 070710Z AUTO 00000KT 7SM -RA FEW011 BKN018 OVC024 13/12 A2989 RMK AO2 P0001=
201009070710 SPECI KBLI 070710Z AUTO 00000KT 7SM -RA FEW011 BKN018 OVC024 13/12 A2989 RMK AO2 P0001=
201009070653 METAR KBLI 070653Z AUTO 00000KT 5SM -RA BR BKN011 OVC019 13/12 A2989 RMK AO2 RAB18E28B44 SLP129 P0001 T01280117=
201009070642 SPECI KBLI 070642Z AUTO 00000KT 6SM BR BKN011 OVC019 13/12 A2989 RMK AO2 RAB18E28 P0000=
201009070642 SPECI KBLI 070642Z AUTO 00000KT 6SM BR BKN011 OVC019 13/12 A2989 RMK AO2 RAB18E28 P0000=
201009070553 METAR KBLI 070553Z AUTO 02003KT 7SM FEW002 OVC015 13/12 A2990 RMK AO2 RAB03E16 SLP132 P0000 60004 T01280117 10139 20128 58007=
201009070535 SPECI KBLI 070535Z AUTO 00000KT 6SM BR OVC015 13/12 A2990 RMK AO2 RAB03E16 P0000=
201009070535 SPECI KBLI 070535Z AUTO 00000KT 6SM BR OVC015 13/12 A2990 RMK AO2 RAB03E16 P0000=
201009070453 METAR KBLI 070453Z 00000KT 7SM FEW003 OVC011 13/12 A2991 RMK AO2 SLP137 T01280117=
201009070448 SPECI KBLI 070448Z 02003KT 8SM SCT003 OVC011 13/12 A2991 RMK AO2=
201009070448 SPECI KBLI 070448Z 02003KT 8SM SCT003 OVC011 13/12 A2991 RMK AO2=
201009070430 SPECI KBLI 070430Z 00000KT 7SM BKN003 OVC011 13/12 A2992 RMK AO2=
201009070430 SPECI KBLI 070430Z 00000KT 7SM BKN003 OVC011 13/12 A2992 RMK AO2=
201009070405 SPECI KBLI 070405Z 02003KT 7SM FEW003 OVC013 13/12 A2992 RMK AO2=
201009070405 SPECI KBLI 070405Z 02003KT 7SM FEW003 OVC013 13/12 A2992 RMK AO2=
201009070353 METAR KBLI 070353Z 35003KT 6SM BR FEW003 OVC015 13/12 A2992 RMK AO2 SLP139 T01280117=
201009070330 SPECI KBLI 070330Z 36003KT 10SM SCT003 OVC017 13/12 A2992 RMK AO2=
201009070330 SPECI KBLI 070330Z 36003KT 10SM SCT003 OVC017 13/12 A2992 RMK AO2=
201009070314 SPECI KBLI 070314Z 36003KT 10SM BKN003 OVC017 13/12 A2992 RMK AO2 CIG 002V005=
201009070314 SPECI KBLI 070314Z 36003KT 10SM BKN003 OVC017 13/12 A2992 RMK AO2 CIG 002V005=
201009070253 METAR KBLI 070253Z 02004KT 10SM FEW005 OVC017 13/12 A2992 RMK AO2 SLP138 60004 T01280117 56009=
201009070200 SPECI KBLI 070200Z 06005KT 5SM BR SCT003 OVC018 13/12 A2993 RMK AO2=
201009070200 SPECI KBLI 070200Z 06005KT 5SM BR SCT003 OVC018 13/12 A2993 RMK AO2=
201009070153 METAR KBLI 070153Z 06004KT 2 1/2SM BR SCT003 OVC018 13/12 A2993 RMK AO2 RAE18 SLP142 P0001 T01330122=
201009070150 SPECI KBLI 070150Z 06003KT 2 1/2SM BR SCT003 OVC018 13/12 A2993 RMK AO2 RAE18 P0001=
201009070150 SPECI KBLI 070150Z 06003KT 2 1/2SM BR SCT003 OVC018 13/12 A2993 RMK AO2 RAE18 P0001=
201009070143 SPECI KBLI 070143Z 05004KT 2 1/2SM BR SCT003 BKN011 OVC018 13/12 A2993 RMK AO2 RAE18 CIG 007V012 P0000=
201009070143 SPECI KBLI 070143Z 05004KT 2 1/2SM BR SCT003 BKN011 OVC018 13/12 A2993 RMK AO2 RAE18 CIG 007V012 P0000=
201009070122 SPECI KBLI 070122Z 03004KT 2 1/2SM BR SCT003 BKN008 OVC020 13/12 A2994 RMK AO2 RAE18 CIG 007V012 P0000=
201009070122 SPECI KBLI 070122Z 03004KT 2 1/2SM BR SCT003 BKN008 OVC020 13/12 A2994 RMK AO2 RAE18 CIG 007V012 P0000=
201009070100 SPECI KBLI 070100Z 03005KT 3SM -RA BR BKN003 OVC008 13/12 A2995 RMK AO2 CIG 002V006 P0000=
201009070100 SPECI KBLI 070100Z 03005KT 3SM -RA BR BKN003 OVC008 13/12 A2995 RMK AO2 CIG 002V006 P0000=
201009070053 METAR KBLI 070053Z 02004KT 2 1/2SM -RA BR BKN003 OVC008 13/12 A2995 RMK AO2 CIG 002V005 SLP147 P0003 T01330117=
201009070051 SPECI KBLI 070051Z 01004KT 2 1/2SM -RA BR BKN003 OVC008 13/12 A2995 RMK AO2 CIG 002V007 P0003=
201009070051 SPECI KBLI 070051Z 01004KT 2 1/2SM -RA BR BKN003 OVC008 13/12 A2995 RMK AO2 CIG 002V007 P0003=
201009070040 SPECI KBLI 070040Z 01004KT 3SM -RA BR BKN005 BKN010 OVC018 13/12 A2995 RMK AO2 CIG 002V007 P0002=
201009070040 SPECI KBLI 070040Z 01004KT 3SM -RA BR BKN005 BKN010 OVC018 13/12 A2995 RMK AO2 CIG 002V007 P0002=
201009070020 SPECI KBLI 070020Z 00000KT 5SM -RA BR FEW006 OVC020 14/12 A2995 RMK AO2 P0002=
201009070020 SPECI KBLI 070020Z 00000KT 5SM -RA BR FEW006 OVC020 14/12 A2995 RMK AO2 P0002=
201009062353 METAR KBLI 062353Z 09003KT 8SM -RA OVC020 13/12 A2996 RMK AO2 SLP152 P0008 60034 T01330117 10139 20122 58013=
201009062253 METAR KBLI 062253Z 15005KT 5SM -RA BR FEW018 BKN027 OVC048 13/12 A2997 RMK AO2 SLP157 P0002 T01330117=
201009062213 SPECI KBLI 062213Z 14005KT 4SM -RA BR FEW006 BKN018 OVC025 13/12 A2999 RMK AO2 P0000=
201009062213 SPECI KBLI 062213Z 14005KT 4SM -RA BR FEW006 BKN018 OVC025 13/12 A2999 RMK AO2 P0000=
201009062153 METAR KBLI 062153Z 16005KT 3SM -RA BR BKN020 OVC025 13/12 A2999 RMK AO2 RAE07B41 SLP162 P0001 T01330117=
201009062145 SPECI KBLI 062145Z 17004KT 3SM -RA BR FEW008 OVC020 13/12 A2999 RMK AO2 RAE07B41 P0000=
201009062145 SPECI KBLI 062145Z 17004KT 3SM -RA BR FEW008 OVC020 13/12 A2999 RMK AO2 RAE07B41 P0000=
201009062053 METAR KBLI 062053Z 16006KT 2 1/2SM -RA BR FEW006 BKN020 OVC029 13/12 A3000 RMK AO2 SLP165 P0008 60023 T01330117 58012=
201009062013 SPECI KBLI 062013Z 00000KT 2 1/2SM RA BR SCT008 BKN020 OVC025 12/11 A3001 RMK AO2 P0004=
201009062013 SPECI KBLI 062013Z 00000KT 2 1/2SM RA BR SCT008 BKN020 OVC025 12/11 A3001 RMK AO2 P0004=
201009061953 METAR KBLI 061953Z 00000KT 2SM RA BR OVC021 12/11 A3001 RMK AO2 SLP170 P0012 T01220106=
201009061945 SPECI KBLI 061945Z 00000KT 2 1/2SM RA BR OVC021 12/11 A3002 RMK AO2 P0010=
201009061945 SPECI KBLI 061945Z 00000KT 2 1/2SM RA BR OVC021 12/11 A3002 RMK AO2 P0010=
201009061853 METAR KBLI 061853Z 13009KT 7SM -RA BKN023 OVC030 13/10 A3002 RMK AO2 SLP173 P0003 T01280100=
201009061753 METAR KBLI 061753Z 14010KT 6SM -RA BKN027 OVC032 13/09 A3003 RMK AO2 RAB1655 SLP176 P0000 60002 T01280094 10128 20111 56007=
201009061739 SPECI KBLI 061739Z 14009KT 6SM -RA BKN027 OVC032 13/09 A3003 RMK AO2 RAB1655 P0000=
201009061739 SPECI KBLI 061739Z 14009KT 6SM -RA BKN027 OVC032 13/09 A3003 RMK AO2 RAB1655 P0000=
201009061653 METAR KBLI 061653Z 15008KT 6SM HZ SCT030 OVC038 13/09 A3004 RMK AO2 RAE24B44E53 SLP179 P0001 T01280094=
201009061553 METAR KBLI 061553Z 16009KT 9SM -RA OVC038 13/09 A3005 RMK AO2 RAB47 SLP181 P0000 T01280089=
201009061500 SPECI KBLI 061500Z 16008KT 10SM FEW020 BKN042 OVC050 12/09 A3005 RMK AO2=
201009061500 SPECI KBLI 061500Z 16008KT 10SM FEW020 BKN042 OVC050 12/09 A3005 RMK AO2=
201009061453 METAR KBLI 061453Z 16007KT 10SM FEW008 SCT018 BKN027 12/09 A3005 RMK AO2 RAE00 SLP184 P0000 60001 T01220094 55009=
201009061451 SPECI KBLI 061451Z 15007KT 10SM FEW008 SCT018 BKN027 12/09 A3005 RMK AO2 RAE00 P0000=
201009061451 SPECI KBLI 061451Z 15007KT 10SM FEW008 SCT018 BKN027 12/09 A3005 RMK AO2 RAE00 P0000=
201009061444 SPECI KBLI 061444Z 16006KT 10SM FEW018 SCT027 OVC055 12/10 A3006 RMK AO2 RAE00 P0000=
201009061444 SPECI KBLI 061444Z 16006KT 10SM FEW018 SCT027 OVC055 12/10 A3006 RMK AO2 RAE00 P0000=
201009061353 METAR KBLI 061353Z AUTO 16005KT 6SM -RA BR OVC016 12/10 A3007 RMK AO2 SLP188 P0000 T01170100=
201009061328 SPECI KBLI 061328Z AUTO 16006KT 10SM -RA SCT018 BKN027 OVC038 11/09 A3007 RMK AO2 P0000=
201009061328 SPECI KBLI 061328Z AUTO 16006KT 10SM -RA SCT018 BKN027 OVC038 11/09 A3007 RMK AO2 P0000=
201009061253 METAR KBLI 061253Z AUTO 16008KT 8SM -RA SCT015 BKN030 OVC036 12/09 A3008 RMK AO2 RAB45 SLP192 P0001 T01170094=
201009061244 SPECI KBLI 061244Z AUTO 15008KT 10SM SCT015 OVC030 12/09 A3008 RMK AO2=
201009061244 SPECI KBLI 061244Z AUTO 15008KT 10SM SCT015 OVC030 12/09 A3008 RMK AO2=
201009061219 SPECI KBLI 061219Z AUTO 16007KT 10SM BKN015 BKN030 OVC065 12/09 A3009 RMK AO2=
201009061219 SPECI KBLI 061219Z AUTO 16007KT 10SM BKN015 BKN030 OVC065 12/09 A3009 RMK AO2=
201009061153 METAR KBLI 061153Z AUTO 16009KT 10SM BKN070 OVC095 12/09 A3009 RMK AO2 SLP194 60003 70003 T01220094 10144 20122 56005=
201009061053 METAR KBLI 061053Z AUTO 16007KT 10SM OVC085 12/09 A3009 RMK AO2 RAE03 SLP195 P0000 T01220094=
201009060953 METAR KBLI 060953Z AUTO 15009KT 10SM -RA BKN060 OVC070 12/09 A3009 RMK AO2 SLP196 P0002 T01220094=
201009060853 METAR KBLI 060853Z AUTO 16008KT 10SM -RA BKN050 OVC060 13/10 A3010 RMK AO2 RAB05 SLP199 P0001 60001 T01280100 55001=
201009060753 METAR KBLI 060753Z AUTO 16008KT 10SM SCT090 OVC110 14/09 A3010 RMK AO2 SLP198 T01390089 401780111=
201009060653 METAR KBLI 060653Z AUTO 16007KT 10SM BKN075 14/09 A3009 RMK AO2 SLP197 T01440089=
201009060553 METAR KBLI 060553Z AUTO 16006KT 10SM OVC075 14/09 A3011 RMK AO2 SLP201 T01440094 10172 20139 55001=
201009060453 METAR KBLI 060453Z 18003KT 10SM CLR 14/09 A3011 RMK AO2 SLP201 T01440094=
201009060353 METAR KBLI 060353Z 17003KT 10SM CLR 14/09 A3011 RMK AO2 SLP202 T01440094=
201009060253 METAR KBLI 060253Z 17003KT 10SM CLR 15/09 A3011 RMK AO2 SLP202 T01500089 58006=
201009060153 METAR KBLI 060153Z 17003KT 10SM CLR 16/08 A3012 RMK AO2 SLP205 T01610083=
201009060053 METAR KBLI 060053Z 18003KT 10SM CLR 17/08 A3012 RMK AO2 SLP206 T01720078=
201009052353 METAR KBLI 052353Z 18004KT 10SM CLR 17/07 A3013 RMK AO2 SLP208 T01720067 10178 20144 56008=
201009052253 METAR KBLI 052253Z 16006KT 10SM FEW035 18/07 A3013 RMK AO2 SLP208 T01780072=
201009052153 METAR KBLI 052153Z 17008KT 10SM CLR 17/07 A3014 RMK AO2 SLP212 T01720072=
201009052053 METAR KBLI 052053Z 18007KT 150V220 10SM SCT039 17/08 A3015 RMK AO2 SLP216 T01720078 51004=
201009051953 METAR KBLI 051953Z 17007KT 10SM OVC047 16/08 A3015 RMK AO2 SLP216 T01560078=
201009051853 METAR KBLI 051853Z 17006KT 10SM FEW034 OVC045 16/08 A3015 RMK AO2 SLP214 T01560083=
201009051753 METAR KBLI 051753Z 16008KT 10SM OVC035 14/10 A3014 RMK AO2 SLP211 T01440100 10150 20128 51010=
201009051727 SPECI KBLI 051727Z 17008KT 10SM FEW024 SCT029 OVC040 14/09 A3013 RMK AO2=
201009051727 SPECI KBLI 051727Z 17008KT 10SM FEW024 SCT029 OVC040 14/09 A3013 RMK AO2=
201009051653 METAR KBLI 051653Z 18005KT 10SM OVC022 13/10 A3013 RMK AO2 SLP211 T01330100=
201009051553 METAR KBLI 051553Z VRB04KT 10SM OVC016 13/09 A3012 RMK AO2 SLP205 T01330094=
201009051453 METAR KBLI 051453Z VRB04KT 10SM OVC016 13/09 A3011 RMK AO2 SLP201 T01330094 53017=
201009051353 METAR KBLI 051353Z 17009KT 10SM OVC016 13/09 A3008 RMK AO2 SLP193 T01330094=
201009051314 SPECI KBLI 051314Z AUTO VRB05KT 10SM BKN016 BKN030 OVC036 13/09 A3007 RMK AO2=
201009051314 SPECI KBLI 051314Z AUTO VRB05KT 10SM BKN016 BKN030 OVC036 13/09 A3007 RMK AO2=
201009051302 SPECI KBLI 051302Z AUTO VRB04KT 10SM SCT018 BKN030 OVC036 13/09 A3007 RMK AO2=
201009051302 SPECI KBLI 051302Z AUTO VRB04KT 10SM SCT018 BKN030 OVC036 13/09 A3007 RMK AO2=
201009051253 METAR KBLI 051253Z AUTO 19006KT 10SM BKN018 OVC030 13/09 A3007 RMK AO2 SLP187 T01330094=
201009051153 METAR KBLI 051153Z AUTO 17009KT 10SM BKN024 OVC032 14/09 A3006 RMK AO2 SLP184 T01390089 10139 20111 51002=
201009051053 METAR KBLI 051053Z AUTO 19003KT 10SM OVC029 13/09 A3005 RMK AO2 SLP183 T01330094=
201009051046 SPECI KBLI 051046Z AUTO 00000KT 10SM OVC029 13/09 A3006 RMK AO2=
201009051046 SPECI KBLI 051046Z AUTO 00000KT 10SM OVC029 13/09 A3006 RMK AO2=
201009050953 METAR KBLI 050953Z AUTO 00000KT 10SM BKN031 OVC036 12/09 A3006 RMK AO2 SLP185 T01170094=
201009050853 METAR KBLI 050853Z AUTO 15006KT 10SM FEW100 12/09 A3005 RMK AO2 SLP182 T01220089 50001=
201009050753 METAR KBLI 050753Z AUTO 18003KT 10SM CLR 12/09 A3006 RMK AO2 SLP184 T01170089 401890117=
201009050653 METAR KBLI 050653Z AUTO 19004KT 10SM CLR 13/09 A3005 RMK AO2 SLP183 T01330094=
201009050553 METAR KBLI 050553Z AUTO 18008KT 10SM CLR 14/09 A3005 RMK AO2 SLP181 T01390094 10172 20139 53001=
201009050453 METAR KBLI 050453Z 18006KT 10SM FEW070 SCT095 14/09 A3004 RMK AO2 SLP179 T01440089=
201009050353 METAR KBLI 050353Z 17007KT 10SM BKN070 BKN090 15/09 A3004 RMK AO2 SLP180 T01500089=
201009050253 METAR KBLI 050253Z 16008KT 10SM FEW060 OVC095 16/09 A3004 RMK AO2 SLP180 T01560094 58005=
201009050153 METAR KBLI 050153Z 20003KT 10SM OVC065 16/09 A3005 RMK AO2 SLP182 T01610094=
201009050053 METAR KBLI 050053Z 18005KT 10SM CLR 17/10 A3006 RMK AO2 SLP183 T01720100=
201009042353 METAR KBLI 042353Z 17011G15KT 10SM CLR 17/10 A3006 RMK AO2 SLP185 T01720100 10189 20161 58011=
201009042253 METAR KBLI 042253Z 17009KT 10SM CLR 18/07 A3008 RMK AO2 SLP191 T01780072=
201009042153 METAR KBLI 042153Z 17009KT 10SM BKN047 19/06 A3009 RMK AO2 SLP194 T01890056=
201009042053 METAR KBLI 042053Z 31004KT 10SM BKN055 18/07 A3009 RMK AO2 SLP196 T01830067 56002=
201009041953 METAR KBLI 041953Z 28003KT 10SM FEW032 SCT050 OVC060 17/08 A3009 RMK AO2 SLP196 T01720083=
201009041853 METAR KBLI 041853Z 00000KT 10SM OVC060 17/08 A3009 RMK AO2 SLP196 T01670078=
201009041808 SPECI KBLI 041808Z 00000KT 10SM SCT023 OVC060 16/09 A3009 RMK AO2=
201009041808 SPECI KBLI 041808Z 00000KT 10SM SCT023 OVC060 16/09 A3009 RMK AO2=
201009041753 METAR KBLI 041753Z VRB03KT 10SM BKN023 OVC060 16/08 A3010 RMK AO2 SLP197 T01560083 10156 20128 51009=
201009041716 SPECI KBLI 041716Z 17006KT 10SM FEW023 BKN027 OVC055 16/10 A3009 RMK AO2=
201009041716 SPECI KBLI 041716Z 17006KT 10SM FEW023 BKN027 OVC055 16/10 A3009 RMK AO2=
201009041653 METAR KBLI 041653Z 17006KT 10SM OVC055 15/11 A3009 RMK AO2 SLP195 T01500106=
201009041553 METAR KBLI 041553Z 17005KT 10SM SCT029 OVC055 14/11 A3008 RMK AO2 SLP193 T01440106=
201009041453 SPECI KBLI 041453Z 00000KT 10SM OVC055 14/11 A3007 RMK AO2 SLP188 T01390111 53015=
201009041353 METAR KBLI 041353Z 19005KT 10SM BKN050 13/11 A3005 RMK AO2 SLP181 T01330111=
201009041253 METAR KBLI 041253Z AUTO 18006KT 10SM CLR 13/11 A3003 RMK AO2 SLP176 T01330111=
201009041153 METAR KBLI 041153Z AUTO 17008KT 10SM CLR 13/11 A3003 RMK AO2 SLP174 T01330111 10156 20133 53007=
201009041053 METAR KBLI 041053Z AUTO 21005KT 10SM CLR 14/12 A3002 RMK AO2 SLP172 T01390117=
201009040953 METAR KBLI 040953Z AUTO 19003KT 10SM BKN090 14/12 A3001 RMK AO2 SLP167 T01440122=
201009040853 METAR KBLI 040853Z AUTO 18007KT 10SM FEW110 15/12 A3001 RMK AO2 SLP165 T01500122 51016=
201009040753 METAR KBLI 040753Z AUTO 18004KT 10SM OVC100 16/12 A3000 RMK AO2 SLP163 T01560122 402390094=
201009040653 METAR KBLI 040653Z AUTO 17012G19KT 10SM FEW090 15/12 A2998 RMK AO2 SLP157 T01500122=
201009040553 METAR KBLI 040553Z AUTO 19009G17KT 10SM CLR 16/12 A2996 RMK AO2 SLP150 T01560122 10222 20156 53017=
201009040453 METAR KBLI 040453Z 20006KT 10SM CLR 17/12 A2994 RMK AO2 SLP144 T01670122=
201009040353 METAR KBLI 040353Z 18013G21KT 10SM CLR 17/12 A2992 RMK AO2 SLP139 T01720117=
201009040253 METAR KBLI 040253Z 18012G21KT 10SM CLR 18/12 A2991 RMK AO2 SLP133 T01780122 55006=
201009040153 METAR KBLI 040153Z 18010G18KT 10SM CLR 19/11 A2990 RMK AO2 SLP130 T01940111=
201009040053 METAR KBLI 040053Z 17010G17KT 10SM CLR 22/09 A2991 RMK AO2 SLP134 T02220089=
201009032353 METAR KBLI 032353Z 19007KT 10SM CLR 21/11 A2993 RMK AO2 SLP139 T02110106 10239 20211 56012=
201009032253 METAR KBLI 032253Z 21006KT 10SM CLR 22/12 A2993 RMK AO2 SLP142 T02220117=
201009032153 METAR KBLI 032153Z 17007KT 10SM CLR 23/12 A2995 RMK AO2 SLP149 T02280117=
201009032053 METAR KBLI 032053Z 21004KT 10SM CLR 23/13 A2996 RMK AO2 SLP152 T02330128 55002=
201009031953 METAR KBLI 031953Z 18003KT 10SM CLR 22/14 A2996 RMK AO2 SLP151 T02220139=
201009031853 METAR KBLI 031853Z VRB04KT 10SM CLR 23/13 A2997 RMK AO2 SLP154 T02280128=
201009031753 METAR KBLI 031753Z 00000KT 10SM CLR 21/13 A2997 RMK AO2 SLP154 T02110133 10211 20094 53001=
201009031653 METAR KBLI 031653Z 00000KT 10SM CLR 18/13 A2997 RMK AO2 SLP154 T01830133=
201009031553 METAR KBLI 031553Z 00000KT 10SM CLR 17/13 A2996 RMK AO2 SLP151 T01670128=
201009031453 METAR KBLI 031453Z 00000KT 10SM CLR 13/12 A2997 RMK AO2 SLP153 T01330122 55000=
201009031357 SPECI KBLI 031357Z AUTO 00000KT 3SM BR CLR 10/09 A2996 RMK AO2=
201009031357 SPECI KBLI 031357Z AUTO 00000KT 3SM BR CLR 10/09 A2996 RMK AO2=
201009031353 METAR KBLI 031353Z AUTO 00000KT 1 1/2SM BR CLR 10/09 A2996 RMK AO2 SLP151 T01000089=
201009031349 SPECI KBLI 031349Z AUTO 00000KT 1 3/4SM BR CLR 10/09 A2996 RMK AO2=
201009031349 SPECI KBLI 031349Z AUTO 00000KT 1 3/4SM BR CLR 10/09 A2996 RMK AO2=
201009031326 SPECI KBLI 031326Z AUTO 00000KT 4SM BR CLR 11/09 A2996 RMK AO2=
201009031326 SPECI KBLI 031326Z AUTO 00000KT 4SM BR CLR 11/09 A2996 RMK AO2=
201009031315 SPECI KBLI 031315Z AUTO 00000KT 1 1/2SM BR FEW008 10/08 A2996 RMK AO2=
201009031315 SPECI KBLI 031315Z AUTO 00000KT 1 1/2SM BR FEW008 10/08 A2996 RMK AO2=
201009031309 SPECI KBLI 031309Z AUTO 00000KT 3SM BR CLR 10/09 A2996 RMK AO2=
201009031309 SPECI KBLI 031309Z AUTO 00000KT 3SM BR CLR 10/09 A2996 RMK AO2=
201009031303 SPECI KBLI 031303Z AUTO 00000KT 1 1/4SM BR FEW009 11/09 A2996 RMK AO2 VIS 1/2V5=
201009031303 SPECI KBLI 031303Z AUTO 00000KT 1 1/4SM BR FEW009 11/09 A2996 RMK AO2 VIS 1/2V5=
201009031256 SPECI KBLI 031256Z AUTO 00000KT 3/4SM BR VV009 11/09 A2996 RMK AO2 RVRNO=
201009031256 SPECI KBLI 031256Z AUTO 00000KT 3/4SM BR VV009 11/09 A2996 RMK AO2 RVRNO=
201009031253 METAR KBLI 031253Z AUTO 00000KT 3/4SM BR CLR 11/09 A2996 RMK AO2 SLP151 T01060094 RVRNO=
201009031248 SPECI KBLI 031248Z AUTO 00000KT 1 1/2SM BR CLR 11/09 A2996 RMK AO2=
201009031248 SPECI KBLI 031248Z AUTO 00000KT 1 1/2SM BR CLR 11/09 A2996 RMK AO2=
201009031153 METAR KBLI 031153Z AUTO 00000KT 10SM CLR 11/09 A2997 RMK AO2 SLP153 T01060094 10144 20106 58003=
201009031149 SPECI KBLI 031149Z AUTO 00000KT 4SM BR CLR 11/09 A2996 RMK AO2=
201009031149 SPECI KBLI 031149Z AUTO 00000KT 4SM BR CLR 11/09 A2996 RMK AO2=
201009031140 SPECI KBLI 031140Z AUTO 00000KT 1 3/4SM BR CLR 11/09 A2997 RMK AO2 VIS 3/4V5=
201009031140 SPECI KBLI 031140Z AUTO 00000KT 1 3/4SM BR CLR 11/09 A2997 RMK AO2 VIS 3/4V5=
201009031053 METAR KBLI 031053Z AUTO 00000KT 6SM BR CLR 12/10 A2997 RMK AO2 SLP155 T01170100=
201009030953 METAR KBLI 030953Z AUTO 00000KT 10SM CLR 13/12 A2998 RMK AO2 SLP157 T01280117=
201009030853 METAR KBLI 030853Z AUTO 00000KT 10SM CLR 13/12 A2997 RMK AO2 SLP156 T01330117 55005=
201009030753 METAR KBLI 030753Z AUTO 00000KT 10SM CLR 14/12 A2997 RMK AO2 SLP155 T01390122 402500072=
201009030653 METAR KBLI 030653Z AUTO 00000KT 10SM CLR 13/11 A2998 RMK AO2 SLP158 T01280111=
201009030553 METAR KBLI 030553Z AUTO 00000KT 10SM CLR 13/11 A2999 RMK AO2 SLP161 T01280106 10228 20128 55006=
201009030453 METAR KBLI 030453Z 00000KT 10SM CLR 14/11 A2999 RMK AO2 SLP161 T01390111=
201009030353 METAR KBLI 030353Z 00000KT 10SM CLR 15/12 A3000 RMK AO2 SLP164 T01500117=
201009030253 METAR KBLI 030253Z 00000KT 10SM CLR 16/12 A3001 RMK AO2 SLP169 T01610122 56014=
201009030153 METAR KBLI 030153Z 00000KT 10SM CLR 19/11 A3001 RMK AO2 SLP169 T01890106=
201009030053 METAR KBLI 030053Z 28005KT 10SM CLR 22/11 A3002 RMK AO2 SLP173 T02170111=
201009022353 METAR KBLI 022353Z 27006KT 10SM CLR 22/12 A3005 RMK AO2 SLP182 T02220122 10250 20189 56028=
201009022253 METAR KBLI 022253Z VRB05KT 10SM CLR 24/11 A3007 RMK AO2 SLP189 T02440111=
201009022153 METAR KBLI 022153Z 01006KT 10SM CLR 24/11 A3010 RMK AO2 SLP199 T02390111=
201009022053 METAR KBLI 022053Z 33006KT 10SM CLR 23/09 A3013 RMK AO2 SLP210 T02330094 58019=
201009021953 METAR KBLI 021953Z 34008KT 10SM CLR 22/11 A3015 RMK AO2 SLP217 T02220111=
201009021853 METAR KBLI 021853Z 01008KT 10SM CLR 21/09 A3017 RMK AO2 SLP223 T02060094=
201009021753 METAR KBLI 021753Z 01009KT 10SM CLR 19/09 A3019 RMK AO2 SLP229 T01890094 10189 20078 56012=
201009021653 METAR KBLI 021653Z 02008KT 10SM CLR 16/10 A3020 RMK AO2 SLP232 T01610100=
201009021553 METAR KBLI 021553Z 36005KT 10SM CLR 14/10 A3021 RMK AO2 SLP237 T01390100=
201009021453 METAR KBLI 021453Z 00000KT 10SM CLR 11/09 A3023 RMK AO2 SLP242 T01060094 53002=
201009021353 METAR KBLI 021353Z 00000KT 10SM CLR 08/07 A3022 RMK AO2 SLP241 T00830072=
201009021253 METAR KBLI 021253Z AUTO 00000KT 10SM CLR 09/07 A3022 RMK AO2 SLP239 T00890072=
201009021153 METAR KBLI 021153Z AUTO 00000KT 10SM CLR 09/08 A3022 RMK AO2 SLP239 60001 70001 T00890078 10117 20072 58004=
201009021053 METAR KBLI 021053Z AUTO 00000KT 9SM CLR 09/07 A3023 RMK AO2 SLP242 P0001 T00890072=
201009020953 METAR KBLI 020953Z AUTO 00000KT 10SM CLR 09/08 A3023 RMK AO2 SLP242 T00890078=
201009020940 SPECI KBLI 020940Z AUTO 00000KT 3SM BR CLR 08/07 A3023 RMK AO2=
201009020940 SPECI KBLI 020940Z AUTO 00000KT 3SM BR CLR 08/07 A3023 RMK AO2=
201009020927 SPECI KBLI 020927Z AUTO 00000KT 1 3/4SM BR CLR 09/07 A3023 RMK AO2=
201009020927 SPECI KBLI 020927Z AUTO 00000KT 1 3/4SM BR CLR 09/07 A3023 RMK AO2=
201009020853 METAR KBLI 020853Z AUTO 00000KT 10SM CLR 09/08 A3023 RMK AO2 SLP245 T00940083 53005=
201009020803 SPECI KBLI 020803Z AUTO 00000KT 6SM BR CLR 09/08 A3023 RMK AO2=
201009020803 SPECI KBLI 020803Z AUTO 00000KT 6SM BR CLR 09/08 A3023 RMK AO2=
201009020753 METAR KBLI 020753Z AUTO 00000KT 2 1/2SM BR CLR 10/08 A3023 RMK AO2 SLP243 T01000083 402000094=
201009020653 METAR KBLI 020653Z AUTO 00000KT 8SM CLR 10/09 A3022 RMK AO2 SLP241 T01000089=
201009020553 METAR KBLI 020553Z AUTO 00000KT 10SM CLR 12/09 A3022 RMK AO2 SLP240 T01170094 10200 20111 51013=
201009020453 METAR KBLI 020453Z 00000KT 10SM CLR 12/10 A3021 RMK AO2 SLP237 T01220100=
201009020353 METAR KBLI 020353Z 00000KT 10SM CLR 14/11 A3020 RMK AO2 SLP232 T01440106=
201009020253 METAR KBLI 020253Z 00000KT 10SM CLR 14/11 A3018 RMK AO2 SLP225 T01440106 51007=
201009020153 METAR KBLI 020153Z 17003KT 10SM CLR 18/10 A3017 RMK AO2 SLP223 T01780100=
201009020053 METAR KBLI 020053Z 19004KT 10SM CLR 19/08 A3017 RMK AO2 SLP221 T01940078=
201009012353 METAR KBLI 012353Z 00000KT 10SM CLR 20/08 A3016 RMK AO2 SLP218 T02000078 10200 20156 51008=
201009012253 METAR KBLI 012253Z 17005KT 10SM FEW040 20/08 A3015 RMK AO2 SLP216 T02000083=
201009012153 METAR KBLI 012153Z 17007KT 10SM FEW040 19/09 A3015 RMK AO2 SLP214 T01940094=
201009012053 METAR KBLI 012053Z 18006KT 10SM FEW040 18/10 A3013 RMK AO2 SLP210 T01830100 51012=
201009011953 METAR KBLI 011953Z 17006KT 10SM BKN060 18/11 A3013 RMK AO2 SLP207 T01780106=
201009011853 METAR KBLI 011853Z 16008KT 10SM FEW026 17/11 A3011 RMK AO2 SLP203 T01670111=
201009011753 METAR KBLI 011753Z 19005KT 10SM FEW060 16/11 A3010 RMK AO2 SLP198 T01560111 10161 20133 53021=
201009011653 METAR KBLI 011653Z 16005KT 10SM SCT060 15/12 A3008 RMK AO2 SLP190 T01500117=
201009011553 METAR KBLI 011553Z 18005KT 10SM FEW023 SCT029 OVC060 14/11 A3006 RMK AO2 SLP183 T01390111=
201009011525 SPECI KBLI 011525Z 17008KT 10SM FEW025 BKN032 OVC060 13/11 A3005 RMK AO2=
201009011525 SPECI KBLI 011525Z 17008KT 10SM FEW025 BKN032 OVC060 13/11 A3005 RMK AO2=
201009011453 METAR KBLI 011453Z 18007KT 10SM BKN025 OVC030 14/12 A3004 RMK AO2 SLP177 T01390117 53021=
201009011353 METAR KBLI 011353Z 18005KT 10SM SCT018 BKN023 OVC060 13/12 A3001 RMK AO2 SLP169 T01330117=
201009011253 METAR KBLI 011253Z AUTO 17005KT 10SM BKN018 BKN042 14/12 A2999 RMK AO2 SLP162 T01390117=
201009011153 METAR KBLI 011153Z AUTO 17005KT 10SM OVC020 14/12 A2998 RMK AO2 SLP157 60000 70073 T01390117 10150 20139 53016=
201009011113 SPECI KBLI 011113Z AUTO 19003KT 10SM FEW023 OVC029 14/12 A2996 RMK AO2=
201009011113 SPECI KBLI 011113Z AUTO 19003KT 10SM FEW023 OVC029 14/12 A2996 RMK AO2=
201009011053 METAR KBLI 011053Z AUTO 17004KT 10SM FEW018 BKN033 BKN043 14/12 A2996 RMK AO2 SLP152 T01390117=
201009010953 METAR KBLI 010953Z AUTO 17005KT 10SM FEW035 BKN049 OVC095 14/12 A2994 RMK AO2 SLP145 T01390117=
201009010853 METAR KBLI 010853Z AUTO 17008KT 10SM FEW055 OVC100 14/12 A2993 RMK AO2 SLP141 60000 T01390117 51013=
201009010753 METAR KBLI 010753Z AUTO 16008KT 10SM BKN095 OVC120 14/12 A2992 RMK AO2 SLP138 T01440122 401560122=
201009010653 METAR KBLI 010653Z AUTO 17011KT 10SM SCT012 BKN075 OVC090 14/13 A2990 RMK AO2 RAB19E34 SLP133 P0000 T01440128=
201009010628 SPECI KBLI 010628Z AUTO 17010KT 10SM -RA SCT012 BKN070 OVC085 15/13 A2990 RMK AO2 RAB19 P0000=
201009010628 SPECI KBLI 010628Z AUTO 17010KT 10SM -RA SCT012 BKN070 OVC085 15/13 A2990 RMK AO2 RAB19 P0000=
201009010553 METAR KBLI 010553Z AUTO 17011G18KT 10SM OVC014 15/13 A2989 RMK AO2 SLP128 60010 T01500128 10150 20139 51006=
201009010453 METAR KBLI 010453Z 17010G16KT 6SM BR OVC012 15/13 A2989 RMK AO2 SLP127 T01500128=
201009010353 METAR KBLI 010353Z 16011G17KT 6SM BR OVC014 14/13 A2988 RMK AO2 RAB02E33 SLP124 P0001 T01440128=
201009010253 METAR KBLI 010253Z 17011G18KT 5SM BR OVC014 14/12 A2987 RMK AO2 SLP123 60009 T01440122 55005=
201009010153 METAR KBLI 010153Z 15007KT 5SM BR BKN020 OVC025 14/12 A2987 RMK AO2 RAE51 SLP122 P0002 T01440122=
201009010053 METAR KBLI 010053Z 16016G22KT 10SM -RA OVC029 14/12 A2989 RMK AO2 SLP128 P0007 T01440122=

# No short TAF reports from KBLI in databse.

###################################
#  large TAF from KBLI
###################################
201009302320 TAF KBLI 302320Z 0100/0124 VRB03KT P6SM SKC FM010800 00000KT 1SM
                       BR SCT001 FM011600 06004KT P6SM SKC FM012000
                       16010KT P6SM SKC=
201009301826 KBLI 301826Z 3018/0118 12003KT P6SM SCT005 FM302000 VRB04KT P6SM
                       SKC FM010800 00000KT 1SM BR SCT001 FM011600
                       06004KT P6SM SKC=
201009301720 TAF KBLI 301720Z 3018/0118 00000KT 1/4SM FG VV000 FM301900 02003KT
                       4SM BR BKN002 FM302000 02006KT P6SM SKC
                       FM010800 00000KT 1SM BR SCT001 FM011600
                       06004KT P6SM SKC=
201009301333 KBLI 301333Z 3014/0112 00000KT 1/2SM FG VV001 FM301700 00000KT
                       P6SM BKN006 FM301900 02006KT P6SM SKC=
201009301138 TAF KBLI 301138Z 3012/0112 00000KT 3SM BR OVC002
                      TEMPO 3012/3015 3/4SM BR FM301600 00000KT
                       P6SM BKN006 FM301700 02006KT P6SM SKC=
201009300541 TAF KBLI 300541Z 3006/0106 00000KT P6SM SKC
                      TEMPO 3006/3009 3SM BR SCT001 FM300900 00000KT
                       3SM BR SCT001
                      TEMPO 3010/3014 1/2SM FG VV001 FM301600 02004KT
                       P6SM SKC=
201009292320 TAF KBLI 292320Z 3000/3024 28006KT P6SM SKC FM300200 VRB02KT P6SM
                       SKC FM301000 02002KT 1/2SM FG VV001 FM301600
                       02004KT P6SM SKC=
201009291916 KBLI 291916Z 2919/3018 00000KT P6SM OVC007 FM292100 30005KT P6SM
                       SKC FM300200 VRB02KT P6SM SKC FM301000 02002KT
                       1/2SM FG VV001 FM301600 02004KT P6SM SKC=
201009291720 TAF KBLI 291720Z 2918/3018 33004KT 3SM BR OVC002 FM291930 30005KT
                       P6SM SKC FM300200 VRB02KT P6SM SKC FM301000
                       02002KT 1/2SM FG VV001 FM301600 02004KT
                       P6SM SKC=
201009291611 KBLI 291611Z 2916/3012 00000KT 1/2SM FG VV001 FM291730 04005KT
                       P6SM SKC FM292200 30005KT P6SM SKC=
201009291410 KBLI 291410Z 2914/3012 00000KT 1/4SM FG OVC001 FM291600 04005KT
                       3SM BR BKN002 FM291700 04005KT P6SM SKC
                       FM292200 30005KT P6SM SKC=
201009291132 TAF KBLI 291132Z 2912/3012 00000KT 2SM BR BKN002
                      TEMPO 2912/2916 1/2SM FG VV001 FM291600 04005KT
                       P6SM SKC FM292200 30005KT P6SM SKC=
201009290921 KBLI 290921Z 2909/3006 00000KT 3SM BR SCT003
                      TEMPO 2909/2913 1SM BR BKN003 FM291600 04005KT
                       P6SM SKC FM292200 30005KT P6SM SKC=
201009290753 KBLI 290753Z 2908/3006 00000KT 3SM MIFG SKC
                      TEMPO 2908/2910 1SM BR FM291000 04003KT 2SM
                       BR FEW002
                      TEMPO 2911/2915 1/2SM FG VV001 FM291600 04003KT
                       P6SM SKC FM292200 30005KT P6SM SKC=
201009290520 TAF KBLI 290520Z 2906/3006 00000KT P6SM SKC FM291000 04003KT 5SM
                       BR FEW002
                      TEMPO 2911/2915 1/2SM FG VV001 FM291600 04003KT
                       P6SM SKC FM292200 30005KT P6SM SKC=
201009282320 TAF KBLI 282320Z 2900/2924 19005KT P6SM SKC FM290400 VRB02KT P6SM
                       SKC FM291000 04003KT 5SM BR FEW002
                      TEMPO 2911/2915 1/2SM FG VV001 FM291600 04003KT
                       P6SM SKC FM292200 30005KT P6SM SKC=
201009282027 KBLI 282027Z 2820/2918 18005KT P6SM SCT080 FM290500 VRB02KT P6SM
                       SKC FM291000 04003KT 5SM BR FEW002
                      TEMPO 2911/2915 1/2SM FG VV001 FM291600 04003KT
                       P6SM SKC=
201009281723 TAF KBLI 281723Z 2818/2918 15004KT P6SM OVC080 FM290000 VRB03KT
                       P6SM SCT080 FM290500 VRB02KT P6SM SKC FM291000
                       04003KT 5SM BR FEW002
                      TEMPO 2911/2915 1/2SM FG VV001 FM291600 04003KT
                       P6SM SKC=
201009281157 KBLI 281157Z 2812/2912 18006KT 5SM -RA BR SCT005 OVC045
                      TEMPO 2812/2816 4SM -RA BR BKN005 OVC035
                       FM281800 21006KT P6SM SCT005 BKN025 BKN050
                       FM282100 21006KT P6SM SCT050 SCT200 FM290500
                       21006KT 5SM BR SCT005 FM291000 VRB03KT 5SM
                       BR BKN005=
201009281122 TAF KBLI 281122Z 2812/2912 17007KT 5SM -RA BR SCT002 OVC025
                      TEMPO 2812/2816 2SM -RA BR BKN002 OVC020
                       FM281800 21006KT P6SM SCT005 BKN025 BKN050
                       FM282100 21006KT P6SM SCT050 SCT200 FM290500
                       21006KT 5SM BR SCT005 FM291000 VRB03KT 5SM
                       BR BKN005=
201009280718 KBLI 280718Z 2807/2906 16006KT 5SM BR SCT030 OVC060
                      TEMPO 2807/2810 3SM -DZ BR SCT010 BKN030
                       OVC050 FM281000 18005KT 3SM BR BKN010 OVC030
                       TEMPO 2810/2814 1SM -DZ BR OVC008 FM281800
                       VRB04KT P6SM BKN025 BKN050 FM282100 21004KT
                       P6SM SCT050 SCT200 FM290500 21006KT 5SM
                       BR SCT005=
201009280520 TAF KBLI 280520Z 2806/2906 00000KT 4SM BR SCT002 BKN006 OVC060
                       TEMPO 2806/2809 2SM -RA BR OVC005 FM280900
                       18005KT 3SM -DZ BR OVC010 FM281800 VRB04KT
                       P6SM BKN025 BKN050 FM282100 28004KT P6SM
                       SCT050 SCT200=
201009280359 KBLI 280359Z 2804/2824 VRB03KT 5SM -RA BR BKN008 OVC030
                      TEMPO 2804/2807 2SM -RA BR OVC005 FM280700
                       18005KT 3SM -DZ BR OVC010 FM281800 VRB04KT
                       P6SM BKN025 BKN050 FM282100 28004KT P6SM
                       SCT050 SCT200=
201009272331 TAF KBLI 272331Z 2800/2824 17008KT P6SM BKN023 OVC040 FM280700
                       18007KT 5SM -DZ BR OVC010
                      TEMPO 2812/2816 2SM -RA BR OVC008 FM281800
                       VRB04KT P6SM BKN025 BKN050 FM282100 28004KT
                       P6SM SCT050 SCT200=
201009272144 KBLI 272144Z 2722/2818 18010G21KT P6SM BKN025 OVC070 FM280300 21007KT
                       P6SM -DZ BKN020 OVC040 FM280700 21007KT
                       4SM -DZ BR OVC010=
201009271740 TAF KBLI 271740Z 2718/2818 14010G17KT P6SM SCT021 OVC030 FM280300
                       21007KT P6SM -DZ BKN020 OVC040 FM280700
                       21007KT 4SM -DZ BR OVC010=
201009271123 TAF KBLI 271123Z 2712/2812 18007KT P6SM BKN020 OVC035
                      TEMPO 2712/2716 4SM -DZ BR OVC015 FM271800
                       18010KT P6SM BKN020 BKN040 FM280300 21007KT
                       P6SM -DZ BKN020 OVC040 FM280700 21007KT
                       3SM -DZ BR OVC010=
201009271004 KBLI 271004Z 2710/2806 VRB03KT P6SM SCT020 OVC035
                      TEMPO 2710/2714 4SM -DZ BR BKN020 OVC035
                       FM271400 16005KT 4SM -DZ BR SCT005 BKN015
                       OVC030 FM272000 16012KT P6SM BKN020 OVC040
                       FM280400 18008KT P6SM -DZ BKN015 OVC030=
201009270521 TAF KBLI 270521Z 2706/2806 VRB03KT 3SM BR SCT002 OVC020
                      TEMPO 2706/2710 1SM -RA BR BKN002 OVC020
                       FM271000 16005KT 3SM -DZ BR BKN005 OVC012
                       FM272000 16008KT P6SM BKN020 OVC040=
201009270400 KBLI 270400Z 2704/2724 VRB03KT 3SM BR SCT002 BKN020 OVC050
                      TEMPO 2704/2708 3/4SM BR BKN002 OVC020 FM271200
                       16005KT P6SM VCSH OVC012 FM272000 16008KT
                       P6SM BKN020 OVC040=
201009262338 TAF KBLI 262338Z 2700/2724 17006KT P6SM VCSH SCT005 BKN025 BKN070
                       TEMPO 2700/2704 BKN005 OVC025 FM270400 15004KT
                       P6SM VCSH SCT012 OVC025 FM270600 16005KT
                       P6SM VCSH OVC012=
201009261730 TAF KBLI 261730Z 2618/2718 17010KT 5SM BR SCT010 OVC018
                      TEMPO 2618/2620 2SM -SHRA BR BKN010 OVC016
                       FM262000 17008KT P6SM BKN018 OVC040
                      TEMPO 2620/2624 SCT018 OVC040 FM270000 15007KT
                       P6SM SCT020 OVC040 FM270800 15005KT P6SM
                       VCSH OVC015=
201009261542 KBLI 261542Z 2616/2712 17007KT 4SM BR SCT006 BKN018 OVC030
                      TEMPO 2616/2618 1SM -RA BR BKN003 OVC008
                       FM261800 VRB04KT P6SM VCSH SCT020 BKN040
                       FM270600 16006KT P6SM BKN020 OVC040=
201009261120 TAF KBLI 261120Z 2612/2712 18008KT P6SM -RA SCT025 OVC050
                      TEMPO 2612/2616 4SM RA BR BKN025 OVC040 FM261800
                       VRB04KT P6SM VCSH SCT020 BKN040 FM270600
                       16006KT P6SM BKN020 OVC040=
201009260520 TAF KBLI 260520Z 2606/2706 22012G22KT P6SM BKN040 BKN080 FM260800
                       22012G22KT 4SM -RA BR BKN030 OVC060 FM261400
                       18009KT P6SM -SHRA BKN025 FM261900 18009KT
                       P6SM VCSH BKN035=
201009252335 TAF KBLI 252335Z 2600/2624 16010G18KT P6SM SCT150 FM260200 16014G22KT
                       P6SM BKN060 OVC120 FM260600 16014G22KT P6SM
                       -RA BKN030 OVC050 FM260800 17012KT 4SM -RA
                       BR OVC020 FM261400 18009KT P6SM -SHRA BKN025
                       FM261900 18009KT P6SM VCSH BKN035=
201009251744 TAF KBLI 251744Z 2518/2618 VRB04KT P6SM SCT200 FM252100 14008KT
                       P6SM BKN200 FM260100 16014G20KT P6SM BKN080
                       OVC100 FM260700 16012KT P6SM -RA BKN030
                       OVC050 FM260900 17012KT 4SM -RA BR OVC020
                       FM261500 20009KT P6SM -SHRA BKN025=
201009251120 TAF KBLI 251120Z 2512/2612 VRB03KT P6SM SCT080 BKN200 FM251600
                       16010KT P6SM SCT060 BKN150 FM260000 16012G20KT
                       P6SM BKN050 OVC100 FM260800 16012KT P6SM
                       -RA BKN030 OVC050
                      TEMPO 2610/2612 4SM -RA BR OVC020=
201009250520 TAF KBLI 250520Z 2506/2606 VRB03KT P6SM SCT080 BKN200 FM251600
                       16010KT P6SM SCT060 BKN150 FM260000 16012G20KT
                       P6SM BKN050 OVC100 FM260400 16012KT P6SM
                       -RA BKN030 OVC050=
201009242328 TAF KBLI 242328Z 2500/2524 VRB04KT P6SM SCT060 BKN100
                      TEMPO 2500/2503 BKN060 OVC100 FM250300 12008KT
                       P6SM OVC070 FM250900 16010KT P6SM OVC050
                       FM251700 16010KT P6SM SCT050 BKN200=
201009241720 TAF KBLI 241720Z 2418/2518 02004KT P6SM OVC100
                      TEMPO 2418/2422 -RA FM250300 12008KT P6SM
                       OVC070 FM250900 16010KT P6SM OVC050 FM251700
                       16010KT P6SM SCT050=
201009241138 TAF KBLI 241138Z 2412/2512 15006KT P6SM SCT020 BKN120 FM241700
                       15010KT P6SM SCT060 BKN200 FM250000 15012G18KT
                       P6SM SCT060 BKN120=
201009240541 TAF KBLI 240541Z 2406/2506 16008KT P6SM SCT035 OVC060 FM241700
                       16010KT P6SM SCT060 BKN200=
201009232345 TAF KBLI 232345Z 2400/2424 16014G22KT P6SM -SHRA SCT020 OVC040
                       FM240600 15006KT P6SM VCSH BKN025 BKN040
                       FM241200 14005KT P6SM VCSH OVC015 FM242100
                       15011KT P6SM BKN035=
201009231733 TAF KBLI 231733Z 2318/2418 15014G21KT P6SM -RA SCT025 BKN040 OVC080
                       TEMPO 2318/2321 4SM -RA BR BKN025 OVC035
                       FM232100 17011KT P6SM -SHRA BKN035 OVC050
                       FM240600 15006KT P6SM -SHRA BKN025 BKN040
                       FM241200 14005KT P6SM VCSH OVC025=
201009231122 TAF KBLI 231122Z 2312/2412 17006KT P6SM BKN050 OVC100
                      TEMPO 2313/2317 -SHRA BKN035 FM231700 15008KT
                       P6SM -RA BKN040 OVC060 FM232100 17011KT
                       P6SM -RA BKN035 OVC050 FM240600 15006KT
                       P6SM -SHRA BKN025 BKN040=
201009230815 TAF KBLI 230815Z 2308/2406 16005KT P6SM BKN070 BKN120 FM231100
                       17006KT P6SM BKN050 OVC100 FM231700 15008KT
                       P6SM -RA BKN035 OVC060 FM232100 17011KT
                       P6SM -RA BKN027 OVC050 FM240400 15006KT
                       P6SM -SHRA BKN025 BKN040=
201009222324 TAF KBLI 222324Z 2300/2324 25006KT P6SM FEW030 FM230500 16006KT
                       P6SM SCT120 BKN200 FM231100 17007KT P6SM
                       BKN050 OVC100 FM231700 15008KT P6SM -RA
                       BKN035 OVC060=
201009221736 TAF KBLI 221736Z 2218/2318 04003KT P6SM SKC FM222100 20006KT P6SM
                       SKC FM230500 16006KT P6SM SCT120 BKN200
                       FM231100 17007KT P6SM BKN050 OVC100 FM231700
                       15007KT P6SM -RA BKN035 OVC060=
201009221125 TAF KBLI 221125Z 2212/2312 VRB03KT P6SM SKC
                      TEMPO 2212/2216 3SM BR SCT002 FM221700 VRB03KT
                       P6SM SKC FM222100 20006KT P6SM SKC FM230500
                       16006KT P6SM SCT120 BKN200 FM231100 17008KT
                       P6SM BKN050 OVC100=
201009220525 TAF KBLI 220525Z 2206/2306 VRB03KT P6SM SKC FM221000 VRB03KT 4SM
                       BR SCT002
                      TEMPO 2210/2214 1/2SM FG VV001 FM221700 VRB03KT
                       P6SM SKC FM222100 18005KT P6SM SKC FM230500
                       16006KT P6SM SCT120 BKN200=
201009212320 TAF KBLI 212320Z 2200/2224 02007KT P6SM SKC FM221000 04003KT 1SM
                       BR SCT002
                      TEMPO 2210/2214 1/2SM FG VV001 FM221700 VRB03KT
                       P6SM SKC FM222000 18006KT P6SM SKC=
201009211725 TAF KBLI 211725Z 2118/2218 01004KT P6SM SCT016 BKN040 FM212000
                       VRB03KT P6SM SKC FM221000 00000KT 1SM BR
                       SCT002
                      TEMPO 2210/2214 1/2SM FG VV001 FM221700 VRB03KT
                       P6SM SKC=
201009211442 KBLI 211442Z 2115/2212 00000KT P6SM BKN016 OVC030 FM211800 VRB03KT
                       P6SM SCT030 BKN060 FM212200 VRB03KT P6SM
                       SKC FM221000 00000KT 1SM BR SCT002=
201009211138 TAF KBLI 211138Z 2112/2212 VRB03KT P6SM SCT022 BKN040 BKN060
                      TEMPO 2112/2116 BKN022 OVC040 FM211900 VRB03KT
                       P6SM SCT030 BKN060 FM212200 VRB03KT P6SM
                       SKC FM221000 00000KT 1SM BR SCT002=
201009210536 TAF KBLI 210536Z 2106/2206 18006KT P6SM OVC070 FM210900 18006KT
                       P6SM SCT070 FM211400 VRB03KT P6SM BKN006
                       OVC010 FM211900 VRB03KT P6SM SCT035=
201009202332 TAF KBLI 202332Z 2100/2124 19007KT P6SM VCSH OVC070 FM211100 VRB03KT
                       4SM BR BKN012 OVC020 FM212000 32005KT P6SM
                       SCT025=
201009201729 TAF KBLI 201729Z 2018/2118 17010G16KT P6SM VCSH SCT050 OVC080 FM201900
                       16010KT P6SM VCSH SCT030 BKN045 FM211100
                       VRB03KT P6SM BKN012 OVC020=
201009201139 TAF KBLI 201139Z 2012/2112 18010KT P6SM -SHRA SCT012 OVC021 FM201900
                       16010KT P6SM VCSH SCT030 BKN045 FM211100
                       VRB03KT P6SM BKN012 OVC020=
201009200540 TAF KBLI 200540Z 2006/2106 18006KT P6SM SCT025 BKN045 BKN070
                      TEMPO 2006/2010 BKN025 OVC045 FM201300 16006KT
                       P6SM -SHRA SCT015 BKN025 OVC040 FM201900
                       16006KT P6SM VCSH SCT030 BKN045=
201009200311 KBLI 200311Z 2003/2024 18006KT P6SM VCSH SCT030 BKN045 FM200800
                       16006KT 5SM -SHRA BR SCT012 BKN020 FM201200
                       16006KT P6SM VCSH SCT010 BKN018 FM201900
                       18006KT P6SM VCSH SCT030 BKN045=
201009192342 TAF KBLI 192342Z 2000/2024 18009KT P6SM VCSH SCT030 BKN045 FM200400
                       16008KT 5SM -SHRA BR SCT012 BKN020 FM200800
                       16008KT P6SM VCSH SCT010 BKN018 FM201900
                       18008KT P6SM VCSH SCT030 BKN045=
201009191742 TAF KBLI 191742Z 1918/2018 16012KT P6SM VCTS SCT018 BKN030CB
                      TEMPO 1918/1922 3SM SHRA BR SCT010 BKN015CB
                       FM192200 18009KT P6SM -SHRA SCT025 BKN040
                       BKN060
                      TEMPO 1922/2002 5SM SHRA SCT015 OVC025CB
                       FM201100 18008KT 5SM -SHRA BR SCT008 BKN014
                       OVC020=
201009191445 KBLI 191445Z 1915/2012 16012KT P6SM VCTS SCT015 BKN025CB
                      TEMPO 1915/1919 4SM SHRA BR SCT010 BKN015CB
                       FM191900 18009KT P6SM -SHRA SCT025 BKN040CB
                       BKN060
                      TEMPO 1919/1923 5SM SHRA SCT015 OVC025CB
                       FM201100 18008KT P6SM SCT015 BKN025 OVC040=
201009191335 KBLI 191335Z 1914/2012 16012KT P6SM SCT015 BKN025 OVC040 FM191700
                       18009KT P6SM -SHRA SCT025 BKN040 BKN060
                       TEMPO 1920/1924 5SM SHRA SCT015 OVC025CB
                       FM201100 18008KT P6SM SCT015 BKN025 OVC040=
201009191139 TAF KBLI 191139Z 1912/2012 VRB03KT P6SM BKN015 OVC025 FM191500
                       VRB03KT P6SM SCT015 BKN025 OVC040 FM191700
                       18008KT P6SM -SHRA SCT025 BKN040 BKN060
                       TEMPO 1920/1924 5SM SHRA SCT015 OVC025CB
                       FM201100 18008KT P6SM SCT015 BKN025 OVC040=
201009190541 TAF KBLI 190541Z 1906/2006 VRB03KT P6SM -RA SCT035 OVC050
                      TEMPO 1909/1913 4SM -RA BKN025 OVC035 FM191300
                       VRB03KT P6SM SCT012 OVC022 FM191800 18008KT
                       P6SM -SHRA SCT025 BKN040 BKN060
                      TEMPO 1920/1924 5SM SHRA SCT015 OVC025CB=
201009182351 TAF KBLI 182351Z 1900/1924 31003KT P6SM BKN070 FM190600 VRB03KT
                       P6SM -RA SCT035 OVC050 FM190800 VRB03KT
                       4SM -RA BR SCT008 BKN015 OVC035 FM191100
                       VRB03KT 4SM -RA BR BKN008 OVC015 FM191800
                       18008KT 6SM -SHRA BR SCT012 BKN020 OVC035=
201009181747 TAF KBLI 181747Z 1818/1918 34003KT P6SM VCSH BKN012 OVC020 FM182000
                       VRB03KT P6SM SCT015 BKN030 FM182300 31003KT
                       P6SM BKN070 FM190800 VRB03KT P6SM -RA SCT035
                       OVC050 FM191200 VRB03KT 4SM -RA BR SCT008
                       BKN015 OVC035=
201009181524 KBLI 181524Z 1815/1912 34003KT P6SM VCSH BKN015 OVC020 FM181900
                       VRB03KT P6SM SCT015 BKN030 FM182200 31003KT
                       P6SM BKN070 FM190800 VRB03KT P6SM -RA SCT035
                       OVC050=
201009181139 TAF KBLI 181139Z 1812/1912 01004KT P6SM -RA SCT012 BKN022 OVC035
                       TEMPO 1812/1814 4SM -RA FM181400 16008KT
                       P6SM SCT012 BKN022 OVC035 FM181600 VRB03KT
                       P6SM SCT035 OVC050 FM190900 VRB03KT P6SM
                       -RA SCT035 OVC050=
201009180923 KBLI 180923Z 1809/1906 VRB03KT 5SM -RA OVC035 FM181200 VRB03KT
                       3SM -RA BR OVC008 FM181400 VRB03KT P6SM
                       SCT010 BKN020 OVC035 FM181700 VRB03KT P6SM
                       SCT035 OVC050=
201009180543 TAF KBLI 180543Z 1806/1906 VRB03KT P6SM -RA OVC050 FM180900 VRB03KT
                       3SM -RA BR OVC008 FM181200 VRB03KT P6SM
                       SCT010 BKN020 OVC035 FM181700 VRB03KT P6SM
                       SCT035 OVC050=
201009172320 TAF KBLI 172320Z 1800/1824 02010KT P6SM SCT035 OVC070 FM180200
                       02006KT P6SM -RA BKN035 OVC070 FM180600
                       VRB03KT P6SM -RA OVC020 FM181000 VRB03KT
                       3SM -RA BR OVC008 FM181900 VRB03KT P6SM
                       -SHRA BKN020 OVC035 FM182300 20005KT P6SM
                       VCSH BKN025 BKN040=
201009172103 KBLI 172103Z 1721/1818 02010G18KT P6SM SCT035 OVC070 FM180100 02006KT
                       P6SM BKN035 OVC070 FM180600 VRB03KT P6SM
                       -RA OVC020 FM181000 VRB03KT 3SM -RA BR OVC008=
201009171721 TAF KBLI 171721Z 1718/1818 02005KT P6SM SCT035 OVC070 FM172200
                       02006KT P6SM BKN035 OVC070 FM180000 VRB03KT
                       P6SM -RA OVC020 FM181000 VRB03KT 3SM -RA
                       BR OVC008=
201009171442 KBLI 171442Z 1715/1812 02005KT P6SM SCT025 OVC035
                      TEMPO 1715/1719 BKN025 OVC035 FM171900 02006KT
                       P6SM VCSH SCT010 BKN040 OVC080 FM180100
                       09003KT P6SM -RA OVC020 FM181000 VRB03KT
                       2SM -RA BR OVC006=
201009171130 TAF KBLI 171130Z 1712/1812 VRB03KT 5SM BR OVC016
                      TEMPO 1712/1716 1SM -RA BR OVC005 FM171800
                       02006KT P6SM VCSH SCT010 BKN040 OVC080 FM180300
                       09003KT P6SM -RA OVC020 FM181000 VRB03KT
                       2SM -RA BR OVC006=
201009170540 TAF KBLI 170540Z 1706/1806 02005KT 3SM -RA BR OVC003
                      TEMPO 1706/1710 P6SM NSW SCT004 BKN035 OVC060
                       FM171000 02006KT 4SM BR SCT005 OVC015
                      TEMPO 1712/1716 1SM BR OVC005 FM171800 02006KT
                       P6SM VCSH SCT010 BKN040 OVC080 FM180300
                       09003KT P6SM -RA OVC020=
201009170125 KBLI 170125Z 1701/1724 VRB03KT 5SM -RA BR SCT018 OVC025
                      TEMPO 1701/1705 3SM RA BR SCT010 OVC018 FM170500
                       VRB03KT P6SM VCSH SCT014 BKN025 OVC070
                      TEMPO 1711/1715 5SM BR SCT003 BKN014 FM171500
                       01005KT P6SM BKN035 FM172300 34004KT 6SM
                       -RA OVC030=
201009162344 TAF KBLI 162344Z 1700/1724 VRB03KT 5SM -RA BR SCT018 OVC025
                      TEMPO 1703/1707 3SM RA BR SCT010 OVC018 FM170800
                       VRB03KT P6SM VCSH SCT014 BKN025 OVC070
                      TEMPO 1711/1715 5SM BR SCT003 BKN014 FM171500
                       01005KT P6SM BKN035 FM172300 34004KT 6SM
                       -RA OVC030=
201009162114 KBLI 162114Z 1621/1718 34003KT P6SM SCT020 BKN030 FM170000 VRB03KT
                       6SM -RA BR SCT010 OVC020 FM170800 VRB03KT
                       P6SM VCSH SCT014 BKN025 OVC070 FM171600
                       01003KT P6SM BKN030=
201009161741 TAF KBLI 161741Z 1618/1718 VRB03KT P6SM BKN010 OVC030 FM162000
                       23005KT P6SM SCT010 BKN015 OVC030 FM162300
                       24005KT P6SM VCSH SCT015 BKN030 FM170200
                       VRB03KT 6SM -RA BR SCT010 OVC020 FM170800
                       VRB03KT P6SM VCSH SCT014 BKN025 OVC070 FM171600
                       01003KT P6SM BKN030=
201009161140 TAF KBLI 161140Z 1612/1712 00000KT P6SM OVC004 FM161300 17004KT
                       5SM BR SCT008 OVC020
                      TEMPO 1613/1616 2SM -SHRA BR OVC008 FM161800
                       14004KT P6SM VCSH SCT010 OVC020 FM162000
                       18008KT P6SM VCSH SCT030 BKN050 OVC080 FM170600
                       17006KT P6SM SCT020 OVC040=
201009161019 KBLI 161019Z 1610/1706 00000KT P6SM SCT015 BKN025 OVC040
                      TEMPO 1610/1612 4SM -SHRA BR BKN015 OVC025
                       FM161200 17004KT 5SM BR SCT008 OVC020
                      TEMPO 1612/1616 2SM -SHRA BR OVC008 FM161800
                       14004KT P6SM SCT010 OVC020 FM162000 18008KT
                       P6SM SCT030 BKN050 FM170000 32004KT P6SM
                       SCT050 BKN090 BKN250=
201009160530 TAF KBLI 160530Z 1606/1706 05004KT P6SM SCT020 BKN045 OVC060
                      TEMPO 1606/1610 5SM -RA BR OVC020 FM161000
                       17004KT 5SM BR SCT008 OVC020
                      TEMPO 1612/1616 2SM -SHRA BR OVC008 FM161800
                       14004KT P6SM SCT010 OVC020 FM162000 18008KT
                       P6SM SCT030 BKN050 FM170000 32004KT P6SM
                       SCT050 BKN090 BKN250=
201009160147 KBLI 160147Z 1602/1624 17006KT P6SM SCT030 BKN080 FM160800 17006KT
                       5SM -RA BR OVC020 FM161400 17004KT 5SM BR
                       SCT008 OVC020
                      TEMPO 1614/1618 2SM -SHRA BR BKN008 OVC015=
201009152322 TAF KBLI 152322Z 1600/1624 17006KT P6SM -RA SCT030 OVC050
                      TEMPO 1600/1604 5SM -RA BR BKN025 OVC040
                       FM160800 17006KT 5SM -RA BR OVC020 FM161400
                       17004KT 5SM BR SCT008 OVC020
                      TEMPO 1614/1618 2SM -SHRA BR BKN008 OVC015=
201009151722 TAF KBLI 151722Z 1518/1618 18005KT P6SM SCT070 BKN120 FM152000
                       18006KT P6SM SCT035 BKN050 OVC090 FM160000
                       17006KT P6SM -RA SCT030 OVC050 FM160800
                       17006KT 5SM -RA BR OVC020 FM161400 17004KT
                       3SM BR OVC008=
201009151637 KBLI 151637Z 1517/1612 VRB03KT 2SM BR OVC002
                      TEMPO 1517/1518 5SM BR SCT002 BKN120 FM151800
                       18005KT P6SM SCT070 OVC120 FM160000 17006KT
                       P6SM -RA SCT030 OVC050 FM160800 17006KT
                       5SM -RA BR OVC020=
201009151123 TAF KBLI 151123Z 1512/1612 00000KT P6SM SCT011
                      TEMPO 1512/1516 1SM BR BKN001 OVC011 FM151700
                       VRB03KT P6SM BKN110 OVC200 FM160000 17006KT
                       P6SM -RA SCT030 OVC050 FM160800 17006KT
                       5SM -RA BR OVC020=
201009150910 KBLI 150910Z 1509/1606 00000KT 1SM BR OVC005
                      TEMPO 1509/1513 4SM BR SCT006 OVC013 FM151600
                       VRB03KT P6SM BKN009 BKN110 OVC200 FM151800
                       VRB03KT P6SM BKN110 OVC200 FM160000 17006KT
                       P6SM -RA SCT030 OVC050=
201009150839 KBLI 150839Z 1509/1606 00000KT P6SM SKC
                      TEMPO 1512/1516 3SM BR BKN005 FM151600 VRB03KT
                       P6SM BKN009 BKN110 OVC200 FM151800 VRB03KT
                       P6SM BKN110 OVC200 FM160000 17006KT P6SM
                       -RA SCT030 OVC050=
201009150554 KBLI 150554Z 1506/1606 00000KT 3SM BR SKC
                      TEMPO 1506/1510 1SM BR OVC005 FM151000 17002KT
                       2SM BR OVC005
                      TEMPO 1511/1515 1/2SM FG VV002 FM151600 VRB03KT
                       P6SM BKN009 BKN110 OVC200 FM151800 VRB03KT
                       P6SM BKN110 OVC200 FM160000 17006KT P6SM
                       -RA SCT030 OVC050=
201009150530 TAF KBLI 150530Z 1506/1606 00000KT P6SM SCT250 FM150900 00000KT
                       2SM BR OVC005
                      TEMPO 1511/1515 1/2SM FG VV002 FM151600 VRB03KT
                       P6SM BKN009 BKN110 OVC200 FM151800 VRB03KT
                       P6SM BKN110 OVC200 FM160000 17006KT P6SM
                       -RA SCT030 OVC050=
201009142333 TAF KBLI 142333Z 1500/1524 VRB03KT P6SM VCFG FEW010 FM150600 00000KT
                       2SM BR OVC005
                      TEMPO 1511/1515 1/2SM FG VV002 FM151600 VRB03KT
                       P6SM BKN009 BKN110 OVC200 FM151800 VRB03KT
                       P6SM BKN110 OVC200 FM152100 17006KT P6SM
                       SCT060 OVC110
                      PROB30 1521/1524 -RA OVC060=
201009142131 KBLI 142131Z 1422/1518 VRB03KT P6SM VCFG SCT007
                      TEMPO 1422/1424 BKN007 FM150000 VRB03KT P6SM
                       VCFG FEW010 FM150600 00000KT 2SM BR OVC005
                       TEMPO 1512/1516 1/2SM FG VV002=
201009141912 KBLI 141912Z 1419/1518 VRB03KT 2SM BR BKN003
                      TEMPO 1419/1420 3/4SM BR FM142100 VRB03KT
                       P6SM SCT250 FM150600 00000KT 2SM BR OVC005
                       TEMPO 1512/1516 1/2SM FG VV002=
201009141810 KBLI 141810Z 1418/1518 VRB03KT 6SM BR OVC004 FM141900 VRB03KT P6SM
                       BKN006 FM142000 VRB03KT P6SM SCT250 FM150600
                       00000KT 2SM BR OVC005
                      TEMPO 1512/1516 1/2SM FG VV002=
201009141806 TAF KBLI 141806Z 1418/1518 VRB03KT 1 1/2SM BR OVC004 FM141900 VRB03KT
                       P6SM BKN006 FM142000 VRB03KT P6SM SCT250
                       FM150600 00000KT 2SM BR OVC005
                      TEMPO 1512/1516 1/2SM FG VV002=
201009141647 KBLI 141647Z 1417/1512 00000KT 2SM BR OVC003
                      TEMPO 1417/1418 1/2SM FG VV001 FM141800 VRB03KT
                       5SM BR BKN005 FM141900 VRB03KT P6SM SCT250=
201009141424 KBLI 141424Z 1414/1512 VRB03KT 1SM BR OVC003
                      TEMPO 1414/1417 1/2SM FG VV001 FM141700 VRB03KT
                       P6SM BKN006 FM141900 VRB03KT P6SM SCT250=
201009141130 TAF KBLI 141130Z 1412/1512 00000KT 1/2SM FG VV001
                      TEMPO 1413/1417 3SM BR OVC003 FM141700 17002KT
                       P6SM OVC004 FM141900 18005KT P6SM BKN007
                       OVC250 FM142000 VRB03KT P6SM SCT250=
201009141010 KBLI 141010Z 1410/1506 00000KT 1SM BR OVC002 FM141600 VRB03KT 2SM
                       BR OVC004 FM141800 VRB03KT P6SM BKN007 BKN250
                       FM142000 VRB03KT P6SM SCT250=
201009140822 KBLI 140822Z 1408/1506 00000KT 1/2SM FG SCT002 OVC008 FM140900
                       VRB03KT 1/2SM FG VV001 FM141600 VRB03KT
                       2SM BR OVC004 FM141800 VRB03KT P6SM BKN007
                       BKN250 FM142000 VRB03KT P6SM SCT250=
201009140520 TAF KBLI 140520Z 1406/1506 00000KT 3SM BR SKC FM140700 VRB03KT
                       2SM BR BKN005 FM140800 VRB03KT 1/2SM FG
                       VV001 FM141600 VRB03KT 2SM BR OVC004 FM141800
                       VRB03KT P6SM BKN007 BKN250 FM142000 VRB03KT
                       P6SM SCT250=
201009132339 TAF KBLI 132339Z 1400/1424 VRB03KT P6SM FEW025 BKN250 FM140300
                       VRB03KT P6SM SCT250 FM140600 VRB03KT 2SM
                       BR BKN005 FM140800 VRB03KT 1/2SM FG VV001
                       FM141600 VRB03KT 2SM BR OVC004 FM141800
                       VRB03KT P6SM BKN007 BKN250 FM142000 VRB03KT
                       P6SM SCT250=
201009132045 KBLI 132045Z 1321/1418 02006KT P6SM BKN022 OVC040 FM140000 32005KT
                       P6SM BKN040 BKN250 FM140300 VRB03KT P6SM
                       SCT040 SCT250 FM140600 VRB03KT 2SM BR BKN005
                       FM140800 VRB03KT 1/2SM FG VV001 FM141600
                       VRB03KT 2SM BR BKN003=
201009131920 KBLI 131920Z 1319/1418 01005KT P6SM OVC015 FM132100 33005KT P6SM
                       BKN020 OVC040 FM140000 27005KT P6SM FEW018
                       BKN040 BKN250 FM140300 VRB03KT P6SM SCT040
                       SCT250 FM140600 VRB03KT 2SM BR BKN005 FM140800
                       VRB03KT 1/2SM FG VV001 FM141600 VRB03KT
                       2SM BR BKN003=
201009131727 TAF KBLI 131727Z 1318/1418 02005KT P6SM SCT004 OVC012
                      TEMPO 1318/1320 -RA BKN004 OVC012 FM132100
                       32005KT P6SM FEW009 BKN020 OVC040 FM140000
                       27005KT P6SM FEW018 BKN040 BKN250 FM140300
                       VRB03KT P6SM SCT040 SCT250 FM140600 VRB03KT
                       2SM BR BKN005 FM140800 VRB03KT 1/2SM FG
                       VV001 FM141600 VRB03KT 2SM BR BKN003=
201009131625 KBLI 131625Z 1316/1412 36005KT P6SM SCT004 OVC011
                      TEMPO 1316/1318 5SM -DZ BR BKN004 OVC011
                       FM131800 36005KT P6SM SCT009 OVC022 FM132000
                       35005KT P6SM SCT030 BKN040 FM140000 VRB03KT
                       P6SM FEW200=
201009131134 TAF KBLI 131134Z 1312/1412 01003KT P6SM VCSH SCT005 OVC011
                      TEMPO 1312/1316 5SM -RA BR BKN002 FM131600
                       36004KT P6SM BKN015 OVC030 FM132000 35005KT
                       P6SM SCT030 BKN040 FM140000 VRB03KT P6SM
                       FEW200=
201009130538 TAF KBLI 130538Z 1306/1406 VRB03KT 5SM -RA SCT005 SCT015 OVC030
                       TEMPO 1306/1310 4SM -RA BR BKN005 FM131000
                       VRB03KT P6SM VCSH BKN015 OVC030 FM131600
                       VRB05KT P6SM BKN015 OVC030 FM132000 30007KT
                       P6SM SCT020 BKN040=
201009130402 KBLI 130402Z 1304/1324 VRB03KT P6SM SCT004 OVC020
                      TEMPO 1304/1306 5SM -DZ BR BKN004 OVC010
                       FM130600 VRB03KT 5SM -DZ BKN005 OVC015 FM131600
                       30005KT P6SM BKN015 OVC040 FM132000 30007KT
                       P6SM SCT020 BKN040=
201009122320 TAF KBLI 122320Z 1300/1324 VRB03KT P6SM SCT004 OVC020
                      TEMPO 1300/1304 3SM -DZ BR BKN004 OVC010
                       FM130600 VRB03KT 5SM -DZ BKN005 OVC015 FM131600
                       30005KT P6SM BKN015 OVC040 FM132000 30007KT
                       P6SM SCT020 BKN040=
201009122259 KBLI 122259Z 1223/1318 VRB03KT P6SM SCT004 OVC020
                      TEMPO 1223/1303 3SM -DZ BR BKN004 OVC018
                       FM130600 VRB03KT 5SM -DZ SCT005 OVC015=
201009122258 KBLI 122258Z 1223/1318 VRB03KT P6SM SCT004 OVC020
                      TEMPO 1300/1304 3SM -DZ BR BKN004 OVC018
                       FM130600 VRB03KT 5SM -DZ SCT005 OVC015=
201009122105 KBLI 122105Z 1221/1318 18007KT 5SM -RA BR SCT022 OVC035
                      TEMPO 1221/1301 3SM -RA BR BKN022 OVC035
                       FM130600 VRB03KT 5SM -DZ OVC015=
201009121832 KBLI 121832Z 1219/1318 18008KT 5SM -RA BR SCT007 BKN012 OVC020
                       TEMPO 1219/1222 3SM -RA BR BKN007 OVC015
                       FM122200 22005KT P6SM -SHRA OVC020=
201009121813 KBLI 121813Z 1218/1318 18008KT P6SM -RA SCT015 OVC025
                      TEMPO 1218/1222 3SM -RA BR SCT007 BKN015
                       OVC025 FM122200 22005KT P6SM -SHRA OVC020=
201009121720 TAF KBLI 121720Z 1218/1318 18008KT P6SM -RA OVC035
                      TEMPO 1218/1222 5SM -RA BR OVC025 FM122200
                       22005KT P6SM -SHRA OVC020=
201009121416 KBLI 121416Z 1214/1312 18012KT P6SM -RA OVC035
                      TEMPO 1214/1218 4SM -RA BR OVC030 FM121800
                       18010KT 4SM -RA BR OVC025 FM130000 18005KT
                       P6SM VCSH OVC030 FM130400 VRB04KT P6SM OVC020=
201009121132 TAF KBLI 121132Z 1212/1312 VRB05KT 5SM -RA BR SCT030 OVC040
                      TEMPO 1212/1216 4SM -RA BR OVC030 FM121600
                       16006KT 4SM -RA BR SCT025 OVC030 FM130000
                       18005KT P6SM VCSH OVC030 FM130400 VRB04KT
                       P6SM OVC020=
201009120531 TAF KBLI 120531Z 1206/1306 16006KT P6SM -RA SCT030 OVC070
                      TEMPO 1208/1212 4SM -RA BR BKN020 FM121200
                       18010KT 4SM -RA BR OVC015 FM121800 20008KT
                       4SM -DZ BR BKN015 OVC030=
201009120210 KBLI 120210Z 1202/1224 18007KT P6SM -RA SCT050 BKN070 OVC120 FM120300
                       16010KT P6SM -RA SCT030 BKN050 OVC100 FM120700
                       16012KT P6SM -RA BKN020 OVC040 FM121200
                       18010KT 4SM -RA BR OVC015 FM121800 20008KT
                       4SM -DZ BR BKN015 OVC030=
201009112320 TAF KBLI 112320Z 1200/1224 18007KT P6SM SCT050 OVC120 FM120300
                       16010KT P6SM SCT030 BKN050 OVC100 FM120700
                       16012KT P6SM -RA BKN020 OVC040 FM121200
                       18010KT 4SM -RA BR OVC015 FM121800 20008KT
                       4SM -DZ BR BKN015 OVC030=
201009111758 KBLI 111758Z 1118/1218 18010KT P6SM SCT020 BKN120 FM120000 18008KT
                       P6SM SCT030 BKN060 OVC120 FM120800 16010KT
                       P6SM BKN025 OVC050 FM121100 18012KT 4SM
                       -RA BR BKN015 OVC030=
201009111720 TAF KBLI 111720Z 1118/1218 VRB03KT P6SM SCT020 BKN120
                      TEMPO 1118/1120 BKN020 FM120000 23006KT P6SM
                       SCT030 BKN060 OVC120 FM120800 16010KT P6SM
                       BKN025 OVC050 FM121100 18012KT 4SM -RA BR
                       BKN015 OVC030=
201009111137 TAF KBLI 111137Z 1112/1212 16005KT P6SM SCT070 BKN120 FM111800
                       17007KT P6SM SCT070 BKN100 FM112200 17007KT
                       P6SM BKN060 OVC100 FM120600 18005KT P6SM
                       VCSH OVC040=
201009110531 TAF KBLI 110531Z 1106/1206 16007KT P6SM OVC070 FM110900 19007KT
                       P6SM BKN035 OVC070 FM111900 22007KT P6SM
                       SCT030 BKN050 BKN100=
201009102320 TAF KBLI 102320Z 1100/1124 16007KT P6SM SCT040 BKN070 FM110600
                       19007KT P6SM BKN035 OVC060 FM111100 19007KT
                       P6SM OVC025 FM111900 22007KT P6SM SCT030
                       BKN050=
201009101720 TAF KBLI 101720Z 1018/1118 18007KT P6SM SCT030 OVC050
                      TEMPO 1018/1021 BKN030 OVC050 FM110600 21007KT
                       P6SM BKN035 FM111100 18006KT P6SM OVC022=
201009101120 TAF KBLI 101120Z 1012/1112 17007KT P6SM SCT025 OVC040 FM102000
                       17008KT P6SM VCSH SCT035 OVC050 FM110500
                       17005KT P6SM BKN035=
201009100950 KBLI 100950Z 1010/1106 16007KT P6SM OVC040 FM101900 17008KT P6SM
                       VCSH SCT035 OVC050 FM110500 17005KT P6SM
                       BKN030=
201009100523 TAF KBLI 100523Z 1006/1106 18007KT P6SM OVC035
                      TEMPO 1006/1010 OVC025 FM101000 16008KT P6SM
                       OVC020 FM101900 17008KT P6SM VCSH SCT022
                       BKN040 FM110500 17005KT P6SM BKN030=
201009092330 TAF KBLI 092330Z 1000/1024 18010KT P6SM SKC FM101000 16004KT P6SM
                       OVC018 FM101900 17008KT P6SM SCT022 BKN045=
201009091730 TAF KBLI 091730Z 0918/1018 15006KT P6SM OVC035 FM092100 18008KT
                       P6SM SCT035 BKN050 FM100000 18008KT P6SM
                       SCT050 BKN100 FM100800 16004KT P6SM OVC020=
201009091125 TAF KBLI 091125Z 0912/1012 VRB03KT P6SM SCT006 BKN025
                      TEMPO 0912/0916 5SM BR BKN006 OVC015 FM091900
                       17006KT P6SM SCT017 BKN035 FM092100 18008KT
                       P6SM SCT025 BKN050 FM100700 16004KT P6SM
                       BKN022 OVC040=
201009090520 TAF KBLI 090520Z 0906/1006 VRB03KT P6SM SCT040 BKN080
                      TEMPO 0908/0911 BKN015 OVC045 FM091100 16004KT
                       P6SM OVC012
                      TEMPO 0912/0916 4SM BR BKN007 OVC012 FM091900
                       17008KT P6SM SCT010 OVC025 FM092100 16011KT
                       P6SM SCT025 BKN050=
201009082330 TAF KBLI 082330Z 0900/0924 17008KT P6SM SKC FM090200 17004KT P6SM
                       SCT040 BKN120 FM090600 16004KT P6SM BKN040
                       OVC120 FM091000 15004KT P6SM OVC012
                      TEMPO 0912/0916 4SM BR BKN007 OVC012 FM091900
                       17008KT P6SM SCT007 OVC022 FM092100 16011KT
                       P6SM SCT025 BKN050=
201009081900 KBLI 081900Z 0819/0918 VRB04KT P6SM SCT080 FM090600 18004KT P6SM
                       OVC011=
201009081730 TAF KBLI 081730Z 0818/0918 18004KT 5SM BR BKN005 OVC008 FM081900
                       18004KT P6SM BKN010 BKN035 FM082000 18006KT
                       P6SM SCT016 BKN040 BKN090 FM082100 19008KT
                       P6SM SCT035 BKN100 FM090600 18004KT P6SM
                       OVC011=
201009081500 KBLI 081500Z 0815/0912 00000KT 1/4SM FG VV001
                      TEMPO 0816/0818 3SM BR OVC003 FM081800 18004KT
                       P6SM BKN010 BKN035 FM081900 17010KT P6SM
                       SCT016 OVC035 FM090600 18004KT P6SM OVC011=
201009081244 KBLI 081244Z 0813/0912 00000KT P6SM SCT006 OVC070
                      TEMPO 0813/0815 3SM BR BKN004 OVC090 FM081500
                       18004KT P6SM BKN010 BKN035 FM081800 17010KT
                       P6SM SCT016 OVC035 FM090600 18004KT P6SM
                       OVC011=
201009081124 TAF KBLI 081124Z 0812/0912 00000KT P6SM SCT006 OVC090
                      TEMPO 0812/0815 BKN006 OVC090 FM081500 18004KT
                       P6SM BKN010 BKN035 FM081800 17010KT P6SM
                       SCT016 OVC035 FM090600 18004KT P6SM OVC011=
201009081051 KBLI 081051Z 0811/0906 00000KT P6SM BKN006 OVC100 FM081500 18004KT
                       P6SM BKN010 BKN035 FM081800 17010KT P6SM
                       SCT016 OVC035=
201009081002 KBLI 081002Z 0810/0906 00000KT P6SM OVC090 FM081800 17010KT P6SM
                       SCT016 OVC035=
201009080808 KBLI 080808Z 0808/0906 00000KT 4SM BR SCT090
                      TEMPO 0809/0813 1SM BR FM081400 00000KT 5SM
                       BR SCT007 BKN015 FM082000 17010KT P6SM SCT016
                       OVC035=
201009080734 KBLI 080734Z 0808/0906 00000KT P6SM FEW090 FM081100 00000KT 4SM
                       BR OVC012 FM082000 17010KT P6SM SCT016 OVC035=
201009080520 TAF KBLI 080520Z 0806/0906 00000KT P6SM VCSH FEW030 BKN060 FM080800
                       00000KT P6SM -SHRA SCT025 OVC035 FM081000
                       17003KT 4SM BR VCSH OVC012 FM082000 17010KT
                       P6SM SCT016 OVC035=
201009072330 TAF KBLI 072330Z 0800/0824 26005KT P6SM SCT025 BKN060
                      TEMPO 0800/0804 -SHRA BKN025 OVC060 FM080400
                       16004KT P6SM -SHRA SCT020 OVC040
                      TEMPO 0804/0808 4SM -SHRA BR OVC016 FM081000
                       17003KT 4SM BR OVC012 FM082000 17010KT P6SM
                       SCT016 OVC035=
201009071730 TAF KBLI 071730Z 0718/0818 01005KT P6SM VCSH SCT013 BKN020 OVC060
                       TEMPO 0718/0722 SCT020 BKN060 FM072200 19006KT
                       P6SM SCT025 BKN050 BKN080
                      TEMPO 0800/0804 -SHRA BKN025 OVC045 FM080400
                       16004KT P6SM -SHRA SCT020 OVC040
                      TEMPO 0804/0808 4SM -SHRA BR OVC016 FM081000
                       17003KT 4SM BR OVC012 FM081700 13003KT P6SM
                       SCT016 OVC035=
201009071120 TAF KBLI 071120Z 0712/0812 36004KT P6SM SCT005 OVC022
                      TEMPO 0712/0714 5SM -RA BR BKN005 OVC020
                       FM071400 VRB03KT 5SM -RA BR BKN004 OVC009
                       FM072100 24004KT P6SM VCSH BKN020 OVC040
                       FM080400 00000KT P6SM OVC012=
201009071004 KBLI 071004Z 0710/0806 01004KT P6SM FEW004 OVC018
                      TEMPO 0710/0714 5SM -RA BR BKN004 OVC018
                       FM071400 VRB03KT 5SM -RA BR BKN004 OVC009
                       FM072100 24004KT P6SM VCSH BKN020 OVC040
                       FM080400 00000KT P6SM OVC012=
201009070750 KBLI 070750Z 0708/0806 36003KT P6SM -RA BKN002 OVC011 FM071500
                       VRB03KT 5SM -RA BR BKN004 OVC009 FM072100
                       24004KT P6SM VCSH BKN020 OVC040 FM080400
                       00000KT P6SM OVC012=
201009070533 TAF KBLI 070533Z 0706/0806 00000KT P6SM FEW003 OVC010 FM071500
                       VRB03KT 5SM -RA BR OVC008 FM072100 24004KT
                       P6SM VCSH BKN020 OVC040 FM080400 00000KT
                       P6SM OVC012=
201009070333 KBLI 070333Z 0704/0724 36003KT P6SM SCT003 OVC017 FM071300 VRB03KT
                       P6SM VCSH OVC013
                      TEMPO 0713/0717 4SM -SHRA BR OVC007 FM072100
                       29006KT P6SM VCSH SCT030 BKN050=
201009070105 KBLI 070105Z 0701/0724 03005KT 5SM -RA BR SCT003 BKN018 OVC050
                       TEMPO 0701/0703 2SM -RA BR BKN003 OVC025
                       FM070300 VRB03KT P6SM -SHRA BKN025 OVC050
                       TEMPO 0703/0706 P6SM NSW SCT025 BKN050 FM071300
                       VRB03KT P6SM VCSH OVC013
                      TEMPO 0713/0717 4SM -SHRA BR OVC007 FM072100
                       29006KT P6SM VCSH SCT030 BKN050=
201009062330 TAF KBLI 062330Z 0700/0724 15005KT P6SM -RA SCT016 BKN027 OVC050
                       TEMPO 0700/0702 4SM -RA BKN016 OVC025 FM070200
                       VRB03KT P6SM -SHRA BKN025 OVC050
                      TEMPO 0702/0706 P6SM NSW SCT025 BKN050 FM071300
                       VRB03KT P6SM VCSH OVC013
                      TEMPO 0713/0717 4SM -SHRA BR OVC007 FM072100
                       29006KT P6SM VCSH SCT030 BKN050=
201009061730 TAF KBLI 061730Z 0618/0718 15008KT P6SM SCT025 OVC040
                      TEMPO 0618/0622 -RA BKN025 OVC040 FM062200
                       18010KT P6SM -RA SCT015 BKN025 OVC040
                      TEMPO 0622/0702 4SM -RA OVC015 FM070200 14004KT
                       P6SM -SHRA BKN015 OVC025=
201009061235 KBLI 061235Z 0613/0712 16009KT P6SM SCT015 OVC040
                      TEMPO 0613/0615 BKN015 OVC040 FM061500 17009KT
                       P6SM -RA SCT025 OVC035 FM062000 18010KT
                       P6SM -SHRA BKN025 OVC040 FM070000 14004KT
                       P6SM -SHRA BKN015 OVC025=
201009061123 TAF KBLI 061123Z 0612/0712 16007KT P6SM OVC090 FM061400 17009KT
                       P6SM -RA SCT025 OVC035 FM062000 18010KT
                       P6SM -SHRA BKN025 OVC040 FM070000 14004KT
                       P6SM -SHRA BKN015 OVC025=
201009060800 KBLI 060800Z 0608/0706 16008KT P6SM OVC080 FM060900 16009KT P6SM
                       -RA SCT025 OVC040 FM061200 15012KT P6SM
                       -RA SCT012 OVC025 FM062000 18010KT P6SM
                       -SHRA BKN025 OVC040 FM070000 14004KT P6SM
                       -SHRA BKN012 OVC025=
201009060537 TAF KBLI 060537Z 0606/0706 18003KT P6SM SCT040 BKN100 FM060900
                       16009KT P6SM SCT025 OVC040 FM061200 15012KT
                       P6SM -RA SCT012 OVC025 FM062000 18010KT
                       P6SM -SHRA BKN025 OVC040 FM070000 14004KT
                       P6SM -SHRA BKN012 OVC025=
201009052333 TAF KBLI 052333Z 0600/0624 18008KT P6SM SCT040 SCT080 FM060300
                       16005KT P6SM SCT040 BKN070 FM060900 16007KT
                       P6SM -RA SCT012 OVC020 FM062000 18010KT
                       P6SM -SHRA BKN025 OVC040=
201009051729 TAF KBLI 051729Z 0518/0618 18005KT P6SM OVC022 FM052000 18008KT
                       P6SM SCT030 BKN045 BKN070 FM052200 19008KT
                       P6SM SCT040 SCT080 FM060300 17005KT P6SM
                       SCT040 BKN070 FM060900 16007KT P6SM -RA
                       SCT012 OVC020=
201009051338 KBLI 051338Z 0514/0612 19005KT P6SM SCT018 BKN030
                      TEMPO 0514/0518 BKN018 OVC030 FM052000 18008KT
                       P6SM SCT030 BKN045 BKN070 FM052200 19008KT
                       P6SM SCT040 SCT080 FM060300 17005KT P6SM
                       SCT040 BKN070 FM061100 16007KT P6SM SCT012
                       OVC028=
201009051120 TAF KBLI 051120Z 0512/0612 19003KT P6SM OVC029 FM052000 18008KT
                       P6SM SCT030 BKN045 BKN070 FM052200 19008KT
                       P6SM SCT040 SCT080 FM060300 17005KT P6SM
                       SCT040 BKN070 FM061100 16007KT P6SM SCT012
                       OVC028=
201009050923 KBLI 050923Z 0509/0606 15006KT P6SM FEW100 FM051200 15008KT P6SM
                       SCT025 BKN070 FM051800 18008KT P6SM SCT025
                       BKN040 BKN070 FM052200 19008KT P6SM SCT040
                       SCT080 FM060300 17005KT P6SM SCT040 BKN070=
201009050520 TAF KBLI 050520Z 0506/0606 18006KT P6SM BKN070 FM050900 17005KT
                       P6SM BKN020 OVC035 FM051800 18008KT P6SM
                       SCT025 BKN040 BKN070 FM052200 19008KT P6SM
                       SCT040 SCT080 FM060300 17005KT P6SM SCT040
                       BKN070=
201009042327 TAF KBLI 042327Z 0500/0524 17008KT P6SM FEW050 FM050900 17005KT
                       P6SM BKN020 OVC035 FM051800 18008KT P6SM
                       BKN040 BKN070 FM052200 19008KT P6SM SCT040
                       SCT080=
201009041735 TAF KBLI 041735Z 0418/0518 17006KT P6SM BKN025 OVC060
                      TEMPO 0418/0420 SCT025 BKN060 FM042000 18008KT
                       P6SM SCT035 BKN060 FM050800 17005KT P6SM
                       BKN020 OVC035=
201009041127 TAF KBLI 041127Z 0412/0512 21005KT P6SM SKC FM041300 18008KT P6SM
                       SCT012
                      TEMPO 0414/0418 BKN012 FM042000 18010KT P6SM
                       BKN035 BKN050=
201009040525 TAF KBLI 040525Z 0406/0506 20006KT P6SM SCT250 FM041300 18008KT
                       P6SM OVC012 FM042000 18010KT P6SM BKN035
                       BKN050=
201009040145 KBLI 040145Z 0402/0424 17010G17KT P6SM SCT250 FM040400 18008KT
                       P6SM SCT250 FM041100 18008KT P6SM OVC015
                       FM042000 18010KT P6SM SCT020 BKN080=
201009032323 TAF KBLI 032323Z 0400/0424 20006KT P6SM SCT250 FM040400 18008KT
                       P6SM SCT250 FM041100 18008KT P6SM OVC015
                       FM042000 18010KT P6SM SCT020 BKN080=
201009031728 TAF KBLI 031728Z 0318/0418 VRB03KT P6SM FEW250 FM032000 26005KT
                       P6SM FEW250 FM040400 21008KT P6SM SCT250
                       FM041200 18010KT P6SM BKN015=
201009031321 KBLI 031321Z 0313/0412 00000KT 3SM BCFG FEW008 SCT250
                      TEMPO 0313/0315 3/4SM BCFG BKN008 FM031600
                       VRB03KT P6SM FEW250 FM032000 26005KT P6SM
                       SKC FM040400 21008KT P6SM FEW250=
201009031136 TAF KBLI 031136Z 0312/0412 00000KT 6SM BR SCT250 FM031400 VRB03KT
                       P6SM FEW250 FM032000 26005KT P6SM SKC FM040400
                       21008KT P6SM FEW250=
201009030522 TAF KBLI 030522Z 0306/0406 00000KT P6SM BKN250 FM031000 00000KT
                       P6SM BCFG SCT250 FM031500 VRB03KT P6SM SCT250
                       FM031900 19005KT P6SM SCT250 FM040400 21008KT
                       P6SM FEW250=
201009022320 TAF KBLI 022320Z 0300/0324 34007KT P6SM BKN250 FM030300 VRB03KT
                       P6SM BKN250 FM031000 00000KT P6SM BCFG SCT250
                       FM031500 VRB03KT P6SM SCT250 FM031800 19005KT
                       P6SM SCT250=
201009021720 TAF KBLI 021720Z 0218/0318 02008KT P6SM BKN250 FM022200 31008KT
                       P6SM BKN250 FM030300 VRB03KT P6SM BKN250
                       FM030800 00000KT P6SM BCFG SCT250
                      TEMPO 0308/0312 3SM BR SCT001 FM031500 VRB03KT
                       P6SM SCT250=
201009021129 TAF KBLI 021129Z 0212/0312 00000KT P6SM SKC
                      TEMPO 0212/0215 2SM BCFG SCT002 FM021600
                       VRB03KT P6SM SKC FM022200 31005KT P6SM SKC
                       FM030200 VRB04KT P6SM FEW250=
201009020802 KBLI 020802Z 0208/0306 00000KT P6SM SKC
                      TEMPO 0208/0210 3SM BR FM021000 00000KT 3SM
                       BCFG SKC
                      TEMPO 0211/0215 1SM BCFG BKN001 FM021600
                       VRB03KT P6SM SKC FM022200 31005KT P6SM SKC=
201009020522 TAF KBLI 020522Z 0206/0306 00000KT P6SM SKC FM020900 00000KT P6SM
                       BCFG SKC
                      TEMPO 0211/0215 1SM BCFG BKN001 FM021600
                       VRB03KT P6SM SKC FM022200 31005KT P6SM SKC=
201009012320 TAF KBLI 012320Z 0200/0224 18004KT P6SM SKC FM020500 00000KT P6SM
                       SKC FM020800 00000KT P6SM BCFG SKC
                      TEMPO 0211/0215 1SM BCFG BKN001 FM021600
                       VRB03KT P6SM SKC=
201009011733 TAF KBLI 011733Z 0118/0218 18005KT P6SM SCT030 SCT060
                      TEMPO 0118/0120 BKN030 BKN060 FM012000 20006KT
                       P6SM SCT040 FM012200 20006KT P6SM SCT250
                       FM020500 18002KT P6SM SKC=
201009011645 KBLI 011645Z 0117/0212 18005KT P6SM SCT030 BKN060
                      TEMPO 0117/0119 BKN030 BKN060 FM012000 20006KT
                       P6SM SCT035 BKN080 FM012200 20006KT P6SM
                       SCT250 FM020500 18006KT P6SM SCT250=
201009011131 TAF KBLI 011131Z 0112/0212 17004KT P6SM FEW018 OVC030
                      TEMPO 0112/0116 BKN018 OVC030 FM011700 18004KT
                       P6SM BKN030 OVC060 FM012000 18006KT P6SM
                       SCT030 BKN060 FM020500 18006KT P6SM SCT060=
201009010811 KBLI 010811Z 0108/0206 16008KT P6SM SCT020 OVC100
                      TEMPO 0108/0112 BKN020 OVC060 FM011200 18006KT
                       P6SM SCT008 OVC020 FM011700 18004KT P6SM
                       BKN020 OVC040 FM012000 18006KT P6SM SCT025
                       BKN045 FM020500 18006KT P6SM SCT050=
201009010525 TAF KBLI 010525Z 0106/0206 17010G16KT 6SM BR OVC012 FM010800 17008KT
                       P6SM BKN015 OVC025 FM011200 18006KT P6SM
                       OVC008 FM011700 18004KT P6SM BKN020 OVC040
                       FM012000 18006KT P6SM SCT025 BKN045 FM020500
                       18006KT P6SM SCT050=