##########################################################
# Query made at 02/16/2025 19:28:34 UTC
# Time interval: from 10/01/2010 00:00  to 10/31/2010 23:59  UTC
##########################################################

##########################################################
# KBLI, Bellingham, Bellingham International Airport (United States)
# WMO index: -----. WIGOS ID: Unknown
# Latitude 48-47-58N. Longitude 122-32-21W. Altitude 48 m.
##########################################################

###################################
#  METAR/SPECI from KBLI
###################################
201010312353 METAR KBLI 312353Z 13006KT 10SM CLR 12/05 A3005 RMK AO2 SLP183 60000 T01170050 10128 20100 50001=
201010312253 METAR KBLI 312253Z 13005KT 10SM FEW037 SCT070 12/06 A3005 RMK AO2 SLP184 T01170061=
201010312153 METAR KBLI 312153Z 15004KT 10SM SCT028 SCT034 BKN075 12/06 A3005 RMK AO2 SLP184 T01170056=
201010312053 METAR KBLI 312053Z 12005KT 10SM BKN050 BKN065 OVC080 11/05 A3005 RMK AO2 SLP182 60000 T01110050 50009=
201010311953 METAR KBLI 311953Z 17008KT 10SM OVC065 11/07 A3005 RMK AO2 RAB1855E04 SLP183 P0000 T01110072=
201010311853 METAR KBLI 311853Z 16010KT 10SM SCT048 BKN065 OVC075 12/08 A3004 RMK AO2 SLP179 T01170083=
201010311753 METAR KBLI 311753Z 16010G14KT 10SM OVC065 11/08 A3002 RMK AO2 SLP172 60000 T01060078 10106 20094 51033=
201010311653 METAR KBLI 311653Z 16010KT 10SM FEW070 SCT090 10/07 A2999 RMK AO2 SLP162 T01000072=
201010311553 METAR KBLI 311553Z 16007KT 10SM BKN095 10/07 A2996 RMK AO2 SLP152 T01000072=
201010311453 METAR KBLI 311453Z 16006KT 10SM FEW025 OVC090 09/07 A2992 RMK AO2 SLP139 60000 T00940072 51036=
201010311353 METAR KBLI 311353Z 17003KT 10SM BKN080 OVC090 10/08 A2989 RMK AO2 SLP130 T01000078=
201010311253 METAR KBLI 311253Z AUTO 16007KT 10SM BKN065 OVC080 10/08 A2985 RMK AO2 RAB34E44 SLP116 P0000 T01000078=
201010311153 METAR KBLI 311153Z AUTO 18009G14KT 10SM SCT055 BKN080 10/08 A2981 RMK AO2 SLP103 60030 70030 T01000078 10144 20100 51025=
201010311053 METAR KBLI 311053Z AUTO 17007KT 10SM FEW003 BKN050 OVC060 10/08 A2979 RMK AO2 RAE46 SLP095 P0004 T01000083=
201010310953 METAR KBLI 310953Z AUTO 16006KT 7SM -RA SCT032 BKN045 OVC055 10/08 A2977 RMK AO2 SLP088 P0011 T01000083=
201010310933 SPECI KBLI 310933Z AUTO 20006KT 5SM RA BR SCT022 BKN030 OVC042 10/08 A2976 RMK AO2 P0008=
201010310933 SPECI KBLI 310933Z AUTO 20006KT 5SM RA BR SCT022 BKN030 OVC042 10/08 A2976 RMK AO2 P0008=
201010310853 METAR KBLI 310853Z AUTO 19004KT 5SM -RA BR FEW009 OVC016 11/09 A2974 RMK AO2 SLP077 P0014 60015 T01060089 53020=
201010310804 SPECI KBLI 310804Z AUTO 18008G20KT 7SM RA FEW023 BKN028 OVC042 12/09 A2972 RMK AO2 P0002=
201010310804 SPECI KBLI 310804Z AUTO 18008G20KT 7SM RA FEW023 BKN028 OVC042 12/09 A2972 RMK AO2 P0002=
201010310753 METAR KBLI 310753Z AUTO 16016G24KT 10SM -RA SCT030 OVC037 13/08 A2970 RMK AO2 PK WND 17030/0735 RAB23 SLP064 P0001 T01280083 401500033=
201010310653 METAR KBLI 310653Z AUTO 15015G29KT 10SM BKN032 OVC060 14/07 A2969 RMK AO2 PK WND 13030/0620 SLP059 T01440067=
201010310553 METAR KBLI 310553Z AUTO 14013G22KT 10SM BKN036 BKN043 OVC050 14/06 A2968 RMK AO2 PK WND 13027/0513 SLP057 60000 T01440061 10144 20117 55004=
201010310453 METAR KBLI 310453Z 14016G23KT 10SM BKN090 14/07 A2967 RMK AO2 PK WND 13029/0423 SLP053 T01390067=
201010310353 METAR KBLI 310353Z 14015G25KT 10SM FEW050 OVC070 13/07 A2967 RMK AO2 PK WND 14029/0311 RAB11E53 SLP055 P0000 T01330072=
201010310343 SPECI KBLI 310343Z 14014G23KT 10SM -RA FEW050 OVC065 13/07 A2968 RMK AO2 PK WND 14029/0311 RAB11 P0000=
201010310343 SPECI KBLI 310343Z 14014G23KT 10SM -RA FEW050 OVC065 13/07 A2968 RMK AO2 PK WND 14029/0311 RAB11 P0000=
201010310253 METAR KBLI 310253Z 14016G22KT 10SM BKN028 OVC080 13/07 A2969 RMK AO2 SLP062 T01330072 55009=
201010310229 SPECI KBLI 310229Z 14013G19KT 10SM BKN028 OVC080 13/07 A2970 RMK AO2=
201010310229 SPECI KBLI 310229Z 14013G19KT 10SM BKN028 OVC080 13/07 A2970 RMK AO2=
201010310153 METAR KBLI 310153Z 13013G19KT 10SM BKN030 OVC080 13/07 A2969 RMK AO2 SLP061 T01330072=
201010310127 SPECI KBLI 310127Z 14017G25KT 10SM OVC028 13/07 A2969 RMK AO2=
201010310127 SPECI KBLI 310127Z 14017G25KT 10SM OVC028 13/07 A2969 RMK AO2=
201010310053 METAR KBLI 310053Z 14013G24KT 10SM OVC030 14/07 A2970 RMK AO2 SLP065 T01390067=
201010302353 METAR KBLI 302353Z 19006KT 10SM OVC038 12/07 A2972 RMK AO2 SLP072 T01170067 10150 20111 56006=
201010302253 METAR KBLI 302253Z 16008KT 10SM OVC034 14/06 A2972 RMK AO2 SLP072 T01390056=
201010302153 METAR KBLI 302153Z 13007KT 10SM OVC036 14/06 A2973 RMK AO2 SLP072 T01440056=
201010302053 METAR KBLI 302053Z 15011G15KT 10SM SCT041 SCT110 15/05 A2974 RMK AO2 SLP077 T01500050 58008=
201010301953 METAR KBLI 301953Z 15004KT 10SM BKN055 12/04 A2976 RMK AO2 SLP085 T01220044=
201010301853 METAR KBLI 301853Z 00000KT 10SM OVC055 12/06 A2976 RMK AO2 SLP087 T01220056=
201010301753 METAR KBLI 301753Z 00000KT 10SM BKN055 11/06 A2976 RMK AO2 SLP086 T01110056 10111 20033 56004=
201010301653 METAR KBLI 301653Z 00000KT 10SM CLR 09/05 A2976 RMK AO2 SLP086 T00940050=
201010301553 METAR KBLI 301553Z 00000KT 10SM SCT055 07/05 A2977 RMK AO2 SLP089 T00720050=
201010301453 METAR KBLI 301453Z 00000KT 10SM BKN055 04/03 A2977 RMK AO2 SLP090 T00440033 58011=
201010301353 METAR KBLI 301353Z 00000KT 10SM BKN055 05/04 A2979 RMK AO2 SLP095 T00500039=
201010301253 METAR KBLI 301253Z AUTO 00000KT 10SM OVC060 06/04 A2980 RMK AO2 SLP100 T00560039=
201010301153 METAR KBLI 301153Z AUTO 00000KT 10SM CLR 04/03 A2981 RMK AO2 SLP102 60001 70001 T00440028 10072 20044 58018=
201010301053 METAR KBLI 301053Z AUTO 02004KT 10SM FEW100 06/04 A2983 RMK AO2 SLP109 T00560039=
201010300953 METAR KBLI 300953Z AUTO 02006KT 10SM CLR 06/04 A2985 RMK AO2 SLP115 P0001 T00610039=
201010300853 METAR KBLI 300853Z AUTO 00000KT 10SM CLR 07/04 A2986 RMK AO2 SLP119 T00670044 58019=
201010300753 METAR KBLI 300753Z AUTO 36004KT 10SM CLR 06/04 A2988 RMK AO2 SLP125 T00610044 401440056=
201010300653 METAR KBLI 300653Z AUTO 00000KT 10SM CLR 07/05 A2990 RMK AO2 SLP132 T00670050=
201010300553 METAR KBLI 300553Z AUTO 00000KT 8SM CLR 07/06 A2992 RMK AO2 SLP139 T00670056 10133 20067 57012=
201010300453 METAR KBLI 300453Z 00000KT 6SM BR CLR 08/07 A2993 RMK AO2 SLP142 T00830067=
201010300353 METAR KBLI 300353Z 00000KT 6SM BR CLR 08/06 A2994 RMK AO2 SLP147 T00780061=
201010300334 SPECI KBLI 300334Z 00000KT 6SM BR CLR 08/07 A2995 RMK AO2=
201010300334 SPECI KBLI 300334Z 00000KT 6SM BR CLR 08/07 A2995 RMK AO2=
201010300329 SPECI KBLI 300329Z 00000KT 1 3/4SM BR CLR 08/07 A2995 RMK AO2 VIS 1/2V5=
201010300329 SPECI KBLI 300329Z 00000KT 1 3/4SM BR CLR 08/07 A2995 RMK AO2 VIS 1/2V5=
201010300253 METAR KBLI 300253Z 00000KT 9SM CLR 09/08 A2995 RMK AO2 SLP150 T00940078 56015=
201010300153 METAR KBLI 300153Z 36003KT 10SM SCT055 10/08 A2996 RMK AO2 SLP154 T01000083=
201010300053 METAR KBLI 300053Z 00000KT 10SM CLR 11/08 A2998 RMK AO2 SLP160 T01060078=
201010292353 METAR KBLI 292353Z 00000KT 10SM CLR 13/08 A3000 RMK AO2 SLP165 T01330078 10144 20117 58013=
201010292253 METAR KBLI 292253Z 16004KT 10SM BKN075 14/08 A3002 RMK AO2 SLP173 T01390078=
201010292153 METAR KBLI 292153Z 17009KT 10SM BKN070 14/08 A3003 RMK AO2 SLP175 T01390078=
201010292053 METAR KBLI 292053Z 18009KT 10SM FEW060 13/08 A3003 RMK AO2 SLP177 T01330078 58008=
201010291953 METAR KBLI 291953Z 18009KT 10SM FEW055 13/08 A3005 RMK AO2 SLP184 T01330083=
201010291853 METAR KBLI 291853Z 16009KT 10SM FEW070 13/08 A3006 RMK AO2 SLP184 T01330083=
201010291753 METAR KBLI 291753Z 16008KT 10SM FEW017 BKN060 12/08 A3006 RMK AO2 SLP186 60000 T01170083 10117 20089 50012=
201010291704 SPECI KBLI 291704Z 17006KT 10SM SCT017 11/08 A3006 RMK AO2=
201010291704 SPECI KBLI 291704Z 17006KT 10SM SCT017 11/08 A3006 RMK AO2=
201010291653 METAR KBLI 291653Z 17006KT 10SM SCT017 BKN024 11/08 A3006 RMK AO2 SLP186 T01110083=
201010291553 METAR KBLI 291553Z 17006KT 10SM OVC019 11/08 A3005 RMK AO2 SLP181 T01110078=
201010291507 SPECI KBLI 291507Z 16004KT 10SM OVC017 11/08 A3003 RMK AO2=
201010291507 SPECI KBLI 291507Z 16004KT 10SM OVC017 11/08 A3003 RMK AO2=
201010291453 METAR KBLI 291453Z 17005KT 10SM OVC014 10/08 A3002 RMK AO2 SLP174 60000 T01000083 58000=
201010291353 METAR KBLI 291353Z AUTO 00000KT 10SM OVC014 09/08 A3002 RMK AO2 SLP174 T00890078=
201010291345 SPECI KBLI 291345Z AUTO 00000KT 10SM OVC014 09/08 A3002 RMK AO2=
201010291345 SPECI KBLI 291345Z AUTO 00000KT 10SM OVC014 09/08 A3002 RMK AO2=
201010291253 METAR KBLI 291253Z AUTO 00000KT 10SM OVC018 09/08 A3003 RMK AO2 RAB29E44 SLP177 P0000 T00940078=
201010291153 METAR KBLI 291153Z AUTO 00000KT 10SM OVC022 09/08 A3003 RMK AO2 SLP174 60001 70005 T00890078 10094 20089 50006=
201010291053 METAR KBLI 291053Z AUTO 00000KT 10SM OVC022 09/08 A3003 RMK AO2 SLP175 T00940078=
201010290953 METAR KBLI 290953Z AUTO 00000KT 10SM OVC028 09/08 A3002 RMK AO2 SLP173 T00890078=
201010290853 METAR KBLI 290853Z AUTO 35003KT 10SM BKN034 OVC065 09/07 A3001 RMK AO2 SLP168 60001 T00890072 51002=
201010290753 METAR KBLI 290753Z AUTO 35004KT 10SM OVC034 09/08 A3001 RMK AO2 RAB14E37 SLP169 P0001 T00890078 401170089=
201010290653 METAR KBLI 290653Z AUTO 00000KT 10SM SCT036 OVC050 09/07 A3001 RMK AO2 SLP171 T00940072=
201010290553 METAR KBLI 290553Z AUTO 35004KT 10SM OVC049 09/07 A3000 RMK AO2 SLP166 60000 T00940072 10111 20094 53002=
201010290453 METAR KBLI 290453Z 35005KT 10SM BKN037 OVC060 09/08 A3000 RMK AO2 SLP165 T00940078=
201010290353 METAR KBLI 290353Z 00000KT 10SM BKN032 OVC055 09/08 A3000 RMK AO2 RAB16E26 SLP165 P0000 T00940078=
201010290253 METAR KBLI 290253Z 33003KT 10SM OVC030 10/08 A3000 RMK AO2 RAB03E27 SLP164 P0000 60000 T01000078 53010=
201010290153 METAR KBLI 290153Z 00000KT 10SM BKN034 OVC043 10/07 A2998 RMK AO2 SLP159 T01000072=
201010290053 METAR KBLI 290053Z 00000KT 10SM OVC034 11/08 A2997 RMK AO2 SLP156 T01060078=
201010282353 METAR KBLI 282353Z 00000KT 10SM OVC034 11/08 A2996 RMK AO2 SLP153 60000 T01110083 10111 20100 50001=
201010282253 METAR KBLI 282253Z 00000KT 10SM OVC034 11/08 A2997 RMK AO2 SLP156 T01110078=
201010282153 METAR KBLI 282153Z 35006KT 10SM OVC044 11/08 A2997 RMK AO2 SLP154 T01060078=
201010282053 METAR KBLI 282053Z 02005KT 10SM OVC042 11/08 A2996 RMK AO2 SLP152 60000 T01060078 51002=
201010281953 METAR KBLI 281953Z 03007KT 10SM OVC042 10/07 A2996 RMK AO2 SLP152 T01000072=
201010281853 METAR KBLI 281853Z 01007KT 10SM OVC044 10/07 A2996 RMK AO2 RAE44 SLP153 P0000 T01000072=
201010281753 METAR KBLI 281753Z 04003KT 10SM -RA OVC044 10/07 A2995 RMK AO2 SLP150 P0002 60004 T01000072 10106 20100 51019=
201010281653 METAR KBLI 281653Z 02004KT 10SM -RA OVC055 10/07 A2994 RMK AO2 SLP145 P0002 T01000067=
201010281553 METAR KBLI 281553Z 05006KT 10SM -RA OVC060 11/06 A2992 RMK AO2 SLP139 P0000 T01060056=
201010281453 METAR KBLI 281453Z 02005KT 10SM -RA OVC060 10/05 A2990 RMK AO2 SLP132 P0000 60000 T01000050 58002=
201010281353 METAR KBLI 281353Z 02007KT 10SM -RA BKN060 OVC080 11/04 A2991 RMK AO2 RAB52 SLP136 P0000 T01060044=
201010281253 METAR KBLI 281253Z AUTO 02007KT 10SM BKN075 OVC110 10/04 A2990 RMK AO2 RAE02 SLP133 P0000 T01000044=
201010281153 METAR KBLI 281153Z AUTO 01005KT 10SM -RA BKN055 OVC100 10/04 A2991 RMK AO2 RAB11 SLP134 P0001 60001 70001 T01000044 10117 20094 56010=
201010281053 METAR KBLI 281053Z AUTO 03005KT 10SM OVC080 11/03 A2992 RMK AO2 SLP138 T01060033=
201010280953 METAR KBLI 280953Z AUTO 02005KT 10SM SCT095 10/04 A2992 RMK AO2 SLP140 T01000039=
201010280853 METAR KBLI 280853Z AUTO 36004KT 10SM OVC100 09/04 A2994 RMK AO2 SLP145 T00940044 56010=
201010280753 METAR KBLI 280753Z AUTO 02005KT 10SM BKN110 11/04 A2995 RMK AO2 SLP147 T01060039 401440078=
201010280653 METAR KBLI 280653Z AUTO 02004KT 10SM BKN120 09/04 A2996 RMK AO2 SLP152 T00940044=
201010280553 METAR KBLI 280553Z AUTO 02003KT 10SM OVC110 09/05 A2997 RMK AO2 SLP155 T00940050 10128 20083 58002=
201010280453 METAR KBLI 280453Z 03003KT 10SM FEW110 10/05 A2998 RMK AO2 SLP159 T01000050=
201010280353 METAR KBLI 280353Z 02004KT 10SM CLR 08/06 A2998 RMK AO2 SLP160 T00830056=
201010280253 METAR KBLI 280253Z 00000KT 10SM CLR 11/05 A2998 RMK AO2 SLP159 T01060050 55006=
201010280153 METAR KBLI 280153Z 03003KT 10SM CLR 11/05 A2997 RMK AO2 SLP157 T01060050=
201010280053 METAR KBLI 280053Z 01005KT 10SM CLR 11/05 A2998 RMK AO2 SLP159 T01110050=
201010272353 METAR KBLI 272353Z 02005KT 10SM FEW095 13/06 A2999 RMK AO2 SLP164 T01280056 10144 20100 56020=
201010272253 METAR KBLI 272253Z 03009KT 10SM CLR 14/06 A3000 RMK AO2 SLP166 T01390061=
201010272153 METAR KBLI 272153Z 01009KT 10SM CLR 14/06 A3002 RMK AO2 SLP171 T01390061=
201010272053 METAR KBLI 272053Z 03010KT 10SM CLR 14/06 A3005 RMK AO2 SLP184 T01390056 56027=
201010271953 METAR KBLI 271953Z 01010KT 10SM CLR 14/07 A3007 RMK AO2 SLP191 T01390067=
201010271853 METAR KBLI 271853Z 35005KT 10SM CLR 13/07 A3011 RMK AO2 SLP203 T01280072=
201010271753 METAR KBLI 271753Z 00000KT 10SM BKN035 OVC048 10/07 A3013 RMK AO2 SLP212 60000 T01000067 10100 20078 58003=
201010271653 METAR KBLI 271653Z 02004KT 10SM OVC050 09/07 A3015 RMK AO2 SLP217 T00890067=
201010271553 METAR KBLI 271553Z 01003KT 10SM OVC090 08/06 A3014 RMK AO2 SLP215 T00780061=
201010271453 METAR KBLI 271453Z 03003KT 10SM FEW019 BKN060 OVC090 08/06 A3014 RMK AO2 RAB07E31 SLP215 P0000 60000 T00780061 50005=
201010271353 METAR KBLI 271353Z 00000KT 10SM BKN017 BKN031 OVC080 08/07 A3015 RMK AO2 SLP218 T00780067=
201010271253 METAR KBLI 271253Z AUTO 00000KT 10SM BKN019 BKN026 OVC055 08/06 A3014 RMK AO2 SLP215 T00780061=
201010271246 SPECI KBLI 271246Z AUTO 00000KT 10SM BKN019 BKN026 OVC055 08/07 A3014 RMK AO2=
201010271246 SPECI KBLI 271246Z AUTO 00000KT 10SM BKN019 BKN026 OVC055 08/07 A3014 RMK AO2=
201010271153 METAR KBLI 271153Z AUTO 02003KT 10SM SCT026 BKN038 OVC060 08/06 A3013 RMK AO2 SLP209 60001 70001 T00780061 10089 20078 50001=
201010271053 METAR KBLI 271053Z AUTO 00000KT 10SM BKN020 OVC025 08/07 A3013 RMK AO2 SLP211 T00780067=
201010271010 SPECI KBLI 271010Z AUTO 00000KT 10SM SCT020 BKN025 OVC065 08/06 A3013 RMK AO2=
201010271010 SPECI KBLI 271010Z AUTO 00000KT 10SM SCT020 BKN025 OVC065 08/06 A3013 RMK AO2=
201010270953 METAR KBLI 270953Z AUTO 00000KT 10SM SCT023 OVC065 08/06 A3012 RMK AO2 RAE22 SLP209 P0000 T00780061=
201010270950 SPECI KBLI 270950Z AUTO 00000KT 10SM SCT023 OVC065 08/06 A3012 RMK AO2 RAE22 P0000=
201010270950 SPECI KBLI 270950Z AUTO 00000KT 10SM SCT023 OVC065 08/06 A3012 RMK AO2 RAE22 P0000=
201010270940 SPECI KBLI 270940Z AUTO 00000KT 10SM BKN023 OVC065 08/06 A3012 RMK AO2 RAE22 P0000=
201010270940 SPECI KBLI 270940Z AUTO 00000KT 10SM BKN023 OVC065 08/06 A3012 RMK AO2 RAE22 P0000=
201010270853 METAR KBLI 270853Z AUTO 00000KT 10SM -RA SCT020 OVC047 08/06 A3011 RMK AO2 RAB40 SLP205 P0001 60001 T00780061 53008=
201010270753 METAR KBLI 270753Z AUTO 00000KT 10SM BKN022 OVC044 08/06 A3010 RMK AO2 SLP201 T00830061 401000083=
201010270751 SPECI KBLI 270751Z AUTO 00000KT 10SM BKN022 OVC044 08/06 A3010 RMK AO2 401000083=
201010270751 SPECI KBLI 270751Z AUTO 00000KT 10SM BKN022 OVC044 08/06 A3010 RMK AO2 401000083=
201010270730 SPECI KBLI 270730Z AUTO 00000KT 10SM SCT022 OVC044 08/06 A3010 RMK AO2=
201010270730 SPECI KBLI 270730Z AUTO 00000KT 10SM SCT022 OVC044 08/06 A3010 RMK AO2=
201010270653 METAR KBLI 270653Z AUTO 14004KT 10SM BKN020 OVC044 09/06 A3009 RMK AO2 SLP197 T00890061=
201010270553 METAR KBLI 270553Z AUTO 16004KT 10SM OVC046 09/06 A3007 RMK AO2 SLP191 T00890056 10094 20089 53018=
201010270453 METAR KBLI 270453Z 18005KT 10SM OVC044 09/06 A3005 RMK AO2 SLP182 T00890056=
201010270353 METAR KBLI 270353Z 00000KT 10SM FEW034 OVC042 09/06 A3003 RMK AO2 SLP179 T00890056=
201010270253 METAR KBLI 270253Z 16006KT 10SM OVC042 09/05 A3002 RMK AO2 SLP173 T00890050 51015=
201010270153 METAR KBLI 270153Z 18008KT 10SM SCT028 OVC042 09/06 A3000 RMK AO2 SLP168 T00890056=
201010270053 METAR KBLI 270053Z 17008KT 10SM OVC035 09/05 A2999 RMK AO2 SLP162 T00940050=
201010262353 METAR KBLI 262353Z 18007KT 10SM SCT022 OVC042 09/05 A2997 RMK AO2 SLP157 T00940050 10100 20094 51014=
201010262351 SPECI KBLI 262351Z 18007KT 10SM SCT022 OVC042 09/05 A2997 RMK AO2=
201010262351 SPECI KBLI 262351Z 18007KT 10SM SCT022 OVC042 09/05 A2997 RMK AO2=
201010262253 METAR KBLI 262253Z 18006G14KT 10SM BKN025 OVC044 10/05 A2995 RMK AO2 SLP150 T01000050=
201010262153 METAR KBLI 262153Z 16007KT 10SM OVC023 10/05 A2993 RMK AO2 SLP144 T01000050=
201010262053 METAR KBLI 262053Z 13009KT 10SM BKN027 OVC041 10/06 A2991 RMK AO2 SLP136 T01000056 53018=
201010262045 SPECI KBLI 262045Z 14011KT 10SM SCT025 OVC041 10/06 A2991 RMK AO2=
201010262045 SPECI KBLI 262045Z 14011KT 10SM SCT025 OVC041 10/06 A2991 RMK AO2=
201010262005 SPECI KBLI 262005Z 13010G17KT 10SM BKN027 OVC038 10/06 A2989 RMK AO2=
201010262005 SPECI KBLI 262005Z 13010G17KT 10SM BKN027 OVC038 10/06 A2989 RMK AO2=
201010261953 METAR KBLI 261953Z 13011KT 10SM FEW022 SCT027 OVC038 10/05 A2989 RMK AO2 SLP128 T01000050=
201010261853 METAR KBLI 261853Z 13011G20KT 10SM BKN025 OVC030 10/05 A2987 RMK AO2 SLP123 T01000050=
201010261753 METAR KBLI 261753Z 14011KT 10SM OVC025 09/05 A2985 RMK AO2 SLP118 T00940050 10094 20083 51025=
201010261653 METAR KBLI 261653Z 14015G25KT 10SM OVC025 09/04 A2983 RMK AO2 SLP109 T00940044=
201010261553 METAR KBLI 261553Z 15010G18KT 10SM OVC023 09/04 A2981 RMK AO2 SLP101 T00940044=
201010261453 METAR KBLI 261453Z 14017G22KT 10SM OVC023 09/04 A2978 RMK AO2 SLP092 T00890044 53008=
201010261353 METAR KBLI 261353Z AUTO 15015G21KT 10SM BKN023 OVC085 09/04 A2977 RMK AO2 SLP089 T00890044=
201010261307 SPECI KBLI 261307Z AUTO 15012KT 10SM BKN023 BKN090 OVC110 09/04 A2977 RMK AO2=
201010261307 SPECI KBLI 261307Z AUTO 15012KT 10SM BKN023 BKN090 OVC110 09/04 A2977 RMK AO2=
201010261253 METAR KBLI 261253Z AUTO 15015KT 10SM SCT023 SCT090 BKN110 09/04 A2976 RMK AO2 SLP084 T00890044=
201010261242 SPECI KBLI 261242Z AUTO 15013KT 10SM SCT023 SCT090 BKN110 09/04 A2976 RMK AO2=
201010261242 SPECI KBLI 261242Z AUTO 15013KT 10SM SCT023 SCT090 BKN110 09/04 A2976 RMK AO2=
201010261153 METAR KBLI 261153Z AUTO 15013KT 10SM BKN021 OVC120 08/04 A2975 RMK AO2 SLP084 60000 70027 T00830044 10094 20083 51005=
201010261136 SPECI KBLI 261136Z AUTO 16013G17KT 10SM BKN021 BKN095 OVC120 08/04 A2976 RMK AO2=
201010261136 SPECI KBLI 261136Z AUTO 16013G17KT 10SM BKN021 BKN095 OVC120 08/04 A2976 RMK AO2=
201010261053 METAR KBLI 261053Z AUTO 15012G19KT 10SM FEW019 OVC100 09/04 A2975 RMK AO2 SLP081 T00890044=
201010260953 METAR KBLI 260953Z AUTO 15012G20KT 10SM FEW019 BKN060 OVC110 09/04 A2975 RMK AO2 RAE14 SLP080 P0000 T00890044=
201010260853 METAR KBLI 260853Z AUTO 15013G22KT 10SM -RA FEW041 OVC055 09/04 A2974 RMK AO2 RAB37 SLP077 P0000 60000 T00890044 53012=
201010260753 METAR KBLI 260753Z AUTO 15015G25KT 10SM SCT034 OVC060 09/05 A2972 RMK AO2 PK WND 16026/0718 SLP072 T00940050 401280089=
201010260653 METAR KBLI 260653Z AUTO 15014G20KT 10SM FEW032 SCT080 SCT090 09/05 A2972 RMK AO2 SLP070 T00890050=
201010260553 METAR KBLI 260553Z AUTO 15014G23KT 10SM BKN060 OVC075 09/05 A2971 RMK AO2 SLP066 60002 T00940050 10106 20094 53009=
201010260453 METAR KBLI 260453Z 15017G23KT 10SM BKN090 09/05 A2969 RMK AO2 SLP062 T00940050=
201010260353 METAR KBLI 260353Z 15014G21KT 10SM BKN041 OVC049 10/06 A2968 RMK AO2 SLP059 T01000061=
201010260253 METAR KBLI 260253Z 16012G18KT 10SM SCT043 OVC065 10/07 A2968 RMK AO2 SLP057 60002 T01000067 53012=
201010260153 METAR KBLI 260153Z 16009KT 10SM SCT039 BKN055 OVC080 10/07 A2967 RMK AO2 RAE30 SLP053 P0000 T01000067=
201010260053 METAR KBLI 260053Z 16009KT 10SM -RA FEW025 OVC041 10/08 A2965 RMK AO2 SLP048 P0002 T01000078=
201010260012 SPECI KBLI 260012Z 16009KT 10SM -RA FEW025 OVC041 10/08 A2965 RMK AO2 P0001=
201010260012 SPECI KBLI 260012Z 16009KT 10SM -RA FEW025 OVC041 10/08 A2965 RMK AO2 P0001=
201010252353 METAR KBLI 252353Z 16011G19KT 10SM -RA SCT016 BKN025 OVC041 10/08 A2964 RMK AO2 SLP045 VIS LWR NE-S 2 P0008 60010 T01000083 10128 20100 53016=
201010252322 SPECI KBLI 252322Z 17014G21KT 5SM RA BR FEW012 BKN025 OVC036 11/08 A2963 RMK AO2 VIS LWR NE-S 2 P0006=
201010252322 SPECI KBLI 252322Z 17014G21KT 5SM RA BR FEW012 BKN025 OVC036 11/08 A2963 RMK AO2 VIS LWR NE-S 2 P0006=
201010252307 SPECI KBLI 252307Z 17012G18KT 5SM RA BR BKN025 BKN036 OVC043 11/08 A2962 RMK AO2 CIG VIS LWR SE-SW P0003=
201010252307 SPECI KBLI 252307Z 17012G18KT 5SM RA BR BKN025 BKN036 OVC043 11/08 A2962 RMK AO2 CIG VIS LWR SE-SW P0003=
201010252300 SPECI KBLI 252300Z 16013G23KT 10SM -RA FEW025 BKN036 OVC043 11/08 A2962 RMK AO2 P0001=
201010252300 SPECI KBLI 252300Z 16013G23KT 10SM -RA FEW025 BKN036 OVC043 11/08 A2962 RMK AO2 P0001=
201010252253 METAR KBLI 252253Z 15014G22KT 9SM -RA BKN028 BKN034 OVC043 11/07 A2961 RMK AO2 RAB04 SLP035 CIG VIS LWR SE-SW P0001 T01060072=
201010252251 SPECI KBLI 252251Z 15015G25KT 9SM -RA BKN028 BKN034 OVC043 11/07 A2961 RMK AO2 RAB04 CIG VIS LWR SE-SW P0001=
201010252251 SPECI KBLI 252251Z 15015G25KT 9SM -RA BKN028 BKN034 OVC043 11/07 A2961 RMK AO2 RAB04 CIG VIS LWR SE-SW P0001=
201010252153 METAR KBLI 252153Z 16015G22KT 10SM SCT028 BKN040 OVC060 12/08 A2960 RMK AO2 RAB27E43 SLP029 P0000 T01170078=
201010252053 METAR KBLI 252053Z 15013G23KT 10SM FEW025 BKN045 OVC085 12/08 A2958 RMK AO2 SLP023 60001 T01220083 50008=
201010251953 METAR KBLI 251953Z 15012G19KT 10SM FEW021 BKN046 BKN060 11/08 A2958 RMK AO2 RAB18E41 SLP023 P0000 T01110083=
201010251853 METAR KBLI 251853Z 15009G17KT 10SM BKN037 OVC045 11/08 A2957 RMK AO2 RAE22 SLP018 P0001 T01110083=
201010251753 METAR KBLI 251753Z 15012KT 10SM -RA FEW039 OVC055 11/08 A2956 RMK AO2 SLP015 P0003 60015 T01060078 10106 20094 53017=
201010251653 METAR KBLI 251653Z 14011G17KT 10SM -RA BKN031 OVC040 10/08 A2954 RMK AO2 SLP009 P0001 T01000078=
201010251553 METAR KBLI 251553Z 15012KT 9SM -RA FEW029 BKN042 OVC050 09/07 A2952 RMK AO2 SLP002 P0004 T00940072=
201010251453 METAR KBLI 251453Z 15015KT 10SM -RA FEW018 OVC050 10/07 A2950 RMK AO2 PK WND 15026/1417 SLP998 P0004 60007 T01000072 51019=
201010251353 METAR KBLI 251353Z 15014G23KT 10SM -RA FEW016 OVC050 10/07 A2949 RMK AO2 SLP994 P0002 T01000072=
201010251253 METAR KBLI 251253Z AUTO 15015G24KT 10SM -RA BKN020 10/07 A2947 RMK AO2 PK WND 15027/1231 SLP986 P0001 T01000072=
201010251153 METAR KBLI 251153Z AUTO 15013G21KT 10SM -RA OVC024 10/07 A2945 RMK AO2 PK WND 14029/1120 RAB1055 SLP978 P0001 60001 70006 T01000067 10111 20100 53003=
201010251053 METAR KBLI 251053Z AUTO 15020G27KT 10SM OVC024 11/06 A2944 RMK AO2 PK WND 15029/1039 RAB28E46 SLP975 P0000 T01060056=
201010250953 METAR KBLI 250953Z AUTO 14018G25KT 10SM OVC024 11/06 A2943 RMK AO2 PK WND 15029/0937 SLP973 T01110056=
201010250853 METAR KBLI 250853Z AUTO 13017G24KT 10SM OVC022 11/06 A2944 RMK AO2 PK WND 13027/0833 SLP975 T01060061 51013=
201010250753 METAR KBLI 250753Z AUTO 13016KT 10SM BKN022 OVC030 10/06 A2943 RMK AO2 SLP974 T01000061 401390100=
201010250722 SPECI KBLI 250722Z AUTO 14015G23KT 10SM SCT021 BKN026 OVC100 11/06 A2943 RMK AO2=
201010250722 SPECI KBLI 250722Z AUTO 14015G23KT 10SM SCT021 BKN026 OVC100 11/06 A2943 RMK AO2=
201010250710 SPECI KBLI 250710Z AUTO 15018G23KT 10SM SCT023 BKN070 OVC095 10/06 A2943 RMK AO2=
201010250710 SPECI KBLI 250710Z AUTO 15018G23KT 10SM SCT023 BKN070 OVC095 10/06 A2943 RMK AO2=
201010250653 METAR KBLI 250653Z AUTO 14015G21KT 10SM BKN021 BKN026 OVC070 11/06 A2942 RMK AO2 SLP968 T01060061=
201010250633 SPECI KBLI 250633Z AUTO 14015G22KT 10SM BKN021 OVC065 10/06 A2942 RMK AO2=
201010250633 SPECI KBLI 250633Z AUTO 14015G22KT 10SM BKN021 OVC065 10/06 A2942 RMK AO2=
201010250553 METAR KBLI 250553Z AUTO 14017G25KT 10SM SCT021 BKN065 OVC085 10/06 A2940 RMK AO2 SLP963 T01000061 10117 20100 51021=
201010250453 METAR KBLI 250453Z 15012G19KT 10SM OVC023 11/06 A2938 RMK AO2 PK WND 14026/0408 SLP956 T01060061=
201010250353 METAR KBLI 250353Z 15017G24KT 10SM OVC022 11/06 A2936 RMK AO2 PK WND 15026/0324 SLP950 T01060061=
201010250253 METAR KBLI 250253Z 14016G24KT 10SM BKN028 BKN034 OVC075 11/06 A2934 RMK AO2 SLP942 T01110056 53009=
201010250153 METAR KBLI 250153Z 14015G25KT 10SM FEW030 SCT038 OVC070 11/05 A2933 RMK AO2 SLP939 T01110050=
201010250053 METAR KBLI 250053Z 14015G24KT 10SM SCT018 SCT065 OVC080 11/06 A2932 RMK AO2 PK WND 14026/0041 SLP935 T01110056=
201010242353 METAR KBLI 242353Z 15012G22KT 10SM FEW025 12/06 A2931 RMK AO2 SLP933 60001 T01170061 10128 20111 53013=
201010242253 METAR KBLI 242253Z 15018G25KT 10SM FEW025 BKN080 12/06 A2930 RMK AO2 SLP928 T01220061=
201010242153 METAR KBLI 242153Z 15012G20KT 10SM SCT021 SCT028 BKN080 12/07 A2928 RMK AO2 SLP923 T01220067=
201010242053 METAR KBLI 242053Z 15015G20KT 10SM FEW029 BKN039 12/07 A2928 RMK AO2 RAB12E44 SLP921 P0001 60001 T01170072 51016=
201010241953 METAR KBLI 241953Z 16015G23KT 10SM FEW025 SCT060 BKN075 12/07 A2927 RMK AO2 PK WND 16030/1916 SLP919 T01170067=
201010241853 METAR KBLI 241853Z 15017G28KT 10SM FEW023 OVC080 12/07 A2925 RMK AO2 PK WND 15031/1834 SLP910 T01170067=
201010241753 METAR KBLI 241753Z 15015G23KT 10SM FEW023 BKN045 OVC085 12/07 A2923 RMK AO2 RAE15 SLP904 P0000 60004 T01170072 10133 20111 56004=
201010241708 SPECI KBLI 241708Z 15015G24KT 10SM -RA FEW023 BKN033 OVC049 11/08 A2922 RMK AO2 P0000=
201010241708 SPECI KBLI 241708Z 15015G24KT 10SM -RA FEW023 BKN033 OVC049 11/08 A2922 RMK AO2 P0000=
201010241653 METAR KBLI 241653Z 15014G24KT 9SM -RA BKN023 BKN028 OVC038 12/08 A2923 RMK AO2 PK WND 15026/1634 RAB32 SLP904 P0001 T01170078=
201010241635 SPECI KBLI 241635Z 16018G26KT 10SM -RA BKN023 BKN038 OVC060 12/08 A2924 RMK AO2 PK WND 15026/1634 RAB32 P0000=
201010241635 SPECI KBLI 241635Z 16018G26KT 10SM -RA BKN023 BKN038 OVC060 12/08 A2924 RMK AO2 PK WND 15026/1634 RAB32 P0000=
201010241553 METAR KBLI 241553Z 15012G19KT 10SM SCT060 BKN110 12/07 A2924 RMK AO2 SLP906 T01220072=
201010241453 METAR KBLI 241453Z 15012G17KT 10SM FEW050 OVC070 12/08 A2924 RMK AO2 RAB1359E11 SLP908 P0000 60003 T01170083 52007=
201010241353 METAR KBLI 241353Z 16011G21KT 10SM FEW065 OVC090 12/09 A2923 RMK AO2 RAB1258E48 SLP906 P0003 T01220089=
201010241253 METAR KBLI 241253Z AUTO 16015G25KT 10SM BKN031 OVC090 13/08 A2923 RMK AO2 PK WND 15030/1227 SLP904 T01330078=
201010241153 METAR KBLI 241153Z AUTO 13019G28KT 10SM FEW035 BKN044 OVC085 13/08 A2922 RMK AO2 PK WND 13028/1144 RAE05 SLP901 P0000 60015 70024 T01330078 10139 20106 56033=
201010241053 METAR KBLI 241053Z AUTO 01005KT 10SM -RA OVC050 11/09 A2924 RMK AO2 RAB0958 SLP907 P0003 T01110089=
201010240953 METAR KBLI 240953Z AUTO 34003KT 10SM OVC050 11/09 A2927 RMK AO2 RAB01E12 SLP918 P0000 T01060089=
201010240853 METAR KBLI 240853Z AUTO VRB03KT 10SM FEW055 BKN070 OVC095 11/09 A2932 RMK AO2 RAE37 SLP934 P0004 60012 T01060094 58041=
201010240753 METAR KBLI 240753Z AUTO 06003KT 10SM -RA SCT039 OVC055 11/09 A2936 RMK AO2 SLP947 P0005 T01110094 401780072=
201010240653 METAR KBLI 240653Z AUTO 13010KT 10SM -RA FEW050 OVC060 12/09 A2941 RMK AO2 PK WND 14038/0555 SLP964 P0003 T01170089=
201010240553 METAR KBLI 240553Z AUTO 14022G30KT 10SM -RA FEW031 OVC060 13/08 A2944 RMK AO2 PK WND 14037/0534 SLP976 P0002 60008 T01280083 10144 20122 58025=
201010240453 METAR KBLI 240453Z 12012KT 10SM -RA SCT037 BKN046 OVC065 12/09 A2947 RMK AO2 PK WND 14026/0404 SLP987 P0000 T01220089=
201010240353 METAR KBLI 240353Z 13016G27KT 10SM -RA FEW031 OVC070 13/09 A2949 RMK AO2 PK WND 13030/0311 SLP993 P0002 T01280089=
201010240253 METAR KBLI 240253Z 13011KT 10SM -RA OVC060 13/08 A2952 RMK AO2 SLP001 P0001 60004 T01330083 56027=
201010240153 METAR KBLI 240153Z 11012G17KT 10SM -RA SCT070 OVC095 13/08 A2953 RMK AO2 RAE32B50 SLP007 P0001 T01330083=
201010240053 METAR KBLI 240053Z 09006KT 10SM -RA SCT045 BKN055 OVC065 13/09 A2957 RMK AO2 SLP019 P0002 T01330089=
201010232353 METAR KBLI 232353Z 13013G16KT 10SM -RA FEW040 BKN050 OVC060 14/08 A2960 RMK AO2 SLP029 P0001 60001 T01440083 10178 20128 56023=
201010232253 METAR KBLI 232253Z 13011KT 10SM -RA BKN048 BKN065 BKN080 16/07 A2962 RMK AO2 RAB43 SLP036 P0000 T01560072=
201010232153 METAR KBLI 232153Z 14011G17KT 10SM OVC055 17/05 A2964 RMK AO2 SLP044 T01720050=
201010232053 METAR KBLI 232053Z VRB03KT 10SM BKN060 BKN090 17/06 A2966 RMK AO2 SLP052 T01670056 58023=
201010231953 METAR KBLI 231953Z 04005KT 10SM FEW060 16/07 A2969 RMK AO2 SLP060 T01560072=
201010231853 METAR KBLI 231853Z 00000KT 10SM BKN070 14/08 A2972 RMK AO2 SLP071 T01390078=
201010231753 METAR KBLI 231753Z 35003KT 10SM BKN100 13/08 A2973 RMK AO2 SLP075 T01280078 10128 20072 58008=
201010231653 METAR KBLI 231653Z 00000KT 10SM BKN110 11/07 A2974 RMK AO2 SLP079 T01110072=
201010231553 METAR KBLI 231553Z 01004KT 10SM SCT095 10/07 A2975 RMK AO2 SLP080 T01000067=
201010231453 METAR KBLI 231453Z 00000KT 10SM OVC100 08/06 A2976 RMK AO2 SLP084 T00780061 58001=
201010231353 METAR KBLI 231353Z AUTO 00000KT 10SM OVC100 08/06 A2976 RMK AO2 SLP085 T00780061=
201010231253 METAR KBLI 231253Z AUTO 00000KT 10SM OVC100 08/06 A2976 RMK AO2 SLP085 T00780061=
201010231153 METAR KBLI 231153Z AUTO 00000KT 10SM BKN110 09/07 A2976 RMK AO2 SLP084 T00890067 10094 20083 58015=
201010231053 METAR KBLI 231053Z AUTO 00000KT 10SM OVC110 09/07 A2977 RMK AO2 SLP089 T00890067=
201010230953 METAR KBLI 230953Z AUTO 00000KT 10SM OVC110 09/07 A2979 RMK AO2 SLP095 T00940067=
201010230853 METAR KBLI 230853Z AUTO 00000KT 10SM BKN110 09/07 A2980 RMK AO2 SLP099 T00890072 58009=
201010230753 METAR KBLI 230753Z AUTO 00000KT 10SM BKN110 09/08 A2982 RMK AO2 SLP103 T00940078 401560089=
201010230653 METAR KBLI 230653Z AUTO 00000KT 10SM OVC120 09/07 A2983 RMK AO2 SLP108 T00940072=
201010230553 METAR KBLI 230553Z AUTO 35003KT 10SM CLR 09/08 A2983 RMK AO2 SLP108 T00940078 10144 20089 56010=
201010230453 METAR KBLI 230453Z 02003KT 10SM CLR 09/08 A2983 RMK AO2 SLP109 T00940078=
201010230353 METAR KBLI 230353Z 00000KT 10SM BKN120 09/08 A2985 RMK AO2 SLP114 T00940078=
201010230253 METAR KBLI 230253Z 00000KT 10SM BKN120 09/07 A2986 RMK AO2 SLP119 T00940072 53001=
201010230153 METAR KBLI 230153Z 00000KT 10SM FEW120 09/07 A2985 RMK AO2 SLP115 T00940072=
201010230053 METAR KBLI 230053Z 18005KT 10SM CLR 13/07 A2985 RMK AO2 SLP115 T01280072=
201010222353 METAR KBLI 222353Z 18005KT 10SM FEW041 14/08 A2986 RMK AO2 SLP118 60000 T01440078 10150 20133 56010=
201010222253 METAR KBLI 222253Z 17006KT 10SM FEW046 SCT070 BKN100 14/08 A2987 RMK AO2 SLP119 T01390083=
201010222153 METAR KBLI 222153Z 18008G15KT 10SM SCT046 BKN075 14/08 A2988 RMK AO2 SLP123 T01440078=
201010222053 METAR KBLI 222053Z 17009KT 10SM BKN037 BKN046 OVC060 14/08 A2989 RMK AO2 SLP127 60000 T01390078 58003=
201010221953 METAR KBLI 221953Z 18007KT 10SM SCT037 OVC060 13/08 A2990 RMK AO2 RAB15E47 SLP132 P0000 T01330083=
201010221853 METAR KBLI 221853Z 18008G14KT 10SM BKN030 OVC055 13/08 A2991 RMK AO2 SLP136 T01330083 $=
201010221843 SPECI KBLI 221843Z VRB05G16KT 10SM BKN030 OVC055 13/08 A2991 RMK AO2 $=
201010221843 SPECI KBLI 221843Z VRB05G16KT 10SM BKN030 OVC055 13/08 A2991 RMK AO2 $=
201010221828 SPECI KBLI 221828Z 17011G16KT 10SM BKN028 OVC049 14/08 A2991 RMK AO2 $=
201010221828 SPECI KBLI 221828Z 17011G16KT 10SM BKN028 OVC049 14/08 A2991 RMK AO2 $=
201010221753 METAR KBLI 221753Z 17011G20KT 10SM BKN030 OVC049 14/08 A2990 RMK AO2 SLP130 T01390083 10139 20128 51010 $=
201010221741 SPECI KBLI 221741Z 17013G21KT 10SM BKN030 OVC049 13/08 A2990 RMK AO2 $=
201010221741 SPECI KBLI 221741Z 17013G21KT 10SM BKN030 OVC049 13/08 A2990 RMK AO2 $=
201010221653 METAR KBLI 221653Z 17008G21KT 10SM BKN029 BKN070 13/08 A2989 RMK AO2 SLP128 T01330083 $=
201010221553 METAR KBLI 221553Z 16012G18KT 10SM OVC027 14/08 A2988 RMK AO2 SLP125 T01390083 $=
201010221453 METAR KBLI 221453Z 16011G23KT 10SM BKN023 OVC029 13/09 A2987 RMK AO2 SLP121 T01330089 53011 $=
201010221353 METAR KBLI 221353Z 16010G19KT 10SM OVC024 13/09 A2986 RMK AO2 SLP118 T01330089 $=
201010221312 SPECI KBLI 221312Z AUTO 16012G19KT 10SM BKN024 13/09 A2985 RMK AO2 $=
201010221312 SPECI KBLI 221312Z AUTO 16012G19KT 10SM BKN024 13/09 A2985 RMK AO2 $=
201010221253 METAR KBLI 221253Z AUTO 17012G22KT 10SM FEW022 SCT120 13/09 A2984 RMK AO2 SLP111 T01330089 $=
201010221240 SPECI KBLI 221240Z AUTO 16013G20KT 10SM SCT024 BKN120 13/09 A2983 RMK AO2 $=
201010221240 SPECI KBLI 221240Z AUTO 16013G20KT 10SM SCT024 BKN120 13/09 A2983 RMK AO2 $=
201010221153 METAR KBLI 221153Z AUTO 17009KT 10SM BKN026 OVC031 13/10 A2983 RMK AO2 SLP110 60001 70005 T01330100 10156 20133 53007 $=
201010221145 SPECI KBLI 221145Z AUTO 18009KT 150V210 10SM OVC026 13/09 A2983 RMK AO2 $=
201010221145 SPECI KBLI 221145Z AUTO 18009KT 150V210 10SM OVC026 13/09 A2983 RMK AO2 $=
201010221053 METAR KBLI 221053Z AUTO 16004KT 10SM BKN030 OVC090 14/09 A2982 RMK AO2 SLP105 T01440089 $=
201010220953 METAR KBLI 220953Z AUTO 16014G20KT 10SM BKN032 BKN041 15/09 A2982 RMK AO2 SLP104 T01500089 $=
201010220853 METAR KBLI 220853Z AUTO 15010G18KT 10SM SCT043 15/09 A2981 RMK AO2 SLP102 60001 T01500089 56008 $=
201010220753 METAR KBLI 220753Z AUTO 15011G18KT 10SM SCT070 BKN085 OVC120 15/11 A2982 RMK AO2 RAB20E51 SLP103 P0001 T01500111 401560039 $=
201010220653 METAR KBLI 220653Z AUTO VRB04KT 10SM BKN095 14/12 A2982 RMK AO2 SLP105 T01390122 $=
201010220553 METAR KBLI 220553Z AUTO 14010KT 10SM BKN040 14/ A2984 RMK AO2 RAE01 SLP111 P0000 60004 T0144 10150 20122 56006 $=
201010220453 METAR KBLI 220453Z 00000KT 10SM -RA OVC036 12/11 A2984 RMK AO2 SLP112 P0001 T01220111=
201010220353 METAR KBLI 220353Z 14004KT 10SM -RA BKN032 OVC100 14/11 A2985 RMK AO2 RAE09B50 SLP115 P0000 T01390106=
201010220253 METAR KBLI 220253Z 14009KT 10SM -RA OVC085 14/09 A2986 RMK AO2 RAE07B38 SLP118 P0000 60003 T01390094 51007=
201010220153 METAR KBLI 220153Z 16007KT 10SM -RA BKN032 OVC060 14/09 A2985 RMK AO2 RAE14B40 SLP117 P0001 T01440094=
201010220131 SPECI KBLI 220131Z 15010G21KT 10SM OVC030 15/09 A2986 RMK AO2 RAE14 P0001=
201010220131 SPECI KBLI 220131Z 15010G21KT 10SM OVC030 15/09 A2986 RMK AO2 RAE14 P0001=
201010220124 SPECI KBLI 220124Z 16011G17KT 10SM OVC029 14/09 A2985 RMK AO2 RAE14 P0001=
201010220124 SPECI KBLI 220124Z 16011G17KT 10SM OVC029 14/09 A2985 RMK AO2 RAE14 P0001=
201010220053 METAR KBLI 220053Z 16004KT 9SM -RA OVC031 13/10 A2985 RMK AO2 RAE20B52 SLP115 P0002 T01330100=
201010212353 METAR KBLI 212353Z 00000KT 10SM -RA SCT028 BKN070 OVC110 13/10 A2984 RMK AO2 RAB03E12B30 SLP111 P0000 60000 T01280100 10150 20117 56000=
201010212330 SPECI KBLI 212330Z 14004KT 10SM -RA SCT028 BKN070 OVC110 13/09 A2984 RMK AO2 RAB03E12B30 P0000=
201010212330 SPECI KBLI 212330Z 14004KT 10SM -RA SCT028 BKN070 OVC110 13/09 A2984 RMK AO2 RAB03E12B30 P0000=
201010212321 SPECI KBLI 212321Z 14004KT 10SM BKN028 BKN070 OVC110 13/09 A2984 RMK AO2 RAB03E12 P0000=
201010212321 SPECI KBLI 212321Z 14004KT 10SM BKN028 BKN070 OVC110 13/09 A2984 RMK AO2 RAB03E12 P0000=
201010212253 METAR KBLI 212253Z 16006KT 10SM BKN110 13/09 A2984 RMK AO2 SLP111 T01280094=
201010212153 METAR KBLI 212153Z 18008G14KT 10SM CLR 13/09 A2983 RMK AO2 SLP109 T01280094=
201010212053 METAR KBLI 212053Z 19009KT 10SM CLR 13/09 A2984 RMK AO2 SLP111 T01280089 58008=
201010211953 METAR KBLI 211953Z 17008KT 10SM CLR 13/08 A2985 RMK AO2 SLP115 T01330083=
201010211853 METAR KBLI 211853Z 17003KT 10SM CLR 15/09 A2985 RMK AO2 SLP116 T01500094=
201010211753 METAR KBLI 211753Z 00000KT 10SM CLR 12/09 A2986 RMK AO2 SLP120 T01170089 10117 20044 50007=
201010211653 METAR KBLI 211653Z 00000KT 10SM CLR 10/09 A2986 RMK AO2 SLP121 VIS SE-SW 3/4 FG T01000089=
201010211553 METAR KBLI 211553Z 00000KT 10SM CLR 06/06 A2985 RMK AO2 SLP117 VIS NW-N 1/2V3 DRFG T00610056=
201010211529 SPECI KBLI 211529Z 00000KT 3SM BR FEW001 SCT007 05/04 A2985 RMK AO2=
201010211529 SPECI KBLI 211529Z 00000KT 3SM BR FEW001 SCT007 05/04 A2985 RMK AO2=
201010211523 SPECI KBLI 211523Z 00000KT 1SM R16/P6000FT BR SCT001 SCT007 05/04 A2985 RMK AO2=
201010211523 SPECI KBLI 211523Z 00000KT 1SM R16/P6000FT BR SCT001 SCT007 05/04 A2985 RMK AO2=
201010211520 SPECI KBLI 211520Z 00000KT 3/4SM R16/3500VP6000FT BR SCT001 BKN007 04/03 A2985 RMK AO2=
201010211520 SPECI KBLI 211520Z 00000KT 3/4SM R16/3500VP6000FT BR SCT001 BKN007 04/03 A2985 RMK AO2=
201010211511 SPECI KBLI 211511Z 00000KT 1/2SM R16/1600V5000FT FG BKN001 BKN007 05/04 A2985 RMK AO2=
201010211511 SPECI KBLI 211511Z 00000KT 1/2SM R16/1600V5000FT FG BKN001 BKN007 05/04 A2985 RMK AO2=
201010211453 METAR KBLI 211453Z 00000KT 10SM R16/1800VP6000FT FEW001 SCT007 BKN010 04/03 A2984 RMK AO2 SLP113 VIS1/2 NW-N DRFG T00440033 58000=
201010211448 SPECI KBLI 211448Z 00000KT 10SM R16/1800VP6000FT FEW001 BKN007 BKN010 04/03 A2984 RMK AO2=
201010211448 SPECI KBLI 211448Z 00000KT 10SM R16/1800VP6000FT FEW001 BKN007 BKN010 04/03 A2984 RMK AO2=
201010211445 SPECI KBLI 211445Z 00000KT 1/2SM R16/1800VP6000FT FG FEW001 BKN010 04/03 A2984 RMK AO2=
201010211445 SPECI KBLI 211445Z 00000KT 1/2SM R16/1800VP6000FT FG FEW001 BKN010 04/03 A2984 RMK AO2=
201010211429 SPECI KBLI 211429Z 00000KT 1SM R16/2200VP6000FT BR SCT001 BKN010 05/04 A2984 RMK AO2=
201010211429 SPECI KBLI 211429Z 00000KT 1SM R16/2200VP6000FT BR SCT001 BKN010 05/04 A2984 RMK AO2=
201010211425 SPECI KBLI 211425Z 00000KT 3/4SM R16/2200V3500FT BR BKN001 OVC010 05/04 A2984 RMK AO2=
201010211425 SPECI KBLI 211425Z 00000KT 3/4SM R16/2200V3500FT BR BKN001 OVC010 05/04 A2984 RMK AO2=
201010211415 SPECI KBLI 211415Z 00000KT 1/2SM R16/2600VP6000FT FG BKN001 OVC007 05/04 A2984 RMK AO2=
201010211415 SPECI KBLI 211415Z 00000KT 1/2SM R16/2600VP6000FT FG BKN001 OVC007 05/04 A2984 RMK AO2=
201010211408 SPECI KBLI 211408Z 00000KT 1SM R16/2400VP6000FT FG BKN001 OVC007 05/04 A2984 RMK AO2=
201010211408 SPECI KBLI 211408Z 00000KT 1SM R16/2400VP6000FT FG BKN001 OVC007 05/04 A2984 RMK AO2=
201010211404 SPECI KBLI 211404Z 00000KT 1/2SM R16/1600V5500FT FG BKN001 OVC007 05/04 A2984 RMK AO2=
201010211404 SPECI KBLI 211404Z 00000KT 1/2SM R16/1600V5500FT FG BKN001 OVC007 05/04 A2984 RMK AO2=
201010211353 METAR KBLI 211353Z 00000KT 1/4SM R16/1000V1400FT FG BKN001 OVC007 04/04 A2985 RMK AO2 SLP116 T00440039=
201010211253 METAR KBLI 211253Z AUTO 00000KT 1/4SM R16/0800V1400FT FG VV001 05/04 A2986 RMK AO2 SLP118 T00500039=
201010211224 SPECI KBLI 211224Z AUTO 00000KT 1/4SM R16/1400V1800FT FG BKN001 OVC008 04/03 A2985 RMK AO2=
201010211224 SPECI KBLI 211224Z AUTO 00000KT 1/4SM R16/1400V1800FT FG BKN001 OVC008 04/03 A2985 RMK AO2=
201010211158 SPECI KBLI 211158Z AUTO 00000KT 1/2SM R16/1600V2200FT FG FEW001 OVC008 04/03 A2984 RMK AO2=
201010211158 SPECI KBLI 211158Z AUTO 00000KT 1/2SM R16/1600V2200FT FG FEW001 OVC008 04/03 A2984 RMK AO2=
201010211153 METAR KBLI 211153Z AUTO 00000KT 3/4SM R16/1800V2600FT BR FEW001 OVC008 04/03 A2984 RMK AO2 SLP112 T00440033 10072 20039 56008=
201010211146 SPECI KBLI 211146Z AUTO 00000KT 3/4SM R16/1600V2600FT BR SCT001 OVC008 04/03 A2984 RMK AO2=
201010211146 SPECI KBLI 211146Z AUTO 00000KT 3/4SM R16/1600V2600FT BR SCT001 OVC008 04/03 A2984 RMK AO2=
201010211132 SPECI KBLI 211132Z AUTO 00000KT 1 1/4SM R16/4500VP6000FT BR BKN001 OVC008 05/04 A2984 RMK AO2=
201010211132 SPECI KBLI 211132Z AUTO 00000KT 1 1/4SM R16/4500VP6000FT BR BKN001 OVC008 05/04 A2984 RMK AO2=
201010211127 SPECI KBLI 211127Z AUTO 00000KT 1/2SM R16/4500VP6000FT FG BKN001 OVC008 05/04 A2984 RMK AO2=
201010211127 SPECI KBLI 211127Z AUTO 00000KT 1/2SM R16/4500VP6000FT FG BKN001 OVC008 05/04 A2984 RMK AO2=
201010211113 SPECI KBLI 211113Z AUTO 00000KT 3/4SM R16/6000VP6000FT BR BKN001 OVC008 05/04 A2985 RMK AO2=
201010211113 SPECI KBLI 211113Z AUTO 00000KT 3/4SM R16/6000VP6000FT BR BKN001 OVC008 05/04 A2985 RMK AO2=
201010211109 SPECI KBLI 211109Z AUTO 00000KT 1/4SM R16/2800VP6000FT FG SCT001 OVC008 04/03 A2985 RMK AO2=
201010211109 SPECI KBLI 211109Z AUTO 00000KT 1/4SM R16/2800VP6000FT FG SCT001 OVC008 04/03 A2985 RMK AO2=
201010211101 SPECI KBLI 211101Z AUTO 00000KT 1/2SM R16/2800VP6000FT FG BKN001 OVC008 04/03 A2985 RMK AO2=
201010211101 SPECI KBLI 211101Z AUTO 00000KT 1/2SM R16/2800VP6000FT FG BKN001 OVC008 04/03 A2985 RMK AO2=
201010211053 METAR KBLI 211053Z AUTO 00000KT 1 1/2SM BR BKN001 OVC008 04/03 A2985 RMK AO2 SLP115 T00440033=
201010211036 SPECI KBLI 211036Z AUTO 00000KT 1/2SM R16/3500VP6000FT FG SCT001 OVC008 04/03 A2985 RMK AO2=
201010211036 SPECI KBLI 211036Z AUTO 00000KT 1/2SM R16/3500VP6000FT FG SCT001 OVC008 04/03 A2985 RMK AO2=
201010211014 SPECI KBLI 211014Z AUTO 00000KT 1/2SM R16/2400VP6000FT FG BKN001 OVC008 04/03 A2985 RMK AO2=
201010211014 SPECI KBLI 211014Z AUTO 00000KT 1/2SM R16/2400VP6000FT FG BKN001 OVC008 04/03 A2985 RMK AO2=
201010211006 SPECI KBLI 211006Z AUTO 00000KT 1 1/2SM R16/2600V4500FT BR BKN001 OVC008 05/04 A2986 RMK AO2=
201010211006 SPECI KBLI 211006Z AUTO 00000KT 1 1/2SM R16/2600V4500FT BR BKN001 OVC008 05/04 A2986 RMK AO2=
201010210958 SPECI KBLI 210958Z AUTO 00000KT 3SM R16/4000VP6000FT BR BKN001 OVC008 05/04 A2986 RMK AO2=
201010210958 SPECI KBLI 210958Z AUTO 00000KT 3SM R16/4000VP6000FT BR BKN001 OVC008 05/04 A2986 RMK AO2=
201010210951 METAR KBLI 210951Z AUTO 00000KT 2 1/2SM R16/6000VP6000FT BR BKN001 OVC008 04/03 A2986 RMK AO2 VIS 1V5 SLP117 T00440033=
201010210950 SPECI KBLI 210950Z AUTO 00000KT 2SM R16/6000VP6000FT BR BKN001 OVC008 04/03 A2986 RMK AO2 VIS 1V5=
201010210950 SPECI KBLI 210950Z AUTO 00000KT 2SM R16/6000VP6000FT BR BKN001 OVC008 04/03 A2986 RMK AO2 VIS 1V5=
201010210931 SPECI KBLI 210931Z AUTO 00000KT 3/4SM R16/2400V4500FT BR BKN001 OVC008 04/04 A2986 RMK AO2=
201010210931 SPECI KBLI 210931Z AUTO 00000KT 3/4SM R16/2400V4500FT BR BKN001 OVC008 04/04 A2986 RMK AO2=
201010210923 SPECI KBLI 210923Z AUTO 00000KT 1/2SM R16/1600V3500FT FG SCT001 OVC008 06/04 A2986 RMK AO2=
201010210923 SPECI KBLI 210923Z AUTO 00000KT 1/2SM R16/1600V3500FT FG SCT001 OVC008 06/04 A2986 RMK AO2=
201010210901 SPECI KBLI 210901Z AUTO 00000KT 1/2SM R16/1600V1800FT FG FEW001 OVC008 05/04 A2986 RMK AO2=
201010210901 SPECI KBLI 210901Z AUTO 00000KT 1/2SM R16/1600V1800FT FG FEW001 OVC008 05/04 A2986 RMK AO2=
201010210853 METAR KBLI 210853Z AUTO 00000KT 1/2SM R16/1400V3500FT FG FEW001 OVC008 06/04 A2987 RMK AO2 SLP121 T00560044 55001=
201010210839 SPECI KBLI 210839Z AUTO 00000KT 1/2SM R16/1200V5000FT FG SCT001 OVC008 05/04 A2987 RMK AO2=
201010210839 SPECI KBLI 210839Z AUTO 00000KT 1/2SM R16/1200V5000FT FG SCT001 OVC008 05/04 A2987 RMK AO2=
201010210832 SPECI KBLI 210832Z AUTO 00000KT 1/2SM R16/1200V2000FT FG BKN001 OVC008 06/04 A2987 RMK AO2=
201010210832 SPECI KBLI 210832Z AUTO 00000KT 1/2SM R16/1200V2000FT FG BKN001 OVC008 06/04 A2987 RMK AO2=
201010210827 SPECI KBLI 210827Z AUTO 00000KT 1/2SM R16/1200VP6000FT FG SCT001 OVC008 06/04 A2987 RMK AO2=
201010210827 SPECI KBLI 210827Z AUTO 00000KT 1/2SM R16/1200VP6000FT FG SCT001 OVC008 06/04 A2987 RMK AO2=
201010210823 SPECI KBLI 210823Z AUTO 00000KT 3/4SM R16/1800VP6000FT BR BKN001 OVC008 06/04 A2987 RMK AO2=
201010210823 SPECI KBLI 210823Z AUTO 00000KT 3/4SM R16/1800VP6000FT BR BKN001 OVC008 06/04 A2987 RMK AO2=
201010210814 SPECI KBLI 210814Z AUTO 00000KT 1/2SM R16/3000VP6000FT FG BKN001 OVC008 06/04 A2987 RMK AO2=
201010210814 SPECI KBLI 210814Z AUTO 00000KT 1/2SM R16/3000VP6000FT FG BKN001 OVC008 06/04 A2987 RMK AO2=
201010210807 SPECI KBLI 210807Z AUTO 00000KT 1 1/2SM R16/2800VP6000FT BR BKN001 BKN010 06/04 A2987 RMK AO2=
201010210807 SPECI KBLI 210807Z AUTO 00000KT 1 1/2SM R16/2800VP6000FT BR BKN001 BKN010 06/04 A2987 RMK AO2=
201010210804 SPECI KBLI 210804Z AUTO 00000KT 3SM R16/2400V4000FT BR BKN001 BKN010 06/04 A2987 RMK AO2=
201010210804 SPECI KBLI 210804Z AUTO 00000KT 3SM R16/2400V4000FT BR BKN001 BKN010 06/04 A2987 RMK AO2=
201010210800 SPECI KBLI 210800Z AUTO 00000KT 1SM R16/2400VP6000FT BR VV001 06/04 A2987 RMK AO2=
201010210800 SPECI KBLI 210800Z AUTO 00000KT 1SM R16/2400VP6000FT BR VV001 06/04 A2987 RMK AO2=
201010210753 METAR KBLI 210753Z AUTO 00000KT 1/2SM R16/P6000FT FG VV001 06/05 A2987 RMK AO2 SLP121 T00610050 401780039=
201010210748 SPECI KBLI 210748Z AUTO 00000KT 3/4SM R16/P6000FT BR BKN001 BKN009 06/05 A2987 RMK AO2 VIS 1/2V3 401780039=
201010210748 SPECI KBLI 210748Z AUTO 00000KT 3/4SM R16/P6000FT BR BKN001 BKN009 06/05 A2987 RMK AO2 VIS 1/2V3 401780039=
201010210741 SPECI KBLI 210741Z AUTO 00000KT 2SM BR BKN001 06/04 A2987 RMK AO2=
201010210741 SPECI KBLI 210741Z AUTO 00000KT 2SM BR BKN001 06/04 A2987 RMK AO2=
201010210718 SPECI KBLI 210718Z AUTO 00000KT 8SM FEW001 06/04 A2987 RMK AO2=
201010210718 SPECI KBLI 210718Z AUTO 00000KT 8SM FEW001 06/04 A2987 RMK AO2=
201010210711 SPECI KBLI 210711Z AUTO 00000KT 2SM R16/2200VP6000FT BR FEW001 06/04 A2987 RMK AO2=
201010210711 SPECI KBLI 210711Z AUTO 00000KT 2SM R16/2200VP6000FT BR FEW001 06/04 A2987 RMK AO2=
201010210704 SPECI KBLI 210704Z AUTO 00000KT 1 3/4SM R16/2200VP6000FT BR CLR 06/04 A2988 RMK AO2=
201010210704 SPECI KBLI 210704Z AUTO 00000KT 1 3/4SM R16/2200VP6000FT BR CLR 06/04 A2988 RMK AO2=
201010210653 METAR KBLI 210653Z AUTO 00000KT 9SM CLR 06/04 A2988 RMK AO2 SLP124 T00610044=
201010210635 SPECI KBLI 210635Z AUTO 00000KT 9SM CLR 07/05 A2988 RMK AO2=
201010210635 SPECI KBLI 210635Z AUTO 00000KT 9SM CLR 07/05 A2988 RMK AO2=
201010210628 SPECI KBLI 210628Z AUTO 00000KT 2 1/2SM BR CLR 07/05 A2988 RMK AO2=
201010210628 SPECI KBLI 210628Z AUTO 00000KT 2 1/2SM BR CLR 07/05 A2988 RMK AO2=
201010210618 SPECI KBLI 210618Z AUTO 00000KT 1SM R16/P6000FT BR VV001 07/05 A2988 RMK AO2=
201010210618 SPECI KBLI 210618Z AUTO 00000KT 1SM R16/P6000FT BR VV001 07/05 A2988 RMK AO2=
201010210616 SPECI KBLI 210616Z AUTO 00000KT 1 3/4SM BR CLR 07/05 A2988 RMK AO2=
201010210616 SPECI KBLI 210616Z AUTO 00000KT 1 3/4SM BR CLR 07/05 A2988 RMK AO2=
201010210559 SPECI KBLI 210559Z AUTO 00000KT 3SM BR CLR 07/05 A2988 RMK AO2=
201010210559 SPECI KBLI 210559Z AUTO 00000KT 3SM BR CLR 07/05 A2988 RMK AO2=
201010210553 METAR KBLI 210553Z AUTO 00000KT 1SM R16/4500VP6000FT BR CLR 07/06 A2988 RMK AO2 SLP124 T00670056 10150 20067 53004=
201010210546 SPECI KBLI 210546Z AUTO 00000KT 1 3/4SM R16/3500VP6000FT BR CLR 07/05 A2988 RMK AO2=
201010210546 SPECI KBLI 210546Z AUTO 00000KT 1 3/4SM R16/3500VP6000FT BR CLR 07/05 A2988 RMK AO2=
201010210453 METAR KBLI 210453Z 00000KT 10SM CLR 07/05 A2987 RMK AO2 SLP123 T00720050=
201010210353 METAR KBLI 210353Z 00000KT 8SM CLR 08/06 A2987 RMK AO2 SLP121 T00780061=
201010210253 METAR KBLI 210253Z 00000KT 10SM CLR 09/07 A2986 RMK AO2 SLP120 T00890067 55003=
201010210153 METAR KBLI 210153Z 00000KT 10SM CLR 10/08 A2986 RMK AO2 SLP119 T01000078=
201010210053 METAR KBLI 210053Z 00000KT 10SM CLR 12/09 A2986 RMK AO2 SLP120 T01170089=
201010202353 METAR KBLI 202353Z 00000KT 10SM CLR 15/09 A2987 RMK AO2 SLP122 T01500094 10178 20128 58009=
201010202253 METAR KBLI 202253Z 28003KT 10SM CLR 16/09 A2988 RMK AO2 SLP125 T01560094=
201010202153 METAR KBLI 202153Z VRB03KT 10SM CLR 15/09 A2989 RMK AO2 SLP129 T01500094=
201010202053 METAR KBLI 202053Z 33004KT 10SM CLR 18/08 A2990 RMK AO2 SLP131 T01780083 58019=
201010201953 METAR KBLI 201953Z 02005KT 10SM CLR 17/09 A2992 RMK AO2 SLP139 T01670089=
201010201853 SPECI KBLI 201853Z 02005KT 10SM CLR 15/08 A2995 RMK AO2 SLP147 T01500083=
201010201753 METAR KBLI 201753Z 01006KT 10SM CLR 13/08 A2995 RMK AO2 SLP150 T01280083 10128 20039 58001=
201010201653 METAR KBLI 201653Z 01003KT 10SM CLR 11/08 A2996 RMK AO2 SLP153 T01060078=
201010201553 METAR KBLI 201553Z 34003KT 10SM CLR 07/06 A2996 RMK AO2 SLP153 T00670056=
201010201453 METAR KBLI 201453Z 32003KT 10SM CLR 06/04 A2996 RMK AO2 SLP152 T00560044 56009=
201010201353 METAR KBLI 201353Z 00000KT 10SM CLR 06/04 A2996 RMK AO2 SLP153 T00610044=
201010201253 METAR KBLI 201253Z AUTO 00000KT 6SM BR CLR 06/04 A2997 RMK AO2 SLP155 T00560044=
201010201221 SPECI KBLI 201221Z AUTO 00000KT 3SM BR CLR 04/03 A2998 RMK AO2=
201010201221 SPECI KBLI 201221Z AUTO 00000KT 3SM BR CLR 04/03 A2998 RMK AO2=
201010201209 SPECI KBLI 201209Z AUTO 00000KT 1 1/2SM BR CLR 04/03 A2998 RMK AO2=
201010201209 SPECI KBLI 201209Z AUTO 00000KT 1 1/2SM BR CLR 04/03 A2998 RMK AO2=
201010201155 SPECI KBLI 201155Z AUTO 34003KT 3/4SM R16/3500VP6000FT BR CLR 04/03 A2998 RMK AO2=
201010201155 SPECI KBLI 201155Z AUTO 34003KT 3/4SM R16/3500VP6000FT BR CLR 04/03 A2998 RMK AO2=
201010201153 METAR KBLI 201153Z AUTO 33003KT 1SM R16/3500VP6000FT BR VV009 05/04 A2998 RMK AO2 SLP160 60001 70001 T00500039 10067 20044 58016=
201010201134 SPECI KBLI 201134Z AUTO 00000KT 3SM R16/2600VP6000FT BR FEW009 05/04 A2999 RMK AO2=
201010201134 SPECI KBLI 201134Z AUTO 00000KT 3SM R16/2600VP6000FT BR FEW009 05/04 A2999 RMK AO2=
201010201126 SPECI KBLI 201126Z AUTO 00000KT 1 3/4SM R16/1400VP6000FT BR SCT009 06/04 A2999 RMK AO2 VIS 3/4V5=
201010201126 SPECI KBLI 201126Z AUTO 00000KT 1 3/4SM R16/1400VP6000FT BR SCT009 06/04 A2999 RMK AO2 VIS 3/4V5=
201010201108 SPECI KBLI 201108Z AUTO 00000KT 3SM BR FEW009 06/04 A3000 RMK AO2=
201010201108 SPECI KBLI 201108Z AUTO 00000KT 3SM BR FEW009 06/04 A3000 RMK AO2=
201010201103 SPECI KBLI 201103Z AUTO 00000KT 1SM R16/3000VP6000FT BR FEW001 06/04 A3000 RMK AO2=
201010201103 SPECI KBLI 201103Z AUTO 00000KT 1SM R16/3000VP6000FT BR FEW001 06/04 A3000 RMK AO2=
201010201053 METAR KBLI 201053Z AUTO 00000KT 3/4SM R16/4000VP6000FT BR VV009 06/04 A3000 RMK AO2 SLP167 P0001 T00560044=
201010201047 SPECI KBLI 201047Z AUTO 34003KT 1SM R16/4000VP6000FT BR VV009 06/04 A3001 RMK AO2 P0001=
201010201047 SPECI KBLI 201047Z AUTO 34003KT 1SM R16/4000VP6000FT BR VV009 06/04 A3001 RMK AO2 P0001=
201010201029 SPECI KBLI 201029Z AUTO 00000KT 7SM FEW009 06/04 A3002 RMK AO2=
201010201029 SPECI KBLI 201029Z AUTO 00000KT 7SM FEW009 06/04 A3002 RMK AO2=
201010201018 SPECI KBLI 201018Z AUTO 00000KT 2SM R16/3000VP6000FT BR SCT009 06/04 A3002 RMK AO2 VIS 1 1/4V3=
201010201018 SPECI KBLI 201018Z AUTO 00000KT 2SM R16/3000VP6000FT BR SCT009 06/04 A3002 RMK AO2 VIS 1 1/4V3=
201010201011 SPECI KBLI 201011Z AUTO 00000KT 1SM R16/1800VP6000FT BR BKN009 06/04 A3003 RMK AO2 VIS 1/2V2 1/2=
201010201011 SPECI KBLI 201011Z AUTO 00000KT 1SM R16/1800VP6000FT BR BKN009 06/04 A3003 RMK AO2 VIS 1/2V2 1/2=
201010200953 METAR KBLI 200953Z AUTO 00000KT 1/2SM R16/2000VP6000FT FG BKN009 06/04 A3003 RMK AO2 SLP175 T00560044=
201010200950 SPECI KBLI 200950Z AUTO 00000KT 1/2SM R16/2000VP6000FT FG BKN009 06/04 A3003 RMK AO2=
201010200950 SPECI KBLI 200950Z AUTO 00000KT 1/2SM R16/2000VP6000FT FG BKN009 06/04 A3003 RMK AO2=
201010200942 SPECI KBLI 200942Z AUTO 00000KT 3/4SM R16/1800VP6000FT BR VV008 06/04 A3003 RMK AO2=
201010200942 SPECI KBLI 200942Z AUTO 00000KT 3/4SM R16/1800VP6000FT BR VV008 06/04 A3003 RMK AO2=
201010200939 SPECI KBLI 200939Z AUTO 00000KT 1 1/2SM R16/1800VP6000FT BR FEW009 06/04 A3003 RMK AO2=
201010200939 SPECI KBLI 200939Z AUTO 00000KT 1 1/2SM R16/1800VP6000FT BR FEW009 06/04 A3003 RMK AO2=
201010200925 SPECI KBLI 200925Z AUTO 00000KT 3SM R16/1800VP6000FT BR FEW001 SCT009 06/04 A3004 RMK AO2=
201010200925 SPECI KBLI 200925Z AUTO 00000KT 3SM R16/1800VP6000FT BR FEW001 SCT009 06/04 A3004 RMK AO2=
201010200918 SPECI KBLI 200918Z AUTO 00000KT 1SM R16/1000VP6000FT BR FEW001 BKN009 06/05 A3004 RMK AO2 VIS 3/4V2=
201010200918 SPECI KBLI 200918Z AUTO 00000KT 1SM R16/1000VP6000FT BR FEW001 BKN009 06/05 A3004 RMK AO2 VIS 3/4V2=
201010200902 SPECI KBLI 200902Z AUTO 00000KT 1/2SM R16/1200VP6000FT FG FEW001 BKN009 06/04 A3004 RMK AO2=
201010200902 SPECI KBLI 200902Z AUTO 00000KT 1/2SM R16/1200VP6000FT FG FEW001 BKN009 06/04 A3004 RMK AO2=
201010200856 SPECI KBLI 200856Z AUTO 00000KT 1SM R16/4000VP6000FT BR VV009 07/04 A3004 RMK AO2=
201010200856 SPECI KBLI 200856Z AUTO 00000KT 1SM R16/4000VP6000FT BR VV009 07/04 A3004 RMK AO2=
201010200853 METAR KBLI 200853Z AUTO 00000KT 2SM BR FEW009 07/04 A3004 RMK AO2 VIS 3/4V5 SLP178 T00670044 58002=
201010200753 METAR KBLI 200753Z AUTO 00000KT 9SM CLR 06/04 A3004 RMK AO2 SLP179 T00560044 401830044=
201010200653 METAR KBLI 200653Z AUTO 00000KT 3SM BR CLR 07/05 A3004 RMK AO2 SLP181 T00670050=
201010200553 METAR KBLI 200553Z AUTO 00000KT 9SM CLR 08/06 A3004 RMK AO2 SLP180 T00780061 10167 20072 56009=
201010200453 METAR KBLI 200453Z 00000KT 9SM CLR 08/06 A3005 RMK AO2 SLP185 T00780061=
201010200353 METAR KBLI 200353Z 00000KT 9SM CLR 09/07 A3006 RMK AO2 SLP186 T00890067=
201010200253 METAR KBLI 200253Z 00000KT 10SM CLR 10/07 A3007 RMK AO2 SLP191 T01000072 56008=
201010200153 METAR KBLI 200153Z 00000KT 10SM CLR 11/08 A3008 RMK AO2 SLP193 T01110083=
201010200053 METAR KBLI 200053Z 28003KT 10SM CLR 14/09 A3008 RMK AO2 SLP194 T01390089=
201010192353 METAR KBLI 192353Z 28003KT 10SM CLR 17/10 A3010 RMK AO2 SLP198 T01670100 10183 20128 56017=
201010192253 METAR KBLI 192253Z 01003KT 10SM CLR 18/09 A3011 RMK AO2 SLP204 T01830089=
201010192153 METAR KBLI 192153Z 01005KT 10SM CLR 18/09 A3013 RMK AO2 SLP209 T01830089=
201010192053 METAR KBLI 192053Z 03003KT 10SM CLR 18/08 A3015 RMK AO2 SLP215 T01780083 58023=
201010191953 METAR KBLI 191953Z VRB03KT 10SM CLR 16/09 A3018 RMK AO2 SLP227 T01610089=
201010191853 METAR KBLI 191853Z 00000KT 10SM CLR 14/08 A3020 RMK AO2 SLP235 T01440083=
201010191753 METAR KBLI 191753Z 00000KT 10SM CLR 13/08 A3021 RMK AO2 SLP239 T01280083 10133 20044 58004=
201010191653 METAR KBLI 191653Z 00000KT 10SM CLR 11/08 A3022 RMK AO2 SLP242 T01060078=
201010191553 METAR KBLI 191553Z 00000KT 9SM CLR 07/06 A3023 RMK AO2 SLP243 T00720061=
201010191532 SPECI KBLI 191532Z 00000KT 10SM CLR 06/04 A3023 RMK AO2=
201010191532 SPECI KBLI 191532Z 00000KT 10SM CLR 06/04 A3023 RMK AO2=
201010191505 SPECI KBLI 191505Z 00000KT 3SM BR CLR 04/03 A3022 RMK AO2=
201010191505 SPECI KBLI 191505Z 00000KT 3SM BR CLR 04/03 A3022 RMK AO2=
201010191500 SPECI KBLI 191500Z 00000KT 1 1/4SM R16/2600VP6000FT BR CLR 05/03 A3022 RMK AO2 VIS 1/2V4=
201010191500 SPECI KBLI 191500Z 00000KT 1 1/4SM R16/2600VP6000FT BR CLR 05/03 A3022 RMK AO2 VIS 1/2V4=
201010191453 METAR KBLI 191453Z 00000KT 6SM R16/2600VP6000FT BR CLR 04/03 A3022 RMK AO2 SLP243 GND FG NW FLD BNDRY T00440033 58003=
201010191425 SPECI KBLI 191425Z 00000KT 6SM BR CLR 04/03 A3022 RMK AO2 GND FG NW FLD BNDRY=
201010191425 SPECI KBLI 191425Z 00000KT 6SM BR CLR 04/03 A3022 RMK AO2 GND FG NW FLD BNDRY=
201010191416 SPECI KBLI 191416Z 00000KT 1 3/4SM R16/5000VP6000FT BR CLR 04/03 A3022 RMK AO2 VIS 3/4V5=
201010191416 SPECI KBLI 191416Z 00000KT 1 3/4SM R16/5000VP6000FT BR CLR 04/03 A3022 RMK AO2 VIS 3/4V5=
201010191353 METAR KBLI 191353Z 00000KT 5SM BR CLR 05/04 A3023 RMK AO2 SLP246 T00500039=
201010191253 METAR KBLI 191253Z AUTO 00000KT 9SM CLR 07/05 A3023 RMK AO2 SLP246 T00670050=
201010191153 METAR KBLI 191153Z AUTO 00000KT 10SM OVC050 07/06 A3023 RMK AO2 SLP246 T00720061 10078 20050 58007=
201010191053 METAR KBLI 191053Z AUTO 00000KT 10SM OVC050 08/06 A3024 RMK AO2 SLP247 T00780061=
201010190953 METAR KBLI 190953Z AUTO 00000KT 10SM OVC050 07/06 A3025 RMK AO2 SLP252 T00720061=
201010190853 METAR KBLI 190853Z AUTO 00000KT 10SM OVC043 07/06 A3025 RMK AO2 SLP252 T00670056 55000=
201010190753 METAR KBLI 190753Z AUTO 00000KT 8SM SCT045 OVC055 06/04 A3024 RMK AO2 SLP249 T00610044 401170044=
201010190653 METAR KBLI 190653Z AUTO 00000KT 7SM CLR 06/04 A3025 RMK AO2 SLP252 T00560039=
201010190615 SPECI KBLI 190615Z AUTO 00000KT 3SM BR CLR 06/04 A3025 RMK AO2=
201010190615 SPECI KBLI 190615Z AUTO 00000KT 3SM BR CLR 06/04 A3025 RMK AO2=
201010190603 SPECI KBLI 190603Z AUTO 00000KT 2SM BR CLR 06/04 A3025 RMK AO2 VIS 1V5=
201010190603 SPECI KBLI 190603Z AUTO 00000KT 2SM BR CLR 06/04 A3025 RMK AO2 VIS 1V5=
201010190553 METAR KBLI 190553Z AUTO 00000KT 5SM BR CLR 06/05 A3025 RMK AO2 SLP252 T00610050 10117 20056 57003=
201010190536 SPECI KBLI 190536Z AUTO 00000KT 3SM BR CLR 06/04 A3025 RMK AO2=
201010190536 SPECI KBLI 190536Z AUTO 00000KT 3SM BR CLR 06/04 A3025 RMK AO2=
201010190525 SPECI KBLI 190525Z AUTO 00000KT 1 3/4SM BR CLR 06/04 A3025 RMK AO2=
201010190525 SPECI KBLI 190525Z AUTO 00000KT 1 3/4SM BR CLR 06/04 A3025 RMK AO2=
201010190453 METAR KBLI 190453Z 00000KT 10SM CLR 07/05 A3025 RMK AO2 SLP253 T00670050=
201010190353 METAR KBLI 190353Z 00000KT 9SM CLR 07/06 A3026 RMK AO2 SLP255 T00720056=
201010190253 METAR KBLI 190253Z 00000KT 10SM CLR 09/07 A3026 RMK AO2 SLP255 T00940067 55003=
201010190153 METAR KBLI 190153Z 00000KT 10SM OVC110 11/07 A3026 RMK AO2 SLP254 T01060072=
201010190053 METAR KBLI 190053Z 01003KT 10SM SCT080 BKN120 11/07 A3026 RMK AO2 SLP255 T01110072=
201010182353 METAR KBLI 182353Z 00000KT 10SM BKN050 OVC060 12/07 A3027 RMK AO2 SLP258 T01170072 10117 20100 56009=
201010182253 METAR KBLI 182253Z 00000KT 10SM OVC050 12/07 A3027 RMK AO2 SLP260 T01170072=
201010182153 METAR KBLI 182153Z 00000KT 10SM BKN055 OVC080 11/07 A3028 RMK AO2 SLP262 T01110072=
201010182053 METAR KBLI 182053Z 00000KT 10SM OVC070 11/08 A3030 RMK AO2 SLP267 T01110078 56002=
201010181953 METAR KBLI 181953Z 00000KT 10SM OVC080 11/07 A3030 RMK AO2 SLP270 T01060072=
201010181853 METAR KBLI 181853Z 00000KT 10SM BKN100 11/07 A3029 RMK AO2 SLP266 T01060072=
201010181753 METAR KBLI 181753Z 00000KT 10SM SCT110 10/08 A3030 RMK AO2 SLP269 T01000078 10100 20056 51009=
201010181653 METAR KBLI 181653Z 00000KT 10SM FEW065 SCT110 09/08 A3030 RMK AO2 SLP268 T00940078=
201010181553 METAR KBLI 181553Z 00000KT 10SM BKN110 08/06 A3029 RMK AO2 SLP264 T00780061=
201010181453 METAR KBLI 181453Z 00000KT 9SM OVC095 07/05 A3027 RMK AO2 SLP260 T00670050 50002=
201010181353 METAR KBLI 181353Z AUTO 00000KT 9SM CLR 06/04 A3028 RMK AO2 SLP263 T00610044=
201010181253 METAR KBLI 181253Z AUTO 00000KT 6SM BR CLR 06/05 A3027 RMK AO2 SLP258 T00610050=
201010181153 METAR KBLI 181153Z AUTO 00000KT 6SM BR SCT120 07/05 A3027 RMK AO2 SLP257 T00670050 10072 20044 50007=
201010181053 METAR KBLI 181053Z AUTO 00000KT 6SM BR CLR 06/04 A3028 RMK AO2 SLP259 T00610044=
201010181013 SPECI KBLI 181013Z AUTO 00000KT 5SM BR SCT110 05/04 A3027 RMK AO2=
201010181013 SPECI KBLI 181013Z AUTO 00000KT 5SM BR SCT110 05/04 A3027 RMK AO2=
201010181005 SPECI KBLI 181005Z AUTO 00000KT 2 1/2SM BR BKN110 04/03 A3027 RMK AO2=
201010181005 SPECI KBLI 181005Z AUTO 00000KT 2 1/2SM BR BKN110 04/03 A3027 RMK AO2=
201010180953 METAR KBLI 180953Z AUTO 00000KT 1 1/4SM BR BKN110 05/03 A3026 RMK AO2 SLP256 T00500033=
201010180949 SPECI KBLI 180949Z AUTO 00000KT 1 3/4SM BR BKN120 05/04 A3026 RMK AO2=
201010180949 SPECI KBLI 180949Z AUTO 00000KT 1 3/4SM BR BKN120 05/04 A3026 RMK AO2=
201010180853 METAR KBLI 180853Z AUTO 00000KT 5SM BR FEW110 07/06 A3025 RMK AO2 SLP249 T00670056 58003=
201010180753 METAR KBLI 180753Z AUTO 00000KT 6SM BR CLR 07/06 A3025 RMK AO2 SLP249 T00720056 401441006=
201010180653 METAR KBLI 180653Z AUTO 00000KT 9SM CLR 07/05 A3026 RMK AO2 SLP256 T00670050=
201010180553 METAR KBLI 180553Z AUTO 00000KT 8SM CLR 06/04 A3026 RMK AO2 SLP253 T00610044 10122 20061 53013 TSNO=
201010180453 METAR KBLI 180453Z 00000KT 10SM CLR 07/05 A3024 RMK AO2 SLP248 T00670050=
201010180353 METAR KBLI 180353Z 00000KT 10SM CLR 07/05 A3022 RMK AO2 SLP243 T00670050=
201010180253 METAR KBLI 180253Z 00000KT 10SM CLR 07/05 A3022 RMK AO2 SLP242 T00670050 53000=
201010180153 METAR KBLI 180153Z 00000KT 10SM FU HZ CLR 08/06 A3021 RMK AO2 SLP241 T00780056=
201010180053 METAR KBLI 180053Z 00000KT 6SM FU HZ CLR 10/06 A3021 RMK AO2 SLP240 T01000061=
201010172353 METAR KBLI 172353Z 26003KT 5SM FU HZ CLR 12/06 A3022 RMK AO2 SLP240 T01220061 10144 20094 55013=
201010172253 METAR KBLI 172253Z 00000KT 10SM CLR 14/06 A3021 RMK AO2 SLP239 T01440056=
201010172153 METAR KBLI 172153Z 31003KT 10SM CLR 14/06 A3023 RMK AO2 SLP243 T01390056=
201010172053 METAR KBLI 172053Z 00000KT 10SM CLR 13/04 A3026 RMK AO2 SLP253 T01280044 58007=
201010171953 METAR KBLI 171953Z 32006KT 10SM CLR 12/05 A3027 RMK AO2 SLP257 T01220050=
201010171853 METAR KBLI 171853Z VRB05KT 10SM CLR 11/04 A3028 RMK AO2 SLP263 T01110039=
201010171753 METAR KBLI 171753Z 04003KT 10SM CLR 09/04 A3028 RMK AO2 SLP260 T00940039 10094 21006 50005=
201010171653 METAR KBLI 171653Z 00000KT 10SM CLR 07/03 A3028 RMK AO2 SLP262 T00670033=
201010171603 SPECI KBLI 171603Z 00000KT 10SM SCT003 02/01 A3027 RMK AO2=
201010171603 SPECI KBLI 171603Z 00000KT 10SM SCT003 02/01 A3027 RMK AO2=
201010171553 METAR KBLI 171553Z 00000KT 6SM BR BKN003 01/00 A3027 RMK AO2 SLP260 T00110000=
201010171536 SPECI KBLI 171536Z 00000KT 10SM BKN003 01/M01 A3027 RMK AO2=
201010171536 SPECI KBLI 171536Z 00000KT 10SM BKN003 01/M01 A3027 RMK AO2=
201010171453 METAR KBLI 171453Z 00000KT 10SM FEW005 00/M01 A3026 RMK AO2 SLP256 T00001011 53007=
201010171353 METAR KBLI 171353Z 00000KT 3SM BR CLR 00/M01 A3024 RMK AO2 SLP251 T00001011=
201010171253 METAR KBLI 171253Z AUTO 00000KT 10SM CLR 01/M01 A3024 RMK AO2 SLP250 T00061011 FZRANO=
201010171153 METAR KBLI 171153Z AUTO 00000KT 6SM BR CLR 01/M01 A3024 RMK AO2 SLP248 T00111006 10044 20006 51003 FZRANO=
201010171053 METAR KBLI 171053Z AUTO 00000KT 9SM CLR 01/M01 A3024 RMK AO2 SLP248 T00061011 FZRANO=
201010170953 METAR KBLI 170953Z AUTO 00000KT 10SM CLR 01/M01 A3024 RMK AO2 SLP248 T00111006 FZRANO=
201010170853 METAR KBLI 170853Z AUTO 00000KT 8SM CLR 02/01 A3023 RMK AO2 SLP245 T00220006 53004 FZRANO=
201010170839 SPECI KBLI 170839Z AUTO 00000KT 10SM FEW024 02/01 A3023 RMK AO2 FZRANO=
201010170839 SPECI KBLI 170839Z AUTO 00000KT 10SM FEW024 02/01 A3023 RMK AO2 FZRANO=
201010170816 SPECI KBLI 170816Z AUTO 00000KT 2 1/2SM R16/5000VP6000FT BR CLR 02/01 A3023 RMK AO2 VIS 1 1/4V5 FZRANO=
201010170816 SPECI KBLI 170816Z AUTO 00000KT 2 1/2SM R16/5000VP6000FT BR CLR 02/01 A3023 RMK AO2 VIS 1 1/4V5 FZRANO=
201010170753 METAR KBLI 170753Z AUTO 00000KT 10SM CLR 03/02 A3022 RMK AO2 SLP243 T00330017 401280006=
201010170712 SPECI KBLI 170712Z AUTO 00000KT 3SM BR CLR 04/02 A3022 RMK AO2=
201010170712 SPECI KBLI 170712Z AUTO 00000KT 3SM BR CLR 04/02 A3022 RMK AO2=
201010170707 SPECI KBLI 170707Z AUTO 00000KT 1 3/4SM BR CLR 04/02 A3022 RMK AO2 VIS 3/4V5=
201010170707 SPECI KBLI 170707Z AUTO 00000KT 1 3/4SM BR CLR 04/02 A3022 RMK AO2 VIS 3/4V5=
201010170700 SPECI KBLI 170700Z AUTO 00000KT 9SM CLR 03/02 A3022 RMK AO2=
201010170700 SPECI KBLI 170700Z AUTO 00000KT 9SM CLR 03/02 A3022 RMK AO2=
201010170653 METAR KBLI 170653Z AUTO 00000KT 2SM BR CLR 04/02 A3022 RMK AO2 SLP241 T00390017=
201010170651 SPECI KBLI 170651Z AUTO 00000KT 2SM BR CLR 04/02 A3022 RMK AO2=
201010170651 SPECI KBLI 170651Z AUTO 00000KT 2SM BR CLR 04/02 A3022 RMK AO2=
201010170553 METAR KBLI 170553Z AUTO 00000KT 5SM BR CLR 04/02 A3021 RMK AO2 SLP240 T00390022 10117 20033 51008=
201010170549 SPECI KBLI 170549Z AUTO 00000KT 6SM BR CLR 04/02 A3021 RMK AO2=
201010170549 SPECI KBLI 170549Z AUTO 00000KT 6SM BR CLR 04/02 A3021 RMK AO2=
201010170541 SPECI KBLI 170541Z AUTO 00000KT 2SM BR CLR 04/02 A3022 RMK AO2=
201010170541 SPECI KBLI 170541Z AUTO 00000KT 2SM BR CLR 04/02 A3022 RMK AO2=
201010170521 SPECI KBLI 170521Z 00000KT 7SM FEW090 04/03 A3021 RMK AO2=
201010170521 SPECI KBLI 170521Z 00000KT 7SM FEW090 04/03 A3021 RMK AO2=
201010170514 SPECI KBLI 170514Z 00000KT 1 1/2SM BR CLR 04/02 A3021 RMK AO2 VIS 1/2V5=
201010170514 SPECI KBLI 170514Z 00000KT 1 1/2SM BR CLR 04/02 A3021 RMK AO2 VIS 1/2V5=
201010170453 METAR KBLI 170453Z 00000KT 7SM CLR 05/03 A3020 RMK AO2 SLP236 T00500033=
201010170353 METAR KBLI 170353Z 00000KT 10SM CLR 06/04 A3019 RMK AO2 SLP232 T00560039=
201010170253 METAR KBLI 170253Z 00000KT 10SM CLR 06/04 A3019 RMK AO2 SLP232 T00610044 53001=
201010170153 METAR KBLI 170153Z 00000KT 10SM CLR 07/05 A3018 RMK AO2 SLP229 T00720050=
201010170053 METAR KBLI 170053Z 00000KT 10SM CLR 10/06 A3018 RMK AO2 SLP228 T01000061=
201010162353 METAR KBLI 162353Z 00000KT 10SM CLR 12/06 A3018 RMK AO2 SLP229 T01170061 10128 20089 58003=
201010162253 METAR KBLI 162253Z 29005KT 10SM CLR 12/05 A3019 RMK AO2 SLP232 T01220050=
201010162153 METAR KBLI 162153Z 27003KT 10SM CLR 12/04 A3019 RMK AO2 SLP231 T01220039=
201010162053 METAR KBLI 162053Z VRB05KT 10SM CLR 12/04 A3019 RMK AO2 SLP232 T01220044 58009=
201010161953 METAR KBLI 161953Z 30005KT 10SM CLR 12/05 A3021 RMK AO2 SLP237 T01220050=
201010161853 METAR KBLI 161853Z 36004KT 10SM CLR 11/04 A3022 RMK AO2 SLP240 T01110039=
201010161753 METAR KBLI 161753Z 36006KT 10SM CLR 08/03 A3022 RMK AO2 SLP241 T00830033 10089 20006 51003=
201010161653 METAR KBLI 161653Z 35004KT 10SM CLR 07/03 A3022 RMK AO2 SLP240 T00670033=
201010161553 METAR KBLI 161553Z 00000KT 10SM CLR 04/03 A3021 RMK AO2 SLP240 T00440028=
201010161507 SPECI KBLI 161507Z 00000KT 10SM R16/5000VP6000FT CLR 02/00 A3021 RMK AO2=
201010161507 SPECI KBLI 161507Z 00000KT 10SM R16/5000VP6000FT CLR 02/00 A3021 RMK AO2=
201010161500 SPECI KBLI 161500Z 00000KT 1 3/4SM R16/2800VP6000FT BR CLR 02/00 A3021 RMK AO2 VIS 1/4V5=
201010161500 SPECI KBLI 161500Z 00000KT 1 3/4SM R16/2800VP6000FT BR CLR 02/00 A3021 RMK AO2 VIS 1/4V5=
201010161453 METAR KBLI 161453Z 00000KT 10SM R16/6000VP6000FT CLR 01/00 A3021 RMK AO2 SLP239 T00110000 55000=
201010161427 SPECI KBLI 161427Z 00000KT 10SM CLR 02/00 A3021 RMK AO2=
201010161427 SPECI KBLI 161427Z 00000KT 10SM CLR 02/00 A3021 RMK AO2=
201010161419 SPECI KBLI 161419Z 00000KT 1 3/4SM BR CLR 02/M01 A3021 RMK AO2 VIS 1V5=
201010161419 SPECI KBLI 161419Z 00000KT 1 3/4SM BR CLR 02/M01 A3021 RMK AO2 VIS 1V5=
201010161353 METAR KBLI 161353Z AUTO 00000KT 9SM CLR 01/M01 A3021 RMK AO2 SLP238 T00111006 FZRANO=
201010161253 METAR KBLI 161253Z AUTO 00000KT 9SM CLR 02/01 A3020 RMK AO2 SLP237 T00170006 FZRANO=
201010161245 SPECI KBLI 161245Z AUTO 00000KT 3SM BR CLR 02/01 A3020 RMK AO2 FZRANO=
201010161245 SPECI KBLI 161245Z AUTO 00000KT 3SM BR CLR 02/01 A3020 RMK AO2 FZRANO=
201010161232 SPECI KBLI 161232Z AUTO 00000KT 1 3/4SM BR CLR 02/01 A3021 RMK AO2 VIS 1V4 FZRANO=
201010161232 SPECI KBLI 161232Z AUTO 00000KT 1 3/4SM BR CLR 02/01 A3021 RMK AO2 VIS 1V4 FZRANO=
201010161153 METAR KBLI 161153Z AUTO 00000KT 9SM CLR 03/01 A3021 RMK AO2 SLP238 T00280011 10044 20017 56008=
201010161053 METAR KBLI 161053Z AUTO 35003KT 7SM CLR 03/02 A3021 RMK AO2 SLP239 T00330017=
201010160953 METAR KBLI 160953Z AUTO 00000KT 10SM CLR 03/02 A3023 RMK AO2 SLP243 T00330017=
201010160853 METAR KBLI 160853Z AUTO 35003KT 9SM CLR 03/01 A3023 RMK AO2 SLP246 T00280011 56014=
201010160753 METAR KBLI 160753Z AUTO 00000KT 10SM CLR 03/01 A3024 RMK AO2 SLP249 T00280011 401330028=
201010160653 METAR KBLI 160653Z AUTO 33003KT 10SM CLR 04/02 A3026 RMK AO2 SLP254 T00390022=
201010160553 METAR KBLI 160553Z AUTO 00000KT 10SM CLR 04/02 A3028 RMK AO2 SLP260 T00390022 10122 20039 56014=
201010160453 METAR KBLI 160453Z 00000KT 10SM CLR 05/03 A3028 RMK AO2 SLP263 T00500028=
201010160353 METAR KBLI 160353Z 00000KT 10SM CLR 05/02 A3029 RMK AO2 SLP267 T00500022=
201010160253 METAR KBLI 160253Z 00000KT 10SM CLR 05/02 A3032 RMK AO2 SLP276 T00500022 56010=
201010160153 METAR KBLI 160153Z 00000KT 10SM CLR 06/03 A3033 RMK AO2 SLP278 T00610033=
201010160053 METAR KBLI 160053Z 31003KT 10SM CLR 09/04 A3033 RMK AO2 SLP279 T00940039=
201010152353 METAR KBLI 152353Z 29004KT 10SM CLR 12/01 A3035 RMK AO2 SLP284 T01220006 10133 20111 56006=
201010152253 METAR KBLI 152253Z VRB05KT 10SM CLR 13/01 A3035 RMK AO2 SLP286 T01280011=
201010152153 METAR KBLI 152153Z 27005KT 10SM CLR 13/02 A3036 RMK AO2 SLP288 T01280022=
201010152053 METAR KBLI 152053Z 27005KT 10SM CLR 12/03 A3037 RMK AO2 SLP291 T01220028 50001=
201010151953 METAR KBLI 151953Z 00000KT 10SM CLR 12/04 A3037 RMK AO2 SLP292 T01220044=
201010151853 METAR KBLI 151853Z 29005KT 10SM SCT024 13/03 A3037 RMK AO2 SLP291 T01280028=
201010151822 SPECI KBLI 151822Z 00000KT 10SM SCT024 12/04 A3037 RMK AO2=
201010151822 SPECI KBLI 151822Z 00000KT 10SM SCT024 12/04 A3037 RMK AO2=
201010151815 SPECI KBLI 151815Z 31004KT 10SM BKN024 12/05 A3037 RMK AO2=
201010151815 SPECI KBLI 151815Z 31004KT 10SM BKN024 12/05 A3037 RMK AO2=
201010151753 METAR KBLI 151753Z 00000KT 10SM CLR 11/05 A3037 RMK AO2 SLP290 T01110050 10117 20044 50016=
201010151653 METAR KBLI 151653Z VRB03KT 10SM CLR 11/06 A3037 RMK AO2 SLP291 T01060061=
201010151553 METAR KBLI 151553Z 16004KT 10SM CLR 09/05 A3034 RMK AO2 SLP281 T00890050=
201010151453 METAR KBLI 151453Z 00000KT 10SM CLR 05/04 A3032 RMK AO2 SLP275 T00500039 53017=
201010151353 METAR KBLI 151353Z AUTO 00000KT 10SM CLR 06/04 A3030 RMK AO2 SLP268 T00560044 TSNO=
201010151253 METAR KBLI 151253Z AUTO 16005KT 10SM SCT042 BKN055 07/05 A3029 RMK AO2 SLP265 T00670050 TSNO=
201010151153 METAR KBLI 151153Z AUTO 00000KT 10SM OVC055 07/06 A3027 RMK AO2 SLP257 T00720056 10111 20072 53018 TSNO=
201010151053 METAR KBLI 151053Z AUTO 16003KT 10SM BKN031 07/06 A3025 RMK AO2 SLP251 T00720056 TSNO=
201010150953 METAR KBLI 150953Z AUTO 18004KT 10SM SCT060 09/06 A3023 RMK AO2 SLP245 T00890056 TSNO=
201010150853 METAR KBLI 150853Z AUTO 17004KT 10SM SCT055 BKN065 OVC110 11/06 A3022 RMK AO2 SLP240 T01060056 53016 TSNO=
201010150753 METAR KBLI 150753Z AUTO 17005KT 10SM BKN075 OVC095 11/07 A3020 RMK AO2 SLP233 T01060067 401390056 TSNO=
201010150653 METAR KBLI 150653Z AUTO 17006KT 10SM SCT055 BKN075 OVC100 11/06 A3019 RMK AO2 SLP229 T01110056 TSNO=
201010150553 METAR KBLI 150553Z AUTO 17005KT 10SM BKN049 OVC110 10/06 A3017 RMK AO2 SLP224 T01000056 10128 20089 53017 TSNO=
201010150453 METAR KBLI 150453Z 17004KT 10SM CLR 11/06 A3015 RMK AO2 SLP217 T01060061=
201010150353 METAR KBLI 150353Z 20004KT 10SM CLR 11/07 A3014 RMK AO2 SLP212 T01110067=
201010150253 METAR KBLI 150253Z 18004KT 10SM FEW039 12/07 A3012 RMK AO2 SLP208 T01170072 53006=
201010150153 METAR KBLI 150153Z 16004KT 10SM SCT080 12/07 A3011 RMK AO2 SLP204 T01170072=
201010150053 METAR KBLI 150053Z 19005KT 10SM SCT080 12/07 A3010 RMK AO2 SLP202 T01220072=
201010142353 METAR KBLI 142353Z 19008KT 10SM FEW019 OVC065 13/08 A3010 RMK AO2 SLP202 60000 T01280083 10133 20128 53001=
201010142253 METAR KBLI 142253Z 17007KT 10SM OVC060 13/10 A3009 RMK AO2 SLP195 T01330100=
201010142153 METAR KBLI 142153Z 18005KT 10SM BKN036 OVC050 13/10 A3010 RMK AO2 RAE25 SLP200 P0000 T01330100=
201010142053 METAR KBLI 142053Z 19005KT 10SM -RA BKN043 OVC080 13/10 A3010 RMK AO2 RAB51 SLP200 P0000 60000 T01330100 58002=
201010141953 METAR KBLI 141953Z 18005KT 10SM OVC080 13/09 A3010 RMK AO2 SLP201 T01280094=
201010141853 METAR KBLI 141853Z 19007KT 10SM BKN090 13/09 A3010 RMK AO2 SLP200 T01280094=
201010141753 METAR KBLI 141753Z 19007KT 10SM OVC090 13/09 A3011 RMK AO2 SLP201 T01280089 10139 20056 53009=
201010141653 METAR KBLI 141653Z 17008KT 10SM BKN095 13/08 A3009 RMK AO2 SLP197 T01330083=
201010141553 METAR KBLI 141553Z 18009G14KT 10SM OVC095 12/08 A3008 RMK AO2 SLP194 T01220083=
201010141453 METAR KBLI 141453Z 00000KT 10SM CLR 07/06 A3008 RMK AO2 SLP194 T00670056 53001=
201010141353 METAR KBLI 141353Z 00000KT 10SM SCT110 06/04 A3007 RMK AO2 SLP191 T00610044=
201010141253 METAR KBLI 141253Z AUTO 00000KT 10SM SCT120 06/04 A3006 RMK AO2 SLP186 T00610044=
201010141153 METAR KBLI 141153Z AUTO 00000KT 8SM CLR 06/04 A3008 RMK AO2 SLP192 T00610044 10083 20056 51006=
201010141053 METAR KBLI 141053Z AUTO 00000KT 10SM CLR 06/04 A3007 RMK AO2 SLP191 T00610044=
201010140953 METAR KBLI 140953Z AUTO 00000KT 10SM CLR 07/05 A3007 RMK AO2 SLP188 T00670050=
201010140853 METAR KBLI 140853Z AUTO 00000KT 8SM CLR 07/05 A3006 RMK AO2 SLP186 T00670050 58001=
201010140753 METAR KBLI 140753Z AUTO 00000KT 10SM CLR 07/06 A3006 RMK AO2 SLP186 T00720056 401890044=
201010140653 METAR KBLI 140653Z AUTO 00000KT 9SM CLR 07/06 A3007 RMK AO2 SLP190 T00720056=
201010140624 SPECI KBLI 140624Z AUTO 00000KT 8SM CLR 07/06 A3007 RMK AO2=
201010140624 SPECI KBLI 140624Z AUTO 00000KT 8SM CLR 07/06 A3007 RMK AO2=
201010140617 SPECI KBLI 140617Z AUTO 00000KT 2 1/2SM BR CLR 08/06 A3006 RMK AO2 VIS 1V5=
201010140617 SPECI KBLI 140617Z AUTO 00000KT 2 1/2SM BR CLR 08/06 A3006 RMK AO2 VIS 1V5=
201010140553 METAR KBLI 140553Z AUTO 00000KT 10SM CLR 08/07 A3006 RMK AO2 SLP186 T00830072 10167 20083 53007=
201010140453 METAR KBLI 140453Z 00000KT 10SM CLR 10/08 A3004 RMK AO2 SLP179 T01000083=
201010140353 METAR KBLI 140353Z 00000KT 10SM CLR 09/07 A3004 RMK AO2 SLP181 T00890072=
201010140253 METAR KBLI 140253Z 00000KT 10SM CLR 09/08 A3004 RMK AO2 SLP181 T00940078 53003=
201010140153 METAR KBLI 140153Z 18003KT 10SM CLR 11/08 A3004 RMK AO2 SLP180 T01110083=
201010140053 METAR KBLI 140053Z 00000KT 10SM CLR 14/09 A3003 RMK AO2 SLP176 T01390089=
201010132353 METAR KBLI 132353Z 00000KT 10SM CLR 17/10 A3003 RMK AO2 SLP176 T01670100 10189 20128 56013=
201010132253 METAR KBLI 132253Z 28004KT 10SM CLR 18/10 A3004 RMK AO2 SLP179 T01830100=
201010132153 METAR KBLI 132153Z 28003KT 10SM CLR 18/09 A3005 RMK AO2 SLP182 T01780094=
201010132053 METAR KBLI 132053Z 29003KT 10SM CLR 18/07 A3007 RMK AO2 SLP190 T01780067 58023=
201010131953 METAR KBLI 131953Z 00000KT 10SM CLR 16/07 A3010 RMK AO2 SLP198 T01610072=
201010131853 METAR KBLI 131853Z 35004KT 10SM CLR 15/08 A3012 RMK AO2 SLP206 T01500083=
201010131753 METAR KBLI 131753Z 01003KT 10SM CLR 13/08 A3014 RMK AO2 SLP213 T01280078 10128 20044 58010=
201010131653 METAR KBLI 131653Z 00000KT 10SM CLR 10/07 A3016 RMK AO2 SLP220 T01000072=
201010131553 METAR KBLI 131553Z 00000KT 10SM CLR 07/06 A3016 RMK AO2 SLP221 T00720056=
201010131453 METAR KBLI 131453Z 00000KT 10SM R16/4500VP6000FT CLR 05/03 A3017 RMK AO2 SLP224 T00500033 56006=
201010131353 METAR KBLI 131353Z 00000KT 10SM CLR 06/04 A3017 RMK AO2 SLP225 T00560039=
201010131350 SPECI KBLI 131350Z 00000KT 10SM CLR 06/04 A3017 RMK AO2=
201010131350 SPECI KBLI 131350Z 00000KT 10SM CLR 06/04 A3017 RMK AO2=
201010131348 SPECI KBLI 131348Z AUTO 00000KT 1 3/4SM BR FEW001 06/04 A3017 RMK AO2=
201010131348 SPECI KBLI 131348Z AUTO 00000KT 1 3/4SM BR FEW001 06/04 A3017 RMK AO2=
201010131341 SPECI KBLI 131341Z AUTO 00000KT 2SM R16/3000VP6000FT BR FEW001 04/04 A3018 RMK AO2=
201010131341 SPECI KBLI 131341Z AUTO 00000KT 2SM R16/3000VP6000FT BR FEW001 04/04 A3018 RMK AO2=
201010131253 METAR KBLI 131253Z AUTO 00000KT 10SM CLR 06/04 A3019 RMK AO2 SLP229 T00610044=
201010131238 SPECI KBLI 131238Z AUTO 00000KT 6SM BR CLR 06/04 A3019 RMK AO2=
201010131238 SPECI KBLI 131238Z AUTO 00000KT 6SM BR CLR 06/04 A3019 RMK AO2=
201010131218 SPECI KBLI 131218Z AUTO 36003KT 2 1/2SM BR CLR 06/04 A3020 RMK AO2 VIS 1V5=
201010131218 SPECI KBLI 131218Z AUTO 36003KT 2 1/2SM BR CLR 06/04 A3020 RMK AO2 VIS 1V5=
201010131200 SPECI KBLI 131200Z AUTO 00000KT 10SM CLR 06/04 A3020 RMK AO2=
201010131200 SPECI KBLI 131200Z AUTO 00000KT 10SM CLR 06/04 A3020 RMK AO2=
201010131153 METAR KBLI 131153Z AUTO 00000KT 2 1/2SM BR CLR 06/05 A3020 RMK AO2 SLP233 60001 70001 T00610050 10083 20050 57017=
201010131139 SPECI KBLI 131139Z AUTO 33003KT 3SM BR CLR 07/06 A3021 RMK AO2=
201010131139 SPECI KBLI 131139Z AUTO 33003KT 3SM BR CLR 07/06 A3021 RMK AO2=
201010131120 SPECI KBLI 131120Z AUTO 00000KT 1 3/4SM BR CLR 07/06 A3021 RMK AO2=
201010131120 SPECI KBLI 131120Z AUTO 00000KT 1 3/4SM BR CLR 07/06 A3021 RMK AO2=
201010131111 SPECI KBLI 131111Z AUTO 00000KT 3SM BR CLR 07/06 A3021 RMK AO2=
201010131111 SPECI KBLI 131111Z AUTO 00000KT 3SM BR CLR 07/06 A3021 RMK AO2=
201010131103 SPECI KBLI 131103Z AUTO 00000KT 1 3/4SM BR CLR 06/05 A3022 RMK AO2 VIS 1V5=
201010131103 SPECI KBLI 131103Z AUTO 00000KT 1 3/4SM BR CLR 06/05 A3022 RMK AO2 VIS 1V5=
201010131053 METAR KBLI 131053Z AUTO 36004KT 3SM BR CLR 06/06 A3022 RMK AO2 SLP240 P0001 T00610056=
201010131041 SPECI KBLI 131041Z AUTO 35003KT 4SM BR CLR 07/06 A3022 RMK AO2 P0001=
201010131041 SPECI KBLI 131041Z AUTO 35003KT 4SM BR CLR 07/06 A3022 RMK AO2 P0001=
201010131016 SPECI KBLI 131016Z AUTO 00000KT 1 3/4SM BR CLR 06/06 A3022 RMK AO2 P0001=
201010131016 SPECI KBLI 131016Z AUTO 00000KT 1 3/4SM BR CLR 06/06 A3022 RMK AO2 P0001=
201010131002 SPECI KBLI 131002Z AUTO 36003KT 7SM CLR 07/06 A3023 RMK AO2=
201010131002 SPECI KBLI 131002Z AUTO 36003KT 7SM CLR 07/06 A3023 RMK AO2=
201010130953 METAR KBLI 130953Z AUTO 35004KT 2 1/2SM BR CLR 07/06 A3023 RMK AO2 VIS 1 1/2V5 SLP244 T00670056=
201010130937 SPECI KBLI 130937Z AUTO 00000KT 3SM BR CLR 07/06 A3024 RMK AO2=
201010130937 SPECI KBLI 130937Z AUTO 00000KT 3SM BR CLR 07/06 A3024 RMK AO2=
201010130917 SPECI KBLI 130917Z AUTO 00000KT 1 3/4SM BR FEW008 07/06 A3024 RMK AO2=
201010130917 SPECI KBLI 130917Z AUTO 00000KT 1 3/4SM BR FEW008 07/06 A3024 RMK AO2=
201010130909 SPECI KBLI 130909Z AUTO 35003KT 3SM BR SCT008 07/06 A3024 RMK AO2=
201010130909 SPECI KBLI 130909Z AUTO 35003KT 3SM BR SCT008 07/06 A3024 RMK AO2=
201010130905 SPECI KBLI 130905Z AUTO 35003KT 1 1/2SM R16/6000VP6000FT BR SCT008 08/06 A3025 RMK AO2=
201010130905 SPECI KBLI 130905Z AUTO 35003KT 1 1/2SM R16/6000VP6000FT BR SCT008 08/06 A3025 RMK AO2=
201010130853 METAR KBLI 130853Z AUTO 00000KT 3/4SM R16/3000VP6000FT BR FEW002 OVC008 07/06 A3025 RMK AO2 SLP251 T00720061 56013=
201010130829 SPECI KBLI 130829Z AUTO 01003KT 1/2SM R16/1600V4000FT FG BKN008 07/06 A3025 RMK AO2=
201010130829 SPECI KBLI 130829Z AUTO 01003KT 1/2SM R16/1600V4000FT FG BKN008 07/06 A3025 RMK AO2=
201010130817 SPECI KBLI 130817Z AUTO 33003KT 1/2SM R16/1200V1800FT FG FEW002 BKN008 08/07 A3026 RMK AO2=
201010130817 SPECI KBLI 130817Z AUTO 33003KT 1/2SM R16/1200V1800FT FG FEW002 BKN008 08/07 A3026 RMK AO2=
201010130812 SPECI KBLI 130812Z AUTO 35003KT 3/4SM R16/1200VP6000FT BR FEW002 SCT008 07/06 A3026 RMK AO2=
201010130812 SPECI KBLI 130812Z AUTO 35003KT 3/4SM R16/1200VP6000FT BR FEW002 SCT008 07/06 A3026 RMK AO2=
201010130804 SPECI KBLI 130804Z AUTO 00000KT 2 1/2SM R16/3500VP6000FT BR FEW009 08/07 A3026 RMK AO2=
201010130804 SPECI KBLI 130804Z AUTO 00000KT 2 1/2SM R16/3500VP6000FT BR FEW009 08/07 A3026 RMK AO2=
201010130753 METAR KBLI 130753Z AUTO 00000KT 1SM R16/2400VP6000FT BR VV008 08/07 A3026 RMK AO2 SLP254 T00780067 401670072=
201010130749 SPECI KBLI 130749Z AUTO 00000KT 1 1/2SM BR FEW008 07/06 A3026 RMK AO2 401670072=
201010130749 SPECI KBLI 130749Z AUTO 00000KT 1 1/2SM BR FEW008 07/06 A3026 RMK AO2 401670072=
201010130746 SPECI KBLI 130746Z AUTO 00000KT 4SM BR FEW008 07/07 A3026 RMK AO2=
201010130746 SPECI KBLI 130746Z AUTO 00000KT 4SM BR FEW008 07/07 A3026 RMK AO2=
201010130739 SPECI KBLI 130739Z AUTO 01003KT 2SM BR FEW008 07/07 A3027 RMK AO2=
201010130739 SPECI KBLI 130739Z AUTO 01003KT 2SM BR FEW008 07/07 A3027 RMK AO2=
201010130726 SPECI KBLI 130726Z AUTO 00000KT 1SM R16/2200VP6000FT BR VV009 08/07 A3026 RMK AO2=
201010130726 SPECI KBLI 130726Z AUTO 00000KT 1SM R16/2200VP6000FT BR VV009 08/07 A3026 RMK AO2=
201010130718 SPECI KBLI 130718Z AUTO 36003KT 2 1/2SM BR FEW009 07/06 A3026 RMK AO2=
201010130718 SPECI KBLI 130718Z AUTO 36003KT 2 1/2SM BR FEW009 07/06 A3026 RMK AO2=
201010130709 SPECI KBLI 130709Z AUTO 36003KT 1 3/4SM BR CLR 08/07 A3026 RMK AO2 VIS 3/4V5=
201010130709 SPECI KBLI 130709Z AUTO 36003KT 1 3/4SM BR CLR 08/07 A3026 RMK AO2 VIS 3/4V5=
201010130653 METAR KBLI 130653Z AUTO 34004KT 6SM BR FEW001 SCT010 08/07 A3027 RMK AO2 SLP258 T00780072=
201010130649 SPECI KBLI 130649Z AUTO 33003KT 3SM R16/2600VP6000FT BR FEW001 SCT010 08/07 A3027 RMK AO2=
201010130649 SPECI KBLI 130649Z AUTO 33003KT 3SM R16/2600VP6000FT BR FEW001 SCT010 08/07 A3027 RMK AO2=
201010130641 SPECI KBLI 130641Z AUTO 00000KT 1SM R16/2000V3000FT BR SCT001 BKN010 08/07 A3028 RMK AO2=
201010130641 SPECI KBLI 130641Z AUTO 00000KT 1SM R16/2000V3000FT BR SCT001 BKN010 08/07 A3028 RMK AO2=
201010130625 SPECI KBLI 130625Z AUTO 00000KT 1/2SM R16/2200VP6000FT FG SCT001 BKN010 08/07 A3028 RMK AO2=
201010130625 SPECI KBLI 130625Z AUTO 00000KT 1/2SM R16/2200VP6000FT FG SCT001 BKN010 08/07 A3028 RMK AO2=
201010130622 SPECI KBLI 130622Z AUTO 00000KT 1SM R16/2600VP6000FT BR SCT001 BKN010 08/07 A3028 RMK AO2=
201010130622 SPECI KBLI 130622Z AUTO 00000KT 1SM R16/2600VP6000FT BR SCT001 BKN010 08/07 A3028 RMK AO2=
201010130620 SPECI KBLI 130620Z AUTO 00000KT 2 1/2SM R16/3000VP6000FT BR SCT001 SCT010 08/07 A3028 RMK AO2=
201010130620 SPECI KBLI 130620Z AUTO 00000KT 2 1/2SM R16/3000VP6000FT BR SCT001 SCT010 08/07 A3028 RMK AO2=
201010130603 SPECI KBLI 130603Z AUTO 36003KT 3SM BR CLR 08/07 A3028 RMK AO2=
201010130603 SPECI KBLI 130603Z AUTO 36003KT 3SM BR CLR 08/07 A3028 RMK AO2=
201010130600 SPECI KBLI 130600Z AUTO 35003KT 1 3/4SM BR CLR 08/07 A3029 RMK AO2=
201010130600 SPECI KBLI 130600Z AUTO 35003KT 1 3/4SM BR CLR 08/07 A3029 RMK AO2=
201010130553 METAR KBLI 130553Z AUTO 36003KT 2SM BR CLR 08/07 A3029 RMK AO2 SLP264 T00780072 10150 20078 56003=
201010130549 SPECI KBLI 130549Z AUTO 00000KT 2SM BR CLR 09/08 A3029 RMK AO2=
201010130549 SPECI KBLI 130549Z AUTO 00000KT 2SM BR CLR 09/08 A3029 RMK AO2=
201010130453 METAR KBLI 130453Z 00000KT 7SM CLR 09/08 A3029 RMK AO2 SLP264 T00940078=
201010130353 METAR KBLI 130353Z 00000KT 10SM CLR 10/09 A3030 RMK AO2 SLP268 T01000089=
201010130253 METAR KBLI 130253Z 00000KT 10SM CLR 11/09 A3029 RMK AO2 SLP266 T01060094 56005=
201010130153 METAR KBLI 130153Z 00000KT 10SM CLR 12/10 A3030 RMK AO2 SLP267 T01170100=
201010130053 METAR KBLI 130053Z 00000KT 10SM CLR 13/11 A3031 RMK AO2 SLP270 T01330111=
201010122353 METAR KBLI 122353Z 00000KT 10SM CLR 15/10 A3031 RMK AO2 SLP271 T01500100 10167 20128 56012=
201010122253 METAR KBLI 122253Z 17003KT 10SM CLR 15/11 A3032 RMK AO2 SLP274 T01500106=
201010122153 METAR KBLI 122153Z 30003KT 10SM CLR 16/09 A3033 RMK AO2 SLP277 T01610094=
201010122053 METAR KBLI 122053Z 34003KT 10SM CLR 16/09 A3035 RMK AO2 SLP284 T01560094 58007=
201010121953 METAR KBLI 121953Z 36005KT 10SM CLR 16/09 A3036 RMK AO2 SLP289 T01560094=
201010121853 METAR KBLI 121853Z 04004KT 10SM CLR 14/09 A3037 RMK AO2 SLP292 T01440089=
201010121753 METAR KBLI 121753Z 01005KT 10SM CLR 13/09 A3037 RMK AO2 SLP291 T01280089 10128 20083 53002=
201010121653 METAR KBLI 121653Z 03006KT 10SM CLR 11/09 A3037 RMK AO2 SLP290 T01110089=
201010121553 METAR KBLI 121553Z 36004KT 10SM CLR 10/08 A3036 RMK AO2 SLP288 T01000083=
201010121453 METAR KBLI 121453Z 01003KT 10SM CLR 09/08 A3036 RMK AO2 SLP289 T00940078 58003=
201010121353 METAR KBLI 121353Z 34003KT 10SM FEW060 09/07 A3037 RMK AO2 SLP292 T00890072=
201010121253 METAR KBLI 121253Z AUTO 00000KT 10SM OVC075 11/09 A3038 RMK AO2 SLP294 T01060089=
201010121153 METAR KBLI 121153Z AUTO 32003KT 10SM OVC060 11/09 A3037 RMK AO2 SLP292 60001 70004 T01060089 10133 20106 58014=
201010121053 METAR KBLI 121053Z AUTO 00000KT 10SM OVC055 11/09 A3038 RMK AO2 SLP294 T01060094=
201010120953 METAR KBLI 120953Z AUTO 00000KT 10SM OVC055 11/09 A3041 RMK AO2 SLP304 T01110094=
201010120853 METAR KBLI 120853Z AUTO 11003KT 10SM OVC045 12/09 A3041 RMK AO2 RAE02 SLP306 P0000 60001 T01170089 50003=
201010120753 METAR KBLI 120753Z AUTO 12004KT 10SM -RA OVC041 12/09 A3042 RMK AO2 RAB0657 SLP307 P0001 T01170089 401440078=
201010120653 METAR KBLI 120653Z AUTO 17009G17KT 10SM SCT038 BKN055 OVC065 13/07 A3041 RMK AO2 RAB40E51 SLP306 P0000 T01330072=
201010120553 METAR KBLI 120553Z AUTO 15007KT 10SM OVC038 13/08 A3040 RMK AO2 SLP302 60003 T01280078 10139 20128 50004=
201010120453 METAR KBLI 120453Z 16011G17KT 10SM OVC038 13/08 A3041 RMK AO2 RAB43E52 SLP304 P0000 T01330078=
201010120353 METAR KBLI 120353Z 15011G17KT 10SM OVC040 13/08 A3040 RMK AO2 RAE51 SLP302 P0002 T01280078=
201010120253 METAR KBLI 120253Z 15009KT 10SM -RA OVC042 14/07 A3039 RMK AO2 SLP298 P0000 60001 T01390067 55001=
201010120153 METAR KBLI 120153Z 17004KT 10SM -RA OVC050 13/08 A3039 RMK AO2 RAB17 SLP297 P0001 T01280078=
201010120053 METAR KBLI 120053Z 17008KT 10SM OVC060 13/08 A3038 RMK AO2 RAB10E19 SLP295 P0000 T01330078=
201010112353 METAR KBLI 112353Z 16012G17KT 10SM OVC060 13/08 A3039 RMK AO2 SLP299 T01330083 10144 20128 55005=
201010112253 METAR KBLI 112253Z 17007KT 10SM OVC060 14/07 A3039 RMK AO2 SLP298 T01390072=
201010112153 METAR KBLI 112153Z 18009G14KT 10SM BKN085 14/08 A3040 RMK AO2 SLP300 T01440078=
201010112053 METAR KBLI 112053Z 17008G15KT 10SM SCT095 14/08 A3041 RMK AO2 SLP304 T01440078 58005=
201010111953 METAR KBLI 111953Z 17008G14KT 10SM CLR 14/08 A3042 RMK AO2 SLP308 T01390083=
201010111853 METAR KBLI 111853Z 16012G18KT 10SM CLR 13/07 A3043 RMK AO2 SLP313 T01330072=
201010111753 METAR KBLI 111753Z 16011KT 10SM SCT034 13/07 A3042 RMK AO2 SLP310 T01280072 10128 20078 51010=
201010111653 METAR KBLI 111653Z 17008KT 10SM CLR 12/08 A3042 RMK AO2 SLP308 T01220078=
201010111553 METAR KBLI 111553Z 16009KT 10SM FEW016 11/07 A3041 RMK AO2 SLP305 T01110072=
201010111453 METAR KBLI 111453Z 15008KT 10SM FEW013 10/07 A3040 RMK AO2 SLP300 T01000072 52016=
201010111353 METAR KBLI 111353Z 16006KT 10SM SCT045 09/06 A3038 RMK AO2 SLP295 T00940061=
201010111253 METAR KBLI 111253Z AUTO 00000KT 10SM SCT048 09/07 A3036 RMK AO2 SLP288 T00890067=
201010111153 METAR KBLI 111153Z AUTO 00000KT 10SM BKN050 BKN065 09/07 A3035 RMK AO2 SLP284 70005 T00890072 10106 20078 53010=
201010111053 METAR KBLI 111053Z AUTO 00000KT 10SM SCT055 BKN075 09/07 A3033 RMK AO2 SLP279 T00890072=
201010110953 METAR KBLI 110953Z AUTO 00000KT 10SM BKN055 OVC070 10/07 A3033 RMK AO2 SLP278 T01000072=
201010110853 METAR KBLI 110853Z AUTO 17003KT 10SM BKN055 OVC075 11/07 A3032 RMK AO2 SLP274 T01060067 53012=
201010110753 METAR KBLI 110753Z AUTO 17003KT 10SM FEW060 08/06 A3030 RMK AO2 SLP268 T00830061 401780078=
201010110653 METAR KBLI 110653Z AUTO 16003KT 10SM FEW060 08/06 A3029 RMK AO2 SLP265 T00830061=
201010110553 METAR KBLI 110553Z AUTO 14004KT 10SM CLR 10/07 A3028 RMK AO2 SLP262 T01000067 10156 20094 51011=
201010110453 METAR KBLI 110453Z 18004KT 10SM BKN070 11/08 A3028 RMK AO2 SLP260 T01110078=
201010110353 METAR KBLI 110353Z 19004KT 10SM BKN070 12/08 A3026 RMK AO2 SLP255 T01170083=
201010110253 METAR KBLI 110253Z 00000KT 10SM CLR 11/08 A3025 RMK AO2 SLP251 T01110083 53003=
201010110153 METAR KBLI 110153Z 17004KT 10SM CLR 13/08 A3024 RMK AO2 SLP247 T01280083=
201010110053 METAR KBLI 110053Z 18004KT 10SM CLR 14/08 A3024 RMK AO2 SLP245 T01440078=
201010102353 METAR KBLI 102353Z 17006KT 10SM CLR 16/08 A3024 RMK AO2 SLP247 T01560078 10167 20139 56002=
201010102253 METAR KBLI 102253Z 17004KT 10SM R16/6000VP6000FT CLR 17/07 A3024 RMK AO2 SLP248 T01670067=
201010102153 METAR KBLI 102153Z 17007KT 10SM CLR 17/08 A3025 RMK AO2 SLP248 T01670078=
201010102053 METAR KBLI 102053Z 18005KT 10SM FEW032 16/08 A3025 RMK AO2 SLP249 T01610078 50001=
201010101953 METAR KBLI 101953Z 17006KT 10SM CLR 15/09 A3025 RMK AO2 SLP250 T01500094=
201010101853 METAR KBLI 101853Z 17006KT 10SM CLR 14/09 A3025 RMK AO2 SLP250 T01440094=
201010101753 METAR KBLI 101753Z 16008KT 10SM BKN090 14/10 A3025 RMK AO2 SLP249 60005 T01390100 10150 20122 51026=
201010101653 METAR KBLI 101653Z 15007KT 10SM SCT045 OVC090 14/11 A3024 RMK AO2 SLP245 T01390106=
201010101553 METAR KBLI 101553Z 21003KT 10SM FEW040 OVC090 12/11 A3020 RMK AO2 SLP234 T01220111=
201010101453 METAR KBLI 101453Z 00000KT 10SM FEW032 12/11 A3017 RMK AO2 RAB11E20 SLP222 P0000 60005 T01220106 53024=
201010101353 METAR KBLI 101353Z 17004KT 10SM FEW065 13/09 A3014 RMK AO2 SLP213 T01330094=
201010101253 METAR KBLI 101253Z AUTO 00000KT 10SM FEW039 OVC120 13/10 A3011 RMK AO2 RAE47 SLP202 P0005 T01280100=
201010101153 METAR KBLI 101153Z AUTO VRB04KT 10SM -RA FEW022 BKN049 OVC070 15/13 A3010 RMK AO2 RAB1054 PRESRR SLP199 P0004 60044 70064 T01500128 10200 20150 53037=
201010101053 METAR KBLI 101053Z AUTO 16011G15KT 10SM FEW016 OVC050 16/14 A3005 RMK AO2 RAE22 SLP180 P0001 T01610144=
201010101021 SPECI KBLI 101021Z AUTO 17008KT 10SM -RA FEW003 OVC055 16/15 A3003 RMK AO2 P0001=
201010101021 SPECI KBLI 101021Z AUTO 17008KT 10SM -RA FEW003 OVC055 16/15 A3003 RMK AO2 P0001=
201010100953 METAR KBLI 100953Z AUTO 17009KT 5SM -RA BR FEW010 BKN032 OVC049 17/16 A3003 RMK AO2 SLP174 P0024 T01670156=
201010100944 SPECI KBLI 100944Z AUTO 18007KT 6SM -RA BR FEW008 BKN025 OVC034 17/16 A3003 RMK AO2 P0023=
201010100944 SPECI KBLI 100944Z AUTO 18007KT 6SM -RA BR FEW008 BKN025 OVC034 17/16 A3003 RMK AO2 P0023=
201010100933 SPECI KBLI 100933Z AUTO 18007KT 3SM +RA BR FEW005 BKN012 OVC019 17/16 A3003 RMK AO2 P0021=
201010100933 SPECI KBLI 100933Z AUTO 18007KT 3SM +RA BR FEW005 BKN012 OVC019 17/16 A3003 RMK AO2 P0021=
201010100920 SPECI KBLI 100920Z AUTO 18014G20KT 4SM +RA BR OVC012 17/16 A3002 RMK AO2 P0014=
201010100920 SPECI KBLI 100920Z AUTO 18014G20KT 4SM +RA BR OVC012 17/16 A3002 RMK AO2 P0014=
201010100853 METAR KBLI 100853Z AUTO 17013G20KT 6SM -RA BR BKN017 OVC022 18/16 A2999 RMK AO2 PK WND 17026/0757 SLP161 P0013 60015 T01780156 53008=
201010100753 METAR KBLI 100753Z AUTO 17014G29KT 6SM RA BKN019 OVC028 18/16 A2998 RMK AO2 PK WND 15034/0715 RAB24 PRESRR SLP157 P0002 T01830156 402000139=
201010100653 METAR KBLI 100653Z AUTO 15021G31KT 10SM OVC021 19/15 A2996 RMK AO2 PK WND 15038/0604 SLP149 T01940150=
201010100553 METAR KBLI 100553Z AUTO 15021G34KT 10SM OVC023 19/15 A2997 RMK AO2 PK WND 16034/0546 RAB0455E32 SLP152 P0001 60003 T01940150 10194 20161 56010=
201010100517 SPECI KBLI 100517Z 15018G26KT 10SM BKN025 OVC070 19/14 A2998 RMK AO2 PK WND 15028/0454 RAB0455E10 P0001=
201010100517 SPECI KBLI 100517Z 15018G26KT 10SM BKN025 OVC070 19/14 A2998 RMK AO2 PK WND 15028/0454 RAB0455E10 P0001=
201010100453 METAR KBLI 100453Z 14015G27KT 10SM SCT025 OVC070 19/14 A2997 RMK AO2 PK WND 15028/0418 RAB38E50 SLP155 P0000 T01890144=
201010100353 METAR KBLI 100353Z 15015G26KT 10SM FEW026 OVC065 19/14 A2998 RMK AO2 PK WND 12029/0329 RAB17E26 SLP158 P0000 T01890139=
201010100313 SPECI KBLI 100313Z 15016G28KT 10SM BKN028 OVC060 19/14 A2999 RMK AO2 PK WND 16028/0311=
201010100313 SPECI KBLI 100313Z 15016G28KT 10SM BKN028 OVC060 19/14 A2999 RMK AO2 PK WND 16028/0311=
201010100253 METAR KBLI 100253Z 14014G25KT 10SM OVC030 19/14 A3000 RMK AO2 PK WND 15026/0156 RAB17E40 SLP164 P0000 60002 T01890139 55006=
201010100153 METAR KBLI 100153Z 16015G23KT 10SM OVC032 18/13 A2999 RMK AO2 RAB05E15 SLP160 P0000 T01830133=
201010100053 METAR KBLI 100053Z 26003KT 10SM BKN040 OVC070 17/14 A2999 RMK AO2 RAE49 SLP161 P0002 T01670139=
201010092353 METAR KBLI 092353Z 12013G20KT 10SM -RA SCT048 OVC070 17/14 A3002 RMK AO2 RAE24B50 SLP170 P0000 60010 T01720139 10189 20167 58016=
201010092327 SPECI KBLI 092327Z 14009G18KT 10SM SCT026 OVC070 17/14 A3002 RMK AO2 RAE24 P0000=
201010092327 SPECI KBLI 092327Z 14009G18KT 10SM SCT026 OVC070 17/14 A3002 RMK AO2 RAE24 P0000=
201010092253 METAR KBLI 092253Z 14009KT 8SM -RA OVC026 17/14 A3003 RMK AO2 SLP174 P0007 T01670139=
201010092245 SPECI KBLI 092245Z 13010KT 6SM RA OVC026 17/14 A3003 RMK AO2 P0006=
201010092245 SPECI KBLI 092245Z 13010KT 6SM RA OVC026 17/14 A3003 RMK AO2 P0006=
201010092153 METAR KBLI 092153Z 13011KT 10SM -RA BKN033 OVC050 17/13 A3005 RMK AO2 SLP183 P0003 T01720133=
201010092053 METAR KBLI 092053Z 14012G18KT 10SM -RA FEW065 SCT095 18/13 A3006 RMK AO2 RAB40 SLP186 P0000 60000 T01830128 58013=
201010092040 SPECI KBLI 092040Z 15014G22KT 10SM -RA FEW031 18/12 A3006 RMK AO2 RAB40 P0000=
201010092040 SPECI KBLI 092040Z 15014G22KT 10SM -RA FEW031 18/12 A3006 RMK AO2 RAB40 P0000=
201010092012 SPECI KBLI 092012Z 16012G23KT 10SM OVC029 19/12 A3007 RMK AO2=
201010092012 SPECI KBLI 092012Z 16012G23KT 10SM OVC029 19/12 A3007 RMK AO2=
201010092005 SPECI KBLI 092005Z 15016G23KT 10SM OVC031 19/12 A3008 RMK AO2=
201010092005 SPECI KBLI 092005Z 15016G23KT 10SM OVC031 19/12 A3008 RMK AO2=
201010091953 METAR KBLI 091953Z 15014G20KT 10SM OVC029 19/12 A3009 RMK AO2 SLP195 T01890122=
201010091853 METAR KBLI 091853Z 15012G26KT 10SM OVC029 18/12 A3010 RMK AO2 PK WND 14026/1846 SLP197 T01830122=
201010091753 METAR KBLI 091753Z 15011G25KT 10SM OVC029 18/12 A3010 RMK AO2 SLP199 60007 T01780122 10178 20139 51006=
201010091713 SPECI KBLI 091713Z 15018G24KT 10SM OVC029 18/12 A3011 RMK AO2=
201010091713 SPECI KBLI 091713Z 15018G24KT 10SM OVC029 18/12 A3011 RMK AO2=
201010091703 SPECI KBLI 091703Z 15014G19KT 10SM OVC030 17/12 A3010 RMK AO2=
201010091703 SPECI KBLI 091703Z 15014G19KT 10SM OVC030 17/12 A3010 RMK AO2=
201010091653 METAR KBLI 091653Z 15013G19KT 10SM BKN026 OVC033 17/12 A3010 RMK AO2 SLP198 T01720122=
201010091600 SPECI KBLI 091600Z 15012KT 10SM OVC026 17/12 A3009 RMK AO2=
201010091600 SPECI KBLI 091600Z 15012KT 10SM OVC026 17/12 A3009 RMK AO2=
201010091553 METAR KBLI 091553Z 14013KT 10SM OVC030 17/12 A3009 RMK AO2 RAB12E29 SLP197 P0000 T01670122=
201010091453 METAR KBLI 091453Z 14009G16KT 10SM OVC030 17/12 A3008 RMK AO2 RAB34E53 SLP193 P0000 60007 T01670117 53007=
201010091353 METAR KBLI 091353Z AUTO 00000KT 10SM OVC032 14/12 A3007 RMK AO2 RAE09 SLP187 P0000 T01390122=
201010091253 METAR KBLI 091253Z AUTO 17005KT 7SM RA BKN031 OVC041 14/12 A3006 RMK AO2 RAB1156E05B29 SLP184 P0007 T01390117=
201010091153 METAR KBLI 091153Z AUTO 11007KT 10SM FEW036 OVC060 16/12 A3006 RMK AO2 RAE37 SLP186 P0001 60023 70025 T01560122 10178 20150 51019=
201010091053 METAR KBLI 091053Z AUTO 12005G17KT 8SM RA FEW033 SCT041 OVC065 16/12 A3006 RMK AO2 SLP185 P0008 T01610117=
201010090953 METAR KBLI 090953Z AUTO 14015G24KT 10SM -RA OVC075 17/12 A3003 RMK AO2 PK WND 12030/0918 RAB07 SLP173 P0001 T01670117=
201010090853 METAR KBLI 090853Z AUTO 14018G29KT 10SM BKN090 OVC100 17/11 A3001 RMK AO2 PK WND 13033/0831 SLP167 60013 T01720106 51006=
201010090753 METAR KBLI 090753Z AUTO 13017G24KT 10SM OVC100 16/12 A3000 RMK AO2 RAE46 SLP163 P0007 T01560117 401940139=
201010090653 METAR KBLI 090653Z AUTO 13011G20KT 9SM RA BKN044 OVC090 16/11 A3001 RMK AO2 SLP167 P0006 T01560111=
201010090553 METAR KBLI 090553Z AUTO 14015KT 10SM -RA OVC090 18/10 A2999 RMK AO2 RAE27B49 SLP161 P0000 60000 T01780100 10194 20172 58002=
201010090453 METAR KBLI 090453Z 15013KT 10SM -RA BKN085 18/09 A2999 RMK AO2 RAB48 SLP162 P0000 T01780094=
201010090353 METAR KBLI 090353Z 11008KT 10SM OVC050 18/09 A3000 RMK AO2 SLP165 T01830089=
201010090253 METAR KBLI 090253Z 12013G20KT 10SM BKN046 18/09 A2999 RMK AO2 SLP162 T01830094 58012=
201010090153 METAR KBLI 090153Z 10006KT 10SM BKN120 18/09 A3001 RMK AO2 SLP169 T01780089=
201010090053 METAR KBLI 090053Z 13013KT 10SM BKN080 OVC120 18/09 A3002 RMK AO2 SLP170 T01830089=
201010082353 METAR KBLI 082353Z 15005KT 10SM OVC075 19/09 A3003 RMK AO2 SLP174 60000 T01890094 10194 20156 56020=
201010082253 METAR KBLI 082253Z 13010KT 10SM BKN046 OVC090 19/09 A3004 RMK AO2 SLP180 T01890094=
201010082153 METAR KBLI 082153Z 13011G17KT 10SM OVC042 19/09 A3006 RMK AO2 SLP185 T01890094=
201010082053 METAR KBLI 082053Z 15010KT 10SM OVC040 18/09 A3009 RMK AO2 SLP194 60000 T01830094 58010=
201010081953 METAR KBLI 081953Z 13005KT 10SM OVC040 18/10 A3010 RMK AO2 SLP199 T01780100=
201010081853 METAR KBLI 081853Z 03003KT 10SM OVC042 17/11 A3012 RMK AO2 RAB1755E24 SLP204 P0000 T01670111=
201010081753 METAR KBLI 081753Z 01003KT 10SM BKN040 OVC048 16/12 A3012 RMK AO2 RAE42 SLP205 P0001 60002 T01560122 10156 20150 50009=
201010081653 METAR KBLI 081653Z 13007KT 10SM -RA FEW029 BKN040 OVC070 15/10 A3012 RMK AO2 SLP205 P0001 T01500100=
201010081553 METAR KBLI 081553Z 12008KT 10SM -RA FEW039 OVC075 15/09 A3011 RMK AO2 RAB1454 SLP200 P0000 T01500094=
201010081453 METAR KBLI 081453Z 12008KT 10SM BKN039 OVC080 16/09 A3009 RMK AO2 SLP196 T01560089 53005=
201010081353 METAR KBLI 081353Z AUTO 14010KT 10SM OVC090 16/08 A3009 RMK AO2 SLP195 T01560083=
201010081253 METAR KBLI 081253Z AUTO 14009KT 10SM FEW090 OVC110 16/08 A3008 RMK AO2 SLP191 T01560083=
201010081153 METAR KBLI 081153Z AUTO 15007KT 110V180 10SM FEW110 15/08 A3008 RMK AO2 SLP191 60000 T01500083 10150 20139 51001=
201010081053 METAR KBLI 081053Z AUTO 14008KT 10SM FEW031 15/09 A3008 RMK AO2 SLP191 T01500089=
201010080953 METAR KBLI 080953Z AUTO 15006KT 10SM FEW029 SCT065 BKN095 15/09 A3008 RMK AO2 SLP192 T01500094=
201010080853 METAR KBLI 080853Z AUTO 16003KT 10SM BKN060 14/10 A3007 RMK AO2 SLP190 60000 T01440100 50002=
201010080753 METAR KBLI 080753Z AUTO 00000KT 10SM FEW026 BKN033 OVC050 14/11 A3008 RMK AO2 RAB16E40 SLP190 P0000 T01440106 401670061=
201010080653 METAR KBLI 080653Z AUTO 14010KT 10SM OVC040 15/11 A3007 RMK AO2 SLP189 T01500106=
201010080603 SPECI KBLI 080603Z AUTO 16008KT 10SM FEW024 SCT029 OVC037 14/11 A3007 RMK AO2=
201010080603 SPECI KBLI 080603Z AUTO 16008KT 10SM FEW024 SCT029 OVC037 14/11 A3007 RMK AO2=
201010080553 METAR KBLI 080553Z AUTO 16007KT 10SM BKN027 OVC037 14/11 A3007 RMK AO2 RAB27E43 SLP188 P0000 60000 T01390111 10156 20139 51015=
201010080453 METAR KBLI 080453Z 16006KT 10SM OVC024 14/11 A3006 RMK AO2 RAB36E48 SLP188 P0000 T01440111=
201010080353 METAR KBLI 080353Z 16010G15KT 10SM OVC024 15/11 A3004 RMK AO2 SLP179 T01500106=
201010080253 METAR KBLI 080253Z 16010KT 10SM OVC024 16/11 A3002 RMK AO2 SLP174 T01560106 53010=
201010080200 SPECI KBLI 080200Z 18008KT 10SM OVC028 15/11 A3002 RMK AO2=
201010080200 SPECI KBLI 080200Z 18008KT 10SM OVC028 15/11 A3002 RMK AO2=
201010080153 METAR KBLI 080153Z 18009KT 10SM OVC031 15/11 A3001 RMK AO2 SLP170 T01500106=
201010080141 SPECI KBLI 080141Z 17005KT 10SM OVC031 14/11 A3001 RMK AO2=
201010080141 SPECI KBLI 080141Z 17005KT 10SM OVC031 14/11 A3001 RMK AO2=
201010080129 SPECI KBLI 080129Z 16005KT 10SM OVC029 14/11 A3001 RMK AO2=
201010080129 SPECI KBLI 080129Z 16005KT 10SM OVC029 14/11 A3001 RMK AO2=
201010080053 METAR KBLI 080053Z 18006KT 10SM BKN031 OVC090 15/11 A3000 RMK AO2 SLP165 T01500106=
201010072353 METAR KBLI 072353Z 15005KT 10SM BKN035 OVC044 15/10 A2999 RMK AO2 SLP163 T01500100 10167 20144 51015=
201010072253 METAR KBLI 072253Z 15007KT 10SM BKN036 BKN090 OVC110 15/10 A2998 RMK AO2 SLP160 T01500100=
201010072153 METAR KBLI 072153Z 17008KT 10SM SCT120 16/10 A2996 RMK AO2 SLP152 T01560100=
201010072053 METAR KBLI 072053Z 18006KT 10SM FEW100 SCT110 15/10 A2995 RMK AO2 SLP148 T01500100 53005=
201010071953 METAR KBLI 071953Z 16007KT 10SM CLR 17/10 A2994 RMK AO2 SLP147 T01670100=
201010071853 METAR KBLI 071853Z 00000KT 10SM BKN100 16/11 A2993 RMK AO2 SLP144 T01610106=
201010071753 METAR KBLI 071753Z 00000KT 10SM BKN100 14/11 A2993 RMK AO2 SLP143 T01440106 10144 20061 50009=
201010071653 METAR KBLI 071653Z 00000KT 10SM OVC100 12/09 A2994 RMK AO2 SLP144 T01220094=
201010071553 METAR KBLI 071553Z 00000KT 10SM CLR 11/09 A2991 RMK AO2 SLP136 T01110089=
201010071453 METAR KBLI 071453Z 00000KT 10SM CLR 08/07 A2991 RMK AO2 SLP135 T00780067 51004=
201010071353 METAR KBLI 071353Z 00000KT 10SM OVC095 07/06 A2991 RMK AO2 SLP134 T00720061=
201010071348 SPECI KBLI 071348Z 00000KT 10SM R16/4000VP6000FT FEW001 OVC095 07/06 A2991 RMK AO2=
201010071348 SPECI KBLI 071348Z 00000KT 10SM R16/4000VP6000FT FEW001 OVC095 07/06 A2991 RMK AO2=
201010071339 SPECI KBLI 071339Z 00000KT 3/4SM R16/3500VP6000FT BR FEW001 SCT007 OVC095 07/06 A2990 RMK AO2=
201010071339 SPECI KBLI 071339Z 00000KT 3/4SM R16/3500VP6000FT BR FEW001 SCT007 OVC095 07/06 A2990 RMK AO2=
201010071330 SPECI KBLI 071330Z AUTO 00000KT 1 1/4SM R16/2000V4000FT BR FEW001 BKN007 OVC095 07/06 A2990 RMK AO2=
201010071330 SPECI KBLI 071330Z AUTO 00000KT 1 1/4SM R16/2000V4000FT BR FEW001 BKN007 OVC095 07/06 A2990 RMK AO2=
201010071315 SPECI KBLI 071315Z AUTO 00000KT 3/4SM R16/2800VP6000FT BR FEW001 BKN007 OVC095 07/06 A2990 RMK AO2=
201010071315 SPECI KBLI 071315Z AUTO 00000KT 3/4SM R16/2800VP6000FT BR FEW001 BKN007 OVC095 07/06 A2990 RMK AO2=
201010071304 SPECI KBLI 071304Z AUTO 00000KT 1 1/2SM R16/4000VP6000FT BR FEW001 BKN007 07/05 A2990 RMK AO2 VIS 1/2V5=
201010071304 SPECI KBLI 071304Z AUTO 00000KT 1 1/2SM R16/4000VP6000FT BR FEW001 BKN007 07/05 A2990 RMK AO2 VIS 1/2V5=
201010071302 SPECI KBLI 071302Z AUTO 00000KT 3SM R16/4000VP6000FT BR FEW001 BKN007 06/05 A2990 RMK AO2=
201010071302 SPECI KBLI 071302Z AUTO 00000KT 3SM R16/4000VP6000FT BR FEW001 BKN007 06/05 A2990 RMK AO2=
201010071253 METAR KBLI 071253Z AUTO 00000KT 10SM FEW001 07/06 A2990 RMK AO2 SLP132 T00670056=
201010071205 SPECI KBLI 071205Z AUTO 00000KT 3SM BR CLR 07/06 A2990 RMK AO2=
201010071205 SPECI KBLI 071205Z AUTO 00000KT 3SM BR CLR 07/06 A2990 RMK AO2=
201010071158 SPECI KBLI 071158Z AUTO 00000KT 1 3/4SM BR CLR 07/06 A2989 RMK AO2=
201010071158 SPECI KBLI 071158Z AUTO 00000KT 1 3/4SM BR CLR 07/06 A2989 RMK AO2=
201010071153 METAR KBLI 071153Z AUTO 00000KT 6SM BR CLR 07/06 A2989 RMK AO2 SLP130 70001 T00720056 10094 20067 53006=
201010071053 METAR KBLI 071053Z AUTO 00000KT 7SM CLR 07/06 A2988 RMK AO2 SLP125 T00670056=
201010071035 SPECI KBLI 071035Z AUTO 00000KT 4SM BR FEW012 07/05 A2988 RMK AO2=
201010071035 SPECI KBLI 071035Z AUTO 00000KT 4SM BR FEW012 07/05 A2988 RMK AO2=
201010071028 SPECI KBLI 071028Z AUTO 00000KT 3SM BR FEW001 BKN012 07/05 A2988 RMK AO2=
201010071028 SPECI KBLI 071028Z AUTO 00000KT 3SM BR FEW001 BKN012 07/05 A2988 RMK AO2=
201010071023 SPECI KBLI 071023Z AUTO 00000KT 1SM R16/3500VP6000FT BR FEW001 BKN012 07/06 A2988 RMK AO2=
201010071023 SPECI KBLI 071023Z AUTO 00000KT 1SM R16/3500VP6000FT BR FEW001 BKN012 07/06 A2988 RMK AO2=
201010071008 SPECI KBLI 071008Z AUTO 00000KT 1/2SM R16/2000VP6000FT FG SCT001 OVC010 07/06 A2988 RMK AO2=
201010071008 SPECI KBLI 071008Z AUTO 00000KT 1/2SM R16/2000VP6000FT FG SCT001 OVC010 07/06 A2988 RMK AO2=
201010070957 SPECI KBLI 070957Z AUTO 00000KT 1SM R16/P6000FT BR SCT005 BKN010 07/06 A2988 RMK AO2 VIS 1/4V5=
201010070957 SPECI KBLI 070957Z AUTO 00000KT 1SM R16/P6000FT BR SCT005 BKN010 07/06 A2988 RMK AO2 VIS 1/4V5=
201010070953 METAR KBLI 070953Z AUTO 00000KT 1/2SM R16/P6000FT FG SCT005 BKN010 07/06 A2988 RMK AO2 SLP125 T00720056=
201010070944 SPECI KBLI 070944Z AUTO 00000KT 3/4SM R16/6000VP6000FT BR VV011 07/06 A2988 RMK AO2=
201010070944 SPECI KBLI 070944Z AUTO 00000KT 3/4SM R16/6000VP6000FT BR VV011 07/06 A2988 RMK AO2=
201010070938 SPECI KBLI 070938Z AUTO 00000KT 1 1/2SM R16/6000VP6000FT BR FEW025 07/06 A2988 RMK AO2=
201010070938 SPECI KBLI 070938Z AUTO 00000KT 1 1/2SM R16/6000VP6000FT BR FEW025 07/06 A2988 RMK AO2=
201010070926 SPECI KBLI 070926Z AUTO 00000KT 6SM R16/3000VP6000FT BR SCT009 08/06 A2988 RMK AO2=
201010070926 SPECI KBLI 070926Z AUTO 00000KT 6SM R16/3000VP6000FT BR SCT009 08/06 A2988 RMK AO2=
201010070919 SPECI KBLI 070919Z AUTO 00000KT 3SM R16/2000V6000FT BR BKN009 08/06 A2988 RMK AO2=
201010070919 SPECI KBLI 070919Z AUTO 00000KT 3SM R16/2000V6000FT BR BKN009 08/06 A2988 RMK AO2=
201010070913 SPECI KBLI 070913Z AUTO 00000KT 1 1/2SM R16/2000VP6000FT BR BKN009 08/06 A2988 RMK AO2 VIS 3/4V5=
201010070913 SPECI KBLI 070913Z AUTO 00000KT 1 1/2SM R16/2000VP6000FT BR BKN009 08/06 A2988 RMK AO2 VIS 3/4V5=
201010070907 SPECI KBLI 070907Z AUTO 00000KT 2 1/2SM R16/2600VP6000FT BR SCT009 BKN022 08/06 A2988 RMK AO2=
201010070907 SPECI KBLI 070907Z AUTO 00000KT 2 1/2SM R16/2600VP6000FT BR SCT009 BKN022 08/06 A2988 RMK AO2=
201010070904 SPECI KBLI 070904Z AUTO 00000KT 1SM R16/3000VP6000FT BR SCT009 BKN014 08/06 A2988 RMK AO2=
201010070904 SPECI KBLI 070904Z AUTO 00000KT 1SM R16/3000VP6000FT BR SCT009 BKN014 08/06 A2988 RMK AO2=
201010070900 SPECI KBLI 070900Z AUTO 00000KT 1/2SM R16/3000VP6000FT FG SCT009 BKN016 BKN070 08/06 A2988 RMK AO2=
201010070900 SPECI KBLI 070900Z AUTO 00000KT 1/2SM R16/3000VP6000FT FG SCT009 BKN016 BKN070 08/06 A2988 RMK AO2=
201010070853 METAR KBLI 070853Z AUTO 00000KT 1/2SM R16/3500VP6000FT FG VV009 07/06 A2988 RMK AO2 SLP124 T00720061 58007=
201010070835 SPECI KBLI 070835Z AUTO 00000KT 1 1/4SM BR FEW001 08/06 A2988 RMK AO2 VIS 1/2V5=
201010070835 SPECI KBLI 070835Z AUTO 00000KT 1 1/4SM BR FEW001 08/06 A2988 RMK AO2 VIS 1/2V5=
201010070822 SPECI KBLI 070822Z AUTO 00000KT 1 3/4SM BR CLR 08/07 A2988 RMK AO2 VIS 3/4V5=
201010070822 SPECI KBLI 070822Z AUTO 00000KT 1 3/4SM BR CLR 08/07 A2988 RMK AO2 VIS 3/4V5=
201010070811 SPECI KBLI 070811Z AUTO 00000KT 9SM R16/4000VP6000FT CLR 08/06 A2988 RMK AO2=
201010070811 SPECI KBLI 070811Z AUTO 00000KT 9SM R16/4000VP6000FT CLR 08/06 A2988 RMK AO2=
201010070753 METAR KBLI 070753Z AUTO 00000KT 2 1/2SM R16/4000VP6000FT BR CLR 08/07 A2989 RMK AO2 VIS 1 1/4V5 SLP128 T00830067 401890050=
201010070653 METAR KBLI 070653Z AUTO 00000KT 9SM CLR 09/08 A2990 RMK AO2 SLP131 T00940078=
201010070553 METAR KBLI 070553Z AUTO 00000KT 6SM BR CLR 09/07 A2990 RMK AO2 SLP131 T00890072 10172 20078 57001=
201010070453 METAR KBLI 070453Z 00000KT 10SM FEW075 10/08 A2990 RMK AO2 SLP132 T01000078=
201010070353 METAR KBLI 070353Z 00000KT 10SM CLR 11/09 A2990 RMK AO2 SLP132 T01060089=
201010070253 METAR KBLI 070253Z 00000KT 10SM CLR 11/09 A2990 RMK AO2 SLP133 T01110089 55014=
201010070153 METAR KBLI 070153Z 00000KT 10SM CLR 12/11 A2990 RMK AO2 SLP132 T01220106=
201010070053 METAR KBLI 070053Z 00000KT 10SM CLR 16/11 A2992 RMK AO2 SLP137 T01560106=
201010062353 METAR KBLI 062353Z 27006KT 10SM CLR 18/11 A2994 RMK AO2 SLP147 T01780111 10189 20144 58031=
201010062253 METAR KBLI 062253Z VRB03KT 10SM CLR 18/11 A2997 RMK AO2 SLP156 T01780111=
201010062153 METAR KBLI 062153Z 28006KT 10SM CLR 18/11 A3001 RMK AO2 SLP170 T01830111=
201010062053 METAR KBLI 062053Z 27004KT 10SM CLR 17/11 A3004 RMK AO2 SLP178 T01720106 58030=
201010061953 METAR KBLI 061953Z 03004KT 10SM CLR 18/11 A3008 RMK AO2 SLP192 T01830106=
201010061853 METAR KBLI 061853Z 34007KT 10SM CLR 17/09 A3010 RMK AO2 SLP199 T01670089=
201010061753 METAR KBLI 061753Z 35006KT 10SM CLR 14/09 A3013 RMK AO2 SLP209 60001 T01440089 10144 20050 58012=
201010061653 METAR KBLI 061653Z 35004KT 10SM CLR 11/09 A3014 RMK AO2 SLP215 T01110089=
201010061558 SPECI KBLI 061558Z 02004KT 6SM R16/2400VP6000FT BR SCT001 08/07 A3016 RMK AO2=
201010061558 SPECI KBLI 061558Z 02004KT 6SM R16/2400VP6000FT BR SCT001 08/07 A3016 RMK AO2=
201010061556 SPECI KBLI 061556Z 02003KT 1SM R16/1800VP6000FT BR VV001 08/07 A3016 RMK AO2=
201010061556 SPECI KBLI 061556Z 02003KT 1SM R16/1800VP6000FT BR VV001 08/07 A3016 RMK AO2=
201010061553 METAR KBLI 061553Z 02003KT 1/2SM R16/1600V6000FT FG VV001 08/07 A3016 RMK AO2 SLP220 T00830072=
201010061550 SPECI KBLI 061550Z 36004KT 1/2SM R16/1600V3500FT FG VV001 08/07 A3016 RMK AO2=
201010061550 SPECI KBLI 061550Z 36004KT 1/2SM R16/1600V3500FT FG VV001 08/07 A3016 RMK AO2=
201010061540 SPECI KBLI 061540Z 02004KT 1SM R16/2600VP6000FT BR FEW001 08/07 A3016 RMK AO2=
201010061540 SPECI KBLI 061540Z 02004KT 1SM R16/2600VP6000FT BR FEW001 08/07 A3016 RMK AO2=
201010061459 SPECI KBLI 061459Z 00000KT 4SM BR FEW001 06/05 A3018 RMK AO2=
201010061459 SPECI KBLI 061459Z 00000KT 4SM BR FEW001 06/05 A3018 RMK AO2=
201010061453 METAR KBLI 061453Z 00000KT 3SM R16/3000VP6000FT BR BKN001 06/04 A3018 RMK AO2 SLP227 60001 T00560044 58017=
201010061449 SPECI KBLI 061449Z 00000KT 1SM R16/3000VP6000FT BR FEW001 SCT007 BKN011 05/04 A3018 RMK AO2=
201010061449 SPECI KBLI 061449Z 00000KT 1SM R16/3000VP6000FT BR FEW001 SCT007 BKN011 05/04 A3018 RMK AO2=
201010061433 SPECI KBLI 061433Z 00000KT 1/2SM R16/1000V3000FT FG SCT001 BKN007 06/04 A3018 RMK AO2=
201010061433 SPECI KBLI 061433Z 00000KT 1/2SM R16/1000V3000FT FG SCT001 BKN007 06/04 A3018 RMK AO2=
201010061418 SPECI KBLI 061418Z 00000KT 1/4SM R16/1000V1400FT FG VV001 06/04 A3019 RMK AO2=
201010061418 SPECI KBLI 061418Z 00000KT 1/4SM R16/1000V1400FT FG VV001 06/04 A3019 RMK AO2=
201010061353 METAR KBLI 061353Z 00000KT 1/2SM R16/1400V2800FT FG VV000 06/05 A3020 RMK AO2 SLP235 P0001 T00560050=
201010061341 SPECI KBLI 061341Z AUTO 00000KT 1/4SM R16/1200V1400FT FG VV001 07/06 A3020 RMK AO2 P0001=
201010061341 SPECI KBLI 061341Z AUTO 00000KT 1/4SM R16/1200V1400FT FG VV001 07/06 A3020 RMK AO2 P0001=
201010061321 SPECI KBLI 061321Z AUTO 00000KT 1/4SM R16/0800V1000FT FG VV003 06/05 A3021 RMK AO2=
201010061321 SPECI KBLI 061321Z AUTO 00000KT 1/4SM R16/0800V1000FT FG VV003 06/05 A3021 RMK AO2=
201010061314 SPECI KBLI 061314Z AUTO 32003KT 3/4SM R16/0800V2000FT BR BKN003 OVC007 06/05 A3021 RMK AO2=
201010061314 SPECI KBLI 061314Z AUTO 32003KT 3/4SM R16/0800V2000FT BR BKN003 OVC007 06/05 A3021 RMK AO2=
201010061309 SPECI KBLI 061309Z AUTO 33003KT 1SM R16/1200V3500FT BR BKN003 OVC011 06/04 A3021 RMK AO2=
201010061309 SPECI KBLI 061309Z AUTO 33003KT 1SM R16/1200V3500FT BR BKN003 OVC011 06/04 A3021 RMK AO2=
201010061305 SPECI KBLI 061305Z AUTO 00000KT 1/2SM R16/2000V3500FT FG BKN003 BKN037 06/04 A3022 RMK AO2=
201010061305 SPECI KBLI 061305Z AUTO 00000KT 1/2SM R16/2000V3500FT FG BKN003 BKN037 06/04 A3022 RMK AO2=
201010061257 SPECI KBLI 061257Z AUTO 00000KT 3/4SM R16/1800VP6000FT BR BKN003 BKN010 05/04 A3022 RMK AO2=
201010061257 SPECI KBLI 061257Z AUTO 00000KT 3/4SM R16/1800VP6000FT BR BKN003 BKN010 05/04 A3022 RMK AO2=
201010061253 METAR KBLI 061253Z AUTO 00000KT 2SM R16/2000VP6000FT BR SCT001 BKN010 05/04 A3022 RMK AO2 SLP241 T00500044=
201010061248 SPECI KBLI 061248Z AUTO 00000KT 3SM R16/3500VP6000FT BR SCT001 06/04 A3022 RMK AO2=
201010061248 SPECI KBLI 061248Z AUTO 00000KT 3SM R16/3500VP6000FT BR SCT001 06/04 A3022 RMK AO2=
201010061219 SPECI KBLI 061219Z AUTO 00000KT 1 3/4SM R16/2600VP6000FT BR SCT008 SCT048 05/04 A3023 RMK AO2=
201010061219 SPECI KBLI 061219Z AUTO 00000KT 1 3/4SM R16/2600VP6000FT BR SCT008 SCT048 05/04 A3023 RMK AO2=
201010061201 SPECI KBLI 061201Z AUTO 00000KT 3/4SM R16/4500VP6000FT BR BKN008 OVC019 06/04 A3023 RMK AO2=
201010061201 SPECI KBLI 061201Z AUTO 00000KT 3/4SM R16/4500VP6000FT BR BKN008 OVC019 06/04 A3023 RMK AO2=
201010061153 METAR KBLI 061153Z AUTO 36003KT 1SM R16/3000V4500FT BR BKN008 BKN028 06/05 A3023 RMK AO2 SLP243 T00560050 10089 20056 58018=
201010061145 SPECI KBLI 061145Z AUTO 00000KT 3/4SM R16/1800V3500FT BR BKN008 OVC018 06/05 A3023 RMK AO2=
201010061145 SPECI KBLI 061145Z AUTO 00000KT 3/4SM R16/1800V3500FT BR BKN008 OVC018 06/05 A3023 RMK AO2=
201010061138 SPECI KBLI 061138Z AUTO 34003KT 1/2SM R16/1600V2000FT FG SCT001 OVC008 06/05 A3023 RMK AO2=
201010061138 SPECI KBLI 061138Z AUTO 34003KT 1/2SM R16/1600V2000FT FG SCT001 OVC008 06/05 A3023 RMK AO2=
201010061053 METAR KBLI 061053Z AUTO 00000KT 1/4SM R16/1600V2000FT FG VV001 06/06 A3024 RMK AO2 SLP248 T00610056=
201010061045 SPECI KBLI 061045Z AUTO 00000KT 1/4SM R16/1600V2800FT FG BKN001 OVC007 06/05 A3025 RMK AO2=
201010061045 SPECI KBLI 061045Z AUTO 00000KT 1/4SM R16/1600V2800FT FG BKN001 OVC007 06/05 A3025 RMK AO2=
201010061027 SPECI KBLI 061027Z AUTO 34004KT 1/2SM R16/1200VP6000FT FG SCT001 BKN007 07/05 A3026 RMK AO2=
201010061027 SPECI KBLI 061027Z AUTO 34004KT 1/2SM R16/1200VP6000FT FG SCT001 BKN007 07/05 A3026 RMK AO2=
201010061022 SPECI KBLI 061022Z AUTO 34003KT 1 3/4SM R16/1600VP6000FT BR FEW001 06/05 A3026 RMK AO2=
201010061022 SPECI KBLI 061022Z AUTO 34003KT 1 3/4SM R16/1600VP6000FT BR FEW001 06/05 A3026 RMK AO2=
201010061009 SPECI KBLI 061009Z AUTO 00000KT 6SM BR CLR 07/05 A3026 RMK AO2=
201010061009 SPECI KBLI 061009Z AUTO 00000KT 6SM BR CLR 07/05 A3026 RMK AO2=
201010061002 SPECI KBLI 061002Z AUTO 00000KT 2 1/2SM R16/4000VP6000FT BR CLR 06/05 A3026 RMK AO2=
201010061002 SPECI KBLI 061002Z AUTO 00000KT 2 1/2SM R16/4000VP6000FT BR CLR 06/05 A3026 RMK AO2=
201010060953 METAR KBLI 060953Z AUTO 00000KT 4SM R16/2800VP6000FT BR CLR 06/04 A3027 RMK AO2 SLP258 T00610044=
201010060853 METAR KBLI 060853Z AUTO 00000KT 8SM CLR 07/06 A3028 RMK AO2 SLP261 T00720056 56018=
201010060753 METAR KBLI 060753Z AUTO 00000KT 5SM BR CLR 08/06 A3029 RMK AO2 SLP264 T00780061 401670044=
201010060653 METAR KBLI 060653Z AUTO 00000KT 10SM CLR 08/07 A3031 RMK AO2 SLP270 T00830067=
201010060553 METAR KBLI 060553Z AUTO 00000KT 10SM CLR 08/07 A3033 RMK AO2 SLP279 T00830067 10167 20083 56014=
201010060453 METAR KBLI 060453Z 00000KT 10SM CLR 09/07 A3035 RMK AO2 SLP284 T00890072=
201010060353 METAR KBLI 060353Z 00000KT 10SM CLR 09/07 A3036 RMK AO2 SLP288 T00890072=
201010060253 METAR KBLI 060253Z 28003KT 10SM CLR 11/08 A3037 RMK AO2 SLP293 T01060083 56007=
201010060153 METAR KBLI 060153Z 00000KT 10SM CLR 12/09 A3038 RMK AO2 SLP296 T01220089=
201010060053 METAR KBLI 060053Z 29004KT 10SM CLR 14/09 A3039 RMK AO2 SLP297 T01440089=
201010052353 METAR KBLI 052353Z 31005KT 10SM CLR 17/08 A3039 RMK AO2 SLP299 T01670078 10167 20133 56011=
201010052253 METAR KBLI 052253Z VRB04KT 10SM CLR 16/10 A3040 RMK AO2 SLP302 T01610100=
201010052153 METAR KBLI 052153Z 27006KT 10SM CLR 16/09 A3041 RMK AO2 SLP305 T01560094=
201010052053 METAR KBLI 052053Z 27008KT 10SM FEW020 SCT026 15/09 A3043 RMK AO2 SLP311 T01500094 58008=
201010051953 METAR KBLI 051953Z VRB04KT 10SM CLR 16/09 A3044 RMK AO2 SLP314 T01560094=
201010051853 METAR KBLI 051853Z VRB04KT 10SM CLR 15/09 A3046 RMK AO2 SLP320 T01500089=
201010051753 METAR KBLI 051753Z VRB03KT 10SM CLR 13/09 A3045 RMK AO2 SLP319 T01330089 10133 20044 51013=
201010051653 METAR KBLI 051653Z 00000KT 10SM CLR 11/09 A3044 RMK AO2 SLP317 T01110094=
201010051606 SPECI KBLI 051606Z 00000KT 10SM SCT005 09/08 A3043 RMK AO2=
201010051606 SPECI KBLI 051606Z 00000KT 10SM SCT005 09/08 A3043 RMK AO2=
201010051553 METAR KBLI 051553Z 00000KT 10SM CLR 09/07 A3043 RMK AO2 SLP311 T00890067=
201010051453 METAR KBLI 051453Z 01003KT 10SM CLR 05/04 A3041 RMK AO2 SLP307 T00500039 53018=
201010051353 METAR KBLI 051353Z 00000KT 10SM CLR 06/03 A3039 RMK AO2 SLP300 T00560033=
201010051315 SPECI KBLI 051315Z AUTO 00000KT 3SM BR FEW080 05/04 A3038 RMK AO2=
201010051315 SPECI KBLI 051315Z AUTO 00000KT 3SM BR FEW080 05/04 A3038 RMK AO2=
201010051303 SPECI KBLI 051303Z AUTO 00000KT 1 3/4SM BR CLR 05/04 A3038 RMK AO2=
201010051303 SPECI KBLI 051303Z AUTO 00000KT 1 3/4SM BR CLR 05/04 A3038 RMK AO2=
201010051253 METAR KBLI 051253Z AUTO 00000KT 9SM CLR 05/04 A3038 RMK AO2 SLP294 T00500039=
201010051246 SPECI KBLI 051246Z AUTO 00000KT 2 1/2SM BR CLR 05/04 A3037 RMK AO2=
201010051246 SPECI KBLI 051246Z AUTO 00000KT 2 1/2SM BR CLR 05/04 A3037 RMK AO2=
201010051153 METAR KBLI 051153Z AUTO 01003KT 4SM BR CLR 04/03 A3036 RMK AO2 SLP289 70002 T00440033 10089 20044 53011=
201010051053 METAR KBLI 051053Z AUTO 00000KT 4SM BR CLR 06/05 A3034 RMK AO2 SLP283 T00610050=
201010050953 METAR KBLI 050953Z AUTO 00000KT 6SM BR CLR 06/04 A3034 RMK AO2 SLP282 T00610044=
201010050853 METAR KBLI 050853Z AUTO 00000KT 10SM CLR 08/06 A3033 RMK AO2 SLP278 T00780061 51014=
201010050802 SPECI KBLI 050802Z AUTO 00000KT 3SM R16/2800VP6000FT BR CLR 08/06 A3032 RMK AO2=
201010050802 SPECI KBLI 050802Z AUTO 00000KT 3SM R16/2800VP6000FT BR CLR 08/06 A3032 RMK AO2=
201010050753 METAR KBLI 050753Z AUTO 00000KT 1 1/4SM R16/3500VP6000FT BR FEW025 07/05 A3032 RMK AO2 SLP273 T00670050 401500067=
201010050750 SPECI KBLI 050750Z AUTO 00000KT 1 3/4SM R16/4000VP6000FT BR FEW100 07/05 A3031 RMK AO2 VIS 1/2V5 401500067=
201010050750 SPECI KBLI 050750Z AUTO 00000KT 1 3/4SM R16/4000VP6000FT BR FEW100 07/05 A3031 RMK AO2 VIS 1/2V5 401500067=
201010050744 SPECI KBLI 050744Z AUTO 00000KT 3SM R16/4500VP6000FT BR CLR 07/06 A3031 RMK AO2=
201010050744 SPECI KBLI 050744Z AUTO 00000KT 3SM R16/4500VP6000FT BR CLR 07/06 A3031 RMK AO2=
201010050737 SPECI KBLI 050737Z AUTO 00000KT 1 3/4SM R16/3500VP6000FT BR FEW017 07/06 A3031 RMK AO2=
201010050737 SPECI KBLI 050737Z AUTO 00000KT 1 3/4SM R16/3500VP6000FT BR FEW017 07/06 A3031 RMK AO2=
201010050653 METAR KBLI 050653Z AUTO 00000KT 5SM BR CLR 08/07 A3030 RMK AO2 SLP268 T00780067=
201010050553 METAR KBLI 050553Z AUTO 00000KT 10SM CLR 08/07 A3029 RMK AO2 SLP263 T00830072 10128 20083 53018=
201010050453 METAR KBLI 050453Z 00000KT 10SM CLR 09/07 A3026 RMK AO2 SLP254 T00890072=
201010050353 METAR KBLI 050353Z 00000KT 10SM CLR 09/08 A3025 RMK AO2 SLP250 T00940083=
201010050253 METAR KBLI 050253Z 00000KT 10SM OVC070 11/09 A3023 RMK AO2 SLP245 T01110094 53015=
201010050153 METAR KBLI 050153Z 00000KT 10SM OVC070 12/10 A3021 RMK AO2 SLP237 T01170100=
201010050053 METAR KBLI 050053Z AUTO 00000KT 10SM OVC070 13/09 A3020 RMK AO2 SLP235 T01280089 TSNO=
201010042353 METAR KBLI 042353Z AUTO 18003KT 10SM FEW021 BKN060 BKN080 13/09 A3019 RMK AO2 SLP231 60002 T01280089 10150 20111 53010 TSNO=
201010042253 METAR KBLI 042253Z AUTO 15003KT 10SM OVC065 13/09 A3017 RMK AO2 RAE11 SLP224 P0000 T01280089 TSNO=
201010042153 METAR KBLI 042153Z 16004KT 10SM -RA OVC031 12/09 A3016 RMK AO2 SLP220 P0001 T01170094=
201010042150 SPECI KBLI 042150Z 17004KT 9SM -RA OVC031 12/09 A3016 RMK AO2 P0001=
201010042150 SPECI KBLI 042150Z 17004KT 9SM -RA OVC031 12/09 A3016 RMK AO2 P0001=
201010042118 SPECI KBLI 042118Z 19003KT 10SM -RA OVC029 12/09 A3016 RMK AO2 P0000=
201010042118 SPECI KBLI 042118Z 19003KT 10SM -RA OVC029 12/09 A3016 RMK AO2 P0000=
201010042053 METAR KBLI 042053Z VRB03KT 8SM -RA OVC033 11/09 A3016 RMK AO2 SLP218 P0001 60001 T01110094 51016=
201010041953 METAR KBLI 041953Z VRB05KT 10SM -RA SCT024 BKN030 OVC050 13/08 A3015 RMK AO2 RAB45 SLP215 P0000 T01330083=
201010041853 METAR KBLI 041853Z 17005KT 10SM BKN038 BKN065 14/08 A3013 RMK AO2 SLP209 T01440078=
201010041753 METAR KBLI 041753Z 16013KT 10SM SCT040 14/07 A3011 RMK AO2 SLP202 T01390072 10144 20106 51015=
201010041653 METAR KBLI 041653Z 17011KT 10SM CLR 13/07 A3010 RMK AO2 SLP199 T01330072=
201010041553 METAR KBLI 041553Z 17008G14KT 10SM FEW020 SCT065 11/07 A3008 RMK AO2 SLP194 T01110067=
201010041453 METAR KBLI 041453Z 16009G21KT 10SM FEW010 SCT065 11/07 A3006 RMK AO2 SLP187 T01110072 53013=
201010041353 METAR KBLI 041353Z 17008KT 10SM BKN065 11/08 A3005 RMK AO2 SLP182 T01060078=
201010041253 METAR KBLI 041253Z AUTO 16005KT 10SM SCT060 OVC080 11/08 A3003 RMK AO2 SLP176 T01110078=
201010041153 METAR KBLI 041153Z AUTO 16004KT 10SM BKN060 OVC080 12/08 A3002 RMK AO2 SLP174 T01170078 10128 20117 51006=
201010041053 METAR KBLI 041053Z AUTO 17004KT 10SM BKN065 OVC080 12/08 A3002 RMK AO2 SLP172 T01170078=
201010040953 METAR KBLI 040953Z AUTO 18004KT 10SM BKN060 OVC080 12/08 A3002 RMK AO2 SLP171 T01170083=
201010040853 METAR KBLI 040853Z AUTO 17004KT 10SM SCT060 OVC080 12/07 A3001 RMK AO2 SLP168 T01220072 53008=
201010040753 METAR KBLI 040753Z AUTO 18007KT 10SM BKN055 OVC080 13/07 A2999 RMK AO2 SLP162 T01280072 401560122=
201010040653 METAR KBLI 040653Z AUTO 17007G16KT 10SM FEW060 OVC080 13/08 A2999 RMK AO2 SLP161 T01280078=
201010040553 METAR KBLI 040553Z AUTO 17009KT 10SM SCT060 OVC080 13/08 A2998 RMK AO2 SLP160 T01280083 10150 20128 51005=
201010040453 METAR KBLI 040453Z 19006KT 10SM FEW060 OVC080 13/09 A2998 RMK AO2 SLP158 T01330094=
201010040353 METAR KBLI 040353Z 17004KT 10SM OVC085 14/10 A2998 RMK AO2 SLP158 T01390100=
201010040253 METAR KBLI 040253Z 16007KT 10SM OVC080 14/10 A2997 RMK AO2 SLP155 T01390100 50001=
201010040153 METAR KBLI 040153Z 17005KT 10SM OVC080 13/11 A2997 RMK AO2 SLP156 T01330111=
201010040053 METAR KBLI 040053Z 18005KT 10SM BKN048 OVC065 14/11 A2997 RMK AO2 SLP154 T01390111=
201010032353 METAR KBLI 032353Z 15005KT 10SM BKN047 OVC065 15/11 A2997 RMK AO2 SLP153 T01500111 10156 20139 58004=
201010032253 METAR KBLI 032253Z 17005KT 10SM OVC043 14/11 A2997 RMK AO2 SLP156 T01440106=
201010032153 METAR KBLI 032153Z 17007KT 10SM OVC047 15/11 A2997 RMK AO2 SLP155 T01500106=
201010032053 METAR KBLI 032053Z 17008KT 10SM R16/3500VP6000FT BKN049 OVC075 16/11 A2998 RMK AO2 SLP157 T01560111 50001=
201010031953 METAR KBLI 031953Z 17010KT 10SM SCT065 16/11 A2998 RMK AO2 SLP157 T01560111=
201010031853 METAR KBLI 031853Z 19007KT 10SM OVC060 14/11 A2998 RMK AO2 SLP157 T01440106=
201010031753 METAR KBLI 031753Z 17006KT 10SM FEW046 OVC055 14/11 A2997 RMK AO2 SLP155 T01390111 10139 20122 51007=
201010031731 SPECI KBLI 031731Z 18005KT 10SM SCT006 BKN046 OVC055 13/11 A2997 RMK AO2=
201010031731 SPECI KBLI 031731Z 18005KT 10SM SCT006 BKN046 OVC055 13/11 A2997 RMK AO2=
201010031714 SPECI KBLI 031714Z 17004KT 10SM BKN004 OVC046 13/11 A2997 RMK AO2=
201010031714 SPECI KBLI 031714Z 17004KT 10SM BKN004 OVC046 13/11 A2997 RMK AO2=
201010031653 METAR KBLI 031653Z 19003KT 10SM FEW004 OVC044 13/11 A2997 RMK AO2 SLP155 T01280111=
201010031553 METAR KBLI 031553Z 17007KT 10SM OVC044 13/11 A2996 RMK AO2 SLP153 T01280111=
201010031453 METAR KBLI 031453Z 19005KT 10SM OVC044 13/11 A2995 RMK AO2 SLP150 T01280111 53004=
201010031353 METAR KBLI 031353Z 18005KT 10SM OVC038 13/11 A2995 RMK AO2 SLP148 T01280111=
201010031253 METAR KBLI 031253Z AUTO 17005KT 10SM OVC036 13/11 A2994 RMK AO2 SLP145 T01330111=
201010031153 METAR KBLI 031153Z AUTO 18004KT 10SM OVC034 13/11 A2994 RMK AO2 SLP145 T01330111 10144 20133 56002=
201010031133 SPECI KBLI 031133Z AUTO 17005KT 10SM SCT017 OVC034 13/11 A2994 RMK AO2=
201010031133 SPECI KBLI 031133Z AUTO 17005KT 10SM SCT017 OVC034 13/11 A2994 RMK AO2=
201010031107 SPECI KBLI 031107Z AUTO 18005KT 10SM BKN017 OVC034 13/11 A2995 RMK AO2=
201010031107 SPECI KBLI 031107Z AUTO 18005KT 10SM BKN017 OVC034 13/11 A2995 RMK AO2=
201010031053 METAR KBLI 031053Z AUTO 19004KT 10SM FEW017 OVC034 13/11 A2994 RMK AO2 SLP146 T01330111=
201010030953 METAR KBLI 030953Z AUTO 19003KT 10SM OVC034 14/12 A2994 RMK AO2 SLP145 T01390117=
201010030853 METAR KBLI 030853Z AUTO 00000KT 10SM OVC034 14/12 A2995 RMK AO2 SLP147 T01440122 57000=
201010030753 METAR KBLI 030753Z AUTO 00000KT 10SM OVC034 14/12 A2995 RMK AO2 SLP147 T01440122 401890139=
201010030653 METAR KBLI 030653Z AUTO 16003KT 10SM OVC032 14/12 A2995 RMK AO2 SLP149 T01440122=
201010030553 METAR KBLI 030553Z AUTO 00000KT 10SM OVC032 14/13 A2995 RMK AO2 SLP148 T01440128 10183 20144 58003=
201010030453 METAR KBLI 030453Z 00000KT 10SM OVC030 14/12 A2996 RMK AO2 SLP149 T01440122=
201010030353 METAR KBLI 030353Z 16003KT 10SM OVC030 14/12 A2996 RMK AO2 SLP150 T01440122=
201010030253 METAR KBLI 030253Z 00000KT 10SM OVC030 14/12 A2996 RMK AO2 SLP150 T01440117 56011=
201010030153 METAR KBLI 030153Z 00000KT 10SM OVC030 15/12 A2996 RMK AO2 SLP152 T01500117=
201010030053 METAR KBLI 030053Z 28004KT 10SM CLR 17/11 A2997 RMK AO2 SLP155 T01720106=
201010022353 METAR KBLI 022353Z AUTO 27005KT 10SM R16/1400VP6000FT CLR 18/10 A2999 RMK AO2 SLP162 T01780100 10189 20150 56024 TSNO=
201010022253 METAR KBLI 022253Z AUTO VRB05KT 10SM CLR 18/11 A3002 RMK AO2 SLP170 T01830106 TSNO=
201010022153 METAR KBLI 022153Z 20004KT 10SM R16/5500VP6000FT FEW022 18/12 A3004 RMK AO2 SLP177 T01830117=
201010022053 METAR KBLI 022053Z 00000KT 10SM OVC040 18/12 A3006 RMK AO2 SLP186 T01830122 58015=
201010021953 METAR KBLI 021953Z 00000KT 10SM OVC040 17/12 A3009 RMK AO2 SLP195 T01670122=
201010021853 METAR KBLI 021853Z 00000KT 10SM OVC038 16/12 A3010 RMK AO2 SLP200 T01610122=
201010021753 METAR KBLI 021753Z 00000KT 10SM OVC042 15/11 A3011 RMK AO2 SLP201 T01500111 10156 20139 50000=
201010021653 METAR KBLI 021653Z 18003KT 10SM SCT026 OVC042 15/12 A3011 RMK AO2 SLP202 T01500117=
201010021553 METAR KBLI 021553Z 00000KT 10SM FEW025 OVC040 14/12 A3011 RMK AO2 SLP201 T01440122=
201010021453 METAR KBLI 021453Z 00000KT 10SM FEW027 OVC042 14/12 A3011 RMK AO2 SLP201 T01390117 53001=
201010021425 SPECI KBLI 021425Z 00000KT 10SM SCT025 OVC042 14/12 A3010 RMK AO2=
201010021425 SPECI KBLI 021425Z 00000KT 10SM SCT025 OVC042 14/12 A3010 RMK AO2=
201010021408 SPECI KBLI 021408Z 00000KT 10SM BKN025 OVC042 14/12 A3010 RMK AO2=
201010021408 SPECI KBLI 021408Z 00000KT 10SM BKN025 OVC042 14/12 A3010 RMK AO2=
201010021353 METAR KBLI 021353Z 17003KT 10SM FEW025 OVC042 14/12 A3010 RMK AO2 SLP200 T01390117=
201010021253 METAR KBLI 021253Z AUTO 19003KT 10SM OVC042 14/12 A3010 RMK AO2 SLP198 T01390117 TSNO=
201010021153 METAR KBLI 021153Z AUTO 18003KT 10SM FEW025 OVC040 14/12 A3010 RMK AO2 SLP199 T01440122 10167 20144 58002 TSNO=
201010021134 SPECI KBLI 021134Z AUTO 18003KT 10SM SCT023 OVC040 14/12 A3010 RMK AO2 TSNO=
201010021134 SPECI KBLI 021134Z AUTO 18003KT 10SM SCT023 OVC040 14/12 A3010 RMK AO2 TSNO=
201010021105 SPECI KBLI 021105Z AUTO 19003KT 10SM BKN023 OVC040 15/12 A3010 RMK AO2 TSNO=
201010021105 SPECI KBLI 021105Z AUTO 19003KT 10SM BKN023 OVC040 15/12 A3010 RMK AO2 TSNO=
201010021053 METAR KBLI 021053Z AUTO 18003KT 10SM FEW023 OVC040 15/12 A3010 RMK AO2 SLP200 T01500122 TSNO=
201010020953 METAR KBLI 020953Z AUTO 17004KT 10SM OVC038 15/12 A3011 RMK AO2 SLP202 T01500122 TSNO=
201010020853 METAR KBLI 020853Z AUTO 18003KT 10SM OVC036 16/13 A3011 RMK AO2 SLP202 T01560128 51005 TSNO=
201010020753 METAR KBLI 020753Z AUTO 00000KT 10SM FEW023 OVC038 16/13 A3011 RMK AO2 SLP201 T01560128 402000083 TSNO=
201010020653 METAR KBLI 020653Z AUTO 18004KT 10SM OVC038 16/13 A3010 RMK AO2 SLP200 T01610128 TSNO=
201010020553 METAR KBLI 020553Z AUTO 16010KT 10SM OVC038 17/13 A3009 RMK AO2 SLP196 T01670128 10194 20161 51010 TSNO=
201010020531 SPECI KBLI 020531Z 17008KT 10SM OVC038 17/13 A3009 RMK AO2=
201010020531 SPECI KBLI 020531Z 17008KT 10SM OVC038 17/13 A3009 RMK AO2=
201010020453 METAR KBLI 020453Z 16009KT 10SM FEW040 16/13 A3009 RMK AO2 SLP195 T01610128=
201010020353 METAR KBLI 020353Z 15011KT 10SM CLR 17/13 A3007 RMK AO2 SLP190 T01720128=
201010020253 METAR KBLI 020253Z 15012KT 10SM BKN032 18/13 A3006 RMK AO2 SLP186 T01780128 53014=
201010020153 METAR KBLI 020153Z 17008KT 10SM SCT029 17/13 A3005 RMK AO2 SLP182 T01720128=
201010020108 SPECI KBLI 020108Z 17008KT 10SM BKN027 18/13 A3005 RMK AO2=
201010020108 SPECI KBLI 020108Z 17008KT 10SM BKN027 18/13 A3005 RMK AO2=
201010020053 METAR KBLI 020053Z 18008KT 10SM SCT027 18/13 A3003 RMK AO2 SLP176 T01830128=
201010012353 METAR KBLI 012353Z 17007KT 10SM CLR 19/12 A3002 RMK AO2 SLP173 T01890122 10200 20161 51006=
201010012253 METAR KBLI 012253Z AUTO 17011KT 10SM CLR 19/12 A3002 RMK AO2 SLP171 T01890117=
201010012153 METAR KBLI 012153Z 17010G15KT 10SM CLR 19/12 A3001 RMK AO2 SLP169 T01890117=
201010012053 METAR KBLI 012053Z 19009KT 10SM CLR 19/12 A3001 RMK AO2 SLP167 T01940117 51006=
201010011953 METAR KBLI 011953Z 19006KT 10SM CLR 19/13 A3000 RMK AO2 SLP165 T01890128=
201010011853 METAR KBLI 011853Z 17009KT 10SM CLR 17/12 A3000 RMK AO2 SLP164 T01720122=
201010011753 METAR KBLI 011753Z 18005KT 10SM CLR 16/12 A2999 RMK AO2 SLP162 T01610117 10167 20083 51020=
201010011653 METAR KBLI 011653Z 00000KT 10SM CLR 15/12 A2998 RMK AO2 SLP158 T01500122=
201010011553 METAR KBLI 011553Z 16003KT 10SM CLR 13/12 A2996 RMK AO2 SLP152 T01330117=
201010011453 METAR KBLI 011453Z 00000KT 10SM CLR 11/09 A2993 RMK AO2 SLP142 T01060094 53012=
201010011430 SPECI KBLI 011430Z 00000KT 10SM R16/2400VP6000FT CLR 09/08 A2991 RMK AO2=
201010011430 SPECI KBLI 011430Z 00000KT 10SM R16/2400VP6000FT CLR 09/08 A2991 RMK AO2=
201010011419 SPECI KBLI 011419Z 00000KT 1 3/4SM BR CLR 09/08 A2991 RMK AO2=
201010011419 SPECI KBLI 011419Z 00000KT 1 3/4SM BR CLR 09/08 A2991 RMK AO2=
201010011353 METAR KBLI 011353Z 00000KT 10SM CLR 08/07 A2990 RMK AO2 SLP131 T00830072=
201010011346 SPECI KBLI 011346Z AUTO 00000KT 10SM CLR 09/08 A2989 RMK AO2 TSNO=
201010011346 SPECI KBLI 011346Z AUTO 00000KT 10SM CLR 09/08 A2989 RMK AO2 TSNO=
201010011338 SPECI KBLI 011338Z AUTO 00000KT 2 1/2SM BR FEW008 09/07 A2989 RMK AO2 TSNO=
201010011338 SPECI KBLI 011338Z AUTO 00000KT 2 1/2SM BR FEW008 09/07 A2989 RMK AO2 TSNO=
201010011328 SPECI KBLI 011328Z AUTO 00000KT 8SM FEW008 09/08 A2990 RMK AO2 TSNO=
201010011328 SPECI KBLI 011328Z AUTO 00000KT 8SM FEW008 09/08 A2990 RMK AO2 TSNO=
201010011321 SPECI KBLI 011321Z AUTO 00000KT 2SM R16/6000VP6000FT BR FEW008 09/08 A2990 RMK AO2 TSNO=
201010011321 SPECI KBLI 011321Z AUTO 00000KT 2SM R16/6000VP6000FT BR FEW008 09/08 A2990 RMK AO2 TSNO=
201010011311 SPECI KBLI 011311Z AUTO 00000KT 1SM R16/2400VP6000FT BR VV008 09/08 A2989 RMK AO2 TSNO=
201010011311 SPECI KBLI 011311Z AUTO 00000KT 1SM R16/2400VP6000FT BR VV008 09/08 A2989 RMK AO2 TSNO=
201010011307 SPECI KBLI 011307Z AUTO 00000KT 1 3/4SM BR CLR 09/07 A2989 RMK AO2 TSNO=
201010011307 SPECI KBLI 011307Z AUTO 00000KT 1 3/4SM BR CLR 09/07 A2989 RMK AO2 TSNO=
201010011253 METAR KBLI 011253Z AUTO 00000KT 10SM CLR 09/08 A2990 RMK AO2 SLP130 T00890078 TSNO=
201010011248 SPECI KBLI 011248Z AUTO 00000KT 7SM R16/4500VP6000FT CLR 09/07 A2989 RMK AO2 TSNO=
201010011248 SPECI KBLI 011248Z AUTO 00000KT 7SM R16/4500VP6000FT CLR 09/07 A2989 RMK AO2 TSNO=
201010011238 SPECI KBLI 011238Z AUTO 00000KT 2SM BR CLR 09/08 A2989 RMK AO2 VIS 3/4V5 TSNO=
201010011238 SPECI KBLI 011238Z AUTO 00000KT 2SM BR CLR 09/08 A2989 RMK AO2 VIS 3/4V5 TSNO=
201010011231 SPECI KBLI 011231Z AUTO 00000KT 3SM BR CLR 10/08 A2989 RMK AO2 TSNO=
201010011231 SPECI KBLI 011231Z AUTO 00000KT 3SM BR CLR 10/08 A2989 RMK AO2 TSNO=
201010011217 SPECI KBLI 011217Z AUTO 00000KT 1 1/2SM BR CLR 09/08 A2989 RMK AO2 TSNO=
201010011217 SPECI KBLI 011217Z AUTO 00000KT 1 1/2SM BR CLR 09/08 A2989 RMK AO2 TSNO=
201010011153 METAR KBLI 011153Z AUTO 00000KT 9SM CLR 09/08 A2989 RMK AO2 SLP126 P0001 60001 70001 T00940083 10111 20089 53008 TSNO=
201010011109 SPECI KBLI 011109Z AUTO 00000KT 3SM BR CLR 09/08 A2987 RMK AO2 P0001 TSNO=
201010011109 SPECI KBLI 011109Z AUTO 00000KT 3SM BR CLR 09/08 A2987 RMK AO2 P0001 TSNO=
201010011103 SPECI KBLI 011103Z AUTO 00000KT 1 1/2SM R16/2800VP6000FT BR CLR 09/08 A2987 RMK AO2 TSNO=
201010011103 SPECI KBLI 011103Z AUTO 00000KT 1 1/2SM R16/2800VP6000FT BR CLR 09/08 A2987 RMK AO2 TSNO=
201010011053 METAR KBLI 011053Z AUTO 00000KT 2SM R16/5000VP6000FT BR CLR 10/08 A2987 RMK AO2 VIS 1 1/4V5 SLP122 T01000083 TSNO=
201010010953 METAR KBLI 010953Z AUTO 00000KT 10SM CLR 11/09 A2986 RMK AO2 SLP118 T01060094 TSNO=
201010010853 METAR KBLI 010853Z AUTO 00000KT 10SM CLR 11/09 A2986 RMK AO2 SLP118 T01060094 53004 TSNO=
201010010753 METAR KBLI 010753Z AUTO 00000KT 10SM CLR 11/09 A2985 RMK AO2 SLP114 T01060094 402000078 TSNO=
201010010653 METAR KBLI 010653Z AUTO 00000KT 10SM CLR 11/09 A2985 RMK AO2 SLP116 T01060094 TSNO=
201010010553 METAR KBLI 010553Z AUTO 00000KT 10SM CLR 11/09 A2985 RMK AO2 SLP115 T01110094 10189 20106 53006 TSNO=
201010010453 METAR KBLI 010453Z 00000KT 10SM CLR 12/10 A2983 RMK AO2 SLP110 T01170100=
201010010353 METAR KBLI 010353Z 00000KT 10SM CLR 12/11 A2983 RMK AO2 SLP109 T01220106=
201010010253 METAR KBLI 010253Z 00000KT 10SM CLR 13/11 A2983 RMK AO2 SLP109 T01280111 55001=
201010010153 METAR KBLI 010153Z 00000KT 10SM CLR 14/12 A2982 RMK AO2 SLP106 T01440117=
201010010053 METAR KBLI 010053Z 00000KT 10SM CLR 17/12 A2983 RMK AO2 SLP107 T01720117=

# No short TAF reports from KBLI in databse.

###################################
#  large TAF from KBLI
###################################
201010312327 TAF KBLI 312327Z 0100/0124 16008KT P6SM SCT070 BKN120 FM010400
                       16012G22KT P6SM -RA BKN040 OVC100 FM010900
                       16020G30KT P6SM -RA BKN020 OVC040 FM011600
                       19015G25KT 5SM RA BR OVC020 FM012200 22012G20KT
                       P6SM -SHRA BKN025 BKN050=
201010311720 TAF KBLI 311720Z 3118/0118 16012KT P6SM SCT025 BKN050 BKN120 FM010400
                       16012G22KT P6SM -RA BKN040 OVC100 FM010900
                       16020G30KT P6SM -RA BKN020 OVC040 FM011600
                       19015G25KT 5SM RA BR OVC020=
201010311139 TAF KBLI 311139Z 3112/0112 18010KT P6SM SCT020 BKN040 OVC060
                      TEMPO 3113/3116 -SHRA BKN020 OVC040 FM311800
                       14006KT P6SM SCT050 BKN200 FM010000 14010KT
                       P6SM SCT050 BKN120 OVC200 FM010600 14014G20KT
                       P6SM -RA OVC045=
201010310540 TAF KBLI 310540Z 3106/0106 15014G20KT P6SM -RA OVC060 FM311000
                       18010KT P6SM SCT020 BKN040 OVC060
                      TEMPO 3110/3114 -SHRA BKN020 OVC040 FM311800
                       14006KT P6SM SCT050 BKN200 FM010000 14010KT
                       P6SM SCT050 BKN120 OVC200=
201010310115 KBLI 310115Z 3101/3124 15012G24KT P6SM -RA SCT015 OVC030
                      TEMPO 3106/3110 4SM -RA BR BKN015 OVC030
                       FM311000 20012KT P6SM -SHRA SCT015 BKN040
                       FM311700 22007KT P6SM BKN040 FM312200 18012KT
                       P6SM BKN050 OVC200=
201010302320 TAF KBLI 302320Z 3100/3124 16012KT P6SM -RA SCT015 OVC035
                      TEMPO 3106/3110 4SM -RA BR BKN015 OVC030
                       FM311000 20012KT P6SM -SHRA SCT015 BKN040
                       FM311700 22007KT P6SM BKN040 FM312200 18012KT
                       P6SM BKN050 OVC200=
201010301722 TAF KBLI 301722Z 3018/3118 VRB03KT P6SM SCT050 FM302000 16006KT
                       P6SM BKN050 BKN200 FM310600 16010KT P6SM
                       -RA SCT015 OVC035
                      TEMPO 3106/3110 4SM -RA BR BKN015 OVC030
                       FM311000 20012KT P6SM -SHRA SCT015 BKN040
                       FM311700 22007KT P6SM SCT040=
201010301139 TAF KBLI 301139Z 3012/3112 03004KT P6SM SKC FM301500 VRB03KT P6SM
                       SCT100 BKN200 FM302000 12006KT P6SM OVC070
                       FM310000 15012KT P6SM -RA OVC045 FM310800
                       15012KT P6SM -RA SCT020 OVC030 FM311100
                       18010KT P6SM -SHRA SCT012 BKN022 OVC040=
201010300538 TAF KBLI 300538Z 3006/3106 00000KT P6SM SKC
                      TEMPO 3006/3010 2SM BR FM301600 12006KT P6SM
                       SCT100 BKN200 FM302000 12010KT P6SM OVC070
                       FM310000 15012KT P6SM -RA OVC045=
201010292320 TAF KBLI 292320Z 3000/3024 17007KT P6SM SCT050 FM301000 16010KT
                       P6SM BKN015 BKN050 FM301700 16012KT P6SM
                       SCT020 BKN040 OVC100=
201010291720 TAF KBLI 291720Z 2918/3018 17007KT P6SM SCT020 BKN040
                      TEMPO 2918/2921 BKN020 BKN040 FM301000 16010KT
                       P6SM BKN015 BKN050 FM301700 16012KT P6SM
                       SCT020 BKN040 OVC100=
201010291126 TAF KBLI 291126Z 2912/3012 VRB03KT P6SM OVC022 FM291800 VRB03KT
                       P6SM BKN030 FM292000 VRB03KT P6SM SCT050
                       FM300000 VRB03KT P6SM SCT100=
201010290526 TAF KBLI 290526Z 2906/3006 35004KT P6SM BKN035 OVC060 FM291100
                       35003KT P6SM OVC020 FM292000 20005KT P6SM
                       SCT035 FM300000 VRB04KT P6SM FEW250=
201010282337 TAF KBLI 282337Z 2900/2924 00000KT P6SM VCSH OVC035 FM290200 VRB03KT
                       P6SM BKN035 FM291500 17003KT P6SM OVC015
                       FM292000 20005KT P6SM SCT035 SCT200=
201010281733 TAF KBLI 281733Z 2818/2918 02004KT P6SM -RA OVC060 FM282000 02004KT
                       P6SM VCSH OVC060 FM282200 03005KT P6SM BKN040
                       BKN070 FM290200 VRB03KT P6SM BKN035 FM291500
                       17003KT P6SM OVC015=
201010281128 TAF KBLI 281128Z 2812/2912 03005KT P6SM -RA SCT050 OVC080 FM281400
                       02005KT P6SM -RA SCT030 BKN040 OVC070 FM282200
                       03005KT P6SM BKN040 BKN070 FM290200 VRB03KT
                       P6SM BKN035=
201010280536 TAF KBLI 280536Z 2806/2906 03006KT P6SM SCT100 OVC200 FM281200
                       05007KT P6SM BKN060 OVC100 FM281800 05004KT
                       P6SM -RA BKN040 OVC070 FM282100 03004KT
                       P6SM VCSH BKN040 BKN070 FM290000 03003KT
                       P6SM BKN040=
201010272341 KBLI 272341Z 2800/2824 03010KT P6SM OVC250 FM281200 05007KT P6SM
                       BKN060 OVC100
                      PROB30 2812/2818 -RA FM281800 VRB04KT P6SM
                       BKN040 BKN070=
201010272339 TAF KBLI 272339Z 2800/2824 03006KT P6SM OVC250 FM280100 02008KT
                       P6SM BKN250 FM281200 03007KT P6SM SCT040
                       BKN060 OVC100
                      PROB30 2812/2818 -RA FM281800 08005KT P6SM
                       BKN040 BKN070=
201010271735 TAF KBLI 271735Z 2718/2818 01003KT P6SM BKN050 OVC090 FM272000
                       03006KT P6SM SCT050 SCT250 FM280100 02008KT
                       P6SM BKN250 FM281200 03007KT P6SM SCT050
                       BKN080 OVC100
                      PROB30 2812/2818 -RA=
201010271139 TAF KBLI 271139Z 2712/2812 VRB03KT P6SM SCT020 OVC025 FM271900
                       03006KT P6SM SCT025 SCT250 FM272100 02007KT
                       P6SM SCT035 SCT250 FM280000 01004KT P6SM
                       SCT100 SCT250 FM280600 01004KT P6SM SCT100
                       BKN250=
201010270525 TAF KBLI 270525Z 2706/2806 18007KT P6SM SCT035 OVC040 FM271900
                       03006KT P6SM SCT025 FM272100 02007KT P6SM
                       FEW030 FM280000 01004KT P6SM SCT250=
201010270123 TAF AMD KBLI 270123Z 2701/2724 18007KT P6SM OVC035 FM270600 15004KT
                       P6SM BKN025 OVC035
                      TEMPO 2712/2716 4SM -SHRA BR BKN020 BKN030
                       FM271800 03006KT P6SM SCT025=
201010262335 TAF KBLI 262335Z 2700/2724 18007KT P6SM VCSH BKN025 OVC045 FM270400
                       15004KT P6SM VCSH BKN035
                      TEMPO 2712/2716 4SM -SHRA BR BKN020 BKN030
                       FM271800 03006KT P6SM SCT025=
201010261733 TAF KBLI 261733Z 2618/2718 14015G25KT P6SM VCSH OVC025 FM262000
                       19010KT P6SM -SHRA BKN030 FM270000 18005KT
                       P6SM VCSH BKN025=
201010261130 TAF KBLI 261130Z 2612/2712 15012G22KT P6SM -SHRA SCT020 BKN035
                       BKN100
                      TEMPO 2612/2616 BKN020 FM261800 15010G20KT
                       P6SM -SHRA BKN030 BKN050 FM262100 16010KT
                       P6SM -SHRA BKN030 OVC040=
201010260525 TAF KBLI 260525Z 2606/2706 15015G25KT P6SM -SHRA SCT030 BKN100
                       FM261000 16012KT P6SM -SHRA BKN020 OVC040
                       FM261800 17010KT P6SM -SHRA BKN035 BKN050=
201010252340 TAF KBLI 252340Z 2600/2624 17012G20KT P6SM -SHRA SCT020 BKN035
                       OVC045
                      TEMPO 2600/2603 5SM -SHRA BKN020 OVC035 FM260600
                       17011KT P6SM -SHRA BKN030 OVC050 FM260800
                       17010KT P6SM -SHRA BKN020 OVC040 FM261800
                       17010KT P6SM -SHRA BKN035 BKN050=
201010251836 KBLI 251836Z 2519/2618 15012G20KT P6SM -SHRA SCT030 OVC050
                      TEMPO 2519/2522 BKN030 OVC050 FM260200 17011G20KT
                       P6SM -SHRA SCT030 OVC040 FM260800 18010KT
                       P6SM -SHRA BKN015 OVC030=
201010251737 TAF KBLI 251737Z 2518/2618 15012G25KT P6SM -SHRA BKN025 OVC040
                       FM252100 17015G26KT P6SM -SHRA BKN025 OVC040
                       FM260200 17011G20KT P6SM -SHRA SCT030 OVC040
                       FM260800 18010KT P6SM -SHRA BKN015 OVC030=
201010251120 TAF KBLI 251120Z 2512/2612 15020G27KT P6SM -SHRA OVC025 FM251800
                       17020G28KT P6SM -SHRA BKN025 BKN040 FM260300
                       18012G22KT P6SM -SHRA SCT025 BKN040 FM260800
                       18010KT P6SM -SHRA BKN025 OVC040=
201010250520 TAF KBLI 250520Z 2506/2606 15015G25KT P6SM OVC023 FM251200 16015G25KT
                       P6SM -SHRA BKN024 BKN040 FM251800 17015G25KT
                       P6SM -SHRA BKN025 BKN040 FM260300 18012KT
                       P6SM -SHRA SCT025 BKN040=
201010242336 TAF KBLI 242336Z 2500/2524 15015G25KT P6SM -SHRA SCT035 SCT050
                       BKN080
                      TEMPO 2500/2504 SHRA BKN035CB BKN050 BKN080
                       FM250400 16015G25KT P6SM -SHRA SCT035 SCT050
                       BKN080
                      TEMPO 2504/2507 SHRA BKN035CB BKN050 BKN080
                       FM250900 16015G25KT P6SM -SHRA BKN024 BKN040
                       FM251800 17015G25KT P6SM -SHRA SCT035 BKN050
                       BKN080=
201010241735 TAF KBLI 241735Z 2418/2518 15015G25KT P6SM -SHRA SCT035 BKN050
                       OVC080
                      TEMPO 2418/2422 SHRA BKN030CB OVC050 FM242200
                       17011G22KT P6SM -SHRA SCT035 BKN050 OVC080
                       TEMPO 2422/2502 SHRA BKN030CB OVC050 FM250700
                       17010G20KT P6SM -SHRA BKN018 OVC030 FM251700
                       17010G20KT P6SM -SHRA SCT020 BKN025 BKN050=
201010241120 TAF KBLI 241120Z 2412/2512 01005KT P6SM -RA OVC050 FM241400 16015KT
                       P6SM -SHRA SCT025 BKN035 OVC050 FM250800
                       15012G22KT P6SM -SHRA BKN025 OVC035=
201010240902 KBLI 240902Z 2409/2506 VRB03KT P6SM -RA OVC050 FM241100 15015G25KT
                       P6SM -SHRA BKN025 OVC040 FM242000 15011KT
                       P6SM -SHRA SCT020 BKN035 FM250300 14008KT
                       P6SM -SHRA SCT020 BKN035=
201010240526 TAF KBLI 240526Z 2406/2506 13014G26KT P6SM -RA OVC045 FM240900
                       14015G28KT 4SM -RA BR SCT015 OVC030 FM242000
                       15011KT P6SM -SHRA SCT020 BKN035 FM250300
                       14008KT P6SM -SHRA SCT020 BKN035=
201010232342 TAF KBLI 232342Z 2400/2424 13011KT P6SM -RA BKN045 OVC060 FM240500
                       12015G25KT 5SM -RA BR OVC040 FM241000 14014G24KT
                       4SM -RA BR SCT015 OVC025 FM242000 15011KT
                       P6SM -SHRA SCT020 BKN035=
201010231744 TAF KBLI 231744Z 2318/2418 12006KT P6SM VCSH BKN060 OVC100 FM240200
                       13011KT P6SM -RA OVC060 FM240500 12015G25KT
                       5SM -RA BR OVC040 FM241200 14014G24KT 5SM
                       -RA BR SCT020 OVC035=
201010231120 TAF KBLI 231120Z 2312/2412 00000KT P6SM OVC110 FM231400 10006KT
                       P6SM OVC050
                      TEMPO 2315/2319 -RA FM232000 15008KT P6SM
                       BKN050 OVC100 FM240300 05009KT P6SM -RA
                       OVC060 FM240900 10017G28KT P6SM -RA OVC035=
201010230521 TAF KBLI 230521Z 2306/2406 02003KT P6SM BKN120 FM231000 04005KT
                       P6SM -RA BKN060 OVC100 FM231400 10006KT
                       P6SM -RA OVC050 FM232000 15008KT P6SM BKN050
                       OVC100 FM240300 05009KT P6SM -RA OVC060=
201010222332 TAF KBLI 222332Z 2300/2324 17007KT P6SM BKN100 BKN200 FM230600
                       09005KT P6SM BKN090 OVC200 FM231000 14008KT
                       P6SM -RA BKN060 OVC100 FM231400 11006KT
                       P6SM -RA OVC050 FM231800 15008KT P6SM BKN050
                       OVC100=
201010221729 TAF KBLI 221729Z 2218/2318 17010G20KT P6SM VCSH SCT030 BKN070 OVC150
                       TEMPO 2218/2220 BKN030 BKN070 OVC150 FM222200
                       17009KT P6SM BKN070 BKN150 FM230100 16006KT
                       P6SM BKN070 BKN150 FM230600 09005KT P6SM
                       BKN090 OVC200 FM231200 14008KT P6SM -RA
                       BKN060 OVC100=
201010221120 TAF KBLI 221120Z 2212/2312 16009G15KT P6SM VCSH BKN030 OVC090 FM221600
                       17010KT P6SM VCSH BKN035 BKN050 FM221900
                       18008KT P6SM SCT050 BKN150 FM230300 04005KT
                       P6SM BKN120 FM231000 04005KT P6SM OVC040=
201010220815 KBLI 220815Z 2208/2306 15011G18KT P6SM -SHRA SCT015 BKN070 OVC120
                       FM221200 16010KT P6SM -RA SCT015 OVC035
                       FM221600 17010KT P6SM VCSH BKN035 BKN050
                       FM221900 18008KT P6SM SCT050 BKN150 FM230300
                       04005KT P6SM BKN120=
201010220530 TAF KBLI 220530Z 2206/2306 00000KT P6SM -RA SCT015 OVC035 FM221000
                       16008KT P6SM -RA SCT015 OVC035 FM221600
                       17010KT P6SM VCSH BKN035 BKN050 FM221900
                       18008KT P6SM SCT050 BKN150 FM230300 04005KT
                       P6SM BKN120=
201010220152 KBLI 220152Z 2202/2224 16010G18KT P6SM BKN030 BKN100
                      TEMPO 2202/2204 -RA FM220400 13012KT P6SM
                       -RA BKN025 OVC050 FM221800 17010KT P6SM
                       SCT050 BKN100=
201010212323 TAF KBLI 212323Z 2200/2224 16006KT P6SM BKN100 FM220500 16008KT
                       P6SM BKN050 BKN100 FM220900 13012KT P6SM
                       -RA SCT020 OVC040 FM222000 17010KT P6SM
                       SCT050 BKN100=
201010211726 TAF KBLI 211726Z 2118/2218 00000KT P6SM SKC
                      TEMPO 2118/2119 1/2SM FG BKN001 FM220500
                       16008KT P6SM SCT040 BKN100 BKN200 FM220800
                       13012KT P6SM -RA SCT020 OVC035=
201010211507 KBLI 211507Z 2115/2212 00000KT P6SM FEW001 SCT010
                      TEMPO 2115/2117 1/2SM FG VV001 FM211700 20003KT
                       P6SM FEW020 BKN250 FM220500 16008KT P6SM
                       SCT040 BKN100 BKN200 FM220800 13012KT P6SM
                       -RA SCT020 OVC035=
201010211228 KBLI 211228Z 2112/2212 00000KT 1SM BR BKN008
                      TEMPO 2112/2116 1/4SM FG VV001 FM211700 20003KT
                       P6SM FEW020 BKN250 FM220500 16008KT P6SM
                       SCT040 BKN100 BKN200 FM220800 13012KT P6SM
                       -RA SCT020 OVC035=
201010211201 KBLI 211201Z 2112/2212 00000KT 1SM BR BKN008
                      TEMPO 2112/2116 1/2SM FG VV001 FM211700 20003KT
                       P6SM FEW020 BKN250 FM220500 16008KT P6SM
                       SCT040 BKN100 BKN200 FM220800 13012KT P6SM
                       -RA SCT020 OVC035=
201010211120 TAF KBLI 211120Z 2112/2212 00000KT 3/4SM BR BKN001 OVC008
                      TEMPO 2112/2116 1/2SM FG OVC001 FM211700
                       20003KT P6SM FEW020 BKN250 FM220500 16008KT
                       P6SM SCT040 BKN100 BKN200 FM220800 13012KT
                       P6SM -RA SCT020 OVC035=
201010210836 KBLI 210836Z 2109/2206 00000KT 1/2SM FG BKN001 OVC008 FM211700
                       20003KT P6SM BKN250 FM220500 16008KT P6SM
                       SCT040 BKN100 BKN200=
201010210620 KBLI 210620Z 2106/2206 00000KT 2SM BR SKC FM210900 00000KT 1SM
                       BR BKN004
                      TEMPO 2111/2115 1/2SM FG VV001 FM211700 20003KT
                       P6SM BKN250 FM220500 16008KT P6SM SCT040
                       BKN100 BKN200=
201010210521 TAF KBLI 210521Z 2106/2206 00000KT P6SM SKC FM210900 00000KT 1SM
                       BR BKN004
                      TEMPO 2111/2115 1/2SM FG VV001 FM211700 20003KT
                       P6SM BKN250 FM220500 16008KT P6SM SCT040
                       BKN100 BKN200=
201010202322 TAF KBLI 202322Z 2100/2124 28003KT P6SM FEW250 FM210300 00000KT
                       P6SM FEW250 FM211300 00000KT 1SM BR BKN006
                       FM211700 20003KT P6SM BKN250=
201010201728 TAF KBLI 201728Z 2018/2118 32003KT P6SM SKC FM210300 00000KT P6SM
                       FEW250 FM211300 00000KT 1SM BR BKN006 FM211700
                       18003KT P6SM BKN250=
201010201328 KBLI 201328Z 2013/2112 00000KT 5SM BR SCT250
                      TEMPO 2013/2016 3/4SM BR VV003 FM201800 00000KT
                       P6SM SKC FM202100 32004KT P6SM SCT250=
201010201128 TAF KBLI 201128Z 2012/2112 00000KT 3SM BR SCT009
                      TEMPO 2012/2016 1/2SM FG BKN009 FM201800
                       00000KT P6SM SKC FM202100 32004KT P6SM SCT250=
201010200921 KBLI 200921Z 2009/2106 00000KT 1SM BR FEW001 BKN009
                      TEMPO 2013/2017 1/2SM FG BKN003 FM202000
                       26005KT P6SM SKC=
201010200520 TAF KBLI 200520Z 2006/2106 00000KT P6SM SKC
                      TEMPO 2013/2017 1/2SM FG BKN003 FM202000
                       26005KT P6SM SKC=
201010192322 TAF KBLI 192322Z 2000/2024 01003KT P6SM FEW250 FM200400 00000KT
                       P6SM SKC
                      TEMPO 2013/2017 2SM BR BKN003 FM202000 26005KT
                       P6SM SKC=
201010191722 TAF KBLI 191722Z 1918/2018 00000KT P6SM SCT250 FM192000 36004KT
                       P6SM SCT250 FM200400 00000KT P6SM SKC
                      TEMPO 2013/2017 2SM BR BKN003=
201010191320 KBLI 191320Z 1913/2012 00000KT P6SM VCFG SCT050 FM191700 VRB03KT
                       P6SM SCT050 FM192000 36004KT P6SM SCT120
                       BKN250 FM200800 00000KT 4SM BR SCT250=
201010191120 TAF KBLI 191120Z 1912/2012 00000KT P6SM OVC050
                      TEMPO 1912/1915 2SM BR BKN004 OVC050 FM192000
                       36004KT P6SM SCT120 BKN250 FM200800 00000KT
                       4SM BR SCT250=
201010190552 TAF KBLI 190552Z 1906/2006 00000KT 3SM BR SCT250
                      TEMPO 1911/1915 2SM BR BKN004 OVC050 FM192000
                       26004KT P6SM SCT120 BKN250=
201010182324 TAF KBLI 182324Z 1900/1924 00000KT P6SM BKN050 BKN120
                      TEMPO 1911/1915 2SM BR BKN004 OVC050 FM192000
                       26004KT P6SM SCT120 BKN250=
201010181734 TAF KBLI 181734Z 1818/1918 VRB03KT P6SM FEW120 BKN200
                      TEMPO 1911/1915 2SM BR SCT001 BKN200=
201010181124 TAF KBLI 181124Z 1812/1912 00000KT P6SM BKN120 OVC200
                      TEMPO 1812/1816 3SM BR SCT005 OVC120 FM181800
                       19004KT P6SM OVC200 FM190400 04003KT P6SM
                       SCT200=
201010180529 TAF KBLI 180529Z 1806/1906 00000KT P6SM BKN200 FM181000 00000KT
                       P6SM BKN120 OVC200 FM181800 19003KT P6SM
                       BKN200=
201010172320 TAF KBLI 172320Z 1800/1824 00000KT P6SM SCT250 FM180800 00000KT
                       P6SM BKN120 OVC200 FM181200 VRB03KT P6SM
                       BKN100=
201010171724 TAF KBLI 171724Z 1718/1818 VRB03KT P6SM SCT250 FM180000 34006KT
                       P6SM BKN250 FM180600 VRB03KT P6SM BKN120
                       OVC200=
201010171120 TAF KBLI 171120Z 1712/1812 00000KT P6SM SKC FM171400 00000KT P6SM
                       VCFG SCT003 FM171700 20003KT P6SM SKC FM180900
                       00000KT 5SM BR BKN250=
201010170558 TAF KBLI 170558Z 1706/1806 00000KT 5SM BR SKC FM171400 VRB04KT
                       P6SM VCFG SCT003 FM171700 VRB04KT P6SM SKC=
201010162320 TAF KBLI 162320Z 1700/1724 28006KT P6SM SKC FM170200 VRB03KT P6SM
                       SKC FM171400 VRB04KT P6SM VCFG SCT003 FM171700
                       VRB04KT P6SM SKC=
201010161720 TAF KBLI 161720Z 1618/1718 35004KT P6SM SKC FM162100 29006KT P6SM
                       SKC FM170200 VRB03KT P6SM SKC
                      TEMPO 1713/1717 3SM BR SCT006=
201010161124 TAF KBLI 161124Z 1612/1712 00000KT P6SM SCT250 FM161800 35004KT
                       P6SM SCT250 FM162100 29006KT P6SM SCT250=
201010160541 TAF KBLI 160541Z 1606/1706 00000KT P6SM SKC FM161800 35004KT P6SM
                       SKC FM162100 29006KT P6SM SKC=
201010152320 TAF KBLI 152320Z 1600/1624 36005KT P6SM SKC FM160300 03003KT P6SM
                       SKC FM161800 35004KT P6SM SKC FM162100 29006KT
                       P6SM SKC=
201010151720 TAF KBLI 151720Z 1518/1618 VRB03KT P6SM SKC FM152000 36005KT P6SM
                       SKC FM160300 03003KT P6SM SKC FM161300 VRB03KT
                       P6SM SKC=
201010151133 TAF KBLI 151133Z 1512/1612 VRB03KT P6SM SCT030
                      TEMPO 1512/1516 BKN030 FM151800 31005KT P6SM
                       SKC FM160000 VRB03KT P6SM SKC FM160900 02004KT
                       2SM BR SKC
                      TEMPO 1609/1612 1/2SM FG VV001=
201010150537 TAF KBLI 150537Z 1506/1606 VRB03KT P6SM SCT050
                      TEMPO 1506/1510 BKN050 FM151000 VRB03KT P6SM
                       FEW020 FM151800 31005KT P6SM SKC FM160000
                       VRB03KT P6SM SKC=
201010142321 TAF KBLI 142321Z 1500/1524 19007KT P6SM BKN035 BKN050 FM150600
                       17005KT P6SM BKN025 BKN050 FM151200 17003KT
                       P6SM BKN015 BKN025 FM151800 16005KT P6SM
                       SCT025=
201010141725 TAF KBLI 141725Z 1418/1518 17010KT P6SM BKN060 OVC120
                      TEMPO 1418/1420 -RA FM142000 20010KT P6SM
                       -RA BKN030 OVC050 FM150000 19008KT P6SM
                       BKN030 BKN050 FM150600 17005KT P6SM BKN025
                       BKN050 FM151200 17003KT P6SM BKN015 BKN025=
201010141121 TAF KBLI 141121Z 1412/1512 17006KT P6SM VCFG FEW120 BKN250 FM141400
                       17009KT P6SM BKN120 OVC250 FM141700 17013KT
                       P6SM SCT015 BKN060 OVC120
                      TEMPO 1417/1420 -RA FM142000 18013KT P6SM
                       -RA BKN030 OVC050 FM150000 19010KT P6SM
                       BKN030 BKN050
                      PROB30 1500/1506 -SHRA FM150600 17006KT P6SM
                       BKN025 BKN050=
201010140622 KBLI 140622Z 1406/1506 VRB03KT 6SM BR SKC
                      TEMPO 1406/1410 2SM BR VV002 FM141200 17006KT
                       6SM BR SCT250 FM141500 17009KT P6SM SCT120
                       BKN250 FM141800 17013KT P6SM SCT030 SCT060
                       OVC120
                      PROB30 1418/1421 -RA SCT030 BKN060 OVC120
                       FM142100 19013KT P6SM -RA BKN030 OVC050
                       FM150000 19013KT P6SM BKN030 BKN050
                      PROB30 1500/1506 -SHRA=
201010140550 TAF KBLI 140550Z 1406/1506 VRB03KT 6SM BR SKC
                      TEMPO 1408/1412 2SM BR VV002 FM141200 17006KT
                       6SM BR SCT250 FM141500 17009KT P6SM SCT120
                       BKN250 FM141800 17013KT P6SM SCT030 SCT060
                       OVC120
                      PROB30 1418/1421 -RA SCT030 BKN060 OVC120
                       FM142100 19013KT P6SM -RA BKN030 OVC050
                       FM150000 19013KT P6SM BKN030 BKN050
                      PROB30 1500/1506 -SHRA=
201010132320 TAF KBLI 132320Z 1400/1424 VRB03KT P6SM SKC FM140500 18005KT P6SM
                       BKN250 FM141000 23003KT P6SM BKN150 OVC250
                       FM141800 19005KT P6SM -RA BKN050 BKN120
                       FM142300 19006KT 5SM -RA BKN030 BKN050=
201010131731 TAF KBLI 131731Z 1318/1418 VRB03KT P6SM FEW250 FM140500 18005KT
                       P6SM BKN250 FM141000 23003KT P6SM BKN150
                       OVC250 FM141600 19003KT P6SM BKN050 BKN120=
201010131121 TAF KBLI 131121Z 1312/1412 VRB03KT 4SM BR SCT250
                      TEMPO 1312/1316 1/2SM FG VV001 FM131700 02005KT
                       P6SM SCT250 FM132100 VRB03KT P6SM SCT250
                       FM140600 17006KT P6SM BKN250=
201010130637 KBLI 130637Z 1307/1406 00000KT 3SM MIFG BKN250
                      TEMPO 1307/1311 1/4SM FG VV001 FM131100 00000KT
                       2SM MIFG SCT250
                      TEMPO 1311/1315 1/4SM FG VV001 FM131700 VRB03KT
                       P6SM SCT250=
201010130537 TAF KBLI 130537Z 1306/1406 00000KT 6SM MIFG BKN250
                      TEMPO 1306/1310 2SM MIFG FM131000 00000KT
                       2SM MIFG SCT250
                      TEMPO 1312/1316 1/2SM FG VV001 FM131700 VRB03KT
                       P6SM SCT250=
201010122320 TAF KBLI 122320Z 1300/1324 30003KT P6SM BKN250 FM130600 VRB03KT
                       P6SM SCT250 FM131200 00000KT 5SM BR FEW200
                       TEMPO 1312/1316 1SM BR BKN002 FM131800 VRB02KT
                       P6SM SKC=
201010121720 TAF KBLI 121720Z 1218/1318 VRB03KT P6SM BKN200 FM130100 VRB03KT
                       P6SM SCT200 FM131000 00000KT 5SM BR FEW200
                       TEMPO 1310/1314 1SM BR VV002=
201010121125 TAF KBLI 121125Z 1212/1312 VRB03KT P6SM BKN070 OVC200 FM121500
                       VRB03KT P6SM SCT080 OVC200 FM121800 VRB03KT
                       P6SM BKN200 FM130000 VRB03KT P6SM SCT200
                       FM130900 00000KT 5SM BR SKC
                      TEMPO 1310/1312 1SM BR VV002=
201010120520 TAF KBLI 120520Z 1206/1306 15010KT P6SM OVC035
                      TEMPO 1206/1210 -RA FM121000 13007KT P6SM
                       BKN050 BKN080 OVC200 FM121500 VRB03KT P6SM
                       FEW050 BKN080 OVC200 FM121800 VRB03KT P6SM
                       SCT080 OVC200 FM130000 VRB03KT P6SM BKN200=
201010120233 KBLI 120233Z 1203/1224 17007KT P6SM -RA OVC050 FM120600 17005KT
                       P6SM OVC050
                      TEMPO 1206/1210 -RA FM121300 05004KT P6SM
                       SCT050 BKN100 FM121900 23003KT P6SM SCT250=
201010112331 TAF KBLI 112331Z 1200/1224 17007G15KT P6SM OVC060
                      TEMPO 1202/1206 -RA FM120600 17005KT P6SM
                       OVC050
                      TEMPO 1206/1210 -RA FM121300 05004KT P6SM
                       SCT050 BKN100 FM121900 23003KT P6SM SCT250=
201010111747 TAF KBLI 111747Z 1118/1218 17008KT P6SM SCT100 BKN250 FM120000
                       18006KT P6SM BKN060 OVC100
                      TEMPO 1202/1206 -RA FM120600 00000KT P6SM
                       OVC050
                      TEMPO 1206/1210 -RA FM121300 05004KT P6SM
                       SCT050 BKN100=
201010111139 TAF KBLI 111139Z 1112/1212 00000KT P6SM SCT060 BKN080 FM111600
                       17006KT P6SM BKN060 FM112000 17008KT P6SM
                       SCT060 BKN100 FM120000 18006KT P6SM OVC060
                       TEMPO 1202/1206 -RA FM120600 00000KT P6SM
                       OVC050
                      TEMPO 1206/1210 -RA=
201010111023 KBLI 111023Z 1110/1206 00000KT P6SM OVC060 FM111600 17006KT P6SM
                       BKN060 FM112000 17008KT P6SM SCT060 BKN100
                       FM120000 18006KT P6SM OVC060
                      TEMPO 1202/1206 -RA=
201010110520 TAF KBLI 110520Z 1106/1206 18004KT P6SM BKN070 FM110800 00000KT
                       P6SM SCT080 FM111000 18003KT 4SM BR SCT250
                       FM111200 VRB03KT 1/2SM FG BKN002 FM111500
                       VRB03KT P6SM SCT080 FM111800 18008KT P6SM
                       SCT080=
201010102327 TAF KBLI 102327Z 1100/1124 19007KT P6SM SCT045 FM110400 18003KT
                       P6SM SKC FM110900 18003KT 4SM BR SCT250
                       FM111200 VRB03KT 1/2SM FG BKN002 FM111500
                       VRB03KT P6SM SCT080 FM111800 18008KT P6SM
                       SCT080=
201010101727 TAF KBLI 101727Z 1018/1118 17006KT P6SM SCT045 BKN090 FM102200
                       20010KT P6SM SCT045 FM110400 18003KT P6SM
                       SCT045 FM110900 18003KT 4SM BR SCT250 FM111200
                       VRB03KT 1/2SM FG BKN002 FM111500 VRB03KT
                       P6SM SCT080=
201010101444 KBLI 101444Z 1015/1112 20010G18KT P6SM VCSH SCT045
                      TEMPO 1015/1018 BKN040 FM101800 21012KT P6SM
                       VCSH SCT030 BKN050 FM110400 18003KT P6SM
                       VCSH SCT040 BKN080 FM110900 18003KT 4SM
                       BR SCT250=
201010101130 TAF KBLI 101130Z 1012/1112 16012G20KT P6SM -SHRA SCT016 OVC040
                       TEMPO 1012/1014 3SM SHRA BR OVC013 FM101400
                       20012G20KT P6SM -SHRA BKN015 BKN030 FM101800
                       21012KT P6SM VCSH BKN030 BKN060 FM110400
                       18003KT P6SM VCSH SCT040 BKN080 FM110900
                       18003KT 4SM BR SCT250=
201010100530 TAF KBLI 100530Z 1006/1106 14015G28KT P6SM SCT025 OVC070 FM100800
                       16015G25KT 3SM RA BR OVC015 FM101400 20012G20KT
                       P6SM -SHRA BKN015 BKN030 FM101800 21012KT
                       P6SM VCSH BKN030 BKN060 FM110400 18003KT
                       P6SM VCSH SCT040 BKN080=
201010100411 KBLI 100411Z 1004/1024 15015G26KT P6SM SCT025 OVC070
                      TEMPO 1004/1006 3SM -RA BR OVC025 FM100600
                       16015G25KT 3SM RA BR OVC015 FM101400 22012G20KT
                       P6SM -SHRA BKN015 BKN030 FM101800 22012KT
                       P6SM VCSH BKN030 BKN060=
201010092320 TAF KBLI 092320Z 1000/1024 15015KT P6SM -RA OVC030
                      TEMPO 1000/1004 3SM -RA OVC020 FM100400 16015G25KT
                       3SM RA BR OVC015 FM101400 22012G20KT P6SM
                       -SHRA BKN015 BKN030 FM101800 22012KT P6SM
                       VCSH BKN030 BKN060=
201010091720 TAF KBLI 091720Z 0918/1018 15012G22KT P6SM SCT025 OVC040
                      TEMPO 0918/0921 -RA BKN025 OVC040 FM092100
                       15015G25KT 5SM -RA BR OVC025 FM100300 18015G25KT
                       3SM -RA BR OVC015 FM101500 22012KT P6SM
                       -SHRA BKN015 BKN030 FM101700 22008KT P6SM
                       VCSH BKN030 BKN060=
201010091140 TAF KBLI 091140Z 0912/1012 12010G18KT P6SM -RA SCT015 BKN035 OVC070
                       TEMPO 0912/0916 3SM RA BR BKN015 OVC030
                       FM091800 12013G22KT P6SM OVC025
                      TEMPO 0918/0922 -RA FM092200 11009KT 5SM
                       -RA BR OVC025 FM100400 16014KT 4SM -RA BR
                       OVC015=
201010090540 TAF KBLI 090540Z 0906/1006 15013KT P6SM -RA BKN040 OVC080 FM090800
                       11011KT P6SM -RA OVC025 FM092000 12007KT
                       4SM -RA BR OVC015=
201010082331 TAF KBLI 082331Z 0900/0924 14010KT P6SM BKN045 OVC090 FM090700
                       12010KT P6SM -RA BKN030 OVC050 FM091200
                       14010KT P6SM -RA OVC025=
201010081733 TAF KBLI 081733Z 0818/0918 14008KT P6SM SCT030 BKN040 OVC070
                      TEMPO 0818/0822 -RA BKN030 FM090300 17004KT
                       P6SM OVC030 FM090900 15009KT 4SM -RA BR
                       OVC015=
201010081318 KBLI 081318Z 0813/0912 14008KT P6SM SCT050 OVC100 FM081600 16006KT
                       P6SM OVC050 FM090300 17004KT P6SM -RA OVC035
                       FM090900 15009KT 4SM -RA BR OVC015=
201010081120 TAF KBLI 081120Z 0812/0912 14008KT P6SM SCT030 BKN060 FM081300
                       16006KT P6SM OVC015 FM081800 14006KT P6SM
                       OVC025 FM082100 13006KT P6SM OVC050 FM090300
                       17004KT P6SM -RA OVC035 FM090900 15009KT
                       4SM -RA BR OVC015=
201010080540 TAF KBLI 080540Z 0806/0906 16006KT P6SM OVC024 FM081200 16006KT
                       P6SM OVC015 FM081800 14006KT P6SM OVC025
                       FM082100 13006KT P6SM OVC050 FM090300 17004KT
                       P6SM -RA OVC035=
201010072327 TAF KBLI 072327Z 0800/0824 15008KT P6SM BKN030 BKN040 OVC100 FM080600
                       16008KT P6SM OVC030
                      TEMPO 0814/0818 -RA OVC035 FM081800 18008KT
                       P6SM -RA OVC025=
201010071726 TAF KBLI 071726Z 0718/0818 17006KT P6SM BKN100 FM072300 17008KT
                       P6SM BKN060 BKN100 FM080300 17003KT P6SM
                       OVC045
                      TEMPO 0812/0816 -RA OVC035=
201010071127 TAF KBLI 071127Z 0712/0812 00000KT P6SM SKC
                      TEMPO 0712/0713 4SM BR SCT009 FM071600 17003KT
                       P6SM SCT010 BKN250 FM071800 15008KT P6SM
                       BKN250 FM072300 18012KT P6SM BKN040 BKN100
                       FM080300 17003KT P6SM OVC040 FM080800 17003KT
                       4SM BR OVC015=
201010070900 KBLI 070900Z 0709/0806 00000KT 1/2SM FG VV003
                      TEMPO 0709/0713 4SM BR SCT009 FM071600 17003KT
                       P6SM SCT010 BKN250 FM071800 15008KT P6SM
                       BKN250 FM072300 18012KT P6SM BKN040 BKN100
                       FM080300 17003KT P6SM -RA OVC040=
201010070520 TAF KBLI 070520Z 0706/0806 00000KT P6SM FEW080 FM071200 18008KT
                       P6SM SCT012 BKN120
                      TEMPO 0712/0716 BKN012 OVC120 FM071600 18012KT
                       P6SM BKN015 BKN120 FM071800 18012KT P6SM
                       BKN030 BKN100 FM072100 18012KT P6SM BKN040
                       BKN100 FM080300 17003KT P6SM -RA OVC040=
201010062320 TAF KBLI 062320Z 0700/0724 VRB03KT P6SM SKC FM071200 18008KT P6SM
                       SCT012 BKN120
                      TEMPO 0712/0716 BKN012 OVC120 FM071600 18012KT
                       P6SM BKN015 BKN120 FM071800 18012KT P6SM
                       BKN030 BKN100 FM072100 18012KT P6SM BKN040
                       BKN100=
201010061724 TAF KBLI 061724Z 0618/0718 34006KT P6SM SKC FM070400 VRB03KT P6SM
                       SCT250 FM071300 18008KT P6SM BKN010 FM071600
                       18012KT P6SM OVC020=
201010061504 KBLI 061504Z 0615/0712 00000KT 5SM BR SKC
                      TEMPO 0615/0618 2SM BR FM061900 33005KT P6SM
                       FEW250 FM070300 VRB03KT P6SM SCT250=
201010061128 TAF KBLI 061128Z 0612/0712 00000KT 1/4SM FG VV001 FM061700 00000KT
                       2SM BR SCT001 FM061900 33005KT P6SM FEW250
                       FM070300 VRB03KT P6SM SCT250=
201010061052 TAF AMD KBLI 061052Z 0611/0706 00000KT 1/4SM FG BKN001 OVC007 FM061700
                       00000KT 2SM BR SCT001 FM061900 33005KT P6SM
                       FEW250 FM070300 VRB03KT P6SM SCT250=
201010060525 TAF KBLI 060525Z 0606/0706 00000KT P6SM FEW250
                      TEMPO 0613/0617 2SM BR SCT001 FM061900 33005KT
                       P6SM FEW250 FM070300 VRB03KT P6SM SCT250=
201010052320 TAF KBLI 052320Z 0600/0624 30005KT P6SM SCT200 FM060300 00000KT
                       P6SM SCT200
                      TEMPO 0613/0617 3SM BR SCT001 FM061900 VRB03KT
                       P6SM SKC=
201010051729 TAF KBLI 051729Z 0518/0618 00000KT P6SM FEW070 FM052000 32005KT
                       P6SM FEW070 FM060300 00000KT P6SM SKC=
201010051123 TAF KBLI 051123Z 0512/0612 00000KT P6SM FEW070
                      TEMPO 0512/0516 1SM BR BKN001 BKN070 FM052000
                       32005KT P6SM FEW070 FM060300 00000KT P6SM
                       SKC=
201010050531 TAF KBLI 050531Z 0506/0606 00000KT P6SM FEW070
                      TEMPO 0512/0516 1SM BR BKN001 BKN070 FM052000
                       32005KT P6SM FEW070 FM060300 00000KT P6SM
                       SKC=
201010050051 KBLI 050051Z 0501/0524 VRB03KT P6SM VCSH FEW022 BKN060 FM050200
                       VRB03KT P6SM BKN060 FM050400 VRB03KT P6SM
                       SCT060 FM051200 VRB03KT 4SM BR BKN001
                      TEMPO 0514/0518 1SM BR OVC001 FM051900 35006KT
                       3SM BR SCT010 FM052000 35008KT P6SM SCT070=
201010042337 TAF KBLI 042337Z 0500/0524 16005KT P6SM BKN030 BKN060
                      TEMPO 0500/0502 -SHRA FM050200 22005KT P6SM
                       BKN060 FM050400 VRB03KT P6SM SCT060 FM051200
                       VRB03KT 4SM BR BKN001
                      TEMPO 0514/0518 1SM BR OVC001 FM051900 35006KT
                       3SM BR SCT010 FM052000 35008KT P6SM SCT070=
201010042236 KBLI 042236Z 0423/0518 16005KT P6SM BKN030
                      TEMPO 0423/0502 -SHRA FM050200 22005KT P6SM
                       SCT030 SCT070 FM050400 VRB03KT P6SM SCT070
                       FM051200 VRB03KT 4SM BR BKN001
                      TEMPO 0514/0518 1SM BR OVC001=
201010041738 TAF KBLI 041738Z 0418/0518 16009KT P6SM BKN050 FM042200 30007KT
                       P6SM SCT070 FM050100 01005KT P6SM SCT070
                       FM051200 04005KT 4SM BR BKN001
                      TEMPO 0514/0518 1SM BR OVC001=
201010041122 TAF KBLI 041122Z 0412/0512 19004KT P6SM BKN070 FM050200 VRB03KT
                       P6SM SCT070=
201010040529 TAF KBLI 040529Z 0406/0506 19006KT P6SM OVC070 FM041100 17003KT
                       P6SM BKN035 OVC070 FM042000 21005KT P6SM
                       BKN040 BKN070 FM042300 22005KT P6SM SCT040
                       BKN070=
201010032334 TAF KBLI 032334Z 0400/0424 17005KT P6SM OVC045 FM040700 17003KT
                       P6SM BKN035 OVC090 FM041600 18005KT P6SM
                       VCSH OVC025 FM042100 22008KT P6SM BKN030
                       BKN050=
201010031744 TAF KBLI 031744Z 0318/0418 18005KT P6SM BKN045 OVC060 FM032100
                       21006KT P6SM BKN050 FM040700 17003KT P6SM
                       BKN035 OVC090 FM041600 18005KT P6SM VCSH
                       OVC025=
201010031120 TAF KBLI 031120Z 0312/0412 19003KT P6SM SCT017 OVC035
                      TEMPO 0312/0316 3SM BR BKN017 OVC030 FM031800
                       19005KT P6SM BKN035 OVC050 FM032100 21006KT
                       P6SM BKN040 BKN060 FM040700 17003KT P6SM
                       OVC035=
201010030905 KBLI 030905Z 0309/0406 00000KT P6SM OVC035
                      TEMPO 0312/0316 3SM BR BKN010 OVC030 FM031800
                       19005KT P6SM BKN035 OVC050 FM032100 21006KT
                       P6SM BKN040 OVC060 FM040500 17003KT P6SM
                       BKN023 OVC035=
201010030526 TAF KBLI 030526Z 0306/0406 00000KT P6SM OVC030 FM030900 00000KT
                       P6SM OVC015
                      TEMPO 0312/0316 3SM BR BKN007 OVC015 FM031800
                       19005KT P6SM BKN028 OVC040 FM032100 21006KT
                       P6SM BKN035 OVC045 FM040500 17003KT P6SM
                       BKN023 OVC035=
201010030231 TAF AMD KBLI 030231Z 0303/0324 00000KT P6SM OVC030 FM031000 18003KT
                       P6SM OVC015 FM031300 18003KT 3SM BR VCFG
                       OVC010 FM032100 19004KT P6SM VCSH BKN020
                       BKN040=
201010022327 TAF KBLI 022327Z 0300/0324 VRB05KT P6SM SKC FM031000 18003KT P6SM
                       OVC015 FM031300 18003KT 3SM BR VCFG OVC010
                       FM032100 19004KT P6SM VCSH BKN020 BKN040=
201010021732 TAF KBLI 021732Z 0218/0318 18003KT P6SM SCT026 OVC040 FM022000
                       29005KT P6SM SCT045
                      TEMPO 0220/0223 BKN045 FM031000 18003KT P6SM
                       OVC035 FM031300 18003KT P6SM OVC015=
201010021449 KBLI 021449Z 0215/0312 00000KT P6SM SCT025 OVC040
                      TEMPO 0215/0218 BKN025 OVC040 FM022000 29005KT
                       P6SM SCT045
                      TEMPO 0220/0223 BKN045 FM031000 18003KT P6SM
                       OVC035=
201010021132 TAF KBLI 021132Z 0212/0312 18003KT P6SM BKN023 OVC040
                      TEMPO 0212/0216 BKN013 OVC023 FM022000 29005KT
                       P6SM SCT045
                      TEMPO 0220/0223 BKN045 FM031000 18003KT P6SM
                       OVC035=
201010020528 TAF KBLI 020528Z 0206/0306 16006KT P6SM OVC028 FM021200 VRB03KT
                       P6SM OVC018 FM022100 29005KT P6SM SCT025=
201010020111 KBLI 020111Z 0201/0224 17011KT P6SM SCT025
                      TEMPO 0201/0203 OVC025 FM020300 18006KT P6SM
                       OVC025 FM021200 VRB03KT P6SM OVC004
                      TEMPO 0214/0217 1/2SM FG BKN001 OVC004 FM022100
                       36007KT P6SM BKN025=
201010012337 TAF KBLI 012337Z 0200/0224 17011KT P6SM SKC FM020300 18006KT P6SM
                       OVC035 FM021200 VRB03KT P6SM OVC004
                      TEMPO 0214/0217 1/2SM FG BKN001 OVC004 FM022100
                       36007KT P6SM BKN025=
201010011742 TAF KBLI 011742Z 0118/0218 00000KT P6SM SKC FM021200 VRB03KT P6SM
                       OVC004=
201010011158 KBLI 011158Z 0112/0212 00000KT P6SM SKC
                      TEMPO 0112/0116 2SM BR FM011600 VRB04KT P6SM
                       SCT010 FM012100 18008KT P6SM SCT030 FM020600
                       18008KT P6SM BKN035 FM020800 18008KT P6SM
                       OVC025=
201010011125 TAF KBLI 011125Z 0112/0212 00000KT 3SM BR SKC
                      TEMPO 0112/0116 1 1/2SM BR FM011600 VRB04KT
                       P6SM SCT010 FM012100 18008KT P6SM SCT030
                       FM020600 18008KT P6SM BKN035 FM020800 18008KT
                       P6SM OVC025=
201010010520 TAF KBLI 010520Z 0106/0206 VRB03KT P6SM SKC FM011800 18010KT P6SM
                       SCT020 FM020200 18012KT P6SM BKN040=