##########################################################
# Query made at 02/16/2025 19:35:17 UTC
# Time interval: from 02/01/2011 00:00  to 02/28/2011 23:59  UTC
##########################################################

##########################################################
# KBLI, Bellingham, Bellingham International Airport (United States)
# WMO index: -----. WIGOS ID: Unknown
# Latitude 48-47-58N. Longitude 122-32-21W. Altitude 48 m.
##########################################################

###################################
#  METAR/SPECI from KBLI
###################################
201102282353 METAR KBLI 282353Z 16010G17KT 10SM SCT060 06/01 A2972 RMK AO2 SLP072 T00560011 10072 20033 53017=
201102282253 METAR KBLI 282253Z 14009KT 10SM FEW026 SCT044 BKN060 06/00 A2970 RMK AO2 SLP066 T00610000=
201102282153 METAR KBLI 282153Z 16011KT 10SM BKN070 BKN080 07/M01 A2968 RMK AO2 SLP059 T00671006=
201102282053 METAR KBLI 282053Z 15011KT 10SM FEW036 BKN065 06/00 A2967 RMK AO2 SLP055 T00610000 53023=
201102281953 METAR KBLI 281953Z 17011KT 10SM SCT034 05/01 A2964 RMK AO2 SLP047 T00500011=
201102281853 METAR KBLI 281853Z 17009KT 10SM SCT041 06/00 A2962 RMK AO2 SLP039 T00560000=
201102281753 METAR KBLI 281753Z VRB04KT 10SM FEW013 SCT019 BKN030 03/M01 A2960 RMK AO2 SLP033 60002 T00331011 10033 20017 53031=
201102281701 SPECI KBLI 281701Z 16006KT 10SM FEW013 SCT019 BKN030 03/00 A2957 RMK AO2=
201102281701 SPECI KBLI 281701Z 16006KT 10SM FEW013 SCT019 BKN030 03/00 A2957 RMK AO2=
201102281653 METAR KBLI 281653Z 16006KT 10SM FEW013 SCT019 BKN027 03/00 A2957 RMK AO2 SLP020 T00330000=
201102281626 SPECI KBLI 281626Z 17009G15KT 10SM FEW011 BKN015 BKN095 03/01 A2955 RMK AO2=
201102281626 SPECI KBLI 281626Z 17009G15KT 10SM FEW011 BKN015 BKN095 03/01 A2955 RMK AO2=
201102281553 METAR KBLI 281553Z 17006KT 10SM SCT055 SCT090 BKN110 03/00 A2953 RMK AO2 SLP009 T00280000=
201102281510 SPECI KBLI 281510Z 17003KT 10SM SCT017 BKN070 02/01 A2952 RMK AO2=
201102281510 SPECI KBLI 281510Z 17003KT 10SM SCT017 BKN070 02/01 A2952 RMK AO2=
201102281453 METAR KBLI 281453Z AUTO 19004KT 10SM OVC017 03/01 A2951 RMK AO2 SLP001 60002 T00280006 53005=
201102281429 SPECI KBLI 281429Z AUTO 00000KT 10SM SCT020 BKN025 OVC031 03/00 A2949 RMK AO2=
201102281429 SPECI KBLI 281429Z AUTO 00000KT 10SM SCT020 BKN025 OVC031 03/00 A2949 RMK AO2=
201102281406 SPECI KBLI 281406Z AUTO 18006KT 10SM FEW007 BKN090 OVC110 02/01 A2948 RMK AO2=
201102281406 SPECI KBLI 281406Z AUTO 18006KT 10SM FEW007 BKN090 OVC110 02/01 A2948 RMK AO2=
201102281353 METAR KBLI 281353Z AUTO 16009KT 10SM SCT050 OVC090 02/01 A2947 RMK AO2 RAE07UPB19E22SNB07E19 SLP989 P0001 T00220011=
201102281348 SPECI KBLI 281348Z AUTO 16008KT 10SM FEW005 BKN050 OVC085 02/01 A2948 RMK AO2 RAE07UPB19E22SNB07E19 P0001=
201102281348 SPECI KBLI 281348Z AUTO 16008KT 10SM FEW005 BKN050 OVC085 02/01 A2948 RMK AO2 RAE07UPB19E22SNB07E19 P0001=
201102281322 SPECI KBLI 281322Z AUTO 18007G15KT 9SM FEW015 OVC050 02/01 A2948 RMK AO2 RAE07UPB19E22SNB07E19 P0001=
201102281322 SPECI KBLI 281322Z AUTO 18007G15KT 9SM FEW015 OVC050 02/01 A2948 RMK AO2 RAE07UPB19E22SNB07E19 P0001=
201102281253 METAR KBLI 281253Z AUTO VRB04KT 8SM -RA BKN015 OVC024 03/01 A2949 RMK AO2 RAB02E06B40FZRAB06E25SNE02 PRESRR SLP995 P0001 T00280011=
201102281231 SPECI KBLI 281231Z AUTO 18006KT 10SM FEW010 BKN024 OVC031 03/01 A2947 RMK AO2 RAB02E06FZRAB06E25SNE02 P0000=
201102281231 SPECI KBLI 281231Z AUTO 18006KT 10SM FEW010 BKN024 OVC031 03/01 A2947 RMK AO2 RAB02E06FZRAB06E25SNE02 P0000=
201102281212 SPECI KBLI 281212Z AUTO 18005KT 10SM -FZRA SCT008 BKN017 OVC029 03/01 A2946 RMK AO2 RAB02E06FZRAB06SNE02 P0000=
201102281212 SPECI KBLI 281212Z AUTO 18005KT 10SM -FZRA SCT008 BKN017 OVC029 03/01 A2946 RMK AO2 RAB02E06FZRAB06SNE02 P0000=
201102281202 SPECI KBLI 281202Z AUTO 17004KT 5SM -RA BR BKN008 OVC015 02/01 A2946 RMK AO2 RAB02SNE02 P0000=
201102281202 SPECI KBLI 281202Z AUTO 17004KT 5SM -RA BR BKN008 OVC015 02/01 A2946 RMK AO2 RAB02SNE02 P0000=
201102281153 METAR KBLI 281153Z AUTO VRB04KT 4SM -SN BR BKN010 OVC015 02/01 A2946 RMK AO2 RAB23E53SNB53 SLP985 P0004 60019 70020 T00220011 10039 20022 53007=
201102281140 SPECI KBLI 281140Z AUTO VRB03KT 5SM -RA BR BKN010 OVC015 03/01 A2945 RMK AO2 RAB23 P0001=
201102281140 SPECI KBLI 281140Z AUTO VRB03KT 5SM -RA BR BKN010 OVC015 03/01 A2945 RMK AO2 RAB23 P0001=
201102281127 SPECI KBLI 281127Z AUTO VRB04KT 10SM -RA BKN009 BKN013 OVC026 03/01 A2946 RMK AO2 RAB23 CIG 009V012 P0000=
201102281127 SPECI KBLI 281127Z AUTO VRB04KT 10SM -RA BKN009 BKN013 OVC026 03/01 A2946 RMK AO2 RAB23 CIG 009V012 P0000=
201102281116 SPECI KBLI 281116Z AUTO 26008KT 220V280 10SM SCT009 BKN013 OVC026 03/01 A2945 RMK AO2=
201102281116 SPECI KBLI 281116Z AUTO 26008KT 220V280 10SM SCT009 BKN013 OVC026 03/01 A2945 RMK AO2=
201102281104 SPECI KBLI 281104Z AUTO 21004KT 10SM FEW020 BKN026 OVC035 03/01 A2945 RMK AO2=
201102281104 SPECI KBLI 281104Z AUTO 21004KT 10SM FEW020 BKN026 OVC035 03/01 A2945 RMK AO2=
201102281053 METAR KBLI 281053Z AUTO 18007KT 10SM FEW020 BKN031 OVC060 03/01 A2944 RMK AO2 RAE07 SLP979 P0000 T00280011=
201102281032 SPECI KBLI 281032Z AUTO 18006G14KT 10SM SCT020 SCT030 OVC060 03/01 A2945 RMK AO2 RAE07 P0000=
201102281032 SPECI KBLI 281032Z AUTO 18006G14KT 10SM SCT020 SCT030 OVC060 03/01 A2945 RMK AO2 RAE07 P0000=
201102281009 SPECI KBLI 281009Z AUTO 17009KT 10SM SCT020 BKN028 OVC037 03/01 A2944 RMK AO2 RAE07 P0000=
201102281009 SPECI KBLI 281009Z AUTO 17009KT 10SM SCT020 BKN028 OVC037 03/01 A2944 RMK AO2 RAE07 P0000=
201102280953 METAR KBLI 280953Z AUTO 17007G14KT 10SM -RA FEW014 SCT020 OVC030 03/01 A2944 RMK AO2 UPB25E34 SLP977 P0002 T00330011=
201102280944 SPECI KBLI 280944Z AUTO 17009G19KT 10SM -RA SCT014 BKN021 OVC028 03/02 A2944 RMK AO2 UPB25E34 P0002=
201102280944 SPECI KBLI 280944Z AUTO 17009G19KT 10SM -RA SCT014 BKN021 OVC028 03/02 A2944 RMK AO2 UPB25E34 P0002=
201102280853 METAR KBLI 280853Z AUTO 16008G16KT 7SM -RA BKN014 OVC021 03/01 A2944 RMK AO2 SLP978 P0003 60013 T00280011 58000=
201102280813 SPECI KBLI 280813Z AUTO 17010G15KT 8SM -RA BKN014 OVC020 03/02 A2945 RMK AO2 P0001=
201102280813 SPECI KBLI 280813Z AUTO 17010G15KT 8SM -RA BKN014 OVC020 03/02 A2945 RMK AO2 P0001=
201102280753 METAR KBLI 280753Z AUTO 17009G17KT 6SM -RA BR FEW010 BKN020 OVC026 03/02 A2944 RMK AO2 SLP979 P0009 T00330017 400500000=
201102280707 SPECI KBLI 280707Z AUTO 19008G19KT 4SM RA BR OVC011 03/02 A2945 RMK AO2 P0004=
201102280707 SPECI KBLI 280707Z AUTO 19008G19KT 4SM RA BR OVC011 03/02 A2945 RMK AO2 P0004=
201102280653 METAR KBLI 280653Z AUTO 18008G18KT 7SM RA BKN009 OVC015 04/02 A2944 RMK AO2 SLP978 P0001 T00390022=
201102280649 SPECI KBLI 280649Z AUTO 17014KT 8SM -RA BKN009 OVC015 04/02 A2944 RMK AO2 P0001=
201102280649 SPECI KBLI 280649Z AUTO 17014KT 8SM -RA BKN009 OVC015 04/02 A2944 RMK AO2 P0001=
201102280600 SPECI KBLI 280600Z 16014G20KT 10SM -RA BKN013 OVC017 04/02 A2942 RMK AO2 P0000=
201102280600 SPECI KBLI 280600Z 16014G20KT 10SM -RA BKN013 OVC017 04/02 A2942 RMK AO2 P0000=
201102280553 METAR KBLI 280553Z 16013G24KT 10SM -RA BKN015 OVC022 04/03 A2942 RMK AO2 PK WND 17026/0515 SLP972 P0001 60001 T00440028 10050 20039 53004=
201102280453 METAR KBLI 280453Z 16015G22KT 10SM -RA OVC015 04/02 A2941 RMK AO2 PK WND 14027/0408 RAE0358B48 SLP968 P0000 T00440022=
201102280353 METAR KBLI 280353Z 16018G23KT 10SM -RA BKN015 OVC036 04/02 A2941 RMK AO2 PK WND 15029/0310 RAB45 SLP968 P0000 T00440022=
201102280253 METAR KBLI 280253Z 15023G29KT 10SM FEW015 SCT020 BKN080 04/02 A2941 RMK AO2 PK WND 15030/0241 SLP968 60000 T00440017 58006=
201102280153 METAR KBLI 280153Z 17016G27KT 10SM OVC015 04/02 A2942 RMK AO2 PK WND 15031/0059 RAE00 SLP972 P0000 T00440017=
201102280053 METAR KBLI 280053Z 16020G29KT 10SM -RA BKN015 BKN038 OVC049 04/02 A2943 RMK AO2 PK WND 15034/2359 RAB50 SLP973 P0000 T00440017=
201102272353 METAR KBLI 272353Z 15023G36KT 10SM SCT015 BKN045 OVC060 05/02 A2943 RMK AO2 PK WND 16038/2339 SLP974 60000 T00500017 10050 20022 56022=
201102272253 METAR KBLI 272253Z 16019G30KT 10SM BKN015 OVC050 04/02 A2945 RMK AO2 PK WND 16037/2223 SLP981 T00440017=
201102272153 METAR KBLI 272153Z 15019G24KT 10SM OVC015 05/02 A2946 RMK AO2 PK WND 14030/2137 SLP986 T00500017=
201102272053 METAR KBLI 272053Z 15014G25KT 7SM OVC015 04/01 A2949 RMK AO2 PK WND 15026/2040 SLP996 60000 T00390011 58029=
201102272027 SPECI KBLI 272027Z 15017G22KT 7SM OVC015 04/01 A2951 RMK AO2=
201102272027 SPECI KBLI 272027Z 15017G22KT 7SM OVC015 04/01 A2951 RMK AO2=
201102271953 METAR KBLI 271953Z 15013G17KT 7SM OVC011 03/01 A2953 RMK AO2 RAE49 SLP009 P0000 T00330011=
201102271853 METAR KBLI 271853Z 15012KT 6SM -RA BR BKN028 BKN100 03/01 A2956 RMK AO2 SLP017 P0000 T00280006=
201102271753 METAR KBLI 271753Z 15012G19KT 6SM -RA BR BKN026 BKN049 OVC060 03/01 A2958 RMK AO2 SLP025 P0000 60000 T00280006 10028 20017 58009=
201102271653 METAR KBLI 271653Z 15010G19KT 5SM -RA BR BKN023 BKN030 OVC055 03/01 A2960 RMK AO2 RAB1556SNE1556 SLP032 P0000 T00280006=
201102271553 METAR KBLI 271553Z 15015G22KT 5SM -SN BR BKN026 BKN030 OVC050 03/00 A2959 RMK AO2 PK WND 15028/1504 UPB34E38SNB38 SLP031 P0000 T00280000=
201102271453 METAR KBLI 271453Z 16015G24KT 10SM BKN026 OVC048 02/00 A2961 RMK AO2 PK WND 17026/1354 SLP035 T00220000 56014=
201102271353 METAR KBLI 271353Z AUTO 16017G26KT 10SM BKN026 OVC048 02/M01 A2961 RMK AO2 PK WND 15026/1352 SLP038 T00221006=
201102271304 SPECI KBLI 271304Z AUTO 16016G23KT 10SM FEW015 BKN026 OVC085 02/M01 A2962 RMK AO2=
201102271304 SPECI KBLI 271304Z AUTO 16016G23KT 10SM FEW015 BKN026 OVC085 02/M01 A2962 RMK AO2=
201102271253 METAR KBLI 271253Z AUTO 16015G25KT 10SM SCT025 BKN050 OVC080 02/M01 A2962 RMK AO2 PK WND 17029/1228 SLP040 T00171006=
201102271245 SPECI KBLI 271245Z AUTO 16013G24KT 10SM FEW014 SCT024 OVC080 02/M01 A2962 RMK AO2 PK WND 17029/1228=
201102271245 SPECI KBLI 271245Z AUTO 16013G24KT 10SM FEW014 SCT024 OVC080 02/M01 A2962 RMK AO2 PK WND 17029/1228=
201102271153 METAR KBLI 271153Z AUTO 15010KT 9SM SCT016 OVC022 02/M01 A2965 RMK AO2 SNB38E49 SLP050 P0000 60002 70002 T00171011 10017 20000 58023=
201102271053 METAR KBLI 271053Z AUTO 14010KT 10SM FEW017 OVC025 02/M01 A2967 RMK AO2 SNB0959E20 SLP058 P0000 T00171011=
201102270953 METAR KBLI 270953Z AUTO 15008KT 10SM SCT018 BKN024 OVC032 01/M02 A2970 RMK AO2 SNE40 SLP066 P0001 T00111017=
201102270853 METAR KBLI 270853Z AUTO 13007KT 4SM -SN BR OVC020 01/M02 A2972 RMK AO2 SLP072 P0000 60001 T00061017 56008=
201102270808 SPECI KBLI 270808Z AUTO 13004KT 4SM -SN BR OVC022 01/M02 A2972 RMK AO2 P0000=
201102270808 SPECI KBLI 270808Z AUTO 13004KT 4SM -SN BR OVC022 01/M02 A2972 RMK AO2 P0000=
201102270753 METAR KBLI 270753Z AUTO 11004KT 2 1/2SM -SN BR OVC022 01/M02 A2972 RMK AO2 SNB17 SLP074 P0001 T00061017 400061072=
201102270749 SPECI KBLI 270749Z AUTO 12004KT 2 1/2SM -SN OVC022 01/M02 A2972 RMK AO2 SNB17 P0001 400061072=
201102270749 SPECI KBLI 270749Z AUTO 12004KT 2 1/2SM -SN OVC022 01/M02 A2972 RMK AO2 SNB17 P0001 400061072=
201102270653 METAR KBLI 270653Z AUTO 14005KT 10SM OVC024 01/M02 A2974 RMK AO2 SNB22E31 SLP080 P0000 T00061022=
201102270553 METAR KBLI 270553Z 12006KT 10SM OVC026 00/M03 A2975 RMK AO2 SNE39 SLP084 P0000 60000 T00001028 10000 21017 58012=
201102270504 SPECI KBLI 270504Z 13008KT 5SM -SN FEW017 BKN024 OVC030 00/M03 A2977 RMK AO2 P0000=
201102270504 SPECI KBLI 270504Z 13008KT 5SM -SN FEW017 BKN024 OVC030 00/M03 A2977 RMK AO2 P0000=
201102270453 METAR KBLI 270453Z 12008KT 2SM -SN BR SCT019 OVC028 M01/M03 A2977 RMK AO2 SLP092 P0000 T10061028=
201102270353 METAR KBLI 270353Z 13007KT 2SM -SN BKN022 OVC030 M01/M03 A2979 RMK AO2 UPB06E15SNB15 SLP096 P0000 T10061033=
201102270350 SPECI KBLI 270350Z 13007KT 2SM -SN BKN022 OVC030 M01/M03 A2979 RMK AO2 UPB06E15SNB15 P0000=
201102270350 SPECI KBLI 270350Z 13007KT 2SM -SN BKN022 OVC030 M01/M03 A2979 RMK AO2 UPB06E15SNB15 P0000=
201102270343 SPECI KBLI 270343Z 13008KT 3SM -SN BKN022 OVC030 M01/M04 A2979 RMK AO2 UPB06E15SNB15 P0000=
201102270343 SPECI KBLI 270343Z 13008KT 3SM -SN BKN022 OVC030 M01/M04 A2979 RMK AO2 UPB06E15SNB15 P0000=
201102270253 METAR KBLI 270253Z 12007KT 10SM SCT024 OVC035 M01/M04 A2981 RMK AO2 SNE02 SLP104 P0000 60000 T10061044 56022=
201102270153 METAR KBLI 270153Z 14008KT 6SM -SN OVC035 M01/M04 A2983 RMK AO2 SNB39 SLP110 P0000 T10111044=
201102270053 METAR KBLI 270053Z 13010KT 3SM HZ OVC033 M01/M04 A2985 RMK AO2 SNE35 SLP119 P0000 T10111044=
201102270024 SPECI KBLI 270024Z 15006KT 3SM -SN SCT015 OVC033 M01/M04 A2986 RMK AO2 P0000=
201102270024 SPECI KBLI 270024Z 15006KT 3SM -SN SCT015 OVC033 M01/M04 A2986 RMK AO2 P0000=
201102270012 SPECI KBLI 270012Z 14007KT 2 1/2SM -SN SCT015 BKN028 OVC034 M01/M04 A2987 RMK AO2 P0000=
201102270012 SPECI KBLI 270012Z 14007KT 2 1/2SM -SN SCT015 BKN028 OVC034 M01/M04 A2987 RMK AO2 P0000=
201102262353 METAR KBLI 262353Z 14010KT 5SM -SN FEW010 BKN019 OVC030 M01/M04 A2987 RMK AO2 SNB52 SLP126 P0000 60000 T10111044 11011 21017 56016=
201102262253 METAR KBLI 262253Z 13011KT 5SM HZ FEW010 BKN019 OVC030 M02/M06 A2989 RMK AO2 UPB20E31SNB31E33 SLP133 VCSH P0000 T10171056=
201102262219 SPECI KBLI 262219Z 13010KT 7SM BKN025 OVC030 M01/M07 A2989 RMK AO2=
201102262219 SPECI KBLI 262219Z 13010KT 7SM BKN025 OVC030 M01/M07 A2989 RMK AO2=
201102262153 METAR KBLI 262153Z 15008KT 10SM OVC030 M01/M07 A2990 RMK AO2 SLP137 T10111072=
201102262053 METAR KBLI 262053Z 14011KT 10SM OVC030 M01/M08 A2992 RMK AO2 SLP143 60000 T10111078 58019=
201102261953 METAR KBLI 261953Z 14010KT 10SM OVC030 M02/M07 A2995 RMK AO2 SLP152 T10171072=
201102261853 METAR KBLI 261853Z 15010KT 10SM OVC032 M02/M07 A2997 RMK AO2 SNB22E31 SLP159 P0000 T10171072=
201102261753 METAR KBLI 261753Z 15012KT 10SM OVC034 M01/M07 A2998 RMK AO2 SLP162 T10111072 11011 21039 58009=
201102261653 METAR KBLI 261653Z 15009KT 10SM OVC037 M02/M09 A2999 RMK AO2 SLP166 T10171089=
201102261553 METAR KBLI 261553Z 14010KT 10SM SCT035 SCT055 OVC080 M02/M09 A3000 RMK AO2 SLP169 T10171089=
201102261453 METAR KBLI 261453Z AUTO 13008KT 10SM OVC080 M02/M10 A3000 RMK AO2 SLP171 T10221100 58016=
201102261353 METAR KBLI 261353Z AUTO 12005KT 10SM OVC085 M03/M10 A3003 RMK AO2 SLP178 T10281100=
201102261253 METAR KBLI 261253Z AUTO 13007KT 10SM OVC085 M03/M11 A3004 RMK AO2 SLP183 T10331106=
201102261153 METAR KBLI 261153Z AUTO 15003KT 10SM CLR M04/M11 A3005 RMK AO2 SLP186 T10391106 11039 21072 56021=
201102261053 METAR KBLI 261053Z AUTO 00000KT 10SM CLR M07/M10 A3007 RMK AO2 SLP194 T10671100=
201102260953 METAR KBLI 260953Z AUTO 00000KT 10SM CLR M07/M10 A3009 RMK AO2 SLP200 T10671100=
201102260853 METAR KBLI 260853Z AUTO 00000KT 10SM CLR M07/M12 A3011 RMK AO2 SLP208 T10721122 56015=
201102260753 METAR KBLI 260753Z AUTO 00000KT 10SM CLR M07/M13 A3012 RMK AO2 SLP212 T10721128 400001089=
201102260653 METAR KBLI 260653Z AUTO 00000KT 10SM CLR M05/M14 A3013 RMK AO2 SLP214 T10501139=
201102260553 METAR KBLI 260553Z 00000KT 10SM CLR M05/M14 A3015 RMK AO2 SLP223 T10501139 10000 21050 55001=
201102260453 METAR KBLI 260453Z 02004KT 10SM CLR M04/M16 A3014 RMK AO2 SLP219 T10391156=
201102260353 METAR KBLI 260353Z 34006KT 10SM CLR M04/M16 A3015 RMK AO2 SLP222 T10391156=
201102260253 METAR KBLI 260253Z 03006KT 10SM CLR M03/M16 A3016 RMK AO2 SLP224 T10331161 55008=
201102260153 METAR KBLI 260153Z 01011KT 10SM CLR M02/M17 A3015 RMK AO2 SLP221 T10221167=
201102260053 METAR KBLI 260053Z 02016G22KT 10SM CLR M01/M17 A3015 RMK AO2 SLP222 T10061172=
201102252353 METAR KBLI 252353Z 02016G26KT 10SM CLR 00/M18 A3018 RMK AO2 PK WND 02029/2334 SLP231 T00001183 10000 21050 56012=
201102252253 METAR KBLI 252253Z 03021G29KT 10SM CLR M01/M19 A3019 RMK AO2 PK WND 02033/2157 SLP236 T10061189=
201102252153 METAR KBLI 252153Z 01019G29KT 10SM CLR M01/M21 A3020 RMK AO2 PK WND 02030/2122 SLP238 T10061206=
201102252053 METAR KBLI 252053Z 01015G26KT 10SM CLR M01/M20 A3022 RMK AO2 PK WND 03030/2037 SLP244 T10111200 58016=
201102251953 METAR KBLI 251953Z 03015G27KT 10SM CLR M02/M21 A3024 RMK AO2 PK WND 03029/1901 SLP250 T10221211=
201102251853 METAR KBLI 251853Z 03019G32KT 10SM CLR M04/M22 A3025 RMK AO2 PK WND 04033/1759 SLP254 T10391217=
201102251753 METAR KBLI 251753Z 02019G31KT 10SM CLR M05/M21 A3026 RMK AO2 PK WND 03031/1753 SLP259 T10501211 11050 21089 52001=
201102251653 METAR KBLI 251653Z 03018G32KT 10SM CLR M07/M21 A3026 RMK AO2 PK WND 03032/1653 SLP257 T10671211=
201102251553 METAR KBLI 251553Z 02013G24KT 10SM CLR M08/M20 A3027 RMK AO2 PK WND 02026/1537 SLP261 T10781200=
201102251453 METAR KBLI 251453Z 01015G22KT 10SM CLR M08/M21 A3026 RMK AO2 PK WND 01029/1440 SLP258 T10831206 50002=
201102251353 METAR KBLI 251353Z AUTO 02018G28KT 10SM CLR M08/M22 A3026 RMK AO2 PK WND 02028/1349 SLP259 T10781217=
201102251253 METAR KBLI 251253Z AUTO 02018G27KT 10SM FEW080 M07/M21 A3026 RMK AO2 PK WND 02030/1243 SLP259 T10721211=
201102251153 METAR KBLI 251153Z AUTO 02018G33KT 10SM CLR M07/M21 A3026 RMK AO2 PK WND 04033/1149 SLP257 T10721211 11056 21072 58003=
201102251053 METAR KBLI 251053Z AUTO 03020G32KT 10SM CLR M07/M21 A3026 RMK AO2 PK WND 02040/0958 SLP258 T10721206=
201102250953 METAR KBLI 250953Z AUTO 02022G32KT 10SM CLR M07/M21 A3026 RMK AO2 PK WND 02034/0938 SLP260 T10671206=
201102250853 METAR KBLI 250853Z AUTO 02019G29KT 10SM FEW070 M07/M20 A3026 RMK AO2 PK WND 02031/0804 SLP260 T10671200 51007=
201102250753 METAR KBLI 250753Z AUTO 02017G32KT 10SM CLR M06/M19 A3026 RMK AO2 PK WND 04033/0742 SLP258 T10611194 410171061=
201102250653 METAR KBLI 250653Z AUTO 02017G33KT 10SM CLR M06/M19 A3025 RMK AO2 PK WND 03034/0630 SLP256 T10611194=
201102250553 METAR KBLI 250553Z 02018G33KT 10SM FEW075 M06/M19 A3024 RMK AO2 PK WND 03036/0531 SLP252 T10561189 11028 21056 51025=
201102250453 METAR KBLI 250453Z 02024G36KT 10SM CLR M05/M18 A3022 RMK AO2 PK WND 03038/0408 SLP245 T10501178=
201102250353 METAR KBLI 250353Z 03022G33KT 10SM OVC070 M04/M17 A3019 RMK AO2 PK WND 04034/0339 SLP235 T10441172=
201102250253 METAR KBLI 250253Z 02020G32KT 10SM BKN060 M04/M17 A3017 RMK AO2 PK WND 02035/0154 SLP227 T10391167 53020=
201102250153 METAR KBLI 250153Z 02024G34KT 10SM CLR M03/M17 A3015 RMK AO2 PK WND 03037/0112 SLP221 T10331167=
201102250053 METAR KBLI 250053Z 02018G33KT 10SM CLR M03/M16 A3012 RMK AO2 PK WND 01038/0000 SLP211 T10281161=
201102242353 METAR KBLI 242353Z 03027G43KT 10SM CLR M03/M16 A3011 RMK AO2 PK WND 03043/2348 SLP207 T10281161 11017 21039 51014=
201102242253 METAR KBLI 242253Z 02023G41KT 10SM CLR M02/M16 A3011 RMK AO2 PK WND 02044/2230 SLP206 T10221161=
201102242153 METAR KBLI 242153Z 02030G41KT 10SM CLR M02/M16 A3009 RMK AO2 PK WND 01046/2100 SLP200 T10171161=
201102242053 METAR KBLI 242053Z 02026G37KT 10SM CLR M03/M16 A3007 RMK AO2 PK WND 03046/2026 SLP193 T10281161 51008=
201102241953 METAR KBLI 241953Z 02024G38KT 10SM SCT070 M02/M16 A3006 RMK AO2 PK WND 01042/1939 SLP191 T10221156=
201102241900 METAR KBLI NIL=
201102241800 METAR KBLI NIL=
201102241700 METAR KBLI NIL=
201102241600 METAR KBLI NIL=
201102241453 METAR KBLI 241453Z 02017G27KT 10SM BKN036 OVC045 M04/M14 A2999 RMK AO2 PK WND 02029/1416 SLP167 T10441139 51020=
201102241353 METAR KBLI 241353Z AUTO 02017G29KT 10SM OVC031 M04/M12 A2997 RMK AO2 PK WND 02032/1315 SLP161 T10441122=
201102241253 METAR KBLI 241253Z AUTO 02017G29KT 10SM OVC031 M04/M13 A2995 RMK AO2 PK WND 03031/1214 SLP153 T10391128=
201102241212 SPECI KBLI 241212Z AUTO 03021G29KT 10SM OVC029 M04/M13 A2994 RMK AO2 PK WND 04029/1212=
201102241212 SPECI KBLI 241212Z AUTO 03021G29KT 10SM OVC029 M04/M13 A2994 RMK AO2 PK WND 04029/1212=
201102241153 METAR KBLI 241153Z AUTO 02018G30KT 10SM OVC031 M04/M12 A2993 RMK AO2 PK WND 02032/1122 SLP146 60000 T10391122 11028 21039 51012=
201102241053 METAR KBLI 241053Z AUTO 02019G32KT 9SM OVC035 M04/M12 A2993 RMK AO2 PK WND 03036/1028 SNB16E45 SLP144 P0000 T10391117=
201102240953 METAR KBLI 240953Z AUTO 02015G29KT 10SM OVC041 M03/M13 A2991 RMK AO2 PK WND 04031/0917 SLP138 T10331128=
201102240853 METAR KBLI 240853Z AUTO 02019G29KT 10SM SCT026 BKN045 OVC060 M03/M12 A2989 RMK AO2 PK WND 03033/0817 SLP133 60000 T10331122 52007=
201102240851 SPECI KBLI 240851Z AUTO 02018G29KT 10SM SCT026 BKN045 OVC060 M03/M12 A2989 RMK AO2 PK WND 03033/0817=
201102240851 SPECI KBLI 240851Z AUTO 02018G29KT 10SM SCT026 BKN045 OVC060 M03/M12 A2989 RMK AO2 PK WND 03033/0817=
201102240842 SPECI KBLI 240842Z AUTO 02020G28KT 10SM BKN028 BKN045 OVC060 M03/M12 A2988 RMK AO2 PK WND 03033/0817=
201102240842 SPECI KBLI 240842Z AUTO 02020G28KT 10SM BKN028 BKN045 OVC060 M03/M12 A2988 RMK AO2 PK WND 03033/0817=
201102240753 METAR KBLI 240753Z AUTO 03022G31KT 9SM FEW028 OVC038 M03/M12 A2988 RMK AO2 PK WND 02038/0708 SNE39 SLP127 P0000 T10331117 400221039=
201102240730 SPECI KBLI 240730Z AUTO 02017G32KT 4SM -SN OVC038 M03/M11 A2988 RMK AO2 PK WND 02038/0708 P0000=
201102240730 SPECI KBLI 240730Z AUTO 02017G32KT 4SM -SN OVC038 M03/M11 A2988 RMK AO2 PK WND 02038/0708 P0000=
201102240717 SPECI KBLI 240717Z AUTO 03025G38KT 2SM -SN OVC038 M03/M10 A2988 RMK AO2 PK WND 02038/0708 P0000=
201102240717 SPECI KBLI 240717Z AUTO 03025G38KT 2SM -SN OVC038 M03/M10 A2988 RMK AO2 PK WND 02038/0708 P0000=
201102240653 METAR KBLI 240653Z AUTO 02024G31KT 4SM -SN FEW019 OVC040 M03/M09 A2987 RMK AO2 PK WND 03037/0616 SLP126 P0000 T10331094=
201102240621 SPECI KBLI 240621Z 03017G37KT 3SM -SN FEW031 OVC044 M03/M09 A2987 RMK AO2 PK WND 03037/0616 P0000=
201102240621 SPECI KBLI 240621Z 03017G37KT 3SM -SN FEW031 OVC044 M03/M09 A2987 RMK AO2 PK WND 03037/0616 P0000=
201102240553 METAR KBLI 240553Z 02020G31KT 2 1/2SM -SN BKN021 OVC036 M03/M09 A2986 RMK AO2 PK WND 02035/0529 SLP121 P0000 60000 T10331089 11011 21033 53012=
201102240453 METAR KBLI 240453Z 03022G36KT 9SM -SN OVC025 M02/M11 A2983 RMK AO2 PK WND 01040/0430 SNB48 SLP113 P0000 T10221111=
201102240353 METAR KBLI 240353Z 03020G35KT 10SM OVC031 M02/M10 A2982 RMK AO2 PK WND 02037/0332 SLP109 T10221100=
201102240253 METAR KBLI 240253Z 03019G37KT 10SM OVC065 M02/M11 A2982 RMK AO2 PK WND 02037/0246 SLP108 T10171111 55000=
201102240153 METAR KBLI 240153Z 02017G30KT 10SM FEW041 BKN050 OVC080 M02/M11 A2982 RMK AO2 PK WND 36036/0110 SLP108 T10171111=
201102240053 METAR KBLI 240053Z 02013G30KT 10SM OVC033 M01/M11 A2982 RMK AO2 PK WND 02034/0000 SLP108 VCSNSH T10111106=
201102232353 METAR KBLI 232353Z 02023G32KT 10SM FEW018 BKN033 OVC041 M02/M09 A2982 RMK AO2 PK WND 01033/2337 SLP108 60000 T10171094 10000 21017 56007=
201102232351 SPECI KBLI 232351Z 01019G30KT 10SM SCT018 BKN033 OVC041 M02/M09 A2982 RMK AO2 PK WND 01033/2337=
201102232351 SPECI KBLI 232351Z 01019G30KT 10SM SCT018 BKN033 OVC041 M02/M09 A2982 RMK AO2 PK WND 01033/2337=
201102232253 METAR KBLI 232253Z 02020G30KT 7SM BKN020 OVC038 M01/M09 A2984 RMK AO2 PK WND 02032/2243 UPB47E51SNB37E47 SLP113 P0000 T10111094=
201102232206 SPECI KBLI 232206Z 02017G28KT 10SM BKN026 OVC043 M01/M09 A2984 RMK AO2 PK WND 02028/2157=
201102232206 SPECI KBLI 232206Z 02017G28KT 10SM BKN026 OVC043 M01/M09 A2984 RMK AO2 PK WND 02028/2157=
201102232153 METAR KBLI 232153Z 03016G29KT 10SM SCT030 OVC043 M01/M09 A2984 RMK AO2 PK WND 02029/2150 SLP116 T10111089=
201102232053 METAR KBLI 232053Z 03019G28KT 10SM OVC050 M01/M10 A2985 RMK AO2 PK WND 04030/2038 SLP119 T10061100 58010=
201102231953 METAR KBLI 231953Z 03016G27KT 10SM BKN060 OVC075 M01/M11 A2987 RMK AO2 PK WND 03027/1946 SLP125 T10061106=
201102231853 METAR KBLI 231853Z 03013G20KT 10SM OVC043 M01/M09 A2988 RMK AO2 PK WND 02029/1808 SLP129 T10061094=
201102231753 METAR KBLI 231753Z 03016G25KT 10SM OVC035 M01/M10 A2988 RMK AO2 PK WND 03029/1712 SLP128 T10111100 10000 21011 55005=
201102231653 METAR KBLI 231653Z 02013G24KT 10SM OVC033 M01/M09 A2988 RMK AO2 PK WND 03028/1639 SLP127 VCSNSH T10111089=
201102231646 SPECI KBLI 231646Z 03014G28KT 10SM OVC031 M01/M08 A2988 RMK AO2 PK WND 03028/1639=
201102231646 SPECI KBLI 231646Z 03014G28KT 10SM OVC031 M01/M08 A2988 RMK AO2 PK WND 03028/1639=
201102231553 METAR KBLI 231553Z 02013G20KT 10SM OVC025 M01/M07 A2989 RMK AO2 SLP130 T10111067=
201102231453 METAR KBLI 231453Z 02010KT 10SM OVC019 M01/M04 A2989 RMK AO2 SLP132 T10111044 58010=
201102231353 METAR KBLI 231353Z AUTO 03008KT 10SM SCT022 OVC029 M01/M03 A2990 RMK AO2 SLP135 T10111033=
201102231253 METAR KBLI 231253Z AUTO 03008KT 10SM OVC017 M01/M03 A2992 RMK AO2 SLP140 T10061028=
201102231213 SPECI KBLI 231213Z AUTO 04004KT 10SM BKN017 00/M02 A2993 RMK AO2=
201102231213 SPECI KBLI 231213Z AUTO 04004KT 10SM BKN017 00/M02 A2993 RMK AO2=
201102231153 METAR KBLI 231153Z AUTO 10005KT 10SM FEW044 01/M03 A2992 RMK AO2 SLP142 60000 70001 T00061028 10033 20000 58006=
201102231053 METAR KBLI 231053Z AUTO 14005KT 10SM BKN048 01/M02 A2994 RMK AO2 SLP148 T00061022=
201102230953 METAR KBLI 230953Z AUTO 16005KT 10SM FEW055 SCT075 01/M02 A2994 RMK AO2 SLP148 T00061022=
201102230853 METAR KBLI 230853Z AUTO 16008KT 10SM OVC065 02/M02 A2994 RMK AO2 SLP148 60000 T00221017 51007=
201102230753 METAR KBLI 230753Z AUTO 15003KT 10SM FEW026 SCT046 OVC085 01/M02 A2994 RMK AO2 SLP146 T00061017 400610006=
201102230653 METAR KBLI 230653Z AUTO 09003KT 10SM SCT040 BKN055 OVC090 01/M02 A2993 RMK AO2 SNB07E32 SLP145 P0000 T00111022=
201102230553 METAR KBLI 230553Z 16004KT 10SM OVC070 03/M03 A2992 RMK AO2 SNE43 SLP141 P0000 60001 T00281028 10056 20022 53003=
201102230453 METAR KBLI 230453Z 00000KT 4SM -SN BKN038 OVC050 02/M01 A2992 RMK AO2 SNB04E13B35 SLP141 P0001 T00221011=
201102230353 METAR KBLI 230353Z 13003KT 10SM FEW043 OVC065 03/M05 A2991 RMK AO2 SLP137 T00331050=
201102230253 METAR KBLI 230253Z 29004KT 10SM BKN060 BKN090 04/M07 A2991 RMK AO2 SLP138 T00391067 53008=
201102230153 METAR KBLI 230153Z VRB04KT 10SM OVC070 04/M06 A2990 RMK AO2 SLP134 T00441061=
201102230053 METAR KBLI 230053Z 28009G17KT 10SM FEW065 05/M05 A2989 RMK AO2 SLP131 T00501050=
201102222353 METAR KBLI 222353Z 28010G16KT 10SM FEW038 06/M03 A2989 RMK AO2 SLP129 60000 T00561033 10061 20033 53006=
201102222253 SPECI KBLI 222253Z 30010G18KT 10SM CLR 06/M03 A2987 RMK AO2 SLP125 T00561028=
201102222153 METAR KBLI 222153Z 30008G16KT 10SM BKN032 BKN045 OVC055 06/M02 A2987 RMK AO2 SLP122 T00561022=
201102222053 METAR KBLI 222053Z 29008G14KT 10SM SCT032 BKN060 BKN075 05/M02 A2987 RMK AO2 SLP122 60000 T00501017 50004=
201102221953 METAR KBLI 221953Z 29009G16KT 10SM FEW029 06/M02 A2987 RMK AO2 SLP123 T00561022=
201102221853 METAR KBLI 221853Z 33005KT 10SM BKN030 BKN037 OVC048 03/M01 A2986 RMK AO2 RAE1754B12E20 SLP121 P0000 T00331011=
201102221753 METAR KBLI 221753Z VRB04KT 10SM -RA BKN030 BKN039 BKN050 04/M02 A2985 RMK AO2 RAB01E12B45 SLP118 P0000 60000 T00391017 10044 20006 51015=
201102221653 METAR KBLI 221653Z 28010KT 10SM CLR 04/M02 A2985 RMK AO2 SLP115 T00391022=
201102221553 METAR KBLI 221553Z VRB05KT 10SM FEW030 BKN060 03/M02 A2983 RMK AO2 SLP110 T00331022=
201102221453 METAR KBLI 221453Z 00000KT 10SM SCT027 02/M02 A2981 RMK AO2 SLP103 60000 T00221017 53009=
201102221402 SPECI KBLI 221402Z AUTO 00000KT 10SM SCT027 BKN034 OVC120 03/00 A2980 RMK AO2=
201102221402 SPECI KBLI 221402Z AUTO 00000KT 10SM SCT027 BKN034 OVC120 03/00 A2980 RMK AO2=
201102221353 METAR KBLI 221353Z AUTO 00000KT 10SM FEW021 BKN029 OVC039 02/01 A2980 RMK AO2 UPB16E30RAB18E27 SLP100 P0000 T00220006=
201102221334 SPECI KBLI 221334Z AUTO 00000KT 10SM FEW021 BKN029 OVC035 02/01 A2980 RMK AO2 UPB16E30RAB18E27 P0000 TSNO=
201102221334 SPECI KBLI 221334Z AUTO 00000KT 10SM FEW021 BKN029 OVC035 02/01 A2980 RMK AO2 UPB16E30RAB18E27 P0000 TSNO=
201102221253 METAR KBLI 221253Z AUTO 27008KT 180V320 10SM FEW019 BKN033 OVC047 02/01 A2978 RMK AO2 SLP093 T00170006 TSNO=
201102221153 METAR KBLI 221153Z AUTO 14003KT 10SM FEW025 BKN100 01/01 A2978 RMK AO2 RAE09 SLP094 P0000 60001 70005 T00110006 10022 20006 56009=
201102221115 SPECI KBLI 221115Z AUTO 00000KT 10SM SCT023 SCT044 OVC100 01/01 A2978 RMK AO2 RAE09 P0000=
201102221115 SPECI KBLI 221115Z AUTO 00000KT 10SM SCT023 SCT044 OVC100 01/01 A2978 RMK AO2 RAE09 P0000=
201102221100 SPECI KBLI 221100Z AUTO 00000KT 7SM -RA FEW019 BKN024 OVC045 01/01 A2979 RMK AO2 P0000=
201102221100 SPECI KBLI 221100Z AUTO 00000KT 7SM -RA FEW019 BKN024 OVC045 01/01 A2979 RMK AO2 P0000=
201102221053 METAR KBLI 221053Z AUTO 00000KT 8SM -RA SCT021 OVC032 01/01 A2979 RMK AO2 RAB0959 SLP098 P0001 T00110006=
201102221042 SPECI KBLI 221042Z AUTO 00000KT 7SM -RA SCT023 BKN032 OVC046 01/01 A2980 RMK AO2 RAB0959 P0001=
201102221042 SPECI KBLI 221042Z AUTO 00000KT 7SM -RA SCT023 BKN032 OVC046 01/01 A2980 RMK AO2 RAB0959 P0001=
201102221015 SPECI KBLI 221015Z AUTO 00000KT 5SM -RA BR BKN025 OVC075 01/01 A2980 RMK AO2 RAB0959 P0000=
201102221015 SPECI KBLI 221015Z AUTO 00000KT 5SM -RA BR BKN025 OVC075 01/01 A2980 RMK AO2 RAB0959 P0000=
201102220953 METAR KBLI 220953Z AUTO 00000KT 10SM SCT060 OVC080 01/00 A2980 RMK AO2 SLP099 T00110000=
201102220853 METAR KBLI 220853Z AUTO 00000KT 10SM OVC070 02/01 A2981 RMK AO2 SLP104 T00170006 57013=
201102220753 METAR KBLI 220753Z AUTO 00000KT 10SM OVC090 02/01 A2982 RMK AO2 SLP107 T00170006 400561022=
201102220653 METAR KBLI 220653Z AUTO 00000KT 10SM BKN049 02/01 A2984 RMK AO2 SLP113 T00170006=
201102220553 METAR KBLI 220553Z 00000KT 10SM SCT015 01/00 A2985 RMK AO2 SLP117 60003 T00110000 10044 20006 58000=
201102220453 METAR KBLI 220453Z 00000KT 10SM FEW019 BKN025 02/01 A2986 RMK AO2 RAE01 SLP120 P0000 T00170006=
201102220433 SPECI KBLI 220433Z 31004KT 10SM FEW014 BKN027 BKN034 03/01 A2986 RMK AO2 RAE01 P0000=
201102220433 SPECI KBLI 220433Z 31004KT 10SM FEW014 BKN027 BKN034 03/01 A2986 RMK AO2 RAE01 P0000=
201102220422 SPECI KBLI 220422Z 26004KT 10SM SCT016 SCT027 BKN090 02/01 A2985 RMK AO2 RAE01 P0000=
201102220422 SPECI KBLI 220422Z 26004KT 10SM SCT016 SCT027 BKN090 02/01 A2985 RMK AO2 RAE01 P0000=
201102220353 METAR KBLI 220353Z 07006KT 7SM -RA SCT015 BKN020 OVC039 03/01 A2984 RMK AO2 RAB37 SLP116 P0001 T00280011=
201102220322 SPECI KBLI 220322Z 17005KT 10SM SCT013 SCT023 OVC029 04/02 A2985 RMK AO2=
201102220322 SPECI KBLI 220322Z 17005KT 10SM SCT013 SCT023 OVC029 04/02 A2985 RMK AO2=
201102220253 METAR KBLI 220253Z 17007KT 10SM OVC013 04/02 A2985 RMK AO2 RAE13 SLP118 P0000 60002 T00440022 58011=
201102220202 SPECI KBLI 220202Z 17010KT 10SM -RA SCT014 BKN019 OVC039 04/02 A2986 RMK AO2 P0000=
201102220202 SPECI KBLI 220202Z 17010KT 10SM -RA SCT014 BKN019 OVC039 04/02 A2986 RMK AO2 P0000=
201102220153 METAR KBLI 220153Z 17010KT 10SM -RA BKN014 BKN019 OVC033 04/02 A2986 RMK AO2 RAE00B16 SLP121 P0001 T00390022=
201102220132 SPECI KBLI 220132Z 17010KT 10SM -RA BKN014 BKN021 OVC029 04/02 A2987 RMK AO2 RAE00B16 P0000=
201102220132 SPECI KBLI 220132Z 17010KT 10SM -RA BKN014 BKN021 OVC029 04/02 A2987 RMK AO2 RAE00B16 P0000=
201102220100 SPECI KBLI 220100Z 18006KT 10SM FEW010 BKN021 OVC027 04/02 A2988 RMK AO2 RAE00 P0000=
201102220100 SPECI KBLI 220100Z 18006KT 10SM FEW010 BKN021 OVC027 04/02 A2988 RMK AO2 RAE00 P0000=
201102220053 METAR KBLI 220053Z 17007KT 10SM -RA SCT010 BKN013 OVC027 04/02 A2988 RMK AO2 SLP128 P0001 T00390022=
201102220043 SPECI KBLI 220043Z 18010G15KT 8SM -RA FEW010 BKN013 OVC027 04/02 A2988 RMK AO2 P0001=
201102220043 SPECI KBLI 220043Z 18010G15KT 8SM -RA FEW010 BKN013 OVC027 04/02 A2988 RMK AO2 P0001=
201102212353 METAR KBLI 212353Z AUTO 18005KT 9SM -RA OVC021 04/02 A2990 RMK AO2 RAB12 SLP135 P0001 60001 T00440017 10056 20028 56028 TSNO=
201102212320 SPECI KBLI 212320Z 15010KT 9SM -RA BKN025 BKN040 OVC055 05/M01 A2991 RMK AO2 RAB12 P0000=
201102212320 SPECI KBLI 212320Z 15010KT 9SM -RA BKN025 BKN040 OVC055 05/M01 A2991 RMK AO2 RAB12 P0000=
201102212253 METAR KBLI 212253Z 17007KT 10SM SCT050 BKN070 06/M01 A2992 RMK AO2 RAB2157E11 SLP142 P0000 T00561006=
201102212153 METAR KBLI 212153Z 16008KT 10SM SCT022 BKN036 OVC045 06/01 A2996 RMK AO2 RAE2059 SLP153 P0000 T00560006=
201102212053 METAR KBLI 212053Z 17007KT 10SM -RA SCT020 OVC031 05/M01 A2999 RMK AO2 RAB48 SLP163 P0000 60000 T00501006 58015=
201102211953 METAR KBLI 211953Z 18006KT 10SM OVC055 04/M02 A3001 RMK AO2 SLP170 T00441017=
201102211853 METAR KBLI 211853Z 00000KT 10SM SCT085 04/M01 A3001 RMK AO2 SLP172 T00391011=
201102211753 METAR KBLI 211753Z 00000KT 10SM BKN070 03/M02 A3003 RMK AO2 SLP178 T00281022 10028 21022 58001=
201102211653 METAR KBLI 211653Z 00000KT 10SM OVC085 01/M04 A3004 RMK AO2 SLP182 T00111039=
201102211553 METAR KBLI 211553Z 00000KT 10SM SCT085 M01/M04 A3004 RMK AO2 SLP182 T10111039=
201102211453 METAR KBLI 211453Z AUTO 00000KT 10SM OVC085 M02/M04 A3003 RMK AO2 SLP180 T10171044 58001=
201102211353 METAR KBLI 211353Z AUTO 00000KT 10SM OVC085 M01/M05 A3003 RMK AO2 SLP180 T10111050=
201102211253 METAR KBLI 211253Z AUTO 01004KT 10SM OVC085 M01/M05 A3003 RMK AO2 SLP179 T10111050=
201102211153 METAR KBLI 211153Z AUTO 01003KT 10SM BKN060 OVC090 M01/M05 A3003 RMK AO2 SLP179 T10111050 10017 21017 53003=
201102211053 METAR KBLI 211053Z AUTO 36004KT 10SM SCT085 M02/M05 A3003 RMK AO2 SLP177 T10171050=
201102210953 METAR KBLI 210953Z AUTO 35003KT 10SM FEW110 M01/M05 A3003 RMK AO2 SLP178 T10111050=
201102210853 METAR KBLI 210853Z AUTO 36003KT 10SM FEW075 BKN100 M01/M04 A3002 RMK AO2 SLP176 T10061044 51002=
201102210753 METAR KBLI 210753Z AUTO 00000KT 10SM FEW110 M01/M04 A3002 RMK AO2 SLP175 T10061039 400611050=
201102210653 METAR KBLI 210653Z AUTO 35003KT 10SM CLR 00/M04 A3002 RMK AO2 SLP176 T00001039=
201102210553 METAR KBLI 210553Z 00000KT 10SM CLR 01/M04 A3002 RMK AO2 SLP174 T00111044 10056 20000 53008=
201102210453 METAR KBLI 210453Z 00000KT 10SM CLR 01/M04 A3001 RMK AO2 SLP172 T00111039=
201102210353 METAR KBLI 210353Z 00000KT 10SM CLR 01/M04 A3000 RMK AO2 SLP168 T00061039=
201102210253 METAR KBLI 210253Z 15003KT 10SM CLR 02/M04 A2999 RMK AO2 SLP167 T00221039 53002=
201102210153 METAR KBLI 210153Z 15004KT 10SM CLR 04/M04 A2999 RMK AO2 SLP165 T00391039=
201102210053 SPECI KBLI 210053Z 18006KT 10SM CLR 06/M03 A2999 RMK AO2 SLP163 T00561033=
201102202353 METAR KBLI 202353Z 18005KT 10SM CLR 06/M03 A2999 RMK AO2 SLP164 T00561033 10061 20022 55002=
201102202253 METAR KBLI 202253Z 17008KT 10SM CLR 06/M03 A2999 RMK AO2 SLP164 T00561033=
201102202153 METAR KBLI 202153Z 18008KT 10SM CLR 06/M04 A2999 RMK AO2 SLP165 T00561044=
201102202053 METAR KBLI 202053Z 17010G15KT 10SM CLR 04/M04 A3000 RMK AO2 SLP166 T00441039 58007=
201102201953 METAR KBLI 201953Z 19007KT 140V220 10SM CLR 04/M05 A3001 RMK AO2 SLP173 T00391050=
201102201853 METAR KBLI 201853Z 05003KT 10SM CLR 03/M07 A3002 RMK AO2 SLP173 T00331067=
201102201753 METAR KBLI 201753Z 35003KT 10SM CLR 02/M07 A3002 RMK AO2 SLP173 T00221072 10022 21050 51007=
201102201653 METAR KBLI 201653Z 04004KT 10SM CLR M01/M08 A3001 RMK AO2 SLP173 T10061078=
201102201553 METAR KBLI 201553Z 35005KT 10SM CLR M03/M09 A3001 RMK AO2 SLP173 T10281089=
201102201453 METAR KBLI 201453Z 00000KT 10SM CLR M03/M10 A3000 RMK AO2 SLP167 T10331100 51008=
201102201353 METAR KBLI 201353Z AUTO 00000KT 10SM CLR M03/M09 A2999 RMK AO2 SLP167 T10331094=
201102201253 METAR KBLI 201253Z AUTO 35006KT 10SM CLR M02/M10 A2998 RMK AO2 SLP162 T10221100=
201102201153 METAR KBLI 201153Z AUTO 04005KT 10SM CLR M02/M10 A2997 RMK AO2 SLP159 T10221100 10022 21022 51007=
201102201053 METAR KBLI 201053Z AUTO 06006KT 10SM CLR M01/M10 A2997 RMK AO2 SLP159 T10061100=
201102200953 METAR KBLI 200953Z AUTO 36009KT 10SM CLR M01/M10 A2997 RMK AO2 SLP157 T10061100=
201102200853 METAR KBLI 200853Z AUTO 02009KT 10SM CLR 01/M10 A2995 RMK AO2 SLP152 T00061100 53005=
201102200753 METAR KBLI 200753Z AUTO 02012KT 10SM CLR 01/M10 A2995 RMK AO2 SLP150 T00111100 400671006=
201102200653 METAR KBLI 200653Z AUTO 01011G20KT 10SM CLR 02/M10 A2994 RMK AO2 SLP149 T00221100=
201102200553 METAR KBLI 200553Z 02015G22KT 10SM CLR 02/M10 A2994 RMK AO2 PK WND 02027/0529 SLP147 T00221100 10061 20022 50004=
201102200453 METAR KBLI 200453Z 01014G21KT 10SM CLR 03/M09 A2994 RMK AO2 SLP149 T00281094=
201102200353 METAR KBLI 200353Z 36011KT 10SM CLR 03/M09 A2993 RMK AO2 SLP145 T00331089=
201102200253 METAR KBLI 200253Z 36012G20KT 10SM CLR 04/M09 A2993 RMK AO2 SLP143 T00391089 53001=
201102200153 METAR KBLI 200153Z 36013G19KT 10SM CLR 04/M08 A2992 RMK AO2 SLP140 T00391083=
201102200053 METAR KBLI 200053Z 02016G24KT 10SM CLR 06/M08 A2992 RMK AO2 PK WND 01030/0000 SLP140 T00561083=
201102192353 METAR KBLI 192353Z 01018G27KT 10SM CLR 06/M08 A2992 RMK AO2 PK WND 03032/2303 SLP142 T00611078 10067 20022 56014=
201102192253 METAR KBLI 192253Z 02018G30KT 10SM CLR 06/M08 A2993 RMK AO2 PK WND 02031/2210 SLP144 T00611083=
201102192153 METAR KBLI 192153Z 01016G28KT 10SM CLR 06/M08 A2995 RMK AO2 PK WND 03034/2126 SLP151 T00561083=
201102192053 METAR KBLI 192053Z 03020G28KT 10SM CLR 05/M08 A2997 RMK AO2 PK WND 04031/2005 SLP156 T00501083 58023=
201102191953 METAR KBLI 191953Z 01018G32KT 10SM CLR 04/M09 A3000 RMK AO2 PK WND 02033/1937 SLP168 T00391089=
201102191853 METAR KBLI 191853Z 02020G26KT 10SM CLR 03/M10 A3002 RMK AO2 PK WND 03034/1832 SLP175 T00281100=
201102191753 METAR KBLI 191753Z 02018G28KT 10SM CLR 02/M09 A3004 RMK AO2 PK WND 01029/1710 SLP180 T00221094 10022 21006 58005=
201102191653 METAR KBLI 191653Z 02020G30KT 10SM CLR 01/M10 A3004 RMK AO2 PK WND 01031/1642 SLP183 T00111100=
201102191553 METAR KBLI 191553Z 01018G27KT 10SM CLR 00/M10 A3005 RMK AO2 PK WND 02029/1507 SLP184 T00001100=
201102191453 METAR KBLI 191453Z 03018G29KT 10SM CLR 00/M11 A3005 RMK AO2 PK WND 03033/1437 SLP185 T00001106 50000=
201102191353 METAR KBLI 191353Z AUTO 02013G27KT 10SM CLR M01/M10 A3006 RMK AO2 PK WND 04031/1320 SLP187 T10061100=
201102191253 METAR KBLI 191253Z AUTO 02018G28KT 10SM CLR 00/M09 A3006 RMK AO2 PK WND 02028/1253 SLP188 T00001094=
201102191153 METAR KBLI 191153Z AUTO 01020G28KT 10SM CLR 00/M09 A3005 RMK AO2 PK WND 01035/1056 SLP185 T00001094 10017 20000 56005=
201102191053 METAR KBLI 191053Z AUTO 01023G31KT 10SM CLR 01/M09 A3005 RMK AO2 PK WND 02031/1048 SLP186 T00061094=
201102190953 METAR KBLI 190953Z AUTO 01012G19KT 10SM CLR 00/M09 A3006 RMK AO2 SLP187 T00001089=
201102190853 METAR KBLI 190853Z AUTO 01014G21KT 10SM CLR 01/M08 A3007 RMK AO2 SLP190 T00061083 51004=
201102190753 METAR KBLI 190753Z AUTO 02014G20KT 10SM CLR 01/M08 A3007 RMK AO2 SLP190 T00111078 400941006=
201102190653 METAR KBLI 190653Z AUTO 01011KT 10SM CLR 02/M07 A3006 RMK AO2 SLP189 T00171072=
201102190553 METAR KBLI 190553Z 02012KT 10SM CLR 02/M07 A3005 RMK AO2 SLP186 T00171067 10078 20017 53022=
201102190453 METAR KBLI 190453Z 01011G18KT 10SM CLR 02/M06 A3003 RMK AO2 SLP178 T00221061=
201102190353 METAR KBLI 190353Z 01013KT 10SM CLR 03/M06 A3001 RMK AO2 SLP170 T00281061=
201102190253 METAR KBLI 190253Z 02011KT 10SM CLR 03/M05 A2999 RMK AO2 SLP164 T00331050 53022=
201102190153 METAR KBLI 190153Z 02012KT 10SM CLR 04/M04 A2997 RMK AO2 SLP157 T00441039=
201102190053 METAR KBLI 190053Z 03011G20KT 10SM CLR 07/M04 A2994 RMK AO2 SLP147 T00671039=
201102182353 METAR KBLI 182353Z 03017G25KT 10SM CLR 08/M03 A2992 RMK AO2 SLP142 T00831033 10094 20061 53012=
201102182253 METAR KBLI 182253Z 03011G19KT 10SM CLR 09/M03 A2991 RMK AO2 SLP138 T00891028=
201102182153 METAR KBLI 182153Z 02010KT 10SM CLR 09/M03 A2990 RMK AO2 SLP132 T00891028=
201102182053 METAR KBLI 182053Z 04007KT 10SM CLR 09/M02 A2989 RMK AO2 SLP129 T00891022 50007=
201102181953 METAR KBLI 181953Z 01010KT 10SM FEW070 08/M02 A2989 RMK AO2 SLP130 T00781022=
201102181853 METAR KBLI 181853Z 03011KT 10SM CLR 07/M02 A2988 RMK AO2 SLP127 T00721022=
201102181753 METAR KBLI 181753Z 02007KT 10SM CLR 06/M02 A2987 RMK AO2 SLP122 T00611022 10061 21006 51024=
201102181653 METAR KBLI 181653Z 03007KT 10SM CLR 03/M01 A2984 RMK AO2 SLP115 T00331011=
201102181553 METAR KBLI 181553Z 02005KT 10SM CLR 01/M02 A2982 RMK AO2 SLP106 T00061022=
201102181453 METAR KBLI 181453Z 01003KT 10SM SCT095 01/M02 A2979 RMK AO2 SLP098 T00061022 53013=
201102181353 METAR KBLI 181353Z AUTO 34003KT 10SM SCT065 00/M02 A2978 RMK AO2 SLP093 T00001022=
201102181253 METAR KBLI 181253Z AUTO 00000KT 10SM CLR 01/M02 A2977 RMK AO2 SLP088 T00061017=
201102181153 METAR KBLI 181153Z AUTO 00000KT 10SM BKN043 01/M02 A2975 RMK AO2 SLP085 T00111017 10056 20011 53004=
201102181053 METAR KBLI 181053Z AUTO 00000KT 10SM FEW045 SCT055 01/M01 A2974 RMK AO2 SLP081 T00111011=
201102180953 METAR KBLI 180953Z AUTO 02004KT 10SM CLR 03/M01 A2974 RMK AO2 SLP080 T00281011=
201102180853 METAR KBLI 180853Z AUTO 11006KT 10SM SCT080 BKN100 04/M01 A2974 RMK AO2 SLP080 T00391011 53008=
201102180753 METAR KBLI 180753Z AUTO VRB05KT 10SM FEW075 BKN100 OVC120 04/M01 A2973 RMK AO2 SLP077 T00441011 400670022=
201102180653 METAR KBLI 180653Z AUTO VRB03KT 10SM FEW033 BKN100 04/M01 A2973 RMK AO2 SLP075 T00441011=
201102180553 METAR KBLI 180553Z 15008KT 10SM BKN031 OVC110 05/M01 A2972 RMK AO2 SLP072 T00501006 10067 20050 53008=
201102180514 SPECI KBLI 180514Z 15008KT 10SM SCT029 BKN035 OVC090 06/00 A2971 RMK AO2=
201102180514 SPECI KBLI 180514Z 15008KT 10SM SCT029 BKN035 OVC090 06/00 A2971 RMK AO2=
201102180453 METAR KBLI 180453Z 15010G15KT 10SM BKN029 OVC034 06/00 A2971 RMK AO2 SLP068 T00560000=
201102180451 SPECI KBLI 180451Z 14007KT 10SM OVC031 06/00 A2970 RMK AO2=
201102180451 SPECI KBLI 180451Z 14007KT 10SM OVC031 06/00 A2970 RMK AO2=
201102180441 SPECI KBLI 180441Z 15007KT 10SM BKN029 OVC100 06/00 A2970 RMK AO2=
201102180441 SPECI KBLI 180441Z 15007KT 10SM BKN029 OVC100 06/00 A2970 RMK AO2=
201102180353 METAR KBLI 180353Z 15013KT 10SM BKN038 BKN046 OVC090 06/M01 A2969 RMK AO2 SLP064 T00611006=
201102180253 METAR KBLI 180253Z 13006KT 10SM BKN100 06/M01 A2969 RMK AO2 SLP063 T00561006 55003=
201102180153 METAR KBLI 180153Z 13007KT 10SM FEW038 BKN100 06/M01 A2969 RMK AO2 SLP062 T00561006=
201102180053 METAR KBLI 180053Z 14008KT 10SM BKN085 06/M01 A2969 RMK AO2 SLP063 T00611011=
201102172353 METAR KBLI 172353Z 14013G18KT 10SM CLR 06/M02 A2970 RMK AO2 SLP066 T00611017 10067 20039 58005=
201102172253 METAR KBLI 172253Z 15009KT 10SM SCT037 SCT110 06/M01 A2971 RMK AO2 SLP068 T00611006=
201102172153 METAR KBLI 172153Z 15015G21KT 10SM BKN033 06/M01 A2971 RMK AO2 SLP070 T00611011=
201102172053 METAR KBLI 172053Z 16011G18KT 10SM BKN030 06/00 A2971 RMK AO2 SLP071 T00560000 50001=
201102171953 METAR KBLI 171953Z 15008KT 10SM SCT027 BKN032 06/00 A2973 RMK AO2 SLP075 T00560000=
201102171853 METAR KBLI 171853Z 16008KT 10SM SCT021 SCT026 05/01 A2972 RMK AO2 SLP074 T00500006=
201102171753 METAR KBLI 171753Z 16005KT 10SM FEW013 SCT018 04/01 A2971 RMK AO2 SLP070 60000 T00390011 10039 20022 51013=
201102171653 METAR KBLI 171653Z 14007KT 10SM FEW012 SCT040 SCT080 03/02 A2970 RMK AO2 RAB03E18 SLP068 P0000 T00330017=
201102171553 METAR KBLI 171553Z 15007KT 10SM BKN015 BKN030 OVC065 03/01 A2970 RMK AO2 SLP065 T00280006=
201102171534 SPECI KBLI 171534Z 15006KT 10SM FEW008 SCT030 OVC065 02/01 A2968 RMK AO2=
201102171534 SPECI KBLI 171534Z 15006KT 10SM FEW008 SCT030 OVC065 02/01 A2968 RMK AO2=
201102171453 METAR KBLI 171453Z 14007KT 10SM SCT030 OVC065 03/01 A2967 RMK AO2 SLP057 T00280006 51008=
201102171353 METAR KBLI 171353Z AUTO 15007KT 10SM OVC060 03/01 A2967 RMK AO2 SLP056 T00330006=
201102171253 METAR KBLI 171253Z AUTO 16010KT 10SM OVC065 03/01 A2966 RMK AO2 SLP053 T00330011=
201102171153 METAR KBLI 171153Z AUTO 16007KT 10SM FEW022 BKN060 03/01 A2965 RMK AO2 SLP049 60005 70009 T00330011 10039 20028 53012=
201102171114 SPECI KBLI 171114Z AUTO 15007KT 10SM SCT020 BKN060 04/01 A2964 RMK AO2=
201102171114 SPECI KBLI 171114Z AUTO 15007KT 10SM SCT020 BKN060 04/01 A2964 RMK AO2=
201102171053 METAR KBLI 171053Z AUTO 16007KT 10SM BKN020 BKN060 BKN070 04/01 A2964 RMK AO2 SLP044 T00390011=
201102171037 SPECI KBLI 171037Z AUTO 18007KT 10SM BKN020 04/01 A2964 RMK AO2=
201102171037 SPECI KBLI 171037Z AUTO 18007KT 10SM BKN020 04/01 A2964 RMK AO2=
201102170953 METAR KBLI 170953Z AUTO 17010G16KT 10SM CLR 04/01 A2962 RMK AO2 SLP038 T00390011=
201102170922 SPECI KBLI 170922Z AUTO 14005KT 10SM SCT014 SCT021 03/01 A2962 RMK AO2=
201102170922 SPECI KBLI 170922Z AUTO 14005KT 10SM SCT014 SCT021 03/01 A2962 RMK AO2=
201102170904 SPECI KBLI 170904Z AUTO 15005KT 10SM BKN014 03/02 A2962 RMK AO2=
201102170904 SPECI KBLI 170904Z AUTO 15005KT 10SM BKN014 03/02 A2962 RMK AO2=
201102170853 METAR KBLI 170853Z AUTO 14007KT 10SM SCT014 03/02 A2961 RMK AO2 SLP037 60005 T00280017 53012=
201102170823 SPECI KBLI 170823Z AUTO 14006KT 10SM SCT023 BKN049 BKN065 03/02 A2961 RMK AO2=
201102170823 SPECI KBLI 170823Z AUTO 14006KT 10SM SCT023 BKN049 BKN065 03/02 A2961 RMK AO2=
201102170804 SPECI KBLI 170804Z AUTO 15012KT 10SM SCT012 BKN020 OVC026 03/02 A2960 RMK AO2=
201102170804 SPECI KBLI 170804Z AUTO 15012KT 10SM SCT012 BKN020 OVC026 03/02 A2960 RMK AO2=
201102170753 METAR KBLI 170753Z AUTO 15009KT 10SM BKN012 OVC020 03/02 A2960 RMK AO2 RAB17E47 SLP032 P0004 T00330017 400890033=
201102170743 SPECI KBLI 170743Z AUTO 14007KT 9SM -RA BKN012 OVC018 03/02 A2960 RMK AO2 RAB17 P0004=
201102170743 SPECI KBLI 170743Z AUTO 14007KT 9SM -RA BKN012 OVC018 03/02 A2960 RMK AO2 RAB17 P0004=
201102170727 SPECI KBLI 170727Z AUTO 15016G23KT 2 1/2SM RA BR BKN012 BKN018 BKN026 03/02 A2959 RMK AO2 RAB17 P0002=
201102170727 SPECI KBLI 170727Z AUTO 15016G23KT 2 1/2SM RA BR BKN012 BKN018 BKN026 03/02 A2959 RMK AO2 RAB17 P0002=
201102170700 SPECI KBLI 170700Z AUTO 14009G16KT 10SM FEW014 BKN026 BKN033 04/02 A2958 RMK AO2=
201102170700 SPECI KBLI 170700Z AUTO 14009G16KT 10SM FEW014 BKN026 BKN033 04/02 A2958 RMK AO2=
201102170653 METAR KBLI 170653Z AUTO 15011G20KT 10SM FEW014 BKN032 OVC040 04/02 A2958 RMK AO2 RAE50 SLP026 P0001 T00390017=
201102170651 SPECI KBLI 170651Z AUTO 16011G20KT 10SM FEW014 BKN032 OVC044 04/02 A2958 RMK AO2 RAE50 P0001=
201102170651 SPECI KBLI 170651Z AUTO 16011G20KT 10SM FEW014 BKN032 OVC044 04/02 A2958 RMK AO2 RAE50 P0001=
201102170553 METAR KBLI 170553Z 15016G19KT 6SM -RA BR FEW019 BKN025 OVC039 04/02 A2957 RMK AO2 RAB15 SLP021 P0001 60004 T00390017 10078 20039 53014=
201102170453 METAR KBLI 170453Z 16012G18KT 10SM FEW024 BKN033 OVC070 04/02 A2954 RMK AO2 RAB21E53 SLP012 P0000 T00440017=
201102170353 METAR KBLI 170353Z 16013G21KT 10SM FEW038 BKN060 04/02 A2953 RMK AO2 RAE22 SLP007 P0000 T00440017=
201102170349 SPECI KBLI 170349Z 15014G21KT 10SM SCT038 BKN060 04/02 A2953 RMK AO2 RAE22 P0000=
201102170349 SPECI KBLI 170349Z 15014G21KT 10SM SCT038 BKN060 04/02 A2953 RMK AO2 RAE22 P0000=
201102170253 METAR KBLI 170253Z 16012G19KT 9SM -RA BKN028 BKN043 OVC093 04/02 A2952 RMK AO2 RAE31B52 SLP005 P0003 60003 T00440017 53016=
201102170200 SPECI KBLI 170200Z 17015G23KT 10SM -RA FEW020 BKN028 OVC036 06/01 A2950 RMK AO2 P0000=
201102170200 SPECI KBLI 170200Z 17015G23KT 10SM -RA FEW020 BKN028 OVC036 06/01 A2950 RMK AO2 P0000=
201102170153 METAR KBLI 170153Z 17011G18KT 10SM -RA BKN030 OVC038 06/01 A2949 RMK AO2 RAE08B31 SLP996 P0000 T00610011=
201102170053 METAR KBLI 170053Z 16016G22KT 10SM -RA BKN045 BKN070 07/01 A2948 RMK AO2 RAB53 SLP990 P0000 T00670006=
201102162353 METAR KBLI 162353Z 17016G21KT 10SM BKN070 08/01 A2947 RMK AO2 RAB37E49 SLP987 P0000 60000 T00780006 10089 20061 51009=
201102162253 METAR KBLI 162253Z 17013G20KT 10SM SCT080 08/00 A2946 RMK AO2 SLP984 T00780000=
201102162153 METAR KBLI 162153Z 17010G18KT 10SM BKN080 08/01 A2946 RMK AO2 SLP983 T00780006=
201102162053 METAR KBLI 162053Z 17015G24KT 10SM FEW038 08/01 A2944 RMK AO2 SLP978 T00830006 58005=
201102161953 METAR KBLI 161953Z 16015G26KT 10SM FEW036 08/00 A2945 RMK AO2 PK WND 16026/1951 SLP980 T00830000=
201102161853 METAR KBLI 161853Z 16012G24KT 10SM BKN037 BKN090 07/00 A2946 RMK AO2 PK WND 15026/1823 SLP982 T00670000=
201102161753 METAR KBLI 161753Z 16017G27KT 10SM BKN030 OVC037 06/M01 A2946 RMK AO2 PK WND 16030/1702 SLP982 60000 T00561006 10056 20050 51015=
201102161653 METAR KBLI 161653Z 16017G29KT 10SM SCT030 OVC065 06/M01 A2944 RMK AO2 PK WND 16032/1610 RAB13E23 SLP978 P0000 T00561006=
201102161553 METAR KBLI 161553Z 16018G32KT 10SM BKN038 BKN046 OVC080 06/M01 A2943 RMK AO2 PK WND 15032/1545 SLP974 T00561006=
201102161453 METAR KBLI 161453Z 14018G25KT 10SM FEW034 OVC090 06/M01 A2941 RMK AO2 PK WND 16029/1425 SLP967 T00561006 58005=
201102161417 SPECI KBLI 161417Z AUTO 15017G27KT 10SM SCT031 OVC090 06/M01 A2942 RMK AO2 PK WND 16027/1412=
201102161417 SPECI KBLI 161417Z AUTO 15017G27KT 10SM SCT031 OVC090 06/M01 A2942 RMK AO2 PK WND 16027/1412=
201102161353 METAR KBLI 161353Z AUTO 14018G25KT 10SM BKN027 BKN035 05/M01 A2943 RMK AO2 SLP972 T00501006=
201102161253 METAR KBLI 161253Z AUTO 15015G22KT 10SM OVC033 06/00 A2943 RMK AO2 PK WND 15026/1221 SLP972 T00560000=
201102161153 METAR KBLI 161153Z AUTO 15015G26KT 10SM OVC030 06/00 A2943 RMK AO2 PK WND 14026/1151 SLP972 T00560000 10067 20056 58014=
201102161140 SPECI KBLI 161140Z AUTO 15014G23KT 10SM OVC031 06/00 A2944 RMK AO2=
201102161140 SPECI KBLI 161140Z AUTO 15014G23KT 10SM OVC031 06/00 A2944 RMK AO2=
201102161132 SPECI KBLI 161132Z AUTO 15012G21KT 10SM BKN029 OVC036 06/00 A2944 RMK AO2=
201102161132 SPECI KBLI 161132Z AUTO 15012G21KT 10SM BKN029 OVC036 06/00 A2944 RMK AO2=
201102161123 SPECI KBLI 161123Z AUTO 15015G22KT 10SM BKN030 OVC034 06/00 A2944 RMK AO2=
201102161123 SPECI KBLI 161123Z AUTO 15015G22KT 10SM BKN030 OVC034 06/00 A2944 RMK AO2=
201102161108 SPECI KBLI 161108Z AUTO 15015G22KT 10SM BKN028 OVC036 06/01 A2945 RMK AO2=
201102161108 SPECI KBLI 161108Z AUTO 15015G22KT 10SM BKN028 OVC036 06/01 A2945 RMK AO2=
201102161053 METAR KBLI 161053Z AUTO 15015G26KT 10SM SCT026 OVC032 06/01 A2945 RMK AO2 PK WND 15026/1051 SLP980 T00560006=
201102160953 METAR KBLI 160953Z AUTO 17017G25KT 10SM BKN027 OVC035 06/01 A2946 RMK AO2 PK WND 14032/0905 SLP983 T00560011=
201102160938 SPECI KBLI 160938Z AUTO 16015G27KT 10SM BKN026 BKN035 OVC110 06/01 A2946 RMK AO2 PK WND 14032/0905=
201102160938 SPECI KBLI 160938Z AUTO 16015G27KT 10SM BKN026 BKN035 OVC110 06/01 A2946 RMK AO2 PK WND 14032/0905=
201102160919 SPECI KBLI 160919Z AUTO 15016G24KT 10SM SCT024 BKN030 06/01 A2946 RMK AO2 PK WND 14032/0905=
201102160919 SPECI KBLI 160919Z AUTO 15016G24KT 10SM SCT024 BKN030 06/01 A2946 RMK AO2 PK WND 14032/0905=
201102160853 METAR KBLI 160853Z AUTO 15018G27KT 10SM OVC027 06/01 A2947 RMK AO2 PK WND 14030/0824 SLP986 T00610011 53006=
201102160753 METAR KBLI 160753Z AUTO 16019G28KT 10SM BKN026 BKN031 OVC080 06/02 A2946 RMK AO2 PK WND 14029/0720 SLP983 T00610017 400940050=
201102160653 METAR KBLI 160653Z AUTO 15019G26KT 10SM BKN028 OVC034 06/02 A2945 RMK AO2 PK WND 16027/0633 SLP981 T00610017=
201102160651 SPECI KBLI 160651Z AUTO 15016G26KT 10SM BKN028 OVC034 06/01 A2945 RMK AO2 PK WND 16027/0633=
201102160651 SPECI KBLI 160651Z AUTO 15016G26KT 10SM BKN028 OVC034 06/01 A2945 RMK AO2 PK WND 16027/0633=
201102160553 METAR KBLI 160553Z 16012G27KT 10SM SCT030 BKN036 OVC110 07/02 A2944 RMK AO2 PK WND 16027/0544 SLP975 60000 T00670017 10094 20061 50002=
201102160453 METAR KBLI 160453Z 13010KT 10SM OVC036 06/02 A2944 RMK AO2 RAE25 SLP977 P0000 T00610022=
201102160353 METAR KBLI 160353Z 15017G25KT 10SM -RA FEW025 SCT037 OVC060 07/02 A2945 RMK AO2 PK WND 16032/0312 RAB34 SLP980 P0000 T00670022=
201102160253 METAR KBLI 160253Z 15022G33KT 10SM FEW031 08/02 A2943 RMK AO2 PK WND 14036/0234 SLP973 60000 T00780017 55009=
201102160153 METAR KBLI 160153Z 15019G30KT 10SM FEW034 08/01 A2942 RMK AO2 PK WND 14036/0135 SLP970 T00830011=
201102160053 METAR KBLI 160053Z 15018G26KT 10SM SCT037 08/02 A2944 RMK AO2 PK WND 15030/0016 RAB07E20 SLP975 P0000 T00830022=
201102152353 METAR KBLI 152353Z 15014G25KT 10SM BKN035 09/02 A2946 RMK AO2 SLP982 60000 T00890017 10094 20067 58018=
201102152253 METAR KBLI 152253Z 14012G17KT 10SM SCT029 BKN035 OVC045 08/03 A2948 RMK AO2 RAB11E20 SLP992 P0000 T00830028=
201102152153 METAR KBLI 152153Z 15010G18KT 10SM BKN040 BKN046 OVC055 08/02 A2949 RMK AO2 RAB00E12 SLP993 P0000 T00830017=
201102152053 METAR KBLI 152053Z 19004KT 10SM OVC055 08/01 A2951 RMK AO2 SLP000 T00780011 56020=
201102151953 METAR KBLI 151953Z 02003KT 10SM BKN055 08/02 A2952 RMK AO2 SLP006 T00780017=
201102151853 METAR KBLI 151853Z 04006KT 10SM SCT050 07/02 A2954 RMK AO2 SLP011 T00720017=
201102151753 METAR KBLI 151753Z 01005KT 10SM BKN050 07/02 A2957 RMK AO2 SLP020 T00670022 10067 20050 56006=
201102151653 METAR KBLI 151653Z 04006KT 10SM BKN040 06/01 A2958 RMK AO2 SLP023 T00610011=
201102151553 METAR KBLI 151553Z 00000KT 10SM FEW065 06/01 A2957 RMK AO2 SLP021 T00560006=
201102151453 METAR KBLI 151453Z 12007KT 10SM FEW026 SCT090 06/01 A2958 RMK AO2 SLP026 T00560011 56009=
201102151353 METAR KBLI 151353Z AUTO 16008G16KT 10SM FEW027 SCT090 06/02 A2959 RMK AO2 PRESFR SLP029 T00610017=
201102151350 SPECI KBLI 151350Z AUTO 16010G16KT 10SM SCT027 BKN090 06/02 A2960 RMK AO2=
201102151350 SPECI KBLI 151350Z AUTO 16010G16KT 10SM SCT027 BKN090 06/02 A2960 RMK AO2=
201102151314 SPECI KBLI 151314Z AUTO 17009G20KT 10SM BKN025 06/02 A2961 RMK AO2=
201102151314 SPECI KBLI 151314Z AUTO 17009G20KT 10SM BKN025 06/02 A2961 RMK AO2=
201102151253 METAR KBLI 151253Z AUTO 15011KT 10SM SCT031 06/01 A2961 RMK AO2 SLP035 T00610011=
201102151153 METAR KBLI 151153Z AUTO 15014KT 10SM OVC023 06/02 A2962 RMK AO2 PK WND 16026/1055 SLP036 70003 T00610017 10072 20056 56006=
201102151053 METAR KBLI 151053Z AUTO 15015G23KT 10SM BKN025 06/02 A2962 RMK AO2 SLP038 T00610017=
201102150953 METAR KBLI 150953Z AUTO 15012G19KT 10SM FEW022 06/02 A2961 RMK AO2 PK WND 15028/0932 SLP036 T00560022=
201102150944 SPECI KBLI 150944Z AUTO 15015G24KT 10SM FEW020 SCT032 06/02 A2961 RMK AO2 PK WND 15028/0932=
201102150944 SPECI KBLI 150944Z AUTO 15015G24KT 10SM FEW020 SCT032 06/02 A2961 RMK AO2 PK WND 15028/0932=
201102150853 METAR KBLI 150853Z AUTO 16013G21KT 10SM BKN018 BKN026 07/03 A2963 RMK AO2 SLP042 T00670028 53031=
201102150845 SPECI KBLI 150845Z AUTO 16015G25KT 10SM FEW018 BKN026 07/02 A2963 RMK AO2=
201102150845 SPECI KBLI 150845Z AUTO 16015G25KT 10SM FEW018 BKN026 07/02 A2963 RMK AO2=
201102150813 SPECI KBLI 150813Z AUTO 17014G24KT 10SM SCT022 06/02 A2960 RMK AO2 LTG DSNT N=
201102150813 SPECI KBLI 150813Z AUTO 17014G24KT 10SM SCT022 06/02 A2960 RMK AO2 LTG DSNT N=
201102150753 METAR KBLI 150753Z AUTO 16014G23KT 10SM BKN022 BKN027 BKN070 07/02 A2959 RMK AO2 PK WND 15029/0737 SLP028 T00670022 401170056=
201102150740 SPECI KBLI 150740Z AUTO 16021G29KT 10SM BKN022 BKN028 BKN070 07/02 A2959 RMK AO2 PK WND 15029/0737=
201102150740 SPECI KBLI 150740Z AUTO 16021G29KT 10SM BKN022 BKN028 BKN070 07/02 A2959 RMK AO2 PK WND 15029/0737=
201102150653 METAR KBLI 150653Z AUTO 15019G30KT 10SM BKN060 07/03 A2957 RMK AO2 PK WND 14030/0647 SLP022 T00720028=
201102150619 SPECI KBLI 150619Z 16013G23KT 10SM FEW019 BKN030 BKN037 07/03 A2955 RMK AO2 PK WND 17027/0555=
201102150619 SPECI KBLI 150619Z 16013G23KT 10SM FEW019 BKN030 BKN037 07/03 A2955 RMK AO2 PK WND 17027/0555=
201102150553 METAR KBLI 150553Z 16016G25KT 10SM FEW019 BKN028 OVC038 07/04 A2954 RMK AO2 PK WND 17028/0543 SLP010 60001 T00720039 10111 20072 51054=
201102150522 SPECI KBLI 150522Z 17015G25KT 10SM BKN023 BKN033 OVC048 08/04 A2953 RMK AO2 PK WND 17026/0455 PRESRR=
201102150522 SPECI KBLI 150522Z 17015G25KT 10SM BKN023 BKN033 OVC048 08/04 A2953 RMK AO2 PK WND 17026/0455 PRESRR=
201102150514 SPECI KBLI 150514Z 17013G25KT 10SM SCT023 BKN039 OVC120 08/04 A2951 RMK AO2 PK WND 17026/0455=
201102150514 SPECI KBLI 150514Z 17013G25KT 10SM SCT023 BKN039 OVC120 08/04 A2951 RMK AO2 PK WND 17026/0455=
201102150453 METAR KBLI 150453Z 16018G29KT 10SM BKN023 OVC060 08/04 A2949 RMK AO2 SLP995 T00780039=
201102150353 METAR KBLI 150353Z 16019G28KT 10SM OVC025 09/04 A2944 RMK AO2 PK WND 15030/0309 SLP978 T00890039=
201102150327 SPECI KBLI 150327Z 16016G26KT 10SM BKN025 BKN034 OVC041 09/04 A2941 RMK AO2 PK WND 15030/0309=
201102150327 SPECI KBLI 150327Z 16016G26KT 10SM BKN025 BKN034 OVC041 09/04 A2941 RMK AO2 PK WND 15030/0309=
201102150311 SPECI KBLI 150311Z 16020G30KT 10SM SCT027 BKN034 OVC041 09/04 A2941 RMK AO2 PK WND 15030/0309=
201102150311 SPECI KBLI 150311Z 16020G30KT 10SM SCT027 BKN034 OVC041 09/04 A2941 RMK AO2 PK WND 15030/0309=
201102150253 METAR KBLI 150253Z 16023G36KT 10SM BKN027 OVC037 09/04 A2938 RMK AO2 PK WND 14038/0158 SLP956 60001 T00890044 53016=
201102150153 METAR KBLI 150153Z 16026G37KT 10SM BKN029 BKN100 11/05 A2935 RMK AO2 PK WND 14042/0137 SLP945 T01060050=
201102150117 SPECI KBLI 150117Z 15023G35KT 10SM BKN029 BKN070 OVC090 11/06 A2934 RMK AO2 PK WND 14039/0058=
201102150117 SPECI KBLI 150117Z 15023G35KT 10SM BKN029 BKN070 OVC090 11/06 A2934 RMK AO2 PK WND 14039/0058=
201102150053 METAR KBLI 150053Z 16023G39KT 10SM FEW095 11/06 A2933 RMK AO2 PK WND 15046/0037 RAE17 SLP939 P0001 T01110056=
201102142353 METAR KBLI 142353Z 15024G41KT 3SM RA BKN031 BKN040 BKN090 11/06 A2933 RMK AO2 PK WND 15045/2318 RAB40 SLP940 P0002 60002 T01060061 10117 20089 55010=
201102142253 METAR KBLI 142253Z 15027G40KT 10SM FEW037 BKN080 12/04 A2929 RMK AO2 PK WND 15041/2240 SLP925 T01170044=
201102142153 METAR KBLI 142153Z 14022G31KT 10SM FEW037 OVC080 11/04 A2931 RMK AO2 PK WND 12034/2109 RAE08 SLP934 P0000 T01060044=
201102142053 METAR KBLI 142053Z 14014G20KT 10SM -RA BKN033 BKN041 OVC050 10/04 A2936 RMK AO2 RAB1954 SLP951 P0000 60000 T01000044 58017=
201102141953 METAR KBLI 141953Z 15018G30KT 10SM FEW027 BKN047 OVC080 09/04 A2939 RMK AO2 PK WND 14030/1947 RAE21 SLP961 P0000 T00940039=
201102141900 SPECI KBLI 141900Z 15016G26KT 10SM -RA OVC027 09/04 A2942 RMK AO2 PK WND 15026/1855 P0000=
201102141900 SPECI KBLI 141900Z 15016G26KT 10SM -RA OVC027 09/04 A2942 RMK AO2 PK WND 15026/1855 P0000=
201102141853 METAR KBLI 141853Z 15019G26KT 10SM -RA SCT029 BKN035 OVC070 09/04 A2943 RMK AO2 PK WND 16037/1759 RAB11E28B44 SLP972 P0000 T00940044=
201102141753 METAR KBLI 141753Z 14023G39KT 10SM OVC100 11/03 A2941 RMK AO2 PK WND 14039/1749 SLP968 60000 T01060033 10106 20094 58009=
201102141653 METAR KBLI 141653Z 14024G36KT 10SM OVC085 10/03 A2942 RMK AO2 PK WND 14041/1616 SLP970 T01000033=
201102141553 METAR KBLI 141553Z 14027G35KT 10SM FEW032 OVC090 10/04 A2945 RMK AO2 PK WND 15043/1534 SLP979 T01000039=
201102141453 METAR KBLI 141453Z AUTO 14021G35KT 10SM SCT036 BKN090 OVC120 11/04 A2944 RMK AO2 PK WND 13035/1453 SLP977 60000 T01060039 56030=
201102141353 METAR KBLI 141353Z AUTO 14017G33KT 10SM FEW040 OVC090 10/03 A2947 RMK AO2 PK WND 14033/1344 RAB04E36 SLP987 P0000 T01000033=
201102141253 METAR KBLI 141253Z AUTO 15017G25KT 10SM BKN085 11/04 A2950 RMK AO2 PK WND 13029/1229 RAE42 SLP998 P0000 T01060039=
201102141153 METAR KBLI 141153Z AUTO 14012G22KT 10SM -RA FEW039 OVC060 10/04 A2953 RMK AO2 RAB19 SLP006 P0000 60006 70013 T01000039 10106 20056 58033=
201102141053 METAR KBLI 141053Z AUTO 03006KT 10SM BKN055 OVC090 06/04 A2956 RMK AO2 SLP019 T00610044=
201102140953 METAR KBLI 140953Z AUTO 34004KT 10SM OVC035 06/04 A2960 RMK AO2 RAE10 SLP032 P0000 T00560044=
201102140853 METAR KBLI 140853Z AUTO 01004KT 10SM -RA OVC035 06/05 A2963 RMK AO2 SLP040 P0003 60006 T00610050 58042=
201102140753 METAR KBLI 140753Z AUTO 02004KT 8SM -RA OVC037 06/05 A2967 RMK AO2 SLP055 P0002 T00610050 401000056=
201102140653 METAR KBLI 140653Z AUTO 08006KT 10SM -RA FEW030 OVC039 08/05 A2971 RMK AO2 SLP068 P0001 T00780050=
201102140553 METAR KBLI 140553Z 04006KT 8SM -RA OVC039 07/04 A2975 RMK AO2 RAB40 SLP082 P0001 60001 T00670039 10100 20067 56018=
201102140453 METAR KBLI 140453Z 02003KT 10SM OVC055 07/04 A2977 RMK AO2 SLP088 T00670039=
201102140353 METAR KBLI 140353Z 01006KT 10SM OVC060 07/04 A2977 RMK AO2 RAE0259 SLP090 P0000 T00670039=
201102140253 METAR KBLI 140253Z 02007KT 10SM -RA BKN055 OVC070 07/04 A2980 RMK AO2 RAB46 SLP101 P0000 60000 T00670044 56050=
201102140153 METAR KBLI 140153Z 01007KT 10SM OVC048 07/04 A2984 RMK AO2 SLP113 T00720039=
201102140053 METAR KBLI 140053Z 02007KT 10SM BKN050 08/04 A2989 RMK AO2 SLP131 T00780044=
201102132353 METAR KBLI 132353Z 10007KT 10SM OVC048 10/02 A2995 RMK AO2 SLP151 T01000022 10100 20078 58023=
201102132253 METAR KBLI 132253Z 15010KT 10SM SCT038 OVC049 10/03 A2998 RMK AO2 SLP160 T01000028=
201102132200 SPECI KBLI 132200Z VRB06KT 10SM BKN040 OVC047 09/03 A3000 RMK AO2=
201102132200 SPECI KBLI 132200Z VRB06KT 10SM BKN040 OVC047 09/03 A3000 RMK AO2=
201102132153 METAR KBLI 132153Z 15006KT 10SM OVC028 09/03 A3000 RMK AO2 SLP166 T00940033=
201102132053 METAR KBLI 132053Z 14006KT 10SM BKN026 OVC034 09/03 A3002 RMK AO2 SLP174 T00940033 58016=
201102131953 METAR KBLI 131953Z 18005KT 10SM BKN025 BKN034 OVC041 09/04 A3005 RMK AO2 SLP183 T00890039=
201102131853 METAR KBLI 131853Z 15010G15KT 10SM BKN025 BKN034 BKN041 08/04 A3006 RMK AO2 SLP188 T00830039=
201102131753 METAR KBLI 131753Z 17006KT 10SM BKN025 BKN034 OVC043 08/04 A3007 RMK AO2 RAE1659 SLP190 P0000 60006 T00780044 10078 20056 58010=
201102131653 METAR KBLI 131653Z 16003KT 4SM -RA BR BKN020 BKN025 OVC030 07/05 A3008 RMK AO2 RAB1558 SLP195 P0000 T00670050=
201102131553 METAR KBLI 131553Z 14003KT 10SM BKN026 OVC034 06/04 A3009 RMK AO2 SLP197 T00610044=
201102131453 METAR KBLI 131453Z 17005KT 10SM BKN026 OVC037 07/04 A3010 RMK AO2 SLP200 60006 T00670039 51019=
201102131353 METAR KBLI 131353Z AUTO 15008KT 10SM BKN043 OVC070 06/04 A3009 RMK AO2 RAE18 SLP196 P0000 T00610044=
201102131317 SPECI KBLI 131317Z AUTO 16008KT 10SM -RA SCT029 OVC039 06/04 A3008 RMK AO2 P0000=
201102131317 SPECI KBLI 131317Z AUTO 16008KT 10SM -RA SCT029 OVC039 06/04 A3008 RMK AO2 P0000=
201102131304 SPECI KBLI 131304Z AUTO 17003KT 7SM -RA BKN029 OVC039 06/04 A3008 RMK AO2 P0000=
201102131304 SPECI KBLI 131304Z AUTO 17003KT 7SM -RA BKN029 OVC039 06/04 A3008 RMK AO2 P0000=
201102131253 METAR KBLI 131253Z AUTO 19004KT 10SM -RA FEW025 BKN034 OVC044 06/04 A3007 RMK AO2 SLP190 P0006 T00560044=
201102131153 METAR KBLI 131153Z AUTO 19003KT 4SM -RA BR BKN017 OVC023 06/05 A3004 RMK AO2 RAB11 SLP181 P0005 60005 70039 T00610050 10078 20061 53031=
201102131130 SPECI KBLI 131130Z AUTO VRB05KT 4SM RA BR SCT015 BKN023 OVC036 06/04 A3003 RMK AO2 RAB11 P0003=
201102131130 SPECI KBLI 131130Z AUTO VRB05KT 4SM RA BR SCT015 BKN023 OVC036 06/04 A3003 RMK AO2 RAB11 P0003=
201102131053 METAR KBLI 131053Z AUTO VRB05KT 10SM BKN037 BKN075 07/04 A3000 RMK AO2 SLP168 T00720039=
201102130953 METAR KBLI 130953Z AUTO 18007KT 150V220 10SM FEW065 BKN100 07/03 A2998 RMK AO2 SLP160 T00720028=
201102130853 METAR KBLI 130853Z AUTO VRB04KT 10SM FEW110 07/02 A2995 RMK AO2 SLP149 T00720022 51035=
201102130753 METAR KBLI 130753Z AUTO 18008KT 10SM FEW120 07/03 A2992 RMK AO2 SLP141 T00670028 401170067=
201102130653 METAR KBLI 130653Z AUTO 19008G16KT 160V220 10SM SCT110 07/03 A2988 RMK AO2 SLP126 T00670028=
201102130553 METAR KBLI 130553Z 21007G16KT 160V230 10SM BKN039 BKN120 07/02 A2985 RMK AO2 SLP114 60018 T00720022 10094 20072 53063=
201102130453 METAR KBLI 130453Z 19009G20KT 10SM SCT037 BKN100 08/03 A2978 RMK AO2 SLP093 T00780033=
201102130353 METAR KBLI 130353Z 20009G20KT 10SM FEW120 08/04 A2971 RMK AO2 RAE0254 SLP069 T00780039=
201102130253 METAR KBLI 130253Z 20011G23KT 10SM -RA BKN065 OVC080 09/04 A2966 RMK AO2 PK WND 16026/0155 RAE03B41 SLP050 P0001 60018 T00890044 53031=
201102130211 SPECI KBLI 130211Z 20009G18KT 170V240 10SM FEW022 BKN080 OVC100 09/06 A2963 RMK AO2 PK WND 16026/0155 RAE03 PRESRR P0000=
201102130211 SPECI KBLI 130211Z 20009G18KT 170V240 10SM FEW022 BKN080 OVC100 09/06 A2963 RMK AO2 PK WND 16026/0155 RAE03 PRESRR P0000=
201102130153 METAR KBLI 130153Z 18013G27KT 4SM -RA BR FEW011 BKN020 OVC042 09/07 A2961 RMK AO2 PK WND 16037/0108 SLP033 P0008 T00890072=
201102130117 SPECI KBLI 130117Z 17021G37KT 4SM -RA BR FEW015 BKN022 OVC027 09/07 A2957 RMK AO2 PK WND 16037/0108 P0004=
201102130117 SPECI KBLI 130117Z 17021G37KT 4SM -RA BR FEW015 BKN022 OVC027 09/07 A2957 RMK AO2 PK WND 16037/0108 P0004=
201102130109 SPECI KBLI 130109Z 17022G37KT 2 1/2SM -RA BR FEW017 BKN024 OVC041 09/07 A2957 RMK AO2 PK WND 16037/0108 P0003=
201102130109 SPECI KBLI 130109Z 17022G37KT 2 1/2SM -RA BR FEW017 BKN024 OVC041 09/07 A2957 RMK AO2 PK WND 16037/0108 P0003=
201102130053 METAR KBLI 130053Z 17025G36KT 2 1/2SM RA BR FEW015 SCT021 OVC041 09/07 A2957 RMK AO2 PK WND 16038/0018 SLP019 P0009 T00890067=
201102122353 METAR KBLI 122353Z 16020G32KT 3SM -RA FEW023 OVC041 09/06 A2956 RMK AO2 PK WND 17035/2334 SLP016 P0007 60016 T00940061 10111 20094 56034=
201102122253 METAR KBLI 122253Z 16020G36KT 6SM -RA SCT034 OVC045 10/06 A2956 RMK AO2 PK WND 15039/2240 SLP018 P0004 T01000056=
201102122153 METAR KBLI 122153Z 16021G32KT 6SM -RA OVC032 10/04 A2961 RMK AO2 PK WND 14034/2106 SLP033 P0004 T01000044=
201102122053 METAR KBLI 122053Z 16020G34KT 4SM -RA BKN037 OVC044 10/05 A2966 RMK AO2 PK WND 14036/2014 RAB1959 SLP050 P0001 60001 T01000050 58030=
201102121953 METAR KBLI 121953Z 16020G38KT 10SM BKN065 11/03 A2969 RMK AO2 PK WND 16041/1919 SLP061 T01110033=
201102121853 METAR KBLI 121853Z 15025G38KT 10SM BKN090 11/03 A2974 RMK AO2 PK WND 16038/1848 SLP078 T01110028=
201102121753 METAR KBLI 121753Z 16022G37KT 10SM BKN038 11/03 A2975 RMK AO2 PK WND 14038/1721 SLP081 T01110028 10117 20106 56029=
201102121653 METAR KBLI 121653Z 15016G29KT 10SM BKN085 BKN110 11/02 A2978 RMK AO2 PK WND 16037/1606 SLP091 T01060022=
201102121553 METAR KBLI 121553Z 14018G25KT 10SM BKN095 BKN120 11/02 A2980 RMK AO2 PK WND 14035/1521 SLP100 T01060017=
201102121453 METAR KBLI 121453Z 17016G31KT 10SM CLR 12/01 A2983 RMK AO2 PK WND 13035/1443 SLP110 T01170006 55032=
201102121353 METAR KBLI 121353Z AUTO 14018G23KT 10SM SCT110 11/01 A2982 RMK AO2 PK WND 14027/1337 SLP106 T01110011=
201102121253 METAR KBLI 121253Z AUTO 15015G20KT 10SM FEW080 11/02 A2988 RMK AO2 SLP125 T01110017=
201102121153 METAR KBLI 121153Z AUTO 16012G18KT 10SM SCT050 OVC065 11/02 A2993 RMK AO2 PK WND 14031/1108 RAB34E50 SLP142 P0000 60000 70008 T01110017 10117 20061 55004=
201102121053 METAR KBLI 121053Z AUTO 15016G21KT 10SM OVC110 12/02 A2991 RMK AO2 PK WND 14033/1005 SLP138 T01170017=
201102120953 METAR KBLI 120953Z AUTO 15018G28KT 10SM CLR 12/02 A2993 RMK AO2 PK WND 14028/0953 SLP142 T01170017=
201102120853 METAR KBLI 120853Z AUTO 16016G28KT 10SM CLR 12/02 A2994 RMK AO2 PK WND 14028/0850 SLP147 T01170022 55012=
201102120753 METAR KBLI 120753Z AUTO 14011G18KT 10SM CLR 12/02 A2994 RMK AO2 SLP145 T01170022 401170000=
201102120653 METAR KBLI 120653Z AUTO 15013G22KT 10SM CLR 11/03 A2995 RMK AO2 PK WND 14028/0630 SLP150 T01110028=
201102120553 METAR KBLI 120553Z 17005KT 6SM BR BKN070 OVC100 06/03 A2997 RMK AO2 SLP159 60006 T00560033 10056 20039 56024=
201102120453 METAR KBLI 120453Z 34003KT 5SM BR BKN075 OVC085 04/03 A2999 RMK AO2 SLP163 T00390033=
201102120353 METAR KBLI 120353Z 01005KT 5SM BR FEW060 BKN095 04/03 A3001 RMK AO2 RAE27 SLP172 P0002 T00390033=
201102120253 METAR KBLI 120253Z 01003KT 6SM -RA BR OVC038 04/03 A3004 RMK AO2 SLP183 P0003 60004 T00390033 58011=
201102120153 METAR KBLI 120153Z 04003KT 10SM -RA BKN048 OVC070 04/03 A3006 RMK AO2 RAB10 SLP189 P0001 T00440033=
201102120053 METAR KBLI 120053Z 00000KT 10SM OVC090 04/03 A3007 RMK AO2 SLP190 T00440033=
201102112353 METAR KBLI 112353Z 02004KT 10SM BKN100 BKN120 04/03 A3008 RMK AO2 SLP194 60002 T00440033 10044 20028 58003=
201102112253 METAR KBLI 112253Z 00000KT 9SM SCT049 OVC070 04/03 A3010 RMK AO2 RAE45 SLP203 P0000 T00440033=
201102112153 METAR KBLI 112153Z 00000KT 9SM -RA OVC039 04/03 A3010 RMK AO2 SLP202 P0000 T00440028=
201102112053 METAR KBLI 112053Z 02005KT 8SM -RA OVC045 04/03 A3009 RMK AO2 SLP197 P0001 60002 T00390028 58015=
201102111953 METAR KBLI 111953Z 34004KT 7SM -RA OVC036 03/02 A3011 RMK AO2 SLP206 P0000 T00330022=
201102111853 METAR KBLI 111853Z 01006KT 6SM -RA BR OVC034 03/02 A3012 RMK AO2 SLP208 P0001 T00330017=
201102111753 METAR KBLI 111753Z 36003KT 10SM -RA OVC046 03/01 A3013 RMK AO2 UPB32E38RAB38 SLP211 P0000 60000 T00280006 10028 20006 53004=
201102111653 METAR KBLI 111653Z 00000KT 10SM BKN055 OVC070 02/01 A3012 RMK AO2 SLP208 T00220006=
201102111553 METAR KBLI 111553Z 00000KT 10SM FEW065 BKN090 BKN110 01/00 A3011 RMK AO2 SLP207 T00110000=
201102111453 METAR KBLI 111453Z AUTO 00000KT 10SM CLR 01/M01 A3011 RMK AO2 SLP208 T00061006 56017=
201102111353 METAR KBLI 111353Z AUTO 00000KT 10SM FEW110 01/M01 A3013 RMK AO2 SLP213 T00111006=
201102111253 METAR KBLI 111253Z AUTO 07004KT 10SM CLR 01/M01 A3014 RMK AO2 SLP215 T00111006=
201102111153 METAR KBLI 111153Z AUTO 28004KT 10SM CLR 01/M01 A3017 RMK AO2 SLP224 T00111011 10017 20000 58017=
201102111053 METAR KBLI 111053Z AUTO 00000KT 10SM FEW110 01/M01 A3020 RMK AO2 SLP235 T00111006=
201102110953 METAR KBLI 110953Z AUTO 00000KT 10SM SCT120 01/M01 A3019 RMK AO2 SLP234 T00111011=
201102110853 METAR KBLI 110853Z AUTO 35003KT 9SM BKN120 01/M01 A3022 RMK AO2 SLP241 T00061011 58014=
201102110753 METAR KBLI 110753Z AUTO 36003KT 9SM CLR 01/M02 A3024 RMK AO2 SLP248 T00061017 400831028=
201102110653 METAR KBLI 110653Z AUTO 35003KT 9SM CLR 01/M02 A3025 RMK AO2 SLP252 T00061017=
201102110553 METAR KBLI 110553Z 35004KT 9SM CLR 01/M01 A3026 RMK AO2 SLP255 T00111011 10078 20000 55004=
201102110453 METAR KBLI 110453Z 00000KT 10SM CLR 01/M02 A3025 RMK AO2 SLP254 T00061017=
201102110353 METAR KBLI 110353Z 00000KT 10SM CLR 01/M01 A3026 RMK AO2 SLP256 T00061011=
201102110253 METAR KBLI 110253Z 00000KT 10SM CLR 02/M01 A3027 RMK AO2 SLP260 T00171011 56015=
201102110153 METAR KBLI 110153Z 00000KT 10SM CLR 02/M01 A3028 RMK AO2 SLP265 T00221011=
201102110053 METAR KBLI 110053Z 03004KT 10SM CLR 06/M01 A3030 RMK AO2 SLP268 T00561011=
201102102353 METAR KBLI 102353Z 02003KT 10SM CLR 08/M01 A3031 RMK AO2 SLP274 T00781011 10083 20022 56014=
201102102253 METAR KBLI 102253Z 00000KT 10SM CLR 08/M01 A3032 RMK AO2 SLP276 T00781011=
201102102153 METAR KBLI 102153Z 03004KT 10SM CLR 07/M01 A3034 RMK AO2 SLP282 T00721011=
201102102053 METAR KBLI 102053Z 36004KT 10SM CLR 07/M01 A3035 RMK AO2 SLP287 T00671011 58015=
201102101953 METAR KBLI 101953Z 00000KT 10SM CLR 06/M01 A3037 RMK AO2 SLP293 T00561006=
201102101853 METAR KBLI 101853Z 01003KT 10SM CLR 03/M01 A3038 RMK AO2 SLP298 T00331006=
201102101753 METAR KBLI 101753Z 00000KT 10SM CLR 02/M01 A3040 RMK AO2 SLP303 T00221011 10022 21022 58003=
201102101653 METAR KBLI 101653Z 00000KT 10SM CLR 01/M02 A3040 RMK AO2 SLP304 T00061017=
201102101553 METAR KBLI 101553Z 03003KT 10SM BKN050 M01/M02 A3041 RMK AO2 SLP307 T10061022=
201102101453 METAR KBLI 101453Z AUTO 35004KT 8SM BKN037 OVC049 M01/M02 A3041 RMK AO2 SLP306 T10111022 55005=
201102101353 METAR KBLI 101353Z AUTO 00000KT 8SM OVC049 M01/M02 A3040 RMK AO2 SLP304 T10111022=
201102101253 METAR KBLI 101253Z AUTO 00000KT 8SM OVC037 M01/M02 A3041 RMK AO2 SLP308 T10111022=
201102101153 METAR KBLI 101153Z AUTO 00000KT 7SM OVC037 M02/M03 A3042 RMK AO2 SLP311 T10221033 11006 21028 56012=
201102101053 METAR KBLI 101053Z AUTO 00000KT 6SM BR SCT037 M03/M04 A3043 RMK AO2 SLP315 T10281039=
201102100953 METAR KBLI 100953Z AUTO 00000KT 7SM CLR M02/M03 A3044 RMK AO2 SLP318 T10221033=
201102100853 METAR KBLI 100853Z AUTO 00000KT 7SM CLR M02/M03 A3046 RMK AO2 SLP323 T10171033 56009=
201102100753 METAR KBLI 100753Z AUTO 00000KT 8SM CLR M02/M03 A3046 RMK AO2 SLP325 T10171033 400671039=
201102100653 METAR KBLI 100653Z AUTO 00000KT 9SM CLR M01/M03 A3048 RMK AO2 SLP329 T10111028=
201102100553 METAR KBLI 100553Z 00000KT 10SM BKN110 M01/M02 A3048 RMK AO2 SLP333 T10061022 10056 21011 56005=
201102100453 METAR KBLI 100453Z 00000KT 10SM OVC110 00/M03 A3048 RMK AO2 SLP333 T00001028=
201102100353 METAR KBLI 100353Z 00000KT 10SM CLR M01/M03 A3048 RMK AO2 SLP332 T10061028=
201102100253 METAR KBLI 100253Z 00000KT 10SM CLR 01/M03 A3050 RMK AO2 SLP338 T00061028 58007=
201102100153 METAR KBLI 100153Z 27003KT 10SM BKN110 01/M03 A3051 RMK AO2 SLP341 T00111028=
201102100053 METAR KBLI 100053Z 00000KT 10SM CLR 04/M03 A3051 RMK AO2 SLP343 T00391028=
201102092353 METAR KBLI 092353Z 00000KT 10SM CLR 06/M03 A3052 RMK AO2 SLP344 T00561033 10067 20017 58012=
201102092253 METAR KBLI 092253Z 00000KT 10SM CLR 06/M03 A3053 RMK AO2 SLP348 T00611033=
201102092153 METAR KBLI 092153Z 31003KT 10SM CLR 06/M03 A3054 RMK AO2 SLP353 T00561033=
201102092053 METAR KBLI 092053Z 32004KT 10SM CLR 06/M03 A3055 RMK AO2 SLP356 T00561033 58011=
201102091953 METAR KBLI 091953Z 00000KT 10SM CLR 05/M03 A3057 RMK AO2 SLP360 T00501028=
201102091853 METAR KBLI 091853Z 00000KT 10SM CLR 04/M03 A3058 RMK AO2 SLP365 T00391033=
201102091753 METAR KBLI 091753Z 02004KT 10SM CLR 02/M03 A3059 RMK AO2 SLP367 T00171028 10017 21039 53007=
201102091653 METAR KBLI 091653Z 35004KT 10SM CLR M01/M03 A3058 RMK AO2 SLP365 T10061033=
201102091553 METAR KBLI 091553Z 00000KT 10SM CLR M02/M04 A3056 RMK AO2 SLP359 T10171039=
201102091453 METAR KBLI 091453Z AUTO 00000KT 10SM OVC036 M02/M04 A3057 RMK AO2 SLP361 T10171039 55000=
201102091353 METAR KBLI 091353Z AUTO 00000KT 10SM OVC034 M03/M04 A3056 RMK AO2 SLP359 T10281044=
201102091253 METAR KBLI 091253Z AUTO 00000KT 10SM CLR M03/M05 A3056 RMK AO2 SLP360 T10281050=
201102091153 METAR KBLI 091153Z AUTO 00000KT 10SM FEW090 M02/M05 A3057 RMK AO2 SLP360 T10221050 10011 21028 50001=
201102091053 METAR KBLI 091053Z AUTO 02003KT 10SM CLR M02/M05 A3057 RMK AO2 SLP361 T10221050=
201102090953 METAR KBLI 090953Z AUTO 35004KT 10SM FEW032 M02/M05 A3057 RMK AO2 SLP362 T10171050=
201102090853 METAR KBLI 090853Z AUTO 35003KT 10SM CLR M02/M05 A3056 RMK AO2 SLP359 T10171050 53004=
201102090753 METAR KBLI 090753Z AUTO 00000KT 10SM CLR 00/M06 A3056 RMK AO2 SLP357 T00001056 400611006=
201102090653 METAR KBLI 090653Z AUTO 34003KT 10SM CLR 00/M06 A3055 RMK AO2 SLP355 T00001056=
201102090553 METAR KBLI 090553Z 01005KT 10SM CLR 01/M06 A3055 RMK AO2 SLP355 T00111061 10044 20011 51012=
201102090453 METAR KBLI 090453Z 02009KT 10SM CLR 02/M06 A3054 RMK AO2 SLP352 T00171061=
201102090353 METAR KBLI 090353Z 01009KT 10SM CLR 02/M06 A3053 RMK AO2 SLP348 T00171061=
201102090253 METAR KBLI 090253Z 35005KT 10SM CLR 02/M07 A3051 RMK AO2 SLP343 T00221072 53000=
201102090153 METAR KBLI 090153Z 03007KT 10SM CLR 03/M07 A3050 RMK AO2 SLP338 T00281067=
201102090053 METAR KBLI 090053Z 01008KT 10SM CLR 03/M06 A3052 RMK AO2 SLP344 T00331061=
201102082353 METAR KBLI 082353Z 02009KT 10SM CLR 05/M07 A3051 RMK AO2 SLP342 T00501067 10061 20039 53010=
201102082253 METAR KBLI 082253Z 04013G21KT 10SM CLR 06/M07 A3049 RMK AO2 SLP335 T00561067=
201102082153 METAR KBLI 082153Z 02015G25KT 10SM CLR 06/M07 A3048 RMK AO2 PK WND 04026/2134 SLP331 T00561067=
201102082053 METAR KBLI 082053Z 02013G26KT 10SM SCT090 05/M07 A3048 RMK AO2 PK WND 03029/2015 SLP332 T00501072 51014=
201102081953 METAR KBLI 081953Z 02016G25KT 10SM OVC090 04/M07 A3048 RMK AO2 PK WND 03027/1911 SLP330 T00441072=
201102081853 METAR KBLI 081853Z 01019G28KT 10SM OVC090 04/M07 A3047 RMK AO2 PK WND 03032/1804 SLP327 T00391067=
201102081753 METAR KBLI 081753Z 02015G28KT 10SM OVC085 04/M07 A3044 RMK AO2 PK WND 03037/1727 SLP318 T00391067 10044 20022 53028=
201102081653 METAR KBLI 081653Z 02020G29KT 10SM OVC070 04/M06 A3041 RMK AO2 PK WND 03029/1653 SLP308 T00391056=
201102081553 METAR KBLI 081553Z 02014G24KT 10SM OVC100 04/M05 A3039 RMK AO2 SLP299 T00391050=
201102081453 METAR KBLI 081453Z 02011KT 10SM OVC075 04/M03 A3036 RMK AO2 SLP289 T00391033 51012=
201102081353 METAR KBLI 081353Z AUTO 36008KT 10SM OVC070 04/M03 A3035 RMK AO2 SLP286 T00391028=
201102081253 METAR KBLI 081253Z AUTO 36004KT 10SM FEW060 OVC095 02/01 A3034 RMK AO2 SLP282 T00220011=
201102081153 METAR KBLI 081153Z AUTO 00000KT 10SM FEW021 OVC031 03/02 A3032 RMK AO2 SLP277 60000 70001 T00330017 10061 20022 51014=
201102081140 SPECI KBLI 081140Z AUTO 00000KT 10SM FEW021 BKN027 OVC095 03/02 A3032 RMK AO2=
201102081140 SPECI KBLI 081140Z AUTO 00000KT 10SM FEW021 BKN027 OVC095 03/02 A3032 RMK AO2=
201102081053 METAR KBLI 081053Z AUTO 05003KT 10SM FEW060 SCT095 OVC120 03/02 A3031 RMK AO2 RAB00E17 SLP272 P0000 T00330017=
201102080953 METAR KBLI 080953Z AUTO 03004KT 10SM BKN034 OVC043 05/02 A3030 RMK AO2 SLP269 T00500022=
201102080853 METAR KBLI 080853Z AUTO 09005KT 10SM OVC060 06/03 A3028 RMK AO2 SLP263 T00560028 53011=
201102080753 METAR KBLI 080753Z AUTO 10005KT 10SM OVC055 06/03 A3027 RMK AO2 SLP258 T00560028 400890044=
201102080653 METAR KBLI 080653Z AUTO 14005KT 10SM OVC060 05/02 A3025 RMK AO2 SLP253 T00500017=
201102080553 METAR KBLI 080553Z 00000KT 10SM OVC060 06/02 A3025 RMK AO2 SLP251 T00610017 10083 20050 53011=
201102080453 METAR KBLI 080453Z 00000KT 10SM OVC060 05/02 A3024 RMK AO2 SLP247 T00500017=
201102080353 METAR KBLI 080353Z 00000KT 10SM BKN060 06/01 A3022 RMK AO2 SLP241 T00610011=
201102080253 METAR KBLI 080253Z 26005KT 10SM OVC049 07/02 A3022 RMK AO2 SLP240 T00670017 53007=
201102080153 METAR KBLI 080153Z VRB03KT 10SM OVC049 07/02 A3020 RMK AO2 SLP236 T00720017=
201102080053 METAR KBLI 080053Z VRB05KT 10SM BKN049 08/01 A3020 RMK AO2 SLP235 T00780011=
201102072353 METAR KBLI 072353Z 27010G18KT 10SM CLR 08/01 A3020 RMK AO2 SLP233 60000 T00830006 10089 20067 55001=
201102072253 METAR KBLI 072253Z 27009G24KT 220V300 10SM CLR 08/00 A3019 RMK AO2 PK WND 30027/2221 SLP231 T00830000=
201102072153 METAR KBLI 072153Z 27010G20KT 240V300 10SM CLR 08/01 A3019 RMK AO2 SLP231 T00830006=
201102072053 METAR KBLI 072053Z 27013G21KT 10SM FEW037 SCT075 09/01 A3020 RMK AO2 SLP234 60000 T00890006 50008=
201102071953 METAR KBLI 071953Z 28012G20KT 220V310 10SM CLR 08/01 A3020 RMK AO2 SLP235 T00830011=
201102071853 METAR KBLI 071853Z VRB05KT 10SM SCT030 SCT050 07/04 A3019 RMK AO2 RAB04E34 SLP232 P0000 T00720044=
201102071753 METAR KBLI 071753Z VRB03KT 10SM SCT033 OVC055 07/04 A3018 RMK AO2 RAE05 SLP226 P0000 60001 T00720039 10083 20067 52015=
201102071653 METAR KBLI 071653Z VRB03KT 6SM -RA FEW017 OVC031 07/03 A3016 RMK AO2 RAB39 SLP221 P0001 T00670033=
201102071633 SPECI KBLI 071633Z 27005KT 10SM OVC031 07/03 A3015 RMK AO2=
201102071633 SPECI KBLI 071633Z 27005KT 10SM OVC031 07/03 A3015 RMK AO2=
201102071553 METAR KBLI 071553Z 25004KT 10SM OVC029 07/03 A3014 RMK AO2 SLP216 T00720033=
201102071453 METAR KBLI 071453Z 21004KT 10SM SCT100 08/02 A3013 RMK AO2 SLP211 T00780022 53008=
201102071353 METAR KBLI 071353Z AUTO 20005KT 10SM SCT120 08/03 A3011 RMK AO2 SLP205 T00780028=
201102071253 METAR KBLI 071253Z AUTO 17006KT 10SM SCT065 BKN085 07/03 A3011 RMK AO2 SLP205 T00720033=
201102071153 METAR KBLI 071153Z AUTO 18006KT 10SM FEW110 08/02 A3011 RMK AO2 SLP203 70028 T00830022 10089 20067 53007=
201102071053 METAR KBLI 071053Z AUTO 19006KT 10SM CLR 08/03 A3010 RMK AO2 SLP200 T00830028=
201102070953 METAR KBLI 070953Z AUTO 17007KT 10SM CLR 07/04 A3008 RMK AO2 SLP195 T00720039=
201102070853 METAR KBLI 070853Z AUTO 19004KT 10SM CLR 08/04 A3008 RMK AO2 SLP195 T00830039 51007=
201102070753 METAR KBLI 070753Z AUTO VRB05KT 10SM CLR 09/04 A3008 RMK AO2 SLP195 T00890039 400890050=
201102070653 METAR KBLI 070653Z AUTO 19008G14KT 10SM OVC095 09/05 A3007 RMK AO2 SLP191 T00890050=
201102070629 SPECI KBLI 070629Z AUTO 19009G21KT 10SM SCT019 BKN070 OVC085 09/06 A3007 RMK AO2=
201102070629 SPECI KBLI 070629Z AUTO 19009G21KT 10SM SCT019 BKN070 OVC085 09/06 A3007 RMK AO2=
201102070600 SPECI KBLI 070600Z 19009G21KT 10SM FEW010 BKN019 OVC026 09/06 A3007 RMK AO2 PRESRR=
201102070600 SPECI KBLI 070600Z 19009G21KT 10SM FEW010 BKN019 OVC026 09/06 A3007 RMK AO2 PRESRR=
201102070553 METAR KBLI 070553Z 19014G27KT 170V230 10SM BKN005 BKN010 OVC022 08/07 A3006 RMK AO2 PK WND 17028/0507 SLP188 60012 T00830067 10089 20078 58012=
201102070531 SPECI KBLI 070531Z 16018G26KT 10SM BKN005 BKN010 OVC022 08/07 A3004 RMK AO2 PK WND 17028/0507 CIG 002V009=
201102070531 SPECI KBLI 070531Z 16018G26KT 10SM BKN005 BKN010 OVC022 08/07 A3004 RMK AO2 PK WND 17028/0507 CIG 002V009=
201102070453 METAR KBLI 070453Z 16018G24KT 10SM BKN003 OVC006 08/08 A3007 RMK AO2 RAE30 PRESFR SLP189 P0001 T00830078=
201102070428 SPECI KBLI 070428Z 17012G18KT 3SM -RA BR BKN003 BKN022 OVC035 08/08 A3010 RMK AO2 P0001=
201102070428 SPECI KBLI 070428Z 17012G18KT 3SM -RA BR BKN003 BKN022 OVC035 08/08 A3010 RMK AO2 P0001=
201102070405 SPECI KBLI 070405Z 17011KT 3SM -RA BR FEW008 OVC033 08/08 A3011 RMK AO2 P0000=
201102070405 SPECI KBLI 070405Z 17011KT 3SM -RA BR FEW008 OVC033 08/08 A3011 RMK AO2 P0000=
201102070353 METAR KBLI 070353Z 16009KT 3SM -RA BR SCT008 BKN026 OVC035 09/08 A3010 RMK AO2 RAB13 SLP202 P0003 T00890078=
201102070347 SPECI KBLI 070347Z 16010KT 2 1/2SM -RA BR SCT008 BKN026 OVC042 09/08 A3010 RMK AO2 RAB13 P0003=
201102070347 SPECI KBLI 070347Z 16010KT 2 1/2SM -RA BR SCT008 BKN026 OVC042 09/08 A3010 RMK AO2 RAB13 P0003=
201102070337 SPECI KBLI 070337Z 19005KT 4SM -RA BR FEW003 BKN008 OVC042 08/08 A3011 RMK AO2 RAB13 P0001=
201102070337 SPECI KBLI 070337Z 19005KT 4SM -RA BR FEW003 BKN008 OVC042 08/08 A3011 RMK AO2 RAB13 P0001=
201102070325 SPECI KBLI 070325Z 17008KT 6SM -RA BR FEW003 BKN018 OVC042 08/08 A3009 RMK AO2 RAB13 P0001=
201102070325 SPECI KBLI 070325Z 17008KT 6SM -RA BR FEW003 BKN018 OVC042 08/08 A3009 RMK AO2 RAB13 P0001=
201102070253 METAR KBLI 070253Z 16009KT 6SM BR OVC003 08/07 A3010 RMK AO2 RAE21 SLP200 P0001 60008 T00780072 58023=
201102070235 SPECI KBLI 070235Z 18006KT 6SM BR BKN003 BKN006 OVC025 08/07 A3012 RMK AO2 RAE21 P0001=
201102070235 SPECI KBLI 070235Z 18006KT 6SM BR BKN003 BKN006 OVC025 08/07 A3012 RMK AO2 RAE21 P0001=
201102070214 SPECI KBLI 070214Z 17007KT 4SM -RA BR FEW003 BKN014 OVC023 08/07 A3012 RMK AO2 P0001=
201102070214 SPECI KBLI 070214Z 17007KT 4SM -RA BR FEW003 BKN014 OVC023 08/07 A3012 RMK AO2 P0001=
201102070205 SPECI KBLI 070205Z 17008KT 2SM -RA BR SCT001 BKN014 OVC021 08/07 A3012 RMK AO2 P0001=
201102070205 SPECI KBLI 070205Z 17008KT 2SM -RA BR SCT001 BKN014 OVC021 08/07 A3012 RMK AO2 P0001=
201102070200 SPECI KBLI 070200Z 17008G14KT 2SM -RA BR BKN001 BKN007 OVC021 08/07 A3013 RMK AO2 P0001=
201102070200 SPECI KBLI 070200Z 17008G14KT 2SM -RA BR BKN001 BKN007 OVC021 08/07 A3013 RMK AO2 P0001=
201102070153 METAR KBLI 070153Z 21006KT 1SM R16/P6000FT -RA BR BKN001 BKN007 OVC021 08/07 A3013 RMK AO2 SLP210 P0003 T00780072=
201102070133 SPECI KBLI 070133Z 22006KT 1/2SM R16/5500VP6000FT -RA FG BKN001 OVC007 08/07 A3014 RMK AO2 P0003=
201102070133 SPECI KBLI 070133Z 22006KT 1/2SM R16/5500VP6000FT -RA FG BKN001 OVC007 08/07 A3014 RMK AO2 P0003=
201102070115 SPECI KBLI 070115Z 15009KT 3/4SM R16/3500VP6000FT -RA BR BKN001 OVC005 08/07 A3011 RMK AO2 PRESFR P0002=
201102070115 SPECI KBLI 070115Z 15009KT 3/4SM R16/3500VP6000FT -RA BR BKN001 OVC005 08/07 A3011 RMK AO2 PRESFR P0002=
201102070053 METAR KBLI 070053Z 20007KT 1SM R16/5500VP6000FT RA BR BKN003 OVC012 08/07 A3018 RMK AO2 RAB00 SLP227 P0004 T00780072=
201102070047 SPECI KBLI 070047Z 23005KT 1SM R16/P6000FT -RA BR BKN003 OVC012 08/07 A3018 RMK AO2 RAB00 CIG 002V007 P0001=
201102070047 SPECI KBLI 070047Z 23005KT 1SM R16/P6000FT -RA BR BKN003 OVC012 08/07 A3018 RMK AO2 RAB00 CIG 002V007 P0001=
201102070041 SPECI KBLI 070041Z VRB04KT 2SM -RA BR FEW003 OVC012 08/08 A3017 RMK AO2 RAB00 P0001=
201102070041 SPECI KBLI 070041Z VRB04KT 2SM -RA BR FEW003 OVC012 08/08 A3017 RMK AO2 RAB00 P0001=
201102070037 SPECI KBLI 070037Z 24003KT 1 3/4SM -RA BR OVC012 08/08 A3017 RMK AO2 RAB00 P0001=
201102070037 SPECI KBLI 070037Z 24003KT 1 3/4SM -RA BR OVC012 08/08 A3017 RMK AO2 RAB00 P0001=
201102062353 METAR KBLI 062353Z 16006KT 10SM OVC012 08/07 A3017 RMK AO2 SLP223 60003 T00830072 10083 20056 56034=
201102062300 SPECI KBLI 062300Z 01003KT 3SM BR BKN012 OVC021 07/06 A3019 RMK AO2=
201102062300 SPECI KBLI 062300Z 01003KT 3SM BR BKN012 OVC021 07/06 A3019 RMK AO2=
201102062253 METAR KBLI 062253Z 00000KT 1 1/2SM BR BKN002 OVC007 07/06 A3019 RMK AO2 SLP232 T00670061=
201102062153 METAR KBLI 062153Z 02003KT 1 3/4SM BR OVC002 06/06 A3024 RMK AO2 RAE2057B31E41 SLP247 P0000 T00610056=
201102062053 METAR KBLI 062053Z 00000KT 1 3/4SM -RA BR OVC002 06/06 A3027 RMK AO2 RAB30 SLP258 P0001 60003 T00610056 58027=
201102061953 METAR KBLI 061953Z 02003KT 1 1/4SM BR OVC004 06/05 A3030 RMK AO2 RAB06E35 CIG 002V006 SLP271 P0001 T00560050=
201102061853 METAR KBLI 061853Z 01003KT 1 3/4SM BR OVC002 06/05 A3032 RMK AO2 RAE24 SLP277 P0001 T00560050=
201102061753 METAR KBLI 061753Z 02005KT 1 1/4SM -RA BR BKN002 OVC015 06/04 A3035 RMK AO2 SLP285 P0002 60013 T00560044 10056 20050 56004=
201102061738 SPECI KBLI 061738Z 03005KT 1SM R16/P6000FT -RA BR BKN002 OVC015 06/04 A3035 RMK AO2 P0001=
201102061738 SPECI KBLI 061738Z 03005KT 1SM R16/P6000FT -RA BR BKN002 OVC015 06/04 A3035 RMK AO2 P0001=
201102061719 SPECI KBLI 061719Z 02004KT 1SM R16/P6000FT -RA BR SCT002 OVC022 06/04 A3035 RMK AO2 P0001=
201102061719 SPECI KBLI 061719Z 02004KT 1SM R16/P6000FT -RA BR SCT002 OVC022 06/04 A3035 RMK AO2 P0001=
201102061709 SPECI KBLI 061709Z 02003KT 3/4SM R16/P6000FT -RA BR SCT002 OVC022 05/04 A3035 RMK AO2 P0000=
201102061709 SPECI KBLI 061709Z 02003KT 3/4SM R16/P6000FT -RA BR SCT002 OVC022 05/04 A3035 RMK AO2 P0000=
201102061653 METAR KBLI 061653Z 02004KT 1SM R16/P6000FT -RA BR SCT002 OVC022 05/04 A3035 RMK AO2 SLP286 P0002 T00500044=
201102061635 SPECI KBLI 061635Z 02004KT 1 1/2SM -RA BR SCT002 OVC022 05/04 A3035 RMK AO2 P0001=
201102061635 SPECI KBLI 061635Z 02004KT 1 1/2SM -RA BR SCT002 OVC022 05/04 A3035 RMK AO2 P0001=
201102061600 SPECI KBLI 061600Z 02003KT 2 1/2SM -RA BR SCT002 BKN026 OVC034 05/04 A3035 RMK AO2 P0000=
201102061600 SPECI KBLI 061600Z 02003KT 2 1/2SM -RA BR SCT002 BKN026 OVC034 05/04 A3035 RMK AO2 P0000=
201102061553 METAR KBLI 061553Z 02004KT 2 1/2SM -RA BR SCT002 OVC034 05/04 A3035 RMK AO2 SLP285 P0003 T00500044=
201102061540 SPECI KBLI 061540Z 02004KT 2 1/2SM -RA BR SCT002 OVC034 05/04 A3035 RMK AO2 P0002=
201102061540 SPECI KBLI 061540Z 02004KT 2 1/2SM -RA BR SCT002 OVC034 05/04 A3035 RMK AO2 P0002=
201102061530 SPECI KBLI 061530Z 03003KT 3SM -RA BR FEW002 BKN034 OVC043 05/04 A3035 RMK AO2 P0002=
201102061530 SPECI KBLI 061530Z 03003KT 3SM -RA BR FEW002 BKN034 OVC043 05/04 A3035 RMK AO2 P0002=
201102061453 METAR KBLI 061453Z 00000KT 5SM -RA BR OVC048 05/04 A3036 RMK AO2 SLP289 P0001 60006 T00500044 56015=
201102061353 METAR KBLI 061353Z AUTO 00000KT 4SM -RA BR FEW023 OVC050 05/04 A3037 RMK AO2 SLP291 P0002 T00500044=
201102061317 SPECI KBLI 061317Z AUTO 00000KT 4SM -RA BR SCT024 BKN040 OVC050 05/04 A3038 RMK AO2 P0001=
201102061317 SPECI KBLI 061317Z AUTO 00000KT 4SM -RA BR SCT024 BKN040 OVC050 05/04 A3038 RMK AO2 P0001=
201102061307 SPECI KBLI 061307Z AUTO 00000KT 2 1/2SM -RA BR BKN024 BKN030 OVC050 05/04 A3039 RMK AO2 P0000=
201102061307 SPECI KBLI 061307Z AUTO 00000KT 2 1/2SM -RA BR BKN024 BKN030 OVC050 05/04 A3039 RMK AO2 P0000=
201102061256 SPECI KBLI 061256Z AUTO 00000KT 3SM -RA BR BKN024 OVC032 05/04 A3039 RMK AO2 P0000=
201102061256 SPECI KBLI 061256Z AUTO 00000KT 3SM -RA BR BKN024 OVC032 05/04 A3039 RMK AO2 P0000=
201102061253 METAR KBLI 061253Z AUTO 00000KT 1 3/4SM -RA BR BKN024 OVC030 05/04 A3039 RMK AO2 SLP300 P0003 T00500044=
201102061242 SPECI KBLI 061242Z AUTO 00000KT 1 1/2SM -RA BR BKN024 BKN030 OVC055 05/04 A3040 RMK AO2 P0003=
201102061242 SPECI KBLI 061242Z AUTO 00000KT 1 1/2SM -RA BR BKN024 BKN030 OVC055 05/04 A3040 RMK AO2 P0003=
201102061231 SPECI KBLI 061231Z AUTO 00000KT 2 1/2SM -RA BR FEW024 BKN032 OVC055 05/04 A3040 RMK AO2 P0002=
201102061231 SPECI KBLI 061231Z AUTO 00000KT 2 1/2SM -RA BR FEW024 BKN032 OVC055 05/04 A3040 RMK AO2 P0002=
201102061153 METAR KBLI 061153Z AUTO 00000KT 3SM -RA BR FEW008 OVC030 05/04 A3040 RMK AO2 SLP303 P0001 60002 70002 T00500044 10072 20050 57006=
201102061134 SPECI KBLI 061134Z AUTO 00000KT 4SM -RA BR SCT008 BKN031 OVC040 05/04 A3040 RMK AO2 P0000=
201102061134 SPECI KBLI 061134Z AUTO 00000KT 4SM -RA BR SCT008 BKN031 OVC040 05/04 A3040 RMK AO2 P0000=
201102061108 SPECI KBLI 061108Z AUTO 00000KT 4SM -RA BR BKN006 BKN039 OVC060 05/04 A3040 RMK AO2 P0000=
201102061108 SPECI KBLI 061108Z AUTO 00000KT 4SM -RA BR BKN006 BKN039 OVC060 05/04 A3040 RMK AO2 P0000=
201102061053 METAR KBLI 061053Z AUTO 00000KT 5SM -RA BR FEW006 BKN049 OVC075 05/04 A3040 RMK AO2 RAB14 SLP303 P0001 T00500044=
201102060953 METAR KBLI 060953Z AUTO 00000KT 6SM BR OVC055 06/04 A3042 RMK AO2 RAE49 SLP309 P0000 T00560044=
201102060853 METAR KBLI 060853Z AUTO 00000KT 8SM -RA BKN060 OVC080 06/04 A3042 RMK AO2 RAB0757E09B34 SLP309 P0000 60000 T00560044 56003=
201102060753 METAR KBLI 060753Z 00000KT 10SM FEW040 SCT047 OVC070 06/05 A3042 RMK AO2 RAB16E52 SLP310 P0000 T00560050 400830050=
201102060653 METAR KBLI 060653Z 00000KT 10SM FEW035 BKN060 OVC070 06/04 A3042 RMK AO2 SLP310 T00610044=
201102060553 METAR KBLI 060553Z 00000KT 10SM OVC035 07/04 A3043 RMK AO2 SLP312 T00720039 10083 20072 53001=
201102060453 METAR KBLI 060453Z 15004KT 10SM BKN044 OVC075 07/03 A3043 RMK AO2 SLP311 T00720033=
201102060353 METAR KBLI 060353Z 18005KT 10SM OVC085 07/04 A3042 RMK AO2 SLP309 T00720039=
201102060253 METAR KBLI 060253Z 16006KT 10SM OVC042 07/04 A3042 RMK AO2 SLP311 T00720044 58001=
201102060153 METAR KBLI 060153Z 17007KT 10SM FEW040 OVC090 08/05 A3043 RMK AO2 SLP314 T00780050=
201102060053 METAR KBLI 060053Z 17006KT 10SM FEW080 SCT110 08/04 A3043 RMK AO2 SLP314 T00780044=
201102052353 METAR KBLI 052353Z 17007KT 10SM OVC090 08/04 A3043 RMK AO2 SLP312 T00830044 10083 20072 55004=
201102052253 METAR KBLI 052253Z 17007KT 10SM OVC090 08/04 A3042 RMK AO2 SLP310 T00830044=
201102052153 METAR KBLI 052153Z 17007KT 10SM OVC095 08/04 A3043 RMK AO2 SLP313 T00830044=
201102052053 METAR KBLI 052053Z 16008KT 10SM BKN100 08/04 A3044 RMK AO2 SLP316 T00830044 51001=
201102051953 METAR KBLI 051953Z 16007KT 10SM OVC100 08/04 A3044 RMK AO2 SLP316 T00830039=
201102051853 METAR KBLI 051853Z 16008KT 10SM FEW017 BKN120 08/04 A3044 RMK AO2 SLP317 T00780039=
201102051753 METAR KBLI 051753Z 00000KT 10SM SCT020 OVC032 07/05 A3044 RMK AO2 SLP316 T00720050 10072 20050 51007=
201102051653 METAR KBLI 051653Z 00000KT 10SM FEW022 BKN030 OVC036 07/05 A3043 RMK AO2 SLP314 T00670050=
201102051553 METAR KBLI 051553Z 00000KT 10SM OVC041 06/04 A3043 RMK AO2 SLP312 T00560044=
201102051453 METAR KBLI 051453Z 00000KT 10SM BKN041 06/04 A3042 RMK AO2 SLP309 T00560044 58002=
201102051353 METAR KBLI 051353Z AUTO 19003KT 10SM SCT029 OVC043 07/05 A3043 RMK AO2 SLP312 T00720050=
201102051253 METAR KBLI 051253Z AUTO VRB04KT 10SM OVC043 07/05 A3043 RMK AO2 SLP311 T00720050=
201102051153 METAR KBLI 051153Z AUTO 19005KT 10SM OVC041 07/06 A3042 RMK AO2 SLP311 70029 T00720056 10089 20067 51012=
201102051053 METAR KBLI 051053Z AUTO 17006KT 10SM OVC040 07/05 A3042 RMK AO2 SLP308 T00720050=
201102050953 METAR KBLI 050953Z AUTO 17007KT 10SM BKN042 07/05 A3041 RMK AO2 SLP305 T00720050=
201102050853 METAR KBLI 050853Z AUTO 18005KT 10SM FEW042 08/05 A3039 RMK AO2 SLP299 T00780050 50009=
201102050753 METAR KBLI 050753Z AUTO VRB03KT 10SM FEW047 09/03 A3039 RMK AO2 SLP300 T00890033 401110078=
201102050653 METAR KBLI 050653Z AUTO 25003KT 10SM FEW045 09/04 A3039 RMK AO2 SLP300 T00890044=
201102050553 METAR KBLI 050553Z 17004KT 10SM CLR 09/04 A3036 RMK AO2 SLP289 T00890044 10111 20083 51023=
201102050453 METAR KBLI 050453Z 00000KT 10SM CLR 08/05 A3034 RMK AO2 SLP283 T00830050=
201102050353 METAR KBLI 050353Z 20005KT 10SM FEW032 OVC050 09/05 A3032 RMK AO2 SLP276 T00940050=
201102050253 METAR KBLI 050253Z 18006KT 10SM OVC060 09/06 A3029 RMK AO2 SLP266 T00940056 51016=
201102050153 METAR KBLI 050153Z 16007KT 10SM OVC050 10/06 A3028 RMK AO2 SLP260 T01000061=
201102050053 METAR KBLI 050053Z 17007KT 10SM BKN046 OVC060 11/07 A3026 RMK AO2 SLP255 T01060067=
201102042353 METAR KBLI 042353Z 17010G17KT 10SM OVC050 11/08 A3025 RMK AO2 SLP249 T01110078 10111 20094 55007=
201102042253 METAR KBLI 042253Z 17013G24KT 10SM SCT014 OVC050 11/08 A3023 RMK AO2 SLP243 T01060078=
201102042153 METAR KBLI 042153Z 16018G25KT 10SM BKN015 BKN020 OVC055 10/08 A3023 RMK AO2 SLP246 T01000078=
201102042141 SPECI KBLI 042141Z 16017G25KT 10SM BKN015 OVC022 10/08 A3025 RMK AO2=
201102042141 SPECI KBLI 042141Z 16017G25KT 10SM BKN015 OVC022 10/08 A3025 RMK AO2=
201102042134 SPECI KBLI 042134Z 16015G22KT 10SM FEW007 BKN013 OVC020 09/08 A3025 RMK AO2=
201102042134 SPECI KBLI 042134Z 16015G22KT 10SM FEW007 BKN013 OVC020 09/08 A3025 RMK AO2=
201102042100 SPECI KBLI 042100Z 17014G24KT 10SM BKN017 BKN025 OVC036 10/08 A3027 RMK AO2=
201102042100 SPECI KBLI 042100Z 17014G24KT 10SM BKN017 BKN025 OVC036 10/08 A3027 RMK AO2=
201102042053 METAR KBLI 042053Z 17014G23KT 10SM BKN013 OVC019 10/08 A3027 RMK AO2 PK WND 16026/1954 SLP258 T01000078 55006=
201102041953 METAR KBLI 041953Z 17013G23KT 10SM BKN013 BKN029 OVC090 10/08 A3026 RMK AO2 PK WND 14029/1941 SLP256 T01000078=
201102041853 METAR KBLI 041853Z 18012G24KT 10SM BKN013 BKN029 OVC090 09/07 A3028 RMK AO2 PK WND 14028/1840 SLP262 T00940072=
201102041817 SPECI KBLI 041817Z 16016G24KT 10SM BKN013 BKN029 OVC090 09/07 A3030 RMK AO2=
201102041817 SPECI KBLI 041817Z 16016G24KT 10SM BKN013 BKN029 OVC090 09/07 A3030 RMK AO2=
201102041800 SPECI KBLI 041800Z 17015G25KT 10SM FEW013 BKN035 OVC095 09/07 A3029 RMK AO2=
201102041800 SPECI KBLI 041800Z 17015G25KT 10SM FEW013 BKN035 OVC095 09/07 A3029 RMK AO2=
201102041753 METAR KBLI 041753Z 16017G25KT 10SM BKN015 OVC095 09/07 A3029 RMK AO2 PK WND 17030/1726 RAE1656 SLP264 P0000 60029 T00940072 10094 20089 56022=
201102041653 METAR KBLI 041653Z 15015G22KT 10SM -RA SCT050 OVC100 09/07 A3029 RMK AO2 SLP267 P0003 T00940072=
201102041641 SPECI KBLI 041641Z 16016G22KT 7SM -RA BKN050 BKN060 OVC100 09/07 A3031 RMK AO2 PRESFR P0003=
201102041641 SPECI KBLI 041641Z 16016G22KT 7SM -RA BKN050 BKN060 OVC100 09/07 A3031 RMK AO2 PRESFR P0003=
201102041553 METAR KBLI 041553Z 17018G24KT 4SM -RA BR BKN013 BKN024 OVC042 09/08 A3034 RMK AO2 SLP282 P0014 T00890078=
201102041453 METAR KBLI 041453Z 17016G23KT 3SM RA BR FEW013 BKN030 OVC055 09/08 A3035 RMK AO2 SLP286 P0011 60012 T00890078 56009=
201102041450 SPECI KBLI 041450Z 17015G23KT 4SM RA BR FEW013 BKN032 OVC055 09/08 A3035 RMK AO2 P0010=
201102041450 SPECI KBLI 041450Z 17015G23KT 4SM RA BR FEW013 BKN032 OVC055 09/08 A3035 RMK AO2 P0010=
201102041428 SPECI KBLI 041428Z AUTO 17011G19KT 4SM -RA BR OVC011 09/08 A3036 RMK AO2 P0005=
201102041428 SPECI KBLI 041428Z AUTO 17011G19KT 4SM -RA BR OVC011 09/08 A3036 RMK AO2 P0005=
201102041353 METAR KBLI 041353Z AUTO 17011G21KT 5SM -RA BR OVC009 09/08 A3037 RMK AO2 PK WND 18027/1254 RAB03E15B43 SLP291 P0001 T00940078=
201102041319 SPECI KBLI 041319Z AUTO 17010G23KT 10SM OVC009 09/07 A3037 RMK AO2 PK WND 18027/1254 RAB03E15 P0000=
201102041319 SPECI KBLI 041319Z AUTO 17010G23KT 10SM OVC009 09/07 A3037 RMK AO2 PK WND 18027/1254 RAB03E15 P0000=
201102041253 METAR KBLI 041253Z AUTO 18015G23KT 10SM BKN013 OVC028 09/07 A3038 RMK AO2 SLP295 T00890072=
201102041220 SPECI KBLI 041220Z AUTO 17016G25KT 10SM OVC028 09/08 A3036 RMK AO2=
201102041220 SPECI KBLI 041220Z AUTO 17016G25KT 10SM OVC028 09/08 A3036 RMK AO2=
201102041153 METAR KBLI 041153Z AUTO 18009G17KT 10SM BKN030 OVC039 09/07 A3036 RMK AO2 RAE07 SLP288 P0000 60023 70055 T00890072 10094 20078 58028=
201102041053 METAR KBLI 041053Z AUTO 15007KT 10SM -RA FEW031 BKN080 OVC100 09/07 A3037 RMK AO2 PRESFR SLP291 P0002 T00890072=
201102041029 SPECI KBLI 041029Z AUTO 16011G18KT 10SM -RA FEW003 SCT025 OVC070 08/07 A3040 RMK AO2 P0001=
201102041029 SPECI KBLI 041029Z AUTO 16011G18KT 10SM -RA FEW003 SCT025 OVC070 08/07 A3040 RMK AO2 P0001=
201102041015 SPECI KBLI 041015Z AUTO 15012G17KT 7SM -RA SCT003 BKN027 OVC070 08/08 A3041 RMK AO2 P0001=
201102041015 SPECI KBLI 041015Z AUTO 15012G17KT 7SM -RA SCT003 BKN027 OVC070 08/08 A3041 RMK AO2 P0001=
201102041007 SPECI KBLI 041007Z AUTO 16009KT 7SM BKN003 OVC029 08/07 A3043 RMK AO2 RAE04 P0001=
201102041007 SPECI KBLI 041007Z AUTO 16009KT 7SM BKN003 OVC029 08/07 A3043 RMK AO2 RAE04 P0001=
201102040953 METAR KBLI 040953Z AUTO 16007KT 5SM -RA BR FEW003 BKN029 OVC035 08/07 A3043 RMK AO2 SLP313 P0006 T00830072=
201102040914 SPECI KBLI 040914Z AUTO 18011G16KT 4SM -RA BR SCT006 BKN029 OVC035 08/07 A3045 RMK AO2 P0002=
201102040914 SPECI KBLI 040914Z AUTO 18011G16KT 4SM -RA BR SCT006 BKN029 OVC035 08/07 A3045 RMK AO2 P0002=
201102040904 SPECI KBLI 040904Z AUTO 19007G15KT 5SM -RA BR BKN006 BKN029 OVC034 08/07 A3045 RMK AO2 CIG 003V010 P0001=
201102040904 SPECI KBLI 040904Z AUTO 19007G15KT 5SM -RA BR BKN006 BKN029 OVC034 08/07 A3045 RMK AO2 CIG 003V010 P0001=
201102040853 METAR KBLI 040853Z AUTO 19006KT 4SM -RA BR BKN004 BKN008 OVC022 08/07 A3044 RMK AO2 SLP316 P0011 60015 T00780072 53001=
201102040849 SPECI KBLI 040849Z AUTO 17009KT 3SM -RA BR BKN004 BKN008 OVC022 08/07 A3044 RMK AO2 P0011=
201102040849 SPECI KBLI 040849Z AUTO 17009KT 3SM -RA BR BKN004 BKN008 OVC022 08/07 A3044 RMK AO2 P0011=
201102040837 SPECI KBLI 040837Z AUTO VRB03KT 2SM +RA BR BKN006 OVC022 08/07 A3045 RMK AO2 CIG 003V009 P0008=
201102040837 SPECI KBLI 040837Z AUTO VRB03KT 2SM +RA BR BKN006 OVC022 08/07 A3045 RMK AO2 CIG 003V009 P0008=
201102040834 SPECI KBLI 040834Z AUTO 26004KT 3SM +RA BR SCT006 OVC020 08/07 A3046 RMK AO2 P0006=
201102040834 SPECI KBLI 040834Z AUTO 26004KT 3SM +RA BR SCT006 OVC020 08/07 A3046 RMK AO2 P0006=
201102040805 SPECI KBLI 040805Z AUTO 18008KT 6SM -RA BR BKN020 OVC033 08/07 A3041 RMK AO2 P0002=
201102040805 SPECI KBLI 040805Z AUTO 18008KT 6SM -RA BR BKN020 OVC033 08/07 A3041 RMK AO2 P0002=
201102040753 METAR KBLI 040753Z AUTO 18013KT 10SM -RA SCT020 OVC033 08/07 A3041 RMK AO2 SLP306 P0002 T00830067 400940022=
201102040711 SPECI KBLI 040711Z AUTO 18007KT 9SM -RA OVC031 08/07 A3044 RMK AO2 P0001=
201102040711 SPECI KBLI 040711Z AUTO 18007KT 9SM -RA OVC031 08/07 A3044 RMK AO2 P0001=
201102040653 METAR KBLI 040653Z AUTO 17011G18KT 5SM -RA BR BKN025 OVC030 09/07 A3043 RMK AO2 SLP314 P0002 T00890067=
201102040553 METAR KBLI 040553Z 16006KT 10SM -RA OVC025 09/06 A3044 RMK AO2 RAB51 SLP315 P0000 60000 T00940061 10094 20061 58006=
201102040453 METAR KBLI 040453Z 16009KT 10SM OVC025 09/06 A3044 RMK AO2 SLP317 T00890056=
201102040353 METAR KBLI 040353Z 16009KT 10SM OVC025 08/06 A3046 RMK AO2 SLP322 T00830056=
201102040253 METAR KBLI 040253Z 16008KT 10SM OVC027 08/06 A3045 RMK AO2 SLP322 T00830056 53002=
201102040222 SPECI KBLI 040222Z 17013G20KT 10SM OVC029 09/05 A3045 RMK AO2=
201102040222 SPECI KBLI 040222Z 17013G20KT 10SM OVC029 09/05 A3045 RMK AO2=
201102040153 METAR KBLI 040153Z 17010G18KT 10SM OVC031 09/06 A3045 RMK AO2 SLP318 T00940056=
201102040053 METAR KBLI 040053Z 17005KT 9SM OVC031 08/06 A3045 RMK AO2 SLP320 T00830056=
201102032353 METAR KBLI 032353Z 16006KT 10SM OVC033 08/04 A3045 RMK AO2 RAE16 SLP320 P0001 60027 T00830044 10083 20033 56003=
201102032253 METAR KBLI 032253Z 12003KT 4SM -RA BR OVC035 07/06 A3045 RMK AO2 SLP321 P0008 T00720056=
201102032153 METAR KBLI 032153Z 00000KT 5SM -RA BR OVC037 06/05 A3046 RMK AO2 SLP323 P0007 T00560050=
201102032053 METAR KBLI 032053Z 08003KT 4SM -RA BR OVC041 05/04 A3046 RMK AO2 SLP324 CIG VSBY LWR NW-NE P0005 60011 T00500044 58004=
201102031953 METAR KBLI 031953Z 02004KT 6SM -RA BR OVC045 05/04 A3047 RMK AO2 SLP327 CIG VSBY LWR NW-NE P0004 T00500039=
201102031853 METAR KBLI 031853Z 02004KT 6SM -RA BR OVC043 04/03 A3047 RMK AO2 RAB01 SLP327 P0002 T00390033=
201102031753 METAR KBLI 031753Z 31003KT 6SM BR OVC045 03/03 A3047 RMK AO2 RAE05 SLP328 P0000 60005 T00330028 10033 20022 50005=
201102031653 METAR KBLI 031653Z 01003KT 10SM -RA OVC047 03/02 A3048 RMK AO2 RAB1558 SLP331 P0002 T00280022=
201102031553 METAR KBLI 031553Z 02004KT 8SM OVC045 03/02 A3047 RMK AO2 RAB21E37UPB37E40 SLP327 P0001 T00280017=
201102031453 METAR KBLI 031453Z 00000KT 9SM OVC049 03/02 A3046 RMK AO2 RAE53 SLP323 P0001 60002 T00280017 58004=
201102031353 METAR KBLI 031353Z AUTO 00000KT 7SM -RA FEW040 BKN049 OVC065 03/01 A3047 RMK AO2 RAB14 SLP328 P0001 T00280011=
201102031253 METAR KBLI 031253Z AUTO 02004KT 10SM OVC044 03/01 A3046 RMK AO2 UPB1158E00RAB00E09 SLP325 P0000 T00280011=
201102031153 METAR KBLI 031153Z AUTO 00000KT 10SM SCT046 BKN060 OVC080 03/01 A3047 RMK AO2 RAE50 SLP327 P0000 60000 T00280006 10039 20028 58009=
201102031053 METAR KBLI 031053Z AUTO 00000KT 10SM -RA OVC050 03/M01 A3050 RMK AO2 RAB23E32B53 SLP338 P0000 T00331006=
201102030953 METAR KBLI 030953Z AUTO 00000KT 10SM OVC050 04/M01 A3049 RMK AO2 RAB34E43 SLP334 P0000 T00391006=
201102030853 METAR KBLI 030853Z AUTO 02003KT 10SM OVC050 03/M01 A3050 RMK AO2 SLP336 T00331011 56004=
201102030753 METAR KBLI 030753Z AUTO 02004KT 10SM OVC050 03/M02 A3050 RMK AO2 SLP337 T00331017 400611033=
201102030653 METAR KBLI 030653Z AUTO 00000KT 10SM OVC048 03/M01 A3050 RMK AO2 SLP338 T00331011=
201102030553 METAR KBLI 030553Z 00000KT 10SM OVC050 04/M02 A3051 RMK AO2 SLP340 T00391022 10056 20022 53007=
201102030453 METAR KBLI 030453Z 00000KT 10SM OVC050 03/M03 A3050 RMK AO2 SLP339 T00331028=
201102030353 METAR KBLI 030353Z 00000KT 10SM SCT050 BKN090 03/M03 A3048 RMK AO2 SLP333 T00331028=
201102030253 METAR KBLI 030253Z 00000KT 10SM OVC041 04/M03 A3049 RMK AO2 SLP334 T00441028 58005=
201102030153 METAR KBLI 030153Z 00000KT 10SM SCT047 OVC060 04/M02 A3049 RMK AO2 SLP336 T00441022=
201102030053 METAR KBLI 030053Z 03004KT 10SM OVC047 05/M03 A3050 RMK AO2 SLP337 T00501028=
201102022353 METAR KBLI 022353Z 04003KT 10SM FEW050 BKN060 OVC080 05/M03 A3050 RMK AO2 SLP338 T00501033 10061 20006 58003=
201102022253 METAR KBLI 022253Z 01003KT 10SM BKN044 OVC060 06/M03 A3051 RMK AO2 SLP342 T00561028=
201102022153 METAR KBLI 022153Z 32003KT 10SM OVC050 06/M03 A3051 RMK AO2 SLP340 T00561033=
201102022053 METAR KBLI 022053Z 00000KT 10SM BKN045 OVC070 04/M03 A3051 RMK AO2 SLP342 T00441028 58010=
201102021953 METAR KBLI 021953Z 35003KT 10SM OVC060 04/M02 A3054 RMK AO2 SLP352 T00391022=
201102021853 METAR KBLI 021853Z 03004KT 10SM BKN065 OVC080 02/M03 A3053 RMK AO2 SLP350 T00171028=
201102021753 METAR KBLI 021753Z 01003KT 10SM SCT080 SCT090 01/M04 A3054 RMK AO2 SLP352 T00061039 10006 21033 53012=
201102021653 METAR KBLI 021653Z 00000KT 10SM CLR M01/M04 A3052 RMK AO2 SLP347 T10111039=
201102021553 METAR KBLI 021553Z 35003KT 10SM CLR M03/M06 A3051 RMK AO2 SLP343 T10281056 $=
201102021453 METAR KBLI 021453Z AUTO 00000KT 10SM CLR M03/M06 A3050 RMK AO2 SLP340 T10281056 53001 $=
201102021353 METAR KBLI 021353Z AUTO 35003KT 10SM CLR M02/M05 A3049 RMK AO2 SLP337 T10221050 $=
201102021253 METAR KBLI 021253Z AUTO 00000KT 10SM CLR M02/M05 A3050 RMK AO2 SLP339 T10221050 $=
201102021153 METAR KBLI 021153Z AUTO 00000KT 10SM CLR M02/M06 A3050 RMK AO2 SLP339 T10221056 11011 21028 $=
201102021053 METAR KBLI 021053Z AUTO 35003KT 10SM M02/M06 A3051 RMK AO2 SLP341 T10221056 $=
201102020953 METAR KBLI 020953Z AUTO 00000KT 10SM CLR M01/M06 A3051 RMK AO2 SLP340 T10111061 $=
201102020853 METAR KBLI 020853Z AUTO 02004KT 10SM M02/M06 A3051 RMK AO2 SLP340 T10221061 $=
201102020753 METAR KBLI 020753Z AUTO 01004KT 10SM CLR M02/M06 A3051 RMK AO2 SLP343 T10221061 400501039=
201102020653 METAR KBLI 020653Z AUTO 01004KT 10SM CLR M01/M07 A3052 RMK AO2 SLP345 T10111067=
201102020553 METAR KBLI 020553Z 01004KT 10SM CLR M01/M07 A3052 RMK AO2 SLP345 T10111067 10044 21017 56003=
201102020453 METAR KBLI 020453Z 01006KT 10SM CLR M01/M07 A3052 RMK AO2 SLP346 T10111067=
201102020353 METAR KBLI 020353Z 02004KT 10SM CLR M01/M07 A3052 RMK AO2 SLP346 T10061072=
201102020253 METAR KBLI 020253Z 00000KT 10SM CLR 00/M07 A3053 RMK AO2 SLP348 T00001072 56005=
201102020153 METAR KBLI 020153Z 35004KT 10SM CLR 01/M08 A3053 RMK AO2 SLP349 T00111078=
201102020053 METAR KBLI 020053Z 34004KT 10SM CLR 02/M08 A3054 RMK AO2 SLP351 T00221078=
201102012353 METAR KBLI 012353Z 02005KT 10SM CLR 04/M07 A3054 RMK AO2 SLP354 T00441072 10050 20011 56015=
201102012253 METAR KBLI 012253Z 35005KT 10SM CLR 05/M07 A3056 RMK AO2 SLP356 T00501067=
201102012153 METAR KBLI 012153Z 01003KT 10SM CLR 05/M06 A3057 RMK AO2 SLP361 T00501061=
201102012053 METAR KBLI 012053Z 02004KT 10SM CLR 05/M06 A3059 RMK AO2 SLP367 T00501061 58012=
201102011953 METAR KBLI 011953Z 36004KT 10SM CLR 04/M07 A3062 RMK AO2 SLP378 T00391067=
201102011853 METAR KBLI 011853Z 36005KT 10SM CLR 03/M07 A3062 RMK AO2 SLP379 T00281072=
201102011753 METAR KBLI 011753Z 02005KT 10SM CLR 01/M07 A3062 RMK AO2 SLP380 T00111072 10011 21039 51005=
201102011653 METAR KBLI 011653Z 36003KT 10SM CLR M01/M08 A3062 RMK AO2 SLP380 T10111083=
201102011553 METAR KBLI 011553Z 34003KT 10SM CLR M03/M09 A3062 RMK AO2 SLP378 T10281089=
201102011453 METAR KBLI 011453Z 36004KT 10SM CLR M03/M09 A3061 RMK AO2 SLP375 T10331089 53003=
201102011353 METAR KBLI 011353Z AUTO 35004KT 10SM CLR M03/M09 A3060 RMK AO2 SLP372 T10331089=
201102011253 METAR KBLI 011253Z AUTO 01004KT 10SM CLR M03/M08 A3060 RMK AO2 SLP373 T10331083=
201102011153 METAR KBLI 011153Z AUTO 35004KT 10SM CLR M03/M08 A3060 RMK AO2 SLP373 T10281083 11017 21033 51008=
201102011053 METAR KBLI 011053Z AUTO 34004KT 10SM CLR M02/M09 A3059 RMK AO2 SLP369 T10221089=
201102010953 METAR KBLI 010953Z AUTO 36004KT 10SM CLR M02/M08 A3059 RMK AO2 SLP368 T10221083=
201102010853 METAR KBLI 010853Z AUTO 35003KT 10SM CLR M02/M08 A3057 RMK AO2 SLP364 T10221083 51010=
201102010753 METAR KBLI 010753Z AUTO 35004KT 10SM CLR M02/M09 A3057 RMK AO2 SLP361 T10221089 400331022=
201102010653 METAR KBLI 010653Z AUTO 36004KT 10SM CLR M02/M08 A3056 RMK AO2 SLP358 T10171083=
201102010553 METAR KBLI 010553Z 01005KT 10SM CLR M02/M08 A3054 RMK AO2 SLP354 T10171083 10022 21017 53010=
201102010453 METAR KBLI 010453Z 01005KT 10SM CLR M02/M09 A3053 RMK AO2 SLP348 T10171089=
201102010353 METAR KBLI 010353Z 01006KT 10SM CLR M01/M09 A3052 RMK AO2 SLP345 T10111089=
201102010253 METAR KBLI 010253Z 36007KT 10SM CLR 00/M09 A3052 RMK AO2 SLP344 T00001089 51012=
201102010153 METAR KBLI 010153Z 01008KT 10SM CLR 01/M09 A3050 RMK AO2 SLP339 T00061094=
201102010053 METAR KBLI 010053Z 01008KT 10SM CLR 01/M10 A3050 RMK AO2 SLP338 T00111100=

# No short TAF reports from KBLI in databse.

###################################
#  large TAF from KBLI
###################################
201102282344 TAF KBLI 282344Z 0100/0124 14008KT P6SM SCT030 BKN050 FM011000
                       VRB03KT P6SM SCT050 BKN150 FM011700 04006KT
                       P6SM SCT050 OVC150=
201102281740 TAF KBLI 281740Z 2818/0118 18008KT P6SM SCT015 BKN030 OVC050 FM282100
                       18008KT P6SM SCT030 BKN050 FM011500 VRB03KT
                       P6SM -RA SCT025 OVC040=
201102281602 KBLI 281602Z 2816/0112 18008KT P6SM SCT050 BKN100 FM282000 18008KT
                       P6SM -SHRA OVC040 FM010300 16008KT P6SM
                       VCSH OVC050=
201102281329 KBLI 281329Z 2813/0112 18007G15KT P6SM FEW015 OVC050
                      TEMPO 2813/2817 5SM -RASN BR OVC008 FM282000
                       18006KT P6SM -SHRA OVC040 FM010300 16008KT
                       P6SM VCSH OVC050=
201102281135 TAF KBLI 281135Z 2812/0112 26008KT P6SM -SHRA SCT009 BKN013 OVC026
                       TEMPO 2812/2816 5SM -RASN BR OVC008 FM282000
                       18006KT P6SM -SHRA OVC040 FM010300 16008KT
                       P6SM VCSH OVC050=
201102280520 TAF KBLI 280520Z 2806/0106 16015G22KT P6SM -RA OVC015 FM280900
                       17015G25KT P6SM -SHRA OVC015 FM281600 18010G18KT
                       P6SM VCSH BKN025 BKN030 FM282100 18007KT
                       P6SM -SHRA BKN040=
201102272329 TAF KBLI 272329Z 2800/2824 17020G30KT P6SM -RA BKN015 OVC020 FM280900
                       17015G25KT P6SM -SHRA OVC015 FM281600 18010G18KT
                       P6SM VCSH BKN025 BKN030=
201102271732 TAF KBLI 271732Z 2718/2818 17015G25KT P6SM -RA OVC022 FM280600
                       17015G25KT P6SM -SHRA OVC020 FM281400 18012G18KT
                       P6SM VCSH BKN025 BKN030=
201102271135 TAF KBLI 271135Z 2712/2812 14010KT P6SM SCT017 OVC025
                      TEMPO 2712/2716 3SM -SN OVC016 FM271600 18012G22KT
                       P6SM -RA OVC020 FM280200 16012KT P6SM OVC015
                       TEMPO 2802/2806 P6SM -RA OVC015 FM280600
                       17010KT P6SM -SHRA BKN020 OVC040=
201102270520 TAF KBLI 270520Z 2706/2806 13008KT 5SM -SN SCT015 BKN024 OVC030
                       TEMPO 2706/2710 2SM -SN OVC013 FM271000
                       14008KT 2SM -SN OVC020
                      TEMPO 2710/2714 6SM -RASN FM271400 18012G20KT
                       P6SM -RA OVC020=
201102270015 KBLI 270015Z 2700/2724 15012KT P6SM -SN OVC020
                      TEMPO 2700/2704 2SM -SN BKN015 FM270400 16007KT
                       2SM -SN OVC015
                      TEMPO 2710/2714 -RASN FM271400 18012G20KT
                       P6SM -RA OVC020=
201102262333 TAF KBLI 262333Z 2700/2724 15012KT P6SM -SN OVC020
                      TEMPO 2704/2708 2SM -SN BKN015 FM270800 16007KT
                       P6SM -SN OVC015
                      TEMPO 2710/2714 -RASN FM271400 18012G20KT
                       P6SM -RA OVC020=
201102261732 TAF KBLI 261732Z 2618/2718 15010KT P6SM -SN OVC035 FM270000 16012KT
                       P6SM -SN OVC025 FM270400 18012KT P6SM -SN
                       OVC025
                      TEMPO 2704/2708 -RASN FM270800 16007KT P6SM
                       -RA OVC015=
201102261120 TAF KBLI 261120Z 2612/2712 00000KT P6SM SKC FM261500 18007KT P6SM
                       SCT040 BKN100
                      TEMPO 2620/2624 -SN BKN030 FM270000 16008KT
                       P6SM OVC025
                      TEMPO 2700/2704 -SN FM270400 13007KT P6SM
                       OVC025
                      TEMPO 2704/2708 -SN FM270800 16007KT P6SM
                       -SN OVC015=
201102260520 TAF KBLI 260520Z 2606/2706 02004KT P6SM SKC FM260700 02006KT P6SM
                       SKC FM261200 17003KT P6SM SCT150 FM261500
                       18007KT P6SM SCT040 BKN100
                      TEMPO 2620/2624 -SN BKN030 FM270000 16008KT
                       P6SM OVC025
                      TEMPO 2700/2703 -SN FM270300 13007KT P6SM
                       OVC025
                      TEMPO 2703/2706 -SN=
201102252335 TAF KBLI 252335Z 2600/2624 02020G30KT P6SM SKC FM260400 02012G18KT
                       P6SM SKC FM260700 02006KT P6SM SKC FM261200
                       17003KT P6SM SCT150 FM261500 18007KT P6SM
                       SCT040 BKN100
                      TEMPO 2620/2624 -SN BKN030=
201102251720 TAF KBLI 251720Z 2518/2618 02018G30KT P6SM SKC FM260200 02010KT
                       P6SM SKC FM260600 VRB04KT P6SM SCT050=
201102251207 TAF KBLI 251207Z 2512/2612 04018G32KT P6SM SKC FM251800 02015G22KT
                       P6SM SKC FM260200 02010KT P6SM SKC FM260600
                       VRB04KT P6SM SCT050=
201102250535 TAF KBLI 250535Z 2506/2606 02025G40KT P6SM SKC FM251200 04018G32KT
                       P6SM SKC FM251800 02015G22KT P6SM SKC FM260200
                       02008KT P6SM SKC=
201102242355 TAF KBLI 242355Z 2500/2524 04025G40KT P6SM SKC FM251200 04018G32KT
                       P6SM SKC FM251800 02015G22KT P6SM SKC=
201102241747 TAF KBLI 241747Z 2418/2518 03022G32KT P6SM SCT030 SCT060
                      TEMPO 2418/2421 BKN030 FM242300 04025G35KT
                       P6SM SKC=
201102241219 TAF KBLI 241219Z 2412/2512 02022G35KT P6SM OVC030 FM241400 03025G40KT
                       P6SM SCT020 BKN040 FM241800 03025G35KT P6SM
                       SCT020 SCT060 FM242300 04025G30KT P6SM SKC=
201102240542 TAF KBLI 240542Z 2406/2506 03022G35KT P6SM -SHSN OVC020 FM241000
                       03025G40KT P6SM SCT020 BKN040 FM241800 03025G35KT
                       P6SM SCT020 SCT060 FM242300 04025G30KT P6SM
                       SKC=
201102232349 TAF KBLI 232349Z 2400/2424 02022G35KT P6SM OVC020 FM241000 03025G40KT
                       P6SM SCT020 BKN040=
201102231932 KBLI 231932Z 2320/2418 02015G25KT P6SM VCSH OVC040
                      TEMPO 2320/2324 5SM -SHSN OVC020 FM240000
                       02022G35KT P6SM -SHSN OVC030 FM240200 03025G40KT
                       P6SM SCT030 BKN080 FM240600 03028G42KT P6SM
                       SCT030 SCT080=
201102231757 TAF KBLI 231757Z 2318/2418 02015G30KT P6SM -SHSN OVC030
                      TEMPO 2318/2322 5SM -SN OVC020 FM232200 02022G35KT
                       P6SM -SHSN OVC030 FM240200 03025G40KT P6SM
                       SCT030 BKN080 FM240600 03028G42KT P6SM SCT030
                       SCT080=
201102231125 TAF KBLI 231125Z 2312/2412 14005KT P6SM SCT025 OVC060
                      TEMPO 2312/2316 4SM -SHSN BKN015 OVC025 FM231600
                       04012G22KT P6SM -SN OVC030 FM232200 04022G32KT
                       P6SM -SN OVC030=
201102230521 TAF KBLI 230521Z 2306/2406 00000KT P6SM SCT040 BKN090
                      TEMPO 2306/2310 4SM -SHSN BKN025 OVC040 FM231000
                       04010KT P6SM SCT030 OVC060 FM231600 04020G35KT
                       P6SM -SN OVC030 FM232200 04030G45KT P6SM
                       -SN OVC030=
201102222332 TAF KBLI 222332Z 2300/2324 29012KT P6SM VCSH SCT030 BKN050 FM230300
                       VRB03KT P6SM SCT035 BKN070 FM230900 04010KT
                       P6SM SCT030 OVC050 FM231600 04020G35KT P6SM
                       -SN OVC030 FM232200 04030G45KT P6SM -SN
                       OVC030=
201102221820 KBLI 221820Z 2218/2318 29012KT P6SM SCT030 BKN060
                      TEMPO 2218/2222 -SHRA BKN030 OVC045 FM230200
                       VRB03KT P6SM SCT035 BKN070 FM230900 04010KT
                       P6SM SCT030 OVC050 FM231500 04025G35KT P6SM
                       -SN OVC030=
201102221731 TAF KBLI 221731Z 2218/2318 29012KT P6SM SCT030 BKN060 FM230200
                       VRB03KT P6SM SCT035 BKN070 FM230900 04010KT
                       P6SM SCT030 OVC050 FM231500 04025G35KT P6SM
                       -SN OVC030=
201102221127 TAF KBLI 221127Z 2212/2312 00000KT P6SM SCT020 BKN080
                      TEMPO 2212/2214 -SHRASN BKN020 OVC060 FM221400
                       26006KT P6SM BKN030 OVC060 FM221900 29008KT
                       P6SM SCT035 BKN070=
201102220739 KBLI 220739Z 2208/2306 00000KT P6SM SCT025 BKN060
                      TEMPO 2210/2214 -SHSN BKN025 OVC060 FM221400
                       23010KT P6SM BKN030 OVC060 FM221900 25008KT
                       P6SM SCT035 BKN070=
201102220527 TAF KBLI 220527Z 2206/2306 00000KT P6SM BKN025 OVC090 FM220800
                       18006KT 5SM -SHSN BR BKN020 OVC035 FM221400
                       23010KT P6SM BKN030 OVC060 FM221900 25008KT
                       P6SM SCT035 BKN070=
201102220430 KBLI 220430Z 2205/2224 26004KT P6SM SCT016 SCT027 BKN090
                      TEMPO 2205/2207 SHSN BKN016 OVC027 FM220700
                       17008KT P6SM -SHRA BKN020 OVC035 FM221400
                       23010KT P6SM -SHRA OVC030=
201102220136 KBLI 220136Z 2202/2224 17010KT P6SM -SHRA SCT015 OVC028
                      TEMPO 2202/2206 BKN015 OVC028 FM220700 17008KT
                       P6SM -SHRA BKN020 OVC035 FM221400 23010KT
                       P6SM -SHRA OVC030=
201102212337 TAF KBLI 212337Z 2200/2224 17010KT P6SM -SHRA BKN025 OVC050 FM220700
                       17008KT P6SM -SHRA BKN020 OVC035 FM221400
                       23010KT P6SM -SHRA OVC030=
201102211730 TAF KBLI 211730Z 2118/2218 18004KT P6SM SCT060 BKN080 BKN200 FM212000
                       18009KT P6SM BKN050 BKN070 FM220100 19008KT
                       P6SM -SHRA BKN035 OVC050 FM220700 17008KT
                       P6SM -SHRA BKN020 OVC035=
201102211127 TAF KBLI 211127Z 2112/2212 02004KT P6SM BKN090 BKN200 FM212000
                       22009KT P6SM OVC050 FM220100 19008KT P6SM
                       -SHRA BKN035 OVC050 FM220700 17008KT P6SM
                       -SHRA BKN020 OVC035=
201102210521 TAF KBLI 210521Z 2106/2206 00000KT P6SM SCT070 BKN200 FM210800
                       15004KT P6SM BKN050 OVC090 FM211700 22009KT
                       P6SM OVC050 FM220100 22009KT P6SM -SHRA
                       BKN035 OVC045=
201102202333 TAF KBLI 202333Z 2100/2124 17008KT P6SM SCT090 BKN200 FM210500
                       13005KT P6SM SCT050 BKN100 OVC200 FM210800
                       15004KT P6SM BKN050 OVC090 FM211700 22009KT
                       P6SM OVC050 FM212200 22011KT P6SM VCSH BKN025
                       OVC045=
201102201724 TAF KBLI 201724Z 2018/2118 04004KT P6SM SCT250 FM202000 19006KT
                       P6SM FEW120 BKN250 FM202300 VRB03KT P6SM
                       FEW070 BKN120 FM210500 13005KT P6SM SCT050
                       BKN100 FM210800 15004KT P6SM BKN050 OVC090=
201102201120 TAF KBLI 201120Z 2012/2112 06006KT P6SM SKC FM201500 VRB03KT P6SM
                       SCT250 FM202100 19006KT P6SM FEW120 BKN250
                       FM210100 VRB03KT P6SM FEW070 BKN120=
201102200528 TAF KBLI 200528Z 2006/2106 01012G18KT P6SM SKC FM200900 04007KT
                       P6SM SKC FM201500 VRB03KT P6SM SCT250 FM202100
                       19006KT P6SM FEW120 BKN250=
201102192334 TAF KBLI 192334Z 2000/2024 02018G30KT P6SM SKC FM200200 02012KT
                       P6SM SKC FM200600 05006KT P6SM SKC FM201500
                       VRB03KT P6SM SCT250=
201102191722 TAF KBLI 191722Z 1918/2018 02020G30KT P6SM SKC FM200200 02012KT
                       P6SM SKC FM200600 05006KT P6SM SKC=
201102191120 TAF KBLI 191120Z 1912/2012 01018G28KT P6SM SKC FM200200 02012KT
                       P6SM SKC FM200600 05006KT P6SM SKC=
201102190530 TAF KBLI 190530Z 1906/2006 02012G20KT P6SM SKC FM200200 02006KT
                       P6SM SKC=
201102182337 TAF KBLI 182337Z 1900/1924 03011G19KT P6SM SCT050 FM190600 04012G22KT
                       P6SM SKC=
201102181734 TAF KBLI 181734Z 1818/1918 03007KT P6SM SKC FM182000 04012KT P6SM
                       SCT050 FM190600 04012G22KT P6SM SKC=
201102181127 TAF KBLI 181127Z 1812/1912 VRB04KT P6SM SCT050 FM182000 04012KT
                       P6SM SCT050 FM190600 04012G22KT P6SM SKC=
201102180529 TAF KBLI 180529Z 1806/1906 15010KT P6SM BKN035 BKN060 FM181400
                       04010KT P6SM SCT030 BKN050 FM190000 04012KT
                       P6SM SCT050=
201102172328 TAF KBLI 172328Z 1800/1824 15009KT P6SM VCSH SCT035 SCT110
                      TEMPO 1800/1804 BKN035 BKN110 FM181500 05012KT
                       P6SM SCT030 SCT050 FM181700 04018G25KT P6SM
                       SKC=
201102172131 KBLI 172131Z 1722/1818 16011G18KT P6SM SCT030
                      TEMPO 1722/1724 BKN030 FM180000 17012KT P6SM
                       VCSH BKN030 OVC050 FM181500 05012KT P6SM
                       SCT030 SCT050 FM181700 05018G25KT P6SM SKC=
201102171731 TAF KBLI 171731Z 1718/1818 14007KT P6SM FEW012 SCT040 SCT080 FM180000
                       17012KT P6SM VCSH BKN030 OVC050 FM181500
                       05012KT P6SM SCT030 SCT050 FM181700 05018G25KT
                       P6SM SKC=
201102171603 KBLI 171603Z 1716/1812 15007KT P6SM VCSH BKN015 BKN030 OVC070
                      TEMPO 1716/1718 -SHRASN FM171800 17008KT
                       P6SM SCT030 BKN050 FM180000 17012KT P6SM
                       VCSH BKN030 OVC050
                      TEMPO 1806/1810 5SM -SHRASN OVC020=
201102171402 KBLI 171402Z 1714/1812 17008KT P6SM SCT030 OVC060
                      TEMPO 1714/1718 -SHRASN BKN030 OVC050 FM171800
                       17008KT P6SM SCT030 BKN050 FM180000 17012KT
                       P6SM VCSH BKN030 OVC050
                      TEMPO 1806/1810 5SM -SHRASN OVC020=
201102171120 TAF KBLI 171120Z 1712/1812 17008KT P6SM BKN020 BKN050 FM171800
                       17008KT P6SM SCT030 BKN050 FM180000 17012KT
                       P6SM VCSH BKN030 OVC050
                      TEMPO 1806/1810 5SM -SHRASN OVC020=
201102170731 KBLI 170731Z 1708/1806 18014G22KT P6SM SCT012 BKN025 OVC050
                      TEMPO 1708/1710 3SM -SHRASN BR BKN012 OVC025
                       FM171200 20008KT P6SM BKN035 BKN060 FM180000
                       18012KT P6SM VCSH BKN035 OVC060
                      TEMPO 1802/1806 5SM -SHRASN=
201102170520 TAF KBLI 170520Z 1706/1806 18014KT P6SM SCT025 BKN035 BKN060
                      TEMPO 1708/1712 -SHRASN FM171200 20008KT
                       P6SM SCT035 BKN060 FM180000 18012KT P6SM
                       VCSH BKN035 OVC060
                      TEMPO 1802/1806 5SM -SHRASN=
201102162338 TAF KBLI 162338Z 1700/1724 17011G22KT P6SM SCT030 BKN060
                      TEMPO 1701/1703 -SHRA BKN030CB OVC060 FM170300
                       19010KT P6SM SCT028 BKN050
                      TEMPO 1703/1707 -SHRASN BKN028 OVC050 FM170700
                       17008KT P6SM VCSH SCT025 BKN050 FM171800
                       16006KT P6SM -SHSNRA BKN029 BKN050=
201102161740 TAF KBLI 161740Z 1618/1718 16017G30KT P6SM SCT030 OVC070 FM162000
                       17012G22KT P6SM SCT030 BKN060
                      TEMPO 1620/1624 -SHRA BKN030CB OVC060 FM170200
                       19012KT P6SM VCSH SCT030 BKN060 FM170600
                       15006KT P6SM SCT030 BKN060=
201102161120 TAF KBLI 161120Z 1612/1712 16015G27KT P6SM VCSH BKN030 BKN060 FM161600
                       18015G25KT P6SM VCSH SCT025 BKN050 FM162000
                       20012G22KT P6SM -SHRA BKN030CB BKN050 FM170400
                       21010KT P6SM VCSH SCT025 BKN050=
201102160520 TAF KBLI 160520Z 1606/1706 15012G22KT P6SM VCSH SCT025 BKN050
                      TEMPO 1606/1610 -SHRA BKN025 OVC040 FM161900
                       21012G20KT P6SM VCSH SCT025 BKN050 FM170400
                       21010KT P6SM VCSH SCT025 BKN050=
201102152339 TAF KBLI 152339Z 1600/1624 15012G25KT P6SM SCT029 BKN035 OVC045
                       TEMPO 1601/1605 -SHRA BKN029 OVC040 FM160500
                       16015G25KT P6SM SCT025 OVC040
                      TEMPO 1605/1609 -SHRA BKN025 OVC040 FM160900
                       17012G18KT P6SM BKN030 BKN045
                      PROB30 1609/1620 -SHRA FM162000 16010KT P6SM
                       -SHRA SCT035 BKN045=
201102151740 TAF KBLI 151740Z 1518/1618 04006KT P6SM FEW025 BKN040 FM152100
                       05010KT P6SM -SHRA BKN035 OVC050CB FM160000
                       17012G26KT P6SM -SHRA BKN035 OVC045 FM160800
                       18015G25KT P6SM SCT025 OVC040
                      PROB30 1608/1618 -SHRA=
201102151133 TAF KBLI 151133Z 1512/1612 15012G22KT P6SM VCSH SCT025 BKN050 BKN080
                       TEMPO 1512/1515 BKN025 OVC050 FM151500 16010G20KT
                       P6SM VCSH SCT035 BKN050 BKN100 FM152200
                       17012G22KT P6SM -SHRA BKN035 OVC050 FM160300
                       18015G25KT P6SM -SHRA BKN025 OVC040=
201102150523 TAF KBLI 150523Z 1506/1606 18012G25KT P6SM SCT035 BKN050
                      TEMPO 1506/1508 -SHRA BKN035 OVC050 FM150800
                       14012G22KT P6SM BKN050 BKN100
                      TEMPO 1508/1512 -SHRA FM151500 09007KT P6SM
                       SCT050 BKN100 OVC200 FM152100 09007KT P6SM
                       OVC050
                      TEMPO 1521/1524 -RA=
201102150211 KBLI 150211Z 1502/1524 16025G35KT P6SM SCT028 SCT050 BKN100
                      TEMPO 1502/1504 5SM RA BKN028 OVC050 FM150400
                       18013G23KT P6SM SCT035 BKN050
                      TEMPO 1504/1508 -SHRA BKN035 OVC050 FM150800
                       14011KT P6SM BKN050 BKN100
                      TEMPO 1508/1512 -SHRA FM151500 09007KT P6SM
                       SCT050 BKN100 OVC200 FM152100 09007KT P6SM
                       OVC050
                      TEMPO 1521/1524 -RA=
201102150121 KBLI 150121Z 1501/1524 16025G35KT P6SM -RA SCT050 BKN100
                      TEMPO 1501/1504 5SM RA BKN035 OVC050 FM150400
                       18013G23KT P6SM SCT035 BKN050
                      TEMPO 1504/1508 -SHRA BKN035 OVC050 FM150800
                       14011KT P6SM BKN050 BKN100
                      TEMPO 1508/1512 -SHRA FM151500 09007KT P6SM
                       SCT050 BKN100 OVC200 FM152100 09007KT P6SM
                       OVC050
                      TEMPO 1521/1524 -RA=
201102150117 KBLI 150117Z 1501/1524 18025G35KT P6SM -RA SCT050 BKN100
                      TEMPO 1501/1504 5SM RA BKN035 OVC050 FM150400
                       18013G23KT P6SM SCT035 BKN050
                      TEMPO 1504/1508 -SHRA BKN035 OVC050 FM150800
                       14011KT P6SM BKN050 BKN100
                      TEMPO 1508/1512 -SHRA FM151500 09007KT P6SM
                       SCT050 BKN100 OVC200 FM152100 09007KT P6SM
                       OVC050
                      TEMPO 1521/1524 -RA=
201102142358 KBLI 142358Z 1500/1524 17028G40KT P6SM SCT035 BKN060 OVC150 FM150100
                       18018G28KT P6SM -RA SCT030 OVC050
                      TEMPO 1501/1503 5SM RA OVC030 FM150400 18013G23KT
                       P6SM SCT035 BKN050
                      TEMPO 1504/1508 -SHRA BKN035 OVC050 FM150800
                       14011KT P6SM BKN050 BKN100
                      TEMPO 1508/1512 -SHRA FM151500 09007KT P6SM
                       SCT050 BKN100 OVC200 FM152100 09007KT P6SM
                       OVC050
                      TEMPO 1521/1524 -RA=
201102142341 TAF KBLI 142341Z 1500/1524 18025G35KT P6SM -RA OVC035 FM150400
                       18015G25KT P6SM -SHRA BKN035 OVC050 FM150900
                       15013KT P6SM BKN050 OVC100
                      PROB30 1509/1515 -SHRA FM151500 10006KT P6SM
                       SCT050 OVC100=
201102142259 KBLI 142259Z 1423/1518 15025G35KT P6SM BKN060 OVC130
                      TEMPO 1423/1424 -RA FM150000 18025G35KT P6SM
                       -RA OVC035 FM150400 18015G25KT P6SM -SHRA
                       BKN035 OVC050 FM150900 15013KT P6SM BKN050
                       OVC100
                      PROB30 1509/1515 -SHRA FM151500 10006KT P6SM
                       SCT050 OVC100=
201102142105 KBLI 142105Z 1421/1518 15013G23KT P6SM -RA BKN035 OVC050
                      TEMPO 1421/1424 5SM -RA BR FM150000 18025G35KT
                       P6SM -RA OVC035 FM150400 18015G25KT P6SM
                       -SHRA BKN035 OVC050 FM150900 15013KT P6SM
                       BKN050 OVC100
                      PROB30 1509/1515 -SHRA FM151500 10006KT P6SM
                       SCT050 OVC100=
201102141920 KBLI 141920Z 1419/1518 15015G25KT P6SM -RA SCT028 OVC035
                      TEMPO 1419/1421 5SM -RA BR BKN028 OVC035
                       FM142100 18018G28KT P6SM SCT035 OVC050
                      TEMPO 1421/1424 -RA FM150000 18025G35KT P6SM
                       -RA OVC035 FM150400 18015G25KT P6SM -SHRA
                       BKN035 OVC050 FM150900 15013KT P6SM BKN050
                       OVC100
                      PROB30 1509/1515 -SHRA FM151500 10006KT P6SM
                       SCT050 OVC100=
201102141741 TAF KBLI 141741Z 1418/1518 15025G35KT P6SM VCSH OVC060 FM142100
                       18018G28KT P6SM SCT035 OVC050
                      TEMPO 1421/1424 -RA FM150000 18025G35KT P6SM
                       -RA OVC035 FM150400 18015G25KT P6SM -SHRA
                       BKN035 OVC050 FM150900 15013KT P6SM BKN050
                       OVC100
                      PROB30 1509/1515 -SHRA FM151500 10006KT P6SM
                       SCT050 OVC100=
201102141516 KBLI 141516Z 1415/1512 15020G30KT P6SM SCT035 OVC060
                      TEMPO 1415/1418 -RA FM141800 15022G32KT P6SM
                       -RA BKN035 OVC050 FM142200 17028G38KT P6SM
                       -RA SCT025 OVC035 FM150300 18014G20KT P6SM
                       -SHRA SCT025 BKN040 BKN060 FM150900 18012KT
                       P6SM -SHRA SCT025 BKN040=
201102141308 KBLI 141308Z 1413/1512 15016G26KT P6SM -RA OVC050 FM141800 15022G32KT
                       P6SM -RA BKN035 OVC050 FM142200 17028G38KT
                       P6SM -RA SCT025 OVC035 FM150300 18014G20KT
                       P6SM -SHRA SCT025 BKN040 BKN060 FM150900
                       18012KT P6SM -SHRA SCT025 BKN040=
201102141140 TAF KBLI 141140Z 1412/1512 05004KT P6SM -RA SCT035 OVC050 FM141800
                       15016G26KT P6SM -RA BKN035 OVC050 FM142200
                       17028G38KT P6SM -RA SCT025 OVC035 FM150300
                       18014G20KT P6SM -SHRA SCT025 BKN040 BKN060
                       FM150900 18012KT P6SM -SHRA SCT025 BKN040=
201102140541 TAF KBLI 140541Z 1406/1506 02004KT P6SM OVC050 FM140800 05004KT
                       P6SM -RA SCT025 OVC040 FM141800 15016G26KT
                       P6SM -RA BKN035 OVC050
                      TEMPO 1418/1421 -RA FM142200 17028G38KT P6SM
                       -RA SCT025 OVC035 FM150300 18014G20KT P6SM
                       -SHRA SCT025 OVC040=
201102132346 KBLI 132346Z 1400/1424 14009KT P6SM SCT035 OVC050 FM140400 10006KT
                       P6SM -RA BKN035 OVC050 FM140800 05004KT
                       P6SM -RA FEW028 OVC035 FM141600 10010KT
                       P6SM -RA FEW028 OVC035 FM141800 15017G27KT
                       P6SM BKN035 OVC050
                      TEMPO 1418/1421 -RA FM142100 17028G38KT P6SM
                       -RA SCT025 OVC035=
201102132340 TAF KBLI 132340Z 1400/1424 15009KT P6SM BKN050 BKN200 FM140200
                       11006KT P6SM BKN050 OVC110
                      TEMPO 1404/1406 -RA FM140600 04006KT P6SM
                       -RA SCT035 OVC050 FM141200 09008KT P6SM
                       -RA BKN035 OVC050 FM141500 13013KT P6SM
                       -RA OVC035=
201102132322 KBLI 132322Z 1323/1418 15009KT P6SM BKN050 BKN200 FM140200 11006KT
                       P6SM BKN050 OVC110
                      TEMPO 1404/1406 -RA FM140600 04006KT P6SM
                       -RA SCT035 OVC050 FM141200 09008KT P6SM
                       -RA BKN035 OVC050 FM141500 13013KT P6SM
                       -RA OVC035=
201102132013 KBLI 132013Z 1320/1418 17009KT P6SM SCT028 BKN050 BKN200
                      TEMPO 1320/1322 BKN028 OVC050 FM140200 11006KT
                       P6SM SCT050 OVC110
                      TEMPO 1404/1406 -RA FM140600 04006KT P6SM
                       -RA SCT035 OVC050 FM141200 09008KT P6SM
                       -RA BKN035 OVC050 FM141500 13013KT P6SM
                       -RA OVC035=
201102131858 KBLI 131858Z 1319/1418 15009KT P6SM SCT025 BKN040
                      TEMPO 1319/1320 BKN025 OVC040 FM132000 15009KT
                       P6SM SCT050 SCT110 BKN200 FM140200 11006KT
                       P6SM SCT050 OVC110
                      TEMPO 1404/1406 -RA FM140600 04006KT P6SM
                       -RA SCT035 OVC050 FM141200 09008KT P6SM
                       -RA BKN035 OVC050 FM141500 13013KT P6SM
                       -RA OVC035=
201102131746 TAF KBLI 131746Z 1318/1418 VRB03KT P6SM SCT025 BKN040
                      TEMPO 1318/1320 -SHRA BKN025 OVC040 FM132000
                       VRB03KT P6SM SCT050 SCT110 BKN200 FM140200
                       VRB03KT P6SM SCT050 OVC110
                      TEMPO 1404/1406 -RA FM140600 04006KT P6SM
                       -RA SCT035 OVC050 FM141200 09008KT P6SM
                       -RA BKN035 OVC050 FM141500 13013KT P6SM
                       -RA OVC035=
201102131725 KBLI 131725Z 1317/1412 16004KT P6SM BKN020 OVC030
                      TEMPO 1317/1319 4SM SHRA FM132000 17007KT
                       P6SM SCT040 BKN100 FM140300 15005KT P6SM
                       BKN050 BKN100 FM140700 13006KT P6SM -RA
                       OVC050=
201102131139 TAF KBLI 131139Z 1312/1412 18007KT P6SM SCT020 BKN035 BKN070
                      TEMPO 1312/1316 -SHRA BKN020 OVC035 FM131900
                       17007KT P6SM SCT040 BKN100 FM140300 15005KT
                       P6SM BKN050 BKN100 FM140700 13006KT P6SM
                       -RA OVC050=
201102130541 TAF KBLI 130541Z 1306/1406 19010G20KT P6SM VCSH SCT035 BKN100 FM131000
                       19009KT P6SM FEW025 BKN100 FM131400 17007KT
                       P6SM FEW025 BKN060=
201102130313 KBLI 130313Z 1303/1324 19013G22KT P6SM -SHRA SCT020 BKN050 OVC080
                       TEMPO 1303/1307 -SHRA BKN020 BKN050 OVC080
                       FM130800 19009KT P6SM SCT025 OVC040
                      TEMPO 1308/1312 -SHRA FM131200 17009KT P6SM
                       SCT025 OVC040
                      PROB30 1312/1318 -SHRA FM132000 15007KT P6SM
                       BKN050=
201102130025 KBLI 130025Z 1300/1324 17025G35KT 3SM RA BKN020 OVC040 FM130200
                       19013G22KT P6SM -SHRA BKN020 OVC040 FM130800
                       19009KT P6SM SCT025 OVC040
                      TEMPO 1308/1312 -SHRA FM131200 17009KT P6SM
                       SCT025 OVC040
                      PROB30 1312/1318 -SHRA FM132000 15007KT P6SM
                       BKN050=
201102122353 TAF KBLI 122353Z 1300/1324 17025G35KT 5SM RA BKN028 OVC040 FM130100
                       17025G35KT 3SM RA BKN015 OVC028 FM130300
                       19013G22KT P6SM -SHRA BKN025 OVC040 FM130800
                       19009KT P6SM SCT025 OVC040
                      TEMPO 1308/1312 -SHRA FM131200 17009KT P6SM
                       SCT025 OVC040
                      PROB30 1312/1318 -SHRA FM132000 15007KT P6SM
                       BKN050=
201102122127 KBLI 122127Z 1221/1318 17025G35KT 5SM -RA BR SCT025 OVC040
                      TEMPO 1221/1224 BKN025 OVC040 FM130000 18025G35KT
                       P6SM -RA SCT015 OVC025
                      TEMPO 1300/1302 4SM RA BKN015 OVC025 FM130300
                       18014G23KT P6SM BKN025 OVC040
                      TEMPO 1303/1307 -SHRA FM130700 17009KT P6SM
                       SCT025 BKN040=
201102121918 KBLI 121918Z 1219/1318 15025G35KT P6SM SCT040 OVC080
                      TEMPO 1219/1220 -RA FM122000 17025G35KT P6SM
                       -RA SCT035 OVC060
                      TEMPO 1220/1222 BKN035 OVC060 FM122200 17025G35KT
                       P6SM -RA SCT025 OVC040
                      TEMPO 1222/1224 BKN025 OVC040 FM130000 18025G35KT
                       P6SM -RA SCT015 OVC025
                      TEMPO 1300/1302 4SM RA BKN015 OVC025 FM130300
                       18014G23KT P6SM BKN025 OVC040
                      TEMPO 1303/1307 -SHRA FM130700 17009KT P6SM
                       SCT025 BKN040=
201102121749 TAF KBLI 121749Z 1218/1318 15018G28KT P6SM OVC080
                      TEMPO 1218/1220 -RA FM122000 17018G28KT P6SM
                       -RA SCT035 OVC060
                      TEMPO 1220/1222 BKN035 OVC060 FM122200 17022G32KT
                       P6SM -RA SCT025 OVC040
                      TEMPO 1222/1224 BKN025 OVC040 FM130000 18025G35KT
                       P6SM -RA SCT015 OVC025
                      TEMPO 1300/1302 4SM RA BKN015 OVC025 FM130300
                       18014G23KT P6SM BKN025 OVC040
                      TEMPO 1303/1307 -SHRA FM130700 17009KT P6SM
                       SCT025 BKN040=
201102121515 KBLI 121515Z 1215/1312 16015G25KT P6SM SCT070 OVC130 FM121800 17018G28KT
                       P6SM -RA BKN030 OVC045 FM122100 17020G30KT
                       P6SM -RA BKN020 OVC035 FM130400 17012G22KT
                       P6SM BKN015 OVC040=
201102121147 TAF KBLI 121147Z 1212/1312 16015G25KT P6SM OVC100 FM121800 17018G28KT
                       P6SM -RA BKN030 OVC045 FM122100 17020G30KT
                       P6SM -RA BKN020 OVC035 FM130400 17012G22KT
                       P6SM BKN015 OVC040=
201102120909 KBLI 120909Z 1209/1306 16012G24KT P6SM SCT035 OVC100 FM121200 16015G25KT
                       P6SM SCT025 OVC050
                      TEMPO 1215/1218 -RA BKN025 OVC040 FM121800
                       16018G28KT P6SM -RA BKN025 OVC050=
201102120529 TAF KBLI 120529Z 1206/1306 VRB03KT P6SM SCT035 OVC060
                      TEMPO 1206/1210 5SM -RA BR BKN035 OVC060
                       FM121000 15012KT P6SM SCT025 OVC040
                      TEMPO 1210/1214 BKN025 OVC040 FM121800 16018G28KT
                       P6SM -RA BKN025 OVC050=
201102112356 TAF KBLI 112356Z 1200/1224 VRB03KT P6SM BKN060 OVC100
                      TEMPO 1202/1206 -RA FM120600 10006KT P6SM
                       SCT035 OVC060
                      TEMPO 1206/1210 -RA BKN035 OVC060 FM121000
                       15012KT P6SM SCT025 OVC040
                      TEMPO 1210/1214 BKN025 OVC040 FM121800 16018G28KT
                       P6SM -RA BKN025 OVC050=
201102112008 KBLI 112008Z 1120/1218 VRB03KT P6SM OVC040
                      TEMPO 1120/1124 -RA FM120000 15006KT P6SM
                       -RA FEW025 OVC040
                      TEMPO 1210/1212 BKN025 OVC040 FM121200 15013G22KT
                       P6SM -RA BKN025 OVC040 FM121500 15015G25KT
                       P6SM SCT025 BKN050 OVC090
                      PROB30 1215/1218 -RA=
201102111753 TAF KBLI 111753Z 1118/1218 VRB03KT P6SM OVC060
                      TEMPO 1120/1124 -RA FM120000 15006KT P6SM
                       -RA FEW025 OVC040
                      TEMPO 1210/1212 BKN025 OVC040 FM121200 15013G22KT
                       P6SM -RA BKN025 OVC040 FM121500 15015G25KT
                       P6SM SCT025 BKN050 OVC090
                      PROB30 1215/1218 -RA=
201102111143 TAF KBLI 111143Z 1112/1212 03003KT P6SM BKN120 FM112100 14005KT
                       P6SM BKN080 OVC120 FM120400 15010KT P6SM
                       -RA SCT040 OVC050 FM121000 15015G22KT P6SM
                       VCSH SCT045 OVC090=
201102110539 TAF KBLI 110539Z 1106/1206 04003KT P6SM BKN200 FM112000 14005KT
                       P6SM BKN120 OVC200 FM120400 15010KT P6SM
                       -RA SCT040 OVC050=
201102102338 TAF KBLI 102338Z 1100/1124 00000KT P6SM SCT250 FM110600 06004KT
                       P6SM BKN200 FM112000 14005KT P6SM BKN120
                       OVC200=
201102101743 TAF KBLI 101743Z 1018/1118 00000KT P6SM SCT120 FM102000 36004KT
                       P6SM BKN250 FM110600 00000KT P6SM BKN130
                       BKN200=
201102101120 TAF KBLI 101120Z 1012/1112 00000KT P6SM SCT035 BKN250
                      TEMPO 1012/1015 4SM BR FM101600 VRB03KT P6SM
                       SCT050 BKN250 FM102000 36004KT P6SM BKN250
                       FM110600 00000KT P6SM BKN130 BKN200=
201102100520 TAF KBLI 100520Z 1006/1106 00000KT P6SM SCT100 BKN250 FM101600
                       20003KT P6SM SCT070 BKN250 FM102000 36003KT
                       P6SM BKN250=
201102092331 TAF KBLI 092331Z 1000/1024 00000KT P6SM BKN250 FM100300 03003KT
                       P6SM SCT250 FM101600 20003KT P6SM BKN120
                       OVC200=
201102091731 TAF KBLI 091731Z 0918/1018 35004KT P6SM SCT200 FM100200 03003KT
                       P6SM SKC=
201102091122 TAF KBLI 091122Z 0912/1012 03006KT P6SM SCT200=
201102090537 TAF KBLI 090537Z 0906/1006 03006KT P6SM SCT200=
201102082329 TAF KBLI 082329Z 0900/0924 02013G23KT P6SM SKC FM090300 VRB03KT
                       P6SM SKC=
201102082101 KBLI 082101Z 0821/0918 02015G25KT P6SM SCT090 FM090000 02012KT
                       P6SM SKC=
201102082013 KBLI 082013Z 0820/0918 02015G25KT P6SM OVC070 FM082100 03008KT
                       P6SM SCT070=
201102081731 TAF KBLI 081731Z 0818/0918 02020G30KT P6SM OVC070 FM082100 03008KT
                       P6SM SCT070=
201102081613 KBLI 081613Z 0816/0912 02014G24KT P6SM SCT100 FM082300 04008KT
                       P6SM SKC=
201102081140 TAF KBLI 081140Z 0812/0912 03006KT P6SM BKN050 FM081800 02014KT
                       P6SM SCT050 FM082200 04008KT P6SM SKC=
201102080539 TAF KBLI 080539Z 0806/0906 VRB03KT P6SM BKN050 FM081300 02010KT
                       P6SM SCT050 FM081800 02014KT P6SM SKC FM090000
                       04006KT P6SM SKC=
201102072323 TAF KBLI 072323Z 0800/0824 27009G24KT P6SM SCT035 SCT070 FM080600
                       02008KT P6SM SKC FM081000 02014G25KT P6SM
                       SKC FM082200 04005KT P6SM SKC=
201102072104 TAF AMD KBLI 072104Z 0721/0818 27013G21KT P6SM SCT035 SCT050 FM080000
                       30005KT P6SM SCT030 SCT050 FM080600 02008KT
                       P6SM SCT035 SCT050 FM081000 02014G25KT P6SM
                       SKC=
201102071734 TAF KBLI 071734Z 0718/0818 20005KT 6SM -SHRA FEW017 OVC030 FM080300
                       VRB04KT P6SM BKN030 BKN045 FM080600 02008KT
                       P6SM SCT035 SCT050 FM081000 02014G25KT P6SM
                       SKC=
201102071139 TAF KBLI 071139Z 0712/0812 19008KT P6SM SCT050 FM071600 19008KT
                       P6SM SCT025 BKN040
                      TEMPO 0720/0724 -SHRA BKN025 OVC040 FM080300
                       18006KT P6SM SCT030 BKN045=
201102070540 TAF KBLI 070540Z 0706/0806 18012G20KT P6SM SCT006 OVC012
                      TEMPO 0706/0708 BKN006 OVC012 FM070800 18012G20KT
                       P6SM SCT015 BKN035 FM071400 20012KT P6SM
                       SCT025 BKN040
                      TEMPO 0716/0720 5SM -SHRA BKN025 OVC040 FM072300
                       18006KT P6SM SCT030 BKN045=
201102062324 TAF KBLI 062324Z 0700/0724 14008KT P6SM FEW007 BKN014 OVC023
                      TEMPO 0700/0702 4SM -RA BR BKN007 OVC014
                       FM070200 18014G24KT P6SM -RA BKN010 OVC018
                       FM070500 20012G18KT P6SM SCT025 BKN040=
201102062101 KBLI 062101Z 0621/0718 02003KT 1 1/2SM -RA BR OVC002
                      TEMPO 0622/0624 P6SM NSW SCT002 OVC012 FM070000
                       18014KT P6SM -RA OVC012 FM070500 20012KT
                       P6SM SCT025 BKN040=
201102061857 KBLI 061857Z 0619/0718 01003KT 1 1/2SM BR OVC002 FM062100 18010KT
                       P6SM BKN015 OVC025 FM070000 18014KT P6SM
                       -RA OVC015 FM070500 20012KT P6SM SCT025
                       BKN040=
201102061727 TAF KBLI 061727Z 0618/0718 02004KT 1SM -RA BR SCT002 OVC022
                      TEMPO 0618/0621 P6SM NSW FEW002 SCT022 OVC035
                       FM062100 18010KT P6SM SCT015 BKN025 OVC040
                       FM070000 18014KT P6SM -RA OVC015 FM070500
                       20012KT P6SM SCT025 BKN040=
201102061606 KBLI 061606Z 0616/0712 02003KT 2SM -RA BR SCT002 BKN026 OVC035
                       TEMPO 0616/0618 5SM -RA BR FEW002 SCT026
                       OVC040 FM061800 01004KT P6SM SCT015 BKN025
                       OVC040 FM062100 18010KT P6SM SCT015 BKN025
                       OVC040 FM070000 18014KT P6SM -RA OVC015
                       FM070500 20012KT P6SM SCT025 BKN040=
201102061141 TAF KBLI 061141Z 0612/0712 15006KT P6SM -RA SCT006 BKN025 OVC040
                       TEMPO 0612/0616 3SM -RA BKN006 OVC025 FM061600
                       15012KT P6SM -RA SCT006 OVC015 FM062100
                       18010KT P6SM SCT015 BKN025 OVC040 FM070000
                       18014KT P6SM -RA OVC015 FM070500 20012KT
                       P6SM SCT025 BKN040=
201102060541 TAF KBLI 060541Z 0606/0706 15006KT P6SM OVC045 FM060900 15010KT
                       P6SM -RA OVC022 FM061400 15012KT P6SM -RA
                       OVC015 FM062100 18010KT P6SM SCT015 BKN025
                       OVC040 FM070000 18014KT P6SM -RA OVC015=
201102052321 TAF KBLI 052321Z 0600/0624 17007KT P6SM SCT028 OVC090
                      TEMPO 0600/0603 OVC028 FM060300 VRB04KT P6SM
                       -RA OVC022 FM060800 15006KT P6SM -RA OVC015
                       FM061800 17011KT P6SM -RA OVC015=
201102051727 TAF KBLI 051727Z 0518/0618 00000KT P6SM FEW022 BKN035 OVC060
                      TEMPO 0518/0520 BKN030 OVC060 FM060200 VRB04KT
                       P6SM -RA OVC022 FM060800 15008KT P6SM -RA
                       OVC011=
201102051137 TAF KBLI 051137Z 0512/0612 15008KT P6SM OVC040 FM060100 15012KT
                       P6SM -RA OVC022 FM060800 15008KT P6SM -RA
                       OVC011=
201102050538 TAF KBLI 050538Z 0506/0606 18008KT P6SM SCT030 BKN050 FM051900
                       15008KT P6SM OVC050 FM060100 15012KT P6SM
                       -RA OVC022=
201102050410 KBLI 050410Z 0504/0524 18008KT P6SM SCT030 BKN050=
201102042326 TAF KBLI 042326Z 0500/0524 17012G22KT P6SM SCT015 OVC050
                      TEMPO 0500/0503 OVC015 FM050300 18008KT P6SM
                       OVC015=
201102041725 TAF KBLI 041725Z 0418/0518 15015G23KT P6SM SCT013 BKN050 OVC100
                       TEMPO 0418/0420 -SHRA BKN013 OVC050 FM042000
                       18008KT P6SM BKN020 OVC050 FM050300 18005KT
                       P6SM OVC020=
201102041503 KBLI 041503Z 0415/0512 17016G23KT 3SM -SHRA BR FEW013 BKN030 OVC060
                       TEMPO 0415/0418 P6SM -SHRA OVC013 FM042000
                       18008KT P6SM -SHRA BKN020 OVC040 FM050300
                       18005KT P6SM VCSH BKN020=
201102041318 KBLI 041318Z 0413/0512 17015G25KT 5SM -SHRA BKN012 OVC022
                      TEMPO 0414/0418 4SM RA BR OVC006 FM042000
                       18008KT P6SM -SHRA BKN020 OVC040 FM050300
                       18005KT P6SM VCSH BKN020=
201102041124 TAF KBLI 041124Z 0412/0512 16008KT 5SM -RA BR SCT006 OVC022
                      TEMPO 0414/0418 4SM RA BR OVC006 FM042000
                       18008KT P6SM -SHRA BKN020 OVC040 FM050300
                       18005KT P6SM VCSH BKN020=
201102040900 KBLI 040900Z 0409/0506 18008KT 5SM -RA BR SCT004 OVC022
                      TEMPO 0409/0412 2SM RA BR OVC004 FM042000
                       18008KT P6SM -SHRA BKN020 OVC040 FM050300
                       18005KT P6SM VCSH BKN025=
201102040528 TAF KBLI 040528Z 0406/0506 16009KT P6SM -RA OVC022 FM042000 18008KT
                       P6SM -SHRA BKN020 OVC040 FM050300 18005KT
                       P6SM VCSH BKN025=
201102032335 TAF KBLI 032335Z 0400/0424 12003KT P6SM -RA OVC035
                      TEMPO 0400/0404 4SM -RA BR OVC025 FM040400
                       17010KT 4SM -RA BR OVC015 FM042000 18008KT
                       P6SM -SHRA BKN020 OVC040=
201102031730 TAF KBLI 031730Z 0318/0418 01003KT P6SM -RA OVC045 FM032000 16012G20KT
                       P6SM -RA OVC025 FM040000 18008KT P6SM -SHRA
                       BKN020 FM040600 15006KT 5SM -RA BR OVC015=
201102031123 TAF KBLI 031123Z 0312/0412 16003KT P6SM SCT050 BKN100 FM031400
                       15005KT P6SM OVC050 FM031800 15010KT P6SM
                       -RA OVC040 FM032000 16012KT P6SM -RA OVC025
                       FM040000 18008KT P6SM -SHRA BKN020 FM040600
                       15006KT 5SM -RA BR OVC015=
201102030534 TAF KBLI 030534Z 0306/0406 01003KT P6SM BKN050 OVC090 FM030900
                       17003KT P6SM BKN040 OVC080 FM031400 16006KT
                       P6SM OVC040
                      TEMPO 0314/0318 -RA FM031800 16008KT P6SM
                       -RA OVC015=
201102022335 TAF KBLI 022335Z 0300/0324 01003KT P6SM BKN045 OVC060 FM030800
                       17003KT P6SM BKN040 OVC080 FM031400 16006KT
                       P6SM OVC040
                      TEMPO 0314/0318 -RA FM031800 16008KT P6SM
                       -RA OVC015=
201102021730 TAF KBLI 021730Z 0218/0318 00000KT P6SM BKN200 FM030900 17003KT
                       P6SM OVC100 FM031400 16006KT P6SM OVC040
                       TEMPO 0314/0318 -RA=
201102021139 TAF KBLI 021139Z 0212/0312 VRB04KT P6SM SCT150 BKN200 FM030300
                       12004KT P6SM SCT120 BKN200 FM030600 18006KT
                       P6SM BKN090 BKN150=
201102020520 TAF KBLI 020520Z 0206/0306 36005KT P6SM SCT200 FM021200 VRB04KT
                       P6SM SCT150 BKN200 FM030400 12004KT P6SM
                       SCT120 BKN200=
201102012320 TAF KBLI 012320Z 0200/0224 36006KT P6SM SCT200 FM021200 VRB04KT
                       P6SM BKN200=
201102011720 TAF KBLI 011720Z 0118/0218 36007KT P6SM SCT200 FM021200 VRB04KT
                       P6SM BKN200=
201102011136 TAF KBLI 011136Z 0112/0212 36006KT P6SM BKN120=
201102010537 TAF KBLI 010537Z 0106/0206 01007KT P6SM SCT200=