##########################################################
# Query made at 02/16/2025 19:45:12 UTC
# Time interval: from 08/01/2011 00:00  to 08/31/2011 23:59  UTC
##########################################################

##########################################################
# KBLI, Bellingham, Bellingham International Airport (United States)
# WMO index: -----. WIGOS ID: Unknown
# Latitude 48-47-58N. Longitude 122-32-21W. Altitude 48 m.
##########################################################

###################################
#  METAR/SPECI from KBLI
###################################
201108312353 METAR KBLI 312353Z 20005KT 10SM CLR 17/11 A3002 RMK AO2 SLP172 T01720111 10183 20139 51004=
201108312253 METAR KBLI 312253Z 18007KT 10SM CLR 18/12 A3002 RMK AO2 SLP170 T01780117=
201108312153 METAR KBLI 312153Z 18007KT 10SM CLR 17/12 A3002 RMK AO2 SLP170 T01720122=
201108312053 METAR KBLI 312053Z 17007KT 10SM FEW014 16/12 A3001 RMK AO2 SLP168 T01610117 51004=
201108312043 SPECI KBLI 312043Z 18006KT 10SM FEW012 16/12 A3001 RMK AO2=
201108312043 SPECI KBLI 312043Z 18006KT 10SM FEW012 16/12 A3001 RMK AO2=
201108311953 METAR KBLI 311953Z 16005KT 10SM OVC012 15/12 A3001 RMK AO2 SLP168 CIG LWR SE-S T01500117=
201108311853 METAR KBLI 311853Z 17006KT 10SM SCT009 OVC014 15/12 A3000 RMK AO2 SLP167 T01500117=
201108311753 METAR KBLI 311753Z 17009KT 10SM FEW007 BKN012 OVC021 14/12 A3000 RMK AO2 SLP165 60000 T01390117 10139 20133 51008=
201108311653 METAR KBLI 311653Z 18005KT 10SM SCT007 BKN012 OVC021 13/12 A2999 RMK AO2 RAE24 SLP163 P0000 T01330122=
201108311638 SPECI KBLI 311638Z 16007KT 9SM SCT007 OVC021 13/12 A2998 RMK AO2 RAE24 P0000=
201108311638 SPECI KBLI 311638Z 16007KT 9SM SCT007 OVC021 13/12 A2998 RMK AO2 RAE24 P0000=
201108311631 SPECI KBLI 311631Z 17006KT 8SM BKN007 OVC021 13/12 A2999 RMK AO2 RAE24 CIG 006V011 P0000=
201108311631 SPECI KBLI 311631Z 17006KT 8SM BKN007 OVC021 13/12 A2999 RMK AO2 RAE24 CIG 006V011 P0000=
201108311620 SPECI KBLI 311620Z 17006KT 6SM -RA BR SCT009 BKN016 OVC021 13/12 A2999 RMK AO2 P0000=
201108311620 SPECI KBLI 311620Z 17006KT 6SM -RA BR SCT009 BKN016 OVC021 13/12 A2999 RMK AO2 P0000=
201108311553 METAR KBLI 311553Z 17005KT 5SM -RA BR OVC015 13/12 A2998 RMK AO2 RAB40 SLP160 P0000 T01330117=
201108311453 METAR KBLI 311453Z 17005KT 10SM OVC017 14/11 A2997 RMK AO2 SLP156 T01390106 53012=
201108311353 METAR KBLI 311353Z 18008KT 10SM OVC017 13/11 A2996 RMK AO2 SLP150 T01330111=
201108311253 METAR KBLI 311253Z AUTO 17006KT 10SM SCT019 BKN025 OVC100 13/11 A2994 RMK AO2 SLP146 T01330111=
201108311234 SPECI KBLI 311234Z AUTO 17008KT 10SM SCT024 BKN028 OVC100 13/11 A2994 RMK AO2=
201108311234 SPECI KBLI 311234Z AUTO 17008KT 10SM SCT024 BKN028 OVC100 13/11 A2994 RMK AO2=
201108311153 METAR KBLI 311153Z AUTO 17008KT 10SM OVC085 13/11 A2994 RMK AO2 SLP144 T01330106 10144 20117 53002=
201108311053 METAR KBLI 311053Z AUTO 18005KT 10SM OVC090 13/11 A2994 RMK AO2 SLP143 T01330111=
201108310953 METAR KBLI 310953Z AUTO 18004KT 10SM CLR 13/11 A2993 RMK AO2 SLP142 T01330106=
201108310853 METAR KBLI 310853Z AUTO 22003KT 10SM OVC055 14/11 A2994 RMK AO2 SLP143 T01440111 55001=
201108310753 METAR KBLI 310753Z AUTO 17003KT 10SM BKN055 12/10 A2993 RMK AO2 SLP141 T01220100 402000117=
201108310653 METAR KBLI 310653Z AUTO 00000KT 10SM CLR 12/09 A2994 RMK AO2 SLP143 T01170094=
201108310553 METAR KBLI 310553Z AUTO 16005KT 10SM CLR 14/10 A2994 RMK AO2 SLP143 T01390100 10194 20122 50003=
201108310453 METAR KBLI 310453Z 00000KT 10SM CLR 12/11 A2995 RMK AO2 SLP149 T01220106=
201108310353 METAR KBLI 310353Z 00000KT 10SM CLR 13/11 A2994 RMK AO2 SLP146 T01330111=
201108310253 METAR KBLI 310253Z 18003KT 10SM CLR 16/12 A2993 RMK AO2 SLP140 T01560117 56004=
201108310153 METAR KBLI 310153Z 18004KT 10SM CLR 18/10 A2993 RMK AO2 SLP141 T01780100=
201108310053 METAR KBLI 310053Z 17006KT 10SM CLR 19/09 A2993 RMK AO2 SLP141 T01890094=
201108302353 METAR KBLI 302353Z 17006KT 10SM SCT065 19/11 A2994 RMK AO2 SLP145 T01940106 10200 20161 58013=
201108302253 METAR KBLI 302253Z VRB05KT 10SM CLR 19/11 A2995 RMK AO2 SLP149 T01940111=
201108302153 METAR KBLI 302153Z 18007KT 10SM CLR 19/11 A2997 RMK AO2 SLP154 T01890106=
201108302053 METAR KBLI 302053Z VRB05KT 10SM FEW055 BKN080 19/12 A2998 RMK AO2 SLP158 T01940117 58002=
201108301953 METAR KBLI 301953Z 16008KT 10SM FEW050 OVC070 17/11 A2999 RMK AO2 SLP160 T01720111=
201108301853 METAR KBLI 301853Z VRB06KT 10SM BKN049 OVC065 17/11 A2999 RMK AO2 SLP160 T01720111=
201108301753 METAR KBLI 301753Z 17006KT 10SM SCT020 OVC049 16/12 A2999 RMK AO2 SLP160 60000 T01610117 10161 20139 51006=
201108301709 SPECI KBLI 301709Z 18007KT 10SM SCT022 BKN043 OVC050 15/12 A2998 RMK AO2=
201108301709 SPECI KBLI 301709Z 18007KT 10SM SCT022 BKN043 OVC050 15/12 A2998 RMK AO2=
201108301653 METAR KBLI 301653Z 17005KT 10SM BKN021 OVC030 15/12 A2998 RMK AO2 RAE1554B17E32 SLP159 BINOVC SW P0000 T01500117=
201108301553 METAR KBLI 301553Z 18006KT 10SM -RA BKN019 OVC027 14/12 A2998 RMK AO2 RAB33 SLP158 P0000 T01390117=
201108301453 METAR KBLI 301453Z 17004KT 10SM BKN019 OVC029 14/11 A2997 RMK AO2 SLP154 T01440111 53004=
201108301353 METAR KBLI 301353Z 17007KT 10SM OVC019 14/11 A2996 RMK AO2 SLP151 T01440111=
201108301253 METAR KBLI 301253Z AUTO 00000KT 10SM BKN021 BKN027 OVC033 15/11 A2996 RMK AO2 SLP151 T01500111=
201108301153 METAR KBLI 301153Z AUTO 18005KT 10SM FEW029 OVC035 14/12 A2996 RMK AO2 SLP150 T01440117 10156 20139 53001=
201108301053 METAR KBLI 301053Z AUTO 17004KT 10SM SCT050 14/12 A2995 RMK AO2 SLP148 T01440117=
201108300953 METAR KBLI 300953Z AUTO 17007KT 10SM OVC050 15/12 A2995 RMK AO2 SLP149 T01500117=
201108300853 METAR KBLI 300853Z AUTO 18005KT 10SM OVC050 15/12 A2995 RMK AO2 SLP148 T01500117 51003=
201108300753 METAR KBLI 300753Z AUTO 18008KT 10SM OVC035 15/12 A2995 RMK AO2 SLP148 T01500122 402110139=
201108300653 METAR KBLI 300653Z AUTO 17009KT 10SM BKN055 15/12 A2995 RMK AO2 SLP147 T01500122=
201108300553 METAR KBLI 300553Z AUTO 16010G16KT 10SM BKN065 15/12 A2994 RMK AO2 SLP146 T01500117 10211 20150 50006=
201108300453 METAR KBLI 300453Z 17007G14KT 10SM BKN048 BKN055 OVC085 16/12 A2995 RMK AO2 SLP147 T01560117=
201108300353 METAR KBLI 300353Z 17013G20KT 10SM OVC050 17/12 A2995 RMK AO2 SLP147 T01670117=
201108300253 METAR KBLI 300253Z 16012G20KT 10SM SCT060 18/11 A2993 RMK AO2 SLP140 T01830111 58009=
201108300153 METAR KBLI 300153Z 16010KT 10SM BKN055 18/13 A2994 RMK AO2 SLP145 T01780128=
201108300053 METAR KBLI 300053Z 17007KT 10SM BKN060 20/13 A2995 RMK AO2 SLP148 T02000133=
201108292353 METAR KBLI 292353Z 18006G16KT 10SM CLR 21/13 A2996 RMK AO2 SLP149 T02060128 10211 20178 56009=
201108292253 METAR KBLI 292253Z 17008KT 10SM FEW028 21/13 A2996 RMK AO2 SLP151 T02060133=
201108292153 METAR KBLI 292153Z 19007G16KT 160V230 10SM SCT025 20/13 A2997 RMK AO2 SLP153 T02000133=
201108292105 SPECI KBLI 292105Z 17010G16KT 10SM SCT025 19/13 A2998 RMK AO2=
201108292105 SPECI KBLI 292105Z 17010G16KT 10SM SCT025 19/13 A2998 RMK AO2=
201108292053 METAR KBLI 292053Z 16009KT 10SM BKN025 19/13 A2998 RMK AO2 SLP158 T01940133 51002=
201108291953 METAR KBLI 291953Z 17007G16KT 10SM OVC026 18/13 A2998 RMK AO2 SLP158 T01830133=
201108291853 METAR KBLI 291853Z 16011G19KT 10SM BKN021 19/13 A2998 RMK AO2 SLP157 T01890128=
201108291753 METAR KBLI 291753Z 18009KT 10SM BKN017 18/13 A2998 RMK AO2 SLP157 T01830133 10183 20139 50002=
201108291746 SPECI KBLI 291746Z 17009KT 10SM BKN017 18/13 A2998 RMK AO2=
201108291746 SPECI KBLI 291746Z 17009KT 10SM BKN017 18/13 A2998 RMK AO2=
201108291737 SPECI KBLI 291737Z 17010KT 10SM SCT017 18/13 A2998 RMK AO2=
201108291737 SPECI KBLI 291737Z 17010KT 10SM SCT017 18/13 A2998 RMK AO2=
201108291653 METAR KBLI 291653Z 17007KT 10SM SCT012 BKN019 OVC024 16/13 A2999 RMK AO2 SLP162 T01560133=
201108291620 SPECI KBLI 291620Z 17011G18KT 10SM FEW008 BKN017 OVC021 16/13 A2998 RMK AO2=
201108291620 SPECI KBLI 291620Z 17011G18KT 10SM FEW008 BKN017 OVC021 16/13 A2998 RMK AO2=
201108291553 METAR KBLI 291553Z 16014KT 10SM OVC015 16/13 A2997 RMK AO2 SLP155 T01610133=
201108291548 SPECI KBLI 291548Z 16011G22KT 10SM OVC015 16/13 A2997 RMK AO2=
201108291548 SPECI KBLI 291548Z 16011G22KT 10SM OVC015 16/13 A2997 RMK AO2=
201108291453 METAR KBLI 291453Z 17016G21KT 10SM FEW005 OVC011 16/13 A2995 RMK AO2 SLP147 T01560128 52004=
201108291449 SPECI KBLI 291449Z 17013G21KT 10SM SCT005 OVC011 16/13 A2994 RMK AO2=
201108291449 SPECI KBLI 291449Z 17013G21KT 10SM SCT005 OVC011 16/13 A2994 RMK AO2=
201108291353 METAR KBLI 291353Z 16012G20KT 10SM BKN005 OVC013 14/13 A2994 RMK AO2 SLP144 T01440128 $=
201108291345 SPECI KBLI 291345Z 17011G18KT 10SM BKN005 OVC015 14/13 A2994 RMK AO2 $=
201108291345 SPECI KBLI 291345Z 17011G18KT 10SM BKN005 OVC015 14/13 A2994 RMK AO2 $=
201108291321 SPECI KBLI 291321Z AUTO 17013G21KT 10SM SCT005 BKN015 14/13 A2994 RMK AO2 TSNO $=
201108291321 SPECI KBLI 291321Z AUTO 17013G21KT 10SM SCT005 BKN015 14/13 A2994 RMK AO2 TSNO $=
201108291300 SPECI KBLI 291300Z AUTO 17014G19KT 10SM FEW005 14/13 A2993 RMK AO2 TSNO $=
201108291300 SPECI KBLI 291300Z AUTO 17014G19KT 10SM FEW005 14/13 A2993 RMK AO2 TSNO $=
201108291253 METAR KBLI 291253Z AUTO 16013G19KT 10SM CLR 14/13 A2993 RMK AO2 SLP141 T01440128 TSNO $=
201108291153 METAR KBLI 291153Z AUTO 17010KT 10SM CLR 15/13 A2993 RMK AO2 SLP139 T01500128 10189 20144 53009 TSNO $=
201108291053 METAR KBLI 291053Z AUTO 17011G18KT 10SM CLR 15/13 A2992 RMK AO2 SLP135 T01500128 TSNO $=
201108290953 METAR KBLI 290953Z AUTO 17012G18KT 10SM CLR 16/12 A2990 RMK AO2 SLP131 T01610122 TSNO $=
201108290853 METAR KBLI 290853Z AUTO 17013G19KT 10SM CLR 16/13 A2990 RMK AO2 SLP130 T01560128 51006 TSNO $=
201108290753 METAR KBLI 290753Z AUTO 17013G18KT 10SM CLR 18/11 A2990 RMK AO2 SLP130 T01830106 402560111 TSNO $=
201108290653 METAR KBLI 290653Z AUTO 17006KT 10SM CLR 18/13 A2989 RMK AO2 SLP126 T01780128 TSNO $=
201108290553 METAR KBLI 290553Z AUTO 17009KT 10SM CLR 18/13 A2988 RMK AO2 SLP125 T01780133 10256 20178 58001 TSNO $=
201108290453 METAR KBLI 290453Z 17005KT 10SM CLR 18/14 A2989 RMK AO2 SLP127 T01830139 $=
201108290353 METAR KBLI 290353Z 17008KT 10SM CLR 19/13 A2989 RMK AO2 SLP127 T01890133 $=
201108290253 METAR KBLI 290253Z 18007KT 10SM CLR 19/14 A2989 RMK AO2 SLP127 T01890139 56004 $=
201108290153 METAR KBLI 290153Z 17005KT 10SM CLR 22/14 A2989 RMK AO2 SLP127 T02170144 $=
201108290053 METAR KBLI 290053Z 18004KT 10SM CLR 24/14 A2990 RMK AO2 SLP129 T02390139 $=
201108282353 METAR KBLI 282353Z 00000KT 10SM CLR 25/14 A2990 RMK AO2 SLP130 T02500139 10256 20161 58017 $=
201108282253 METAR KBLI 282253Z 00000KT 10SM CLR 26/14 A2992 RMK AO2 SLP137 T02560144 $=
201108282153 METAR KBLI 282153Z 26005KT 10SM CLR 24/14 A2994 RMK AO2 SLP144 T02440144 $=
201108282053 SPECI KBLI 282053Z 30005KT 10SM CLR 24/15 A2995 RMK AO2 SLP148 T02390150 58021 $=
201108281953 METAR KBLI 281953Z 21005KT 10SM CLR 23/14 A2997 RMK AO2 SLP155 T02330144 $=
201108281853 METAR KBLI 281853Z 26003KT 10SM CLR 21/13 A3000 RMK AO2 SLP164 T02110133 $=
201108281809 SPECI KBLI 281809Z 00000KT 10SM SCT003 17/14 A3001 RMK AO2 $=
201108281809 SPECI KBLI 281809Z 00000KT 10SM SCT003 17/14 A3001 RMK AO2 $=
201108281807 SPECI KBLI 281807Z 00000KT 2SM HZ BKN003 17/14 A3001 RMK AO2 $=
201108281807 SPECI KBLI 281807Z 00000KT 2SM HZ BKN003 17/14 A3001 RMK AO2 $=
201108281800 SPECI KBLI 281800Z 00000KT 9SM HZ BKN003 17/14 A3001 RMK AO2 $=
201108281800 SPECI KBLI 281800Z 00000KT 9SM HZ BKN003 17/14 A3001 RMK AO2 $=
201108281753 METAR KBLI 281753Z 17003KT 3/4SM R16/P6000FT HZ OVC003 17/14 A3001 RMK AO2 SLP169 T01670139 10167 20111 56004 $=
201108281748 SPECI KBLI 281748Z 16003KT 3/4SM R16/4000VP6000FT BR OVC003 16/14 A3001 RMK AO2 $=
201108281748 SPECI KBLI 281748Z 16003KT 3/4SM R16/4000VP6000FT BR OVC003 16/14 A3001 RMK AO2 $=
201108281702 SPECI KBLI 281702Z 18005KT 3/4SM R16/3500VP6000FT BR VV001 15/13 A3002 RMK AO2 $=
201108281702 SPECI KBLI 281702Z 18005KT 3/4SM R16/3500VP6000FT BR VV001 15/13 A3002 RMK AO2 $=
201108281653 METAR KBLI 281653Z VRB04KT 3/4SM R16/6000VP6000FT BR OVC003 15/13 A3002 RMK AO2 SLP173 T01500133 $=
201108281628 SPECI KBLI 281628Z 20003KT 3/4SM R16/P6000FT BR OVC003 15/13 A3003 RMK AO2 $=
201108281628 SPECI KBLI 281628Z 20003KT 3/4SM R16/P6000FT BR OVC003 15/13 A3003 RMK AO2 $=
201108281617 SPECI KBLI 281617Z 18003KT 3/4SM R16/4000VP6000FT BR OVC001 14/13 A3003 RMK AO2 $=
201108281617 SPECI KBLI 281617Z 18003KT 3/4SM R16/4000VP6000FT BR OVC001 14/13 A3003 RMK AO2 $=
201108281608 SPECI KBLI 281608Z 17005KT 1 3/4SM R16/2600VP6000FT BR OVC001 14/13 A3003 RMK AO2 $=
201108281608 SPECI KBLI 281608Z 17005KT 1 3/4SM R16/2600VP6000FT BR OVC001 14/13 A3003 RMK AO2 $=
201108281600 SPECI KBLI 281600Z 16005KT 4SM R16/4500VP6000FT BR OVC001 14/13 A3003 RMK AO2 $=
201108281600 SPECI KBLI 281600Z 16005KT 4SM R16/4500VP6000FT BR OVC001 14/13 A3003 RMK AO2 $=
201108281553 METAR KBLI 281553Z VRB03KT 3/4SM R16/P6000FT BR OVC001 14/13 A3003 RMK AO2 SLP173 T01440133 $=
201108281504 SPECI KBLI 281504Z 16004KT 3/4SM R16/4500VP6000FT BR OVC001 13/12 A3003 RMK AO2 $=
201108281504 SPECI KBLI 281504Z 16004KT 3/4SM R16/4500VP6000FT BR OVC001 13/12 A3003 RMK AO2 $=
201108281457 SPECI KBLI 281457Z 00000KT 2SM R16/2600VP6000FT BR OVC001 13/12 A3003 RMK AO2 VIS 1 1/4V4 $=
201108281457 SPECI KBLI 281457Z 00000KT 2SM R16/2600VP6000FT BR OVC001 13/12 A3003 RMK AO2 VIS 1 1/4V4 $=
201108281453 METAR KBLI 281453Z 00000KT 1/2SM R16/2600V5000FT FG OVC001 13/12 A3003 RMK AO2 SLP174 T01330122 53001 $=
201108281446 SPECI KBLI 281446Z 00000KT 3/4SM R16/2600V4500FT BR VV001 13/12 A3003 RMK AO2 $=
201108281446 SPECI KBLI 281446Z 00000KT 3/4SM R16/2600V4500FT BR VV001 13/12 A3003 RMK AO2 $=
201108281417 SPECI KBLI 281417Z 17003KT 1/2SM R16/1400V4500FT FG VV001 13/12 A3003 RMK AO2 $=
201108281417 SPECI KBLI 281417Z 17003KT 1/2SM R16/1400V4500FT FG VV001 13/12 A3003 RMK AO2 $=
201108281400 SPECI KBLI 281400Z 16005KT 1/4SM R16/1400V1800FT FG VV001 13/12 A3003 RMK AO2 $=
201108281400 SPECI KBLI 281400Z 16005KT 1/4SM R16/1400V1800FT FG VV001 13/12 A3003 RMK AO2 $=
201108281353 METAR KBLI 281353Z 16006KT 1/4SM R16/1400V2400FT FG VV001 13/12 A3003 RMK AO2 SLP174 T01330122 $=
201108281338 SPECI KBLI 281338Z AUTO 18005KT 1/2SM R16/1800V5500FT FG VV001 13/12 A3002 RMK AO2 TSNO $=
201108281338 SPECI KBLI 281338Z AUTO 18005KT 1/2SM R16/1800V5500FT FG VV001 13/12 A3002 RMK AO2 TSNO $=
201108281326 SPECI KBLI 281326Z AUTO 18003KT 1 1/4SM R16/2400V5000FT BR OVC001 13/12 A3002 RMK AO2 TSNO $=
201108281326 SPECI KBLI 281326Z AUTO 18003KT 1 1/4SM R16/2400V5000FT BR OVC001 13/12 A3002 RMK AO2 TSNO $=
201108281311 SPECI KBLI 281311Z AUTO 18005KT 3/4SM R16/1800V2800FT BR VV001 13/12 A3002 RMK AO2 TSNO $=
201108281311 SPECI KBLI 281311Z AUTO 18005KT 3/4SM R16/1800V2800FT BR VV001 13/12 A3002 RMK AO2 TSNO $=
201108281307 SPECI KBLI 281307Z AUTO 18005KT 1/2SM R16/1800V2200FT FG VV001 13/12 A3002 RMK AO2 TSNO $=
201108281307 SPECI KBLI 281307Z AUTO 18005KT 1/2SM R16/1800V2200FT FG VV001 13/12 A3002 RMK AO2 TSNO $=
201108281303 SPECI KBLI 281303Z AUTO 18005KT 3/4SM R16/1800V3500FT BR VV001 13/12 A3002 RMK AO2 TSNO $=
201108281303 SPECI KBLI 281303Z AUTO 18005KT 3/4SM R16/1800V3500FT BR VV001 13/12 A3002 RMK AO2 TSNO $=
201108281259 SPECI KBLI 281259Z AUTO 18005KT 1 1/2SM R16/2200VP6000FT BR BKN002 13/12 A3002 RMK AO2 TSNO $=
201108281259 SPECI KBLI 281259Z AUTO 18005KT 1 1/2SM R16/2200VP6000FT BR BKN002 13/12 A3002 RMK AO2 TSNO $=
201108281253 METAR KBLI 281253Z AUTO 17004KT 10SM R16/4500VP6000FT FEW002 12/11 A3002 RMK AO2 SLP173 T01170106 TSNO $=
201108281239 SPECI KBLI 281239Z AUTO 00000KT 3SM BR CLR 12/11 A3002 RMK AO2 TSNO $=
201108281239 SPECI KBLI 281239Z AUTO 00000KT 3SM BR CLR 12/11 A3002 RMK AO2 TSNO $=
201108281236 SPECI KBLI 281236Z AUTO 00000KT 1 1/2SM BR CLR 12/11 A3002 RMK AO2 TSNO $=
201108281236 SPECI KBLI 281236Z AUTO 00000KT 1 1/2SM BR CLR 12/11 A3002 RMK AO2 TSNO $=
201108281227 SPECI KBLI 281227Z AUTO 00000KT 2SM BR CLR 11/10 A3002 RMK AO2 VIS 1V5 TSNO $=
201108281227 SPECI KBLI 281227Z AUTO 00000KT 2SM BR CLR 11/10 A3002 RMK AO2 VIS 1V5 TSNO $=
201108281153 METAR KBLI 281153Z AUTO 00000KT 10SM CLR 12/11 A3003 RMK AO2 SLP174 70001 T01220111 10161 20122 58002 TSNO $=
201108281053 METAR KBLI 281053Z AUTO 19004KT 10SM FEW100 14/12 A3003 RMK AO2 SLP174 T01390122 TSNO $=
201108280953 METAR KBLI 280953Z AUTO VRB03KT 10SM CLR 14/13 A3003 RMK AO2 SLP176 T01440128 TSNO $=
201108280853 METAR KBLI 280853Z AUTO 17005KT 10SM CLR 15/13 A3003 RMK AO2 SLP176 T01500128 53003 TSNO $=
201108280753 METAR KBLI 280753Z AUTO 18004KT 10SM CLR 15/13 A3003 RMK AO2 SLP175 T01500128 402280144 TSNO $=
201108280653 METAR KBLI 280653Z AUTO 18005KT 10SM CLR 16/12 A3002 RMK AO2 SLP173 T01560122 TSNO $=
201108280553 METAR KBLI 280553Z AUTO 17004KT 10SM CLR 16/12 A3002 RMK AO2 SLP172 T01610117 10222 20161 50006 TSNO $=
201108280453 METAR KBLI 280453Z 17003KT 10SM CLR 17/11 A3002 RMK AO2 SLP173 T01670111 $=
201108280353 METAR KBLI 280353Z 19003KT 10SM CLR 17/12 A3002 RMK AO2 SLP171 T01670117 $=
201108280253 METAR KBLI 280253Z 00000KT 10SM CLR 18/12 A3000 RMK AO2 SLP166 T01780117 56009 $=
201108280153 METAR KBLI 280153Z 18003KT 10SM CLR 21/12 A3001 RMK AO2 SLP167 T02060117 $=
201108280053 METAR KBLI 280053Z 17007KT 10SM CLR 22/12 A3002 RMK AO2 SLP170 T02170122 $=
201108272353 METAR KBLI 272353Z 17005KT 10SM CLR 22/12 A3003 RMK AO2 SLP176 T02170117 10228 20172 58012 $=
201108272253 METAR KBLI 272253Z 16007KT 10SM CLR 22/12 A3005 RMK AO2 SLP179 T02220122 $=
201108272153 METAR KBLI 272153Z 18009KT 10SM CLR 21/13 A3006 RMK AO2 SLP184 T02110133 $=
201108272053 METAR KBLI 272053Z 18012G16KT 140V220 10SM CLR 20/13 A3007 RMK AO2 SLP187 T02000133 55001 $=
201108271953 METAR KBLI 271953Z 18011G16KT 10SM CLR 19/13 A3006 RMK AO2 SLP186 T01890133 $=
201108271853 METAR KBLI 271853Z VRB06KT 10SM CLR 18/13 A3007 RMK AO2 SLP188 T01830133 $=
201108271753 METAR KBLI 271753Z 17007KT 10SM CLR 17/13 A3007 RMK AO2 SLP188 60001 T01670128 10172 20144 53008 $=
201108271653 METAR KBLI 271653Z VRB06KT 10SM CLR 17/13 A3006 RMK AO2 SLP186 T01720133 $=
201108271553 METAR KBLI 271553Z 16005KT 10SM CLR 16/13 A3005 RMK AO2 SLP182 P0001 T01560128 $=
201108271453 METAR KBLI 271453Z 17006KT 10SM CLR 15/13 A3005 RMK AO2 SLP180 T01500128 53012 $=
201108271353 METAR KBLI 271353Z AUTO 20003KT 10SM CLR 15/13 A3003 RMK AO2 SLP175 T01500128 TSNO $=
201108271253 METAR KBLI 271253Z AUTO VRB03KT 10SM CLR 15/13 A3002 RMK AO2 SLP171 T01500128 TSNO $=
201108271153 METAR KBLI 271153Z AUTO 18004KT 10SM CLR 15/13 A3001 RMK AO2 SLP168 T01500128 10167 20150 53003 $=
201108271053 METAR KBLI 271053Z AUTO 19003KT 10SM CLR 15/14 A3001 RMK AO2 SLP166 T01500139 $=
201108270953 METAR KBLI 270953Z AUTO 16005KT 10SM CLR 16/14 A3000 RMK AO2 SLP164 T01610144 $=
201108270853 METAR KBLI 270853Z AUTO 00000KT 10SM CLR 16/14 A3000 RMK AO2 SLP165 T01610144 53006 $=
201108270753 METAR KBLI 270753Z AUTO 19003KT 10SM CLR 17/15 A2999 RMK AO2 SLP161 T01670150 402610117 $=
201108270653 METAR KBLI 270653Z AUTO 00000KT 10SM CLR 17/15 A2999 RMK AO2 SLP159 T01670150 $=
201108270553 METAR KBLI 270553Z 16003KT 10SM FEW100 16/13 A2999 RMK AO2 SLP159 T01560133 10261 20144 51006 $=
201108270453 METAR KBLI 270453Z 00000KT 10SM CLR 16/14 A2999 RMK AO2 SLP160 T01610139 $=
201108270353 METAR KBLI 270353Z 00000KT 10SM CLR 17/14 A2998 RMK AO2 SLP157 T01670144 $=
201108270253 METAR KBLI 270253Z 18003KT 10SM CLR 19/15 A2997 RMK AO2 SLP154 T01940150 56004 $=
201108270153 METAR KBLI 270153Z 27004KT 10SM CLR 23/14 A2997 RMK AO2 SLP154 T02330144 $=
201108270053 METAR KBLI 270053Z 27004KT 10SM CLR 26/14 A2998 RMK AO2 SLP156 T02560144 $=
201108262353 METAR KBLI 262353Z VRB06KT 10SM CLR 26/16 A2998 RMK AO2 SLP157 T02560156 10261 20217 56014 $=
201108262253 METAR KBLI 262253Z 24006KT 10SM CLR 26/15 A2999 RMK AO2 SLP161 T02610150=
201108262153 METAR KBLI 262153Z VRB05KT 10SM CLR 25/16 A3001 RMK AO2 SLP167 T02500156=
201108262053 METAR KBLI 262053Z VRB05KT 10SM CLR 24/16 A3002 RMK AO2 SLP171 T02440161 56006=
201108261953 METAR KBLI 261953Z 27004KT 10SM CLR 24/17 A3003 RMK AO2 SLP172 T02440167=
201108261853 METAR KBLI 261853Z 29004KT 10SM CLR 24/16 A3003 RMK AO2 SLP174 T02390161=
201108261753 METAR KBLI 261753Z 00000KT 10SM CLR 22/16 A3004 RMK AO2 SLP177 T02220156 10222 20117 50001=
201108261653 METAR KBLI 261653Z 00000KT 10SM FEW007 19/16 A3004 RMK AO2 SLP179 T01940156=
201108261553 METAR KBLI 261553Z 00000KT 10SM FEW007 18/16 A3004 RMK AO2 SLP176 T01830161=
201108261500 SPECI KBLI 261500Z 00000KT 10SM R16/1000V2400FT FEW001 16/14 A3004 RMK AO2=
201108261500 SPECI KBLI 261500Z 00000KT 10SM R16/1000V2400FT FEW001 16/14 A3004 RMK AO2=
201108261455 SPECI KBLI 261455Z 00000KT 1/4SM R16/1000V2000FT FG SCT001 OVC006 15/14 A3004 RMK AO2=
201108261455 SPECI KBLI 261455Z 00000KT 1/4SM R16/1000V2000FT FG SCT001 OVC006 15/14 A3004 RMK AO2=
201108261453 METAR KBLI 261453Z 00000KT 10SM R16/1200V4500FT SCT001 15/14 A3004 RMK AO2 SLP177 T01500144 53010=
201108261406 SPECI KBLI 261406Z 00000KT 10SM R16/0700VP6000FT SCT001 13/12 A3003 RMK AO2=
201108261406 SPECI KBLI 261406Z 00000KT 10SM R16/0700VP6000FT SCT001 13/12 A3003 RMK AO2=
201108261353 METAR KBLI 261353Z AUTO 00000KT 1/4SM R16/1800VP6000FT FG FEW001 OVC005 13/12 A3003 RMK AO2 SLP174 T01280122=
201108261303 SPECI KBLI 261303Z AUTO 00000KT 1/4SM R16/1400VP6000FT FG VV009 13/12 A3001 RMK AO2=
201108261303 SPECI KBLI 261303Z AUTO 00000KT 1/4SM R16/1400VP6000FT FG VV009 13/12 A3001 RMK AO2=
201108261300 SPECI KBLI 261300Z AUTO 00000KT 1/4SM R16/1400VP6000FT FG SCT006 BKN015 12/12 A3001 RMK AO2=
201108261300 SPECI KBLI 261300Z AUTO 00000KT 1/4SM R16/1400VP6000FT FG SCT006 BKN015 12/12 A3001 RMK AO2=
201108261253 METAR KBLI 261253Z AUTO 00000KT 1/2SM R16/1600V5500FT FG SCT006 BKN070 12/12 A3001 RMK AO2 SLP168 T01220117=
201108261247 SPECI KBLI 261247Z AUTO 00000KT 3/4SM R16/1800VP6000FT BR FEW006 SCT075 12/12 A3001 RMK AO2 VIS 1/2V5=
201108261247 SPECI KBLI 261247Z AUTO 00000KT 3/4SM R16/1800VP6000FT BR FEW006 SCT075 12/12 A3001 RMK AO2 VIS 1/2V5=
201108261242 SPECI KBLI 261242Z AUTO 00000KT 1 3/4SM R16/1600V5000FT BR FEW085 13/12 A3001 RMK AO2 VIS 1/2V5=
201108261242 SPECI KBLI 261242Z AUTO 00000KT 1 3/4SM R16/1600V5000FT BR FEW085 13/12 A3001 RMK AO2 VIS 1/2V5=
201108261218 SPECI KBLI 261218Z AUTO 00000KT 5SM R16/1600VP6000FT BR FEW001 13/12 A3001 RMK AO2=
201108261218 SPECI KBLI 261218Z AUTO 00000KT 5SM R16/1600VP6000FT BR FEW001 13/12 A3001 RMK AO2=
201108261211 SPECI KBLI 261211Z AUTO 00000KT 3SM R16/3500VP6000FT BR FEW100 13/12 A3001 RMK AO2=
201108261211 SPECI KBLI 261211Z AUTO 00000KT 3SM R16/3500VP6000FT BR FEW100 13/12 A3001 RMK AO2=
201108261157 SPECI KBLI 261157Z AUTO 00000KT 1 1/2SM BR FEW085 13/12 A3000 RMK AO2=
201108261157 SPECI KBLI 261157Z AUTO 00000KT 1 1/2SM BR FEW085 13/12 A3000 RMK AO2=
201108261153 METAR KBLI 261153Z AUTO 00000KT 9SM FEW070 13/12 A3001 RMK AO2 SLP165 60001 70001 T01280122 10172 20128 53005=
201108261053 METAR KBLI 261053Z AUTO 00000KT 10SM CLR 13/12 A3000 RMK AO2 SLP164 P0001 T01330122=
201108261039 SPECI KBLI 261039Z AUTO 00000KT 3SM R16/5000VP6000FT BR FEW009 13/13 A3000 RMK AO2=
201108261039 SPECI KBLI 261039Z AUTO 00000KT 3SM R16/5000VP6000FT BR FEW009 13/13 A3000 RMK AO2=
201108261035 SPECI KBLI 261035Z AUTO 00000KT 1SM R16/4000VP6000FT BR FEW009 SCT019 13/13 A3000 RMK AO2=
201108261035 SPECI KBLI 261035Z AUTO 00000KT 1SM R16/4000VP6000FT BR FEW009 SCT019 13/13 A3000 RMK AO2=
201108261030 SPECI KBLI 261030Z AUTO 00000KT 1/2SM R16/4000VP6000FT FG FEW009 SCT017 BKN065 13/13 A3000 RMK AO2=
201108261030 SPECI KBLI 261030Z AUTO 00000KT 1/2SM R16/4000VP6000FT FG FEW009 SCT017 BKN065 13/13 A3000 RMK AO2=
201108261022 SPECI KBLI 261022Z AUTO 00000KT 3/4SM R16/3000VP6000FT BR SCT007 SCT065 13/13 A3000 RMK AO2=
201108261022 SPECI KBLI 261022Z AUTO 00000KT 3/4SM R16/3000VP6000FT BR SCT007 SCT065 13/13 A3000 RMK AO2=
201108261019 SPECI KBLI 261019Z AUTO 00000KT 3/4SM R16/3000VP6000FT BR VV010 13/12 A3000 RMK AO2=
201108261019 SPECI KBLI 261019Z AUTO 00000KT 3/4SM R16/3000VP6000FT BR VV010 13/12 A3000 RMK AO2=
201108261016 SPECI KBLI 261016Z AUTO 00000KT 1/2SM R16/3000VP6000FT FG VV009 13/12 A2999 RMK AO2=
201108261016 SPECI KBLI 261016Z AUTO 00000KT 1/2SM R16/3000VP6000FT FG VV009 13/12 A2999 RMK AO2=
201108261010 SPECI KBLI 261010Z AUTO 00000KT 1/2SM R16/5000VP6000FT FG FEW001 SCT008 13/13 A2999 RMK AO2=
201108261010 SPECI KBLI 261010Z AUTO 00000KT 1/2SM R16/5000VP6000FT FG FEW001 SCT008 13/13 A2999 RMK AO2=
201108261005 SPECI KBLI 261005Z AUTO 00000KT 3/4SM R16/P6000FT BR VV008 13/13 A2999 RMK AO2=
201108261005 SPECI KBLI 261005Z AUTO 00000KT 3/4SM R16/P6000FT BR VV008 13/13 A2999 RMK AO2=
201108261002 SPECI KBLI 261002Z AUTO 00000KT 1 3/4SM BR FEW008 13/13 A2999 RMK AO2=
201108261002 SPECI KBLI 261002Z AUTO 00000KT 1 3/4SM BR FEW008 13/13 A2999 RMK AO2=
201108260953 METAR KBLI 260953Z AUTO 00000KT 4SM R16/4000VP6000FT BR CLR 14/13 A2999 RMK AO2 SLP160 T01390128=
201108260951 SPECI KBLI 260951Z AUTO 00000KT 4SM R16/4000VP6000FT BR CLR 14/13 A2999 RMK AO2=
201108260951 SPECI KBLI 260951Z AUTO 00000KT 4SM R16/4000VP6000FT BR CLR 14/13 A2999 RMK AO2=
201108260933 SPECI KBLI 260933Z AUTO 00000KT 1 1/2SM BR CLR 14/13 A2999 RMK AO2 VIS 3/4V5=
201108260933 SPECI KBLI 260933Z AUTO 00000KT 1 1/2SM BR CLR 14/13 A2999 RMK AO2 VIS 3/4V5=
201108260853 METAR KBLI 260853Z AUTO 00000KT 10SM CLR 16/14 A3000 RMK AO2 SLP163 T01560139 50002=
201108260753 METAR KBLI 260753Z AUTO 18003KT 10SM FEW090 16/15 A3001 RMK AO2 SLP166 T01610150 402500128=
201108260653 METAR KBLI 260653Z AUTO 17003KT 10SM CLR 17/15 A3000 RMK AO2 SLP164 T01670150=
201108260553 METAR KBLI 260553Z AUTO 00000KT 10SM CLR 16/14 A2999 RMK AO2 SLP162 T01610144 10244 20156 51009=
201108260453 METAR KBLI 260453Z 00000KT 10SM CLR 17/15 A2999 RMK AO2 SLP161 T01670150=
201108260353 METAR KBLI 260353Z 00000KT 10SM FEW100 17/15 A2998 RMK AO2 SLP157 T01720150=
201108260253 METAR KBLI 260253Z 00000KT 10SM CLR 20/16 A2997 RMK AO2 SLP153 T02000156 55003=
201108260153 METAR KBLI 260153Z 00000KT 10SM CLR 23/16 A2996 RMK AO2 SLP150 T02280156=
201108260053 METAR KBLI 260053Z 28003KT 10SM CLR 24/16 A2997 RMK AO2 SLP153 T02440156=
201108252353 METAR KBLI 252353Z 25004KT 10SM CLR 24/15 A2998 RMK AO2 SLP155 T02440150 10250 20194 58007=
201108252253 METAR KBLI 252253Z VRB04KT 10SM CLR 24/16 A2998 RMK AO2 SLP157 T02440156=
201108252153 METAR KBLI 252153Z 27006KT 10SM CLR 24/16 A2999 RMK AO2 SLP161 T02390156=
201108252053 METAR KBLI 252053Z 28006KT 10SM CLR 23/16 A3000 RMK AO2 SLP162 T02280161 56006=
201108251953 METAR KBLI 251953Z VRB06KT 10SM CLR 23/17 A3000 RMK AO2 SLP162 T02330167=
201108251853 METAR KBLI 251853Z 17004KT 10SM CLR 22/17 A3000 RMK AO2 SLP165 T02170167=
201108251834 SPECI KBLI 251834Z VRB03KT 10SM SCT012 21/17 A3001 RMK AO2=
201108251834 SPECI KBLI 251834Z VRB03KT 10SM SCT012 21/17 A3001 RMK AO2=
201108251822 SPECI KBLI 251822Z 00000KT 10SM BKN010 20/16 A3001 RMK AO2=
201108251822 SPECI KBLI 251822Z 00000KT 10SM BKN010 20/16 A3001 RMK AO2=
201108251753 METAR KBLI 251753Z 00000KT 3SM HZ OVC009 19/16 A3001 RMK AO2 CIG 007V011 SLP169 T01940161 10194 20128 53006=
201108251702 SPECI KBLI 251702Z 00000KT 6SM BR OVC005 18/17 A3001 RMK AO2 CIG 004V009=
201108251702 SPECI KBLI 251702Z 00000KT 6SM BR OVC005 18/17 A3001 RMK AO2 CIG 004V009=
201108251653 METAR KBLI 251653Z 00000KT 3SM BR OVC003 18/16 A3000 RMK AO2 SLP166 T01780161=
201108251622 SPECI KBLI 251622Z 00000KT 3SM BR OVC003 18/16 A3000=
201108251622 SPECI KBLI 251622Z 00000KT 3SM BR OVC003 18/16 A3000 RMK AO2=
201108251553 METAR KBLI 251553Z 00000KT 2SM BR OVC002 18/17 A3000 RMK AO2 SLP163 T01780167=
201108251551 SPECI KBLI 251551Z 00000KT 2SM BR OVC002 17/17 A3000 RMK AO2=
201108251551 SPECI KBLI 251551Z 00000KT 2SM BR OVC002 17/17 A3000 RMK AO2=
201108251533 SPECI KBLI 251533Z 00000KT 3/4SM R16/1600VP6000FT BR VV001 17/17 A2999 RMK AO2=
201108251533 SPECI KBLI 251533Z 00000KT 3/4SM R16/1600VP6000FT BR VV001 17/17 A2999 RMK AO2=
201108251504 SPECI KBLI 251504Z 00000KT 1/4SM R16/1400V1600FT FG VV001 17/16 A2999 RMK AO2=
201108251504 SPECI KBLI 251504Z 00000KT 1/4SM R16/1400V1600FT FG VV001 17/16 A2999 RMK AO2=
201108251453 METAR KBLI 251453Z 00000KT 1/2SM R16/1600V2400FT FG OVC001 17/16 A2999 RMK AO2 SLP161 T01670161 53015=
201108251430 SPECI KBLI 251430Z 00000KT 3/4SM R16/4500VP6000FT BR OVC001 16/15 A2999 RMK AO2=
201108251430 SPECI KBLI 251430Z 00000KT 3/4SM R16/4500VP6000FT BR OVC001 16/15 A2999 RMK AO2=
201108251423 SPECI KBLI 251423Z 00000KT 8SM BKN004 16/15 A2998 RMK AO2 CIG 002V006 VIS SE-SW 2 BR=
201108251423 SPECI KBLI 251423Z 00000KT 8SM BKN004 16/15 A2998 RMK AO2 CIG 002V006 VIS SE-SW 2 BR=
201108251413 SPECI KBLI 251413Z 00000KT 10SM BKN006 16/14 A2998 RMK AO2 VIS SE-SW 2 BR=
201108251413 SPECI KBLI 251413Z 00000KT 10SM BKN006 16/14 A2998 RMK AO2 VIS SE-SW 2 BR=
201108251402 SPECI KBLI 251402Z 00000KT 10SM SCT006 14/14 A2998 RMK AO2=
201108251402 SPECI KBLI 251402Z 00000KT 10SM SCT006 14/14 A2998 RMK AO2=
201108251353 METAR KBLI 251353Z 00000KT 10SM CLR 14/13 A2998 RMK AO2 SLP157 CIG VSBY LWR S-SW T01390133=
201108251344 SPECI KBLI 251344Z AUTO 00000KT 3SM BR CLR 14/13 A2997 RMK AO2=
201108251344 SPECI KBLI 251344Z AUTO 00000KT 3SM BR CLR 14/13 A2997 RMK AO2=
201108251317 SPECI KBLI 251317Z AUTO 00000KT 1SM R16/P6000FT BR CLR 13/12 A2997 RMK AO2=
201108251317 SPECI KBLI 251317Z AUTO 00000KT 1SM R16/P6000FT BR CLR 13/12 A2997 RMK AO2=
201108251310 SPECI KBLI 251310Z AUTO 00000KT 1/2SM R16/P6000FT FG CLR 13/12 A2997 RMK AO2=
201108251310 SPECI KBLI 251310Z AUTO 00000KT 1/2SM R16/P6000FT FG CLR 13/12 A2997 RMK AO2=
201108251305 SPECI KBLI 251305Z AUTO 00000KT 1 3/4SM BR CLR 13/12 A2997 RMK AO2=
201108251305 SPECI KBLI 251305Z AUTO 00000KT 1 3/4SM BR CLR 13/12 A2997 RMK AO2=
201108251253 METAR KBLI 251253Z AUTO 00000KT 10SM CLR 14/13 A2996 RMK AO2 SLP152 T01390128=
201108251230 SPECI KBLI 251230Z AUTO 00000KT 4SM R16/4000VP6000FT BR FEW090 13/13 A2996 RMK AO2=
201108251230 SPECI KBLI 251230Z AUTO 00000KT 4SM R16/4000VP6000FT BR FEW090 13/13 A2996 RMK AO2=
201108251219 SPECI KBLI 251219Z AUTO 00000KT 1 3/4SM R16/4500VP6000FT BR CLR 14/13 A2996 RMK AO2 VIS 3/4V5=
201108251219 SPECI KBLI 251219Z AUTO 00000KT 1 3/4SM R16/4500VP6000FT BR CLR 14/13 A2996 RMK AO2 VIS 3/4V5=
201108251202 SPECI KBLI 251202Z AUTO 00000KT 3SM BR CLR 14/13 A2995 RMK AO2=
201108251202 SPECI KBLI 251202Z AUTO 00000KT 3SM BR CLR 14/13 A2995 RMK AO2=
201108251153 METAR KBLI 251153Z AUTO 00000KT 1 1/4SM BR CLR 14/13 A2995 RMK AO2 SLP146 T01440133 10178 20133 53004=
201108251151 SPECI KBLI 251151Z AUTO 00000KT 1 3/4SM BR CLR 14/13 A2995 RMK AO2=
201108251151 SPECI KBLI 251151Z AUTO 00000KT 1 3/4SM BR CLR 14/13 A2995 RMK AO2=
201108251053 METAR KBLI 251053Z AUTO 00000KT 4SM BR CLR 15/14 A2994 RMK AO2 SLP144 T01500139=
201108250953 METAR KBLI 250953Z AUTO 00000KT 10SM CLR 14/13 A2994 RMK AO2 SLP143 T01440133=
201108250853 METAR KBLI 250853Z AUTO 18003KT 10SM CLR 16/14 A2994 RMK AO2 SLP142 T01560139 53005=
201108250753 METAR KBLI 250753Z AUTO 00000KT 10SM CLR 16/14 A2993 RMK AO2 SLP139 T01560144 402560122=
201108250653 METAR KBLI 250653Z AUTO 00000KT 10SM CLR 17/15 A2993 RMK AO2 SLP140 T01670150=
201108250553 METAR KBLI 250553Z AUTO 00000KT 10SM CLR 17/15 A2992 RMK AO2 SLP138 T01670150 10228 20167 56005=
201108250453 METAR KBLI 250453Z 00000KT 10SM CLR 19/16 A2993 RMK AO2 SLP139 T01890156=
201108250353 METAR KBLI 250353Z 00000KT 10SM CLR 19/16 A2991 RMK AO2 SLP134 T01890156=
201108250253 METAR KBLI 250253Z 00000KT 10SM FEW065 21/16 A2994 RMK AO2 SLP144 T02110156 55002=
201108250153 METAR KBLI 250153Z 00000KT 10SM CLR 22/16 A2993 RMK AO2 SLP141 T02220161=
201108250053 METAR KBLI 250053Z 27006KT 10SM FEW075 22/16 A2994 RMK AO2 SLP143 T02220161=
201108242353 METAR KBLI 242353Z 26006KT 10SM CLR 23/16 A2994 RMK AO2 SLP146 T02280156 10256 20211 56011=
201108242253 METAR KBLI 242253Z 26006KT 10SM CLR 23/16 A2996 RMK AO2 SLP149 T02330156=
201108242153 METAR KBLI 242153Z 27006KT 10SM FEW080 24/16 A2996 RMK AO2 SLP151 T02440156=
201108242053 METAR KBLI 242053Z 30006KT 10SM CLR 25/16 A2998 RMK AO2 SLP156 T02500156 56011=
201108241953 METAR KBLI 241953Z VRB04KT 10SM CLR 24/16 A2998 RMK AO2 SLP157 T02440161=
201108241853 METAR KBLI 241853Z 31004KT 10SM CLR 24/16 A3000 RMK AO2 SLP165 T02390156=
201108241753 METAR KBLI 241753Z 29003KT 10SM CLR 21/14 A3001 RMK AO2 SLP168 T02110144 10217 20128 58001=
201108241653 METAR KBLI 241653Z 00000KT 10SM OVC080 20/15 A3001 RMK AO2 SLP169 T02000150=
201108241553 METAR KBLI 241553Z 00000KT 10SM OVC080 18/15 A3002 RMK AO2 SLP170 BINOVC N T01830150=
201108241453 METAR KBLI 241453Z 00000KT 10SM OVC080 16/14 A3001 RMK AO2 SLP169 T01560139 53006=
201108241353 METAR KBLI 241353Z 00000KT 10SM FEW075 13/12 A3000 RMK AO2 SLP166 T01280122=
201108241253 METAR KBLI 241253Z AUTO 00000KT 9SM CLR 13/13 A2999 RMK AO2 SLP163 T01330128=
201108241153 METAR KBLI 241153Z AUTO 00000KT 10SM BKN044 14/13 A3000 RMK AO2 SLP163 T01390128 10150 20122 50000=
201108241053 METAR KBLI 241053Z AUTO 00000KT 10SM OVC048 14/13 A3000 RMK AO2 SLP165 T01390128=
201108240958 SPECI KBLI 240958Z AUTO 00000KT 3SM BR CLR 13/12 A3000 RMK AO2=
201108240958 SPECI KBLI 240958Z AUTO 00000KT 3SM BR CLR 13/12 A3000 RMK AO2=
201108240953 METAR KBLI 240953Z AUTO 00000KT 1 1/2SM BR CLR 13/12 A3000 RMK AO2 SLP164 T01280117=
201108240950 SPECI KBLI 240950Z AUTO 00000KT 1 3/4SM BR CLR 13/12 A3000 RMK AO2=
201108240950 SPECI KBLI 240950Z AUTO 00000KT 1 3/4SM BR CLR 13/12 A3000 RMK AO2=
201108240853 METAR KBLI 240853Z AUTO 00000KT 10SM FEW085 14/13 A3000 RMK AO2 SLP164 T01390128 58001=
201108240753 METAR KBLI 240753Z AUTO 00000KT 10SM BKN048 14/13 A3000 RMK AO2 SLP164 T01390128 402330139=
201108240653 METAR KBLI 240653Z AUTO 00000KT 10SM CLR 14/13 A3000 RMK AO2 SLP164 T01440128=
201108240553 METAR KBLI 240553Z AUTO 00000KT 10SM CLR 14/13 A3000 RMK AO2 SLP165 T01440128 10228 20144 50000=
201108240453 METAR KBLI 240453Z 00000KT 10SM CLR 16/13 A3000 RMK AO2 SLP166 T01560133=
201108240353 METAR KBLI 240353Z 00000KT 10SM FEW090 17/14 A3000 RMK AO2 SLP166 T01670139=
201108240253 METAR KBLI 240253Z 00000KT 10SM CLR 19/14 A3000 RMK AO2 SLP164 T01890139 55007=
201108240153 METAR KBLI 240153Z 00000KT 10SM CLR 22/13 A3000 RMK AO2 SLP163 T02220128=
201108240053 METAR KBLI 240053Z VRB04KT 10SM CLR 23/13 A3001 RMK AO2 SLP166 T02280128=
201108232353 METAR KBLI 232353Z VRB05KT 10SM CLR 22/13 A3002 RMK AO2 SLP171 T02220128 10233 20189 58012=
201108232253 METAR KBLI 232253Z VRB05KT 10SM CLR 23/13 A3003 RMK AO2 SLP174 T02280128=
201108232153 METAR KBLI 232153Z 21006KT 10SM CLR 22/12 A3005 RMK AO2 SLP179 T02170122=
201108232053 METAR KBLI 232053Z VRB06KT 10SM SCT047 21/13 A3006 RMK AO2 SLP183 T02110133 58002=
201108231953 METAR KBLI 231953Z 16006KT 10SM BKN045 21/13 A3006 RMK AO2 SLP184 T02060128=
201108231853 METAR KBLI 231853Z 13003KT 10SM FEW031 SCT039 BKN055 20/13 A3006 RMK AO2 SLP184 T02000133=
201108231753 METAR KBLI 231753Z VRB04KT 10SM OVC042 19/14 A3006 RMK AO2 SLP184 T01890139 10194 20167 51010=
201108231653 METAR KBLI 231653Z 17004KT 10SM OVC048 18/16 A3005 RMK AO2 SLP181 T01830156=
201108231553 METAR KBLI 231553Z 18003KT 10SM OVC050 18/16 A3005 RMK AO2 SLP180 T01780156=
201108231453 METAR KBLI 231453Z 17005KT 10SM OVC050 18/16 A3003 RMK AO2 SLP173 T01780156 51015=
201108231353 METAR KBLI 231353Z AUTO 17005KT 10SM OVC055 17/16 A3002 RMK AO2 SLP172 T01720156=
201108231253 METAR KBLI 231253Z AUTO 21004KT 10SM FEW005 OVC060 17/16 A3000 RMK AO2 SLP166 T01720156 $=
201108231223 SPECI KBLI 231223Z AUTO 15008KT 10SM FEW005 OVC060 17/16 A2999 RMK AO2 $=
201108231223 SPECI KBLI 231223Z AUTO 15008KT 10SM FEW005 OVC060 17/16 A2999 RMK AO2 $=
201108231153 METAR KBLI 231153Z AUTO 17006KT 10SM OVC060 17/16 A2998 RMK AO2 SLP159 7//// T01720156 10189 20172 53009 $=
201108231053 METAR KBLI 231053Z AUTO 18005KT 10SM OVC060 17/15 A2998 RMK AO2 SLP156 T01720150 $=
201108230953 METAR KBLI 230953Z AUTO 17007G14KT 10SM OVC055 17/16 A2996 RMK AO2 SLP152 T01720156 $=
201108230853 METAR KBLI 230853Z AUTO 17009G15KT 10SM OVC055 18/16 A2996 RMK AO2 SLP150 T01780156 50009 $=
201108230753 METAR KBLI 230753Z AUTO 18007KT 10SM OVC034 18/16 A2996 RMK AO2 SLP151 T01780156 402000172 $=
201108230653 METAR KBLI 230653Z AUTO 18005KT 10SM SCT021 OVC039 18/16 A2995 RMK AO2 SLP146 T01830156 $=
201108230553 METAR KBLI 230553Z AUTO 16010KT 10SM BKN041 OVC065 19/15 A2993 RMK AO2 SLP140 60001 T01890150 10200 20189 50006 $=
201108230522 SPECI KBLI 230522Z 16008G15KT 10SM SCT024 BKN039 OVC065 19/15 A2993 RMK AO2 $=
201108230522 SPECI KBLI 230522Z 16008G15KT 10SM SCT024 BKN039 OVC065 19/15 A2993 RMK AO2 $=
201108230453 METAR KBLI 230453Z 15008KT 10SM OVC024 19/15 A2994 RMK AO2 SLP143 T01940150 $=
201108230438 SPECI KBLI 230438Z 15010KT 10SM BKN026 OVC040 19/15 A2994 RMK AO2 $=
201108230438 SPECI KBLI 230438Z 15010KT 10SM BKN026 OVC040 19/15 A2994 RMK AO2 $=
201108230353 METAR KBLI 230353Z 16010KT 10SM FEW029 SCT038 19/15 A2993 RMK AO2 SLP140 T01890150 $=
201108230253 METAR KBLI 230253Z 16010KT 10SM FEW027 SCT033 BKN065 19/15 A2991 RMK AO2 SLP134 60001 T01940150 55003 $=
201108230250 SPECI KBLI 230250Z 15013G18KT 10SM FEW027 SCT033 BKN065 19/15 A2991 RMK AO2 $=
201108230250 SPECI KBLI 230250Z 15013G18KT 10SM FEW027 SCT033 BKN065 19/15 A2991 RMK AO2 $=
201108230153 METAR KBLI 230153Z 15010G17KT 10SM BKN025 OVC050 19/15 A2991 RMK AO2 RAE42 SLP136 P0000 T01940150 $=
201108230100 SPECI KBLI 230100Z 15012KT 10SM -RA OVC027 19/15 A2992 RMK AO2 P0000 $=
201108230100 SPECI KBLI 230100Z 15012KT 10SM -RA OVC027 19/15 A2992 RMK AO2 P0000 $=
201108230053 METAR KBLI 230053Z 15011KT 10SM -RA SCT029 OVC043 19/15 A2992 RMK AO2 RAE28B52 SLP137 P0001 T01940150 $=
201108222353 METAR KBLI 222353Z 15011G17KT 10SM -RA FEW029 BKN040 OVC047 19/14 A2992 RMK AO2 RAB28 SLP135 P0000 60033 T01940144 10200 20183 53005 $=
201108222253 METAR KBLI 222253Z 14008KT 10SM OVC065 19/15 A2990 RMK AO2 PK WND 14029/2215 RAE25 SLP130 P0001 T01940150 $=
201108222153 METAR KBLI 222153Z 14015G21KT 4SM -RA SCT035 OVC044 19/16 A2990 RMK AO2 SLP131 P0006 T01890161 $=
201108222119 SPECI KBLI 222119Z 14014KT 8SM -RA FEW030 SCT041 OVC060 19/16 A2991 RMK AO2 P0004 $=
201108222119 SPECI KBLI 222119Z 14014KT 8SM -RA FEW030 SCT041 OVC060 19/16 A2991 RMK AO2 P0004 $=
201108222053 METAR KBLI 222053Z 15013KT 5SM RA BR SCT024 BKN028 OVC060 19/17 A2990 RMK AO2 SLP130 P0013 60026 T01890167 51007 $=
201108221953 METAR KBLI 221953Z 15008KT 6SM RA BKN025 BKN031 OVC060 19/17 A2990 RMK AO2 SLP129 P0008 T01940167 $=
201108221942 SPECI KBLI 221942Z 15007KT 10SM -RA BKN025 BKN031 OVC060 19/17 A2989 RMK AO2 P0006 $=
201108221942 SPECI KBLI 221942Z 15007KT 10SM -RA BKN025 BKN031 OVC060 19/17 A2989 RMK AO2 P0006 $=
201108221932 SPECI KBLI 221932Z 14007KT 8SM -RA SCT024 BKN032 OVC060 19/17 A2989 RMK AO2 P0005 $=
201108221932 SPECI KBLI 221932Z 14007KT 8SM -RA SCT024 BKN032 OVC060 19/17 A2989 RMK AO2 P0005 $=
201108221853 METAR KBLI 221853Z VRB03KT 3SM RA BR OVC028 18/17 A2989 RMK AO2 RAB14 SLP127 P0005 T01830167 $=
201108221834 SPECI KBLI 221834Z 21003KT 10SM -RA OVC028 19/17 A2990 RMK AO2 RAB14 P0001 $=
201108221834 SPECI KBLI 221834Z 21003KT 10SM -RA OVC028 19/17 A2990 RMK AO2 RAB14 P0001 $=
201108221753 METAR KBLI 221753Z 17008KT 10SM FEW030 BKN070 BKN100 19/17 A2988 RMK AO2 RAE35 SLP122 P0005 6//// T01940167 10194 20172 51003 $=
201108221653 METAR KBLI 221653Z 16011KT 6SM RA SCT023 OVC030 19/16 A2986 RMK AO2 RAB20 SLP116 T01890161 $=
201108221643 SPECI KBLI 221643Z 17009G14KT 7SM RA FEW023 BKN029 BKN055 19/16 A2988 RMK AO2 RAB20 P0000=
201108221643 SPECI KBLI 221643Z 17009G14KT 7SM RA FEW023 BKN029 BKN055 19/16 A2988 RMK AO2 RAB20 P0000=
201108221553 METAR KBLI 221553Z 18010G18KT 10SM FEW015 SCT025 OVC095 19/15 A2989 RMK AO2 SLP126 T01890150=
201108221453 METAR KBLI 221453Z 18011G20KT 10SM FEW015 BKN100 18/15 A2987 RMK AO2 SLP119 T01830150 55000=
201108221353 METAR KBLI 221353Z 17010G18KT 10SM FEW015 17/14 A2986 RMK AO2 SLP117 T01720144=
201108221253 METAR KBLI 221253Z AUTO 17014G21KT 10SM CLR 18/14 A2986 RMK AO2 SLP115 T01780144 $=
201108221153 METAR KBLI 221153Z AUTO 16011G19KT 10SM CLR 18/14 A2987 RMK AO2 SLP119 T01830139 10189 20172 50000 $=
201108221053 METAR KBLI 221053Z AUTO 18006KT 10SM OVC042 18/13 A2988 RMK AO2 SLP122 T01830133 $=
201108220953 METAR KBLI 220953Z AUTO 18011G18KT 10SM FEW100 18/13 A2987 RMK AO2 SLP120 T01780133 $=
201108220853 METAR KBLI 220853Z AUTO 17012G17KT 10SM OVC060 18/13 A2987 RMK AO2 SLP119 T01830133 51007 $=
201108220753 METAR KBLI 220753Z AUTO 18007KT 10SM BKN060 18/14 A2987 RMK AO2 SLP119 T01830139 402440139 $=
201108220653 METAR KBLI 220653Z AUTO 18008KT 10SM FEW090 17/14 A2985 RMK AO2 SLP114 T01720144 $=
201108220553 METAR KBLI 220553Z AUTO 18009KT 10SM CLR 18/15 A2985 RMK AO2 SLP112 T01830150 10239 20183 51009 $=
201108220453 METAR KBLI 220453Z 18010G15KT 10SM CLR 21/15 A2985 RMK AO2 SLP112 T02060150 $=
201108220353 METAR KBLI 220353Z 17008KT 10SM CLR 21/15 A2983 RMK AO2 SLP106 T02110150 $=
201108220253 METAR KBLI 220253Z 17005KT 10SM CLR 22/14 A2982 RMK AO2 SLP103 T02220144 56006 $=
201108220153 METAR KBLI 220153Z 17009KT 10SM CLR 23/13 A2982 RMK AO2 SLP104 T02280133 $=
201108220053 METAR KBLI 220053Z 17009KT 10SM CLR 23/14 A2983 RMK AO2 SLP106 T02280139 $=
201108212353 METAR KBLI 212353Z 19005KT 10SM CLR 23/14 A2984 RMK AO2 SLP109 T02280139 10244 20211 56012 $=
201108212253 METAR KBLI 212253Z 19008KT 10SM CLR 24/13 A2985 RMK AO2 SLP112 T02390133 $=
201108212153 METAR KBLI 212153Z 17011KT 10SM CLR 23/14 A2986 RMK AO2 SLP118 T02330144 $=
201108212053 METAR KBLI 212053Z 17009G16KT 10SM CLR 23/14 A2988 RMK AO2 SLP122 T02330144 53001 $=
201108211953 METAR KBLI 211953Z 17013G18KT 10SM FEW110 24/14 A2987 RMK AO2 SLP120 T02390144 $=
201108211853 METAR KBLI 211853Z 17012G20KT 10SM CLR 23/14 A2988 RMK AO2 SLP122 T02280144 $=
201108211753 METAR KBLI 211753Z 18007G17KT 10SM CLR 21/14 A2987 RMK AO2 SLP121 T02110139 10217 20139 51003 $=
201108211653 METAR KBLI 211653Z 18009G14KT 10SM FEW085 19/14 A2987 RMK AO2 SLP121 T01890139 $=
201108211553 METAR KBLI 211553Z 17004KT 10SM CLR 21/13 A2987 RMK AO2 SLP120 T02060128 $=
201108211453 METAR KBLI 211453Z 15008KT 10SM CLR 21/13 A2987 RMK AO2 SLP118 T02060128 53006 $=
201108211353 METAR KBLI 211353Z AUTO 13004KT 10SM CLR 16/13 A2985 RMK AO2 SLP114 T01560133 $=
201108211253 METAR KBLI 211253Z AUTO 00000KT 10SM FEW100 14/13 A2985 RMK AO2 SLP113 T01440128 $=
201108211153 METAR KBLI 211153Z AUTO 00000KT 10SM FEW110 16/14 A2985 RMK AO2 SLP112 T01560139 10178 20150 53000 $=
201108211053 METAR KBLI 211053Z AUTO 18006KT 10SM CLR 17/14 A2984 RMK AO2 SLP110 T01720144 $=
201108210953 METAR KBLI 210953Z AUTO 00000KT 10SM CLR 16/14 A2984 RMK AO2 SLP111 T01560139 $=
201108210853 METAR KBLI 210853Z AUTO 00000KT 10SM CLR 16/14 A2985 RMK AO2 SLP112 T01560139 50002 $=
201108210753 METAR KBLI 210753Z AUTO 17004KT 10SM CLR 16/14 A2985 RMK AO2 SLP113 T01610139 402780089 $=
201108210653 METAR KBLI 210653Z AUTO 00000KT 10SM CLR 15/13 A2985 RMK AO2 SLP111 T01500133 $=
201108210553 METAR KBLI 210553Z AUTO 00000KT 10SM CLR 17/14 A2984 RMK AO2 SLP110 T01670144 10278 20161 51001 $=
201108210453 METAR KBLI 210453Z 00000KT 10SM FEW100 17/14 A2984 RMK AO2 SLP110 T01670139 $=
201108210353 METAR KBLI 210353Z 00000KT 10SM CLR 17/14 A2984 RMK AO2 SLP112 T01720139 $=
201108210253 METAR KBLI 210253Z 00000KT 10SM CLR 21/13 A2984 RMK AO2 SLP110 T02110133 56013 $=
201108210153 METAR KBLI 210153Z 27005KT 10SM CLR 26/12 A2985 RMK AO2 SLP113 T02560117 $=
201108210053 METAR KBLI 210053Z VRB05KT 10SM 26/11 A2986 RMK AO2 SLP117 T02610111 $=
201108202353 METAR KBLI 202353Z 28007KT 10SM CLR 27/11 A2988 RMK AO2 SLP123 T02720111 10278 20233 56019 $=
201108202253 METAR KBLI 202253Z 27007KT 10SM CLR 27/14 A2989 RMK AO2 SLP127 T02670139 $=
201108202153 METAR KBLI 202153Z 27005KT 10SM CLR 27/14 A2991 RMK AO2 SLP133 T02670144=
201108202053 METAR KBLI 202053Z 27005KT 10SM CLR 27/14 A2994 RMK AO2 SLP142 T02670144 58017=
201108201953 METAR KBLI 201953Z 27007KT 10SM CLR 24/13 A2996 RMK AO2 SLP150 T02440133=
201108201853 METAR KBLI 201853Z VRB03KT 10SM CLR 24/13 A2998 RMK AO2 SLP157 T02440133=
201108201753 METAR KBLI 201753Z 35006KT 10SM CLR 23/13 A2999 RMK AO2 SLP160 T02330128 10233 20089 58006=
201108201653 METAR KBLI 201653Z 35006KT 10SM CLR 20/12 A3000 RMK AO2 SLP164 T02000122=
201108201553 METAR KBLI 201553Z 01005KT 10SM CLR 17/13 A3000 RMK AO2 SLP165 T01720128=
201108201453 METAR KBLI 201453Z 35003KT 10SM CLR 14/12 A3001 RMK AO2 SLP166 T01390122 53005=
201108201353 METAR KBLI 201353Z AUTO 01003KT 5SM BR FEW001 11/09 A2999 RMK AO2 SLP162 T01060094=
201108201344 SPECI KBLI 201344Z AUTO 00000KT 3SM BR FEW001 10/09 A2999 RMK AO2=
201108201344 SPECI KBLI 201344Z AUTO 00000KT 3SM BR FEW001 10/09 A2999 RMK AO2=
201108201342 SPECI KBLI 201342Z AUTO 36003KT 1 3/4SM BR FEW001 09/09 A2999 RMK AO2 VIS 3/4V5=
201108201342 SPECI KBLI 201342Z AUTO 36003KT 1 3/4SM BR FEW001 09/09 A2999 RMK AO2 VIS 3/4V5=
201108201335 SPECI KBLI 201335Z AUTO 34003KT 1SM R16/2200VP6000FT BR VV001 09/08 A2999 RMK AO2 VIS 1/2V3=
201108201335 SPECI KBLI 201335Z AUTO 34003KT 1SM R16/2200VP6000FT BR VV001 09/08 A2999 RMK AO2 VIS 1/2V3=
201108201315 SPECI KBLI 201315Z AUTO 00000KT 1/2SM R16/P6000FT FG CLR 10/09 A2999 RMK AO2 VIS 1/2V2=
201108201315 SPECI KBLI 201315Z AUTO 00000KT 1/2SM R16/P6000FT FG CLR 10/09 A2999 RMK AO2 VIS 1/2V2=
201108201307 SPECI KBLI 201307Z AUTO 00000KT 1 3/4SM BR CLR 10/09 A2999 RMK AO2=
201108201307 SPECI KBLI 201307Z AUTO 00000KT 1 3/4SM BR CLR 10/09 A2999 RMK AO2=
201108201253 METAR KBLI 201253Z AUTO 00000KT 10SM CLR 11/09 A2999 RMK AO2 SLP161 T01060094=
201108201153 METAR KBLI 201153Z AUTO 00000KT 10SM FEW090 11/09 A2999 RMK AO2 SLP162 T01060094 10139 20100 56007=
201108201144 SPECI KBLI 201144Z AUTO 00000KT 3SM BR FEW085 11/09 A2999 RMK AO2=
201108201144 SPECI KBLI 201144Z AUTO 00000KT 3SM BR FEW085 11/09 A2999 RMK AO2=
201108201135 SPECI KBLI 201135Z AUTO 00000KT 1 3/4SM R16/4000VP6000FT BR CLR 10/09 A2999 RMK AO2 VIS 1V5=
201108201135 SPECI KBLI 201135Z AUTO 00000KT 1 3/4SM R16/4000VP6000FT BR CLR 10/09 A2999 RMK AO2 VIS 1V5=
201108201053 METAR KBLI 201053Z AUTO 00000KT 10SM CLR 11/09 A2999 RMK AO2 SLP162 T01060094=
201108201017 SPECI KBLI 201017Z AUTO 00000KT 3SM BR FEW095 11/10 A3000 RMK AO2=
201108201017 SPECI KBLI 201017Z AUTO 00000KT 3SM BR FEW095 11/10 A3000 RMK AO2=
201108201010 SPECI KBLI 201010Z AUTO 00000KT 1 3/4SM BR CLR 11/10 A3000 RMK AO2=
201108201010 SPECI KBLI 201010Z AUTO 00000KT 1 3/4SM BR CLR 11/10 A3000 RMK AO2=
201108200953 METAR KBLI 200953Z AUTO 00000KT 10SM CLR 13/12 A3000 RMK AO2 SLP164 T01280117=
201108200853 METAR KBLI 200853Z AUTO 00000KT 10SM CLR 13/11 A3001 RMK AO2 SLP169 T01280111 50001=
201108200753 METAR KBLI 200753Z AUTO 00000KT 10SM FEW090 13/12 A3002 RMK AO2 SLP170 T01330117 402440122=
201108200653 METAR KBLI 200653Z AUTO 00000KT 10SM CLR 13/12 A3001 RMK AO2 SLP169 T01280117=
201108200553 METAR KBLI 200553Z AUTO 00000KT 10SM CLR 13/12 A3001 RMK AO2 SLP168 T01330117 10239 20133 50000=
201108200453 METAR KBLI 200453Z 00000KT 10SM CLR 14/13 A3001 RMK AO2 SLP168 T01440128=
201108200353 METAR KBLI 200353Z 00000KT 10SM CLR 16/13 A3001 RMK AO2 SLP169 T01560133=
201108200253 METAR KBLI 200253Z 26003KT 10SM CLR 19/13 A3001 RMK AO2 SLP168 T01890133 56010=
201108200153 METAR KBLI 200153Z 25004KT 10SM CLR 22/13 A3002 RMK AO2 SLP171 T02170133=
201108200053 METAR KBLI 200053Z 26004KT 10SM CLR 23/13 A3003 RMK AO2 SLP175 T02330128=
201108192353 METAR KBLI 192353Z 25003KT 10SM CLR 23/13 A3004 RMK AO2 SLP178 T02330128 10244 20167 58016=
201108192253 METAR KBLI 192253Z 27004KT 10SM FEW100 23/12 A3006 RMK AO2 SLP184 T02330117=
201108192153 METAR KBLI 192153Z 30006KT 10SM CLR 23/13 A3008 RMK AO2 SLP191 T02280128=
201108192053 METAR KBLI 192053Z VRB04KT 10SM CLR 21/13 A3009 RMK AO2 SLP194 T02110128 58010=
201108191953 METAR KBLI 191953Z 19005KT 10SM CLR 19/13 A3010 RMK AO2 SLP199 T01940133=
201108191853 METAR KBLI 191853Z 21004KT 10SM CLR 19/13 A3011 RMK AO2 SLP203 T01890128=
201108191753 METAR KBLI 191753Z VRB05KT 10SM CLR 17/12 A3012 RMK AO2 SLP205 VIS SE-SW 2 1/2 T01670122 10167 20122 55001=
201108191718 SPECI KBLI 191718Z VRB03KT 10SM FEW010 16/12 A3012 RMK AO2 VIS SE-SW 2 1/2=
201108191718 SPECI KBLI 191718Z VRB03KT 10SM FEW010 16/12 A3012 RMK AO2 VIS SE-SW 2 1/2=
201108191700 SPECI KBLI 191700Z VRB03KT 5SM HZ BKN005 BKN009 16/12 A3012 RMK AO2 VIS SE-SW 2 1/2 CIG LWR SE-SW=
201108191700 SPECI KBLI 191700Z VRB03KT 5SM HZ BKN005 BKN009 16/12 A3012 RMK AO2 VIS SE-SW 2 1/2 CIG LWR SE-SW=
201108191653 METAR KBLI 191653Z 00000KT 2 1/2SM HZ BKN005 BKN009 15/12 A3012 RMK AO2 CIG 004V008 SLP204 T01500117=
201108191635 SPECI KBLI 191635Z 00000KT 2 1/2SM BR OVC005 14/12 A3012 RMK AO2 CIG 003V007=
201108191635 SPECI KBLI 191635Z 00000KT 2 1/2SM BR OVC005 14/12 A3012 RMK AO2 CIG 003V007=
201108191617 SPECI KBLI 191617Z 00000KT 1SM R16/P6000FT BR OVC003 13/12 A3012 RMK AO2=
201108191617 SPECI KBLI 191617Z 00000KT 1SM R16/P6000FT BR OVC003 13/12 A3012 RMK AO2=
201108191553 METAR KBLI 191553Z 00000KT 1SM R16/P6000FT BR OVC001 13/12 A3012 RMK AO2 SLP205 T01280122=
201108191529 SPECI KBLI 191529Z 00000KT 1SM R16/2800VP6000FT BR OVC001 13/12 A3012 RMK AO2=
201108191529 SPECI KBLI 191529Z 00000KT 1SM R16/2800VP6000FT BR OVC001 13/12 A3012 RMK AO2=
201108191508 SPECI KBLI 191508Z 17004KT 1/4SM R16/2000V2600FT FG VV001 12/12 A3012 RMK AO2=
201108191508 SPECI KBLI 191508Z 17004KT 1/4SM R16/2000V2600FT FG VV001 12/12 A3012 RMK AO2=
201108191453 METAR KBLI 191453Z 17003KT 1/4SM R16/1400V1600FT FG VV001 13/12 A3012 RMK AO2 SLP205 T01280122 53006=
201108191437 SPECI KBLI 191437Z 17003KT 1/4SM R16/1600V1800FT FG VV001 13/12 A3012 RMK AO2 VIS 1/2V1=
201108191437 SPECI KBLI 191437Z 17003KT 1/4SM R16/1600V1800FT FG VV001 13/12 A3012 RMK AO2 VIS 1/2V1=
201108191353 METAR KBLI 191353Z VRB03KT 3/4SM R16/2800V4500FT BR OVC001 12/12 A3010 RMK AO2 SLP199 T01220117=
201108191304 SPECI KBLI 191304Z AUTO 17003KT 1 1/4SM R16/3000V6000FT BR OVC001 13/12 A3010 RMK AO2=
201108191304 SPECI KBLI 191304Z AUTO 17003KT 1 1/4SM R16/3000V6000FT BR OVC001 13/12 A3010 RMK AO2=
201108191253 METAR KBLI 191253Z AUTO 17004KT 2SM R16/4000VP6000FT BR OVC001 13/12 A3010 RMK AO2 SLP198 T01280117=
201108191230 SPECI KBLI 191230Z AUTO 17003KT 1 1/2SM R16/4000VP6000FT BR OVC001 13/12 A3011 RMK AO2=
201108191230 SPECI KBLI 191230Z AUTO 17003KT 1 1/2SM R16/4000VP6000FT BR OVC001 13/12 A3011 RMK AO2=
201108191222 SPECI KBLI 191222Z AUTO 17004KT 2 1/2SM R16/4000VP6000FT BR OVC001 13/12 A3011 RMK AO2=
201108191222 SPECI KBLI 191222Z AUTO 17004KT 2 1/2SM R16/4000VP6000FT BR OVC001 13/12 A3011 RMK AO2=
201108191153 METAR KBLI 191153Z AUTO 18004KT 4SM BR OVC001 13/12 A3010 RMK AO2 SLP200 T01280117 10144 20122 55001=
201108191053 METAR KBLI 191053Z AUTO 18004KT 4SM BR BKN001 13/12 A3010 RMK AO2 SLP199 T01280117=
201108191038 SPECI KBLI 191038Z AUTO 00000KT 6SM BR SCT001 13/12 A3010 RMK AO2=
201108191038 SPECI KBLI 191038Z AUTO 00000KT 6SM BR SCT001 13/12 A3010 RMK AO2=
201108190953 METAR KBLI 190953Z AUTO 18004KT 9SM CLR 13/12 A3011 RMK AO2 SLP201 T01280117=
201108190853 METAR KBLI 190853Z AUTO 17006KT 10SM CLR 13/12 A3011 RMK AO2 SLP201 T01330117 51000=
201108190753 METAR KBLI 190753Z AUTO 18003KT 10SM CLR 14/12 A3011 RMK AO2 SLP200 T01390122 402110094=
201108190653 METAR KBLI 190653Z AUTO 18005KT 10SM CLR 14/12 A3011 RMK AO2 SLP202 T01440122=
201108190553 METAR KBLI 190553Z AUTO 18004KT 10SM CLR 14/12 A3011 RMK AO2 SLP201 T01440122 10206 20144 51001=
201108190453 METAR KBLI 190453Z 17005KT 10SM CLR 16/12 A3011 RMK AO2 SLP201 T01560122=
201108190353 METAR KBLI 190353Z 18003KT 10SM CLR 16/12 A3011 RMK AO2 SLP201 T01560122=
201108190253 METAR KBLI 190253Z 00000KT 10SM CLR 17/13 A3010 RMK AO2 SLP199 T01670133 56010=
201108190153 METAR KBLI 190153Z 17004KT 10SM CLR 19/13 A3011 RMK AO2 SLP202 T01940128=
201108190053 METAR KBLI 190053Z 17005KT 10SM CLR 20/12 A3012 RMK AO2 SLP205 T02000122=
201108182353 METAR KBLI 182353Z 16005KT 10SM CLR 20/12 A3013 RMK AO2 SLP210 T02000122 10211 20161 58014=
201108182253 METAR KBLI 182253Z VRB05KT 10SM CLR 21/13 A3015 RMK AO2 SLP215 T02060128=
201108182153 METAR KBLI 182153Z 17008KT 10SM CLR 20/13 A3016 RMK AO2 SLP220 T02000128=
201108182053 METAR KBLI 182053Z 18007KT 10SM CLR 19/12 A3017 RMK AO2 SLP223 T01890122 58004=
201108182000 SPECI KBLI 182000Z 17010KT 10SM SCT028 18/12 A3018 RMK AO2=
201108182000 SPECI KBLI 182000Z 17010KT 10SM SCT028 18/12 A3018 RMK AO2=
201108181953 METAR KBLI 181953Z 16009G14KT 10SM BKN028 BKN075 18/12 A3018 RMK AO2 SLP226 T01830122=
201108181905 SPECI KBLI 181905Z 17010G17KT 10SM BKN028 BKN075 18/12 A3019 RMK AO2=
201108181905 SPECI KBLI 181905Z 17010G17KT 10SM BKN028 BKN075 18/12 A3019 RMK AO2=
201108181853 METAR KBLI 181853Z 18010G17KT 10SM SCT028 BKN080 17/12 A3019 RMK AO2 SLP228 T01720122=
201108181851 SPECI KBLI 181851Z 18012G18KT 10SM BKN028 BKN080 17/12 A3019 RMK AO2=
201108181851 SPECI KBLI 181851Z 18012G18KT 10SM BKN028 BKN080 17/12 A3019 RMK AO2=
201108181844 SPECI KBLI 181844Z 16015G18KT 10SM SCT028 BKN075 17/12 A3019 RMK AO2=
201108181844 SPECI KBLI 181844Z 16015G18KT 10SM SCT028 BKN075 17/12 A3019 RMK AO2=
201108181834 SPECI KBLI 181834Z 16012G16KT 10SM BKN028 OVC075 17/12 A3019 RMK AO2=
201108181834 SPECI KBLI 181834Z 16012G16KT 10SM BKN028 OVC075 17/12 A3019 RMK AO2=
201108181753 METAR KBLI 181753Z 17012G17KT 10SM FEW025 16/12 A3019 RMK AO2 SLP228 T01610117 10167 20094 51006=
201108181653 METAR KBLI 181653Z 17007KT 10SM CLR 16/12 A3018 RMK AO2 SLP227 T01560122=
201108181553 METAR KBLI 181553Z 17008KT 10SM CLR 16/12 A3018 RMK AO2 SLP226 T01560117=
201108181453 METAR KBLI 181453Z 17003KT 10SM CLR 14/12 A3017 RMK AO2 SLP222 T01440117 51010=
201108181353 METAR KBLI 181353Z 00000KT 10SM SCT030 11/10 A3016 RMK AO2 SLP219 T01110100=
201108181253 METAR KBLI 181253Z AUTO 00000KT 10SM FEW070 10/09 A3015 RMK AO2 SLP215 T01000089=
201108181153 METAR KBLI 181153Z AUTO 00000KT 9SM FEW070 10/09 A3014 RMK AO2 SLP211 T01000089 10156 20100 51002=
201108181053 METAR KBLI 181053Z AUTO 00000KT 10SM CLR 11/09 A3013 RMK AO2 SLP210 T01060094=
201108180953 METAR KBLI 180953Z AUTO 00000KT 10SM FEW070 12/11 A3014 RMK AO2 SLP211 T01170106=
201108180853 METAR KBLI 180853Z AUTO 20003KT 10SM CLR 13/12 A3013 RMK AO2 SLP209 T01330117 51005=
201108180753 METAR KBLI 180753Z AUTO 19003KT 10SM CLR 13/11 A3013 RMK AO2 SLP209 T01280111 402170083=
201108180653 METAR KBLI 180653Z AUTO 18003KT 10SM CLR 14/12 A3013 RMK AO2 SLP208 T01440117=
201108180553 METAR KBLI 180553Z AUTO 20004KT 10SM CLR 16/12 A3012 RMK AO2 SLP205 T01560117 10217 20156 51015=
201108180453 METAR KBLI 180453Z 18006KT 10SM CLR 17/11 A3011 RMK AO2 SLP200 T01670111=
201108180353 METAR KBLI 180353Z 17008KT 10SM CLR 17/12 A3009 RMK AO2 SLP196 T01670117=
201108180253 METAR KBLI 180253Z 18008G15KT 10SM CLR 18/11 A3007 RMK AO2 SLP190 T01780111 56007=
201108180153 METAR KBLI 180153Z 17010KT 10SM CLR 21/08 A3008 RMK AO2 SLP192 T02060083=
201108180053 METAR KBLI 180053Z 16011G18KT 10SM CLR 22/07 A3008 RMK AO2 SLP193 T02170072=
201108172353 METAR KBLI 172353Z 16011KT 10SM CLR 22/04 A3010 RMK AO2 SLP197 T02170039 10217 20167 56009=
201108172253 METAR KBLI 172253Z 17010KT 10SM CLR 21/08 A3010 RMK AO2 SLP199 T02060083=
201108172153 METAR KBLI 172153Z 18009G15KT 10SM CLR 21/11 A3011 RMK AO2 SLP202 T02060111=
201108172053 METAR KBLI 172053Z 19007KT 140V240 10SM CLR 21/12 A3012 RMK AO2 SLP206 T02060117 50001=
201108171953 METAR KBLI 171953Z 18012G18KT 10SM CLR 19/11 A3012 RMK AO2 SLP206 T01890106=
201108171853 METAR KBLI 171853Z 18011G16KT 10SM CLR 17/11 A3012 RMK AO2 SLP205 T01720111=
201108171753 METAR KBLI 171753Z 17008KT 10SM CLR 17/11 A3012 RMK AO2 SLP204 T01720111 10172 20083 51004=
201108171653 METAR KBLI 171653Z 18008KT 150V210 10SM CLR 16/11 A3011 RMK AO2 SLP203 T01610111=
201108171553 METAR KBLI 171553Z 18006KT 10SM CLR 15/11 A3011 RMK AO2 SLP203 T01500106=
201108171453 METAR KBLI 171453Z 01004KT 10SM CLR 13/10 A3011 RMK AO2 SLP201 T01330100 53009=
201108171353 METAR KBLI 171353Z 00000KT 10SM CLR 09/08 A3010 RMK AO2 SLP197 T00940083=
201108171253 METAR KBLI 171253Z AUTO 00000KT 10SM CLR 09/08 A3008 RMK AO2 SLP193 T00890078=
201108171153 METAR KBLI 171153Z AUTO 00000KT 10SM CLR 09/08 A3008 RMK AO2 SLP191 T00940083 10139 20094 53002=
201108171053 METAR KBLI 171053Z AUTO 00000KT 10SM CLR 13/11 A3007 RMK AO2 SLP190 T01280106=
201108170953 METAR KBLI 170953Z AUTO 17004KT 10SM CLR 13/11 A3007 RMK AO2 SLP189 T01280106=
201108170853 METAR KBLI 170853Z AUTO 17003KT 10SM CLR 13/11 A3007 RMK AO2 SLP189 T01280106 50001=
201108170753 METAR KBLI 170753Z AUTO 00000KT 10SM CLR 12/09 A3007 RMK AO2 SLP190 T01170094 402390078=
201108170653 METAR KBLI 170653Z AUTO 00000KT 10SM CLR 12/09 A3007 RMK AO2 SLP188 T01170094=
201108170553 METAR KBLI 170553Z AUTO 00000KT 10SM CLR 13/09 A3007 RMK AO2 SLP188 T01280094 10239 20117 50006=
201108170453 METAR KBLI 170453Z 00000KT 10SM CLR 13/09 A3007 RMK AO2 SLP189 T01280094=
201108170353 METAR KBLI 170353Z 00000KT 10SM CLR 14/09 A3007 RMK AO2 SLP187 T01390094=
201108170253 METAR KBLI 170253Z 26004KT 10SM CLR 19/08 A3005 RMK AO2 SLP182 T01940083 56009=
201108170153 METAR KBLI 170153Z 00000KT 10SM CLR 23/08 A3005 RMK AO2 SLP182 T02280083=
201108170053 METAR KBLI 170053Z 30003KT 10SM CLR 24/07 A3006 RMK AO2 SLP186 T02390067=
201108162353 METAR KBLI 162353Z 27005KT 10SM CLR 23/07 A3008 RMK AO2 SLP192 T02330067 10239 20194 58012=
201108162253 METAR KBLI 162253Z 31007KT 10SM CLR 23/08 A3010 RMK AO2 SLP197 T02330078=
201108162153 METAR KBLI 162153Z 25006KT 10SM CLR 22/08 A3011 RMK AO2 SLP201 T02220083=
201108162053 METAR KBLI 162053Z 26005KT 10SM CLR 22/10 A3011 RMK AO2 SLP203 T02220100 56005=
201108161953 METAR KBLI 161953Z 27005KT 10SM CLR 22/11 A3011 RMK AO2 SLP203 T02170106=
201108161853 METAR KBLI 161853Z 00000KT 10SM CLR 21/09 A3012 RMK AO2 SLP206 T02060094=
201108161753 METAR KBLI 161753Z 07003KT 10SM CLR 19/10 A3013 RMK AO2 SLP208 T01940100 10194 20078 50001=
201108161653 METAR KBLI 161653Z 00000KT 10SM CLR 16/11 A3013 RMK AO2 SLP209 T01610106=
201108161553 METAR KBLI 161553Z 33003KT 10SM CLR 15/11 A3013 RMK AO2 SLP210 T01500111=
201108161453 METAR KBLI 161453Z 00000KT 10SM CLR 13/11 A3013 RMK AO2 SLP208 T01330111 52003=
201108161353 METAR KBLI 161353Z AUTO 00000KT 10SM CLR 09/08 A3012 RMK AO2 SLP207 T00890078=
201108161253 METAR KBLI 161253Z AUTO 00000KT 10SM FEW110 08/07 A3012 RMK AO2 SLP206 T00830072=
201108161153 METAR KBLI 161153Z AUTO 00000KT 10SM FEW100 09/08 A3012 RMK AO2 SLP205 T00890078 10133 20078 58002=
201108161123 SPECI KBLI 161123Z AUTO 00000KT 10SM CLR 08/07 A3012 RMK AO2=
201108161123 SPECI KBLI 161123Z AUTO 00000KT 10SM CLR 08/07 A3012 RMK AO2=
201108161115 SPECI KBLI 161115Z AUTO 00000KT 2 1/2SM BR CLR 08/07 A3012 RMK AO2=
201108161115 SPECI KBLI 161115Z AUTO 00000KT 2 1/2SM BR CLR 08/07 A3012 RMK AO2=
201108161053 METAR KBLI 161053Z AUTO 00000KT 10SM CLR 09/08 A3012 RMK AO2 SLP206 T00890078=
201108160953 METAR KBLI 160953Z AUTO 00000KT 10SM CLR 09/08 A3013 RMK AO2 SLP207 T00940083=
201108160853 METAR KBLI 160853Z AUTO 00000KT 10SM FEW110 10/09 A3012 RMK AO2 SLP206 T01000089 53004=
201108160753 METAR KBLI 160753Z AUTO 00000KT 10SM CLR 11/09 A3012 RMK AO2 SLP204 T01060094 402170106=
201108160653 METAR KBLI 160653Z AUTO 00000KT 10SM CLR 12/09 A3011 RMK AO2 SLP203 T01220094=
201108160553 METAR KBLI 160553Z AUTO 17003KT 10SM CLR 13/11 A3011 RMK AO2 SLP202 T01280106 10211 20117 51007=
201108160453 METAR KBLI 160453Z 18003KT 10SM CLR 14/11 A3011 RMK AO2 SLP200 T01390111=
201108160353 METAR KBLI 160353Z 00000KT 10SM CLR 15/12 A3010 RMK AO2 SLP198 T01500117=
201108160253 METAR KBLI 160253Z 00000KT 10SM CLR 17/12 A3009 RMK AO2 SLP196 T01720117 56004=
201108160153 METAR KBLI 160153Z 00000KT 10SM CLR 20/10 A3010 RMK AO2 SLP197 T02000100=
201108160053 METAR KBLI 160053Z 18005KT 10SM CLR 21/09 A3010 RMK AO2 SLP198 T02060094=
201108152353 METAR KBLI 152353Z 16006KT 10SM CLR 21/11 A3010 RMK AO2 SLP199 T02110106 10217 20178 50002=
201108152253 METAR KBLI 152253Z 17006KT 10SM CLR 21/12 A3010 RMK AO2 SLP200 T02110117=
201108152153 METAR KBLI 152153Z 17009KT 10SM CLR 21/11 A3010 RMK AO2 SLP200 T02110111=
201108152053 METAR KBLI 152053Z 18006KT 10SM CLR 21/13 A3010 RMK AO2 SLP198 T02060128 53006=
201108151953 METAR KBLI 151953Z VRB06KT 10SM BKN080 21/12 A3009 RMK AO2 SLP196 T02060122=
201108151853 METAR KBLI 151853Z VRB03KT 10SM SCT080 19/13 A3008 RMK AO2 SLP193 T01940128=
201108151753 METAR KBLI 151753Z 24005KT 10SM SCT025 18/12 A3008 RMK AO2 SLP191 T01780122 10178 20133 51015=
201108151710 SPECI KBLI 151710Z 19006KT 10SM SCT020 BKN060 16/12 A3007 RMK AO2=
201108151710 SPECI KBLI 151710Z 19006KT 10SM SCT020 BKN060 16/12 A3007 RMK AO2=
201108151653 METAR KBLI 151653Z 18005KT 10SM OVC020 16/13 A3007 RMK AO2 SLP189 T01560128=
201108151634 SPECI KBLI 151634Z 17008KT 10SM BKN020 OVC055 16/13 A3006 RMK AO2=
201108151634 SPECI KBLI 151634Z 17008KT 10SM BKN020 OVC055 16/13 A3006 RMK AO2=
201108151553 METAR KBLI 151553Z VRB05KT 10SM BKN055 16/13 A3005 RMK AO2 SLP182 T01560128=
201108151453 METAR KBLI 151453Z 17007KT 10SM BKN055 OVC090 15/13 A3003 RMK AO2 SLP176 T01500128 53009=
201108151353 METAR KBLI 151353Z 00000KT 10SM R16/2600VP6000FT FEW060 BKN085 14/12 A3002 RMK AO2 SLP172 T01390122 $=
201108151253 METAR KBLI 151253Z AUTO 19003KT 10SM FEW044 BKN080 14/12 A3001 RMK AO2 SLP169 T01390122 $=
201108151153 METAR KBLI 151153Z AUTO 19004KT 10SM SCT060 BKN095 14/12 A3001 RMK AO2 RAB00E17 SLP167 P0000 60000 T01390122 10172 20133 51005 $=
201108151053 METAR KBLI 151053Z AUTO 00000KT 10SM SCT050 BKN065 OVC080 14/12 A3000 RMK AO2 SLP165 T01390122 $=
201108150953 METAR KBLI 150953Z AUTO 17003KT 10SM FEW060 BKN095 14/12 A3000 RMK AO2 SLP164 T01390117 $=
201108150853 METAR KBLI 150853Z AUTO 00000KT 10SM BKN070 OVC090 15/12 A2999 RMK AO2 SLP161 T01500117 53005 $=
201108150753 METAR KBLI 150753Z AUTO 18005KT 10SM BKN070 16/12 A2999 RMK AO2 SLP160 T01560117 402110150 $=
201108150653 METAR KBLI 150653Z AUTO 17006KT 10SM BKN070 16/11 A2998 RMK AO2 SLP157 T01610111 $=
201108150553 METAR KBLI 150553Z AUTO 18007KT 10SM BKN080 17/10 A2998 RMK AO2 SLP157 T01720100 10206 20161 58004 $=
201108150453 METAR KBLI 150453Z 15006KT 10SM OVC075 17/11 A2998 RMK AO2 SLP158 T01720106 $=
201108150353 METAR KBLI 150353Z 16006KT 10SM SCT080 17/11 A2999 RMK AO2 SLP160 T01670111 $=
201108150253 METAR KBLI 150253Z 17005KT 10SM CLR 17/11 A2999 RMK AO2 SLP160 T01670111 56005 $=
201108150153 METAR KBLI 150153Z 17005KT 10SM CLR 18/11 A2999 RMK AO2 SLP161 T01830111 $=
201108150053 METAR KBLI 150053Z 18005KT 10SM CLR 19/10 A2999 RMK AO2 SLP162 T01940100 $=
201108142353 METAR KBLI 142353Z 17006KT 10SM CLR 20/10 A3000 RMK AO2 SLP166 T02000100 10211 20161 58005 $=
201108142253 METAR KBLI 142253Z 18008KT 10SM CLR 19/11 A3001 RMK AO2 SLP168 T01940106 $=
201108142153 METAR KBLI 142153Z 18009KT 10SM BKN050 19/12 A3002 RMK AO2 SLP170 T01940117 $=
201108142053 METAR KBLI 142053Z VRB05G14KT 10SM SCT030 BKN080 19/12 A3002 RMK AO2 SLP171 T01890122 55000 $=
201108141953 METAR KBLI 141953Z 17007G14KT 10SM BKN060 18/12 A3002 RMK AO2 SLP171 T01830117 $=
201108141853 METAR KBLI 141853Z 18008G15KT 10SM OVC060 17/12 A3002 RMK AO2 SLP170 T01670117 $=
201108141753 METAR KBLI 141753Z 17012KT 10SM OVC060 17/12 A3002 RMK AO2 SLP171 T01670117 10172 20150 51006 $=
201108141653 METAR KBLI 141653Z 16008KT 10SM SCT030 OVC060 16/12 A3002 RMK AO2 SLP170 T01610117 $=
201108141553 METAR KBLI 141553Z 16009KT 10SM OVC060 16/12 A3001 RMK AO2 SLP168 T01560117 $=
201108141453 METAR KBLI 141453Z 16009KT 10SM BKN055 BKN090 15/12 A3000 RMK AO2 SLP165 T01500117 53005 $=
201108141353 METAR KBLI 141353Z 16008KT 10SM BKN100 BKN120 15/11 A2999 RMK AO2 SLP163 T01500111 $=
201108141253 METAR KBLI 141253Z AUTO 15010KT 10SM BKN100 OVC120 16/11 A2999 RMK AO2 SLP160 T01560106 $=
201108141153 METAR KBLI 141153Z AUTO 16009KT 10SM SCT039 OVC100 16/11 A2999 RMK AO2 SLP160 T01560106 10161 20156 55002 $=
201108141053 METAR KBLI 141053Z AUTO 16008KT 10SM OVC100 16/10 A2998 RMK AO2 SLP159 T01560100 $=
201108140953 METAR KBLI 140953Z AUTO 16009KT 10SM SCT095 OVC120 16/10 A2999 RMK AO2 SLP161 T01560100 $=
201108140853 METAR KBLI 140853Z AUTO 16009KT 10SM OVC110 16/09 A2999 RMK AO2 SLP162 T01560094 53001 $=
201108140753 METAR KBLI 140753Z AUTO 15012KT 10SM OVC110 16/09 A2999 RMK AO2 SLP162 T01610094 401940133 $=
201108140653 METAR KBLI 140653Z AUTO 15009KT 10SM FEW110 16/10 A2999 RMK AO2 SLP160 T01610100 $=
201108140553 METAR KBLI 140553Z AUTO 16012G24KT 10SM FEW095 16/10 A2999 RMK AO2 SLP161 T01610100 10189 20161 52003 $=
201108140453 METAR KBLI 140453Z 15011G17KT 10SM CLR 17/10 A2999 RMK AO2 SLP160 T01670100 $=
201108140353 METAR KBLI 140353Z 16013G18KT 10SM FEW090 17/10 A2998 RMK AO2 SLP159 T01670100 $=
201108140253 METAR KBLI 140253Z 16011KT 10SM CLR 17/10 A2998 RMK AO2 SLP158 T01720100 58007 $=
201108140153 METAR KBLI 140153Z 16011G17KT 10SM CLR 18/11 A2999 RMK AO2 SLP160 T01830106 $=
201108140053 METAR KBLI 140053Z 16008G15KT 10SM CLR 18/11 A3000 RMK AO2 SLP164 T01830106 $=
201108132353 METAR KBLI 132353Z 16011KT 10SM CLR 19/11 A3000 RMK AO2 SLP165 T01890106 10194 20156 56008 $=
201108132253 METAR KBLI 132253Z 18008G18KT 10SM CLR 18/10 A3000 RMK AO2 SLP165 T01780100 $=
201108132153 METAR KBLI 132153Z 18011G16KT 10SM CLR 19/10 A3001 RMK AO2 SLP168 T01890100 $=
201108132053 METAR KBLI 132053Z 18011G17KT 10SM CLR 19/10 A3002 RMK AO2 SLP173 T01890100 56003 $=
201108131953 METAR KBLI 131953Z 17007G16KT 150V210 10SM SCT090 18/10 A3002 RMK AO2 SLP173 T01780100 $=
201108131853 METAR KBLI 131853Z 18009G16KT 10SM SCT025 17/11 A3003 RMK AO2 SLP174 T01720111 $=
201108131832 SPECI KBLI 131832Z 17012KT 10SM SCT025 17/11 A3003 RMK AO2 $=
201108131832 SPECI KBLI 131832Z 17012KT 10SM SCT025 17/11 A3003 RMK AO2 $=
201108131753 METAR KBLI 131753Z 17014G17KT 10SM OVC025 16/11 A3003 RMK AO2 SLP175 T01560111 10161 20133 53004 $=
201108131653 METAR KBLI 131653Z 16012KT 10SM OVC021 15/11 A3002 RMK AO2 SLP173 T01500111 $=
201108131553 METAR KBLI 131553Z 16011KT 10SM OVC023 15/11 A3002 RMK AO2 SLP172 T01500111 $=
201108131532 SPECI KBLI 131532Z 17008KT 10SM BKN023 14/11 A3002 RMK AO2 $=
201108131532 SPECI KBLI 131532Z 17008KT 10SM BKN023 14/11 A3002 RMK AO2 $=
201108131453 METAR KBLI 131453Z 17009KT 10SM SCT023 14/11 A3002 RMK AO2 SLP172 T01440106 53012 $=
201108131353 METAR KBLI 131353Z 16006KT 10SM CLR 13/11 A3001 RMK AO2 SLP168 T01330106 $=
201108131253 METAR KBLI 131253Z AUTO 15006KT 10SM CLR 13/11 A2999 RMK AO2 SLP162 T01330106 $=
201108131153 METAR KBLI 131153Z AUTO 16008KT 10SM OVC080 14/11 A2999 RMK AO2 SLP160 T01390111 10161 20133 53004 $=
201108131053 METAR KBLI 131053Z AUTO 17010KT 10SM CLR 13/12 A2997 RMK AO2 SLP156 T01330117 $=
201108130953 METAR KBLI 130953Z AUTO 17005KT 10SM CLR 14/12 A2997 RMK AO2 SLP154 T01440122 $=
201108130853 METAR KBLI 130853Z AUTO 16007KT 10SM CLR 14/12 A2998 RMK AO2 SLP156 T01440122 $=
201108130753 METAR KBLI 130753Z AUTO 17006KT 10SM CLR 15/12 A2998 RMK AO2 SLP157 T01500122 402280117 $=
201108130653 METAR KBLI 130653Z AUTO 17006KT 10SM CLR 16/13 A2997 RMK AO2 SLP156 T01560128=
201108130553 METAR KBLI 130553Z AUTO 17007KT 10SM CLR 16/13 A2998 RMK AO2 SLP156 T01610128 10228 20161 50000=
201108130453 METAR KBLI 130453Z 16006KT 10SM CLR 16/13 A2998 RMK AO2 SLP158 T01610128=
201108130353 METAR KBLI 130353Z 00000KT 10SM CLR 17/13 A2998 RMK AO2 SLP158 T01670128=
201108130253 METAR KBLI 130253Z 18003KT 10SM CLR 19/13 A2998 RMK AO2 SLP156 T01890133 56007=
201108130153 METAR KBLI 130153Z 18004KT 10SM CLR 21/14 A2998 RMK AO2 SLP158 T02110139=
201108130053 METAR KBLI 130053Z 19005KT 10SM CLR 22/13 A2999 RMK AO2 SLP161 T02220133=
201108122353 METAR KBLI 122353Z AUTO 18004KT 10SM CLR 22/14 A3000 RMK AO2 SLP164 T02220139 10228 20139 58012 TSNO=
201108122253 METAR KBLI 122253Z AUTO 20005KT 10SM CLR 22/14 A3001 RMK AO2 SLP168 T02170139 TSNO=
201108122153 METAR KBLI 122153Z 18005KT 10SM CLR 22/14 A3002 RMK AO2 SLP172 T02170144=
201108122053 METAR KBLI 122053Z 21006KT 10SM CLR 21/14 A3003 RMK AO2 SLP175 T02060139 58013=
201108121953 METAR KBLI 121953Z 17005KT 10SM CLR 19/13 A3005 RMK AO2 SLP181 T01890133=
201108121853 METAR KBLI 121853Z VRB03KT 10SM CLR 17/13 A3007 RMK AO2 SLP187 T01720128=
201108121814 SPECI KBLI 121814Z VRB04KT 10SM FEW005 16/12 A3007 RMK AO2=
201108121814 SPECI KBLI 121814Z VRB04KT 10SM FEW005 16/12 A3007 RMK AO2=
201108121805 SPECI KBLI 121805Z 16005KT 1 1/2SM HZ SCT005 16/12 A3007 RMK AO2=
201108121805 SPECI KBLI 121805Z 16005KT 1 1/2SM HZ SCT005 16/12 A3007 RMK AO2=
201108121753 METAR KBLI 121753Z 19003KT 1 1/2SM BR OVC003 14/12 A3007 RMK AO2 SLP189 CIG VSBY LWR SE-W T01390122 10144 20117 58002=
201108121734 SPECI KBLI 121734Z 23003KT 1 1/2SM BR OVC003 14/12 A3007 RMK AO2=
201108121734 SPECI KBLI 121734Z 23003KT 1 1/2SM BR OVC003 14/12 A3007 RMK AO2=
201108121715 SPECI KBLI 121715Z 21003KT 1/2SM R16/P6000FT FG OVC003 14/12 A3007 RMK AO2=
201108121715 SPECI KBLI 121715Z 21003KT 1/2SM R16/P6000FT FG OVC003 14/12 A3007 RMK AO2=
201108121653 METAR KBLI 121653Z 00000KT 1/2SM R16/P6000FT FG OVC001 13/12 A3008 RMK AO2 SLP190 T01330122=
201108121651 SPECI KBLI 121651Z 21003KT 1/2SM R16/P6000FT FG OVC001 13/12 A3008 RMK AO2=
201108121651 SPECI KBLI 121651Z 21003KT 1/2SM R16/P6000FT FG OVC001 13/12 A3008 RMK AO2=
201108121639 SPECI KBLI 121639Z 00000KT 3/4SM R16/6000VP6000FT BR OVC001 13/12 A3008 RMK AO2=
201108121639 SPECI KBLI 121639Z 00000KT 3/4SM R16/6000VP6000FT BR OVC001 13/12 A3008 RMK AO2=
201108121620 SPECI KBLI 121620Z VRB03KT 1/8SM R16/1800V3500FT FG VV000 13/12 A3008 RMK AO2=
201108121620 SPECI KBLI 121620Z VRB03KT 1/8SM R16/1800V3500FT FG VV000 13/12 A3008 RMK AO2=
201108121602 SPECI KBLI 121602Z 16003KT 1/8SM R16/1200V1600FT FG VV000 12/12 A3007 RMK AO2=
201108121602 SPECI KBLI 121602Z 16003KT 1/8SM R16/1200V1600FT FG VV000 12/12 A3007 RMK AO2=
201108121553 METAR KBLI 121553Z 00000KT 1/8SM R16/1200V2400FT FG VV000 12/12 A3008 RMK AO2 SLP192 T01220117=
201108121453 METAR KBLI 121453Z 00000KT 1/8SM R16/1000V1400FT FG VV001 12/11 A3008 RMK AO2 SLP191 T01170111 53007=
201108121353 METAR KBLI 121353Z 18005KT 1/4SM R16/1200V1400FT FG VV001 12/11 A3007 RMK AO2 SLP187 T01220111=
201108121342 SPECI KBLI 121342Z 17005KT 1/4SM R16/1400V1800FT FG VV001 12/12 A3007 RMK AO2=
201108121342 SPECI KBLI 121342Z 17005KT 1/4SM R16/1400V1800FT FG VV001 12/12 A3007 RMK AO2=
201108121316 SPECI KBLI 121316Z AUTO 19006KT 1/2SM R16/1600V4000FT FG OVC001 12/12 A3006 RMK AO2=
201108121316 SPECI KBLI 121316Z AUTO 19006KT 1/2SM R16/1600V4000FT FG OVC001 12/12 A3006 RMK AO2=
201108121310 SPECI KBLI 121310Z AUTO 17004KT 1 1/2SM R16/3000VP6000FT BR OVC001 12/12 A3006 RMK AO2=
201108121310 SPECI KBLI 121310Z AUTO 17004KT 1 1/2SM R16/3000VP6000FT BR OVC001 12/12 A3006 RMK AO2=
201108121259 SPECI KBLI 121259Z AUTO 17005KT 2 1/2SM R16/5000VP6000FT BR BKN001 12/12 A3006 RMK AO2=
201108121259 SPECI KBLI 121259Z AUTO 17005KT 2 1/2SM R16/5000VP6000FT BR BKN001 12/12 A3006 RMK AO2=
201108121253 METAR KBLI 121253Z AUTO 17005KT 7SM BKN003 13/12 A3006 RMK AO2 SLP185 T01280117=
201108121153 METAR KBLI 121153Z AUTO 18005KT 10SM CLR 13/12 A3006 RMK AO2 SLP184 T01280117 10144 20122 58003=
201108121053 METAR KBLI 121053Z AUTO 19003KT 10SM FEW095 13/12 A3006 RMK AO2 SLP185 T01330117=
201108120953 METAR KBLI 120953Z AUTO 16004KT 10SM CLR 14/12 A3006 RMK AO2 SLP187 T01390122=
201108120853 METAR KBLI 120853Z AUTO 18003KT 10SM FEW110 13/12 A3006 RMK AO2 SLP186 T01330117 58002=
201108120753 METAR KBLI 120753Z AUTO 19003KT 10SM FEW050 14/13 A3007 RMK AO2 SLP187 T01440128 402110122=
201108120653 METAR KBLI 120653Z AUTO 00000KT 10SM CLR 13/12 A3007 RMK AO2 SLP188 T01280117=
201108120553 METAR KBLI 120553Z AUTO 00000KT 10SM CLR 14/12 A3007 RMK AO2 SLP189 T01440122 10211 20144 53005=
201108120453 METAR KBLI 120453Z 18003KT 10SM CLR 16/12 A3007 RMK AO2 SLP188 T01560122=
201108120353 METAR KBLI 120353Z 00000KT 10SM CLR 15/12 A3006 RMK AO2 SLP184 T01500122=
201108120253 METAR KBLI 120253Z 18003KT 10SM CLR 18/13 A3006 RMK AO2 SLP184 T01780128 55004=
201108120153 METAR KBLI 120153Z 17004KT 10SM CLR 20/12 A3006 RMK AO2 SLP183 T02000122=
201108120053 SPECI KBLI 120053Z 17005KT 10SM CLR 21/12 A3006 RMK AO2 SLP186 T02060122=
201108112353 METAR KBLI 112353Z 16005KT 10SM CLR 21/12 A3007 RMK AO2 SLP188 T02110122 10211 20167 58004=
201108112253 METAR KBLI 112253Z 15006KT 10SM CLR 21/12 A3008 RMK AO2 SLP190 T02060117=
201108112153 METAR KBLI 112153Z 16006KT 10SM CLR 20/12 A3009 RMK AO2 SLP194 T02000117=
201108112053 METAR KBLI 112053Z 16010KT 10SM CLR 19/12 A3008 RMK AO2 SLP193 T01940117 51002=
201108111953 METAR KBLI 111953Z 18007KT 150V220 10SM CLR 18/12 A3008 RMK AO2 SLP192 T01830122=
201108111853 METAR KBLI 111853Z 18010KT 10SM CLR 17/11 A3009 RMK AO2 SLP194 T01720111=
201108111753 METAR KBLI 111753Z 17008KT 10SM FEW043 17/12 A3008 RMK AO2 SLP191 T01720117 10172 20139 53011=
201108111653 METAR KBLI 111653Z 16010KT 10SM BKN041 OVC065 16/11 A3007 RMK AO2 SLP188 T01560111=
201108111553 METAR KBLI 111553Z 17009KT 10SM BKN041 16/11 A3005 RMK AO2 SLP182 T01610106=
201108111453 METAR KBLI 111453Z 17007KT 10SM OVC047 14/11 A3004 RMK AO2 SLP180 T01440111 53012=
201108111353 METAR KBLI 111353Z 16004KT 10SM BKN065 14/11 A3003 RMK AO2 SLP175 T01440111=
201108111253 METAR KBLI 111253Z AUTO 17007KT 10SM BKN046 OVC065 14/11 A3002 RMK AO2 SLP170 T01390111=
201108111153 METAR KBLI 111153Z AUTO 17007KT 10SM BKN050 OVC065 14/11 A3001 RMK AO2 SLP167 T01440111 10156 20144 53003=
201108111053 METAR KBLI 111053Z AUTO 16004KT 10SM OVC065 14/11 A3000 RMK AO2 SLP166 T01440111=
201108110953 METAR KBLI 110953Z AUTO 17005KT 10SM OVC055 15/11 A3000 RMK AO2 SLP165 T01500111=
201108110853 METAR KBLI 110853Z AUTO 17004KT 10SM FEW049 OVC060 16/12 A3000 RMK AO2 SLP165 T01560117 53002=
201108110753 METAR KBLI 110753Z AUTO 00000KT 10SM BKN047 OVC060 16/12 A3000 RMK AO2 SLP164 T01560122 401830133=
201108110653 METAR KBLI 110653Z AUTO 17004KT 10SM OVC047 16/12 A2999 RMK AO2 SLP162 T01560117=
201108110553 METAR KBLI 110553Z AUTO 00000KT 10SM OVC044 16/13 A2999 RMK AO2 SLP163 T01560128 10183 20156 50002=
201108110453 METAR KBLI 110453Z 00000KT 10SM BKN044 OVC095 16/12 A3000 RMK AO2 SLP165 T01610122=
201108110353 METAR KBLI 110353Z 16003KT 10SM SCT045 OVC095 17/12 A2999 RMK AO2 SLP162 T01670117=
201108110253 METAR KBLI 110253Z 16003KT 10SM SCT042 OVC090 17/12 A2999 RMK AO2 SLP161 T01670122 55000=
201108110153 METAR KBLI 110153Z 18003KT 10SM BKN043 OVC090 17/11 A2998 RMK AO2 SLP159 T01720111=
201108110053 METAR KBLI 110053Z 16003KT 10SM BKN046 OVC055 18/11 A2999 RMK AO2 SLP160 T01830106=
201108102353 METAR KBLI 102353Z 18005KT 10SM BKN037 OVC048 18/11 A2999 RMK AO2 SLP161 T01780106 10183 20156 56008=
201108102253 METAR KBLI 102253Z VRB04KT 10SM OVC035 18/11 A2999 RMK AO2 SLP162 T01780106=
201108102153 METAR KBLI 102153Z 18004KT 10SM OVC035 17/11 A3001 RMK AO2 SLP168 T01720106=
201108102053 METAR KBLI 102053Z 17008KT 10SM OVC039 16/10 A3001 RMK AO2 SLP169 T01610100 51006=
201108101953 METAR KBLI 101953Z 17012KT 10SM BKN045 OVC060 17/11 A3001 RMK AO2 SLP167 T01670111=
201108101853 METAR KBLI 101853Z 17011G17KT 10SM OVC050 16/11 A3000 RMK AO2 SLP166 T01610111=
201108101753 METAR KBLI 101753Z 17012KT 10SM FEW070 BKN085 16/11 A3000 RMK AO2 SLP164 T01560111 10156 20133 51003=
201108101653 METAR KBLI 101653Z 17011G17KT 10SM OVC050 14/11 A2999 RMK AO2 SLP163 T01440106=
201108101553 METAR KBLI 101553Z 17011G16KT 10SM BKN050 OVC080 14/11 A2999 RMK AO2 SLP162 T01390106=
201108101453 METAR KBLI 101453Z 17011KT 10SM BKN050 OVC060 14/10 A2999 RMK AO2 SLP161 T01390100 53001=
201108101353 METAR KBLI 101353Z 16008G15KT 10SM SCT055 OVC080 14/10 A2999 RMK AO2 SLP162 T01390100=
201108101253 METAR KBLI 101253Z AUTO 17009KT 10SM BKN048 OVC085 14/10 A2998 RMK AO2 SLP158 T01390100=
201108101153 METAR KBLI 101153Z AUTO 17006KT 10SM BKN050 OVC060 14/11 A2999 RMK AO2 SLP160 7//// T01440111 10156 20144 50000=
201108101053 METAR KBLI 101053Z AUTO 15005KT 10SM OVC043 16/10 A2999 RMK AO2 SLP162 T01560100=
201108100953 METAR KBLI 100953Z AUTO 16007KT 10SM BKN043 OVC050 15/11 A2998 RMK AO2 SLP159 T01500106=
201108100853 METAR KBLI 100853Z AUTO 17009KT 10SM OVC038 15/11 A2999 RMK AO2 SLP160 T01500106 58008=
201108100753 METAR KBLI 100753Z AUTO 17008KT 10SM OVC040 16/11 A2999 RMK AO2 SLP163 T01560106 401830133=
201108100653 METAR KBLI 100653Z AUTO 17007KT 10SM SCT042 BKN055 15/11 A3000 RMK AO2 SLP166 T01500106=
201108100553 METAR KBLI 100553Z AUTO 16007KT 10SM BKN040 15/11 A3001 RMK AO2 SLP168 T01500106 10178 20150 50000=
201108100453 METAR KBLI 100453Z 16007KT 10SM SCT060 15/11 A3002 RMK AO2 SLP170 T01500106=
201108100353 METAR KBLI 100353Z 17007KT 10SM SCT060 16/11 A3002 RMK AO2 SLP170 T01560106=
201108100253 METAR KBLI 100253Z 16008G15KT 10SM CLR 16/11 A3001 RMK AO2 SLP168 T01610111 56011=
201108100153 METAR KBLI 100153Z 17009KT 10SM CLR 17/11 A3002 RMK AO2 SLP171 T01670111=
201108100053 METAR KBLI 100053Z 17009G16KT 10SM CLR 17/11 A3003 RMK AO2 SLP174 T01720111=
201108092353 METAR KBLI 092353Z 17008G17KT 10SM FEW070 17/11 A3004 RMK AO2 SLP179 T01670111 10183 20156 58007=
201108092253 METAR KBLI 092253Z 17012G18KT 10SM CLR 18/11 A3005 RMK AO2 SLP181 T01830111=
201108092153 METAR KBLI 092153Z 17014G19KT 10SM CLR 18/11 A3006 RMK AO2 SLP185 T01780111 $=
201108092053 METAR KBLI 092053Z 16013G20KT 10SM BKN060 18/11 A3006 RMK AO2 SLP186 T01780106 58000 $=
201108091953 METAR KBLI 091953Z 16011KT 10SM SCT017 BKN060 17/11 A3007 RMK AO2 SLP188 T01670106 $=
201108091935 SPECI KBLI 091935Z 16011G15KT 10SM BKN017 17/11 A3007 RMK AO2 $=
201108091935 SPECI KBLI 091935Z 16011G15KT 10SM BKN017 17/11 A3007 RMK AO2 $=
201108091853 METAR KBLI 091853Z 18010G17KT 10SM OVC060 16/11 A3007 RMK AO2 SLP188 T01560111 $=
201108091753 METAR KBLI 091753Z 15012G18KT 10SM FEW012 BKN060 16/11 A3006 RMK AO2 SLP186 6//// T01560111 10161 20133 $=
201108091653 METAR KBLI 091653Z 15012G18KT 10SM FEW046 OVC060 15/11 A3006 RMK AO2 SLP185 T01500111 $=
201108091553 METAR KBLI 091553Z 17011KT 10SM SCT015 BKN060 14/11 A3006 RMK AO2 SLP186 T01440111=
201108091453 METAR KBLI 091453Z 16009KT 10SM SCT015 BKN060 14/11 A3006 RMK AO2 SLP184 T01390111 53009=
201108091353 METAR KBLI 091353Z 16011G16KT 10SM FEW060 13/11 A3005 RMK AO2 SLP181 T01330106 $=
201108091253 METAR KBLI 091253Z AUTO 17011G16KT 10SM OVC060 14/11 A3004 RMK AO2 SLPNO T01390106 $=
201108091153 METAR KBLI 091153Z AUTO 16010KT 10SM OVC060 14/11 A3003 RMK AO2 SLP175 7//// T01440106 10167 20144 50002 $=
201108091053 METAR KBLI 091053Z AUTO 16008KT 10SM BKN060 14/11 A3003 RMK AO2 SLP175 T01440106 $=
201108090953 METAR KBLI 090953Z AUTO 15008KT 10SM CLR 15/11 A3003 RMK AO2 SLP174 T01500111 $=
201108090853 METAR KBLI 090853Z AUTO 16008G16KT 10SM CLR 16/11 A3003 RMK AO2 SLP173 T01560111 53003 $=
201108090753 METAR KBLI 090753Z AUTO 16008KT 10SM CLR 16/12 A3002 RMK AO2 SLP172 T01560117 401940128 $=
201108090653 METAR KBLI 090653Z AUTO 16009KT 10SM CLR 16/11 A3002 RMK AO2 SLP171 T01610111 $=
201108090553 METAR KBLI 090553Z AUTO 16008KT 10SM CLR 17/11 A3002 RMK AO2 SLP170 6//// T01670111 10189 20167 51005 $=
201108090453 METAR KBLI 090453Z 16009KT 10SM CLR 17/12 A3001 RMK AO2 SLP169 T01670117 $=
201108090353 METAR KBLI 090353Z 16008KT 10SM CLR 17/11 A3001 RMK AO2 SLP168 T01670111 $=
201108090253 METAR KBLI 090253Z 17010KT 10SM CLR 17/12 A3000 RMK AO2 SLP165 6//// T01670122 $=
201108090153 METAR KBLI 090153Z 18009G15KT 10SM CLR 18/13 A3000 RMK AO2 SLP165 T01830128 $=
201108090100 METAR KBLI NIL=
201108090045 METAR KBLI 090045Z 18013KT 10SM SKC 20/13 A3005=
201108090000 METAR KBLI NIL=
201108082345 METAR KBLI 082345Z 16012KT 10SM SKC 21/14 A3005=
201108082300 METAR KBLI NIL=
201108082153 METAR KBLI 082153Z 19006KT 10SM CLR 18/13 A3004 RMK AO2 SLP179 T01830128=
201108082053 METAR KBLI 082053Z 16011G16KT 10SM CLR 18/12 A3005 RMK AO2 SLP182 T01780122 55000=
201108081953 METAR KBLI 081953Z 20006G14KT 10SM CLR 18/12 A3005 RMK AO2 SLP182 T01780122=
201108081853 METAR KBLI 081853Z 18009G16KT 10SM FEW030 17/12 A3005 RMK AO2 SLP181 T01670117=
201108081753 METAR KBLI 081753Z 17011G17KT 10SM FEW030 16/12 A3005 RMK AO2 SLP182 T01560117 10167 20128 51006=
201108081708 SPECI KBLI 081708Z 17010G16KT 10SM OVC030 16/12 A3005 RMK AO2=
201108081708 SPECI KBLI 081708Z 17010G16KT 10SM OVC030 16/12 A3005 RMK AO2=
201108081653 METAR KBLI 081653Z 16010KT 10SM OVC028 15/12 A3005 RMK AO2 SLP182 T01500117=
201108081553 METAR KBLI 081553Z 16008KT 10SM OVC026 15/12 A3004 RMK AO2 SLP179 T01500117=
201108081500 SPECI KBLI 081500Z 17006KT 10SM OVC028 15/12 A3003 RMK AO2=
201108081500 SPECI KBLI 081500Z 17006KT 10SM OVC028 15/12 A3003 RMK AO2=
201108081453 METAR KBLI 081453Z 18006KT 10SM SCT028 14/12 A3003 RMK AO2 SLP176 T01440117 52008=
201108081444 SPECI KBLI 081444Z 18005KT 10SM BKN028 14/11 A3003 RMK AO2=
201108081444 SPECI KBLI 081444Z 18005KT 10SM BKN028 14/11 A3003 RMK AO2=
201108081353 METAR KBLI 081353Z AUTO 18006KT 10SM CLR 14/11 A3002 RMK AO2 SLP172 T01440111=
201108081253 METAR KBLI 081253Z AUTO 16006KT 10SM CLR 14/11 A3002 RMK AO2 SLP172 T01390106=
201108081153 METAR KBLI 081153Z AUTO 16003KT 10SM FEW100 13/11 A3001 RMK AO2 SLP168 T01280111 10161 20128 53005=
201108081053 METAR KBLI 081053Z AUTO 00000KT 10SM CLR 13/12 A3000 RMK AO2 SLP165 T01330117=
201108080953 METAR KBLI 080953Z AUTO 17005KT 10SM FEW100 14/12 A3000 RMK AO2 SLP164 T01440122=
201108080853 METAR KBLI 080853Z AUTO 17004KT 10SM FEW060 15/13 A3000 RMK AO2 SLP163 T01500128 53002=
201108080753 METAR KBLI 080753Z AUTO 17005KT 10SM SCT060 16/13 A2999 RMK AO2 SLP163 T01610128 402110133=
201108080653 METAR KBLI 080653Z AUTO 18007KT 10SM FEW100 16/13 A2999 RMK AO2 SLP161 T01610133=
201108080553 METAR KBLI 080553Z AUTO 17007KT 10SM CLR 16/13 A2999 RMK AO2 SLP161 T01610133 10211 20161 53003=
201108080453 METAR KBLI 080453Z 17007KT 10SM CLR 17/13 A2999 RMK AO2 SLP160 T01720133=
201108080353 METAR KBLI 080353Z 17005KT 10SM CLR 18/13 A2998 RMK AO2 SLP159 T01780128=
201108080253 METAR KBLI 080253Z 17006KT 10SM R16/2400VP6000FT CLR 18/14 A2998 RMK AO2 SLP158 T01830139 56006=
201108080153 METAR KBLI 080153Z 17004KT 10SM CLR 19/14 A2999 RMK AO2 SLP160 T01940139=
201108080053 METAR KBLI 080053Z 17006KT 10SM CLR 20/13 A2999 RMK AO2 SLP160 T02000133=
201108072353 METAR KBLI 072353Z 17006KT 10SM CLR 21/13 A3000 RMK AO2 SLP164 T02060133 10211 20150 58009=
201108072253 METAR KBLI 072253Z 18006KT 10SM CLR 20/13 A3001 RMK AO2 SLP167 T02000133=
201108072153 METAR KBLI 072153Z 17006KT 10SM CLR 19/14 A3002 RMK AO2 SLP171 T01940139=
201108072053 METAR KBLI 072053Z 18007KT 10SM CLR 19/14 A3003 RMK AO2 SLP173 T01890139 58003=
201108071953 METAR KBLI 071953Z 18008KT 10SM CLR 17/13 A3003 RMK AO2 SLP175 T01720133=
201108071917 SPECI KBLI 071917Z VRB05KT 6SM HZ SCT006 17/13 A3003 RMK AO2=
201108071917 SPECI KBLI 071917Z VRB05KT 6SM HZ SCT006 17/13 A3003 RMK AO2=
201108071853 METAR KBLI 071853Z VRB05KT 3SM HZ OVC004 16/13 A3003 RMK AO2 SLP176 T01610133=
201108071800 SPECI KBLI 071800Z 16007KT 2SM BR OVC002 16/13 A3003 RMK AO2=
201108071800 SPECI KBLI 071800Z 16007KT 2SM BR OVC002 16/13 A3003 RMK AO2=
201108071753 METAR KBLI 071753Z 17006KT 1 1/2SM BR OVC002 16/13 A3003 RMK AO2 SLP176 T01560133 10156 20133 51004=
201108071716 SPECI KBLI 071716Z VRB04KT 1SM R16/P6000FT BR OVC002 15/13 A3003 RMK AO2=
201108071716 SPECI KBLI 071716Z VRB04KT 1SM R16/P6000FT BR OVC002 15/13 A3003 RMK AO2=
201108071653 METAR KBLI 071653Z 19006KT 3/4SM R16/5000VP6000FT BR OVC002 14/13 A3003 RMK AO2 SLP175 T01440128=
201108071621 SPECI KBLI 071621Z 17008KT 3/4SM R16/2600V6000FT BR OVC002 14/13 A3003 RMK AO2=
201108071621 SPECI KBLI 071621Z 17008KT 3/4SM R16/2600V6000FT BR OVC002 14/13 A3003 RMK AO2=
201108071608 SPECI KBLI 071608Z VRB05KT 1SM R16/2800VP6000FT BR OVC002 14/13 A3003 RMK AO2=
201108071608 SPECI KBLI 071608Z VRB05KT 1SM R16/2800VP6000FT BR OVC002 14/13 A3003 RMK AO2=
201108071557 SPECI KBLI 071557Z 18007KT 1/2SM R16/1400V2400FT FG OVC002 13/13 A3003 RMK AO2=
201108071557 SPECI KBLI 071557Z 18007KT 1/2SM R16/1400V2400FT FG OVC002 13/13 A3003 RMK AO2=
201108071553 METAR KBLI 071553Z 18005KT 3/4SM R16/1400V2000FT BR OVC002 13/13 A3003 RMK AO2 SLP173 T01330128=
201108071517 SPECI KBLI 071517Z 16006KT 3/4SM R16/1600V3000FT BR OVC002 14/13 A3002 RMK AO2=
201108071517 SPECI KBLI 071517Z 16006KT 3/4SM R16/1600V3000FT BR OVC002 14/13 A3002 RMK AO2=
201108071509 SPECI KBLI 071509Z 16004KT 1 3/4SM R16/2200VP6000FT BR OVC002 14/13 A3002 RMK AO2=
201108071509 SPECI KBLI 071509Z 16004KT 1 3/4SM R16/2200VP6000FT BR OVC002 14/13 A3002 RMK AO2=
201108071453 METAR KBLI 071453Z 17005KT 7SM BKN004 14/13 A3002 RMK AO2 SLP171 T01440128 51007=
201108071425 SPECI KBLI 071425Z 17005KT 9SM BKN004 14/12 A3002 RMK AO2=
201108071425 SPECI KBLI 071425Z 17005KT 9SM BKN004 14/12 A3002 RMK AO2=
201108071408 SPECI KBLI 071408Z 17005KT 10SM SCT004 14/12 A3002 RMK AO2=
201108071408 SPECI KBLI 071408Z 17005KT 10SM SCT004 14/12 A3002 RMK AO2=
201108071353 METAR KBLI 071353Z AUTO 16004KT 10SM CLR 14/12 A3001 RMK AO2 SLP170 T01390122=
201108071253 METAR KBLI 071253Z AUTO VRB03KT 10SM CLR 13/12 A3001 RMK AO2 SLP167 T01330117=
201108071153 METAR KBLI 071153Z AUTO 19004KT 10SM CLR 14/12 A3000 RMK AO2 SLP164 T01390122 10161 20133 53003=
201108071053 METAR KBLI 071053Z AUTO 18004KT 10SM CLR 14/13 A2999 RMK AO2 SLP162 T01440128=
201108070953 METAR KBLI 070953Z AUTO 19003KT 10SM CLR 14/13 A2999 RMK AO2 SLP160 T01440128=
201108070853 METAR KBLI 070853Z AUTO 19004KT 10SM CLR 15/13 A2999 RMK AO2 SLP161 T01500133 58001=
201108070753 METAR KBLI 070753Z AUTO 00000KT 10SM CLR 14/13 A2999 RMK AO2 SLP162 T01390128 402280133=
201108070653 METAR KBLI 070653Z AUTO 00000KT 10SM CLR 15/13 A2999 RMK AO2 SLP161 T01500133=
201108070553 METAR KBLI 070553Z AUTO 17003KT 10SM CLR 16/13 A2999 RMK AO2 SLP162 T01610133 10228 20156 54000=
201108070453 METAR KBLI 070453Z 17003KT 10SM CLR 17/14 A2999 RMK AO2 SLP163 T01720139=
201108070353 METAR KBLI 070353Z 00000KT 10SM CLR 17/14 A2999 RMK AO2 SLP161 T01670139=
201108070253 METAR KBLI 070253Z 00000KT 10SM CLR 20/13 A2999 RMK AO2 SLP162 T02000133 55006=
201108070153 METAR KBLI 070153Z 26003KT 10SM CLR 22/13 A2999 RMK AO2 SLP160 T02170128=
201108070053 METAR KBLI 070053Z VRB04KT 10SM CLR 22/13 A3000 RMK AO2 SLP163 T02220128=
201108062353 METAR KBLI 062353Z AUTO 18005KT 10SM CLR 22/14 A3001 RMK AO2 SLP167 T02220144 10228 20178 56010 TSNO=
201108062253 METAR KBLI 062253Z AUTO 19005KT 10SM CLR 22/14 A3002 RMK AO2 SLP171 T02220144 TSNO=
201108062153 METAR KBLI 062153Z VRB06KT 10SM CLR 22/14 A3003 RMK AO2 SLP174 T02170139=
201108062053 METAR KBLI 062053Z 16006KT 10SM CLR 21/14 A3004 RMK AO2 SLP179 T02060139 57001=
201108061953 METAR KBLI 061953Z 16008KT 10SM SCT026 OVC046 20/13 A3004 RMK AO2 SLP179 T02000133=
201108061853 METAR KBLI 061853Z 19004KT 10SM OVC046 19/14 A3004 RMK AO2 SLP180 T01890139=
201108061753 METAR KBLI 061753Z 16008KT 10SM OVC046 18/13 A3004 RMK AO2 SLP180 T01780133 10178 20156 53003=
201108061653 METAR KBLI 061653Z 18006KT 10SM OVC044 17/13 A3004 RMK AO2 SLP178 T01670133=
201108061553 METAR KBLI 061553Z 18005KT 10SM OVC044 16/13 A3004 RMK AO2 SLP177 T01560133=
201108061453 METAR KBLI 061453Z 17006KT 10SM OVC040 16/13 A3004 RMK AO2 SLP177 T01560128 53003=
201108061353 METAR KBLI 061353Z 19003KT 10SM SCT040 OVC065 16/13 A3003 RMK AO2 SLP173 T01560133=
201108061253 METAR KBLI 061253Z AUTO 15005KT 10SM SCT044 BKN065 16/13 A3002 RMK AO2 SLP172 T01560128=
201108061153 METAR KBLI 061153Z AUTO 15005KT 10SM BKN044 16/13 A3003 RMK AO2 SLP173 T01560128 10161 20156 53002=
201108061053 METAR KBLI 061053Z AUTO 16008KT 10SM BKN044 16/13 A3002 RMK AO2 SLP170 T01560128=
201108060953 METAR KBLI 060953Z AUTO 17008KT 10SM FEW050 OVC070 16/13 A3002 RMK AO2 SLP171 T01560128=
201108060853 METAR KBLI 060853Z AUTO 16008KT 10SM BKN047 BKN055 OVC070 16/13 A3002 RMK AO2 SLP171 T01610128 58001=
201108060753 METAR KBLI 060753Z AUTO 16008KT 10SM BKN047 OVC060 16/13 A3002 RMK AO2 SLP171 T01610128 402060144=
201108060653 METAR KBLI 060653Z AUTO 16011KT 10SM OVC047 16/13 A3003 RMK AO2 SLP173 T01610128=
201108060553 METAR KBLI 060553Z AUTO 16008KT 10SM SCT047 BKN060 16/13 A3002 RMK AO2 SLP172 T01610128 10206 20161 50000=
201108060453 METAR KBLI 060453Z 16006KT 10SM FEW047 16/13 A3003 RMK AO2 SLP176 T01610128=
201108060353 METAR KBLI 060353Z 16008KT 10SM CLR 17/13 A3003 RMK AO2 SLP174 T01670133=
201108060253 METAR KBLI 060253Z 16006KT 10SM CLR 18/13 A3002 RMK AO2 SLP171 T01780133 55007=
201108060153 METAR KBLI 060153Z 17009KT 10SM CLR 19/14 A3002 RMK AO2 SLP171 T01890139=
201108060053 METAR KBLI 060053Z 17009G16KT 10SM CLR 20/14 A3003 RMK AO2 SLP174 T02000139=
201108052353 METAR KBLI 052353Z 17011G16KT 10SM CLR 20/13 A3004 RMK AO2 SLP178 T02000133 10206 20172 58004=
201108052253 METAR KBLI 052253Z 17012KT 10SM CLR 20/13 A3005 RMK AO2 SLP180 T02000133=
201108052153 METAR KBLI 052153Z 17013G18KT 10SM CLR 20/13 A3005 RMK AO2 SLP181 T02000133=
201108052053 METAR KBLI 052053Z 16012KT 10SM CLR 19/14 A3005 RMK AO2 SLP183 T01940139 58001=
201108051953 METAR KBLI 051953Z 17010G18KT 10SM FEW065 19/14 A3006 RMK AO2 SLP184 T01940139=
201108051853 METAR KBLI 051853Z 16008G16KT 10SM FEW011 OVC065 18/13 A3005 RMK AO2 SLP183 T01780133=
201108051753 METAR KBLI 051753Z 17009G19KT 10SM SCT011 BKN070 17/13 A3006 RMK AO2 SLP183 T01720133 10172 20144 51008=
201108051653 METAR KBLI 051653Z 17014G21KT 10SM OVC011 17/13 A3005 RMK AO2 SLP182 T01670128=
201108051553 METAR KBLI 051553Z 17010G18KT 10SM OVC011 16/13 A3004 RMK AO2 SLP180 T01610128=
201108051453 METAR KBLI 051453Z 17016G24KT 10SM OVC011 16/13 A3003 RMK AO2 PK WND 15026/1430 SLP175 T01560128 53010=
201108051427 SPECI KBLI 051427Z 17016G22KT 10SM BKN013 16/13 A3003 RMK AO2=
201108051427 SPECI KBLI 051427Z 17016G22KT 10SM BKN013 16/13 A3003 RMK AO2=
201108051353 METAR KBLI 051353Z 16015G22KT 10SM SCT013 15/12 A3002 RMK AO2 SLP170 T01500122=
201108051253 METAR KBLI 051253Z AUTO 15009KT 10SM CLR 15/12 A3000 RMK AO2 SLP165 T01500122=
201108051153 METAR KBLI 051153Z AUTO 17010G16KT 10SM BKN075 14/12 A3000 RMK AO2 SLP164 T01440122 10167 20144 51008=
201108051053 METAR KBLI 051053Z AUTO 17010KT 10SM CLR 14/13 A3000 RMK AO2 SLP163 T01440128=
201108050953 METAR KBLI 050953Z AUTO 17012KT 10SM CLR 15/13 A2999 RMK AO2 SLP160 T01500128=
201108050853 METAR KBLI 050853Z AUTO 17009KT 10SM CLR 16/13 A2998 RMK AO2 SLP156 T01560128 51004=
201108050753 METAR KBLI 050753Z AUTO 18007KT 10SM CLR 16/13 A2998 RMK AO2 SLP155 T01610128 402500139=
201108050653 METAR KBLI 050653Z AUTO 17010KT 10SM CLR 16/13 A2997 RMK AO2 SLP155 T01610128=
201108050553 METAR KBLI 050553Z AUTO 17009KT 10SM FEW095 16/13 A2997 RMK AO2 SLP153 T01610133 10239 20161 53007=
201108050453 METAR KBLI 050453Z 17010KT 10SM FEW100 17/13 A2996 RMK AO2 SLP150 T01720133=
201108050353 METAR KBLI 050353Z 17009KT 10SM CLR 18/13 A2995 RMK AO2 SLP148 T01830128=
201108050253 METAR KBLI 050253Z 17004KT 10SM CLR 21/14 A2994 RMK AO2 SLP145 T02060139 56007=
201108050153 METAR KBLI 050153Z 17006KT 10SM CLR 23/14 A2995 RMK AO2 SLP146 T02280139=
201108050053 METAR KBLI 050053Z 17006KT 10SM CLR 23/14 A2996 RMK AO2 SLP148 T02330139=
201108042353 METAR KBLI 042353Z 16005KT 10SM CLR 24/14 A2996 RMK AO2 SLP151 T02390144 10250 20183 56007=
201108042253 METAR KBLI 042253Z VRB04KT 10SM CLR 24/14 A2997 RMK AO2 SLP153 T02390144=
201108042153 METAR KBLI 042153Z 20004KT 10SM CLR 23/14 A2998 RMK AO2 SLP155 T02330144=
201108042053 METAR KBLI 042053Z 16008KT 10SM CLR 23/14 A2999 RMK AO2 SLP158 T02280144 56005=
201108041953 METAR KBLI 041953Z 16005KT 10SM CLR 22/15 A2999 RMK AO2 SLP159 T02170150=
201108041853 METAR KBLI 041853Z 18005KT 10SM CLR 21/14 A2999 RMK AO2 SLP162 T02060144=
201108041753 METAR KBLI 041753Z 18007KT 10SM CLR 18/13 A3000 RMK AO2 SLP165 T01830133 10183 20139 51005=
201108041653 METAR KBLI 041653Z 17006KT 10SM CLR 17/13 A3000 RMK AO2 SLP165 T01720133=
201108041553 METAR KBLI 041553Z 16005KT 10SM CLR 16/13 A3000 RMK AO2 SLP163 T01610133=
201108041453 METAR KBLI 041453Z 18006KT 10SM CLR 16/13 A2999 RMK AO2 SLP160 T01560133 53008=
201108041353 METAR KBLI 041353Z 16005KT 10SM CLR 15/13 A2998 RMK AO2 SLP155 T01500133=
201108041253 METAR KBLI 041253Z AUTO 19003KT 10SM CLR 14/13 A2997 RMK AO2 SLP153 T01440128=
201108041153 METAR KBLI 041153Z AUTO 18005KT 10SM CLR 14/13 A2996 RMK AO2 SLP151 T01440128 10161 20139 53003=
201108041053 METAR KBLI 041053Z AUTO 18006KT 10SM CLR 14/13 A2995 RMK AO2 SLP148 T01440128=
201108040953 METAR KBLI 040953Z AUTO 19006KT 10SM CLR 15/13 A2995 RMK AO2 SLP147 T01500133=
201108040853 METAR KBLI 040853Z AUTO 17004KT 10SM CLR 16/14 A2995 RMK AO2 SLP148 T01560139 50002=
201108040753 METAR KBLI 040753Z AUTO 17004KT 10SM CLR 16/14 A2996 RMK AO2 SLP150 T01610139 402560122=
201108040653 METAR KBLI 040653Z AUTO 00000KT 10SM CLR 16/14 A2995 RMK AO2 SLP149 T01560139=
201108040553 METAR KBLI 040553Z AUTO 00000KT 10SM CLR 15/13 A2995 RMK AO2 SLP147 T01500128 10250 20150 51006=
201108040453 METAR KBLI 040453Z 00000KT 10SM CLR 17/14 A2994 RMK AO2 SLP145 T01670139=
201108040353 METAR KBLI 040353Z 00000KT 10SM CLR 18/15 A2994 RMK AO2 SLP143 T01780150=
201108040253 METAR KBLI 040253Z 00000KT 10SM CLR 21/14 A2993 RMK AO2 SLP141 T02110144 55006=
201108040153 METAR KBLI 040153Z 30003KT 10SM CLR 23/13 A2993 RMK AO2 SLP139 T02330128=
201108040053 METAR KBLI 040053Z VRB03KT 10SM CLR 24/12 A2994 RMK AO2 SLP142 T02440122=
201108032353 METAR KBLI 032353Z 27006KT 10SM CLR 25/12 A2995 RMK AO2 SLP145 T02500117 10256 20183 56015=
201108032253 METAR KBLI 032253Z AUTO VRB03KT 10SM CLR 24/13 A2996 RMK AO2 SLP150 T02440128 TSNO=
201108032153 METAR KBLI 032153Z 26005KT 10SM CLR 24/12 A2997 RMK AO2 SLP155 T02390122=
201108032053 METAR KBLI 032053Z VRB06KT 10SM CLR 23/11 A2999 RMK AO2 SLP160 T02330111 58008=
201108031953 METAR KBLI 031953Z 17005KT 10SM CLR 22/13 A3000 RMK AO2 SLP164 T02170133=
201108031853 METAR KBLI 031853Z 18005KT 10SM CLR 21/13 A3001 RMK AO2 SLP166 T02060128=
201108031753 METAR KBLI 031753Z 17005KT 10SM OVC090 19/13 A3001 RMK AO2 SLP169 T01890128 10189 20139 50001=
201108031653 METAR KBLI 031653Z 18005KT 10SM OVC090 17/12 A3002 RMK AO2 SLP171 T01720122=
201108031553 METAR KBLI 031553Z 19003KT 10SM OVC090 17/12 A3002 RMK AO2 SLP172 T01670122=
201108031453 METAR KBLI 031453Z 19004KT 10SM BKN090 16/12 A3001 RMK AO2 SLP169 T01560117 53005=
201108031353 METAR KBLI 031353Z 18004KT 10SM OVC090 15/12 A3000 RMK AO2 SLP166 T01500117=
201108031253 METAR KBLI 031253Z AUTO 00000KT 10SM BKN065 BKN080 14/12 A3000 RMK AO2 SLP165 T01390117=
201108031153 METAR KBLI 031153Z AUTO 19003KT 10SM FEW065 SCT085 14/12 A3000 RMK AO2 SLP164 T01390117 10172 20122 53004=
201108031053 METAR KBLI 031053Z AUTO 00000KT 10SM CLR 13/12 A2999 RMK AO2 SLP161 T01330117=
201108030953 METAR KBLI 030953Z AUTO 17006KT 10SM SCT095 15/12 A2999 RMK AO2 SLP160 T01500117=
201108030853 METAR KBLI 030853Z AUTO 18006KT 10SM BKN090 16/12 A2999 RMK AO2 SLP160 T01560122 53002=
201108030753 METAR KBLI 030753Z AUTO 17006KT 10SM FEW110 17/12 A2999 RMK AO2 SLP160 T01670122 402220128=
201108030653 METAR KBLI 030653Z AUTO 18004KT 10SM BKN090 17/12 A2998 RMK AO2 SLP157 T01720122=
201108030553 METAR KBLI 030553Z AUTO 18005KT 10SM BKN120 17/13 A2998 RMK AO2 SLP158 T01670128 10222 20167 51004=
201108030453 METAR KBLI 030453Z 17005KT 10SM BKN090 OVC110 19/11 A2998 RMK AO2 SLP156 T01890106=
201108030353 METAR KBLI 030353Z 16006KT 10SM BKN090 OVC110 19/10 A2997 RMK AO2 SLP155 T01940100=
201108030253 METAR KBLI 030253Z 18004KT 10SM BKN120 19/09 A2997 RMK AO2 SLP153 T01940089 58007=
201108030153 METAR KBLI 030153Z 18004KT 10SM BKN120 19/10 A2997 RMK AO2 SLP155 T01940100=
201108030053 METAR KBLI 030053Z 17006KT 10SM SCT120 20/11 A2998 RMK AO2 SLP159 T02000106=
201108022353 METAR KBLI 022353Z 17008KT 10SM SCT100 22/11 A2999 RMK AO2 SLP160 T02170106 10222 20189 56009=
201108022253 METAR KBLI 022253Z 18008KT 10SM CLR 22/11 A3000 RMK AO2 SLP163 T02220111=
201108022153 METAR KBLI 022153Z 18009KT 10SM CLR 21/12 A3000 RMK AO2 SLP165 T02110117=
201108022053 METAR KBLI 022053Z 16006KT 10SM SCT110 21/11 A3001 RMK AO2 SLP169 T02110111 58001=
201108021953 METAR KBLI 021953Z 18005KT 10SM FEW110 20/12 A3002 RMK AO2 SLP172 T02000117=
201108021853 METAR KBLI 021853Z 16010KT 10SM CLR 20/11 A3002 RMK AO2 SLP172 T02000111=
201108021753 METAR KBLI 021753Z 17007G17KT 10SM CLR 19/12 A3002 RMK AO2 SLP171 T01890122 10194 20128 50002=
201108021653 METAR KBLI 021653Z 18008KT 10SM CLR 18/13 A3002 RMK AO2 SLP172 T01780128=
201108021553 METAR KBLI 021553Z 16007KT 10SM CLR 18/12 A3002 RMK AO2 SLP170 T01780117=
201108021453 METAR KBLI 021453Z 16006KT 10SM CLR 17/12 A3001 RMK AO2 SLP169 T01670117 53007=
201108021353 METAR KBLI 021353Z 16005KT 10SM SCT080 16/12 A3000 RMK AO2 SLP164 T01560122=
201108021253 METAR KBLI 021253Z AUTO 15004KT 10SM CLR 16/11 A2999 RMK AO2 SLP159 T01560111=
201108021153 METAR KBLI 021153Z AUTO 00000KT 10SM CLR 14/12 A2999 RMK AO2 SLP161 70001 T01440122 10156 20128 51003=
201108021053 METAR KBLI 021053Z AUTO 00000KT 10SM CLR 14/12 A2999 RMK AO2 SLP161 T01390122=
201108020953 METAR KBLI 020953Z AUTO 00000KT 10SM CLR 14/13 A2999 RMK AO2 SLP160 T01440128=
201108020853 METAR KBLI 020853Z AUTO 17005KT 10SM CLR 15/13 A2998 RMK AO2 SLP159 T01500128 55000=
201108020753 METAR KBLI 020753Z AUTO 17003KT 10SM CLR 14/12 A2998 RMK AO2 SLP158 T01390117 402330089=
201108020653 METAR KBLI 020653Z AUTO 00000KT 10SM CLR 13/12 A2998 RMK AO2 SLP159 T01280117=
201108020553 METAR KBLI 020553Z AUTO 00000KT 10SM CLR 13/12 A2998 RMK AO2 SLP159 T01330117 10233 20133 53005=
201108020453 METAR KBLI 020453Z 00000KT 10SM CLR 14/13 A2998 RMK AO2 SLP158 T01440128=
201108020353 METAR KBLI 020353Z 00000KT 10SM CLR 16/13 A2997 RMK AO2 SLP155 T01610128=
201108020253 METAR KBLI 020253Z 25003KT 10SM CLR 20/12 A2997 RMK AO2 SLP155 T02000122 56013=
201108020153 METAR KBLI 020153Z 27005KT 10SM CLR 22/11 A2998 RMK AO2 SLP158 T02220106=
201108020053 METAR KBLI 020053Z 29005KT 10SM CLR 23/11 A3000 RMK AO2 SLP163 T02280106=
201108012353 METAR KBLI 012353Z 29007KT 10SM CLR 23/11 A3001 RMK AO2 SLP168 T02280106 10233 20200 58013=
201108012253 METAR KBLI 012253Z AUTO 26008KT 10SM CLR 22/11 A3003 RMK AO2 SLP174 T02220106 TSNO=
201108012153 METAR KBLI 012153Z 26008KT 10SM CLR 22/12 A3004 RMK AO2 SLP177 T02170122=
201108012053 METAR KBLI 012053Z 27008KT 10SM CLR 22/13 A3005 RMK AO2 SLP180 T02170133 58008=
201108011953 METAR KBLI 011953Z 29007KT 260V330 10SM FEW028 21/13 A3006 RMK AO2 SLP185 T02110133=
201108011901 SPECI KBLI 011901Z 27007KT 10SM FEW028 20/12 A3007 RMK AO2=
201108011901 SPECI KBLI 011901Z 27007KT 10SM FEW028 20/12 A3007 RMK AO2=
201108011853 METAR KBLI 011853Z 27005KT 10SM BKN028 20/13 A3007 RMK AO2 SLP189 T02000128=
201108011851 SPECI KBLI 011851Z 29006KT 10SM BKN028 20/13 A3007 RMK AO2=
201108011851 SPECI KBLI 011851Z 29006KT 10SM BKN028 20/13 A3007 RMK AO2=
201108011753 METAR KBLI 011753Z 33005KT 10SM CLR 20/13 A3008 RMK AO2 SLP192 60001 T02000128 10206 20089 56002=
201108011653 METAR KBLI 011653Z 01006KT 10SM CLR 18/12 A3008 RMK AO2 SLP192 T01780122=
201108011553 METAR KBLI 011553Z 01005KT 10SM CLR 16/12 A3008 RMK AO2 SLP193 T01560117=
201108011453 METAR KBLI 011453Z 00000KT 10SM CLR 13/12 A3009 RMK AO2 SLP194 60001 T01330117 53002=
201108011353 METAR KBLI 011353Z AUTO 34003KT 10SM CLR 11/10 A3009 RMK AO2 SLP194 T01110100=
201108011253 METAR KBLI 011253Z AUTO 00000KT 9SM CLR 09/08 A3008 RMK AO2 SLP191 P0001 T00940083=
201108011153 METAR KBLI 011153Z AUTO 00000KT 5SM BR CLR 10/09 A3008 RMK AO2 SLP192 70014 T01000089 10139 20094 50002=
201108011053 METAR KBLI 011053Z AUTO 00000KT 10SM CLR 10/09 A3008 RMK AO2 SLP193 T01000089=
201108010953 METAR KBLI 010953Z AUTO 00000KT 10SM CLR 11/10 A3007 RMK AO2 SLP190 T01110100=
201108010853 METAR KBLI 010853Z AUTO 00000KT 10SM CLR 12/11 A3007 RMK AO2 SLP190 T01170106 50003=
201108010753 METAR KBLI 010753Z AUTO 00000KT 10SM CLR 13/11 A3008 RMK AO2 SLP190 T01280106 402110128=
201108010653 METAR KBLI 010653Z AUTO 17004KT 10SM CLR 13/11 A3007 RMK AO2 SLP187 T01330111=
201108010553 METAR KBLI 010553Z AUTO 18003KT 10SM CLR 14/12 A3006 RMK AO2 SLP187 T01390117 10206 20139 52009=
201108010453 METAR KBLI 010453Z 18003KT 10SM CLR 15/12 A3006 RMK AO2 SLP185 T01500117=
201108010353 METAR KBLI 010353Z 17006KT 10SM CLR 17/12 A3004 RMK AO2 SLP180 T01670117=
201108010253 METAR KBLI 010253Z 18004KT 10SM CLR 18/11 A3004 RMK AO2 SLP178 T01780111 57003=
201108010153 METAR KBLI 010153Z 17006KT 10SM FEW065 19/11 A3004 RMK AO2 SLP179 T01890111=
201108010053 METAR KBLI 010053Z 18005KT 10SM OVC070 19/12 A3004 RMK AO2 SLP179 T01940117=

# No short TAF reports from KBLI in databse.

###################################
#  large TAF from KBLI
###################################
201108312320 TAF KBLI 312320Z 0100/0124 19007KT P6SM SCT050 FM010600 17005KT
                       P6SM SCT250 FM011500 17008KT P6SM SCT020
                       BKN250 FM011800 18008KT P6SM SCT120 BKN200=
201108311731 TAF KBLI 311731Z 3118/0118 19006KT P6SM BKN018 OVC040
                      TEMPO 3119/3121 SCT020 BKN040 FM312100 19006KT
                       P6SM SCT025 BKN050 FM312200 19007KT P6SM
                       SCT050 FM010600 17005KT P6SM SCT250 FM011500
                       17008KT P6SM SCT020 BKN250=
201108311417 KBLI 311417Z 3114/0112 18008KT P6SM OVC018 FM311700 19004KT P6SM
                       SCT025 OVC045 FM312000 19006KT P6SM BKN050
                       FM312200 19007KT P6SM SCT050 BKN100 FM010600
                       17005KT P6SM SCT250=
201108311120 TAF KBLI 311120Z 3112/0112 18005KT P6SM OVC090 FM311500 19004KT
                       P6SM SCT025 OVC045 FM311800 19006KT P6SM
                       BKN050 FM312100 19007KT P6SM SCT050 BKN100
                       FM010600 17005KT P6SM SCT250=
201108310530 TAF KBLI 310530Z 3106/0106 00000KT P6SM SCT080 FM311300 18005KT
                       P6SM BKN025 FM312100 19008KT P6SM SCT045
                       FM010300 18003KT P6SM SCT250=
201108302321 TAF KBLI 302321Z 3100/3124 19008KT P6SM SCT050 FM311300 18005KT
                       P6SM BKN025 FM312100 19008KT P6SM SCT045=
201108301729 TAF KBLI 301729Z 3018/3118 19006KT P6SM SCT020 BKN035
                      TEMPO 3018/3022 BKN020 OVC035 FM302200 19008KT
                       P6SM SCT030 FM311300 18005KT P6SM BKN025=
201108301124 TAF KBLI 301124Z 3012/3112 17004KT P6SM SCT050 FM301300 17006KT
                       P6SM OVC020 FM301900 19008KT P6SM BKN025
                       FM302200 19008KT P6SM SCT030=
201108300540 TAF KBLI 300540Z 3006/3106 17007G14KT P6SM BKN050 OVC090 FM300900
                       17006KT P6SM BKN020 FM301100 17006KT P6SM
                       OVC020 FM301900 19008KT P6SM BKN025 FM302200
                       19008KT P6SM SCT030=
201108292323 TAF KBLI 292323Z 3000/3024 19012KT P6SM SCT030 BKN100 FM300900
                       17006KT P6SM BKN020 FM301100 17006KT P6SM
                       OVC020 FM301900 19008KT P6SM BKN025 FM302200
                       19008KT P6SM SCT030=
201108292008 KBLI 292008Z 2920/3018 18012KT P6SM BKN025
                      TEMPO 2920/2923 SCT025 SCT200 FM292300 17008KT
                       P6SM BKN200 FM300900 17006KT P6SM OVC020=
201108291739 TAF KBLI 291739Z 2918/3018 17012KT P6SM BKN018
                      TEMPO 2918/2920 SCT020 FM292000 18012KT P6SM
                       SCT025 BKN200 FM292300 17008KT P6SM BKN200
                       FM300900 17006KT P6SM OVC020=
201108291613 KBLI 291613Z 2916/3012 18014KT P6SM OVC015 FM291800 17012KT P6SM
                       BKN018
                      TEMPO 2918/2921 SCT020 FM292100 18012KT P6SM
                       SCT025 BKN200 FM292300 17008KT P6SM BKN200
                       FM300900 17005KT P6SM OVC020=
201108291120 TAF KBLI 291120Z 2912/3012 17010KT P6SM SCT006 SCT200
                      TEMPO 2912/2914 BKN006 BKN200 FM291400 18006KT
                       P6SM OVC008 FM291900 18010KT P6SM BKN015
                       BKN200 FM292100 18012KT P6SM SCT025 BKN200
                       FM292300 17008KT P6SM BKN200 FM300900 17005KT
                       P6SM OVC020=
201108290520 TAF KBLI 290520Z 2906/3006 17005KT P6SM SCT250 FM291400 18006KT
                       P6SM OVC010 FM291900 18010KT P6SM BKN015
                       BKN200 FM292100 18012KT P6SM SCT025 BKN200
                       FM292300 17008KT P6SM BKN200=
201108282325 TAF KBLI 282325Z 2900/2924 20008KT P6SM SCT200 FM290300 17006KT
                       P6SM SCT200 FM291400 18006KT P6SM OVC010
                       FM291900 18010KT P6SM BKN015 FM292100 18012KT
                       P6SM SCT025=
201108281755 TAF KBLI 281755Z 2818/2918 19008KT P6SM SKC FM290300 17006KT P6SM
                       SKC FM291200 18006KT P6SM OVC010=
201108281620 KBLI 281620Z 2816/2912 18004KT 2SM BR OVC001
                      TEMPO 2816/2818 5SM BR SCT003 FM281800 19008KT
                       P6SM SCT200 FM290300 17006KT P6SM SCT200=
201108281121 TAF KBLI 281121Z 2812/2912 19004KT P6SM SKC
                      TEMPO 2812/2816 1/2SM FG BKN001 FM281800
                       21008KT P6SM SCT200 FM290300 17006KT P6SM
                       SCT200=
201108280529 TAF KBLI 280529Z 2806/2906 17003KT P6SM SKC FM281800 21008KT P6SM
                       SCT200 FM290300 17006KT P6SM SCT200=
201108272320 TAF KBLI 272320Z 2800/2824 18007KT P6SM SKC FM280300 18004KT P6SM
                       SKC FM282200 20008KT P6SM SCT200=
201108272027 KBLI 272027Z 2720/2818 18011G16KT P6SM SCT250 FM280300 18004KT
                       P6SM SCT250=
201108271725 TAF KBLI 271725Z 2718/2818 VRB06KT P6SM SKC FM272000 23005KT P6SM
                       SCT250 FM280300 18004KT P6SM SCT250=
201108271120 TAF KBLI 271120Z 2712/2812 19003KT P6SM FEW250
                      TEMPO 2712/2716 1/2SM FG BKN001 BKN250 FM271700
                       17006KT P6SM SCT250 FM272000 23005KT P6SM
                       SCT250 FM280300 00000KT P6SM SCT250=
201108270529 TAF KBLI 270529Z 2706/2806 00000KT P6SM SKC
                      TEMPO 2710/2712 1SM BR BKN001 FM271200 00000KT
                       4SM BR SCT001
                      TEMPO 2712/2716 1/2SM FG BKN001 FM271700
                       17006KT P6SM SKC FM272000 23005KT P6SM SKC
                       FM280300 00000KT P6SM SKC=
201108262325 TAF KBLI 262325Z 2700/2724 24006KT P6SM SKC FM270200 18005KT P6SM
                       SKC FM271000 18003KT P6SM SKC
                      TEMPO 2711/2714 4SM BR SCT005 FM271700 17006KT
                       P6SM SKC FM272000 20005KT P6SM SKC=
201108261730 TAF KBLI 261730Z 2618/2718 VRB03KT P6SM SKC FM262200 22007KT P6SM
                       SKC FM270200 VRB03KT P6SM SKC FM271000 VRB03KT
                       5SM BR VCFG SCT001
                      TEMPO 2711/2714 1/2SM FG VV001=
201108261501 KBLI 261501Z 2615/2712 00000KT 6SM BR VCFG SCT001
                      TEMPO 2615/2616 1/4SM FG VV001 FM261800 26006KT
                       P6SM SKC FM270200 VRB03KT P6SM SKC
                      TEMPO 2708/2712 2SM BR BKN002=
201108261500 KBLI 261500Z 2615/2712 00000KT 6SM BR VCFG SCT001 FM261800 26006KT
                       P6SM SKC FM270200 VRB03KT P6SM SKC
                      TEMPO 2708/2712 2SM BR BKN002=
201108261120 TAF KBLI 261120Z 2612/2712 00000KT P6SM SKC
                      TEMPO 2612/2616 3/4SM BR BKN001 FM261800
                       26006KT P6SM SKC FM270200 VRB03KT P6SM SKC
                       TEMPO 2708/2712 2SM BR BKN002=
201108260939 KBLI 260939Z 2610/2706 00000KT 1 1/2SM BR SKC
                      TEMPO 2610/2613 4SM BR SKC FM261300 00000KT
                       4SM BR SKC
                      TEMPO 2613/2616 3/4SM BR BKN001 FM261800
                       26006KT P6SM SKC FM270200 VRB03KT P6SM SKC=
201108260526 TAF KBLI 260526Z 2606/2706 00000KT P6SM SKC
                      TEMPO 2612/2616 1 1/2SM BR FM262000 26006KT
                       P6SM SKC FM270200 VRB03KT P6SM SKC=
201108252326 TAF KBLI 252326Z 2600/2624 25006KT P6SM SKC FM260400 18005KT P6SM
                       SKC=
201108251720 TAF KBLI 251720Z 2518/2618 18004KT P6SM SCT005
                      TEMPO 2518/2519 BKN005 FM251900 20006KT P6SM
                       SKC FM260400 00000KT P6SM SKC=
201108251504 KBLI 251504Z 2515/2612 00000KT P6SM SCT004
                      TEMPO 2515/2517 1/2SM FG OVC001 FM251700
                       21006KT P6SM SKC FM252200 26006KT P6SM SKC
                       FM260300 00000KT P6SM SKC=
201108251120 TAF KBLI 251120Z 2512/2612 00000KT P6SM SKC
                      TEMPO 2512/2515 1 1/2SM BR BKN003 FM251900
                       21006KT P6SM SKC FM252200 26006KT P6SM SKC
                       FM260300 00000KT P6SM SKC=
201108250522 TAF KBLI 250522Z 2506/2606 00000KT P6SM FEW120 SCT250 FM251900
                       21006KT P6SM SKC FM252200 26006KT P6SM SKC
                       FM260300 00000KT P6SM SKC=
201108242320 TAF KBLI 242320Z 2500/2524 25006KT P6SM FEW050 BKN150 FM250600
                       20004KT P6SM SCT120 FM251800 18007KT P6SM
                       SKC=
201108241733 TAF KBLI 241733Z 2418/2518 20004KT P6SM BKN080 FM242000 21004KT
                       P6SM SCT080 SCT250=
201108241122 TAF KBLI 241122Z 2412/2512 00000KT P6SM BKN045 FM241800 20006KT
                       P6SM SCT050 SCT120 FM251000 00000KT P6SM
                       SCT030=
201108240522 TAF KBLI 240522Z 2406/2506 00000KT P6SM SKC FM240900 18003KT P6SM
                       SCT025
                      TEMPO 2410/2414 BKN025 FM241800 20006KT P6SM
                       FEW060 SCT120=
201108232321 TAF KBLI 232321Z 2400/2424 18006KT P6SM SCT040 FM240400 18003KT
                       P6SM SKC FM240900 18003KT P6SM SCT025
                      TEMPO 2410/2414 BKN025 FM241800 20006KT P6SM
                       FEW060 SCT120=
201108231722 TAF KBLI 231722Z 2318/2418 17005KT P6SM OVC050 FM232000 17008KT
                       P6SM SCT030 BKN050 FM240000 18006KT P6SM
                       SCT035 SCT050 FM240400 VRB03KT P6SM SKC=
201108231121 TAF KBLI 231121Z 2312/2412 17008KT P6SM SCT012 OVC045
                      TEMPO 2312/2316 5SM BR BKN012 OVC045 FM231800
                       17008KT P6SM BKN020 BKN030 FM232100 17008KT
                       P6SM SCT030 BKN050 FM240000 18006KT P6SM
                       SCT035 SCT050 FM240400 VRB03KT P6SM SKC=
201108231003 KBLI 231003Z 2310/2406 17008KT P6SM SCT012 OVC045
                      TEMPO 2310/2314 5SM BR BKN012 OVC045 FM231800
                       17008KT P6SM BKN020 BKN030 FM232100 17008KT
                       P6SM SCT030 BKN050 FM240000 18006KT P6SM
                       SCT035 SCT050=
201108230520 TAF KBLI 230520Z 2306/2406 17008KT P6SM SCT012 BKN030
                      TEMPO 2306/2310 BKN012 OVC030 FM231000 17006KT
                       P6SM SCT012 OVC025
                      TEMPO 2310/2314 5SM BR BKN012 OVC025 FM231800
                       17008KT P6SM BKN020 BKN030 FM232100 17008KT
                       P6SM SCT030 BKN050 FM240000 18006KT P6SM
                       SCT035 SCT050=
201108222339 TAF KBLI 222339Z 2300/2324 16010G20KT P6SM -RA SCT030 OVC060
                      TEMPO 2300/2304 BKN030 FM230600 18008KT P6SM
                       SCT012 OVC020 FM230900 16004KT 4SM BR OVC010
                       FM231800 17008KT P6SM BKN020 BKN030 FM232100
                       17008KT P6SM BKN030=
201108221733 TAF KBLI 221733Z 2218/2318 17013G20KT P6SM -RA BKN025 OVC030
                      TEMPO 2218/2222 5SM RA SCT012 BKN020 FM222200
                       17013G20KT P6SM -RA OVC020 FM230500 18008KT
                       P6SM VCSH SCT012 OVC020 FM230900 16004KT
                       4SM BR OVC007=
201108221120 TAF KBLI 221120Z 2212/2312 17012G20KT P6SM BKN040 OVC090 FM221500
                       17013G20KT P6SM -RA SCT025 OVC050 FM221800
                       17013G20KT P6SM -RA BKN025 OVC045 FM222300
                       17010KT P6SM -RA OVC025 FM230500 17008KT
                       P6SM VCSH OVC030=
201108220521 TAF KBLI 220521Z 2206/2306 17008KT P6SM OVC120 FM221000 16011KT
                       P6SM SCT070 OVC110 FM221500 15013G20KT P6SM
                       -RA SCT025 OVC050 FM221800 17013G20KT P6SM
                       -RA BKN025 OVC050 FM222200 17010KT P6SM
                       -RA OVC030=
201108212333 TAF KBLI 212333Z 2200/2224 18008KT P6SM BKN130 OVC200 FM220700
                       15008KT P6SM OVC130 FM221000 15011KT P6SM
                       SCT070 OVC110
                      PROB30 2212/2215 -RA OVC070 FM221500 15013G20KT
                       P6SM -RA SCT025 OVC050 FM221800 17013G20KT
                       P6SM -RA BKN025 OVC050=
201108211904 KBLI 211904Z 2119/2218 18013KT P6SM BKN200 FM220100 16007KT P6SM
                       SCT130 OVC200 FM220700 16007KT P6SM OVC150
                       FM221000 16009KT P6SM SCT070 OVC120
                      PROB30 2212/2215 -RA BKN070 OVC120 FM221500
                       16013G20KT P6SM -RA FEW022 SCT040 OVC070=
201108211740 TAF KBLI 211740Z 2118/2218 18009KT P6SM BKN200 FM220100 16007KT
                       P6SM SCT130 OVC200 FM220700 16007KT P6SM
                       OVC150 FM221000 16009KT P6SM SCT070 OVC120
                       PROB30 2212/2215 -RA BKN070 OVC120 FM221500
                       16013G20KT P6SM -RA FEW022 SCT040 OVC070=
201108211120 TAF KBLI 211120Z 2112/2212 18006KT P6SM BKN200 FM211700 18008KT
                       P6SM SCT120 BKN200 FM220100 18010KT P6SM
                       SCT070 BKN120 FM220800 17010KT P6SM SCT050
                       OVC070=
201108210523 TAF KBLI 210523Z 2106/2206 VRB03KT P6SM SCT200 FM211300 17006KT
                       P6SM VCFG BKN200 FM211700 18009KT P6SM SCT120
                       BKN200 FM220100 18010KT P6SM SCT070 BKN120=
201108202324 TAF KBLI 202324Z 2100/2124 25006KT P6SM SKC FM210300 VRB03KT P6SM
                       SKC FM211300 17006KT P6SM VCFG SCT200 FM211700
                       18009KT P6SM BKN200=
201108201745 KBLI 201745Z 2018/2118 33006KT P6SM SKC FM210000 25006KT P6SM SKC
                       FM210300 VRB03KT P6SM SKC FM211300 17006KT
                       P6SM VCFG SCT200=
201108201741 TAF KBLI 201741Z 2018/2118 VRB03KT P6SM SKC FM202100 22006KT P6SM
                       SKC FM210300 18006KT P6SM SKC=
201108201120 TAF KBLI 201120Z 2012/2112 VRB03KT P6SM VCFG SKC
                      TEMPO 2012/2014 1SM BR FM201500 VRB03KT P6SM
                       SKC FM202100 22006KT P6SM SKC FM210300 18006KT
                       P6SM SKC=
201108201028 KBLI 201028Z 2010/2106 VRB03KT P6SM VCFG SKC
                      TEMPO 2010/2013 1SM BR FM202100 24006KT P6SM
                       SKC=
201108200520 TAF KBLI 200520Z 2006/2106 VRB03KT P6SM SKC FM202100 24006KT P6SM
                       SKC=
201108192331 TAF KBLI 192331Z 2000/2024 VRB03KT P6SM SKC FM202100 24006KT P6SM
                       SKC=
201108191725 TAF KBLI 191725Z 1918/2018 VRB03KT P6SM FEW009 FM191830 23005KT
                       P6SM SKC FM200200 VRB03KT P6SM SKC=
201108191519 KBLI 191519Z 1915/2012 17004KT 3/4SM BR VV001
                      TEMPO 1915/1917 1/4SM FG FM191800 18006KT
                       6SM BR BKN003 FM191900 22008KT P6SM SCT250
                       FM200600 17003KT P6SM SKC=
201108191401 KBLI 191401Z 1914/2012 VRB03KT 3SM BR VV001
                      TEMPO 1914/1916 3/4SM BR FM191700 18006KT
                       P6SM BKN003 FM191800 22008KT P6SM SCT250
                       FM200600 17003KT P6SM SKC=
201108191130 TAF KBLI 191130Z 1912/2012 00000KT 3SM BR BKN001 FM191500 18006KT
                       P6SM BKN005 FM191800 22008KT P6SM SCT250
                       FM200600 17003KT P6SM SKC=
201108190542 TAF KBLI 190542Z 1906/2006 17003KT P6SM SKC
                      TEMPO 1914/1917 SCT015 FM191700 18006KT P6SM
                       SKC FM192100 22008KT P6SM SKC=
201108182330 TAF KBLI 182330Z 1900/1924 18005KT P6SM SCT200 FM190300 17003KT
                       P6SM SKC FM191400 18006KT P6SM SKC=
201108181732 TAF KBLI 181732Z 1818/1918 17007KT P6SM BKN250 FM190000 21003KT
                       P6SM SCT250 FM190300 17003KT P6SM SKC=
201108181129 TAF KBLI 181129Z 1812/1912 18003KT P6SM SKC FM181900 19008KT P6SM
                       SKC FM190000 21003KT P6SM SKC FM190300 17003KT
                       P6SM SKC=
201108180539 TAF KBLI 180539Z 1806/1906 18007KT P6SM SKC FM181300 19004KT P6SM
                       OVC015 FM181700 20005KT P6SM SCT020 FM181900
                       22008KT P6SM SKC FM190000 19003KT P6SM SKC=
201108172331 TAF KBLI 172331Z 1800/1824 17010KT P6SM SCT250 FM180600 21007KT
                       P6SM SKC FM181300 21004KT P6SM OVC015 FM181700
                       20005KT P6SM SCT020 FM181900 22006KT P6SM
                       SKC=
201108171736 TAF KBLI 171736Z 1718/1818 18008KT P6SM SKC FM180600 21007KT P6SM
                       SKC FM181300 21004KT P6SM OVC015 FM181700
                       32005KT P6SM SCT020=
201108171124 TAF KBLI 171124Z 1712/1812 VRB03KT P6SM SKC FM171800 19008KT P6SM
                       SKC FM180600 18004KT P6SM SKC=
201108170549 TAF KBLI 170549Z 1706/1806 22007KT P6SM SKC FM171200 VRB03KT P6SM
                       SKC=
201108162320 TAF KBLI 162320Z 1700/1724 31007KT P6SM SKC FM170600 22007KT P6SM
                       SKC FM171200 VRB03KT P6SM SKC=
201108161720 TAF KBLI 161720Z 1618/1718 00000KT P6SM SKC FM162000 22007KT P6SM
                       SKC FM170600 VRB03KT P6SM SKC=
201108161131 TAF KBLI 161131Z 1612/1712 00000KT P6SM SKC
                      TEMPO 1612/1614 2SM BR FM161400 18003KT P6SM
                       SKC FM162000 22007KT P6SM SKC FM170600 VRB03KT
                       P6SM SKC=
201108160534 TAF KBLI 160534Z 1606/1706 18003KT P6SM FEW250 FM161200 VRB04KT
                       P6SM SKC FM162000 22007KT P6SM SKC=
201108152336 TAF KBLI 152336Z 1600/1624 17007KT P6SM SCT250 FM160500 18003KT
                       P6SM SCT250 FM161200 VRB04KT P6SM SKC FM162000
                       22007KT P6SM SKC=
201108151736 TAF KBLI 151736Z 1518/1618 19003KT P6SM SCT030 BKN060
                      TEMPO 1518/1519 BKN030 BKN060 FM152000 18005KT
                       P6SM SCT050 BKN080 FM152200 18008KT P6SM
                       SCT080 FM161200 17004KT P6SM BCFG SCT003=
201108151138 TAF KBLI 151138Z 1512/1612 18006KT P6SM BKN050 BKN080 FM160100
                       18006KT P6SM SCT100=
201108150540 TAF KBLI 150540Z 1506/1606 15008KT P6SM BKN080 FM151000 18006KT
                       P6SM VCSH SCT030 OVC045 FM152100 18010KT
                       P6SM BKN045 FM160100 18006KT P6SM SCT100=
201108142320 TAF KBLI 142320Z 1500/1524 18008KT P6SM SCT050
                      TEMPO 1503/1507 BKN050 FM150700 18006KT P6SM
                       VCSH OVC045 FM151200 18008KT P6SM VCSH OVC025
                       FM152100 18010KT P6SM BKN040 OVC080=
201108141722 TAF KBLI 141722Z 1418/1518 16008KT P6SM SCT030 OVC060 FM142200
                       18006KT P6SM SCT040 BKN080 FM150400 18006KT
                       P6SM VCSH OVC040=
201108141133 TAF KBLI 141133Z 1412/1512 16010KT P6SM SCT060 OVC100 FM141600
                       16006KT P6SM SCT025 BKN050 OVC080 FM142200
                       18006KT P6SM SCT040 BKN080=
201108140538 TAF KBLI 140538Z 1406/1506 16010KT P6SM SCT100 FM141500 16006KT
                       P6SM SCT025 BKN040 OVC080 FM142100 18006KT
                       P6SM SCT040 BKN060=
201108140303 KBLI 140303Z 1403/1424 17007KT P6SM SCT200 FM141000 17005KT P6SM
                       OVC020 FM141900 18007KT P6SM SCT040 BKN060=
201108132328 TAF KBLI 132328Z 1400/1424 18008G18KT P6SM SCT050 FM140300 17007KT
                       P6SM SCT040 BKN050 FM141000 17005KT P6SM
                       OVC020 FM141900 18007KT P6SM SCT040 BKN060=
201108132115 KBLI 132115Z 1321/1418 18009G16KT P6SM SCT060 FM140600 17007KT
                       P6SM BKN035 FM141000 17006KT P6SM OVC022=
201108131735 TAF KBLI 131735Z 1318/1418 16010KT P6SM BKN025
                      TEMPO 1318/1320 SCT025 SCT060 FM132000 20008KT
                       P6SM SCT060 FM140900 16006KT P6SM OVC022=
201108131542 KBLI 131542Z 1316/1412 17008KT P6SM BKN025
                      TEMPO 1316/1319 SCT025 SCT060 FM131900 20008KT
                       P6SM SCT200 FM141100 18008KT P6SM OVC021=
201108131139 TAF KBLI 131139Z 1312/1412 18008KT P6SM SCT050
                      TEMPO 1314/1316 BKN050 FM131800 21006KT P6SM
                       SCT200 FM141100 18008KT P6SM OVC021=
201108130536 TAF KBLI 130536Z 1306/1406 18006KT P6SM SCT070 FM131400 21006KT
                       P6SM OVC012 FM131800 21006KT P6SM SCT200=
201108122321 TAF KBLI 122321Z 1300/1324 20005KT P6SM SKC FM131400 21006KT P6SM
                       OVC012 FM131800 21005KT P6SM SCT200=
201108121733 TAF KBLI 121733Z 1218/1318 21003KT 3SM BR BKN003 FM121900 21004KT
                       P6SM SKC FM131400 21006KT P6SM OVC012=
201108121602 KBLI 121602Z 1216/1312 00000KT 1/4SM FG VV000 FM121700 17003KT
                       3SM BR BKN002 FM121800 17006KT P6SM SKC=
201108121321 KBLI 121321Z 1213/1312 19006KT 1/2SM FG OVC001
                      TEMPO 1214/1215 2SM BR BKN003 FM121500 18005KT
                       P6SM BKN003
                      TEMPO 1215/1216 2SM BR OVC003 FM121700 17006KT
                       P6SM SKC=
201108121257 KBLI 121257Z 1213/1312 17005KT P6SM BKN003
                      TEMPO 1213/1216 2SM BR OVC003 FM121700 17006KT
                       P6SM SKC=
201108121130 TAF KBLI 121130Z 1212/1312 17006KT P6SM SKC=
201108120529 TAF KBLI 120529Z 1206/1306 17006KT P6SM SKC=
201108112331 TAF KBLI 112331Z 1200/1224 15006KT P6SM SKC FM122100 19008KT P6SM
                       SCT200=
201108111732 TAF KBLI 111732Z 1118/1218 16010KT P6SM BKN040 OVC070 FM111900
                       18006KT P6SM BKN050 FM112200 18006KT P6SM
                       SCT050=
201108111133 TAF KBLI 111133Z 1112/1212 18004KT P6SM BKN045 OVC070 FM111900
                       18006KT P6SM BKN050 FM112200 18006KT P6SM
                       SCT050=
201108110536 TAF KBLI 110536Z 1106/1206 18004KT P6SM BKN045 OVC090 FM111300
                       18004KT P6SM BKN035 BKN050 FM111700 18008KT
                       P6SM SCT050=
201108102337 TAF KBLI 102337Z 1100/1124 19004KT P6SM OVC035 FM110300 20006KT
                       P6SM SCT040 FM111200 17005KT P6SM BKN035
                       BKN050 FM111700 18008KT P6SM SCT050=
201108101733 TAF KBLI 101733Z 1018/1118 16010KT P6SM BKN050 BKN070 FM102000
                       18009KT P6SM SCT050 SCT080 FM110700 17006KT
                       P6SM BKN050 FM111200 17005KT P6SM BKN035
                       BKN050 FM111700 18008KT P6SM SCT050=
201108101523 KBLI 101523Z 1015/1112 16008KT P6SM BKN050 BKN070 FM102200 18009KT
                       P6SM SCT040 SCT060 FM110600 17006KT P6SM
                       BKN040=
201108101120 TAF KBLI 101120Z 1012/1112 16006KT P6SM BKN035 FM102000 18009KT
                       P6SM BKN045 FM102200 18006KT P6SM SCT040
                       SCT060=
201108100520 TAF KBLI 100520Z 1006/1106 16011KT P6SM SCT060 SCT200 FM101100
                       18007KT P6SM OVC020 FM102000 18009KT P6SM
                       BKN035 FM102300 18006KT P6SM SCT040 SCT060=
201108092331 TAF KBLI 092331Z 1000/1024 17012G18KT P6SM BKN200 FM101000 18007KT
                       P6SM OVC020 FM102100 18009KT P6SM BKN035=
201108091733 TAF KBLI 091733Z 0918/1018 15012G18KT P6SM SCT045 OVC060 FM092200
                       19006KT P6SM SCT050 FM101000 18007KT P6SM
                       OVC020=
201108091120 TAF KBLI 091120Z 0912/1012 17008KT P6SM BKN050 FM091400 17007KT
                       P6SM FEW020 OVC040 FM091900 19005KT P6SM
                       BKN045 FM092200 19006KT P6SM SCT050 FM101000
                       18007KT P6SM OVC020=
201108090914 KBLI 090914Z 0909/1006 17008KT P6SM FEW030 FM091900 19005KT P6SM
                       BKN025 FM092100 19006KT P6SM SCT035=
201108090520 TAF KBLI 090520Z 0906/1006 16008KT P6SM FEW025 FM090700 17006KT
                       P6SM OVC025 FM091000 18006KT 5SM BR OVC012
                       FM091900 19005KT P6SM BKN025 FM092100 19006KT
                       P6SM SCT035=
201108082325 TAF KBLI 082325Z 0900/0924 19008KT P6SM SKC FM091100 18006KT 5SM
                       BR OVC012 FM092100 19005KT P6SM SCT025=
201108081720 TAF KBLI 081720Z 0818/0918 16010KT P6SM OVC028 FM081900 18008KT
                       P6SM SCT035 FM091100 18006KT 5SM BR OVC012=
201108081501 TAF AMD KBLI 081501Z 0815/0912 18006KT P6SM SCT028
                      TEMPO 0815/0818 BKN025 FM081800 18006KT P6SM
                       SCT022 FM081900 18008KT P6SM FEW040 FM091100
                       18006KT 5SM BR OVC012=
201108081120 TAF KBLI 081120Z 0812/0912 17007KT P6SM FEW050 SCT250 FM081400
                       18007KT P6SM BKN018 FM081800 18006KT P6SM
                       SCT022 FM081900 18008KT P6SM FEW040 FM091100
                       18006KT 5SM BR OVC012=
201108080520 TAF KBLI 080520Z 0806/0906 17007KT P6SM SCT250 FM081300 18007KT
                       P6SM BKN010
                      TEMPO 0814/0816 3SM BR OVC005 FM081800 18006KT
                       P6SM SCT022 FM081900 18008KT P6SM FEW040=
201108072320 TAF KBLI 072320Z 0800/0824 18007KT P6SM SCT250 FM081100 18010KT
                       P6SM BKN010
                      TEMPO 0812/0816 3SM BR OVC005 FM081800 21006KT
                       P6SM SCT030=
201108071730 TAF KBLI 071730Z 0718/0818 18007KT 3SM BR BKN005 FM072000 18007KT
                       P6SM SCT020 FM081100 18010KT P6SM BKN010
                       TEMPO 0812/0816 3SM BR OVC005=
201108071526 KBLI 071526Z 0715/0812 18004KT 3SM BR BKN003
                      TEMPO 0715/0717 1/2SM FG VV002 FM071800 18007KT
                       P6SM SCT015 FM072000 18007KT P6SM SCT040
                       FM081100 18010KT P6SM BKN010=
201108071500 KBLI 071500Z 0715/0812 18004KT P6SM SCT004
                      TEMPO 0715/0717 4SM BR BKN004 FM071700 18007KT
                       P6SM SCT015 FM072000 18007KT P6SM SCT040=
201108071120 TAF KBLI 071120Z 0712/0812 18004KT P6SM FEW040 FM071400 VRB03KT
                       P6SM SCT020 SCT035 FM071700 18007KT P6SM
                       SCT040 FM080400 18004KT P6SM FEW040=
201108070520 TAF KBLI 070520Z 0706/0806 18004KT P6SM SCT040 FM071300 VRB03KT
                       P6SM SCT020 SCT035 FM071700 18007KT P6SM
                       SCT040 FM080400 18004KT P6SM FEW040=
201108062320 TAF KBLI 062320Z 0700/0724 20005KT P6SM SCT040 FM071300 VRB03KT
                       P6SM BKN020 FM071700 21007KT P6SM SCT040=
201108061720 TAF KBLI 061720Z 0618/0718 VRB04KT P6SM SCT025 BKN050 FM071200
                       18006KT P6SM BKN020 FM071700 30007KT P6SM
                       SCT025 BKN050=
201108061120 TAF KBLI 061120Z 0612/0712 16007KT P6SM BKN045 FM061800 25008KT
                       P6SM SCT050 FM070400 18005KT P6SM SCT030
                       SCT050=
201108060939 TAF AMD KBLI 060939Z 0610/0706 16006KT P6SM FEW022 BKN040 FM061300
                       16006KT P6SM BKN022 BKN040 FM062000 25008KT
                       P6SM SCT040 FM070400 18005KT P6SM SCT020=
201108060537 TAF KBLI 060537Z 0606/0706 17007KT P6SM SCT030 FM060900 18006KT
                       P6SM OVC015 FM061800 19008KT P6SM BKN020
                       BKN040 FM062100 25008KT P6SM SCT040 FM070400
                       18005KT P6SM SCT020=
201108060409 KBLI 060409Z 0604/0624 17008KT P6SM FEW015 FM060900 18008KT P6SM
                       OVC012 FM061800 19008KT P6SM BKN020 BKN040=
201108060115 KBLI 060115Z 0601/0624 18010KT P6SM SKC FM060400 18010KT P6SM BKN015
                       FM060900 18012KT P6SM OVC012 FM061800 20008KT
                       P6SM BKN020 BKN040=
201108052320 TAF KBLI 052320Z 0600/0624 18012KT P6SM SCT015
                      TEMPO 0600/0603 BKN015 FM060300 18010KT P6SM
                       BKN015 FM060900 18012KT P6SM OVC012 FM061800
                       20008KT P6SM BKN020 BKN040=
201108051903 KBLI 051903Z 0519/0618 17012KT P6SM SCT015 BKN050 FM060900 18010KT
                       P6SM BKN025=
201108051732 TAF KBLI 051732Z 0518/0618 17012G22KT P6SM BKN012 BKN030 FM052000
                       18012KT P6SM SCT015 BKN035 FM052200 21008KT
                       P6SM SCT040 FM060900 18010KT P6SM BKN025=
201108051521 KBLI 051521Z 0515/0612 17015G22KT P6SM BKN012
                      TEMPO 0515/0517 OVC010 FM051900 18012KT P6SM
                       SCT015 BKN030 FM052100 21008KT P6SM SCT040
                       FM060900 18010KT P6SM BKN020=
201108051318 KBLI 051318Z 0513/0612 15009KT P6SM SCT010
                      TEMPO 0514/0518 BKN010 FM051900 18010KT P6SM
                       SCT040=
201108051120 TAF KBLI 051120Z 0512/0612 18010KT P6SM SCT012
                      TEMPO 0512/0514 BKN012 FM051400 17007KT P6SM
                       OVC010 FM051900 18010KT P6SM SCT040=
201108050522 TAF KBLI 050522Z 0506/0606 18010KT P6SM SCT070
                      TEMPO 0510/0514 BKN015 FM051400 17007KT P6SM
                       OVC015 FM051900 18010KT P6SM SCT040=
201108042324 TAF KBLI 042324Z 0500/0524 19006KT P6SM FEW050 FM050300 18005KT
                       P6SM SCT250 FM051400 17007KT P6SM OVC020
                       FM051800 18010KT P6SM SCT250=
201108041720 TAF KBLI 041720Z 0418/0518 18006KT P6SM SKC FM042100 21007KT P6SM
                       FEW060 FM050300 18005KT P6SM SCT250 FM051400
                       17007KT P6SM BKN025=
201108041120 TAF KBLI 041120Z 0412/0512 18003KT P6SM SKC FM042100 21007KT P6SM
                       FEW060 FM050300 18005KT P6SM SCT060=
201108040525 TAF KBLI 040525Z 0406/0506 18003KT P6SM FEW150 FM041900 21007KT
                       P6SM FEW060=
201108032320 TAF KBLI 032320Z 0400/0424 25005KT P6SM FEW040 FM040500 VRB03KT
                       P6SM FEW120 FM041900 21007KT P6SM FEW060=
201108031724 TAF KBLI 031724Z 0318/0418 19006KT P6SM BKN090 FM032100 20008KT
                       P6SM SCT100 FM040500 VRB03KT P6SM FEW120=
201108031120 TAF KBLI 031120Z 0312/0412 18006KT P6SM BKN090 FM032000 18008KT
                       P6SM SCT070 SCT100 FM032300 18008KT P6SM
                       SCT120=
201108030533 TAF KBLI 030533Z 0306/0406 18005KT P6SM OVC100 FM031200 18006KT
                       P6SM BKN070 FM032000 18008KT P6SM FEW070
                       SCT120 FM032300 18008KT P6SM SCT120=
201108022324 TAF KBLI 022324Z 0300/0324 18008KT P6SM SCT100 FM030200 21006KT
                       P6SM SCT150 FM030600 18005KT P6SM SCT060
                       SCT120 FM031400 18006KT P6SM SCT020 BKN050
                       TEMPO 0314/0318 OVC020 FM032000 18008KT
                       P6SM FEW050 SCT120=
201108021722 TAF KBLI 021722Z 0218/0318 18008KT P6SM BKN180 FM030200 21006KT
                       P6SM BKN070 OVC150 FM030600 18005KT P6SM
                       BKN060 OVC120 FM031400 18006KT P6SM BKN020
                       OVC050=
201108021120 TAF KBLI 021120Z 0212/0312 18003KT P6SM SCT120 BKN250 FM021800
                       20007KT P6SM BKN120 FM030600 18004KT P6SM
                       BKN070=
201108020521 TAF KBLI 020521Z 0206/0306 18003KT P6SM FEW250 FM021000 18003KT
                       P6SM SCT120 BKN250 FM022000 20007KT P6SM
                       BKN120 FM030200 20007KT P6SM SCT120=
201108012328 TAF KBLI 012328Z 0200/0224 24006KT P6SM SKC FM020300 18006KT P6SM
                       SKC FM022000 20007KT P6SM BKN120=
201108011722 TAF KBLI 011722Z 0118/0218 01006KT P6SM SKC FM012000 20006KT P6SM
                       SKC FM020300 18006KT P6SM SKC=
201108011133 TAF KBLI 011133Z 0112/0212 18006KT P6SM SKC=
201108010536 TAF KBLI 010536Z 0106/0206 18006KT P6SM SCT250=