##########################################################
# Query made at 02/16/2025 20:06:38 UTC
# Time interval: from 09/01/2012 00:00  to 09/30/2012 23:59  UTC
##########################################################

##########################################################
# KBLI, Bellingham, Bellingham International Airport (United States)
# WMO index: -----. WIGOS ID: Unknown
# Latitude 48-47-58N. Longitude 122-32-21W. Altitude 48 m.
##########################################################

###################################
#  METAR/SPECI from KBLI
###################################
201209302353 METAR KBLI 302353Z 27003KT 10SM CLR 17/08 A3037 RMK AO2 SLP292 T01720083 10183 20139 58006=
201209302253 METAR KBLI 302253Z 27005KT 10SM CLR 17/09 A3038 RMK AO2 SLP293 T01720094=
201209302153 METAR KBLI 302153Z 25005KT 10SM FEW090 17/10 A3039 RMK AO2 SLP297 T01720100=
201209302053 METAR KBLI 302053Z 18004KT 10SM CLR 17/11 A3039 RMK AO2 SLP298 T01670106 58004=
201209301953 METAR KBLI 301953Z 00000KT 10SM CLR 17/10 A3040 RMK AO2 SLP300 T01670100=
201209301853 METAR KBLI 301853Z 00000KT 10SM CLR 15/09 A3040 RMK AO2 SLP302 T01500089=
201209301753 METAR KBLI 301753Z 00000KT 10SM CLR 14/09 A3040 RMK AO2 SLP302 T01440089 10144 20039 50006=
201209301653 METAR KBLI 301653Z 34004KT 10SM CLR 12/08 A3042 RMK AO2 SLP307 T01170083=
201209301553 METAR KBLI 301553Z 00000KT 10SM CLR 09/08 A3039 RMK AO2 SLP299 T00940078=
201209301453 METAR KBLI 301453Z 00000KT 10SM CLR 06/04 A3038 RMK AO2 SLP297 T00560044 51017=
201209301401 SPECI KBLI 301401Z 00000KT 10SM R16/1800VP6000FT SCT002 04/03 A3037 RMK AO2=
201209301353 METAR KBLI 301353Z 00000KT 10SM R16/3500VP6000FT CLR 04/03 A3037 RMK AO2 SLP293 T00440033=
201209301346 SPECI KBLI 301346Z AUTO 00000KT 1 3/4SM R16/3000VP6000FT BR FEW002 04/03 A3037 RMK AO2=
201209301319 SPECI KBLI 301319Z AUTO 00000KT 7SM SCT002 05/04 A3035 RMK AO2=
201209301253 METAR KBLI 301253Z AUTO 00000KT 10SM CLR 05/04 A3035 RMK AO2 SLP284 T00500039=
201209301153 METAR KBLI 301153Z AUTO 00000KT 10SM CLR 05/04 A3033 RMK AO2 SLP278 T00500039 10089 20044 52006=
201209301117 SPECI KBLI 301117Z AUTO 00000KT 10SM FEW004 05/04 A3034 RMK AO2=
201209301109 SPECI KBLI 301109Z AUTO 00000KT 2SM R16/2200VP6000FT BR FEW004 04/04 A3034 RMK AO2=
201209301101 SPECI KBLI 301101Z AUTO 00000KT 3/4SM R16/2200VP6000FT BR VV004 05/05 A3033 RMK AO2=
201209301058 SPECI KBLI 301058Z AUTO 00000KT 1 1/4SM R16/2800VP6000FT BR FEW004 05/04 A3033 RMK AO2=
201209301053 METAR KBLI 301053Z AUTO 00000KT 8SM R16/3000VP6000FT CLR 06/05 A3033 RMK AO2 SLP278 T00560050=
201209301050 SPECI KBLI 301050Z AUTO 00000KT 3SM R16/3000VP6000FT BR CLR 06/04 A3033 RMK AO2=
201209301040 SPECI KBLI 301040Z AUTO 00000KT 1 3/4SM R16/3500VP6000FT BR CLR 06/05 A3033 RMK AO2 VIS 3/4V5=
201209301035 SPECI KBLI 301035Z AUTO 00000KT 3SM BR FEW003 06/04 A3033 RMK AO2=
201209301028 SPECI KBLI 301028Z AUTO 00000KT 2 1/2SM R16/4000VP6000FT BR FEW003 06/05 A3033 RMK AO2 VIS 1/2V5=
201209301023 SPECI KBLI 301023Z AUTO 00000KT 1SM R16/P6000FT BR VV003 07/06 A3033 RMK AO2=
201209301017 SPECI KBLI 301017Z AUTO 00000KT 1/2SM R16/P6000FT FG VV003 06/06 A3033 RMK AO2=
201209301010 SPECI KBLI 301010Z AUTO 00000KT 3/4SM R16/P6000FT BR VV003 06/06 A3032 RMK AO2=
201209301007 SPECI KBLI 301007Z AUTO 00000KT 1 1/4SM BR FEW003 07/06 A3032 RMK AO2=
201209300953 METAR KBLI 300953Z AUTO 00000KT 9SM CLR 07/06 A3032 RMK AO2 SLP273 T00720056=
201209300951 SPECI KBLI 300951Z AUTO 00000KT 9SM CLR 07/06 A3031 RMK AO2=
201209300943 SPECI KBLI 300943Z AUTO 00000KT 2 1/2SM R16/5000VP6000FT BR CLR 06/05 A3032 RMK AO2=
201209300853 METAR KBLI 300853Z AUTO 00000KT 8SM CLR 08/07 A3031 RMK AO2 SLP272 T00830067 53008=
201209300753 METAR KBLI 300753Z AUTO 00000KT 10SM CLR 08/06 A3030 RMK AO2 SLP268 T00780061 401780067=
201209300653 METAR KBLI 300653Z AUTO 00000KT 10SM CLR 07/06 A3030 RMK AO2 SLP267 T00670056=
201209300553 METAR KBLI 300553Z AUTO 00000KT 10SM CLR 08/07 A3029 RMK AO2 SLP264 T00780067 10161 20078 51014=
201209300453 METAR KBLI 300453Z 00000KT 10SM CLR 09/08 A3029 RMK AO2 SLP262 T00940078=
201209300353 METAR KBLI 300353Z 00000KT 10SM CLR 10/08 A3027 RMK AO2 SLP257 T01000078=
201209300253 METAR KBLI 300253Z 00000KT 9SM CLR 11/08 A3025 RMK AO2 SLP250 T01060083 52007=
201209300153 METAR KBLI 300153Z 00000KT 10SM CLR 13/09 A3024 RMK AO2 SLP248 T01330094=
201209300053 METAR KBLI 300053Z 00000KT 7SM CLR 16/08 A3023 RMK AO2 SLP244 T01560083=
201209292353 METAR KBLI 292353Z 00000KT 9SM CLR 16/08 A3023 RMK AO2 SLP241 T01610083 10178 20156 51004=
201209292253 METAR KBLI 292253Z 27003KT 10SM CLR 16/08 A3023 RMK AO2 SLP241 T01560083=
201209292153 METAR KBLI 292153Z 27005KT 10SM CLR 17/07 A3022 RMK AO2 SLP239 T01670072=
201209292053 METAR KBLI 292053Z 26006KT 10SM CLR 17/06 A3021 RMK AO2 SLP237 T01670061 51003=
201209291953 METAR KBLI 291953Z VRB04KT 10SM CLR 17/08 A3021 RMK AO2 SLP237 T01720078=
201209291853 METAR KBLI 291853Z 25007KT 10SM CLR 17/08 A3022 RMK AO2 SLP238 T01670078=
201209291753 METAR KBLI 291753Z VRB04KT 10SM CLR 16/08 A3020 RMK AO2 SLP234 T01610078 10161 20111 51018=
201209291653 METAR KBLI 291653Z VRB03KT 10SM CLR 15/08 A3019 RMK AO2 SLP230 T01500083=
201209291553 METAR KBLI 291553Z 00000KT 10SM CLR 14/09 A3017 RMK AO2 SLP223 T01440094=
201209291453 METAR KBLI 291453Z 00000KT 10SM FEW014 SCT033 12/11 A3015 RMK AO2 SLP216 T01170106 53015=
201209291353 METAR KBLI 291353Z 00000KT 10SM FEW011 BKN031 13/11 A3012 RMK AO2 SLP207 T01280111=
201209291348 SPECI KBLI 291348Z AUTO 00000KT 10SM SCT013 BKN031 13/11 A3012 RMK AO2=
201209291313 SPECI KBLI 291313Z AUTO 00000KT 10SM BKN013 OVC024 14/11 A3012 RMK AO2=
201209291253 METAR KBLI 291253Z AUTO 28003KT 10SM SCT016 OVC022 14/11 A3011 RMK AO2 SLP201 T01390111=
201209291243 SPECI KBLI 291243Z AUTO 29004KT 10SM SCT012 OVC020 14/11 A3011 RMK AO2=
201209291230 SPECI KBLI 291230Z AUTO 27004KT 10SM SCT008 BKN014 OVC018 14/12 A3011 RMK AO2=
201209291153 METAR KBLI 291153Z AUTO 00000KT 9SM BKN006 OVC012 14/12 A3008 RMK AO2 SLP193 T01390122 10150 20133 53010=
201209291144 SPECI KBLI 291144Z AUTO 00000KT 9SM BKN006 OVC010 14/12 A3008 RMK AO2=
201209291053 METAR KBLI 291053Z AUTO 19004KT 8SM OVC004 13/12 A3007 RMK AO2 SLP190 T01330122=
201209290953 METAR KBLI 290953Z AUTO 17003KT 9SM OVC004 14/13 A3006 RMK AO2 SLP186 T01390128=
201209290853 METAR KBLI 290853Z AUTO 16004KT 10SM OVC004 14/12 A3005 RMK AO2 SLP183 T01390122 53017=
201209290837 SPECI KBLI 290837Z AUTO 00000KT 10SM BKN004 OVC009 14/12 A3005 RMK AO2 CIG 004V007=
201209290826 SPECI KBLI 290826Z AUTO VRB03KT 10SM BKN006 BKN009 OVC035 14/12 A3005 RMK AO2 CIG 004V007=
201209290817 SPECI KBLI 290817Z AUTO 00000KT 10SM SCT006 OVC035 14/12 A3005 RMK AO2=
201209290753 METAR KBLI 290753Z AUTO 00000KT 10SM BKN035 BKN070 OVC090 14/12 A3004 RMK AO2 SLP178 T01390117 402000111=
201209290653 METAR KBLI 290653Z AUTO 00000KT 10SM BKN035 BKN070 OVC085 14/12 A3001 RMK AO2 SLP168 T01390122=
201209290553 METAR KBLI 290553Z AUTO 00000KT 10SM FEW037 BKN070 OVC080 15/12 A3000 RMK AO2 SLP165 T01500122 10200 20139 53009=
201209290453 METAR KBLI 290453Z 00000KT 10SM BKN065 14/11 A2998 RMK AO2 SLP160 T01440111=
201209290353 METAR KBLI 290353Z 00000KT 10SM OVC060 16/11 A2999 RMK AO2 SLP160 T01560111=
201209290253 METAR KBLI 290253Z 00000KT 10SM OVC060 17/12 A2997 RMK AO2 SLP156 T01670117 53005=
201209290153 METAR KBLI 290153Z 00000KT 10SM OVC055 17/12 A2997 RMK AO2 SLP153 T01720117=
201209290053 METAR KBLI 290053Z 29005KT 10SM BKN060 OVC090 19/12 A2996 RMK AO2 SLP151 T01890122=
201209282353 METAR KBLI 282353Z 00000KT 10SM OVC055 19/12 A2996 RMK AO2 SLP151 T01890122 10200 20161 50000=
201209282253 METAR KBLI 282253Z 17004KT 10SM OVC060 19/11 A2996 RMK AO2 SLP152 T01940111 TSNO=
201209282153 METAR KBLI 282153Z VRB05KT 8SM BKN065 OVC080 19/12 A2997 RMK AO2 SLP153 T01940117=
201209282053 METAR KBLI 282053Z 17009KT 9SM OVC070 19/12 A2996 RMK AO2 SLP151 T01890122 56002=
201209281953 METAR KBLI 281953Z 17009G16KT 8SM FEW070 18/12 A2996 RMK AO2 SLP152 T01830122=
201209281853 METAR KBLI 281853Z 17010KT 9SM FEW075 18/11 A2996 RMK AO2 SLP152 T01780111=
201209281753 METAR KBLI 281753Z 17008KT 9SM SCT075 16/12 A2997 RMK AO2 SLP153 T01610117 10161 20111 51006=
201209281653 METAR KBLI 281653Z 16008KT 9SM CLR 16/12 A2997 RMK AO2 SLP153 T01560117=
201209281553 METAR KBLI 281553Z 14006KT 7SM CLR 14/12 A2996 RMK AO2 SLP153 T01440122=
201209281453 METAR KBLI 281453Z 00000KT 5SM BR CLR 12/11 A2995 RMK AO2 SLP148 T01220111 53006=
201209281353 METAR KBLI 281353Z 00000KT 6SM BR CLR 12/11 A2994 RMK AO2 SLP145 T01220111=
201209281253 METAR KBLI 281253Z AUTO 00000KT 6SM BR CLR 11/11 A2993 RMK AO2 SLP142 T01110106=
201209281153 METAR KBLI 281153Z AUTO 00000KT 5SM BR CLR 12/11 A2993 RMK AO2 SLP142 T01220111 10133 20117 56005=
201209281053 METAR KBLI 281053Z AUTO 00000KT 6SM BR CLR 13/12 A2993 RMK AO2 SLP142 T01280117=
201209280953 METAR KBLI 280953Z AUTO 00000KT 8SM CLR 13/11 A2994 RMK AO2 SLP144 T01280111=
201209280853 METAR KBLI 280853Z AUTO 00000KT 7SM CLR 13/12 A2995 RMK AO2 SLP147 T01330117 55001=
201209280753 METAR KBLI 280753Z AUTO 00000KT 10SM CLR 12/11 A2995 RMK AO2 SLP147 T01220111 402170050=
201209280653 METAR KBLI 280653Z AUTO 00000KT 10SM CLR 13/11 A2995 RMK AO2 SLP148 T01330111=
201209280553 METAR KBLI 280553Z AUTO 00000KT 10SM CLR 13/11 A2995 RMK AO2 SLP149 T01280111 10194 20117 50002=
201209280453 METAR KBLI 280453Z 00000KT 10SM CLR 13/11 A2996 RMK AO2 SLP151 T01280106=
201209280353 METAR KBLI 280353Z 00000KT 10SM CLR 12/11 A2995 RMK AO2 SLP150 T01220106=
201209280253 METAR KBLI 280253Z 00000KT 10SM CLR 13/11 A2994 RMK AO2 SLP148 T01280106 55008=
201209280153 METAR KBLI 280153Z 00000KT 10SM CLR 15/12 A2994 RMK AO2 SLP145 T01500117=
201209280053 METAR KBLI 280053Z 27003KT 10SM CLR 19/12 A2995 RMK AO2 SLP149 T01890117=
201209272353 METAR KBLI 272353Z 27007KT 10SM CLR 19/12 A2997 RMK AO2 SLP155 T01940117 10217 20150 56019=
201209272253 METAR KBLI 272253Z 28005KT 10SM CLR 22/13 A2998 RMK AO2 SLP158 T02170128=
201209272153 METAR KBLI 272153Z VRB03KT 10SM CLR 20/12 A3001 RMK AO2 SLP168 T02000122=
201209272053 METAR KBLI 272053Z VRB04KT 10SM CLR 19/12 A3003 RMK AO2 SLP174 T01940122 56018=
201209271953 METAR KBLI 271953Z 01003KT 8SM CLR 19/12 A3004 RMK AO2 SLP180 T01940117=
201209271853 METAR KBLI 271853Z 35005KT 10SM CLR 18/11 A3006 RMK AO2 SLP186 T01780111=
201209271753 METAR KBLI 271753Z 00000KT 10SM SCT002 14/11 A3008 RMK AO2 SLP192 T01440111 10144 20056 55001=
201209271741 SPECI KBLI 271741Z 00000KT 9SM SCT002 13/11 A3008 RMK AO2=
201209271724 SPECI KBLI 271724Z 00000KT 2SM BR SCT002 12/11 A3008 RMK AO2=
201209271653 METAR KBLI 271653Z 01003KT 2 1/2SM BR OVC002 11/10 A3008 RMK AO2 SLP192 T01060100=
201209271619 SPECI KBLI 271619Z 03003KT 2 1/2SM BR BKN002 10/09 A3008 RMK AO2=
201209271553 METAR KBLI 271553Z 36003KT 1/4SM R16/2800V4500FT FG OVC002 09/08 A3008 RMK AO2 SLP192 T00890083=
201209271539 SPECI KBLI 271539Z 00000KT 1/4SM R16/1800V5000FT FG VV002 08/08 A3008 RMK AO2=
201209271459 SPECI KBLI 271459Z 00000KT M1/4SM R16/1200V2000FT FG VV001 06/06 A3008 RMK AO2=
201209271453 METAR KBLI 271453Z 00000KT 1/2SM R16/1200VP6000FT FG VV002 06/06 A3008 RMK AO2 SLP194 T00610056 53000=
201209271441 SPECI KBLI 271441Z 00000KT 1/2SM R16/P6000FT FG VV003 05/04 A3008 RMK AO2=
201209271437 SPECI KBLI 271437Z 00000KT 2SM BR OVC003 05/04 A3008 RMK AO2=
201209271432 SPECI KBLI 271432Z 00000KT 1SM R16/P6000FT BR VV005 05/04 A3008 RMK AO2=
201209271405 SPECI KBLI 271405Z 00000KT 1/2SM R16/2600V4000FT FG VV008 05/04 A3008 RMK AO2=
201209271400 METAR KBLI NIL=
201209271348 METAR KBLI 271348Z AUTO 00000KT 1SM R16/2200VP6000FT BR VV008 06/05 A3008=
201209271347 SPECI KBLI 271347Z AUTO 00000KT 1SM R16/2200VP6000FT BR VV007 06/05 A3008 RMK AO2=
201209271330 SPECI KBLI 271330Z AUTO 00000KT 1/2SM R16/3000VP6000FT FG VV009 06/05 A3007 RMK AO2=
201209271318 SPECI KBLI 271318Z AUTO 00000KT 3/4SM R16/4000VP6000FT BR VV006 06/05 A3007 RMK AO2=
201209271311 SPECI KBLI 271311Z AUTO 00000KT 1/4SM R16/1000VP6000FT FG VV002 06/06 A3007 RMK AO2=
201209271253 METAR KBLI 271253Z AUTO 00000KT 1/4SM R16/1200V2000FT FG VV001 07/06 A3007 RMK AO2 SLP191 T00670061=
201209271153 METAR KBLI 271153Z AUTO 00000KT 1/4SM R16/1200V1800FT FG VV001 06/06 A3008 RMK AO2 SLP193 T00610056 10100 20061 58000=
201209271136 SPECI KBLI 271136Z AUTO 00000KT 1/4SM R16/1400V2000FT FG VV001 06/06 A3008 RMK AO2=
201209271125 SPECI KBLI 271125Z AUTO 00000KT 1/4SM R16/1000V2600FT FG VV001 06/06 A3008 RMK AO2=
201209271109 SPECI KBLI 271109Z AUTO 00000KT 1/4SM R16/1400V2200FT FG VV001 06/06 A3008 RMK AO2=
201209271053 METAR KBLI 271053Z AUTO 00000KT 1/4SM R16/1800VP6000FT FG VV001 07/06 A3008 RMK AO2 SLP194 T00670061=
201209271048 SPECI KBLI 271048Z AUTO 00000KT 1/4SM R16/1800VP6000FT FG VV002 07/06 A3008 RMK AO2=
201209271041 SPECI KBLI 271041Z AUTO 00000KT 3/4SM R16/1800V4000FT BR VV002 06/06 A3008=
201209271030 SPECI KBLI 271030Z AUTO 00000KT 3SM R16/1800VP6000FT BR BKN003 07/06 A3008 RMK AO2=
201209271025 SPECI KBLI 271025Z AUTO 00000KT 1SM R16/P6000FT BR VV003 07/06 A3008 RMK AO2=
201209271018 SPECI KBLI 271018Z AUTO 00000KT 1/2SM R16/P6000FT FG VV002 07/06 A3008 RMK AO2=
201209271014 SPECI KBLI 271014Z AUTO 00000KT 1SM R16/P6000FT BR VV002 07/06 A3008 RMK AO2=
201209271010 SPECI KBLI 271010Z AUTO 00000KT 2SM BR SCT002 07/06 A3008 RMK AO2=
201209271002 SPECI KBLI 271002Z AUTO 00000KT 1 1/4SM BR BKN002 07/06 A3008 RMK AO2=
201209270953 METAR KBLI 270953Z AUTO 00000KT 1/2SM R16/4000VP6000FT FG VV002 07/07 A3008 RMK AO2 VIS 1/4V5 SLP193 T00720067=
201209270933 SPECI KBLI 270933Z AUTO 00000KT 1SM R16/3000VP6000FT BR VV002 08/07 A3008 RMK AO2=
201209270921 SPECI KBLI 270921Z AUTO 00000KT 1/2SM R16/P6000FT FG VV003 07/07 A3008 RMK AO2=
201209270918 SPECI KBLI 270918Z AUTO 00000KT 1 3/4SM BR FEW004 07/06 A3008 RMK AO2=
201209270853 METAR KBLI 270853Z AUTO 00000KT 10SM FEW004 08/06 A3008 RMK AO2 SLP192 T00830061 53001=
201209270832 SPECI KBLI 270832Z AUTO 00000KT 10SM SCT003 08/07 A3008 RMK AO2=
201209270825 SPECI KBLI 270825Z AUTO 00000KT 2 1/2SM BR SCT003 08/07 A3008 RMK AO2=
201209270823 SPECI KBLI 270823Z AUTO 00000KT 1SM R16/P6000FT BR VV003 08/07 A3008 RMK AO2=
201209270811 SPECI KBLI 270811Z AUTO 00000KT 1/2SM R16/2600VP6000FT FG VV003 08/07 A3008 RMK AO2=
201209270804 SPECI KBLI 270804Z AUTO 00000KT 3/4SM R16/2800VP6000FT BR VV003 08/07 A3008 RMK AO2=
201209270802 SPECI KBLI 270802Z AUTO 00000KT 1 1/2SM R16/2800VP6000FT BR FEW003 08/07 A3008 RMK AO2=
201209270753 METAR KBLI 270753Z AUTO 00000KT 9SM CLR 08/07 A3007 RMK AO2 SLP191 T00830072 401830056=
201209270721 SPECI KBLI 270721Z AUTO 00000KT 3SM R16/4500VP6000FT BR FEW001 08/08 A3007 RMK AO2=
201209270712 SPECI KBLI 270712Z AUTO 00000KT 1 3/4SM BR FEW001 09/08 A3007 RMK AO2=
201209270705 SPECI KBLI 270705Z AUTO 00000KT 5SM BR FEW001 09/08 A3007 RMK AO2=
201209270655 SPECI KBLI 270655Z AUTO 00000KT 1 1/2SM BR FEW001 09/08 A3007 RMK AO2=
201209270653 METAR KBLI 270653Z AUTO 00000KT 5SM BR FEW001 09/08 A3007 RMK AO2 SLP191 T00890078=
201209270632 SPECI KBLI 270632Z AUTO 00000KT 3SM R16/4500VP6000FT BR CLR 10/08 A3008 RMK AO2=
201209270627 SPECI KBLI 270627Z AUTO 00000KT 1 3/4SM BR CLR 10/08 A3007 RMK AO2 VIS 1/2V5=
201209270553 METAR KBLI 270553Z AUTO 00000KT 9SM CLR 09/08 A3007 RMK AO2 SLP191 T00940083 10178 20089 51007=
201209270453 METAR KBLI 270453Z 00000KT 10SM CLR 10/09 A3007 RMK AO2 SLP189 T01000089=
201209270353 METAR KBLI 270353Z 00000KT 10SM CLR 11/09 A3006 RMK AO2 SLP188 T01060094=
201209270253 METAR KBLI 270253Z 00000KT 10SM CLR 12/11 A3005 RMK AO2 SLP184 T01170106 55001=
201209270153 METAR KBLI 270153Z 00000KT 10SM CLR 13/11 A3005 RMK AO2 SLP183 T01330111=
201209270053 METAR KBLI 270053Z 00000KT 10SM CLR 16/11 A3006 RMK AO2 SLP184 T01560111=
201209262353 METAR KBLI 262353Z 00000KT 10SM CLR 18/11 A3006 RMK AO2 SLP185 T01830111 10183 20117 58009=
201209262253 METAR KBLI 262253Z 28004KT 10SM CLR 16/11 A3007 RMK AO2 SLP190 T01610111=
201209262153 METAR KBLI 262153Z VRB05KT 10SM CLR 16/10 A3008 RMK AO2 SLP193 T01560100=
201209262053 METAR KBLI 262053Z VRB03KT 10SM CLR 17/12 A3008 RMK AO2 SLP194 T01670117 56014=
201209261953 METAR KBLI 261953Z 18006KT 10SM CLR 15/11 A3009 RMK AO2 SLP197 T01500111=
201209261853 METAR KBLI 261853Z 30004KT 10SM CLR 16/11 A3011 RMK AO2 SLP204 T01560111=
201209261819 SPECI KBLI 261819Z 00000KT 10SM FEW007 13/11 A3012 RMK AO2=
201209261753 METAR KBLI 261753Z VRB03KT 10SM BKN005 12/11 A3012 RMK AO2 SLP208 VIS SE - SW 1 FG T01170106 10122 20056 50002=
201209261740 SPECI KBLI 261740Z 00000KT 3SM BR BKN002 12/11 A3013 RMK AO2=
201209261716 SPECI KBLI 261716Z 00000KT 1SM R16/P6000FT BR BKN002 11/11 A3013 RMK AO2=
201209261653 METAR KBLI 261653Z 00000KT 1/4SM R16/1200V2600FT FG VV000 11/11 A3013 RMK AO2 SLP211 T01060106=
201209261553 METAR KBLI 261553Z 00000KT 1/8SM R16/0700V1000FT FG VV000 11/10 A3013 RMK AO2 SLP210 T01060100=
201209261527 SPECI KBLI 261527Z 00000KT 1/8SM R16/0800V1000FT FG VV000 10/10 A3013 RMK AO2=
201209261453 METAR KBLI 261453Z 00000KT 1/2SM R16/P6000FT FG VV001 09/09 A3012 RMK AO2 SLP206 T00940089 51006=
201209261446 SPECI KBLI 261446Z 00000KT 1/2SM R16/P6000FT FG VV001 09/08 A3012 RMK AO2=
201209261353 METAR KBLI 261353Z 00000KT 1SM R16/P6000FT BR OVC002 07/07 A3012 RMK AO2 SLP205 T00720072=
201209261342 SPECI KBLI 261342Z AUTO 00000KT 3SM BR OVC004 07/07 A3012 RMK AO2=
201209261336 SPECI KBLI 261336Z AUTO 00000KT 1SM R16/4500VP6000FT BR OVC004 07/06 A3011 RMK AO2=
201209261328 SPECI KBLI 261328Z AUTO 00000KT 1/2SM R16/3000VP6000FT FG OVC004 07/07 A3012 RMK AO2=
201209261314 SPECI KBLI 261314Z AUTO 00000KT 3/4SM R16/2200V3500FT BR OVC002 07/06 A3011 RMK AO2=
201209261253 METAR KBLI 261253Z AUTO 00000KT 1/4SM R16/1600VP6000FT FG VV002 06/06 A3011 RMK AO2 SLP203 T00610056=
201209261206 SPECI KBLI 261206Z AUTO 00000KT 1/4SM R16/2000VP6000FT FG VV002 06/06 A3010 RMK AO2=
201209261159 SPECI KBLI 261159Z AUTO 00000KT 3/4SM R16/2800VP6000FT BR VV002 07/06 A3010 RMK AO2=
201209261157 SPECI KBLI 261157Z AUTO 00000KT 1 1/2SM R16/2800VP6000FT BR SCT003 07/06 A3010 RMK AO2=
201209261153 METAR KBLI 261153Z AUTO 00000KT 4SM R16/3000VP6000FT BR SCT003 07/06 A3010 RMK AO2 SLP200 T00670056 10094 20067 58005=
201209261142 SPECI KBLI 261142Z AUTO 00000KT 8SM R16/1800VP6000FT BKN003 07/06 A3010 RMK AO2=
201209261135 SPECI KBLI 261135Z AUTO 00000KT 2 1/2SM R16/1800VP6000FT BR OVC003 08/07 A3010 RMK AO2=
201209261112 SPECI KBLI 261112Z AUTO 00000KT 3SM BR BKN003 08/07 A3010 RMK AO2=
201209261053 METAR KBLI 261053Z AUTO 00000KT 6SM BR FEW003 08/07 A3011 RMK AO2 SLP204 T00780072=
201209261029 SPECI KBLI 261029Z AUTO 00000KT 4SM BR FEW003 08/07 A3012 RMK AO2=
201209261026 SPECI KBLI 261026Z AUTO 00000KT 1 1/4SM BR FEW003 08/07 A3012 RMK AO2=
201209261016 SPECI KBLI 261016Z AUTO 00000KT 3/4SM R16/4000VP6000FT BR VV003 07/07 A3012 RMK AO2 VIS 1/4V5=
201209261013 SPECI KBLI 261013Z AUTO 00000KT 2SM R16/4000VP6000FT BR FEW004 08/07 A3012 RMK AO2 VIS 1/4V5=
201209260953 METAR KBLI 260953Z AUTO 00000KT 6SM BR CLR 08/07 A3012 RMK AO2 SLP207 T00830072=
201209260853 METAR KBLI 260853Z AUTO 00000KT 10SM R16/2200VP6000FT FEW002 08/07 A3012 RMK AO2 SLP205 T00780067 58001=
201209260845 SPECI KBLI 260845Z AUTO 00000KT 9SM SCT002 08/07 A3012 RMK AO2=
201209260834 SPECI KBLI 260834Z AUTO 00000KT 7SM BKN002 08/07 A3012 RMK AO2=
201209260827 SPECI KBLI 260827Z AUTO 00000KT 2 1/2SM BR BKN002 08/07 A3012 RMK AO2 VIS 1 1/4V5=
201209260822 SPECI KBLI 260822Z AUTO 00000KT 1 1/4SM BR SCT002 08/07 A3012 RMK AO2 VIS 1/2V5=
201209260812 SPECI KBLI 260812Z AUTO 00000KT 1 3/4SM BR CLR 08/07 A3012 RMK AO2 VIS 3/4V5=
201209260753 METAR KBLI 260753Z AUTO 00000KT 4SM BR CLR 08/07 A3012 RMK AO2 SLP207 T00780072 401780078=
201209260653 METAR KBLI 260653Z AUTO 00000KT 8SM CLR 09/08 A3013 RMK AO2 SLP209 T00890078=
201209260613 SPECI KBLI 260613Z AUTO 00000KT 4SM BR CLR 09/08 A3012 RMK AO2=
201209260609 SPECI KBLI 260609Z AUTO 00000KT 1 1/2SM BR CLR 09/09 A3012 RMK AO2=
201209260553 METAR KBLI 260553Z AUTO 00000KT 10SM CLR 09/08 A3012 RMK AO2 SLP207 T00940083 10172 20094 53004=
201209260453 METAR KBLI 260453Z 00000KT 10SM CLR 11/09 A3012 RMK AO2 SLP206 T01060094=
201209260353 METAR KBLI 260353Z 17004KT 10SM CLR 12/11 A3011 RMK AO2 SLP203 T01220106=
201209260253 METAR KBLI 260253Z 00000KT 10SM CLR 12/11 A3011 RMK AO2 SLP203 T01220106 53001=
201209260153 METAR KBLI 260153Z 00000KT 10SM CLR 13/11 A3010 RMK AO2 SLP201 T01330106=
201209260053 METAR KBLI 260053Z 17004KT 10SM CLR 16/11 A3011 RMK AO2 SLP202 T01610106=
201209252353 METAR KBLI 252353Z 18005KT 10SM CLR 17/11 A3011 RMK AO2 SLP202 T01720106 10178 20144 55001=
201209252253 METAR KBLI 252253Z VRB03KT 10SM CLR 17/11 A3010 RMK AO2 SLP200 T01670111=
201209252153 METAR KBLI 252153Z VRB04KT 10SM FEW019 17/11 A3011 RMK AO2 SLP202 T01720106=
201209252121 SPECI KBLI 252121Z VRB03KT 10SM SCT019 17/11 A3011 RMK AO2=
201209252053 METAR KBLI 252053Z VRB06KT 10SM BKN019 17/11 A3011 RMK AO2 SLP202 T01670111 58009=
201209251953 METAR KBLI 251953Z VRB03KT 10SM OVC019 16/11 A3012 RMK AO2 SLP206 T01610111=
201209251928 SPECI KBLI 251928Z VRB03KT 10SM OVC021 16/11 A3013 RMK AO2=
201209251853 METAR KBLI 251853Z VRB04KT 10SM BKN009 OVC021 15/11 A3014 RMK AO2 SLP212 T01500111=
201209251753 METAR KBLI 251753Z 00000KT 10SM BKN009 OVC017 14/12 A3014 RMK AO2 SLP211 T01440117 10150 20083 53006=
201209251726 SPECI KBLI 251726Z 16003KT 10SM BKN009 OVC017 14/12 A3014 RMK AO2=
201209251714 SPECI KBLI 251714Z 00000KT 10SM FEW009 OVC017 14/12 A3014 RMK AO2=
201209251653 METAR KBLI 251653Z 00000KT 10SM OVC015 14/12 A3013 RMK AO2 SLP210 T01390117=
201209251610 SPECI KBLI 251610Z 00000KT 10SM BKN015 14/11 A3013 RMK AO2=
201209251553 METAR KBLI 251553Z 12003KT 10SM CLR 13/11 A3012 RMK AO2 SLP207 T01330111=
201209251453 METAR KBLI 251453Z 00000KT 8SM CLR 10/09 A3012 RMK AO2 SLP206 T01000089 50004 $=
201209251353 METAR KBLI 251353Z 00000KT 9SM BKN070 09/08 A3012 RMK AO2 SLP207 T00890078=
201209251253 METAR KBLI 251253Z AUTO 00000KT 5SM BR SCT070 10/09 A3011 RMK AO2 SLP203 T01000089=
201209251153 METAR KBLI 251153Z AUTO 00000KT 10SM FEW065 09/08 A3011 RMK AO2 SLP203 T00940083 10139 20083 53001=
201209251101 SPECI KBLI 251101Z AUTO 19003KT 3SM BR CLR 11/09 A3010 RMK AO2=
201209251053 METAR KBLI 251053Z AUTO 00000KT 1 1/2SM BR CLR 10/09 A3010 RMK AO2 SLP201 T01000089=
201209250953 METAR KBLI 250953Z AUTO 00000KT 10SM OVC047 13/11 A3010 RMK AO2 SLP200 T01280111=
201209250853 METAR KBLI 250853Z AUTO 00000KT 10SM BKN040 OVC050 13/12 A3011 RMK AO2 SLP201 T01280117 53002=
201209250753 METAR KBLI 250753Z AUTO 17004KT 10SM BKN040 13/11 A3010 RMK AO2 SLP199 T01280111 401780067=
201209250653 METAR KBLI 250653Z AUTO 18004KT 10SM OVC040 14/11 A3010 RMK AO2 SLP199 T01390111=
201209250553 METAR KBLI 250553Z AUTO 18003KT 10SM BKN040 BKN065 14/11 A3010 RMK AO2 SLP199 T01390111 10172 20133 50002=
201209250453 METAR KBLI 250453Z 17006KT 10SM OVC050 14/11 A3010 RMK AO2 SLP201 T01440111=
201209250353 METAR KBLI 250353Z 00000KT 10SM BKN045 BKN055 OVC070 14/12 A3010 RMK AO2 SLP199 T01440117=
201209250253 METAR KBLI 250253Z 17003KT 10SM OVC045 15/11 A3010 RMK AO2 SLP198 T01500111 57001=
201209250153 METAR KBLI 250153Z 00000KT 10SM BKN045 OVC055 16/11 A3009 RMK AO2 SLP198 T01560111=
201209250053 METAR KBLI 250053Z 00000KT 10SM OVC065 16/11 A3010 RMK AO2 SLP199 T01610106=
201209242353 METAR KBLI 242353Z 15005KT 10SM FEW033 OVC070 17/11 A3010 RMK AO2 SLP199 T01670106 10178 20144 56004=
201209242253 METAR KBLI 242253Z 19005KT 10SM BKN110 18/11 A3010 RMK AO2 SLP199 T01780106=
201209242153 METAR KBLI 242153Z VRB03KT 10SM CLR 17/10 A3010 RMK AO2 SLP201 T01670100=
201209242053 METAR KBLI 242053Z 18006KT 10SM CLR 16/10 A3011 RMK AO2 SLP204 T01610100 58010=
201209241953 METAR KBLI 241953Z 18003KT 10SM CLR 16/11 A3013 RMK AO2 SLP208 T01610106=
201209241853 METAR KBLI 241853Z 21004KT 10SM CLR 15/09 A3014 RMK AO2 SLP214 T01500094=
201209241753 METAR KBLI 241753Z VRB04KT 10SM CLR 14/09 A3014 RMK AO2 SLP214 T01440094 10144 20067 51006=
201209241653 METAR KBLI 241653Z VRB04KT 10SM CLR 13/09 A3014 RMK AO2 SLP213 T01330094=
201209241553 METAR KBLI 241553Z 17004KT 10SM CLR 12/11 A3013 RMK AO2 SLP211 T01220106=
201209241453 METAR KBLI 241453Z 00000KT 10SM CLR 07/07 A3012 RMK AO2 SLP207 T00720067 50001=
201209241426 SPECI KBLI 241426Z 00000KT 10SM CLR 07/06 A3013 RMK AO2=
201209241419 SPECI KBLI 241419Z 00000KT 1 3/4SM BR CLR 07/06 A3013 RMK AO2=
201209241353 METAR KBLI 241353Z 00000KT 10SM CLR 07/06 A3013 RMK AO2 SLP209 T00720061=
201209241345 SPECI KBLI 241345Z 00000KT 10SM CLR 07/06 A3013 RMK AO2=
201209241327 SPECI KBLI 241327Z AUTO 00000KT 1/2SM R16/P6000FT FG VV002 07/06 A3012 RMK AO2=
201209241319 SPECI KBLI 241319Z AUTO 00000KT 3/4SM R16/1600VP6000FT BR VV002 07/07 A3012 RMK AO2=
201209241316 SPECI KBLI 241316Z AUTO 00000KT 1 3/4SM R16/1600VP6000FT BR CLR 07/07 A3012 RMK AO2 VIS 3/4V5=
201209241300 SPECI KBLI 241300Z AUTO 00000KT 7SM SCT002 07/07 A3012 RMK AO2=
201209241253 METAR KBLI 241253Z AUTO 00000KT 2SM R16/2000VP6000FT BR BKN002 08/07 A3012 RMK AO2 VIS 1V5 SLP206 T00780067=
201209241248 SPECI KBLI 241248Z AUTO 00000KT 2SM R16/2000VP6000FT BR BKN002 08/07 A3012 RMK AO2 VIS 1V5=
201209241238 SPECI KBLI 241238Z AUTO 00000KT 1/4SM R16/P6000FT FG VV002 08/07 A3012 RMK AO2=
201209241231 SPECI KBLI 241231Z AUTO 00000KT 3/4SM R16/P6000FT BR VV002 07/07 A3012 RMK AO2=
201209241229 SPECI KBLI 241229Z AUTO 00000KT 1 1/2SM BR FEW002 07/06 A3012 RMK AO2=
201209241208 SPECI KBLI 241208Z AUTO 00000KT 4SM BR FEW002 08/07 A3012 RMK AO2=
201209241203 SPECI KBLI 241203Z AUTO 00000KT 1 1/4SM BR FEW002 07/07 A3012 RMK AO2 VIS 1/4V5=
201209241158 SPECI KBLI 241158Z AUTO 00000KT 3/4SM R16/P6000FT BR VV002 08/07 A3012 RMK AO2 VIS 1/4V4=
201209241156 SPECI KBLI 241156Z AUTO 00000KT 1 1/4SM BR FEW002 08/07 A3012 RMK AO2 VIS 3/4V4=
201209241153 METAR KBLI 241153Z AUTO 00000KT 3/4SM R16/P6000FT BR VV002 07/07 A3012 RMK AO2 SLP206 T00720067 10100 20072 58002=
201209241144 SPECI KBLI 241144Z AUTO 00000KT 1/2SM R16/P6000FT FG VV002 08/07 A3012 RMK AO2=
201209241137 SPECI KBLI 241137Z AUTO 00000KT 1 1/2SM R16/4500VP6000FT BR CLR 08/07 A3012 RMK AO2 VIS 1/2V5=
201209241135 SPECI KBLI 241135Z AUTO 00000KT 4SM R16/4500VP6000FT BR CLR 08/07 A3012 RMK AO2=
201209241120 SPECI KBLI 241120Z AUTO 00000KT 1 1/2SM R16/2800VP6000FT BR CLR 09/07 A3012 RMK AO2=
201209241118 SPECI KBLI 241118Z AUTO 00000KT 3SM R16/3500VP6000FT BR CLR 09/07 A3012 RMK AO2=
201209241110 SPECI KBLI 241110Z AUTO 00000KT 1SM R16/6000VP6000FT BR CLR 08/07 A3012 RMK AO2=
201209241058 SPECI KBLI 241058Z AUTO 00000KT 1/2SM R16/P6000FT FG CLR 08/07 A3012 RMK AO2=
201209241053 METAR KBLI 241053Z AUTO 00000KT 1 3/4SM BR CLR 08/07 A3012 RMK AO2 SLP208 T00780072=
201209241000 SPECI KBLI 241000Z AUTO 00000KT 10SM FEW001 08/07 A3012 RMK AO2=
201209240953 METAR KBLI 240953Z AUTO 00000KT 2SM BR FEW001 08/07 A3012 RMK AO2 SLP207 T00830072=
201209240949 SPECI KBLI 240949Z AUTO 00000KT 3/4SM R16/P6000FT BR VV001 08/07 A3012 RMK AO2=
201209240940 SPECI KBLI 240940Z AUTO 00000KT 1 3/4SM BR FEW001 09/07 A3012 RMK AO2 VIS 1/2V5=
201209240853 METAR KBLI 240853Z AUTO 00000KT 10SM CLR 09/08 A3013 RMK AO2 SLP209 T00890083 58002=
201209240753 METAR KBLI 240753Z AUTO 00000KT 3SM BR CLR 09/08 A3013 RMK AO2 SLP211 T00890078 401890078=
201209240653 METAR KBLI 240653Z AUTO 00000KT 7SM R16/5000VP6000FT CLR 09/09 A3013 RMK AO2 SLP211 T00940089=
201209240553 METAR KBLI 240553Z AUTO 00000KT 10SM CLR 11/09 A3013 RMK AO2 SLP211 T01060094 10183 20100 51005=
201209240453 METAR KBLI 240453Z 00000KT 10SM CLR 11/10 A3013 RMK AO2 SLP209 T01110100=
201209240353 METAR KBLI 240353Z 00000KT 10SM CLR 12/10 A3013 RMK AO2 SLP208 T01170100=
201209240253 METAR KBLI 240253Z 00000KT 10SM CLR 13/11 A3012 RMK AO2 SLP206 T01330111 53003=
201209240153 METAR KBLI 240153Z 18003KT 10SM CLR 14/11 A3011 RMK AO2 SLP203 T01440111=
201209240053 METAR KBLI 240053Z 00000KT 10SM CLR 17/11 A3011 RMK AO2 SLP203 T01720106=
201209232353 METAR KBLI 232353Z 27004KT 10SM CLR 18/11 A3011 RMK AO2 SLP202 T01830106 10189 20139 55006=
201209232253 METAR KBLI 232253Z 28005KT 10SM CLR 18/12 A3011 RMK AO2 SLP201 T01830117=
201209232153 METAR KBLI 232153Z VRB04KT 10SM CLR 18/12 A3012 RMK AO2 SLP204 T01830117=
201209232053 METAR KBLI 232053Z 27005KT 10SM CLR 18/12 A3013 RMK AO2 SLP209 T01780122 58012=
201209231953 METAR KBLI 231953Z VRB03KT 10SM OVC035 16/11 A3015 RMK AO2 SLP216 T01610111=
201209231853 METAR KBLI 231853Z 00000KT 10SM OVC035 16/11 A3016 RMK AO2 SLP220 T01560106=
201209231753 METAR KBLI 231753Z 00000KT 10SM OVC037 14/11 A3016 RMK AO2 SLP221 T01390106 10139 20100 51005=
201209231653 METAR KBLI 231653Z 00000KT 10SM OVC037 13/10 A3016 RMK AO2 SLP220 T01330100 $=
201209231553 METAR KBLI 231553Z 00000KT 10SM OVC039 12/10 A3016 RMK AO2 SLP220 T01220100=
201209231453 METAR KBLI 231453Z 00000KT 8SM BKN039 11/10 A3015 RMK AO2 SLP216 T01060100 53003=
201209231353 METAR KBLI 231353Z 00000KT 7SM OVC041 11/09 A3014 RMK AO2 SLP214 T01060094=
201209231253 METAR KBLI 231253Z AUTO 00000KT 10SM OVC043 12/10 A3014 RMK AO2 SLP212 T01170100=
201209231153 METAR KBLI 231153Z AUTO 15003KT 10SM OVC039 12/11 A3014 RMK AO2 SLP212 T01170106 10117 20078 53005=
201209231053 METAR KBLI 231053Z AUTO 00000KT 10SM OVC041 12/10 A3013 RMK AO2 SLP210 T01170100=
201209230953 METAR KBLI 230953Z AUTO 13003KT 10SM OVC041 11/09 A3013 RMK AO2 SLP209 T01060094=
201209230853 METAR KBLI 230853Z AUTO 00000KT 9SM OVC041 09/08 A3013 RMK AO2 SLP209 T00940083 55001=
201209230753 METAR KBLI 230753Z AUTO 00000KT 10SM CLR 09/08 A3012 RMK AO2 SLP208 T00890078 401780078=
201209230653 METAR KBLI 230653Z AUTO 00000KT 10SM CLR 09/08 A3012 RMK AO2 SLP208 T00940078=
201209230553 METAR KBLI 230553Z AUTO 00000KT 7SM FEW030 09/08 A3013 RMK AO2 SLP210 T00940083 10167 20089 58000=
201209230453 METAR KBLI 230453Z 00000KT 10SM CLR 10/08 A3013 RMK AO2 SLP210 T01000083=
201209230353 METAR KBLI 230353Z 00000KT 10SM CLR 11/09 A3013 RMK AO2 SLP211 T01060089=
201209230253 METAR KBLI 230253Z 00000KT 10SM CLR 12/09 A3013 RMK AO2 SLP210 T01220094 53000=
201209230153 METAR KBLI 230153Z 00000KT 10SM CLR 14/10 A3013 RMK AO2 SLP208 T01390100=
201209230053 METAR KBLI 230053Z 00000KT 10SM CLR 17/08 A3013 RMK AO2 SLP207 T01670083=
201209222353 METAR KBLI 222353Z 18004KT 10SM CLR 17/09 A3013 RMK AO2 SLP209 T01670089 10178 20139 58003=
201209222253 METAR KBLI 222253Z 15004KT 10SM CLR 17/08 A3013 RMK AO2 SLP210 T01720078=
201209222153 METAR KBLI 222153Z 12003KT 10SM CLR 17/09 A3014 RMK AO2 SLP211 T01670089=
201209222053 METAR KBLI 222053Z VRB03KT 10SM OVC044 15/09 A3014 RMK AO2 SLP212 T01500094 58002=
201209221953 METAR KBLI 221953Z 18003KT 10SM OVC042 14/10 A3015 RMK AO2 SLP214 T01440100=
201209221853 METAR KBLI 221853Z 17006KT 10SM OVC042 14/11 A3015 RMK AO2 SLP215 T01440106=
201209221753 METAR KBLI 221753Z 16004KT 8SM OVC044 14/12 A3015 RMK AO2 SLP214 T01440117 10144 20133 50002=
201209221653 METAR KBLI 221653Z 17005KT 8SM OVC042 14/12 A3015 RMK AO2 SLP215 T01390117=
201209221553 METAR KBLI 221553Z 20003KT 9SM OVC040 13/12 A3015 RMK AO2 SLP214 T01330117=
201209221453 METAR KBLI 221453Z 16005KT 6SM BR FEW005 OVC040 13/12 A3014 RMK AO2 SLP212 T01330122 53001=
201209221439 SPECI KBLI 221439Z 17004KT 7SM FEW005 OVC040 13/12 A3014 RMK AO2=
201209221353 METAR KBLI 221353Z 17003KT 10SM OVC040 14/12 A3013 RMK AO2 SLP210 T01390122=
201209221253 METAR KBLI 221253Z AUTO 00000KT 10SM OVC042 14/12 A3013 RMK AO2 SLP210 T01390122 TSNO=
201209221153 METAR KBLI 221153Z AUTO 17004KT 10SM OVC040 14/11 A3014 RMK AO2 SLP211 T01440111 10150 20144 58001=
201209221053 METAR KBLI 221053Z AUTO 16004KT 10SM OVC038 14/11 A3014 RMK AO2 SLP212 T01440111=
201209220953 METAR KBLI 220953Z AUTO 17006KT 10SM OVC036 14/12 A3014 RMK AO2 SLP212 T01440117=
201209220853 METAR KBLI 220853Z AUTO 17007KT 10SM OVC036 14/12 A3014 RMK AO2 SLP213 T01440117 53004=
201209220753 METAR KBLI 220753Z AUTO 16005KT 10SM OVC036 15/12 A3014 RMK AO2 SLP211 T01500117 401610117=
201209220653 METAR KBLI 220653Z AUTO 16004KT 10SM OVC034 15/12 A3013 RMK AO2 SLP209 T01500117=
201209220553 METAR KBLI 220553Z AUTO 17004KT 10SM FEW024 OVC034 15/12 A3013 RMK AO2 SLP208 T01500117 10156 20150 51006=
201209220544 SPECI KBLI 220544Z AUTO 16004KT 10SM SCT024 OVC034 15/12 A3013 RMK AO2=
201209220532 SPECI KBLI 220532Z AUTO 16005KT 10SM BKN024 OVC034 15/12 A3013 RMK AO2=
201209220453 METAR KBLI 220453Z 16004KT 10SM SCT026 OVC033 15/12 A3012 RMK AO2 SLP206 T01500117=
201209220353 METAR KBLI 220353Z 17004KT 10SM OVC033 15/12 A3012 RMK AO2 SLP204 T01500122=
201209220253 METAR KBLI 220253Z 16006KT 10SM OVC031 15/12 A3011 RMK AO2 SLP203 T01500122 53001=
201209220153 METAR KBLI 220153Z 17005KT 10SM OVC031 15/12 A3010 RMK AO2 SLP200 T01500117=
201209220101 SPECI KBLI 220101Z 17004KT 10SM OVC031 15/12 A3011 RMK AO2=
201209220053 METAR KBLI 220053Z 17005KT 10SM OVC029 16/12 A3011 RMK AO2 SLP202 T01560122=
201209212353 METAR KBLI 212353Z 16007KT 10SM OVC029 16/12 A3010 RMK AO2 SLP201 T01560122 10161 20144 56006=
201209212253 METAR KBLI 212253Z 17009KT 10SM OVC027 16/11 A3011 RMK AO2 SLP202 T01610111=
201209212153 METAR KBLI 212153Z 15006KT 10SM OVC023 16/12 A3012 RMK AO2 SLP205 T01560117=
201209212053 METAR KBLI 212053Z 18006KT 10SM OVC025 15/12 A3012 RMK AO2 SLP207 T01500117 58003=
201209211953 METAR KBLI 211953Z 16008KT 10SM OVC023 15/11 A3013 RMK AO2 SLP211 T01500111=
201209211853 METAR KBLI 211853Z 16008KT 10SM OVC023 14/11 A3014 RMK AO2 SLP213 T01440111=
201209211753 METAR KBLI 211753Z 14007KT 10SM OVC021 14/11 A3013 RMK AO2 SLP210 T01440111 10144 20117 50003=
201209211710 SPECI KBLI 211710Z 16005KT 10SM OVC015 14/11 A3013 RMK AO2=
201209211653 METAR KBLI 211653Z 15005KT 10SM OVC013 13/11 A3013 RMK AO2 SLP211 T01330111=
201209211553 METAR KBLI 211553Z 16006KT 10SM BKN013 OVC018 13/11 A3013 RMK AO2 SLP209 T01330111=
201209211453 METAR KBLI 211453Z 15005KT 10SM OVC011 13/11 A3012 RMK AO2 SLP207 T01280111 51004=
201209211412 SPECI KBLI 211412Z 16005KT 10SM FEW005 OVC011 12/11 A3012 RMK AO2=
201209211401 SPECI KBLI 211401Z 16006KT 10SM SCT004 OVC009 12/11 A3012 RMK AO2=
201209211353 METAR KBLI 211353Z 16006KT 9SM BKN004 OVC009 12/11 A3012 RMK AO2 CIG 003V008 SLP207 T01220111=
201209211318 SPECI KBLI 211318Z AUTO 17006KT 3SM BR BKN004 OVC007 12/11 A3012 RMK AO2=
201209211309 SPECI KBLI 211309Z AUTO 16007KT 2 1/2SM BR OVC004 12/11 A3012 RMK AO2 CIG 002V007=
201209211253 METAR KBLI 211253Z AUTO 17006KT 4SM BR OVC004 12/11 A3012 RMK AO2 SLP204 T01220111=
201209211153 METAR KBLI 211153Z AUTO 17010KT 5SM BR OVC004 12/11 A3011 RMK AO2 SLP202 T01220111 10133 20117 51005=
201209211053 METAR KBLI 211053Z AUTO 16011G16KT 9SM OVC004 12/11 A3010 RMK AO2 SLP200 T01220111=
201209210953 METAR KBLI 210953Z AUTO 16011G17KT 7SM OVC004 12/11 A3010 RMK AO2 SLP199 T01170106=
201209210853 METAR KBLI 210853Z AUTO 16011KT 6SM BR OVC002 12/11 A3009 RMK AO2 SLP197 T01170106 53013=
201209210827 SPECI KBLI 210827Z AUTO 16010G18KT 9SM BKN004 12/11 A3009 RMK AO2=
201209210753 METAR KBLI 210753Z AUTO 16010KT 10SM FEW004 12/11 A3008 RMK AO2 SLP192 T01170106 402170072=
201209210742 SPECI KBLI 210742Z AUTO 16007G17KT 10SM FEW004 12/11 A3008 RMK AO2=
201209210653 METAR KBLI 210653Z AUTO 16012G19KT 10SM CLR 12/11 A3007 RMK AO2 SLP189 T01220106=
201209210553 METAR KBLI 210553Z AUTO 17012G18KT 10SM CLR 13/11 A3006 RMK AO2 SLP185 T01330111 10211 20122 53016=
201209210453 METAR KBLI 210453Z 18014G20KT 10SM CLR 13/11 A3004 RMK AO2 SLP179 T01280106=
201209210353 METAR KBLI 210353Z 17010G17KT 10SM CLR 14/11 A3003 RMK AO2 SLP174 T01390111=
201209210253 METAR KBLI 210253Z 18010KT 10SM CLR 14/11 A3001 RMK AO2 SLP169 T01440111 53003=
201209210153 METAR KBLI 210153Z 17008KT 10SM CLR 15/11 A3000 RMK AO2 SLP164 T01500111=
201209210053 METAR KBLI 210053Z VRB03KT 10SM CLR 18/12 A2999 RMK AO2 SLP162 T01830122=
201209202353 METAR KBLI 202353Z VRB03KT 10SM CLR 21/12 A3000 RMK AO2 SLP165 T02110122 10217 20122 56014=
201209202253 METAR KBLI 202253Z 28004KT 10SM CLR 21/12 A3002 RMK AO2 SLP170 T02110117=
201209202153 METAR KBLI 202153Z VRB03KT 10SM CLR 21/13 A3003 RMK AO2 SLP174 T02110133=
201209202053 METAR KBLI 202053Z VRB04KT 10SM CLR 19/13 A3004 RMK AO2 SLP180 T01890128 58017=
201209201953 METAR KBLI 201953Z 21004KT 10SM CLR 17/12 A3006 RMK AO2 SLP187 T01720122=
201209201853 METAR KBLI 201853Z 00000KT 8SM SCT002 14/11 A3008 RMK AO2 SLP192 T01390111=
201209201844 SPECI KBLI 201844Z 20003KT 8SM SCT002 14/11 A3008 RMK AO2=
201209201824 SPECI KBLI 201824Z 16003KT 1 1/2SM BR SCT004 12/11 A3009 RMK AO2=
201209201800 SPECI KBLI 201800Z 17003KT 1 1/2SM BR OVC002 12/12 A3009 RMK AO2=
201209201753 METAR KBLI 201753Z 17003KT 3/4SM R16/P6000FT BR OVC002 12/12 A3010 RMK AO2 SLP198 T01220117 10122 20072 50000=
201209201739 SPECI KBLI 201739Z 00000KT 3/4SM R16/5500VP6000FT BR OVC002 12/12 A3010 RMK AO2=
201209201731 SPECI KBLI 201731Z 00000KT 1SM R16/2400VP6000FT BR OVC002 12/11 A3010 RMK AO2=
201209201725 SPECI KBLI 201725Z 00000KT 1/2SM R16/1600V3500FT FG OVC002 12/11 A3010 RMK AO2=
201209201712 SPECI KBLI 201712Z 17003KT 1/4SM R16/1200V1600FT FG VV002 12/11 A3010 RMK AO2=
201209201653 METAR KBLI 201653Z 00000KT 1/4SM R16/1600V2600FT FG VV002 12/11 A3010 RMK AO2 SLP199 T01170111=
201209201604 SPECI KBLI 201604Z 00000KT 1/4SM R16/1400V2200FT FG VV002 12/11 A3010 RMK AO2=
201209201553 METAR KBLI 201553Z 00000KT 1/2SM R16/1200V2000FT FG VV001 11/11 A3010 RMK AO2 SLP199 T01110111=
201209201453 METAR KBLI 201453Z 17005KT M1/4SM R16/0700V1000FT FG VV001 11/11 A3009 RMK AO2 SLP198 T01110106 53006=
201209201417 SPECI KBLI 201417Z 17007KT 1/2SM R16/0800V1000FT FG VV001 11/11 A3009 RMK AO2=
201209201408 SPECI KBLI 201408Z 18006KT 1/2SM R16/1000V4500FT FG VV001 11/11 A3009 RMK AO2=
201209201359 SPECI KBLI 201359Z 18005KT 1SM R16/1400VP6000FT BR OVC001 11/11 A3009 RMK AO2=
201209201353 METAR KBLI 201353Z AUTO 18003KT 1/2SM R16/1400VP6000FT FG VV001 11/11 A3009 RMK AO2 SLP196 T01060106=
201209201351 SPECI KBLI 201351Z AUTO 18003KT 1/2SM R16/1400VP6000FT FG VV001 11/11 A3009 RMK AO2=
201209201348 SPECI KBLI 201348Z AUTO 18004KT 1 1/4SM R16/1400VP6000FT BR BKN001 11/10 A3009 RMK AO2=
201209201335 SPECI KBLI 201335Z AUTO 18005KT 3SM R16/4000VP6000FT BR OVC001 11/10 A3009 RMK AO2=
201209201325 SPECI KBLI 201325Z AUTO 17008KT 1 3/4SM R16/4000VP6000FT BR OVC001 11/11 A3009 RMK AO2=
201209201303 SPECI KBLI 201303Z AUTO 18003KT 4SM BR BKN001 10/09 A3008 RMK AO2=
201209201253 METAR KBLI 201253Z AUTO 18003KT 8SM SCT001 08/07 A3008 RMK AO2 SLP191 T00780067=
201209201242 SPECI KBLI 201242Z AUTO 00000KT 4SM R16/2000VP6000FT BR BKN001 08/08 A3008 RMK AO2=
201209201236 SPECI KBLI 201236Z AUTO 00000KT 1SM R16/1200VP6000FT BR VV001 08/08 A3007 RMK AO2 VIS 1/2V5=
201209201221 SPECI KBLI 201221Z AUTO 00000KT 1/4SM R16/1000V2800FT FG VV001 08/07 A3007 RMK AO2=
201209201213 SPECI KBLI 201213Z AUTO 00000KT 3/4SM R16/1000V1800FT BR VV002 08/07 A3007 RMK AO2=
201209201205 SPECI KBLI 201205Z AUTO 00000KT 1/2SM R16/1200VP6000FT FG VV002 08/07 A3008 RMK AO2=
201209201200 SPECI KBLI 201200Z AUTO 00000KT 1 3/4SM R16/3500VP6000FT BR BKN002 08/07 A3008 RMK AO2 VIS 3/4V5=
201209201153 METAR KBLI 201153Z AUTO 00000KT 7SM R16/4500VP6000FT BKN002 08/07 A3008 RMK AO2 SLP191 T00830072 10117 20078 58004=
201209201145 SPECI KBLI 201145Z AUTO 00000KT 3SM BR SCT002 08/07 A3008 RMK AO2=
201209201141 SPECI KBLI 201141Z AUTO 00000KT 2SM R16/3000VP6000FT BR BKN002 08/07 A3008 RMK AO2=
201209201110 SPECI KBLI 201110Z AUTO 00000KT 4SM BR BKN002 08/08 A3008 RMK AO2=
201209201108 SPECI KBLI 201108Z AUTO 00000KT 1 1/4SM BR BKN002 08/08 A3008 RMK AO2=
201209201105 SPECI KBLI 201105Z AUTO 00000KT 1/2SM R16/P6000FT FG VV001 08/08 A3008 RMK AO2=
201209201053 METAR KBLI 201053Z AUTO 00000KT 1/2SM R16/1600VP6000FT FG VV002 08/08 A3009 RMK AO2 SLP195 T00830078=
201209201051 SPECI KBLI 201051Z AUTO 00000KT 3/4SM R16/5500VP6000FT BR VV002 08/08 A3009 RMK AO2=
201209201049 SPECI KBLI 201049Z AUTO 00000KT 1 1/2SM R16/5500VP6000FT BR FEW002 08/08 A3009 RMK AO2=
201209201045 SPECI KBLI 201045Z AUTO 00000KT 5SM BR CLR 08/08 A3009 RMK AO2=
201209201038 SPECI KBLI 201038Z AUTO 00000KT 2 1/2SM R16/1600VP6000FT BR CLR 08/08 A3008 RMK AO2 VIS 1V5=
201209200953 METAR KBLI 200953Z AUTO 00000KT 3SM R16/2000VP6000FT BR CLR 09/08 A3009 RMK AO2 SLP195 T00940083=
201209200925 SPECI KBLI 200925Z AUTO 00000KT 3SM BR CLR 11/09 A3009 RMK AO2=
201209200918 SPECI KBLI 200918Z AUTO 00000KT 1 3/4SM BR CLR 10/09 A3009 RMK AO2 VIS 1V5=
201209200853 METAR KBLI 200853Z AUTO 00000KT 5SM BR CLR 11/09 A3009 RMK AO2 SLP196 T01060094 51003=
201209200753 METAR KBLI 200753Z AUTO 00000KT 5SM BR CLR 11/09 A3009 RMK AO2 SLP196 T01060094 402110094=
201209200653 METAR KBLI 200653Z AUTO 00000KT 8SM CLR 11/09 A3009 RMK AO2 SLP195 T01110094=
201209200553 METAR KBLI 200553Z AUTO 00000KT 10SM CLR 12/10 A3008 RMK AO2 SLP194 T01170100 10211 20111 53007=
201209200453 METAR KBLI 200453Z 00000KT 10SM CLR 12/10 A3008 RMK AO2 SLP191 T01170100=
201209200353 METAR KBLI 200353Z 00000KT 10SM CLR 13/11 A3007 RMK AO2 SLP189 T01280111=
201209200253 METAR KBLI 200253Z 00000KT 10SM CLR 14/12 A3006 RMK AO2 SLP187 T01390117 55008=
201209200153 METAR KBLI 200153Z 00000KT 10SM CLR 17/13 A3006 RMK AO2 SLP186 T01670128=
201209200053 METAR KBLI 200053Z 00000KT 10SM CLR 21/12 A3007 RMK AO2 SLP190 T02060122=
201209192353 METAR KBLI 192353Z VRB03KT 10SM CLR 20/11 A3009 RMK AO2 SLP194 T02000111 10206 20128 56017=
201209192253 METAR KBLI 192253Z VRB04KT 10SM CLR 19/13 A3010 RMK AO2 SLP198 T01940128=
201209192153 METAR KBLI 192153Z 00000KT 10SM CLR 20/12 A3011 RMK AO2 SLP202 T02000122=
201209192053 METAR KBLI 192053Z 19004KT 10SM CLR 18/12 A3014 RMK AO2 SLP211 T01780117 58009=
201209191953 METAR KBLI 191953Z 16007KT 10SM CLR 15/11 A3015 RMK AO2 SLP216 T01500111=
201209191906 SPECI KBLI 191906Z 17007KT 140V200 6SM HZ SCT004 14/11 A3016 RMK AO2=
201209191900 SPECI KBLI 191900Z 18007KT 2SM HZ BKN002 14/11 A3016 RMK AO2=
201209191853 METAR KBLI 191853Z 18007KT 1SM R16/P6000FT BR OVC002 13/12 A3016 RMK AO2 SLP220 T01330117=
201209191800 SPECI KBLI 191800Z 17006KT 3/4SM R16/P6000FT BR OVC002 13/12 A3016 RMK AO2=
201209191753 METAR KBLI 191753Z VRB04KT 1/2SM R16/P6000FT FG OVC002 13/12 A3016 RMK AO2 SLP220 T01330117 10133 20117 51005=
201209191653 METAR KBLI 191653Z 18005KT 1/2SM R16/P6000FT FG OVC002 13/12 A3016 RMK AO2 SLP219 T01280117=
201209191553 METAR KBLI 191553Z 17005KT 1/2SM R16/P6000FT FG OVC002 12/12 A3015 RMK AO2 SLP218 T01220117=
201209191453 METAR KBLI 191453Z 17006KT 1/4SM R16/2800V5000FT FG OVC002 12/12 A3015 RMK AO2 SLP216 T01170117 53013=
201209191440 SPECI KBLI 191440Z 18005KT 1/4SM R16/1600V6000FT FG VV002 12/12 A3015 RMK AO2=
201209191428 SPECI KBLI 191428Z 18005KT 1/4SM R16/1400V1600FT FG VV002 12/11 A3014 RMK AO2=
201209191417 SPECI KBLI 191417Z 17005KT 1/4SM R16/1600V2400FT FG VV002 12/11 A3014 RMK AO2=
201209191406 SPECI KBLI 191406Z 17004KT 1/4SM R16/1600VP6000FT FG OVC001 12/11 A3013 RMK AO2=
201209191353 METAR KBLI 191353Z 18005KT 1/2SM R16/5000VP6000FT FG OVC003 12/11 A3013 RMK AO2 SLP209 T01170111=
201209191333 SPECI KBLI 191333Z AUTO 16004KT 5SM BR BKN003 12/11 A3012 RMK AO2=
201209191315 SPECI KBLI 191315Z AUTO VRB03KT 6SM BR FEW003 12/11 A3012 RMK AO2=
201209191253 METAR KBLI 191253Z AUTO 17008KT 8SM CLR 12/11 A3011 RMK AO2 SLP203 T01220111=
201209191153 METAR KBLI 191153Z AUTO 18004KT 8SM CLR 13/12 A3011 RMK AO2 SLP202 T01280117 10139 20094 51008=
201209191053 METAR KBLI 191053Z AUTO 00000KT 9SM CLR 10/09 A3011 RMK AO2 SLP201 T01000089=
201209190953 METAR KBLI 190953Z AUTO 00000KT 10SM CLR 11/09 A3010 RMK AO2 SLP198 T01110094=
201209190853 METAR KBLI 190853Z AUTO 00000KT 10SM CLR 12/10 A3009 RMK AO2 SLP194 T01170100 51011=
201209190753 METAR KBLI 190753Z AUTO 00000KT 10SM CLR 12/11 A3008 RMK AO2 SLP191 T01220106 402390089=
201209190653 METAR KBLI 190653Z AUTO 00000KT 10SM CLR 13/11 A3007 RMK AO2 SLP187 T01280111=
201209190553 METAR KBLI 190553Z AUTO 00000KT 10SM CLR 12/09 A3005 RMK AO2 SLP183 T01170089 10233 20117 51011=
201209190453 METAR KBLI 190453Z 00000KT 10SM CLR 13/09 A3004 RMK AO2 SLP180 T01280094=
201209190353 METAR KBLI 190353Z 00000KT 10SM CLR 14/11 A3003 RMK AO2 SLP176 T01440111=
201209190253 METAR KBLI 190253Z 00000KT 10SM CLR 15/12 A3002 RMK AO2 SLP173 T01500117 53002=
201209190153 METAR KBLI 190153Z 00000KT 10SM CLR 18/12 A3001 RMK AO2 SLP170 T01780122=
201209190053 METAR KBLI 190053Z 17004KT 10SM CLR 22/12 A3002 RMK AO2 SLP170 T02170117=
201209182353 METAR KBLI 182353Z 25003KT 10SM CLR 23/11 A3002 RMK AO2 SLP170 T02280106 10239 20189 56009=
201209182253 METAR KBLI 182253Z 00000KT 10SM CLR 23/11 A3002 RMK AO2 SLP172 T02330106=
201209182153 METAR KBLI 182153Z 23004KT 10SM CLR 23/10 A3003 RMK AO2 SLP175 T02280100=
201209182053 METAR KBLI 182053Z VRB06KT 10SM CLR 22/12 A3004 RMK AO2 SLP179 T02170117 58004=
201209181953 METAR KBLI 181953Z 18004KT 10SM CLR 21/13 A3005 RMK AO2 SLP181 T02110128=
201209181853 METAR KBLI 181853Z 21003KT 10SM CLR 21/13 A3006 RMK AO2 SLP183 T02060128=
201209181753 METAR KBLI 181753Z 00000KT 10SM CLR 19/12 A3005 RMK AO2 SLP183 T01890117 10189 20089 51006=
201209181653 METAR KBLI 181653Z VRB04KT 10SM CLR 17/12 A3005 RMK AO2 SLP182 T01670117=
201209181553 METAR KBLI 181553Z 17004KT 10SM CLR 16/12 A3004 RMK AO2 SLP179 T01560122=
201209181453 METAR KBLI 181453Z 16003KT 10SM CLR 12/11 A3004 RMK AO2 SLP178 T01170106 53007=
201209181353 METAR KBLI 181353Z 00000KT 10SM CLR 09/07 A3003 RMK AO2 SLP175 T00890072=
201209181346 SPECI KBLI 181346Z AUTO 00000KT 4SM BR CLR 09/08 A3002 RMK AO2=
201209181333 SPECI KBLI 181333Z AUTO 00000KT 1 1/2SM BR CLR 09/08 A3002 RMK AO2 VIS 1/2V5=
201209181253 METAR KBLI 181253Z AUTO 00000KT 10SM CLR 09/08 A3002 RMK AO2 SLP171 T00940083=
201209181235 SPECI KBLI 181235Z AUTO 00000KT 5SM BR CLR 09/08 A3002 RMK AO2=
201209181225 SPECI KBLI 181225Z AUTO 00000KT 1 3/4SM BR CLR 09/08 A3002 RMK AO2=
201209181153 METAR KBLI 181153Z AUTO 00000KT 9SM CLR 10/09 A3002 RMK AO2 SLP170 T01000089 10144 20094 55000=
201209181053 METAR KBLI 181053Z AUTO 00000KT 10SM CLR 10/09 A3001 RMK AO2 SLP169 T01000089=
201209181019 SPECI KBLI 181019Z AUTO 00000KT 5SM BR CLR 09/09 A3002 RMK AO2=
201209181009 SPECI KBLI 181009Z AUTO 00000KT 1 3/4SM BR CLR 09/09 A3002 RMK AO2=
201209180953 METAR KBLI 180953Z AUTO 00000KT 10SM CLR 11/09 A3002 RMK AO2 SLP170 T01110094=
201209180853 METAR KBLI 180853Z AUTO 00000KT 10SM CLR 11/09 A3002 RMK AO2 SLP170 T01110094 56001=
201209180753 METAR KBLI 180753Z AUTO 00000KT 10SM CLR 13/12 A3002 RMK AO2 SLP170 T01280117 402500067=
201209180653 METAR KBLI 180653Z AUTO 16003KT 10SM CLR 14/12 A3001 RMK AO2 SLP169 T01390122=
201209180553 METAR KBLI 180553Z AUTO 00000KT 10SM CLR 13/10 A3002 RMK AO2 SLP171 T01330100 10244 20117 53002=
201209180453 METAR KBLI 180453Z 00000KT 10SM CLR 14/10 A3002 RMK AO2 SLP170 T01390100=
201209180353 METAR KBLI 180353Z 00000KT 10SM CLR 14/11 A3001 RMK AO2 SLP168 T01390111=
201209180253 METAR KBLI 180253Z 00000KT 10SM CLR 16/12 A3001 RMK AO2 SLP170 T01560122 55004=
201209180153 METAR KBLI 180153Z 00000KT 10SM CLR 19/12 A3000 RMK AO2 SLP167 T01890122=
201209180053 METAR KBLI 180053Z 00000KT 10SM CLR 23/11 A3001 RMK AO2 SLP167 T02280111=
201209172353 METAR KBLI 172353Z VRB04KT 10SM CLR 24/10 A3003 RMK AO2 SLP173 T02390100 10250 20200 56020=
201209172253 METAR KBLI 172253Z 29005KT 10SM CLR 25/10 A3004 RMK AO2 SLP178 T02500100=
201209172153 METAR KBLI 172153Z 27007KT 10SM CLR 24/09 A3007 RMK AO2 SLP187 T02390094=
201209172053 METAR KBLI 172053Z 26003KT 10SM CLR 23/11 A3008 RMK AO2 SLP193 T02280111 58013=
201209171953 METAR KBLI 171953Z 28006KT 10SM CLR 21/12 A3010 RMK AO2 SLP197 T02110122=
201209171853 METAR KBLI 171853Z 17003KT 10SM CLR 22/13 A3011 RMK AO2 SLP203 T02170128=
201209171753 METAR KBLI 171753Z 02004KT 10SM CLR 21/08 A3012 RMK AO2 SLP206 T02110083 10211 20067 58004=
201209171653 METAR KBLI 171653Z 01003KT 10SM CLR 18/11 A3014 RMK AO2 SLP211 T01780106=
201209171553 METAR KBLI 171553Z 00000KT 10SM CLR 15/12 A3014 RMK AO2 SLP211 T01500117=
201209171453 METAR KBLI 171453Z 00000KT 10SM CLR 10/09 A3013 RMK AO2 SLP212 T01000094 53004=
201209171353 METAR KBLI 171353Z 00000KT 10SM CLR 08/07 A3013 RMK AO2 SLP209 FG VC T00780072=
201209171350 SPECI KBLI 171350Z 00000KT 1 3/4SM BR CLR 07/07 A3013 RMK AO2=
201209171312 SPECI KBLI 171312Z AUTO 00000KT 3SM BR CLR 07/07 A3012 RMK AO2=
201209171301 SPECI KBLI 171301Z AUTO 00000KT 1 1/2SM BR CLR 08/07 A3012=
201209171253 METAR KBLI 171253Z AUTO 00000KT 2SM BR CLR 08/07 A3012 RMK AO2 SLP206 T00780067=
201209171228 SPECI KBLI 171228Z AUTO 00000KT 9SM FEW002 08/08 A3012 RMK AO2=
201209171221 SPECI KBLI 171221Z AUTO 00000KT 2SM BR SCT002 08/07 A3012 RMK AO2=
201209171218 SPECI KBLI 171218Z AUTO 00000KT 1SM R16/P6000FT BR VV002 08/07 A3012 RMK AO2=
201209171203 SPECI KBLI 171203Z AUTO 00000KT 1/2SM R16/1200V3500FT FG VV002 08/07 A3012 RMK AO2=
201209171201 SPECI KBLI 171201Z AUTO 00000KT 3/4SM R16/1200V2200FT BR VV002 08/07 A3012 RMK AO2=
201209171200 METAR KBLI NIL=
201209171153 SPECI KBLI 171153Z AUTO 00000KT 1 1/4SM R16/1400V2200FT BR SCT002 08/08 A3012 RMK AO2=
201209171149 METAR KBLI 171149Z AUTO 00000KT 1SM R16/2000VP6000FT BR VV002 08/08 A3012=
201209171148 SPECI KBLI 171148Z AUTO 00000KT 1SM R16/2000VP6000FT BR VV002 08/08 A3012 RMK AO2=
201209171142 SPECI KBLI 171142Z AUTO 00000KT 1/2SM R16/P6000FT FG VV002 07/07 A3013 RMK AO2=
201209171132 SPECI KBLI 171132Z AUTO 00000KT 3/4SM R16/P6000FT BR VV002 08/08 A3013 RMK AO2 VIS 1/2V4=
201209171121 SPECI KBLI 171121Z AUTO 00000KT 1 1/4SM R16/4000VP6000FT BR FEW002 09/08 A3013 RMK AO2 VIS 1/2V5=
201209171114 SPECI KBLI 171114Z AUTO 00000KT 2SM R16/2000VP6000FT BR FEW002 08/08 A3013 RMK AO2=
201209171053 METAR KBLI 171053Z AUTO 00000KT 3SM R16/3500VP6000FT BR CLR 09/08 A3013 RMK AO2 SLP207 T00890078=
201209171043 SPECI KBLI 171043Z AUTO 00000KT 1 3/4SM R16/3500VP6000FT BR CLR 09/08 A3013 RMK AO2=
201209171000 SPECI KBLI 171000Z AUTO 00000KT 8SM FEW002 09/09 A3013 RMK AO2=
201209170953 METAR KBLI 170953Z AUTO 00000KT 2 1/2SM BR FEW002 10/09 A3013 RMK AO2 SLP208 T01000089=
201209170946 SPECI KBLI 170946Z AUTO 00000KT 1 1/4SM BR SCT002 09/09 A3013 RMK AO2=
201209170942 SPECI KBLI 170942Z AUTO 00000KT 3/4SM R16/P6000FT BR VV002 10/09 A3013 RMK AO2=
201209170934 SPECI KBLI 170934Z AUTO 00000KT 1/2SM R16/3000VP6000FT FG CLR 10/09 A3013 RMK AO2=
201209170930 SPECI KBLI 170930Z AUTO 00000KT 1 3/4SM R16/3000VP6000FT BR CLR 10/09 A3013 RMK AO2 VIS 3/4V5=
201209170853 METAR KBLI 170853Z AUTO 00000KT 10SM CLR 11/09 A3013 RMK AO2 SLP209 T01060094 53003=
201209170753 METAR KBLI 170753Z AUTO 00000KT 5SM BR CLR 11/09 A3012 RMK AO2 SLP206 T01110094 402220067=
201209170653 METAR KBLI 170653Z AUTO 00000KT 10SM CLR 12/10 A3012 RMK AO2 SLP206 T01170100=
201209170553 METAR KBLI 170553Z AUTO 00000KT 10SM CLR 12/10 A3012 RMK AO2 SLP207 T01170100 10222 20111 55000=
201209170453 METAR KBLI 170453Z 00000KT 10SM CLR 13/11 A3012 RMK AO2 SLP206 T01280111=
201209170353 METAR KBLI 170353Z 00000KT 10SM CLR 13/11 A3012 RMK AO2 SLP208 T01330111=
201209170253 METAR KBLI 170253Z 00000KT 10SM CLR 14/12 A3012 RMK AO2 SLP208 T01440122 55003=
201209170153 METAR KBLI 170153Z 00000KT 10SM CLR 18/13 A3012 RMK AO2 SLP207 T01780128=
201209170053 METAR KBLI 170053Z AUTO 00000KT 10SM CLR 21/13 A3013 RMK AO2 SLP208 T02060133 TSNO=
201209162353 METAR KBLI 162353Z AUTO 26003KT 10SM CLR 22/13 A3014 RMK AO2 SLP211 T02170128 10222 20178 56017 TSNO=
201209162253 METAR KBLI 162253Z AUTO VRB04KT 10SM CLR 22/13 A3015 RMK AO2 SLP215 T02220133 TSNO=
201209162153 METAR KBLI 162153Z 28005KT 10SM CLR 21/13 A3017 RMK AO2 SLP221 T02060133=
201209162053 METAR KBLI 162053Z 28005KT 10SM CLR 20/13 A3018 RMK AO2 SLP227 T02000128 58010=
201209161953 METAR KBLI 161953Z 25005KT 10SM CLR 19/12 A3020 RMK AO2 SLP233 T01890122=
201209161853 METAR KBLI 161853Z 21004KT 10SM CLR 19/13 A3021 RMK AO2 SLP234 T01890133=
201209161753 METAR KBLI 161753Z 00000KT 10SM CLR 18/12 A3021 RMK AO2 SLP237 T01830117 10189 20067 58002=
201209161653 METAR KBLI 161653Z 00000KT 10SM CLR 16/11 A3022 RMK AO2 SLP242 T01610111=
201209161553 METAR KBLI 161553Z 01003KT 9SM CLR 13/11 A3023 RMK AO2 SLP244 T01330111=
201209161453 METAR KBLI 161453Z 00000KT 5SM BR CLR 09/08 A3022 RMK AO2 SLP240 T00890083 53009=
201209161353 METAR KBLI 161353Z 00000KT 10SM FEW003 07/06 A3021 RMK AO2 SLP236 T00720061=
201209161332 SPECI KBLI 161332Z 00000KT 10SM CLR 07/07 A3020 RMK AO2=
201209161325 SPECI KBLI 161325Z 00000KT 2SM R16/2600VP6000FT BR FEW003 07/07 A3020 RMK AO2=
201209161316 SPECI KBLI 161316Z AUTO 00000KT 1 3/4SM R16/4000VP6000FT BR CLR 07/07 A3020 RMK AO2=
201209161310 SPECI KBLI 161310Z AUTO 00000KT 3SM BR CLR 08/07 A3020 RMK AO2=
201209161300 SPECI KBLI 161300Z AUTO 00000KT 1 3/4SM BR CLR 08/07 A3019 RMK AO2 VIS 1V5=
201209161253 METAR KBLI 161253Z AUTO 00000KT 7SM CLR 08/07 A3019 RMK AO2 SLP231 T00780072=
201209161222 SPECI KBLI 161222Z AUTO 00000KT 6SM BR CLR 08/07 A3019 RMK AO2=
201209161206 SPECI KBLI 161206Z AUTO 00000KT 1 1/2SM R16/5500VP6000FT BR CLR 08/08 A3019 RMK AO2=
201209161153 METAR KBLI 161153Z AUTO 00000KT 10SM CLR 08/08 A3019 RMK AO2 SLP231 T00830078 10128 20083 53001=
201209161140 SPECI KBLI 161140Z AUTO 00000KT 8SM CLR 09/08 A3020 RMK AO2=
201209161130 SPECI KBLI 161130Z AUTO 00000KT 2SM BR CLR 09/08 A3020 RMK AO2=
201209161053 METAR KBLI 161053Z AUTO 00000KT 10SM CLR 10/09 A3018 RMK AO2 SLP226 T01000089=
201209160953 METAR KBLI 160953Z AUTO 00000KT 10SM CLR 09/08 A3018 RMK AO2 SLP226 T00890083=
201209160853 METAR KBLI 160853Z AUTO 00000KT 10SM CLR 10/08 A3019 RMK AO2 SLP230 T01000083 53007=
201209160753 METAR KBLI 160753Z AUTO 00000KT 10SM CLR 10/09 A3019 RMK AO2 SLP228 T01000089 402110094=
201209160653 METAR KBLI 160653Z AUTO 00000KT 10SM CLR 12/09 A3017 RMK AO2 SLP224 T01170094=
201209160553 METAR KBLI 160553Z AUTO 00000KT 10SM CLR 12/10 A3017 RMK AO2 SLP223 T01220100 10200 20106 51007=
201209160453 METAR KBLI 160453Z 00000KT 10SM CLR 12/10 A3017 RMK AO2 SLP222 T01170100=
201209160353 METAR KBLI 160353Z 00000KT 10SM CLR 13/11 A3016 RMK AO2 SLP220 T01280111=
201209160253 METAR KBLI 160253Z 00000KT 10SM CLR 14/11 A3015 RMK AO2 SLP217 T01440111 53002=
201209160153 METAR KBLI 160153Z 00000KT 10SM CLR 17/11 A3015 RMK AO2 SLP214 T01670111=
201209160053 METAR KBLI 160053Z 00000KT 10SM CLR 19/10 A3014 RMK AO2 SLP211 T01940100=
201209152353 METAR KBLI 152353Z 26005KT 10SM CLR 21/09 A3015 RMK AO2 SLP214 T02060094 10211 20172 58006=
201209152253 METAR KBLI 152253Z 29006KT 10SM CLR 21/10 A3015 RMK AO2 SLP217 T02110100=
201209152153 METAR KBLI 152153Z 26005KT 10SM CLR 20/13 A3016 RMK AO2 SLP218 T02000128=
201209152053 METAR KBLI 152053Z 00000KT 10SM CLR 21/13 A3016 RMK AO2 SLP220 T02060128 50000=
201209151953 METAR KBLI 151953Z 29004KT 10SM CLR 19/12 A3017 RMK AO2 SLP222 T01940122=
201209151853 METAR KBLI 151853Z VRB03KT 10SM CLR 18/12 A3017 RMK AO2 SLP222 T01830117=
201209151753 METAR KBLI 151753Z 16004KT 10SM CLR 17/12 A3016 RMK AO2 SLP219 T01720122 10172 20100 51010=
201209151653 METAR KBLI 151653Z 16005KT 10SM CLR 16/12 A3016 RMK AO2 SLP217 T01560117=
201209151553 METAR KBLI 151553Z 17005KT 10SM FEW011 14/12 A3014 RMK AO2 SLP213 T01440117=
201209151453 METAR KBLI 151453Z 18003KT 10SM CLR 12/11 A3013 RMK AO2 SLP210 T01170106 53011=
201209151353 METAR KBLI 151353Z 18003KT 10SM CLR 12/11 A3012 RMK AO2 SLP204 T01170106=
201209151253 METAR KBLI 151253Z AUTO 00000KT 9SM CLR 11/09 A3011 RMK AO2 SLP202 T01060094=
201209151153 METAR KBLI 151153Z AUTO 16004KT 10SM CLR 11/10 A3010 RMK AO2 SLP198 T01110100 10139 20094 51009=
201209151053 METAR KBLI 151053Z AUTO 00000KT 10SM CLR 09/09 A3009 RMK AO2 SLP195 T00940089=
201209150953 METAR KBLI 150953Z AUTO 00000KT 10SM CLR 11/10 A3008 RMK AO2 SLP192 T01060100=
201209150853 METAR KBLI 150853Z AUTO 00000KT 10SM CLR 11/10 A3007 RMK AO2 SLP188 T01110100 53008=
201209150753 METAR KBLI 150753Z AUTO 17003KT 10SM CLR 12/11 A3006 RMK AO2 SLP185 T01220111 402220067=
201209150653 METAR KBLI 150653Z AUTO 17004KT 10SM CLR 13/11 A3005 RMK AO2 SLP182 T01330106=
201209150553 METAR KBLI 150553Z AUTO 00000KT 10SM CLR 12/11 A3004 RMK AO2 SLP180 T01170106 10211 20117 51006=
201209150453 METAR KBLI 150453Z 00000KT 10SM CLR 13/11 A3004 RMK AO2 SLP180 T01280111=
201209150353 METAR KBLI 150353Z 00000KT 10SM CLR 13/11 A3004 RMK AO2 SLP179 T01330111=
201209150253 METAR KBLI 150253Z 00000KT 10SM CLR 14/12 A3003 RMK AO2 SLP175 T01390117 55002=
201209150153 METAR KBLI 150153Z 00000KT 10SM CLR 17/13 A3002 RMK AO2 SLP172 T01670128=
201209150053 METAR KBLI 150053Z 00000KT 10SM CLR 20/11 A3002 RMK AO2 SLP174 T02000111=
201209142353 METAR KBLI 142353Z 25004KT 10SM CLR 21/12 A3004 RMK AO2 SLP178 T02060117 10222 20178 56012=
201209142253 METAR KBLI 142253Z 28006KT 10SM CLR 22/11 A3005 RMK AO2 SLP180 T02170111=
201209142153 METAR KBLI 142153Z VRB03KT 10SM CLR 22/11 A3006 RMK AO2 SLP185 T02170106=
201209142053 METAR KBLI 142053Z 27007KT 10SM CLR 21/11 A3007 RMK AO2 SLP189 T02110111 58009=
201209141953 METAR KBLI 141953Z 26005KT 10SM CLR 21/12 A3008 RMK AO2 SLP192 T02060117=
201209141853 METAR KBLI 141853Z 00000KT 10SM CLR 21/09 A3009 RMK AO2 SLP195 T02060094=
201209141753 METAR KBLI 141753Z VRB04KT 10SM CLR 18/10 A3010 RMK AO2 SLP198 T01780100 10178 20067 50002=
201209141653 METAR KBLI 141653Z 00000KT 10SM CLR 15/10 A3010 RMK AO2 SLP200 T01500100=
201209141553 METAR KBLI 141553Z 36003KT 10SM CLR 12/10 A3010 RMK AO2 SLP199 T01170100=
201209141453 METAR KBLI 141453Z 00000KT 10SM CLR 09/08 A3009 RMK AO2 SLP196 T00890083 53008=
201209141353 METAR KBLI 141353Z 00000KT 3SM R16/3500VP6000FT BR CLR 07/06 A3008 RMK AO2 SLP192 T00720061=
201209141253 METAR KBLI 141253Z AUTO 00000KT 10SM CLR 07/06 A3007 RMK AO2 SLP190 T00720061=
201209141233 SPECI KBLI 141233Z AUTO 00000KT 3SM BR CLR 08/07 A3007 RMK AO2=
201209141225 SPECI KBLI 141225Z AUTO 00000KT 1 3/4SM BR CLR 07/06 A3007 RMK AO2 VIS 1/2V5=
201209141153 METAR KBLI 141153Z AUTO 00000KT 10SM CLR 07/07 A3007 RMK AO2 SLP187 T00720067 10117 20072 55002=
201209141149 SPECI KBLI 141149Z AUTO 00000KT 9SM CLR 07/07 A3006 RMK AO2=
201209141140 SPECI KBLI 141140Z AUTO 00000KT 1SM R16/4500VP6000FT BR CLR 08/07 A3006 RMK AO2=
201209141134 SPECI KBLI 141134Z AUTO 00000KT 1/2SM R16/3000VP6000FT FG CLR 07/07 A3006 RMK AO2=
201209141127 SPECI KBLI 141127Z AUTO 00000KT 1 1/2SM R16/5000VP6000FT BR CLR 08/07 A3006 RMK AO2 VIS 3/4V5=
201209141109 SPECI KBLI 141109Z AUTO 00000KT 10SM R16/2400VP6000FT CLR 09/08 A3006 RMK AO2=
201209141100 SPECI KBLI 141100Z AUTO 00000KT 2SM R16/2600VP6000FT BR CLR 09/08 A3007 RMK AO2=
201209141053 METAR KBLI 141053Z AUTO 00000KT 4SM R16/4500VP6000FT BR CLR 08/07 A3007 RMK AO2 SLP188 T00830072=
201209141041 SPECI KBLI 141041Z AUTO 00000KT 3SM BR CLR 08/07 A3007 RMK AO2=
201209141033 SPECI KBLI 141033Z AUTO 00000KT 2SM BR CLR 08/08 A3007 RMK AO2=
201209141028 SPECI KBLI 141028Z AUTO 00000KT 3/4SM R16/P6000FT BR CLR 08/08 A3007 RMK AO2=
201209141020 SPECI KBLI 141020Z AUTO 00000KT 1 1/2SM BR CLR 08/08 A3007 RMK AO2 VIS 1/2V5=
201209140953 METAR KBLI 140953Z AUTO 00000KT 10SM CLR 09/08 A3007 RMK AO2 SLP189 T00890078=
201209140938 SPECI KBLI 140938Z AUTO 00000KT 3SM BR CLR 09/08 A3007 RMK AO2=
201209140929 SPECI KBLI 140929Z AUTO 00000KT 1 3/4SM BR FEW002 09/08 A3008 RMK AO2 VIS 3/4V5=
201209140915 SPECI KBLI 140915Z AUTO 00000KT 3SM BR FEW002 09/08 A3008 RMK AO2=
201209140913 SPECI KBLI 140913Z AUTO 00000KT 1SM R16/P6000FT BR VV002 09/08 A3008 RMK AO2 VIS 1/4V5=
201209140903 SPECI KBLI 140903Z AUTO 00000KT 1/2SM R16/6000VP6000FT FG VV002 09/08 A3008 RMK AO2=
201209140858 SPECI KBLI 140858Z AUTO 00000KT 1 3/4SM BR CLR 09/08 A3008 RMK AO2 VIS 3/4V5=
201209140853 METAR KBLI 140853Z AUTO 00000KT 5SM BR CLR 09/08 A3008 RMK AO2 SLP191 T00940083 58001=
201209140753 METAR KBLI 140753Z AUTO 00000KT 3SM BR CLR 11/09 A3008 RMK AO2 SLP191 T01060089 402390050=
201209140743 SPECI KBLI 140743Z AUTO 00000KT 1 3/4SM BR FEW001 09/08 A3008 RMK AO2=
201209140653 METAR KBLI 140653Z AUTO 00000KT 10SM CLR 12/10 A3008 RMK AO2 SLP193 T01170100=
201209140553 METAR KBLI 140553Z AUTO 00000KT 10SM CLR 11/09 A3008 RMK AO2 SLP193 T01110089 10211 20106 53008=
201209140453 METAR KBLI 140453Z 00000KT 10SM CLR 12/09 A3007 RMK AO2 SLP190 T01220089=
201209140353 METAR KBLI 140353Z 00000KT 10SM CLR 13/09 A3006 RMK AO2 SLP188 T01330094=
201209140253 METAR KBLI 140253Z 00000KT 10SM CLR 15/11 A3006 RMK AO2 SLP186 T01500106 56007=
201209140153 METAR KBLI 140153Z 00000KT 10SM CLR 17/12 A3006 RMK AO2 SLP187 T01720117=
201209140053 METAR KBLI 140053Z 27003KT 10SM CLR 21/11 A3007 RMK AO2 SLP188 T02060106=
201209132353 METAR KBLI 132353Z 25005KT 10SM CLR 21/11 A3008 RMK AO2 SLP192 T02110111 10239 20189 56021=
201209132253 METAR KBLI 132253Z 28005KT 10SM CLR 22/11 A3009 RMK AO2 SLP195 T02220111=
201209132153 METAR KBLI 132153Z 27007KT 10SM CLR 21/12 A3012 RMK AO2 SLP204 T02110122=
201209132053 METAR KBLI 132053Z 00000KT 10SM CLR 22/12 A3014 RMK AO2 SLP212 T02170117 58024=
201209131953 METAR KBLI 131953Z 01003KT 10SM CLR 24/09 A3017 RMK AO2 SLP222 T02390089=
201209131853 METAR KBLI 131853Z 02005KT 10SM CLR 22/08 A3019 RMK AO2 SLP229 T02170083=
201209131753 METAR KBLI 131753Z 02007KT 10SM CLR 18/08 A3021 RMK AO2 SLP236 T01830083 10183 20050 58006=
201209131653 METAR KBLI 131653Z 35005KT 10SM R16/1800VP6000FT CLR 16/08 A3022 RMK AO2 SLP240 T01560083=
201209131553 METAR KBLI 131553Z 02004KT 10SM CLR 12/08 A3022 RMK AO2 SLP242 T01170083=
201209131453 METAR KBLI 131453Z 34003KT 10SM R16/4000VP6000FT CLR 09/08 A3023 RMK AO2 SLP243 T00890078 51002=
201209131353 METAR KBLI 131353Z 00000KT 10SM CLR 06/05 A3023 RMK AO2 SLP243 T00610050=
201209131350 SPECI KBLI 131350Z AUTO 00000KT 10SM CLR 07/05 A3023 RMK AO2=
201209131343 SPECI KBLI 131343Z AUTO 00000KT 2 1/2SM BR CLR 06/05 A3023 RMK AO2=
201209131253 METAR KBLI 131253Z AUTO 00000KT 10SM CLR 06/04 A3022 RMK AO2 SLP241 T00560044=
201209131153 METAR KBLI 131153Z AUTO 00000KT 5SM BR CLR 06/06 A3022 RMK AO2 SLP242 T00610056 10106 20061 56008=
201209131053 METAR KBLI 131053Z AUTO 00000KT 10SM CLR 07/06 A3023 RMK AO2 SLP243 T00720061=
201209130953 METAR KBLI 130953Z AUTO 00000KT 10SM CLR 08/07 A3023 RMK AO2 SLP245 T00780067=
201209130853 METAR KBLI 130853Z AUTO 00000KT 10SM CLR 08/07 A3025 RMK AO2 SLP251 T00780067 56005=
201209130753 METAR KBLI 130753Z AUTO 00000KT 10SM CLR 09/07 A3026 RMK AO2 SLP251 T00890072 402110033=
201209130653 METAR KBLI 130653Z AUTO 00000KT 10SM CLR 09/08 A3026 RMK AO2 SLP253 T00940078=
201209130553 METAR KBLI 130553Z AUTO 00000KT 10SM CLR 10/09 A3027 RMK AO2 SLP256 T01000089 10194 20100 50002=
201209130453 METAR KBLI 130453Z 00000KT 10SM CLR 11/09 A3027 RMK AO2 SLP258 T01060089=
201209130353 METAR KBLI 130353Z 00000KT 10SM CLR 12/09 A3027 RMK AO2 SLP259 T01170089=
201209130253 METAR KBLI 130253Z 00000KT 10SM CLR 13/09 A3026 RMK AO2 SLP254 T01280094 56008=
201209130153 METAR KBLI 130153Z 28003KT 10SM CLR 17/09 A3026 RMK AO2 SLP254 T01670089=
201209130053 METAR KBLI 130053Z 28007KT 10SM CLR 19/08 A3027 RMK AO2 SLP257 T01890078=
201209122353 METAR KBLI 122353Z 27007KT 10SM CLR 19/09 A3028 RMK AO2 SLP262 T01940094 10211 20161 56021=
201209122253 METAR KBLI 122253Z 26007KT 10SM CLR 19/09 A3030 RMK AO2 SLP268 T01940094=
201209122153 METAR KBLI 122153Z 30008KT 10SM CLR 19/09 A3033 RMK AO2 SLP276 T01940094=
201209122053 METAR KBLI 122053Z 00000KT 10SM CLR 20/08 A3035 RMK AO2 SLP283 T02000083 58011=
201209121953 METAR KBLI 121953Z 35003KT 10SM CLR 19/07 A3036 RMK AO2 SLP288 T01940067=
201209121853 METAR KBLI 121853Z VRB04KT 10SM CLR 18/06 A3037 RMK AO2 SLP290 T01780061=
201209121753 METAR KBLI 121753Z 01008KT 10SM CLR 16/06 A3038 RMK AO2 SLP294 T01610061 10161 20039 50002=
201209121653 METAR KBLI 121653Z 02008KT 10SM CLR 14/06 A3038 RMK AO2 SLP295 T01390061=
201209121553 METAR KBLI 121553Z 03007KT 10SM CLR 11/06 A3038 RMK AO2 SLP296 T01110061=
201209121453 METAR KBLI 121453Z 35003KT 10SM CLR 08/06 A3037 RMK AO2 SLP292 T00830061 51012=
201209121353 METAR KBLI 121353Z AUTO 00000KT 9SM CLR 04/03 A3036 RMK AO2 SLP288 T00440033=
201209121253 METAR KBLI 121253Z AUTO 00000KT 10SM CLR 06/04 A3035 RMK AO2 SLP284 T00560044=
201209121153 METAR KBLI 121153Z AUTO 35005KT 10SM CLR 04/03 A3034 RMK AO2 SLP280 T00390033 10083 20033 53004=
201209121053 METAR KBLI 121053Z AUTO 00000KT 10SM CLR 04/03 A3033 RMK AO2 SLP277 T00390028=
201209120953 METAR KBLI 120953Z AUTO 00000KT 10SM CLR 04/04 A3032 RMK AO2 SLP276 T00440039=
201209120853 METAR KBLI 120853Z AUTO 00000KT 10SM CLR 05/04 A3032 RMK AO2 SLP276 T00500039 52002=
201209120753 METAR KBLI 120753Z AUTO 00000KT 10SM CLR 07/05 A3032 RMK AO2 SLP275 T00670050 401780067=
201209120653 METAR KBLI 120653Z AUTO 00000KT 10SM CLR 07/05 A3032 RMK AO2 SLP275 T00670050=
201209120553 METAR KBLI 120553Z AUTO 00000KT 10SM CLR 08/06 A3032 RMK AO2 SLP274 T00830056 10172 20072 51005=
201209120453 METAR KBLI 120453Z 00000KT 10SM CLR 09/06 A3032 RMK AO2 SLP274 T00890061=
201209120353 METAR KBLI 120353Z 00000KT 9SM CLR 09/06 A3031 RMK AO2 SLP272 T00890061=
201209120253 METAR KBLI 120253Z 00000KT 10SM CLR 12/07 A3030 RMK AO2 SLP268 T01170067 53002=
201209120153 METAR KBLI 120153Z 29003KT 10SM CLR 15/06 A3030 RMK AO2 SLP267 T01500061=
201209120053 METAR KBLI 120053Z 27005KT 10SM CLR 17/04 A3029 RMK AO2 SLP264 T01670044=
201209112353 METAR KBLI 112353Z 28007KT 10SM CLR 17/05 A3030 RMK AO2 SLP266 T01670050 10178 20139 56012=
201209112253 METAR KBLI 112253Z VRB05KT 10SM CLR 17/05 A3031 RMK AO2 SLP269 T01720050=
201209112153 METAR KBLI 112153Z 28009KT 10SM CLR 17/06 A3032 RMK AO2 SLP273 T01670061=
201209112053 METAR KBLI 112053Z 30006KT 10SM CLR 16/08 A3033 RMK AO2 SLP279 T01560078 58001=
201209111953 METAR KBLI 111953Z VRB04KT 10SM FEW029 16/07 A3034 RMK AO2 SLP283 T01560072=
201209111853 METAR KBLI 111853Z VRB06KT 10SM SCT029 15/07 A3034 RMK AO2 SLP280 T01500067=
201209111849 SPECI KBLI 111849Z VRB03KT 10SM SCT029 14/07 A3034 RMK AO2=
201209111753 METAR KBLI 111753Z 17008KT 10SM BKN025 BKN032 14/08 A3033 RMK AO2 SLP279 60000 T01390078 10139 20111 53009=
201209111653 METAR KBLI 111653Z 16008KT 10SM FEW022 SCT034 14/08 A3032 RMK AO2 SLP275 T01390078=
201209111553 METAR KBLI 111553Z 17005KT 10SM FEW024 SCT034 13/08 A3031 RMK AO2 SLP271 T01330078=
201209111453 METAR KBLI 111453Z 19003KT 10SM SCT023 OVC036 12/08 A3031 RMK AO2 SLP270 60000 T01220083 51012=
201209111451 SPECI KBLI 111451Z 18003KT 10SM SCT023 OVC036 12/08 A3031 RMK AO2=
201209111353 METAR KBLI 111353Z 19003KT 10SM OVC021 12/08 A3029 RMK AO2 RAB26E40 SLP264 P0000 T01170083=
201209111253 METAR KBLI 111253Z AUTO 18003KT 10SM BKN023 BKN034 12/09 A3027 RMK AO2 SLP257 T01170089=
201209111153 METAR KBLI 111153Z AUTO 17003KT 10SM BKN024 OVC031 12/08 A3026 RMK AO2 SLP254 T01170083 10117 20083 53010=
201209111053 METAR KBLI 111053Z AUTO 17003KT 10SM BKN025 OVC032 12/09 A3025 RMK AO2 SLP248 T01170089=
201209110953 METAR KBLI 110953Z AUTO 00000KT 10SM BKN027 11/09 A3024 RMK AO2 SLP247 T01060089=
201209110934 SPECI KBLI 110934Z AUTO 00000KT 10SM BKN029 09/08 A3024 RMK AO2=
201209110853 METAR KBLI 110853Z AUTO 00000KT 10SM SCT025 09/08 A3023 RMK AO2 SLP245 T00940078 53010=
201209110807 SPECI KBLI 110807Z AUTO 00000KT 10SM BKN025 09/08 A3022 RMK AO2=
201209110753 METAR KBLI 110753Z AUTO 00000KT 10SM SCT023 BKN060 10/08 A3022 RMK AO2 SLP239 T01000083 401780089=
201209110743 SPECI KBLI 110743Z AUTO 00000KT 10SM SCT023 10/08 A3021 RMK AO2=
201209110735 SPECI KBLI 110735Z AUTO 17003KT 10SM BKN023 11/08 A3021 RMK AO2=
201209110653 METAR KBLI 110653Z AUTO 17003KT 10SM CLR 11/07 A3020 RMK AO2 SLP235 T01110072=
201209110553 METAR KBLI 110553Z AUTO 19003KT 10SM BKN050 BKN070 12/08 A3020 RMK AO2 SLP234 T01170083 10178 20100 51019=
201209110453 METAR KBLI 110453Z 00000KT 10SM FEW055 SCT110 11/07 A3018 RMK AO2 SLP228 T01060072=
201209110353 METAR KBLI 110353Z 00000KT 10SM SCT065 12/08 A3017 RMK AO2 SLP223 T01170078=
201209110253 METAR KBLI 110253Z 00000KT 10SM CLR 12/08 A3015 RMK AO2 SLP216 T01220078 53008=
201209110153 METAR KBLI 110153Z 00000KT 10SM CLR 16/07 A3014 RMK AO2 SLP212 T01560067=
201209110053 METAR KBLI 110053Z VRB03KT 10SM CLR 17/05 A3013 RMK AO2 SLP208 T01720050=
201209102353 METAR KBLI 102353Z 17005KT 10SM FEW065 18/06 A3012 RMK AO2 SLP206 T01780061 10178 20144 58001=
201209102253 METAR KBLI 102253Z 18009KT 10SM FEW060 18/07 A3012 RMK AO2 SLP206 T01780067=
201209102153 METAR KBLI 102153Z 16009KT 10SM CLR 17/08 A3013 RMK AO2 SLP208 T01720078=
201209102053 METAR KBLI 102053Z 15010KT 10SM FEW038 SCT060 SCT070 17/08 A3013 RMK AO2 SLP207 T01670078 50003=
201209101953 METAR KBLI 101953Z 17008KT 10SM BKN060 17/09 A3013 RMK AO2 SLP207 T01720089=
201209101853 METAR KBLI 101853Z 17009G14KT 10SM FEW065 16/09 A3012 RMK AO2 SLP206 T01560089=
201209101753 METAR KBLI 101753Z 16009G14KT 10SM FEW070 14/09 A3012 RMK AO2 SLP204 T01440094 10150 20089 51016=
201209101653 METAR KBLI 101653Z 17008KT 10SM FEW080 14/09 A3010 RMK AO2 SLP200 T01390094=
201209101553 METAR KBLI 101553Z 16006KT 10SM OVC080 13/09 A3009 RMK AO2 SLP195 T01280094=
201209101453 METAR KBLI 101453Z 16003KT 10SM BKN055 BKN075 11/08 A3007 RMK AO2 SLP189 T01060083 53021=
201209101353 METAR KBLI 101353Z 16005KT 10SM CLR 11/08 A3004 RMK AO2 SLP179 T01110083=
201209101253 METAR KBLI 101253Z AUTO 17003KT 10SM BKN065 09/07 A3002 RMK AO2 SLP173 T00940072=
201209101153 METAR KBLI 101153Z AUTO 20003KT 10SM SCT033 12/07 A3001 RMK AO2 SLP167 60000 T01170067 10156 20106 51029=
201209101053 METAR KBLI 101053Z AUTO VRB03KT 10SM CLR 11/08 A2999 RMK AO2 SLP160 T01110083=
201209100953 METAR KBLI 100953Z AUTO 25005KT 10SM FEW023 SCT038 BKN080 13/11 A2996 RMK AO2 RAE0856 SLP150 P0000 T01280106=
201209100853 METAR KBLI 100853Z AUTO 17007KT 10SM -RA OVC070 13/12 A2992 RMK AO2 SLP138 P0000 60000 T01330122 53010=
201209100823 SPECI KBLI 100823Z AUTO 18007KT 9SM -RA SCT006 SCT039 OVC070 14/13 A2991 RMK AO2 P0000=
201209100806 SPECI KBLI 100806Z AUTO VRB05KT 5SM -RA BR SCT005 BKN008 OVC035 14/13 A2991 RMK AO2 P0000=
201209100753 METAR KBLI 100753Z AUTO 17007KT 4SM RA BR SCT008 BKN011 OVC035 14/13 A2991 RMK AO2 SLP134 P0000 T01390133 401890139=
201209100744 SPECI KBLI 100744Z AUTO 18004KT 3SM -RA BR SCT008 BKN011 OVC032 14/13 A2990 RMK AO2 P0000=
201209100720 SPECI KBLI 100720Z AUTO 18006G19KT 8SM -RA OVC013 15/13 A2990 RMK AO2 P0000=
201209100653 METAR KBLI 100653Z AUTO 17015G23KT 10SM -RA OVC017 16/13 A2989 RMK AO2 RAE0554B14 SLP128 P0000 T01560128=
201209100553 METAR KBLI 100553Z AUTO 16008KT 10SM -RA OVC019 16/13 A2989 RMK AO2 SLP128 P0000 60000 T01560128 10172 20150 58007=
201209100453 METAR KBLI 100453Z 17009G16KT 9SM -RA OVC021 16/13 A2991 RMK AO2 RAB0357 SLP134 P0000 T01560133=
201209100353 METAR KBLI 100353Z 17009G15KT 10SM OVC028 17/12 A2991 RMK AO2 SLP134 T01670122=
201209100300 SPECI KBLI 100300Z 17009KT 10SM BKN030 OVC070 17/12 A2991 RMK AO2=
201209100253 METAR KBLI 100253Z 17010KT 10SM BKN028 BKN034 OVC070 17/12 A2991 RMK AO2 SLP135 T01670122 58012=
201209100216 SPECI KBLI 100216Z VRB06KT 10SM OVC028 17/12 A2993 RMK AO2=
201209100153 METAR KBLI 100153Z 17006KT 10SM BKN033 OVC060 17/12 A2994 RMK AO2 SLP143 T01670122=
201209100053 METAR KBLI 100053Z 17005KT 10SM OVC060 17/12 A2994 RMK AO2 SLP146 T01670122=
201209092353 METAR KBLI 092353Z 19010G17KT 10SM OVC065 17/12 A2995 RMK AO2 SLP147 T01670122 10189 20156 58006=
201209092253 METAR KBLI 092253Z 17009KT 10SM OVC060 17/12 A2996 RMK AO2 SLP149 T01720117=
201209092153 METAR KBLI 092153Z 18009G14KT 10SM OVC055 17/12 A2996 RMK AO2 SLP152 T01720117=
201209092053 METAR KBLI 092053Z 18011G19KT 10SM OVC075 18/12 A2997 RMK AO2 SLP154 T01780117 57006=
201209091953 METAR KBLI 091953Z 17012G22KT 10SM SCT027 SCT055 BKN070 18/11 A2998 RMK AO2 SLP156 T01830111=
201209091853 METAR KBLI 091853Z 18008G17KT 150V220 10SM BKN055 OVC065 17/12 A2998 RMK AO2 SLP157 T01670117=
201209091753 METAR KBLI 091753Z 17005KT 10SM OVC041 16/11 A2999 RMK AO2 SLP160 T01560111 10161 20150 53004=
201209091653 METAR KBLI 091653Z 16007KT 10SM OVC039 16/11 A2998 RMK AO2 SLP159 T01560111=
201209091600 SPECI KBLI 091600Z 17004KT 10SM SCT028 OVC041 16/11 A2998 RMK AO2=
201209091553 METAR KBLI 091553Z 17007KT 10SM BKN028 OVC035 16/11 A2998 RMK AO2 SLP157 T01560111=
201209091548 SPECI KBLI 091548Z 17007KT 10SM BKN028 OVC035 16/11 A2998 RMK AO2=
201209091453 METAR KBLI 091453Z 16005KT 10SM OVC035 16/12 A2996 RMK AO2 SLP152 T01560117 53006=
201209091353 METAR KBLI 091353Z 16005KT 10SM BKN035 OVC048 15/12 A2995 RMK AO2 SLP148 T01500117=
201209091253 METAR KBLI 091253Z AUTO 16006KT 10SM OVC031 16/11 A2995 RMK AO2 SLP146 T01560111=
201209091153 METAR KBLI 091153Z AUTO 16009G15KT 10SM OVC031 16/12 A2994 RMK AO2 SLP145 T01560117 10172 20156 51009=
201209091132 SPECI KBLI 091132Z AUTO 17008KT 10SM OVC031 16/13 A2994 RMK AO2=
201209091053 METAR KBLI 091053Z AUTO 17011KT 10SM OVC029 16/13 A2993 RMK AO2 SLP141 T01610128=
201209090953 METAR KBLI 090953Z AUTO 16010KT 10SM OVC027 16/12 A2993 RMK AO2 SLP141 T01610122=
201209090853 METAR KBLI 090853Z AUTO 16011G17KT 10SM OVC027 16/12 A2992 RMK AO2 SLP136 T01610122 51008=
201209090753 METAR KBLI 090753Z AUTO 16009G18KT 10SM OVC029 16/12 A2992 RMK AO2 SLP135 T01610122 402780094=
201209090738 SPECI KBLI 090738Z AUTO 16009KT 10SM BKN029 16/12 A2992 RMK AO2=
201209090653 METAR KBLI 090653Z AUTO 17013G20KT 10SM CLR 16/12 A2991 RMK AO2 SLP134 T01610122=
201209090553 METAR KBLI 090553Z AUTO 16012KT 10SM CLR 17/12 A2990 RMK AO2 SLP128 T01720122 10217 20172 53007=
201209090453 METAR KBLI 090453Z 16013KT 10SM CLR 18/12 A2988 RMK AO2 SLP123 T01780122=
201209090353 METAR KBLI 090353Z 16010KT 10SM CLR 18/12 A2988 RMK AO2 SLP124 T01830122=
201209090253 METAR KBLI 090253Z 17012G17KT 10SM CLR 19/12 A2987 RMK AO2 SLP122 T01940122 56004=
201209090153 METAR KBLI 090153Z 17011KT 10SM CLR 21/10 A2987 RMK AO2 SLP122 T02110100=
201209090053 METAR KBLI 090053Z 18011G16KT 10SM 21/12 A2987 RMK AO2 SLP120 T02060117 $=
201209082353 METAR KBLI 082353Z 18007KT 10SM 22/12 A2989 RMK AO2 SLP126 T02170122 10278 20217 56013 $=
201209082253 METAR KBLI 082253Z VRB04KT 10SM CLR 24/12 A2989 RMK AO2 SLP126 T02390117=
201209082153 METAR KBLI 082153Z 28004KT 10SM CLR 26/13 A2990 RMK AO2 SLP128 T02560133=
201209082053 METAR KBLI 082053Z 24008KT 10SM CLR 24/13 A2992 RMK AO2 SLP138 T02390128 56020=
201209081953 METAR KBLI 081953Z 02005KT 10SM CLR 27/12 A2993 RMK AO2 SLP141 T02720117=
201209081853 METAR KBLI 081853Z 34006KT 10SM CLR 26/11 A2996 RMK AO2 SLP150 T02560111=
201209081753 METAR KBLI 081753Z VRB03KT 10SM CLR 23/13 A2998 RMK AO2 SLP157 T02280128 10233 20094 58011=
201209081653 METAR KBLI 081653Z 00000KT 10SM CLR 19/14 A3000 RMK AO2 SLP165 T01940139=
201209081553 METAR KBLI 081553Z 00000KT 10SM CLR 17/14 A3000 RMK AO2 SLP166 T01720139=
201209081453 METAR KBLI 081453Z 00000KT 10SM CLR 13/12 A3001 RMK AO2 SLP169 T01280122 53001=
201209081353 METAR KBLI 081353Z 00000KT 10SM CLR 09/09 A3001 RMK AO2 SLP167 T00940089=
201209081253 METAR KBLI 081253Z AUTO 00000KT 4SM BR CLR 10/09 A3000 RMK AO2 SLP165 T01000094=
201209081153 METAR KBLI 081153Z AUTO 00000KT 10SM CLR 10/09 A3001 RMK AO2 SLP169 T01000094 10144 20094 58007=
201209081142 SPECI KBLI 081142Z AUTO 00000KT 10SM CLR 11/09 A3001 RMK AO2=
201209081135 SPECI KBLI 081135Z AUTO 00000KT 2SM BR FEW002 10/09 A3001 RMK AO2=
201209081126 SPECI KBLI 081126Z AUTO 00000KT 1SM R16/P6000FT BR VV002 11/10 A3002 RMK AO2=
201209081053 METAR KBLI 081053Z AUTO 00000KT 10SM CLR 12/11 A3002 RMK AO2 SLP171 T01170106=
201209080953 METAR KBLI 080953Z AUTO 00000KT 10SM CLR 12/11 A3002 RMK AO2 SLP173 T01170111=
201209080853 METAR KBLI 080853Z AUTO 00000KT 10SM CLR 12/11 A3003 RMK AO2 SLP175 T01220111 58002=
201209080753 METAR KBLI 080753Z AUTO 00000KT 10SM CLR 13/12 A3004 RMK AO2 SLP178 T01330117 402610083=
201209080653 METAR KBLI 080653Z AUTO 00000KT 10SM CLR 14/12 A3004 RMK AO2 SLP178 T01390117=
201209080553 METAR KBLI 080553Z AUTO 00000KT 10SM CLR 14/12 A3004 RMK AO2 SLP177 T01440122 10261 20128 50001=
201209080453 METAR KBLI 080453Z 00000KT 10SM CLR 14/13 A3004 RMK AO2 SLP178 T01440128=
201209080353 METAR KBLI 080353Z 00000KT 10SM CLR 17/13 A3004 RMK AO2 SLP177 T01670128=
201209080253 METAR KBLI 080253Z AUTO 00000KT 10SM 18/13 A3003 RMK AO2 SLP176 T01830128 56010 TSNO=
201209080153 METAR KBLI 080153Z 00000KT 10SM CLR 22/13 A3004 RMK AO2 SLP178 T02220128=
201209080053 METAR KBLI 080053Z VRB03KT 10SM CLR 25/11 A3005 RMK AO2 SLP183 T02500106=
201209072353 METAR KBLI 072353Z 27005KT 10SM CLR 26/12 A3006 RMK AO2 SLP186 T02560117 10261 20222 58020=
201209072253 METAR KBLI 072253Z 27006KT 10SM CLR 26/12 A3009 RMK AO2 SLP193 T02610117=
201209072153 METAR KBLI 072153Z 27007KT 10SM CLR 25/12 A3010 RMK AO2 SLP200 T02500122=
201209072053 METAR KBLI 072053Z 27006KT 10SM CLR 26/13 A3012 RMK AO2 SLP205 T02560128 58010=
201209071953 METAR KBLI 071953Z 30005KT 10SM CLR 25/12 A3013 RMK AO2 SLP210 T02500122=
201209071853 METAR KBLI 071853Z 01005KT 10SM CLR 24/09 A3014 RMK AO2 SLP213 T02440089=
201209071753 METAR KBLI 071753Z 00000KT 10SM CLR 22/10 A3015 RMK AO2 SLP216 T02220100 10228 20083 50003=
201209071653 METAR KBLI 071653Z 36004KT 10SM CLR 18/11 A3015 RMK AO2 SLP216 T01830106=
201209071553 METAR KBLI 071553Z 00000KT 10SM CLR 16/12 A3015 RMK AO2 SLP214 T01610117=
201209071453 METAR KBLI 071453Z 00000KT 10SM CLR 12/12 A3014 RMK AO2 SLP213 T01220117 51014=
201209071353 METAR KBLI 071353Z 00000KT 10SM CLR 10/08 A3013 RMK AO2 SLP210 T01000083=
201209071253 METAR KBLI 071253Z AUTO 00000KT 10SM CLR 09/08 A3012 RMK AO2 SLP204 T00940083=
201209071153 METAR KBLI 071153Z AUTO 00000KT 10SM CLR 11/10 A3010 RMK AO2 SLP199 T01110100 10133 20094 51009=
201209071053 METAR KBLI 071053Z AUTO 00000KT 10SM CLR 10/09 A3010 RMK AO2 SLP198 T01000089=
201209070953 METAR KBLI 070953Z AUTO 00000KT 7SM CLR 11/11 A3009 RMK AO2 SLP195 T01110106=
201209070853 METAR KBLI 070853Z AUTO 00000KT 10SM CLR 12/10 A3008 RMK AO2 SLP189 T01170100 51010=
201209070753 METAR KBLI 070753Z AUTO 00000KT 10SM CLR 11/10 A3007 RMK AO2 SLP187 T01110100 402780083=
201209070653 METAR KBLI 070653Z AUTO 00000KT 10SM CLR 12/11 A3006 RMK AO2 SLP184 T01170106=
201209070553 METAR KBLI 070553Z AUTO 00000KT 10SM CLR 12/12 A3005 RMK AO2 SLP180 T01220117 10250 20122 53007=
201209070453 METAR KBLI 070453Z 00000KT 10SM CLR 14/12 A3004 RMK AO2 SLP178 T01440117=
201209070353 METAR KBLI 070353Z 00000KT 10SM CLR 15/13 A3003 RMK AO2 SLP176 T01500128=
201209070253 METAR KBLI 070253Z 00000KT 10SM CLR 18/13 A3003 RMK AO2 SLP173 T01780133 55001=
201209070153 METAR KBLI 070153Z 17003KT 10SM CLR 21/13 A3002 RMK AO2 SLP172 T02060133=
201209070053 METAR KBLI 070053Z 27003KT 10SM CLR 24/11 A3002 RMK AO2 SLP173 T02390106=
201209062353 METAR KBLI 062353Z 28007KT 10SM CLR 25/10 A3003 RMK AO2 SLP175 T02500100 10278 20217 58004=
201209062253 METAR KBLI 062253Z 29006KT 10SM CLR 25/11 A3004 RMK AO2 SLP176 T02500106=
201209062153 METAR KBLI 062153Z 27008KT 10SM CLR 24/12 A3004 RMK AO2 SLP179 T02440117=
201209062053 METAR KBLI 062053Z 29008KT 10SM CLR 26/12 A3004 RMK AO2 SLP179 T02560117 53002=
201209061953 METAR KBLI 061953Z 36007KT 10SM CLR 28/07 A3003 RMK AO2 SLP175 T02780072=
201209061853 METAR KBLI 061853Z 01011G16KT 10SM CLR 26/08 A3004 RMK AO2 SLP178 T02610078=
201209061753 METAR KBLI 061753Z VRB03KT 10SM CLR 22/13 A3004 RMK AO2 SLP178 T02170128 10233 20083 51006=
201209061653 METAR KBLI 061653Z 00000KT 10SM CLR 22/11 A3004 RMK AO2 SLP178 T02170111=
201209061553 METAR KBLI 061553Z 00000KT 10SM CLR 17/13 A3003 RMK AO2 SLP176 T01720128=
201209061453 METAR KBLI 061453Z 00000KT 10SM CLR 13/12 A3002 RMK AO2 SLP173 T01280117 53011=
201209061353 METAR KBLI 061353Z AUTO 00000KT 9SM CLR 10/08 A3001 RMK AO2 SLP169 T01000083=
201209061253 METAR KBLI 061253Z AUTO 00000KT 10SM CLR 09/08 A3000 RMK AO2 SLP163 T00940083=
201209061220 SPECI KBLI 061220Z AUTO 00000KT 5SM BR CLR 10/09 A2999 RMK AO2=
201209061212 SPECI KBLI 061212Z AUTO 12003KT 1 3/4SM BR CLR 09/08 A2999 RMK AO2=
201209061153 METAR KBLI 061153Z AUTO 00000KT 7SM CLR 08/08 A2999 RMK AO2 SLP162 T00830078 10128 20083 51003=
201209061053 METAR KBLI 061053Z AUTO 00000KT 6SM BR CLR 09/09 A2999 RMK AO2 SLP160 T00940089=
201209061030 SPECI KBLI 061030Z AUTO 00000KT 4SM BR FEW002 09/09 A2998 RMK AO2=
201209061027 SPECI KBLI 061027Z AUTO 00000KT 1 1/2SM BR FEW002 10/09 A2998 RMK AO2=
201209061017 SPECI KBLI 061017Z AUTO 00000KT 1 3/4SM R16/6000VP6000FT BR CLR 10/09 A2998 RMK AO2=
201209060953 METAR KBLI 060953Z AUTO 00000KT 9SM CLR 10/09 A2998 RMK AO2 SLP159 T01000094=
201209060853 METAR KBLI 060853Z AUTO 00000KT 8SM CLR 11/10 A2998 RMK AO2 SLP157 T01110100 52006=
201209060753 METAR KBLI 060753Z AUTO 00000KT 10SM CLR 12/11 A2997 RMK AO2 SLP156 T01170106 402110100=
201209060736 SPECI KBLI 060736Z AUTO 00000KT 3SM BR FEW002 11/10 A2997 RMK AO2=
201209060728 SPECI KBLI 060728Z AUTO 00000KT 1 3/4SM BR FEW002 11/11 A2997 RMK AO2=
201209060653 METAR KBLI 060653Z AUTO 00000KT 10SM CLR 12/11 A2996 RMK AO2 SLP152 T01220111=
201209060553 METAR KBLI 060553Z AUTO 00000KT 9SM CLR 12/12 A2996 RMK AO2 SLP151 T01220117 10194 20122 51000=
201209060453 METAR KBLI 060453Z 00000KT 10SM CLR 13/12 A2996 RMK AO2 SLP150 T01330122=
201209060353 METAR KBLI 060353Z 00000KT 10SM CLR 14/13 A2996 RMK AO2 SLP152 T01440128=
201209060253 METAR KBLI 060253Z 00000KT 10SM CLR 15/13 A2996 RMK AO2 SLP150 T01500133 55006=
201209060153 METAR KBLI 060153Z 00000KT 10SM CLR 17/13 A2995 RMK AO2 SLP149 T01720133=
201209060053 METAR KBLI 060053Z 00000KT 10SM CLR 19/13 A2996 RMK AO2 SLP152 T01890133=
201209052353 METAR KBLI 052353Z 25006KT 10SM CLR 19/13 A2997 RMK AO2 SLP156 T01940128 10211 20167 58013=
201209052253 METAR KBLI 052253Z AUTO 29006KT 10SM CLR 21/14 A2999 RMK AO2 SLP161 T02060139 TSNO=
201209052153 METAR KBLI 052153Z 28005KT 10SM CLR 20/14 A3000 RMK AO2 SLP165 T02000139=
201209052053 METAR KBLI 052053Z VRB03KT 10SM CLR 20/13 A3001 RMK AO2 SLP169 T02000133 58013=
201209051953 METAR KBLI 051953Z VRB04KT 10SM SCT011 19/13 A3003 RMK AO2 SLP175 T01890133=
201209051853 METAR KBLI 051853Z VRB03KT 10SM SCT009 18/13 A3004 RMK AO2 SLP178 T01830133=
201209051753 METAR KBLI 051753Z 17007KT 10SM BKN009 17/13 A3005 RMK AO2 SLP181 T01670133 10172 20128 56008=
201209051653 METAR KBLI 051653Z 18005KT 10SM BKN009 17/14 A3006 RMK AO2 SLP184 T01670139=
201209051644 SPECI KBLI 051644Z VRB05KT 10SM BKN009 16/13 A3006 RMK AO2=
201209051553 METAR KBLI 051553Z 19004KT 10SM FEW004 16/13 A3007 RMK AO2 SLP187 T01560133=
201209051453 METAR KBLI 051453Z 17003KT 8SM SCT004 14/13 A3007 RMK AO2 SLP190 T01440133 56004=
201209051436 SPECI KBLI 051436Z 16003KT 8SM BKN004 14/13 A3008 RMK AO2=
201209051414 SPECI KBLI 051414Z 00000KT 8SM SCT004 13/13 A3008 RMK AO2=
201209051353 METAR KBLI 051353Z 19003KT 9SM BKN004 14/13 A3008 RMK AO2 SLP190 T01390128=
201209051344 SPECI KBLI 051344Z AUTO 00000KT 10SM BKN004 14/13 A3007 RMK AO2=
201209051328 SPECI KBLI 051328Z AUTO 18003KT 10SM BKN006 BKN010 14/13 A3007 RMK AO2=
201209051325 SPECI KBLI 051325Z AUTO 19004KT 10SM SCT006 14/13 A3007 RMK AO2=
201209051253 METAR KBLI 051253Z AUTO 17005KT 10SM CLR 13/12 A3007 RMK AO2 SLP188 T01330117=
201209051153 METAR KBLI 051153Z AUTO 15006KT 10SM CLR 13/12 A3009 RMK AO2 SLP194 T01330122 10139 20111 56005=
201209051053 METAR KBLI 051053Z AUTO 19003KT 10SM CLR 13/12 A3009 RMK AO2 SLP194 T01330122=
201209050953 METAR KBLI 050953Z AUTO 19003KT 10SM CLR 13/12 A3010 RMK AO2 SLP197 T01330122=
201209050853 METAR KBLI 050853Z AUTO 00000KT 10SM FEW002 12/11 A3010 RMK AO2 SLP199 T01220106 58004=
201209050753 METAR KBLI 050753Z AUTO 00000KT 10SM CLR 12/11 A3011 RMK AO2 SLP201 T01220111 402170094=
201209050653 METAR KBLI 050653Z AUTO 00000KT 10SM CLR 13/11 A3011 RMK AO2 SLP202 T01280111=
201209050553 METAR KBLI 050553Z AUTO 00000KT 10SM CLR 13/12 A3011 RMK AO2 SLP203 T01330117 10211 20122 58002=
201209050453 METAR KBLI 050453Z 00000KT 10SM CLR 14/12 A3011 RMK AO2 SLP203 T01390122=
201209050353 METAR KBLI 050353Z 00000KT 10SM CLR 14/13 A3013 RMK AO2 SLP207 T01440128=
201209050253 METAR KBLI 050253Z 26005KT 10SM CLR 16/13 A3012 RMK AO2 SLP204 T01610128 56012=
201209050153 METAR KBLI 050153Z 25005KT 10SM CLR 18/13 A3012 RMK AO2 SLP207 T01780133=
201209050053 METAR KBLI 050053Z 28004KT 10SM CLR 20/13 A3014 RMK AO2 SLP211 T02000128=
201209042353 METAR KBLI 042353Z 00000KT 10SM CLR 21/12 A3015 RMK AO2 SLP216 T02110122 10217 20172 58015=
201209042253 METAR KBLI 042253Z 27006KT 10SM CLR 21/11 A3017 RMK AO2 SLP222 T02110111=
201209042153 METAR KBLI 042153Z 30010KT 10SM CLR 21/12 A3018 RMK AO2 SLP226 T02110122=
201209042053 METAR KBLI 042053Z VRB06KT 10SM CLR 21/13 A3020 RMK AO2 SLP231 T02060128 58005=
201209041953 METAR KBLI 041953Z 24007KT 10SM CLR 19/13 A3020 RMK AO2 SLP231 T01940133=
201209041853 METAR KBLI 041853Z 30003KT 10SM SCT017 19/13 A3021 RMK AO2 SLP237 T01890133=
201209041753 METAR KBLI 041753Z 30004KT 10SM CLR 18/13 A3021 RMK AO2 SLP237 T01780133 10183 20094 50002=
201209041700 SPECI KBLI 041700Z 00000KT 10SM FEW009 17/13 A3021 RMK AO2=
201209041653 METAR KBLI 041653Z 15003KT 10SM SCT012 16/13 A3021 RMK AO2 SLP238 T01610128=
201209041642 SPECI KBLI 041642Z 00000KT 10SM SCT012 16/13 A3021 RMK AO2=
201209041553 METAR KBLI 041553Z 15005KT 10SM BKN007 BKN011 15/13 A3021 RMK AO2 SLP237 T01500133=
201209041524 SPECI KBLI 041524Z 17004KT 10SM BKN007 14/13 A3021 RMK AO2=
201209041453 METAR KBLI 041453Z 00000KT 10SM BKN011 13/13 A3021 RMK AO2 SLP235 CIG VSBY LWR SE-SW T01330128 53008=
201209041353 METAR KBLI 041353Z 00000KT 10SM R16/5000VP6000FT FEW011 10/09 A3020 RMK AO2 SLP232 CIG VSBY LWR SW-W T01000089=
201209041253 METAR KBLI 041253Z AUTO 14004KT 10SM CLR 11/11 A3018 RMK AO2 SLP227 T01110106=
201209041153 METAR KBLI 041153Z AUTO 17003KT 10SM CLR 12/11 A3018 RMK AO2 SLP226 T01170106 10133 20100 51004=
201209041053 METAR KBLI 041053Z AUTO 00000KT 10SM CLR 11/10 A3018 RMK AO2 SLP225 T01110100=
201209040953 METAR KBLI 040953Z AUTO 18003KT 10SM CLR 12/11 A3018 RMK AO2 SLP225 T01170106=
201209040853 METAR KBLI 040853Z AUTO 18004KT 10SM CLR 12/11 A3017 RMK AO2 SLP222 T01220111 53007=
201209040753 METAR KBLI 040753Z AUTO 16006KT 10SM CLR 13/11 A3016 RMK AO2 SLP219 T01280106 402060067=
201209040653 METAR KBLI 040653Z AUTO 00000KT 10SM CLR 12/11 A3015 RMK AO2 SLP216 T01220106=
201209040553 METAR KBLI 040553Z AUTO 00000KT 10SM CLR 12/11 A3015 RMK AO2 SLP216 T01220111 10200 20117 53006=
201209040453 METAR KBLI 040453Z 00000KT 10SM CLR 12/11 A3014 RMK AO2 SLP212 T01170106=
201209040353 METAR KBLI 040353Z 00000KT 10SM CLR 13/12 A3014 RMK AO2 SLP212 T01280117=
201209040253 METAR KBLI 040253Z 00000KT 10SM CLR 16/12 A3013 RMK AO2 SLP208 T01560122 55004=
201209040153 METAR KBLI 040153Z 26004KT 10SM CLR 17/12 A3012 RMK AO2 SLP206 T01720117=
201209040053 METAR KBLI 040053Z 22004KT 10SM CLR 19/12 A3013 RMK AO2 SLP209 T01890122=
201209032353 METAR KBLI 032353Z 00000KT 10SM CLR 20/12 A3014 RMK AO2 SLP214 T02000122 10206 20156 58010=
201209032253 METAR KBLI 032253Z VRB06KT 10SM CLR 19/11 A3016 RMK AO2 SLP218 T01940111=
201209032153 METAR KBLI 032153Z VRB05KT 10SM FEW025 20/13 A3016 RMK AO2 SLP219 T02000128=
201209032053 METAR KBLI 032053Z VRB06KT 10SM FEW025 19/12 A3017 RMK AO2 SLP223 T01940122 58003=
201209031953 METAR KBLI 031953Z 32004KT 10SM FEW016 SCT023 18/12 A3018 RMK AO2 SLP226 T01780117=
201209031853 METAR KBLI 031853Z 18004KT 10SM SCT026 17/13 A3019 RMK AO2 SLP228 T01670128=
201209031753 METAR KBLI 031753Z 16005KT 10SM FEW005 16/12 A3018 RMK AO2 SLP228 T01560117 10156 20067 50002=
201209031653 METAR KBLI 031653Z 18005KT 10SM FEW007 14/11 A3019 RMK AO2 SLP230 T01390111=
201209031645 SPECI KBLI 031645Z 21005KT 10SM FEW007 14/11 A3019 RMK AO2=
201209031553 METAR KBLI 031553Z 00000KT 10SM CLR 14/11 A3018 RMK AO2 SLP226 T01390106=
201209031526 SPECI KBLI 031526Z 14003KT 10SM SCT013 13/11 A3018 RMK AO2=
201209031510 SPECI KBLI 031510Z 15003KT 10SM SCT013 BKN017 13/11 A3018 RMK AO2=
201209031500 SPECI KBLI 031500Z 15003KT 10SM BKN013 BKN017 13/12 A3018 RMK AO2=
201209031453 METAR KBLI 031453Z 16004KT 10SM SCT003 13/11 A3018 RMK AO2 SLP226 FG BNK S-NW T01280111 53007=
201209031408 SPECI KBLI 031408Z 15003KT 9SM SCT003 12/11 A3017 RMK AO2 FG BNK S-NW=
201209031353 METAR KBLI 031353Z 18004KT 5SM BR BKN003 12/11 A3016 RMK AO2 SLP220 T01170111=
201209031333 SPECI KBLI 031333Z AUTO 16006KT 6SM BR BKN003 11/11 A3016 RMK AO2=
201209031325 SPECI KBLI 031325Z AUTO 17005KT 10SM SCT003 09/08 A3016 RMK AO2=
201209031253 METAR KBLI 031253Z AUTO 00000KT 10SM CLR 07/06 A3016 RMK AO2 SLP219 T00720061=
201209031153 METAR KBLI 031153Z AUTO 00000KT 10SM CLR 08/07 A3016 RMK AO2 SLP218 T00780072 10128 20078 53003=
201209031100 SPECI KBLI 031100Z AUTO 00000KT 3SM BR CLR 08/07 A3015 RMK AO2=
201209031053 METAR KBLI 031053Z AUTO 00000KT 2 1/2SM BR CLR 08/07 A3015 RMK AO2 VIS 1V5 SLP216 T00830072=
201209030953 METAR KBLI 030953Z AUTO 00000KT 10SM CLR 10/09 A3014 RMK AO2 SLP212 T01000089=
201209030853 METAR KBLI 030853Z AUTO 00000KT 10SM CLR 09/08 A3015 RMK AO2 SLP215 T00890078 53002=
201209030753 METAR KBLI 030753Z AUTO 00000KT 10SM CLR 11/09 A3015 RMK AO2 SLP214 T01110094 401940111=
201209030653 METAR KBLI 030653Z AUTO 16005KT 10SM CLR 12/09 A3014 RMK AO2 SLP214 T01170094=
201209030553 METAR KBLI 030553Z AUTO 00000KT 10SM CLR 12/09 A3014 RMK AO2 SLP214 T01170094 10189 20117 53002=
201209030453 METAR KBLI 030453Z 16003KT 10SM CLR 13/10 A3014 RMK AO2 SLP211 T01330100=
201209030353 METAR KBLI 030353Z 17003KT 10SM CLR 14/11 A3014 RMK AO2 SLP212 T01440106=
201209030253 METAR KBLI 030253Z 17003KT 10SM CLR 14/11 A3013 RMK AO2 SLP211 T01390106 56006=
201209030153 METAR KBLI 030153Z 17004KT 10SM CLR 17/09 A3014 RMK AO2 SLP211 T01720094=
201209030053 METAR KBLI 030053Z 17005KT 10SM CLR 18/09 A3015 RMK AO2 SLP214 T01830089=
201209022353 METAR KBLI 022353Z 16006KT 10SM CLR 18/09 A3015 RMK AO2 SLP217 T01830089 10194 20156 57008=
201209022253 METAR KBLI 022253Z 18007KT 10SM CLR 18/09 A3016 RMK AO2 SLP220 T01830094=
201209022153 METAR KBLI 022153Z 16009KT 10SM CLR 18/09 A3017 RMK AO2 SLP221 T01830094=
201209022053 METAR KBLI 022053Z 18009KT 10SM CLR 18/09 A3018 RMK AO2 SLP225 T01780094 58004=
201209021953 METAR KBLI 021953Z 17007KT 10SM CLR 18/10 A3018 RMK AO2 SLP227 T01780100=
201209021853 METAR KBLI 021853Z 19008G14KT 150V220 10SM CLR 16/09 A3019 RMK AO2 SLP229 T01610094=
201209021753 METAR KBLI 021753Z 16010KT 10SM FEW100 16/09 A3019 RMK AO2 SLP229 T01560094 10161 20117 53006=
201209021653 METAR KBLI 021653Z 16010KT 10SM CLR 16/09 A3018 RMK AO2 SLP227 T01560094=
201209021553 METAR KBLI 021553Z 17009KT 10SM CLR 14/09 A3018 RMK AO2 SLP224 T01440094=
201209021453 METAR KBLI 021453Z 17007KT 10SM OVC100 13/09 A3017 RMK AO2 SLP223 T01330094 53011=
201209021353 METAR KBLI 021353Z 16009KT 10SM FEW015 OVC095 13/09 A3016 RMK AO2 SLP219 T01330094=
201209021253 METAR KBLI 021253Z AUTO 16008KT 10SM FEW095 BKN110 13/09 A3014 RMK AO2 SLP214 T01280094=
201209021153 METAR KBLI 021153Z AUTO 18006KT 10SM OVC110 13/09 A3014 RMK AO2 SLP212 T01280089 10150 20117 51005=
201209021053 METAR KBLI 021053Z AUTO 16004KT 10SM SCT110 13/09 A3014 RMK AO2 SLP211 T01280089=
201209020953 METAR KBLI 020953Z AUTO 17009G17KT 10SM CLR 13/09 A3013 RMK AO2 SLP209 T01280094=
201209020853 METAR KBLI 020853Z AUTO 18005KT 10SM CLR 13/08 A3012 RMK AO2 SLP207 T01330083 51006=
201209020753 METAR KBLI 020753Z AUTO 17007KT 10SM CLR 14/07 A3012 RMK AO2 SLP205 T01390072 402000100=
201209020653 METAR KBLI 020653Z AUTO 17009KT 10SM CLR 14/08 A3012 RMK AO2 SLP204 T01440078=
201209020553 METAR KBLI 020553Z AUTO 17006KT 10SM CLR 14/08 A3010 RMK AO2 SLP200 T01440083 10178 20144 50000=
201209020453 METAR KBLI 020453Z 16006KT 10SM CLR 15/10 A3011 RMK AO2 SLP201 T01500100=
201209020353 METAR KBLI 020353Z 17009KT 10SM CLR 16/09 A3011 RMK AO2 SLP202 T01560089=
201209020253 METAR KBLI 020253Z 16008KT 10SM CLR 16/08 A3010 RMK AO2 SLP200 T01610083 55000=
201209020153 METAR KBLI 020153Z 17008KT 10SM CLR 17/09 A3010 RMK AO2 SLP198 T01720089=
201209020053 METAR KBLI 020053Z 17007KT 10SM CLR 17/10 A3010 RMK AO2 SLP198 T01720100=
201209012353 METAR KBLI 012353Z 17010KT 10SM CLR 18/11 A3011 RMK AO2 SLP200 T01780106 10200 20156 56005=
201209012253 METAR KBLI 012253Z 17009KT 10SM CLR 19/10 A3011 RMK AO2 SLP201 T01890100=
201209012153 METAR KBLI 012153Z 17009KT 10SM CLR 19/10 A3011 RMK AO2 SLP202 T01940100=
201209012053 METAR KBLI 012053Z 18009G15KT 10SM CLR 18/09 A3012 RMK AO2 SLP205 T01830089 50000=
201209011953 METAR KBLI 011953Z VRB06KT 10SM CLR 18/09 A3012 RMK AO2 SLP206 T01780094=
201209011853 METAR KBLI 011853Z 19007KT 10SM CLR 17/09 A3013 RMK AO2 SLP208 T01670094=
201209011753 METAR KBLI 011753Z 17009G16KT 10SM CLR 16/10 A3012 RMK AO2 SLP206 T01560100 10156 20117 53013=
201209011653 METAR KBLI 011653Z 17010KT 10SM CLR 14/10 A3011 RMK AO2 SLP202 T01440100=
201209011553 METAR KBLI 011553Z 17011G18KT 10SM CLR 14/09 A3009 RMK AO2 SLP195 T01390094=
201209011453 METAR KBLI 011453Z 14007KT 10SM CLR 13/09 A3008 RMK AO2 SLP193 T01280094 53018=
201209011353 METAR KBLI 011353Z 17009KT 10SM CLR 12/10 A3006 RMK AO2 SLP184 T01170100=
201209011253 METAR KBLI 011253Z AUTO 18006KT 10SM CLR 12/09 A3004 RMK AO2 SLP177 T01220094=
201209011153 METAR KBLI 011153Z AUTO 19004KT 10SM CLR 13/09 A3003 RMK AO2 SLP174 T01280094 10128 20100 53012=
201209011053 METAR KBLI 011053Z AUTO 17007KT 10SM CLR 13/09 A3002 RMK AO2 SLP170 T01280089=
201209010953 METAR KBLI 010953Z AUTO 17004KT 10SM CLR 11/08 A3000 RMK AO2 SLP166 T01060083=
201209010853 METAR KBLI 010853Z AUTO 17003KT 10SM CLR 11/09 A2999 RMK AO2 SLP162 T01110089 53007=
201209010753 METAR KBLI 010753Z AUTO 15004KT 10SM CLR 11/09 A2999 RMK AO2 SLP160 T01110089 402000094=
201209010653 METAR KBLI 010653Z AUTO 17004KT 10SM CLR 12/09 A2998 RMK AO2 SLP156 T01170094=
201209010553 METAR KBLI 010553Z AUTO 00000KT 10SM CLR 10/09 A2997 RMK AO2 SLP156 T01000089 10200 20100 50005=
201209010453 METAR KBLI 010453Z 00000KT 10SM CLR 12/09 A2997 RMK AO2 SLP156 T01170094=
201209010353 METAR KBLI 010353Z 00000KT 10SM CLR 13/10 A2997 RMK AO2 SLP155 T01280100=
201209010253 METAR KBLI 010253Z 00000KT 10SM CLR 14/10 A2996 RMK AO2 SLP151 T01390100 53003 TSNO=
201209010153 METAR KBLI 010153Z 00000KT 10SM CLR 18/09 A2995 RMK AO2 SLP149 T01780094=
201209010053 METAR KBLI 010053Z VRB03KT 10SM CLR 19/09 A2994 RMK AO2 SLP146 T01890089=

# No short TAF reports from KBLI in databse.

###################################
#  large TAF from KBLI
###################################
201209302320 TAF KBLI 302320Z 0100/0124 26006KT P6SM BKN250 FM010800 00000KT
                       P6SM BKN150 FM011600 22006KT P6SM SCT050
                       OVC090 FM012100 25012KT P6SM VCSH BKN040
                       OVC080=
201209301720 TAF KBLI 301720Z 3018/0118 VRB04KT P6SM SCT200 FM010600 16006KT
                       P6SM BKN120 BKN200=
201209301252 KBLI 301252Z 3013/0112 00000KT P6SM SKC
                      TEMPO 3013/3015 2SM BR SCT002 FM301600 18004KT
                       P6SM SCT200 FM010300 VRB03KT P6SM SCT120
                       BKN200 FM011000 VRB03KT P6SM BKN120 BKN200=
201209301120 TAF KBLI 301120Z 3012/0112 04006KT 3SM BR SCT002
                      TEMPO 3012/3015 1/2SM FG BKN002 FM301600
                       18004KT P6SM SCT200 FM010300 VRB03KT P6SM
                       SCT120 BKN200 FM011000 VRB03KT P6SM BKN120
                       BKN200=
201209300951 KBLI 300951Z 3010/0106 VRB03KT 4SM BR SCT200
                      TEMPO 3010/3012 1SM BR SCT001 SCT200 FM301200
                       04006KT 3SM BR SCT002
                      TEMPO 3012/3015 1/2SM FG BKN002 FM301600
                       18004KT P6SM BKN200 FM010300 VRB03KT P6SM
                       SCT120 BKN200=
201209300520 TAF KBLI 300520Z 3006/0106 VRB03KT P6SM SCT150 FM301200 04006KT
                       P6SM VCFG SCT002
                      TEMPO 3013/3016 2SM BR BKN002 FM301800 18004KT
                       P6SM BKN200 FM010300 VRB03KT P6SM SCT120
                       BKN200=
201209292320 TAF KBLI 292320Z 3000/3024 30006KT P6SM BKN150 FM300600 VRB03KT
                       P6SM SCT150 FM301200 04006KT P6SM VCFG SCT002
                       TEMPO 3013/3016 2SM BR BKN002 FM301800 VRB03KT
                       P6SM BKN200=
201209291724 TAF KBLI 291724Z 2918/3018 VRB04KT P6SM FEW040 SCT200 FM292200
                       30008KT P6SM SCT050 SCT200 FM300600 VRB03KT
                       P6SM BKN200 FM301200 04006KT P6SM VCFG SCT002
                       TEMPO 3013/3016 2SM BR BKN002=
201209291122 TAF KBLI 291122Z 2912/3012 22006KT P6SM SCT010 BKN030 BKN100
                      TEMPO 2912/2916 BKN004 FM291600 20006KT P6SM
                       SCT040 BKN100 FM292000 18004KT P6SM SCT200
                       FM300000 VRB03KT P6SM SKC=
201209290832 KBLI 290832Z 2909/3006 22006KT P6SM VCSH BKN010 BKN050
                      TEMPO 2909/2912 BKN006 FM291200 33006KT P6SM
                       VCSH BKN025 BKN040 FM291700 33008KT P6SM
                       SCT040=
201209290520 TAF KBLI 290520Z 2906/3006 27006KT P6SM VCSH BKN060 OVC120 FM290700
                       22006KT P6SM VCSH SCT025 BKN050 FM291000
                       33006KT P6SM VCSH BKN025 BKN040 FM291700
                       33008KT P6SM SCT040=
201209290141 KBLI 290141Z 2902/2924 27006KT P6SM VCSH BKN060 OVC120 FM290500
                       22006KT P6SM VCSH SCT025 BKN050 FM291000
                       33006KT P6SM BKN025 BKN040 FM291700 33008KT
                       P6SM SCT040=
201209282320 TAF KBLI 282320Z 2900/2924 16006KT P6SM BKN060 OVC120 FM290500
                       22006KT P6SM VCSH SCT025 BKN050 FM291000
                       33006KT P6SM BKN025 BKN040 FM291700 33008KT
                       P6SM SCT040=
201209281720 TAF KBLI 281720Z 2818/2918 16008KT P6SM BKN150 BKN250 FM290600
                       22006KT P6SM VCSH SCT025 BKN050 FM291000
                       33006KT P6SM BKN025 BKN040 FM291700 33008KT
                       P6SM SCT040=
201209281122 TAF KBLI 281122Z 2812/2912 00000KT P6SM OVC200 FM281800 18005KT
                       P6SM SCT070 OVC120 FM282200 20005KT P6SM
                       VCSH BKN030 OVC070 FM290300 24007KT P6SM
                       VCSH OVC030=
201209280523 TAF KBLI 280523Z 2806/2906 00000KT P6SM SCT250 FM281800 18005KT
                       P6SM SCT050 OVC120 FM282200 20005KT P6SM
                       VCSH BKN025 OVC050=
201209272322 TAF KBLI 272322Z 2800/2824 28005KT P6SM SCT250 FM281800 18005KT
                       P6SM SCT050 OVC120 FM282200 20005KT P6SM
                       VCSH BKN025 OVC050=
201209271733 TAF KBLI 271733Z 2718/2818 01003KT P6SM SKC FM272100 22003KT P6SM
                       SCT250 FM281200 17003KT 4SM BR OVC250 FM281500
                       16004KT P6SM OVC090=
201209271605 KBLI 271605Z 2716/2812 VRB03KT 1/2SM FG BKN002
                      TEMPO 2716/2717 1/4SM FG VV001 FM271700 26004KT
                       P6SM SCT200 FM280300 18004KT P6SM SCT150
                       BKN200=
201209271127 TAF KBLI 271127Z 2712/2812 VRB03KT 1/2SM FG BKN002
                      TEMPO 2712/2716 1/4SM FG VV001 FM271700 26004KT
                       P6SM SCT200 FM280300 18004KT P6SM SCT150
                       BKN200=
201209270631 KBLI 270631Z 2707/2806 27003KT P6SM SKC
                      TEMPO 2707/2711 1SM BR BKN002 FM271200 VRB03KT
                       1SM BR BKN002 FM271700 VRB03KT 5SM BR SCT002
                       FM271900 26006KT P6SM SKC=
201209270528 TAF KBLI 270528Z 2706/2806 27003KT P6SM SKC
                      TEMPO 2709/2712 2SM BR SCT002 FM271200 VRB03KT
                       1SM BR BKN002 FM271700 VRB03KT 5SM BR SCT002
                       FM271900 26006KT P6SM SKC=
201209262336 TAF KBLI 262336Z 2700/2724 27005KT P6SM BKN250 FM270600 27006KT
                       P6SM SKC FM271200 VRB03KT 1SM BR BKN002
                       FM271700 VRB03KT 5SM BR SCT002 FM271900
                       26006KT P6SM SKC=
201209261846 KBLI 261846Z 2619/2718 00000KT P6SM FEW008 FM262300 19005KT P6SM
                       SCT010 SCT200 FM270600 27006KT P6SM SKC
                       FM271200 VRB03KT 1SM BR BKN002 FM271700
                       VRB03KT 5SM BR SCT002=
201209261739 TAF KBLI 261739Z 2618/2718 00000KT 1SM BR BKN002 FM262000 19003KT
                       5SM BR BKN005 FM262300 19005KT P6SM SCT010
                       SCT200 FM270600 27006KT P6SM SKC FM271200
                       VRB03KT 1SM BR BKN002 FM271700 VRB03KT 5SM
                       BR SCT002=
201209261656 KBLI 261656Z 2617/2712 00000KT 1/4SM FG VV001 FM262000 19003KT
                       3SM BR BKN005 FM262100 19005KT P6SM SCT010
                       SCT200 FM270600 27006KT P6SM SKC=
201209261221 KBLI 261221Z 2612/2712 00000KT 1/4SM FG VV002
                      TEMPO 2612/2616 3SM BR SCT003 FM261600 19005KT
                       P6SM SCT200 FM270600 27006KT P6SM SKC=
201209261120 TAF KBLI 261120Z 2612/2712 VRB03KT P6SM SCT003 SCT200
                      TEMPO 2612/2616 3SM BR BKN003 FM261800 19005KT
                       P6SM SCT200 FM270600 27006KT P6SM SKC=
201209260615 KBLI 260615Z 2606/2706 VRB03KT P6SM SCT200
                      TEMPO 2606/2610 1SM BR FEW002 FM261000 VRB03KT
                       P6SM SCT200
                      TEMPO 2610/2614 1SM BR SCT002 FM261800 19005KT
                       P6SM BKN035 FM262000 27006KT P6SM SKC=
201209260522 TAF KBLI 260522Z 2606/2706 VRB03KT P6SM SCT200
                      TEMPO 2611/2615 2SM BR SCT002 FM261800 19005KT
                       P6SM BKN035 FM262000 27006KT P6SM SKC=
201209252325 TAF KBLI 252325Z 2600/2624 18003KT P6SM SKC FM260600 VRB03KT P6SM
                       FEW040 FM261200 VRB03KT P6SM SCT020 SCT200
                       TEMPO 2612/2615 3SM BR BKN015 FM261800 19005KT
                       P6SM BKN035 FM262000 27006KT P6SM SKC=
201209251753 TAF KBLI 251753Z 2518/2618 17003KT P6SM BKN008 OVC015 FM252000
                       17005KT P6SM SCT015 BKN045 FM252200 18006KT
                       P6SM SCT045 FM260300 18005KT P6SM FEW040
                       FM261200 VRB03KT P6SM SCT200=
201209251120 TAF KBLI 251120Z 2512/2612 VRB03KT P6SM BKN045
                      TEMPO 2512/2515 1SM BR SCT002 SCT045 FM251600
                       18005KT P6SM SCT025 OVC040 FM251900 18006KT
                       P6SM SCT040 FM260300 18005KT P6SM FEW040=
201209251013 KBLI 251013Z 2510/2606 VRB03KT P6SM OVC040
                      TEMPO 2512/2515 4SM BR SCT002 BKN040 FM251600
                       18005KT P6SM SCT025 OVC040 FM251900 19006KT
                       P6SM SCT040 FM260300 17005KT P6SM FEW040=
201209250532 TAF KBLI 250532Z 2506/2606 18006KT P6SM BKN045 OVC070 FM251000
                       18005KT P6SM OVC025 FM251600 18005KT P6SM
                       SCT025 BKN040 FM251900 19006KT P6SM SCT040
                       FM260300 17005KT P6SM FEW040=
201209242328 TAF KBLI 242328Z 2500/2524 18006KT P6SM SCT050 BKN100 OVC200 FM250400
                       18006KT P6SM BKN045 OVC070 FM251000 18006KT
                       P6SM OVC025 FM251600 VRB03KT P6SM SCT025
                       BKN040 FM251900 VRB03KT P6SM SCT040=
201209241751 TAF KBLI 241751Z 2418/2518 18007KT P6SM SCT200 FM250600 20004KT
                       P6SM BKN045 BKN120 FM251200 18004KT P6SM
                       OVC020=
201209241120 TAF KBLI 241120Z 2412/2512 00000KT P6SM SKC
                      TEMPO 2412/2414 1SM BR VV001 FM241500 18004KT
                       P6SM SCT010 FM241800 19005KT P6SM SCT200
                       FM250700 20007KT P6SM BKN045 BKN120=
201209240953 KBLI 240953Z 2410/2506 00000KT P6SM SKC
                      TEMPO 2410/2414 1SM BR VV001 FM241500 18004KT
                       P6SM SCT010 FM241800 19005KT P6SM SCT200=
201209240520 TAF KBLI 240520Z 2406/2506 00000KT P6SM SKC FM241500 18004KT P6SM
                       SCT010 FM241800 19005KT P6SM SCT200=
201209232320 TAF KBLI 232320Z 2400/2424 23005KT P6SM SKC FM240400 18003KT P6SM
                       SKC FM241500 18004KT P6SM SCT010 FM241800
                       19005KT P6SM SCT200=
201209231741 TAF KBLI 231741Z 2318/2418 00000KT P6SM OVC035 FM232100 19005KT
                       P6SM SCT040 FM232300 21005KT P6SM SKC FM240400
                       00000KT P6SM SKC=
201209231120 TAF KBLI 231120Z 2312/2412 00000KT P6SM OVC040 FM231900 18006KT
                       P6SM SCT040 SCT120 FM240200 00000KT P6SM
                       SKC=
201209230818 KBLI 230818Z 2308/2406 00000KT P6SM SKC FM230900 00000KT P6SM SCT040
                       TEMPO 2310/2314 BKN040 FM231900 18006KT
                       P6SM SCT120 FM240200 00000KT P6SM SKC=
201209230520 TAF KBLI 230520Z 2306/2406 00000KT P6SM SKC FM230900 00000KT P6SM
                       VCFG SCT001
                      TEMPO 2310/2314 1/2SM FG VV001 FM231600 00000KT
                       P6SM FEW025 SCT120 FM231900 18006KT P6SM
                       SCT120 FM240200 00000KT P6SM SKC=
201209222339 TAF KBLI 222339Z 2300/2324 17004KT P6SM SKC FM230400 00000KT P6SM
                       SKC
                      TEMPO 2310/2314 1SM BCFG BKN001 FM231400
                       00000KT P6SM BCFG BKN006 FM231700 18003KT
                       P6SM FEW020 FM232100 19005KT P6SM SCT250=
201209221741 TAF KBLI 221741Z 2218/2318 17006KT P6SM VCSH BKN040 OVC080 FM230100
                       18005KT P6SM SCT040 BKN100 FM230500 18005KT
                       P6SM SCT040 SCT100 FM231200 VRB03KT P6SM
                       BKN020=
201209221120 TAF KBLI 221120Z 2212/2312 17006KT P6SM OVC035 FM221500 18005KT
                       P6SM BKN020 OVC035 FM222200 20005KT P6SM
                       OVC035 FM230700 18005KT P6SM OVC025=
201209220811 KBLI 220811Z 2208/2306 16005KT P6SM OVC035 FM221200 17004KT P6SM
                       OVC025 FM222200 20005KT P6SM OVC035=
201209220520 TAF KBLI 220520Z 2206/2306 16004KT P6SM SCT026 OVC035 FM220800
                       17005KT P6SM OVC020 FM221200 17004KT P6SM
                       OVC012 FM221800 18005KT P6SM OVC020 FM222200
                       20005KT P6SM OVC035=
201209212322 TAF KBLI 212322Z 2200/2224 18007KT P6SM OVC028 FM220800 17005KT
                       P6SM OVC015 FM221100 17004KT P6SM OVC008
                       FM221800 18005KT P6SM OVC015 FM222100 20005KT
                       P6SM OVC025=
201209211726 TAF KBLI 211726Z 2118/2218 17006KT P6SM OVC016 FM212000 18007KT
                       P6SM OVC020 FM212200 18009KT P6SM BKN030
                       FM220100 18009KT P6SM BKN045 FM220800 18011KT
                       P6SM OVC015=
201209211417 KBLI 211417Z 2114/2212 17008KT P6SM OVC010 FM211800 18007KT P6SM
                       OVC020 FM212200 18011KT P6SM BKN025 FM220500
                       18011KT P6SM OVC015=
201209211322 KBLI 211322Z 2113/2212 17008KT 5SM BR BKN004 OVC007
                      TEMPO 2113/2117 2SM BR FM212000 18007KT P6SM
                       OVC012 FM212200 18011KT P6SM BKN025 FM220500
                       18011KT P6SM OVC015=
201209211301 KBLI 211301Z 2113/2212 17008KT 5SM BR OVC004 FM212000 18007KT P6SM
                       OVC012 FM212200 18011KT P6SM BKN025 FM220500
                       18011KT P6SM OVC015=
201209211120 TAF KBLI 211120Z 2112/2212 16011G16KT P6SM OVC004 FM211400 17009KT
                       P6SM OVC004 FM212000 18007KT P6SM OVC012
                       FM212200 18011KT P6SM BKN025 FM220500 18011KT
                       P6SM OVC015=
201209210832 KBLI 210832Z 2109/2206 16010G18KT P6SM BKN004 FM211100 17010KT
                       P6SM OVC004 FM212000 18007KT P6SM OVC012
                       FM212200 18011KT P6SM BKN025 FM220500 18011KT
                       P6SM OVC015=
201209210722 KBLI 210722Z 2107/2206 16012G19KT P6SM SKC FM210900 17010KT P6SM
                       OVC008
                      TEMPO 2112/2116 5SM BR OVC005 FM212000 18007KT
                       6SM HZ OVC012 FM212200 18011KT P6SM BKN025
                       FM220500 18011KT P6SM OVC015=
201209210528 TAF KBLI 210528Z 2106/2206 18014G20KT P6SM SKC FM210700 18010KT
                       P6SM OVC005
                      TEMPO 2112/2116 3SM BR OVC003 FM212000 18007KT
                       6SM HZ OVC012 FM212200 18011KT P6SM BKN025
                       FM220500 18011KT P6SM OVC015=
201209210303 KBLI 210303Z 2103/2124 18010KT P6SM SKC FM210600 18009KT 5SM BR
                       OVC005
                      TEMPO 2112/2116 3SM BR OVC003 FM212000 18007KT
                       6SM HZ OVC012 FM212200 18007KT P6SM BKN025=
201209202320 TAF KBLI 202320Z 2100/2124 25006KT P6SM SKC FM210900 18007KT 5SM
                       BR OVC005
                      TEMPO 2110/2114 1/2SM FG VV002 FM211900 18007KT
                       6SM HZ OVC012 FM212000 18007KT P6SM BKN025
                       FM212200 18007KT P6SM SCT030 BKN120 BKN200=
201209201721 TAF KBLI 201721Z 2018/2118 00000KT 1SM BR BKN002 FM201900 00000KT
                       6SM HZ VCFG SCT002 FM202000 VRB03KT P6SM
                       SKC FM211000 18007KT 4SM BR OVC004
                      TEMPO 2110/2114 1/2SM FG VV002=
201209201608 KBLI 201608Z 2016/2112 00000KT 1/2SM FG VV002 FM201800 VRB04KT
                       P6SM SKC FM210100 18007KT P6SM SKC FM210900
                       18008KT 3SM BR OVC005=
201209201211 KBLI 201211Z 2012/2112 00000KT 5SM BR BKN002
                      TEMPO 2012/2016 1/2SM FG VV001 FM201800 VRB04KT
                       P6SM SKC FM210100 18007KT P6SM SKC FM210900
                       18008KT 5SM BR OVC007=
201209201159 KBLI 201159Z 2012/2112 00000KT 5SM BR BKN002
                      TEMPO 2013/2016 1/2SM FG VV001 FM201800 VRB04KT
                       P6SM SKC FM210100 18007KT P6SM SKC FM210900
                       18008KT 5SM BR OVC007=
201209201120 TAF KBLI 201120Z 2012/2112 00000KT 1SM BR BKN002
                      TEMPO 2013/2016 1/2SM FG VV001 FM201800 VRB04KT
                       P6SM SKC FM210100 18007KT P6SM SKC FM210900
                       18008KT 5SM BR OVC007=
201209200947 KBLI 200947Z 2010/2106 00000KT 3SM BR SKC FM201200 18005KT 3SM
                       BR BKN003
                      TEMPO 2013/2016 1/2SM FG VV001 FM201700 VRB04KT
                       P6SM SKC FM210100 18007KT P6SM SKC=
201209200534 TAF KBLI 200534Z 2006/2106 00000KT P6SM SKC
                      TEMPO 2010/2013 4SM BR FM201300 18005KT 3SM
                       BR BKN003
                      TEMPO 2013/2016 1/2SM FG VV001 FM201700 VRB04KT
                       P6SM SKC FM210100 18007KT P6SM SKC=
201209192320 TAF KBLI 192320Z 2000/2024 VRB04KT P6SM SKC
                      TEMPO 2010/2013 4SM BR FM201300 18005KT 3SM
                       BR BKN003
                      TEMPO 2013/2016 1/2SM FG VV001 FM201700 VRB04KT
                       P6SM SCT120 SCT200=
201209191916 KBLI 191916Z 1919/2018 18007KT 6SM HZ SCT004 FM192100 18007KT P6SM
                       SKC FM201200 18005KT 3SM BR BKN003
                      TEMPO 2012/2016 1/4SM FG VV001 FM201700 VRB04KT
                       P6SM SCT120 SCT200=
201209191727 TAF KBLI 191727Z 1918/2018 18005KT 3SM BR BKN003
                      TEMPO 1918/1920 1/2SM FG VV002 FM192000 18005KT
                       P6SM SKC FM201200 18005KT 3SM BR BKN003
                       TEMPO 2012/2016 1/4SM FG VV001 FM201700
                       VRB04KT P6SM SCT120 SCT200=
201209191410 KBLI 191410Z 1914/2012 17008KT 3SM BR BKN003
                      TEMPO 1914/1917 1/4SM FG VV001 FM191800 19006KT
                       P6SM SKC=
201209191351 KBLI 191351Z 1914/2012 17008KT 6SM BR BKN003
                      TEMPO 1914/1917 2SM BR FM191800 19006KT P6SM
                       SKC=
201209191313 KBLI 191313Z 1913/2012 17008KT P6SM VCFG FEW003
                      TEMPO 1914/1917 2SM BR BKN003 FM191800 19006KT
                       P6SM SKC=
201209191120 TAF KBLI 191120Z 1912/2012 00000KT P6SM VCFG SKC FM191600 21004KT
                       P6SM SKC=
201209190532 TAF KBLI 190532Z 1906/2006 00000KT P6SM SKC
                      TEMPO 1910/1914 2SM BR FM192100 25006KT P6SM
                       SKC=
201209182320 TAF KBLI 182320Z 1900/1924 23004KT P6SM SKC FM190100 18003KT P6SM
                       SKC
                      TEMPO 1910/1914 2SM BR FM192100 25006KT P6SM
                       SKC=
201209181721 TAF KBLI 181721Z 1818/1918 21006KT P6SM SKC FM190100 18003KT P6SM
                       SKC=
201209181233 KBLI 181233Z 1813/1912 00000KT P6SM SKC
                      TEMPO 1813/1815 1SM MIFG FM182000 26006KT
                       P6SM SKC=
201209181120 TAF KBLI 181120Z 1812/1912 00000KT P6SM SKC
                      TEMPO 1812/1816 2SM BR SCT002 FM182000 26006KT
                       P6SM SKC=
201209180522 TAF KBLI 180522Z 1806/1906 00000KT P6SM SKC FM182000 26006KT P6SM
                       SKC=
201209172320 TAF KBLI 172320Z 1800/1824 28006KT P6SM SKC FM180200 00000KT P6SM
                       SKC FM182000 26006KT P6SM SKC=
201209171731 TAF KBLI 171731Z 1718/1818 01003KT P6SM SKC FM172000 28006KT P6SM
                       SKC FM180200 00000KT P6SM SKC=
201209171417 KBLI 171417Z 1714/1812 00000KT P6SM SKC
                      TEMPO 1714/1716 2SM BR FM172000 28006KT P6SM
                       SKC=
201209171120 TAF KBLI 171120Z 1712/1812 00000KT 3SM BR SKC
                      TEMPO 1712/1715 1/2SM FG FM172000 28006KT
                       P6SM SKC=
201209170942 KBLI 170942Z 1710/1806 00000KT P6SM SKC
                      TEMPO 1710/1714 1/2SM FG FM172000 28006KT
                       P6SM SKC=
201209170520 TAF KBLI 170520Z 1706/1806 00000KT P6SM SKC FM172000 28006KT P6SM
                       SKC=
201209162320 TAF KBLI 162320Z 1700/1724 28006KT P6SM SKC FM170300 VRB03KT P6SM
                       SKC FM172000 28006KT P6SM SKC=
201209161720 TAF KBLI 161720Z 1618/1718 36004KT P6SM SKC FM162100 31008KT P6SM
                       SKC FM170300 VRB03KT P6SM SKC=
201209161120 TAF KBLI 161120Z 1612/1712 00000KT P6SM SKC FM162000 29008KT P6SM
                       SKC=
201209160524 TAF KBLI 160524Z 1606/1706 00000KT P6SM SKC FM162000 29008KT P6SM
                       SKC=
201209152320 TAF KBLI 152320Z 1600/1624 28006KT P6SM SCT250 FM160300 VRB03KT
                       P6SM SKC FM162000 29008KT P6SM SKC=
201209151720 TAF KBLI 151720Z 1518/1618 17005KT P6SM SCT250 FM152200 27008KT
                       P6SM SCT250 FM160300 00000KT P6SM SKC=
201209151120 TAF KBLI 151120Z 1512/1612 00000KT P6SM SKC FM151800 33008KT P6SM
                       SKC=
201209150520 TAF KBLI 150520Z 1506/1606 00000KT P6SM SCT250 FM151800 33008KT
                       P6SM SKC=
201209142320 TAF KBLI 142320Z 1500/1524 28006KT P6SM SCT250 FM151000 VRB03KT
                       P6SM BKN200 FM151800 33007KT P6SM SCT200=
201209141720 TAF KBLI 141720Z 1418/1518 VRB03KT P6SM SCT100 SCT250 FM151200
                       21005KT P6SM SCT005 BKN200=
201209141120 TAF KBLI 141120Z 1412/1512 00000KT 6SM MIFG FEW250
                      TEMPO 1412/1415 2SM MIFG FM141600 VRB03KT
                       P6SM SCT250 FM142000 22006KT P6SM SCT250
                       FM150700 VRB03KT 4SM BR SCT250 FM150900
                       VRB03KT 3/4SM BR VV002=
201209140907 KBLI 140907Z 1409/1506 00000KT 4SM MIFG SKC
                      TEMPO 1409/1413 1/2SM FG VV001 FM141600 VRB03KT
                       P6SM SCT250 FM142000 22006KT P6SM SCT250
                       FM150100 19004KT P6SM SCT250=
201209140748 KBLI 140748Z 1408/1506 00000KT 5SM MIFG SKC
                      TEMPO 1408/1412 1SM MIFG FM141600 VRB03KT
                       P6SM SCT250 FM142000 22006KT P6SM SCT250
                       FM150100 19004KT P6SM SCT250=
201209140520 TAF KBLI 140520Z 1406/1506 00000KT P6SM SKC FM140900 00000KT P6SM
                       MIFG SKC FM141600 VRB03KT P6SM SCT250 FM142000
                       22006KT P6SM SCT250 FM150100 19004KT P6SM
                       SCT250=
201209132320 TAF KBLI 132320Z 1400/1424 27007KT P6SM FEW070 FM140200 VRB03KT
                       P6SM SKC FM141200 VRB03KT P6SM VCFG SCT001
                       TEMPO 1412/1415 3SM BR SCT001 FM141700 VRB03KT
                       P6SM SKC FM142000 20005KT P6SM SKC=
201209131720 TAF KBLI 131720Z 1318/1418 03006KT P6SM SKC FM132000 32006KT P6SM
                       SCT070 FM132200 25006KT P6SM SCT070 FM140100
                       VRB03KT P6SM SKC FM141200 VRB03KT P6SM VCFG
                       SCT001
                      TEMPO 1412/1415 2SM BR BKN001 FM141700 VRB03KT
                       P6SM SKC=
201209131131 TAF KBLI 131131Z 1312/1412 00000KT P6SM SKC FM131500 03006KT P6SM
                       SKC FM132000 32006KT P6SM SCT070 FM132200
                       25006KT P6SM SCT070 FM140100 VRB03KT P6SM
                       SKC=
201209130521 TAF KBLI 130521Z 1306/1406 00000KT P6SM SKC FM131500 03006KT P6SM
                       SKC FM132000 32006KT P6SM SKC FM132200 25006KT
                       P6SM SKC FM140100 VRB03KT P6SM SKC=
201209122320 TAF KBLI 122320Z 1300/1324 29007KT P6SM SKC FM130300 00000KT P6SM
                       SKC FM131300 VRB03KT P6SM SKC FM131900 30006KT
                       P6SM SKC=
201209121721 TAF KBLI 121721Z 1218/1318 02008KT P6SM SKC FM122100 31008KT P6SM
                       SKC FM130300 00000KT P6SM SKC FM131300 VRB03KT
                       P6SM SKC=
201209121213 TAF KBLI 121213Z 1212/1312 VRB03KT P6SM SKC FM121500 02006KT P6SM
                       SKC FM122100 31006KT P6SM SKC FM130000 VRB03KT
                       P6SM SKC=
201209120525 TAF KBLI 120525Z 1206/1306 00000KT P6SM BCFG SKC FM121500 02006KT
                       P6SM SKC FM122100 31006KT P6SM SKC FM130000
                       VRB03KT P6SM SKC=
201209120307 KBLI 120307Z 1203/1224 VRB03KT P6SM SKC FM121800 27007KT P6SM SKC=
201209112320 TAF KBLI 112320Z 1200/1224 28008KT P6SM SKC FM120600 VRB03KT P6SM
                       SKC FM121800 27007KT P6SM SKC=
201209111721 TAF KBLI 111721Z 1118/1218 17008KT P6SM FEW022 SCT035 FM112000
                       21008KT P6SM SKC FM120100 VRB03KT P6SM SKC=
201209111127 TAF KBLI 111127Z 1112/1212 VRB03KT P6SM BKN025 FM111700 17006KT
                       P6SM SCT028 FM111800 17006KT P6SM SKC FM112000
                       21008KT P6SM SKC FM120100 VRB03KT P6SM SKC=
201209111041 KBLI 111041Z 1111/1206 00000KT P6SM BKN025 FM111700 17006KT P6SM
                       SKC FM112000 21008KT P6SM SKC FM120100 VRB03KT
                       P6SM SKC=
201209110837 KBLI 110837Z 1109/1206 00000KT P6SM MIFG SCT025
                      TEMPO 1109/1111 BKN025 FM111200 VRB03KT P6SM
                       MIFG FEW022 FM111700 17006KT P6SM SKC FM112000
                       21008KT P6SM SKC FM120100 VRB03KT P6SM SKC=
201209110546 TAF KBLI 110546Z 1106/1206 00000KT P6SM SCT035 SCT090
                      TEMPO 1106/1108 SCT035 BKN090 FM111200 VRB03KT
                       P6SM MIFG FEW035 FM111700 17006KT P6SM SKC
                       FM112000 21008KT P6SM SKC FM120100 VRB03KT
                       P6SM SKC=
201209102320 TAF KBLI 102320Z 1100/1124 17007KT P6SM SCT040 FM111200 VRB03KT
                       P6SM VCFG SCT005 FM111700 VRB03KT P6SM SCT030=
201209101720 TAF KBLI 101720Z 1018/1118 18008KT P6SM SCT040 FM102100 21007KT
                       P6SM BKN050 FM110000 21007KT P6SM SCT050
                       FM111200 VRB03KT P6SM VCFG SCT005 FM111700
                       VRB03KT P6SM SCT030=
201209101145 TAF KBLI 101145Z 1012/1112 VRB03KT P6SM SCT050 FM101900 21006KT
                       P6SM SCT050=
201209100541 TAF KBLI 100541Z 1006/1106 17012G18KT P6SM -RA OVC021 FM100800
                       20012KT P6SM SCT022 BKN035 OVC050 FM101500
                       18008KT P6SM BKN040 FM102200 21006KT P6SM
                       SCT050=
201209092320 TAF KBLI 092320Z 1000/1024 18010G18KT P6SM VCSH SCT025 OVC050 FM100600
                       14014G22KT P6SM -RA SCT025 OVC030 FM101000
                       18014KT P6SM -SHRA OVC030 FM101400 18008KT
                       P6SM VCSH BKN040=
201209092016 KBLI 092016Z 0920/1018 18012G20KT P6SM SCT025 BKN045 OVC070 FM100600
                       14014G22KT P6SM -RA SCT025 OVC030 FM101000
                       18014KT P6SM -SHRA OVC030 FM101400 18008KT
                       P6SM VCSH BKN040=
201209091725 TAF KBLI 091725Z 0918/1018 18010KT P6SM OVC040 FM100600 14014KT
                       P6SM -RA SCT025 OVC030 FM101000 18014KT
                       P6SM -SHRA OVC030 FM101400 18008KT P6SM
                       VCSH BKN040=
201209091139 TAF KBLI 091139Z 0912/1012 18010KT P6SM OVC035 FM100900 14014KT
                       P6SM -RA OVC030=
201209090907 KBLI 090907Z 0909/1006 18010KT P6SM OVC025 FM092000 20010KT P6SM
                       OVC035=
201209090536 TAF KBLI 090536Z 0906/1006 18012KT P6SM SCT150 FM091100 20010KT
                       P6SM OVC022 FM092000 20010KT P6SM OVC035=
201209082320 TAF KBLI 082320Z 0900/0924 VRB04KT P6SM SCT200 FM090200 20008KT
                       P6SM SCT200 FM091200 20008KT P6SM OVC004
                       FM091800 20010G18KT P6SM OVC011=
201209081720 TAF KBLI 081720Z 0818/0918 VRB03KT P6SM FEW120 FEW200 FM090200
                       20008KT P6SM FEW200 FM091200 20008KT P6SM
                       OVC011=
201209081134 TAF KBLI 081134Z 0812/0912 VRB03KT P6SM SKC
                      TEMPO 0812/0813 1SM BR VV002 FM090200 20008KT
                       P6SM SKC FM091100 20008KT P6SM OVC011=
201209080536 TAF KBLI 080536Z 0806/0906 00000KT P6SM SKC FM081800 VRB04KT P6SM
                       SKC FM090200 20008KT P6SM SKC=
201209072320 TAF KBLI 072320Z 0800/0824 28006KT P6SM SKC FM080500 00000KT P6SM
                       SKC FM081800 VRB04KT P6SM SKC=
201209071720 TAF KBLI 071720Z 0718/0818 VRB04KT P6SM SKC FM072000 28006KT P6SM
                       SKC FM080200 00000KT P6SM SKC=
201209071127 TAF KBLI 071127Z 0712/0812 00000KT P6SM SKC FM072000 28006KT P6SM
                       SKC FM080200 00000KT P6SM SKC=
201209070522 TAF KBLI 070522Z 0706/0806 VRB03KT P6SM SKC FM072000 28006KT P6SM
                       SKC FM080200 VRB03KT P6SM SKC=
201209062320 TAF KBLI 062320Z 0700/0724 28008KT P6SM SKC FM070400 VRB03KT P6SM
                       SKC FM072000 28006KT P6SM SKC=
201209061934 KBLI 061934Z 0620/0718 01008KT P6SM SKC FM062200 29008KT P6SM SKC
                       FM070400 00000KT P6SM SKC=
201209061720 TAF KBLI 061720Z 0618/0718 00000KT P6SM SKC FM062100 29008KT P6SM
                       SKC FM070400 00000KT P6SM SKC=
201209061126 TAF KBLI 061126Z 0612/0712 00000KT P6SM SKC
                      TEMPO 0612/0614 5SM BR FM062100 29008KT P6SM
                       SKC FM070400 00000KT P6SM SKC=
201209060532 TAF KBLI 060532Z 0606/0706 00000KT P6SM SKC FM062100 29008KT P6SM
                       SKC=
201209052320 TAF KBLI 052320Z 0600/0624 28005KT P6SM SCT250 FM060400 03003KT
                       P6SM SKC FM062000 30008KT P6SM SKC FM062200
                       33009KT P6SM SKC=
201209051720 TAF KBLI 051720Z 0518/0618 19003KT P6SM FEW008
                      TEMPO 0518/0519 BKN008 FM051900 26007KT P6SM
                       SKC FM060400 00000KT P6SM SKC=
201209051120 TAF KBLI 051120Z 0512/0612 19003KT P6SM FEW003
                      TEMPO 0512/0516 2SM BR FM051900 26007KT P6SM
                       SKC FM060300 00000KT P6SM SKC=
201209050520 TAF KBLI 050520Z 0506/0606 00000KT P6SM SKC FM051400 VRB03KT P6SM
                       SCT007 FM051900 26007KT P6SM SKC FM060300
                       00000KT P6SM SKC=
201209042320 TAF KBLI 042320Z 0500/0524 26007KT P6SM SKC FM050300 VRB03KT P6SM
                       SKC FM051400 VRB03KT P6SM SCT007 FM051900
                       26007KT P6SM SKC=
201209041733 TAF KBLI 041733Z 0418/0518 VRB04KT P6SM FEW010 FM042000 24006KT
                       P6SM SKC FM050300 VRB03KT P6SM SKC FM051400
                       VRB03KT P6SM SCT007=
201209041502 KBLI 041502Z 0415/0512 00000KT P6SM BCFG FEW011
                      TEMPO 0415/0417 4SM BR BKN011 FM042000 26006KT
                       P6SM SKC FM050300 VRB03KT P6SM SKC=
201209041441 KBLI 041441Z 0415/0512 00000KT P6SM BCFG FEW012 FM042000 26006KT
                       P6SM SKC FM050300 VRB03KT P6SM SKC=
201209041120 TAF KBLI 041120Z 0412/0512 00000KT P6SM SKC FM042000 26006KT P6SM
                       SKC FM050300 VRB03KT P6SM SKC=
201209040520 TAF KBLI 040520Z 0406/0506 00000KT P6SM SKC FM041200 00000KT P6SM
                       SCT005
                      TEMPO 0412/0416 BKN005 FM042000 26006KT P6SM
                       SKC FM050300 VRB03KT P6SM SKC=
201209032320 TAF KBLI 032320Z 0400/0424 24005KT P6SM SKC FM040300 00000KT P6SM
                       SKC FM041200 00000KT P6SM SCT005
                      TEMPO 0412/0416 BKN005 FM042000 26006KT P6SM
                       SKC=
201209031739 TAF KBLI 031739Z 0318/0418 18005KT P6SM SCT010 FM032100 21007KT
                       P6SM SKC FM040300 00000KT P6SM SKC FM041200
                       00000KT P6SM SCT005
                      TEMPO 0413/0416 BKN005=
201209031120 TAF KBLI 031120Z 0312/0412 00000KT 5SM BR FEW004
                      TEMPO 0312/0316 2SM BR BKN004 FM031700 20006KT
                       P6SM SCT250 FM040100 17004KT P6SM SKC=
201209030523 TAF KBLI 030523Z 0306/0406 16004KT P6SM SCT250 FM031100 16003KT
                       P6SM SCT025
                      TEMPO 0313/0317 BKN025 FM031900 21007KT P6SM
                       SCT250 FM040100 17004KT P6SM SKC=
201209022332 TAF KBLI 022332Z 0300/0324 18007KT P6SM FEW200 FM030200 17004KT
                       P6SM SKC FM031100 16003KT P6SM SCT025
                      TEMPO 0313/0317 BKN025 FM031900 21007KT P6SM
                       FEW035=
201209021749 TAF KBLI 021749Z 0218/0318 16008KT P6SM SCT100 BKN200 FM030100
                       17004KT P6SM SCT120 FM031000 16003KT P6SM
                       SCT018 BKN030=
201209021120 TAF KBLI 021120Z 0212/0312 17006KT P6SM SCT090 SCT200 FM021400
                       17006KT P6SM BKN080 FM021800 17009KT P6SM
                       BKN060 FM030200 17004KT P6SM SCT070 SCT150=
201209020527 TAF KBLI 020527Z 0206/0306 16006KT P6SM FEW100 SCT200 FM021300
                       17005KT P6SM SCT010 SCT090 FM021900 17009KT
                       P6SM FEW080 SCT200 FM030200 17004KT P6SM
                       SCT250=
201209012320 TAF KBLI 012320Z 0200/0224 17009KT P6SM SKC FM020600 17005KT P6SM
                       FEW200 FM021300 17005KT P6SM SCT010 BKN080
                       FM021900 17009KT P6SM SCT020 SCT080=
201209011741 TAF KBLI 011741Z 0118/0218 17010KT P6SM SKC FM020600 17004KT P6SM
                       SKC FM021300 17006KT P6SM SCT020 SCT080=
201209011120 TAF KBLI 011120Z 0112/0212 17006KT P6SM SKC FM011700 18006KT P6SM
                       SCT040 FM020100 17005KT P6SM SKC=
201209010528 TAF KBLI 010528Z 0106/0206 00000KT P6SM SKC FM011700 18006KT P6SM
                       SCT040 FM020100 17005KT P6SM SKC=