##########################################################
# Query made at 02/16/2025 19:58:28 UTC
# Time interval: from 04/01/2012 00:00  to 04/30/2012 23:59  UTC
##########################################################

##########################################################
# KBLI, Bellingham, Bellingham International Airport (United States)
# WMO index: -----. WIGOS ID: Unknown
# Latitude 48-47-58N. Longitude 122-32-21W. Altitude 48 m.
##########################################################

###################################
#  METAR/SPECI from KBLI
###################################
201204302353 METAR KBLI 302353Z VRB04KT 10SM BKN110 12/05 A2972 RMK AO2 SLP069 60000 T01220050 10122 20106 53012=
201204302253 METAR KBLI 302253Z 16008KT 10SM FEW037 OVC048 12/07 A2970 RMK AO2 SLP064 T01170067=
201204302153 METAR KBLI 302153Z 17007KT 10SM FEW033 OVC055 11/07 A2969 RMK AO2 RAB16E43 SLP059 P0000 T01110072=
201204302100 SPECI KBLI 302100Z 16006KT 10SM OVC033 12/07 A2968 RMK AO2=
201204302100 SPECI KBLI 302100Z 16006KT 10SM OVC033 12/07 A2968 RMK AO2=
201204302053 METAR KBLI 302053Z 16006KT 10SM BKN027 OVC033 11/07 A2968 RMK AO2 SLP057 60000 T01110067 51014=
201204301953 METAR KBLI 301953Z VRB05KT 10SM BKN025 BKN044 OVC050 11/07 A2967 RMK AO2 SLP055 T01110067=
201204301933 SPECI KBLI 301933Z 18006KT 10SM SCT022 BKN042 OVC055 12/08 A2967 RMK AO2=
201204301933 SPECI KBLI 301933Z 18006KT 10SM SCT022 BKN042 OVC055 12/08 A2967 RMK AO2=
201204301910 SPECI KBLI 301910Z 16008KT 10SM BKN024 BKN031 OVC090 11/08 A2966 RMK AO2=
201204301910 SPECI KBLI 301910Z 16008KT 10SM BKN024 BKN031 OVC090 11/08 A2966 RMK AO2=
201204301853 METAR KBLI 301853Z 16010KT 10SM SCT025 OVC085 11/08 A2966 RMK AO2 RAB32E43 SLP049 P0000 T01110078=
201204301839 SPECI KBLI 301839Z 17009G14KT 10SM -RA FEW020 SCT025 OVC080 11/08 A2965 RMK AO2 RAB32 P0000=
201204301839 SPECI KBLI 301839Z 17009G14KT 10SM -RA FEW020 SCT025 OVC080 11/08 A2965 RMK AO2 RAB32 P0000=
201204301809 SPECI KBLI 301809Z 17007KT 10SM FEW008 BKN018 OVC033 11/08 A2965 RMK AO2=
201204301809 SPECI KBLI 301809Z 17007KT 10SM FEW008 BKN018 OVC033 11/08 A2965 RMK AO2=
201204301800 SPECI KBLI 301800Z 17008G15KT 10SM FEW010 BKN021 OVC075 11/08 A2964 RMK AO2=
201204301800 SPECI KBLI 301800Z 17008G15KT 10SM FEW010 BKN021 OVC075 11/08 A2964 RMK AO2=
201204301753 METAR KBLI 301753Z 16010G15KT 10SM SCT010 BKN031 OVC070 11/09 A2964 RMK AO2 RAB1659E25 SLP043 P0000 60016 T01060089 10106 20083 53005=
201204301653 METAR KBLI 301653Z 16012G17KT 10SM BKN014 OVC019 10/08 A2962 RMK AO2 RAE19 SLP038 P0001 T01000078=
201204301553 METAR KBLI 301553Z 15009KT 10SM -RA OVC014 10/08 A2962 RMK AO2 SLP037 P0001 T01000078=
201204301453 METAR KBLI 301453Z 15006KT 7SM -RA BKN014 BKN023 OVC060 09/07 A2963 RMK AO2 SLP039 P0003 60014 T00890072 58004=
201204301353 METAR KBLI 301353Z 16009G17KT 10SM -RA BKN014 BKN036 OVC044 09/07 A2963 RMK AO2 SLP041 P0006 T00890067=
201204301303 SPECI KBLI 301303Z AUTO 15009KT 6SM -RA BR BKN016 BKN020 OVC031 08/07 A2963 RMK AO2 P0002=
201204301303 SPECI KBLI 301303Z AUTO 15009KT 6SM -RA BR BKN016 BKN020 OVC031 08/07 A2963 RMK AO2 P0002=
201204301253 METAR KBLI 301253Z AUTO 16010G17KT 7SM -RA SCT016 OVC031 08/07 A2964 RMK AO2 SLP042 P0005 T00830067=
201204301249 SPECI KBLI 301249Z AUTO 16010G17KT 8SM -RA FEW016 OVC031 08/07 A2964 RMK AO2 P0005=
201204301249 SPECI KBLI 301249Z AUTO 16010G17KT 8SM -RA FEW016 OVC031 08/07 A2964 RMK AO2 P0005=
201204301153 METAR KBLI 301153Z AUTO 15012G22KT 10SM -RA OVC020 09/06 A2964 RMK AO2 RAB05E14B38 SLP044 P0000 60003 70005 T00890056 10111 20089 56017=
201204301053 METAR KBLI 301053Z AUTO 16012G22KT 10SM OVC022 09/06 A2965 RMK AO2 RAB10E28 SLP046 P0000 T00940056=
201204301020 SPECI KBLI 301020Z AUTO 16015G23KT 10SM -RA BKN024 OVC030 10/06 A2965 RMK AO2 RAB10 P0000=
201204301020 SPECI KBLI 301020Z AUTO 16015G23KT 10SM -RA BKN024 OVC030 10/06 A2965 RMK AO2 RAB10 P0000=
201204300953 METAR KBLI 300953Z AUTO 15014G23KT 10SM FEW032 OVC055 10/07 A2966 RMK AO2 PK WND 15026/0939 RAE15 SLP051 P0000 T01000067=
201204300930 SPECI KBLI 300930Z AUTO 15015G22KT 10SM SCT017 OVC055 10/07 A2967 RMK AO2 RAE15 P0000=
201204300930 SPECI KBLI 300930Z AUTO 15015G22KT 10SM SCT017 OVC055 10/07 A2967 RMK AO2 RAE15 P0000=
201204300853 METAR KBLI 300853Z AUTO 15011G19KT 10SM -RA BKN019 BKN027 OVC050 11/07 A2969 RMK AO2 RAE19B42 SLP061 P0000 60003 T01060072 56022=
201204300850 SPECI KBLI 300850Z AUTO 15010KT 10SM -RA BKN021 BKN027 OVC050 11/08 A2970 RMK AO2 RAE19B42 P0000=
201204300850 SPECI KBLI 300850Z AUTO 15010KT 10SM -RA BKN021 BKN027 OVC050 11/08 A2970 RMK AO2 RAE19B42 P0000=
201204300753 METAR KBLI 300753Z AUTO 16006KT 9SM -RA OVC055 10/09 A2972 RMK AO2 SLP071 P0002 T01000089 401560100=
201204300740 SPECI KBLI 300740Z AUTO 17007KT 7SM -RA SCT012 OVC060 10/09 A2973 RMK AO2 P0002=
201204300740 SPECI KBLI 300740Z AUTO 17007KT 7SM -RA SCT012 OVC060 10/09 A2973 RMK AO2 P0002=
201204300704 SPECI KBLI 300704Z AUTO 16006KT 10SM -RA OVC010 10/09 A2975 RMK AO2 CIG 007V012 P0000=
201204300704 SPECI KBLI 300704Z AUTO 16006KT 10SM -RA OVC010 10/09 A2975 RMK AO2 CIG 007V012 P0000=
201204300653 METAR KBLI 300653Z AUTO VRB06KT 9SM -RA BKN008 BKN015 OVC022 11/09 A2976 RMK AO2 RAB12 CIG 007V013 SLP083 P0001 T01110094=
201204300645 SPECI KBLI 300645Z AUTO 17005KT 9SM -RA SCT008 BKN017 OVC025 11/10 A2976 RMK AO2 RAB12 P0001=
201204300645 SPECI KBLI 300645Z AUTO 17005KT 9SM -RA SCT008 BKN017 OVC025 11/10 A2976 RMK AO2 RAB12 P0001=
201204300612 SPECI KBLI 300612Z AUTO 00000KT 10SM -RA BKN028 BKN037 OVC070 11/10 A2977 RMK AO2 RAB12 P0000=
201204300612 SPECI KBLI 300612Z AUTO 00000KT 10SM -RA BKN028 BKN037 OVC070 11/10 A2977 RMK AO2 RAB12 P0000=
201204300553 METAR KBLI 300553Z AUTO 04004KT 10SM FEW030 BKN036 OVC070 11/10 A2978 RMK AO2 RAE16 SLP090 P0001 60002 T01110100 10144 20106 58036=
201204300453 METAR KBLI 300453Z 00000KT 8SM -RA SCT039 SCT049 OVC060 11/11 A2982 RMK AO2 RAB08 SLP105 P0001 T01110106=
201204300353 METAR KBLI 300353Z 00000KT 10SM SCT070 OVC110 12/09 A2986 RMK AO2 SLP117 T01170089=
201204300253 METAR KBLI 300253Z 00000KT 10SM BKN075 BKN110 13/09 A2989 RMK AO2 SLP127 T01280089 58034=
201204300153 METAR KBLI 300153Z 00000KT 10SM OVC075 13/09 A2992 RMK AO2 SLP140 T01330089=
201204300053 METAR KBLI 300053Z VRB03KT 10SM FEW070 14/08 A2996 RMK AO2 SLP152 T01390083=
201204292353 METAR KBLI 292353Z VRB04KT 10SM CLR 14/08 A2998 RMK AO2 SLP161 T01440083 10156 20122 56026=
201204292253 METAR KBLI 292253Z 24005KT 10SM FEW021 15/09 A3001 RMK AO2 SLP170 T01500089=
201204292153 METAR KBLI 292153Z 17007KT 150V210 10SM FEW070 15/09 A3003 RMK AO2 SLP177 T01500094=
201204292053 METAR KBLI 292053Z VRB04KT 10SM SCT017 OVC070 14/09 A3006 RMK AO2 SLP187 T01440089 58020=
201204292044 SPECI KBLI 292044Z VRB06KT 10SM SCT017 OVC070 14/09 A3007 RMK AO2=
201204292044 SPECI KBLI 292044Z VRB06KT 10SM SCT017 OVC070 14/09 A3007 RMK AO2=
201204291953 METAR KBLI 291953Z 00000KT 10SM SCT012 BKN017 OVC070 14/09 A3008 RMK AO2 SLP194 T01390089=
201204291901 SPECI KBLI 291901Z 17004KT 10SM BKN012 BKN018 OVC041 13/09 A3011 RMK AO2=
201204291901 SPECI KBLI 291901Z 17004KT 10SM BKN012 BKN018 OVC041 13/09 A3011 RMK AO2=
201204291853 METAR KBLI 291853Z 26003KT 10SM SCT012 BKN017 OVC041 13/09 A3011 RMK AO2 SLP203 T01280094=
201204291810 SPECI KBLI 291810Z 00000KT 9SM FEW010 BKN016 OVC070 13/09 A3011 RMK AO2=
201204291810 SPECI KBLI 291810Z 00000KT 9SM FEW010 BKN016 OVC070 13/09 A3011 RMK AO2=
201204291753 METAR KBLI 291753Z 00000KT 9SM OVC012 12/09 A3012 RMK AO2 SLP207 60000 T01220094 10122 20100 57010=
201204291725 SPECI KBLI 291725Z 00000KT 9SM BKN009 OVC012 12/09 A3012 RMK AO2=
201204291725 SPECI KBLI 291725Z 00000KT 9SM BKN009 OVC012 12/09 A3012 RMK AO2=
201204291717 SPECI KBLI 291717Z 00000KT 8SM BKN011 OVC019 12/09 A3012 RMK AO2=
201204291717 SPECI KBLI 291717Z 00000KT 8SM BKN011 OVC019 12/09 A3012 RMK AO2=
201204291653 METAR KBLI 291653Z 00000KT 6SM BR BKN009 OVC019 12/09 A3012 RMK AO2 SLP208 T01170094=
201204291635 SPECI KBLI 291635Z 00000KT 6SM BR BKN009 OVC017 12/09 A3013 RMK AO2=
201204291635 SPECI KBLI 291635Z 00000KT 6SM BR BKN009 OVC017 12/09 A3013 RMK AO2=
201204291553 METAR KBLI 291553Z 00000KT 6SM BR FEW006 OVC017 11/09 A3015 RMK AO2 SLP216 CIG VIS LWR N T01110089=
201204291548 SPECI KBLI 291548Z 00000KT 7SM FEW006 OVC017 11/09 A3015 RMK AO2 CIG VIS LWR N=
201204291548 SPECI KBLI 291548Z 00000KT 7SM FEW006 OVC017 11/09 A3015 RMK AO2 CIG VIS LWR N=
201204291453 METAR KBLI 291453Z 00000KT 10SM OVC015 10/09 A3016 RMK AO2 SLP219 60000 T01000089 55001=
201204291431 SPECI KBLI 291431Z 00000KT 10SM OVC011 10/08 A3016 RMK AO2=
201204291431 SPECI KBLI 291431Z 00000KT 10SM OVC011 10/08 A3016=
201204291353 METAR KBLI 291353Z 00000KT 8SM BKN009 OVC030 10/09 A3016 RMK AO2 SLP219 T01000089=
201204291336 SPECI KBLI 291336Z AUTO 00000KT 6SM BR SCT009 BKN030 OVC039 10/09 A3015 RMK AO2=
201204291336 SPECI KBLI 291336Z AUTO 00000KT 6SM BR SCT009 BKN030 OVC039 10/09 A3015 RMK AO2=
201204291306 SPECI KBLI 291306Z AUTO 00000KT 6SM BR BKN007 BKN029 OVC035 10/09 A3015 RMK AO2=
201204291306 SPECI KBLI 291306Z AUTO 00000KT 6SM BR BKN007 BKN029 OVC035 10/09 A3015 RMK AO2=
201204291253 METAR KBLI 291253Z AUTO 00000KT 7SM SCT007 OVC029 10/09 A3016 RMK AO2 RAB02E13 SLP218 P0000 T01000089=
201204291207 SPECI KBLI 291207Z AUTO 00000KT 3SM -RA BR BKN005 OVC026 10/09 A3016 RMK AO2 RAB02 P0000=
201204291207 SPECI KBLI 291207Z AUTO 00000KT 3SM -RA BR BKN005 OVC026 10/09 A3016 RMK AO2 RAB02 P0000=
201204291153 METAR KBLI 291153Z AUTO 00000KT 4SM BR FEW005 OVC026 10/09 A3016 RMK AO2 SLP220 60000 70001 T01000094 10111 20100 58011=
201204291118 SPECI KBLI 291118Z AUTO 00000KT 4SM BR FEW005 OVC026 10/09 A3017 RMK AO2=
201204291118 SPECI KBLI 291118Z AUTO 00000KT 4SM BR FEW005 OVC026 10/09 A3017 RMK AO2=
201204291053 METAR KBLI 291053Z AUTO 00000KT 4SM BR OVC026 10/09 A3017 RMK AO2 SLP224 T01000094=
201204290953 METAR KBLI 290953Z AUTO 00000KT 4SM BR OVC026 10/09 A3019 RMK AO2 RAE04 SLP230 P0000 T01000089=
201204290930 SPECI KBLI 290930Z AUTO 00000KT 4SM BR OVC028 10/09 A3019 RMK AO2 RAE04 P0000=
201204290930 SPECI KBLI 290930Z AUTO 00000KT 4SM BR OVC028 10/09 A3019 RMK AO2 RAE04 P0000=
201204290918 SPECI KBLI 290918Z AUTO 00000KT 7SM BKN030 BKN049 OVC065 10/09 A3019 RMK AO2 RAE04 P0000=
201204290918 SPECI KBLI 290918Z AUTO 00000KT 7SM BKN030 BKN049 OVC065 10/09 A3019 RMK AO2 RAE04 P0000=
201204290853 METAR KBLI 290853Z AUTO 00000KT 7SM -RA OVC028 10/09 A3019 RMK AO2 RAB49 SLP231 P0000 60000 T01000094 55005=
201204290820 SPECI KBLI 290820Z AUTO 00000KT 7SM BKN028 OVC041 10/09 A3020 RMK AO2=
201204290820 SPECI KBLI 290820Z AUTO 00000KT 7SM BKN028 OVC041 10/09 A3020 RMK AO2=
201204290753 METAR KBLI 290753Z AUTO 00000KT 7SM SCT048 OVC065 10/09 A3019 RMK AO2 RAE0657 SLP231 P0000 T01000089 401440083=
201204290653 METAR KBLI 290653Z AUTO 00000KT 9SM -RA FEW049 OVC060 11/09 A3020 RMK AO2 RAB0555 SLP233 P0000 T01060089=
201204290553 METAR KBLI 290553Z AUTO 05005KT 10SM OVC049 11/08 A3021 RMK AO2 SLP237 60001 T01110083 10139 20106 56000=
201204290453 METAR KBLI 290453Z 02003KT 10SM OVC049 11/09 A3021 RMK AO2 SLP237 T01110089=
201204290353 METAR KBLI 290353Z 01003KT 10SM OVC060 11/09 A3021 RMK AO2 RAB01E11 SLP236 P0000 T01110089=
201204290253 METAR KBLI 290253Z 01003KT 10SM SCT050 OVC065 12/09 A3021 RMK AO2 SLP237 60001 T01220089 58005=
201204290153 METAR KBLI 290153Z 00000KT 10SM OVC045 13/09 A3022 RMK AO2 RAB02E34 SLP241 P0001 T01280089=
201204290053 METAR KBLI 290053Z 00000KT 10SM BKN038 OVC049 14/06 A3023 RMK AO2 SLP243 T01390061=
201204282353 METAR KBLI 282353Z 00000KT 10SM SCT038 OVC055 14/06 A3022 RMK AO2 SLP242 T01390061 10144 20122 56008=
201204282253 METAR KBLI 282253Z 30003KT 10SM FEW039 OVC055 14/06 A3023 RMK AO2 SLP243 T01390061=
201204282153 METAR KBLI 282153Z 00000KT 10SM FEW036 OVC055 14/06 A3024 RMK AO2 SLP247 T01440056=
201204282053 METAR KBLI 282053Z VRB03KT 10SM OVC060 13/05 A3025 RMK AO2 SLP250 T01330050 57006=
201204281953 METAR KBLI 281953Z 16006KT 10SM FEW041 OVC060 13/06 A3025 RMK AO2 SLP251 T01330056=
201204281853 METAR KBLI 281853Z 15005KT 10SM FEW041 OVC060 13/06 A3026 RMK AO2 SLP255 T01330056=
201204281753 METAR KBLI 281753Z 16007KT 10SM SCT029 BKN033 13/05 A3027 RMK AO2 SLP256 T01280050 10128 20083 55001=
201204281653 METAR KBLI 281653Z 18005KT 10SM BKN029 OVC036 12/04 A3026 RMK AO2 SLP256 T01170044=
201204281649 SPECI KBLI 281649Z VRB04KT 10SM BKN029 OVC034 12/05 A3026 RMK AO2=
201204281649 SPECI KBLI 281649Z VRB04KT 10SM BKN029 OVC034 12/05 A3026 RMK AO2=
201204281553 METAR KBLI 281553Z 00000KT 10SM OVC034 11/06 A3027 RMK AO2 SLP257 T01110061=
201204281453 METAR KBLI 281453Z 00000KT 10SM OVC032 09/06 A3027 RMK AO2 SLP258 T00940061 53002=
201204281353 METAR KBLI 281353Z 00000KT 10SM OVC030 09/06 A3027 RMK AO2 SLP257 T00890061=
201204281253 METAR KBLI 281253Z AUTO 36003KT 10SM OVC030 08/07 A3026 RMK AO2 SLP254 T00830067=
201204281153 METAR KBLI 281153Z AUTO 00000KT 10SM OVC028 09/06 A3027 RMK AO2 SLP256 T00890061 10100 20083 53000=
201204281053 METAR KBLI 281053Z AUTO 15004KT 10SM OVC030 10/04 A3026 RMK AO2 SLP254 T01000044=
201204280953 METAR KBLI 280953Z AUTO 16007KT 10SM FEW027 SCT070 OVC085 10/04 A3027 RMK AO2 SLP256 T01000044=
201204280853 METAR KBLI 280853Z AUTO 00000KT 10SM SCT075 OVC090 08/06 A3026 RMK AO2 SLP255 T00830061 50000=
201204280753 METAR KBLI 280753Z AUTO 00000KT 10SM SCT080 OVC095 09/06 A3027 RMK AO2 SLP259 T00890061 401390078=
201204280653 METAR KBLI 280653Z AUTO 17003KT 10SM BKN080 OVC100 10/05 A3026 RMK AO2 SLP255 T01000050=
201204280553 METAR KBLI 280553Z AUTO 00000KT 10SM OVC080 09/06 A3026 RMK AO2 SLP256 60000 T00890061 10133 20089 51007=
201204280453 METAR KBLI 280453Z 00000KT 10SM FEW070 OVC090 10/06 A3026 RMK AO2 RAB27E36 SLP255 P0000 T01000056=
201204280353 METAR KBLI 280353Z 00000KT 10SM BKN080 OVC100 11/05 A3025 RMK AO2 SLP252 T01060050=
201204280253 METAR KBLI 280253Z 00000KT 10SM OVC090 11/05 A3024 RMK AO2 SLP249 T01060050 50001=
201204280153 METAR KBLI 280153Z 26005KT 10SM OVC080 12/04 A3024 RMK AO2 SLP248 T01220044=
201204280053 METAR KBLI 280053Z VRB05KT 10SM BKN080 OVC095 13/03 A3024 RMK AO2 SLP249 T01280033=
201204272353 METAR KBLI 272353Z 17007KT 10SM FEW080 13/03 A3024 RMK AO2 SLP247 T01330033 10139 20100 58003=
201204272253 METAR KBLI 272253Z 18008KT 160V220 10SM CLR 13/04 A3024 RMK AO2 SLP249 T01280044=
201204272153 METAR KBLI 272153Z 18008KT 10SM CLR 13/05 A3025 RMK AO2 SLP250 T01280050=
201204272053 METAR KBLI 272053Z 18009G17KT 10SM CLR 12/06 A3025 RMK AO2 SLP250 T01220056 53001=
201204271953 METAR KBLI 271953Z 18010G16KT 10SM CLR 11/05 A3025 RMK AO2 SLP250 T01110050=
201204271853 METAR KBLI 271853Z 17009G16KT 10SM CLR 11/05 A3025 RMK AO2 SLP250 T01110050=
201204271753 METAR KBLI 271753Z 17011G18KT 10SM CLR 10/05 A3025 RMK AO2 SLP250 60000 T01000050 10106 20078 53011=
201204271653 METAR KBLI 271653Z 17009KT 10SM CLR 10/04 A3023 RMK AO2 SLP244 T01000044=
201204271553 METAR KBLI 271553Z 16008KT 10SM SCT022 SCT044 BKN055 09/04 A3023 RMK AO2 RAB00E34 SLP244 P0000 T00890044=
201204271453 METAR KBLI 271453Z 16008KT 10SM FEW040 OVC055 08/05 A3021 RMK AO2 SLP239 T00830050 51025=
201204271353 METAR KBLI 271353Z AUTO 17006KT 10SM FEW027 BKN040 BKN050 08/05 A3019 RMK AO2 SLP232 T00780050=
201204271335 SPECI KBLI 271335Z AUTO 16007KT 10SM SCT025 BKN042 OVC050 08/06 A3019 RMK AO2=
201204271335 SPECI KBLI 271335Z AUTO 16007KT 10SM SCT025 BKN042 OVC050 08/06 A3019 RMK AO2=
201204271253 METAR KBLI 271253Z AUTO 16009KT 10SM BKN023 OVC044 08/06 A3017 RMK AO2 SLP223 T00780056=
201204271237 SPECI KBLI 271237Z AUTO 16008KT 10SM BKN023 OVC044 08/05 A3016 RMK AO2=
201204271237 SPECI KBLI 271237Z AUTO 16008KT 10SM BKN023 OVC044 08/05 A3016 RMK AO2=
201204271153 METAR KBLI 271153Z AUTO 16006KT 10SM FEW023 OVC046 08/05 A3014 RMK AO2 SLP213 70003 T00780050 10089 20078 51033=
201204271053 METAR KBLI 271053Z AUTO 16006KT 10SM SCT055 SCT065 08/05 A3011 RMK AO2 SLP202 T00780050=
201204270953 METAR KBLI 270953Z AUTO 15006KT 10SM FEW041 SCT060 08/04 A3008 RMK AO2 SLP192 T00780044=
201204270853 METAR KBLI 270853Z AUTO 16007KT 10SM BKN045 BKN060 08/03 A3004 RMK AO2 SLP181 T00830033 51027=
201204270753 METAR KBLI 270753Z AUTO 19004KT 10SM BKN044 08/04 A3002 RMK AO2 SLP174 T00780039 401220078=
201204270653 METAR KBLI 270653Z AUTO 15007KT 10SM CLR 08/04 A2999 RMK AO2 SLP163 T00830044=
201204270553 METAR KBLI 270553Z AUTO 16006KT 10SM BKN075 09/05 A2996 RMK AO2 SLP153 T00890050 10122 20089 53042=
201204270453 METAR KBLI 270453Z 16010G20KT 10SM FEW055 SCT100 09/05 A2992 RMK AO2 SLP138 T00940050=
201204270353 METAR KBLI 270353Z 16005KT 10SM CLR 09/04 A2987 RMK AO2 SLP124 T00940039=
201204270253 METAR KBLI 270253Z 16005KT 10SM CLR 10/04 A2984 RMK AO2 SLP110 T01000044 53025=
201204270153 METAR KBLI 270153Z 16009KT 10SM CLR 11/05 A2981 RMK AO2 SLP101 T01110050=
201204270053 METAR KBLI 270053Z 16007KT 10SM CLR 12/05 A2978 RMK AO2 SLP091 T01170050=
201204262353 METAR KBLI 262353Z 15009KT 10SM SCT085 12/05 A2976 RMK AO2 RAB42E52 SLP085 P0000 60002 T01220050 10122 20094 51022=
201204262253 METAR KBLI 262253Z 15011KT 10SM FEW075 BKN110 12/06 A2975 RMK AO2 SLP081 T01220056=
201204262153 METAR KBLI 262153Z 15008KT 10SM SCT055 BKN070 OVC095 11/04 A2973 RMK AO2 SLP076 T01110039=
201204262053 METAR KBLI 262053Z 12006KT 10SM OVC070 11/06 A2970 RMK AO2 RAE27 SLP063 P0001 60002 T01060056 51027=
201204261953 METAR KBLI 261953Z VRB04KT 10SM -RA BKN034 OVC043 09/05 A2968 RMK AO2 SLP059 P0000 T00940050=
201204261853 METAR KBLI 261853Z 17003KT 10SM -RA FEW009 BKN041 OVC049 09/08 A2965 RMK AO2 RAB25 SLP047 P0001 T00940083=
201204261811 SPECI KBLI 261811Z 17005KT 10SM FEW009 OVC039 09/08 A2963 RMK AO2=
201204261811 SPECI KBLI 261811Z 17005KT 10SM FEW009 OVC039 09/08 A2963 RMK AO2=
201204261753 METAR KBLI 261753Z 16003KT 10SM FEW012 OVC037 10/08 A2962 RMK AO2 RAB09E22 SLP036 P0000 60001 T01000083 10100 20089 51010=
201204261653 METAR KBLI 261653Z VRB03KT 10SM OVC031 09/08 A2961 RMK AO2 RAE1559 SLP034 P0000 T00940083=
201204261614 SPECI KBLI 261614Z 00000KT 10SM FEW005 SCT008 OVC031 09/08 A2960 RMK AO2 RAE1559 P0000=
201204261614 SPECI KBLI 261614Z 00000KT 10SM FEW005 SCT008 OVC031 09/08 A2960 RMK AO2 RAE1559 P0000=
201204261553 METAR KBLI 261553Z 26004KT 4SM -RA BR BKN005 OVC027 09/08 A2961 RMK AO2 RAB36 CIG 003V013 SLP033 P0000 T00940083=
201204261535 SPECI KBLI 261535Z 19005KT 3SM BR BKN003 OVC007 09/08 A2961 RMK AO2=
201204261535 SPECI KBLI 261535Z 19005KT 3SM BR BKN003 OVC007 09/08 A2961 RMK AO2=
201204261453 METAR KBLI 261453Z 17009KT 10SM FEW004 BKN009 OVC041 09/09 A2959 RMK AO2 SLP026 60001 T00940089 58001=
201204261406 SPECI KBLI 261406Z 16008KT 6SM BR BKN003 BKN020 OVC033 09/09 A2959=
201204261406 SPECI KBLI 261406Z 16008KT 6SM BR BKN003 BKN020 OVC033 09/09 A2959 RMK AO2=
201204261353 METAR KBLI 261353Z 16007KT 5SM BR FEW003 BKN027 OVC032 09/09 A2959 RMK AO2 SLP026 T00940089=
201204261253 METAR KBLI 261253Z AUTO 16010KT 10SM OVC018 10/08 A2959 RMK AO2 RAE30 SLP026 P0001 T01000083=
201204261153 METAR KBLI 261153Z AUTO 16007KT 8SM -RA BKN018 OVC060 10/08 A2959 RMK AO2 SLP027 P0002 60011 70019 T01000083 10122 20100 53001=
201204261053 METAR KBLI 261053Z AUTO 15008KT 9SM -RA FEW022 SCT031 OVC060 10/08 A2958 RMK AO2 SLP025 P0004 T01000083=
201204261045 SPECI KBLI 261045Z AUTO 15009KT 10SM -RA SCT022 SCT033 OVC060 10/08 A2958 RMK AO2 P0004=
201204261045 SPECI KBLI 261045Z AUTO 15009KT 10SM -RA SCT022 SCT033 OVC060 10/08 A2958 RMK AO2 P0004=
201204261027 SPECI KBLI 261027Z AUTO 17009KT 10SM -RA BKN022 BKN037 OVC055 10/09 A2959 RMK AO2 P0003=
201204261027 SPECI KBLI 261027Z AUTO 17009KT 10SM -RA BKN022 BKN037 OVC055 10/09 A2959 RMK AO2 P0003=
201204260953 METAR KBLI 260953Z AUTO 18009G15KT 10SM -RA SCT022 BKN055 OVC070 11/09 A2959 RMK AO2 RAB0859 SLP026 P0002 T01060089=
201204260853 METAR KBLI 260853Z AUTO 17004KT 10SM OVC036 11/09 A2959 RMK AO2 RAE36 SLP025 P0002 60003 T01110094 58002=
201204260826 SPECI KBLI 260826Z AUTO 16006KT 10SM -RA SCT019 OVC036 11/10 A2959 RMK AO2 P0002=
201204260826 SPECI KBLI 260826Z AUTO 16006KT 10SM -RA SCT019 OVC036 11/10 A2959 RMK AO2 P0002=
201204260810 SPECI KBLI 260810Z AUTO 17008KT 9SM -RA BKN021 OVC038 12/10 A2959 RMK AO2 P0001=
201204260810 SPECI KBLI 260810Z AUTO 17008KT 9SM -RA BKN021 OVC038 12/10 A2959 RMK AO2 P0001=
201204260753 METAR KBLI 260753Z AUTO 17010G15KT 10SM -RA SCT023 OVC040 12/09 A2960 RMK AO2 RAE14B45 SLP029 P0000 T01170094 401830117=
201204260653 METAR KBLI 260653Z AUTO 17006KT 10SM -RA OVC044 12/10 A2960 RMK AO2 SLP029 P0001 T01220100=
201204260553 METAR KBLI 260553Z AUTO 16009G16KT 4SM -RA BR FEW039 BKN050 OVC065 12/10 A2959 RMK AO2 RAE02B45 SLP028 P0000 60005 T01220100 10183 20122 53001=
201204260453 METAR KBLI 260453Z 14014G21KT 10SM -RA SCT039 BKN047 OVC080 14/09 A2959 RMK AO2 RAB27 SLP027 P0001 T01390094=
201204260353 METAR KBLI 260353Z 12010G17KT 10SM BKN120 13/11 A2958 RMK AO2 RAE18 SLP023 P0000 T01330106=
201204260253 METAR KBLI 260253Z 12008KT 6SM -RA BR FEW033 BKN060 OVC075 14/12 A2959 RMK AO2 SLP026 P0004 60004 T01390117 56009=
201204260153 METAR KBLI 260153Z 17006G14KT 10SM -RA BKN075 OVC095 14/11 A2960 RMK AO2 RAB04 SLP029 P0000 T01390111=
201204260053 METAR KBLI 260053Z 13015G21KT 10SM SCT045 OVC065 18/09 A2961 RMK AO2 SLP031 T01780089=
201204252353 METAR KBLI 252353Z 13012KT 10SM BKN080 18/10 A2962 RMK AO2 SLP035 60002 T01780100 10178 20139 58021=
201204252253 METAR KBLI 252253Z 13011G23KT 10SM FEW037 BKN050 OVC100 17/10 A2964 RMK AO2 RAB21E32 SLP044 P0000 T01670100=
201204252153 METAR KBLI 252153Z 13019G25KT 10SM OVC090 17/09 A2966 RMK AO2 SLP049 T01670094=
201204252053 METAR KBLI 252053Z 12012G22KT 10SM SCT035 BKN075 OVC100 16/10 A2968 RMK AO2 RAB20E52 SLP056 P0000 60002 T01560100 57015=
201204251953 METAR KBLI 251953Z 14013G19KT 10SM BKN038 OVC047 16/09 A2969 RMK AO2 SLP061 T01610094=
201204251853 METAR KBLI 251853Z 14008G17KT 10SM FEW090 OVC100 15/10 A2971 RMK AO2 RAE43 SLP066 P0002 T01500100=
201204251753 METAR KBLI 251753Z 14013KT 10SM -RA BKN075 OVC090 14/10 A2972 RMK AO2 SLP072 P0000 60001 T01390100 10139 20122 55005=
201204251653 METAR KBLI 251653Z 13008G17KT 10SM -RA BKN075 OVC090 14/10 A2972 RMK AO2 RAB25 SLP071 P0001 T01390100=
201204251553 METAR KBLI 251553Z 17008KT 10SM SCT026 BKN100 OVC110 13/09 A2973 RMK AO2 RAE29 SLP075 P0000 T01330089=
201204251453 METAR KBLI 251453Z 16007KT 10SM -RA SCT026 OVC090 13/09 A2974 RMK AO2 RAB20 SLP078 P0000 60000 T01280089 55004=
201204251436 SPECI KBLI 251436Z 17010G19KT 10SM -RA SCT024 SCT050 OVC090 13/08 A2974 RMK AO2 RAB20 P0000=
201204251436 SPECI KBLI 251436Z 17010G19KT 10SM -RA SCT024 SCT050 OVC090 13/08 A2974 RMK AO2 RAB20 P0000=
201204251414 SPECI KBLI 251414Z 16014G20KT 10SM BKN024 OVC100 13/08 A2974 RMK AO2=
201204251414 SPECI KBLI 251414Z 16014G20KT 10SM BKN024 OVC100 13/08 A2974 RMK AO2=
201204251353 METAR KBLI 251353Z 16015G25KT 10SM FEW024 OVC110 13/08 A2974 RMK AO2 PK WND 16026/1323 SLP077 T01280083=
201204251253 METAR KBLI 251253Z AUTO 16013G21KT 10SM SCT024 SCT030 SCT120 13/08 A2975 RMK AO2 SLP081 T01280083=
201204251217 SPECI KBLI 251217Z AUTO 16012G21KT 10SM FEW026 OVC032 13/08 A2975 RMK AO2=
201204251217 SPECI KBLI 251217Z AUTO 16012G21KT 10SM FEW026 OVC032 13/08 A2975 RMK AO2=
201204251153 METAR KBLI 251153Z AUTO 16011G21KT 10SM OVC027 13/08 A2975 RMK AO2 SLP082 70042 T01280083 10139 20128 53009=
201204251140 SPECI KBLI 251140Z AUTO 16013G22KT 10SM BKN025 BKN029 OVC110 13/08 A2975 RMK AO2=
201204251140 SPECI KBLI 251140Z AUTO 16013G22KT 10SM BKN025 BKN029 OVC110 13/08 A2975 RMK AO2=
201204251053 METAR KBLI 251053Z AUTO 16014G22KT 10SM FEW110 13/08 A2974 RMK AO2 PK WND 15028/1042 SLP079 T01280083=
201204250953 METAR KBLI 250953Z AUTO 16015G27KT 10SM BKN100 OVC120 13/08 A2973 RMK AO2 PK WND 17032/0932 SLP074 T01330083=
201204250853 METAR KBLI 250853Z AUTO 15018G30KT 10SM BKN110 13/08 A2973 RMK AO2 PK WND 16032/0800 SLP073 T01330083 56006=
201204250753 METAR KBLI 250753Z AUTO 15019G26KT 10SM SCT110 14/08 A2973 RMK AO2 PK WND 15033/0720 SLP073 T01390083 401390100=
201204250653 METAR KBLI 250653Z AUTO 15020G27KT 10SM FEW023 13/09 A2973 RMK AO2 PK WND 15027/0653 SLP074 T01330094=
201204250642 SPECI KBLI 250642Z AUTO 16012G24KT 10SM SCT025 BKN120 14/09 A2974 RMK AO2=
201204250642 SPECI KBLI 250642Z AUTO 16012G24KT 10SM SCT025 BKN120 14/09 A2974 RMK AO2=
201204250553 METAR KBLI 250553Z AUTO 13008KT 10SM BKN027 OVC065 14/09 A2974 RMK AO2 SLP079 60000 T01390094 10139 20106 58012=
201204250453 METAR KBLI 250453Z 14006KT 10SM OVC027 13/09 A2977 RMK AO2 SLP086 T01330094=
201204250353 METAR KBLI 250353Z 15005KT 10SM OVC025 12/10 A2977 RMK AO2 SLP087 T01220100=
201204250253 METAR KBLI 250253Z 17004KT 10SM SCT018 OVC023 11/09 A2978 RMK AO2 SLP091 60000 T01060094 56024=
201204250153 METAR KBLI 250153Z 18005KT 10SM OVC016 11/09 A2980 RMK AO2 RAB15E23 SLP097 P0000 T01110094=
201204250117 SPECI KBLI 250117Z 17009KT 10SM -RA OVC015 11/10 A2982 RMK AO2 RAB15 P0000=
201204250117 SPECI KBLI 250117Z 17009KT 10SM -RA OVC015 11/10 A2982 RMK AO2 RAB15 P0000=
201204250053 METAR KBLI 250053Z 16008KT 8SM BKN012 OVC020 11/10 A2983 RMK AO2 RAB34E52 SLP108 P0000 T01110100=
201204250040 SPECI KBLI 250040Z 16009G16KT 3SM -RA BR FEW007 BKN014 OVC036 11/10 A2983 RMK AO2 RAB34 P0000=
201204250040 SPECI KBLI 250040Z 16009G16KT 3SM -RA BR FEW007 BKN014 OVC036 11/10 A2983 RMK AO2 RAB34 P0000=
201204250023 SPECI KBLI 250023Z 15007KT 10SM SCT014 BKN024 OVC036 12/10 A2984 RMK AO2=
201204250023 SPECI KBLI 250023Z 15007KT 10SM SCT014 BKN024 OVC036 12/10 A2984 RMK AO2=
201204242353 METAR KBLI 242353Z VRB03KT 10SM BKN012 OVC017 11/10 A2985 RMK AO2 RAE46 SLP116 P0002 60026 T01110100 10117 20106 58017=
201204242342 SPECI KBLI 242342Z 00000KT 10SM -RA BKN010 OVC016 11/09 A2986 RMK AO2 P0002=
201204242342 SPECI KBLI 242342Z 00000KT 10SM -RA BKN010 OVC016 11/09 A2986 RMK AO2 P0002=
201204242306 SPECI KBLI 242306Z 05003KT 3SM -RA BR SCT010 BKN016 OVC026 11/09 A2987 RMK AO2 P0001=
201204242306 SPECI KBLI 242306Z 05003KT 3SM -RA BR SCT010 BKN016 OVC026 11/09 A2987 RMK AO2 P0001=
201204242253 METAR KBLI 242253Z 03004KT 3SM -RA BR BKN014 BKN020 OVC026 11/09 A2987 RMK AO2 SLP122 P0008 T01060094=
201204242200 SPECI KBLI 242200Z 02003KT 4SM -RA BR FEW005 OVC015 11/09 A2989 RMK AO2 P0001=
201204242200 SPECI KBLI 242200Z 02003KT 4SM -RA BR FEW005 OVC015 11/09 A2989 RMK AO2 P0001=
201204242153 METAR KBLI 242153Z 00000KT 4SM -RA BR SCT010 OVC025 11/10 A2990 RMK AO2 SLP131 P0004 T01110100=
201204242053 METAR KBLI 242053Z 00000KT 8SM -RA SCT012 BKN027 OVC048 11/09 A2990 RMK AO2 SLP133 P0003 60012 T01110094 50000=
201204242007 SPECI KBLI 242007Z 15005KT 6SM -RA BR SCT012 BKN027 OVC048 11/09 A2991 RMK AO2 P0001=
201204242007 SPECI KBLI 242007Z 15005KT 6SM -RA BR SCT012 BKN027 OVC048 11/09 A2991 RMK AO2 P0001=
201204242000 SPECI KBLI 242000Z 16004KT 5SM -RA BR BKN038 OVC048 11/09 A2991 RMK AO2 P0000=
201204242000 SPECI KBLI 242000Z 16004KT 5SM -RA BR BKN038 OVC048 11/09 A2991 RMK AO2 P0000=
201204241953 METAR KBLI 241953Z 16004KT 5SM -RA BR BKN029 OVC050 11/09 A2991 RMK AO2 SLP136 P0005 T01110094=
201204241921 SPECI KBLI 241921Z 15006KT 6SM -RA BR BKN029 OVC050 11/09 A2991 RMK AO2 P0002=
201204241921 SPECI KBLI 241921Z 15006KT 6SM -RA BR BKN029 OVC050 11/09 A2991 RMK AO2 P0002=
201204241900 SPECI KBLI 241900Z 15007KT 5SM -RA BR OVC050 11/09 A2991 RMK AO2 P0000=
201204241900 SPECI KBLI 241900Z 15007KT 5SM -RA BR OVC050 11/09 A2991 RMK AO2 P0000=
201204241853 METAR KBLI 241853Z 16005KT 4SM -RA BR BKN027 OVC050 11/09 A2991 RMK AO2 SLP136 P0004 T01060094=
201204241800 SPECI KBLI 241800Z 16007KT 8SM -RA BKN047 OVC055 11/09 A2990 RMK AO2 P0000=
201204241800 SPECI KBLI 241800Z 16007KT 8SM -RA BKN047 OVC055 11/09 A2990 RMK AO2 P0000=
201204241753 METAR KBLI 241753Z 16007KT 7SM -RA FEW007 BKN012 OVC055 11/09 A2990 RMK AO2 SLP133 P0004 60016 T01060089 10111 20100 51008=
201204241653 METAR KBLI 241653Z 16009KT 7SM -RA SCT004 BKN012 OVC017 11/09 A2989 RMK AO2 SLP130 P0002 T01110094=
201204241626 SPECI KBLI 241626Z 17010G15KT 4SM -RA BR BKN004 OVC010 11/10 A2989 RMK AO2 CIG 003V009 P0001=
201204241626 SPECI KBLI 241626Z 17010G15KT 4SM -RA BR BKN004 OVC010 11/10 A2989 RMK AO2 CIG 003V009 P0001=
201204241601 SPECI KBLI 241601Z 20004KT 7SM -RA BKN006 BKN020 OVC055 11/09 A2990 RMK AO2 P0000=
201204241601 SPECI KBLI 241601Z 20004KT 7SM -RA BKN006 BKN020 OVC055 11/09 A2990 RMK AO2 P0000=
201204241553 METAR KBLI 241553Z 00000KT 7SM -RA SCT006 BKN020 OVC055 11/09 A2990 RMK AO2 SLP131 P0004 T01060094=
201204241546 SPECI KBLI 241546Z 00000KT 8SM -RA BKN022 OVC055 10/09 A2989 RMK AO2 P0003=
201204241546 SPECI KBLI 241546Z 00000KT 8SM -RA BKN022 OVC055 10/09 A2989 RMK AO2 P0003=
201204241453 METAR KBLI 241453Z 00000KT 8SM -RA OVC049 10/09 A2988 RMK AO2 SLP125 P0002 60006 T01000089 53005=
201204241353 METAR KBLI 241353Z 00000KT 10SM -RA OVC041 10/08 A2987 RMK AO2 RAE20B44 SLP120 P0000 T01000083=
201204241253 METAR KBLI 241253Z AUTO 20003KT 10SM -RA FEW026 BKN043 OVC060 10/09 A2986 RMK AO2 SLP118 P0004 T01000089=
201204241153 METAR KBLI 241153Z AUTO 00000KT 10SM -RA SCT027 OVC031 11/09 A2986 RMK AO2 RAB01E29B45 SLP120 P0000 60000 T01060089 10117 20100 53006=
201204241053 METAR KBLI 241053Z AUTO 00000KT 10SM FEW016 BKN065 OVC080 12/09 A2985 RMK AO2 SLP113 T01170089=
201204241023 SPECI KBLI 241023Z AUTO 00000KT 10SM FEW014 BKN065 OVC080 11/09 A2984 RMK AO2=
201204241023 SPECI KBLI 241023Z AUTO 00000KT 10SM FEW014 BKN065 OVC080 11/09 A2984 RMK AO2=
201204240953 METAR KBLI 240953Z AUTO 18003KT 10SM OVC014 11/09 A2983 RMK AO2 SLP109 T01110094=
201204240853 METAR KBLI 240853Z AUTO 16004KT 10SM BKN012 OVC075 11/09 A2985 RMK AO2 SLP114 T01110089 53000=
201204240843 SPECI KBLI 240843Z AUTO 15004KT 10SM BKN012 OVC075 11/09 A2984 RMK AO2=
201204240843 SPECI KBLI 240843Z AUTO 15004KT 10SM BKN012 OVC075 11/09 A2984 RMK AO2=
201204240804 SPECI KBLI 240804Z AUTO 18003KT 10SM SCT012 OVC065 11/09 A2984 RMK AO2=
201204240804 SPECI KBLI 240804Z AUTO 18003KT 10SM SCT012 OVC065 11/09 A2984 RMK AO2=
201204240753 METAR KBLI 240753Z AUTO 16003KT 10SM BKN012 OVC065 11/09 A2985 RMK AO2 SLP114 T01060089 401830072=
201204240732 SPECI KBLI 240732Z AUTO 00000KT 10SM BKN010 BKN070 OVC080 11/09 A2985 RMK AO2=
201204240732 SPECI KBLI 240732Z AUTO 00000KT 10SM BKN010 BKN070 OVC080 11/09 A2985 RMK AO2=
201204240653 METAR KBLI 240653Z AUTO 16004KT 10SM FEW011 BKN070 10/09 A2984 RMK AO2 SLP113 T01000089=
201204240553 METAR KBLI 240553Z AUTO 17003KT 10SM FEW070 BKN085 10/09 A2985 RMK AO2 SLP113 T01000089 10167 20100 50003=
201204240453 METAR KBLI 240453Z 16004KT 10SM CLR 11/09 A2986 RMK AO2 SLP117 T01060089=
201204240353 METAR KBLI 240353Z 00000KT 10SM BKN110 12/10 A2985 RMK AO2 SLP116 T01170100=
201204240253 METAR KBLI 240253Z 00000KT 10SM CLR 13/10 A2984 RMK AO2 SLP111 T01330100 56009=
201204240153 METAR KBLI 240153Z 25006KT 10SM SCT120 14/11 A2985 RMK AO2 SLP114 T01390106=
201204240053 METAR KBLI 240053Z 27006KT 10SM CLR 17/11 A2985 RMK AO2 SLP115 T01670111=
201204232353 METAR KBLI 232353Z VRB05KT 10SM FEW120 17/11 A2987 RMK AO2 SLP120 T01670111 10183 20150 56016=
201204232253 METAR KBLI 232253Z VRB04KT 10SM CLR 18/11 A2988 RMK AO2 SLP124 T01780106=
201204232153 METAR KBLI 232153Z 28006KT 10SM FEW120 18/10 A2989 RMK AO2 SLP129 T01780100=
201204232053 METAR KBLI 232053Z 27007KT 10SM CLR 17/10 A2991 RMK AO2 SLP136 T01670100 58003=
201204231953 METAR KBLI 231953Z VRB04KT 10SM CLR 17/09 A2992 RMK AO2 SLP137 T01670094=
201204231853 METAR KBLI 231853Z 00000KT 10SM CLR 16/11 A2992 RMK AO2 SLP139 T01610106=
201204231753 METAR KBLI 231753Z 30006KT 10SM CLR 16/11 A2992 RMK AO2 SLP139 T01610106 10167 20072 52000=
201204231653 METAR KBLI 231653Z 27004KT 10SM CLR 13/10 A2992 RMK AO2 SLP139 T01330100=
201204231553 METAR KBLI 231553Z 00000KT 10SM CLR 13/10 A2992 RMK AO2 SLP138 T01330100=
201204231453 METAR KBLI 231453Z 00000KT 10SM CLR 11/09 A2992 RMK AO2 SLP138 T01110094 55001=
201204231353 METAR KBLI 231353Z 00000KT 10SM FEW090 08/07 A2992 RMK AO2 SLP137 T00780072=
201204231253 METAR KBLI 231253Z AUTO 00000KT 9SM FEW006 08/07 A2992 RMK AO2 SLP138 T00780072=
201204231237 SPECI KBLI 231237Z AUTO 13004KT 8SM SCT006 08/07 A2992 RMK AO2=
201204231237 SPECI KBLI 231237Z AUTO 13004KT 8SM SCT006 08/07 A2992 RMK AO2=
201204231153 METAR KBLI 231153Z AUTO 00000KT 9SM CLR 08/07 A2992 RMK AO2 SLP139 T00830072 10106 20072 53004=
201204231053 METAR KBLI 231053Z AUTO 00000KT 9SM CLR 08/07 A2991 RMK AO2 SLP135 T00780067=
201204230953 METAR KBLI 230953Z AUTO 00000KT 9SM CLR 08/07 A2990 RMK AO2 SLP133 T00780072=
201204230853 METAR KBLI 230853Z AUTO 00000KT 10SM CLR 09/07 A2991 RMK AO2 SLP135 T00890072 58006=
201204230753 METAR KBLI 230753Z AUTO 00000KT 10SM CLR 09/08 A2992 RMK AO2 SLP138 T00890078 402170072=
201204230653 METAR KBLI 230653Z AUTO 19003KT 10SM FEW110 11/08 A2992 RMK AO2 SLP138 T01060083=
201204230553 METAR KBLI 230553Z 17004KT 10SM CLR 11/08 A2993 RMK AO2 SLP140 T01060083 10189 20106 51012=
201204230453 METAR KBLI 230453Z 00000KT 10SM CLR 12/08 A2992 RMK AO2 SLP138 T01170083=
201204230353 METAR KBLI 230353Z 19003KT 10SM CLR 13/09 A2990 RMK AO2 SLP132 T01280089=
201204230253 METAR KBLI 230253Z 00000KT 10SM CLR 14/08 A2989 RMK AO2 SLP128 T01390083 55002=
201204230153 METAR KBLI 230153Z 28005KT 10SM CLR 15/07 A2989 RMK AO2 SLP128 T01500072=
201204230053 METAR KBLI 230053Z 27006KT 10SM FEW110 17/08 A2989 RMK AO2 SLP128 T01670078=
201204222353 METAR KBLI 222353Z 27005KT 10SM CLR 19/09 A2990 RMK AO2 SLP131 T01890089 10217 20139 57016=
201204222253 METAR KBLI 222253Z VRB03KT 10SM CLR 22/08 A2991 RMK AO2 SLP133 T02170078=
201204222153 METAR KBLI 222153Z 29006KT 10SM CLR 20/08 A2993 RMK AO2 SLP142 T02000083=
201204222053 METAR KBLI 222053Z 34005KT 10SM CLR 19/08 A2994 RMK AO2 SLP147 T01890078 58012=
201204221953 METAR KBLI 221953Z 31005KT 10SM BKN120 17/08 A2996 RMK AO2 SLP151 T01720078=
201204221853 METAR KBLI 221853Z 00000KT 10SM BKN110 15/08 A2997 RMK AO2 SLP156 T01500078=
201204221753 METAR KBLI 221753Z 00000KT 10SM OVC110 14/08 A2998 RMK AO2 SLP158 60000 T01390078 10144 20072 58002=
201204221653 METAR KBLI 221653Z 00000KT 10SM OVC110 13/08 A2999 RMK AO2 SLP161 T01280083=
201204221553 METAR KBLI 221553Z 00000KT 10SM OVC110 11/08 A2998 RMK AO2 SLP160 T01060078=
201204221453 METAR KBLI 221453Z 00000KT 10SM OVC120 09/08 A2998 RMK AO2 RAB01E16 SLP160 P0000 60000 T00940078 55000=
201204221353 METAR KBLI 221353Z 00000KT 9SM FEW100 08/07 A2998 RMK AO2 SLP159 T00830072=
201204221253 METAR KBLI 221253Z AUTO 00000KT 8SM CLR 08/07 A2997 RMK AO2 SLP155 T00780067=
201204221153 METAR KBLI 221153Z AUTO 00000KT 10SM CLR 08/07 A2998 RMK AO2 RAB20E29 SLP161 P0000 60000 T00780067 10100 20078 56005=
201204221053 METAR KBLI 221053Z AUTO 00000KT 10SM CLR 08/07 A2999 RMK AO2 SLP162 T00830067=
201204220953 METAR KBLI 220953Z AUTO 00000KT 10SM CLR 08/07 A3000 RMK AO2 SLP164 T00830072=
201204220853 METAR KBLI 220853Z AUTO 00000KT 10SM CLR 08/07 A3000 RMK AO2 SLP166 T00780067 58007=
201204220753 METAR KBLI 220753Z AUTO 00000KT 10SM CLR 08/06 A3002 RMK AO2 SLP171 T00780061 401670022=
201204220653 METAR KBLI 220653Z AUTO 00000KT 10SM CLR 09/07 A3002 RMK AO2 SLP173 T00890067=
201204220553 METAR KBLI 220553Z AUTO 00000KT 10SM CLR 10/07 A3002 RMK AO2 SLP173 T01000067 10150 20094 58004=
201204220453 METAR KBLI 220453Z 00000KT 10SM CLR 10/07 A3003 RMK AO2 SLP175 T01000067=
201204220353 METAR KBLI 220353Z 00000KT 10SM CLR 11/06 A3003 RMK AO2 SLP178 T01110061=
201204220253 METAR KBLI 220253Z 27004KT 10SM FEW120 12/07 A3003 RMK AO2 SLP178 T01220067 56017=
201204220153 METAR KBLI 220153Z 00000KT 10SM CLR 13/07 A3004 RMK AO2 PRESFR SLP180 T01330072=
201204220053 METAR KBLI 220053Z 27003KT 10SM CLR 14/07 A3006 RMK AO2 SLP188 T01390072=
201204212353 METAR KBLI 212353Z 26003KT 10SM CLR 14/06 A3008 RMK AO2 SLP195 T01440061 10167 20122 56016=
201204212253 METAR KBLI 212253Z 26006KT 10SM OVC110 14/07 A3010 RMK AO2 SLP200 T01390067=
201204212153 METAR KBLI 212153Z 28006KT 10SM CLR 14/06 A3011 RMK AO2 SLP205 T01440061=
201204212053 METAR KBLI 212053Z 00000KT 10SM CLR 16/04 A3013 RMK AO2 SLP210 T01610039 58014=
201204211953 METAR KBLI 211953Z VRB03KT 10SM CLR 16/03 A3014 RMK AO2 SLP214 T01560033=
201204211853 METAR KBLI 211853Z VRB03KT 10SM CLR 14/05 A3016 RMK AO2 SLP221 T01390050=
201204211753 METAR KBLI 211753Z 00000KT 10SM FEW110 12/04 A3017 RMK AO2 SLP225 T01220039 10122 20022 56003=
201204211653 METAR KBLI 211653Z 00000KT 10SM CLR 10/04 A3017 RMK AO2 SLP225 T01000044=
201204211553 METAR KBLI 211553Z 00000KT 10SM CLR 08/05 A3018 RMK AO2 SLP228 T00830050=
201204211453 METAR KBLI 211453Z 02004KT 10SM CLR 06/04 A3018 RMK AO2 SLP229 T00610039 55002=
201204211353 METAR KBLI 211353Z 00000KT 10SM CLR 03/02 A3018 RMK AO2 SLP228 T00330022=
201204211253 METAR KBLI 211253Z AUTO 35003KT 10SM CLR 02/01 A3019 RMK AO2 SLP230 T00220011=
201204211153 METAR KBLI 211153Z AUTO 00000KT 10SM CLR 03/02 A3019 RMK AO2 SLP231 T00330022 10061 20022 57003=
201204211053 METAR KBLI 211053Z AUTO 00000KT 6SM BR CLR 02/01 A3019 RMK AO2 SLP232 T00220011=
201204210953 METAR KBLI 210953Z AUTO 00000KT 8SM CLR 02/02 A3019 RMK AO2 SLP232 T00220017=
201204210853 METAR KBLI 210853Z AUTO 00000KT 10SM CLR 04/02 A3020 RMK AO2 SLP234 T00390022 58000=
201204210753 METAR KBLI 210753Z AUTO 00000KT 10SM CLR 05/03 A3021 RMK AO2 SLP238 T00500033 401390044=
201204210653 METAR KBLI 210653Z AUTO 00000KT 10SM CLR 06/04 A3020 RMK AO2 SLP236 T00560039=
201204210553 METAR KBLI 210553Z AUTO 00000KT 10SM CLR 06/04 A3020 RMK AO2 SLP235 T00560039 10128 20056 58001=
201204210453 METAR KBLI 210453Z 00000KT 10SM CLR 07/04 A3021 RMK AO2 SLP238 T00670044=
201204210353 METAR KBLI 210353Z 00000KT 10SM CLR 08/04 A3021 RMK AO2 SLP237 T00830044=
201204210253 METAR KBLI 210253Z 00000KT 10SM CLR 10/04 A3020 RMK AO2 SLP234 T01000044 56008=
201204210153 METAR KBLI 210153Z 18003KT 10SM CLR 12/03 A3021 RMK AO2 SLP235 T01220033=
201204210053 METAR KBLI 210053Z 18005KT 10SM CLR 13/03 A3021 RMK AO2 SLP238 T01280028=
201204202353 METAR KBLI 202353Z 18004KT 10SM CLR 13/03 A3023 RMK AO2 SLP243 T01280028 10139 20111 58001=
201204202253 METAR KBLI 202253Z 16008KT 10SM CLR 13/02 A3023 RMK AO2 SLP244 T01280022=
201204202153 METAR KBLI 202153Z 16005KT 10SM BKN060 13/03 A3023 RMK AO2 SLP245 T01280028=
201204202053 METAR KBLI 202053Z 17007KT 10SM CLR 13/02 A3023 RMK AO2 SLP243 T01330022 51005=
201204201953 METAR KBLI 201953Z VRB06KT 10SM CLR 13/02 A3023 RMK AO2 SLP242 T01280022=
201204201853 METAR KBLI 201853Z 14009KT 10SM CLR 12/04 A3022 RMK AO2 SLP242 T01220039=
201204201753 METAR KBLI 201753Z 17008G15KT 10SM FEW040 SCT045 11/05 A3021 RMK AO2 SLP238 T01110050 10117 20072 51015=
201204201653 METAR KBLI 201653Z VRB04KT 10SM SCT038 11/04 A3020 RMK AO2 SLP233 T01110039=
201204201553 METAR KBLI 201553Z 00000KT 10SM CLR 10/04 A3019 RMK AO2 SLP231 T01000039=
201204201453 METAR KBLI 201453Z 00000KT 10SM SCT060 09/05 A3017 RMK AO2 SLP223 T00940050 53026=
201204201353 METAR KBLI 201353Z 00000KT 10SM CLR 08/06 A3013 RMK AO2 SLP211 T00780056=
201204201253 METAR KBLI 201253Z AUTO VRB03KT 10SM CLR 08/05 A3010 RMK AO2 SLP202 T00780050=
201204201153 METAR KBLI 201153Z AUTO 16004KT 10SM CLR 09/05 A3009 RMK AO2 SLP196 60023 70106 T00890050 10111 20089 53025=
201204201053 METAR KBLI 201053Z AUTO VRB03KT 10SM OVC095 09/06 A3006 RMK AO2 RAE15 SLP186 P0000 T00890056=
201204200953 METAR KBLI 200953Z AUTO VRB04KT 9SM -RA OVC060 09/06 A3003 RMK AO2 SLP177 P0003 T00890061=
201204200853 METAR KBLI 200853Z AUTO 17005KT 10SM -RA OVC055 10/07 A3001 RMK AO2 SLP171 P0002 60020 T01000072 53014=
201204200801 SPECI KBLI 200801Z AUTO 18006KT 8SM -RA SCT005 BKN030 OVC045 10/09 A3000 RMK AO2 P0000=
201204200801 SPECI KBLI 200801Z AUTO 18006KT 8SM -RA SCT005 BKN030 OVC045 10/09 A3000 RMK AO2 P0000=
201204200753 METAR KBLI 200753Z AUTO 17006KT 6SM -RA BR BKN005 BKN033 OVC044 11/09 A2999 RMK AO2 SLP163 P0007 T01060094 401440033=
201204200734 SPECI KBLI 200734Z AUTO 18004KT 5SM -RA BR BKN005 BKN034 OVC044 11/10 A2999 RMK AO2 P0005=
201204200734 SPECI KBLI 200734Z AUTO 18004KT 5SM -RA BR BKN005 BKN034 OVC044 11/10 A2999 RMK AO2 P0005=
201204200718 SPECI KBLI 200718Z AUTO 17007KT 6SM -RA BR SCT005 BKN034 OVC044 11/10 A2998 RMK AO2 P0003=
201204200718 SPECI KBLI 200718Z AUTO 17007KT 6SM -RA BR SCT005 BKN034 OVC044 11/10 A2998 RMK AO2 P0003=
201204200653 METAR KBLI 200653Z AUTO 17006KT 4SM RA BR BKN005 OVC038 11/10 A2997 RMK AO2 SLP156 P0011 T01060100=
201204200650 SPECI KBLI 200650Z AUTO 19005KT 3SM RA BR BKN005 BKN036 OVC046 11/10 A2997 RMK AO2 P0010=
201204200650 SPECI KBLI 200650Z AUTO 19005KT 3SM RA BR BKN005 BKN036 OVC046 11/10 A2997 RMK AO2 P0010=
201204200633 SPECI KBLI 200633Z AUTO 17007KT 7SM -RA FEW007 BKN037 OVC047 11/10 A2996 RMK AO2 P0006=
201204200633 SPECI KBLI 200633Z AUTO 17007KT 7SM -RA FEW007 BKN037 OVC047 11/10 A2996 RMK AO2 P0006=
201204200553 METAR KBLI 200553Z AUTO 16008G15KT 5SM RA BR SCT017 OVC032 11/10 A2996 RMK AO2 SLP151 P0009 60075 T01110100 10111 20089 50001=
201204200520 SPECI KBLI 200520Z 17008G14KT 7SM -RA BKN015 OVC021 11/10 A2996 RMK AO2 P0002=
201204200520 SPECI KBLI 200520Z 17008G14KT 7SM -RA BKN015 OVC021 11/10 A2996 RMK AO2 P0002=
201204200453 METAR KBLI 200453Z 15007KT 120V190 4SM -RA BR SCT005 OVC013 09/08 A2996 RMK AO2 SLP151 P0010 T00940083=
201204200418 SPECI KBLI 200418Z 00000KT 4SM -RA BR BKN007 OVC010 09/08 A2996 RMK AO2 CIG 003V009 P0006=
201204200418 SPECI KBLI 200418Z 00000KT 4SM -RA BR BKN007 OVC010 09/08 A2996 RMK AO2 CIG 003V009 P0006=
201204200408 SPECI KBLI 200408Z 00000KT 3SM RA BR SCT005 OVC010 09/08 A2996 RMK AO2 CIG 009V014 P0004=
201204200408 SPECI KBLI 200408Z 00000KT 3SM RA BR SCT005 OVC010 09/08 A2996 RMK AO2 CIG 009V014 P0004=
201204200353 METAR KBLI 200353Z VRB03KT 3SM RA BR OVC012 09/08 A2996 RMK AO2 SLP154 P0020 T00890083=
201204200344 SPECI KBLI 200344Z 31005KT 3SM RA BR FEW006 OVC012 09/08 A2996 RMK AO2 P0017=
201204200344 SPECI KBLI 200344Z 31005KT 3SM RA BR FEW006 OVC012 09/08 A2996 RMK AO2 P0017=
201204200335 SPECI KBLI 200335Z 35005KT 2 1/2SM RA BR FEW006 OVC014 09/08 A2995 RMK AO2 P0015=
201204200335 SPECI KBLI 200335Z 35005KT 2 1/2SM RA BR FEW006 OVC014 09/08 A2995 RMK AO2 P0015=
201204200323 SPECI KBLI 200323Z 34005KT 3SM RA BR FEW006 OVC014 09/08 A2995 RMK AO2 P0010=
201204200323 SPECI KBLI 200323Z 34005KT 3SM RA BR FEW006 OVC014 09/08 A2995 RMK AO2 P0010=
201204200301 SPECI KBLI 200301Z 32004KT 3SM RA BR FEW006 OVC016 09/08 A2995 RMK AO2 P0003=
201204200301 SPECI KBLI 200301Z 32004KT 3SM RA BR FEW006 OVC016 09/08 A2995 RMK AO2 P0003=
201204200253 METAR KBLI 200253Z 30004KT 2 1/2SM RA BR FEW006 OVC016 09/08 A2995 RMK AO2 SLP151 P0016 60036 T00890078 55003=
201204200237 SPECI KBLI 200237Z 00000KT 2SM RA BR FEW006 OVC018 09/08 A2995 RMK AO2 P0011=
201204200237 SPECI KBLI 200237Z 00000KT 2SM RA BR FEW006 OVC018 09/08 A2995 RMK AO2 P0011=
201204200153 METAR KBLI 200153Z 32003KT 3SM RA BR OVC025 09/08 A2994 RMK AO2 SLP147 P0009 T00940083=
201204200139 SPECI KBLI 200139Z 29003KT 4SM -RA BR OVC028 09/08 A2995 RMK AO2 P0006=
201204200139 SPECI KBLI 200139Z 29003KT 4SM -RA BR OVC028 09/08 A2995 RMK AO2 P0006=
201204200053 METAR KBLI 200053Z 03003KT 3SM -RA BR OVC032 09/08 A2995 RMK AO2 SLP150 P0011 T00940078=
201204192353 METAR KBLI 192353Z 00000KT 6SM -RA OVC040 11/08 A2996 RMK AO2 SLP155 P0007 60008 T01060078 10144 20100 56015=
201204192253 METAR KBLI 192253Z 18004KT 10SM -RA OVC050 12/06 A2999 RMK AO2 RAB24 SLP163 P0001 T01220061=
201204192153 METAR KBLI 192153Z 15008KT 10SM OVC070 14/03 A2998 RMK AO2 SLP157 T01390033=
201204192053 METAR KBLI 192053Z 14008KT 10SM OVC080 14/03 A3001 RMK AO2 SLP169 T01390033 56019=
201204191953 METAR KBLI 191953Z 14008KT 10SM OVC080 13/04 A3002 RMK AO2 SLP172 T01330039=
201204191853 METAR KBLI 191853Z 00000KT 10SM OVC100 11/06 A3005 RMK AO2 SLP183 T01110061=
201204191753 METAR KBLI 191753Z VRB03KT 10SM BKN110 11/05 A3006 RMK AO2 SLP189 T01110050 10111 20033 55001=
201204191653 METAR KBLI 191653Z 02005KT 10SM CLR 11/07 A3005 RMK AO2 SLP183 T01060067=
201204191553 METAR KBLI 191553Z 03003KT 10SM CLR 08/06 A3006 RMK AO2 SLP186 T00830061=
201204191453 METAR KBLI 191453Z 02003KT 10SM CLR 07/06 A3007 RMK AO2 SLP189 T00670056 58002=
201204191353 METAR KBLI 191353Z AUTO 00000KT 6SM BR FEW002 04/04 A3008 RMK AO2 SLP194 T00440044 TSNO=
201204191350 SPECI KBLI 191350Z AUTO 00000KT 3SM BR FEW002 04/04 A3008 RMK AO2 TSNO=
201204191350 SPECI KBLI 191350Z AUTO 00000KT 3SM BR FEW002 04/04 A3008 RMK AO2 TSNO=
201204191348 SPECI KBLI 191348Z AUTO 00000KT 1SM R16/P6000FT BR VV002 04/04 A3008 RMK AO2 TSNO=
201204191348 SPECI KBLI 191348Z AUTO 00000KT 1SM R16/P6000FT BR VV002 04/04 A3008 RMK AO2 TSNO=
201204191340 SPECI KBLI 191340Z AUTO 00000KT 1/2SM R16/P6000FT FG VV002 04/04 A3008 RMK AO2 VIS M1/4V5 TSNO=
201204191340 SPECI KBLI 191340Z AUTO 00000KT 1/2SM R16/P6000FT FG VV002 04/04 A3008 RMK AO2 VIS M1/4V5 TSNO=
201204191336 SPECI KBLI 191336Z AUTO 00000KT 1SM R16/P6000FT BR VV002 04/04 A3008 RMK AO2 VIS 1/4V5 TSNO=
201204191336 SPECI KBLI 191336Z AUTO 00000KT 1SM R16/P6000FT BR VV002 04/04 A3008 RMK AO2 VIS 1/4V5 TSNO=
201204191322 SPECI KBLI 191322Z AUTO 00000KT 1/2SM R16/3000VP6000FT FG FEW002 SCT029 04/04 A3008 RMK AO2 VIS M1/4V5 TSNO=
201204191322 SPECI KBLI 191322Z AUTO 00000KT 1/2SM R16/3000VP6000FT FG FEW002 SCT029 04/04 A3008 RMK AO2 VIS M1/4V5 TSNO=
201204191320 SPECI KBLI 191320Z AUTO 00000KT 1 1/4SM R16/5500VP6000FT BR FEW029 04/04 A3008 RMK AO2 VIS 1/4V5 TSNO=
201204191320 SPECI KBLI 191320Z AUTO 00000KT 1 1/4SM R16/5500VP6000FT BR FEW029 04/04 A3008 RMK AO2 VIS 1/4V5 TSNO=
201204191303 SPECI KBLI 191303Z AUTO 00000KT 3SM R16/4500VP6000FT BR FEW001 SCT027 04/04 A3008 RMK AO2 TSNO=
201204191303 SPECI KBLI 191303Z AUTO 00000KT 3SM R16/4500VP6000FT BR FEW001 SCT027 04/04 A3008 RMK AO2 TSNO=
201204191257 SPECI KBLI 191257Z AUTO 00000KT 1SM R16/3500VP6000FT BR FEW001 SCT027 05/04 A3007 RMK AO2 TSNO=
201204191257 SPECI KBLI 191257Z AUTO 00000KT 1SM R16/3500VP6000FT BR FEW001 SCT027 05/04 A3007 RMK AO2 TSNO=
201204191253 METAR KBLI 191253Z AUTO 00000KT 1/2SM R16/3500VP6000FT FG FEW001 SCT027 04/04 A3006 RMK AO2 SLP189 T00440044 TSNO=
201204191242 SPECI KBLI 191242Z AUTO 00000KT 1/2SM R16/P6000FT FG FEW001 BKN027 05/04 A3006 RMK AO2 TSNO=
201204191242 SPECI KBLI 191242Z AUTO 00000KT 1/2SM R16/P6000FT FG FEW001 BKN027 05/04 A3006 RMK AO2 TSNO=
201204191238 SPECI KBLI 191238Z AUTO 00000KT 1/2SM R16/P6000FT FG SCT027 04/04 A3006 RMK AO2 TSNO=
201204191238 SPECI KBLI 191238Z AUTO 00000KT 1/2SM R16/P6000FT FG SCT027 04/04 A3006 RMK AO2 TSNO=
201204191234 SPECI KBLI 191234Z AUTO 00000KT 1 1/2SM BR FEW027 05/04 A3007 RMK AO2 TSNO=
201204191234 SPECI KBLI 191234Z AUTO 00000KT 1 1/2SM BR FEW027 05/04 A3007 RMK AO2 TSNO=
201204191153 METAR KBLI 191153Z AUTO 03003KT 10SM FEW031 OVC049 06/06 A3007 RMK AO2 RAE11 SLP191 P0000 60001 70005 T00610056 10078 20056 58001 TSNO=
201204191053 METAR KBLI 191053Z AUTO 00000KT 8SM -RA SCT033 OVC048 06/05 A3008 RMK AO2 RAB36 SLP193 P0001 T00560050 TSNO=
201204190953 METAR KBLI 190953Z AUTO 00000KT 10SM FEW034 BKN050 OVC070 06/05 A3008 RMK AO2 SLP193 T00610050 TSNO=
201204190853 METAR KBLI 190853Z AUTO 00000KT 10SM BKN050 OVC065 06/05 A3008 RMK AO2 SLP192 T00610050 51004 TSNO=
201204190753 METAR KBLI 190753Z AUTO 00000KT 10SM BKN039 06/05 A3008 RMK AO2 SLP192 T00610050 401330056 TSNO=
201204190653 METAR KBLI 190653Z AUTO 00000KT 10SM BKN095 07/06 A3007 RMK AO2 SLP190 T00670056 TSNO=
201204190553 METAR KBLI 190553Z AUTO 00000KT 10SM BKN050 OVC100 07/06 A3006 RMK AO2 SLP189 60000 T00720061 10128 20072 51009 TSNO=
201204190453 METAR KBLI 190453Z 00000KT 10SM FEW048 OVC100 08/06 A3005 RMK AO2 SLP185 T00780061=
201204190353 METAR KBLI 190353Z 03004KT 10SM BKN039 BKN047 OVC060 09/06 A3005 RMK AO2 RAB09E27 SLP183 P0000 T00890061=
201204190253 METAR KBLI 190253Z 00000KT 10SM OVC060 11/05 A3004 RMK AO2 SLP179 T01060050 51002=
201204190153 METAR KBLI 190153Z VRB03KT 10SM FEW060 SCT080 SCT095 12/04 A3003 RMK AO2 SLP177 T01170039=
201204190053 METAR KBLI 190053Z 16006KT 10SM FEW085 BKN110 12/04 A3004 RMK AO2 SLP179 T01220039=
201204182353 METAR KBLI 182353Z 17006KT 10SM FEW060 13/03 A3003 RMK AO2 SLP176 60004 T01280028 10133 20094 51004=
201204182253 METAR KBLI 182253Z 19004KT 10SM OVC060 12/04 A3003 RMK AO2 SLP176 T01170044=
201204182153 METAR KBLI 182153Z 16010KT 10SM SCT070 OVC090 12/05 A3003 RMK AO2 RAE12 SLP175 P0000 T01220050=
201204182053 METAR KBLI 182053Z 15009KT 10SM -RA OVC055 10/07 A3002 RMK AO2 SLP173 P0001 60004 T01000072 51014=
201204181953 METAR KBLI 181953Z 19004KT 6SM -RA FEW018 BKN037 OVC048 10/07 A3002 RMK AO2 RAB03 SLP173 P0003 T01000067=
201204181853 METAR KBLI 181853Z 17010G18KT 10SM BKN060 OVC100 11/06 A3000 RMK AO2 SLP167 T01060061=
201204181753 METAR KBLI 181753Z 17008KT 10SM FEW044 OVC055 09/06 A2998 RMK AO2 RAE1654B27E46 SLP160 P0000 60000 T00940061 10106 20067 53013=
201204181729 SPECI KBLI 181729Z 17010G16KT 10SM -RA FEW019 SCT026 OVC047 10/07 A2997 RMK AO2 RAE1654B27 P0000=
201204181729 SPECI KBLI 181729Z 17010G16KT 10SM -RA FEW019 SCT026 OVC047 10/07 A2997 RMK AO2 RAE1654B27 P0000=
201204181653 METAR KBLI 181653Z 17008KT 10SM -RA BKN024 OVC032 09/06 A2996 RMK AO2 RAB34 SLP154 P0000 T00940061=
201204181553 METAR KBLI 181553Z 16013G21KT 10SM OVC026 10/05 A2995 RMK AO2 RAB16E27 SLP149 P0000 T01000050=
201204181505 SPECI KBLI 181505Z 00000KT 10SM OVC028 07/04 A2994 RMK AO2=
201204181505 SPECI KBLI 181505Z 00000KT 10SM OVC028 07/04 A2994 RMK AO2=
201204181453 METAR KBLI 181453Z 00000KT 10SM BKN030 OVC035 07/05 A2994 RMK AO2 SLP147 T00720050 53004=
201204181353 METAR KBLI 181353Z 04006KT 10SM OVC032 07/04 A2993 RMK AO2 SLP144 T00670044=
201204181253 METAR KBLI 181253Z AUTO 00000KT 10SM OVC032 07/05 A2993 RMK AO2 SLP143 T00670050=
201204181153 METAR KBLI 181153Z AUTO 01003KT 10SM OVC032 07/04 A2993 RMK AO2 SLP143 60000 70002 T00670044 10067 20056 56008=
201204181053 METAR KBLI 181053Z AUTO 04006KT 10SM OVC032 06/04 A2994 RMK AO2 SLP145 T00610044=
201204180953 METAR KBLI 180953Z AUTO 04006KT 10SM OVC032 06/04 A2994 RMK AO2 SLP147 T00610044=
201204180853 METAR KBLI 180853Z AUTO 02004KT 10SM BKN050 OVC065 06/04 A2996 RMK AO2 RAB0757E19 SLP152 P0000 60000 T00610044 56014=
201204180753 METAR KBLI 180753Z AUTO 03004KT 10SM BKN034 BKN047 OVC075 06/04 A2997 RMK AO2 SLP158 T00560044 401060033=
201204180653 METAR KBLI 180653Z AUTO 03006KT 10SM SCT032 OVC100 06/04 A2998 RMK AO2 RAE06 SLP160 P0000 T00610044=
201204180553 METAR KBLI 180553Z AUTO 04005KT 10SM -RA OVC034 06/05 A3000 RMK AO2 RAB41 SLP166 P0000 60002 T00610050 10094 20061 58006=
201204180453 METAR KBLI 180453Z 05005KT 10SM OVC038 07/05 A3001 RMK AO2 RAE05 SLP169 P0000 T00670050=
201204180353 METAR KBLI 180353Z 00000KT 10SM -RA OVC036 07/04 A3001 RMK AO2 RAB21 SLP170 P0001 T00720044=
201204180253 METAR KBLI 180253Z VRB04KT 10SM OVC036 08/04 A3002 RMK AO2 SLP172 60001 T00830039 58015=
201204180153 METAR KBLI 180153Z 12006KT 10SM FEW044 BKN060 OVC075 08/04 A3003 RMK AO2 RAE31 SLP176 P0000 T00830039=
201204180053 METAR KBLI 180053Z 15005KT 10SM -RA FEW038 OVC049 08/04 A3005 RMK AO2 SLP184 P0001 T00830044=
201204172353 METAR KBLI 172353Z 17007KT 140V210 10SM -RA FEW040 OVC050 09/02 A3006 RMK AO2 RAE2259B41 SLP188 P0000 60000 T00940017 10106 20094 58010=
201204172253 METAR KBLI 172253Z VRB04KT 10SM -RA BKN050 OVC065 09/03 A3007 RMK AO2 RAE2156B22 SLP191 P0000 T00940028=
201204172153 METAR KBLI 172153Z 00000KT 9SM -RA FEW038 BKN047 OVC065 10/03 A3009 RMK AO2 RAB38 SLP196 P0000 T01000033=
201204172053 METAR KBLI 172053Z 20005KT 10SM SCT075 OVC090 10/02 A3009 RMK AO2 SLP198 T01000017 56018=
201204171953 METAR KBLI 171953Z 00000KT 10SM FEW033 BKN100 11/03 A3011 RMK AO2 SLP202 T01060033=
201204171853 METAR KBLI 171853Z 01003KT 10SM CLR 10/02 A3012 RMK AO2 SLP208 T01000022=
201204171753 METAR KBLI 171753Z 02003KT 10SM CLR 09/03 A3015 RMK AO2 SLP216 T00940033 10094 20033 56012=
201204171653 METAR KBLI 171653Z 01005KT 10SM CLR 09/03 A3015 RMK AO2 SLP219 T00890033=
201204171553 METAR KBLI 171553Z 00000KT 10SM CLR 08/03 A3017 RMK AO2 SLP224 T00780033=
201204171453 METAR KBLI 171453Z 00000KT 10SM CLR 07/04 A3018 RMK AO2 SLP228 T00720039 56008=
201204171353 METAR KBLI 171353Z 00000KT 10SM CLR 03/02 A3018 RMK AO2 SLP230 T00330022=
201204171253 METAR KBLI 171253Z AUTO 00000KT 10SM CLR 04/03 A3020 RMK AO2 SLP234 T00440028=
201204171153 METAR KBLI 171153Z AUTO 14003KT 10SM FEW065 06/03 A3021 RMK AO2 SLP236 70022 T00610028 10078 20061 50000=
201204171053 METAR KBLI 171053Z AUTO 13003KT 10SM OVC060 07/03 A3021 RMK AO2 SLP237 T00720033=
201204170953 METAR KBLI 170953Z AUTO 15003KT 10SM OVC065 07/03 A3020 RMK AO2 SLP236 T00670033=
201204170853 METAR KBLI 170853Z AUTO 17005KT 10SM BKN065 07/03 A3021 RMK AO2 SLP237 T00720028 51016=
201204170753 METAR KBLI 170753Z AUTO 18005KT 10SM BKN065 08/03 A3019 RMK AO2 SLP231 T00780028 401220061=
201204170653 METAR KBLI 170653Z AUTO 19005KT 10SM CLR 08/03 A3018 RMK AO2 SLP227 T00780028=
201204170553 METAR KBLI 170553Z AUTO 15003KT 10SM CLR 07/03 A3016 RMK AO2 SLP220 T00670028 10122 20067 51016=
201204170453 METAR KBLI 170453Z 16004KT 10SM CLR 07/03 A3015 RMK AO2 SLP219 T00720033=
201204170353 METAR KBLI 170353Z 15003KT 10SM FEW031 SCT110 08/04 A3014 RMK AO2 SLP213 T00830039=
201204170253 METAR KBLI 170253Z 20004KT 10SM FEW100 09/02 A3011 RMK AO2 SLP204 T00940017 51018=
201204170153 METAR KBLI 170153Z 21004KT 10SM BKN090 OVC110 11/04 A3010 RMK AO2 SLP200 T01060039=
201204170053 METAR KBLI 170053Z VRB03KT 10SM FEW070 OVC090 11/03 A3008 RMK AO2 SLP194 T01110028=
201204162353 METAR KBLI 162353Z VRB06KT 10SM FEW038 BKN070 OVC090 12/04 A3006 RMK AO2 SLP184 60000 T01170039 10122 20106 51028=
201204162253 METAR KBLI 162253Z 21009G17KT 170V230 10SM OVC080 12/05 A3003 RMK AO2 SLP176 T01220050=
201204162153 METAR KBLI 162153Z 19004KT 10SM OVC080 12/06 A3000 RMK AO2 RAB2059E12 SLP165 P0000 T01220056=
201204162053 METAR KBLI 162053Z VRB05KT 10SM SCT028 OVC060 12/08 A2997 RMK AO2 SLP156 60000 T01170078 51015=
201204162051 SPECI KBLI 162051Z VRB03KT 10SM SCT028 OVC060 12/08 A2997 RMK AO2=
201204162051 SPECI KBLI 162051Z VRB03KT 10SM SCT028 OVC060 12/08 A2997 RMK AO2=
201204161953 METAR KBLI 161953Z 17009KT 10SM FEW021 BKN028 OVC055 12/08 A2995 RMK AO2 RAE07 SLP149 P0000 T01170083=
201204161853 METAR KBLI 161853Z 17005KT 10SM -RA BKN016 OVC036 11/09 A2993 RMK AO2 RAB52 SLP142 P0000 T01110089=
201204161753 METAR KBLI 161753Z 17009G18KT 10SM OVC016 12/09 A2990 RMK AO2 RAB23E35 SLP133 P0000 60022 T01170089 10117 20078 53016=
201204161653 METAR KBLI 161653Z 15007KT 100V170 10SM OVC016 10/08 A2988 RMK AO2 SLP127 T01000083=
201204161553 METAR KBLI 161553Z VRB03KT 10SM FEW010 OVC016 09/08 A2987 RMK AO2 RAE25 SLP122 P0001 T00890078=
201204161500 METAR KBLI NIL=
201204161449 METAR KBLI 161449Z 02006KT 3SM -RA BR OVC020 08/07 A2985=
201204161448 SPECI KBLI 161448Z 01005KT 3SM -RA BR OVC020 08/07 A2985 RMK AO2 P0007=
201204161448 SPECI KBLI 161448Z 01005KT 3SM -RA BR OVC020 08/07 A2985 RMK AO2 P0007=
201204161435 SPECI KBLI 161435Z 03008KT 1 3/4SM -RA BR OVC022 08/07 A2985 RMK AO2 P0006=
201204161435 SPECI KBLI 161435Z 03008KT 1 3/4SM -RA BR OVC022 08/07 A2985 RMK AO2 P0006=
201204161353 METAR KBLI 161353Z 02007KT 4SM -RA BR OVC028 08/07 A2985 RMK AO2 SLP116 P0004 T00780067 $=
201204161346 SPECI KBLI 161346Z 01006KT 4SM -RA BR OVC028 08/07 A2985 RMK AO2 P0003 $=
201204161346 SPECI KBLI 161346Z 01006KT 4SM -RA BR OVC028 08/07 A2985 RMK AO2 P0003 $=
201204161253 METAR KBLI 161253Z AUTO 04005KT 7SM -RA OVC044 08/07 A2986 RMK AO2 SLP119 P0010 T00830067 $=
201204161153 METAR KBLI 161153Z AUTO 36003KT 6SM -RA BR OVC042 08/07 A2989 RMK AO2 SLP128 P0008 60011 70011 T00780067 10100 20078 58018 $=
201204161053 METAR KBLI 161053Z AUTO 12008KT 10SM -RA OVC046 09/06 A2991 RMK AO2 SLP134 P0002 T00940061 $=
201204160953 METAR KBLI 160953Z AUTO 00000KT 10SM -RA SCT048 OVC060 09/07 A2994 RMK AO2 RAB17 SLP145 P0001 T00890072 $=
201204160853 METAR KBLI 160853Z AUTO 02004KT 10SM OVC075 09/06 A2994 RMK AO2 SLP146 T00940056 56019 $=
201204160753 METAR KBLI 160753Z AUTO 00000KT 10SM BKN085 OVC110 09/06 A2995 RMK AO2 SLP150 T00940056 401500078 $=
201204160653 METAR KBLI 160653Z AUTO 00000KT 10SM BKN100 09/06 A2998 RMK AO2 SLP159 T00890056 $=
201204160553 METAR KBLI 160553Z AUTO 00000KT 10SM BKN100 09/06 A3000 RMK AO2 SLP165 T00940056 10150 20094 58017 $=
201204160453 METAR KBLI 160453Z 00000KT 10SM OVC110 11/06 A3002 RMK AO2 SLP174 T01060061 $=
201204160353 METAR KBLI 160353Z 00000KT 10SM OVC110 11/05 A3004 RMK AO2 SLP179 T01060050 $=
201204160253 METAR KBLI 160253Z 00000KT 10SM OVC110 13/05 A3005 RMK AO2 SLP182 T01280050 58021 $=
201204160153 METAR KBLI 160153Z 00000KT 10SM BKN100 14/03 A3007 RMK AO2 SLP189 T01390028 $=
201204160053 METAR KBLI 160053Z VRB03KT 10SM OVC110 14/03 A3009 RMK AO2 SLP198 T01440028 $=
201204152353 METAR KBLI 152353Z VRB03KT 10SM BKN110 15/04 A3011 RMK AO2 SLP203 T01500039 10150 20106 58018 $=
201204152253 METAR KBLI 152253Z VRB05KT 10SM OVC095 14/03 A3013 RMK AO2 SLP211 T01390028 $=
201204152153 METAR KBLI 152153Z VRB06KT 10SM SCT037 OVC095 13/04 A3015 RMK AO2 SLP217 T01330039 $=
201204152053 METAR KBLI 152053Z 17009KT 10SM FEW043 SCT100 13/04 A3016 RMK AO2 SLP221 T01280044 58005 $=
201204151953 METAR KBLI 151953Z 17008KT 10SM BKN041 OVC095 12/05 A3017 RMK AO2 SLP225 T01170050 $=
201204151853 METAR KBLI 151853Z VRB06KT 10SM BKN049 BKN100 12/06 A3018 RMK AO2 SLP228 T01220056 $=
201204151753 METAR KBLI 151753Z 16011G15KT 10SM BKN045 OVC060 11/04 A3018 RMK AO2 SLP227 T01110044 10111 20089 51003 $=
201204151653 METAR KBLI 151653Z 17007KT 10SM FEW043 OVC050 10/05 A3018 RMK AO2 SLP227 T01000050 $=
201204151553 METAR KBLI 151553Z 16009KT 10SM SCT028 BKN043 OVC050 09/04 A3018 RMK AO2 SLP227 T00940039 $=
201204151453 METAR KBLI 151453Z 15010KT 10SM BKN042 09/04 A3017 RMK AO2 SLP224 T00940039 51008 $=
201204151422 SPECI KBLI 151422Z 16008G16KT 10SM SCT025 OVC042 09/04 A3017 RMK AO2 $=
201204151422 SPECI KBLI 151422Z 16008G16KT 10SM SCT025 OVC042 09/04 A3017 RMK AO2 $=
201204151353 METAR KBLI 151353Z 16010G17KT 10SM BKN021 OVC042 09/04 A3017 RMK AO2 SLP223 T00890044 $=
201204151253 METAR KBLI 151253Z AUTO 17012G22KT 10SM OVC019 09/05 A3016 RMK AO2 SLP219 T00890050 $=
201204151214 SPECI KBLI 151214Z AUTO 16013KT 10SM BKN019 OVC041 09/05 A3015 RMK AO2 $=
201204151214 SPECI KBLI 151214Z AUTO 16013KT 10SM BKN019 OVC041 09/05 A3015 RMK AO2 $=
201204151153 METAR KBLI 151153Z AUTO 16013G20KT 10SM OVC041 09/05 A3015 RMK AO2 SLP216 60000 T00890050 10100 20078 53006 $=
201204151053 METAR KBLI 151053Z AUTO 16010KT 10SM SCT085 08/05 A3014 RMK AO2 SLP213 T00830050 $=
201204150953 METAR KBLI 150953Z AUTO 14012KT 10SM BKN049 OVC055 08/06 A3013 RMK AO2 RAB20E39 SLP210 P0000 T00830056 $=
201204150853 METAR KBLI 150853Z AUTO 15005KT 10SM OVC048 09/05 A3013 RMK AO2 SLP210 T00890050 52015 $=
201204150753 METAR KBLI 150753Z AUTO 14005KT 10SM CLR 08/05 A3011 RMK AO2 SLP205 T00830050 401440056 $=
201204150653 METAR KBLI 150653Z AUTO 17004KT 10SM FEW080 09/05 A3010 RMK AO2 SLP201 T00890050 $=
201204150553 METAR KBLI 150553Z AUTO 17009KT 10SM BKN060 10/05 A3009 RMK AO2 SLP195 T01000050 10139 20100 53010 $=
201204150453 METAR KBLI 150453Z 17011KT 10SM BKN065 10/06 A3007 RMK AO2 SLP191 T01000056 $=
201204150353 METAR KBLI 150353Z 16008KT 10SM FEW050 11/06 A3007 RMK AO2 SLP189 T01060056 $=
201204150253 METAR KBLI 150253Z 18006KT 10SM SCT065 12/06 A3006 RMK AO2 SLP186 T01170061 55002 $=
201204150153 METAR KBLI 150153Z 17007KT 10SM BKN065 13/06 A3005 RMK AO2 SLP184 T01280056 $=
201204150053 METAR KBLI 150053Z 17008KT 10SM CLR 13/05 A3006 RMK AO2 SLP186 T01330050 $=
201204142353 METAR KBLI 142353Z 17007KT 10SM CLR 14/05 A3006 RMK AO2 SLP188 T01390050 10144 20100 55001 $=
201204142253 METAR KBLI 142253Z 19005KT 10SM CLR 14/06 A3006 RMK AO2 SLP186 T01390056 $=
201204142153 METAR KBLI 142153Z 14007KT 10SM CLR 14/06 A3006 RMK AO2 SLP185 T01390056 $=
201204142053 METAR KBLI 142053Z VRB05KT 10SM SCT065 14/06 A3007 RMK AO2 SLP189 T01390061 51007 $=
201204141953 METAR KBLI 141953Z VRB05KT 10SM SCT025 OVC055 11/06 A3007 RMK AO2 SLP189 T01110061 $=
201204141853 METAR KBLI 141853Z VRB06KT 10SM SCT026 BKN065 11/06 A3005 RMK AO2 SLP184 T01110061 $=
201204141753 METAR KBLI 141753Z 20004KT 10SM SCT023 BKN055 10/06 A3005 RMK AO2 SLP183 T01000061 10106 20078 51014 $=
201204141653 METAR KBLI 141653Z VRB04KT 10SM SCT025 OVC070 09/06 A3004 RMK AO2 SLP181 T00940061 $=
201204141553 METAR KBLI 141553Z 19006KT 10SM BKN023 OVC060 09/07 A3003 RMK AO2 SLP176 T00890067 $=
201204141539 SPECI KBLI 141539Z 17006KT 10SM FEW008 BKN023 OVC060 09/06 A3002 RMK AO2 $=
201204141539 SPECI KBLI 141539Z 17006KT 10SM FEW008 BKN023 OVC060 09/06 A3002 RMK AO2 $=
201204141453 METAR KBLI 141453Z 18007KT 10SM OVC021 08/06 A3001 RMK AO2 SLP169 T00830061 51014 $=
201204141450 SPECI KBLI 141450Z 18006KT 10SM OVC021 08/06 A3001 RMK AO2 $=
201204141450 SPECI KBLI 141450Z 18006KT 10SM OVC021 08/06 A3001 RMK AO2 $=
201204141423 SPECI KBLI 141423Z 19005KT 10SM SCT019 OVC055 08/06 A3000 RMK AO2 $=
201204141423 SPECI KBLI 141423Z 19005KT 10SM SCT019 OVC055 08/06 A3000 RMK AO2 $=
201204141416 SPECI KBLI 141416Z 17008KT 150V210 10SM BKN019 OVC055 08/06 A3000 RMK AO2 $=
201204141416 SPECI KBLI 141416Z 17008KT 150V210 10SM BKN019 OVC055 08/06 A3000 RMK AO2 $=
201204141353 METAR KBLI 141353Z 18005KT 10SM FEW019 OVC055 09/06 A2999 RMK AO2 SLP161 T00890056=
201204141253 METAR KBLI 141253Z AUTO 18004KT 10SM BKN060 08/06 A2997 RMK AO2 SLP155 T00830056=
201204141153 METAR KBLI 141153Z AUTO 17005KT 10SM BKN055 08/06 A2996 RMK AO2 SLP151 7//// T00830056 10083 20056 53009=
201204141053 METAR KBLI 141053Z AUTO 17004KT 10SM CLR 07/05 A2995 RMK AO2 SLP147 T00720050=
201204140953 METAR KBLI 140953Z AUTO 17005KT 10SM CLR 07/05 A2994 RMK AO2 SLP144 T00720050=
201204140853 METAR KBLI 140853Z AUTO 20004KT 10SM CLR 07/06 A2993 RMK AO2 SLP141 T00720056 53015=
201204140753 METAR KBLI 140753Z AUTO 17003KT 10SM CLR 06/04 A2991 RMK AO2 SLP136 T00560039 401390028=
201204140653 METAR KBLI 140653Z AUTO 14003KT 10SM CLR 07/04 A2990 RMK AO2 SLP131 T00670039=
201204140553 METAR KBLI 140553Z AUTO 17003KT 10SM CLR 07/04 A2989 RMK AO2 SLP128 T00670044 10139 20061 51011=
201204140453 METAR KBLI 140453Z 00000KT 10SM CLR 07/04 A2987 RMK AO2 SLP124 T00720044=
201204140353 METAR KBLI 140353Z 00000KT 10SM CLR 07/06 A2987 RMK AO2 SLP122 T00720056=
201204140253 METAR KBLI 140253Z 00000KT 10SM CLR 10/05 A2985 RMK AO2 SLP117 T01000050 53003=
201204140153 METAR KBLI 140153Z 23003KT 10SM CLR 13/06 A2985 RMK AO2 SLP114 T01280056=
201204140053 METAR KBLI 140053Z 31004KT 10SM CLR 13/04 A2984 RMK AO2 SLP113 T01330044=
201204132353 METAR KBLI 132353Z 26006KT 10SM CLR 13/06 A2984 RMK AO2 SLP113 T01280056 10133 20089 56005=
201204132253 METAR KBLI 132253Z 27006KT 10SM CLR 12/06 A2984 RMK AO2 SLP114 T01220061=
201204132153 METAR KBLI 132153Z 27008KT 230V300 10SM SCT030 13/06 A2985 RMK AO2 SLP116 T01280061=
201204132053 METAR KBLI 132053Z 32005KT 10SM SCT026 SCT034 12/05 A2986 RMK AO2 SLP118 T01220050 56003=
201204132049 SPECI KBLI 132049Z 26003KT 10SM SCT026 12/06 A2986 RMK AO2=
201204132049 SPECI KBLI 132049Z 26003KT 10SM SCT026 12/06 A2986 RMK AO2=
201204131953 METAR KBLI 131953Z 29007KT 10SM BKN019 OVC025 11/06 A2986 RMK AO2 SLP121 T01110056=
201204131853 METAR KBLI 131853Z 00000KT 10SM FEW015 OVC021 10/07 A2987 RMK AO2 SLP122 T01000067=
201204131753 METAR KBLI 131753Z VRB03KT 9SM SCT009 OVC018 09/07 A2987 RMK AO2 SLP123 6//// T00890067 10089 20028 53004=
201204131653 METAR KBLI 131653Z 28005KT 3SM BR BKN004 OVC018 08/07 A2986 RMK AO2 SLP120 T00830067=
201204131555 SPECI KBLI 131555Z AUTO 00000KT 9SM BKN002 BKN020 07/07 A2986 RMK AO2 CIG 001V005 TSNO=
201204131555 SPECI KBLI 131555Z AUTO 00000KT 9SM BKN002 BKN020 07/07 A2986 RMK AO2 CIG 001V005 TSNO=
201204131553 METAR KBLI 131553Z AUTO 00000KT 9SM SCT002 07/07 A2986 RMK AO2 SLP119 T00670067 TSNO=
201204131548 SPECI KBLI 131548Z 00000KT 8SM SCT002 07/06 A2986 RMK AO2=
201204131548 SPECI KBLI 131548Z 00000KT 8SM SCT002 07/06 A2986 RMK AO2=
201204131537 SPECI KBLI 131537Z 00000KT 3SM BR BKN002 06/06 A2986 RMK AO2 $=
201204131537 SPECI KBLI 131537Z 00000KT 3SM BR BKN002 06/06 A2986 RMK AO2 $=
201204131526 SPECI KBLI 131526Z 00000KT 1SM R16/4000VP6000FT BR OVC002 06/06 A2986 RMK AO2 $=
201204131526 SPECI KBLI 131526Z 00000KT 1SM R16/4000VP6000FT BR OVC002 06/06 A2986 RMK AO2 $=
201204131518 SPECI KBLI 131518Z 01003KT 1/4SM R16/1400VP6000FT FG VV002 06/05 A2986 RMK AO2 $=
201204131518 SPECI KBLI 131518Z 01003KT 1/4SM R16/1400VP6000FT FG VV002 06/05 A2986 RMK AO2 $=
201204131453 METAR KBLI 131453Z 31003KT M1/4SM R16/1000V1400FT FG VV001 05/04 A2986 RMK AO2 SLP118 6//// T00500044 53003 $=
201204131446 SPECI KBLI 131446Z 00000KT M1/4SM R16/0800V1000FT FG VV001 04/04 A2985 RMK AO2 $=
201204131446 SPECI KBLI 131446Z 00000KT M1/4SM R16/0800V1000FT FG VV001 04/04 A2985 RMK AO2 $=
201204131419 SPECI KBLI 131419Z 31004KT M1/4SM R16/0800V1400FT FG 04/03 A2985 RMK AO2 $=
201204131419 SPECI KBLI 131419Z 31004KT M1/4SM R16/0800V1400FT FG 04/03 A2985 RMK AO2 $=
201204131411 SPECI KBLI 131411Z R16/1200V2600FT 04/03 A2985 RMK AO2 $=
201204131411 SPECI KBLI 131411Z R16/1200V2600FT 04/03 A2985 RMK AO2 $=
201204131404 SPECI KBLI 131404Z 00000KT 1/2SM R16/1800V2600FT FG VV001 04/03 A2985 RMK AO2=
201204131404 SPECI KBLI 131404Z 00000KT 1/2SM R16/1800V2600FT FG VV001 04/03 A2985 RMK AO2=
201204131353 METAR KBLI 131353Z 00000KT 1/4SM R16/1200V2000FT FG VV001 03/03 A2985 RMK AO2 SLP115 T00330028=
201204131334 SPECI KBLI 131334Z AUTO 00000KT 1/4SM R16/1400V3000FT FG VV001 03/03 A2984 RMK AO2=
201204131334 SPECI KBLI 131334Z AUTO 00000KT 1/4SM R16/1400V3000FT FG VV001 03/03 A2984 RMK AO2=
201204131324 SPECI KBLI 131324Z AUTO 00000KT 1/4SM R16/1000V1200FT FG VV002 03/03 A2984 RMK AO2=
201204131324 SPECI KBLI 131324Z AUTO 00000KT 1/4SM R16/1000V1200FT FG VV002 03/03 A2984 RMK AO2=
201204131253 METAR KBLI 131253Z AUTO 00000KT 1/4SM R16/1800VP6000FT FG VV002 03/03 A2984 RMK AO2 SLP113 T00330028=
201204131244 SPECI KBLI 131244Z AUTO 00000KT 1/2SM R16/2800VP6000FT FG VV001 03/03 A2984 RMK AO2=
201204131244 SPECI KBLI 131244Z AUTO 00000KT 1/2SM R16/2800VP6000FT FG VV001 03/03 A2984 RMK AO2=
201204131242 SPECI KBLI 131242Z AUTO 00000KT 3/4SM R16/3000VP6000FT BR VV002 04/03 A2984 RMK AO2=
201204131242 SPECI KBLI 131242Z AUTO 00000KT 3/4SM R16/3000VP6000FT BR VV002 04/03 A2984 RMK AO2=
201204131233 SPECI KBLI 131233Z AUTO 00000KT 1 3/4SM BR FEW002 04/04 A2984 RMK AO2 VIS 1V5=
201204131233 SPECI KBLI 131233Z AUTO 00000KT 1 3/4SM BR FEW002 04/04 A2984 RMK AO2 VIS 1V5=
201204131228 SPECI KBLI 131228Z AUTO 00000KT 3SM R16/4500VP6000FT BR CLR 04/04 A2984 RMK AO2=
201204131228 SPECI KBLI 131228Z AUTO 00000KT 3SM R16/4500VP6000FT BR CLR 04/04 A2984=
201204131212 SPECI KBLI 131212Z AUTO 00000KT 1 3/4SM BR FEW002 04/04 A2984 RMK AO2 VIS 1/2V5=
201204131212 SPECI KBLI 131212Z AUTO 00000KT 1 3/4SM BR FEW002 04/04 A2984 RMK AO2 VIS 1/2V5=
201204131210 SPECI KBLI 131210Z AUTO 00000KT 3SM BR CLR 04/04 A2984 RMK AO2=
201204131210 SPECI KBLI 131210Z AUTO 00000KT 3SM BR CLR 04/04 A2984 RMK AO2=
201204131200 SPECI KBLI 131200Z AUTO 00000KT 1 3/4SM BR FEW002 05/04 A2985 RMK AO2=
201204131200 SPECI KBLI 131200Z AUTO 00000KT 1 3/4SM BR FEW002 05/04 A2985 RMK AO2=
201204131153 METAR KBLI 131153Z AUTO 00000KT 10SM CLR 05/04 A2985 RMK AO2 SLP115 70020 T00500039 10078 20044 53003=
201204131136 SPECI KBLI 131136Z AUTO 05003KT 10SM SCT002 05/04 A2984 RMK AO2=
201204131136 SPECI KBLI 131136Z AUTO 05003KT 10SM SCT002 05/04 A2984 RMK AO2=
201204131121 SPECI KBLI 131121Z AUTO 00000KT 3SM BR BKN002 BKN027 06/06 A2985 RMK AO2=
201204131121 SPECI KBLI 131121Z AUTO 00000KT 3SM BR BKN002 BKN027 06/06 A2985 RMK AO2=
201204131116 SPECI KBLI 131116Z AUTO 03003KT 1SM R16/3000VP6000FT BR BKN002 OVC027 06/06 A2984 RMK AO2=
201204131116 SPECI KBLI 131116Z AUTO 03003KT 1SM R16/3000VP6000FT BR BKN002 OVC027 06/06 A2984 RMK AO2=
201204131111 SPECI KBLI 131111Z AUTO 00000KT 1/2SM R16/3000VP6000FT FG BKN002 OVC027 06/06 A2985 RMK AO2=
201204131111 SPECI KBLI 131111Z AUTO 00000KT 1/2SM R16/3000VP6000FT FG BKN002 OVC027 06/06 A2985 RMK AO2=
201204131056 SPECI KBLI 131056Z AUTO 05003KT 1/2SM R16/P6000FT FG FEW002 OVC027 06/05 A2984 RMK AO2=
201204131056 SPECI KBLI 131056Z AUTO 05003KT 1/2SM R16/P6000FT FG FEW002 OVC027 06/05 A2984 RMK AO2=
201204131053 METAR KBLI 131053Z AUTO 00000KT 3/4SM R16/P6000FT BR OVC027 06/05 A2984 RMK AO2 SLP113 T00560050=
201204131026 SPECI KBLI 131026Z AUTO 00000KT 3/4SM R16/P6000FT BR BKN027 06/05 A2984 RMK AO2=
201204131026 SPECI KBLI 131026Z AUTO 00000KT 3/4SM R16/P6000FT BR BKN027 06/05 A2984 RMK AO2=
201204131020 SPECI KBLI 131020Z AUTO 00000KT 1 3/4SM BR SCT027 06/05 A2984 RMK AO2 VIS 1V4=
201204131020 SPECI KBLI 131020Z AUTO 00000KT 1 3/4SM BR SCT027 06/05 A2984 RMK AO2 VIS 1V4=
201204131016 SPECI KBLI 131016Z AUTO 00000KT 3SM BR SCT027 06/05 A2984 RMK AO2=
201204131016 SPECI KBLI 131016Z AUTO 00000KT 3SM BR SCT027 06/05 A2984 RMK AO2=
201204131000 SPECI KBLI 131000Z AUTO 00000KT 4SM BR BKN029 06/06 A2984 RMK AO2=
201204131000 SPECI KBLI 131000Z AUTO 00000KT 4SM BR BKN029 06/06 A2984 RMK AO2=
201204130953 METAR KBLI 130953Z AUTO 00000KT 2 1/2SM BR BKN029 06/06 A2984 RMK AO2 VIS 2V4 SLP111 T00610056=
201204130933 SPECI KBLI 130933Z AUTO 00000KT 1 3/4SM R16/2400VP6000FT BR BKN029 BKN043 06/06 A2984 RMK AO2=
201204130933 SPECI KBLI 130933Z AUTO 00000KT 1 3/4SM R16/2400VP6000FT BR BKN029 BKN043 06/06 A2984 RMK AO2=
201204130922 SPECI KBLI 130922Z AUTO 00000KT 1 3/4SM BR SCT029 BKN043 07/06 A2984 RMK AO2=
201204130922 SPECI KBLI 130922Z AUTO 00000KT 1 3/4SM BR SCT029 BKN043 07/06 A2984 RMK AO2=
201204130853 METAR KBLI 130853Z AUTO 00000KT 10SM FEW029 OVC043 07/07 A2983 RMK AO2 SLP110 T00720067 53002=
201204130753 METAR KBLI 130753Z AUTO 00000KT 10SM SCT043 BKN070 07/06 A2983 RMK AO2 SLP106 T00670061 401610061=
201204130653 METAR KBLI 130653Z AUTO 00000KT 10SM OVC049 08/07 A2982 RMK AO2 SLP105 T00780067=
201204130553 METAR KBLI 130553Z AUTO 08003KT 10SM SCT026 OVC035 08/07 A2983 RMK AO2 RAE35 SLP107 P0000 60020 T00780067 10133 20078 50003=
201204130526 SPECI KBLI 130526Z 11003KT 10SM -RA OVC028 08/07 A2983 RMK AO2 P0000=
201204130526 SPECI KBLI 130526Z 11003KT 10SM -RA OVC028 08/07 A2983 RMK AO2 P0000=
201204130453 METAR KBLI 130453Z 04004KT 8SM -RA SCT027 OVC034 08/07 A2983 RMK AO2 SLP109 P0007 T00780067=
201204130435 SPECI KBLI 130435Z 03005KT 4SM -RA BR BKN027 OVC034 08/07 A2984 RMK AO2 P0007=
201204130435 SPECI KBLI 130435Z 03005KT 4SM -RA BR BKN027 OVC034 08/07 A2984 RMK AO2 P0007=
201204130405 SPECI KBLI 130405Z 04003KT 7SM -RA OVC032 08/07 A2984 RMK AO2 P0002=
201204130405 SPECI KBLI 130405Z 04003KT 7SM -RA OVC032 08/07 A2984 RMK AO2 P0002=
201204130353 METAR KBLI 130353Z 00000KT 6SM -RA BR BKN028 OVC035 08/07 A2983 RMK AO2 RAE0257B15 SLP111 P0003 T00830067=
201204130312 SPECI KBLI 130312Z 01003KT 10SM OVC028 09/07 A2982 RMK AO2 RAE0257 P0000=
201204130312 SPECI KBLI 130312Z 01003KT 10SM OVC028 09/07 A2982 RMK AO2 RAE0257 P0000=
201204130253 METAR KBLI 130253Z 34003KT 10SM -RA BKN030 OVC040 08/07 A2982 RMK AO2 RAB17 SLP105 P0000 60010 T00830072 51005=
201204130249 SPECI KBLI 130249Z 00000KT 10SM -RA BKN028 OVC037 09/07 A2982 RMK AO2 RAB17 P0000=
201204130249 SPECI KBLI 130249Z 00000KT 10SM -RA BKN028 OVC037 09/07 A2982 RMK AO2 RAB17 P0000=
201204130153 METAR KBLI 130153Z 28003KT 10SM SCT026 BKN033 OVC050 09/06 A2981 RMK AO2 RAE01 SLP102 P0000 T00890061=
201204130053 METAR KBLI 130053Z 00000KT 10SM -RA OVC024 09/06 A2980 RMK AO2 LTG DSNT NE RAB26 SLP100 P0010 T00890056=
201204130040 SPECI KBLI 130040Z VRB04KT 6SM RA OVC024 09/06 A2980 RMK AO2 RAB26 VIS N-NE 3 P0009=
201204130040 SPECI KBLI 130040Z VRB04KT 6SM RA OVC024 09/06 A2980 RMK AO2 RAB26 VIS N-NE 3 P0009=
201204122353 METAR KBLI 122353Z 18008G17KT 150V210 10SM SCT043 BKN060 13/06 A2977 RMK AO2 SLP087 T01330056 10161 20128 53017=
201204122253 METAR KBLI 122253Z 20008G16KT 10SM CLR 14/05 A2974 RMK AO2 SLP079 T01390050=
201204122153 METAR KBLI 122153Z 20004KT 10SM CLR 16/03 A2972 RMK AO2 SLP070 T01560028=
201204122053 METAR KBLI 122053Z 02005KT 10SM BKN038 BKN045 16/06 A2972 RMK AO2 SLP071 T01560061 58001=
201204121953 METAR KBLI 121953Z 00000KT 10SM BKN043 14/06 A2973 RMK AO2 SLP074 T01390061=
201204121853 METAR KBLI 121853Z 04005KT 10SM FEW031 BKN120 14/07 A2973 RMK AO2 SLP073 T01390067=
201204121753 METAR KBLI 121753Z 01006KT 10SM SCT110 13/08 A2972 RMK AO2 SLP071 60000 T01280078 10128 20061 55000=
201204121653 METAR KBLI 121653Z 02005KT 10SM BKN110 12/08 A2972 RMK AO2 SLP069 T01170083=
201204121553 METAR KBLI 121553Z 04004KT 10SM BKN110 10/08 A2972 RMK AO2 SLP070 T01000078=
201204121453 METAR KBLI 121453Z 02004KT 10SM OVC110 08/07 A2972 RMK AO2 SLP072 60000 T00780072 53001=
201204121402 SPECI KBLI 121402Z 00000KT 10SM R16/3500VP6000FT FEW001 06/06 A2972 RMK AO2=
201204121402 SPECI KBLI 121402Z 00000KT 10SM R16/3500VP6000FT FEW001 06/06 A2972 RMK AO2=
201204121353 METAR KBLI 121353Z AUTO 00000KT 1 1/4SM R16/2800VP6000FT BR FEW001 SCT120 07/06 A2972 RMK AO2 SLP072 T00670061=
201204121336 SPECI KBLI 121336Z AUTO 00000KT 1/4SM R16/2200VP6000FT FG SCT001 BKN055 07/06 A2972 RMK AO2=
201204121336 SPECI KBLI 121336Z AUTO 00000KT 1/4SM R16/2200VP6000FT FG SCT001 BKN055 07/06 A2972 RMK AO2=
201204121328 SPECI KBLI 121328Z AUTO 00000KT 3/4SM R16/P6000FT BR FEW001 BKN050 07/06 A2972 RMK AO2=
201204121328 SPECI KBLI 121328Z AUTO 00000KT 3/4SM R16/P6000FT BR FEW001 BKN050 07/06 A2972 RMK AO2=
201204121312 SPECI KBLI 121312Z AUTO 00000KT 1 3/4SM BR OVC055 07/07 A2972 RMK AO2=
201204121312 SPECI KBLI 121312Z AUTO 00000KT 1 3/4SM BR OVC055 07/07 A2972 RMK AO2=
201204121253 METAR KBLI 121253Z AUTO 00000KT 10SM FEW039 BKN055 08/07 A2972 RMK AO2 RAB23E33 SLP072 P0000 T00780067=
201204121233 SPECI KBLI 121233Z AUTO 00000KT 3SM BR SCT039 OVC060 08/07 A2972 RMK AO2 RAB23E33 P0000=
201204121233 SPECI KBLI 121233Z AUTO 00000KT 3SM BR SCT039 OVC060 08/07 A2972 RMK AO2 RAB23E33 P0000=
201204121213 SPECI KBLI 121213Z AUTO 00000KT 1 3/4SM R16/6000VP6000FT BR BKN039 OVC060 08/07 A2972 RMK AO2=
201204121213 SPECI KBLI 121213Z AUTO 00000KT 1 3/4SM R16/6000VP6000FT BR BKN039 OVC060 08/07 A2972 RMK AO2=
201204121206 SPECI KBLI 121206Z AUTO 00000KT 3SM R16/4000VP6000FT BR BKN039 OVC065 08/07 A2972 RMK AO2=
201204121206 SPECI KBLI 121206Z AUTO 00000KT 3SM R16/4000VP6000FT BR BKN039 OVC065 08/07 A2972 RMK AO2=
201204121201 SPECI KBLI 121201Z AUTO 00000KT 1 1/2SM R16/4000VP6000FT BR BKN039 OVC065 08/07 A2972 RMK AO2=
201204121201 SPECI KBLI 121201Z AUTO 00000KT 1 1/2SM R16/4000VP6000FT BR BKN039 OVC065 08/07 A2972 RMK AO2=
201204121153 METAR KBLI 121153Z AUTO 00000KT 2 1/2SM BR BKN039 OVC050 08/07 A2972 RMK AO2 VIS 1V5 RAB05E27 SLP072 P0000 60001 70020 T00830072 10089 20078 52003=
201204121150 SPECI KBLI 121150Z AUTO 00000KT 3SM BR BKN037 BKN045 OVC050 08/07 A2972 RMK AO2 RAB05E27 P0000=
201204121150 SPECI KBLI 121150Z AUTO 00000KT 3SM BR BKN037 BKN045 OVC050 08/07 A2972 RMK AO2 RAB05E27 P0000=
201204121136 SPECI KBLI 121136Z AUTO 00000KT 1 1/2SM BR SCT035 BKN043 OVC050 08/07 A2972 RMK AO2 RAB05E27 P0000=
201204121136 SPECI KBLI 121136Z AUTO 00000KT 1 1/2SM BR SCT035 BKN043 OVC050 08/07 A2972 RMK AO2 RAB05E27 P0000=
201204121053 METAR KBLI 121053Z AUTO 00000KT 10SM BKN033 OVC044 09/08 A2972 RMK AO2 SLP071 T00890078=
201204120953 METAR KBLI 120953Z AUTO 00000KT 10SM OVC037 09/08 A2971 RMK AO2 RAB22E49 SLP069 P0000 T00890078=
201204120853 METAR KBLI 120853Z AUTO 17004KT 10SM OVC041 09/08 A2971 RMK AO2 RAE05 SLP068 P0001 60001 T00890078 53005=
201204120753 METAR KBLI 120753Z AUTO 17004KT 7SM -RA FEW003 BKN047 OVC060 09/08 A2971 RMK AO2 RAB44 SLP066 P0000 T00890083 401110067=
201204120721 SPECI KBLI 120721Z AUTO 17004KT 9SM FEW003 OVC043 09/08 A2970 RMK AO2=
201204120721 SPECI KBLI 120721Z AUTO 17004KT 9SM FEW003 OVC043 09/08 A2970 RMK AO2=
201204120653 METAR KBLI 120653Z AUTO 18003KT 8SM OVC045 09/08 A2969 RMK AO2 SLP062 T00890083=
201204120650 SPECI KBLI 120650Z AUTO 18003KT 7SM FEW008 OVC045 09/08 A2970 RMK AO2=
201204120650 SPECI KBLI 120650Z AUTO 18003KT 7SM FEW008 OVC045 09/08 A2970 RMK AO2=
201204120553 METAR KBLI 120553Z AUTO 16003KT 10SM FEW010 SCT033 OVC085 09/08 A2969 RMK AO2 SLP063 60010 T00890083 10100 20089 50000=
201204120453 METAR KBLI 120453Z 17003KT 9SM SCT030 BKN045 OVC070 09/08 A2970 RMK AO2 RAE03 SLP063 P0000 T00940083=
201204120419 SPECI KBLI 120419Z 16004KT 9SM SCT003 BKN045 OVC060 09/09 A2970 RMK AO2 RAE03 P0000=
201204120419 SPECI KBLI 120419Z 16004KT 9SM SCT003 BKN045 OVC060 09/09 A2970 RMK AO2 RAE03 P0000=
201204120353 METAR KBLI 120353Z 16007KT 8SM -RA OVC003 09/08 A2970 RMK AO2 SLP064 P0001 T00940083=
201204120324 SPECI KBLI 120324Z 17005KT 7SM -RA BKN003 OVC040 09/09 A2970 RMK AO2 P0000=
201204120324 SPECI KBLI 120324Z 17005KT 7SM -RA BKN003 OVC040 09/09 A2970 RMK AO2 P0000=
201204120310 SPECI KBLI 120310Z 16006KT 8SM -RA SCT005 OVC040 09/09 A2969 RMK AO2 P0000=
201204120310 SPECI KBLI 120310Z 16006KT 8SM -RA SCT005 OVC040 09/09 A2969 RMK AO2 P0000=
201204120253 METAR KBLI 120253Z 17006KT 8SM -RA OVC042 09/08 A2969 RMK AO2 SLP062 P0001 60009 T00940083 51008=
201204120153 METAR KBLI 120153Z 16006KT 8SM -RA OVC044 10/08 A2968 RMK AO2 SLP059 P0003 T01000083=
201204120053 METAR KBLI 120053Z 15009KT 6SM -RA BR FEW005 BKN040 OVC047 09/09 A2968 RMK AO2 SLP059 P0005 T00940089=
201204120044 SPECI KBLI 120044Z 16007KT 4SM -RA BR FEW003 BKN030 OVC040 09/09 A2968 RMK AO2 P0005=
201204120044 SPECI KBLI 120044Z 16007KT 4SM -RA BR FEW003 BKN030 OVC040 09/09 A2968 RMK AO2 P0005=
201204120019 SPECI KBLI 120019Z 17007KT 4SM -RA BR SCT003 BKN014 OVC050 09/08 A2968 RMK AO2 P0002=
201204120019 SPECI KBLI 120019Z 17007KT 4SM -RA BR SCT003 BKN014 OVC050 09/08 A2968 RMK AO2 P0002=
201204112353 METAR KBLI 112353Z 16005KT 4SM -RA BR BKN005 BKN009 OVC040 09/09 A2967 RMK AO2 SLP054 P0003 60009 T00940089 10106 20094 53008=
201204112321 SPECI KBLI 112321Z 19003KT 4SM -RA BR BKN005 OVC046 09/08 A2966 RMK AO2 P0001=
201204112321 SPECI KBLI 112321Z 19003KT 4SM -RA BR BKN005 OVC046 09/08 A2966 RMK AO2 P0001=
201204112307 SPECI KBLI 112307Z 00000KT 6SM -RA BR SCT005 BKN027 OVC040 09/08 A2966 RMK AO2 P0001=
201204112307 SPECI KBLI 112307Z 00000KT 6SM -RA BR SCT005 BKN027 OVC040 09/08 A2966 RMK AO2 P0001=
201204112300 SPECI KBLI 112300Z 00000KT 6SM -RA BR FEW006 OVC042 09/08 A2966 RMK AO2 P0000=
201204112300 SPECI KBLI 112300Z 00000KT 6SM -RA BR FEW006 OVC042 09/08 A2966 RMK AO2 P0000=
201204112253 METAR KBLI 112253Z 00000KT 6SM -RA BR BKN027 OVC038 09/08 A2966 RMK AO2 SLP049 P0003 T00940083=
201204112234 SPECI KBLI 112234Z 20003KT 6SM -RA BR BKN027 OVC038 09/08 A2965 RMK AO2 P0002=
201204112234 SPECI KBLI 112234Z 20003KT 6SM -RA BR BKN027 OVC038 09/08 A2965 RMK AO2 P0002=
201204112224 SPECI KBLI 112224Z 21003KT 5SM -RA BR SCT027 OVC038 09/08 A2965 RMK AO2 P0002=
201204112224 SPECI KBLI 112224Z 21003KT 5SM -RA BR SCT027 OVC038 09/08 A2965 RMK AO2 P0002=
201204112153 METAR KBLI 112153Z VRB04KT 6SM -RA BR FEW019 BKN027 OVC036 10/08 A2965 RMK AO2 SLP046 P0002 T01000083=
201204112053 METAR KBLI 112053Z VRB03KT 8SM -RA BKN038 BKN049 OVC060 11/08 A2964 RMK AO2 SLP045 P0001 60001 T01060083 58005=
201204111953 METAR KBLI 111953Z 17006KT 10SM -RA BKN047 BKN055 OVC065 11/08 A2965 RMK AO2 RAB27 SLP048 P0000 T01060078=
201204111853 SPECI KBLI 111853Z 19004KT 10SM SCT044 BKN050 OVC090 11/07 A2965 RMK AO2 RAE1756 SLP048 P0000 T01060072=
201204111753 METAR KBLI 111753Z 16005KT 10SM -RA SCT038 BKN049 OVC080 10/08 A2966 RMK AO2 RAB06 SLP050 P0000 60000 T01000078 10100 20067 58007=
201204111653 METAR KBLI 111653Z 19005KT 10SM OVC090 10/07 A2967 RMK AO2 SLP053 T01000072=
201204111553 METAR KBLI 111553Z 18006KT 10SM FEW045 SCT120 10/07 A2967 RMK AO2 SLP055 T01000072=
201204111453 METAR KBLI 111453Z 18006KT 10SM CLR 09/08 A2968 RMK AO2 SLP057 T00940078 58012=
201204111353 METAR KBLI 111353Z 18003KT 10SM SCT049 08/07 A2969 RMK AO2 SLP062 T00830072=
201204111253 METAR KBLI 111253Z AUTO 00000KT 10SM BKN100 08/07 A2970 RMK AO2 SLP064 T00830067=
201204111153 METAR KBLI 111153Z AUTO 00000KT 9SM CLR 08/06 A2971 RMK AO2 SLP068 T00780061 10128 20072 57013=
201204111053 METAR KBLI 111053Z AUTO 00000KT 10SM OVC090 10/07 A2972 RMK AO2 SLP072 T01000072=
201204110953 METAR KBLI 110953Z AUTO 19005KT 10SM CLR 10/07 A2974 RMK AO2 SLP078 T01000072=
201204110853 METAR KBLI 110853Z AUTO 17006KT 10SM OVC100 11/07 A2975 RMK AO2 SLP081 T01110067 58007=
201204110753 METAR KBLI 110753Z AUTO 16004KT 10SM FEW120 11/07 A2975 RMK AO2 SLP082 T01060072 401610061=
201204110653 METAR KBLI 110653Z AUTO 00000KT 10SM BKN100 BKN120 12/07 A2977 RMK AO2 SLP088 T01170072=
201204110553 METAR KBLI 110553Z AUTO 00000KT 10SM OVC100 12/07 A2977 RMK AO2 SLP088 T01220072 10161 20117 50002=
201204110453 METAR KBLI 110453Z 00000KT 10SM SCT065 BKN080 OVC095 13/08 A2979 RMK AO2 SLP095 T01280083=
201204110353 METAR KBLI 110353Z 00000KT 10SM OVC090 13/08 A2979 RMK AO2 SLP093 T01330078=
201204110253 METAR KBLI 110253Z 00000KT 10SM OVC110 14/07 A2977 RMK AO2 SLP087 T01440072 51007=
201204110153 METAR KBLI 110153Z 00000KT 10SM BKN110 16/06 A2976 RMK AO2 SLP083 T01610056=
201204110053 METAR KBLI 110053Z 16004KT 10SM CLR 16/06 A2976 RMK AO2 SLP085 T01560056=
201204102353 METAR KBLI 102353Z 18005KT 10SM CLR 15/06 A2974 RMK AO2 SLP079 T01500061 10156 20128 50000=
201204102253 METAR KBLI 102253Z 19006KT 10SM SCT120 15/06 A2975 RMK AO2 SLP081 T01500056=
201204102153 METAR KBLI 102153Z 21005KT 10SM CLR 14/05 A2975 RMK AO2 SLP080 T01390050=
201204102053 METAR KBLI 102053Z 28005KT 10SM CLR 13/06 A2974 RMK AO2 SLP079 T01280061 51007=
201204101953 METAR KBLI 101953Z VRB04KT 10SM CLR 13/07 A2974 RMK AO2 SLP077 T01330067=
201204101853 METAR KBLI 101853Z 00000KT 10SM CLR 13/07 A2973 RMK AO2 SLP075 T01280067=
201204101753 METAR KBLI 101753Z 00000KT 10SM CLR 14/05 A2972 RMK AO2 SLP072 T01390050 10139 20061 58001=
201204101653 METAR KBLI 101653Z 04003KT 10SM CLR 13/06 A2973 RMK AO2 SLP075 T01280056=
201204101553 METAR KBLI 101553Z 00000KT 10SM CLR 11/06 A2973 RMK AO2 SLP074 T01060056=
201204101453 METAR KBLI 101453Z 00000KT 10SM CLR 09/06 A2973 RMK AO2 SLP073 T00940061 55008=
201204101353 METAR KBLI 101353Z 00000KT 10SM CLR 07/04 A2972 RMK AO2 SLP071 T00720044=
201204101253 METAR KBLI 101253Z AUTO 29004KT 10SM CLR 07/04 A2974 RMK AO2 SLP076 T00720039=
201204101153 METAR KBLI 101153Z AUTO 00000KT 10SM CLR 08/04 A2975 RMK AO2 SLP081 T00780039 10111 20067 58018=
201204101053 METAR KBLI 101053Z AUTO 00000KT 10SM CLR 08/04 A2977 RMK AO2 SLP086 T00780044=
201204100953 METAR KBLI 100953Z AUTO 00000KT 10SM CLR 08/04 A2979 RMK AO2 SLP095 T00780044=
201204100853 METAR KBLI 100853Z AUTO 00000KT 10SM CLR 09/04 A2980 RMK AO2 SLP098 T00940044 58018=
201204100753 METAR KBLI 100753Z AUTO 00000KT 10SM CLR 10/05 A2983 RMK AO2 SLP107 T01000050 401780039=
201204100653 METAR KBLI 100653Z AUTO 00000KT 10SM CLR 10/04 A2985 RMK AO2 SLP115 T01000044=
201204100553 METAR KBLI 100553Z AUTO 36004KT 10SM FEW120 11/04 A2986 RMK AO2 SLP117 T01060044 10178 20094 58006=
201204100453 METAR KBLI 100453Z 17003KT 10SM OVC110 12/04 A2989 RMK AO2 SLP130 T01170044=
201204100353 METAR KBLI 100353Z 18004KT 10SM BKN110 12/03 A2988 RMK AO2 SLP127 T01170033=
201204100253 METAR KBLI 100253Z 00000KT 10SM BKN120 13/03 A2988 RMK AO2 SLP123 T01330033 55005=
201204100153 METAR KBLI 100153Z 21003KT 10SM BKN110 16/03 A2986 RMK AO2 SLP119 T01610028=
201204100053 METAR KBLI 100053Z 27006KT 10SM SCT110 17/02 A2987 RMK AO2 SLP123 T01670022=
201204092353 METAR KBLI 092353Z 27005KT 10SM CLR 18/02 A2989 RMK AO2 SLP128 T01780017 10178 20133 56013=
201204092253 METAR KBLI 092253Z 29006KT 10SM CLR 17/02 A2989 RMK AO2 SLP130 T01670017=
201204092153 METAR KBLI 092153Z 26005KT 10SM CLR 17/03 A2990 RMK AO2 SLP133 T01670028=
201204092053 METAR KBLI 092053Z 28006KT 10SM CLR 17/04 A2993 RMK AO2 SLP141 T01670044 56018=
201204091953 METAR KBLI 091953Z 25006KT 10SM CLR 16/05 A2994 RMK AO2 SLP146 T01610050=
201204091853 METAR KBLI 091853Z VRB04KT 10SM CLR 16/05 A2996 RMK AO2 SLP153 T01560050=
201204091753 METAR KBLI 091753Z 00000KT 10SM CLR 13/03 A2998 RMK AO2 SLP160 T01330028 10139 20039 50001=
201204091653 METAR KBLI 091653Z 00000KT 10SM CLR 12/03 A2999 RMK AO2 SLP165 T01170028=
201204091553 METAR KBLI 091553Z 00000KT 10SM CLR 11/04 A2998 RMK AO2 SLP160 T01060044=
201204091453 METAR KBLI 091453Z 00000KT 10SM CLR 07/05 A2998 RMK AO2 SLP160 T00720050 55002=
201204091353 METAR KBLI 091353Z 00000KT 10SM CLR 05/02 A2998 RMK AO2 SLP159 T00500022 $=
201204091253 METAR KBLI 091253Z AUTO 00000KT 10SM CLR 05/03 A2998 RMK AO2 SLP159 T00500028 $=
201204091153 METAR KBLI 091153Z AUTO 00000KT 10SM CLR 06/04 A2999 RMK AO2 SLP161 T00560039 10083 20056 56007 $=
201204091053 METAR KBLI 091053Z AUTO 00000KT 10SM CLR 06/04 A2999 RMK AO2 SLP162 T00560044 $=
201204090953 METAR KBLI 090953Z AUTO 00000KT 10SM CLR 07/04 A3000 RMK AO2 SLP165 T00670044 $=
201204090853 METAR KBLI 090853Z AUTO 14003KT 10SM BKN100 08/05 A3001 RMK AO2 SLP169 T00780050 58007 $=
201204090753 METAR KBLI 090753Z AUTO VRB03KT 10SM OVC110 08/05 A3002 RMK AO2 SLP173 T00780050 402000011 $=
201204090653 METAR KBLI 090653Z AUTO 00000KT 10SM BKN110 07/05 A3003 RMK AO2 SLP175 T00720050 $=
201204090553 METAR KBLI 090553Z 18003KT 10SM CLR 07/05 A3003 RMK AO2 SLP176 T00720050 10194 20067 58002 $=
201204090453 METAR KBLI 090453Z 14003KT 10SM CLR 07/04 A3004 RMK AO2 SLP178 T00670044 $=
201204090353 METAR KBLI 090353Z 00000KT 10SM FEW110 08/04 A3004 RMK AO2 SLP178 T00780044 $=
201204090253 METAR KBLI 090253Z 00000KT 10SM CLR 11/04 A3004 RMK AO2 SLP179 T01060039 55002 $=
201204090153 METAR KBLI 090153Z 27006KT 10SM OVC120 13/04 A3003 RMK AO2 SLP178 T01280044 $=
201204090053 METAR KBLI 090053Z 01007G15KT 10SM FEW120 18/M01 A3003 RMK AO2 SLP176 T01831011 $=
201204082353 METAR KBLI 082353Z 01010KT 10SM CLR 19/M02 A3004 RMK AO2 SLP180 T01941022 10200 20144 58024 $=
201204082253 METAR KBLI 082253Z 03012G18KT 10SM CLR 19/M02 A3007 RMK AO2 SLP188 T01891017 $=
201204082153 METAR KBLI 082153Z 01011G17KT 10SM CLR 19/M02 A3009 RMK AO2 SLP197 T01891017 $=
201204082053 METAR KBLI 082053Z 01012G17KT 10SM CLR 18/M03 A3011 RMK AO2 SLP204 T01781028 58016 $=
201204081953 METAR KBLI 081953Z 02010G17KT 10SM OVC110 17/M02 A3014 RMK AO2 SLP212 T01671022 $=
201204081853 METAR KBLI 081853Z 02010KT 10SM CLR 16/M03 A3015 RMK AO2 SLP217 T01561028 $=
201204081753 METAR KBLI 081753Z 03011G19KT 10SM CLR 16/M03 A3016 RMK AO2 SLP220 T01561028 10156 20033 58003 $=
201204081653 METAR KBLI 081653Z 03012G24KT 10SM CLR 14/M03 A3017 RMK AO2 SLP223 T01391033 $=
201204081553 METAR KBLI 081553Z 03017G21KT 10SM CLR 12/M04 A3017 RMK AO2 SLP224 T01171039 $=
201204081453 METAR KBLI 081453Z 01010KT 10SM CLR 08/M02 A3017 RMK AO2 SLP224 T00831017 56002 $=
201204081353 METAR KBLI 081353Z 01007KT 10SM CLR 06/M02 A3017 RMK AO2 SLP224 T00561022 $=
201204081253 METAR KBLI 081253Z AUTO 01006KT 10SM CLR 05/M03 A3017 RMK AO2 SLP224 T00501028 $=
201204081153 METAR KBLI 081153Z AUTO 36006KT 10SM CLR 03/M02 A3017 RMK AO2 SLP226 T00331022 10044 20011 56013 $=
201204081053 METAR KBLI 081053Z AUTO 02004KT 10SM CLR 03/M01 A3019 RMK AO2 SLP230 T00281011 $=
201204080953 METAR KBLI 080953Z AUTO 00000KT 10SM CLR 03/M01 A3020 RMK AO2 SLP234 T00331006 $=
201204080853 METAR KBLI 080853Z AUTO 00000KT 10SM CLR 02/01 A3021 RMK AO2 SLP239 T00220011 58002 $=
201204080753 METAR KBLI 080753Z AUTO 00000KT 10SM CLR 03/02 A3022 RMK AO2 SLP241 T00330017 401501011 $=
201204080653 METAR KBLI 080653Z AUTO 00000KT 10SM CLR 03/02 A3022 RMK AO2 SLP242 T00330017 $=
201204080553 METAR KBLI 080553Z AUTO 00000KT 10SM CLR 04/02 A3022 RMK AO2 SLP241 T00440022 10144 20039 53006 $=
201204080453 METAR KBLI 080453Z 00000KT 10SM CLR 05/02 A3021 RMK AO2 SLP240 T00500022 $=
201204080353 METAR KBLI 080353Z 00000KT 10SM CLR 07/03 A3020 RMK AO2 SLP236 T00670028 $=
201204080253 METAR KBLI 080253Z 27003KT 10SM CLR 10/03 A3020 RMK AO2 SLP235 T01000028 55004 $=
201204080153 METAR KBLI 080153Z 25004KT 10SM CLR 12/03 A3020 RMK AO2 SLP234 T01220028 $=
201204080053 METAR KBLI 080053Z 29008KT 10SM CLR 13/03 A3020 RMK AO2 SLP234 T01330028 $=
201204072353 METAR KBLI 072353Z 30007KT 10SM CLR 14/02 A3021 RMK AO2 SLP239 T01390022 10150 20100 56010=
201204072253 METAR KBLI 072253Z VRB05KT 10SM CLR 14/03 A3022 RMK AO2 SLP240 T01390028=
201204072153 METAR KBLI 072153Z 29007KT 250V310 10SM CLR 14/02 A3023 RMK AO2 SLP244 T01390022=
201204072053 METAR KBLI 072053Z 34008KT 10SM CLR 14/M01 A3024 RMK AO2 SLP249 T01441006 58020=
201204071953 METAR KBLI 071953Z 03008KT 10SM CLR 13/00 A3027 RMK AO2 SLP257 T01330000=
201204071853 METAR KBLI 071853Z 36006KT 10SM CLR 12/01 A3029 RMK AO2 SLP266 T01220011=
201204071753 METAR KBLI 071753Z 05006KT 10SM CLR 10/01 A3030 RMK AO2 SLP269 T01000011 10100 21011 51005=
201204071653 METAR KBLI 071653Z 04007KT 10SM CLR 08/02 A3030 RMK AO2 SLP268 T00780017=
201204071553 METAR KBLI 071553Z 01005KT 10SM CLR 05/02 A3030 RMK AO2 SLP268 T00500017=
201204071453 METAR KBLI 071453Z 00000KT 10SM CLR 02/01 A3029 RMK AO2 SLP265 T00170006 56005=
201204071353 METAR KBLI 071353Z 00000KT 10SM CLR 00/M01 A3029 RMK AO2 SLP267 T00001011=
201204071346 SPECI KBLI 071346Z AUTO 00000KT 2 1/2SM BR FEW001 00/M01 A3029 RMK AO2=
201204071346 SPECI KBLI 071346Z AUTO 00000KT 2 1/2SM BR FEW001 00/M01 A3029 RMK AO2=
201204071343 SPECI KBLI 071343Z AUTO 00000KT 1SM R16/P6000FT BR VV001 00/M01 A3029 RMK AO2=
201204071343 SPECI KBLI 071343Z AUTO 00000KT 1SM R16/P6000FT BR VV001 00/M01 A3029 RMK AO2=
201204071253 METAR KBLI 071253Z AUTO 00000KT 1/4SM R16/P6000FT FZFG VV001 M01/M01 A3030 RMK AO2 SLP269 T10061011=
201204071239 SPECI KBLI 071239Z AUTO 00000KT 1/2SM R16/P6000FT FZFG VV001 M01/M02 A3030 RMK AO2=
201204071239 SPECI KBLI 071239Z AUTO 00000KT 1/2SM R16/P6000FT FZFG VV001 M01/M02 A3030 RMK AO2=
201204071236 SPECI KBLI 071236Z AUTO 00000KT 1SM R16/P6000FT BR VV001 M01/M02 A3030 RMK AO2=
201204071236 SPECI KBLI 071236Z AUTO 00000KT 1SM R16/P6000FT BR VV001 M01/M02 A3030 RMK AO2=
201204071232 SPECI KBLI 071232Z AUTO 00000KT 2 1/2SM BR FEW001 M01/M02 A3030 RMK AO2=
201204071232 SPECI KBLI 071232Z AUTO 00000KT 2 1/2SM BR FEW001 M01/M02 A3030 RMK AO2=
201204071153 METAR KBLI 071153Z AUTO 00000KT 6SM BR CLR 00/M01 A3030 RMK AO2 SLP271 T00001011 10033 21006 58001=
201204071053 METAR KBLI 071053Z AUTO 00000KT 10SM CLR 00/M01 A3031 RMK AO2 SLP273 T00001011=
201204070953 METAR KBLI 070953Z AUTO 00000KT 10SM CLR 01/M01 A3031 RMK AO2 SLP273 T00061006=
201204070853 METAR KBLI 070853Z AUTO 00000KT 10SM CLR 02/01 A3031 RMK AO2 SLP271 T00170006 53003=
201204070753 METAR KBLI 070753Z AUTO 00000KT 10SM CLR 02/01 A3030 RMK AO2 SLP271 T00220011 401110000=
201204070653 METAR KBLI 070653Z AUTO 00000KT 10SM CLR 03/01 A3030 RMK AO2 SLP267 T00280011=
201204070553 METAR KBLI 070553Z AUTO 00000KT 10SM CLR 03/01 A3030 RMK AO2 SLP269 T00330006 10100 20028 51009=
201204070453 METAR KBLI 070453Z 00000KT 10SM CLR 04/02 A3029 RMK AO2 SLP268 T00390017=
201204070353 METAR KBLI 070353Z 00000KT 10SM CLR 05/02 A3028 RMK AO2 SLP262 T00500017=
201204070253 METAR KBLI 070253Z 00000KT 10SM CLR 08/01 A3027 RMK AO2 SLP259 T00830011 53003=
201204070153 METAR KBLI 070153Z 19004KT 10SM CLR 09/01 A3027 RMK AO2 SLP257 T00940011=
201204070053 METAR KBLI 070053Z 20004KT 10SM CLR 10/01 A3026 RMK AO2 SLP256 T01000011=
201204062353 METAR KBLI 062353Z 18007KT 10SM CLR 09/01 A3026 RMK AO2 SLP256 60000 T00940011 10111 20078 58001=
201204062253 METAR KBLI 062253Z 00000KT 10SM FEW047 BKN070 BKN090 10/02 A3026 RMK AO2 RAE20 SLP257 P0000 T01000022=
201204062153 METAR KBLI 062153Z 01008KT 10SM -RA BKN031 BKN041 OVC080 08/02 A3027 RMK AO2 RAB52 SLP259 P0000 T00830017=
201204062053 METAR KBLI 062053Z 13006KT 10SM SCT017 10/03 A3026 RMK AO2 SLP256 T01000028 58001=
201204061953 METAR KBLI 061953Z 17008KT 10SM SCT017 09/03 A3026 RMK AO2 SLP256 T00890028 $=
201204061853 METAR KBLI 061853Z 17009KT 10SM FEW019 09/03 A3027 RMK AO2 SLP257 T00890033=
201204061753 METAR KBLI 061753Z 16006KT 10SM SCT017 OVC070 08/03 A3027 RMK AO2 SLP257 T00780028 10078 20000 51014=
201204061653 METAR KBLI 061653Z VRB06KT 10SM FEW015 OVC070 07/03 A3025 RMK AO2 SLP253 T00720033=
201204061553 METAR KBLI 061553Z 18007KT 10SM SCT015 BKN070 07/03 A3024 RMK AO2 SLP249 T00670033=
201204061546 SPECI KBLI 061546Z 16008KT 10SM BKN015 OVC070 07/03 A3024 RMK AO2=
201204061546 SPECI KBLI 061546Z 16008KT 10SM BKN015 OVC070 07/03 A3024 RMK AO2=
201204061453 METAR KBLI 061453Z 15003KT 10SM SCT044 OVC070 05/03 A3023 RMK AO2 SLP244 T00500028 53015=
201204061353 METAR KBLI 061353Z 00000KT 10SM OVC055 03/02 A3021 RMK AO2 SLP237 T00330017=
201204061253 METAR KBLI 061253Z AUTO 00000KT 10SM BKN045 OVC050 01/00 A3019 RMK AO2 SLP232 T00110000=
201204061153 METAR KBLI 061153Z AUTO 00000KT 10SM FEW050 01/M01 A3018 RMK AO2 SLP229 T00061006 10050 20006 53008=
201204061053 METAR KBLI 061053Z AUTO 00000KT 10SM CLR 01/M01 A3017 RMK AO2 SLP226 T00061006=
201204060953 METAR KBLI 060953Z AUTO 00000KT 10SM CLR 02/00 A3016 RMK AO2 SLP223 T00170000=
201204060853 METAR KBLI 060853Z AUTO 15003KT 10SM CLR 03/02 A3016 RMK AO2 SLP220 T00330017 53005=
201204060753 METAR KBLI 060753Z AUTO 00000KT 10SM CLR 03/01 A3015 RMK AO2 SLP218 T00280006 401000000=
201204060653 METAR KBLI 060653Z AUTO 13005KT 10SM CLR 04/02 A3014 RMK AO2 SLP216 T00440017=
201204060553 METAR KBLI 060553Z AUTO 13005KT 10SM CLR 05/02 A3014 RMK AO2 SLP215 T00500017 10100 20044 50009=
201204060453 METAR KBLI 060453Z 15003KT 10SM CLR 06/02 A3014 RMK AO2 SLP216 T00560022=
201204060353 METAR KBLI 060353Z 00000KT 10SM CLR 05/03 A3013 RMK AO2 SLP212 T00500028=
201204060253 METAR KBLI 060253Z 00000KT 10SM CLR 07/02 A3012 RMK AO2 SLP207 T00720022 53003=
201204060153 METAR KBLI 060153Z 00000KT 10SM CLR 09/01 A3011 RMK AO2 SLP204 T00890011=
201204060053 METAR KBLI 060053Z 25005KT 10SM CLR 09/00 A3010 RMK AO2 SLP203 T00890000=
201204052353 METAR KBLI 052353Z VRB06KT 10SM CLR 09/01 A3011 RMK AO2 SLP204 60000 T00940006 10100 20072 56006=
201204052253 METAR KBLI 052253Z 28008KT 10SM CLR 09/01 A3011 RMK AO2 SLP205 T00940011=
201204052153 METAR KBLI 052153Z 27008KT 10SM CLR 09/01 A3012 RMK AO2 SLP207 T00940011=
201204052053 METAR KBLI 052053Z 25008KT 220V280 10SM FEW021 SCT031 09/02 A3012 RMK AO2 SLP210 60000 T00940022 58004=
201204051953 METAR KBLI 051953Z VRB05KT 10SM FEW019 SCT027 BKN033 09/03 A3013 RMK AO2 SLP212 T00890028=
201204051853 METAR KBLI 051853Z VRB04KT 10SM SCT021 08/02 A3013 RMK AO2 RAE00 SLP212 P0000 T00830022=
201204051849 SPECI KBLI 051849Z VRB05KT 10SM SCT021 SCT060 08/03 A3013 RMK AO2 RAE00 P0000=
201204051849 SPECI KBLI 051849Z VRB05KT 10SM SCT021 SCT060 08/03 A3013 RMK AO2 RAE00 P0000=
201204051837 SPECI KBLI 051837Z VRB05KT 10SM BKN021 BKN027 OVC060 08/03 A3014 RMK AO2 RAE00 P0000=
201204051837 SPECI KBLI 051837Z VRB05KT 10SM BKN021 BKN027 OVC060 08/03 A3014 RMK AO2 RAE00 P0000=
201204051753 METAR KBLI 051753Z VRB03KT 10SM -RA BKN040 BKN050 OVC060 07/03 A3014 RMK AO2 RAB18 SLP215 P0000 60000 T00720033 10072 20000 50004=
201204051720 SPECI KBLI 051720Z 28003KT 10SM -RA FEW020 BKN034 OVC050 06/03 A3014 RMK AO2 RAB18 P0000=
201204051720 SPECI KBLI 051720Z 28003KT 10SM -RA FEW020 BKN034 OVC050 06/03 A3014 RMK AO2 RAB18 P0000=
201204051653 METAR KBLI 051653Z 31004KT 10SM BKN017 OVC022 06/03 A3014 RMK AO2 SLP216 T00610033=
201204051621 SPECI KBLI 051621Z 00000KT 10SM BKN024 OVC050 07/03 A3014 RMK AO2=
201204051621 SPECI KBLI 051621Z 00000KT 10SM BKN024 OVC050 07/03 A3014 RMK AO2=
201204051553 METAR KBLI 051553Z 00000KT 10SM SCT024 BKN030 OVC047 06/03 A3014 RMK AO2 SLP214 T00560033=
201204051536 SPECI KBLI 051536Z 00000KT 10SM BKN024 OVC049 04/02 A3014 RMK AO2=
201204051536 SPECI KBLI 051536Z 00000KT 10SM BKN024 OVC049 04/02 A3014 RMK AO2=
201204051453 METAR KBLI 051453Z 00000KT 10SM FEW028 OVC045 02/01 A3013 RMK AO2 SLP211 T00220011 53007=
201204051353 METAR KBLI 051353Z AUTO 00000KT 10SM OVC043 01/00 A3012 RMK AO2 SLP208 T00110000=
201204051253 METAR KBLI 051253Z AUTO 00000KT 9SM CLR 00/M01 A3011 RMK AO2 SLP206 T00001006=
201204051153 METAR KBLI 051153Z AUTO 00000KT 10SM CLR 00/M01 A3011 RMK AO2 SLP204 T00001006 10044 20000 51003=
201204051053 METAR KBLI 051053Z AUTO 00000KT 9SM BKN080 01/00 A3011 RMK AO2 SLP204 T00060000=
201204050953 METAR KBLI 050953Z AUTO 14003KT 10SM CLR 02/01 A3010 RMK AO2 SLP203 T00170006=
201204050853 METAR KBLI 050853Z AUTO 00000KT 10SM CLR 02/01 A3010 RMK AO2 SLP201 T00170006 53003=
201204050753 METAR KBLI 050753Z AUTO 00000KT 10SM CLR 02/00 A3009 RMK AO2 SLP199 T00170000 401061011=
201204050653 METAR KBLI 050653Z AUTO 00000KT 10SM CLR 03/01 A3008 RMK AO2 SLP197 T00330011 $=
201204050553 METAR KBLI 050553Z AUTO 00000KT 10SM CLR 03/01 A3009 RMK AO2 SLP197 T00330011 10094 20028 51006=
201204050453 METAR KBLI 050453Z 00000KT 10SM CLR 03/01 A3009 RMK AO2 SLP197 T00280011=
201204050353 METAR KBLI 050353Z 00000KT 10SM CLR 04/02 A3008 RMK AO2 SLP195 T00440022=
201204050253 METAR KBLI 050253Z 00000KT 10SM CLR 07/02 A3007 RMK AO2 SLP191 T00670017 53012=
201204050153 METAR KBLI 050153Z 00000KT 10SM CLR 08/00 A3006 RMK AO2 SLP186 T00830000=
201204050053 METAR KBLI 050053Z VRB04KT 10SM CLR 09/00 A3004 RMK AO2 SLP182 T00940000=
201204042353 METAR KBLI 042353Z 18003KT 10SM FEW040 09/01 A3003 RMK AO2 SLP179 60000 T00890011 10106 20061 53001=
201204042253 METAR KBLI 042253Z 00000KT 10SM BKN035 BKN041 10/02 A3003 RMK AO2 SLP178 T01000017=
201204042153 METAR KBLI 042153Z 28003KT 10SM FEW039 09/00 A3003 RMK AO2 SLP179 T00940000=
201204042053 METAR KBLI 042053Z 19004KT 10SM SCT034 SCT042 BKN050 08/01 A3003 RMK AO2 SLP179 60000 T00780011 53007=
201204042000 SPECI KBLI 042000Z 00000KT 10SM FEW026 BKN037 OVC046 08/01 A3002 RMK AO2=
201204042000 SPECI KBLI 042000Z 00000KT 10SM FEW026 BKN037 OVC046 08/01 A3002 RMK AO2=
201204041953 METAR KBLI 041953Z 25003KT 10SM FEW014 BKN021 OVC037 08/01 A3002 RMK AO2 RAB04E36 SLP175 P0000 T00780011=
201204041853 METAR KBLI 041853Z VRB03KT 10SM FEW014 BKN021 OVC037 08/03 A3002 RMK AO2 SLP174 T00780028=
201204041823 SPECI KBLI 041823Z 16003KT 10SM FEW014 BKN021 OVC037 07/02 A3001 RMK AO2=
201204041823 SPECI KBLI 041823Z 16003KT 10SM FEW014 BKN021 OVC037 07/02 A3001 RMK AO2=
201204041807 SPECI KBLI 041807Z 00000KT 10SM FEW014 SCT021 OVC037 07/03 A3001 RMK AO2=
201204041807 SPECI KBLI 041807Z 00000KT 10SM FEW014 SCT021 OVC037 07/03 A3001 RMK AO2=
201204041753 METAR KBLI 041753Z 00000KT 10SM FEW008 SCT013 BKN020 06/03 A3001 RMK AO2 SLP171 T00610028 10072 21011 53006=
201204041744 SPECI KBLI 041744Z 00000KT 10SM FEW008 SCT013 BKN022 07/04 A3001 RMK AO2=
201204041744 SPECI KBLI 041744Z 00000KT 10SM FEW008 SCT013 BKN022 07/04 A3001 RMK AO2=
201204041700 SPECI KBLI 041700Z 00000KT 8SM FEW001 OVC037 03/03 A3000 RMK AO2=
201204041700 SPECI KBLI 041700Z 00000KT 8SM FEW001 OVC037 03/03 A3000 RMK AO2=
201204041653 METAR KBLI 041653Z 00000KT 10SM FEW001 BKN018 BKN037 03/03 A3000 RMK AO2 SLP168 T00330028=
201204041553 METAR KBLI 041553Z 00000KT 10SM FEW001 OVC018 01/00 A2999 RMK AO2 SLP165 VIS NW 3/4 FG T00060000=
201204041535 SPECI KBLI 041535Z 00000KT 10SM FEW001 BKN018 OVC033 01/00 A3000 RMK AO2 VIS NW 3/4 FG=
201204041535 SPECI KBLI 041535Z 00000KT 10SM FEW001 BKN018 OVC033 01/00 A3000 RMK AO2 VIS NW 3/4 FG=
201204041453 METAR KBLI 041453Z 00000KT 3SM R16/1600V3000FT BR FEW001 SCT040 M01/M01 A2999 RMK AO2 SLP165 T10061006 53005=
201204041443 SPECI KBLI 041443Z 00000KT 1SM R16/1400V2200FT BR FEW001 SCT040 M01/M01 A2999 RMK AO2=
201204041443 SPECI KBLI 041443Z 00000KT 1SM R16/1400V2200FT BR FEW001 SCT040 M01/M01 A2999 RMK AO2=
201204041420 SPECI KBLI 041420Z 00000KT 1SM R16/1800V3500FT BR SCT001 M01/M02 A2999 RMK AO2=
201204041420 SPECI KBLI 041420Z 00000KT 1SM R16/1800V3500FT BR SCT001 M01/M02 A2999 RMK AO2=
201204041412 SPECI KBLI 041412Z 00000KT 1/2SM R16/2400VP6000FT FZFG SCT001 M01/M02 A2998 RMK AO2=
201204041412 SPECI KBLI 041412Z 00000KT 1/2SM R16/2400VP6000FT FZFG SCT001 M01/M02 A2998 RMK AO2=
201204041353 METAR KBLI 041353Z 00000KT 10SM R16/2800V5000FT FEW001 M01/M02 A2998 RMK AO2 SLP162 T10111017=
201204041349 SPECI KBLI 041349Z AUTO 00000KT 1/4SM R16/1800V4500FT FZFG VV001 M01/M01 A2998 RMK AO2=
201204041349 SPECI KBLI 041349Z AUTO 00000KT 1/4SM R16/1800V4500FT FZFG VV001 M01/M01 A2998 RMK AO2=
201204041339 SPECI KBLI 041339Z AUTO 00000KT 1/4SM R16/1600V2000FT FZFG VV001 M01/M01 A2999 RMK AO2=
201204041339 SPECI KBLI 041339Z AUTO 00000KT 1/4SM R16/1600V2000FT FZFG VV001 M01/M01 A2999 RMK AO2=
201204041320 SPECI KBLI 041320Z AUTO 00000KT 1/4SM R16/1800V3500FT FZFG VV001 M01/M01 A2998 RMK AO2=
201204041320 SPECI KBLI 041320Z AUTO 00000KT 1/4SM R16/1800V3500FT FZFG VV001 M01/M01 A2998 RMK AO2=
201204041312 SPECI KBLI 041312Z AUTO 03003KT 3/4SM R16/2400VP6000FT BR VV001 M01/M01 A2998 RMK AO2=
201204041312 SPECI KBLI 041312Z AUTO 03003KT 3/4SM R16/2400VP6000FT BR VV001 M01/M01 A2998 RMK AO2=
201204041308 SPECI KBLI 041308Z AUTO 00000KT 2SM R16/2400VP6000FT BR BKN001 M01/M01 A2998 RMK AO2=
201204041308 SPECI KBLI 041308Z AUTO 00000KT 2SM R16/2400VP6000FT BR BKN001 M01/M01 A2998 RMK AO2=
201204041302 SPECI KBLI 041302Z AUTO 02003KT 3SM BR SCT001 M01/M02 A2998 RMK AO2=
201204041302 SPECI KBLI 041302Z AUTO 02003KT 3SM BR SCT001 M01/M02 A2998 RMK AO2=
201204041258 SPECI KBLI 041258Z AUTO 01003KT 1 3/4SM BR FEW001 M01/M02 A2998 RMK AO2=
201204041258 SPECI KBLI 041258Z AUTO 01003KT 1 3/4SM BR FEW001 M01/M02 A2998 RMK AO2=
201204041253 METAR KBLI 041253Z AUTO 00000KT 2 1/2SM BR CLR M01/M01 A2998 RMK AO2 SLP160 T10061011=
201204041220 SPECI KBLI 041220Z AUTO 00000KT 8SM FEW008 00/M01 A2997 RMK AO2=
201204041220 SPECI KBLI 041220Z AUTO 00000KT 8SM FEW008 00/M01 A2997 RMK AO2=
201204041153 METAR KBLI 041153Z AUTO 00000KT 8SM CLR 00/M01 A2997 RMK AO2 SLP157 70046 T00001011 10028 21006 57006=
201204041115 SPECI KBLI 041115Z AUTO 00000KT 4SM BR FEW001 00/M01 A2998 RMK AO2=
201204041115 SPECI KBLI 041115Z AUTO 00000KT 4SM BR FEW001 00/M01 A2998 RMK AO2=
201204041104 SPECI KBLI 041104Z AUTO 00000KT 7SM CLR 00/M01 A2998 RMK AO2=
201204041104 SPECI KBLI 041104Z AUTO 00000KT 7SM CLR 00/M01 A2998 RMK AO2=
201204041053 METAR KBLI 041053Z AUTO 00000KT 2SM BR CLR M01/M01 A2998 RMK AO2 VIS 1V4 SLP162 T10061011=
201204041042 SPECI KBLI 041042Z AUTO 00000KT 3SM BR CLR 00/M01 A2997 RMK AO2=
201204041042 SPECI KBLI 041042Z AUTO 00000KT 3SM BR CLR 00/M01 A2997 RMK AO2=
201204041031 SPECI KBLI 041031Z AUTO 00000KT 1 3/4SM BR CLR 00/M01 A2997 RMK AO2=
201204041031 SPECI KBLI 041031Z AUTO 00000KT 1 3/4SM BR CLR 00/M01 A2997 RMK AO2=
201204041027 SPECI KBLI 041027Z AUTO 00000KT 3SM BR CLR 00/M01 A2997 RMK AO2=
201204041027 SPECI KBLI 041027Z AUTO 00000KT 3SM BR CLR 00/M01 A2997 RMK AO2=
201204040953 METAR KBLI 040953Z AUTO 00000KT 2SM R16/4000VP6000FT BR SCT001 00/M01 A2997 RMK AO2 SLP159 T00001006=
201204040946 SPECI KBLI 040946Z AUTO 00000KT 1SM R16/2400VP6000FT BR VV001 00/M01 A2997 RMK AO2=
201204040946 SPECI KBLI 040946Z AUTO 00000KT 1SM R16/2400VP6000FT BR VV001 00/M01 A2997 RMK AO2=
201204040929 SPECI KBLI 040929Z AUTO 00000KT 1 1/2SM R16/3000VP6000FT BR FEW001 01/00 A2997 RMK AO2 VIS 3/4V3=
201204040929 SPECI KBLI 040929Z AUTO 00000KT 1 1/2SM R16/3000VP6000FT BR FEW001 01/00 A2997 RMK AO2 VIS 3/4V3=
201204040912 SPECI KBLI 040912Z AUTO 00000KT 1SM R16/5500VP6000FT BR VV001 01/00 A2998 RMK AO2=
201204040912 SPECI KBLI 040912Z AUTO 00000KT 1SM R16/5500VP6000FT BR VV001 01/00 A2998 RMK AO2=
201204040853 METAR KBLI 040853Z AUTO 00000KT 1/2SM R16/4000VP6000FT FG VV001 01/00 A2999 RMK AO2 SLP164 T00060000 52002=
201204040839 SPECI KBLI 040839Z AUTO 00000KT 3/4SM R16/2200VP6000FT BR VV001 01/00 A2998 RMK AO2=
201204040839 SPECI KBLI 040839Z AUTO 00000KT 3/4SM R16/2200VP6000FT BR VV001 01/00 A2998 RMK AO2=
201204040833 SPECI KBLI 040833Z AUTO 00000KT 2 1/2SM R16/3500VP6000FT BR BKN001 01/01 A2998 RMK AO2=
201204040833 SPECI KBLI 040833Z AUTO 00000KT 2 1/2SM R16/3500VP6000FT BR BKN001 01/01 A2998 RMK AO2=
201204040826 SPECI KBLI 040826Z AUTO 00000KT 7SM SCT001 01/00 A2998 RMK AO2=
201204040826 SPECI KBLI 040826Z AUTO 00000KT 7SM SCT001 01/00 A2998 RMK AO2=
201204040814 SPECI KBLI 040814Z AUTO 00000KT 4SM BR CLR 00/M01 A2998 RMK AO2=
201204040814 SPECI KBLI 040814Z AUTO 00000KT 4SM BR CLR 00/M01 A2998 RMK AO2=
201204040803 SPECI KBLI 040803Z AUTO 00000KT 1 3/4SM BR CLR 01/01 A2999 RMK AO2 VIS 3/4V5=
201204040803 SPECI KBLI 040803Z AUTO 00000KT 1 3/4SM BR CLR 01/01 A2999 RMK AO2 VIS 3/4V5=
201204040753 METAR KBLI 040753Z AUTO 00000KT 5SM BR CLR 01/00 A2999 RMK AO2 SLP164 T00110000 401280011=
201204040653 METAR KBLI 040653Z AUTO 00000KT 10SM CLR 03/02 A2998 RMK AO2 SLP162 T00280017=
201204040553 METAR KBLI 040553Z AUTO 12005KT 10SM FEW060 04/02 A2998 RMK AO2 SLP162 60008 T00390017 10083 20039 53004=
201204040453 METAR KBLI 040453Z 11007KT 10SM BKN060 OVC080 04/02 A2997 RMK AO2 RAE09 SLP159 P0000 T00390022=
201204040353 METAR KBLI 040353Z 12009KT 10SM -RA OVC050 05/03 A2997 RMK AO2 SLP158 P0002 T00500033=
201204040302 SPECI KBLI 040302Z 14009KT 8SM -RA SCT016 OVC034 06/04 A2997 RMK AO2 P0000=
201204040302 SPECI KBLI 040302Z 14009KT 8SM -RA SCT016 OVC034 06/04 A2997 RMK AO2 P0000=
201204040253 METAR KBLI 040253Z 14009KT 8SM -RA FEW018 BKN027 OVC040 06/03 A2997 RMK AO2 SLP157 P0004 60006 T00560033 51015=
201204040204 SPECI KBLI 040204Z 16004KT 7SM -RA BKN027 BKN037 OVC049 06/03 A2996 RMK AO2 P0000=
201204040204 SPECI KBLI 040204Z 16004KT 7SM -RA BKN027 BKN037 OVC049 06/03 A2996 RMK AO2 P0000=
201204040153 METAR KBLI 040153Z 18005KT 10SM -RA SCT027 BKN037 OVC050 06/03 A2996 RMK AO2 RAB23 SLP152 P0002 T00610033=
201204040053 METAR KBLI 040053Z 15009KT 10SM FEW046 SCT070 OVC100 07/02 A2994 RMK AO2 SLP146 T00720022=
201204032353 METAR KBLI 032353Z 13011KT 10SM FEW018 BKN100 08/03 A2993 RMK AO2 SLP141 60024 T00830033 10083 20050 51016=
201204032253 METAR KBLI 032253Z 13008KT 10SM BKN100 08/04 A2992 RMK AO2 SLP138 T00780039=
201204032215 SPECI KBLI 032215Z 13011KT 10SM SCT018 SCT075 OVC090 06/03 A2991 RMK AO2=
201204032215 SPECI KBLI 032215Z 13011KT 10SM SCT018 SCT075 OVC090 06/03 A2991 RMK AO2=
201204032153 METAR KBLI 032153Z 14008KT 10SM BKN018 OVC075 06/04 A2991 RMK AO2 RAE2055 SLP136 P0000 T00610039=
201204032109 SPECI KBLI 032109Z 12005KT 10SM FEW009 OVC016 06/04 A2989 RMK AO2 RAE2055 P0000=
201204032109 SPECI KBLI 032109Z 12005KT 10SM FEW009 OVC016 06/04 A2989 RMK AO2 RAE2055 P0000=
201204032053 METAR KBLI 032053Z 13005KT 8SM -RA BKN016 OVC039 06/04 A2988 RMK AO2 SLP126 P0005 60024 T00560039 51030=
201204031953 METAR KBLI 031953Z 15005KT 5SM -RA BR FEW015 BKN027 OVC032 06/03 A2986 RMK AO2 SLP118 P0009 T00560033=
201204031853 METAR KBLI 031853Z 18004KT 4SM -RA BR FEW007 OVC020 06/04 A2983 RMK AO2 SLP110 P0010 T00610039=
201204031841 SPECI KBLI 031841Z 17006KT 4SM -RA BR FEW007 BKN020 OVC025 06/04 A2982 RMK AO2 P0007=
201204031841 SPECI KBLI 031841Z 17006KT 4SM -RA BR FEW007 BKN020 OVC025 06/04 A2982 RMK AO2 P0007=
201204031753 METAR KBLI 031753Z 19004G15KT 4SM -RA BR BKN007 OVC011 06/05 A2979 RMK AO2 CIG 005V010 SLP095 P0011 60014 T00610050 10128 20056 53031=
201204031736 SPECI KBLI 031736Z 17010G18KT 4SM -RA BR BKN009 OVC033 06/04 A2979 RMK AO2 P0007=
201204031736 SPECI KBLI 031736Z 17010G18KT 4SM -RA BR BKN009 OVC033 06/04 A2979 RMK AO2 P0007=
201204031720 SPECI KBLI 031720Z 17011G19KT 5SM -RA BR SCT007 BKN019 OVC037 06/04 A2977 RMK AO2 P0004=
201204031720 SPECI KBLI 031720Z 17011G19KT 5SM -RA BR SCT007 BKN019 OVC037 06/04 A2977 RMK AO2 P0004=
201204031709 SPECI KBLI 031709Z 17010G19KT 5SM -RA BR FEW007 BKN039 OVC047 06/05 A2977 RMK AO2 P0002=
201204031709 SPECI KBLI 031709Z 17010G19KT 5SM -RA BR FEW007 BKN039 OVC047 06/05 A2977 RMK AO2 P0002=
201204031653 METAR KBLI 031653Z 17011G19KT 6SM -RA BR BKN045 OVC055 07/05 A2975 RMK AO2 SLP082 P0003 T00670050=
201204031553 METAR KBLI 031553Z 17014G24KT 10SM -RA BKN060 OVC075 09/05 A2972 RMK AO2 PK WND 16031/1517 RAB19 SLP071 P0000 T00890050=
201204031453 METAR KBLI 031453Z 16016G23KT 10SM OVC075 12/02 A2970 RMK AO2 SLP063 T01170022 55005=
201204031353 METAR KBLI 031353Z 15012G20KT 10SM OVC095 13/01 A2969 RMK AO2 SLP062 T01280006=
201204031253 METAR KBLI 031253Z AUTO 14013G21KT 10SM OVC110 13/M01 A2970 RMK AO2 SLP063 T01281006=
201204031153 METAR KBLI 031153Z AUTO 13009KT 10SM BKN100 OVC120 12/M01 A2971 RMK AO2 SLP069 T01221006 10139 20083 56027=
201204031053 METAR KBLI 031053Z AUTO 14013G21KT 10SM OVC100 13/M01 A2973 RMK AO2 SLP074 T01281006=
201204030953 METAR KBLI 030953Z AUTO 17011G19KT 10SM OVC100 12/00 A2976 RMK AO2 SLP086 T01220000=
201204030853 METAR KBLI 030853Z AUTO 32003KT 10SM SCT110 09/04 A2979 RMK AO2 SLP096 T00890039 58018=
201204030753 METAR KBLI 030753Z AUTO VRB04KT 10SM CLR 09/03 A2981 RMK AO2 SLP102 T00890033 401610067=
201204030653 METAR KBLI 030653Z AUTO 20004KT 10SM BKN120 12/02 A2983 RMK AO2 SLP109 T01170022=
201204030553 METAR KBLI 030553Z AUTO 13005KT 10SM BKN120 13/00 A2985 RMK AO2 SLP114 T01330000 10144 20128 58015=
201204030453 METAR KBLI 030453Z 15011G19KT 10SM OVC110 14/M01 A2987 RMK AO2 SLP120 T01441006=
201204030353 METAR KBLI 030353Z 15014G20KT 10SM OVC110 14/01 A2988 RMK AO2 SLP123 T01440011=
201204030253 METAR KBLI 030253Z 15010KT 10SM CLR 14/01 A2989 RMK AO2 SLP129 T01440006 56029=
201204030153 METAR KBLI 030153Z 16005KT 10SM CLR 13/02 A2991 RMK AO2 SLP135 T01330017=
201204030053 METAR KBLI 030053Z 16006KT 10SM CLR 14/02 A2995 RMK AO2 SLP148 T01390022=
201204022353 METAR KBLI 022353Z 18009G15KT 10SM CLR 13/02 A2998 RMK AO2 SLP159 T01330022 10161 20106 58020=
201204022253 METAR KBLI 022253Z 13009KT 10SM CLR 16/M01 A3001 RMK AO2 SLP167 T01561006=
201204022153 METAR KBLI 022153Z 14015G23KT 10SM CLR 15/M03 A3002 RMK AO2 PK WND 13027/2107 SLP174 T01501028=
201204022053 METAR KBLI 022053Z 15016G21KT 10SM CLR 14/M01 A3004 RMK AO2 PK WND 13029/1955 SLP179 T01441011 58033=
201204021953 METAR KBLI 021953Z 13016G25KT 10SM CLR 12/M01 A3008 RMK AO2 PK WND 14029/1940 SLP192 T01221006=
201204021853 METAR KBLI 021853Z 14013G20KT 10SM OVC100 11/00 A3011 RMK AO2 SLP202 T01110000=
201204021753 METAR KBLI 021753Z 14014G20KT 10SM OVC110 11/01 A3014 RMK AO2 PK WND 13029/1723 SLP214 T01060006 10106 20078 58013=
201204021653 METAR KBLI 021653Z 13018G26KT 10SM BKN110 10/01 A3017 RMK AO2 PK WND 13026/1651 SLP224 T01000011=
201204021553 METAR KBLI 021553Z 14017G26KT 10SM SCT110 09/01 A3018 RMK AO2 PK WND 13026/1552 SLP228 T00940011=
201204021453 METAR KBLI 021453Z 12015G23KT 10SM SCT040 OVC100 08/01 A3018 RMK AO2 SLP226 T00830011 53002=
201204021353 METAR KBLI 021353Z 13015G24KT 10SM BKN090 BKN110 08/01 A3016 RMK AO2 SLP220 T00830011=
201204021253 METAR KBLI 021253Z AUTO 13015G21KT 10SM SCT035 08/02 A3017 RMK AO2 SLP224 T00780017=
201204021153 METAR KBLI 021153Z AUTO 14012KT 10SM SCT040 SCT120 08/02 A3017 RMK AO2 PK WND 14026/1127 SLP224 70029 T00780022 10078 20061 53001=
201204021115 SPECI KBLI 021115Z AUTO 13014G22KT 10SM SCT030 BKN085 OVC120 07/02 A3015 RMK AO2=
201204021115 SPECI KBLI 021115Z AUTO 13014G22KT 10SM SCT030 BKN085 OVC120 07/02 A3015 RMK AO2=
201204021053 METAR KBLI 021053Z AUTO 13016G24KT 10SM BKN028 OVC100 07/02 A3016 RMK AO2 SLP220 T00720022=
201204021042 SPECI KBLI 021042Z AUTO 14016G21KT 10SM BKN028 OVC100 07/02 A3016 RMK AO2=
201204021042 SPECI KBLI 021042Z AUTO 14016G21KT 10SM BKN028 OVC100 07/02 A3016 RMK AO2=
201204020953 METAR KBLI 020953Z AUTO 15016G25KT 10SM OVC032 08/02 A3016 RMK AO2 SLP223 T00780022=
201204020906 SPECI KBLI 020906Z AUTO 14009KT 10SM SCT026 BKN033 OVC040 07/02 A3017 RMK AO2=
201204020906 SPECI KBLI 020906Z AUTO 14009KT 10SM SCT026 BKN033 OVC040 07/02 A3017 RMK AO2=
201204020853 METAR KBLI 020853Z AUTO 14010KT 10SM BKN026 BKN031 07/03 A3017 RMK AO2 SLP223 T00720028 51011=
201204020753 METAR KBLI 020753Z AUTO 14008KT 10SM BKN028 OVC036 07/03 A3016 RMK AO2 SLP220 T00720028 401000028=
201204020653 METAR KBLI 020653Z AUTO 13007KT 10SM FEW037 07/02 A3015 RMK AO2 SLP218 T00670022=
201204020553 METAR KBLI 020553Z AUTO 14009KT 10SM BKN075 07/02 A3013 RMK AO2 SLP212 60000 T00670022 10094 20061 51018=
201204020453 METAR KBLI 020453Z 13007KT 10SM BKN075 07/03 A3012 RMK AO2 SLP209 T00670028=
201204020353 METAR KBLI 020353Z 14006KT 10SM CLR 07/03 A3011 RMK AO2 SLP204 T00670033=
201204020253 METAR KBLI 020253Z 13006KT 10SM BKN085 07/03 A3008 RMK AO2 SLP195 60000 T00670033 53019=
201204020153 METAR KBLI 020153Z 16004KT 10SM FEW060 08/02 A3006 RMK AO2 SLP189 T00780022=
201204020053 METAR KBLI 020053Z 00000KT 10SM FEW040 OVC060 08/03 A3004 RMK AO2 RAB2359E48 SLP181 P0000 T00830033=
201204012353 METAR KBLI 012353Z 00000KT 6SM HZ OVC060 08/03 A3002 RMK AO2 RAE20 SLP176 P0004 60005 T00780028 10100 20067 51022=
201204012330 SPECI KBLI 012330Z 03003KT 6SM HZ SCT028 BKN065 OVC080 08/03 A3001 RMK AO2 RAE20 P0004=
201204012330 SPECI KBLI 012330Z 03003KT 6SM HZ SCT028 BKN065 OVC080 08/03 A3001 RMK AO2 RAE20 P0004=
201204012253 METAR KBLI 012253Z 26008KT 4SM -RA BKN027 BKN070 OVC095 08/02 A3002 RMK AO2 RAE2159B37 PRESRR SLP175 P0001 T00780022=
201204012153 METAR KBLI 012153Z 16010KT 10SM -RA SCT029 SCT048 BKN055 08/02 A2998 RMK AO2 RAB31 SLP159 P0000 T00830022=
201204012053 METAR KBLI 012053Z 16010G16KT 10SM SCT060 10/01 A2996 RMK AO2 SLP152 T01000011 51025=
201204011953 METAR KBLI 011953Z 17008KT 10SM SCT040 BKN049 BKN065 09/02 A2994 RMK AO2 SLP147 T00890017=
201204011853 METAR KBLI 011853Z 16006KT 10SM SCT026 08/02 A2992 RMK AO2 SLP140 T00830022=
201204011753 METAR KBLI 011753Z 18007KT 10SM SCT026 08/03 A2988 RMK AO2 SLP127 60024 T00780033 10078 20028 53030=
201204011653 METAR KBLI 011653Z 18008KT 10SM CLR 07/03 A2985 RMK AO2 SLP116 T00720033=
201204011553 METAR KBLI 011553Z 18006KT 10SM FEW120 06/03 A2982 RMK AO2 RAE1458 SLP108 P0000 T00560033=
201204011528 SPECI KBLI 011528Z 14004KT 10SM SCT019 SCT044 BKN070 03/02 A2981 RMK AO2 RAE1458 P0000=
201204011528 SPECI KBLI 011528Z 14004KT 10SM SCT019 SCT044 BKN070 03/02 A2981 RMK AO2 RAE1458 P0000=
201204011453 METAR KBLI 011453Z 00000KT 10SM -RA SCT008 OVC015 03/02 A2979 RMK AO2 SLP097 P0006 60024 T00280017 53059=
201204011353 METAR KBLI 011353Z 18003KT 6SM -RA BR OVC008 03/02 A2973 RMK AO2 SLP077 P0009 T00280017=
201204011311 SPECI KBLI 011311Z AUTO 17004KT 5SM -RA BR BKN008 OVC017 03/02 A2970 RMK AO2 P0003=
201204011311 SPECI KBLI 011311Z AUTO 17004KT 5SM -RA BR BKN008 OVC017 03/02 A2970 RMK AO2 P0003=
201204011253 METAR KBLI 011253Z AUTO 16005KT 6SM -RA BR FEW008 OVC021 03/02 A2968 RMK AO2 SLP058 P0009 T00280017=
201204011240 SPECI KBLI 011240Z AUTO 15003KT 6SM -RA BR SCT008 OVC021 03/02 A2966 RMK AO2 P0007=
201204011240 SPECI KBLI 011240Z AUTO 15003KT 6SM -RA BR SCT008 OVC021 03/02 A2966 RMK AO2 P0007=
201204011153 METAR KBLI 011153Z AUTO 27011G20KT 230V300 7SM -RA BKN006 BKN010 OVC017 03/02 A2962 RMK AO2 PK WND 17027/1126 PRESRR SLP038 P0009 60011 70036 T00330017 10078 20033 51037=
201204011151 SPECI KBLI 011151Z AUTO 27013G21KT 6SM -RA BR BKN006 BKN017 OVC021 04/02 A2961 RMK AO2 PK WND 17027/1126 PRESRR P0008=
201204011151 SPECI KBLI 011151Z AUTO 27013G21KT 6SM -RA BR BKN006 BKN017 OVC021 04/02 A2961 RMK AO2 PK WND 17027/1126 PRESRR P0008=
201204011144 SPECI KBLI 011144Z AUTO 27010G24KT 220V310 3SM RA BR SCT006 BKN014 OVC024 05/03 A2960 RMK AO2 PK WND 17027/1126 PRESRR P0008=
201204011144 SPECI KBLI 011144Z AUTO 27010G24KT 220V310 3SM RA BR SCT006 BKN014 OVC024 05/03 A2960 RMK AO2 PK WND 17027/1126 PRESRR P0008=
201204011053 METAR KBLI 011053Z AUTO 15013G18KT 10SM -RA OVC021 08/04 A2953 RMK AO2 RAB24 SLP007 P0000 T00780044=
201204010953 METAR KBLI 010953Z AUTO 35003KT 10SM OVC027 04/03 A2951 RMK AO2 RAE05B29E47 SLP001 P0001 T00440033=
201204010937 SPECI KBLI 010937Z AUTO 36003KT 10SM -RA OVC029 04/03 A2950 RMK AO2 RAE05B29 P0001=
201204010937 SPECI KBLI 010937Z AUTO 36003KT 10SM -RA OVC029 04/03 A2950 RMK AO2 RAE05B29 P0001=
201204010910 SPECI KBLI 010910Z AUTO 00000KT 10SM SCT026 BKN031 OVC040 04/03 A2950 RMK AO2 RAE05 P0001=
201204010910 SPECI KBLI 010910Z AUTO 00000KT 10SM SCT026 BKN031 OVC040 04/03 A2950 RMK AO2 RAE05 P0001=
201204010853 METAR KBLI 010853Z AUTO 07003KT 10SM -RA BKN028 OVC040 06/04 A2949 RMK AO2 RAB17 SLP996 P0000 60001 T00560039 51011=
201204010753 METAR KBLI 010753Z AUTO 01003KT 10SM OVC037 04/03 A2948 RMK AO2 RAE51 SLP992 P0001 T00440033 400720022=
201204010653 METAR KBLI 010653Z AUTO 14003KT 10SM -RA OVC044 04/03 A2948 RMK AO2 RAB47 SLP992 P0000 T00440028=
201204010553 METAR KBLI 010553Z AUTO 01006KT 10SM BKN044 BKN055 OVC070 04/02 A2946 RMK AO2 SLP985 60002 T00390022 10056 20039 58005=
201204010453 METAR KBLI 010453Z 02009KT 10SM BKN042 OVC100 04/02 A2947 RMK AO2 SLP989 T00390022=
201204010353 METAR KBLI 010353Z 01007KT 10SM FEW019 SCT038 OVC045 04/03 A2948 RMK AO2 SLP990 T00390028=
201204010350 SPECI KBLI 010350Z 01006KT 10SM FEW019 SCT038 OVC045 04/03 A2948 RMK AO2=
201204010350 SPECI KBLI 010350Z 01006KT 10SM FEW019 SCT038 OVC045 04/03 A2948 RMK AO2=
201204010301 SPECI KBLI 010301Z 03005KT 10SM FEW004 BKN019 OVC034 04/03 A2948 RMK AO2=
201204010301 SPECI KBLI 010301Z 03005KT 10SM FEW004 BKN019 OVC034 04/03 A2948 RMK AO2=
201204010253 METAR KBLI 010253Z 01007KT 10SM FEW027 BKN034 OVC043 04/03 A2948 RMK AO2 SLP993 60002 T00440033 55006=
201204010202 SPECI KBLI 010202Z 01007KT 10SM SCT004 OVC019 05/03 A2948 RMK AO2=
201204010202 SPECI KBLI 010202Z 01007KT 10SM SCT004 OVC019 05/03 A2948 RMK AO2=
201204010153 METAR KBLI 010153Z 01008KT 10SM BKN004 OVC019 05/04 A2948 RMK AO2 SLP990 T00500039=
201204010053 METAR KBLI 010053Z 01006KT 10SM SCT004 OVC021 06/04 A2948 RMK AO2 RAE44 SLP991 P0002 T00560044=
201204010033 SPECI KBLI 010033Z 01004KT 10SM -RA FEW004 BKN017 OVC048 05/04 A2949 RMK AO2 P0002=
201204010033 SPECI KBLI 010033Z 01004KT 10SM -RA FEW004 BKN017 OVC048 05/04 A2949 RMK AO2 P0002=
201204010023 SPECI KBLI 010023Z 03007KT 8SM -RA FEW012 BKN019 OVC048 05/04 A2949 RMK AO2 P0002=
201204010023 SPECI KBLI 010023Z 03007KT 8SM -RA FEW012 BKN019 OVC048 05/04 A2949 RMK AO2 P0002=

# No short TAF reports from KBLI in databse.

###################################
#  large TAF from KBLI
###################################
201204302320 TAF KBLI 302320Z 0100/0124 18010G20KT P6SM SCT025 BKN040
                      TEMPO 0103/0107 -SHRA BKN025 OVC040 FM010700
                       22012G22KT P6SM VCSH BKN040 FM010900 20012KT
                       P6SM VCSH BKN025 BKN050 FM011700 22012G20KT
                       P6SM SCT025 BKN050=
201204302103 KBLI 302103Z 3021/0118 17010G20KT P6SM SCT025 BKN040
                      TEMPO 3021/3024 -SHRA BKN025 OVC040 FM010000
                       21012G20KT P6SM VCSH BKN020 OVC040=
201204301720 TAF KBLI 301720Z 3018/0118 17015G25KT P6SM SCT015 BKN040
                      TEMPO 3018/3022 -SHRA BKN015 OVC040 FM010000
                       21012G20KT P6SM VCSH BKN020 OVC040=
201204301120 TAF KBLI 301120Z 3012/0112 16012G22KT P6SM -RA OVC022 FM302000
                       17012G19KT P6SM -SHRA OVC015 FM010200 18009KT
                       P6SM VCSH OVC025=
201204300916 KBLI 300916Z 3009/0106 15011G19KT P6SM -RA BKN019 BKN027 OVC050
                       FM301900 17009G18KT P6SM -SHRA OVC025 FM010400
                       17007KT P6SM VCSH OVC050=
201204300534 TAF KBLI 300534Z 3006/0106 00000KT P6SM -RA BKN035 OVC060 FM301000
                       15005KT P6SM -RA OVC015 FM301900 17009G18KT
                       P6SM -SHRA OVC025 FM010400 17007KT P6SM
                       VCSH OVC050=
201204292320 TAF KBLI 292320Z 3000/3024 18005KT P6SM BKN060 BKN200 FM300800
                       16008KT P6SM -RA OVC025 FM301600 18010KT
                       6SM -RA BR BKN018=
201204292114 KBLI 292114Z 2921/3018 18005KT P6SM SCT020 OVC060 FM300800 16008KT
                       P6SM -RA OVC025=
201204291724 TAF KBLI 291724Z 2918/3018 VRB04KT P6SM OVC015 FM291900 18005KT
                       P6SM OVC022 FM292200 18006KT P6SM OVC035
                       FM300800 16008KT P6SM -RA OVC025=
201204291324 KBLI 291324Z 2913/3012 00000KT 5SM BR VCSH BKN007 BKN025 OVC035
                       TEMPO 2913/2917 P6SM NSW SCT007 BKN025 OVC035
                       FM291700 20004KT P6SM OVC025 FM292100 20004KT
                       P6SM OVC050 FM300900 16003KT 6SM -RA BKN025
                       OVC050=
201204291120 TAF KBLI 291120Z 2912/3012 00000KT 4SM BR VCSH OVC026 FM291600
                       20004KT P6SM OVC015 FM292100 20004KT P6SM
                       OVC050 FM300900 16003KT 6SM -RA BKN025 OVC050=
201204290525 TAF KBLI 290525Z 2906/3006 02003KT P6SM OVC050 FM291800 18006KT
                       P6SM OVC025 FM292100 18007KT P6SM OVC050
                       FM300000 18004KT P6SM SCT050 BKN120=
201204282320 TAF KBLI 282320Z 2900/2924 26007KT P6SM OVC050 FM290400 18004KT
                       P6SM OVC030 FM291800 19006KT P6SM BKN040
                       FM292100 19006KT P6SM SCT050=
201204281720 TAF KBLI 281720Z 2818/2918 15004KT P6SM BKN035 FM282100 19007KT
                       P6SM SCT040 FM282200 26007KT P6SM SCT040
                       FM290600 18004KT P6SM VCSH OVC025 FM291200
                       18004KT P6SM OVC025=
201204281120 TAF KBLI 281120Z 2812/2912 15004KT P6SM OVC030 FM282100 17007KT
                       P6SM BKN035 FM290600 20002KT P6SM VCSH OVC025
                       FM291100 14002KT P6SM OVC025=
201204280522 TAF KBLI 280522Z 2806/2906 00000KT P6SM VCSH FEW070 OVC090 FM282100
                       17007KT P6SM OVC035=
201204272320 TAF KBLI 272320Z 2800/2824 17007KT P6SM SCT030 SCT045 BKN250 FM280500
                       18005KT P6SM BKN030 FM281000 14005KT P6SM
                       BKN030 FM281600 16006KT P6SM SCT030 BKN045
                       FM282000 19007KT P6SM BKN045=
201204271722 TAF KBLI 271722Z 2718/2818 17007KT P6SM SCT030 SCT045 BKN250
                      TEMPO 2718/2721 BKN045 FM280300 18005KT P6SM
                       BKN030 FM281000 14005KT P6SM BKN030 FM281600
                       16006KT P6SM SCT030 BKN045=
201204271130 TAF KBLI 271130Z 2712/2812 17008KT P6SM SCT035 BKN060=
201204270524 TAF KBLI 270524Z 2706/2806 16012KT P6SM SCT035 SCT060 FM270800
                       18008KT P6SM SCT035 BKN060=
201204262340 TAF KBLI 262340Z 2700/2724 16010KT P6SM SCT050 BKN080 FM270400
                       17008KT P6SM VCSH SCT030 BKN050
                      TEMPO 2704/2708 6SM -SHRA BR SCT018 BKN030
                       FM271100 20006KT P6SM BKN022 OVC035 FM271900
                       18009KT P6SM SCT035 BKN060=
201204261740 TAF KBLI 261740Z 2618/2718 19005KT P6SM VCSH SCT025 OVC035
                      TEMPO 2618/2621 6SM -SHRA BKN025 OVC035 FM262100
                       20010KT P6SM VCSH SCT030 BKN050
                      TEMPO 2703/2707 6SM -SHRA BR SCT018 BKN030
                       FM271100 20006KT P6SM BKN022 OVC035=
201204261430 KBLI 261430Z 2615/2712 17008KT 6SM BR SCT003 BKN008 OVC020
                      TEMPO 2616/2618 4SM -SHRA BR BKN003 OVC008
                       FM261800 18008KT P6SM VCSH SCT010 BKN020
                       FM262100 20010KT P6SM VCSH SCT030 BKN050
                       FM270100 20006KT P6SM VCSH BKN040 BKN060
                       FM271100 20006KT P6SM BKN022 OVC035=
201204261143 TAF KBLI 261143Z 2612/2712 17008KT P6SM SCT025 OVC060
                      TEMPO 2612/2614 -RA BKN025 OVC060 FM261500
                       20010KT P6SM SCT030 BKN050 FM270100 20006KT
                       P6SM VCSH BKN040 BKN060 FM271100 20006KT
                       P6SM BKN022 OVC035=
201204260538 TAF KBLI 260538Z 2606/2706 16014G24KT P6SM -RA SCT025 BKN035 OVC050
                       TEMPO 2608/2611 5SM -RA BKN025 OVC035 FM261100
                       20010KT P6SM BKN022 OVC035 FM261400 20010KT
                       P6SM SCT035 BKN050 FM270100 20006KT P6SM
                       VCSH BKN040 BKN060=
201204252326 TAF KBLI 252326Z 2600/2624 15012G24KT P6SM SCT035 BKN050 OVC060
                       FM260200 16014G24KT P6SM -SHRA SCT015 OVC025
                       FM260800 18010KT P6SM SCT015 BKN025 FM261100
                       20010KT P6SM SCT025 BKN040=
201204251730 TAF KBLI 251730Z 2518/2618 13010G18KT P6SM -SHRA BKN080 OVC090
                       FM252100 15014G24KT P6SM -RA SCT025 BKN040
                       OVC060 FM260500 16014G24KT P6SM -RA SCT015
                       OVC025 FM260800 18010KT P6SM SCT015 BKN025
                       FM261100 20010KT P6SM SCT025 BKN040=
201204251136 TAF KBLI 251136Z 2512/2612 15014G24KT P6SM SCT025 BKN060 OVC100
                       FM252100 15014G24KT P6SM -RA SCT025 BKN040
                       OVC060 FM260500 17014G24KT P6SM -RA SCT015
                       OVC025 FM261100 20010KT P6SM SCT025 BKN040=
201204250838 KBLI 250838Z 2509/2606 15014G24KT P6SM SCT025 BKN060 OVC100 FM251500
                       15014G24KT P6SM -RA SCT025 BKN040 OVC060
                       FM252300 16014G24KT P6SM -RA SCT015 OVC025=
201204250534 TAF KBLI 250534Z 2506/2606 13006KT P6SM BKN025 OVC050 FM250900
                       13006KT P6SM SCT025 BKN050 OVC070
                      TEMPO 2512/2515 -RA BKN025 OVC050 FM251500
                       13006KT P6SM -RA OVC025 FM252100 16012KT
                       P6SM -RA BKN015 OVC025=
201204242335 TAF KBLI 242335Z 2500/2524 VRB03KT 5SM -RA BR FEW009 BKN015 OVC030
                       TEMPO 2500/2504 3SM -RA BR FM250600 13006KT
                       P6SM -RA BKN025 OVC050 FM251200 13009KT
                       P6SM -RA OVC025 FM251800 13012KT 5SM -RA
                       BR OVC018=
201204242208 KBLI 242208Z 2422/2518 17009KT 6SM -SHRA BR BKN025 OVC050
                      TEMPO 2422/2501 4SM -SHRA BR FEW005 BKN012
                       OVC030 FM250100 17006KT P6SM -SHRA BKN025
                       OVC050 FM250600 14006KT P6SM -RA BKN030
                       BKN050 OVC100 FM251200 14009KT P6SM -RA
                       OVC022=
201204241923 KBLI 241923Z 2419/2518 17009KT 6SM -SHRA BR SCT025 OVC050
                      TEMPO 2419/2421 4SM -SHRA BR BKN025 OVC050
                       FM242100 17009KT P6SM -SHRA SCT025 OVC050
                       TEMPO 2421/2424 BKN025 OVC050 FM250000 17006KT
                       P6SM -SHRA BKN025 OVC050 FM250600 14006KT
                       P6SM -RA BKN030 BKN050 OVC100 FM251200 14009KT
                       P6SM -RA OVC022=
201204241726 TAF KBLI 241726Z 2418/2518 17009KT P6SM -SHRA SCT005 OVC015
                      TEMPO 2418/2421 4SM -SHRA BR BKN005 OVC015
                       FM242100 17009KT P6SM -SHRA SCT012 BKN025
                       OVC050
                      TEMPO 2421/2424 -SHRA FM250000 17006KT P6SM
                       -SHRA BKN025 OVC050 FM250600 14006KT P6SM
                       -RA BKN030 BKN050 OVC100 FM251200 14009KT
                       P6SM -RA OVC022=
201204241655 KBLI 241655Z 2417/2512 17012KT P6SM -SHRA BKN006 OVC020
                      TEMPO 2417/2419 3SM -SHRA BR BKN004 OVC012
                       FM241900 17009KT P6SM BKN022 OVC050
                      TEMPO 2419/2421 -SHRA FM242100 18008KT P6SM
                       -SHRA SCT025 OVC040 FM250400 VRB03KT P6SM
                       SCT060 BKN200=
201204241609 KBLI 241609Z 2416/2512 19006KT P6SM -SHRA SCT006 BKN020 OVC050
                       TEMPO 2416/2419 5SM -SHRA BR BKN006 OVC020
                       FM241900 17009KT P6SM BKN022 OVC050
                      TEMPO 2419/2421 -SHRA FM242100 18008KT P6SM
                       -SHRA SCT025 OVC040 FM250400 VRB03KT P6SM
                       SCT060 BKN200=
201204241551 KBLI 241551Z 2416/2512 17006KT P6SM -SHRA BKN022 OVC050 FM241800
                       17009KT P6SM BKN022 OVC050
                      TEMPO 2418/2420 -SHRA FM242000 18008KT P6SM
                       -SHRA SCT025 OVC040 FM250400 VRB03KT P6SM
                       SCT060 BKN200=
201204241514 KBLI 241514Z 2415/2512 17006KT P6SM -SHRA SCT035 OVC050 FM241800
                       17009KT P6SM SCT035 OVC050
                      TEMPO 2418/2420 -SHRA FM242000 18008KT P6SM
                       -SHRA SCT025 OVC040 FM250400 VRB03KT P6SM
                       SCT060 BKN200=
201204241300 KBLI 241300Z 2413/2512 18004KT P6SM SCT040 BKN070 OVC150
                      TEMPO 2413/2416 -SHRA BKN040 OVC070 FM242000
                       18008KT P6SM -SHRA SCT025 OVC040 FM250400
                       VRB03KT P6SM SCT060 BKN200=
201204241140 TAF KBLI 241140Z 2412/2512 17006KT P6SM SCT025 BKN060 BKN080 FM242000
                       18008KT P6SM -SHRA SCT025 OVC040 FM250400
                       VRB03KT P6SM SCT060 BKN200=
201204240536 TAF KBLI 240536Z 2406/2506 17006KT P6SM SCT120 BKN250 FM241200
                       17006KT P6SM BKN060 BKN120 FM242000 18008KT
                       P6SM -SHRA SCT025 OVC040=
201204232342 TAF KBLI 232342Z 2400/2424 25005KT P6SM SCT130 OVC250 FM240200
                       21005KT P6SM BKN130 OVC250 FM240600 17005KT
                       P6SM SCT060 OVC120 FM240900 17005KT P6SM
                       SCT035 OVC060
                      PROB30 2409/2415 -SHRA BKN035 OVC060 FM241500
                       17011KT P6SM BKN028 OVC060
                      TEMPO 2415/2418 -SHRA FM241800 17011KT P6SM
                       BKN035 OVC060
                      PROB30 2418/2424 -SHRA=
201204232103 TAF AMD KBLI 232103Z 2321/2418 25005KT P6SM SCT130 OVC250 FM240200
                       21005KT P6SM BKN130 OVC250 FM240600 17005KT
                       P6SM SCT060 OVC120
                      PROB30 2406/2409 -SHRA OVC060 FM240900 17005KT
                       P6SM SCT035 OVC060
                      PROB30 2409/2415 -SHRA BKN035 OVC060 FM241500
                       17011KT P6SM BKN028 OVC060
                      TEMPO 2415/2418 -SHRA=
201204231745 TAF KBLI 231745Z 2318/2418 VRB04KT P6SM SCT130 OVC250 FM240200
                       21005KT P6SM BKN130 OVC250 FM240600 17005KT
                       P6SM SCT060 OVC120
                      PROB30 2406/2409 -SHRA OVC060 FM240900 17005KT
                       P6SM SCT035 OVC060
                      PROB30 2409/2415 -SHRA BKN035 OVC060 FM241500
                       17011KT P6SM BKN028 OVC060
                      TEMPO 2415/2418 -SHRA=
201204231120 TAF KBLI 231120Z 2312/2412 00000KT P6SM SCT130 BKN250 FM231900
                       29006KT P6SM SCT250 FM240300 21004KT P6SM
                       BKN250 FM240900 17004KT P6SM BKN120 OVC250=
201204230530 TAF KBLI 230530Z 2306/2406 VRB03KT P6SM SCT200 FM231900 25006KT
                       P6SM SCT200=
201204222323 TAF KBLI 222323Z 2300/2324 20005KT P6SM SCT160 SCT200 FM230700
                       30004KT P6SM SCT200 FM231900 25006KT P6SM
                       SCT200=
201204221725 TAF KBLI 221725Z 2218/2318 00000KT P6SM SCT110 BKN200 FM222100
                       20005KT P6SM SCT200 FM230600 30004KT P6SM
                       SCT120 SCT200=
201204221125 TAF KBLI 221125Z 2212/2312 00000KT P6SM SCT130 BKN200 FM221900
                       26005KT P6SM SCT200 FM230600 16004KT P6SM
                       BKN120 OVC250=
201204220520 TAF KBLI 220520Z 2206/2306 00000KT P6SM BKN200 FM221900 26005KT
                       P6SM SCT200=
201204212323 TAF KBLI 212323Z 2200/2224 26006KT P6SM SCT110 BKN140 BKN200 FM220900
                       VRB04KT P6SM SCT200 FM221900 26005KT P6SM
                       SCT200=
201204211737 TAF KBLI 211737Z 2118/2218 32004KT P6SM BKN200 FM220400 00000KT
                       P6SM SCT250=
201204211120 TAF KBLI 211120Z 2112/2212 00000KT P6SM SCT120 SCT200
                      TEMPO 2112/2115 3SM BR FM211900 32004KT P6SM
                       BKN120 BKN250 FM220400 00000KT P6SM SCT250=
201204210535 TAF KBLI 210535Z 2106/2206 00000KT P6SM SCT120 BKN200 FM211900
                       32004KT P6SM BKN120 BKN250 FM220400 00000KT
                       P6SM SCT250=
201204202327 TAF KBLI 202327Z 2100/2124 18006KT P6SM SCT050 FM210300 VRB03KT
                       P6SM SCT100 BKN250=
201204201729 TAF KBLI 201729Z 2018/2118 18006KT P6SM SCT050 FM210300 VRB03KT
                       P6SM SCT100 SCT250 FM210600 VRB03KT P6SM
                       SCT100 BKN250=
201204201130 TAF KBLI 201130Z 2012/2112 VRB03KT P6SM OVC100
                      TEMPO 2012/2016 -RA OVC030 FM201800 17010KT
                       P6SM SCT030 OVC050 FM210300 18006KT P6SM
                       SCT050 BKN100 FM210600 VRB03KT P6SM SCT100
                       BKN250=
201204200524 TAF KBLI 200524Z 2006/2106 15010KT 4SM -RA BR SCT005 OVC013 FM201000
                       16010KT 4SM -RA BR SCT013 OVC025 FM201600
                       22006KT P6SM VCSH SCT030 BKN050=
201204192344 TAF KBLI 192344Z 2000/2024 17008KT P6SM -RA OVC040 FM200400 17006KT
                       5SM -RA SCT020 OVC030
                      TEMPO 2007/2011 2SM -RA BKN008 OVC015 FM201600
                       22006KT P6SM SCT030 BKN050=
201204191730 TAF KBLI 191730Z 1918/2018 02005KT P6SM SKC FM192100 18010KT P6SM
                       -RA OVC050 FM200000 17012KT P6SM -RA OVC020
                       TEMPO 2003/2006 4SM -RA OVC020 FM201000
                       17006KT P6SM -SHRA BKN025 OVC040 FM201600
                       17006KT P6SM -SHRA SCT030 OVC060=
201204191124 TAF KBLI 191124Z 1912/2012 00000KT P6SM VCSH SCT035 OVC050 FM191500
                       10004KT P6SM SCT100 BKN250 FM192100 18010KT
                       P6SM -RA OVC050 FM200000 17012KT P6SM -RA
                       OVC020
                      TEMPO 2003/2006 4SM -RA OVC020 FM201000 17006KT
                       P6SM -SHRA BKN025 OVC040=
201204190530 TAF KBLI 190530Z 1906/2006 00000KT P6SM SCT050 OVC100 FM191500
                       10004KT P6SM SCT100 BKN250 FM192100 18010KT
                       P6SM -RA OVC050 FM200000 17012KT P6SM -RA
                       OVC015
                      TEMPO 2003/2006 4SM -RA OVC015=
201204182320 TAF KBLI 182320Z 1900/1924 18008KT P6SM BKN050 FM190300 17006KT
                       P6SM SCT050 SCT120 FM190800 13004KT P6SM
                       SCT050 SCT120 FM191500 04004KT P6SM SCT050
                       BKN120 FM192100 14006KT P6SM -RA SCT030
                       OVC045 FM192300 16008KT P6SM -RA OVC030=
201204181720 TAF KBLI 181720Z 1818/1918 16012G22KT P6SM -SHRA SCT025 OVC045
                       TEMPO 1818/1820 -SHRA OVC025 FM182000 18012KT
                       P6SM VCSH SCT030 BKN045 FM182200 18008KT
                       P6SM BKN050 FM190300 17006KT P6SM SCT050
                       SCT120 FM190800 13004KT P6SM SCT050 SCT120
                       FM191500 04004KT P6SM SCT050 BKN120=
201204181120 TAF KBLI 181120Z 1812/1912 04006KT P6SM OVC030
                      TEMPO 1812/1814 -RA OVC030 FM181400 17010KT
                       P6SM -SHRA SCT020 BKN030 OVC045 FM181900
                       20012KT P6SM SCT030 BKN045 FM182200 20008KT
                       P6SM BKN050 FM190200 17004KT P6SM SCT050
                       BKN120=
201204181014 KBLI 181014Z 1810/1906 04006KT P6SM SCT030 OVC060
                      TEMPO 1810/1814 -RA OVC030 FM181400 17010KT
                       P6SM -SHRA SCT020 BKN030 OVC045 FM181900
                       20012KT P6SM SCT030 BKN045 FM182200 20008KT
                       P6SM BKN050 FM190200 17004KT P6SM SCT050
                       BKN120=
201204180542 TAF KBLI 180542Z 1806/1906 05005KT P6SM BKN040 OVC070 FM181000
                       07005KT P6SM -RA BKN020 OVC030 FM181400
                       17010KT P6SM -SHRA SCT020 BKN030 OVC045
                       FM181900 20012KT P6SM SCT030 BKN045 FM182200
                       20008KT P6SM BKN050 FM190200 17004KT P6SM
                       SCT050 BKN120=
201204172336 TAF KBLI 172336Z 1800/1824 18006KT P6SM -RA OVC045 FM180400 14006KT
                       P6SM -RA BKN030 OVC045 FM181000 14012G20KT
                       P6SM -RA BKN020 OVC030 FM181400 17010KT
                       P6SM SCT020 BKN030 OVC045 FM181700 20012KT
                       P6SM SCT030 BKN045 FM182200 20008KT P6SM
                       BKN050=
201204171734 TAF KBLI 171734Z 1718/1818 02006KT P6SM SCT050 OVC120 FM172300
                       VRB03KT P6SM SCT050 OVC080 FM180300 14008KT
                       P6SM -RA SCT030 OVC050 FM180900 14012KT
                       P6SM -RA BKN030 OVC045 FM181600 18012KT
                       P6SM BKN030 OVC045=
201204171120 TAF KBLI 171120Z 1712/1812 13003KT P6SM OVC060 FM171800 19006KT
                       P6SM SCT060 BKN150 FM180200 15005KT P6SM
                       SCT060 OVC090 FM180900 13007KT P6SM -RA
                       SCT030 OVC060=
201204170522 TAF KBLI 170522Z 1706/1806 16004KT P6SM FEW030 FM171800 19006KT
                       P6SM SCT050 BKN150 FM180400 15005KT P6SM
                       SCT050 OVC090=
201204170104 KBLI 170104Z 1701/1724 21006KT P6SM VCSH FEW040 BKN080 BKN200 FM170500
                       17008KT P6SM SCT035 BKN060 FM171800 14006KT
                       P6SM SCT050 BKN150=
201204162339 TAF KBLI 162339Z 1700/1724 20012G18KT P6SM SCT035 BKN060 FM170500
                       17008KT P6SM SCT035 BKN060 FM171800 14006KT
                       P6SM SCT050 BKN150=
201204161730 TAF KBLI 161730Z 1618/1718 16008KT P6SM OVC018 FM162000 20010KT
                       P6SM SCT018 BKN030 OVC045 FM162200 20012G18KT
                       P6SM -SHRA SCT030 OVC045 FM170400 17008KT
                       P6SM SCT035 BKN060=
201204161120 TAF KBLI 161120Z 1612/1712 11006KT P6SM -RA OVC040 FM161300 07005KT
                       6SM -RA OVC035
                      TEMPO 1613/1617 4SM RA BR OVC020 FM162000
                       17010KT P6SM -SHRA BKN025 OVC040 FM162300
                       20012G19KT P6SM -SHRA SCT030 OVC050 FM170400
                       17010KT P6SM OVC060=
201204160524 TAF KBLI 160524Z 1606/1706 00000KT P6SM OVC100 FM160800 00000KT
                       P6SM OVC080 FM161100 09004KT P6SM -RA SCT025
                       OVC050 FM161400 07005KT 6SM -RA OVC025 FM162000
                       17010KT P6SM -SHRA BKN025 OVC040 FM162300
                       20012G19KT P6SM -SHRA SCT030 OVC050 FM170400
                       17010KT P6SM OVC060=
201204152331 TAF KBLI 152331Z 1600/1624 12005KT P6SM SCT100 BKN200 FM160700
                       14005KT P6SM OVC100 FM161400 10004KT P6SM
                       -RA SCT025 OVC050 FM161800 15006KT 6SM -RA
                       OVC025 FM162300 20012G19KT P6SM -RA OVC045=
201204151734 TAF KBLI 151734Z 1518/1618 17007KT P6SM OVC050 FM160100 VRB04KT
                       P6SM BKN250 FM160600 08002KT P6SM OVC120
                       FM161400 07004KT P6SM -RA SCT025 OVC050=
201204151306 KBLI 151306Z 1513/1612 16010G20KT P6SM BKN019 BKN200
                      TEMPO 1513/1517 SCT019 FM151700 18008KT P6SM
                       SCT025 BKN250 FM160200 00000KT P6SM BKN250
                       FM161100 06005KT P6SM SCT060 OVC100=
201204151120 TAF KBLI 151120Z 1512/1612 16008KT P6SM SCT025 BKN200
                      TEMPO 1512/1516 OVC025 FM151800 18008KT P6SM
                       BKN250 FM160200 00000KT P6SM BKN250 FM161100
                       06005KT P6SM SCT060 OVC100=
201204150521 TAF KBLI 150521Z 1506/1606 17010KT P6SM BKN060 BKN250 FM150800
                       16007KT P6SM SCT060 BKN250 FM151300 15005KT
                       P6SM OVC020 FM151800 18007KT P6SM BKN250
                       FM160200 00000KT P6SM BKN250=
201204142336 TAF KBLI 142336Z 1500/1524 19005KT P6SM SCT035 SCT200 FM151300
                       15005KT P6SM OVC020 FM151800 18007KT P6SM
                       BKN250=
201204141730 TAF KBLI 141730Z 1418/1518 VRB03KT P6SM SCT025 OVC070 FM142000
                       17007KT P6SM SCT080 SCT250 FM151400 15005KT
                       P6SM OVC005=
201204141120 TAF KBLI 141120Z 1412/1512 17004KT P6SM SCT060
                      TEMPO 1413/1417 BKN060 FM142000 21008KT P6SM
                       SCT250 FM150300 18006KT P6SM BKN250=
201204140528 TAF KBLI 140528Z 1406/1506 00000KT P6SM FEW050 SCT200 FM141400
                       18005KT P6SM BKN050 FM142000 21008KT P6SM
                       SCT250 FM150300 18006KT P6SM BKN250=
201204132323 TAF KBLI 132323Z 1400/1424 27006KT P6SM SCT030 SCT200 FM141400
                       18006KT P6SM BKN050 FM142000 21006KT P6SM
                       BKN250=
201204131839 KBLI 131839Z 1319/1418 VRB03KT P6SM SCT009 OVC018 FM132000 23005KT
                       P6SM SCT025 FM141400 17004KT P6SM BKN025=
201204131737 TAF KBLI 131737Z 1318/1418 28005KT 3SM BR BKN004 OVC018 FM132000
                       23005KT P6SM SCT025 FM141400 17004KT P6SM
                       BKN025=
201204131122 TAF KBLI 131122Z 1312/1412 00000KT 5SM BR SCT025
                      TEMPO 1312/1316 1/2SM FG BKN002 BKN025 FM131700
                       35007KT P6SM SCT040=
201204131025 KBLI 131025Z 1310/1406 00000KT 5SM BR SCT030
                      TEMPO 1310/1314 1SM BR FM131700 35007KT P6SM
                       SCT040=
201204130521 TAF KBLI 130521Z 1306/1406 VRB04KT P6SM VCSH BKN035
                      TEMPO 1306/1308 5SM -SHRA BR OVC030 FM131800
                       35007KT P6SM SCT040=
201204130132 KBLI 130132Z 1302/1324 VRB04KT P6SM -SHRA BKN025 BKN040
                      TEMPO 1302/1305 SCT030 BKN050 FM130500 18007KT
                       P6SM BKN040 FM131500 18003KT P6SM SCT040
                       FM132200 21007KT P6SM SCT050=
201204122325 TAF KBLI 122325Z 1300/1324 20008G16KT P6SM VCTS SCT035 BKN060CB
                       BKN100 FM130400 18007KT P6SM VCSH BKN040
                       FM130700 18005KT P6SM BKN040 FM131500 18003KT
                       P6SM SCT040 FM132200 21007KT P6SM SCT050=
201204121721 TAF KBLI 121721Z 1218/1318 02005KT P6SM BKN110 FM122200 16010KT
                       P6SM -SHRA BKN035 BKN050 FM130300 18007KT
                       P6SM VCSH BKN040 FM131500 18003KT P6SM SCT040=
201204121217 KBLI 121217Z 1212/1312 15006KT P6SM BKN035
                      TEMPO 1212/1216 2SM BR FM121600 09006KT P6SM
                       SCT040 BKN060 FM122200 18012KT P6SM -SHRA
                       BKN035 OVC050 FM130300 20010KT P6SM VCSH
                       BKN040=
201204121120 TAF KBLI 121120Z 1212/1312 15006KT P6SM BKN035 FM121600 09006KT
                       P6SM SCT040 BKN060 FM122200 18012KT P6SM
                       -SHRA BKN035 OVC050 FM130300 20010KT P6SM
                       VCSH BKN040=
201204120520 TAF KBLI 120520Z 1206/1306 18006KT P6SM SCT025 BKN050
                      TEMPO 1208/1212 BKN025 OVC050 FM121200 16008KT
                       P6SM SCT020 BKN040 FM122200 18012KT P6SM
                       -SHRA BKN035 OVC050 FM130300 20010KT P6SM
                       VCSH BKN040=
201204120337 KBLI 120337Z 1204/1224 18006KT P6SM -RA SCT003 OVC040
                      TEMPO 1204/1208 4SM -RA BR BKN003 OVC030
                       FM120800 18006KT P6SM SCT005 OVC035
                      TEMPO 1208/1212 5SM -SHRA BR BKN005 OVC030
                       FM122200 16010KT P6SM -SHRA BKN035 OVC050=
201204112355 KBLI 112355Z 1200/1224 19003KT P6SM -RA SCT005 OVC045
                      TEMPO 1200/1203 4SM -RA BR BKN005 OVC030
                       FM120600 14006KT P6SM SCT030 BKN045 FM122200
                       16010KT P6SM -SHRA BKN035 OVC050=
201204112328 TAF KBLI 112328Z 1200/1224 00000KT 6SM -RA BR SCT005 BKN027 OVC040
                       FM120600 14006KT P6SM SCT030 BKN045 FM122200
                       16010KT P6SM -SHRA BKN035 OVC050=
201204112216 KBLI 112216Z 1122/1218 VRB04KT 6SM -RA BR FEW019 BKN027 OVC035
                       FM120600 14006KT P6SM SCT030 BKN045=
201204112103 KBLI 112103Z 1121/1218 17006KT P6SM -RA BKN035 BKN050 OVC060 FM120700
                       14006KT P6SM SCT030 BKN045=
201204111736 TAF KBLI 111736Z 1118/1218 19005KT P6SM OVC090 FM111900 18006KT
                       P6SM -SHRA SCT022 OVC040 FM112100 18006KT
                       P6SM -SHRA SCT012 BKN022 OVC040 FM120300
                       18006KT P6SM VCSH SCT025 BKN035 OVC050 FM120700
                       14006KT P6SM SCT030 BKN045=
201204111127 TAF KBLI 111127Z 1112/1212 VRB03KT P6SM SCT040 OVC080 FM112000
                       20006KT P6SM -SHRA OVC040 FM120200 22006KT
                       P6SM VCSH BKN030 OVC060 FM120500 18006KT
                       P6SM SCT025 OVC040=
201204110525 TAF KBLI 110525Z 1106/1206 VRB03KT P6SM SCT050 OVC090 FM110900
                       18006KT P6SM VCSH BKN040 OVC090 FM111200
                       18005KT P6SM VCSH SCT015 OVC040 FM112000
                       20006KT P6SM -SHRA BKN025 OVC040 FM120200
                       22006KT P6SM VCSH BKN030 BKN050 FM120500
                       18006KT P6SM SCT025 OVC040=
201204102330 TAF KBLI 102330Z 1100/1124 18009KT P6SM BKN080 OVC150 FM110700
                       18007KT P6SM VCSH BKN040 OVC090 FM111000
                       17003KT P6SM BKN040 BKN090 FM111800 21005KT
                       P6SM SCT035 BKN050=
201204101731 TAF KBLI 101731Z 1018/1118 18005KT P6SM BKN120 BKN200 FM110000
                       18009KT P6SM BKN090 OVC150 FM110700 18007KT
                       P6SM VCSH BKN040 OVC090 FM111000 17003KT
                       P6SM BKN040 BKN090=
201204101120 TAF KBLI 101120Z 1012/1112 VRB03KT P6SM SCT120 BKN200 FM102100
                       18014KT P6SM BKN090 OVC150 FM110700 18012KT
                       P6SM VCSH BKN040 OVC090=
201204100520 TAF KBLI 100520Z 1006/1106 VRB04KT P6SM BKN120 BKN200 FM102000
                       20012G18KT P6SM VCSH BKN090 OVC150 FM110500
                       18010KT P6SM VCSH BKN040 OVC090=
201204092320 TAF KBLI 092320Z 1000/1024 29006KT P6SM BKN200 FM100300 VRB03KT
                       P6SM BKN200 FM102100 29005KT P6SM BKN200=
201204091732 TAF KBLI 091732Z 0918/1018 VRB03KT P6SM BKN250=
201204091120 TAF KBLI 091120Z 0912/1012 VRB03KT P6SM SCT110 BKN250 FM091800
                       25005KT P6SM BKN110 OVC250 FM100300 VRB03KT
                       P6SM BKN110 OVC250=
201204090520 TAF KBLI 090520Z 0906/1006 VRB03KT P6SM SCT110 BKN250 FM091800
                       VRB03KT P6SM BKN110 OVC250=
201204082349 TAF KBLI 082349Z 0900/0924 03010KT P6SM SCT110 BKN250 FM090300
                       03005KT P6SM SCT110 BKN250 FM091800 VRB03KT
                       P6SM BKN110 OVC250=
201204082102 KBLI 082102Z 0821/0918 02010KT P6SM SCT110 OVC250 FM090000 33007KT
                       P6SM SCT110 BKN250 FM090200 VRB03KT P6SM
                       FEW110 BKN250=
201204081721 TAF KBLI 081721Z 0818/0918 03013KT P6SM SCT250 FM082100 33007KT
                       P6SM FEW110 BKN250 FM090200 VRB03KT P6SM
                       FEW110 BKN250=
201204081608 KBLI 081608Z 0816/0912 03010KT P6SM SCT250
                      TEMPO 0816/0820 03012G22KT FM082100 31006KT
                       P6SM SCT150 BKN200 FM090300 VRB03KT P6SM
                       SCT120 OVC200=
201204081120 TAF KBLI 081120Z 0812/0912 00000KT P6SM BKN250 FM081500 02005KT
                       P6SM SCT120 BKN200 FM082100 31006KT P6SM
                       SCT150 BKN200 FM090300 VRB03KT P6SM SCT120
                       OVC200=
201204080523 TAF KBLI 080523Z 0806/0906 00000KT P6SM BKN250 FM081800 03008KT
                       P6SM BKN200 FM082100 31006KT P6SM BKN200=
201204072337 TAF KBLI 072337Z 0800/0824 VRB03KT P6SM FEW250 FM081800 03008KT
                       P6SM SCT250 FM082100 31006KT P6SM BKN250=
201204071747 TAF KBLI 071747Z 0718/0818 02009KT P6SM SKC FM072100 32006KT P6SM
                       SKC FM080200 VRB03KT P6SM SCT250=
201204071122 TAF KBLI 071122Z 0712/0812 00000KT P6SM SKC FM071500 02005KT P6SM
                       FEW250 FM072100 32006KT P6SM SCT250 FM080200
                       00000KT P6SM BKN250=
201204070520 TAF KBLI 070520Z 0706/0806 00000KT P6SM SKC FM070800 00000KT P6SM
                       BCFG SKC FM071300 00000KT P6SM FEW250 FM071500
                       02005KT P6SM FEW250 FM072100 32006KT P6SM
                       SCT250=
201204062324 TAF KBLI 062324Z 0700/0724 25005KT P6SM VCSH SCT060 SCT200
                      TEMPO 0700/0702 BKN060 BKN200 FM070300 VRB03KT
                       P6SM SCT200 FM071500 02008KT P6SM FEW250
                       FM072100 32006KT P6SM SKC=
201204061749 TAF KBLI 061749Z 0618/0718 19007KT P6SM BKN070 BKN200 FM062000
                       19007KT P6SM SCT070 BKN200 FM070000 23005KT
                       P6SM BKN200 FM070300 VRB03KT P6SM SCT200=
201204061120 TAF KBLI 061120Z 0612/0712 VRB03KT P6SM FEW020 FM061600 17007KT
                       P6SM SCT025 FM061900 17008KT P6SM VCSH SCT025
                       BKN050 FM062300 20007KT P6SM SCT250=
201204060521 TAF KBLI 060521Z 0606/0706 VRB03KT P6SM SKC FM061200 VRB03KT P6SM
                       BKN050 FM061800 17007KT P6SM VCSH SCT025
                       BKN050 FM062300 20007KT P6SM SCT250=
201204052333 TAF KBLI 052333Z 0600/0624 28008KT P6SM SCT025 BKN050 FM060300
                       20002KT P6SM SCT050 FM061200 00000KT P6SM
                       BKN050 FM061800 17009KT P6SM VCSH SCT020
                       BKN050=
201204051727 TAF KBLI 051727Z 0518/0618 31004KT P6SM VCSH SCT020 BKN035 OVC050
                       FM060200 18003KT P6SM BKN050=
201204051124 TAF KBLI 051124Z 0512/0612 15002KT P6SM BKN070 FM051800 17004KT
                       P6SM SCT050 BKN080 FM052300 19006KT P6SM
                       FEW050 SCT100=
201204050527 TAF KBLI 050527Z 0506/0606 00000KT P6SM SCT040 BKN090 FM051100
                       15002KT P6SM OVC050 FM051800 17004KT P6SM
                       BKN050 FM052300 19006KT P6SM SCT050 BKN100=
201204042320 TAF KBLI 042320Z 0500/0524 00000KT P6SM VCSH BKN035 BKN040 FM050300
                       20002KT P6SM BKN045 OVC100 FM051100 15002KT
                       P6SM OVC050 FM051800 17004KT P6SM BKN050=
201204041728 TAF KBLI 041728Z 0418/0518 00000KT P6SM BKN035 FM042000 19005KT
                       P6SM VCSH BKN040 FM050300 20002KT P6SM BKN045
                       OVC100 FM051100 15002KT P6SM OVC050=
201204041327 KBLI 041327Z 0413/0512 00000KT P6SM SCT001
                      TEMPO 0413/0415 1/2SM FG VV001 FM041500 VRB03KT
                       P6SM SCT060 FM042100 21008KT P6SM VCSH BKN050
                       FM050600 VRB03KT P6SM SCT050=
201204041300 KBLI 041300Z 0413/0512 00000KT P6SM SCT001
                      TEMPO 0413/0415 2SM BR SCT001 FM041500 VRB03KT
                       P6SM SCT060 FM042100 21008KT P6SM VCSH BKN050
                       FM050600 VRB03KT P6SM SCT050=
201204041138 TAF KBLI 041138Z 0412/0512 00000KT P6SM SCT001
                      TEMPO 0412/0414 4SM BR SCT001 FM041400 VRB03KT
                       P6SM SCT060 FM042100 21008KT P6SM VCSH BKN050
                       FM050600 VRB03KT P6SM SCT050=
201204040915 KBLI 040915Z 0409/0506 00000KT 1/2SM FG VV001
                      TEMPO 0411/0413 2SM BR SCT001 FM041300 VRB03KT
                       P6SM SCT060 FM042100 21008KT P6SM VCSH BKN050=
201204040536 TAF KBLI 040536Z 0406/0506 14006KT P6SM SCT025 BKN060
                      TEMPO 0408/0412 BKN025 BKN060 FM041200 VRB03KT
                       P6SM SCT060 FM042100 21008KT P6SM VCSH BKN050=
201204032330 TAF KBLI 032330Z 0400/0424 13008KT P6SM VCSH BKN040 BKN100 FM040100
                       17008KT P6SM -SHRA OVC015 FM040300 15004KT
                       P6SM OVC015 FM040500 25007KT P6SM OVC050
                       FM042100 21008KT P6SM VCSH BKN050=
201204031824 KBLI 031824Z 0318/0418 19004G15KT 4SM -RA BR BKN007 OVC011 FM031900
                       17016G24KT P6SM -RA OVC025 FM032200 16014G22KT
                       P6SM -SHRA OVC050 FM040100 17008KT P6SM
                       OVC050 FM040600 14003KT P6SM OVC100 FM041200
                       14003KT P6SM OVC050=
201204031729 TAF KBLI 031729Z 0318/0418 17011G19KT P6SM -RA BKN045 OVC060 FM031900
                       17016G24KT P6SM -RA OVC025 FM032200 16014G22KT
                       P6SM -SHRA OVC050 FM040100 17008KT P6SM
                       OVC050 FM040600 14003KT P6SM OVC100 FM041200
                       14003KT P6SM OVC050=
201204031128 TAF KBLI 031128Z 0312/0412 15012G20KT P6SM BKN060 OVC120 FM031500
                       15012G20KT P6SM -RA OVC035 FM031800 18008KT
                       P6SM -RA OVC025 FM032100 18008KT P6SM -SHRA
                       BKN035 FM040400 VRB03KT P6SM SCT035 BKN060=
201204030538 TAF KBLI 030538Z 0306/0406 15014G22KT P6SM BKN120 OVC200 FM031100
                       15012KT P6SM BKN060 OVC120 FM031400 15012KT
                       P6SM -RA OVC035 FM031700 18008KT P6SM -RA
                       OVC025 FM032100 18008KT P6SM -SHRA BKN035
                       FM040400 VRB03KT P6SM SCT035 BKN060=
201204022326 TAF KBLI 022326Z 0300/0324 15015G25KT P6SM SCT050 BKN150 FM030400
                       15018G28KT P6SM BKN050 OVC100 FM030900 15015KT
                       P6SM -RA OVC035 FM031400 17010KT P6SM -RA
                       OVC025 FM032000 18008KT P6SM -SHRA BKN035=
201204021725 TAF KBLI 021725Z 0218/0318 14018G30KT P6SM BKN100 OVC200 FM030200
                       16018G30KT P6SM BKN050 OVC100 FM030700 16012G20KT
                       P6SM -RA OVC035 FM031200 16012KT P6SM -RA
                       OVC025=
201204021128 TAF KBLI 021128Z 0212/0312 14014G24KT P6SM SCT050 OVC100 FM022200
                       14018G30KT P6SM -RA OVC040 FM030800 16014G20KT
                       P6SM -RA OVC025=
201204020536 TAF KBLI 020536Z 0206/0306 13008KT P6SM SCT030 BKN060 FM021600
                       15012KT P6SM SCT060 BKN120 OVC200 FM022200
                       16018G30KT P6SM -RA OVC040=
201204012340 TAF KBLI 012340Z 0200/0224 26008KT P6SM BKN045 BKN080
                      TEMPO 0200/0204 5SM -SHRA BR BKN030 BKN070
                       FM020600 16010KT P6SM -SHRA OVC040 FM021200
                       16012G22KT P6SM BKN050 OVC080 FM022200 16015G30KT
                       P6SM BKN050 BKN080=
201204011742 TAF KBLI 011742Z 0118/0218 18008KT P6SM SCT030 BKN050 FM012200
                       18008KT P6SM BKN035 BKN050 FM020000 15006KT
                       P6SM VCSH SCT035 BKN060 FM020800 15012KT
                       P6SM -SHRA OVC040 FM021200 15012G25KT P6SM
                       OVC050=
201204011523 KBLI 011523Z 0115/0212 18005KT P6SM -RA SCT008 OVC015 FM011800
                       20012G20KT P6SM SCT025 BKN035 BKN060 FM012200
                       18008KT P6SM SCT025 BKN035 BKN060 FM020000
                       15006KT P6SM SCT035 BKN060 FM020800 15014G24KT
                       P6SM -RA OVC040=
201204011140 TAF KBLI 011140Z 0112/0212 18015G25KT P6SM BKN022 OVC040 FM011700
                       20012G20KT P6SM SCT025 BKN035 BKN060 FM012200
                       18008KT P6SM SCT025 BKN035 BKN060 FM020000
                       15006KT P6SM SCT035 BKN060 FM020800 15014G24KT
                       P6SM -RA OVC040=
201204010540 TAF KBLI 010540Z 0106/0206 03006KT P6SM -SHRA BKN035 BKN060 FM011000
                       VRB03KT P6SM SCT035 BKN050 FM011500 20012G20KT
                       P6SM -SHRA BKN035 BKN060 FM012000 18008KT
                       P6SM VCSH BKN035 OVC050 FM020000 15006KT
                       P6SM SCT035 BKN060=