##########################################################
# Query made at 02/16/2025 20:09:56 UTC
# Time interval: from 11/01/2012 00:00  to 11/30/2012 23:59  UTC
##########################################################

##########################################################
# KBLI, Bellingham, Bellingham International Airport (United States)
# WMO index: -----. WIGOS ID: Unknown
# Latitude 48-47-58N. Longitude 122-32-21W. Altitude 48 m.
##########################################################

###################################
#  METAR/SPECI from KBLI
###################################
201211302353 METAR KBLI 302353Z 16013G20KT 10SM FEW025 BKN050 BKN070 12/08 A2938 RMK AO2 PK WND 16030/2316 RAE04 SLP957 P0000 60000 T01170078 10133 20117 53004=
201211302333 SPECI KBLI 302333Z 17011G23KT 10SM FEW025 BKN048 OVC065 12/08 A2939 RMK AO2 PK WND 16030/2316 RAE04 P0000=
201211302307 SPECI KBLI 302307Z 16016G24KT 10SM BKN027 BKN039 OVC046 12/08 A2938 RMK AO2 RAE04 P0000=
201211302253 METAR KBLI 302253Z 16012G25KT 9SM -RA FEW029 BKN047 OVC055 12/08 A2938 RMK AO2 PK WND 16033/2208 SLP954 P0000 T01220078=
201211302153 METAR KBLI 302153Z 15015G26KT 10SM -RA FEW032 BKN065 OVC075 13/07 A2937 RMK AO2 PK WND 17031/2130 SLP951 P0000 T01280072=
201211302053 METAR KBLI 302053Z 15016G25KT 9SM -RA FEW037 OVC055 12/07 A2937 RMK AO2 PK WND 16030/1956 RAE00B26 SLP953 P0000 60000 T01170072 51006=
201211301953 METAR KBLI 301953Z 16018G30KT 10SM -RA SCT034 BKN055 OVC090 12/07 A2936 RMK AO2 PK WND 17031/1910 RAB1854 SLP950 P0000 T01220067=
201211301853 METAR KBLI 301853Z 16018G27KT 10SM SCT036 OVC085 13/07 A2937 RMK AO2 PK WND 14040/1825 SLP953 T01330067=
201211301753 METAR KBLI 301753Z 14017G30KT 10SM BKN036 BKN100 BKN120 13/07 A2935 RMK AO2 PK WND 14032/1740 RAE01 SLP946 P0000 60000 T01280067 10139 20111 51014=
201211301653 METAR KBLI 301653Z 15013G21KT 10SM -RA FEW032 SCT041 OVC055 12/07 A2935 RMK AO2 PK WND 15032/1603 RAB1555 SLP945 P0000 T01220072=
201211301553 METAR KBLI 301553Z 13015G22KT 10SM OVC049 14/05 A2932 RMK AO2 PK WND 12027/1455 SLP936 T01390050=
201211301453 METAR KBLI 301453Z 13017G25KT 10SM CLR 13/06 A2931 RMK AO2 PK WND 13028/1441 SLP932 T01330056 58013 $=
201211301353 METAR KBLI 301353Z AUTO 13014G25KT 10SM OVC040 13/05 A2933 RMK AO2 SLP939 T01330050=
201211301253 METAR KBLI 301253Z AUTO 11010G19KT 10SM FEW044 BKN065 OVC090 12/05 A2934 RMK AO2 SLP943 T01220050=
201211301153 METAR KBLI 301153Z AUTO 12015G23KT 10SM SCT041 BKN050 OVC120 11/05 A2935 RMK AO2 PK WND 13027/1119 RAE29 SLP944 P0000 60000 7//// T01110050 10139 20094 58016=
201211301053 METAR KBLI 301053Z AUTO 13019G25KT 10SM -RA SCT047 BKN060 OVC090 12/06 A2938 RMK AO2 RAB27 SLP956 P0000 T01220056=
201211300953 METAR KBLI 300953Z AUTO 13010G16KT 10SM BKN049 OVC055 14/04 A2938 RMK AO2 SLP956 T01390044=
201211300853 METAR KBLI 300853Z AUTO 01004KT 10SM BKN045 OVC055 10/05 A2940 RMK AO2 SLP961 T01000050 56022=
201211300753 METAR KBLI 300753Z AUTO 10006KT 10SM CLR 12/05 A2942 RMK AO2 SLP968 T01220050 401560106=
201211300653 METAR KBLI 300653Z AUTO 13012G19KT 10SM BKN120 13/05 A2944 RMK AO2 SLP975 T01330050=
201211300553 METAR KBLI 300553Z AUTO 14013G19KT 10SM BKN046 BKN100 OVC120 13/05 A2946 RMK AO2 SLP983 T01330050 10133 20122 55010 TSNO=
201211300453 METAR KBLI 300453Z 13008KT 10SM CLR 12/05 A2946 RMK AO2 SLP981 T01220050=
201211300353 METAR KBLI 300353Z 14014G19KT 10SM FEW110 13/05 A2947 RMK AO2 SLP986 T01330050=
201211300253 METAR KBLI 300253Z 13012G18KT 10SM FEW041 BKN120 13/06 A2949 RMK AO2 SLP993 T01280056 56012=
201211300153 METAR KBLI 300153Z 13012G20KT 10SM FEW090 SCT110 13/06 A2950 RMK AO2 PK WND 15030/0100 SLP996 T01280056=
201211300053 METAR KBLI 300053Z 14015G27KT 10SM FEW035 SCT090 BKN110 13/06 A2951 RMK AO2 PK WND 15027/0050 SLP001 T01280056=
201211292353 METAR KBLI 292353Z 14015G22KT 10SM SCT032 OVC080 13/06 A2953 RMK AO2 SLP005 6//// T01280061 10133 20106 56007=
201211292312 SPECI KBLI 292312Z 15015G20KT 10SM BKN029 OVC090 13/06 A2954 RMK AO2=
201211292300 SPECI KBLI 292300Z 15010G20KT 10SM BKN031 OVC090 13/06 A2954 RMK AO2=
201211292253 METAR KBLI 292253Z 15014G23KT 10SM BKN029 BKN034 OVC095 13/06 A2954 RMK AO2 SLP008 T01280061=
201211292153 METAR KBLI 292153Z 16012G26KT 10SM OVC029 13/06 A2955 RMK AO2 PK WND 17031/2115 SLP012 T01280061=
201211292053 METAR KBLI 292053Z 16013G30KT 10SM OVC027 13/07 A2955 RMK AO2 PK WND 17033/2034 SLP012 6//// T01330067 53010=
201211291953 METAR KBLI 291953Z 15023G30KT 10SM FEW039 SCT110 13/07 A2953 RMK AO2 PK WND 14036/1942 SLP006 T01280067 $=
201211291853 METAR KBLI 291853Z 14019G27KT 10SM FEW034 SCT060 OVC095 13/06 A2953 RMK AO2 PK WND 15031/1843 SLP006 T01330061 $=
201211291753 METAR KBLI 291753Z 17010G19KT 10SM BKN060 BKN090 11/07 A2952 RMK AO2 SLP002 6//// T01110067 10156 20111 $=
201211291653 METAR KBLI 291653Z 15012G22KT 10SM BKN060 OVC090 16/04 A2949 RMK AO2 SLP993 T01560044=
201211291553 METAR KBLI 291553Z 11006G18KT 10SM OVC070 16/04 A2948 RMK AO2 RAB39E50 SLP988 P0000 T01560039=
201211291453 METAR KBLI 291453Z 10010KT 10SM OVC070 15/04 A2949 RMK AO2 SLP994 T01500044 56031=
201211291353 METAR KBLI 291353Z AUTO 12010KT 10SM BKN110 14/05 A2952 RMK AO2 PK WND 13026/1257 SLP003 T01440050=
201211291253 METAR KBLI 291253Z AUTO 14015G24KT 10SM CLR 14/05 A2956 RMK AO2 PK WND 14028/1240 SLP016 T01440050=
201211291153 METAR KBLI 291153Z AUTO 14018G27KT 10SM BKN100 14/05 A2959 RMK AO2 PK WND 14027/1152 SLP026 7//// T01440050 10144 20122 58023=
201211291053 METAR KBLI 291053Z AUTO 14013G19KT 10SM SCT100 14/06 A2961 RMK AO2 SLP035 T01390056=
201211290953 METAR KBLI 290953Z AUTO 15012KT 10SM CLR 13/06 A2963 RMK AO2 SLP041 T01330056=
201211290853 METAR KBLI 290853Z AUTO 16011KT 10SM BKN095 13/06 A2965 RMK AO2 SLP049 T01280056 50010=
201211290753 METAR KBLI 290753Z AUTO 15014G22KT 10SM BKN090 13/06 A2966 RMK AO2 SLP050 T01280061 401330000=
201211290653 METAR KBLI 290653Z AUTO 17013G24KT 10SM SCT027 BKN080 12/07 A2966 RMK AO2 PK WND 15027/0625 SLP053 T01220072=
201211290553 METAR KBLI 290553Z 15018G31KT 10SM FEW031 13/07 A2962 RMK AO2 PK WND 14031/0549 SLP039 60000 T01280067 10133 20056 51003=
201211290453 METAR KBLI 290453Z 16008G23KT 10SM FEW040 13/06 A2961 RMK AO2 SLP036 T01280061=
201211290353 METAR KBLI 290353Z 01003KT 10SM BKN046 OVC100 06/04 A2963 RMK AO2 SLP041 T00610044=
201211290253 METAR KBLI 290253Z 00000KT 10SM BKN050 OVC095 06/04 A2961 RMK AO2 RAE02 SLP037 P0000 60000 T00610044 53003=
201211290153 METAR KBLI 290153Z 35004KT 10SM -RA FEW046 BKN075 OVC095 07/05 A2961 RMK AO2 SLP034 P0000 T00670050=
201211290053 METAR KBLI 290053Z 02004KT 9SM -RA OVC070 07/06 A2960 RMK AO2 SLP033 P0000 T00670056=
201211282353 METAR KBLI 282353Z 00000KT 10SM -RA FEW049 BKN070 OVC090 07/05 A2961 RMK AO2 RAB02 SLP034 P0000 6//// T00670050 10072 20050 56015=
201211282253 METAR KBLI 282253Z 00000KT 9SM FEW060 OVC080 07/05 A2961 RMK AO2 SLP036 T00670050=
201211282153 METAR KBLI 282153Z 07005KT 10SM OVC095 07/04 A2960 RMK AO2 RAE45 SLP032 P0000 T00670044=
201211282053 METAR KBLI 282053Z VRB03KT 10SM -RA OVC070 07/04 A2965 RMK AO2 RAB31 SLP049 P0000 6//// T00670039 56025=
201211281953 METAR KBLI 281953Z 00000KT 10SM OVC095 07/03 A2966 RMK AO2 SLP052 T00670033=
201211281853 METAR KBLI 281853Z 00000KT 10SM OVC100 06/03 A2969 RMK AO2 PRESFR SLP063 T00610028 $=
201211281753 METAR KBLI 281753Z 00000KT 10SM OVC110 06/01 A2972 RMK AO2 SLP074 T00560011 10056 20000 56019=
201211281653 METAR KBLI 281653Z 34003KT 10SM FEW100 04/01 A2973 RMK AO2 SLP075 T00440011=
201211281553 METAR KBLI 281553Z 36004KT 10SM BKN120 03/01 A2975 RMK AO2 SLP082 T00280006=
201211281453 METAR KBLI 281453Z 00000KT 10SM FEW120 01/M01 A2978 RMK AO2 SLP093 T00111006 58022=
201211281353 METAR KBLI 281353Z AUTO 00000KT 10SM CLR 00/M01 A2980 RMK AO2 SLP100 T00001011=
201211281253 METAR KBLI 281253Z AUTO 00000KT 10SM CLR 01/M01 A2983 RMK AO2 SLP109 T00061006=
201211281153 METAR KBLI 281153Z AUTO 00000KT 10SM CLR 02/01 A2984 RMK AO2 SLP115 T00220006 10044 20017 58012=
201211281053 METAR KBLI 281053Z AUTO 00000KT 10SM CLR 02/01 A2986 RMK AO2 SLP121 T00220006=
201211280953 METAR KBLI 280953Z AUTO 00000KT 10SM CLR 04/01 A2986 RMK AO2 SLP119 T00390006=
201211280853 METAR KBLI 280853Z AUTO 36005KT 10SM CLR 03/00 A2988 RMK AO2 SLP126 T00330000 58016=
201211280753 METAR KBLI 280753Z AUTO 00000KT 10SM CLR 04/00 A2991 RMK AO2 SLP139 T00390000 400831006=
201211280653 METAR KBLI 280653Z AUTO 02003KT 10SM BKN075 04/00 A2992 RMK AO2 SLP140 T00390000=
201211280553 METAR KBLI 280553Z 36004KT 10SM OVC080 04/00 A2992 RMK AO2 SLP142 T00390000 10061 20017 58010=
201211280453 METAR KBLI 280453Z 01005KT 10SM CLR 03/M01 A2994 RMK AO2 SLP148 T00331006=
201211280353 METAR KBLI 280353Z 32003KT 10SM CLR 03/M01 A2995 RMK AO2 SLP150 T00281006=
201211280253 METAR KBLI 280253Z 01005KT 10SM CLR 03/M01 A2995 RMK AO2 SLP153 T00281011 58013=
201211280153 METAR KBLI 280153Z 02005KT 10SM CLR 04/M01 A2998 RMK AO2 SLP160 T00391011=
201211280053 METAR KBLI 280053Z 35003KT 10SM CLR 04/M01 A2999 RMK AO2 SLP164 T00441006=
201211272353 METAR KBLI 272353Z 35004KT 10SM CLR 06/00 A2999 RMK AO2 SLP165 T00610000 10083 20039 56010=
201211272253 METAR KBLI 272253Z 02005KT 10SM FEW055 08/00 A3000 RMK AO2 SLP168 T00780000=
201211272153 METAR KBLI 272153Z 35004KT 10SM SCT050 08/00 A3001 RMK AO2 SLP171 T00780000=
201211272053 METAR KBLI 272053Z 02006KT 10SM BKN050 07/00 A3002 RMK AO2 SLP175 T00720000 58020=
201211271953 METAR KBLI 271953Z 01004KT 10SM CLR 07/01 A3005 RMK AO2 SLP184 T00670006=
201211271853 METAR KBLI 271853Z 00000KT 10SM BKN055 05/M01 A3007 RMK AO2 SLP193 T00501006=
201211271753 METAR KBLI 271753Z 00000KT 10SM CLR 04/M01 A3008 RMK AO2 SLP196 T00391006 10039 20000 51004=
201211271653 METAR KBLI 271653Z 00000KT 10SM CLR 02/M01 A3008 RMK AO2 SLP196 T00221011=
201211271553 METAR KBLI 271553Z 00000KT 10SM FEW060 01/M01 A3008 RMK AO2 SLP195 T00111011=
201211271453 METAR KBLI 271453Z AUTO 00000KT 10SM CLR 02/M01 A3007 RMK AO2 SLP191 T00221011 58003=
201211271353 METAR KBLI 271353Z AUTO 36003KT 10SM OVC060 01/M01 A3007 RMK AO2 SLP193 T00111006=
201211271253 METAR KBLI 271253Z AUTO 00000KT 10SM FEW060 01/M01 A3007 RMK AO2 SLP193 T00111006=
201211271153 METAR KBLI 271153Z AUTO 02003KT 10SM OVC060 00/M01 A3008 RMK AO2 SLP194 T00001011 10022 21006 58001=
201211271053 METAR KBLI 271053Z AUTO 00000KT 10SM BKN060 00/M01 A3009 RMK AO2 SLP197 T00001011=
201211270953 METAR KBLI 270953Z AUTO 00000KT 10SM CLR M01/M02 A3007 RMK AO2 SLP193 T10061017=
201211270853 METAR KBLI 270853Z AUTO 00000KT 10SM CLR 01/M01 A3008 RMK AO2 SLP195 T00061011 58000=
201211270753 METAR KBLI 270753Z AUTO 00000KT 10SM CLR 01/M02 A3009 RMK AO2 SLP197 T00111022 400781011=
201211270653 METAR KBLI 270653Z AUTO 02003KT 10SM CLR 02/M02 A3009 RMK AO2 SLP197 T00171017=
201211270553 METAR KBLI 270553Z 34004KT 10SM CLR 02/M01 A3008 RMK AO2 SLP195 T00171011 10061 21006 53003=
201211270453 METAR KBLI 270453Z 00000KT 10SM CLR 01/M01 A3008 RMK AO2 SLP195 T00061011=
201211270353 METAR KBLI 270353Z 00000KT 10SM CLR 01/M02 A3007 RMK AO2 SLP194 T00061017=
201211270253 METAR KBLI 270253Z 01003KT 10SM CLR 02/M02 A3007 RMK AO2 SLP193 T00221017 55002=
201211270153 METAR KBLI 270153Z 03003KT 10SM CLR 03/M02 A3007 RMK AO2 SLP191 T00331017=
201211270053 METAR KBLI 270053Z 33004KT 10SM CLR 04/M01 A3008 RMK AO2 SLP194 T00441011=
201211262353 METAR KBLI 262353Z 36007KT 10SM CLR 06/M01 A3008 RMK AO2 SLP195 T00611011 10078 20033 55009=
201211262253 METAR KBLI 262253Z 01010KT 10SM CLR 07/M01 A3008 RMK AO2 SLP194 T00721011=
201211262153 METAR KBLI 262153Z 01007KT 10SM CLR 08/M01 A3010 RMK AO2 SLP200 T00781006=
201211262053 METAR KBLI 262053Z 02009KT 10SM CLR 08/00 A3011 RMK AO2 SLP204 T00780000 58015=
201211261953 METAR KBLI 261953Z 03008KT 10SM CLR 07/00 A3013 RMK AO2 SLP212 T00670000=
201211261853 METAR KBLI 261853Z 00000KT 10SM CLR 05/00 A3015 RMK AO2 SLP218 T00500000=
201211261753 METAR KBLI 261753Z 35005KT 10SM CLR 03/M01 A3015 RMK AO2 SLP219 T00331011 10033 21011 56010=
201211261653 METAR KBLI 261653Z 00000KT 10SM CLR 00/M01 A3015 RMK AO2 SLP220 T00001011=
201211261553 METAR KBLI 261553Z 00000KT 10SM CLR M01/M02 A3016 RMK AO2 SLP225 T10061022=
201211261453 METAR KBLI 261453Z 04003KT 10SM CLR 01/M02 A3018 RMK AO2 SLP229 T00061022 56010=
201211261353 METAR KBLI 261353Z AUTO 02005KT 10SM CLR 01/M02 A3019 RMK AO2 SLP233 T00061017=
201211261253 METAR KBLI 261253Z AUTO 36004KT 10SM CLR 00/M02 A3020 RMK AO2 SLP236 T00001017=
201211261153 METAR KBLI 261153Z AUTO 01005KT 10SM CLR 00/M02 A3021 RMK AO2 SLP239 70001 T00001017 10017 21006 56015=
201211261053 METAR KBLI 261053Z AUTO 01004KT 10SM CLR 00/M02 A3023 RMK AO2 SLP244 T00001017=
201211260953 METAR KBLI 260953Z AUTO 36006KT 10SM CLR 01/M01 A3023 RMK AO2 SLP247 T00111011=
201211260918 SPECI KBLI 260918Z AUTO 35004KT 6SM BR CLR 00/M01 A3024 RMK AO2=
201211260910 SPECI KBLI 260910Z AUTO 00000KT 2SM BR CLR M01/M01 A3025 RMK AO2 VIS 1V5=
201211260901 SPECI KBLI 260901Z AUTO 00000KT 3/4SM R16/P6000FT BR CLR M01/M02 A3025 RMK AO2=
201211260853 METAR KBLI 260853Z AUTO 00000KT 1 1/4SM BR CLR M01/M02 A3025 RMK AO2 SLP254 T10061022 56006=
201211260753 METAR KBLI 260753Z AUTO 36004KT 10SM CLR 01/M01 A3026 RMK AO2 SLP256 T00061006 400720000=
201211260653 METAR KBLI 260653Z AUTO 35006KT 10SM CLR 01/00 A3026 RMK AO2 SLP255 T00110000=
201211260553 METAR KBLI 260553Z 00000KT 4SM BR CLR 00/M01 A3027 RMK AO2 SLP260 T00001011 10044 20000 58006=
201211260530 SPECI KBLI 260530Z 00000KT 8SM CLR 01/M01 A3028 RMK AO2=
201211260515 SPECI KBLI 260515Z 36004KT 1 1/2SM BR CLR 01/M01 A3028 RMK AO2=
201211260453 METAR KBLI 260453Z 00000KT 8SM CLR 01/00 A3029 RMK AO2 SLP265 T00110000=
201211260353 METAR KBLI 260353Z AUTO 01003KT 7SM CLR 02/01 A3029 RMK AO2 SLP265 T00170006 TSNO=
201211260253 METAR KBLI 260253Z 31005KT 8SM FEW001 03/02 A3029 RMK AO2 SLP266 T00330022 58013=
201211260208 SPECI KBLI 260208Z 00000KT 8SM R16/1800V4000FT FEW001 02/01 A3030 RMK AO2=
201211260201 SPECI KBLI 260201Z 00000KT 3/4SM R16/2200VP6000FT BR VV002 02/01 A3030 RMK AO2=
201211260158 SPECI KBLI 260158Z 00000KT 1 3/4SM R16/4000VP6000FT BR FEW002 02/01 A3031 RMK AO2=
201211260153 METAR KBLI 260153Z 00000KT 8SM R16/4000VP6000FT CLR 02/01 A3031 RMK AO2 SLP273 T00170006=
201211260053 METAR KBLI 260053Z 00000KT 10SM CLR 03/01 A3032 RMK AO2 SLP276 T00280011=
201211252353 METAR KBLI 252353Z 00000KT 10SM CLR 04/03 A3033 RMK AO2 SLP280 T00440033 10072 20044 56005=
201211252253 METAR KBLI 252253Z 00000KT 10SM SCT039 06/03 A3033 RMK AO2 SLP280 T00610033=
201211252153 METAR KBLI 252153Z 01003KT 10SM OVC037 07/04 A3034 RMK AO2 SLP283 T00720039=
201211252130 SPECI KBLI 252130Z 36003KT 10SM FEW008 SCT015 OVC037 07/04 A3034 RMK AO2=
201211252103 SPECI KBLI 252103Z VRB03KT 10SM FEW008 BKN018 OVC041 07/04 A3034 RMK AO2=
201211252053 METAR KBLI 252053Z 00000KT 10SM SCT015 OVC037 07/04 A3034 RMK AO2 SLP285 T00670044 58003=
201211252037 SPECI KBLI 252037Z 00000KT 10SM SCT015 OVC037 07/03 A3035 RMK AO2=
201211251953 METAR KBLI 251953Z 00000KT 10SM BKN028 OVC036 06/05 A3035 RMK AO2 SLP287 T00610050=
201211251853 METAR KBLI 251853Z 16004KT 10SM FEW004 BKN015 OVC028 06/04 A3036 RMK AO2 SLP289 T00610044=
201211251830 SPECI KBLI 251830Z 15003KT 10SM FEW004 SCT028 06/04 A3036 RMK AO2=
201211251753 METAR KBLI 251753Z 14003KT 10SM FEW027 SCT034 BKN045 06/04 A3035 RMK AO2 RAE10B42E52 SLP288 P0000 60001 T00610039 10061 20017 51016=
201211251745 SPECI KBLI 251745Z 14003KT 10SM -RA FEW003 BKN034 OVC047 06/04 A3035 RMK AO2 RAE10B42 P0000=
201211251703 SPECI KBLI 251703Z 00000KT 7SM -RA SCT003 BKN017 OVC036 05/04 A3034 RMK AO2 P0000=
201211251653 METAR KBLI 251653Z 00000KT 5SM -RA BR BKN003 BKN017 OVC046 05/04 A3034 RMK AO2 RAB23 SLP284 VIS E-SW 2 P0000 T00500044=
201211251559 SPECI KBLI 251559Z 00000KT 5SM BR SCT002 OVC015 04/03 A3033 RMK AO2 VIS W-NE 1SM=
201211251553 METAR KBLI 251553Z 13003KT 2SM BR BKN002 OVC017 04/03 A3033 RMK AO2 RAE29 SLP278 P0001 T00440033=
201211251519 SPECI KBLI 251519Z 00000KT 2SM -RA BR BKN002 OVC017 04/04 A3032 RMK AO2 P0001=
201211251505 SPECI KBLI 251505Z 00000KT 3SM R16/5000VP6000FT -RA BR BKN002 OVC017 04/04 A3031 RMK AO2 P0001=
201211251455 SPECI KBLI 251455Z 00000KT 1 1/2SM R16/4000VP6000FT -RA BR BKN002 OVC017 04/04 A3031 RMK AO2 P0001=
201211251453 METAR KBLI 251453Z 20003KT 2SM R16/4000VP6000FT -RA BR SCT002 OVC017 04/04 A3031 RMK AO2 SLP272 P0000 60000 T00440039 53004=
201211251444 SPECI KBLI 251444Z 00000KT 2SM BR BKN002 BKN017 OVC023 03/03 A3031 RMK AO2 RAE35 P0000=
201211251438 SPECI KBLI 251438Z AUTO 00000KT 4SM BR SCT002 BKN017 OVC030 03/03 A3030 RMK AO2 RAE35 P0000=
201211251353 METAR KBLI 251353Z AUTO 00000KT 4SM -RA BR SCT021 BKN026 OVC039 03/02 A3030 RMK AO2 RAB03 SLP269 P0000 T00280022=
201211251301 SPECI KBLI 251301Z AUTO 00000KT 5SM BR FEW002 BKN027 OVC038 02/01 A3030 RMK AO2=
201211251253 METAR KBLI 251253Z AUTO 00000KT 6SM BR SCT022 BKN028 OVC038 02/02 A3030 RMK AO2 SLP270 T00220017=
201211251224 SPECI KBLI 251224Z AUTO 00000KT 5SM BR OVC022 02/02 A3030 RMK AO2=
201211251209 SPECI KBLI 251209Z AUTO 00000KT 2SM BR BKN022 OVC043 02/01 A3030 RMK AO2=
201211251153 METAR KBLI 251153Z AUTO 17003KT 10SM BKN043 03/03 A3030 RMK AO2 SLP268 T00330028 10033 20000 51007=
201211251122 SPECI KBLI 251122Z AUTO 15003KT 7SM SCT023 OVC047 03/02 A3029 RMK AO2=
201211251106 SPECI KBLI 251106Z AUTO 00000KT 4SM BR BKN023 BKN037 OVC047 03/02 A3029 RMK AO2=
201211251053 METAR KBLI 251053Z AUTO 00000KT 5SM BR FEW025 BKN037 OVC045 03/02 A3029 RMK AO2 SLP266 T00280022=
201211250958 SPECI KBLI 250958Z AUTO 00000KT 3SM BR OVC047 01/01 A3028 RMK AO2=
201211250953 METAR KBLI 250953Z AUTO 00000KT 1 1/4SM BR OVC047 01/01 A3028 RMK AO2 VIS 1/2V3 SLP262 T00110006=
201211250951 SPECI KBLI 250951Z AUTO 00000KT 1SM R16/P6000FT BR OVC047 01/01 A3028 RMK AO2 VIS 1/2V3=
201211250944 SPECI KBLI 250944Z AUTO 00000KT 1/2SM R16/P6000FT FG BKN047 OVC110 01/01 A3028 RMK AO2=
201211250924 SPECI KBLI 250924Z AUTO 00000KT 1 1/4SM R16/6000VP6000FT BR FEW024 OVC110 01/00 A3028 RMK AO2 VIS 3/4V3=
201211250914 SPECI KBLI 250914Z AUTO 00000KT 3/4SM R16/3000VP6000FT BR FEW018 SCT024 BKN110 01/00 A3028 RMK AO2=
201211250853 METAR KBLI 250853Z AUTO 00000KT 1/2SM R16/P6000FT FG VV018 01/M01 A3027 RMK AO2 SLP261 T00061011 51005=
201211250844 SPECI KBLI 250844Z AUTO 00000KT 3/4SM R16/P6000FT BR FEW002 01/M01 A3027 RMK AO2=
201211250831 SPECI KBLI 250831Z AUTO 00000KT 1 3/4SM BR FEW013 SCT120 02/01 A3027 RMK AO2 VIS 3/4V3=
201211250821 SPECI KBLI 250821Z AUTO 00000KT 4SM BR FEW013 02/01 A3027 RMK AO2=
201211250810 SPECI KBLI 250810Z AUTO 00000KT 6SM BR BKN011 02/01 A3027 RMK AO2=
201211250801 SPECI KBLI 250801Z AUTO 00000KT 5SM BR SCT011 02/01 A3027 RMK AO2=
201211250753 METAR KBLI 250753Z AUTO 00000KT 2SM R16/5000VP6000FT BR BKN011 02/01 A3027 RMK AO2 SLP260 T00170011 401000000=
201211250742 SPECI KBLI 250742Z AUTO 00000KT 1SM R16/3500VP6000FT BR FEW002 OVC009 02/01 A3027 RMK AO2=
201211250734 SPECI KBLI 250734Z AUTO 00000KT 1/2SM R16/3500VP6000FT FG FEW002 OVC009 01/01 A3027 RMK AO2=
201211250727 SPECI KBLI 250727Z AUTO 00000KT 3/4SM R16/2000VP6000FT BR FEW002 BKN009 01/00 A3027 RMK AO2=
201211250717 SPECI KBLI 250717Z AUTO 00000KT 1/2SM R16/2400V3000FT FG SCT002 BKN009 01/M01 A3026 RMK AO2=
201211250708 SPECI KBLI 250708Z AUTO 00000KT 3/4SM R16/2200V5000FT BR FEW002 BKN009 01/00 A3026 RMK AO2=
201211250657 SPECI KBLI 250657Z AUTO 00000KT 2 1/2SM R16/3500VP6000FT BR BKN009 01/M01 A3026 RMK AO2=
201211250653 METAR KBLI 250653Z AUTO 00000KT 8SM R16/3500VP6000FT CLR 01/M01 A3026 RMK AO2 SLP256 T00061006=
201211250553 METAR KBLI 250553Z 00000KT 7SM CLR 01/00 A3026 RMK AO2 SLP256 T00110000 10072 20006 53008=
201211250453 METAR KBLI 250453Z 00000KT 9SM R16/1600V2600FT CLR 01/00 A3024 RMK AO2 SLP250 T00110000=
201211250428 SPECI KBLI 250428Z 00000KT 9SM R16/3000VP6000FT SCT002 02/01 A3024 RMK AO2=
201211250416 SPECI KBLI 250416Z 00000KT 9SM R16/3000VP6000FT CLR 01/00 A3023 RMK AO2=
201211250408 SPECI KBLI 250408Z 00000KT 2SM R16/2800VP6000FT BR CLR 01/00 A3023 RMK AO2 VIS 1/2V5=
201211250400 SPECI KBLI 250400Z 00000KT 3/4SM R16/1800VP6000FT BR CLR 02/01 A3023 RMK AO2=
201211250353 METAR KBLI 250353Z 00000KT 10SM R16/4000VP6000FT CLR 02/01 A3024 RMK AO2 SLP248 T00170011=
201211250339 SPECI KBLI 250339Z 00000KT 10SM FEW002 02/02 A3023 RMK AO2=
201211250253 METAR KBLI 250253Z 00000KT 10SM CLR 03/02 A3024 RMK AO2 SLP248 T00280017 53000=
201211250153 METAR KBLI 250153Z 00000KT 10SM CLR 03/02 A3023 RMK AO2 SLP246 T00330022=
201211250053 METAR KBLI 250053Z 00000KT 10SM CLR 04/03 A3023 RMK AO2 SLP247 T00440028=
201211242353 METAR KBLI 242353Z 00000KT 10SM CLR 07/04 A3023 RMK AO2 SLP246 T00720039 10100 20072 55001=
201211242253 METAR KBLI 242253Z 00000KT 10SM CLR 09/04 A3023 RMK AO2 SLP246 T00890044=
201211242153 METAR KBLI 242153Z 25004KT 10SM FEW015 09/05 A3024 RMK AO2 SLP247 T00890050=
201211242053 METAR KBLI 242053Z 17005KT 10SM CLR 09/05 A3024 RMK AO2 SLP248 T00940050 51000=
201211241953 METAR KBLI 241953Z 21004KT 10SM BKN043 09/05 A3024 RMK AO2 SLP248 T00940050=
201211241853 METAR KBLI 241853Z 16006KT 10SM SCT044 SCT050 09/06 A3024 RMK AO2 SLP249 T00940056=
201211241753 METAR KBLI 241753Z VRB04KT 10SM CLR 09/06 A3024 RMK AO2 SLP247 T00890061 10089 20044 52012=
201211241653 METAR KBLI 241653Z 17005KT 10SM CLR 07/05 A3023 RMK AO2 SLP244 T00720050=
201211241553 METAR KBLI 241553Z 17005KT 10SM CLR 07/04 A3021 RMK AO2 SLP239 T00670044=
201211241453 METAR KBLI 241453Z 17005KT 10SM CLR 07/04 A3020 RMK AO2 SLP236 T00670044 53013=
201211241353 METAR KBLI 241353Z AUTO 17005KT 10SM CLR 07/04 A3019 RMK AO2 SLP231 T00670039=
201211241253 METAR KBLI 241253Z AUTO 16003KT 10SM CLR 04/04 A3018 RMK AO2 SLP227 T00440039=
201211241153 METAR KBLI 241153Z AUTO 16004KT 10SM SCT100 06/04 A3017 RMK AO2 RAE03 SLP223 P0000 60000 7//// T00610039 10083 20044 51014=
201211241053 METAR KBLI 241053Z AUTO 18004KT 10SM -RA BKN050 BKN070 OVC090 07/05 A3016 RMK AO2 RAB53 SLP222 P0000 T00670050=
201211240953 METAR KBLI 240953Z AUTO 16004KT 10SM CLR 06/05 A3014 RMK AO2 SLP213 T00560050=
201211240853 METAR KBLI 240853Z AUTO 17004KT 10SM CLR 07/06 A3012 RMK AO2 SLP209 T00720061 51021=
201211240753 METAR KBLI 240753Z AUTO 17005KT 10SM CLR 07/06 A3011 RMK AO2 SLP203 T00670056 401110067=
201211240653 METAR KBLI 240653Z AUTO 18005KT 10SM SCT005 SCT045 BKN075 08/07 A3008 RMK AO2 SLP195 T00780067=
201211240600 SPECI KBLI 240600Z 16005KT 10SM FEW007 BKN055 OVC070 08/07 A3006 RMK AO2=
201211240553 METAR KBLI 240553Z 17004KT 10SM BKN010 BKN027 OVC040 08/07 A3006 RMK AO2 RAE46 SLP188 P0001 60001 T00780072 10094 20067 51009=
201211240517 SPECI KBLI 240517Z 18005KT 6SM -RA BR BKN010 BKN027 OVC040 08/07 A3006 RMK AO2 P0000=
201211240510 SPECI KBLI 240510Z 16005KT 9SM -RA SCT010 BKN027 OVC040 08/07 A3006 RMK AO2 P0000=
201211240500 SPECI KBLI 240500Z 18004KT 10SM -RA BKN010 BKN036 OVC049 08/07 A3006 RMK AO2 P0000=
201211240453 METAR KBLI 240453Z 00000KT 8SM -RA SCT010 OVC049 07/07 A3006 RMK AO2 RAB03E14B42 SLP187 P0000 T00720067=
201211240416 SPECI KBLI 240416Z 00000KT 10SM FEW003 BKN038 BKN049 07/06 A3005 RMK AO2 RAB03E14 P0000=
201211240353 METAR KBLI 240353Z 00000KT 10SM SCT047 BKN055 OVC075 08/07 A3004 RMK AO2 RAB0255E06 SLP180 P0000 T00780072=
201211240253 METAR KBLI 240253Z 04003KT 10SM OVC045 08/07 A3003 RMK AO2 RAB14E24 SLP179 P0000 60000 T00830072 53002=
201211240153 METAR KBLI 240153Z 18003KT 10SM OVC060 09/08 A3002 RMK AO2 RAE44 SLP173 P0000 T00890078=
201211240053 METAR KBLI 240053Z 17006KT 10SM -RA OVC055 09/08 A3002 RMK AO2 RAE12B31 SLP172 P0000 T00940078=
201211232353 METAR KBLI 232353Z 17007KT 8SM -RA FEW011 OVC047 09/08 A3003 RMK AO2 RAB2254E11B50 SLP177 P0000 6//// T00940078 10111 20089 55002=
201211232334 SPECI KBLI 232334Z 16009KT 10SM SCT038 OVC045 09/08 A3003 RMK AO2 RAB2254E11 P0000=
201211232253 METAR KBLI 232253Z 16010G16KT 7SM BKN013 BKN020 OVC041 09/08 A3003 RMK AO2 RAE46 SLP175 P0000 T00940078=
201211232153 METAR KBLI 232153Z 16010G16KT 6SM -RA BR BKN013 OVC018 09/08 A3002 RMK AO2 SLP175 P0000 T00940078=
201211232144 SPECI KBLI 232144Z 16011KT 6SM -RA BR OVC015 09/08 A3003 RMK AO2 P0000=
201211232053 METAR KBLI 232053Z 16008G15KT 6SM -RA BR BKN014 OVC020 09/07 A3003 RMK AO2 SLP179 P0000 6//// T00890072 58002=
201211232015 SPECI KBLI 232015Z 18008KT 6SM -RA BR OVC014 09/08 A3004 RMK AO2 P0000 $=
201211231953 METAR KBLI 231953Z 17010G18KT 5SM -RA BR OVC018 10/08 A3005 RMK AO2 RAB38 SLP183 P0000 T01000078 $=
201211231853 METAR KBLI 231853Z 00000KT 10SM BKN022 OVC060 11/07 A3005 RMK AO2 SLP184 T01110072 $=
201211231753 METAR KBLI 231753Z 15008KT 10SM SCT025 OVC055 11/07 A3004 RMK AO2 RAB19RAEMM SLP181 P0000 60000 T01060067 10106 20094 50001=
201211231653 METAR KBLI 231653Z 15012G17KT 10SM SCT030 BKN047 OVC055 11/06 A3004 RMK AO2 RAB1557E37 SLP182 P0000 T01060061=
201211231553 METAR KBLI 231553Z 16013G22KT 10SM SCT030 BKN047 OVC055 10/06 A3003 RMK AO2 PK WND 13026/1528 RAE47 SLP178 P0000 T01000056=
201211231453 METAR KBLI 231453Z 15013G23KT 10SM -RA OVC044 10/05 A3004 RMK AO2 SLP179 P0000 60000 T01000050 55005=
201211231353 METAR KBLI 231353Z AUTO 14016G24KT 10SM -RA OVC050 10/05 A3004 RMK AO2 PK WND 13026/1332 SLP179 P0000 T01000050=
201211231253 METAR KBLI 231253Z AUTO 14013G21KT 10SM -RA BKN044 OVC070 10/04 A3004 RMK AO2 SLP181 P0000 T01000044=
201211231153 METAR KBLI 231153Z AUTO 15015G22KT 10SM -RA OVC070 09/04 A3005 RMK AO2 SLP184 P0000 60000 T00940044 10100 20067 58021=
201211231053 METAR KBLI 231053Z AUTO 10008G20KT 060V160 10SM -RA BKN042 OVC065 10/03 A3009 RMK AO2 RAB37 SLP198 P0000 T01000033=
201211230953 METAR KBLI 230953Z AUTO 10011G20KT 10SM BKN075 OVC090 09/03 A3009 RMK AO2 PK WND 12031/0902 RAE39 SLP198 P0000 T00940033=
201211230853 METAR KBLI 230853Z AUTO 11014G26KT 10SM -RA FEW060 OVC075 10/03 A3011 RMK AO2 PK WND 11026/0849 RAE05B46 SLP205 P0000 60000 T01000028 58018=
201211230753 METAR KBLI 230753Z AUTO 12008KT 10SM -RA FEW060 OVC070 09/03 A3014 RMK AO2 RAB16 SLP213 P0000 T00940028 400940017=
201211230653 METAR KBLI 230653Z AUTO VRB05KT 10SM OVC080 07/03 A3015 RMK AO2 SLP216 T00670028=
201211230553 METAR KBLI 230553Z 36004KT 10SM OVC085 07/03 A3017 RMK AO2 SLP223 T00670028 10072 20067 55014=
201211230453 METAR KBLI 230453Z 03009KT 10SM OVC080 07/02 A3016 RMK AO2 SLP221 T00720022=
201211230353 METAR KBLI 230353Z 04007G14KT 10SM OVC090 07/03 A3018 RMK AO2 SLP228 T00670028=
201211230253 METAR KBLI 230253Z 03008KT 10SM SCT070 OVC090 07/03 A3021 RMK AO2 SLP238 T00720028 56028=
201211230153 METAR KBLI 230153Z 02005KT 10SM BKN075 OVC090 07/03 A3022 RMK AO2 SLP243 T00670028=
201211230053 METAR KBLI 230053Z 02007KT 10SM BKN065 OVC075 07/03 A3026 RMK AO2 SLP256 T00670028=
201211222353 METAR KBLI 222353Z 02005KT 10SM OVC075 07/03 A3029 RMK AO2 SLP266 T00670033 10078 20056 55009=
201211222253 METAR KBLI 222253Z 01006KT 10SM OVC080 07/03 A3029 RMK AO2 SLP265 T00670033=
201211222153 METAR KBLI 222153Z 36004KT 10SM OVC075 07/03 A3031 RMK AO2 SLP272 T00720028=
201211222053 METAR KBLI 222053Z 03005KT 10SM OVC090 07/03 A3032 RMK AO2 SLP274 T00720028 58012=
201211221953 METAR KBLI 221953Z 05004KT 10SM OVC100 07/03 A3033 RMK AO2 SLP280 T00720028=
201211221853 METAR KBLI 221853Z 03006KT 10SM OVC100 07/04 A3034 RMK AO2 SLP285 T00670039=
201211221753 METAR KBLI 221753Z 03006KT 10SM OVC100 06/03 A3035 RMK AO2 SLP287 T00560033 10056 20017 58001=
201211221653 METAR KBLI 221653Z 01003KT 10SM FEW033 OVC100 04/03 A3036 RMK AO2 SLP290 T00440028=
201211221553 METAR KBLI 221553Z 04003KT 10SM SCT120 03/02 A3036 RMK AO2 SLP289 T00330022=
201211221453 METAR KBLI 221453Z AUTO 07004KT 10SM OVC050 03/02 A3035 RMK AO2 SLP288 T00280017 51011=
201211221353 METAR KBLI 221353Z AUTO 00000KT 10SM BKN042 03/02 A3035 RMK AO2 SLP286 T00330022=
201211221253 METAR KBLI 221253Z AUTO 00000KT 3SM BR BKN038 02/01 A3034 RMK AO2 SLP282 T00220011=
201211221246 SPECI KBLI 221246Z AUTO 00000KT 1 3/4SM BR BKN038 02/01 A3033 RMK AO2=
201211221153 METAR KBLI 221153Z AUTO 00000KT 7SM CLR 02/01 A3032 RMK AO2 SLP277 70015 T00220011 10061 20022 52012=
201211221053 METAR KBLI 221053Z AUTO 00000KT 10SM CLR 04/03 A3031 RMK AO2 SLP273 T00390028=
201211220953 METAR KBLI 220953Z AUTO 16003KT 10SM FEW039 04/03 A3030 RMK AO2 SLP269 T00440028=
201211220853 METAR KBLI 220853Z AUTO 15005KT 10SM FEW021 SCT037 06/04 A3029 RMK AO2 SLP264 T00610039 51027=
201211220753 METAR KBLI 220753Z AUTO 18005KT 10SM CLR 06/04 A3027 RMK AO2 SLP258 T00560039 400890039=
201211220653 METAR KBLI 220653Z AUTO 17003KT 10SM SCT055 04/03 A3024 RMK AO2 SLP248 T00440028=
201211220553 METAR KBLI 220553Z 17005KT 10SM FEW046 05/03 A3021 RMK AO2 SLP237 60000 T00500033 10061 20039 51041=
201211220453 METAR KBLI 220453Z 17003KT 10SM CLR 05/03 A3017 RMK AO2 SLP225 T00500033=
201211220353 METAR KBLI 220353Z 16003KT 10SM CLR 04/03 A3013 RMK AO2 SLP211 T00440033=
201211220253 METAR KBLI 220253Z 17006KT 10SM FEW043 06/04 A3009 RMK AO2 SLP196 60000 T00610039 51030=
201211220153 METAR KBLI 220153Z 18004KT 10SM FEW018 SCT024 06/04 A3004 RMK AO2 SLP182 T00560039=
201211220053 METAR KBLI 220053Z 14003KT 10SM OVC021 06/04 A3000 RMK AO2 RAE21 SLP166 P0000 T00560039=
201211220026 SPECI KBLI 220026Z 11005KT 10SM FEW013 BKN027 06/04 A2998 RMK AO2 RAE21 P0000=
201211212353 METAR KBLI 212353Z 00000KT 9SM -RA OVC013 06/04 A2996 RMK AO2 SLP153 P0000 60015 T00610044 10078 20056 52044=
201211212337 SPECI KBLI 212337Z 00000KT 8SM -RA BKN010 OVC043 06/04 A2995 RMK AO2 P0000=
201211212310 SPECI KBLI 212310Z 00000KT 7SM -RA FEW020 BKN033 OVC045 06/04 A2993 RMK AO2 P0000=
201211212253 METAR KBLI 212253Z 15004KT 3SM RA BR OVC022 06/04 A2992 RMK AO2 SLP138 P0006 T00560039=
201211212153 METAR KBLI 212153Z 00000KT 3SM -RA BR SCT016 OVC025 06/04 A2987 RMK AO2 SLP124 P0009 T00610044=
201211212053 METAR KBLI 212053Z 17003KT 9SM -RA BKN024 OVC032 08/04 A2983 RMK AO2 RAB1956E06B28 SLP109 P0000 60000 T00780044 51023=
201211212040 SPECI KBLI 212040Z 18003KT 10SM -RA BKN026 OVC033 08/04 A2982 RMK AO2 RAB1956E06B28 P0000=
201211211953 METAR KBLI 211953Z 16008KT 10SM SCT026 BKN050 OVC080 08/04 A2981 RMK AO2 SLP103 T00780039=
201211211900 SPECI KBLI 211900Z 16009KT 10SM SCT020 BKN060 08/04 A2979 RMK AO2=
201211211853 METAR KBLI 211853Z 16010KT 10SM FEW015 BKN020 OVC060 08/04 A2979 RMK AO2 RAB30E39 SLP095 P0000 T00780039=
201211211807 SPECI KBLI 211807Z 17008G14KT 10SM FEW015 BKN020 OVC048 07/04 A2977 RMK AO2=
201211211753 METAR KBLI 211753Z 18009G19KT 10SM FEW022 BKN047 OVC075 07/03 A2976 RMK AO2 SLP086 60000 T00720028 10083 20056 51059=
201211211712 SPECI KBLI 211712Z 00000KT 10SM FEW015 BKN035 BKN042 06/03 A2973 RMK AO2=
201211211653 METAR KBLI 211653Z 00000KT 10SM BKN015 BKN024 BKN049 06/03 A2971 RMK AO2 SLP070 T00560028=
201211211553 METAR KBLI 211553Z VRB06KT 10SM BKN011 BKN014 OVC070 06/03 A2965 RMK AO2 SLP047 T00560033=
201211211509 SPECI KBLI 211509Z 21009G17KT 180V250 10SM BKN013 BKN120 06/04 A2961 RMK AO2=
201211211500 SPECI KBLI 211500Z 22008KT 190V270 10SM SCT011 BKN018 BKN065 07/04 A2959 RMK AO2=
201211211453 METAR KBLI 211453Z VRB06G16KT 10SM BKN012 BKN019 OVC049 07/05 A2959 RMK AO2 PK WND 15030/1408 RAB07E34 SLP027 P0000 60000 T00720050 51025=
201211211450 SPECI KBLI 211450Z VRB05G16KT 10SM BKN012 BKN019 OVC049 07/05 A2959 RMK AO2 PK WND 15030/1408 RAB07E34 PRESRR P0000=
201211211431 SPECI KBLI 211431Z AUTO 17012G19KT 10SM -RA SCT014 OVC046 07/05 A2956 RMK AO2 PK WND 15030/1408 RAB07 P0000 $=
201211211400 SPECI KBLI 211400Z AUTO 16017G24KT 10SM SCT019 BKN028 OVC038 08/05 A2953 RMK AO2 $=
201211211353 METAR KBLI 211353Z AUTO 15018G24KT 10SM FEW017 BKN030 OVC038 08/05 A2953 RMK AO2 SLP006 T00830050=
201211211304 SPECI KBLI 211304Z AUTO 11006KT 10SM BKN027 OVC032 07/04 A2952 RMK AO2=
201211211253 METAR KBLI 211253Z AUTO 12005KT 10SM FEW024 OVC033 07/04 A2951 RMK AO2 RAE48 SLP002 P0000 T00720044=
201211211153 METAR KBLI 211153Z AUTO 00000KT 7SM -RA OVC031 07/06 A2951 RMK AO2 SLP000 P0001 60002 7//// T00670056 10100 20067 56010=
201211211053 METAR KBLI 211053Z AUTO 00000KT 5SM -RA BR BKN039 OVC046 07/05 A2951 RMK AO2 SLP002 P0001 T00670050=
201211210953 METAR KBLI 210953Z AUTO 36007KT 10SM -RA OVC043 07/05 A2952 RMK AO2 RAB31 SLP002 P0000 T00670050=
201211210853 METAR KBLI 210853Z AUTO 02004KT 10SM BKN044 OVC065 07/06 A2954 RMK AO2 RAB0757E48 SLP010 P0000 60000 T00720056 58026=
201211210753 METAR KBLI 210753Z AUTO 06004KT 10SM FEW025 OVC032 09/04 A2959 RMK AO2 SLP027 T00890044 401220056=
201211210724 SPECI KBLI 210724Z AUTO 16013G17KT 10SM FEW026 SCT030 OVC043 10/04 A2960 RMK AO2=
201211210653 METAR KBLI 210653Z AUTO 16010G19KT 10SM BKN027 OVC034 09/04 A2961 RMK AO2 SLP034 T00940044=
201211210553 METAR KBLI 210553Z 17008G17KT 150V210 10SM OVC025 09/04 A2962 RMK AO2 SLP037 60000 T00940044 10111 20089 53004=
201211210507 SPECI KBLI 210507Z 18006KT 10SM BKN027 OVC034 09/06 A2962 RMK AO2=
201211210453 METAR KBLI 210453Z 17009G17KT 10SM FEW022 BKN030 OVC038 09/06 A2961 RMK AO2 SLP036 T00940056=
201211210353 METAR KBLI 210353Z 17008KT 10SM SCT025 BKN036 OVC044 09/07 A2960 RMK AO2 PK WND 16027/0311 RAB05E48 SLP032 P0000 T00890067=
201211210350 SPECI KBLI 210350Z 18009KT 10SM SCT025 SCT032 OVC044 09/07 A2961 RMK AO2 PK WND 16027/0311 RAB05E48 P0000=
201211210338 SPECI KBLI 210338Z 17010G20KT 10SM -RA BKN023 OVC030 09/07 A2961 RMK AO2 PK WND 16027/0311 RAB05 P0000=
201211210253 METAR KBLI 210253Z 16020G31KT 10SM BKN033 BKN039 OVC050 11/04 A2957 RMK AO2 PK WND 16031/0251 SLP021 T01060044 58002=
201211210153 METAR KBLI 210153Z 16013G25KT 10SM FEW027 OVC033 11/05 A2958 RMK AO2 PK WND 16028/0056 SLP024 T01060050=
201211210150 SPECI KBLI 210150Z 15016G25KT 10SM SCT027 OVC033 11/05 A2958 RMK AO2 PK WND 16028/0056=
201211210105 SPECI KBLI 210105Z 15015G28KT 10SM BKN027 BKN034 OVC041 11/05 A2958 RMK AO2 PK WND 16028/0056 OCNL LTG ICCG DSNT N=
201211210057 SPECI KBLI 210057Z 15019G28KT 10SM SCT027 BKN034 BKN042 11/05 A2958 RMK AO2 PK WND 16028/0056 LTG CGIC N=
201211210053 METAR KBLI 210053Z 15020G27KT 10SM SCT027 SCT032 BKN040 11/05 A2958 RMK AO2 PK WND 14030/0039 SLP023 T01060050=
201211202353 METAR KBLI 202353Z 15021G31KT 10SM FEW065 11/06 A2955 RMK AO2 PK WND 15031/2347 SLP012 6//// T01110056 10122 20083 53022=
201211202253 METAR KBLI 202253Z 15020G31KT 10SM FEW080 12/06 A2949 RMK AO2 PK WND 14031/2251 RAB09E15 SLP994 P0000 T01170061=
201211202153 METAR KBLI 202153Z 13017G22KT 10SM SCT025 BKN045 OVC050 10/06 A2949 RMK AO2 PK WND 14029/2120 RAB34E44 SLP994 P0000 T01000061=
201211202053 METAR KBLI 202053Z 14013G19KT 10SM FEW036 BKN048 OVC060 12/06 A2948 RMK AO2 SLP990 6//// T01220056 55017=
201211201953 METAR KBLI 201953Z 02005KT 10SM BKN060 OVC075 09/06 A2948 RMK AO2 SLP989 T00890056=
201211201853 METAR KBLI 201853Z 03007KT 10SM FEW040 08/06 A2949 RMK AO2 SLP995 T00830056=
201211201753 METAR KBLI 201753Z 06004KT 10SM FEW040 09/06 A2953 RMK AO2 SLP007 6//// T00890061 10106 20056 $=
201211201653 METAR KBLI 201653Z 03007KT 10SM SCT041 BKN050 BKN060 08/06 A2956 RMK AO2 RAB19E41 SLP018 P0000 T00830061=
201211201553 METAR KBLI 201553Z 02004KT 10SM OVC035 07/06 A2959 RMK AO2 SLP027 T00720056=
201211201453 METAR KBLI 201453Z 02006KT 10SM SCT045 BKN055 06/05 A2961 RMK AO2 SLP036 T00610050 58013=
201211201353 METAR KBLI 201353Z AUTO 36004KT 10SM FEW027 BKN034 BKN060 07/06 A2964 RMK AO2 SLP045 T00720056=
201211201345 SPECI KBLI 201345Z AUTO 00000KT 10SM SCT027 BKN032 BKN060 07/06 A2964 RMK AO2=
201211201324 SPECI KBLI 201324Z AUTO 03008KT 10SM OVC027 08/06 A2963 RMK AO2=
201211201253 METAR KBLI 201253Z AUTO 03008KT 10SM SCT030 BKN037 OVC055 08/06 A2964 RMK AO2 SLP045 T00780061=
201211201153 METAR KBLI 201153Z AUTO VRB04KT 10SM BKN033 OVC040 11/06 A2965 RMK AO2 SLP047 60000 70069 T01060061 10111 20078 50000=
201211201053 METAR KBLI 201053Z AUTO VRB06KT 10SM SCT028 OVC034 11/06 A2966 RMK AO2 SLP052 T01060061 TSNO=
201211200953 METAR KBLI 200953Z AUTO 00000KT 10SM BKN027 OVC032 08/07 A2966 RMK AO2 SLP050 T00830067 TSNO=
201211200941 SPECI KBLI 200941Z AUTO 00000KT 10SM FEW021 BKN027 OVC032 09/07 A2965 RMK AO2 TSNO=
201211200933 SPECI KBLI 200933Z AUTO VRB03KT 10SM FEW021 SCT027 OVC032 08/07 A2965 RMK AO2 TSNO=
201211200906 SPECI KBLI 200906Z AUTO 00000KT 10SM BKN021 BKN039 08/07 A2965 RMK AO2 TSNO=
201211200853 METAR KBLI 200853Z AUTO 00000KT 10SM SCT021 BKN041 09/07 A2965 RMK AO2 RAB20E29 SLP048 P0000 60000 T00890067 50018 TSNO=
201211200815 SPECI KBLI 200815Z AUTO 11004KT 10SM BKN024 BKN031 OVC045 09/07 A2965 RMK AO2=
201211200753 METAR KBLI 200753Z AUTO 16003KT 10SM BKN037 OVC045 09/07 A2966 RMK AO2 RAE00 SLP050 P0000 T00890067 401170072=
201211200653 METAR KBLI 200653Z AUTO 14004KT 7SM -RA FEW037 BKN050 BKN075 09/06 A2963 RMK AO2 RAB44 SLP040 P0000 T00890061=
201211200553 METAR KBLI 200553Z 17003KT 10SM SCT060 SCT075 08/06 A2960 RMK AO2 SLP030 60001 T00830061 10106 20083 51046=
201211200453 METAR KBLI 200453Z 20008G18KT 150V240 10SM SCT070 BKN095 OVC110 11/05 A2956 RMK AO2 SLP017 T01060050=
201211200353 METAR KBLI 200353Z VRB03KT 10SM FEW016 BKN055 OVC070 09/07 A2952 RMK AO2 RAE19 SLP002 P0000 T00940072=
201211200253 METAR KBLI 200253Z VRB03KT 8SM -RA FEW032 SCT039 OVC048 10/08 A2946 RMK AO2 RAB23 SLP983 P0001 60001 T01000078 53028=
201211200153 METAR KBLI 200153Z 18007KT 10SM FEW038 OVC050 11/09 A2943 RMK AO2 SLP971 T01060089=
201211200053 METAR KBLI 200053Z 17007KT 10SM SCT015 BKN050 OVC060 11/09 A2940 RMK AO2 RAE10 SLP962 P0000 T01060089=
201211200048 SPECI KBLI 200048Z 16010KT 10SM FEW009 SCT017 OVC060 11/09 A2940 RMK AO2 RAE10 P0000=
201211200045 SPECI KBLI 200045Z 16009G14KT 10SM FEW011 BKN017 OVC055 11/09 A2940 RMK AO2 RAE10 P0000=
201211200000 SPECI KBLI 200000Z 24003KT 9SM -RA FEW006 BKN011 OVC019 10/09 A2938 RMK AO2 P0000=
201211192353 METAR KBLI 192353Z 00000KT 9SM -RA FEW004 SCT014 OVC019 11/09 A2938 RMK AO2 RAB45 SLP954 P0000 60055 T01060094 10117 20072 50014=
201211192351 SPECI KBLI 192351Z VRB03KT 10SM -RA FEW004 SCT014 OVC019 11/09 A2938 RMK AO2 RAB45 P0000=
201211192320 SPECI KBLI 192320Z 19009G20KT 8SM SCT013 OVC021 12/09 A2935 RMK AO2=
201211192253 METAR KBLI 192253Z VRB03KT 8SM FEW004 BKN013 OVC021 08/07 A2935 RMK AO2 RAE2156 SLP947 P0000 T00780067=
201211192234 SPECI KBLI 192234Z 34004KT 8SM FEW004 BKN013 OVC021 08/07 A2933 RMK AO2 RAE2156 P0000=
201211192200 SPECI KBLI 192200Z 02005KT 10SM FEW004 BKN009 OVC021 08/07 A2932 RMK AO2 RAE2156 P0000=
201211192153 METAR KBLI 192153Z 31005KT 10SM -RA BKN004 OVC009 08/07 A2934 RMK AO2 SLP942 P0012 T00780067=
201211192121 SPECI KBLI 192121Z 30007KT 3SM RA BR BKN004 OVC013 07/06 A2937 RMK AO2 PRESRR P0010=
201211192110 SPECI KBLI 192110Z VRB04KT 2 1/2SM RA BR BKN004 OVC013 07/07 A2934 RMK AO2 P0008=
201211192103 SPECI KBLI 192103Z 36006KT 1 3/4SM +RA BR BKN004 OVC013 07/06 A2935 RMK AO2 P0006=
201211192053 METAR KBLI 192053Z 01005KT 2 1/2SM +RA BR BKN004 OVC015 07/06 A2935 RMK AO2 SLP945 P0014 60043 T00720061 56033=
201211192051 SPECI KBLI 192051Z 34006KT 2 1/2SM +RA BR BKN004 OVC015 07/07 A2935 RMK AO2 P0013=
201211192027 SPECI KBLI 192027Z 04010KT 4SM -RA BR FEW004 OVC015 07/06 A2932 RMK AO2 PRESFR P0008=
201211191953 METAR KBLI 191953Z 36006KT 2 1/2SM RA BR FEW004 BKN015 OVC020 07/07 A2938 RMK AO2 SLP955 P0019 T00720067=
201211191904 SPECI KBLI 191904Z 03007KT 2 1/2SM RA BR BKN019 OVC024 07/06 A2940 RMK AO2 P0003=
201211191853 METAR KBLI 191853Z 03008KT 3SM RA BR OVC022 07/06 A2940 RMK AO2 SLP964 P0010 T00720061=
201211191826 SPECI KBLI 191826Z 01007KT 3SM RA BR OVC028 08/07 A2942 RMK AO2 P0007=
201211191753 METAR KBLI 191753Z 09007KT 5SM -RA BR FEW020 BKN045 OVC055 08/06 A2944 RMK AO2 SLP977 P0008 60013 T00830061 10117 20083 50000=
201211191700 SPECI KBLI 191700Z 12009KT 6SM -RA OVC049 09/07 A2945 RMK AO2 P0000=
201211191653 METAR KBLI 191653Z 12008G17KT 7SM -RA BKN023 OVC060 10/07 A2946 RMK AO2 SLP983 P0003 T01000067=
201211191553 METAR KBLI 191553Z 14015G19KT 9SM -RA BKN023 OVC060 11/07 A2947 RMK AO2 PK WND 14030/1505 SLP985 P0002 T01060072=
201211191453 METAR KBLI 191453Z 14016G27KT 10SM -RA OVC023 11/07 A2944 RMK AO2 PK WND 13027/1448 SLP977 P0000 60000 T01110072 58010=
201211191353 METAR KBLI 191353Z AUTO 15016G21KT 10SM -RA OVC027 12/07 A2947 RMK AO2 RAB01 SLP985 P0000 T01170067=
201211191253 METAR KBLI 191253Z AUTO 14016G25KT 10SM BKN025 BKN050 OVC095 11/07 A2948 RMK AO2 PK WND 14028/1239 SLP990 T01110067=
201211191153 METAR KBLI 191153Z AUTO 15016G23KT 10SM BKN075 BKN090 BKN110 11/06 A2947 RMK AO2 SLP987 60000 T01060061 10117 20100 58005=
201211191123 SPECI KBLI 191123Z AUTO 15016G21KT 10SM SCT026 BKN065 BKN100 11/06 A2949 RMK AO2=
201211191053 METAR KBLI 191053Z AUTO 15016G25KT 10SM BKN028 BKN080 OVC095 11/06 A2950 RMK AO2 PK WND 14034/0959 RAE38 SLP997 P0000 T01060061=
201211191050 SPECI KBLI 191050Z AUTO 15015G25KT 10SM BKN028 BKN055 OVC095 11/06 A2950 RMK AO2 PK WND 14034/0959 RAE38 P0000=
201211191001 SPECI KBLI 191001Z AUTO 15022G34KT 7SM -RA SCT028 OVC060 11/07 A2950 RMK AO2 PK WND 14034/0959 P0000=
201211190953 METAR KBLI 190953Z AUTO 14022G32KT 9SM -RA BKN028 OVC065 11/06 A2949 RMK AO2 PK WND 15034/0931 RAB35 SLP992 P0000 T01060061=
201211190853 METAR KBLI 190853Z AUTO 14015G29KT 10SM BKN028 OVC095 12/06 A2949 RMK AO2 PK WND 15041/0757 SLP993 T01170056 52002=
201211190753 METAR KBLI 190753Z AUTO 15026G36KT 10SM OVC028 12/06 A2949 RMK AO2 PK WND 16037/0736 SLP993 T01170056 401170078=
201211190739 SPECI KBLI 190739Z AUTO 15025G37KT 10SM OVC030 12/06 A2949 RMK AO2 PK WND 16037/0736=
201211190717 SPECI KBLI 190717Z AUTO 15021G34KT 10SM OVC028 12/06 A2949 RMK AO2 PK WND 15034/0711=
201211190653 METAR KBLI 190653Z AUTO 15019G32KT 10SM OVC032 12/05 A2949 RMK AO2 PK WND 17038/0558 SLP992 T01170050=
201211190553 METAR KBLI 190553Z 15022G35KT 10SM BKN033 BKN065 11/05 A2949 RMK AO2 PK WND 15036/0530 SLP991 60000 T01110050 10111 20094 51016=
201211190453 METAR KBLI 190453Z 14018G34KT 10SM FEW035 OVC070 11/04 A2948 RMK AO2 PK WND 14038/0430 SLP988 T01060044=
201211190353 METAR KBLI 190353Z 14018G31KT 10SM SCT035 OVC080 10/05 A2945 RMK AO2 PK WND 13031/0349 RAE17 SLP981 P0000 T01000050=
201211190253 METAR KBLI 190253Z 13019G30KT 9SM -RA SCT040 BKN048 OVC055 10/04 A2944 RMK AO2 PK WND 12036/0229 RAB45 SLP977 P0000 60000 T01000044 58044=
201211190153 METAR KBLI 190153Z 12011G25KT 10SM BKN042 OVC048 11/03 A2949 RMK AO2 PK WND 15033/0125 SLP993 T01060033=
201211190053 METAR KBLI 190053Z 13018G23KT 10SM BKN040 OVC110 11/03 A2954 RMK AO2 PK WND 13027/0022 SLP011 T01060028=
201211182353 METAR KBLI 182353Z 13016G24KT 10SM OVC100 11/03 A2957 RMK AO2 PK WND 16030/2325 SLP022 T01060028 10106 20089 58028=
201211182253 METAR KBLI 182253Z 12015G23KT 10SM BKN037 BKN100 11/03 A2960 RMK AO2 PK WND 14031/2156 SLP031 T01060033=
201211182153 METAR KBLI 182153Z 15019G29KT 10SM OVC090 10/03 A2963 RMK AO2 PK WND 14029/2153 SLP041 T01000033=
201211182053 METAR KBLI 182053Z 14015G26KT 10SM OVC031 10/03 A2966 RMK AO2 PK WND 16027/2013 SLP050 T01000033 58009=
201211182026 SPECI KBLI 182026Z 14020G26KT 10SM BKN031 OVC095 10/03 A2967 RMK AO2 PK WND 16027/2013=
201211181953 METAR KBLI 181953Z 14015G27KT 10SM BKN029 BKN035 10/04 A2967 RMK AO2 PK WND 14033/1927 SLP055 T01000039=
201211181853 METAR KBLI 181853Z 15016G28KT 10SM SCT030 BKN036 OVC080 09/03 A2968 RMK AO2 PK WND 15029/1803 SLP059 T00940033=
201211181849 SPECI KBLI 181849Z 15018G28KT 10SM SCT030 BKN036 OVC080 09/03 A2968 RMK AO2 PK WND 15029/1803=
201211181834 SPECI KBLI 181834Z 15017G28KT 10SM BKN028 BKN060 OVC075 09/03 A2968 RMK AO2 PK WND 15029/1803=
201211181753 METAR KBLI 181753Z 15018G28KT 10SM BKN030 OVC055 09/04 A2967 RMK AO2 PK WND 14029/1709 SLP055 60000 T00890039 10094 20083 56007=
201211181653 METAR KBLI 181653Z 14013G30KT 10SM OVC030 09/03 A2967 RMK AO2 PK WND 15032/1642 SLP055 T00890033=
201211181635 SPECI KBLI 181635Z 15016G27KT 10SM OVC030 09/03 A2967 RMK AO2 PK WND 15027/1633=
201211181553 METAR KBLI 181553Z 15015G24KT 10SM OVC026 09/03 A2968 RMK AO2 PK WND 15028/1513 SLP059 T00890033=
201211181453 METAR KBLI 181453Z 14013G21KT 10SM OVC026 08/03 A2969 RMK AO2 PK WND 13031/1426 SLP062 60000 T00830033 51007=
201211181353 METAR KBLI 181353Z AUTO 15016G25KT 10SM OVC024 08/04 A2968 RMK AO2 PK WND 14029/1334 RAB09E26 SLP060 P0000 T00830039=
201211181253 METAR KBLI 181253Z AUTO 17015G27KT 10SM OVC022 08/04 A2969 RMK AO2 PK WND 17029/1219 SLP061 T00830039=
201211181153 METAR KBLI 181153Z AUTO 15016G25KT 10SM OVC024 08/03 A2967 RMK AO2 PK WND 14029/1115 SLP055 70045 T00830033 10083 20078 51007=
201211181053 METAR KBLI 181053Z AUTO 15017G27KT 10SM OVC023 08/03 A2966 RMK AO2 PK WND 14029/1035 SLP052 T00830033=
201211180953 METAR KBLI 180953Z AUTO 15012G21KT 10SM BKN023 OVC029 08/03 A2966 RMK AO2 PK WND 15027/0906 SLP050 T00830033=
201211180929 SPECI KBLI 180929Z AUTO 15015G21KT 10SM BKN021 OVC029 08/04 A2965 RMK AO2 PK WND 15027/0906=
201211180853 METAR KBLI 180853Z AUTO 15016G22KT 10SM FEW026 BKN034 OVC060 08/04 A2965 RMK AO2 SLP047 T00830039 51013=
201211180834 SPECI KBLI 180834Z AUTO 15014G19KT 10SM FEW024 BKN030 OVC090 08/04 A2964 RMK AO2=
201211180824 SPECI KBLI 180824Z AUTO 15015G21KT 10SM FEW022 OVC029 08/04 A2964 RMK AO2=
201211180753 METAR KBLI 180753Z AUTO 15015G22KT 10SM SCT024 BKN030 BKN039 08/04 A2964 RMK AO2 PK WND 15026/0658 SLP044 T00830039 401610072=
201211180711 SPECI KBLI 180711Z AUTO 15014G22KT 10SM FEW023 BKN034 OVC040 08/04 A2962 RMK AO2 PK WND 15026/0658=
201211180704 SPECI KBLI 180704Z AUTO 15015G26KT 10SM BKN025 BKN035 OVC042 08/04 A2963 RMK AO2 PK WND 15026/0658=
201211180653 METAR KBLI 180653Z AUTO 16014G23KT 10SM SCT023 BKN030 OVC037 08/04 A2963 RMK AO2 PK WND 16027/0636 RAE0554 SLP039 T00830039=
201211180642 SPECI KBLI 180642Z AUTO 16015G27KT 10SM SCT025 BKN035 OVC070 08/04 A2962 RMK AO2 PK WND 16027/0636 RAE0554=
201211180553 METAR KBLI 180553Z 16015G23KT 10SM -RA OVC023 08/04 A2961 RMK AO2 PK WND 17028/0532 RAB24 SLP033 P0000 60013 T00830039 10089 20072 53010=
201211180453 METAR KBLI 180453Z 16012G21KT 10SM BKN023 08/04 A2960 RMK AO2 PK WND 15032/0425 SLP030 T00830039=
201211180353 METAR KBLI 180353Z 14014G27KT 10SM OVC021 08/04 A2959 RMK AO2 PK WND 13027/0344 RAE0258 SLP026 P0000 T00830044=
201211180253 METAR KBLI 180253Z 15012G16KT 10SM -RA OVC017 08/05 A2958 RMK AO2 SLP024 P0009 60013 T00780050 51013=
201211180225 SPECI KBLI 180225Z 15005KT 4SM RA BR SCT018 BKN024 OVC040 07/06 A2959 RMK AO2 P0005=
201211180153 METAR KBLI 180153Z 14015KT 5SM -RA BR FEW014 BKN042 OVC055 07/05 A2958 RMK AO2 SLP023 P0004 T00720050=
201211180100 SPECI KBLI 180100Z 12009KT 10SM -RA FEW029 SCT038 OVC050 08/06 A2957 RMK AO2 P0000=
201211180053 METAR KBLI 180053Z 12007KT 10SM -RA SCT021 BKN028 OVC040 08/06 A2956 RMK AO2 SLP017 P0000 T00780061=
201211172353 METAR KBLI 172353Z 00000KT 10SM -RA SCT021 BKN028 OVC040 07/06 A2954 RMK AO2 SLP009 P0003 60032 T00720061 10161 20072 53018=
201211172253 METAR KBLI 172253Z 11005KT 4SM RA BR SCT008 BKN016 OVC036 08/06 A2952 RMK AO2 SLP001 P0013 T00780061=
201211172238 SPECI KBLI 172238Z 12006KT 4SM RA BR SCT008 BKN016 OVC036 08/06 A2951 RMK AO2 P0010=
201211172226 SPECI KBLI 172226Z 14004KT 3SM RA BR BKN008 BKN016 OVC034 08/07 A2951 RMK AO2 P0007=
201211172217 SPECI KBLI 172217Z 00000KT 2 1/2SM RA BR BKN008 BKN016 OVC034 08/06 A2951 RMK AO2 P0005=
201211172202 SPECI KBLI 172202Z 20003KT 3SM -RA BR BKN008 BKN016 OVC034 08/06 A2951 RMK AO2 P0001=
201211172153 METAR KBLI 172153Z VRB03KT 3SM -RA BR SCT008 BKN016 OVC036 08/06 A2950 RMK AO2 SLP998 P0011 T00830061=
201211172145 SPECI KBLI 172145Z 00000KT 3SM -RA BR BKN008 BKN016 OVC036 08/07 A2950 RMK AO2 P0011=
201211172143 SPECI KBLI 172143Z 00000KT 3SM -RA BR SCT008 BKN015 OVC036 08/07 A2950 RMK AO2 P0011=
201211172053 METAR KBLI 172053Z 26005KT 3SM RA BR OVC034 09/07 A2948 RMK AO2 SLP991 P0005 60005 T00890072 53021=
201211171953 METAR KBLI 171953Z 19010G18KT 170V230 6SM -RA BKN047 OVC060 11/07 A2945 RMK AO2 PK WND 16029/1904 RAB39 PRESRR SLP978 P0000 T01110072=
201211171853 METAR KBLI 171853Z 15017G32KT 10SM BKN050 OVC075 16/06 A2941 RMK AO2 PK WND 15032/1847 SLP966 T01560056=
201211171753 METAR KBLI 171753Z 13017G25KT 10SM BKN050 OVC060 15/06 A2942 RMK AO2 PK WND 14028/1720 SLP969 60000 T01500056 10150 20094 58025=
201211171653 METAR KBLI 171653Z 12015G22KT 10SM OVC055 13/06 A2944 RMK AO2 SLP977 T01330056=
201211171553 METAR KBLI 171553Z 00000KT 10SM BKN060 OVC075 09/07 A2948 RMK AO2 RAB12E40 SLP991 P0000 T00940067=
201211171453 METAR KBLI 171453Z 17010KT 10SM OVC060 10/07 A2950 RMK AO2 RAB38E48 SLP996 P0000 60000 T01000067 56017=
201211171353 METAR KBLI 171353Z AUTO 12010G16KT 10SM BKN065 OVC100 13/06 A2950 RMK AO2 RAB08E23 SLP998 P0000 T01280061=
201211171253 METAR KBLI 171253Z AUTO 13010KT 10SM FEW050 BKN070 OVC120 12/07 A2953 RMK AO2 PK WND 12031/1203 RAB1155E49 SLP007 P0000 T01220067=
201211171153 METAR KBLI 171153Z AUTO 13015G25KT 10SM FEW060 BKN110 14/06 A2954 RMK AO2 PK WND 12028/1115 RAB00E10 SLP011 P0000 60000 T01390056 10139 20083 56023=
201211171053 METAR KBLI 171053Z AUTO 14018G25KT 10SM FEW070 SCT085 BKN110 14/06 A2957 RMK AO2 PK WND 14032/0959 SLP018 T01390056=
201211170953 METAR KBLI 170953Z AUTO 13022G29KT 10SM FEW090 OVC110 13/06 A2959 RMK AO2 PK WND 13032/0929 SLP026 T01330056=
201211170853 METAR KBLI 170853Z AUTO 14014G23KT 10SM OVC110 13/06 A2961 RMK AO2 PK WND 14027/0818 SLP035 60000 T01330061 58027=
201211170753 METAR KBLI 170753Z AUTO 13015G24KT 10SM SCT040 BKN060 OVC095 13/07 A2964 RMK AO2 SLP044 T01280067 401280028=
201211170653 METAR KBLI 170653Z AUTO 14013G19KT 10SM OVC036 12/07 A2967 RMK AO2 RAB06E49 SLP055 P0000 T01220067=
201211170553 METAR KBLI 170553Z 03005KT 10SM OVC041 08/06 A2969 RMK AO2 RAE08 SLP063 P0000 60000 T00830056 10117 20056 56018=
201211170453 METAR KBLI 170453Z 12007KT 10SM -RA OVC032 11/06 A2971 RMK AO2 RAB45 SLP067 P0000 T01060061=
201211170353 METAR KBLI 170353Z 01004KT 10SM SCT038 OVC046 08/05 A2972 RMK AO2 SLP073 T00830050=
201211170253 METAR KBLI 170253Z 00000KT 10SM FEW040 BKN060 OVC085 07/04 A2975 RMK AO2 SLP082 T00670039 58017=
201211170153 METAR KBLI 170153Z 00000KT 10SM FEW041 SCT090 06/03 A2977 RMK AO2 SLP090 T00610033=
201211170053 METAR KBLI 170053Z 00000KT 10SM SCT100 07/03 A2979 RMK AO2 SLP097 T00670033=
201211162353 METAR KBLI 162353Z 03005KT 10SM CLR 07/03 A2980 RMK AO2 SLP099 T00720033 10078 20050 58019=
201211162253 METAR KBLI 162253Z 02005KT 10SM OVC050 08/04 A2982 RMK AO2 SLP106 T00780039=
201211162153 METAR KBLI 162153Z 01003KT 10SM OVC043 07/04 A2984 RMK AO2 SLP114 T00720044=
201211162053 METAR KBLI 162053Z 34003KT 10SM FEW035 OVC041 07/04 A2986 RMK AO2 SLP119 T00720039 58012=
201211161953 METAR KBLI 161953Z 34003KT 10SM OVC046 07/04 A2988 RMK AO2 SLP126 T00720044=
201211161853 METAR KBLI 161853Z 31003KT 10SM FEW008 OVC048 06/04 A2990 RMK AO2 SLP134 T00610039=
201211161753 METAR KBLI 161753Z 00000KT 10SM FEW001 BKN048 06/04 A2989 RMK AO2 SLP131 T00560044 10056 20028 50002=
201211161717 SPECI KBLI 161717Z 00000KT 7SM FEW002 OVC046 04/04 A2989 RMK AO2=
201211161653 METAR KBLI 161653Z 00000KT 10SM OVC045 04/03 A2989 RMK AO2 SLP131 T00390033=
201211161557 SPECI KBLI 161557Z 00000KT 10SM R16/3000VP6000FT FEW002 OVC049 04/03 A2989 RMK AO2=
201211161553 METAR KBLI 161553Z 00000KT 1/2SM R16/3000V5000FT FG BKN002 OVC049 04/03 A2989 RMK AO2 SLP131 T00390033=
201211161545 SPECI KBLI 161545Z 19003KT 1/2SM R16/3000V5000FT FG BKN002 OVC049 03/03 A2989 RMK AO2=
201211161522 SPECI KBLI 161522Z 00000KT 3/4SM R16/3500V6000FT BR OVC002 03/03 A2989 RMK AO2=
201211161503 SPECI KBLI 161503Z 00000KT 1/4SM R16/2000V2600FT FG VV002 03/03 A2989 RMK AO2=
201211161453 METAR KBLI 161453Z 00000KT 1/4SM R16/1800V2000FT FG VV002 03/03 A2988 RMK AO2 SLP129 T00330028 58009=
201211161439 SPECI KBLI 161439Z 00000KT 1/4SM R16/2000V2200FT FG VV002 03/03 A2989 RMK AO2=
201211161405 SPECI KBLI 161405Z AUTO 00000KT 1/4SM R16/1800V2400FT FG VV002 04/03 A2989 RMK AO2=
201211161353 METAR KBLI 161353Z AUTO 00000KT 1/4SM R16/1600V2000FT FG VV002 04/03 A2989 RMK AO2 SLP132 T00390033=
201211161340 SPECI KBLI 161340Z AUTO 00000KT 1/4SM R16/1200V1400FT FG VV002 03/03 A2990 RMK AO2=
201211161253 METAR KBLI 161253Z AUTO 00000KT 1/4SM R16/1000V1200FT FG VV001 03/03 A2990 RMK AO2 SLP136 T00330028=
201211161234 SPECI KBLI 161234Z AUTO 00000KT 1/4SM R16/1200V1400FT FG VV001 03/03 A2991 RMK AO2=
201211161226 SPECI KBLI 161226Z AUTO 00000KT 1/4SM R16/1000V1400FT FG VV002 03/03 A2991 RMK AO2=
201211161217 SPECI KBLI 161217Z AUTO 00000KT 1/4SM R16/1000V1200FT FG VV001 03/03 A2991 RMK AO2=
201211161153 METAR KBLI 161153Z AUTO 00000KT 1/4SM R16/1400V2000FT FG VV002 03/02 A2991 RMK AO2 SLP138 7//// T00280022 10044 20028 55005=
201211161151 SPECI KBLI 161151Z AUTO 00000KT 1/4SM R16/1400V2000FT FG VV002 03/03 A2991 RMK AO2=
201211161141 SPECI KBLI 161141Z AUTO 00000KT 1/2SM R16/1600V2400FT FG VV002 03/02 A2991 RMK AO2=
201211161119 SPECI KBLI 161119Z AUTO 00000KT 1/4SM R16/1400V1600FT FG VV002 03/02 A2991 RMK AO2=
201211161053 METAR KBLI 161053Z AUTO 00000KT 1/4SM R16/0800V1000FT FG VV001 03/03 A2992 RMK AO2 SLP140 T00280028=
201211161038 SPECI KBLI 161038Z AUTO 00000KT 1/4SM R16/1200V2200FT FG VV002 03/03 A2992 RMK AO2=
201211161022 SPECI KBLI 161022Z AUTO 00000KT 1/2SM R16/2400V4000FT FG VV002 03/03 A2992 RMK AO2=
201211161004 SPECI KBLI 161004Z AUTO 00000KT 3/4SM R16/5000VP6000FT BR BKN001 OVC055 03/02 A2993 RMK AO2=
201211160953 METAR KBLI 160953Z AUTO 00000KT 1SM R16/5000VP6000FT BR SCT001 OVC055 03/02 A2993 RMK AO2 SLP143 T00280022=
201211160938 SPECI KBLI 160938Z AUTO 00000KT 3/4SM R16/3500VP6000FT BR FEW001 OVC055 03/02 A2993 RMK AO2=
201211160907 SPECI KBLI 160907Z AUTO 00000KT 1/2SM R16/2000V2400FT FG SCT001 OVC060 03/03 A2993 RMK AO2=
201211160853 METAR KBLI 160853Z AUTO 00000KT 1/4SM R16/2600V3000FT FG BKN001 OVC060 03/03 A2993 RMK AO2 SLP143 T00330028 58004=
201211160848 SPECI KBLI 160848Z AUTO 00000KT 1/4SM R16/2000V2800FT FG BKN001 OVC060 03/03 A2993 RMK AO2=
201211160753 METAR KBLI 160753Z AUTO 00000KT 1/4SM R16/1000FT FG VV001 04/04 A2994 RMK AO2 SLP148 T00440039 401110011=
201211160653 METAR KBLI 160653Z AUTO 00000KT 1/4SM R16/1000V1200FT FG VV001 03/03 A2994 RMK AO2 SLP148 T00330028=
201211160600 SPECI KBLI 160600Z 22003KT 1/4SM R16/1200V1800FT FG VV001 04/03 A2996 RMK AO2=
201211160553 METAR KBLI 160553Z 00000KT 1/4SM R16/1600VP6000FT FG VV002 03/02 A2996 RMK AO2 SLP155 T00330022 10083 20022 55001=
201211160550 SPECI KBLI 160550Z 00000KT 1/4SM R16/2600VP6000FT FG OVC003 03/02 A2996 RMK AO2=
201211160540 SPECI KBLI 160540Z 00000KT 3/4SM R16/P6000FT BR OVC003 03/03 A2996 RMK AO2=
201211160533 SPECI KBLI 160533Z 00000KT 10SM BKN006 03/02 A2995 RMK AO2=
201211160518 SPECI KBLI 160518Z 00000KT 10SM FEW006 03/03 A2996 RMK AO2=
201211160453 METAR KBLI 160453Z 00000KT 10SM CLR 03/02 A2996 RMK AO2 SLP155 T00280022=
201211160353 METAR KBLI 160353Z 00000KT 10SM CLR 03/02 A2996 RMK AO2 SLP155 T00280017=
201211160314 SPECI KBLI 160314Z 00000KT 10SM FEW065 04/03 A2996 RMK AO2=
201211160306 SPECI KBLI 160306Z 00000KT 1 3/4SM BR FEW065 03/02 A2997 RMK AO2=
201211160253 METAR KBLI 160253Z 00000KT 10SM SCT065 04/03 A2997 RMK AO2 SLP158 T00440033 56010=
201211160153 METAR KBLI 160153Z 00000KT 10SM BKN070 04/03 A2998 RMK AO2 SLP161 T00440033=
201211160053 METAR KBLI 160053Z 00000KT 10SM FEW060 06/04 A2999 RMK AO2 SLP165 T00560044=
201211152353 METAR KBLI 152353Z 28004KT 10SM CLR 08/04 A3000 RMK AO2 SLP167 6//// T00830044 10111 20039=
201211152253 METAR KBLI 152253Z 35005KT 10SM CLR 11/04 A3001 RMK AO2 SLP170 T01060044=
201211152153 METAR KBLI 152153Z AUTO 31006KT 10SM 11/04 A3003 RMK AO2 SLP176 T01060044 TSNO=
201211152053 METAR KBLI 152053Z AUTO 36005KT 10SM CLR 09/06 A3004 RMK AO2 SLP180 6//// T00940061 TSNO=
201211151953 METAR KBLI 151953Z 02004KT 10SM SCT002 06/05 A3007 RMK AO2 SLP192 VIS SE-SW 1F T00610050=
201211151945 SPECI KBLI 151945Z 02004KT 10SM SCT002 06/04 A3007 RMK AO2 VIS SE-SW 1F=
201211151916 SPECI KBLI 151916Z 02003KT 1/2SM R16/1600VP6000FT FG OVC002 05/04 A3010 RMK AO2=
201211151907 SPECI KBLI 151907Z 01003KT 1/4SM R16/1200V2200FT FG VV002 04/04 A3010 RMK AO2=
201211151853 METAR KBLI 151853Z VRB03KT 1/4SM R16/1200V2400FT FG VV002 04/04 A3011 RMK AO2 SLP207 T00440039=
201211151846 SPECI KBLI 151846Z 00000KT 1/16SM R16/1200V1600FT FG VV000 05/04 A3012 RMK AO2=
201211151836 SPECI KBLI 151836Z 00000KT 1/16SM R16/1400V2400FT FG VV000 04/04 A3013 RMK AO2=
201211151753 METAR KBLI 151753Z 00000KT 1/16SM R16/0800FT FG VV000 04/03 A3014 RMK AO2 SLP216 T00390033 10044 20028 58012=
201211151703 SPECI KBLI 151703Z 13003KT 1/16SM R16/0800V1000FT FG VV000 03/03 A3016 RMK AO2=
201211151653 METAR KBLI 151653Z 00000KT M1/4SM R16/0800V1400FT FG VV002 03/03 A3016 RMK AO2 SLP222 T00330028=
201211151634 SPECI KBLI 151634Z 13003KT 1/4SM R16/1200V2000FT FG VV002 03/02 A3016 RMK AO2=
201211151553 METAR KBLI 151553Z 00000KT 1/2SM R16/2600V3500FT FG OVC002 03/03 A3017 RMK AO2 SLP225 T00330033=
201211151453 METAR KBLI 151453Z AUTO 03003KT 1/2SM R16/2000V2600FT FG VV002 04/04 A3018 RMK AO2 SLP228 T00440039 56014=
201211151442 SPECI KBLI 151442Z AUTO 04003KT 1/2SM R16/2400V3000FT FG OVC002 04/04 A3018 RMK AO2 $=
201211151427 SPECI KBLI 151427Z AUTO 02006KT 3/4SM R16/3000V4500FT BR OVC002 04/04 A3018 RMK AO2 $=
201211151411 SPECI KBLI 151411Z AUTO 01005KT 1SM R16/2800VP6000FT BR OVC002 04/04 A3019 RMK AO2 $=
201211151353 METAR KBLI 151353Z AUTO 04003KT 1/2SM R16/2200V3000FT FG VV002 04/03 A3019 RMK AO2 SLP233 T00390033=
201211151351 SPECI KBLI 151351Z AUTO 04004KT 1/2SM R16/2200V3000FT FG VV002 04/03 A3019 RMK AO2=
201211151321 SPECI KBLI 151321Z AUTO 04003KT 1/4SM R16/1600V2000FT FG VV002 04/04 A3021 RMK AO2=
201211151253 METAR KBLI 151253Z AUTO 01003KT 1/4SM R16/1200V1400FT FG VV001 04/04 A3022 RMK AO2 SLP241 T00440039=
201211151153 METAR KBLI 151153Z AUTO 02003KT 1/4SM R16/1000V1200FT FG VV001 04/03 A3023 RMK AO2 SLP244 7//// T00390033 10039 20011 58018=
201211151108 SPECI KBLI 151108Z AUTO 01003KT 1/4SM R16/1200V1400FT FG VV001 03/03 A3025 RMK AO2=
201211151053 METAR KBLI 151053Z AUTO 02004KT 1/4SM R16/1400V1800FT FG VV002 03/02 A3025 RMK AO2 SLP252 T00330022=
201211150953 METAR KBLI 150953Z AUTO 00000KT 1/4SM R16/0800FT FG VV001 02/02 A3027 RMK AO2 SLP257 T00220017=
201211150930 SPECI KBLI 150930Z AUTO 35003KT 1/4SM R16/0800V1000FT FG VV001 02/01 A3027 RMK AO2=
201211150908 SPECI KBLI 150908Z AUTO 00000KT 1/2SM R16/2200V2800FT FG VV001 02/01 A3027 RMK AO2=
201211150853 METAR KBLI 150853Z AUTO 34004KT 1/4SM R16/1600V1800FT FG VV001 02/01 A3028 RMK AO2 SLP263 T00170011 58012=
201211150753 METAR KBLI 150753Z AUTO 33003KT 1/4SM R16/1200V1600FT FG VV001 01/01 A3030 RMK AO2 SLP271 T00110006 401000011=
201211150742 SPECI KBLI 150742Z AUTO 35003KT 1/4SM R16/1000V3000FT FG VV001 01/01 A3030 RMK AO2=
201211150732 SPECI KBLI 150732Z AUTO 00000KT 1/4SM R16/0500V2000FT FG VV001 02/01 A3030 RMK AO2=
201211150722 SPECI KBLI 150722Z AUTO 00000KT 3/4SM R16/1200V2800FT BR VV001 02/01 A3030 RMK AO2 VIS 1/2V2=
201211150715 SPECI KBLI 150715Z AUTO 00000KT 1SM R16/1800VP6000FT BR VV002 02/02 A3031 RMK AO2=
201211150706 SPECI KBLI 150706Z AUTO 00000KT 1/4SM R16/1800VP6000FT FG VV002 01/01 A3031 RMK AO2=
201211150653 METAR KBLI 150653Z AUTO 00000KT 1/4SM R16/1200V2000FT FG VV002 02/02 A3031 RMK AO2 SLP273 T00220017=
201211150600 SPECI KBLI 150600Z 00000KT 1/2SM R16/P6000FT FG VV002 03/03 A3032 RMK AO2=
201211150553 METAR KBLI 150553Z 00000KT 4SM R16/3500VP6000FT BR SCT002 03/02 A3032 RMK AO2 SLP275 T00280022 10094 20028 58003=
201211150453 METAR KBLI 150453Z 00000KT 4SM R16/2200V4000FT BR SCT003 04/03 A3032 RMK AO2 SLP276 VCFG T00390028=
201211150445 SPECI KBLI 150445Z 00000KT 4SM R16/2200VP6000FT BR SCT003 04/03 A3032 RMK AO2=
201211150412 SPECI KBLI 150412Z 00000KT 1/4SM R16/1600VP6000FT FG VV004 03/03 A3032 RMK AO2 VCFG=
201211150408 SPECI KBLI 150408Z 00000KT 3SM R16/1800VP6000FT BR BKN004 03/03 A3032 RMK AO2 VCFG=
201211150353 METAR KBLI 150353Z 00000KT 6SM R16/1400VP6000FT BR SCT002 04/03 A3032 RMK AO2 SLP277 T00390033=
201211150345 SPECI KBLI 150345Z 00000KT 6SM R16/1400V2200FT BR SCT002 03/03 A3032 RMK AO2=
201211150253 METAR KBLI 150253Z 00000KT 6SM R16/2000VP6000FT BR SCT002 05/04 A3032 RMK AO2 SLP276 VCFG T00500039 50002=
201211150234 SPECI KBLI 150234Z 00000KT 6SM R16/1600V3000FT BR SCT002 06/04 A3032 RMK AO2 VCFG=
201211150153 METAR KBLI 150153Z 00000KT 5SM BR FEW055 07/06 A3032 RMK AO2 SLP277 T00670056=
201211150053 METAR KBLI 150053Z 00000KT 10SM FEW038 OVC049 08/07 A3032 RMK AO2 SLP275 T00830072=
201211142353 METAR KBLI 142353Z 17004KT 10SM BKN047 09/07 A3032 RMK AO2 SLP274 6//// T00890067 10100 20083 53003=
201211142321 SPECI KBLI 142321Z 16004KT 10SM FEW013 OVC043 09/07 A3031 RMK AO2=
201211142253 METAR KBLI 142253Z 16004KT 10SM FEW011 OVC025 09/07 A3031 RMK AO2 SLP272 T00940072=
201211142153 METAR KBLI 142153Z 00000KT 10SM OVC019 09/07 A3031 RMK AO2 SLP273 T00940067=
201211142137 SPECI KBLI 142137Z 00000KT 10SM SCT012 OVC019 10/07 A3031 RMK AO2=
201211142129 SPECI KBLI 142129Z 27004KT 10SM BKN012 OVC019 10/07 A3031 RMK AO2=
201211142102 SPECI KBLI 142102Z 00000KT 10SM FEW008 OVC017 10/08 A3031 RMK AO2=
201211142053 METAR KBLI 142053Z 17003KT 10SM BKN008 OVC015 09/07 A3031 RMK AO2 SLP271 6//// T00940072 50006=
201211142024 SPECI KBLI 142024Z 17005KT 10SM BKN006 BKN012 OVC017 09/08 A3031 RMK AO2=
201211142008 SPECI KBLI 142008Z 17004KT 10SM SCT006 BKN012 BKN050 09/08 A3031 RMK AO2=
201211142000 SPECI KBLI 142000Z 17003KT 10SM BKN006 BKN012 OVC050 10/08 A3031 RMK AO2 CIG 005V010=
201211141953 METAR KBLI 141953Z 15004KT 10SM SCT005 BKN021 BKN050 09/08 A3031 RMK AO2 SLP271 T00940078=
201211141939 SPECI KBLI 141939Z 00000KT 10SM SCT005 BKN021 OVC050 10/08 A3031 RMK AO2=
201211141926 SPECI KBLI 141926Z 17003KT 10SM BKN005 BKN021 BKN050 09/08 A3031 RMK AO2 CIG 004V009=
201211141900 SPECI KBLI 141900Z 00000KT 09/08 A3030 RMK AO2 $=
201211141853 METAR KBLI 141853Z BKN005 OVC015 09/07 A3030 RMK AO2 SLP269 T00890072 $=
201211141753 METAR KBLI 141753Z 00000KT 6SM BR OVC007 08/07 A3029 RMK AO2 SLP265 T00830072 10083 20067 51018=
201211141653 METAR KBLI 141653Z 00000KT 5SM BR OVC005 08/07 A3028 RMK AO2 SLP260 T00780072=
201211141621 SPECI KBLI 141621Z 00000KT 4SM BR BKN003 OVC031 08/07 A3027 RMK AO2=
201211141553 METAR KBLI 141553Z 00000KT 5SM BR FEW001 BKN005 OVC020 08/07 A3026 RMK AO2 SLP255 T00780072=
201211141540 SPECI KBLI 141540Z 00000KT 6SM BR FEW001 BKN005 OVC020 08/07 A3026 RMK AO2=
201211141453 METAR KBLI 141453Z 00000KT 10SM SCT004 OVC027 08/07 A3024 RMK AO2 SLP247 T00780067 52003=
201211141353 METAR KBLI 141353Z AUTO 00000KT 4SM BR BKN004 OVC026 07/07 A3023 RMK AO2 SLP244 T00720067=
201211141343 SPECI KBLI 141343Z AUTO 00000KT 5SM BR SCT004 OVC026 07/07 A3023 RMK AO2=
201211141253 METAR KBLI 141253Z AUTO 00000KT 8SM FEW010 OVC024 07/07 A3022 RMK AO2 SLP241 T00720067=
201211141209 SPECI KBLI 141209Z AUTO 00000KT 3SM BR BKN020 BKN028 OVC060 07/07 A3020 RMK AO2=
201211141200 SPECI KBLI 141200Z AUTO 00000KT 1 1/4SM BR FEW010 BKN020 BKN028 07/06 A3019 RMK AO2=
201211141153 METAR KBLI 141153Z AUTO 00000KT 2SM BR FEW008 SCT020 BKN028 07/06 A3019 RMK AO2 SLP232 60000 70007 T00720061 10083 20067 51002=
201211141148 SPECI KBLI 141148Z AUTO 00000KT 2 1/2SM BR SCT008 BKN028 BKN060 07/06 A3019 RMK AO2=
201211141101 SPECI KBLI 141101Z AUTO 00000KT 4SM BR OVC008 08/07 A3020 RMK AO2=
201211141053 METAR KBLI 141053Z AUTO 00000KT 4SM BR OVC010 08/07 A3020 RMK AO2 SLP234 T00780072=
201211140953 METAR KBLI 140953Z AUTO 00000KT 3SM BR OVC010 08/07 A3019 RMK AO2 SLP230 T00780072=
201211140853 METAR KBLI 140853Z AUTO 00000KT 3SM BR OVC010 08/07 A3017 RMK AO2 SLP226 60000 T00780067 51008=
201211140830 SPECI KBLI 140830Z AUTO 00000KT 4SM BR FEW003 OVC010 08/07 A3017 RMK AO2 CIG 008V011=
201211140811 SPECI KBLI 140811Z AUTO 00000KT 4SM BR SCT003 OVC008 08/07 A3018 RMK AO2=
201211140753 METAR KBLI 140753Z AUTO 00000KT 4SM BR SCT003 OVC010 08/07 A3017 RMK AO2 RAE48 CIG 008V012 SLP225 P0000 T00780072 401110061=
201211140653 METAR KBLI 140653Z AUTO 00000KT 4SM -RA BR FEW002 OVC014 08/07 A3016 RMK AO2 SLP221 P0000 T00780072=
201211140635 SPECI KBLI 140635Z AUTO 00000KT 4SM -RA BR FEW002 BKN014 OVC047 08/07 A3016 RMK AO2 P0000=
201211140553 METAR KBLI 140553Z 00000KT 7SM -RA OVC012 08/07 A3015 RMK AO2 RAB04 SLP217 P0000 60001 T00780072 10089 20078 51008=
201211140501 SPECI KBLI 140501Z 00000KT 5SM BR SCT002 OVC014 08/07 A3015 RMK AO2=
201211140453 METAR KBLI 140453Z 00000KT 5SM BR BKN002 OVC014 08/07 A3015 RMK AO2 RAE47 SLP216 P0001 T00780072=
201211140433 SPECI KBLI 140433Z 00000KT 4SM -RA BR BKN002 BKN016 OVC027 08/07 A3014 RMK AO2 P0001=
201211140421 SPECI KBLI 140421Z 00000KT 2 1/2SM -RA BR SCT002 BKN016 OVC035 08/07 A3014 RMK AO2 P0001=
201211140400 SPECI KBLI 140400Z 36003KT 3SM -RA BR SCT002 BKN017 OVC040 08/07 A3013 RMK AO2 P0000=
201211140353 METAR KBLI 140353Z 00000KT 3SM -RA BR BKN002 BKN017 OVC024 08/07 A3013 RMK AO2 RAE21B51 SLP211 P0000 T00780072=
201211140312 SPECI KBLI 140312Z 00000KT 3SM -RA BR BKN002 BKN017 OVC024 08/07 A3013 RMK AO2 P0000=
201211140253 METAR KBLI 140253Z 00000KT 4SM -RA BR SCT002 BKN017 OVC024 08/07 A3012 RMK AO2 SLP209 P0000 60000 T00780072 56005=
201211140237 SPECI KBLI 140237Z 00000KT 5SM -RA BR SCT002 BKN017 OVC024 08/07 A3013 RMK AO2 P0000=
201211140217 SPECI KBLI 140217Z 00000KT 5SM -RA BR FEW012 BKN018 OVC045 08/07 A3013 RMK AO2 P0000=
201211140153 METAR KBLI 140153Z 00000KT 5SM -RA BR SCT012 BKN030 OVC047 08/07 A3013 RMK AO2 SLP211 P0000 T00830072=
201211140143 SPECI KBLI 140143Z 00000KT 6SM -RA BR SCT010 BKN022 OVC047 08/07 A3013 RMK AO2 P0000=
201211140053 METAR KBLI 140053Z 00000KT 10SM -RA SCT003 BKN010 OVC016 08/08 A3013 RMK AO2 RAE30B46 SLP211 P0000 T00830078=
201211140026 SPECI KBLI 140026Z 00000KT 10SM -RA SCT003 BKN010 OVC016 09/08 A3014 RMK AO2 P0000=
201211132353 METAR KBLI 132353Z 00000KT 7SM -RA BKN003 OVC016 09/08 A3014 RMK AO2 RAB46 SLP214 P0000 60000 T00890078 10111 20078 56004=
201211132348 SPECI KBLI 132348Z 35003KT 7SM -RA BKN003 OVC016 09/08 A3014 RMK AO2 RAB46 P0000=
201211132318 SPECI KBLI 132318Z 00000KT 7SM SCT003 OVC016 09/08 A3014 RMK AO2=
201211132253 METAR KBLI 132253Z 00000KT 7SM OVC016 09/09 A3014 RMK AO2 RAB02E43 SLP213 P0000 T00940089=
201211132153 METAR KBLI 132153Z 00000KT 10SM OVC016 09/08 A3015 RMK AO2 SLP217 T00940083=
201211132053 METAR KBLI 132053Z 00000KT 10SM OVC016 11/08 A3015 RMK AO2 RAE09 SLP217 P0000 60000 T01110083 58013=
201211132019 SPECI KBLI 132019Z 00000KT 10SM OVC016 10/08 A3016 RMK AO2 RAE09 P0000=
201211131953 METAR KBLI 131953Z 00000KT 10SM -RA OVC014 09/08 A3017 RMK AO2 SLP223 P0000 T00940083=
201211131853 METAR KBLI 131853Z 31004KT 6SM -RA BR OVC014 08/07 A3019 RMK AO2 RAB1756E32B50 SLP230 P0000 T00780072=
201211131753 METAR KBLI 131753Z 00000KT 7SM OVC014 08/07 A3019 RMK AO2 SLP232 60006 T00780067 10094 20061 53005=
201211131653 METAR KBLI 131653Z 00000KT 7SM OVC014 07/07 A3018 RMK AO2 RAB1557E25 SLP228 P0006 T00720067=
201211131644 SPECI KBLI 131644Z 00000KT 7SM OVC014 07/06 A3018 RMK AO2 RAB1557E25 P0006=
201211131617 SPECI KBLI 131617Z 00000KT 3SM -RA BR OVC016 07/06 A3018 RMK AO2 RAB1557 P0006=
201211131605 SPECI KBLI 131605Z 00000KT 1 3/4SM R16/4000VP6000FT RA BR BKN016 OVC021 07/06 A3018 RMK AO2 RAB1557 P0003=
201211131553 METAR KBLI 131553Z 00000KT 6SM BR FEW001 BKN020 OVC050 07/06 A3018 RMK AO2 SLP229 T00670061=
201211131544 SPECI KBLI 131544Z 00000KT 5SM BR FEW001 BKN020 OVC050 07/06 A3018 RMK AO2=
201211131528 SPECI KBLI 131528Z 00000KT 7SM SCT001 SCT018 OVC050 06/06 A3018 RMK AO2=
201211131513 SPECI KBLI 131513Z 34003KT 5SM BR BKN001 OVC018 07/06 A3018 RMK AO2=
201211131457 SPECI KBLI 131457Z AUTO 01004KT 2 1/2SM BR BKN001 OVC049 07/06 A3017 RMK AO2=
201211131453 METAR KBLI 131453Z AUTO 03003KT 4SM BR SCT001 SCT036 OVC049 07/07 A3017 RMK AO2 SLP226 60000 T00720067 56001=
201211131353 METAR KBLI 131353Z AUTO 00000KT 5SM BR BKN049 BKN060 08/07 A3017 RMK AO2 SLP226 T00780072=
201211131253 METAR KBLI 131253Z AUTO 00000KT 10SM OVC043 09/08 A3017 RMK AO2 RAE14B30E45 SLP224 P0000 T00890078=
201211131236 SPECI KBLI 131236Z AUTO 15003KT 10SM -RA SCT010 OVC041 09/08 A3017 RMK AO2 RAE14B30 P0000=
201211131153 METAR KBLI 131153Z AUTO 17005KT 10SM -RA OVC010 09/08 A3018 RMK AO2 SLP227 P0000 60000 70006 T00940083 10100 20061 58000=
201211131122 SPECI KBLI 131122Z AUTO 17006KT 10SM -RA BKN012 BKN023 OVC050 10/08 A3018 RMK AO2 P0000=
201211131107 SPECI KBLI 131107Z AUTO 16007KT 8SM -RA SCT012 BKN037 OVC048 10/08 A3018 RMK AO2 P0000=
201211131053 METAR KBLI 131053Z AUTO 16008KT 10SM -RA SCT014 BKN019 OVC038 10/08 A3018 RMK AO2 RAB36 SLP228 P0000 T01000078=
201211131045 SPECI KBLI 131045Z AUTO 16008G15KT 10SM -RA SCT014 BKN038 OVC046 10/08 A3018 RMK AO2 RAB36 P0000=
201211131032 SPECI KBLI 131032Z AUTO 17007KT 10SM BKN014 BKN019 OVC041 10/08 A3018 RMK AO2=
201211131023 SPECI KBLI 131023Z AUTO 15006KT 10SM BKN016 OVC041 10/08 A3019 RMK AO2=
201211130953 METAR KBLI 130953Z AUTO 16007KT 10SM BKN014 BKN043 OVC100 10/08 A3018 RMK AO2 SLP227 T01000078=
201211130949 SPECI KBLI 130949Z AUTO 17006KT 10SM BKN014 BKN110 10/08 A3018 RMK AO2=
201211130853 METAR KBLI 130853Z AUTO 15005KT 10SM SCT055 BKN120 09/07 A3018 RMK AO2 RAB02E38 SLP228 P0000 60000 T00940072 50003=
201211130803 SPECI KBLI 130803Z AUTO 17005KT 10SM -RA SCT014 SCT034 OVC065 09/07 A3018 RMK AO2 RAB02 P0000=
201211130753 METAR KBLI 130753Z AUTO 15004KT 10SM BKN016 BKN036 OVC065 08/07 A3019 RMK AO2 RAE33 SLP230 P0000 T00830072 400940039=
201211130714 SPECI KBLI 130714Z AUTO 00000KT 7SM -RA BKN016 BKN042 OVC060 07/06 A3018 RMK AO2 P0000=
201211130653 METAR KBLI 130653Z AUTO 00000KT 5SM -RA BR FEW018 BKN039 OVC048 06/06 A3018 RMK AO2 RAB22 SLP229 P0000 T00610056=
201211130646 SPECI KBLI 130646Z AUTO 00000KT 6SM -RA BR SCT018 BKN030 OVC046 06/05 A3018 RMK AO2 RAB22 P0000=
201211130600 SPECI KBLI 130600Z 00000KT 8SM BKN020 OVC032 06/05 A3017 RMK AO2=
201211130553 METAR KBLI 130553Z 00000KT 8SM SCT020 OVC065 06/05 A3017 RMK AO2 SLP224 60000 T00610050 10094 20056 53003=
201211130537 SPECI KBLI 130537Z 00000KT 8SM SCT020 OVC065 06/05 A3017 RMK AO2=
201211130500 SPECI KBLI 130500Z 33003KT 7SM BKN020 OVC065 06/05 A3016 RMK AO2=
201211130453 METAR KBLI 130453Z 00000KT 6SM BR SCT020 BKN065 OVC100 06/04 A3016 RMK AO2 SLP223 T00560044=
201211130353 METAR KBLI 130353Z 00000KT 8SM FEW047 OVC065 06/04 A3016 RMK AO2 SLP223 T00560044=
201211130253 METAR KBLI 130253Z 00000KT 9SM FEW019 SCT045 OVC055 06/05 A3016 RMK AO2 SLP222 60000 T00560050 53005=
201211130153 METAR KBLI 130153Z 01005KT 9SM BKN048 07/05 A3015 RMK AO2 SLP220 T00670050=
201211130053 METAR KBLI 130053Z VRB05KT 10SM FEW015 BKN060 09/07 A3015 RMK AO2 RAB03E13 SLP217 P0000 T00940067=
201211122353 METAR KBLI 122353Z 16006KT 10SM FEW013 BKN060 OVC070 09/07 A3014 RMK AO2 SLP216 T00940072 10094 20056 53002=
201211122300 SPECI KBLI 122300Z 17005KT 10SM BKN060 BKN075 OVC090 09/08 A3014 RMK AO2=
201211122253 METAR KBLI 122253Z 17006KT 10SM BKN013 BKN040 OVC090 09/07 A3014 RMK AO2 SLP213 T00940072=
201211122153 METAR KBLI 122153Z 16008KT 10SM OVC013 09/07 A3014 RMK AO2 SLP214 T00940072=
201211122144 SPECI KBLI 122144Z 16009KT 10SM OVC013 09/07 A3014 RMK AO2=
201211122053 METAR KBLI 122053Z 17005KT 10SM BKN017 OVC023 09/07 A3014 RMK AO2 SLP214 T00890072 53001=
201211121953 METAR KBLI 121953Z 17005KT 10SM SCT013 BKN020 OVC033 09/07 A3013 RMK AO2 SLP212 T00890072=
201211121853 METAR KBLI 121853Z 03003KT 10SM OVC011 06/06 A3013 RMK AO2 SLP214 T00610056=
201211121753 METAR KBLI 121753Z 35003KT 10SM OVC011 06/04 A3012 RMK AO2 SLP210 60006 T00560044 10056 20044 52012=
201211121653 METAR KBLI 121653Z 34003KT 10SM OVC011 05/04 A3011 RMK AO2 SLP206 T00500044=
201211121553 METAR KBLI 121553Z 36003KT 10SM OVC013 04/04 A3010 RMK AO2 RAB00E49 SLP202 P0000 T00440039=
201211121453 METAR KBLI 121453Z 34003KT 9SM SCT003 OVC013 04/04 A3009 RMK AO2 RAE39 SLP198 P0001 60006 T00440039 51006=
201211121451 SPECI KBLI 121451Z 34003KT 8SM SCT003 OVC013 04/04 A3009 RMK AO2 RAE39 P0001=
201211121428 SPECI KBLI 121428Z AUTO 35004KT 4SM -RA BR OVC013 04/04 A3009 RMK AO2 P0001=
201211121414 SPECI KBLI 121414Z AUTO 35005KT 3SM -RA BR FEW003 OVC015 04/04 A3008 RMK AO2 P0001=
201211121406 SPECI KBLI 121406Z AUTO 34004KT 3SM -RA BR SCT003 BKN011 OVC017 04/04 A3008 RMK AO2 P0001=
201211121353 METAR KBLI 121353Z AUTO 33003KT 5SM -RA BR BKN003 OVC017 04/04 A3008 RMK AO2 SLP195 P0003 T00440039=
201211121338 SPECI KBLI 121338Z AUTO 00000KT 4SM -RA BR BKN003 OVC019 04/03 A3008 RMK AO2 P0003=
201211121323 SPECI KBLI 121323Z AUTO 33005KT 5SM -RA BR SCT003 OVC019 04/04 A3008 RMK AO2 P0002=
201211121253 METAR KBLI 121253Z AUTO 35004KT 5SM -RA BR OVC019 05/04 A3007 RMK AO2 SLP192 P0002 T00500039=
201211121153 METAR KBLI 121153Z AUTO 35003KT 3SM -RA BR OVC019 05/04 A3007 RMK AO2 RAE08B27 SLP190 P0001 60012 70055 T00500039 10050 20033 53004=
201211121116 SPECI KBLI 121116Z AUTO 36005KT 10SM FEW003 OVC021 04/03 A3007 RMK AO2 RAE08 P0000=
201211121053 METAR KBLI 121053Z AUTO 01006KT 6SM -RA BR OVC021 04/03 A3006 RMK AO2 SLP189 P0002 T00440033=
201211120953 METAR KBLI 120953Z AUTO 01004KT 10SM -RA OVC025 04/03 A3006 RMK AO2 SLP187 P0001 T00390033=
201211120853 METAR KBLI 120853Z AUTO 02008KT 9SM -RA OVC025 04/03 A3006 RMK AO2 SLP187 P0004 60008 T00390028 58005=
201211120753 METAR KBLI 120753Z AUTO 01006KT 7SM -RA OVC025 04/03 A3006 RMK AO2 SLP189 P0002 T00390033 400441028=
201211120700 SPECI KBLI 120700Z AUTO 02009KT 9SM -RA OVC025 04/03 A3007 RMK AO2 P0000=
201211120653 METAR KBLI 120653Z AUTO 03008KT 7SM -RA OVC030 04/03 A3007 RMK AO2 SLP191 P0002 T00390028=
201211120553 METAR KBLI 120553Z 02005KT 6SM -RA BR OVC030 03/02 A3007 RMK AO2 SLP192 P0004 60039 T00330022 10044 20033 55006=
201211120453 METAR KBLI 120453Z 02007KT 6SM -RA BR OVC032 04/03 A3007 RMK AO2 SLP191 P0008 T00390028=
201211120353 METAR KBLI 120353Z 03007KT 5SM RA BR OVC032 04/03 A3007 RMK AO2 SLP190 P0014 T00390028=
201211120253 METAR KBLI 120253Z 35003KT 6SM -RA BR OVC032 03/02 A3009 RMK AO2 SLP198 P0011 60013 T00330022 56017=
201211120153 METAR KBLI 120153Z 02004KT 8SM -RA OVC032 04/02 A3010 RMK AO2 SLP203 P0002 T00440022=
201211120053 METAR KBLI 120053Z 02004KT 10SM -RA OVC034 04/02 A3012 RMK AO2 RAB16 SLP208 P0000 T00440022=
201211112353 METAR KBLI 112353Z 08003KT 10SM OVC034 04/01 A3014 RMK AO2 RAE00 SLP215 P0000 60004 T00390011 10044 20028 56012=
201211112253 METAR KBLI 112253Z 03008KT 9SM -RA OVC030 03/01 A3015 RMK AO2 SLP221 P0000 T00330011=
201211112250 SPECI KBLI 112250Z 02006KT 8SM -RA OVC030 03/01 A3015 RMK AO2 P0000=
201211112153 METAR KBLI 112153Z 02005KT 9SM -RA OVC026 03/01 A3017 RMK AO2 SLP228 P0003 T00330011=
201211112053 METAR KBLI 112053Z 01004KT 7SM -RA BKN026 OVC033 03/M01 A3020 RMK AO2 SLP238 P0001 60001 T00331006 58007=
201211112040 SPECI KBLI 112040Z 01007KT 8SM -RA BKN026 OVC033 04/M01 A3021 RMK AO2 P0000=
201211111953 METAR KBLI 111953Z 02009KT 10SM -RA OVC036 04/M03 A3021 RMK AO2 RAB52 SLP240 P0000 T00441028=
201211111853 METAR KBLI 111853Z 03008KT 10SM OVC038 04/M03 A3022 RMK AO2 SLP245 T00391033=
201211111753 METAR KBLI 111753Z 01005KT 10SM FEW036 BKN065 OVC090 03/M03 A3022 RMK AO2 SLP245 T00281028 10028 21017 53001=
201211111653 METAR KBLI 111653Z 03006KT 10SM OVC034 02/M03 A3021 RMK AO2 SLP241 T00171033=
201211111553 METAR KBLI 111553Z 01006KT 10SM OVC034 01/M04 A3022 RMK AO2 SLP243 T00061039=
201211111453 METAR KBLI 111453Z 01005KT 10SM CLR 00/M04 A3022 RMK AO2 SLP244 T00001039 56000=
201211111353 METAR KBLI 111353Z AUTO 01003KT 10SM FEW120 M01/M04 A3022 RMK AO2 SLP244 T10061039=
201211111253 METAR KBLI 111253Z AUTO 01003KT 10SM CLR M01/M04 A3021 RMK AO2 SLP242 T10111039=
201211111153 METAR KBLI 111153Z AUTO 00000KT 10SM CLR M02/M04 A3022 RMK AO2 SLP243 T10171039 11006 21028 58003=
201211111053 METAR KBLI 111053Z AUTO 00000KT 10SM CLR M02/M04 A3023 RMK AO2 SLP246 T10221044=
201211110953 METAR KBLI 110953Z AUTO 00000KT 10SM CLR M02/M04 A3023 RMK AO2 SLP247 T10171039=
201211110853 METAR KBLI 110853Z AUTO 00000KT 10SM CLR M02/M04 A3023 RMK AO2 SLP246 T10171044 53008=
201211110753 METAR KBLI 110753Z AUTO 00000KT 10SM CLR M02/M04 A3022 RMK AO2 SLP241 T10221044 400611028=
201211110653 METAR KBLI 110653Z AUTO 00000KT 10SM CLR M02/M04 A3021 RMK AO2 SLP242 T10221044=
201211110553 METAR KBLI 110553Z 00000KT 10SM CLR M02/M05 A3021 RMK AO2 SLP239 T10171050 10044 21022 53009=
201211110453 METAR KBLI 110453Z 00000KT 10SM CLR M02/M05 A3019 RMK AO2 SLP234 T10221050=
201211110353 METAR KBLI 110353Z 00000KT 10SM CLR M02/M06 A3018 RMK AO2 SLP231 T10171061=
201211110253 METAR KBLI 110253Z 00000KT 10SM CLR M01/M06 A3018 RMK AO2 SLP230 T10111056 52011=
201211110153 METAR KBLI 110153Z 00000KT 10SM CLR 01/M06 A3017 RMK AO2 SLP227 T00061061=
201211110053 METAR KBLI 110053Z 32004KT 10SM CLR 02/M07 A3016 RMK AO2 SLP221 T00221067=
201211102353 METAR KBLI 102353Z 36005KT 10SM CLR 04/M08 A3015 RMK AO2 SLP218 T00441078 10061 20039 52004=
201211102253 METAR KBLI 102253Z 02009KT 10SM CLR 06/M08 A3013 RMK AO2 SLP214 T00561078=
201211102153 METAR KBLI 102153Z 01009KT 10SM CLR 06/M08 A3015 RMK AO2 SLP218 T00611083=
201211102053 METAR KBLI 102053Z 01010G16KT 10SM CLR 06/M08 A3013 RMK AO2 SLP214 T00611083 53015=
201211101953 METAR KBLI 101953Z 01013G26KT 10SM CLR 05/M09 A3012 RMK AO2 PK WND 01026/1944 SLP207 T00501089=
201211101853 METAR KBLI 101853Z 02017G24KT 10SM CLR 04/M09 A3011 RMK AO2 SLP204 T00441089=
201211101753 METAR KBLI 101753Z 02016G23KT 10SM CLR 04/M09 A3009 RMK AO2 SLP199 T00391094 10039 20000 51011=
201211101653 METAR KBLI 101653Z 01009KT 10SM CLR 02/M08 A3008 RMK AO2 SLP196 T00221083=
201211101553 METAR KBLI 101553Z 36007KT 10SM CLR 01/M09 A3008 RMK AO2 SLP195 T00061089=
201211101453 METAR KBLI 101453Z 36007KT 10SM OVC095 01/M09 A3006 RMK AO2 SLP188 T00061089 51015=
201211101353 METAR KBLI 101353Z AUTO 36008KT 10SM OVC095 01/M08 A3005 RMK AO2 SLP183 T00111083=
201211101253 METAR KBLI 101253Z AUTO 01007KT 10SM SCT095 01/M08 A3003 RMK AO2 SLP179 T00061083=
201211101153 METAR KBLI 101153Z AUTO 01009KT 10SM CLR 01/M08 A3001 RMK AO2 SLP173 T00111083 10033 20011 51012=
201211101053 METAR KBLI 101053Z AUTO 01012G20KT 10SM CLR 02/M08 A3001 RMK AO2 SLP170 T00171078=
201211100953 METAR KBLI 100953Z AUTO 36011G17KT 10SM CLR 02/M08 A3000 RMK AO2 SLP167 T00171078=
201211100853 METAR KBLI 100853Z AUTO 01009G16KT 10SM CLR 02/M07 A2998 RMK AO2 SLP161 T00221072 51010=
201211100753 METAR KBLI 100753Z AUTO 36012KT 10SM FEW095 03/M07 A2997 RMK AO2 SLP159 T00281072 400830022=
201211100653 METAR KBLI 100653Z AUTO 01010G17KT 10SM SCT090 03/M07 A2996 RMK AO2 SLP153 T00281072=
201211100553 METAR KBLI 100553Z 01010G18KT 10SM CLR 03/M07 A2995 RMK AO2 SLP151 T00331072 10061 20033 53009=
201211100453 METAR KBLI 100453Z 01011KT 10SM FEW075 04/M07 A2994 RMK AO2 SLP147 T00391067=
201211100353 METAR KBLI 100353Z 02009G18KT 10SM CLR 03/M06 A2993 RMK AO2 SLP143 T00331061=
201211100253 METAR KBLI 100253Z 01012KT 10SM CLR 04/M06 A2992 RMK AO2 SLP141 T00391061 53009=
201211100153 METAR KBLI 100153Z 01007KT 10SM CLR 04/M06 A2991 RMK AO2 SLP139 T00391061=
201211100053 METAR KBLI 100053Z 02010G15KT 10SM CLR 05/M07 A2990 RMK AO2 SLP133 T00501067=
201211092353 METAR KBLI 092353Z 02009KT 10SM CLR 06/M06 A2989 RMK AO2 SLP132 T00611061 10083 20061 55000=
201211092253 METAR KBLI 092253Z 02006G18KT 10SM CLR 08/M06 A2989 RMK AO2 SLP130 T00781061=
201211092153 METAR KBLI 092153Z 03013G17KT 10SM CLR 08/M06 A2989 RMK AO2 SLP129 T00831061=
201211092053 METAR KBLI 092053Z 01013G21KT 10SM CLR 08/M06 A2990 RMK AO2 SLP131 T00831056 58000=
201211091953 METAR KBLI 091953Z 02013G21KT 10SM CLR 08/M05 A2990 RMK AO2 SLP132 T00781050=
201211091853 METAR KBLI 091853Z 01011G17KT 10SM CLR 08/M05 A2990 RMK AO2 SLP133 T00781050=
201211091753 METAR KBLI 091753Z 03012G20KT 10SM CLR 07/M04 A2990 RMK AO2 SLP132 T00671044 10067 20022 51007=
201211091653 METAR KBLI 091653Z 01008G16KT 10SM CLR 05/M04 A2989 RMK AO2 SLP132 T00501044=
201211091553 METAR KBLI 091553Z 02007KT 10SM CLR 04/M04 A2989 RMK AO2 SLP130 T00391044=
201211091453 METAR KBLI 091453Z 01007KT 10SM CLR 03/M04 A2988 RMK AO2 SLP126 T00281044 51007=
201211091353 METAR KBLI 091353Z AUTO 34004KT 10SM CLR 03/M04 A2987 RMK AO2 SLP125 T00281044=
201211091253 METAR KBLI 091253Z AUTO 35004KT 10SM CLR 03/M04 A2987 RMK AO2 SLP121 T00331039=
201211091153 METAR KBLI 091153Z AUTO 36007KT 10SM CLR 04/M04 A2985 RMK AO2 SLP117 T00391039 10061 20039 50002=
201211091053 METAR KBLI 091053Z AUTO 35009KT 10SM CLR 04/M04 A2985 RMK AO2 SLP117 T00441039=
201211090953 METAR KBLI 090953Z AUTO 35007KT 10SM CLR 04/M04 A2985 RMK AO2 SLP116 T00441039=
201211090853 METAR KBLI 090853Z AUTO 01009G16KT 10SM CLR 05/M04 A2985 RMK AO2 SLP115 T00501039 51002=
201211090753 METAR KBLI 090753Z AUTO 36009KT 10SM CLR 05/M04 A2985 RMK AO2 SLP115 T00501039 401110022=
201211090653 METAR KBLI 090653Z AUTO 01011G18KT 10SM CLR 06/M03 A2984 RMK AO2 SLP113 T00611033=
201211090553 METAR KBLI 090553Z 02009KT 10SM CLR 06/M03 A2984 RMK AO2 SLP113 T00561028 10100 20039 53002=
201211090453 METAR KBLI 090453Z 36006KT 10SM CLR 06/M02 A2984 RMK AO2 SLP111 T00561022=
201211090353 METAR KBLI 090353Z 36009KT 10SM CLR 06/M02 A2983 RMK AO2 SLP109 T00611017=
201211090253 METAR KBLI 090253Z 36008KT 10SM CLR 07/M02 A2983 RMK AO2 SLP112 T00671017 51003=
201211090153 METAR KBLI 090153Z 36006KT 10SM CLR 07/M02 A2983 RMK AO2 SLP111 T00671017=
201211090053 METAR KBLI 090053Z 03011KT 10SM CLR 09/M02 A2983 RMK AO2 SLP109 T00891022=
201211082353 METAR KBLI 082353Z 01012G20KT 10SM CLR 10/M02 A2982 RMK AO2 PK WND 01026/2312 SLP107 T01001022 10111 20083 55003=
201211082253 METAR KBLI 082253Z 01014G22KT 10SM CLR 11/M02 A2982 RMK AO2 PK WND 02033/2154 SLP107 T01061022=
201211082153 METAR KBLI 082153Z 01020G26KT 10SM CLR 11/M02 A2983 RMK AO2 PK WND 02029/2123 SLP107 T01111022=
201211082053 METAR KBLI 082053Z 01018G28KT 10SM CLR 11/M01 A2983 RMK AO2 PK WND 02028/2051 SLP110 T01111011 56013=
201211081953 METAR KBLI 081953Z 01015G25KT 10SM CLR 11/00 A2984 RMK AO2 SLP113 T01110000=
201211081853 METAR KBLI 081853Z 36013G20KT 10SM CLR 10/01 A2986 RMK AO2 SLP118 T01000006=
201211081753 METAR KBLI 081753Z 35011KT 10SM CLR 09/01 A2987 RMK AO2 SLP123 T00890011 10089 20028 58004=
201211081653 METAR KBLI 081653Z 36008KT 10SM CLR 07/01 A2988 RMK AO2 SLP127 T00670006=
201211081553 METAR KBLI 081553Z 02005KT 10SM CLR 03/00 A2989 RMK AO2 SLP129 T00330000=
201211081453 METAR KBLI 081453Z 36007KT 10SM CLR 03/00 A2988 RMK AO2 SLP128 T00330000 56010=
201211081353 METAR KBLI 081353Z AUTO 02007KT 10SM CLR 03/01 A2989 RMK AO2 SLP131 T00280006=
201211081253 METAR KBLI 081253Z AUTO 01009KT 10SM CLR 03/01 A2990 RMK AO2 SLP132 T00330006=
201211081153 METAR KBLI 081153Z AUTO 02006KT 10SM CLR 03/01 A2991 RMK AO2 SLP137 T00280006 10044 20022 58012=
201211081053 METAR KBLI 081053Z AUTO 01005KT 10SM CLR 02/01 A2992 RMK AO2 SLP141 T00220006=
201211080953 METAR KBLI 080953Z AUTO 01005KT 10SM CLR 03/01 A2994 RMK AO2 SLP146 T00280006=
201211080853 METAR KBLI 080853Z AUTO 01005KT 10SM CLR 03/01 A2995 RMK AO2 SLP149 T00280006 56019=
201211080753 METAR KBLI 080753Z AUTO 01006KT 10SM CLR 03/01 A2996 RMK AO2 SLP155 T00330011 401110028=
201211080653 METAR KBLI 080653Z AUTO 01005KT 10SM CLR 04/02 A2998 RMK AO2 SLP161 T00440017=
201211080553 METAR KBLI 080553Z 02006KT 10SM CLR 04/02 A3000 RMK AO2 SLP168 60000 T00440022 10094 20039 58013=
201211080453 METAR KBLI 080453Z 02005KT 10SM FEW060 BKN075 06/03 A3002 RMK AO2 SLP173 T00560028=
201211080353 METAR KBLI 080353Z 00000KT 10SM OVC060 07/04 A3003 RMK AO2 RAE0259 SLP178 P0000 T00670039=
201211080253 METAR KBLI 080253Z 36003KT 10SM -RA BKN065 OVC090 06/03 A3004 RMK AO2 RAB50 SLP181 P0000 60000 T00560033 58009=
201211080153 METAR KBLI 080153Z 00000KT 10SM CLR 05/03 A3005 RMK AO2 SLP184 T00500033=
201211080053 METAR KBLI 080053Z 00000KT 10SM CLR 08/04 A3006 RMK AO2 SLP188 T00830039=
201211072353 METAR KBLI 072353Z 17005KT 10SM SCT042 09/04 A3007 RMK AO2 SLP190 T00940039 10111 20094 58007=
201211072253 METAR KBLI 072253Z 14006KT 10SM FEW065 SCT080 10/04 A3008 RMK AO2 SLP194 T01000039=
201211072153 METAR KBLI 072153Z 16007KT 10SM FEW040 10/04 A3009 RMK AO2 SLP197 T01000044=
201211072053 METAR KBLI 072053Z 16008KT 10SM SCT025 11/04 A3009 RMK AO2 SLP196 T01110044 58007=
201211071953 METAR KBLI 071953Z 17009KT 10SM SCT025 11/04 A3010 RMK AO2 SLP199 T01110044=
201211071853 METAR KBLI 071853Z 17007KT 10SM FEW030 10/04 A3011 RMK AO2 SLP204 T01000039=
201211071753 METAR KBLI 071753Z 16007KT 10SM FEW030 10/03 A3011 RMK AO2 SLP203 T01000033 10100 20056 51009=
201211071653 METAR KBLI 071653Z 17005KT 10SM FEW065 09/04 A3010 RMK AO2 SLP201 T00940044=
201211071553 METAR KBLI 071553Z 17005KT 10SM CLR 07/04 A3009 RMK AO2 SLP197 T00720044=
201211071453 METAR KBLI 071453Z 17005KT 10SM CLR 08/04 A3008 RMK AO2 SLP194 T00780044 53012=
201211071353 METAR KBLI 071353Z AUTO 18004KT 10SM CLR 07/04 A3007 RMK AO2 SLP190 T00670044=
201211071253 METAR KBLI 071253Z AUTO 15003KT 10SM CLR 06/03 A3006 RMK AO2 SLP186 T00560028=
201211071153 METAR KBLI 071153Z AUTO 00000KT 10SM CLR 09/03 A3005 RMK AO2 SLP181 60000 70005 T00940028 10117 20078 53019=
201211071053 METAR KBLI 071053Z AUTO 16006KT 10SM CLR 09/03 A3003 RMK AO2 SLP175 T00890033=
201211070953 METAR KBLI 070953Z AUTO 14004KT 10SM CLR 09/04 A3001 RMK AO2 SLP168 T00890039=
201211070853 METAR KBLI 070853Z AUTO VRB06KT 10SM CLR 11/04 A2999 RMK AO2 SLP162 60000 T01060044 52010=
201211070753 METAR KBLI 070753Z AUTO VRB04KT 10SM CLR 11/04 A2998 RMK AO2 RAB12E23 SLP158 P0000 T01060044 401330061=
201211070653 METAR KBLI 070653Z AUTO 00000KT 10SM BKN075 BKN095 12/05 A2997 RMK AO2 SLP156 T01170050=
201211070553 METAR KBLI 070553Z VRB04KT 10SM BKN095 11/06 A2996 RMK AO2 SLP152 T01110061 10133 20100 51015=
201211070453 METAR KBLI 070453Z VRB05KT 10SM CLR 11/08 A2995 RMK AO2 SLP148 T01110078=
201211070353 METAR KBLI 070353Z 17006G17KT 10SM FEW028 SCT070 12/08 A2994 RMK AO2 SLP145 T01220078=
201211070314 SPECI KBLI 070314Z 16014G22KT 10SM FEW022 BKN035 OVC070 13/09 A2993 RMK AO2=
201211070253 METAR KBLI 070253Z 19010G17KT 10SM FEW022 BKN027 OVC047 13/09 A2992 RMK AO2 SLP137 T01330094 51011=
201211070222 SPECI KBLI 070222Z 15011KT 10SM SCT022 OVC060 13/09 A2989 RMK AO2=
201211070153 METAR KBLI 070153Z 16005KT 10SM OVC020 12/09 A2990 RMK AO2 SLP131 T01170094=
201211070053 METAR KBLI 070053Z 09003KT 10SM FEW016 OVC022 10/09 A2988 RMK AO2 SLP127 T01000089=
201211062353 METAR KBLI 062353Z 00000KT 10SM OVC024 10/09 A2991 RMK AO2 SLP135 60004 T01000089 10111 20100 56025=
201211062253 METAR KBLI 062253Z 29006KT 10SM BKN013 OVC035 10/08 A2993 RMK AO2 RAE2158B26E42 SLP143 P0000 T01000083=
201211062244 SPECI KBLI 062244Z 30005KT 10SM BKN015 OVC035 10/08 A2993 RMK AO2 RAE2158B26E42 P0000=
201211062153 METAR KBLI 062153Z 13008KT 6SM -RA BR OVC095 11/08 A2990 RMK AO2 RAB2054 SLP134 P0004 T01060083=
201211062053 METAR KBLI 062053Z 00000KT 10SM BKN031 OVC055 11/09 A2998 RMK AO2 RAB26E36 SLP160 P0000 60000 T01060089 55002=
201211061953 METAR KBLI 061953Z 02003KT 10SM FEW011 SCT033 OVC080 11/08 A2996 RMK AO2 SLP152 T01110083=
201211061853 METAR KBLI 061853Z 00000KT 10SM SCT036 OVC080 11/08 A2998 RMK AO2 SLP161 T01060083=
201211061753 METAR KBLI 061753Z 00000KT 10SM BKN032 BKN085 10/08 A2999 RMK AO2 RAB07E43 SLP162 P0001 60001 T01000078 10100 20083 58017=
201211061653 METAR KBLI 061653Z 00000KT 10SM OVC034 09/08 A3001 RMK AO2 SLP171 T00940078=
201211061553 METAR KBLI 061553Z 00000KT 8SM OVC036 09/08 A3004 RMK AO2 SLP180 T00890078=
201211061453 METAR KBLI 061453Z AUTO 00000KT 8SM FEW037 OVC095 08/07 A3004 RMK AO2 SLP179 T00830072 58020=
201211061353 METAR KBLI 061353Z AUTO 00000KT 9SM OVC039 08/07 A3006 RMK AO2 SLP186 T00830072=
201211061253 METAR KBLI 061253Z AUTO 00000KT 7SM BKN043 OVC070 08/07 A3008 RMK AO2 SLP193 T00830072=
201211061153 METAR KBLI 061153Z AUTO 00000KT 7SM OVC090 08/07 A3009 RMK AO2 SLP198 60000 T00830072 10083 20061 58020=
201211061053 METAR KBLI 061053Z AUTO 36003KT 5SM BR OVC080 08/07 A3012 RMK AO2 RAB26E51 SLP208 P0000 T00830072=
201211060953 METAR KBLI 060953Z AUTO 35003KT 5SM BR FEW003 SCT011 OVC100 07/06 A3015 RMK AO2 SLP218 T00720061=
201211060950 SPECI KBLI 060950Z AUTO 00000KT 6SM BR FEW003 SCT011 OVC095 07/06 A3015 RMK AO2=
201211060937 SPECI KBLI 060937Z AUTO 00000KT 6SM BR SCT003 BKN011 OVC100 07/06 A3016 RMK AO2=
201211060900 SPECI KBLI 060900Z AUTO 00000KT 4SM BR FEW008 BKN110 07/06 A3017 RMK AO2=
201211060853 METAR KBLI 060853Z AUTO 00000KT 1SM R16/4500VP6000FT BR FEW008 BKN110 06/05 A3017 RMK AO2 SLP224 T00610050 56010=
201211060847 SPECI KBLI 060847Z AUTO 00000KT 1 3/4SM R16/5500VP6000FT BR FEW008 SCT110 06/05 A3018 RMK AO2 VIS 1/2V5=
201211060753 METAR KBLI 060753Z AUTO 00000KT 5SM BR CLR 06/06 A3017 RMK AO2 SLP225 T00610056 401330061=
201211060653 METAR KBLI 060653Z AUTO 00000KT 4SM BR CLR 07/06 A3019 RMK AO2 SLP230 T00670061=
201211060553 METAR KBLI 060553Z 00000KT 9SM FEW100 08/07 A3020 RMK AO2 SLP234 T00780067 10111 20072 56028=
201211060453 METAR KBLI 060453Z 00000KT 8SM FEW110 08/07 A3023 RMK AO2 SLP244 T00780067=
201211060353 METAR KBLI 060353Z 00000KT 10SM OVC110 09/07 A3024 RMK AO2 PRESFR SLP249 T00940072=
201211060253 METAR KBLI 060253Z 00000KT 10SM SCT120 09/08 A3028 RMK AO2 SLP263 T00940078 58021=
201211060153 METAR KBLI 060153Z 00000KT 10SM CLR 09/07 A3031 RMK AO2 SLP271 T00890067=
201211060053 METAR KBLI 060053Z 00000KT 10SM CLR 10/06 A3033 RMK AO2 SLP278 T01000061=
201211052353 METAR KBLI 052353Z 27003KT 10SM CLR 11/06 A3035 RMK AO2 SLP283 T01110061 10133 20111 55007=
201211052253 METAR KBLI 052253Z VRB03KT 10SM CLR 12/06 A3034 RMK AO2 SLP282 T01220061=
201211052153 METAR KBLI 052153Z VRB03KT 10SM CLR 13/07 A3036 RMK AO2 SLP287 T01280072=
201211052053 METAR KBLI 052053Z 18004KT 10SM CLR 13/07 A3037 RMK AO2 SLP290 T01280072 58003=
201211051953 METAR KBLI 051953Z 18004KT 10SM CLR 12/08 A3037 RMK AO2 SLP292 T01220078=
201211051853 METAR KBLI 051853Z 18004KT 10SM CLR 12/08 A3038 RMK AO2 SLP294 T01220078=
201211051753 METAR KBLI 051753Z 14003KT 10SM CLR 13/08 A3038 RMK AO2 SLP293 T01280083 10128 20072 51005=
201211051653 METAR KBLI 051653Z 00000KT 10SM CLR 11/09 A3037 RMK AO2 SLP292 T01110094=
201211051553 METAR KBLI 051553Z 00000KT 10SM FEW020 08/08 A3038 RMK AO2 SLP293 T00830078=
201211051504 SPECI KBLI 051504Z 21003KT 10SM FEW024 08/07 A3036 RMK AO2=
201211051457 SPECI KBLI 051457Z 00000KT 1 3/4SM BR CLR 08/07 A3036 RMK AO2=
201211051453 METAR KBLI 051453Z 00000KT 5SM BR CLR 08/07 A3036 RMK AO2 SLP288 T00780067 50006=
201211051353 METAR KBLI 051353Z AUTO 00000KT 3SM BR CLR 09/08 A3036 RMK AO2 SLP289 T00890078=
201211051253 METAR KBLI 051253Z AUTO 19003KT 10SM CLR 10/09 A3035 RMK AO2 SLP284 T01000089=
201211051153 METAR KBLI 051153Z AUTO 17004KT 10SM CLR 11/09 A3034 RMK AO2 SLP280 60000 70030 T01110089 10144 20100 51016=
201211051053 METAR KBLI 051053Z AUTO 19004KT 10SM CLR 11/09 A3033 RMK AO2 SLP275 T01110089=
201211050953 METAR KBLI 050953Z AUTO VRB03KT 10SM CLR 12/09 A3032 RMK AO2 SLP273 T01220089=
201211050853 METAR KBLI 050853Z AUTO 17005KT 10SM FEW070 12/09 A3029 RMK AO2 SLP264 60000 T01220094 51026=
201211050753 METAR KBLI 050753Z AUTO 18004KT 10SM SCT041 BKN050 OVC060 13/11 A3027 RMK AO2 RAE28 SLP255 P0000 T01330111 401830117=
201211050653 METAR KBLI 050653Z AUTO 19004KT 7SM -RA OVC036 13/13 A3025 RMK AO2 SLP250 P0000 T01330128=
201211050600 SPECI KBLI 050600Z 16006KT 10SM FEW003 OVC036 14/13 A3021 RMK AO2 RAE0556 P0000=
201211050553 METAR KBLI 050553Z 17005KT 9SM -RA SCT003 BKN008 OVC027 14/14 A3022 RMK AO2 SLP239 P0001 60030 T01440139 10178 20139 50009=
201211050549 SPECI KBLI 050549Z 18004KT 8SM -RA SCT003 BKN008 OVC027 14/14 A3022 RMK AO2 P0001=
201211050538 SPECI KBLI 050538Z 16006KT 6SM -RA BR SCT003 BKN010 OVC031 15/14 A3021 RMK AO2 CIG 007V015 P0001=
201211050528 SPECI KBLI 050528Z 18006KT 3SM -RA BR BKN003 BKN008 OVC028 15/14 A3021 RMK AO2 CIG 002V005 P0001=
201211050453 METAR KBLI 050453Z 18009KT 10SM -RA FEW004 BKN019 OVC060 14/14 A3019 RMK AO2 SLP231 P0000 T01440139=
201211050440 SPECI KBLI 050440Z 17009KT 10SM -RA FEW002 BKN020 OVC060 14/14 A3019 RMK AO2 P0000=
201211050429 SPECI KBLI 050429Z 17006G15KT 10SM -RA BKN002 BKN018 OVC060 14/14 A3019 RMK AO2 P0000=
201211050359 SPECI KBLI 050359Z 17007KT 2SM -RA BR BKN002 OVC027 14/13 A3020 RMK AO2 P0000=
201211050353 METAR KBLI 050353Z 16008KT 3SM -RA BR SCT002 OVC027 14/13 A3019 RMK AO2 SLP230 P0018 T01440133=
201211050339 SPECI KBLI 050339Z 17008KT 3SM RA BR FEW004 OVC025 15/14 A3020 RMK AO2 P0017=
201211050331 SPECI KBLI 050331Z 17009KT 3SM +RA BR FEW010 SCT015 OVC025 15/14 A3020 RMK AO2 P0013=
201211050320 SPECI KBLI 050320Z 18007G15KT 1 3/4SM RA BR SCT010 BKN015 OVC023 15/14 A3021 RMK AO2 PRESRR P0005=
201211050317 SPECI KBLI 050317Z VRB05G17KT 2 1/2SM RA BR BKN013 OVC023 15/14 A3020 RMK AO2 PRESRR P0003=
201211050253 METAR KBLI 050253Z 17008G16KT 10SM -RA BKN021 OVC055 15/14 A3016 RMK AO2 PK WND 16028/0202 SLP222 P0008 60011 T01500139 53018=
201211050206 SPECI KBLI 050206Z 16019G28KT 5SM RA BKN021 OVC055 17/14 A3014 RMK AO2 PK WND 16028/0202 P0002=
201211050153 METAR KBLI 050153Z 16015G27KT 9SM -RA FEW025 BKN055 OVC095 17/14 A3014 RMK AO2 PK WND 15033/0126 SLP213 P0003 T01670139=
201211050100 SPECI KBLI 050100Z 15021G32KT 10SM -RA FEW028 BKN070 OVC110 17/14 A3011 RMK AO2 PK WND 16032/0059 P0000=
201211050053 METAR KBLI 050053Z 16015G28KT 10SM -RA BKN025 OVC070 17/14 A3012 RMK AO2 PK WND 15032/0029 SLP206 P0000 T01720139=
201211050041 SPECI KBLI 050041Z 15017G30KT 10SM -RA BKN025 OVC070 17/14 A3012 RMK AO2 PK WND 15032/0029 P0000=
201211050034 SPECI KBLI 050034Z 15021G32KT 10SM -RA SCT025 OVC070 17/13 A3011 RMK AO2 PK WND 15032/0029 P0000=
201211042353 METAR KBLI 042353Z AUTO 15022G33KT 10SM -RA BKN027 OVC070 18/13 A3011 RMK AO2 PK WND 14033/2352 SLP202 P0000 60000 T01780133 10183 20122 55008 TSNO=
201211042253 METAR KBLI 042253Z 15020G32KT 10SM -RA OVC025 18/13 A3010 RMK AO2 PK WND 14032/2247 RAB07E18B43 SLP200 P0000 T01780128=
201211042153 METAR KBLI 042153Z 15017G26KT 10SM OVC025 18/13 A3013 RMK AO2 PK WND 15026/2149 SLP209 T01780128=
201211042053 METAR KBLI 042053Z 15012G23KT 10SM OVC023 17/13 A3013 RMK AO2 PK WND 15027/2035 SLP210 T01720128 56013=
201211041953 METAR KBLI 041953Z 16013G20KT 10SM OVC023 17/13 A3014 RMK AO2 SLP212 T01720128=
201211041853 METAR KBLI 041853Z VRB04KT 10SM OVC021 14/12 A3016 RMK AO2 SLP219 T01440122=
201211041753 METAR KBLI 041753Z 01005KT 10SM OVC021 12/11 A3017 RMK AO2 SLP224 T01220111 10122 20117 50005=
201211041653 METAR KBLI 041653Z 36004KT 10SM OVC021 12/11 A3018 RMK AO2 SLP225 T01220106=
201211041553 METAR KBLI 041553Z 35003KT 10SM OVC021 12/11 A3018 RMK AO2 SLP226 T01170106=
201211041453 METAR KBLI 041453Z 01004KT 9SM OVC023 12/11 A3016 RMK AO2 SLP219 T01170106 58006=
201211041353 METAR KBLI 041353Z AUTO 03004KT 9SM OVC029 12/11 A3016 RMK AO2 SLP221 T01170106=
201211041253 METAR KBLI 041253Z AUTO 01003KT 10SM OVC020 12/11 A3018 RMK AO2 SLP227 T01170106=
201211041232 SPECI KBLI 041232Z AUTO 01003KT 10SM BKN020 OVC065 12/11 A3018 RMK AO2=
201211041210 SPECI KBLI 041210Z AUTO 00000KT 10SM SCT024 SCT034 OVC065 12/11 A3017 RMK AO2=
201211041153 METAR KBLI 041153Z AUTO 00000KT 10SM BKN027 BKN034 OVC065 12/11 A3017 RMK AO2 SLP225 60002 70009 T01170106 10128 20117 58003=
201211041112 SPECI KBLI 041112Z AUTO 09003KT 10SM FEW026 BKN047 OVC070 12/11 A3018 RMK AO2=
201211041053 METAR KBLI 041053Z AUTO 07003KT 10SM SCT022 OVC029 12/11 A3018 RMK AO2 RAE36 SLP228 P0001 T01170106=
201211040953 METAR KBLI 040953Z AUTO 10005KT 4SM -RA BR BKN023 OVC032 12/11 A3018 RMK AO2 RAB02 SLP228 P0001 T01170106=
201211040943 SPECI KBLI 040943Z AUTO 11005KT 4SM -RA BR BKN025 OVC035 12/11 A3018 RMK AO2 RAB02 P0001=
201211040853 METAR KBLI 040853Z AUTO 18003KT 10SM OVC044 12/11 A3016 RMK AO2 SLP221 T01220106 53006=
201211040753 METAR KBLI 040753Z AUTO 16003KT 10SM BKN065 OVC080 13/10 A3014 RMK AO2 SLP215 T01280100 401440111=
201211040653 METAR KBLI 040653Z AUTO 17003KT 10SM BKN100 13/10 A3015 RMK AO2 SLP218 T01280100=
201211040553 METAR KBLI 040553Z AUTO 16006KT 10SM SCT065 BKN080 OVC110 13/10 A3014 RMK AO2 RAE46 SLP214 P0000 60000 T01280100 10133 20122 51020=
201211040453 METAR KBLI 040453Z 17006KT 10SM -RA SCT065 BKN080 OVC120 13/10 A3014 RMK AO2 RAB16 SLP214 P0000 T01280100=
201211040353 METAR KBLI 040353Z 17008KT 10SM BKN120 13/10 A3011 RMK AO2 SLP202 T01330100=
201211040253 METAR KBLI 040253Z 17013G18KT 10SM FEW022 SCT031 BKN110 13/11 A3008 RMK AO2 SLP194 T01280111 50017=
201211040251 SPECI KBLI 040251Z 17013G18KT 10SM FEW022 SCT031 BKN070 13/11 A3009 RMK AO2=
201211040242 SPECI KBLI 040242Z 17008G15KT 10SM SCT023 BKN029 13/11 A3008 RMK AO2=
201211040229 SPECI KBLI 040229Z 18009KT 10SM FEW020 SCT028 BKN035 12/11 A3008 RMK AO2=
201211040221 SPECI KBLI 040221Z 18007KT 10SM FEW011 BKN028 OVC035 13/11 A3007 RMK AO2=
201211040214 SPECI KBLI 040214Z 17008KT 10SM SCT013 OVC032 13/11 A3007 RMK AO2=
201211040153 METAR KBLI 040153Z 18007KT 10SM OVC013 13/11 A3006 RMK AO2 SLP185 T01280111=
201211040121 SPECI KBLI 040121Z 18007KT 10SM BKN013 BKN018 OVC050 13/12 A3004 RMK AO2=
201211040053 METAR KBLI 040053Z 16007KT 10SM BKN016 OVC060 13/12 A3003 RMK AO2 SLP177 T01330117=
201211032353 METAR KBLI 032353Z 18006KT 10SM OVC014 13/11 A3003 RMK AO2 RAB40E50 SLP176 P0000 60007 T01280111 10144 20128 51011=
201211032351 SPECI KBLI 032351Z 18005KT 10SM OVC014 13/11 A3003 RMK AO2 RAB40E50 P0000=
201211032253 METAR KBLI 032253Z 21004KT 10SM OVC015 13/11 A3001 RMK AO2 RAB2159E29 SLP171 P0000 T01280111=
201211032153 METAR KBLI 032153Z 21003KT 10SM OVC015 13/11 A3000 RMK AO2 RAE48 SLP165 P0002 T01280111=
201211032053 METAR KBLI 032053Z 19006KT 6SM -RA BR OVC017 13/11 A3000 RMK AO2 SLP165 P0005 60005 T01280111 53012=
201211031953 METAR KBLI 031953Z VRB06KT 10SM -RA OVC017 13/11 A2999 RMK AO2 RAE13B47 SLP162 P0000 T01330106=
201211031853 METAR KBLI 031853Z 16010G19KT 10SM -RA OVC019 14/11 A2996 RMK AO2 RAB46 SLP153 P0000 T01440106=
201211031753 METAR KBLI 031753Z 16011G18KT 10SM OVC021 14/10 A2996 RMK AO2 SLP153 60000 T01440100 10144 20139 51001=
201211031653 METAR KBLI 031653Z 16009G19KT 10SM OVC023 14/10 A2996 RMK AO2 SLP153 T01390100=
201211031553 METAR KBLI 031553Z 16010G19KT 10SM OVC021 14/10 A2996 RMK AO2 SLP154 T01390100=
201211031453 METAR KBLI 031453Z 16011G17KT 10SM OVC023 14/10 A2996 RMK AO2 RAE07B37E49 SLP152 P0000 60000 T01390100 53009=
201211031353 METAR KBLI 031353Z 16012G21KT 10SM -RA OVC024 14/09 A2994 RMK AO2 RAB25 SLP146 P0000 T01390094=
201211031253 METAR KBLI 031253Z AUTO 15015G21KT 10SM OVC026 14/09 A2993 RMK AO2 SLP142 T01390094=
201211031153 METAR KBLI 031153Z AUTO 15010KT 10SM OVC028 14/09 A2993 RMK AO2 SLP142 60003 70011 T01390094 10139 20111 51003=
201211031053 METAR KBLI 031053Z AUTO 00000KT 10SM OVC034 12/11 A2993 RMK AO2 SLP141 T01170106=
201211030953 METAR KBLI 030953Z AUTO 00000KT 10SM BKN036 OVC050 12/11 A2993 RMK AO2 RAE10 SLP141 P0000 T01170106=
201211030853 METAR KBLI 030853Z AUTO 11003KT 10SM -RA BKN044 OVC075 12/10 A2992 RMK AO2 RAE21B45 SLP139 P0001 60003 T01220100 58003=
201211030753 METAR KBLI 030753Z AUTO 10005KT 10SM -RA FEW044 OVC080 12/10 A2993 RMK AO2 RAB0657 SLP139 P0002 T01220100 401780111=
201211030653 METAR KBLI 030653Z AUTO 00000KT 10SM OVC046 12/11 A2994 RMK AO2 SLP145 T01170106=
201211030553 METAR KBLI 030553Z 00000KT 10SM OVC055 12/11 A2993 RMK AO2 RAB02E13 SLP143 P0000 60008 T01220106 10161 20117 56008=
201211030453 METAR KBLI 030453Z 10007KT 10SM FEW038 BKN055 OVC075 13/10 A2993 RMK AO2 SLP143 T01280100=
201211030353 METAR KBLI 030353Z 12006KT 10SM OVC065 12/10 A2994 RMK AO2 RAE28 SLP145 P0000 T01220100=
201211030253 METAR KBLI 030253Z 12005KT 9SM -RA FEW028 SCT042 OVC065 12/11 A2996 RMK AO2 SLP151 P0008 60008 T01220106 50003=
201211030153 METAR KBLI 030153Z 16008KT 10SM -RA OVC065 13/09 A2996 RMK AO2 RAB36 SLP153 P0000 T01330094=
201211030053 METAR KBLI 030053Z 00000KT 10SM BKN060 OVC090 14/11 A2995 RMK AO2 SLP148 T01390106=
201211022353 METAR KBLI 022353Z 00000KT 10SM BKN060 OVC080 16/08 A2995 RMK AO2 SLP147 T01610078 10178 20133 56007=
201211022253 METAR KBLI 022253Z 13008KT 10SM FEW060 BKN090 OVC100 17/08 A2995 RMK AO2 SLP148 T01670078=
201211022153 METAR KBLI 022153Z 15008KT 10SM OVC110 17/07 A2996 RMK AO2 SLP151 T01720072=
201211022053 METAR KBLI 022053Z 14008KT 10SM FEW042 17/08 A2997 RMK AO2 SLP154 T01720083 58012=
201211021953 METAR KBLI 021953Z 00000KT 10SM SCT050 16/11 A2999 RMK AO2 SLP162 T01610111=
201211021853 METAR KBLI 021853Z 00000KT 10SM FEW041 OVC055 14/10 A3001 RMK AO2 SLP168 T01440100=
201211021800 METAR KBLI NIL=
201211021700 METAR KBLI NIL=
201211021553 METAR KBLI 021553Z 00000KT 10SM OVC033 11/09 A3000 RMK AO2 SLP167 T01110094=
201211021453 METAR KBLI 021453Z 04003KT 10SM OVC031 11/09 A3000 RMK AO2 SLP164 T01110094 56005=
201211021413 SPECI KBLI 021413Z VRB03KT 10SM OVC031 13/09 A2999 RMK AO2=
201211021402 SPECI KBLI 021402Z 10004KT 10SM OVC029 13/09 A3000 RMK AO2=
201211021353 METAR KBLI 021353Z 10006KT 10SM OVC031 13/09 A3000 RMK AO2 SLP164 T01330089=
201211021253 METAR KBLI 021253Z AUTO 10005KT 10SM SCT026 BKN036 12/09 A3001 RMK AO2 SLP168 T01220089=
201211021249 SPECI KBLI 021249Z AUTO 11004KT 10SM SCT026 12/09 A3001 RMK AO2=
201211021153 METAR KBLI 021153Z AUTO 13005KT 10SM OVC026 13/09 A3000 RMK AO2 SLP166 70006 T01330094 10133 20111 50000=
201211021128 SPECI KBLI 021128Z AUTO 13009KT 10SM BKN028 OVC033 13/09 A3000 RMK AO2=
201211021053 METAR KBLI 021053Z AUTO 14005KT 10SM OVC030 13/09 A3000 RMK AO2 SLP166 T01330094=
201211020953 METAR KBLI 020953Z AUTO 16006KT 10SM OVC023 13/09 A3000 RMK AO2 SLP167 T01330094=
201211020853 METAR KBLI 020853Z AUTO 13005KT 10SM OVC025 13/11 A3000 RMK AO2 SLP166 T01280106 53005=
201211020753 METAR KBLI 020753Z AUTO 00000KT 10SM OVC021 12/11 A2999 RMK AO2 SLP163 T01170106 401440100=
201211020653 METAR KBLI 020653Z AUTO 00000KT 4SM BR OVC024 11/11 A2999 RMK AO2 SLP162 T01110106=
201211020553 METAR KBLI 020553Z AUTO 00000KT 7SM OVC019 12/11 A2999 RMK AO2 SLP161 60002 T01170106 10128 20111 53017=
201211020453 METAR KBLI 020453Z 00000KT 7SM OVC019 12/11 A2997 RMK AO2 RAE42 SLP155 P0002 T01170106=
201211020353 METAR KBLI 020353Z 00000KT 6SM -RA BR BKN021 OVC027 11/11 A2995 RMK AO2 RAB0259 SLP149 P0000 T01110106=
201211020253 METAR KBLI 020253Z 00000KT 9SM BKN025 OVC085 12/11 A2994 RMK AO2 RAE07 SLP144 P0000 60000 T01170106 53015=
201211020153 METAR KBLI 020153Z 00000KT 7SM -RA BKN027 OVC070 12/11 A2992 RMK AO2 RAB52 SLP138 P0000 T01170106=
201211020053 METAR KBLI 020053Z 00000KT 10SM OVC026 12/11 A2990 RMK AO2 SLP132 T01220111=
201211020011 SPECI KBLI 020011Z 00000KT 10SM BKN028 OVC034 13/11 A2989 RMK AO2=
201211012353 METAR KBLI 012353Z 00000KT 10SM OVC035 13/11 A2989 RMK AO2 SLP130 60000 T01280111 10133 20117 51013=
201211012253 METAR KBLI 012253Z 00000KT 10SM OVC023 13/11 A2989 RMK AO2 SLP128 T01280111=
201211012153 METAR KBLI 012153Z 00000KT 10SM OVC025 13/11 A2987 RMK AO2 SLP123 T01280111=
201211012053 METAR KBLI 012053Z 00000KT 10SM OVC025 13/11 A2986 RMK AO2 SLP117 60000 T01280111 51015=
201211011953 METAR KBLI 011953Z 09005KT 10SM OVC023 13/10 A2984 RMK AO2 SLP113 T01330100=
201211011913 SPECI KBLI 011913Z 06004KT 10SM FEW004 OVC023 12/11 A2984 RMK AO2=
201211011853 METAR KBLI 011853Z 03005KT 10SM BKN025 BKN031 OVC038 12/11 A2983 RMK AO2 RAB14E35 SLP108 P0000 T01170106=
201211011753 METAR KBLI 011753Z 01003KT 10SM BKN025 BKN030 OVC036 12/11 A2981 RMK AO2 RAE02 SLP102 P0000 60004 T01170106 10122 20100 51018=
201211011653 METAR KBLI 011653Z 04004KT 10SM -RA SCT020 OVC027 11/10 A2980 RMK AO2 RAB05 SLP098 P0001 T01110100=
201211011611 SPECI KBLI 011611Z 00000KT 10SM -RA BKN024 OVC030 11/09 A2979 RMK AO2 RAB05 P0000=
201211011553 METAR KBLI 011553Z 01003KT 10SM SCT028 OVC038 11/09 A2979 RMK AO2 SLP094 T01060094=
201211011453 METAR KBLI 011453Z 00000KT 10SM OVC070 10/09 A2976 RMK AO2 SLP084 60003 T01000094 53010=
201211011353 METAR KBLI 011353Z 00000KT 10SM BKN060 OVC080 11/09 A2974 RMK AO2 RAE50 SLP079 P0002 T01060094=
201211011253 METAR KBLI 011253Z AUTO 00000KT 9SM -RA FEW026 SCT031 OVC065 11/09 A2974 RMK AO2 RAB09 SLP077 P0001 T01060094=
201211011153 METAR KBLI 011153Z AUTO 00000KT 10SM OVC026 11/09 A2973 RMK AO2 SLP073 70030 T01060094 10144 20106 53008=
201211011139 SPECI KBLI 011139Z AUTO 01003KT 10SM BKN028 OVC033 11/09 A2972 RMK AO2=
201211011053 METAR KBLI 011053Z AUTO 00000KT 10SM BKN033 BKN100 11/09 A2971 RMK AO2 SLP067 T01060089=
201211010953 METAR KBLI 010953Z AUTO 06003KT 10SM OVC035 13/09 A2971 RMK AO2 SLP066 T01330094=
201211010930 SPECI KBLI 010930Z AUTO 16004KT 10SM OVC033 14/09 A2971 RMK AO2=
201211010916 SPECI KBLI 010916Z AUTO 15008KT 10SM BKN029 OVC036 14/09 A2970 RMK AO2=
201211010853 METAR KBLI 010853Z AUTO 08005KT 10SM BKN033 OVC110 14/09 A2970 RMK AO2 SLP065 T01390089 53002=
201211010753 METAR KBLI 010753Z AUTO 16007KT 10SM OVC030 13/09 A2970 RMK AO2 SLP064 T01330094 401670106=
201211010653 METAR KBLI 010653Z AUTO 15008G16KT 10SM FEW055 OVC080 14/09 A2970 RMK AO2 SLP063 T01390094=
201211010553 METAR KBLI 010553Z AUTO 16009KT 10SM FEW024 BKN070 OVC095 14/10 A2970 RMK AO2 SLP062 60008 T01390100 10156 20133 53012=
201211010525 SPECI KBLI 010525Z 16006KT 10SM SCT027 OVC095 14/10 A2969 RMK AO2=
201211010453 METAR KBLI 010453Z 16005KT 10SM BKN027 OVC035 14/10 A2969 RMK AO2 SLP059 T01440100=
201211010427 SPECI KBLI 010427Z 14010KT 10SM BKN027 OVC034 14/10 A2968 RMK AO2=
201211010353 METAR KBLI 010353Z 15009G17KT 10SM SCT028 BKN034 14/10 A2967 RMK AO2 SLP054 T01440100=
201211010253 METAR KBLI 010253Z 15010G18KT 10SM FEW024 SCT080 14/11 A2966 RMK AO2 RAE25 SLP051 P0000 60008 T01440106 51022=
201211010153 METAR KBLI 010153Z 15014G21KT 10SM -RA FEW021 BKN060 OVC070 14/12 A2965 RMK AO2 SLP049 P0006 T01390117=
201211010129 SPECI KBLI 010129Z 16012KT 6SM RA BR SCT017 OVC065 14/12 A2965 RMK AO2 P0006=
201211010053 METAR KBLI 010053Z 16016G35KT 9SM -RA BKN024 BKN029 OVC075 14/12 A2963 RMK AO2 PK WND 14036/0012 SLP039 P0002 T01440117=
201211010041 SPECI KBLI 010041Z 16018G32KT 10SM -RA BKN024 BKN029 OVC075 15/11 A2962 RMK AO2 PK WND 14036/0012 P0001=

# No short TAF reports from KBLI in databse.

###################################
#  large TAF from KBLI
###################################
201211302336 TAF KBLI 302336Z 0100/0124 16016G24KT P6SM BKN027 BKN040 OVC045
                       FM010600 13009KT 5SM -RA BR OVC025 FM012100
                       16014KT P6SM -SHRA OVC025=
201211301720 TAF KBLI 301720Z 3018/0118 15013G21KT P6SM -RA SCT030 OVC060 FM010000
                       14012G20KT P6SM VCSH OVC050 FM011200 17017G24KT
                       P6SM -RA OVC025 FM011600 17012G19KT P6SM
                       -RA OVC050=
201211301120 TAF KBLI 301120Z 3012/0112 14015G25KT P6SM -SHRA BKN050 OVC070
                       FM301800 15015G25KT P6SM -SHRA OVC040 FM010900
                       18015G25KT P6SM -SHRA BKN025 OVC040=
201211300529 TAF KBLI 300529Z 3006/0106 16010G20KT P6SM VCSH SCT030 BKN060 BKN120
                       FM301500 16012G22KT P6SM -SHRA SCT030 OVC050
                       FM010300 16010G20KT P6SM -RA BKN030 OVC050=
201211292321 TAF AMD KBLI 292321Z 2923/3024 16009KT P6SM VCSH SCT030 BKN050
                       TEMPO 3000/3004 15012G23KT BKN030 FM300600
                       13007KT P6SM VCSH SCT030 BKN050 FM301800
                       16012KT P6SM -RA BKN030 OVC050=
201211292320 TAF KBLI 292320Z 3000/3024 16009KT P6SM VCSH SCT030 BKN050
                      TEMPO 3000/3004 15012G23KT FM300600 13007KT
                       P6SM VCSH SCT030 BKN050 FM301800 16012KT
                       P6SM -RA BKN030 OVC050=
201211291722 TAF KBLI 291722Z 2918/3018 14012G22KT P6SM -RA OVC040
                      TEMPO 2918/2920 -RA OVC030 FM292200 16009KT
                       P6SM VCSH SCT030 BKN050 FM300600 13007KT
                       P6SM VCSH SCT030 BKN050=
201211291120 TAF KBLI 291120Z 2912/3012 14012G22KT P6SM OVC070
                      TEMPO 2912/2916 -RA OVC040 FM291600 14012G22KT
                       P6SM -RA OVC040
                      TEMPO 2916/2920 -RA OVC030 FM292200 16012KT
                       P6SM VCSH SCT030 BKN050=
201211290520 TAF KBLI 290520Z 2906/3006 16012G22KT P6SM -RA BKN040 OVC080 FM291800
                       16012KT P6SM VCSH BKN040 OVC080=
201211290431 TAF AMD KBLI 290431Z 2905/2924 04004KT P6SM BKN040 OVC080 FM290800
                       16012G22KT P6SM -RA BKN030 OVC050 FM291800
                       16012KT P6SM BKN040 OVC080=
201211282321 TAF KBLI 282321Z 2900/2924 13010KT P6SM -RA BKN050 OVC070 FM290200
                       12012KT P6SM -RA BKN030 OVC050 FM290500
                       14012KT P6SM VCSH BKN050 OVC080 FM291000
                       12013KT P6SM -RA BKN030 OVC050
                      TEMPO 2911/2914 13015G23KT FM291800 15010KT
                       P6SM -RA BKN030 OVC050=
201211281739 TAF KBLI 281739Z 2818/2918 VRB03KT P6SM BKN100 OVC200 FM282100
                       04005KT P6SM OVC070
                      TEMPO 2821/2824 -RA OVC050 FM290000 13010KT
                       P6SM -RA BKN050 OVC070 FM290200 12012KT
                       P6SM -RA BKN030 OVC050 FM290500 14012KT
                       P6SM VCSH BKN050 OVC080 FM291000 12013KT
                       P6SM -RA BKN030 OVC050
                      TEMPO 2911/2914 13015G23KT=
201211281139 TAF KBLI 281139Z 2812/2912 VRB03KT P6SM BKN100 OVC200 FM282100
                       04005KT P6SM OVC070
                      PROB30 2821/2824 -RA FM290000 13010KT P6SM
                       -RA BKN050 OVC070 FM290200 14012KT P6SM
                       -RA BKN030 OVC050 FM290500 14012KT P6SM
                       VCSH BKN050 OVC080=
201211280539 TAF KBLI 280539Z 2806/2906 03005KT P6SM SCT100 BKN200 FM281400
                       02004KT P6SM BKN090 OVC200 FM281800 05006KT
                       P6SM BKN060 OVC100 FM282100 04005KT P6SM
                       VCSH OVC070 FM290000 13010KT P6SM -RA BKN050
                       OVC070=
201211272342 TAF KBLI 272342Z 2800/2824 03005KT P6SM SCT060 BKN200 FM281400
                       02004KT P6SM SCT060 BKN120 OVC200 FM282200
                       04005KT P6SM VCSH OVC070=
201211271742 TAF KBLI 271742Z 2718/2818 01003KT P6SM SCT060 BKN200 FM280900
                       02003KT P6SM SCT070 BKN120 OVC200=
201211271120 TAF KBLI 271120Z 2712/2812 00000KT P6SM MIFG BKN060 BKN200 FM271600
                       02003KT P6SM SCT060 BKN200 FM280400 VRB03KT
                       P6SM BKN070 OVC200=
201211270526 TAF KBLI 270526Z 2706/2806 00000KT P6SM BKN250 FM270800 00000KT
                       P6SM MIFG BKN250 FM271600 VRB03KT P6SM BKN250=
201211262333 TAF KBLI 262333Z 2700/2724 01010KT P6SM BKN250=
201211261720 TAF KBLI 261720Z 2618/2718 02003KT P6SM SCT250=
201211261120 TAF KBLI 261120Z 2612/2712 01003KT P6SM MIFG SCT250
                      TEMPO 2612/2615 1SM MIFG SCT001 SCT250 FM261500
                       01003KT P6SM MIFG SCT250
                      TEMPO 2615/2616 3SM BR SCT001 SCT250 FM261700
                       02005KT P6SM SCT250=
201211260520 TAF KBLI 260520Z 2606/2706 01003KT P6SM MIFG SCT250
                      TEMPO 2606/2610 1SM MIFG BKN001 BKN250 FM261000
                       01003KT P6SM MIFG SCT250
                      TEMPO 2610/2614 1SM MIFG BKN001 BKN250 FM261400
                       01003KT P6SM MIFG SCT250
                      TEMPO 2614/2616 3SM BR BKN001 BKN250 FM261600
                       01003KT P6SM SCT250=
201211260212 TAF AMD KBLI 260212Z 2602/2624 00000KT P6SM VCFG FEW040 SCT250
                       TEMPO 2602/2605 3/4SM BR VV002 FM260500
                       VRB03KT P6SM SCT250
                      TEMPO 2612/2616 2SM BR SCT002=
201211252322 TAF KBLI 252322Z 2600/2624 VRB03KT P6SM SCT040 FM260200 VRB03KT
                       P6SM SCT250
                      TEMPO 2612/2616 2SM BR SCT002=
201211251725 TAF KBLI 251725Z 2518/2618 00000KT P6SM BKN015 OVC035
                      TEMPO 2518/2520 5SM BR SCT003 FM252000 VRB03KT
                       P6SM SCT040 FM252100 VRB03KT P6SM SCT250=
201211251505 TAF AMD KBLI 251505Z 2515/2612 00000KT 5SM BR OVC022
                      TEMPO 2515/2518 1SM BR BKN002 OVC022 FM251800
                       00000KT P6SM OVC025 FM252000 36003KT P6SM
                       SCT250=
201211251121 TAF KBLI 251121Z 2512/2612 00000KT 5SM BR OVC022
                      TEMPO 2512/2515 1SM BR BKN002 OVC022 FM251600
                       00000KT P6SM OVC025
                      TEMPO 2516/2518 BKN015 OVC025 FM252000 36003KT
                       P6SM SCT250=
201211250530 TAF KBLI 250530Z 2506/2606 00000KT P6SM BCFG SKC
                      TEMPO 2506/2510 1/2SM FG BKN001 FM251000
                       00000KT 5SM BR SCT002
                      TEMPO 2510/2514 1/2SM FG OVC001 FM251400
                       00000KT 5SM BR SCT002
                      TEMPO 2514/2516 1/2SM FG OVC001 FM251800
                       00000KT P6SM SCT250=
201211250409 TAF AMD KBLI 250409Z 2504/2524 00000KT P6SM BCFG SKC
                      TEMPO 2504/2508 1/2SM FG BKN001 FM250800
                       00000KT 5SM BR SCT002
                      TEMPO 2508/2512 1/2SM FG OVC001 FM251200
                       00000KT 5SM BR SCT002
                      TEMPO 2512/2516 1/2SM FG OVC001 FM251700
                       00000KT P6SM SCT040 BKN250=
201211242335 TAF KBLI 242335Z 2500/2524 00000KT P6SM SCT250 FM250900 00000KT
                       P6SM SCT020
                      TEMPO 2512/2516 BKN020 FM251700 00000KT P6SM
                       SCT040 BKN250=
201211241720 TAF KBLI 241720Z 2418/2518 17005KT P6SM SCT040 FM242000 17005KT
                       P6SM BKN040 FM250200 00000KT P6SM SCT250
                       FM250900 00000KT P6SM OVC025 FM251700 00000KT
                       P6SM BKN040=
201211241143 TAF KBLI 241143Z 2412/2512 18004KT P6SM SCT050 FM241400 18003KT
                       P6SM SCT015 SCT250
                      TEMPO 2414/2417 BKN015 BKN250 FM242000 34003KT
                       P6SM SCT250=
201211240828 TAF AMD KBLI 240828Z 2408/2506 18005KT P6SM FEW045 FM241000 00000KT
                       P6SM VCFG SCT001
                      TEMPO 2410/2412 1/2SM BCFG BKN001 FM241200
                       00000KT 4SM BR BKN005
                      TEMPO 2412/2416 1/2SM BCFG OVC001 FM241600
                       00000KT P6SM BKN003 OVC007 FM242100 VRB03KT
                       P6SM SCT022 BKN050=
201211240536 TAF KBLI 240536Z 2406/2506 18005KT P6SM SCT010 BKN025 OVC040
                      TEMPO 2406/2409 5SM -SHRA BR BKN010 OVC025
                       FM240900 00000KT P6SM SCT010 OVC020 FM241200
                       00000KT 6SM BR BKN009 OVC015 FM241600 00000KT
                       P6SM SCT010 OVC020 FM242100 VRB03KT P6SM
                       SCT022 BKN050=
201211240216 TAF AMD KBLI 240216Z 2402/2424 18003KT P6SM OVC060
                      TEMPO 2402/2404 6SM -SHRA BR OVC015 FM240400
                       17003KT P6SM VCSH SCT020 BKN040 FM240800
                       VRB04KT 4SM BR OVC015 FM241900 VRB04KT P6SM
                       SCT022 BKN050=
201211232335 TAF KBLI 232335Z 2400/2424 16010G16KT P6SM VCSH BKN013 BKN020 OVC040
                       FM240300 17003KT P6SM VCSH SCT020 BKN040
                       FM240800 VRB04KT 4SM BR OVC015 FM241900
                       VRB04KT P6SM SCT022 BKN050=
201211231730 TAF KBLI 231730Z 2318/2418 15014G22KT P6SM SCT030 BKN045 OVC060
                       TEMPO 2318/2321 5SM -SHRA BR SCT020 OVC030
                       FM232100 16006KT P6SM -SHRA BKN018 OVC040
                       FM240300 17003KT P6SM VCSH SCT018 BKN040
                       FM241000 VRB03KT 3SM BR SCT018=
201211231130 TAF KBLI 231130Z 2312/2412 13014G26KT 6SM -RA BR SCT030 OVC040
                       FM231700 15011KT 6SM -SHRA BR SCT018 OVC030
                       FM232100 16006KT P6SM -SHRA BKN018 OVC040
                       FM240300 17003KT P6SM VCSH SCT018 BKN040
                       FM241000 VRB03KT 3SM BR SCT018=
201211230545 TAF KBLI 230545Z 2306/2406 04008KT P6SM BKN060 OVC080
                      TEMPO 2306/2309 -RA FM230900 15019G28KT 6SM
                       -RA BR SCT035 OVC045 FM231700 15009KT 6SM
                       -SHRA BR SCT018 OVC030 FM232100 16006KT
                       P6SM -SHRA BKN018 OVC040 FM240300 17003KT
                       P6SM VCSH SCT018 SCT040=
201211222350 TAF KBLI 222350Z 2300/2324 08005KT P6SM BKN080 OVC120 FM230400
                       11008KT P6SM SCT060 OVC080 FM230600 14013G21KT
                       P6SM SCT045 BKN060 OVC090 FM230900 15019G28KT
                       6SM -RA BR SCT035 OVC045=
201211221740 TAF KBLI 221740Z 2218/2318 08005KT P6SM BKN100 OVC200 FM230400
                       11008KT P6SM SCT060 OVC080 FM230600 14013G21KT
                       P6SM SCT045 BKN060 OVC090
                      PROB30 2306/2309 -RA FM230900 15019G28KT
                       6SM -RA BR SCT035 OVC045=
201211221253 TAF AMD KBLI 221253Z 2213/2312 08005KT 5SM BR BKN030 OVC200
                      TEMPO 2213/2215 1SM BR SCT002 SCT030 FM230600
                       14013G21KT P6SM SCT060 OVC080 FM230900 15019G28KT
                       6SM -RA BR SCT035 OVC045=
201211221120 TAF KBLI 221120Z 2212/2312 08005KT P6SM SCT090 OVC200
                      TEMPO 2212/2215 5SM BR FM230600 14013G21KT
                       P6SM SCT060 OVC080 FM230900 15019G28KT 6SM
                       -RA BR SCT035 OVC045=
201211220533 TAF KBLI 220533Z 2206/2306 15004KT P6SM FEW030 SCT200 FM221100
                       08005KT P6SM SCT100 BKN200
                      TEMPO 2211/2215 5SM BR=
201211220123 TAF AMD KBLI 220123Z 2201/2224 15005KT P6SM BKN025 OVC050 FM220300
                       VRB03KT P6SM BKN035 BKN060 BKN200 FM220600
                       VRB03KT 5SM MIFG FEW035 SCT060 SCT200 FM221800
                       10005KT P6SM SCT100 BKN200 FM222100 10008KT
                       P6SM SCT050 OVC100
                      PROB30 2221/2224 -RA OVC050=
201211212342 TAF KBLI 212342Z 2200/2224 17006KT P6SM -SHRA SCT020 BKN035 OVC050
                       TEMPO 2200/2204 3SM SHRA BKN020 OVC035 FM220400
                       VRB03KT P6SM VCSH SCT035 BKN060 BKN200 FM220600
                       VRB03KT 5SM MIFG SCT060 SCT200 FM221800
                       10005KT P6SM SCT100 BKN200 FM222100 10008KT
                       P6SM SCT050 OVC100
                      PROB30 2221/2224 -RA OVC050=
201211212300 TAF AMD KBLI 212300Z 2123/2218 VRB03KT P6SM -SHRA SCT015 OVC030
                       TEMPO 2123/2201 3SM SHRA BKN015 OVC030 FM220100
                       18010KT P6SM VCSH SCT030 BKN050 FM220600
                       18005KT P6SM SCT030 BKN150
                      TEMPO 2210/2214 3SM BR BKN010 FM221400 11006KT
                       P6SM SCT015 BKN120=
201211211801 TAF KBLI 211801Z 2118/2218 21010G20KT P6SM BKN035 OVC040 FM212100
                       20012G20KT P6SM VCSH BKN025 OVC045 FM220100
                       18010KT P6SM VCSH SCT030 BKN050 FM220600
                       18005KT P6SM SCT030 BKN150
                      TEMPO 2210/2214 3SM BR BKN010 FM221400 11006KT
                       P6SM SCT015 BKN120=
201211211411 TAF AMD KBLI 211411Z 2114/2212 18020G30KT 6SM -SHRA BR SCT020 OVC030
                       FM211600 19012KT P6SM -SHRA BKN025 BKN050
                       TEMPO 2119/2123 P6SM NSW SCT025 BKN050 FM220300
                       17005KT P6SM VCSH SCT025 BKN045 FM221000
                       16005KT P6SM SCT035 BKN120=
201211211135 TAF KBLI 211135Z 2112/2212 04005KT 6SM -SHRA BR SCT006 OVC030
                      TEMPO 2112/2116 5SM -RA BR BKN006 OVC015
                       FM211700 19012KT P6SM -SHRA BKN025 BKN050
                       TEMPO 2119/2123 P6SM NSW SCT025 BKN050 FM220300
                       17005KT P6SM VCSH SCT025 BKN045 FM221000
                       16005KT P6SM SCT035 BKN120=
201211210550 TAF KBLI 210550Z 2106/2206 16006KT P6SM VCSH SCT025 BKN035 FM211000
                       04005KT P6SM -RA SCT006 OVC025
                      TEMPO 2113/2116 5SM -RA BR BKN006 OVC015
                       FM211700 19012KT P6SM -SHRA BKN025 BKN050
                       TEMPO 2120/2124 P6SM NSW SCT025 BKN050 FM220300
                       17005KT P6SM VCSH SCT020 BKN040=
201211202336 TAF KBLI 202336Z 2100/2124 17019G29KT P6SM VCSH SCT025 BKN050 FM210400
                       15007KT P6SM VCSH SCT025 BKN050 FM210800
                       04005KT P6SM -RA BKN050 FM211500 19012KT
                       P6SM -SHRA BKN025 BKN050 FM211900 18008KT
                       P6SM VCSH SCT025 BKN050=
201211202111 TAF AMD KBLI 202111Z 2021/2118 14012G20KT P6SM BKN050 OVC180 FM202300
                       17016G24KT 6SM -RA BR OVC045 FM210100 17018G28KT
                       P6SM -SHRA SCT025 OVC035 FM210800 06005KT
                       P6SM VCSH SCT008 BKN025=
201211201746 TAF KBLI 201746Z 2018/2118 03006KT P6SM BKN050 OVC180 FM202100
                       11008KT P6SM SCT050 OVC180 FM202300 17016G24KT
                       6SM -RA BR OVC045 FM210100 17018G28KT P6SM
                       -SHRA SCT025 OVC035 FM210800 06005KT P6SM
                       VCSH SCT008 BKN025=
201211201140 TAF KBLI 201140Z 2012/2112 17009KT P6SM VCSH BKN035 BKN060 FM201400
                       10006KT P6SM SCT040 FM202100 17016G24KT
                       6SM -RA BR OVC045 FM210000 17018G28KT P6SM
                       -SHRA SCT025 OVC035 FM210800 06005KT P6SM
                       VCSH SCT008 BKN025=
201211200548 TAF KBLI 200548Z 2006/2106 17009KT P6SM VCSH SCT030 BKN060
                      TEMPO 2006/2010 -SHRA BKN030 FM201300 11008KT
                       P6SM SCT040 FM202000 17016G24KT 6SM -RA
                       BR OVC035 FM202300 17014G22KT P6SM -SHRA
                       SCT025 BKN035=
201211200014 TAF KBLI 200014Z 2000/2024 18010G20KT 5SM -RA BR SCT015 OVC020
                       TEMPO 2000/2003 5SM -SHRA BKN015 FM200400
                       17010G20KT P6SM -SHRA BKN020 OVC035 FM200800
                       16010KT P6SM VCSH BKN025 OVC035 FM201500
                       12010KT P6SM VCSH BKN020 OVC030 FM201800
                       16012G20KT P6SM -RA SCT020 OVC035=
201211192124 TAF AMD KBLI 192124Z 1921/2018 15010G20KT 5SM -RA BR OVC015
                      TEMPO 1921/2001 2SM +RA BR BKN004 FM200100
                       17012KT 4SM RA OVC025 FM200400 18014G24KT
                       P6SM -SHRA BKN030 BKN045 FM200800 16010KT
                       P6SM -SHRA BKN025 OVC035=
201211191746 TAF KBLI 191746Z 1918/2018 15010G20KT 5SM -RA BR SCT025 OVC045
                       TEMPO 1918/1922 3SM RA BR SCT015 OVC020
                       FM200000 17012KT 4SM RA OVC025 FM200400
                       18014G24KT P6SM -SHRA BKN030 BKN045 FM200800
                       16010KT P6SM -SHRA BKN025 OVC035=
201211191127 TAF KBLI 191127Z 1912/2012 15015G28KT P6SM -RA BKN025 OVC035 FM191800
                       15014G24KT 5SM RA BR OVC025 FM200000 17012KT
                       4SM RA OVC025 FM200400 18014G24KT P6SM -SHRA
                       BKN030 BKN045 FM200800 16010KT P6SM -SHRA
                       BKN030 BKN045=
201211190534 TAF KBLI 190534Z 1906/2006 14020G35KT P6SM -SHRA BKN035 OVC050
                       FM191000 15015G28KT P6SM -RA OVC035 FM191900
                       15012KT 5SM RA BR OVC030 FM200000 17008KT
                       4SM RA OVC025 FM200400 18012G20KT P6SM -SHRA
                       BKN030 BKN045=
201211182330 TAF KBLI 182330Z 1900/1924 15020G32KT P6SM -RA SCT025 OVC045 FM190100
                       15026G38KT P6SM -RA OVC022 FM190700 17015G25KT
                       P6SM -RA OVC025=
201211181735 TAF KBLI 181735Z 1818/1918 15018G28KT P6SM SCT025 OVC035
                      TEMPO 1818/1822 -SHRA BKN025 OVC035 FM182200
                       15020G32KT P6SM -RA BKN025 OVC045 FM190100
                       15026G38KT P6SM -RA OVC022 FM190700 17015G25KT
                       P6SM -RA OVC025 FM191600 16025G38KT P6SM
                       -RA OVC025=
201211181120 TAF KBLI 181120Z 1812/1912 16018G28KT P6SM -SHRA BKN025 OVC035
                       FM182000 15020G32KT P6SM -RA BKN025 OVC045
                       FM190000 15020G32KT P6SM -RA OVC022=
201211180527 TAF KBLI 180527Z 1806/1906 17012G24KT P6SM SCT030 BKN045
                      TEMPO 1806/1810 -SHRA BKN022 OVC035 FM181000
                       16012G22KT P6SM -SHRA BKN030 OVC045 FM182200
                       15020G32KT P6SM -RA BKN030 OVC045 FM190000
                       15020G32KT P6SM -RA OVC022=
201211172328 TAF KBLI 172328Z 1800/1824 18012G22KT P6SM SCT025 BKN045
                      TEMPO 1800/1804 -SHRA BKN025 OVC045 FM180400
                       17012G24KT P6SM SCT030 BKN045
                      TEMPO 1804/1808 -SHRA BKN030 OVC045 FM180800
                       16012G22KT P6SM VCSH BKN030 OVC045 FM182200
                       15020G34KT P6SM -RA BKN030 OVC045=
201211172215 TAF AMD KBLI 172215Z 1722/1818 22013G22KT 5SM -RA BKN008 OVC020
                       FM172300 18012G22KT P6SM -SHRA BKN035 OVC050
                       FM180200 17012G20KT P6SM SCT030 OVC050
                      TEMPO 1802/1806 -SHRA BKN030 OVC045 FM180900
                       16010KT P6SM -SHRA BKN035 BKN050=
201211172104 TAF AMD KBLI 172104Z 1721/1818 22013G22KT 5SM -RA OVC035 FM172300
                       18012G22KT P6SM -SHRA BKN035 OVC050 FM180200
                       17012G20KT P6SM SCT030 OVC050
                      TEMPO 1802/1806 -SHRA BKN030 OVC045 FM180900
                       16010KT P6SM -SHRA BKN035 BKN050=
201211171737 TAF KBLI 171737Z 1718/1818 16014G24KT P6SM -RA BKN050 OVC070 FM171900
                       16014G24KT P6SM -RA BKN035 OVC050 FM172100
                       18013G22KT P6SM -SHRA BKN040 OVC050 FM180200
                       17012G20KT P6SM SCT030 OVC050
                      TEMPO 1802/1806 -SHRA BKN030 OVC045 FM180900
                       16010KT P6SM -SHRA BKN035 BKN050=
201211171509 TAF AMD KBLI 171509Z 1715/1812 16010G20KT P6SM -SHRA BKN060 OVC080
                       FM171900 16014G24KT P6SM -RA SCT040 OVC050
                       FM172100 18013G22KT P6SM -RA BKN035 OVC050
                       FM180200 17012G20KT P6SM -RA BKN030 OVC050
                       FM180900 16010KT P6SM -SHRA BKN035 BKN050=
201211171120 TAF KBLI 171120Z 1712/1812 13014G24KT P6SM -SHRA BKN060 OVC080
                       FM171900 14014G24KT P6SM -RA SCT040 OVC050
                       FM172100 18013G22KT P6SM -RA BKN035 OVC050
                       FM180200 17012G20KT P6SM -RA BKN030 OVC050
                       FM180900 16010KT P6SM -SHRA BKN035 BKN050=
201211170849 TAF AMD KBLI 170849Z 1709/1806 13014G22KT P6SM -RA SCT030 OVC050
                       TEMPO 1709/1712 -RA OVC030 FM171200 13013G22KT
                       P6SM -RA BKN030 OVC050 FM171800 15015G25KT
                       5SM -SHRA OVC025 FM172000 17018G28KT 5SM
                       -SHRA BR FEW010 OVC025 FM180200 18015G22KT
                       P6SM -RA SCT010 OVC025=
201211170549 TAF KBLI 170549Z 1706/1806 VRB03KT P6SM -RA SCT018 OVC030
                      TEMPO 1709/1712 5SM BR BKN018 OVC030 FM171200
                       11009KT P6SM -RA BKN030 OVC050 FM171800
                       15015G25KT 5SM -SHRA OVC025 FM172000 17018G28KT
                       5SM -SHRA BR FEW010 OVC025 FM180200 18015G22KT
                       P6SM -RA SCT010 OVC025=
201211162342 TAF KBLI 162342Z 1700/1724 VRB03KT P6SM SCT030 OVC050
                      TEMPO 1700/1704 -RA FM170400 VRB03KT 5SM
                       -RA BR SCT018 OVC030
                      TEMPO 1704/1708 BKN018 OVC030 FM171200 11009KT
                       P6SM -RA BKN030 OVC050 FM171800 15015G25KT
                       5SM -RA OVC025 FM172000 17018G28KT 5SM -RA
                       BR FEW010 OVC025=
201211162107 TAF AMD KBLI 162107Z 1621/1718 VRB03KT P6SM BKN050 BKN100 BKN200
                       FM170200 12006KT P6SM BKN050 OVC100 FM171200
                       12013KT P6SM -RA SCT028 OVC050=
201211161752 TAF KBLI 161752Z 1618/1718 VRB03KT P6SM VCFG FEW004 BKN050 OVC120
                       FM162000 15008KT P6SM BKN050 BKN120 BKN200
                       FM170200 12006KT P6SM BKN050 OVC100
                      PROB30 1703/1709 -RA FM171200 12013KT P6SM
                       -RA SCT028 OVC050=
201211161603 TAF AMD KBLI 161603Z 1616/1712 00000KT P6SM BCFG FEW002 BKN050
                       OVC090
                      TEMPO 1616/1617 4SM BR FM161700 VRB03KT P6SM
                       BKN050 OVC090 FM162200 12006KT P6SM VCSH
                       OVC060 FM170100 13005KT P6SM -SHRA BKN030
                       OVC050 FM170600 14008KT P6SM -RA OVC030=
201211161600 TAF AMD KBLI 161600Z 1616/1712 00000KT 1/2SM FG BKN002 BKN050 OVC090
                       FM161700 VRB03KT 3SM BR SCT005 BKN050 OVC090
                       FM161800 VRB03KT P6SM FEW010 SCT050 OVC090
                       FM162200 12006KT P6SM VCSH OVC060 FM170100
                       13005KT P6SM -SHRA BKN030 OVC050 FM170600
                       14008KT P6SM -RA OVC030=
201211161521 TAF AMD KBLI 161521Z 1615/1712 00000KT 1/4SM FG VV002 FM161700
                       VRB03KT 1 1/2SM BR OVC005 FM161900 VRB03KT
                       5SM BR BKN009 BKN090 OVC130 FM162200 12006KT
                       P6SM VCSH OVC060 FM170100 13005KT P6SM -SHRA
                       BKN030 OVC050 FM170600 14008KT P6SM -RA
                       OVC030=
201211161142 TAF KBLI 161142Z 1612/1712 00000KT 2SM BR OVC003
                      TEMPO 1612/1615 1/4SM FG VV002 FM161500 VRB03KT
                       P6SM VCFG SCT008 BKN090 OVC150
                      TEMPO 1615/1617 2SM BR BKN008 FM161700 12006KT
                       P6SM SCT050 OVC080 FM162200 12006KT P6SM
                       VCSH OVC060 FM170100 13005KT P6SM -SHRA
                       BKN030 OVC050 FM170600 14008KT P6SM -RA
                       OVC030=
201211160616 TAF AMD KBLI 160616Z 1606/1706 00000KT 2SM BR OVC002
                      TEMPO 1606/1610 1/4SM FG VV002 FM161000 00000KT
                       2SM BR OVC003
                      TEMPO 1610/1614 1/4SM FG VV002 FM161600 VRB03KT
                       P6SM VCFG SCT008 BKN090 OVC150 FM161700
                       09006KT P6SM SCT050 OVC080 FM162200 12006KT
                       P6SM VCSH OVC060 FM170100 11005KT P6SM -RA
                       BKN025 OVC050=
201211160539 TAF KBLI 160539Z 1606/1706 00000KT 6SM BR SCT003 SCT050
                      TEMPO 1607/1609 2SM BR BKN003 FM160900 00000KT
                       3SM BR OVC003
                      TEMPO 1609/1613 1/2SM FG VV002 FM161600 VRB03KT
                       P6SM VCFG SCT008 BKN090 OVC150 FM161700
                       09006KT P6SM SCT050 OVC080 FM162200 12006KT
                       P6SM VCSH OVC060 FM170100 11005KT P6SM -RA
                       BKN025 OVC050=
201211160313 TAF AMD KBLI 160313Z 1603/1624 VRB03KT 6SM BR SCT060 SCT200
                      TEMPO 1603/1605 2SM BR FM160500 00000KT 2SM
                       BR OVC003
                      TEMPO 1608/1612 1/4SM FG VV001 FM161500 VRB03KT
                       P6SM VCFG SCT008 BKN090 OVC150 FM161800
                       09006KT P6SM SCT050 OVC090
                      PROB30 1618/1624 -RA OVC050=
201211152350 TAF KBLI 152350Z 1600/1624 02005KT P6SM SCT200 FM160200 VRB03KT
                       6SM BR SCT200 FM160600 00000KT 2SM BR OVC003
                       TEMPO 1608/1612 1/4SM FG VV001 FM161500
                       VRB03KT P6SM VCFG SCT008 BKN090 OVC150 FM161800
                       09006KT P6SM SCT050 OVC090
                      PROB30 1618/1624 -RA OVC050=
201211152052 TAF AMD KBLI 152052Z 1521/1618 02006KT P6SM VCFG FEW005 SCT200
                       FM152300 02006KT P6SM FEW009 SCT200 FM160200
                       VRB03KT P6SM BKN200 FM160600 VRB03KT 2SM
                       BR OVC003
                      TEMPO 1608/1612 1/4SM FG VV001 FM161500 VRB03KT
                       P6SM VCFG SCT007 SCT080 OVC150=
201211151745 TAF KBLI 151745Z 1518/1618 VRB03KT 3/4SM BR OVC003
                      TEMPO 1518/1520 1/4SM FG VV001 FM152000 02006KT
                       5SM BR BKN006 FM152100 02006KT P6SM SCT012
                       SCT200 FM160200 VRB03KT P6SM BKN200 FM160600
                       VRB03KT 2SM BR OVC003
                      TEMPO 1608/1612 1/4SM FG VV001 FM161500 VRB03KT
                       P6SM VCFG SCT007 SCT080 OVC150=
201211151700 TAF AMD KBLI 151700Z 1517/1612 VRB03KT 1/4SM FG VV002 FM151800
                       02003KT P6SM BKN007 OVC012 FM152200 36004KT
                       P6SM BKN040 FM152300 35005KT P6SM SCT040
                       FM160300 VRB03KT P6SM SCT040 BKN150=
201211151509 TAF AMD KBLI 151509Z 1515/1612 02003KT 1/2SM FG VV001 FM151700
                       02003KT 3SM BR BKN003 OVC010 FM151800 02003KT
                       P6SM BKN007 OVC012 FM152200 36004KT P6SM
                       BKN040 FM152300 35005KT P6SM SCT040 FM160300
                       VRB03KT P6SM SCT040 BKN150=
201211151247 TAF AMD KBLI 151247Z 1513/1612 02003KT 1/4SM FG VV001 FM151600
                       02003KT 3SM BR BKN003 OVC010 FM151800 02003KT
                       P6SM BKN007 OVC012 FM152200 36004KT P6SM
                       BKN040 FM152300 35005KT P6SM SCT040 FM160300
                       VRB03KT P6SM SCT040 BKN150=
201211151130 TAF KBLI 151130Z 1512/1612 00000KT 1SM BR BKN001 OVC008
                      TEMPO 1512/1516 1/2SM FG OVC001 FM151800
                       02003KT P6SM BKN007 OVC012 FM152200 36004KT
                       P6SM BKN040 FM152300 35005KT P6SM SCT040
                       FM160300 VRB03KT P6SM SCT040 BKN150=
201211150749 TAF AMD KBLI 150749Z 1508/1606 00000KT 2SM BR BKN002 OVC008
                      TEMPO 1508/1512 1/4SM FG VV001 FM151200 00000KT
                       1SM BR BKN001 OVC008
                      TEMPO 1512/1516 1/2SM FG OVC001 FM151800
                       02003KT P6SM BKN007 OVC012 FM152200 36004KT
                       P6SM BKN040 FM152300 35005KT P6SM SCT040
                       FM160300 VRB03KT P6SM SCT040 BKN150=
201211150520 TAF KBLI 150520Z 1506/1606 VRB03KT 4SM BR SCT003 SCT040
                      TEMPO 1506/1508 1SM BR OVC003 FM150800 00000KT
                       3SM BR SCT003 OVC008
                      TEMPO 1508/1512 1/2SM FG OVC003 FM151200
                       00000KT 3SM BR BKN003 OVC010
                      TEMPO 1512/1516 1/2SM FG OVC001 FM151800
                       02003KT P6SM BKN007 OVC012 FM152200 36004KT
                       P6SM BKN040 FM152300 35005KT P6SM SCT040
                       FM160300 VRB03KT P6SM SCT040 BKN150=
201211142320 TAF KBLI 142320Z 1500/1524 VRB03KT P6SM BKN025 BKN040 FM150200
                       VRB03KT P6SM SCT025 BKN040 FM150700 00000KT
                       P6SM OVC008 FM151000 00000KT 3SM BR BKN003
                       OVC010
                      TEMPO 1512/1516 1/2SM FG OVC001 FM151800
                       02003KT P6SM BKN007 OVC012 FM152200 36004KT
                       P6SM BKN040=
201211142110 TAF AMD KBLI 142110Z 1421/1518 VRB03KT P6SM BKN020 BKN040 FM142300
                       VRB03KT P6SM SCT025 BKN040 FM150700 00000KT
                       P6SM OVC020 FM151200 00000KT 3SM BR BKN004
                       OVC010=
201211141747 TAF KBLI 141747Z 1418/1518 VRB03KT P6SM SCT005 OVC025
                      TEMPO 1418/1420 BKN005 OVC025 FM142100 VRB03KT
                       P6SM BKN025 BKN040 FM142300 VRB03KT P6SM
                       SCT025 BKN040 FM150700 00000KT P6SM OVC020
                       FM151200 00000KT 3SM BR BKN004 OVC010=
201211141424 TAF AMD KBLI 141424Z 1414/1512 VRB03KT P6SM SCT004 OVC025
                      TEMPO 1414/1418 2SM BR BKN004 OVC025 FM142100
                       VRB03KT P6SM BKN025 FM150000 VRB03KT P6SM
                       SCT025=
201211141205 TAF AMD KBLI 141205Z 1412/1512 VRB03KT P6SM SCT008 OVC015
                      TEMPO 1412/1416 1SM BR BKN008 FM142100 VRB03KT
                       P6SM BKN025 FM150000 VRB03KT P6SM SCT025=
201211141126 TAF KBLI 141126Z 1412/1512 VRB03KT P6SM SCT008 OVC015
                      TEMPO 1412/1416 4SM BR BKN008 FM142100 VRB03KT
                       P6SM BKN025 FM150000 VRB03KT P6SM SCT025=
201211140521 TAF KBLI 140521Z 1406/1506 VRB03KT 5SM BR VCSH SCT003 OVC015
                      TEMPO 1406/1410 2SM BR BKN003 OVC015 FM141500
                       VRB03KT P6SM OVC015 FM142100 VRB03KT P6SM
                       BKN030=
201211132356 TAF AMD KBLI 132356Z 1400/1424 VRB03KT P6SM SCT003 OVC015
                      TEMPO 1400/1402 5SM -RA BR BKN003 OVC015
                       FM140200 VRB03KT 5SM -RA BR SCT003 OVC015
                       TEMPO 1402/1406 BKN003 OVC015 FM140900 VRB03KT
                       P6SM VCSH OVC015 FM141200 VRB03KT P6SM OVC015
                       FM142000 VRB03KT P6SM BKN025 BKN200=
201211132340 TAF KBLI 132340Z 1400/1424 VRB03KT P6SM SCT005 OVC015
                      TEMPO 1400/1402 6SM -RA BR FM140200 VRB03KT
                       6SM -RA BR SCT005 OVC015 FM140900 VRB03KT
                       P6SM VCSH OVC015 FM141200 VRB03KT P6SM OVC015
                       FM142000 VRB03KT P6SM BKN025 BKN200=
201211131720 TAF KBLI 131720Z 1318/1418 VRB03KT P6SM VCSH OVC015 FM132000 17006KT
                       5SM -RA BR OVC015 FM140000 17008KT P6SM
                       VCSH BKN020 OVC050
                      TEMPO 1400/1404 -RA FM140600 VRB03KT P6SM
                       VCSH BKN025 BKN050 FM141200 VRB03KT 5SM
                       BR OVC011=
201211131514 TAF AMD KBLI 131514Z 1315/1412 VRB03KT 5SM BR SCT003 OVC050
                      TEMPO 1315/1317 2SM -RA BR VV001 FM131800
                       15005KT P6SM -SHRA SCT020 OVC030 FM140600
                       20003KT P6SM OVC025=
201211131134 TAF KBLI 131134Z 1312/1412 VRB03KT P6SM -SHRA SCT012 BKN030 OVC050
                       TEMPO 1312/1316 5SM -SHRA BR BKN012 FM131600
                       15005KT P6SM -SHRA SCT020 OVC030 FM140600
                       20003KT P6SM OVC025=
201211130523 TAF KBLI 130523Z 1306/1406 VRB03KT P6SM -SHRA SCT020 OVC030
                      TEMPO 1306/1310 BKN020 FM131000 VRB03KT P6SM
                       -SHRA OVC020 FM131400 VRB03KT P6SM -SHRA
                       OVC012 FM131800 15008KT P6SM -SHRA OVC020=
201211122345 TAF KBLI 122345Z 1300/1324 17006KT P6SM VCSH FEW035 BKN060 OVC090
                       FM130600 VRB03KT P6SM OVC035
                      TEMPO 1306/1309 -RA OVC028 FM130900 VRB03KT
                       6SM -RA BR OVC022 FM131200 VRB03KT 4SM -RA
                       BR OVC012 FM131800 15008KT 5SM -RA BR OVC020=
201211122113 TAF AMD KBLI 122113Z 1221/1318 VRB03KT P6SM VCSH OVC020 FM130000
                       VRB03KT P6SM BKN030 OVC060 FM130600 VRB03KT
                       P6SM OVC022
                      PROB30 1306/1312 5SM -RA BR OVC015 FM131200
                       VRB03KT 4SM -RA BR FEW009 OVC015=
201211121736 TAF KBLI 121736Z 1218/1318 VRB03KT P6SM OVC015 FM130000 VRB03KT
                       P6SM BKN025 OVC060 FM130600 VRB03KT P6SM
                       OVC022
                      PROB30 1306/1312 5SM -RA BR OVC015 FM131200
                       VRB03KT 4SM -RA BR FEW009 OVC015=
201211121346 TAF AMD KBLI 121346Z 1214/1312 VRB03KT P6SM SCT003 OVC019
                      TEMPO 1214/1216 3SM -SHRA BR BKN003 OVC019
                       FM121600 05007KT P6SM OVC025 FM130000 14005KT
                       P6SM VCSH OVC020=
201211121251 TAF AMD KBLI 121251Z 1213/1312 35003KT P6SM OVC019
                      TEMPO 1213/1216 3SM -SHRA BR FM121600 05007KT
                       P6SM OVC025 FM130000 14005KT P6SM VCSH OVC020=
201211121129 TAF KBLI 121129Z 1212/1312 01006KT P6SM -SHRA OVC020
                      TEMPO 1212/1216 5SM -SHRA SCT015 FM121600
                       05007KT P6SM OVC025 FM130000 14005KT P6SM
                       VCSH OVC020=
201211120523 TAF KBLI 120523Z 1206/1306 11012KT 5SM -RA BR OVC030 FM120900 14012G20KT
                       5SM -RA BR SCT015 OVC025 FM121200 14009KT
                       5SM -RA OVC018 FM121800 14006KT P6SM OVC025=
201211120024 TAF AMD KBLI 120024Z 1200/1224 07008KT P6SM OVC035
                      TEMPO 1200/1203 -RA OVC028 FM120300 09008KT
                       5SM -RA BR OVC025 FM120600 11012KT 5SM -RA
                       BR OVC025 FM120900 14012G20KT 5SM -RA BR
                       OVC018 FM121200 14009KT 5SM -RA OVC018 FM121800
                       14006KT P6SM OVC022
                      PROB30 1218/1224 -RA=
201211112348 TAF KBLI 112348Z 1200/1224 04008KT P6SM -RA OVC025 FM120300 07008KT
                       5SM -RA BR OVC025 FM120600 11012KT 5SM -RA
                       BR OVC025 FM120900 14012G20KT 5SM -RA BR
                       OVC018 FM121200 14009KT 5SM -RA OVC018 FM121800
                       14006KT P6SM OVC022
                      PROB30 1218/1224 -RA=
201211112132 TAF AMD KBLI 112132Z 1122/1218 03006KT P6SM -RA OVC025 FM120300
                       08011KT 5SM -RA BR OVC025 FM120900 14013KT
                       5SM -RA BR OVC020 FM121500 14007KT P6SM
                       OVC020
                      PROB30 1215/1218 -RA=
201211111738 TAF KBLI 111738Z 1118/1218 02006KT P6SM VCSH OVC035 FM112000 05008KT
                       P6SM SCT022 OVC035
                      TEMPO 1120/1122 4SM -RASN BKN022 OVC035 FM112200
                       08011KT P6SM -RA OVC025 FM120300 08011KT
                       5SM -RA BR OVC025 FM120900 14013KT 5SM -RA
                       BR OVC020 FM121500 14007KT P6SM OVC020
                      PROB30 1215/1218 -RA=
201211111607 TAF AMD KBLI 111607Z 1116/1212 02006KT P6SM VCSH OVC035 FM111800
                       07008KT P6SM FEW011 OVC025
                      TEMPO 1118/1120 4SM -RASN FM112000 11012KT
                       5SM -RA BR OVC025 FM120000 14015G25KT P6SM
                       -RA BKN030 OVC050 FM120600 18005KT P6SM
                       -RA OVC025=
201211111123 TAF KBLI 111123Z 1112/1212 VRB04KT P6SM SCT120 BKN200 FM111800
                       13008KT P6SM BKN090 BKN120 OVC200 FM112100
                       14012KT P6SM VCSH BKN040 OVC070 FM120000
                       14015G25KT P6SM -RA BKN030 OVC050 FM120600
                       18005KT P6SM -RA OVC025=
201211110524 TAF KBLI 110524Z 1106/1206 VRB04KT P6SM BKN200 FM111800 13008KT
                       P6SM BKN120 OVC200 FM120000 10008KT P6SM
                       -RA BKN030 OVC050=
201211102324 TAF KBLI 102324Z 1100/1124 02009KT P6SM SKC FM110400 11003KT P6SM
                       SCT200 FM111800 13008KT P6SM BKN120 OVC200=
201211101727 TAF KBLI 101727Z 1018/1118 01009KT P6SM SKC FM110600 18003KT P6SM
                       SCT060 SCT120 BKN200=
201211101122 TAF KBLI 101122Z 1012/1112 02010G18KT P6SM SCT080 FM101500 02007KT
                       P6SM SCT080 FM110600 18003KT P6SM SCT060
                       SCT150 BKN200=
201211100520 TAF KBLI 100520Z 1006/1106 02010G18KT P6SM SCT070 FM101200 02005KT
                       P6SM FEW070=
201211092324 TAF KBLI 092324Z 1000/1024 02006G18KT P6SM SKC FM100200 02005KT
                       P6SM SKC=
201211091726 TAF KBLI 091726Z 0918/1018 01008G16KT P6SM SKC FM100200 02005KT
                       P6SM SKC=
201211091120 TAF KBLI 091120Z 0912/1012 35009KT P6SM SKC FM091800 04010G18KT
                       P6SM SKC FM100200 02005KT P6SM SKC=
201211090520 TAF KBLI 090520Z 0906/1006 36006KT P6SM SKC FM091800 04012G20KT
                       P6SM SKC FM100200 02005KT P6SM SKC=
201211090416 TAF AMD KBLI 090416Z 0904/0924 36009KT P6SM SKC FM091800 04012G20KT
                       P6SM SKC=
201211082320 TAF KBLI 082320Z 0900/0924 02012G22KT P6SM SKC FM090700 04012G22KT
                       P6SM SKC=
201211082019 TAF AMD KBLI 082019Z 0820/0918 01014G24KT P6SM SKC FM090700 04012G22KT
                       P6SM SKC=
201211081753 TAF KBLI 081753Z 0818/0918 02014KT P6SM SCT050 FM082300 02016G26KT
                       P6SM SKC FM090700 02014KT P6SM SKC FM091300
                       02008KT P6SM SKC=
201211081120 TAF KBLI 081120Z 0812/0912 01005KT P6SM SKC FM081800 02013KT P6SM
                       SCT050 FM082300 02016G21KT P6SM SKC FM090700
                       02011KT P6SM SKC=
201211080533 TAF KBLI 080533Z 0806/0906 02007KT P6SM SCT050 BKN080 FM081800
                       02013KT P6SM SCT050 FM090200 02013KT P6SM
                       SKC=
201211072320 TAF KBLI 072320Z 0800/0824 14007KT P6SM SCT040 FM080600 VRB04KT
                       P6SM BKN040 FM081600 04012KT P6SM SCT050=
201211071720 TAF KBLI 071720Z 0718/0818 17007KT P6SM SCT040 FM080000 16008KT
                       P6SM BKN040 FM081700 04006KT P6SM BKN060=
201211071352 TAF AMD KBLI 071352Z 0714/0812 16006KT P6SM FEW030 FM071800 17009KT
                       P6SM VCSH BKN040 FM080400 04004KT P6SM SCT040
                       SCT080=
201211071120 TAF KBLI 071120Z 0712/0812 16006KT P6SM VCSH SCT025 SCT070 FM071800
                       17009KT P6SM VCSH BKN040 FM080400 04004KT
                       P6SM SCT040 SCT080=
201211070528 TAF KBLI 070528Z 0706/0806 18008KT P6SM SCT025 FM071000 18008KT
                       P6SM VCSH BKN025 FM071800 17009KT P6SM BKN040
                       FM080400 04004KT P6SM SCT040 SCT080=
201211070307 TAF AMD KBLI 070307Z 0703/0724 19010G17KT P6SM FEW022 BKN027 OVC045
                       FM071200 18008KT P6SM VCSH BKN025=
201211062320 TAF KBLI 062320Z 0700/0724 23010KT P6SM SCT015 OVC050
                      TEMPO 0700/0703 5SM -SHRA BKN015 OVC040 FM070300
                       23012G22KT P6SM -SHRA BKN020 BKN050 FM071200
                       18008KT P6SM VCSH BKN025=
201211061723 TAF KBLI 061723Z 0618/0718 VRB03KT P6SM BKN035 BKN080 FM061900
                       16010KT P6SM -RA BKN035 OVC050 FM070000
                       17012G22KT P6SM -SHRA BKN025 OVC050 FM071200
                       20010KT P6SM VCSH BKN030=
201211061614 TAF AMD KBLI 061614Z 0616/0712 VRB03KT P6SM SCT040 BKN080
                      TEMPO 0616/0619 BKN035 OVC050 FM061900 16010KT
                       P6SM -RA BKN035 OVC050 FM070000 17012G22KT
                       P6SM -SHRA BKN030 OVC070=
201211061330 TAF AMD KBLI 061330Z 0614/0712 VRB03KT P6SM VCSH OVC040
                      TEMPO 0614/0616 5SM -RA BR FM061600 29002KT
                       3SM -RA BR OVC025 FM070000 17012G22KT P6SM
                       -SHRA BKN030 OVC070=
201211061135 TAF KBLI 061135Z 0612/0712 36003KT 5SM BR SCT003 OVC080
                      TEMPO 0612/0616 2SM -RA BR BKN003 OVC030
                       FM061600 29002KT 3SM -RA BR OVC025 FM070000
                       17012G22KT P6SM -SHRA BKN030 OVC070=
201211060535 TAF KBLI 060535Z 0606/0706 00000KT P6SM SCT010 SCT120 BKN250 FM060800
                       04006KT P6SM SCT003 BKN120
                      TEMPO 0610/0612 3SM BR BKN003 BKN100 FM061200
                       16006KT P6SM SCT005 BKN080 FM061800 16012KT
                       P6SM SCT020 BKN040 OVC080 FM062200 16012G22KT
                       P6SM -RA BKN020 OVC040=
201211052320 TAF KBLI 052320Z 0600/0624 VRB03KT P6SM BKN200 FM060600 04006KT
                       P6SM SCT003 BKN120
                      TEMPO 0608/0612 3SM BR BKN003 BKN100 FM061200
                       16006KT P6SM SCT005 BKN080 FM061800 16012KT
                       P6SM SCT020 BKN040 OVC080 FM062200 16012G22KT
                       P6SM -RA BKN020 OVC040=
201211051720 TAF KBLI 051720Z 0518/0618 VRB03KT P6SM SCT040 BKN200 FM060400
                       04006KT P6SM BKN120
                      TEMPO 0606/0610 3SM BR SCT003 BKN100 FM061000
                       04006KT P6SM SCT003 BKN100
                      TEMPO 0610/0614 3SM BR BKN003 BKN100 FM061400
                       VRB03KT P6SM SCT005 BKN050 OVC100=
201211051130 TAF KBLI 051130Z 0512/0612 19004KT P6SM BKN200
                      TEMPO 0514/0516 2SM BR FM052000 VRB04KT P6SM
                       SCT040 BKN250=
201211050535 TAF KBLI 050535Z 0506/0606 18009KT P6SM -RA SCT004 BKN019 OVC060
                       TEMPO 0512/0516 OVC008 FM052000 VRB04KT
                       P6SM SCT030 BKN150=
201211042320 TAF KBLI 042320Z 0500/0524 15020G30KT P6SM -RA OVC025
                      TEMPO 0500/0504 4SM -RA BR OVC020 FM050600
                       23010KT P6SM -SHRA BKN015 OVC030 FM050900
                       VRB04KT P6SM VCSH BKN015 FM051800 36006KT
                       P6SM SCT030 BKN150=
201211042032 TAF AMD KBLI 042032Z 0421/0518 16012G20KT P6SM OVC025 FM042200
                       18012G20KT P6SM -RA OVC025 FM050600 21010KT
                       P6SM VCSH BKN025 FM051600 21005KT P6SM BKN030=
201211041730 TAF KBLI 041730Z 0418/0518 VRB03KT P6SM OVC022 FM042200 17010KT
                       P6SM -RA OVC020 FM051600 21005KT P6SM BKN030=
201211041339 TAF AMD KBLI 041339Z 0414/0512 VRB03KT P6SM VCSH OVC020 FM041600
                       16007KT P6SM VCSH SCT025 OVC050 FM042200
                       17008G16KT P6SM -RA OVC025 FM050500 19009KT
                       P6SM -RA OVC015=
201211041121 TAF KBLI 041121Z 0412/0512 07003KT P6SM VCSH SCT022 OVC029
                      TEMPO 0412/0416 -RA BKN018 OVC040 FM041600
                       16007KT P6SM VCSH SCT025 OVC050 FM042200
                       17008G16KT P6SM -RA OVC025 FM050500 19009KT
                       P6SM -RA OVC015=
201211040520 TAF KBLI 040520Z 0406/0506 17006KT P6SM -RA BKN070 OVC120 FM041400
                       16007KT P6SM VCSH SCT025 OVC050 FM042200
                       17008G16KT P6SM -RA OVC025=
201211032359 TAF KBLI 032359Z 0400/0424 20006KT P6SM BKN015 OVC025
                      TEMPO 0400/0403 5SM -RA BR OVC015 FM040400
                       16008KT P6SM VCSH OVC020 FM040900 VRB04KT
                       4SM -RA BR OVC015 FM041700 17006KT P6SM
                       VCSH BKN025 OVC035=
201211031756 TAF KBLI 031756Z 0318/0418 16010G20KT P6SM OVC025 FM040400 18005KT
                       5SM BR VCSH OVC015 FM041400 14005KT P6SM
                       OVC020=
201211031301 TAF AMD KBLI 031301Z 0313/0412 15013KT P6SM OVC025
                      TEMPO 0313/0315 15013G22KT -RA FM031500 15013KT
                       6SM -RA OVC025 FM040400 18003KT 6SM BR VCSH
                       OVC015=
201211031229 TAF AMD KBLI 031229Z 0312/0412 15009KT P6SM OVC028
                      TEMPO 0312/0314 -RA FM031400 17005KT 6SM
                       -RA OVC025 FM040400 18003KT 6SM BR VCSH
                       OVC015=
201211031120 TAF KBLI 031120Z 0312/0412 00000KT P6SM OVC035 FM031400 17005KT
                       6SM -RA OVC025 FM040400 18003KT 6SM BR VCSH
                       OVC015=
201211030529 TAF KBLI 030529Z 0306/0406 10007KT P6SM -RA FEW040 BKN060 OVC080
                       FM031200 15012KT 4SM -RA OVC015 FM032200
                       19007KT P6SM VCSH OVC025=
201211022320 TAF KBLI 022320Z 0300/0324 14008KT P6SM BKN060 OVC100 FM030300
                       16012KT P6SM -RA OVC040 FM031400 18012KT
                       P6SM -SHRA OVC030 FM031800 20006KT P6SM
                       VCSH BKN025 BKN050=
201211021823 TAF KBLI 021823Z 0218/0318 VRB03KT P6SM BKN035 BKN150
                      TEMPO 0218/0221 SCT040 BKN150 FM030000 17008KT
                       P6SM -RA OVC050 FM031000 18008KT P6SM -RA
                       OVC030 AMD NOT SKED=
201211021720 TAF KBLI 021720Z 0218/0318 VRB03KT P6SM BKN035 BKN150
                      TEMPO 0218/0221 SCT040 BKN150 FM030000 17008KT
                       P6SM -RA OVC050 FM031000 18008KT P6SM -RA
                       OVC030=
201211021120 TAF KBLI 021120Z 0212/0312 14005KT P6SM OVC030 FM021800 16006KT
                       P6SM SCT025 OVC090 FM022300 19008G18KT P6SM
                       OVC070 FM030200 15012G21KT P6SM -RA OVC045
                       FM030600 16012G21KT P6SM -RA BKN025 OVC045=
201211020528 TAF KBLI 020528Z 0206/0306 00000KT P6SM VCSH OVC019 FM020900 16004KT
                       P6SM OVC020 FM021800 16005KT P6SM SCT025
                       OVC090 FM030100 19005KT P6SM OVC070 FM030200
                       15005KT P6SM -RA OVC045=
201211012320 TAF KBLI 012320Z 0200/0224 VRB03KT P6SM BKN025 FM020800 18005KT
                       P6SM BKN020 FM021700 14005KT P6SM SCT020
                       BKN100 FM022200 16007KT P6SM OVC080=
201211012102 TAF AMD KBLI 012102Z 0121/0218 00000KT P6SM BKN025 FM012300 17006KT
                       P6SM SCT030 BKN050 FM020900 15005KT P6SM
                       BKN015 BKN040 FM021700 15005KT P6SM SCT020
                       SCT050 BKN120=
201211011723 TAF KBLI 011723Z 0118/0218 VRB04KT P6SM -SHRA OVC025 FM012100 17006KT
                       P6SM SCT035 BKN050 FM020900 15005KT P6SM
                       BKN015 BKN040 FM021700 15005KT P6SM SCT020
                       SCT050 BKN120=
201211011120 TAF KBLI 011120Z 0112/0212 00000KT P6SM -RA BKN035 BKN100 FM011800
                       17003KT P6SM VCSH OVC025 FM020000 17004KT
                       P6SM SCT018 BKN040=
201211010535 TAF KBLI 010535Z 0106/0206 15009KT P6SM VCSH OVC050 FM011200 12004KT
                       6SM -SHRA OVC025 FM011600 17003KT P6SM VCSH
                       OVC015 FM012200 17004KT P6SM SCT018 BKN040=