##########################################################
# Query made at 02/16/2025 20:01:45 UTC
# Time interval: from 06/01/2012 00:00  to 06/30/2012 23:59  UTC
##########################################################

##########################################################
# KBLI, Bellingham, Bellingham International Airport (United States)
# WMO index: -----. WIGOS ID: Unknown
# Latitude 48-47-58N. Longitude 122-32-21W. Altitude 48 m.
##########################################################

###################################
#  METAR/SPECI from KBLI
###################################
201206302353 METAR KBLI 302353Z 18003KT 10SM SCT024 BKN033 OVC047 17/15 A2992 RMK AO2 RAB00E17 SLP139 P0000 60001 T01720150 10178 20161 58007=
201206302253 METAR KBLI 302253Z VRB03KT 10SM OVC022 17/15 A2994 RMK AO2 RAE26 SLP143 P0000 T01670150=
201206302153 METAR KBLI 302153Z 16005KT 10SM -RA SCT022 BKN028 OVC035 17/16 A2994 RMK AO2 RAB15 SLP145 P0001 T01720156=
201206302053 METAR KBLI 302053Z 15005KT 7SM FEW014 BKN028 OVC038 17/15 A2995 RMK AO2 SLP146 T01720150 53002=
201206301953 METAR KBLI 301953Z 17005KT 7SM FEW009 BKN024 OVC030 18/15 A2994 RMK AO2 SLP146 T01780150=
201206301927 SPECI KBLI 301927Z 16004KT 6SM BR FEW008 OVC013 17/16 A2994 RMK AO2=
201206301918 SPECI KBLI 301918Z 15005KT 6SM BR OVC013 17/16 A2994 RMK AO2=
201206301853 METAR KBLI 301853Z 17006KT 6SM BR BKN015 OVC075 18/16 A2994 RMK AO2 SLP144 T01780156=
201206301848 SPECI KBLI 301848Z 17005KT 6SM BR BKN015 OVC022 18/16 A2994 RMK AO2=
201206301841 SPECI KBLI 301841Z 17006KT 6SM BR BKN012 BKN023 OVC075 18/16 A2994 RMK AO2=
201206301753 METAR KBLI 301753Z 18004KT 6SM BR OVC009 16/15 A2994 RMK AO2 SLP143 60010 T01610150 10161 20150 55003=
201206301704 SPECI KBLI 301704Z 19003KT 2SM BR BKN004 OVC015 16/15 A2994 RMK AO2=
201206301655 SPECI KBLI 301655Z 19003KT 2SM BR SCT004 OVC015 16/15 A2994 RMK AO2=
201206301653 METAR KBLI 301653Z 19004KT 2SM BR BKN004 OVC015 16/15 A2994 RMK AO2 RAB03E29 CIG 002V006 SLP143 P0000 T01560150=
201206301553 METAR KBLI 301553Z 18003KT 3/4SM R16/P6000FT BR OVC002 16/15 A2995 RMK AO2 RAE49 SLP146 P0002 T01560150=
201206301551 SPECI KBLI 301551Z 19005KT 3/4SM R16/P6000FT BR OVC002 16/15 A2995 RMK AO2 RAE49 P0002=
201206301453 METAR KBLI 301453Z 18005KT 1/2SM R16/6000VP6000FT -RA FG OVC002 16/15 A2994 RMK AO2 RAB37 SLP146 P0002 60008 T01560150 56001=
201206301426 SPECI KBLI 301426Z 18003KT 1/2SM R16/P6000FT FG OVC002 15/15 A2994 RMK AO2=
201206301353 METAR KBLI 301353Z 18005KT 1 3/4SM BR OVC002 15/15 A2995 RMK AO2 RAE30 SLP146 P0001 T01500150=
201206301347 SPECI KBLI 301347Z 19005KT 1 3/4SM BR OVC004 15/15 A2995 RMK AO2 RAE30 P0001=
201206301310 SPECI KBLI 301310Z AUTO 17005KT 5SM -RA BR OVC004 15/14 A2994 RMK AO2 CIG 003V009 P0001=
201206301300 SPECI KBLI 301300Z AUTO 17006KT 6SM -RA BR SCT004 OVC007 15/14 A2994 RMK AO2 P0001=
201206301253 METAR KBLI 301253Z AUTO 17005KT 8SM -RA BKN004 BKN007 OVC014 15/14 A2994 RMK AO2 CIG 002V007 SLP144 P0005 T01500144=
201206301153 METAR KBLI 301153Z AUTO 17007KT 4SM RA BR BKN004 BKN007 OVC038 15/14 A2995 RMK AO2 RAB1058 SLP147 P0006 60010 70010 T01500144 10172 20150 56008=
201206301140 SPECI KBLI 301140Z AUTO 17007KT 5SM -RA BR BKN004 OVC038 15/14 A2995 RMK AO2 RAB1058 P0003=
201206301125 SPECI KBLI 301125Z AUTO 17007KT 7SM -RA BKN006 OVC011 15/14 A2995 RMK AO2 RAB1058 CIG 003V009 P0002=
201206301111 SPECI KBLI 301111Z AUTO 18005KT 5SM -RA BR SCT004 OVC011 16/15 A2995 RMK AO2 RAB1058 P0001=
201206301053 METAR KBLI 301053Z AUTO 17004KT 4SM BR SCT003 OVC009 16/15 A2996 RMK AO2 RAB33E49 CIG 007V011 SLP148 P0000 T01560150=
201206301051 SPECI KBLI 301051Z AUTO 16003KT 4SM BR SCT003 OVC009 16/15 A2996 RMK AO2 RAB33E49 CIG 007V011 P0000=
201206301038 SPECI KBLI 301038Z AUTO 19003KT 2SM -RA BR BKN003 OVC014 15/14 A2996 RMK AO2 RAB33 P0000=
201206301030 SPECI KBLI 301030Z AUTO 18004KT 3SM BR BKN003 BKN016 OVC033 15/15 A2996 RMK AO2=
201206301016 SPECI KBLI 301016Z AUTO 15004KT 3SM BR SCT003 BKN016 OVC034 16/15 A2996 RMK AO2=
201206301007 SPECI KBLI 301007Z AUTO 15005KT 2 1/2SM BR SCT003 BKN018 OVC036 16/14 A2997 RMK AO2=
201206300953 METAR KBLI 300953Z AUTO 00000KT 4SM BR FEW003 BKN020 OVC034 15/14 A2997 RMK AO2 RAE04 SLP155 P0000 T01500144=
201206300944 SPECI KBLI 300944Z AUTO 00000KT 5SM BR FEW003 BKN030 OVC034 15/14 A2998 RMK AO2 RAE04 P0000=
201206300853 METAR KBLI 300853Z AUTO 00000KT 6SM -RA BR BKN050 OVC060 16/14 A2998 RMK AO2 RAB0754 SLP158 P0001 60004 T01560144 58007=
201206300753 METAR KBLI 300753Z AUTO 00000KT 8SM OVC050 16/15 A3000 RMK AO2 RAE46 SLP164 P0002 T01560150 402220150=
201206300653 METAR KBLI 300653Z AUTO 00000KT 10SM -RA BKN090 OVC110 16/14 A3000 RMK AO2 SLP165 P0001 T01610144=
201206300553 METAR KBLI 300553Z AUTO 16003KT 10SM -RA OVC090 17/14 A3000 RMK AO2 RAB39 SLP166 P0000 60000 T01720144 10217 20167 53002=
201206300453 METAR KBLI 300453Z 00000KT 10SM BKN090 17/14 A3000 RMK AO2 SLP165 T01670144=
201206300353 METAR KBLI 300353Z 00000KT 10SM FEW090 BKN120 19/14 A3000 RMK AO2 SLP162 T01890144=
201206300253 METAR KBLI 300253Z 00000KT 10SM BKN055 BKN095 OVC120 20/14 A3000 RMK AO2 SLP163 T02000139 56008=
201206300153 METAR KBLI 300153Z 21003KT 10SM FEW090 OVC120 20/13 A3000 RMK AO2 SLP165 T02000133=
201206300053 METAR KBLI 300053Z 17005KT 10SM OVC120 21/13 A3001 RMK AO2 SLP169 T02060133=
201206292353 METAR KBLI 292353Z VRB05KT 10SM OVC110 21/14 A3002 RMK AO2 SLP171 T02110139 10222 20183 56006=
201206292253 METAR KBLI 292253Z 18009G14KT 10SM SCT100 22/14 A3003 RMK AO2 SLP172 T02170139=
201206292153 METAR KBLI 292153Z 17008KT 10SM SCT036 21/14 A3003 RMK AO2 SLP174 T02110139=
201206292053 METAR KBLI 292053Z 18009G16KT 10SM BKN036 20/14 A3004 RMK AO2 SLP179 T02000139 50003=
201206291953 METAR KBLI 291953Z 17008G17KT 10SM OVC038 19/13 A3005 RMK AO2 SLP180 T01890133=
201206291900 SPECI KBLI 291900Z 17011KT 10SM BKN034 19/13 A3004 RMK AO2=
201206291853 METAR KBLI 291853Z 17011KT 10SM BKN028 20/13 A3004 RMK AO2 SLP177 T02000133=
201206291753 METAR KBLI 291753Z 17010G18KT 10SM BKN028 19/13 A3003 RMK AO2 SLP175 T01890128 10194 20161 51005=
201206291653 METAR KBLI 291653Z 15010G16KT 10SM BKN028 BKN034 19/12 A3003 RMK AO2 SLP174 T01940122=
201206291600 SPECI KBLI 291600Z 15009G15KT 10SM SCT028 OVC039 19/13 A3002 RMK AO2=
201206291553 METAR KBLI 291553Z 15008KT 10SM BKN028 OVC039 19/13 A3002 RMK AO2 SLP173 T01890128=
201206291521 SPECI KBLI 291521Z 14005KT 10SM BKN026 OVC039 18/12 A3002 RMK AO2=
201206291453 METAR KBLI 291453Z 15007KT 10SM SCT026 BKN080 18/12 A3002 RMK AO2 SLP171 T01780122 53008=
201206291353 METAR KBLI 291353Z 14006KT 10SM SCT026 OVC041 17/12 A3001 RMK AO2 SLP167 T01720122=
201206291313 SPECI KBLI 291313Z AUTO 13008KT 10SM SCT026 OVC035 17/12 A3000 RMK AO2=
201206291253 METAR KBLI 291253Z AUTO 14006KT 10SM BKN028 OVC033 16/13 A3000 RMK AO2 SLP164 T01610128=
201206291212 SPECI KBLI 291212Z AUTO 14006KT 10SM BKN025 BKN030 OVC036 17/12 A3000 RMK AO2=
201206291153 METAR KBLI 291153Z AUTO 14006KT 10SM SCT025 OVC036 17/13 A2999 RMK AO2 RAB09E24 SLP162 P0000 60000 70005 T01670128 10167 20139 55000=
201206291132 SPECI KBLI 291132Z AUTO 16007KT 10SM BKN025 BKN030 OVC035 16/13 A2999 RMK AO2 RAB09E24 P0000=
201206291053 METAR KBLI 291053Z AUTO 14008KT 10SM BKN030 OVC075 17/13 A2999 RMK AO2 RAB03E15 SLP160 P0000 T01670128=
201206291024 SPECI KBLI 291024Z AUTO 15007KT 10SM BKN030 OVC080 17/12 A2999 RMK AO2 RAB03E15 P0000=
201206290953 METAR KBLI 290953Z AUTO 14009KT 10SM OVC028 17/12 A2999 RMK AO2 RAB21E40 SLP160 P0000 T01670122=
201206290853 METAR KBLI 290853Z AUTO VRB06KT 10SM OVC028 16/13 A2999 RMK AO2 RAB17E33 SLP162 P0000 60000 T01610128 50000=
201206290803 SPECI KBLI 290803Z AUTO 14006KT 10SM BKN028 OVC095 15/13 A2999 RMK AO2=
201206290753 METAR KBLI 290753Z AUTO 11004KT 10SM SCT028 OVC095 15/13 A3000 RMK AO2 SLP163 T01500128 402220100=
201206290653 METAR KBLI 290653Z AUTO 00000KT 7SM OVC090 14/13 A2999 RMK AO2 SLP162 T01390128=
201206290553 METAR KBLI 290553Z AUTO 00000KT 7SM OVC080 14/13 A2999 RMK AO2 RAE52 SLP163 P0002 60004 T01390133 10167 20139 51007=
201206290453 METAR KBLI 290453Z 00000KT 10SM -RA OVC070 14/13 A2999 RMK AO2 SLP162 P0001 T01440133=
201206290353 METAR KBLI 290353Z 00000KT 10SM -RA OVC085 15/13 A2998 RMK AO2 RAB45 SLP158 P0000 T01500133=
201206290253 METAR KBLI 290253Z 00000KT 10SM OVC100 16/14 A2997 RMK AO2 RAE17 SLP156 P0000 60001 T01560139 51004=
201206290153 METAR KBLI 290153Z 07005KT 10SM -RA OVC090 16/12 A2997 RMK AO2 RAE0056B32 SLP153 P0000 T01610122=
201206290053 METAR KBLI 290053Z 00000KT 10SM -RA OVC090 16/12 A2998 RMK AO2 SLP158 P0001 T01610122=
201206282353 METAR KBLI 282353Z 00000KT 10SM -RA OVC090 16/11 A2996 RMK AO2 RAB05 SLP152 P0001 60001 T01610111 10222 20161 53017=
201206282253 METAR KBLI 282253Z 22004KT 10SM BKN090 OVC110 19/11 A2993 RMK AO2 SLP141 T01890111=
201206282153 METAR KBLI 282153Z 21005KT 10SM FEW080 20/12 A2992 RMK AO2 SLP137 T02000117=
201206282053 METAR KBLI 282053Z VRB05KT 10SM SCT080 21/11 A2991 RMK AO2 SLP134 T02110106 56000=
201206281953 METAR KBLI 281953Z VRB04KT 10SM CLR 22/12 A2991 RMK AO2 SLP134 T02170117=
201206281853 METAR KBLI 281853Z VRB03KT 10SM CLR 21/12 A2991 RMK AO2 SLP135 T02110122=
201206281753 METAR KBLI 281753Z 00000KT 10SM CLR 19/11 A2991 RMK AO2 SLP135 T01890111 10200 20100 58000=
201206281653 METAR KBLI 281653Z 25003KT 10SM CLR 18/11 A2992 RMK AO2 SLP137 T01780111=
201206281553 METAR KBLI 281553Z 00000KT 10SM CLR 17/11 A2992 RMK AO2 SLP138 T01670106=
201206281453 METAR KBLI 281453Z 18004KT 10SM CLR 15/12 A2991 RMK AO2 SLP135 T01500122 53005=
201206281353 METAR KBLI 281353Z 00000KT 10SM CLR 13/12 A2991 RMK AO2 SLP133 T01280117=
201206281253 METAR KBLI 281253Z AUTO 00000KT 10SM CLR 11/10 A2990 RMK AO2 SLP129 T01060100=
201206281153 METAR KBLI 281153Z AUTO 00000KT 10SM CLR 11/09 A2990 RMK AO2 SLP130 T01060094 10128 20100 55003=
201206281053 METAR KBLI 281053Z AUTO 00000KT 9SM CLR 11/09 A2990 RMK AO2 SLP130 T01060094=
201206280953 METAR KBLI 280953Z AUTO 00000KT 10SM CLR 11/10 A2990 RMK AO2 SLP132 T01060100=
201206280853 METAR KBLI 280853Z AUTO 00000KT 10SM CLR 11/09 A2991 RMK AO2 SLP133 T01110094 58006=
201206280753 METAR KBLI 280753Z AUTO 00000KT 10SM CLR 12/10 A2991 RMK AO2 SLP136 T01170100 402110094=
201206280653 METAR KBLI 280653Z AUTO 00000KT 10SM CLR 12/09 A2992 RMK AO2 SLP138 T01220094=
201206280553 METAR KBLI 280553Z AUTO 00000KT 10SM CLR 12/10 A2993 RMK AO2 SLP139 T01220100 10211 20122 56004=
201206280453 METAR KBLI 280453Z 00000KT 10SM CLR 14/09 A2992 RMK AO2 SLP139 T01390094=
201206280353 METAR KBLI 280353Z 27004KT 10SM CLR 17/09 A2993 RMK AO2 SLP140 T01670094=
201206280253 METAR KBLI 280253Z 27004KT 10SM CLR 19/10 A2994 RMK AO2 SLP143 T01890100 56016=
201206280153 METAR KBLI 280153Z VRB03KT 10SM CLR 20/10 A2995 RMK AO2 SLP146 T02000100=
201206280053 METAR KBLI 280053Z VRB05KT 10SM CLR 20/10 A2996 RMK AO2 SLP151 T02000100=
201206272353 METAR KBLI 272353Z VRB05KT 10SM CLR 21/11 A2998 RMK AO2 SLP159 T02060106 10206 20161 58015=
201206272253 METAR KBLI 272253Z 26004KT 10SM CLR 20/09 A3000 RMK AO2 SLP164 T02000094=
201206272153 METAR KBLI 272153Z VRB04KT 10SM FEW038 19/09 A3001 RMK AO2 SLP169 T01940094=
201206272053 METAR KBLI 272053Z 16006KT 10SM CLR 19/09 A3003 RMK AO2 SLP174 T01940094 58013=
201206271953 METAR KBLI 271953Z 19005KT 10SM CLR 18/09 A3005 RMK AO2 SLP180 T01830089=
201206271853 METAR KBLI 271853Z 16006KT 10SM CLR 17/09 A3006 RMK AO2 SLP184 T01720089=
201206271753 METAR KBLI 271753Z VRB04KT 10SM OVC042 16/10 A3007 RMK AO2 SLP187 T01610100 10167 20100 56003=
201206271653 METAR KBLI 271653Z VRB03KT 10SM SCT028 16/09 A3007 RMK AO2 SLP188 T01560089=
201206271553 METAR KBLI 271553Z VRB03KT 10SM BKN065 16/08 A3007 RMK AO2 SLP189 T01560083=
201206271453 METAR KBLI 271453Z 00000KT 10SM BKN044 BKN065 13/09 A3007 RMK AO2 SLP190 T01330089 51003=
201206271353 METAR KBLI 271353Z 00000KT 10SM FEW042 BKN065 12/09 A3007 RMK AO2 SLP190 T01170094=
201206271253 METAR KBLI 271253Z AUTO 00000KT 10SM BKN065 10/08 A3007 RMK AO2 SLP191 T01000083=
201206271153 METAR KBLI 271153Z AUTO 17003KT 10SM BKN060 10/08 A3007 RMK AO2 SLP188 T01000078 10144 20094 53006=
201206271053 METAR KBLI 271053Z AUTO 16003KT 10SM CLR 11/07 A3006 RMK AO2 SLP186 T01060072=
201206270953 METAR KBLI 270953Z AUTO 17006KT 10SM FEW049 11/07 A3005 RMK AO2 SLP183 T01060067=
201206270853 METAR KBLI 270853Z AUTO 14004KT 10SM FEW095 11/07 A3005 RMK AO2 SLP182 T01060067 53004=
201206270753 METAR KBLI 270753Z AUTO 17006KT 10SM FEW095 13/07 A3004 RMK AO2 SLP180 T01280072 401610111=
201206270653 METAR KBLI 270653Z AUTO 17008KT 10SM OVC095 14/07 A3004 RMK AO2 SLP178 T01390067=
201206270553 METAR KBLI 270553Z AUTO 17007KT 10SM OVC095 14/07 A3004 RMK AO2 SLP178 T01440067 10156 20139 51009=
201206270453 METAR KBLI 270453Z 16008G18KT 10SM OVC100 14/07 A3003 RMK AO2 SLP174 T01440067=
201206270353 METAR KBLI 270353Z 17009KT 10SM BKN065 OVC095 15/07 A3002 RMK AO2 SLP170 T01500072=
201206270253 METAR KBLI 270253Z 17011G20KT 10SM OVC065 15/08 A3001 RMK AO2 SLP168 T01500078 53002=
201206270153 METAR KBLI 270153Z 16010G16KT 10SM OVC060 15/07 A3000 RMK AO2 SLP166 T01500072=
201206270053 METAR KBLI 270053Z 16011G20KT 10SM OVC065 15/08 A3000 RMK AO2 SLP167 T01500078=
201206262353 METAR KBLI 262353Z 16012G19KT 10SM BKN055 OVC070 16/08 A3000 RMK AO2 SLP165 60000 T01560078 10161 20128 52005=
201206262253 METAR KBLI 262253Z 16013KT 10SM BKN070 BKN100 16/09 A2999 RMK AO2 SLP163 T01610094=
201206262153 METAR KBLI 262153Z 16010KT 10SM OVC065 15/09 A2999 RMK AO2 SLP162 T01500089=
201206262053 METAR KBLI 262053Z 15009KT 10SM OVC055 14/09 A2998 RMK AO2 RAE02 SLP160 P0000 60000 T01440094 50014=
201206262018 SPECI KBLI 262018Z 16008KT 10SM FEW030 SCT037 OVC048 14/10 A2998 RMK AO2 RAE02 P0000=
201206261953 METAR KBLI 261953Z 17009KT 10SM -RA OVC030 13/11 A2999 RMK AO2 RAB00 SLP161 P0000 T01330106=
201206261853 METAR KBLI 261853Z 17009KT 10SM OVC030 13/09 A2996 RMK AO2 SLP153 T01330094=
201206261753 METAR KBLI 261753Z 17011KT 10SM BKN030 OVC044 13/10 A2994 RMK AO2 SLP146 T01330100 10139 20122 53012=
201206261653 METAR KBLI 261653Z 15010KT 10SM BKN049 OVC075 14/09 A2992 RMK AO2 SLP140 T01390094=
201206261553 METAR KBLI 261553Z 15006KT 10SM BKN049 BKN070 13/09 A2991 RMK AO2 SLP135 T01330094=
201206261453 METAR KBLI 261453Z 16005KT 10SM OVC095 13/09 A2991 RMK AO2 SLP133 T01280094 53005=
201206261353 METAR KBLI 261353Z AUTO 16008KT 10SM BKN090 OVC110 12/09 A2989 RMK AO2 SLP129 T01220094=
201206261253 METAR KBLI 261253Z AUTO 13006KT 10SM OVC100 12/08 A2990 RMK AO2 SLP131 T01220083=
201206261153 METAR KBLI 261153Z AUTO 17003KT 10SM OVC090 13/09 A2989 RMK AO2 SLP128 T01280089 10133 20111 55004=
201206261053 METAR KBLI 261053Z AUTO 17008KT 10SM SCT060 OVC095 13/08 A2989 RMK AO2 SLP126 T01280083=
201206260953 METAR KBLI 260953Z AUTO 17008KT 10SM CLR 13/09 A2990 RMK AO2 SLP131 T01280089=
201206260853 METAR KBLI 260853Z AUTO 00000KT 10SM SCT090 12/09 A2990 RMK AO2 SLP132 T01170089 56013=
201206260753 METAR KBLI 260753Z AUTO 17003KT 10SM SCT090 13/08 A2991 RMK AO2 SLP134 T01280078 401940061=
201206260653 METAR KBLI 260653Z AUTO 15005KT 10SM OVC090 13/07 A2993 RMK AO2 SLP141 T01330072=
201206260553 METAR KBLI 260553Z AUTO 19003KT 10SM FEW080 13/09 A2994 RMK AO2 SLP145 60000 T01330089 10189 20133 58003=
201206260453 METAR KBLI 260453Z 16005KT 10SM SCT100 14/08 A2995 RMK AO2 SLP148 T01390078=
201206260353 METAR KBLI 260353Z 16008KT 10SM SCT080 BKN100 BKN120 15/09 A2995 RMK AO2 SLP148 T01500089=
201206260253 METAR KBLI 260253Z 16010KT 10SM FEW075 16/09 A2995 RMK AO2 RAB20E29 SLP148 P0000 60000 T01560094 51005=
201206260153 METAR KBLI 260153Z 16007KT 10SM BKN090 OVC110 17/09 A2995 RMK AO2 SLP147 T01670089=
201206260053 METAR KBLI 260053Z 17007KT 10SM BKN100 18/11 A2994 RMK AO2 SLP146 T01780106=
201206252353 METAR KBLI 252353Z VRB06KT 10SM FEW100 19/09 A2994 RMK AO2 SLP144 T01890089 10194 20156 53001=
201206252253 METAR KBLI 252253Z 23005KT 10SM OVC110 19/09 A2993 RMK AO2 SLP142 T01890089=
201206252153 METAR KBLI 252153Z 26005KT 10SM OVC110 19/09 A2993 RMK AO2 SLP143 T01890094=
201206252053 METAR KBLI 252053Z VRB06KT 10SM FEW100 17/10 A2993 RMK AO2 SLP143 T01720100 55006=
201206251953 METAR KBLI 251953Z 00000KT 10SM CLR 18/11 A2993 RMK AO2 SLP141 T01830111=
201206251853 METAR KBLI 251853Z VRB06KT 10SM FEW021 18/11 A2994 RMK AO2 SLP144 T01780111=
201206251753 METAR KBLI 251753Z 24004KT 10SM FEW019 16/11 A2995 RMK AO2 SLP149 T01610111 10167 20061 56012=
201206251653 METAR KBLI 251653Z 34003KT 10SM CLR 16/11 A2996 RMK AO2 SLP153 T01560106=
201206251553 METAR KBLI 251553Z VRB06KT 10SM CLR 14/10 A2997 RMK AO2 SLP157 T01390100=
201206251453 METAR KBLI 251453Z 36005KT 10SM CLR 13/10 A2999 RMK AO2 SLP160 T01280100 58009=
201206251353 METAR KBLI 251353Z AUTO 00000KT 10SM CLR 10/09 A3000 RMK AO2 SLP165 T01000089=
201206251253 METAR KBLI 251253Z AUTO 00000KT 10SM CLR 07/06 A3001 RMK AO2 SLP170 T00720061=
201206251227 SPECI KBLI 251227Z AUTO 00000KT 3SM BR FEW001 06/06 A3001 RMK AO2=
201206251217 SPECI KBLI 251217Z AUTO 00000KT 3/4SM R16/P6000FT BR VV001 07/06 A3001 RMK AO2=
201206251215 SPECI KBLI 251215Z AUTO 00000KT 1 1/2SM BR CLR 07/06 A3001 RMK AO2=
201206251153 METAR KBLI 251153Z AUTO 00000KT 6SM BR CLR 07/06 A3002 RMK AO2 SLP171 T00670061 10106 20067 58004=
201206251053 METAR KBLI 251053Z AUTO 00000KT 9SM CLR 07/06 A3003 RMK AO2 SLP175 T00670061=
201206250953 METAR KBLI 250953Z AUTO 00000KT 10SM CLR 08/07 A3002 RMK AO2 SLP174 T00830072=
201206250853 METAR KBLI 250853Z AUTO 00000KT 10SM CLR 09/08 A3003 RMK AO2 SLP175 T00940083 56009=
201206250753 METAR KBLI 250753Z AUTO 00000KT 10SM CLR 09/07 A3003 RMK AO2 SLP176 T00890072 401890061=
201206250653 METAR KBLI 250653Z AUTO 00000KT 10SM CLR 09/08 A3005 RMK AO2 SLP182 T00940078=
201206250553 METAR KBLI 250553Z AUTO 00000KT 10SM CLR 11/09 A3005 RMK AO2 SLP184 T01060089 10178 20100 58004=
201206250453 METAR KBLI 250453Z 08004KT 10SM CLR 11/09 A3006 RMK AO2 SLP187 T01110089=
201206250353 METAR KBLI 250353Z 00000KT 10SM CLR 14/09 A3007 RMK AO2 SLP189 T01390089=
201206250253 METAR KBLI 250253Z 19003KT 10SM CLR 16/08 A3007 RMK AO2 SLP188 T01610078 53009=
201206250153 METAR KBLI 250153Z 18006KT 10SM CLR 17/08 A3005 RMK AO2 SLP184 T01720078=
201206250053 METAR KBLI 250053Z 15004KT 10SM BKN080 18/08 A3004 RMK AO2 SLP179 T01780078=
201206242353 METAR KBLI 242353Z 15004KT 10SM OVC080 17/08 A3004 RMK AO2 SLP179 T01720083 10189 20128 50005=
201206242253 METAR KBLI 242253Z 00000KT 10SM OVC080 18/09 A3004 RMK AO2 SLP180 T01830094=
201206242153 METAR KBLI 242153Z 17005KT 10SM OVC080 17/09 A3004 RMK AO2 SLP178 T01670094=
201206242053 METAR KBLI 242053Z 17004KT 10SM SCT035 BKN085 17/10 A3003 RMK AO2 SLP174 T01670100 53002=
201206241953 METAR KBLI 241953Z VRB05KT 10SM FEW035 SCT070 BKN085 15/09 A3002 RMK AO2 SLP173 T01500094=
201206241853 METAR KBLI 241853Z 20005KT 10SM BKN070 13/10 A3002 RMK AO2 SLP173 T01330100=
201206241850 SPECI KBLI 241850Z 21006KT 10SM BKN070 14/10 A3002 RMK AO2=
201206241753 METAR KBLI 241753Z 15004KT 10SM SCT008 BKN011 OVC075 13/10 A3001 RMK AO2 SLP170 T01280100 10128 20061 51015=
201206241742 SPECI KBLI 241742Z 16005KT 10SM SCT008 BKN011 OVC075 13/10 A3001 RMK AO2=
201206241653 METAR KBLI 241653Z 00000KT 10SM OVC006 12/11 A3001 RMK AO2 SLP168 T01170106=
201206241627 SPECI KBLI 241627Z 16004KT 10SM BKN006 11/10 A3001 RMK AO2 CIG 004V009=
201206241553 METAR KBLI 241553Z 17005KT 10SM FEW007 11/09 A3000 RMK AO2 SLP167 T01060094=
201206241541 SPECI KBLI 241541Z 16006KT 10SM SCT007 11/09 A3000 RMK AO2=
201206241518 SPECI KBLI 241518Z 18003KT 10SM BKN007 10/09 A2998 RMK AO2=
201206241502 SPECI KBLI 241502Z 00000KT 10SM FEW007 09/09 A2997 RMK AO2=
201206241453 METAR KBLI 241453Z 00000KT 10SM CLR 09/09 A2997 RMK AO2 SLP155 T00940089 53008=
201206241353 METAR KBLI 241353Z 00000KT 10SM CLR 08/08 A2996 RMK AO2 SLP153 T00830078=
201206241325 SPECI KBLI 241325Z AUTO 00000KT 8SM SCT001 07/07 A2995 RMK AO2=
201206241314 SPECI KBLI 241314Z AUTO 00000KT 3SM R16/5500VP6000FT BR BKN001 07/06 A2995 RMK AO2=
201206241308 SPECI KBLI 241308Z AUTO 00000KT 1SM R16/5500VP6000FT BR VV001 06/06 A2995 RMK AO2 VIS 1/4V4=
201206241253 METAR KBLI 241253Z AUTO 00000KT 1/2SM R16/2000V6000FT FG VV001 07/06 A2995 RMK AO2 SLP149 T00670061=
201206241250 SPECI KBLI 241250Z AUTO 00000KT 1/2SM R16/1800V6000FT FG VV001 07/06 A2994 RMK AO2=
201206241239 SPECI KBLI 241239Z AUTO 00000KT 1SM R16/1600V3500FT BR VV001 07/06 A2994 RMK AO2=
201206241157 SPECI KBLI 241157Z AUTO 00000KT 1/2SM R16/1800V2400FT FG VV001 07/06 A2995 RMK AO2=
201206241153 METAR KBLI 241153Z AUTO 00000KT 3/4SM R16/1800V2200FT BR VV001 07/06 A2995 RMK AO2 SLP148 70036 T00670061 10111 20061 55003=
201206241144 SPECI KBLI 241144Z AUTO 00000KT 1SM R16/1800V2000FT BR VV001 07/06 A2995 RMK AO2=
201206241133 SPECI KBLI 241133Z AUTO 00000KT 1/2SM R16/1400V2200FT FG VV001 07/06 A2995 RMK AO2=
201206241129 SPECI KBLI 241129Z AUTO 00000KT 1 3/4SM R16/1400V4500FT BR BKN001 07/06 A2995 RMK AO2 VIS 1/2V5=
201206241127 SPECI KBLI 241127Z AUTO 00000KT 4SM R16/1400VP6000FT BR BKN001 07/06 A2995 RMK AO2=
201206241058 SPECI KBLI 241058Z AUTO 00000KT 3SM BR SCT001 07/07 A2994 RMK AO2=
201206241056 SPECI KBLI 241056Z AUTO 00000KT 1 1/2SM BR SCT001 07/06 A2994 RMK AO2 VIS 1/2V5=
201206241053 METAR KBLI 241053Z AUTO 00000KT 3/4SM R16/3000VP6000FT BR VV001 07/07 A2994 RMK AO2 SLP145 T00720067=
201206241045 SPECI KBLI 241045Z AUTO 00000KT 3/4SM R16/2200VP6000FT BR VV001 07/06 A2994 RMK AO2 VIS 1/4V5=
201206241039 SPECI KBLI 241039Z AUTO 00000KT 2SM R16/3500VP6000FT BR BKN001 07/07 A2994 RMK AO2=
201206241033 SPECI KBLI 241033Z AUTO 00000KT 3/4SM R16/P6000FT BR VV001 08/07 A2994 RMK AO2=
201206241018 SPECI KBLI 241018Z AUTO 00000KT 1/2SM R16/2200VP6000FT FG VV001 07/06 A2995 RMK AO2=
201206241010 SPECI KBLI 241010Z AUTO 00000KT 3/4SM R16/2200VP6000FT BR VV001 07/07 A2995 RMK AO2=
201206241007 SPECI KBLI 241007Z AUTO 00000KT 1 3/4SM R16/2800VP6000FT BR FEW001 07/07 A2995=
201206240953 METAR KBLI 240953Z AUTO 00000KT 10SM R16/4500VP6000FT CLR 08/07 A2995 RMK AO2 SLP150 T00780067=
201206240853 METAR KBLI 240853Z AUTO 00000KT 10SM FEW045 09/08 A2995 RMK AO2 SLP147 T00890078 58006=
201206240753 METAR KBLI 240753Z AUTO 04003KT 10SM FEW049 09/08 A2996 RMK AO2 SLP151 T00940083 401890094=
201206240653 METAR KBLI 240653Z AUTO 00000KT 10SM OVC047 11/09 A2996 RMK AO2 SLP153 T01110094=
201206240553 METAR KBLI 240553Z AUTO 16003KT 10SM BKN031 OVC041 11/10 A2996 RMK AO2 RAB0457E44 SLP153 P0000 60005 T01110100 10128 20111 51012=
201206240546 SPECI KBLI 240546Z AUTO 00000KT 10SM OVC031 11/09 A2997 RMK AO2 RAB0457E44 P0000=
201206240529 SPECI KBLI 240529Z AUTO 12005KT 9SM -RA OVC029 11/10 A2997 RMK AO2 RAB0457 P0000=
201206240453 METAR KBLI 240453Z 18005KT 10SM SCT034 OVC045 11/09 A2996 RMK AO2 SLP152 T01110089=
201206240353 METAR KBLI 240353Z 17004KT 10SM SCT027 OVC036 12/09 A2994 RMK AO2 SLP147 T01170089=
201206240253 METAR KBLI 240253Z 15009KT 10SM SCT022 OVC040 12/09 A2993 RMK AO2 SLP141 CIG LWR SE-SW 60005 T01170089 51030=
201206240153 METAR KBLI 240153Z 16009KT 10SM FEW012 SCT021 OVC045 12/09 A2991 RMK AO2 SLP135 T01220094=
201206240124 SPECI KBLI 240124Z 15010KT 10SM FEW012 SCT021 OVC045 12/10 A2989 RMK AO2=
201206240053 METAR KBLI 240053Z 17013G21KT 10SM FEW015 BKN026 OVC033 12/10 A2988 RMK AO2 RAE31 SLP124 P0005 T01220100=
201206240021 SPECI KBLI 240021Z 17011G20KT 9SM -RA SCT014 BKN020 OVC033 12/10 A2985 RMK AO2 P0005=
201206240007 SPECI KBLI 240007Z 16012G18KT 3SM RA BR FEW006 BKN013 OVC026 12/11 A2985 RMK AO2 LTG DSNT NE P0004=
201206232353 METAR KBLI 232353Z 17011G19KT 2 1/2SM RA BR SCT002 BKN006 OVC010 12/11 A2984 RMK AO2 PK WND 16030/2254 LTG DSNT NE TSB2256E17 SLP111 P0030 60031 T01220111 10189 20122 53042=
201206232343 SPECI KBLI 232343Z 16011G20KT 3SM RA BR OVC006 12/11 A2983 RMK AO2 PK WND 16030/2254 LTG DSNT NE TSB2256E17 P0027=
201206232332 SPECI KBLI 232332Z 16010G21KT 2 1/2SM RA BR BKN006 BKN019 OVC035 12/12 A2982 RMK AO2 PK WND 16030/2254 TSB2256E17 PRESRR P0024=
201206232322 SPECI KBLI 232322Z 16012G22KT 1 3/4SM RA BR BKN006 BKN019 OVC035 12/12 A2981 RMK AO2 PK WND 16030/2254 LTG DSNT NE TSB2256E17 P0021=
201206232317 SPECI KBLI 232317Z 16010G23KT 3SM RA BR FEW006 BKN020 OVC038 12/12 A2980 RMK AO2 PK WND 16030/2254 LTG DSNT NE TSB2256E17 PRESRR P0018=
201206232256 SPECI KBLI 232256Z 16019G31KT 5SM VCTS RA BR SCT011 BKN019 OVC046 14/12 A2977 RMK AO2 PK WND 16030/2254 LTG DSNT NE AND E TSB56 P0002=
201206232253 METAR KBLI 232253Z 16021G31KT 8SM -RA FEW011 BKN036 OVC046 15/12 A2977 RMK AO2 PK WND 17031/2252 LTG DSNT NE-SE RAB49 SLP086 P0001 T01500122=
201206232153 METAR KBLI 232153Z VRB06KT 10SM SCT040 BKN100 18/12 A2972 RMK AO2 SLP070 T01780117=
201206232053 METAR KBLI 232053Z VRB05KT 10SM FEW013 BKN075 BKN090 17/13 A2972 RMK AO2 SLP068 T01720128 56007=
201206231953 METAR KBLI 231953Z 28004KT 10SM FEW013 SCT019 BKN048 17/13 A2972 RMK AO2 SLP068 T01720128=
201206231853 METAR KBLI 231853Z 17006KT 10SM SCT013 OVC048 16/13 A2973 RMK AO2 SLP073 T01610128=
201206231753 METAR KBLI 231753Z 00000KT 10SM FEW009 SCT013 OVC050 15/13 A2974 RMK AO2 SLP077 60000 T01500128 10156 20122 58001=
201206231746 SPECI KBLI 231746Z VRB03KT 10SM SCT021 OVC050 16/13 A2973 RMK AO2=
201206231706 SPECI KBLI 231706Z 00000KT 10SM SCT011 OVC017 14/13 A2974 RMK AO2=
201206231653 METAR KBLI 231653Z 00000KT 10SM OVC011 14/12 A2974 RMK AO2 SLP079 T01440122=
201206231553 METAR KBLI 231553Z 02003KT 10SM BKN006 BKN015 OVC100 14/12 A2974 RMK AO2 SLP078 T01440122=
201206231453 METAR KBLI 231453Z 03003KT 10SM OVC006 13/12 A2974 RMK AO2 CIG 004V009 SLP078 CIG VIS LWR NW-NE 60000 T01330122 50006=
201206231442 SPECI KBLI 231442Z 00000KT 10SM BKN008 BKN042 OVC080 13/12 A2975 RMK AO2 CIG 005V009 CIG VIS LWR NW-NE=
201206231421 SPECI KBLI 231421Z 00000KT 10SM SCT008 BKN042 OVC080 13/12 A2975 RMK AO2 CIG VIS LWR NW-NE=
201206231353 METAR KBLI 231353Z 00000KT 10SM BKN008 OVC022 13/12 A2975 RMK AO2 RAE20 SLP079 P0000 T01280122=
201206231326 SPECI KBLI 231326Z AUTO 00000KT 10SM BKN008 OVC016 13/12 A2974 RMK AO2 RAE20 CIG 007V012 P0000=
201206231313 SPECI KBLI 231313Z AUTO 00000KT 7SM -RA FEW008 BKN013 OVC021 13/12 A2974 RMK AO2 P0000=
201206231301 SPECI KBLI 231301Z AUTO 00000KT 5SM -RA BR SCT010 OVC016 13/12 A2974 RMK AO2 P0000=
201206231253 METAR KBLI 231253Z AUTO 00000KT 7SM -RA BKN010 BKN016 OVC023 13/12 A2974 RMK AO2 RAB52 SLP078 P0000 T01280117=
201206231244 SPECI KBLI 231244Z AUTO 00000KT 10SM OVC010 13/12 A2974 RMK AO2 CIG 007V012=
201206231153 METAR KBLI 231153Z AUTO 14004KT 10SM OVC008 13/12 A2972 RMK AO2 SLP072 60016 70071 T01280117 10128 20117 53005=
201206231121 SPECI KBLI 231121Z AUTO 00000KT 10SM OVC008 13/12 A2971 RMK AO2=
201206231053 METAR KBLI 231053Z AUTO 16005KT 10SM OVC010 12/12 A2971 RMK AO2 RAE37 CIG 008V013 SLP068 P0001 T01220117=
201206231037 SPECI KBLI 231037Z AUTO 16004KT 10SM OVC012 12/12 A2972 RMK AO2 RAE37 P0001=
201206230953 METAR KBLI 230953Z AUTO 15005KT 9SM -RA SCT006 BKN017 OVC095 12/12 A2971 RMK AO2 SLP066 P0005 T01220117=
201206230945 SPECI KBLI 230945Z AUTO 16006KT 8SM -RA SCT006 BKN021 OVC090 12/12 A2971 RMK AO2 P0005=
201206230853 METAR KBLI 230853Z AUTO 16010KT 5SM -RA BR BKN004 OVC008 12/12 A2971 RMK AO2 SLP067 P0003 60010 T01220117 53002=
201206230753 METAR KBLI 230753Z AUTO 17004KT 6SM -RA BR OVC004 12/12 A2969 RMK AO2 SLP060 P0001 T01220117 401560117=
201206230653 METAR KBLI 230653Z AUTO 17004KT 9SM -RA OVC004 12/11 A2969 RMK AO2 CIG 002V006 SLP062 P0006 T01220111=
201206230638 SPECI KBLI 230638Z AUTO 00000KT 7SM -RA BKN004 BKN060 OVC085 12/12 A2969 RMK AO2 P0006=
201206230600 SPECI KBLI 230600Z AUTO 00000KT 4SM RA BR FEW007 BKN048 OVC055 12/12 A2970 RMK AO2 P0001=
201206230553 METAR KBLI 230553Z AUTO 00000KT 5SM -RA BR BKN004 OVC013 12/12 A2970 RMK AO2 SLP065 P0010 60029 T01170117 10128 20117 58004=
201206230453 METAR KBLI 230453Z 00000KT 3SM -RA BR BKN004 OVC011 12/12 A2971 RMK AO2 SLP067 P0007 T01220117=
201206230357 SPECI KBLI 230357Z 00000KT 3SM -RA BR OVC004 12/12 A2971 RMK AO2 P0001=
201206230353 METAR KBLI 230353Z 00000KT 2 1/2SM RA BR OVC006 12/12 A2971 RMK AO2 SLP069 P0006 T01220117=
201206230351 SPECI KBLI 230351Z 00000KT 2SM RA BR OVC006 12/12 A2971 RMK AO2 P0006=
201206230314 SPECI KBLI 230314Z 00000KT 9SM -RA BKN006 OVC055 12/12 A2972 RMK AO2 P0001=
201206230253 METAR KBLI 230253Z 18003KT 7SM -RA OVC100 12/11 A2973 RMK AO2 RAB17 SLP074 P0000 60006 T01220111 56015=
201206230153 METAR KBLI 230153Z 17004KT 10SM FEW038 SCT080 OVC100 12/11 A2974 RMK AO2 RAE49 SLP077 P0003 T01220111=
201206230109 SPECI KBLI 230109Z 17004KT 6SM -RA BR FEW006 BKN075 OVC095 13/12 A2975 RMK AO2 P0001=
201206230053 METAR KBLI 230053Z 18004KT 9SM -RA FEW075 OVC100 13/12 A2975 RMK AO2 SLP081 P0003 T01280117=
201206222353 METAR KBLI 222353Z 18003KT 5SM -RA BR FEW006 SCT014 OVC048 13/12 A2977 RMK AO2 SLP088 P0005 60026 T01280117 10150 20128 56010=
201206222253 METAR KBLI 222253Z 00000KT 5SM -RA BR FEW006 SCT014 BKN046 13/12 A2978 RMK AO2 SLP091 P0006 T01330122=
201206222153 METAR KBLI 222153Z 15006KT 4SM RA BR SCT006 BKN046 OVC075 13/12 A2979 RMK AO2 SLP094 CIG LWR NW-NE P0010 T01280117=
201206222146 SPECI KBLI 222146Z 15006KT 4SM -RA BR SCT006 BKN046 OVC075 13/12 A2979 RMK AO2 CIG LWR NW-NE P0009=
201206222122 SPECI KBLI 222122Z 17007KT 4SM -RA BR BKN006 BKN046 OVC070 13/12 A2980 RMK AO2 CIG LWR NW-NE P0005=
201206222105 SPECI KBLI 222105Z 16011G21KT 4SM RA BR SCT006 BKN046 OVC070 13/12 A2980 RMK AO2 CIG LWR NW-NE P0004=
201206222053 METAR KBLI 222053Z 18010G16KT 3SM RA BR FEW046 OVC075 13/12 A2980 RMK AO2 RAE1955B23 SLP099 P0005 60005 T01280117 53009=
201206221953 METAR KBLI 221953Z 17010G17KT 10SM -RA OVC050 14/11 A2979 RMK AO2 RAB18 SLP093 P0000 T01390111=
201206221853 METAR KBLI 221853Z 17009G14KT 10SM BKN043 OVC055 14/11 A2978 RMK AO2 SLP089 T01440106=
201206221753 METAR KBLI 221753Z 16012G17KT 10SM SCT041 OVC050 15/11 A2978 RMK AO2 SLP089 T01500106 10156 20139 50002=
201206221653 METAR KBLI 221653Z 17010KT 10SM FEW040 SCT049 OVC100 14/10 A2978 RMK AO2 SLP091 T01440100=
201206221553 METAR KBLI 221553Z 17009G16KT 10SM SCT044 BKN095 14/10 A2978 RMK AO2 SLP092 T01440100=
201206221453 METAR KBLI 221453Z 17012KT 10SM FEW047 SCT090 15/08 A2977 RMK AO2 SLP087 T01500083 53013=
201206221353 METAR KBLI 221353Z 17007G14KT 10SM CLR 14/09 A2976 RMK AO2 SLP082 T01440094=
201206221253 METAR KBLI 221253Z AUTO 17008KT 10SM CLR 14/08 A2974 RMK AO2 SLP076 T01440078=
201206221153 METAR KBLI 221153Z AUTO 16004KT 10SM CLR 14/08 A2973 RMK AO2 SLP074 T01390078 10150 20133 56002=
201206221053 METAR KBLI 221053Z AUTO 16005KT 10SM BKN110 14/08 A2973 RMK AO2 SLP074 T01390078=
201206220953 METAR KBLI 220953Z AUTO 17005KT 10SM FEW110 14/08 A2973 RMK AO2 SLP074 T01390083=
201206220853 METAR KBLI 220853Z AUTO 17006KT 10SM OVC110 14/09 A2974 RMK AO2 SLP076 T01440094 55004=
201206220753 METAR KBLI 220753Z AUTO 17005KT 10SM SCT110 14/10 A2973 RMK AO2 SLP073 T01390100 402170111=
201206220653 METAR KBLI 220653Z AUTO 18007KT 10SM CLR 14/11 A2973 RMK AO2 SLP075 T01390106=
201206220553 METAR KBLI 220553Z AUTO 18007KT 10SM FEW110 15/11 A2975 RMK AO2 SLP080 T01500106 10211 20150 56005=
201206220453 METAR KBLI 220453Z 18008KT 10SM FEW110 16/12 A2976 RMK AO2 SLP082 T01560117=
201206220353 METAR KBLI 220353Z 16007KT 10SM BKN100 16/11 A2976 RMK AO2 SLP082 T01610106=
201206220253 METAR KBLI 220253Z 17003KT 10SM CLR 18/13 A2976 RMK AO2 SLP085 T01780128 56011=
201206220153 METAR KBLI 220153Z 00000KT 10SM CLR 19/12 A2977 RMK AO2 SLP087 T01890122=
201206220053 METAR KBLI 220053Z 00000KT 10SM CLR 20/11 A2978 RMK AO2 SLP091 T02000106=
201206212353 METAR KBLI 212353Z 27007KT 10SM CLR 21/09 A2980 RMK AO2 SLP096 T02110089 10217 20183 56016=
201206212253 METAR KBLI 212253Z 28004KT 10SM CLR 21/11 A2981 RMK AO2 SLP099 T02110111=
201206212153 METAR KBLI 212153Z 00000KT 10SM CLR 20/11 A2983 RMK AO2 SLP105 T02000111=
201206212053 SPECI KBLI 212053Z 27005KT 10SM CLR 21/12 A2984 RMK AO2 SLP112 T02060117 58015=
201206212053 METAR KBLI 212053Z 27005KT 10SM CLR 21/12 A2984 RMK AO2 SLP112 T02060117 58015=
201206211953 METAR KBLI 211953Z 21004KT 10SM CLR 19/12 A2986 RMK AO2 SLP118 T01940122=
201206211853 METAR KBLI 211853Z 28003KT 10SM CLR 20/13 A2987 RMK AO2 SLP121 T02000128=
201206211753 METAR KBLI 211753Z 00000KT 10SM CLR 19/12 A2989 RMK AO2 SLP127 T01940122 10194 20111 58011=
201206211653 METAR KBLI 211653Z 22004KT 10SM CLR 17/11 A2991 RMK AO2 SLP133 T01670111=
201206211553 METAR KBLI 211553Z 00000KT 10SM CLR 16/12 A2991 RMK AO2 SLP135 T01560117=
201206211453 METAR KBLI 211453Z 17003KT 10SM CLR 14/11 A2992 RMK AO2 SLP138 T01390111 50002=
201206211353 METAR KBLI 211353Z 17004KT 10SM FEW090 OVC110 13/11 A2993 RMK AO2 SLP139 T01330111=
201206211253 METAR KBLI 211253Z AUTO 00000KT 10SM FEW085 BKN110 13/11 A2992 RMK AO2 SLP139 T01280111=
201206211153 METAR KBLI 211153Z AUTO 00000KT 10SM FEW090 SCT110 12/11 A2991 RMK AO2 SLP136 T01170106 10144 20111 56008=
201206211053 METAR KBLI 211053Z AUTO 00000KT 10SM BKN120 12/10 A2992 RMK AO2 SLP137 T01170100=
201206210953 METAR KBLI 210953Z AUTO 00000KT 10SM FEW120 12/10 A2993 RMK AO2 SLP140 T01220100=
201206210853 METAR KBLI 210853Z AUTO 00000KT 10SM CLR 13/11 A2994 RMK AO2 SLP144 T01280106 58001=
201206210753 METAR KBLI 210753Z AUTO 00000KT 10SM CLR 13/11 A2994 RMK AO2 SLP145 T01330111 402170061=
201206210653 METAR KBLI 210653Z AUTO 00000KT 10SM CLR 14/11 A2995 RMK AO2 SLP146 T01390106=
201206210553 METAR KBLI 210553Z AUTO 00000KT 10SM SCT100 14/11 A2994 RMK AO2 SLP144 T01440106 10217 20144 53000=
201206210453 METAR KBLI 210453Z 00000KT 10SM BKN100 16/10 A2994 RMK AO2 SLP143 T01560100=
201206210353 METAR KBLI 210353Z 26004KT 10SM CLR 18/11 A2993 RMK AO2 SLP142 T01780111=
201206210253 METAR KBLI 210253Z 27003KT 10SM CLR 20/12 A2994 RMK AO2 SLP144 T02000117 56012=
201206210153 METAR KBLI 210153Z 30004KT 10SM CLR 21/12 A2995 RMK AO2 SLP147 T02110117=
201206210053 METAR KBLI 210053Z 28003KT 10SM CLR 21/12 A2996 RMK AO2 SLP149 T02110122=
201206202353 METAR KBLI 202353Z 27009KT 10SM CLR 21/12 A2998 RMK AO2 SLP157 T02060117 10217 20178 56019=
201206202253 METAR KBLI 202253Z 28007KT 10SM CLR 21/12 A2999 RMK AO2 SLP162 T02060117=
201206202153 METAR KBLI 202153Z 28007KT 10SM CLR 22/12 A3001 RMK AO2 SLP169 T02170122=
201206202053 METAR KBLI 202053Z 28005KT 10SM CLR 20/12 A3003 RMK AO2 SLP176 T02000117 56017=
201206201953 METAR KBLI 201953Z 05003KT 10SM CLR 21/10 A3005 RMK AO2 SLP180 T02060100=
201206201853 METAR KBLI 201853Z 00000KT 10SM CLR 19/11 A3006 RMK AO2 SLP185 T01940106=
201206201753 METAR KBLI 201753Z 29004KT 10SM CLR 17/11 A3008 RMK AO2 SLP194 T01720106 10178 20061 58018=
201206201653 METAR KBLI 201653Z 00000KT 10SM CLR 16/11 A3011 RMK AO2 SLP203 T01610111=
201206201553 METAR KBLI 201553Z 00000KT 10SM CLR 14/11 A3013 RMK AO2 SLP208 T01440106=
201206201453 METAR KBLI 201453Z 00000KT 10SM CLR 13/10 A3014 RMK AO2 SLP212 T01280100 58006=
201206201353 METAR KBLI 201353Z 00000KT 10SM CLR 11/09 A3015 RMK AO2 SLP217 T01060094=
201206201253 METAR KBLI 201253Z AUTO 00000KT 9SM CLR 07/07 A3016 RMK AO2 SLP219 T00720067=
201206201240 SPECI KBLI 201240Z AUTO 00000KT 9SM CLR 07/06 A3015 RMK AO2=
201206201231 SPECI KBLI 201231Z AUTO 00000KT 1SM R16/P6000FT BR CLR 07/06 A3016 RMK AO2=
201206201217 SPECI KBLI 201217Z AUTO 00000KT 1/2SM R16/2800VP6000FT FG CLR 06/06 A3015 RMK AO2=
201206201214 SPECI KBLI 201214Z AUTO 00000KT 1 1/4SM R16/2800VP6000FT BR CLR 07/06 A3015 RMK AO2=
201206201153 METAR KBLI 201153Z AUTO 00000KT 8SM CLR 07/06 A3015 RMK AO2 SLP218 T00670056 10100 20067 56005=
201206201102 SPECI KBLI 201102Z AUTO 00000KT 10SM CLR 07/06 A3015 RMK AO2=
201206201053 METAR KBLI 201053Z AUTO 00000KT 1 1/4SM BR CLR 07/06 A3015 RMK AO2 SLP218 T00670056=
201206201046 SPECI KBLI 201046Z AUTO 00000KT 1 1/2SM BR CLR 07/07 A3016 RMK AO2 VIS 1/4V5=
201206200953 METAR KBLI 200953Z AUTO 00000KT 10SM CLR 08/07 A3016 RMK AO2 SLP221 T00780067=
201206200853 METAR KBLI 200853Z AUTO 00000KT 10SM CLR 09/08 A3017 RMK AO2 SLP222 T00890078 51001=
201206200753 METAR KBLI 200753Z AUTO 00000KT 10SM CLR 09/08 A3017 RMK AO2 SLP222 T00940083 401780089=
201206200653 METAR KBLI 200653Z AUTO 00000KT 10SM CLR 10/08 A3017 RMK AO2 SLP223 T01000083=
201206200553 METAR KBLI 200553Z AUTO 00000KT 10SM CLR 10/08 A3016 RMK AO2 SLP221 T01000083 10178 20100 51005=
201206200453 METAR KBLI 200453Z 00000KT 10SM CLR 11/09 A3016 RMK AO2 SLP220 T01110094=
201206200353 METAR KBLI 200353Z 00000KT 10SM OVC060 13/10 A3015 RMK AO2 SLP218 T01330100=
201206200253 METAR KBLI 200253Z 00000KT 10SM BKN060 13/10 A3015 RMK AO2 SLP216 T01330100 53003=
201206200153 METAR KBLI 200153Z 00000KT 10SM CLR 15/08 A3015 RMK AO2 SLP215 T01500083=
201206200053 METAR KBLI 200053Z VRB03KT 10SM FEW040 18/08 A3014 RMK AO2 SLP211 T01780083=
201206192353 METAR KBLI 192353Z 31004KT 10SM SCT033 BKN055 16/09 A3014 RMK AO2 SLP213 T01610094 10178 20150 53002=
201206192253 METAR KBLI 192253Z 00000KT 10SM SCT030 BKN055 16/09 A3013 RMK AO2 SLP211 T01610094=
201206192200 SPECI KBLI 192200Z 36005KT 10SM FEW025 BKN030 OVC050 16/10 A3014 RMK AO2=
201206192153 METAR KBLI 192153Z 03006KT 10SM FEW022 BKN028 OVC050 16/10 A3013 RMK AO2 SLP211 T01560100=
201206192053 METAR KBLI 192053Z VRB04KT 10SM SCT045 17/09 A3013 RMK AO2 SLP210 T01720089 53009=
201206191953 METAR KBLI 191953Z 19006KT 10SM FEW055 16/09 A3012 RMK AO2 SLP206 T01560089=
201206191919 SPECI KBLI 191919Z 17005KT 10SM SCT018 BKN026 16/09 A3011 RMK AO2=
201206191853 METAR KBLI 191853Z 17006KT 10SM FEW022 BKN037 15/09 A3011 RMK AO2 SLP202 T01500089=
201206191849 SPECI KBLI 191849Z VRB05KT 10SM SCT022 SCT033 BKN040 14/09 A3011 RMK AO2=
201206191806 SPECI KBLI 191806Z 20004KT 10SM BKN018 BKN026 OVC038 14/09 A3010 RMK AO2=
201206191753 METAR KBLI 191753Z VRB03KT 10SM FEW018 OVC038 14/09 A3010 RMK AO2 SLP199 60000 T01390089 10139 20106 53004=
201206191729 SPECI KBLI 191729Z VRB03KT 10SM SCT022 OVC038 13/08 A3009 RMK AO2=
201206191653 METAR KBLI 191653Z 00000KT 10SM BKN016 BKN021 OVC037 13/09 A3009 RMK AO2 SLP197 T01280089=
201206191649 SPECI KBLI 191649Z 00000KT 10SM BKN019 OVC037 13/09 A3009 RMK AO2=
201206191553 METAR KBLI 191553Z 00000KT 10SM BKN012 OVC037 12/09 A3008 RMK AO2 RAE09 SLP194 P0000 T01170089=
201206191546 SPECI KBLI 191546Z 19003KT 10SM BKN012 OVC037 11/09 A3008 RMK AO2 RAE09 P0000=
201206191453 METAR KBLI 191453Z 00000KT 8SM -RA FEW012 SCT028 OVC037 11/09 A3007 RMK AO2 RAB43 SLP188 P0000 60000 T01110094 51012=
201206191437 SPECI KBLI 191437Z 00000KT 10SM FEW008 BKN028 OVC035 11/09 A3006 RMK AO2=
201206191415 SPECI KBLI 191415Z 15003KT 10SM SCT008 BKN030 OVC037 11/09 A3006 RMK AO2=
201206191353 METAR KBLI 191353Z AUTO 15004KT 10SM BKN037 OVC045 11/08 A3005 RMK AO2 SLP184 T01110083=
201206191253 METAR KBLI 191253Z AUTO 17005KT 10SM FEW030 OVC046 11/08 A3004 RMK AO2 SLP180 T01110078=
201206191153 METAR KBLI 191153Z AUTO 16007KT 10SM BKN048 OVC065 11/08 A3003 RMK AO2 SLP176 70002 T01110078 10122 20111 51005=
201206191053 METAR KBLI 191053Z AUTO 16006KT 10SM BKN055 OVC070 11/07 A3003 RMK AO2 SLP175 T01110072=
201206190953 METAR KBLI 190953Z AUTO 16005KT 10SM SCT055 OVC070 12/07 A3002 RMK AO2 SLP173 T01170067=
201206190853 METAR KBLI 190853Z AUTO 16005KT 10SM BKN049 OVC060 12/07 A3001 RMK AO2 SLP171 T01170067 51003=
201206190753 METAR KBLI 190753Z AUTO 17005KT 10SM OVC041 12/06 A3001 RMK AO2 SLP170 T01220061 401560100=
201206190653 METAR KBLI 190653Z AUTO VRB03KT 10SM OVC043 12/07 A3001 RMK AO2 SLP168 T01170067=
201206190553 METAR KBLI 190553Z AUTO 17003KT 10SM BKN050 BKN055 11/07 A3000 RMK AO2 SLP167 T01110072 10156 20100 53007=
201206190453 METAR KBLI 190453Z 17004KT 10SM FEW050 11/08 A2999 RMK AO2 SLP163 T01060078=
201206190353 METAR KBLI 190353Z 16005KT 10SM BKN043 13/08 A2999 RMK AO2 SLP162 T01330078=
201206190253 METAR KBLI 190253Z 17004KT 10SM OVC075 14/08 A2998 RMK AO2 SLP160 T01440083 53006=
201206190153 METAR KBLI 190153Z 16007KT 10SM SCT043 OVC060 15/08 A2997 RMK AO2 SLP157 T01500078=
201206190053 METAR KBLI 190053Z 16008KT 10SM BKN065 OVC080 16/08 A2997 RMK AO2 SLP154 T01560083=
201206182353 METAR KBLI 182353Z 17007KT 10SM OVC060 15/08 A2997 RMK AO2 SLP155 T01500078 10150 20133 53001=
201206182253 METAR KBLI 182253Z 17008KT 10SM OVC070 15/08 A2996 RMK AO2 SLP154 T01500083=
201206182153 METAR KBLI 182153Z 18005KT 10SM OVC065 14/09 A2997 RMK AO2 SLP154 T01440094=
201206182053 METAR KBLI 182053Z 17007KT 10SM OVC065 14/09 A2997 RMK AO2 SLP154 T01440089 51014=
201206181953 METAR KBLI 181953Z 16008KT 10SM OVC065 14/10 A2996 RMK AO2 SLP150 T01440100=
201206181853 METAR KBLI 181853Z 16009KT 10SM OVC075 14/09 A2994 RMK AO2 SLP145 T01390094=
201206181753 METAR KBLI 181753Z 16006KT 10SM SCT015 BKN032 14/09 A2992 RMK AO2 SLP140 60002 T01390089 10139 20106 51020=
201206181653 METAR KBLI 181653Z 17007KT 10SM FEW007 SCT035 BKN050 13/09 A2991 RMK AO2 SLP134 T01280094=
201206181553 METAR KBLI 181553Z VRB06KT 10SM SCT007 BKN048 OVC060 12/10 A2989 RMK AO2 SLP128 T01170100=
201206181532 SPECI KBLI 181532Z 15007KT 10SM FEW007 BKN048 OVC060 12/10 A2988 RMK AO2=
201206181453 METAR KBLI 181453Z 17007KT 10SM SCT035 OVC044 11/09 A2986 RMK AO2 SLP120 60002 T01110094 52009=
201206181353 METAR KBLI 181353Z 17006KT 10SM SCT015 OVC044 11/09 A2985 RMK AO2 SLP116 T01060094=
201206181348 SPECI KBLI 181348Z AUTO 17005KT 10SM FEW010 SCT013 OVC044 11/09 A2985 RMK AO2=
201206181308 SPECI KBLI 181308Z AUTO 17006KT 10SM BKN015 BKN039 OVC080 11/09 A2984 RMK AO2=
201206181253 METAR KBLI 181253Z AUTO 17005KT 10SM FEW017 SCT050 OVC080 11/09 A2984 RMK AO2 RAE16 SLP111 P0002 T01060094=
201206181204 SPECI KBLI 181204Z AUTO 17005KT 9SM -RA FEW008 SCT011 OVC046 11/09 A2984 RMK AO2 P0001=
201206181153 METAR KBLI 181153Z AUTO 18005KT 10SM -RA SCT008 BKN011 OVC048 11/09 A2984 RMK AO2 RAB44 SLP111 P0000 60015 70018 T01060094 10122 20106 51001=
201206181142 SPECI KBLI 181142Z AUTO 17005KT 10SM FEW006 BKN022 OVC048 11/09 A2984 RMK AO2=
201206181135 SPECI KBLI 181135Z AUTO 18005KT 10SM BKN008 BKN024 OVC035 11/09 A2984 RMK AO2 CIG 005V015=
201206181114 SPECI KBLI 181114Z AUTO 17006KT 10SM SCT008 BKN017 OVC035 11/09 A2984 RMK AO2=
201206181103 SPECI KBLI 181103Z AUTO 18005KT 10SM SCT017 BKN023 OVC095 11/09 A2984 RMK AO2=
201206181053 METAR KBLI 181053Z AUTO 18003KT 10SM SCT020 BKN047 OVC095 11/09 A2984 RMK AO2 RAE17 SLP110 P0000 T01060094=
201206181001 SPECI KBLI 181001Z AUTO 15003KT 10SM -RA SCT016 SCT038 OVC070 11/09 A2983 RMK AO2 P0000=
201206180953 METAR KBLI 180953Z AUTO 17003KT 10SM -RA SCT015 BKN020 OVC075 11/09 A2983 RMK AO2 SLP110 P0004 T01060094=
201206180853 METAR KBLI 180853Z AUTO 15005KT 7SM -RA FEW013 BKN018 OVC055 11/10 A2984 RMK AO2 SLP111 P0005 60011 T01060100 56005=
201206180815 SPECI KBLI 180815Z AUTO 00000KT 8SM -RA FEW012 BKN019 OVC060 11/10 A2984 RMK AO2 P0001=
201206180753 METAR KBLI 180753Z AUTO 15005KT 7SM -RA OVC055 11/09 A2984 RMK AO2 SLP111 P0005 T01110094 401780111=
201206180653 METAR KBLI 180653Z AUTO 20004KT 10SM -RA FEW018 OVC039 12/09 A2985 RMK AO2 SLP115 P0001 T01170094=
201206180553 METAR KBLI 180553Z AUTO 18006KT 10SM -RA SCT044 OVC060 12/09 A2985 RMK AO2 SLP116 P0001 60002 T01220089 10178 20122 56002=
201206180453 METAR KBLI 180453Z 18004KT 10SM -RA BKN042 OVC060 13/10 A2985 RMK AO2 RAE19B52 SLP116 P0001 T01330100=
201206180353 METAR KBLI 180353Z 18006KT 10SM -RA BKN060 OVC080 13/10 A2985 RMK AO2 RAB29 SLP114 P0000 T01330100=
201206180253 METAR KBLI 180253Z 15007KT 10SM OVC055 15/08 A2986 RMK AO2 SLP117 T01500083 58004=
201206180153 METAR KBLI 180153Z VRB03KT 10SM BKN050 BKN070 16/08 A2987 RMK AO2 SLP119 T01610083=
201206180053 METAR KBLI 180053Z 17010G15KT 10SM FEW034 BKN047 17/10 A2987 RMK AO2 SLP120 T01670100=
201206172353 METAR KBLI 172353Z 16008G14KT 10SM CLR 17/11 A2987 RMK AO2 SLP120 60001 T01720106 10178 20139 56006=
201206172253 METAR KBLI 172253Z 15011G18KT 10SM FEW060 SCT085 17/11 A2987 RMK AO2 SLP121 T01720111=
201206172153 METAR KBLI 172153Z 17008KT 10SM OVC055 15/11 A2988 RMK AO2 SLP123 T01500111=
201206172053 METAR KBLI 172053Z 15009KT 10SM OVC055 16/11 A2989 RMK AO2 SLP126 60001 T01560111 56001=
201206171953 METAR KBLI 171953Z 16009G17KT 10SM BKN075 OVC095 14/12 A2989 RMK AO2 RAE08 SLP127 P0000 T01440117=
201206171900 SPECI KBLI 171900Z 17010G15KT 10SM -RA BKN055 OVC070 14/12 A2989 RMK AO2 P0000=
201206171853 METAR KBLI 171853Z 16008KT 9SM -RA BKN029 OVC060 14/12 A2989 RMK AO2 RAE1755B12 SLP126 P0001 T01440122=
201206171753 METAR KBLI 171753Z 17013G16KT 10SM -RA BKN029 BKN050 OVC070 14/12 A2989 RMK AO2 RAB16 SLP127 P0000 60000 T01440122 10150 20133 51004=
201206171653 METAR KBLI 171653Z 17011G17KT 10SM OVC070 14/12 A2989 RMK AO2 RAB27E44 SLP128 P0000 T01390122=
201206171553 METAR KBLI 171553Z 16012KT 10SM OVC080 14/12 A2989 RMK AO2 SLP126 T01390122=
201206171453 METAR KBLI 171453Z 17010G19KT 10SM OVC100 14/12 A2988 RMK AO2 SLP123 T01440117 50001=
201206171353 METAR KBLI 171353Z 17012G17KT 10SM OVC090 14/12 A2988 RMK AO2 SLP125 T01390117=
201206171253 METAR KBLI 171253Z AUTO 18007KT 10SM BKN090 14/12 A2988 RMK AO2 SLP123 T01390117=
201206171153 METAR KBLI 171153Z AUTO 17008KT 10SM CLR 13/12 A2988 RMK AO2 SLP122 60000 70071 T01330117 10156 20133 58003=
201206171053 METAR KBLI 171053Z AUTO 17007G15KT 150V220 10SM CLR 13/12 A2989 RMK AO2 SLP126 T01330117=
201206170953 METAR KBLI 170953Z AUTO 17009KT 10SM CLR 14/13 A2989 RMK AO2 SLP126 T01390128=
201206170853 METAR KBLI 170853Z AUTO 18009KT 10SM FEW014 OVC047 14/13 A2989 RMK AO2 SLP126 60000 T01440133 56011=
201206170753 METAR KBLI 170753Z AUTO 17008KT 10SM FEW010 OVC041 15/14 A2990 RMK AO2 RAB29E45 SLP129 P0000 T01500144 401780133=
201206170717 SPECI KBLI 170717Z AUTO 16006KT 10SM SCT003 BKN031 OVC039 15/14 A2991 RMK AO2=
201206170653 METAR KBLI 170653Z AUTO 17010KT 10SM BKN003 BKN013 OVC029 16/15 A2990 RMK AO2 RAB0559E10 SLP131 P0000 T01560150=
201206170553 METAR KBLI 170553Z AUTO 17005KT 10SM BKN003 OVC018 16/15 A2992 RMK AO2 RAE44 SLP137 P0001 60024 T01560150 10178 20156 58001=
201206170513 SPECI KBLI 170513Z 17004KT 5SM -RA BR FEW003 BKN020 OVC025 16/15 A2992 RMK AO2 P0000=
201206170453 METAR KBLI 170453Z 18004KT 7SM -RA BKN020 OVC025 16/16 A2992 RMK AO2 SLP137 P0002 T01610156=
201206170420 SPECI KBLI 170420Z 00000KT 5SM -RA BR SCT003 OVC024 16/16 A2992 RMK AO2 P0001=
201206170353 METAR KBLI 170353Z 21004KT 3/4SM R16/P6000FT -RA BR OVC003 17/16 A2993 RMK AO2 RAB0255 SLP141 P0013 T01670161=
201206170334 SPECI KBLI 170334Z 22003KT 1SM R16/6000VP6000FT +RA BR BKN003 OVC009 16/16 A2994 RMK AO2 RAB0255 P0009=
201206170327 SPECI KBLI 170327Z VRB03KT 3/4SM R16/5000VP6000FT RA BR SCT003 BKN007 OVC012 16/16 A2993 RMK AO2 RAB0255 P0005=
201206170320 SPECI KBLI 170320Z 20003KT 1 3/4SM R16/5500VP6000FT RA BR SCT005 BKN012 OVC050 16/16 A2993 RMK AO2 RAB0255 P0002=
201206170312 SPECI KBLI 170312Z 18006KT 10SM -RA FEW007 BKN012 OVC055 17/16 A2993 RMK AO2 RAB0255 P0000=
201206170253 METAR KBLI 170253Z 17006KT 10SM OVC055 17/16 A2992 RMK AO2 SLP138 60008 T01670156 56026=
201206170153 METAR KBLI 170153Z 00000KT 10SM BKN060 OVC080 18/17 A2993 RMK AO2 RAE00 SLP141 P0000 T01780167=
201206170137 SPECI KBLI 170137Z 15005KT 10SM FEW002 BKN055 OVC065 17/17 A2994 RMK AO2 RAE00 P0000=
201206170128 SPECI KBLI 170128Z 16005KT 10SM SCT002 BKN026 OVC055 17/16 A2995 RMK AO2 RAE00 P0000=
201206170114 SPECI KBLI 170114Z 16005KT 3SM BR BKN002 OVC055 17/16 A2996 RMK AO2 RAE00 P0000=
201206170107 SPECI KBLI 170107Z 17005KT 1 1/2SM BR BKN002 BKN033 OVC060 17/17 A2997 RMK AO2 RAE00 P0000=
201206170100 SPECI KBLI 170100Z 16006KT 6SM BR BKN002 BKN021 OVC033 17/16 A2997 RMK AO2 RAE00 P0000=
201206170053 METAR KBLI 170053Z 17007KT 3/4SM R16/P6000FT -RA BR BKN002 BKN021 OVC033 17/16 A2997 RMK AO2 SLP155 P0008 T01670161=
201206170029 SPECI KBLI 170029Z VRB03KT 3/4SM R16/P6000FT -RA BR BKN002 BKN009 OVC055 17/16 A2999=
201206170027 SPECI KBLI 170027Z 22004KT 1 1/2SM -RA BR SCT002 BKN009 OVC055 17/16 A3000 RMK AO2 P0006=
201206170019 SPECI KBLI 170019Z 21004KT 1 1/2SM -RA BR FEW002 BKN027 OVC055 17/16 A3000 RMK AO2 P0005=
201206170015 SPECI KBLI 170015Z 22004KT 3SM -RA BR FEW002 BKN039 OVC055 17/16 A3000 RMK AO2 P0005=
201206170011 SPECI KBLI 170011Z 20004KT 2SM -RA BR FEW012 BKN037 OVC055 17/16 A3000 RMK AO2 P0005=
201206162359 SPECI KBLI 162359Z 20003KT 1 1/2SM R16/5500VP6000FT RA BR FEW022 BKN029 OVC046 17/16 A3000 RMK AO2 P0002=
201206162353 METAR KBLI 162353Z 00000KT 3SM -RA BR FEW025 BKN033 OVC046 17/16 A3000 RMK AO2 SLP164 P0011 60026 T01670161 10172 20156 56015=
201206162306 SPECI KBLI 162306Z 18003KT 3SM RA BR FEW009 BKN038 OVC050 17/17 A3001 RMK AO2 P0004=
201206162258 SPECI KBLI 162258Z 00000KT 3SM R16/5500VP6000FT -RA BR FEW009 BKN027 OVC055 17/17 A3001 RMK AO2 P0001=
201206162253 METAR KBLI 162253Z 16004KT 3SM R16/6000VP6000FT -RA BR FEW021 BKN037 OVC050 17/16 A3001 RMK AO2 SLP167 P0005 T01720161=
201206162153 METAR KBLI 162153Z 16003KT 6SM -RA BR FEW018 BKN032 OVC055 17/16 A3002 RMK AO2 SLP171 P0004 T01670156=
201206162150 SPECI KBLI 162150Z 16003KT 6SM -RA BR FEW016 BKN032 OVC048 17/16 A3002 RMK AO2 P0004=
201206162144 SPECI KBLI 162144Z 22003KT 3SM -RA BR BKN012 OVC028 17/16 A3003 RMK AO2 P0004=
201206162053 METAR KBLI 162053Z 17007KT 6SM -RA BR SCT012 BKN028 OVC036 17/15 A3004 RMK AO2 SLP180 P0005 60006 T01670150 58008=
201206162045 SPECI KBLI 162045Z 17004KT 5SM -RA BR SCT012 BKN028 OVC036 17/16 A3005 RMK AO2 P0005=
201206162032 SPECI KBLI 162032Z 17008KT 2SM RA BR SCT012 BKN028 OVC036 17/16 A3005 RMK AO2 P0005=
201206161953 METAR KBLI 161953Z 16009KT 6SM -RA BR SCT019 BKN024 OVC028 16/15 A3006 RMK AO2 RAB02 SLP186 P0001 T01610150=
201206161853 METAR KBLI 161853Z 16005KT 6SM BR SCT012 BKN028 OVC042 17/15 A3007 RMK AO2 RAE00B30E40 SLP188 P0000 T01720150=
201206161753 METAR KBLI 161753Z 17005G14KT 4SM -RA BR BKN015 BKN022 OVC027 16/14 A3007 RMK AO2 RAB00 SLP188 P0002 60021 T01560144 10156 20133 58009=
201206161653 METAR KBLI 161653Z 17010G18KT 5SM BR FEW007 SCT012 OVC024 15/14 A3008 RMK AO2 RAE51 SLP192 CIG VSBY LWR NW-NE P0000 T01500139=
201206161553 METAR KBLI 161553Z 16009G14KT 3SM -RA BR FEW007 SCT012 OVC029 15/14 A3009 RMK AO2 SLP195 P0003 T01500144=
201206161529 SPECI KBLI 161529Z 19006KT 2SM -RA BR SCT007 SCT014 OVC029 15/14 A3010 RMK AO2 P0002=
201206161453 METAR KBLI 161453Z 15007KT 2SM -RA BR SCT007 BKN033 OVC048 14/13 A3010 RMK AO2 SLP198 P0010 60016 T01390133 50001=
201206161443 SPECI KBLI 161443Z 17007KT 1 3/4SM -RA BR FEW004 BKN031 OVC049 14/13 A3010 RMK AO2 P0009=
201206161429 SPECI KBLI 161429Z 17007KT 2SM -RA BR FEW004 BKN034 OVC050 14/13 A3011 RMK AO2 P0007=
201206161404 SPECI KBLI 161404Z 18004KT 1 3/4SM -RA BR OVC036 13/13 A3011 RMK AO2 P0002=
201206161353 METAR KBLI 161353Z 18005KT 2SM -RA BR OVC036 13/13 A3011 RMK AO2 SLP202 P0004 T01330128=
201206161348 SPECI KBLI 161348Z 19004KT 2SM -RA BR OVC036 14/13 A3011 RMK AO2 P0003=
201206161253 METAR KBLI 161253Z AUTO 15003KT 7SM -RA OVC046 13/12 A3009 RMK AO2 SLP197 P0002 T01330122=
201206161153 METAR KBLI 161153Z AUTO 00000KT 10SM -RA OVC050 14/12 A3010 RMK AO2 RAB20 SLP197 P0000 60000 T01390122 10150 20139 55007=
201206161053 METAR KBLI 161053Z AUTO 00000KT 10SM OVC055 14/11 A3010 RMK AO2 SLP197 T01390111=
201206160953 METAR KBLI 160953Z AUTO 00000KT 10SM OVC055 14/11 A3011 RMK AO2 SLP201 T01440111=
201206160853 METAR KBLI 160853Z AUTO 00000KT 10SM OVC060 14/11 A3012 RMK AO2 SLP205 T01440111 58010=
201206160753 METAR KBLI 160753Z AUTO 00000KT 10SM OVC070 14/11 A3013 RMK AO2 SLP209 T01440111 402000039=
201206160653 METAR KBLI 160653Z AUTO 00000KT 10SM OVC080 14/11 A3015 RMK AO2 SLP215 T01390106=
201206160553 METAR KBLI 160553Z AUTO 00000KT 10SM OVC090 15/11 A3015 RMK AO2 SLP215 T01500106 10194 20150 55001=
201206160453 METAR KBLI 160453Z 00000KT 10SM OVC110 15/10 A3014 RMK AO2 SLP212 T01500100=
201206160353 METAR KBLI 160353Z 00000KT 10SM SCT080 16/09 A3014 RMK AO2 SLP212 T01560094=
201206160253 METAR KBLI 160253Z 00000KT 10SM OVC080 17/10 A3015 RMK AO2 SLP217 T01720100 56010=
201206160153 METAR KBLI 160153Z 27003KT 10SM CLR 18/07 A3015 RMK AO2 SLP218 T01830072=
201206160053 METAR KBLI 160053Z 26003KT 10SM CLR 19/07 A3017 RMK AO2 SLP223 T01890067=
201206152353 METAR KBLI 152353Z 00000KT 10SM CLR 18/07 A3018 RMK AO2 SLP227 T01780072 10200 20167 55005=
201206152253 METAR KBLI 152253Z 25004KT 10SM CLR 18/07 A3018 RMK AO2 SLP227 T01830072=
201206152153 METAR KBLI 152153Z VRB05KT 10SM CLR 18/08 A3019 RMK AO2 SLP230 T01830078=
201206152053 METAR KBLI 152053Z 29007KT 260V320 10SM CLR 18/08 A3020 RMK AO2 SLP233 T01830083 55000=
201206151953 METAR KBLI 151953Z VRB03KT 10SM CLR 20/09 A3018 RMK AO2 SLP226 T02000089=
201206151853 METAR KBLI 151853Z VRB03KT 10SM CLR 18/08 A3019 RMK AO2 SLP230 T01780078=
201206151753 METAR KBLI 151753Z 00000KT 10SM CLR 17/07 A3020 RMK AO2 SLP233 T01720072 10172 20039 51000=
201206151653 METAR KBLI 151653Z 00000KT 10SM CLR 15/08 A3020 RMK AO2 SLP233 T01500083=
201206151553 METAR KBLI 151553Z VRB03KT 10SM CLR 13/08 A3020 RMK AO2 SLP234 T01330083=
201206151453 METAR KBLI 151453Z 00000KT 10SM CLR 11/08 A3020 RMK AO2 SLP232 T01060078 53006=
201206151353 METAR KBLI 151353Z 00000KT 10SM CLR 08/07 A3018 RMK AO2 SLP228 T00830072=
201206151314 SPECI KBLI 151314Z AUTO 00000KT 8SM SCT001 06/06 A3018 RMK AO2=
201206151306 SPECI KBLI 151306Z AUTO 00000KT 3SM BR BKN001 06/06 A3018 RMK AO2=
201206151302 SPECI KBLI 151302Z AUTO 00000KT 1SM R16/4000VP6000FT BR VV001 05/05 A3018 RMK AO2=
201206151253 METAR KBLI 151253Z AUTO 00000KT 1/4SM R16/2200VP6000FT FG VV001 05/04 A3018 RMK AO2 SLP228 T00500044=
201206151225 SPECI KBLI 151225Z AUTO 00000KT 1/2SM R16/1200VP6000FT FG VV001 05/04 A3018 RMK AO2=
201206151223 SPECI KBLI 151223Z AUTO 00000KT 1 3/4SM R16/1800VP6000FT BR SCT001 04/04 A3018 RMK AO2=
201206151153 METAR KBLI 151153Z AUTO 00000KT 10SM CLR 05/04 A3018 RMK AO2 SLP226 T00500039 10094 20044 50008=
201206151053 METAR KBLI 151053Z AUTO 00000KT 10SM CLR 06/04 A3018 RMK AO2 SLP226 T00560044=
201206150953 METAR KBLI 150953Z AUTO 00000KT 10SM CLR 06/05 A3016 RMK AO2 SLP221 T00610050=
201206150853 METAR KBLI 150853Z AUTO 00000KT 9SM CLR 06/06 A3015 RMK AO2 SLP219 T00610056 51003=
201206150753 METAR KBLI 150753Z AUTO 00000KT 10SM CLR 07/06 A3015 RMK AO2 SLP218 T00670056 401560067=
201206150653 METAR KBLI 150653Z AUTO 00000KT 10SM CLR 08/07 A3015 RMK AO2 SLP218 T00780067=
201206150553 METAR KBLI 150553Z AUTO 00000KT 10SM CLR 09/08 A3015 RMK AO2 SLP215 T00890078 10156 20089 53004=
201206150453 METAR KBLI 150453Z 18004KT 10SM CLR 11/08 A3014 RMK AO2 SLP212 T01110078=
201206150353 METAR KBLI 150353Z 19003KT 10SM CLR 12/08 A3013 RMK AO2 SLP210 T01170078=
201206150253 METAR KBLI 150253Z 17005KT 10SM CLR 13/08 A3013 RMK AO2 SLP210 T01280078 51000=
201206150153 METAR KBLI 150153Z 16009KT 10SM OVC065 14/08 A3013 RMK AO2 SLP210 T01390078=
201206150053 METAR KBLI 150053Z 18006KT 10SM CLR 14/07 A3013 RMK AO2 SLP211 T01440072=
201206142353 METAR KBLI 142353Z 17010G16KT 10SM BKN075 14/07 A3013 RMK AO2 SLP210 60000 T01440067 10150 20117 51001=
201206142253 METAR KBLI 142253Z 17008KT 10SM FEW075 14/07 A3013 RMK AO2 SLP210 T01440067=
201206142153 METAR KBLI 142153Z 16009KT 10SM OVC070 14/07 A3014 RMK AO2 RAE12 SLP212 P0000 T01390067=
201206142053 METAR KBLI 142053Z 16012G17KT 10SM -RA FEW041 OVC070 13/07 A3013 RMK AO2 RAB52 SLP209 P0000 60000 T01280072 51012=
201206141953 METAR KBLI 141953Z 16009G18KT 10SM FEW025 BKN046 BKN075 12/08 A3012 RMK AO2 RAE1854 SLP208 T01220078=
201206141853 METAR KBLI 141853Z 17011G18KT 10SM -RA OVC025 12/08 A3011 RMK AO2 RAB44 SLP203 P0000 T01170078=
201206141753 METAR KBLI 141753Z 16013G18KT 10SM OVC027 12/07 A3009 RMK AO2 SLP197 T01170072 10117 20100 58003=
201206141653 METAR KBLI 141653Z 15009G19KT 10SM OVC027 12/07 A3009 RMK AO2 SLP197 T01170067=
201206141553 METAR KBLI 141553Z 16010KT 10SM OVC029 11/07 A3010 RMK AO2 SLP201 T01110067=
201206141453 METAR KBLI 141453Z 16008KT 10SM FEW017 BKN029 BKN110 11/07 A3010 RMK AO2 SLP200 T01060067 55000=
201206141353 METAR KBLI 141353Z 16008KT 10SM SCT015 SCT110 11/07 A3010 RMK AO2 SLP200 T01060067=
201206141253 METAR KBLI 141253Z AUTO 15007KT 10SM OVC110 10/06 A3010 RMK AO2 SLP200 T01000061 TSNO=
201206141153 METAR KBLI 141153Z AUTO 16010G17KT 10SM FEW120 10/07 A3010 RMK AO2 SLP200 T01000067 10111 20094 56008 TSNO=
201206141053 METAR KBLI 141053Z AUTO 15006KT 10SM CLR 10/06 A3011 RMK AO2 SLP203 T01000056 TSNO=
201206140953 METAR KBLI 140953Z AUTO 15008KT 10SM CLR 10/05 A3012 RMK AO2 SLP206 T01000050 TSNO=
201206140853 METAR KBLI 140853Z AUTO 15008KT 10SM CLR 10/06 A3013 RMK AO2 SLP208 T01000056 58010 TSNO=
201206140753 METAR KBLI 140753Z AUTO 15010KT 10SM CLR 11/06 A3014 RMK AO2 SLP212 T01060056 401670106 TSNO=
201206140653 METAR KBLI 140653Z AUTO 16008KT 10SM CLR 11/06 A3014 RMK AO2 SLP215 T01060056 TSNO=
201206140553 METAR KBLI 140553Z AUTO 16009KT 10SM CLR 11/06 A3015 RMK AO2 SLP218 T01110056 10161 20111 53001 TSNO=
201206140453 METAR KBLI 140453Z 16009KT 10SM CLR 12/06 A3015 RMK AO2 SLP217 T01170061=
201206140353 METAR KBLI 140353Z 16009KT 10SM SCT050 12/06 A3015 RMK AO2 SLP216 T01220061=
201206140253 METAR KBLI 140253Z 16009KT 10SM SCT050 13/07 A3015 RMK AO2 SLP217 T01330072 58003=
201206140153 METAR KBLI 140153Z 16010KT 10SM FEW048 14/08 A3016 RMK AO2 SLP218 T01440078=
201206140053 METAR KBLI 140053Z 16009KT 10SM SCT048 15/07 A3016 RMK AO2 SLP220 T01500072=
201206132353 METAR KBLI 132353Z 15012G17KT 10SM SCT048 16/08 A3016 RMK AO2 SLP219 T01610083 10167 20139 50002=
201206132253 METAR KBLI 132253Z 16011G17KT 10SM OVC044 16/07 A3016 RMK AO2 SLP220 T01560067=
201206132153 METAR KBLI 132153Z 16012KT 10SM FEW060 17/07 A3016 RMK AO2 SLP219 T01670067=
201206132053 METAR KBLI 132053Z 15015G19KT 10SM FEW045 OVC075 16/07 A3016 RMK AO2 SLP217 T01610072 51013=
201206131953 METAR KBLI 131953Z 16012G17KT 10SM OVC041 15/08 A3015 RMK AO2 SLP214 T01500078=
201206131853 METAR KBLI 131853Z 16010KT 10SM BKN045 OVC070 14/08 A3013 RMK AO2 SLP209 T01440078=
201206131753 METAR KBLI 131753Z 16012G18KT 10SM BKN065 OVC080 14/08 A3012 RMK AO2 SLP204 T01390078 10144 20117 51013=
201206131653 METAR KBLI 131653Z 17010G14KT 10SM OVC035 13/08 A3011 RMK AO2 SLP202 T01330083=
201206131553 METAR KBLI 131553Z 17010KT 10SM OVC036 12/08 A3010 RMK AO2 SLP199 T01220083=
201206131453 METAR KBLI 131453Z 17010KT 10SM SCT028 OVC037 12/08 A3008 RMK AO2 SLP191 T01220083 51010=
201206131443 SPECI KBLI 131443Z 16010KT 10SM BKN028 OVC037 12/08 A3008 RMK AO2=
201206131353 METAR KBLI 131353Z AUTO 16010G17KT 10SM FEW015 OVC030 12/08 A3006 RMK AO2 SLP186 T01170083=
201206131350 SPECI KBLI 131350Z AUTO 16011G17KT 10SM FEW015 SCT026 OVC030 12/08 A3006 RMK AO2=
201206131253 METAR KBLI 131253Z AUTO 17004KT 10SM OVC027 12/09 A3005 RMK AO2 SLP180 T01220089=
201206131153 METAR KBLI 131153Z AUTO 18004KT 10SM OVC019 13/09 A3003 RMK AO2 SLP175 T01280094 10144 20128 53014=
201206131053 METAR KBLI 131053Z AUTO 16010KT 10SM OVC025 13/09 A3001 RMK AO2 SLP168 T01280094=
201206131035 SPECI KBLI 131035Z AUTO 18008G14KT 10SM OVC029 13/09 A3001 RMK AO2=
201206130953 METAR KBLI 130953Z AUTO 17009G15KT 10SM OVC033 13/10 A2999 RMK AO2 SLP163 T01330100=
201206130853 METAR KBLI 130853Z AUTO 17007KT 10SM BKN035 OVC070 13/11 A2999 RMK AO2 SLP160 T01330106 53007=
201206130753 METAR KBLI 130753Z AUTO 17008KT 10SM OVC075 13/11 A2998 RMK AO2 SLP157 T01330106 401670133=
201206130653 METAR KBLI 130653Z AUTO 17009G16KT 10SM BKN035 BKN070 13/11 A2997 RMK AO2 SLP155 T01330106=
201206130553 METAR KBLI 130553Z AUTO 17009KT 10SM BKN035 OVC110 14/11 A2997 RMK AO2 RAE08 SLP153 P0000 60000 T01440111 10161 20144 57003=
201206130453 METAR KBLI 130453Z 17010KT 10SM -RA OVC048 14/12 A2997 RMK AO2 RAE0354B28 SLP154 P0000 T01440122=
201206130353 METAR KBLI 130353Z 17007KT 10SM -RA BKN035 OVC046 14/12 A2997 RMK AO2 RAB33 SLP154 P0000 T01440122=
201206130253 METAR KBLI 130253Z 16007KT 10SM BKN035 OVC046 15/12 A2997 RMK AO2 RAE22 SLP156 P0000 60000 T01500122 56006=
201206130153 METAR KBLI 130153Z 17010KT 10SM -RA OVC035 16/12 A2998 RMK AO2 RAB51 SLP157 P0000 T01560122=
201206130053 METAR KBLI 130053Z 16008KT 10SM BKN042 OVC080 16/12 A2999 RMK AO2 SLP160 T01610122=
201206122353 METAR KBLI 122353Z 17009G14KT 10SM OVC042 14/12 A2999 RMK AO2 SLP162 T01440117 10167 20144 58006=
201206122253 METAR KBLI 122253Z 16008KT 10SM OVC046 16/12 A3000 RMK AO2 SLP163 T01560122=
201206122153 METAR KBLI 122153Z 18005KT 10SM OVC048 16/11 A3001 RMK AO2 SLP167 T01610111=
201206122053 METAR KBLI 122053Z 16006KT 10SM OVC055 16/11 A3001 RMK AO2 SLP167 T01610106 55003=
201206121953 METAR KBLI 121953Z 20005KT 10SM OVC060 16/11 A3001 RMK AO2 SLP167 T01610106=
201206121853 METAR KBLI 121853Z 17004KT 10SM OVC055 16/10 A3001 RMK AO2 SLP169 T01560100=
201206121753 METAR KBLI 121753Z 17006KT 10SM BKN055 OVC070 16/11 A3002 RMK AO2 SLP170 T01560106 10156 20139 53001=
201206121653 METAR KBLI 121653Z 19005KT 10SM OVC070 15/11 A3001 RMK AO2 SLP169 T01500111=
201206121553 METAR KBLI 121553Z 18004KT 10SM SCT045 OVC070 15/11 A3001 RMK AO2 SLP170 T01500111=
201206121453 METAR KBLI 121453Z 16004KT 10SM SCT041 OVC050 14/12 A3002 RMK AO2 SLP170 T01440117 56003=
201206121353 METAR KBLI 121353Z 16004KT 10SM BKN041 OVC050 14/12 A3002 RMK AO2 SLP171 T01440117=
201206121253 METAR KBLI 121253Z AUTO 18004KT 10SM BKN049 OVC100 14/11 A3002 RMK AO2 SLP170 T01390111=
201206121153 METAR KBLI 121153Z AUTO 17003KT 10SM BKN047 OVC060 14/11 A3002 RMK AO2 SLP173 60000 T01390111 10156 20139 56009=
201206121053 METAR KBLI 121053Z AUTO 18003KT 10SM OVC070 14/12 A3003 RMK AO2 SLP175 T01390117=
201206120953 METAR KBLI 120953Z AUTO 15003KT 10SM OVC085 14/11 A3004 RMK AO2 SLP179 T01440111=
201206120853 METAR KBLI 120853Z AUTO 18006KT 10SM BKN090 OVC110 14/10 A3005 RMK AO2 SLP182 60000 T01440100 55005=
201206120753 METAR KBLI 120753Z AUTO 19004KT 10SM OVC090 14/10 A3005 RMK AO2 RAE04 SLP182 P0000 T01440100 402280061=
201206120653 METAR KBLI 120653Z AUTO 21005KT 10SM -RA OVC085 15/12 A3006 RMK AO2 RAB41 SLP185 P0000 T01500122=
201206120553 METAR KBLI 120553Z AUTO 00000KT 10SM FEW080 BKN120 16/11 A3007 RMK AO2 SLP187 T01560111 10228 20156 58000=
201206120453 METAR KBLI 120453Z 00000KT 10SM BKN090 16/12 A3007 RMK AO2 SLP188 T01560117=
201206120353 METAR KBLI 120353Z 00000KT 10SM OVC090 17/12 A3006 RMK AO2 SLP187 T01720117=
201206120253 METAR KBLI 120253Z 27003KT 10SM CLR 19/10 A3007 RMK AO2 SLP187 T01940100 56010=
201206120153 METAR KBLI 120153Z 27004KT 10SM CLR 21/09 A3007 RMK AO2 SLP190 T02060094=
201206120053 METAR KBLI 120053Z 27003KT 10SM CLR 21/11 A3008 RMK AO2 SLP194 T02110106=
201206112353 METAR KBLI 112353Z VRB04KT 10SM CLR 23/10 A3010 RMK AO2 SLP197 T02280100 10228 20178 58014=
201206112253 METAR KBLI 112253Z VRB03KT 10SM CLR 22/10 A3011 RMK AO2 SLP202 T02220100=
201206112153 METAR KBLI 112153Z 00000KT 10SM CLR 22/11 A3012 RMK AO2 SLP206 T02170106=
201206112053 METAR KBLI 112053Z 31007KT 10SM FEW040 21/11 A3014 RMK AO2 SLP211 T02110111 58010=
201206111953 METAR KBLI 111953Z 18006KT 10SM CLR 20/10 A3015 RMK AO2 SLP215 T02000100=
201206111853 METAR KBLI 111853Z 13005KT 10SM CLR 19/11 A3016 RMK AO2 SLP221 T01890111=
201206111753 METAR KBLI 111753Z 00000KT 10SM CLR 18/09 A3017 RMK AO2 SLP222 T01780094 10178 20061 58007=
201206111653 METAR KBLI 111653Z 00000KT 10SM CLR 16/11 A3018 RMK AO2 SLP225 T01610106=
201206111553 METAR KBLI 111553Z 00000KT 10SM CLR 15/11 A3018 RMK AO2 SLP228 T01500106=
201206111453 METAR KBLI 111453Z 00000KT 10SM CLR 13/10 A3019 RMK AO2 SLP229 T01280100 58001=
201206111353 METAR KBLI 111353Z AUTO 00000KT 10SM CLR 11/09 A3019 RMK AO2 SLP231 T01110094=
201206111253 METAR KBLI 111253Z AUTO 00000KT 6SM BR CLR 07/06 A3019 RMK AO2 SLP232 T00670061=
201206111153 METAR KBLI 111153Z AUTO 00000KT 9SM CLR 07/06 A3019 RMK AO2 SLP230 T00720061 10100 20061 58008 $=
201206111053 METAR KBLI 111053Z AUTO 00000KT 10SM CLR 06/06 A3020 RMK AO2 SLP233 T00610056=
201206110953 METAR KBLI 110953Z AUTO 00000KT 10SM CLR 07/06 A3020 RMK AO2 SLP235 T00720061=
201206110853 METAR KBLI 110853Z AUTO 00000KT 10SM CLR 08/07 A3021 RMK AO2 SLP237 T00830067 58007=
201206110753 METAR KBLI 110753Z AUTO 00000KT 10SM CLR 08/07 A3022 RMK AO2 SLP240 T00830072 401720083=
201206110653 METAR KBLI 110653Z AUTO 00000KT 10SM CLR 08/07 A3023 RMK AO2 SLP243 T00830072=
201206110553 METAR KBLI 110553Z AUTO 00000KT 10SM CLR 09/08 A3023 RMK AO2 SLP244 T00940078 10167 20094 56004=
201206110453 METAR KBLI 110453Z 00000KT 10SM CLR 11/08 A3023 RMK AO2 SLP245 T01110083=
201206110353 METAR KBLI 110353Z 00000KT 10SM FEW085 12/09 A3023 RMK AO2 SLP244 T01220089=
201206110253 METAR KBLI 110253Z 00000KT 10SM OVC080 14/08 A3024 RMK AO2 SLP248 T01440083 58004=
201206110153 METAR KBLI 110153Z 16003KT 10SM CLR 16/08 A3025 RMK AO2 SLP251 T01560078=
201206110053 METAR KBLI 110053Z 16005KT 10SM CLR 16/08 A3025 RMK AO2 SLP252 T01610078=
201206102353 METAR KBLI 102353Z 16005KT 10SM CLR 16/07 A3026 RMK AO2 SLP253 T01610072 10172 20133 58006=
201206102253 METAR KBLI 102253Z 16006KT 10SM CLR 16/07 A3026 RMK AO2 SLP255 T01610072=
201206102153 METAR KBLI 102153Z 21004KT 10SM CLR 16/07 A3027 RMK AO2 SLP257 T01560067=
201206102053 METAR KBLI 102053Z VRB06KT 10SM FEW032 BKN043 16/08 A3027 RMK AO2 SLP259 T01560083 50003=
201206101953 METAR KBLI 101953Z 14006KT 10SM SCT030 OVC043 14/08 A3027 RMK AO2 SLP259 T01440078=
201206101853 METAR KBLI 101853Z 19008KT 160V230 10SM OVC041 13/08 A3027 RMK AO2 SLP256 T01330078=
201206101753 METAR KBLI 101753Z 18007KT 10SM SCT043 13/08 A3026 RMK AO2 SLP255 T01330083 10133 20106 50002=
201206101653 METAR KBLI 101653Z 17006KT 10SM CLR 12/08 A3026 RMK AO2 SLP255 T01220083=
201206101553 METAR KBLI 101553Z 17008KT 10SM SCT017 BKN035 OVC044 12/08 A3026 RMK AO2 SLP253 T01170083=
201206101453 METAR KBLI 101453Z 17010G16KT 10SM OVC017 11/08 A3026 RMK AO2 SLP254 T01110078 53015=
201206101353 METAR KBLI 101353Z AUTO 17011G18KT 10SM SCT027 SCT043 BKN065 11/07 A3024 RMK AO2 SLP248 T01060072=
201206101253 METAR KBLI 101253Z AUTO 16011G17KT 10SM FEW055 11/07 A3023 RMK AO2 SLP243 T01060067=
201206101153 METAR KBLI 101153Z AUTO 17011G19KT 10SM CLR 11/07 A3022 RMK AO2 SLP239 T01060072 10117 20106 53003=
201206101053 METAR KBLI 101053Z AUTO 16012G20KT 10SM FEW015 BKN060 11/07 A3021 RMK AO2 SLP235 T01060072=
201206101021 SPECI KBLI 101021Z AUTO 16012G19KT 10SM BKN015 OVC060 11/07 A3021 RMK AO2=
201206100953 METAR KBLI 100953Z AUTO 15013KT 10SM BKN065 11/07 A3021 RMK AO2 SLP235 T01060072=
201206100923 SPECI KBLI 100923Z AUTO 16010KT 10SM FEW015 SCT065 11/07 A3020 RMK AO2=
201206100901 SPECI KBLI 100901Z AUTO 17010KT 10SM BKN015 OVC065 11/07 A3019 RMK AO2=
201206100853 METAR KBLI 100853Z AUTO 16009KT 10SM SCT015 BKN060 11/07 A3020 RMK AO2 SLP233 T01060072 53006=
201206100753 METAR KBLI 100753Z AUTO 15014G19KT 10SM SCT060 11/07 A3019 RMK AO2 SLP229 T01060072 401670072=
201206100653 METAR KBLI 100653Z AUTO 16008KT 10SM OVC060 11/07 A3019 RMK AO2 SLP229 T01110072=
201206100553 METAR KBLI 100553Z AUTO 16010G16KT 10SM OVC060 12/08 A3018 RMK AO2 SLP226 T01170078 10156 20117 52020=
201206100453 METAR KBLI 100453Z 16011KT 10SM SCT060 12/08 A3016 RMK AO2 SLP221 T01170078=
201206100353 METAR KBLI 100353Z 17009G16KT 10SM CLR 12/08 A3013 RMK AO2 SLP210 T01220078=
201206100253 METAR KBLI 100253Z 17008KT 10SM CLR 14/08 A3012 RMK AO2 SLP205 T01390078 51007=
201206100153 METAR KBLI 100153Z 17009G17KT 10SM OVC060 15/08 A3011 RMK AO2 SLP203 T01500078=
201206100053 METAR KBLI 100053Z 17011KT 10SM OVC060 15/07 A3011 RMK AO2 SLP202 T01500072=
201206092353 METAR KBLI 092353Z 16011G16KT 10SM CLR 16/07 A3010 RMK AO2 SLP198 T01560072 10167 20128 51005=
201206092253 METAR KBLI 092253Z 17010G18KT 10SM OVC065 16/08 A3010 RMK AO2 SLP198 T01560078=
201206092153 METAR KBLI 092153Z 18008G18KT 10SM BKN050 OVC065 16/08 A3009 RMK AO2 SLP197 T01610083=
201206092053 METAR KBLI 092053Z 16012G17KT 10SM FEW050 16/09 A3008 RMK AO2 SLP194 T01610089 58004=
201206091953 METAR KBLI 091953Z 16009KT 10SM CLR 15/08 A3009 RMK AO2 SLP195 T01500083=
201206091853 METAR KBLI 091853Z 16009KT 10SM BKN055 14/08 A3010 RMK AO2 SLP198 T01390083=
201206091753 METAR KBLI 091753Z 17008KT 10SM FEW026 OVC060 13/09 A3009 RMK AO2 SLP198 T01280089 10128 20100 52003=
201206091653 METAR KBLI 091653Z 17012KT 10SM BKN024 OVC055 12/08 A3009 RMK AO2 SLP195 T01170078=
201206091649 SPECI KBLI 091649Z 17010KT 10SM OVC024 12/08 A3009 RMK AO2=
201206091553 METAR KBLI 091553Z 17011G18KT 10SM SCT024 OVC055 11/08 A3007 RMK AO2 SLP191 T01110083=
201206091453 METAR KBLI 091453Z 17010G17KT 10SM OVC050 11/08 A3007 RMK AO2 SLP188 T01060078 51004=
201206091353 METAR KBLI 091353Z 16004KT 10SM OVC050 11/08 A3007 RMK AO2 SLP188 T01060078=
201206091253 METAR KBLI 091253Z AUTO 17008KT 10SM OVC060 10/08 A3006 RMK AO2 SLP187 T01000078=
201206091153 METAR KBLI 091153Z AUTO 17004KT 10SM OVC055 10/07 A3005 RMK AO2 SLP184 70017 T01000072 10100 20072 53008=
201206091053 METAR KBLI 091053Z AUTO 18004KT 10SM OVC060 09/07 A3004 RMK AO2 SLP178 T00940072=
201206090953 METAR KBLI 090953Z AUTO 16004KT 10SM BKN050 08/07 A3005 RMK AO2 SLP181 T00780072=
201206090853 METAR KBLI 090853Z AUTO 16004KT 10SM CLR 08/07 A3003 RMK AO2 SLP176 T00830067 53003=
201206090753 METAR KBLI 090753Z AUTO 14004KT 10SM CLR 08/07 A3003 RMK AO2 SLP174 T00830067 401670061=
201206090653 METAR KBLI 090653Z AUTO 16003KT 10SM CLR 08/08 A3002 RMK AO2 SLP173 T00830078=
201206090553 METAR KBLI 090553Z AUTO 00000KT 7SM CLR 08/07 A3002 RMK AO2 SLP174 60011 T00780072 10144 20072 51011=
201206090532 SPECI KBLI 090532Z AUTO 00000KT 4SM BR CLR 08/07 A3002 RMK AO2=
201206090523 SPECI KBLI 090523Z 00000KT 1 3/4SM BR CLR 08/07 A3002 RMK AO2=
201206090453 METAR KBLI 090453Z 00000KT 10SM CLR 08/07 A3002 RMK AO2 SLP171 T00780072=
201206090353 METAR KBLI 090353Z 00000KT 10SM CLR 10/09 A3000 RMK AO2 SLP165 T01000094=
201206090253 METAR KBLI 090253Z 00000KT 10SM FEW070 13/09 A2999 RMK AO2 RAE17 SLP161 P0000 60011 T01280094 53008=
201206090153 METAR KBLI 090153Z 33004KT 9SM -RA OVC070 12/09 A2998 RMK AO2 SLP157 P0011 T01220094=
201206090053 METAR KBLI 090053Z 01005KT 10SM -RA BKN032 OVC042 13/09 A2997 RMK AO2 RAB38 SLP157 P0000 T01280089=
201206082353 METAR KBLI 082353Z 04005KT 10SM OVC034 14/08 A2996 RMK AO2 SLP153 60001 T01390078 10167 20100 51004=
201206082253 METAR KBLI 082253Z 27003KT 10SM SCT036 SCT080 16/07 A2996 RMK AO2 SLP152 T01560067=
201206082153 METAR KBLI 082153Z 15006KT 10SM FEW080 16/06 A2996 RMK AO2 SLP151 T01560056=
201206082053 METAR KBLI 082053Z 17008KT 10SM FEW022 SCT027 BKN049 14/06 A2995 RMK AO2 SLP149 60001 T01440056 58001=
201206081953 METAR KBLI 081953Z 08004KT 10SM FEW025 SCT030 BKN049 13/08 A2995 RMK AO2 SLP150 T01280083=
201206081853 METAR KBLI 081853Z 16006KT 10SM SCT024 BKN046 OVC055 12/07 A2995 RMK AO2 RAE16 SLP150 P0001 T01220072=
201206081850 SPECI KBLI 081850Z 15005KT 10SM SCT024 BKN046 OVC055 12/08 A2995 RMK AO2 RAE16 P0001=
201206081753 METAR KBLI 081753Z 00000KT 10SM R16/5000VP6000FT RA BKN024 BKN030 OVC037 11/08 A2996 RMK AO2 RAB41 SLP151 P0005 60005 T01060078 10122 20067 51002=
201206081653 METAR KBLI 081653Z 14005KT 10SM BKN022 BKN033 OVC039 12/07 A2996 RMK AO2 SLP150 T01170067=
201206081600 SPECI KBLI 081600Z 00000KT 10SM BKN022 BKN028 OVC033 11/09 A2996 RMK AO2=
201206081553 METAR KBLI 081553Z 00000KT 10SM FEW018 SCT028 OVC033 11/09 A2996 RMK AO2 SLP151 T01060089=
201206081453 METAR KBLI 081453Z 00000KT 10SM BKN038 OVC050 10/08 A2995 RMK AO2 SLP149 T01000083 53005=
201206081430 SPECI KBLI 081430Z 00000KT 10SM SCT021 OVC048 09/08 A2995 RMK AO2=
201206081353 METAR KBLI 081353Z 36003KT 10SM FEW019 OVC026 08/08 A2994 RMK AO2 SLP146 T00830078=
201206081341 SPECI KBLI 081341Z AUTO 36003KT 10SM BKN026 BKN035 OVC046 08/08 A2994 RMK AO2=
201206081253 METAR KBLI 081253Z AUTO 00000KT 10SM FEW023 BKN048 OVC090 08/07 A2994 RMK AO2 SLP146 T00780072=
201206081245 SPECI KBLI 081245Z AUTO 00000KT 10SM SCT023 BKN070 OVC085 08/07 A2994 RMK AO2=
201206081234 SPECI KBLI 081234Z AUTO 00000KT 10SM BKN023 BKN030 OVC070 07/07 A2994 RMK AO2=
201206081158 SPECI KBLI 081158Z AUTO 00000KT 3SM BR FEW002 SCT031 BKN120 07/07 A2994 RMK AO2=
201206081153 METAR KBLI 081153Z AUTO 00000KT 1 3/4SM BR FEW002 SCT029 SCT120 07/07 A2994 RMK AO2 VIS 3/4V5 SLP144 60000 70037 T00720067 10100 20061 50000=
201206081131 SPECI KBLI 081131Z AUTO 00000KT 1 3/4SM R16/5500VP6000FT BR FEW002 SCT050 BKN110 07/07 A2993 RMK AO2 VIS 1 1/4V3=
201206081114 SPECI KBLI 081114Z AUTO 00000KT 3SM BR FEW001 BKN110 07/06 A2994 RMK AO2=
201206081100 SPECI KBLI 081100Z AUTO 00000KT 1 1/2SM R16/5000VP6000FT BR SCT001 SCT100 07/06 A2993 RMK AO2 VIS 1V3=
201206081053 METAR KBLI 081053Z AUTO 00000KT 1 1/4SM R16/2600VP6000FT BR BKN001 BKN060 07/06 A2993 RMK AO2 VIS 3/4V4 SLP144 T00670061=
201206081050 SPECI KBLI 081050Z AUTO 00000KT 1SM R16/2600VP6000FT BR BKN001 BKN035 BKN060 07/06 A2993 RMK AO2 VIS 1/2V4=
201206081017 SPECI KBLI 081017Z AUTO 00000KT 1/4SM R16/2200V4000FT FG BKN001 BKN028 BKN040 07/06 A2994 RMK AO2=
201206081010 SPECI KBLI 081010Z AUTO 00000KT 1/2SM R16/2800VP6000FT FG SCT001 SCT028 BKN070 07/06 A2994 RMK AO2=
201206081001 SPECI KBLI 081001Z AUTO 00000KT 3/4SM R16/2000VP6000FT BR SCT001 BKN028 BKN070 07/07 A2994 RMK AO2 VIS 1/2V2 1/2=
201206080953 METAR KBLI 080953Z AUTO 00000KT 1/2SM R16/2000VP6000FT FG BKN001 BKN070 07/07 A2994 RMK AO2 SLP145 T00720067=
201206080942 SPECI KBLI 080942Z AUTO 00000KT 1/2SM R16/2000V3000FT FG VV001 07/07 A2994 RMK AO2=
201206080934 SPECI KBLI 080934Z AUTO 00000KT 1/4SM R16/1200V2200FT FG VV001 08/07 A2994 RMK AO2=
201206080924 SPECI KBLI 080924Z AUTO 00000KT 1/4SM R16/1400VP6000FT FG VV002 07/07 A2994 RMK AO2=
201206080916 SPECI KBLI 080916Z AUTO 00000KT 3/4SM R16/3000VP6000FT BR VV002 08/07 A2994 RMK AO2=
201206080905 SPECI KBLI 080905Z AUTO 00000KT 1 3/4SM BR FEW002 SCT060 08/07 A2994 RMK AO2=
201206080853 METAR KBLI 080853Z AUTO 00000KT 9SM FEW024 SCT040 BKN060 09/08 A2994 RMK AO2 RAE0759 SLP144 P0000 60000 T00890083 58003=
201206080753 METAR KBLI 080753Z AUTO 00000KT 9SM -RA BKN030 OVC037 10/09 A2994 RMK AO2 RAB48 SLP145 P0000 T01000089 401610089=
201206080653 METAR KBLI 080653Z AUTO 00000KT 10SM OVC040 10/09 A2995 RMK AO2 RAB06E16 SLP148 P0000 T01000089=
201206080553 METAR KBLI 080553Z AUTO 00000KT 10SM BKN042 OVC055 10/09 A2995 RMK AO2 SLP147 60003 T01000094 10128 20094 50001=
201206080453 METAR KBLI 080453Z 00000KT 10SM BKN048 OVC060 10/09 A2995 RMK AO2 RAE48 SLP148 P0000 T01000089=
201206080353 METAR KBLI 080353Z 00000KT 10SM -RA OVC050 11/09 A2995 RMK AO2 SLP148 P0002 T01060094=
201206080253 METAR KBLI 080253Z 15004KT 10SM -RA OVC050 11/08 A2994 RMK AO2 SLP147 P0000 60001 T01110083 51021=
201206080153 METAR KBLI 080153Z 17004KT 10SM -RA OVC055 12/09 A2993 RMK AO2 RAB07 SLP143 P0001 T01170089=
201206080053 METAR KBLI 080053Z 19003KT 10SM OVC050 12/09 A2991 RMK AO2 RAB07E19 SLP136 P0000 T01220094=
201206072353 METAR KBLI 072353Z VRB03KT 10SM FEW028 BKN038 OVC055 12/10 A2988 RMK AO2 RAE29 SLP126 P0003 60010 T01220100 10161 20117 53028=
201206072253 METAR KBLI 072253Z 21004KT 6SM -RA BR SCT030 BKN036 OVC060 12/11 A2984 RMK AO2 RAB29 SLP113 CIG VSBY LWR SW-N P0006 T01220106=
201206072153 METAR KBLI 072153Z 15011G17KT 10SM OVC038 16/09 A2980 RMK AO2 PK WND 17028/2130 SLP099 T01560089=
201206072053 METAR KBLI 072053Z 15009KT 10SM OVC040 14/09 A2980 RMK AO2 SLP097 60001 T01440089 53001=
201206071953 METAR KBLI 071953Z 10008KT 10SM BKN048 BKN055 OVC075 13/09 A2978 RMK AO2 RAE43 SLP093 P0001 T01330094=
201206071853 METAR KBLI 071853Z 11008G15KT 10SM -RA OVC060 13/09 A2979 RMK AO2 SLP095 P0000 T01330094=
201206071753 METAR KBLI 071753Z 06004KT 10SM -RA BKN036 BKN055 OVC070 12/10 A2980 RMK AO2 SLP096 P0002 60024 T01170100 10117 20089 56007=
201206071653 METAR KBLI 071653Z 02003KT 9SM -RA BKN042 BKN049 OVC055 11/09 A2980 RMK AO2 SLP098 P0003 T01060089=
201206071553 METAR KBLI 071553Z 36004KT 6SM -RA BR BKN046 OVC060 10/08 A2981 RMK AO2 SLP101 P0006 T01000083=
201206071453 METAR KBLI 071453Z 00000KT 7SM -RA OVC055 09/08 A2982 RMK AO2 SLP103 P0004 60013 T00940083 56009=
201206071353 METAR KBLI 071353Z 06004KT 5SM -RA BR OVC055 09/08 A2983 RMK AO2 SLP107 P0008 T00940078=
201206071253 METAR KBLI 071253Z AUTO 02005KT 10SM -RA BKN060 OVC080 10/06 A2983 RMK AO2 RAB38 SLP108 P0001 T01000056=
201206071153 METAR KBLI 071153Z AUTO 03007KT 10SM OVC075 11/05 A2984 RMK AO2 SLP112 60000 T01060050 10106 20094 58035=
201206071053 METAR KBLI 071053Z AUTO 01006KT 10SM FEW048 10/06 A2988 RMK AO2 SLP124 T01000056=
201206070953 METAR KBLI 070953Z AUTO 03007KT 10SM OVC046 11/06 A2991 RMK AO2 SLP137 T01060061=
201206070853 METAR KBLI 070853Z AUTO 01004KT 10SM OVC048 10/07 A2995 RMK AO2 SLP148 60000 T01000067 58028=
201206070753 METAR KBLI 070753Z AUTO 02003KT 10SM OVC048 10/07 A2998 RMK AO2 SLP158 T01000067 401560050=
201206070653 METAR KBLI 070653Z AUTO 03004KT 10SM OVC050 11/08 A3001 RMK AO2 RAE04B29E51 SLP169 P0000 T01060078=
201206070553 METAR KBLI 070553Z AUTO 00000KT 10SM -RA OVC070 11/08 A3003 RMK AO2 RAB27 SLP177 P0000 60000 T01060083 10150 20106 58014=
201206070453 METAR KBLI 070453Z 00000KT 10SM OVC060 12/07 A3006 RMK AO2 SLP184 T01170067=
201206070353 METAR KBLI 070353Z 00000KT 10SM OVC060 13/04 A3006 RMK AO2 SLP188 T01280044=
201206070253 METAR KBLI 070253Z 16003KT 10SM OVC060 14/04 A3007 RMK AO2 SLP191 T01390039 58005=
201206070153 METAR KBLI 070153Z 17004KT 10SM OVC055 14/06 A3008 RMK AO2 SLP194 T01390056=
201206070053 METAR KBLI 070053Z 16006KT 10SM BKN075 OVC100 14/04 A3009 RMK AO2 SLP195 T01440044=
201206062353 METAR KBLI 062353Z 19005KT 10SM SCT065 OVC095 14/04 A3009 RMK AO2 SLP196 T01440039 10156 20122 56004=
201206062253 METAR KBLI 062253Z 17007KT 10SM OVC095 14/03 A3010 RMK AO2 SLP198 T01440028=
201206062153 METAR KBLI 062153Z 15011G18KT 10SM CLR 16/04 A3009 RMK AO2 SLP197 T01560039=
201206062053 METAR KBLI 062053Z 17009G14KT 10SM FEW055 14/04 A3010 RMK AO2 SLP200 T01440039 56013=
201206061953 METAR KBLI 061953Z 16011G15KT 10SM SCT055 13/04 A3010 RMK AO2 SLP201 T01330044=
201206061853 METAR KBLI 061853Z 17009KT 10SM SCT025 13/06 A3012 RMK AO2 SLP206 T01280056=
201206061753 METAR KBLI 061753Z 17009KT 10SM SCT025 12/06 A3014 RMK AO2 SLP213 T01220056 10128 20056 56004=
201206061653 METAR KBLI 061653Z 16013G17KT 10SM FEW024 SCT035 12/06 A3014 RMK AO2 SLP214 T01170061=
201206061553 METAR KBLI 061553Z 16009G16KT 10SM CLR 12/07 A3015 RMK AO2 SLP216 T01170067=
201206061453 METAR KBLI 061453Z 16010G15KT 10SM FEW035 10/06 A3015 RMK AO2 SLP217 T01000061 53000=
201206061353 METAR KBLI 061353Z 17008KT 10SM CLR 09/06 A3014 RMK AO2 SLP215 T00940056=
201206061253 METAR KBLI 061253Z AUTO 17004KT 10SM CLR 07/04 A3015 RMK AO2 SLP216 T00720039=
201206061153 METAR KBLI 061153Z AUTO 16004KT 10SM CLR 06/04 A3015 RMK AO2 SLP217 70002 T00560039 10100 20050 58005=
201206061053 METAR KBLI 061053Z AUTO 14003KT 10SM CLR 06/04 A3017 RMK AO2 SLP223 T00610039=
201206060953 METAR KBLI 060953Z AUTO 14003KT 10SM CLR 06/04 A3016 RMK AO2 SLP221 T00560039=
201206060853 METAR KBLI 060853Z AUTO 00000KT 10SM CLR 06/04 A3017 RMK AO2 SLP222 T00560039 53001=
201206060753 METAR KBLI 060753Z AUTO 00000KT 10SM CLR 07/04 A3016 RMK AO2 SLP221 T00720039 401390072=
201206060653 METAR KBLI 060653Z AUTO VRB03KT 10SM CLR 09/03 A3016 RMK AO2 SLP219 T00940033=
201206060553 METAR KBLI 060553Z AUTO 19003KT 10SM BKN060 10/04 A3016 RMK AO2 SLP221 60000 T01000044 10139 20094 50010=
201206060453 METAR KBLI 060453Z VRB04KT 10SM BKN060 OVC100 12/04 A3016 RMK AO2 SLP221 T01170039=
201206060353 METAR KBLI 060353Z 16003KT 10SM OVC055 12/06 A3014 RMK AO2 SLP214 T01220061=
201206060253 METAR KBLI 060253Z 18004KT 10SM OVC055 13/05 A3013 RMK AO2 SLP211 60000 T01280050 53012=
201206060153 METAR KBLI 060153Z 17003KT 10SM OVC055 13/07 A3012 RMK AO2 RAE02B23E41 SLP205 P0000 T01330067=
201206060053 METAR KBLI 060053Z 17003KT 10SM -RA OVC049 14/06 A3011 RMK AO2 RAB52 SLP202 P0000 T01390061=
201206052353 METAR KBLI 052353Z 18004KT 10SM SCT049 OVC060 14/06 A3010 RMK AO2 SLP198 60000 T01390061 10139 20117 51015=
201206052253 METAR KBLI 052253Z 15006KT 10SM FEW048 OVC065 14/06 A3009 RMK AO2 SLP195 T01390061=
201206052153 METAR KBLI 052153Z 15009KT 10SM BKN042 OVC060 13/07 A3007 RMK AO2 SLP190 T01330067=
201206052053 METAR KBLI 052053Z 15010KT 10SM BKN035 OVC045 14/07 A3005 RMK AO2 SLP183 60000 T01390072 51013=
201206051953 METAR KBLI 051953Z 16007KT 10SM OVC044 12/08 A3005 RMK AO2 SLP182 T01220083=
201206051853 METAR KBLI 051853Z 17010G16KT 10SM OVC050 12/09 A3004 RMK AO2 RAB1754E07 SLP178 P0000 T01220089=
201206051753 METAR KBLI 051753Z 16011KT 10SM OVC070 12/09 A3001 RMK AO2 RAB1657E12 SLP170 P0000 60002 T01170089 10117 20100 51022=
201206051653 METAR KBLI 051653Z 17014KT 10SM OVC060 11/09 A3000 RMK AO2 RAE16 SLP165 P0000 T01110094=
201206051553 METAR KBLI 051553Z 17007KT 10SM -RA OVC065 11/08 A2998 RMK AO2 SLP158 P0001 T01060083=
201206051453 METAR KBLI 051453Z 17008KT 8SM -RA BKN045 OVC060 10/08 A2995 RMK AO2 RAB06 SLP147 P0001 60001 T01000083 51028=
201206051353 METAR KBLI 051353Z AUTO 17007KT 10SM BKN040 OVC060 11/08 A2992 RMK AO2 RAE07 SLP138 P0000 T01060083=
201206051253 METAR KBLI 051253Z AUTO 16005KT 10SM -RA FEW046 OVC060 11/08 A2989 RMK AO2 RAB52 SLP129 P0000 T01060083=
201206051153 METAR KBLI 051153Z AUTO 18007KT 10SM OVC044 10/09 A2986 RMK AO2 SLP119 60000 70007 T01000089 10106 20100 53016=
201206051053 METAR KBLI 051053Z AUTO 18005KT 7SM FEW005 SCT075 BKN090 11/09 A2983 RMK AO2 SLP109 T01060094=
201206051012 SPECI KBLI 051012Z AUTO 16006KT 9SM FEW006 BKN075 OVC085 11/09 A2983 RMK AO2=
201206050953 METAR KBLI 050953Z AUTO 17006KT 10SM FEW041 OVC070 11/09 A2983 RMK AO2 SLP108 T01060094=
201206050853 METAR KBLI 050853Z AUTO 17003KT 10SM OVC070 11/09 A2981 RMK AO2 SLP102 60000 T01060094 53007=
201206050753 METAR KBLI 050753Z AUTO 00000KT 10SM FEW021 BKN049 OVC070 11/10 A2980 RMK AO2 SLP099 T01060100 401330061=
201206050653 METAR KBLI 050653Z AUTO 00000KT 10SM OVC045 11/09 A2979 RMK AO2 RAE02 SLP094 P0000 T01060094=
201206050630 SPECI KBLI 050630Z AUTO 16003KT 10SM SCT012 OVC043 11/09 A2980 RMK AO2 RAE02 P0000=
201206050623 SPECI KBLI 050623Z AUTO 16004KT 10SM BKN012 OVC041 11/10 A2981 RMK AO2 RAE02 P0000=
201206050553 METAR KBLI 050553Z AUTO 00000KT 9SM -RA OVC037 11/10 A2979 RMK AO2 SLP096 P0003 60005 T01060100 10133 20106 53003=
201206050520 SPECI KBLI 050520Z AUTO 17004KT 9SM -RA OVC033 11/10 A2981 RMK AO2 P0001=
201206050453 METAR KBLI 050453Z 00000KT 6SM -RA BR OVC027 11/10 A2979 RMK AO2 SLP094 P0002 T01060100=
201206050353 METAR KBLI 050353Z 00000KT 10SM -RA OVC028 11/09 A2974 RMK AO2 RAB52 SLP078 P0000 T01110089=
201206050253 METAR KBLI 050253Z 30005KT 10SM OVC022 12/07 A2978 RMK AO2 SLP092 T01170072 53004=
201206050153 METAR KBLI 050153Z 28005KT 10SM BKN015 OVC022 12/09 A2976 RMK AO2 SLP084 T01220089=
201206050053 METAR KBLI 050053Z 27004KT 10SM BKN020 OVC029 13/09 A2977 RMK AO2 SLP088 T01280089=
201206042353 METAR KBLI 042353Z 00000KT 10SM SCT025 OVC055 13/08 A2977 RMK AO2 SLP089 60000 T01280078 10133 20117 58005=
201206042253 METAR KBLI 042253Z 00000KT 10SM SCT023 OVC055 13/07 A2979 RMK AO2 SLP095 T01280072=
201206042237 SPECI KBLI 042237Z 00000KT 10SM SCT023 OVC055 13/07 A2979 RMK AO2=
201206042200 SPECI KBLI 042200Z 00000KT 10SM BKN021 OVC050 13/08 A2979 RMK AO2=
201206042153 METAR KBLI 042153Z VRB03KT 10SM SCT021 OVC050 13/08 A2979 RMK AO2 RAB17E18 SLP094 P0000 T01280078=
201206042053 METAR KBLI 042053Z 00000KT 10SM SCT022 OVC050 12/08 A2979 RMK AO2 RAB25E41 SLP095 P0000 60000 T01170078 51002=
201206042049 SPECI KBLI 042049Z 00000KT 10SM SCT022 OVC050 12/08 A2979 RMK AO2 RAB25E41 P0000=
201206041953 METAR KBLI 041953Z 29005KT 10SM BKN020 OVC048 12/07 A2978 RMK AO2 SLP093 T01170072=
201206041853 METAR KBLI 041853Z 35004KT 10SM BKN020 OVC048 12/08 A2978 RMK AO2 SLP091 T01220078=
201206041753 METAR KBLI 041753Z 30003KT 10SM OVC060 12/08 A2978 RMK AO2 SLP092 60002 T01170078 10122 20083 55007=
201206041653 METAR KBLI 041653Z 32004KT 10SM OVC050 11/08 A2978 RMK AO2 SLP090 T01110078=
201206041553 METAR KBLI 041553Z 33004KT 10SM OVC055 11/08 A2979 RMK AO2 RAE33 SLP096 P0000 T01060083=
201206041453 METAR KBLI 041453Z 30004KT 8SM -RA OVC070 10/08 A2980 RMK AO2 SLP099 P0002 60002 T01000083 56014=
201206041353 METAR KBLI 041353Z 32003KT 10SM -RA OVC090 09/07 A2982 RMK AO2 RAB18 SLP103 P0000 T00890072=
201206041253 METAR KBLI 041253Z AUTO 33003KT 10SM OVC110 08/07 A2983 RMK AO2 SLP108 T00830067=
201206041153 METAR KBLI 041153Z AUTO 33003KT 10SM FEW075 08/07 A2984 RMK AO2 SLP113 T00830067 10083 20061 55015=
201206041053 METAR KBLI 041053Z AUTO 34004KT 10SM CLR 08/07 A2984 RMK AO2 SLP112 T00780067=
201206040953 METAR KBLI 040953Z AUTO 33004KT 10SM CLR 08/06 A2987 RMK AO2 SLP121 T00780061=
201206040853 METAR KBLI 040853Z AUTO 34003KT 10SM CLR 07/06 A2989 RMK AO2 SLP127 T00670056 58019=
201206040753 METAR KBLI 040753Z AUTO 00000KT 10SM CLR 07/05 A2992 RMK AO2 SLP138 T00720050 401440067=
201206040653 METAR KBLI 040653Z AUTO 00000KT 10SM CLR 07/06 A2992 RMK AO2 SLP139 T00720056=
201206040553 METAR KBLI 040553Z AUTO 00000KT 10SM CLR 08/05 A2994 RMK AO2 SLP147 T00780050 10144 20078 58008=
201206040453 METAR KBLI 040453Z 00000KT 10SM CLR 08/06 A2995 RMK AO2 SLP151 T00830056=
201206040353 METAR KBLI 040353Z 00000KT 10SM CLR 10/06 A2996 RMK AO2 SLP153 T01000061=
201206040253 METAR KBLI 040253Z 00000KT 10SM CLR 13/04 A2997 RMK AO2 SLP155 T01330044 58008=
201206040153 METAR KBLI 040153Z 18004KT 10SM CLR 14/04 A2999 RMK AO2 SLP162 T01390039=
201206040053 METAR KBLI 040053Z 18005KT 10SM CLR 14/05 A2998 RMK AO2 SLP160 T01390050=
201206032353 METAR KBLI 032353Z 17005KT 10SM SCT110 14/04 A2999 RMK AO2 SLP163 T01390044 10144 20117 58007=
201206032253 METAR KBLI 032253Z 17006KT 10SM SCT110 14/03 A3000 RMK AO2 SLP166 T01390033=
201206032153 METAR KBLI 032153Z 17005KT 10SM BKN100 14/05 A3001 RMK AO2 SLP170 T01390050=
201206032053 METAR KBLI 032053Z 17006KT 10SM FEW050 OVC100 13/05 A3001 RMK AO2 SLP170 T01330050 53008=
201206031953 METAR KBLI 031953Z 16009KT 10SM BKN048 OVC110 13/06 A3000 RMK AO2 SLP167 T01280061=
201206031853 METAR KBLI 031853Z 19008KT 10SM BKN050 BKN070 12/05 A2999 RMK AO2 SLP164 T01220050=
201206031753 METAR KBLI 031753Z 17008KT 10SM BKN050 OVC065 12/07 A2999 RMK AO2 RAE16 SLP162 P0000 60000 T01170072 10117 20094 51010=
201206031653 METAR KBLI 031653Z 17009KT 10SM -RA BKN045 OVC060 11/07 A2998 RMK AO2 RAB34 SLP160 P0000 T01060072=
201206031553 METAR KBLI 031553Z 17009G14KT 10SM SCT040 SCT047 BKN100 11/07 A2997 RMK AO2 SLP155 T01060067=
201206031453 METAR KBLI 031453Z 16005KT 10SM BKN050 BKN110 10/06 A2996 RMK AO2 SLP152 T01000061 50004=
201206031353 METAR KBLI 031353Z 15006KT 10SM OVC049 09/06 A2996 RMK AO2 SLP152 T00940061=
201206031253 METAR KBLI 031253Z AUTO 16004KT 10SM SCT048 OVC060 09/06 A2996 RMK AO2 SLP151 T00940056=
201206031153 METAR KBLI 031153Z AUTO 17007KT 10SM FEW060 09/06 A2995 RMK AO2 SLP148 70004 T00940056 10117 20072 53003=
201206031053 METAR KBLI 031053Z AUTO 16003KT 10SM CLR 08/06 A2994 RMK AO2 SLP146 T00830061=
201206030953 METAR KBLI 030953Z AUTO 00000KT 10SM CLR 08/06 A2994 RMK AO2 SLP144 T00780061=
201206030853 METAR KBLI 030853Z AUTO 00000KT 10SM CLR 08/07 A2994 RMK AO2 SLP145 T00830072 50001=
201206030753 METAR KBLI 030753Z AUTO 16005KT 10SM SCT049 11/07 A2995 RMK AO2 SLP147 T01060067 401610106=
201206030653 METAR KBLI 030653Z AUTO 16006KT 10SM OVC045 12/07 A2994 RMK AO2 SLP146 T01170072=
201206030553 METAR KBLI 030553Z AUTO 18004KT 10SM BKN049 OVC080 12/09 A2994 RMK AO2 SLP144 60002 T01170089 10161 20106 53006=
201206030453 METAR KBLI 030453Z 18003KT 10SM OVC055 12/09 A2993 RMK AO2 RAE33 SLP143 P0001 T01220089=
201206030353 METAR KBLI 030353Z 17004KT 7SM -RA FEW050 OVC060 12/09 A2992 RMK AO2 RAB14 SLP139 P0001 T01220094=
201206030253 METAR KBLI 030253Z 16006KT 10SM OVC070 14/08 A2992 RMK AO2 SLP138 T01390083 55002=
201206030153 METAR KBLI 030153Z 16007KT 10SM SCT065 14/08 A2991 RMK AO2 SLP135 T01440083=
201206030053 METAR KBLI 030053Z 16010KT 10SM OVC070 16/08 A2992 RMK AO2 SLP137 T01560078=
201206022353 METAR KBLI 022353Z 16011KT 10SM SCT075 16/07 A2993 RMK AO2 SLP140 60001 T01610072 10161 20117 53001=
201206022253 METAR KBLI 022253Z 17009G18KT 10SM CLR 16/09 A2992 RMK AO2 SLP138 T01560089=
201206022153 METAR KBLI 022153Z 18013G17KT 10SM CLR 16/11 A2992 RMK AO2 SLP139 T01560106=
201206022053 METAR KBLI 022053Z 18012G16KT 10SM CLR 14/09 A2992 RMK AO2 SLP139 60001 T01440094 51007=
201206021953 METAR KBLI 021953Z 18011G16KT 10SM BKN080 13/10 A2991 RMK AO2 SLP136 T01330100=
201206021853 METAR KBLI 021853Z 17010KT 10SM BKN075 13/10 A2991 RMK AO2 RAE25 SLP136 P0001 T01330100=
201206021753 METAR KBLI 021753Z 18006KT 8SM -RA OVC065 12/11 A2990 RMK AO2 RAE04B29 SLP132 P0000 60001 T01220106 10122 20106 51007=
201206021653 METAR KBLI 021653Z 17005KT 10SM -RA OVC065 12/09 A2990 RMK AO2 SLP131 P0001 T01170094 $=
201206021553 METAR KBLI 021553Z 18007KT 10SM -RA OVC070 11/09 A2989 RMK AO2 RAB15 SLP128 P0000 T01110089=
201206021453 METAR KBLI 021453Z 17008KT 10SM OVC070 11/08 A2988 RMK AO2 SLP124 T01110083 53005=
201206021353 METAR KBLI 021353Z 18005KT 10SM OVC070 11/08 A2987 RMK AO2 SLP120 T01060083=
201206021253 METAR KBLI 021253Z AUTO 18008KT 10SM OVC075 11/09 A2986 RMK AO2 SLP120 T01060089=
201206021153 METAR KBLI 021153Z AUTO 17006KT 10SM OVC080 11/09 A2986 RMK AO2 SLP119 70014 T01060089 10117 20106 53000=
201206021053 METAR KBLI 021053Z AUTO 16009KT 10SM OVC075 11/09 A2985 RMK AO2 SLP115 T01060094=
201206020953 METAR KBLI 020953Z AUTO 17007KT 10SM OVC070 11/09 A2985 RMK AO2 SLP115 T01060094=
201206020853 METAR KBLI 020853Z AUTO 17008KT 10SM OVC070 11/10 A2986 RMK AO2 SLP118 T01110100 58005=
201206020753 METAR KBLI 020753Z AUTO 18007G15KT 10SM BKN070 OVC100 11/09 A2986 RMK AO2 SLP119 T01110094 401720111=
201206020653 METAR KBLI 020653Z AUTO 18006KT 10SM SCT070 OVC100 12/11 A2988 RMK AO2 SLP124 T01170106=
201206020553 METAR KBLI 020553Z AUTO 18009KT 10SM SCT004 OVC080 12/11 A2987 RMK AO2 SLP122 60006 T01170106 10150 20117 58014=
201206020531 SPECI KBLI 020531Z AUTO 17010G15KT 10SM BKN004 BKN055 OVC085 12/11 A2989 RMK AO2=
201206020522 SPECI KBLI 020522Z 17007G16KT 10SM SCT004 BKN055 OVC085 12/11 A2989 RMK AO2=
201206020453 METAR KBLI 020453Z 20004KT 10SM FEW055 OVC075 13/11 A2989 RMK AO2 RAE0356 SLP128 P0000 T01280111=
201206020353 METAR KBLI 020353Z 19003KT 10SM -RA BKN070 OVC085 13/12 A2990 RMK AO2 SLP132 P0003 T01330122=
201206020253 METAR KBLI 020253Z 16008KT 6SM -RA BR BKN070 OVC080 13/12 A2992 RMK AO2 SLP136 P0003 60003 T01280122 53001=
201206020153 METAR KBLI 020153Z 19006KT 10SM -RA SCT065 OVC080 14/13 A2991 RMK AO2 RAB39 SLP133 P0000 T01440128=
201206020053 METAR KBLI 020053Z 17008KT 10SM BKN065 15/13 A2992 RMK AO2 SLP137 T01500128=
201206012353 METAR KBLI 012353Z 19005KT 10SM BKN050 15/13 A2991 RMK AO2 SLP136 60001 T01500128 10167 20150 53004=
201206012253 METAR KBLI 012253Z 17005KT 10SM SCT021 BKN034 OVC045 16/13 A2992 RMK AO2 SLP137 T01560133=
201206012243 SPECI KBLI 012243Z 17005KT 10SM SCT021 BKN034 OVC045 16/13 A2992 RMK AO2=
201206012153 METAR KBLI 012153Z 17007KT 10SM SCT011 BKN022 OVC025 15/13 A2990 RMK AO2 SLP130 T01500133=
201206012140 SPECI KBLI 012140Z 16009KT 10SM FEW007 BKN025 16/14 A2990 RMK AO2=
201206012053 METAR KBLI 012053Z 22005KT 10SM BKN011 BKN019 OVC024 17/14 A2990 RMK AO2 SLP132 60001 T01670144 53004=
201206011953 METAR KBLI 011953Z VRB05KT 10SM OVC019 16/14 A2989 RMK AO2 RAE29 SLP127 P0001 T01610144=
201206011951 SPECI KBLI 011951Z 17005KT 10SM OVC019 16/14 A2989 RMK AO2 RAE29 P0001=
201206011851 METAR KBLI 011851Z 19004KT 6SM -RA BR FEW005 BKN014 OVC019 16/14 A2989 RMK AO2 RAB19 SLP127 P0000 T01560144=
201206011850 SPECI KBLI 011850Z 18005KT 5SM -RA BR FEW008 BKN014 OVC021 16/14 A2989 RMK AO2 RAB19 P0000=
201206011753 METAR KBLI 011753Z 16007KT 10SM BKN019 OVC075 17/14 A2987 RMK AO2 RAB19E53 SLP121 P0000 60007 T01670144 10172 20133 58001=
201206011653 METAR KBLI 011653Z 18006G16KT 10SM OVC019 17/14 A2987 RMK AO2 SLP122 T01720139=
201206011553 METAR KBLI 011553Z 16010KT 10SM OVC017 17/14 A2988 RMK AO2 RAE09 SLP125 P0000 T01670139=
201206011453 METAR KBLI 011453Z 15004KT 10SM -RA OVC017 16/14 A2988 RMK AO2 SLP122 P0004 60007 T01610139 55008=
201206011353 METAR KBLI 011353Z 00000KT 6SM -RA BR BKN021 BKN027 OVC065 14/14 A2986 RMK AO2 SLP118 P0003 T01390139=
201206011334 SPECI KBLI 011334Z AUTO 00000KT 3SM -RA BR BKN019 BKN041 OVC060 14/13 A2987 RMK AO2 P0003=
201206011324 SPECI KBLI 011324Z AUTO 00000KT 1 3/4SM RA BR OVC019 13/13 A2987 RMK AO2 P0003=
201206011253 METAR KBLI 011253Z AUTO 00000KT 4SM -RA BR OVC019 14/13 A2988 RMK AO2 RAB31 SLP123 P0000 T01390128=
201206011153 METAR KBLI 011153Z AUTO 04003KT 5SM BR FEW002 OVC019 14/13 A2990 RMK AO2 SLP130 60011 70024 T01390128 10144 20133 56019=
201206011053 METAR KBLI 011053Z AUTO 00000KT 4SM BR FEW002 OVC025 14/13 A2991 RMK AO2 RAE33 SLP135 P0001 T01390133=
201206011027 SPECI KBLI 011027Z AUTO 01003KT 3SM -RA BR FEW002 OVC025 14/13 A2992 RMK AO2 P0001=
201206011018 SPECI KBLI 011018Z AUTO 36003KT 2 1/2SM -RA BR FEW002 BKN027 OVC033 14/13 A2993 RMK AO2 P0001=
201206011010 SPECI KBLI 011010Z AUTO 01004KT 3SM -RA BR FEW002 BKN030 OVC036 14/13 A2993 RMK AO2 P0001=
201206011002 SPECI KBLI 011002Z AUTO 00000KT 2 1/2SM -RA BR FEW002 BKN030 OVC036 14/13 A2993 RMK AO2 P0001=
201206010953 METAR KBLI 010953Z AUTO 00000KT 3SM -RA BR FEW028 BKN036 OVC050 14/13 A2993 RMK AO2 SLP142 P0004 T01390133=
201206010919 SPECI KBLI 010919Z AUTO 00000KT 3SM -RA BR FEW030 BKN044 OVC075 14/13 A2994 RMK AO2 P0002=
201206010904 SPECI KBLI 010904Z AUTO 00000KT 2 1/2SM -RA BR SCT026 BKN034 OVC045 14/13 A2995 RMK AO2 P0001=
201206010853 METAR KBLI 010853Z AUTO 00000KT 2SM -RA BR BKN028 BKN034 OVC048 14/13 A2995 RMK AO2 SLP150 P0003 60006 T01390133 58022=
201206010825 SPECI KBLI 010825Z AUTO 00000KT 2 1/2SM -RA BR FEW026 BKN050 OVC080 14/13 A2996 RMK AO2 P0001=
201206010753 METAR KBLI 010753Z AUTO 00000KT 3SM -RA BR FEW017 SCT027 OVC043 14/13 A2997 RMK AO2 SLP157 P0003 T01390133 401560111=
201206010653 METAR KBLI 010653Z AUTO 00000KT 5SM -RA BR BKN017 OVC023 14/13 A3000 RMK AO2 RAB25 SLP167 P0000 T01390128=
201206010553 METAR KBLI 010553Z AUTO 00000KT 8SM SCT015 OVC026 14/13 A3002 RMK AO2 SLP172 T01440128 10156 20133 56017=
201206010546 SPECI KBLI 010546Z AUTO 00000KT 9SM SCT015 OVC028 14/13 A3002 RMK AO2=
201206010527 SPECI KBLI 010527Z 00000KT 10SM FEW015 BKN031 OVC048 14/13 A3003 RMK AO2=
201206010500 SPECI KBLI 010500Z 00000KT 10SM BKN020 OVC050 14/13 A3003 RMK AO2=
201206010453 METAR KBLI 010453Z 00000KT 10SM SCT020 OVC050 14/13 A3003 RMK AO2 SLP176 T01390128=
201206010436 SPECI KBLI 010436Z 00000KT 10SM OVC020 14/13 A3003 RMK AO2=
201206010353 METAR KBLI 010353Z 00000KT 10SM SCT022 OVC100 14/13 A3005 RMK AO2 SLP182 CIG VSBY LWR NE-SE T01440128=
201206010312 SPECI KBLI 010312Z 00000KT 10SM SCT021 SCT055 OVC100 15/12 A3006 RMK AO2 CIG VSBY LWR NE-SE=
201206010253 METAR KBLI 010253Z 00000KT 10SM OVC021 15/12 A3007 RMK AO2 SLP189 T01500122 58010=
201206010153 METAR KBLI 010153Z 00000KT 10SM OVC021 16/13 A3008 RMK AO2 SLP191 T01560128=
201206010118 SPECI KBLI 010118Z 00000KT 10SM BKN024 BKN047 16/12 A3009 RMK AO2=
201206010053 METAR KBLI 010053Z 17004KT 10SM SCT045 BKN050 16/12 A3010 RMK AO2 SLP198 T01560122=
201206010032 SPECI KBLI 010032Z 18005KT 10SM FEW018 SCT022 OVC050 15/12 A3010 RMK AO2=
201206010003 SPECI KBLI 010003Z 17006KT 10SM BKN018 OVC049 16/12 A3010 RMK AO2=

# No short TAF reports from KBLI in databse.

###################################
#  large TAF from KBLI
###################################
201206302341 TAF KBLI 302341Z 0100/0124 18005KT P6SM -SHRA BKN020 OVC035 FM010500
                       18007KT P6SM VCSH SCT020 BKN035 FM010800
                       17007KT P6SM OVC020 FM011800 18009KT P6SM
                       BKN030=
201206301734 TAF KBLI 301734Z 3018/0118 19003KT 2SM -SHRA BR BKN004 OVC015 FM301900
                       19005KT 4SM -SHRA BR BKN015 OVC030 FM302100
                       19009KT P6SM -SHRA SCT020 BKN035 FM010500
                       18007KT P6SM VCSH BKN020 BKN035 FM010800
                       17007KT P6SM OVC015=
201206301648 KBLI 301648Z 3017/0112 18005KT 3/4SM -SHRA BR BKN002 OVC015 FM301900
                       18005KT 4SM -SHRA BR BKN015 OVC030 FM302100
                       18009KT P6SM -SHRA SCT020 BKN035 FM010500
                       17007KT P6SM VCSH BKN020 BKN035 FM010800
                       17007KT P6SM OVC015=
201206301418 TAF AMD KBLI 301418Z 3014/0112 16004KT 4SM -SHRA BR SCT003 OVC013
                       TEMPO 3014/3015 1 1/2SM -RA BR OVC002 FM301500
                       18005KT 4SM -SHRA OVC015 FM301800 18009KT
                       P6SM -SHRA SCT020 BKN035 FM010500 17007KT
                       P6SM VCSH BKN020 BKN035 FM010800 17007KT
                       P6SM OVC015=
201206301120 TAF KBLI 301120Z 3012/0112 16004KT 4SM -SHRA BR SCT003 OVC013
                      TEMPO 3012/3015 2SM -RA BR OVC003 FM301500
                       18005KT 4SM -SHRA OVC015 FM301800 18009KT
                       P6SM -SHRA SCT020 BKN035 FM010500 17007KT
                       P6SM VCSH BKN020 BKN035 FM010800 17007KT
                       P6SM OVC015=
201206300520 TAF KBLI 300520Z 3006/0106 18004KT P6SM SCT060 BKN120 FM300900
                       18004KT P6SM -SHRA BKN030 OVC060 FM301300
                       VRB03KT P6SM -SHRA BKN020 OVC035
                      TEMPO 3013/3016 4SM -SHRA BR OVC012 FM301900
                       18009KT P6SM -SHRA SCT020 BKN035 FM010500
                       17007KT P6SM VCSH BKN025 BKN035=
201206292336 TAF KBLI 292336Z 3000/3024 17008KT P6SM SCT035 SCT100 FM300400
                       16004KT P6SM SCT025 OVC050 FM301200 VRB04KT
                       P6SM -SHRA SCT015 OVC025
                      TEMPO 3015/3018 4SM -SHRA BR OVC015 FM301800
                       17006KT P6SM SCT015 OVC030=
201206291737 TAF KBLI 291737Z 2918/3018 15010G16KT P6SM BKN028 BKN035 FM291900
                       18005KT P6SM VCSH SCT025 BKN040 BKN080 FM300800
                       VRB04KT P6SM -SHRA OVC025=
201206291120 TAF KBLI 291120Z 2912/3012 15006KT P6SM -SHRA SCT025 BKN035 OVC080
                       TEMPO 2912/2916 BKN025 OVC035 FM291900 18005KT
                       P6SM VCSH SCT025 BKN040 BKN080 FM300800
                       VRB04KT P6SM -SHRA OVC025=
201206291012 KBLI 291012Z 2910/3006 16005KT P6SM -SHRA BKN028 OVC080 FM291900
                       18005KT P6SM VCSH SCT020 BKN040 BKN080=
201206290520 TAF KBLI 290520Z 2906/3006 16005KT P6SM -RA BKN060 OVC080 FM290800
                       18008KT P6SM -RA OVC045
                      TEMPO 2911/2914 5SM -RA BR OVC025 FM291900
                       18005KT P6SM VCSH SCT020 BKN040 BKN080=
201206282320 TAF KBLI 282320Z 2900/2924 22007KT P6SM BKN060 OVC120 FM290300
                       20010KT P6SM -RA BKN050 OVC100 FM290800
                       18008KT P6SM -RA OVC030
                      TEMPO 2910/2914 4SM -RA BR OVC020 FM291900
                       22005KT P6SM VCSH SCT020 BKN040 BKN100=
201206281720 TAF KBLI 281720Z 2818/2918 VRB04KT P6SM BKN150 OVC250 FM290000
                       17007KT P6SM BKN060 OVC120 FM290300 18008KT
                       P6SM VCSH SCT030 OVC060 FM290900 18008KT
                       P6SM -RA OVC030=
201206281120 TAF KBLI 281120Z 2812/2912 18004KT P6SM BKN250 FM281800 16005KT
                       P6SM BKN120 OVC250 FM290000 19006KT P6SM
                       BKN060 OVC120 FM290300 19006KT P6SM VCSH
                       SCT030 OVC060=
201206280528 TAF KBLI 280528Z 2806/2906 18004KT P6SM BKN250 FM281800 16005KT
                       P6SM BKN120 OVC250 FM290000 19006KT P6SM
                       BKN060 OVC120 FM290300 19006KT P6SM VCSH
                       SCT030 OVC060=
201206272335 TAF KBLI 272335Z 2800/2824 26004KT P6SM SCT250 FM280600 00000KT
                       P6SM BKN250 FM281500 16005KT P6SM BKN250
                       FM282200 19006KT P6SM OVC080=
201206271720 TAF KBLI 271720Z 2718/2818 VRB03KT P6SM SCT028 FM272000 19006KT
                       P6SM SKC FM280000 20004KT P6SM SCT250 FM280600
                       00000KT P6SM BKN250 FM281500 16005KT P6SM
                       BKN250=
201206271120 TAF KBLI 271120Z 2712/2812 17005KT P6SM SCT050
                      TEMPO 2712/2716 BKN050 FM271800 19006KT P6SM
                       SKC FM280000 20004KT P6SM SCT250=
201206270520 TAF KBLI 270520Z 2706/2806 17009KT P6SM SCT050 OVC100 FM270900
                       15006KT P6SM SCT050 SCT100 FM271800 19006KT
                       P6SM SCT250=
201206262331 TAF KBLI 262331Z 2700/2724 17012KT P6SM VCSH BKN070 OVC150 FM270400
                       17009KT P6SM BKN090 BKN150 FM270900 15006KT
                       P6SM SCT090 SCT150 FM271800 19006KT P6SM
                       SCT250=
201206262018 KBLI 262018Z 2620/2718 17013KT P6SM VCSH SCT030 OVC050
                      TEMPO 2620/2624 -SHRA BKN030 OVC050 FM270000
                       17009KT P6SM BKN060 BKN200 FM270600 15006KT
                       P6SM BKN090 BKN200 FM271200 VRB03KT P6SM
                       SCT090 BKN200=
201206261802 KBLI 261802Z 2618/2718 17013KT P6SM VCSH SCT030 OVC050
                      TEMPO 2618/2620 BKN030 OVC050 FM262000 17013KT
                       P6SM VCSH SCT035 OVC050
                      TEMPO 2620/2624 -SHRA FM270000 17009KT P6SM
                       BKN060 BKN200 FM270600 15006KT P6SM BKN090
                       BKN200 FM271200 VRB03KT P6SM SCT090 BKN200=
201206261741 TAF KBLI 261741Z 2618/2718 17013KT P6SM VCSH FEW035 OVC050
                      TEMPO 2620/2624 -SHRA FM270000 17009KT P6SM
                       BKN060 BKN200 FM270600 15006KT P6SM BKN090
                       BKN200 FM271200 VRB03KT P6SM SCT090 BKN200=
201206261634 KBLI 261634Z 2617/2712 17008KT P6SM BKN050 OVC130 FM261800 17013G20KT
                       P6SM SCT030 BKN060 OVC100 FM270600 17007KT
                       P6SM SCT030=
201206261120 TAF KBLI 261120Z 2612/2712 18006KT P6SM SCT060 OVC100 FM261800
                       17013G20KT P6SM SCT030 BKN060 OVC100 FM270600
                       17007KT P6SM SCT030=
201206260520 TAF KBLI 260520Z 2606/2706 18006KT P6SM SCT050 BKN080 FM261200
                       17009KT P6SM SCT025 BKN080
                      TEMPO 2612/2616 BKN022 FM261800 17013G20KT
                       P6SM SCT030 BKN060=
201206252336 TAF KBLI 252336Z 2600/2624 19006KT P6SM BKN110 OVC200 FM261200
                       17009KT P6SM SCT022 BKN090 BKN200
                      TEMPO 2614/2618 BKN022 BKN090 BKN200 FM261800
                       17013G20KT P6SM SCT030 BKN060 BKN200=
201206251723 TAF KBLI 251723Z 2518/2618 34006KT P6SM SCT110 BKN200 FM252100
                       25006KT P6SM BKN110 BKN200 FM260000 19008KT
                       P6SM BKN110 BKN200 FM261200 17008KT P6SM
                       FEW022 BKN110 BKN200=
201206251411 KBLI 251411Z 2514/2612 02004KT P6SM SKC FM251800 35005KT P6SM SCT120
                       SCT200 FM252100 18006KT P6SM SCT060 BKN120
                       BKN200 FM260200 20007KT P6SM BKN060 BKN100
                       FM260600 20008KT P6SM BKN040=
201206251121 TAF KBLI 251121Z 2512/2612 19004KT P6SM BKN200
                      TEMPO 2512/2515 1SM BR SCT001 FM252100 18006KT
                       P6SM SCT060 BKN120 BKN200 FM260200 20007KT
                       P6SM BKN060 BKN100 FM260600 20008KT P6SM
                       BKN040=
201206250520 TAF KBLI 250520Z 2506/2606 VRB04KT P6SM FEW120 SCT200 FM251200
                       19006KT P6SM SCT120 BKN200 FM252100 22006KT
                       P6SM SCT035 BKN060=
201206242344 TAF KBLI 242344Z 2500/2524 VRB04KT P6SM BKN060 FM251200 19006KT
                       P6SM SCT015 FM251800 22006KT P6SM SCT035
                       BKN060=
201206241720 TAF KBLI 241720Z 2418/2518 VRB04KT P6SM SCT010 BKN060
                      TEMPO 2418/2420 BKN010 BKN060 FM250400 VRB04KT
                       P6SM BKN050 BKN120 FM251200 18005KT P6SM
                       BKN015 BKN040 FM251700 22006KT P6SM SCT020
                       BKN050=
201206241528 KBLI 241528Z 2415/2512 VRB03KT P6SM SCT007 BKN080
                      TEMPO 2415/2418 BKN007 OVC050 FM241800 VRB03KT
                       P6SM VCSH SCT015 BKN050 BKN080 FM250200
                       18004KT P6SM SCT050 BKN120=
201206241121 TAF KBLI 241121Z 2412/2512 17008KT P6SM SCT002 BKN100
                      TEMPO 2412/2415 1/2SM FG VV001 FM241500 18003KT
                       P6SM SCT050 BKN100 FM242100 19008KT P6SM
                       BKN050 BKN080 FM250200 18004KT P6SM SCT050
                       BKN120=
201206241015 KBLI 241015Z 2410/2506 17008KT P6SM SCT002 SCT120
                      TEMPO 2410/2414 1/2SM FG VV001 FM241500 18003KT
                       P6SM SCT070 FM242100 19008KT P6SM BKN050
                       BKN080 FM250200 18004KT P6SM SCT050=
201206240521 TAF KBLI 240521Z 2406/2506 17008KT P6SM SCT035 BKN050 FM241200
                       18003KT P6SM SCT050 FM242100 19008KT P6SM
                       BKN050 BKN080 FM250200 18004KT P6SM SCT050=
201206232338 TAF KBLI 232338Z 2400/2424 16012G20KT P6SM -SHRA SCT006 BKN020
                       OVC040
                      TEMPO 2400/2402 3SM SHRA BR BKN006 OVC020
                       FM240200 17010KT P6SM -SHRA BKN018 OVC040
                       FM240400 17008KT P6SM VCSH SCT020 BKN070
                       FM241200 18003KT P6SM BKN015 OVC040 FM241700
                       19008KT P6SM SCT020 BKN080=
201206232138 KBLI 232138Z 2322/2418 VRB05KT 5SM -SHRA BR BKN012 OVC040
                      TEMPO 2322/2324 20015G25KT 1 1/2SM SHRA BR
                       BKN006 OVC012 FM240000 20012KT P6SM -SHRA
                       BKN015 OVC040 FM240200 18008KT P6SM -SHRA
                       SCT020 OVC050 FM241200 18003KT P6SM BKN015
                       OVC025=
201206232039 KBLI 232039Z 2321/2418 25005KT P6SM SCT020 BKN045 FM232230 28010KT
                       P6SM -SHRA BKN020 OVC040
                      TEMPO 2323/2402 5SM SHRA BR BKN010 OVC040
                       FM240400 17007KT P6SM VCSH SCT020 OVC040
                       FM241200 18003KT P6SM BKN015 OVC025=
201206231745 TAF KBLI 231745Z 2318/2418 VRB03KT P6SM SCT012 BKN020 OVC080 FM232200
                       19006KT P6SM -SHRA BKN020 OVC040 FM240400
                       17007KT P6SM VCSH SCT020 OVC040 FM241200
                       18003KT P6SM BKN015 OVC025=
201206231419 KBLI 231419Z 2314/2412 17006KT P6SM SCT010 BKN015 OVC025
                      TEMPO 2314/2318 BKN008 BKN015 OVC025 FM231800
                       17008KT P6SM -RA BKN020 OVC040 FM232100
                       18007KT P6SM -RA BKN025 OVC040 FM240500
                       18005KT P6SM BKN030=
201206231121 TAF KBLI 231121Z 2312/2412 17006KT P6SM VCSH SCT010 BKN015 OVC030
                       TEMPO 2312/2316 BKN010 FM231800 17008KT
                       P6SM -RA BKN020 OVC040 FM232120 18007KT
                       P6SM -RA BKN025 OVC040 FM240500 18005KT
                       P6SM BKN030=
201206230525 TAF KBLI 230525Z 2306/2406 17004KT 5SM -RA SCT007 BKN030 OVC070
                       TEMPO 2306/2310 3SM -RA BKN004 OVC011 FM231000
                       17008KT 5SM -RA BR SCT008 BKN015 OVC030
                       TEMPO 2311/2315 4SM -RA BR BKN007 OVC015
                       FM231800 17008KT P6SM -RA BKN025 OVC050=
201206230418 KBLI 230418Z 2304/2324 17004KT P6SM -SHRA SCT007 BKN030 OVC070
                       TEMPO 2304/2307 3SM -SHRA BKN004 FM230700
                       17008KT 6SM -SHRA BR BKN015 OVC030
                      TEMPO 2311/2315 4SM -SHRA BR BKN007 OVC015
                       FM231800 17008KT P6SM -SHRA BKN025 OVC050=
201206222338 TAF KBLI 222338Z 2300/2324 16006KT 6SM -SHRA BR SCT006 BKN035 OVC080
                       TEMPO 2300/2304 3SM SHRA BR BKN006 OVC035
                       FM230400 17008KT P6SM -SHRA SCT020 OVC030
                       FM230700 17008KT 6SM -SHRA BR BKN015 OVC030
                       TEMPO 2311/2315 4SM -SHRA BR BKN007 OVC015
                       FM231800 17008KT P6SM -SHRA BKN025 OVC050=
201206222122 KBLI 222122Z 2221/2318 17010G20KT P6SM -SHRA SCT006 BKN040 OVC080
                       TEMPO 2221/2223 3SM SHRA BR BKN006 OVC040
                       FM230100 17010KT P6SM -SHRA BKN030 BKN050
                       OVC080 FM230600 17012KT P6SM -SHRA BKN025
                       OVC040 FM231300 17010KT P6SM -SHRA BKN015
                       OVC025=
201206221749 TAF KBLI 221749Z 2218/2318 17010KT P6SM BKN050 OVC080
                      TEMPO 2219/2221 -SHRA BKN040 OVC060 FM222100
                       17010KT P6SM -SHRA SCT030 BKN050 OVC080
                       FM230600 17012KT P6SM -SHRA BKN025 OVC040
                       FM231300 17010KT P6SM -SHRA BKN015 OVC025=
201206221431 KBLI 221431Z 2215/2312 16007G15KT P6SM SCT060 BKN110 FM222000 17012KT
                       P6SM -SHRA SCT025 BKN050 OVC100=
201206221120 TAF KBLI 221120Z 2212/2312 16005KT P6SM BKN060 BKN110 FM221900
                       17012KT P6SM -SHRA BKN025 OVC040=
201206220523 TAF KBLI 220523Z 2206/2306 18008KT P6SM FEW050 SCT100 BKN200 FM221200
                       18012KT P6SM SCT020 BKN050 OVC100 FM221900
                       17012KT P6SM -SHRA BKN025 OVC040=
201206212320 TAF KBLI 212320Z 2200/2224 VRB04KT P6SM SCT120 BKN200 FM220600
                       21006KT P6SM SCT050 OVC120 FM221200 18014KT
                       P6SM SCT020 BKN050 OVC100 FM221600 16012KT
                       P6SM -SHRA BKN020 OVC040 FM222000 22008KT
                       P6SM VCSH BKN025 BKN050=
201206211720 TAF KBLI 211720Z 2118/2218 22005KT P6SM SCT120 BKN200 FM220400
                       22007KT P6SM SCT050 BKN120 OVC200 FM221200
                       17012KT P6SM BKN015 OVC050 FM221600 17012KT
                       P6SM -RA BKN020 OVC040=
201206211120 TAF KBLI 211120Z 2112/2212 00000KT P6SM BKN120 FM212000 25007KT
                       P6SM SCT045 OVC090 FM220700 17011KT P6SM
                       SCT035 BKN050=
201206210520 TAF KBLI 210520Z 2106/2206 VRB03KT P6SM BKN090 BKN150 FM212000
                       25007KT P6SM SCT045 OVC090=
201206202320 TAF KBLI 202320Z 2100/2124 28007KT P6SM BKN120 BKN200 FM210600
                       22006KT P6SM BKN120 BKN200=
201206201720 TAF KBLI 201720Z 2018/2118 VRB04KT P6SM SCT120 BKN200=
201206201120 TAF KBLI 201120Z 2012/2112 00000KT P6SM SCT200
                      TEMPO 2012/2014 1SM BR FM201800 27005KT P6SM
                       SCT060 SCT200 FM210300 18004KT P6SM SCT120=
201206201054 KBLI 201054Z 2011/2106 00000KT P6SM SKC
                      TEMPO 2011/2014 1SM BR FM201800 27005KT P6SM
                       BKN200 FM210300 18004KT P6SM BKN200=
201206200520 TAF KBLI 200520Z 2006/2106 VRB03KT P6SM SCT200 FM201800 27005KT
                       P6SM BKN200 FM210300 18004KT P6SM BKN200=
201206192320 TAF KBLI 192320Z 2000/2024 VRB04KT P6SM SCT040
                      TEMPO 2000/2004 BKN040 FM201700 VRB03KT P6SM
                       BKN200=
201206191720 TAF KBLI 191720Z 1918/2018 VRB03KT P6SM BKN020 OVC040 FM192000
                       VRB03KT P6SM SCT020 BKN040 FM201700 VRB03KT
                       P6SM SCT040=
201206191121 TAF KBLI 191121Z 1912/2012 16006KT P6SM OVC060 FM191400 18006KT
                       P6SM VCSH BKN025 OVC050 FM191800 18006KT
                       P6SM VCSH SCT025 OVC050 FM192000 19006KT
                       P6SM BKN060 FM200300 17005KT P6SM SCT060=
201206190537 TAF KBLI 190537Z 1906/2006 17004KT P6SM SCT050 FM191100 17005KT
                       P6SM -SHRA BKN025 OVC050 FM191800 18006KT
                       P6SM VCSH SCT025 OVC050 FM192000 19006KT
                       P6SM BKN060=
201206182334 TAF KBLI 182334Z 1900/1924 19008KT P6SM SCT035 BKN060 FM190800
                       16006KT P6SM -SHRA BKN025 OVC050 FM191800
                       18006KT P6SM VCSH SCT025 OVC050 FM192000
                       19006KT P6SM BKN060=
201206181728 TAF KBLI 181728Z 1818/1918 18007KT P6SM VCSH SCT035 BKN050 FM182300
                       19010KT P6SM SCT035 BKN050 FM190800 16008KT
                       P6SM VCSH BKN025 OVC050=
201206181436 TAF AMD KBLI 181436Z 1815/1912 17006KT P6SM SCT015 OVC040
                      TEMPO 1815/1817 BKN015 OVC040 FM181700 18010KT
                       P6SM BKN040 BKN060 FM182100 19012KT P6SM
                       SCT040 BKN060 FM190600 17010KT P6SM BKN025
                       OVC050=
201206181120 TAF KBLI 181120Z 1812/1912 17006KT P6SM -SHRA BKN015 OVC040
                      TEMPO 1812/1814 SCT015 SCT040 OVC070 FM181700
                       18010KT P6SM BKN030 BKN050 FM182100 19012KT
                       P6SM SCT035 BKN050 FM190600 17010KT P6SM
                       BKN025 OVC050=
201206180523 TAF KBLI 180523Z 1806/1906 18004KT P6SM -SHRA BKN040 OVC060
                      TEMPO 1806/1808 -SHRA BKN020 OVC040 FM180800
                       17010KT P6SM -SHRA BKN018 OVC030 FM181700
                       18010KT P6SM BKN030 BKN050 FM182100 18010KT
                       P6SM SCT035 BKN050=
201206172330 TAF KBLI 172330Z 1800/1824 17012G20KT P6SM SCT035 BKN050 FM180400
                       17008KT P6SM VCSH BKN035 OVC050 FM180800
                       17010KT P6SM -SHRA BKN018 OVC030 FM181700
                       18010KT P6SM VCSH BKN030 BKN050 FM182100
                       18010KT P6SM VCSH SCT035 BKN050=
201206172108 KBLI 172108Z 1721/1818 17012G20KT P6SM SCT035 BKN050 FM180400 17008KT
                       P6SM VCSH BKN025 OVC040 FM180800 17010KT
                       P6SM -SHRA BKN018 OVC030=
201206171805 KBLI 171805Z 1718/1818 18012G20KT P6SM SCT030 BKN050 OVC070
                      TEMPO 1718/1721 -SHRA BKN030 OVC050 FM172100
                       18012G20KT P6SM SCT070
                      TEMPO 1721/1724 BKN070 FM180000 18010G20KT
                       P6SM SCT035 OVC050 FM180400 17008KT P6SM
                       VCSH BKN025 OVC040 FM180800 17010KT P6SM
                       -SHRA BKN018 OVC030=
201206171735 TAF KBLI 171735Z 1718/1818 18012G20KT P6SM BKN070 FM172100 18012G20KT
                       P6SM SCT070
                      TEMPO 1721/1724 BKN070 FM180000 18010G20KT
                       P6SM SCT035 OVC050 FM180400 17008KT P6SM
                       VCSH BKN025 OVC040 FM180800 17010KT P6SM
                       -SHRA BKN018 OVC030=
201206171501 KBLI 171501Z 1715/1812 18010G18KT P6SM SCT050 SCT090
                      TEMPO 1715/1716 BKN050 BKN090 FM171700 18012KT
                       P6SM SCT025 BKN050
                      TEMPO 1717/1721 -SHRA BKN025 OVC050 FM180400
                       17008KT P6SM BKN025 OVC040 FM180800 17010KT
                       P6SM -SHRA BKN018 OVC030=
201206171308 KBLI 171308Z 1713/1812 18009KT P6SM SCT050 SCT090
                      TEMPO 1713/1716 BKN050 BKN090 FM171700 18012KT
                       P6SM SCT025 BKN050
                      TEMPO 1717/1721 -SHRA BKN025 OVC050 FM180400
                       17008KT P6SM BKN025 OVC040 FM180800 17010KT
                       P6SM -SHRA BKN018 OVC030=
201206171121 TAF KBLI 171121Z 1712/1812 17007G15KT P6SM SCT015 SCT050
                      TEMPO 1712/1716 BKN015 OVC050 FM171700 18012KT
                       P6SM SCT025 BKN050
                      TEMPO 1717/1721 -SHRA BKN025 OVC050 FM180400
                       17008KT P6SM BKN025 OVC040 FM180800 17010KT
                       P6SM -SHRA BKN018 OVC030=
201206170704 KBLI 170704Z 1707/1806 18010KT P6SM SCT003 BKN025 OVC060
                      TEMPO 1707/1709 5SM -SHRA BR BKN003 OVC020
                       FM171800 18012KT P6SM SCT025 BKN040 FM180500
                       17008KT P6SM BKN025 OVC040=
201206170524 TAF KBLI 170524Z 1706/1806 18008KT P6SM BKN025 OVC060
                      TEMPO 1706/1708 5SM -SHRA BR OVC020 FM171800
                       18012KT P6SM SCT025 BKN040 FM180500 17008KT
                       P6SM BKN025 OVC040=
201206170347 KBLI 170347Z 1704/1724 00000KT P6SM SCT012 OVC060
                      TEMPO 1704/1706 3SM -RA BR BKN004 OVC012
                       FM170600 18010KT P6SM -SHRA SCT010 BKN022
                       OVC040 FM171400 18010KT P6SM SCT025 BKN040=
201206170204 KBLI 170204Z 1702/1724 00000KT P6SM BKN060 OVC080
                      TEMPO 1702/1705 -RA BKN021 OVC060 FM170500
                       18010KT P6SM -SHRA SCT010 BKN022 OVC040
                       FM171400 18010KT P6SM SCT025 BKN040=
201206162339 TAF KBLI 162339Z 1700/1724 18006KT P6SM -RA SCT006 BKN022 OVC040
                       TEMPO 1700/1704 3SM -RA BKN006 OVC022 FM170400
                       18010KT P6SM -SHRA SCT010 BKN022 OVC040
                       FM171400 18010KT P6SM SCT025 BKN040=
201206161734 TAF KBLI 161734Z 1618/1718 15012G20KT P6SM -RA OVC025 FM170000
                       16012KT 5SM -RA OVC012 FM170400 18010KT
                       P6SM -SHRA BKN020 OVC040 FM171400 18010KT
                       P6SM SCT025 BKN040=
201206161336 KBLI 161336Z 1614/1712 15006KT P6SM -RA OVC035 FM161700 15010KT
                       P6SM -RA OVC025 FM162000 16012KT 5SM -RA
                       OVC012 FM170400 18010KT P6SM -SHRA BKN020
                       OVC040=
201206161120 TAF KBLI 161120Z 1612/1712 00000KT P6SM OVC060 FM161400 16012KT
                       P6SM -RA OVC035 FM162000 16012KT 5SM -RA
                       OVC012 FM170400 18010KT P6SM -SHRA BKN020
                       OVC040=
201206160522 TAF KBLI 160522Z 1606/1706 00000KT P6SM OVC100 FM160900 16008KT
                       P6SM SCT045 OVC070 FM161400 16012KT P6SM
                       -RA OVC035 FM162000 16012KT 5SM -RA OVC012=
201206152338 TAF KBLI 152338Z 1600/1624 VRB03KT P6SM BKN200 FM160900 16008KT
                       P6SM SCT045 OVC070 FM161400 16012KT P6SM
                       -RA OVC035 FM162000 16012KT 5SM -RA OVC012=
201206151740 TAF KBLI 151740Z 1518/1618 VRB03KT P6SM SCT200 FM160300 16006KT
                       P6SM BKN200 FM160900 16008KT P6SM SCT045
                       OVC070 FM161600 16012KT P6SM -RA OVC035=
201206151259 KBLI 151259Z 1513/1612 00000KT 1/4SM FG VV001
                      TEMPO 1513/1515 3SM BR SCT001 FM151500 17003KT
                       P6SM SCT200 FM160200 21005KT P6SM BKN200
                       FM160900 16007KT P6SM BKN070 OVC120
                      PROB30 1609/1612 -RA=
201206151120 TAF KBLI 151120Z 1512/1612 VRB03KT P6SM SCT200 FM151800 17006KT
                       P6SM SCT200 FM160200 21005KT P6SM BKN200
                       FM160900 16007KT P6SM BKN070 OVC120
                      PROB30 1609/1612 -RA=
201206150524 TAF KBLI 150524Z 1506/1606 18004KT P6SM SCT060 FM151800 17007KT
                       P6SM SCT200 FM160200 20005KT P6SM BKN200=
201206142341 TAF KBLI 142341Z 1500/1524 17008KT P6SM SCT050 BKN200 FM150600
                       VRB03KT P6SM SCT200=
201206141736 TAF KBLI 141736Z 1418/1518 17008KT P6SM BKN030 FM142000 17008KT
                       P6SM SCT030 BKN050 BKN200 FM142300 17008KT
                       P6SM SCT050 BKN200 FM150600 VRB03KT P6SM
                       SCT200=
201206141122 TAF KBLI 141122Z 1412/1512 16008KT P6SM SCT040 BKN120
                      TEMPO 1412/1416 BKN035 FM141600 20009KT P6SM
                       SCT030 BKN050 OVC120 FM142200 18008KT P6SM
                       SCT050 BKN200 FM150600 18004KT P6SM SCT050
                       SCT200=
201206140520 TAF KBLI 140520Z 1406/1506 16009KT P6SM SCT050
                      TEMPO 1407/1410 BKN040 FM141000 18008KT P6SM
                       OVC035 FM141900 20009KT P6SM SCT030 BKN050
                       FM142300 18008KT P6SM SCT050 BKN200=
201206132327 TAF KBLI 132327Z 1400/1424 16012KT P6SM OVC045 FM141000 18008KT
                       P6SM BKN025 OVC040 FM141800 20008KT P6SM
                       SCT030 BKN050=
201206131722 TAF KBLI 131722Z 1318/1418 17012KT P6SM SCT025 BKN040 FM140800
                       17007KT P6SM BKN025 OVC040=
201206131610 KBLI 131610Z 1316/1412 17010KT P6SM SCT020 OVC035 FM131800 17012KT
                       P6SM SCT025 BKN040 FM132200 19010KT P6SM
                       SCT050 FM140800 17007KT P6SM BKN025=
201206131129 TAF KBLI 131129Z 1312/1412 17013KT P6SM VCSH OVC022
                      TEMPO 1312/1316 -SHRA FM131800 17013KT P6SM
                       BKN022 BKN050 FM132000 19010KT P6SM SCT030
                       BKN050 FM132200 19010KT P6SM SCT050 FM140200
                       17007KT P6SM FEW090 SCT200=
201206131044 KBLI 131044Z 1311/1406 17011KT P6SM OVC028
                      TEMPO 1311/1312 -SHRA FM131200 17013KT P6SM
                       VCSH OVC020
                      TEMPO 1312/1316 -SHRA FM131800 19013KT P6SM
                       BKN022 BKN050 FM132000 19010KT P6SM SCT030
                       BKN050 FM132200 19010KT P6SM SCT050 FM140000
                       21007KT P6SM FEW050=
201206130901 KBLI 130901Z 1309/1406 17009KT P6SM BKN035 OVC050
                      TEMPO 1309/1312 -SHRA FM131200 17013KT P6SM
                       VCSH OVC020
                      TEMPO 1312/1316 -SHRA FM131800 19013KT P6SM
                       BKN022 BKN050 FM132000 19010KT P6SM SCT030
                       BKN050 FM132200 19010KT P6SM SCT050 FM140000
                       21007KT P6SM FEW050=
201206130542 TAF KBLI 130542Z 1306/1406 17010KT P6SM SCT028 OVC050
                      TEMPO 1306/1309 -SHRA FM130900 17010KT P6SM
                       BKN028 OVC050
                      TEMPO 1309/1312 -SHRA FM131200 17013KT P6SM
                       VCSH OVC020
                      TEMPO 1312/1316 -SHRA FM131800 19013KT P6SM
                       BKN022 BKN050 FM132000 19010KT P6SM SCT030
                       BKN050 FM132200 19010KT P6SM SCT050 FM140000
                       21007KT P6SM FEW050=
201206130224 KBLI 130224Z 1302/1324 17009KT P6SM VCSH OVC035
                      TEMPO 1302/1306 -SHRA FM130600 21008KT P6SM
                       OVC025 FM131200 18008KT P6SM OVC015 FM131700
                       21008KT P6SM BKN020 OVC040 FM132200 23008KT
                       P6SM SCT025 BKN050=
201206122320 TAF KBLI 122320Z 1300/1324 17008KT P6SM VCSH SCT025 OVC050
                      TEMPO 1300/1304 BKN025 OVC050 FM130400 21008KT
                       P6SM VCSH OVC025 FM131200 18008KT P6SM OVC015
                       FM131700 21008KT P6SM BKN020 OVC040 FM132200
                       23008KT P6SM SCT025 BKN050=
201206121723 TAF KBLI 121723Z 1218/1318 18008KT P6SM VCSH SCT020 OVC050
                      TEMPO 1218/1222 BKN020 OVC040 FM122200 18012KT
                       P6SM VCSH BKN025 OVC040 FM130300 18008KT
                       P6SM OVC020 FM131200 18008KT P6SM OVC012
                       TEMPO 1312/1316 5SM -DZ OVC010 FM131700
                       21007KT P6SM OVC025=
201206121417 TAF AMD KBLI 121417Z 1214/1312 16006KT P6SM SCT030 BKN050 OVC100
                       TEMPO 1214/1218 -SHRA BKN030 OVC050 FM121800
                       20008KT P6SM VCSH OVC040 FM130000 18010KT
                       P6SM SCT030 BKN050
                      PROB30 1300/1306 -SHRA FM130600 17008KT P6SM
                       BKN030 BKN050
                      PROB30 1306/1312 -SHRA=
201206121120 TAF KBLI 121120Z 1212/1312 17005KT P6SM SCT030 OVC060
                      TEMPO 1212/1214 -RA FM121400 17005KT P6SM
                       -RA SCT018 OVC030 FM121600 17009KT P6SM
                       -RA BKN018 OVC030 FM122000 18010KT P6SM
                       BKN028 BKN050
                      TEMPO 1220/1224 -SHRA FM130000 18010KT P6SM
                       SCT030 BKN050
                      PROB30 1300/1306 -SHRA FM130600 17008KT P6SM
                       BKN030 BKN050
                      PROB30 1306/1312 -SHRA=
201206120919 KBLI 120919Z 1209/1306 17005KT P6SM OVC070
                      TEMPO 1209/1212 -RA FM121200 17005KT P6SM
                       -RA SCT030 OVC050 FM121400 17005KT P6SM
                       -RA SCT018 OVC030 FM121600 17009KT P6SM
                       -RA BKN018 OVC030 FM122000 18012KT P6SM
                       BKN028 BKN050
                      TEMPO 1220/1224 -SHRA FM130000 18012KT P6SM
                       SCT030 BKN050
                      PROB30 1300/1306 -SHRA=
201206120521 TAF KBLI 120521Z 1206/1306 VRB03KT P6SM OVC080
                      TEMPO 1207/1209 -RA FM120900 17005KT P6SM
                       -RA OVC060 FM121200 17005KT P6SM -RA SCT030
                       OVC050 FM121400 17005KT P6SM -RA SCT018
                       OVC030 FM121600 17009KT P6SM -RA BKN018
                       OVC030 FM122000 18012KT P6SM BKN028 BKN050
                       TEMPO 1220/1224 -SHRA FM130000 18012KT P6SM
                       SCT030 BKN050
                      PROB30 1300/1306 -SHRA=
201206120310 KBLI 120310Z 1203/1224 VRB03KT P6SM SCT100 OVC150 FM120600 21006KT
                       P6SM SCT040 BKN120 FM120800 18008KT P6SM
                       SCT020 BKN050 OVC100
                      TEMPO 1210/1214 BKN020 OVC040 FM121400 18012KT
                       P6SM -DZ BKN015 OVC040 FM121900 22010KT
                       P6SM VCSH BKN025 BKN050=
201206112320 TAF KBLI 112320Z 1200/1224 VRB03KT P6SM SCT050 BKN150 FM120400
                       21006KT P6SM SCT040 BKN120 FM120800 18008KT
                       P6SM SCT020 BKN050 OVC100
                      TEMPO 1210/1214 BKN020 OVC040 FM121400 18012KT
                       P6SM -DZ BKN015 OVC040 FM121900 22010KT
                       P6SM VCSH BKN025 BKN050=
201206111720 TAF KBLI 111720Z 1118/1218 VRB03KT P6SM SCT200 FM120000 22005KT
                       P6SM SCT050 BKN150 FM120800 18008KT P6SM
                       SCT020 BKN050 OVC100
                      TEMPO 1210/1214 BKN020 OVC040 FM121400 18008KT
                       P6SM -DZ BKN015 OVC040=
201206111120 TAF KBLI 111120Z 1112/1212 VRB03KT P6SM SCT200 FM111800 20006KT
                       P6SM FEW090 BKN200 FM120600 17005KT P6SM
                       BKN090 OVC150 FM120900 17005KT P6SM OVC060
                       PROB30 1209/1212 -RA=
201206110902 KBLI 110902Z 1109/1206 VRB03KT P6SM SCT200 FM111500 18006KT P6SM
                       BKN200 FM112100 21006KT P6SM FEW090 BKN200
                       FM120300 17004KT P6SM BKN090 OVC150=
201206110520 TAF KBLI 110520Z 1106/1206 VRB03KT P6SM SCT080 BKN200
                      TEMPO 1106/1110 BKN080 BKN200 FM111500 18006KT
                       P6SM BKN200 FM112100 21006KT P6SM FEW090
                       BKN200 FM120300 17004KT P6SM BKN090 OVC150=
201206110315 KBLI 110315Z 1103/1124 VRB03KT P6SM BKN080 BKN200 FM111000 18005KT
                       P6SM SCT120 BKN200 FM111800 24007KT P6SM
                       SCT080 BKN150 FM112200 26007KT P6SM BKN080
                       BKN120=
201206102331 TAF KBLI 102331Z 1100/1124 16007KT P6SM FEW060 BKN200 FM110400
                       18005KT P6SM SCT050 BKN200 FM111000 18005KT
                       P6SM SCT120 BKN200 FM111800 24007KT P6SM
                       SCT080 BKN150 FM112200 26007KT P6SM BKN080
                       BKN120=
201206101720 TAF KBLI 101720Z 1018/1118 20008KT P6SM SCT025 SCT035 BKN050
                      TEMPO 1018/1020 BKN025 FM102000 19008KT P6SM
                       SCT050 BKN200 FM110200 17006KT P6SM SCT110
                       BKN200 FM111200 18005KT P6SM SCT080 BKN150=
201206101126 TAF KBLI 101126Z 1012/1112 17013KT P6SM SCT015 BKN060 OVC200
                      TEMPO 1012/1016 BKN015 OVC060 FM101800 17010KT
                       P6SM FEW022 BKN060 BKN200 FM102000 19008KT
                       P6SM SCT060 BKN200 FM110200 17006KT P6SM
                       SCT110 BKN200=
201206100903 KBLI 100903Z 1009/1106 17010KT P6SM SCT015 OVC060
                      TEMPO 1009/1012 BKN015 OVC060 FM101400 17013KT
                       P6SM BKN030 OVC060 FM101800 17011KT P6SM
                       SCT030 BKN060 FM101900 19009KT P6SM SCT060
                       BKN200 FM110000 21006KT P6SM SCT200 FM110300
                       VRB03KT P6SM SCT200=
201206100540 TAF KBLI 100540Z 1006/1106 17010KT P6SM SCT060 BKN200
                      TEMPO 1006/1008 BKN060 BKN200 FM100900 17010KT
                       P6SM FEW030 OVC060 FM101400 17013KT P6SM
                       BKN030 OVC060 FM101800 17011KT P6SM SCT030
                       BKN060 FM101900 19009KT P6SM SCT060 BKN200
                       FM110000 21006KT P6SM SCT200 FM110300 VRB03KT
                       P6SM SCT200=
201206092320 TAF KBLI 092320Z 1000/1024 19012G20KT P6SM BKN050 FM100300 17009KT
                       P6SM SCT050 SCT080 FM100600 16008KT P6SM
                       FEW022 BKN090
                      TEMPO 1012/1015 BKN022 FM101800 18012KT P6SM
                       SCT040 SCT120=
201206091720 TAF KBLI 091720Z 0918/1018 18012KT P6SM SCT025 OVC050
                      TEMPO 0918/0920 BKN025 FM092200 19015G22KT
                       P6SM SCT040 SCT080 FM100300 17009KT P6SM
                       SCT050 SCT080 FM100600 17008KT P6SM FEW022
                       BKN090
                      TEMPO 1012/1015 BKN022=
201206091133 TAF KBLI 091133Z 0912/1012 17005KT P6SM VCSH FEW030 OVC050 FM091400
                       17011KT P6SM SCT030 OVC050
                      TEMPO 0914/0918 BKN030 OVC050 FM091800 18013KT
                       P6SM BKN050 BKN200 FM092200 18013KT P6SM
                       SCT050 SCT200 FM100300 17009KT P6SM SCT050
                       SCT090 SCT200 FM100600 17007KT P6SM FEW022
                       BKN090=
201206091108 KBLI 091108Z 0911/1006 17005KT P6SM VCSH FEW030 BKN050 FM091400
                       17010KT P6SM SCT030 BKN050
                      TEMPO 0914/0918 BKN030 BKN050 FM091800 19013KT
                       P6SM SCT050 FM100200 17010KT P6SM FEW050=
201206090815 KBLI 090815Z 0908/1006 17005KT P6SM FEW030 FM091400 17010KT P6SM
                       SCT030
                      TEMPO 0914/0918 BKN030 FM091800 19013KT P6SM
                       SCT050 FM100200 17010KT P6SM FEW050=
201206090541 TAF KBLI 090541Z 0906/1006 VRB03KT P6SM BCFG FEW050
                      TEMPO 0906/0910 2SM MIFG FM091200 17005KT
                       P6SM FEW030 FM091400 17010KT P6SM SCT030
                       TEMPO 0914/0918 BKN030 FM091800 19013KT
                       P6SM SCT050 FM100200 17010KT P6SM FEW050=
201206090309 KBLI 090309Z 0903/0924 VRB03KT P6SM VCSH SCT050
                      TEMPO 0903/0905 BKN050 FM090500 VRB03KT P6SM
                       SCT050 FM090900 18005KT P6SM BKN030 FM091200
                       18008KT P6SM OVC022 FM091800 18008KT P6SM
                       SCT040=
201206090156 KBLI 090156Z 0902/0924 VRB04KT P6SM VCTS BKN040CB
                      TEMPO 0902/0904 -SHRA OVC030 FM090400 VRB04KT
                       P6SM VCSH BKN060 FM090900 18005KT P6SM BKN030
                       FM091200 18008KT P6SM OVC022 FM091800 18008KT
                       P6SM SCT040=
201206082320 TAF KBLI 082320Z 0900/0924 16008KT P6SM SCT030 BKN045
                      TEMPO 0900/0904 -SHRA BKN030 FM090900 18005KT
                       P6SM BKN030 FM091200 18008KT P6SM OVC022
                       FM091800 18008KT P6SM SCT040=
201206082001 KBLI 082001Z 0820/0918 VRB04KT P6SM VCSH SCT025 BKN045 FM082200
                       18012KT P6SM -SHRA BKN025 BKN040 FM090300
                       18008KT P6SM BKN030 FM091200 18008KT P6SM
                       OVC020=
201206081720 TAF KBLI 081720Z 0818/0918 VRB04KT P6SM VCSH BKN025 BKN040 FM082100
                       18012KT P6SM -SHRA BKN025 BKN040 FM090300
                       18008KT P6SM BKN030 FM091200 18008KT P6SM
                       OVC020=
201206081505 KBLI 081505Z 0815/0912 00000KT P6SM VCSH BKN035 BKN050 FM082100
                       18010KT P6SM -SHRA BKN030 BKN050 FM090300
                       18008KT P6SM BKN030=
201206081135 TAF KBLI 081135Z 0812/0912 00000KT 3SM BR VCSH SCT001 BKN110
                      TEMPO 0812/0815 1SM BR BKN001 FM081600 17006KT
                       P6SM VCSH SCT030 BKN060 FM082100 18010KT
                       P6SM -SHRA BKN030 BKN060=
201206080535 TAF KBLI 080535Z 0806/0906 00000KT P6SM VCSH BKN050 OVC060 FM080800
                       18005KT P6SM VCSH SCT040 BKN110 BKN200 FM081800
                       16008KT P6SM VCSH SCT030 BKN060 FM082100
                       18010KT P6SM -SHRA BKN030 BKN060=
201206072325 TAF KBLI 072325Z 0800/0824 20006KT P6SM VCSH SCT030 BKN035 BKN060
                       TEMPO 0800/0804 BKN030 FM080600 18005KT
                       P6SM BKN060 FM081800 16008KT P6SM SCT030
                       BKN060 FM082100 18008KT P6SM VCSH BKN030
                       BKN060=
201206071734 TAF KBLI 071734Z 0718/0818 15010G18KT P6SM -RA SCT030 BKN040 OVC050
                       TEMPO 0718/0720 6SM -RA BKN030 FM072200
                       15012G23KT 4SM -RA OVC015 FM080200 18010KT
                       P6SM -SHRA OVC050 FM080600 18005KT P6SM
                       BKN040=
201206071135 TAF KBLI 071135Z 0712/0812 01006KT P6SM BKN050 FM071300 03006KT
                       P6SM -RA OVC050 FM071800 03006KT 5SM -RA
                       OVC025 FM072200 15012G23KT 4SM -RA OVC015
                       FM080200 18010KT P6SM -SHRA OVC050=
201206070535 TAF KBLI 070535Z 0706/0806 00000KT P6SM OVC060 FM071200 16004KT
                       P6SM -RA OVC050 FM071800 06005KT 5SM -RA
                       OVC025 FM072200 15010KT 4SM -RA OVC015 FM080200
                       18009KT P6SM -SHRA OVC050=
201206062320 TAF KBLI 062320Z 0700/0724 18007KT P6SM SCT030 BKN060 OVC200 FM070400
                       12008KT P6SM SCT030 OVC060 FM071200 15010KT
                       P6SM BKN030 OVC060 FM071500 15014G20KT P6SM
                       -RA OVC030 FM072100 18014G20KT P6SM -SHRA
                       BKN030 BKN040=
201206061722 TAF KBLI 061722Z 0618/0718 18011G18KT P6SM SCT030 BKN050 OVC200
                       FM070400 12008KT P6SM SCT050 BKN100 FM071200
                       15010KT P6SM BKN030 OVC080 FM071500 15014KT
                       P6SM -RA OVC030=
201206061126 TAF KBLI 061126Z 0612/0712 VRB03KT P6SM SCT050 FM070400 12008KT
                       P6SM SCT050 BKN100 FM071100 15014KT P6SM
                       -RA OVC035=
201206060540 TAF KBLI 060540Z 0606/0706 17006KT P6SM BKN050 FM061800 VRB03KT
                       P6SM SCT050 FM070400 VRB03KT P6SM SCT050
                       BKN100=
201206052325 TAF KBLI 052325Z 0600/0624 16008KT P6SM VCSH SCT045 BKN060 FM060600
                       18008KT P6SM SCT030 BKN040 FM061200 18005KT
                       P6SM SCT025 BKN040=
201206051730 TAF KBLI 051730Z 0518/0618 20014G20KT P6SM VCSH SCT025 BKN040 OVC060
                       TEMPO 0518/0521 -SHRA BKN025 FM060300 20008KT
                       P6SM SCT025 BKN040 FM060900 18005KT P6SM
                       BKN025 OVC040=
201206051130 TAF KBLI 051130Z 0512/0612 18006KT P6SM SCT030 BKN050 BKN080 FM051700
                       20012G18KT P6SM SCT025 BKN040 BKN060 FM052200
                       20008KT P6SM SCT025 BKN040=
201206050540 TAF KBLI 050540Z 0506/0606 VRB03KT P6SM -SHRA OVC035 FM051200 18006KT
                       P6SM BKN025 OVC040 FM051700 20012G22KT P6SM
                       SCT025 BKN040 FM052200 20010KT P6SM SCT025
                       BKN040=
201206042329 TAF KBLI 042329Z 0500/0524 32006KT P6SM VCSH SCT025 OVC050
                      TEMPO 0500/0504 -SHRA BKN025 FM050900 18006KT
                       P6SM BKN025 OVC040 FM051500 20016G22KT P6SM
                       -SHRA BKN020 OVC030=
201206041721 TAF KBLI 041721Z 0418/0518 32006KT P6SM -SHRA SCT025 OVC050
                      TEMPO 0419/0423 BKN025 FM050300 29006KT P6SM
                       -SHRA BKN025 OVC040 FM051000 19016KT P6SM
                       -SHRA BKN020 OVC030=
201206041120 TAF KBLI 041120Z 0412/0512 34004KT P6SM SCT060 OVC120 FM041400
                       02004KT P6SM -RA SCT040 OVC080 FM041700
                       01006KT P6SM -RA BKN025 OVC040
                      TEMPO 0419/0423 4SM -RA BR BKN015 OVC025
                       FM050100 19012KT P6SM -SHRA BKN025 OVC040
                       FM051000 19016KT P6SM -RA BKN020 OVC030=
201206040521 TAF KBLI 040521Z 0406/0506 00000KT P6SM BKN080 FM041300 02004KT
                       P6SM -RA BKN040 OVC080 FM041700 01006KT
                       P6SM -RA BKN025 OVC040
                      TEMPO 0419/0423 4SM -RA BR BKN015 OVC025
                       FM050100 19012KT P6SM -SHRA BKN025 OVC040=
201206032329 TAF KBLI 032329Z 0400/0424 17006KT P6SM SCT110 FM040600 16004KT
                       P6SM OVC050 FM041500 VRB03KT P6SM -RA BKN035
                       OVC050 FM041800 32006KT P6SM -RA BKN015
                       OVC030=
201206031728 TAF KBLI 031728Z 0318/0418 17009KT P6SM SCT045 OVC060
                      TEMPO 0318/0319 P6SM -RA BKN045 OVC060 FM032300
                       20005KT P6SM SCT050 OVC080 FM040600 16004KT
                       P6SM OVC050 FM041500 VRB03KT P6SM -RA BKN035
                       OVC050=
201206031120 TAF KBLI 031120Z 0312/0412 16003KT P6SM BKN060 FM031700 18008KT
                       P6SM SCT060 BKN120 FM040000 19003KT P6SM
                       SCT060 BKN120=
201206030528 TAF KBLI 030528Z 0306/0406 18003KT P6SM BKN060 BKN150 FM031000
                       18006KT P6SM SCT035 BKN050 OVC100 FM031700
                       18008KT P6SM SCT050 BKN080 FM032300 19005KT
                       P6SM SCT060 BKN120=
201206022320 TAF KBLI 022320Z 0300/0324 17009G18KT P6SM VCSH SCT050 BKN080 FM030200
                       18008KT P6SM SCT050 SCT080 FM031000 18008KT
                       P6SM SCT035 BKN050 OVC100 FM031700 18008KT
                       P6SM SCT050 BKN080=
201206021725 TAF KBLI 021725Z 0218/0318 17005KT P6SM -SHRA FEW015 OVC070 FM022100
                       20008KT P6SM SCT035 BKN070 FM030000 18008KT
                       P6SM SCT050 BKN150 FM031000 18008KT P6SM
                       SCT035 BKN050 OVC100=
201206021120 TAF KBLI 021120Z 0212/0312 16008KT P6SM OVC070 FM021900 20008KT
                       P6SM SCT035 BKN080 FM030000 18008KT P6SM
                       SCT050 BKN150=
201206021002 KBLI 021002Z 0210/0306 17007KT P6SM OVC070
                      TEMPO 0212/0216 BKN010 OVC070 FM021900 20008KT
                       P6SM SCT035 BKN050 FM030000 18008KT P6SM
                       SCT050 BKN150=
201206020553 KBLI 020553Z 0206/0306 17010G15KT P6SM -RA SCT004 BKN060 OVC090
                       TEMPO 0206/0210 -RA BKN004 OVC060 FM021000
                       17006KT P6SM -RA BKN020 OVC035 FM021900
                       20008KT P6SM SCT035 BKN050 FM030000 18008KT
                       P6SM SCT050 BKN150=
201206020523 TAF KBLI 020523Z 0206/0306 20004KT P6SM -RA BKN060 OVC100 FM021000
                       17006KT P6SM -RA BKN025 OVC035 FM021900
                       20008KT P6SM SCT035 BKN050 FM030000 18008KT
                       P6SM SCT050 BKN150=
201206012321 TAF KBLI 012321Z 0200/0224 17005KT P6SM VCSH SCT021 BKN035 OVC045
                       FM021000 17006KT P6SM BKN025 OVC035 FM021900
                       20008KT P6SM SCT035 BKN050=
201206011737 TAF KBLI 011737Z 0118/0218 18006G16KT P6SM OVC019 FM012100 20008KT
                       P6SM -SHRA BKN022 OVC035 FM020000 17008KT
                       P6SM BKN035 OVC080 FM021000 17006KT P6SM
                       BKN025 OVC035=
201206011521 KBLI 011521Z 0115/0212 15004KT P6SM -RA OVC017 FM012000 20007KT
                       P6SM -SHRA BKN020 OVC035 FM020000 17008KT
                       P6SM BKN035 OVC080 FM021000 17006KT P6SM
                       BKN025 OVC035=
201206011120 TAF KBLI 011120Z 0112/0212 00000KT 5SM -RA BR SCT003 OVC025
                      TEMPO 0112/0115 2SM -RA BR BKN003 OVC018
                       FM011500 18007KT 3SM -RA BR BKN006 OVC015
                       FM012000 20007KT P6SM -SHRA BKN020 OVC035
                       FM020000 17008KT P6SM BKN035 OVC080 FM021000
                       17006KT P6SM BKN025 OVC035=
201206010838 KBLI 010838Z 0109/0206 00000KT 5SM -RA BR SCT006 BKN018 OVC050
                       TEMPO 0109/0113 2SM -RA BR BKN006 OVC018
                       FM011500 18007KT 3SM -RA BR BKN008 OVC015
                       FM012000 20007KT P6SM -SHRA BKN025 OVC035
                       FM020000 17008KT P6SM BKN035 OVC080=
201206010524 TAF KBLI 010524Z 0106/0206 00000KT P6SM SCT020 OVC050
                      TEMPO 0106/0108 -RA BKN020 OVC050 FM010800
                       VRB03KT P6SM -RA BKN020 OVC040 FM011500
                       18007KT P6SM -RA BKN015 OVC025 FM012000
                       20007KT P6SM -SHRA BKN025 OVC035 FM020000
                       17008KT P6SM BKN035 OVC080=
201206010046 KBLI 010046Z 0101/0124 18005KT P6SM SCT020 OVC050
                      TEMPO 0101/0103 BKN020 OVC050 FM010800 12005KT
                       P6SM VCSH BKN025 OVC040 FM011000 15004KT
                       P6SM -RA BKN020 OVC060 FM011500 18007KT
                       P6SM -RA SCT015 OVC020 FM012000 20007KT
                       P6SM -SHRA BKN025 OVC030=