##########################################################
# Query made at 02/16/2025 20:08:17 UTC
# Time interval: from 10/01/2012 00:00  to 10/31/2012 23:59  UTC
##########################################################

##########################################################
# KBLI, Bellingham, Bellingham International Airport (United States)
# WMO index: -----. WIGOS ID: Unknown
# Latitude 48-47-58N. Longitude 122-32-21W. Altitude 48 m.
##########################################################

###################################
#  METAR/SPECI from KBLI
###################################
201210312353 METAR KBLI 312353Z 15015G26KT 10SM -RA OVC080 15/11 A2960 RMK AO2 PK WND 15031/2333 SLP029 P0001 60004 T01500111 10167 20117 53005=
201210312253 METAR KBLI 312253Z 15014G19KT 10SM -RA FEW032 OVC075 16/11 A2959 RMK AO2 RAB33 SLP026 P0000 T01610111=
201210312153 METAR KBLI 312153Z 13014G21KT 10SM SCT038 SCT080 OVC095 17/11 A2957 RMK AO2 WSHFT 2108 SLP019 T01670111=
201210312128 SPECI KBLI 312128Z 15016KT 10SM FEW038 OVC080 17/11 A2957 RMK AO2 WSHFT 2108=
201210312109 SPECI KBLI 312109Z 15016KT 10SM BKN040 OVC075 13/11 A2957 RMK AO2=
201210312053 METAR KBLI 312053Z 34004KT 10SM OVC042 12/11 A2958 RMK AO2 RAB28E42 SLP024 P0000 60003 T01220106 58017=
201210311953 METAR KBLI 311953Z 02007KT 10SM SCT050 BKN070 OVC090 13/12 A2959 RMK AO2 RAE45 SLP028 P0000 T01330122=
201210311853 METAR KBLI 311853Z 04004KT 10SM -RA SCT036 BKN050 OVC080 13/12 A2963 RMK AO2 SLP039 P0003 T01280117=
201210311753 METAR KBLI 311753Z 00000KT 9SM -RA FEW035 OVC046 12/11 A2963 RMK AO2 SLP041 P0004 60018 T01170106 10117 20106 58009=
201210311653 METAR KBLI 311653Z 01005KT 10SM -RA SCT034 OVC043 11/09 A2964 RMK AO2 SLP043 P0002 T01060094=
201210311553 METAR KBLI 311553Z 02005KT 10SM -RA BKN047 OVC060 11/09 A2966 RMK AO2 SLP049 P0002 T01060094=
201210311533 SPECI KBLI 311533Z 02008KT 10SM -RA FEW024 BKN049 OVC075 11/09 A2966 RMK AO2 P0001=
201210311453 METAR KBLI 311453Z 03007KT 10SM -RA OVC022 11/09 A2966 RMK AO2 SLP050 P0003 60010 T01060094 58013=
201210311353 METAR KBLI 311353Z 02006KT 7SM -RA FEW011 OVC017 11/10 A2968 RMK AO2 SLP057 P0002 T01060100=
201210311253 METAR KBLI 311253Z AUTO 36004KT 10SM -RA OVC016 11/09 A2969 RMK AO2 SLP060 P0005 T01060094=
201210311153 METAR KBLI 311153Z AUTO 01005KT 7SM -RA OVC013 11/09 A2970 RMK AO2 SLP063 P0006 60053 70102 T01060094 10117 20106 58010=
201210311134 SPECI KBLI 311134Z AUTO 01006KT 7SM -RA FEW005 BKN010 OVC014 11/09 A2970 RMK AO2 CIG 009V012 P0004=
201210311053 METAR KBLI 311053Z AUTO 35004KT 8SM -RA FEW005 OVC009 11/09 A2971 RMK AO2 SLP066 P0008 T01060094=
201210311033 SPECI KBLI 311033Z AUTO 35004KT 7SM -RA BKN009 OVC013 11/10 A2971 RMK AO2 CIG 004V011 P0006=
201210311015 SPECI KBLI 311015Z AUTO 35006KT 6SM RA BR SCT005 OVC010 11/10 A2972 RMK AO2 P0003=
201210310953 METAR KBLI 310953Z AUTO 35007KT 5SM RA BR BKN005 OVC008 11/10 A2972 RMK AO2 SLP071 P0012 T01060100=
201210310937 SPECI KBLI 310937Z AUTO 35006KT 5SM RA BR BKN005 OVC010 11/10 A2972 RMK AO2 CIG 003V007 P0009=
201210310930 SPECI KBLI 310930Z AUTO 35007KT 5SM RA BR BKN003 OVC010 11/10 A2972 RMK AO2 CIG 003V007 P0007=
201210310917 SPECI KBLI 310917Z AUTO 35006KT 5SM RA BR SCT003 OVC010 11/10 A2972 RMK AO2 CIG 006V015 P0005=
201210310853 METAR KBLI 310853Z AUTO 34004KT 6SM -RA BR OVC006 11/10 A2973 RMK AO2 CIG 004V010 SLP073 P0009 60027 T01110100 58001=
201210310753 METAR KBLI 310753Z AUTO 34006KT 5SM RA BR OVC008 12/11 A2974 RMK AO2 CIG 005V010 SLP076 P0011 T01170106 401440117=
201210310742 SPECI KBLI 310742Z AUTO 30003KT 4SM RA BR BKN008 OVC013 12/11 A2974 RMK AO2 CIG 006V010 P0009=
201210310724 SPECI KBLI 310724Z AUTO 33004KT 5SM -RA BR OVC013 12/11 A2973 RMK AO2 P0005=
201210310653 METAR KBLI 310653Z AUTO 35004KT 5SM RA BR OVC016 12/11 A2973 RMK AO2 SLP075 P0007 T01170106=
201210310553 METAR KBLI 310553Z AUTO 01005KT 7SM -RA OVC018 12/11 A2973 RMK AO2 SLP075 P0004 60024 T01170111 10122 20117 56004=
201210310453 METAR KBLI 310453Z 02006KT 8SM -RA OVC018 12/11 A2974 RMK AO2 SLP077 P0003 T01170106=
201210310353 METAR KBLI 310353Z 02006KT 8SM -RA OVC018 12/11 A2974 RMK AO2 SLP077 P0004 T01170106=
201210310301 SPECI KBLI 310301Z 03006KT 8SM -RA OVC029 12/11 A2974 RMK AO2 P0001=
201210310253 METAR KBLI 310253Z 03004KT 10SM -RA OVC032 12/11 A2975 RMK AO2 SLP079 P0003 60013 T01170106 58018=
201210310153 METAR KBLI 310153Z 03007KT 7SM -RA FEW050 BKN060 OVC075 12/11 A2977 RMK AO2 SLP086 P0005 T01170106=
201210310053 METAR KBLI 310053Z 02006KT 7SM -RA BKN035 BKN050 OVC070 12/11 A2978 RMK AO2 SLP090 P0005 T01170106=
201210302353 METAR KBLI 302353Z 03006KT 5SM -RA BR FEW046 BKN060 OVC080 12/11 A2980 RMK AO2 SLP097 P0007 60025 T01170106 10133 20117 56008=
201210302306 SPECI KBLI 302306Z 02006KT 4SM -RA BR FEW003 BKN060 OVC075 12/11 A2981 RMK AO2 P0002=
201210302253 METAR KBLI 302253Z 02005KT 5SM -RA BR FEW020 BKN060 OVC075 12/11 A2981 RMK AO2 SLP101 P0006 T01170111=
201210302250 SPECI KBLI 302250Z 02005KT 5SM -RA BR FEW004 BKN060 OVC075 12/11 A2981 RMK AO2 P0006=
201210302242 SPECI KBLI 302242Z AUTO 03005KT 5SM -RA BR SCT004 BKN021 OVC060 12/11 A2981 RMK AO2 P0005 TSNO=
201210302217 SPECI KBLI 302217Z 02005KT 5SM -RA BR BKN004 OVC019 12/11 A2982 RMK AO2 P0002=
201210302153 METAR KBLI 302153Z 02006KT 4SM -RA BR FEW004 OVC021 12/11 A2982 RMK AO2 SLP105 P0007 T01220111=
201210302120 SPECI KBLI 302120Z 01004KT 5SM -RA BR FEW004 OVC021 12/11 A2983 RMK AO2 P0003=
201210302053 METAR KBLI 302053Z 01005KT 4SM -RA BR OVC021 12/11 A2984 RMK AO2 SLP111 P0004 60005 T01220111 58008=
201210301953 METAR KBLI 301953Z 02003KT 8SM -RA SCT005 BKN016 OVC023 13/12 A2985 RMK AO2 SLP114 P0001 T01280117=
201210301930 SPECI KBLI 301930Z 00000KT 6SM -RA BR SCT005 SCT016 OVC021 13/12 A2985 RMK AO2 P0001=
201210301900 SPECI KBLI 301900Z 01003KT 8SM -RA OVC005 13/12 A2985 RMK AO2 CIG 004V008 P0000=
201210301853 METAR KBLI 301853Z 01004KT 6SM -RA BR SCT003 OVC070 13/12 A2986 RMK AO2 RAB37 SLP118 P0000 T01280117=
201210301801 SPECI KBLI 301801Z 00000KT 10SM SCT003 OVC070 12/12 A2986 RMK AO2=
201210301753 METAR KBLI 301753Z 00000KT 10SM OVC070 13/11 A2986 RMK AO2 SLP119 60000 T01280111 10133 20117 50002=
201210301653 METAR KBLI 301653Z VRB04KT 10SM FEW004 OVC048 12/11 A2987 RMK AO2 SLP121 T01170106=
201210301649 SPECI KBLI 301649Z 00000KT 10SM FEW004 OVC048 12/11 A2987 RMK AO2=
201210301553 METAR KBLI 301553Z 00000KT 10SM FEW050 OVC080 12/11 A2986 RMK AO2 RAB1457E39 SLP117 P0000 T01220111=
201210301520 SPECI KBLI 301520Z 00000KT 10SM -RA SCT018 OVC080 12/11 A2985 RMK AO2 RAB1457 P0000=
201210301453 METAR KBLI 301453Z 17007KT 10SM BKN018 OVC055 13/11 A2984 RMK AO2 RAB00E34 SLP111 P0000 60000 T01280111 56007=
201210301415 SPECI KBLI 301415Z 18004KT 10SM -RA BKN018 OVC055 12/11 A2985 RMK AO2 RAB00 P0000=
201210301353 METAR KBLI 301353Z 19005KT 10SM FEW022 BKN065 OVC090 13/11 A2984 RMK AO2 RAB00E50 SLP113 P0000 T01280111=
201210301253 METAR KBLI 301253Z AUTO 15010KT 10SM BKN075 OVC100 13/12 A2985 RMK AO2 RAE00 SLP113 P0000 T01330117=
201210301153 METAR KBLI 301153Z AUTO 17005KT 10SM -RA FEW060 OVC080 12/11 A2986 RMK AO2 SLP119 P0001 60005 70035 T01220111 10144 20122 58013=
201210301107 SPECI KBLI 301107Z AUTO 18004KT 9SM -RA SCT018 SCT030 OVC070 12/11 A2988 RMK AO2 P0000=
201210301053 METAR KBLI 301053Z AUTO 00000KT 10SM -RA BKN018 BKN029 OVC070 12/11 A2989 RMK AO2 SLP128 P0003 T01220111=
201210301037 SPECI KBLI 301037Z AUTO 20003KT 10SM -RA BKN018 OVC065 13/11 A2988 RMK AO2 P0002=
201210301017 SPECI KBLI 301017Z AUTO 19006KT 9SM -RA SCT018 OVC065 13/11 A2988 RMK AO2 P0002=
201210300953 METAR KBLI 300953Z AUTO 17008G15KT 10SM -RA OVC020 13/11 A2989 RMK AO2 SLP128 P0000 T01330111=
201210300906 SPECI KBLI 300906Z AUTO 16006KT 10SM -RA BKN022 OVC070 14/11 A2990 RMK AO2 P0000=
201210300853 METAR KBLI 300853Z AUTO 16006KT 10SM -RA SCT022 SCT055 OVC070 14/11 A2990 RMK AO2 RAB12 SLP131 P0000 60001 T01390106 58007=
201210300844 SPECI KBLI 300844Z AUTO 16008G17KT 10SM -RA SCT022 OVC070 14/11 A2991 RMK AO2 RAB12 P0000=
201210300753 METAR KBLI 300753Z AUTO 16009KT 10SM BKN024 OVC030 14/11 A2992 RMK AO2 SLP139 T01390106 401500089=
201210300712 SPECI KBLI 300712Z AUTO 17007KT 10SM BKN022 BKN070 OVC095 14/11 A2992 RMK AO2=
201210300653 METAR KBLI 300653Z AUTO 16009G18KT 10SM BKN065 BKN075 OVC095 14/11 A2992 RMK AO2 RAB01E50 SLP139 P0001 T01390106=
201210300553 METAR KBLI 300553Z AUTO 16009G14KT 10SM FEW024 SCT075 BKN095 13/11 A2992 RMK AO2 RAE22 SLP139 P0000 60005 T01330106 10139 20117 55003=
201210300550 SPECI KBLI 300550Z AUTO 16008KT 10SM FEW024 BKN070 OVC090 13/11 A2992 RMK AO2 RAE22 P0000=
201210300453 METAR KBLI 300453Z 17004KT 10SM -RA BKN024 BKN048 OVC080 12/11 A2992 RMK AO2 SLP139 P0001 T01220106=
201210300428 SPECI KBLI 300428Z 17005KT 10SM -RA BKN022 BKN080 OVC100 13/11 A2993 RMK AO2 P0000=
201210300353 METAR KBLI 300353Z 15012KT 8SM -RA FEW021 BKN033 OVC100 13/11 A2993 RMK AO2 RAB03 SLP142 P0004 T01330111=
201210300253 METAR KBLI 300253Z 16009KT 10SM SCT075 OVC100 13/11 A2995 RMK AO2 SLP147 60000 T01330106 58000=
201210300153 METAR KBLI 300153Z VRB04KT 10SM SCT027 13/11 A2995 RMK AO2 RAE24 SLP148 P0000 T01280111=
201210300103 SPECI KBLI 300103Z 15007KT 10SM -RA SCT023 BKN075 13/11 A2994 RMK AO2 P0000=
201210300053 METAR KBLI 300053Z 15008KT 8SM -RA BKN023 OVC070 13/11 A2995 RMK AO2 RAB20 SLP149 P0000 T01330111=
201210292353 METAR KBLI 292353Z 18008G14KT 10SM BKN027 OVC090 14/11 A2995 RMK AO2 SLP148 60000 T01390106 10150 20128 51020=
201210292253 METAR KBLI 292253Z 18008KT 10SM BKN029 OVC090 14/11 A2993 RMK AO2 RAB43E52 SLP141 P0000 T01390111=
201210292153 METAR KBLI 292153Z 20006KT 10SM BKN019 OVC024 14/11 A2991 RMK AO2 SLP137 T01390111=
201210292053 METAR KBLI 292053Z 18008G16KT 10SM BKN021 OVC027 14/12 A2989 RMK AO2 SLP127 T01440117 53009=
201210292050 SPECI KBLI 292050Z 17010KT 10SM BKN021 OVC027 14/12 A2989 RMK AO2=
201210291953 METAR KBLI 291953Z 18010G18KT 10SM SCT021 BKN033 OVC060 15/12 A2986 RMK AO2 SLP118 T01500122=
201210291853 METAR KBLI 291853Z 17010KT 7SM BKN025 BKN031 OVC060 14/12 A2984 RMK AO2 SLP112 T01390122=
201210291820 SPECI KBLI 291820Z 17006KT 7SM BKN025 BKN031 OVC060 13/12 A2984 RMK AO2=
201210291813 SPECI KBLI 291813Z 17006KT 7SM SCT025 OVC060 13/12 A2983 RMK AO2=
201210291803 SPECI KBLI 291803Z 16006KT 7SM FEW002 BKN025 OVC065 13/12 A2983 RMK AO2=
201210291753 METAR KBLI 291753Z 17006KT 6SM BR BKN002 BKN023 OVC065 13/12 A2982 RMK AO2 SLP105 60025 T01280117 10128 20089 51023=
201210291653 METAR KBLI 291653Z 00000KT 6SM BR OVC004 11/10 A2979 RMK AO2 SLP095 T01110100=
201210291650 SPECI KBLI 291650Z 00000KT 6SM BR OVC004 11/10 A2979 RMK AO2=
201210291553 METAR KBLI 291553Z 00000KT 6SM BR OVC006 09/08 A2975 RMK AO2 RAE10 CIG 004V010 SLP082 P0000 T00940083=
201210291453 METAR KBLI 291453Z 00000KT 5SM -RA BR OVC008 09/08 A2970 RMK AO2 CIG 007V012 SLP065 P0009 60025 T00940083 53007=
201210291415 SPECI KBLI 291415Z 00000KT 3SM RA BR SCT010 BKN014 OVC023 09/08 A2970 RMK AO2 P0006=
201210291407 SPECI KBLI 291407Z 00000KT 3SM RA BR FEW006 BKN016 OVC023 09/08 A2970 RMK AO2 P0003=
201210291357 SPECI KBLI 291357Z 05006G15KT 3SM -RA BR FEW004 BKN014 OVC026 09/08 A2969 RMK AO2 P0000=
201210291353 METAR KBLI 291353Z 06008G15KT 2SM RA BR FEW004 BKN007 OVC023 09/08 A2968 RMK AO2 SLP059 P0012 T00890078=
201210291351 SPECI KBLI 291351Z 06011G15KT 2SM +RA BR SCT004 BKN007 OVC023 09/08 A2968 RMK AO2 P0012=
201210291301 SPECI KBLI 291301Z AUTO 01006KT 4SM -RA BR OVC009 09/08 A2968 RMK AO2 CIG 007V012 P0001=
201210291253 METAR KBLI 291253Z AUTO 01005KT 5SM -RA BR OVC011 09/08 A2968 RMK AO2 CIG 007V012 SLP058 P0004 T00940083=
201210291153 METAR KBLI 291153Z AUTO 02007KT 5SM -RA BR OVC013 09/08 A2969 RMK AO2 SLP061 P0002 60023 70025 T00940083 10106 20094 58012=
201210291144 SPECI KBLI 291144Z AUTO 02006KT 8SM -RA OVC013 09/08 A2969 RMK AO2 P0001=
201210291053 METAR KBLI 291053Z AUTO 03006KT 6SM -RA BR BKN019 OVC023 09/08 A2972 RMK AO2 SLP070 P0005 T00940083=
201210290953 METAR KBLI 290953Z AUTO 01007KT 3SM -RA BR BKN025 OVC030 10/09 A2973 RMK AO2 SLP073 P0005 T01000089=
201210290949 SPECI KBLI 290949Z AUTO 01008KT 2 1/2SM -RA BR OVC027 10/09 A2973 RMK AO2 P0004=
201210290926 SPECI KBLI 290926Z AUTO 02007KT 3SM -RA BR FEW017 OVC029 10/09 A2972 RMK AO2 P0002=
201210290853 METAR KBLI 290853Z AUTO 03006KT 4SM -RA BR OVC035 10/09 A2973 RMK AO2 SLP074 P0001 60011 T01000094 56018=
201210290753 METAR KBLI 290753Z AUTO 02004KT 5SM -RA BR FEW025 OVC035 11/09 A2975 RMK AO2 SLP082 P0004 T01060094 401390094=
201210290743 SPECI KBLI 290743Z AUTO 03005KT 7SM -RA FEW025 BKN036 OVC043 11/09 A2975 RMK AO2 P0003=
201210290732 SPECI KBLI 290732Z AUTO 03004KT 6SM -RA BR BKN023 BKN028 OVC043 11/09 A2975 RMK AO2 P0003=
201210290725 SPECI KBLI 290725Z AUTO 02005KT 5SM -RA BR FEW021 SCT026 OVC043 11/09 A2975 RMK AO2 P0003=
201210290718 SPECI KBLI 290718Z AUTO 02005KT 4SM -RA BR BKN023 BKN041 OVC049 11/09 A2975 RMK AO2 P0003=
201210290653 METAR KBLI 290653Z AUTO 03006KT 5SM -RA BR FEW024 OVC047 11/09 A2976 RMK AO2 SLP083 P0006 T01060094=
201210290637 SPECI KBLI 290637Z AUTO 36004KT 4SM -RA BR FEW019 BKN036 OVC047 11/09 A2977 RMK AO2 P0004=
201210290627 SPECI KBLI 290627Z AUTO 00000KT 5SM -RA BR SCT019 BKN025 OVC050 11/09 A2977 RMK AO2 P0003=
201210290613 SPECI KBLI 290613Z AUTO 01003KT 6SM -RA BR SCT019 SCT028 OVC050 11/09 A2977 RMK AO2 P0002=
201210290553 METAR KBLI 290553Z AUTO 00000KT 5SM -RA BR SCT021 BKN027 OVC050 11/09 A2978 RMK AO2 SLP092 P0002 60002 T01060094 10128 20094 56015=
201210290549 SPECI KBLI 290549Z AUTO 00000KT 5SM -RA BR SCT023 BKN029 OVC055 11/09 A2978 RMK AO2 P0002=
201210290453 METAR KBLI 290453Z 00000KT 10SM -RA FEW032 SCT060 OVC080 11/09 A2980 RMK AO2 RAB30 SLP097 P0000 T01060094=
201210290353 METAR KBLI 290353Z 00000KT 10SM SCT029 BKN038 OVC047 11/09 A2982 RMK AO2 SLP106 T01060094=
201210290253 METAR KBLI 290253Z 00000KT 10SM FEW040 SCT120 10/09 A2984 RMK AO2 SLP112 T01000089 58015=
201210290153 METAR KBLI 290153Z 00000KT 10SM SCT027 10/09 A2986 RMK AO2 SLP118 T01000089=
201210290053 METAR KBLI 290053Z 00000KT 10SM CLR 11/09 A2987 RMK AO2 SLP121 T01110094=
201210282353 METAR KBLI 282353Z 00000KT 10SM FEW026 13/09 A2989 RMK AO2 SLP127 T01280094 10139 20122 58009=
201210282253 METAR KBLI 282253Z VRB03KT 10SM FEW026 14/09 A2990 RMK AO2 SLP130 T01390094=
201210282153 METAR KBLI 282153Z 20004KT 10SM CLR 13/09 A2991 RMK AO2 SLP134 T01330094=
201210282053 METAR KBLI 282053Z 17006KT 10SM FEW021 13/09 A2991 RMK AO2 SLP136 T01330094 58003=
201210281953 METAR KBLI 281953Z 17007KT 10SM SCT021 13/09 A2992 RMK AO2 SLP140 T01330094=
201210281853 METAR KBLI 281853Z 16007KT 10SM SCT031 BKN048 13/09 A2992 RMK AO2 SLP138 T01280094=
201210281753 METAR KBLI 281753Z 16009KT 10SM SCT031 BKN048 12/10 A2992 RMK AO2 SLP139 T01220100 10122 20111 51011=
201210281653 METAR KBLI 281653Z 17010G16KT 10SM SCT034 BKN045 OVC049 12/10 A2992 RMK AO2 SLP138 T01170100=
201210281600 SPECI KBLI 281600Z 18006KT 10SM SCT029 OVC034 12/09 A2990 RMK AO2=
201210281553 METAR KBLI 281553Z 16006KT 10SM BKN029 OVC034 12/09 A2990 RMK AO2 SLP132 T01170094=
201210281453 METAR KBLI 281453Z 16006G14KT 10SM SCT041 BKN050 11/09 A2989 RMK AO2 SLP128 T01110094 50007=
201210281353 METAR KBLI 281353Z 18005KT 10SM CLR 11/09 A2989 RMK AO2 SLP129 T01110089=
201210281253 METAR KBLI 281253Z AUTO 18005KT 10SM CLR 12/09 A2988 RMK AO2 SLP125 T01170089=
201210281153 METAR KBLI 281153Z AUTO 17008KT 10SM CLR 12/09 A2987 RMK AO2 SLP121 60008 70070 T01170089 10133 20111 51027=
201210281053 METAR KBLI 281053Z AUTO 16007KT 10SM CLR 12/09 A2986 RMK AO2 SLP117 T01170094=
201210280953 METAR KBLI 280953Z AUTO 18008KT 10SM FEW015 SCT037 BKN080 12/10 A2983 RMK AO2 SLP108 T01220100=
201210280935 SPECI KBLI 280935Z AUTO 18008G16KT 10SM SCT013 SCT022 OVC080 13/11 A2982 RMK AO2=
201210280906 SPECI KBLI 280906Z AUTO 17010G17KT 10SM FEW013 BKN021 OVC075 13/11 A2980 RMK AO2=
201210280853 METAR KBLI 280853Z AUTO 17011G18KT 10SM SCT015 BKN040 OVC090 13/11 A2979 RMK AO2 RAE11 SLP094 P0000 60008 T01280106 53015=
201210280815 SPECI KBLI 280815Z AUTO 18013G22KT 10SM SCT012 BKN039 OVC070 13/12 A2977 RMK AO2 RAE11 P0000=
201210280753 METAR KBLI 280753Z AUTO 17014G25KT 7SM -RA BKN010 BKN014 OVC021 13/12 A2977 RMK AO2 PK WND 17027/0704 CIG 004V011 SLP086 P0004 T01280117 401330067=
201210280748 SPECI KBLI 280748Z AUTO 17010G21KT 5SM -RA BR BKN010 BKN014 OVC021 12/12 A2976 RMK AO2 PK WND 17027/0704 CIG 004V011 P0004 401330067=
201210280738 SPECI KBLI 280738Z AUTO 17013G18KT 7SM -RA BKN008 BKN014 OVC025 12/11 A2976 RMK AO2 PK WND 17027/0704 P0003=
201210280721 SPECI KBLI 280721Z AUTO 17012G20KT 5SM -RA BR FEW008 BKN015 OVC025 13/12 A2975 RMK AO2 PK WND 17027/0704 P0003=
201210280711 SPECI KBLI 280711Z AUTO 17012G27KT 3SM -RA BR FEW012 BKN022 OVC028 13/12 A2975 RMK AO2 PK WND 17027/0704 P0002=
201210280653 METAR KBLI 280653Z AUTO 17014G28KT 3SM -RA BR SCT008 BKN012 OVC025 13/12 A2974 RMK AO2 PK WND 18028/0646 SLP079 P0004 T01280117=
201210280631 SPECI KBLI 280631Z AUTO 19010G24KT 160V220 6SM -RA BR SCT008 BKN012 OVC023 12/11 A2974 RMK AO2 P0001=
201210280616 SPECI KBLI 280616Z AUTO 16011G20KT 5SM -RA BR FEW006 BKN016 OVC021 12/11 A2973 RMK AO2 P0001=
201210280607 SPECI KBLI 280607Z AUTO 18010G18KT 6SM -RA BR SCT006 BKN014 OVC019 12/11 A2974 RMK AO2 P0000=
201210280553 METAR KBLI 280553Z AUTO 17008G19KT 10SM -RA SCT012 OVC019 13/11 A2974 RMK AO2 RAB48 SLP077 P0000 60028 T01280111 10128 20083 55001=
201210280529 SPECI KBLI 280529Z 16010G16KT 10SM BKN014 OVC019 12/10 A2973 RMK AO2=
201210280500 SPECI KBLI 280500Z 36003KT 9SM OVC016 09/08 A2973 RMK AO2=
201210280453 METAR KBLI 280453Z 00000KT 8SM OVC014 09/08 A2973 RMK AO2 RAB04E35 SLP074 P0000 T00890083=
201210280406 SPECI KBLI 280406Z 00000KT 7SM -RA FEW010 OVC014 09/08 A2972 RMK AO2 RAB04 P0000=
201210280353 METAR KBLI 280353Z 00000KT 6SM BR SCT011 OVC018 09/08 A2972 RMK AO2 RAE36 SLP073 P0002 T00890078=
201210280315 SPECI KBLI 280315Z 01003KT 3SM -RA BR FEW004 BKN013 OVC018 09/08 A2974 RMK AO2 P0001=
201210280253 METAR KBLI 280253Z 03004KT 2 1/2SM -RA BR FEW004 OVC020 08/08 A2974 RMK AO2 SLP079 P0006 60026 T00830078 56021=
201210280153 METAR KBLI 280153Z 04007KT 4SM RA BR FEW004 OVC022 08/07 A2975 RMK AO2 SLP083 P0007 T00830072=
201210280141 SPECI KBLI 280141Z 02004KT 5SM -RA BR FEW004 OVC022 08/07 A2977 RMK AO2 P0006=
201210280053 METAR KBLI 280053Z 02006KT 4SM RA BR OVC028 08/08 A2977 RMK AO2 SLP088 P0013 T00830078=
201210272353 METAR KBLI 272353Z 03005KT 10SM -RA BKN023 OVC030 09/08 A2980 RMK AO2 RAB19 SLP099 P0000 60016 T00890078 10117 20089 56033=
201210272306 SPECI KBLI 272306Z 07006KT 10SM BKN023 OVC050 11/07 A2982 RMK AO2=
201210272253 METAR KBLI 272253Z 11007KT 10SM OVC055 11/07 A2983 RMK AO2 SLP110 T01110067=
201210272231 SPECI KBLI 272231Z 12010G15KT 10SM FEW023 SCT030 OVC055 11/07 A2984 RMK AO2=
201210272153 METAR KBLI 272153Z 12011KT 6SM HZ BKN022 OVC038 11/08 A2986 RMK AO2 SLP120 T01060078=
201210272053 METAR KBLI 272053Z 16011KT 8SM FEW018 BKN023 OVC041 11/08 A2990 RMK AO2 RAE1956B21E43 SLP132 P0000 60016 T01110083 58023=
201210271953 METAR KBLI 271953Z VRB03KT 6SM -RA BR SCT005 BKN020 OVC030 11/10 A2993 RMK AO2 SLP142 P0001 T01110100=
201210271929 SPECI KBLI 271929Z 14007KT 5SM -RA BR SCT005 BKN020 OVC030 11/09 A2994 RMK AO2 P0001=
201210271853 METAR KBLI 271853Z 16006KT 3SM -RA BR BKN005 OVC015 11/09 A2996 RMK AO2 CIG 003V009 SLP152 P0015 T01060094=
201210271821 SPECI KBLI 271821Z 17004KT 2SM RA BR BKN005 OVC010 10/09 A2996 RMK AO2 CIG 003V007 P0011=
201210271804 SPECI KBLI 271804Z VRB04KT 1 3/4SM RA BR BKN007 OVC011 10/09 A2997 RMK AO2 CIG 004V009 P0004=
201210271753 METAR KBLI 271753Z 18003KT 4SM -RA BR OVC007 11/09 A2997 RMK AO2 SLP155 P0004 60018 T01060094 10106 20067 55001=
201210271723 SPECI KBLI 271723Z 00000KT 4SM R16/6000VP6000FT -RA BR OVC005 09/08 A2995 RMK AO2 CIG 003V008 P0002=
201210271653 METAR KBLI 271653Z 00000KT 4SM -RA BR OVC003 08/07 A2996 RMK AO2 CIG 002V007 SLP152 P0004 T00830072=
201210271649 SPECI KBLI 271649Z 01003KT 3SM -RA BR OVC003 08/07 A2996 RMK AO2 CIG 002V006 P0004=
201210271636 SPECI KBLI 271636Z 35004KT 2 1/2SM RA BR OVC007 08/07 A2996 RMK AO2 CIG 004V010 P0003=
201210271553 METAR KBLI 271553Z 00000KT 5SM -RA BR OVC009 08/07 A2996 RMK AO2 RAB18 CIG 008V013 SLP153 P0000 T00780067=
201210271453 METAR KBLI 271453Z 00000KT 7SM OVC007 07/06 A2997 RMK AO2 RAE41 CIG 002V010 SLP157 P0001 60010 T00720061 58012=
201210271353 METAR KBLI 271353Z 00000KT 5SM -RA BR OVC005 07/06 A2999 RMK AO2 SLP163 P0004 T00670061=
201210271321 SPECI KBLI 271321Z AUTO 03005KT 6SM -RA BR OVC005 07/06 A2999 RMK AO2 CIG 002V008 P0003=
201210271253 METAR KBLI 271253Z AUTO 36004KT 3SM RA BR BKN002 OVC005 07/06 A3000 RMK AO2 SLP168 P0005 T00670061=
201210271245 SPECI KBLI 271245Z AUTO 01005KT 4SM -RA BR OVC005 07/06 A3000 RMK AO2 CIG 002V007 P0003=
201210271153 METAR KBLI 271153Z AUTO 02006KT 6SM -RA BR OVC003 07/06 A3000 RMK AO2 CIG 002V007 SLP168 P0001 60016 70043 T00670061 10072 20067 55000=
201210271053 METAR KBLI 271053Z AUTO 01004KT 4SM -RA BR OVC003 07/06 A3000 RMK AO2 SLP167 P0005 T00670061=
201210271031 SPECI KBLI 271031Z AUTO 34005KT 3SM -RA BR OVC003 07/06 A3000 RMK AO2 CIG 002V006 P0004=
201210270953 METAR KBLI 270953Z AUTO 36003KT 2 1/2SM -RA BR OVC003 07/06 A3001 RMK AO2 SLP169 P0005 T00670061=
201210270944 SPECI KBLI 270944Z AUTO 32003KT 5SM BR BKN003 OVC008 07/06 A3000 RMK AO2 RAE40 P0004=
201210270927 SPECI KBLI 270927Z AUTO 36003KT 3SM -RA BR OVC008 07/06 A3000 RMK AO2 CIG 002V009 P0003=
201210270908 SPECI KBLI 270908Z AUTO 35003KT 2 1/2SM -RA BR OVC008 07/06 A3000 RMK AO2 P0002=
201210270853 METAR KBLI 270853Z AUTO 04004KT 5SM -RA BR OVC010 07/06 A3000 RMK AO2 SLP168 P0002 60005 T00670061 58007=
201210270753 METAR KBLI 270753Z AUTO 36004KT 4SM -RA BR FEW005 OVC010 07/06 A3002 RMK AO2 SLP172 P0001 T00670061 400890056=
201210270653 METAR KBLI 270653Z AUTO 36004KT 4SM -RA BR FEW003 OVC010 07/06 A3002 RMK AO2 SLP172 P0002 T00670061=
201210270553 METAR KBLI 270553Z AUTO 01004KT 5SM -RA BR FEW004 OVC010 07/06 A3003 RMK AO2 RAB04 SLP176 P0002 60011 T00670056 10078 20067 56011=
201210270528 SPECI KBLI 270528Z 35004KT 3SM -RA BR FEW004 OVC010 07/06 A3003 RMK AO2 RAB04 P0002=
201210270517 SPECI KBLI 270517Z 03005KT 2 1/2SM -RA BR FEW004 OVC010 07/06 A3003 RMK AO2 RAB04 CIG 007V011 P0001=
201210270506 SPECI KBLI 270506Z 01004KT 4SM -RA BR FEW004 OVC012 07/06 A3004 RMK AO2 RAB04 P0000=
201210270453 METAR KBLI 270453Z 01005KT 5SM BR OVC012 07/06 A3004 RMK AO2 RAE18 SLP179 P0001 T00670061=
201210270440 SPECI KBLI 270440Z 01004KT 5SM BR OVC014 07/06 A3004 RMK AO2 RAE18 P0001=
201210270353 METAR KBLI 270353Z 00000KT 5SM -RA BR OVC020 07/06 A3005 RMK AO2 SLP182 P0003 T00670061=
201210270253 METAR KBLI 270253Z 34003KT 4SM -RA BR OVC024 07/06 A3006 RMK AO2 SLP187 P0004 60005 T00720061 55008=
201210270210 SPECI KBLI 270210Z 03005KT 9SM -RA OVC028 07/06 A3006 RMK AO2 P0001=
201210270153 METAR KBLI 270153Z 01004KT 10SM -RA BKN030 OVC037 07/06 A3006 RMK AO2 SLP186 P0000 T00720061=
201210270053 METAR KBLI 270053Z 01005KT 6SM -RA BR OVC032 07/06 A3007 RMK AO2 SLP191 P0001 T00720061=
201210262353 METAR KBLI 262353Z 02004KT 6SM RA BR OVC034 08/06 A3008 RMK AO2 SLP195 P0004 60014 T00780061 10089 20072 58014=
201210262253 METAR KBLI 262253Z 03004KT 10SM -RA BKN040 OVC050 08/06 A3009 RMK AO2 SLP199 P0002 T00830061=
201210262153 METAR KBLI 262153Z 04005KT 5SM -RA BR BKN038 OVC049 08/06 A3012 RMK AO2 SLP208 P0004 T00780061=
201210262053 METAR KBLI 262053Z 00000KT 10SM -RA OVC045 09/05 A3012 RMK AO2 RAB28 SLP209 P0000 60004 T00890050 56020=
201210261953 METAR KBLI 261953Z 05003KT 10SM FEW043 SCT060 OVC080 08/07 A3014 RMK AO2 RAE22 SLP214 P0001 T00830067=
201210261853 METAR KBLI 261853Z 06004KT 7SM -RA BKN041 OVC049 07/06 A3016 RMK AO2 SLP222 P0003 T00720056=
201210261753 METAR KBLI 261753Z 03008KT 7SM -RA FEW019 BKN039 OVC046 07/05 A3018 RMK AO2 SLP229 P0002 60002 T00720050 10078 20067 53007=
201210261653 METAR KBLI 261653Z 02010KT 10SM -RA OVC060 07/04 A3016 RMK AO2 RAB49 SLP221 P0000 T00720039=
201210261553 METAR KBLI 261553Z 02010KT 10SM OVC060 07/03 A3015 RMK AO2 RAB31E48 SLP219 P0000 T00720033=
201210261453 METAR KBLI 261453Z 02008KT 10SM OVC085 08/03 A3016 RMK AO2 SLP222 T00780028 58022=
201210261353 METAR KBLI 261353Z 01005KT 10SM BKN065 OVC085 07/03 A3019 RMK AO2 SLP230 T00720028=
201210261253 METAR KBLI 261253Z AUTO 01005KT 10SM OVC070 08/03 A3021 RMK AO2 SLP237 T00780028=
201210261153 METAR KBLI 261153Z AUTO 01004KT 10SM BKN080 OVC095 07/03 A3023 RMK AO2 SLP244 T00720028 10072 20056 58022=
201210261053 METAR KBLI 261053Z AUTO 01007KT 10SM BKN090 OVC110 07/03 A3025 RMK AO2 SLP253 T00720033=
201210260953 METAR KBLI 260953Z AUTO 01005KT 10SM FEW065 OVC110 07/03 A3028 RMK AO2 SLP262 T00670033=
201210260853 METAR KBLI 260853Z AUTO 02006KT 10SM BKN060 BKN120 07/04 A3029 RMK AO2 SLP266 T00670039 58017=
201210260753 METAR KBLI 260753Z AUTO 01003KT 10SM FEW100 06/04 A3031 RMK AO2 SLP272 T00610039 401110044=
201210260653 METAR KBLI 260653Z AUTO 01004KT 10SM OVC100 06/04 A3033 RMK AO2 SLP279 T00610044=
201210260553 METAR KBLI 260553Z AUTO 36003KT 10SM OVC100 06/04 A3034 RMK AO2 SLP283 T00610044 10100 20050 58018=
201210260453 METAR KBLI 260453Z 00000KT 10SM FEW095 06/04 A3036 RMK AO2 SLP290 T00610044=
201210260353 METAR KBLI 260353Z 00000KT 10SM CLR 07/04 A3039 RMK AO2 SLP298 T00670044=
201210260253 METAR KBLI 260253Z 00000KT 10SM CLR 08/05 A3040 RMK AO2 SLP301 T00830050 55004=
201210260153 METAR KBLI 260153Z 00000KT 10SM CLR 07/05 A3039 RMK AO2 SLP301 T00720050=
201210260053 METAR KBLI 260053Z 00000KT 10SM SCT050 09/04 A3040 RMK AO2 SLP303 T00940044=
201210252353 METAR KBLI 252353Z 00000KT 10SM SCT050 10/04 A3041 RMK AO2 SLP305 T01000039 10111 20083 55002=
201210252253 METAR KBLI 252253Z 00000KT 10SM SCT025 11/04 A3040 RMK AO2 SLP304 T01060044=
201210252153 METAR KBLI 252153Z 19005KT 10SM CLR 11/05 A3040 RMK AO2 SLP302 T01060050=
201210252053 METAR KBLI 252053Z VRB04KT 10SM CLR 11/06 A3041 RMK AO2 SLP307 T01060056 51005=
201210251953 METAR KBLI 251953Z 00000KT 10SM BKN046 10/05 A3041 RMK AO2 SLP307 T01000050=
201210251853 METAR KBLI 251853Z VRB03KT 10SM SCT016 BKN032 OVC044 09/06 A3042 RMK AO2 SLP308 T00940056=
201210251753 METAR KBLI 251753Z 00000KT 10SM SCT027 OVC041 08/04 A3040 RMK AO2 SLP302 T00830044 10089 20044 51012=
201210251700 SPECI KBLI 251700Z 36003KT 10SM BKN027 BKN039 OVC046 07/03 A3038 RMK AO2=
201210251653 METAR KBLI 251653Z 00000KT 10SM SCT024 BKN043 07/03 A3038 RMK AO2 SLP295 T00670033=
201210251553 METAR KBLI 251553Z 00000KT 10SM SCT024 BKN041 05/03 A3036 RMK AO2 SLP290 T00500033=
201210251453 METAR KBLI 251453Z 00000KT 10SM OVC043 04/03 A3034 RMK AO2 SLP282 T00440028 53021=
201210251353 METAR KBLI 251353Z AUTO 00000KT 10SM OVC037 05/03 A3032 RMK AO2 SLP275 T00500028=
201210251253 METAR KBLI 251253Z AUTO 00000KT 10SM BKN037 OVC055 04/03 A3029 RMK AO2 SLP267 T00440028=
201210251153 METAR KBLI 251153Z AUTO 00000KT 10SM BKN037 OVC055 04/03 A3028 RMK AO2 SLP261 70013 T00440028 10067 20044 51019=
201210251053 METAR KBLI 251053Z AUTO 35003KT 10SM OVC034 05/03 A3026 RMK AO2 SLP254 T00500028=
201210250953 METAR KBLI 250953Z AUTO 35003KT 10SM BKN036 OVC065 06/03 A3024 RMK AO2 SLP248 T00560028=
201210250853 METAR KBLI 250853Z AUTO 00000KT 10SM OVC034 06/03 A3022 RMK AO2 SLP241 T00560028 53024=
201210250753 METAR KBLI 250753Z AUTO 00000KT 10SM FEW037 OVC065 06/03 A3019 RMK AO2 SLP232 T00560028 401000056=
201210250653 METAR KBLI 250653Z AUTO 00000KT 10SM FEW041 OVC060 07/03 A3017 RMK AO2 SLP224 T00670028=
201210250553 METAR KBLI 250553Z AUTO 02005KT 10SM OVC060 07/02 A3015 RMK AO2 SLP217 T00670022 10083 20067 51020=
201210250453 METAR KBLI 250453Z 03006KT 10SM OVC060 07/02 A3013 RMK AO2 SLP211 T00720022=
201210250353 METAR KBLI 250353Z 02006KT 10SM OVC060 07/02 A3011 RMK AO2 SLP204 T00720017=
201210250253 METAR KBLI 250253Z 02005KT 10SM OVC055 07/02 A3009 RMK AO2 SLP197 T00720017 53018=
201210250153 METAR KBLI 250153Z 02006KT 10SM OVC050 08/01 A3007 RMK AO2 SLP190 T00780011=
201210250053 METAR KBLI 250053Z 01006KT 10SM BKN035 OVC048 08/02 A3005 RMK AO2 SLP185 T00780017=
201210242353 METAR KBLI 242353Z 02006KT 10SM OVC046 08/03 A3004 RMK AO2 SLP179 60002 T00830028 10100 20061 53015=
201210242253 METAR KBLI 242253Z 02006KT 10SM BKN038 OVC047 09/03 A3002 RMK AO2 SLP174 T00890028=
201210242153 METAR KBLI 242153Z 02007KT 10SM BKN030 OVC080 09/03 A3000 RMK AO2 SLP168 T00890028=
201210242053 METAR KBLI 242053Z 02005KT 10SM OVC035 08/03 A2999 RMK AO2 SLP164 60002 T00830033 53007=
201210241953 METAR KBLI 241953Z 01005KT 10SM OVC035 07/04 A2998 RMK AO2 RAE17 SLP160 P0000 T00720039=
201210241853 METAR KBLI 241853Z 01005KT 10SM -RA OVC035 07/04 A2997 RMK AO2 SLP157 P0002 T00670039=
201210241801 SPECI KBLI 241801Z 00000KT 6SM -RA BR FEW024 BKN032 OVC038 06/04 A2997 RMK AO2 P0000=
201210241753 METAR KBLI 241753Z VRB03KT 5SM -RA BR BKN028 OVC033 06/04 A2997 RMK AO2 SLP156 P0007 60011 T00610044 10067 20056 51018=
201210241744 SPECI KBLI 241744Z 01003KT 4SM -RA BR OVC028 06/04 A2997 RMK AO2 P0006=
201210241653 METAR KBLI 241653Z 00000KT 10SM -RA OVC030 06/04 A2995 RMK AO2 SLP151 P0003 T00610039=
201210241553 METAR KBLI 241553Z 02007KT 10SM -RA BKN034 BKN041 OVC060 07/01 A2993 RMK AO2 RAE17B53 SLP145 P0001 T00670011=
201210241453 METAR KBLI 241453Z 00000KT 10SM -RA BKN037 OVC050 06/03 A2992 RMK AO2 RAB32 SLP138 P0000 60000 T00560028 51019=
201210241353 METAR KBLI 241353Z 00000KT 10SM FEW060 SCT080 OVC095 06/02 A2990 RMK AO2 SLP134 T00560017=
201210241253 METAR KBLI 241253Z AUTO 12004KT 10SM BKN075 OVC090 06/01 A2989 RMK AO2 SLP128 T00610011=
201210241153 METAR KBLI 241153Z AUTO 03009KT 10SM OVC090 06/01 A2986 RMK AO2 SLP120 70014 T00610011 10067 20056 57003=
201210241053 METAR KBLI 241053Z AUTO 02009KT 10SM FEW060 OVC075 07/01 A2986 RMK AO2 SLP119 T00670011=
201210240953 METAR KBLI 240953Z AUTO 02006KT 10SM OVC090 06/02 A2987 RMK AO2 SLP123 T00610017=
201210240853 METAR KBLI 240853Z AUTO 02006KT 10SM SCT070 OVC085 06/02 A2987 RMK AO2 SLP123 T00560022 58000=
201210240753 METAR KBLI 240753Z AUTO 04004KT 10SM BKN047 OVC110 06/03 A2988 RMK AO2 SLP125 T00610033 400830050=
201210240653 METAR KBLI 240653Z AUTO 02005KT 10SM SCT047 OVC055 07/04 A2988 RMK AO2 SLP126 T00670039=
201210240553 METAR KBLI 240553Z AUTO 04004KT 10SM BKN050 BKN085 OVC110 06/03 A2987 RMK AO2 SLP124 60000 T00610033 10078 20061 50002=
201210240453 METAR KBLI 240453Z 06005KT 10SM OVC080 06/04 A2988 RMK AO2 SLP125 T00610039=
201210240353 METAR KBLI 240353Z 04005KT 10SM OVC034 07/04 A2987 RMK AO2 SLP123 T00670039=
201210240253 METAR KBLI 240253Z 08004KT 10SM OVC038 07/04 A2987 RMK AO2 SLP121 60000 T00670039 53007=
201210240153 METAR KBLI 240153Z 07006KT 10SM SCT035 BKN042 OVC048 08/04 A2986 RMK AO2 RAB27E39 SLP119 P0000 T00780039=
201210240053 METAR KBLI 240053Z 01005KT 10SM BKN041 OVC050 07/03 A2985 RMK AO2 SLP115 T00720033=
201210232353 METAR KBLI 232353Z 02005KT 10SM BKN038 OVC048 08/04 A2984 RMK AO2 SLP114 60000 T00780039 10083 20061 51002=
201210232305 SPECI KBLI 232305Z 01007KT 10SM OVC035 08/04 A2984 RMK AO2=
201210232253 METAR KBLI 232253Z 02007KT 10SM BKN029 OVC041 08/04 A2984 RMK AO2 SLP113 T00780044=
201210232153 METAR KBLI 232153Z 02007KT 10SM BKN031 OVC040 08/04 A2984 RMK AO2 SLP111 T00780044=
201210232053 METAR KBLI 232053Z 02010KT 10SM SCT024 OVC045 07/05 A2983 RMK AO2 SLP111 60000 T00720050 51009=
201210231953 METAR KBLI 231953Z 02006KT 10SM OVC022 07/05 A2983 RMK AO2 RAB03E19 SLP109 P0000 T00720050=
201210231853 METAR KBLI 231853Z 02007KT 10SM BKN022 OVC048 07/05 A2982 RMK AO2 SLP105 T00720050=
201210231753 METAR KBLI 231753Z 02006KT 10SM OVC016 06/04 A2981 RMK AO2 SLP102 60014 T00610044 10061 20050 51018=
201210231730 SPECI KBLI 231730Z 02004KT 10SM OVC016 06/04 A2980 RMK AO2=
201210231653 METAR KBLI 231653Z 04005KT 10SM OVC014 06/04 A2979 RMK AO2 SLP096 T00560039=
201210231553 METAR KBLI 231553Z 01004KT 10SM OVC012 05/04 A2978 RMK AO2 RAE52 SLP091 P0002 T00500039=
201210231510 SPECI KBLI 231510Z 03006KT 10SM -RA OVC014 05/04 A2976 RMK AO2 P0000=
201210231453 METAR KBLI 231453Z 02006KT 9SM -RA OVC016 05/04 A2976 RMK AO2 SLP084 P0002 60012 T00500039 53018=
201210231436 SPECI KBLI 231436Z 03006KT 10SM -RA OVC016 05/04 A2975 RMK AO2 P0001=
201210231353 METAR KBLI 231353Z AUTO 04005KT 5SM -RA BR OVC012 06/04 A2973 RMK AO2 SLP076 P0004 T00560044=
201210231253 METAR KBLI 231253Z AUTO 03005KT 5SM -RA BR OVC012 06/04 A2972 RMK AO2 SLP071 P0006 T00560039=
201210231233 SPECI KBLI 231233Z AUTO 02004KT 4SM -RA BR OVC014 06/04 A2971 RMK AO2 P0004=
201210231153 METAR KBLI 231153Z AUTO 02003KT 5SM -RA BR OVC016 06/04 A2970 RMK AO2 SLP066 P0007 60028 70043 T00560039 10067 20056 53010=
201210231053 METAR KBLI 231053Z AUTO 04004KT 5SM -RA BR OVC018 06/04 A2969 RMK AO2 SLP063 P0005 T00560039=
201210230953 METAR KBLI 230953Z AUTO 05004KT 8SM -RA OVC022 06/04 A2968 RMK AO2 SLP059 P0003 T00560039=
201210230924 SPECI KBLI 230924Z AUTO 04003KT 9SM -RA BKN024 OVC031 06/04 A2968 RMK AO2 P0002=
201210230853 METAR KBLI 230853Z AUTO 00000KT 8SM -RA OVC031 06/04 A2967 RMK AO2 SLP056 P0004 60013 T00560044 51006=
201210230848 SPECI KBLI 230848Z AUTO 01003KT 8SM -RA OVC031 06/04 A2967 RMK AO2 P0004=
201210230838 SPECI KBLI 230838Z AUTO 04003KT 8SM -RA OVC029 06/04 A2967 RMK AO2 P0003=
201210230812 SPECI KBLI 230812Z AUTO 07003KT 9SM -RA FEW022 OVC033 06/05 A2967 RMK AO2 P0001=
201210230753 METAR KBLI 230753Z AUTO 00000KT 8SM -RA OVC028 06/05 A2966 RMK AO2 SLP053 P0004 T00610050 401110028=
201210230743 SPECI KBLI 230743Z AUTO 00000KT 8SM -RA BKN026 OVC033 06/05 A2966 RMK AO2 P0004=
201210230653 METAR KBLI 230653Z AUTO 00000KT 6SM -RA BR OVC030 06/05 A2965 RMK AO2 SLP049 P0005 T00610050=
201210230553 METAR KBLI 230553Z AUTO 19003KT 9SM -RA OVC030 07/04 A2964 RMK AO2 SLP045 P0005 60015 T00670044 10089 20067 53010=
201210230526 SPECI KBLI 230526Z AUTO 18005KT 7SM -RA SCT024 OVC035 07/06 A2964 RMK AO2 P0003=
201210230453 METAR KBLI 230453Z 19005KT 4SM -RA BR FEW004 BKN026 OVC032 07/06 A2963 RMK AO2 SLP041 P0005 T00670056=
201210230441 SPECI KBLI 230441Z 00000KT 6SM -RA BR FEW006 OVC032 07/06 A2963 RMK AO2 P0004=
201210230353 METAR KBLI 230353Z 00000KT 7SM -RA OVC032 07/06 A2962 RMK AO2 SLP037 P0002 T00670056=
201210230253 METAR KBLI 230253Z 00000KT 10SM -RA OVC037 07/06 A2961 RMK AO2 SLP035 P0001 60003 T00670056 51009=
201210230153 METAR KBLI 230153Z 00000KT 10SM -RA BKN032 OVC042 07/06 A2961 RMK AO2 SLP034 P0002 T00720056=
201210230053 METAR KBLI 230053Z 17003KT 9SM -RA OVC043 08/06 A2960 RMK AO2 SLP030 P0000 T00780056=
201210222353 METAR KBLI 222353Z 17005KT 10SM -RA BKN050 OVC060 09/04 A2959 RMK AO2 RAB53 SLP026 P0000 60000 T00890044 10111 20083 53006=
201210222253 METAR KBLI 222253Z 06003KT 10SM OVC049 10/01 A2958 RMK AO2 RAE37 SLP023 P0000 T01000011=
201210222153 METAR KBLI 222153Z 01009KT 10SM -RA BKN046 OVC060 10/01 A2957 RMK AO2 RAB22 SLP022 P0000 T01000011=
201210222053 METAR KBLI 222053Z 04008KT 10SM BKN060 BKN080 OVC095 11/00 A2957 RMK AO2 SLP020 T01060000 58013=
201210221953 METAR KBLI 221953Z 04010G18KT 10SM FEW080 SCT110 10/M01 A2958 RMK AO2 SLP024 T01001006=
201210221853 METAR KBLI 221853Z 02015G22KT 10SM CLR 10/00 A2960 RMK AO2 SLP030 T01000000=
201210221753 METAR KBLI 221753Z 02013G19KT 10SM CLR 08/00 A2961 RMK AO2 SLP033 T00830000 10083 20039 58012=
201210221653 METAR KBLI 221653Z 36010G17KT 10SM CLR 07/00 A2962 RMK AO2 SLP039 T00720000=
201210221553 METAR KBLI 221553Z 02011G22KT 10SM BKN095 07/M01 A2964 RMK AO2 SLP043 T00671006=
201210221453 METAR KBLI 221453Z 03013G21KT 10SM CLR 06/M01 A2964 RMK AO2 SLP045 T00611006 58022=
201210221353 METAR KBLI 221353Z 02013G20KT 10SM CLR 06/00 A2967 RMK AO2 SLP054 T00560000=
201210221253 METAR KBLI 221253Z AUTO 02013KT 10SM CLR 05/00 A2969 RMK AO2 SLP061 T00500000=
201210221153 METAR KBLI 221153Z AUTO 02008KT 10SM SCT110 04/01 A2971 RMK AO2 SLP068 70064 T00440006 10044 20028 58021=
201210221053 METAR KBLI 221053Z AUTO 02006KT 10SM CLR 03/01 A2973 RMK AO2 SLP076 T00280006=
201210220953 METAR KBLI 220953Z AUTO 36006KT 10SM CLR 04/01 A2976 RMK AO2 SLP084 T00390011=
201210220853 METAR KBLI 220853Z AUTO 36006KT 10SM CLR 04/02 A2977 RMK AO2 SLP089 T00390017 58015=
201210220753 METAR KBLI 220753Z AUTO 02006KT 10SM CLR 04/02 A2979 RMK AO2 SLP096 T00390022 401170022=
201210220653 METAR KBLI 220653Z AUTO 02006KT 10SM CLR 04/02 A2980 RMK AO2 SLP100 T00390022=
201210220553 METAR KBLI 220553Z AUTO 36003KT 10SM FEW080 04/03 A2982 RMK AO2 SLP104 60000 T00440028 10094 20044 58008=
201210220453 METAR KBLI 220453Z 00000KT 10SM SCT060 BKN085 06/04 A2983 RMK AO2 SLP108 T00610039=
201210220353 METAR KBLI 220353Z 00000KT 10SM FEW042 BKN060 OVC080 07/04 A2983 RMK AO2 RAB09E26 SLP112 P0000 T00670044=
201210220253 METAR KBLI 220253Z 00000KT 10SM SCT033 OVC055 08/04 A2984 RMK AO2 SLP113 T00830039 53003=
201210220153 METAR KBLI 220153Z 01005KT 10SM BKN049 OVC070 07/03 A2982 RMK AO2 SLP107 T00720033=
201210220053 METAR KBLI 220053Z 01006KT 10SM FEW070 08/04 A2982 RMK AO2 SLP107 T00780039=
201210212353 METAR KBLI 212353Z 02006KT 10SM FEW045 OVC065 09/05 A2983 RMK AO2 SLP109 T00940050 10117 20078 56008=
201210212253 METAR KBLI 212253Z AUTO 10006KT 10SM SCT041 BKN050 OVC065 11/02 A2983 RMK AO2 SLP110 T01110022 TSNO=
201210212153 METAR KBLI 212153Z 17005KT 10SM FEW039 BKN065 10/03 A2984 RMK AO2 SLP114 T01000028=
201210212053 METAR KBLI 212053Z 18008KT 10SM FEW030 SCT055 11/03 A2985 RMK AO2 SLP117 T01060033 58004=
201210212022 SPECI KBLI 212022Z 15008KT 10SM SCT027 SCT050 11/03 A2986 RMK AO2=
201210211953 METAR KBLI 211953Z 12007KT 10SM BKN027 10/04 A2986 RMK AO2 SLP119 T01000044=
201210211944 SPECI KBLI 211944Z 14004KT 10SM BKN027 09/04 A2986 RMK AO2=
201210211917 SPECI KBLI 211917Z 14006KT 10SM SCT025 SCT048 09/08 A2987 RMK AO2=
201210211853 METAR KBLI 211853Z VRB06KT 10SM BKN019 OVC039 08/07 A2987 RMK AO2 SLP122 T00830067=
201210211753 METAR KBLI 211753Z 17010KT 10SM BKN019 OVC039 08/04 A2987 RMK AO2 SLP121 60064 T00780039 10078 20022 53003=
201210211653 METAR KBLI 211653Z 14007KT 7SM BKN015 BKN023 OVC029 07/05 A2986 RMK AO2 SLP121 T00720050=
201210211553 METAR KBLI 211553Z 00000KT 7SM BKN015 OVC025 04/03 A2985 RMK AO2 RAE53 SLP118 P0005 T00440033=
201210211548 SPECI KBLI 211548Z 00000KT 7SM -RA SCT015 OVC025 04/03 A2985 RMK AO2 P0005=
201210211453 METAR KBLI 211453Z 00000KT 4SM +RA BR BKN012 BKN023 OVC028 02/02 A2984 RMK AO2 SLP113 P0048 60059 T00220017 53007=
201210211444 SPECI KBLI 211444Z 12005KT 3SM +RA BR BKN021 OVC028 03/02 A2984 RMK AO2 P0038=
201210211429 SPECI KBLI 211429Z 13005KT 3SM RA BR BKN012 BKN018 OVC025 03/02 A2984 RMK AO2 P0027=
201210211422 SPECI KBLI 211422Z 13005KT 1 1/2SM +RA BR BKN012 BKN018 OVC025 03/02 A2984 RMK AO2 P0025=
201210211353 METAR KBLI 211353Z AUTO 00000KT 2 1/2SM RA BR BKN012 BKN018 OVC025 06/04 A2983 RMK AO2 RAB00 SLP110 P0011 T00560039=
201210211341 SPECI KBLI 211341Z AUTO 16004KT 5SM -RA BR BKN014 BKN019 OVC026 06/04 A2983 RMK AO2 RAB00 P0005=
201210211253 METAR KBLI 211253Z AUTO 15010KT 10SM BKN022 BKN027 OVC032 07/03 A2982 RMK AO2 SLP105 T00720033=
201210211153 METAR KBLI 211153Z AUTO 14010G17KT 10SM OVC024 07/03 A2982 RMK AO2 SLP105 60001 70037 T00720033 10078 20050 55004=
201210211124 SPECI KBLI 211124Z AUTO 13009KT 100V160 10SM BKN026 OVC033 07/04 A2982 RMK AO2=
201210211053 METAR KBLI 211053Z AUTO 13007KT 10SM FEW022 OVC030 07/04 A2982 RMK AO2 SLP105 T00720039=
201210210953 METAR KBLI 210953Z AUTO 14008KT 10SM SCT022 SCT035 BKN085 07/04 A2982 RMK AO2 SLP107 T00720039=
201210210940 SPECI KBLI 210940Z AUTO 16005KT 10SM SCT022 BKN037 OVC090 07/04 A2983 RMK AO2=
201210210902 SPECI KBLI 210902Z AUTO VRB03KT 10SM FEW020 BKN028 OVC036 07/04 A2983 RMK AO2=
201210210853 METAR KBLI 210853Z AUTO 13004KT 10SM FEW020 BKN030 OVC038 07/04 A2983 RMK AO2 SLP109 60001 T00670044 57002=
201210210835 SPECI KBLI 210835Z AUTO 13006KT 10SM SCT019 SCT030 BKN038 07/04 A2983 RMK AO2=
201210210753 METAR KBLI 210753Z AUTO 14005KT 10SM BKN021 OVC037 07/04 A2983 RMK AO2 RAB0654E50 SLP110 P0001 T00670044 401000050=
201210210653 METAR KBLI 210653Z AUTO 00000KT 10SM SCT019 BKN024 OVC050 06/04 A2983 RMK AO2 SLP111 T00610044=
201210210636 SPECI KBLI 210636Z AUTO 09004KT 10SM BKN023 BKN043 OVC080 06/04 A2984 RMK AO2=
201210210553 METAR KBLI 210553Z AUTO 11006KT 10SM SCT019 BKN045 OVC080 06/04 A2984 RMK AO2 SLP111 60036 T00610039 10089 20050 51002=
201210210551 SPECI KBLI 210551Z AUTO 11005KT 10SM FEW019 SCT045 OVC080 06/04 A2984 RMK AO2=
201210210453 METAR KBLI 210453Z 00000KT 10SM OVC017 05/04 A2983 RMK AO2 RAE28 SLP110 P0003 T00500039=
201210210403 SPECI KBLI 210403Z 00000KT 4SM -RA BR BKN019 OVC025 05/03 A2983 RMK AO2 P0002=
201210210353 METAR KBLI 210353Z 00000KT 2 1/2SM R16/5000VP6000FT RA BR SCT014 OVC019 05/03 A2983 RMK AO2 VIS 1 1/2V4 RAE11B30 SLP109 P0010 T00500033=
201210210349 SPECI KBLI 210349Z 00000KT 2 1/2SM +RA BR FEW007 BKN014 OVC019 05/03 A2983 RMK AO2 RAE11B30 P0008=
201210210325 SPECI KBLI 210325Z 31009KT 10SM SCT008 OVC024 05/04 A2983 RMK AO2 RAE11 P0000=
201210210312 SPECI KBLI 210312Z VRB03KT 10SM BKN024 OVC030 05/04 A2982 RMK AO2 RAE11 P0000=
201210210253 METAR KBLI 210253Z 12006KT 10SM -RA FEW025 BKN030 OVC070 05/04 A2983 RMK AO2 RAE18B51 SLP108 P0004 60023 T00500039 58001=
201210210212 SPECI KBLI 210212Z 13009KT 7SM -RA SCT023 BKN048 OVC055 06/04 A2983 RMK AO2 P0004=
201210210204 SPECI KBLI 210204Z 14009KT 2 1/2SM -RA BR FEW020 BKN029 OVC050 06/04 A2984 RMK AO2 P0004=
201210210153 METAR KBLI 210153Z 12010KT 3SM RA BR FEW014 BKN028 OVC095 06/04 A2984 RMK AO2 SLP113 P0015 T00560039=
201210210148 SPECI KBLI 210148Z 10005KT 3SM -RA BR FEW020 BKN031 OVC095 06/04 A2984 RMK AO2 P0013=
201210210053 METAR KBLI 210053Z 28005KT 5SM -RA BR OVC022 06/04 A2983 RMK AO2 SLP109 P0004 T00610044=
201210210014 SPECI KBLI 210014Z 29006KT 10SM -RA BKN028 BKN041 OVC055 07/03 A2983 RMK AO2 P0000=
201210202353 METAR KBLI 202353Z 00000KT 10SM -RA SCT032 BKN040 OVC075 09/03 A2983 RMK AO2 RAB42 SLP110 P0000 60000 T00890028 10100 20089 58005=
201210202253 METAR KBLI 202253Z VRB03KT 10SM SCT028 BKN048 OVC060 09/02 A2984 RMK AO2 SLP114 T00940017=
201210202153 METAR KBLI 202153Z 19006KT 10SM SCT048 BKN060 BKN075 09/02 A2984 RMK AO2 SLP114 T00940022=
201210202053 METAR KBLI 202053Z VRB05KT 10SM CLR 09/03 A2985 RMK AO2 SLP115 T00940028 51004=
201210201953 METAR KBLI 201953Z 16011G16KT 10SM BKN031 BKN034 OVC041 10/04 A2984 RMK AO2 SLP114 T01000039=
201210201853 METAR KBLI 201853Z 17008KT 10SM FEW021 BKN031 BKN036 09/04 A2985 RMK AO2 SLP114 T00940044=
201210201753 METAR KBLI 201753Z 18008G15KT 10SM FEW026 SCT055 BKN070 09/03 A2983 RMK AO2 SLP111 60000 T00940033 10100 20067 51007=
201210201653 METAR KBLI 201653Z 18007KT 10SM SCT070 08/03 A2983 RMK AO2 SLP111 T00780028=
201210201553 METAR KBLI 201553Z VRB06KT 10SM BKN070 BKN085 08/03 A2982 RMK AO2 SLP106 T00780033=
201210201453 METAR KBLI 201453Z 18005KT 10SM SCT060 07/03 A2981 RMK AO2 RAE22 SLP103 P0000 60000 T00720033 50007=
201210201353 METAR KBLI 201353Z 00000KT 10SM -RA BKN045 OVC055 08/03 A2982 RMK AO2 RAB33 SLP105 P0000 T00830028=
201210201253 METAR KBLI 201253Z AUTO 18006KT 10SM FEW055 BKN100 08/03 A2981 RMK AO2 SLP101 T00830028=
201210201153 METAR KBLI 201153Z AUTO VRB04KT 10SM FEW038 SCT050 BKN060 08/03 A2979 RMK AO2 SLP096 70014 T00780033 10089 20078 51008=
201210201053 METAR KBLI 201053Z AUTO 18008KT 10SM FEW024 08/04 A2978 RMK AO2 SLP090 T00830039=
201210200953 METAR KBLI 200953Z AUTO 17008KT 10SM FEW037 OVC065 08/04 A2978 RMK AO2 SLP092 T00830044=
201210200853 METAR KBLI 200853Z AUTO 14005KT 10SM FEW037 SCT080 08/04 A2977 RMK AO2 SLP087 T00830044 53010=
201210200753 METAR KBLI 200753Z AUTO 17009G14KT 10SM FEW022 BKN036 09/06 A2976 RMK AO2 SLP083 T00890056 401440083=
201210200653 METAR KBLI 200653Z 17010KT 10SM SCT019 BKN110 08/06 A2974 RMK AO2 SLP077 T00830061=
201210200648 SPECI KBLI 200648Z 16008KT 10SM SCT019 BKN110 09/06 A2974 RMK AO2=
201210200624 SPECI KBLI 200624Z 16011KT 10SM SCT012 BKN021 BKN041 09/07 A2973 RMK AO2=
201210200601 SPECI KBLI 200601Z 16009G15KT 10SM BKN013 BKN042 BKN050 09/07 A2974 RMK AO2=
201210200553 METAR KBLI 200553Z 14006KT 10SM SCT017 SCT040 BKN050 08/07 A2974 RMK AO2 RAE13 SLP077 P0000 60010 T00830067 10111 20083 51006=
201210200453 METAR KBLI 200453Z 17005KT 8SM -RA FEW021 SCT025 OVC037 09/07 A2974 RMK AO2 SLP077 P0009 T00890067=
201210200353 METAR KBLI 200353Z 16008KT 8SM -RA OVC043 09/07 A2973 RMK AO2 RAB33 SLP075 P0001 T00940067=
201210200253 METAR KBLI 200253Z 16004KT 10SM BKN080 BKN120 09/07 A2972 RMK AO2 SLP071 T00940067 56010=
201210200153 METAR KBLI 200153Z 16004KT 10SM CLR 09/07 A2973 RMK AO2 SLP073 T00890067=
201210200053 METAR KBLI 200053Z 16006KT 10SM FEW050 BKN120 11/07 A2973 RMK AO2 SLP075 T01060067=
201210192353 METAR KBLI 192353Z 17005KT 10SM BKN048 BKN055 OVC080 11/08 A2975 RMK AO2 RAE33 SLP081 P0001 60004 T01110078 10133 20106 56006=
201210192253 METAR KBLI 192253Z 16003KT 10SM -RA OVC080 11/08 A2975 RMK AO2 SLP082 P0003 T01110078=
201210192153 METAR KBLI 192153Z 20003KT 10SM -RA OVC090 12/06 A2976 RMK AO2 RAB2056E25B46 SLP085 P0000 T01220056=
201210192053 METAR KBLI 192053Z 15007KT 10SM FEW060 OVC085 13/06 A2977 RMK AO2 SLP087 T01280056 51000=
201210191953 METAR KBLI 191953Z 20004KT 10SM OVC090 13/08 A2977 RMK AO2 SLP086 T01280078=
201210191853 METAR KBLI 191853Z 18006KT 10SM SCT090 BKN110 13/08 A2977 RMK AO2 SLP088 T01330078=
201210191753 METAR KBLI 191753Z 16007KT 10SM CLR 13/09 A2977 RMK AO2 SLP086 60000 T01280089 10139 20117 53017=
201210191653 METAR KBLI 191653Z 16007KT 10SM BKN070 BKN090 13/09 A2975 RMK AO2 SLP082 T01280094=
201210191553 METAR KBLI 191553Z 16008G18KT 10SM BKN080 12/09 A2973 RMK AO2 SLP073 T01220094=
201210191531 SPECI KBLI 191531Z 17011G16KT 10SM SCT060 OVC080 12/10 A2972 RMK AO2=
201210191505 SPECI KBLI 191505Z 16012G19KT 10SM FEW005 SCT009 BKN014 12/10 A2971 RMK AO2=
201210191453 METAR KBLI 191453Z 17012G18KT 10SM BKN005 BKN009 OVC050 12/11 A2972 RMK AO2 CIG 003V008 SLP070 60000 T01220106 51012=
201210191445 SPECI KBLI 191445Z 18009G16KT 10SM BKN007 BKN013 OVC050 13/12 A2972 RMK AO2 CIG 003V009=
201210191420 SPECI KBLI 191420Z 17010G17KT 10SM SCT007 OVC050 13/12 A2971 RMK AO2=
201210191353 METAR KBLI 191353Z 16013G21KT 10SM SCT022 BKN027 OVC048 13/12 A2971 RMK AO2 RAB36E52 SLP066 P0000 T01330117=
201210191324 SPECI KBLI 191324Z AUTO 17011G19KT 10SM SCT013 OVC023 14/12 A2970 RMK AO2=
201210191253 METAR KBLI 191253Z AUTO 17012G20KT 10SM OVC013 14/12 A2970 RMK AO2 RAE41 SLP062 P0000 T01390122=
201210191153 METAR KBLI 191153Z AUTO 18013G23KT 10SM -RA OVC013 14/12 A2968 RMK AO2 RAB49 SLP058 P0000 60000 70061 T01390117 10144 20128 55002=
201210191053 METAR KBLI 191053Z AUTO 17012G21KT 10SM OVC013 13/12 A2968 RMK AO2 SLP057 T01330117=
201210191049 SPECI KBLI 191049Z AUTO 17010G19KT 10SM OVC013 14/12 A2968 RMK AO2=
201210190953 METAR KBLI 190953Z AUTO 17014G21KT 10SM OVC017 13/11 A2969 RMK AO2 SLP060 T01330111=
201210190853 METAR KBLI 190853Z AUTO 16013G24KT 10SM OVC017 14/11 A2968 RMK AO2 SLP058 60000 T01440111 58017=
201210190753 METAR KBLI 190753Z AUTO 15016G24KT 10SM OVC015 14/11 A2972 RMK AO2 RAE01 SLP070 P0000 T01390111 401390083=
201210190709 SPECI KBLI 190709Z AUTO 15012G24KT 10SM BKN017 BKN022 OVC042 14/11 A2974 RMK AO2 RAE01 P0000=
201210190653 METAR KBLI 190653Z AUTO 15014G23KT 10SM -RA SCT019 BKN041 OVC048 13/11 A2973 RMK AO2 RAE13B39 SLP075 P0000 T01330106=
201210190651 SPECI KBLI 190651Z AUTO 15016G23KT 10SM -RA SCT019 BKN041 OVC048 13/11 A2973 RMK AO2 RAE13B39 P0000=
201210190553 METAR KBLI 190553Z AUTO 16015G28KT 5SM -RA BR BKN021 OVC037 13/11 A2974 RMK AO2 PK WND 16028/0546 RAE17B37 SLP078 P0004 60040 T01280106 10133 20100 55013=
201210190453 METAR KBLI 190453Z 15013KT 10SM -RA BKN028 OVC041 13/10 A2973 RMK AO2 SLP076 P0001 T01280100=
201210190353 METAR KBLI 190353Z 16011G17KT 9SM -RA BKN023 BKN075 OVC090 12/11 A2975 RMK AO2 SLP080 P0010 T01220106=
201210190317 SPECI KBLI 190317Z 16010G18KT 6SM -RA BR BKN023 BKN075 OVC090 12/10 A2977 RMK AO2 P0004=
201210190253 METAR KBLI 190253Z 17009KT 6SM -RA BR BKN006 BKN011 OVC050 11/10 A2978 RMK AO2 SLP091 P0016 60025 T01110100 56018=
201210190248 SPECI KBLI 190248Z VRB06KT 3SM -RA BR BKN006 BKN011 OVC050 11/09 A2979 RMK AO2 P0016=
201210190243 SPECI KBLI 190243Z 00000KT 2 1/2SM R16/4000VP6000FT RA BR BKN003 BKN011 OVC060 10/09 A2977 RMK AO2 P0015=
201210190207 SPECI KBLI 190207Z 00000KT 3SM RA BR BKN003 BKN011 OVC060 10/09 A2978 RMK AO2 P0004=
201210190200 SPECI KBLI 190200Z 09003KT 3SM RA BR SCT003 SCT011 OVC060 10/09 A2978 RMK AO2 P0002=
201210190153 METAR KBLI 190153Z 08004KT 4SM -RA BR BKN002 BKN011 OVC042 10/09 A2978 RMK AO2 SLP092 P0008 T01000094=
201210190053 METAR KBLI 190053Z 33004KT 4SM -RA BR BKN002 OVC060 10/09 A2980 RMK AO2 SLP096 P0001 T01000094=
201210182353 METAR KBLI 182353Z 35005KT 3SM -RA BR FEW002 OVC060 10/09 A2983 RMK AO2 SLP109 P0007 60021 T01000094 10133 20100 57037=
201210182253 METAR KBLI 182253Z 04003KT 4SM -RA BR FEW055 BKN070 OVC090 11/09 A2987 RMK AO2 SLP122 P0007 T01060094=
201210182153 METAR KBLI 182153Z 04007KT 5SM -RA BR BKN065 OVC090 11/09 A2990 RMK AO2 SLP133 P0005 T01060089=
201210182053 METAR KBLI 182053Z 02005KT 7SM -RA BKN065 OVC090 11/08 A2994 RMK AO2 RAB06 SLP146 P0002 60002 T01110083 56024=
201210181953 METAR KBLI 181953Z 34005KT 10SM OVC065 12/08 A2996 RMK AO2 SLP152 T01220078=
201210181853 METAR KBLI 181853Z 00000KT 10SM OVC065 13/08 A2998 RMK AO2 RAE45 SLP160 P0000 T01280078=
201210181753 METAR KBLI 181753Z 00000KT 10SM -RA BKN075 OVC100 12/07 A3001 RMK AO2 RAB44 SLP170 P0000 60000 T01220072 10128 20089 58025=
201210181653 METAR KBLI 181653Z 00000KT 10SM BKN110 12/07 A3004 RMK AO2 SLP179 T01220072=
201210181553 METAR KBLI 181553Z 00000KT 10SM BKN055 BKN100 11/07 A3008 RMK AO2 SLP191 T01110072=
201210181453 METAR KBLI 181453Z 00000KT 10SM OVC050 09/07 A3009 RMK AO2 SLP195 T00940072 57026=
201210181353 METAR KBLI 181353Z 00000KT 10SM OVC050 09/08 A3011 RMK AO2 SLP203 T00940078=
201210181253 METAR KBLI 181253Z AUTO 00000KT 10SM OVC050 10/07 A3014 RMK AO2 SLP214 T01000072=
201210181153 METAR KBLI 181153Z AUTO 00000KT 9SM OVC055 09/08 A3017 RMK AO2 SLP222 70004 T00940078 10100 20083 56012=
201210181053 METAR KBLI 181053Z AUTO 00000KT 10SM OVC095 09/08 A3017 RMK AO2 PRESFR SLP222 T00940078=
201210180953 METAR KBLI 180953Z AUTO 00000KT 8SM FEW060 OVC100 09/07 A3020 RMK AO2 SLP232 T00890072=
201210180853 METAR KBLI 180853Z AUTO 00000KT 6SM BR BKN070 OVC100 08/07 A3020 RMK AO2 SLP234 T00830072 57004=
201210180753 METAR KBLI 180753Z AUTO 00000KT 10SM OVC070 09/07 A3021 RMK AO2 SLP238 T00940072 401330061=
201210180653 METAR KBLI 180653Z AUTO 00000KT 10SM OVC070 09/07 A3020 RMK AO2 SLP235 T00890072=
201210180553 METAR KBLI 180553Z AUTO 00000KT 10SM OVC080 10/07 A3021 RMK AO2 SLP238 T01000072 10128 20094 57004=
201210180453 METAR KBLI 180453Z 00000KT 10SM OVC085 10/07 A3022 RMK AO2 SLP241 T01000072=
201210180353 METAR KBLI 180353Z 00000KT 10SM OVC085 10/07 A3022 RMK AO2 SLP239 T01000072=
201210180253 METAR KBLI 180253Z 00000KT 10SM OVC090 10/07 A3023 RMK AO2 SLP243 T01000072 58010=
201210180153 METAR KBLI 180153Z 00000KT 10SM BKN100 11/07 A3024 RMK AO2 SLP248 T01110072=
201210180053 METAR KBLI 180053Z 00000KT 10SM BKN110 12/08 A3026 RMK AO2 SLP252 T01170078=
201210172353 METAR KBLI 172353Z 00000KT 10SM BKN110 13/06 A3026 RMK AO2 SLP253 T01280061 10133 20111 56009=
201210172253 METAR KBLI 172253Z 19003KT 10SM CLR 12/06 A3027 RMK AO2 SLP257 T01220061=
201210172153 METAR KBLI 172153Z 17007KT 10SM FEW120 13/06 A3027 RMK AO2 SLP257 T01280061=
201210172053 METAR KBLI 172053Z 16010KT 10SM FEW120 13/07 A3028 RMK AO2 SLP262 T01280067 58013=
201210171953 METAR KBLI 171953Z 17008KT 10SM FEW025 12/07 A3030 RMK AO2 SLP266 T01170072 $=
201210171853 METAR KBLI 171853Z 17009KT 10SM SCT024 BKN032 11/07 A3032 RMK AO2 SLP275 T01110067 $=
201210171851 SPECI KBLI 171851Z 17008G14KT 10SM SCT024 BKN032 12/07 A3032 RMK AO2 $=
201210171829 SPECI KBLI 171829Z 17008KT 10SM BKN024 OVC032 12/07 A3031 RMK AO2 $=
201210171753 METAR KBLI 171753Z 17008KT 10SM FEW018 BKN032 12/07 A3031 RMK AO2 SLP270 60004 T01170067 10122 20072 50009 $=
201210171653 METAR KBLI 171653Z 16007KT FEW022 12/08 A3031 RMK AO2 SLP270 P0001 T01170078 $=
201210171646 SPECI KBLI 171646Z 17006KT FEW022 11/07 A3031 RMK AO2 P0001 $=
201210171553 METAR KBLI 171553Z 00000KT 10SM BKN020 10/07 A3030 RMK AO2 SLP266 P0001 T01000067=
201210171453 METAR KBLI 171453Z 17003KT 10SM SCT060 09/06 A3028 RMK AO2 SLP262 P0001 60002 T00890061 53003=
201210171353 METAR KBLI 171353Z 16006KT 10SM OVC065 10/07 A3026 RMK AO2 SLP255 T01000067=
201210171253 METAR KBLI 171253Z AUTO 17004KT 10SM OVC060 08/06 A3027 RMK AO2 SLP259 P0001 T00830061=
201210171153 METAR KBLI 171153Z AUTO 00000KT 10SM OVC060 07/06 A3027 RMK AO2 SLP258 P0001 60006 70030 T00720061 10089 20061 55000=
201210171053 METAR KBLI 171053Z AUTO 17004KT 10SM CLR 07/06 A3027 RMK AO2 SLP256 P0001 T00720056=
201210170953 METAR KBLI 170953Z AUTO 15004KT 10SM CLR 07/06 A3027 RMK AO2 SLP258 P0001 T00720056=
201210170853 METAR KBLI 170853Z AUTO 00000KT 10SM OVC090 08/06 A3027 RMK AO2 SLP258 P0001 60003 T00830061 51014=
201210170753 METAR KBLI 170753Z AUTO 16003KT 10SM OVC095 08/06 A3026 RMK AO2 SLP253 P0001 T00830056 401390067=
201210170653 METAR KBLI 170653Z AUTO 00000KT 10SM FEW080 08/06 A3025 RMK AO2 SLP251 P0001 T00830056=
201210170553 METAR KBLI 170553Z AUTO 17004KT 10SM CLR 08/05 A3023 RMK AO2 SLP244 P0001 60007 T00830050 10133 20078 53024=
201210170453 METAR KBLI 170453Z 18005KT 10SM CLR 10/05 A3020 RMK AO2 SLP233 P0001 T01000050=
201210170353 METAR KBLI 170353Z 20004KT 10SM FEW080 11/06 A3017 RMK AO2 SLP224 P0001 T01060056=
201210170253 METAR KBLI 170253Z 19003KT 10SM CLR 09/06 A3016 RMK AO2 SLP221 P0001 60004 T00890061 53030=
201210170153 METAR KBLI 170153Z 00000KT 10SM FEW065 BKN080 12/07 A3013 RMK AO2 SLP208 P0001 T01170067=
201210170053 METAR KBLI 170053Z 17005KT 10SM BKN060 OVC080 13/07 A3010 RMK AO2 SLP200 P0002 T01280067=
201210162353 METAR KBLI 162353Z 17005KT 10SM FEW042 SCT055 BKN070 13/07 A3007 RMK AO2 SLP190 P0001 60008 T01330067 10139 20122 53013=
201210162253 METAR KBLI 162253Z 18007KT 10SM BKN085 14/06 A3005 RMK AO2 SLP182 P0001 T01390061=
201210162153 METAR KBLI 162153Z 17008G16KT 10SM FEW070 BKN100 14/06 A3004 RMK AO2 SLP178 P0002 T01390061=
201210162053 METAR KBLI 162053Z 17007KT 140V200 10SM OVC100 13/07 A3003 RMK AO2 SLP177 P0001 60004 T01280072 51020=
201210161953 METAR KBLI 161953Z 18009G14KT 10SM BKN070 BKN080 OVC100 14/07 A3002 RMK AO2 SLP172 P0002 T01390072=
201210161853 METAR KBLI 161853Z 17006KT 10SM BKN070 12/07 A3000 RMK AO2 SLP166 P0001 T01220072 $=
201210161753 METAR KBLI 161753Z 17008KT 10SM FEW100 12/07 A2997 RMK AO2 SLP157 P0002 60009 T01220067 10128 20094 51047 $=
201210161653 METAR KBLI 161653Z 17007KT 10SM CLR 12/07 A2993 RMK AO2 SLP142 P0001 T01220067 $=
201210161553 METAR KBLI 161553Z 17004KT 10SM CLR 11/05 A2988 RMK AO2 SLP127 P0002 T01110050 $=
201210161453 METAR KBLI 161453Z 18003KT 10SM CLR 10/04 A2983 RMK AO2 SLP110 P0001 60004 T01000044 52058 $=
201210161353 METAR KBLI 161353Z 00000KT 10SM BKN060 11/04 A2978 RMK AO2 SLP093 P0002 T01110044 $=
201210161253 METAR KBLI 161253Z AUTO VRB06KT 10SM SCT065 BKN110 12/06 A2971 RMK AO2 SLP068 P0001 T01170056 $=
201210161153 METAR KBLI 161153Z AUTO 17007KT 10SM OVC100 12/07 A2966 RMK AO2 SLP051 P0001 60010 7//// T01220072 10150 20106 53036 $=
201210161053 METAR KBLI 161053Z AUTO 16010KT 10SM FEW043 SCT050 BKN060 12/08 A2961 RMK AO2 SLP035 P0002 T01220078 $=
201210160953 METAR KBLI 160953Z AUTO VRB05KT 10SM CLR 12/09 A2959 RMK AO2 SLP027 P0002 T01170089 $=
201210160853 METAR KBLI 160853Z AUTO VRB05KT 10SM FEW042 13/09 A2956 RMK AO2 SLP014 P0001 60005 T01280089 53020 $=
201210160753 METAR KBLI 160753Z AUTO 15005KT 10SM CLR 11/10 A2953 RMK AO2 SLP006 P0002 T01110100 401670067 $=
201210160653 METAR KBLI 160653Z AUTO 00000KT 10SM CLR 14/10 A2952 RMK AO2 SLP001 P0002 T01440100 $=
201210160553 METAR KBLI 160553Z AUTO 16009G16KT 10SM SCT075 BKN085 14/12 A2950 RMK AO2 SLP994 P0002 6//// T01440122 10167 20122 53012 $=
201210160522 SPECI KBLI 160522Z 16013G20KT 10SM FEW004 SCT028 BKN060 14/13 A2948 RMK AO2 P0001 $=
201210160510 SPECI KBLI 160510Z 16012G18KT 10SM SCT004 BKN028 OVC055 14/13 A2948 RMK AO2 P0001 $=
201210160453 METAR KBLI 160453Z 16012G24KT 10SM FEW015 BKN026 OVC050 14/13 A2948 RMK AO2 PK WND 17026/0409 RAE02 SLP990 P0001 T01440133 $=
201210160353 METAR KBLI 160353Z 16021G28KT 10SM -RA BKN018 OVC026 16/14 A2947 RMK AO2 PK WND 16031/0319 SLP985 P0001 T01610139 $=
201210160319 SPECI KBLI 160319Z 18016G31KT 10SM -RA FEW020 BKN028 OVC038 16/13 A2947 RMK AO2 PK WND 16031/0319 P0000 $=
201210160253 METAR KBLI 160253Z 16020G27KT 10SM -RA SCT020 BKN037 OVC060 17/14 A2946 RMK AO2 PK WND 15029/0242 RAB0154E04B27 SLP983 P0001 6//// T01670139 56048 $=
201210160153 METAR KBLI 160153Z 15016G26KT 10SM OVC026 16/13 A2946 RMK AO2 PK WND 15030/0131 RAE49 SLP983 P0001 T01610128 $=
201210160053 METAR KBLI 160053Z 13009KT 10SM -RA BKN026 OVC065 14/12 A2950 RMK AO2 SLP996 T01440122 $=
201210160027 SPECI KBLI 160027Z 12009KT 5SM -RA BR BKN018 BKN024 OVC032 14/13 A2954 RMK AO2 PRESFR $=
201210160019 SPECI KBLI 160019Z 12010KT 2 1/2SM RA BR OVC018 13/12 A2956 RMK AO2 PRESFR $=
201210152353 METAR KBLI 152353Z 36004KT 1 1/2SM RA BR BKN021 OVC027 13/12 A2960 RMK AO2 SLP031 P0001 60004 T01280117 10161 20128 56051 $=
201210152343 SPECI KBLI 152343Z 03005KT 1 3/4SM RA BR OVC027 13/12 A2961 RMK AO2 P0001 $=
201210152331 SPECI KBLI 152331Z 04006KT 3SM -RA BR OVC029 13/12 A2961 RMK AO2 P0001 $=
201210152253 METAR KBLI 152253Z 02005KT 7SM -RA OVC030 13/12 A2964 RMK AO2 SLP045 P0000 T01330122 $=
201210152153 METAR KBLI 152153Z 12008KT 10SM -RA SCT040 BKN070 OVC095 16/10 A2971 RMK AO2 RAB09E19B36 SLP068 P0001 T01560100 $=
201210152053 METAR KBLI 152053Z 15006KT 10SM SCT100 SCT120 16/10 A2975 RMK AO2 SLP081 P0001 60002 T01560100 58040 $=
201210151953 METAR KBLI 151953Z 17007G15KT 10SM SCT024 14/11 A2984 RMK AO2 SLP110 P0001 T01390106 $=
201210151853 METAR KBLI 151853Z VRB05KT 10SM FEW065 14/10 A2984 RMK AO2 SLP111 T01440100 $=
201210151753 METAR KBLI 151753Z 12008KT 10SM FEW018 14/11 A2987 RMK AO2 SLP123 P0001 60008 T01440106 10144 20067 58009 $=
201210151722 SPECI KBLI 151722Z 17011G16KT 6SM BR SCT002 OVC070 12/11 A2989 RMK AO2 PRESFR $=
201210151706 SPECI KBLI 151706Z 17011KT 4SM BR BKN002 OVC070 12/11 A2991 RMK AO2 $=
201210151653 METAR KBLI 151653Z 17011G17KT 1SM R16/P6000FT BR OVC002 11/11 A2991 RMK AO2 SLP137 P0001 T01110106 $=
201210151618 SPECI KBLI 151618Z 17011G18KT 1/2SM R16/3500V5500FT FG BKN002 OVC007 11/11 A2992 RMK AO2 $=
201210151553 METAR KBLI 151553Z 17009KT 1 1/2SM BR BKN002 11/11 A2991 RMK AO2 CIG 002V006 SLP134 P0002 T01110106 $=
201210151539 SPECI KBLI 151539Z 17007KT 4SM BR BKN002 11/11 A2991 RMK AO2 P0001 $=
201210151453 METAR KBLI 151453Z 17006KT 7SM FEW004 11/10 A2990 RMK AO2 SLP132 CIG VSBY LWR NW-N P0001 60004 T01060100 58001 $=
201210151451 SPECI KBLI 151451Z 17006KT 5SM BR FEW004 11/10 A2990 RMK AO2 CIG VSBY LWR NW-N P0001 $=
201210151401 SPECI KBLI 151401Z 18004KT 3SM BR BKN004 10/09 A2991 RMK AO2 $=
201210151353 METAR KBLI 151353Z 16003KT 1 1/4SM BR OVC004 09/09 A2990 RMK AO2 SLP133 P0002 T00890089 $=
201210151346 SPECI KBLI 151346Z 00000KT 1SM R16/3500VP6000FT BR OVC004 09/08 A2990 RMK AO2 P0002 $=
201210151321 SPECI KBLI 151321Z AUTO 00000KT 1/4SM R16/1800V3500FT FG VV002 07/07 A2991 RMK AO2 P0001 $=
201210151311 SPECI KBLI 151311Z AUTO 00000KT 1/4SM R16/1000VP6000FT FG VV001 08/07 A2991 RMK AO2 P0001 $=
201210151253 METAR KBLI 151253Z AUTO 00000KT 1/4SM R16/2000VP6000FT FG VV002 09/08 A2990 RMK AO2 SLP133 P0001 T00890078 $=
201210151251 SPECI KBLI 151251Z AUTO 00000KT 1/4SM R16/2200VP6000FT FG VV003 09/08 A2990 RMK AO2 P0001 $=
201210151234 SPECI KBLI 151234Z AUTO 00000KT 1/2SM R16/2800VP6000FT FG VV005 08/08 A2990 RMK AO2 P0001 $=
201210151231 SPECI KBLI 151231Z AUTO 00000KT 1SM R16/3500VP6000FT BR VV004 09/08 A2990 RMK AO2 P0001 $=
201210151220 SPECI KBLI 151220Z AUTO 00000KT 2SM BR CLR 09/09 A2989 RMK AO2 $=
201210151210 SPECI KBLI 151210Z AUTO 14003KT 1SM R16/P6000FT BR VV003 09/09 A2989 RMK AO2 VIS 1/2V5 $=
201210151206 SPECI KBLI 151206Z AUTO 14003KT 1 1/2SM BR CLR 09/09 A2989 RMK AO2 VIS 1/2V5 $=
201210151201 SPECI KBLI 151201Z AUTO 16003KT 5SM BR CLR 10/09 A2989 RMK AO2 $=
201210151153 METAR KBLI 151153Z AUTO 17004KT 2SM BR CLR 09/09 A2989 RMK AO2 VIS 3/4V5 SLP128 P0001 60006 70023 T00940094 10128 20094 53008 $=
201210151136 SPECI KBLI 151136Z AUTO 00000KT 1 3/4SM BR CLR 10/09 A2989 RMK AO2 VIS 3/4V5 P0001 $=
201210151053 METAR KBLI 151053Z AUTO 18004KT 8SM FEW002 11/11 A2987 RMK AO2 SLP123 P0001 T01110106 $=
201210151040 SPECI KBLI 151040Z AUTO 17005KT 8SM SCT004 12/11 A2987 RMK AO2 P0001 $=
201210151022 SPECI KBLI 151022Z AUTO 19004KT 10SM BKN004 12/11 A2987 RMK AO2 $=
201210150953 METAR KBLI 150953Z AUTO 17006KT 10SM SCT004 12/11 A2987 RMK AO2 SLP122 P0001 T01170111 $=
201210150902 SPECI KBLI 150902Z AUTO 19006KT 10SM SCT002 BKN070 13/12 A2987 RMK AO2 $=
201210150853 METAR KBLI 150853Z AUTO 18005KT 10SM BKN002 OVC065 13/12 A2986 RMK AO2 SLP119 P0001 60003 T01280122 53005 $=
201210150753 METAR KBLI 150753Z AUTO 16006KT 7SM BKN002 BKN046 OVC055 13/12 A2985 RMK AO2 RAB27E42 SLP115 P0001 T01280122 401780128 $=
201210150734 SPECI KBLI 150734Z AUTO 17005KT 5SM -RA BR SCT002 BKN041 OVC049 13/12 A2985 RMK AO2 RAB27 P0001 $=
201210150653 METAR KBLI 150653Z AUTO 17007KT 6SM BR OVC002 13/12 A2985 RMK AO2 RAB19E30 SLP114 P0001 T01280122 $=
201210150639 SPECI KBLI 150639Z AUTO 18006KT 8SM BKN002 OVC023 13/12 A2986 RMK AO2 RAB19E30 P0001 $=
201210150553 METAR KBLI 150553Z AUTO 17006KT 10SM BKN007 OVC017 13/12 A2985 RMK AO2 RAB33E43 SLP114 P0001 60006 T01280122 10161 20128 53005 $=
201210150527 SPECI KBLI 150527Z AUTO 17005KT 10SM BKN009 OVC031 13/12 A2985 RMK AO2 CIG 004V011 P0001 $=
201210150523 SPECI KBLI 150523Z 17004KT 10SM FEW004 SCT012 OVC031 13/12 A2985 RMK AO2 P0001 $=
201210150514 SPECI KBLI 150514Z 18007KT 10SM SCT004 OVC029 13/12 A2985 RMK AO2 P0001 $=
201210150500 SPECI KBLI 150500Z 17006KT 10SM BKN004 OVC029 13/12 A2985 RMK AO2 $=
201210150453 METAR KBLI 150453Z 18005KT 10SM OVC006 13/13 A2984 RMK AO2 RAE07 SLP111 P0001 T01330128 $=
201210150430 SPECI KBLI 150430Z 18005KT 10SM BKN008 OVC011 14/13 A2984 RMK AO2 RAE07 CIG 003V009 P0001 $=
201210150413 SPECI KBLI 150413Z 17009G15KT 10SM FEW005 OVC012 14/13 A2983 RMK AO2 RAE07 P0001 $=
201210150353 METAR KBLI 150353Z 17008G15KT 8SM -RA FEW004 SCT008 OVC015 14/13 A2983 RMK AO2 RAB0254 SLP108 P0001 T01440133 $=
201210150341 SPECI KBLI 150341Z 18007G14KT 7SM -RA FEW006 BKN012 OVC017 14/13 A2983 RMK AO2 RAB0254 P0001 $=
201210150253 METAR KBLI 150253Z VRB05KT 10SM OVC016 14/13 A2984 RMK AO2 RAE50 SLP109 P0001 60003 T01440133 58001 $=
201210150153 METAR KBLI 150153Z 16012G18KT 9SM -RA OVC016 16/13 A2984 RMK AO2 RAE34B50 SLP111 P0001 T01560133 $=
201210150053 METAR KBLI 150053Z 17013G23KT 6SM -RA BR OVC018 16/13 A2984 RMK AO2 PK WND 16029/2355 RAB2355 SLP112 P0001 T01560133 $=
201210150002 SPECI KBLI 150002Z 16014G29KT 10SM -RA BKN020 OVC065 16/13 A2984 RMK AO2 PK WND 16029/2355 RAB2355 P0000 $=
201210142353 METAR KBLI 142353Z 15013G22KT 10SM SCT020 OVC065 16/13 A2984 RMK AO2 PK WND 15026/2308 RAE40 SLP110 P0000 60004 T01610133 10167 20156 58001 $=
201210142253 METAR KBLI 142253Z 15016G25KT 7SM -RA SCT020 BKN050 OVC065 16/13 A2984 RMK AO2 PK WND 14029/2156 SLP110 P0001 T01610133 $=
201210142200 SPECI KBLI 142200Z 16011G29KT 10SM -RA BKN080 OVC095 16/13 A2984 RMK AO2 PK WND 14029/2156 P0000 $=
201210142153 METAR KBLI 142153Z 15017G32KT 10SM -RA BKN024 OVC080 16/13 A2984 RMK AO2 PK WND 16032/2146 SLP111 P0001 T01560133 $=
201210142053 METAR KBLI 142053Z 15018G28KT 6SM -RA BR BKN024 OVC085 16/13 A2984 RMK AO2 PK WND 15030/2007 PRESFR SLP111 P0001 60002 T01560133 50005 $=
201210141953 METAR KBLI 141953Z 16017G29KT 7SM -RA BKN024 BKN065 OVC085 16/13 A2986 RMK AO2 PK WND 16032/1913 SLP117 P0001 T01560133 $=
201210141853 METAR KBLI 141853Z 17016G31KT 5SM -RA BR BKN024 BKN055 OVC070 16/13 A2985 RMK AO2 PK WND 16038/1754 SLP114 P0000 T01560133 $=
201210141753 METAR KBLI 141753Z 16021G35KT 6SM -RA FEW008 BKN026 OVC080 17/13 A2983 RMK AO2 PK WND 16039/1715 PRESRR SLP106 P0001 60007 T01670128 10178 20161 55000 $=
201210141653 METAR KBLI 141653Z 16022G39KT 10SM -RA FEW008 SCT026 OVC080 17/12 A2982 RMK AO2 PK WND 16039/1651 RAB00 SLP103 P0001 T01720122 $=
201210141553 METAR KBLI 141553Z 15020G42KT 10SM FEW008 SCT034 OVC095 18/12 A2982 RMK AO2 PK WND 13042/1551 RAE29 SLP102 P0001 T01780117 $=
201210141527 SPECI KBLI 141527Z 16017G29KT 10SM -RA FEW008 SCT022 OVC095 17/12 A2981 RMK AO2 PK WND 13035/1508 P0000 $=
201210141453 METAR KBLI 141453Z 15018G33KT 10SM -RA BKN022 OVC085 17/12 A2983 RMK AO2 PK WND 14035/1440 RAB39 SLP106 P0002 60004 T01720122 58034 $=
201210141353 METAR KBLI 141353Z 15020G29KT 10SM BKN027 OVC110 17/12 A2986 RMK AO2 PK WND 14038/1337 SLP118 P0001 T01670122 $=
201210141253 METAR KBLI 141253Z AUTO 16018G28KT 10SM BKN023 17/12 A2992 RMK AO2 PK WND 15030/1234 SLP138 P0001 T01670122 $=
201210141153 METAR KBLI 141153Z AUTO 16013G27KT 10SM BKN025 OVC100 17/12 A2993 RMK AO2 PK WND 14027/1147 SLP140 P0002 60010 7//// T01670122 10167 20156 56023 $=
201210141053 METAR KBLI 141053Z AUTO 15010G16KT 10SM BKN025 BKN085 OVC110 16/12 A2996 RMK AO2 PK WND 14031/0958 RAB01E11 SLP150 P0001 T01610122 $=
201210140953 METAR KBLI 140953Z AUTO 15017G29KT 10SM SCT023 BKN075 OVC095 16/12 A2996 RMK AO2 PK WND 14029/0948 SLP151 P0002 T01610122 $=
201210140853 METAR KBLI 140853Z AUTO 15014G25KT 10SM BKN021 BKN060 OVC095 16/12 A3000 RMK AO2 PK WND 17030/0838 SLP163 P0001 60005 T01610122 50000 $=
201210140846 SPECI KBLI 140846Z AUTO 15015G30KT 10SM BKN021 BKN065 OVC095 16/12 A3000 RMK AO2 PK WND 17030/0838 P0001 $=
201210140837 SPECI KBLI 140837Z AUTO 16013G25KT 10SM SCT019 BKN055 OVC095 16/13 A3000 RMK AO2 PK WND 14029/0823 P0001 $=
201210140828 SPECI KBLI 140828Z AUTO 16014G29KT 10SM BKN019 BKN060 OVC095 16/13 A3000 RMK AO2 PK WND 14029/0823 P0001 $=
201210140821 SPECI KBLI 140821Z AUTO 16018G28KT 10SM SCT019 BKN055 OVC095 16/13 A3000 RMK AO2 PK WND 16028/0819 P0001 $=
201210140753 METAR KBLI 140753Z AUTO 16015G24KT 10SM BKN019 OVC085 16/13 A3001 RMK AO2 PK WND 15026/0716 SLP167 P0002 T01560128 401610128 $=
201210140653 METAR KBLI 140653Z AUTO 17012G23KT 10SM OVC019 16/13 A3002 RMK AO2 RAE0555B13E49 SLP173 P0002 T01560128 $=
201210140553 METAR KBLI 140553Z AUTO 15013G19KT 10SM -RA BKN021 OVC036 16/13 A3000 RMK AO2 SLP163 P0002 6//// T01560128 10156 20144 58019 $=
201210140509 SPECI KBLI 140509Z 14010KT 10SM -RA BKN021 OVC090 15/13 A3000 RMK AO2 P0001 $=
201210140453 METAR KBLI 140453Z 13009KT 10SM -RA FEW065 OVC090 14/13 A3001 RMK AO2 SLP169 T01440133 $=
201210140431 SPECI KBLI 140431Z 14012KT 4SM RA BR FEW020 BKN033 OVC080 15/13 A3003 RMK AO2 PRESFR $=
201210140353 METAR KBLI 140353Z 17006KT 3SM RA BR BKN019 OVC025 14/13 A3007 RMK AO2 RAB05 SLP191 T01440133 $=
201210140253 METAR KBLI 140253Z 15009G17KT 10SM OVC017 16/13 A3005 RMK AO2 SLP183 P0001 60003 T01560128 58006=
201210140153 METAR KBLI 140153Z 15010KT 10SM OVC019 16/13 A3006 RMK AO2 RAE13 SLP186 P0001 T01560128=
201210140126 SPECI KBLI 140126Z 16008KT 10SM BKN019 OVC055 15/13 A3006 RMK AO2 RAE13 P0001=
201210140110 SPECI KBLI 140110Z 16009KT 9SM -RA FEW018 BKN044 OVC055 14/13 A3007 RMK AO2 P0000=
201210140053 METAR KBLI 140053Z 17010KT 6SM -RA BR OVC018 15/13 A3007 RMK AO2 SLP190 P0001 T01500128=
201210140026 SPECI KBLI 140026Z 16006KT 6SM -RA BR OVC020 14/13 A3007 RMK AO2 P0001=
201210140000 SPECI KBLI 140000Z 17009G15KT 2 1/2SM -RA BR BKN020 BKN028 OVC040 14/13 A3008 RMK AO2 P0000=
201210132353 METAR KBLI 132353Z 17010G20KT 3SM -RA BR BKN022 BKN028 OVC060 15/13 A3007 RMK AO2 SLP189 P0001 60004 T01500128 10161 20144 53002=
201210132253 METAR KBLI 132253Z 15006KT 3SM -RA BR SCT010 BKN028 OVC070 15/13 A3005 RMK AO2 RAB13 SLP184 P0000 T01500133=
201210132153 METAR KBLI 132153Z 16012G18KT 10SM OVC022 16/12 A3006 RMK AO2 SLP184 P0001 T01610122=
201210132053 METAR KBLI 132053Z 16013G19KT 10SM OVC018 16/12 A3007 RMK AO2 RAB09E18 SLP187 P0001 60002 T01560122 53001=
201210131953 METAR KBLI 131953Z 16010G20KT 10SM OVC018 15/12 A3006 RMK AO2 RAE37 SLP186 P0000 T01500122=
201210131853 METAR KBLI 131853Z 15010G17KT 10SM -RA OVC018 14/12 A3006 RMK AO2 RAB29 SLP186 P0001 T01440122=
201210131818 SPECI KBLI 131818Z 14011KT 10SM BKN018 BKN049 OVC065 15/12 A3006 RMK AO2=
201210131753 METAR KBLI 131753Z 15010KT 10SM OVC055 14/12 A3006 RMK AO2 RAE43 SLP188 P0001 60006 T01440122 10144 20128 53003=
201210131653 METAR KBLI 131653Z 16007KT 9SM -RA OVC080 14/12 A3005 RMK AO2 RAB02 SLP181 P0001 T01390117=
201210131553 METAR KBLI 131553Z 20003KT 10SM FEW021 BKN100 OVC120 13/12 A3005 RMK AO2 RAB28E48 SLP181 P0001 T01330117=
201210131537 SPECI KBLI 131537Z 18007G19KT 10SM -RA SCT017 BKN055 OVC120 14/11 A3004=
201210131453 METAR KBLI 131453Z 16010KT 10SM BKN019 OVC060 14/11 A3005 RMK AO2 SLP184 P0001 60003 T01390111 51014=
201210131427 SPECI KBLI 131427Z 15009G16KT 10SM SCT019 OVC065 13/11 A3004 RMK AO2 P0001=
201210131419 SPECI KBLI 131419Z 15010KT 10SM BKN019 BKN037 OVC065 13/11 A3004 RMK AO2=
201210131353 METAR KBLI 131353Z 16009G20KT 10SM SCT021 BKN036 BKN060 13/11 A3003 RMK AO2 SLP176 P0001 T01330106=
201210131253 METAR KBLI 131253Z AUTO 16007KT 10SM SCT095 13/11 A3001 RMK AO2 SLP171 P0001 T01280106=
201210131153 METAR KBLI 131153Z AUTO 16006KT 10SM BKN038 OVC100 13/11 A3002 RMK AO2 SLP173 P0001 60008 70015 T01330106 10133 20122 53015=
201210131053 METAR KBLI 131053Z AUTO 17012G20KT 10SM FEW017 OVC034 13/11 A3000 RMK AO2 RAE26 SLP166 P0001 T01280106=
201210131002 SPECI KBLI 131002Z AUTO 17008G18KT 10SM -RA FEW026 BKN034 OVC075 13/11 A2998 RMK AO2 P0000=
201210130953 METAR KBLI 130953Z AUTO 16008G15KT 10SM -RA FEW016 BKN028 OVC034 13/11 A2998 RMK AO2 RAB0855 SLP160 P0002 T01280106=
201210130853 METAR KBLI 130853Z AUTO 16005KT 10SM BKN027 OVC032 13/11 A2998 RMK AO2 RAB18E44 SLP157 P0001 60004 T01280111 53011=
201210130753 METAR KBLI 130753Z AUTO 16011G18KT 10SM BKN030 OVC034 13/11 A2995 RMK AO2 RAE51 SLP150 P0001 T01280106 401390094=
201210130653 METAR KBLI 130653Z AUTO 17011G17KT 8SM -RA FEW024 OVC031 12/11 A2994 RMK AO2 SLP146 P0002 T01220111=
201210130648 SPECI KBLI 130648Z AUTO 16010G18KT 5SM -RA BR FEW018 SCT024 OVC031 12/11 A2994 RMK AO2 P0002=
201210130553 METAR KBLI 130553Z AUTO 16008KT 10SM -RA BKN018 OVC035 13/11 A2991 RMK AO2 SLP137 P0001 60006 T01330111 10139 20122 53008=
201210130453 METAR KBLI 130453Z 17005KT 10SM -RA BKN020 OVC035 13/11 A2990 RMK AO2 SLP133 P0003 T01280111=
201210130353 METAR KBLI 130353Z 15011G15KT 7SM -RA BKN020 OVC035 13/11 A2989 RMK AO2 RAB02E12B32 SLP127 P0000 T01280106=
201210130253 METAR KBLI 130253Z 16009KT 10SM BKN020 OVC035 13/11 A2989 RMK AO2 RAE51 SLP128 P0002 60002 T01280111 53006=
201210130153 METAR KBLI 130153Z 16010G15KT 9SM -RA BKN023 OVC031 13/10 A2988 RMK AO2 RAB47 SLP125 P0000 T01330100=
201210130053 METAR KBLI 130053Z 16009G14KT 10SM BKN023 OVC034 14/09 A2987 RMK AO2 SLP121 T01390094=
201210122353 METAR KBLI 122353Z 15007G19KT 10SM BKN021 OVC032 14/09 A2987 RMK AO2 SLP122 T01390094 10139 20122 55000=
201210122253 METAR KBLI 122253Z 15013KT 10SM OVC021 14/09 A2987 RMK AO2 SLP121 T01390094=
201210122153 METAR KBLI 122153Z 15011G20KT 10SM BKN021 OVC028 14/09 A2987 RMK AO2 SLP122 T01390089=
201210122053 METAR KBLI 122053Z 15011G20KT 10SM OVC021 13/09 A2987 RMK AO2 SLP122 T01330089 58003=
201210121953 METAR KBLI 121953Z 17009KT 10SM BKN021 BKN027 OVC040 13/09 A2988=
201210121950 SPECI KBLI 121950Z 16008KT 10SM BKN021 BKN027 OVC040 13/09 A2988 RMK AO2=
201210121914 SPECI KBLI 121914Z 17010G18KT 10SM FEW022 BKN038 OVC045 12/10 A2988 RMK AO2=
201210121853 METAR KBLI 121853Z 17012G18KT 10SM BKN023 OVC035 12/10 A2988 RMK AO2 SLP125 T01220100=
201210121753 METAR KBLI 121753Z 17011G15KT 10SM BKN021 OVC025 12/09 A2987 RMK AO2 SLP121 60001 T01220094 10122 20100 53008=
201210121653 METAR KBLI 121653Z 17008KT 10SM OVC017 12/09 A2986 RMK AO2 RAB05E20 SLP117 P0000 T01170089=
201210121553 METAR KBLI 121553Z 16011G16KT 10SM OVC017 11/09 A2985 RMK AO2 RAB08E39 SLP116 P0000 T01110089=
201210121453 METAR KBLI 121453Z 16007KT 10SM BKN017 OVC028 11/08 A2984 RMK AO2 RAB01E33 SLP114 P0001 60001 T01060083 51009=
201210121431 SPECI KBLI 121431Z 17007KT 10SM -RA SCT015 BKN026 OVC034 10/08 A2985 RMK AO2 RAB01 P0001=
201210121424 SPECI KBLI 121424Z 18005G14KT 9SM -RA FEW013 BKN033 OVC070 10/08 A2985 RMK AO2 RAB01 P0001=
201210121417 SPECI KBLI 121417Z 17008KT 10SM -RA SCT013 BKN026 OVC070 10/08 A2984=
201210121353 METAR KBLI 121353Z 16010G14KT 8SM OVC013 10/08 A2984 RMK AO2 RAE05B34E51 SLP114 P0000 T01000083=
201210121325 SPECI KBLI 121325Z AUTO 18009G17KT 7SM SCT012 BKN018 OVC032 10/08 A2984 RMK AO2 RAE05 P0000=
201210121310 SPECI KBLI 121310Z AUTO 18008KT 6SM BR BKN012 BKN030 OVC070 10/08 A2983 RMK AO2 RAE05 P0000=
201210121253 METAR KBLI 121253Z AUTO 00000KT 7SM -RA SCT030 BKN065 OVC090 10/08 A2982 RMK AO2 RAB1154 SLP104 P0000 T01000083=
201210121153 METAR KBLI 121153Z AUTO 14008KT 10SM FEW032 SCT055 OVC090 11/08 A2982 RMK AO2 SLP104 T01060078 10106 20089 50010=
201210121111 SPECI KBLI 121111Z AUTO 15009G14KT 10SM FEW010 SCT021 OVC032 10/08 A2981 RMK AO2=
201210121053 METAR KBLI 121053Z AUTO 16008KT 10SM FEW010 OVC019 10/08 A2982 RMK AO2 SLP105 T01000078=
201210120952 METAR KBLI 120952Z AUTO 17007KT 10SM SCT009 OVC015 10/08 A2980 RMK AO2 SLP100 T01000078=
201210120951 SPECI KBLI 120951Z AUTO 17006G15KT 10SM SCT009 OVC015 10/08 A2980 RMK AO2=
201210120922 SPECI KBLI 120922Z AUTO 18007KT 10SM OVC009 10/08 A2979 RMK AO2 CIG 008V011=
201210120853 METAR KBLI 120853Z AUTO 15009KT 10SM OVC011 09/08 A2979 RMK AO2 SLP094 T00940078 58008=
201210120753 METAR KBLI 120753Z AUTO 17006KT 9SM OVC007 09/07 A2980 RMK AO2 SLP099 T00940072 401170067=
201210120653 METAR KBLI 120653Z AUTO 17005KT 9SM OVC009 10/08 A2981 RMK AO2 SLP100 T01000078=
201210120553 METAR KBLI 120553Z AUTO 00000KT 7SM OVC009 09/08 A2981 RMK AO2 SLP103 T00890078 10111 20067 50001=
201210120453 METAR KBLI 120453Z 00000KT 7SM OVC009 09/08 A2981 RMK AO2 SLP103 T00890078=
201210120353 METAR KBLI 120353Z 00000KT 7SM OVC011 09/07 A2982 RMK AO2 SLP106 T00890072=
201210120308 SPECI KBLI 120308Z 00000KT 7SM BKN011 08/07 A2981 RMK AO2=
201210120253 METAR KBLI 120253Z 00000KT 6SM BR CLR 07/06 A2981 RMK AO2 SLP103 T00720061 56012=
201210120153 METAR KBLI 120153Z 00000KT 8SM CLR 07/06 A2982 RMK AO2 SLP105 VCFG T00720056=
201210120053 METAR KBLI 120053Z 00000KT 9SM CLR 10/07 A2983 RMK AO2 SLP108 T01000072=
201210112353 METAR KBLI 112353Z 17003KT 10SM CLR 11/08 A2985 RMK AO2 SLP114 T01110078 10117 20100 57022=
201210112253 METAR KBLI 112253Z VRB03KT 10SM CLR 11/07 A2987 RMK AO2 SLP122 T01110072=
201210112236 SPECI KBLI 112236Z 00000KT 10SM SCT013 11/08 A2988 RMK AO2=
201210112153 METAR KBLI 112153Z 20003KT 10SM OVC015 11/07 A2989 RMK AO2 SLP128 T01110072=
201210112132 SPECI KBLI 112132Z 18004KT 10SM OVC015 12/07 A2990 RMK AO2=
201210112053 METAR KBLI 112053Z 00000KT 10SM OVC013 12/07 A2991 RMK AO2 SLP137 T01170072 58017=
201210111953 METAR KBLI 111953Z 00000KT 10SM OVC011 11/07 A2995 RMK AO2 SLP147 T01060072=
201210111853 METAR KBLI 111853Z 00000KT 8SM OVC011 11/08 A2996 RMK AO2 SLP153 T01060078=
201210111753 METAR KBLI 111753Z 05004KT 7SM OVC011 10/07 A2997 RMK AO2 SLP154 T01000072 10106 20089 58004=
201210111653 METAR KBLI 111653Z 00000KT 7SM BKN009 10/07 A2998 RMK AO2 SLP157 T01000072=
201210111607 SPECI KBLI 111607Z 00000KT 6SM BR BKN009 09/08 A2998 RMK AO2=
201210111600 SPECI KBLI 111600Z 00000KT 6SM BR OVC010 09/07 A2998 RMK AO2=
201210111553 METAR KBLI 111553Z 00000KT 5SM BR OVC090 09/07 A2997 RMK AO2 SLP157 T00940072=
201210111524 SPECI KBLI 111524Z 00000KT 5SM BR OVC010 09/07 A2997 RMK AO2=
201210111453 METAR KBLI 111453Z 00000KT 5SM BR OVC008 09/08 A2998 RMK AO2 SLP158 T00940078 55004=
201210111353 METAR KBLI 111353Z AUTO 00000KT 4SM BR OVC008 09/08 A2997 RMK AO2 SLP158 T00890078=
201210111253 METAR KBLI 111253Z AUTO 00000KT 4SM BR OVC008 09/08 A2998 RMK AO2 SLP159 T00890083=
201210111230 SPECI KBLI 111230Z AUTO 00000KT 4SM BR OVC008 09/08 A2998 RMK AO2=
201210111219 SPECI KBLI 111219Z AUTO 00000KT 2SM BR OVC008 09/08 A2998 RMK AO2=
201210111201 SPECI KBLI 111201Z AUTO 00000KT 1 1/2SM BR SCT003 OVC008 09/08 A2999 RMK AO2=
201210111153 METAR KBLI 111153Z AUTO 00000KT 1 3/4SM BR BKN003 OVC008 09/08 A2999 RMK AO2 SLP163 T00890083 10094 20089 58003=
201210111113 SPECI KBLI 111113Z AUTO 00000KT 1 3/4SM BR BKN003 OVC010 09/08 A2999 RMK AO2=
201210111101 SPECI KBLI 111101Z AUTO 00000KT 1 1/2SM BR SCT003 OVC010 09/08 A3000 RMK AO2=
201210111053 METAR KBLI 111053Z AUTO 00000KT 1 1/2SM BR SCT003 OVC008 09/08 A3000 RMK AO2 SLP166 T00890083=
201210111048 SPECI KBLI 111048Z AUTO 00000KT 1 1/2SM BR SCT003 OVC008 09/08 A3000 RMK AO2=
201210111004 SPECI KBLI 111004Z AUTO 00000KT 1 3/4SM BR FEW002 OVC010 09/08 A3000 RMK AO2=
201210110953 METAR KBLI 110953Z AUTO 00000KT 2SM BR SCT002 OVC010 09/08 A3000 RMK AO2 SLP167 T00890083=
201210110950 SPECI KBLI 110950Z AUTO 00000KT 2SM BR SCT002 OVC010 09/08 A3000 RMK AO2=
201210110914 SPECI KBLI 110914Z AUTO 00000KT 1 3/4SM BR BKN002 OVC010 09/08 A3000 RMK AO2=
201210110904 SPECI KBLI 110904Z AUTO 00000KT 1 3/4SM BR SCT002 OVC010 09/08 A3000 RMK AO2 CIG 006V011=
201210110853 METAR KBLI 110853Z AUTO 35003KT 2SM BR BKN002 OVC010 09/08 A3001 RMK AO2 SLP169 T00890083 58002=
201210110820 SPECI KBLI 110820Z AUTO 36003KT 1 3/4SM BR BKN002 OVC008 09/08 A3000 RMK AO2=
201210110753 METAR KBLI 110753Z AUTO 00000KT 2SM BR OVC004 09/08 A3001 RMK AO2 CIG 002V007 SLP171 T00890083 401060028=
201210110750 SPECI KBLI 110750Z AUTO 00000KT 2SM BR OVC004 09/08 A3001 RMK AO2 CIG 002V007 401060028=
201210110729 SPECI KBLI 110729Z AUTO 00000KT 2SM BR OVC006 09/08 A3001 RMK AO2 CIG 003V008=
201210110716 SPECI KBLI 110716Z AUTO 00000KT 3SM BR OVC006 09/08 A3001 RMK AO2 CIG 003V008=
201210110704 SPECI KBLI 110704Z AUTO 00000KT 4SM BR OVC004 09/08 A3001 RMK AO2 CIG 003V007=
201210110653 METAR KBLI 110653Z AUTO 00000KT 4SM BR OVC006 09/08 A3001 RMK AO2 CIG 003V009 SLP171 T00890083=
201210110553 METAR KBLI 110553Z AUTO 00000KT 4SM BR OVC006 09/08 A3001 RMK AO2 SLP171 T00940083 10106 20089 53003=
201210110453 METAR KBLI 110453Z 00000KT 5SM BR OVC006 09/08 A3001 RMK AO2 SLP170 T00940083=
201210110353 METAR KBLI 110353Z 00000KT 7SM OVC006 10/08 A3000 RMK AO2 SLP167 T01000083=
201210110253 METAR KBLI 110253Z 00000KT 8SM OVC006 10/08 A3000 RMK AO2 SLP168 T01000083 53003=
201210110153 METAR KBLI 110153Z 00000KT 8SM OVC006 10/08 A2999 RMK AO2 SLP164 T01000083=
201210110053 METAR KBLI 110053Z 00000KT 6SM BR OVC006 10/08 A2999 RMK AO2 SLP163 T01000083=
201210102353 METAR KBLI 102353Z 00000KT 7SM OVC006 11/08 A2999 RMK AO2 SLP165 T01060083 10106 20083 57007=
201210102253 METAR KBLI 102253Z AUTO 19003KT 7SM OVC006 11/08 A3000 RMK AO2 SLP168 T01060083 TSNO=
201210102153 METAR KBLI 102153Z 00000KT 7SM OVC006 10/08 A3001 RMK AO2 SLP169 T01000083=
201210102053 METAR KBLI 102053Z 17003KT 3SM BR OVC006 11/08 A3002 RMK AO2 SLP172 T01060083 58009=
201210102010 SPECI KBLI 102010Z 18003KT 3SM BR OVC006 10/08 A3002 RMK AO2=
201210101953 METAR KBLI 101953Z 18003KT 3SM BR OVC004 09/08 A3003 RMK AO2 SLP176 T00940083=
201210101853 METAR KBLI 101853Z 15004KT 1SM R16/P6000FT BR OVC002 09/08 A3003 RMK AO2 SLP178 T00890083=
201210101834 SPECI KBLI 101834Z 15003KT 1SM R16/P6000FT BR OVC002 09/08 A3004 RMK AO2=
201210101753 METAR KBLI 101753Z 16003KT 3/4SM R16/3500V5000FT BR OVC002 09/08 A3004 RMK AO2 SLP182 T00890083 10089 20028 51008=
201210101729 SPECI KBLI 101729Z 18003KT 3/4SM R16/4000V5500FT BR OVC002 08/08 A3003 RMK AO2=
201210101653 METAR KBLI 101653Z 15005KT 1/4SM R16/2000V4000FT FG VV001 08/08 A3003 RMK AO2 SLP179 T00830083=
201210101633 SPECI KBLI 101633Z 16005KT 1/4SM R16/1800V2400FT FG VV001 08/08 A3004 RMK AO2=
201210101553 METAR KBLI 101553Z 18003KT 1/4SM R16/1400V1600FT FG VV001 08/08 A3003 RMK AO2 SLP177 T00830078=
201210101534 SPECI KBLI 101534Z 18004KT 1/4SM R16/1400V1800FT FG VV000 08/08 A3003 RMK AO2=
201210101453 METAR KBLI 101453Z 00000KT 1/4SM R16/3500VP6000FT FG VV000 06/06 A3002 RMK AO2 SLP173 T00610061 53001=
201210101446 SPECI KBLI 101446Z 00000KT 1/4SM R16/3500VP6000FT FG VV000 06/06 A3002 RMK AO2=
201210101439 SPECI KBLI 101439Z 00000KT 3/4SM R16/4500VP6000FT BR VV001 06/05 A3002 RMK AO2=
201210101419 SPECI KBLI 101419Z 00000KT 1SM R16/P6000FT BR OVC001 05/04 A3002 RMK AO2=
201210101407 SPECI KBLI 101407Z 00000KT 2SM BR OVC001 05/04 A3002 RMK AO2=
201210101400 SPECI KBLI 101400Z 00000KT 4SM BR OVC001 05/04 A3002 RMK AO2=
201210101353 METAR KBLI 101353Z 00000KT 2SM BR OVC001 04/04 A3002 RMK AO2 SLP174 T00440039=
201210101340 SPECI KBLI 101340Z AUTO 00000KT 5SM BR OVC001 04/04 A3002 RMK AO2=
201210101325 SPECI KBLI 101325Z AUTO 00000KT 3SM BR OVC003 04/03 A3002 RMK AO2=
201210101321 SPECI KBLI 101321Z AUTO 00000KT 1SM R16/3000VP6000FT BR OVC003 04/03 A3002 RMK AO2=
201210101309 SPECI KBLI 101309Z AUTO 00000KT 1/2SM R16/2200V3500FT FG OVC003 03/03 A3001 RMK AO2 $=
201210101258 SPECI KBLI 101258Z AUTO 00000KT 1SM R16/1800VP6000FT BR VV002 04/03 A3001 RMK AO2 $=
201210101253 METAR KBLI 101253Z AUTO 00000KT 1/2SM R16/P6000FT FG VV002 04/03 A3001 RMK AO2 SLP171 T00390033 $=
201210101227 SPECI KBLI 101227Z AUTO 00000KT 1/4SM R16/1000V4000FT FG VV003 03/03 A3001 RMK AO2 $=
201210101220 SPECI KBLI 101220Z AUTO 00000KT 3/4SM R16/1400VP6000FT BR VV004 03/03 A3001 RMK AO2 $=
201210101209 SPECI KBLI 101209Z AUTO 00000KT 2SM R16/0800V3500FT BR OVC002 03/03 A3002 RMK AO2 VIS 3/4V5 $=
201210101204 SPECI KBLI 101204Z AUTO 00000KT 3/4SM R16/0800V1400FT BR VV002 04/03 A3002 RMK AO2 $=
201210101158 SPECI KBLI 101158Z AUTO 00000KT 1 1/2SM R16/0800VP6000FT BR OVC002 04/03 A3002 RMK AO2 $=
201210101153 METAR KBLI 101153Z AUTO 00000KT 3SM R16/1400VP6000FT BR OVC002 04/03 A3002 RMK AO2 SLP172 T00390028 10072 20028 58002 $=
201210101149 SPECI KBLI 101149Z AUTO 00000KT 1SM R16/1600VP6000FT BR VV002 03/03 A3002 RMK AO2 $=
201210101116 SPECI KBLI 101116Z AUTO 00000KT 1/4SM R16/1600V5000FT FG VV003 04/03 A3001 RMK AO2 $=
201210101101 SPECI KBLI 101101Z AUTO 00000KT 1/4SM R16/1400V2200FT FG VV002 04/03 A3002 RMK AO2 $=
201210101053 METAR KBLI 101053Z AUTO 00000KT 1/4SM R16/0700V2000FT FG VV001 04/03 A3002 RMK AO2 SLP173 T00390033 $=
201210101038 SPECI KBLI 101038Z AUTO 00000KT 1/4SM R16/0700V1400FT FG VV001 03/03 A3002 RMK AO2 $=
201210101026 SPECI KBLI 101026Z AUTO 00000KT 1/4SM R16/0700VP6000FT FG VV001 04/03 A3002 RMK AO2=
201210100958 SPECI KBLI 100958Z AUTO 00000KT 1/2SM R16/2000VP6000FT FG VV003 04/03 A3002 RMK AO2=
201210100953 METAR KBLI 100953Z AUTO 00000KT 1 1/2SM BR OVC003 04/03 A3003 RMK AO2 SLP176 T00440033=
201210100946 SPECI KBLI 100946Z AUTO 00000KT 1 1/2SM BR OVC003 03/03 A3002 RMK AO2 VIS 1/2V5=
201210100930 SPECI KBLI 100930Z AUTO 00000KT 3/4SM R16/P6000FT BR VV003 04/03 A3003 RMK AO2 VIS 1/4V4=
201210100927 SPECI KBLI 100927Z AUTO 00000KT 1 1/2SM BR BKN005 04/03 A3003 RMK AO2 VIS 1/2V5=
201210100916 SPECI KBLI 100916Z AUTO 00000KT 3SM BR BKN005 04/03 A3003 RMK AO2=
201210100913 SPECI KBLI 100913Z AUTO 00000KT 1 1/4SM R16/2600VP6000FT BR SCT005 04/04 A3003 RMK AO2=
201210100908 SPECI KBLI 100908Z AUTO 00000KT 3/4SM R16/2600VP6000FT BR VV006 04/04 A3003 RMK AO2=
201210100900 SPECI KBLI 100900Z AUTO 00000KT 1 1/2SM R16/2400VP6000FT BR FEW006 04/04 A3003 RMK AO2 VIS 1/2V5=
201210100853 METAR KBLI 100853Z AUTO 00000KT 3/4SM R16/2000VP6000FT BR VV005 05/04 A3002 RMK AO2 VIS 1/4V2 1/2 SLP175 T00500039 58008=
201210100848 SPECI KBLI 100848Z AUTO 00000KT 3/4SM R16/2000VP6000FT BR VV004 04/04 A3002 RMK AO2 VIS 1/2V2 1/2=
201210100845 SPECI KBLI 100845Z AUTO 00000KT 1 1/4SM R16/2000VP6000FT BR SCT003 04/04 A3002 RMK AO2=
201210100838 SPECI KBLI 100838Z AUTO 00000KT 1SM R16/P6000FT BR VV003 06/04 A3002 RMK AO2=
201210100801 SPECI KBLI 100801Z AUTO 00000KT 1/4SM R16/0800V3500FT FG VV002 06/04 A3003 RMK AO2=
201210100753 METAR KBLI 100753Z AUTO 00000KT 1/2SM R16/1000V1400FT FG VV003 04/04 A3003 RMK AO2 VIS 1/4V3 SLP179 T00440039 401220044=
201210100748 SPECI KBLI 100748Z AUTO 00000KT 1SM R16/1000V2600FT BR VV004 06/04 A3004 RMK AO2 VIS 1/4V3 401220050=
201210100721 SPECI KBLI 100721Z AUTO 00000KT 1/4SM R16/P6000FT FG VV002 06/05 A3004 RMK AO2=
201210100713 SPECI KBLI 100713Z AUTO 00000KT 1 1/4SM R16/1400VP6000FT BR BKN003 06/04 A3004 RMK AO2 VIS 1/4V5=
201210100711 SPECI KBLI 100711Z AUTO 00000KT 5SM R16/1400VP6000FT BR BKN003 06/05 A3004 RMK AO2=
201210100707 SPECI KBLI 100707Z AUTO 00000KT 5SM R16/1400VP6000FT BR SCT005 06/05 A3004 RMK AO2=
201210100653 METAR KBLI 100653Z AUTO 00000KT 5SM R16/5500VP6000FT BR CLR 06/05 A3004 RMK AO2 SLP180 T00610050=
201210100635 SPECI KBLI 100635Z AUTO 00000KT 3SM R16/3500VP6000FT BR FEW003 07/06 A3004 RMK AO2=
201210100633 SPECI KBLI 100633Z AUTO 00000KT 1 1/4SM R16/3500VP6000FT BR FEW003 07/06 A3004 RMK AO2=
201210100623 SPECI KBLI 100623Z AUTO 00000KT 1/4SM R16/P6000FT FG VV003 06/06 A3004 RMK AO2=
201210100613 SPECI KBLI 100613Z AUTO 00000KT 1/2SM R16/P6000FT FG CLR 07/06 A3004 RMK AO2 VIS 1/4V2=
201210100600 SPECI KBLI 100600Z AUTO 00000KT 1SM R16/P6000FT BR CLR 07/06 A3005 RMK AO2 VIS 1/2V4=
201210100553 METAR KBLI 100553Z AUTO 00000KT 7SM CLR 07/06 A3005 RMK AO2 SLP182 T00670056 10122 20061 52004=
201210100516 SPECI KBLI 100516Z 00000KT 7SM CLR 07/07 A3004 RMK AO2=
201210100502 SPECI KBLI 100502Z 00000KT 1 1/2SM BR CLR 07/06 A3005 RMK AO2 VIS 1/2V5=
201210100453 METAR KBLI 100453Z 00000KT 10SM CLR 08/07 A3004 RMK AO2 SLP181 T00830067=
201210100353 METAR KBLI 100353Z 16003KT 10SM CLR 10/09 A3004 RMK AO2 SLP179 T01000089=
201210100253 METAR KBLI 100253Z 17005KT 8SM CLR 11/09 A3004 RMK AO2 SLP178 T01110094 55006=
201210100153 METAR KBLI 100153Z 17006KT 9SM CLR 11/09 A3003 RMK AO2 SLP177 T01110089=
201210100053 METAR KBLI 100053Z 17005KT 8SM CLR 11/09 A3004 RMK AO2 SLP180 T01110089=
201210092353 METAR KBLI 092353Z 17006KT 9SM CLR 12/09 A3005 RMK AO2 SLP184 T01170089 10122 20106 58015=
201210092320 SPECI KBLI 092320Z 18007KT 9SM SCT007 12/09 A3007 RMK AO2=
201210092253 METAR KBLI 092253Z 17005KT 9SM OVC007 12/09 A3007 RMK AO2 SLP191 T01170089=
201210092153 METAR KBLI 092153Z VRB05KT 4SM BR OVC007 11/09 A3008 RMK AO2 SLP194 T01110089=
201210092053 METAR KBLI 092053Z VRB04KT 3SM HZ OVC007 12/09 A3010 RMK AO2 SLP199 T01170089 58009=
201210091953 METAR KBLI 091953Z 19005KT 4SM HZ OVC007 12/09 A3012 RMK AO2 SLP205 T01170089=
201210091853 METAR KBLI 091853Z 16006KT 4SM BR OVC007 11/09 A3012 RMK AO2 SLP207 T01110089=
201210091823 SPECI KBLI 091823Z 16008KT 4SM BR OVC005 11/09 A3012 RMK AO2=
201210091753 METAR KBLI 091753Z 16007KT 2SM BR OVC005 11/09 A3012 RMK AO2 SLP208 T01110089 10111 20094 50008=
201210091653 METAR KBLI 091653Z 17007KT 2SM BR OVC005 11/09 A3013 RMK AO2 SLP208 T01060089=
201210091615 SPECI KBLI 091615Z 16008KT 2SM BR OVC005 11/09 A3012 RMK AO2 CIG 003V009=
201210091553 METAR KBLI 091553Z 16008KT 2SM BR OVC003 10/09 A3011 RMK AO2 SLP202 T01000094=
201210091453 METAR KBLI 091453Z 16007KT 2SM BR OVC003 10/09 A3010 RMK AO2 SLP200 T01000094 51008=
201210091423 SPECI KBLI 091423Z 16009KT 1SM R16/P6000FT BR OVC003 10/09 A3009 RMK AO2=
201210091407 SPECI KBLI 091407Z 16007KT 3/4SM R16/5500VP6000FT BR OVC001 09/09 A3009 RMK AO2=
201210091400 SPECI KBLI 091400Z 16008KT 1SM R16/4500VP6000FT BR OVC001 09/09 A3008 RMK AO2=
201210091353 METAR KBLI 091353Z 16008KT 1/2SM R16/4000VP6000FT FG OVC001 09/09 A3008 RMK AO2 SLP194 T00940094=
201210091326 SPECI KBLI 091326Z AUTO 17006KT 1 1/2SM BR OVC001 09/09 A3008 RMK AO2=
201210091319 SPECI KBLI 091319Z AUTO 18009KT 2SM BR OVC001 09/09 A3008 RMK AO2=
201210091300 SPECI KBLI 091300Z AUTO 17006KT 1 1/4SM R16/5000VP6000FT BR OVC001 09/09 A3008 RMK AO2=
201210091253 METAR KBLI 091253Z AUTO 17007KT 3/4SM R16/3500V5500FT BR VV002 09/09 A3008 RMK AO2 SLP192 T00940094=
201210091235 SPECI KBLI 091235Z AUTO 17009KT 1/2SM R16/1800V2400FT FG VV002 09/09 A3007 RMK AO2=
201210091215 SPECI KBLI 091215Z AUTO 17009KT 1/4SM R16/1600V2200FT FG VV001 09/09 A3007 RMK AO2=
201210091201 SPECI KBLI 091201Z AUTO 17009KT 1/2SM R16/2000VP6000FT FG VV001 10/09 A3007 RMK AO2=
201210091153 METAR KBLI 091153Z AUTO 17008KT 1 1/4SM R16/3000VP6000FT BR OVC002 10/09 A3007 RMK AO2 SLP187 T01000094 10128 20072 51006=
201210091149 SPECI KBLI 091149Z AUTO 17008KT 1/2SM R16/1800VP6000FT FG OVC002 10/09 A3006 RMK AO2=
201210091140 SPECI KBLI 091140Z AUTO 17009KT 1/2SM R16/1800V6000FT FG OVC001 10/09 A3006 RMK AO2=
201210091135 SPECI KBLI 091135Z AUTO 17009KT 1 1/2SM R16/2200VP6000FT BR OVC001 10/09 A3006 RMK AO2=
201210091128 SPECI KBLI 091128Z AUTO 17008KT 3SM BR OVC001 10/09 A3006 RMK AO2=
201210091125 SPECI KBLI 091125Z AUTO 17009KT 1 3/4SM R16/4500VP6000FT BR OVC001 10/09 A3006 RMK AO2=
201210091115 SPECI KBLI 091115Z AUTO 17009KT 3/4SM R16/2600V5000FT BR OVC001 10/09 A3006 RMK AO2=
201210091103 SPECI KBLI 091103Z AUTO 17008KT 2 1/2SM BR BKN001 10/09 A3006 RMK AO2=
201210091053 METAR KBLI 091053Z AUTO 17008KT 6SM BR SCT003 10/09 A3006 RMK AO2 SLP185 T01000094=
201210090953 METAR KBLI 090953Z AUTO 17006KT 10SM CLR 12/09 A3005 RMK AO2 SLP181 T01170089=
201210090853 METAR KBLI 090853Z AUTO 16006KT 10SM CLR 12/09 A3004 RMK AO2 SLP179 T01170089 51016=
201210090753 METAR KBLI 090753Z AUTO 00000KT 10SM CLR 09/08 A3003 RMK AO2 SLP174 T00940078 401940033=
201210090653 METAR KBLI 090653Z AUTO 17005KT 10SM CLR 12/09 A3001 RMK AO2 SLP169 T01220094=
201210090553 METAR KBLI 090553Z AUTO 17008KT 10SM CLR 13/09 A2999 RMK AO2 SLP163 T01280089 10189 20111 53016=
201210090453 METAR KBLI 090453Z 18008KT 10SM CLR 13/08 A2997 RMK AO2 SLP155 T01330083=
201210090353 METAR KBLI 090353Z 18008KT 10SM CLR 13/08 A2996 RMK AO2 SLP153 T01330078=
201210090253 METAR KBLI 090253Z 17006KT 10SM CLR 13/08 A2995 RMK AO2 SLP148 T01330078 53003=
201210090153 METAR KBLI 090153Z 00000KT 10SM CLR 13/09 A2994 RMK AO2 SLP145 T01330089=
201210090053 METAR KBLI 090053Z 00000KT 10SM CLR 16/09 A2993 RMK AO2 SLP142 T01560089=
201210082353 METAR KBLI 082353Z 00000KT 10SM CLR 19/08 A2994 RMK AO2 SLP144 T01890078 10194 20150 56005=
201210082253 METAR KBLI 082253Z VRB03KT 10SM CLR 19/08 A2994 RMK AO2 SLP145 T01940078=
201210082153 METAR KBLI 082153Z VRB04KT 10SM CLR 19/08 A2994 RMK AO2 SLP146 T01940083=
201210082053 SPECI KBLI 082053Z 19005KT 10SM CLR 18/08 A2995 RMK AO2 SLP149 T01830083 58006=
201210082053 METAR KBLI 082053Z 19005KT 10SM CLR 18/08 A2995 RMK AO2 SLP149 T01830083 58006=
201210081953 METAR KBLI 081953Z VRB03KT 10SM CLR 18/08 A2996 RMK AO2 SLP152 T01780078=
201210081853 METAR KBLI 081853Z VRB03KT 10SM CLR 17/09 A2996 RMK AO2 SLP154 T01670089=
201210081753 METAR KBLI 081753Z 18004KT 10SM CLR 14/09 A2997 RMK AO2 SLP155 T01440089 10144 20033 53005=
201210081653 METAR KBLI 081653Z 00000KT 10SM CLR 13/09 A2997 RMK AO2 SLP156 T01330094=
201210081600 SPECI KBLI 081600Z 00000KT 10SM FEW002 10/08 A2995 RMK AO2=
201210081553 METAR KBLI 081553Z 00000KT 10SM CLR 09/08 A2995 RMK AO2 SLP149 T00940083=
201210081453 METAR KBLI 081453Z 00000KT 10SM CLR 05/04 A2995 RMK AO2 SLP151 FG VC T00500039 53007=
201210081402 SPECI KBLI 081402Z 00000KT 10SM CLR 04/03 A2994 RMK AO2 FG VC=
201210081353 METAR KBLI 081353Z 00000KT 2 1/2SM BR CLR 04/03 A2994 RMK AO2 SLP145 T00440033=
201210081253 METAR KBLI 081253Z AUTO 00000KT 10SM CLR 05/04 A2993 RMK AO2 SLP143 T00500039=
201210081153 METAR KBLI 081153Z AUTO 00000KT 8SM CLR 06/04 A2993 RMK AO2 SLP143 T00560044 10089 20039 57001=
201210081053 METAR KBLI 081053Z AUTO 00000KT 3SM BR CLR 06/04 A2993 RMK AO2 SLP142 T00560039=
201210080953 METAR KBLI 080953Z AUTO 00000KT 6SM BR CLR 06/04 A2994 RMK AO2 SLP144 T00560044=
201210080853 METAR KBLI 080853Z AUTO 00000KT 10SM CLR 06/04 A2994 RMK AO2 SLP144 T00560044 50002=
201210080753 METAR KBLI 080753Z AUTO 00000KT 10SM CLR 06/05 A2994 RMK AO2 SLP146 T00610050 402110028=
201210080653 METAR KBLI 080653Z AUTO 00000KT 10SM CLR 07/06 A2993 RMK AO2 SLP143 T00720056=
201210080553 METAR KBLI 080553Z AUTO 00000KT 10SM CLR 07/06 A2993 RMK AO2 SLP142 T00720056 10194 20072 54000=
201210080453 METAR KBLI 080453Z 00000KT 10SM CLR 09/06 A2993 RMK AO2 SLP142 T00890061=
201210080353 METAR KBLI 080353Z 00000KT 10SM CLR 10/06 A2993 RMK AO2 SLP142 T01000061=
201210080253 METAR KBLI 080253Z 00000KT 10SM CLR 12/07 A2993 RMK AO2 SLP143 T01170067 56009=
201210080153 METAR KBLI 080153Z 00000KT 10SM CLR 13/07 A2993 RMK AO2 SLP143 T01330072=
201210080053 METAR KBLI 080053Z 00000KT 10SM CLR 18/06 A2994 RMK AO2 SLP145 T01780061=
201210072353 METAR KBLI 072353Z 26005KT 10SM CLR 19/06 A2996 RMK AO2 SLP151 T01940061 10211 20161 58022=
201210072253 METAR KBLI 072253Z 28006KT 10SM CLR 21/07 A2998 RMK AO2 SLP157 T02110067=
201210072153 METAR KBLI 072153Z 28005KT 10SM CLR 20/08 A3001 RMK AO2 SLP168 T02000078=
201210072053 METAR KBLI 072053Z 29007KT 10SM CLR 20/08 A3002 RMK AO2 SLP173 T02000078 58021=
201210071953 METAR KBLI 071953Z 00000KT 10SM CLR 20/06 A3004 RMK AO2 SLP179 T02000061=
201210071853 METAR KBLI 071853Z 34006KT 10SM CLR 19/07 A3007 RMK AO2 SLP188 T01890067=
201210071753 METAR KBLI 071753Z 36006KT 10SM CLR 17/07 A3008 RMK AO2 SLP194 T01670067 10167 20028 55004=
201210071653 METAR KBLI 071653Z 35003KT 10SM CLR 13/07 A3008 RMK AO2 SLP194 T01280067=
201210071553 METAR KBLI 071553Z 00000KT 10SM CLR 09/07 A3009 RMK AO2 SLP197 T00940072=
201210071453 METAR KBLI 071453Z 00000KT 10SM CLR 04/03 A3009 RMK AO2 SLP199 T00440033 56002=
201210071353 METAR KBLI 071353Z 00000KT 10SM CLR 04/02 A3010 RMK AO2 SLP200 T00390022=
201210071253 METAR KBLI 071253Z AUTO 00000KT 10SM CLR 04/02 A3010 RMK AO2 SLP198 T00390022=
201210071153 METAR KBLI 071153Z AUTO 00000KT 6SM BR CLR 04/03 A3010 RMK AO2 SLP200 T00390028 10078 20033 58002=
201210071053 METAR KBLI 071053Z AUTO 00000KT 4SM BR CLR 04/03 A3011 RMK AO2 SLP202 T00440033=
201210070953 METAR KBLI 070953Z AUTO 00000KT 6SM BR CLR 06/04 A3011 RMK AO2 SLP202 T00610044=
201210070853 METAR KBLI 070853Z AUTO 00000KT 10SM CLR 07/05 A3011 RMK AO2 SLP205 T00670050 57006=
201210070753 METAR KBLI 070753Z AUTO 00000KT 10SM CLR 06/04 A3012 RMK AO2 SLP206 T00610044 402000017=
201210070653 METAR KBLI 070653Z AUTO 00000KT 10SM CLR 07/06 A3013 RMK AO2 SLP209 T00720061=
201210070553 METAR KBLI 070553Z AUTO 00000KT 10SM CLR 07/06 A3013 RMK AO2 SLP211 T00720056 10194 20072 56003=
201210070453 METAR KBLI 070453Z 00000KT 10SM CLR 08/06 A3013 RMK AO2 SLP211 T00780061=
201210070353 METAR KBLI 070353Z 00000KT 10SM CLR 10/07 A3014 RMK AO2 SLP214 T01000072=
201210070253 METAR KBLI 070253Z 00000KT 10SM CLR 11/07 A3014 RMK AO2 SLP215 T01060067 56006=
201210070153 METAR KBLI 070153Z 00000KT 10SM CLR 13/08 A3014 RMK AO2 SLP216 T01280078=
201210070053 METAR KBLI 070053Z 00000KT 10SM CLR 16/08 A3015 RMK AO2 SLP217 T01560078=
201210062353 METAR KBLI 062353Z 28003KT 10SM CLR 19/06 A3016 RMK AO2 SLP220 T01940061 10200 20156 56018=
201210062253 METAR KBLI 062253Z AUTO 28005KT 10SM CLR 20/05 A3018 RMK AO2 SLP226 T02000050 TSNO=
201210062153 METAR KBLI 062153Z 29005KT 10SM CLR 19/06 A3020 RMK AO2 SLP232 T01940061=
201210062053 METAR KBLI 062053Z 21006KT 10SM CLR 17/06 A3021 RMK AO2 SLP238 T01720061 58013=
201210061953 METAR KBLI 061953Z 20005KT 10SM CLR 17/07 A3023 RMK AO2 SLP245 T01670067=
201210061853 METAR KBLI 061853Z 16004KT 10SM CLR 17/07 A3024 RMK AO2 SLP249 T01720067=
201210061753 METAR KBLI 061753Z 00000KT 10SM CLR 16/05 A3025 RMK AO2 SLP251 T01560050 10156 20017 58001=
201210061653 METAR KBLI 061653Z 00000KT 10SM CLR 13/06 A3026 RMK AO2 SLP255 T01280056=
201210061553 METAR KBLI 061553Z 00000KT 10SM CLR 09/06 A3026 RMK AO2 SLP255 T00890061=
201210061453 METAR KBLI 061453Z 00000KT 10SM CLR 03/02 A3026 RMK AO2 SLP254 T00280017 51004=
201210061353 METAR KBLI 061353Z 00000KT 10SM CLR 02/01 A3025 RMK AO2 SLP253 T00220006=
201210061253 METAR KBLI 061253Z AUTO 00000KT 10SM CLR 03/02 A3024 RMK AO2 SLP249 T00330022=
201210061153 METAR KBLI 061153Z AUTO 00000KT 10SM CLR 03/02 A3024 RMK AO2 SLP248 T00330022 10072 20028 56005=
201210061053 METAR KBLI 061053Z AUTO 00000KT 10SM CLR 04/02 A3025 RMK AO2 SLP249 T00390022=
201210060953 METAR KBLI 060953Z AUTO 00000KT 10SM CLR 04/03 A3025 RMK AO2 SLP251 T00440033=
201210060907 SPECI KBLI 060907Z AUTO 00000KT 10SM CLR 06/04 A3025 RMK AO2=
201210060853 METAR KBLI 060853Z AUTO 00000KT 2SM BR CLR 04/03 A3026 RMK AO2 SLP253 T00440028 51007=
201210060753 METAR KBLI 060753Z AUTO 00000KT 9SM CLR 05/04 A3026 RMK AO2 SLP252 T00500039 402220006=
201210060653 METAR KBLI 060653Z AUTO 00000KT 10SM CLR 06/04 A3025 RMK AO2 SLP250 T00560039=
201210060553 METAR KBLI 060553Z AUTO 00000KT 10SM CLR 07/03 A3024 RMK AO2 SLP246 T00670033 10183 20061 53002=
201210060453 METAR KBLI 060453Z 00000KT 10SM CLR 07/03 A3023 RMK AO2 SLP244 T00720028=
201210060353 METAR KBLI 060353Z 00000KT 10SM CLR 07/03 A3023 RMK AO2 SLP245 T00720033=
201210060253 METAR KBLI 060253Z 00000KT 10SM CLR 11/04 A3023 RMK AO2 SLP245 T01060044 55001=
201210060153 METAR KBLI 060153Z 29006KT 10SM CLR 15/04 A3023 RMK AO2 SLP243 T01500039=
201210060053 METAR KBLI 060053Z 28005KT 10SM CLR 17/06 A3023 RMK AO2 SLP246 T01670056=
201210052353 METAR KBLI 052353Z 27006KT 10SM CLR 19/06 A3023 RMK AO2 SLP245 T01890061 10222 20178 56013=
201210052253 METAR KBLI 052253Z VRB04KT 10SM CLR 22/M01 A3025 RMK AO2 SLP250 T02221006=
201210052153 METAR KBLI 052153Z 36009G15KT 10SM CLR 22/M01 A3026 RMK AO2 SLP253 T02221006=
201210052053 METAR KBLI 052053Z 02008KT 10SM CLR 21/M01 A3027 RMK AO2 SLP258 T02111006 58013=
201210051953 METAR KBLI 051953Z 03009G16KT 10SM CLR 21/M01 A3029 RMK AO2 SLP264 T02061006=
201210051853 METAR KBLI 051853Z 02010G16KT 10SM CLR 19/00 A3030 RMK AO2 SLP268 T01940000=
201210051753 METAR KBLI 051753Z 02009G14KT 10SM CLR 17/01 A3031 RMK AO2 SLP272 T01720011 10172 20006 50003=
201210051653 METAR KBLI 051653Z 00000KT 10SM CLR 13/03 A3031 RMK AO2 SLP273 T01280033=
201210051553 METAR KBLI 051553Z 00000KT 10SM CLR 08/03 A3032 RMK AO2 SLP274 T00830028=
201210051453 METAR KBLI 051453Z 00000KT 10SM CLR 03/01 A3030 RMK AO2 SLP271 T00280006 53004=
201210051353 METAR KBLI 051353Z AUTO 35003KT 10SM CLR 02/00 A3030 RMK AO2 SLP268 T00170000=
201210051253 METAR KBLI 051253Z AUTO 00000KT 10SM CLR 02/00 A3029 RMK AO2 SLP266 T00220000=
201210051153 METAR KBLI 051153Z AUTO 00000KT 10SM CLR 02/01 A3029 RMK AO2 SLP265 T00170006 10061 20011 55002=
201210051053 METAR KBLI 051053Z AUTO 00000KT 10SM CLR 03/01 A3029 RMK AO2 SLP264 T00280006=
201210050953 METAR KBLI 050953Z AUTO 00000KT 10SM CLR 03/02 A3030 RMK AO2 SLP266 T00330017=
201210050920 SPECI KBLI 050920Z AUTO 00000KT 5SM BR CLR 03/02 A3029 RMK AO2=
201210050908 SPECI KBLI 050908Z AUTO 00000KT 1 1/2SM BR CLR 03/02 A3030 RMK AO2=
201210050853 METAR KBLI 050853Z AUTO 00000KT 6SM BR CLR 03/02 A3030 RMK AO2 SLP266 T00280022 53007=
201210050756 SPECI KBLI 050756Z AUTO 00000KT 3SM BR CLR 04/03 A3028 RMK AO2=
201210050753 METAR KBLI 050753Z AUTO 00000KT 1 1/2SM BR CLR 04/03 A3028 RMK AO2 VIS 1/2V5 SLP262 T00440033 402110000=
201210050748 SPECI KBLI 050748Z AUTO 00000KT 1 3/4SM BR CLR 04/03 A3029 RMK AO2 402110000=
201210050653 METAR KBLI 050653Z AUTO 00000KT 10SM CLR 05/03 A3028 RMK AO2 SLP260 T00500028=
201210050553 METAR KBLI 050553Z AUTO 00000KT 10SM CLR 05/04 A3027 RMK AO2 SLP259 T00500039 10156 20050 53004=
201210050453 METAR KBLI 050453Z 00000KT 10SM CLR 06/03 A3026 RMK AO2 SLP257 T00560033=
201210050353 METAR KBLI 050353Z 00000KT 10SM CLR 07/04 A3026 RMK AO2 SLP255 T00670044=
201210050253 METAR KBLI 050253Z 00000KT 10SM CLR 08/04 A3026 RMK AO2 SLP256 T00830044 58002=
201210050153 METAR KBLI 050153Z 00000KT 10SM CLR 11/05 A3027 RMK AO2 SLP257 T01110050=
201210050053 METAR KBLI 050053Z 28004KT 10SM CLR 14/06 A3027 RMK AO2 SLP257 T01440061=
201210042353 METAR KBLI 042353Z 28008KT 10SM CLR 15/06 A3027 RMK AO2 SLP257 T01500061 10211 20144 56006=
201210042253 METAR KBLI 042253Z 27008KT 10SM CLR 16/07 A3027 RMK AO2 SLP259 T01610067=
201210042153 METAR KBLI 042153Z 28007KT 10SM CLR 19/06 A3028 RMK AO2 SLP260 T01890061=
201210042053 METAR KBLI 042053Z 02009KT 10SM CLR 21/M03 A3029 RMK AO2 SLP263 T02061033 58011=
201210041953 METAR KBLI 041953Z 35012G18KT 10SM CLR 19/M01 A3030 RMK AO2 SLP268 T01891011=
201210041853 METAR KBLI 041853Z 35009G19KT 10SM CLR 18/M01 A3031 RMK AO2 SLP271 T01781011=
201210041753 METAR KBLI 041753Z 01011KT 10SM CLR 15/01 A3032 RMK AO2 SLP274 T01500006 10150 20000 50005=
201210041653 METAR KBLI 041653Z 35004KT 10SM CLR 12/01 A3032 RMK AO2 SLP275 T01170011=
201210041553 METAR KBLI 041553Z 35003KT 10SM CLR 08/02 A3032 RMK AO2 SLP275 T00830017=
201210041453 METAR KBLI 041453Z 00000KT 10SM CLR 03/01 A3030 RMK AO2 SLP269 T00280006 51004=
201210041353 METAR KBLI 041353Z AUTO 00000KT 10SM CLR 02/M01 A3030 RMK AO2 SLP268 T00171006=
201210041253 METAR KBLI 041253Z AUTO 00000KT 10SM CLR 01/M01 A3030 RMK AO2 SLP267 T00111006=
201210041153 METAR KBLI 041153Z AUTO 00000KT 10SM CLR 02/00 A3029 RMK AO2 SLP265 T00220000 10067 20017 58001=
201210041053 METAR KBLI 041053Z AUTO 00000KT 10SM CLR 02/00 A3029 RMK AO2 SLP266 T00220000=
201210040953 METAR KBLI 040953Z AUTO 00000KT 10SM CLR 03/01 A3029 RMK AO2 SLP266 T00280006=
201210040853 METAR KBLI 040853Z AUTO 00000KT 10SM CLR 02/01 A3029 RMK AO2 SLP265 T00220006 58002=
201210040753 METAR KBLI 040753Z AUTO 00000KT 10SM CLR 04/01 A3030 RMK AO2 SLP268 T00440011 402000039=
201210040653 METAR KBLI 040653Z AUTO 00000KT 10SM CLR 05/02 A3030 RMK AO2 SLP268 T00500017=
201210040553 METAR KBLI 040553Z AUTO 00000KT 10SM CLR 06/02 A3030 RMK AO2 SLP268 T00560017 10167 20050 55001=
201210040453 METAR KBLI 040453Z 00000KT 10SM CLR 06/02 A3030 RMK AO2 SLP267 T00610017=
201210040353 METAR KBLI 040353Z 00000KT 10SM CLR 07/02 A3030 RMK AO2 SLP268 T00720017=
201210040253 METAR KBLI 040253Z 00000KT 10SM CLR 09/02 A3030 RMK AO2 SLP269 T00940022 58008=
201210040153 METAR KBLI 040153Z 29004KT 10SM CLR 12/02 A3032 RMK AO2 SLP273 T01170022=
201210040053 METAR KBLI 040053Z 30006KT 10SM CLR 16/00 A3033 RMK AO2 SLP276 T01560000=
201210032353 METAR KBLI 032353Z 30008KT 10SM CLR 17/02 A3033 RMK AO2 SLP277 T01720017 10200 20156 56014=
201210032253 METAR KBLI 032253Z 26007KT 10SM CLR 17/04 A3034 RMK AO2 SLP281 T01720039=
201210032153 METAR KBLI 032153Z 01010G14KT 10SM CLR 19/M02 A3035 RMK AO2 SLP282 T01891017=
201210032053 METAR KBLI 032053Z 36011G16KT 10SM CLR 18/M01 A3037 RMK AO2 SLP290 T01831011 58013=
201210031953 METAR KBLI 031953Z 02012G19KT 10SM CLR 18/M01 A3039 RMK AO2 SLP296 T01781011=
201210031853 METAR KBLI 031853Z 02011G24KT 10SM CLR 17/M01 A3040 RMK AO2 SLP301 T01671011=
201210031753 METAR KBLI 031753Z 01017G26KT 10SM CLR 16/M02 A3041 RMK AO2 PK WND 02026/1749 SLP303 T01561017 10156 20100 50005=
201210031653 METAR KBLI 031653Z 36012G18KT 10SM CLR 14/M01 A3041 RMK AO2 SLP304 T01441011=
201210031553 METAR KBLI 031553Z 02009KT 10SM CLR 12/M01 A3040 RMK AO2 SLP301 T01221011=
201210031453 METAR KBLI 031453Z 01013G20KT 10SM CLR 11/M02 A3039 RMK AO2 SLP298 T01061017 51007=
201210031353 METAR KBLI 031353Z 02011G18KT 10SM CLR 11/M02 A3039 RMK AO2 SLP296 T01061022=
201210031253 METAR KBLI 031253Z AUTO 01012G20KT 10SM CLR 11/M02 A3038 RMK AO2 SLP294 T01061022=
201210031153 METAR KBLI 031153Z AUTO 02013G17KT 10SM CLR 11/M02 A3037 RMK AO2 SLP291 T01061022 10117 20089 50007=
201210031053 METAR KBLI 031053Z AUTO 02009G18KT 10SM CLR 10/M02 A3038 RMK AO2 SLP293 T01001022=
201210030953 METAR KBLI 030953Z AUTO 36008KT 10SM CLR 09/M02 A3036 RMK AO2 SLP289 T00941022=
201210030853 METAR KBLI 030853Z AUTO 36009KT 10SM CLR 10/M02 A3035 RMK AO2 SLP284 T01001022 51016=
201210030753 METAR KBLI 030753Z AUTO 36008KT 10SM CLR 10/M02 A3034 RMK AO2 SLP280 T01001022 401610067=
201210030653 METAR KBLI 030653Z AUTO 01009G17KT 10SM CLR 11/M02 A3032 RMK AO2 SLP274 T01111022=
201210030553 METAR KBLI 030553Z AUTO 02006KT 10SM CLR 09/01 A3030 RMK AO2 SLP268 T00940011 10161 20067 51020=
201210030453 METAR KBLI 030453Z 32003KT 10SM CLR 07/04 A3029 RMK AO2 SLP265 T00720044=
201210030353 METAR KBLI 030353Z 00000KT 10SM CLR 10/06 A3027 RMK AO2 SLP257 T01000056=
201210030253 METAR KBLI 030253Z 35003KT 10SM CLR 09/04 A3024 RMK AO2 SLP250 T00890044 53014=
201210030153 METAR KBLI 030153Z 30003KT 10SM CLR 11/05 A3022 RMK AO2 SLP242 T01110050=
201210030053 METAR KBLI 030053Z 35003KT 10SM CLR 15/04 A3021 RMK AO2 SLP236 T01500044=
201210022353 METAR KBLI 022353Z VRB06KT 10SM CLR 16/04 A3020 RMK AO2 SLP235 T01610039 10161 20122 53002=
201210022253 METAR KBLI 022253Z VRB04KT 10SM FEW075 16/05 A3021 RMK AO2 SLP235 T01560050=
201210022153 METAR KBLI 022153Z VRB04KT 10SM BKN041 15/04 A3019 RMK AO2 SLP231 T01500044=
201210022053 METAR KBLI 022053Z 32007KT 290V350 10SM CLR 14/04 A3020 RMK AO2 SLP233 T01440039 58004=
201210021953 METAR KBLI 021953Z 30011G18KT 10SM CLR 14/03 A3021 RMK AO2 SLP238 T01390028=
201210021853 METAR KBLI 021853Z 30009G19KT 10SM CLR 13/02 A3022 RMK AO2 SLP241 T01280017=
201210021753 METAR KBLI 021753Z 30008G16KT 10SM CLR 13/02 A3021 RMK AO2 SLP237 T01280017 10128 20083 52006=
201210021653 METAR KBLI 021653Z 27008G14KT 240V300 10SM CLR 12/02 A3020 RMK AO2 SLP233 T01220022=
201210021553 METAR KBLI 021553Z VRB04KT 10SM CLR 11/03 A3020 RMK AO2 SLP234 T01110028=
201210021453 METAR KBLI 021453Z 25003KT 10SM CLR 10/03 A3019 RMK AO2 SLP230 T01000028 53003=
201210021353 METAR KBLI 021353Z 00000KT 10SM CLR 09/03 A3018 RMK AO2 SLP228 T00890033=
201210021253 METAR KBLI 021253Z AUTO VRB03KT 10SM CLR 09/04 A3018 RMK AO2 SLP228 T00940039=
201210021153 METAR KBLI 021153Z AUTO 00000KT 10SM CLR 09/04 A3018 RMK AO2 SLP227 T00940044 10139 20083 51003=
201210021053 METAR KBLI 021053Z AUTO 00000KT 10SM CLR 10/05 A3018 RMK AO2 SLP226 T01000050=
201210020953 METAR KBLI 020953Z AUTO 00000KT 10SM CLR 11/06 A3018 RMK AO2 SLP227 T01110056=
201210020853 METAR KBLI 020853Z AUTO 00000KT 10SM CLR 11/07 A3017 RMK AO2 SLP223 T01110067 51012=
201210020753 METAR KBLI 020753Z AUTO 00000KT 10SM CLR 12/08 A3017 RMK AO2 SLP221 T01220078 402000056=
201210020653 METAR KBLI 020653Z AUTO VRB03KT 10SM CLR 13/09 A3016 RMK AO2 SLP219 T01330089=
201210020553 METAR KBLI 020553Z AUTO 00000KT 10SM BKN060 13/11 A3014 RMK AO2 SLP212 T01330106 10189 20128 51016=
201210020453 METAR KBLI 020453Z 00000KT 10SM BKN033 OVC060 14/11 A3013 RMK AO2 SLP209 T01440111=
201210020353 METAR KBLI 020353Z 22005KT 10SM SCT037 BKN050 16/12 A3012 RMK AO2 SLP206 T01560117=
201210020253 METAR KBLI 020253Z 17006KT 10SM CLR 16/12 A3009 RMK AO2 SLP197 T01610117 55004=
201210020153 METAR KBLI 020153Z 18009G15KT 10SM CLR 17/13 A3008 RMK AO2 SLP192 T01670128=
201210020053 METAR KBLI 020053Z 17011G17KT 10SM FEW045 BKN090 18/14 A3008 RMK AO2 SLP193 T01780139=
201210012353 METAR KBLI 012353Z 16011KT 10SM BKN047 OVC055 18/14 A3010 RMK AO2 SLP201 T01830144 10200 20139 58024=
201210012253 METAR KBLI 012253Z 17012G20KT 10SM BKN047 OVC055 19/14 A3013 RMK AO2 SLP210 T01940139=
201210012153 METAR KBLI 012153Z 17012KT 10SM BKN045 BKN110 19/13 A3015 RMK AO2 SLP217 T01890128=
201210012053 METAR KBLI 012053Z 17011KT 10SM OVC047 19/12 A3018 RMK AO2 SLP225 T01940117 56026=
201210011953 METAR KBLI 011953Z 18007G18KT 10SM FEW060 18/09 A3020 RMK AO2 SLP232 T01830094=
201210011853 METAR KBLI 011853Z 17011G18KT 10SM FEW038 SCT055 17/09 A3022 RMK AO2 SLP239 T01720089=
201210011753 METAR KBLI 011753Z 16008KT 10SM OVC070 14/09 A3025 RMK AO2 SLP251 T01390094 10139 20056 58014=
201210011653 METAR KBLI 011653Z 16004KT 10SM CLR 13/08 A3028 RMK AO2 SLP259 T01280083=
201210011553 METAR KBLI 011553Z 16006KT 10SM CLR 12/09 A3027 RMK AO2 SLP258 T01220089=
201210011453 METAR KBLI 011453Z 00000KT 10SM CLR 08/06 A3029 RMK AO2 SLP266 T00780061 56013=
201210011353 METAR KBLI 011353Z 00000KT 10SM CLR 06/05 A3031 RMK AO2 SLP271 T00610050=
201210011253 METAR KBLI 011253Z AUTO 00000KT 10SM CLR 07/05 A3031 RMK AO2 SLP272 T00670050=
201210011153 METAR KBLI 011153Z AUTO 00000KT 10SM CLR 06/06 A3033 RMK AO2 SLP278 T00610056 10094 20056 56007=
201210011053 METAR KBLI 011053Z AUTO 00000KT 10SM CLR 07/06 A3033 RMK AO2 SLP279 T00720061=
201210010953 METAR KBLI 010953Z AUTO 00000KT 10SM CLR 07/06 A3034 RMK AO2 SLP281 T00720061=
201210010853 METAR KBLI 010853Z AUTO 00000KT 10SM CLR 07/06 A3035 RMK AO2 SLP285 T00720061 58005=
201210010753 METAR KBLI 010753Z AUTO 00000KT 10SM CLR 08/07 A3036 RMK AO2 SLP287 T00830067 401830039=
201210010653 METAR KBLI 010653Z AUTO 00000KT 10SM CLR 09/07 A3037 RMK AO2 SLP290 T00890072=
201210010553 METAR KBLI 010553Z AUTO 00000KT 10SM CLR 08/07 A3037 RMK AO2 SLP291 T00830067 10178 20078 58002=
201210010453 METAR KBLI 010453Z 00000KT 10SM CLR 09/07 A3037 RMK AO2 SLP292 T00890067=
201210010353 METAR KBLI 010353Z 00000KT 10SM CLR 10/08 A3037 RMK AO2 SLP292 T01000078=
201210010253 METAR KBLI 010253Z 00000KT 10SM CLR 09/07 A3037 RMK AO2 SLP294 T00940072 50001=
201210010153 METAR KBLI 010153Z 26003KT 10SM CLR 13/08 A3038 RMK AO2 SLP294 T01280083=
201210010053 METAR KBLI 010053Z 26003KT 10SM CLR 17/07 A3037 RMK AO2 SLP292 T01670067=

# No short TAF reports from KBLI in databse.

###################################
#  large TAF from KBLI
###################################
201210312320 TAF KBLI 312320Z 0100/0124 14014G22KT P6SM -RA SCT035 BKN050 OVC080
                       TEMPO 0100/0104 5SM -RA BR BKN025 OVC050
                       FM010400 17010KT P6SM -RA SCT020 BKN030
                       OVC050 FM010700 16006KT P6SM -SHRA BKN020
                       OVC040 FM011000 14005KT P6SM -SHRA BKN015
                       OVC030 FM011600 16004KT P6SM -SHRA BKN025
                       OVC045 FM011900 17006KT P6SM -SHRA BKN030
                       OVC050=
201210312201 TAF AMD KBLI 312201Z 3122/0118 14014G22KT P6SM -RA SCT035 BKN050
                       OVC080
                      TEMPO 3122/0102 5SM -RA BR BKN030 OVC050
                       FM010200 16010KT P6SM -RA SCT020 BKN030
                       OVC050 FM010700 15005KT P6SM -SHRA BKN020
                       OVC040 FM011200 15005KT P6SM -SHRA BKN015
                       OVC030=
201210311734 TAF KBLI 311734Z 3118/0118 02006KT P6SM -RA SCT020 OVC045
                      TEMPO 3119/3121 4SM -RA BR BKN015 OVC040
                       FM312100 11006KT P6SM -RA SCT012 BKN020
                       OVC040 FM010300 15006KT P6SM -RA SCT020
                       BKN035 OVC050 FM010700 15005KT P6SM -SHRA
                       BKN020 OVC040 FM011200 15005KT P6SM -SHRA
                       BKN015 OVC030=
201210311653 TAF AMD KBLI 311653Z 3117/0112 03006KT P6SM -RA SCT020 OVC050
                      TEMPO 3119/3121 BKN020 OVC050 FM312100 VRB03KT
                       P6SM -RA SCT012 BKN020 OVC040 FM010300 17008KT
                       P6SM -SHRA SCT020 BKN035 BKN050=
201210311506 TAF AMD KBLI 311506Z 3115/0112 03006KT P6SM -RA OVC020 FM311800
                       VRB03KT P6SM -RA SCT012 BKN020 OVC040 FM010300
                       17008KT P6SM -SHRA SCT020 BKN035 BKN050=
201210311136 TAF KBLI 311136Z 3112/0112 01006KT P6SM -RA SCT004 BKN008 OVC015
                       TEMPO 3112/3116 3SM -RA BKN004 OVC008 FM311800
                       VRB03KT P6SM -RA SCT012 BKN020 OVC040 FM010300
                       17008KT P6SM -SHRA SCT020 BKN035 BKN050=
201210311014 TAF AMD KBLI 311014Z 3110/0106 01006KT 4SM -RA BKN004 OVC008 FM311400
                       01006KT 5SM -RA SCT004 BKN008 OVC015 FM311700
                       17008KT P6SM -RA BKN020 OVC040 FM010300
                       17008KT P6SM -SHRA SCT020 BKN035 BKN050=
201210310541 TAF KBLI 310541Z 3106/0106 03006KT 4SM -RA SCT008 OVC015 FM311700
                       17008KT P6SM -RA BKN020 OVC040 FM010300
                       17008KT P6SM -SHRA SCT020 BKN035 BKN050=
201210302320 TAF KBLI 302320Z 3100/3124 02005KT 5SM -RA BR SCT020 OVC040
                      TEMPO 3100/3104 3SM RA BR OVC020 FM310400
                       04005KT 5SM -RA BR BKN015 OVC030
                      TEMPO 3104/3108 3SM -RA BR OVC012 FM311700
                       17008KT P6SM -RA BKN020 OVC040=
201210302103 TAF AMD KBLI 302103Z 3021/3118 02005KT 5SM -RA BR OVC020 FM311000
                       17008KT P6SM -RA BKN020 OVC040=
201210301915 TAF AMD KBLI 301915Z 3019/3118 VRB03KT 5SM -RA BR BKN005 OVC020
                       FM302200 15006KT 4SM -RA BKN005 OVC012 FM311400
                       17008KT 5SM -RA SCT005 BKN012 OVC020=
201210301720 TAF KBLI 301720Z 3018/3118 VRB03KT P6SM -RA SCT005 SCT020 OVC040
                       TEMPO 3020/3022 5SM -RA BR BKN005 OVC020
                       FM302200 15006KT 4SM -RA BKN005 OVC012 FM311400
                       17008KT 5SM -RA SCT005 BKN012 OVC020=
201210301140 TAF KBLI 301140Z 3012/3112 16006KT P6SM -RA SCT030 OVC060
                      TEMPO 3012/3016 5SM -RA BKN030 OVC060 FM301600
                       VRB03KT P6SM -RA SCT015 OVC025
                      TEMPO 3016/3020 5SM -RA BKN015 OVC025 FM302300
                       VRB03KT 4SM RA SCT006 OVC012 FM310600 VRB03KT
                       5SM -RA BKN006 OVC012=
201210300540 TAF KBLI 300540Z 3006/3106 17006KT P6SM SCT025 BKN045 OVC070
                      TEMPO 3006/3009 BKN025 OVC045 FM301200 14006KT
                       P6SM -RA BKN030 OVC060 FM301600 14006KT
                       P6SM -RA OVC025 FM310200 VRB03KT 5SM -RA
                       SCT006 BKN012 OVC020=
201210292320 TAF KBLI 292320Z 3000/3024 18010KT P6SM SCT030 BKN060
                      TEMPO 3000/3004 BKN030 OVC060 FM300900 18008KT
                       P6SM -RA BKN030 OVC060 FM301400 15006KT
                       P6SM -RA OVC025=
201210291720 TAF KBLI 291720Z 2918/3018 20012G20KT P6SM SCT005 BKN025 BKN050
                       TEMPO 2918/2921 5SM -SHRA BR BKN005 OVC025
                       FM300300 18010G20KT P6SM SCT030 BKN060 OVC100
                       FM301000 16010KT P6SM -RA OVC040 FM301500
                       VRB04KT 5SM -RA SCT015 OVC025=
201210291355 TAF AMD KBLI 291355Z 2914/3012 VRB03KT 5SM -SHRA SCT012 OVC020
                       TEMPO 2914/2916 2SM -SHRA BR BKN007 OVC020
                       FM291600 18012KT P6SM -SHRA SCT018 BKN025
                       BKN040 FM292000 20010KT P6SM SCT020 BKN035
                       BKN050 FM300100 15006KT P6SM SCT035 BKN050
                       OVC070 FM300800 12008KT P6SM -RA OVC035=
201210291138 TAF KBLI 291138Z 2912/3012 VRB03KT 5SM -SHRA SCT012 OVC020 FM291500
                       18012KT P6SM -SHRA SCT018 BKN025 BKN040
                       FM292000 20010KT P6SM SCT020 BKN035 BKN050
                       FM300100 15006KT P6SM SCT035 BKN050 OVC070
                       FM300800 12008KT P6SM -RA OVC035=
201210290541 TAF KBLI 290541Z 2906/3006 VRB03KT P6SM -RA SCT035 OVC050 FM291200
                       VRB03KT 5SM -RA SCT012 OVC020 FM291500 18012KT
                       P6SM -SHRA SCT018 BKN025 BKN040 FM292000
                       20010KT P6SM VCSH SCT020 BKN035 FM300100
                       15006KT P6SM SCT035 BKN050 OVC070=
201210282334 TAF KBLI 282334Z 2900/2924 VRB04KT P6SM SCT030 OVC120 FM290300
                       VRB04KT P6SM -RA OVC030 FM290700 VRB03KT
                       4SM -RA SCT009 OVC015 FM291500 18010KT P6SM
                       -SHRA SCT018 BKN025 FM292000 20010KT P6SM
                       VCSH BKN030=
201210281726 TAF KBLI 281726Z 2818/2918 18010KT P6SM SCT030 BKN045 BKN120 FM282100
                       17008KT P6SM SCT050 BKN120 OVC200 FM290500
                       VRB03KT P6SM -RA OVC035 FM290900 VRB03KT
                       4SM -RA SCT012 OVC020 FM291500 18010KT P6SM
                       -SHRA SCT018 BKN025=
201210281140 TAF KBLI 281140Z 2812/2912 18006KT P6SM SCT035 BKN060 FM281600
                       VRB03KT P6SM SCT060 BKN200 FM290000 VRB03KT
                       P6SM SCT050 BKN100 OVC200 FM290500 VRB03KT
                       P6SM -RA OVC035 FM290900 VRB03KT 4SM -RA
                       SCT012 OVC020=
201210280540 TAF KBLI 280540Z 2806/2906 18010KT P6SM BKN012 OVC020 FM281100
                       18006KT P6SM SCT012 BKN020 OVC035 FM281500
                       VRB03KT P6SM SCT020 BKN040 FM281800 VRB03KT
                       P6SM SCT050 BKN200 FM290000 VRB03KT P6SM
                       SCT050 BKN100 OVC200 FM290500 VRB03KT P6SM
                       -RA OVC035=
201210280118 TAF AMD KBLI 280118Z 2801/2824 02006KT P6SM -RA OVC028
                      TEMPO 2801/2805 4SM RA BR OVC020 FM280500
                       18008KT P6SM -SHRA BKN018 OVC025 FM281200
                       19005KT P6SM VCSH BKN020 FM281800 18005KT
                       P6SM BKN030=
201210280046 TAF AMD KBLI 280046Z 2801/2824 03005KT P6SM -RA BKN023 OVC030 FM280500
                       18008KT P6SM -SHRA BKN018 OVC025 FM281200
                       19005KT P6SM VCSH BKN020 FM281800 18005KT
                       P6SM BKN030=
201210272330 TAF KBLI 272330Z 2800/2824 11007KT P6SM -RA SCT012 OVC025
                      TEMPO 2800/2804 4SM RA BR SCT009 BKN012 FM280500
                       18008KT P6SM -SHRA BKN018 OVC025 FM281200
                       19005KT P6SM VCSH BKN020 FM281800 18005KT
                       P6SM BKN030=
201210271732 TAF KBLI 271732Z 2718/2818 13005KT P6SM -RA SCT005 OVC020
                      TEMPO 2718/2722 4SM RA BR BKN005 OVC012 FM280600
                       18008KT P6SM -SHRA SCT010 BKN018 OVC030
                       FM281200 19005KT P6SM VCSH BKN015 FM281600
                       18005KT P6SM BKN030=
201210271138 TAF KBLI 271138Z 2712/2812 VRB03KT 5SM -RA OVC004 FM271500 VRB03KT
                       P6SM SCT006 OVC012 FM271800 VRB03KT P6SM
                       -RA SCT006 OVC012 FM272200 VRB03KT 3SM -RA
                       SCT005 OVC009 FM280600 18008KT P6SM SCT010
                       BKN018 OVC030=
201210270540 TAF KBLI 270540Z 2706/2806 VRB03KT 5SM -RA BR SCT004 OVC010
                      TEMPO 2706/2709 2SM -RA BR BKN004 OVC010
                       FM271000 VRB03KT P6SM SCT006 OVC012 FM271400
                       VRB03KT P6SM SCT018 BKN028 OVC040 FM271800
                       VRB03KT P6SM -RA OVC025=
201210262322 TAF KBLI 262322Z 2700/2724 03005KT P6SM -RA SCT020 BKN040 OVC050
                       FM270600 VRB03KT P6SM -RA OVC020 FM270900
                       VRB03KT P6SM OVC015 FM272000 18004KT 4SM
                       -RA OVC015=
201210261733 TAF KBLI 261733Z 2618/2718 02010KT P6SM -RA SCT030 OVC050
                      TEMPO 2618/2622 SCT025 OVC030 FM262200 VRB04KT
                       P6SM -RA OVC025 FM270400 12003KT P6SM OVC020
                       FM271200 18004KT 4SM -RA OVC015=
201210261125 TAF KBLI 261125Z 2612/2712 01007KT P6SM BKN060 OVC110
                      TEMPO 2612/2616 -RA FM261600 VRB04KT P6SM
                       -RA OVC030 FM270300 VRB03KT P6SM -RA OVC025
                       TEMPO 2708/2712 5SM -RA BR OVC015=
201210260525 TAF KBLI 260525Z 2606/2706 00000KT P6SM SCT100 OVC200 FM260900
                       VRB04KT P6SM BKN050 OVC120 FM261300 VRB04KT
                       P6SM -RA OVC030 FM270300 VRB03KT P6SM -RA
                       OVC025=
201210252326 TAF KBLI 252326Z 2600/2624 18005KT P6SM SCT025 BKN050 OVC200 FM260900
                       18004KT P6SM BKN050 OVC120 FM261300 20005KT
                       P6SM -RA OVC030=
201210251727 TAF KBLI 251727Z 2518/2618 VRB03KT P6SM BKN025 BKN050 FM252000
                       18005KT P6SM SCT040 BKN250 FM261000 18004KT
                       P6SM SCT040 OVC080 FM261300 20005KT P6SM
                       -RA OVC030=
201210251135 TAF KBLI 251135Z 2512/2612 03006KT P6SM OVC050 FM251800 16004KT
                       P6SM BKN050 FM252000 18005KT P6SM SCT050
                       BKN250 FM261000 09004KT P6SM SCT040 OVC080=
201210250520 TAF KBLI 250520Z 2506/2606 03006KT P6SM OVC060 FM250900 VRB03KT
                       P6SM OVC035 FM251900 16004KT P6SM BKN035
                       FM252100 18005KT P6SM SCT040 BKN250=
201210242320 TAF KBLI 242320Z 2500/2524 02004KT P6SM VCSH BKN035 BKN050 FM250200
                       VRB03KT P6SM SCT035 BKN050 FM250900 VRB03KT
                       P6SM OVC025 FM251700 16004KT P6SM BKN035
                       FM251900 18005KT P6SM SCT035 SCT050=
201210241739 TAF KBLI 241739Z 2418/2518 VRB04KT P6SM -SHRA BKN035 OVC045 FM242000
                       VRB04KT P6SM -SHRA BKN035 BKN045 FM250000
                       VRB04KT P6SM VCSH BKN040 BKN060 FM250600
                       VRB04KT P6SM FEW025 SCT040 BKN060 FM251100
                       VRB04KT P6SM OVC025 FM251700 18005KT P6SM
                       BKN035=
201210241120 TAF KBLI 241120Z 2412/2512 02009KT P6SM VCSH SCT040 OVC080 FM241400
                       01002KT P6SM VCSH BKN035 OVC060 FM242000
                       03005KT P6SM -SHRA OVC025 FM250000 00000KT
                       P6SM VCSH BKN035 OVC060 FM250900 03004KT
                       P6SM SCT045 BKN100=
201210240535 TAF KBLI 240535Z 2406/2506 06005KT P6SM OVC080 FM241400 01002KT
                       P6SM VCSH BKN035 OVC060 FM242000 03005KT
                       P6SM -SHRA OVC025 FM250000 00000KT P6SM
                       VCSH BKN035 OVC060=
201210232320 TAF KBLI 232320Z 2400/2424 02006KT P6SM -SHRA BKN030 BKN045 FM240600
                       05006KT P6SM VCSH BKN030 BKN080 BKN250 FM241200
                       06005KT P6SM BKN030 BKN045 FM241800 15008KT
                       P6SM SCT030 SCT045=
201210231720 TAF KBLI 231720Z 2318/2418 02004KT P6SM -SHRA SCT012 OVC025
                      TEMPO 2318/2322 -SHRA OVC012 FM232200 17006KT
                       P6SM -SHRA SCT025 OVC035 FM240600 05005KT
                       P6SM SCT035 BKN080 BKN250=
201210231120 TAF KBLI 231120Z 2312/2412 04004KT P6SM -SHRA SCT016 BKN024 OVC040
                       TEMPO 2312/2316 5SM -SHRA BR OVC016 FM232000
                       04006KT P6SM VCSH SCT030 OVC060 FM240600
                       06005KT P6SM SCT035 BKN080 BKN250=
201210230535 TAF KBLI 230535Z 2306/2406 19005KT P6SM -SHRA SCT004 BKN030 OVC040
                       TEMPO 2306/2310 4SM -SHRA BR BKN004 BKN020
                       OVC030 FM231200 17004KT P6SM -SHRA BKN020
                       OVC035 FM232100 20004KT P6SM VCSH SCT030
                       BKN080=
201210222321 TAF KBLI 222321Z 2300/2324 06006KT P6SM -RA BKN045 OVC060
                      TEMPO 2302/2304 BKN025 OVC040 FM230400 16006KT
                       5SM -SHRA BR BKN020 OVC035 FM231600 15008KT
                       P6SM VCSH SCT020 BKN035=
201210222320 TAF KBLI 222320Z 2300/2324 06006KT P6SM -RA BKN045 OVC060
                      TEMPO 2302/2304 BKN025 OVC040 FM230400 16006KT
                       5SM -SHRA BR BKN020 OVC035 FM231600 15008KT
                       P6SM VCSH SCT020 BKN035=
201210222114 TAF AMD KBLI 222114Z 2221/2318 04010KT P6SM BKN060 BKN150 FM230000
                       02008KT P6SM -RA BKN040 OVC060
                      TEMPO 2302/2306 BKN025 OVC040 FM230600 16006KT
                       5SM -RA BR BKN020 OVC035 FM231400 15008KT
                       P6SM -SHRA BKN025 BKN035=
201210221742 TAF KBLI 221742Z 2218/2318 04012G20KT P6SM SCT080 BKN150 FM230100
                       02008KT P6SM -RA BKN040 OVC060
                      TEMPO 2302/2306 BKN025 OVC040 FM230600 16006KT
                       5SM -RA BR BKN020 OVC035 FM231400 15008KT
                       P6SM -SHRA BKN025 BKN035=
201210221437 TAF AMD KBLI 221437Z 2215/2312 02012G20KT P6SM BKN090 OVC200 FM221700
                       04012G20KT P6SM OVC060 FM230100 02008KT
                       P6SM -RA BKN040 OVC060
                      TEMPO 2302/2306 BKN025 OVC040 FM230600 16006KT
                       5SM -RA BR BKN020 OVC035=
201210221120 TAF KBLI 221120Z 2212/2312 02006KT P6SM BKN090 OVC200 FM221700
                       04008KT P6SM OVC060 FM230100 02006KT P6SM
                       -RA BKN040 OVC060
                      TEMPO 2302/2306 BKN025 OVC040 FM230600 16006KT
                       5SM -RA BR BKN020 OVC035=
201210220527 TAF KBLI 220527Z 2206/2306 02004KT P6SM SCT060 BKN090 FM221700
                       04008KT P6SM OVC060 FM230100 02006KT P6SM
                       -RA BKN040 OVC060
                      TEMPO 2302/2306 BKN025 OVC040=
201210212320 TAF KBLI 212320Z 2200/2224 10006KT P6SM SCT035 BKN050 OVC070
                      TEMPO 2201/2204 -SHRA BKN035 BKN050 FM220500
                       03005KT P6SM FEW050 BKN150 FM221700 04008KT
                       P6SM OVC070=
201210212043 TAF AMD KBLI 212043Z 2121/2218 15008KT P6SM SCT027 SCT050 FM220500
                       03005KT P6SM FEW050 BKN150 FM221700 04008KT
                       P6SM OVC070=
201210211726 TAF KBLI 211726Z 2118/2218 14007KT P6SM SCT015 BKN030 BKN090
                      TEMPO 2118/2120 BKN015 OVC030 FM212100 15008KT
                       P6SM SCT035 BKN090 FM220500 03005KT P6SM
                       FEW050 BKN150 FM221700 04008KT P6SM OVC070=
201210211408 TAF AMD KBLI 211408Z 2114/2212 00000KT 3SM SHRA BR BKN015 OVC025
                       FM211600 15005KT P6SM SCT015 BKN025 OVC035
                       FM211800 15005KT P6SM SCT030 BKN100 FM220500
                       03005KT P6SM FEW050 BKN150=
201210211120 TAF KBLI 211120Z 2112/2212 13007KT P6SM FEW020 SCT035 BKN080
                      TEMPO 2112/2116 -SHRA SCT020 OVC030 FM211600
                       16008KT P6SM SCT030 BKN100 FM220500 03005KT
                       P6SM FEW050 BKN150=
201210210521 TAF KBLI 210521Z 2106/2206 16005KT P6SM SCT020 OVC070
                      TEMPO 2106/2110 -SHRA OVC020 FM211600 16008KT
                       P6SM SCT030 BKN080=
201210202328 TAF KBLI 202328Z 2100/2124 VRB03KT P6SM -SHRA BKN025 BKN050 FM210600
                       17008KT P6SM -SHRA OVC020 FM211600 18008KT
                       P6SM VCSH SCT025 BKN050=
201210201732 TAF KBLI 201732Z 2018/2118 18007KT P6SM VCSH SCT025 SCT070 FM210600
                       17008KT P6SM -SHRA OVC020 FM211600 18008KT
                       P6SM VCSH SCT025 BKN050=
201210201120 TAF KBLI 201120Z 2012/2112 17008KT P6SM SCT025 OVC070
                      TEMPO 2014/2018 -SHRA OVC025=
201210200521 TAF KBLI 200521Z 2006/2106 18010KT P6SM SCT020 OVC050
                      TEMPO 2006/2010 -SHRA OVC020 FM201000 19010KT
                       P6SM -SHRA BKN025 OVC050 FM210100 17006KT
                       P6SM -SHRA BKN020 OVC040=
201210192323 TAF KBLI 192323Z 2000/2024 16003KT P6SM -RA SCT035 OVC080 FM200400
                       17010G17KT P6SM -SHRA BKN020 OVC035 FM202000
                       18010KT P6SM VCSH SCT035 BKN050=
201210191720 TAF KBLI 191720Z 1918/2018 16007KT P6SM BKN070 FM200300 17010G17KT
                       P6SM -SHRA BKN020 OVC035=
201210191458 TAF AMD KBLI 191458Z 1915/2012 18009G16KT P6SM SCT007 BKN013 OVC050
                       TEMPO 1915/1918 5SM -SHRA BR BKN007 OVC013
                       FM191800 20010KT P6SM BKN020 BKN030 FM192100
                       19008KT P6SM SCT035 BKN090 FM200300 19010KT
                       P6SM -SHRA BKN020 OVC035=
201210191120 TAF KBLI 191120Z 1912/2012 17012G21KT P6SM SCT013 OVC025
                      TEMPO 1912/1916 5SM -SHRA BR OVC013 FM191800
                       20010KT P6SM BKN020 BKN030 FM192100 19008KT
                       P6SM SCT035 BKN090 FM200300 19010KT P6SM
                       -SHRA BKN020 OVC035=
201210190803 TAF AMD KBLI 190803Z 1908/2006 15014G22KT P6SM OVC015
                      TEMPO 1908/1910 5SM -SHRA BR SCT015 OVC040
                       FM191000 18010KT 5SM -SHRA BR OVC012 FM191800
                       20010KT P6SM BKN020 BKN030 FM192100 20010KT
                       P6SM SCT035 BKN090=
201210190522 TAF KBLI 190522Z 1906/2006 16010KT P6SM -SHRA BKN025 OVC050 FM191000
                       18010KT 5SM -SHRA BR OVC012 FM191800 20010KT
                       P6SM BKN020 BKN030 FM192100 20010KT P6SM
                       SCT035 BKN090=
201210190105 TAF AMD KBLI 190105Z 1901/1924 VRB03KT P6SM -RA SCT050 BKN070 OVC090
                       TEMPO 1901/1904 17012KT 4SM -RA BR BKN003
                       OVC050 FM190400 18012G18KT 4SM -RA BKN020
                       OVC030 FM191000 18012G18KT 2SM -RA BR OVC012
                       FM191800 20010KT P6SM -SHRA BKN020 BKN030=
201210182325 TAF KBLI 182325Z 1900/1924 VRB03KT P6SM -RA SCT050 BKN070 OVC090
                       TEMPO 1900/1904 17012KT 4SM -RA BR SCT020
                       BKN050 FM190400 18012G18KT 4SM -RA BKN020
                       OVC030 FM191000 18012G18KT 2SM -RA BR OVC012
                       FM191800 20010KT P6SM -SHRA BKN020 BKN030=
201210181830 TAF AMD KBLI 181830Z 1819/1918 03004KT P6SM -RA BKN070 OVC100 FM182000
                       16006KT P6SM -RA BKN060 OVC100 FM190000
                       17012KT P6SM -RA OVC030 FM190600 18012KT
                       P6SM -SHRA BKN025 OVC030 FM191400 18010KT
                       P6SM VCSH SCT025 OVC030=
201210181720 TAF KBLI 181720Z 1818/1918 03004KT P6SM BKN100 OVC200 FM182000
                       16006KT P6SM BKN060 OVC120 FM190000 17012KT
                       P6SM -RA OVC030 FM190600 18012KT P6SM -SHRA
                       BKN025 OVC030 FM191400 18010KT P6SM VCSH
                       SCT025 OVC030=
201210181120 TAF KBLI 181120Z 1812/1912 00000KT P6SM BKN100 OVC200 FM181600
                       03004KT P6SM BKN100 BKN200 FM190000 17012KT
                       P6SM -RA OVC030 FM190600 18012KT P6SM -SHRA
                       BKN025 OVC040=
201210180526 TAF KBLI 180526Z 1806/1906 00000KT P6SM BKN090 OVC200 FM181600
                       04004KT P6SM BKN100 BKN200 FM190000 17008KT
                       P6SM -RA OVC030=
201210172320 TAF KBLI 172320Z 1800/1824 16006KT P6SM SCT120 OVC200 FM181000
                       VRB04KT P6SM BKN060 OVC100 FM182300 18010KT
                       P6SM -RA BKN030 OVC060=
201210171720 TAF KBLI 171720Z 1718/1818 16006KT P6SM FEW025 SCT150 BKN250 FM172000
                       18005KT P6SM SCT150 BKN250 FM180000 16012KT
                       P6SM OVC120 FM181000 16012KT P6SM BKN060
                       OVC100=
201210171120 TAF KBLI 171120Z 1712/1812 16004KT P6SM SKC
                      TEMPO 1713/1716 2SM BR BKN002 FM171800 16006KT
                       P6SM SCT030 BKN120 FM180000 16008KT P6SM
                       OVC090 FM181000 16012KT P6SM OVC060=
201210171002 TAF AMD KBLI 171002Z 1710/1806 16004KT P6SM SCT015
                      TEMPO 1711/1715 5SM BR BKN015 FM171800 16006KT
                       P6SM SCT030 BKN120 FM180000 16008KT P6SM
                       OVC090=
201210170520 TAF KBLI 170520Z 1706/1806 20006KT P6SM SCT040 FM171000 16005KT
                       5SM BR BKN005
                      TEMPO 1712/1716 VRB04KT 2SM BR OVC003 FM171800
                       VRB04KT P6SM SCT030 BKN120=
201210162326 TAF KBLI 162326Z 1700/1724 18007KT P6SM SCT030 BKN070 FM170800
                       18008KT P6SM BKN030 FM171200 16005KT 5SM
                       BR SCT012 BKN025
                      TEMPO 1712/1716 3SM BR OVC012 FM171800 18005KT
                       P6SM BKN045 BKN150=
201210161720 TAF KBLI 161720Z 1618/1718 17007KT P6SM SCT025 BKN050 FM162000
                       20010KT P6SM SCT030 BKN050 FM170800 18008KT
                       P6SM BKN030 FM171200 16005KT 5SM BR SCT006
                       BKN018=
201210161125 TAF KBLI 161125Z 1612/1712 18010KT P6SM SCT025 BKN050
                      TEMPO 1614/1617 BKN025 BKN040 FM162000 25010KT
                       P6SM SCT030 BKN050 FM170800 18008KT P6SM
                       BKN030=
201210160737 TAF AMD KBLI 160737Z 1608/1706 VRB04KT P6SM SCT040 FM161000 25010KT
                       P6SM SCT020 BKN040
                      TEMPO 1610/1614 BKN020 BKN040 FM162000 25010KT
                       P6SM SCT030 BKN050=
201210160520 TAF KBLI 160520Z 1606/1706 17015G25KT P6SM VCSH BKN025 BKN050 FM161000
                       21012G20KT P6SM VCSH BKN020 BKN040 FM161800
                       20010KT P6SM SCT030 BKN040=
201210152320 TAF KBLI 152320Z 1600/1624 17019G34KT 4SM -RA SCT025 OVC030CB
                      TEMPO 1600/1604 2SM -TSRA BKN025CB FM160400
                       18022G37KT P6SM -SHRA BKN020 BKN040 FM160600
                       20015G22KT P6SM -SHRA BKN020 BKN040 FM161500
                       20010KT P6SM VCSH BKN020 BKN030 FM161800
                       20010KT P6SM SCT020 BKN030=
201210151736 TAF KBLI 151736Z 1518/1618 17011G16KT P6SM SCT008 OVC060 FM151900
                       17015G25KT P6SM SCT025 OVC050 FM152100 17019G34KT
                       P6SM -RA BKN025 OVC050
                      TEMPO 1523/1603 4SM RA BR OVC020 FM160300
                       18022G37KT P6SM -SHRA BKN020 BKN040 FM160600
                       20015G22KT P6SM -SHRA BKN020 BKN040 FM161500
                       20010KT P6SM VCSH BKN020 BKN040=
201210151432 TAF AMD KBLI 151432Z 1515/1612 18004KT 3SM BR BKN004 FM151700 17010KT
                       P6SM SCT015 BKN040 FM151900 16012G22KT P6SM
                       SCT025 BKN050 OVC120 FM152200 16017G27KT
                       P6SM -RA BKN025 OVC050
                      TEMPO 1522/1602 4SM RA BR OVC015 FM160300
                       21012G22KT P6SM -SHRA BKN020 BKN040=
201210151304 TAF AMD KBLI 151304Z 1513/1612 00000KT 1/4SM FG VV002
                      TEMPO 1515/1516 4SM BR SCT002 BKN015 FM151600
                       17010KT P6SM SCT015 BKN040 FM151900 16012G22KT
                       P6SM SCT025 BKN050 OVC120 FM152200 16017G27KT
                       P6SM -RA BKN025 OVC050
                      TEMPO 1522/1602 4SM RA BR OVC015 FM160300
                       21012G22KT P6SM -SHRA BKN020 BKN040=
201210151120 TAF KBLI 151120Z 1512/1612 17007KT P6SM SCT003 BKN050
                      TEMPO 1512/1515 5SM BR BKN003 OVC040 FM151600
                       17010KT P6SM SCT015 BKN040 FM151900 16012G22KT
                       P6SM SCT025 BKN050 OVC120 FM152200 16017G27KT
                       P6SM -RA BKN025 OVC050
                      TEMPO 1522/1602 4SM RA BR OVC015 FM160300
                       21012G22KT P6SM -SHRA BKN020 BKN040=
201210150721 TAF AMD KBLI 150721Z 1507/1606 17007KT P6SM SCT002 OVC025
                      TEMPO 1507/1510 5SM -DZ BR BKN002 OVC020
                       FM151000 17007KT P6SM OVC012 FM151600 17010KT
                       P6SM BKN015 BKN040 FM151900 16012G22KT P6SM
                       SCT025 BKN050 OVC120 FM152200 16017G27KT
                       P6SM -RA BKN025 OVC050
                      TEMPO 1522/1602 4SM RA BR OVC015 FM160300
                       21012G22KT P6SM -SHRA BKN020 BKN040=
201210150535 TAF KBLI 150535Z 1506/1606 17007KT P6SM SCT015 OVC035
                      TEMPO 1506/1510 5SM -DZ BR BKN012 OVC030
                       FM151000 17007KT P6SM OVC012 FM151600 17010KT
                       P6SM BKN015 BKN040 FM151900 16012G22KT P6SM
                       SCT025 BKN050 OVC120 FM152200 16017G27KT
                       P6SM -RA BKN025 OVC050
                      TEMPO 1522/1602 4SM RA BR OVC015 FM160300
                       21012G22KT P6SM -SHRA BKN020 BKN040=
201210142324 TAF KBLI 142324Z 1500/1524 15016G25KT P6SM -RA SCT020 BKN050 OVC070
                       FM150300 18010KT P6SM -SHRA BKN020 OVC040
                       FM150600 18005KT P6SM OVC020 FM151800 13008KT
                       P6SM VCSH SCT030 OVC080=
201210141722 TAF KBLI 141722Z 1418/1518 16020G35KT P6SM -RA FEW008 SCT025 OVC080
                       TEMPO 1418/1420 4SM -RA BR SCT008 OVC025
                       FM142000 17020G35KT 5SM -RA BR SCT008 OVC020
                       TEMPO 1420/1424 2SM -RA BR OVC008 FM150000
                       18010KT P6SM -SHRA BKN020 OVC040 FM150600
                       18005KT P6SM OVC020=
201210141621 TAF AMD KBLI 141621Z 1416/1512 15020G35KT P6SM FEW008 SCT035 OVC100
                       TEMPO 1416/1418 -RA SCT008 BKN035 OVC080
                       FM141800 16020G35KT P6SM -RA BKN025 OVC040
                       TEMPO 1419/1423 4SM -RA BR OVC015 FM142300
                       18010KT P6SM -SHRA BKN025 OVC045 FM150200
                       21008KT P6SM VCSH BKN020 BKN040=
201210141120 TAF KBLI 141120Z 1412/1512 16010G20KT P6SM SCT025 BKN050 OVC100
                       TEMPO 1412/1416 -RA BKN025 OVC040 FM141600
                       16015G25KT P6SM -RA OVC025
                      TEMPO 1420/1424 4SM -RA BR OVC015 FM150200
                       21008KT P6SM VCSH BKN020 BKN040=
201210140520 TAF KBLI 140520Z 1406/1506 16010G20KT P6SM SCT025 BKN050 OVC100
                       TEMPO 1406/1410 5SM -RA BR OVC020 FM141700
                       17015G25KT P6SM -RA OVC020 FM150300 21008KT
                       P6SM VCSH BKN020 BKN040=
201210140331 TAF AMD KBLI 140331Z 1404/1424 15012KT P6SM OVC017
                      TEMPO 1404/1408 4SM -RA BR OVC015 FM141200
                       17016G26KT 4SM -RA BR OVC015=
201210132330 TAF KBLI 132330Z 1400/1424 15006KT 3SM -RA BR SCT010 BKN028 OVC070
                       TEMPO 1400/1404 P6SM -RA OVC025 FM140600
                       16005KT P6SM -RA OVC025 FM141200 17016G26KT
                       4SM -RA BR OVC015=
201210132002 TAF AMD KBLI 132002Z 1320/1418 16010G20KT P6SM VCSH OVC018 FM132200
                       17006KT P6SM OVC025
                      TEMPO 1322/1402 P6SM -RA OVC025 FM140200
                       16005KT P6SM -RA OVC025 FM141200 17012G22KT
                       4SM -RA BR OVC015=
201210131720 TAF KBLI 131720Z 1318/1418 16007KT P6SM -RA OVC080 FM132200 17006KT
                       P6SM OVC025
                      TEMPO 1322/1402 P6SM -RA OVC025 FM140200
                       16005KT P6SM -RA OVC025 FM141200 17012G22KT
                       4SM -RA BR OVC015=
201210131502 TAF AMD KBLI 131502Z 1315/1412 16010KT P6SM -RA BKN019 OVC060 FM132200
                       17012KT P6SM -RA SCT020 OVC035 FM140700
                       18012G22KT P6SM -RA OVC020=
201210131120 TAF KBLI 131120Z 1312/1412 17012G20KT P6SM VCSH SCT015 OVC040 FM132200
                       17012KT P6SM -RA SCT020 OVC035 FM140700
                       18012G22KT P6SM -RA OVC020=
201210130521 TAF KBLI 130521Z 1306/1406 18008KT P6SM VCSH BKN020 OVC035 FM132000
                       20010KT P6SM SCT020 BKN035 FM140300 17012KT
                       P6SM -RA OVC035=
201210122349 TAF KBLI 122349Z 1300/1324 15012KT P6SM OVC020 FM130300 12008KT
                       P6SM VCSH OVC020 FM131000 17006KT P6SM OVC015
                       FM131900 18012G20KT P6SM BKN020 OVC030=
201210121746 TAF KBLI 121746Z 1218/1318 17010KT P6SM VCSH OVC015 FM122100 18012KT
                       P6SM -RA OVC025 FM130600 18010KT P6SM VCSH
                       OVC020=
201210121120 TAF KBLI 121120Z 1212/1312 16008KT P6SM FEW010 OVC019 FM121300
                       17010KT 6SM -RA SCT015 OVC030 FM122100 18012KT
                       P6SM -RA SCT020 OVC035 FM130600 18010KT
                       P6SM BKN025 BKN035=
201210120546 TAF KBLI 120546Z 1206/1306 00000KT 5SM BR OVC009 FM121100 18008KT
                       P6SM BKN012 OVC030 FM121500 17013KT P6SM
                       -RA SCT015 OVC030 FM122100 18012KT P6SM
                       VCSH SCT020 OVC035 FM130400 18010KT P6SM
                       SCT025 BKN035=
201210112323 TAF KBLI 112323Z 1200/1224 VRB03KT P6SM FEW010 SCT250 FM120600
                       18003KT P6SM BKN200 FM121100 18010KT P6SM
                       BKN012 OVC030 FM121400 17014KT P6SM -RA
                       SCT015 OVC030 FM122100 18012KT P6SM VCSH
                       SCT020 BKN035 BKN050=
201210112236 TAF AMD KBLI 112236Z 1123/1218 00000KT P6SM BKN011 FM112330 20004KT
                       P6SM SCT015 SCT250 FM120600 18003KT P6SM
                       BKN200 FM121400 18010KT P6SM BKN012 OVC030=
201210111721 TAF KBLI 111721Z 1118/1218 00000KT P6SM OVC011 FM112200 20004KT
                       P6SM SCT015 SCT250 FM120600 18003KT P6SM
                       BKN200 FM121400 18010KT P6SM BKN012 OVC030=
201210111328 TAF AMD KBLI 111328Z 1113/1212 00000KT 4SM BR OVC008 FM112200 20004KT
                       P6SM SCT015 SCT250 FM120600 18003KT P6SM
                       BKN200=
201210111125 TAF KBLI 111125Z 1112/1212 00000KT 1 1/2SM BR SCT003 OVC010
                      TEMPO 1112/1115 3/4SM BR OVC003 FM112200
                       20004KT P6SM SCT015 SCT250 FM120600 18003KT
                       P6SM BKN200=
201210110824 TAF AMD KBLI 110824Z 1108/1206 00000KT 2SM BR OVC005
                      TEMPO 1110/1114 1SM BR FM112200 20003KT P6SM
                       SCT015 SCT250 FM120400 18003KT P6SM BKN200=
201210110534 TAF KBLI 110534Z 1106/1206 19003KT 4SM BR OVC006 FM110800 00000KT
                       1/2SM FG OVC001 FM112200 20003KT P6SM SCT250
                       FM120400 18003KT P6SM BKN200=
201210102332 TAF KBLI 102332Z 1100/1124 19003KT P6SM OVC006 FM110800 00000KT
                       1/2SM FG OVC001 FM112200 20003KT P6SM SCT250=
201210102104 TAF AMD KBLI 102104Z 1021/1118 17003KT 3SM BR OVC006
                      TEMPO 1021/1023 4SM BR BKN003 FM102300 15005KT
                       P6SM SCT004 FM110400 00000KT 6SM BR SKC
                       FM110800 00000KT 1SM BR BKN002=
201210101906 TAF AMD KBLI 101906Z 1019/1118 15004KT 1SM BR OVC002
                      TEMPO 1019/1021 4SM BR BKN003 FM102100 15005KT
                       P6SM SCT004 FM110400 00000KT 6SM BR SKC
                       FM110800 00000KT 1SM BR BKN002=
201210101728 TAF KBLI 101728Z 1018/1118 15005KT 1/4SM FG VV001 FM101900 15006KT
                       P6SM SCT006 FM110400 00000KT 6SM BR SKC
                       FM110800 00000KT 1SM BR BKN002=
201210101521 TAF AMD KBLI 101521Z 1015/1112 00000KT 1/4SM FG VV000
                      TEMPO 1015/1018 1SM BR OVC002 FM101800 17006KT
                       P6SM SCT025 FM110400 00000KT 6SM BR SKC
                       FM110800 00000KT 1SM BR BKN002=
201210101348 TAF AMD KBLI 101348Z 1014/1112 00000KT 5SM BR OVC001
                      TEMPO 1014/1016 1SM BR FM101800 17006KT P6SM
                       SCT025 FM110400 00000KT 6SM BR SKC FM110800
                       00000KT 1SM BR BKN002=
201210101120 TAF KBLI 101120Z 1012/1112 00000KT 1/4SM FG VV002 FM101900 17006KT
                       P6SM SCT025 FM110400 00000KT 6SM BR SKC
                       FM110800 00000KT 1SM BR BKN002=
201210100931 TAF AMD KBLI 100931Z 1010/1106 00000KT 3SM BR BKN005
                      TEMPO 1010/1014 3/4SM BR BKN004 FM102000
                       17006KT P6SM SCT025 FM110400 00000KT P6SM
                       SKC=
201210100829 TAF AMD KBLI 100829Z 1008/1106 00000KT 1/4SM FG VV002 FM102000
                       17006KT P6SM SCT025 FM110400 00000KT P6SM
                       SKC=
201210100639 TAF AMD KBLI 100639Z 1007/1106 00000KT 1/2SM FG VV003
                      TEMPO 1007/1010 3SM BR FEW003 FM101000 18003KT
                       P6SM BKN006 FM101200 17004KT 4SM BR OVC005
                       FM102000 17006KT P6SM SCT025=
201210100630 KBLI 100630Z 1007/1106 00000KT 1/4SM FG VV003 FM101000 18003KT
                       P6SM BKN006 FM101200 17004KT 4SM BR OVC005
                       FM102000 17006KT P6SM SCT025=
201210100536 TAF KBLI 100536Z 1006/1106 17005KT P6SM SCT007
                      TEMPO 1006/1010 3SM BR BKN007 FM101000 18003KT
                       P6SM BKN006 FM101200 17004KT 4SM BR OVC005
                       FM102000 17006KT P6SM SCT025=
201210092323 TAF KBLI 092323Z 1000/1024 17005KT P6SM SCT007 FM100900 18003KT
                       P6SM BKN006 FM101200 17004KT 4SM BR OVC005
                       FM102000 17004KT P6SM SKC=
201210092104 TAF AMD KBLI 092104Z 0921/1018 VRB04KT 3SM BR OVC007 FM092200 21004KT
                       P6SM SCT008 FM092300 22004KT P6SM SKC FM100900
                       18003KT P6SM BKN006 FM101200 17004KT 4SM
                       BR OVC008=
201210091925 TAF AMD KBLI 091925Z 0919/1018 16006KT 4SM BR OVC007 FM092100 17006KT
                       P6SM SCT007 FM092300 22004KT P6SM SKC FM100900
                       18003KT P6SM BKN006 FM101200 17004KT 4SM
                       BR OVC008=
201210091720 TAF KBLI 091720Z 0918/1018 17007KT 2SM BR OVC005 FM092000 17006KT
                       P6SM SCT007 FM092300 22004KT P6SM SKC FM100900
                       18003KT P6SM BKN006 FM101200 17004KT 4SM
                       BR OVC008=
201210091127 TAF AMD KBLI 091127Z 0911/1012 18007KT 6SM BR OVC003
                      TEMPO 0912/0916 1SM BR OVC001 FM091800 16005KT
                       P6SM SCT005 FM100900 18003KT P6SM BKN006=
201210091120 TAF KBLI 091120Z 0912/1012 18007KT 6SM BR OVC003
                      TEMPO 0912/0916 2SM BR OVC001 FM091800 16005KT
                       P6SM SCT005 FM100900 18003KT P6SM BKN006=
201210090554 TAF KBLI 090554Z 0906/1006 18008KT P6SM SKC FM091500 VRB02KT 1/2SM
                       FG SCT001 FM091800 VRB03KT P6SM SKC=
201210082326 TAF KBLI 082326Z 0900/0924 VRB03KT P6SM SKC FM091500 VRB02KT 1/2SM
                       FG SCT001 FM091800 VRB03KT P6SM SKC=
201210081722 TAF KBLI 081722Z 0818/0918 00000KT P6SM SKC FM091500 VRB02KT 1/2SM
                       FG SCT001=
201210081130 TAF KBLI 081130Z 0812/0912 VRB03KT P6SM VCFG SKC FM081400 VRB03KT
                       P6SM SKC=
201210080542 TAF KBLI 080542Z 0806/0906 VRB03KT P6SM SKC FM081300 VRB03KT P6SM
                       VCFG SKC FM081500 VRB03KT P6SM SKC=
201210072322 TAF KBLI 072322Z 0800/0824 29006KT P6SM SKC FM080200 VRB03KT P6SM
                       SKC FM081300 VRB03KT P6SM VCFG SKC FM081700
                       04006KT P6SM SKC FM082100 29006KT P6SM SKC=
201210071728 TAF KBLI 071728Z 0718/0818 VRB03KT P6SM SKC FM072100 29006KT P6SM
                       SKC FM080200 VRB03KT P6SM SKC FM081300 VRB03KT
                       P6SM VCFG SKC=
201210071132 TAF KBLI 071132Z 0712/0812 00000KT P6SM SKC
                      TEMPO 0712/0714 4SM BR FM072100 29006KT P6SM
                       SKC FM080100 00000KT P6SM SKC=
201210070528 TAF KBLI 070528Z 0706/0806 00000KT P6SM SKC FM072100 29006KT P6SM
                       SKC FM080100 00000KT P6SM SKC=
201210062325 TAF KBLI 062325Z 0700/0724 28005KT P6SM SKC FM070300 19004KT P6SM
                       SKC FM070900 VRB03KT P6SM SKC FM072100 29007KT
                       P6SM SKC=
201210061746 TAF KBLI 061746Z 0618/0718 03008KT P6SM SKC FM070300 19004KT P6SM
                       SKC FM070900 VRB03KT P6SM SKC=
201210061130 TAF KBLI 061130Z 0612/0712 00000KT P6SM SKC FM061800 03008KT P6SM
                       SKC FM062300 29006KT P6SM SKC FM070300 00000KT
                       P6SM SKC=
201210060538 TAF KBLI 060538Z 0606/0706 00000KT P6SM SKC FM061800 03008KT P6SM
                       SKC FM062300 29006KT P6SM SKC FM070300 00000KT
                       P6SM SKC=
201210052320 TAF KBLI 052320Z 0600/0624 35007KT P6SM SKC FM060200 00000KT P6SM
                       SKC FM061800 03008KT P6SM SKC=
201210051924 KBLI 051924Z 0519/0618 02010KT P6SM SKC FM052200 29007KT P6SM SKC
                       FM060200 00000KT P6SM SKC=
201210051720 TAF KBLI 051720Z 0518/0618 31006KT P6SM SKC FM060200 00000KT P6SM
                       SKC=
201210051128 TAF KBLI 051128Z 0512/0612 VRB03KT P6SM SKC FM051700 02006KT P6SM
                       SKC FM052100 29006KT P6SM SKC FM060200 VRB03KT
                       P6SM SKC=
201210050532 TAF KBLI 050532Z 0506/0606 VRB03KT P6SM SKC FM051700 02006KT P6SM
                       SKC FM052100 29006KT P6SM SKC FM060200 VRB03KT
                       P6SM SKC=
201210042334 TAF KBLI 042334Z 0500/0524 32008KT P6SM SKC FM050100 VRB03KT P6SM
                       SKC FM051700 04010KT P6SM SKC FM052100 31006KT
                       P6SM SKC=
201210041914 KBLI 041914Z 0419/0518 36011KT P6SM SKC FM042200 32008KT P6SM SKC
                       FM050100 VRB03KT P6SM SKC=
201210041721 TAF KBLI 041721Z 0418/0518 02008KT P6SM SKC FM042200 32008KT P6SM
                       SKC FM050100 VRB03KT P6SM SKC=
201210041136 TAF KBLI 041136Z 0412/0512 VRB03KT P6SM SKC FM041700 03008KT P6SM
                       SKC FM042100 33006KT P6SM SKC FM050300 VRB03KT
                       P6SM SKC=
201210040534 TAF KBLI 040534Z 0406/0506 VRB03KT P6SM SKC FM041700 03009KT P6SM
                       SKC FM042100 33006KT P6SM SKC=
201210032327 TAF KBLI 032327Z 0400/0424 25005KT P6SM SKC FM040200 VRB03KT P6SM
                       SKC FM041700 03009KT P6SM SKC FM042100 33006KT
                       P6SM SKC=
201210031744 TAF KBLI 031744Z 0318/0418 01012G20KT P6SM SKC FM032300 02010KT
                       P6SM SKC FM040200 02005KT P6SM SKC=
201210031531 KBLI 031531Z 0316/0412 02012G20KT P6SM SKC FM032100 02012KT P6SM
                       SKC FM040000 35006KT P6SM SKC=
201210031309 KBLI 031309Z 0313/0412 01012G20KT P6SM SKC FM031700 03011KT P6SM
                       SKC FM040300 03006KT P6SM SKC=
201210031120 TAF KBLI 031120Z 0312/0412 01009KT P6SM SKC FM031700 03011KT P6SM
                       SKC FM040300 03006KT P6SM SKC=
201210030711 KBLI 030711Z 0307/0406 02010G18KT P6SM SKC FM031700 02011KT P6SM
                       SKC FM040300 03006KT P6SM SKC=
201210030520 TAF KBLI 030520Z 0306/0406 02006KT P6SM SKC FM031800 02011KT P6SM
                       SKC FM040300 03006KT P6SM SKC=
201210022324 TAF KBLI 022324Z 0300/0324 35006KT P6SM FEW050 FM030600 02006KT
                       P6SM SKC FM031800 02011KT P6SM SKC=
201210022103 KBLI 022103Z 0221/0318 32010KT P6SM SCT040 FM030100 36008KT P6SM
                       SKC FM031500 02009KT P6SM SKC=
201210021926 KBLI 021926Z 0219/0318 32011G20KT P6SM SCT040
                      TEMPO 0220/0224 BKN040 FM030100 36008KT P6SM
                       SKC FM031500 02009KT P6SM SKC=
201210021850 KBLI 021850Z 0219/0318 32011KT P6SM SCT040
                      TEMPO 0220/0224 BKN040 FM030100 36005KT P6SM
                       SKC FM031500 02009KT P6SM SKC=
201210021722 TAF KBLI 021722Z 0218/0318 29009KT P6SM FEW035 FM022000 33009KT
                       P6SM FEW035 FM030100 36005KT P6SM SKC FM031500
                       02009KT P6SM SKC=
201210021120 TAF KBLI 021120Z 0212/0312 35005KT P6SM FEW040 FM021800 01012KT
                       P6SM SKC FM030400 03008KT P6SM SKC FM030600
                       03004KT P6SM SKC=
201210020520 TAF KBLI 020520Z 0206/0306 24006KT P6SM SCT030 BKN050 FM020900
                       31006KT P6SM SCT050 FM021900 02012KT P6SM
                       SKC FM030400 04008KT P6SM SKC=
201210012346 TAF KBLI 012346Z 0200/0224 18013KT P6SM SCT035 BKN050 FM020200
                       21008KT P6SM SCT030 BKN050
                      TEMPO 0202/0206 BKN030 BKN050 FM020600 28006KT
                       P6SM SCT030 SCT050 FM020900 35006KT P6SM
                       MIFG SKC FM021600 02010KT P6SM SKC=
201210012110 KBLI 012110Z 0121/0218 17013G20KT P6SM SCT035 OVC060 FM012300 19013KT
                       P6SM VCSH SCT020 OVC035 FM020500 21010KT
                       P6SM VCSH SCT015 OVC028 FM020800 25006KT
                       P6SM BKN028 FM021200 02008KT P6SM SCT028=
201210011900 KBLI 011900Z 0119/0218 17013KT P6SM SCT060 SCT100 BKN250 FM012000
                       17013G20KT P6SM SCT035 BKN060 OVC100 FM012300
                       19013KT P6SM VCSH SCT020 OVC035 FM020500
                       21010KT P6SM VCSH SCT015 OVC028 FM020800
                       25006KT P6SM BKN028 FM021200 02008KT P6SM
                       SCT028=
201210011742 TAF KBLI 011742Z 0118/0218 17006KT P6SM FEW060 SCT100 BKN250 FM012000
                       17011KT P6SM FEW035 BKN060 OVC100 FM012300
                       19013KT P6SM VCSH SCT020 OVC035 FM020500
                       21010KT P6SM VCSH SCT015 OVC028 FM020800
                       25006KT P6SM BKN028 FM021200 02008KT P6SM
                       SCT028=
201210011503 KBLI 011503Z 0115/0212 VRB03KT P6SM SCT250 FM011800 22006KT P6SM
                       SCT050 BKN250 FM012300 25012KT P6SM VCSH
                       BKN040 OVC080 FM020500 27006KT P6SM SCT040
                       SCT080=
201210011120 TAF KBLI 011120Z 0112/0212 00000KT P6SM BKN200 FM011600 22006KT
                       P6SM SCT050 OVC090 FM012300 25012KT P6SM
                       VCSH BKN040 OVC080 FM020500 27006KT P6SM
                       SCT040 SCT080=
201210010522 TAF KBLI 010522Z 0106/0206 VRB03KT P6SM SCT250 FM010800 00000KT
                       P6SM BKN200 FM011600 22006KT P6SM SCT050
                       OVC090 FM012300 25012KT P6SM VCSH BKN040
                       OVC080 FM020500 19006KT P6SM SCT040 SCT080=