##########################################################
# Query made at 02/16/2025 20:29:39 UTC
# Time interval: from 11/01/2013 00:00  to 11/30/2013 23:59  UTC
##########################################################

##########################################################
# KBLI, Bellingham, Bellingham International Airport (United States)
# WMO index: -----. WIGOS ID: Unknown
# Latitude 48-47-58N. Longitude 122-32-21W. Altitude 48 m.
##########################################################

###################################
#  METAR/SPECI from KBLI
###################################
201311302353 METAR KBLI 302353Z 13006KT 3SM -RA BR OVC022 08/07 A3021 RMK AO2 SLP238 P0003 60012 T00830072 10089 20083 56013=
201311302253 METAR KBLI 302253Z 13006KT 3SM -RA BR OVC020 08/08 A3022 RMK AO2 SLP241 P0005 T00830078=
201311302153 METAR KBLI 302153Z 12006KT 3SM -RA BR BKN019 OVC025 08/07 A3023 RMK AO2 SLP244 P0003 T00830067=
201311302100 SPECI KBLI 302100Z 13005KT 3SM -RA OVC021 09/06 A3024 RMK AO2 P0001=
201311302053 METAR KBLI 302053Z 14005KT 2 1/2SM -RA BKN021 OVC025 09/06 A3025 RMK AO2 RAE28B53 SLP250 P0000 60001 T00890061 58018=
201311302014 SPECI KBLI 302014Z 13005KT 2 1/2SM -RA BR OVC021 08/07 A3026 RMK AO2 P0000=
201311301953 METAR KBLI 301953Z 00000KT 3SM -RA BR OVC021 08/07 A3028 RMK AO2 RAB16 SLP260 P0001 T00830067=
201311301853 METAR KBLI 301853Z 10004KT 3SM BR OVC023 08/06 A3029 RMK AO2 RAE43 SLP265 P0000 T00830061=
201311301753 METAR KBLI 301753Z 13007KT 5SM -RA OVC024 08/06 A3030 RMK AO2 RAB03E12B45 SLP268 P0000 60006 T00830056 10083 20072 53001=
201311301732 SPECI KBLI 301732Z 12007KT 10SM BKN026 OVC034 08/06 A3030 RMK AO2 RAB03E12 P0000=
201311301653 METAR KBLI 301653Z 12009KT 10SM OVC034 08/05 A3029 RMK AO2 RAB01E44 SLP265 P0001 T00830050=
201311301553 METAR KBLI 301553Z 00000KT 6SM BR SCT021 BKN027 OVC041 07/06 A3030 RMK AO2 RAE53 SLP267 P0000 T00720061=
201311301453 METAR KBLI 301453Z 00000KT 3SM -RA BR BKN021 OVC030 07/06 A3029 RMK AO2 SLP266 P0003 60005 T00720061 56002=
201311301440 SPECI KBLI 301440Z AUTO 00000KT 3SM -RA BR OVC021 07/06 A3029 RMK AO2 P0002=
201311301404 SPECI KBLI 301404Z AUTO 00000KT 2SM -RA BR OVC017 07/07 A3029 RMK AO2 P0001=
201311301353 METAR KBLI 301353Z AUTO 00000KT 1 3/4SM -RA BR OVC017 07/07 A3029 RMK AO2 SLP266 P0001 T00720067=
201311301344 SPECI KBLI 301344Z AUTO 00000KT 2SM -RA BR OVC017 07/07 A3029 RMK AO2 P0000=
201311301333 SPECI KBLI 301333Z AUTO 04004KT 4SM -RA BR OVC017 07/06 A3029 RMK AO2 P0000=
201311301323 SPECI KBLI 301323Z AUTO 00000KT 3SM -RA BR FEW006 BKN014 OVC019 07/07 A3030 RMK AO2 P0000=
201311301253 METAR KBLI 301253Z AUTO 03004KT 2SM -RA BR OVC017 07/06 A3030 RMK AO2 RAB41 SLP268 P0001 T00720061=
201311301245 SPECI KBLI 301245Z AUTO 00000KT 3SM -RA BR OVC017 07/06 A3030 RMK AO2 RAB41 P0000=
201311301215 SPECI KBLI 301215Z AUTO 00000KT 1 1/4SM R16/5000VP6000FT BR OVC015 07/07 A3030 RMK AO2=
201311301203 SPECI KBLI 301203Z AUTO 00000KT 1 1/4SM BR OVC013 07/07 A3030 RMK AO2=
201311301153 METAR KBLI 301153Z AUTO 00000KT 2 1/2SM BR OVC013 07/07 A3030 RMK AO2 RAE52 SLP269 P0002 60021 70025 T00720067 10083 20072 56003=
201311301129 SPECI KBLI 301129Z AUTO 00000KT 3SM -RA BR FEW008 OVC013 07/07 A3030 RMK AO2 P0001=
201311301108 SPECI KBLI 301108Z AUTO 00000KT 2SM -RA BR BKN013 BKN021 OVC044 07/06 A3031 RMK AO2 P0001=
201311301057 SPECI KBLI 301057Z AUTO 00000KT 3SM -RA BR FEW002 BKN022 OVC042 07/07 A3031 RMK AO2 P0000=
201311301053 METAR KBLI 301053Z AUTO 00000KT 2 1/2SM -RA BR FEW002 SCT017 OVC042 07/07 A3031 RMK AO2 SLP271 P0002 T00720067=
201311301046 SPECI KBLI 301046Z AUTO 00000KT 2 1/2SM -RA BR SCT002 OVC042 07/07 A3031 RMK AO2 P0002=
201311300953 METAR KBLI 300953Z AUTO 00000KT 3SM -RA BR OVC004 08/07 A3031 RMK AO2 RAB0856 CIG 002V008 SLP272 P0006 T00780067=
201311300944 SPECI KBLI 300944Z AUTO 00000KT 2 1/2SM -RA BR OVC006 07/07 A3031 RMK AO2 RAB0856 CIG 004V008 P0005=
201311300932 SPECI KBLI 300932Z AUTO 00000KT 4SM -RA BR BKN008 OVC013 07/07 A3031 RMK AO2 RAB0856 P0003=
201311300917 SPECI KBLI 300917Z AUTO 00000KT 4SM -RA BR FEW008 BKN013 OVC017 08/07 A3031 RMK AO2 RAB0856 P0002=
201311300853 METAR KBLI 300853Z AUTO 17004KT 4SM BR SCT010 BKN018 OVC041 08/07 A3030 RMK AO2 RAE43 SLP270 P0003 60011 T00780067 50008=
201311300753 METAR KBLI 300753Z AUTO 17006KT 4SM -RA BR FEW017 BKN043 OVC050 08/07 A3031 RMK AO2 SLP271 P0002 T00780067 400940072=
201311300736 SPECI KBLI 300736Z AUTO 17006KT 6SM -RA BR FEW019 SCT024 OVC050 08/07 A3030 RMK AO2 P0001=
201311300724 SPECI KBLI 300724Z AUTO 18006KT 6SM -RA BR FEW007 BKN022 OVC050 08/07 A3030 RMK AO2 P0001=
201311300653 METAR KBLI 300653Z AUTO 17007KT 5SM -RA BR FEW033 BKN049 OVC055 08/07 A3030 RMK AO2 SLP268 P0006 T00780067=
201311300622 SPECI KBLI 300622Z AUTO 17008KT 5SM -RA BR SCT011 OVC039 08/07 A3029 RMK AO2 P0003=
201311300600 SPECI KBLI 300600Z 18007G16KT 7SM -RA OVC013 08/06 A3028 RMK AO2 P0001=
201311300553 METAR KBLI 300553Z 18008G15KT 8SM -RA BKN015 OVC031 08/06 A3028 RMK AO2 RAB25 SLP261 P0001 60001 T00830061 10089 20083 51004=
201311300501 SPECI KBLI 300501Z 15007KT 10SM BKN015 OVC029 09/06 A3028 RMK AO2=
201311300453 METAR KBLI 300453Z 15008KT 10SM BKN013 OVC029 09/06 A3027 RMK AO2 SLP260 T00890056=
201311300402 SPECI KBLI 300402Z 17009G18KT 10SM OVC013 08/05 A3028 RMK AO2=
201311300353 METAR KBLI 300353Z 17011G18KT 10SM OVC015 08/05 A3028 RMK AO2 SLP262 T00830050=
201311300304 SPECI KBLI 300304Z 16008KT 10SM BKN015 OVC039 08/05 A3027 RMK AO2=
201311300253 METAR KBLI 300253Z 16009KT 10SM SCT015 OVC037 09/06 A3027 RMK AO2 SLP257 T00890056 53004=
201311300153 METAR KBLI 300153Z 17009KT 10SM BKN033 OVC041 08/05 A3026 RMK AO2 SLP256 T00830050=
201311300053 METAR KBLI 300053Z 16008KT 10SM OVC038 08/06 A3025 RMK AO2 SLP253 T00830056=
201311292353 METAR KBLI 292353Z 18006KT 10SM FEW020 BKN038 OVC048 09/06 A3026 RMK AO2 SLP254 T00890056 10094 20083 53003=
201311292324 SPECI KBLI 292324Z 18005KT 10SM SCT028 OVC036 09/06 A3025 RMK AO2=
201311292312 SPECI KBLI 292312Z 17006KT 9SM FEW023 BKN028 OVC036 09/07 A3025 RMK AO2=
201311292253 METAR KBLI 292253Z 18007KT 9SM BKN030 OVC035 09/07 A3025 RMK AO2 SLP253 T00940067=
201311292244 SPECI KBLI 292244Z 17007KT 10SM BKN030 OVC035 09/07 A3025 RMK AO2=
201311292153 METAR KBLI 292153Z 17006KT 10SM BKN026 OVC030 09/06 A3025 RMK AO2 SLP251 T00940061=
201311292127 SPECI KBLI 292127Z 16009KT 10SM FEW011 OVC026 09/06 A3024 RMK AO2=
201311292053 METAR KBLI 292053Z 16009KT 10SM OVC011 09/06 A3025 RMK AO2 SLP250 T00890061 50006=
201311292036 SPECI KBLI 292036Z 17009KT 10SM BKN011 OVC030 09/06 A3024 RMK AO2=
201311292023 SPECI KBLI 292023Z 17007KT 10SM FEW011 OVC030 09/06 A3024 RMK AO2=
201311291953 METAR KBLI 291953Z 17007KT 10SM OVC028 09/06 A3025 RMK AO2 SLP251 T00890056=
201311291853 METAR KBLI 291853Z 17007KT 10SM OVC024 09/04 A3025 RMK AO2 SLP252 T00890044=
201311291753 METAR KBLI 291753Z 18004KT 10SM BKN024 OVC030 08/06 A3023 RMK AO2 SLP244 60003 T00830056 10089 20072 51009=
201311291653 METAR KBLI 291653Z 16010KT 10SM FEW015 OVC026 08/04 A3022 RMK AO2 RAB00E49 SLP243 P0001 T00780044=
201311291553 METAR KBLI 291553Z 17006KT 10SM BKN024 OVC030 08/04 A3021 RMK AO2 RAE18 SLP239 P0000 T00780044=
201311291453 METAR KBLI 291453Z 17006KT 7SM -RA OVC026 08/05 A3020 RMK AO2 SLP235 P0001 60002 T00780050 53006=
201311291353 METAR KBLI 291353Z AUTO 18006KT 10SM -RA OVC020 08/06 A3019 RMK AO2 RAE02B52 SLP230 P0000 T00780056=
201311291253 METAR KBLI 291253Z AUTO 18005KT 10SM -RA OVC022 08/06 A3019 RMK AO2 RAB15 SLP230 P0001 T00780056=
201311291153 METAR KBLI 291153Z AUTO 17006KT 10SM OVC024 07/06 A3018 RMK AO2 SLP228 60002 70002 T00720056 10078 20072 58001=
201311291053 METAR KBLI 291053Z AUTO 17003KT 10SM OVC026 07/06 A3019 RMK AO2 RAB0957E15 SLP231 P0000 T00720061=
201311291009 SPECI KBLI 291009Z AUTO 00000KT 4SM -RA BR BKN029 OVC036 07/06 A3018 RMK AO2 RAB0957 P0000=
201311290953 METAR KBLI 290953Z AUTO 00000KT 4SM BR OVC034 07/06 A3018 RMK AO2 RAB0854E26 SLP229 P0001 T00720061=
201311290904 SPECI KBLI 290904Z AUTO 00000KT 5SM -RA BR SCT028 OVC034 07/06 A3019 RMK AO2 RAB0854 P0001=
201311290853 METAR KBLI 290853Z AUTO 00000KT 5SM BR BKN026 OVC034 07/06 A3018 RMK AO2 SLP230 60001 T00720061 51013=
201311290832 SPECI KBLI 290832Z AUTO 00000KT 5SM BR BKN028 OVC033 07/07 A3018 RMK AO2=
201311290753 METAR KBLI 290753Z AUTO 00000KT 7SM OVC033 07/06 A3018 RMK AO2 RAE29 SLP226 P0001 T00720061 401221006=
201311290736 SPECI KBLI 290736Z AUTO 00000KT 7SM SCT027 OVC036 07/06 A3017 RMK AO2 RAE29 P0001=
201311290727 SPECI KBLI 290727Z AUTO 00000KT 7SM -RA BKN027 OVC036 07/06 A3017 RMK AO2 P0001=
201311290653 METAR KBLI 290653Z AUTO 00000KT 7SM -RA OVC036 07/06 A3016 RMK AO2 RAB22 SLP222 P0000 T00720061=
201311290553 METAR KBLI 290553Z 00000KT 10SM OVC034 07/06 A3015 RMK AO2 SLP217 60000 T00720056 10094 20072 53004=
201311290453 METAR KBLI 290453Z 00000KT 10SM OVC048 07/06 A3013 RMK AO2 RAB03E19 SLP213 P0000 T00720056=
201311290353 METAR KBLI 290353Z 00000KT 10SM OVC048 08/04 A3013 RMK AO2 RAB05E15B35E53 SLP211 P0000 T00780044=
201311290253 METAR KBLI 290253Z 00000KT 10SM OVC060 07/04 A3013 RMK AO2 RAB38E49 SLP213 P0000 60000 T00720039 51011=
201311290153 METAR KBLI 290153Z 00000KT 10SM BKN070 OVC090 08/03 A3012 RMK AO2 SLP210 T00830028=
201311290053 METAR KBLI 290053Z 00000KT 10SM FEW060 OVC075 08/03 A3012 RMK AO2 SLP207 T00830033=
201311282353 METAR KBLI 282353Z AUTO 15003KT 10SM OVC075 09/03 A3010 RMK AO2 SLP202 T00890028 10122 20039 53000 TSNO=
201311282253 METAR KBLI 282253Z 19003KT 10SM OVC070 10/02 A3009 RMK AO2 SLP199 T01000022=
201311282153 METAR KBLI 282153Z 00000KT 10SM OVC075 12/04 A3010 RMK AO2 SLP199 T01170039=
201311282053 METAR KBLI 282053Z 00000KT 10SM OVC075 11/04 A3010 RMK AO2 SLP201 T01110044 50003=
201311281953 METAR KBLI 281953Z 00000KT 10SM CLR 09/04 A3010 RMK AO2 SLP201 T00940044=
201311281853 METAR KBLI 281853Z 00000KT 10SM CLR 07/04 A3010 RMK AO2 SLP203 T00720039=
201311281753 METAR KBLI 281753Z 00000KT 10SM CLR 04/02 A3009 RMK AO2 SLP199 T00390022 10039 21006 50008=
201311281653 METAR KBLI 281653Z 00000KT 10SM CLR 02/01 A3010 RMK AO2 SLP200 T00220006=
201311281553 METAR KBLI 281553Z 00000KT 10SM CLR 00/M01 A3007 RMK AO2 SLP192 T00001011=
201311281453 METAR KBLI 281453Z 00000KT 10SM CLR 00/M02 A3007 RMK AO2 SLP191 T00001017 53006=
201311281353 METAR KBLI 281353Z AUTO 00000KT 9SM CLR 01/M01 A3006 RMK AO2 SLP188 T00111006=
201311281253 METAR KBLI 281253Z AUTO 00000KT 10SM CLR 02/00 A3005 RMK AO2 SLP186 T00170000=
201311281153 METAR KBLI 281153Z AUTO 00000KT 10SM CLR 01/M01 A3005 RMK AO2 SLP185 T00111006 10039 20006 53005=
201311281053 METAR KBLI 281053Z AUTO 00000KT 10SM CLR 02/00 A3004 RMK AO2 SLP183 T00170000=
201311280953 METAR KBLI 280953Z AUTO 00000KT 10SM CLR 01/M01 A3004 RMK AO2 SLP179 T00061006=
201311280853 METAR KBLI 280853Z AUTO 00000KT 10SM CLR 02/00 A3004 RMK AO2 SLP179 T00220000 51009=
201311280753 METAR KBLI 280753Z AUTO 00000KT 10SM CLR 03/01 A3003 RMK AO2 SLP179 T00280006 401280017=
201311280653 METAR KBLI 280653Z AUTO 00000KT 10SM CLR 03/01 A3002 RMK AO2 SLP174 T00280006=
201311280553 METAR KBLI 280553Z 00000KT 10SM CLR 03/01 A3001 RMK AO2 SLP170 T00330006 10078 20022 53003=
201311280453 METAR KBLI 280453Z 00000KT 10SM CLR 03/01 A3000 RMK AO2 SLP169 T00330006=
201311280353 METAR KBLI 280353Z 03003KT 10SM CLR 04/01 A3000 RMK AO2 SLP168 T00390006=
201311280253 METAR KBLI 280253Z 00000KT 10SM BKN100 05/02 A3000 RMK AO2 SLP168 T00500017 51007=
201311280153 METAR KBLI 280153Z 00000KT 10SM FEW100 06/02 A2999 RMK AO2 SLP166 T00560017=
201311280053 METAR KBLI 280053Z 00000KT 10SM CLR 06/02 A2999 RMK AO2 SLP165 T00610022=
201311272353 METAR KBLI 272353Z 00000KT 10SM BKN095 08/03 A2998 RMK AO2 SLP160 T00780028 10128 20078 55004=
201311272253 METAR KBLI 272253Z 17004KT 10SM CLR 08/02 A2998 RMK AO2 SLP159 T00830022=
201311272153 METAR KBLI 272153Z 35005KT 10SM OVC090 12/01 A2998 RMK AO2 SLP162 T01220011=
201311272053 METAR KBLI 272053Z 01005KT 10SM FEW085 12/02 A2999 RMK AO2 SLP164 T01220022 56014=
201311271953 METAR KBLI 271953Z 02007KT 10SM CLR 11/01 A3000 RMK AO2 SLP166 T01060011=
201311271853 METAR KBLI 271853Z 36007KT 10SM BKN110 11/01 A3002 RMK AO2 SLP175 T01060011=
201311271753 METAR KBLI 271753Z 36003KT 10SM OVC110 08/01 A3003 RMK AO2 SLP178 T00830011 10083 20022 58004=
201311271653 METAR KBLI 271653Z 00000KT 10SM SCT080 OVC110 07/01 A3005 RMK AO2 SLP183 T00670011=
201311271553 METAR KBLI 271553Z 36004KT 10SM BKN090 OVC110 06/01 A3004 RMK AO2 SLP182 T00560006=
201311271453 METAR KBLI 271453Z 00000KT 10SM OVC090 05/01 A3004 RMK AO2 SLP183 T00500006 58006=
201311271353 METAR KBLI 271353Z AUTO 36003KT 10SM BKN085 03/00 A3005 RMK AO2 SLP184 T00280000=
201311271253 METAR KBLI 271253Z AUTO 00000KT 10SM SCT044 SCT050 05/01 A3006 RMK AO2 SLP188 T00500006=
201311271153 METAR KBLI 271153Z AUTO 00000KT 10SM OVC046 05/01 A3006 RMK AO2 SLP188 T00500006 10061 20044 58010=
201311271053 METAR KBLI 271053Z AUTO 36003KT 10SM SCT048 06/01 A3009 RMK AO2 SLP196 T00560006=
201311270953 METAR KBLI 270953Z AUTO 34004KT 10SM BKN046 06/01 A3009 RMK AO2 SLP199 T00560011=
201311270853 METAR KBLI 270853Z AUTO 01005KT 10SM OVC048 06/02 A3009 RMK AO2 SLP199 T00610017 58012=
201311270753 METAR KBLI 270753Z AUTO 01004KT 10SM BKN042 OVC050 06/02 A3010 RMK AO2 SLP202 T00560017 401001022=
201311270653 METAR KBLI 270653Z AUTO 02005KT 10SM OVC047 06/02 A3012 RMK AO2 SLP210 T00610017=
201311270553 METAR KBLI 270553Z 00000KT 10SM OVC049 06/02 A3013 RMK AO2 SLP212 T00610017 10083 20044 53003=
201311270453 METAR KBLI 270453Z 36003KT 10SM FEW049 OVC080 06/02 A3012 RMK AO2 SLP210 T00610017=
201311270353 METAR KBLI 270353Z 00000KT 10SM FEW050 OVC085 04/01 A3012 RMK AO2 SLP209 T00440011=
201311270253 METAR KBLI 270253Z 02005KT 10SM OVC090 06/02 A3012 RMK AO2 SLP209 T00610017 50000=
201311270153 METAR KBLI 270153Z 01005KT 10SM OVC085 07/02 A3012 RMK AO2 SLP210 T00670017=
201311270053 METAR KBLI 270053Z 01003KT 10SM OVC090 07/02 A3013 RMK AO2 SLP213 T00720022=
201311262353 METAR KBLI 262353Z 00000KT 10SM OVC100 08/03 A3012 RMK AO2 SLP208 T00830028 10100 20017 56017=
201311262253 METAR KBLI 262253Z 01004KT 10SM OVC110 09/03 A3013 RMK AO2 SLP212 T00890028=
201311262153 METAR KBLI 262153Z 01004KT 10SM CLR 10/02 A3014 RMK AO2 SLP215 T01000017=
201311262053 METAR KBLI 262053Z 01003KT 10SM CLR 08/01 A3017 RMK AO2 SLP226 T00830011 56015=
201311261953 METAR KBLI 261953Z 00000KT 10SM CLR 07/02 A3018 RMK AO2 SLP228 T00670022=
201311261853 METAR KBLI 261853Z 00000KT 10SM CLR 04/02 A3021 RMK AO2 SLP238 T00390017=
201311261753 METAR KBLI 261753Z 33004KT 10SM CLR 02/01 A3021 RMK AO2 SLP241 T00170006 10017 21022 53003=
201311261653 METAR KBLI 261653Z 32003KT 5SM BR CLR M01/M02 A3020 RMK AO2 SLP237 T10061017=
201311261600 SPECI KBLI 261600Z 00000KT 6SM BR FEW001 M02/M03 A3021 RMK AO2 VCFG=
201311261553 METAR KBLI 261553Z 00000KT 2 1/2SM R16/2600VP6000FT BR SCT001 M01/M02 A3021 RMK AO2 SLP242 T10111022=
201311261551 SPECI KBLI 261551Z 00000KT 1SM R16/2400VP6000FT BR VV001 M01/M02 A3021 RMK AO2=
201311261527 SPECI KBLI 261527Z 00000KT 1/2SM R16/1600V2600FT FZFG VV001 M01/M03 A3021 RMK AO2=
201311261507 SPECI KBLI 261507Z 00000KT 1SM R16/1800V5500FT BR SCT001 M01/M02 A3021 RMK AO2=
201311261500 SPECI KBLI 261500Z 00000KT 1/4SM R16/2000V6000FT FZFG VV001 M01/M02 A3021 RMK AO2=
201311261453 METAR KBLI 261453Z 00000KT 1SM R16/1600V4500FT BR CLR M01/M03 A3021 RMK AO2 SLP239 T10111028 56006=
201311261448 SPECI KBLI 261448Z 00000KT 1SM R16/1600V2200FT BR CLR M01/M02 A3021 RMK AO2=
201311261430 SPECI KBLI 261430Z AUTO 00000KT 1/2SM R16/1200V2400FT FZFG VV001 M01/M02 A3021 RMK AO2=
201311261418 SPECI KBLI 261418Z AUTO 00000KT 1SM R16/1800VP6000FT BR VV001 M02/M03 A3021 RMK AO2=
201311261406 SPECI KBLI 261406Z AUTO 00000KT 1/2SM R16/1400VP6000FT FZFG VV001 M02/M03 A3021 RMK AO2=
201311261401 SPECI KBLI 261401Z AUTO 00000KT 1SM R16/1400V3000FT BR VV001 M02/M03 A3021 RMK AO2=
201311261359 SPECI KBLI 261359Z AUTO 00000KT 3/4SM R16/1400V2200FT BR VV001 M02/M03 A3021 RMK AO2=
201311261353 METAR KBLI 261353Z AUTO 00000KT 1/2SM R16/1800V4000FT FZFG VV001 M01/M03 A3021 RMK AO2 SLP240 T10111028=
201311261350 SPECI KBLI 261350Z AUTO 00000KT 1/2SM R16/2000VP6000FT FZFG VV001 M02/M03 A3021 RMK AO2=
201311261343 SPECI KBLI 261343Z AUTO 00000KT 1 1/2SM R16/4500VP6000FT BR OVC001 M01/M03 A3021 RMK AO2=
201311261329 SPECI KBLI 261329Z AUTO 00000KT 3/4SM R16/3500VP6000FT BR VV001 M02/M03 A3021 RMK AO2=
201311261324 SPECI KBLI 261324Z AUTO 00000KT 3/4SM R16/3500VP6000FT BR VV002 M02/M03 A3022 RMK AO2=
201311261318 SPECI KBLI 261318Z AUTO 00000KT 1 1/2SM R16/3500VP6000FT BR FEW003 M01/M03 A3021 RMK AO2=
201311261253 METAR KBLI 261253Z AUTO 00000KT 4SM R16/2200VP6000FT BR FEW003 M01/M02 A3021 RMK AO2 SLP241 T10111022=
201311261212 SPECI KBLI 261212Z AUTO 00000KT 7SM FEW002 M01/M02 A3022 RMK AO2=
201311261204 SPECI KBLI 261204Z AUTO 00000KT 1 1/4SM BR SCT002 M01/M02 A3022 RMK AO2=
201311261202 SPECI KBLI 261202Z AUTO 00000KT 3/4SM R16/P6000FT BR VV002 M01/M02 A3022 RMK AO2=
201311261153 METAR KBLI 261153Z AUTO 00000KT 1/2SM R16/P6000FT FZFG CLR M01/M02 A3022 RMK AO2 SLP244 T10111022 10022 21011 58012=
201311261135 SPECI KBLI 261135Z AUTO 00000KT 2SM R16/6000VP6000FT BR SCT002 M01/M02 A3023 RMK AO2=
201311261128 SPECI KBLI 261128Z AUTO 00000KT 1SM R16/2600VP6000FT BR VV002 M01/M02 A3023 RMK AO2=
201311261123 SPECI KBLI 261123Z AUTO 00000KT 1/2SM R16/2600VP6000FT FZFG VV002 M01/M02 A3023 RMK AO2=
201311261115 SPECI KBLI 261115Z AUTO 00000KT 3/4SM R16/3500VP6000FT BR VV002 M01/M02 A3023 RMK AO2=
201311261111 SPECI KBLI 261111Z AUTO 00000KT 2 1/2SM R16/2800VP6000FT BR BKN002 M01/M02 A3024 RMK AO2=
201311261058 SPECI KBLI 261058Z AUTO 36003KT 3SM BR SCT002 M01/M02 A3024 RMK AO2=
201311261053 METAR KBLI 261053Z AUTO 00000KT 1 1/4SM R16/6000VP6000FT BR SCT002 M01/M01 A3024 RMK AO2 SLP251 T10061011=
201311261045 SPECI KBLI 261045Z AUTO 00000KT 3/4SM R16/2400VP6000FT BR VV002 M01/M02 A3024 RMK AO2=
201311261040 SPECI KBLI 261040Z AUTO 00000KT 2SM BR BKN002 M01/M02 A3024 RMK AO2=
201311261014 SPECI KBLI 261014Z AUTO 00000KT 4SM BR SCT002 M01/M02 A3025 RMK AO2=
201311261000 SPECI KBLI 261000Z AUTO 00000KT 1 3/4SM R16/2400VP6000FT BR SCT002 M01/M02 A3025 RMK AO2 VIS 3/4V5=
201311260953 METAR KBLI 260953Z AUTO 00000KT 9SM R16/2400VP6000FT FEW002 00/M02 A3025 RMK AO2 SLP253 T00001017=
201311260936 SPECI KBLI 260936Z AUTO 00000KT 7SM FEW002 00/M02 A3025 RMK AO2=
201311260925 SPECI KBLI 260925Z AUTO 00000KT 2 1/2SM R16/2200VP6000FT BR SCT002 M01/M02 A3025 RMK AO2 VIS 1V5=
201311260913 SPECI KBLI 260913Z AUTO 00000KT 3SM R16/3500VP6000FT BR CLR 01/M01 A3026 RMK AO2=
201311260906 SPECI KBLI 260906Z AUTO 00000KT 1SM R16/3500VP6000FT BR CLR 00/M02 A3026 RMK AO2=
201311260853 METAR KBLI 260853Z AUTO 00000KT 2SM BR FEW002 00/M01 A3026 RMK AO2 VIS 1 1/4V4 SLP257 T00001006 58005=
201311260843 SPECI KBLI 260843Z AUTO 00000KT 3SM R16/3000VP6000FT BR FEW002 01/M01 A3026 RMK AO2=
201311260838 SPECI KBLI 260838Z AUTO 00000KT 1 1/4SM R16/3000VP6000FT BR FEW002 M01/M01 A3027 RMK AO2=
201311260833 SPECI KBLI 260833Z AUTO 00000KT 3/4SM R16/4000VP6000FT BR VV002 01/M01 A3027 RMK AO2=
201311260827 SPECI KBLI 260827Z AUTO 00000KT 1/2SM R16/3000VP6000FT FG CLR 00/M01 A3027 RMK AO2=
201311260814 SPECI KBLI 260814Z AUTO 00000KT 1 1/2SM R16/2800VP6000FT BR CLR 01/M01 A3027 RMK AO2 VIS 1/2V5=
201311260805 SPECI KBLI 260805Z AUTO 00000KT 3SM R16/4000VP6000FT BR CLR 01/00 A3027 RMK AO2=
201311260753 METAR KBLI 260753Z AUTO 00000KT 2 1/2SM R16/6000VP6000FT BR CLR 01/00 A3027 RMK AO2 SLP261 T00060000 401111017=
201311260653 METAR KBLI 260653Z AUTO 00000KT 7SM CLR 01/00 A3027 RMK AO2 SLP260 T00110000=
201311260649 SPECI KBLI 260649Z AUTO 00000KT 4SM BR CLR 01/00 A3027 RMK AO2=
201311260638 SPECI KBLI 260638Z AUTO 00000KT 1 3/4SM BR CLR 01/00 A3027 RMK AO2 VIS 1/2V5=
201311260553 METAR KBLI 260553Z 00000KT 10SM CLR 01/00 A3028 RMK AO2 SLP262 T00110000 10061 20011 57003=
201311260547 SPECI KBLI 260547Z 00000KT 1 3/4SM BR CLR 02/00 A3027 RMK AO2=
201311260453 METAR KBLI 260453Z 00000KT 10SM CLR 02/01 A3028 RMK AO2 SLP263 T00170006=
201311260353 METAR KBLI 260353Z 00000KT 8SM CLR 02/01 A3028 RMK AO2 SLP265 T00170006=
201311260253 METAR KBLI 260253Z 00000KT 10SM CLR 02/01 A3029 RMK AO2 SLP266 T00220011 58003=
201311260153 METAR KBLI 260153Z 00000KT 10SM CLR 03/01 A3029 RMK AO2 SLP266 T00280011=
201311260053 METAR KBLI 260053Z 00000KT 10SM CLR 03/02 A3029 RMK AO2 SLP267 T00330017=
201311252353 METAR KBLI 252353Z 00000KT 10SM CLR 06/03 A3029 RMK AO2 SLP268 T00610028 10111 20056 55002=
201311252253 METAR KBLI 252253Z 00000KT 10SM CLR 11/03 A3029 RMK AO2 SLP265 T01060028=
201311252153 METAR KBLI 252153Z 00000KT 10SM CLR 11/03 A3029 RMK AO2 SLP266 T01060033=
201311252053 METAR KBLI 252053Z 00000KT 10SM CLR 10/03 A3030 RMK AO2 SLP269 T01000028 58002=
201311251953 METAR KBLI 251953Z 00000KT 10SM CLR 09/04 A3031 RMK AO2 SLP273 T00890039=
201311251853 METAR KBLI 251853Z 00000KT 10SM CLR 07/03 A3032 RMK AO2 SLP275 T00670033=
201311251753 METAR KBLI 251753Z 00000KT 10SM CLR 05/03 A3031 RMK AO2 SLP272 T00500033 10050 21017 53006=
201311251653 METAR KBLI 251653Z 00000KT 6SM BR CLR 01/00 A3030 RMK AO2 SLP269 T00110000=
201311251553 METAR KBLI 251553Z 00000KT 4SM BR FEW001 M01/M02 A3029 RMK AO2 SLP267 T10111022=
201311251453 METAR KBLI 251453Z AUTO 00000KT 5SM BR CLR M01/M02 A3028 RMK AO2 SLP265 T10061017 53005=
201311251353 METAR KBLI 251353Z AUTO 00000KT 6SM BR CLR 00/M01 A3028 RMK AO2 SLP262 T00001011=
201311251253 METAR KBLI 251253Z AUTO 00000KT 3SM BR CLR 00/M01 A3027 RMK AO2 SLP261 T00001011=
201311251153 METAR KBLI 251153Z AUTO 00000KT 8SM CLR 01/M01 A3027 RMK AO2 SLP260 T00061006 10028 20000 50000=
201311251053 METAR KBLI 251053Z AUTO 00000KT 7SM CLR 01/M01 A3028 RMK AO2 SLP264 T00111006=
201311250953 METAR KBLI 250953Z AUTO 00000KT 7SM CLR 01/M01 A3027 RMK AO2 SLP260 T00111006=
201311250853 METAR KBLI 250853Z AUTO 00000KT 8SM CLR 02/01 A3027 RMK AO2 SLP259 T00170006 51006=
201311250753 METAR KBLI 250753Z AUTO 00000KT 7SM CLR 02/01 A3026 RMK AO2 SLP256 T00170006 401001022=
201311250653 METAR KBLI 250653Z AUTO 00000KT 7SM CLR 02/01 A3026 RMK AO2 SLP256 T00220011=
201311250553 METAR KBLI 250553Z 00000KT 9SM CLR 03/02 A3025 RMK AO2 SLP253 T00280017 10072 20006 53008=
201311250453 METAR KBLI 250453Z 00000KT 7SM CLR 02/01 A3024 RMK AO2 SLP251 T00170006=
201311250353 METAR KBLI 250353Z 00000KT 7SM CLR 02/01 A3023 RMK AO2 SLP247 T00220006=
201311250253 METAR KBLI 250253Z 00000KT 10SM CLR 02/01 A3023 RMK AO2 SLP247 T00170006 53010=
201311250153 METAR KBLI 250153Z 00000KT 10SM CLR 03/01 A3021 RMK AO2 SLP242 T00280011=
201311250053 METAR KBLI 250053Z 00000KT 10SM CLR 04/01 A3021 RMK AO2 SLP239 T00390011=
201311242353 METAR KBLI 242353Z 00000KT 10SM CLR 07/02 A3020 RMK AO2 SLP235 T00720022 10100 20044 55002=
201311242253 METAR KBLI 242253Z 33003KT 10SM CLR 09/02 A3020 RMK AO2 SLP234 T00890022=
201311242153 METAR KBLI 242153Z 02005KT 10SM CLR 10/02 A3020 RMK AO2 SLP235 T01000022=
201311242053 METAR KBLI 242053Z VRB03KT 10SM CLR 09/02 A3020 RMK AO2 SLP237 T00890022 55007=
201311241953 METAR KBLI 241953Z 36005KT 10SM CLR 08/02 A3020 RMK AO2 SLP236 T00780017=
201311241853 METAR KBLI 241853Z 35006KT 10SM CLR 07/02 A3021 RMK AO2 SLP240 T00670017=
201311241753 METAR KBLI 241753Z 35004KT 10SM CLR 04/01 A3022 RMK AO2 SLP244 T00440011 10044 21022 51010=
201311241653 METAR KBLI 241653Z 34003KT 7SM CLR 01/M01 A3022 RMK AO2 SLP242 T00061006=
201311241553 METAR KBLI 241553Z 32003KT 5SM BR CLR M01/M02 A3020 RMK AO2 SLP237 T10111022=
201311241453 METAR KBLI 241453Z AUTO 01003KT 6SM BR CLR M01/M02 A3019 RMK AO2 SLP234 T10111022 51002=
201311241353 METAR KBLI 241353Z AUTO 32003KT 7SM CLR M01/M02 A3019 RMK AO2 SLP233 T10111022=
201311241253 METAR KBLI 241253Z AUTO 02003KT 7SM CLR M02/M03 A3020 RMK AO2 SLP235 T10171033=
201311241153 METAR KBLI 241153Z AUTO 34004KT 8SM CLR M01/M02 A3019 RMK AO2 SLP231 T10111017 10011 21017 58012=
201311241053 METAR KBLI 241053Z AUTO 32003KT 4SM BR CLR M01/M03 A3021 RMK AO2 SLP239 T10061028=
201311240953 METAR KBLI 240953Z AUTO 00000KT 10SM CLR 01/M02 A3021 RMK AO2 SLP240 T00061017=
201311240853 METAR KBLI 240853Z AUTO 00000KT 9SM CLR M01/M02 A3022 RMK AO2 SLP243 T10061022 58004=
201311240753 METAR KBLI 240753Z AUTO 00000KT 9SM CLR M01/M02 A3023 RMK AO2 SLP245 T10111022 400891022=
201311240653 METAR KBLI 240653Z AUTO 31003KT 10SM CLR M01/M02 A3023 RMK AO2 SLP246 T10061017=
201311240553 METAR KBLI 240553Z 00000KT 10SM CLR 01/M01 A3023 RMK AO2 SLP247 T00111011 10061 20006 56003=
201311240453 METAR KBLI 240453Z 00000KT 10SM CLR 03/M01 A3024 RMK AO2 SLP249 T00281006=
201311240353 METAR KBLI 240353Z 00000KT 10SM CLR 02/M01 A3024 RMK AO2 SLP249 T00171006=
201311240253 METAR KBLI 240253Z 00000KT 10SM CLR 02/M01 A3024 RMK AO2 SLP251 T00221006 56006=
201311240153 METAR KBLI 240153Z 35004KT 10SM CLR 04/M01 A3024 RMK AO2 SLP250 T00391006=
201311240053 METAR KBLI 240053Z 34005KT 10SM CLR 04/00 A3025 RMK AO2 SLP253 T00440000=
201311232353 METAR KBLI 232353Z 36003KT 10SM CLR 06/01 A3026 RMK AO2 SLP256 T00610006 10089 20028 56020=
201311232253 METAR KBLI 232253Z 04009KT 10SM CLR 08/00 A3027 RMK AO2 SLP260 T00780000=
201311232153 METAR KBLI 232153Z 36007KT 10SM CLR 08/01 A3029 RMK AO2 SLP268 T00830006=
201311232053 METAR KBLI 232053Z 35006KT 10SM CLR 08/00 A3032 RMK AO2 SLP276 T00830000 58020=
201311231953 METAR KBLI 231953Z 01006KT 10SM CLR 06/00 A3035 RMK AO2 SLP286 T00610000=
201311231853 METAR KBLI 231853Z 03005KT 10SM CLR 05/M01 A3037 RMK AO2 SLP292 T00501006=
201311231753 METAR KBLI 231753Z 02005KT 10SM CLR 03/M01 A3038 RMK AO2 SLP297 T00281011 10028 21006 56011=
201311231653 METAR KBLI 231653Z 03003KT 10SM CLR 01/M02 A3038 RMK AO2 SLP298 T00111022=
201311231553 METAR KBLI 231553Z 00000KT 10SM CLR 01/M03 A3039 RMK AO2 SLP301 T00061028=
201311231453 METAR KBLI 231453Z 03004KT 10SM CLR 00/M03 A3041 RMK AO2 SLP309 T00001028 58006=
201311231353 METAR KBLI 231353Z AUTO 34005KT 10SM CLR 00/M03 A3042 RMK AO2 SLP310 T00001028=
201311231253 METAR KBLI 231253Z AUTO 03005KT 10SM CLR 00/M03 A3043 RMK AO2 SLP313 T00001028=
201311231153 METAR KBLI 231153Z AUTO 01006KT 10SM CLR M01/M03 A3043 RMK AO2 SLP313 T10061028 10006 21022 58008=
201311231053 METAR KBLI 231053Z AUTO 36003KT 10SM CLR M02/M03 A3045 RMK AO2 SLP319 T10171033=
201311230953 METAR KBLI 230953Z AUTO 34004KT 10SM CLR M01/M03 A3045 RMK AO2 SLP322 T10111033=
201311230853 METAR KBLI 230853Z AUTO 36003KT 10SM CLR M01/M03 A3045 RMK AO2 SLP321 T10061033 58016=
201311230753 METAR KBLI 230753Z AUTO 00000KT 10SM CLR M01/M03 A3047 RMK AO2 SLP328 T10061028 400721039=
201311230653 METAR KBLI 230653Z AUTO 03003KT 10SM CLR 00/M03 A3049 RMK AO2 SLP333 T00001028=
201311230553 METAR KBLI 230553Z 33003KT 10SM CLR 00/M03 A3050 RMK AO2 SLP338 T00001028 10050 21011 56008=
201311230453 METAR KBLI 230453Z 00000KT 10SM CLR 01/M03 A3050 RMK AO2 SLP338 T00061028=
201311230353 METAR KBLI 230353Z 00000KT 10SM CLR M01/M03 A3051 RMK AO2 SLP342 T10111028=
201311230253 METAR KBLI 230253Z 00000KT 10SM CLR 00/M03 A3052 RMK AO2 SLP346 T00001028 58009=
201311230153 METAR KBLI 230153Z 33003KT 10SM CLR 01/M03 A3053 RMK AO2 SLP348 T00111028=
201311230053 METAR KBLI 230053Z 31003KT 10SM CLR 01/M03 A3055 RMK AO2 SLP354 T00111028=
201311222353 METAR KBLI 222353Z 01003KT 10SM CLR 05/M02 A3055 RMK AO2 SLP354 T00501022 10072 20017 56016=
201311222253 METAR KBLI 222253Z 00000KT 10SM CLR 06/M02 A3056 RMK AO2 SLP356 T00611022=
201311222153 METAR KBLI 222153Z 36003KT 10SM CLR 07/M03 A3058 RMK AO2 SLP365 T00671028=
201311222053 METAR KBLI 222053Z 03010KT 10SM CLR 07/M03 A3060 RMK AO2 SLP370 T00671028 56015=
201311221953 METAR KBLI 221953Z 02008KT 10SM CLR 06/M03 A3060 RMK AO2 SLP372 T00561028=
201311221853 METAR KBLI 221853Z 36008KT 10SM CLR 04/M03 A3062 RMK AO2 SLP380 T00441028=
201311221753 METAR KBLI 221753Z 36007KT 10SM CLR 02/M03 A3064 RMK AO2 SLP385 T00221028 10028 21028 58002=
201311221653 METAR KBLI 221653Z 01004KT 10SM CLR 01/M04 A3064 RMK AO2 SLP386 T00061039=
201311221553 METAR KBLI 221553Z 36005KT 10SM CLR M02/M06 A3065 RMK AO2 SLP389 T10221056=
201311221453 METAR KBLI 221453Z 00000KT 10SM CLR M02/M05 A3064 RMK AO2 SLP387 T10171050 56006=
201311221353 METAR KBLI 221353Z AUTO 36008KT 10SM CLR M01/M04 A3065 RMK AO2 SLP388 T10111044=
201311221253 METAR KBLI 221253Z AUTO 36006KT 10SM CLR M01/M04 A3065 RMK AO2 SLP391 T10111044=
201311221153 METAR KBLI 221153Z AUTO 01007KT 10SM CLR M02/M05 A3066 RMK AO2 SLP393 T10171050 11017 21039 58003=
201311221053 METAR KBLI 221053Z AUTO 01005KT 10SM CLR M02/M05 A3067 RMK AO2 SLP398 T10221050=
201311220953 METAR KBLI 220953Z AUTO 01003KT 10SM CLR M03/M06 A3066 RMK AO2 SLP394 T10281056=
201311220853 METAR KBLI 220853Z AUTO 36003KT 10SM CLR M03/M06 A3067 RMK AO2 SLP395 T10281056 58001=
201311220753 METAR KBLI 220753Z AUTO 00000KT 10SM CLR M03/M06 A3068 RMK AO2 SLP400 T10281061 400441050=
201311220653 METAR KBLI 220653Z AUTO 36003KT 10SM CLR M02/M06 A3067 RMK AO2 SLP396 T10221061=
201311220553 METAR KBLI 220553Z 01003KT 10SM CLR M03/M06 A3067 RMK AO2 SLP396 T10281061 10028 21028 50001=
201311220453 METAR KBLI 220453Z 36004KT 10SM CLR M02/M06 A3068 RMK AO2 SLP398 T10171061=
201311220353 METAR KBLI 220353Z 34003KT 10SM CLR M02/M06 A3066 RMK AO2 SLP395 T10171056=
201311220253 METAR KBLI 220253Z 00000KT 10SM CLR M02/M05 A3067 RMK AO2 SLP396 T10171050 50005=
201311220153 METAR KBLI 220153Z 00000KT 10SM CLR M02/M04 A3069 RMK AO2 SLP403 T10171044=
201311220053 METAR KBLI 220053Z 00000KT 10SM CLR 00/M05 A3067 RMK AO2 SLP397 T00001050=
201311212353 METAR KBLI 212353Z 04003KT 10SM CLR 03/M06 A3065 RMK AO2 SLP390 T00281056 10044 20000 58001=
201311212253 METAR KBLI 212253Z 36004KT 10SM CLR 04/M05 A3066 RMK AO2 SLP393 T00441050=
201311212153 METAR KBLI 212153Z 34004KT 10SM CLR 04/M06 A3066 RMK AO2 SLP392 T00391056=
201311212053 METAR KBLI 212053Z 01003KT 10SM CLR 04/M06 A3065 RMK AO2 SLP390 T00391056 58005=
201311211953 METAR KBLI 211953Z 34004KT 10SM CLR 03/M04 A3067 RMK AO2 SLP395 T00281044=
201311211853 METAR KBLI 211853Z 01004KT CLR 01/M04 A3067 RMK AO2 SLP397 T00111044 $=
201311211753 METAR KBLI 211753Z 02003KT 10SM CLR 00/M04 A3067 RMK AO2 SLP396 T00001044 10000 21044 53015=
201311211653 METAR KBLI 211653Z 00000KT 10SM CLR M02/M05 A3065 RMK AO2 SLP389 T10221050=
201311211553 METAR KBLI 211553Z 00000KT 10SM CLR M04/M07 A3063 RMK AO2 SLP385 T10391072=
201311211453 METAR KBLI 211453Z 00000KT 10SM CLR M04/M07 A3062 RMK AO2 SLP381 T10391072 53014=
201311211353 METAR KBLI 211353Z AUTO 33004KT 10SM CLR M04/M07 A3061 RMK AO2 SLP376 T10441072=
201311211253 METAR KBLI 211253Z AUTO 02004KT 10SM CLR M04/M07 A3059 RMK AO2 SLP370 T10441072=
201311211153 METAR KBLI 211153Z AUTO 02004KT 10SM CLR M04/M07 A3058 RMK AO2 SLP366 T10441072 11033 21050 53016=
201311211053 METAR KBLI 211053Z AUTO 01003KT 10SM CLR M04/M07 A3056 RMK AO2 SLP359 T10441067=
201311210953 METAR KBLI 210953Z AUTO 00000KT 10SM CLR M03/M07 A3055 RMK AO2 SLP356 T10331067=
201311210853 METAR KBLI 210853Z AUTO 01004KT 10SM CLR M04/M07 A3054 RMK AO2 SLP351 T10391067 51013=
201311210753 METAR KBLI 210753Z AUTO 36004KT 10SM CLR M03/M07 A3053 RMK AO2 SLP349 T10331067 400441039=
201311210653 METAR KBLI 210653Z AUTO 01005KT 10SM CLR M03/M07 A3052 RMK AO2 SLP345 T10331067=
201311210553 METAR KBLI 210553Z 01004KT 10SM CLR M03/M07 A3050 RMK AO2 SLP338 T10331067 10017 21033 51018=
201311210453 METAR KBLI 210453Z 01005KT 10SM CLR M03/M07 A3048 RMK AO2 SLP334 T10281067=
201311210353 METAR KBLI 210353Z 36003KT 10SM CLR M02/M07 A3047 RMK AO2 SLP328 T10221067=
201311210253 METAR KBLI 210253Z 00000KT 10SM CLR M01/M06 A3045 RMK AO2 SLP320 T10111056 53015=
201311210153 METAR KBLI 210153Z 00000KT 10SM CLR M01/M05 A3043 RMK AO2 SLP315 T10111050=
201311210053 METAR KBLI 210053Z 00000KT 10SM CLR 00/M06 A3042 RMK AO2 SLP310 T00001056=
201311202353 METAR KBLI 202353Z 02004KT 10SM CLR 02/M07 A3040 RMK AO2 SLP305 T00171067 10044 20011 53010=
201311202253 METAR KBLI 202253Z 35004KT 10SM CLR 04/M06 A3038 RMK AO2 SLP298 T00391061=
201311202153 METAR KBLI 202153Z 01004KT 10SM CLR 04/M06 A3038 RMK AO2 SLP296 T00391061=
201311202053 METAR KBLI 202053Z VRB04KT 10SM CLR 04/M06 A3037 RMK AO2 SLP294 T00441056 51007=
201311201953 METAR KBLI 201953Z 03004KT 10SM CLR 03/M06 A3037 RMK AO2 SLP293 T00331056=
201311201853 METAR KBLI 201853Z 01004KT 10SM CLR 03/M06 A3036 RMK AO2 SLP292 T00281061=
201311201753 METAR KBLI 201753Z 36005KT 10SM CLR 01/M06 A3035 RMK AO2 SLP287 T00111056 10011 21033 51029=
201311201653 METAR KBLI 201653Z 01005KT 10SM CLR M01/M06 A3032 RMK AO2 SLP279 T10111061=
201311201553 METAR KBLI 201553Z 35003KT 10SM CLR M03/M07 A3029 RMK AO2 SLP269 T10281067=
201311201453 METAR KBLI 201453Z 35004KT 10SM CLR M03/M07 A3026 RMK AO2 SLP259 T10281067 53024=
201311201353 METAR KBLI 201353Z AUTO 36004KT 10SM CLR M02/M07 A3023 RMK AO2 SLP248 T10221072=
201311201253 METAR KBLI 201253Z AUTO 35006KT 10SM CLR M02/M07 A3022 RMK AO2 SLP243 T10171067=
201311201153 METAR KBLI 201153Z AUTO 36005KT 10SM CLR M02/M07 A3019 RMK AO2 SLP233 70005 T10171067 10033 21017 51031=
201311201053 METAR KBLI 201053Z AUTO 35005KT 10SM CLR M01/M06 A3017 RMK AO2 SLP226 T10111061=
201311200953 METAR KBLI 200953Z AUTO 36007KT 10SM CLR M01/M06 A3013 RMK AO2 SLP213 T10061061=
201311200853 METAR KBLI 200853Z AUTO 36006KT 10SM CLR M01/M06 A3010 RMK AO2 SLP202 T10111056 53030=
201311200753 METAR KBLI 200753Z AUTO 02005KT 10SM CLR M01/M05 A3007 RMK AO2 SLP193 T10061050 400721011=
201311200653 METAR KBLI 200653Z AUTO 35003KT 10SM CLR M01/M03 A3003 RMK AO2 SLP180 T10061028=
201311200553 METAR KBLI 200553Z VRB04KT 10SM BKN041 03/M03 A3001 RMK AO2 SLP171 T00331028 10050 20000 51022=
201311200453 METAR KBLI 200453Z 28004KT 10SM CLR 03/M05 A2999 RMK AO2 SLP164 T00331050=
201311200353 METAR KBLI 200353Z VRB04KT 10SM CLR 02/M06 A2997 RMK AO2 SLP156 T00221056=
201311200253 METAR KBLI 200253Z 00000KT 10SM SCT060 03/M07 A2994 RMK AO2 SLP148 T00281072 53013=
201311200153 METAR KBLI 200153Z 00000KT 10SM SCT070 02/M04 A2993 RMK AO2 SLP144 T00221039=
201311200053 METAR KBLI 200053Z 00000KT 10SM BKN070 04/M07 A2991 RMK AO2 SLP137 T00391072=
201311192353 METAR KBLI 192353Z 35003KT 10SM OVC060 05/M07 A2990 RMK AO2 SLP134 T00501072 10072 20050 53017=
201311192253 METAR KBLI 192253Z 31006KT 10SM SCT060 05/M08 A2988 RMK AO2 SLP126 T00501078=
201311192153 METAR KBLI 192153Z 30007G15KT 10SM CLR 07/M08 A2986 RMK AO2 SLP121 T00671078=
201311192053 METAR KBLI 192053Z 29008G18KT 10SM CLR 07/M08 A2985 RMK AO2 SLP117 T00671078 51019=
201311191953 METAR KBLI 191953Z 28009KT 10SM FEW065 07/M04 A2984 RMK AO2 SLP114 T00721039=
201311191853 METAR KBLI 191853Z 28008KT 10SM FEW028 SCT055 07/01 A2982 RMK AO2 SLP106 T00720011=
201311191753 METAR KBLI 191753Z 00000KT 10SM BKN050 06/02 A2980 RMK AO2 RAE1659 SLP098 P0000 60005 T00610017 10067 20044 51028=
201311191653 METAR KBLI 191653Z 29005KT 10SM -RA SCT023 BKN030 OVC045 06/03 A2977 RMK AO2 RAB12 SLP090 P0004 T00560028=
201311191600 SPECI KBLI 191600Z 27006KT 10SM SCT015 BKN020 BKN026 06/04 A2975 RMK AO2=
201311191553 METAR KBLI 191553Z VRB03KT 10SM SCT017 SCT026 BKN035 06/04 A2974 RMK AO2 RAB40E49 SLP080 P0001 T00560044=
201311191500 SPECI KBLI 191500Z 17003KT 7SM SCT014 BKN024 BKN055 05/04 A2972 RMK AO2 P0001=
201311191453 METAR KBLI 191453Z 00000KT 7SM SCT027 BKN038 BKN055 05/04 A2971 RMK AO2 SLP069 T00500044 53026=
201311191420 SPECI KBLI 191420Z AUTO 00000KT 10SM SCT014 BKN055 06/05 A2969 RMK AO2=
201311191353 METAR KBLI 191353Z AUTO 00000KT 8SM BKN012 BKN045 OVC060 06/05 A2968 RMK AO2 SLP058 T00610050=
201311191349 SPECI KBLI 191349Z AUTO 00000KT 9SM BKN012 BKN029 OVC060 06/06 A2968 RMK AO2=
201311191343 SPECI KBLI 191343Z AUTO 00000KT 10SM FEW012 BKN044 OVC060 06/05 A2967 RMK AO2=
201311191320 SPECI KBLI 191320Z AUTO 00000KT 10SM BKN015 OVC019 07/06 A2966 RMK AO2=
201311191253 METAR KBLI 191253Z AUTO 00000KT 10SM OVC013 07/06 A2965 RMK AO2 SLP049 T00670056=
201311191153 METAR KBLI 191153Z AUTO 16003KT 10SM SCT006 OVC013 07/06 A2963 RMK AO2 RAB09E51 SLP043 P0000 60039 70129 T00670056 10100 20061 53020=
201311191121 SPECI KBLI 191121Z AUTO 00000KT 4SM -RA BR OVC008 07/06 A2963 RMK AO2 RAB09 CIG 005V013 P0000=
201311191053 METAR KBLI 191053Z AUTO 00000KT 10SM BKN012 OVC018 07/06 A2961 RMK AO2 RAE01 SLP036 P0000 T00670056=
201311191041 SPECI KBLI 191041Z AUTO 00000KT 10SM BKN012 BKN020 OVC025 07/06 A2961 RMK AO2 RAE01 P0000=
201311191015 SPECI KBLI 191015Z AUTO 00000KT 10SM FEW007 SCT014 OVC025 07/05 A2960 RMK AO2 RAE01 P0000=
201311190953 METAR KBLI 190953Z AUTO 00000KT 8SM -RA SCT007 BKN014 OVC021 07/06 A2959 RMK AO2 SLP026 P0002 T00670056=
201311190901 SPECI KBLI 190901Z AUTO 00000KT 5SM -RA BR BKN007 OVC019 07/06 A2957 RMK AO2 P0001=
201311190853 METAR KBLI 190853Z AUTO 00000KT 7SM -RA SCT007 OVC024 07/05 A2957 RMK AO2 SLP022 P0014 60037 T00670050 51013=
201311190816 SPECI KBLI 190816Z AUTO 31004KT 4SM RA BR FEW007 SCT016 OVC024 06/05 A2957 RMK AO2 P0008=
201311190753 METAR KBLI 190753Z AUTO 30006KT 4SM RA BR BKN005 OVC014 07/05 A2956 RMK AO2 CIG 003V009 SLP018 P0010 T00670050 401000067=
201311190748 SPECI KBLI 190748Z AUTO 30008KT 4SM RA BR BKN005 OVC009 07/05 A2956 RMK AO2 CIG 003V007 P0009 401000067=
201311190658 SPECI KBLI 190658Z AUTO 31005KT 4SM -RA BR OVC003 07/06 A2954 RMK AO2 CIG 002V008 P0001=
201311190653 METAR KBLI 190653Z AUTO 30005KT 2 1/2SM RA BR BKN005 OVC011 07/06 A2953 RMK AO2 CIG 002V008 SLP009 P0013 T00670061=
201311190650 SPECI KBLI 190650Z AUTO 31004KT 2SM RA BR BKN005 OVC011 07/06 A2953 RMK AO2 CIG 002V008 P0012=
201311190643 SPECI KBLI 190643Z AUTO 31005KT 2 1/2SM RA BR SCT003 OVC011 07/06 A2953 RMK AO2 P0008=
201311190631 SPECI KBLI 190631Z AUTO VRB05KT 3SM -RA BR OVC011 10/09 A2952 RMK AO2 P0006=
201311190553 METAR KBLI 190553Z 15007KT 110V200 3SM -RA BR BKN005 OVC011 08/07 A2952 RMK AO2 CIG 002V008 SLP003 P0002 60037 T00830067 10083 20072 56018=
201311190549 SPECI KBLI 190549Z 00000KT 3SM -RA BR SCT005 OVC011 07/06 A2952 RMK AO2 CIG 007V012 P0002=
201311190453 METAR KBLI 190453Z 35005KT 2SM -RA BR BKN003 OVC008 07/06 A2953 RMK AO2 SLP008 P0002 T00720061=
201311190353 METAR KBLI 190353Z 34005KT 2SM -RA BR BKN003 OVC008 07/06 A2955 RMK AO2 CIG 002V006 SLP015 P0004 T00720061=
201311190253 METAR KBLI 190253Z 01003KT 4SM -RA BR BKN003 OVC016 07/06 A2957 RMK AO2 SLP021 P0007 60029 T00720061 56031=
201311190153 METAR KBLI 190153Z 02005KT 4SM -RA BR BKN003 OVC014 07/06 A2960 RMK AO2 SLP030 P0010 T00720061=
201311190111 SPECI KBLI 190111Z 34003KT 3SM -RA BR BKN003 OVC014 07/07 A2962 RMK AO2 P0003=
201311190053 METAR KBLI 190053Z 01003KT 3SM -RA BR BKN006 OVC014 07/06 A2962 RMK AO2 SLP040 P0012 T00720061=
201311182353 METAR KBLI 182353Z 01003KT 2SM -RA BR BKN006 OVC012 07/06 A2966 RMK AO2 SLP052 P0012 60044 T00720061 10083 20072 56027=
201311182339 SPECI KBLI 182339Z 03004KT 1SM R16/P6000FT -RA BR BKN004 OVC012 07/06 A2967 RMK AO2 P0010=
201311182332 SPECI KBLI 182332Z 03003KT 1SM R16/P6000FT RA BR SCT004 OVC012 07/06 A2967 RMK AO2 P0008=
201311182253 METAR KBLI 182253Z 01004KT 1SM R16/P6000FT RA BR OVC004 07/06 A2969 RMK AO2 SLP061 P0013 T00720061=
201311182239 SPECI KBLI 182239Z 01005KT 1SM R16/P6000FT RA BR BKN004 OVC008 07/07 A2969 RMK AO2 P0009=
201311182224 SPECI KBLI 182224Z 36006KT 1SM R16/P6000FT -RA BR OVC006 07/06 A2970 RMK AO2 CIG 003V009 P0006=
201311182217 SPECI KBLI 182217Z 01007KT 1SM R16/P6000FT -RA BR BKN004 OVC009 08/07 A2970 RMK AO2 CIG 003V007 P0005=
201311182200 SPECI KBLI 182200Z 36006KT 1SM R16/P6000FT -RA BR OVC007 08/07 A2971 RMK AO2 P0001=
201311182153 METAR KBLI 182153Z 35004KT 2SM -RA BR OVC007 08/07 A2971 RMK AO2 SLP069 P0009 T00780067=
201311182123 SPECI KBLI 182123Z 36004KT 2SM RA BR OVC005 08/07 A2973 RMK AO2 CIG 002V009 P0004=
201311182116 SPECI KBLI 182116Z 01004KT 3SM -RA BR OVC005 08/07 A2973 RMK AO2 CIG 002V009 P0002=
201311182105 SPECI KBLI 182105Z 36004KT 2 1/2SM -RA BR OVC005 08/07 A2974 RMK AO2 CIG 002V009 P0001=
201311182053 METAR KBLI 182053Z 03005KT 1SM R16/6000VP6000FT -RA BR BKN005 OVC015 08/07 A2974 RMK AO2 SLP079 P0005 60010 T00780067 58024=
201311182042 SPECI KBLI 182042Z 03004KT 3/4SM R16/4500VP6000FT -RA BR OVC005 08/07 A2975 RMK AO2 P0003=
201311181953 METAR KBLI 181953Z 02003KT 3/4SM R16/4500V6000FT -RA BR OVC003 08/07 A2978 RMK AO2 RAE16B39 CIG 002V006 SLP091 P0003 T00830072=
201311181945 SPECI KBLI 181945Z 02003KT 3/4SM R16/3500V5000FT -RA BR OVC003 08/07 A2978 RMK AO2 RAE16B39 P0002=
201311181900 SPECI KBLI 181900Z 02003KT 1SM R16/4000V5500FT -RA BR OVC003 08/07 A2981 RMK AO2 P0001=
201311181853 METAR KBLI 181853Z 00000KT 2SM R16/4000V5500FT -RA BR OVC003 08/07 A2981 RMK AO2 RAB17 SLP102 P0002 T00830072=
201311181850 SPECI KBLI 181850Z 00000KT 2SM R16/4500V5500FT -RA BR OVC003 08/07 A2981 RMK AO2 RAB17 P0002=
201311181823 SPECI KBLI 181823Z 00000KT 2SM R16/5000VP6000FT -RA BR BKN005 OVC012 08/07 A2981 RMK AO2 RAB17 CIG 002V008 P0000=
201311181809 SPECI KBLI 181809Z 00000KT 8SM BKN007 OVC016 08/07 A2982 RMK AO2=
201311181805 SPECI KBLI 181805Z 00000KT 8SM BKN010 BKN016 OVC024 08/07 A2982 RMK AO2=
201311181753 METAR KBLI 181753Z 00000KT 8SM BKN016 BKN022 OVC027 08/07 A2982 RMK AO2 RAE25 SLP104 P0000 60009 T00830067 10083 20072 58011=
201311181741 SPECI KBLI 181741Z 00000KT 10SM BKN027 BKN065 OVC080 08/07 A2982 RMK AO2 RAE25 P0000=
201311181653 METAR KBLI 181653Z 13005KT 8SM -RA BKN042 OVC065 08/07 A2983 RMK AO2 SLP108 P0008 T00780067=
201311181608 SPECI KBLI 181608Z 15004KT 3SM RA BR FEW012 SCT017 OVC038 08/07 A2983 RMK AO2 P0004=
201311181553 METAR KBLI 181553Z 00000KT 6SM -RA BR SCT013 BKN017 OVC043 08/07 A2984 RMK AO2 RAB45 SLP114 P0001 T00780067=
201311181524 SPECI KBLI 181524Z 00000KT 10SM BKN015 BKN029 OVC047 08/07 A2984 RMK AO2=
201311181453 METAR KBLI 181453Z AUTO 18003KT 10SM OVC012 08/07 A2985 RMK AO2 RAB20E44 SLP115 P0000 60000 T00780067 56008=
201311181353 METAR KBLI 181353Z AUTO 00000KT 10SM OVC012 08/07 A2985 RMK AO2 RAB15E25 SLP115 P0000 T00780067=
201311181336 SPECI KBLI 181336Z AUTO 00000KT 10SM OVC010 08/07 A2985 RMK AO2 RAB15E25 P0000=
201311181253 METAR KBLI 181253Z AUTO 21003KT 10SM OVC009 08/07 A2986 RMK AO2 RAE09 CIG 005V013 SLP119 P0000 T00780067=
201311181200 SPECI KBLI 181200Z AUTO 00000KT 10SM -RA BKN009 BKN013 OVC018 08/07 A2987 RMK AO2 CIG 007V012 P0000=
201311181153 METAR KBLI 181153Z AUTO 21004KT 10SM -RA SCT011 BKN018 OVC042 08/07 A2987 RMK AO2 RAB11 SLP124 P0001 60002 70011 T00780067 10083 20078 50001=
201311181116 SPECI KBLI 181116Z AUTO 21004KT 10SM -RA BKN022 OVC036 08/07 A2987 RMK AO2 RAB11 P0000=
201311181053 METAR KBLI 181053Z AUTO 20004KT 10SM BKN036 BKN055 OVC075 08/07 A2987 RMK AO2 RAB36E48 SLP124 P0000 T00830067=
201311180953 METAR KBLI 180953Z AUTO 18004KT 10SM SCT041 OVC060 08/06 A2987 RMK AO2 SLP123 T00830061=
201311180853 METAR KBLI 180853Z AUTO 15007KT 10SM FEW043 BKN060 OVC075 08/06 A2987 RMK AO2 RAE32 SLP123 P0000 60001 T00830061 50003=
201311180753 METAR KBLI 180753Z AUTO 19004KT 10SM -RA SCT027 BKN038 OVC046 08/06 A2988 RMK AO2 RAB01E14B37 SLP126 P0000 T00830061 401000039=
201311180739 SPECI KBLI 180739Z AUTO 17004KT 10SM -RA BKN027 BKN036 OVC050 08/06 A2988 RMK AO2 RAB01E14B37 P0000=
201311180653 METAR KBLI 180653Z AUTO 16005KT 10SM SCT029 SCT036 OVC055 08/06 A2987 RMK AO2 RAB30E52 SLP123 P0001 T00780056=
201311180553 METAR KBLI 180553Z 15004KT 10SM BKN043 OVC050 08/06 A2986 RMK AO2 RAE26 SLP119 P0000 60006 T00780056 10094 20078 53005=
201311180453 METAR KBLI 180453Z 19005KT 8SM -RA BKN042 OVC050 08/06 A2986 RMK AO2 RAB07 SLP119 P0002 T00830056=
201311180353 METAR KBLI 180353Z 16005KT 10SM FEW036 BKN048 OVC060 08/06 A2984 RMK AO2 RAE14 SLP114 P0000 T00830056=
201311180345 SPECI KBLI 180345Z 17004KT 10SM SCT036 BKN044 OVC050 08/06 A2984 RMK AO2 RAE14 P0000=
201311180253 METAR KBLI 180253Z 17006KT 10SM -RA BKN026 OVC039 08/06 A2985 RMK AO2 SLP115 P0003 60004 T00780056 50010=
201311180153 METAR KBLI 180153Z 17005KT 6SM -RA BR BKN026 OVC034 08/06 A2985 RMK AO2 RAB34 SLP115 P0001 T00830061=
201311180142 SPECI KBLI 180142Z 18006KT 8SM -RA BKN026 OVC036 09/06 A2985 RMK AO2 RAB34 P0001=
201311180053 METAR KBLI 180053Z 17007KT 10SM FEW029 OVC055 09/04 A2982 RMK AO2 SLP106 T00940044=
201311172353 METAR KBLI 172353Z 17007G16KT 10SM FEW027 BKN036 OVC085 09/04 A2981 RMK AO2 SLP104 60002 T00940044 10100 20078 53011=
201311172253 METAR KBLI 172253Z 17008KT 10SM FEW027 10/04 A2978 RMK AO2 SLP094 T01000044=
201311172153 METAR KBLI 172153Z 16009G15KT 10SM CLR 10/04 A2978 RMK AO2 SLP092 T01000044=
201311172053 METAR KBLI 172053Z 16011KT 10SM BKN075 08/06 A2978 RMK AO2 RAE04B25E34 SLP093 P0000 60002 T00830061 58000=
201311172000 SPECI KBLI 172000Z 15011KT 7SM -RA SCT027 BKN049 OVC055 08/06 A2979 RMK AO2 P0000=
201311171953 METAR KBLI 171953Z 15010KT 4SM -RA BR BKN027 OVC049 08/06 A2980 RMK AO2 RAB1858 SLP099 P0002 T00780061=
201311171853 METAR KBLI 171853Z 16010G19KT 10SM BKN020 OVC055 08/05 A2981 RMK AO2 SLP101 T00830050=
201311171808 SPECI KBLI 171808Z 16015G22KT 9SM BKN020 OVC055 08/05 A2979 RMK AO2=
201311171753 METAR KBLI 171753Z 16013G21KT 10SM FEW020 OVC060 08/04 A2978 RMK AO2 SLP093 60001 T00830044 10083 20050 53005=
201311171734 SPECI KBLI 171734Z 14014G21KT 10SM SCT020 OVC055 08/04 A2978 RMK AO2=
201311171702 SPECI KBLI 171702Z 14012KT 10SM BKN020 BKN060 OVC100 08/04 A2978 RMK AO2=
201311171653 METAR KBLI 171653Z 15012G20KT 10SM SCT020 BKN060 OVC095 08/04 A2978 RMK AO2 SLP091 T00780039=
201311171553 METAR KBLI 171553Z 15012G17KT 10SM BKN055 OVC075 07/03 A2977 RMK AO2 SLP087 T00720028=
201311171453 METAR KBLI 171453Z AUTO 16009KT 10SM BKN045 OVC055 06/03 A2977 RMK AO2 RAB26E47 SLP088 P0001 60001 T00610033 55002=
201311171353 METAR KBLI 171353Z AUTO 15006KT 10SM SCT027 BKN033 OVC050 06/03 A2976 RMK AO2 RAE44 SLP084 P0000 T00610033=
201311171337 SPECI KBLI 171337Z AUTO 15008KT 10SM -RA BKN027 OVC037 06/03 A2976 RMK AO2 P0000=
201311171253 METAR KBLI 171253Z AUTO 14009KT 10SM -RA FEW028 OVC041 06/03 A2977 RMK AO2 RAB08 SLP089 P0000 T00560033=
201311171153 METAR KBLI 171153Z AUTO 15004KT 10SM BKN065 OVC120 05/02 A2977 RMK AO2 SLP090 70002 T00500022 10061 20039 50011=
201311171053 METAR KBLI 171053Z AUTO 16004KT 10SM CLR 05/02 A2977 RMK AO2 SLP090 T00500022=
201311170953 METAR KBLI 170953Z AUTO 17004KT 10SM CLR 05/02 A2976 RMK AO2 SLP086 T00500017=
201311170853 METAR KBLI 170853Z AUTO 18004KT 10SM CLR 04/02 A2974 RMK AO2 SLP078 T00440017 53020=
201311170753 METAR KBLI 170753Z AUTO 19004KT 10SM FEW120 04/02 A2972 RMK AO2 SLP071 T00440017 400890039=
201311170653 METAR KBLI 170653Z AUTO 18003KT 10SM OVC100 06/03 A2969 RMK AO2 SLP063 T00560028=
201311170553 METAR KBLI 170553Z 17003KT 10SM BKN038 OVC100 05/03 A2968 RMK AO2 SLP059 60002 T00500033 10078 20044 51013=
201311170453 METAR KBLI 170453Z 16004KT 10SM FEW037 BKN055 OVC110 04/03 A2966 RMK AO2 RAE05 SLP052 P0001 T00440033=
201311170451 SPECI KBLI 170451Z 16004KT 10SM FEW033 BKN055 OVC110 04/03 A2966 RMK AO2 RAE05 P0001=
201311170353 METAR KBLI 170353Z 00000KT 7SM -RA SCT022 BKN028 OVC050 06/03 A2964 RMK AO2 RAB13 SLP046 P0001 T00560028=
201311170338 SPECI KBLI 170338Z VRB03KT 7SM -RA FEW022 BKN028 OVC032 06/02 A2964 RMK AO2 RAB13 P0001=
201311170253 METAR KBLI 170253Z 00000KT 10SM SCT040 OVC055 06/02 A2962 RMK AO2 SLP038 T00560022 53014=
201311170153 METAR KBLI 170153Z VRB04KT 10SM SCT041 OVC050 08/00 A2960 RMK AO2 SLP032 T00780000=
201311170053 METAR KBLI 170053Z 19003KT 10SM OVC039 08/01 A2959 RMK AO2 SLP028 T00780006=
201311162353 METAR KBLI 162353Z 18005KT 10SM FEW038 SCT046 BKN055 08/02 A2958 RMK AO2 RAB2254E04 SLP024 P0000 60000 T00780017 10089 20072 53009=
201311162253 METAR KBLI 162253Z 00000KT 10SM SCT029 BKN039 OVC050 08/02 A2957 RMK AO2 SLP019 T00830017=
201311162153 METAR KBLI 162153Z VRB03KT 10SM BKN038 OVC047 08/01 A2956 RMK AO2 SLP017 T00830011=
201311162053 METAR KBLI 162053Z 26007KT 220V290 10SM OVC060 08/01 A2955 RMK AO2 SLP015 60000 T00830006 51009=
201311161953 METAR KBLI 161953Z VRB03KT 10SM FEW060 08/01 A2955 RMK AO2 SLP014 T00830011=
201311161853 METAR KBLI 161853Z VRB03KT 10SM FEW028 OVC040 08/02 A2954 RMK AO2 RAB39E42 SLP011 P0000 T00780017=
201311161753 METAR KBLI 161753Z VRB06KT 10SM BKN026 OVC036 07/02 A2953 RMK AO2 RAB18E40 SLP006 P0000 60000 T00720017 10072 20056 52028=
201311161653 METAR KBLI 161653Z VRB04KT 10SM BKN030 OVC034 07/02 A2949 RMK AO2 SLP995 T00720017=
201311161553 METAR KBLI 161553Z VRB06KT 10SM BKN025 OVC034 07/02 A2947 RMK AO2 SLP988 T00720022=
201311161453 METAR KBLI 161453Z 00000KT 10SM OVC025 07/03 A2944 RMK AO2 SLP978 T00670028 51024=
201311161403 SPECI KBLI 161403Z AUTO 00000KT 10SM BKN026 06/03 A2942 RMK AO2=
201311161353 METAR KBLI 161353Z AUTO 00000KT 10SM SCT024 06/02 A2942 RMK AO2 SLP970 T00610022=
201311161335 SPECI KBLI 161335Z AUTO 00000KT 10SM SCT022 06/02 A2941 RMK AO2=
201311161313 SPECI KBLI 161313Z AUTO 00000KT 10SM BKN022 07/03 A2941 RMK AO2=
201311161253 METAR KBLI 161253Z AUTO 28003KT 10SM FEW022 06/03 A2940 RMK AO2 SLP962 T00610028=
201311161211 SPECI KBLI 161211Z AUTO 28005KT 10SM FEW025 BKN031 07/03 A2938 RMK AO2=
201311161200 SPECI KBLI 161200Z AUTO 29008KT 10SM BKN025 BKN031 07/03 A2938 RMK AO2=
201311161153 METAR KBLI 161153Z AUTO 29008KT 10SM FEW022 BKN031 07/03 A2937 RMK AO2 SLP953 60001 70087 T00720028 10078 20067 53013=
201311161106 SPECI KBLI 161106Z AUTO 28008G16KT 10SM SCT024 BKN031 BKN085 07/03 A2936 RMK AO2=
201311161053 METAR KBLI 161053Z AUTO 29010G23KT 10SM BKN026 BKN033 OVC090 07/02 A2936 RMK AO2 SLP949 T00720022=
201311161039 SPECI KBLI 161039Z AUTO 28009G18KT 230V310 10SM BKN026 OVC033 08/03 A2936 RMK AO2=
201311160953 METAR KBLI 160953Z AUTO 28010G21KT 240V310 10SM SCT028 OVC035 08/02 A2934 RMK AO2 SLP944 T00780022=
201311160944 SPECI KBLI 160944Z AUTO 29010G20KT 260V340 10SM BKN027 OVC035 08/02 A2934 RMK AO2=
201311160853 METAR KBLI 160853Z AUTO VRB06G16KT 10SM BKN033 07/03 A2933 RMK AO2 SLP940 60001 T00720028 51015=
201311160753 METAR KBLI 160753Z AUTO VRB03KT 10SM FEW026 BKN036 OVC100 07/03 A2933 RMK AO2 SLP938 T00720033 400830056=
201311160653 METAR KBLI 160653Z AUTO 26007KT 220V290 10SM SCT024 BKN075 OVC090 08/04 A2931 RMK AO2 RAE10 SLP933 P0001 T00780044=
201311160604 SPECI KBLI 160604Z 26004KT 10SM -RA FEW013 BKN039 OVC049 07/04 A2929 RMK AO2 P0001=
201311160553 METAR KBLI 160553Z 29009G23KT 8SM -RA SCT013 BKN022 OVC041 08/05 A2929 RMK AO2 RAB37 SLP926 WSHFT 45 P0001 60045 T00780050 10083 20067 55018=
201311160453 METAR KBLI 160453Z 16014G27KT 10SM OVC012 08/06 A2927 RMK AO2 PK WND 15029/0418 RAE27 SLP919 P0004 T00830061=
201311160437 SPECI KBLI 160437Z 16013G25KT 10SM OVC013 08/06 A2927 RMK AO2 PK WND 15029/0418 RAE27 P0004=
201311160353 METAR KBLI 160353Z 16013G22KT 9SM -RA BKN017 OVC025 08/06 A2930 RMK AO2 PK WND 14029/0333 SLP930 P0007 T00780061=
201311160253 METAR KBLI 160253Z 16015G23KT 3SM -RA BR SCT020 OVC025 08/06 A2934 RMK AO2 SLP944 P0016 60033 T00780056 56063=
201311160246 SPECI KBLI 160246Z 16013G21KT 3SM -RA BR OVC025 08/06 A2935 RMK AO2 P0013=
201311160221 SPECI KBLI 160221Z 15013G20KT 2 1/2SM RA BR OVC025 07/05 A2937 RMK AO2 P0007=
201311160153 METAR KBLI 160153Z 14014G21KT 5SM -RA BKN019 OVC030 07/04 A2939 RMK AO2 SLP961 P0008 T00720044=
201311160053 METAR KBLI 160053Z 15016G22KT 5SM -RA BR BKN019 OVC030 07/04 A2946 RMK AO2 PK WND 15026/0027 SLP985 P0009 T00670044=
201311152353 METAR KBLI 152353Z 15012KT 5SM -RA BR BKN019 OVC030 07/04 A2953 RMK AO2 PRESFR SLP008 P0009 60041 T00670044 10072 20056 57053=
201311152253 METAR KBLI 152253Z 15012G20KT 5SM -RA OVC028 06/03 A2959 RMK AO2 SLP027 P0006 T00610033=
201311152153 METAR KBLI 152153Z 16013G25KT 5SM -RA BKN024 OVC031 06/03 A2963 RMK AO2 SLP042 P0007 T00610033=
201311152100 SPECI KBLI 152100Z 16016G24KT 5SM -RA BR FEW016 OVC024 06/03 A2968 RMK AO2 P0001=
201311152053 METAR KBLI 152053Z 16014G23KT 4SM -RA BR BKN009 BKN013 OVC026 06/04 A2969 RMK AO2 PK WND 16026/2042 SLP061 P0009 60019 T00560039 58050=
201311151953 METAR KBLI 151953Z 18008G20KT 7SM -RA BKN009 BKN020 OVC026 07/06 A2975 RMK AO2 SLP081 P0007 T00720056=
201311151930 SPECI KBLI 151930Z 17012G18KT 6SM -RA BR SCT009 BKN014 OVC022 07/06 A2977 RMK AO2 PRESFR P0004=
201311151909 SPECI KBLI 151909Z 17012G17KT 5SM -RA BR FEW009 BKN024 OVC033 07/06 A2979 RMK AO2 P0002=
201311151853 METAR KBLI 151853Z 17008KT 5SM -RA BR FEW017 BKN035 OVC046 07/05 A2981 RMK AO2 SLP101 P0003 T00720050=
201311151753 METAR KBLI 151753Z 17007KT 10SM -RA FEW020 SCT033 OVC060 08/04 A2984 RMK AO2 RAB35 SLP111 P0000 60000 T00780044 10083 20072 58020=
201311151653 METAR KBLI 151653Z 19006KT 10SM OVC070 08/04 A2985 RMK AO2 RAE24 SLP117 P0000 T00830039=
201311151553 METAR KBLI 151553Z VRB06KT 10SM -RA BKN045 OVC055 08/04 A2988 RMK AO2 RAB38 SLP126 P0000 T00780044=
201311151453 METAR KBLI 151453Z 20005KT 10SM FEW020 BKN039 OVC048 08/04 A2989 RMK AO2 SLP131 T00830039 56028=
201311151442 SPECI KBLI 151442Z AUTO 17005KT 10SM SCT020 BKN039 OVC049 08/04 A2989 RMK AO2=
201311151353 METAR KBLI 151353Z AUTO 16010KT 10SM BKN019 OVC027 08/04 A2991 RMK AO2 SLP136 T00780044=
201311151334 SPECI KBLI 151334Z AUTO 16009KT 10SM SCT014 OVC019 08/04 A2992 RMK AO2=
201311151318 SPECI KBLI 151318Z AUTO 16007KT 10SM BKN014 BKN019 OVC050 08/05 A2993 RMK AO2=
201311151311 SPECI KBLI 151311Z AUTO 16007KT 10SM SCT014 BKN019 OVC050 08/05 A2993 RMK AO2=
201311151253 METAR KBLI 151253Z AUTO 17008KT 10SM SCT015 OVC055 08/04 A2995 RMK AO2 SLP148 T00780044=
201311151210 SPECI KBLI 151210Z AUTO 19003KT 10SM FEW012 SCT018 OVC042 07/04 A2998 RMK AO2=
201311151153 METAR KBLI 151153Z AUTO 17006KT 10SM BKN015 BKN060 07/05 A2998 RMK AO2 SLP159 70001 T00720050 10072 20050 56009=
201311151127 SPECI KBLI 151127Z AUTO 17007KT 10SM SCT017 SCT021 07/04 A2998 RMK AO2=
201311151053 METAR KBLI 151053Z AUTO 15006KT 10SM BKN019 BKN023 07/04 A2999 RMK AO2 SLP164 T00720039=
201311151043 SPECI KBLI 151043Z AUTO 15007KT 10SM BKN019 BKN039 07/04 A3000 RMK AO2=
201311150953 METAR KBLI 150953Z AUTO 15005KT 10SM FEW013 BKN037 07/04 A3000 RMK AO2 SLP168 T00670039=
201311150853 METAR KBLI 150853Z AUTO 16004KT 10SM FEW012 BKN041 OVC050 07/04 A3004 RMK AO2 SLP179 T00720039 56011=
201311150753 METAR KBLI 150753Z AUTO 00000KT 10SM BKN041 OVC060 07/04 A3004 RMK AO2 SLP182 T00670039 401060039=
201311150653 METAR KBLI 150653Z AUTO 00000KT 10SM BKN043 05/04 A3006 RMK AO2 SLP186 T00500039=
201311150553 METAR KBLI 150553Z 14003KT 10SM OVC055 07/04 A3007 RMK AO2 SLP190 T00670044 10094 20039 56008=
201311150453 METAR KBLI 150453Z 00000KT 10SM BKN050 OVC060 06/04 A3008 RMK AO2 SLP193 T00610044=
201311150353 METAR KBLI 150353Z 15003KT 10SM OVC065 07/04 A3007 RMK AO2 SLP191 T00720044=
201311150253 METAR KBLI 150253Z 14003KT 10SM OVC050 06/04 A3009 RMK AO2 SLP198 T00610044 55003=
201311150153 METAR KBLI 150153Z 00000KT 10SM CLR 05/03 A3009 RMK AO2 SLP198 T00500033=
201311150053 METAR KBLI 150053Z 00000KT 10SM CLR 07/04 A3010 RMK AO2 SLP200 T00670039=
201311142353 METAR KBLI 142353Z 00000KT 10SM CLR 09/04 A3010 RMK AO2 SLP202 T00940044 10106 20089 56009=
201311142305 SPECI KBLI 142305Z 24005KT 10SM SCT022 10/04 A3011 RMK AO2=
201311142253 METAR KBLI 142253Z VRB05KT 10SM BKN024 10/05 A3011 RMK AO2 SLP202 T01000050=
201311142153 METAR KBLI 142153Z 27006KT 10SM SCT018 BKN026 10/05 A3011 RMK AO2 SLP203 T01000050=
201311142053 METAR KBLI 142053Z 28006KT 10SM FEW017 OVC024 09/06 A3013 RMK AO2 SLP210 T00940056 56006=
201311141953 METAR KBLI 141953Z 27008KT 10SM SCT011 OVC019 10/07 A3013 RMK AO2 SLP211 T01000067=
201311141949 SPECI KBLI 141949Z 27005KT 10SM FEW011 OVC017 10/06 A3013 RMK AO2=
201311141939 SPECI KBLI 141939Z 28008KT 10SM R16/1800VP6000FT SCT011 BKN014 OVC020 10/07 A3013 RMK AO2=
201311141853 METAR KBLI 141853Z 27005KT 10SM R16/5500VP6000FT SCT007 BKN016 OVC041 09/07 A3015 RMK AO2 SLP216 T00940072=
201311141814 SPECI KBLI 141814Z 00000KT 10SM SCT007 BKN016 OVC041 09/08 A3015 RMK AO2=
201311141753 METAR KBLI 141753Z 00000KT 10SM BKN007 BKN016 OVC022 09/08 A3016 RMK AO2 RAE1658 SLP218 P0000 60001 T00890078 10094 20089 56005=
201311141723 SPECI KBLI 141723Z 17004KT 10SM SCT004 BKN009 OVC012 09/08 A3016 RMK AO2 RAE1658 P0000=
201311141653 METAR KBLI 141653Z 17004KT 7SM -RA OVC012 09/08 A3016 RMK AO2 RAB23 SLP219 P0001 T00890078=
201311141630 SPECI KBLI 141630Z 17005KT 7SM -RA FEW004 OVC014 09/08 A3016 RMK AO2 RAB23 P0000=
201311141614 SPECI KBLI 141614Z VRB04KT 9SM FEW004 OVC016 09/08 A3016 RMK AO2=
201311141553 METAR KBLI 141553Z 17003KT 10SM OVC016 09/08 A3017 RMK AO2 SLP222 T00890078=
201311141453 METAR KBLI 141453Z 18003KT 10SM FEW005 SCT016 OVC026 09/07 A3017 RMK AO2 SLP224 T00890072 58014=
201311141441 SPECI KBLI 141441Z AUTO 17004KT 10SM FEW005 BKN018 OVC028 09/07 A3018 RMK AO2=
201311141409 SPECI KBLI 141409Z AUTO 19003KT 10SM BKN005 BKN032 OVC060 09/08 A3019 RMK AO2=
201311141353 METAR KBLI 141353Z AUTO 18003KT 10SM SCT005 BKN034 OVC055 09/08 A3019 RMK AO2 SLP231 T00890078=
201311141330 SPECI KBLI 141330Z AUTO 16003KT 10SM SCT005 SCT060 09/07 A3020 RMK AO2=
201311141253 METAR KBLI 141253Z AUTO 19004KT 10SM FEW065 09/07 A3020 RMK AO2 SLP233 T00890072=
201311141153 METAR KBLI 141153Z AUTO 17005KT 10SM SCT048 BKN060 09/07 A3021 RMK AO2 SLP238 T00940072 10106 20094 56020=
201311141053 METAR KBLI 141053Z AUTO 18006KT 10SM SCT050 SCT065 10/07 A3022 RMK AO2 SLP241 T01000067=
201311140953 METAR KBLI 140953Z AUTO 18005KT 10SM BKN045 BKN065 10/07 A3026 RMK AO2 SLP252 T01000067=
201311140853 METAR KBLI 140853Z AUTO 18005KT 10SM BKN045 OVC060 10/07 A3027 RMK AO2 SLP258 T01000072 58019=
201311140753 METAR KBLI 140753Z AUTO 17006KT 10SM BKN050 OVC060 10/07 A3030 RMK AO2 SLP268 T01000072 401220094=
201311140653 METAR KBLI 140653Z AUTO 17006KT 10SM OVC065 10/07 A3031 RMK AO2 SLP271 T01000072=
201311140553 METAR KBLI 140553Z 16008KT 10SM OVC060 11/07 A3033 RMK AO2 SLP277 T01060072 10111 20106 58011=
201311140453 METAR KBLI 140453Z 17008KT 10SM OVC060 11/07 A3034 RMK AO2 SLP282 T01060072=
201311140353 METAR KBLI 140353Z 16006KT 10SM OVC055 11/08 A3035 RMK AO2 SLP285 T01110078=
201311140253 METAR KBLI 140253Z 16007KT 10SM OVC055 11/08 A3036 RMK AO2 SLP288 T01110078 58008=
201311140224 SPECI KBLI 140224Z 15008KT 10SM OVC055 11/08 A3037 RMK AO2=
201311140153 METAR KBLI 140153Z 16006KT 10SM BKN024 OVC055 11/08 A3038 RMK AO2 SLP293 T01110078=
201311140151 SPECI KBLI 140151Z 16007KT 10SM BKN024 OVC055 11/08 A3038 RMK AO2=
201311140053 METAR KBLI 140053Z 16007KT 10SM BKN037 OVC055 11/08 A3039 RMK AO2 SLP297 T01110078=
201311132353 METAR KBLI 132353Z 16006KT 10SM BKN043 OVC050 11/08 A3039 RMK AO2 SLP298 T01110078 10122 20111 56004=
201311132253 METAR KBLI 132253Z 17007KT 10SM OVC055 11/08 A3039 RMK AO2 SLP299 T01110078=
201311132153 METAR KBLI 132153Z 16006KT 10SM OVC050 12/08 A3040 RMK AO2 SLP300 T01170078=
201311132053 METAR KBLI 132053Z 17007KT 10SM OVC050 12/08 A3040 RMK AO2 SLP301 T01170078 50001=
201311131953 METAR KBLI 131953Z 17007KT 10SM OVC046 12/08 A3041 RMK AO2 SLP304 T01170083=
201311131853 METAR KBLI 131853Z 17010KT 10SM FEW017 12/08 A3041 RMK AO2 SLP303 T01220083=
201311131753 METAR KBLI 131753Z 16010KT 10SM CLR 12/08 A3040 RMK AO2 SLP301 T01170083 10117 20106 51008=
201311131653 METAR KBLI 131653Z 16009KT 10SM CLR 11/08 A3039 RMK AO2 SLP300 T01110083=
201311131553 METAR KBLI 131553Z 17008KT 10SM SCT065 11/08 A3038 RMK AO2 SLP294 T01060083=
201311131453 METAR KBLI 131453Z AUTO 17006KT 10SM FEW060 11/08 A3038 RMK AO2 SLP293 T01060078 53010=
201311131353 METAR KBLI 131353Z AUTO 17009KT 10SM BKN090 11/08 A3037 RMK AO2 SLP291 T01110083=
201311131253 METAR KBLI 131253Z AUTO 17008KT 10SM FEW075 11/08 A3035 RMK AO2 SLP285 T01110083=
201311131153 METAR KBLI 131153Z AUTO 17008KT 10SM OVC075 11/09 A3035 RMK AO2 SLP283 60015 70023 T01110089 10122 20106 53005=
201311131053 METAR KBLI 131053Z AUTO 16007KT 10SM BKN095 11/09 A3034 RMK AO2 SLP280 T01060094=
201311130953 METAR KBLI 130953Z AUTO 16008KT 10SM FEW004 BKN075 OVC095 11/09 A3033 RMK AO2 RAE17B36E45 SLP279 P0010 T01060094=
201311130929 SPECI KBLI 130929Z AUTO 17006KT 10SM FEW008 SCT017 OVC070 11/10 A3034 RMK AO2 RAE17 P0010=
201311130921 SPECI KBLI 130921Z AUTO 18006KT 10SM SCT008 BKN021 OVC075 11/10 A3033 RMK AO2 RAE17 P0010=
201311130914 SPECI KBLI 130914Z AUTO VRB03G16KT 10SM -RA FEW005 BKN010 OVC036 12/10 A3033 RMK AO2 P0010=
201311130906 SPECI KBLI 130906Z AUTO 17008G15KT 2 1/2SM -RA BR FEW006 BKN010 OVC036 11/10 A3034 RMK AO2 P0010=
201311130859 SPECI KBLI 130859Z AUTO 21008KT 180V250 1 3/4SM +RA BR BKN008 BKN029 OVC038 11/10 A3033 RMK AO2 P0008=
201311130855 SPECI KBLI 130855Z AUTO VRB03KT 2 1/2SM RA BR SCT008 BKN029 OVC055 11/10 A3033 RMK AO2 VIS 1 1/2V5 P0003=
201311130853 METAR KBLI 130853Z AUTO 20005KT 3SM RA BR SCT008 BKN035 OVC080 11/09 A3033 RMK AO2 RAB36 SLP278 P0005 60005 T01110094 53011=
201311130834 SPECI KBLI 130834Z AUTO 17008KT 10SM SCT018 BKN060 OVC085 12/09 A3032 RMK AO2=
201311130826 SPECI KBLI 130826Z AUTO 16008KT 10SM BKN018 BKN055 BKN085 12/09 A3032 RMK AO2=
201311130753 METAR KBLI 130753Z AUTO 16009KT 10SM FEW038 BKN090 OVC110 12/09 A3032 RMK AO2 SLP273 T01170094 401330072=
201311130653 METAR KBLI 130653Z AUTO 17009G17KT 10SM SCT041 BKN080 BKN090 12/09 A3030 RMK AO2 SLP268 T01170094=
201311130553 METAR KBLI 130553Z 17007KT 10SM SCT037 OVC100 12/09 A3030 RMK AO2 SLP266 60000 T01220094 10133 20111 53009=
201311130453 METAR KBLI 130453Z 17005KT 10SM BKN038 BKN075 12/09 A3028 RMK AO2 SLP261 T01170094=
201311130353 METAR KBLI 130353Z 16006KT 10SM SCT075 BKN090 12/09 A3027 RMK AO2 RAE0257 SLP258 P0000 T01170094=
201311130300 SPECI KBLI 130300Z 18004KT 10SM FEW024 BKN070 OVC085 12/10 A3027 RMK AO2 RAE0257 P0000=
201311130253 METAR KBLI 130253Z 17005KT 10SM -RA BKN024 BKN075 OVC100 12/10 A3027 RMK AO2 RAB26 SLP257 P0000 60000 T01220100 51007=
201311130221 SPECI KBLI 130221Z 16009KT 10SM BKN024 BKN075 OVC100 12/09 A3026 RMK AO2=
201311130212 SPECI KBLI 130212Z 17006KT 10SM SCT024 SCT075 OVC095 12/09 A3027 RMK AO2=
201311130153 METAR KBLI 130153Z 18007KT 10SM BKN024 OVC095 12/09 A3027 RMK AO2 SLP256 T01220094=
201311130139 SPECI KBLI 130139Z 17006KT 10SM BKN024 BKN100 13/09 A3027 RMK AO2=
201311130053 METAR KBLI 130053Z 14003KT 10SM BKN100 12/09 A3025 RMK AO2 SLP252 T01220089=
201311122353 METAR KBLI 122353Z 16004KT 10SM SCT110 13/09 A3025 RMK AO2 SLP250 60001 T01330094 10133 20117 51004=
201311122253 METAR KBLI 122253Z 17005KT 10SM FEW037 BKN110 12/09 A3025 RMK AO2 SLP249 T01220089=
201311122153 METAR KBLI 122153Z 17010KT 10SM FEW036 BKN065 OVC090 13/09 A3024 RMK AO2 RAE04 SLP246 P0000 T01280094=
201311122053 METAR KBLI 122053Z 18009KT 9SM -RA FEW048 OVC060 12/09 A3023 RMK AO2 RAB46 SLP245 P0000 60001 T01220094 51019=
201311121953 METAR KBLI 121953Z 16011G18KT 10SM SCT018 OVC030 12/09 A3022 RMK AO2 SLP242 T01220094=
201311121853 METAR KBLI 121853Z 17012G23KT 10SM SCT018 BKN030 OVC060 12/09 A3021 RMK AO2 SLP237 P0001 T01220089=
201311121753 METAR KBLI 121753Z 17007KT 10SM BKN030 BKN041 OVC065 12/08 A3018 RMK AO2 RAB38E49 SLP227 P0000 60007 T01170078 10133 20078 53038=
201311121653 METAR KBLI 121653Z 16009KT 10SM BKN038 BKN049 OVC070 12/08 A3014 RMK AO2 SLP215 T01170078=
201311121553 METAR KBLI 121553Z 13005KT 10SM SCT044 OVC080 11/08 A3010 RMK AO2 RAE38 SLP199 P0001 T01110078=
201311121453 METAR KBLI 121453Z 12009G21KT 10SM -RA BKN055 OVC070 11/08 A3007 RMK AO2 RAB1358 SLP189 P0004 60006 T01110078 53014=
201311121353 METAR KBLI 121353Z AUTO 00000KT 10SM OVC070 08/07 A3005 RMK AO2 RAB1258E42 SLP183 P0000 T00830067=
201311121253 METAR KBLI 121253Z AUTO 00000KT 10SM FEW070 OVC095 08/06 A3002 RMK AO2 RAB07E49 SLP174 P0002 T00780056=
201311121153 METAR KBLI 121153Z AUTO 00000KT 10SM BKN110 08/05 A3002 RMK AO2 SLP174 T00830050 10083 20061 53002=
201311121053 METAR KBLI 121053Z AUTO 00000KT 10SM SCT120 08/05 A3001 RMK AO2 SLP170 T00830050=
201311120953 METAR KBLI 120953Z AUTO 00000KT 10SM FEW120 07/05 A3000 RMK AO2 SLP167 T00720050=
201311120853 METAR KBLI 120853Z AUTO 00000KT 10SM CLR 08/04 A3002 RMK AO2 SLP172 T00780044 55001=
201311120753 METAR KBLI 120753Z AUTO 34003KT 10SM CLR 08/04 A3001 RMK AO2 SLP169 T00830039 401440061=
201311120653 METAR KBLI 120653Z AUTO 35003KT 10SM CLR 07/04 A3001 RMK AO2 SLP169 T00670044=
201311120553 METAR KBLI 120553Z 35003KT 10SM CLR 07/04 A3002 RMK AO2 SLP174 T00670044 10111 20061 56002=
201311120453 METAR KBLI 120453Z 00000KT 10SM CLR 07/04 A3002 RMK AO2 SLP174 T00670044=
201311120353 METAR KBLI 120353Z 00000KT 10SM CLR 07/04 A3002 RMK AO2 SLP173 T00720044=
201311120253 METAR KBLI 120253Z 00000KT 10SM CLR 08/04 A3003 RMK AO2 SLP175 T00780044 56011=
201311120153 METAR KBLI 120153Z 00000KT 10SM CLR 08/04 A3003 RMK AO2 SLP176 T00780039=
201311120053 METAR KBLI 120053Z 00000KT 10SM CLR 10/03 A3005 RMK AO2 SLP182 T01000033=
201311112353 METAR KBLI 112353Z 01004KT 10SM CLR 11/04 A3006 RMK AO2 SLP185 T01110044 10144 20089 56027=
201311112253 METAR KBLI 112253Z 01006KT 10SM CLR 12/04 A3008 RMK AO2 SLP192 T01220039=
201311112153 METAR KBLI 112153Z 03006KT 10SM CLR 14/04 A3010 RMK AO2 SLP198 T01390044=
201311112053 METAR KBLI 112053Z VRB04KT 10SM CLR 13/04 A3014 RMK AO2 SLP212 T01280039 55010=
201311111953 METAR KBLI 111953Z 05006KT 10SM CLR 12/05 A3013 RMK AO2 SLP210 T01170050=
201311111853 METAR KBLI 111853Z 00000KT 10SM CLR 09/07 A3016 RMK AO2 SLP219 T00940067=
201311111753 METAR KBLI 111753Z 13003KT 10SM CLR 09/06 A3017 RMK AO2 SLP224 T00890061 10106 20083 53004=
201311111653 METAR KBLI 111653Z 06004KT 10SM CLR 11/03 A3015 RMK AO2 SLP218 T01060028=
201311111553 METAR KBLI 111553Z 04007KT 10SM CLR 10/02 A3016 RMK AO2 SLP219 T01000022=
201311111453 METAR KBLI 111453Z AUTO 05004KT 10SM CLR 09/02 A3016 RMK AO2 SLP220 T00890022 52005=
201311111353 METAR KBLI 111353Z AUTO 02006G15KT 10SM CLR 09/02 A3016 RMK AO2 SLP221 T00890022=
201311111253 METAR KBLI 111253Z AUTO 03008G15KT 10SM CLR 09/02 A3014 RMK AO2 SLP213 T00940022=
201311111153 METAR KBLI 111153Z AUTO 03009KT 10SM BKN042 10/02 A3014 RMK AO2 SLP214 60001 70001 T01000022 10100 20094 50000=
201311111053 METAR KBLI 111053Z AUTO 02010KT 10SM OVC040 10/02 A3015 RMK AO2 SLP216 T01000022=
201311110953 METAR KBLI 110953Z AUTO 03012G19KT 10SM BKN042 OVC055 10/02 A3015 RMK AO2 SLP215 T01000022=
201311110853 METAR KBLI 110853Z AUTO 03010G21KT 10SM OVC040 10/02 A3014 RMK AO2 SLP213 P0001 60001 T01000022 58002=
201311110753 METAR KBLI 110753Z AUTO 03011KT 10SM OVC040 10/03 A3015 RMK AO2 SLP216 T01000028 401060056=
201311110653 METAR KBLI 110653Z AUTO 03013G20KT 10SM OVC048 10/03 A3014 RMK AO2 SLP215 T01000028=
201311110553 METAR KBLI 110553Z 03009KT 10SM CLR 10/03 A3015 RMK AO2 SLP216 60000 T01000033 10100 20083 55003=
201311110453 METAR KBLI 110453Z 02008G17KT 10SM SCT070 BKN120 09/04 A3014 RMK AO2 SLP216 T00940039=
201311110353 METAR KBLI 110353Z 02009G15KT 10SM OVC075 09/04 A3015 RMK AO2 RAB00E25 SLP216 P0000 T00940039=
201311110253 METAR KBLI 110253Z 33005KT 10SM FEW050 SCT065 OVC085 08/06 A3015 RMK AO2 RAB26E37 SLP219 P0000 60000 T00830056 53001=
201311110153 METAR KBLI 110153Z 33003KT 10SM OVC075 08/06 A3015 RMK AO2 RAB06E29 SLP216 P0000 T00830061=
201311110053 METAR KBLI 110053Z 30004KT 10SM OVC095 09/06 A3015 RMK AO2 RAB23E41 SLP216 P0000 T00890056=
201311102353 METAR KBLI 102353Z 31004KT 10SM FEW060 OVC090 09/06 A3015 RMK AO2 SLP218 T00940056 10106 20078 58001=
201311102253 METAR KBLI 102253Z 34005KT 10SM OVC100 10/05 A3015 RMK AO2 SLP219 T01000050=
201311102153 METAR KBLI 102153Z 01005KT 10SM BKN100 10/04 A3015 RMK AO2 SLP219 T01000044=
201311102053 METAR KBLI 102053Z 35005KT 10SM SCT080 OVC110 10/05 A3015 RMK AO2 SLP218 T01000050 58002=
201311101953 METAR KBLI 101953Z 36005KT 10SM OVC100 09/05 A3016 RMK AO2 SLP222 T00890050=
201311101853 METAR KBLI 101853Z 36005KT 10SM OVC110 08/05 A3017 RMK AO2 SLP223 T00830050=
201311101753 METAR KBLI 101753Z 35007KT 10SM OVC110 08/05 A3016 RMK AO2 SLP220 T00780050 10078 20061 51007=
201311101653 METAR KBLI 101653Z 34005KT 10SM BKN110 07/05 A3015 RMK AO2 SLP218 T00720050=
201311101553 METAR KBLI 101553Z 36005KT 10SM CLR 06/04 A3014 RMK AO2 SLP215 T00610044=
201311101453 METAR KBLI 101453Z AUTO 35005KT 10SM CLR 06/04 A3013 RMK AO2 SLP212 T00610044 53002=
201311101353 METAR KBLI 101353Z AUTO 35005KT 10SM FEW060 07/05 A3013 RMK AO2 SLP211 T00670050=
201311101253 METAR KBLI 101253Z AUTO 36004KT 10SM OVC060 06/04 A3013 RMK AO2 SLP209 T00610044=
201311101153 METAR KBLI 101153Z AUTO 36003KT 10SM OVC040 07/05 A3013 RMK AO2 SLP210 T00670050 10067 20056 57001=
201311101053 METAR KBLI 101053Z AUTO 00000KT 10SM OVC044 07/05 A3013 RMK AO2 SLP211 T00670050=
201311100953 METAR KBLI 100953Z AUTO 00000KT 9SM OVC046 06/05 A3013 RMK AO2 SLP211 T00610050=
201311100853 METAR KBLI 100853Z AUTO 00000KT 10SM OVC046 06/05 A3013 RMK AO2 SLP212 T00610050 51003=
201311100753 METAR KBLI 100753Z AUTO 00000KT 10SM SCT046 OVC055 06/04 A3013 RMK AO2 SLP211 T00610044 400940033=
201311100653 METAR KBLI 100653Z AUTO 00000KT 10SM OVC055 06/04 A3013 RMK AO2 SLP210 T00610044=
201311100553 METAR KBLI 100553Z 00000KT 10SM CLR 06/04 A3012 RMK AO2 SLP208 T00560044 10089 20056 50004=
201311100453 METAR KBLI 100453Z 00000KT 10SM FEW060 BKN075 07/04 A3012 RMK AO2 SLP209 T00670044=
201311100353 METAR KBLI 100353Z 00000KT 10SM OVC090 07/05 A3012 RMK AO2 SLP208 T00720050=
201311100253 METAR KBLI 100253Z 00000KT 10SM OVC050 08/05 A3011 RMK AO2 SLP204 T00780050 51004=
201311100153 METAR KBLI 100153Z 01003KT 10SM OVC060 08/05 A3011 RMK AO2 SLP204 T00780050=
201311100053 METAR KBLI 100053Z 00000KT 10SM OVC090 08/04 A3011 RMK AO2 SLP204 T00830044=
201311092353 METAR KBLI 092353Z AUTO 01004KT 10SM OVC075 09/04 A3010 RMK AO2 SLP200 T00890044 10094 20067 56002 TSNO=
201311092253 METAR KBLI 092253Z 33005KT 10SM FEW080 OVC090 09/04 A3010 RMK AO2 SLP201 T00890044=
201311092153 METAR KBLI 092153Z 02005KT 10SM OVC080 09/04 A3010 RMK AO2 SLP200 T00890044=
201311092053 METAR KBLI 092053Z 00000KT 10SM OVC090 09/04 A3010 RMK AO2 SLP202 T00890044 58004=
201311091953 METAR KBLI 091953Z 00000KT 10SM OVC100 08/04 A3011 RMK AO2 SLP204 T00830044=
201311091853 METAR KBLI 091853Z 03004KT 10SM OVC100 07/04 A3012 RMK AO2 SLP207 T00720044=
201311091753 METAR KBLI 091753Z 00000KT 10SM CLR 07/04 A3012 RMK AO2 SLP206 T00670044 10067 20033 58002=
201311091653 METAR KBLI 091653Z 00000KT 10SM CLR 06/04 A3012 RMK AO2 SLP206 T00560039=
201311091553 METAR KBLI 091553Z 00000KT 10SM CLR 03/02 A3012 RMK AO2 SLP209 T00330022=
201311091453 METAR KBLI 091453Z 00000KT 10SM CLR 04/02 A3012 RMK AO2 SLP208 T00390022 56007=
201311091407 SPECI KBLI 091407Z AUTO 35003KT 3SM BR CLR 03/02 A3013 RMK AO2=
201311091401 SPECI KBLI 091401Z AUTO 00000KT 1SM R16/P6000FT BR CLR 04/03 A3013 RMK AO2=
201311091353 METAR KBLI 091353Z AUTO 00000KT 2 1/2SM BR CLR 04/03 A3013 RMK AO2 VIS 1 1/4V5 SLP210 T00440033=
201311091339 SPECI KBLI 091339Z AUTO 00000KT 7SM CLR 05/04 A3012 RMK AO2=
201311091318 SPECI KBLI 091318Z AUTO 02003KT 2SM BR SCT030 04/04 A3013 RMK AO2 VIS 3/4V5=
201311091253 METAR KBLI 091253Z AUTO 00000KT 9SM OVC030 06/05 A3014 RMK AO2 SLP214 T00560050=
201311091153 METAR KBLI 091153Z AUTO 29003KT 10SM FEW028 OVC039 07/05 A3014 RMK AO2 SLP216 70004 T00670050 10078 20067 50001=
201311091146 SPECI KBLI 091146Z AUTO 00000KT 10SM SCT028 OVC039 07/05 A3014 RMK AO2=
201311091127 SPECI KBLI 091127Z AUTO 00000KT 10SM BKN028 OVC036 07/06 A3014 RMK AO2=
201311091053 METAR KBLI 091053Z AUTO 00000KT 10SM OVC032 07/06 A3015 RMK AO2 SLP218 T00720056=
201311091021 SPECI KBLI 091021Z AUTO 00000KT 10SM OVC030 07/06 A3015 RMK AO2=
201311090953 METAR KBLI 090953Z AUTO 00000KT 10SM OVC028 07/06 A3014 RMK AO2 SLP214 T00720056=
201311090853 METAR KBLI 090853Z AUTO 00000KT 10SM OVC028 07/06 A3014 RMK AO2 SLP215 T00720061 58003=
201311090753 METAR KBLI 090753Z AUTO 00000KT 10SM OVC028 08/06 A3015 RMK AO2 SLP217 T00780061 401110078=
201311090653 METAR KBLI 090653Z AUTO 06003KT 10SM BKN028 BKN039 OVC047 08/06 A3015 RMK AO2 SLP218 T00780061=
201311090637 SPECI KBLI 090637Z AUTO 00000KT 10SM BKN030 BKN037 OVC050 08/06 A3015 RMK AO2=
201311090553 METAR KBLI 090553Z 00000KT 10SM BKN028 OVC033 08/07 A3015 RMK AO2 RAB14E43 SLP217 P0001 60004 T00780067 10100 20078 53006=
201311090453 METAR KBLI 090453Z 00000KT 10SM BKN028 OVC041 08/07 A3014 RMK AO2 RAE27 SLP215 P0002 T00830072=
201311090444 SPECI KBLI 090444Z 00000KT 10SM BKN028 OVC040 08/07 A3014 RMK AO2 RAE27 P0002=
201311090353 METAR KBLI 090353Z 00000KT 10SM -RA BKN034 OVC045 08/07 A3014 RMK AO2 RAE23B48 SLP213 P0000 T00830067=
201311090253 METAR KBLI 090253Z 17003KT 7SM -RA SCT032 OVC042 09/07 A3013 RMK AO2 RAB45 SLP212 P0001 60001 T00890067 53007=
201311090153 METAR KBLI 090153Z 00000KT 10SM SCT042 BKN055 08/06 A3012 RMK AO2 SLP208 T00830056=
201311090053 METAR KBLI 090053Z 16006KT 10SM SCT050 BKN110 10/05 A3012 RMK AO2 SLP207 T01000050=
201311082353 METAR KBLI 082353Z 16005KT 10SM SCT049 BKN110 10/06 A3011 RMK AO2 SLP205 T01000056 10111 20100 53003=
201311082253 METAR KBLI 082253Z 16006KT 10SM FEW075 BKN110 11/06 A3011 RMK AO2 SLP202 T01060061=
201311082153 METAR KBLI 082153Z 17008KT 10SM SCT040 SCT050 BKN085 11/06 A3010 RMK AO2 SLP201 T01060061=
201311082053 METAR KBLI 082053Z VRB06KT 10SM BKN043 11/07 A3010 RMK AO2 SLP201 T01060067 58002=
201311081953 METAR KBLI 081953Z 17009KT 10SM CLR 11/06 A3011 RMK AO2 SLP202 T01110061=
201311081853 METAR KBLI 081853Z 18006KT 10SM CLR 11/06 A3011 RMK AO2 SLP204 T01060061=
201311081753 METAR KBLI 081753Z 18005KT 10SM OVC046 10/06 A3011 RMK AO2 SLP203 T01000061 10100 20083 51021=
201311081653 METAR KBLI 081653Z 16006KT 10SM OVC036 09/06 A3009 RMK AO2 SLP199 T00940061=
201311081553 METAR KBLI 081553Z 15005KT 10SM OVC034 09/06 A3007 RMK AO2 SLP192 T00890056=
201311081453 METAR KBLI 081453Z 17006KT 10SM OVC034 09/06 A3004 RMK AO2 SLP182 T00890056 53012=
201311081353 METAR KBLI 081353Z AUTO 15005KT 10SM SCT036 BKN046 OVC060 09/06 A3003 RMK AO2 SLP176 T00890056=
201311081253 METAR KBLI 081253Z AUTO 15004KT 10SM FEW028 BKN036 OVC060 08/07 A3001 RMK AO2 SLP169 T00830067=
201311081248 SPECI KBLI 081248Z AUTO 00000KT 10SM SCT028 BKN036 OVC060 08/07 A3001 RMK AO2=
201311081153 METAR KBLI 081153Z AUTO 17003KT 10SM SCT017 OVC022 08/07 A2999 RMK AO2 SLP165 60002 70048 T00830067 10100 20083 53016=
201311081053 METAR KBLI 081053Z AUTO 00000KT 10SM BKN022 OVC028 09/06 A2997 RMK AO2 SLP156 T00890061=
201311081027 SPECI KBLI 081027Z AUTO VRB03KT 10SM OVC029 09/06 A2996 RMK AO2=
201311080953 METAR KBLI 080953Z AUTO VRB06KT 10SM OVC031 09/06 A2995 RMK AO2 RAE44 SLP150 P0001 T00890061=
201311080939 SPECI KBLI 080939Z AUTO 18004KT 10SM -RA OVC031 09/07 A2995 RMK AO2 P0001=
201311080915 SPECI KBLI 080915Z AUTO VRB05KT 10SM BKN028 OVC037 09/07 A2995 RMK AO2 RAE07 P0001=
201311080853 METAR KBLI 080853Z AUTO VRB05KT 9SM -RA SCT030 OVC037 09/07 A2995 RMK AO2 SLP149 P0001 60001 T00890067 53014=
201311080753 METAR KBLI 080753Z AUTO 19007KT 10SM -RA FEW026 OVC039 09/07 A2993 RMK AO2 RAB26 SLP142 P0000 T00940067 401390072=
201311080653 METAR KBLI 080653Z AUTO 18004KT 10SM SCT024 OVC043 09/07 A2990 RMK AO2 SLP133 T00940072=
201311080607 SPECI KBLI 080607Z 17006KT 10SM SCT011 OVC025 09/08 A2989 RMK AO2=
201311080553 METAR KBLI 080553Z 17006KT 10SM BKN011 BKN016 OVC025 09/08 A2988 RMK AO2 SLP125 60001 T00940078 10106 20089 51034=
201311080518 SPECI KBLI 080518Z 17006KT 10SM BKN012 OVC025 09/08 A2986 RMK AO2=
201311080453 METAR KBLI 080453Z 17006KT 10SM BKN015 OVC022 09/08 A2985 RMK AO2 RAE03 SLP114 P0000 T00940078=
201311080437 SPECI KBLI 080437Z 17006KT 10SM OVC015 09/08 A2983 RMK AO2 RAE03 P0000=
201311080353 METAR KBLI 080353Z AUTO VRB03KT 4SM -RA BR FEW008 OVC012 09/08 A2982 RMK AO2 RAB38 SLP103 P0001 T00890078 TSNO=
201311080346 SPECI KBLI 080346Z 18005KT 4SM -RA BR OVC012 09/08 A2981 RMK AO2 RAB38 P0000=
201311080253 METAR KBLI 080253Z 16006KT 10SM BKN017 OVC027 10/07 A2978 RMK AO2 SLP091 60000 T01000067 53029=
201311080153 METAR KBLI 080153Z 14011G15KT 10SM OVC019 10/07 A2975 RMK AO2 RAE04 SLP082 P0000 T01000067=
201311080053 METAR KBLI 080053Z 12013G20KT 10SM -RA OVC021 10/06 A2971 RMK AO2 RAB53 SLP068 P0000 T01000061=
201311072353 METAR KBLI 072353Z 15014G22KT 10SM OVC025 11/06 A2969 RMK AO2 PK WND 14031/2258 SLP062 60018 T01060056 10106 20094 55002=
201311072253 METAR KBLI 072253Z 15019G29KT 10SM OVC029 11/06 A2967 RMK AO2 PK WND 14034/2227 SLP055 T01060056=
201311072153 METAR KBLI 072153Z 15014G29KT 10SM OVC025 11/06 A2969 RMK AO2 PK WND 16029/2144 RAE2057 SLP061 P0000 T01060061=
201311072053 METAR KBLI 072053Z 15016G21KT 10SM -RA SCT020 OVC026 10/07 A2970 RMK AO2 PK WND 15029/2013 RAB15 SLP064 P0002 60018 T01000067 50007=
201311071953 METAR KBLI 071953Z 15018G28KT 10SM BKN019 OVC023 10/07 A2971 RMK AO2 PK WND 14028/1946 RAE25 SLP067 P0001 T01000072=
201311071924 SPECI KBLI 071924Z 15009KT 10SM -RA BKN019 BKN025 OVC041 10/08 A2970 RMK AO2 P0001=
201311071853 METAR KBLI 071853Z 13006KT 5SM -RA BR BKN055 OVC070 10/09 A2969 RMK AO2 SLP060 P0015 T01000089=
201311071809 SPECI KBLI 071809Z 15003KT 3SM RA BR FEW011 OVC034 10/09 A2968 RMK AO2 P0005=
201311071755 SPECI KBLI 071755Z 00000KT 2 1/2SM -RA BR FEW011 BKN028 OVC034 10/09 A2967 RMK AO2 P0000=
201311071753 METAR KBLI 071753Z 00000KT 3SM -RA BR FEW013 BKN028 OVC034 10/09 A2967 RMK AO2 PK WND 15030/1654 RAB1654 SLP056 P0019 60027 T01000089 10139 20072 55009=
201311071746 SPECI KBLI 071746Z 00000KT 2SM RA BR FEW012 BKN030 OVC034 10/09 A2968 RMK AO2 PK WND 15030/1654 RAB1654 P0017=
201311071735 SPECI KBLI 071735Z 20006KT 1 1/4SM RA BR SCT010 BKN019 OVC038 11/09 A2968 RMK AO2 PK WND 15030/1654 RAB1654 P0013=
201311071726 SPECI KBLI 071726Z 21009G19KT 2 1/2SM +RA BR SCT012 BKN028 OVC035 11/09 A2967 RMK AO2 PK WND 15030/1654 VIS 1 1/4V5 RAB1654 PRESRR P0007=
201311071653 METAR KBLI 071653Z 16021G32KT 9SM BKN026 OVC036 14/09 A2965 RMK AO2 PK WND 14032/1647 SLP047 T01390089=
201311071553 METAR KBLI 071553Z 13015G23KT 10SM OVC026 13/09 A2965 RMK AO2 RAE1458 SLP047 P0000 T01280089=
201311071453 METAR KBLI 071453Z 01005KT 10SM -RA OVC020 08/07 A2970 RMK AO2 RAE26B42 SLP066 P0002 60008 T00780067 58046=
201311071353 METAR KBLI 071353Z AUTO VRB03KT 7SM -RA OVC022 07/06 A2976 RMK AO2 RAB07 SLP086 P0005 T00720061=
201311071253 METAR KBLI 071253Z AUTO 02006KT 10SM FEW015 OVC026 07/06 A2980 RMK AO2 RAB06E51 SLP098 P0001 T00720061=
201311071153 METAR KBLI 071153Z AUTO 33004KT 10SM OVC021 07/06 A2984 RMK AO2 RAB1058E16 SLP112 P0000 60006 70006 T00720061 10083 20072 58043=
201311071053 METAR KBLI 071053Z AUTO 01004KT 10SM OVC021 07/06 A2988 RMK AO2 RAE01B18E42 SLP125 P0000 T00720056=
201311070953 METAR KBLI 070953Z AUTO 02008KT 10SM -RA OVC023 07/05 A2993 RMK AO2 SLP142 P0003 T00720050=
201311070853 METAR KBLI 070853Z AUTO 03006KT 10SM -RA OVC027 07/05 A2997 RMK AO2 RAB08 SLP155 P0003 60003 T00720050 56034=
201311070830 SPECI KBLI 070830Z 35006KT 10SM -RA BKN029 OVC033 08/05 A2999 RMK AO2 RAB08 P0001=
201311070753 METAR KBLI 070753Z 03008KT 10SM OVC037 08/05 A2998 RMK AO2 RAB14E51 SLP161 P0000 T00780050 401000056=
201311070653 METAR KBLI 070653Z 01004KT 10SM BKN043 OVC070 08/04 A3002 RMK AO2 SLP175 T00830039=
201311070553 METAR KBLI 070553Z 02005KT 10SM BKN045 OVC055 08/04 A3007 RMK AO2 SLP189 60000 T00830044 10089 20078 58036=
201311070453 METAR KBLI 070453Z 03005KT 10SM SCT048 OVC065 08/04 A3011 RMK AO2 SLP204 T00830044=
201311070353 METAR KBLI 070353Z 02006KT 10SM OVC050 08/05 A3016 RMK AO2 SLP220 T00830050=
201311070253 METAR KBLI 070253Z 03007KT 10SM SCT070 OVC085 08/06 A3017 RMK AO2 RAE04B31E48 PRESFR SLP226 P0000 60000 T00780056 58021=
201311070153 METAR KBLI 070153Z 36005KT 10SM -RA BKN050 OVC070 08/06 A3021 RMK AO2 RAB45 SLP239 P0000 T00830056=
201311070053 METAR KBLI 070053Z 02005KT 10SM OVC100 08/06 A3022 RMK AO2 SLP240 T00830056=
201311062353 METAR KBLI 062353Z 02007KT 10SM SCT110 09/06 A3024 RMK AO2 SLP247 T00890056 10100 20078 58018=
201311062253 METAR KBLI 062253Z 01007KT 10SM FEW110 09/06 A3026 RMK AO2 SLP254 T00940056=
201311062153 METAR KBLI 062153Z 02008KT 10SM CLR 10/06 A3027 RMK AO2 SLP259 T01000061=
201311062053 METAR KBLI 062053Z 02004KT 10SM CLR 10/07 A3029 RMK AO2 SLP265 T01000067 58011=
201311061953 METAR KBLI 061953Z 03004KT 9SM CLR 09/07 A3032 RMK AO2 SLP274 T00940072=
201311061853 METAR KBLI 061853Z 34004KT 8SM CLR 09/07 A3033 RMK AO2 SLP277 T00890067=
201311061753 METAR KBLI 061753Z 00000KT 10SM FEW040 08/06 A3032 RMK AO2 SLP277 T00780061 10078 20061 50001=
201311061653 METAR KBLI 061653Z 01003KT 10SM FEW004 SCT025 OVC041 07/06 A3033 RMK AO2 SLP279 FG BANK NW-NE VIS NW-NE 2 BR T00670056=
201311061651 SPECI KBLI 061651Z 01004KT 10SM FEW004 SCT025 OVC041 07/06 A3033 RMK AO2 FG BANK NW-NE VIS NW-NE 2 BR=
201311061553 METAR KBLI 061553Z 00000KT 10SM SCT018 OVC027 07/06 A3032 RMK AO2 SLP275 T00670056=
201311061453 METAR KBLI 061453Z 00000KT 3SM BR BKN016 OVC040 06/05 A3031 RMK AO2 SLP271 T00610050 53008=
201311061444 SPECI KBLI 061444Z AUTO 00000KT 4SM BR BKN016 OVC042 06/05 A3030 RMK AO2=
201311061401 SPECI KBLI 061401Z AUTO 00000KT 3SM BR OVC014 06/05 A3030 RMK AO2=
201311061353 METAR KBLI 061353Z AUTO 01003KT 2 1/2SM BR OVC014 06/05 A3030 RMK AO2 SLP268 T00610050=
201311061253 METAR KBLI 061253Z AUTO 00000KT 5SM BR BKN014 OVC048 07/06 A3029 RMK AO2 SLP265 T00670056=
201311061239 SPECI KBLI 061239Z AUTO 00000KT 4SM BR BKN014 OVC048 07/06 A3029 RMK AO2=
201311061153 METAR KBLI 061153Z AUTO 00000KT 3SM BR OVC018 06/06 A3028 RMK AO2 SLP263 70010 T00610056 10067 20056 50003=
201311061120 SPECI KBLI 061120Z AUTO 00000KT 3SM BR SCT011 OVC018 06/06 A3028 RMK AO2=
201311061053 METAR KBLI 061053Z AUTO 00000KT 4SM BR OVC011 06/06 A3028 RMK AO2 SLP263 T00610056=
201311061036 SPECI KBLI 061036Z AUTO 00000KT 3SM BR OVC011 06/05 A3028 RMK AO2=
201311061016 SPECI KBLI 061016Z AUTO 00000KT 2SM BR BKN013 OVC049 06/05 A3028 RMK AO2=
201311061008 SPECI KBLI 061008Z AUTO 00000KT 1SM R16/P6000FT BR BKN015 OVC049 06/05 A3029 RMK AO2=
201311061000 SPECI KBLI 061000Z AUTO 00000KT 2SM BR BKN015 OVC049 06/05 A3028 RMK AO2=
201311060953 METAR KBLI 060953Z AUTO 00000KT 1 3/4SM BR BKN015 OVC047 06/05 A3028 RMK AO2 SLP263 T00610050=
201311060944 SPECI KBLI 060944Z AUTO 00000KT 1 3/4SM BR FEW015 OVC047 06/05 A3028 RMK AO2=
201311060928 SPECI KBLI 060928Z AUTO 00000KT 4SM BR FEW020 OVC047 06/06 A3028 RMK AO2=
201311060853 METAR KBLI 060853Z AUTO 00000KT 4SM BR OVC015 07/06 A3027 RMK AO2 SLP259 T00670056 50009=
201311060849 SPECI KBLI 060849Z AUTO 00000KT 5SM BR OVC015 07/06 A3027 RMK AO2=
201311060806 SPECI KBLI 060806Z AUTO 00000KT 3SM BR BKN013 BKN018 OVC025 07/06 A3026 RMK AO2=
201311060753 METAR KBLI 060753Z AUTO 00000KT 3SM BR OVC015 07/06 A3026 RMK AO2 SLP256 T00670056 400670044=
201311060653 METAR KBLI 060653Z AUTO 00000KT 7SM OVC019 07/06 A3024 RMK AO2 SLP250 T00670056=
201311060553 METAR KBLI 060553Z 00000KT 4SM BR OVC021 07/06 A3023 RMK AO2 SLP244 60002 T00670056 10067 20061 53014=
201311060541 SPECI KBLI 060541Z 00000KT 4SM BR OVC021 07/06 A3022 RMK AO2=
201311060530 SPECI KBLI 060530Z 00000KT 2SM BR OVC019 07/06 A3022 RMK AO2=
201311060453 METAR KBLI 060453Z 00000KT 5SM BR OVC019 07/06 A3021 RMK AO2 RAE32 SLP239 P0001 T00670056=
201311060353 METAR KBLI 060353Z 00000KT 4SM -RA BR OVC017 07/06 A3020 RMK AO2 RAB40 SLP237 P0000 T00670056=
201311060253 METAR KBLI 060253Z 00000KT 5SM BR OVC017 07/06 A3019 RMK AO2 SLP232 60001 T00670056 53025=
201311060229 SPECI KBLI 060229Z 00000KT 4SM BR SCT009 OVC021 06/05 A3018 RMK AO2=
201311060153 METAR KBLI 060153Z 00000KT 7SM OVC007 07/05 A3016 RMK AO2 CIG 005V009 SLP223 T00670050=
201311060109 SPECI KBLI 060109Z 00000KT 3SM BR OVC005 07/06 A3015 RMK AO2=
201311060053 METAR KBLI 060053Z 00000KT 3SM BR OVC003 06/06 A3014 RMK AO2 CIG 002V005 SLP214 P0001 T00610056=
201311060032 SPECI KBLI 060032Z 00000KT 2SM BR OVC003 06/06 A3013 RMK AO2=
201311052353 METAR KBLI 052353Z 00000KT 1 1/4SM BR OVC003 06/06 A3011 RMK AO2 SLP206 60000 T00610056 10067 20056 53013=
201311052339 SPECI KBLI 052339Z 28003KT 2SM BR OVC003 06/05 A3011 RMK AO2=
201311052320 SPECI KBLI 052320Z 00000KT 7SM OVC003 07/05 A3011 RMK AO2=
201311052253 METAR KBLI 052253Z 00000KT 10SM OVC008 07/05 A3010 RMK AO2 CIG 005V010 SLP201 T00670050=
201311052214 SPECI KBLI 052214Z 00000KT 10SM SCT004 OVC008 07/05 A3009 RMK AO2=
201311052200 SPECI KBLI 052200Z 00000KT 10SM BKN004 OVC008 07/05 A3009 RMK AO2=
201311052153 METAR KBLI 052153Z 00000KT 10SM SCT004 OVC008 06/04 A3008 RMK AO2 SLP196 T00610044=
201311052109 SPECI KBLI 052109Z 00000KT 10SM OVC008 06/04 A3008 RMK AO2=
201311052053 METAR KBLI 052053Z 00000KT 6SM BR SCT005 OVC010 06/04 A3008 RMK AO2 SLP194 CIG LWR S-W 60000 T00610044 53000=
201311052015 SPECI KBLI 052015Z 32003KT 4SM BR SCT003 OVC010 06/04 A3008 RMK AO2=
201311051953 METAR KBLI 051953Z 01004KT 4SM BR BKN003 OVC010 06/04 A3006 RMK AO2 SLP190 T00560044=
201311051920 SPECI KBLI 051920Z 00000KT 3SM BR BKN003 OVC012 06/04 A3007 RMK AO2=
201311051910 SPECI KBLI 051910Z 00000KT 2 1/2SM BR BKN003 OVC012 06/04 A3007 RMK AO2=
201311051853 METAR KBLI 051853Z 00000KT 3SM BR BKN003 OVC012 06/04 A3007 RMK AO2 RAB19E36 SLP190 P0000 T00560044=
201311051831 SPECI KBLI 051831Z 03003KT 2 1/2SM -RA BR BKN005 OVC012 05/04 A3007 RMK AO2 RAB19 P0000=
201311051753 METAR KBLI 051753Z 36003KT 10SM BKN005 OVC012 05/04 A3007 RMK AO2 SLP193 60008 T00500039 10050 20044 51010=
201311051653 METAR KBLI 051653Z 01005KT 5SM BR BKN005 OVC012 04/03 A3007 RMK AO2 RAE13 SLP190 P0000 T00440033=
201311051553 METAR KBLI 051553Z 35007KT 3SM -RA BR BKN005 OVC012 04/03 A3006 RMK AO2 SLP188 P0006 T00440033=
201311051545 SPECI KBLI 051545Z 35005KT 3SM -RA BR BKN005 OVC012 04/03 A3006 RMK AO2 P0006=
201311051537 SPECI KBLI 051537Z 35006KT 3SM -RA BR SCT005 OVC012 04/03 A3006 RMK AO2 P0006=
201311051530 SPECI KBLI 051530Z 35004KT 2SM -RA BR SCT005 OVC012 04/03 A3006 RMK AO2 P0005=
201311051515 SPECI KBLI 051515Z 36005KT 2SM -RA BR OVC012 04/03 A3005 RMK AO2 P0003=
201311051453 METAR KBLI 051453Z 34003KT 5SM -RA BR OVC012 04/03 A3005 RMK AO2 RAE00B44 SLP183 P0000 60002 T00440033 55001=
201311051353 METAR KBLI 051353Z AUTO 02005KT 10SM -RA OVC014 04/03 A3003 RMK AO2 RAE1258B40 SLP177 P0001 T00440033=
201311051344 SPECI KBLI 051344Z AUTO 01005KT 9SM -RA OVC014 04/03 A3003 RMK AO2 RAE1258B40 P0001=
201311051253 METAR KBLI 051253Z AUTO 01004KT 10SM -RA OVC018 04/03 A3004 RMK AO2 RAE03B34 SLP180 P0001 T00440033=
201311051153 METAR KBLI 051153Z AUTO 36007KT 9SM -RA OVC018 04/03 A3005 RMK AO2 RAE01B27 SLP183 P0000 60009 70009 T00440033 10061 20044 58005=
201311051053 METAR KBLI 051053Z AUTO 01006KT 7SM -RA OVC022 04/03 A3006 RMK AO2 RAE00B20 SLP186 P0002 T00440033 $=
201311050953 METAR KBLI 050953Z AUTO 02007KT 8SM -RA OVC020 04/03 A3006 RMK AO2 RAB0857 SLP186 P0003 T00440028=
201311050853 METAR KBLI 050853Z AUTO 02006KT 10SM OVC028 05/03 A3006 RMK AO2 RAE52 SLP188 P0003 60004 T00500028 58008=
201311050833 SPECI KBLI 050833Z AUTO 03005KT 6SM -RA BR OVC028 05/03 A3006 RMK AO2 P0003=
201311050753 METAR KBLI 050753Z AUTO 05004KT 9SM -RA OVC034 06/02 A3008 RMK AO2 RAB0655 SLP194 P0001 T00560022 400781022=
201311050653 METAR KBLI 050653Z AUTO 36005KT 10SM OVC040 06/02 A3009 RMK AO2 SLP197 T00560017=
201311050553 METAR KBLI 050553Z 36003KT 10SM OVC060 06/02 A3009 RMK AO2 SLP198 T00560022 10072 20050 56010=
201311050453 METAR KBLI 050453Z 00000KT 10SM OVC070 05/02 A3010 RMK AO2 SLP201 T00500022=
201311050353 METAR KBLI 050353Z 00000KT 10SM OVC075 05/02 A3010 RMK AO2 SLP202 T00500022=
201311050253 METAR KBLI 050253Z 00000KT 10SM OVC095 06/03 A3012 RMK AO2 SLP208 T00560028 58012=
201311050153 METAR KBLI 050153Z 00000KT 10SM OVC110 06/03 A3013 RMK AO2 SLP213 T00560033=
201311050053 METAR KBLI 050053Z 00000KT 10SM OVC110 06/02 A3015 RMK AO2 SLP217 T00610022=
201311042353 METAR KBLI 042353Z 00000KT 10SM SCT110 07/02 A3016 RMK AO2 SLP221 T00720022 10078 20028 56005=
201311042253 METAR KBLI 042253Z 00000KT 10SM CLR 07/01 A3016 RMK AO2 SLP221 T00720011=
201311042153 METAR KBLI 042153Z 14003KT 10SM CLR 07/01 A3016 RMK AO2 SLP221 T00720011=
201311042053 METAR KBLI 042053Z 00000KT 10SM CLR 07/02 A3017 RMK AO2 SLP226 T00670017 58007=
201311042009 SPECI KBLI 042009Z 00000KT 10SM SCT006 06/03 A3019 RMK AO2=
201311042001 SPECI KBLI 042001Z 00000KT 10SM BKN006 05/04 A3019 RMK AO2=
201311041953 METAR KBLI 041953Z 00000KT 4SM BR BKN004 05/04 A3019 RMK AO2 SLP233 T00500039=
201311041946 SPECI KBLI 041946Z 00000KT 4SM BR BKN004 04/04 A3019 RMK AO2=
201311041900 SPECI KBLI 041900Z 00000KT 3/4SM R16/2600VP6000FT BR OVC002 04/03 A3020 RMK AO2=
201311041853 METAR KBLI 041853Z 00000KT 3/4SM R16/2400V5500FT BR VV001 04/03 A3020 RMK AO2 SLP236 T00390033=
201311041830 SPECI KBLI 041830Z 00000KT 1/4SM R16/1400VP6000FT FG VV001 03/03 A3020 RMK AO2=
201311041807 SPECI KBLI 041807Z 00000KT 1/4SM R16/1200V1400FT FG VV001 03/03 A3019 RMK AO2=
201311041800 SPECI KBLI 041800Z 00000KT 1/4SM R16/1200FT FG VV002 03/03 A3019 RMK AO2=
201311041753 METAR KBLI 041753Z 00000KT 1/8SM R16/1000V1200FT FG VV001 03/03 A3019 RMK AO2 SLP233 T00280028 10028 21022 51009=
201311041653 METAR KBLI 041653Z 00000KT 1/16SM R16/0500V0700FT FG VV001 01/01 A3018 RMK AO2 SLP230 T00110006=
201311041637 SPECI KBLI 041637Z 00000KT 1/8SM R16/0700V1000FT FG VV001 01/00 A3018 RMK AO2=
201311041622 SPECI KBLI 041622Z 00000KT 1/4SM R16/1400V3000FT FG VV001 00/M01 A3018 RMK AO2=
201311041553 METAR KBLI 041553Z 00000KT 1/16SM R16/0800V1000FT FG VV001 00/M01 A3018 RMK AO2 SLP229 T00001006=
201311041453 METAR KBLI 041453Z 00000KT 1/16SM R16/1000FT FG VV001 01/00 A3016 RMK AO2 SLP224 T00060000 50007=
201311041353 METAR KBLI 041353Z AUTO 00000KT 1/4SM R16/1400V1800FT FZFG VV001 M01/M02 A3017 RMK AO2 SLP225 T10061017 $=
201311041351 SPECI KBLI 041351Z AUTO 00000KT 1/4SM R16/1600V4000FT FZFG VV001 M01/M02 A3017 RMK AO2 $=
201311041347 SPECI KBLI 041347Z AUTO 00000KT 3/4SM R16/1600VP6000FT BR VV002 M01/M02 A3017 RMK AO2 $=
201311041321 SPECI KBLI 041321Z AUTO 00000KT 10SM BKN003 M02/M03 A3017 RMK AO2 $=
201311041310 SPECI KBLI 041310Z AUTO 00000KT 10SM SCT003 M01/M03 A3017 RMK AO2 $=
201311041253 METAR KBLI 041253Z AUTO 00000KT 9SM CLR M01/M03 A3016 RMK AO2 SLP223 T10111028 $=
201311041237 SPECI KBLI 041237Z AUTO 00000KT 3SM BR CLR M02/M03 A3016 RMK AO2 $=
201311041226 SPECI KBLI 041226Z AUTO 00000KT 1 3/4SM BR CLR M01/M02 A3016 RMK AO2 VIS 1/2V5 $=
201311041153 METAR KBLI 041153Z AUTO 00000KT 10SM CLR 00/M02 A3014 RMK AO2 SLP217 T00001017 10017 21011 51007 $=
201311041113 SPECI KBLI 041113Z AUTO 00000KT 5SM BR CLR M01/M02 A3014 RMK AO2 $=
201311041104 SPECI KBLI 041104Z AUTO 00000KT 2SM R16/6000VP6000FT BR CLR M01/M02 A3014 RMK AO2 VIS 1 1/4V3 $=
201311041053 METAR KBLI 041053Z AUTO 00000KT 6SM BR CLR M01/M02 A3013 RMK AO2 SLP214 T10061017 $=
201311040953 METAR KBLI 040953Z AUTO 00000KT 10SM CLR 01/M01 A3014 RMK AO2 SLP214 T00061011 $=
201311040853 METAR KBLI 040853Z AUTO 00000KT 10SM CLR M01/M02 A3012 RMK AO2 SLP210 T10061017 53006 $=
201311040818 SPECI KBLI 040818Z AUTO 00000KT 3SM BR CLR 00/M01 A3012 RMK AO2 $=
201311040805 SPECI KBLI 040805Z AUTO 00000KT 1 3/4SM BR CLR 00/M01 A3012 RMK AO2 VIS 1V4 $=
201311040753 METAR KBLI 040753Z AUTO 00000KT 8SM CLR 01/M01 A3011 RMK AO2 SLP207 T00061006 401001006 $=
201311040742 SPECI KBLI 040742Z AUTO 00000KT 8SM CLR 01/M01 A3011 RMK AO2 $=
201311040734 SPECI KBLI 040734Z AUTO 00000KT 2 1/2SM BR FEW024 01/M01 A3011 RMK AO2 $=
201311040722 SPECI KBLI 040722Z AUTO 00000KT 6SM BR SCT024 01/00 A3011 RMK AO2 $=
201311040653 METAR KBLI 040653Z AUTO 00000KT 6SM BR FEW007 BKN022 01/00 A3011 RMK AO2 SLP204 T00110000 $=
201311040651 SPECI KBLI 040651Z AUTO 00000KT 6SM BR FEW007 BKN022 01/00 A3011 RMK AO2 $=
201311040632 SPECI KBLI 040632Z AUTO 00000KT 3SM BR OVC022 00/M01 A3011 RMK AO2 $=
201311040627 SPECI KBLI 040627Z AUTO 36003KT 1SM R16/4000VP6000FT BR BKN022 00/M01 A3011 RMK AO2 $=
201311040619 SPECI KBLI 040619Z 00000KT 2SM BR BKN024 01/00 A3011 RMK AO2 $=
201311040610 SPECI KBLI 040610Z 00000KT 1 3/4SM R16/2200VP6000FT BR SCT024 01/M01 A3011 RMK AO2 VIS 3/4V5 $=
201311040553 METAR KBLI 040553Z 00000KT 7SM CLR 02/00 A3010 RMK AO2 SLP202 T00170000 10083 20006 53008 $=
201311040453 METAR KBLI 040453Z 00000KT 10SM CLR 02/01 A3009 RMK AO2 SLP197 T00170011 $=
201311040353 METAR KBLI 040353Z 00000KT 10SM CLR 02/01 A3008 RMK AO2 SLP195 T00170006 $=
201311040253 METAR KBLI 040253Z 00000KT 10SM CLR 03/01 A3008 RMK AO2 SLP194 T00280011 53006 $=
201311040153 METAR KBLI 040153Z 00000KT 10SM CLR 04/02 A3006 RMK AO2 SLP189 T00390022 $=
201311040053 METAR KBLI 040053Z 00000KT 10SM CLR 04/02 A3005 RMK AO2 SLP186 T00440022 $=
201311032353 METAR KBLI 032353Z 28003KT 10SM CLR 08/02 A3006 RMK AO2 SLP187 T00830017 10100 20056 51006 $=
201311032253 METAR KBLI 032253Z 29004KT 10SM FEW027 09/02 A3006 RMK AO2 SLP186 T00890022 $=
201311032153 METAR KBLI 032153Z 30006KT 10SM SCT029 09/03 A3005 RMK AO2 SLP183 T00890028 $=
201311032100 SPECI KBLI 032100Z 00000KT 10SM FEW023 08/03 A3004 RMK AO2 $=
201311032053 METAR KBLI 032053Z 30003KT 10SM BKN020 08/03 A3004 RMK AO2 SLP180 T00830028 50004 $=
201311032045 SPECI KBLI 032045Z 29004KT 10SM BKN020 08/03 A3004 RMK AO2 $=
201311032018 SPECI KBLI 032018Z 26003KT 10SM FEW017 SCT023 08/04 A3004 RMK AO2 $=
201311031953 METAR KBLI 031953Z 00000KT 10SM BKN017 BKN023 08/04 A3004 RMK AO2 SLP182 T00780044 $=
201311031853 METAR KBLI 031853Z 00000KT 8SM FEW001 BKN019 08/06 A3004 RMK AO2 SLP180 T00780056 $=
201311031835 SPECI KBLI 031835Z 00000KT 7SM FEW001 BKN019 08/06 A3004 RMK AO2 $=
201311031828 SPECI KBLI 031828Z 00000KT 5SM BR FEW001 SCT019 07/06 A3003 RMK AO2 $=
201311031810 SPECI KBLI 031810Z 00000KT 6SM BR SCT001 BKN021 06/05 A3003 RMK AO2 $=
201311031753 METAR KBLI 031753Z 00000KT 10SM R16/2400VP6000FT BKN001 06/05 A3003 RMK AO2 SLP176 VIS LWR NVIS LWR N T00560050 10056 20028 51014 $=
201311031747 SPECI KBLI 031747Z 00000KT 10SM R16/2200VP6000FT BKN001 06/04 A3003 RMK AO2 VIS LWR N $=
201311031732 SPECI KBLI 031732Z 02003KT 1/4SM R16/2200VP6000FT FG BKN001 06/04 A3002 RMK AO2 VIS LWR N $=
201311031714 SPECI KBLI 031714Z 00000KT 10SM R16/2600VP6000FT SCT001 BKN028 05/04 A3002 RMK AO2 VIS LWR N $=
201311031701 SPECI KBLI 031701Z 00000KT 3/4SM R16/3000VP6000FT BR OVC001 04/04 A3002 RMK AO2 $=
201311031653 METAR KBLI 031653Z 00000KT 1 3/4SM R16/4500VP6000FT BR OVC001 05/04 A3001 RMK AO2 SLP173 T00500039 $=
201311031649 SPECI KBLI 031649Z 00000KT 1SM R16/3000VP6000FT BR VV001 04/04 A3001 RMK AO2 $=
201311031623 SPECI KBLI 031623Z 00000KT 1/4SM R16/1600V4000FT FG VV001 03/03 A3001 RMK AO2 $=
201311031553 METAR KBLI 031553Z 00000KT 1/4SM R16/1400V1800FT FG BKN001 OVC021 03/02 A3001 RMK AO2 SLP170 T00280022=
201311031453 METAR KBLI 031453Z 00000KT 1/4SM R16/1000V1200FT FG VV001 03/02 A2999 RMK AO2 SLP163 T00280022 51018 $=
201311031426 SPECI KBLI 031426Z AUTO 00000KT 1/4SM R16/1200V1600FT FG VV001 03/03 A2998 RMK AO2=
201311031416 SPECI KBLI 031416Z AUTO 00000KT 1/4SM R16/1400V1600FT FG VV002 03/03 A2998 RMK AO2=
201311031406 SPECI KBLI 031406Z AUTO 00000KT 1/2SM R16/1600VP6000FT FG OVC002 04/03 A2998 RMK AO2=
201311031400 METAR KBLI NIL=
201311031348 METAR KBLI 031348Z AUTO 00000KT 1SM R16/3000VP6000FT BR OVC002 03/03 A2997=
201311031347 SPECI KBLI 031347Z AUTO 00000KT 1SM R16/2600VP6000FT BR OVC002 03/03 A2997 RMK AO2=
201311031334 SPECI KBLI 031334Z AUTO 20003KT 1/2SM R16/2800VP6000FT FG OVC002 03/02 A2997 RMK AO2=
201311031326 SPECI KBLI 031326Z AUTO 00000KT 3/4SM R16/6000VP6000FT BR OVC002 03/02 A2997 RMK AO2=
201311031304 SPECI KBLI 031304Z AUTO 00000KT 1 1/2SM R16/5500VP6000FT BR OVC002 03/03 A2996 RMK AO2=
201311031253 METAR KBLI 031253Z AUTO 00000KT 3/4SM R16/2000V5000FT BR VV002 04/03 A2996 RMK AO2 SLP154 T00390028=
201311031228 SPECI KBLI 031228Z AUTO 00000KT 1/4SM R16/1600V2000FT FG VV002 03/03 A2995 RMK AO2=
201311031215 SPECI KBLI 031215Z AUTO 00000KT 1/2SM R16/1600V4500FT FG OVC001 03/03 A2994 RMK AO2=
201311031202 SPECI KBLI 031202Z AUTO 00000KT 1 3/4SM R16/3500VP6000FT BR OVC001 04/03 A2994 RMK AO2=
201311031153 METAR KBLI 031153Z AUTO 33003KT 3/4SM R16/2400V5000FT BR OVC001 03/03 A2993 RMK AO2 SLP145 60001 70083 T00330028 10067 20028 53009=
201311031141 SPECI KBLI 031141Z AUTO 00000KT 1/2SM R16/2000V3500FT FG VV001 04/03 A2993 RMK AO2=
201311031125 SPECI KBLI 031125Z AUTO 00000KT 1/4SM R16/1000V1600FT FG VV001 04/03 A2993 RMK AO2=
201311031115 SPECI KBLI 031115Z AUTO 29003KT 1/2SM R16/2400VP6000FT FG VV002 03/02 A2992 RMK AO2=
201311031110 SPECI KBLI 031110Z AUTO 00000KT 1SM R16/2400VP6000FT BR VV002 03/03 A2992 RMK AO2 VIS 1/2V5=
201311031053 METAR KBLI 031053Z AUTO 00000KT 6SM BR FEW027 04/03 A2992 RMK AO2 SLP139 T00440033=
201311031048 SPECI KBLI 031048Z AUTO 00000KT 6SM BR SCT029 04/04 A2992 RMK AO2=
201311030953 METAR KBLI 030953Z AUTO 00000KT 10SM OVC019 06/05 A2991 RMK AO2 SLP136 T00610050=
201311030928 SPECI KBLI 030928Z AUTO 16003KT 10SM BKN019 BKN028 06/04 A2990 RMK AO2=
201311030912 SPECI KBLI 030912Z AUTO 15004KT 10SM SCT023 SCT030 06/04 A2990 RMK AO2=
201311030853 METAR KBLI 030853Z AUTO 00000KT 10SM BKN023 BKN036 05/04 A2989 RMK AO2 SLP130 60001 T00500044 53019=
201311030753 METAR KBLI 030753Z AUTO 16003KT 10SM BKN034 OVC044 07/05 A2987 RMK AO2 SLP122 T00670050 401280061=
201311030653 METAR KBLI 030653Z AUTO 20003KT 8SM SCT026 BKN055 OVC070 06/05 A2985 RMK AO2 RAE34 SLP117 P0001 T00610050=
201311030613 SPECI KBLI 030613Z AUTO 00000KT 6SM -RA BR FEW002 BKN044 OVC070 06/05 A2984 RMK AO2 P0000=
201311030553 METAR KBLI 030553Z AUTO 01003KT 9SM -RA FEW028 BKN041 OVC049 06/05 A2983 RMK AO2 SLP110 P0001 60013 T00610050 10078 20061 53023=
201311030542 SPECI KBLI 030542Z AUTO 00000KT 10SM FEW023 BKN038 OVC050 06/05 A2983 RMK AO2 RAE38 P0001=
201311030453 METAR KBLI 030453Z 34003KT 10SM -RA FEW013 BKN021 OVC027 06/05 A2981 RMK AO2 SLP101 P0001 T00610050=
201311030419 SPECI KBLI 030419Z 00000KT 10SM -RA SCT022 BKN034 OVC075 06/06 A2979 RMK AO2 P0000=
201311030410 SPECI KBLI 030410Z 00000KT 10SM -RA SCT022 BKN029 OVC045 06/06 A2979 RMK AO2 P0000=
201311030353 METAR KBLI 030353Z 00000KT 10SM -RA FEW028 BKN039 OVC065 07/06 A2978 RMK AO2 RAB22 SLP093 P0001 T00670056=
201311030343 SPECI KBLI 030343Z 00000KT 10SM -RA FEW019 BKN040 OVC055 07/05 A2978 RMK AO2 RAB22 P0001=
201311030327 SPECI KBLI 030327Z 00000KT 10SM -RA BKN019 BKN028 OVC045 07/06 A2978 RMK AO2 RAB22 P0000=
201311030253 METAR KBLI 030253Z 00000KT 10SM FEW032 BKN060 OVC075 07/06 A2977 RMK AO2 RAE0157B23E47 SLP087 P0000 60010 T00720056 53020=
201311030200 SPECI KBLI 030200Z 23003KT 10SM FEW025 SCT040 OVC070 07/05 A2975 RMK AO2 RAE0157 P0000=
201311030153 METAR KBLI 030153Z 23003KT 10SM -RA FEW018 BKN026 OVC036 07/05 A2974 RMK AO2 SLP080 P0004 T00720050=
201311030135 SPECI KBLI 030135Z VRB05KT 5SM -RA BR FEW018 BKN025 OVC032 07/05 A2975 RMK AO2 P0003=
201311030053 METAR KBLI 030053Z VRB04KT 10SM -RA FEW030 OVC040 08/04 A2972 RMK AO2 SLP073 P0006 T00780044=
201311030032 SPECI KBLI 030032Z 18007KT 6SM -RA BR SCT029 OVC034 07/05 A2972 RMK AO2 P0005=
201311022353 METAR KBLI 022353Z 22008KT 190V250 6SM -RA BR FEW021 OVC027 07/05 A2971 RMK AO2 SLP067 P0008 60053 T00720050 10094 20067 51038=
201311022253 METAR KBLI 022253Z 18009G16KT 5SM -RA BR FEW014 OVC023 07/05 A2967 RMK AO2 SLP055 P0010 T00720050=
201311022153 METAR KBLI 022153Z 18008G18KT 5SM -RA BR OVC018 07/04 A2964 RMK AO2 SLP044 P0009 T00670044=
201311022114 SPECI KBLI 022114Z 19009G18KT 4SM -RA BR SCT014 OVC020 07/05 A2961 RMK AO2 P0004=
201311022053 METAR KBLI 022053Z 23007G15KT 190V260 4SM -RA BR BKN011 BKN016 OVC030 07/06 A2959 RMK AO2 SLP029 P0010 60026 T00720056 53060=
201311022045 SPECI KBLI 022045Z 22008G19KT 180V260 3SM -RA BR SCT009 BKN016 OVC034 07/06 A2959 RMK AO2 P0009=
201311021953 METAR KBLI 021953Z 27008G31KT 230V290 6SM -RA BR BKN009 OVC036 08/06 A2953 RMK AO2 PK WND 25031/1945 SLP007 P0007 T00780061=
201311021853 METAR KBLI 021853Z 25007KT 200V280 6SM -RA BR OVC005 08/07 A2946 RMK AO2 SLP985 P0009 T00830067=
201311021835 SPECI KBLI 021835Z 25007KT 200V290 4SM -RA BR BKN005 OVC036 08/07 A2945 RMK AO2 P0008=
201311021815 SPECI KBLI 021815Z 21005KT 3SM -RA BR FEW005 BKN036 OVC050 09/08 A2943 RMK AO2 P0006=
201311021812 SPECI KBLI 021812Z VRB03KT 2 1/2SM RA BR FEW019 BKN036 OVC055 09/08 A2943 RMK AO2 P0005=
201311021804 SPECI KBLI 021804Z 19004KT 3SM -RA BR SCT019 BKN033 OVC049 09/08 A2943 RMK AO2 P0003=
201311021753 METAR KBLI 021753Z 18007G24KT 3SM RA BR FEW017 BKN024 OVC048 09/07 A2942 RMK AO2 PK WND 15034/1720 RAB1656 SLP968 P0010 60016 T00940072 10128 20089 53007=
201311021743 SPECI KBLI 021743Z 17015G26KT 2SM RA BR SCT017 BKN022 OVC028 10/08 A2940 RMK AO2 PK WND 15034/1720 RAB1656 P0008=
201311021719 SPECI KBLI 021719Z 15024G31KT 10SM -RA OVC026 11/07 A2938 RMK AO2 PK WND 15034/1659 RAB1656 P0001=
201311021653 METAR KBLI 021653Z 15017G30KT 10SM BKN030 BKN034 OVC055 13/07 A2938 RMK AO2 PK WND 14030/1648 WSHFT 1554 RAB1555E45 SLP957 P0000 T01280072=
201311021608 SPECI KBLI 021608Z 12012G26KT 10SM -RA BKN030 BKN034 OVC055 12/08 A2939 RMK AO2 PK WND 13026/1559 WSHFT 1554 RAB1555 P0000=
201311021602 SPECI KBLI 021602Z 13015G26KT 10SM -RA BKN029 BKN034 OVC055 12/08 A2939 RMK AO2 PK WND 13026/1559 RAB1555 P0000=
201311021553 METAR KBLI 021553Z 14007KT 070V240 10SM BKN034 OVC055 11/08 A2939 RMK AO2 SLP960 T01060078=
201311021453 METAR KBLI 021453Z 02010KT 10SM OVC036 09/07 A2944 RMK AO2 PRESFR SLP976 60006 T00890072 58052=
201311021429 SPECI KBLI 021429Z 02009KT 10SM SCT024 BKN030 OVC037 09/08 A2946 RMK AO2=
201311021353 METAR KBLI 021353Z 05004KT 10SM BKN026 OVC034 09/08 A2950 RMK AO2 RAB1255E22 SLP997 P0001 T00940078=
201311021253 METAR KBLI 021253Z AUTO 04004KT 10SM BKN020 OVC026 09/08 A2954 RMK AO2 RAE50 SLP010 P0005 T00940078=
201311021153 METAR KBLI 021153Z AUTO 04005KT 8SM -RA BKN018 OVC027 10/08 A2960 RMK AO2 RAE05B46 SLP029 P0001 60013 70019 T01000083 10117 20100 58045=
201311021053 METAR KBLI 021053Z AUTO 00000KT 7SM -RA OVC020 11/09 A2964 RMK AO2 SLP045 P0002 T01110089=
201311021017 SPECI KBLI 021017Z AUTO 10006KT 10SM BKN024 OVC037 11/09 A2967 RMK AO2 RAE14 P0000=
201311020953 METAR KBLI 020953Z AUTO 11008KT 10SM -RA FEW029 OVC039 12/08 A2969 RMK AO2 SLP060 P0003 T01170083=
201311020853 METAR KBLI 020853Z AUTO 00000KT 10SM -RA OVC065 10/09 A2973 RMK AO2 SLP074 P0003 60007 T01000089 56039=
201311020753 METAR KBLI 020753Z AUTO 05005KT 10SM -RA OVC070 10/09 A2976 RMK AO2 SLP083 P0001 T01000089 401280100=
201311020653 METAR KBLI 020653Z AUTO 00000KT 10SM -RA BKN070 OVC085 11/09 A2979 RMK AO2 SLP095 P0003 T01060089=
201311020553 METAR KBLI 020553Z AUTO VRB03KT 4SM RA BR BKN050 OVC060 10/09 A2984 RMK AO2 SLP113 P0006 60006 T01000089 10117 20100 58031=
201311020453 METAR KBLI 020453Z 36004KT 10SM -RA SCT070 OVC080 11/09 A2988 RMK AO2 RAB19E28B50 SLP126 P0000 T01060089=
201311020353 METAR KBLI 020353Z 01006KT 8SM FEW065 OVC085 10/09 A2990 RMK AO2 SLP132 T01000089=
201311020313 SPECI KBLI 020313Z 01003KT 7SM SCT004 OVC085 10/09 A2992 RMK AO2=
201311020253 METAR KBLI 020253Z 02004KT 6SM BR BKN004 OVC085 11/09 A2994 RMK AO2 SLP144 T01060089 58046=
201311020243 SPECI KBLI 020243Z 36004KT 7SM FEW004 OVC080 11/09 A2994 RMK AO2=
201311020153 METAR KBLI 020153Z 03003KT 7SM OVC080 11/09 A2998 RMK AO2 SLP160 T01060094=
201311020053 METAR KBLI 020053Z 02005KT 7SM FEW007 OVC080 11/09 A3003 RMK AO2 SLP175 T01110094=
201311020016 SPECI KBLI 020016Z 01004KT 7SM FEW007 OVC080 12/09 A3006 RMK AO2=
201311012353 METAR KBLI 012353Z 01005KT 8SM FEW015 OVC080 12/09 A3007 RMK AO2 SLP190 60000 T01170094 10128 20117 58029=
201311012341 SPECI KBLI 012341Z 04005KT 8SM SCT013 OVC080 12/09 A3008 RMK AO2=
201311012322 SPECI KBLI 012322Z 03005KT 9SM BKN013 OVC090 12/09 A3009 RMK AO2=
201311012300 SPECI KBLI 012300Z 04006KT 8SM FEW013 OVC080 13/10 A3010 RMK AO2=
201311012253 METAR KBLI 012253Z 03005KT 8SM BKN013 OVC075 13/10 A3010 RMK AO2 SLP201 T01280100=
201311012234 SPECI KBLI 012234Z 00000KT 9SM BKN013 OVC075 13/10 A3012 RMK AO2=
201311012153 METAR KBLI 012153Z 16003KT 10SM BKN070 OVC080 13/09 A3013 RMK AO2 SLP210 T01280089=
201311012053 METAR KBLI 012053Z 00000KT 10SM OVC080 12/09 A3016 RMK AO2 SLP219 60000 T01220089 58017=
201311011953 METAR KBLI 011953Z 00000KT 10SM BKN070 OVC090 12/09 A3019 RMK AO2 RAB1854E27 SLP232 P0000 T01220089=
201311011853 METAR KBLI 011853Z 19005KT 10SM SCT021 SCT070 OVC085 12/09 A3020 RMK AO2 SLP234 T01170089=
201311011810 SPECI KBLI 011810Z 18007KT 10SM BKN021 BKN050 OVC095 12/08 A3021 RMK AO2=
201311011803 SPECI KBLI 011803Z 17005G14KT 10SM FEW021 SCT050 OVC095 12/08 A3020 RMK AO2=
201311011753 METAR KBLI 011753Z 17008KT 10SM BKN021 BKN055 OVC090 12/08 A3021 RMK AO2 SLP236 60000 T01170083 10122 20106 58004=
201311011653 METAR KBLI 011653Z 19007KT 10SM OVC021 12/08 A3022 RMK AO2 RAB07E15 SLP241 P0000 T01170083=
201311011612 SPECI KBLI 011612Z 16011KT 10SM -RA BKN019 BKN070 OVC090 12/09 A3022 RMK AO2 RAB07 P0000=
201311011553 METAR KBLI 011553Z 18008KT 10SM SCT023 BKN060 OVC100 11/09 A3022 RMK AO2 SLP241 T01110089=
201311011535 SPECI KBLI 011535Z 16009KT 10SM SCT013 BKN025 OVC060 11/09 A3022 RMK AO2=
201311011453 METAR KBLI 011453Z 17009KT 10SM OVC013 11/09 A3022 RMK AO2 SLP240 T01110089 58005=
201311011353 METAR KBLI 011353Z 16009KT 10SM OVC011 11/09 A3023 RMK AO2 SLP243 T01060089=
201311011253 METAR KBLI 011253Z AUTO 18006KT 10SM OVC013 11/09 A3024 RMK AO2 SLP247 T01060089=
201311011153 METAR KBLI 011153Z AUTO 18005KT 10SM OVC017 11/09 A3024 RMK AO2 SLP246 70004 T01060089 10117 20100 58005=
201311011053 METAR KBLI 011053Z AUTO 17005KT 10SM OVC015 11/09 A3025 RMK AO2 SLP250 T01060089=
201311010953 METAR KBLI 010953Z AUTO 16007KT 10SM OVC019 11/09 A3024 RMK AO2 SLP249 T01110094=
201311010853 METAR KBLI 010853Z AUTO 18005KT 10SM SCT015 BKN019 OVC036 11/09 A3025 RMK AO2 SLP251 T01110094 51002=
201311010851 SPECI KBLI 010851Z AUTO 17005KT 10SM SCT015 BKN019 OVC036 11/09 A3025 RMK AO2=
201311010753 METAR KBLI 010753Z AUTO 18004KT 10SM OVC011 12/09 A3026 RMK AO2 SLP253 T01170094 401170083=
201311010653 METAR KBLI 010653Z AUTO 00000KT 10SM OVC011 10/09 A3024 RMK AO2 SLP249 T01000089=
201311010553 METAR KBLI 010553Z AUTO 00000KT 10SM OVC013 10/09 A3025 RMK AO2 SLP249 T01000089 10111 20083 53005=
201311010510 SPECI KBLI 010510Z 00000KT 10SM BKN013 OVC019 10/09 A3024 RMK AO2=
201311010453 METAR KBLI 010453Z 00000KT 10SM SCT012 OVC018 10/09 A3024 RMK AO2 SLP246 T01000089=
201311010440 SPECI KBLI 010440Z 00000KT 10SM OVC018 10/08 A3023 RMK AO2=
201311010353 METAR KBLI 010353Z 00000KT 4SM BR OVC013 09/08 A3023 RMK AO2 SLP245 T00940083=
201311010338 SPECI KBLI 010338Z 00000KT 4SM BR OVC013 09/09 A3023 RMK AO2=
201311010253 METAR KBLI 010253Z 00000KT 3SM BR BKN015 BKN055 09/08 A3023 RMK AO2 SLP244 T00890083 53009=
201311010243 SPECI KBLI 010243Z 00000KT 6SM BR BKN015 BKN060 09/07 A3023 RMK AO2=
201311010217 SPECI KBLI 010217Z 00000KT 10SM SCT013 10/09 A3022 RMK AO2=
201311010153 METAR KBLI 010153Z 16006KT 10SM OVC011 11/09 A3021 RMK AO2 SLP236 T01060089=
201311010113 SPECI KBLI 010113Z 16008KT 10SM BKN011 BKN050 11/09 A3020 RMK AO2=
201311010053 METAR KBLI 010053Z 17008KT 10SM BKN050 11/09 A3020 RMK AO2 SLP232 T01060089=
201311010032 SPECI KBLI 010032Z 17007KT 10SM SCT012 BKN045 OVC050 11/09 A3020 RMK AO2=

# No short TAF reports from KBLI in databse.

###################################
#  large TAF from KBLI
###################################
201311302320 TAF KBLI 302320Z 0100/0124 13006KT 3SM -RA BR OVC020 FM010200 05006KT
                       4SM -RA BR OVC015 FM010800 16014G21KT 5SM
                       -RA BR OVC010=
201311301730 TAF KBLI 301730Z 3018/0118 12009KT P6SM OVC035
                      TEMPO 3018/3022 4SM -RA BR OVC015 FM010200
                       05006KT 4SM -RA BR OVC015 FM010800 16014G23KT
                       5SM -RA BR OVC010=
201311301120 TAF KBLI 301120Z 3012/0112 16007KT 4SM BR BKN015 OVC030
                      TEMPO 3012/3015 2SM -RA BR OVC010 FM302000
                       18008KT P6SM -RA OVC015 FM010800 16014G23KT
                       5SM -RA BR OVC010=
201311300819 TAF AMD KBLI 300819Z 3008/0106 16007KT P6SM BKN015 OVC030
                      TEMPO 3008/3010 4SM -RA BR OVC010 FM302000
                       18008KT P6SM -RA OVC015=
201311300521 TAF KBLI 300521Z 3006/0106 16007KT P6SM BKN015 OVC030
                      TEMPO 3006/3010 -RA OVC010 FM302000 18008KT
                       P6SM -RA OVC015=
201311292320 TAF KBLI 292320Z 3000/3024 18007KT P6SM BKN030 OVC035
                      TEMPO 3002/3006 P6SM -RA OVC015 FM300600
                       19003KT P6SM -RA OVC015=
201311291735 TAF KBLI 291735Z 2918/3018 16010KT P6SM FEW015 OVC026 FM300000
                       18004KT P6SM OVC015
                      TEMPO 3002/3006 P6SM -RA OVC015 FM300600
                       19003KT P6SM -RA OVC015=
201311291120 TAF KBLI 291120Z 2912/3012 VRB03KT P6SM BKN025 OVC050 FM291500
                       20007KT P6SM BKN025 OVC040
                      PROB30 2921/2924 -RA FM300000 18004KT P6SM
                       BKN020 OVC040
                      TEMPO 3000/3004 -RA OVC015 FM300400 16003KT
                       4SM BR OVC015=
201311290522 TAF KBLI 290522Z 2906/3006 VRB03KT P6SM OVC050 FM291200 VRB03KT
                       P6SM SCT030 OVC050 FM291500 20007KT P6SM
                       BKN025 OVC040
                      PROB30 2915/2921 -RA FM300000 17004KT P6SM
                       BKN020 OVC040
                      TEMPO 3000/3004 -RA OVC015=
201311282349 TAF KBLI 282349Z 2900/2924 VRB03KT P6SM OVC070 FM291200 VRB03KT
                       P6SM SCT030 OVC050 FM291500 17007KT P6SM
                       BKN025 OVC040
                      PROB30 2915/2921 -RA=
201311282150 TAF AMD KBLI 282150Z 2822/2918 VRB03KT P6SM SCT080 BKN120 OVC200
                       FM290600 VRB03KT P6SM BKN060 OVC120 FM291200
                       VRB03KT P6SM SCT028 OVC060
                      PROB30 2912/2918 5SM -RA BR OVC028=
201311281804 TAF AMD KBLI 281804Z 2818/2918 VRB03KT P6SM SCT200 FM290000 VRB03KT
                       P6SM FEW120 BKN200 FM290600 VRB03KT P6SM
                       SCT060 BKN120 OVC200 FM290900 VRB03KT P6SM
                       BKN060 OVC120 FM291200 VRB03KT P6SM SCT028
                       OVC060
                      PROB30 2912/2918 5SM -RA BR OVC028=
201311281744 TAF KBLI 281744Z 2818/2918 VRB03KT P6SM SCT060 OVC090=
201311281120 TAF KBLI 281120Z 2812/2912 VRB03KT P6SM SCT090 BKN200 FM281400
                       VRB03KT P6SM SCT060 OVC090=
201311280527 TAF KBLI 280527Z 2806/2906 VRB03KT P6SM SCT090 BKN200 FM281400
                       VRB03KT P6SM SCT060 OVC090=
201311280050 TAF AMD KBLI 280050Z 2801/2824 VRB03KT P6SM SCT090 BKN200
                      TEMPO 2801/2803 BKN090 BKN200 FM281400 VRB03KT
                       P6SM SCT060 OVC090
                      PROB30 2818/2824 -RA OVC060=
201311272334 TAF KBLI 272334Z 2800/2824 VRB03KT P6SM SCT090 BKN200 FM281400
                       VRB03KT P6SM SCT060 OVC090
                      PROB30 2818/2824 -RA OVC060=
201311271741 TAF KBLI 271741Z 2718/2818 VRB03KT P6SM VCSH OVC090 FM272200 VRB03KT
                       P6SM SCT090 BKN200
                      TEMPO 2722/2802 BKN090 OVC200 FM281200 VRB03KT
                       P6SM OVC090=
201311271125 TAF KBLI 271125Z 2712/2812 01004KT P6SM SCT050 BKN080 FM271500
                       36005KT P6SM SCT080 BKN200=
201311270520 TAF KBLI 270520Z 2706/2806 01004KT P6SM SCT050 OVC080 FM271400
                       00000KT P6SM SCT080 BKN200=
201311262322 TAF KBLI 262322Z 2700/2724 01004KT P6SM OVC110 FM271400 00000KT
                       P6SM BKN250=
201311261734 TAF KBLI 261734Z 2618/2718 32003KT P6SM BKN250 FM262200 16004KT
                       P6SM BKN120 OVC200 FM270200 16005KT P6SM
                       OVC100=
201311261400 TAF AMD KBLI 261400Z 2614/2712 00000KT 4SM BR FEW002 SCT180 BKN250
                       TEMPO 2614/2616 1/2SM FG VV002 FM261600
                       16003KT P6SM BKN200=
201311261120 TAF KBLI 261120Z 2612/2712 00000KT 4SM BR FEW002 SCT180 BKN250
                       TEMPO 2612/2614 1/2SM FG VV002 FM261600
                       16003KT P6SM BKN200=
201311261051 TAF AMD KBLI 261051Z 2611/2706 00000KT 4SM BR FEW002 SCT180 BKN250
                       TEMPO 2611/2614 1/2SM FG VV002 FM261600
                       16003KT P6SM BKN200=
201311260552 TAF AMD KBLI 260552Z 2606/2706 00000KT 4SM BR SCT180 BKN250
                      TEMPO 2606/2610 1SM BR SCT001 BKN250 FM261500
                       16003KT P6SM BKN200=
201311260525 TAF KBLI 260525Z 2606/2706 00000KT P6SM SCT180 BKN250
                      TEMPO 2609/2613 3SM BR SCT001 BKN250 FM261500
                       16003KT P6SM BKN200=
201311252321 TAF KBLI 252321Z 2600/2624 00000KT P6SM SCT180 BKN250 FM261500
                       16003KT P6SM BKN200=
201311251737 TAF KBLI 251737Z 2518/2618 00000KT P6SM SCT250 FM261100 16004KT
                       P6SM VCFG SCT250=
201311251120 TAF KBLI 251120Z 2512/2612 16004KT 6SM BR SCT003 SCT200
                      TEMPO 2513/2517 3SM BR BKN003 FM252000 18008KT
                       P6SM BKN250=
201311250520 TAF KBLI 250520Z 2506/2606 04005KT P6SM SKC FM251200 16007KT 3SM
                       BR SCT003 SCT200
                      TEMPO 2514/2518 1SM BR BKN003 FM252000 18008KT
                       P6SM BKN250=
201311242320 TAF KBLI 242320Z 2500/2524 34004KT P6SM SCT200 FM250600 04005KT
                       P6SM SKC FM251200 16007KT 3SM BR SCT003
                       SCT200
                      TEMPO 2514/2518 1SM BR BKN003 FM252000 18008KT
                       P6SM BKN250=
201311241720 TAF KBLI 241720Z 2418/2518 34004KT P6SM SCT200 FM250600 04005KT
                       P6SM SKC FM251200 16007KT 3SM BR SCT003
                       SCT200
                      TEMPO 2514/2518 1SM BR BKN003=
201311241123 TAF KBLI 241123Z 2412/2512 04006KT P6SM BKN250
                      TEMPO 2412/2414 3SM BR SCT001 SCT250=
201311241108 TAF AMD KBLI 241108Z 2411/2506 04006KT P6SM BKN250
                      TEMPO 2411/2414 3SM BR SCT001 SCT250=
201311240520 TAF KBLI 240520Z 2406/2506 04006KT P6SM BKN250=
201311232320 TAF KBLI 232320Z 2400/2424 04008KT P6SM BKN250=
201311231723 TAF KBLI 231723Z 2318/2418 03006KT P6SM SCT250=
201311231120 TAF KBLI 231120Z 2312/2412 01005KT P6SM SCT250=
201311230520 TAF KBLI 230520Z 2306/2406 05005KT P6SM SCT250=
201311222320 TAF KBLI 222320Z 2300/2324 VRB03KT P6SM BKN250 FM230600 05006KT
                       P6SM SCT250=
201311221720 TAF KBLI 221720Z 2218/2318 36005KT P6SM SCT250=
201311221131 TAF KBLI 221131Z 2212/2312 36005KT P6SM SCT250=
201311220532 TAF KBLI 220532Z 2206/2306 36004KT P6SM FEW250=
201311212324 TAF KBLI 212324Z 2200/2224 36004KT P6SM FEW250=
201311211733 TAF KBLI 211733Z 2118/2218 02004KT P6SM SCT250=
201311211120 TAF KBLI 211120Z 2112/2212 35004KT P6SM SKC=
201311210524 TAF KBLI 210524Z 2106/2206 35004KT P6SM SKC=
201311202320 TAF KBLI 202320Z 2100/2124 35004KT P6SM SKC=
201311201721 TAF KBLI 201721Z 2018/2118 01005KT P6SM SKC=
201311201120 TAF KBLI 201120Z 2012/2112 35006KT P6SM SKC=
201311200520 TAF KBLI 200520Z 2006/2106 31006KT P6SM SKC FM201000 03007KT P6SM
                       SCT250=
201311192320 TAF KBLI 192320Z 2000/2024 31006KT P6SM SCT060 SCT250 FM200400
                       03007KT P6SM SCT250=
201311191724 TAF KBLI 191724Z 1918/2018 29005KT P6SM SCT023 BKN035 OVC045
                      TEMPO 1918/1921 -SHRA BKN023 OVC035 FM192100
                       30006KT P6SM SCT030 BKN060
                      TEMPO 1921/1923 BKN030 FM200400 03005KT P6SM
                       SKC=
201311191120 TAF KBLI 191120Z 1912/2012 28006KT P6SM VCSH SCT015 OVC020
                      TEMPO 1912/1916 BKN012 FM191600 30006KT P6SM
                       SCT025 BKN030 FM192100 30006KT P6SM SCT030
                       BKN060 FM200100 35004KT P6SM SKC=
201311190526 TAF KBLI 190526Z 1906/2006 36005KT 2SM -SHRA BR BKN006 OVC020
                      TEMPO 1906/1910 BKN003 FM191500 22006KT P6SM
                       SCT008 BKN025 OVC050 FM192000 30006KT P6SM
                       SCT030 BKN060=
201311182323 TAF KBLI 182323Z 1900/1924 01004KT 3SM -RA BR BKN004 OVC015
                      TEMPO 1900/1904 1SM RA BR OVC004 FM190600
                       VRB03KT 4SM -SHRA BR BKN006 OVC020 FM191500
                       22006KT P6SM SCT008 BKN025 OVC050 FM192000
                       30006KT P6SM SCT030 BKN060=
201311181906 TAF AMD KBLI 181906Z 1819/1918 02003KT 1SM -RA BR OVC003
                      TEMPO 1819/1823 5SM BR SCT003 BKN018 OVC030
                       FM190600 22008KT P6SM -SHRA SCT010 BKN020
                       OVC035=
201311181722 TAF KBLI 181722Z 1818/1918 13005KT P6SM -RA FEW010 BKN040 OVC070
                       TEMPO 1818/1822 4SM BR BKN010 OVC040 FM182200
                       03004KT P6SM -RA BKN020 OVC030 FM190600
                       22008KT P6SM -SHRA SCT020 BKN030 OVC045=
201311181405 TAF AMD KBLI 181405Z 1814/1912 00000KT P6SM OVC012
                      TEMPO 1816/1818 4SM -RA BR OVC010 FM181800
                       VRB03KT P6SM -RA SCT025 OVC035 FM190000
                       VRB03KT P6SM -RA BKN020 OVC030 FM190600
                       22008KT P6SM -SHRA SCT020 BKN030 OVC045=
201311181138 TAF KBLI 181138Z 1812/1912 VRB03KT P6SM -SHRA BKN025 OVC035 FM181800
                       VRB03KT P6SM -RA SCT025 OVC035 FM190000
                       VRB03KT P6SM -RA BKN020 OVC030 FM190600
                       22008KT P6SM -SHRA SCT020 BKN030 OVC045=
201311180538 TAF KBLI 180538Z 1806/1906 18006KT P6SM BKN035 OVC050 FM181200
                       03004KT P6SM SCT035 BKN060 OVC100 FM181800
                       VRB03KT P6SM -RA OVC035 FM190000 VRB03KT
                       P6SM -RA BKN020 OVC030=
201311172324 TAF KBLI 172324Z 1800/1824 17010KT P6SM SCT025 BKN050 FM181600
                       17005KT P6SM -RA OVC035=
201311171738 TAF KBLI 171738Z 1718/1818 14012G24KT P6SM SCT020 BKN050 OVC080
                       TEMPO 1718/1722 -SHRA BKN020 OVC040 FM172200
                       18012G20KT P6SM SCT025 BKN050
                      TEMPO 1722/1802 -SHRA BKN025 OVC050 FM180200
                       17010KT P6SM SCT035 BKN060 FM181600 15006KT
                       P6SM -RA OVC035=
201311171554 TAF AMD KBLI 171554Z 1716/1812 16010G20KT P6SM BKN035 OVC050 FM172000
                       18012KT P6SM SCT035 BKN060 FM180600 15008KT
                       P6SM SCT050 OVC100=
201311171136 TAF KBLI 171136Z 1712/1812 18004KT P6SM SCT035 BKN090 FM172000
                       18012KT P6SM SCT035 BKN060 FM180600 15008KT
                       P6SM SCT050 OVC100=
201311170536 TAF KBLI 170536Z 1706/1806 18004KT P6SM SCT035 BKN060 BKN090 FM171600
                       17012KT P6SM SCT035 BKN060 FM172000 17012KT
                       P6SM -SHRA BKN035 OVC060=
201311162336 TAF KBLI 162336Z 1700/1724 20004KT P6SM BKN035 OVC050 FM170900
                       17008KT P6SM BKN025 OVC050 FM171600 17012KT
                       P6SM BKN030 OVC050=
201311161740 TAF KBLI 161740Z 1618/1718 VRB03KT P6SM BKN025 OVC035 FM162200
                       24006KT P6SM SCT025 BKN040 FM170100 19004KT
                       P6SM BKN050 FM170800 17008KT P6SM BKN025=
201311161519 TAF AMD KBLI 161519Z 1615/1712 VRB03KT P6SM BKN025
                      TEMPO 1615/1619 SCT025 FM161900 24006KT P6SM
                       SCT025 BKN040 FM170800 17008KT P6SM SCT025
                       BKN040=
201311161140 TAF KBLI 161140Z 1612/1712 28008KT P6SM BKN040 FM161800 24006KT
                       P6SM SCT050 FM170800 17008KT P6SM SCT025
                       BKN040=
201311160539 TAF KBLI 160539Z 1606/1706 18012G20KT P6SM OVC011 FM160800 28012G18KT
                       P6SM -SHRA BKN011 OVC025 FM161200 28008KT
                       P6SM BKN040 FM161800 24006KT P6SM SCT050=
201311152330 TAF KBLI 152330Z 1600/1624 17015G28KT P6SM -RA OVC020 FM160300
                       20015G28KT P6SM -RA OVC020 FM160500 28015G28KT
                       P6SM -RA OVC020 FM160800 28012G25KT P6SM
                       -SHRA OVC025 FM161600 24010KT P6SM VCSH
                       BKN040=
201311151728 TAF KBLI 151728Z 1518/1618 18007KT P6SM -RA BKN045 OVC070 FM152100
                       17015G30KT P6SM -RA BKN012 OVC020 FM160300
                       22014KT P6SM -SHRA SCT018 BKN030 FM161000
                       25010KT P6SM VCSH SCT015 SCT030=
201311151138 TAF KBLI 151138Z 1512/1612 16007KT P6SM SCT012 BKN018 OVC025 FM151400
                       18008KT P6SM -RA SCT008 BKN012 OVC018 FM152100
                       17020G30KT 4SM -RA BR BKN008 OVC015 FM160200
                       24014KT P6SM -SHRA SCT018 BKN030 FM161000
                       25010KT P6SM VCSH SCT015 SCT030=
201311150548 TAF KBLI 150548Z 1506/1606 17004KT P6SM BKN045 OVC060 FM151200
                       18009KT P6SM -RA SCT012 BKN018 OVC030 FM152100
                       16015G25KT 4SM -RA BR BKN012 OVC018 FM160100
                       21009KT P6SM -SHRA SCT020 BKN035=
201311142320 TAF KBLI 142320Z 1500/1524 21008KT P6SM SCT025 BKN040 FM151300
                       18005KT P6SM -RA BKN020 OVC040 FM151600
                       17011KT P6SM -RA OVC020
                      TEMPO 1520/1524 4SM BR OVC015=
201311141733 TAF KBLI 141733Z 1418/1518 15008KT P6SM -SHRA BKN025 OVC040 FM142100
                       21008KT P6SM SCT025 BKN040 FM151300 18005KT
                       P6SM -RA BKN020 OVC040=
201311141130 TAF KBLI 141130Z 1412/1512 17008KT P6SM BKN050 FM141700 15008KT
                       P6SM -SHRA BKN025 OVC040 FM142100 21008KT
                       P6SM SCT025 BKN040=
201311140534 TAF KBLI 140534Z 1406/1506 17008KT P6SM OVC050 FM141600 15008KT
                       P6SM -SHRA BKN025 OVC040 FM142200 21008KT
                       P6SM SCT025 BKN040=
201311132321 TAF KBLI 132321Z 1400/1424 17007KT P6SM OVC050 FM140700 17003KT
                       4SM BR OVC020 FM142000 21005KT P6SM BKN040=
201311131720 TAF KBLI 131720Z 1318/1418 17007KT P6SM SCT250 FM132000 17007KT
                       P6SM BKN100 FM140300 17003KT 4SM BR OVC020=
201311131239 TAF AMD KBLI 131239Z 1313/1412 17009KT P6SM VCSH FEW015 OVC060
                       FM131600 17007KT P6SM OVC015 FM132000 17007KT
                       P6SM BKN050 FM140300 17003KT 4SM BR OVC015=
201311131122 TAF KBLI 131122Z 1312/1412 16007KT P6SM VCSH SCT040 BKN100 FM131600
                       17007KT P6SM OVC015 FM132000 17007KT P6SM
                       BKN050 FM140300 17003KT 4SM BR OVC015=
201311130531 TAF KBLI 130531Z 1306/1406 17005KT P6SM BKN040 BKN080 FM130900
                       18004KT P6SM OVC015 FM140000 22004KT P6SM
                       OVC050 FM140100 VRB03KT P6SM OVC015=
201311122331 TAF KBLI 122331Z 1300/1324 17005KT P6SM FEW035 BKN100 FM130300
                       17005KT P6SM BKN035 OVC070 FM130500 17005KT
                       P6SM OVC025 FM132000 18006KT P6SM BKN025
                       BKN050=
201311121729 TAF KBLI 121729Z 1218/1318 16009KT P6SM VCSH BKN040 OVC070 FM130200
                       17005KT P6SM OVC025=
201311121337 TAF AMD KBLI 121337Z 1214/1312 VRB03KT P6SM OVC090
                      TEMPO 1214/1216 -RA FM121600 16009KT P6SM
                       -RA SCT030 OVC050 FM122200 18006KT P6SM
                       VCSH OVC025 FM130200 17005KT P6SM VCSH OVC015=
201311121120 TAF KBLI 121120Z 1212/1312 00000KT P6SM BKN120 OVC200 FM121500
                       16009KT P6SM RA SCT030 OVC050 FM122200 18006KT
                       P6SM VCSH OVC025 FM130200 17005KT P6SM VCSH
                       OVC015=
201311120535 TAF KBLI 120535Z 1206/1306 00000KT P6SM SCT200 FM121200 36004KT
                       P6SM -RA BKN090 OVC200 FM121800 17013KT
                       P6SM -RA OVC025 FM130000 16006KT P6SM VCSH
                       SCT025 OVC050=
201311112338 TAF KBLI 112338Z 1200/1224 03006KT P6SM SCT120 OVC200 FM121200
                       04004KT P6SM SCT060 OVC090 FM121500 16011G18KT
                       6SM -RA BR OVC035 FM122000 17013G20KT P6SM
                       VCSH SCT025 BKN040=
201311111742 TAF KBLI 111742Z 1118/1218 03007KT P6SM SCT120 OVC200 FM121000
                       04004KT P6SM SCT060 OVC090 FM121300 16007KT
                       6SM -RA BR OVC035=
201311111124 TAF KBLI 111124Z 1112/1212 02010KT P6SM OVC040 FM111800 04006KT
                       P6SM BKN100 BKN200=
201311110520 TAF KBLI 110520Z 1106/1206 02008G17KT P6SM SCT070 BKN120=
201311102346 TAF KBLI 102346Z 1100/1124 01004KT P6SM SCT050 OVC100=
201311101731 TAF KBLI 101731Z 1018/1118 01003KT P6SM -RA BKN040 OVC100 FM102000
                       01004KT P6SM OVC050 FM110500 01003KT P6SM
                       OVC100=
201311101125 TAF KBLI 101125Z 1012/1112 00000KT P6SM -RA OVC045 FM101700 01003KT
                       P6SM -RA OVC025 FM102000 01004KT P6SM OVC050
                       FM110500 01003KT P6SM OVC100=
201311100530 TAF KBLI 100530Z 1006/1106 00000KT P6SM OVC050 FM101200 00000KT
                       P6SM -RA SCT025 OVC050 FM102100 02004KT
                       P6SM OVC100=
201311092325 TAF KBLI 092325Z 1000/1024 01005KT P6SM SCT060 OVC080 FM100300
                       04006KT P6SM -RA SCT025 OVC050 FM101700
                       04005KT P6SM BKN030 BKN080=
201311091801 TAF KBLI 091801Z 0918/1018 00000KT P6SM OVC035 FM092100 04005KT
                       P6SM OVC050 FM100500 04006KT P6SM -RA OVC025
                       FM101700 04005KT P6SM BKN030 BKN080=
201311091128 TAF KBLI 091128Z 0912/1012 00000KT P6SM OVC035 FM092100 04005KT
                       P6SM OVC050 FM100300 04006KT P6SM -RA OVC025=
201311091031 TAF AMD KBLI 091031Z 0911/1006 00000KT P6SM OVC030 FM092200 10005KT
                       P6SM -RA BKN030 OVC060=
201311090525 TAF KBLI 090525Z 0906/1006 00000KT P6SM BKN028 OVC040 FM090900
                       02005KT P6SM BKN080 BKN120 FM092200 10005KT
                       P6SM -RA BKN030 OVC060=
201311082332 TAF KBLI 082332Z 0900/0924 16006KT P6SM FEW045 SCT080 BKN120 FM090900
                       02005KT P6SM BKN080 BKN120=
201311081728 TAF KBLI 081728Z 0818/0918 16006KT P6SM BKN035 BKN140 FM082000
                       18006KT P6SM SCT045 SCT080 BKN140 FM090200
                       VRB03KT P6SM SCT080 BKN130 FM090900 02005KT
                       P6SM BKN080 OVC120=
201311081139 TAF KBLI 081139Z 0812/0912 18006KT P6SM BKN022 OVC035 FM082000
                       18006KT P6SM SCT030 BKN045 BKN070 FM090200
                       VRB03KT P6SM SCT060 BKN100=
201311080540 TAF KBLI 080540Z 0806/0906 18006KT P6SM BKN015 OVC025 FM081100
                       18006KT P6SM SCT015 BKN025 OVC035 FM082000
                       18006KT P6SM SCT030 BKN045 BKN070 FM090200
                       VRB03KT P6SM SCT060=
201311080102 TAF AMD KBLI 080102Z 0801/0824 12012G20KT P6SM BKN022 OVC050
                      TEMPO 0801/0803 -SHRA FM080300 32006KT P6SM
                       BKN025 OVC050
                      TEMPO 0803/0807 -SHRA FM080700 VRB03KT P6SM
                       -SHRA OVC020 FM081500 18006KT P6SM BKN025
                       BKN050
                      PROB30 0815/0820 -SHRA FM082000 18006KT P6SM
                       BKN035 OVC050
                      PROB30 0820/0824 -SHRA=
201311080021 TAF AMD KBLI 080021Z 0800/0824 17013G20KT P6SM BKN025 OVC050
                      TEMPO 0800/0803 -SHRA FM080300 20008KT P6SM
                       BKN025 OVC050
                      TEMPO 0803/0807 -SHRA FM080700 VRB03KT P6SM
                       -SHRA OVC020 FM081500 18006KT P6SM BKN025
                       BKN050
                      PROB30 0815/0820 -SHRA FM082000 18006KT P6SM
                       BKN035 OVC050
                      PROB30 0820/0824 -SHRA=
201311072339 TAF KBLI 072339Z 0800/0824 15019G29KT P6SM OVC029 FM080600 21009KT
                       P6SM BKN025 OVC050 FM081200 17009KT P6SM
                       BKN025 BKN050
                      PROB30 0812/0818 -SHRA=
201311072209 TAF AMD KBLI 072209Z 0722/0818 15015G25KT P6SM -SHRA OVC025
                      TEMPO 0722/0724 4SM SHRA FM080000 VRB05KT
                       P6SM -SHRA OVC020 FM080600 21009KT P6SM
                       BKN025 OVC050 FM081200 17009KT P6SM BKN025
                       BKN050
                      PROB30 0812/0818 -SHRA=
201311071906 TAF AMD KBLI 071906Z 0719/0818 13008KT 5SM SHRA SCT020 OVC050
                      TEMPO 0719/0721 2SM +SHRA BKN020 OVC040 FM072100
                       13012KT P6SM -SHRA SCT020 BKN035 OVC050
                       TEMPO 0721/0724 BKN020 OVC035 FM080000 VRB05KT
                       P6SM -SHRA OVC020 FM080600 21009KT P6SM
                       BKN025 OVC050
                      PROB30 0806/0812 -SHRA FM081200 17009KT P6SM
                       BKN025 BKN050
                      PROB30 0812/0818 -SHRA=
201311071748 TAF AMD KBLI 071748Z 0718/0818 19012KT 4SM SHRA SCT012 BKN022 OVC050
                       TEMPO 0718/0720 2SM +SHRA BKN012 OVC030
                       FM072000 13012KT P6SM -SHRA SCT020 BKN035
                       OVC050
                      TEMPO 0720/0724 BKN020 OVC035 FM080000 VRB05KT
                       P6SM -SHRA OVC020 FM080600 21009KT P6SM
                       BKN025 OVC050
                      PROB30 0806/0812 -SHRA FM081200 17009KT P6SM
                       BKN025 BKN050
                      PROB30 0812/0818 -SHRA=
201311071741 TAF KBLI 071741Z 0718/0818 19012G20KT 4SM SHRA SCT012 BKN022 OVC050
                       FM072000 13012KT P6SM -SHRA SCT020 BKN035
                       OVC050
                      TEMPO 0720/0724 BKN020 OVC035 FM080000 VRB05KT
                       P6SM -SHRA OVC020 FM080600 21009KT P6SM
                       BKN025 OVC050
                      PROB30 0806/0812 -SHRA FM081200 17009KT P6SM
                       BKN025 BKN050
                      PROB30 0812/0818 -SHRA=
201311071140 TAF KBLI 071140Z 0712/0812 03006KT P6SM -RA SCT012 OVC030 FM071700
                       14014KT 5SM -RA BR SCT007 OVC012 FM072000
                       18012G20KT P6SM -SHRA BKN015 BKN030 OVC050
                       FM080300 18012KT P6SM -SHRA SCT020 BKN035
                       BKN050=
201311070541 TAF KBLI 070541Z 0706/0806 04006KT P6SM -RA OVC045 FM071200 11010KT
                       P6SM -RA SCT012 OVC030 FM071500 14014G24KT
                       5SM -RA BR SCT007 OVC012 FM071800 18012G20KT
                       P6SM -SHRA BKN015 BKN030 OVC050 FM072300
                       18012KT P6SM -SHRA SCT020 BKN035 BKN050=
201311062340 TAF KBLI 062340Z 0700/0724 02008KT P6SM BKN110 OVC200 FM070300
                       06008KT P6SM -RA OVC070 FM070600 09008KT
                       P6SM -RA SCT030 OVC050 FM070900 11010KT
                       P6SM -RA SCT012 OVC030 FM071200 14018G28KT
                       5SM -RA BR SCT007 OVC012 FM071800 17015G25KT
                       P6SM -SHRA BKN015 BKN030 OVC050=
201311062103 TAF AMD KBLI 062103Z 0621/0718 VRB03KT P6SM SCT090 OVC200 FM062200
                       VRB03KT P6SM SCT050 OVC090
                      TEMPO 0622/0624 -RA FM070000 07005KT P6SM
                       -RA SCT030 OVC050 FM070900 11010KT P6SM
                       -RA SCT012 OVC030 FM071200 14018G28KT 5SM
                       -RA BR SCT007 OVC012=
201311061736 TAF KBLI 061736Z 0618/0718 VRB03KT P6SM SCT025 BKN050 OVC110 FM062100
                       VRB03KT P6SM BKN050 OVC110
                      TEMPO 0621/0624 -RA FM070000 07005KT P6SM
                       -RA SCT030 OVC050 FM070900 11010KT P6SM
                       -RA SCT012 OVC030 FM071200 14018G28KT 5SM
                       -RA BR SCT007 OVC012=
201311061649 TAF AMD KBLI 061649Z 0617/0712 VRB03KT P6SM BKN025 OVC050 FM061900
                       05006KT P6SM SCT060 OVC100 FM062300 05006KT
                       P6SM -RA OVC045 FM070900 14012KT P6SM -RA
                       OVC025=
201311061526 TAF AMD KBLI 061526Z 0615/0712 00000KT 4SM BR BKN015 OVC040 FM061600
                       VRB03KT P6SM SCT020 BKN050 FM061900 05006KT
                       P6SM SCT060 OVC100 FM062300 05006KT P6SM
                       -RA OVC045 FM070900 14012KT P6SM -RA OVC025=
201311061136 TAF KBLI 061136Z 0612/0712 00000KT P6SM SCT010 OVC018
                      TEMPO 0612/0616 3SM BR FM061600 VRB03KT P6SM
                       SCT020 BKN050 FM061900 05006KT P6SM SCT060
                       OVC100 FM062300 05006KT P6SM -RA OVC045
                       FM070900 14012KT P6SM -RA OVC025=
201311060540 TAF KBLI 060540Z 0606/0706 VRB03KT 5SM BR OVC022
                      TEMPO 0606/0610 2SM BR FM061000 VRB03KT P6SM
                       SCT025 BKN050
                      TEMPO 0610/0614 5SM BR FM061400 VRB03KT P6SM
                       SCT050 FM061900 05006KT P6SM SCT060 OVC100
                       FM062300 05006KT P6SM -RA OVC045=
201311060001 TAF AMD KBLI 060001Z 0600/0624 VRB04KT P6SM BKN008 OVC030
                      TEMPO 0600/0603 2SM BR BKN003 FM061800 VRB04KT
                       P6SM BKN025 OVC100=
201311052326 TAF KBLI 052326Z 0600/0624 VRB04KT P6SM BKN008 OVC030 FM061800
                       VRB04KT P6SM BKN025 OVC100=
201311051721 TAF KBLI 051721Z 0518/0618 VRB05KT P6SM VCSH SCT005 OVC012
                      TEMPO 0518/0519 5SM BR BKN005 FM051900 20008KT
                       P6SM SCT015 BKN020 FM052300 20008KT P6SM
                       SCT020 BKN030 BKN050=
201311051140 TAF KBLI 051140Z 0512/0612 03006KT P6SM -RA OVC022 FM051400 13006KT
                       P6SM BKN015 OVC025 FM051900 20008KT P6SM
                       BKN022 OVC040 FM052300 20008KT P6SM SCT020
                       BKN035 BKN050=
201311050541 TAF KBLI 050541Z 0506/0606 VRB03KT P6SM OVC050 FM050900 11006KT
                       P6SM -RA OVC035 FM051400 17008KT P6SM BKN015
                       OVC025 FM051900 20008KT P6SM BKN022 OVC040=
201311042320 TAF KBLI 042320Z 0500/0524 VRB03KT P6SM SCT120 OVC250 FM050600
                       12006KT P6SM -RA OVC045 FM050900 11006KT
                       P6SM -RA OVC015 FM051400 16004KT 2SM -RA
                       BR OVC007 FM051900 20004KT P6SM OVC015=
201311042001 TAF AMD KBLI 042001Z 0420/0518 05004KT P6SM SCT120 OVC250
                      TEMPO 0420/0424 4SM BR BKN005 FM050600 12006KT
                       P6SM -RA OVC045 FM050900 11006KT P6SM -RA
                       OVC015 FM051400 16004KT 2SM -RA BR OVC007
                       TEMPO 0514/0518 1/2SM FG OVC001=
201311041720 TAF KBLI 041720Z 0418/0518 00000KT 5SM BR SKC
                      TEMPO 0418/0420 1/4SM FG VV001 FM042000 05004KT
                       P6SM SCT120 OVC250 FM050600 12006KT P6SM
                       -RA OVC045 FM050900 11006KT P6SM -RA OVC015
                       FM051400 16004KT 2SM -RA BR OVC007
                      TEMPO 0514/0518 1/2SM FG OVC001=
201311041600 TAF AMD KBLI 041600Z 0416/0512 00000KT 5SM BR SKC
                      TEMPO 0416/0417 1/4SM FG VV001 FM042000 05004KT
                       P6SM SCT120 OVC250 FM050600 12006KT P6SM
                       -RA OVC045 FM050900 11006KT P6SM -RA OVC015=
201311041135 TAF KBLI 041135Z 0412/0512 00000KT 5SM BR SKC
                      TEMPO 0412/0416 1/2SM FG BKN001 FM042000
                       05004KT P6SM SCT120 OVC250 FM050600 12006KT
                       P6SM -RA OVC045 FM050900 11006KT P6SM -RA
                       OVC015=
201311040525 TAF KBLI 040525Z 0406/0506 00000KT P6SM SKC FM041200 VRB04KT P6SM
                       SCT020 BKN250
                      TEMPO 0412/0416 1/2SM FG BKN001 FM042000
                       18005KT P6SM SCT030 BKN120 OVC250=
201311032320 TAF KBLI 032320Z 0400/0424 VRB04KT P6SM SCT030 FM040600 VRB04KT
                       P6SM BKN250 FM041200 VRB04KT P6SM SCT020
                       BKN250
                      TEMPO 0412/0416 1/2SM FG BKN001 FM042000
                       18005KT P6SM SCT030 BKN120 OVC250=
201311031730 TAF KBLI 031730Z 0318/0418 VRB04KT P6SM SCT030 BKN050
                      TEMPO 0318/0320 BKN030 FM040000 VRB03KT P6SM
                       SCT050 BKN250 FM041200 VRB04KT P6SM SCT020
                       BKN250=
201311031135 TAF KBLI 031135Z 0312/0412 29003KT 1/2SM FG VV002
                      TEMPO 0313/0317 3SM BR BKN015 FM031700 32005KT
                       P6SM SCT015 BKN025 FM032000 18005KT P6SM
                       VCSH SCT030 BKN050 FM040000 VRB03KT P6SM
                       SCT080 BKN250=
201311030530 TAF KBLI 030530Z 0306/0406 34003KT P6SM VCSH SCT013 BKN021 OVC027
                       FM031200 00000KT P6SM OVC025 FM031900 34002KT
                       P6SM VCSH SCT030 BKN050 FM040000 33002KT
                       P6SM SCT060 BKN130=
201311030345 TAF AMD KBLI 030345Z 0304/0324 00000KT P6SM VCSH BKN019 BKN028
                       OVC045 FM031200 18008KT P6SM BKN025=
201311022320 TAF KBLI 022320Z 0300/0324 20012G22KT P6SM -SHRA BKN025 BKN050
                       FM030400 20010G20KT P6SM VCSH SCT030 BKN050
                       FM031200 18008KT P6SM BKN025=
201311021720 TAF KBLI 021720Z 0218/0318 16020G30KT P6SM -SHRA BKN030 BKN050
                       TEMPO 0219/0221 22030G40KT FM022100 24030G40KT
                       P6SM -SHRA BKN030 BKN050 FM030600 18010KT
                       P6SM SCT025 BKN050=
201311021130 TAF KBLI 021130Z 0212/0312 VRB06KT P6SM -RA OVC020 FM021400 20025G35KT
                       5SM -RA BR OVC015 FM021800 20025G35KT P6SM
                       -SHRA BKN018 BKN030
                      TEMPO 0220/0224 22030G40KT FM030200 31020G30KT
                       P6SM VCSH BKN030 OVC050 FM030600 14006KT
                       P6SM SCT030 BKN050=
201311020905 TAF AMD KBLI 020905Z 0209/0306 00000KT P6SM -RA OVC070
                      TEMPO 0209/0212 5SM -RA BR BKN015 OVC040
                       FM021200 14020G30KT 4SM -RA BR OVC012 FM021800
                       20025G35KT 4SM -SHRA BKN018 BKN030
                      TEMPO 0220/0224 22030G40KT=
201311020530 TAF KBLI 020530Z 0206/0306 36004KT P6SM -RA OVC070
                      TEMPO 0206/0208 5SM -RA BR OVC050 FM020800
                       13013KT 4SM -RA BR OVC015 FM021200 14020G30KT
                       4SM -RA BR OVC012 FM021800 20025G35KT 4SM
                       -SHRA BKN018 BKN030
                      TEMPO 0220/0224 22030G40KT=
201311020305 TAF AMD KBLI 020305Z 0203/0224 02004KT 6SM BR BKN004 OVC090 FM020400
                       12004KT P6SM -RA SCT020 OVC040 FM020800
                       13013KT 4SM -RA BR OVC015 FM021200 14020G30KT
                       4SM -RA BR OVC012 FM021800 20025G35KT 4SM
                       -SHRA BKN018 BKN030
                      TEMPO 0220/0224 22030G40KT=
201311012325 TAF KBLI 012325Z 0200/0224 VRB04KT P6SM SCT020 OVC080 FM020400
                       12004KT P6SM -RA SCT020 OVC040 FM020800
                       13013KT 4SM -RA BR OVC015 FM021200 14020G30KT
                       4SM -RA BR OVC012 FM021800 20025G35KT 4SM
                       -SHRA BKN018 BKN030
                      TEMPO 0220/0224 22030G40KT=
201311011720 TAF KBLI 011720Z 0118/0218 19008KT P6SM BKN020 BKN120 FM012000
                       11006KT P6SM SCT020 BKN120 FM020300 12004KT
                       P6SM -RA SCT020 OVC040 FM020800 13013KT
                       4SM -RA BR OVC015 FM021200 14020G30KT 4SM
                       -RA BR OVC012 FM021500 18020G30KT 4SM -SHRA
                       OVC012=
201311011125 TAF KBLI 011125Z 0112/0212 17005KT P6SM OVC015
                      TEMPO 0112/0116 4SM BR OVC007 FM011800 00000KT
                       P6SM BKN020 FM012000 11006KT P6SM SCT020
                       BKN120 FM020300 12004KT P6SM -RA SCT020
                       OVC040 FM020800 13013KT 4SM -RA BR OVC015=
201311010520 TAF KBLI 010520Z 0106/0206 00000KT P6SM SCT012 OVC018 FM011000
                       00000KT P6SM OVC012
                      TEMPO 0112/0116 2SM BR OVC007 FM011600 00000KT
                       P6SM BKN020 FM012000 11006KT P6SM SCT020
                       BKN120 FM020300 12004KT P6SM -RA SCT020
                       OVC040=