##########################################################
# Query made at 02/16/2025 20:18:11 UTC
# Time interval: from 04/01/2013 00:00  to 04/30/2013 23:59  UTC
##########################################################

##########################################################
# KBLI, Bellingham, Bellingham International Airport (United States)
# WMO index: -----. WIGOS ID: Unknown
# Latitude 48-47-58N. Longitude 122-32-21W. Altitude 48 m.
##########################################################

###################################
#  METAR/SPECI from KBLI
###################################
201304302353 METAR KBLI 302353Z VRB05KT 10SM CLR 11/01 A3035 RMK AO2 SLP287 T01110006 10117 20083 50009=
201304302253 METAR KBLI 302253Z 17008KT 10SM CLR 11/00 A3036 RMK AO2 SLP288 T01110000=
201304302153 METAR KBLI 302153Z 00000KT 10SM SCT042 11/01 A3035 RMK AO2 SLP286 T01060006=
201304302053 METAR KBLI 302053Z 28004KT 10SM BKN038 OVC046 09/01 A3033 RMK AO2 SLP278 T00940006 51015=
201304301953 METAR KBLI 301953Z VRB04KT 10SM SCT035 SCT050 BKN060 09/01 A3032 RMK AO2 SLP276 T00890011=
201304301853 METAR KBLI 301853Z VRB04KT 10SM BKN035 BKN043 BKN050 09/01 A3031 RMK AO2 SLP272 T00890006=
201304301753 METAR KBLI 301753Z 29007KT 10SM FEW029 BKN035 BKN048 08/M01 A3028 RMK AO2 SLP263 60000 T00831006 10089 20061 53016=
201304301653 METAR KBLI 301653Z VRB04KT 10SM SCT031 BKN049 08/01 A3027 RMK AO2 SLP258 T00780011=
201304301615 SPECI KBLI 301615Z 28006KT 10SM FEW027 BKN047 OVC055 07/01 A3026 RMK AO2=
201304301553 METAR KBLI 301553Z VRB03KT 10SM BKN029 OVC035 07/01 A3025 RMK AO2 RAB16E27 SLP252 P0000 T00720006=
201304301538 SPECI KBLI 301538Z VRB06KT 10SM BKN029 BKN034 OVC048 08/01 A3024 RMK AO2 RAB16E27 P0000=
201304301453 METAR KBLI 301453Z VRB05KT 10SM FEW033 BKN050 07/00 A3024 RMK AO2 SLP247 T00670000 53020=
201304301353 METAR KBLI 301353Z 00000KT 10SM BKN033 OVC045 07/00 A3022 RMK AO2 SLP240 T00670000=
201304301253 METAR KBLI 301253Z AUTO 00000KT 10SM BKN037 OVC045 07/01 A3019 RMK AO2 SLP231 T00670006=
201304301153 METAR KBLI 301153Z AUTO 00000KT 10SM BKN030 OVC034 07/01 A3018 RMK AO2 SLP227 60000 70008 T00670011 10078 20067 53011=
201304301133 SPECI KBLI 301133Z AUTO 25003KT 10SM OVC030 07/01 A3017 RMK AO2=
201304301053 METAR KBLI 301053Z AUTO VRB03KT 10SM BKN026 OVC035 07/02 A3017 RMK AO2 SLP223 T00670017=
201304301015 SPECI KBLI 301015Z AUTO 18004KT 10SM BKN027 OVC033 07/01 A3016 RMK AO2=
201304300953 METAR KBLI 300953Z AUTO 00000KT 10SM SCT031 OVC055 07/01 A3015 RMK AO2 SLP219 T00720011=
201304300853 METAR KBLI 300853Z AUTO 00000KT 10SM OVC046 07/00 A3015 RMK AO2 RAB41E53 SLP216 P0000 60000 T00670000 53007=
201304300753 METAR KBLI 300753Z AUTO 00000KT 10SM SCT070 OVC090 07/02 A3014 RMK AO2 SLP214 T00720022 401220067=
201304300653 METAR KBLI 300653Z AUTO 28004KT 10SM BKN110 07/03 A3013 RMK AO2 SLP210 T00670028=
201304300553 METAR KBLI 300553Z AUTO VRB03KT 10SM SCT038 BKN045 BKN060 08/02 A3012 RMK AO2 SLP209 60001 T00780022 10117 20078 53011=
201304300453 METAR KBLI 300453Z 18003KT 10SM SCT050 BKN065 OVC085 08/02 A3011 RMK AO2 SLP202 T00780022=
201304300353 METAR KBLI 300353Z 18003KT 10SM OVC060 08/02 A3010 RMK AO2 SLP201 T00780022=
201304300253 METAR KBLI 300253Z 16004KT 10SM BKN049 09/02 A3009 RMK AO2 SLP197 60001 T00890017 57001=
201304300153 METAR KBLI 300153Z VRB03KT 10SM FEW023 09/02 A3009 RMK AO2 RAB09E41 SLP196 P0001 T00940022=
201304300143 SPECI KBLI 300143Z 18003KT 10SM FEW030 SCT060 09/01 A3009 RMK AO2 RAB09E41 P0001=
201304300136 SPECI KBLI 300136Z 00000KT 10SM -RA BKN025 BKN032 BKN060 09/02 A3009 RMK AO2 RAB09 P0001=
201304300053 METAR KBLI 300053Z 00000KT 10SM OVC050 10/M02 A3010 RMK AO2 SLP200 T01001017=
201304292353 METAR KBLI 292353Z VRB04KT 10SM FEW055 BKN090 11/M02 A3009 RMK AO2 SLP198 T01061022 10122 20089 55000=
201304292253 METAR KBLI 292253Z VRB03KT 10SM OVC065 11/M03 A3009 RMK AO2 SLP197 T01061033=
201304292153 METAR KBLI 292153Z 25008G15KT 220V290 10SM SCT100 11/M03 A3009 RMK AO2 SLP198 T01061033=
201304292053 METAR KBLI 292053Z 26009G17KT 230V300 10SM FEW060 11/M02 A3009 RMK AO2 SLP199 T01061022 51010=
201304291953 METAR KBLI 291953Z 26009G22KT 10SM CLR 11/M02 A3009 RMK AO2 SLP197 T01061022=
201304291853 METAR KBLI 291853Z 28011G19KT 230V320 10SM FEW042 10/M01 A3008 RMK AO2 SLP194 T01001011=
201304291753 METAR KBLI 291753Z 21009G16KT 160V260 10SM FEW038 BKN048 09/01 A3006 RMK AO2 SLP188 60007 T00890006 10094 20067 51016=
201304291653 METAR KBLI 291653Z 20005KT 10SM SCT028 SCT036 BKN049 08/03 A3006 RMK AO2 SLP186 T00830028=
201304291553 METAR KBLI 291553Z 27007KT 230V310 10SM SCT050 BKN060 08/02 A3004 RMK AO2 SLP181 T00830017=
201304291453 METAR KBLI 291453Z 26008KT 220V300 10SM SCT027 BKN039 07/02 A3002 RMK AO2 SLP172 60007 T00720022 53024=
201304291353 METAR KBLI 291353Z VRB05KT 10SM OVC040 07/02 A2999 RMK AO2 SLP164 T00670022=
201304291253 METAR KBLI 291253Z AUTO 00000KT 10SM FEW040 BKN047 OVC065 07/03 A2996 RMK AO2 RAB1158E40 SLP155 P0007 T00670028=
201304291235 SPECI KBLI 291235Z AUTO VRB03KT 10SM -RA SCT027 BKN041 OVC050 07/03 A2996 RMK AO2 RAB1158 P0007=
201304291218 SPECI KBLI 291218Z AUTO 26005G14KT 8SM -RA BKN028 OVC036 07/03 A2996 RMK AO2 RAB1158 P0007=
201304291153 METAR KBLI 291153Z AUTO VRB03KT 10SM SCT033 BKN041 OVC080 07/04 A2995 RMK AO2 SLP148 60004 70008 T00720039 10083 20072 53017=
201304291053 METAR KBLI 291053Z AUTO VRB03KT 10SM CLR 07/04 A2993 RMK AO2 SLP142 T00720044=
201304290953 METAR KBLI 290953Z AUTO 00000KT 10SM CLR 08/06 A2991 RMK AO2 SLP135 T00780056=
201304290853 METAR KBLI 290853Z AUTO 17008G16KT 140V200 10SM FEW009 SCT016 08/06 A2990 RMK AO2 RAE06 SLP132 P0000 60004 T00780061 56003=
201304290850 SPECI KBLI 290850Z AUTO 18009G16KT 10SM SCT016 08/06 A2990 RMK AO2 RAE06 P0000=
201304290831 SPECI KBLI 290831Z AUTO 17008G16KT 10SM SCT007 BKN019 OVC080 08/07 A2990 RMK AO2 RAE06 P0000=
201304290814 SPECI KBLI 290814Z AUTO 17010KT 10SM FEW006 BKN047 OVC075 08/07 A2989 RMK AO2 RAE06 P0000=
201304290753 METAR KBLI 290753Z AUTO 17008G17KT 8SM -RA SCT023 BKN030 OVC070 08/07 A2989 RMK AO2 SLP129 P0002 T00830072 401280056=
201304290726 SPECI KBLI 290726Z AUTO 18007G16KT 9SM -RA FEW023 BKN028 OVC034 08/07 A2990 RMK AO2 P0001=
201304290653 METAR KBLI 290653Z AUTO 16009KT 9SM -RA FEW013 SCT019 OVC036 08/07 A2990 RMK AO2 SLP133 P0002 T00830067=
201304290553 METAR KBLI 290553Z AUTO 00000KT 10SM -RA OVC021 08/07 A2994 RMK AO2 SLP144 P0001 60004 T00830067 10111 20083 56018=
201304290453 METAR KBLI 290453Z VRB04KT 7SM -RA BKN025 OVC050 08/06 A2995 RMK AO2 SLP151 P0003 T00830056=
201304290424 SPECI KBLI 290424Z VRB04KT 10SM -RA OVC027 09/05 A2996 RMK AO2 P0000=
201304290400 SPECI KBLI 290400Z 19006KT 10SM -RA SCT027 BKN034 OVC065 09/04 A2996 RMK AO2 P0000=
201304290353 METAR KBLI 290353Z 17006G14KT 10SM -RA BKN027 BKN034 OVC065 09/04 A2996 RMK AO2 SLP154 P0000 T00940044=
201304290253 METAR KBLI 290253Z 17008KT 10SM -RA BKN034 OVC070 10/04 A2999 RMK AO2 RAB52 SLP162 P0000 60000 T01000044 58037=
201304290153 METAR KBLI 290153Z 16008KT 10SM OVC100 11/04 A3003 RMK AO2 SLP176 T01060039=
201304290053 METAR KBLI 290053Z 16010KT 10SM FEW070 OVC090 11/04 A3007 RMK AO2 SLP190 T01060039=
201304282353 METAR KBLI 282353Z 17011G19KT 10SM OVC044 11/04 A3010 RMK AO2 SLP200 T01060044 10128 20106 58020=
201304282253 METAR KBLI 282253Z 16010G18KT 10SM SCT040 BKN080 11/05 A3012 RMK AO2 SLP206 T01110050=
201304282153 METAR KBLI 282153Z 16011G20KT 10SM FEW044 12/06 A3014 RMK AO2 SLP213 T01220056=
201304282053 METAR KBLI 282053Z 16012G18KT 10SM OVC039 11/04 A3016 RMK AO2 SLP220 T01110044 55009=
201304281953 METAR KBLI 281953Z 17010G20KT 10SM BKN045 OVC060 11/05 A3016 RMK AO2 SLP219 T01110050=
201304281853 METAR KBLI 281853Z 17010G18KT 10SM FEW035 OVC055 12/06 A3017 RMK AO2 SLP224 T01170061=
201304281753 METAR KBLI 281753Z VRB04KT 10SM BKN037 OVC045 11/04 A3019 RMK AO2 SLP229 T01110039 10111 20056 50002=
201304281653 METAR KBLI 281653Z 17008KT 10SM OVC050 10/06 A3019 RMK AO2 SLP230 T01000061=
201304281553 METAR KBLI 281553Z 17007KT 10SM BKN050 OVC060 09/05 A3018 RMK AO2 SLP228 T00940050=
201304281453 METAR KBLI 281453Z 16006KT 10SM OVC065 10/04 A3018 RMK AO2 SLP227 T01000039 53001=
201304281353 METAR KBLI 281353Z 00000KT 10SM OVC065 07/04 A3018 RMK AO2 SLP228 T00720044=
201304281253 METAR KBLI 281253Z AUTO 00000KT 10SM BKN060 06/05 A3017 RMK AO2 SLP226 T00560050=
201304281153 METAR KBLI 281153Z AUTO 00000KT 10SM FEW036 07/05 A3018 RMK AO2 SLP227 70024 T00670050 10106 20061 55000=
201304281053 METAR KBLI 281053Z AUTO 15006KT 10SM CLR 08/04 A3018 RMK AO2 SLP227 T00830044=
201304280953 METAR KBLI 280953Z AUTO 15003KT 10SM SCT060 08/05 A3017 RMK AO2 SLP226 T00780050=
201304280853 METAR KBLI 280853Z AUTO 00000KT 10SM CLR 08/06 A3018 RMK AO2 SLP227 T00780056 50003=
201304280753 METAR KBLI 280753Z AUTO 16005KT 10SM CLR 09/06 A3018 RMK AO2 SLP227 T00940061 401220089=
201304280653 METAR KBLI 280653Z AUTO 17007KT 10SM CLR 10/07 A3017 RMK AO2 SLP225 T01000067=
201304280553 METAR KBLI 280553Z AUTO 18006KT 10SM FEW055 BKN070 11/07 A3017 RMK AO2 SLP223 T01060067 10111 20106 50005=
201304280453 METAR KBLI 280453Z 17006G15KT 10SM FEW075 11/08 A3018 RMK AO2 SLP226 T01060078=
201304280353 METAR KBLI 280353Z 17009G14KT 10SM FEW024 BKN075 11/08 A3016 RMK AO2 SLP221 T01060083=
201304280253 METAR KBLI 280253Z 17010G17KT 10SM FEW018 SCT024 OVC080 11/08 A3015 RMK AO2 SLP218 CIGS LWR E-SW T01110083 58005=
201304280201 SPECI KBLI 280201Z 15007KT 10SM FEW018 BKN028 OVC041 11/08 A3016 RMK AO2=
201304280153 METAR KBLI 280153Z 15008KT 10SM FEW018 BKN033 OVC041 11/08 A3016 RMK AO2 SLP220 T01060083=
201304280053 METAR KBLI 280053Z 15008KT 10SM OVC024 11/08 A3017 RMK AO2 SLP222 T01060078=
201304272353 METAR KBLI 272353Z 16009G14KT 10SM BKN026 OVC032 11/08 A3017 RMK AO2 RAE18 SLP223 P0000 60024 T01110078 10111 20106 56002=
201304272344 SPECI KBLI 272344Z 17006KT 10SM SCT026 OVC031 11/08 A3017 RMK AO2 RAE18 P0000=
201304272253 METAR KBLI 272253Z 16008KT 10SM -RA FEW020 BKN028 OVC035 11/08 A3017 RMK AO2 SLP224 P0002 T01060083=
201304272153 METAR KBLI 272153Z 16013G20KT 4SM -RA BR OVC038 11/08 A3017 RMK AO2 SLP225 P0005 T01060083=
201304272053 METAR KBLI 272053Z 17011G19KT 9SM -RA OVC040 11/07 A3017 RMK AO2 SLP223 P0015 60017 T01060072 52003=
201304271953 METAR KBLI 271953Z 17011G20KT 10SM -RA OVC038 11/07 A3016 RMK AO2 SLP221 P0002 T01110072=
201304271853 METAR KBLI 271853Z 19006KT 10SM -RA SCT038 BKN048 OVC060 11/08 A3016 RMK AO2 RAB25 SLP221 P0000 T01060078=
201304271753 METAR KBLI 271753Z 17010KT 10SM BKN065 OVC085 11/07 A3016 RMK AO2 RAB1654E04B37E46 SLP220 P0000 60000 T01110067 10111 20100 51014=
201304271653 METAR KBLI 271653Z 18011G17KT 10SM BKN075 OVC090 10/07 A3014 RMK AO2 SLP213 T01000067=
201304271553 METAR KBLI 271553Z 16009KT 10SM SCT080 OVC100 11/07 A3015 RMK AO2 SLP215 T01060067=
201304271453 METAR KBLI 271453Z 19008G15KT 10SM BKN080 OVC110 11/06 A3012 RMK AO2 SLP205 T01060061 55009=
201304271353 METAR KBLI 271353Z 17009KT 10SM BKN085 11/07 A3011 RMK AO2 SLP204 T01060067=
201304271253 METAR KBLI 271253Z AUTO 18005KT 10SM OVC080 11/07 A3013 RMK AO2 SLP210 T01060072=
201304271153 METAR KBLI 271153Z AUTO 17007KT 10SM BKN085 11/07 A3014 RMK AO2 SLP214 T01110067 10133 20106 56012=
201304271053 METAR KBLI 271053Z AUTO 16004KT 10SM OVC090 11/08 A3015 RMK AO2 SLP217 T01110078=
201304270953 METAR KBLI 270953Z AUTO 18005KT 10SM OVC100 11/07 A3017 RMK AO2 SLP222 T01110072=
201304270853 METAR KBLI 270853Z AUTO 20003KT 10SM BKN100 12/07 A3018 RMK AO2 SLP227 T01170072 50001=
201304270753 METAR KBLI 270753Z AUTO 19005KT 10SM CLR 12/07 A3018 RMK AO2 SLP228 T01220067 401500083=
201304270653 METAR KBLI 270653Z AUTO 18007KT 10SM CLR 13/07 A3018 RMK AO2 SLP226 T01280067=
201304270553 METAR KBLI 270553Z AUTO 18007KT 10SM FEW120 13/06 A3018 RMK AO2 SLP225 T01330061 10150 20133 50002=
201304270453 METAR KBLI 270453Z 18006KT 10SM OVC100 14/04 A3019 RMK AO2 SLP231 T01390044=
201304270353 METAR KBLI 270353Z 16005KT 10SM OVC100 14/04 A3019 RMK AO2 SLP230 T01440039=
201304270253 METAR KBLI 270253Z 17006KT 10SM CLR 15/03 A3017 RMK AO2 SLP223 T01500028 58012=
201304270153 METAR KBLI 270153Z 16007KT 10SM CLR 15/03 A3019 RMK AO2 SLP231 T01500033=
201304270053 METAR KBLI 270053Z 17008KT 10SM CLR 14/03 A3020 RMK AO2 SLP234 T01440033=
201304262353 METAR KBLI 262353Z 17011KT 10SM CLR 14/01 A3020 RMK AO2 SLP235 T01440011 10150 20111 56008=
201304262253 METAR KBLI 262253Z 17010G15KT 10SM CLR 14/06 A3021 RMK AO2 SLP236 T01390061=
201304262153 METAR KBLI 262153Z 17008KT 10SM CLR 14/09 A3021 RMK AO2 SLP238 T01440094=
201304262053 METAR KBLI 262053Z VRB05KT 10SM SCT110 14/09 A3023 RMK AO2 SLP243 T01440094 50001=
201304261953 METAR KBLI 261953Z 17009KT 10SM CLR 14/09 A3024 RMK AO2 SLP245 T01440089=
201304261853 METAR KBLI 261853Z 18009KT 10SM CLR 12/09 A3024 RMK AO2 SLP247 T01220089=
201304261753 METAR KBLI 261753Z 18011KT 10SM CLR 12/08 A3023 RMK AO2 SLP242 T01170083 10117 20083 50008=
201304261653 METAR KBLI 261653Z 18010G18KT 10SM SCT004 10/08 A3023 RMK AO2 SLP243 T01000078=
201304261613 SPECI KBLI 261613Z 18010G18KT 10SM SCT004 09/07 A3022 RMK AO2=
201304261553 METAR KBLI 261553Z 17011G19KT 10SM OVC004 09/07 A3022 RMK AO2 SLP240 T00940072=
201304261453 METAR KBLI 261453Z 17009G16KT 10SM OVC004 09/07 A3020 RMK AO2 SLP234 T00890072 51009=
201304261423 SPECI KBLI 261423Z 16010G16KT 10SM BKN004 09/07 A3020 RMK AO2=
201304261353 METAR KBLI 261353Z 17009KT 10SM FEW004 09/07 A3020 RMK AO2 SLP233 T00890072=
201304261318 SPECI KBLI 261318Z AUTO 16013G19KT 10SM BKN004 09/07 A3019 RMK AO2=
201304261308 SPECI KBLI 261308Z AUTO 15013KT 10SM SCT004 09/07 A3019 RMK AO2=
201304261253 METAR KBLI 261253Z AUTO 16011G18KT 10SM CLR 09/07 A3019 RMK AO2 SLP229 T00940067=
201304261153 METAR KBLI 261153Z AUTO 17009G18KT 10SM CLR 10/07 A3017 RMK AO2 SLP223 T01000067 10133 20100 53010=
201304261053 METAR KBLI 261053Z AUTO 17009KT 10SM CLR 11/06 A3015 RMK AO2 SLP216 T01060056=
201304260953 METAR KBLI 260953Z AUTO 18008G15KT 10SM CLR 11/06 A3015 RMK AO2 SLP217 T01060061=
201304260853 METAR KBLI 260853Z AUTO 17012G17KT 10SM CLR 11/07 A3014 RMK AO2 SLP215 T01110067 53009=
201304260753 METAR KBLI 260753Z AUTO 17010G18KT 10SM CLR 12/06 A3013 RMK AO2 SLP211 T01170061 401830044=
201304260653 METAR KBLI 260653Z AUTO 17011G15KT 10SM CLR 13/07 A3012 RMK AO2 SLP206 T01280072=
201304260553 METAR KBLI 260553Z AUTO 16009G18KT 10SM CLR 13/07 A3012 RMK AO2 SLP205 T01280072 10183 20128 51012=
201304260453 METAR KBLI 260453Z 16009KT 10SM BKN090 14/07 A3011 RMK AO2 SLP204 T01390072=
201304260353 METAR KBLI 260353Z 17006KT 10SM CLR 14/07 A3011 RMK AO2 SLP202 T01390072=
201304260253 METAR KBLI 260253Z 00000KT 10SM CLR 15/07 A3008 RMK AO2 SLP194 T01500067 51000=
201304260153 METAR KBLI 260153Z 17003KT 10SM CLR 18/05 A3008 RMK AO2 SLP194 T01780050=
201304260053 METAR KBLI 260053Z 16004KT 10SM CLR 18/04 A3008 RMK AO2 SLP194 T01830044=
201304252353 METAR KBLI 252353Z 17005KT 10SM CLR 18/04 A3008 RMK AO2 SLP193 T01830044 10183 20133 58008=
201304252253 METAR KBLI 252253Z VRB03KT 10SM CLR 18/07 A3009 RMK AO2 SLP197 T01830072=
201304252153 METAR KBLI 252153Z 00000KT 10SM CLR 16/07 A3010 RMK AO2 SLP199 T01610067=
201304252053 METAR KBLI 252053Z VRB05KT 10SM CLR 16/07 A3011 RMK AO2 SLP201 T01560067 51006=
201304251953 METAR KBLI 251953Z VRB06KT 10SM CLR 15/07 A3010 RMK AO2 SLP201 T01500067=
201304251853 METAR KBLI 251853Z 19008KT 10SM CLR 14/07 A3009 RMK AO2 SLP198 T01390067=
201304251753 METAR KBLI 251753Z 17007KT 10SM CLR 14/06 A3009 RMK AO2 SLP195 T01390061 10139 20044 51010=
201304251653 METAR KBLI 251653Z 17009KT 10SM CLR 12/06 A3008 RMK AO2 SLP191 T01220056=
201304251553 METAR KBLI 251553Z 17008KT 10SM CLR 11/06 A3007 RMK AO2 SLP189 T01060061=
201304251453 METAR KBLI 251453Z 16008KT 10SM CLR 09/05 A3006 RMK AO2 SLP185 T00940050 53004=
201304251353 METAR KBLI 251353Z 00000KT 10SM CLR 07/04 A3006 RMK AO2 SLP185 T00720044=
201304251253 METAR KBLI 251253Z AUTO 00000KT 10SM CLR 05/03 A3004 RMK AO2 SLP180 T00500033=
201304251153 METAR KBLI 251153Z AUTO 00000KT 10SM CLR 08/06 A3005 RMK AO2 SLP181 T00830056 10117 20050 55004=
201304251053 METAR KBLI 251053Z AUTO 00000KT 10SM CLR 05/04 A3004 RMK AO2 SLP180 T00500039=
201304250953 METAR KBLI 250953Z AUTO 15005KT 10SM CLR 08/05 A3005 RMK AO2 SLP182 T00830050=
201304250853 METAR KBLI 250853Z AUTO 16003KT 10SM CLR 08/06 A3006 RMK AO2 SLP185 T00830061 56003=
201304250753 METAR KBLI 250753Z AUTO 15004KT 10SM CLR 09/06 A3006 RMK AO2 SLP188 T00890061 401780017=
201304250653 METAR KBLI 250653Z AUTO 19003KT 10SM CLR 10/06 A3006 RMK AO2 SLP186 T01000061=
201304250553 METAR KBLI 250553Z AUTO 00000KT 10SM CLR 09/07 A3007 RMK AO2 SLP189 T00940067 10178 20089 58003=
201304250453 METAR KBLI 250453Z 00000KT 10SM CLR 10/06 A3007 RMK AO2 SLP191 T01000056=
201304250353 METAR KBLI 250353Z 00000KT 10SM CLR 11/04 A3008 RMK AO2 SLP192 T01110044=
201304250253 METAR KBLI 250253Z 00000KT 10SM CLR 13/06 A3008 RMK AO2 SLP192 T01330056 56024=
201304250153 METAR KBLI 250153Z 00000KT 10SM CLR 17/01 A3010 RMK AO2 SLP199 T01670006=
201304250053 METAR KBLI 250053Z 16005KT 10SM CLR 17/01 A3012 RMK AO2 SLP207 T01720006=
201304242353 METAR KBLI 242353Z 00000KT 10SM CLR 18/01 A3015 RMK AO2 SLP216 T01780011 10178 20133 58026=
201304242253 METAR KBLI 242253Z VRB04KT 10SM CLR 17/04 A3018 RMK AO2 SLP226 T01720044=
201304242153 METAR KBLI 242153Z 19005KT 10SM CLR 17/04 A3021 RMK AO2 SLP236 T01670039=
201304242053 METAR KBLI 242053Z 19006KT 10SM CLR 17/04 A3023 RMK AO2 SLP243 T01670044 58023=
201304241953 METAR KBLI 241953Z 21006KT 10SM CLR 15/06 A3026 RMK AO2 SLP254 T01500056=
201304241853 METAR KBLI 241853Z VRB04KT 10SM CLR 14/06 A3028 RMK AO2 SLP260 T01390061=
201304241753 METAR KBLI 241753Z 00000KT 10SM CLR 13/04 A3030 RMK AO2 SLP266 T01330039 10139 20017 58011=
201304241653 METAR KBLI 241653Z 00000KT 10SM CLR 11/05 A3031 RMK AO2 SLP271 T01110050=
201304241553 METAR KBLI 241553Z 11003KT 10SM CLR 11/06 A3032 RMK AO2 SLP275 T01060061=
201304241453 METAR KBLI 241453Z 00000KT 10SM CLR 08/06 A3033 RMK AO2 SLP279 T00830056 55000=
201304241353 METAR KBLI 241353Z 00000KT 10SM CLR 03/03 A3032 RMK AO2 SLP276 T00330028=
201304241253 METAR KBLI 241253Z AUTO 00000KT 10SM CLR 02/01 A3032 RMK AO2 SLP275 T00170006=
201304241153 METAR KBLI 241153Z AUTO 00000KT 10SM CLR 03/02 A3033 RMK AO2 SLP279 T00280017 10072 20022 53004=
201304241053 METAR KBLI 241053Z AUTO 00000KT 10SM CLR 03/02 A3032 RMK AO2 SLP277 T00280017=
201304240953 METAR KBLI 240953Z AUTO 00000KT 10SM CLR 04/03 A3031 RMK AO2 SLP274 T00390028=
201304240853 METAR KBLI 240853Z AUTO 00000KT 10SM CLR 05/04 A3032 RMK AO2 SLP275 T00500039 51007=
201304240753 METAR KBLI 240753Z AUTO 00000KT 10SM CLR 06/04 A3031 RMK AO2 SLP273 T00560039 401560017=
201304240653 METAR KBLI 240653Z AUTO 00000KT 10SM CLR 06/04 A3031 RMK AO2 SLP271 T00560039=
201304240553 METAR KBLI 240553Z AUTO 00000KT 10SM CLR 07/04 A3030 RMK AO2 SLP268 T00720044 10156 20067 50007=
201304240453 METAR KBLI 240453Z 00000KT 10SM CLR 07/04 A3030 RMK AO2 SLP269 T00670044=
201304240353 METAR KBLI 240353Z 00000KT 10SM CLR 09/04 A3029 RMK AO2 SLP265 T00890044=
201304240253 METAR KBLI 240253Z 00000KT 10SM CLR 11/04 A3028 RMK AO2 SLP260 T01060044 56003=
201304240153 METAR KBLI 240153Z VRB04KT 10SM CLR 13/03 A3028 RMK AO2 SLP259 T01330033=
201304240053 METAR KBLI 240053Z 30005KT 10SM CLR 15/04 A3027 RMK AO2 SLP260 T01500044=
201304232353 METAR KBLI 232353Z 29006KT 10SM CLR 14/04 A3029 RMK AO2 SLP264 T01390039 10150 20106 56010=
201304232253 METAR KBLI 232253Z VRB06KT 10SM CLR 14/04 A3029 RMK AO2 SLP266 T01440044=
201304232153 METAR KBLI 232153Z VRB06KT 10SM CLR 15/05 A3030 RMK AO2 SLP268 T01500050=
201304232053 METAR KBLI 232053Z 00000KT 10SM CLR 13/03 A3032 RMK AO2 SLP274 T01330028 58006=
201304231953 METAR KBLI 231953Z VRB03KT 10SM FEW044 14/03 A3032 RMK AO2 SLP275 T01390033=
201304231853 METAR KBLI 231853Z VRB05KT 10SM BKN120 12/01 A3033 RMK AO2 SLP280 T01170011=
201304231753 METAR KBLI 231753Z 14007KT 10SM FEW120 11/03 A3034 RMK AO2 SLP281 T01110033 10111 20017 51003 $=
201304231653 METAR KBLI 231653Z 17007KT 10SM OVC100 09/03 A3033 RMK AO2 SLP280 T00890033=
201304231553 METAR KBLI 231553Z 18008KT 10SM OVC100 08/03 A3033 RMK AO2 SLP280 T00780028=
201304231453 METAR KBLI 231453Z 17007KT 10SM OVC100 08/02 A3033 RMK AO2 SLP276 T00780017 58015=
201304231353 METAR KBLI 231353Z 18003KT 10SM CLR 06/02 A3034 RMK AO2 SLP280 T00610022=
201304231253 METAR KBLI 231253Z AUTO 00000KT 10SM CLR 03/01 A3036 RMK AO2 SLP290 T00280011=
201304231153 METAR KBLI 231153Z AUTO 00000KT 10SM CLR 02/01 A3037 RMK AO2 SLP292 T00220006 10050 20022 56012=
201304231053 METAR KBLI 231053Z AUTO 00000KT 10SM CLR 03/00 A3038 RMK AO2 SLP294 T00280000=
201304230953 METAR KBLI 230953Z AUTO 00000KT 10SM CLR 04/00 A3039 RMK AO2 SLP299 T00390000=
201304230853 METAR KBLI 230853Z AUTO 00000KT 10SM CLR 03/01 A3040 RMK AO2 SLP304 T00330006 58014=
201304230753 METAR KBLI 230753Z AUTO 00000KT 10SM CLR 04/01 A3042 RMK AO2 SLP310 T00390011 401500011=
201304230653 METAR KBLI 230653Z AUTO 00000KT 10SM CLR 04/02 A3043 RMK AO2 SLP313 T00440017=
201304230553 METAR KBLI 230553Z AUTO 00000KT 10SM CLR 04/02 A3044 RMK AO2 SLP318 T00440017 10150 20044 55002=
201304230453 METAR KBLI 230453Z VRB03KT 10SM CLR 07/01 A3044 RMK AO2 SLP316 T00670011=
201304230353 METAR KBLI 230353Z 00000KT 10SM CLR 07/01 A3045 RMK AO2 SLP318 T00720006=
201304230253 METAR KBLI 230253Z 00000KT 10SM CLR 12/M06 A3045 RMK AO2 SLP319 T01171056 58008=
201304230153 METAR KBLI 230153Z 31007KT 10SM CLR 13/M08 A3046 RMK AO2 SLP323 T01331083=
201304230053 METAR KBLI 230053Z 30009KT 10SM CLR 14/M09 A3047 RMK AO2 SLP325 T01441094=
201304222353 METAR KBLI 222353Z 27007G15KT 230V310 10SM CLR 14/M09 A3047 RMK AO2 SLP327 T01441089 10150 20117 58014=
201304222253 METAR KBLI 222253Z VRB05KT 10SM CLR 14/M01 A3049 RMK AO2 SLP333 T01441011=
201304222153 METAR KBLI 222153Z 25009G15KT 10SM CLR 13/01 A3051 RMK AO2 SLP338 T01280011=
201304222053 METAR KBLI 222053Z 28008KT 230V300 10SM CLR 13/03 A3051 RMK AO2 SLP341 T01330028 58010=
201304221953 METAR KBLI 221953Z VRB05KT 10SM CLR 13/02 A3053 RMK AO2 SLP346 T01280022=
201304221853 METAR KBLI 221853Z 01005KT 10SM CLR 13/M01 A3055 RMK AO2 SLP352 T01281011=
201304221753 METAR KBLI 221753Z 35008KT 10SM CLR 12/01 A3054 RMK AO2 SLP351 T01170006 10117 20011 51009=
201304221653 METAR KBLI 221653Z 02009KT 10SM CLR 09/01 A3054 RMK AO2 SLP349 T00940006=
201304221553 METAR KBLI 221553Z 36006KT 10SM CLR 08/01 A3053 RMK AO2 SLP345 T00830011=
201304221453 METAR KBLI 221453Z 01007KT 10SM CLR 06/00 A3052 RMK AO2 SLP342 T00560000 51016=
201304221353 METAR KBLI 221353Z 36007KT 10SM CLR 03/M01 A3051 RMK AO2 SLP340 T00281006=
201304221253 METAR KBLI 221253Z AUTO 36005KT 10SM CLR 02/M01 A3049 RMK AO2 SLP332 T00171011=
201304221153 METAR KBLI 221153Z AUTO 36004KT 10SM CLR 03/M01 A3047 RMK AO2 SLP326 70033 T00281006 10050 20017 53014=
201304221053 METAR KBLI 221053Z AUTO 35004KT 10SM CLR 02/00 A3045 RMK AO2 SLP321 T00220000=
201304220953 METAR KBLI 220953Z AUTO 02003KT 10SM CLR 02/01 A3044 RMK AO2 SLP315 T00220006=
201304220853 METAR KBLI 220853Z AUTO 01005KT 10SM CLR 03/01 A3043 RMK AO2 SLP312 T00330006 53019=
201304220753 METAR KBLI 220753Z AUTO 02005KT 10SM CLR 03/02 A3041 RMK AO2 SLP306 T00280017 401280028=
201304220653 METAR KBLI 220653Z AUTO 34004KT 10SM CLR 05/03 A3039 RMK AO2 SLP300 T00500028=
201304220553 METAR KBLI 220553Z AUTO 00000KT 10SM CLR 04/03 A3037 RMK AO2 SLP293 T00440028 10128 20044 51026=
201304220453 METAR KBLI 220453Z 33003KT 10SM CLR 06/03 A3035 RMK AO2 SLP285 T00610028=
201304220353 METAR KBLI 220353Z 28005KT 10SM CLR 07/02 A3032 RMK AO2 SLP275 T00720022=
201304220253 METAR KBLI 220253Z 33005KT 10SM CLR 09/M01 A3029 RMK AO2 SLP266 T00941011 53013=
201304220153 METAR KBLI 220153Z 01007KT 10SM CLR 12/00 A3027 RMK AO2 SLP259 T01170000=
201304220053 METAR KBLI 220053Z 01005KT 10SM CLR 11/M01 A3027 RMK AO2 SLP257 T01061006=
201304212353 METAR KBLI 212353Z 01010G17KT 10SM FEW036 12/01 A3026 RMK AO2 SLP252 60007 T01220006 10128 20056 58003=
201304212253 METAR KBLI 212253Z 02012G17KT 10SM FEW036 11/03 A3026 RMK AO2 SLP253 T01110028=
201304212153 METAR KBLI 212153Z 36009KT 10SM SCT026 BKN032 10/04 A3026 RMK AO2 SLP257 T01000039=
201304212053 METAR KBLI 212053Z 03013G20KT 10SM FEW025 OVC046 09/04 A3026 RMK AO2 SLP256 60007 T00890039 51009=
201304211953 METAR KBLI 211953Z 02009G17KT 10SM SCT020 BKN036 OVC090 08/05 A3026 RMK AO2 RAE39 SLP255 P0000 T00830050=
201304211936 SPECI KBLI 211936Z 02011KT 10SM -RA SCT020 BKN036 OVC090 07/04 A3026 RMK AO2 P0000=
201304211853 METAR KBLI 211853Z 03011G17KT 6SM -RA BR FEW008 BKN020 OVC031 06/04 A3025 RMK AO2 SLP253 P0007 T00560039=
201304211753 METAR KBLI 211753Z 31003KT 6SM -RA BR SCT009 BKN013 OVC031 08/06 A3024 RMK AO2 SLP247 VIS NE-SE 2 P0002 60026 T00780056 10078 20067 53005=
201304211700 SPECI KBLI 211700Z 00000KT 5SM -RA BR FEW009 BKN013 OVC031 07/06 A3023 RMK AO2 P0001=
201304211653 METAR KBLI 211653Z 24003KT 5SM -RA BR BKN009 OVC015 07/06 A3023 RMK AO2 SLP243 P0004 T00720056=
201304211632 SPECI KBLI 211632Z 00000KT 5SM -RA BR BKN009 OVC015 07/06 A3022 RMK AO2 CIG 007V013 P0003=
201304211553 METAR KBLI 211553Z 16003KT 5SM -RA BR FEW009 BKN015 OVC030 07/06 A3022 RMK AO2 SLP242 P0004 T00720061=
201304211453 METAR KBLI 211453Z 00000KT 3SM -RA BR BKN019 OVC028 07/06 A3022 RMK AO2 SLP241 P0006 60016 T00720061 53002=
201304211425 SPECI KBLI 211425Z 00000KT 5SM -RA BR BKN028 OVC039 07/06 A3022 RMK AO2 P0001=
201304211353 METAR KBLI 211353Z 18003KT 9SM -RA FEW010 OVC039 07/06 A3021 RMK AO2 SLP239 P0007 T00720061=
201304211338 SPECI KBLI 211338Z 00000KT 5SM -RA BR SCT010 SCT026 OVC036 07/06 A3021 RMK AO2 P0006=
201304211334 SPECI KBLI 211334Z AUTO 00000KT 5SM -RA BR FEW010 BKN013 OVC034 07/06 A3021 RMK AO2 P0006=
201304211300 SPECI KBLI 211300Z AUTO 18004KT 6SM -RA BR BKN019 OVC034 08/06 A3021 RMK AO2 P0001=
201304211253 METAR KBLI 211253Z AUTO 18004KT 6SM -RA BR SCT019 BKN030 OVC037 07/06 A3021 RMK AO2 SLP239 P0003 T00720061=
201304211153 METAR KBLI 211153Z AUTO 17005KT 10SM -RA FEW020 SCT038 OVC060 08/06 A3021 RMK AO2 RAB1054 SLP238 P0000 60000 T00780056 10100 20078 56002=
201304211053 METAR KBLI 211053Z AUTO 17007KT 10SM FEW018 BKN043 OVC050 08/05 A3021 RMK AO2 SLP238 T00830050=
201304210953 METAR KBLI 210953Z AUTO 17004KT 10SM FEW043 SCT060 OVC075 08/05 A3022 RMK AO2 RAE06 SLP239 P0000 T00830050=
201304210853 METAR KBLI 210853Z AUTO 16008KT 10SM -RA BKN046 OVC060 08/06 A3022 RMK AO2 RAE0756B44 SLP241 P0000 60000 T00830056 58003=
201304210753 METAR KBLI 210753Z AUTO 17006KT 10SM -RA OVC050 09/06 A3023 RMK AO2 RAB12 SLP243 P0000 T00890056 401330083=
201304210653 METAR KBLI 210653Z AUTO 00000KT 10SM OVC050 10/04 A3023 RMK AO2 SLP242 T01000039=
201304210553 METAR KBLI 210553Z AUTO 18003KT 10SM SCT036 BKN044 OVC060 10/04 A3023 RMK AO2 SLP244 T01000039 10122 20100 51008=
201304210453 METAR KBLI 210453Z 17007KT 10SM FEW039 OVC055 10/04 A3022 RMK AO2 SLP242 T01000044=
201304210353 METAR KBLI 210353Z VRB03KT 10SM OVC055 11/04 A3021 RMK AO2 SLP239 T01060044=
201304210253 METAR KBLI 210253Z 00000KT 10SM SCT043 OVC060 11/04 A3021 RMK AO2 SLP235 T01110044 55002=
201304210153 METAR KBLI 210153Z 21004G15KT 10SM OVC042 12/04 A3020 RMK AO2 SLP235 T01170039=
201304210053 METAR KBLI 210053Z VRB03KT 10SM OVC044 12/06 A3020 RMK AO2 SLP234 T01170061=
201304202353 METAR KBLI 202353Z 15006KT 10SM FEW032 BKN041 OVC060 12/07 A3021 RMK AO2 SLP237 60000 T01170072 10133 20106 58002=
201304202253 METAR KBLI 202253Z 16010KT 10SM BKN038 BKN050 OVC060 11/07 A3022 RMK AO2 RAB30E49 SLP239 P0000 T01110072=
201304202153 METAR KBLI 202153Z 17012G20KT 10SM OVC080 12/07 A3021 RMK AO2 SLP238 T01170067=
201304202053 METAR KBLI 202053Z 16010KT 10SM OVC075 12/06 A3022 RMK AO2 SLP239 T01220061 58003=
201304201953 METAR KBLI 201953Z 17010KT 10SM FEW035 BKN080 12/06 A3023 RMK AO2 SLP242 T01170061=
201304201853 METAR KBLI 201853Z 17010KT 10SM SCT048 BKN065 BKN080 11/06 A3023 RMK AO2 SLP245 T01060061=
201304201753 METAR KBLI 201753Z 17010KT 10SM SCT034 OVC080 11/06 A3023 RMK AO2 SLP242 60000 T01060061 10106 20083 52006=
201304201653 METAR KBLI 201653Z 16011G16KT 10SM SCT029 OVC060 09/07 A3022 RMK AO2 SLP241 T00940067=
201304201553 METAR KBLI 201553Z 16006KT 10SM OVC023 09/07 A3022 RMK AO2 SLP239 T00940067=
201304201453 METAR KBLI 201453Z 17006KT 10SM OVC021 09/07 A3021 RMK AO2 SLP236 60000 T00890067 51008=
201304201353 METAR KBLI 201353Z 15006KT 10SM OVC023 09/07 A3020 RMK AO2 SLP233 T00890072=
201304201253 METAR KBLI 201253Z AUTO 17005KT 10SM OVC025 09/07 A3020 RMK AO2 RAE22 SLP232 P0000 T00890072=
201304201153 METAR KBLI 201153Z AUTO 16005KT 10SM -RA OVC025 09/07 A3018 RMK AO2 SLP228 P0003 60008 70022 T00890072 10100 20089 53009=
201304201053 METAR KBLI 201053Z AUTO 17007KT 9SM -RA OVC025 09/07 A3017 RMK AO2 SLP225 P0002 T00890072=
201304200953 METAR KBLI 200953Z AUTO 17005KT 5SM -RA OVC025 09/07 A3016 RMK AO2 RAB38 SLP221 P0001 T00940067=
201304200853 METAR KBLI 200853Z AUTO VRB05KT 10SM OVC023 09/07 A3015 RMK AO2 RAE51 SLP218 P0000 60002 T00940072 53007=
201304200753 METAR KBLI 200753Z AUTO 17008KT 9SM -RA OVC025 09/07 A3015 RMK AO2 RAB07 SLP217 P0002 T00940072 401170089=
201304200740 SPECI KBLI 200740Z AUTO 17008KT 5SM -RA OVC027 10/07 A3015 RMK AO2 RAB07 P0001=
201304200653 METAR KBLI 200653Z AUTO 16009KT 10SM OVC038 10/07 A3013 RMK AO2 SLP211 T01000072=
201304200553 METAR KBLI 200553Z AUTO 17009KT 10SM SCT034 OVC041 10/07 A3013 RMK AO2 SLP211 60000 T01000072 10117 20094 53014=
201304200453 METAR KBLI 200453Z 17012G18KT 10SM BKN048 OVC060 09/08 A3011 RMK AO2 RAB35E45 SLP206 P0000 T00940078=
201304200353 METAR KBLI 200353Z 17011KT 10SM SCT044 OVC060 10/08 A3011 RMK AO2 SLP202 T01000078=
201304200253 METAR KBLI 200253Z 17008G15KT 10SM OVC060 11/09 A3009 RMK AO2 SLP197 T01060089 58002=
201304200153 METAR KBLI 200153Z 17008KT 10SM FEW065 11/09 A3010 RMK AO2 SLP200 T01110089=
201304200053 METAR KBLI 200053Z 17007KT 10SM FEW005 SCT012 BKN110 11/09 A3010 RMK AO2 SLP200 T01110094=
201304192353 METAR KBLI 192353Z 17007KT 10SM SCT007 BKN012 OVC017 11/09 A3010 RMK AO2 SLP199 60005 T01060094 10111 20094 52002=
201304192253 METAR KBLI 192253Z 17006KT 10SM SCT007 BKN012 OVC017 11/09 A3010 RMK AO2 SLP199 T01110094=
201304192153 METAR KBLI 192153Z 16007KT 6SM BR OVC005 11/09 A3009 RMK AO2 CIG 002V009 SLP197 T01060094=
201304192148 SPECI KBLI 192148Z 16006KT 6SM BR BKN003 OVC007 10/09 A3009 RMK AO2=
201304192053 METAR KBLI 192053Z 18005KT 1 1/2SM R16/5000VP6000FT BR BKN003 OVC018 10/09 A3009 RMK AO2 RAB1954E20 SLP196 P0001 60005 T01000094 51006=
201304191959 SPECI KBLI 191959Z 16005KT 2SM R16/6000VP6000FT -RA BR BKN004 OVC018 10/09 A3009 RMK AO2 RAB54 P0000=
201304191953 METAR KBLI 191953Z VRB04KT 3SM BR BKN004 OVC018 10/09 A3009 RMK AO2 RAE16 SLP197 P0000 T01000094=
201304191937 SPECI KBLI 191937Z 17005KT 3SM BR BKN002 BKN007 OVC020 09/09 A3009 RMK AO2 RAE16 P0000=
201304191900 SPECI KBLI 191900Z 16006KT 1 1/2SM -RA BR BKN002 OVC018 09/09 A3008 RMK AO2 P0000=
201304191853 METAR KBLI 191853Z 18006KT 2SM -RA BR BKN002 OVC021 09/09 A3008 RMK AO2 SLP192 P0004 T00940089=
201304191753 METAR KBLI 191753Z 17005KT 2SM -RA BR BKN002 OVC021 09/09 A3007 RMK AO2 SLP190 P0001 60009 T00940089 10100 20089 53003=
201304191729 SPECI KBLI 191729Z 17007KT 2SM -RA BR BKN004 BKN021 OVC025 09/09 A3006 RMK AO2 P0001=
201304191713 SPECI KBLI 191713Z 16006KT 3SM BR BKN004 BKN021 OVC025 09/09 A3006 RMK AO2 RAE07 P0000=
201304191653 METAR KBLI 191653Z 17008KT 3SM -RA BR FEW012 OVC025 09/08 A3006 RMK AO2 RAE13B39 SLP186 P0001 T00940083=
201304191639 SPECI KBLI 191639Z 18006KT 3SM -RA BR SCT012 BKN027 OVC032 09/09 A3006 RMK AO2 RAE13B39 P0000=
201304191601 SPECI KBLI 191601Z VRB04KT 8SM -RA FEW004 OVC014 10/09 A3006 RMK AO2 P0000=
201304191553 METAR KBLI 191553Z 00000KT 7SM -RA OVC014 09/09 A3006 RMK AO2 SLP186 P0002 T00940089=
201304191542 SPECI KBLI 191542Z 17003KT 7SM -RA OVC014 09/08 A3006 RMK AO2 P0002=
201304191453 METAR KBLI 191453Z 00000KT 4SM -RA BR OVC016 09/08 A3006 RMK AO2 SLP187 P0003 60005 T00890078 56007=
201304191402 SPECI KBLI 191402Z 19003KT 5SM -RA BR SCT018 OVC028 09/08 A3006 RMK AO2 P0000=
201304191353 METAR KBLI 191353Z 20003KT 6SM -RA BR SCT018 OVC030 09/08 A3006 RMK AO2 RAB27 SLP188 P0001 T00890078=
201304191253 METAR KBLI 191253Z AUTO 18003KT 10SM OVC041 09/08 A3006 RMK AO2 RAE11 SLP188 P0001 T00940078=
201304191153 METAR KBLI 191153Z AUTO 15005KT 10SM -RA BKN037 OVC050 09/08 A3008 RMK AO2 SLP195 P0002 60037 70070 T00940078 10100 20089 58020=
201304191053 METAR KBLI 191053Z AUTO 13006KT 10SM -RA FEW038 SCT045 OVC055 09/08 A3010 RMK AO2 SLP201 P0004 T00940083=
201304191042 SPECI KBLI 191042Z AUTO 13006KT 10SM -RA SCT021 SCT038 OVC047 09/08 A3011 RMK AO2 P0004=
201304190953 METAR KBLI 190953Z AUTO 17004KT 5SM -RA BR BKN023 OVC033 09/08 A3013 RMK AO2 SLP211 P0010 T00940083=
201304190921 SPECI KBLI 190921Z AUTO 16006KT 6SM -RA BR FEW017 SCT022 OVC033 09/08 A3014 RMK AO2 P0003=
201304190853 METAR KBLI 190853Z AUTO VRB04KT 6SM -RA BR BKN018 BKN028 OVC033 09/08 A3014 RMK AO2 SLP215 P0009 60021 T00940083 56015=
201304190818 SPECI KBLI 190818Z AUTO 14007KT 7SM -RA BKN018 BKN025 OVC031 10/08 A3015 RMK AO2 P0003=
201304190811 SPECI KBLI 190811Z AUTO 15006KT 7SM -RA SCT018 OVC030 10/08 A3015 RMK AO2 P0002=
201304190753 METAR KBLI 190753Z AUTO 14008KT 7SM -RA FEW018 OVC028 10/08 A3016 RMK AO2 SLP219 P0007 T01000078 401000067=
201304190725 SPECI KBLI 190725Z AUTO 14008KT 110V200 9SM -RA SCT018 OVC028 10/08 A3016 RMK AO2 P0003=
201304190653 METAR KBLI 190653Z AUTO 15008KT 10SM -RA BKN030 OVC035 10/08 A3016 RMK AO2 SLP222 P0005 T01000078=
201304190553 METAR KBLI 190553Z AUTO 15006KT 10SM -RA FEW018 OVC027 10/08 A3019 RMK AO2 SLP230 P0003 60024 T01000078 10100 20089 58024=
201304190453 METAR KBLI 190453Z 15009KT 7SM -RA SCT018 OVC025 09/08 A3022 RMK AO2 SLP243 P0005 T00940078=
201304190353 METAR KBLI 190353Z 15009KT 9SM -RA OVC018 09/07 A3024 RMK AO2 SLP250 P0007 T00940072=
201304190253 METAR KBLI 190253Z 00000KT 7SM -RA OVC020 09/07 A3026 RMK AO2 SLP254 P0002 60009 T00940072 57024=
201304190253 SPECI KBLI 190253Z 00000KT 7SM -RA OVC020 09/07 A3026 RMK AO2 SLP254 P0002 60009 T00940072 57024=
201304190229 SPECI KBLI 190229Z 14004KT 6SM -RA BR OVC020 09/07 A3026 RMK AO2 P0001=
201304190153 METAR KBLI 190153Z 15004KT 9SM -RA SCT026 BKN038 OVC055 09/07 A3028 RMK AO2 SLP262 P0003 T00890072=
201304190053 METAR KBLI 190053Z 14007KT 5SM -RA BR SCT013 OVC060 09/07 A3031 RMK AO2 SLP270 P0004 T00890067=
201304182353 METAR KBLI 182353Z 17008KT 8SM -RA BKN025 BKN046 OVC055 09/07 A3033 RMK AO2 SLP279 P0004 60005 T00890067 10100 20083 58019=
201304182253 METAR KBLI 182253Z 17009G17KT 8SM -RA BKN023 OVC055 09/07 A3035 RMK AO2 SLP286 P0000 T00940067=
201304182153 METAR KBLI 182153Z 17009G15KT 10SM -RA BKN023 OVC060 09/07 A3037 RMK AO2 SLP292 P0001 T00940067=
201304182110 SPECI KBLI 182110Z 17010G16KT 10SM -RA BKN021 OVC047 09/06 A3038 RMK AO2 P0000=
201304182053 METAR KBLI 182053Z 17010G18KT 10SM -RA SCT021 OVC050 09/06 A3039 RMK AO2 RAB38 SLP298 P0000 60000 T00940056 58014=
201304182022 SPECI KBLI 182022Z 17012KT 10SM SCT022 BKN042 OVC075 10/06 A3039 RMK AO2=
201304181953 METAR KBLI 181953Z 17011KT 10SM BKN022 OVC035 09/06 A3040 RMK AO2 SLP302 T00940056=
201304181853 METAR KBLI 181853Z 17009G17KT 10SM BKN019 OVC024 09/05 A3043 RMK AO2 SLP311 T00890050=
201304181753 METAR KBLI 181753Z 17011G16KT 10SM BKN017 BKN029 OVC035 08/05 A3043 RMK AO2 SLP312 60004 T00830050 10089 20067 50001=
201304181653 METAR KBLI 181653Z 17007KT 10SM FEW007 BKN012 OVC017 08/06 A3043 RMK AO2 RAE02 SLP313 P0000 T00780061=
201304181613 SPECI KBLI 181613Z 17009KT 3SM BR SCT004 OVC014 07/06 A3043 RMK AO2 RAE02 P0000=
201304181550 METAR KBLI 181550Z 16007KT 2SM -RA BR BKN004 OVC014 07/06 A3044 RMK AO2 SLP315 P0001 T00670061=
201304181549 SPECI KBLI 181549Z 17007KT 2SM -RA BR BKN004 OVC014 07/06 A3044 RMK AO2 P0001=
201304181535 SPECI KBLI 181535Z 17007KT 4SM BR BKN008 BKN014 OVC020 07/06 A3043 RMK AO2 RAE32 P0001=
201304181453 METAR KBLI 181453Z 17009KT 8SM -RA FEW008 BKN014 OVC023 07/06 A3042 RMK AO2 SLP311 P0001 60003 T00670056 50001=
201304181440 SPECI KBLI 181440Z 17006KT 7SM -RA SCT008 BKN012 OVC028 07/06 A3043 RMK AO2 P0001=
201304181353 METAR KBLI 181353Z 17006KT 6SM -RA BR BKN008 BKN015 OVC026 07/06 A3043 RMK AO2 RAB1255E12B34 SLP312 P0001 T00670056=
201304181349 SPECI KBLI 181349Z 17007KT 5SM -RA BR BKN008 BKN015 OVC026 07/06 A3042 RMK AO2 RAB1255E12B34 P0001=
201304181339 SPECI KBLI 181339Z AUTO 17007KT 4SM -RA BR SCT008 BKN014 OVC026 07/05 A3042 RMK AO2 RAB1255E12B34 P0000=
201304181331 SPECI KBLI 181331Z AUTO 17006KT 6SM BR SCT011 BKN016 OVC026 07/05 A3042 RMK AO2 RAB1255E12 P0000=
201304181253 METAR KBLI 181253Z AUTO 17008KT 9SM BKN011 OVC030 07/06 A3042 RMK AO2 RAB17E51 SLP309 P0001 T00670056=
201304181224 SPECI KBLI 181224Z AUTO 16009KT 10SM -RA SCT011 OVC036 07/05 A3042 RMK AO2 RAB17 P0001=
201304181216 SPECI KBLI 181216Z AUTO 15008KT 10SM BKN011 OVC040 07/06 A3042 RMK AO2 P0001=
201304181153 METAR KBLI 181153Z AUTO 16008KT 10SM FEW013 BKN030 OVC038 07/06 A3042 RMK AO2 RAE02 SLP309 P0000 60002 70002 T00720056 10089 20072 50002=
201304181117 SPECI KBLI 181117Z AUTO 16005KT 10SM BKN026 OVC032 07/06 A3042 RMK AO2 RAE02 P0000=
201304181053 METAR KBLI 181053Z AUTO 16004KT 10SM -RA OVC036 07/06 A3042 RMK AO2 SLP309 P0001 T00720056=
201304180953 METAR KBLI 180953Z AUTO 15006KT 10SM -RA OVC040 08/06 A3042 RMK AO2 SLP308 P0001 T00780061=
201304180853 METAR KBLI 180853Z AUTO 16004KT 10SM -RA OVC048 08/05 A3042 RMK AO2 RAB37 SLP307 P0000 60000 T00830050 53000=
201304180753 METAR KBLI 180753Z AUTO 17004KT 10SM OVC044 08/05 A3041 RMK AO2 RAE46 SLP306 P0000 T00830050 401330011=
201304180653 METAR KBLI 180653Z AUTO 15003KT 10SM -RA OVC048 09/04 A3041 RMK AO2 RAB41 SLP305 P0000 T00890044=
201304180553 METAR KBLI 180553Z AUTO 23003KT 10SM OVC050 09/03 A3042 RMK AO2 SLP307 T00890028 10122 20089 50003=
201304180453 METAR KBLI 180453Z VRB04KT 10SM OVC075 09/03 A3042 RMK AO2 SLP308 T00940028=
201304180353 METAR KBLI 180353Z VRB04KT 10SM OVC075 10/03 A3042 RMK AO2 SLP308 T01000028=
201304180253 METAR KBLI 180253Z VRB04G16KT 10SM BKN055 OVC070 11/01 A3041 RMK AO2 SLP305 T01110011 53002=
201304180153 METAR KBLI 180153Z 17007KT 10SM OVC070 11/04 A3040 RMK AO2 SLP301 T01110039=
201304180053 METAR KBLI 180053Z 17008KT 10SM BKN080 OVC110 12/03 A3040 RMK AO2 SLP301 T01170033=
201304172353 METAR KBLI 172353Z 16007KT 10SM OVC100 12/04 A3040 RMK AO2 SLP303 T01220039 10133 20106 58006=
201304172253 METAR KBLI 172253Z 16011KT 10SM OVC100 13/02 A3041 RMK AO2 SLP305 T01280022=
201304172153 METAR KBLI 172153Z 18011G18KT 10SM OVC100 13/02 A3041 RMK AO2 SLP307 T01280022=
201304172053 METAR KBLI 172053Z 17007KT 10SM OVC110 12/03 A3042 RMK AO2 SLP308 T01170033 58004=
201304171953 METAR KBLI 171953Z 16012KT 10SM OVC110 12/02 A3043 RMK AO2 SLP312 T01170022=
201304171853 METAR KBLI 171853Z 16014G19KT 10SM OVC100 11/04 A3043 RMK AO2 SLP312 T01110039=
201304171753 METAR KBLI 171753Z 17012KT 10SM BKN100 11/03 A3043 RMK AO2 SLP312 T01060033 10106 20011 51004=
201304171653 METAR KBLI 171653Z 17011G17KT 10SM FEW100 10/02 A3042 RMK AO2 SLP310 T01000022=
201304171553 METAR KBLI 171553Z 16010KT 10SM FEW095 SCT120 09/02 A3043 RMK AO2 SLP313 T00890022=
201304171453 METAR KBLI 171453Z 15007KT 120V180 10SM BKN100 07/03 A3042 RMK AO2 SLP308 T00720033 53008=
201304171353 METAR KBLI 171353Z 00000KT 10SM FEW120 03/02 A3040 RMK AO2 SLP302 T00330017=
201304171253 METAR KBLI 171253Z AUTO 00000KT 10SM CLR 02/01 A3040 RMK AO2 SLP302 T00220006=
201304171153 METAR KBLI 171153Z AUTO 00000KT 10SM CLR 03/01 A3039 RMK AO2 SLP300 T00280011 10061 20022 55000=
201304171053 METAR KBLI 171053Z AUTO 00000KT 10SM CLR 04/01 A3039 RMK AO2 SLP299 T00390011=
201304170953 METAR KBLI 170953Z AUTO 00000KT 10SM CLR 03/01 A3039 RMK AO2 SLP299 T00330006=
201304170853 METAR KBLI 170853Z AUTO 00000KT 10SM CLR 03/01 A3039 RMK AO2 SLP300 T00330006 51005=
201304170753 METAR KBLI 170753Z AUTO 00000KT 10SM CLR 04/01 A3039 RMK AO2 SLP299 T00390011 401560006=
201304170653 METAR KBLI 170653Z AUTO 00000KT 10SM CLR 04/M01 A3039 RMK AO2 SLP297 T00441006=
201304170553 METAR KBLI 170553Z AUTO 00000KT 10SM CLR 06/00 A3038 RMK AO2 SLP295 T00560000 10144 20044 51013=
201304170453 METAR KBLI 170453Z 00000KT 10SM CLR 06/00 A3037 RMK AO2 SLP293 T00610000=
201304170353 METAR KBLI 170353Z 00000KT 10SM CLR 07/01 A3035 RMK AO2 SLP287 T00670011=
201304170253 METAR KBLI 170253Z 00000KT 10SM CLR 10/00 A3034 RMK AO2 SLP282 T01000000 53008=
201304170153 METAR KBLI 170153Z VRB05KT 10SM CLR 13/M04 A3033 RMK AO2 SLP278 T01331044=
201304170053 METAR KBLI 170053Z 30010KT 10SM SCT070 14/M01 A3032 RMK AO2 SLP275 T01441011=
201304162353 METAR KBLI 162353Z 30010KT 10SM SCT075 14/M01 A3032 RMK AO2 SLP274 T01441006 10156 20122 52001=
201304162253 METAR KBLI 162253Z 34009KT 10SM CLR 16/M02 A3031 RMK AO2 SLP273 T01561017=
201304162153 METAR KBLI 162153Z 02008G18KT 340V050 10SM CLR 15/M02 A3031 RMK AO2 SLP273 T01501017=
201304162053 METAR KBLI 162053Z 33010G15KT 10SM FEW070 SCT100 14/01 A3031 RMK AO2 SLP272 T01440006 58004=
201304161953 METAR KBLI 161953Z 33009KT 10SM CLR 14/00 A3032 RMK AO2 SLP274 T01440000=
201304161853 METAR KBLI 161853Z 36008KT 10SM CLR 13/00 A3032 RMK AO2 SLP275 T01330000=
201304161753 METAR KBLI 161753Z 03008G14KT 10SM CLR 12/01 A3032 RMK AO2 SLP275 T01220011 10122 20006 50005=
201304161653 METAR KBLI 161653Z 36008KT 10SM CLR 11/02 A3033 RMK AO2 SLP278 T01060022=
201304161553 METAR KBLI 161553Z VRB03KT 10SM CLR 08/02 A3032 RMK AO2 SLP276 T00780022=
201304161453 METAR KBLI 161453Z 00000KT 10SM CLR 04/03 A3031 RMK AO2 SLP271 T00440028 53019=
201304161353 METAR KBLI 161353Z 00000KT 8SM CLR 01/01 A3029 RMK AO2 SLP266 T00110006=
201304161253 METAR KBLI 161253Z AUTO 00000KT 8SM CLR 01/00 A3026 RMK AO2 SLP258 T00110000=
201304161153 METAR KBLI 161153Z AUTO 00000KT 9SM CLR 01/01 A3025 RMK AO2 SLP253 60000 70010 T00110006 10106 20011 53016=
201304161053 METAR KBLI 161053Z AUTO 00000KT 10SM CLR 02/01 A3024 RMK AO2 SLP247 T00220011=
201304160953 METAR KBLI 160953Z AUTO 00000KT 10SM CLR 04/02 A3022 RMK AO2 SLP240 T00390022=
201304160853 METAR KBLI 160853Z AUTO 00000KT 10SM CLR 04/02 A3020 RMK AO2 SLP236 60000 T00390022 51016=
201304160753 METAR KBLI 160753Z AUTO 36005KT 10SM CLR 05/02 A3019 RMK AO2 SLP231 T00500017 401330039=
201304160653 METAR KBLI 160653Z AUTO 03004KT 10SM SCT110 07/02 A3018 RMK AO2 RAB03E13 SLP226 P0000 T00720017=
201304160553 METAR KBLI 160553Z AUTO 01016G21KT 10SM SCT075 BKN090 BKN110 09/00 A3016 RMK AO2 SLP221 60007 T00940000 10100 20050 50014=
201304160453 METAR KBLI 160453Z 02005KT 10SM SCT065 OVC095 07/04 A3017 RMK AO2 SLP225 T00670039=
201304160353 METAR KBLI 160353Z 00000KT 10SM BKN080 OVC090 06/05 A3014 RMK AO2 SLP215 T00610050=
201304160253 METAR KBLI 160253Z 00000KT 10SM CLR 07/05 A3012 RMK AO2 SLP206 60007 T00720050 53006=
201304160153 METAR KBLI 160153Z 11003KT 10SM FEW120 10/03 A3011 RMK AO2 SLP203 T01000033=
201304160053 METAR KBLI 160053Z 00000KT 10SM FEW060 SCT070 BKN120 08/06 A3009 RMK AO2 TSE33RAE29 SLP198 TS DSNT SE MOV S P0007 T00830061=
201304160039 SPECI KBLI 160039Z 00000KT 10SM SCT046 BKN070 OVC080 08/06 A3009 RMK AO2 TSE33RAE29 TS DSNT SE MOV S P0007=
201304152353 METAR KBLI 152353Z 02010KT 7SM -TSRA BKN035 OVC045 08/03 A3010 RMK AO2 RAB08 SLP200 OCNL LTGCG TS NE MOV S P0002 60002 T00830033 10133 20083 53014=
201304152253 METAR KBLI 152253Z 32008KT 10SM TS BKN034 BKN045 12/04 A3007 RMK AO2 TSB40B51 SLP189 TS NE MOV S T01220039=
201304152246 SPECI KBLI 152246Z 31008KT 10SM TS SCT034 13/04 A3006 RMK AO2 TSB40 TS NE MOV S=
201304152153 METAR KBLI 152153Z 28009KT 10SM CLR 12/04 A3006 RMK AO2 SLP188 T01170039=
201304152053 METAR KBLI 152053Z 27007KT 10SM FEW028 BKN037 BKN045 11/04 A3006 RMK AO2 SLP186 T01110044 51005=
201304151953 METAR KBLI 151953Z 00000KT 10SM BKN034 11/04 A3005 RMK AO2 SLP184 T01110039=
201304151853 METAR KBLI 151853Z 03004KT 10SM SCT025 BKN033 09/04 A3005 RMK AO2 SLP184 T00940039=
201304151839 SPECI KBLI 151839Z VRB04KT 10SM BKN023 09/04 A3005 RMK AO2=
201304151753 METAR KBLI 151753Z 36004KT 10SM FEW016 09/04 A3004 RMK AO2 SLP181 60001 T00890044 10089 20039 51011=
201304151653 METAR KBLI 151653Z 34003KT 10SM SCT012 SCT039 08/04 A3003 RMK AO2 SLP178 T00780039=
201304151553 METAR KBLI 151553Z 01006KT 10SM OVC043 06/04 A3003 RMK AO2 SLP175 T00610039=
201304151453 METAR KBLI 151453Z 01003KT 10SM FEW065 05/04 A3001 RMK AO2 SLP170 60001 T00500039 53013=
201304151353 METAR KBLI 151353Z 00000KT 5SM BR OVC090 04/03 A2999 RMK AO2 SLP163 T00390033 $=
201304151253 METAR KBLI 151253Z AUTO 02003KT 9SM SCT044 OVC055 04/04 A2997 RMK AO2 SLP158 P0001 T00440039 $=
201304151153 METAR KBLI 151153Z AUTO 00000KT 7SM OVC032 04/04 A2997 RMK AO2 SLP156 P0004 60004 70004 T00440039 10067 20044 53010 $=
201304151053 METAR KBLI 151053Z AUTO 02007KT 10SM OVC040 05/03 A2996 RMK AO2 SLP152 T00500033 $=
201304150953 METAR KBLI 150953Z AUTO 00000KT 10SM BKN080 OVC100 05/03 A2995 RMK AO2 SLP149 T00500033 $=
201304150853 METAR KBLI 150853Z AUTO 00000KT 10SM SCT060 OVC075 06/03 A2994 RMK AO2 SLP146 T00560033 52002 $=
201304150753 METAR KBLI 150753Z AUTO 00000KT 10SM OVC050 06/03 A2994 RMK AO2 SLP145 T00610033 401110039 $=
201304150653 METAR KBLI 150653Z AUTO 15003KT 10SM FEW055 OVC085 07/03 A2993 RMK AO2 SLP145 T00670028 $=
201304150553 METAR KBLI 150553Z AUTO 00000KT 10SM OVC070 05/04 A2993 RMK AO2 SLP145 T00500039 10106 20044 50003 $=
201304150453 METAR KBLI 150453Z 00000KT 10SM CLR 04/03 A2994 RMK AO2 SLP147 T00440028 $=
201304150353 METAR KBLI 150353Z 00000KT 10SM CLR 06/03 A2993 RMK AO2 SLP143 T00560028 $=
201304150253 METAR KBLI 150253Z 00000KT 10SM CLR 08/03 A2992 RMK AO2 SLP141 T00830033 56003 $=
201304150153 METAR KBLI 150153Z VRB03KT 10SM CLR 09/03 A2993 RMK AO2 SLP142 T00940028 $=
201304150053 METAR KBLI 150053Z 26004KT 10SM CLR 10/01 A2993 RMK AO2 SLP142 T01000006 $=
201304142353 METAR KBLI 142353Z 26006KT 10SM CLR 11/02 A2993 RMK AO2 SLP143 T01060022 10111 20067 56015 $=
201304142253 METAR KBLI 142253Z 28005KT 10SM SCT033 11/02 A2994 RMK AO2 SLP147 T01060022 $=
201304142153 METAR KBLI 142153Z VRB06KT 10SM FEW028 SCT037 BKN044 09/03 A2996 RMK AO2 SLP154 T00940028 $=
201304142144 SPECI KBLI 142144Z VRB04KT 10SM FEW028 BKN036 BKN065 09/03 A2997 RMK AO2 $=
201304142053 METAR KBLI 142053Z VRB04KT 10SM OVC026 11/04 A2998 RMK AO2 SLP159 T01060044 58008 $=
201304142040 SPECI KBLI 142040Z 00000KT 10SM BKN026 BKN070 10/03 A2998 RMK AO2 $=
201304141953 METAR KBLI 141953Z VRB04KT 10SM OVC060 08/03 A2999 RMK AO2 SLP164 T00780028 $=
201304141853 METAR KBLI 141853Z 16006KT 10SM FEW039 07/03 A3000 RMK AO2 SLP168 T00720033 $=
201304141753 METAR KBLI 141753Z 16008KT 10SM OVC035 06/03 A3000 RMK AO2 SLP168 T00610028 10072 20044 53001 $=
201304141724 SPECI KBLI 141724Z 16007KT 10SM SCT031 OVC035 07/03 A3000 RMK AO2 $=
201304141653 METAR KBLI 141653Z 18007KT 10SM SCT016 BKN029 OVC033 06/03 A3000 RMK AO2 SLP167 T00610028 $=
201304141553 METAR KBLI 141553Z 12005KT 10SM FEW010 SCT017 OVC028 07/04 A2999 RMK AO2 SLP165 T00670039 $=
201304141528 SPECI KBLI 141528Z 13005KT 10SM FEW010 BKN015 OVC027 06/03 A3000 RMK AO2 $=
201304141453 METAR KBLI 141453Z 15004KT 10SM BKN013 OVC018 06/04 A3000 RMK AO2 SLP166 T00560039 51002 $=
201304141353 METAR KBLI 141353Z 00000KT 10SM OVC018 05/04 A2999 RMK AO2 SLP165 T00500039 $=
201304141330 SPECI KBLI 141330Z AUTO 00000KT 10SM SCT013 OVC021 04/04 A2999 RMK AO2 $=
201304141306 SPECI KBLI 141306Z AUTO 00000KT 10SM BKN013 OVC021 04/04 A2999 RMK AO2 $=
201304141253 METAR KBLI 141253Z AUTO 00000KT 10SM BKN017 OVC024 04/03 A2999 RMK AO2 SLP164 T00440033 $=
201304141153 METAR KBLI 141153Z AUTO 00000KT 10SM OVC017 04/04 A2999 RMK AO2 SLP164 60001 70020 T00440039 10050 20022 53000 $=
201304141144 SPECI KBLI 141144Z AUTO 00000KT 10SM BKN018 OVC031 04/04 A2999 RMK AO2 $=
201304141053 METAR KBLI 141053Z AUTO 00000KT 10SM FEW030 BKN041 OVC060 04/04 A2999 RMK AO2 SLP163 P0001 T00440039 $=
201304141007 SPECI KBLI 141007Z AUTO 01004KT 10SM FEW009 BKN060 OVC075 04/03 A2999 RMK AO2=
201304140953 METAR KBLI 140953Z AUTO 36004KT 10SM SCT041 OVC060 04/04 A2999 RMK AO2 SLP164 T00440039=
201304140853 METAR KBLI 140853Z AUTO 00000KT 10SM FEW017 BKN036 OVC060 04/03 A2999 RMK AO2 SLP164 T00440033 53007=
201304140753 METAR KBLI 140753Z AUTO 13003KT 10SM SCT030 BKN040 OVC070 04/03 A2998 RMK AO2 SLP162 T00440033 400890011=
201304140653 METAR KBLI 140653Z AUTO 16003KT 10SM SCT042 OVC070 04/03 A2997 RMK AO2 SLP159 T00390033=
201304140553 METAR KBLI 140553Z AUTO 00000KT 10SM CLR 03/02 A2997 RMK AO2 SLP157 T00280017 10089 20022 51016=
201304140453 METAR KBLI 140453Z 00000KT 10SM CLR 04/02 A2996 RMK AO2 SLP153 T00390022=
201304140353 METAR KBLI 140353Z 00000KT 10SM CLR 05/03 A2994 RMK AO2 SLP149 T00500033=
201304140253 METAR KBLI 140253Z 00000KT 10SM CLR 07/04 A2992 RMK AO2 SLP140 T00720039 53011=
201304140153 METAR KBLI 140153Z VRB04KT 10SM CLR 08/04 A2991 RMK AO2 SLP135 T00780039=
201304140053 METAR KBLI 140053Z 17005KT 10SM SCT080 08/04 A2990 RMK AO2 SLP132 T00830044=
201304132353 METAR KBLI 132353Z 18006KT 10SM FEW090 09/04 A2989 RMK AO2 SLP129 60004 T00890039 10089 20017 51005=
201304132253 METAR KBLI 132253Z 15009KT 10SM SCT019 08/04 A2989 RMK AO2 SLP129 T00830039=
201304132153 METAR KBLI 132153Z 16008KT 10SM FEW019 OVC027 08/04 A2988 RMK AO2 RAE13 SLP127 P0000 T00780039=
201304132119 SPECI KBLI 132119Z 16009KT 10SM FEW018 BKN031 07/03 A2987 RMK AO2 RAE13 P0000=
201304132053 METAR KBLI 132053Z 14009KT 7SM -RA BKN018 OVC033 07/04 A2987 RMK AO2 SLP123 P0000 60004 T00720039 53003=
201304131953 METAR KBLI 131953Z 15010KT 7SM -RA OVC012 06/03 A2986 RMK AO2 SLP122 P0000 T00560033=
201304131945 SPECI KBLI 131945Z 15010G19KT 7SM -RA OVC012 05/03 A2986 RMK AO2 P0000=
201304131853 METAR KBLI 131853Z 15007KT 5SM -RA BR BKN015 OVC025 04/03 A2986 RMK AO2 RAB1756FZRAB01E07SNE1756 SLP120 P0004 T00390028 $=
201304131820 SPECI KBLI 131820Z 13009KT 3SM -RA BR SCT008 BKN015 OVC022 03/02 A2986 RMK AO2 RAB1756FZRAB01E07SNE1756 P0003=
201304131814 SPECI KBLI 131814Z 13007KT 2SM -RA BR BKN006 OVC013 03/02 A2986 RMK AO2 RAB1756FZRAB01E07SNE1756 P0002=
201304131800 SPECI KBLI 131800Z 14007KT 2SM -RA BR SCT006 BKN013 02/01 A2986 RMK AO2 RAB1756SNE1756 P0001=
201304131753 METAR KBLI 131753Z 15008KT 1 1/2SM -SN BR SCT006 OVC013 02/01 A2986 RMK AO2 RAE08SNB08 SLP121 P0012 60015 T00170011 10056 20011 53012=
201304131724 SPECI KBLI 131724Z 16010G16KT 1 1/2SM R16/5500VP6000FT -SN BR SCT006 OVC011 01/01 A2986 RMK AO2 RAE08SNB08 P0005=
201304131713 SPECI KBLI 131713Z 16010G19KT 1 1/2SM -SN BR FEW006 BKN016 OVC021 02/01 A2985 RMK AO2 RAE08SNB08 P0004=
201304131711 SPECI KBLI 131711Z 16012G19KT 3SM -SN BR FEW006 SCT011 OVC018 02/01 A2985 RMK AO2 RAE08SNB08 P0003=
201304131659 SPECI KBLI 131659Z 16013G18KT 7SM -RA SCT009 BKN014 OVC021 04/02 A2984 RMK AO2 P0001=
201304131653 METAR KBLI 131653Z 18006KT 10SM -RA FEW014 BKN019 OVC024 04/02 A2984 RMK AO2 SLP113 P0003 T00440022=
201304131553 METAR KBLI 131553Z 17006KT 10SM -RA BKN018 BKN038 OVC049 06/02 A2983 RMK AO2 RAB44 SLP108 P0000 T00560022=
201304131512 SPECI KBLI 131512Z 17006KT 10SM BKN018 BKN050 OVC070 06/02 A2983 RMK AO2=
201304131453 METAR KBLI 131453Z 17007KT 10SM FEW020 OVC070 06/02 A2983 RMK AO2 SLP108 T00560017 51008=
201304131353 METAR KBLI 131353Z 16007KT 10SM OVC095 05/01 A2982 RMK AO2 SLP106 T00500011=
201304131253 METAR KBLI 131253Z AUTO 18005KT 10SM OVC100 04/00 A2982 RMK AO2 SLP106 T00440000=
201304131153 METAR KBLI 131153Z AUTO 19005KT 10SM CLR 04/00 A2980 RMK AO2 SLP101 60000 70036 T00440000 10056 20022 53014=
201304131053 METAR KBLI 131053Z AUTO 20004KT 10SM CLR 04/00 A2978 RMK AO2 SLP093 T00440000=
201304130953 METAR KBLI 130953Z AUTO 22003KT 10SM CLR 02/02 A2976 RMK AO2 SLP087 T00220017=
201304130853 METAR KBLI 130853Z AUTO VRB03KT 10SM OVC095 04/02 A2976 RMK AO2 RAB0754E04 SLP087 P0000 60000 T00440022 51036=
201304130753 METAR KBLI 130753Z AUTO 30009G17KT 10SM FEW018 OVC040 04/02 A2975 RMK AO2 RAB38E49 SLP082 P0000 T00390017 400720039=
201304130653 METAR KBLI 130653Z AUTO VRB04KT 10SM CLR 05/01 A2968 RMK AO2 SLP058 T00500011=
201304130553 METAR KBLI 130553Z AUTO 19007KT 160V220 10SM FEW012 SCT022 BKN065 06/05 A2965 RMK AO2 PK WND 16027/0511 RAE35 SLP050 P0003 60009 T00560050 10067 20056 55007=
201304130542 SPECI KBLI 130542Z AUTO 18008G18KT 140V210 10SM SCT009 BKN015 OVC065 06/05 A2966 RMK AO2 PK WND 16027/0511 RAE35 P0003=
201304130532 SPECI KBLI 130532Z AUTO 19009G24KT 10SM -RA BKN011 BKN016 OVC022 06/05 A2965 RMK AO2 PK WND 16027/0511 P0003=
201304130453 METAR KBLI 130453Z 17012G27KT 10SM -RA BKN020 BKN039 OVC047 07/04 A2965 RMK AO2 PK WND 18027/0445 SLP047 P0000 T00670044=
201304130353 METAR KBLI 130353Z 15011G21KT 10SM -RA BKN020 OVC048 07/03 A2964 RMK AO2 PK WND 14026/0338 RAB23 SLP046 P0000 T00670033=
201304130253 METAR KBLI 130253Z 15011KT 10SM BKN022 OVC050 06/04 A2968 RMK AO2 RAE17 SLP057 P0000 60006 T00610039 58036=
201304130153 METAR KBLI 130153Z 13013G18KT 10SM -RA BKN020 BKN033 OVC043 06/04 A2972 RMK AO2 PRESFR SLP071 P0003 T00560039=
201304130134 SPECI KBLI 130134Z 14013KT 9SM -RA BKN020 BKN026 OVC036 06/04 A2974 RMK AO2 P0002=
201304130053 METAR KBLI 130053Z 15012G17KT 7SM -RA FEW014 BKN040 OVC060 06/05 A2975 RMK AO2 SLP085 P0003 T00560050=
201304122353 METAR KBLI 122353Z 15010KT 7SM -RA FEW014 BKN024 OVC060 06/03 A2978 RMK AO2 SLP093 P0002 60027 T00560033 10072 20056 58044=
201304122253 METAR KBLI 122253Z 15010KT 7SM -RA SCT014 SCT021 OVC028 06/04 A2983 RMK AO2 SLP110 P0001 T00610039=
201304122153 METAR KBLI 122153Z 15010KT 10SM -RA FEW012 BKN026 OVC040 06/03 A2987 RMK AO2 SLP125 P0007 T00560033=
201304122053 METAR KBLI 122053Z 18006KT 6SM -RA OVC022 06/03 A2991 RMK AO2 SLP138 P0013 60017 T00610033 56018=
201304122036 SPECI KBLI 122036Z 16007KT 4SM -RA BR BKN017 OVC022 06/04 A2992 RMK AO2 P0011=
201304122023 SPECI KBLI 122023Z 17009G16KT 2SM -RA BR BKN017 OVC022 06/04 A2992 RMK AO2 VIS 1 1/2V3 P0009=
201304121953 METAR KBLI 121953Z 16005KT 4SM -RA BR BKN018 BKN026 OVC033 07/05 A2992 RMK AO2 SLP141 P0004 T00670050=
201304121853 METAR KBLI 121853Z 16006KT 10SM -RA BKN017 OVC022 07/04 A2994 RMK AO2 RAB33 SLP146 P0000 T00670044=
201304121753 METAR KBLI 121753Z 17007KT 10SM SCT012 BKN020 OVC028 07/04 A2997 RMK AO2 SLP155 T00670039 10067 20039 56020=
201304121653 METAR KBLI 121653Z 16007KT 10SM OVC020 07/03 A2997 RMK AO2 SLP158 T00670028=
201304121553 METAR KBLI 121553Z 13004KT 10SM OVC024 07/03 A3001 RMK AO2 SLP170 T00670028=
201304121453 METAR KBLI 121453Z 11004KT 10SM BKN026 BKN034 OVC100 06/03 A3002 RMK AO2 SLP175 T00610028 56025=
201304121353 METAR KBLI 121353Z 18006KT 10SM BKN041 06/03 A3005 RMK AO2 SLP183 T00610028=
201304121253 METAR KBLI 121253Z AUTO 00000KT 10SM FEW047 SCT120 04/02 A3006 RMK AO2 SLP188 T00390022=
201304121153 METAR KBLI 121153Z AUTO 00000KT 10SM CLR 05/02 A3010 RMK AO2 SLP200 T00500022 10072 20044 58022=
201304121053 METAR KBLI 121053Z AUTO 15003KT 10SM BKN047 06/02 A3012 RMK AO2 SLP209 T00610017=
201304120953 METAR KBLI 120953Z AUTO 15005KT 10SM BKN049 06/01 A3015 RMK AO2 SLP216 T00560011=
201304120853 METAR KBLI 120853Z AUTO 15004KT 10SM CLR 05/01 A3016 RMK AO2 SLP222 T00500011 56010=
201304120753 METAR KBLI 120753Z AUTO 15004KT 10SM CLR 06/02 A3016 RMK AO2 SLP222 T00560017 401220056=
201304120653 METAR KBLI 120653Z AUTO 14003KT 10SM CLR 06/02 A3017 RMK AO2 SLP226 T00610017=
201304120553 METAR KBLI 120553Z AUTO 14005KT 10SM CLR 07/02 A3019 RMK AO2 SLP232 T00670022 10122 20067 58003=
201304120453 METAR KBLI 120453Z 16006KT 10SM CLR 08/03 A3020 RMK AO2 SLP236 T00780028=
201304120353 METAR KBLI 120353Z 19004KT 10SM CLR 09/03 A3021 RMK AO2 SLP237 T00890028=
201304120253 METAR KBLI 120253Z 18005KT 10SM CLR 09/02 A3020 RMK AO2 SLP236 T00940022 58012=
201304120153 METAR KBLI 120153Z VRB04KT 10SM CLR 11/00 A3022 RMK AO2 SLP241 T01060000=
201304120053 METAR KBLI 120053Z VRB03KT 10SM CLR 12/M01 A3023 RMK AO2 SLP243 T01171006=
201304112353 METAR KBLI 112353Z 29003KT 10SM CLR 12/00 A3024 RMK AO2 SLP247 T01220000 10122 20089 58007=
201304112253 METAR KBLI 112253Z 19005KT 10SM CLR 12/M01 A3026 RMK AO2 SLP254 T01171011=
201304112153 METAR KBLI 112153Z 28007KT 250V330 10SM CLR 11/M01 A3026 RMK AO2 SLP254 T01111011=
201304112053 METAR KBLI 112053Z 00000KT 10SM FEW039 11/01 A3026 RMK AO2 SLP254 T01110011 58008=
201304111953 METAR KBLI 111953Z VRB05KT 10SM OVC060 10/01 A3028 RMK AO2 SLP261 T01000011=
201304111901 SPECI KBLI 111901Z 24007KT 10SM SCT031 OVC065 09/02 A3029 RMK AO2=
201304111853 METAR KBLI 111853Z 27006KT 10SM BKN029 OVC065 10/02 A3029 RMK AO2 SLP264 T01000022=
201304111842 SPECI KBLI 111842Z 27003KT 10SM SCT029 BKN035 OVC065 09/03 A3029 RMK AO2=
201304111835 SPECI KBLI 111835Z VRB05KT 10SM BKN029 OVC065 09/02 A3029 RMK AO2=
201304111753 METAR KBLI 111753Z 25004KT 10SM BKN030 OVC060 09/02 A3028 RMK AO2 SLP263 T00890022 10094 20078 53010=
201304111653 METAR KBLI 111653Z 16005KT 10SM FEW045 SCT055 OVC065 08/04 A3026 RMK AO2 SLP257 T00830039=
201304111553 METAR KBLI 111553Z 16007KT 10SM OVC041 08/04 A3026 RMK AO2 SLP255 T00830044=
201304111453 METAR KBLI 111453Z 16005KT 10SM OVC039 08/04 A3025 RMK AO2 SLP253 T00780039 53007=
201304111353 METAR KBLI 111353Z 18003KT 10SM FEW037 OVC050 08/03 A3024 RMK AO2 SLP248 T00780033=
201304111253 METAR KBLI 111253Z AUTO 00000KT 10SM BKN033 OVC048 08/03 A3024 RMK AO2 SLP247 T00780033=
201304111218 SPECI KBLI 111218Z AUTO 17004KT 10SM OVC031 08/04 A3024 RMK AO2=
201304111153 METAR KBLI 111153Z AUTO 17006KT 10SM BKN029 OVC037 08/04 A3023 RMK AO2 SLP246 60000 70033 T00780044 10089 20078 53005=
201304111053 METAR KBLI 111053Z AUTO 16007KT 10SM OVC050 08/04 A3022 RMK AO2 SLP240 T00830044=
201304110953 METAR KBLI 110953Z AUTO 17008KT 10SM BKN055 OVC070 08/05 A3022 RMK AO2 SLP240 T00830050=
201304110853 METAR KBLI 110853Z AUTO 16005KT 10SM BKN046 OVC060 08/05 A3022 RMK AO2 RAE0758 SLP240 P0000 60000 T00830050 51008=
201304110753 METAR KBLI 110753Z AUTO 17003KT 10SM -RA OVC042 09/05 A3022 RMK AO2 RAB46 SLP239 P0000 T00890050 401280089=
201304110653 METAR KBLI 110653Z AUTO 17004KT 10SM BKN040 OVC047 09/05 A3020 RMK AO2 SLP235 T00890050=
201304110553 METAR KBLI 110553Z AUTO 17005KT 10SM OVC043 09/05 A3019 RMK AO2 RAB31E53 SLP233 P0000 60001 T00890050 10111 20089 51015=
201304110453 METAR KBLI 110453Z 16007KT 10SM BKN039 OVC055 09/06 A3018 RMK AO2 RAB33E47 SLP227 P0000 T00890056=
201304110353 METAR KBLI 110353Z 16008KT 10SM OVC039 09/06 A3017 RMK AO2 SLP223 T00940056=
201304110253 METAR KBLI 110253Z 15009KT 10SM FEW048 OVC080 10/06 A3015 RMK AO2 SLP216 60001 T01000061 51010=
201304110153 METAR KBLI 110153Z 17006KT 10SM BKN046 BKN055 OVC070 10/07 A3014 RMK AO2 SLP214 T01000067=
201304110053 METAR KBLI 110053Z 16004KT 10SM BKN031 OVC038 11/07 A3014 RMK AO2 RAB10E47 SLP214 P0001 T01060067=
201304110027 SPECI KBLI 110027Z 16006KT 8SM -RA SCT027 OVC036 11/07 A3014 RMK AO2 RAB10 P0001=
201304110013 SPECI KBLI 110013Z 16005KT 10SM -RA BKN029 OVC034 11/07 A3013 RMK AO2 RAB10 P0000=
201304102353 METAR KBLI 102353Z 17005KT 10SM OVC030 11/07 A3012 RMK AO2 SLP206 CIG LWR N 60004 T01110067 10128 20094 51026=
201304102336 SPECI KBLI 102336Z 16009KT 10SM SCT021 BKN032 OVC075 11/07 A3011 RMK AO2=
201304102253 METAR KBLI 102253Z 16008KT 10SM SCT019 BKN028 OVC038 11/07 A3010 RMK AO2 SLP201 T01110072=
201304102153 METAR KBLI 102153Z 21008KT 10SM FEW015 BKN030 BKN036 11/08 A3008 RMK AO2 SLP191 T01110078=
201304102053 METAR KBLI 102053Z 26010G19KT 210V320 10SM BKN060 13/06 A3004 RMK AO2 SLP180 60004 T01280056 53046=
201304102012 SPECI KBLI 102012Z 28012G18KT 230V310 10SM FEW017 SCT022 BKN060 12/07 A3001 RMK AO2=
201304101953 METAR KBLI 101953Z VRB03G14KT 10SM SCT016 BKN023 BKN050 11/08 A3000 RMK AO2 RAE33 SLP165 P0001 T01110083=
201304101943 SPECI KBLI 101943Z VRB05G15KT 10SM BKN018 OVC050 11/08 A2999 RMK AO2 RAE33 P0001=
201304101934 SPECI KBLI 101934Z 26009G16KT 10SM SCT020 OVC050 11/08 A2998 RMK AO2 RAE33 P0001=
201304101905 SPECI KBLI 101905Z 17007KT 9SM -RA BKN025 OVC037 09/08 A2996 RMK AO2 P0001=
201304101853 METAR KBLI 101853Z 18007KT 130V210 6SM -RA BR FEW025 BKN033 OVC040 09/08 A2995 RMK AO2 SLP148 P0003 T00940078=
201304101813 SPECI KBLI 101813Z 18008G16KT 10SM -RA FEW020 SCT025 OVC043 09/07 A2992 RMK AO2 P0000=
201304101753 METAR KBLI 101753Z VRB06G18KT 10SM -RA BKN022 BKN028 OVC065 10/07 A2991 RMK AO2 SLP134 P0002 60028 T01000072 10117 20094 53015=
201304101737 SPECI KBLI 101737Z 17009G19KT 10SM -RA FEW013 BKN020 OVC065 10/07 A2988 RMK AO2 P0001=
201304101720 SPECI KBLI 101720Z 17013G19KT 10SM -RA BKN013 OVC020 10/08 A2988 RMK AO2 P0001=
201304101653 METAR KBLI 101653Z 16013G18KT 9SM -RA SCT008 BKN023 OVC065 10/09 A2987 RMK AO2 SLP122 P0007 T01000089=
201304101553 METAR KBLI 101553Z 17012G19KT 4SM -RA BR BKN010 BKN021 OVC030 10/09 A2989 RMK AO2 PK WND 19028/1503 SLP130 P0012 T01000089=
201304101542 SPECI KBLI 101542Z 17011G19KT 4SM -RA BR BKN010 BKN021 OVC030 10/09 A2989 RMK AO2 PK WND 19028/1503 P0010=
201304101524 SPECI KBLI 101524Z 17014G27KT 3SM -RA BR FEW016 BKN021 OVC046 10/09 A2987 RMK AO2 PK WND 19028/1503 P0007=
201304101453 METAR KBLI 101453Z 16021G28KT 4SM -RA BR FEW022 BKN055 OVC070 11/08 A2986 RMK AO2 PK WND 15029/1428 SLP119 P0006 60007 T01060083 56027=
201304101353 METAR KBLI 101353Z 15017G26KT 8SM -RA FEW026 SCT040 OVC065 11/07 A2987 RMK AO2 PK WND 14033/1331 SLP121 P0001 T01060072=
201304101303 SPECI KBLI 101303Z AUTO 15019G32KT 10SM -RA FEW025 SCT039 OVC065 11/07 A2990 RMK AO2 PK WND 14032/1301 P0000=
201304101253 METAR KBLI 101253Z AUTO 15019G28KT 10SM -RA BKN027 OVC060 11/07 A2991 RMK AO2 PK WND 14033/1225 RAB44 SLP136 P0000 T01110067=
201304101217 SPECI KBLI 101217Z AUTO 15022G31KT 10SM BKN027 OVC070 12/06 A2994 RMK AO2 PK WND 14031/1214=
201304101153 METAR KBLI 101153Z AUTO 14019G33KT 10SM FEW065 OVC080 12/06 A2994 RMK AO2 PK WND 14033/1145 SLP146 60000 T01170056 10122 20111 58042=
201304101053 METAR KBLI 101053Z AUTO 15016G28KT 10SM BKN080 OVC100 12/05 A2999 RMK AO2 PK WND 15028/1044 PRESFR SLP164 T01170050=
201304100953 METAR KBLI 100953Z AUTO 15012G28KT 10SM SCT034 OVC060 12/04 A3003 RMK AO2 PK WND 12028/0945 SLP175 T01170044=
201304100853 METAR KBLI 100853Z AUTO 14014G21KT 10SM FEW038 OVC048 12/04 A3007 RMK AO2 RAB11E23 SLP189 P0000 60000 T01220039 56034=
201304100753 METAR KBLI 100753Z AUTO 14012G21KT 10SM OVC044 12/03 A3010 RMK AO2 SLP199 T01220033 401220044=
201304100653 METAR KBLI 100653Z AUTO 14010G23KT 10SM OVC046 12/03 A3012 RMK AO2 SLP205 T01220028=
201304100553 METAR KBLI 100553Z AUTO 12008KT 10SM OVC044 11/03 A3017 RMK AO2 SLP222 60000 T01110028 10117 20089 58018=
201304100453 METAR KBLI 100453Z 14008G14KT 10SM OVC046 11/03 A3020 RMK AO2 SLP234 T01110033=
201304100353 METAR KBLI 100353Z 02004KT 10SM OVC050 09/07 A3021 RMK AO2 SLP237 T00890072=
201304100253 METAR KBLI 100253Z 01003KT 8SM OVC060 09/07 A3022 RMK AO2 SLP241 60000 T00940072 58021=
201304100208 SPECI KBLI 100208Z 02004KT 8SM FEW009 OVC055 09/08 A3023 RMK AO2=
201304100153 METAR KBLI 100153Z 01005KT 10SM FEW043 OVC055 10/07 A3024 RMK AO2 RAB0056E13 SLP249 P0000 T01000072=
201304100053 METAR KBLI 100053Z 31006KT 10SM BKN048 OVC065 11/06 A3027 RMK AO2 SLP257 T01110061=
201304092353 METAR KBLI 092353Z 00000KT 10SM OVC060 11/06 A3028 RMK AO2 SLP262 60000 T01110061 10117 20094 56010=
201304092253 METAR KBLI 092253Z 00000KT 10SM FEW034 BKN055 OVC070 11/07 A3028 RMK AO2 RAE33 SLP262 P0000 T01110067=
201304092153 METAR KBLI 092153Z 16005KT 10SM -RA OVC065 11/06 A3030 RMK AO2 RAB46 SLP268 P0000 T01110061=
201304092053 METAR KBLI 092053Z 18005KT 10SM FEW037 OVC065 11/05 A3031 RMK AO2 SLP273 T01110050 55005=
201304091953 METAR KBLI 091953Z 17006KT 10SM SCT028 BKN034 OVC100 10/06 A3031 RMK AO2 SLP273 T01000056=
201304091853 METAR KBLI 091853Z 19006KT 10SM OVC075 10/06 A3033 RMK AO2 SLP277 T01000056=
201304091753 METAR KBLI 091753Z 18006KT 10SM OVC080 09/06 A3033 RMK AO2 SLP278 T00940056 10094 20083 53007=
201304091653 METAR KBLI 091653Z 18007KT 10SM BKN095 09/06 A3031 RMK AO2 SLP271 T00940056=
201304091553 METAR KBLI 091553Z 16009KT 10SM SCT021 BKN100 09/05 A3031 RMK AO2 SLP272 T00940050=
201304091506 SPECI KBLI 091506Z 15004KT 10SM SCT021 BKN100 09/06 A3031 RMK AO2=
201304091453 METAR KBLI 091453Z 00000KT 10SM BKN021 09/06 A3031 RMK AO2 SLP271 T00890056 50004=
201304091353 METAR KBLI 091353Z 17006KT 10SM BKN021 OVC110 08/06 A3031 RMK AO2 SLP272 T00830061=
201304091327 SPECI KBLI 091327Z AUTO 17005KT 10SM SCT019 OVC120 08/06 A3030 RMK AO2=
201304091253 METAR KBLI 091253Z AUTO 17009KT 10SM OVC016 08/06 A3029 RMK AO2 SLP265 T00830061=
201304091153 METAR KBLI 091153Z AUTO 17003KT 10SM SCT018 BKN024 BKN030 08/06 A3029 RMK AO2 SLP266 T00830056 10089 20044 53007=
201304091053 METAR KBLI 091053Z AUTO 18005KT 10SM BKN020 OVC026 08/06 A3029 RMK AO2 SLP265 T00830061=
201304091044 SPECI KBLI 091044Z AUTO 19005KT 10SM BKN020 OVC060 08/06 A3029 RMK AO2=
201304090953 METAR KBLI 090953Z AUTO 17005KT 10SM SCT023 BKN060 08/06 A3027 RMK AO2 SLP259 T00830056=
201304090853 METAR KBLI 090853Z AUTO 00000KT 10SM CLR 05/04 A3028 RMK AO2 SLP261 T00500039 53010=
201304090753 METAR KBLI 090753Z AUTO 17003KT 10SM CLR 08/06 A3026 RMK AO2 SLP256 T00780056 401110067=
201304090653 METAR KBLI 090653Z AUTO 16005KT 10SM CLR 08/06 A3025 RMK AO2 SLP250 T00830056=
201304090553 METAR KBLI 090553Z AUTO 17005KT 10SM CLR 08/06 A3025 RMK AO2 SLP251 T00830056 10111 20072 51018=
201304090453 METAR KBLI 090453Z 15005KT 10SM CLR 08/06 A3024 RMK AO2 SLP249 T00830061=
201304090353 METAR KBLI 090353Z 17004KT 10SM CLR 09/07 A3022 RMK AO2 SLP240 T00890067=
201304090253 METAR KBLI 090253Z 16004KT 10SM FEW045 09/06 A3019 RMK AO2 SLP233 T00940061 51012=
201304090153 METAR KBLI 090153Z 17005KT 10SM CLR 11/06 A3018 RMK AO2 SLP229 T01060056=
201304090053 METAR KBLI 090053Z 17006KT 10SM CLR 11/07 A3018 RMK AO2 SLP226 T01110067=
201304082353 METAR KBLI 082353Z 17007KT 10SM CLR 11/07 A3016 RMK AO2 SLP220 T01060067 10111 20078 53002=
201304082253 METAR KBLI 082253Z 17007KT 10SM CLR 11/06 A3015 RMK AO2 SLP219 T01060061=
201304082153 METAR KBLI 082153Z 16008KT 10SM BKN049 10/06 A3015 RMK AO2 SLP219 T01000061=
201304082117 SPECI KBLI 082117Z 17006KT 10SM FEW014 OVC049 09/07 A3015 RMK AO2=
201304082053 METAR KBLI 082053Z 18009G14KT 150V210 10SM FEW010 BKN014 OVC049 09/06 A3015 RMK AO2 SLP219 T00940061 51018=
201304081953 METAR KBLI 081953Z 17006KT 10SM FEW010 OVC014 09/06 A3014 RMK AO2 SLP213 T00890061=
201304081853 METAR KBLI 081853Z 17006KT 10SM OVC010 08/06 A3013 RMK AO2 SLP210 T00780056=
201304081753 METAR KBLI 081753Z 19003KT 10SM OVC010 08/06 A3010 RMK AO2 SLP200 T00780056 10083 20067 53021=
201304081653 METAR KBLI 081653Z 00000KT 10SM OVC011 08/06 A3008 RMK AO2 SLP192 T00830061=
201304081553 METAR KBLI 081553Z 00000KT 10SM OVC013 08/06 A3006 RMK AO2 SLP187 T00780061=
201304081453 METAR KBLI 081453Z 00000KT 10SM OVC011 07/06 A3004 RMK AO2 SLP180 T00720061 51027=
201304081353 METAR KBLI 081353Z 00000KT 10SM OVC011 07/06 A3002 RMK AO2 SLP173 T00720061=
201304081253 METAR KBLI 081253Z AUTO 00000KT 10SM OVC013 07/06 A2999 RMK AO2 SLP164 T00720056=
201304081239 SPECI KBLI 081239Z AUTO 00000KT 10SM OVC013 07/06 A2998 RMK AO2=
201304081153 METAR KBLI 081153Z AUTO 00000KT 10SM FEW011 BKN015 OVC041 07/06 A2996 RMK AO2 SLP152 60000 70035 T00670056 10072 20056 53019=
201304081134 SPECI KBLI 081134Z AUTO 00000KT 10SM BKN011 OVC030 07/06 A2995 RMK AO2=
201304081053 METAR KBLI 081053Z AUTO 00000KT 10SM OVC039 07/06 A2993 RMK AO2 SLP142 T00670056=
201304080953 METAR KBLI 080953Z AUTO 13003KT 10SM BKN034 OVC042 07/06 A2991 RMK AO2 RAE0858 SLP137 P0000 T00720056=
201304080853 METAR KBLI 080853Z AUTO 13004KT 10SM -RA OVC037 07/06 A2990 RMK AO2 RAE24B48 SLP133 P0000 60000 T00670056 51022=
201304080753 METAR KBLI 080753Z AUTO 14003KT 10SM -RA BKN041 OVC060 07/05 A2988 RMK AO2 RAB25 SLP125 P0000 T00670050 400940056=
201304080653 METAR KBLI 080653Z AUTO 16003KT 10SM FEW022 OVC060 07/04 A2986 RMK AO2 SLP118 T00670044=
201304080553 METAR KBLI 080553Z AUTO 16004KT 10SM FEW050 BKN110 06/04 A2983 RMK AO2 SLP111 T00610039 10094 20061 52020=
201304080453 METAR KBLI 080453Z 13004KT 10SM OVC038 07/04 A2982 RMK AO2 SLP105 T00720044=
201304080353 METAR KBLI 080353Z 15005KT 10SM OVC060 08/04 A2979 RMK AO2 SLP097 T00780039=
201304080253 METAR KBLI 080253Z 15010G15KT 10SM BKN047 BKN055 OVC110 08/04 A2978 RMK AO2 SLP091 T00780039 53015=
201304080153 METAR KBLI 080153Z 16007KT 10SM FEW042 OVC070 08/04 A2976 RMK AO2 SLP085 T00830039=
201304080053 METAR KBLI 080053Z 16009G17KT 10SM OVC075 09/05 A2974 RMK AO2 SLP080 T00890050=
201304072353 METAR KBLI 072353Z 17007KT 10SM FEW022 BKN048 BKN100 09/05 A2973 RMK AO2 SLP076 CIG LWR NW-NE 60011 T00940050 10094 20072 53011=
201304072253 METAR KBLI 072253Z 16009KT 10SM FEW022 BKN040 OVC085 09/04 A2972 RMK AO2 SLP071 CIG VSBY LWR NW-NE T00940044=
201304072153 METAR KBLI 072153Z 17007KT 7SM BKN014 BKN040 BKN085 08/06 A2971 RMK AO2 SLP069 T00830061=
201304072053 METAR KBLI 072053Z VRB03KT 7SM BKN012 BKN027 OVC046 08/06 A2970 RMK AO2 RAB1958E50 SLP065 P0001 60011 T00830061 51025=
201304071953 METAR KBLI 071953Z VRB05KT 6SM BR BKN012 BKN020 OVC070 08/07 A2968 RMK AO2 RAE37 SLP057 P0001 T00830067=
201304071905 SPECI KBLI 071905Z 00000KT 6SM -RA BR BKN012 BKN018 OVC026 07/06 A2966 RMK AO2 P0001=
201304071900 SPECI KBLI 071900Z 00000KT 5SM -RA BR SCT013 BKN019 OVC026 07/06 A2966 RMK AO2 P0000=
201304071853 METAR KBLI 071853Z 00000KT 3SM R16/6000VP6000FT -RA BR BKN010 BKN016 OVC026 07/06 A2965 RMK AO2 SLP049 P0009 T00720056=
201304071808 SPECI KBLI 071808Z 00000KT 4SM -RA BR BKN010 BKN016 OVC029 07/06 A2963 RMK AO2 P0001=
201304071758 SPECI KBLI 071758Z 35003KT 5SM -RA BR SCT008 BKN016 OVC029 07/06 A2963 RMK AO2 P0000=
201304071753 METAR KBLI 071753Z 00000KT 5SM -RA BR FEW010 BKN014 OVC029 07/06 A2963 RMK AO2 SLP040 P0004 60024 T00720056 10072 20056 53024=
201304071728 SPECI KBLI 071728Z 32005KT 6SM -RA BR SCT014 BKN019 OVC038 07/06 A2961 RMK AO2 P0002=
201304071714 SPECI KBLI 071714Z 00000KT 6SM -RA BR FEW012 BKN031 OVC038 07/06 A2960 RMK AO2 P0001=
201304071653 METAR KBLI 071653Z 00000KT 7SM -RA BKN024 OVC034 07/05 A2959 RMK AO2 SLP027 P0005 T00670050=
201304071553 METAR KBLI 071553Z 30004KT 5SM -RA BR OVC027 06/05 A2957 RMK AO2 SLP021 P0006 T00610050=
201304071453 METAR KBLI 071453Z 34003KT 4SM -RA BR FEW003 OVC028 06/05 A2956 RMK AO2 SLP016 P0005 60009 T00560050 55015=
201304071435 SPECI KBLI 071435Z VRB05KT 5SM -RA BR OVC028 06/05 A2955 RMK AO2 P0003=
201304071353 METAR KBLI 071353Z 32006KT 8SM -RA OVC032 06/04 A2955 RMK AO2 SLP015 P0002 T00560044=
201304071253 METAR KBLI 071253Z AUTO 35007KT 10SM -RA OVC044 06/04 A2957 RMK AO2 SLP020 P0002 T00560044=
201304071153 METAR KBLI 071153Z AUTO 01006KT 10SM -RA OVC050 06/04 A2960 RMK AO2 SLP031 P0001 60002 70030 T00560044 10067 20056 56032=
201304071053 METAR KBLI 071053Z AUTO 01006KT 10SM -RA OVC044 06/04 A2963 RMK AO2 RAB18 SLP042 P0000 T00560044=
201304070953 METAR KBLI 070953Z AUTO 01006KT 10SM SCT040 OVC075 06/04 A2965 RMK AO2 SLP049 T00560044=
201304070853 METAR KBLI 070853Z AUTO 36006KT 10SM OVC034 06/04 A2970 RMK AO2 RAB0755E52 SLP064 P0001 60001 T00560044 58044=
201304070829 SPECI KBLI 070829Z AUTO 01006KT 8SM -RA OVC030 06/05 A2972 RMK AO2 RAB0755 PRESFR P0001=
201304070810 SPECI KBLI 070810Z AUTO 02006KT 10SM -RA OVC028 06/05 A2974 RMK AO2 RAB0755 P0000=
201304070753 METAR KBLI 070753Z AUTO 02004KT 10SM OVC030 06/05 A2976 RMK AO2 SLP085 T00610050 401280061=
201304070653 METAR KBLI 070653Z AUTO 00000KT 10SM OVC030 06/05 A2980 RMK AO2 SLP099 T00610050=
201304070553 METAR KBLI 070553Z AUTO 09003KT 10SM OVC024 06/06 A2983 RMK AO2 RAE50 SLP108 P0004 60021 T00610056 10111 20061 58010=
201304070521 SPECI KBLI 070521Z 09005KT 7SM -RA BKN026 OVC034 06/05 A2984 RMK AO2 P0003=
201304070453 METAR KBLI 070453Z 12010KT 10SM -RA OVC041 06/05 A2984 RMK AO2 RAE0356B43 SLP114 P0000 T00610050=
201304070353 METAR KBLI 070353Z 11007KT 10SM -RA BKN060 OVC075 07/05 A2985 RMK AO2 RAB00E10B44 SLP117 P0000 T00670050=
201304070253 METAR KBLI 070253Z 10004KT 10SM BKN044 OVC055 07/06 A2986 RMK AO2 RAE53 SLP118 P0013 60017 T00720056 58002=
201304070153 METAR KBLI 070153Z 16008KT 5SM -RA OVC037 08/06 A2987 RMK AO2 SLP122 P0004 T00830056=
201304070053 METAR KBLI 070053Z 18006KT 10SM -RA FEW034 BKN045 OVC055 10/06 A2987 RMK AO2 RAB27 SLP121 P0000 T01000061=
201304062353 METAR KBLI 062353Z 16008KT 10SM SCT050 OVC100 11/05 A2986 RMK AO2 SLP120 T01110050 10128 20094 56003=
201304062253 METAR KBLI 062253Z 16010KT 10SM SCT120 12/04 A2986 RMK AO2 SLP120 T01170039=
201304062153 METAR KBLI 062153Z 17009KT 10SM SCT120 12/05 A2987 RMK AO2 SLP122 T01220050=
201304062053 METAR KBLI 062053Z 17007KT 10SM CLR 11/04 A2987 RMK AO2 SLP123 T01110039 51009=
201304061953 METAR KBLI 061953Z 17007KT 10SM CLR 11/06 A2987 RMK AO2 SLP121 T01060056=
201304061853 METAR KBLI 061853Z 16012KT 10SM FEW120 10/06 A2986 RMK AO2 SLP118 T01000056=
201304061753 METAR KBLI 061753Z 17009KT 10SM FEW029 SCT043 BKN080 09/06 A2985 RMK AO2 SLP113 60007 T00940056 10111 20083 51027=
201304061653 METAR KBLI 061653Z 16011KT 10SM FEW027 BKN065 OVC080 09/07 A2982 RMK AO2 SLP105 T00890067=
201304061553 METAR KBLI 061553Z 19004KT 10SM BKN075 OVC090 09/05 A2979 RMK AO2 SLP096 T00940050=
201304061453 METAR KBLI 061453Z 18005KT 10SM FEW047 BKN060 BKN090 09/05 A2976 RMK AO2 SLP086 60007 T00890050 51022=
201304061353 METAR KBLI 061353Z 20004KT 10SM OVC060 09/04 A2974 RMK AO2 RAE1255B16E43 SLP078 P0001 T00890044=
201304061306 SPECI KBLI 061306Z AUTO VRB06KT 10SM SCT025 OVC040 09/07 A2973 RMK AO2 RAE1255 P0000=
201304061253 METAR KBLI 061253Z AUTO VRB06KT 10SM -RA FEW013 BKN027 OVC038 09/07 A2974 RMK AO2 PK WND 15031/1158 RAB02 SLP076 P0006 T00940072=
201304061153 METAR KBLI 061153Z AUTO 16013G24KT 10SM BKN021 BKN050 11/07 A2970 RMK AO2 PK WND 14035/1114 SLP064 60002 70046 T01110072 10122 20100 53015=
201304061139 SPECI KBLI 061139Z AUTO 16016G29KT 10SM BKN025 BKN055 OVC085 11/07 A2969 RMK AO2 PK WND 14035/1114=
201304061053 METAR KBLI 061053Z AUTO 15020G30KT 10SM SCT035 BKN065 OVC090 12/06 A2965 RMK AO2 PK WND 15031/1007 SLP048 T01220061=
201304060953 METAR KBLI 060953Z AUTO 14013G28KT 10SM BKN041 11/06 A2963 RMK AO2 PK WND 13028/0947 RAE08 SLP040 P0000 T01110061=
201304060853 METAR KBLI 060853Z AUTO 13012G21KT 10SM -RA SCT038 OVC060 10/06 A2965 RMK AO2 SLP049 P0002 60002 T01000061 57026=
201304060753 METAR KBLI 060753Z AUTO 15010KT 10SM -RA BKN060 OVC075 11/06 A2967 RMK AO2 RAB05 SLP055 P0000 T01060056 401440094=
201304060653 METAR KBLI 060653Z AUTO 15015G26KT 10SM FEW030 SCT065 OVC080 11/06 A2971 RMK AO2 PK WND 16028/0610 SLP068 T01060056=
201304060553 METAR KBLI 060553Z AUTO 15017G29KT 10SM FEW030 BKN080 BKN100 11/06 A2973 RMK AO2 PK WND 14031/0528 SLP075 60001 T01110056 10139 20111 58007=
201304060453 METAR KBLI 060453Z 16012G21KT 10SM SCT028 OVC035 12/07 A2976 RMK AO2 PK WND 16026/0406 RAE0359 SLP083 P0000 T01170067=
201304060448 SPECI KBLI 060448Z 16013G18KT 10SM SCT028 OVC035 12/07 A2976 RMK AO2 PK WND 16026/0406 RAE0359 P0000=
201304060433 SPECI KBLI 060433Z 15013G24KT 10SM BKN026 OVC033 12/07 A2975 RMK AO2 PK WND 16026/0406 RAE0359 P0000=
201304060353 METAR KBLI 060353Z 15018G23KT 10SM -RA FEW029 BKN090 OVC110 12/07 A2975 RMK AO2 PK WND 14028/0331 RAB49 SLP082 P0001 T01170072=
201304060253 METAR KBLI 060253Z 15012G22KT 10SM FEW024 OVC070 12/07 A2975 RMK AO2 RAB0158E48 SLP082 P0000 60000 T01170072 58015=
201304060153 METAR KBLI 060153Z 15012G21KT 10SM FEW024 BKN070 OVC085 12/08 A2977 RMK AO2 PK WND 15026/0109 SLP087 T01220078=
201304060053 METAR KBLI 060053Z 14010G19KT 10SM OVC032 13/08 A2979 RMK AO2 SLP094 T01330078=
201304052353 METAR KBLI 052353Z 16010G16KT 10SM FEW028 SCT100 14/08 A2980 RMK AO2 RAB09E21 SLP097 P0000 60000 T01390078 10144 20100 58008=
201304052303 SPECI KBLI 052303Z 16009KT 10SM FEW029 BKN034 OVC046 14/08 A2981 RMK AO2=
201304052253 METAR KBLI 052253Z 17005KT 10SM BKN029 BKN035 OVC042 13/09 A2981 RMK AO2 SLP102 T01330089=
201304052153 METAR KBLI 052153Z 17008KT 10SM OVC041 14/09 A2982 RMK AO2 SLP103 T01390089=
201304052117 SPECI KBLI 052117Z 17007KT 10SM FEW025 BKN037 OVC070 13/09 A2981 RMK AO2=
201304052053 METAR KBLI 052053Z 18004KT 10SM BKN024 OVC033 13/09 A2982 RMK AO2 SLP105 60000 T01280094 51004=
201304052034 SPECI KBLI 052034Z 18007KT 10SM BKN024 BKN036 OVC070 13/09 A2982 RMK AO2=
201304051953 METAR KBLI 051953Z 18008KT 10SM SCT020 BKN060 OVC075 12/11 A2981 RMK AO2 RAB12E47 SLP103 P0000 T01170106=
201304051945 SPECI KBLI 051945Z 18009KT 10SM -RA SCT018 BKN060 OVC070 11/10 A2981 RMK AO2 RAB12 P0000=
201304051907 SPECI KBLI 051907Z 16008KT 10SM SCT012 SCT017 OVC026 11/09 A2982 RMK AO2=
201304051853 METAR KBLI 051853Z VRB06KT 10SM BKN012 OVC024 11/09 A2982 RMK AO2 SLP103 T01060094=
201304051753 METAR KBLI 051753Z 18005KT 10SM FEW005 BKN013 OVC017 10/09 A2981 RMK AO2 RAB04E51 SLP100 P0001 60043 T01000094 10100 20094 51017=
201304051736 SPECI KBLI 051736Z 17008KT 10SM -RA FEW009 OVC017 10/09 A2981 RMK AO2 RAB04 P0001=
201304051716 SPECI KBLI 051716Z 17008KT 10SM -RA BKN017 BKN028 OVC049 10/09 A2980 RMK AO2 RAB04 P0000=
201304051653 METAR KBLI 051653Z 17006KT 10SM FEW029 SCT041 OVC049 09/08 A2980 RMK AO2 RAE19 SLP097 P0000 T00940083=
201304051553 METAR KBLI 051553Z 17007KT 10SM -RA BKN031 OVC045 09/08 A2979 RMK AO2 RAE06B53 SLP093 P0001 T00940083=
201304051453 METAR KBLI 051453Z 14006KT 6SM -RA BR FEW019 OVC048 09/08 A2976 RMK AO2 SLP083 P0011 60041 T00940083 51023=
201304051420 SPECI KBLI 051420Z 16007KT 5SM -RA BR FEW019 OVC048 09/08 A2975 RMK AO2 P0005=
201304051409 SPECI KBLI 051409Z 16007KT 7SM -RA BKN019 OVC048 09/09 A2975 RMK AO2 P0003=
201304051400 SPECI KBLI 051400Z 17007KT 6SM -RA BR FEW019 OVC048 10/09 A2974 RMK AO2 P0002=
201304051353 METAR KBLI 051353Z 17007KT 6SM -RA BR FEW013 BKN021 OVC048 10/09 A2974 RMK AO2 SLP078 P0010 T01000089=
201304051341 SPECI KBLI 051341Z AUTO 17007KT 6SM -RA BR FEW013 SCT021 OVC046 09/09 A2973 RMK AO2 P0008=
201304051332 SPECI KBLI 051332Z AUTO 17007KT 6SM -RA BR FEW008 BKN013 OVC044 09/09 A2973 RMK AO2 P0007=
201304051253 METAR KBLI 051253Z AUTO 17011G16KT 6SM -RA BR SCT008 OVC015 10/09 A2972 RMK AO2 SLP069 P0020 T01000089=
201304051247 SPECI KBLI 051247Z AUTO 17011G17KT 6SM -RA BR SCT008 OVC015 10/09 A2971 RMK AO2 P0019=
201304051240 SPECI KBLI 051240Z AUTO 17009G15KT 5SM -RA BR BKN008 BKN013 OVC017 10/09 A2971 RMK AO2 CIG 005V011 P0018=
201304051231 SPECI KBLI 051231Z AUTO 22010G21KT 5SM RA BR SCT008 BKN013 OVC024 10/09 A2971 RMK AO2 P0016=
201304051224 SPECI KBLI 051224Z AUTO 16014G21KT 4SM RA BR BKN008 BKN013 OVC024 10/09 A2971 RMK AO2 P0014=
201304051153 METAR KBLI 051153Z AUTO 15015G21KT 6SM -RA BR OVC020 10/08 A2969 RMK AO2 SLP060 P0010 60010 70036 T01000083 10133 20100 53015=
201304051053 METAR KBLI 051053Z AUTO 16012G23KT 10SM -RA OVC024 11/08 A2966 RMK AO2 PK WND 16028/1007 RAB27 SLP052 P0000 T01110083=
201304050953 METAR KBLI 050953Z AUTO 17017G31KT 10SM OVC026 12/08 A2965 RMK AO2 PK WND 16031/0953 SLP047 T01220083=
201304050853 METAR KBLI 050853Z AUTO 16017G27KT 10SM OVC022 13/09 A2964 RMK AO2 PK WND 14033/0812 SLP045 T01280089 51006=
201304050753 METAR KBLI 050753Z AUTO 17011G19KT 10SM OVC022 12/09 A2964 RMK AO2 PK WND 17027/0733 SLP044 T01220089 401390078=
201304050653 METAR KBLI 050653Z AUTO 17016G25KT 10SM OVC023 13/09 A2964 RMK AO2 PK WND 16032/0617 SLP044 T01280089=
201304050553 METAR KBLI 050553Z AUTO 16017G27KT 10SM BKN027 OVC031 13/09 A2963 RMK AO2 PK WND 17029/0529 SLP039 60008 T01330089 10139 20111 51021=
201304050453 METAR KBLI 050453Z 15019G28KT 10SM BKN023 OVC085 13/09 A2962 RMK AO2 PK WND 15034/0410 SLP036 T01330094=
201304050353 METAR KBLI 050353Z 15019G31KT 7SM OVC021 13/10 A2960 RMK AO2 PK WND 15037/0314 RAE46 SLP030 P0001 T01330100=
201304050253 METAR KBLI 050253Z 15021G35KT 6SM -RA FEW003 OVC026 14/10 A2957 RMK AO2 PK WND 13038/0243 SLP018 P0001 60007 T01390100 58021=
201304050200 SPECI KBLI 050200Z 07005KT 7SM -RA SCT003 OVC026 12/11 A2959 RMK AO2 P0001=
201304050153 METAR KBLI 050153Z 06004KT 5SM -RA BR OVC026 12/11 A2959 RMK AO2 SLP027 P0002 T01170111=
201304050134 SPECI KBLI 050134Z 03005KT 5SM -RA BR BKN028 BKN060 OVC080 12/11 A2959 RMK AO2 P0002=
201304050100 SPECI KBLI 050100Z 02003KT 4SM -RA BR FEW033 BKN060 OVC075 12/11 A2960 RMK AO2 P0001=
201304050053 METAR KBLI 050053Z 02003KT 4SM -RA BR SCT003 BKN028 OVC060 12/11 A2961 RMK AO2 SLP033 CIG VIS LWR N P0004 T01170111=
201304050035 SPECI KBLI 050035Z 00000KT 3SM -RA BR SCT003 BKN028 OVC060 12/11 A2961 RMK AO2 CIG VIS LWR N P0004=
201304050006 SPECI KBLI 050006Z 00000KT 4SM -RA BR SCT003 BKN030 OVC060 11/11 A2963 RMK AO2 CIG VIS LWR N P0001=
201304042353 METAR KBLI 042353Z 00000KT 5SM -RA BR FEW032 BKN055 OVC075 12/11 A2963 RMK AO2 SLP039 P0005 60018 T01170106 10122 20111 56018=
201304042311 SPECI KBLI 042311Z 00000KT 4SM -RA BR FEW007 BKN032 OVC050 12/10 A2964 RMK AO2 P0002=
201304042253 METAR KBLI 042253Z 00000KT 6SM -RA BR SCT032 OVC046 12/11 A2964 RMK AO2 SLP044 P0003 T01170106=
201304042153 METAR KBLI 042153Z 02004KT 7SM -RA BKN042 OVC049 11/10 A2965 RMK AO2 SLP048 P0005 T01110100=
201304042053 METAR KBLI 042053Z 03006KT 7SM -RA SCT041 OVC070 12/09 A2968 RMK AO2 SLP057 P0002 60005 T01170094 56022=
201304041953 METAR KBLI 041953Z 00000KT 8SM -RA OVC070 12/09 A2970 RMK AO2 SLP065 P0002 T01220094=
201304041853 METAR KBLI 041853Z 04003KT 9SM -RA OVC065 12/08 A2972 RMK AO2 SLP071 P0001 T01170083=
201304041753 METAR KBLI 041753Z 01003KT 10SM -RA OVC070 12/07 A2975 RMK AO2 RAB16 SLP079 P0000 60000 T01170072 10117 20078 56018=
201304041653 METAR KBLI 041653Z 00000KT 9SM BKN070 OVC080 11/08 A2976 RMK AO2 SLP085 T01110078=
201304041553 METAR KBLI 041553Z 00000KT 6SM BR FEW055 BKN080 OVC095 10/08 A2978 RMK AO2 SLP090 T01000083=
201304041453 METAR KBLI 041453Z 13003KT 5SM BR OVC095 09/08 A2980 RMK AO2 SLP098 T00940078 56019=
201304041353 METAR KBLI 041353Z AUTO 00000KT 9SM FEW120 08/07 A2982 RMK AO2 SLP103 T00780067=
201304041253 METAR KBLI 041253Z AUTO 00000KT 8SM SCT110 08/07 A2983 RMK AO2 SLP109 T00830067=
201304041153 METAR KBLI 041153Z AUTO 00000KT 8SM OVC110 08/07 A2985 RMK AO2 SLP116 T00830067 10094 20078 58026=
201304041053 METAR KBLI 041053Z AUTO 00000KT 8SM BKN120 09/07 A2988 RMK AO2 SLP126 T00890072=
201304040953 METAR KBLI 040953Z AUTO 00000KT 7SM OVC100 08/07 A2991 RMK AO2 SLP134 T00830072=
201304040853 METAR KBLI 040853Z AUTO 00000KT 9SM FEW110 09/07 A2993 RMK AO2 SLP143 T00890072 58018=
201304040753 METAR KBLI 040753Z AUTO 00000KT 9SM CLR 08/07 A2995 RMK AO2 SLP150 T00830072 401560078=
201304040653 METAR KBLI 040653Z AUTO 00000KT 10SM CLR 09/07 A2997 RMK AO2 SLP157 T00890067=
201304040553 METAR KBLI 040553Z AUTO 00000KT 10SM CLR 09/07 A2998 RMK AO2 SLP161 T00890067 10150 20078 58014=
201304040453 METAR KBLI 040453Z 00000KT 10SM CLR 08/06 A3001 RMK AO2 SLP169 T00830056=
201304040353 METAR KBLI 040353Z 00000KT 10SM CLR 09/07 A3002 RMK AO2 SLP173 T00940067=
201304040253 METAR KBLI 040253Z 00000KT 10SM CLR 11/07 A3003 RMK AO2 SLP174 T01110067 58017=
201304040153 METAR KBLI 040153Z 00000KT 10SM CLR 12/07 A3004 RMK AO2 SLP180 T01220067=
201304040053 METAR KBLI 040053Z VRB06KT 10SM CLR 13/07 A3007 RMK AO2 SLP189 T01330067=
201304032353 METAR KBLI 032353Z 28006KT 10SM CLR 14/07 A3008 RMK AO2 SLP192 T01390072 10156 20117 56017=
201304032253 METAR KBLI 032253Z 25005KT 10SM CLR 14/07 A3009 RMK AO2 SLP197 T01440072=
201304032153 METAR KBLI 032153Z 31006KT 10SM CLR 15/08 A3011 RMK AO2 SLP203 T01500078=
201304032053 METAR KBLI 032053Z VRB05KT 10SM FEW023 OVC048 14/08 A3013 RMK AO2 SLP209 T01390083 58005=
201304031953 METAR KBLI 031953Z 27005KT 10SM FEW018 OVC050 14/09 A3013 RMK AO2 SLP211 T01390089=
201304031936 SPECI KBLI 031936Z VRB03KT 10SM FEW018 SCT024 OVC050 13/08 A3014 RMK AO2=
201304031853 METAR KBLI 031853Z 29003KT 10SM BKN020 BKN026 13/09 A3014 RMK AO2 SLP214 T01330089=
201304031811 SPECI KBLI 031811Z 00000KT 7SM SCT010 OVC050 12/09 A3015 RMK AO2=
201304031753 METAR KBLI 031753Z VRB03KT 6SM HZ OVC010 12/09 A3014 RMK AO2 SLP215 T01170089 10117 20089 58012=
201304031700 SPECI KBLI 031700Z 00000KT 7SM BKN008 OVC050 11/09 A3016 RMK AO2 CIG 006V010=
201304031653 METAR KBLI 031653Z 00000KT 7SM SCT006 OVC020 11/09 A3016 RMK AO2 SLP220 T01060089=
201304031553 METAR KBLI 031553Z 00000KT 9SM SCT004 BKN020 OVC055 09/08 A3017 RMK AO2 SLP223 T00940083=
201304031535 SPECI KBLI 031535Z 00000KT 9SM SCT004 BKN020 OVC055 09/08 A3017 RMK AO2=
201304031514 SPECI KBLI 031514Z 00000KT 8SM SCT020 OVC050 09/08 A3018 RMK AO2=
201304031500 SPECI KBLI 031500Z 00000KT 7SM BKN020 OVC055 09/08 A3018 RMK AO2=
201304031453 METAR KBLI 031453Z 00000KT 8SM SCT022 OVC030 09/08 A3018 RMK AO2 SLP226 T00890083 53002=
201304031353 METAR KBLI 031353Z AUTO 00000KT 10SM SCT022 OVC032 09/08 A3017 RMK AO2 SLP224 T00890078=
201304031253 METAR KBLI 031253Z AUTO 00000KT 3SM BR BKN029 BKN035 OVC043 09/08 A3017 RMK AO2 SLP225 T00890083=
201304031207 SPECI KBLI 031207Z AUTO 00000KT 6SM BR SCT018 BKN026 OVC034 09/08 A3017 RMK AO2=
201304031153 METAR KBLI 031153Z AUTO 00000KT 5SM BR SCT018 SCT026 OVC034 09/08 A3017 RMK AO2 SLP224 60002 70002 T00890078 10100 20083 58005=
201304031053 METAR KBLI 031053Z AUTO 00000KT 7SM OVC018 09/08 A3018 RMK AO2 RAE21 SLP227 P0000 T00890078=
201304030953 METAR KBLI 030953Z AUTO 00000KT 4SM -RA BR OVC018 09/08 A3018 RMK AO2 RAB13 SLP228 P0002 T00890078=
201304030853 METAR KBLI 030853Z AUTO 00000KT 10SM OVC020 09/08 A3019 RMK AO2 SLP229 60000 T00890078 56001=
201304030753 METAR KBLI 030753Z AUTO 00000KT 10SM OVC022 09/08 A3019 RMK AO2 RAB24E40 SLP230 P0000 T00940078 401280089=
201304030716 SPECI KBLI 030716Z AUTO 00000KT 10SM BKN024 BKN028 OVC036 09/07 A3019 RMK AO2=
201304030653 METAR KBLI 030653Z AUTO 00000KT 10SM SCT022 OVC039 09/06 A3019 RMK AO2 SLP229 T00940061=
201304030553 METAR KBLI 030553Z AUTO 00000KT 10SM OVC047 09/07 A3019 RMK AO2 SLP231 T00940067 10122 20094 53009=
201304030453 METAR KBLI 030453Z 00000KT 10SM FEW045 OVC100 10/07 A3018 RMK AO2 SLP227 T01000067=
201304030353 METAR KBLI 030353Z 00000KT 10SM SCT049 OVC100 11/07 A3018 RMK AO2 SLP225 T01060067=
201304030253 METAR KBLI 030253Z 18003KT 10SM OVC100 11/07 A3016 RMK AO2 SLP222 T01110067 56005=
201304030153 METAR KBLI 030153Z 17005KT 10SM BKN048 OVC095 12/07 A3017 RMK AO2 SLP223 T01170067=
201304030053 METAR KBLI 030053Z 16005KT 10SM OVC095 12/06 A3018 RMK AO2 SLP225 T01170061=
201304022353 METAR KBLI 022353Z 17006KT 10SM BKN085 12/06 A3018 RMK AO2 SLP227 T01170056 10128 20100 57003=
201304022253 METAR KBLI 022253Z 17007KT 10SM OVC039 12/06 A3019 RMK AO2 SLP229 T01220056=
201304022153 METAR KBLI 022153Z 19008G15KT 10SM BKN037 12/06 A3018 RMK AO2 SLP228 T01220056=
201304022053 METAR KBLI 022053Z 19009G15KT 10SM SCT035 BKN042 11/06 A3019 RMK AO2 SLP230 T01110061 55001=
201304022022 SPECI KBLI 022022Z 20008KT 10SM BKN030 OVC038 11/06 A3019 RMK AO2=
201304021953 METAR KBLI 021953Z 17007KT 10SM OVC027 11/06 A3019 RMK AO2 SLP229 T01060061=
201304021853 METAR KBLI 021853Z VRB04KT 10SM OVC017 10/06 A3020 RMK AO2 SLP232 T01000056=
201304021753 METAR KBLI 021753Z 17007KT 10SM OVC020 10/06 A3019 RMK AO2 SLP231 T01000061 10106 20094 53005=
201304021653 METAR KBLI 021653Z 18005KT 10SM BKN022 OVC027 10/07 A3019 RMK AO2 SLP229 T01000067=
201304021553 METAR KBLI 021553Z 15006KT 10SM OVC024 09/07 A3018 RMK AO2 SLP227 T00940067=
201304021500 SPECI KBLI 021500Z 16004KT 10SM FEW013 BKN028 OVC035 09/07 A3018 RMK AO2=
201304021453 METAR KBLI 021453Z 16007KT 10SM SCT017 OVC031 09/07 A3018 RMK AO2 SLP226 T00940072 53002=
201304021423 SPECI KBLI 021423Z 17009KT 10SM SCT017 OVC031 09/06 A3018 RMK AO2=
201304021353 METAR KBLI 021353Z 16007KT 10SM SCT017 OVC025 09/07 A3017 RMK AO2 SLP223 T00940067=
201304021311 SPECI KBLI 021311Z AUTO 16009KT 10SM BKN023 BKN030 09/07 A3017 RMK AO2=
201304021300 SPECI KBLI 021300Z AUTO 16009KT 10SM SCT023 BKN030 09/07 A3017 RMK AO2=
201304021253 METAR KBLI 021253Z AUTO 16009KT 10SM BKN023 BKN030 09/07 A3017 RMK AO2 SLP222 T00940067=
201304021153 METAR KBLI 021153Z AUTO 15009KT 10SM OVC017 10/07 A3017 RMK AO2 SLP224 T01000067 10106 20100 53004=
201304021053 METAR KBLI 021053Z AUTO 14009KT 10SM OVC021 10/07 A3017 RMK AO2 SLP222 T01000072=
201304020953 METAR KBLI 020953Z AUTO 15009KT 10SM OVC023 10/07 A3016 RMK AO2 SLP221 T01000072=
201304020853 METAR KBLI 020853Z AUTO 16005KT 10SM OVC021 11/07 A3016 RMK AO2 SLP220 T01060072 53016=
201304020753 METAR KBLI 020753Z AUTO 16007KT 10SM OVC021 11/07 A3014 RMK AO2 SLP214 T01060072 401330039=
201304020719 SPECI KBLI 020719Z AUTO 16007KT 10SM BKN021 11/07 A3013 RMK AO2=
201304020653 METAR KBLI 020653Z AUTO 16007KT 10SM CLR 10/07 A3012 RMK AO2 SLP206 T01000072=
201304020553 METAR KBLI 020553Z 16007KT 10SM CLR 11/08 A3011 RMK AO2 SLP204 T01060078 10128 20106 51011=
201304020453 METAR KBLI 020453Z 16008KT 10SM CLR 11/08 A3010 RMK AO2 SLP200 T01060078=
201304020353 METAR KBLI 020353Z 17010G16KT 10SM FEW080 11/08 A3009 RMK AO2 SLP197 T01060078=
201304020253 METAR KBLI 020253Z 16008KT 10SM CLR 11/08 A3008 RMK AO2 SLP193 T01060083 53006=
201304020153 METAR KBLI 020153Z 17007KT 10SM CLR 12/08 A3006 RMK AO2 SLP189 T01220083=
201304020053 METAR KBLI 020053Z 18008KT 10SM CLR 13/08 A3006 RMK AO2 SLP187 T01280083=
201304012353 METAR KBLI 012353Z 19010G17KT 10SM CLR 12/08 A3006 RMK AO2 SLP187 T01220078 10133 20100 58006=
201304012253 METAR KBLI 012253Z 18010G17KT 10SM CLR 13/08 A3007 RMK AO2 SLP190 T01280083 TSNO=
201304012153 METAR KBLI 012153Z 18011G17KT 10SM CLR 13/08 A3007 RMK AO2 SLP191 T01280083=
201304012053 METAR KBLI 012053Z 20009G17KT 10SM FEW010 12/08 A3008 RMK AO2 SLP192 T01220083 51003=
201304011953 METAR KBLI 011953Z 19007G15KT 10SM SCT006 11/08 A3008 RMK AO2 SLP191 T01110078=
201304011931 SPECI KBLI 011931Z 19009G14KT 10SM SCT006 11/08 A3008 RMK AO2=
201304011853 METAR KBLI 011853Z 19012KT 10SM OVC006 10/07 A3008 RMK AO2 SLP193 T01000072=
201304011800 SPECI KBLI 011800Z 18012G17KT 10SM BKN006 11/08 A3007 RMK AO2=
201304011753 METAR KBLI 011753Z 17011G17KT 10SM BKN004 11/08 A3007 RMK AO2 SLP190 T01060078 10111 20039 53013=
201304011653 METAR KBLI 011653Z 17010G17KT 10SM FEW004 09/07 A3006 RMK AO2 SLP185 T00940072=
201304011553 METAR KBLI 011553Z 16012KT 10SM CLR 11/07 A3004 RMK AO2 SLP179 T01110072=
201304011453 METAR KBLI 011453Z 18005KT 10SM CLR 09/06 A3003 RMK AO2 SLP176 T00940061 53012=
201304011353 METAR KBLI 011353Z AUTO 14003KT 10SM CLR 06/04 A3001 RMK AO2 SLP170 T00560039 TSNO=
201304011253 METAR KBLI 011253Z AUTO 17004KT 10SM CLR 09/06 A3000 RMK AO2 SLP166 T00890056 TSNO=
201304011153 METAR KBLI 011153Z AUTO 00000KT 10SM CLR 05/04 A2999 RMK AO2 SLP164 T00500039 10094 20039 51007 TSNO=
201304011053 METAR KBLI 011053Z AUTO 00000KT 10SM CLR 06/04 A2999 RMK AO2 SLP162 T00560039 TSNO=
201304010953 METAR KBLI 010953Z AUTO 00000KT 10SM CLR 06/04 A2998 RMK AO2 SLP160 T00610044 TSNO=
201304010853 METAR KBLI 010853Z AUTO 00000KT 10SM CLR 07/06 A2997 RMK AO2 SLP157 T00720056 51010 TSNO=
201304010753 METAR KBLI 010753Z AUTO 16006KT 10SM CLR 09/07 A2996 RMK AO2 SLP154 T00890067 401780017 TSNO=
201304010653 METAR KBLI 010653Z AUTO 18003KT 10SM CLR 08/06 A2996 RMK AO2 SLP151 T00830061 TSNO=
201304010553 METAR KBLI 010553Z AUTO 00000KT 10SM CLR 08/06 A2994 RMK AO2 SLP147 T00830061 10178 20078 53008 TSNO=
201304010453 METAR KBLI 010453Z 00000KT 10SM CLR 09/06 A2993 RMK AO2 SLP143 T00940061=
201304010353 METAR KBLI 010353Z 00000KT 10SM CLR 10/06 A2992 RMK AO2 SLP140 T01000061=
201304010253 METAR KBLI 010253Z 00000KT 10SM CLR 12/06 A2992 RMK AO2 SLP138 T01170061 56010=
201304010153 METAR KBLI 010153Z 27005KT 10SM CLR 15/06 A2992 RMK AO2 SLP141 T01500061=
201304010053 METAR KBLI 010053Z 27005KT 10SM CLR 17/05 A2993 RMK AO2 SLP143 T01720050=

# No short TAF reports from KBLI in databse.

###################################
#  large TAF from KBLI
###################################
201304302320 TAF KBLI 302320Z 0100/0124 19006KT P6SM SKC FM010500 00000KT P6SM
                       SKC FM011600 16005KT P6SM SKC FM012000 27006KT
                       P6SM SKC=
201304301739 TAF KBLI 301739Z 3018/0118 VRB03KT P6SM SCT030 BKN050 FM302000
                       26006KT P6SM SCT030 SCT060 FM010100 19005KT
                       P6SM SKC FM010500 00000KT P6SM SKC=
201304301609 TAF AMD KBLI 301609Z 3016/0112 VRB03KT P6SM VCSH BKN030 OVC045
                       TEMPO 3016/3019 BKN025 OVC045 FM301900 VRB03KT
                       P6SM SCT030 BKN050 FM302100 20007KT P6SM
                       SCT035 SCT050 FM010300 17003KT P6SM SKC=
201304301130 TAF KBLI 301130Z 3012/0112 VRB03KT P6SM VCSH BKN026 OVC035
                      TEMPO 3012/3016 SCT026 BKN050 FM301600 VRB03KT
                       P6SM SCT035 BKN090 FM302000 20007KT P6SM
                       SCT250 FM010300 17003KT P6SM SKC=
201304300535 TAF KBLI 300535Z 3006/0106 18003KT P6SM VCSH SCT035 BKN060 OVC090
                       TEMPO 3006/3010 -SHRA BKN030 OVC050 FM301800
                       21006KT P6SM SCT050 FM010300 20003KT P6SM
                       SKC=
201304292320 TAF KBLI 292320Z 3000/3024 25010KT P6SM VCSH SCT030 BKN060 FM300500
                       21006KT P6SM VCSH BKN050 FM301800 21006KT
                       P6SM SCT050=
201304292011 TAF AMD KBLI 292011Z 2920/3018 26010G22KT P6SM VCSH SCT025 SCT050
                       FM300000 25010G20KT P6SM VCSH SCT025 SCT050
                       FM300500 17005KT P6SM BKN050=
201304291725 TAF KBLI 291725Z 2918/3018 20010KT P6SM VCSH SCT025 BKN050 FM300000
                       18010KT P6SM BKN050 FM300500 17005KT P6SM
                       BKN050=
201304291437 TAF AMD KBLI 291437Z 2915/3012 VRB05KT P6SM VCSH BKN040 BKN060
                       FM291900 18010KT P6SM VCSH SCT025 BKN050=
201304291129 TAF KBLI 291129Z 2912/3012 VRB03KT P6SM SCT150 FM291600 17008KT
                       P6SM VCSH SCT025 BKN050 FM292100 19012KT
                       P6SM SCT030 BKN060=
201304290529 TAF KBLI 290529Z 2906/3006 18007KT P6SM -RA BKN025 OVC050 FM291000
                       19014G24KT P6SM -SHRA SCT025 OVC040 FM291600
                       17010KT P6SM VCSH SCT023 BKN040 FM292100
                       19013G22KT P6SM SCT030 BKN060=
201304282320 TAF KBLI 282320Z 2900/2924 17013G20KT P6SM -RA SCT020 OVC040 FM290600
                       19015G23KT P6SM -SHRA BKN020 OVC035 FM290900
                       19015G23KT P6SM -SHRA SCT023 OVC040 FM291500
                       17005KT P6SM VCSH SCT023 BKN040 FM292100
                       19013G22KT P6SM SCT040 BKN060=
201304281728 TAF KBLI 281728Z 2818/2918 17006KT P6SM BKN060
                      TEMPO 2818/2820 OVC050 FM282000 18010KT P6SM
                       SCT030 OVC050 FM282300 17013G20KT P6SM -RA
                       SCT020 OVC035 FM290600 19015G23KT P6SM -SHRA
                       BKN020 OVC035 FM290900 19015G23KT P6SM -SHRA
                       SCT023 OVC040 FM291500 17005KT P6SM VCSH
                       SCT023 BKN040=
201304281125 TAF KBLI 281125Z 2812/2912 15006KT P6SM SCT060
                      TEMPO 2814/2818 BKN060 FM281800 18010KT P6SM
                       SCT030 OVC050 FM282300 17013G20KT P6SM -RA
                       SCT020 OVC035 FM290600 19015G23KT P6SM -SHRA
                       BKN020 OVC035 FM290900 19015G23KT P6SM -SHRA
                       SCT023 OVC040=
201304280539 TAF KBLI 280539Z 2806/2906 17006G15KT P6SM VCSH FEW080 FM280900
                       16012G18KT P6SM OVC025 FM281800 18010KT
                       P6SM SCT030 OVC050 FM282300 18013G20KT P6SM
                       -RA SCT020 OVC035 FM290400 14013G20KT 5SM
                       -RA BR OVC020=
201304272320 TAF KBLI 272320Z 2800/2824 17013G23KT P6SM -RA OVC025 FM280300
                       16007KT P6SM VCSH SCT030 OVC050 FM281500
                       18010KT P6SM SCT030 BKN050=
201304271724 TAF KBLI 271724Z 2718/2818 17013G23KT P6SM -RA OVC025 FM280300
                       16007KT P6SM VCSH SCT030 OVC050 FM281500
                       18010KT P6SM SCT030 BKN050=
201304271135 TAF KBLI 271135Z 2712/2812 16004KT P6SM OVC090 FM271500 16010KT
                       P6SM OVC050 FM271800 17013G23KT P6SM -RA
                       OVC025 FM280300 16007KT P6SM VCSH SCT030
                       OVC050=
201304270520 TAF KBLI 270520Z 2706/2806 18006KT P6SM OVC100 FM271100 17009KT
                       P6SM SCT020 OVC100 FM271500 16015G21KT P6SM
                       OVC050 FM272100 17015G25KT P6SM -RA OVC030
                       FM280400 17010KT P6SM -SHRA BKN020 BKN035=
201304262324 TAF KBLI 262324Z 2700/2724 17010G15KT P6SM SCT100 BKN200 FM270300
                       17010KT P6SM SCT100 BKN200 FM271100 17009KT
                       P6SM SCT020 BKN100 FM271500 16015G21KT P6SM
                       OVC050 FM272100 17015G25KT P6SM -RA OVC030=
201304261721 TAF KBLI 261721Z 2618/2718 18010G18KT P6SM SCT004 FM262100 18010KT
                       P6SM FEW020 SCT100 BKN200 FM270300 17005KT
                       P6SM SCT100 BKN200 FM271100 18006KT P6SM
                       SCT020 BKN100 FM271500 17015G21KT P6SM OVC050=
201304261619 TAF AMD KBLI 261619Z 2616/2712 18010G18KT P6SM SCT004
                      TEMPO 2616/2618 BKN004 FM261800 18010KT P6SM
                       SCT010 BKN200 FM262100 18010KT P6SM FEW020
                       SCT100 BKN200 FM270300 17005KT P6SM SCT100
                       BKN200 FM271100 18006KT P6SM BKN020 BKN100=
201304261120 TAF KBLI 261120Z 2612/2712 17008KT P6SM SCT250 FM261400 17008KT
                       P6SM BKN005 FM261700 18010KT P6SM SCT010
                       BKN200 FM262100 18010KT P6SM FEW020 SCT100
                       BKN200 FM270300 17005KT P6SM SCT100 BKN200
                       FM271100 18006KT P6SM BKN020 BKN100=
201304260520 TAF KBLI 260520Z 2606/2706 17006KT P6SM SCT250 FM261200 17008KT
                       P6SM BKN005
                      TEMPO 2613/2617 2SM BR FM261700 18010KT P6SM
                       SCT010 BKN200 FM262100 18010KT P6SM FEW020
                       SCT100 BKN200 FM270300 17005KT P6SM SCT100
                       BKN200=
201304252320 TAF KBLI 252320Z 2600/2624 18008KT P6SM BKN200 FM261200 18010KT
                       P6SM BKN005
                      TEMPO 2613/2617 2SM BR FM261700 20008KT P6SM
                       SCT010 BKN200 FM262100 20008KT P6SM SCT020
                       SCT100 BKN200=
201304251720 TAF KBLI 251720Z 2518/2618 18008KT P6SM BKN200 FM261200 18010KT
                       P6SM BKN005
                      TEMPO 2613/2617 2SM BR FM261700 20005KT P6SM
                       SCT010 BKN200=
201304251120 TAF KBLI 251120Z 2512/2612 00000KT P6SM SCT250 FM252000 22007KT
                       P6SM FEW040 SCT100 BKN200 FM260200 18006KT
                       P6SM SCT100 BKN200=
201304250523 TAF KBLI 250523Z 2506/2606 00000KT P6SM SCT250 FM252000 22007KT
                       P6SM FEW040 SCT100 SCT200=
201304242320 TAF KBLI 242320Z 2500/2524 VRB04KT P6SM BKN250 FM252000 22007KT
                       P6SM FEW040 SCT100 SCT200=
201304241720 TAF KBLI 241720Z 2418/2518 VRB04KT P6SM SCT250 FM250300 20008KT
                       P6SM BKN250=
201304241120 TAF KBLI 241120Z 2412/2512 00000KT P6SM SKC FM241800 20006KT P6SM
                       SCT250 FM250300 17008KT P6SM BKN250=
201304240520 TAF KBLI 240520Z 2406/2506 00000KT P6SM SCT250 FM241800 20006KT
                       P6SM SCT250=
201304232320 TAF KBLI 232320Z 2400/2424 VRB05KT P6SM SKC FM240500 00000KT P6SM
                       SKC FM241800 18006KT P6SM SKC=
201304231720 TAF KBLI 231720Z 2318/2418 00000KT P6SM BKN250 FM232000 29008KT
                       P6SM SCT250 FM240400 00000KT P6SM SKC=
201304231120 TAF KBLI 231120Z 2312/2412 00000KT P6SM BKN250 FM232000 29008KT
                       P6SM SCT250 FM240400 00000KT P6SM SKC=
201304230520 TAF KBLI 230520Z 2306/2406 00000KT P6SM SKC FM232000 29008KT P6SM
                       SKC FM240400 00000KT P6SM SKC=
201304230040 TAF AMD KBLI 230040Z 2301/2324 28008KT P6SM SKC FM230300 VRB03KT
                       P6SM SKC FM232000 31009KT P6SM SKC=
201304222320 TAF KBLI 222320Z 2300/2324 VRB04KT P6SM SKC=
201304221720 TAF KBLI 221720Z 2218/2318 36008KT P6SM SKC FM222000 31007KT P6SM
                       SKC FM230300 00000KT P6SM SKC=
201304221120 TAF KBLI 221120Z 2212/2312 VRB03KT P6SM SKC FM222000 31007KT P6SM
                       SKC FM230300 00000KT P6SM SKC=
201304220520 TAF KBLI 220520Z 2206/2306 VRB03KT P6SM SKC FM222000 31007KT P6SM
                       SKC FM230300 00000KT P6SM SKC=
201304212332 TAF KBLI 212332Z 2200/2224 02012G17KT P6SM FEW035 BKN200 FM220300
                       35007KT P6SM SKC=
201304211751 TAF KBLI 211751Z 2118/2218 00000KT 5SM -RA BR BKN013 OVC030
                      TEMPO 2118/2121 P6SM -RA BKN008 OVC015 FM212100
                       16012KT P6SM VCSH SCT020 OVC050
                      TEMPO 2121/2124 P6SM -RA BKN020 OVC050 FM220000
                       22012KT P6SM SCT250 FM220300 00000KT P6SM
                       SKC=
201304211501 TAF AMD KBLI 211501Z 2115/2212 00000KT 3SM -RA BR BKN019 OVC028
                       FM212200 33008KT P6SM OVC040 FM220300 VRB04KT
                       P6SM FEW050 SCT250=
201304211418 TAF AMD KBLI 211418Z 2114/2212 18003KT P6SM -RA SCT010 OVC040 FM212200
                       33008KT P6SM OVC040 FM220300 VRB04KT P6SM
                       FEW050 SCT250=
201304211120 TAF KBLI 211120Z 2112/2212 17005KT P6SM BKN040 OVC050 FM211800
                       19005KT P6SM BKN050 FM212200 33008KT P6SM
                       SCT050 FM220300 VRB04KT P6SM FEW050 SCT250=
201304210520 TAF KBLI 210520Z 2106/2206 18007KT P6SM OVC040 FM211100 17005KT
                       P6SM OVC025 FM211800 19005KT P6SM BKN050
                       FM212200 33008KT P6SM SCT050=
201304202329 TAF KBLI 202329Z 2100/2124 16010KT P6SM VCSH BKN040 OVC060 FM210200
                       18007KT P6SM OVC040 FM211100 17005KT P6SM
                       OVC025 FM211800 19005KT P6SM BKN050=
201304201731 TAF KBLI 201731Z 2018/2118 16011G16KT P6SM SCT030 OVC060 FM202200
                       17009KT P6SM OVC050 FM210600 17003KT P6SM
                       VCSH OVC020 FM211500 16004KT P6SM OVC050=
201304201120 TAF KBLI 201120Z 2012/2112 18010KT P6SM VCSH BKN020 OVC030 FM201800
                       18007KT P6SM BKN030 FM210400 15005KT P6SM
                       BKN030=
201304200520 TAF KBLI 200520Z 2006/2106 17012G20KT P6SM VCSH BKN020 OVC030 FM200900
                       18010KT P6SM VCSH BKN020 OVC030 FM201800
                       18007KT P6SM BKN030 FM210400 15005KT P6SM
                       BKN030=
201304192320 TAF KBLI 192320Z 2000/2024 18008KT P6SM VCSH SCT015 SCT020 BKN030
                       TEMPO 2000/2004 -SHRA SCT007 BKN012 FM200600
                       17008KT P6SM VCSH BKN020 OVC030 FM201800
                       18007KT P6SM BKN030=
201304192206 TAF AMD KBLI 192206Z 1922/2018 18008KT P6SM -SHRA SCT015 SCT020
                       BKN030
                      TEMPO 1922/2002 6SM -SHRA BKN005 FM200600
                       17010KT P6SM VCSH BKN020 OVC030=
201304192005 TAF AMD KBLI 192005Z 1920/2018 18010KT 4SM -RA BR SCT012 OVC020
                       TEMPO 1920/1922 2SM -RA BR BKN004 FM192200
                       19012KT P6SM -SHRA SCT020 BKN030 FM200100
                       17010KT P6SM VCSH BKN020 OVC030=
201304191721 TAF KBLI 191721Z 1918/2018 18010KT 4SM -RA BR SCT012 OVC025
                      TEMPO 1918/1921 3SM -RA BR BKN008 FM192100
                       19012G18KT P6SM -SHRA SCT020 BKN030 FM200100
                       17010KT P6SM VCSH BKN020 OVC030=
201304191120 TAF KBLI 191120Z 1912/2012 16010KT P6SM -RA BKN015 OVC025 FM191500
                       16016G25KT 5SM -RA BR SCT008 OVC015 FM192000
                       17010KT P6SM VCSH SCT025 BKN035 FM200100
                       17010KT P6SM BKN020 OVC030
                      TEMPO 2001/2005 -RA OVC020=
201304190526 TAF KBLI 190526Z 1906/2006 17009G17KT P6SM -RA BKN023 OVC060 FM190800
                       16012G22KT P6SM -RA BKN015 OVC025 FM191500
                       16016G25KT 5SM -RA BR SCT008 OVC015 FM192000
                       17010KT P6SM VCSH SCT025 BKN035 FM200100
                       17010KT P6SM VCSH BKN020 OVC030
                      TEMPO 2001/2005 -RA OVC020=
201304182325 TAF KBLI 182325Z 1900/1924 17009G17KT P6SM -RA BKN023 OVC060 FM190800
                       16012G22KT P6SM -RA BKN015 OVC025 FM191500
                       16016G25KT 5SM -RA BR SCT008 OVC015 FM192000
                       20008KT P6SM VCSH SCT025 BKN035=
201304181741 TAF KBLI 181741Z 1818/1918 17007KT P6SM FEW007 BKN012 OVC017 FM182000
                       16011G20KT P6SM SCT015 OVC020 FM182300 16014G25KT
                       P6SM -RA OVC010 FM190800 16012G22KT P6SM
                       -RA BKN012 OVC025 FM191500 16016G25KT 5SM
                       -RA BR SCT008 OVC015=
201304181610 TAF AMD KBLI 181610Z 1816/1912 16007KT 4SM BR SCT004 OVC014
                      TEMPO 1816/1819 2SM -RA BR BKN004 OVC014
                       FM181900 16011G20KT P6SM OVC015 FM182300
                       16014G25KT P6SM -RA OVC010
                      TEMPO 1823/1902 4SM -RA BR OVC010 FM190800
                       16012G22KT P6SM -RA OVC025=
201304181120 TAF KBLI 181120Z 1812/1912 16004KT P6SM -RA OVC035
                      TEMPO 1814/1818 -RA OVC025 FM181800 16013G23KT
                       P6SM -RA OVC015
                      TEMPO 1822/1902 4SM -RA BR OVC010 FM190800
                       16012G22KT P6SM -RA OVC025=
201304180530 TAF KBLI 180530Z 1806/1906 VRB04KT P6SM SCT040 OVC080
                      TEMPO 1808/1812 -RA OVC035 FM181200 16005KT
                       P6SM -RA OVC025 FM181800 16013G23KT P6SM
                       -RA OVC015
                      TEMPO 1822/1902 4SM -RA BR OVC010=
201304172332 TAF KBLI 172332Z 1800/1824 16011KT P6SM OVC090 FM180400 16006KT
                       P6SM OVC040 FM180800 16010KT P6SM -RA OVC035
                       FM181100 16012KT 5SM -RA BR OVC010 FM181800
                       16012KT P6SM SCT015 BKN025=
201304171724 TAF KBLI 171724Z 1718/1818 17011G17KT P6SM SCT100 BKN200 FM180000
                       16012KT P6SM SCT040 BKN060 OVC100 FM180400
                       16006KT 5SM -RA BR OVC015 FM181100 16012KT
                       5SM BR OVC010=
201304171701 TAF AMD KBLI 171701Z 1717/1812 17011G17KT P6SM FEW100 BKN200 FM180000
                       21010KT P6SM BKN030 OVC060
                      TEMPO 1802/1806 -RA OVC025 FM180600 21012KT
                       5SM -RA BR OVC015 FM181100 18008KT 4SM -DZ
                       BR OVC010=
201304171130 TAF KBLI 171130Z 1712/1812 VRB03KT P6SM SCT120 OVC200 FM171800
                       18008KT P6SM SCT030 SCT120 BKN200 FM180000
                       21010KT P6SM BKN030 OVC060
                      TEMPO 1802/1806 -RA OVC025 FM180600 21012KT
                       5SM -RA BR OVC015 FM181100 18008KT 4SM -DZ
                       BR OVC010=
201304170520 TAF KBLI 170520Z 1706/1806 00000KT P6SM SCT200 FM171200 VRB04KT
                       P6SM BKN200 FM171800 18008KT P6SM SCT040
                       SCT120 BKN200 FM180000 21010KT P6SM BKN040
                       OVC080 FM180300 21012KT P6SM -RA OVC040=
201304162320 TAF KBLI 162320Z 1700/1724 34010KT P6SM SCT040 FM170400 16004KT
                       P6SM SCT200 FM171200 17004KT P6SM BKN200
                       FM171800 18010KT P6SM SCT120 BKN200=
201304162101 TAF AMD KBLI 162101Z 1621/1718 34010KT P6SM SCT030 FM170300 16004KT
                       P6SM SCT200=
201304161721 TAF KBLI 161721Z 1618/1718 36008KT P6SM SCT030 FM162100 VRB05KT
                       P6SM SCT030 SCT200 FM170300 16004KT P6SM
                       SCT200=
201304161122 TAF KBLI 161122Z 1612/1712 VRB03KT P6SM SCT200 FM162000 34006KT
                       P6SM SCT050=
201304160520 TAF KBLI 160520Z 1606/1706 02005KT P6SM BKN080 FM161200 04006KT
                       P6SM SCT050 SCT200 FM162000 34006KT P6SM
                       SCT050=
201304152334 TAF KBLI 152334Z 1600/1624 32008KT P6SM VCTS BKN035CB BKN045 FM160400
                       00000KT P6SM SCT050 FM160700 33002KT P6SM
                       SCT200=
201304151729 TAF KBLI 151729Z 1518/1618 34003KT P6SM SCT012 SCT040 FM152100
                       34007KT P6SM SCT045
                      TEMPO 1521/1601 BKN040 FM160200 00000KT P6SM
                       BKN250=
201304151120 TAF KBLI 151120Z 1512/1612 02006KT P6SM BKN040 FM152000 33005KT
                       P6SM SCT040=
201304150520 TAF KBLI 150520Z 1506/1606 00000KT P6SM SCT070 FM150900 VRB04KT
                       P6SM VCSH BKN050 FM151200 VRB03KT P6SM SCT030
                       SCT060 FM151800 33005KT P6SM SCT035 BKN060=
201304142320 TAF KBLI 142320Z 1500/1524 VRB04KT P6SM SCT025 BKN045 FM151000
                       VRB04KT P6SM BKN025 FM151900 30009KT P6SM
                       SCT025 BKN060=
201304142111 TAF AMD KBLI 142111Z 1421/1518 15005KT P6SM VCSH SCT025 BKN040
                       TEMPO 1421/1424 -SHRA BKN025 FM151000 VRB04KT
                       P6SM BKN020=
201304141720 TAF KBLI 141720Z 1418/1518 15005KT P6SM VCSH SCT025 BKN040
                      TEMPO 1418/1421 BKN025 OVC040 FM151000 18005KT
                       P6SM BKN020=
201304141559 TAF AMD KBLI 141559Z 1416/1512 12004KT P6SM SCT015 BKN025 BKN060
                       TEMPO 1416/1418 BKN015 OVC025 FM141800 21008KT
                       P6SM VCSH SCT020 BKN040 FM151000 18005KT
                       P6SM BKN020=
201304141120 TAF KBLI 141120Z 1412/1512 VRB03KT P6SM SCT020 BKN040 BKN060 FM141800
                       22008KT P6SM VCSH SCT020 BKN040 FM151000
                       18005KT P6SM BKN020=
201304140522 TAF KBLI 140522Z 1406/1506 VRB04KT P6SM SCT040 FM141000 22006KT
                       P6SM BKN030 FM141800 22006KT P6SM SCT020
                       BKN040=
201304132324 TAF KBLI 132324Z 1400/1424 16010KT P6SM -SHRA SCT018 OVC025 FM140200
                       15009KT P6SM VCSH SCT022 BKN035 FM140500
                       16006KT P6SM BKN022 BKN035 FM140900 16007KT
                       P6SM OVC022 FM141800 18008KT P6SM VCSH BKN025
                       OVC035
                      TEMPO 1420/1424 -SHRA OVC025=
201304132214 TAF AMD KBLI 132214Z 1322/1418 17010KT P6SM -SHRA SCT018 OVC025
                       TEMPO 1322/1324 5SM -SHRA BKN018 OVC025
                       FM140100 17009KT P6SM VCSH SCT022 BKN035
                       FM140500 16006KT P6SM BKN022 BKN035 FM140900
                       16007KT P6SM OVC022=
201304132131 TAF AMD KBLI 132131Z 1322/1418 19010G20KT P6SM -SHRA SCT018 OVC030CB
                       TEMPO 1322/1324 4SM -SHRAGS BKN018 OVC030CB
                       FM140000 18010KT P6SM VCSH SCT022 BKN035
                       FM140500 16006KT P6SM BKN022 BKN035 FM140900
                       16007KT P6SM OVC022=
201304131758 TAF AMD KBLI 131758Z 1318/1418 18010KT 5SM -SHRA SCT006 BKN012
                       OVC025
                      TEMPO 1318/1320 2SM -RASN OVC006 FM132000
                       19012G20KT P6SM -SHRA VCTS BKN018 OVC025CB
                       TEMPO 1320/1324 4SM SHRAGS FM140000 18010KT
                       P6SM VCSH SCT022 BKN035 FM140500 16006KT
                       P6SM BKN022 BKN035 FM140900 16007KT P6SM
                       OVC022=
201304131720 TAF KBLI 131720Z 1318/1418 18010KT P6SM -SHRA BKN018 BKN035 BKN045
                       FM132000 19012G20KT P6SM -SHRA VCTS BKN018
                       OVC025CB
                      TEMPO 1320/1324 4SM SHRAGS FM140000 18010KT
                       P6SM VCSH SCT022 BKN035 FM140500 16006KT
                       P6SM BKN022 BKN035 FM140900 16007KT P6SM
                       OVC022=
201304131611 TAF AMD KBLI 131611Z 1316/1412 18010KT P6SM -SHRA BKN018 BKN035
                       BKN045 FM132000 19012G20KT P6SM -SHRA VCTS
                       BKN018 BKN035CB
                      TEMPO 1320/1324 4SM SHRAGS BKN018 OVC035CB
                       FM140000 19012KT P6SM SCT030 BKN045=
201304131138 TAF KBLI 131138Z 1312/1412 19008KT P6SM SCT050 FM131600 19012G20KT
                       P6SM -SHRA SCT030 BKN045 FM140000 19012KT
                       P6SM SCT030 BKN045=
201304130538 TAF KBLI 130538Z 1306/1406 19015G25KT P6SM -SHRA SCT015 BKN025
                       OVC040 FM130800 19015G25KT P6SM -SHRA SCT015
                       BKN030 BKN045 FM131500 19012G20KT P6SM -SHRA
                       SCT030 BKN045 FM140000 19012KT P6SM SCT030
                       BKN045=
201304122321 TAF KBLI 122321Z 1300/1324 16012KT P6SM -RA SCT015 BKN025 OVC040
                       TEMPO 1300/1304 5SM -RA BR BKN015 OVC025
                       FM130400 18014G25KT P6SM -RA SCT015 OVC025
                       FM130800 19016G26KT P6SM -SHRA SCT015 BKN030
                       BKN045 FM131600 19013G23KT P6SM -SHRA SCT030
                       BKN045=
201304122034 TAF AMD KBLI 122034Z 1221/1318 17012G20KT 5SM -RA BR BKN017 OVC025
                       TEMPO 1221/1224 2SM -RA BR BKN010 OVC017
                       FM130000 17012G20KT P6SM -RA BKN025 OVC035
                       FM130500 18014G25KT P6SM -RA SCT015 OVC025
                       FM130800 19016G26KT P6SM -SHRA SCT015 BKN030
                       BKN045 FM131600 19013G23KT P6SM -SHRA SCT030
                       BKN045=
201304121929 TAF AMD KBLI 121929Z 1219/1318 16006KT P6SM -RA BKN018 OVC025 FM130000
                       17012G20KT P6SM -RA BKN025 OVC035 FM130500
                       18014G25KT P6SM -RA SCT015 OVC025 FM130800
                       19016G26KT P6SM -SHRA SCT015 BKN030 BKN045
                       FM131600 19013G23KT P6SM -SHRA SCT030 BKN045=
201304121720 TAF KBLI 121720Z 1218/1318 16006KT P6SM BKN025 BKN100 BKN200 FM122100
                       17008KT P6SM SCT030 BKN080 OVC200 FM130000
                       17012KT P6SM -RA SCT020 OVC035 FM130500
                       18014KT P6SM -RA SCT015 OVC025 FM130800
                       19016G26KT P6SM -SHRA SCT015 BKN030 BKN045
                       FM131600 19013G23KT P6SM -SHRA SCT030 BKN045=
201304121141 TAF KBLI 121141Z 1212/1312 VRB03KT P6SM SCT050 FM121800 17006KT
                       P6SM SCT030 BKN200 FM122100 17008KT P6SM
                       SCT030 BKN100 OVC200 FM130000 17012KT P6SM
                       -RA SCT020 OVC035 FM130500 18014KT P6SM
                       -RA SCT015 OVC025 FM130800 20014G20KT P6SM
                       -SHRA SCT015 BKN030 BKN045=
201304120542 TAF KBLI 120542Z 1206/1306 VRB03KT P6SM SCT050 FM121800 17006KT
                       P6SM SCT030 BKN200 FM122100 17008KT P6SM
                       SCT030 BKN100 OVC200 FM130000 17012KT P6SM
                       -RA SCT020 OVC035=
201304112349 TAF KBLI 112349Z 1200/1224 VRB03KT P6SM FEW050 SCT200 FM120900
                       VRB03KT P6SM SCT090 BKN200 FM121200 15005KT
                       P6SM BKN090 OVC200 FM121800 15008KT P6SM
                       SCT050 OVC090
                      PROB30 1218/1221 -RA OVC050 FM122100 15008KT
                       P6SM -RA SCT035 OVC050=
201304111745 TAF KBLI 111745Z 1118/1218 18007KT P6SM BKN050 OVC200 FM112200
                       21007KT P6SM SCT050 BKN200
                      TEMPO 1122/1124 BKN050 BKN200 FM120200 VRB03KT
                       P6SM BKN200 FM120900 VRB03KT P6SM SCT090
                       BKN200 FM121200 15005KT P6SM BKN090 OVC200=
201304111132 TAF KBLI 111132Z 1112/1212 17008KT P6SM SCT035 BKN050 FM112300
                       21008KT P6SM SCT035 BKN200=
201304110532 TAF KBLI 110532Z 1106/1206 17008KT P6SM BKN035 BKN050 FM112100
                       21008KT P6SM SCT035=
201304102351 TAF AMD KBLI 102351Z 1100/1124 19008KT P6SM VCSH BKN035 OVC050
                       TEMPO 1100/1104 -SHRA BKN028 OVC040 FM110600
                       17008KT P6SM OVC028 FM111800 19011KT P6SM
                       BKN035 FM112100 21008KT P6SM SCT035=
201304102334 TAF KBLI 102334Z 1100/1124 19008KT P6SM VCSH FEW018 BKN028 OVC050
                       FM110600 17008KT P6SM OVC028 FM111800 19011KT
                       P6SM BKN035 FM112100 21008KT P6SM SCT035=
201304102013 TAF AMD KBLI 102013Z 1020/1118 23011KT P6SM SCT030 BKN050
                      TEMPO 1020/1024 BKN030 OVC050 FM110000 19012KT
                       P6SM SCT035 SCT050 FM110600 17009KT P6SM
                       BKN030=
201304101745 TAF KBLI 101745Z 1018/1118 19013G22KT P6SM -SHRA BKN020 OVC040
                       FM102000 19013G22KT P6SM SCT030 BKN050
                      TEMPO 1020/1024 -SHRA BKN030 OVC050 FM110000
                       19012KT P6SM SCT035 SCT050 FM110600 17009KT
                       P6SM BKN030=
201304101629 TAF AMD KBLI 101629Z 1016/1112 19013G20KT 5SM -RA BR SCT015 OVC030
                       TEMPO 1016/1018 3SM RA BR BKN015 OVC030
                       FM101800 20012KT P6SM SCT030 BKN050=
201304101426 TAF AMD KBLI 101426Z 1014/1112 15016G28KT 6SM -RA BR SCT025 OVC040
                       TEMPO 1014/1016 4SM RA BR BKN025 OVC040
                       FM101600 17020G30KT 5SM -RA BR SCT015 OVC030
                       TEMPO 1016/1018 3SM RA BR BKN015 OVC030
                       FM101800 20012KT P6SM SCT030 BKN050=
201304101129 TAF KBLI 101129Z 1012/1112 15016G28KT P6SM -RA SCT012 BKN030 OVC070
                       TEMPO 1012/1016 4SM RA BKN012 OVC025 FM101600
                       20016G28KT P6SM -SHRA SCT015 OVC030 FM101800
                       20012KT P6SM SCT030 BKN050=
201304100520 TAF KBLI 100520Z 1006/1106 14008G14KT P6SM OVC045 FM101200 18017G27KT
                       P6SM -RA SCT011 OVC025
                      TEMPO 1012/1016 4SM RA BKN011 OVC025 FM101600
                       20013G20KT P6SM -SHRA SCT015 OVC030 FM101800
                       20012KT P6SM SCT030 BKN050
                      PROB30 1018/1024 -SHRA OVC030=
201304092340 TAF KBLI 092340Z 1000/1024 15005KT P6SM -RA SCT035 OVC050 FM100300
                       15009KT P6SM -RA OVC035 FM100600 15013G22KT
                       P6SM -RA OVC025 FM101200 18017G27KT P6SM
                       -RA SCT011 OVC025
                      TEMPO 1012/1016 4SM RA BKN011 OVC025 FM101600
                       20013G20KT P6SM -SHRA SCT015 OVC030 FM101800
                       20012KT P6SM SCT030 BKN050
                      PROB30 1018/1024 -SHRA OVC030=
201304091736 TAF KBLI 091736Z 0918/1018 18009KT P6SM OVC070 FM092100 18009KT
                       P6SM VCSH SCT035 OVC050 FM100000 14009KT
                       P6SM -RA OVC035 FM100600 14020G30KT P6SM
                       -RA OVC025 FM101200 17015G25KT P6SM -RA
                       SCT011 OVC025
                      TEMPO 1012/1016 4SM RA BKN011 OVC025 FM101600
                       20013G20KT P6SM -SHRA SCT015 OVC030=
201304091518 TAF AMD KBLI 091518Z 0915/1012 15008KT P6SM SCT022 OVC100
                      TEMPO 0915/0918 BKN022 OVC100 FM091800 15012KT
                       P6SM SCT030 OVC060 FM092200 16008KT P6SM
                       SCT030 OVC050
                      TEMPO 0922/1002 -RA FM100200 14006KT P6SM
                       OVC035
                      TEMPO 1002/1006 -RA FM100600 16008KT P6SM
                       -RA OVC030=
201304091410 TAF AMD KBLI 091410Z 0914/1012 18006KT P6SM SCT022 OVC100
                      TEMPO 0914/0918 BKN022 OVC100 FM092200 16008KT
                       P6SM SCT030 OVC050
                      TEMPO 0922/1002 -RA FM100200 14006KT P6SM
                       OVC035
                      TEMPO 1002/1006 -RA FM100600 16008KT P6SM
                       -RA OVC030=
201304091120 TAF KBLI 091120Z 0912/1012 18006KT P6SM SCT018 BKN050 OVC100
                      TEMPO 0912/0914 BKN018 FM092200 16008KT P6SM
                       SCT030 OVC050
                      TEMPO 0922/1002 -RA FM100200 14006KT P6SM
                       OVC035
                      TEMPO 1002/1006 -RA FM100600 16008KT P6SM
                       -RA OVC030=
201304090551 TAF KBLI 090551Z 0906/1006 16006KT P6SM SCT060 BKN200 FM090900
                       16006KT P6SM BKN070 OVC120 FM091200 16006KT
                       P6SM BKN050 OVC100 FM092200 17010KT P6SM
                       SCT030 OVC050
                      TEMPO 0922/1002 -RA FM100200 03006KT P6SM
                       -RA OVC030=
201304082327 TAF KBLI 082327Z 0900/0924 15007KT P6SM FEW060 BKN200 FM090900
                       15007KT P6SM BKN070 OVC130 FM091200 15007KT
                       P6SM BKN050 OVC100
                      PROB30 0912/0918 -RA FM091800 17013KT P6SM
                       -RA SCT030 OVC050 AMD NOT SKED=
201304081956 TAF AMD KBLI 081956Z 0820/0918 19007KT P6SM BKN025 BKN040 FM082200
                       19007KT P6SM BKN035 BKN050 FM090000 21005KT
                       P6SM SCT035 BKN070 FM090200 VRB03KT P6SM
                       SCT070 BKN200 FM090900 VRB03KT P6SM BKN070
                       OVC130 FM091500 16007KT P6SM SCT030 OVC050
                       PROB30 0915/0918 -RA AMD NOT SKED=
201304081720 TAF KBLI 081720Z 0818/0918 17006KT P6SM OVC015 FM082000 19007KT
                       P6SM BKN025 BKN040 FM082200 19007KT P6SM
                       BKN035 BKN050 FM090000 21005KT P6SM SCT035
                       BKN070 FM090200 VRB03KT P6SM SCT070 BKN200
                       FM090900 VRB03KT P6SM BKN070 OVC130 FM091500
                       16007KT P6SM SCT030 OVC050
                      PROB30 0915/0918 -RA=
201304081422 TAF AMD KBLI 081422Z 0814/0912 VRB03KT P6SM OVC015 FM081700 17008KT
                       P6SM BKN020 OVC035 FM082000 17008KT P6SM
                       SCT030 BKN060 FM090300 18004KT P6SM SCT060=
201304081120 TAF KBLI 081120Z 0812/0912 14005KT P6SM OVC030 FM082000 17008KT
                       P6SM SCT030 BKN060 FM090300 18004KT P6SM
                       SCT060=
201304080520 TAF KBLI 080520Z 0806/0906 15010KT P6SM BKN045 FM081200 18007KT
                       P6SM OVC030 FM082000 18008KT P6SM SCT030
                       BKN060 FM090300 18004KT P6SM SCT060=
201304072320 TAF KBLI 072320Z 0800/0824 18008KT P6SM SCT020 BKN040 OVC090
                      TEMPO 0800/0804 -SHRA BKN020 OVC040 FM080600
                       16005KT P6SM BKN020 OVC040 FM082000 18008KT
                       P6SM SCT030 BKN060=
201304071725 TAF KBLI 071725Z 0718/0818 33006KT P6SM -RA BKN025 OVC040
                      TEMPO 0718/0721 4SM -RA BR BKN015 OVC025
                       FM072100 25008KT P6SM -SHRA BKN025 BKN035
                       OVC060 FM080100 20008KT P6SM -SHRA BKN035
                       OVC060 FM080600 19008KT P6SM BKN020 OVC040=
201304071120 TAF KBLI 071120Z 0712/0812 01005KT P6SM -RA SCT030 BKN040 FM071600
                       33008KT P6SM -SHRA BKN030 BKN045 FM080000
                       19007KT P6SM VCSH SCT030 BKN060=
201304070523 TAF KBLI 070523Z 0706/0806 10008KT P6SM BKN045 OVC080 FM071000
                       06005KT P6SM BKN025 OVC060 FM071200 02005KT
                       P6SM SCT030 BKN070 FM071700 33008KT P6SM
                       SCT030 BKN100 FM080000 19007KT P6SM SCT030
                       BKN100=
201304062321 TAF KBLI 062321Z 0700/0724 16010KT P6SM FEW030 SCT100
                      TEMPO 0700/0704 -SHRA BKN030 OVC080 FM070900
                       12005KT P6SM BKN025 OVC060 FM071400 02005KT
                       P6SM SCT030 BKN070 FM071700 33010KT P6SM
                       FEW035 BKN100=
201304061728 TAF KBLI 061728Z 0618/0718 18010KT P6SM SCT027 BKN080
                      TEMPO 0618/0622 -SHRA BKN027 OVC080 FM062200
                       17008KT P6SM SCT030 BKN080
                      TEMPO 0622/0702 -SHRA BKN030 OVC080 FM070900
                       12005KT P6SM BKN025 OVC060 FM071400 02005KT
                       P6SM SCT030 BKN070=
201304061433 TAF AMD KBLI 061433Z 0615/0712 19012G20KT P6SM SCT025 OVC060
                      TEMPO 0615/0618 -SHRA BKN025 OVC050 FM061800
                       17013G23KT P6SM VCSH BKN040 OVC080 FM070300
                       16010KT P6SM -SHRA BKN030 BKN040 FM070900
                       02005KT P6SM BKN050=
201304061123 TAF KBLI 061123Z 0612/0712 15020G30KT P6SM -SHRA BKN035 OVC050
                       FM061800 17013G23KT P6SM VCSH BKN040 OVC080
                       FM070300 16010KT P6SM -SHRA BKN030 BKN040
                       FM070900 02005KT P6SM BKN050=
201304060908 TAF AMD KBLI 060908Z 0609/0706 14013G22KT P6SM -RA SCT030 OVC045
                       FM061200 17012G22KT P6SM -SHRA BKN025 OVC040
                       FM061800 17010KT P6SM VCSH BKN040 OVC080
                       FM070300 16008KT P6SM -SHRA BKN030 BKN040=
201304060527 TAF KBLI 060527Z 0606/0706 16013G22KT P6SM -SHRA SCT025 OVC035
                       FM060800 16015G25KT P6SM -RA BKN025 OVC035
                       FM061200 17012G22KT P6SM -SHRA BKN025 OVC040
                       FM061800 17010KT P6SM VCSH BKN040 OVC080
                       FM070300 16008KT P6SM -SHRA BKN030 BKN040=
201304060102 TAF AMD KBLI 060102Z 0601/0624 16010G20KT P6SM BKN030 OVC050 FM060300
                       16010KT P6SM -RA BKN030 OVC050 FM060500
                       15014G24KT P6SM -RA OVC025 FM061100 18012G22KT
                       P6SM -SHRA BKN025 OVC040 FM061800 17010KT
                       P6SM BKN040 OVC080=
201304052321 TAF KBLI 052321Z 0600/0624 17005KT P6SM BKN035 OVC050 FM060300
                       16008KT P6SM -RA BKN030 OVC050 FM060500
                       15014G24KT P6SM -RA OVC025 FM061100 18012G22KT
                       P6SM -SHRA BKN025 OVC040 FM061800 17010KT
                       P6SM BKN040 OVC080=
201304051726 TAF KBLI 051726Z 0518/0618 17008KT P6SM SCT018 BKN050 BKN200
                      TEMPO 0518/0522 -SHRA BKN018 OVC050 FM052200
                       16010KT P6SM SCT030 BKN060 BKN200 FM060500
                       15014G24KT P6SM -RA OVC025 FM061100 18012G22KT
                       P6SM -SHRA BKN025 OVC040=
201304051535 TAF AMD KBLI 051535Z 0516/0612 16008KT P6SM -SHRA FEW019 OVC050
                       TEMPO 0516/0520 BKN019 OVC050 FM052000 16010KT
                       P6SM VCSH SCT025 BKN050 FM060500 15012G22KT
                       P6SM -RA OVC025 FM061000 18012G22KT P6SM
                       -SHRA BKN025 BKN040=
201304051120 TAF KBLI 051120Z 0512/0612 18015G28KT P6SM -SHRA BKN025 BKN045
                       FM051800 17012G22KT P6SM -SHRA BKN025 OVC035
                       FM052100 16012G20KT P6SM VCSH SCT025 BKN040
                       FM060500 15012G22KT P6SM -RA OVC025 FM061000
                       18012G22KT P6SM -SHRA BKN025 BKN040=
201304050534 TAF KBLI 050534Z 0506/0606 16018G28KT P6SM VCSH SCT025 OVC045
                      TEMPO 0506/0508 5SM -SHRA OVC025 FM050800
                       18014G23KT 5SM -SHRA BR OVC025 FM051200
                       18013KT P6SM -SHRA BKN030 BKN045 FM051900
                       17010KT P6SM -SHRA BKN025 OVC035 FM060500
                       15008KT P6SM -RA OVC025=
201304042320 TAF KBLI 042320Z 0500/0524 10005KT P6SM -RA BKN030 OVC045
                      TEMPO 0500/0502 4SM -RA BR OVC025 FM050600
                       17018G28KT P6SM -SHRA BKN030 OVC045 FM051300
                       16010KT P6SM -SHRA BKN030 OVC045=
201304041720 TAF KBLI 041720Z 0418/0518 02003KT P6SM BKN040 OVC090
                      TEMPO 0418/0419 5SM -RA BR OVC050 FM041900
                       08005KT P6SM -RA OVC030 FM042200 10005KT
                       P6SM -RA BKN025 OVC035
                      TEMPO 0422/0502 4SM -RA BR OVC025 FM050600
                       17018G28KT P6SM -SHRA BKN030 OVC045 FM051300
                       16010KT P6SM -SHRA BKN030 OVC045=
201304041120 TAF KBLI 041120Z 0412/0512 VRB03KT P6SM OVC100 FM041300 02003KT
                       P6SM BKN040 OVC090
                      TEMPO 0413/0416 5SM BR FM041900 03005KT P6SM
                       -RA OVC030 FM042200 08005KT P6SM -RA BKN025
                       OVC035 FM050600 17018G28KT P6SM -SHRA BKN030
                       OVC045=
201304040520 TAF KBLI 040520Z 0406/0506 VRB03KT P6SM FEW150 BKN200 FM040900
                       VRB03KT P6SM OVC150 FM041400 02003KT P6SM
                       BKN040 OVC090 FM042000 03005KT P6SM -RA
                       OVC030 FM050000 08005KT P6SM -RA BKN025
                       OVC035 FM050200 16016G28KT P6SM -SHRA BKN035
                       OVC045 FM050400 17018G28KT P6SM -SHRA BKN035
                       OVC045=
201304032323 TAF KBLI 032323Z 0400/0424 25005KT P6SM FEW150 BKN250 FM040700
                       05004KT P6SM OVC120 FM041300 VRB03KT P6SM
                       BKN040 OVC090 FM042000 19006KT P6SM -RA
                       OVC025=
201304031720 TAF KBLI 031720Z 0318/0418 00000KT P6SM BKN008 OVC050
                      TEMPO 0318/0319 SCT010 BKN050 FM031900 29003KT
                       P6SM SCT250 FM032300 04003KT P6SM OVC250
                       FM041300 00000KT P6SM OVC150=
201304031123 TAF KBLI 031123Z 0312/0412 VRB03KT P6SM OVC018 FM031800 17006KT
                       P6SM BKN025 BKN250 FM032000 21006KT P6SM
                       BKN040 BKN250 FM040000 VRB03KT P6SM BKN250
                       FM040400 VRB03KT P6SM SCT100 BKN200=
201304030520 TAF KBLI 030520Z 0306/0406 VRB03KT P6SM OVC035 FM030900 VRB03KT
                       P6SM OVC025 FM031800 17006KT P6SM BKN030
                       BKN250 FM032000 21006KT P6SM BKN040 BKN250=
201304022331 TAF KBLI 022331Z 0300/0324 17006KT P6SM SCT035 BKN050
                      TEMPO 0300/0302 BKN035 OVC050 FM030600 VRB03KT
                       P6SM OVC035 FM030900 VRB03KT P6SM OVC025
                       FM031800 17006KT P6SM BKN030 BKN250 FM032000
                       21006KT P6SM BKN040 BKN250=
201304021738 TAF KBLI 021738Z 0218/0318 17010KT P6SM VCSH OVC025 FM022100 19010KT
                       P6SM BKN035 OVC050 FM030000 19006KT P6SM
                       SCT035 BKN050 FM030600 VRB03KT P6SM OVC035
                       FM030900 VRB03KT P6SM OVC025=
201304021435 TAF AMD KBLI 021435Z 0215/0312 16010KT P6SM SCT017 OVC030 FM022000
                       19009KT P6SM BKN040=
201304021120 TAF KBLI 021120Z 0212/0312 16010KT P6SM OVC020 FM022000 19009KT
                       P6SM BKN025 FM022100 19009KT P6SM BKN030=
201304020520 TAF KBLI 020520Z 0206/0306 17008KT P6SM SCT012 SCT050
                      TEMPO 0206/0210 BKN012 OVC050 FM021000 19013KT
                       P6SM OVC012 FM022000 19009KT P6SM BKN025
                       FM022100 19009KT P6SM BKN030=
201304012328 TAF KBLI 012328Z 0200/0224 17010KT P6SM SKC FM021000 17007KT P6SM
                       FEW011 FM021300 17010KT P6SM OVC008 FM021800
                       19013KT P6SM OVC015 FM022000 19009KT P6SM
                       BKN022 FM022100 19009KT P6SM SCT030=
201304012242 TAF AMD KBLI 012242Z 0123/0218 19011KT P6SM FEW015 FM020000 17007KT
                       P6SM SKC FM021000 17007KT P6SM FEW011 FM021300
                       17010KT P6SM OVC008=
201304011943 TAF AMD KBLI 011943Z 0120/0218 19013KT P6SM SCT009
                      TEMPO 0120/0122 BKN009 FM012200 19009KT P6SM
                       SCT015 FM020000 17007KT P6SM SKC FM021000
                       17007KT P6SM FEW011 FM021300 17010KT P6SM
                       OVC008=
201304011740 TAF KBLI 011740Z 0118/0218 17013KT P6SM BKN005 FM012000 17011KT
                       P6SM BKN009 FM012200 17009KT P6SM SCT015
                       FM020000 17007KT P6SM SKC FM021000 17007KT
                       P6SM FEW011 FM021300 17010KT P6SM OVC008=
201304011120 TAF KBLI 011120Z 0112/0212 16004KT P6SM SKC FM012000 20006KT P6SM
                       SCT030=
201304010526 TAF KBLI 010526Z 0106/0206 00000KT P6SM SKC FM010900 16004KT P6SM
                       SKC FM011600 16004KT P6SM SKC FM012000 20006KT
                       P6SM SCT030=