##########################################################
# Query made at 02/16/2025 20:16:33 UTC
# Time interval: from 03/01/2013 00:00  to 03/31/2013 23:59  UTC
##########################################################

##########################################################
# KBLI, Bellingham, Bellingham International Airport (United States)
# WMO index: -----. WIGOS ID: Unknown
# Latitude 48-47-58N. Longitude 122-32-21W. Altitude 48 m.
##########################################################

###################################
#  METAR/SPECI from KBLI
###################################
201303312353 METAR KBLI 312353Z AUTO 31005KT 10SM CLR 18/06 A2995 RMK AO2 SLP149 T01780056 10178 20144 58019=
201303312253 METAR KBLI 312253Z 29005KT 10SM CLR 18/07 A2997 RMK AO2 SLP156 T01780067=
201303312153 METAR KBLI 312153Z 28006KT 10SM CLR 17/06 A2999 RMK AO2 SLP163 T01670061=
201303312053 METAR KBLI 312053Z VRB05KT 10SM CLR 17/06 A3001 RMK AO2 SLP168 T01670056 58011=
201303311953 METAR KBLI 311953Z 28007KT 10SM CLR 16/06 A3002 RMK AO2 SLP173 T01610061=
201303311853 METAR KBLI 311853Z 35004KT 10SM CLR 17/05 A3004 RMK AO2 SLP178 T01670050=
201303311753 METAR KBLI 311753Z 02008KT 10SM CLR 14/04 A3004 RMK AO2 SLP179 T01440039 10144 20017 58005=
201303311653 METAR KBLI 311653Z 02005KT 10SM CLR 12/04 A3005 RMK AO2 SLP182 T01220044=
201303311553 METAR KBLI 311553Z 36004KT 10SM CLR 10/04 A3005 RMK AO2 SLP185 T01000044=
201303311453 METAR KBLI 311453Z 34003KT 10SM CLR 08/04 A3005 RMK AO2 SLP185 T00780039 53001=
201303311353 METAR KBLI 311353Z AUTO 00000KT 3SM BR CLR 02/02 A3005 RMK AO2 SLP185 T00220017=
201303311253 METAR KBLI 311253Z AUTO 00000KT 9SM CLR 03/02 A3005 RMK AO2 SLP184 T00330022=
201303311153 METAR KBLI 311153Z AUTO 00000KT 10SM CLR 04/03 A3005 RMK AO2 SLP183 T00440033 10067 20022 56010=
201303311053 METAR KBLI 311053Z AUTO 00000KT 10SM CLR 05/04 A3006 RMK AO2 SLP186 T00500039=
201303311022 SPECI KBLI 311022Z AUTO 00000KT 9SM SCT001 04/03 A3006 RMK AO2=
201303311015 SPECI KBLI 311015Z AUTO 00000KT 1 1/2SM BR SCT001 03/03 A3007 RMK AO2=
201303311012 SPECI KBLI 311012Z AUTO 00000KT 3/4SM R16/4000VP6000FT BR VV001 03/02 A3007 RMK AO2=
201303311001 SPECI KBLI 311001Z AUTO 36004KT 1/2SM R16/1400VP6000FT FG VV002 02/02 A3007 RMK AO2=
201303310957 SPECI KBLI 310957Z AUTO 35004KT 1 3/4SM R16/1400VP6000FT BR BKN003 03/02 A3007 RMK AO2 VIS 3/4V5=
201303310953 METAR KBLI 310953Z AUTO 34003KT 2SM BR SCT003 03/03 A3007 RMK AO2 VIS 3/4V5 SLP191 T00330028=
201303310939 SPECI KBLI 310939Z AUTO 00000KT 1 3/4SM BR FEW003 04/03 A3008 RMK AO2 VIS 3/4V5=
201303310853 METAR KBLI 310853Z AUTO 00000KT 8SM CLR 04/03 A3008 RMK AO2 SLP194 T00440033 58005=
201303310753 METAR KBLI 310753Z AUTO 00000KT 10SM CLR 06/05 A3009 RMK AO2 SLP196 T00610050 401670017=
201303310653 METAR KBLI 310653Z AUTO 00000KT 10SM CLR 07/06 A3010 RMK AO2 SLP199 T00670056=
201303310648 SPECI KBLI 310648Z AUTO 00000KT 10SM CLR 07/05 A3010 RMK AO2=
201303310639 SPECI KBLI 310639Z AUTO 00000KT 2SM BR CLR 06/05 A3010 RMK AO2=
201303310553 METAR KBLI 310553Z AUTO 00000KT 10SM CLR 07/05 A3010 RMK AO2 SLP201 T00670050 10161 20067 58006=
201303310453 METAR KBLI 310453Z 00000KT 10SM CLR 07/06 A3011 RMK AO2 SLP205 T00720056=
201303310353 METAR KBLI 310353Z 00000KT 10SM CLR 09/06 A3012 RMK AO2 SLP207 T00890061=
201303310253 METAR KBLI 310253Z 00000KT 10SM CLR 11/07 A3012 RMK AO2 SLP208 T01110072 56013=
201303310153 METAR KBLI 310153Z 28003KT 10SM CLR 14/07 A3013 RMK AO2 SLP211 T01390072=
201303310053 METAR KBLI 310053Z 26006KT 10SM CLR 15/07 A3015 RMK AO2 SLP217 T01500072=
201303302353 METAR KBLI 302353Z 30006KT 10SM CLR 16/07 A3016 RMK AO2 SLP220 T01610067 10167 20128 56023=
201303302253 METAR KBLI 302253Z 27008KT 10SM CLR 16/07 A3018 RMK AO2 SLP228 T01560072=
201303302153 METAR KBLI 302153Z 26008KT 10SM CLR 16/07 A3020 RMK AO2 SLP234 T01560072=
201303302053 METAR KBLI 302053Z 29007KT 240V310 10SM CLR 15/07 A3023 RMK AO2 SLP243 T01500072 58013=
201303301953 METAR KBLI 301953Z VRB04KT 10SM CLR 15/07 A3024 RMK AO2 SLP248 T01500072=
201303301853 METAR KBLI 301853Z VRB03KT 10SM CLR 14/06 A3026 RMK AO2 SLP253 T01440061=
201303301753 METAR KBLI 301753Z 36006KT 10SM CLR 13/06 A3027 RMK AO2 SLP256 T01330061 10133 20017 58003=
201303301653 METAR KBLI 301653Z 01006KT 10SM CLR 10/06 A3027 RMK AO2 SLP260 T01000056=
201303301553 METAR KBLI 301553Z 35004KT 10SM CLR 07/05 A3028 RMK AO2 SLP261 T00720050 $=
201303301507 SPECI KBLI 301507Z 00000KT 6SM R16/1400V3500FT BR FEW001 04/04 A3028 RMK AO2 VCFG $=
201303301500 SPECI KBLI 301500Z 00000KT 3/4SM R16/1200V2200FT BR VV001 03/03 A3028 RMK AO2 $=
201303301453 METAR KBLI 301453Z 00000KT 1SM R16/1600VP6000FT BR BKN002 03/03 A3027 RMK AO2 SLP260 T00280028 53002 $=
201303301445 SPECI KBLI 301445Z 02003KT 1SM R16/P6000FT BR BKN002 02/02 A3027 RMK AO2 $=
201303301353 METAR KBLI 301353Z 00000KT 6SM R16/2800VP6000FT BR FEW001 02/01 A3027 RMK AO2 SLP259 VIS E-S 1/2 T00220011 $=
201303301253 METAR KBLI 301253Z AUTO 00000KT 7SM FEW001 02/02 A3027 RMK AO2 SLP258 T00220017 $=
201303301244 SPECI KBLI 301244Z AUTO 00000KT 2 1/2SM R16/4000VP6000FT BR FEW001 02/02 A3027 RMK AO2 $=
201303301228 SPECI KBLI 301228Z AUTO 00000KT 7SM CLR 03/03 A3027 RMK AO2 $=
201303301220 SPECI KBLI 301220Z AUTO 00000KT 2 1/2SM BR CLR 03/02 A3027 RMK AO2 $=
201303301153 METAR KBLI 301153Z AUTO 00000KT 4SM BR FEW002 03/02 A3027 RMK AO2 SLP258 T00330022 10067 20022 57002 $=
201303301149 SPECI KBLI 301149Z AUTO 00000KT 2SM R16/5000VP6000FT BR FEW002 03/02 A3027 RMK AO2 VIS 1 1/4V5 $=
201303301146 SPECI KBLI 301146Z AUTO 00000KT 1SM R16/2800VP6000FT BR VV002 02/02 A3027 RMK AO2 VIS 1/4V3 $=
201303301124 SPECI KBLI 301124Z AUTO 00000KT 1/4SM R16/2400VP6000FT FG VV002 03/03 A3027 RMK AO2 $=
201303301113 SPECI KBLI 301113Z AUTO 00000KT 1/4SM R16/2000V3000FT FG VV001 03/03 A3027 RMK AO2 $=
201303301100 SPECI KBLI 301100Z AUTO 00000KT 1/4SM R16/0700V1600FT FG VV001 04/03 A3027 RMK AO2=
201303301053 METAR KBLI 301053Z AUTO 00000KT 3/4SM R16/0700V1000FT BR VV001 03/03 A3027 RMK AO2 SLP259 T00330028=
201303301044 SPECI KBLI 301044Z AUTO 00000KT 1/4SM R16/0800V1200FT FG VV001 03/03 A3027 RMK AO2=
201303301027 SPECI KBLI 301027Z AUTO 00000KT 1/2SM R16/1600VP6000FT FG VV001 04/03 A3027 RMK AO2=
201303301024 SPECI KBLI 301024Z AUTO 00000KT 1SM R16/1600VP6000FT BR VV001 04/03 A3027 RMK AO2=
201303301022 SPECI KBLI 301022Z AUTO 00000KT 1 1/2SM R16/4000VP6000FT BR SCT002 04/03 A3027 RMK AO2=
201303301007 SPECI KBLI 301007Z AUTO 00000KT 4SM BR FEW002 04/03 A3027 RMK AO2=
201303300953 METAR KBLI 300953Z AUTO 00000KT 1 1/4SM BR SCT002 04/03 A3027 RMK AO2 VIS 1/4V5 SLP259 T00390033=
201303300923 SPECI KBLI 300923Z AUTO 00000KT 4SM BR CLR 05/04 A3028 RMK AO2=
201303300901 SPECI KBLI 300901Z AUTO 00000KT 1 3/4SM R16/5500VP6000FT BR CLR 06/04 A3028 RMK AO2 VIS 1V5=
201303300853 METAR KBLI 300853Z AUTO 00000KT 9SM CLR 06/04 A3028 RMK AO2 SLP259 T00560039 52008=
201303300753 METAR KBLI 300753Z AUTO 00000KT 4SM BR CLR 06/04 A3027 RMK AO2 SLP257 T00560044 401560044=
201303300653 METAR KBLI 300653Z AUTO 00000KT 10SM CLR 06/04 A3026 RMK AO2 SLP255 T00560039=
201303300553 METAR KBLI 300553Z AUTO 00000KT 10SM CLR 07/05 A3025 RMK AO2 SLP252 T00670050 10156 20067 51010=
201303300453 METAR KBLI 300453Z 00000KT 10SM CLR 08/06 A3025 RMK AO2 SLP251 T00780056=
201303300353 METAR KBLI 300353Z 00000KT 10SM CLR 09/06 A3024 RMK AO2 SLP248 T00890056=
201303300253 METAR KBLI 300253Z 00000KT 10SM CLR 11/06 A3022 RMK AO2 SLP242 T01060061 55003=
201303300153 METAR KBLI 300153Z 00000KT 10SM CLR 14/06 A3022 RMK AO2 SLP240 T01390061=
201303300053 METAR KBLI 300053Z VRB03KT 10SM CLR 15/06 A3023 RMK AO2 SLP243 T01500061=
201303292353 METAR KBLI 292353Z 28004KT 10SM CLR 15/06 A3023 RMK AO2 SLP244 T01500056 10156 20111 55007=
201303292253 METAR KBLI 292253Z 28004KT 10SM CLR 15/06 A3023 RMK AO2 SLP243 T01500061=
201303292153 METAR KBLI 292153Z 27006KT 10SM CLR 16/06 A3024 RMK AO2 SLP248 T01560061=
201303292053 METAR KBLI 292053Z VRB04KT 10SM CLR 14/07 A3025 RMK AO2 SLP251 T01440072 58002=
201303291953 METAR KBLI 291953Z VRB05KT 10SM CLR 13/07 A3026 RMK AO2 SLP252 T01330067=
201303291853 METAR KBLI 291853Z VRB04KT 10SM CLR 12/07 A3027 RMK AO2 SLP257 T01170072=
201303291753 METAR KBLI 291753Z 28004KT 10SM CLR 11/07 A3026 RMK AO2 SLP254 T01110067 10111 20044 51009=
201303291653 METAR KBLI 291653Z 26004KT 10SM CLR 10/07 A3025 RMK AO2 SLP252 T01000067=
201303291553 METAR KBLI 291553Z 00000KT 10SM CLR 09/07 A3024 RMK AO2 SLP249 T00940072=
201303291453 METAR KBLI 291453Z 00000KT 10SM FEW055 07/06 A3023 RMK AO2 SLP244 T00670056 51012=
201303291353 METAR KBLI 291353Z 00000KT 10SM FEW070 06/04 A3022 RMK AO2 SLP240 T00560044=
201303291253 METAR KBLI 291253Z AUTO 00000KT 10SM OVC060 06/05 A3021 RMK AO2 SLP237 T00610050=
201303291153 METAR KBLI 291153Z AUTO 00000KT 9SM OVC055 06/05 A3019 RMK AO2 SLP232 T00610050 10078 20050 53010=
201303291053 METAR KBLI 291053Z AUTO 00000KT 9SM BKN049 06/05 A3018 RMK AO2 SLP227 T00610050=
201303290953 METAR KBLI 290953Z AUTO 00000KT 10SM CLR 06/04 A3017 RMK AO2 SLP224 T00560039=
201303290853 METAR KBLI 290853Z AUTO 00000KT 8SM CLR 05/04 A3016 RMK AO2 SLP223 T00500039 51012=
201303290753 METAR KBLI 290753Z AUTO 00000KT 9SM CLR 07/06 A3016 RMK AO2 SLP220 T00670056 401560028=
201303290653 METAR KBLI 290653Z AUTO 15003KT 10SM FEW075 06/05 A3014 RMK AO2 SLP216 T00610050=
201303290553 METAR KBLI 290553Z AUTO 00000KT 10SM FEW070 07/05 A3013 RMK AO2 SLP210 T00720050 10150 20061 51015=
201303290453 METAR KBLI 290453Z 00000KT 10SM CLR 08/05 A3011 RMK AO2 SLP206 T00830050=
201303290353 METAR KBLI 290353Z 00000KT 10SM CLR 09/06 A3010 RMK AO2 SLP200 T00890056=
201303290253 METAR KBLI 290253Z 00000KT 10SM BKN065 13/05 A3008 RMK AO2 SLP195 T01280050 53004=
201303290153 METAR KBLI 290153Z 25003KT 10SM BKN060 14/04 A3008 RMK AO2 SLP192 T01390044=
201303290053 METAR KBLI 290053Z 20003KT 10SM CLR 14/05 A3007 RMK AO2 SLP192 T01440050=
201303282353 METAR KBLI 282353Z 00000KT 10SM CLR 15/06 A3007 RMK AO2 SLP191 T01500056 10156 20106 55005=
201303282253 METAR KBLI 282253Z 27004KT 10SM CLR 15/06 A3007 RMK AO2 SLP189 T01500056=
201303282153 METAR KBLI 282153Z 16008KT 10SM CLR 15/07 A3008 RMK AO2 SLP192 T01500072=
201303282053 METAR KBLI 282053Z 16007KT 10SM SCT090 OVC120 13/07 A3009 RMK AO2 SLP195 T01280067 58002=
201303281953 METAR KBLI 281953Z 22007KT 180V240 10SM FEW100 BKN120 12/06 A3009 RMK AO2 SLP197 T01220061=
201303281853 METAR KBLI 281853Z 17006KT 10SM BKN100 11/06 A3010 RMK AO2 SLP199 T01060056=
201303281753 METAR KBLI 281753Z 16004KT 10SM SCT070 BKN110 10/06 A3010 RMK AO2 SLP198 T01000056 10106 20028 53013=
201303281653 METAR KBLI 281653Z 17005KT 10SM CLR 09/06 A3008 RMK AO2 SLP194 T00940061=
201303281553 METAR KBLI 281553Z 00000KT 10SM OVC075 08/06 A3007 RMK AO2 SLP191 T00780056=
201303281453 METAR KBLI 281453Z 00000KT 8SM SCT075 05/04 A3006 RMK AO2 SLP186 T00500044 53012=
201303281353 METAR KBLI 281353Z 00000KT 7SM CLR 03/02 A3004 RMK AO2 SLP181 T00330022=
201303281253 METAR KBLI 281253Z AUTO 00000KT 6SM BR CLR 04/03 A3003 RMK AO2 SLP175 T00390028=
201303281153 METAR KBLI 281153Z AUTO 00000KT 10SM CLR 04/02 A3002 RMK AO2 SLP174 T00390022 10100 20039 53006=
201303281053 METAR KBLI 281053Z AUTO 00000KT 8SM CLR 05/03 A3001 RMK AO2 SLP171 T00500033=
201303280953 METAR KBLI 280953Z AUTO 00000KT 10SM SCT075 07/05 A3001 RMK AO2 SLP168 T00720050=
201303280853 METAR KBLI 280853Z AUTO 36003KT 10SM OVC080 08/04 A3000 RMK AO2 SLP167 T00780044 51003=
201303280753 METAR KBLI 280753Z AUTO 00000KT 10SM OVC080 09/05 A3000 RMK AO2 SLP166 T00890050 401610011=
201303280653 METAR KBLI 280653Z AUTO 00000KT 10SM BKN075 OVC085 09/05 A3000 RMK AO2 SLP167 T00890050=
201303280553 METAR KBLI 280553Z AUTO 00000KT 10SM OVC085 10/04 A3000 RMK AO2 SLP165 T01000044 10133 20089 52007=
201303280453 METAR KBLI 280453Z 00000KT 10SM BKN075 OVC090 09/05 A2999 RMK AO2 SLP163 T00940050=
201303280353 METAR KBLI 280353Z 00000KT 10SM OVC095 10/05 A2998 RMK AO2 SLP161 T01000050=
201303280253 METAR KBLI 280253Z 00000KT 10SM OVC100 11/05 A2998 RMK AO2 SLP159 T01110050 51005=
201303280153 METAR KBLI 280153Z 00000KT 10SM OVC095 12/04 A2997 RMK AO2 SLP158 T01170039=
201303280053 METAR KBLI 280053Z VRB04KT 10SM BKN090 BKN110 12/04 A2997 RMK AO2 SLP155 T01220044=
201303272353 METAR KBLI 272353Z VRB03KT 10SM OVC100 13/04 A2996 RMK AO2 SLP153 T01280039 10161 20111 53003=
201303272253 METAR KBLI 272253Z 26005KT 10SM OVC110 13/04 A2996 RMK AO2 SLP152 T01330039=
201303272153 METAR KBLI 272153Z VRB06KT 10SM BKN100 15/06 A2995 RMK AO2 SLP149 T01500056=
201303272053 METAR KBLI 272053Z VRB03KT 10SM OVC120 16/04 A2995 RMK AO2 SLP150 T01560044 57004=
201303271953 METAR KBLI 271953Z 01006KT 10SM BKN110 15/04 A2995 RMK AO2 SLP150 T01500039=
201303271853 METAR KBLI 271853Z 33005KT 10SM SCT100 13/04 A2996 RMK AO2 SLP154 T01280044=
201303271753 METAR KBLI 271753Z 03005KT 10SM CLR 11/04 A2996 RMK AO2 SLP154 T01110044 10111 20011 51000=
201303271653 METAR KBLI 271653Z 00000KT 10SM SCT110 08/04 A2996 RMK AO2 SLP155 T00830039=
201303271553 METAR KBLI 271553Z 00000KT 10SM CLR 06/04 A2996 RMK AO2 SLP155 T00560039 $=
201303271453 METAR KBLI 271453Z VRB03KT 10SM CLR 02/02 A2996 RMK AO2 SLP154 T00220017 56001=
201303271353 METAR KBLI 271353Z 35003KT 10SM CLR 01/01 A2996 RMK AO2 SLP154 T00110006=
201303271253 METAR KBLI 271253Z AUTO 00000KT 10SM CLR 03/02 A2996 RMK AO2 SLP155 T00280017=
201303271153 METAR KBLI 271153Z AUTO 00000KT 5SM BR CLR 03/02 A2996 RMK AO2 SLP155 T00330017 10056 20028 56003=
201303271053 METAR KBLI 271053Z AUTO 00000KT 10SM CLR 03/02 A2997 RMK AO2 SLP156 T00280017=
201303270953 METAR KBLI 270953Z AUTO 00000KT 10SM CLR 04/03 A2997 RMK AO2 SLP156 T00390028=
201303270853 METAR KBLI 270853Z AUTO 00000KT 9SM CLR 04/03 A2997 RMK AO2 SLP158 T00440033 56002=
201303270753 METAR KBLI 270753Z AUTO 00000KT 10SM CLR 04/03 A2998 RMK AO2 SLP159 T00440028 401440006=
201303270653 METAR KBLI 270653Z AUTO 00000KT 10SM CLR 05/03 A2998 RMK AO2 SLP158 T00500028=
201303270553 METAR KBLI 270553Z AUTO 00000KT 10SM CLR 05/02 A2998 RMK AO2 SLP160 T00500022 10144 20050 51002=
201303270453 METAR KBLI 270453Z 00000KT 10SM CLR 06/03 A2998 RMK AO2 SLP158 T00610028=
201303270353 METAR KBLI 270353Z 00000KT 10SM CLR 07/03 A2998 RMK AO2 SLP159 T00720028=
201303270253 METAR KBLI 270253Z 26003KT 10SM CLR 10/02 A2997 RMK AO2 SLP157 T01000022 56004=
201303270153 METAR KBLI 270153Z 00000KT 10SM CLR 12/02 A2997 RMK AO2 SLP158 T01220022=
201303270053 METAR KBLI 270053Z 31003KT 10SM CLR 13/02 A2998 RMK AO2 SLP158 T01330017=
201303262353 METAR KBLI 262353Z 29003KT 10SM CLR 14/01 A2998 RMK AO2 SLP161 T01390011 10139 20100 58009=
201303262253 METAR KBLI 262253Z 22004KT 10SM CLR 13/01 A3000 RMK AO2 SLP165 T01330011=
201303262153 METAR KBLI 262153Z VRB04KT 10SM FEW080 14/01 A3000 RMK AO2 SLP167 T01390011=
201303262053 METAR KBLI 262053Z 18005KT 10SM BKN080 13/03 A3001 RMK AO2 SLP170 T01330028 58004=
201303261953 METAR KBLI 261953Z VRB03KT 10SM BKN080 13/03 A3001 RMK AO2 SLP172 T01280033=
201303261853 METAR KBLI 261853Z VRB03KT 10SM BKN085 12/02 A3002 RMK AO2 SLP174 T01220022=
201303261753 METAR KBLI 261753Z 00000KT 10SM CLR 10/02 A3002 RMK AO2 SLP174 T01000022 10100 20006 53008=
201303261653 METAR KBLI 261653Z VRB03KT 10SM OVC065 07/03 A3002 RMK AO2 SLP173 T00720028=
201303261553 METAR KBLI 261553Z 00000KT 10SM SCT070 05/02 A3000 RMK AO2 SLP168 T00500022=
201303261453 METAR KBLI 261453Z 00000KT 10SM OVC110 03/02 A3000 RMK AO2 SLP167 T00280017 53004=
201303261353 METAR KBLI 261353Z 00000KT 10SM OVC110 02/01 A2999 RMK AO2 SLP165 T00170006=
201303261253 METAR KBLI 261253Z AUTO 00000KT 10SM OVC110 02/01 A2999 RMK AO2 SLP162 T00170006=
201303261153 METAR KBLI 261153Z AUTO 00000KT 10SM OVC110 02/00 A2999 RMK AO2 SLP162 T00170000 10044 20006 53001=
201303261053 METAR KBLI 261053Z AUTO 00000KT 8SM CLR 01/00 A2998 RMK AO2 SLP160 T00110000=
201303260953 METAR KBLI 260953Z AUTO 00000KT 10SM CLR 01/00 A2998 RMK AO2 SLP161 T00110000=
201303260853 METAR KBLI 260853Z AUTO 00000KT 10SM CLR 02/01 A2998 RMK AO2 SLP161 T00220011 51001=
201303260753 METAR KBLI 260753Z AUTO 00000KT 10SM CLR 03/02 A2998 RMK AO2 SLP160 T00330017 401500017=
201303260653 METAR KBLI 260653Z AUTO 00000KT 10SM CLR 03/01 A2998 RMK AO2 SLP162 T00280011=
201303260553 METAR KBLI 260553Z AUTO 00000KT 10SM CLR 04/02 A2998 RMK AO2 SLP160 T00440017 10133 20033 52005=
201303260453 METAR KBLI 260453Z 00000KT 10SM CLR 06/02 A2997 RMK AO2 SLP158 T00560022=
201303260353 METAR KBLI 260353Z 00000KT 10SM CLR 06/02 A2997 RMK AO2 SLP157 T00610022=
201303260253 METAR KBLI 260253Z 00000KT 10SM CLR 08/02 A2997 RMK AO2 SLP155 T00830017 55005=
201303260153 METAR KBLI 260153Z 30005KT 10SM CLR 12/02 A2996 RMK AO2 SLP154 T01170017=
201303260053 METAR KBLI 260053Z 27007KT 10SM CLR 12/02 A2997 RMK AO2 SLP155 T01220017=
201303252353 METAR KBLI 252353Z 28007KT 10SM CLR 13/02 A2998 RMK AO2 SLP160 T01330022 10150 20089 56017=
201303252253 METAR KBLI 252253Z 27007KT 240V310 10SM CLR 13/02 A2999 RMK AO2 SLP165 T01330022=
201303252153 METAR KBLI 252153Z 33005KT 10SM CLR 14/02 A3001 RMK AO2 SLP169 T01390017=
201303252053 METAR KBLI 252053Z 03008KT 10SM CLR 14/00 A3003 RMK AO2 SLP177 T01390000 58019=
201303251953 METAR KBLI 251953Z 00000KT 10SM CLR 12/M01 A3005 RMK AO2 SLP184 T01221006=
201303251853 METAR KBLI 251853Z 35004KT 10SM CLR 12/01 A3007 RMK AO2 SLP192 T01170006=
201303251753 METAR KBLI 251753Z 00000KT 10SM CLR 09/01 A3009 RMK AO2 SLP196 T00890006 10094 20033 58004=
201303251653 METAR KBLI 251653Z 00000KT 10SM CLR 08/02 A3009 RMK AO2 SLP199 T00830017=
201303251553 METAR KBLI 251553Z 00000KT 10SM CLR 06/02 A3010 RMK AO2 SLP201 T00610017=
201303251453 METAR KBLI 251453Z 00000KT 10SM OVC100 04/01 A3010 RMK AO2 SLP201 T00390006 56003=
201303251353 METAR KBLI 251353Z 00000KT 10SM OVC100 03/00 A3010 RMK AO2 SLP201 T00330000=
201303251253 METAR KBLI 251253Z AUTO 35003KT 10SM OVC100 03/00 A3010 RMK AO2 SLP202 T00330000=
201303251153 METAR KBLI 251153Z AUTO 35003KT 10SM OVC100 03/M01 A3011 RMK AO2 SLP203 T00331006 10050 20028 57007=
201303251053 METAR KBLI 251053Z AUTO 00000KT 10SM OVC100 03/00 A3011 RMK AO2 SLP205 T00280000=
201303250953 METAR KBLI 250953Z AUTO 00000KT 10SM OVC100 04/M01 A3012 RMK AO2 SLP209 T00441006=
201303250853 METAR KBLI 250853Z AUTO 00000KT 10SM OVC100 03/00 A3013 RMK AO2 SLP211 T00330000 58002=
201303250753 METAR KBLI 250753Z AUTO 00000KT 10SM OVC110 03/M01 A3014 RMK AO2 SLP213 T00281006 401281006=
201303250653 METAR KBLI 250653Z AUTO 00000KT 10SM BKN110 03/M01 A3014 RMK AO2 SLP215 T00331006=
201303250553 METAR KBLI 250553Z AUTO 00000KT 10SM OVC120 03/00 A3014 RMK AO2 SLP214 T00330000 10122 20028 58001=
201303250453 METAR KBLI 250453Z 00000KT 10SM CLR 03/M01 A3014 RMK AO2 SLP215 T00281006=
201303250353 METAR KBLI 250353Z 00000KT 10SM CLR 04/01 A3014 RMK AO2 SLP215 T00440006=
201303250253 METAR KBLI 250253Z 00000KT 10SM CLR 06/01 A3014 RMK AO2 SLP215 T00610006 56011=
201303250153 METAR KBLI 250153Z 28003KT 10SM CLR 10/M01 A3015 RMK AO2 SLP218 T01001006=
201303250053 METAR KBLI 250053Z VRB03KT 10SM CLR 11/M02 A3016 RMK AO2 SLP222 T01111017=
201303242353 METAR KBLI 242353Z 00000KT 10SM CLR 12/M02 A3017 RMK AO2 SLP226 T01221022 10128 20067 58023=
201303242253 METAR KBLI 242253Z 34005KT 10SM CLR 11/M03 A3019 RMK AO2 SLP233 T01111033=
201303242153 METAR KBLI 242153Z 01005KT 10SM FEW110 11/M03 A3022 RMK AO2 SLP242 T01111028=
201303242053 METAR KBLI 242053Z 35006KT 10SM CLR 10/M02 A3024 RMK AO2 SLP250 T01001022 58013=
201303241953 METAR KBLI 241953Z 01005KT 10SM CLR 09/M01 A3025 RMK AO2 SLP254 T00891011=
201303241853 METAR KBLI 241853Z 34004KT 10SM FEW100 07/M01 A3027 RMK AO2 SLP261 T00721011=
201303241753 METAR KBLI 241753Z 00000KT 10SM OVC100 07/M02 A3028 RMK AO2 SLP262 T00671017 10067 20000 58003=
201303241653 METAR KBLI 241653Z 05004KT 10SM OVC100 05/M01 A3028 RMK AO2 SLP264 T00501011=
201303241553 METAR KBLI 241553Z 02004KT 10SM OVC100 03/M01 A3029 RMK AO2 SLP265 T00281011=
201303241453 METAR KBLI 241453Z 00000KT 10SM OVC100 01/M02 A3029 RMK AO2 SLP266 T00111017 56001=
201303241353 METAR KBLI 241353Z 00000KT 10SM OVC100 01/M02 A3029 RMK AO2 SLP266 T00061022=
201303241253 METAR KBLI 241253Z AUTO 00000KT 10SM OVC100 01/M02 A3029 RMK AO2 SLP265 T00061022=
201303241153 METAR KBLI 241153Z AUTO 00000KT 10SM OVC110 01/M02 A3029 RMK AO2 SLP266 T00061022 10028 21006 58006=
201303241053 METAR KBLI 241053Z AUTO 00000KT 10SM OVC110 01/M02 A3030 RMK AO2 SLP269 T00111017=
201303240953 METAR KBLI 240953Z AUTO 00000KT 10SM OVC110 01/M02 A3031 RMK AO2 SLP272 T00061017=
201303240853 METAR KBLI 240853Z AUTO 01003KT 10SM OVC110 M01/M02 A3031 RMK AO2 SLP273 T10061022 55003=
201303240753 METAR KBLI 240753Z AUTO 00000KT 10SM CLR 01/M03 A3031 RMK AO2 SLP272 T00111028 401001017=
201303240653 METAR KBLI 240653Z AUTO 01004KT 10SM OVC120 01/M02 A3031 RMK AO2 SLP273 T00111017=
201303240553 METAR KBLI 240553Z AUTO 00000KT 10SM OVC110 03/M01 A3032 RMK AO2 SLP276 T00281011 10094 20017 53001=
201303240453 METAR KBLI 240453Z 00000KT 10SM BKN120 03/M02 A3031 RMK AO2 SLP275 T00281017=
201303240353 METAR KBLI 240353Z 00000KT 10SM CLR 03/M01 A3031 RMK AO2 SLP274 T00331011=
201303240253 METAR KBLI 240253Z 00000KT 10SM CLR 04/M01 A3031 RMK AO2 SLP275 T00441006 55006=
201303240153 METAR KBLI 240153Z 00000KT 10SM CLR 08/M04 A3031 RMK AO2 SLP274 T00781039=
201303240053 METAR KBLI 240053Z 26004KT 10SM CLR 09/M04 A3032 RMK AO2 SLP277 T00891039=
201303232353 METAR KBLI 232353Z VRB03KT 10SM OVC048 09/M03 A3033 RMK AO2 SLP281 T00891028 10100 20056 56011=
201303232253 METAR KBLI 232253Z 00000KT 10SM BKN046 OVC055 09/M02 A3034 RMK AO2 SLP284 T00941022=
201303232153 METAR KBLI 232153Z 20005KT 10SM BKN048 BKN060 09/M04 A3035 RMK AO2 SLP286 T00891039=
201303232053 METAR KBLI 232053Z 00000KT 10SM CLR 08/M03 A3037 RMK AO2 SLP292 T00781033 56009=
201303231953 METAR KBLI 231953Z VRB04KT 10SM CLR 07/M01 A3037 RMK AO2 SLP294 T00671011=
201303231853 METAR KBLI 231853Z 17006KT 10SM FEW031 SCT043 06/M02 A3039 RMK AO2 SLP299 T00611017=
201303231753 METAR KBLI 231753Z 00000KT 10SM BKN110 06/00 A3039 RMK AO2 SLP301 T00610000 10061 21017 50000=
201303231653 METAR KBLI 231653Z 00000KT 10SM BKN047 04/01 A3040 RMK AO2 SLP303 T00390006=
201303231553 METAR KBLI 231553Z 00000KT 10SM OVC047 01/M01 A3040 RMK AO2 SLP304 T00111011=
201303231453 METAR KBLI 231453Z 00000KT 10SM CLR M01/M02 A3039 RMK AO2 SLP301 T10111022 52002=
201303231353 METAR KBLI 231353Z 00000KT 10SM FEW048 M02/M03 A3039 RMK AO2 SLP301 T10171033=
201303231253 METAR KBLI 231253Z AUTO 00000KT 10SM CLR M01/M02 A3038 RMK AO2 SLP299 T10061022=
201303231153 METAR KBLI 231153Z AUTO 00000KT 10SM CLR M01/M02 A3039 RMK AO2 SLP299 T10061022 10011 21017 54000=
201303231053 METAR KBLI 231053Z AUTO 00000KT 10SM CLR M01/M02 A3038 RMK AO2 SLP298 T10061022=
201303230953 METAR KBLI 230953Z AUTO 00000KT 10SM CLR M01/M03 A3039 RMK AO2 SLP299 T10111028=
201303230853 METAR KBLI 230853Z AUTO 00000KT 10SM BKN050 M01/M02 A3039 RMK AO2 SLP299 T10111022 51008=
201303230753 METAR KBLI 230753Z AUTO 00000KT 10SM CLR M01/M03 A3038 RMK AO2 SLP297 T10111028 400721011=
201303230653 METAR KBLI 230653Z AUTO 00000KT 10SM CLR 01/M01 A3037 RMK AO2 SLP294 T00061011=
201303230553 METAR KBLI 230553Z AUTO 00000KT 10SM CLR 01/M01 A3036 RMK AO2 SLP291 T00061011 10072 20006 50009=
201303230453 METAR KBLI 230453Z 00000KT 10SM CLR 02/M01 A3037 RMK AO2 SLP292 T00221011=
201303230353 METAR KBLI 230353Z 00000KT 10SM CLR 02/M01 A3035 RMK AO2 SLP287 T00171011=
201303230253 METAR KBLI 230253Z 00000KT 10SM CLR 04/M02 A3033 RMK AO2 SLP281 T00391017 53002=
201303230153 METAR KBLI 230153Z 00000KT 10SM CLR 06/M02 A3032 RMK AO2 SLP278 T00611022=
201303230053 METAR KBLI 230053Z VRB05KT 10SM FEW047 07/M03 A3033 RMK AO2 SLP280 T00671033=
201303222353 METAR KBLI 222353Z 29007KT 10SM CLR 07/M03 A3033 RMK AO2 SLP279 60000 T00721028 10072 20028 53004=
201303222253 METAR KBLI 222253Z 26007KT 10SM CLR 07/M02 A3032 RMK AO2 SLP277 T00721022=
201303222153 METAR KBLI 222153Z 29008G14KT 10SM FEW035 SCT065 07/M02 A3032 RMK AO2 SLP276 T00671022=
201303222053 METAR KBLI 222053Z 27010KT 10SM FEW024 SCT029 BKN035 06/M01 A3032 RMK AO2 SLP275 60000 T00611006 51010=
201303221953 METAR KBLI 221953Z VRB06KT 10SM SCT025 BKN050 OVC065 06/01 A3030 RMK AO2 RAB09E32UPB32E35 SLP271 P0000 T00560011=
201303221853 METAR KBLI 221853Z 30010G14KT 10SM FEW012 BKN040 OVC049 04/02 A3030 RMK AO2 RAB16E42 SLP270 P0000 T00440017=
201303221753 METAR KBLI 221753Z 25007KT 220V290 10SM SCT028 BKN037 OVC090 05/M01 A3029 RMK AO2 SLP266 60000 T00501011 10050 20033 53016=
201303221653 METAR KBLI 221653Z 26007KT 10SM SCT028 BKN035 OVC048 05/M01 A3027 RMK AO2 SLP260 T00501011=
201303221553 METAR KBLI 221553Z VRB04KT 10SM SCT027 BKN032 04/M01 A3025 RMK AO2 SLP253 T00391011=
201303221453 METAR KBLI 221453Z 00000KT 10SM SCT025 BKN035 04/M01 A3024 RMK AO2 RAB30E39 SLP250 P0000 60000 T00391011 51010=
201303221353 METAR KBLI 221353Z AUTO VRB04KT 10SM FEW027 BKN042 OVC120 04/M01 A3023 RMK AO2 RAB16E23 SLP247 P0000 T00391006=
201303221253 METAR KBLI 221253Z AUTO 26005KT 10SM FEW028 SCT046 BKN110 04/M01 A3022 RMK AO2 SLP243 T00391011=
201303221153 METAR KBLI 221153Z AUTO VRB06KT 10SM SCT028 BKN038 OVC045 04/M01 A3021 RMK AO2 SLP240 60003 70004 T00391006 10044 20039 51009=
201303221117 SPECI KBLI 221117Z AUTO 25006KT 10SM SCT025 BKN030 OVC046 04/M01 A3021 RMK AO2=
201303221104 SPECI KBLI 221104Z AUTO VRB04KT 10SM BKN025 BKN030 OVC050 04/M01 A3021 RMK AO2=
201303221053 METAR KBLI 221053Z AUTO 28003KT 10SM SCT026 BKN036 OVC055 04/M01 A3020 RMK AO2 SLP237 T00391006=
201303221029 SPECI KBLI 221029Z AUTO 26007KT 10SM FEW024 OVC037 04/M01 A3020 RMK AO2=
201303221021 SPECI KBLI 221021Z AUTO 26004KT 10SM BKN026 OVC037 04/00 A3020 RMK AO2=
201303220953 METAR KBLI 220953Z AUTO 29005G17KT 10SM FEW025 BKN045 04/M02 A3020 RMK AO2 SLP233 T00441017=
201303220853 METAR KBLI 220853Z AUTO 30006KT 10SM FEW019 SCT033 OVC065 04/00 A3019 RMK AO2 RAB0758E38 SLP231 P0003 60003 T00390000 51003=
201303220851 SPECI KBLI 220851Z AUTO 29006KT 10SM FEW019 SCT027 OVC065 04/01 A3019 RMK AO2 RAB0758E38 P0003=
201303220753 METAR KBLI 220753Z AUTO 29005KT 10SM BKN021 OVC030 04/01 A3018 RMK AO2 RAB38E49 SLP229 P0000 T00440011 400830017=
201303220653 METAR KBLI 220653Z AUTO 27003KT 10SM OVC017 04/02 A3018 RMK AO2 SLP228 T00440017=
201303220553 METAR KBLI 220553Z AUTO 00000KT 10SM OVC015 04/02 A3017 RMK AO2 RAE02 SLP226 P0000 60001 T00390017 10067 20039 51010=
201303220453 METAR KBLI 220453Z 31007KT 10SM -RA BKN019 BKN032 OVC055 04/02 A3016 RMK AO2 RAB39 SLP222 P0000 T00440017=
201303220448 SPECI KBLI 220448Z 33004KT 10SM -RA BKN019 BKN024 OVC050 04/02 A3016 RMK AO2 RAB39 P0000=
201303220353 METAR KBLI 220353Z 16003KT 10SM BKN035 OVC043 04/02 A3014 RMK AO2 RAB29E51 SLP216 P0001 T00390017=
201303220253 METAR KBLI 220253Z 16008KT 10SM FEW041 SCT070 04/01 A3012 RMK AO2 SLP210 60000 T00440006 55001=
201303220153 METAR KBLI 220153Z 18005KT 10SM CLR 05/01 A3011 RMK AO2 SLP207 T00500006=
201303220053 METAR KBLI 220053Z 15009KT 10SM FEW060 06/00 A3012 RMK AO2 RAE02 SLP209 P0000 T00560000=
201303212353 METAR KBLI 212353Z VRB05KT 10SM -RA FEW022 BKN032 OVC055 05/01 A3013 RMK AO2 RAB30 SLP212 P0000 60000 T00500006 10083 20050 55000=
201303212253 METAR KBLI 212253Z 17010KT 10SM FEW032 BKN070 07/01 A3011 RMK AO2 SLP206 T00720006=
201303212153 METAR KBLI 212153Z VRB05KT 10SM FEW070 08/01 A3011 RMK AO2 SLP205 T00780006=
201303212053 METAR KBLI 212053Z 16007KT 10SM FEW033 07/M01 A3013 RMK AO2 SLP211 T00721006 58001=
201303211953 METAR KBLI 211953Z 18007KT 130V240 10SM OVC037 07/M01 A3013 RMK AO2 SLP212 T00721006=
201303211853 METAR KBLI 211853Z VRB06KT 10SM BKN033 BKN042 06/M01 A3014 RMK AO2 SLP215 T00611011=
201303211753 METAR KBLI 211753Z 24007KT 210V300 10SM FEW032 SCT041 BKN100 06/M02 A3013 RMK AO2 SLP212 T00611017 10061 20017 53015=
201303211653 METAR KBLI 211653Z VRB04KT 10SM SCT110 06/00 A3012 RMK AO2 SLP208 T00560000=
201303211553 METAR KBLI 211553Z VRB03KT 10SM SCT110 05/01 A3010 RMK AO2 SLP203 T00500006=
201303211453 METAR KBLI 211453Z VRB04KT 10SM CLR 03/00 A3009 RMK AO2 SLP198 T00330000 51012=
201303211353 METAR KBLI 211353Z 19003KT 10SM SCT100 03/M01 A3008 RMK AO2 SLP195 T00331006=
201303211253 METAR KBLI 211253Z AUTO 17003KT 10SM CLR 03/M01 A3007 RMK AO2 SLP191 T00281006=
201303211153 METAR KBLI 211153Z AUTO VRB03KT 10SM SCT110 04/M01 A3005 RMK AO2 SLP185 70011 T00391011 10056 20033 51020=
201303211053 METAR KBLI 211053Z AUTO VRB03KT 10SM CLR 04/M01 A3004 RMK AO2 SLP179 T00391011=
201303210953 METAR KBLI 210953Z AUTO VRB05KT 10SM FEW065 04/M01 A3001 RMK AO2 SLP172 T00441011=
201303210853 METAR KBLI 210853Z AUTO 20007G14KT 10SM BKN070 OVC080 04/M01 A2999 RMK AO2 SLP165 T00441011 51027=
201303210753 METAR KBLI 210753Z AUTO 19006KT 10SM BKN070 04/M01 A2997 RMK AO2 SLP156 T00441006 401170044=
201303210653 METAR KBLI 210653Z AUTO VRB05G18KT 10SM FEW050 SCT075 04/00 A2994 RMK AO2 SLP148 T00440000=
201303210553 METAR KBLI 210553Z AUTO 19007KT 160V230 10SM OVC065 06/M01 A2991 RMK AO2 SLP137 60000 T00561006 10078 20050 53044=
201303210453 METAR KBLI 210453Z 20007KT 10SM FEW050 06/M02 A2987 RMK AO2 PRESRR SLP122 T00561017=
201303210353 METAR KBLI 210353Z 20008G19KT 10SM CLR 06/00 A2982 RMK AO2 SLP105 T00560000=
201303210253 METAR KBLI 210253Z VRB06G17KT 10SM FEW060 07/M01 A2978 RMK AO2 SLP092 60000 T00671011 51051=
201303210153 METAR KBLI 210153Z 20013G23KT 160V230 10SM FEW065 BKN110 08/M01 A2974 RMK AO2 RAE09 PRESRR SLP076 P0000 T00781011=
201303210053 METAR KBLI 210053Z 23011G21KT 200V270 10SM -RA FEW026 BKN039 OVC047 07/01 A2969 RMK AO2 RAB46 SLP060 P0000 T00720011=
201303202353 METAR KBLI 202353Z 20011G18KT 150V230 10SM FEW120 08/02 A2963 RMK AO2 SLP041 60005 T00780017 10106 20078 53044=
201303202253 METAR KBLI 202253Z 19013G21KT 10SM FEW120 08/03 A2959 RMK AO2 PK WND 18027/2203 SLP029 T00780028=
201303202153 METAR KBLI 202153Z 19016G32KT 150V210 10SM FEW050 08/03 A2953 RMK AO2 PK WND 21034/2128 SLP008 T00830028=
201303202053 METAR KBLI 202053Z 17012G21KT 10SM FEW028 BKN037 BKN048 10/06 A2950 RMK AO2 SLP996 60005 T01000056 53043=
201303201953 METAR KBLI 201953Z 17011KT 10SM SCT034 SCT041 BKN100 10/06 A2946 RMK AO2 RAE1856 SLP983 P0000 T01000056=
201303201853 METAR KBLI 201853Z 18006KT 10SM -RA FEW029 BKN055 11/08 A2940 RMK AO2 PK WND 16026/1757 SLP964 P0005 T01060083=
201303201828 SPECI KBLI 201828Z VRB05KT 3SM -RA BR FEW020 BKN034 OVC046 10/09 A2939 RMK AO2 PK WND 16026/1757 P0004=
201303201753 METAR KBLI 201753Z 19009G21KT 3SM RA BR FEW012 BKN017 OVC030 09/08 A2937 RMK AO2 PK WND 15028/1716 PRESRR SLP953 P0005 60006 T00940083 10117 20094 53028=
201303201653 METAR KBLI 201653Z 16020G33KT 10SM -RA BKN023 BKN055 OVC070 11/07 A2932 RMK AO2 PK WND 14035/1628 RAE05B52 SLP936 P0000 T01110072=
201303201553 METAR KBLI 201553Z 15021G29KT 10SM -RA BKN023 OVC070 12/07 A2929 RMK AO2 PK WND 14037/1524 RAB1454E08B48 SLP925 P0000 T01170072=
201303201548 SPECI KBLI 201548Z 16018G28KT 10SM -RA BKN025 OVC070 12/07 A2929 RMK AO2 PK WND 14037/1524 RAB1454E08B48 P0000=
201303201453 METAR KBLI 201453Z 15018G26KT 10SM BKN030 BKN050 OVC070 11/07 A2930 RMK AO2 PK WND 14039/1405 RAE52 SLP928 P0001 60001 T01110067 55025=
201303201353 METAR KBLI 201353Z 15022G37KT 10SM -RA OVC075 12/07 A2929 RMK AO2 PK WND 15037/1351 RAB47 SLP927 P0000 T01170067=
201303201253 METAR KBLI 201253Z AUTO 15022G29KT 10SM SCT029 OVC075 11/06 A2933 RMK AO2 PK WND 13036/1236 SLP939 T01110061=
201303201153 METAR KBLI 201153Z AUTO 14019G32KT 10SM OVC095 11/06 A2937 RMK AO2 PK WND 13039/1101 SLP952 60003 70005 T01060056 10106 20056 58034=
201303201053 METAR KBLI 201053Z AUTO 15022G32KT 10SM FEW031 SCT070 BKN100 10/05 A2941 RMK AO2 PK WND 16032/1044 RAE07 SLP966 P0000 T01000050=
201303200953 METAR KBLI 200953Z AUTO 13020G29KT 10SM -RA FEW031 OVC055 10/06 A2945 RMK AO2 PK WND 12032/0903 SLP979 P0001 T01000061=
201303200853 METAR KBLI 200853Z AUTO 15015G27KT 10SM -RA OVC036 10/05 A2947 RMK AO2 PK WND 13027/0851 RAB0755 SLP986 P0001 60002 T01000050 56046=
201303200753 METAR KBLI 200753Z AUTO 32003KT 10SM OVC036 06/04 A2952 RMK AO2 RAE0657 SLP002 P0000 T00560039 401221006=
201303200653 METAR KBLI 200653Z AUTO 04005KT 10SM -RA OVC038 06/04 A2955 RMK AO2 SLP015 P0001 T00560039=
201303200553 METAR KBLI 200553Z AUTO VRB03KT 10SM -RA OVC040 06/03 A2961 RMK AO2 RAB11 SLP033 P0000 60002 T00610033 10117 20056 56048=
201303200453 METAR KBLI 200453Z 02007KT 10SM OVC040 06/03 A2965 RMK AO2 SLP048 T00560033=
201303200353 METAR KBLI 200353Z 02007KT 10SM OVC040 06/03 A2969 RMK AO2 RAE39 SLP064 P0002 T00560033=
201303200253 METAR KBLI 200253Z 05003KT 9SM -RA OVC040 07/03 A2975 RMK AO2 RAB47 SLP083 P0000 60000 T00720028 58029=
201303200153 METAR KBLI 200153Z 07007KT 10SM BKN055 OVC070 07/03 A2978 RMK AO2 RAE41 SLP092 P0000 T00720028=
201303200053 METAR KBLI 200053Z 11010KT 10SM -RA OVC045 09/02 A2982 RMK AO2 RAB09 SLP108 P0000 T00890022=
201303192353 METAR KBLI 192353Z 13017G28KT 10SM SCT050 OVC060 12/M01 A2983 RMK AO2 PK WND 11030/2335 RAB27E52 SLP111 P0000 60000 T01171011 10122 20067 56034=
201303192253 METAR KBLI 192253Z 02006KT 10SM SCT065 OVC080 10/00 A2986 RMK AO2 SLP120 T01000000=
201303192153 METAR KBLI 192153Z 04005KT 10SM BKN070 OVC090 10/M01 A2991 RMK AO2 SLP137 T01001006=
201303192053 METAR KBLI 192053Z 36007KT 10SM FEW110 10/M01 A2993 RMK AO2 SLP146 T01001011 58039 $=
201303191953 METAR KBLI 191953Z 02008KT 10SM CLR 09/M01 A2998 RMK AO2 SLP160 T00891011=
201303191853 METAR KBLI 191853Z 03008KT 10SM CLR 08/M02 A3002 RMK AO2 SLP173 T00831017=
201303191753 METAR KBLI 191753Z 04005KT 10SM CLR 07/M03 A3005 RMK AO2 SLP184 T00671028 10067 20006 58015=
201303191653 METAR KBLI 191653Z 06005KT 10SM CLR 05/M02 A3007 RMK AO2 SLP192 T00501022=
201303191553 METAR KBLI 191553Z 01006KT 10SM CLR 03/M02 A3008 RMK AO2 SLP194 T00281022=
201303191453 METAR KBLI 191453Z 01006KT 10SM CLR 02/M03 A3009 RMK AO2 SLP199 T00171028 58026=
201303191353 METAR KBLI 191353Z 01007KT 10SM CLR 01/M02 A3012 RMK AO2 SLP209 T00061022=
201303191253 METAR KBLI 191253Z AUTO 01007KT 10SM CLR 01/M02 A3015 RMK AO2 SLP219 T00061022=
201303191153 METAR KBLI 191153Z AUTO 02006KT 10SM CLR 01/M02 A3017 RMK AO2 SLP226 70001 T00061022 10039 21006 58016=
201303191053 METAR KBLI 191053Z AUTO 35004KT 10SM CLR 01/M02 A3019 RMK AO2 SLP233 T00061022=
201303190953 METAR KBLI 190953Z AUTO 36004KT 10SM CLR 00/M02 A3021 RMK AO2 SLP238 T00001017=
201303190853 METAR KBLI 190853Z AUTO 00000KT 10SM CLR 01/M01 A3022 RMK AO2 SLP241 T00061011 58006=
201303190753 METAR KBLI 190753Z AUTO 00000KT 10SM CLR 02/M01 A3023 RMK AO2 SLP245 T00221006 401000006=
201303190653 METAR KBLI 190653Z AUTO 11003KT 10SM CLR 03/M01 A3024 RMK AO2 SLP248 T00281011=
201303190553 METAR KBLI 190553Z AUTO 15003KT 10SM CLR 04/M01 A3023 RMK AO2 SLP247 T00391006 10089 20017 51008=
201303190453 METAR KBLI 190453Z 00000KT 10SM CLR 03/M01 A3023 RMK AO2 SLP247 T00331006=
201303190353 METAR KBLI 190353Z 00000KT 10SM CLR 06/M01 A3023 RMK AO2 SLP245 T00561006=
201303190253 METAR KBLI 190253Z 16004KT 10SM CLR 06/00 A3021 RMK AO2 SLP238 T00610000 53003=
201303190153 METAR KBLI 190153Z 16003KT 10SM FEW060 08/M01 A3020 RMK AO2 SLP236 T00831006=
201303190053 METAR KBLI 190053Z VRB03KT 10SM SCT065 08/M01 A3020 RMK AO2 SLP236 T00831006=
201303182353 METAR KBLI 182353Z 17008KT 10SM BKN060 OVC070 09/00 A3020 RMK AO2 SLP235 T00890000 10100 20061 53007=
201303182253 METAR KBLI 182253Z 16009KT 10SM FEW048 BKN060 09/M03 A3019 RMK AO2 SLP232 T00941028=
201303182153 METAR KBLI 182153Z 19007KT 10SM SCT050 09/M02 A3018 RMK AO2 SLP229 T00891017=
201303182053 METAR KBLI 182053Z VRB05KT 10SM CLR 09/M03 A3018 RMK AO2 SLP229 T00891033 51013=
201303181953 METAR KBLI 181953Z VRB06KT 10SM FEW042 SCT050 08/M02 A3017 RMK AO2 SLP224 T00781017=
201303181853 METAR KBLI 181853Z 25005KT 10SM SCT048 SCT055 07/00 A3016 RMK AO2 SLP221 T00720000=
201303181753 METAR KBLI 181753Z 26008KT 220V280 10SM BKN021 BKN037 OVC050 07/02 A3014 RMK AO2 SLP216 60001 T00670022 10067 20033 51023=
201303181700 SPECI KBLI 181700Z 25004KT 10SM SCT021 BKN028 07/03 A3012 RMK AO2=
201303181653 METAR KBLI 181653Z 22005KT 10SM SCT023 BKN034 OVC048 06/02 A3012 RMK AO2 RAB00E10 SLP209 P0000 T00610022=
201303181604 SPECI KBLI 181604Z VRB05KT 10SM -RA SCT023 BKN034 OVC048 06/02 A3011 RMK AO2 RAB00 P0000=
201303181553 METAR KBLI 181553Z VRB03KT 10SM BKN023 BKN030 BKN048 06/02 A3010 RMK AO2 SLP203 T00560022=
201303181507 SPECI KBLI 181507Z VRB04KT 10SM SCT029 OVC042 06/02 A3008 RMK AO2=
201303181453 METAR KBLI 181453Z 20004KT 10SM FEW017 BKN029 OVC040 06/03 A3007 RMK AO2 SLP192 60001 T00560028 53007=
201303181446 SPECI KBLI 181446Z 18007KT 140V210 10SM FEW017 SCT023 OVC030 06/03 A3008 RMK AO2=
201303181353 METAR KBLI 181353Z 17009G20KT 10SM BKN012 OVC020 04/03 A3005 RMK AO2 SLP185 T00440028=
201303181306 SPECI KBLI 181306Z AUTO 16010G24KT 10SM OVC014 04/02 A3004 RMK AO2=
201303181253 METAR KBLI 181253Z AUTO 15018G24KT 10SM BKN016 OVC023 04/02 A3004 RMK AO2 RAE08 SLP182 P0001 T00440022=
201303181245 SPECI KBLI 181245Z AUTO 15017G22KT 10SM BKN016 OVC021 04/02 A3004 RMK AO2 RAE08 P0001=
201303181229 SPECI KBLI 181229Z AUTO 16018G24KT 10SM BKN014 OVC034 04/02 A3005 RMK AO2 RAE08 P0001=
201303181153 METAR KBLI 181153Z AUTO 16013G23KT 8SM -RA FEW014 OVC026 04/02 A3005 RMK AO2 PK WND 16026/1139 SLP185 P0004 60011 70011 T00390017 10056 20039 58008=
201303181053 METAR KBLI 181053Z AUTO 15015G22KT 7SM -RA SCT013 OVC018 04/02 A3006 RMK AO2 SLP188 P0006 T00390022=
201303180953 METAR KBLI 180953Z AUTO 17019G27KT 10SM -RA FEW022 OVC029 04/02 A3007 RMK AO2 PK WND 17027/0952 SLP192 P0001 T00390022=
201303180853 METAR KBLI 180853Z AUTO 17015G20KT 10SM -RA BKN015 BKN021 OVC049 05/03 A3008 RMK AO2 RAB03 SLP193 P0000 60000 T00500028 58016=
201303180753 METAR KBLI 180753Z AUTO 18006KT 10SM OVC050 06/01 A3010 RMK AO2 SLP201 T00560011 400890044=
201303180653 METAR KBLI 180653Z AUTO 18006KT 10SM BKN120 05/01 A3012 RMK AO2 SLP207 T00500011=
201303180553 METAR KBLI 180553Z AUTO 17004KT 10SM BKN120 05/01 A3013 RMK AO2 SLP209 60000 T00500006 10083 20050 51006=
201303180453 METAR KBLI 180453Z VRB06KT 10SM CLR 06/01 A3012 RMK AO2 SLP210 T00560006=
201303180353 METAR KBLI 180353Z 20005KT 10SM BKN110 06/01 A3011 RMK AO2 SLP207 T00560006=
201303180253 METAR KBLI 180253Z 19005KT 10SM BKN090 06/01 A3011 RMK AO2 SLP204 60000 T00610006 56008=
201303180153 METAR KBLI 180153Z 19008KT 10SM FEW049 07/01 A3011 RMK AO2 RAB06E16 SLP204 P0000 T00670006=
201303180053 METAR KBLI 180053Z 19007KT 10SM BKN050 BKN060 08/01 A3012 RMK AO2 RAE01 SLP208 P0000 T00780006=
201303172353 METAR KBLI 172353Z 28007KT 240V300 10SM -RA SCT046 BKN060 OVC090 08/00 A3013 RMK AO2 RAB51 SLP212 P0000 60000 T00780000 10089 20072 55000=
201303172253 METAR KBLI 172253Z 17009G14KT 10SM CLR 09/01 A3013 RMK AO2 SLP210 T00890006=
201303172153 METAR KBLI 172153Z 17007KT 10SM SCT055 08/M01 A3013 RMK AO2 SLP210 T00831006=
201303172053 METAR KBLI 172053Z 16008KT 10SM SCT060 08/M01 A3013 RMK AO2 SLP212 T00781006 50000=
201303171953 METAR KBLI 171953Z VRB05KT 10SM CLR 07/M01 A3014 RMK AO2 SLP213 T00721011=
201303171853 METAR KBLI 171853Z 21006KT 10SM SCT037 08/M01 A3014 RMK AO2 SLP213 T00781006=
201303171753 METAR KBLI 171753Z 29005KT 10SM BKN055 07/M01 A3013 RMK AO2 SLP212 T00721006 10072 20050 51018=
201303171653 METAR KBLI 171653Z VRB04KT 10SM SCT055 06/00 A3012 RMK AO2 SLP209 T00560000=
201303171553 METAR KBLI 171553Z 18003KT 10SM OVC055 05/01 A3011 RMK AO2 SLP204 T00500006=
201303171453 METAR KBLI 171453Z 21005KT 10SM OVC055 05/00 A3008 RMK AO2 SLP193 T00500000 51022=
201303171353 METAR KBLI 171353Z AUTO 16004KT 10SM OVC055 05/00 A3006 RMK AO2 SLP186 T00500000=
201303171253 METAR KBLI 171253Z AUTO 17006KT 10SM OVC060 05/00 A3004 RMK AO2 SLP180 T00500000=
201303171153 METAR KBLI 171153Z AUTO 18004KT 10SM OVC048 05/00 A3001 RMK AO2 SLP172 70019 T00500000 10056 20039 51018=
201303171053 METAR KBLI 171053Z AUTO 18005KT 10SM BKN050 05/00 A3000 RMK AO2 SLP165 T00500000=
201303170953 METAR KBLI 170953Z AUTO VRB06KT 10SM FEW036 OVC055 05/01 A2998 RMK AO2 SLP160 T00500006=
201303170853 METAR KBLI 170853Z AUTO 00000KT 10SM BKN060 05/01 A2996 RMK AO2 SLP153 T00500006 53022=
201303170753 METAR KBLI 170753Z AUTO 17004KT 10SM OVC055 05/02 A2994 RMK AO2 SLP145 T00500017 400890039=
201303170653 METAR KBLI 170653Z AUTO 18004KT 10SM OVC060 05/02 A2992 RMK AO2 SLP139 T00500017=
201303170606 SPECI KBLI 170606Z AUTO 18006KT 10SM FEW018 BKN060 OVC110 04/02 A2990 RMK AO2=
201303170553 METAR KBLI 170553Z AUTO 19003KT 10SM FEW020 BKN029 OVC110 04/03 A2990 RMK AO2 SLP131 60003 T00390028 10083 20039 51008=
201303170517 SPECI KBLI 170517Z 00000KT 10SM SCT023 BKN038 OVC070 05/03 A2989 RMK AO2=
201303170453 METAR KBLI 170453Z 00000KT 10SM FEW017 BKN025 OVC042 04/03 A2989 RMK AO2 RAE11 SLP131 P0002 T00440028=
201303170444 SPECI KBLI 170444Z 00000KT 10SM FEW017 BKN025 OVC042 04/03 A2990 RMK AO2 RAE11 P0002=
201303170430 SPECI KBLI 170430Z 26003KT 10SM FEW018 BKN040 OVC120 05/03 A2990 RMK AO2 RAE11 P0002=
201303170353 METAR KBLI 170353Z 27005KT 6SM -RA BR FEW014 OVC028 05/03 A2989 RMK AO2 RAB29 SLP129 P0001 T00500033=
201303170253 METAR KBLI 170253Z VRB04KT 10SM BKN060 OVC070 07/M01 A2987 RMK AO2 SLP123 T00671006 53009=
201303170153 METAR KBLI 170153Z 22006KT 10SM BKN055 OVC070 07/00 A2986 RMK AO2 SLP119 T00720000=
201303170053 METAR KBLI 170053Z 22007KT 180V300 10SM FEW035 SCT070 OVC110 08/00 A2985 RMK AO2 SLP115 T00830000=
201303162353 METAR KBLI 162353Z VRB05KT 10SM SCT023 BKN050 OVC080 08/01 A2985 RMK AO2 SLP115 60013 T00780011 10089 20072 55006=
201303162253 METAR KBLI 162253Z VRB05KT 10SM FEW023 SCT048 OVC070 08/03 A2983 RMK AO2 SLP110 T00830028=
201303162153 METAR KBLI 162153Z 17004KT 10SM FEW023 SCT041 OVC048 08/06 A2985 RMK AO2 RAE41 SLP114 P0000 T00780061=
201303162053 METAR KBLI 162053Z 17005KT 10SM -RA OVC047 08/07 A2986 RMK AO2 RAE12B47 SLP121 P0001 60013 T00780067 58028=
201303162027 SPECI KBLI 162027Z 19003KT 10SM FEW024 BKN030 OVC037 08/07 A2988 RMK AO2 RAE12 P0001=
201303161953 METAR KBLI 161953Z VRB05KT 5SM -RA BR SCT009 BKN025 OVC030 07/07 A2991 RMK AO2 RAB02 SLP135 P0012 T00720067=
201303161945 SPECI KBLI 161945Z VRB04KT 3SM -RA BR FEW004 BKN018 OVC026 08/07 A2991 RMK AO2 RAB02 P0012=
201303161914 SPECI KBLI 161914Z 20007KT 3SM RA BR BKN011 BKN019 OVC024 08/07 A2991 RMK AO2 RAB02 P0003=
201303161853 METAR KBLI 161853Z 17008G16KT 10SM OVC023 09/07 A2992 RMK AO2 SLP140 T00890067=
201303161800 SPECI KBLI 161800Z 17010KT 10SM FEW013 SCT019 OVC027 08/07 A2994 RMK AO2=
201303161753 METAR KBLI 161753Z 17010KT 10SM BKN013 BKN019 OVC025 08/07 A2995 RMK AO2 RAB07E38 SLP149 P0003 60003 T00830067 10083 20078 56013=
201303161749 SPECI KBLI 161749Z 17007KT 10SM BKN013 OVC019 08/07 A2995 RMK AO2 RAB07E38 P0003=
201303161653 METAR KBLI 161653Z 17008KT 10SM OVC028 08/06 A2997 RMK AO2 SLP156 T00830061=
201303161637 SPECI KBLI 161637Z 17008KT 10SM BKN030 OVC038 08/07 A2997 RMK AO2=
201303161553 METAR KBLI 161553Z 14005KT 10SM BKN020 OVC030 08/06 A2998 RMK AO2 RAB13E24 SLP162 P0000 T00830061=
201303161453 METAR KBLI 161453Z 15006KT 10SM SCT020 BKN025 08/06 A2999 RMK AO2 SLP164 T00830056 58016=
201303161417 SPECI KBLI 161417Z 16006KT 10SM FEW019 SCT024 BKN029 08/06 A3000 RMK AO2=
201303161353 METAR KBLI 161353Z 17005KT 10SM BKN050 08/07 A3001 RMK AO2 SLP168 T00830067=
201303161253 METAR KBLI 161253Z AUTO 17005KT 10SM FEW080 08/07 A3003 RMK AO2 SLP174 T00830067=
201303161153 METAR KBLI 161153Z AUTO 16007KT 10SM OVC055 08/07 A3004 RMK AO2 RAB37E47 SLP179 P0000 60003 70020 T00830067 10094 20083 58017=
201303161053 METAR KBLI 161053Z AUTO 17008KT 10SM FEW005 OVC043 08/08 A3006 RMK AO2 SLP187 T00830078=
201303160953 METAR KBLI 160953Z AUTO 16010KT 10SM SCT003 OVC045 08/08 A3008 RMK AO2 RAE18B38E52 SLP192 P0001 T00830078=
201303160910 SPECI KBLI 160910Z AUTO 18008KT 9SM -RA FEW005 OVC046 09/08 A3009 RMK AO2 P0001=
201303160853 METAR KBLI 160853Z AUTO 17005KT 9SM -RA OVC048 09/08 A3009 RMK AO2 RAB22 SLP196 P0002 60002 T00890078 57008=
201303160753 METAR KBLI 160753Z AUTO 17006KT 10SM BKN060 OVC090 09/08 A3010 RMK AO2 SLP199 T00890078 401330061=
201303160653 METAR KBLI 160653Z AUTO 18005KT 10SM BKN070 BKN090 09/08 A3010 RMK AO2 SLP200 T00890078=
201303160553 METAR KBLI 160553Z AUTO 00000KT 9SM FEW005 OVC048 09/09 A3011 RMK AO2 RAB0456E51 SLP204 P0001 60017 T00940089 10133 20089 57003=
201303160545 SPECI KBLI 160545Z AUTO 16004KT 6SM -RA BR FEW005 OVC048 09/09 A3011 RMK AO2 RAB0456 P0001=
201303160453 METAR KBLI 160453Z 00000KT 6SM R16/4500VP6000FT BR BKN050 OVC060 09/09 A3011 RMK AO2 SLP205 T00890089=
201303160353 METAR KBLI 160353Z 00000KT 10SM SCT036 BKN047 OVC065 09/08 A3012 RMK AO2 SLP207 T00940083=
201303160253 METAR KBLI 160253Z 00000KT 10SM FEW015 BKN050 OVC075 09/09 A3012 RMK AO2 RAE47 SLP207 P0015 60016 T00940089 56005=
201303160153 METAR KBLI 160153Z 27010G15KT 8SM -RA FEW015 BKN034 OVC070 12/08 A3013 RMK AO2 RAB41 SLP211 P0001 T01170083=
201303160053 METAR KBLI 160053Z 19003KT 10SM OVC075 13/08 A3012 RMK AO2 SLP207 T01330078=
201303152353 METAR KBLI 152353Z 18007KT 10SM BKN075 13/08 A3013 RMK AO2 SLP211 60000 T01330078 10133 20106 56016=
201303152253 METAR KBLI 152253Z 16007KT 10SM OVC080 13/08 A3014 RMK AO2 RAB16E27 SLP214 P0000 T01280083=
201303152153 METAR KBLI 152153Z 19004KT 10SM FEW050 SCT065 OVC090 12/08 A3016 RMK AO2 RAE07B26E46 SLP221 P0000 T01220083=
201303152053 METAR KBLI 152053Z 18006KT 8SM -RA SCT060 SCT075 OVC090 12/08 A3018 RMK AO2 RAB48 SLP227 P0000 60000 T01170083 58002=
201303151953 METAR KBLI 151953Z VRB05KT 10SM FEW020 BKN095 12/08 A3019 RMK AO2 SLP228 T01170083=
201303151853 METAR KBLI 151853Z 19007KT 10SM SCT020 BKN100 12/08 A3019 RMK AO2 SLP229 T01170083=
201303151816 SPECI KBLI 151816Z 17009KT 10SM SCT020 BKN100 11/08 A3018 RMK AO2=
201303151753 METAR KBLI 151753Z 17007KT 10SM BKN018 11/08 A3019 RMK AO2 SLP229 T01060083 10106 20061 51007=
201303151653 METAR KBLI 151653Z 16007KT 10SM BKN018 BKN075 09/07 A3018 RMK AO2 SLP228 T00940072=
201303151553 METAR KBLI 151553Z 16006KT 10SM BKN018 BKN075 09/07 A3017 RMK AO2 SLP225 T00890067=
201303151453 METAR KBLI 151453Z 19005KT 10SM BKN016 BKN046 OVC075 08/07 A3016 RMK AO2 SLP223 T00830067 53007 $=
201303151433 SPECI KBLI 151433Z 00000KT 10SM BKN016 OVC046 07/07 A3016 RMK AO2 $=
201303151353 METAR KBLI 151353Z 00000KT 10SM BKN032 07/06 A3015 RMK AO2 SLP218 T00670056 $=
201303151253 METAR KBLI 151253Z AUTO 21003KT 10SM OVC030 08/07 A3014 RMK AO2 SLP216 T00830067 $=
201303151153 METAR KBLI 151153Z AUTO 00000KT 10SM FEW028 SCT055 08/07 A3014 RMK AO2 SLP216 60002 70018 T00830067 10100 20083 50002 $=
201303151053 METAR KBLI 151053Z AUTO 15006KT 10SM OVC060 09/07 A3015 RMK AO2 SLP216 T00940072=
201303151036 SPECI KBLI 151036Z AUTO 15006KT 10SM SCT026 BKN055 09/07 A3015 RMK AO2=
201303151006 SPECI KBLI 151006Z AUTO 15006KT 10SM BKN028 OVC060 09/07 A3016 RMK AO2=
201303150953 METAR KBLI 150953Z AUTO 14008KT 10SM FEW015 BKN030 BKN060 09/07 A3016 RMK AO2 SLP219 T00940072=
201303150853 METAR KBLI 150853Z AUTO 16011KT 10SM FEW014 OVC034 09/07 A3014 RMK AO2 RAE36 SLP213 P0001 60002 T00940072 51015=
201303150753 METAR KBLI 150753Z AUTO 17011KT 10SM -RA FEW017 SCT025 OVC050 09/07 A3013 RMK AO2 SLP209 P0001 T00940072 401280083=
201303150653 METAR KBLI 150653Z AUTO 15012KT 8SM -RA OVC019 10/07 A3012 RMK AO2 RAB38 SLP205 P0000 T01000072=
201303150553 METAR KBLI 150553Z AUTO 15012G19KT 10SM BKN023 OVC050 10/07 A3009 RMK AO2 RAB20E36 SLP197 P0000 60013 T01000067 10111 20100 53017=
201303150453 METAR KBLI 150453Z 15011KT 10SM BKN025 BKN045 OVC075 10/07 A3006 RMK AO2 SLP187 P0001 T01000067=
201303150405 SPECI KBLI 150405Z 15012KT 10SM BKN027 BKN035 OVC065 10/07 A3006 RMK AO2 P0001=
201303150353 METAR KBLI 150353Z 15013G20KT 10SM SCT027 SCT036 OVC060 10/07 A3006 RMK AO2 RAE32 SLP186 P0000 T01000067=
201303150300 SPECI KBLI 150300Z 15011G17KT 10SM -RA FEW036 BKN055 OVC075 10/07 A3004 RMK AO2 P0000=
201303150253 METAR KBLI 150253Z 15009KT 10SM -RA BKN027 BKN035 OVC050 10/07 A3004 RMK AO2 SLP181 P0006 60012 T01000072 51008=
201303150249 SPECI KBLI 150249Z 15010G18KT 9SM -RA BKN027 BKN035 OVC050 10/07 A3004 RMK AO2 P0006=
201303150240 SPECI KBLI 150240Z 14012G18KT 8SM -RA FEW027 BKN035 OVC050 10/07 A3004 RMK AO2 P0006=
201303150153 METAR KBLI 150153Z 15008KT 8SM -RA BKN029 OVC040 10/07 A3004 RMK AO2 SLP180 P0004 T01000072=
201303150053 METAR KBLI 150053Z 16010G19KT 8SM -RA OVC045 11/08 A3002 RMK AO2 SLP173 P0002 T01060078=
201303142353 METAR KBLI 142353Z 20004KT 9SM -RA FEW034 BKN047 OVC060 10/08 A3002 RMK AO2 SLP171 P0003 60003 T01000083 10117 20100 53003=
201303142253 METAR KBLI 142253Z 18008KT 7SM -RA BKN050 OVC060 11/08 A3001 RMK AO2 RAB28 SLP169 P0000 T01060083=
201303142153 METAR KBLI 142153Z 15009KT 10SM FEW033 OVC075 11/08 A3001 RMK AO2 SLP167 T01110083=
201303142053 METAR KBLI 142053Z 18007G15KT 10SM OVC095 12/09 A3001 RMK AO2 SLP168 T01170089 58007=
201303141953 METAR KBLI 141953Z 16009G16KT 10SM OVC100 11/08 A3002 RMK AO2 SLP173 T01110083=
201303141853 METAR KBLI 141853Z 18007KT 10SM OVC100 11/07 A3002 RMK AO2 SLP172 T01110067=
201303141753 METAR KBLI 141753Z 17010G16KT 10SM FEW080 OVC095 11/08 A3003 RMK AO2 SLP176 60000 T01060078 10106 20083 53007=
201303141653 METAR KBLI 141653Z 00000KT 5SM BR FEW002 OVC120 09/09 A3002 RMK AO2 SLP174 T00940089=
201303141553 METAR KBLI 141553Z 00000KT 4SM BR SCT002 SCT026 OVC110 09/08 A3001 RMK AO2 SLP169 T00890083=
201303141550 SPECI KBLI 141550Z 36004KT 5SM BR SCT002 SCT026 OVC110 09/08 A3001 RMK AO2=
201303141513 SPECI KBLI 141513Z 30005KT 3SM BR BKN002 OVC110 09/08 A3001 RMK AO2=
201303141453 METAR KBLI 141453Z 34004KT 3SM BR SCT002 OVC110 09/08 A3000 RMK AO2 SLP167 VIS W-NE 2BR 60000 T00890083 58004=
201303141434 SPECI KBLI 141434Z 03005KT 4SM BR OVC002 09/08 A3000 RMK AO2 VIS NW-SE 2BR=
201303141415 SPECI KBLI 141415Z 02006KT 2SM BR OVC002 09/08 A3000 RMK AO2=
201303141353 METAR KBLI 141353Z AUTO 33003KT 4SM BR SCT060 BKN070 OVC090 09/08 A3002 RMK AO2 RAB17E48 SLP171 P0000 T00890083=
201303141253 METAR KBLI 141253Z AUTO 00000KT 5SM BR BKN075 BKN100 OVC120 08/08 A3002 RMK AO2 SLP174 T00830083=
201303141153 METAR KBLI 141153Z AUTO 34003KT 5SM BR OVC039 09/08 A3002 RMK AO2 SLP172 60001 70035 T00940083 10133 20089 58006=
201303141053 METAR KBLI 141053Z AUTO 01005KT 3SM BR SCT002 BKN041 09/09 A3002 RMK AO2 SLP173 T00940089=
201303141046 SPECI KBLI 141046Z AUTO 01005KT 3SM BR BKN002 BKN043 09/09 A3002 RMK AO2=
201303141037 SPECI KBLI 141037Z AUTO 02004KT 4SM BR SCT002 SCT036 09/09 A3002 RMK AO2=
201303140953 METAR KBLI 140953Z AUTO 36003KT 10SM CLR 09/08 A3003 RMK AO2 SLP177 T00890083=
201303140853 METAR KBLI 140853Z AUTO 00000KT 10SM CLR 10/09 A3003 RMK AO2 SLP177 60001 T01000089 56008=
201303140753 METAR KBLI 140753Z AUTO 16006KT 10SM FEW120 13/08 A3004 RMK AO2 SLP178 T01330083 401330100=
201303140653 METAR KBLI 140653Z AUTO 16008KT 10SM OVC065 12/09 A3005 RMK AO2 RAE04B20E50 SLP182 P0001 T01220089 TSNO=
201303140553 METAR KBLI 140553Z AUTO 16005KT 10SM -RA FEW028 OVC060 12/09 A3006 RMK AO2 RAE00B50 SLP185 P0000 60019 T01170089 10122 20106 58006=
201303140453 METAR KBLI 140453Z 15007KT 10SM -RA BKN055 OVC070 12/09 A3006 RMK AO2 SLP187 P0002 T01170094=
201303140353 METAR KBLI 140353Z 15007KT 10SM -RA OVC055 12/09 A3008 RMK AO2 SLP191 P0002 T01170089=
201303140253 METAR KBLI 140253Z 15005KT 10SM -RA FEW026 OVC060 11/09 A3008 RMK AO2 SLP191 P0006 60015 T01110089 56008=
201303140153 METAR KBLI 140153Z 18005KT 10SM -RA FEW022 OVC070 11/09 A3008 RMK AO2 SLP192 P0003 T01110089=
201303140141 SPECI KBLI 140141Z 15009KT 9SM -RA SCT022 SCT028 OVC070 11/09 A3007 RMK AO2 P0002=
201303140100 SPECI KBLI 140100Z 17005KT 10SM -RA BKN026 OVC065 11/09 A3009 RMK AO2 P0000=
201303140053 METAR KBLI 140053Z 18006KT 10SM -RA SCT028 BKN065 11/09 A3009 RMK AO2 SLP198 P0006 T01060089=
201303132353 METAR KBLI 132353Z 16008KT 6SM -RA BR OVC070 11/09 A3010 RMK AO2 SLP199 P0006 60014 T01110089 10122 20111 56016=
201303132253 METAR KBLI 132253Z AUTO 15012KT 7SM -RA FEW050 OVC070 11/08 A3011 RMK AO2 SLP203 P0002 T01110083 TSNO=
201303132200 SPECI KBLI 132200Z 15011KT 4SM -RA FEW039 BKN050 OVC065 11/08 A3013 RMK AO2 P0001=
201303132153 METAR KBLI 132153Z 15011KT 5SM -RA BKN023 BKN060 OVC070 11/08 A3013 RMK AO2 SLP210 P0004 T01110083=
201303132140 SPECI KBLI 132140Z 16012G20KT 6SM -RA BKN023 BKN060 OVC070 12/08 A3013 RMK AO2 P0002=
201303132053 METAR KBLI 132053Z 16007KT 10SM -RA SCT018 BKN055 OVC070 12/08 A3015 RMK AO2 SLP216 P0001 60002 T01170083 53006=
201303132000 SPECI KBLI 132000Z 15014KT 10SM -RA SCT018 BKN055 OVC070 12/08 A3014 RMK AO2 P0000=
201303131953 METAR KBLI 131953Z 15014KT 10SM -RA BKN025 BKN055 OVC070 12/08 A3014 RMK AO2 RAE16B49 SLP212 P0001 T01220078=
201303131853 METAR KBLI 131853Z 15015G22KT 10SM -RA BKN024 OVC055 12/08 A3013 RMK AO2 RAB00 SLP208 P0000 T01170083=
201303131753 METAR KBLI 131753Z 15014G21KT 10SM OVC024 12/08 A3013 RMK AO2 SLP209 60001 T01170078 10117 20100 51013=
201303131653 METAR KBLI 131653Z 15013G21KT 10SM OVC024 12/08 A3013 RMK AO2 SLP208 T01170078=
201303131553 METAR KBLI 131553Z 15013KT 10SM BKN022 OVC055 11/08 A3011 RMK AO2 SLP202 T01110078=
201303131453 METAR KBLI 131453Z 15009KT 10SM BKN020 OVC055 11/08 A3009 RMK AO2 SLP196 60001 T01110083 58005=
201303131353 METAR KBLI 131353Z 15011G16KT 10SM OVC020 11/08 A3010 RMK AO2 RAE00 SLP201 P0000 T01060083=
201303131340 SPECI KBLI 131340Z AUTO 15006KT 10SM BKN018 OVC055 11/08 A3011 RMK AO2 RAE00 P0000=
201303131253 METAR KBLI 131253Z AUTO 16006KT 10SM -RA OVC048 11/08 A3010 RMK AO2 RAE16B51 SLP200 P0001 T01060083=
201303131153 METAR KBLI 131153Z AUTO 17006KT 8SM -RA FEW017 OVC032 10/09 A3010 RMK AO2 RAE12B48 SLP201 P0002 60027 70061 T01000089 10117 20100 50021=
201303131119 SPECI KBLI 131119Z AUTO 14009KT 10SM FEW016 BKN034 OVC049 11/09 A3010 RMK AO2 RAE12 P0001=
201303131053 METAR KBLI 131053Z AUTO 19006G19KT 7SM -RA SCT014 BKN022 OVC029 10/09 A3011 RMK AO2 SLP202 P0002 T01000089=
201303131029 SPECI KBLI 131029Z AUTO 17004KT 10SM -RA BKN029 OVC036 11/09 A3010 RMK AO2 P0001=
201303130953 METAR KBLI 130953Z AUTO 16010G18KT 6SM -RA BR FEW019 BKN036 OVC043 11/09 A3008 RMK AO2 SLP192 P0004 T01060089=
201303130853 METAR KBLI 130853Z AUTO 16010G14KT 8SM -RA SCT034 OVC045 11/09 A3004 RMK AO2 SLP180 P0010 60019 T01060089 51008=
201303130753 METAR KBLI 130753Z AUTO 15015G21KT 6SM -RA BR SCT037 OVC044 11/09 A3004 RMK AO2 SLP180 P0009 T01060089 401170050=
201303130653 METAR KBLI 130653Z AUTO 16015G23KT 8SM -RA SCT018 OVC039 11/08 A3004 RMK AO2 PK WND 14027/0554 RAE11B30 SLP179 P0000 T01110083=
201303130553 METAR KBLI 130553Z AUTO 16019G27KT 8SM -RA FEW020 OVC038 11/08 A3002 RMK AO2 PK WND 16028/0454 RAB16 SLP172 P0002 60012 T01110083 10117 20106 53001=
201303130453 METAR KBLI 130453Z 16018G27KT 10SM BKN048 OVC065 11/08 A3000 RMK AO2 PK WND 14030/0430 RAE16 SLP167 P0000 T01110083=
201303130433 SPECI KBLI 130433Z 15019G30KT 10SM SCT021 SCT048 OVC065 11/08 A3000 RMK AO2 PK WND 14030/0430 RAE16 P0000=
201303130353 METAR KBLI 130353Z 16017G25KT 10SM -RA BKN021 OVC050 11/08 A3002 RMK AO2 PK WND 16027/0321 SLP172 P0006 T01060083=
201303130323 SPECI KBLI 130323Z 15015G27KT 9SM -RA FEW025 SCT043 OVC049 11/09 A3001 RMK AO2 PK WND 16027/0321 P0003=
201303130253 METAR KBLI 130253Z 16014G25KT 9SM -RA BKN025 OVC050 11/09 A3002 RMK AO2 SLP171 P0003 60004 T01110089 55001=
201303130209 SPECI KBLI 130209Z 16012KT 10SM -RA BKN025 OVC050 11/09 A3000 RMK AO2 P0001=
201303130200 SPECI KBLI 130200Z 16013G21KT 10SM -RA FEW025 OVC050 11/09 A3000 RMK AO2 P0001=
201303130153 METAR KBLI 130153Z 15014G21KT 10SM -RA BKN024 OVC050 12/09 A3000 RMK AO2 PK WND 14026/0119 SLP165 P0000 T01170089=
201303130105 SPECI KBLI 130105Z 15015G22KT 10SM -RA BKN024 OVC050 12/08 A3001 RMK AO2 P0000=
201303130053 METAR KBLI 130053Z 16013G21KT 10SM -RA SCT024 OVC050 12/08 A3001 RMK AO2 SLP169 P0001 T01170083=
201303122353 METAR KBLI 122353Z 15010KT 10SM -RA OVC020 11/09 A3002 RMK AO2 RAB01 SLP173 P0001 60013 T01110089 10111 20100 58004=
201303122253 METAR KBLI 122253Z 16013G20KT 10SM BKN018 OVC030 11/09 A3003 RMK AO2 SLP177 T01110089=
201303122153 METAR KBLI 122153Z 16014G21KT 10SM BKN016 OVC025 11/09 A3003 RMK AO2 RAB11E47 SLP178 P0001 T01060089=
201303122144 SPECI KBLI 122144Z 16014G21KT 5SM -RA BR BKN016 BKN021 OVC026 11/09 A3003 RMK AO2 RAB11 P0001=
201303122130 SPECI KBLI 122130Z 17014G23KT 2SM -RA BR BKN016 OVC025 11/09 A3003 RMK AO2 RAB11 P0001=
201303122053 METAR KBLI 122053Z 16013G21KT 7SM SCT015 BKN020 OVC044 11/09 A3003 RMK AO2 RAE1957 SLP177 P0000 60011 T01060089 51010=
201303121953 METAR KBLI 121953Z 17014G20KT 9SM -RA BKN016 BKN031 OVC042 11/09 A3003 RMK AO2 SLP176 P0005 T01060089=
201303121853 METAR KBLI 121853Z 16014G22KT 5SM -RA BR FEW019 BKN025 OVC041 10/09 A3002 RMK AO2 SLP174 P0006 T01000089=
201303121753 METAR KBLI 121753Z 16013G21KT 9SM -RA FEW019 BKN025 OVC041 11/08 A3000 RMK AO2 SLP167 P0002 60009 T01060083 10106 20050 53009=
201303121653 METAR KBLI 121653Z 15016G22KT 10SM -RA BKN019 OVC055 11/08 A2996 RMK AO2 PK WND 15030/1559 SLP152 P0004 T01060083=
201303121553 METAR KBLI 121553Z 15021G28KT 5SM -RA BR BKN019 BKN042 OVC060 11/08 A2997 RMK AO2 PK WND 15029/1532 SLP157 P0003 T01060083=
201303121453 METAR KBLI 121453Z 15016G23KT 9SM -RA OVC017 11/08 A2997 RMK AO2 RAB26 SLP158 P0000 60000 T01060083 58019=
201303121353 METAR KBLI 121353Z 15010G16KT 10SM OVC017 10/08 A3000 RMK AO2 SLP167 T01000078 $=
201303121308 SPECI KBLI 121308Z AUTO 15012G19KT 10SM BKN019 BKN037 OVC055 10/07 A3001 RMK AO2 $=
201303121253 METAR KBLI 121253Z AUTO 00000KT 10SM SCT019 SCT037 OVC055 05/04 A3002 RMK AO2 RAE1156 SLP172 P0000 T00500044 $=
201303121153 METAR KBLI 121153Z AUTO 36004KT 9SM -RA FEW002 SCT016 OVC032 05/04 A3003 RMK AO2 RAB47 SLP177 P0000 60030 70038 T00500044 10061 20050 58018 $=
201303121053 METAR KBLI 121053Z AUTO 34008KT 6SM BR FEW002 SCT020 OVC027 05/04 A3004 RMK AO2 SLP182 P0001 T00500044 $=
201303121022 SPECI KBLI 121022Z AUTO 34003KT 7SM SCT002 BKN027 OVC034 06/05 A3006 RMK AO2 P0001 $=
201303121010 SPECI KBLI 121010Z AUTO 36006KT 7SM BKN002 OVC029 06/05 A3007 RMK AO2 P0001 $=
201303121002 SPECI KBLI 121002Z AUTO 01005KT 7SM SCT002 BKN027 OVC035 06/05 A3007 RMK AO2 P0001 $=
201303120953 METAR KBLI 120953Z AUTO 36005KT 6SM BR BKN002 OVC027 06/05 A3008 RMK AO2 RAE09 SLP193 P0000 T00560050 $=
201303120935 SPECI KBLI 120935Z AUTO 33005KT 6SM BR FEW002 OVC027 06/06 A3008 RMK AO2 RAE09 P0000 $=
201303120853 METAR KBLI 120853Z AUTO 36004KT 5SM -RA BR OVC017 06/06 A3008 RMK AO2 SLP195 P0011 60029 T00560056 56025 $=
201303120753 METAR KBLI 120753Z AUTO 36004KT 4SM -RA BR BKN019 OVC023 06/05 A3010 RMK AO2 SLP202 P0011 T00610050 401060028=
201303120653 METAR KBLI 120653Z AUTO 03006KT 5SM -RA BR OVC025 06/05 A3013 RMK AO2 SLP210 P0007 T00610050=
201303120553 METAR KBLI 120553Z AUTO 03003KT 5SM -RA BR OVC025 06/06 A3016 RMK AO2 SLP221 P0006 60008 T00610056 10100 20061 58018=
201303120453 METAR KBLI 120453Z 06003KT 6SM -RA BR OVC023 07/05 A3018 RMK AO2 RAB0355 SLP228 P0002 T00670050=
201303120419 SPECI KBLI 120419Z 00000KT 6SM -RA BKN028 OVC037 07/04 A3019 RMK AO2 RAB0355 P0000=
201303120353 METAR KBLI 120353Z 00000KT 10SM BKN035 OVC060 08/03 A3019 RMK AO2 SLP233 T00780028=
201303120253 METAR KBLI 120253Z 00000KT 10SM SCT035 BKN042 OVC060 08/03 A3021 RMK AO2 SLP240 T00780033 58028=
201303120153 METAR KBLI 120153Z 00000KT 10SM OVC095 09/03 A3024 RMK AO2 SLP249 T00890033=
201303120053 METAR KBLI 120053Z 00000KT 10SM OVC100 09/04 A3027 RMK AO2 SLP259 T00890039=
201303112353 METAR KBLI 112353Z 32003KT 10SM OVC100 10/03 A3030 RMK AO2 SLP268 T01000028 10106 20078 56019=
201303112253 METAR KBLI 112253Z 34003KT 10SM SCT034 BKN110 10/03 A3031 RMK AO2 SLP273 T01000028=
201303112153 METAR KBLI 112153Z VRB03KT 10SM BKN034 10/03 A3032 RMK AO2 SLP276 T01000028=
201303112053 METAR KBLI 112053Z 00000KT 10SM BKN030 10/03 A3035 RMK AO2 SLP287 T01000028 58016=
201303111953 METAR KBLI 111953Z 00000KT 10SM CLR 09/03 A3038 RMK AO2 SLP294 T00940033=
201303111853 METAR KBLI 111853Z 00000KT 10SM FEW020 09/04 A3040 RMK AO2 SLP301 T00890039=
201303111753 METAR KBLI 111753Z 36004KT 10SM CLR 08/04 A3040 RMK AO2 SLP303 T00780039 10078 20028 58002=
201303111653 METAR KBLI 111653Z 00000KT 10SM SCT055 06/03 A3041 RMK AO2 SLP307 T00610033=
201303111553 METAR KBLI 111553Z 00000KT 10SM FEW047 04/03 A3041 RMK AO2 SLP306 T00390028=
201303111453 METAR KBLI 111453Z 00000KT 7SM FEW050 03/02 A3041 RMK AO2 SLP307 T00330022 58002=
201303111353 METAR KBLI 111353Z 00000KT 10SM BKN050 04/03 A3042 RMK AO2 SLP310 T00440028=
201303111253 METAR KBLI 111253Z AUTO 16004KT 10SM OVC050 05/03 A3042 RMK AO2 SLP309 T00500033=
201303111153 METAR KBLI 111153Z AUTO 16006KT 8SM OVC050 06/04 A3041 RMK AO2 SLP307 T00560044 10056 20044 58007=
201303111059 SPECI KBLI 111059Z AUTO 16007KT 10SM SCT009 SCT013 OVC050 06/04 A3042 RMK AO2=
201303111053 METAR KBLI 111053Z AUTO 16006KT 10SM BKN009 BKN013 OVC050 06/04 A3043 RMK AO2 SLP312 T00560039=
201303111016 SPECI KBLI 111016Z AUTO 16006KT 10SM OVC009 06/04 A3043 RMK AO2 CIG 007V012=
201303110953 METAR KBLI 110953Z AUTO 16006KT 10SM OVC011 06/04 A3044 RMK AO2 CIG 007V014 SLP315 T00560039=
201303110932 SPECI KBLI 110932Z AUTO 16003KT 10SM FEW008 BKN011 OVC035 05/03 A3044 RMK AO2=
201303110912 SPECI KBLI 110912Z AUTO 15004KT 10SM SCT010 SCT013 OVC035 05/03 A3044 RMK AO2=
201303110900 SPECI KBLI 110900Z AUTO 15004KT 10SM FEW008 BKN013 OVC035 05/03 A3044 RMK AO2=
201303110853 METAR KBLI 110853Z AUTO 16003KT 10SM BKN013 OVC035 05/03 A3044 RMK AO2 SLP315 T00500033 51004=
201303110753 METAR KBLI 110753Z AUTO 15005KT 10SM BKN011 05/04 A3043 RMK AO2 SLP314 T00500039 400720044=
201303110739 SPECI KBLI 110739Z AUTO 15005KT 10SM FEW009 SCT013 06/04 A3044 RMK AO2=
201303110653 METAR KBLI 110653Z AUTO 17005KT 10SM FEW013 05/04 A3043 RMK AO2 SLP314 T00500039=
201303110553 METAR KBLI 110553Z AUTO 17004KT 10SM CLR 04/03 A3042 RMK AO2 SLP311 T00440033 10067 20044 51001=
201303110453 METAR KBLI 110453Z 16004KT 10SM SCT011 06/03 A3042 RMK AO2 SLP310 T00560033=
201303110427 SPECI KBLI 110427Z 16005KT 10SM BKN011 BKN049 06/04 A3043 RMK AO2=
201303110353 METAR KBLI 110353Z 16006KT 10SM FEW011 SCT026 OVC049 06/04 A3043 RMK AO2 SLP312 T00610039=
201303110343 SPECI KBLI 110343Z 17006KT 10SM FEW011 SCT026 BKN049 06/04 A3043 RMK AO2=
201303110334 SPECI KBLI 110334Z 17006KT 10SM BKN026 OVC049 06/04 A3042 RMK AO2=
201303110327 SPECI KBLI 110327Z 16005KT 10SM SCT026 OVC049 06/04 A3042 RMK AO2=
201303110253 METAR KBLI 110253Z 16007KT 10SM BKN028 OVC047 07/04 A3042 RMK AO2 SLP310 T00670044 56004=
201303110210 SPECI KBLI 110210Z 17006KT 10SM OVC028 07/04 A3043 RMK AO2=
201303110153 METAR KBLI 110153Z 17005KT 10SM OVC030 07/04 A3042 RMK AO2 SLP310 T00670039=
201303110123 SPECI KBLI 110123Z 16006KT 10SM SCT028 OVC046 07/04 A3042 RMK AO2=
201303110053 METAR KBLI 110053Z 15008KT 10SM FEW006 SCT019 OVC026 07/04 A3042 RMK AO2 SLP310 T00670044=
201303110031 SPECI KBLI 110031Z 16007KT 10SM FEW006 BKN019 OVC026 07/05 A3043 RMK AO2=
201303102353 METAR KBLI 102353Z 16004KT 10SM FEW014 BKN026 OVC030 07/05 A3043 RMK AO2 SLP314 T00670050 10072 20061 56003=
201303102331 SPECI KBLI 102331Z 16006KT 7SM FEW011 SCT016 OVC030 07/05 A3044 RMK AO2=
201303102253 METAR KBLI 102253Z 17005KT 3SM BR FEW011 OVC018 07/05 A3044 RMK AO2 SLP317 T00670050=
201303102153 METAR KBLI 102153Z 16006KT 10SM OVC018 07/04 A3043 RMK AO2 SLP314 T00720044=
201303102053 METAR KBLI 102053Z 16005KT 10SM BKN018 OVC023 07/04 A3044 RMK AO2 SLP317 T00720044 56006=
201303101953 METAR KBLI 101953Z 17006KT 10SM OVC025 07/04 A3045 RMK AO2 SLP320 T00670044=
201303101917 SPECI KBLI 101917Z 18004KT 10SM BKN025 OVC036 07/04 A3045 RMK AO2=
201303101853 METAR KBLI 101853Z 17006KT 10SM BKN036 OVC055 07/04 A3045 RMK AO2 SLP321 T00720044=
201303101753 METAR KBLI 101753Z 17008KT 10SM OVC060 07/04 A3046 RMK AO2 SLP323 T00720039 10072 20050 50004=
201303101653 METAR KBLI 101653Z 17007KT 10SM BKN043 OVC065 07/04 A3046 RMK AO2 SLP324 T00720039=
201303101553 METAR KBLI 101553Z 17007KT 10SM OVC065 07/04 A3046 RMK AO2 SLP322 T00670044=
201303101453 METAR KBLI 101453Z 17004KT 10SM OVC035 06/03 A3045 RMK AO2 SLP319 T00610033 58009=
201303101353 METAR KBLI 101353Z 17003KT 10SM SCT080 BKN095 BKN110 05/03 A3046 RMK AO2 SLP322 T00500028=
201303101253 METAR KBLI 101253Z AUTO 00000KT 10SM OVC090 06/03 A3048 RMK AO2 SLP328 T00560033=
201303101153 METAR KBLI 101153Z AUTO 16003KT 10SM OVC080 06/03 A3048 RMK AO2 SLP329 T00560028 10061 20028 51002=
201303101053 METAR KBLI 101053Z AUTO 17003KT 10SM OVC075 06/03 A3047 RMK AO2 SLP326 T00560033=
201303100953 METAR KBLI 100953Z AUTO 00000KT 10SM OVC038 04/03 A3048 RMK AO2 SLP331 T00440033=
201303100853 METAR KBLI 100853Z AUTO 15003KT 10SM OVC038 06/03 A3047 RMK AO2 SLP326 T00560033 56004=
201303100753 METAR KBLI 100753Z AUTO 00000KT 10SM OVC095 05/03 A3047 RMK AO2 SLP327 T00500028 401111017=
201303100653 METAR KBLI 100653Z AUTO 17003KT 10SM CLR 03/02 A3048 RMK AO2 SLP331 T00280017=
201303100553 METAR KBLI 100553Z 00000KT 10SM CLR 05/03 A3048 RMK AO2 SLP330 T00500028 10106 20050 51007=
201303100453 METAR KBLI 100453Z 00000KT 10SM FEW110 07/03 A3048 RMK AO2 SLP328 T00670033=
201303100353 METAR KBLI 100353Z 16003KT 10SM CLR 05/04 A3048 RMK AO2 SLP331 T00500039=
201303100253 METAR KBLI 100253Z 15004KT 10SM SCT120 06/03 A3046 RMK AO2 SLP325 T00610033 53008=
201303100153 METAR KBLI 100153Z 16003KT 10SM CLR 08/04 A3044 RMK AO2 SLP319 T00830044=
201303100053 METAR KBLI 100053Z 16004KT 10SM CLR 10/04 A3045 RMK AO2 SLP319 T01000039=
201303092353 METAR KBLI 092353Z VRB03KT 10SM CLR 11/03 A3044 RMK AO2 SLP317 T01060028 10111 20061 53002 TSNO=
201303092253 METAR KBLI 092253Z 16006KT 10SM CLR 11/03 A3043 RMK AO2 SLP314 T01060033=
201303092153 METAR KBLI 092153Z 20006KT 10SM CLR 09/03 A3044 RMK AO2 SLP316 T00940033=
201303092053 METAR KBLI 092053Z 18005KT 10SM CLR 09/03 A3043 RMK AO2 SLP315 T00940028 50011=
201303091953 METAR KBLI 091953Z 18007KT 10SM CLR 08/03 A3044 RMK AO2 SLP316 T00830028=
201303091853 METAR KBLI 091853Z 17007KT 10SM CLR 07/03 A3043 RMK AO2 SLP315 T00720028=
201303091753 METAR KBLI 091753Z 19006KT 10SM CLR 07/03 A3040 RMK AO2 SLP304 T00720028 10078 21017 51016=
201303091653 METAR KBLI 091653Z 00000KT 10SM CLR 05/03 A3039 RMK AO2 SLP301 T00500033=
201303091553 METAR KBLI 091553Z 00000KT 9SM FEW038 00/M01 A3038 RMK AO2 SLP298 T00001011=
201303091453 METAR KBLI 091453Z 00000KT 10SM CLR M01/M02 A3035 RMK AO2 SLP288 T10111022 53015=
201303091415 SPECI KBLI 091415Z AUTO 00000KT 4SM BR FEW001 SCT034 M02/M03 A3034 RMK AO2=
201303091406 SPECI KBLI 091406Z AUTO 00000KT 1 3/4SM BR FEW001 M01/M02 A3034 RMK AO2 VIS 1/2V5=
201303091353 METAR KBLI 091353Z AUTO 00000KT 10SM CLR 00/M01 A3033 RMK AO2 SLP281 T00001011=
201303091253 METAR KBLI 091253Z AUTO 00000KT 3SM R16/2400VP6000FT BR FEW002 M01/M02 A3031 RMK AO2 SLP274 T10061017=
201303091241 SPECI KBLI 091241Z AUTO 00000KT 1 1/2SM BR FEW002 M01/M02 A3031 RMK AO2 VIS 1/2V5=
201303091238 SPECI KBLI 091238Z AUTO 00000KT 3SM R16/2600VP6000FT BR FEW002 M01/M02 A3031 RMK AO2=
201303091153 METAR KBLI 091153Z AUTO 00000KT 9SM CLR M01/M02 A3029 RMK AO2 SLP267 T10061017 10022 21011 51014=
201303091148 SPECI KBLI 091148Z AUTO 00000KT 4SM BR CLR M01/M02 A3029 RMK AO2=
201303091053 METAR KBLI 091053Z AUTO 00000KT 1 3/4SM BR CLR M01/M01 A3028 RMK AO2 SLP263 T10061011=
201303091030 SPECI KBLI 091030Z AUTO 00000KT 4SM BR CLR M01/M01 A3028 RMK AO2=
201303091020 SPECI KBLI 091020Z AUTO 00000KT 1 1/4SM BR CLR 00/M01 A3027 RMK AO2 VIS 3/4V5=
201303091012 SPECI KBLI 091012Z AUTO 00000KT 2SM BR CLR 01/00 A3027 RMK AO2=
201303090953 METAR KBLI 090953Z AUTO 00000KT 6SM BR CLR 01/M01 A3027 RMK AO2 SLP260 T00061006=
201303090853 METAR KBLI 090853Z AUTO 00000KT 10SM CLR 01/00 A3025 RMK AO2 SLP253 T00110000 52014=
201303090753 METAR KBLI 090753Z AUTO 00000KT 10SM CLR 01/M01 A3024 RMK AO2 SLP249 T00061006 401060006=
201303090653 METAR KBLI 090653Z AUTO 15003KT 10SM CLR 02/01 A3023 RMK AO2 SLP244 T00220011=
201303090553 METAR KBLI 090553Z 00000KT 10SM CLR 02/01 A3021 RMK AO2 SLP240 T00220011 10100 20017 52013=
201303090453 METAR KBLI 090453Z 00000KT 10SM CLR 03/02 A3020 RMK AO2 SLP236 T00280017=
201303090353 METAR KBLI 090353Z 00000KT 10SM CLR 03/02 A3018 RMK AO2 SLP230 T00330017=
201303090253 METAR KBLI 090253Z 00000KT 10SM CLR 04/02 A3017 RMK AO2 SLP226 T00390022 53012=
201303090153 METAR KBLI 090153Z 27003KT 10SM CLR 08/02 A3015 RMK AO2 SLP220 T00780022=
201303090053 METAR KBLI 090053Z 29005KT 10SM CLR 09/03 A3014 RMK AO2 SLP215 T00940028=
201303082353 METAR KBLI 082353Z VRB06KT 10SM CLR 09/03 A3014 RMK AO2 SLP214 T00940028 10106 20056 53005=
201303082253 METAR KBLI 082253Z 28006KT 10SM FEW029 10/03 A3013 RMK AO2 SLP213 T01000028=
201303082153 METAR KBLI 082153Z 29007KT 10SM SCT023 BKN038 09/04 A3013 RMK AO2 SLP209 T00940039=
201303082053 METAR KBLI 082053Z 32005KT 10SM FEW023 SCT029 BKN042 09/03 A3012 RMK AO2 SLP210 T00890033 58003=
201303081953 METAR KBLI 081953Z 33005KT 10SM SCT021 09/03 A3013 RMK AO2 SLP211 T00890033=
201303081853 METAR KBLI 081853Z 31003KT 10SM SCT035 08/04 A3013 RMK AO2 SLP213 T00780044=
201303081753 METAR KBLI 081753Z 00000KT 10SM FEW006 BKN042 06/04 A3013 RMK AO2 SLP212 T00560039 10056 20006 53001=
201303081700 SPECI KBLI 081700Z 35004KT 10SM SCT002 SCT007 OVC044 04/03 A3013 RMK AO2=
201303081653 METAR KBLI 081653Z 00000KT 3SM BR BKN002 OVC044 04/04 A3013 RMK AO2 SLP212 T00440039=
201303081641 SPECI KBLI 081641Z 00000KT 3SM BR BKN002 OVC044 04/04 A3013 RMK AO2=
201303081626 SPECI KBLI 081626Z 00000KT 3/4SM R16/P6000FT BR BKN002 OVC044 03/03 A3013 RMK AO2=
201303081611 SPECI KBLI 081611Z 00000KT 1/2SM R16/2600V4000FT FG BKN002 OVC044 03/03 A3013 RMK AO2=
201303081602 SPECI KBLI 081602Z 00000KT 1SM R16/3000VP6000FT BR OVC002 03/02 A3013 RMK AO2=
201303081553 METAR KBLI 081553Z 00000KT 1/4SM R16/2800V3500FT FG OVC002 02/02 A3013 RMK AO2 SLP211 T00220022=
201303081549 SPECI KBLI 081549Z 00000KT 1/4SM R16/2200V3000FT FG VV002 02/02 A3013 RMK AO2=
201303081539 SPECI KBLI 081539Z 00000KT 1/4SM R16/1400V2200FT FG VV002 02/02 A3012 RMK AO2=
201303081521 SPECI KBLI 081521Z 00000KT 1/4SM R16/2000V4500FT FG BKN002 OVC043 02/02 A3012 RMK AO2=
201303081453 METAR KBLI 081453Z AUTO 00000KT 1/4SM R16/1200V1600FT FG VV002 02/01 A3012 RMK AO2 SLP207 T00170011 53009=
201303081353 METAR KBLI 081353Z AUTO 00000KT 1/4SM R16/1200V1400FT FG VV002 02/01 A3010 RMK AO2 SLP201 T00170011 $=
201303081300 SPECI KBLI 081300Z AUTO 00000KT 1/4SM R16/1600V2200FT FG VV002 01/01 A3010 RMK AO2 $=
201303081253 METAR KBLI 081253Z AUTO 00000KT 1/4SM R16/1800V2400FT FG VV002 01/01 A3010 RMK AO2 SLP202 T00060006 $=
201303081246 SPECI KBLI 081246Z AUTO 00000KT 1/2SM R16/2000V2600FT FG VV002 01/01 A3010 RMK AO2 $=
201303081228 SPECI KBLI 081228Z AUTO 00000KT 1/2SM R16/2400V3500FT FG OVC001 01/01 A3009 RMK AO2 $=
201303081211 SPECI KBLI 081211Z AUTO 00000KT 1SM R16/P6000FT BR VV001 02/02 A3009 RMK AO2 $=
201303081204 SPECI KBLI 081204Z AUTO 08003KT 1/2SM R16/2000VP6000FT HZ VV001 02/M02 A3009 RMK AO2 $=
201303081153 METAR KBLI 081153Z AUTO 00000KT 1/2SM R16/4500VP6000FT FG OVC002 02/00 A3009 RMK AO2 SLP198 70006 T00170000 10039 20011 57004 $=
201303081144 SPECI KBLI 081144Z AUTO 00000KT 1 1/2SM BR OVC002 02/01 A3009 RMK AO2 $=
201303081116 SPECI KBLI 081116Z AUTO 00000KT 3SM BR BKN004 OVC038 02/02 A3009 RMK AO2 $=
201303081108 SPECI KBLI 081108Z AUTO 00000KT 2SM BR BKN004 BKN038 02/02 A3009 RMK AO2 $=
201303081102 SPECI KBLI 081102Z AUTO 00000KT 1 1/4SM BR SCT004 BKN038 02/01 A3009 RMK AO2 $=
201303081053 METAR KBLI 081053Z AUTO 00000KT 3/4SM R16/P6000FT BR SCT038 01/01 A3009 RMK AO2 SLP200 T00110006 $=
201303081051 SPECI KBLI 081051Z AUTO 00000KT 1/2SM R16/P6000FT FG SCT038 01/01 A3009 RMK AO2 $=
201303081044 SPECI KBLI 081044Z AUTO 00000KT 1/2SM R16/P6000FT FG VV001 01/01 A3009 RMK AO2 $=
201303081034 SPECI KBLI 081034Z AUTO 01004KT 1SM R16/P6000FT BR SCT001 SCT038 01/01 A3009 RMK AO2 $=
201303081021 SPECI KBLI 081021Z AUTO 00000KT 1/4SM R16/2000VP6000FT FG VV002 02/01 A3010 RMK AO2 $=
201303081007 SPECI KBLI 081007Z AUTO 00000KT 1/2SM R16/1600V2200FT FG VV002 03/03 A3010 RMK AO2 $=
201303081001 SPECI KBLI 081001Z AUTO 00000KT 3/4SM R16/1800VP6000FT BR BKN002 02/02 A3010 RMK AO2 $=
201303081000 METAR KBLI NIL=
201303080953 METAR KBLI 080953Z AUTO 00000KT 1/2SM R16/1800VP6000FT FG BKN002 BKN038 02/02 A3010 RMK AO2 SLP201 T00220017 $=
201303080930 SPECI KBLI 080930Z AUTO 00000KT 1/2SM R16/2400VP6000FT FG BKN040 03/03 A3010 RMK AO2 $=
201303080920 SPECI KBLI 080920Z AUTO 00000KT 3/4SM R16/3000VP6000FT BR BKN040 03/03 A3010 RMK AO2 $=
201303080853 METAR KBLI 080853Z AUTO 00000KT 1/2SM R16/1800V2600FT FG FEW001 BKN042 02/02 A3010 RMK AO2 SLP202 T00220022 50000 $=
201303080807 SPECI KBLI 080807Z AUTO 00000KT 1/2SM R16/2000V2800FT FG FEW001 BKN038 03/03 A3010 RMK AO2 $=
201303080753 METAR KBLI 080753Z AUTO 00000KT 1/4SM R16/1400V2000FT FG SCT001 OVC040 04/04 A3010 RMK AO2 SLP202 T00390039 400830028 $=
201303080733 SPECI KBLI 080733Z AUTO 00000KT 1/2SM R16/4500V6000FT FG SCT001 OVC042 04/04 A3010 RMK AO2 $=
201303080723 SPECI KBLI 080723Z AUTO 00000KT 1/2SM R16/3500VP6000FT FG BKN001 OVC042 04/03 A3010 RMK AO2 $=
201303080653 METAR KBLI 080653Z AUTO 00000KT 1/2SM R16/1600V2600FT HZ FEW001 OVC042 03/M02 A3010 RMK AO2 SLP203 T00331017 $=
201303080629 SPECI KBLI 080629Z 00000KT 1/4SM R16/1800V2200FT FG FEW001 BKN042 03/02 A3011 RMK AO2 $=
201303080624 SPECI KBLI 080624Z 00000KT 5SM R16/1800VP6000FT BR FEW001 BKN042 03/02 A3011 RMK AO2 $=
201303080605 SPECI KBLI 080605Z 00000KT 5SM BR OVC044 04/04 A3010 RMK AO2 $=
201303080557 SPECI KBLI 080557Z 00000KT 1 3/4SM BR OVC044 04/04 A3010 RMK AO2 $=
201303080553 METAR KBLI 080553Z 00000KT 5SM BR OVC044 04/04 A3010 RMK AO2 SLP202 VCFG 60000 T00440044 10083 20028 53005 $=
201303080453 METAR KBLI 080453Z 00000KT 5SM BR FEW035 OVC050 03/01 A3009 RMK AO2 SLP200 VCFG T00330011=
201303080421 SPECI KBLI 080421Z 00000KT 5SM R16/3500VP6000FT BR SCT002 03/02 A3009 RMK AO2 VCFG=
201303080353 METAR KBLI 080353Z 00000KT 5SM R16/2400VP6000FT BR FEW046 04/04 A3008 RMK AO2 SLP196 VCFG T00440039=
201303080253 METAR KBLI 080253Z 00000KT 6SM BR FEW070 05/04 A3009 RMK AO2 SLP197 60000 T00500039 53002=
201303080153 METAR KBLI 080153Z 00000KT 10SM SCT018 BKN039 BKN070 07/05 A3008 RMK AO2 SLP194 T00670050=
201303080053 METAR KBLI 080053Z 00000KT 10SM SCT018 SCT025 BKN039 07/06 A3008 RMK AO2 RAE2359 SLP192 P0000 T00720056=
201303080023 SPECI KBLI 080023Z 05003KT 10SM SCT022 BKN027 OVC049 08/06 A3008 RMK AO2 RAE2359 CIG LWR N VIS NW-NE 2 P0000=
201303080004 SPECI KBLI 080004Z 00000KT 10SM FEW007 BKN036 OVC049 08/06 A3008 RMK AO2 RAE2359 CIG LWR N VIS NW-NE 2 P0000=
201303072353 METAR KBLI 072353Z 00000KT 6SM -RA BR FEW007 BKN029 OVC045 08/06 A3008 RMK AO2 RAB2257E31B49 SLP194 P0002 60003 T00780056 10083 20056 52003=
201303072253 METAR KBLI 072253Z 16004KT 9SM BKN027 OVC038 07/06 A3008 RMK AO2 RAB15E47 SLP194 P0000 T00720061=
201303072236 SPECI KBLI 072236Z 19006KT 10SM -RA FEW024 BKN029 OVC039 07/06 A3007 RMK AO2 RAB15 P0000=
201303072153 METAR KBLI 072153Z 18005KT 10SM FEW020 BKN038 OVC048 08/06 A3007 RMK AO2 SLP190 T00780056=
201303072053 METAR KBLI 072053Z 16004KT 10SM OVC020 07/04 A3007 RMK AO2 RAE42 SLP192 P0000 60001 T00720044 50007=
201303072000 SPECI KBLI 072000Z 17003KT 10SM -RA OVC016 07/04 A3007 RMK AO2 P0000=
201303071953 METAR KBLI 071953Z 15005KT 10SM -RA OVC014 07/04 A3007 RMK AO2 SLP191 P0001 T00720044=
201303071903 SPECI KBLI 071903Z VRB03KT 10SM -RA OVC014 07/05 A3006 RMK AO2 P0001=
201303071853 METAR KBLI 071853Z 00000KT 10SM -RA OVC016 07/04 A3006 RMK AO2 RAB27 SLP187 P0000 T00670044=
201303071753 METAR KBLI 071753Z 00000KT 10SM BKN016 OVC023 06/04 A3005 RMK AO2 RAB1656E15B35E45 SLP184 P0000 60003 T00610044 10061 20044 53019=
201303071653 METAR KBLI 071653Z 00000KT 10SM OVC019 05/04 A3003 RMK AO2 RAB22E40 SLP177 P0000 T00500039=
201303071553 METAR KBLI 071553Z 12004KT 10SM OVC017 05/03 A3001 RMK AO2 SLP170 P0001 T00500033=
201303071453 METAR KBLI 071453Z AUTO 11005KT 10SM OVC019 04/03 A2999 RMK AO2 RAE00B21E45 SLP164 P0000 60002 T00440033 51016=
201303071353 METAR KBLI 071353Z AUTO 11004KT 9SM -RA BKN019 OVC028 04/03 A2998 RMK AO2 SLP160 P0001 T00440033=
201303071253 METAR KBLI 071253Z AUTO 12003KT 10SM -RA OVC021 04/03 A2996 RMK AO2 SLP154 P0001 T00440033=
201303071153 METAR KBLI 071153Z AUTO 13003KT 10SM -RA SCT015 BKN027 OVC037 04/03 A2994 RMK AO2 RAB09 SLP148 P0002 60003 70035 T00440033 10050 20039 51015=
201303071053 METAR KBLI 071053Z AUTO 13005KT 10SM OVC017 04/03 A2993 RMK AO2 SLP144 T00440033=
201303070953 METAR KBLI 070953Z AUTO 00000KT 10SM OVC017 04/03 A2992 RMK AO2 RAB03E22 SLP140 P0000 T00440033=
201303070931 SPECI KBLI 070931Z AUTO 14003KT 10SM SCT017 BKN029 OVC040 04/03 A2991 RMK AO2 RAB03E22 P0000=
201303070853 METAR KBLI 070853Z AUTO 13003KT 10SM FEW018 BKN042 OVC050 04/03 A2990 RMK AO2 RAB23E36 SLP133 P0000 60001 T00390033 53013=
201303070802 SPECI KBLI 070802Z AUTO 15005KT 10SM SCT018 OVC044 04/02 A2988 RMK AO2=
201303070753 METAR KBLI 070753Z AUTO 15005KT 10SM SCT018 BKN028 OVC042 04/02 A2988 RMK AO2 RAB0655E17 SLP127 P0000 T00440017 400720039=
201303070721 SPECI KBLI 070721Z AUTO 14004KT 10SM BKN016 OVC032 04/02 A2987 RMK AO2 RAB0655E17 P0000=
201303070653 METAR KBLI 070653Z AUTO 14003KT 10SM SCT023 OVC038 04/M01 A2986 RMK AO2 RAE50 SLP120 P0001 T00441011=
201303070651 SPECI KBLI 070651Z AUTO 14003KT 10SM SCT023 OVC038 04/M03 A2986 RMK AO2 RAE50 P0001=
201303070625 SPECI KBLI 070625Z AUTO 16006KT 10SM -RA BKN023 OVC032 04/03 A2985 RMK AO2 P0000=
201303070618 SPECI KBLI 070618Z AUTO 16005KT 10SM -RA FEW016 BKN031 OVC040 04/03 A2985 RMK AO2 P0000=
201303070559 SPECI KBLI 070559Z 16006KT 10SM -RA SCT008 BKN016 OVC025 05/04 A2984 RMK AO2 P0000=
201303070553 METAR KBLI 070553Z 15005KT 9SM -RA BKN008 OVC016 05/04 A2984 RMK AO2 CIG 005V011 SLP112 P0002 60018 T00500039 10061 20044 53018=
201303070536 SPECI KBLI 070536Z 16004KT 8SM -RA SCT006 BKN011 OVC020 05/04 A2983 RMK AO2 P0001=
201303070509 SPECI KBLI 070509Z 16003KT 10SM -RA FEW006 SCT010 OVC021 04/04 A2982 RMK AO2 P0000=
201303070453 METAR KBLI 070453Z 00000KT 9SM -RA BKN020 BKN026 OVC055 04/04 A2981 RMK AO2 SLP102 P0001 T00440039=
201303070353 METAR KBLI 070353Z 00000KT 9SM -RA SCT026 BKN031 OVC055 04/04 A2978 RMK AO2 SLP095 P0002 T00440039=
201303070253 METAR KBLI 070253Z 00000KT 7SM -RA BKN019 OVC026 05/04 A2976 RMK AO2 SLP088 P0005 60013 T00500044 53023=
201303070153 METAR KBLI 070153Z 00000KT 5SM -RA BR OVC019 06/04 A2973 RMK AO2 SLP077 P0004 T00560044=
201303070053 METAR KBLI 070053Z 25003KT 7SM -RA FEW014 OVC022 06/04 A2971 RMK AO2 SLP070 P0004 T00560044=
201303062353 METAR KBLI 062353Z 00000KT 9SM -RA SCT019 BKN028 OVC034 06/04 A2969 RMK AO2 SLP063 P0001 60014 T00610044 10072 20061 53013=
201303062300 SPECI KBLI 062300Z 00000KT 9SM -RA SCT009 OVC015 06/04 A2968 RMK AO2 P0000=
201303062253 METAR KBLI 062253Z VRB03KT 10SM -RA BKN021 OVC040 06/04 A2968 RMK AO2 SLP058 P0002 T00610044=
201303062153 METAR KBLI 062153Z 35003KT 8SM -RA FEW012 BKN023 OVC043 06/04 A2967 RMK AO2 SLP054 P0004 T00610039=
201303062141 SPECI KBLI 062141Z 30005KT 6SM -RA BR SCT010 OVC016 06/05 A2966 RMK AO2 P0003=
201303062130 SPECI KBLI 062130Z 31003KT 5SM -RA BR BKN014 OVC022 06/04 A2966 RMK AO2 P0003=
201303062053 METAR KBLI 062053Z 31003KT 5SM -RA BR OVC022 07/04 A2966 RMK AO2 SLP051 P0005 60007 T00670044 53010=
201303062005 SPECI KBLI 062005Z 29003KT 8SM -RA BKN026 OVC036 07/05 A2965 RMK AO2 P0001=
201303061953 METAR KBLI 061953Z 28003KT 9SM -RA SCT026 OVC034 07/04 A2965 RMK AO2 SLP048 P0002 T00670039=
201303061853 METAR KBLI 061853Z 28004KT 10SM -RA BKN040 OVC050 07/03 A2964 RMK AO2 RAB43 SLP044 P0000 T00670033=
201303061753 METAR KBLI 061753Z 32003KT 10SM OVC060 07/02 A2963 RMK AO2 SLP040 T00670017 10067 20050 53000=
201303061653 METAR KBLI 061653Z 33005KT 10SM BKN065 OVC080 06/02 A2962 RMK AO2 SLP040 T00610022=
201303061553 METAR KBLI 061553Z 32005KT 10SM BKN090 BKN110 06/02 A2962 RMK AO2 SLP038 T00560022=
201303061453 METAR KBLI 061453Z 33004KT 10SM FEW090 BKN120 05/02 A2963 RMK AO2 SLP040 T00500017 56012=
201303061353 METAR KBLI 061353Z AUTO 32008KT 10SM OVC085 05/02 A2964 RMK AO2 SLP043 T00500017=
201303061253 METAR KBLI 061253Z AUTO 33007KT 10SM FEW070 OVC090 06/01 A2965 RMK AO2 SLP048 T00560011=
201303061153 METAR KBLI 061153Z AUTO 36008KT 10SM BKN060 OVC090 06/01 A2966 RMK AO2 SLP052 T00560006 10061 20033 58023=
201303061053 METAR KBLI 061053Z AUTO 01008KT 10SM OVC055 06/01 A2969 RMK AO2 SLP060 T00610011=
201303060953 METAR KBLI 060953Z AUTO 36010KT 10SM OVC060 06/02 A2971 RMK AO2 SLP068 T00560017=
201303060853 METAR KBLI 060853Z AUTO 36005KT 10SM BKN055 OVC085 05/02 A2973 RMK AO2 SLP075 T00500022 58022=
201303060753 METAR KBLI 060753Z AUTO 34003KT 10SM BKN060 BKN100 03/02 A2976 RMK AO2 SLP085 T00330017 401000033=
201303060653 METAR KBLI 060653Z AUTO 00000KT 10SM FEW055 OVC085 04/M02 A2978 RMK AO2 SLP093 T00441022=
201303060553 METAR KBLI 060553Z 00000KT 10SM OVC065 05/04 A2980 RMK AO2 SLP098 60000 T00500039 10083 20050 56003=
201303060453 METAR KBLI 060453Z 00000KT 10SM OVC045 05/03 A2980 RMK AO2 RAE0355 SLP098 P0000 T00500033=
201303060353 METAR KBLI 060353Z 00000KT 10SM -RA BKN044 BKN050 OVC060 06/01 A2980 RMK AO2 SLP099 P0000 T00560006=
201303060253 METAR KBLI 060253Z 00000KT 10SM -RA OVC045 07/02 A2981 RMK AO2 SLP101 P0000 60000 T00670017 53004=
201303060153 METAR KBLI 060153Z 01004KT 10SM -RA BKN048 OVC070 07/01 A2980 RMK AO2 RAB47 SLP099 P0000 T00720006 $=
201303060053 METAR KBLI 060053Z 01005KT 10SM OVC070 08/00 A2979 RMK AO2 RAB22E31 SLP095 P0000 T00780000=
201303052353 METAR KBLI 052353Z 01008G15KT 10SM OVC065 08/00 A2979 RMK AO2 SLP097 T00830000 10100 20078 55008=
201303052253 METAR KBLI 052253Z 02014G20KT 10SM OVC070 08/00 A2979 RMK AO2 SLP095 T00830000=
201303052153 METAR KBLI 052153Z 02012G20KT 10SM OVC070 09/00 A2980 RMK AO2 SLP098 T00890000=
201303052053 METAR KBLI 052053Z 03010G18KT 10SM OVC070 08/M02 A2982 RMK AO2 SLP105 T00831017 58019=
201303051953 METAR KBLI 051953Z 03012G19KT 10SM OVC065 08/M02 A2984 RMK AO2 SLP113 T00831022=
201303051853 METAR KBLI 051853Z 03011G17KT 10SM BKN055 OVC070 09/M02 A2986 RMK AO2 SLP120 T00891017 $=
201303051753 METAR KBLI 051753Z 02010G15KT 10SM OVC060 10/M03 A2988 RMK AO2 SLP125 T01001033 10100 20078 53010=
201303051653 METAR KBLI 051653Z 03010G20KT 10SM OVC075 09/M04 A2986 RMK AO2 SLP119 T00891039=
201303051553 METAR KBLI 051553Z 03013G19KT 10SM OVC060 09/M04 A2984 RMK AO2 SLP113 T00891039=
201303051453 METAR KBLI 051453Z 03012KT 10SM OVC085 08/M03 A2985 RMK AO2 SLP115 T00831033 58016=
201303051353 METAR KBLI 051353Z AUTO 03015G19KT 10SM BKN075 OVC095 08/M04 A2987 RMK AO2 SLP122 T00831039=
201303051253 METAR KBLI 051253Z AUTO 03013G21KT 10SM CLR 08/M04 A2988 RMK AO2 SLP124 T00781039=
201303051153 METAR KBLI 051153Z AUTO 03013G20KT 10SM CLR 08/M03 A2989 RMK AO2 SLP130 T00781033 10083 20067 58020=
201303051053 METAR KBLI 051053Z AUTO 03011G19KT 10SM FEW080 08/M03 A2992 RMK AO2 SLP139 T00781033=
201303050953 METAR KBLI 050953Z AUTO 03011KT 10SM CLR 08/M03 A2994 RMK AO2 SLP144 T00781028=
201303050853 METAR KBLI 050853Z AUTO 03011G19KT 10SM CLR 08/M03 A2995 RMK AO2 SLP150 T00781028 58014=
201303050800 METAR KBLI NIL=
201303050753 METAR KBLI 050753Z AUTO 02008KT 10SM CLR 07/M02 A2997 RMK AO2 SLP156 T00721022 401391011=
201303050700 METAR KBLI NIL=
201303050553 METAR KBLI 050553Z 02005KT 10SM CLR 07/M02 A2999 RMK AO2 SLP165 T00671017 10128 20067 56010=
201303050453 METAR KBLI 050453Z 02008KT 10SM CLR 08/M02 A3000 RMK AO2 SLP165 T00831022=
201303050353 METAR KBLI 050353Z 03008KT 10SM CLR 08/M03 A3001 RMK AO2 SLP170 T00831028=
201303050253 METAR KBLI 050253Z 04007KT 10SM CLR 09/M03 A3002 RMK AO2 SLP176 T00941028 56016=
201303050153 METAR KBLI 050153Z 03007KT 10SM CLR 11/M02 A3003 RMK AO2 SLP179 T01061022=
201303050053 METAR KBLI 050053Z 02007KT 10SM CLR 12/M02 A3005 RMK AO2 SLP182 T01171017=
201303042353 METAR KBLI 042353Z 02008G17KT 10SM CLR 12/M02 A3007 RMK AO2 SLP191 T01221022 10139 20067 56033=
201303042253 METAR KBLI 042253Z 02008KT 10SM CLR 13/M02 A3010 RMK AO2 SLP200 T01331022=
201303042153 METAR KBLI 042153Z 02006KT 10SM CLR 13/M01 A3013 RMK AO2 SLP210 T01281011=
201303042053 METAR KBLI 042053Z 01005KT 10SM CLR 12/00 A3017 RMK AO2 SLP224 T01220000 58024=
201303041953 METAR KBLI 041953Z VRB03KT 10SM CLR 11/01 A3020 RMK AO2 PK WND 33026/1917 SLP235 T01060011=
201303041853 METAR KBLI 041853Z 00000KT 10SM CLR 08/02 A3023 RMK AO2 SLP246 T00830017=
201303041753 METAR KBLI 041753Z 00000KT 10SM CLR 07/01 A3024 RMK AO2 SLP250 T00670006 10067 21011 56007=
201303041653 METAR KBLI 041653Z 00000KT 10SM CLR 05/01 A3025 RMK AO2 SLP253 T00500006=
201303041553 METAR KBLI 041553Z 01004KT 10SM CLR 03/M01 A3025 RMK AO2 SLP252 T00281006=
201303041453 METAR KBLI 041453Z 02004KT 10SM CLR 01/M02 A3026 RMK AO2 SLP257 T00061022 58009=
201303041353 METAR KBLI 041353Z AUTO 34004KT 10SM CLR 01/M02 A3027 RMK AO2 SLP261 T00061022=
201303041253 METAR KBLI 041253Z AUTO 00000KT 10SM CLR 00/M03 A3028 RMK AO2 SLP264 T00001028=
201303041153 METAR KBLI 041153Z AUTO 00000KT 10SM CLR 00/M02 A3029 RMK AO2 SLP266 T00001022 10044 20000 58005=
201303041053 METAR KBLI 041053Z AUTO 00000KT 10SM CLR 01/M01 A3030 RMK AO2 SLP271 T00111011=
201303040953 METAR KBLI 040953Z AUTO 00000KT 10SM CLR 01/M02 A3030 RMK AO2 SLP271 T00061017=
201303040853 METAR KBLI 040853Z AUTO 00000KT 10SM CLR 02/M01 A3031 RMK AO2 SLP272 T00171011 51002=
201303040753 METAR KBLI 040753Z AUTO 00000KT 10SM CLR 02/M01 A3031 RMK AO2 SLP272 T00221006 401110017=
201303040653 METAR KBLI 040653Z AUTO 00000KT 10SM CLR 03/00 A3031 RMK AO2 SLP272 T00280000=
201303040553 METAR KBLI 040553Z 00000KT 10SM CLR 04/01 A3030 RMK AO2 SLP268 T00440006 10106 20033 51006=
201303040453 METAR KBLI 040453Z 00000KT 10SM CLR 04/01 A3029 RMK AO2 SLP267 T00390006=
201303040353 METAR KBLI 040353Z 00000KT 10SM CLR 05/02 A3029 RMK AO2 SLP267 T00500017=
201303040253 METAR KBLI 040253Z 00000KT 10SM CLR 06/02 A3028 RMK AO2 SLP263 T00560017 53007=
201303040153 METAR KBLI 040153Z 19003KT 10SM CLR 08/02 A3027 RMK AO2 SLP258 T00780022=
201303040053 METAR KBLI 040053Z 00000KT 10SM CLR 10/01 A3026 RMK AO2 SLP257 T01000011=
201303032353 METAR KBLI 032353Z 00000KT 10SM SCT033 10/01 A3026 RMK AO2 SLP256 T01000011 10111 20078 55000=
201303032253 METAR KBLI 032253Z 29004KT 10SM FEW033 10/01 A3026 RMK AO2 SLP255 T01000006=
201303032153 METAR KBLI 032153Z VRB05KT 10SM FEW025 SCT035 09/02 A3026 RMK AO2 SLP254 T00940017=
201303032053 METAR KBLI 032053Z 28008G17KT 10SM SCT025 BKN032 08/01 A3026 RMK AO2 SLP256 T00830011 53006=
201303032027 SPECI KBLI 032027Z 27008G15KT 240V300 10SM BKN025 BKN030 OVC036 09/01 A3026 RMK AO2=
201303031953 METAR KBLI 031953Z 27009G14KT 10SM FEW023 SCT041 09/02 A3026 RMK AO2 SLP254 T00890017=
201303031853 METAR KBLI 031853Z VRB04KT 10SM OVC043 08/02 A3025 RMK AO2 SLP251 T00830022=
201303031753 METAR KBLI 031753Z 23004KT 10SM FEW023 SCT027 OVC038 08/02 A3025 RMK AO2 SLP250 T00780017 10078 20050 53005=
201303031713 SPECI KBLI 031713Z 00000KT 10SM SCT026 OVC038 08/01 A3024 RMK AO2=
201303031653 METAR KBLI 031653Z 00000KT 10SM BKN026 OVC036 08/01 A3024 RMK AO2 SLP248 T00780011=
201303031553 METAR KBLI 031553Z VRB04KT 10SM BKN028 OVC033 07/01 A3023 RMK AO2 SLP245 T00720011=
201303031549 SPECI KBLI 031549Z VRB03KT 10SM BKN028 OVC033 07/01 A3023 RMK AO2=
201303031453 METAR KBLI 031453Z VRB04KT 10SM FEW033 SCT050 06/01 A3022 RMK AO2 SLP241 T00610011 51009 $=
201303031353 METAR KBLI 031353Z AUTO 20003KT 10SM FEW029 SCT036 BKN050 07/02 A3022 RMK AO2 SLP241 T00670017=
201303031253 METAR KBLI 031253Z AUTO 17003KT 10SM FEW021 OVC055 07/02 A3020 RMK AO2 SLP236 T00670022=
201303031234 SPECI KBLI 031234Z AUTO 19003KT 10SM SCT021 OVC060 06/02 A3020 RMK AO2=
201303031205 SPECI KBLI 031205Z AUTO 00000KT 10SM BKN023 07/01 A3020 RMK AO2=
201303031153 METAR KBLI 031153Z AUTO 19003KT 10SM SCT023 06/02 A3019 RMK AO2 SLP233 60000 70027 T00610017 10072 20044 51009=
201303031138 SPECI KBLI 031138Z AUTO 00000KT 10SM BKN025 OVC065 06/02 A3019 RMK AO2=
201303031110 SPECI KBLI 031110Z AUTO 00000KT 10SM SCT025 BKN065 05/02 A3019 RMK AO2=
201303031053 METAR KBLI 031053Z AUTO 00000KT 10SM BKN027 06/02 A3019 RMK AO2 SLP232 T00560017=
201303030953 METAR KBLI 030953Z AUTO 17004KT 10SM SCT041 BKN049 06/02 A3018 RMK AO2 SLP228 T00610017=
201303030853 METAR KBLI 030853Z AUTO 00000KT 10SM CLR 06/02 A3017 RMK AO2 SLP223 60000 T00610022 53007=
201303030753 METAR KBLI 030753Z AUTO 00000KT 10SM SCT050 06/03 A3016 RMK AO2 SLP219 T00560028 401440056=
201303030653 METAR KBLI 030653Z AUTO 17003KT 10SM BKN035 BKN060 07/03 A3015 RMK AO2 RAE0559 SLP217 P0000 T00720033=
201303030600 SPECI KBLI 030600Z VRB03KT 10SM FEW015 BKN033 OVC055 07/04 A3015 RMK AO2 RAE0559 P0000=
201303030553 METAR KBLI 030553Z VRB03KT 10SM -RA SCT018 BKN026 OVC033 07/04 A3015 RMK AO2 SLP216 P0001 60003 T00720039 10100 20072 53019=
201303030453 METAR KBLI 030453Z 27006KT 10SM -RA FEW020 BKN025 OVC035 09/03 A3013 RMK AO2 RAB52 SLP210 P0000 T00890033=
201303030353 METAR KBLI 030353Z 00000KT 10SM BKN024 BKN037 OVC055 09/05 A3011 RMK AO2 SLP202 T00890050=
201303030253 METAR KBLI 030253Z 28005KT 10SM SCT016 BKN024 OVC037 09/05 A3009 RMK AO2 RAE18 SLP197 P0000 60002 T00940050 53013=
201303030204 SPECI KBLI 030204Z 00000KT 10SM BKN020 OVC032 09/05 A3007 RMK AO2 RAE03 P0000=
201303030153 METAR KBLI 030153Z VRB05KT 10SM -RA SCT023 OVC032 09/06 A3007 RMK AO2 RAB12E34B50 SLP188 P0001 T00940056=
201303030053 METAR KBLI 030053Z 17008KT 10SM FEW012 OVC032 09/06 A3006 RMK AO2 RAE40 SLP185 P0001 T00940056=
201303030030 SPECI KBLI 030030Z 18007KT 10SM -RA FEW018 BKN036 OVC055 10/07 A3005 RMK AO2 P0001=
201303022353 METAR KBLI 022353Z VRB04KT 8SM -RA FEW009 BKN024 OVC030 09/06 A3006 RMK AO2 SLP184 P0010 60024 T00940061 10144 20094 51017=
201303022348 SPECI KBLI 022348Z 19004KT 7SM -RA SCT009 BKN022 OVC035 09/06 A3005 RMK AO2 P0010=
201303022341 SPECI KBLI 022341Z 21005KT 4SM -RA FEW006 BKN011 OVC033 09/06 A3006 RMK AO2 P0009=
201303022326 SPECI KBLI 022326Z VRB05KT 3SM -RA BKN006 OVC012 09/07 A3005 RMK AO2 CIG 004V009 P0006=
201303022319 SPECI KBLI 022319Z VRB04KT 2 1/2SM -RA OVC006 09/07 A3004 RMK AO2 CIG 004V011 P0005=
201303022253 METAR KBLI 022253Z 18005KT 4SM -RA OVC006 09/07 A3004 RMK AO2 RAB2159 SLP180 P0014 T00940067=
201303022244 SPECI KBLI 022244Z VRB04KT 3SM -RA BKN008 OVC014 09/07 A3003 RMK AO2 RAB2159 P0013=
201303022227 SPECI KBLI 022227Z 26007G15KT 200V300 1 1/2SM RA BKN008 BKN016 OVC031 10/07 A3004 RMK AO2 RAB2159 PRESRR P0009=
201303022219 SPECI KBLI 022219Z 26009G15KT 230V290 2SM RA FEW008 BKN023 OVC031 11/08 A3002 RMK AO2 RAB2159 P0004=
201303022207 SPECI KBLI 022207Z VRB06KT 5SM -RA BKN016 BKN021 OVC029 12/08 A3001 RMK AO2 RAB2159 P0001=
201303022153 METAR KBLI 022153Z 20007G15KT 170V230 10SM OVC014 12/08 A3001 RMK AO2 PK WND 16026/2101 SLP168 T01170078=
201303022138 SPECI KBLI 022138Z 21008G19KT 10SM BKN014 OVC021 12/08 A3000 RMK AO2 PK WND 16026/2101=
201303022053 METAR KBLI 022053Z 16017G22KT 10SM OVC025 14/08 A3000 RMK AO2 SLP165 60000 T01390078 58021=
201303021953 METAR KBLI 021953Z 17014G22KT 10SM OVC027 14/08 A3003 RMK AO2 RAB31E49 SLP175 P0000 T01390078=
201303021853 METAR KBLI 021853Z 17012G23KT 10SM OVC027 14/08 A3004 RMK AO2 PK WND 16026/1754 SLP177 T01440078=
201303021753 METAR KBLI 021753Z 17014G22KT 10SM OVC027 14/08 A3006 RMK AO2 SLP186 60000 T01440078 10144 20133 58016=
201303021653 METAR KBLI 021653Z 17010G18KT 10SM OVC023 13/08 A3008 RMK AO2 SLP194 T01330078=
201303021553 METAR KBLI 021553Z 17012G21KT 10SM OVC021 14/08 A3010 RMK AO2 SLP198 T01390078=
201303021453 METAR KBLI 021453Z 16012G19KT 10SM OVC023 14/08 A3011 RMK AO2 SLP202 60000 T01390083 58014=
201303021353 METAR KBLI 021353Z AUTO 16010G19KT 10SM OVC023 13/08 A3013 RMK AO2 RAE14 SLP209 P0000 T01330083=
201303021253 METAR KBLI 021253Z AUTO 15014G22KT 10SM -RA BKN021 OVC070 14/08 A3013 RMK AO2 RAB30 SLP209 P0000 T01390083=
201303021153 METAR KBLI 021153Z AUTO 16011G19KT 10SM OVC021 14/09 A3015 RMK AO2 SLP216 60002 70015 T01390089 10139 20122 58021=
201303021053 METAR KBLI 021053Z AUTO 16009KT 10SM OVC021 13/09 A3018 RMK AO2 RAE40 SLP226 P0000 T01330089=
201303020953 METAR KBLI 020953Z AUTO 17007KT 10SM -RA OVC021 13/09 A3021 RMK AO2 RAB31 SLP236 P0000 T01280089=
201303020853 METAR KBLI 020853Z AUTO 17008KT 10SM OVC023 13/08 A3021 RMK AO2 RAE42 SLP237 P0001 60002 T01280083 58007=
201303020810 SPECI KBLI 020810Z AUTO 17007KT 10SM -RA BKN025 BKN031 OVC040 13/09 A3022 RMK AO2 P0000=
201303020753 METAR KBLI 020753Z AUTO 17009KT 10SM -RA SCT029 BKN039 OVC055 13/09 A3023 RMK AO2 SLP242 P0001 T01280089 401500122=
201303020751 SPECI KBLI 020751Z AUTO 16008KT 10SM -RA SCT029 BKN039 OVC055 13/09 A3022 RMK AO2 P0001 401500122=
201303020653 METAR KBLI 020653Z AUTO 17008G16KT 10SM -RA OVC023 14/08 A3023 RMK AO2 SLP244 P0000 T01390083=
201303020553 METAR KBLI 020553Z 16009KT 10SM -RA OVC021 13/09 A3024 RMK AO2 RAB0458 SLP247 P0002 60006 T01330089 10150 20128 55000=
201303020453 METAR KBLI 020453Z 16013G21KT 8SM OVC025 14/09 A3024 RMK AO2 RAE17 SLP247 P0000 T01390089=
201303020353 METAR KBLI 020353Z 16013G22KT 8SM -RA OVC027 14/09 A3024 RMK AO2 PK WND 15026/0311 SLP246 P0003 T01390094=
201303020253 METAR KBLI 020253Z 16012G19KT 8SM -RA BKN023 OVC033 14/09 A3024 RMK AO2 RAB14 SLP247 P0001 60001 T01390094 53004=
201303020153 METAR KBLI 020153Z 17012G24KT 10SM BKN029 OVC036 15/09 A3022 RMK AO2 PK WND 17030/0143 SLP241 T01500089=
201303020053 METAR KBLI 020053Z 17012G22KT 10SM OVC029 15/09 A3022 RMK AO2 SLP240 T01500089=
201303012353 METAR KBLI 012353Z 18010G22KT 10SM BKN027 OVC033 14/09 A3023 RMK AO2 SLP242 60001 T01440089 10150 20139 57001=
201303012253 METAR KBLI 012253Z 16015G21KT 10SM SCT025 SCT034 OVC065 14/09 A3023 RMK AO2 SLP243 T01440089=
201303012244 SPECI KBLI 012244Z 17012G22KT 10SM SCT025 OVC065 14/09 A3023 RMK AO2=
201303012153 METAR KBLI 012153Z 17012G20KT 10SM BKN023 OVC028 14/09 A3023 RMK AO2 PK WND 16028/2055 SLP245 T01440089=
201303012053 METAR KBLI 012053Z 17016G26KT 10SM OVC023 14/09 A3023 RMK AO2 PK WND 17028/2000 SLP245 60001 T01440089 58013=
201303011953 METAR KBLI 011953Z 17017G27KT 10SM BKN023 OVC075 14/09 A3025 RMK AO2 PK WND 15027/1944 RAE13 SLP250 P0000 T01440089=
201303011853 METAR KBLI 011853Z 16013G24KT 10SM -RA SCT020 OVC060 14/09 A3026 RMK AO2 RAB01 SLP255 P0001 T01390089=
201303011810 SPECI KBLI 011810Z 16016G24KT 10SM -RA SCT020 OVC060 13/09 A3027 RMK AO2 RAB01 P0000=
201303011753 METAR KBLI 011753Z 15017G24KT 10SM BKN020 OVC055 14/09 A3027 RMK AO2 PK WND 16029/1704 SLP258 60006 T01390089 10139 20128 51015=
201303011743 SPECI KBLI 011743Z 16016G27KT 10SM BKN020 OVC055 14/08 A3027 RMK AO2 PK WND 16029/1704=
201303011653 METAR KBLI 011653Z 15016G28KT 10SM FEW017 BKN075 OVC100 14/09 A3026 RMK AO2 PK WND 14028/1644 RAE01 SLP253 P0000 T01390089=
201303011640 SPECI KBLI 011640Z 15019G28KT 10SM SCT017 BKN055 OVC100 13/09 A3025 RMK AO2 PK WND 15028/1639 RAE01 P0000=
201303011553 METAR KBLI 011553Z 16016G22KT 10SM -RA OVC017 13/09 A3024 RMK AO2 SLP248 P0001 T01330094=
201303011505 SPECI KBLI 011505Z 16016G22KT 10SM BKN022 OVC060 13/09 A3023 RMK AO2 RAE04 P0000=
201303011453 METAR KBLI 011453Z 16016G23KT 10SM -RA FEW047 OVC060 13/09 A3023 RMK AO2 SLP242 P0004 60005 T01330094 55000=
201303011353 METAR KBLI 011353Z AUTO 16016G24KT 9SM -RA FEW017 OVC060 13/09 A3022 RMK AO2 RAE1259B19 SLP240 P0001 T01330094=
201303011338 SPECI KBLI 011338Z AUTO 16014G23KT 10SM -RA SCT017 SCT037 OVC060 13/09 A3022 RMK AO2 RAE1259B19 P0001=
201303011253 METAR KBLI 011253Z AUTO 15014G20KT 10SM -RA OVC017 14/09 A3022 RMK AO2 RAB36 SLP239 P0000 T01390094=
201303011153 METAR KBLI 011153Z AUTO 16014G23KT 10SM BKN019 OVC048 14/09 A3023 RMK AO2 RAB27E47 SLP243 P0000 60023 70067 T01390094 10139 20078 51003=
201303011105 SPECI KBLI 011105Z AUTO 15013G24KT 10SM BKN019 OVC042 14/09 A3023 RMK AO2=
201303011053 METAR KBLI 011053Z AUTO 16013G21KT 10SM SCT019 SCT028 OVC040 13/09 A3023 RMK AO2 RAE50 SLP243 P0000 T01330094=
201303010953 METAR KBLI 010953Z AUTO 16011G22KT 10SM -RA FEW018 OVC048 13/09 A3023 RMK AO2 SLP242 P0005 T01330089=
201303010853 METAR KBLI 010853Z AUTO 15019G25KT 6SM -RA OVC055 13/09 A3022 RMK AO2 SLP240 P0006 60018 T01280089 58005=
201303010836 SPECI KBLI 010836Z AUTO 15015G22KT 6SM -RA FEW022 SCT037 OVC055 13/09 A3023 RMK AO2 P0004=
201303010753 METAR KBLI 010753Z AUTO 17011G19KT 9SM -RA BKN021 BKN027 OVC033 13/09 A3024 RMK AO2 SLP248 P0005 T01280089 401330050=
201303010653 METAR KBLI 010653Z AUTO 33003KT 4SM -RA BR BKN017 OVC033 08/06 A3023 RMK AO2 SLP246 P0007 T00830061=
201303010553 METAR KBLI 010553Z 36003KT 4SM -RA OVC019 08/06 A3023 RMK AO2 SLP246 P0006 60016 T00830056 10133 20072 53015=
201303010453 METAR KBLI 010453Z 34003KT 5SM -RA OVC021 08/06 A3023 RMK AO2 RAB08 SLP244 P0002 T00830056=
201303010353 METAR KBLI 010353Z VRB03G18KT 7SM BKN021 OVC050 13/09 A3019 RMK AO2 RAE34 SLP229 P0001 T01330089=
201303010253 METAR KBLI 010253Z VRB05KT 7SM -RA OVC014 09/06 A3019 RMK AO2 SLP230 P0004 60007 T00940061 56012=
201303010153 METAR KBLI 010153Z 13005KT 10SM -RA OVC014 10/07 A3019 RMK AO2 SLP233 P0001 T01000067=
201303010053 METAR KBLI 010053Z 35003KT 3SM -RA SCT004 OVC013 08/06 A3020 RMK AO2 SLP234 P0002 T00830056=

# No short TAF reports from KBLI in databse.

###################################
#  large TAF from KBLI
###################################
201303312325 TAF KBLI 312325Z 0100/0124 29006KT P6SM SKC FM010300 00000KT P6SM
                       SKC FM010900 16004KT P6SM SKC FM011600 16004KT
                       P6SM BKN010 FM012000 20006KT P6SM SCT015=
201303311737 TAF KBLI 311737Z 3118/0118 01006KT P6SM SKC FM312200 30006KT P6SM
                       SKC FM010300 00000KT P6SM SKC FM010900 18004KT
                       P6SM SKC FM011500 16004KT P6SM SCT010=
201303311120 TAF KBLI 311120Z 3112/0112 00000KT P6SM BCFG SCT001 FM311500 01004KT
                       P6SM SKC FM010000 VRB03KT P6SM SKC=
201303310943 TAF AMD KBLI 310943Z 3110/0106 00000KT P6SM BCFG SCT001
                      TEMPO 3110/3114 1/2SM FG BKN001 FM311500
                       01004KT P6SM SKC=
201303310520 TAF KBLI 310520Z 3106/0106 00000KT P6SM SKC FM310900 00000KT P6SM
                       BCFG SCT001 FM311500 01004KT P6SM SKC=
201303302320 TAF KBLI 302320Z 3100/3124 27006KT P6SM SKC FM310300 00000KT P6SM
                       SKC FM310900 00000KT P6SM BCFG SCT001 FM311500
                       01004KT P6SM SKC=
201303301720 TAF KBLI 301720Z 3018/3118 01006KT P6SM SKC FM302200 27006KT P6SM
                       SKC FM310300 00000KT P6SM SKC FM310900 00000KT
                       P6SM BCFG SCT001 FM311500 VRB03KT P6SM SKC=
201303301335 TAF AMD KBLI 301335Z 3014/3112 00000KT P6SM FEW001
                      TEMPO 3014/3016 1SM BR BKN001 FM301600 02003KT
                       P6SM SKC FM301800 36006KT P6SM SKC=
201303301120 TAF KBLI 301120Z 3012/3112 00000KT 2SM BR SCT001
                      TEMPO 3012/3016 1/2SM FG VV001 FM301600 02003KT
                       P6SM SKC FM301800 36006KT P6SM SKC=
201303300905 TAF AMD KBLI 300905Z 3009/3106 00000KT P6SM BCFG SKC
                      TEMPO 3009/3013 1SM BR BKN001 FM301500 02003KT
                       P6SM SKC FM301800 36006KT P6SM SKC=
201303300520 TAF KBLI 300520Z 3006/3106 00000KT P6SM SKC FM300900 00000KT P6SM
                       BCFG SKC FM301500 02003KT P6SM SKC FM301800
                       36006KT P6SM SKC=
201303292330 TAF KBLI 292330Z 3000/3024 25005KT P6SM SKC FM300300 00000KT P6SM
                       SKC FM300900 00000KT P6SM BCFG SKC FM301500
                       02003KT P6SM SKC FM301800 36006KT P6SM SKC=
201303291720 TAF KBLI 291720Z 2918/3018 24005KT P6SM FEW045 FM300300 00000KT
                       P6SM SKC FM300900 00000KT P6SM BCFG SKC
                       FM301500 02003KT P6SM SKC=
201303291123 TAF KBLI 291123Z 2912/3012 00000KT P6SM BKN050 FM291900 22005KT
                       P6SM SCT060 FM300300 00000KT P6SM SKC=
201303290522 TAF KBLI 290522Z 2906/3006 00000KT P6SM SKC FM290800 00000KT P6SM
                       VCFG SCT002 FM291500 18004KT P6SM BKN040
                       FM292000 22005KT P6SM SCT060 FM300300 00000KT
                       P6SM SKC=
201303282320 TAF KBLI 282320Z 2900/2924 VRB04KT P6SM SCT050=
201303281720 TAF KBLI 281720Z 2818/2918 VRB04KT P6SM SCT050 BKN100 FM291000
                       VRB03KT P6SM BKN040 BKN080=
201303281120 TAF KBLI 281120Z 2812/2912 00000KT P6SM SCT080 BKN200 FM281500
                       00000KT P6SM VCSH BKN050 OVC080 FM282000
                       20005KT P6SM SCT080=
201303280520 TAF KBLI 280520Z 2806/2906 00000KT P6SM BKN080 FM281200 VRB04KT
                       P6SM VCSH SCT050 BKN080 FM282000 20005KT
                       P6SM SCT080=
201303272320 TAF KBLI 272320Z 2800/2824 VRB04KT P6SM VCSH SCT050 OVC090 FM280600
                       VRB04KT P6SM -SHRA BKN040 OVC090 FM281200
                       VRB04KT P6SM SCT050 BKN090=
201303271720 TAF KBLI 271720Z 2718/2818 VRB04KT P6SM SCT080 BKN150 FM280000
                       VRB04KT P6SM VCSH BKN050 BKN100 FM281000
                       VRB04KT P6SM VCSH BKN040=
201303271120 TAF KBLI 271120Z 2712/2812 00000KT P6SM SCT120 FM271500 VRB03KT
                       P6SM BKN050 BKN100 FM272300 VRB03KT P6SM
                       VCSH BKN050 BKN100 FM280300 VRB03KT P6SM
                       VCSH OVC035=
201303270526 TAF KBLI 270526Z 2706/2806 00000KT P6SM BKN200 FM271500 VRB03KT
                       P6SM BKN050 BKN100 FM272300 VRB03KT P6SM
                       VCSH BKN050 BKN100=
201303262320 TAF KBLI 262320Z 2700/2724 VRB03KT P6SM SCT080 BKN200 FM271600
                       VRB03KT P6SM BKN050 BKN100=
201303261720 TAF KBLI 261720Z 2618/2718 VRB04KT P6SM BKN070=
201303261120 TAF KBLI 261120Z 2612/2712 00000KT P6SM SCT080 BKN200 FM262000
                       30005KT P6SM SCT080 BKN200 FM270200 00000KT
                       P6SM BKN060 BKN200=
201303260532 TAF KBLI 260532Z 2606/2706 VRB03KT P6SM BKN200 FM262000 30005KT
                       P6SM BKN080 BKN200 FM270200 00000KT P6SM
                       BKN060 BKN200=
201303252339 TAF KBLI 252339Z 2600/2624 33005KT P6SM SCT100 BKN200 FM261200
                       VRB03KT P6SM BKN100 BKN200=
201303251722 TAF KBLI 251722Z 2518/2618 VRB03KT P6SM SCT200 FM260000 VRB03KT
                       P6SM BKN200=
201303251120 TAF KBLI 251120Z 2512/2612 00000KT P6SM OVC100 FM251900 01003KT
                       P6SM FEW250=
201303250759 TAF KBLI 250759Z 2508/2606 00000KT P6SM OVC110=
201303242336 TAF KBLI 242336Z 2500/2524 VRB03KT P6SM SCT120 BKN200=
201303241734 TAF KBLI 241734Z 2418/2518 VRB03KT P6SM BKN100 OVC200=
201303241120 TAF KBLI 241120Z 2412/2512 00000KT P6SM OVC110=
201303240530 TAF KBLI 240530Z 2406/2506 00000KT P6SM BKN120 BKN200 FM241900
                       VRB03KT P6SM OVC120=
201303232330 TAF KBLI 232330Z 2400/2424 00000KT P6SM SCT050 FM240300 VRB03KT
                       P6SM SCT200 FM241500 VRB03KT P6SM BKN100
                       BKN200 FM242000 VRB03KT P6SM BKN070 OVC120=
201303231736 TAF KBLI 231736Z 2318/2418 00000KT P6SM SCT050 FM240300 VRB03KT
                       P6SM SCT200 FM241500 VRB03KT P6SM BKN100
                       BKN200=
201303231120 TAF KBLI 231120Z 2312/2412 00000KT P6SM OVC250=
201303230520 TAF KBLI 230520Z 2306/2406 00000KT P6SM SCT250 FM231200 05004KT
                       P6SM BKN200=
201303222328 TAF KBLI 222328Z 2300/2324 29006KT P6SM SCT250 FM230500 VRB03KT
                       P6SM SCT250=
201303221740 TAF KBLI 221740Z 2218/2318 26006KT P6SM VCSH SCT025 BKN035 OVC060
                       FM222300 VRB03KT P6SM SCT250=
201303221120 TAF KBLI 221120Z 2212/2312 28003KT P6SM VCSH SCT026 BKN035 OVC060
                       FM222300 35003KT P6SM SCT250=
201303220533 TAF KBLI 220533Z 2206/2306 31007KT P6SM VCSH SCT020 BKN030 OVC060
                       TEMPO 2206/2210 -RA BKN018 OVC030 FM221000
                       20003KT P6SM VCSH OVC035 FM222200 26003KT
                       P6SM BKN250=
201303212326 TAF KBLI 212326Z 2200/2224 18010KT P6SM VCSH SCT030 SCT070
                      TEMPO 2200/2203 -SHRA BKN030 BKN070 FM220500
                       18008KT P6SM SCT050 BKN100 FM221900 19006KT
                       P6SM VCSH SCT035 SCT070=
201303211942 TAF AMD KBLI 211942Z 2120/2218 VRB05KT P6SM VCSH SCT025 BKN040
                       BKN100
                      TEMPO 2120/2124 -SHRA BKN025 BKN040 BKN100
                       FM220300 19006KT P6SM SCT050 BKN100=
201303211737 TAF KBLI 211737Z 2118/2218 VRB05KT P6SM SCT100 FM212000 20007KT
                       P6SM VCSH SCT025 BKN050 BKN100 FM220300
                       19006KT P6SM SCT050 BKN100=
201303211120 TAF KBLI 211120Z 2112/2212 VRB03KT P6SM SKC FM211600 19008KT P6SM
                       VCSH BKN050 FM220300 17006KT P6SM SKC=
201303210533 TAF KBLI 210533Z 2106/2206 20007KT P6SM SCT050 FM211400 19007KT
                       P6SM VCSH BKN050 FM220400 16004KT P6SM BKN100=
201303202340 TAF KBLI 202340Z 2100/2124 19015G25KT P6SM -SHRA SCT025 BKN050
                       TEMPO 2101/2104 BKN025 OVC060 FM210400 19012G20KT
                       P6SM -SHRA BKN025 BKN045 FM211200 20010KT
                       P6SM -SHRA SCT025 BKN045=
201303201746 TAF KBLI 201746Z 2018/2118 17020G35KT P6SM -SHRA BKN022 BKN045
                       TEMPO 2018/2022 SCT025 BKN045 FM202200 20025G38KT
                       P6SM -SHRA BKN020 BKN040 FM210300 20015G25KT
                       P6SM -SHRA SCT020 BKN040=
201303201120 TAF KBLI 201120Z 2012/2112 13020G29KT P6SM -RA FEW030 OVC060 FM201500
                       17017G27KT P6SM -RA SCT015 OVC030 FM201900
                       20022G34KT P6SM -SHRA BKN020 BKN040 FM210400
                       20012KT P6SM -SHRA SCT020 BKN040=
201303200539 TAF KBLI 200539Z 2006/2106 02007KT P6SM OVC040
                      TEMPO 2006/2009 -RA OVC030 FM200900 14011G22KT
                       P6SM -RA BKN030 OVC050 FM201300 17017G27KT
                       P6SM -RA BKN015 OVC030 FM201900 20022G34KT
                       P6SM -SHRA BKN020 BKN040 FM210400 20012KT
                       P6SM -SHRA SCT020 BKN040=
201303192320 TAF KBLI 192320Z 2000/2024 02006KT P6SM BKN050 OVC080 FM200300
                       12012G22KT P6SM -RA OVC040 FM200700 14012G22KT
                       P6SM -RA BKN030 OVC050 FM201200 17017G27KT
                       P6SM -RA BKN015 OVC030 FM202000 21020G30KT
                       P6SM -SHRA BKN020 BKN040=
201303191735 TAF KBLI 191735Z 1918/2018 06005KT P6SM SKC FM192100 07007KT P6SM
                       SCT050 OVC110 FM200300 11010KT P6SM -RA
                       SCT035 OVC050 FM200900 14020G30KT P6SM -RA
                       SCT020 OVC035=
201303191133 TAF KBLI 191133Z 1912/2012 VRB03KT P6SM OVC200 FM191800 03006KT
                       P6SM SCT110 OVC200 FM192100 07007KT P6SM
                       SCT050 OVC110
                      PROB30 1921/2003 -RA OVC050 FM200300 11010KT
                       P6SM -RA SCT035 OVC050 FM200900 14020G30KT
                       P6SM -RA SCT020 OVC035=
201303190528 TAF KBLI 190528Z 1906/2006 VRB03KT P6SM BKN200 FM191800 03006KT
                       P6SM SCT110 OVC200 FM192100 07007KT P6SM
                       SCT050 OVC110
                      PROB30 1921/2003 -RA OVC050 FM200300 11010KT
                       P6SM -RA SCT035 OVC050=
201303182320 TAF KBLI 182320Z 1900/1924 18008KT P6SM SCT050 FM190600 VRB03KT
                       P6SM BKN200 FM191200 07007KT P6SM OVC100
                       FM191900 14012KT P6SM OVC050 FM192200 16012G22KT
                       P6SM -RA OVC030=
201303181723 TAF KBLI 181723Z 1818/1918 27007KT P6SM SCT030
                      TEMPO 1818/1822 BKN030 FM182200 VRB05KT P6SM
                       SCT040
                      TEMPO 1822/1902 BKN040 FM190600 05006KT P6SM
                       BKN200 FM191200 12008KT P6SM OVC100=
201303181131 TAF KBLI 181131Z 1812/1912 17013G22KT P6SM -SHRA SCT015 OVC030
                       TEMPO 1812/1815 5SM SHRA BKN015 OVC030 FM181500
                       19011KT P6SM VCSH BKN030 OVC050 FM181800
                       21008KT P6SM SCT035 BKN050 FM182100 25005KT
                       P6SM SCT050 SCT200 FM190000 VRB03KT P6SM
                       BKN200=
201303180910 TAF AMD KBLI 180910Z 1809/1906 17013KT P6SM -SHRA SCT015 OVC030
                       TEMPO 1809/1812 17013G20KT BKN015 OVC030
                       FM181200 19013KT P6SM -SHRA FEW018 OVC030
                       FM181500 21008KT P6SM VCSH BKN030 OVC050
                       FM181800 21008KT P6SM SCT035 BKN050 FM182100
                       25005KT P6SM SCT050 SCT200 FM190000 VRB03KT
                       P6SM SCT200=
201303180527 TAF KBLI 180527Z 1806/1906 17007KT P6SM VCSH SCT030 SCT050 BKN130
                       FM180900 17013KT P6SM -SHRA SCT030 OVC050
                       FM181200 19013KT P6SM -SHRA FEW018 OVC030
                       FM181500 21008KT P6SM VCSH BKN030 OVC050
                       FM181800 21008KT P6SM SCT035 BKN050 FM182100
                       25005KT P6SM SCT050 SCT200 FM190000 VRB03KT
                       P6SM SCT200=
201303180214 TAF AMD KBLI 180214Z 1802/1824 18008KT P6SM VCSH SCT050 BKN080
                       FM180600 17012G20KT P6SM -SHRA SCT030 OVC050
                       FM180900 17012G20KT P6SM -SHRA SCT015 OVC030
                       FM182000 20007KT P6SM SCT040=
201303172320 TAF KBLI 172320Z 1800/1824 19010G20KT P6SM VCSH SCT050 OVC080 FM180600
                       17012G20KT P6SM -SHRA SCT030 OVC050 FM180900
                       17012G20KT P6SM -SHRA SCT015 OVC030 FM182000
                       20007KT P6SM SCT040=
201303171728 TAF KBLI 171728Z 1718/1818 20008KT P6SM SCT040 BKN080 FM180000
                       19012G20KT P6SM SCT050 OVC080 FM180600 17012G20KT
                       P6SM VCSH SCT030 OVC050 FM180900 17012G20KT
                       P6SM -SHRA SCT015 OVC030=
201303171131 TAF KBLI 171131Z 1712/1812 18008KT P6SM SCT035 BKN050 FM171800
                       21008KT P6SM SCT035 BKN050
                      PROB30 1721/1802 -SHRA OVC035 FM180200 19008KT
                       P6SM SCT050 OVC080 FM180600 17013KT P6SM
                       SCT030 OVC050
                      PROB30 1806/1809 -SHRA OVC030 FM180900 17013G20KT
                       P6SM -SHRA SCT018 OVC030=
201303170540 TAF KBLI 170540Z 1706/1806 VRB03KT P6SM VCSH SCT022 BKN040 OVC070
                       TEMPO 1706/1709 -SHRA BKN022 OVC040 FM170900
                       19009KT P6SM VCSH SCT022 BKN040 BKN070 FM171200
                       22009KT P6SM VCSH SCT030 BKN050 FM171800
                       28007KT P6SM SCT035 BKN050
                      PROB30 1718/1724 -SHRA OVC035 FM180000 21007KT
                       P6SM SCT028 OVC050
                      PROB30 1800/1806 -SHRA BKN028 OVC050=
201303170415 TAF AMD KBLI 170415Z 1704/1724 25006KT P6SM VCSH FEW015 SCT028
                       SCT050
                      TEMPO 1704/1706 -SHRA FEW015 BKN028 BKN050
                       FM170600 20012KT P6SM -SHRA BKN030 BKN050
                       FM171200 21008KT P6SM VCSH SCT025 BKN030
                       FM171800 18009KT P6SM SCT030 BKN040=
201303170114 TAF AMD KBLI 170114Z 1701/1724 20013KT P6SM VCSH SCT030 SCT050
                       TEMPO 1701/1704 22015G25KT BKN025 FM170600
                       20012KT P6SM -SHRA BKN030 BKN050 FM171200
                       21008KT P6SM VCSH SCT025 BKN030 FM171800
                       18009KT P6SM SCT030 BKN040=
201303162320 TAF KBLI 162320Z 1700/1724 20013KT P6SM -SHRA SCT025 BKN030 BKN040
                       TEMPO 1700/1704 22015G25KT BKN025 FM171200
                       21008KT P6SM VCSH SCT025 BKN030 FM171800
                       18009KT P6SM SCT030 BKN040=
201303161722 TAF KBLI 161722Z 1618/1718 18013KT P6SM -SHRA BKN025 OVC040 FM170100
                       21008KT P6SM VCSH SCT025 BKN050=
201303161127 TAF KBLI 161127Z 1612/1712 17009KT P6SM VCSH FEW005 SCT020 OVC040
                       FM161800 19013KT P6SM -SHRA BKN020 OVC040
                       FM162100 19013KT P6SM VCSH SCT025 OVC040
                       TEMPO 1621/1701 -SHRA BKN025 OVC040 FM170100
                       21008KT P6SM VCSH SCT025 BKN050
                      PROB30 1701/1707 -SHRA BKN025 OVC050=
201303160536 TAF KBLI 160536Z 1606/1706 VRB03KT P6SM SCT030 OVC050
                      TEMPO 1606/1610 5SM -SHRA BR BKN030 OVC050
                       FM161000 VRB03KT P6SM -RA SCT015 OVC030
                       FM161200 17006KT P6SM -RA BKN015 OVC030
                       FM161600 17010KT P6SM -RA FEW007 OVC015
                       FM162000 19013G20KT P6SM -SHRA SCT015 BKN030
                       OVC050 FM170000 21010KT P6SM VCSH SCT030
                       BKN050
                      PROB30 1700/1706 -SHRA OVC030=
201303160203 TAF AMD KBLI 160203Z 1602/1624 19007KT P6SM -SHRA SCT015 OVC040
                       TEMPO 1602/1605 26013G22KT 2SM +SHRA BKN015
                       OVC030 FM160600 18007KT P6SM -SHRA OVC020
                       FM160900 19006KT P6SM VCSH OVC017 FM161800
                       20008KT P6SM -RA OVC015=
201303160137 TAF AMD KBLI 160137Z 1602/1624 18005KT P6SM -SHRA SCT025 OVC050
                       TEMPO 1602/1604 2SM +SHRA BKN025 OVC040
                       FM160400 18007KT P6SM -SHRA OVC020 FM160900
                       19006KT P6SM VCSH OVC017 FM161800 20008KT
                       P6SM -RA OVC015=
201303152324 TAF KBLI 152324Z 1600/1624 18007KT P6SM VCSH SCT025 BKN040 OVC080
                       TEMPO 1600/1604 BKN025 FM160400 18007KT
                       P6SM -SHRA OVC020 FM160900 19006KT P6SM
                       VCSH OVC017 FM161800 20008KT P6SM -RA OVC015=
201303151732 TAF KBLI 151732Z 1518/1618 15006KT P6SM VCSH BKN020 BKN070 FM152000
                       16007KT P6SM VCSH OVC020
                      TEMPO 1523/1603 5SM -SHRA BR OVC015 FM161000
                       17004KT P6SM VCSH OVC015=
201303151135 TAF KBLI 151135Z 1512/1612 15006KT P6SM VCSH OVC060 FM152000 16007KT
                       P6SM VCSH OVC025
                      TEMPO 1523/1603 5SM -SHRA BR OVC015 FM161000
                       17004KT P6SM VCSH OVC015=
201303150540 TAF KBLI 150540Z 1506/1606 15011KT P6SM VCSH BKN025 BKN045 OVC080
                       FM150900 17007KT P6SM VCSH OVC018 FM151800
                       18006KT P6SM BKN025 OVC035 FM152000 18006KT
                       P6SM SCT025 BKN045=
201303150305 TAF AMD KBLI 150305Z 1503/1524 15014G22KT P6SM -RA SCT030 BKN060
                       OVC080
                      TEMPO 1503/1506 -RA OVC030 FM150600 18010KT
                       P6SM VCSH BKN018 OVC060 FM150900 17007KT
                       P6SM VCSH OVC018 FM151800 18006KT P6SM BKN025
                       OVC035 FM152000 18006KT P6SM SCT025 BKN045=
201303142320 TAF KBLI 142320Z 1500/1524 16012G22KT P6SM -RA SCT025 OVC035
                      TEMPO 1500/1504 -RA OVC025 FM150400 18010KT
                       P6SM VCSH BKN018 OVC060 FM150900 17007KT
                       P6SM VCSH OVC018 FM151800 18006KT P6SM BKN025
                       OVC035 FM152000 18006KT P6SM SCT025 BKN045=
201303142008 TAF AMD KBLI 142008Z 1420/1518 16012G22KT P6SM SCT025 OVC060 FM150000
                       17016G24KT 5SM -RA OVC025
                      TEMPO 1501/1505 -RA OVC015 FM150600 18010KT
                       P6SM VCSH BKN018 OVC060 FM150900 19007KT
                       P6SM VCSH OVC018=
201303141720 TAF KBLI 141720Z 1418/1518 18007KT P6SM SCT025 BKN070 OVC100
                      TEMPO 1418/1419 4SM BR SCT002 SCT025 OVC070
                       FM142000 17018G28KT P6SM -RA SCT025 OVC060
                       FM150000 17016G24KT 5SM -RA OVC025
                      TEMPO 1502/1506 -RA OVC015 FM150600 18010KT
                       P6SM VCSH BKN018 OVC060 FM150900 19007KT
                       P6SM VCSH OVC018=
201303141135 TAF KBLI 141135Z 1412/1512 01005KT 5SM BR SCT002 BKN040
                      TEMPO 1412/1416 3SM BR BKN002 OVC040 FM141700
                       18007KT P6SM SCT040 BKN070 OVC100 FM142000
                       17018G28KT P6SM -RA SCT025 OVC060 FM150000
                       17016G24KT 5SM -RA OVC025
                      TEMPO 1502/1506 -RA OVC015 FM150600 18010KT
                       P6SM VCSH BKN018 OVC060=
201303140535 TAF KBLI 140535Z 1406/1506 15007KT P6SM SCT022 OVC060 FM141400
                       18007KT P6SM OVC100 FM142000 17018G28KT
                       P6SM -RA SCT025 OVC070 FM150000 17009KT
                       5SM -RA OVC025
                      TEMPO 1502/1506 -RA OVC015=
201303132329 TAF KBLI 132329Z 1400/1424 17012G22KT P6SM -RA SCT015 OVC025
                      TEMPO 1400/1402 4SM -RA BR OVC015 FM140600
                       17010G20KT P6SM SCT030 OVC050
                      TEMPO 1406/1410 -RA FM141000 16010KT P6SM
                       SCT030 OVC050 FM142000 15010KT P6SM -RA
                       OVC030=
201303131720 TAF KBLI 131720Z 1318/1418 15013G22KT P6SM -RA SCT014 BKN022 OVC030
                       FM132000 17012G22KT P6SM -RA SCT014 OVC020
                       TEMPO 1322/1402 4SM -RA BR OVC014 FM140600
                       17010G20KT P6SM OVC025
                      TEMPO 1406/1410 -RA FM141000 16010KT P6SM
                       SCT030 OVC050=
201303131125 TAF KBLI 131125Z 1312/1412 19010G20KT P6SM -RA SCT014 BKN022 OVC030
                       FM132000 17012G22KT P6SM -RA OVC020
                      TEMPO 1322/1402 4SM -RA BR OVC012 FM140600
                       17010G20KT P6SM OVC025
                      TEMPO 1406/1410 -RA FM141000 16012G22KT P6SM
                       SCT030 OVC050=
201303130530 TAF KBLI 130530Z 1306/1406 16018G27KT P6SM SCT020 BKN045 OVC070
                       TEMPO 1308/1312 4SM -RA BR BKN020 OVC040
                       FM131200 18014G22KT P6SM -RA OVC015 FM131800
                       17010KT P6SM OVC025 FM140200 17010KT P6SM
                       OVC035
                      TEMPO 1402/1406 -RA=
201303122320 TAF KBLI 122320Z 1300/1324 17014G25KT P6SM -RA BKN015 OVC025 FM131200
                       18012KT P6SM -RA OVC015 FM131800 17010KT
                       P6SM OVC025=
201303121720 TAF KBLI 121720Z 1218/1318 15018G30KT 6SM -RA BR OVC018
                      TEMPO 1218/1222 4SM RA BR BKN002 OVC020 FM122200
                       17016G26KT 4SM RA BR OVC018 FM130000 17013G22KT
                       P6SM -RA OVC015 FM130600 18012KT P6SM -RA
                       OVC025=
201303121509 TAF AMD KBLI 121509Z 1215/1312 15015G25KT 6SM -RA BR SCT002 OVC018
                       TEMPO 1215/1219 4SM RA BR BKN002 OVC020
                       FM121900 17016G26KT P6SM -RA OVC025
                      TEMPO 1219/1222 4SM -RA BR OVC015 FM130000
                       17012KT P6SM -RA OVC015 FM130600 18012KT
                       P6SM -RA OVC025=
201303121120 TAF KBLI 121120Z 1212/1312 34008KT P6SM SCT002 OVC027
                      TEMPO 1212/1216 5SM -RA BR BKN002 OVC020
                       FM121600 17016G24KT P6SM -RA OVC025
                      TEMPO 1218/1222 4SM -RA BR OVC015 FM130000
                       17012KT P6SM -RA OVC015 FM130600 18012KT
                       P6SM -RA OVC025=
201303120530 TAF KBLI 120530Z 1206/1306 06003KT 5SM -RA BR OVC023 FM121000 16010KT
                       P6SM -RA OVC015 FM121400 17016G24KT P6SM
                       -RA OVC025
                      TEMPO 1218/1222 4SM -RA BR OVC015 FM130000
                       17007KT P6SM -RA OVC015=
201303112320 TAF KBLI 112320Z 1200/1224 VRB03KT P6SM SCT050 BKN080 FM120300
                       11005KT P6SM -RA BKN025 OVC045 FM121000
                       17018G28KT 5SM RA BR OVC015=
201303111724 TAF KBLI 111724Z 1118/1218 VRB03KT P6SM SCT050 BKN080 FM120300
                       11005KT P6SM -RA BKN025 OVC045 FM121000
                       17018G28KT 5SM RA BR OVC015=
201303111120 TAF KBLI 111120Z 1112/1212 16006KT P6SM SCT009 SCT013 OVC050
                      TEMPO 1112/1114 BKN009 OVC013 FM111400 VRB03KT
                       P6SM SCT015 OVC060 FM111800 03003KT P6SM
                       SCT018 BKN050 BKN090 FM120300 11005KT P6SM
                       -RA BKN028 OVC045 FM121000 15018G30KT P6SM
                       -RA BKN015 OVC025=
201303110520 TAF KBLI 110520Z 1106/1206 16005KT P6SM BKN011 OVC050
                      TEMPO 1106/1109 SCT011 BKN050 FM111800 03003KT
                       P6SM SCT018 BKN050 BKN090 FM120300 12005KT
                       P6SM -RA BKN028 OVC045=
201303110104 TAF AMD KBLI 110104Z 1101/1124 15008KT P6SM FEW006 SCT019 OVC025
                       TEMPO 1101/1104 FEW006 BKN019 OVC025 FM111000
                       02004KT 6SM -RA BR OVC020=
201303102325 TAF KBLI 102325Z 1100/1124 17005KT P6SM FEW011 OVC018 FM111000
                       02004KT 6SM -RA BR OVC020=
201303102113 TAF AMD KBLI 102113Z 1021/1118 16005KT P6SM BKN018 OVC023 FM111000
                       02004KT 6SM -RA BR OVC020=
201303102034 TAF AMD KBLI 102034Z 1021/1118 17006KT P6SM OVC025 FM110000 VRB03KT
                       P6SM OVC030 FM111000 02004KT 6SM -RA BR
                       OVC020=
201303101722 TAF KBLI 101722Z 1018/1118 17007KT P6SM BKN045 OVC070 FM110000
                       VRB03KT P6SM OVC035 FM111000 02004KT 6SM
                       -RA BR OVC020=
201303101506 TAF AMD KBLI 101506Z 1015/1112 17006KT P6SM OVC035 FM110200 VRB03KT
                       P6SM OVC035=
201303101120 TAF KBLI 101120Z 1012/1112 17003KT P6SM BKN070 BKN200 FM101500
                       17006KT P6SM OVC045 FM102000 19006KT P6SM
                       OVC040
                      TEMPO 1020/1024 -RA OVC030 FM110200 VRB03KT
                       P6SM OVC035=
201303100524 TAF KBLI 100524Z 1006/1106 00000KT P6SM FEW100 BKN250 FM100900
                       17003KT P6SM BKN070 BKN200 FM101500 17006KT
                       P6SM OVC045 FM102200 18006KT P6SM OVC030=
201303092323 TAF KBLI 092323Z 1000/1024 16006KT P6SM SCT250 FM100900 17003KT
                       P6SM BKN070 BKN200 FM101500 17006KT P6SM
                       OVC045=
201303091725 TAF KBLI 091725Z 0918/1018 00000KT P6SM FEW004 FM092000 16004KT
                       P6SM FEW250 FM100900 17003KT P6SM BKN070
                       BKN200=
201303091123 TAF KBLI 091123Z 0912/1012 00000KT 5SM BR SCT001
                      TEMPO 0912/0916 3/4SM BR BKN001 FM091700
                       15003KT P6SM FEW250 FM100900 17003KT P6SM
                       BKN070 BKN200=
201303090905 TAF AMD KBLI 090905Z 0909/1006 00000KT P6SM SKC
                      TEMPO 0912/0916 1SM BR BKN002 FM091800 16004KT
                       P6SM FEW015=
201303090521 TAF KBLI 090521Z 0906/1006 00000KT P6SM SKC FM090900 00000KT 1/2SM
                       FG VV001 FM091400 00000KT 4SM BR BKN004
                       FM091800 16004KT P6SM FEW015=
201303082320 TAF KBLI 082320Z 0900/0924 28006KT P6SM FEW030 FM090200 00000KT
                       P6SM SKC FM090900 00000KT 1/2SM FG VV001
                       FM091400 00000KT 4SM BR BKN004 FM091800
                       16004KT P6SM FEW015=
201303081751 TAF AMD KBLI 081751Z 0818/0918 35004KT P6SM SCT002 SCT007 OVC045
                       FM081930 02004KT P6SM FEW030 SCT070 FM090100
                       00000KT P6SM SKC FM090900 00000KT 1/2SM
                       FG VV001 FM091400 00000KT 4SM BR BKN004
                       FM091700 16004KT P6SM FEW015=
201303081720 TAF KBLI 081720Z 0818/0918 00000KT 3SM BR BKN002 BKN070 FM081930
                       02004KT P6SM FEW030 SCT070 FM090100 00000KT
                       P6SM SKC FM090900 00000KT 1/2SM FG VV001
                       FM091400 00000KT 4SM BR BKN004 FM091700
                       16004KT P6SM FEW015=
201303081628 TAF AMD KBLI 081628Z 0816/0912 00000KT 1/2SM FG BKN002 OVC045 FM081800
                       00000KT 4SM BR SCT005 FM081930 02004KT P6SM
                       SCT030 FM090100 00000KT P6SM SKC=
201303081120 TAF KBLI 081120Z 0812/0912 00000KT 2SM BR SCT003 SCT040
                      TEMPO 0812/0816 1/4SM FG VV001 FM081700 00000KT
                       4SM BR SCT005 FM081800 02004KT P6SM SCT030
                       FM090100 00000KT P6SM SKC=
201303080802 TAF AMD KBLI 080802Z 0808/0906 00000KT 1/4SM FG VV001
                      TEMPO 0808/0812 1/2SM SCT001 FM081700 00000KT
                       3SM BR SCT002 FM081800 02004KT P6SM SCT030
                       FM090100 00000KT P6SM SKC=
201303080520 TAF KBLI 080520Z 0806/0906 00000KT P6SM FEW002 SCT035 BKN050
                      TEMPO 0806/0808 2SM BR BKN002 OVC050 FM080800
                       00000KT P6SM SCT002 SCT050
                      TEMPO 0812/0816 1/2SM FG BKN001 FM081800
                       02004KT P6SM SCT030 FM090100 00000KT P6SM
                       SKC=
201303080122 TAF AMD KBLI 080122Z 0801/0824 VRB03KT P6SM FEW018 SCT025 BKN040
                       TEMPO 0801/0803 FEW018 BKN025 BKN040 FM080300
                       00000KT P6SM SCT040 FM080800 00000KT P6SM
                       SCT004
                      TEMPO 0812/0816 1/2SM FG BKN001 FM081800
                       02004KT P6SM SCT030=
201303072327 TAF KBLI 072327Z 0800/0824 18004KT P6SM BKN025 BKN040 FM080300
                       00000KT P6SM SCT040 FM080800 00000KT P6SM
                       SCT004
                      TEMPO 0812/0816 1/2SM FG BKN001 FM081800
                       02004KT P6SM SCT030=
201303071720 TAF KBLI 071720Z 0718/0818 18004KT P6SM VCSH OVC020 FM072000 18005KT
                       P6SM BKN030 BKN060 FM072300 VRB03KT P6SM
                       SCT040 BKN120 FM080500 00000KT P6SM SCT120=
201303071126 TAF KBLI 071126Z 0712/0812 13005KT P6SM -RA OVC017 FM071500 18005KT
                       P6SM -RA BKN010 OVC020 FM071900 18005KT
                       P6SM BKN035 BKN060 FM072300 VRB03KT P6SM
                       SCT040 BKN120 FM080500 00000KT P6SM SCT120=
201303070521 TAF KBLI 070521Z 0706/0806 00000KT P6SM -RA SCT010 BKN020 OVC060
                       TEMPO 0706/0709 BKN010 OVC020 FM070900 17005KT
                       P6SM -RA BKN010 OVC020 FM071500 18005KT
                       P6SM BKN010 OVC020 FM071900 18005KT P6SM
                       BKN035 BKN060 FM072300 VRB03KT P6SM SCT040
                       BKN120=
201303070448 TAF AMD KBLI 070448Z 0705/0724 00000KT P6SM -RA SCT020 BKN030 OVC060
                       TEMPO 0705/0709 BKN020 OVC030 FM070900 17005KT
                       P6SM -RA SCT010 OVC020 FM071500 18005KT
                       P6SM BKN025 BKN040 FM071800 18005KT P6SM
                       SCT030 SCT060=
201303062320 TAF KBLI 062320Z 0700/0724 VRB04KT P6SM -RA SCT010 BKN020 OVC040
                       TEMPO 0700/0704 SCT009 OVC014 FM070400 20006KT
                       P6SM -RA OVC020 FM071500 18005KT P6SM BKN025
                       BKN040 FM071800 18005KT P6SM SCT030 SCT060=
201303061721 TAF KBLI 061721Z 0618/0718 33008KT P6SM VCSH SCT030 BKN040 OVC100
                       TEMPO 0618/0622 -RA BKN030 FM070200 23006KT
                       P6SM VCSH BKN040 FM071000 18005KT P6SM BKN025=
201303061403 TAF AMD KBLI 061403Z 0614/0712 32008KT P6SM BKN060 BKN120 FM062200
                       34006KT P6SM -SHRA BKN045 BKN080 FM070000
                       23006KT P6SM VCSH BKN040 FM071000 18005KT
                       P6SM BKN025=
201303061120 TAF KBLI 061120Z 0612/0712 36008KT P6SM BKN060 BKN120 FM062200
                       34006KT P6SM VCSH BKN040 BKN080 FM070000
                       23006KT P6SM VCSH BKN040 FM071000 18005KT
                       P6SM BKN025=
201303060520 TAF KBLI 060520Z 0606/0706 VRB03KT P6SM OVC050
                      TEMPO 0606/0610 -RA SCT025 OVC040 FM061000
                       33006KT P6SM VCSH SCT025 OVC040 FM062000
                       36006KT P6SM VCSH BKN040=
201303060303 TAF AMD KBLI 060303Z 0603/0624 VRB03KT P6SM -RA OVC050 FM061200
                       33006KT P6SM VCSH SCT025 BKN050=
201303052337 TAF KBLI 052337Z 0600/0624 02012G20KT P6SM VCSH OVC060 FM060600
                       03004KT P6SM VCSH OVC050 FM062100 34005KT
                       P6SM VCSH OVC050=
201303051726 TAF KBLI 051726Z 0518/0618 03010G20KT P6SM OVC060 FM052100 10005KT
                       P6SM -RA OVC045 FM060300 15006KT P6SM VCSH
                       BKN035 FM060600 04004KT P6SM VCSH OVC025=
201303051120 TAF KBLI 051120Z 0512/0612 03015KT P6SM BKN060 OVC120 FM051800
                       14008KT P6SM -RA OVC040 FM060000 18008KT
                       P6SM VCSH BKN035 BKN050 FM060600 18006KT
                       P6SM OVC025=
201303050943 TAF AMD KBLI 050943Z 0510/0606 03015KT P6SM SCT120 BKN200 FM051200
                       03015KT P6SM BKN060 OVC120 FM051800 14008KT
                       P6SM -RA OVC040 FM060000 18008KT P6SM VCSH
                       BKN035 BKN050=
201303050520 TAF KBLI 050520Z 0506/0606 02008KT P6SM SCT120 BKN200 FM051000
                       12008KT P6SM BKN060 OVC120 FM051600 14008KT
                       P6SM -RA OVC040 FM060000 18008KT P6SM VCSH
                       BKN035 BKN050=
201303042320 TAF KBLI 042320Z 0500/0524 03005KT P6SM SCT120 BKN200 FM050500
                       05006KT P6SM BKN100 OVC200 FM051000 07008KT
                       P6SM BKN050 OVC200
                      TEMPO 0521/0524 -RA OVC040=
201303041720 TAF KBLI 041720Z 0418/0518 03005KT P6SM SCT120 BKN200 FM050500
                       05006KT P6SM BKN100 OVC200 FM051000 07008KT
                       P6SM BKN050 OVC200=
201303041120 TAF KBLI 041120Z 0412/0512 00000KT P6SM SCT200 FM041800 06006KT
                       P6SM SCT120 BKN200 FM050500 12008KT P6SM
                       BKN100 OVC200 FM051000 14012KT P6SM BKN050
                       OVC100=
201303040520 TAF KBLI 040520Z 0406/0506 06006KT P6SM SCT070 SCT150 FM042000
                       06006KT P6SM SCT120 BKN200 FM050500 12012KT
                       P6SM BKN100 OVC200=
201303032330 TAF KBLI 032330Z 0400/0424 31005KT P6SM FEW035 SCT060 FM040200
                       VRB03KT P6SM SKC FM041600 03008KT P6SM SKC
                       FM042100 07008KT P6SM SCT200=
201303032104 TAF AMD KBLI 032104Z 0321/0418 29009KT P6SM SCT035 BKN050
                      TEMPO 0321/0323 BKN035 BKN050 FM032300 32006KT
                       P6SM SCT050 SCT200 FM040200 VRB03KT P6SM
                       BKN200=
201303031729 TAF KBLI 031729Z 0318/0418 20005KT P6SM VCSH SCT025 OVC040
                      TEMPO 0318/0320 BKN025 OVC040 FM032000 24006KT
                       P6SM SCT030 BKN050 FM032200 29006KT P6SM
                       SCT050 SCT200 FM040200 VRB03KT P6SM BKN200=
201303031555 TAF AMD KBLI 031555Z 0316/0412 VRB03KT P6SM SCT028 BKN050
                      TEMPO 0316/0319 BKN028 BKN050 FM032000 25006KT
                       P6SM SCT050 SCT200 FM040600 04007KT P6SM
                       BKN200=
201303031120 TAF KBLI 031120Z 0312/0412 VRB04KT P6SM BKN025
                      TEMPO 0312/0316 SCT025 SCT040 FM031600 30006KT
                       P6SM BKN040 FM031900 32006KT P6SM SCT040
                       SCT200 FM040600 04007KT P6SM BKN200=
201303030520 TAF KBLI 030520Z 0306/0406 27007KT P6SM VCSH BKN025 OVC040 FM031200
                       30007KT P6SM VCSH BKN025 BKN050 FM032000
                       32007KT P6SM SCT035 SCT050=
201303030058 TAF AMD KBLI 030058Z 0301/0324 19008KT P6SM -SHRA SCT022 OVC040
                       TEMPO 0301/0302 4SM SHRA BKN022 OVC040 FM030200
                       18006KT P6SM VCSH BKN030 OVC050
                      TEMPO 0302/0306 -SHRA FM030600 18006KT P6SM
                       SCT030 SCT050
                      TEMPO 0306/0310 BKN030 BKN050 FM032000 24006KT
                       P6SM SCT050 BKN200=
201303030016 TAF AMD KBLI 030016Z 0300/0324 20008KT P6SM -SHRA SCT009 BKN022
                       OVC040
                      TEMPO 0300/0302 4SM SHRA BKN009 OVC022 FM030200
                       18006KT P6SM VCSH BKN030 OVC050
                      TEMPO 0302/0306 -SHRA FM030600 18006KT P6SM
                       SCT030 SCT050
                      TEMPO 0306/0310 BKN030 BKN050 FM032000 24006KT
                       P6SM SCT050 BKN200=
201303022349 TAF KBLI 022349Z 0300/0324 19016KT P6SM -SHRA SCT015 BKN030 OVC050
                       FM030300 21006KT P6SM SCT030 BKN050 FM031500
                       25004KT P6SM BKN050 BKN200=
201303022231 TAF AMD KBLI 022231Z 0223/0318 25009KT 4SM -RA BR SCT008 OVC020
                       TEMPO 0223/0224 1 1/2SM RA BR BKN008 OVC020
                       FM030000 19016KT P6SM -SHRA SCT015 BKN030
                       OVC050 FM030300 21006KT P6SM SCT030 BKN050
                       FM031500 25004KT P6SM BKN050 BKN200=
201303022113 TAF AMD KBLI 022113Z 0221/0318 17013G22KT P6SM OVC022
                      TEMPO 0221/0224 -RA FM030000 19016KT P6SM
                       -SHRA SCT015 BKN030 OVC050 FM030300 21006KT
                       P6SM SCT030 BKN050 FM031500 25004KT P6SM
                       BKN050 BKN200=
201303021815 TAF AMD KBLI 021815Z 0218/0318 17013G23KT P6SM OVC030
                      TEMPO 0218/0220 -RA FM022000 19013G20KT 6SM
                       -RA BR OVC020 FM030000 19016KT P6SM -SHRA
                       SCT015 BKN030 OVC050 FM030300 21006KT P6SM
                       SCT030 BKN050
                      PROB30 0303/0309 -SHRA BKN030 OVC050 FM031500
                       25004KT P6SM BKN050 BKN200=
201303021746 TAF KBLI 021746Z 0218/0318 16014G22KT P6SM -RA OVC025 FM022000
                       20012G22KT P6SM -SHRA BKN025 BKN050 FM030400
                       22010KT P6SM VCSH SCT030 BKN050=
201303021120 TAF KBLI 021120Z 0212/0312 16014G22KT P6SM -RA OVC025 FM022000
                       20012G22KT P6SM -SHRA BKN025 BKN050 FM030400
                       22010KT P6SM VCSH SCT030 BKN050=
201303020520 TAF KBLI 020520Z 0206/0306 16014G22KT P6SM -RA OVC025 FM022000
                       20012G22KT P6SM -SHRA BKN025 BKN050=
201303012347 TAF KBLI 012347Z 0200/0224 16015G23KT P6SM SCT025 OVC060
                      TEMPO 0200/0204 BKN025 OVC060 FM020400 15013KT
                       P6SM SCT030 OVC060
                      PROB30 0212/0218 -RA BKN030 OVC060 FM021800
                       17013G23KT P6SM -RA OVC030 FM022000 20013KT
                       5SM -RA BR OVC020=
201303012215 TAF AMD KBLI 012215Z 0122/0218 17015G23KT P6SM BKN025 OVC050
                      TEMPO 0122/0124 -RA FM020000 17013KT P6SM
                       SCT035 BKN050 OVC090
                      TEMPO 0200/0204 17013G23KT -RA FM020900 17008KT
                       P6SM SCT018 OVC030
                      PROB30 0212/0218 -RA BKN018 OVC030=
201303012054 TAF AMD KBLI 012054Z 0121/0218 17020G30KT P6SM SCT025 BKN050 OVC090
                       TEMPO 0121/0124 -RA BKN025 OVC050 FM020000
                       17013KT P6SM SCT035 BKN050 OVC090
                      TEMPO 0200/0204 17013G23KT -RA FM020900 17008KT
                       P6SM SCT018 OVC030
                      PROB30 0212/0218 -RA BKN018 OVC030=
201303011746 TAF KBLI 011746Z 0118/0218 15020G30KT P6SM SCT020 SCT050 OVC090
                       TEMPO 0118/0120 -RA BKN020 OVC050 FM012000
                       15020G30KT P6SM SCT030 BKN050 OVC090
                      TEMPO 0120/0124 -RA FM020000 17013KT P6SM
                       SCT035 BKN050 OVC090
                      TEMPO 0200/0204 17013G23KT -RA FM020900 17008KT
                       P6SM SCT018 OVC030
                      PROB30 0212/0218 -RA BKN018 OVC030=
201303011132 TAF KBLI 011132Z 0112/0212 16015G25KT P6SM -RA SCT020 OVC045
                      TEMPO 0112/0116 -RA BKN018 OVC045 FM011600
                       16015G25KT P6SM -RA BKN025 OVC045 FM012100
                       16015G25KT P6SM BKN035 OVC050=
201303011017 TAF AMD KBLI 011017Z 0110/0206 16015G25KT P6SM SCT020 OVC045
                      TEMPO 0110/0114 -RA BKN020 OVC045 FM011400
                       16015G25KT P6SM -RA BKN025 OVC045 FM012100
                       16012G22KT P6SM BKN040 OVC080=
201303010553 TAF KBLI 010553Z 0106/0206 VRB05KT 6SM -RA BR BKN020 OVC050
                      TEMPO 0106/0110 4SM -RA BR BKN007 OVC015
                       FM011000 17012G22KT P6SM -RA BKN007 OVC015
                       FM011900 17012G22KT P6SM -RA OVC015=