##########################################################
# Query made at 02/16/2025 20:23:02 UTC
# Time interval: from 07/01/2013 00:00  to 07/31/2013 23:59  UTC
##########################################################

##########################################################
# KBLI, Bellingham, Bellingham International Airport (United States)
# WMO index: -----. WIGOS ID: Unknown
# Latitude 48-47-58N. Longitude 122-32-21W. Altitude 48 m.
##########################################################

###################################
#  METAR/SPECI from KBLI
###################################
201307312353 METAR KBLI 312353Z 18007KT 10SM CLR 19/13 A3002 RMK AO2 SLP170 T01890128 10194 20139 56013=
201307312253 METAR KBLI 312253Z 18008KT 10SM CLR 18/12 A3003 RMK AO2 SLP175 T01830122=
201307312153 METAR KBLI 312153Z 16006KT 10SM CLR 18/13 A3004 RMK AO2 SLP177 T01780128=
201307312053 METAR KBLI 312053Z VRB04KT 10SM CLR 16/12 A3005 RMK AO2 SLP183 T01610122 58015=
201307311953 METAR KBLI 311953Z 18005KT 10SM CLR 17/12 A3007 RMK AO2 SLP189 T01670122=
201307311911 SPECI KBLI 311911Z 18006KT 10SM SCT004 15/12 A3009 RMK AO2 CIG VSBY LWR SE-W=
201307311853 METAR KBLI 311853Z 17008KT 5SM BR OVC004 14/12 A3009 RMK AO2 SLP194 T01440122=
201307311753 METAR KBLI 311753Z 16008KT 5SM BR OVC002 14/12 A3010 RMK AO2 SLP198 T01440122 10144 20128 56006=
201307311748 SPECI KBLI 311748Z 18008KT 5SM BR OVC002 14/12 A3010 RMK AO2=
201307311653 METAR KBLI 311653Z 17008KT 1SM R16/P6000FT BR VV002 13/12 A3011 RMK AO2 SLP202 T01330122=
201307311553 METAR KBLI 311553Z 17007KT 1SM R16/P6000FT BR VV002 13/12 A3012 RMK AO2 SLP204 T01330122=
201307311546 SPECI KBLI 311546Z 18007KT 1SM R16/4500VP6000FT BR VV002 13/12 A3012 RMK AO2=
201307311453 METAR KBLI 311453Z 17007KT 3/4SM R16/6000VP6000FT BR VV001 13/12 A3012 RMK AO2 SLP204 T01330122 53005=
201307311440 SPECI KBLI 311440Z 17008KT 3/4SM R16/3500VP6000FT BR VV001 13/12 A3011 RMK AO2=
201307311405 SPECI KBLI 311405Z 16005KT 1SM R16/4000VP6000FT BR VV001 13/12 A3011 RMK AO2=
201307311353 METAR KBLI 311353Z 17006KT 2 1/2SM BR OVC002 13/12 A3010 RMK AO2 SLP200 T01330122=
201307311253 METAR KBLI 311253Z AUTO 16006KT 10SM BKN002 14/12 A3010 RMK AO2 SLP199 T01390122=
201307311241 SPECI KBLI 311241Z AUTO 17007KT 10SM SCT004 14/13 A3010 RMK AO2=
201307311233 SPECI KBLI 311233Z AUTO 16006KT 10SM BKN004 14/13 A3010 RMK AO2=
201307311208 SPECI KBLI 311208Z AUTO 17004KT 10SM FEW004 14/13 A3010 RMK AO2=
201307311153 METAR KBLI 311153Z AUTO 16005KT 10SM CLR 14/13 A3010 RMK AO2 SLP199 T01440128 10167 20139 56001=
201307311053 METAR KBLI 311053Z AUTO 17007KT 10SM CLR 14/13 A3010 RMK AO2 SLP199 T01440128=
201307310953 METAR KBLI 310953Z AUTO 17005KT 10SM CLR 15/13 A3010 RMK AO2 SLP200 T01500128=
201307310853 METAR KBLI 310853Z AUTO 18004KT 10SM FEW120 15/13 A3010 RMK AO2 SLP200 T01500128 50000=
201307310753 METAR KBLI 310753Z AUTO 18004KT 10SM CLR 16/13 A3012 RMK AO2 SLP204 T01560128 402110133=
201307310700 METAR KBLI NIL=
201307310553 METAR KBLI 310553Z AUTO 17006KT 10SM CLR 16/13 A3010 RMK AO2 SLP200 T01610128 10211 20161 53010=
201307310453 METAR KBLI 310453Z 18008KT 10SM CLR 17/13 A3010 RMK AO2 SLP197 T01670133=
201307310353 METAR KBLI 310353Z 17008KT 10SM CLR 17/13 A3008 RMK AO2 SLP192 T01720128=
201307310253 METAR KBLI 310253Z 18007KT 10SM CLR 18/12 A3007 RMK AO2 SLP190 T01780122 56006=
201307310153 METAR KBLI 310153Z 17006KT 10SM CLR 19/13 A3007 RMK AO2 SLP190 T01890133=
201307310053 METAR KBLI 310053Z 16007KT 10SM CLR 21/13 A3008 RMK AO2 SLP192 T02060128=
201307302353 METAR KBLI 302353Z 19007KT 10SM CLR 20/13 A3009 RMK AO2 SLP196 T02000128 10206 20150 58009=
201307302253 METAR KBLI 302253Z 17008KT 10SM CLR 20/13 A3010 RMK AO2 SLP199 T02000133=
201307302153 METAR KBLI 302153Z VRB05KT 10SM BKN110 18/13 A3011 RMK AO2 SLP202 T01830133=
201307302053 METAR KBLI 302053Z 17008KT 10SM CLR 18/13 A3012 RMK AO2 SLP205 T01830133 58003=
201307301953 METAR KBLI 301953Z 17009KT 10SM FEW004 16/13 A3012 RMK AO2 SLP206 T01610128=
201307301944 SPECI KBLI 301944Z 18008KT 10SM FEW004 16/13 A3013 RMK AO2=
201307301853 METAR KBLI 301853Z 17011KT 10SM OVC004 16/12 A3013 RMK AO2 SLP207 T01560122=
201307301753 METAR KBLI 301753Z 17009KT 10SM OVC004 15/12 A3013 RMK AO2 SLP208 T01500122 10150 20133 53003=
201307301700 SPECI KBLI 301700Z 17010KT 7SM OVC002 14/12 A3013 RMK AO2=
201307301653 METAR KBLI 301653Z 17010KT 1SM R16/P6000FT BR VV002 14/12 A3012 RMK AO2 SLP207 T01390117=
201307301553 METAR KBLI 301553Z 17009G16KT 1SM R16/P6000FT BR VV002 14/12 A3012 RMK AO2 SLP205 T01390117=
201307301551 SPECI KBLI 301551Z 17008G16KT 1SM R16/P6000FT BR VV002 13/12 A3012 RMK AO2=
201307301453 METAR KBLI 301453Z 17007KT 10SM OVC003 13/12 A3011 RMK AO2 SLP200 T01330117 53020=
201307301353 METAR KBLI 301353Z 17009KT 9SM OVC003 13/12 A3009 RMK AO2 SLP194 T01330122=
201307301322 SPECI KBLI 301322Z AUTO 17009KT 9SM BKN003 14/12 A3007 RMK AO2=
201307301308 SPECI KBLI 301308Z AUTO 17006KT 10SM SCT003 14/12 A3007 RMK AO2=
201307301253 METAR KBLI 301253Z AUTO 16006KT 10SM CLR 14/12 A3006 RMK AO2 SLP186 T01390122=
201307301153 METAR KBLI 301153Z AUTO 17006KT 10SM CLR 14/12 A3005 RMK AO2 SLP180 T01440122 10183 20133 53011=
201307301053 METAR KBLI 301053Z AUTO 18007KT 10SM CLR 15/12 A3003 RMK AO2 SLP176 T01500117=
201307300953 METAR KBLI 300953Z AUTO 18006KT 10SM CLR 15/12 A3002 RMK AO2 SLP172 T01500122=
201307300853 METAR KBLI 300853Z AUTO 00000KT 10SM CLR 13/11 A3001 RMK AO2 SLP169 T01330111 51012=
201307300753 METAR KBLI 300753Z AUTO 17005KT 10SM CLR 17/13 A3000 RMK AO2 SLP166 T01670128 402110139=
201307300653 METAR KBLI 300653Z AUTO 18005KT 10SM CLR 17/13 A2999 RMK AO2 SLP161 T01720128=
201307300553 METAR KBLI 300553Z AUTO 17006KT 10SM CLR 17/13 A2998 RMK AO2 SLP157 T01670128 10211 20167 51012=
201307300453 METAR KBLI 300453Z 16008KT 10SM CLR 17/13 A2997 RMK AO2 SLP155 T01670128=
201307300353 METAR KBLI 300353Z 17008KT 10SM CLR 17/13 A2996 RMK AO2 SLP149 T01720128=
201307300253 METAR KBLI 300253Z 17006KT 10SM CLR 19/13 A2994 RMK AO2 SLP146 T01890128 55004=
201307300153 METAR KBLI 300153Z 17007KT 10SM CLR 20/12 A2994 RMK AO2 SLP145 T02000122=
201307300053 METAR KBLI 300053Z 19005KT 10SM CLR 21/12 A2995 RMK AO2 SLP146 T02060122=
201307292353 METAR KBLI 292353Z 16007KT 10SM CLR 21/12 A2996 RMK AO2 SLP150 T02110122 10211 20161 58008=
201307292253 METAR KBLI 292253Z VRB06KT 10SM CLR 21/12 A2997 RMK AO2 SLP153 T02110122=
201307292153 METAR KBLI 292153Z 17006KT 10SM CLR 19/12 A2998 RMK AO2 SLP156 T01940122=
201307292053 METAR KBLI 292053Z VRB04KT 10SM CLR 19/12 A2998 RMK AO2 SLP158 T01940122 58005=
201307291953 METAR KBLI 291953Z 17008KT 10SM CLR 18/12 A2999 RMK AO2 SLP161 T01830117=
201307291853 METAR KBLI 291853Z 19007KT 10SM CLR 17/12 A3000 RMK AO2 SLP163 T01720122=
201307291753 METAR KBLI 291753Z 18008KT 10SM SCT028 17/12 A3000 RMK AO2 SLP164 T01670122 10167 20139 50000=
201307291653 METAR KBLI 291653Z 18008KT 10SM OVC030 16/12 A3000 RMK AO2 SLP165 T01560122=
201307291553 METAR KBLI 291553Z 17007KT 10SM BKN030 16/12 A3001 RMK AO2 SLP166 T01560117=
201307291453 METAR KBLI 291453Z 17005KT 10SM BKN034 15/12 A3000 RMK AO2 SLP164 T01500122 53007=
201307291353 METAR KBLI 291353Z 16006KT 10SM FEW034 14/12 A2999 RMK AO2 SLP161 T01440122=
201307291253 METAR KBLI 291253Z AUTO 18005KT 10SM CLR 14/12 A2998 RMK AO2 SLP158 T01390117=
201307291153 METAR KBLI 291153Z AUTO 17005KT 10SM FEW120 14/12 A2998 RMK AO2 SLP156 T01440122 10172 20144 53002=
201307291053 METAR KBLI 291053Z AUTO 16006KT 10SM OVC120 14/12 A2997 RMK AO2 SLP153 T01440122=
201307290953 METAR KBLI 290953Z AUTO 17008KT 10SM CLR 15/12 A2996 RMK AO2 SLP152 T01500122=
201307290853 METAR KBLI 290853Z AUTO 15005KT 10SM CLR 17/12 A2997 RMK AO2 SLP154 T01670122 51004=
201307290753 METAR KBLI 290753Z AUTO 15006KT 10SM BKN110 17/12 A2997 RMK AO2 SLP153 T01720122 402170139=
201307290653 METAR KBLI 290653Z AUTO 17008KT 10SM FEW120 17/13 A2996 RMK AO2 SLP151 T01670128=
201307290553 METAR KBLI 290553Z AUTO 17007KT 10SM FEW120 17/13 A2995 RMK AO2 SLP149 T01670128 10217 20167 53007=
201307290453 METAR KBLI 290453Z 17007KT 10SM BKN110 18/13 A2995 RMK AO2 SLP146 T01830133=
201307290353 METAR KBLI 290353Z 18006KT 10SM CLR 19/14 A2993 RMK AO2 SLP141 T01890139=
201307290253 METAR KBLI 290253Z 17006KT 10SM CLR 21/12 A2993 RMK AO2 SLP142 T02060122 55005=
201307290153 METAR KBLI 290153Z 16006KT 10SM CLR 21/12 A2993 RMK AO2 SLP142 T02110122=
201307290053 METAR KBLI 290053Z 17006KT 10SM CLR 22/12 A2994 RMK AO2 SLP145 T02170122=
201307282353 METAR KBLI 282353Z 16008KT 10SM CLR 22/12 A2995 RMK AO2 SLP148 T02170122 10217 20178 57010=
201307282253 METAR KBLI 282253Z AUTO 18006KT 10SM CLR 21/12 A2996 RMK AO2 SLP151 T02110117 TSNO=
201307282153 METAR KBLI 282153Z 16010G14KT 10SM CLR 21/12 A2997 RMK AO2 SLP155 T02110117=
201307282053 METAR KBLI 282053Z 18008KT 10SM CLR 20/12 A2998 RMK AO2 SLP158 T02000122 58006=
201307281953 METAR KBLI 281953Z 19007KT 150V230 10SM CLR 19/12 A2999 RMK AO2 SLP160 T01890122=
201307281853 METAR KBLI 281853Z VRB06KT 10SM CLR 19/12 A2999 RMK AO2 SLP162 T01890122=
201307281753 METAR KBLI 281753Z 17007KT 10SM CLR 17/12 A3000 RMK AO2 SLP164 T01720117 10178 20139 57001=
201307281653 METAR KBLI 281653Z 18006G14KT 10SM CLR 17/12 A3000 RMK AO2 SLP163 T01670117=
201307281553 METAR KBLI 281553Z 17008KT 10SM CLR 16/12 A3000 RMK AO2 SLP165 T01610117=
201307281453 METAR KBLI 281453Z 16008KT 10SM SCT095 14/12 A3000 RMK AO2 SLP165 T01440117 53006=
201307281353 METAR KBLI 281353Z 17006KT 10SM CLR 14/12 A2999 RMK AO2 SLP162 T01440122=
201307281253 METAR KBLI 281253Z AUTO 18004KT 10SM CLR 14/11 A2999 RMK AO2 SLP160 T01390111=
201307281153 METAR KBLI 281153Z AUTO 18005KT 10SM CLR 14/11 A2998 RMK AO2 SLP159 T01390111 10156 20139 58001=
201307281053 METAR KBLI 281053Z AUTO 17005KT 10SM CLR 14/11 A2998 RMK AO2 SLP158 T01440111=
201307280953 METAR KBLI 280953Z AUTO 17004KT 10SM CLR 15/12 A2999 RMK AO2 SLP159 T01500117=
201307280853 METAR KBLI 280853Z AUTO 18003KT 10SM CLR 14/12 A2999 RMK AO2 SLP159 T01440117 56006=
201307280753 METAR KBLI 280753Z AUTO 19004KT 10SM CLR 14/12 A2999 RMK AO2 SLP162 T01440117 402330133=
201307280653 METAR KBLI 280653Z AUTO 00000KT 10SM CLR 14/12 A3000 RMK AO2 SLP164 T01440117=
201307280553 METAR KBLI 280553Z AUTO 00000KT 10SM CLR 14/12 A3000 RMK AO2 SLP166 T01440122 10233 20133 50001=
201307280453 METAR KBLI 280453Z 00000KT 10SM CLR 16/13 A3001 RMK AO2 SLP166 T01610128=
201307280353 METAR KBLI 280353Z 00000KT 10SM CLR 16/12 A3000 RMK AO2 SLP165 T01610122=
201307280253 METAR KBLI 280253Z 19003KT 10SM CLR 20/12 A3000 RMK AO2 SLP165 T02000122 56016=
201307280153 METAR KBLI 280153Z 00000KT 10SM CLR 22/11 A3001 RMK AO2 SLP169 T02220106=
201307280053 METAR KBLI 280053Z VRB03KT 10SM CLR 23/10 A3003 RMK AO2 SLP174 T02280100=
201307272353 METAR KBLI 272353Z 00000KT 10SM CLR 23/09 A3005 RMK AO2 SLP181 T02280094 10233 20183 58018=
201307272253 METAR KBLI 272253Z 31004KT 10SM CLR 23/10 A3007 RMK AO2 SLP189 T02280100=
201307272153 METAR KBLI 272153Z VRB05KT 10SM CLR 23/11 A3009 RMK AO2 SLP193 T02280106=
201307272053 METAR KBLI 272053Z 30005KT 10SM CLR 23/11 A3010 RMK AO2 SLP198 T02280106 56013=
201307271953 METAR KBLI 271953Z 28006KT 10SM CLR 22/11 A3011 RMK AO2 SLP202 T02170111=
201307271853 METAR KBLI 271853Z VRB05KT 10SM CLR 20/11 A3013 RMK AO2 SLP208 T02000111=
201307271753 METAR KBLI 271753Z VRB04KT 10SM SCT021 19/12 A3014 RMK AO2 SLP212 T01890122 10189 20133 58003=
201307271653 METAR KBLI 271653Z VRB03KT 10SM OVC021 17/12 A3015 RMK AO2 SLP216 T01670117=
201307271553 METAR KBLI 271553Z 16006KT 10SM OVC021 16/12 A3015 RMK AO2 SLP215 T01610122=
201307271453 METAR KBLI 271453Z 18005KT 10SM BKN021 16/12 A3015 RMK AO2 SLP215 T01560122 50004=
201307271445 SPECI KBLI 271445Z VRB03KT 10SM BKN021 16/12 A3015 RMK AO2=
201307271353 METAR KBLI 271353Z 17006KT 10SM CLR 14/12 A3015 RMK AO2 SLP216 T01440117=
201307271253 METAR KBLI 271253Z AUTO 18006KT 10SM CLR 13/11 A3014 RMK AO2 SLP213 T01330111=
201307271153 METAR KBLI 271153Z AUTO 18004KT 10SM CLR 14/12 A3014 RMK AO2 SLP211 T01390117 10161 20133 51006=
201307271053 METAR KBLI 271053Z AUTO 19004KT 10SM CLR 14/12 A3013 RMK AO2 SLP208 T01390117=
201307270953 METAR KBLI 270953Z AUTO 19004KT 10SM CLR 14/11 A3013 RMK AO2 SLP207 T01440111=
201307270853 METAR KBLI 270853Z AUTO 18006KT 10SM CLR 15/11 A3012 RMK AO2 SLP204 T01500111 51004=
201307270753 METAR KBLI 270753Z AUTO 19003KT 10SM CLR 15/12 A3012 RMK AO2 SLP204 T01500117 402440139=
201307270653 METAR KBLI 270653Z AUTO 19005KT 10SM CLR 16/12 A3012 RMK AO2 SLP204 T01560122=
201307270553 METAR KBLI 270553Z AUTO 20003KT 10SM CLR 16/12 A3011 RMK AO2 SLP201 T01560117 10228 20156 53008=
201307270453 METAR KBLI 270453Z 17003KT 10SM CLR 16/12 A3010 RMK AO2 SLP199 T01610122=
201307270353 METAR KBLI 270353Z 00000KT 10SM CLR 17/12 A3009 RMK AO2 SLP194 T01670117=
201307270253 METAR KBLI 270253Z 26003KT 10SM CLR 20/11 A3008 RMK AO2 SLP193 T02000106 55009=
201307270153 METAR KBLI 270153Z 20004KT 10SM CLR 22/11 A3008 RMK AO2 SLP192 T02170106=
201307270053 METAR KBLI 270053Z 18008KT 10SM CLR 22/12 A3009 RMK AO2 SLP196 T02170117=
201307262353 METAR KBLI 262353Z 18007KT 10SM CLR 22/12 A3011 RMK AO2 SLP202 T02220122 10244 20194 58007=
201307262253 METAR KBLI 262253Z 18007KT 10SM CLR 24/13 A3012 RMK AO2 SLP205 T02390128=
201307262153 METAR KBLI 262153Z 22006KT 10SM CLR 23/12 A3013 RMK AO2 SLP207 T02330117=
201307262053 METAR KBLI 262053Z VRB05KT 10SM CLR 23/12 A3013 RMK AO2 SLP208 T02330117 58006=
201307261953 METAR KBLI 261953Z 15007KT 110V190 10SM CLR 22/13 A3014 RMK AO2 SLP211 T02220133=
201307261853 METAR KBLI 261853Z VRB06KT 10SM CLR 21/13 A3015 RMK AO2 SLP214 T02110133=
201307261753 METAR KBLI 261753Z 18007KT 10SM CLR 20/13 A3015 RMK AO2 SLP215 T02000133 10200 20139 50003=
201307261653 METAR KBLI 261653Z 17006KT 10SM CLR 18/13 A3015 RMK AO2 SLP216 T01830133=
201307261553 METAR KBLI 261553Z 18007KT 10SM CLR 17/12 A3015 RMK AO2 SLP215 T01720122=
201307261453 METAR KBLI 261453Z 16007KT 10SM CLR 16/12 A3014 RMK AO2 SLP212 T01610122 52007=
201307261353 METAR KBLI 261353Z 18006KT 10SM CLR 15/12 A3013 RMK AO2 SLP210 T01500117=
201307261253 METAR KBLI 261253Z AUTO 17006KT 10SM CLR 14/11 A3012 RMK AO2 SLP205 T01440111=
201307261153 METAR KBLI 261153Z AUTO 18004KT 10SM CLR 14/11 A3012 RMK AO2 SLP204 T01440111 10161 20144 53008=
201307261053 METAR KBLI 261053Z AUTO 17006KT 10SM CLR 14/12 A3011 RMK AO2 SLP201 T01440117=
201307260953 METAR KBLI 260953Z AUTO 17004KT 10SM CLR 14/12 A3010 RMK AO2 SLP198 T01440117=
201307260853 METAR KBLI 260853Z AUTO 18004KT 10SM CLR 14/12 A3009 RMK AO2 SLP196 T01440117 53008=
201307260753 METAR KBLI 260753Z AUTO 18004KT 10SM CLR 14/12 A3009 RMK AO2 SLP194 T01440122 402440117=
201307260653 METAR KBLI 260653Z AUTO 00000KT 10SM CLR 15/12 A3008 RMK AO2 SLP190 T01500122=
201307260553 METAR KBLI 260553Z AUTO 00000KT 10SM CLR 16/12 A3007 RMK AO2 SLP188 T01560122 10233 20156 50002=
201307260453 METAR KBLI 260453Z 18004KT 10SM CLR 17/12 A3007 RMK AO2 SLP189 T01670122=
201307260353 METAR KBLI 260353Z 18003KT 10SM CLR 18/13 A3007 RMK AO2 SLP187 T01830128=
201307260253 SPECI KBLI 260253Z 00000KT 10SM CLR 21/13 A3006 RMK AO2 SLP186 T02060128 55006=
201307260253 METAR KBLI 260253Z 00000KT 10SM CLR 21/13 A3006 RMK AO2 SLP186 T02060128 55006=
201307260153 METAR KBLI 260153Z 18004KT 10SM CLR 22/12 A3006 RMK AO2 SLP186 T02170122=
201307260053 METAR KBLI 260053Z 17007KT 10SM CLR 23/13 A3007 RMK AO2 SLP190 T02280128=
201307252353 METAR KBLI 252353Z 18004KT 10SM CLR 23/14 A3008 RMK AO2 SLP192 T02330139 10244 20161 58006=
201307252253 METAR KBLI 252253Z 18005KT 10SM CLR 23/14 A3009 RMK AO2 SLP195 T02330144=
201307252153 METAR KBLI 252153Z VRB04KT 10SM CLR 23/14 A3010 RMK AO2 SLP197 T02330139=
201307252053 METAR KBLI 252053Z 18006KT 10SM CLR 22/14 A3010 RMK AO2 SLP199 T02170144 58001=
201307251953 METAR KBLI 251953Z 20006KT 10SM CLR 20/13 A3011 RMK AO2 SLP201 T02000133=
201307251853 METAR KBLI 251853Z 18006KT 10SM CLR 18/12 A3011 RMK AO2 SLP203 T01780122=
201307251753 METAR KBLI 251753Z VRB06KT 10SM FEW003 16/12 A3010 RMK AO2 SLP200 T01610122 10161 20117 50006=
201307251704 SPECI KBLI 251704Z 18007KT 10SM SCT003 14/12 A3011 RMK AO2=
201307251653 METAR KBLI 251653Z 16008KT 10SM BKN003 14/12 A3010 RMK AO2 SLP200 T01390117=
201307251553 METAR KBLI 251553Z 18006KT 5SM BR OVC003 13/11 A3009 RMK AO2 SLP197 VIS SE-SW 1 T01280111=
201307251518 SPECI KBLI 251518Z 17006KT 5SM BR OVC003 13/11 A3009 RMK AO2 VIS SE-SW 1=
201307251453 METAR KBLI 251453Z 17006KT 3SM BR OVC001 12/11 A3009 RMK AO2 SLP194 CIG HIGHER N T01220111 53007=
201307251353 METAR KBLI 251353Z 17006KT 1SM R16/P6000FT BR OVC001 12/11 A3008 RMK AO2 SLP191 T01220111=
201307251317 SPECI KBLI 251317Z AUTO 17005KT 3SM BR OVC001 12/11 A3007 RMK AO2=
201307251305 SPECI KBLI 251305Z AUTO VRB06KT 1 1/2SM R16/4000VP6000FT BR OVC001 12/11 A3006 RMK AO2 VIS 1 1/4V3=
201307251253 METAR KBLI 251253Z AUTO 18006KT 2 1/2SM R16/3000VP6000FT BR OVC001 12/11 A3006 RMK AO2 SLP186 T01170111=
201307251250 SPECI KBLI 251250Z AUTO 18006KT 3SM R16/5000VP6000FT BR OVC001 12/11 A3006 RMK AO2=
201307251216 SPECI KBLI 251216Z AUTO 17007KT 2 1/2SM BR BKN001 12/11 A3006 RMK AO2 VIS 1 1/2V5=
201307251209 SPECI KBLI 251209Z AUTO 17008KT 6SM BR BKN003 12/11 A3005 RMK AO2=
201307251153 METAR KBLI 251153Z AUTO 17007KT 10SM FEW003 12/11 A3005 RMK AO2 SLP182 T01220111 10161 20122 53008=
201307251053 METAR KBLI 251053Z AUTO 18006KT 10SM CLR 13/11 A3004 RMK AO2 SLP180 T01330111=
201307250953 METAR KBLI 250953Z AUTO 18007KT 10SM CLR 14/11 A3003 RMK AO2 SLP174 T01390111=
201307250853 METAR KBLI 250853Z AUTO 19006KT 10SM CLR 14/12 A3003 RMK AO2 SLP173 T01440117 53005=
201307250753 METAR KBLI 250753Z AUTO 17006KT 10SM CLR 15/12 A3002 RMK AO2 SLP171 T01500117 402500128=
201307250653 METAR KBLI 250653Z AUTO 17007KT 10SM CLR 15/12 A3001 RMK AO2 SLP170 T01500122=
201307250553 METAR KBLI 250553Z AUTO 18007KT 10SM CLR 17/13 A3001 RMK AO2 SLP169 T01670128 10250 20167 52004=
201307250453 METAR KBLI 250453Z 17006KT 10SM CLR 17/12 A3001 RMK AO2 SLP169 T01670122=
201307250353 METAR KBLI 250353Z 18006KT 10SM CLR 18/12 A3000 RMK AO2 SLP166 T01780122=
201307250253 METAR KBLI 250253Z 17007KT 10SM CLR 20/12 A3000 RMK AO2 SLP166 T02000122 55004=
201307250153 METAR KBLI 250153Z 17006KT 10SM CLR 22/13 A3000 RMK AO2 SLP164 T02220128=
201307250053 METAR KBLI 250053Z 18004KT 10SM CLR 24/14 A3000 RMK AO2 SLP165 T02440139=
201307242353 METAR KBLI 242353Z 17004KT 10SM CLR 24/14 A3002 RMK AO2 SLP169 T02440139 10250 20172 58008=
201307242253 METAR KBLI 242253Z VRB03KT 10SM CLR 23/15 A3003 RMK AO2 SLP173 T02330150=
201307242153 METAR KBLI 242153Z 19005KT 10SM CLR 23/15 A3003 RMK AO2 SLP174 T02330150=
201307242053 METAR KBLI 242053Z 19004KT 10SM CLR 23/14 A3004 RMK AO2 SLP177 T02330144 58006=
201307241953 METAR KBLI 241953Z VRB04KT 10SM CLR 22/14 A3005 RMK AO2 SLP179 T02220139=
201307241853 METAR KBLI 241853Z 18007KT 10SM CLR 19/13 A3006 RMK AO2 SLP184 T01890128=
201307241753 METAR KBLI 241753Z 18007KT 10SM CLR 17/12 A3006 RMK AO2 SLP184 T01720117 10178 20128 51001=
201307241653 METAR KBLI 241653Z 18007KT 10SM CLR 16/12 A3006 RMK AO2 SLP183 T01610117=
201307241553 METAR KBLI 241553Z 16006KT 10SM CLR 15/11 A3006 RMK AO2 SLP184 T01500111=
201307241453 METAR KBLI 241453Z 19007KT 10SM CLR 14/11 A3005 RMK AO2 SLP183 T01440111 51009=
201307241353 METAR KBLI 241353Z AUTO 18006KT 10SM CLR 13/11 A3005 RMK AO2 SLP181 T01330111=
201307241253 METAR KBLI 241253Z AUTO 18007KT 10SM CLR 13/11 A3004 RMK AO2 SLP176 T01330111=
201307241153 METAR KBLI 241153Z AUTO 18006KT 10SM CLR 14/11 A3003 RMK AO2 SLP173 T01390111 10172 20139 53008=
201307241053 METAR KBLI 241053Z AUTO 17007KT 10SM CLR 15/11 A3002 RMK AO2 SLP170 T01500111=
201307240953 METAR KBLI 240953Z AUTO 18009KT 10SM CLR 16/11 A3001 RMK AO2 SLP168 T01560111=
201307240853 METAR KBLI 240853Z AUTO 18006KT 10SM CLR 16/11 A3000 RMK AO2 SLP165 T01610106 50001=
201307240753 METAR KBLI 240753Z AUTO 18005KT 10SM CLR 17/12 A3000 RMK AO2 SLP165 T01670117 402670128=
201307240653 METAR KBLI 240653Z AUTO 18005KT 10SM CLR 17/13 A3000 RMK AO2 SLP163 T01720133=
201307240553 METAR KBLI 240553Z AUTO 18007KT 10SM CLR 17/13 A3000 RMK AO2 SLP164 T01720128 10267 20172 53006=
201307240453 METAR KBLI 240453Z 17008KT 10SM CLR 18/13 A3000 RMK AO2 SLP163 T01830133=
201307240353 METAR KBLI 240353Z 17005KT 10SM CLR 19/13 A2998 RMK AO2 SLP159 T01940133=
201307240253 METAR KBLI 240253Z 17004KT 10SM CLR 21/14 A2998 RMK AO2 SLP158 T02110144 55004=
201307240153 METAR KBLI 240153Z 17004KT 10SM CLR 24/12 A2998 RMK AO2 SLP156 T02440122=
201307240053 METAR KBLI 240053Z 23004KT 10SM CLR 26/09 A2998 RMK AO2 SLP157 T02610094=
201307232353 METAR KBLI 232353Z VRB03KT 10SM CLR 26/12 A2999 RMK AO2 SLP161 T02610117 10267 20172 56014=
201307232253 METAR KBLI 232253Z VRB04KT 10SM CLR 27/13 A3000 RMK AO2 SLP165 T02670133=
201307232153 METAR KBLI 232153Z VRB03KT 10SM CLR 26/13 A3002 RMK AO2 SLP169 T02560133=
201307232053 METAR KBLI 232053Z 22003KT 10SM CLR 23/14 A3003 RMK AO2 SLP175 T02330139 56011=
201307231953 METAR KBLI 231953Z 23004KT 10SM CLR 22/15 A3004 RMK AO2 SLP178 T02170150=
201307231853 METAR KBLI 231853Z 18004KT 10SM CLR 21/14 A3006 RMK AO2 SLP183 T02060144=
201307231753 METAR KBLI 231753Z 16006KT 10SM FEW001 17/13 A3007 RMK AO2 SLP187 VSBY SE-SW 1 T01670133 10172 20128 58004=
201307231737 SPECI KBLI 231737Z 15005KT 10SM FEW001 17/13 A3007 RMK AO2 VSBY SE-SW 1=
201307231703 SPECI KBLI 231703Z 17006KT 10SM SCT001 BKN003 16/13 A3007 RMK AO2=
201307231653 METAR KBLI 231653Z 18004KT 10SM SCT001 16/13 A3008 RMK AO2 SLP190 VSBY SE-SW 3/4 FG T01610128=
201307231634 SPECI KBLI 231634Z VRB04KT 10SM SCT001 14/13 A3007 RMK AO2 VSBY SE-SW 3/4 FG=
201307231617 SPECI KBLI 231617Z 15004KT 10SM OVC002 14/13 A3008 RMK AO2 CIG 001V005 VSBY SE-SW 3/4 FG=
201307231553 METAR KBLI 231553Z 00000KT 1/2SM R16/2600VP6000FT FG VV002 14/13 A3008 RMK AO2 SLP191 T01390128=
201307231534 SPECI KBLI 231534Z 18003KT 1/4SM R16/1400V3500FT FG VV001 13/13 A3008 RMK AO2=
201307231453 METAR KBLI 231453Z 21003KT 1/4SM R16/1200V1800FT FG VV001 13/13 A3008 RMK AO2 SLP191 T01330128 51006=
201307231448 SPECI KBLI 231448Z VRB03KT 1/4SM R16/1200V2000FT FG VV001 13/13 A3008 RMK AO2=
201307231437 SPECI KBLI 231437Z 00000KT 1/4SM R16/1400V2400FT FG VV001 13/12 A3007 RMK AO2=
201307231424 SPECI KBLI 231424Z 00000KT 1/2SM R16/1400V2000FT FG VV001 13/13 A3007 RMK AO2=
201307231407 SPECI KBLI 231407Z 18004KT 1/4SM R16/1600V2600FT FG VV001 13/13 A3007 RMK AO2=
201307231353 METAR KBLI 231353Z 15003KT 1/4SM R16/1600V4000FT FG VV002 13/12 A3007 RMK AO2 SLP188 T01330122=
201307231321 SPECI KBLI 231321Z AUTO 18004KT 1/2SM R16/2600V5000FT FG OVC002 13/13 A3007 RMK AO2=
201307231306 SPECI KBLI 231306Z AUTO 17004KT 1 1/4SM R16/3500VP6000FT BR OVC002 13/13 A3006 RMK AO2 VIS 3/4V2=
201307231253 METAR KBLI 231253Z AUTO 00000KT 2 1/2SM BR OVC002 13/13 A3006 RMK AO2 SLP185 T01330128=
201307231240 SPECI KBLI 231240Z AUTO 00000KT 4SM BR BKN002 13/13 A3006 RMK AO2=
201307231230 SPECI KBLI 231230Z AUTO 18003KT 5SM BR SCT002 13/12 A3006 RMK AO2=
201307231153 METAR KBLI 231153Z AUTO 18004KT 10SM CLR 14/12 A3005 RMK AO2 SLP182 T01390122 10167 20139 53005=
201307231053 METAR KBLI 231053Z AUTO 18005KT 10SM CLR 14/13 A3004 RMK AO2 SLP180 T01440128=
201307230953 METAR KBLI 230953Z AUTO 17006KT 10SM CLR 15/13 A3004 RMK AO2 SLP177 T01500133=
201307230853 METAR KBLI 230853Z AUTO 17008KT 10SM CLR 16/13 A3004 RMK AO2 SLP177 T01560133 53001=
201307230753 METAR KBLI 230753Z AUTO 18005KT 10SM CLR 16/14 A3004 RMK AO2 SLP177 T01610139 402390133=
201307230653 METAR KBLI 230653Z AUTO 17003KT 10SM CLR 16/14 A3003 RMK AO2 SLP176 T01560139=
201307230553 METAR KBLI 230553Z AUTO 00000KT 10SM CLR 16/14 A3003 RMK AO2 SLP176 T01560139 10239 20150 53010=
201307230453 METAR KBLI 230453Z 00000KT 10SM CLR 16/13 A3002 RMK AO2 SLP172 T01560133=
201307230353 METAR KBLI 230353Z 00000KT 10SM CLR 18/14 A3001 RMK AO2 SLP166 T01780139=
201307230253 METAR KBLI 230253Z 27003KT 10SM CLR 22/13 A3000 RMK AO2 SLP166 T02170133 55007=
201307230153 METAR KBLI 230153Z 29003KT 10SM CLR 23/13 A3000 RMK AO2 SLP165 T02280133=
201307230053 METAR KBLI 230053Z 00000KT 10SM CLR 23/14 A3001 RMK AO2 SLP169 T02280144=
201307222353 METAR KBLI 222353Z 18005KT 10SM CLR 22/14 A3003 RMK AO2 SLP173 T02220144 10228 20161 58008=
201307222253 METAR KBLI 222253Z 17006KT 10SM CLR 22/14 A3004 RMK AO2 SLP178 T02170144=
201307222153 METAR KBLI 222153Z 18006KT 10SM CLR 21/14 A3005 RMK AO2 SLP180 T02110144=
201307222053 METAR KBLI 222053Z 16010KT 10SM CLR 20/14 A3005 RMK AO2 SLP181 T02000139 58000=
201307221953 METAR KBLI 221953Z 18008KT 140V220 10SM CLR 18/14 A3005 RMK AO2 SLP181 T01830139=
201307221914 SPECI KBLI 221914Z 19008KT 10SM CLR 18/13 A3005 RMK AO2=
201307221853 METAR KBLI 221853Z 18008KT 10SM BKN021 18/13 A3005 RMK AO2 SLP182 T01780133=
201307221753 METAR KBLI 221753Z 17008KT 10SM FEW005 OVC021 16/13 A3005 RMK AO2 SLP181 T01610128 10161 20133 51014=
201307221741 SPECI KBLI 221741Z 17009KT 10SM SCT005 OVC021 16/13 A3005 RMK AO2=
201307221713 SPECI KBLI 221713Z 17008KT 10SM BKN005 OVC021 15/13 A3005 RMK AO2=
201307221653 METAR KBLI 221653Z 17009KT 10SM BKN003 OVC021 15/13 A3004 RMK AO2 SLP178 T01500128=
201307221553 METAR KBLI 221553Z 17008KT 10SM OVC002 14/12 A3003 RMK AO2 SLP174 T01390122=
201307221453 METAR KBLI 221453Z 17009KT 8SM OVC002 13/12 A3001 RMK AO2 SLP168 T01330122 52015=
201307221411 SPECI KBLI 221411Z 17008G16KT 10SM OVC002 13/12 A3000 RMK AO2=
201307221353 METAR KBLI 221353Z AUTO 18010G16KT 10SM OVC005 13/12 A3000 RMK AO2 SLP163 T01330117=
201307221253 METAR KBLI 221253Z AUTO 17013G18KT 10SM OVC005 13/12 A2998 RMK AO2 SLP157 T01330117=
201307221200 SPECI KBLI 221200Z AUTO 17009G16KT 10SM BKN005 BKN049 13/12 A2997 RMK AO2=
201307221153 METAR KBLI 221153Z AUTO 17009KT 10SM SCT005 BKN049 OVC060 13/12 A2996 RMK AO2 SLP152 T01330117 10167 20133 53009=
201307221141 SPECI KBLI 221141Z AUTO 18008G15KT 10SM FEW005 BKN049 OVC060 13/12 A2997 RMK AO2=
201307221053 METAR KBLI 221053Z AUTO 18010G15KT 10SM CLR 14/12 A2995 RMK AO2 SLP149 T01390122=
201307220953 METAR KBLI 220953Z AUTO 18008KT 10SM CLR 14/13 A2994 RMK AO2 SLP145 T01440128=
201307220853 METAR KBLI 220853Z AUTO 18007KT 10SM CLR 15/13 A2994 RMK AO2 SLP143 T01500128 53005=
201307220753 METAR KBLI 220753Z AUTO 16008KT 10SM CLR 16/12 A2993 RMK AO2 SLP141 T01560122 402060128=
201307220653 METAR KBLI 220653Z AUTO 17010G16KT 10SM CLR 17/13 A2992 RMK AO2 SLP139 T01670133=
201307220553 METAR KBLI 220553Z AUTO 16009KT 10SM CLR 17/13 A2992 RMK AO2 SLP138 T01670128 10206 20167 51006=
201307220453 METAR KBLI 220453Z 17007KT 10SM HZ CLR 17/13 A2992 RMK AO2 SLP137 T01720133=
201307220353 METAR KBLI 220353Z 16009KT 10SM HZ CLR 17/13 A2991 RMK AO2 SLP135 T01720133=
201307220253 METAR KBLI 220253Z 18006KT 10SM HZ CLR 19/14 A2990 RMK AO2 SLP131 T01890139 56008=
201307220153 METAR KBLI 220153Z 18007KT 10SM HZ CLR 20/13 A2991 RMK AO2 SLP133 T02000133=
201307220053 METAR KBLI 220053Z VRB05KT 10SM HZ CLR 20/13 A2991 RMK AO2 SLP135 T02000133=
201307212353 METAR KBLI 212353Z 17007KT 10SM HZ CLR 20/13 A2993 RMK AO2 SLP140 T02000133 10206 20144 58009=
201307212253 METAR KBLI 212253Z 17008KT 10SM HZ CLR 20/13 A2994 RMK AO2 SLP144 T02000133=
201307212153 METAR KBLI 212153Z 19007KT 10SM HZ CLR 19/13 A2995 RMK AO2 SLP147 T01890128=
201307212053 METAR KBLI 212053Z 17009KT 6SM HZ CLR 17/13 A2995 RMK AO2 SLP149 T01720128 58003=
201307211953 METAR KBLI 211953Z 20007KT 150V230 10SM FEW008 17/12 A2996 RMK AO2 SLP151 T01670122=
201307211900 SPECI KBLI 211900Z 18006KT 10SM OVC006 16/12 A2996 RMK AO2=
201307211853 METAR KBLI 211853Z 17008G15KT 10SM OVC004 16/12 A2996 RMK AO2 SLP152 T01560122=
201307211753 METAR KBLI 211753Z 17010KT 9SM OVC004 14/12 A2997 RMK AO2 SLP153 T01440122 10144 20128 58001=
201307211653 METAR KBLI 211653Z 17009KT 9SM OVC004 14/12 A2997 RMK AO2 SLP154 T01390117=
201307211553 METAR KBLI 211553Z 18008KT 7SM OVC004 13/12 A2997 RMK AO2 SLP156 T01330117=
201307211453 METAR KBLI 211453Z 17011KT 8SM OVC004 13/11 A2997 RMK AO2 SLP154 T01330111 51006=
201307211437 SPECI KBLI 211437Z 16009KT 9SM OVC004 13/11 A2997 RMK AO2=
201307211415 SPECI KBLI 211415Z 17009KT 10SM BKN006 13/11 A2996 RMK AO2=
201307211353 METAR KBLI 211353Z 17006KT 10SM SCT004 13/11 A2996 RMK AO2 SLP151 CIG LWR S-W T01330111=
201307211349 SPECI KBLI 211349Z AUTO 17007KT 10SM SCT004 13/11 A2996 RMK AO2=
201307211324 SPECI KBLI 211324Z AUTO 17006KT 8SM BKN004 13/12 A2996 RMK AO2=
201307211253 METAR KBLI 211253Z AUTO 17009KT 8SM FEW004 13/12 A2995 RMK AO2 SLP148 T01280117=
201307211224 SPECI KBLI 211224Z AUTO 17009G17KT 8SM FEW004 13/11 A2994 RMK AO2=
201307211153 METAR KBLI 211153Z AUTO 17011G17KT 10SM CLR 13/12 A2994 RMK AO2 SLP146 T01330117 10161 20133 55001=
201307211053 METAR KBLI 211053Z AUTO 17010G16KT 10SM CLR 14/12 A2994 RMK AO2 SLP144 T01390117=
201307210953 METAR KBLI 210953Z AUTO 17011G17KT 10SM CLR 14/11 A2994 RMK AO2 SLP144 T01440111=
201307210853 METAR KBLI 210853Z AUTO 17012G17KT 10SM CLR 15/11 A2995 RMK AO2 SLP147 T01500111 58002=
201307210753 METAR KBLI 210753Z AUTO 16008KT 10SM CLR 16/11 A2995 RMK AO2 SLP148 T01560111 401940128=
201307210653 METAR KBLI 210653Z AUTO 16009G16KT 10SM CLR 16/12 A2996 RMK AO2 SLP150 T01560117=
201307210553 METAR KBLI 210553Z AUTO 17011G17KT 10SM CLR 16/12 A2996 RMK AO2 SLP149 T01610122 10189 20161 58002=
201307210453 METAR KBLI 210453Z 17009G17KT 10SM CLR 17/12 A2996 RMK AO2 SLP151 T01720117=
201307210353 METAR KBLI 210353Z 17010G15KT 10SM CLR 18/12 A2996 RMK AO2 SLP152 T01780122=
201307210253 METAR KBLI 210253Z 16010G16KT 10SM CLR 18/12 A2996 RMK AO2 SLP151 T01830122 56014=
201307210153 METAR KBLI 210153Z 17009G16KT 10SM CLR 18/13 A2997 RMK AO2 SLP153 T01830128=
201307210053 METAR KBLI 210053Z 17008G15KT 10SM CLR 18/13 A2998 RMK AO2 SLP158 T01830128=
201307202353 METAR KBLI 202353Z 17010G15KT 10SM CLR 19/13 A3000 RMK AO2 SLP165 T01890128 10194 20150 58015=
201307202253 METAR KBLI 202253Z 17010G17KT 10SM CLR 19/13 A3002 RMK AO2 SLP172 T01890128=
201307202153 METAR KBLI 202153Z 17009KT 160V220 10SM CLR 18/12 A3004 RMK AO2 SLP176 T01830122=
201307202053 METAR KBLI 202053Z 16012G17KT 10SM CLR 17/12 A3005 RMK AO2 SLP180 T01720122 58006=
201307201953 METAR KBLI 201953Z 18013G20KT 10SM SCT007 16/12 A3006 RMK AO2 SLP184 T01610122=
201307201853 METAR KBLI 201853Z 18012G20KT 10SM FEW005 16/12 A3006 RMK AO2 SLP186 CIG LWR SW-NW T01560117=
201307201850 SPECI KBLI 201850Z 19012G20KT 10SM SCT005 15/12 A3006 RMK AO2 CIG LWR SW-NW=
201307201753 METAR KBLI 201753Z 17010G18KT 6SM HZ OVC005 15/12 A3007 RMK AO2 SLP188 T01500117 10150 20128 50001=
201307201653 METAR KBLI 201653Z 17010G17KT 6SM BR OVC005 14/12 A3007 RMK AO2 SLP190 T01390117=
201307201621 SPECI KBLI 201621Z 17012G19KT 6SM HZ OVC005 14/12 A3007 RMK AO2=
201307201553 METAR KBLI 201553Z 17012G19KT 6SM BR OVC003 13/12 A3007 RMK AO2 SLP188 T01330117=
201307201453 METAR KBLI 201453Z 17013KT 6SM BR OVC003 13/12 A3006 RMK AO2 SLP186 T01330117 53008=
201307201409 SPECI KBLI 201409Z 17014G20KT 10SM OVC003 13/12 A3005 RMK AO2 CIG 002V007=
201307201353 METAR KBLI 201353Z 17013G21KT 10SM OVC005 13/12 A3005 RMK AO2 CIG 003V007 SLP183 T01280117=
201307201327 SPECI KBLI 201327Z AUTO 17014G22KT 10SM BKN005 13/12 A3005 RMK AO2 CIG 004V008=
201307201306 SPECI KBLI 201306Z AUTO 17014G20KT 10SM FEW005 13/12 A3004 RMK AO2=
201307201253 METAR KBLI 201253Z AUTO 17012G18KT 10SM CLR 13/12 A3005 RMK AO2 SLP180 T01330117=
201307201153 METAR KBLI 201153Z AUTO 17011KT 10SM CLR 14/12 A3004 RMK AO2 SLP178 70002 T01390117 10167 20139 55000=
201307201053 METAR KBLI 201053Z AUTO 17013G18KT 10SM CLR 14/12 A3003 RMK AO2 SLP176 T01440117=
201307200953 METAR KBLI 200953Z AUTO 17011G16KT 10SM CLR 14/12 A3003 RMK AO2 SLP176 T01440122=
201307200853 METAR KBLI 200853Z AUTO 18008KT 10SM CLR 15/12 A3004 RMK AO2 SLP178 T01500122 55001=
201307200753 METAR KBLI 200753Z AUTO 17011KT 10SM CLR 16/13 A3004 RMK AO2 SLP178 T01560128 402220144=
201307200653 METAR KBLI 200653Z AUTO 17008KT 10SM CLR 16/13 A3004 RMK AO2 SLP179 T01610133=
201307200553 METAR KBLI 200553Z AUTO 17010KT 10SM CLR 17/13 A3004 RMK AO2 SLP180 T01670133 10222 20167 53002=
201307200453 METAR KBLI 200453Z 17008KT 10SM CLR 18/14 A3004 RMK AO2 SLP178 T01780139=
201307200353 METAR KBLI 200353Z 17007KT 10SM CLR 18/14 A3003 RMK AO2 SLP176 T01830139=
201307200253 METAR KBLI 200253Z 18006KT 10SM CLR 20/14 A3004 RMK AO2 SLP178 T02000144 56011=
201307200153 METAR KBLI 200153Z 17007KT 10SM CLR 21/14 A3004 RMK AO2 SLP179 T02060139=
201307200053 METAR KBLI 200053Z 17007KT 10SM CLR 21/14 A3006 RMK AO2 SLP184 T02110139=
201307192353 METAR KBLI 192353Z 18006KT 10SM CLR 22/14 A3007 RMK AO2 SLP189 T02170139 10222 20161 57016=
201307192253 METAR KBLI 192253Z 16006KT 10SM CLR 22/14 A3009 RMK AO2 SLP194 T02220139=
201307192153 METAR KBLI 192153Z 16008KT 10SM CLR 21/14 A3010 RMK AO2 SLP199 T02110144=
201307192053 METAR KBLI 192053Z VRB04KT 10SM CLR 21/14 A3012 RMK AO2 SLP205 T02060144 58011=
201307191953 METAR KBLI 191953Z 18007KT 10SM CLR 18/14 A3013 RMK AO2 SLP210 T01830139=
201307191927 SPECI KBLI 191927Z VRB06KT 10SM SCT005 18/14 A3014 RMK AO2=
201307191853 METAR KBLI 191853Z 19009KT 160V220 10SM BKN005 17/13 A3014 RMK AO2 SLP213 T01670133=
201307191753 METAR KBLI 191753Z 20010G15KT 10SM BKN005 17/13 A3015 RMK AO2 SLP216 P0002 60002 T01670133 10194 20144 58002=
201307191653 METAR KBLI 191653Z 18008KT 10SM BKN005 18/13 A3016 RMK AO2 SLP218 T01830133=
201307191553 METAR KBLI 191553Z 18008KT 10SM BKN005 16/13 A3016 RMK AO2 SLP220 T01610133=
201307191505 SPECI KBLI 191505Z 17006KT 10SM BKN005 16/13 A3016 RMK AO2=
201307191453 METAR KBLI 191453Z 17006KT 10SM SCT003 15/13 A3016 RMK AO2 SLP218 T01500128 53009=
201307191353 METAR KBLI 191353Z 17007KT 10SM FEW001 15/13 A3015 RMK AO2 SLP215 T01500128=
201307191253 METAR KBLI 191253Z AUTO 18007KT 10SM CLR 14/13 A3014 RMK AO2 SLP212 T01440128=
201307191153 METAR KBLI 191153Z AUTO 17007KT 10SM CLR 14/13 A3013 RMK AO2 SLP208 T01440128 10172 20144 53001=
201307191053 METAR KBLI 191053Z AUTO 17006KT 10SM CLR 15/13 A3013 RMK AO2 SLP206 T01500128=
201307190953 METAR KBLI 190953Z AUTO 19003KT 10SM CLR 15/13 A3013 RMK AO2 SLP208 T01500128=
201307190853 METAR KBLI 190853Z AUTO 17004KT 10SM CLR 16/13 A3013 RMK AO2 SLP207 T01560133 50001=
201307190753 METAR KBLI 190753Z AUTO 17006KT 10SM CLR 16/13 A3013 RMK AO2 SLP209 T01610133 402390156=
201307190653 METAR KBLI 190653Z AUTO 18006KT 10SM CLR 17/13 A3013 RMK AO2 SLP208 T01670133=
201307190553 METAR KBLI 190553Z AUTO 17008G16KT 10SM CLR 17/13 A3013 RMK AO2 SLP208 T01720128 10239 20172 53000=
201307190453 METAR KBLI 190453Z 17008KT 10SM CLR 18/13 A3013 RMK AO2 SLP208 T01780133=
201307190353 METAR KBLI 190353Z 16006KT 10SM CLR 18/14 A3012 RMK AO2 SLP206 T01830139=
201307190253 METAR KBLI 190253Z 17007KT 10SM CLR 20/14 A3013 RMK AO2 SLP207 T02000139 56006=
201307190153 METAR KBLI 190153Z 16007KT 10SM CLR 22/14 A3013 RMK AO2 SLP208 T02170139=
201307190053 METAR KBLI 190053Z 17007KT 10SM CLR 22/14 A3014 RMK AO2 SLP210 T02220139=
201307182353 METAR KBLI 182353Z 00000KT 10SM CLR 23/13 A3015 RMK AO2 SLP213 T02330133 10239 20178 56015=
201307182253 METAR KBLI 182253Z 00000KT 10SM CLR 23/13 A3016 RMK AO2 SLP217 T02330133=
201307182153 METAR KBLI 182153Z VRB03KT 10SM CLR 23/14 A3018 RMK AO2 SLP223 T02280139=
201307182053 METAR KBLI 182053Z 21004KT 10SM CLR 22/13 A3019 RMK AO2 SLP228 T02170133 58009=
201307181953 METAR KBLI 181953Z 18007KT 10SM CLR 21/12 A3021 RMK AO2 SLP234 T02060122=
201307181853 METAR KBLI 181853Z 16007KT 10SM SCT041 20/12 A3022 RMK AO2 SLP237 T02000122=
201307181753 METAR KBLI 181753Z 19005KT 10SM OVC041 18/12 A3022 RMK AO2 SLP239 T01830122 10183 20156 58003=
201307181653 METAR KBLI 181653Z 19004KT 10SM OVC037 17/12 A3023 RMK AO2 SLP243 T01670122=
201307181553 METAR KBLI 181553Z 18005KT 10SM OVC033 16/12 A3023 RMK AO2 SLP242 T01610122=
201307181453 METAR KBLI 181453Z 17008KT 10SM OVC029 16/12 A3022 RMK AO2 SLP238 T01560122 51007=
201307181415 SPECI KBLI 181415Z 17007KT 10SM OVC029 16/12 A3021 RMK AO2=
201307181353 METAR KBLI 181353Z 17006KT 10SM OVC031 16/12 A3021 RMK AO2 SLP236 T01560117=
201307181253 METAR KBLI 181253Z AUTO 18006KT 10SM OVC031 16/12 A3020 RMK AO2 SLP234 T01560122=
201307181153 METAR KBLI 181153Z AUTO 18004KT 10SM OVC031 16/12 A3020 RMK AO2 SLP230 T01610122 10172 20161 51002=
201307181053 METAR KBLI 181053Z AUTO 17005KT 10SM OVC031 16/12 A3019 RMK AO2 SLP229 T01610117=
201307180953 METAR KBLI 180953Z AUTO 17006KT 10SM OVC031 17/12 A3020 RMK AO2 SLP230 T01670122=
201307180853 METAR KBLI 180853Z AUTO 16005KT 10SM OVC037 17/12 A3019 RMK AO2 SLP228 T01670117 51005=
201307180753 METAR KBLI 180753Z AUTO 16006KT 10SM BKN037 17/12 A3019 RMK AO2 SLP227 T01670117 402280167=
201307180653 METAR KBLI 180653Z AUTO 16006KT 10SM CLR 17/12 A3019 RMK AO2 SLP227 T01670122=
201307180553 METAR KBLI 180553Z AUTO 16008KT 10SM CLR 17/13 A3017 RMK AO2 SLP223 T01720128 10222 20172 51009=
201307180453 METAR KBLI 180453Z 17008KT 10SM CLR 17/12 A3017 RMK AO2 SLP223 T01720122=
201307180353 METAR KBLI 180353Z 17009KT 10SM CLR 18/13 A3015 RMK AO2 SLP216 T01830128=
201307180253 METAR KBLI 180253Z 17011KT 10SM CLR 19/13 A3015 RMK AO2 SLP214 T01890128 53004=
201307180153 METAR KBLI 180153Z 17011G17KT 10SM CLR 20/13 A3014 RMK AO2 SLP210 T02000128=
201307180053 METAR KBLI 180053Z 17010G16KT 10SM CLR 21/13 A3014 RMK AO2 SLP210 T02060133=
201307172353 METAR KBLI 172353Z 18009KT 10SM CLR 22/13 A3013 RMK AO2 SLP209 T02170133 10228 20194 50007=
201307172253 METAR KBLI 172253Z 17010G19KT 10SM CLR 22/14 A3013 RMK AO2 SLP209 T02220139=
201307172153 METAR KBLI 172153Z 17014G22KT 10SM CLR 22/13 A3012 RMK AO2 SLP204 T02220133=
201307172053 METAR KBLI 172053Z 17011G21KT 10SM CLR 21/13 A3011 RMK AO2 SLP202 T02110133 53007=
201307171953 METAR KBLI 171953Z 17011G19KT 10SM CLR 21/13 A3010 RMK AO2 SLP199 T02110133=
201307171853 METAR KBLI 171853Z 17011G18KT 10SM CLR 21/13 A3010 RMK AO2 SLP198 T02060133=
201307171753 METAR KBLI 171753Z 16012G19KT 10SM CLR 20/14 A3009 RMK AO2 PK WND 16026/1706 SLP195 60000 T02000139 10200 20178 51024=
201307171653 METAR KBLI 171653Z 16016G23KT 10SM CLR 19/14 A3007 RMK AO2 RAB10E25 SLP186 P0000 T01940144=
201307171553 METAR KBLI 171553Z 18007G16KT 10SM BKN100 18/14 A3005 RMK AO2 SLP181 T01830139=
201307171453 METAR KBLI 171453Z 17013G19KT 10SM FEW110 18/14 A3002 RMK AO2 SLP171 T01780139 53021=
201307171353 METAR KBLI 171353Z 16011G17KT 10SM FEW120 19/14 A2999 RMK AO2 SLP159 T01890144=
201307171253 METAR KBLI 171253Z AUTO 17007KT 10SM FEW120 20/13 A2997 RMK AO2 SLP152 T02000128=
201307171153 METAR KBLI 171153Z AUTO 15007KT 10SM OVC110 19/14 A2996 RMK AO2 RAE1059 SLP150 P0000 60005 70005 T01890144 10211 20172 53023=
201307171053 METAR KBLI 171053Z AUTO 15007KT 6SM -RA BR FEW055 BKN095 OVC110 18/16 A2993 RMK AO2 RAB38 SLP138 P0004 T01780161=
201307170953 METAR KBLI 170953Z AUTO 14005KT 10SM CLR 17/15 A2991 RMK AO2 SLP130 T01720150=
201307170853 METAR KBLI 170853Z AUTO 13004KT 10SM FEW080 SCT100 SCT110 17/16 A2989 RMK AO2 RAB17E53 SLP126 P0001 60001 T01720156 52014=
201307170753 METAR KBLI 170753Z AUTO 16006KT 10SM FEW120 21/12 A2989 RMK AO2 SLP125 T02110117 403110100=
201307170653 METAR KBLI 170653Z AUTO 00000KT 10SM CLR 19/14 A2985 RMK AO2 SLP111 T01890139=
201307170553 METAR KBLI 170553Z AUTO 16003KT 10SM FEW120 19/15 A2985 RMK AO2 SLP111 T01940150 10272 20194 53002=
201307170453 METAR KBLI 170453Z 00000KT 10SM CLR 20/14 A2984 RMK AO2 SLP109 T02000144=
201307170353 METAR KBLI 170353Z 00000KT 10SM CLR 21/14 A2983 RMK AO2 SLP107 T02110144=
201307170253 METAR KBLI 170253Z 00000KT 10SM SCT100 SCT110 22/14 A2984 RMK AO2 SLP110 T02170144 51001=
201307170153 METAR KBLI 170153Z 19004KT 10SM CLR 23/14 A2984 RMK AO2 SLP109 T02330144=
201307170053 METAR KBLI 170053Z 19003KT 10SM CLR 26/13 A2984 RMK AO2 SLP110 T02560128=
201307162353 METAR KBLI 162353Z 22005KT 10SM CLR 27/13 A2984 RMK AO2 SLP109 T02670133 10311 20244 56008=
201307162253 METAR KBLI 162253Z 26007KT 10SM CLR 25/13 A2985 RMK AO2 SLP113 T02500133=
201307162153 METAR KBLI 162153Z 26008KT 230V310 10SM CLR 30/12 A2985 RMK AO2 SLP111 T03000117=
201307162053 METAR KBLI 162053Z 27009G15KT 10SM CLR 29/12 A2986 RMK AO2 SLP117 T02890117 58004=
201307161953 METAR KBLI 161953Z 01009G17KT 10SM CLR 31/07 A2987 RMK AO2 SLP119 T03060072=
201307161853 METAR KBLI 161853Z 36010G19KT 10SM CLR 30/09 A2988 RMK AO2 SLP123 T03000089=
201307161753 METAR KBLI 161753Z 02011G21KT 10SM CLR 28/08 A2987 RMK AO2 SLP121 T02830078 10283 20100 56012=
201307161653 METAR KBLI 161653Z 01014G19KT 10SM CLR 27/09 A2988 RMK AO2 SLP124 T02670089=
201307161553 METAR KBLI 161553Z 02013G18KT 10SM CLR 24/09 A2990 RMK AO2 SLP129 T02440094=
201307161453 METAR KBLI 161453Z 36005KT 10SM CLR 21/11 A2991 RMK AO2 SLP133 T02060111 50001=
201307161353 METAR KBLI 161353Z AUTO 00000KT 10SM CLR 15/12 A2991 RMK AO2 SLP135 T01500122=
201307161253 METAR KBLI 161253Z AUTO 00000KT 10SM R16/5500VP6000FT CLR 13/11 A2991 RMK AO2 SLP133 T01280106=
201307161153 METAR KBLI 161153Z AUTO 00000KT 10SM CLR 11/09 A2991 RMK AO2 SLP133 T01060089 10156 20106 56003=
201307161053 METAR KBLI 161053Z AUTO 00000KT 10SM CLR 12/10 A2991 RMK AO2 SLP133 T01170100=
201307160953 METAR KBLI 160953Z AUTO 00000KT 10SM CLR 12/09 A2991 RMK AO2 SLP135 T01170094=
201307160853 METAR KBLI 160853Z AUTO 00000KT 10SM CLR 12/09 A2991 RMK AO2 SLP135 T01170094 55002=
201307160753 METAR KBLI 160753Z AUTO 00000KT 10SM CLR 13/10 A2991 RMK AO2 SLP133 T01330100 402610100=
201307160653 METAR KBLI 160653Z AUTO 00000KT 10SM CLR 14/10 A2992 RMK AO2 SLP135 T01440100=
201307160553 METAR KBLI 160553Z AUTO 00000KT 10SM CLR 16/10 A2992 RMK AO2 SLP137 T01610100 10261 20144 56002=
201307160453 METAR KBLI 160453Z AUTO 00000KT 10SM CLR 17/10 A2992 RMK AO2 SLP138 T01720100=
201307160353 METAR KBLI 160353Z 33004KT 10SM CLR 21/09 A2992 RMK AO2 SLP136 T02110094=
201307160253 METAR KBLI 160253Z 33003KT 10SM CLR 24/09 A2993 RMK AO2 SLP138 T02440094 56017=
201307160153 METAR KBLI 160153Z 30006KT 10SM CLR 26/08 A2994 RMK AO2 SLP142 T02560078=
201307160053 METAR KBLI 160053Z 30006KT 10SM CLR 26/07 A2995 RMK AO2 SLP147 T02610072=
201307152353 METAR KBLI 152353Z 28008G14KT 240V310 10SM CLR 26/07 A2998 RMK AO2 SLP156 T02610072 10261 20239 58016=
201307152253 METAR KBLI 152253Z 29009G17KT 10SM CLR 26/06 A2999 RMK AO2 SLP162 T02560056=
201307152153 METAR KBLI 152153Z 27009G14KT 10SM CLR 25/07 A3001 RMK AO2 SLP166 T02500072=
201307152053 METAR KBLI 152053Z 28009G16KT 260V330 10SM CLR 26/10 A3002 RMK AO2 SLP171 T02560100 56006=
201307151953 METAR KBLI 151953Z 29008G16KT 10SM CLR 24/11 A3003 RMK AO2 SLP174 T02440111=
201307151853 METAR KBLI 151853Z 36010G18KT 10SM CLR 26/07 A3003 RMK AO2 SLP173 T02610067=
201307151753 METAR KBLI 151753Z 01010KT 320V040 10SM CLR 24/08 A3004 RMK AO2 SLP177 T02390083 10239 20100 58008=
201307151653 METAR KBLI 151653Z 35008KT 10SM CLR 22/09 A3006 RMK AO2 SLP183 T02170089=
201307151553 METAR KBLI 151553Z 34008KT 10SM CLR 20/09 A3006 RMK AO2 SLP185 T02000094=
201307151453 METAR KBLI 151453Z 32007KT 10SM CLR 17/12 A3006 RMK AO2 SLP185 T01670117 51006=
201307151353 METAR KBLI 151353Z 00000KT 10SM CLR 13/11 A3006 RMK AO2 SLP186 T01330106=
201307151253 METAR KBLI 151253Z AUTO 00000KT 10SM CLR 11/09 A3006 RMK AO2 SLP185 T01060089=
201307151153 METAR KBLI 151153Z AUTO 00000KT 8SM CLR 11/10 A3005 RMK AO2 SLP180 T01060100 10150 20100 51003=
201307151140 SPECI KBLI 151140Z AUTO 00000KT 3SM BR CLR 11/10 A3004 RMK AO2=
201307151125 SPECI KBLI 151125Z AUTO 00000KT 1 3/4SM BR CLR 11/09 A3004 RMK AO2=
201307151053 METAR KBLI 151053Z AUTO 34003KT 10SM CLR 11/10 A3005 RMK AO2 SLP180 T01110100=
201307150953 METAR KBLI 150953Z AUTO 00000KT 10SM CLR 13/11 A3004 RMK AO2 SLP178 T01280111=
201307150853 METAR KBLI 150853Z AUTO 00000KT 10SM CLR 13/11 A3004 RMK AO2 SLP177 T01330111 51001=
201307150753 METAR KBLI 150753Z AUTO 00000KT 10SM CLR 14/12 A3004 RMK AO2 SLP177 T01440117 402390117=
201307150653 METAR KBLI 150653Z AUTO 00000KT 10SM CLR 15/12 A3004 RMK AO2 SLP177 T01500117=
201307150553 METAR KBLI 150553Z AUTO 00000KT 10SM CLR 14/12 A3003 RMK AO2 SLP176 T01440117 10228 20144 53005=
201307150453 METAR KBLI 150453Z 00000KT 10SM CLR 16/13 A3003 RMK AO2 SLP175 T01610133=
201307150353 METAR KBLI 150353Z 27004KT 10SM CLR 18/13 A3002 RMK AO2 SLP171 T01830128=
201307150253 METAR KBLI 150253Z 00000KT 10SM CLR 21/09 A3002 RMK AO2 SLP172 T02060089 55004=
201307150153 METAR KBLI 150153Z 17005KT 10SM CLR 22/07 A3001 RMK AO2 SLP169 T02220072=
201307150053 METAR KBLI 150053Z 17008KT 10SM CLR 23/08 A3002 RMK AO2 SLP170 T02280078=
201307142353 METAR KBLI 142353Z 16009KT 10SM CLR 23/10 A3003 RMK AO2 SLP176 T02280100 10239 20189 56016=
201307142253 METAR KBLI 142253Z VRB06G14KT 10SM CLR 23/09 A3005 RMK AO2 SLP181 T02280094=
201307142153 METAR KBLI 142153Z 17006KT 10SM CLR 23/09 A3006 RMK AO2 SLP185 T02330089=
201307142053 METAR KBLI 142053Z 16005KT 10SM CLR 23/12 A3008 RMK AO2 SLP192 T02280117 58012=
201307141953 METAR KBLI 141953Z 18006KT 10SM CLR 22/12 A3010 RMK AO2 SLP197 T02220117=
201307141853 METAR KBLI 141853Z 17006KT 10SM CLR 22/11 A3011 RMK AO2 SLP200 T02170111=
201307141753 METAR KBLI 141753Z 17007KT 10SM CLR 19/11 A3011 RMK AO2 SLP203 T01890106 10189 20117 58006=
201307141653 METAR KBLI 141653Z 19005KT 10SM CLR 17/11 A3013 RMK AO2 SLP208 T01670111=
201307141553 METAR KBLI 141553Z VRB05KT 10SM CLR 16/11 A3013 RMK AO2 SLP210 T01610106=
201307141453 METAR KBLI 141453Z 16008KT 10SM CLR 15/11 A3013 RMK AO2 SLP210 T01500106 50003=
201307141353 METAR KBLI 141353Z 16007KT 10SM CLR 14/11 A3013 RMK AO2 SLP209 T01440106=
201307141253 METAR KBLI 141253Z AUTO 17004KT 10SM CLR 13/11 A3013 RMK AO2 SLP208 T01330111=
201307141153 METAR KBLI 141153Z AUTO 18005KT 10SM CLR 13/11 A3012 RMK AO2 SLP207 T01330111 10139 20117 55001=
201307141053 METAR KBLI 141053Z AUTO 18006KT 10SM CLR 14/11 A3012 RMK AO2 SLP206 T01390111=
201307140953 METAR KBLI 140953Z AUTO 17004KT 10SM CLR 13/11 A3012 RMK AO2 SLP206 T01280106=
201307140853 METAR KBLI 140853Z AUTO 00000KT 10SM CLR 13/11 A3013 RMK AO2 SLP207 T01280106 58002=
201307140753 METAR KBLI 140753Z AUTO 00000KT 10SM CLR 13/11 A3013 RMK AO2 SLP209 T01280106 402330089=
201307140653 METAR KBLI 140653Z AUTO 00000KT 10SM CLR 12/10 A3013 RMK AO2 SLP209 T01220100=
201307140553 METAR KBLI 140553Z AUTO 00000KT 10SM CLR 14/11 A3013 RMK AO2 SLP209 T01390106 10233 20133 53001=
201307140453 METAR KBLI 140453Z 00000KT 10SM CLR 14/11 A3013 RMK AO2 SLP209 T01440106=
201307140353 METAR KBLI 140353Z 27003KT 10SM CLR 17/11 A3013 RMK AO2 SLP207 T01720111=
201307140253 METAR KBLI 140253Z 27004KT 10SM CLR 21/08 A3013 RMK AO2 SLP208 T02110083 56007=
201307140153 METAR KBLI 140153Z 26004KT 10SM CLR 23/09 A3013 RMK AO2 SLP209 T02280089=
201307140053 METAR KBLI 140053Z 25005KT 10SM CLR 23/07 A3014 RMK AO2 SLP211 T02330072=
201307132353 METAR KBLI 132353Z 27005KT 10SM CLR 23/08 A3015 RMK AO2 SLP215 T02280078 10233 20167 58014=
201307132253 METAR KBLI 132253Z 28006KT 10SM CLR 22/09 A3016 RMK AO2 SLP220 T02220089=
201307132153 METAR KBLI 132153Z VRB06KT 10SM CLR 22/10 A3018 RMK AO2 SLP224 T02220100=
201307132053 METAR KBLI 132053Z 31005KT 10SM CLR 21/11 A3019 RMK AO2 SLP228 T02110111 58005=
201307131953 METAR KBLI 131953Z VRB03KT 10SM CLR 20/12 A3019 RMK AO2 SLP230 T02000117=
201307131853 METAR KBLI 131853Z 17006KT 10SM CLR 19/10 A3020 RMK AO2 SLP233 T01890100=
201307131753 METAR KBLI 131753Z 20007KT 160V220 10SM CLR 17/10 A3020 RMK AO2 SLP233 T01720100 10178 20089 50004=
201307131653 METAR KBLI 131653Z 20007KT 10SM CLR 16/11 A3021 RMK AO2 SLP234 T01610106=
201307131553 METAR KBLI 131553Z VRB05KT 10SM CLR 16/10 A3020 RMK AO2 SLP231 T01560100=
201307131453 METAR KBLI 131453Z 17005KT 10SM CLR 15/09 A3019 RMK AO2 SLP229 T01500094 53014=
201307131353 METAR KBLI 131353Z 00000KT 10SM CLR 14/08 A3017 RMK AO2 SLP222 T01390083=
201307131253 METAR KBLI 131253Z AUTO 00000KT 10SM CLR 09/07 A3015 RMK AO2 SLP217 T00940067=
201307131153 METAR KBLI 131153Z AUTO 00000KT 10SM SCT060 11/07 A3015 RMK AO2 SLP214 T01110072 10150 20106 51015=
201307131053 METAR KBLI 131053Z AUTO 00000KT 10SM CLR 11/07 A3013 RMK AO2 SLP210 T01110067=
201307130953 METAR KBLI 130953Z AUTO 15004KT 10SM CLR 13/07 A3012 RMK AO2 SLP205 T01280067=
201307130853 METAR KBLI 130853Z AUTO 16005KT 10SM CLR 13/07 A3010 RMK AO2 SLP199 T01330072 51009=
201307130753 METAR KBLI 130753Z AUTO 17006KT 10SM CLR 13/07 A3010 RMK AO2 SLP198 T01330072 402060083=
201307130653 METAR KBLI 130653Z AUTO 17004KT 10SM CLR 14/08 A3009 RMK AO2 SLP195 T01390083=
201307130553 METAR KBLI 130553Z AUTO 15003KT 10SM CLR 15/09 A3007 RMK AO2 SLP190 T01500089 10206 20144 53009=
201307130453 METAR KBLI 130453Z 17006KT 10SM CLR 16/09 A3007 RMK AO2 SLP187 T01610089=
201307130353 METAR KBLI 130353Z 16006KT 10SM CLR 17/09 A3005 RMK AO2 SLP181 T01670094=
201307130253 METAR KBLI 130253Z 17007KT 10SM CLR 18/10 A3005 RMK AO2 SLP180 T01780100 53004=
201307130153 METAR KBLI 130153Z 17008KT 10SM CLR 19/11 A3004 RMK AO2 SLP178 T01890106=
201307130053 METAR KBLI 130053Z 17007KT 10SM CLR 20/10 A3004 RMK AO2 SLP178 T02000100=
201307122353 METAR KBLI 122353Z 18008KT 10SM CLR 20/12 A3003 RMK AO2 SLP176 T02000117 10206 20172 50000=
201307122253 METAR KBLI 122253Z 00000KT 10SM CLR 21/10 A3003 RMK AO2 SLP176 T02060100=
201307122153 METAR KBLI 122153Z VRB06KT 10SM CLR 19/10 A3004 RMK AO2 SLP178 T01940100=
201307122053 METAR KBLI 122053Z VRB03KT 10SM CLR 19/11 A3003 RMK AO2 SLP176 T01890106 53004=
201307121953 METAR KBLI 121953Z VRB04KT 10SM CLR 19/10 A3003 RMK AO2 SLP175 T01940100=
201307121853 METAR KBLI 121853Z VRB06KT 10SM CLR 18/11 A3002 RMK AO2 SLP172 T01830106=
201307121753 METAR KBLI 121753Z AUTO VRB03KT 10SM CLR 17/09 A3002 RMK AO2 SLP172 T01720089 10178 20089 55002 TSNO=
201307121653 METAR KBLI 121653Z AUTO 18006KT 10SM CLR 16/09 A3002 RMK AO2 SLP171 T01610094 TSNO=
201307121553 METAR KBLI 121553Z AUTO 05003KT 10SM CLR 16/08 A3002 RMK AO2 SLP171 T01610078 TSNO=
201307121453 METAR KBLI 121453Z 00000KT 10SM CLR 14/08 A3003 RMK AO2 SLP174 T01440078 51003 $=
201307121353 METAR KBLI 121353Z 00000KT 10SM CLR 11/08 A3002 RMK AO2 SLP172 T01060083 $=
201307121253 METAR KBLI 121253Z AUTO 00000KT 10SM CLR 09/08 A3003 RMK AO2 SLP174 T00940078 $=
201307121153 METAR KBLI 121153Z AUTO 00000KT 10SM CLR 09/07 A3002 RMK AO2 SLP172 T00890072 10144 20083 53001 $=
201307121053 METAR KBLI 121053Z AUTO 00000KT 10SM CLR 09/07 A3002 RMK AO2 SLP172 T00890067 $=
201307120953 METAR KBLI 120953Z AUTO 00000KT 10SM CLR 09/07 A3001 RMK AO2 SLP171 T00890067 $=
201307120853 METAR KBLI 120853Z AUTO 00000KT 10SM CLR 09/06 A3001 RMK AO2 SLP170 T00940061 51001 $=
201307120753 METAR KBLI 120753Z AUTO 16005KT 10SM CLR 12/07 A3001 RMK AO2 SLP170 T01220067 401940122 $=
201307120653 METAR KBLI 120653Z AUTO 15005KT 10SM CLR 14/07 A3001 RMK AO2 SLP169 T01390072 $=
201307120553 METAR KBLI 120553Z AUTO 16006KT 10SM CLR 14/08 A3001 RMK AO2 SLP168 T01440083 10189 20144 50000 $=
201307120453 METAR KBLI 120453Z 17006KT 10SM CLR 16/06 A3001 RMK AO2 SLP170 T01560061 $=
201307120353 METAR KBLI 120353Z 17008KT 10SM CLR 17/07 A3001 RMK AO2 SLP167 T01670067 $=
201307120253 METAR KBLI 120253Z 17007KT 10SM CLR 17/07 A3001 RMK AO2 SLP168 T01720067 57009 $=
201307120153 METAR KBLI 120153Z 17008KT 10SM CLR 18/08 A3002 RMK AO2 SLP171 T01830083 $=
201307120053 METAR KBLI 120053Z 17009G15KT 10SM CLR 18/08 A3003 RMK AO2 SLP175 T01830083 $=
201307112353 METAR KBLI 112353Z 18009G16KT 10SM CLR 19/09 A3004 RMK AO2 SLP177 T01890089 10194 20161 58009 $=
201307112253 METAR KBLI 112253Z 17008KT 10SM CLR 19/09 A3005 RMK AO2 SLP183 T01890089 $=
201307112153 METAR KBLI 112153Z 17008G17KT 140V200 10SM CLR 18/08 A3006 RMK AO2 SLP185 T01830078 $=
201307112053 METAR KBLI 112053Z 16011G17KT 10SM CLR 19/08 A3007 RMK AO2 SLP187 T01890083 51004 $=
201307111953 METAR KBLI 111953Z 16012G20KT 10SM CLR 18/07 A3007 RMK AO2 SLP187 T01830072 $=
201307111853 METAR KBLI 111853Z 16013G18KT 10SM CLR 17/09 A3006 RMK AO2 SLP186 T01720089 $=
201307111753 METAR KBLI 111753Z 16013KT 10SM BKN043 16/09 A3005 RMK AO2 SLP183 T01610089 10167 20133 51005 $=
201307111653 METAR KBLI 111653Z 17010G15KT 10SM BKN043 BKN060 16/09 A3005 RMK AO2 SLP182 T01610089 $=
201307111553 METAR KBLI 111553Z 16009G17KT 10SM OVC045 15/09 A3005 RMK AO2 SLP181 T01500094 $=
201307111500 METAR KBLI NIL=
201307111453 METAR KBLI 111453Z 15009KT 10SM BKN041 15/08 A3004 RMK AO2 SLP178 T01500083 51013 $=
201307111353 METAR KBLI 111353Z 16006KT 10SM FEW019 OVC039 14/09 A3003 RMK AO2 SLP176 T01390089 $=
201307111253 METAR KBLI 111253Z AUTO 14008KT 10SM BKN035 OVC055 14/09 A3002 RMK AO2 SLP170 T01390089 $=
201307111153 METAR KBLI 111153Z AUTO 16007KT 10SM SCT035 BKN049 13/09 A3000 RMK AO2 SLP164 7//// T01330089 10161 20128 53013 $=
201307111053 METAR KBLI 111053Z AUTO 16012KT 10SM BKN045 13/09 A2998 RMK AO2 SLP159 T01280094 $=
201307110953 METAR KBLI 110953Z AUTO 15015G19KT 10SM CLR 13/09 A2997 RMK AO2 SLP154 T01280089 $=
201307110853 METAR KBLI 110853Z AUTO 15016G22KT 10SM CLR 13/09 A2996 RMK AO2 SLP152 T01330089 51007 $=
201307110753 METAR KBLI 110753Z AUTO 17013G19KT 10SM CLR 14/08 A2995 RMK AO2 SLP149 T01390083 402000133 $=
201307110653 METAR KBLI 110653Z AUTO 16010KT 10SM CLR 14/08 A2995 RMK AO2 SLP149 T01440078 $=
201307110553 METAR KBLI 110553Z AUTO 16008KT 10SM FEW120 16/07 A2994 RMK AO2 SLP145 T01610072 10200 20156 53002 $=
201307110453 METAR KBLI 110453Z 16013G18KT 10SM CLR 16/07 A2994 RMK AO2 PK WND 15026/0405 SLP143 T01610067 $=
201307110353 METAR KBLI 110353Z 16015G24KT 10SM CLR 16/07 A2993 RMK AO2 SLP141 T01610072 $=
201307110253 METAR KBLI 110253Z 16015G20KT 10SM CLR 18/07 A2994 RMK AO2 SLP143 T01830067 56018 $=
201307110153 METAR KBLI 110153Z 15014G21KT 10SM CLR 19/08 A2995 RMK AO2 SLP146 T01940078 $=
201307110053 METAR KBLI 110053Z 16015G21KT 10SM CLR 19/08 A2996 RMK AO2 SLP152 T01940078 $=
201307102353 METAR KBLI 102353Z 17014G21KT 10SM CLR 19/11 A2999 RMK AO2 SLP161 6//// T01940106 10200 20172 58010 $=
201307102253 METAR KBLI 102253Z 17014G21KT 10SM CLR 20/11 A3001 RMK AO2 SLP167 T02000106 $=
201307102153 METAR KBLI 102153Z 16015G22KT 10SM CLR 20/12 A3001 RMK AO2 SLP167 T02000122 $=
201307102053 METAR KBLI 102053Z 16012G19KT 10SM CLR 19/12 A3002 RMK AO2 SLP171 6//// T01940122 58007 $=
201307101953 METAR KBLI 101953Z 20010G20KT 170V240 10SM CLR 18/12 A3003 RMK AO2 SLP173 T01830122 $=
201307101853 METAR KBLI 101853Z 17014G21KT 10SM CLR 18/12 A3003 RMK AO2 SLP176 T01780117=
201307101753 METAR KBLI 101753Z 18013G17KT 10SM CLR 17/12 A3004 RMK AO2 SLP178 T01720117 10172 20133 51007=
201307101653 METAR KBLI 101653Z 18013G19KT 10SM CLR 17/12 A3003 RMK AO2 SLP175 T01670117=
201307101553 METAR KBLI 101553Z VRB06G14KT 10SM CLR 17/11 A3003 RMK AO2 SLP175 T01670111=
201307101453 METAR KBLI 101453Z 17010G19KT 10SM FEW070 15/11 A3002 RMK AO2 SLP171 T01500111 53004=
201307101353 METAR KBLI 101353Z 18009KT 10SM BKN065 15/11 A3000 RMK AO2 SLP164 T01500111=
201307101253 METAR KBLI 101253Z AUTO 17006KT 10SM BKN075 14/11 A3000 RMK AO2 SLP165 T01390111=
201307101153 METAR KBLI 101153Z AUTO 17011G20KT 10SM FEW080 14/11 A3001 RMK AO2 SLP166 T01390111 10178 20139 53002=
201307101053 METAR KBLI 101053Z AUTO 18009G17KT 10SM CLR 15/12 A2999 RMK AO2 SLP161 T01500117=
201307100953 METAR KBLI 100953Z AUTO 18007KT 10SM CLR 16/11 A3000 RMK AO2 SLP162 T01560111=
201307100853 METAR KBLI 100853Z AUTO 18007KT 10SM CLR 16/12 A3000 RMK AO2 SLP164 T01610117 53005=
201307100753 METAR KBLI 100753Z AUTO 17011G18KT 10SM CLR 16/12 A3000 RMK AO2 SLP162 T01610117 402720144=
201307100653 METAR KBLI 100653Z AUTO 18010G16KT 10SM CLR 17/12 A2999 RMK AO2 SLP160 T01670117=
201307100553 METAR KBLI 100553Z AUTO 18009KT 10SM CLR 18/12 A2999 RMK AO2 SLP159 T01780117 10261 20178 56002=
201307100453 METAR KBLI 100453Z 17008KT 10SM CLR 19/12 A2999 RMK AO2 SLP159 T01890117=
201307100353 METAR KBLI 100353Z 17010KT 10SM CLR 19/11 A2998 RMK AO2 SLP158 T01940111=
201307100253 METAR KBLI 100253Z 18005KT 10SM CLR 21/13 A2999 RMK AO2 SLP160 T02110133 58014=
201307100153 METAR KBLI 100153Z 17008KT 10SM CLR 23/13 A3001 RMK AO2 SLP165 T02280133=
201307100053 METAR KBLI 100053Z 18007KT 10SM CLR 23/14 A3002 RMK AO2 SLP170 T02330139=
201307092353 METAR KBLI 092353Z 18004KT 10SM CLR 26/16 A3003 RMK AO2 SLP174 T02610156 10272 20206 56016=
201307092253 METAR KBLI 092253Z VRB03KT 10SM CLR 27/15 A3005 RMK AO2 SLP179 T02670150=
201307092153 METAR KBLI 092153Z 21005KT 10SM CLR 26/16 A3006 RMK AO2 SLP184 T02610161=
201307092053 METAR KBLI 092053Z VRB05KT 10SM CLR 25/16 A3008 RMK AO2 SLP190 T02500156 58009=
201307091953 METAR KBLI 091953Z 21005KT 10SM CLR 23/15 A3009 RMK AO2 SLP193 T02330150=
201307091853 METAR KBLI 091853Z 20003KT 10SM CLR 22/15 A3010 RMK AO2 SLP197 T02170150=
201307091753 METAR KBLI 091753Z VRB04KT 10SM CLR 21/15 A3011 RMK AO2 SLP199 T02060150 10211 20144 58001=
201307091653 METAR KBLI 091653Z VRB04KT 10SM CLR 18/13 A3011 RMK AO2 SLP203 T01780133=
201307091607 SPECI KBLI 091607Z 17004KT 10SM FEW003 18/14 A3012 RMK AO2=
201307091553 METAR KBLI 091553Z 00000KT 10SM CLR 17/13 A3012 RMK AO2 SLP204 T01720133=
201307091453 METAR KBLI 091453Z VRB03KT 10SM CLR 16/13 A3011 RMK AO2 SLP200 T01610133 51005=
201307091353 METAR KBLI 091353Z 00000KT 9SM CLR 16/13 A3010 RMK AO2 SLP199 T01560133=
201307091253 METAR KBLI 091253Z AUTO 17003KT 8SM CLR 14/13 A3010 RMK AO2 SLP199 T01440133=
201307091153 METAR KBLI 091153Z AUTO 19003KT 10SM CLR 14/13 A3009 RMK AO2 SLP196 T01440128 10178 20144 53003=
201307091053 METAR KBLI 091053Z AUTO 18003KT 10SM CLR 15/13 A3009 RMK AO2 SLP193 T01500128=
201307090953 METAR KBLI 090953Z AUTO 16003KT 10SM CLR 16/13 A3009 RMK AO2 SLP194 T01560133=
201307090853 METAR KBLI 090853Z AUTO 16003KT 10SM CLR 16/13 A3009 RMK AO2 SLP192 T01560133 50001=
201307090753 METAR KBLI 090753Z AUTO 19005KT 10SM CLR 17/14 A3009 RMK AO2 SLP194 T01670139 402440139=
201307090653 METAR KBLI 090653Z AUTO 17004KT 10SM CLR 17/13 A3008 RMK AO2 SLP193 T01720133=
201307090553 METAR KBLI 090553Z AUTO 17005KT 10SM CLR 17/13 A3008 RMK AO2 SLP192 T01670133 10244 20167 53009=
201307090453 METAR KBLI 090453Z 18004KT 10SM CLR 18/14 A3007 RMK AO2 SLP190 T01780139=
201307090353 METAR KBLI 090353Z 00000KT 10SM CLR 19/15 A3006 RMK AO2 SLP185 T01890150=
201307090253 METAR KBLI 090253Z 18003KT 10SM CLR 22/14 A3006 RMK AO2 SLP183 T02220144 56002=
201307090153 METAR KBLI 090153Z 00000KT 10SM CLR 23/13 A3006 RMK AO2 SLP183 T02330133=
201307090053 METAR KBLI 090053Z 27004KT 10SM CLR 24/12 A3006 RMK AO2 SLP183 T02390117=
201307082353 METAR KBLI 082353Z 23004KT 10SM CLR 23/13 A3006 RMK AO2 SLP185 T02280133 10239 20178 58006=
201307082253 METAR KBLI 082253Z VRB03KT 10SM CLR 23/14 A3007 RMK AO2 SLP186 T02280139=
201307082153 METAR KBLI 082153Z 17005KT 10SM CLR 22/14 A3008 RMK AO2 SLP190 T02220139=
201307082053 METAR KBLI 082053Z 17007KT 10SM CLR 22/14 A3008 RMK AO2 SLP191 T02170144 50000=
201307081953 METAR KBLI 081953Z 19007KT 10SM CLR 20/13 A3009 RMK AO2 SLP194 T02000133=
201307081853 METAR KBLI 081853Z 18007KT 10SM CLR 19/13 A3008 RMK AO2 SLP193 T01890133=
201307081753 METAR KBLI 081753Z VRB06KT 10SM CLR 18/13 A3008 RMK AO2 SLP192 T01780128 10183 20139 51014=
201307081739 SPECI KBLI 081739Z 17009KT 10SM SCT012 18/13 A3008 RMK AO2=
201307081700 SPECI KBLI 081700Z 15008KT 090V250 10SM BKN012 17/13 A3007 RMK AO2=
201307081653 METAR KBLI 081653Z 17009KT 10SM SCT012 17/13 A3007 RMK AO2 SLP189 T01720128=
201307081603 SPECI KBLI 081603Z 17010KT 10SM SCT012 16/12 A3006 RMK AO2=
201307081553 METAR KBLI 081553Z 18007KT 140V220 10SM BKN012 16/12 A3005 RMK AO2 SLP183 T01610122=
201307081453 METAR KBLI 081453Z 17007KT 10SM BKN012 16/12 A3004 RMK AO2 SLP177 T01610122 51019=
201307081353 METAR KBLI 081353Z 17008KT 10SM FEW004 SCT012 14/12 A3002 RMK AO2 SLP171 T01440122=
201307081253 METAR KBLI 081253Z AUTO 17010KT 8SM OVC012 14/12 A3001 RMK AO2 SLP167 T01390122 $=
201307081236 SPECI KBLI 081236Z AUTO 17008KT 9SM BKN012 14/12 A3000 RMK AO2 $=
201307081153 METAR KBLI 081153Z AUTO 18006KT 10SM CLR 14/12 A2998 RMK AO2 SLP158 T01390122 10167 20139 53010 $=
201307081053 METAR KBLI 081053Z AUTO 17006KT 10SM CLR 15/12 A2997 RMK AO2 SLP153 T01500122 $=
201307080953 METAR KBLI 080953Z AUTO 18004KT 10SM CLR 15/13 A2996 RMK AO2 SLP149 T01500128 $=
201307080853 METAR KBLI 080853Z AUTO 18005KT 10SM CLR 16/13 A2995 RMK AO2 SLP148 T01610133 53010 $=
201307080753 METAR KBLI 080753Z AUTO 20003KT 10SM CLR 16/13 A2994 RMK AO2 SLP144 T01560133 402390150 $=
201307080653 METAR KBLI 080653Z AUTO 00000KT 10SM CLR 16/13 A2993 RMK AO2 SLP142 T01610133 $=
201307080553 METAR KBLI 080553Z AUTO 17005KT 10SM CLR 17/13 A2992 RMK AO2 SLP138 T01670133 10239 20161 51008 $=
201307080453 METAR KBLI 080453Z 17005KT 10SM CLR 17/13 A2992 RMK AO2 SLP136 T01720133 $=
201307080353 METAR KBLI 080353Z 25003KT 10SM CLR 19/14 A2991 RMK AO2 SLP133 T01890139 $=
201307080253 METAR KBLI 080253Z 10SM CLR 22/14 A2990 RMK AO2 SLP129 T02170139 53004 $=
201307080153 METAR KBLI 080153Z VRB03KT 10SM CLR 23/13 A2989 RMK AO2 SLP126 T02280133 $=
201307080053 METAR KBLI 080053Z 25004KT 10SM CLR 23/13 A2989 RMK AO2 SLP125 T02280133 $=
201307072353 METAR KBLI 072353Z 00000KT 10SM CLR 23/13 A2988 RMK AO2 SLP124 T02330133 10239 20194 58012 $=
201307072253 METAR KBLI 072253Z 27006KT 10SM CLR 23/12 A2990 RMK AO2 SLP129 T02330122=
201307072153 METAR KBLI 072153Z VRB06KT 10SM CLR 23/13 A2991 RMK AO2 SLP135 T02280128=
201307072053 METAR KBLI 072053Z 28005KT 10SM CLR 22/13 A2992 RMK AO2 SLP137 T02170128 58007=
201307071953 METAR KBLI 071953Z VRB04KT 10SM CLR 21/12 A2993 RMK AO2 SLP140 T02110122=
201307071853 METAR KBLI 071853Z VRB06KT 10SM FEW090 21/12 A2994 RMK AO2 SLP143 T02060117 $=
201307071753 METAR KBLI 071753Z VRB03KT 10SM CLR 19/13 A2994 RMK AO2 SLP143 T01940128 10200 20150 51000 $=
201307071653 METAR KBLI 071653Z 16007KT 10SM SCT016 19/13 A2994 RMK AO2 SLP144 LWR W-N T01890133 $=
201307071553 METAR KBLI 071553Z 18007KT 10SM BKN016 18/13 A2994 RMK AO2 SLP144 T01780128 $=
201307071534 SPECI KBLI 071534Z 16007KT 10SM SCT012 17/12 A2994 RMK AO2 $=
201307071453 METAR KBLI 071453Z 16008KT 10SM BKN012 16/12 A2993 RMK AO2 SLP139 T01610122 51009 $=
201307071446 SPECI KBLI 071446Z 16010KT 10SM BKN012 16/12 A2993 RMK AO2 $=
201307071353 METAR KBLI 071353Z 17009KT 10SM CLR 16/12 A2992 RMK AO2 SLP136 T01560122 $=
201307071253 METAR KBLI 071253Z AUTO 17007KT 10SM SCT090 16/12 A2991 RMK AO2 SLP133 T01560117 $=
201307071153 METAR KBLI 071153Z AUTO VRB05KT 10SM BKN085 15/12 A2990 RMK AO2 SLP130 T01500117 10178 20150 51005 $=
201307071053 METAR KBLI 071053Z AUTO 18005KT 10SM SCT090 16/12 A2989 RMK AO2 SLP128 T01560117 $=
201307070953 METAR KBLI 070953Z AUTO 18004KT 10SM SCT095 16/12 A2989 RMK AO2 SLP127 T01560117 $=
201307070853 METAR KBLI 070853Z AUTO 17006KT 10SM CLR 16/12 A2988 RMK AO2 SLP124 T01610117 52001 $=
201307070753 METAR KBLI 070753Z AUTO 18005KT 10SM CLR 17/12 A2988 RMK AO2 SLP123 T01670122 402390106 $=
201307070653 METAR KBLI 070653Z AUTO 18006KT 10SM CLR 17/13 A2988 RMK AO2 SLP124 T01720128 $=
201307070553 METAR KBLI 070553Z AUTO 16008KT 10SM CLR 18/14 A2988 RMK AO2 SLP123 T01780139 10239 20178 53005 $=
201307070453 METAR KBLI 070453Z 17003KT 10SM CLR 19/13 A2987 RMK AO2 SLP120 T01890128 $=
201307070353 METAR KBLI 070353Z 16006KT 10SM CLR 19/13 A2987 RMK AO2 PK WND 330114/0342 SLP118 T01890133 $=
201307070348 SPECI KBLI 070348Z 16006G114KT 10SM SQ CLR 19/13 A2987 RMK AO2 PK WND 330114/0342 $=
201307070253 METAR KBLI 070253Z 00000KT 10SM CLR 22/13 A2987 RMK AO2 SLP119 T02170133 56009 $=
201307070153 METAR KBLI 070153Z 18004KT 10SM CLR 23/13 A2987 RMK AO2 SLP120 T02280133 $=
201307070053 METAR KBLI 070053Z VRB03KT 10SM CLR 24/13 A2988 RMK AO2 SLP123 T02390133 $=
201307062353 METAR KBLI 062353Z 00000KT 10SM CLR 23/13 A2989 RMK AO2 SLP129 T02330128 10239 20206 58016 $=
201307062253 METAR KBLI 062253Z VRB03KT 10SM CLR 23/13 A2991 RMK AO2 SLP135 T02330128 $=
201307062153 METAR KBLI 062153Z VRB06KT 10SM CLR 23/13 A2993 RMK AO2 SLP139 T02280133 $=
201307062053 METAR KBLI 062053Z 28007KT 10SM CLR 22/12 A2994 RMK AO2 SLP144 T02220117 58005 $=
201307061953 METAR KBLI 061953Z VRB05KT 10SM CLR 22/13 A2995 RMK AO2 SLP148 T02170128 $=
201307061853 METAR KBLI 061853Z 25007KT 10SM FEW028 22/13 A2996 RMK AO2 SLP151 T02170133 $=
201307061753 METAR KBLI 061753Z 27007KT 10SM FEW028 21/13 A2996 RMK AO2 SLP150 T02110133 10211 20111 58008 $=
201307061653 METAR KBLI 061653Z 25003KT 10SM CLR 20/12 A2997 RMK AO2 SLP153 T02000122 $=
201307061553 METAR KBLI 061553Z 33004KT 10SM CLR 19/12 A2997 RMK AO2 SLP155 T01890122 $=
201307061453 METAR KBLI 061453Z 36004KT 10SM CLR 17/13 A2998 RMK AO2 SLP157 T01670133 53001 $=
201307061353 METAR KBLI 061353Z 00000KT 10SM CLR 15/13 A2997 RMK AO2 SLP156 T01500128 $=
201307061253 METAR KBLI 061253Z AUTO 00000KT 8SM CLR 11/10 A2997 RMK AO2 SLP154 T01110100 $=
201307061244 SPECI KBLI 061244Z AUTO 00000KT 2 1/2SM BR CLR 11/10 A2997 RMK AO2 $=
201307061233 SPECI KBLI 061233Z AUTO 00000KT 7SM CLR 11/11 A2997 RMK AO2 $=
201307061225 SPECI KBLI 061225Z AUTO 00000KT 2 1/2SM BR CLR 12/11 A2997 RMK AO2 $=
201307061153 METAR KBLI 061153Z AUTO 00000KT 9SM CLR 12/11 A2998 RMK AO2 SLP156 T01170106 10156 20106 58001 $=
201307061053 METAR KBLI 061053Z AUTO 00000KT 10SM CLR 11/10 A2998 RMK AO2 SLP158 T01110100 $=
201307061010 SPECI KBLI 061010Z AUTO 00000KT 3SM BR CLR 12/11 A2998 RMK AO2 $=
201307060959 SPECI KBLI 060959Z AUTO 00000KT 1 3/4SM BR CLR 11/10 A2998 RMK AO2 $=
201307060953 METAR KBLI 060953Z AUTO 00000KT 10SM CLR 12/11 A2998 RMK AO2 SLP159 T01170106 $=
201307060853 METAR KBLI 060853Z AUTO 00000KT 10SM CLR 12/11 A2998 RMK AO2 SLP157 T01220106 53002 $=
201307060753 METAR KBLI 060753Z AUTO 00000KT 10SM BKN050 13/12 A2998 RMK AO2 SLP156 T01330117 402170133 $=
201307060653 METAR KBLI 060653Z AUTO 00000KT 10SM CLR 14/12 A2997 RMK AO2 SLP156 T01390122 $=
201307060553 METAR KBLI 060553Z AUTO 00000KT 10SM CLR 16/13 A2997 RMK AO2 SLP155 T01560128 10217 20156 53007 $=
201307060453 METAR KBLI 060453Z 00000KT 10SM CLR 16/13 A2997 RMK AO2 SLP153 T01610133 $=
201307060353 METAR KBLI 060353Z 18003KT 10SM CLR 18/13 A2995 RMK AO2 SLP147 T01830128 $=
201307060253 METAR KBLI 060253Z 17003KT 10SM CLR 21/12 A2995 RMK AO2 SLP148 T02060122 56008 $=
201307060153 METAR KBLI 060153Z 17004KT 10SM CLR 22/13 A2996 RMK AO2 SLP151 T02170128 $=
201307060053 METAR KBLI 060053Z VRB03KT 10SM CLR 21/12 A2997 RMK AO2 SLP153 T02110122 $=
201307052353 METAR KBLI 052353Z 16006KT 10SM CLR 22/12 A2998 RMK AO2 SLP156 T02170122 10217 20167 56009 $=
201307052253 METAR KBLI 052253Z 16007KT 10SM CLR 21/12 A2998 RMK AO2 SLP159 T02110122 $=
201307052153 METAR KBLI 052153Z 18008KT 10SM CLR 21/13 A2999 RMK AO2 SLP162 T02060128 $=
201307052053 METAR KBLI 052053Z 17006KT 10SM CLR 21/13 A3000 RMK AO2 SLP165 T02060133 56005 $=
201307051953 METAR KBLI 051953Z 16007KT 10SM SCT024 19/14 A3001 RMK AO2 SLP167 T01940139 $=
201307051853 METAR KBLI 051853Z 18007G14KT 10SM FEW024 18/13 A3001 RMK AO2 SLP168 T01830133 $=
201307051846 SPECI KBLI 051846Z 16009KT 10SM FEW024 18/13 A3001 RMK AO2 $=
201307051753 METAR KBLI 051753Z 19006KT 10SM BKN020 17/13 A3002 RMK AO2 SLP171 T01670128 10172 20133 58000 $=
201307051653 METAR KBLI 051653Z 16007KT 10SM SCT017 OVC022 16/13 A3002 RMK AO2 SLP171 T01610128 $=
201307051621 SPECI KBLI 051621Z 16008KT 10SM OVC018 16/12 A3002 RMK AO2 $=
201307051553 METAR KBLI 051553Z 18007KT 10SM OVC014 15/12 A3002 RMK AO2 SLP171 T01500122 $=
201307051453 METAR KBLI 051453Z 18006KT 10SM BKN014 OVC085 14/12 A3002 RMK AO2 SLP171 T01440117 53006 $=
201307051445 SPECI KBLI 051445Z 18008KT 10SM BKN014 OVC085 14/12 A3002 RMK AO2 $=
201307051353 METAR KBLI 051353Z 17008KT 10SM FEW024 OVC080 14/12 A3001 RMK AO2 SLP167 T01390117 $=
201307051253 METAR KBLI 051253Z AUTO 17007KT 10SM BKN090 14/12 A3000 RMK AO2 SLP166 T01390117 $=
201307051153 METAR KBLI 051153Z AUTO 17006KT 10SM CLR 14/11 A3000 RMK AO2 SLP165 T01390111 10167 20133 56007 $=
201307051053 METAR KBLI 051053Z AUTO 17007KT 10SM CLR 14/11 A3001 RMK AO2 SLP167 T01390111 $=
201307050953 METAR KBLI 050953Z AUTO 18007KT 10SM CLR 14/11 A3001 RMK AO2 SLP168 T01390111 $=
201307050853 METAR KBLI 050853Z AUTO 18004KT 10SM CLR 14/10 A3002 RMK AO2 SLP172 T01390100 57002 $=
201307050753 METAR KBLI 050753Z AUTO 17004KT 10SM CLR 14/10 A3002 RMK AO2 SLP172 T01440100 402060128 $=
201307050653 METAR KBLI 050653Z AUTO 17005KT 10SM CLR 16/09 A3003 RMK AO2 SLP173 T01560094 $=
201307050553 METAR KBLI 050553Z AUTO 17004KT 10SM CLR 17/09 A3003 RMK AO2 SLP173 T01670094 10200 20167 53000 $=
201307050453 METAR KBLI 050453Z 16007KT 10SM CLR 17/09 A3003 RMK AO2 SLP174 T01720094 $=
201307050353 METAR KBLI 050353Z 16008KT 10SM CLR 17/11 A3002 RMK AO2 SLP171 T01720106 $=
201307050253 METAR KBLI 050253Z 16009KT 10SM R16/2600VP6000FT CLR 19/11 A3003 RMK AO2 SLP173 T01890106 56011 $=
201307050153 METAR KBLI 050153Z 17008KT 10SM CLR 19/11 A3004 RMK AO2 SLP177 T01940106 $=
201307050053 METAR KBLI 050053Z 19008G14KT 10SM CLR 19/11 A3004 RMK AO2 SLP179 T01940111 $=
201307042353 METAR KBLI 042353Z 18008KT 10SM CLR 20/11 A3006 RMK AO2 SLP184 T02000111 10206 20172 58013 $=
201307042253 METAR KBLI 042253Z 17008KT 10SM CLR 20/11 A3008 RMK AO2 SLP190 T02000111 $=
201307042153 METAR KBLI 042153Z 19008G14KT 10SM CLR 20/12 A3009 RMK AO2 SLP194 T02000117 $=
201307042053 METAR KBLI 042053Z 18010G17KT 10SM CLR 19/11 A3010 RMK AO2 SLP197 T01940111 50000 $=
201307041953 METAR KBLI 041953Z 17010G16KT 10SM CLR 19/12 A3010 RMK AO2 SLP199 T01890117 $=
201307041853 METAR KBLI 041853Z 18009G20KT 10SM CLR 18/12 A3010 RMK AO2 SLP197 T01830117 $=
201307041753 METAR KBLI 041753Z 17010G17KT 10SM CLR 17/12 A3010 RMK AO2 SLP197 T01720122 10178 20128 51005 $=
201307041733 SPECI KBLI 041733Z 17011G17KT 10SM SCT027 17/12 A3010 RMK AO2 $=
201307041653 METAR KBLI 041653Z 17012G19KT 10SM OVC027 17/12 A3009 RMK AO2 SLP196 T01670117 $=
201307041608 SPECI KBLI 041608Z 17011G20KT 10SM BKN025 16/12 A3009 RMK AO2 $=
201307041553 METAR KBLI 041553Z 17012G17KT 10SM FEW025 BKN065 16/12 A3009 RMK AO2 SLP194 T01610117 $=
201307041453 METAR KBLI 041453Z 17008KT 10SM SCT025 16/11 A3008 RMK AO2 SLP192 T01560111 53006 $=
201307041353 METAR KBLI 041353Z 16007KT 10SM CLR 15/11 A3007 RMK AO2 SLP190 T01500106 $=
201307041253 METAR KBLI 041253Z AUTO 16005KT 10SM CLR 14/10 A3007 RMK AO2 SLP187 T01390100 $=
201307041153 METAR KBLI 041153Z AUTO 15005KT 10SM CLR 13/10 A3006 RMK AO2 SLP186 T01330100 10161 20128 53004 $=
201307041053 METAR KBLI 041053Z AUTO VRB03KT 10SM CLR 13/09 A3006 RMK AO2 SLP184 T01330094 $=
201307040953 METAR KBLI 040953Z AUTO 00000KT 10SM CLR 14/10 A3005 RMK AO2 SLP182 T01390100 $=
201307040853 METAR KBLI 040853Z AUTO 14007KT 10SM CLR 15/09 A3005 RMK AO2 SLP181 T01500094 51003 $=
201307040753 METAR KBLI 040753Z AUTO 17004KT 10SM CLR 14/09 A3005 RMK AO2 SLP181 T01440089 402390133 $=
201307040653 METAR KBLI 040653Z AUTO 16003KT 10SM CLR 15/08 A3005 RMK AO2 SLP181 T01500083 $=
201307040553 METAR KBLI 040553Z AUTO 18008G24KT 10SM CLR 17/09 A3004 RMK AO2 SLP179 T01670089 10222 20167 53002 $=
201307040453 METAR KBLI 040453Z 17009G16KT 10SM CLR 17/09 A3004 RMK AO2 SLP178 T01720094=
201307040353 METAR KBLI 040353Z 18008G15KT 10SM CLR 18/09 A3003 RMK AO2 SLP176 T01780094=
201307040253 METAR KBLI 040253Z 17009G17KT 10SM CLR 20/08 A3004 RMK AO2 SLP177 T02000083 56013=
201307040153 METAR KBLI 040153Z 17010G16KT 10SM CLR 21/10 A3004 RMK AO2 SLP178 T02110100=
201307040053 METAR KBLI 040053Z 17007KT 10SM CLR 21/11 A3005 RMK AO2 SLP181 T02110111=
201307032353 METAR KBLI 032353Z 16007KT 10SM CLR 22/12 A3007 RMK AO2 SLP190 T02170117 10239 20189 56017=
201307032253 METAR KBLI 032253Z 17006KT 10SM CLR 22/11 A3009 RMK AO2 SLP195 T02220106=
201307032153 METAR KBLI 032153Z VRB03KT 10SM CLR 24/11 A3011 RMK AO2 SLP199 T02390106=
201307032053 METAR KBLI 032053Z 27007KT 10SM CLR 23/11 A3012 RMK AO2 SLP206 T02280106 58009=
201307031953 METAR KBLI 031953Z VRB06KT 10SM CLR 22/13 A3013 RMK AO2 SLP209 T02170128=
201307031853 METAR KBLI 031853Z 19004KT 10SM CLR 21/13 A3014 RMK AO2 SLP212 T02060128=
201307031753 METAR KBLI 031753Z VRB05KT 10SM CLR 19/12 A3015 RMK AO2 SLP215 T01890122 10189 20133 53001=
201307031653 METAR KBLI 031653Z 18004KT 10SM CLR 18/12 A3015 RMK AO2 SLP214 T01780117=
201307031553 METAR KBLI 031553Z 18006KT 10SM CLR 17/12 A3015 RMK AO2 SLP216 T01720117=
201307031453 METAR KBLI 031453Z 19005KT 10SM CLR 16/12 A3015 RMK AO2 SLP215 T01560117 51010=
201307031353 METAR KBLI 031353Z 18006KT 10SM CLR 14/11 A3014 RMK AO2 SLP211 T01440111=
201307031253 METAR KBLI 031253Z AUTO 18006KT 10SM CLR 14/11 A3013 RMK AO2 SLP209 T01390111=
201307031153 METAR KBLI 031153Z AUTO 17008KT 10SM CLR 14/11 A3012 RMK AO2 SLP205 T01390111 10172 20139 51010=
201307031053 METAR KBLI 031053Z AUTO 18007KT 10SM CLR 14/11 A3011 RMK AO2 SLP202 T01390106=
201307030953 METAR KBLI 030953Z AUTO 19006KT 10SM CLR 15/11 A3010 RMK AO2 SLP198 T01500111=
201307030853 METAR KBLI 030853Z AUTO 18008KT 10SM CLR 15/10 A3009 RMK AO2 SLP195 T01500100 51017=
201307030753 METAR KBLI 030753Z AUTO 18008KT 10SM CLR 16/10 A3008 RMK AO2 SLP190 T01560100 402280156=
201307030653 METAR KBLI 030653Z AUTO 18009KT 10SM CLR 17/10 A3006 RMK AO2 SLP183 T01670100=
201307030553 METAR KBLI 030553Z AUTO 17007KT 10SM CLR 17/11 A3004 RMK AO2 SLP178 T01720106 10228 20172 53007=
201307030453 METAR KBLI 030453Z 17010KT 10SM CLR 18/12 A3002 RMK AO2 SLP171 T01830117=
201307030353 METAR KBLI 030353Z 17009KT 10SM R16/5000VP6000FT CLR 19/12 A3002 RMK AO2 SLP170 T01940122=
201307030253 METAR KBLI 030253Z 17008KT 10SM CLR 21/13 A3002 RMK AO2 SLP171 T02060128 56016=
201307030153 METAR KBLI 030153Z 17007G15KT 10SM CLR 22/13 A3003 RMK AO2 SLP174 T02170133=
201307030053 METAR KBLI 030053Z 18009KT 10SM CLR 23/13 A3004 RMK AO2 SLP178 T02280133=
201307022353 METAR KBLI 022353Z 17007KT 10SM CLR 23/14 A3007 RMK AO2 SLP186 T02280139 10228 20183 58010=
201307022253 METAR KBLI 022253Z 17008KT 10SM CLR 23/14 A3008 RMK AO2 SLP191 T02280144=
201307022153 METAR KBLI 022153Z 18009KT 10SM CLR 22/14 A3009 RMK AO2 SLP194 T02220139=
201307022053 METAR KBLI 022053Z 16010KT 10SM CLR 21/14 A3010 RMK AO2 SLP196 T02110139 50003=
201307021953 METAR KBLI 021953Z 17010G15KT 10SM CLR 20/13 A3010 RMK AO2 SLP198 T02000133=
201307021853 METAR KBLI 021853Z 17013G20KT 10SM CLR 20/13 A3010 RMK AO2 SLP197 T02000133=
201307021753 METAR KBLI 021753Z 18011G18KT 10SM BKN055 18/13 A3009 RMK AO2 SLP193 T01830133 10194 20156 53004=
201307021653 METAR KBLI 021653Z 18010G16KT 10SM CLR 19/13 A3008 RMK AO2 SLP189 T01890133=
201307021553 METAR KBLI 021553Z 17011G19KT 10SM SCT046 17/13 A3008 RMK AO2 SLP191 T01720128=
201307021453 METAR KBLI 021453Z 17011KT 10SM BKN050 16/13 A3007 RMK AO2 SLP189 T01610128 53013=
201307021400 METAR KBLI NIL=
201307021300 METAR KBLI NIL=
201307021253 METAR KBLI 021253Z AUTO 17009KT 10SM CLR 16/12 A3005 RMK AO2 PK WND 16026/1156 SLP181 T01560122=
201307021200 METAR KBLI NIL=
201307021053 METAR KBLI 021053Z AUTO 17008KT 10SM CLR 16/12 A3003 RMK AO2 SLP173 T01610122=
201307020953 METAR KBLI 020953Z AUTO 17012G17KT 10SM CLR 16/13 A3002 RMK AO2 SLP171 T01610128=
201307020853 METAR KBLI 020853Z AUTO 18012G18KT 10SM FEW070 16/12 A3002 RMK AO2 SLP172 T01610122 51018=
201307020753 METAR KBLI 020753Z AUTO 18009KT 10SM CLR 17/13 A3001 RMK AO2 SLP167 T01720133 402670172=
201307020653 METAR KBLI 020653Z AUTO 18009G17KT 10SM CLR 18/13 A2999 RMK AO2 SLP160 T01830133=
201307020553 METAR KBLI 020553Z AUTO 18010G16KT 10SM CLR 19/14 A2997 RMK AO2 SLP154 T01940139 10267 20194 53015=
201307020453 METAR KBLI 020453Z 17010G18KT 10SM CLR 23/13 A2995 RMK AO2 SLP146 T02330133=
201307020353 METAR KBLI 020353Z 16009KT 10SM CLR 23/15 A2992 RMK AO2 SLP136 T02330150=
201307020253 METAR KBLI 020253Z 17011G18KT 10SM CLR 22/15 A2993 RMK AO2 SLP139 T02220150 56003=
201307020153 METAR KBLI 020153Z 17006KT 10SM CLR 23/16 A2993 RMK AO2 SLP141 T02330161=
201307020053 METAR KBLI 020053Z 17013G21KT 10SM CLR 27/15 A2993 RMK AO2 SLP138 T02670150=
201307012353 METAR KBLI 012353Z 17009G15KT 10SM CLR 24/16 A2993 RMK AO2 SLP141 T02440161 10267 20228 50002=
201307012253 METAR KBLI 012253Z 18010G15KT 10SM CLR 24/16 A2995 RMK AO2 SLP145 T02440161 TSNO=
201307012153 METAR KBLI 012153Z 17007KT 10SM CLR 26/17 A2994 RMK AO2 SLP144 T02560172=
201307012053 METAR KBLI 012053Z VRB05KT 10SM CLR 27/18 A2993 RMK AO2 SLP140 T02670178 55003=
201307011953 METAR KBLI 011953Z VRB05KT 10SM CLR 25/17 A2993 RMK AO2 SLP139 T02500167=
201307011853 METAR KBLI 011853Z VRB04KT 10SM CLR 24/17 A2993 RMK AO2 SLP140 T02440172=
201307011753 METAR KBLI 011753Z VRB05KT 10SM CLR 24/17 A2994 RMK AO2 SLP143 T02390172 10250 20172 58008=
201307011653 METAR KBLI 011653Z 00000KT 10SM CLR 22/16 A2995 RMK AO2 SLP146 T02220161=
201307011553 METAR KBLI 011553Z 18005KT 10SM CLR 20/15 A2997 RMK AO2 SLP152 T02000150=
201307011453 METAR KBLI 011453Z 15004KT 10SM CLR 19/14 A2996 RMK AO2 SLP151 T01890144 50010=
201307011353 METAR KBLI 011353Z 19004KT 10SM CLR 18/14 A2996 RMK AO2 SLP151 T01830139=
201307011253 METAR KBLI 011253Z AUTO 00000KT 10SM CLR 18/14 A2994 RMK AO2 SLP144 T01780144=
201307011153 METAR KBLI 011153Z AUTO 20003KT 10SM CLR 17/14 A2993 RMK AO2 SLP141 T01720144 10206 20172 51007=
201307011053 METAR KBLI 011053Z AUTO 00000KT 10SM CLR 18/14 A2993 RMK AO2 SLP139 T01780144=
201307010953 METAR KBLI 010953Z AUTO 00000KT 10SM CLR 18/14 A2992 RMK AO2 SLP136 T01780144=
201307010853 METAR KBLI 010853Z AUTO 19005KT 10SM CLR 19/15 A2991 RMK AO2 SLP133 T01890150 51007=
201307010753 METAR KBLI 010753Z AUTO 17005KT 10SM CLR 19/16 A2991 RMK AO2 SLP133 T01940156 403060139=
201307010653 METAR KBLI 010653Z AUTO 20004KT 10SM CLR 20/17 A2990 RMK AO2 SLP130 T02000167=
201307010553 METAR KBLI 010553Z AUTO 18003KT 10SM FEW120 20/17 A2989 RMK AO2 SLP126 T02000167 10300 20200 53011=
201307010453 METAR KBLI 010453Z 18003KT 10SM CLR 21/17 A2988 RMK AO2 SLP123 T02110167=
201307010353 METAR KBLI 010353Z 00000KT 10SM CLR 23/18 A2986 RMK AO2 SLP117 T02280178=
201307010253 METAR KBLI 010253Z 00000KT 10SM CLR 26/17 A2986 RMK AO2 SLP115 T02610172 56009=
201307010153 METAR KBLI 010153Z VRB03KT 10SM CLR 27/17 A2986 RMK AO2 SLP117 T02720172=
201307010053 METAR KBLI 010053Z 27008KT 10SM CLR 28/18 A2987 RMK AO2 SLP118 T02830183=

# No short TAF reports from KBLI in databse.

###################################
#  large TAF from KBLI
###################################
201307312320 TAF KBLI 312320Z 0100/0124 18006KT P6SM SCT080 BKN150 FM010200
                       19007KT P6SM -SHRA VCTS BKN080CB BKN150
                       FM010700 17003KT P6SM SCT080 BKN250 FM011200
                       17005KT P6SM OVC005 FM011300 17003KT 4SM
                       BR OVC004
                      TEMPO 0114/0117 1SM BR VV002 FM012000 19005KT
                       P6SM BKN012 BKN080 BKN150 FM012200 19007KT
                       P6SM -SHRA VCTS SCT015 BKN080CB BKN150=
201307311937 TAF AMD KBLI 311937Z 3120/0118 18006KT P6SM FEW010 SCT080 BKN250
                       FM312300 19007KT P6SM VCTS BKN080CB BKN250
                       FM010600 17003KT P6SM SCT080 BKN250 FM011200
                       17005KT P6SM OVC005 FM011300 17003KT 4SM
                       BR OVC004
                      TEMPO 0114/0117 1SM BR VV002=
201307311910 TAF AMD KBLI 311910Z 3119/0118 18007KT 5SM BR FEW004 BKN008
                      TEMPO 3119/3120 3SM BR OVC004 FM312000 20006KT
                       P6SM BKN012 BKN080 BKN250 FM312100 21007KT
                       P6SM VCTS BKN080CB BKN250 FM010600 17003KT
                       P6SM SCT080 BKN250 FM011200 17005KT P6SM
                       OVC005 FM011300 17003KT 4SM BR OVC004
                      TEMPO 0114/0117 1SM BR VV002=
201307311720 TAF KBLI 311720Z 3118/0118 18007KT 3SM BR BKN006
                      TEMPO 3118/3120 1SM BR OVC002 FM312000 20006KT
                       P6SM BKN012 BKN080 BKN250 FM312300 21007KT
                       P6SM VCTS BKN080CB BKN250 FM010600 17003KT
                       P6SM SCT080 BKN250 FM011200 17005KT P6SM
                       OVC005 FM011300 17003KT 4SM BR OVC004
                      TEMPO 0114/0117 1SM BR VV002=
201307311502 TAF AMD KBLI 311502Z 3115/0112 17006KT 3SM BR OVC003
                      TEMPO 3115/3117 1SM BR OVC002 FM311800 18006KT
                       P6SM SCT006 SCT080 BKN250 FM311900 18007KT
                       P6SM SCT080 BKN250=
201307311120 TAF KBLI 311120Z 3112/0112 17007KT P6SM SKC FM311300 16005KT P6SM
                       OVC006
                      TEMPO 3113/3117 3SM BR OVC002 FM311800 18006KT
                       P6SM SCT006 SCT080 BKN250 FM311900 18007KT
                       P6SM SCT080 BKN250=
201307310530 TAF KBLI 310530Z 3106/0106 18008KT P6SM SKC FM311200 16005KT P6SM
                       OVC006
                      TEMPO 3113/3117 3SM BR OVC002 FM311700 18006KT
                       P6SM SCT006 SCT080 BKN200 FM311800 18007KT
                       P6SM SCT080 BKN200=
201307302320 TAF KBLI 302320Z 3100/3124 18009KT P6SM SCT120 BKN200 FM311200
                       16005KT P6SM OVC006
                      TEMPO 3113/3117 3SM BR OVC002 FM311700 18006KT
                       P6SM SCT006 SCT080 BKN200 FM311900 18007KT
                       P6SM SCT080 BKN200=
201307301737 TAF KBLI 301737Z 3018/3118 18009KT P6SM FEW002 SCT006 BKN200
                      TEMPO 3018/3020 6SM BR BKN002 FM302000 18009KT
                       P6SM BKN200 FM311200 16005KT P6SM OVC006
                       TEMPO 3113/3117 3SM BR OVC002 FM311700 19006KT
                       P6SM SCT006 BKN200=
201307301654 TAF AMD KBLI 301654Z 3017/3112 17008KT P6SM SCT002 SCT200
                      TEMPO 3017/3018 1SM BR BKN002 FM301800 18009KT
                       P6SM SCT006 BKN200
                      TEMPO 3018/3019 BKN006 FM302000 18009KT P6SM
                       BKN200=
201307301504 TAF AMD KBLI 301504Z 3015/3112 17005KT P6SM OVC003 FM301700 18006KT
                       P6SM FEW005 SCT200 FM301800 16007KT P6SM
                       FEW100 BKN200=
201307301135 TAF KBLI 301135Z 3012/3112 18007KT P6SM SKC FM301300 17005KT P6SM
                       SCT010
                      TEMPO 3014/3016 BKN010 FM301700 18008KT P6SM
                       SCT250=
201307300520 TAF KBLI 300520Z 3006/3106 16008KT P6SM SKC FM301300 17005KT P6SM
                       SCT015 FM301700 18008KT P6SM SCT250=
201307292339 TAF KBLI 292339Z 3000/3024 17006KT P6SM FEW200 FM301300 16005KT
                       P6SM SCT020 FM301800 16006KT P6SM SKC=
201307291720 TAF KBLI 291720Z 2918/3018 17008KT P6SM BKN035 FM292000 17008KT
                       P6SM SCT040 SCT120 FM300300 17005KT P6SM
                       FEW050 SCT200=
201307291559 TAF AMD KBLI 291559Z 2916/3012 17007KT P6SM BKN035 FM291800 19010KT
                       P6SM SCT040 SCT120 FM300300 17005KT P6SM
                       FEW050 SCT200=
201307291120 TAF KBLI 291120Z 2912/3012 16006KT P6SM SCT120 FM291800 19010KT
                       P6SM FEW040 FM300300 17005KT P6SM FEW050
                       SCT200=
201307290520 TAF KBLI 290520Z 2906/3006 17007KT P6SM BKN110 FM291200 17009KT
                       P6SM SCT011
                      TEMPO 2914/2918 BKN011 FM291800 19009KT P6SM
                       SKC=
201307282338 TAF KBLI 282338Z 2900/2924 17007KT P6SM FEW060 FM291200 17009KT
                       P6SM SCT011
                      TEMPO 2914/2918 BKN011 FM291800 19009KT P6SM
                       SKC=
201307281720 TAF KBLI 281720Z 2818/2918 18012KT P6SM SKC FM290000 22007KT P6SM
                       SKC FM291200 18010KT P6SM BKN010=
201307281121 TAF KBLI 281121Z 2812/2912 17005KT P6SM SKC
                      TEMPO 2814/2818 BKN012 FM281800 19006KT P6SM
                       SKC=
201307280523 TAF KBLI 280523Z 2806/2906 00000KT P6SM SKC FM281300 18006KT P6SM
                       BKN012 FM281800 19006KT P6SM SKC=
201307272333 TAF KBLI 272333Z 2800/2824 31004KT P6SM SKC FM280400 18005KT P6SM
                       SKC FM281300 18006KT P6SM BKN012 FM281800
                       19006KT P6SM SKC=
201307271720 TAF KBLI 271720Z 2718/2818 VRB03KT P6SM OVC021 FM271900 19005KT
                       P6SM SCT025 FM272000 19006KT P6SM SKC FM280400
                       18008KT P6SM SKC FM281300 18006KT P6SM BKN012=
201307271454 TAF AMD KBLI 271454Z 2715/2812 VRB03KT P6SM SCT021
                      TEMPO 2715/2718 BKN021 FM271800 18008KT P6SM
                       SKC=
201307271405 TAF AMD KBLI 271405Z 2714/2812 18006KT P6SM SKC=
201307271120 TAF KBLI 271120Z 2712/2812 19004KT P6SM SKC FM271400 18006KT P6SM
                       FEW008
                      TEMPO 2714/2718 BKN008 FM271900 18006KT P6SM
                       SKC=
201307270520 TAF KBLI 270520Z 2706/2806 17005KT P6SM SKC FM271400 18008KT P6SM
                       SCT008
                      TEMPO 2714/2718 BKN008 FM271900 18006KT P6SM
                       SKC=
201307262325 TAF KBLI 262325Z 2700/2724 18008KT P6SM SKC FM271400 18008KT P6SM
                       SCT008
                      TEMPO 2714/2718 BKN008 FM271900 18006KT P6SM
                       SKC=
201307261731 TAF KBLI 261731Z 2618/2718 17006KT P6SM SKC FM262200 19007KT P6SM
                       SKC FM270400 18008KT P6SM SKC FM271400 18008KT
                       P6SM SCT008
                      TEMPO 2714/2718 BKN008=
201307261120 TAF KBLI 261120Z 2612/2712 17006KT P6SM SKC=
201307260520 TAF KBLI 260520Z 2606/2706 18004KT P6SM SKC FM261200 18006KT P6SM
                       SKC
                      TEMPO 2612/2616 MIFG SCT002=
201307252321 TAF KBLI 252321Z 2600/2624 19006KT P6SM SKC FM261200 18006KT P6SM
                       SCT002
                      TEMPO 2612/2616 1SM BR BKN002=
201307251728 TAF KBLI 251728Z 2518/2618 19006KT P6SM SKC FM261200 18006KT P6SM
                       SCT002
                      TEMPO 2612/2616 1SM BR BKN002=
201307251602 TAF AMD KBLI 251602Z 2516/2612 18006KT 5SM BR OVC003
                      TEMPO 2516/2517 2SM BR OVC001 FM251700 18006KT
                       P6SM SCT001 FM251800 19006KT P6SM SKC=
201307251440 TAF AMD KBLI 251440Z 2515/2612 18006KT 1SM BR OVC001
                      TEMPO 2515/2517 2SM BR OVC001 FM251700 18006KT
                       P6SM SCT001 FM251800 19006KT P6SM SKC=
201307251352 TAF AMD KBLI 251352Z 2514/2612 18006KT P6SM SKC
                      TEMPO 2514/2517 3SM BR OVC001=
201307251214 TAF AMD KBLI 251214Z 2512/2612 18006KT P6SM SKC
                      TEMPO 2512/2516 3SM BR BKN003=
201307251120 TAF KBLI 251120Z 2512/2612 18006KT P6SM SKC
                      TEMPO 2513/2516 3SM BR SCT003=
201307250527 TAF KBLI 250527Z 2506/2606 17006KT P6SM SKC
                      TEMPO 2513/2516 VRB03KT 3SM BR SCT003=
201307242320 TAF KBLI 242320Z 2500/2524 18007KT P6SM SKC
                      TEMPO 2513/2516 VRB03KT 3SM BR SCT003=
201307241720 TAF KBLI 241720Z 2418/2518 18007KT P6SM SKC=
201307241124 TAF KBLI 241124Z 2412/2512 18007KT P6SM SKC FM241900 18008KT P6SM
                       SKC=
201307240522 TAF KBLI 240522Z 2406/2506 18007KT P6SM SKC FM241200 VRB03KT P6SM
                       FEW002
                      TEMPO 2412/2416 1SM BR SCT001 FM241800 18008KT
                       P6SM SKC=
201307232320 TAF KBLI 232320Z 2400/2424 18005KT P6SM SKC FM241200 VRB03KT 3SM
                       BR SCT003 FM241300 VRB03KT 1/2SM FG VV002
                       FM241700 18005KT 3SM BR SCT006 FM241800
                       18008KT P6SM SKC=
201307231733 TAF KBLI 231733Z 2318/2418 18006KT P6SM SCT003 FM231900 18009KT
                       P6SM SKC FM241200 VRB03KT 3SM BR SCT003
                       FM241300 VRB03KT 1/2SM FG VV002 FM241700
                       18005KT 3SM BR SCT006=
201307231710 TAF AMD KBLI 231710Z 2317/2412 18006KT P6SM SCT003
                      TEMPO 2317/2318 BKN003 FM231900 18009KT P6SM
                       SKC=
201307231503 TAF AMD KBLI 231503Z 2315/2412 18005KT 1/4SM FG VV001
                      TEMPO 2316/2317 1SM BR BKN001 FM231700 18006KT
                       P6SM SCT005 FM231900 18009KT P6SM SKC=
201307231312 TAF AMD KBLI 231312Z 2313/2412 18005KT P6SM SCT002
                      TEMPO 2313/2316 1/2SM FG OVC002 FM231600
                       18006KT P6SM SKC FM231900 18009KT P6SM SKC=
201307231254 TAF AMD KBLI 231254Z 2313/2412 18005KT P6SM SCT002
                      TEMPO 2313/2316 3SM BR BKN002 FM231600 18006KT
                       P6SM SKC FM231900 18009KT P6SM SKC=
201307231123 TAF KBLI 231123Z 2312/2412 18005KT P6SM SKC FM231900 18009KT P6SM
                       SKC=
201307230520 TAF KBLI 230520Z 2306/2406 18005KT P6SM SKC FM231900 18009KT P6SM
                       SKC=
201307222336 TAF KBLI 222336Z 2300/2324 18008KT P6SM SKC FM230600 18005KT P6SM
                       SKC FM231900 18009KT P6SM SKC=
201307221723 TAF KBLI 221723Z 2218/2318 17008KT P6SM OVC003 FM221900 17008KT
                       P6SM BKN008 FM222000 17008KT P6SM SKC FM231200
                       VRB03KT P6SM FEW006
                      TEMPO 2313/2317 4SM BR BKN006=
201307221130 TAF KBLI 221130Z 2212/2312 17008KT P6SM SCT004
                      TEMPO 2212/2213 BKN004 FM221300 17008KT P6SM
                       OVC004 FM221900 17008KT P6SM BKN008 FM222000
                       17008KT P6SM SKC=
201307220520 TAF KBLI 220520Z 2206/2306 17007KT P6SM SKC FM221200 17008KT P6SM
                       VCFG SCT004
                      TEMPO 2212/2214 BKN004 FM221400 17008KT P6SM
                       VCFG OVC004 FM221900 17008KT P6SM BKN008
                       FM222000 17008KT P6SM SKC=
201307212341 TAF KBLI 212341Z 2200/2224 17008KT P6SM SKC FM221200 17008KT P6SM
                       VCFG SCT004
                      TEMPO 2212/2214 BKN004 FM221400 17008KT P6SM
                       VCFG OVC004 FM221900 17008KT P6SM BKN008
                       FM222000 17008KT P6SM SKC=
201307211739 TAF KBLI 211739Z 2118/2218 18012KT P6SM SCT006
                      TEMPO 2118/2119 BKN006 FM212000 18012KT P6SM
                       SKC FM220300 17009KT P6SM SKC FM221200 17009KT
                       P6SM VCFG SCT004
                      TEMPO 2214/2218 BKN004=
201307211658 TAF AMD KBLI 211658Z 2117/2212 17007KT P6SM VCFG BKN004 FM211800
                       17008KT P6SM SCT008 FM212000 18008KT P6SM
                       SKC FM221100 18006KT P6SM OVC018=
201307211407 TAF AMD KBLI 211407Z 2114/2212 17007KT P6SM VCFG SCT004
                      TEMPO 2114/2118 BKN004 FM211800 17008KT P6SM
                       SCT008 FM212000 18008KT P6SM SKC FM221100
                       18006KT P6SM OVC018=
201307211330 TAF AMD KBLI 211330Z 2114/2212 17008KT P6SM OVC004 FM211700 17008KT
                       P6SM BKN008 FM211900 18008KT P6SM SCT012
                       FM212000 18008KT P6SM SKC FM221100 18006KT
                       P6SM OVC018=
201307211125 TAF KBLI 211125Z 2112/2212 17010G16KT P6SM SKC FM211300 17007KT
                       P6SM SCT015 FM211400 17008KT P6SM OVC015
                       FM211900 18008KT P6SM SCT020 FM212000 18008KT
                       P6SM SKC FM221100 18006KT P6SM OVC018=
201307210520 TAF KBLI 210520Z 2106/2206 17009G17KT P6SM SKC FM211200 17007KT
                       P6SM SCT015 FM211400 17008KT P6SM OVC015
                       FM211800 18008KT P6SM SCT020 FM211900 18008KT
                       P6SM SKC=
201307202334 TAF KBLI 202334Z 2100/2124 17010G17KT P6SM SKC FM211200 17007KT
                       P6SM SCT015 FM211400 17008KT P6SM OVC015
                       FM211800 18008KT P6SM SCT020=
201307201736 TAF KBLI 201736Z 2018/2118 17010G17KT 6SM BR OVC005 FM201900 18010KT
                       P6SM SKC=
201307201120 TAF KBLI 201120Z 2012/2112 17008KT P6SM SCT005 FM201400 18005KT
                       P6SM BKN005 FM201800 18007KT P6SM SCT008
                       FM201900 18010KT P6SM SKC=
201307200530 TAF KBLI 200530Z 2006/2106 17008KT P6SM SKC FM201200 18005KT P6SM
                       BKN008 FM201800 18007KT P6SM SCT010 FM201900
                       18010KT P6SM SKC=
201307192320 TAF KBLI 192320Z 2000/2024 18010KT P6SM SKC FM200700 17004KT P6SM
                       SKC FM201100 17003KT P6SM SCT015 FM201800
                       29004KT P6SM SKC=
201307191744 TAF KBLI 191744Z 1918/2018 18008KT P6SM BKN005 FM191900 18008KT
                       P6SM SCT010 FM192000 18010KT P6SM SKC FM200700
                       17004KT P6SM SKC FM201100 17003KT P6SM SCT020=
201307191521 TAF AMD KBLI 191521Z 1915/2012 17006KT P6SM BKN005 FM191800 17006KT
                       P6SM SCT008 FM192000 18010KT P6SM SKC FM200700
                       18004KT P6SM SKC=
201307191130 TAF KBLI 191130Z 1912/2012 17006KT P6SM SCT005
                      TEMPO 1912/1916 BKN005 FM191700 18010KT P6SM
                       SKC FM200700 18004KT P6SM SKC=
201307190530 TAF KBLI 190530Z 1906/2006 17008KT P6SM SKC FM191800 20007KT P6SM
                       SKC=
201307182321 TAF KBLI 182321Z 1900/1924 VRB03KT P6SM SKC FM191800 20007KT P6SM
                       SKC=
201307181729 TAF KBLI 181729Z 1818/1918 20006KT P6SM BKN035 FM181900 20006KT
                       P6SM SKC FM190200 VRB03KT P6SM SKC=
201307181715 TAF AMD KBLI 181715Z 1817/1912 19005KT P6SM OVC035 FM181900 18010KT
                       P6SM SKC FM190400 17006KT P6SM SKC=
201307181120 TAF KBLI 181120Z 1812/1912 17005KT P6SM OVC030 FM181800 17008KT
                       P6SM BKN035 FM181900 18010KT P6SM SKC FM190400
                       17006KT P6SM SKC=
201307180520 TAF KBLI 180520Z 1806/1906 17008KT P6SM SKC FM181300 16008KT P6SM
                       SCT015
                      TEMPO 1814/1817 BKN015 FM181900 18010KT P6SM
                       SKC=
201307172321 TAF KBLI 172321Z 1800/1824 17010G19KT P6SM SCT200 FM180300 18009KT
                       P6SM SCT200
                      TEMPO 1814/1817 BKN015=
201307172102 TAF AMD KBLI 172102Z 1721/1818 17011G21KT P6SM SCT080 BKN200 FM180300
                       18009KT P6SM SCT200=
201307171730 TAF KBLI 171730Z 1718/1818 16016G23KT P6SM SCT080 BKN200 FM172100
                       17006KT P6SM FEW250=
201307171341 TAF AMD KBLI 171341Z 1714/1812 15007KT P6SM VCSH SCT120 OVC200
                       FM171600 17015KT P6SM SCT080 SCT120
                      TEMPO 1716/1719 -SHRA BKN080 FM171900 18015KT
                       P6SM SCT023 FM172100 17010KT P6SM SCT250
                       FM180600 16004KT P6SM SKC=
201307171120 TAF KBLI 171120Z 1712/1812 15007KT P6SM VCTS SCT060CB BKN110 OVC200
                       TEMPO 1712/1715 -SHRA BKN060 OVC110 FM171500
                       17015KT P6SM OVC015 FM171800 17015KT P6SM
                       BKN020 FM171900 18015KT P6SM SCT023 FM172100
                       17010KT P6SM SCT250 FM180600 16004KT P6SM
                       SKC=
201307170525 TAF KBLI 170525Z 1706/1806 18005KT P6SM SCT080 BKN130 BKN200 FM171400
                       17015KT P6SM OVC015 FM171800 17015KT P6SM
                       BKN020 FM171900 18015KT P6SM SCT023 FM172100
                       17010KT P6SM SCT250=
201307162334 TAF KBLI 162334Z 1700/1724 26007KT P6SM BKN120 BKN200 FM171800
                       17019KT P6SM BKN250 FM172300 17015KT P6SM
                       SCT250=
201307161736 TAF KBLI 161736Z 1618/1718 01014G19KT P6SM SKC FM162100 32007KT
                       P6SM SCT200 FM170000 04007KT P6SM SCT120
                       BKN200=
201307161130 TAF KBLI 161130Z 1612/1712 00000KT P6SM SKC FM162000 32008KT P6SM
                       SKC FM170300 21003KT P6SM SCT120 BKN250=
201307160520 TAF KBLI 160520Z 1606/1706 00000KT P6SM SKC FM162000 32008KT P6SM
                       SKC FM170300 21003KT P6SM SCT120 BKN250=
201307152321 TAF KBLI 152321Z 1600/1624 30010G18KT P6SM SKC FM160600 36005KT
                       P6SM SKC=
201307151720 TAF KBLI 151720Z 1518/1618 35008KT P6SM SKC FM152100 32011KT P6SM
                       SKC FM160300 VRB05KT P6SM SKC=
201307151120 TAF KBLI 151120Z 1512/1612 00000KT P6SM SKC FM152100 32011KT P6SM
                       SKC FM160300 VRB05KT P6SM SKC=
201307150520 TAF KBLI 150520Z 1506/1606 00000KT P6SM SKC FM151200 36006KT P6SM
                       SKC FM152100 32011KT P6SM SKC FM160300 VRB05KT
                       P6SM SKC=
201307142320 TAF KBLI 142320Z 1500/1524 23010KT P6SM FEW060 SCT120 FM150400
                       20006KT P6SM SCT060 FM151600 35006KT P6SM
                       SKC=
201307141722 TAF KBLI 141722Z 1418/1518 19005KT P6SM SKC FM142100 20007KT P6SM
                       SCT200 FM150400 17003KT P6SM FEW200 FM151600
                       35006KT P6SM SKC=
201307141124 TAF KBLI 141124Z 1412/1512 18004KT P6SM SKC FM142100 20007KT P6SM
                       SCT200 FM150400 17003KT P6SM FEW200=
201307140541 TAF KBLI 140541Z 1406/1506 20004KT P6SM SKC FM142100 20007KT P6SM
                       FEW200 FM150400 17003KT P6SM SCT200=
201307132339 TAF KBLI 132339Z 1400/1424 28006KT P6SM SKC=
201307131731 TAF KBLI 131731Z 1318/1418 20007KT P6SM SKC=
201307131120 TAF KBLI 131120Z 1312/1412 17005KT P6SM SKC FM131400 17008KT P6SM
                       FEW040 FM132000 19008KT P6SM SKC FM140600
                       17004KT P6SM SKC=
201307130536 TAF KBLI 130536Z 1306/1406 17006KT P6SM SKC FM130900 17005KT P6SM
                       FEW040 FM131400 17008KT P6SM FEW040 FM132000
                       19008KT P6SM SKC=
201307122327 TAF KBLI 122327Z 1300/1324 00000KT P6SM SCT200 FM130200 23005KT
                       P6SM SCT250 FM131400 33004KT P6SM SCT250=
201307121725 TAF KBLI 121725Z 1218/1318 18006KT P6SM SKC=
201307121136 TAF KBLI 121136Z 1212/1312 VRB03KT P6SM BKN200 FM121900 17008KT
                       P6SM SKC=
201307120539 TAF KBLI 120539Z 1206/1306 17010KT P6SM SKC FM121500 17008KT P6SM
                       BKN100 FM122300 17008KT P6SM SCT050=
201307112323 TAF KBLI 112323Z 1200/1224 17010KT P6SM FEW050 FM121100 17008KT
                       P6SM BKN040 OVC080=
201307111722 TAF KBLI 111722Z 1118/1218 17010G15KT P6SM BKN045 BKN060 FM112300
                       17008KT P6SM SCT050 BKN100 FM121200 17008KT
                       P6SM BKN040 OVC080=
201307111136 TAF KBLI 111136Z 1112/1212 17012KT P6SM BKN040 FM111700 19010KT
                       P6SM SCT040=
201307110538 TAF KBLI 110538Z 1106/1206 17012KT P6SM SKC FM111300 17010KT P6SM
                       SCT025 FM111900 19010KT P6SM SCT035 SCT060=
201307102329 TAF KBLI 102329Z 1100/1124 17013KT P6SM SKC
                      TEMPO 1100/1102 17010G20KT FM111000 17010KT
                       P6SM SCT020 SCT060
                      TEMPO 1110/1112 BKN020 BKN060 FM111200 17010KT
                       P6SM BKN020 OVC060 FM111500 17013KT P6SM
                       VCSH BKN025 OVC060 FM111900 19010KT P6SM
                       SCT035 SCT060=
201307102259 TAF AMD KBLI 102259Z 1023/1118 18013G22KT P6SM SKC FM111000 17010KT
                       P6SM SCT020 SCT050
                      TEMPO 1110/1112 BKN020 BKN050 FM111200 17010KT
                       P6SM BKN020 OVC050=
201307101742 TAF KBLI 101742Z 1018/1118 18013KT P6SM FEW015 FEW080
                      TEMPO 1018/1020 18013G22KT FM102000 18013KT
                       P6SM SKC FM111000 17010KT P6SM SCT020 SCT050
                       TEMPO 1110/1112 BKN020 BKN050 FM111200 17010KT
                       P6SM BKN020 OVC050=
201307101414 TAF AMD KBLI 101414Z 1014/1112 18010KT P6SM BKN070 FM101800 18010KT
                       P6SM SCT070 SCT250 FM110600 16014KT P6SM
                       SCT040 BKN070=
201307101120 TAF KBLI 101120Z 1012/1112 18009G17KT P6SM SCT012
                      TEMPO 1013/1017 BKN012 FM101800 17011KT P6SM
                       SCT250 FM110600 16014KT P6SM SCT040 BKN070=
201307100525 TAF KBLI 100525Z 1006/1106 17008KT P6SM SKC FM101200 17010KT P6SM
                       OVC012 FM102100 17011KT P6SM SCT250=
201307092334 TAF KBLI 092334Z 1000/1024 VRB03KT P6SM SKC FM101200 17010KT P6SM
                       OVC012 FM102100 17011KT P6SM SCT250=
201307091729 TAF KBLI 091729Z 0918/1018 VRB03KT P6SM SKC FM101200 17010KT P6SM
                       OVC025=
201307091135 TAF KBLI 091135Z 0912/1012 18003KT P6SM SKC FM091800 19008KT P6SM
                       SCT250 FM100600 17011KT P6SM SCT100 OVC250=
201307090535 TAF KBLI 090535Z 0906/1006 18004KT P6SM SKC FM091800 19008KT P6SM
                       SCT250=
201307082327 TAF KBLI 082327Z 0900/0924 17004KT P6SM SKC FM091800 19008KT P6SM
                       SCT250=
201307081850 TAF AMD KBLI 081850Z 0819/0918 19007KT P6SM SKC FM090200 17005KT
                       P6SM SCT250=
201307081739 TAF KBLI 081739Z 0818/0918 17009KT P6SM SCT015
                      TEMPO 0818/0819 BKN015 FM082000 19007KT P6SM
                       SKC FM090200 17005KT P6SM SCT250=
201307081411 TAF AMD KBLI 081411Z 0814/0912 17009KT P6SM FEW004 SCT012
                      TEMPO 0814/0818 FEW004 BKN012 FM081800 18008KT
                       P6SM SCT015 FM082000 18008KT P6SM SKC=
201307081244 TAF AMD KBLI 081244Z 0813/0912 17008KT P6SM BKN012 FM081800 18008KT
                       P6SM SCT015 FM082000 18008KT P6SM SKC=
201307081130 TAF KBLI 081130Z 0812/0912 17006KT P6SM SKC FM081400 17007KT P6SM
                       SCT014
                      TEMPO 0814/0818 BKN014 FM082000 18008KT P6SM
                       SKC=
201307080520 TAF KBLI 080520Z 0806/0906 17005KT P6SM SCT080 FM081400 17007KT
                       P6SM SCT014
                      TEMPO 0814/0818 BKN014 FM082000 20007KT P6SM
                       SCT250=
201307072320 TAF KBLI 072320Z 0800/0824 18007KT P6SM BKN090 FM080300 18005KT
                       P6SM SCT250 FM081200 17007KT P6SM SCT080
                       SCT250 FM082000 20007KT P6SM SCT250=
201307071726 TAF KBLI 071726Z 0718/0818 18005KT P6SM SCT090 FM072000 18007KT
                       P6SM BKN090 FM080300 18005KT P6SM SCT250
                       FM081200 17007KT P6SM SCT080 SCT250=
201307071135 TAF KBLI 071135Z 0712/0812 18005KT P6SM SCT090 FM072000 18007KT
                       P6SM BKN090 FM080300 18005KT P6SM SCT250=
201307070525 TAF KBLI 070525Z 0706/0806 17003KT P6SM SKC FM071200 17004KT P6SM
                       SCT090 FM071400 17008KT P6SM FEW020 SCT090
                       FM071800 19008KT P6SM FEW030 SCT090=
201307062320 TAF KBLI 062320Z 0700/0724 25006KT P6SM SKC FM070300 19004KT P6SM
                       SKC FM071200 17004KT P6SM SCT090 FM071400
                       17008KT P6SM FEW020 SCT090 FM071800 19008KT
                       P6SM FEW030 SCT090=
201307061738 TAF KBLI 061738Z 0618/0718 25006KT P6SM SKC FM070300 19004KT P6SM
                       SKC FM071200 17004KT P6SM SCT090 FM071400
                       17008KT P6SM SCT020 BKN090
                      TEMPO 0714/0718 BKN020 OVC090=
201307061130 TAF KBLI 061130Z 0612/0712 00000KT P6SM SKC
                      TEMPO 0612/0614 2SM BR SKC FM062000 23008KT
                       P6SM SKC=
201307061010 TAF AMD KBLI 061010Z 0610/0706 00000KT 1SM BR SKC
                      TEMPO 0611/0615 P6SM NSW SKC FM061500 36003KT
                       P6SM SKC FM062000 23008KT P6SM SKC=
201307060520 TAF KBLI 060520Z 0606/0706 00000KT P6SM SKC FM061100 VRB03KT P6SM
                       SCT025 FM062000 23008KT P6SM SKC=
201307052343 TAF KBLI 052343Z 0600/0624 18008KT P6SM SKC FM060600 18003KT P6SM
                       SKC FM061100 VRB03KT P6SM SCT025 FM062000
                       23008KT P6SM SKC=
201307051747 TAF KBLI 051747Z 0518/0618 18006KT P6SM SCT015 OVC020 FM052000
                       18008KT P6SM SCT050 FM052300 19008KT P6SM
                       SKC FM060600 18003KT P6SM SKC FM061200 VRB03KT
                       P6SM BKN025
                      TEMPO 0613/0616 BKN010=
201307051529 TAF AMD KBLI 051529Z 0515/0612 18006KT P6SM BKN015 BKN080 FM051700
                       18006KT P6SM SCT025 SCT080 FM051900 18008KT
                       P6SM SCT050 FM052300 19008KT P6SM SKC=
201307051120 TAF KBLI 051120Z 0512/0612 17008KT P6SM SCT080 FM051800 18008KT
                       P6SM SCT050 FM052300 19008KT P6SM SKC=
201307050520 TAF KBLI 050520Z 0506/0606 17008KT P6SM SKC FM051800 18008KT P6SM
                       SCT050 FM052000 19008KT P6SM SCT050=
201307042320 TAF KBLI 042320Z 0500/0524 17008KT P6SM FEW045 FM051000 18008KT
                       P6SM BKN050 FM051400 18008KT P6SM BKN025
                       OVC050 FM052000 19008KT P6SM SCT050=
201307041724 TAF KBLI 041724Z 0418/0518 17010KT P6SM SCT027 SCT060
                      TEMPO 0418/0420 BKN027 BKN060 FM042100 17010KT
                       P6SM FEW050 FM051000 18008KT P6SM BKN050
                       FM051400 18008KT P6SM BKN025 OVC050=
201307041627 TAF AMD KBLI 041627Z 0416/0512 17011G20KT P6SM SCT025 SCT050
                      TEMPO 0416/0419 BKN025 BKN050 FM041900 17010KT
                       P6SM FEW050=
201307041120 TAF KBLI 041120Z 0412/0512 17010KT P6SM SCT050
                      TEMPO 0412/0416 BKN050 FM041800 17010KT P6SM
                       SKC=
201307040523 TAF KBLI 040523Z 0406/0506 17010KT P6SM SKC=
201307032320 TAF KBLI 032320Z 0400/0424 17006KT P6SM SKC=
201307031720 TAF KBLI 031720Z 0318/0418 18007KT P6SM SKC=
201307031120 TAF KBLI 031120Z 0312/0412 17008KT P6SM SKC FM031800 18010KT P6SM
                       SKC=
201307030529 TAF KBLI 030529Z 0306/0406 17008KT P6SM SKC FM031800 18010KT P6SM
                       SKC=
201307022320 TAF KBLI 022320Z 0300/0324 17008KT P6SM SKC FM031300 17007KT P6SM
                       SCT012
                      TEMPO 0313/0317 BKN012 FM031800 18010KT P6SM
                       SKC=
201307021720 TAF KBLI 021720Z 0218/0318 18010KT P6SM SKC FM031300 17007KT P6SM
                       SCT012
                      TEMPO 0313/0317 BKN012=
201307021121 TAF KBLI 021121Z 0212/0312 18005KT P6SM SKC
                      TEMPO 0212/0216 SCT006 FM021900 18007KT P6SM
                       SKC=
201307020521 TAF KBLI 020521Z 0206/0306 18010G18KT P6SM SKC FM021400 17008KT
                       P6SM BKN010 FM021900 18010KT P6SM SCT200=
201307012320 TAF KBLI 012320Z 0200/0224 18010KT P6SM FEW060 FEW150 FM021400
                       17008KT P6SM BKN010 FM021900 18010KT P6SM
                       SCT200=
201307011720 TAF KBLI 011720Z 0118/0218 19006KT P6SM FEW080 FEW200
                      TEMPO 0120/0124 BKN080 FM020400 18008KT P6SM
                       SCT120 FM021400 17008KT P6SM BKN010=
201307011122 TAF KBLI 011122Z 0112/0212 00000KT P6SM SKC FM011800 28004KT P6SM
                       SCT080
                      TEMPO 0120/0124 BKN080 FM020400 18010KT P6SM
                       SCT120=
201307010524 TAF KBLI 010524Z 0106/0206 18003KT P6SM SKC FM011700 28004KT P6SM
                       SCT100 SCT200
                      TEMPO 0120/0124 BKN100 BKN200 FM020400 18010KT
                       P6SM SCT100 SCT200=