##########################################################
# Query made at 02/16/2025 20:47:41 UTC
# Time interval: from 10/01/2014 00:00  to 10/31/2014 23:59  UTC
##########################################################

##########################################################
# KBLI, Bellingham, Bellingham International Airport (United States)
# WMO index: -----. WIGOS ID: Unknown
# Latitude 48-47-58N. Longitude 122-32-21W. Altitude 48 m.
##########################################################

###################################
#  METAR/SPECI from KBLI
###################################
201410312353 METAR KBLI 312353Z 16003KT 10SM SCT055 BKN070 OVC090 12/08 A2982 RMK AO2 RAE2257 SLP106 P0000 60014 T01170078 10117 20106 51007=
201410312253 METAR KBLI 312253Z 15006KT 9SM -RA SCT055 BKN070 OVC085 11/09 A2982 RMK AO2 RAE2154B20 SLP105 P0000 T01110094=
201410312221 SPECI KBLI 312221Z 16005KT 10SM -RA SCT027 BKN060 OVC075 11/09 A2982 RMK AO2 RAE2154B20 P0000=
201410312200 SPECI KBLI 312200Z 17005KT 10SM FEW012 OVC027 11/09 A2981 RMK AO2 RAE2154=
201410312153 METAR KBLI 312153Z 16004KT 4SM -RA BR BKN004 BKN009 OVC014 11/09 A2981 RMK AO2 SLP102 P0003 T01060089=
201410312053 METAR KBLI 312053Z 00000KT 4SM -RA BR BKN004 BKN019 OVC038 11/09 A2980 RMK AO2 SLP099 P0006 60011 T01060089 51018=
201410312027 SPECI KBLI 312027Z 17003KT 4SM -RA BR BKN004 BKN019 OVC047 11/09 A2979 RMK AO2 P0004=
201410311953 METAR KBLI 311953Z 00000KT 4SM -RA BR SCT004 OVC044 11/10 A2979 RMK AO2 SLP095 P0003 T01110100=
201410311934 SPECI KBLI 311934Z VRB03KT 6SM -RA BR SCT004 BKN043 OVC050 11/09 A2979 RMK AO2 P0002=
201410311853 METAR KBLI 311853Z 00000KT 10SM -RA OVC060 11/10 A2977 RMK AO2 SLP087 P0002 T01110100=
201410311753 METAR KBLI 311753Z 06003KT 3SM -RA BR SCT003 BKN044 OVC050 11/09 A2975 RMK AO2 SLP081 P0008 60032 T01060094 10106 20100 53011=
201410311700 SPECI KBLI 311700Z 00000KT 3SM -RA BR SCT003 BKN044 OVC050 11/09 A2975 RMK AO2 P0001=
201410311653 METAR KBLI 311653Z 00000KT 2SM -RA BR BKN003 BKN044 OVC050 11/09 A2975 RMK AO2 SLP080 P0012 T01060094=
201410311553 METAR KBLI 311553Z 29003KT 2SM -RA BR BKN003 OVC055 11/09 A2972 RMK AO2 SLP070 P0003 T01060094=
201410311551 SPECI KBLI 311551Z 29003KT 2SM -RA BR BKN003 OVC055 11/09 A2972 RMK AO2 P0002=
201410311453 METAR KBLI 311453Z 00000KT 1 1/2SM -RA BR BKN003 OVC050 11/09 A2970 RMK AO2 SLP065 P0006 60009 T01060094 55003=
201410311402 SPECI KBLI 311402Z 00000KT 1 1/2SM -RA BR BKN003 BKN034 OVC050 11/09 A2970 RMK AO2 P0001=
201410311355 SPECI KBLI 311355Z 00000KT 4SM -RA BR BKN003 OVC050 11/09 A2970 RMK AO2 P0000=
201410311353 METAR KBLI 311353Z 00000KT 1 1/2SM -RA BR BKN001 BKN026 OVC050 11/09 A2970 RMK AO2 SLP064 P0001 T01060094=
201410311322 SPECI KBLI 311322Z AUTO 00000KT 4SM BR FEW001 OVC050 11/09 A2970 RMK AO2 RAE17 P0000=
201410311253 METAR KBLI 311253Z AUTO 00000KT 5SM -RA BR OVC046 11/09 A2970 RMK AO2 SLP065 P0002 T01060094=
201410311212 SPECI KBLI 311212Z AUTO 00000KT 7SM -RA SCT006 OVC050 11/09 A2971 RMK AO2 P0001=
201410311153 METAR KBLI 311153Z AUTO 00000KT 8SM -RA BKN006 OVC055 11/09 A2971 RMK AO2 SLP068 P0001 60016 70051 T01060094 10117 20100 58014=
201410311145 SPECI KBLI 311145Z AUTO 00000KT 7SM -RA BKN006 BKN055 OVC085 11/09 A2972 RMK AO2 P0001=
201410311137 SPECI KBLI 311137Z AUTO 00000KT 6SM -RA BR SCT006 BKN060 OVC080 10/09 A2972 RMK AO2 P0000=
201410311053 METAR KBLI 311053Z AUTO 00000KT 10SM -RA SCT055 BKN075 OVC090 11/09 A2973 RMK AO2 RAE27B47 SLP074 P0000 T01060089=
201410310953 METAR KBLI 310953Z AUTO 00000KT 10SM -RA SCT055 OVC070 11/09 A2975 RMK AO2 RAE11B40 SLP079 P0001 T01060094=
201410310853 METAR KBLI 310853Z AUTO 00000KT 10SM -RA OVC070 11/09 A2975 RMK AO2 RAB48 SLP082 P0000 60014 T01110094 56007=
201410310753 METAR KBLI 310753Z AUTO 12004KT 10SM BKN050 OVC090 12/09 A2976 RMK AO2 RAE25 SLP083 P0001 T01170094 401670100=
201410310653 METAR KBLI 310653Z AUTO 11005KT 5SM RA BR OVC050 12/10 A2976 RMK AO2 SLP086 P0013 T01170100=
201410310553 METAR KBLI 310553Z AUTO 16004KT 5SM RA BR BKN047 OVC055 12/10 A2977 RMK AO2 SLP089 P0005 60016 T01170100 10167 20117 51016=
201410310453 METAR KBLI 310453Z 16003KT 8SM -RA OVC045 12/10 A2976 RMK AO2 SLP085 P0004 T01220100=
201410310353 METAR KBLI 310353Z 17006KT 10SM -RA OVC043 13/11 A2974 RMK AO2 SLP077 P0003 T01330111=
201410310316 SPECI KBLI 310316Z 17006KT 9SM -RA FEW017 OVC033 13/11 A2973 RMK AO2 P0002=
201410310253 METAR KBLI 310253Z 17011G21KT 9SM -RA BKN017 OVC028 14/12 A2973 RMK AO2 PK WND 14029/0210 RAE05B28 SLP073 P0002 60004 T01390117 53014=
201410310225 SPECI KBLI 310225Z 17017G27KT 10SM BKN024 OVC030 16/12 A2970 RMK AO2 PK WND 14029/0210 RAE05 P0000=
201410310153 METAR KBLI 310153Z 14015G21KT 10SM -RA FEW032 BKN055 OVC080 16/12 A2968 RMK AO2 WSHFT 0110 SLP058 P0002 T01610117=
201410310130 SPECI KBLI 310130Z 14017G25KT 10SM -RA OVC080 17/12 A2967 RMK AO2 WSHFT 0110 P0001=
201410310053 METAR KBLI 310053Z 00000KT 10SM -RA SCT044 BKN050 OVC090 13/11 A2967 RMK AO2 RAE30B53 SLP053 P0000 T01280111=
201410302353 METAR KBLI 302353Z 36003KT 10SM -RA FEW048 OVC090 12/11 A2968 RMK AO2 SLP058 P0002 60016 T01220111 10128 20117 56026 TSNO=
201410302253 METAR KBLI 302253Z 01007KT 10SM -RA SCT045 BKN055 OVC085 12/11 A2971 RMK AO2 SLP066 P0003 T01220106=
201410302153 METAR KBLI 302153Z 35003KT 6SM -RA BR FEW048 SCT060 OVC085 13/11 A2974 RMK AO2 SLP076 P0004 T01280111=
201410302053 METAR KBLI 302053Z 01006KT 10SM -RA FEW048 SCT055 OVC090 12/11 A2976 RMK AO2 SLP085 P0002 60007 T01220106 58021=
201410301953 METAR KBLI 301953Z 36005KT 10SM -RA SCT048 SCT060 OVC080 12/10 A2979 RMK AO2 SLP094 P0003 T01220100=
201410301853 METAR KBLI 301853Z 00000KT 10SM -RA OVC090 12/11 A2980 RMK AO2 SLP099 P0002 T01220106=
201410301753 METAR KBLI 301753Z 00000KT 10SM -RA OVC095 12/09 A2982 RMK AO2 RAB1659 SLP106 P0003 60003 T01170094 10133 20111 56007=
201410301653 METAR KBLI 301653Z 00000KT 10SM BKN080 OVC095 13/07 A2983 RMK AO2 RAE1559B39E49 SLP106 P0000 T01280072=
201410301553 METAR KBLI 301553Z 03006KT 10SM -RA OVC090 12/07 A2983 RMK AO2 RAB27 SLP107 P0000 T01220072=
201410301453 METAR KBLI 301453Z 02008KT 10SM OVC095 12/07 A2985 RMK AO2 SLP114 T01220067 56026=
201410301353 METAR KBLI 301353Z AUTO 03008KT 10SM SCT055 BKN095 BKN120 12/07 A2986 RMK AO2 SLP119 T01170067=
201410301253 METAR KBLI 301253Z AUTO 04008KT 10SM OVC100 12/07 A2989 RMK AO2 SLP129 T01170067=
201410301153 METAR KBLI 301153Z AUTO 02008KT 10SM FEW055 BKN090 OVC110 12/07 A2992 RMK AO2 RAB39E52 SLP140 P0000 60000 70006 T01170067 10117 20094 58022=
201410301053 METAR KBLI 301053Z AUTO 03007KT 10SM FEW060 BKN100 OVC120 12/07 A2995 RMK AO2 SLP148 T01170067=
201410300953 METAR KBLI 300953Z AUTO 02004KT 10SM BKN070 OVC120 11/07 A2997 RMK AO2 SLP156 T01110072=
201410300853 METAR KBLI 300853Z AUTO 02007KT 10SM OVC070 11/08 A2999 RMK AO2 SLP162 T01110078 58017=
201410300753 METAR KBLI 300753Z AUTO 02005KT 10SM BKN055 BKN070 10/08 A3001 RMK AO2 SLP168 T01000078 401610089=
201410300653 METAR KBLI 300653Z AUTO 03007KT 10SM OVC055 11/08 A3003 RMK AO2 SLP176 T01060083=
201410300553 METAR KBLI 300553Z AUTO 36004KT 10SM FEW055 09/08 A3004 RMK AO2 SLP180 T00940078 10150 20089 56011=
201410300453 METAR KBLI 300453Z 04004KT 10SM CLR 09/08 A3004 RMK AO2 SLP181 T00940078=
201410300353 METAR KBLI 300353Z 04004KT 10SM FEW075 10/08 A3006 RMK AO2 SLP186 T01000083=
201410300253 METAR KBLI 300253Z 03004KT 10SM CLR 11/09 A3007 RMK AO2 SLP191 T01110089 58008=
201410300153 METAR KBLI 300153Z 02004KT 10SM FEW034 BKN070 13/11 A3008 RMK AO2 SLP194 T01280106=
201410300053 METAR KBLI 300053Z 04004KT 10SM SCT034 BKN050 OVC075 14/11 A3009 RMK AO2 SLP197 T01390106=
201410292353 METAR KBLI 292353Z 00000KT 10SM BKN080 14/11 A3010 RMK AO2 SLP198 T01440111 10161 20139 58008=
201410292253 METAR KBLI 292253Z 13007KT 10SM FEW036 BKN049 14/10 A3012 RMK AO2 SLP204 T01440100=
201410292153 METAR KBLI 292153Z 14006KT 10SM OVC044 16/10 A3012 RMK AO2 SLP204 T01560100=
201410292053 METAR KBLI 292053Z 16007KT 10SM OVC044 15/09 A3012 RMK AO2 SLP206 T01500094 51014=
201410291953 METAR KBLI 291953Z 16007KT 10SM OVC055 14/11 A3011 RMK AO2 SLP202 T01440106=
201410291853 METAR KBLI 291853Z 15010KT 10SM FEW060 16/11 A3010 RMK AO2 SLP197 T01560106=
201410291753 METAR KBLI 291753Z 18007KT 10SM OVC100 14/11 A3008 RMK AO2 SLP192 60006 T01390106 10139 20128 51025=
201410291653 METAR KBLI 291653Z 16009KT 10SM FEW021 BKN070 OVC085 14/11 A3007 RMK AO2 SLP187 T01390111=
201410291553 METAR KBLI 291553Z 17008KT 10SM SCT021 BKN075 OVC120 13/11 A3004 RMK AO2 SLP179 T01330111=
201410291453 METAR KBLI 291453Z 15008KT 10SM FEW070 OVC110 13/11 A3001 RMK AO2 RAE1357 SLP168 P0000 60006 T01280111 51022=
201410291416 SPECI KBLI 291416Z 16006KT 10SM FEW005 BKN080 OVC100 13/11 A3000 RMK AO2 RAE1357 P0000=
201410291353 METAR KBLI 291353Z AUTO 16010KT 10SM -RA SCT055 BKN075 OVC100 13/11 A2999 RMK AO2 SLP164 P0006 T01280111 TSNO=
201410291253 METAR KBLI 291253Z AUTO 16010KT 10SM -RA FEW019 BKN065 14/11 A2997 RMK AO2 RAE17B45 SLP153 P0000 T01390111 TSNO=
201410291153 METAR KBLI 291153Z AUTO 16009G15KT 10SM -RA FEW017 SCT060 OVC070 14/11 A2994 RMK AO2 RAB45 SLP144 P0000 60007 70009 T01390111 10144 20139 51016 TSNO=
201410291143 SPECI KBLI 291143Z AUTO 16011G17KT 10SM FEW017 BKN055 OVC090 14/11 A2994 RMK AO2 TSNO=
201410291053 METAR KBLI 291053Z AUTO 16009G18KT 10SM OVC021 14/11 A2993 RMK AO2 RAB22E32 SLP141 P0000 T01440106 TSNO=
201410290953 METAR KBLI 290953Z AUTO 16009G18KT 10SM OVC019 14/11 A2992 RMK AO2 RAB27E52 SLP136 P0000 T01440111 TSNO=
201410290853 METAR KBLI 290853Z AUTO 15010KT 10SM SCT017 BKN023 OVC028 14/11 A2989 RMK AO2 RAE0759B30E50 SLP129 P0000 60007 T01390111 51017 TSNO=
201410290753 METAR KBLI 290753Z AUTO 15010KT 10SM -RA BKN015 OVC023 14/11 A2988 RMK AO2 SLP124 P0001 T01390111 401610106 TSNO=
201410290653 METAR KBLI 290653Z AUTO 15010G18KT 10SM -RA BKN017 BKN055 OVC070 14/11 A2987 RMK AO2 RAB08 SLP121 P0006 T01390111 TSNO=
201410290553 METAR KBLI 290553Z AUTO 16011G18KT 10SM OVC019 14/11 A2984 RMK AO2 RAB19E45 SLP111 P0000 60000 T01440106 10161 20144 53013 TSNO=
201410290453 METAR KBLI 290453Z 17010G20KT 10SM OVC019 15/11 A2983 RMK AO2 PK WND 15027/0400 RAE0355 SLP107 P0000 T01500106=
201410290353 METAR KBLI 290353Z 15013G24KT 10SM -RA BKN024 BKN055 OVC070 14/11 A2981 RMK AO2 RAB29 SLP102 P0000 T01440106=
201410290337 SPECI KBLI 290337Z 15009G17KT 10SM -RA BKN024 BKN036 OVC060 14/11 A2981 RMK AO2 RAB29 P0000=
201410290330 SPECI KBLI 290330Z 15012G20KT 10SM -RA SCT026 BKN040 OVC070 14/11 A2981 RMK AO2 RAB29 P0000=
201410290253 METAR KBLI 290253Z 16013G21KT 10SM BKN021 OVC030 14/10 A2980 RMK AO2 RAB12E21 SLP098 P0000 60000 T01440100 51011=
201410290153 METAR KBLI 290153Z 16010G15KT 10SM OVC023 14/11 A2980 RMK AO2 RAE38 SLP096 P0000 T01440106=
201410290053 METAR KBLI 290053Z 14015G21KT 10SM -RA BKN027 OVC033 16/10 A2978 RMK AO2 PK WND 15026/0017 RAB52 SLP092 P0000 T01560100=
201410290001 SPECI KBLI 290001Z 15014G20KT 10SM FEW029 SCT034 BKN110 16/10 A2978 RMK AO2=
201410282353 METAR KBLI 282353Z 14012G19KT 10SM BKN029 BKN036 OVC110 16/11 A2977 RMK AO2 SLP087 60001 T01610106 10161 20133 56010=
201410282253 METAR KBLI 282253Z 15014KT 10SM OVC025 15/10 A2978 RMK AO2 RAB18E29 SLP089 P0000 T01500100=
201410282153 METAR KBLI 282153Z 15012G21KT 10SM OVC025 15/10 A2978 RMK AO2 RAE30 SLP093 P0001 T01500100=
201410282053 METAR KBLI 282053Z 17009G16KT 10SM -RA OVC024 14/10 A2980 RMK AO2 RAB44 SLP098 P0000 60000 T01390100 53007=
201410281953 METAR KBLI 281953Z 16014G23KT 10SM SCT018 BKN028 OVC100 14/09 A2979 RMK AO2 PK WND 15030/1919 SLP096 T01440094=
201410281853 METAR KBLI 281853Z 16018G29KT 10SM SCT018 BKN028 OVC085 15/09 A2978 RMK AO2 PK WND 17030/1809 RAB34E44 SLP091 P0000 T01500089=
201410281753 METAR KBLI 281753Z 16016G25KT 10SM OVC031 15/08 A2978 RMK AO2 RAE1657 SLP090 P0000 60001 T01500083 10150 20106 58001=
201410281653 METAR KBLI 281653Z 16007G17KT 110V180 10SM -RA BKN035 OVC070 14/08 A2979 RMK AO2 RAB28 SLP093 P0000 T01440083=
201410281553 METAR KBLI 281553Z 36006KT 10SM BKN037 OVC080 11/07 A2978 RMK AO2 SLP092 T01060072=
201410281453 METAR KBLI 281453Z 15015G28KT 10SM BKN075 OVC090 14/07 A2978 RMK AO2 PK WND 14029/1430 SLP091 60001 T01440072 56007=
201410281353 METAR KBLI 281353Z AUTO 15020G28KT 10SM FEW035 OVC070 14/07 A2979 RMK AO2 PK WND 14028/1353 SLP093 T01390067=
201410281253 METAR KBLI 281253Z AUTO 13010G21KT 10SM BKN043 OVC080 14/06 A2979 RMK AO2 PK WND 14026/1203 RAE28 SLP094 P0001 T01390061=
201410281153 METAR KBLI 281153Z AUTO 13011G23KT 10SM -RA SCT045 BKN075 OVC085 13/06 A2980 RMK AO2 RAB1059E10B26 SLP098 P0000 60002 70004 T01330056 10139 20094 56028=
201410281053 METAR KBLI 281053Z AUTO 11014G28KT 080V140 10SM SCT047 OVC080 14/05 A2983 RMK AO2 PK WND 12028/1047 SLP108 T01390050=
201410280953 METAR KBLI 280953Z AUTO 05008KT 10SM BKN070 OVC085 12/06 A2985 RMK AO2 RAE52 SLP114 P0001 T01170061=
201410280853 METAR KBLI 280853Z AUTO 11005KT 10SM -RA BKN050 OVC070 12/06 A2988 RMK AO2 RAE04B24 SLP126 P0000 60001 T01170056 56018=
201410280753 METAR KBLI 280753Z AUTO 12012G18KT 10SM -RA SCT055 BKN070 OVC085 12/05 A2989 RMK AO2 SLP129 P0001 T01220050 401280039=
201410280653 METAR KBLI 280653Z AUTO 09006KT 10SM -RA BKN065 OVC080 12/06 A2991 RMK AO2 SLP135 P0000 T01170056=
201410280553 METAR KBLI 280553Z AUTO 11008KT 10SM -RA OVC055 12/06 A2994 RMK AO2 RAB14 SLP145 P0001 60001 T01170056 10117 20094 56012=
201410280453 METAR KBLI 280453Z AUTO 03004KT 10SM FEW060 OVC075 10/06 A2994 RMK AO2 RAE14 SLP148 P0000 T01000061 TSNO=
201410280353 METAR KBLI 280353Z 00000KT 10SM -RA BKN055 OVC070 10/06 A2996 RMK AO2 RAB50 SLP153 P0000 T01000061=
201410280253 METAR KBLI 280253Z 00000KT 10SM OVC055 09/07 A2997 RMK AO2 SLP158 T00940067 56021=
201410280153 METAR KBLI 280153Z 03004KT 10SM BKN110 10/06 A2998 RMK AO2 SLP159 T01000061=
201410280053 METAR KBLI 280053Z 04004KT 10SM FEW049 OVC060 11/07 A3000 RMK AO2 SLP168 T01060067=
201410272353 METAR KBLI 272353Z 05004KT 10SM FEW046 OVC095 11/07 A3004 RMK AO2 SLP179 T01110072 10128 20094 56016=
201410272253 METAR KBLI 272253Z 01005KT 10SM FEW042 BKN080 12/07 A3005 RMK AO2 SLP184 T01170072=
201410272153 METAR KBLI 272153Z 03006KT 10SM BKN110 12/07 A3005 RMK AO2 SLP185 T01220072=
201410272053 METAR KBLI 272053Z 03006KT 10SM BKN100 12/07 A3008 RMK AO2 SLP195 T01220072 58015=
201410271953 METAR KBLI 271953Z 04005KT 10SM FEW034 OVC100 12/07 A3011 RMK AO2 SLP205 T01170072=
201410271853 METAR KBLI 271853Z 02004KT 10SM BKN110 11/07 A3013 RMK AO2 SLP209 T01060072=
201410271753 METAR KBLI 271753Z 03005KT 10SM CLR 09/07 A3013 RMK AO2 SLP209 60001 T00940067 10094 20039 58000=
201410271653 METAR KBLI 271653Z 00000KT 10SM CLR 08/06 A3013 RMK AO2 SLP211 T00780061=
201410271553 METAR KBLI 271553Z 00000KT 10SM CLR 07/05 A3013 RMK AO2 SLP210 T00670050=
201410271453 METAR KBLI 271453Z 00000KT 10SM CLR 05/04 A3013 RMK AO2 SLP210 P0001 60001 T00500039 58004=
201410271411 SPECI KBLI 271411Z 00000KT 8SM FEW002 04/03 A3013 RMK AO2=
201410271353 METAR KBLI 271353Z 00000KT 8SM SCT040 04/03 A3014 RMK AO2 SLP214 T00440033=
201410271349 SPECI KBLI 271349Z 00000KT 5SM BR FEW002 BKN040 04/03 A3014 RMK AO2=
201410271253 METAR KBLI 271253Z AUTO 00000KT 10SM BKN036 04/03 A3014 RMK AO2 SLP214 T00440033=
201410271218 SPECI KBLI 271218Z AUTO 00000KT 10SM BKN036 04/03 A3014 RMK AO2=
201410271211 SPECI KBLI 271211Z AUTO 00000KT 2SM BR BKN036 04/03 A3014 RMK AO2=
201410271202 SPECI KBLI 271202Z AUTO 00000KT 3/4SM R16/5500VP6000FT BR SCT036 04/03 A3014 RMK AO2=
201410271153 METAR KBLI 271153Z AUTO 00000KT 2 1/2SM R16/5000VP6000FT BR SCT036 04/03 A3014 RMK AO2 VIS 1 1/4V5 SLP214 70058 T00440028 10072 20039 51002=
201410271146 SPECI KBLI 271146Z AUTO 00000KT 3SM BR FEW002 BKN036 04/03 A3014 RMK AO2=
201410271127 SPECI KBLI 271127Z AUTO 00000KT 1SM R16/P6000FT BR FEW002 SCT036 04/02 A3014 RMK AO2=
201410271115 SPECI KBLI 271115Z AUTO 00000KT 3/4SM R16/4000VP6000FT BR VV002 04/03 A3014 RMK AO2=
201410271111 SPECI KBLI 271111Z AUTO 00000KT 1 3/4SM R16/5000VP6000FT BR FEW075 05/03 A3014 RMK AO2 VIS 3/4V5=
201410271108 SPECI KBLI 271108Z AUTO 00000KT 3SM BR FEW075 05/03 A3014 RMK AO2=
201410271053 METAR KBLI 271053Z AUTO 00000KT 1 1/4SM BR FEW031 SCT075 05/03 A3014 RMK AO2 SLP213 T00500033=
201410271044 SPECI KBLI 271044Z AUTO 00000KT 3/4SM R16/P6000FT BR FEW031 BKN075 04/03 A3014 RMK AO2=
201410271035 SPECI KBLI 271035Z AUTO 00000KT 2 1/2SM BR FEW002 BKN050 BKN075 05/04 A3014 RMK AO2=
201410271009 SPECI KBLI 271009Z AUTO 00000KT 3SM BR FEW027 SCT050 OVC060 05/04 A3014 RMK AO2=
201410270959 SPECI KBLI 270959Z AUTO 00000KT 1 3/4SM BR FEW027 BKN055 OVC080 05/04 A3015 RMK AO2=
201410270953 METAR KBLI 270953Z AUTO 00000KT 9SM R16/5500VP6000FT FEW027 BKN055 BKN080 06/04 A3015 RMK AO2 SLP216 T00560044=
201410270945 SPECI KBLI 270945Z AUTO 00000KT 3SM BR SCT055 BKN080 06/04 A3014 RMK AO2=
201410270913 SPECI KBLI 270913Z AUTO 00000KT 1 3/4SM BR BKN080 06/04 A3014 RMK AO2=
201410270858 SPECI KBLI 270858Z AUTO 00000KT 3SM BR OVC080 06/04 A3013 RMK AO2=
201410270853 METAR KBLI 270853Z AUTO 00000KT 1 1/4SM BR OVC080 06/04 A3013 RMK AO2 SLP212 T00610044 53008=
201410270846 SPECI KBLI 270846Z AUTO 00000KT 1 3/4SM BR OVC080 06/05 A3013 RMK AO2=
201410270812 SPECI KBLI 270812Z AUTO 00000KT 6SM BR OVC080 06/04 A3013 RMK AO2=
201410270802 SPECI KBLI 270802Z AUTO 00000KT 2SM BR OVC080 06/05 A3012 RMK AO2 VIS 1 1/4V5=
201410270753 METAR KBLI 270753Z AUTO 00000KT 5SM BR OVC075 06/05 A3013 RMK AO2 SLP209 T00610050 401170050=
201410270653 METAR KBLI 270653Z AUTO 15003KT 10SM FEW070 07/05 A3012 RMK AO2 SLP207 T00670050=
201410270600 SPECI KBLI 270600Z AUTO 00000KT 3SM BR CLR 06/03 A3011 RMK AO2=
201410270557 SPECI KBLI 270557Z AUTO 00000KT 1 1/4SM BR FEW002 05/03 A3011 RMK AO2=
201410270553 METAR KBLI 270553Z AUTO 00000KT 3/4SM R16/P6000FT BR VV002 05/04 A3011 RMK AO2 SLP204 T00500039 10106 20050 51014=
201410270549 SPECI KBLI 270549Z AUTO 00000KT 3/4SM R16/P6000FT BR FEW002 06/04 A3011 RMK AO2=
201410270545 SPECI KBLI 270545Z AUTO 00000KT 1 1/2SM BR FEW065 06/04 A3011 RMK AO2=
201410270453 METAR KBLI 270453Z 16003KT 10SM BKN070 07/06 A3010 RMK AO2 SLP200 T00720056=
201410270353 METAR KBLI 270353Z 00000KT 10SM CLR 08/06 A3008 RMK AO2 SLP194 T00780056=
201410270253 METAR KBLI 270253Z 00000KT 10SM CLR 08/06 A3007 RMK AO2 SLP190 T00780061 53011=
201410270153 METAR KBLI 270153Z 15003KT 10SM CLR 08/06 A3006 RMK AO2 SLP186 T00780061=
201410270053 METAR KBLI 270053Z 00000KT 10SM CLR 08/07 A3004 RMK AO2 SLP181 T00830072=
201410262353 METAR KBLI 262353Z 00000KT 10SM FEW013 11/08 A3003 RMK AO2 SLP177 60028 T01060078 10111 20089 53013=
201410262253 METAR KBLI 262253Z VRB03KT 10SM SCT013 11/08 A3001 RMK AO2 SLP170 T01060078=
201410262251 SPECI KBLI 262251Z 00000KT 10SM SCT013 11/07 A3001 RMK AO2=
201410262244 SPECI KBLI 262244Z 22003KT 10SM BKN013 11/07 A3001 RMK AO2=
201410262153 METAR KBLI 262153Z 00000KT 10SM FEW007 BKN050 10/07 A3000 RMK AO2 RAE07 SLP165 P0000 T01000072=
201410262111 SPECI KBLI 262111Z 00000KT 10SM FEW008 BKN060 OVC095 10/07 A2999 RMK AO2 RAE07 P0000=
201410262053 METAR KBLI 262053Z 00000KT 10SM -RA SCT050 BKN060 OVC075 09/08 A2999 RMK AO2 SLP161 P0009 60028 T00940078 51022=
201410262000 SPECI KBLI 262000Z 28003KT 4SM RA BR SCT035 OVC044 09/07 A2998 RMK AO2 P0002=
201410261953 METAR KBLI 261953Z 27004KT 3SM -RA BR SCT009 OVC026 09/07 A2998 RMK AO2 SLP160 P0018 T00890067=
201410261922 SPECI KBLI 261922Z VRB05KT 3SM RA BR SCT009 OVC026 09/07 A2997 RMK AO2 P0011=
201410261915 SPECI KBLI 261915Z 26006KT 2SM +RA BR SCT009 OVC026 09/07 A2997 RMK AO2 P0008=
201410261853 METAR KBLI 261853Z 00000KT 4SM -RA BR FEW009 BKN026 OVC032 10/08 A2995 RMK AO2 RAB10 SLP150 P0001 T01000083=
201410261753 METAR KBLI 261753Z 16010G16KT 10SM SCT022 OVC049 11/08 A2992 RMK AO2 RAE52 SLP139 P0001 60030 T01060078 10111 20100 51020=
201410261653 METAR KBLI 261653Z 16007KT 10SM -RA SCT022 BKN055 OVC070 10/08 A2990 RMK AO2 SLP133 P0005 T01000078=
201410261553 METAR KBLI 261553Z 17005KT 7SM -RA BKN024 BKN040 OVC049 10/08 A2988 RMK AO2 SLP126 P0003 T01000078=
201410261453 METAR KBLI 261453Z 16008KT 5SM -RA BR FEW024 SCT029 OVC036 10/08 A2986 RMK AO2 SLP118 P0007 60021 T01000078 53012=
201410261353 METAR KBLI 261353Z 17007KT 10SM -RA OVC050 11/07 A2984 RMK AO2 SLP111 P0002 T01060072=
201410261306 SPECI KBLI 261306Z AUTO 16010G14KT 8SM -RA FEW019 BKN031 OVC055 11/07 A2983 RMK AO2 P0001=
201410261253 METAR KBLI 261253Z AUTO VRB06KT 6SM -RA FEW020 BKN026 OVC042 11/08 A2982 RMK AO2 SLP106 P0012 T01060078=
201410261248 SPECI KBLI 261248Z AUTO 17007KT 5SM RA FEW019 BKN028 OVC044 11/08 A2982 RMK AO2 P0011=
201410261237 SPECI KBLI 261237Z AUTO 18008G17KT 4SM RA FEW021 SCT030 OVC043 11/08 A2982 RMK AO2 P0009=
201410261227 SPECI KBLI 261227Z AUTO 17009KT 5SM -RA FEW023 BKN028 OVC043 11/07 A2981 RMK AO2 P0005=
201410261153 METAR KBLI 261153Z AUTO 16007KT 10SM -RA SCT035 BKN050 OVC070 11/07 A2980 RMK AO2 RAB03 SLP098 P0001 60001 70047 T01110072 10117 20078 51026=
201410261053 METAR KBLI 261053Z AUTO 18007G18KT 10SM SCT048 BKN060 12/06 A2978 RMK AO2 SLP091 T01170056=
201410260953 METAR KBLI 260953Z AUTO 19006KT 10SM FEW060 12/06 A2976 RMK AO2 SLP086 T01170061=
201410260853 METAR KBLI 260853Z AUTO 18007KT 10SM SCT045 11/07 A2973 RMK AO2 SLP073 60000 T01060072 51065=
201410260753 METAR KBLI 260753Z AUTO 00000KT 10SM SCT020 SCT026 BKN042 09/07 A2969 RMK AO2 SLP060 T00890067 401670089=
201410260653 METAR KBLI 260653Z AUTO 29007KT 10SM FEW012 BKN034 OVC044 10/07 A2963 RMK AO2 RAE0556 PRESRR SLP042 P0000 T01000072=
201410260553 METAR KBLI 260553Z AUTO 18007KT 10SM -RA BKN032 OVC042 11/08 A2953 RMK AO2 PRESRR SLP008 P0007 60037 T01110078 10139 20100 51056=
201410260525 SPECI KBLI 260525Z AUTO VRB05KT 6SM RA BR SCT004 SCT021 OVC030 10/09 A2949 RMK AO2 P0004=
201410260521 SPECI KBLI 260521Z AUTO 18006KT 8SM -RA SCT004 BKN011 OVC032 10/09 A2948 RMK AO2 CIG 009V013 P0002=
201410260453 METAR KBLI 260453Z 25005KT 3SM -RA BR BKN004 BKN013 OVC017 10/08 A2945 RMK AO2 RAB18 SLP981 P0005 T01000083=
201410260353 METAR KBLI 260353Z 27007G17KT 10SM OVC004 11/09 A2937 RMK AO2 WSHFT 0258 RAE36 PRESRR SLP952 P0003 T01060089=
201410260318 SPECI KBLI 260318Z 18009G23KT 6SM -RA BR FEW004 BKN009 OVC023 13/11 A2927 RMK AO2 WSHFT 0258 PRESRR P0002=
201410260253 METAR KBLI 260253Z 29006KT 10SM -RA FEW004 BKN009 OVC023 11/10 A2924 RMK AO2 CIG 007V013 SLP910 P0010 60022 T01110100 55013=
201410260214 SPECI KBLI 260214Z 36007KT 5SM -RA BR FEW012 BKN029 OVC036 11/10 A2922 RMK AO2 P0006=
201410260153 METAR KBLI 260153Z 36004KT 7SM -RA OVC040 12/11 A2923 RMK AO2 SLP906 P0008 T01170106=
201410260053 METAR KBLI 260053Z 02006KT 8SM -RA BKN040 OVC048 12/10 A2924 RMK AO2 SLP909 P0004 T01170100=
201410252353 METAR KBLI 252353Z 02006KT 9SM -RA OVC070 11/09 A2928 RMK AO2 SLP922 P0003 60006 T01110094 10167 20111 56019=
201410252253 METAR KBLI 252253Z 01005KT 10SM -RA OVC070 12/09 A2930 RMK AO2 RAB10 SLP928 P0001 T01170094=
201410252153 METAR KBLI 252153Z 01006KT 10SM BKN070 OVC090 12/09 A2932 RMK AO2 RAB23E47 SLP934 P0000 T01220089=
201410252053 METAR KBLI 252053Z 02009KT 10SM OVC080 12/09 A2934 RMK AO2 RAB1957E35 SLP941 P0002 60002 T01220089 58036=
201410251953 METAR KBLI 251953Z 36008KT 10SM FEW070 OVC085 12/08 A2939 RMK AO2 SLP957 T01220083=
201410251853 METAR KBLI 251853Z 07005G14KT 10SM OVC080 16/09 A2941 RMK AO2 RAE08 SLP967 P0000 T01610089=
201410251753 METAR KBLI 251753Z 13009G17KT 10SM -RA OVC085 14/09 A2944 RMK AO2 RAB14 SLP977 P0001 60003 T01390089 10139 20094 58002=
201410251653 METAR KBLI 251653Z 14008KT 10SM OVC095 12/09 A2947 RMK AO2 RAE47 SLP987 P0001 T01170089=
201410251553 METAR KBLI 251553Z 00000KT 10SM -RA FEW055 BKN070 OVC085 10/08 A2952 RMK AO2 RAB25 SLP004 P0001 T01000078=
201410251453 METAR KBLI 251453Z 00000KT 10SM BKN110 11/06 A2945 RMK AO2 SLP979 T01060061 56035=
201410251353 METAR KBLI 251353Z 01009KT 10SM CLR 10/06 A2948 RMK AO2 SLP988 T01000061=
201410251253 METAR KBLI 251253Z AUTO 02011KT 10SM SCT090 10/07 A2952 RMK AO2 SLP002 T01000067=
201410251153 METAR KBLI 251153Z AUTO 02009G17KT 10SM BKN075 OVC100 10/07 A2955 RMK AO2 RAE07 PRESFR SLP014 P0000 60018 70018 T01000067 10106 20094 58055=
201410251053 METAR KBLI 251053Z AUTO 02008G16KT 10SM -RA BKN070 OVC085 09/07 A2960 RMK AO2 SLP030 P0001 T00940072=
201410250953 METAR KBLI 250953Z AUTO 01009KT 10SM -RA OVC055 09/07 A2967 RMK AO2 SLP053 P0002 T00940072=
201410250853 METAR KBLI 250853Z AUTO 02007KT 9SM -RA OVC055 09/07 A2971 RMK AO2 SLP069 P0006 60015 T00940072 58045=
201410250753 METAR KBLI 250753Z AUTO 03008KT 7SM -RA BKN049 OVC060 10/08 A2976 RMK AO2 SLP086 P0007 T01000078 401330067=
201410250653 METAR KBLI 250653Z AUTO 04005KT 8SM -RA OVC055 10/08 A2981 RMK AO2 SLP101 P0002 T01000083=
201410250553 METAR KBLI 250553Z AUTO 15004KT 10SM -RA OVC070 11/08 A2985 RMK AO2 RAB10 SLP114 P0000 60000 T01060078 10122 20106 56009=
201410250453 METAR KBLI 250453Z 02003KT 10SM OVC100 11/06 A2985 RMK AO2 SLP114 T01060061=
201410250353 METAR KBLI 250353Z 01003KT 10SM CLR 11/06 A2985 RMK AO2 SLP117 T01060061=
201410250253 METAR KBLI 250253Z 36006KT 10SM CLR 11/06 A2987 RMK AO2 SLP124 T01060061 56019=
201410250153 METAR KBLI 250153Z 01008KT 10SM CLR 11/06 A2989 RMK AO2 SLP128 T01110061=
201410250053 METAR KBLI 250053Z 01007KT 10SM CLR 11/06 A2991 RMK AO2 SLP134 T01110061=
201410242353 METAR KBLI 242353Z 02008KT 10SM CLR 12/06 A2993 RMK AO2 SLP142 T01170061 10133 20106 58026=
201410242253 METAR KBLI 242253Z 01010KT 10SM CLR 13/07 A2996 RMK AO2 SLP153 T01280067=
201410242153 METAR KBLI 242153Z 01008KT 10SM CLR 13/07 A2999 RMK AO2 SLP161 T01330067=
201410242053 METAR KBLI 242053Z 02012KT 10SM CLR 13/07 A3001 RMK AO2 SLP168 T01330067 58018=
201410241953 METAR KBLI 241953Z 01007KT 10SM FEW038 13/07 A3003 RMK AO2 SLP176 T01330067=
201410241853 METAR KBLI 241853Z 02008KT 10SM OVC038 12/07 A3004 RMK AO2 SLP181 T01170067=
201410241753 METAR KBLI 241753Z 01005KT 10SM OVC038 11/07 A3006 RMK AO2 SLP186 T01060067 10106 20067 50001=
201410241653 METAR KBLI 241653Z 02003KT 10SM OVC040 10/07 A3006 RMK AO2 SLP187 T01000067=
201410241553 METAR KBLI 241553Z 02004KT 10SM BKN040 08/06 A3006 RMK AO2 SLP186 T00830061=
201410241453 METAR KBLI 241453Z 00000KT 10SM BKN038 OVC045 08/06 A3006 RMK AO2 SLP185 T00830061 53013=
201410241353 METAR KBLI 241353Z 00000KT 10SM CLR 07/06 A3003 RMK AO2 SLP178 T00720056=
201410241253 METAR KBLI 241253Z AUTO 13006KT 10SM OVC095 10/06 A3002 RMK AO2 SLP172 T01000061=
201410241153 METAR KBLI 241153Z AUTO 00000KT 10SM FEW037 BKN065 OVC100 09/07 A3002 RMK AO2 SLP173 70004 T00890067 10106 20078 51006=
201410241053 METAR KBLI 241053Z AUTO 00000KT 10SM OVC035 09/07 A3001 RMK AO2 SLP170 T00940072=
201410240953 METAR KBLI 240953Z AUTO 00000KT 10SM OVC043 09/07 A3001 RMK AO2 SLP170 T00940067=
201410240853 METAR KBLI 240853Z AUTO 00000KT 10SM SCT035 09/07 A3000 RMK AO2 SLP167 T00940067 51010=
201410240753 METAR KBLI 240753Z AUTO 15004KT 10SM SCT031 SCT055 BKN085 11/07 A3000 RMK AO2 SLP166 T01060067 401330094=
201410240653 METAR KBLI 240653Z AUTO 16005KT 10SM SCT050 OVC085 10/07 A2999 RMK AO2 SLP163 T01000067=
201410240553 METAR KBLI 240553Z AUTO 15006KT 10SM SCT080 11/07 A2997 RMK AO2 SLP157 60000 T01060067 10122 20100 51024=
201410240453 METAR KBLI 240453Z 16005KT 10SM FEW065 OVC075 11/07 A2996 RMK AO2 SLP152 T01060067=
201410240353 METAR KBLI 240353Z 16006KT 10SM BKN065 OVC085 11/06 A2993 RMK AO2 SLP143 T01110056=
201410240253 METAR KBLI 240253Z 17005KT 10SM OVC085 12/05 A2990 RMK AO2 SLP133 60000 T01170050 51022=
201410240153 METAR KBLI 240153Z 18005KT 10SM OVC065 11/06 A2988 RMK AO2 SLP126 T01060056=
201410240053 METAR KBLI 240053Z VRB05KT 10SM FEW040 OVC065 12/07 A2986 RMK AO2 RAB43E51 SLP118 P0000 T01170067=
201410232353 METAR KBLI 232353Z 18004KT 10SM FEW055 BKN090 12/08 A2984 RMK AO2 RAB17E35 SLP111 P0001 60001 T01220083 10133 20111 51025=
201410232253 METAR KBLI 232253Z 18005KT 10SM SCT031 BKN065 OVC075 13/09 A2983 RMK AO2 SLP106 T01280094=
201410232153 METAR KBLI 232153Z 18008G15KT 140V210 10SM CLR 13/09 A2979 RMK AO2 SLP095 T01280089=
201410232053 METAR KBLI 232053Z 16013G18KT 10SM FEW016 SCT110 13/09 A2976 RMK AO2 RAE45 SLP085 P0000 60000 T01280094 51007=
201410232051 SPECI KBLI 232051Z 16012G17KT 10SM FEW016 SCT110 13/09 A2976 RMK AO2 RAE45 P0000=
201410231953 METAR KBLI 231953Z 17008KT 6SM -RA FEW017 BKN028 OVC036 11/09 A2976 RMK AO2 RAB04 SLP085 P0000 T01110089=
201410231908 SPECI KBLI 231908Z 17013G22KT 10SM -RA BKN021 BKN029 OVC036 12/08 A2975 RMK AO2 RAB04 P0000=
201410231853 METAR KBLI 231853Z 15015G20KT 10SM SCT021 OVC033 12/08 A2974 RMK AO2 SLP078 T01220083=
201410231753 METAR KBLI 231753Z 15012G19KT 7SM BKN023 BKN038 OVC100 12/08 A2971 RMK AO2 RAE31 SLP069 P0001 60003 T01170083 10128 20111 51013=
201410231729 SPECI KBLI 231729Z 15009G15KT 6SM -RA BKN025 BKN055 OVC070 12/08 A2971 RMK AO2 P0000=
201410231653 METAR KBLI 231653Z 15016G22KT 6SM -RA SCT025 BKN060 OVC070 12/08 A2971 RMK AO2 PK WND 15028/1618 SLP068 P0001 T01170078=
201410231607 SPECI KBLI 231607Z 15017G26KT 8SM -RA BKN019 OVC055 12/08 A2970 RMK AO2 PK WND 16026/1607 P0000=
201410231600 SPECI KBLI 231600Z 15015G26KT 8SM -RA FEW019 OVC055 12/08 A2970 RMK AO2 PK WND 15026/1558 P0000=
201410231553 METAR KBLI 231553Z 16012G22KT 10SM -RA BKN021 BKN065 OVC110 12/08 A2969 RMK AO2 RAE15B40 SLP061 P0001 T01220083=
201410231508 SPECI KBLI 231508Z 15015G25KT 10SM -RA BKN021 BKN065 OVC110 12/08 A2968 RMK AO2 P0000=
201410231453 METAR KBLI 231453Z 15014G24KT 10SM -RA SCT070 BKN090 BKN110 12/09 A2968 RMK AO2 RAE18B45 SLP056 P0000 60000 T01220089 55002=
201410231353 METAR KBLI 231353Z AUTO 15010KT 10SM -RA FEW027 OVC060 12/09 A2968 RMK AO2 RAB34 SLP056 P0000 T01220089=
201410231253 METAR KBLI 231253Z AUTO 14004KT 10SM FEW022 BKN049 OVC095 12/09 A2968 RMK AO2 SLP055 T01170089=
201410231153 METAR KBLI 231153Z AUTO 16006KT 10SM FEW049 OVC110 12/09 A2968 RMK AO2 SLP058 60002 70026 T01220089 10133 20117 50006=
201410231053 METAR KBLI 231053Z AUTO 16006KT 10SM SCT049 12/09 A2969 RMK AO2 SLP060 T01220094=
201410230953 METAR KBLI 230953Z AUTO 16008KT 10SM BKN041 13/08 A2969 RMK AO2 SLP062 T01280083=
201410230853 METAR KBLI 230853Z AUTO 18005KT 10SM BKN038 BKN075 12/09 A2966 RMK AO2 RAE20 SLP052 P0000 60002 T01220089 51025=
201410230753 METAR KBLI 230753Z VRB03KT 10SM -RA BKN040 BKN060 OVC070 12/10 A2965 RMK AO2 RAB35 PRESRR SLP048 P0002 T01220100 401670122=
201410230653 METAR KBLI 230653Z 17008KT 10SM BKN055 OVC070 13/11 A2961 RMK AO2 SLP035 T01280106=
201410230553 METAR KBLI 230553Z 18010G20KT 10SM FEW017 BKN033 OVC060 13/11 A2959 RMK AO2 RAE18 SLP026 P0000 60017 T01330106 10144 20128 53041=
201410230536 SPECI KBLI 230536Z 16011G19KT 10SM FEW022 SCT030 OVC055 13/11 A2958 RMK AO2 RAE18 P0000=
201410230453 METAR KBLI 230453Z 17010G21KT 5SM -RA BKN020 BKN029 OVC037 14/11 A2954 RMK AO2 PK WND 15028/0359 RAE11B29 PRESRR SLP010 P0001 T01390106=
201410230353 METAR KBLI 230353Z 16017G29KT 5SM RA BKN026 OVC030 14/11 A2949 RMK AO2 PK WND 16037/0334 RAB0254 SLP993 P0008 T01390106=
201410230344 SPECI KBLI 230344Z 16021G32KT 5SM RA BKN024 OVC030 14/10 A2950 RMK AO2 PK WND 16037/0334 RAB0254 P0006=
201410230253 METAR KBLI 230253Z 14016G32KT 10SM BKN037 OVC070 14/09 A2947 RMK AO2 PK WND 13032/0244 SLP984 60008 T01440089 58037=
201410230153 METAR KBLI 230153Z 11007G17KT 10SM BKN025 BKN035 OVC046 13/10 A2951 RMK AO2 RAE31 SLP998 P0001 T01330100=
201410230053 METAR KBLI 230053Z 13007KT 6SM -RA BR BKN027 BKN041 OVC055 13/11 A2955 RMK AO2 SLP011 P0007 T01280106=
201410222353 METAR KBLI 222353Z 12008KT 10SM -RA BKN022 BKN035 OVC043 14/10 A2958 RMK AO2 RAB36 SLP022 P0000 60001 T01390100 10150 20133 56025=
201410222253 METAR KBLI 222253Z 12008KT 10SM OVC031 14/10 A2960 RMK AO2 SLP029 T01440100=
201410222153 METAR KBLI 222153Z 14009KT 10SM SCT023 OVC031 14/11 A2962 RMK AO2 SLP037 T01440106=
201410222053 METAR KBLI 222053Z 16004KT 10SM FEW021 OVC031 14/11 A2965 RMK AO2 RAE1959 SLP046 P0000 60001 T01440106 58005=
201410222005 SPECI KBLI 222005Z 16006KT 10SM FEW021 SCT026 OVC036 14/12 A2966 RMK AO2 RAE1959 P0000=
201410221953 METAR KBLI 221953Z 17006KT 9SM -RA FEW017 BKN028 OVC044 14/12 A2968 RMK AO2 RAE01B49 SLP055 P0001 T01390117=
201410221859 SPECI KBLI 221859Z 17007G18KT 10SM -RA FEW006 BKN021 OVC036 14/12 A2967 RMK AO2 P0000=
201410221853 METAR KBLI 221853Z 17010G18KT 9SM -RA FEW014 SCT020 OVC036 14/12 A2967 RMK AO2 RAB1759E14B40 SLP052 P0000 T01390117=
201410221753 METAR KBLI 221753Z 17011KT 8SM SCT016 BKN020 OVC030 14/12 A2967 RMK AO2 RAB24E40 SLP051 P0000 60006 T01390117 10144 20133 50010=
201410221653 METAR KBLI 221653Z 16007G21KT 8SM OVC018 14/11 A2967 RMK AO2 RAB46E52 SLP053 P0000 T01390111=
201410221642 SPECI KBLI 221642Z 15012G18KT 9SM OVC016 14/11 A2967 RMK AO2=
201410221626 SPECI KBLI 221626Z 16013G22KT 10SM OVC014 14/11 A2967 RMK AO2=
201410221553 METAR KBLI 221553Z 16013G20KT 10SM OVC018 14/11 A2966 RMK AO2 PK WND 14027/1509 SLP048 T01440106=
201410221501 SPECI KBLI 221501Z 15014G23KT 10SM BKN020 14/11 A2964 RMK AO2=
201410221453 METAR KBLI 221453Z 15013G28KT 10SM SCT023 14/11 A2964 RMK AO2 PK WND 16028/1447 RAE07 SLP041 P0000 60006 T01440106 52014=
201410221416 SPECI KBLI 221416Z 15016G22KT 10SM SCT021 SCT080 BKN110 14/11 A2961 RMK AO2 RAE07 P0000=
201410221353 METAR KBLI 221353Z AUTO 15017G25KT 9SM -RA BKN023 BKN075 OVC100 13/11 A2961 RMK AO2 RAB1255 SLP032 P0006 T01330106=
201410221323 SPECI KBLI 221323Z AUTO 17011G23KT 7SM -RA BKN025 OVC055 14/11 A2964 RMK AO2 RAB1255 P0003=
201410221253 METAR KBLI 221253Z AUTO 15014G22KT 10SM BKN060 OVC075 14/10 A2962 RMK AO2 PK WND 14032/1218 RAE17 SLP036 P0000 T01440100=
201410221153 METAR KBLI 221153Z AUTO 15016G25KT 10SM -RA FEW034 OVC070 13/10 A2960 RMK AO2 PK WND 12038/1108 SLP027 P0007 60011 70012 T01330100 10167 20133 53007=
201410221053 METAR KBLI 221053Z AUTO 14020G30KT 10SM -RA FEW038 SCT065 OVC080 14/09 A2957 RMK AO2 PK WND 15035/1038 SLP018 P0002 T01390094=
201410220953 METAR KBLI 220953Z AUTO 15016G25KT 10SM -RA FEW018 OVC095 15/08 A2958 RMK AO2 PK WND 15039/0902 RAB21 SLP021 P0002 T01500083=
201410220853 METAR KBLI 220853Z AUTO 14024G35KT 10SM FEW047 OVC100 17/07 A2958 RMK AO2 PK WND 13039/0818 SLP020 60000 T01670067 56033=
201410220753 METAR KBLI 220753Z AUTO 14020G36KT 10SM FEW047 BKN120 16/07 A2960 RMK AO2 PK WND 12036/0751 RAB41E51 SLP029 P0000 T01610067 401720128=
201410220653 METAR KBLI 220653Z AUTO 14016G42KT 10SM FEW046 SCT090 BKN120 16/07 A2964 RMK AO2 PK WND 14043/0634 SLP041 T01610072=
201410220553 METAR KBLI 220553Z AUTO 15024G39KT 10SM FEW043 17/07 A2967 RMK AO2 PK WND 16041/0514 SLP053 T01670072 10167 20156 56021=
201410220453 METAR KBLI 220453Z 14019G36KT 10SM BKN100 17/07 A2968 RMK AO2 PK WND 15039/0410 SLP058 T01670072=
201410220353 METAR KBLI 220353Z 15016G30KT 110V170 10SM SCT110 16/07 A2970 RMK AO2 PK WND 13038/0302 SLP064 T01610072=
201410220253 METAR KBLI 220253Z 13022G32KT 10SM FEW042 SCT095 SCT120 16/08 A2973 RMK AO2 PK WND 14032/0251 SLP075 T01610078 58025=
201410220153 METAR KBLI 220153Z 14019G32KT 10SM FEW055 BKN080 OVC110 16/08 A2977 RMK AO2 PK WND 14032/0150 SLP087 T01610078=
201410220053 METAR KBLI 220053Z 15017G28KT 10SM SCT033 SCT080 16/08 A2979 RMK AO2 PK WND 14028/0044 SLP092 T01560083=
201410212353 METAR KBLI 212353Z 15013G21KT 10SM SCT035 OVC080 16/09 A2981 RMK AO2 PK WND 15029/2327 SLP100 T01610089 10172 20144 58008=
201410212253 METAR KBLI 212253Z 16015G27KT 10SM SCT037 OVC080 16/09 A2982 RMK AO2 PK WND 15027/2247 SLP104 T01610089=
201410212153 METAR KBLI 212153Z 16019G29KT 10SM FEW033 BKN090 17/09 A2982 RMK AO2 PK WND 16032/2111 SLP105 T01670089=
201410212053 METAR KBLI 212053Z 16017G28KT 10SM BKN085 16/09 A2983 RMK AO2 PK WND 17028/2053 SLP108 T01610094 58012=
201410212003 SPECI KBLI 212003Z 16011G21KT 10SM FEW026 SCT033 OVC095 16/09 A2985 RMK AO2=
201410211953 METAR KBLI 211953Z 16012G18KT 10SM BKN027 BKN034 OVC100 16/09 A2985 RMK AO2 SLP115 T01560094=
201410211853 METAR KBLI 211853Z 15008KT 10SM SCT024 15/10 A2987 RMK AO2 SLP120 T01500100=
201410211753 METAR KBLI 211753Z 15010KT 10SM SCT090 14/10 A2987 RMK AO2 SLP120 60001 T01440100 10144 20128 51019=
201410211653 METAR KBLI 211653Z 16011KT 10SM CLR 14/10 A2985 RMK AO2 SLP116 T01390100=
201410211553 METAR KBLI 211553Z 16011G17KT 10SM OVC060 13/10 A2984 RMK AO2 SLP111 T01330100=
201410211453 METAR KBLI 211453Z 17009KT 10SM FEW009 SCT017 OVC060 13/11 A2981 RMK AO2 RAE30 SLP103 P0000 60001 T01280106 50008=
201410211437 SPECI KBLI 211437Z 16008G17KT 10SM FEW017 OVC060 13/11 A2981 RMK AO2 RAE30 P0000=
201410211353 METAR KBLI 211353Z AUTO 15012G19KT 10SM -RA BKN019 OVC070 13/10 A2980 RMK AO2 RAB44 SLP099 P0001 T01330100=
201410211253 METAR KBLI 211253Z AUTO 15010G19KT 10SM OVC017 13/10 A2979 RMK AO2 SLP093 T01330100=
201410211204 SPECI KBLI 211204Z AUTO 15012G19KT 10SM BKN015 BKN040 BKN055 13/10 A2978 RMK AO2=
201410211153 METAR KBLI 211153Z AUTO 16009G16KT 10SM SCT015 BKN040 OVC070 13/11 A2978 RMK AO2 RAE49 SLP090 P0001 60006 70058 T01330106 10144 20133 53006=
201410211144 SPECI KBLI 211144Z AUTO 17008G15KT 10SM -RA SCT015 BKN049 OVC065 13/11 A2978 RMK AO2 P0001=
201410211123 SPECI KBLI 211123Z AUTO 16011G19KT 10SM -RA BKN015 OVC060 13/11 A2977 RMK AO2 P0001=
201410211053 METAR KBLI 211053Z AUTO 15014KT 10SM -RA FEW022 OVC065 13/11 A2977 RMK AO2 RAB13 SLP087 P0000 T01330106=
201410211030 SPECI KBLI 211030Z AUTO 15012G17KT 10SM -RA FEW019 SCT024 OVC065 14/11 A2977 RMK AO2 RAB13 P0000=
201410210953 METAR KBLI 210953Z AUTO 15012G20KT 10SM BKN021 BKN028 OVC048 14/10 A2977 RMK AO2 RAE38 SLP086 P0001 T01390100=
201410210911 SPECI KBLI 210911Z AUTO 15012G21KT 10SM -RA BKN025 BKN055 OVC080 14/10 A2976 RMK AO2 P0001=
201410210853 METAR KBLI 210853Z AUTO 15010KT 10SM -RA FEW027 BKN070 OVC080 13/10 A2976 RMK AO2 SLP084 P0001 60004 T01330100 52003=
201410210753 METAR KBLI 210753Z AUTO 16012G18KT 10SM -RA FEW034 OVC065 14/11 A2976 RMK AO2 RAB28 SLP084 P0003 T01390106 401720133=
201410210715 SPECI KBLI 210715Z AUTO 15010G18KT 10SM FEW023 OVC055 14/11 A2975 RMK AO2=
201410210653 METAR KBLI 210653Z AUTO 16008KT 10SM BKN021 OVC026 14/11 A2975 RMK AO2 SLP081 T01390106=
201410210553 METAR KBLI 210553Z AUTO 15009KT 10SM OVC021 14/11 A2975 RMK AO2 SLP081 60042 T01390106 10161 20133 53007=
201410210537 SPECI KBLI 210537Z AUTO 16007KT 10SM BKN021 BKN070 OVC100 14/11 A2975 RMK AO2=
201410210453 METAR KBLI 210453Z AUTO 16009KT 10SM SCT025 BKN040 OVC090 14/11 A2974 RMK AO2 SLP076 T01390111=
201410210404 SPECI KBLI 210404Z VRB04KT 10SM SCT021 OVC045 14/12 A2973 RMK AO2=
201410210353 METAR KBLI 210353Z 21005KT 10SM BKN021 OVC045 14/12 A2973 RMK AO2 RAE49 SLP073 P0020 T01390117=
201410210339 SPECI KBLI 210339Z 00000KT 5SM -RA BR BKN021 BKN032 OVC060 14/12 A2973 RMK AO2 P0020=
201410210330 SPECI KBLI 210330Z VRB04KT 3SM RA BR SCT021 BKN032 OVC060 14/12 A2973 RMK AO2 P0019=
201410210305 SPECI KBLI 210305Z 18007G22KT 3SM RA BR SCT020 BKN027 OVC036 14/12 A2973 RMK AO2 P0010=
201410210253 METAR KBLI 210253Z 24008KT 1 3/4SM +RA BR FEW016 BKN028 OVC039 14/12 A2973 RMK AO2 SLP074 P0018 60022 T01390117 53003=
201410210245 SPECI KBLI 210245Z 30008KT 5SM RA BR FEW017 BKN027 OVC060 14/12 A2972 RMK AO2 P0006=
201410210200 SPECI KBLI 210200Z 14007KT 8SM -RA FEW049 OVC070 15/12 A2972 RMK AO2 P0000=
201410210153 METAR KBLI 210153Z 14007KT 10SM -RA BKN029 BKN045 OVC070 14/12 A2972 RMK AO2 SLP069 P0003 T01440117=
201410210107 SPECI KBLI 210107Z 17003KT 10SM -RA BKN029 BKN047 OVC100 15/12 A2972 RMK AO2 P0000=
201410210100 SPECI KBLI 210100Z 16004KT 10SM -RA FEW037 BKN047 OVC100 15/11 A2971 RMK AO2 P0000=
201410210053 METAR KBLI 210053Z 17005KT 10SM -RA BKN029 BKN035 OVC049 15/12 A2972 RMK AO2 RAB07E23B50 SLP068 P0001 T01500117=
201410210010 SPECI KBLI 210010Z 15011KT 9SM -RA BKN029 BKN035 OVC049 16/11 A2972 RMK AO2 RAB07 P0001=
201410202353 METAR KBLI 202353Z 17006KT 10SM SCT029 BKN038 OVC048 16/12 A2972 RMK AO2 SLP070 60002 T01610117 10167 20139 51002=
201410202253 METAR KBLI 202253Z 16007KT 10SM FEW035 BKN042 OVC085 16/12 A2972 RMK AO2 RAB13E27 SLP070 P0000 T01610117=
201410202221 SPECI KBLI 202221Z 17007KT 10SM -RA SCT025 BKN060 OVC080 16/12 A2973 RMK AO2 RAB13 P0000=
201410202153 METAR KBLI 202153Z 17004KT 10SM SCT023 BKN028 OVC055 16/11 A2973 RMK AO2 RAB29E48 SLP072 P0000 T01560111=
201410202053 METAR KBLI 202053Z 18005KT 10SM FEW037 SCT070 16/12 A2971 RMK AO2 SLP068 60002 T01560117 58001=
201410201953 METAR KBLI 201953Z 17008KT 10SM SCT031 BKN048 OVC080 16/13 A2972 RMK AO2 RAE1857B25E38 SLP071 P0000 T01560128=
201410201853 METAR KBLI 201853Z 16008KT 10SM -RA FEW009 BKN024 OVC037 14/13 A2973 RMK AO2 SLP073 P0002 T01440128=
201410201840 SPECI KBLI 201840Z 16007KT 10SM -RA SCT008 BKN026 OVC031 14/13 A2973 RMK AO2 P0002=
201410201831 SPECI KBLI 201831Z 17005KT 8SM -RA FEW014 SCT021 OVC027 14/12 A2973 RMK AO2 P0002=
201410201820 SPECI KBLI 201820Z VRB05KT 2 1/2SM R16/6000VP6000FT -RA BR FEW009 BKN027 OVC046 14/12 A2972 RMK AO2 P0002=
201410201753 METAR KBLI 201753Z 17007KT 5SM -RA BR OVC015 14/12 A2972 RMK AO2 RAB1658 SLP069 P0006 60008 T01440122 10161 20144 53020=
201410201721 SPECI KBLI 201721Z 18006G16KT 5SM -RA BR BKN015 OVC021 14/13 A2972 RMK AO2 RAB1658 P0006=
201410201713 SPECI KBLI 201713Z 18010G17KT 5SM R16/4500VP6000FT +RA BR FEW008 BKN014 OVC023 14/13 A2971 RMK AO2 RAB1658 P0005=
201410201710 SPECI KBLI 201710Z 18008KT 160V220 2SM R16/4500VP6000FT -RA BR BKN014 OVC023 14/13 A2971 RMK AO2 RAB1658 P0004=
201410201653 METAR KBLI 201653Z 18007KT 150V220 10SM BKN018 OVC023 15/12 A2970 RMK AO2 SLP062 T01500122=
201410201553 METAR KBLI 201553Z 17007KT 10SM OVC022 16/12 A2968 RMK AO2 SLP054 T01560122=
201410201453 METAR KBLI 201453Z 19003KT 10SM OVC024 16/12 A2966 RMK AO2 SLP049 60002 T01560122 58001=
201410201353 METAR KBLI 201353Z 15009KT 10SM OVC022 16/12 A2966 RMK AO2 RAE22 SLP048 P0001 T01610122=
201410201253 METAR KBLI 201253Z AUTO 17004KT 9SM -RA OVC022 15/13 A2966 RMK AO2 RAB15 SLP051 P0001 T01500128=
201410201153 METAR KBLI 201153Z AUTO 20006KT 10SM BKN028 OVC034 16/13 A2966 RMK AO2 RAE01B23E34 SLP049 P0000 60044 70056 T01560128 10172 20144 53001=
201410201053 METAR KBLI 201053Z AUTO 15009G16KT 10SM -RA BKN034 OVC043 17/12 A2965 RMK AO2 RAE08B24E35B52 SLP046 P0000 T01670122=
201410200953 METAR KBLI 200953Z AUTO 15016G25KT 10SM -RA OVC090 17/12 A2964 RMK AO2 SLP043 P0004 T01670117=
201410200853 METAR KBLI 200853Z AUTO 12007KT 8SM -RA OVC080 16/13 A2966 RMK AO2 SLP048 P0007 60040 T01560133 50005=
201410200753 METAR KBLI 200753Z AUTO 15004KT 4SM RA BR FEW055 OVC075 14/13 A2967 RMK AO2 SLP051 P0023 T01440133 402390117=
201410200653 METAR KBLI 200653Z AUTO 16007KT 4SM RA BR FEW046 BKN055 OVC080 15/13 A2965 RMK AO2 SLP048 P0010 T01500133=
201410200553 METAR KBLI 200553Z AUTO VRB04KT 10SM -RA FEW070 OVC090 16/13 A2965 RMK AO2 SLP044 P0010 60012 T01560133 10222 20156 51010=
201410200453 METAR KBLI 200453Z 15014G22KT 6SM -RA FEW019 BKN070 OVC090 18/14 A2964 RMK AO2 SLP044 P0002 T01780139=
201410200353 METAR KBLI 200353Z 15013G22KT 10SM -RA BKN070 OVC090 21/12 A2963 RMK AO2 RAB53 SLP038 P0000 T02060117=
201410200253 METAR KBLI 200253Z 16011G21KT 10SM SCT075 OVC095 21/11 A2962 RMK AO2 PK WND 14026/0214 SLP034 T02060111 55001=
201410200153 METAR KBLI 200153Z 14018G35KT 10SM CLR 21/11 A2960 RMK AO2 PK WND 15035/0150 SLP030 T02110111=
201410200053 METAR KBLI 200053Z 14018G28KT 10SM CLR 22/11 A2961 RMK AO2 PK WND 15030/0013 SLP031 T02170111=
201410192353 METAR KBLI 192353Z 16010G29KT 10SM CLR 22/11 A2962 RMK AO2 PK WND 14033/2332 SLP035 T02220111 10239 20206 56010=
201410192253 METAR KBLI 192253Z 15025G34KT 10SM BKN110 23/10 A2962 RMK AO2 PK WND 15034/2252 SLP035 T02330100=
201410192153 METAR KBLI 192153Z 15016G25KT 10SM BKN120 23/11 A2964 RMK AO2 PK WND 14038/2106 SLP040 T02330111=
201410192053 METAR KBLI 192053Z 15023G35KT 10SM CLR 23/12 A2965 RMK AO2 PK WND 15035/2050 SLP044 T02280117 58010=
201410191953 METAR KBLI 191953Z 15018G30KT 10SM SCT060 23/12 A2967 RMK AO2 PK WND 15030/1951 SLP053 T02280117=
201410191853 METAR KBLI 191853Z 13012G19KT 10SM OVC060 22/11 A2969 RMK AO2 SLP059 T02170111=
201410191753 METAR KBLI 191753Z 12012G16KT 10SM FEW070 21/11 A2968 RMK AO2 SLP056 T02110106 10211 20117 50001=
201410191653 METAR KBLI 191653Z 00000KT 10SM BKN080 OVC095 16/12 A2969 RMK AO2 SLP059 T01610117=
201410191553 METAR KBLI 191553Z 00000KT 10SM BKN080 OVC095 13/11 A2968 RMK AO2 SLP058 T01330111=
201410191453 METAR KBLI 191453Z 28003KT 10SM SCT075 12/11 A2968 RMK AO2 SLP056 T01220106 58022=
201410191353 METAR KBLI 191353Z 00000KT 10SM SCT090 12/11 A2970 RMK AO2 SLP062 T01220111=
201410191253 METAR KBLI 191253Z AUTO 00000KT 10SM CLR 12/10 A2972 RMK AO2 SLP071 T01170100=
201410191153 METAR KBLI 191153Z AUTO 00000KT 10SM CLR 13/11 A2974 RMK AO2 SLP077 T01280106 10150 20128 58013=
201410191053 METAR KBLI 191053Z AUTO 02004KT 10SM BKN080 14/11 A2976 RMK AO2 SLP083 T01390111=
201410190953 METAR KBLI 190953Z AUTO 00000KT 10SM SCT080 14/11 A2977 RMK AO2 SLP086 T01440111=
201410190853 METAR KBLI 190853Z AUTO 02004KT 10SM BKN065 14/12 A2978 RMK AO2 SLP090 T01440117 56010=
201410190753 METAR KBLI 190753Z AUTO 35006KT 10SM SCT070 14/12 A2979 RMK AO2 SLP094 T01440122 401830133=
201410190653 METAR KBLI 190653Z AUTO 02004KT 10SM FEW070 14/12 A2979 RMK AO2 SLP093 T01390117=
201410190553 METAR KBLI 190553Z AUTO 03005KT 10SM FEW070 14/12 A2981 RMK AO2 SLP101 T01440122 10172 20139 57023=
201410190453 METAR KBLI 190453Z 00000KT 10SM FEW038 BKN075 15/13 A2983 RMK AO2 SLP107 T01500128=
201410190353 METAR KBLI 190353Z 05004KT 10SM BKN036 16/13 A2986 RMK AO2 SLP116 T01560128=
201410190253 METAR KBLI 190253Z 00000KT 10SM FEW038 SCT049 BKN055 14/13 A2988 RMK AO2 SLP123 T01440128 56005=
201410190153 METAR KBLI 190153Z 00000KT 10SM BKN035 16/13 A2988 RMK AO2 SLP126 T01610128=
201410190053 METAR KBLI 190053Z 16005KT 10SM BKN033 17/13 A2989 RMK AO2 SLP126 T01720128=
201410182353 METAR KBLI 182353Z 18005KT 10SM BKN034 OVC041 17/13 A2989 RMK AO2 SLP128 T01720128 10183 20156 58008=
201410182253 METAR KBLI 182253Z 17006KT 10SM FEW030 BKN040 OVC049 17/12 A2990 RMK AO2 SLP131 T01720122=
201410182153 METAR KBLI 182153Z 17003KT 10SM SCT032 BKN043 OVC055 17/12 A2991 RMK AO2 SLP134 T01720122=
201410182053 METAR KBLI 182053Z 16005KT 10SM SCT026 OVC034 17/13 A2992 RMK AO2 SLP137 T01720128 50007=
201410181953 METAR KBLI 181953Z 16008KT 10SM SCT026 BKN032 17/13 A2993 RMK AO2 SLP139 T01720128=
201410181917 SPECI KBLI 181917Z VRB04KT 10SM FEW019 BKN033 OVC060 17/13 A2992 RMK AO2=
201410181853 METAR KBLI 181853Z 18006KT 10SM BKN023 OVC031 16/13 A2991 RMK AO2 SLP135 T01610128=
201410181753 METAR KBLI 181753Z VRB06KT 10SM BKN022 OVC027 16/13 A2990 RMK AO2 SLP129 T01610128 10161 20150 51010=
201410181653 METAR KBLI 181653Z 16006KT 10SM OVC016 16/13 A2989 RMK AO2 SLP129 T01560128=
201410181612 SPECI KBLI 181612Z 16006KT 10SM OVC016 16/13 A2988 RMK AO2=
201410181553 METAR KBLI 181553Z 17005KT 10SM OVC014 16/13 A2988 RMK AO2 SLP124 T01560128=
201410181453 METAR KBLI 181453Z 17007KT 10SM BKN016 OVC021 16/13 A2986 RMK AO2 SLP119 T01560128 50001=
201410181431 SPECI KBLI 181431Z 16005KT 9SM BKN014 OVC019 15/13 A2986 RMK AO2=
201410181353 METAR KBLI 181353Z 16007KT 10SM OVC019 16/13 A2987 RMK AO2 SLP120 T01560128=
201410181253 METAR KBLI 181253Z AUTO 16008KT 10SM OVC018 16/13 A2986 RMK AO2 SLP117 T01560128=
201410181227 SPECI KBLI 181227Z AUTO 16010KT 10SM OVC016 16/12 A2986 RMK AO2=
201410181153 METAR KBLI 181153Z AUTO 16009G15KT 10SM OVC014 15/12 A2986 RMK AO2 SLP117 60001 70015 T01500122 10161 20150 53014=
201410181053 METAR KBLI 181053Z AUTO 16010KT 10SM OVC018 16/12 A2984 RMK AO2 SLP111 T01560122=
201410180953 METAR KBLI 180953Z AUTO 18007KT 10SM OVC018 16/12 A2983 RMK AO2 SLP108 T01560122=
201410180853 METAR KBLI 180853Z AUTO 17008KT 10SM OVC020 16/12 A2982 RMK AO2 SLP104 60001 T01560122 51015=
201410180753 METAR KBLI 180753Z AUTO 16009G21KT 10SM OVC020 16/12 A2981 RMK AO2 SLP099 T01610117 401720106=
201410180653 METAR KBLI 180653Z AUTO 17012G20KT 10SM OVC022 16/12 A2980 RMK AO2 RAE46 SLP098 P0001 T01560117=
201410180553 METAR KBLI 180553Z AUTO 15012G22KT 10SM -RA OVC024 16/12 A2978 RMK AO2 PK WND 15029/0458 RAB0457 SLP089 P0000 60001 T01610117 10167 20161 53012=
201410180453 METAR KBLI 180453Z 16015G26KT 10SM OVC026 17/11 A2975 RMK AO2 PK WND 15031/0356 SLP080 T01670111=
201410180353 METAR KBLI 180353Z 16014G32KT 10SM OVC024 17/11 A2975 RMK AO2 PK WND 15032/0347 SLP081 T01670111=
201410180253 METAR KBLI 180253Z 15018G25KT 10SM OVC026 17/11 A2974 RMK AO2 PK WND 14029/0217 RAB0158E09 SLP077 P0000 60001 T01670111 53020=
201410180153 METAR KBLI 180153Z 15013G25KT 10SM FEW031 BKN070 OVC090 17/11 A2971 RMK AO2 PK WND 13028/0128 SLP067 T01670106=
201410180053 METAR KBLI 180053Z 15011G21KT 10SM BKN075 BKN090 17/10 A2969 RMK AO2 SLP061 P0001 T01670100=
201410172353 METAR KBLI 172353Z 15009G18KT 10SM BKN090 OVC110 16/11 A2968 RMK AO2 RAE53 SLP057 P0000 60007 T01610106 10172 20122 50002=
201410172253 METAR KBLI 172253Z 13011KT 10SM -RA FEW050 OVC090 16/11 A2969 RMK AO2 RAB2156 SLP059 P0002 T01560106=
201410172153 METAR KBLI 172153Z 14008KT 10SM OVC080 17/10 A2968 RMK AO2 RAE26 SLP055 P0000 T01670100=
201410172053 METAR KBLI 172053Z 10004KT 10SM -RA FEW060 OVC090 15/12 A2968 RMK AO2 SLP056 P0002 60005 T01500117 56022=
201410171953 METAR KBLI 171953Z 05004KT 10SM -RA OVC100 13/11 A2970 RMK AO2 SLP063 P0002 T01280106=
201410171853 METAR KBLI 171853Z 02009KT 10SM -RA OVC100 12/09 A2971 RMK AO2 SLP066 P0001 T01220094=
201410171753 METAR KBLI 171753Z 36003KT 10SM -RA OVC095 12/09 A2974 RMK AO2 RAB04 SLP078 P0000 60006 T01220094 10122 20106 58007=
201410171653 METAR KBLI 171653Z 23003KT 10SM BKN065 OVC090 12/10 A2975 RMK AO2 SLP082 T01170100=
201410171553 METAR KBLI 171553Z 00000KT 10SM FEW070 BKN100 OVC110 11/09 A2976 RMK AO2 SLP086 P0001 T01060094=
201410171453 METAR KBLI 171453Z 00000KT 10SM OVC100 11/09 A2976 RMK AO2 RAE53 SLP085 P0001 60005 T01060089 58002=
201410171353 METAR KBLI 171353Z 00000KT 10SM -RA OVC090 11/09 A2977 RMK AO2 SLP088 P0002 T01060089=
201410171253 METAR KBLI 171253Z AUTO 00000KT 10SM -RA OVC080 11/09 A2977 RMK AO2 SLP089 P0002 T01060089=
201410171153 METAR KBLI 171153Z AUTO 00000KT 10SM -RA OVC080 11/08 A2977 RMK AO2 SLP087 P0001 60001 70001 T01110078 10122 20111 56011=
201410171053 METAR KBLI 171053Z AUTO 34004KT 10SM -RA FEW060 OVC090 12/07 A2977 RMK AO2 RAB50 SLP087 P0000 T01170072=
201410170953 METAR KBLI 170953Z AUTO 02005KT 10SM SCT080 BKN110 12/07 A2978 RMK AO2 SLP089 T01220067=
201410170853 METAR KBLI 170853Z AUTO 03005KT 10SM FEW120 12/07 A2980=
201410170853 METAR KBLI 170853Z AUTO 03005KT 10SM FEW120 12/07 A2980 RMK AO2 SLP097 T01220072 56012=
201410170753 METAR KBLI 170753Z AUTO 01006KT 10SM CLR 12/07 A2981 RMK AO2 SLP101 T01170072 401940106=
201410170653 METAR KBLI 170653Z AUTO 03007KT 10SM CLR 12/08 A2982 RMK AO2 SLP104 T01170078=
201410170553 METAR KBLI 170553Z AUTO 03005KT 10SM CLR 11/08 A2984 RMK AO2 SLP110 T01110078 10161 20106 58015=
201410170453 METAR KBLI 170453Z 03005KT 10SM CLR 11/08 A2985 RMK AO2 SLP114 T01060083=
201410170353 METAR KBLI 170353Z 02003KT 10SM CLR 11/08 A2987 RMK AO2 SLP121 T01060083=
201410170253 METAR KBLI 170253Z 02003KT 10SM CLR 12/08 A2988 RMK AO2 SLP125 T01170083 56014=
201410170153 METAR KBLI 170153Z 01007KT 10SM CLR 13/09 A2989 RMK AO2 SLP127 T01280089=
201410170053 METAR KBLI 170053Z 01005KT 10SM CLR 14/09 A2990 RMK AO2 SLP133 T01390089=
201410162353 METAR KBLI 162353Z 02006KT 10SM CLR 16/09 A2992 RMK AO2 SLP138 T01610089 10194 20150 57015=
201410162253 METAR KBLI 162253Z 03007KT 10SM CLR 18/09 A2994 RMK AO2 SLP144 T01780089=
201410162153 METAR KBLI 162153Z 14006KT 10SM BKN110 19/07 A2995 RMK AO2 SLP147 T01940072=
201410162053 METAR KBLI 162053Z 14009G15KT 10SM OVC100 18/07 A2997 RMK AO2 SLP153 T01780067 58014=
201410161953 METAR KBLI 161953Z 13008KT 10SM FEW041 OVC095 17/08 A2999 RMK AO2 SLP162 T01670078=
201410161853 METAR KBLI 161853Z 15006KT 10SM OVC090 16/08 A3001 RMK AO2 SLP167 T01610078=
201410161753 METAR KBLI 161753Z 12007KT 10SM OVC095 15/08 A3001 RMK AO2 SLP168 T01500078 10156 20117 51008=
201410161653 METAR KBLI 161653Z 05004KT 10SM SCT034 SCT065 13/09 A3001 RMK AO2 SLP169 T01330089=
201410161553 METAR KBLI 161553Z 02006KT 10SM OVC034 12/09 A3000 RMK AO2 SLP165 T01220089=
201410161453 METAR KBLI 161453Z 13004KT 10SM OVC034 13/08 A2999 RMK AO2 SLP161 T01330078 51008=
201410161353 METAR KBLI 161353Z AUTO 12006KT 10SM FEW032 BKN090 13/08 A2998 RMK AO2 SLP159 T01280078=
201410161253 METAR KBLI 161253Z AUTO 13008G16KT 10SM BKN034 BKN070 OVC085 13/08 A2997 RMK AO2 SLP157 T01330078=
201410161153 METAR KBLI 161153Z AUTO 13009KT 10SM OVC032 13/08 A2996 RMK AO2 SLP153 70009 T01330083 10133 20122 55002=
201410161053 METAR KBLI 161053Z AUTO 13012G18KT 10SM OVC032 13/08 A2996 RMK AO2 SLP152 T01280083=
201410161001 SPECI KBLI 161001Z AUTO 12013KT 10SM OVC030 13/09 A2997 RMK AO2=
201410160953 METAR KBLI 160953Z AUTO 12012G20KT 10SM OVC028 13/08 A2997 RMK AO2 SLP154 T01280083=
201410160934 SPECI KBLI 160934Z AUTO 13012KT 10SM OVC029 13/08 A2997 RMK AO2=
201410160853 METAR KBLI 160853Z AUTO 13007KT 10SM BKN035 BKN044 OVC060 13/08 A2997 RMK AO2 SLP155 T01330078 51011=
201410160753 METAR KBLI 160753Z AUTO 15007KT 10SM SCT065 BKN080 OVC100 12/08 A2996 RMK AO2 SLP152 T01220083 401390111=
201410160653 METAR KBLI 160653Z AUTO 13005KT 10SM SCT028 BKN110 12/09 A2995 RMK AO2 SLP150 T01220089=
201410160553 METAR KBLI 160553Z AUTO 16007KT 10SM BKN022 OVC034 13/10 A2994 RMK AO2 SLP144 P0001 60001 T01330100 10133 20128 53024=
201410160453 METAR KBLI 160453Z 15010G16KT 10SM BKN040 OVC050 13/11 A2991 RMK AO2 SLP135 T01330106=
201410160353 METAR KBLI 160353Z 17004KT 10SM BKN060 BKN085 13/10 A2988 RMK AO2 SLP124 T01280100=
201410160253 METAR KBLI 160253Z 17005KT 10SM FEW024 OVC070 13/10 A2986 RMK AO2 SLP119 60000 T01330100 51030=
201410160153 METAR KBLI 160153Z 16004KT 10SM SCT026 BKN060 OVC100 13/11 A2984 RMK AO2 RAB0056E13 SLP110 P0000 T01330106=
201410160053 METAR KBLI 160053Z 17008G14KT 10SM FEW020 BKN080 OVC095 13/10 A2980 RMK AO2 SLP099 T01330100=
201410152353 METAR KBLI 152353Z 15012G19KT 10SM FEW032 OVC065 13/11 A2977 RMK AO2 SLP089 60008 T01280106 10139 20128 52028=
201410152253 METAR KBLI 152253Z 17011G19KT 10SM FEW037 BKN048 OVC055 13/11 A2973 RMK AO2 RAE40 SLP075 P0002 T01280106=
201410152250 SPECI KBLI 152250Z 16012G19KT 10SM FEW037 BKN050 OVC060 13/11 A2973 RMK AO2 RAE40 P0002=
201410152153 METAR KBLI 152153Z 17011G18KT 8SM -RA SCT011 BKN016 OVC049 13/11 A2969 RMK AO2 SLP060 P0000 T01280106=
201410152053 METAR KBLI 152053Z 16009G19KT 10SM -RA BKN015 OVC022 13/11 A2965 RMK AO2 RAB06 SLP047 P0002 60006 T01280106 52031=
201410152017 SPECI KBLI 152017Z 16010KT 10SM -RA BKN026 BKN031 OVC040 13/11 A2963 RMK AO2 RAB06 P0000=
201410151953 METAR KBLI 151953Z 16010G18KT 10SM SCT029 BKN039 OVC070 14/11 A2962 RMK AO2 RAE53 SLP037 P0003 T01390111=
201410151853 METAR KBLI 151853Z 15013G20KT 10SM -RA BKN023 OVC029 14/10 A2959 RMK AO2 RAB20 SLP026 P0001 T01390100=
201410151753 METAR KBLI 151753Z 14014G20KT 10SM SCT022 OVC070 13/10 A2956 RMK AO2 SLP016 60000 T01330100 10139 20111 51017=
201410151653 METAR KBLI 151653Z 14010G15KT 10SM OVC022 13/10 A2954 RMK AO2 RAB01E46 SLP011 P0000 T01330100=
201410151630 SPECI KBLI 151630Z 10004KT 10SM -RA BKN027 OVC060 13/10 A2954 RMK AO2 RAB01 P0000=
201410151553 METAR KBLI 151553Z 03004KT 10SM BKN035 OVC055 11/10 A2953 RMK AO2 RAB02E14 SLP006 P0000 T01110100=
201410151453 METAR KBLI 151453Z 36003KT 10SM SCT042 BKN050 OVC065 11/09 A2951 RMK AO2 SLP999 60000 T01110094 53001=
201410151353 METAR KBLI 151353Z AUTO 05003KT 10SM BKN034 OVC042 11/09 A2951 RMK AO2 SLP999 T01110094=
201410151253 METAR KBLI 151253Z AUTO 02005KT 10SM BKN045 OVC060 11/10 A2950 RMK AO2 RAE04 SLP996 P0000 T01110100=
201410151237 SPECI KBLI 151237Z AUTO 02004KT 10SM SCT026 SCT050 OVC060 11/10 A2950 RMK AO2 RAE04 P0000=
201410151224 SPECI KBLI 151224Z AUTO 03005KT 10SM BKN026 OVC065 11/10 A2950 RMK AO2 RAE04 P0000=
201410151153 METAR KBLI 151153Z AUTO 02004KT 10SM -RA SCT035 BKN042 OVC065 11/10 A2951 RMK AO2 SLP998 P0001 60012 70013 T01110100 10117 20111 58001=
201410151111 SPECI KBLI 151111Z AUTO 00000KT 10SM -RA FEW003 SCT025 OVC070 11/10 A2952 RMK AO2 P0000=
201410151053 METAR KBLI 151053Z AUTO 00000KT 7SM -RA SCT005 BKN027 OVC065 11/10 A2951 RMK AO2 SLP001 P0007 T01110100=
201410151046 SPECI KBLI 151046Z AUTO 00000KT 4SM R16/3500VP6000FT -RA BR SCT005 BKN025 OVC036 11/10 A2951 RMK AO2 P0006=
201410151025 SPECI KBLI 151025Z AUTO 00000KT 6SM -RA BR SCT005 BKN037 OVC060 11/09 A2952 RMK AO2 P0003=
201410150953 METAR KBLI 150953Z AUTO 00000KT 6SM -RA BR OVC065 11/09 A2951 RMK AO2 RAB32 SLP000 P0003 T01110094=
201410150853 METAR KBLI 150853Z AUTO 00000KT 10SM OVC065 11/09 A2951 RMK AO2 SLP000 60001 T01110094 56019=
201410150753 METAR KBLI 150753Z AUTO 03003KT 10SM BKN070 OVC090 12/09 A2952 RMK AO2 RAE0658 SLP002 P0000 T01170094 401610106=
201410150653 METAR KBLI 150653Z AUTO 35004KT 10SM -RA BKN070 OVC100 11/09 A2954 RMK AO2 RAB11 SLP010 P0001 T01110094=
201410150553 METAR KBLI 150553Z AUTO 05003KT 10SM FEW055 SCT075 OVC100 11/09 A2957 RMK AO2 RAB40E50 SLP019 P0000 60000 T01110089 10150 20106 56019=
201410150453 METAR KBLI 150453Z 00000KT 10SM BKN075 12/09 A2959 RMK AO2 SLP027 T01170089=
201410150353 METAR KBLI 150353Z 02004KT 10SM SCT065 11/08 A2960 RMK AO2 SLP029 T01110083=
201410150253 METAR KBLI 150253Z 02006KT 10SM CLR 12/08 A2963 RMK AO2 SLP039 T01170083 58024=
201410150153 METAR KBLI 150153Z 01005KT 10SM BKN080 BKN100 13/09 A2965 RMK AO2 SLP048 T01280094=
201410150053 METAR KBLI 150053Z 01004KT 10SM FEW080 13/09 A2967 RMK AO2 SLP055 T01330094=
201410142353 METAR KBLI 142353Z 03009KT 10SM BKN070 15/10 A2970 RMK AO2 SLP063 T01500100 10161 20139 56023=
201410142253 METAR KBLI 142253Z 01006KT 10SM CLR 15/10 A2971 RMK AO2 SLP067 T01500100=
201410142153 METAR KBLI 142153Z 01004KT 10SM OVC033 16/11 A2974 RMK AO2 SLP077 T01560106=
201410142053 METAR KBLI 142053Z VRB03KT 10SM SCT029 BKN038 OVC047 16/11 A2976 RMK AO2 SLP086 T01610111 58018=
201410142000 SPECI KBLI 142000Z 00000KT 10SM FEW026 BKN033 OVC042 16/09 A2979 RMK AO2=
201410141953 METAR KBLI 141953Z 00000KT 10SM BKN025 BKN030 OVC038 16/09 A2979 RMK AO2 SLP093 T01560094=
201410141853 METAR KBLI 141853Z 17004KT 10SM SCT021 BKN028 15/09 A2981 RMK AO2 SLP102 T01500094=
201410141753 METAR KBLI 141753Z 13005KT 10SM SCT021 BKN028 OVC036 14/11 A2982 RMK AO2 SLP104 60001 T01390106 10139 20106 50002=
201410141653 METAR KBLI 141653Z 11004KT 10SM SCT021 BKN028 OVC036 13/10 A2982 RMK AO2 SLP106 T01280100=
201410141600 SPECI KBLI 141600Z 11004KT 10SM FEW020 OVC034 12/09 A2981 RMK AO2=
201410141553 METAR KBLI 141553Z 10004KT 10SM BKN018 OVC031 12/09 A2981 RMK AO2 RAE1459 SLP101 P0000 T01170094=
201410141503 SPECI KBLI 141503Z 00000KT 10SM SCT024 BKN029 OVC037 11/09 A2981 RMK AO2 RAE1459 P0000=
201410141453 METAR KBLI 141453Z 00000KT 8SM -RA SCT026 BKN036 OVC043 11/09 A2981 RMK AO2 RAB44 SLP102 P0000 60001 T01110094 52010=
201410141353 METAR KBLI 141353Z AUTO 00000KT 10SM OVC050 11/09 A2980 RMK AO2 RAB11E27 SLP099 P0001 T01110094=
201410141253 METAR KBLI 141253Z AUTO 14004KT 10SM BKN070 OVC090 11/09 A2979 RMK AO2 RAB16E35 SLP095 P0000 T01110094=
201410141153 METAR KBLI 141153Z AUTO 16003KT 10SM OVC065 12/10 A2978 RMK AO2 RAE37 SLP091 P0000 60023 70100 T01170100 10133 20106 51021=
201410141053 METAR KBLI 141053Z AUTO 15003KT 10SM -RA OVC060 11/09 A2978 RMK AO2 RAB00E09B51 SLP089 P0000 T01110094=
201410140953 METAR KBLI 140953Z AUTO 00000KT 10SM OVC060 11/09 A2977 RMK AO2 RAE41 SLP086 P0000 T01060089=
201410140853 METAR KBLI 140853Z AUTO 11009KT 10SM -RA BKN065 OVC080 11/09 A2972 RMK AO2 SLP070 P0006 60023 T01110089 50007=
201410140753 METAR KBLI 140753Z AUTO 09003KT 7SM -RA OVC055 11/09 A2973 RMK AO2 SLP075 P0010 T01110094 402060106=
201410140653 METAR KBLI 140653Z 15004KT 9SM -RA BKN060 OVC075 12/10 A2971 RMK AO2 SLP067 P0007 T01220100=
201410140553 METAR KBLI 140553Z VRB04KT 6SM -RA BR OVC060 13/11 A2970 RMK AO2 SLP063 P0005 60077 T01330111 10189 20133 53024=
201410140533 SPECI KBLI 140533Z VRB03KT 8SM -RA FEW050 BKN060 OVC070 14/12 A2968 RMK AO2 P0003=
201410140506 SPECI KBLI 140506Z VRB06KT 8SM -RA FEW004 BKN012 OVC024 14/13 A2966 RMK AO2 P0001=
201410140453 METAR KBLI 140453Z 17006KT 4SM RA BR BKN008 BKN012 OVC050 14/13 A2965 RMK AO2 SLP048 P0012 T01390128=
201410140353 METAR KBLI 140353Z 16007KT 4SM RA BR BKN014 BKN024 OVC050 14/13 A2963 RMK AO2 SLP039 P0025 T01440128=
201410140300 SPECI KBLI 140300Z 16010KT 3SM RA BR SCT005 BKN018 OVC022 14/13 A2963 RMK AO2 P0005=
201410140253 METAR KBLI 140253Z 16007KT 3SM RA BR SCT005 BKN010 OVC018 14/13 A2963 RMK AO2 SLP039 P0029 60035 T01440133 58002=
201410140153 METAR KBLI 140153Z 00000KT 4SM RA BR FEW020 SCT027 OVC035 14/12 A2963 RMK AO2 RAB0058 SLP042 P0006 T01440122=
201410140053 METAR KBLI 140053Z 26003KT 10SM OVC041 17/11 A2963 RMK AO2 PK WND 15026/0007 RAB32E51 SLP040 P0000 T01670111=
201410132353 METAR KBLI 132353Z 16015G23KT 10SM FEW055 BKN080 OVC090 19/09 A2960 RMK AO2 PK WND 16027/2301 SLP029 60000 T01890094 10206 20144 56014=
201410132253 METAR KBLI 132253Z 17018G30KT 10SM SCT047 SCT060 OVC085 19/07 A2961 RMK AO2 PK WND 17031/2224 RAB40E49 SLP033 P0000 T01940072=
201410132153 METAR KBLI 132153Z 16024G35KT 10SM CLR 20/04 A2958 RMK AO2 PK WND 15035/2149 SLP023 T02000044=
201410132053 METAR KBLI 132053Z 14011G22KT 10SM CLR 20/04 A2964 RMK AO2 PK WND 14027/2043 SLP043 T02000039 58033=
201410131953 METAR KBLI 131953Z 35003KT 10SM CLR 17/11 A2968 RMK AO2 SLP057 T01670111=
201410131853 METAR KBLI 131853Z 35004KT 10SM CLR 16/10 A2970 RMK AO2 SLP063 T01560100=
201410131753 METAR KBLI 131753Z 00000KT 10SM CLR 14/10 A2974 RMK AO2 SLP077 T01440100 10144 20106 56016=
201410131653 METAR KBLI 131653Z 00000KT 10SM CLR 14/09 A2976 RMK AO2 SLP084 T01390094=
201410131553 METAR KBLI 131553Z 01003KT 10SM CLR 13/09 A2976 RMK AO2 SLP084 T01330094=
201410131453 METAR KBLI 131453Z 03006KT 10SM BKN110 12/08 A2978 RMK AO2 PRESFR SLP092 T01170083 58041=
201410131353 METAR KBLI 131353Z 02004KT 10SM CLR 11/08 A2984 RMK AO2 SLP110 T01060083=
201410131253 METAR KBLI 131253Z AUTO 02004KT 10SM CLR 12/09 A2987 RMK AO2 SLP123 T01170089=
201410131153 METAR KBLI 131153Z AUTO 35004KT 10SM OVC065 12/09 A2991 RMK AO2 SLP134 70004 T01220094 10128 20117 58033=
201410131053 METAR KBLI 131053Z AUTO 01004KT 10SM OVC070 12/10 A2994 RMK AO2 SLP144 T01220100=
201410130953 METAR KBLI 130953Z AUTO 00000KT 10SM OVC070 12/10 A2997 RMK AO2 SLP157 T01170100=
201410130853 METAR KBLI 130853Z AUTO 00000KT 10SM OVC070 12/11 A3000 RMK AO2 SLP167 T01220106 58018=
201410130753 METAR KBLI 130753Z AUTO 04003KT 10SM OVC075 12/11 A3003 RMK AO2 SLP176 T01220106 401500106=
201410130653 METAR KBLI 130653Z AUTO 01003KT 9SM OVC070 13/11 A3004 RMK AO2 SLP180 T01280111=
201410130553 METAR KBLI 130553Z AUTO 02005KT 7SM OVC070 13/11 A3006 RMK AO2 RAE52 SLP185 P0000 60004 T01280111 10144 20128 58019=
201410130453 METAR KBLI 130453Z AUTO 05004KT 8SM -RA OVC080 13/12 A3007 RMK AO2 SLP191 P0002 T01280117=
201410130353 METAR KBLI 130353Z 00000KT 7SM -RA SCT075 OVC090 13/12 A3010 RMK AO2 SLP201 P0001 T01330117=
201410130253 METAR KBLI 130253Z 00000KT 8SM -RA OVC080 13/12 A3011 RMK AO2 SLP203 P0001 60001 T01330117 58015=
201410130153 METAR KBLI 130153Z 00000KT 9SM -RA OVC065 13/12 A3013 RMK AO2 RAB51 SLP210 P0000 T01330117=
201410130053 METAR KBLI 130053Z 00000KT 8SM OVC070 14/12 A3014 RMK AO2 RAE28 SLP214 P0000 T01390122=
201410122353 METAR KBLI 122353Z 00000KT 10SM -RA BKN070 OVC080 14/12 A3016 RMK AO2 SLP219 P0000 60000 T01440117 10150 20139 58014=
201410122253 METAR KBLI 122253Z VRB03KT 10SM -RA OVC075 15/11 A3018 RMK AO2 RAB37 SLP226 P0000 T01500111=
201410122153 METAR KBLI 122153Z 17006KT 10SM OVC090 14/11 A3018 RMK AO2 SLP227 T01440111=
201410122053 METAR KBLI 122053Z 17006KT 10SM FEW022 SCT055 OVC110 15/11 A3020 RMK AO2 SLP233 T01500111 58008=
201410122034 SPECI KBLI 122034Z 16006KT 10SM FEW022 SCT055 OVC110 14/11 A3020 RMK AO2=
201410121953 METAR KBLI 121953Z 17007KT 10SM BKN028 OVC035 14/11 A3022 RMK AO2 SLP239 T01440111=
201410121948 SPECI KBLI 121948Z 17007KT 140V200 10SM BKN028 BKN033 14/11 A3021 RMK AO2=
201410121853 METAR KBLI 121853Z 17008KT 10SM FEW017 OVC060 14/12 A3022 RMK AO2 SLP241 T01440117=
201410121753 METAR KBLI 121753Z 17006KT 10SM SCT017 14/11 A3022 RMK AO2 SLP241 T01390111 10144 20122 55002=
201410121653 METAR KBLI 121653Z 16006KT 10SM CLR 14/11 A3021 RMK AO2 SLP238 T01390111=
201410121553 METAR KBLI 121553Z 16007KT 10SM BKN070 13/11 A3022 RMK AO2 SLP242 T01330111=
201410121453 METAR KBLI 121453Z 17007KT 9SM CLR 13/11 A3023 RMK AO2 SLP242 T01280111 51010=
201410121353 METAR KBLI 121353Z 16006KT 10SM SCT011 13/11 A3022 RMK AO2 SLP239 T01280106=
201410121253 METAR KBLI 121253Z AUTO 17006KT 10SM FEW010 13/11 A3021 RMK AO2 SLP236 T01280106=
201410121153 METAR KBLI 121153Z AUTO 17005KT 10SM FEW060 12/10 A3020 RMK AO2 SLP232 70017 T01220100 10128 20106 50005=
201410121053 METAR KBLI 121053Z AUTO 17004KT 10SM OVC065 12/09 A3020 RMK AO2 SLP233 T01170094=
201410120953 METAR KBLI 120953Z AUTO 17004KT 10SM FEW080 11/09 A3018 RMK AO2 SLP228 T01110094=
201410120853 METAR KBLI 120853Z AUTO 16004KT 10SM FEW085 11/09 A3018 RMK AO2 SLP227 T01110094 51015=
201410120753 METAR KBLI 120753Z AUTO 15003KT 10SM OVC110 13/10 A3018 RMK AO2 SLP225 T01280100 401670111=
201410120653 METAR KBLI 120653Z AUTO 16005KT 10SM CLR 12/09 A3015 RMK AO2 SLP216 T01170094=
201410120553 METAR KBLI 120553Z AUTO 16004KT 10SM CLR 12/09 A3014 RMK AO2 SLP212 T01170089 10156 20117 51017=
201410120453 METAR KBLI 120453Z 17005KT 10SM CLR 13/10 A3012 RMK AO2 SLP208 T01330100=
201410120353 METAR KBLI 120353Z 17004KT 10SM FEW100 13/10 A3011 RMK AO2 SLP202 T01280100=
201410120253 METAR KBLI 120253Z 18006KT 10SM BKN120 13/11 A3009 RMK AO2 SLP195 T01330106 53014=
201410120153 METAR KBLI 120153Z 17008KT 10SM CLR 13/10 A3007 RMK AO2 SLP189 T01330100=
201410120053 METAR KBLI 120053Z 16006KT 10SM CLR 15/11 A3006 RMK AO2 SLP185 T01500106=
201410112353 METAR KBLI 112353Z 18006KT 10SM FEW025 16/12 A3005 RMK AO2 SLP180 60001 T01560117 10167 20144 53006=
201410112253 METAR KBLI 112253Z 16007KT 10SM CLR 16/11 A3004 RMK AO2 SLP177 T01610111=
201410112153 METAR KBLI 112153Z 17009KT 10SM SCT025 16/12 A3003 RMK AO2 SLP174 T01560117=
201410112053 METAR KBLI 112053Z 16009KT 10SM CLR 16/12 A3003 RMK AO2 RAE24 SLP174 P0000 60001 T01560122 51012=
201410111953 METAR KBLI 111953Z 16009KT 10SM -RA FEW017 BKN065 OVC080 14/12 A3001 RMK AO2 RAB44 SLP169 P0001 T01440117=
201410111853 METAR KBLI 111853Z 17007G16KT 10SM BKN095 16/12 A3001 RMK AO2 SLP168 T01560122=
201410111753 METAR KBLI 111753Z 17011G16KT 10SM FEW075 14/12 A2999 RMK AO2 RAE06 SLP162 P0000 60016 T01440122 10150 20133 53007=
201410111653 METAR KBLI 111653Z 17008KT 5SM -RA BR FEW007 BKN045 OVC070 14/12 A2997 RMK AO2 RAB1557 SLP156 P0016 T01390122=
201410111645 SPECI KBLI 111645Z 16011G16KT 2SM RA BR FEW007 BKN034 OVC041 14/12 A2998 RMK AO2 RAB1557 P0016=
201410111642 SPECI KBLI 111642Z 16012G16KT 1 3/4SM +RA BR FEW004 BKN028 OVC039 14/12 A2999 RMK AO2 RAB1557 P0015=
201410111630 SPECI KBLI 111630Z 18009G15KT 2 1/2SM RA BR FEW004 BKN041 OVC055 14/12 A2999 RMK AO2 RAB1557 P0008=
201410111553 METAR KBLI 111553Z 18007KT 10SM FEW022 SCT050 OVC080 14/12 A2997 RMK AO2 SLP156 T01440122=
201410111453 METAR KBLI 111453Z 17010G15KT 10SM SCT018 BKN075 OVC095 14/12 A2997 RMK AO2 SLP154 T01440122 58004=
201410111442 SPECI KBLI 111442Z 16007G16KT 10SM BKN018 OVC095 14/12 A2997 RMK AO2=
201410111353 METAR KBLI 111353Z 17010G15KT 10SM FEW020 OVC095 14/12 A2998 RMK AO2 SLP159 T01440122=
201410111253 METAR KBLI 111253Z AUTO 17009KT 10SM FEW017 14/12 A2998 RMK AO2 SLP158 T01390122=
201410111153 METAR KBLI 111153Z AUTO 18007KT 10SM FEW019 14/12 A2998 RMK AO2 SLP156 60000 70003 T01440122 10161 20144 55002 $=
201410111053 METAR KBLI 111053Z AUTO 17008KT 10SM FEW021 15/12 A2997 RMK AO2 SLP155 T01500122=
201410110953 METAR KBLI 110953Z AUTO 22004KT 10SM FEW024 SCT120 16/12 A2998 RMK AO2 SLP157 T01560122=
201410110920 SPECI KBLI 110920Z AUTO 17008KT 10SM SCT026 BKN033 16/12 A2998 RMK AO2=
201410110853 METAR KBLI 110853Z AUTO 18006KT 10SM BKN028 OVC035 16/12 A2998 RMK AO2 SLP158 60000 T01610122 58000=
201410110753 METAR KBLI 110753Z AUTO 18007G15KT 10SM BKN037 OVC046 16/12 A2998 RMK AO2 SLP159 T01610122 401670089=
201410110653 METAR KBLI 110653Z AUTO 16007KT 10SM BKN040 OVC050 16/12 A2999 RMK AO2 RAE09 SLP160 P0000 T01560122=
201410110553 METAR KBLI 110553Z AUTO 16011KT 9SM -RA OVC040 16/12 A2998 RMK AO2 RAB39 SLP159 P0001 60002 T01560122 10167 20139 55003=
201410110453 METAR KBLI 110453Z AUTO 16010KT 10SM OVC045 16/12 A2997 RMK AO2 SLP156 T01560117=
201410110353 METAR KBLI 110353Z 16004KT 10SM FEW033 OVC046 14/13 A2997 RMK AO2 SLP156 T01440128=
201410110253 METAR KBLI 110253Z 00000KT 10SM FEW043 OVC050 14/12 A2999 RMK AO2 RAB09E23 SLP163 P0000 60001 T01440122 58005=
201410110153 METAR KBLI 110153Z 17004KT 10SM SCT038 OVC060 14/12 A3000 RMK AO2 RAB0058E31 SLP166 P0001 T01440122=
201410110053 METAR KBLI 110053Z 18005KT 10SM SCT038 BKN055 OVC075 14/12 A3002 RMK AO2 SLP171 T01440122=
201410102353 METAR KBLI 102353Z 18007KT 10SM BKN085 OVC110 15/12 A3001 RMK AO2 SLP168 T01500122 10161 20128 56007=
201410102253 METAR KBLI 102253Z 17009KT 10SM OVC095 15/12 A3001 RMK AO2 SLP169 T01500122=
201410102153 METAR KBLI 102153Z 19006KT 10SM FEW018 BKN110 16/12 A3002 RMK AO2 SLP174 T01560117=
201410102053 METAR KBLI 102053Z 17014G19KT 10SM SCT018 15/11 A3003 RMK AO2 SLP176 T01500111 51004=
201410102016 SPECI KBLI 102016Z 16011G17KT 10SM SCT005 OVC018 14/12 A3003 RMK AO2=
201410101953 METAR KBLI 101953Z 17010G17KT 9SM BKN005 OVC014 14/12 A3003 RMK AO2 SLP175 T01390117=
201410101924 SPECI KBLI 101924Z 15013G18KT 10SM BKN005 OVC009 13/12 A3003 RMK AO2=
201410101900 SPECI KBLI 101900Z 17011KT 5SM BR OVC003 13/12 A3002 RMK AO2 CIG 002V007=
201410101853 METAR KBLI 101853Z 17009G16KT 1SM R16/P6000FT BR OVC003 13/11 A3003 RMK AO2 SLP176 T01280111=
201410101753 METAR KBLI 101753Z 17009G15KT 1 1/2SM BR OVC003 13/12 A3002 RMK AO2 SLP171 60001 T01280117 10128 20089 50000=
201410101653 METAR KBLI 101653Z 16008KT 1 1/2SM BR BKN003 12/11 A3002 RMK AO2 SLP173 T01220111=
201410101648 SPECI KBLI 101648Z 18006KT 1 1/2SM BR OVC003 12/12 A3002 RMK AO2=
201410101637 SPECI KBLI 101637Z VRB05KT 1/2SM R16/5500VP6000FT FG BKN003 12/11 A3002 RMK AO2 CIG 002V005=
201410101630 SPECI KBLI 101630Z 17005KT 10SM BKN003 12/11 A3002 RMK AO2=
201410101553 METAR KBLI 101553Z VRB06KT 9SM SCT001 12/11 A3002 RMK AO2 SLP171 T01220111=
201410101549 SPECI KBLI 101549Z 19005KT 2 1/2SM R16/2800VP6000FT BR BKN001 12/11 A3002 RMK AO2=
201410101545 SPECI KBLI 101545Z 17005KT 1/4SM R16/1000VP6000FT FG VV001 12/11 A3002 RMK AO2=
201410101453 METAR KBLI 101453Z 00000KT 1/16SM R16/0700V1000FT FG VV001 12/11 A3002 RMK AO2 SLP172 P0001 60001 T01170106 53005=
201410101353 METAR KBLI 101353Z 00000KT 1/4SM R16/1000FT FG VV001 10/09 A3001 RMK AO2 SLP168 T01000089=
201410101341 SPECI KBLI 101341Z AUTO 15003KT 1/4SM R16/0800V1200FT FG VV001 10/09 A3000 RMK AO2=
201410101321 SPECI KBLI 101321Z AUTO 00000KT 1/2SM R16/1800V3500FT FG VV001 09/08 A3000 RMK AO2=
201410101314 SPECI KBLI 101314Z AUTO 00000KT 1/4SM R16/1400V2000FT FG VV001 09/08 A3001 RMK AO2=
201410101303 SPECI KBLI 101303Z AUTO 00000KT 1/4SM R16/1800V2600FT FG VV001 09/08 A3001 RMK AO2=
201410101253 METAR KBLI 101253Z AUTO 00000KT 1/4SM R16/1800V2200FT FG VV001 09/08 A3001 RMK AO2 SLP168 T00890078=
201410101221 SPECI KBLI 101221Z AUTO 00000KT M1/4SM R16/0800V1400FT FG VV001 09/08 A3000 RMK AO2=
201410101212 SPECI KBLI 101212Z AUTO 00000KT 1/4SM R16/0800VP6000FT FG VV001 09/09 A3000 RMK AO2=
201410101158 SPECI KBLI 101158Z AUTO 00000KT 3/4SM R16/2400VP6000FT BR VV003 09/08 A3000 RMK AO2=
201410101153 METAR KBLI 101153Z AUTO 00000KT 1/4SM R16/2200VP6000FT FG BKN001 OVC005 09/08 A3000 RMK AO2 SLP166 70001 T00890078 10117 20089 56004=
201410101150 SPECI KBLI 101150Z AUTO 00000KT 1/2SM R16/2200V5000FT FG BKN001 OVC005 09/08 A3000 RMK AO2=
201410101138 SPECI KBLI 101138Z AUTO 00000KT 3/4SM R16/2200V4000FT BR VV005 09/08 A3001 RMK AO2 VIS 1/2V1 1/4=
201410101128 SPECI KBLI 101128Z AUTO 00000KT 1/4SM R16/0800V2400FT FG VV002 09/08 A3001 RMK AO2=
201410101126 SPECI KBLI 101126Z AUTO 00000KT 1/4SM R16/0800V1400FT FG VV001 09/08 A3001 RMK AO2=
201410101053 METAR KBLI 101053Z AUTO 00000KT 1/4SM R16/1200V2400FT FG VV001 09/08 A3000 RMK AO2 SLP167 T00890083=
201410101032 SPECI KBLI 101032Z AUTO 00000KT 1/4SM R16/1800V2400FT FG VV001 09/08 A3000 RMK AO2=
201410101010 SPECI KBLI 101010Z AUTO 00000KT 1/4SM R16/1800V2200FT FG VV001 09/08 A3000 RMK AO2=
201410100953 METAR KBLI 100953Z AUTO 00000KT 1/4SM R16/1000V4000FT FG VV001 09/08 A3001 RMK AO2 SLP168 T00890078=
201410100927 SPECI KBLI 100927Z AUTO 00000KT 1/4SM R16/0600V1600FT FG VV001 09/08 A3001 RMK AO2=
201410100904 SPECI KBLI 100904Z AUTO 00000KT 1/4SM R16/2200VP6000FT FG VV002 09/08 A3001 RMK AO2=
201410100857 SPECI KBLI 100857Z AUTO 00000KT 3/4SM R16/2400VP6000FT BR VV003 09/08 A3001 RMK AO2=
201410100853 METAR KBLI 100853Z AUTO 00000KT 4SM R16/2400VP6000FT BR OVC002 10/09 A3001 RMK AO2 SLP170 T01000089 50001=
201410100850 SPECI KBLI 100850Z AUTO 00000KT 2 1/2SM R16/1800VP6000FT BR OVC002 10/09 A3001 RMK AO2=
201410100846 SPECI KBLI 100846Z AUTO 00000KT 3/4SM R16/1800VP6000FT BR VV002 10/09 A3001 RMK AO2=
201410100824 SPECI KBLI 100824Z AUTO 00000KT 1/4SM R16/1200V4000FT FG VV001 10/09 A3001 RMK AO2=
201410100805 SPECI KBLI 100805Z AUTO 00000KT 1/4SM R16/0800V1400FT FG VV001 10/09 A3002 RMK AO2=
201410100756 SPECI KBLI 100756Z AUTO 00000KT 1/2SM R16/0800V3000FT FG VV001 11/09 A3002 RMK AO2=
201410100753 METAR KBLI 100753Z AUTO 00000KT 1 1/2SM R16/0800VP6000FT BR OVC001 11/09 A3002 RMK AO2 SLP171 T01060089 402000100=
201410100735 SPECI KBLI 100735Z AUTO 00000KT 4SM R16/2800VP6000FT BR BKN001 BKN012 10/09 A3002 RMK AO2=
201410100727 SPECI KBLI 100727Z AUTO 00000KT 7SM R16/2800VP6000FT FEW001 SCT012 11/09 A3002 RMK AO2=
201410100722 SPECI KBLI 100722Z AUTO 00000KT 2SM R16/2800VP6000FT BR SCT012 10/08 A3002 RMK AO2=
201410100711 SPECI KBLI 100711Z AUTO 00000KT 1 1/2SM R16/2400VP6000FT BR BKN011 11/09 A3002 RMK AO2=
201410100709 SPECI KBLI 100709Z AUTO 00000KT 3SM R16/2400VP6000FT BR BKN011 11/09 A3002 RMK AO2=
201410100700 SPECI KBLI 100700Z AUTO 00000KT 1SM R16/2400VP6000FT BR VV011 10/09 A3002 RMK AO2=
201410100653 METAR KBLI 100653Z AUTO 00000KT 1/2SM R16/1800VP6000FT FG VV012 10/09 A3001 RMK AO2 VIS 1/4V2 1/2 SLP171 T01000089=
201410100636 SPECI KBLI 100636Z AUTO 00000KT 1/4SM R16/1800VP6000FT FG VV013 11/09 A3001 RMK AO2=
201410100629 SPECI KBLI 100629Z AUTO 00000KT 3/4SM R16/2800VP6000FT BR VV014 11/09 A3001 RMK AO2 VIS 1/4V5=
201410100627 SPECI KBLI 100627Z AUTO 00000KT 1 1/2SM BR FEW014 10/09 A3001 RMK AO2 VIS 1/2V5=
201410100553 METAR KBLI 100553Z AUTO 00000KT 6SM BR CLR 12/09 A3001 RMK AO2 SLP168 T01170094 10189 20111 51002=
201410100453 METAR KBLI 100453Z 00000KT 7SM CLR 11/10 A3001 RMK AO2 SLP170 T01110100=
201410100353 METAR KBLI 100353Z 00000KT 6SM BR CLR 13/11 A3001 RMK AO2 SLP170 T01280111=
201410100253 METAR KBLI 100253Z 00000KT 6SM BR CLR 14/12 A3000 RMK AO2 SLP167 T01390122 55001=
201410100153 METAR KBLI 100153Z 00000KT 7SM CLR 15/12 A3000 RMK AO2 SLP166 T01500122=
201410100053 METAR KBLI 100053Z 00000KT 9SM CLR 18/13 A3000 RMK AO2 SLP166 T01780133=
201410092353 METAR KBLI 092353Z 27003KT 8SM CLR 19/13 A3001 RMK AO2 SLP167 T01890133 10200 20161 57009=
201410092253 METAR KBLI 092253Z 28005KT 8SM CLR 18/13 A3002 RMK AO2 SLP170 T01830133=
201410092153 METAR KBLI 092153Z VRB05KT 10SM CLR 19/13 A3003 RMK AO2 SLP173 T01940133=
201410092053 METAR KBLI 092053Z 00000KT 10SM CLR 19/13 A3004 RMK AO2 SLP177 T01890128 58010=
201410091953 METAR KBLI 091953Z 00000KT 10SM CLR 19/12 A3005 RMK AO2 SLP183 T01890122=
201410091853 METAR KBLI 091853Z 00000KT 10SM CLR 18/11 A3006 RMK AO2 SLP186 T01780111=
201410091753 METAR KBLI 091753Z 32004KT 10SM CLR 17/12 A3007 RMK AO2 SLP188 60001 T01670122 10167 20106 53005=
201410091655 SPECI KBLI 091655Z 00000KT 7SM SCT004 14/13 A3006 RMK AO2=
201410091653 METAR KBLI 091653Z 00000KT 2SM BR BKN004 14/13 A3006 RMK AO2 SLP185 T01440128=
201410091627 SPECI KBLI 091627Z 00000KT 2SM BR OVC004 13/12 A3006 RMK AO2=
201410091553 METAR KBLI 091553Z 00000KT 2SM BR OVC008 12/11 A3005 RMK AO2 SLP184 P0001 T01220111=
201410091533 SPECI KBLI 091533Z 00000KT 2SM BR SCT003 OVC008 12/11 A3006 RMK AO2 P0001=
201410091530 SPECI KBLI 091530Z 00000KT 1 1/4SM BR BKN003 OVC008 12/11 A3005 RMK AO2 P0001=
201410091523 SPECI KBLI 091523Z 00000KT 2SM BR BKN003 OVC008 12/11 A3005 RMK AO2 P0001=
201410091502 SPECI KBLI 091502Z 00000KT 1/2SM R16/3000VP6000FT FG BKN002 OVC008 12/11 A3005 RMK AO2=
201410091457 SPECI KBLI 091457Z 00000KT 1 3/4SM R16/6000VP6000FT BR BKN002 OVC008 12/11 A3005 RMK AO2=
201410091453 METAR KBLI 091453Z 00000KT 4SM BR SCT005 OVC008 12/11 A3005 RMK AO2 SLP183 T01170106 53003=
201410091443 SPECI KBLI 091443Z 00000KT 4SM BR FEW005 OVC008 12/11 A3005 RMK AO2=
201410091353 METAR KBLI 091353Z 00000KT 5SM BR OVC011 12/11 A3004 RMK AO2 SLP180 T01170106=
201410091344 SPECI KBLI 091344Z 00000KT 6SM BR OVC011 12/11 A3004 RMK AO2=
201410091336 SPECI KBLI 091336Z 00000KT 2SM BR FEW004 OVC011 11/11 A3004 RMK AO2=
201410091326 SPECI KBLI 091326Z AUTO 00000KT 3/4SM R16/3000VP6000FT BR SCT002 OVC011 11/10 A3004 RMK AO2=
201410091253 METAR KBLI 091253Z AUTO 00000KT 1/4SM R16/1600V2400FT FG VV002 11/10 A3004 RMK AO2 SLP179 T01110100=
201410091248 SPECI KBLI 091248Z AUTO 00000KT 1/4SM R16/1600V2200FT FG VV001 11/10 A3004 RMK AO2=
201410091230 SPECI KBLI 091230Z AUTO 00000KT 1/4SM R16/1200V1400FT FG BKN004 OVC008 11/10 A3003 RMK AO2=
201410091223 SPECI KBLI 091223Z AUTO 00000KT 1/4SM R16/1200V1400FT FG VV006 12/10 A3004 RMK AO2=
201410091216 SPECI KBLI 091216Z AUTO 00000KT 1/4SM R16/1400V2400FT FG OVC008 11/10 A3003 RMK AO2=
201410091203 SPECI KBLI 091203Z AUTO 00000KT 3/4SM R16/2200V3500FT BR OVC006 12/11 A3004 RMK AO2=
201410091153 METAR KBLI 091153Z AUTO 00000KT 1/2SM R16/2600VP6000FT FG FEW001 OVC006 12/11 A3003 RMK AO2 SLP175 T01220111 10133 20106 56004=
201410091145 SPECI KBLI 091145Z AUTO 00000KT 1/2SM R16/2000V2800FT FG VV005 12/12 A3003 RMK AO2=
201410091128 SPECI KBLI 091128Z AUTO 00000KT 1/2SM R16/1800V2400FT FG VV002 12/12 A3003 RMK AO2=
201410091101 SPECI KBLI 091101Z AUTO 00000KT 1/4SM R16/1000V1400FT FG VV001 12/12 A3003 RMK AO2=
201410091053 METAR KBLI 091053Z AUTO 00000KT 1/4SM R16/1200FT FG VV002 12/11 A3003 RMK AO2 SLP175 T01220111=
201410091048 SPECI KBLI 091048Z AUTO 00000KT 1/4SM R16/1200V2200FT FG VV002 12/12 A3003 RMK AO2=
201410091040 SPECI KBLI 091040Z AUTO 00000KT 3/4SM R16/1800VP6000FT BR BKN003 OVC011 12/11 A3003 RMK AO2=
201410091028 SPECI KBLI 091028Z AUTO 00000KT 1SM R16/4000VP6000FT BR SCT003 OVC009 12/11 A3004 RMK AO2=
201410091019 SPECI KBLI 091019Z AUTO 00000KT 3/4SM R16/4000VP6000FT BR SCT003 OVC009 12/12 A3004 RMK AO2=
201410091007 SPECI KBLI 091007Z AUTO 00000KT 3/4SM R16/4000V6000FT BR BKN003 OVC011 12/11 A3004 RMK AO2=
201410090953 METAR KBLI 090953Z AUTO 00000KT 1 3/4SM R16/4500VP6000FT BR SCT005 OVC011 12/11 A3004 RMK AO2 VIS 3/4V3 SLP179 T01220111=
201410090950 SPECI KBLI 090950Z AUTO 00000KT 1SM R16/3500VP6000FT BR FEW005 OVC011 12/11 A3004 RMK AO2 VIS 1/2V3=
201410090943 SPECI KBLI 090943Z AUTO 00000KT 3/4SM R16/2800VP6000FT BR OVC011 12/11 A3004 RMK AO2=
201410090932 SPECI KBLI 090932Z AUTO 00000KT 2SM R16/2000V6000FT BR FEW005 OVC011 12/12 A3004 RMK AO2=
201410090927 SPECI KBLI 090927Z AUTO 00000KT 3/4SM R16/2000V4000FT BR FEW005 OVC011 13/11 A3005 RMK AO2=
201410090917 SPECI KBLI 090917Z AUTO 00000KT 1 3/4SM R16/2400VP6000FT BR SCT005 OVC011 12/11 A3005 RMK AO2=
201410090907 SPECI KBLI 090907Z AUTO 00000KT 6SM BR FEW005 BKN013 OVC017 13/12 A3005 RMK AO2=
201410090853 METAR KBLI 090853Z AUTO 00000KT 5SM BR FEW005 OVC017 12/11 A3005 RMK AO2 SLP181 T01220111 51006=
201410090828 SPECI KBLI 090828Z AUTO 00000KT 5SM BR SCT002 OVC015 13/12 A3004 RMK AO2=
201410090819 SPECI KBLI 090819Z AUTO 00000KT 3SM BR BKN002 OVC015 13/12 A3004 RMK AO2=
201410090804 SPECI KBLI 090804Z AUTO 00000KT 1 3/4SM R16/4500VP6000FT BR OVC002 13/12 A3004 RMK AO2=
201410090801 SPECI KBLI 090801Z AUTO 00000KT 3SM R16/4500VP6000FT BR OVC002 13/12 A3004 RMK AO2=
201410090753 METAR KBLI 090753Z AUTO 00000KT 2SM R16/2000V5500FT BR OVC002 13/12 A3004 RMK AO2 SLP179 T01280117 401780106=
201410090747 SPECI KBLI 090747Z AUTO 00000KT 3/4SM R16/2000V2400FT BR VV002 13/12 A3004 RMK AO2 401780106=
201410090730 SPECI KBLI 090730Z AUTO 00000KT 1/2SM R16/2200V4500FT FG VV002 13/12 A3004 RMK AO2=
201410090724 SPECI KBLI 090724Z AUTO 00000KT 1 1/2SM R16/3000VP6000FT BR OVC003 13/12 A3004 RMK AO2=
201410090709 SPECI KBLI 090709Z AUTO 00000KT 9SM OVC003 12/11 A3004 RMK AO2=
201410090700 SPECI KBLI 090700Z AUTO 00000KT 2 1/2SM BR OVC003 12/10 A3004 RMK AO2=
201410090653 METAR KBLI 090653Z AUTO 00000KT 2 1/2SM BR OVC005 11/10 A3004 RMK AO2 SLP180 T01110100=
201410090641 SPECI KBLI 090641Z AUTO 00000KT 5SM R16/1800VP6000FT BR BKN005 OVC012 11/09 A3004 RMK AO2=
201410090632 SPECI KBLI 090632Z AUTO 00000KT 5SM R16/1800V3500FT BR SCT005 OVC010 11/09 A3004 RMK AO2=
201410090619 SPECI KBLI 090619Z AUTO 00000KT 3SM R16/1000V5000FT BR OVC010 11/09 A3003 RMK AO2=
201410090611 SPECI KBLI 090611Z AUTO 00000KT 1SM R16/2200VP6000FT BR VV010 11/10 A3003 RMK AO2 VIS 1/2V3=
201410090559 SPECI KBLI 090559Z AUTO 00000KT 1/2SM R16/2800VP6000FT FG VV011 11/09 A3003 RMK AO2=
201410090555 SPECI KBLI 090555Z AUTO 00000KT 1SM R16/6000VP6000FT BR VV011 11/09 A3003 RMK AO2=
201410090553 METAR KBLI 090553Z AUTO 00000KT 2 1/2SM R16/6000VP6000FT BR FEW011 11/09 A3003 RMK AO2 SLP175 T01060094 10178 20106 51005=
201410090538 SPECI KBLI 090538Z AUTO 00000KT 3SM BR CLR 12/10 A3002 RMK AO2=
201410090518 SPECI KBLI 090518Z AUTO 00000KT 1 3/4SM BR CLR 12/10 A3002 RMK AO2=
201410090453 METAR KBLI 090453Z 00000KT 4SM BR CLR 11/10 A3002 RMK AO2 SLP174 T01110100=
201410090450 SPECI KBLI 090450Z 00000KT 1 3/4SM BR CLR 11/10 A3002 RMK AO2 VIS 1V3=
201410090353 METAR KBLI 090353Z 00000KT 4SM R16/5000VP6000FT BR CLR 12/11 A3002 RMK AO2 SLP173 T01220111=
201410090328 SPECI KBLI 090328Z 00000KT 4SM R16/3500VP6000FT BR FEW011 12/11 A3001 RMK AO2=
201410090321 SPECI KBLI 090321Z 00000KT 1 1/2SM BR CLR 12/11 A3002 RMK AO2 VIS 1/4V5=
201410090253 METAR KBLI 090253Z 00000KT 9SM R16/2600VP6000FT FEW012 13/12 A3001 RMK AO2 SLP170 T01330117 55002=
201410090219 SPECI KBLI 090219Z 00000KT 9SM CLR 13/12 A3001 RMK AO2=
201410090212 SPECI KBLI 090212Z 00000KT 1 3/4SM CLR 14/12 A3001 RMK AO2=
201410090153 METAR KBLI 090153Z 00000KT 9SM CLR 15/13 A3001 RMK AO2 SLP168 T01500128=
201410090053 METAR KBLI 090053Z 00000KT 10SM FEW025 17/13 A3001 RMK AO2 SLP167 T01670133=
201410082353 METAR KBLI 082353Z 00000KT 10SM FEW025 17/14 A3002 RMK AO2 SLP171 T01720139 10172 20144 58002=
201410082323 SPECI KBLI 082323Z 00000KT 10SM SCT016 17/14 A3002 RMK AO2=
201410082253 METAR KBLI 082253Z 00000KT 10SM OVC016 16/14 A3003 RMK AO2 SLP174 T01610139=
201410082153 METAR KBLI 082153Z 29003KT 10SM OVC018 16/13 A3002 RMK AO2 SLP172 T01610133=
201410082125 SPECI KBLI 082125Z 00000KT 10SM SCT005 OVC018 16/13 A3002 RMK AO2=
201410082053 METAR KBLI 082053Z 00000KT 4SM BR BKN005 OVC018 16/13 A3002 RMK AO2 SLP173 T01560133 50001=
201410081953 METAR KBLI 081953Z 00000KT 4SM HZ OVC007 16/13 A3003 RMK AO2 SLP176 T01610133=
201410081933 SPECI KBLI 081933Z 00000KT 4SM HZ BKN007 OVC017 16/13 A3003 RMK AO2=
201410081915 SPECI KBLI 081915Z 00000KT 4SM BR SCT007 OVC017 16/13 A3003 RMK AO2=
201410081853 METAR KBLI 081853Z 00000KT 4SM BR SCT006 BKN009 OVC017 15/13 A3003 RMK AO2 SLP174 CIG VSBY LWR NW-E T01500133=
201410081842 SPECI KBLI 081842Z 00000KT 4SM BR BKN006 BKN009 OVC017 15/13 A3003 RMK AO2=
201410081753 METAR KBLI 081753Z 00000KT 3SM BR BKN002 OVC017 14/13 A3002 RMK AO2 SLP171 T01440128 10144 20128 53006=
201410081653 METAR KBLI 081653Z 00000KT 3SM BR BKN002 OVC017 14/13 A3002 RMK AO2 SLP171 T01390128=
201410081602 SPECI KBLI 081602Z 00000KT 3SM BR FEW002 SCT008 OVC017 14/13 A3000 RMK AO2=
201410081553 METAR KBLI 081553Z 13003KT 1 1/4SM BR SCT002 BKN008 OVC017 14/13 A3000 RMK AO2 SLP166 T01390128=
201410081550 SPECI KBLI 081550Z 13003KT 1 1/4SM BR FEW002 BKN008 OVC017 14/13 A3000 RMK AO2=
201410081453 METAR KBLI 081453Z 16003KT 1/2SM R16/2400VP6000FT FG VV002 13/12 A3000 RMK AO2 SLP164 T01280122 52008=
201410081436 SPECI KBLI 081436Z 00000KT 1/2SM R16/2200V4000FT FG VV002 13/12 A2999 RMK AO2=
201410081400 SPECI KBLI 081400Z 00000KT 3/4SM R16/3000V4500FT BR OVC002 13/12 A2999 RMK AO2=
201410081353 METAR KBLI 081353Z 00000KT 1 1/4SM R16/4000V5000FT BR OVC002 13/12 A2999 RMK AO2 SLP162 T01280122=
201410081334 SPECI KBLI 081334Z AUTO 00000KT 1 1/2SM BR OVC002 13/12 A2998 RMK AO2=
201410081324 SPECI KBLI 081324Z AUTO 00000KT 3/4SM R16/4500VP6000FT BR VV002 13/12 A2998 RMK AO2=
201410081314 SPECI KBLI 081314Z AUTO 00000KT 1/2SM R16/2200V5500FT FG VV002 13/12 A2998 RMK AO2=
201410081253 METAR KBLI 081253Z AUTO 00000KT 1/2SM R16/1800FT FG VV002 13/12 A2998 RMK AO2 SLP158 T01280122=
201410081153 METAR KBLI 081153Z AUTO 17003KT 1/4SM R16/1600FT FG VV002 13/12 A2997 RMK AO2 SLP156 60001 70001 T01280122 10144 20128 53006=
201410081130 SPECI KBLI 081130Z AUTO 00000KT 1/4SM R16/1400V1600FT FG VV002 13/13 A2997 RMK AO2=
201410081053 METAR KBLI 081053Z AUTO 17005KT 1/4SM R16/1200V1400FT FG VV001 13/13 A2997 RMK AO2 SLP153 T01330128=
201410080953 METAR KBLI 080953Z AUTO 00000KT 1/4SM R16/1400V1600FT FG VV001 14/13 A2996 RMK AO2 SLP150 T01390128=
201410080853 METAR KBLI 080853Z AUTO 00000KT 1/4SM R16/1200V1400FT FG VV001 14/13 A2995 RMK AO2 SLP149 60001 T01390133 50007=
201410080753 METAR KBLI 080753Z AUTO 16003KT 1/4SM R16/1200V1400FT FG VV001 14/13 A2996 RMK AO2 SLP150 P0001 T01390133 401890111=
201410080653 METAR KBLI 080653Z AUTO 00000KT 1/4SM R16/1200V1400FT FG VV001 13/13 A2995 RMK AO2 SLP146 T01330128=
201410080632 SPECI KBLI 080632Z AUTO 17004KT 1/4SM R16/1200V1600FT FG VV001 13/12 A2994 RMK AO2=
201410080617 SPECI KBLI 080617Z AUTO 18003KT 1/2SM R16/2000V3000FT FG VV001 13/13 A2994 RMK AO2=
201410080553 METAR KBLI 080553Z AUTO 18004KT 1/4SM R16/1600V1800FT FG VV001 14/13 A2993 RMK AO2 SLP142 T01390128 10189 20128 51006=
201410080513 SPECI KBLI 080513Z AUTO 17006KT 1/2SM R16/1600V2000FT FG VV001 14/13 A2993 RMK AO2=
201410080453 METAR KBLI 080453Z 17004KT 1/2SM R16/2000V2400FT FG VV002 14/13 A2993 RMK AO2 SLP142 T01390133=
201410080450 SPECI KBLI 080450Z 18004KT 1/2SM R16/1800V2200FT FG VV002 14/13 A2993 RMK AO2=
201410080434 SPECI KBLI 080434Z 18005KT 1/2SM R16/1800V2200FT FG VV001 14/13 A2993 RMK AO2=
201410080414 SPECI KBLI 080414Z 17004KT 1SM R16/1400VP6000FT BR VV001 14/13 A2992 RMK AO2=
201410080403 SPECI KBLI 080403Z 16004KT 2SM BR BKN001 14/12 A2992 RMK AO2=
201410080353 METAR KBLI 080353Z 00000KT 8SM R16/4500VP6000FT FEW001 14/12 A2992 RMK AO2 SLP138 T01390122=
201410080253 METAR KBLI 080253Z 00000KT 9SM CLR 14/12 A2992 RMK AO2 SLP138 T01390122 55001=
201410080153 METAR KBLI 080153Z 00000KT 3SM FEW001 14/13 A2991 RMK AO2 SLP137 T01440133=
201410080146 SPECI KBLI 080146Z 00000KT 3SM R16/1400VP6000FT BR FEW006 15/14 A2991 RMK AO2=
201410080134 SPECI KBLI 080134Z 00000KT 3SM R16/1400V1600FT BR FEW006 15/14 A2992 RMK AO2=
201410080115 SPECI KBLI 080115Z 16004KT 3SM R16/6000VP6000FT BR FEW006 16/14 A2992 RMK AO2=
201410080053 METAR KBLI 080053Z 16004KT 10SM R16/5000VP6000FT CLR 16/14 A2992 RMK AO2 SLP137 VSBY 1SM SE-SW FOG T01610139=
201410072353 METAR KBLI 072353Z 00000KT 10SM CLR 18/14 A2992 RMK AO2 SLP138 T01830144 10183 20156 56008=
201410072253 METAR KBLI 072253Z 15006KT 10SM CLR 18/14 A2992 RMK AO2 SLP139 T01780144=
201410072209 SPECI KBLI 072209Z 16005KT 10SM FEW012 18/14 A2993 RMK AO2=
201410072153 METAR KBLI 072153Z 15007KT 10SM BKN012 18/14 A2993 RMK AO2 SLP142 T01780144=
201410072053 METAR KBLI 072053Z 15007KT 10SM FEW010 18/14 A2995 RMK AO2 SLP146 T01780144 58006=
201410072046 SPECI KBLI 072046Z 16005KT 10SM SCT010 18/14 A2995 RMK AO2=
201410072010 SPECI KBLI 072010Z 16004KT 10SM BR SCT005 BKN010 17/14 A2995 RMK AO2=
201410071953 METAR KBLI 071953Z 00000KT 3SM BR OVC005 17/14 A2996 RMK AO2 CIG 004V009 SLP150 T01670144=
201410071853 METAR KBLI 071853Z 00000KT 6SM BR FEW002 BKN005 16/14 A2996 RMK AO2 SLP152 T01610144=
201410071753 METAR KBLI 071753Z 00000KT 8SM BR OVC002 16/15 A2996 RMK AO2 SLP152 T01560150 10156 20117 50003=
201410071700 SPECI KBLI 071700Z 00000KT 6SM BR OVC002 14/14 A2997 RMK AO2=
201410071653 METAR KBLI 071653Z 00000KT 2SM BR OVC002 14/14 A2997 RMK AO2 SLP155 T01440139=
201410071647 SPECI KBLI 071647Z 00000KT 3SM R16/4000VP6000FT BR OVC002 14/14 A2997 RMK AO2=
201410071629 SPECI KBLI 071629Z 00000KT 1SM R16/4000VP6000FT BR OVC002 14/14 A2997 RMK AO2=
201410071608 SPECI KBLI 071608Z 00000KT 1/4SM R16/1800V3500FT FG VV002 14/13 A2997 RMK AO2=
201410071553 METAR KBLI 071553Z 00000KT 1/4SM R16/1400V1600FT FG VV002 14/13 A2997 RMK AO2 SLP153 T01390128=
201410071453 METAR KBLI 071453Z 00000KT M1/4SM R16/1000V1200FT FG VV002 13/12 A2996 RMK AO2 SLP151 T01330122 55002=
201410071425 SPECI KBLI 071425Z 00000KT 1/4SM R16/0800V1000FT FG VV002 13/12 A2995 RMK AO2=
201410071353 METAR KBLI 071353Z 00000KT 1/4SM R16/0700V0800FT FG VV001 13/12 A2995 RMK AO2 SLP148 T01330122=
201410071313 SPECI KBLI 071313Z AUTO 00000KT 1/4SM R16/1000V1200FT FG VV001 13/12 A2995 RMK AO2=
201410071253 METAR KBLI 071253Z AUTO 00000KT 1/2SM R16/1000V1200FT FG VV002 12/12 A2996 RMK AO2 SLP150 T01220117=
201410071248 SPECI KBLI 071248Z AUTO 00000KT 3/4SM R16/1000V1400FT BR VV002 12/12 A2996 RMK AO2=
201410071234 SPECI KBLI 071234Z AUTO 00000KT 1SM R16/1200V3500FT BR VV002 12/11 A2996 RMK AO2=
201410071219 SPECI KBLI 071219Z AUTO 00000KT 1/2SM R16/1200V1600FT FG VV002 12/11 A2996 RMK AO2=
201410071214 SPECI KBLI 071214Z AUTO 00000KT 1SM R16/1200V2000FT BR VV002 12/11 A2996 RMK AO2=
201410071205 SPECI KBLI 071205Z AUTO 00000KT 2SM R16/1400V2200FT BR OVC002 12/11 A2996 RMK AO2=
201410071201 SPECI KBLI 071201Z AUTO 00000KT 3/4SM R16/1000V2200FT BR VV002 12/11 A2996 RMK AO2=
201410071153 METAR KBLI 071153Z AUTO 00000KT 1/4SM R16/1000V1200FT FG VV001 12/11 A2996 RMK AO2 SLP151 70001 T01170106 10139 20111 58005=
201410071113 SPECI KBLI 071113Z AUTO 00000KT 1/4SM R16/1400V2200FT FG VV001 12/11 A2997 RMK AO2=
201410071102 SPECI KBLI 071102Z AUTO 00000KT 1/2SM R16/2200VP6000FT FG VV002 11/10 A2997 RMK AO2=
201410071058 SPECI KBLI 071058Z AUTO 00000KT 1 3/4SM R16/4000VP6000FT BR BKN003 11/10 A2997 RMK AO2=
201410071055 SPECI KBLI 071055Z AUTO 00000KT 3SM BR BKN003 11/10 A2997 RMK AO2=
201410071053 METAR KBLI 071053Z AUTO 00000KT 1 1/2SM BR SCT003 11/10 A2997 RMK AO2 SLP154 T01110100=
201410071040 SPECI KBLI 071040Z AUTO 00000KT 1/2SM R16/1800VP6000FT FG VV003 11/10 A2997 RMK AO2=
201410071033 SPECI KBLI 071033Z AUTO 00000KT 3/4SM R16/2000V5000FT BR VV005 11/10 A2997 RMK AO2=
201410071030 SPECI KBLI 071030Z AUTO 00000KT 1 3/4SM R16/2000V5000FT BR FEW005 11/10 A2997 RMK AO2=
201410071023 SPECI KBLI 071023Z AUTO 00000KT 4SM R16/2400VP6000FT BR FEW005 11/10 A2997 RMK AO2=
201410071001 SPECI KBLI 071001Z AUTO 00000KT 10SM R16/2600VP6000FT CLR 12/10 A2997 RMK AO2=
201410070953 METAR KBLI 070953Z AUTO 00000KT 2 1/2SM R16/6000VP6000FT BR CLR 12/10 A2998 RMK AO2 SLP156 T01170100=
201410070934 SPECI KBLI 070934Z AUTO 00000KT 5SM R16/4500VP6000FT BR FEW005 SCT046 12/11 A2998 RMK AO2=
201410070925 SPECI KBLI 070925Z AUTO 00000KT 2 1/2SM BR SCT003 BKN046 12/11 A2998 RMK AO2 VIS 1 1/2V5=
201410070921 SPECI KBLI 070921Z AUTO 00000KT 3SM BR BKN003 BKN046 12/11 A2998 RMK AO2=
201410070915 SPECI KBLI 070915Z AUTO 00000KT 1 1/4SM BR BKN003 BKN046 12/11 A2998 RMK AO2=
201410070911 SPECI KBLI 070911Z AUTO 00000KT 1/4SM R16/P6000FT FG SCT003 BKN046 12/11 A2998 RMK AO2=
201410070904 SPECI KBLI 070904Z AUTO 00000KT 1/4SM R16/4000VP6000FT FG VV003 12/11 A2998 RMK AO2=
201410070853 METAR KBLI 070853Z AUTO 00000KT 1/2SM R16/4000VP6000FT FG VV005 12/11 A2998 RMK AO2 SLP157 T01220106 56004=
201410070848 SPECI KBLI 070848Z AUTO 00000KT 1 1/2SM BR CLR 12/11 A2998 RMK AO2=
201410070838 SPECI KBLI 070838Z AUTO 00000KT 5SM BR FEW005 12/11 A2998 RMK AO2=
201410070831 SPECI KBLI 070831Z AUTO 00000KT 2 1/2SM R16/2400VP6000FT BR SCT005 12/11 A2998 RMK AO2=
201410070828 SPECI KBLI 070828Z AUTO 00000KT 1SM R16/2400VP6000FT BR VV005 12/11 A2998 RMK AO2=
201410070806 SPECI KBLI 070806Z AUTO 00000KT 1/2SM R16/2600VP6000FT FG VV005 12/11 A2998 RMK AO2=
201410070801 SPECI KBLI 070801Z AUTO 00000KT 1 1/2SM R16/4500VP6000FT BR CLR 12/11 A2998 RMK AO2=
201410070753 METAR KBLI 070753Z AUTO 00000KT 4SM BR CLR 13/12 A2998 RMK AO2 SLP157 T01280117 401940117=
201410070653 METAR KBLI 070653Z AUTO 00000KT 6SM BR BKN050 13/12 A2999 RMK AO2 SLP160 T01330122=
201410070553 METAR KBLI 070553Z AUTO 00000KT 6SM BR CLR 14/12 A2999 RMK AO2 SLP161 60000 T01390122 10194 20133 58001=
201410070453 METAR KBLI 070453Z 00000KT 6SM BR BKN050 13/12 A2999 RMK AO2 SLP161 T01330122 $=
201410070353 METAR KBLI 070353Z 00000KT 9SM BKN050 14/13 A2999 RMK AO2 SLP162 T01440128=
201410070253 METAR KBLI 070253Z 00000KT 10SM BKN050 14/13 A2999 RMK AO2 RAE0155 SLP163 P0000 60000 T01440128 56006=
201410070153 METAR KBLI 070153Z 00000KT 10SM -RA CLR 16/14 A3000 RMK AO2 RAB45 SLP163 P0000 T01610139=
201410070053 METAR KBLI 070053Z 00000KT 10SM CLR 18/14 A3000 RMK AO2 SLP164 T01780144=
201410062353 METAR KBLI 062353Z 00000KT 10SM SCT009 19/14 A3001 RMK AO2 SLP168 T01890144 10189 20172 57009=
201410062253 METAR KBLI 062253Z 16005KT 10SM SCT009 18/14 A3002 RMK AO2 SLP170 T01830144=
201410062200 SPECI KBLI 062200Z VRB03KT 10SM OVC007 17/14 A3003 RMK AO2=
201410062153 METAR KBLI 062153Z 00000KT 10SM SCT007 OVC010 17/14 A3003 RMK AO2 SLP175 T01720144=
201410062053 METAR KBLI 062053Z 19004KT 10SM SCT007 BKN011 18/14 A3004 RMK AO2 SLP177 T01780144 58007=
201410062015 SPECI KBLI 062015Z VRB03KT 10SM SCT007 BKN011 18/15 A3005 RMK AO2=
201410062000 SPECI KBLI 062000Z VRB04KT 10SM BKN007 18/14 A3005 RMK AO2=
201410061953 METAR KBLI 061953Z 21005KT 10SM SCT007 BKN011 18/14 A3005 RMK AO2 SLP181 T01830144=
201410061917 SPECI KBLI 061917Z 19007KT 10SM SCT007 BKN011 18/15 A3005 RMK AO2=
201410061853 METAR KBLI 061853Z VRB06KT 10SM BKN007 18/15 A3006 RMK AO2 SLP184 T01830150=
201410061753 METAR KBLI 061753Z VRB03KT 10SM BKN007 17/14 A3006 RMK AO2 SLP185 60001 T01720144 10178 20117 50003=
201410061750 SPECI KBLI 061750Z VRB05KT 10SM SCT007 17/14 A3006 RMK AO2=
201410061653 METAR KBLI 061653Z 00000KT 10SM CLR 17/14 A3006 RMK AO2 SLP183 T01720139=
201410061553 METAR KBLI 061553Z 00000KT 10SM SCT120 16/13 A3005 RMK AO2 SLP182 T01560133=
201410061453 METAR KBLI 061453Z 00000KT 10SM CLR 13/11 A3005 RMK AO2 SLP180 60001 T01280111 55002=
201410061421 SPECI KBLI 061421Z 00000KT 10SM CLR 13/11 A3004 RMK AO2=
201410061413 SPECI KBLI 061413Z 00000KT 1 1/2SM BR CLR 12/11 A3004 RMK AO2=
201410061353 METAR KBLI 061353Z 00000KT 10SM CLR 13/12 A3004 RMK AO2 SLP179 P0001 T01280117=
201410061253 METAR KBLI 061253Z AUTO 00000KT 10SM CLR 14/13 A3005 RMK AO2 SLP181 T01390128=
201410061207 SPECI KBLI 061207Z AUTO VRB03KT 10SM SCT003 14/13 A3004 RMK AO2=
201410061153 METAR KBLI 061153Z AUTO 15004KT 7SM BKN003 14/13 A3005 RMK AO2 SLP182 T01440133 10144 20117 56006=
201410061122 SPECI KBLI 061122Z AUTO 15004KT 4SM BR BKN001 14/13 A3006 RMK AO2=
201410061110 SPECI KBLI 061110Z AUTO 20005KT 7SM SCT001 14/13 A3005 RMK AO2=
201410061053 METAR KBLI 061053Z AUTO 17005KT 9SM CLR 14/13 A3005 RMK AO2 SLP183 T01440128=
201410060953 METAR KBLI 060953Z AUTO 00000KT 8SM FEW002 13/11 A3007 RMK AO2 SLP188 T01280111=
201410060946 SPECI KBLI 060946Z AUTO 00000KT 3SM BR FEW002 13/11 A3007 RMK AO2=
201410060944 SPECI KBLI 060944Z AUTO 00000KT 1 1/2SM BR FEW002 12/11 A3007 RMK AO2=
201410060936 SPECI KBLI 060936Z AUTO 00000KT 3/4SM R16/P6000FT BR VV002 13/11 A3007 RMK AO2=
201410060933 SPECI KBLI 060933Z AUTO 00000KT 1 1/4SM BR FEW002 13/11 A3007 RMK AO2=
201410060922 SPECI KBLI 060922Z AUTO 00000KT 3/4SM R16/2800VP6000FT BR VV002 13/11 A3007 RMK AO2=
201410060919 SPECI KBLI 060919Z AUTO 00000KT 1 1/2SM R16/2800VP6000FT BR FEW002 13/11 A3007 RMK AO2=
201410060912 SPECI KBLI 060912Z AUTO 00000KT 4SM R16/5500VP6000FT BR CLR 13/12 A3007 RMK AO2=
201410060905 SPECI KBLI 060905Z AUTO 00000KT 2 1/2SM R16/3500VP6000FT BR CLR 13/11 A3007 RMK AO2 VIS 1V5=
201410060853 METAR KBLI 060853Z AUTO 00000KT 3/4SM R16/P6000FT BR CLR 13/12 A3007 RMK AO2 SLP190 T01280117 53000=
201410060817 SPECI KBLI 060817Z AUTO 00000KT 4SM BR CLR 14/12 A3007 RMK AO2=
201410060807 SPECI KBLI 060807Z AUTO 00000KT 1 1/2SM BR CLR 13/12 A3007 RMK AO2=
201410060753 METAR KBLI 060753Z AUTO 00000KT 8SM CLR 14/12 A3007 RMK AO2 SLP187 T01390122 402170133=
201410060653 METAR KBLI 060653Z AUTO 00000KT 10SM CLR 13/12 A3007 RMK AO2 SLP190 T01330117=
201410060553 METAR KBLI 060553Z AUTO 00000KT 10SM CLR 14/13 A3007 RMK AO2 SLP190 T01440128 10211 20133 58005=
201410060453 METAR KBLI 060453Z 00000KT 10SM SCT100 14/13 A3009 RMK AO2 SLP194 T01440128=
201410060353 METAR KBLI 060353Z 00000KT 10SM CLR 15/13 A3009 RMK AO2 SLP194 T01500128=
201410060253 METAR KBLI 060253Z 00000KT 10SM CLR 16/13 A3009 RMK AO2 SLP195 T01560133 55004=
201410060153 METAR KBLI 060153Z 00000KT 10SM R16/4500VP6000FT CLR 17/14 A3008 RMK AO2 SLP192 T01670139=
201410060053 METAR KBLI 060053Z 00000KT 10SM CLR 19/14 A3009 RMK AO2 SLP194 T01890144=
201410052353 METAR KBLI 052353Z 28004KT 10SM CLR 21/13 A3010 RMK AO2 SLP199 T02110133 10217 20183 58013=
201410052253 METAR KBLI 052253Z 00000KT 10SM CLR 22/14 A3011 RMK AO2 SLP203 T02170139=
201410052153 METAR KBLI 052153Z 27005KT 10SM FEW042 21/14 A3013 RMK AO2 SLP210 T02110144=
201410052053 METAR KBLI 052053Z 26005KT 10SM FEW040 21/14 A3014 RMK AO2 SLP211 T02110144 56005=
201410051953 METAR KBLI 051953Z 28005KT 10SM FEW021 OVC042 21/15 A3014 RMK AO2 SLP212 T02060150=
201410051853 METAR KBLI 051853Z 00000KT 10SM BKN042 21/15 A3014 RMK AO2 SLP212 T02060150=
201410051753 METAR KBLI 051753Z 35003KT 10SM OVC042 18/14 A3015 RMK AO2 SLP216 T01830144 10183 20150 51004=
201410051653 METAR KBLI 051653Z 00000KT 10SM OVC042 17/14 A3015 RMK AO2 SLP217 T01720139=
201410051605 METAR KBLI 051605Z AUTO 00000KT 10SM 6500 OVC036 16/14 A3015=
201410051553 METAR KBLI 051553Z 00000KT 7SM OVC036 16/14 A3014 RMK AO2 SLP214 T01610139=
201410051453 METAR KBLI 051453Z 00000KT 7SM OVC038 15/14 A3014 RMK AO2 SLP213 T01500139 58003=
201410051353 METAR KBLI 051353Z 00000KT 6SM BR OVC038 15/13 A3015 RMK AO2 SLP216 T01500133=
201410051253 METAR KBLI 051253Z AUTO 00000KT 6SM BR OVC040 15/13 A3015 RMK AO2 SLP214 T01500133=
201410051153 METAR KBLI 051153Z AUTO 00000KT 6SM BR OVC042 15/13 A3015 RMK AO2 SLP216 T01500133 10167 20139 53002=
201410051053 METAR KBLI 051053Z AUTO 00000KT 6SM BR OVC042 15/13 A3014 RMK AO2 SLP213 T01500133=
201410050953 METAR KBLI 050953Z AUTO 00000KT 5SM BR OVC042 14/13 A3015 RMK AO2 SLP215 T01440133=
201410050853 METAR KBLI 050853Z AUTO 00000KT 4SM BR OVC040 14/13 A3014 RMK AO2 SLP213 T01440133 58003=
201410050753 METAR KBLI 050753Z AUTO 24003KT 7SM BKN040 16/14 A3015 RMK AO2 SLP216 T01560139 402000133=
201410050653 METAR KBLI 050653Z AUTO 34003KT 8SM FEW046 BKN070 16/14 A3015 RMK AO2 SLP216 T01560139=
201410050553 METAR KBLI 050553Z AUTO 00000KT 9SM BKN040 OVC070 17/14 A3015 RMK AO2 SLP216 T01670139 10194 20161 50003=
201410050453 METAR KBLI 050453Z 00000KT 10SM BKN040 OVC075 16/14 A3016 RMK AO2 SLP218 T01610139=
201410050353 METAR KBLI 050353Z 00000KT 10SM OVC040 17/14 A3015 RMK AO2 SLP215 T01720144=
201410050253 METAR KBLI 050253Z 00000KT 10SM OVC040 18/14 A3014 RMK AO2 SLP213 T01780139 56009=
201410050153 METAR KBLI 050153Z 00000KT 10SM OVC043 18/14 A3015 RMK AO2 SLP216 T01780139=
201410050053 METAR KBLI 050053Z 00000KT 10SM OVC038 19/13 A3015 RMK AO2 SLP214 T01940133=
201410042353 METAR KBLI 042353Z 00000KT 10SM OVC038 19/13 A3017 RMK AO2 SLP222 60000 T01890133 10200 20156 56011=
201410042253 METAR KBLI 042253Z 00000KT 10SM OVC049 20/13 A3018 RMK AO2 SLP225 T02000128=
201410042153 METAR KBLI 042153Z 05006KT 10SM OVC047 19/13 A3018 RMK AO2 SLP224 T01940133=
201410042053 METAR KBLI 042053Z 05004KT 10SM OVC055 19/13 A3020 RMK AO2 RAB28E40 SLP233 P0000 60000 T01890133 53001=
201410041953 METAR KBLI 041953Z 30003KT 10SM OVC060 18/13 A3020 RMK AO2 SLP233 T01780133=
201410041915 METAR KBLI 041915Z COR 30004KT 10SM 6500 OVC060 18/14 A3020 RMK CC=
201410041853 METAR KBLI 041853Z 01003KT 10SM OVC060 17/13 A3019 RMK AO2 RAB28E37 SLP230 P0000 T01670133=
201410041753 METAR KBLI 041753Z 04004KT 10SM OVC055 16/13 A3020 RMK AO2 RAB31E42 SLP232 P0000 60000 T01560133 10156 20133 53002=
201410041653 METAR KBLI 041653Z 00000KT 9SM OVC060 15/13 A3020 RMK AO2 SLP231 T01500128=
201410041553 METAR KBLI 041553Z 00000KT 10SM OVC060 14/12 A3018 RMK AO2 RAB42E51 SLP226 P0000 T01440122 $=
201410041453 METAR KBLI 041453Z 31003KT 10SM OVC065 14/12 A3019 RMK AO2 RAB1354E06 SLP231 P0000 60000 T01390122 53006 $=
201410041353 METAR KBLI 041353Z 00000KT 10SM FEW060 OVC075 14/12 A3019 RMK AO2 SLP228 T01390122 $=
201410041253 METAR KBLI 041253Z AUTO 03003KT 8SM OVC070 14/12 A3017 RMK AO2 RAB06E16 SLP221 P0000 T01390122 $=
201410041153 METAR KBLI 041153Z AUTO 00000KT 9SM OVC075 14/12 A3018 RMK AO2 SLP224 60002 70002 T01390122 10139 20133 50000 $=
201410041053 METAR KBLI 041053Z AUTO 00000KT 5SM BR OVC080 13/12 A3018 RMK AO2 SLP226 T01330122 $=
201410040953 METAR KBLI 040953Z AUTO 00000KT 8SM OVC080 13/12 A3017 RMK AO2 SLP223 T01330117 $=
201410040853 METAR KBLI 040853Z AUTO 00000KT 6SM BR BKN085 OVC110 13/12 A3018 RMK AO2 SLP224 60002 T01330122 55003 $=
201410040753 METAR KBLI 040753Z AUTO 00000KT 10SM BKN095 OVC110 13/12 A3017 RMK AO2 RAB22E49 SLP223 P0002 T01330122 402110067 $=
201410040653 METAR KBLI 040653Z AUTO 00000KT 10SM OVC100 13/12 A3018 RMK AO2 RAE21 SLP225 P0000 T01330117 $=
201410040553 METAR KBLI 040553Z AUTO 00000KT 10SM -RA FEW065 BKN110 14/11 A3018 RMK AO2 RAB52 SLP227 P0000 60000 T01390106 10183 20128 53010 $=
201410040453 METAR KBLI 040453Z 00000KT 10SM CLR 13/10 A3016 RMK AO2 SLP221 T01330100 $=
201410040353 METAR KBLI 040353Z 00000KT 10SM CLR 14/09 A3014 RMK AO2 SLP215 T01390094 $=
201410040253 METAR KBLI 040253Z 00000KT 10SM CLR 14/10 A3015 RMK AO2 SLP218 T01390100 56007 $=
201410040153 METAR KBLI 040153Z 00000KT 10SM CLR 15/11 A3016 RMK AO2 SLP218 T01500111 $=
201410040053 METAR KBLI 040053Z 00000KT 10SM CLR 17/12 A3017 RMK AO2 SLP222 T01720122 $=
201410032353 METAR KBLI 032353Z 00000KT 10SM CLR 18/11 A3017 RMK AO2 SLP224 T01830106 10211 20156 58014 $=
201410032253 METAR KBLI 032253Z 18003KT 10SM CLR 21/09 A3019 RMK AO2 SLP228 T02060089=
201410032153 METAR KBLI 032153Z VRB04KT 10SM CLR 21/07 A3020 RMK AO2 SLP233 T02060072=
201410032053 METAR KBLI 032053Z 00000KT 10SM CLR 20/07 A3022 RMK AO2 SLP238 T02000067 56014=
201410031953 METAR KBLI 031953Z VRB03KT 10SM CLR 19/07 A3023 RMK AO2 SLP244 T01890067=
201410031853 METAR KBLI 031853Z 00000KT 10SM CLR 17/08 A3023 RMK AO2 SLP245 T01720083=
201410031753 METAR KBLI 031753Z 01005KT 10SM CLR 16/08 A3026 RMK AO2 SLP253 T01560078 10156 20067 58001=
201410031653 METAR KBLI 031653Z 00000KT 10SM CLR 12/09 A3026 RMK AO2 SLP252 T01220089=
201410031553 METAR KBLI 031553Z 00000KT 10SM CLR 09/07 A3026 RMK AO2 SLP255 T00940072=
201410031453 METAR KBLI 031453Z 00000KT 10SM CLR 07/06 A3026 RMK AO2 SLP253 T00720056 58009=
201410031353 METAR KBLI 031353Z 00000KT 10SM CLR 08/06 A3027 RMK AO2 SLP258 T00780061=
201410031253 METAR KBLI 031253Z AUTO 00000KT 10SM CLR 08/06 A3027 RMK AO2 SLP259 T00780061=
201410031153 METAR KBLI 031153Z AUTO 00000KT 10SM CLR 09/07 A3028 RMK AO2 SLP262 T00890072 10100 20078 58008=
201410031053 METAR KBLI 031053Z AUTO 00000KT 10SM CLR 08/07 A3030 RMK AO2 SLP266 T00830067=
201410030953 METAR KBLI 030953Z AUTO 00000KT 10SM CLR 09/07 A3031 RMK AO2 SLP272 T00890072=
201410030853 METAR KBLI 030853Z AUTO 00000KT 9SM CLR 08/07 A3031 RMK AO2 SLP271 T00830067 55002=
201410030753 METAR KBLI 030753Z AUTO 00000KT 10SM CLR 09/07 A3030 RMK AO2 SLP266 T00890067 401830067=
201410030653 METAR KBLI 030653Z AUTO 00000KT 10SM CLR 09/07 A3031 RMK AO2 SLP271 T00890072=
201410030553 METAR KBLI 030553Z AUTO 00000KT 10SM CLR 10/08 A3032 RMK AO2 SLP273 T01000078 10183 20100 51005=
201410030453 METAR KBLI 030453Z 08003KT 10SM CLR 11/07 A3031 RMK AO2 SLP272 T01060072=
201410030353 METAR KBLI 030353Z 00000KT 10SM CLR 13/08 A3031 RMK AO2 SLP271 T01280083=
201410030253 METAR KBLI 030253Z 00000KT 10SM FEW095 13/09 A3030 RMK AO2 SLP267 T01280089 54000=
201410030153 METAR KBLI 030153Z 00000KT 10SM SCT090 14/08 A3031 RMK AO2 SLP270 T01440078=
201410030053 METAR KBLI 030053Z 00000KT 10SM BKN095 16/07 A3029 RMK AO2 SLP265 T01610067=
201410022353 METAR KBLI 022353Z 33004KT 10SM SCT100 18/07 A3030 RMK AO2 SLP268 T01830067 10183 20150 55003=
201410022253 METAR KBLI 022253Z 00000KT 10SM OVC100 18/08 A3029 RMK AO2 SLP265 T01780083=
201410022153 METAR KBLI 022153Z 27005KT 10SM OVC110 18/08 A3031 RMK AO2 SLP270 T01780078=
201410022053 METAR KBLI 022053Z 35005KT 10SM OVC110 18/07 A3031 RMK AO2 SLP270 T01830072 58003=
201410021953 METAR KBLI 021953Z 34004KT 10SM FEW120 18/08 A3032 RMK AO2 SLP273 T01780078=
201410021853 METAR KBLI 021853Z 00000KT 10SM CLR 16/07 A3032 RMK AO2 SLP273 T01610072=
201410021753 METAR KBLI 021753Z 02003KT 10SM CLR 16/08 A3032 RMK AO2 SLP274 T01560083 10156 20067 51016=
201410021653 METAR KBLI 021653Z 02004KT 10SM CLR 13/08 A3030 RMK AO2 SLP269 T01330083=
201410021553 METAR KBLI 021553Z 00000KT 8SM CLR 10/08 A3029 RMK AO2 SLP266 T01000078=
201410021453 METAR KBLI 021453Z 00000KT 9SM CLR 07/06 A3027 RMK AO2 SLP258 T00720061 51017=
201410021440 SPECI KBLI 021440Z 00000KT 9SM CLR 07/06 A3027 RMK AO2=
201410021432 SPECI KBLI 021432Z 00000KT 1 1/4SM R16/5000VP6000FT BR CLR 07/06 A3026 RMK AO2=
201410021424 SPECI KBLI 021424Z 00000KT 5SM BR CLR 08/06 A3027 RMK AO2=
201410021415 SPECI KBLI 021415Z 00000KT 1 3/4SM BR CLR 07/06 A3026 RMK AO2 VIS 1/2V5=
201410021353 METAR KBLI 021353Z AUTO 00000KT 9SM CLR 08/06 A3026 RMK AO2 SLP254 T00780061=
201410021253 METAR KBLI 021253Z AUTO 00000KT 9SM BKN065 08/07 A3025 RMK AO2 SLP249 T00780067=
201410021153 METAR KBLI 021153Z AUTO 34003KT 6SM BR BKN065 08/07 A3022 RMK AO2 SLP241 T00830067 10111 20083 53009=
201410021053 METAR KBLI 021053Z AUTO 00000KT 10SM BKN065 09/07 A3021 RMK AO2 SLP236 T00890072=
201410020953 METAR KBLI 020953Z AUTO 00000KT 9SM CLR 09/07 A3020 RMK AO2 SLP235 T00890072=
201410020853 METAR KBLI 020853Z AUTO 00000KT 10SM CLR 10/08 A3019 RMK AO2 SLP231 T01000078 51003=
201410020753 METAR KBLI 020753Z AUTO 00000KT 10SM CLR 10/08 A3019 RMK AO2 SLP230 T01000083 401670100=
201410020653 METAR KBLI 020653Z AUTO 00000KT 10SM CLR 11/09 A3020 RMK AO2 SLP234 T01060089=
201410020553 METAR KBLI 020553Z AUTO 00000KT 10SM CLR 11/08 A3018 RMK AO2 SLP228 T01110083 10167 20111 51009=
201410020453 METAR KBLI 020453Z 00000KT 10SM OVC075 13/08 A3018 RMK AO2 SLP225 T01280083=
201410020353 METAR KBLI 020353Z 17005KT 10SM SCT060 OVC075 14/08 A3017 RMK AO2 SLP222 T01390078=
201410020253 METAR KBLI 020253Z 18004KT 10SM OVC075 14/08 A3016 RMK AO2 SLP219 T01390083 55001=
201410020153 METAR KBLI 020153Z 18003KT 10SM OVC070 14/08 A3015 RMK AO2 SLP217 T01390083=
201410020053 METAR KBLI 020053Z 18004KT 10SM FEW070 15/08 A3016 RMK AO2 SLP220 T01500083=
201410012353 METAR KBLI 012353Z 18007KT 150V220 10SM BKN065 16/08 A3016 RMK AO2 SLP219 T01610083 10167 20139 56006=
201410012253 METAR KBLI 012253Z 17006KT 10SM BKN060 16/09 A3016 RMK AO2 SLP219 T01610094=
201410012153 METAR KBLI 012153Z 17008KT 10SM SCT060 16/09 A3017 RMK AO2 SLP221 T01610094=
201410012053 METAR KBLI 012053Z 16009KT 10SM SCT065 16/10 A3018 RMK AO2 SLP224 T01610100 58007=
201410011953 METAR KBLI 011953Z 17007G14KT 10SM SCT025 OVC065 16/11 A3019 RMK AO2 SLP227 T01610106=
201410011853 METAR KBLI 011853Z 17009G14KT 10SM BKN065 15/10 A3019 RMK AO2 SLP230 T01500100=
201410011753 METAR KBLI 011753Z 17009KT 10SM OVC065 14/10 A3020 RMK AO2 SLP232 T01390100 10144 20117 50005=
201410011653 METAR KBLI 011653Z 17006KT 10SM SCT065 14/11 A3020 RMK AO2 SLP233 T01440106=
201410011553 METAR KBLI 011553Z 18005KT 10SM BKN070 14/11 A3019 RMK AO2 SLP230 T01390106=
201410011453 METAR KBLI 011453Z 17004KT 10SM OVC070 13/10 A3018 RMK AO2 SLP228 T01280100 51005=
201410011353 METAR KBLI 011353Z AUTO 20004KT 10SM OVC070 13/10 A3018 RMK AO2 SLP226 T01280100 $=
201410011253 METAR KBLI 011253Z AUTO VRB04KT 10SM OVC075 13/11 A3018 RMK AO2 SLP225 T01280106=
201410011153 METAR KBLI 011153Z AUTO 00000KT 10SM OVC080 12/10 A3017 RMK AO2 SLP222 7//// T01170100 10144 20117 53005=
201410011053 METAR KBLI 011053Z AUTO 16004KT 10SM BKN080 12/10 A3016 RMK AO2 SLP218 T01220100=
201410010953 METAR KBLI 010953Z AUTO 00000KT 10SM BKN080 12/10 A3016 RMK AO2 SLP219 T01220100=
201410010853 METAR KBLI 010853Z AUTO 18003KT 10SM OVC080 13/10 A3015 RMK AO2 SLP217 T01330100 51010=
201410010753 METAR KBLI 010753Z AUTO 00000KT 10SM BKN080 13/11 A3015 RMK AO2 SLP215 T01280106 401780117=
201410010653 METAR KBLI 010653Z AUTO 17005KT 10SM OVC080 13/09 A3013 RMK AO2 SLP209 T01330094=
201410010553 METAR KBLI 010553Z AUTO 16005KT 10SM FEW060 OVC085 14/09 A3012 RMK AO2 SLP207 T01440094 10172 20122 51007=
201410010453 METAR KBLI 010453Z 17007KT 10SM OVC055 14/09 A3012 RMK AO2 SLP205 T01440094=
201410010353 METAR KBLI 010353Z 17004KT 10SM SCT070 OVC085 14/09 A3011 RMK AO2 SLP203 T01440094=
201410010253 METAR KBLI 010253Z 00000KT 10SM SCT090 13/10 A3010 RMK AO2 SLP201 T01330100 53010=
201410010153 METAR KBLI 010153Z 17003KT 10SM BKN080 15/09 A3009 RMK AO2 SLP195 T01500094=
201410010053 METAR KBLI 010053Z 17004KT 10SM CLR 17/09 A3008 RMK AO2 SLP191 T01670089=

###################################
#  short TAF from KBLI
###################################
201410170910 TAF KBLI 170910Z 1709/1806 02006KT P6SM SCT090 OVC150 FM171000
                       06008KT P6SM -RA BKN060 OVC090 FM171500
                       08012KT P6SM -RA BKN030 OVC050 FM172100
                       14015G25KT P6SM -RA BKN025 OVC045
                      TEMPO 1721/1801 4SM RA BR OVC025 FM180100
                       17010KT P6SM -SHRA BKN030 OVC045=

###################################
#  large TAF from KBLI
###################################
201410312329 TAF KBLI 312329Z 0100/0124 15006KT P6SM VCSH SCT060 BKN070 OVC090
                       TEMPO 0100/0104 5SM -SHRA OVC035 FM010600
                       00000KT 4SM BR OVC007 FM011800 35004KT P6SM
                       BKN007 FM012100 31005KT P6SM SCT250=
201410311732 TAF KBLI 311732Z 3118/0118 00000KT P6SM -RA SCT003 BKN045 OVC050
                       TEMPO 3118/3121 3SM -RA BR OVC003 FM312100
                       VRB04KT P6SM -SHRA OVC025 FM010000 00000KT
                       P6SM VCSH OVC025 FM011100 00000KT P6SM BKN050=
201410311510 TAF AMD KBLI 311510Z 3115/0112 VRB03KT P6SM -SHRA SCT025 OVC050
                       TEMPO 3115/3118 2SM -SHRA BR BKN003 OVC050
                       FM312000 21006KT P6SM VCSH SCT025 BKN050
                       FM010600 18006KT P6SM BKN025 OVC050=
201410311359 TAF AMD KBLI 311359Z 3114/0112 VRB03KT P6SM -SHRA SCT025 OVC050
                       TEMPO 3114/3118 4SM -SHRA BR BKN003 OVC050
                       FM312000 21006KT P6SM VCSH SCT025 BKN050
                       FM010600 18006KT P6SM BKN025 OVC050=
201410311120 TAF KBLI 311120Z 3112/0112 VRB03KT P6SM -SHRA SCT025 OVC050 FM312000
                       21006KT P6SM VCSH SCT025 BKN050 FM010600
                       18006KT P6SM BKN025 OVC050=
201410310520 TAF KBLI 310520Z 3106/0106 16006KT P6SM -SHRA SCT020 OVC040 FM311200
                       18008KT P6SM -SHRA BKN025 OVC050 FM312000
                       21008KT P6SM VCSH SCT030 BKN050=
201410302339 TAF KBLI 302339Z 3100/3124 03005KT 6SM -RA BR SCT025 OVC035 FM310400
                       VRB04KT 5SM -RA BR SCT015 OVC030 FM310900
                       VRB04KT 5SM -RA BR SCT009 OVC015 FM311600
                       18005KT P6SM -SHRA BKN018 BKN035 FM312000
                       18005KT P6SM VCSH BKN035=
201410301735 TAF KBLI 301735Z 3018/3118 00000KT P6SM -RA SCT050 OVC080 FM310000
                       11008KT P6SM -RA SCT015 BKN035 OVC050 FM310400
                       16005KT P6SM -RA SCT015 OVC030 FM311100
                       17005KT P6SM -RA SCT009 OVC015=
201410301120 TAF KBLI 301120Z 3012/3112 04007KT P6SM BKN050 OVC090 FM301700
                       12014KT P6SM -RA OVC050 FM310000 16012KT
                       P6SM -RA SCT015 OVC030 FM311100 18006KT
                       P6SM OVC015=
201410300520 TAF KBLI 300520Z 3006/3106 04006KT P6SM SCT070 BKN200 FM301000
                       04006KT P6SM BKN060 OVC200 FM301400 04005KT
                       P6SM -RA OVC050 FM302200 06010KT 5SM -RA
                       BR OVC035=
201410292325 TAF KBLI 292325Z 3000/3024 13007KT P6SM FEW035 BKN050 FM300300
                       04005KT P6SM SCT050 BKN200 FM301400 04005KT
                       P6SM -RA OVC050 FM302200 06010KT 5SM -RA
                       BR OVC035=
201410291740 TAF KBLI 291740Z 2918/3018 16009KT P6SM FEW021 BKN070 FM292000
                       15008KT P6SM SCT050 FM300300 04005KT P6SM
                       BKN200 FM301400 04005KT P6SM OVC060=
201410291625 TAF AMD KBLI 291625Z 2916/3012 17008KT P6SM SCT021 SCT040 BKN080
                       TEMPO 2916/2919 BKN025 BKN040 BKN080 FM291900
                       17008KT P6SM SCT020 BKN040 FM292100 17008KT
                       P6SM SCT040 BKN250=
201410291317 TAF AMD KBLI 291317Z 2913/3012 16010KT P6SM SCT025 BKN060
                      TEMPO 2913/2916 -SHRA BKN025 OVC060 FM291600
                       16010KT P6SM BKN025 OVC040 FM291900 17008KT
                       P6SM SCT020 BKN040 FM292100 17008KT P6SM
                       SCT040 BKN250=
201410291120 TAF KBLI 291120Z 2912/3012 16012G20KT P6SM BKN020 OVC040
                      TEMPO 2912/2916 -SHRA BKN015 OVC040 FM291600
                       16012KT P6SM BKN015 OVC040 FM291900 17008KT
                       P6SM SCT020 BKN040 FM292100 17008KT P6SM
                       SCT040 BKN250=
201410290534 TAF KBLI 290534Z 2906/3006 16012G22KT P6SM -SHRA BKN020 OVC040
                       FM290900 16010G20KT P6SM VCSH BKN015 OVC040
                       FM291200 16010KT P6SM BKN015 OVC040 FM291700
                       17008KT P6SM SCT020 BKN040 FM292100 17008KT
                       P6SM SCT040 BKN250=
201410282322 TAF KBLI 282322Z 2900/2924 16012G22KT P6SM -SHRA BKN025 BKN040
                       FM290300 16010KT P6SM -SHRA OVC020 FM291800
                       17006KT P6SM BKN030=
201410281732 TAF KBLI 281732Z 2818/2918 17012G28KT P6SM -RA BKN030 OVC060 FM282300
                       18010G22KT P6SM -SHRA SCT030 BKN060 FM290300
                       16011KT P6SM -SHRA BKN030 OVC040=
201410281123 TAF KBLI 281123Z 2812/2912 14018G30KT P6SM BKN045 OVC070
                      TEMPO 2812/2815 4SM -RA BKN030 OVC050 FM281500
                       18016G30KT P6SM -RA BKN030 OVC060 FM281800
                       18014G28KT P6SM -SHRA BKN030 BKN060 FM282200
                       18012G22KT P6SM -SHRA SCT030 BKN060=
201410280801 TAF AMD KBLI 280801Z 2808/2906 14015G25KT P6SM -RA OVC050 FM281300
                       14018G30KT 4SM -RA BKN030 OVC050 FM281500
                       18016G30KT 6SM -RA BR OVC030 FM281800 18012G20KT
                       P6SM -SHRA BKN015 OVC030=
201410280535 TAF KBLI 280535Z 2806/2906 03005KT P6SM -RA OVC060 FM281000 14015G25KT
                       P6SM -RA OVC050 FM281300 14020G35KT 4SM
                       -RA BKN030 OVC050 FM281500 18016G30KT 6SM
                       -RA BR OVC030 FM281800 18012G20KT P6SM -SHRA
                       BKN015 OVC030=
201410272332 TAF KBLI 272332Z 2800/2824 03006KT P6SM -RA SCT040 BKN080 OVC120
                       FM280300 13012G20KT P6SM -RA BKN040 OVC100
                       FM280600 14015G25KT P6SM -RA OVC030 FM281200
                       14020G35KT 4SM -RA SCT015 OVC030 FM281500
                       18014G22KT 6SM -SHRA BR SCT020 OVC030 FM281800
                       15012G20KT P6SM -SHRA BKN030=
201410271739 TAF KBLI 271739Z 2718/2818 14008KT P6SM BKN120 FM280000 13012G20KT
                       P6SM BKN040 OVC100 FM280300 14015G25KT P6SM
                       -RA OVC030 FM280900 14020G35KT 4SM -RA BR
                       SCT015 OVC030 FM281400 18014KT 6SM -RA BR
                       OVC030=
201410271121 TAF KBLI 271121Z 2712/2812 00000KT P6SM BCFG SCT035 BKN150
                      TEMPO 2712/2715 3/4SM BR SCT001 BKN035 BKN150
                       FM271700 14008KT P6SM SCT050 BKN120 FM280100
                       13012G20KT P6SM -RA BKN040 OVC070 FM280500
                       14015G25KT 6SM -RA BR OVC030=
201410270648 TAF AMD KBLI 270648Z 2707/2806 00000KT P6SM MIFG SCT050
                      TEMPO 2707/2711 1/2SM BCFG BKN002 BKN050
                       FM271100 00000KT P6SM BCFG SCT050
                      TEMPO 2711/2715 1/2SM BCFG BKN001 BKN050
                       FM271800 15008KT P6SM SCT050 OVC100 FM280100
                       14012G20KT P6SM -RA BKN040 OVC060=
201410270530 TAF KBLI 270530Z 2706/2806 VRB03KT P6SM BKN050 FM271800 15008KT
                       P6SM SCT050 OVC100 FM280100 14012G20KT P6SM
                       -RA BKN040 OVC060=
201410262330 TAF KBLI 262330Z 2700/2724 VRB03KT P6SM VCSH SCT013 BKN040 FM270600
                       17005KT P6SM BKN050 FM271300 15004KT P6SM
                       SCT015
                      TEMPO 2713/2717 OVC015 FM271800 16006KT P6SM
                       SCT025 OVC100=
201410261720 TAF KBLI 261720Z 2618/2718 16007KT P6SM SCT022 OVC060
                      TEMPO 2618/2622 -SHRA BKN022 OVC050 FM262200
                       18008KT P6SM VCSH SCT025 BKN050 FM270600
                       17005KT P6SM BKN050 FM271300 15004KT P6SM
                       OVC015=
201410261120 TAF KBLI 261120Z 2612/2712 19008G20KT P6SM VCSH SCT050 BKN080
                      TEMPO 2612/2616 -SHRA BKN050 BKN080 FM261800
                       19008G20KT P6SM -SHRA BKN050 BKN080 FM270100
                       VRB03KT P6SM SCT050 SCT100=
201410260536 TAF KBLI 260536Z 2606/2706 25010G20KT P6SM -SHRA SCT006 BKN020
                       OVC030
                      TEMPO 2606/2610 4SM -SHRA BR BKN006 BKN020
                       OVC030 FM261200 21008KT P6SM -SHRA BKN015
                       OVC030 FM261800 21008KT P6SM -SHRA SCT020
                       BKN040=
201410260418 TAF AMD KBLI 260418Z 2604/2624 23010G20KT P6SM -RA SCT004 BKN009
                       OVC025
                      TEMPO 2604/2606 5SM -RA BR BKN004 OVC009
                       FM260600 25012G22KT P6SM -SHRA BKN012 OVC025
                       FM261200 23010KT P6SM -SHRA BKN015 BKN035
                       FM262100 19010KT P6SM -SHRA SCT020 BKN040=
201410260221 TAF AMD KBLI 260221Z 2602/2624 01005KT P6SM -RA BKN026 OVC035
                      TEMPO 2602/2604 5SM -RA BR BKN020 OVC030
                       FM260400 18018G27KT 5SM -RA BR OVC020 FM261300
                       19010KT P6SM -SHRA BKN015 BKN035 FM262100
                       19010KT P6SM -SHRA SCT020 BKN040=
201410252330 TAF KBLI 252330Z 2600/2624 01005KT P6SM -RA SCT030 OVC070
                      TEMPO 2600/2602 P6SM -RA BKN030 OVC060 FM260200
                       18018G27KT P6SM -RA OVC020 FM261300 19010KT
                       P6SM -SHRA BKN015 BKN035 FM262100 19010KT
                       P6SM -SHRA SCT020 BKN040=
201410251735 TAF KBLI 251735Z 2518/2618 14008KT P6SM SCT030 OVC090
                      TEMPO 2518/2521 -RA BKN030 OVC080 FM252100
                       03008KT P6SM -RA SCT025 OVC045
                      TEMPO 2522/2602 4SM -RA BR OVC025 FM260200
                       18018G27KT P6SM -RA OVC020 FM261300 19010KT
                       P6SM -SHRA BKN015 BKN035=
201410251123 TAF KBLI 251123Z 2512/2612 01007KT P6SM OVC070 FM251600 16009KT
                       P6SM -RA OVC045 FM260000 07008KT P6SM -RA
                       BKN025 OVC040=
201410250543 TAF KBLI 250543Z 2506/2606 01007KT P6SM -RA OVC080 FM250800 04009KT
                       P6SM -RA OVC030 FM251300 03009KT P6SM -RA
                       OVC045 FM252000 03008KT P6SM -RA BKN020
                       OVC035=
201410242330 TAF KBLI 242330Z 2500/2524 01010KT P6SM SKC FM250600 01010KT P6SM
                       -RA OVC080 FM251300 03009KT 4SM -RA BR OVC020
                       FM251800 03008KT P6SM -RA BKN020 OVC035=
201410241725 TAF KBLI 241725Z 2418/2518 02003KT P6SM OVC040 FM242100 02008KT
                       P6SM SCT050 OVC100 FM250600 03005KT P6SM
                       -RA OVC080 FM251300 04006KT 4SM -RA BR OVC020=
201410241136 TAF KBLI 241136Z 2412/2512 VRB03KT P6SM SCT025 OVC040
                      TEMPO 2414/2416 BKN025 OVC040 FM241800 02008KT
                       P6SM SCT035 BKN060 BKN100 FM242100 02008KT
                       P6SM SCT060 BKN100 FM250900 02008KT P6SM
                       -RA OVC040=
201410240534 TAF KBLI 240534Z 2406/2506 15006KT P6SM BKN060 BKN100 FM241000
                       VRB03KT P6SM SCT060 BKN100 FM241600 02008KT
                       P6SM SCT100 BKN200 FM242300 02008KT P6SM
                       BKN100 OVC200=
201410232346 TAF KBLI 232346Z 2400/2424 19008KT P6SM VCSH SCT035 BKN060
                      TEMPO 2400/2404 21012G20KT -SHRA BKN035 OVC060
                       FM240400 15006KT P6SM VCSH SCT060 BKN110
                       FM240800 11004KT P6SM SCT060 BKN110 FM241800
                       02006KT P6SM SCT110 BKN200=
201410231731 TAF KBLI 231731Z 2318/2418 15015G23KT P6SM -SHRA SCT035 OVC060
                       FM232000 17015G23KT P6SM VCSH SCT035 BKN060
                       TEMPO 2320/2324 5SM SHRA BKN035 OVC060 FM240000
                       17010KT P6SM SCT035 BKN060
                      TEMPO 2400/2404 -SHRA FM240400 14006KT P6SM
                       SCT028 BKN060 BKN110 FM241200 VRB03KT P6SM
                       SCT060 BKN110=
201410231501 TAF AMD KBLI 231501Z 2315/2412 15013G22KT P6SM -SHRA SCT035 SCT050
                       OVC090
                      TEMPO 2315/2318 5SM SHRA BKN035 OVC050 FM231800
                       16008KT P6SM -SHRA SCT025 BKN035 BKN050
                       FM240200 16008KT P6SM SCT035 BKN060=
201410231132 TAF KBLI 231132Z 2312/2412 16008KT P6SM SCT025 BKN045 BKN060 FM231800
                       16008KT P6SM -SHRA SCT025 BKN035 BKN050
                       FM240200 16008KT P6SM SCT035 BKN060=
201410230538 TAF KBLI 230538Z 2306/2406 18012G20KT P6SM SCT022 BKN035 OVC050
                       TEMPO 2306/2310 -SHRA BKN022 OVC035 FM231000
                       18010KT P6SM SCT025 BKN045 BKN060 FM231700
                       16008KT P6SM -SHRA SCT025 BKN035 BKN050
                       FM240200 16008KT P6SM SCT035 BKN060=
201410230305 TAF AMD KBLI 230305Z 2303/2324 14014G24KT P6SM BKN035 OVC050 FM230600
                       17012KT P6SM -SHRA SCT025 BKN040 OVC060
                       FM232100 17010KT P6SM -SHRA SCT030 BKN050
                       BKN090
                      PROB30 2321/2324 5SM TSRA OVC025CB=
201410222350 TAF KBLI 222350Z 2300/2324 14009KT P6SM -RA SCT018 OVC035 FM230200
                       14009KT 5SM -RA BR BKN018 OVC030 FM230600
                       17012KT P6SM -SHRA SCT018 BKN030 OVC050
                       FM232100 17010KT P6SM -SHRA SCT030 BKN050
                       BKN090
                      PROB30 2321/2324 5SM TSRA OVC025CB=
201410222100 TAF AMD KBLI 222100Z 2221/2318 17009KT P6SM SCT022 OVC040
                      TEMPO 2221/2224 -RA BKN022 OVC040 FM230000
                       17013KT P6SM -RA BKN022 OVC040
                      TEMPO 2300/2304 4SM RA BR OVC015 FM230600
                       17010KT P6SM -SHRA BKN028 OVC050 FM231500
                       17007KT P6SM -SHRA BKN035 OVC050=
201410222005 TAF AMD KBLI 222005Z 2220/2318 17013KT P6SM -RA BKN022 OVC040
                      TEMPO 2300/2304 4SM RA BR OVC015 FM230600
                       17010KT P6SM -SHRA BKN028 OVC050 FM231500
                       17007KT P6SM -SHRA BKN035 OVC050=
201410221720 TAF KBLI 221720Z 2218/2318 15013G20KT P6SM BKN018 BKN040
                      TEMPO 2218/2220 -RA FM222000 15013G20KT P6SM
                       -RA BKN022 OVC040
                      TEMPO 2300/2304 4SM RA BR OVC015 FM230600
                       17010KT P6SM -SHRA BKN028 OVC050 FM231500
                       17007KT P6SM -SHRA BKN035 OVC050=
201410221522 TAF AMD KBLI 221522Z 2215/2312 15013G22KT P6SM BKN020 BKN040
                      TEMPO 2215/2218 -SHRA FM222200 19008KT P6SM
                       BKN030 OVC050=
201410221120 TAF KBLI 221120Z 2212/2312 15018G30KT P6SM -RA OVC035 FM221500
                       17010KT P6SM -RA OVC025 FM222200 19008KT
                       P6SM BKN030 OVC050=
201410220520 TAF KBLI 220520Z 2206/2306 15020G30KT P6SM -RA OVC050 FM220700
                       16022G30KT P6SM -RA OVC035 FM221000 15025G38KT
                       5SM RA BR OVC020 FM221600 15020G30KT P6SM
                       -RA OVC025 FM230000 16015G22KT P6SM -RA
                       OVC022=
201410212320 TAF KBLI 212320Z 2200/2224 16012G20KT P6SM SCT035 OVC080 FM220100
                       16015G25KT P6SM -RA OVC035 FM220400 15020G30KT
                       P6SM RA OVC035 FM221000 14022G34KT 4SM RA
                       BR OVC020=
201410211723 TAF KBLI 211723Z 2118/2218 16012G20KT P6SM FEW035 SCT080 BKN150
                       FM220100 16015G25KT P6SM -RA OVC035 FM220400
                       15020G30KT P6SM RA OVC035 FM221000 14022G34KT
                       4SM RA BR OVC020=
201410211120 TAF KBLI 211120Z 2112/2212 15012G20KT P6SM -SHRA OVC025 FM211900
                       15015G25KT P6SM -SHRA OVC030 FM212200 16015G25KT
                       P6SM -RA OVC035 FM220400 15020G30KT P6SM
                       RA OVC035=
201410210803 TAF AMD KBLI 210803Z 2108/2206 16012KT P6SM VCSH SCT028 OVC050
                       TEMPO 2108/2111 -SHRA OVC028 FM211100 15012KT
                       P6SM VCSH OVC025 FM211800 16013G20KT P6SM
                       OVC030 FM212100 16015G25KT P6SM -RA OVC035
                       FM220300 15020G30KT P6SM RA OVC035=
201410210529 TAF KBLI 210529Z 2106/2206 16008KT P6SM -SHRA SCT028 OVC040 FM210900
                       15010KT P6SM VCSH OVC025 FM211800 16013G20KT
                       P6SM OVC030 FM212100 16015G25KT P6SM -RA
                       OVC035 FM220300 15020G30KT P6SM RA OVC035=
201410210300 TAF AMD KBLI 210300Z 2103/2124 14007KT P6SM -SHRA SCT028 OVC060
                       TEMPO 2103/2105 2SM +SHRA OVC028 FM210900
                       15010KT P6SM VCSH OVC035 FM211800 16013G20KT
                       P6SM OVC030=
201410210215 TAF AMD KBLI 210215Z 2102/2124 14007KT P6SM -SHRA SCT028 OVC060
                       TEMPO 2102/2105 SHRA OVC028 FM210900 15010KT
                       P6SM VCSH OVC035 FM211800 16013G20KT P6SM
                       OVC030=
201410210134 TAF AMD KBLI 210134Z 2102/2124 15005KT P6SM -SHRA BKN028 OVC060
                       FM211200 15010KT P6SM VCSH OVC035 FM211800
                       16013G20KT P6SM OVC030=
201410202324 TAF KBLI 202324Z 2100/2124 17006KT P6SM VCSH SCT035 BKN040 FM210100
                       15005KT P6SM -SHRA BKN040 OVC060 FM211200
                       15010KT P6SM VCSH OVC035 FM211800 16013G20KT
                       P6SM OVC030=
201410201727 TAF KBLI 201727Z 2018/2118 17010G18KT P6SM -RA OVC020
                      TEMPO 2018/2021 4SM RA BR OVC015 FM202100
                       17006KT P6SM -SHRA OVC040 FM210000 15005KT
                       P6SM -SHRA BKN040 OVC060 FM211200 15010KT
                       P6SM VCSH OVC035=
201410201120 TAF KBLI 201120Z 2012/2112 17010G18KT P6SM -RA OVC030
                      TEMPO 2012/2016 4SM -RA BR OVC022 FM202100
                       17006KT P6SM -SHRA OVC040 FM210000 14005KT
                       P6SM VCSH BKN040 OVC060=
201410201006 TAF AMD KBLI 201006Z 2010/2106 14012G22KT P6SM -RA OVC050
                      TEMPO 2011/2015 4SM -RA BR OVC030 FM201500
                       17008KT P6SM -RA BKN030 BKN040 FM201800
                       17006KT P6SM -SHRA BKN030 OVC050=
201410200706 TAF AMD KBLI 200706Z 2007/2106 17010KT 4SM -RA BR OVC040 FM201000
                       17008KT 4SM -RA BR OVC025 FM201800 17006KT
                       P6SM -SHRA BKN030 OVC050=
201410200520 TAF KBLI 200520Z 2006/2106 17012G22KT P6SM -RA BKN060 OVC100 FM200700
                       17012G22KT P6SM -RA OVC040 FM200900 17012KT
                       4SM -RA BR OVC025 FM201800 17006KT P6SM
                       -SHRA BKN030 OVC050=
201410200342 TAF AMD KBLI 200342Z 2004/2024 17012G22KT P6SM -RA BKN050 OVC100
                       FM200700 17010KT 4SM -RA BR OVC025 FM201800
                       13006KT P6SM -SHRA BKN030 OVC050=
201410192321 TAF KBLI 192321Z 2000/2024 15018G28KT P6SM SCT070 BKN120 FM200300
                       17008KT P6SM -RA BKN050 OVC100 FM200600
                       17008KT 4SM -RA BR OVC025 FM201800 13006KT
                       P6SM -SHRA BKN030 OVC050=
201410191722 TAF KBLI 191722Z 1918/2018 13004KT P6SM SCT070 BKN120 FM192300
                       16008KT P6SM OVC050
                      TEMPO 2001/2003 -RA FM200300 17008KT P6SM
                       -RA OVC050 FM200500 17008KT 4SM -RA BR OVC025=
201410191120 TAF KBLI 191120Z 1912/2012 VRB03KT P6SM BKN070 BKN150 FM191900
                       13005KT P6SM BKN060 BKN150 FM200400 17010KT
                       P6SM -RA OVC045 FM200800 17010KT 5SM -RA
                       BR OVC025=
201410190525 TAF KBLI 190525Z 1906/2006 VRB03KT P6SM BKN070 BKN150 FM191900
                       16008KT P6SM BKN050 BKN150 FM200300 17010KT
                       P6SM -RA OVC045 FM200500 17010KT P6SM -RA
                       OVC025=
201410182320 TAF KBLI 182320Z 1900/1924 17006KT P6SM SCT035 BKN060
                      TEMPO 1900/1903 BKN035 OVC060 FM190400 VRB03KT
                       P6SM SCT040 BKN150 FM191900 16008KT P6SM
                       SCT050 BKN150=
201410181721 TAF KBLI 181721Z 1818/1918 16006KT P6SM BKN015 OVC040 FM182100
                       17008KT P6SM SCT030 BKN040 BKN150 FM190300
                       VRB04KT P6SM SCT040 BKN150=
201410181120 TAF KBLI 181120Z 1812/1912 16010KT P6SM VCSH OVC018
                      TEMPO 1812/1816 -SHRA BKN015 FM181700 16009KT
                       P6SM SCT025 BKN040 FM182100 17007KT P6SM
                       SCT030 BKN040 BKN150 FM190300 VRB04KT P6SM
                       SCT040 BKN150=
201410180524 TAF KBLI 180524Z 1806/1906 16012G22KT P6SM -SHRA OVC025 FM181000
                       16009KT P6SM VCSH SCT018 OVC022 FM182000
                       17007KT P6SM SCT030=
201410172335 TAF KBLI 172335Z 1800/1824 13012KT P6SM -RA SCT035 OVC045 FM180300
                       16012G22KT P6SM -SHRA BKN030 OVC045 FM180700
                       16009KT P6SM -SHRA SCT018 OVC025 FM181600
                       16009KT P6SM SCT018 BKN030 FM182000 17007KT
                       P6SM SCT030=
201410171741 TAF KBLI 171741Z 1718/1818 07004KT P6SM -RA SCT045 OVC060 FM172200
                       14012KT P6SM -RA SCT035 OVC045 FM180100
                       16012G22KT P6SM -SHRA BKN030 OVC045 FM180700
                       16009KT P6SM -SHRA SCT018 OVC025 FM181600
                       16009KT P6SM SCT018 BKN030=
201410171121 TAF KBLI 171121Z 1712/1812 02006KT P6SM -RA BKN060 OVC090 FM171500
                       12010KT P6SM -RA BKN030 OVC050 FM172100
                       14015G25KT P6SM -RA BKN025 OVC045
                      TEMPO 1721/1801 4SM RA BR OVC025 FM180100
                       17010KT P6SM -SHRA BKN030 OVC045 FM180700
                       15010KT P6SM VCSH OVC025=
201410170910 TAF AMD KBLI 170910Z 1709/1806 02006KT P6SM SCT090 OVC150 FM171000
                       06008KT P6SM -RA BKN060 OVC090 FM171500
                       08012KT P6SM -RA BKN030 OVC050 FM172100
                       14015G25KT P6SM -RA BKN025 OVC045
                      TEMPO 1721/1801 4SM RA BR OVC025 FM180100
                       17010KT P6SM -SHRA BKN030 OVC045=
201410170539 TAF KBLI 170539Z 1706/1806 02006KT P6SM SCT090 OVC150 FM171200
                       06008KT P6SM -RA OVC050 FM171500 08012KT
                       P6SM -RA BKN030 OVC050 FM172100 14015G25KT
                       P6SM -RA BKN025 OVC045
                      TEMPO 1721/1801 4SM RA BR OVC025 FM180100
                       17010KT P6SM -SHRA BKN030 OVC045=
201410162333 TAF KBLI 162333Z 1700/1724 03007KT P6SM SCT090 SCT250 FM170100
                       VRB04KT P6SM BKN200 FM170500 11006KT P6SM
                       BKN090 OVC200 FM171200 12009G15KT P6SM -RA
                       OVC050 FM171500 10012G22KT 4SM -RA BKN025
                       OVC050 FM172100 14015G25KT P6SM -RA BKN025
                       OVC045=
201410161728 TAF KBLI 161728Z 1618/1718 05004KT P6SM BKN070 BKN100 OVC200 FM170100
                       VRB04KT P6SM BKN200 FM170500 11006KT P6SM
                       BKN090 OVC200 FM171200 12009KT P6SM -RA
                       OVC050 FM171500 10012KT 4SM -RA BKN025 OVC050=
201410161122 TAF KBLI 161122Z 1612/1712 14012G20KT P6SM OVC035 FM162000 14007KT
                       P6SM SCT050 SCT100 BKN200 FM170300 13006KT
                       P6SM BKN090 OVC150 FM170900 10005KT P6SM
                       OVC090 FM171100 10005KT P6SM -RA OVC070=
201410160532 TAF KBLI 160532Z 1606/1706 16010KT P6SM OVC035 FM162000 16007KT
                       P6SM SCT050 BKN200 FM170300 15006KT P6SM
                       BKN090 OVC150=
201410152331 TAF KBLI 152331Z 1600/1624 17011G19KT P6SM VCSH FEW035 BKN050 OVC060
                       FM160400 16009KT P6SM OVC015 FM161400 15008KT
                       P6SM BKN050 FM162000 16007KT P6SM SCT050
                       BKN200=
201410151727 TAF KBLI 151727Z 1518/1618 14010G15KT P6SM -SHRA OVC022 FM152200
                       17010G18KT P6SM -SHRA BKN035 OVC050 FM160600
                       18004KT P6SM VCSH BKN040=
201410151504 TAF AMD KBLI 151504Z 1515/1612 36003KT P6SM SCT040 BKN050 OVC070
                       FM151600 16006KT P6SM -SHRA BKN040 OVC060
                       FM152200 17010KT P6SM -SHRA BKN035 OVC050
                       FM160600 18004KT P6SM VCSH BKN040=
201410151123 TAF KBLI 151123Z 1512/1612 18005KT P6SM -SHRA BKN040 OVC080
                      TEMPO 1512/1516 4SM -SHRA BR SCT005 BKN025
                       FM151800 16006KT P6SM -SHRA BKN050 BKN070
                       FM160600 18004KT P6SM VCSH BKN040=
201410150527 TAF KBLI 150527Z 1506/1606 18005KT P6SM SCT040 BKN080 FM150900
                       VRB03KT P6SM VCSH BKN040 BKN060 FM151200
                       VRB05KT P6SM -SHRA OVC040 FM151800 16008KT
                       P6SM -SHRA BKN030 OVC050=
201410142320 TAF KBLI 142320Z 1500/1524 18005KT P6SM BKN030 BKN050 FM150900
                       VRB03KT P6SM VCSH BKN020 BKN040
                      TEMPO 1512/1516 -SHRA OVC020 FM151700 16008KT
                       P6SM -SHRA BKN030 OVC050=
201410141730 TAF KBLI 141730Z 1418/1518 11005KT P6SM SCT020 BKN030 OVC050 FM150000
                       18005KT P6SM VCSH BKN030 BKN050 FM150900
                       VRB03KT P6SM VCSH BKN020 BKN040
                      TEMPO 1512/1516 -SHRA OVC020 FM151700 16008KT
                       P6SM -SHRA BKN030 OVC050=
201410141126 TAF KBLI 141126Z 1412/1512 17004KT P6SM -SHRA FEW025 BKN060 FM141600
                       18005KT P6SM VCSH SCT030 BKN060 FM141800
                       18005KT P6SM SCT035 BKN050 OVC070 FM150000
                       18005KT P6SM VCSH BKN030 BKN050=
201410140527 TAF KBLI 140527Z 1406/1506 17011KT P6SM -RA OVC020
                      TEMPO 1406/1410 4SM RA FEW005 BKN012 FM141000
                       17005KT 5SM -RA BR FEW008 OVC015 FM141800
                       VRB03KT P6SM VCSH BKN025 OVC050 FM142100
                       VRB03KT P6SM SCT035 BKN050 OVC070=
201410140305 TAF AMD KBLI 140305Z 1403/1424 17011KT P6SM -RA OVC020
                      TEMPO 1403/1406 3SM RA SCT005 OVC015 FM140900
                       17005KT 5SM -RA BR FEW008 OVC015 FM141800
                       VRB03KT P6SM -RA BKN025 OVC050 FM142100
                       VRB03KT P6SM -RA SCT035 BKN050 OVC070=
201410132332 TAF KBLI 132332Z 1400/1424 17015G25KT P6SM -RA SCT028 OVC050 FM140200
                       17011KT P6SM -RA FEW015 OVC028 FM140900
                       17005KT 5SM -RA BR FEW008 OVC015 FM141800
                       VRB03KT P6SM -RA BKN025 OVC050 FM142100
                       VRB03KT P6SM -RA SCT035 BKN050 OVC070=
201410132210 TAF AMD KBLI 132210Z 1322/1418 17020G30KT P6SM VCSH SCT050 OVC110
                       TEMPO 1322/1323 -RA BKN050 OVC110 FM132300
                       17015G25KT P6SM -RA SCT028 OVC050 FM140200
                       17010KT P6SM -RA FEW015 OVC028 FM140900
                       17005KT 5SM -RA BR FEW008 OVC015=
201410131746 TAF KBLI 131746Z 1318/1418 10006KT P6SM SCT110 OVC200 FM132100
                       14015G25KT P6SM VCSH SCT050 OVC110
                      TEMPO 1321/1323 -RA BKN050 OVC110 FM132300
                       17015G25KT P6SM -RA SCT028 OVC050 FM140200
                       17010KT P6SM -RA FEW015 OVC028 FM140900
                       17005KT 5SM -RA BR FEW008 OVC015=
201410131520 TAF AMD KBLI 131520Z 1315/1412 05006KT P6SM VCSH BKN110 OVC200
                       FM131800 15012KT P6SM -RA OVC070 FM132100
                       16015G25KT P6SM VCSH BKN050 OVC080 FM132300
                       18015G25KT P6SM -RA OVC050 FM140500 18010KT
                       4SM -RA OVC025=
201410131129 TAF KBLI 131129Z 1312/1412 VRB04KT P6SM OVC070 FM131800 15012KT
                       P6SM SCT050 BKN120 FM132100 16015G25KT P6SM
                       VCSH BKN050 OVC080 FM132300 18015G25KT P6SM
                       -RA OVC050 FM140500 18010KT 4SM -RA OVC025=
201410130521 TAF KBLI 130521Z 1306/1406 VRB04KT P6SM -RA BKN040 OVC080 FM130900
                       15007KT P6SM OVC040 FM131800 15012KT P6SM
                       SCT050 BKN120 FM132200 16015G25KT P6SM -RA
                       BKN040 OVC070=
201410122320 TAF KBLI 122320Z 1300/1324 17007KT P6SM -RA BKN040 OVC080 FM130900
                       15007KT P6SM OVC040 FM131800 15012KT P6SM
                       SCT050 BKN120 FM132100 16015G25KT P6SM -RA
                       BKN040 OVC070=
201410122146 TAF AMD KBLI 122146Z 1222/1318 17007KT P6SM SCT050 OVC100 FM130000
                       16006KT P6SM BKN050 OVC100 FM130300 14005KT
                       P6SM -RA OVC050 FM130800 16007KT P6SM OVC050=
201410122032 TAF AMD KBLI 122032Z 1221/1318 17007KT P6SM BKN030 OVC150 FM122200
                       17007KT P6SM BKN045 BKN100 OVC150 FM130000
                       16006KT P6SM OVC060 FM130300 14005KT P6SM
                       -RA OVC050 FM130800 16007KT P6SM OVC050=
201410121741 TAF KBLI 121741Z 1218/1318 17007KT P6SM SCT050 OVC150 FM122100
                       17007KT P6SM BKN060 BKN100 OVC150 FM130000
                       16006KT P6SM OVC060 FM130300 14005KT P6SM
                       -RA OVC050 FM130800 16007KT P6SM OVC050=
201410121421 TAF AMD KBLI 121421Z 1214/1312 17004KT P6SM SCT010 BKN200
                      TEMPO 1214/1216 BKN010 BKN200 FM121800 17004KT
                       P6SM SCT050 BKN120 OVC200 FM122100 17007KT
                       P6SM SCT030 BKN050 BKN120 FM130300 15006KT
                       P6SM VCSH BKN030 OVC070=
201410121121 TAF KBLI 121121Z 1212/1312 17004KT P6SM BKN070 FM121800 17004KT
                       P6SM SCT050 BKN120 FM122100 17007KT P6SM
                       SCT030 BKN050 BKN120 FM130300 15006KT P6SM
                       VCSH BKN030 OVC070=
201410120521 TAF KBLI 120521Z 1206/1306 16007KT P6SM SCT020 SCT080
                      TEMPO 1208/1212 BKN020 FM121200 00000KT 2SM
                       BCFG BKN002 FM121600 17004KT P6SM SCT015
                       BKN140 FM122100 17007KT P6SM SCT030 BKN120=
201410112342 TAF KBLI 112342Z 1200/1224 16007KT P6SM SCT050 FM120600 VRB03KT
                       P6SM BKN050 FM121200 00000KT 2SM BCFG BKN002
                       FM121600 17004KT P6SM SCT015 BKN140 FM122100
                       17007KT P6SM SCT030 BKN120=
201410111741 TAF KBLI 111741Z 1118/1218 17010KT P6SM BKN040 OVC070
                      TEMPO 1119/1121 5SM -SHRA BKN020 OVC040 FM112100
                       20008KT P6SM VCSH SCT025 BKN050 BKN100 FM120200
                       18005KT P6SM BKN050 FM121000 VRB03KT P6SM
                       BKN012=
201410111453 TAF AMD KBLI 111453Z 1115/1212 17007KT P6SM -SHRA VCTS SCT020 BKN035CB
                       OVC050
                      TEMPO 1115/1118 5SM -SHRA BKN015 OVC030 FM111800
                       18008KT P6SM -SHRA VCTS BKN020CB BKN040
                       FM112100 20008KT P6SM VCSH BKN025 OVC060=
201410111120 TAF KBLI 111120Z 1112/1212 17007KT P6SM SCT020 BKN035
                      TEMPO 1112/1116 OVC012 FM111800 18008KT P6SM
                       VCSH SCT015 BKN040 FM112100 20008KT P6SM
                       VCSH BKN025 OVC060=
201410110520 TAF KBLI 110520Z 1106/1206 17007KT P6SM VCSH BKN030 OVC050 FM110900
                       18005KT 4SM BR OVC012 FM111400 18006KT P6SM
                       OVC015 FM111800 18008KT P6SM SCT015 BKN040=
201410102340 TAF KBLI 102340Z 1100/1124 17010KT P6SM VCSH BKN030 OVC090 FM110500
                       17007KT P6SM VCSH BKN020 OVC040 FM110900
                       18005KT 4SM BR OVC012 FM111400 18006KT P6SM
                       OVC015 FM111800 18008KT P6SM SCT015 BKN040=
201410102027 TAF AMD KBLI 102027Z 1020/1118 16010G18KT P6SM SCT005 OVC018 FM102200
                       18010KT P6SM SCT020 BKN025 OVC140 FM111000
                       18005KT 2SM BR OVC003=
201410101909 TAF AMD KBLI 101909Z 1019/1118 16010KT 6SM BR BKN003 OVC150 FM102000
                       17010KT P6SM BKN008 OVC150 FM102200 18008KT
                       P6SM SCT018 BKN025 OVC140 FM111000 18005KT
                       2SM BR OVC003=
201410101742 TAF KBLI 101742Z 1018/1118 16008KT 2SM BR BKN003 OVC150 FM102000
                       17008KT P6SM BKN008 OVC150 FM102200 18008KT
                       P6SM SCT018 BKN025 OVC140 FM111000 18005KT
                       2SM BR OVC003=
201410101644 TAF AMD KBLI 101644Z 1017/1112 16006KT P6SM BCFG BKN005 BKN150
                       TEMPO 1017/1018 1/2SM BCFG BKN003 BKN150
                       FM101800 16006KT P6SM BKN010 BKN150 FM102200
                       18008KT P6SM SCT018 BKN025 OVC140=
201410101120 TAF KBLI 101120Z 1012/1112 00000KT 1/4SM FG VV001 FM101600 16006KT
                       2SM BR BKN002 BKN150 FM101800 16006KT P6SM
                       BKN015 BKN100 FM102300 18008KT P6SM SCT018
                       BKN030 OVC045=
201410100540 TAF KBLI 100540Z 1006/1106 28004KT P6SM SCT200
                      TEMPO 1006/1009 4SM BR FM100900 00000KT 2SM
                       BR BKN002 FM101100 00000KT 1/2SM FG VV002
                       FM101700 16006KT 2SM BR BKN002 BKN150 FM101900
                       16006KT P6SM BKN015 BKN100 FM102300 18008KT
                       P6SM SCT018 BKN030 OVC045=
201410092330 TAF KBLI 092330Z 1000/1024 28004KT P6SM SCT200
                      TEMPO 1004/1007 1SM BR FM100700 00000KT 1/2SM
                       FG VV002 FM101700 16006KT 2SM BR BKN002
                       BKN150 FM102000 16006KT P6SM BKN010 BKN100
                       FM102300 18008KT P6SM -DZ OVC015=
201410091720 TAF KBLI 091720Z 0918/1018 VRB03KT 6SM HZ SCT005 SCT200
                      TEMPO 0918/0921 2SM BR BKN005 BKN200 FM092100
                       VRB03KT 6SM HZ SCT200
                      TEMPO 1005/1008 2SM BR BKN002 FM100800 00000KT
                       1/2SM FG VV001 FM101700 18006KT 3SM BR BKN003
                       BKN150=
201410091349 TAF AMD KBLI 091349Z 0914/1012 00000KT 6SM BR OVC011
                      TEMPO 0914/0916 1/4SM FG VV001 FM091600 VRB03KT
                       4SM BR BKN004 FM091900 28004KT 6SM HZ SKC
                       FM100200 00000KT P6SM SKC FM100900 00000KT
                       1/2SM FG VV001=
201410091120 TAF KBLI 091120Z 0912/1012 00000KT 1/4SM FG VV002 FM091600 VRB03KT
                       4SM BR BKN004 FM091900 28004KT 6SM HZ SKC
                       FM100200 00000KT P6SM SKC FM100900 00000KT
                       1/2SM FG VV001=
201410090738 TAF AMD KBLI 090738Z 0908/1006 00000KT 1/2SM FG VV002 FM091600
                       VRB03KT 4SM BR BKN004 FM091900 28004KT P6SM
                       SKC FM100200 00000KT P6SM SKC=
201410090520 TAF KBLI 090520Z 0906/1006 00000KT 4SM BR SKC FM090800 00000KT
                       2SM BR SCT002 FM091000 00000KT 1/4SM FG
                       VV001 FM091600 VRB03KT 4SM BR BKN004 FM091900
                       28004KT P6SM SKC FM100200 00000KT P6SM SKC=
201410090407 TAF AMD KBLI 090407Z 0904/0924 00000KT 4SM BR SKC FM090800 00000KT
                       2SM BR SCT002 FM091000 00000KT 1/4SM FG
                       VV001 FM091700 VRB04KT P6SM SKC=
201410082320 TAF KBLI 082320Z 0900/0924 VRB03KT P6SM SCT015 BKN150 FM090300
                       VRB03KT P6SM SCT150 FM091000 00000KT 2SM
                       BR SCT002
                      TEMPO 0914/0916 1/2SM FG VV002 FM091700 VRB04KT
                       P6SM SKC=
201410082008 TAF AMD KBLI 082008Z 0820/0918 00000KT 4SM BR BKN008 BKN150 FM082200
                       VRB03KT P6SM SCT010 BKN150 FM090300 VRB03KT
                       P6SM SCT150 FM091000 00000KT 2SM BR SCT002
                       TEMPO 0914/0916 1/2SM FG VV002 FM091700
                       35007KT P6SM SKC=
201410081720 TAF KBLI 081720Z 0818/0918 00000KT 4SM BR BKN004 BKN150 FM082100
                       VRB03KT P6SM SCT010 BKN150 FM090300 VRB03KT
                       P6SM SCT150 FM091000 00000KT 2SM BR SCT002
                       TEMPO 0914/0916 1/2SM FG VV002 FM091700
                       35007KT P6SM SKC=
201410081502 TAF AMD KBLI 081502Z 0815/0912 00000KT 3SM BR BKN003 BKN150
                      TEMPO 0815/0817 1/2SM FG VV002 FM081800 00000KT
                       P6SM SCT010 BKN150 FM082200 VRB04KT P6SM
                       BKN120 FM090900 00000KT 1/2SM FG VV001=
201410081335 TAF AMD KBLI 081335Z 0814/0912 17005KT 3/4SM BR VV002 FM081500
                       VRB03KT 3SM BR BKN003 BKN150 FM081800 00000KT
                       P6SM SCT010 BKN150 FM082200 VRB04KT P6SM
                       BKN120 FM090900 00000KT 1/2SM FG VV001=
201410081120 TAF KBLI 081120Z 0812/0912 17005KT 1/4SM FG VV001 FM081500 VRB03KT
                       3SM BR BKN003 BKN150 FM081800 00000KT P6SM
                       SCT010 BKN150 FM082200 VRB04KT P6SM BKN120
                       FM090900 00000KT 1/2SM FG VV001=
201410080639 TAF AMD KBLI 080639Z 0807/0906 17004KT 1/4SM FG VV001 FM081200
                       00000KT 3SM BR SCT008 BKN150 FM081800 00000KT
                       P6SM SCT010 BKN150 FM082200 VRB04KT P6SM
                       BKN120=
201410080522 TAF AMD KBLI 080522Z 0805/0906 17006KT 1/2SM FG VV001 FM081200
                       00000KT 3SM BR SCT008 BKN150 FM081800 00000KT
                       P6SM SCT010 BKN150 FM082200 VRB04KT P6SM
                       BKN120=
201410080520 TAF KBLI 080520Z 0806/0906 17004KT 1/2SM FG VCFG VV002 FM081200
                       00000KT 3SM BR SCT008 BKN150 FM081800 00000KT
                       P6SM SCT010 BKN150 FM082200 VRB04KT P6SM
                       BKN120 FM090300 00000KT P6SM SCT120=
201410080434 TAF AMD KBLI 080434Z 0805/0824 00000KT P6SM VCFG BKN180
                      TEMPO 0805/0808 1SM BR BKN001 FM080800 00000KT
                       3SM BR SCT008 BKN120 FM082000 00000KT P6SM
                       SCT010 BKN120 FM082200 VRB04KT P6SM BKN150=
201410080304 TAF AMD KBLI 080304Z 0803/0824 00000KT P6SM BKN180
                      TEMPO 0803/0806 3SM BR FM080600 00000KT 3SM
                       BR SCT008 BKN120 FM082000 00000KT P6SM SCT010
                       BKN120 FM082200 VRB04KT P6SM BKN150=
201410080144 TAF AMD KBLI 080144Z 0802/0824 00000KT 3SM BR FEW006
                      TEMPO 0802/0806 3SM BR BKN006 FM080600 00000KT
                       1/2SM FG VV001 FM082000 00000KT P6SM SCT010
                       BKN200 FM082200 VRB04KT P6SM BKN150=
201410072320 TAF KBLI 072320Z 0800/0824 15006KT P6SM SCT005
                      TEMPO 0802/0806 3SM BR BKN005 FM080600 00000KT
                       1/2SM FG VV001 FM082000 00000KT P6SM SCT010
                       BKN200 FM082200 VRB04KT P6SM BKN150=
201410072003 TAF AMD KBLI 072003Z 0720/0818 00000KT 5SM BR OVC005 FM072200 VRB03KT
                       P6SM SCT005
                      TEMPO 0803/0806 2SM BR BKN005 FM080600 00000KT
                       1/2SM FG VV001=
201410071720 TAF KBLI 071720Z 0718/0818 00000KT 5SM BR OVC005
                      TEMPO 0718/0720 2SM BR OVC002 FM072000 VRB03KT
                       P6SM SCT010 FM072200 VRB03KT P6SM SKC FM080600
                       00000KT 1/2SM FG VV001=
201410071317 TAF AMD KBLI 071317Z 0713/0812 00000KT 1SM BR VCFG VV003
                      TEMPO 0713/0716 1/4SM FG VV001 FM071700 21003KT
                       P6SM SCT050 FM072100 24004KT P6SM SKC FM080800
                       VRB03KT 5SM BR VCFG SCT120=
201410071120 TAF KBLI 071120Z 0712/0812 00000KT 2SM BR VCFG BKN003
                      TEMPO 0712/0715 1/2SM FG VV001 FM071700 21003KT
                       P6SM SCT050 FM072100 24004KT P6SM SKC FM080800
                       VRB03KT 5SM BR VCFG SCT120=
201410071023 TAF AMD KBLI 071023Z 0710/0806 00000KT P6SM VCFG SCT045
                      TEMPO 0711/0715 1/2SM FG VV001 FM071700 21003KT
                       P6SM SCT050 FM072100 24004KT P6SM SKC=
201410070901 TAF AMD KBLI 070901Z 0709/0806 00000KT 1/2SM FG VV005 FM071100
                       00000KT 1/4SM FG VV001 FM071700 21003KT
                       P6SM BKN005 FM071900 24004KT P6SM SCT010
                       FM072100 24004KT P6SM SKC=
201410070721 TAF AMD KBLI 070721Z 0707/0806 00000KT 6SM BR BKN050 FM070900 00000KT
                       3SM BR SCT001 SCT050 FM071100 00000KT 1/4SM
                       FG VV001 FM071700 21003KT P6SM BKN005 FM071900
                       24004KT P6SM SCT010 FM072100 24004KT P6SM
                       SKC=
201410070524 TAF KBLI 070524Z 0706/0806 00000KT 6SM BR BKN050 FM070700 00000KT
                       4SM BR SCT004 SCT050 FM070900 00000KT 1/4SM
                       FG VV001 FM071700 21003KT P6SM BKN005 FM071900
                       24004KT P6SM SCT010 FM072100 24004KT P6SM
                       SKC=
201410062320 TAF KBLI 062320Z 0700/0724 VRB04KT P6SM SCT010 FM070600 21005KT
                       3SM BR BKN003
                      TEMPO 0706/0710 1/2SM FG VV002 FM071000 00000KT
                       1/4SM FG VV001
                      TEMPO 0714/0717 3SM BR BKN003 FM071700 21005KT
                       P6SM BKN005 FM071900 33006KT P6SM SCT010
                       FM072100 33006KT P6SM SKC=
201410062011 TAF AMD KBLI 062011Z 0620/0718 VRB04KT P6SM BKN007
                      TEMPO 0620/0623 SCT010 FM062300 21005KT P6SM
                       SCT010 SCT040 SCT200 FM070800 21005KT 4SM
                       BR OVC004
                      TEMPO 0708/0712 1/2SM FG VV002 FM071700 21005KT
                       P6SM BKN007=
201410061824 TAF AMD KBLI 061824Z 0618/0718 VRB04KT P6SM SCT007
                      TEMPO 0618/0620 BKN007 FM062100 21005KT P6SM
                       SCT040 SCT200 FM070800 21005KT 4SM BR OVC004
                       TEMPO 0708/0712 1/2SM FG VV002 FM071700
                       21005KT P6SM BKN007=
201410061733 TAF KBLI 061733Z 0618/0718 VRB04KT P6SM SCT010 SCT040 SCT200 FM062100
                       21005KT P6SM SCT040 SCT200 FM070800 21005KT
                       4SM BR OVC004
                      TEMPO 0708/0712 1/2SM FG VV002 FM071700 21005KT
                       P6SM BKN007=
201410061443 TAF AMD KBLI 061443Z 0615/0712 00000KT P6SM VCFG SCT003 SCT200
                       FM061800 21005KT P6SM BKN200 FM070600 18008KT
                       P6SM SCT005 FM070800 18006KT 2SM BR OVC005=
201410061212 TAF AMD KBLI 061212Z 0612/0712 VRB03KT P6SM VCFG SCT003 SCT060
                       FM061400 VRB03KT 4SM BR BKN003
                      TEMPO 0614/0617 1/2SM FG VV001 FM061700 18004KT
                       4SM BR BKN012 FM061800 18004KT P6SM SCT050
                       BKN200
                      TEMPO 0618/0622 BKN050 BKN200 FM071000 00000KT
                       4SM BR OVC010=
201410061130 TAF KBLI 061130Z 0612/0712 20005KT 4SM BR BKN001
                      TEMPO 0613/0617 1/2SM FG VV002 FM061700 18004KT
                       4SM BR BKN012 FM061800 18004KT P6SM SCT050
                       BKN200
                      TEMPO 0618/0622 BKN050 BKN200 FM071000 00000KT
                       4SM BR OVC010=
201410060905 TAF AMD KBLI 060905Z 0609/0706 00000KT 1SM BR SKC
                      TEMPO 0610/0614 1/2SM FG VV002 FM061700 18005KT
                       4SM BR BKN012 FM061900 29003KT P6SM OVC050=
201410060530 TAF KBLI 060530Z 0606/0706 00000KT P6SM SCT100
                      TEMPO 0610/0613 2SM BR=
201410052322 TAF KBLI 052322Z 0600/0624 00000KT P6SM SCT200
                      TEMPO 0610/0613 2SM BR=
201410051732 TAF KBLI 051732Z 0518/0618 00000KT P6SM BKN045 FM052200 00000KT
                       P6SM SCT040 SCT200=
201410051120 TAF KBLI 051120Z 0512/0612 00000KT 6SM BR OVC040 FM051800 00000KT
                       P6SM SCT040 SCT200=
201410050919 TAF AMD KBLI 050919Z 0509/0606 00000KT 4SM BR OVC040 FM051800 00000KT
                       P6SM SCT200=
201410050524 TAF KBLI 050524Z 0506/0606 00000KT P6SM BKN040 OVC080 FM051500
                       00000KT P6SM SCT200=
201410042334 TAF KBLI 042334Z 0500/0524 00000KT P6SM VCSH OVC050 FM050400 00000KT
                       P6SM SCT050 BKN100 FM051400 00000KT P6SM
                       SCT200=
201410041739 TAF KBLI 041739Z 0418/0518 00000KT P6SM VCSH OVC060 FM050200 00000KT
                       P6SM OVC100 FM051400 00000KT P6SM SCT200=
201410041120 TAF KBLI 041120Z 0412/0512 00000KT P6SM VCSH OVC080
                      TEMPO 0412/0416 5SM BR FM050200 00000KT P6SM
                       OVC100=
201410040528 TAF KBLI 040528Z 0406/0506 00000KT P6SM SCT120 OVC200 FM040800
                       00000KT P6SM VCSH OVC100 FM041200 20002KT
                       P6SM OVC050 FM050200 00000KT P6SM OVC100=
201410032330 TAF KBLI 032330Z 0400/0424 VRB03KT P6SM BKN200 FM041200 VRB03KT
                       P6SM BKN100 OVC200=
201410031738 TAF KBLI 031738Z 0318/0418 VRB03KT P6SM BKN200 FM040800 VRB03KT
                       P6SM BKN100 OVC200=
201410031120 TAF KBLI 031120Z 0312/0412 00000KT P6SM BKN200 FM031900 VRB03KT
                       P6SM SCT200 FM032300 18003KT P6SM SCT070
                       OVC200=
201410030520 TAF KBLI 030520Z 0306/0406 08003KT P6SM BKN200 FM031000 00000KT
                       P6SM MIFG OVC080 FM031500 VRB03KT P6SM SCT070
                       BKN200=
201410022320 TAF KBLI 022320Z 0300/0324 23005KT P6SM OVC100 FM030400 00000KT
                       P6SM OVC080 FM031000 00000KT P6SM MIFG OVC080
                       FM031500 VRB03KT P6SM SCT070 BKN200=
201410021735 TAF KBLI 021735Z 0218/0318 VRB04KT P6SM SCT150 FM022100 23005KT
                       P6SM BKN150 FM030300 00000KT P6SM BKN080=
201410021451 TAF AMD KBLI 021451Z 0215/0312 00000KT P6SM MIFG SCT150 FM021700
                       VRB04KT P6SM SCT150 FM022100 23005KT P6SM
                       BKN150 FM031000 00000KT 4SM BR SCT005 SCT060=
201410021132 TAF KBLI 021132Z 0212/0312 00000KT P6SM SCT070
                      TEMPO 0213/0217 2SM BCFG BKN002 BKN070 FM021700
                       VRB04KT P6SM SCT070 SCT150 FM031000 00000KT
                       4SM BR SCT005 SCT060=
201410020531 TAF KBLI 020531Z 0206/0306 00000KT P6SM OVC080 FM020900 00000KT
                       P6SM MIFG SCT100
                      TEMPO 0212/0215 2SM BCFG BKN001 BKN100 FM021600
                       VRB04KT P6SM SCT100 SCT250=
201410012320 TAF KBLI 012320Z 0200/0224 18007KT P6SM BKN060 FM020300 17004KT
                       P6SM SCT060 FM020900 00000KT P6SM MIFG SCT100
                       TEMPO 0212/0215 2SM BCFG BKN001 BKN100 FM021600
                       VRB04KT P6SM SCT100 SCT250=
201410011732 TAF KBLI 011732Z 0118/0218 19007KT P6SM BKN060 FM012000 20007KT
                       P6SM BKN080 FM020100 VRB03KT P6SM BKN080=
201410011140 TAF KBLI 011140Z 0112/0212 VRB03KT P6SM SCT050 BKN080 BKN200 FM011800
                       18009KT P6SM SCT080 BKN200 FM020000 VRB03KT
                       P6SM SCT090 BKN200 FM020800 00000KT P6SM
                       BCFG FEW005 BKN200=
201410010902 TAF AMD KBLI 010902Z 0109/0206 17005KT P6SM BKN070 FM011200 17005KT
                       P6SM OVC020 FM011700 17009KT P6SM BKN025
                       BKN200 FM011900 19009KT P6SM FEW035 SCT090
                       BKN200 FM020000 VRB03KT P6SM SCT090 BKN200=
201410010540 TAF KBLI 010540Z 0106/0206 17005KT P6SM OVC050 FM010900 17005KT
                       P6SM FEW020 BKN035 FM011200 17005KT P6SM
                       OVC020 FM011700 17009KT P6SM BKN025 BKN200
                       FM011900 19009KT P6SM FEW035 SCT090 BKN200
                       FM020000 VRB03KT P6SM SCT090 BKN200=
201410010305 TAF AMD KBLI 010305Z 0103/0124 VRB03KT P6SM SCT080 FM011200 18007KT
                       P6SM BKN015 BKN040 FM011800 18007KT P6SM
                       SCT020 BKN050 BKN200=