##########################################################
# Query made at 02/16/2025 20:39:33 UTC
# Time interval: from 05/01/2014 00:00  to 05/31/2014 23:59  UTC
##########################################################

##########################################################
# KBLI, Bellingham, Bellingham International Airport (United States)
# WMO index: -----. WIGOS ID: Unknown
# Latitude 48-47-58N. Longitude 122-32-21W. Altitude 48 m.
##########################################################

###################################
#  METAR/SPECI from KBLI
###################################
201405312353 METAR KBLI 312353Z VRB03KT 10SM CLR 21/08 A3003 RMK AO2 SLP175 60001 T02110083 10217 20167 56008=
201405312253 METAR KBLI 312253Z 19005KT 10SM CLR 21/09 A3003 RMK AO2 SLP176 T02110089=
201405312153 METAR KBLI 312153Z 28005KT 10SM CLR 20/10 A3005 RMK AO2 SLP181 P0001 T02000100=
201405312053 METAR KBLI 312053Z 29007KT 10SM CLR 19/10 A3006 RMK AO2 SLP183 T01940100 58004=
201405311953 METAR KBLI 311953Z 26003KT 10SM CLR 19/09 A3006 RMK AO2 SLP186 T01940094=
201405311853 METAR KBLI 311853Z VRB05KT 10SM CLR 18/11 A3007 RMK AO2 SLP188 T01830111=
201405311753 METAR KBLI 311753Z VRB06KT 10SM CLR 17/10 A3007 RMK AO2 SLP188 T01670100 10167 20078 51002=
201405311653 METAR KBLI 311653Z 17005KT 10SM CLR 16/09 A3007 RMK AO2 SLP188 T01560089=
201405311553 METAR KBLI 311553Z 19005KT 10SM CLR 14/09 A3007 RMK AO2 SLP189 T01390089=
201405311453 METAR KBLI 311453Z 17005KT 10SM CLR 13/09 A3006 RMK AO2 SLP186 T01330089 51007=
201405311353 METAR KBLI 311353Z 00000KT 10SM CLR 12/10 A3006 RMK AO2 SLP183 T01170100=
201405311253 METAR KBLI 311253Z AUTO 00000KT 7SM CLR 09/08 A3005 RMK AO2 SLP181 T00890078=
201405311153 METAR KBLI 311153Z AUTO 00000KT 10SM CLR 08/07 A3004 RMK AO2 SLP180 70001 T00830067 10117 20078 53005=
201405311053 METAR KBLI 311053Z AUTO 00000KT 10SM CLR 09/07 A3003 RMK AO2 SLP175 T00940072=
201405310953 METAR KBLI 310953Z AUTO 00000KT 10SM CLR 10/08 A3002 RMK AO2 SLP173 T01000083=
201405310853 METAR KBLI 310853Z AUTO 00000KT 10SM CLR 10/08 A3002 RMK AO2 SLP173 T01000078 51001=
201405310753 METAR KBLI 310753Z 00000KT 10SM CLR 11/08 A3002 RMK AO2 SLP174 T01060083 402000050=
201405310653 METAR KBLI 310653Z 00000KT 10SM CLR 11/09 A3003 RMK AO2 SLP174 T01110094=
201405310553 METAR KBLI 310553Z 00000KT 10SM CLR 12/09 A3002 RMK AO2 SLP172 60001 T01170094 10200 20117 53008=
201405310453 METAR KBLI 310453Z 00000KT 10SM CLR 13/10 A3001 RMK AO2 SLP170 T01280100=
201405310353 METAR KBLI 310353Z 00000KT 10SM FEW002 15/10 A3000 RMK AO2 SLP165 T01500100=
201405310333 SPECI KBLI 310333Z 00000KT 10SM FEW002 16/10 A3000 RMK AO2=
201405310253 METAR KBLI 310253Z 25004KT 10SM CLR 17/10 A3000 RMK AO2 SLP164 60001 T01720100 56011=
201405310153 METAR KBLI 310153Z 24004KT 10SM CLR 19/07 A3000 RMK AO2 SLP166 T01890072=
201405310053 METAR KBLI 310053Z 27005KT 10SM CLR 19/08 A3001 RMK AO2 SLP170 P0001 T01940078=
201405302353 METAR KBLI 302353Z 29007KT 10SM CLR 19/08 A3003 RMK AO2 SLP176 T01940083 10194 20161 56015=
201405302253 METAR KBLI 302253Z 27008G15KT 10SM CLR 19/09 A3004 RMK AO2 SLP180 T01890094=
201405302153 METAR KBLI 302153Z 29009KT 10SM CLR 18/10 A3005 RMK AO2 SLP184 T01830100=
201405302053 METAR KBLI 302053Z VRB05KT 10SM CLR 19/11 A3007 RMK AO2 SLP191 T01890106 56010=
201405301953 METAR KBLI 301953Z VRB05KT 10SM SCT028 17/09 A3009 RMK AO2 SLP195 T01720094=
201405301853 METAR KBLI 301853Z 29006KT 10SM SCT027 BKN033 18/10 A3009 RMK AO2 SLP195 T01780100=
201405301753 METAR KBLI 301753Z 04004KT 10SM CLR 17/09 A3010 RMK AO2 SLP201 T01670089 10172 20050 58009=
201405301653 METAR KBLI 301653Z 03006KT 10SM CLR 16/09 A3012 RMK AO2 SLP207 T01560089=
201405301553 METAR KBLI 301553Z 36006KT 10SM CLR 14/09 A3013 RMK AO2 SLP209 T01390089=
201405301453 METAR KBLI 301453Z 00000KT 10SM CLR 11/08 A3013 RMK AO2 SLP210 T01110083 58000=
201405301353 METAR KBLI 301353Z AUTO 01003KT 10SM CLR 08/07 A3014 RMK AO2 SLP213 T00830067=
201405301341 SPECI KBLI 301341Z AUTO 00000KT 9SM FEW001 08/07 A3014 RMK AO2=
201405301334 SPECI KBLI 301334Z AUTO 00000KT 2 1/2SM R16/4000VP6000FT BR SCT001 08/07 A3014 RMK AO2=
201405301331 SPECI KBLI 301331Z AUTO 00000KT 1SM R16/2400VP6000FT BR VV001 08/07 A3014 RMK AO2=
201405301259 SPECI KBLI 301259Z AUTO 00000KT 1/2SM R16/1800V6000FT FG VV001 06/06 A3013 RMK AO2=
201405301253 METAR KBLI 301253Z AUTO 00000KT 1SM R16/1800VP6000FT BR VV001 06/05 A3013 RMK AO2 SLP211 T00610050=
201405301251 SPECI KBLI 301251Z AUTO 00000KT 1 1/4SM R16/3500VP6000FT BR BKN002 06/05 A3013 RMK AO2=
201405301243 SPECI KBLI 301243Z AUTO 00000KT 2 1/2SM BR BKN002 06/05 A3013 RMK AO2=
201405301240 SPECI KBLI 301240Z AUTO 00000KT 5SM BR SCT002 06/05 A3013 RMK AO2=
201405301203 SPECI KBLI 301203Z AUTO 00000KT 3SM BR CLR 06/04 A3013 RMK AO2=
201405301153 METAR KBLI 301153Z AUTO 00000KT 1 1/4SM BR CLR 06/04 A3013 RMK AO2 SLP211 70001 T00560039 10106 20056 58012=
201405301151 SPECI KBLI 301151Z AUTO 00000KT 1 3/4SM BR CLR 06/04 A3013 RMK AO2=
201405301053 METAR KBLI 301053Z AUTO 00000KT 9SM CLR 07/06 A3015 RMK AO2 SLP216 T00720056=
201405300953 METAR KBLI 300953Z AUTO 00000KT 10SM CLR 08/07 A3016 RMK AO2 SLP219 T00830067=
201405300853 METAR KBLI 300853Z AUTO 00000KT 10SM CLR 08/07 A3017 RMK AO2 SLP223 T00830067 58007=
201405300753 METAR KBLI 300753Z AUTO 00000KT 9SM CLR 08/06 A3018 RMK AO2 SLP227 T00780061 401670072=
201405300653 METAR KBLI 300653Z AUTO 00000KT 10SM CLR 08/07 A3019 RMK AO2 SLP229 T00830067=
201405300553 METAR KBLI 300553Z AUTO 18003KT 10SM CLR 11/08 A3019 RMK AO2 SLP230 T01060078 10167 20106 58000=
201405300453 METAR KBLI 300453Z 18003KT 10SM CLR 11/08 A3020 RMK AO2 SLP233 T01110083=
201405300353 METAR KBLI 300353Z 17004KT 10SM CLR 13/08 A3019 RMK AO2 SLP230 T01280083=
201405300253 METAR KBLI 300253Z 16004KT 10SM CLR 15/08 A3019 RMK AO2 SLP230 T01500083 56009=
201405300153 METAR KBLI 300153Z 18006KT 10SM BKN070 15/08 A3020 RMK AO2 SLP233 T01500078=
201405300053 METAR KBLI 300053Z 17008KT 10SM OVC070 16/08 A3021 RMK AO2 SLP236 T01560078=
201405292353 METAR KBLI 292353Z 16007KT 10SM OVC070 16/09 A3022 RMK AO2 SLP240 T01610089 10167 20139 52000=
201405292253 METAR KBLI 292253Z 16009KT 10SM OVC070 16/08 A3022 RMK AO2 SLP239 T01560083=
201405292153 METAR KBLI 292153Z 16008G17KT 10SM OVC065 17/09 A3022 RMK AO2 SLP238 T01670094=
201405292053 METAR KBLI 292053Z 16011KT 10SM OVC065 16/08 A3022 RMK AO2 SLP239 T01610083 52003=
201405291953 METAR KBLI 291953Z 16007G17KT 10SM FEW028 BKN060 OVC095 16/08 A3021 RMK AO2 SLP238 T01610083=
201405291853 METAR KBLI 291853Z 17011KT 10SM BKN080 OVC095 16/08 A3021 RMK AO2 SLP237 T01560083=
201405291753 METAR KBLI 291753Z 16009KT 10SM BKN060 OVC075 14/08 A3021 RMK AO2 SLP236 P0001 60001 T01390078 10139 20117 51012=
201405291653 METAR KBLI 291653Z 16008KT 10SM BKN047 OVC070 13/09 A3020 RMK AO2 SLP233 T01280089=
201405291553 METAR KBLI 291553Z 16009G15KT 10SM OVC041 12/08 A3019 RMK AO2 SLP231 T01220083=
201405291453 METAR KBLI 291453Z 16008KT 10SM SCT039 OVC065 12/08 A3017 RMK AO2 SLP224 60000 T01220083 52009=
201405291353 METAR KBLI 291353Z 16009KT 10SM BKN070 OVC085 12/08 A3017 RMK AO2 SLP221 T01170078=
201405291253 METAR KBLI 291253Z AUTO 16007G15KT 10SM FEW018 SCT055 OVC080 12/08 A3015 RMK AO2 RAE02 SLP216 P0000 T01170078=
201405291153 METAR KBLI 291153Z AUTO 17009KT 10SM -RA FEW025 OVC049 12/08 A3015 RMK AO2 RAB49 SLP214 P0000 60000 70001 T01170083 10133 20111 51011=
201405291053 METAR KBLI 291053Z AUTO 17006KT 10SM BKN047 OVC055 12/08 A3014 RMK AO2 SLP211 T01170083=
201405290953 METAR KBLI 290953Z AUTO 16005KT 10SM BKN042 BKN050 OVC055 12/08 A3013 RMK AO2 SLP209 T01170083=
201405290853 METAR KBLI 290853Z AUTO 17005KT 10SM OVC080 12/08 A3011 RMK AO2 RAE23 SLP203 P0000 60000 T01170083 51009=
201405290753 METAR KBLI 290753Z AUTO 17005KT 10SM -RA OVC070 12/08 A3011 RMK AO2 SLP203 P0000 T01170083 401780078=
201405290653 METAR KBLI 290653Z AUTO 16006KT 10SM -RA FEW075 OVC090 13/07 A3010 RMK AO2 RAB12E21B39 SLP199 P0000 T01280072 TSNO=
201405290553 METAR KBLI 290553Z AUTO 00000KT 10SM BKN070 OVC080 13/06 A3009 RMK AO2 SLP195 60001 T01330061 10172 20133 53013=
201405290453 METAR KBLI 290453Z 17006KT 10SM OVC085 14/07 A3007 RMK AO2 SLP191 T01390067=
201405290353 METAR KBLI 290353Z 16008KT 10SM SCT065 SCT085 OVC110 14/07 A3006 RMK AO2 SLP185 T01440072=
201405290253 METAR KBLI 290253Z 17005KT 10SM OVC095 16/07 A3005 RMK AO2 SLP182 60001 T01560072 55001=
201405290153 METAR KBLI 290153Z 16011KT 10SM FEW120 17/08 A3004 RMK AO2 SLP179 T01670078=
201405290053 METAR KBLI 290053Z 17011G15KT 10SM SCT075 17/09 A3004 RMK AO2 SLP181 P0001 T01670089=
201405282353 METAR KBLI 282353Z 17010G16KT 10SM CLR 17/09 A3005 RMK AO2 SLP183 T01720089 10178 20128 56007=
201405282253 METAR KBLI 282253Z 16008G15KT 10SM CLR 18/08 A3006 RMK AO2 SLP185 T01780083=
201405282153 METAR KBLI 282153Z 16010KT 10SM CLR 17/08 A3006 RMK AO2 SLP187 T01720083=
201405282053 METAR KBLI 282053Z 17009G15KT 10SM CLR 17/08 A3007 RMK AO2 SLP190 T01670083 58004=
201405282000 SPECI KBLI 282000Z 16007KT 10SM BKN065 15/08 A3008 RMK AO2=
201405281953 METAR KBLI 281953Z 16006KT 10SM BKN025 BKN070 BKN100 14/09 A3008 RMK AO2 SLP194 T01440089=
201405281853 METAR KBLI 281853Z 16007KT 10SM BKN025 BKN070 BKN100 14/09 A3008 RMK AO2 SLP193 T01390094=
201405281753 METAR KBLI 281753Z 17005KT 10SM OVC025 13/10 A3009 RMK AO2 SLP195 60000 T01280100 10128 20094 53002=
201405281700 SPECI KBLI 281700Z 17006KT 10SM OVC027 12/09 A3008 RMK AO2=
201405281653 METAR KBLI 281653Z 17006KT 10SM SCT027 BKN034 OVC065 12/09 A3008 RMK AO2 RAE17 SLP194 P0000 T01220094=
201405281553 METAR KBLI 281553Z 17007KT 8SM -RA SCT029 BKN050 OVC060 11/09 A3008 RMK AO2 RAB05 SLP192 P0000 T01110089=
201405281453 METAR KBLI 281453Z 16009KT 10SM FEW029 BKN060 OVC070 12/08 A3008 RMK AO2 SLP192 T01170078 53003=
201405281439 SPECI KBLI 281439Z 16007KT 10SM SCT027 OVC060 12/08 A3008 RMK AO2=
201405281353 METAR KBLI 281353Z 17007KT 10SM BKN025 OVC070 12/08 A3007 RMK AO2 SLP189 T01170078=
201405281253 METAR KBLI 281253Z AUTO 15005KT 10SM SCT070 OVC100 10/07 A3007 RMK AO2 SLP190 T01000072=
201405281153 METAR KBLI 281153Z AUTO 00000KT 10SM BKN050 OVC065 10/07 A3007 RMK AO2 SLP189 P0001 60001 70003 T01000072 10111 20078 53001=
201405281053 METAR KBLI 281053Z AUTO 00000KT 10SM CLR 08/06 A3007 RMK AO2 SLP188 T00780056=
201405280953 METAR KBLI 280953Z AUTO 00000KT 10SM CLR 08/06 A3006 RMK AO2 SLP187 T00830061=
201405280853 METAR KBLI 280853Z AUTO 14004KT 10SM CLR 09/06 A3007 RMK AO2 SLP188 T00890061 56005=
201405280753 METAR KBLI 280753Z AUTO 17003KT 10SM CLR 09/07 A3007 RMK AO2 SLP189 T00940067 401830083=
201405280653 METAR KBLI 280653Z AUTO 17003KT 10SM CLR 11/07 A3007 RMK AO2 SLP190 T01110067=
201405280553 METAR KBLI 280553Z AUTO 16003KT 10SM CLR 11/07 A3008 RMK AO2 SLP194 60001 T01060072 10178 20100 58001=
201405280453 METAR KBLI 280453Z 16003KT 10SM CLR 11/08 A3009 RMK AO2 SLP195 T01110078=
201405280353 METAR KBLI 280353Z 00000KT 10SM CLR 13/08 A3009 RMK AO2 SLP195 T01330083=
201405280253 METAR KBLI 280253Z 19003KT 10SM CLR 16/08 A3009 RMK AO2 SLP195 P0001 60001 T01560078 55002=
201405280153 METAR KBLI 280153Z VRB04KT 10SM CLR 17/06 A3008 RMK AO2 SLP194 T01670056=
201405280053 METAR KBLI 280053Z 30005KT 10SM CLR 18/07 A3008 RMK AO2 SLP194 T01780072=
201405272353 METAR KBLI 272353Z 28007KT 10SM CLR 18/06 A3009 RMK AO2 SLP197 60001 T01780056 10183 20144 58014=
201405272253 METAR KBLI 272253Z 26005KT 10SM CLR 18/06 A3011 RMK AO2 SLP202 P0001 T01780061=
201405272153 METAR KBLI 272153Z VRB04KT 10SM CLR 17/07 A3013 RMK AO2 SLP208 T01670067=
201405272053 METAR KBLI 272053Z VRB05KT 10SM FEW070 16/07 A3014 RMK AO2 SLP212 T01610072 55002=
201405271953 METAR KBLI 271953Z VRB03KT 10SM SCT023 16/09 A3013 RMK AO2 SLP211 T01610089=
201405271950 SPECI KBLI 271950Z 24004KT 10SM SCT023 16/09 A3014 RMK AO2=
201405271901 SPECI KBLI 271901Z 18007KT 10SM SCT023 BKN028 OVC085 15/09 A3014 RMK AO2=
201405271853 METAR KBLI 271853Z VRB05KT 10SM SCT023 BKN030 OVC085 16/10 A3014 RMK AO2 SLP213 T01560100=
201405271816 SPECI KBLI 271816Z 22004KT 10SM BKN021 OVC080 14/09 A3014 RMK AO2=
201405271753 METAR KBLI 271753Z 00000KT 10SM OVC080 14/08 A3014 RMK AO2 SLP215 T01440078 10150 20083 58002=
201405271653 METAR KBLI 271653Z 20004KT 10SM OVC080 13/08 A3015 RMK AO2 SLP216 T01330078=
201405271553 METAR KBLI 271553Z 00000KT 10SM OVC080 12/09 A3015 RMK AO2 SLP216 T01220089=
201405271453 METAR KBLI 271453Z 00000KT 10SM OVC070 11/08 A3015 RMK AO2 SLP217 T01060083 53000=
201405271353 METAR KBLI 271353Z 00000KT 10SM FEW050 10/08 A3015 RMK AO2 SLP216 T01000083=
201405271253 METAR KBLI 271253Z AUTO 00000KT 10SM CLR 09/07 A3015 RMK AO2 SLP215 T00890072 $=
201405271153 METAR KBLI 271153Z AUTO 00000KT 10SM CLR 08/07 A3015 RMK AO2 SLP216 7//// T00830072 10128 20083 58005 $=
201405271053 METAR KBLI 271053Z AUTO 00000KT 10SM OVC085 09/07 A3016 RMK AO2 SLP219 T00890072 $=
201405270953 METAR KBLI 270953Z AUTO 00000KT 10SM OVC080 10/08 A3016 RMK AO2 SLP220 T01000078 $=
201405270853 METAR KBLI 270853Z AUTO 00000KT 10SM OVC075 10/08 A3016 RMK AO2 SLP221 T01000083 55001 $=
201405270753 METAR KBLI 270753Z AUTO 00000KT 10SM BKN075 09/08 A3016 RMK AO2 SLP220 T00940078 401670094 $=
201405270653 METAR KBLI 270653Z AUTO 16003KT 10SM SCT060 BKN085 12/08 A3016 RMK AO2 SLP221 T01170078 $=
201405270553 METAR KBLI 270553Z AUTO 17003KT 10SM OVC085 13/08 A3017 RMK AO2 SLP222 6//// T01280078 10167 20128 50005 $=
201405270453 METAR KBLI 270453Z 15005KT 10SM OVC085 13/07 A3017 RMK AO2 RAB09E19 SLP224 P0000 T01330072 $=
201405270353 METAR KBLI 270353Z 16006KT 10SM FEW070 OVC085 14/07 A3016 RMK AO2 SLP219 T01390072 $=
201405270253 METAR KBLI 270253Z 16006KT 10SM OVC080 15/07 A3015 RMK AO2 SLP217 6//// T01500067 53001 $=
201405270153 METAR KBLI 270153Z 16008KT 10SM BKN075 16/07 A3014 RMK AO2 SLP214 T01560072 $=
201405270053 METAR KBLI 270053Z 16009KT 10SM OVC075 16/08 A3014 RMK AO2 SLP213 T01610078 $=
201405262353 METAR KBLI 262353Z 16009G15KT 10SM BKN085 16/07 A3015 RMK AO2 SLP216 6//// T01560072 10167 20128 50003 PNO $=
201405262253 METAR KBLI 262253Z 15010KT 10SM FEW080 17/08 A3015 RMK AO2 SLP216 T01670083 PNO $=
201405262153 METAR KBLI 262153Z 16010G16KT 10SM CLR 16/09 A3015 RMK AO2 SLP215 T01610094 PNO $=
201405262053 METAR KBLI 262053Z 15010G14KT 10SM FEW080 BKN095 16/10 A3014 RMK AO2 RAB1955E15 SLP213 6//// T01560100 51019 PNO $=
201405261953 METAR KBLI 261953Z 15009KT 10SM OVC060 13/10 A3012 RMK AO2 RAE04B22E46 SLP208 T01330100 PNO $=
201405261853 METAR KBLI 261853Z 17007KT 10SM -RA OVC055 13/09 A3010 RMK AO2 RAB1756 SLP200 T01330094 PNO $=
201405261753 METAR KBLI 261753Z 15008KT 10SM OVC050 13/10 A3008 RMK AO2 RAE1654B24E33 SLP193 6//// T01280100 10133 20117 51018 PNO $=
201405261653 METAR KBLI 261653Z 16005KT 10SM -RA FEW004 OVC055 12/11 A3006 RMK AO2 SLP187 T01220106 PNO $=
201405261553 METAR KBLI 261553Z 16005KT 3SM R16/5500VP6000FT -RA BR FEW004 BKN030 OVC049 12/11 A3005 RMK AO2 SLP182 T01170106 PNO $=
201405261541 SPECI KBLI 261541Z 18004KT 3SM -RA BR BKN006 BKN012 OVC018 12/10 A3005 RMK AO2 CIG 003V009 PNO $=
201405261529 SPECI KBLI 261529Z VRB04G14KT 1 3/4SM R16/5000VP6000FT +RA BR SCT004 BKN009 OVC018 12/11 A3005 RMK AO2 CIG 007V011 P0000 $=
201405261504 SPECI KBLI 261504Z 17006KT 10SM -RA BKN009 BKN013 OVC030 12/11 A3003 RMK AO2 CIG 007V011 P0000 $=
201405261500 SPECI KBLI 261500Z 17007KT 10SM -RA SCT009 BKN015 OVC038 12/11 A3003 RMK AO2 P0000 $=
201405261453 METAR KBLI 261453Z 16009KT 10SM -RA SCT009 BKN013 OVC032 12/11 A3003 RMK AO2 SLP175 P0001 60001 T01220106 51010 $=
201405261448 SPECI KBLI 261448Z 16009KT 9SM -RA SCT009 BKN013 OVC026 12/11 A3003 RMK AO2 P0000 $=
201405261436 SPECI KBLI 261436Z 16008KT 4SM -RA BR FEW007 BKN015 OVC026 12/11 A3002 RMK AO2 P0000 $=
201405261422 SPECI KBLI 261422Z 17008KT 10SM -RA FEW012 BKN017 OVC033 12/11 A3002 RMK AO2 P0000 $=
201405261353 METAR KBLI 261353Z AUTO 18007KT 10SM -RA FEW048 BKN060 OVC070 12/11 A3001 RMK AO2 SLP167 P0000 T01220106 $=
201405261323 SPECI KBLI 261323Z AUTO 15007G16KT 7SM -RA FEW010 BKN060 OVC070 12/11 A2999 RMK AO2 P0000 $=
201405261253 METAR KBLI 261253Z AUTO 18006KT 10SM -RA OVC012 12/11 A3000 RMK AO2 RAE25B53 SLP165 P0000 T01220106 $=
201405261153 METAR KBLI 261153Z AUTO 15003KT 10SM -RA BKN010 OVC015 12/11 A2999 RMK AO2 RAB02E11B31 CIG 009V013 SLP161 P0000 60000 T01170106 10122 20117 53000 $=
201405261104 SPECI KBLI 261104Z AUTO 13004KT 10SM -RA FEW003 BKN019 OVC060 12/11 A2998 RMK AO2 RAB02 P0000 $=
201405261053 METAR KBLI 261053Z AUTO 00000KT 10SM SCT003 BKN030 OVC060 12/11 A2998 RMK AO2 RAE48 SLP160 P0000 T01170106 $=
201405261051 SPECI KBLI 261051Z AUTO 00000KT 10SM SCT005 BKN029 OVC060 12/11 A2998 RMK AO2 RAE48 P0000 $=
201405261037 SPECI KBLI 261037Z AUTO 15003KT 4SM -RA BR FEW003 BKN033 OVC050 12/11 A2998 RMK AO2 P0000 $=
201405261019 SPECI KBLI 261019Z AUTO 15003KT 7SM -RA BKN026 OVC032 12/11 A2998 RMK AO2 P0000 $=
201405260953 METAR KBLI 260953Z AUTO 00000KT 7SM -RA OVC032 12/11 A2998 RMK AO2 SLP161 P0000 T01170106 $=
201405260936 SPECI KBLI 260936Z AUTO 00000KT 8SM -RA FEW013 SCT024 OVC032 12/11 A2999 RMK AO2 P0000 $=
201405260853 METAR KBLI 260853Z AUTO 00000KT 6SM -RA BR OVC023 12/11 A2999 RMK AO2 SLP161 P0000 60000 T01170111 55000 $=
201405260803 SPECI KBLI 260803Z AUTO 00000KT 10SM -RA BKN021 BKN031 OVC040 12/11 A2998 RMK AO2 P0000 $=
201405260753 METAR KBLI 260753Z AUTO 15003KT 6SM -RA BR SCT021 BKN031 OVC040 12/11 A2998 RMK AO2 RAB43 SLP160 P0000 T01220106 401440111 $=
201405260653 METAR KBLI 260653Z AUTO 17003KT 10SM FEW037 OVC046 12/11 A2999 RMK AO2 SLP162 T01220106 $=
201405260553 METAR KBLI 260553Z AUTO 17005KT 10SM OVC050 12/11 A2999 RMK AO2 SLP162 60000 T01220106 10133 20122 56001 $=
201405260453 METAR KBLI 260453Z 17004KT 10SM FEW009 OVC055 12/11 A2999 RMK AO2 RAE17 SLP162 P0000 T01220106 $=
201405260353 METAR KBLI 260353Z 16003KT 7SM -RA BKN016 BKN048 OVC055 13/11 A2999 RMK AO2 RAB45 SLP161 P0000 T01280106 $=
201405260307 SPECI KBLI 260307Z 18003KT 6SM BR BKN018 BKN055 OVC070 13/11 A2999 RMK AO2 $=
201405260300 SPECI KBLI 260300Z 17004KT 10SM SCT055 OVC070 13/11 A2999 RMK AO2 $=
201405260253 METAR KBLI 260253Z 17003KT 6SM BR BKN018 BKN055 OVC070 13/11 A2999 RMK AO2 RAE45 SLP163 P0000 60000 T01330111 56007 $=
201405260153 METAR KBLI 260153Z 16004KT 6SM -RA BR BKN020 OVC075 13/11 A2999 RMK AO2 RAB0058E26B42 SLP164 P0000 T01280111 $=
201405260128 SPECI KBLI 260128Z 16004KT 6SM HZ SCT010 BKN020 BKN070 13/11 A2999 RMK AO2 RAB0058E26 P0000 $=
201405260053 METAR KBLI 260053Z 18003KT 10SM SCT036 OVC070 13/11 A3000 RMK AO2 RAE28 SLP166 P0000 T01330106 $=
201405260008 SPECI KBLI 260008Z 00000KT 6SM -RA BR FEW006 BKN024 OVC050 12/11 A3001 RMK AO2 P0000 $=
201405252357 SPECI KBLI 252357Z 00000KT 7SM -RA FEW006 SCT021 OVC038 13/11 A3001 RMK AO2 P0000 $=
201405252353 METAR KBLI 252353Z 00000KT 7SM -RA BR SCT018 BKN024 OVC040 12/11 A3001 RMK AO2 SLP170 P0000 60000 T01220106 10144 20122 58003 $=
201405252253 METAR KBLI 252253Z 00000KT 6SM -RA SCT018 BKN026 OVC060 13/10 A3002 RMK AO2 SLP171 P0000 T01330100 $=
201405252227 SPECI KBLI 252227Z 00000KT 6SM -RA SCT018 BKN026 OVC049 13/10 A3002 RMK AO2 P0000 $=
201405252153 METAR KBLI 252153Z 00000KT 6SM -RA SCT038 BKN055 OVC070 14/11 A3002 RMK AO2 RAB32 SLP173 P0000 T01440106 $=
201405252053 METAR KBLI 252053Z 21003KT 10SM SCT018 OVC075 14/10 A3002 RMK AO2 SLP173 60000 T01390100 57007 $=
201405251953 METAR KBLI 251953Z 16004KT 10SM OVC075 14/10 A3003 RMK AO2 RAE20 SLP175 P0000 T01390100 $=
201405251853 METAR KBLI 251853Z 17004KT 10SM -RA SCT039 BKN050 OVC070 13/10 A3004 RMK AO2 RAB25 SLP179 P0000 T01330100 $=
201405251753 METAR KBLI 251753Z 16005KT 10SM BKN050 BKN080 OVC100 13/11 A3004 RMK AO2 RAE35 SLP180 P0000 60000 T01280106 10128 20111 58006 $=
201405251653 METAR KBLI 251653Z 18004KT 9SM -RA OVC075 12/10 A3006 RMK AO2 RAB07 SLP185 P0000 T01220100 $=
201405251553 METAR KBLI 251553Z 17008KT 10SM FEW010 OVC050 13/09 A3006 RMK AO2 SLP186 T01280094 $=
201405251453 METAR KBLI 251453Z 00000KT 10SM OVC050 13/09 A3006 RMK AO2 SLP186 T01280094 56007 $=
201405251353 METAR KBLI 251353Z 00000KT 10SM SCT050 OVC100 12/09 A3007 RMK AO2 SLP189 T01170094 $=
201405251253 METAR KBLI 251253Z AUTO 00000KT 10SM BKN065 BKN120 11/08 A3007 RMK AO2 SLP188 T01110083 $=
201405251153 METAR KBLI 251153Z AUTO 15003KT 10SM OVC055 12/09 A3008 RMK AO2 SLP193 T01220089 10139 20122 56009 $=
201405251053 METAR KBLI 251053Z AUTO 17005KT 10SM OVC060 13/09 A3009 RMK AO2 SLP195 T01280089 $=
201405250953 METAR KBLI 250953Z AUTO 17007KT 10SM BKN055 OVC070 13/09 A3010 RMK AO2 SLP198 T01280089 $=
201405250853 METAR KBLI 250853Z AUTO 17005KT 10SM FEW060 13/08 A3011 RMK AO2 SLP202 T01280083 58001 $=
201405250753 METAR KBLI 250753Z AUTO 17007KT 10SM BKN070 13/09 A3012 RMK AO2 SLP204 T01330089 401720117 $=
201405250653 METAR KBLI 250653Z AUTO 17005KT 10SM CLR 13/08 A3012 RMK AO2 SLP206 T01330083 $=
201405250553 METAR KBLI 250553Z AUTO 15005KT 10SM CLR 14/08 A3011 RMK AO2 SLP203 T01390078 10167 20139 58005 $=
201405250453 METAR KBLI 250453Z 17007KT 10SM OVC075 15/08 A3013 RMK AO2 SLP208 T01500083 $=
201405250353 METAR KBLI 250353Z 17005KT 10SM OVC070 15/08 A3012 RMK AO2 SLP206 T01500083 $=
201405250253 METAR KBLI 250253Z 17007KT 10SM OVC075 16/08 A3013 RMK AO2 SLP209 T01560083 58005 $=
201405250153 METAR KBLI 250153Z 17006KT 10SM BKN080 16/09 A3014 RMK AO2 SLP211 T01560089 $=
201405250053 METAR KBLI 250053Z 17007KT 10SM CLR 17/08 A3014 RMK AO2 SLP212 T01670083 $=
201405242353 METAR KBLI 242353Z 17007KT 140V200 10SM CLR 17/08 A3014 RMK AO2 SLP213 T01670078 10172 20150 58010 $=
201405242253 METAR KBLI 242253Z 17010KT 10SM CLR 17/08 A3016 RMK AO2 SLP218 T01670083 $=
201405242153 METAR KBLI 242153Z 17008KT 10SM CLR 16/09 A3017 RMK AO2 SLP224 T01610089 $=
201405242053 METAR KBLI 242053Z 16011G16KT 10SM CLR 17/08 A3017 RMK AO2 SLP223 T01670083 55001 $=
201405241953 METAR KBLI 241953Z 17011G17KT 10SM CLR 16/08 A3017 RMK AO2 SLP221 T01610083 $=
201405241853 METAR KBLI 241853Z 16011G18KT 10SM CLR 16/09 A3017 RMK AO2 SLP221 T01610089 $=
201405241753 METAR KBLI 241753Z 15013KT 10SM CLR 16/09 A3018 RMK AO2 SLP224 T01560094 10156 20122 51006 $=
201405241653 SPECI KBLI 241653Z 16010KT 10SM BKN060 15/09 A3018 RMK AO2 SLP224 T01500089 $=
201405241653 METAR KBLI 241653Z 16010KT 10SM BKN060 15/09 A3018 RMK AO2 SLP224 T01500089 $=
201405241553 METAR KBLI 241553Z 17009KT 10SM BKN046 14/08 A3016 RMK AO2 SLP220 T01390083 $=
201405241453 METAR KBLI 241453Z 17008G14KT 10SM OVC038 13/09 A3016 RMK AO2 SLP218 T01280089 51010 $=
201405241353 METAR KBLI 241353Z AUTO 17006KT 10SM BKN033 OVC060 13/09 A3015 RMK AO2 SLP216 T01280089 $=
201405241301 SPECI KBLI 241301Z AUTO 18009G15KT 10SM OVC031 12/09 A3014 RMK AO2 $=
201405241253 METAR KBLI 241253Z AUTO 17007KT 10SM OVC029 12/09 A3014 RMK AO2 SLP211 T01220089 $=
201405241153 METAR KBLI 241153Z AUTO 17005KT 10SM BKN027 OVC060 12/09 A3013 RMK AO2 SLP208 60001 7//// T01220089 10139 20117 51006 $=
201405241144 SPECI KBLI 241144Z AUTO 16005KT 10SM BKN027 BKN060 12/09 A3013 RMK AO2 $=
201405241053 METAR KBLI 241053Z AUTO 17004KT 10SM SCT047 OVC060 12/09 A3012 RMK AO2 SLP207 T01220089 $=
201405240953 METAR KBLI 240953Z AUTO 17004KT 10SM FEW035 SCT055 12/08 A3012 RMK AO2 SLP205 T01170083 $=
201405240853 METAR KBLI 240853Z AUTO 16005KT 10SM CLR 12/08 A3011 RMK AO2 SLP203 P0001 60001 T01220083 51010 $=
201405240753 METAR KBLI 240753Z AUTO 15009KT 10SM CLR 13/09 A3011 RMK AO2 SLP201 T01280089 401890122 $=
201405240653 METAR KBLI 240653Z AUTO 17012G17KT 10SM CLR 13/09 A3010 RMK AO2 SLP199 T01280089 $=
201405240553 METAR KBLI 240553Z AUTO 16009G17KT 10SM CLR 14/09 A3008 RMK AO2 SLP193 T01390094 10189 20139 51018 $=
201405240453 METAR KBLI 240453Z 17008KT 10SM CLR 15/11 A3007 RMK AO2 SLP189 T01500106 $=
201405240353 METAR KBLI 240353Z 17008KT 10SM CLR 16/11 A3004 RMK AO2 SLP179 T01560111 $=
201405240253 METAR KBLI 240253Z 18005G15KT 10SM CLR 17/12 A3003 RMK AO2 SLP174 T01670122 55001 $=
201405240153 METAR KBLI 240153Z 16009KT 10SM CLR 18/13 A3002 RMK AO2 SLP171 T01780128 $=
201405240053 METAR KBLI 240053Z 17009KT 10SM CLR 18/13 A3003 RMK AO2 SLP173 T01780128 $=
201405232353 METAR KBLI 232353Z 16009G15KT 10SM CLR 18/13 A3003 RMK AO2 SLP175 P0002 6//// T01830133 10183 20128 55002 $=
201405232253 METAR KBLI 232253Z VRB06G14KT 10SM CLR 18/14 A3003 RMK AO2 SLP174 P0002 T01830139 $=
201405232153 METAR KBLI 232153Z 17009KT 10SM FEW008 SCT041 BKN050 17/14 A3003 RMK AO2 RAE02 SLP176 P0005 T01670139 $=
201405232100 SPECI KBLI 232100Z 17009G16KT 9SM -RA FEW008 SCT041 BKN050 16/14 A3003 RMK AO2 P0001 $=
201405232053 METAR KBLI 232053Z 17008KT 1 1/2SM -RA BR SCT009 BKN012 OVC055 15/14 A3004 RMK AO2 SLP177 P0001 6//// T01500139 50008 $=
201405232001 SPECI KBLI 232001Z 15010KT 3SM RA BR SCT009 BKN012 OVC055 14/13 A3004 RMK AO2 P0000 $=
201405231953 METAR KBLI 231953Z 15009KT 4SM -RA BR SCT007 BKN033 OVC055 14/13 A3004 RMK AO2 SLP178 T01390128 $=
201405231923 SPECI KBLI 231923Z 00000KT 2 1/2SM -RA BR OVC008 13/12 A3005 RMK AO2 CIG 006V011 $=
201405231913 SPECI KBLI 231913Z 22003KT 1 3/4SM -RA BR OVC008 13/12 A3005 RMK AO2 CIG 004V011 PNO $=
201405231908 SPECI KBLI 231908Z 00000KT 2SM -RA BR OVC010 13/12 A3004 RMK AO2 CIG 004V012 PNO $=
201405231900 SPECI KBLI 231900Z 00000KT 3SM -RA BR FEW006 OVC010 13/12 A3004 RMK AO2 CIG 008V013 PNO $=
201405231853 METAR KBLI 231853Z 00000KT 3SM -RA BR BKN006 OVC012 13/12 A3004 RMK AO2 SLP177 T01330122 PNO $=
201405231840 SPECI KBLI 231840Z 00000KT 4SM -RA BR FEW006 OVC010 13/12 A3003 RMK AO2 PNO $=
201405231829 SPECI KBLI 231829Z VRB03KT 2SM -RA BR SCT006 OVC010 13/12 A3003 RMK AO2 PNO $=
201405231819 SPECI KBLI 231819Z 00000KT 1 3/4SM R16/4500VP6000FT RA BR BKN006 OVC014 13/12 A3003 RMK AO2 CIG 003V008 P0000=
201405231811 SPECI KBLI 231811Z VRB03KT 4SM -RA BR SCT006 BKN012 OVC017 13/12 A3003 RMK AO2 P0000=
201405231803 SPECI KBLI 231803Z VRB04KT 2SM R16/6000VP6000FT -RA BR FEW006 OVC015 13/12 A3002 RMK AO2 P0000=
201405231753 METAR KBLI 231753Z 19005KT 5SM -RA BR SCT007 OVC018 13/12 A3001 RMK AO2 SLP169 6//// T01280117 10150 20128 51007=
201405231751 SPECI KBLI 231751Z 18006KT 6SM -RA BR SCT007 OVC018 13/12 A3001 RMK AO2=
201405231732 SPECI KBLI 231732Z 19003KT 6SM -RA BR SCT008 BKN013 OVC046 13/12 A3001 RMK AO2=
201405231653 METAR KBLI 231653Z 16004KT 4SM -RA BR SCT004 BKN008 OVC030 14/13 A3000 RMK AO2 SLP165 T01390128 PNO=
201405231634 SPECI KBLI 231634Z 18005KT 2SM RA BR SCT004 BKN008 OVC039 14/13 A3000 RMK AO2 PNO=
201405231628 SPECI KBLI 231628Z 22004KT 1 1/2SM R16/4500VP6000FT RA BR SCT004 BKN012 OVC040 14/13 A3000 RMK AO2 PNO=
201405231618 SPECI KBLI 231618Z 15006KT 1 1/2SM R16/6000VP6000FT +RA BR BKN004 BKN013 OVC040 14/13 A2999 RMK AO2 PNO=
201405231608 SPECI KBLI 231608Z 18004KT 2SM RA BR BKN004 BKN015 OVC034 14/13 A2999 RMK AO2 PNO=
201405231553 METAR KBLI 231553Z VRB06KT 3SM -RA BR OVC002 14/12 A2999 RMK AO2 SLP162 T01390122 PNO $=
201405231536 SPECI KBLI 231536Z 26004KT 3SM RA BR OVC002 14/12 A2999 RMK AO2 PNO $=
201405231524 SPECI KBLI 231524Z VRB06KT 2SM RA BR BKN002 OVC007 14/13 A2998 RMK AO2 PNO $=
201405231458 SPECI KBLI 231458Z 18008KT 3SM -RA BR BKN004 OVC018 14/13 A2997 RMK AO2 P0000 $=
201405231453 METAR KBLI 231453Z 17008KT 2SM R16/6000VP6000FT RA BR SCT004 OVC018 14/13 A2997 RMK AO2 SLP156 6//// T01390128 51010 $=
201405231437 SPECI KBLI 231437Z 16007KT 2SM R16/5000VP6000FT RA BR SCT004 BKN018 OVC031 14/13 A2998 RMK AO2 $=
201405231427 SPECI KBLI 231427Z VRB03KT 1 3/4SM +RA BR BKN004 OVC018 14/13 A2998 RMK AO2 PNO $=
201405231412 SPECI KBLI 231412Z 21006KT 4SM -RA BR BKN004 OVC036 14/13 A2998 RMK AO2 P0000=
201405231401 SPECI KBLI 231401Z VRB04KT 4SM -RA BR SCT004 BKN019 OVC047 14/13 A2997 RMK AO2 P0000=
201405231353 METAR KBLI 231353Z 20005KT 4SM -RA BR FEW023 BKN037 OVC047 14/13 A2996 RMK AO2 SLP152 P0001 T01440133=
201405231333 SPECI KBLI 231333Z AUTO 18005KT 4SM -RA BR BKN049 BKN060 OVC080 14/13 A2996 RMK AO2 P0000=
201405231324 SPECI KBLI 231324Z AUTO 20003KT 2 1/2SM -RA BR BKN050 BKN060 OVC080 15/13 A2995 RMK AO2 P0000=
201405231253 METAR KBLI 231253Z AUTO 17003KT 10SM -RA FEW055 OVC090 15/13 A2994 RMK AO2 RAE10B27 SLP146 P0001 T01500133=
201405231153 METAR KBLI 231153Z AUTO 18005KT 10SM -RA OVC095 15/13 A2994 RMK AO2 RAB1059 SLP146 P0000 60000 T01500128 10167 20144 56012=
201405231053 METAR KBLI 231053Z AUTO 17005KT 10SM BKN055 OVC075 16/13 A2995 RMK AO2 SLP148 T01560128=
201405230953 METAR KBLI 230953Z AUTO 20003KT 10SM SCT060 OVC095 15/13 A2995 RMK AO2 SLP149 T01500128=
201405230853 METAR KBLI 230853Z AUTO 00000KT 10SM CLR 14/12 A2998 RMK AO2 SLP158 T01440122 56010=
201405230753 METAR KBLI 230753Z AUTO 17003KT 10SM FEW070 SCT095 15/13 A2999 RMK AO2 SLP160 T01500128 402170106=
201405230653 METAR KBLI 230653Z AUTO 00000KT 10SM BKN075 BKN100 16/13 A3000 RMK AO2 SLP166 T01610133=
201405230553 METAR KBLI 230553Z AUTO 00000KT 10SM BKN070 17/13 A3001 RMK AO2 SLP168 T01670133 10206 20161 55002=
201405230453 METAR KBLI 230453Z 00000KT 10SM CLR 17/13 A3000 RMK AO2 SLP165 T01670133=
201405230353 METAR KBLI 230353Z 00000KT 10SM CLR 17/13 A3001 RMK AO2 SLP167 T01720133=
201405230253 METAR KBLI 230253Z 00000KT 10SM CLR 18/13 A3002 RMK AO2 SLP170 T01830133 58010=
201405230153 METAR KBLI 230153Z 00000KT 10SM CLR 19/12 A3003 RMK AO2 SLP175 T01890122=
201405230053 METAR KBLI 230053Z 00000KT 10SM CLR 19/12 A3004 RMK AO2 SLP176 T01940122=
201405222353 METAR KBLI 222353Z 25004KT 10SM CLR 20/12 A3005 RMK AO2 SLP180 T02000122 10217 20178 56008=
201405222253 METAR KBLI 222253Z VRB03KT 10SM CLR 21/13 A3005 RMK AO2 SLP183 T02110128=
201405222153 METAR KBLI 222153Z 20004KT 10SM CLR 21/13 A3006 RMK AO2 SLP185 T02110133=
201405222053 METAR KBLI 222053Z 22003KT 10SM CLR 21/12 A3007 RMK AO2 SLP189 T02060122 58005=
201405221953 METAR KBLI 221953Z 21003KT 10SM CLR 20/11 A3008 RMK AO2 SLP191 T02000111=
201405221853 METAR KBLI 221853Z 16004KT 10SM CLR 19/12 A3009 RMK AO2 SLP195 T01940117=
201405221753 METAR KBLI 221753Z 18006KT 10SM CLR 18/11 A3009 RMK AO2 SLP194 T01780111 10178 20111 58005=
201405221653 METAR KBLI 221653Z 15007KT 10SM CLR 17/11 A3010 RMK AO2 SLP199 T01670111=
201405221553 METAR KBLI 221553Z 17005KT 10SM CLR 16/11 A3011 RMK AO2 SLP200 T01560111=
201405221453 METAR KBLI 221453Z 17004KT 10SM CLR 14/11 A3010 RMK AO2 SLP199 T01440106 56005=
201405221353 METAR KBLI 221353Z 00000KT 10SM CLR 12/11 A3010 RMK AO2 SLP199 T01220106=
201405221253 METAR KBLI 221253Z AUTO 04003KT 10SM CLR 12/09 A3011 RMK AO2 SLP202 T01170094=
201405221153 METAR KBLI 221153Z AUTO 00000KT 10SM CLR 12/10 A3012 RMK AO2 SLP205 T01220100 10144 20106 58001=
201405221053 METAR KBLI 221053Z AUTO 00000KT 10SM CLR 11/09 A3012 RMK AO2 SLP207 T01110094=
201405220953 METAR KBLI 220953Z AUTO 17006KT 10SM CLR 13/10 A3012 RMK AO2 SLP206 T01280100=
201405220853 METAR KBLI 220853Z AUTO 17004KT 10SM CLR 13/10 A3012 RMK AO2 SLP206 T01280100 58006=
201405220753 METAR KBLI 220753Z AUTO 17008KT 10SM CLR 13/10 A3013 RMK AO2 SLP211 T01280100 401720106=
201405220653 METAR KBLI 220653Z AUTO 19005KT 10SM CLR 13/10 A3013 RMK AO2 SLP209 T01330100=
201405220553 METAR KBLI 220553Z AUTO 17006KT 10SM OVC060 14/10 A3014 RMK AO2 SLP212 T01440100 10172 20144 51008=
201405220453 METAR KBLI 220453Z 17006KT 10SM OVC060 15/10 A3014 RMK AO2 SLP211 T01500100=
201405220353 METAR KBLI 220353Z 18005KT 10SM OVC055 14/10 A3013 RMK AO2 SLP210 T01440100=
201405220253 METAR KBLI 220253Z 17007KT 10SM SCT055 16/09 A3012 RMK AO2 SLP204 T01610094 57010=
201405220153 METAR KBLI 220153Z 16008KT 10SM OVC090 17/09 A3013 RMK AO2 SLP207 T01670094=
201405220053 METAR KBLI 220053Z 17008KT 10SM BKN085 16/09 A3014 RMK AO2 SLP212 T01610094=
201405212353 METAR KBLI 212353Z 16008KT 120V190 10SM CLR 17/09 A3015 RMK AO2 SLP215 T01670089 10172 20144 58005=
201405212253 METAR KBLI 212253Z 16010KT 10SM CLR 17/08 A3015 RMK AO2 SLP217 T01670083=
201405212153 METAR KBLI 212153Z 16008KT 10SM CLR 16/08 A3016 RMK AO2 SLP219 T01610083=
201405212053 METAR KBLI 212053Z 18009G16KT 10SM CLR 16/08 A3016 RMK AO2 SLP220 T01560078 55000=
201405211953 METAR KBLI 211953Z 18011G18KT 10SM CLR 15/08 A3016 RMK AO2 SLP220 T01500083=
201405211853 METAR KBLI 211853Z 16012G19KT 10SM CLR 16/08 A3016 RMK AO2 SLP217 T01560083=
201405211753 METAR KBLI 211753Z 16010G19KT 10SM CLR 15/08 A3016 RMK AO2 SLP219 T01500078 10150 20111 51003=
201405211653 METAR KBLI 211653Z 17013G19KT 10SM CLR 14/07 A3016 RMK AO2 SLP217 T01390072=
201405211553 METAR KBLI 211553Z 16011G19KT 10SM OVC090 13/08 A3016 RMK AO2 SLP218 T01280078=
201405211453 METAR KBLI 211453Z 16010KT 10SM BKN090 13/07 A3015 RMK AO2 SLP216 T01280072 50010=
201405211353 METAR KBLI 211353Z 15013G18KT 10SM FEW022 BKN095 12/07 A3015 RMK AO2 SLP217 T01170072=
201405211253 METAR KBLI 211253Z AUTO 16013G18KT 10SM CLR 12/07 A3013 RMK AO2 SLP210 T01170072=
201405211153 METAR KBLI 211153Z AUTO 14005KT 10SM CLR 11/07 A3012 RMK AO2 SLP206 T01110067 10144 20106 51006=
201405211053 METAR KBLI 211053Z AUTO 16003KT 10SM CLR 11/07 A3012 RMK AO2 SLP205 T01110067=
201405210953 METAR KBLI 210953Z AUTO 15006KT 10SM CLR 12/07 A3011 RMK AO2 SLP204 T01170067=
201405210853 METAR KBLI 210853Z AUTO 15006KT 10SM CLR 12/07 A3010 RMK AO2 SLP199 T01220067 50001=
201405210753 METAR KBLI 210753Z AUTO 17006KT 10SM FEW065 13/07 A3011 RMK AO2 SLP202 T01280072 402060117=
201405210653 METAR KBLI 210653Z AUTO 15008KT 10SM CLR 13/07 A3010 RMK AO2 SLP200 T01330067=
201405210553 METAR KBLI 210553Z AUTO 15007KT 10SM CLR 14/07 A3010 RMK AO2 SLP199 T01440072 10200 20144 53006=
201405210453 METAR KBLI 210453Z 17008KT 10SM CLR 15/08 A3009 RMK AO2 SLP196 T01500078=
201405210353 METAR KBLI 210353Z 16009KT 10SM CLR 16/09 A3008 RMK AO2 SLP192 T01560089=
201405210253 METAR KBLI 210253Z 17006KT 10SM CLR 17/09 A3008 RMK AO2 SLP193 T01670089 55002=
201405210153 METAR KBLI 210153Z 16007KT 10SM CLR 18/10 A3008 RMK AO2 SLP192 T01830100=
201405210053 METAR KBLI 210053Z 17005KT 10SM CLR 19/10 A3009 RMK AO2 SLP194 T01940100=
201405202353 METAR KBLI 202353Z 18006KT 10SM CLR 20/11 A3009 RMK AO2 SLP195 T02000106 10206 20167 58008=
201405202253 METAR KBLI 202253Z 16007KT 10SM CLR 20/11 A3010 RMK AO2 SLP199 T02000106=
201405202153 METAR KBLI 202153Z 17008KT 10SM CLR 21/11 A3011 RMK AO2 SLP202 T02060111=
201405202053 METAR KBLI 202053Z VRB05KT 10SM FEW030 20/11 A3011 RMK AO2 SLP203 T02000106 58000=
201405201953 METAR KBLI 201953Z 16005KT 10SM CLR 19/11 A3012 RMK AO2 SLP205 T01940111=
201405201853 METAR KBLI 201853Z 17006KT 10SM CLR 18/09 A3012 RMK AO2 SLP204 T01780094=
201405201753 METAR KBLI 201753Z 20006KT 10SM CLR 17/10 A3011 RMK AO2 SLP203 T01670100 10167 20128 53003=
201405201653 METAR KBLI 201653Z 17006KT 10SM FEW040 16/11 A3011 RMK AO2 SLP202 T01560106=
201405201553 METAR KBLI 201553Z 18007KT 10SM CLR 14/11 A3011 RMK AO2 SLP200 T01440106=
201405201505 SPECI KBLI 201505Z 17007KT 10SM SCT028 OVC075 13/10 A3010 RMK AO2=
201405201453 METAR KBLI 201453Z 18007KT 10SM BKN028 OVC075 13/10 A3010 RMK AO2 SLP200 T01280100 53008=
201405201353 METAR KBLI 201353Z AUTO 17007KT 10SM OVC075 13/11 A3009 RMK AO2 SLP196 T01280106=
201405201253 METAR KBLI 201253Z AUTO 18006KT 10SM OVC080 13/10 A3009 RMK AO2 SLP195 T01280100=
201405201153 METAR KBLI 201153Z AUTO 18004KT 10SM OVC080 13/10 A3008 RMK AO2 SLP192 T01330100 10139 20117 51003=
201405201053 METAR KBLI 201053Z AUTO 18005KT 10SM OVC080 13/10 A3008 RMK AO2 SLP191 T01330100=
201405200953 METAR KBLI 200953Z AUTO 18004KT 10SM OVC080 14/11 A3008 RMK AO2 SLP191 T01390106=
201405200853 METAR KBLI 200853Z AUTO 00000KT 10SM OVC085 13/10 A3007 RMK AO2 SLP188 T01330100 53007=
201405200753 METAR KBLI 200753Z AUTO 00000KT 10SM OVC085 13/09 A3006 RMK AO2 SLP185 T01280094 402060122=
201405200653 METAR KBLI 200653Z AUTO 00000KT 10SM OVC085 13/09 A3006 RMK AO2 SLP183 T01330094=
201405200553 METAR KBLI 200553Z AUTO 00000KT 10SM OVC085 14/09 A3005 RMK AO2 SLP182 T01390094 10206 20133 51006=
201405200453 METAR KBLI 200453Z 00000KT 10SM OVC085 13/09 A3005 RMK AO2 SLP182 T01330094=
201405200353 METAR KBLI 200353Z 00000KT 10SM FEW085 14/09 A3004 RMK AO2 SLP179 T01390094=
201405200253 METAR KBLI 200253Z 25003KT 10SM CLR 17/08 A3003 RMK AO2 SLP176 T01720083 53006=
201405200153 METAR KBLI 200153Z 30004KT 10SM CLR 19/08 A3002 RMK AO2 SLP172 T01890078=
201405200053 METAR KBLI 200053Z 28004KT 10SM CLR 19/08 A3002 RMK AO2 SLP170 T01940078=
201405192353 METAR KBLI 192353Z 28004KT 10SM CLR 20/08 A3001 RMK AO2 SLP169 T02000083 10206 20156 58002=
201405192253 METAR KBLI 192253Z AUTO 16007KT 10SM CLR 20/09 A3002 RMK AO2 SLP170 T02000089 TSNO=
201405192153 METAR KBLI 192153Z 17005KT 10SM FEW095 19/09 A3002 RMK AO2 SLP171 T01940089=
201405192053 METAR KBLI 192053Z 16005KT 10SM BKN085 OVC110 18/09 A3002 RMK AO2 SLP171 T01830089 51008=
201405191953 METAR KBLI 191953Z 17006KT 10SM OVC090 17/09 A3002 RMK AO2 SLP170 T01670094=
201405191853 METAR KBLI 191853Z 16008KT 10SM OVC100 17/10 A3001 RMK AO2 SLP167 T01670100=
201405191753 METAR KBLI 191753Z 17010KT 10SM BKN065 BKN095 16/10 A3000 RMK AO2 SLP163 T01610100 10161 20133 51012=
201405191653 METAR KBLI 191653Z 17010G17KT 10SM OVC060 14/10 A2998 RMK AO2 SLP159 T01440100=
201405191553 METAR KBLI 191553Z 17009KT 10SM FEW030 BKN060 BKN100 14/10 A2998 RMK AO2 SLP156 T01390100=
201405191453 METAR KBLI 191453Z 17007KT 10SM SCT065 13/10 A2996 RMK AO2 SLP151 T01330100 53016=
201405191353 METAR KBLI 191353Z 16009KT 10SM SCT060 OVC085 14/10 A2994 RMK AO2 SLP144 T01390100=
201405191253 METAR KBLI 191253Z AUTO 16007KT 10SM BKN065 OVC090 13/09 A2992 RMK AO2 SLP139 T01330094=
201405191153 METAR KBLI 191153Z AUTO 17009KT 10SM OVC065 13/09 A2991 RMK AO2 SLP135 T01330094 10139 20133 51010=
201405191053 METAR KBLI 191053Z AUTO 17009KT 10SM OVC070 13/09 A2990 RMK AO2 SLP131 T01330094=
201405190953 METAR KBLI 190953Z AUTO 16010KT 10SM OVC065 14/09 A2990 RMK AO2 SLP129 T01390089=
201405190853 METAR KBLI 190853Z AUTO 16009KT 10SM OVC070 14/09 A2988 RMK AO2 SLP125 T01390094 52005=
201405190753 METAR KBLI 190753Z AUTO 16009KT 10SM BKN049 14/09 A2988 RMK AO2 SLP123 T01390094 401940089=
201405190653 METAR KBLI 190653Z AUTO 15008KT 10SM CLR 14/09 A2987 RMK AO2 SLP121 T01390089=
201405190553 METAR KBLI 190553Z AUTO 16006KT 10SM CLR 14/08 A2987 RMK AO2 SLP119 T01390083 10194 20139 53015=
201405190453 METAR KBLI 190453Z 17005KT 10SM CLR 14/08 A2985 RMK AO2 SLP114 T01440083=
201405190353 METAR KBLI 190353Z 17005KT 10SM CLR 15/09 A2983 RMK AO2 SLP108 T01500089=
201405190253 METAR KBLI 190253Z 17004KT 10SM FEW080 17/08 A2982 RMK AO2 SLP105 T01670083 53006=
201405190153 METAR KBLI 190153Z 21004KT 10SM CLR 18/08 A2981 RMK AO2 SLP098 T01830078=
201405190053 METAR KBLI 190053Z 28005KT 10SM CLR 19/07 A2980 RMK AO2 SLP098 T01890072=
201405182353 METAR KBLI 182353Z 00000KT 10SM CLR 19/08 A2980 RMK AO2 SLP098 T01890078 10194 20156 56004=
201405182253 METAR KBLI 182253Z VRB06KT 10SM CLR 19/08 A2981 RMK AO2 SLP099 T01890083=
201405182153 METAR KBLI 182153Z 16008KT 10SM CLR 18/09 A2981 RMK AO2 SLP101 T01830089=
201405182053 METAR KBLI 182053Z VRB04KT 10SM CLR 17/09 A2982 RMK AO2 SLP103 T01720089 58004=
201405181953 METAR KBLI 181953Z 16009KT 10SM CLR 17/09 A2982 RMK AO2 SLP104 T01720094=
201405181853 METAR KBLI 181853Z 16011G16KT 10SM CLR 16/09 A2983 RMK AO2 SLP106 T01610094=
201405181753 METAR KBLI 181753Z 17008KT 150V220 10SM BKN060 OVC070 16/09 A2983 RMK AO2 SLP106 T01560094 10156 20117 55001=
201405181653 METAR KBLI 181653Z 17007KT 10SM BKN055 OVC075 14/09 A2983 RMK AO2 SLP105 T01440094=
201405181553 METAR KBLI 181553Z VRB05KT 10SM BKN050 OVC070 13/09 A2983 RMK AO2 SLP107 T01330094=
201405181453 METAR KBLI 181453Z 20003KT 10SM OVC060 12/09 A2983 RMK AO2 SLP107 T01220089 52004=
201405181353 METAR KBLI 181353Z 00000KT 10SM SCT060 OVC085 12/09 A2982 RMK AO2 SLP105 T01220094=
201405181253 METAR KBLI 181253Z AUTO 18004KT 10SM FEW060 OVC080 12/09 A2982 RMK AO2 SLP104 T01170089=
201405181153 METAR KBLI 181153Z AUTO 17005KT 10SM OVC080 12/09 A2982 RMK AO2 SLP103 T01170089 10139 20089 56008=
201405181053 METAR KBLI 181053Z AUTO 17005KT 10SM OVC080 12/09 A2982 RMK AO2 SLP104 T01220094=
201405180953 METAR KBLI 180953Z AUTO 00000KT 10SM SCT075 10/08 A2983 RMK AO2 SLP107 T01000083=
201405180853 METAR KBLI 180853Z AUTO 00000KT 10SM CLR 10/08 A2984 RMK AO2 SLP112 T01000078 58008=
201405180753 METAR KBLI 180753Z AUTO 00000KT 10SM CLR 11/08 A2985 RMK AO2 SLP115 T01110083 401830111=
201405180653 METAR KBLI 180653Z AUTO 00000KT 10SM CLR 12/09 A2986 RMK AO2 SLP118 T01170089=
201405180553 METAR KBLI 180553Z AUTO 16004KT 10SM BKN065 OVC080 13/08 A2986 RMK AO2 SLP120 T01330083 10183 20133 57006=
201405180453 METAR KBLI 180453Z 17005KT 10SM CLR 14/08 A2987 RMK AO2 SLP122 T01390083=
201405180353 METAR KBLI 180353Z 17003KT 10SM CLR 14/09 A2988 RMK AO2 SLP124 T01390089=
201405180253 METAR KBLI 180253Z VRB03KT 10SM CLR 16/08 A2988 RMK AO2 SLP125 T01560078 56010=
201405180153 METAR KBLI 180153Z 20006KT 10SM CLR 17/08 A2989 RMK AO2 SLP128 T01670078=
201405180053 METAR KBLI 180053Z 18006KT 10SM CLR 17/08 A2990 RMK AO2 SLP131 T01720078=
201405172353 METAR KBLI 172353Z 17009KT 10SM CLR 18/07 A2991 RMK AO2 SLP135 T01780072 10183 20139 57016=
201405172253 METAR KBLI 172253Z 17008KT 10SM FEW065 18/07 A2993 RMK AO2 SLP139 T01780067=
201405172153 METAR KBLI 172153Z 16006G16KT 10SM BKN060 16/09 A2995 RMK AO2 SLP148 T01610089=
201405172053 METAR KBLI 172053Z 16008KT 10SM OVC055 16/09 A2996 RMK AO2 SLP152 T01560089 57009=
201405171953 METAR KBLI 171953Z 16008KT 10SM OVC050 15/09 A2997 RMK AO2 SLP155 T01500089=
201405171853 METAR KBLI 171853Z 17007KT 10SM OVC050 14/09 A2998 RMK AO2 SLP157 T01440094=
201405171753 METAR KBLI 171753Z 17008KT 10SM OVC050 14/10 A2999 RMK AO2 SLP160 T01390100 10139 20128 58008=
201405171653 METAR KBLI 171653Z 17006KT 10SM OVC047 14/09 A3000 RMK AO2 SLP164 T01390094=
201405171553 METAR KBLI 171553Z 17008KT 10SM BKN042 OVC055 13/10 A3001 RMK AO2 SLP168 T01330100=
201405171453 METAR KBLI 171453Z 17006KT 10SM OVC045 13/09 A3001 RMK AO2 SLP169 T01280094 58000=
201405171353 METAR KBLI 171353Z 16006KT 10SM BKN043 OVC055 13/09 A3001 RMK AO2 SLP169 T01330094=
201405171253 METAR KBLI 171253Z AUTO 18005KT 10SM OVC043 13/10 A3002 RMK AO2 SLP171 T01330100=
201405171153 METAR KBLI 171153Z AUTO 17003KT 10SM SCT036 OVC045 13/10 A3001 RMK AO2 SLP169 T01330100 10144 20133 58010=
201405171053 METAR KBLI 171053Z AUTO 17004KT 10SM OVC036 14/11 A3003 RMK AO2 SLP176 T01390106=
201405170953 METAR KBLI 170953Z AUTO 18003KT 10SM OVC034 14/09 A3004 RMK AO2 SLP177 T01390094=
201405170853 METAR KBLI 170853Z AUTO 00000KT 10SM BKN037 OVC046 14/09 A3004 RMK AO2 SLP179 T01390089 58006=
201405170753 METAR KBLI 170753Z AUTO 00000KT 10SM OVC047 14/08 A3005 RMK AO2 SLP183 T01390083 401940128=
201405170653 METAR KBLI 170653Z AUTO 00000KT 10SM OVC047 14/08 A3006 RMK AO2 SLP184 T01390083=
201405170553 METAR KBLI 170553Z AUTO 00000KT 10SM FEW042 BKN049 OVC060 14/09 A3006 RMK AO2 SLP186 T01440094 10194 20144 53001=
201405170453 METAR KBLI 170453Z 00000KT 10SM OVC060 15/09 A3006 RMK AO2 SLP185 T01500089=
201405170353 METAR KBLI 170353Z 00000KT 10SM OVC049 16/08 A3006 RMK AO2 SLP184 T01560083=
201405170253 METAR KBLI 170253Z VRB03KT 10SM OVC049 16/08 A3006 RMK AO2 SLP185 T01610078 53002=
201405170153 METAR KBLI 170153Z 00000KT 10SM OVC047 17/08 A3005 RMK AO2 SLP183 T01720083=
201405170053 METAR KBLI 170053Z 18004KT 10SM SCT049 18/07 A3005 RMK AO2 SLP181 T01830072=
201405162353 METAR KBLI 162353Z VRB05KT 10SM CLR 19/08 A3005 RMK AO2 SLP183 T01890083 10189 20167 58009=
201405162253 METAR KBLI 162253Z 16007KT 10SM CLR 18/09 A3007 RMK AO2 SLP187 T01830089=
201405162153 METAR KBLI 162153Z 17010G14KT 10SM CLR 19/09 A3007 RMK AO2 SLP188 T01890089=
201405162053 METAR KBLI 162053Z 19009G16KT 160V230 10SM CLR 18/09 A3008 RMK AO2 SLP191 T01830094 58002=
201405161953 METAR KBLI 161953Z 18009G17KT 10SM CLR 18/10 A3009 RMK AO2 SLP194 T01780100=
201405161853 METAR KBLI 161853Z 16011KT 10SM CLR 17/10 A3009 RMK AO2 SLP193 T01720100=
201405161753 METAR KBLI 161753Z 16013G18KT 10SM CLR 17/09 A3009 RMK AO2 SLP194 T01720094 10172 20128 51004=
201405161653 METAR KBLI 161653Z 15010G18KT 10SM CLR 17/08 A3008 RMK AO2 SLP192 T01670083=
201405161553 METAR KBLI 161553Z 16009G15KT 10SM CLR 16/09 A3008 RMK AO2 SLP192 T01560089=
201405161453 METAR KBLI 161453Z 16010G18KT 10SM CLR 14/08 A3007 RMK AO2 SLP190 T01440083 51016=
201405161353 METAR KBLI 161353Z AUTO 16010KT 10SM CLR 13/08 A3006 RMK AO2 SLP186 T01330083 TSNO=
201405161253 METAR KBLI 161253Z AUTO 16008KT 10SM CLR 13/09 A3005 RMK AO2 SLP181 T01280094 TSNO=
201405161153 METAR KBLI 161153Z 16010G17KT 10SM CLR 14/09 A3003 RMK AO2 SLP174 T01390089 10194 20139 51016=
201405161053 METAR KBLI 161053Z 17006KT 10SM CLR 14/09 A3001 RMK AO2 SLP168 T01390094=
201405160953 METAR KBLI 160953Z 16012KT 10SM CLR 14/09 A3001 RMK AO2 SLP166 T01440094=
201405160853 METAR KBLI 160853Z 16010G21KT 10SM CLR 17/09 A2998 RMK AO2 SLP158 T01720094 51008=
201405160753 METAR KBLI 160753Z 17010G19KT 10SM SCT110 18/12 A2998 RMK AO2 SLP156 T01780117 402670106=
201405160653 METAR KBLI 160653Z 12007KT 10SM CLR 19/12 A2997 RMK AO2 SLP153 T01890117=
201405160553 METAR KBLI 160553Z VRB06KT 10SM CLR 18/13 A2996 RMK AO2 SLP150 T01780128 10233 20167 53011=
201405160453 METAR KBLI 160453Z 17004KT 10SM CLR 18/12 A2995 RMK AO2 SLP146 T01780117=
201405160353 METAR KBLI 160353Z 16003KT 10SM CLR 17/11 A2993 RMK AO2 SLP142 T01720106=
201405160253 METAR KBLI 160253Z 18005KT 10SM CLR 19/11 A2993 RMK AO2 SLP140 T01890111 55010=
201405160153 METAR KBLI 160153Z 00000KT 10SM CLR 21/13 A2993 RMK AO2 SLP139 T02110133=
201405160053 METAR KBLI 160053Z 23004KT 10SM CLR 23/14 A2995 RMK AO2 SLP146 T02330144=
201405152353 METAR KBLI 152353Z 00000KT 10SM CLR 23/14 A2996 RMK AO2 SLP150 T02280144 10267 20217 58012=
201405152253 METAR KBLI 152253Z 30003KT 10SM CLR 23/14 A2997 RMK AO2 SLP155 T02280144=
201405152153 METAR KBLI 152153Z 27004KT 10SM CLR 23/14 A2999 RMK AO2 SLP160 T02330144=
201405152053 METAR KBLI 152053Z 29006KT 10SM CLR 26/13 A2999 RMK AO2 SLP161 T02560128 57017=
201405151953 METAR KBLI 151953Z 01006KT 10SM CLR 26/12 A3001 RMK AO2 SLP166 T02610122=
201405151853 METAR KBLI 151853Z 36005KT 10SM CLR 24/12 A3003 RMK AO2 SLP173 T02440122=
201405151753 METAR KBLI 151753Z 35006KT 10SM CLR 22/12 A3004 RMK AO2 SLP178 T02170117 10217 20111 58010=
201405151653 METAR KBLI 151653Z 36006KT 10SM CLR 21/11 A3005 RMK AO2 SLP183 T02060111=
201405151553 METAR KBLI 151553Z VRB03KT 10SM CLR 18/11 A3006 RMK AO2 SLP186 T01780111=
201405151453 METAR KBLI 151453Z 00000KT 10SM CLR 16/11 A3007 RMK AO2 SLP189 T01560106 55003=
201405151353 METAR KBLI 151353Z 00000KT 10SM CLR 13/10 A3007 RMK AO2 SLP188 T01330100=
201405151344 METAR KBLI 151344Z 00000KT 10SM CLR 12/10 A3008=
201405151253 METAR KBLI 151253Z AUTO 00000KT 10SM CLR 12/10 A3008 RMK AO2 SLP190 T01170100=
201405151153 METAR KBLI 151153Z AUTO 00000KT 10SM CLR 12/10 A3008 RMK AO2 SLP192 T01170100 10156 20106 58009=
201405151053 METAR KBLI 151053Z AUTO 00000KT 10SM CLR 12/10 A3010 RMK AO2 SLP197 T01220100=
201405150953 METAR KBLI 150953Z AUTO 00000KT 10SM CLR 12/11 A3010 RMK AO2 SLP198 T01220106=
201405150853 METAR KBLI 150853Z AUTO 00000KT 10SM CLR 13/10 A3011 RMK AO2 SLP201 T01280100 58007=
201405150753 METAR KBLI 150753Z AUTO 00000KT 10SM CLR 14/11 A3011 RMK AO2 SLP204 T01390106 402500094=
201405150653 METAR KBLI 150653Z AUTO 00000KT 10SM CLR 14/11 A3012 RMK AO2 SLP206 T01390106=
201405150553 METAR KBLI 150553Z AUTO 00000KT 10SM CLR 16/11 A3013 RMK AO2 SLP208 T01560111 10250 20150 58005=
201405150453 METAR KBLI 150453Z 00000KT 10SM CLR 15/11 A3014 RMK AO2 SLP212 T01500106=
201405150353 METAR KBLI 150353Z 00000KT 10SM CLR 18/11 A3014 RMK AO2 SLP213 T01780106=
201405150253 METAR KBLI 150253Z 00000KT 10SM CLR 21/12 A3014 RMK AO2 SLP213 T02060117 56021=
201405150153 METAR KBLI 150153Z 00000KT 10SM CLR 23/10 A3016 RMK AO2 SLP217 T02330100=
201405150053 METAR KBLI 150053Z 26004KT 10SM CLR 24/10 A3018 RMK AO2 SLP225 T02440100=
201405142353 METAR KBLI 142353Z 27006KT 10SM CLR 25/11 A3021 RMK AO2 SLP234 T02500111 10250 20211 58020=
201405142253 METAR KBLI 142253Z 24004KT 10SM CLR 24/12 A3023 RMK AO2 SLP242 T02440117=
201405142153 METAR KBLI 142153Z 28004KT 10SM CLR 24/13 A3025 RMK AO2 SLP248 T02440128=
201405142053 METAR KBLI 142053Z 29005KT 10SM CLR 23/13 A3026 RMK AO2 SLP254 T02280128 58015=
201405141953 METAR KBLI 141953Z VRB05KT 10SM CLR 22/12 A3029 RMK AO2 SLP262 T02220122=
201405141853 METAR KBLI 141853Z 05003KT 10SM CLR 22/11 A3030 RMK AO2 SLP265 T02220106=
201405141753 METAR KBLI 141753Z 00000KT 10SM CLR 21/11 A3031 RMK AO2 SLP270 T02110106 10211 20094 58004=
201405141653 METAR KBLI 141653Z 00000KT 10SM CLR 18/10 A3031 RMK AO2 SLP271 T01830100=
201405141553 METAR KBLI 141553Z 35003KT 10SM CLR 17/10 A3032 RMK AO2 SLP274 T01720100=
201405141453 METAR KBLI 141453Z 00000KT 10SM CLR 16/11 A3032 RMK AO2 SLP274 T01560106 50000=
201405141353 METAR KBLI 141353Z 00000KT 10SM CLR 12/10 A3033 RMK AO2 SLP276 T01220100=
201405141253 METAR KBLI 141253Z 00000KT 10SM CLR 10/08 A3032 RMK AO2 SLP273 T01000083=
201405141153 METAR KBLI 141153Z 00000KT 10SM CLR 09/08 A3032 RMK AO2 SLP273 T00940078 10139 20094 55003=
201405141053 METAR KBLI 141053Z 00000KT 10SM CLR 11/09 A3032 RMK AO2 SLP273 T01060089=
201405140953 METAR KBLI 140953Z 00000KT 10SM CLR 11/08 A3032 RMK AO2 SLP275 T01060083=
201405140853 METAR KBLI 140853Z 00000KT 10SM CLR 13/09 A3033 RMK AO2 SLP276 T01280089 58001=
201405140753 METAR KBLI 140753Z 00000KT 10SM CLR 13/09 A3033 RMK AO2 SLP276 T01280094 402440117=
201405140653 METAR KBLI 140653Z 00000KT 10SM CLR 13/09 A3033 RMK AO2 SLP277 T01280094=
201405140553 METAR KBLI 140553Z 00000KT 10SM CLR 13/09 A3033 RMK AO2 SLP277 T01330094 10244 20133 53005=
201405140453 METAR KBLI 140453Z 00000KT 10SM CLR 15/09 A3033 RMK AO2 SLP276 T01500094=
201405140353 METAR KBLI 140353Z 00000KT 10SM CLR 17/08 A3031 RMK AO2 SLP271 T01720083=
201405140253 METAR KBLI 140253Z 27005KT 10SM CLR 21/10 A3031 RMK AO2 SLP271 T02060100 56005=
201405140153 METAR KBLI 140153Z 00000KT 10SM CLR 23/07 A3032 RMK AO2 SLP271 T02330067=
201405140053 METAR KBLI 140053Z 28005KT 10SM CLR 24/07 A3032 RMK AO2 SLP273 T02440072=
201405132353 METAR KBLI 132353Z 29004KT 10SM CLR 24/09 A3033 RMK AO2 SLP275 T02440089 10244 20206 58015=
201405132253 METAR KBLI 132253Z 28005KT 10SM CLR 24/07 A3035 RMK AO2 SLP281 T02390067=
201405132153 METAR KBLI 132153Z 28007KT 10SM CLR 23/11 A3037 RMK AO2 SLP289 T02280106=
201405132053 METAR KBLI 132053Z 28006KT 10SM CLR 22/11 A3037 RMK AO2 SLP291 T02170106 56006=
201405131953 METAR KBLI 131953Z 26006KT 10SM CLR 22/11 A3038 RMK AO2 SLP293 T02220111=
201405131853 METAR KBLI 131853Z 35004KT 10SM FEW100 22/08 A3039 RMK AO2 SLP295 T02170083=
201405131753 METAR KBLI 131753Z 35007KT 10SM CLR 21/08 A3039 RMK AO2 SLP297 60000 T02060083 10206 20128 51004=
201405131653 METAR KBLI 131653Z 02006KT 10SM BKN080 19/09 A3039 RMK AO2 SLP297 T01890094=
201405131553 METAR KBLI 131553Z 36004KT 10SM FEW040 BKN095 17/11 A3039 RMK AO2 RAB28E40 SLP296 P0000 T01670111=
201405131453 METAR KBLI 131453Z 00000KT 10SM OVC095 15/12 A3038 RMK AO2 SLP293 T01500117 53004=
201405131353 METAR KBLI 131353Z AUTO 30003KT 10SM BKN100 14/12 A3037 RMK AO2 SLP289 T01390117=
201405131253 METAR KBLI 131253Z AUTO 08003KT 10SM BKN095 13/12 A3036 RMK AO2 SLP285 T01330117=
201405131153 METAR KBLI 131153Z AUTO 00000KT 10SM OVC090 13/11 A3037 RMK AO2 SLP290 T01330111 10144 20128 53009=
201405131053 METAR KBLI 131053Z AUTO 00000KT 10SM OVC090 13/11 A3036 RMK AO2 SLP286 T01330111=
201405130953 METAR KBLI 130953Z AUTO 00000KT 10SM FEW120 13/11 A3034 RMK AO2 SLP280 T01330111=
201405130853 METAR KBLI 130853Z AUTO 00000KT 10SM OVC100 14/11 A3034 RMK AO2 SLP280 T01390111 51007=
201405130753 METAR KBLI 130753Z AUTO 14003KT 10SM OVC100 14/11 A3033 RMK AO2 SLP277 T01390111 402330078=
201405130653 METAR KBLI 130653Z AUTO 00000KT 10SM OVC100 14/11 A3033 RMK AO2 SLP276 T01390111=
201405130553 METAR KBLI 130553Z AUTO 00000KT 10SM OVC100 14/10 A3032 RMK AO2 SLP273 T01390100 10233 20139 53010=
201405130453 METAR KBLI 130453Z 00000KT 10SM CLR 16/09 A3031 RMK AO2 SLP269 T01560094=
201405130353 METAR KBLI 130353Z 00000KT 10SM CLR 16/09 A3030 RMK AO2 SLP265 T01560089=
201405130253 METAR KBLI 130253Z 27004KT 10SM CLR 19/10 A3029 RMK AO2 SLP263 T01940100 56010=
201405130153 METAR KBLI 130153Z 33003KT 10SM CLR 22/06 A3030 RMK AO2 SLP265 T02220056=
201405130053 METAR KBLI 130053Z 27004KT 10SM CLR 23/04 A3031 RMK AO2 SLP270 T02330044=
201405122353 METAR KBLI 122353Z 29004KT 10SM CLR 23/03 A3032 RMK AO2 SLP274 T02330033 10233 20178 56010=
201405122253 METAR KBLI 122253Z VRB05KT 10SM CLR 23/03 A3033 RMK AO2 SLP277 T02280028=
201405122153 METAR KBLI 122153Z VRB03KT 10SM CLR 23/08 A3034 RMK AO2 SLP280 T02330083=
201405122053 METAR KBLI 122053Z VRB03KT 10SM CLR 22/02 A3035 RMK AO2 SLP284 T02220022 58010=
201405121953 METAR KBLI 121953Z 00000KT 10SM CLR 21/06 A3036 RMK AO2 SLP288 T02110061=
201405121853 METAR KBLI 121853Z 00000KT 10SM CLR 20/08 A3037 RMK AO2 SLP290 T02000078=
201405121753 METAR KBLI 121753Z 00000KT 10SM CLR 18/09 A3038 RMK AO2 SLP293 T01780089 10183 20078 53001=
201405121653 METAR KBLI 121653Z 00000KT 10SM CLR 16/09 A3038 RMK AO2 SLP293 T01610094=
201405121553 METAR KBLI 121553Z 00000KT 10SM CLR 13/09 A3037 RMK AO2 SLP290 T01330094=
201405121453 METAR KBLI 121453Z 01003KT 10SM CLR 11/08 A3038 RMK AO2 SLP293 T01060083 53015=
201405121353 METAR KBLI 121353Z AUTO 00000KT 10SM CLR 09/08 A3036 RMK AO2 SLP287 T00940083=
201405121253 METAR KBLI 121253Z AUTO 00000KT 10SM CLR 08/07 A3034 RMK AO2 SLP283 T00830067=
201405121153 METAR KBLI 121153Z AUTO 00000KT 10SM CLR 09/07 A3033 RMK AO2 SLP278 T00890072 10111 20078 58006=
201405121053 METAR KBLI 121053Z AUTO 00000KT 10SM CLR 09/07 A3034 RMK AO2 SLP282 T00890072=
201405120953 METAR KBLI 120953Z AUTO 00000KT 10SM CLR 08/07 A3035 RMK AO2 SLP284 T00830067=
201405120853 METAR KBLI 120853Z AUTO 00000KT 10SM CLR 08/07 A3035 RMK AO2 SLP284 T00830067 53017=
201405120753 METAR KBLI 120753Z AUTO 00000KT 10SM CLR 10/07 A3033 RMK AO2 SLP278 T01000072 401890089=
201405120653 METAR KBLI 120653Z AUTO 00000KT 10SM CLR 11/08 A3031 RMK AO2 SLP270 T01060078=
201405120553 METAR KBLI 120553Z AUTO 00000KT 10SM CLR 11/07 A3030 RMK AO2 SLP268 T01060072 10183 20100 53011=
201405120453 METAR KBLI 120453Z 00000KT 10SM CLR 11/07 A3029 RMK AO2 SLP264 T01060072=
201405120353 METAR KBLI 120353Z 00000KT 10SM CLR 13/08 A3028 RMK AO2 SLP259 T01280083=
201405120253 METAR KBLI 120253Z 00000KT 10SM CLR 15/07 A3027 RMK AO2 SLP257 T01500072 56007=
201405120153 METAR KBLI 120153Z 00000KT 10SM CLR 17/06 A3027 RMK AO2 SLP258 T01720056=
201405120053 METAR KBLI 120053Z 25003KT 10SM CLR 18/05 A3028 RMK AO2 SLP261 T01780050=
201405112353 METAR KBLI 112353Z 26006KT 10SM CLR 18/06 A3029 RMK AO2 SLP262 T01780056 10189 20144 58006=
201405112253 METAR KBLI 112253Z 28007KT 240V300 10SM CLR 18/07 A3030 RMK AO2 SLP266 T01780067=
201405112153 METAR KBLI 112153Z 28007KT 10SM CLR 17/06 A3030 RMK AO2 SLP269 T01720061=
201405112053 METAR KBLI 112053Z VRB05KT 10SM BKN038 18/08 A3031 RMK AO2 SLP269 T01780083 56010=
201405111953 METAR KBLI 111953Z 00000KT 10SM OVC038 18/08 A3031 RMK AO2 SLP269 T01830083=
201405111853 METAR KBLI 111853Z VRB03KT 10SM FEW034 16/07 A3032 RMK AO2 SLP274 T01560072=
201405111753 METAR KBLI 111753Z 17005KT 10SM CLR 15/08 A3033 RMK AO2 SLP279 T01500078 10150 20089 50002=
201405111653 METAR KBLI 111653Z VRB03KT 10SM CLR 13/08 A3034 RMK AO2 SLP282 T01330083=
201405111553 METAR KBLI 111553Z 20004KT 10SM CLR 13/08 A3034 RMK AO2 SLP281 T01280078=
201405111453 METAR KBLI 111453Z VRB03KT 10SM BKN055 12/08 A3033 RMK AO2 SLP278 T01220078 53009=
201405111353 METAR KBLI 111353Z 00000KT 10SM OVC060 11/07 A3032 RMK AO2 SLP273 T01060072=
201405111253 METAR KBLI 111253Z AUTO 00000KT 10SM OVC060 10/07 A3031 RMK AO2 SLP271 T01000072=
201405111153 METAR KBLI 111153Z AUTO 00000KT 10SM OVC060 11/07 A3030 RMK AO2 SLP268 70001 T01060067 10111 20094 52007=
201405111053 METAR KBLI 111053Z AUTO 15003KT 10SM OVC060 09/07 A3030 RMK AO2 SLP267 T00940072=
201405110953 METAR KBLI 110953Z AUTO 00000KT 10SM OVC060 09/07 A3029 RMK AO2 SLP263 T00940072=
201405110853 METAR KBLI 110853Z AUTO 00000KT 10SM OVC060 10/07 A3028 RMK AO2 SLP261 T01000072 53008=
201405110753 METAR KBLI 110753Z AUTO 16004KT 10SM OVC060 11/07 A3027 RMK AO2 SLP257 T01060067 401500083=
201405110653 METAR KBLI 110653Z AUTO 15003KT 10SM FEW060 10/07 A3026 RMK AO2 SLP254 T01000072=
201405110553 METAR KBLI 110553Z AUTO 15004KT 10SM CLR 10/08 A3026 RMK AO2 SLP253 T01000078 10150 20100 51017=
201405110453 METAR KBLI 110453Z 16003KT 10SM CLR 11/08 A3025 RMK AO2 SLP252 T01060078=
201405110353 METAR KBLI 110353Z 00000KT 10SM CLR 12/08 A3023 RMK AO2 SLP243 T01220083=
201405110253 METAR KBLI 110253Z 19003KT 10SM CLR 13/08 A3021 RMK AO2 SLP236 T01330083 51005=
201405110153 METAR KBLI 110153Z 17005KT 10SM CLR 14/07 A3020 RMK AO2 SLP233 T01440067=
201405110053 METAR KBLI 110053Z 15006KT 10SM FEW065 14/06 A3020 RMK AO2 SLP233 T01440061=
201405102353 METAR KBLI 102353Z 16007KT 10SM FEW037 OVC065 14/06 A3019 RMK AO2 SLP231 T01440061 10150 20111 51009=
201405102253 METAR KBLI 102253Z 17005KT 10SM BKN037 BKN044 OVC065 14/06 A3019 RMK AO2 SLP229 T01390061=
201405102153 METAR KBLI 102153Z 15006KT 10SM FEW038 OVC065 14/06 A3018 RMK AO2 SLP227 T01390056=
201405102053 METAR KBLI 102053Z 16008KT 10SM BKN037 OVC065 14/07 A3017 RMK AO2 SLP222 T01390072 53014=
201405101953 METAR KBLI 101953Z 17009KT 10SM FEW031 SCT038 BKN055 13/07 A3015 RMK AO2 SLP217 T01330072=
201405101853 METAR KBLI 101853Z 16009KT 10SM FEW012 BKN041 OVC050 12/07 A3014 RMK AO2 SLP212 T01170072=
201405101753 METAR KBLI 101753Z 17006KT 10SM OVC041 11/07 A3012 RMK AO2 RAB1654E18 SLP208 P0000 60001 T01110072 10111 20094 53013=
201405101653 METAR KBLI 101653Z 17008KT 10SM OVC043 11/07 A3010 RMK AO2 RAE00 SLP201 P0000 T01060072=
201405101553 METAR KBLI 101553Z 17009KT 10SM -RA FEW011 OVC050 10/07 A3009 RMK AO2 RAB44 SLP195 P0000 T01000072=
201405101549 SPECI KBLI 101549Z 17007KT 10SM -RA FEW011 OVC050 10/07 A3009 RMK AO2 RAB44 P0000=
201405101453 METAR KBLI 101453Z 16006KT 10SM BKN027 OVC055 10/07 A3007 RMK AO2 RAB02E12 SLP190 P0000 60001 T01000072 51015=
201405101451 SPECI KBLI 101451Z 16007KT 10SM SCT027 OVC055 10/07 A3007 RMK AO2 RAB02E12 P0000=
201405101420 SPECI KBLI 101420Z 16008KT 10SM BKN013 OVC030 10/07 A3007 RMK AO2 RAB02E12 P0000=
201405101411 SPECI KBLI 101411Z 16008KT 10SM -RA SCT013 OVC032 10/07 A3007 RMK AO2 RAB02 P0000=
201405101353 METAR KBLI 101353Z 17007KT 10SM BKN013 BKN032 OVC060 10/07 A3006 RMK AO2 SLP187 P0001 T01000067=
201405101317 SPECI KBLI 101317Z AUTO 16006KT 10SM BKN013 OVC027 10/06 A3005 RMK AO2=
201405101253 METAR KBLI 101253Z AUTO 15005KT 10SM BKN027 OVC055 09/06 A3004 RMK AO2 SLP180 T00940061=
201405101246 SPECI KBLI 101246Z AUTO 15005KT 10SM BKN029 OVC060 09/06 A3004 RMK AO2=
201405101153 METAR KBLI 101153Z AUTO 16005KT 10SM BKN055 OVC070 10/06 A3003 RMK AO2 SLP175 P0001 60006 70022 T01000056 10106 20083 53011=
201405101053 METAR KBLI 101053Z AUTO 15007KT 10SM OVC070 10/06 A3002 RMK AO2 SLP171 P0001 T01000056=
201405100953 METAR KBLI 100953Z AUTO 15003KT 10SM SCT055 OVC070 09/06 A3000 RMK AO2 SLP167 P0001 T00890056=
201405100853 METAR KBLI 100853Z AUTO 15005KT 10SM FEW075 09/06 A3000 RMK AO2 SLP165 P0001 60003 T00890056 51007=
201405100753 METAR KBLI 100753Z AUTO 15007KT 10SM BKN055 10/06 A3000 RMK AO2 SLP164 P0001 T01000056 401500094=
201405100726 SPECI KBLI 100726Z AUTO 16007KT 10SM SCT015 BKN060 10/06 A2999 RMK AO2 P0001=
201405100717 SPECI KBLI 100717Z AUTO 15007KT 10SM BKN015 BKN023 BKN060 10/06 A2999 RMK AO2 P0001=
201405100702 SPECI KBLI 100702Z AUTO 17007KT 10SM SCT013 SCT021 10/06 A2998 RMK AO2=
201405100653 METAR KBLI 100653Z AUTO 16007KT 10SM BKN013 BKN021 10/07 A2998 RMK AO2 SLP160 P0001 T01000067=
201405100553 METAR KBLI 100553Z AUTO 17007KT 10SM OVC070 11/07 A2997 RMK AO2 SLP157 60004 T01060067 10139 20106 51020=
201405100453 METAR KBLI 100453Z 18007KT 10SM SCT022 OVC065 11/06 A2996 RMK AO2 SLP152 P0001 T01060061=
201405100353 METAR KBLI 100353Z 17008KT 10SM FEW070 11/06 A2994 RMK AO2 SLP144 P0001 T01060056=
201405100253 METAR KBLI 100253Z 17008G14KT 10SM CLR 12/06 A2992 RMK AO2 SLP138 P0001 60002 T01170061 53006=
201405100153 METAR KBLI 100153Z 17011G16KT 10SM CLR 12/04 A2991 RMK AO2 SLP135 T01220039=
201405100053 METAR KBLI 100053Z 16009KT 10SM CLR 13/05 A2990 RMK AO2 SLP132 P0001 T01280050=
201405092353 METAR KBLI 092353Z 17010G17KT 10SM CLR 13/04 A2990 RMK AO2 SLP131 60003 T01330044 10150 20122 51007=
201405092253 METAR KBLI 092253Z 17011KT 10SM FEW045 BKN055 13/05 A2990 RMK AO2 SLP130 P0001 T01330050=
201405092153 METAR KBLI 092153Z 16010KT 10SM CLR 14/06 A2989 RMK AO2 SLP129 T01390061=
201405092053 METAR KBLI 092053Z 16010G16KT 10SM FEW041 13/07 A2988 RMK AO2 SLP124 P0001 60002 T01330067 51004=
201405091953 METAR KBLI 091953Z 17010G17KT 10SM FEW050 14/04 A2988 RMK AO2 SLP124 T01440044=
201405091853 METAR KBLI 091853Z 19008KT 10SM FEW038 OVC085 13/05 A2987 RMK AO2 SLP122 P0001 T01330050=
201405091753 METAR KBLI 091753Z VRB06KT 10SM SCT033 BKN042 OVC085 13/07 A2987 RMK AO2 SLP120 P0001 60009 T01280067 10133 20094 51017=
201405091653 METAR KBLI 091653Z 16010KT 10SM OVC080 11/07 A2985 RMK AO2 SLP116 P0001 T01110067=
201405091553 METAR KBLI 091553Z 17004KT 10SM OVC065 11/06 A2983 RMK AO2 RAB06E35 SLP109 P0002 T01060061=
201405091453 METAR KBLI 091453Z 17008KT 10SM FEW018 OVC043 10/07 A2982 RMK AO2 RAE37 SLP103 P0001 60005 T01000072 53020=
201405091353 METAR KBLI 091353Z AUTO 17005KT 9SM -RA OVC045 10/07 A2979 RMK AO2 RAB35 SLP095 P0002 T01000072=
201405091325 SPECI KBLI 091325Z AUTO VRB05G15KT 10SM FEW014 SCT023 OVC047 10/07 A2978 RMK AO2 P0001=
201405091312 SPECI KBLI 091312Z AUTO 17008KT 10SM SCT012 BKN017 OVC045 10/08 A2978 RMK AO2 P0001=
201405091253 METAR KBLI 091253Z AUTO 18006KT 10SM FEW015 SCT023 OVC045 10/08 A2977 RMK AO2 RAE45 SLP087 P0002 T01000078=
201405091153 METAR KBLI 091153Z AUTO 17008G18KT 8SM -RA FEW015 SCT022 OVC045 10/07 A2976 RMK AO2 SLP084 P0002 60019 70064 T01000072 10122 20100 51018=
201405091053 METAR KBLI 091053Z AUTO 17008KT 7SM -RA FEW016 OVC045 10/08 A2975 RMK AO2 SLP080 P0003 T01000078=
201405090953 METAR KBLI 090953Z AUTO 16006KT 6SM -RA BR FEW018 SCT028 OVC045 10/08 A2973 RMK AO2 SLP074 P0003 T01000083=
201405090853 METAR KBLI 090853Z AUTO 16008KT 6SM -RA BR BKN045 OVC055 11/08 A2970 RMK AO2 RAB05 SLP065 P0003 60011 T01060083 53020=
201405090753 METAR KBLI 090753Z AUTO 17003KT 10SM OVC060 12/09 A2967 RMK AO2 RAE53 SLP055 P0004 T01170089 401560078=
201405090653 METAR KBLI 090653Z AUTO 17004KT 10SM -RA OVC055 12/10 A2966 RMK AO2 SLP050 P0004 T01170100=
201405090553 METAR KBLI 090553Z AUTO 17005KT 10SM -RA SCT008 OVC055 12/11 A2964 RMK AO2 SLP045 P0005 60031 T01220106 10122 20111 53008=
201405090536 SPECI KBLI 090536Z AUTO 17004KT 10SM -RA BKN008 BKN055 OVC070 12/11 A2964 RMK AO2 P0004=
201405090500 SPECI KBLI 090500Z 17005KT 10SM -RA SCT008 SCT017 OVC060 12/11 A2963 RMK AO2 P0001=
201405090453 METAR KBLI 090453Z 17006KT 6SM -RA BR SCT006 BKN012 12/11 A2963 RMK AO2 SLP040 P0005 T01170106=
201405090434 SPECI KBLI 090434Z 00000KT 4SM -RA BR SCT006 BKN012 12/10 A2963 RMK AO2 P0004=
201405090353 METAR KBLI 090353Z 12003KT 7SM -RA SCT018 BKN023 OVC060 12/10 A2962 RMK AO2 SLP038 P0006 T01170100=
201405090306 SPECI KBLI 090306Z 04003KT 5SM -RA BR SCT006 BKN020 OVC049 11/10 A2962 RMK AO2 P0001=
201405090253 METAR KBLI 090253Z 00000KT 4SM -RA BR SCT004 BKN009 OVC043 11/09 A2962 RMK AO2 SLP037 P0006 60015 T01110094 56012=
201405090224 SPECI KBLI 090224Z 00000KT 3SM -RA BR FEW008 BKN025 OVC032 11/10 A2963 RMK AO2 P0003=
201405090213 SPECI KBLI 090213Z 00000KT 2 1/2SM RA BR FEW021 BKN029 OVC042 11/10 A2963 RMK AO2 P0002=
201405090153 METAR KBLI 090153Z 00000KT 4SM -RA BR BKN032 BKN042 OVC049 11/10 A2963 RMK AO2 SLP040 P0006 T01110100=
201405090053 METAR KBLI 090053Z 00000KT 5SM -RA BR BKN043 OVC050 12/10 A2964 RMK AO2 SLP044 P0003 T01170100=
201405090008 SPECI KBLI 090008Z 15006KT 6SM -RA SCT022 OVC055 12/09 A2965 RMK AO2 P0001=
201405082353 METAR KBLI 082353Z 13006KT 8SM -RA BKN022 OVC055 12/10 A2966 RMK AO2 SLP049 P0006 60014 T01220100 10156 20111 58011=
201405082253 METAR KBLI 082253Z 13011KT 5SM -RA OVC022 12/09 A2967 RMK AO2 SLP052 P0005 T01220089=
201405082153 METAR KBLI 082153Z 18011G16KT 6SM -RA OVC025 12/09 A2969 RMK AO2 SLP061 P0003 T01170089=
201405082128 SPECI KBLI 082128Z 16011KT 6SM -RA OVC025 12/09 A2969 RMK AO2 P0001=
201405082053 METAR KBLI 082053Z 17013G21KT 10SM -RA OVC070 13/07 A2969 RMK AO2 RAB47 SLP060 P0000 60000 T01330072 56020=
201405081953 METAR KBLI 081953Z 18007KT 10SM OVC090 14/07 A2970 RMK AO2 SLP064 T01440072=
201405081853 METAR KBLI 081853Z 18005KT 10SM BKN110 14/07 A2972 RMK AO2 SLP072 T01440072=
201405081753 METAR KBLI 081753Z 00000KT 10SM OVC110 14/08 A2975 RMK AO2 SLP080 T01440083 10144 20078 58018=
201405081653 METAR KBLI 081653Z 02003KT 10SM OVC110 13/09 A2977 RMK AO2 SLP087 T01330094=
201405081553 METAR KBLI 081553Z 00000KT 10SM BKN060 12/08 A2979 RMK AO2 SLP094 T01220083=
201405081453 METAR KBLI 081453Z 00000KT 10SM CLR 11/08 A2980 RMK AO2 SLP098 T01060083 58011=
201405081353 METAR KBLI 081353Z 00000KT 9SM FEW048 09/07 A2981 RMK AO2 SLP102 T00890072=
201405081253 METAR KBLI 081253Z AUTO 00000KT 9SM CLR 08/07 A2983 RMK AO2 SLP107 T00830067=
201405081153 METAR KBLI 081153Z AUTO 00000KT 10SM CLR 09/07 A2983 RMK AO2 SLP109 T00890067 10122 20078 58008=
201405081053 METAR KBLI 081053Z AUTO 18003KT 10SM CLR 09/07 A2984 RMK AO2 SLP113 T00940067=
201405080953 METAR KBLI 080953Z AUTO 00000KT 10SM CLR 10/07 A2985 RMK AO2 SLP115 T01000072=
201405080853 METAR KBLI 080853Z AUTO 00000KT 10SM CLR 08/06 A2986 RMK AO2 SLP118 T00830061 58000=
201405080753 METAR KBLI 080753Z AUTO 14003KT 10SM CLR 10/07 A2986 RMK AO2 SLP119 T01000072 401830061=
201405080653 METAR KBLI 080653Z 00000KT 10SM CLR 09/07 A2986 RMK AO2 SLP117 T00940067=
201405080553 METAR KBLI 080553Z 16004KT 10SM CLR 12/07 A2986 RMK AO2 SLP118 T01220072 10178 20117 56008=
201405080453 METAR KBLI 080453Z 16004KT 10SM CLR 13/08 A2987 RMK AO2 SLP121 T01280078=
201405080353 METAR KBLI 080353Z 18003KT 10SM CLR 12/08 A2987 RMK AO2 SLP123 T01220078=
201405080253 METAR KBLI 080253Z 19003KT 10SM CLR 14/08 A2988 RMK AO2 SLP126 T01440078 58010=
201405080153 METAR KBLI 080153Z 19003KT 10SM CLR 17/07 A2990 RMK AO2 SLP131 T01670072=
201405080053 METAR KBLI 080053Z 19006KT 10SM CLR 17/06 A2991 RMK AO2 SLP134 T01720061=
201405072353 METAR KBLI 072353Z VRB03KT 10SM CLR 18/06 A2991 RMK AO2 SLP136 T01780061 10183 20128 56017=
201405072253 METAR KBLI 072253Z 16007KT 10SM CLR 17/07 A2993 RMK AO2 SLP141 T01720072=
201405072153 METAR KBLI 072153Z 17005KT 10SM CLR 17/08 A2995 RMK AO2 SLP147 T01720078=
201405072053 METAR KBLI 072053Z 22005KT 10SM CLR 16/06 A2996 RMK AO2 SLP154 T01610061 56023=
201405071953 METAR KBLI 071953Z 16005KT 10SM CLR 15/06 A2998 RMK AO2 SLP159 T01500056=
201405071853 METAR KBLI 071853Z 16006KT 10SM CLR 15/07 A3001 RMK AO2 SLP170 T01500072=
201405071753 METAR KBLI 071753Z 22005KT 10SM CLR 13/07 A3003 RMK AO2 SLP177 T01330072 10133 20067 51005=
201405071653 METAR KBLI 071653Z 17005KT 10SM CLR 12/07 A3003 RMK AO2 SLP177 T01220072=
201405071553 METAR KBLI 071553Z 16009KT 10SM CLR 11/07 A3002 RMK AO2 SLP174 T01110067=
201405071453 METAR KBLI 071453Z 15010KT 10SM CLR 11/07 A3002 RMK AO2 SLP172 T01060067 55000=
201405071353 METAR KBLI 071353Z 16007KT 10SM CLR 10/06 A3002 RMK AO2 SLP171 T01000061=
201405071253 METAR KBLI 071253Z AUTO 00000KT 10SM CLR 08/06 A3002 RMK AO2 SLP172 T00780056=
201405071153 METAR KBLI 071153Z AUTO 00000KT 10SM OVC065 07/06 A3002 RMK AO2 SLP172 T00720056 10106 20061 50003=
201405071053 METAR KBLI 071053Z AUTO 00000KT 10SM SCT065 07/05 A3002 RMK AO2 SLP174 T00720050=
201405070953 METAR KBLI 070953Z AUTO 00000KT 10SM CLR 08/06 A3002 RMK AO2 SLP171 T00780056=
201405070853 METAR KBLI 070853Z AUTO 14003KT 10SM CLR 09/06 A3001 RMK AO2 SLP169 T00890056 53000=
201405070753 METAR KBLI 070753Z AUTO 14004KT 10SM CLR 09/06 A3001 RMK AO2 SLP168 T00890056 401500089=
201405070653 METAR KBLI 070653Z AUTO 15003KT 10SM CLR 10/06 A3000 RMK AO2 SLP166 T01000056=
201405070553 METAR KBLI 070553Z AUTO 17003KT 10SM CLR 10/06 A3001 RMK AO2 SLP169 T01000056 10150 20100 53009=
201405070453 METAR KBLI 070453Z 16004KT 10SM CLR 12/06 A3000 RMK AO2 SLP165 T01170056=
201405070353 METAR KBLI 070353Z 17005KT 10SM CLR 12/06 A2999 RMK AO2 SLP161 T01170061=
201405070253 METAR KBLI 070253Z 16005KT 10SM CLR 13/07 A2998 RMK AO2 SLP160 T01330067 58002=
201405070153 METAR KBLI 070153Z 17005KT 10SM CLR 14/07 A2999 RMK AO2 SLP161 T01390072=
201405070053 METAR KBLI 070053Z 16009KT 10SM CLR 14/07 A2999 RMK AO2 SLP163 T01440067=
201405062353 METAR KBLI 062353Z 16009KT 10SM CLR 15/06 A2999 RMK AO2 SLP161 T01500056 10150 20122 58008=
201405062253 METAR KBLI 062253Z 18007KT 10SM CLR 14/06 A3000 RMK AO2 SLP167 T01440061=
201405062153 METAR KBLI 062153Z 17010G16KT 10SM CLR 14/07 A3001 RMK AO2 SLP169 T01390067=
201405062053 METAR KBLI 062053Z 17011G16KT 10SM FEW024 13/07 A3001 RMK AO2 SLP170 T01330072 58003=
201405061953 METAR KBLI 061953Z 19008KT 10SM BKN039 OVC046 12/07 A3002 RMK AO2 SLP174 T01220067=
201405061853 METAR KBLI 061853Z 17011G17KT 10SM OVC031 12/07 A3003 RMK AO2 SLP175 T01220072=
201405061753 METAR KBLI 061753Z 17005KT 10SM OVC028 12/07 A3002 RMK AO2 SLP173 T01220072 10122 20100 53004=
201405061653 METAR KBLI 061653Z VRB03KT 10SM OVC026 12/07 A3002 RMK AO2 SLP171 T01170067=
201405061553 METAR KBLI 061553Z 17005KT 10SM OVC026 12/07 A3001 RMK AO2 SLP171 T01170067=
201405061453 METAR KBLI 061453Z 15006KT 10SM OVC026 12/07 A3001 RMK AO2 SLP169 T01170067 53002=
201405061353 METAR KBLI 061353Z 16005KT 10SM FEW028 OVC090 11/07 A3001 RMK AO2 SLP168 T01060067=
201405061253 METAR KBLI 061253Z AUTO 15003KT 10SM FEW055 OVC090 10/07 A3000 RMK AO2 SLP167 T01000072=
201405061153 METAR KBLI 061153Z AUTO 14003KT 10SM OVC090 11/07 A3000 RMK AO2 SLP167 70023 T01060072 10111 20094 53001=
201405061053 METAR KBLI 061053Z AUTO 16004KT 10SM FEW070 OVC090 11/08 A3000 RMK AO2 SLP166 T01060078=
201405060953 METAR KBLI 060953Z AUTO 16003KT 10SM SCT070 OVC085 11/08 A3000 RMK AO2 SLP165 T01060078=
201405060853 METAR KBLI 060853Z AUTO 15006KT 10SM OVC080 11/08 A3000 RMK AO2 SLP166 T01110078 53001=
201405060753 METAR KBLI 060753Z AUTO 17004KT 10SM SCT070 11/07 A3000 RMK AO2 SLP164 T01110072 401500089=
201405060653 METAR KBLI 060653Z AUTO 17003KT 10SM FEW095 10/08 A3000 RMK AO2 SLP165 T01000078=
201405060553 METAR KBLI 060553Z AUTO 17004KT 10SM SCT100 11/08 A3000 RMK AO2 SLP165 T01110078 10150 20106 51007=
201405060453 METAR KBLI 060453Z 16005KT 10SM OVC095 12/08 A2999 RMK AO2 SLP164 T01220078=
201405060353 METAR KBLI 060353Z 16006KT 10SM OVC090 13/08 A2999 RMK AO2 SLP162 T01280083=
201405060253 METAR KBLI 060253Z 17004KT 10SM SCT090 13/08 A2998 RMK AO2 SLP157 T01280083 53001=
201405060153 METAR KBLI 060153Z 17003KT 10SM CLR 14/08 A2998 RMK AO2 SLP157 T01390083=
201405060053 METAR KBLI 060053Z 16006KT 10SM CLR 14/08 A2997 RMK AO2 SLP156 T01440083=
201405052353 METAR KBLI 052353Z 16007KT 10SM CLR 14/08 A2997 RMK AO2 SLP157 60004 T01440083 10150 20100 58003=
201405052253 METAR KBLI 052253Z VRB06KT 10SM FEW020 14/09 A2998 RMK AO2 SLP157 T01440094=
201405052153 METAR KBLI 052153Z 19007KT 10SM FEW015 14/09 A2998 RMK AO2 SLP160 T01390094=
201405052053 METAR KBLI 052053Z VRB05KT 10SM FEW012 SCT017 OVC100 13/09 A2998 RMK AO2 SLP160 CIG LWR NW-N 60004 T01280094 51005=
201405051953 METAR KBLI 051953Z 16007KT 10SM FEW015 BKN033 OVC110 12/10 A2998 RMK AO2 RAE03 SLP159 P0001 T01220100=
201405051902 SPECI KBLI 051902Z 00000KT 8SM -RA SCT007 OVC018 11/09 A2998 RMK AO2 P0001=
201405051853 METAR KBLI 051853Z 00000KT 5SM -RA BR SCT004 OVC009 11/09 A2998 RMK AO2 SLP159 VIS N 2 P0003 T01060089=
201405051838 SPECI KBLI 051838Z 00000KT 5SM BR SCT004 OVC009 11/09 A2998 RMK AO2 RAE30 VIS N 2 P0003=
201405051830 SPECI KBLI 051830Z 00000KT 6SM BR OVC004 10/09 A2998 RMK AO2 RAE30 P0002=
201405051811 SPECI KBLI 051811Z 00000KT 2SM R16/5500VP6000FT -RA BR OVC004 10/09 A2997 RMK AO2 P0001=
201405051801 SPECI KBLI 051801Z 00000KT 1 3/4SM R16/3500VP6000FT -RA BR OVC004 10/09 A2997 RMK AO2 P0000=
201405051753 METAR KBLI 051753Z 00000KT 3SM R16/6000VP6000FT -RA BR OVC004 10/09 A2997 RMK AO2 SLP155 P0005 60019 T01000089 10100 20089 52016=
201405051653 METAR KBLI 051653Z 31003KT 4SM -RA BR BKN004 OVC011 09/08 A2995 RMK AO2 SLP150 P0006 T00940083=
201405051617 SPECI KBLI 051617Z 33003KT 4SM -RA BR BKN004 OVC010 09/08 A2994 RMK AO2 P0003=
201405051553 METAR KBLI 051553Z 05003KT 4SM -RA BR SCT007 OVC010 09/08 A2993 RMK AO2 SLP143 P0006 T00940078=
201405051544 SPECI KBLI 051544Z 05004KT 4SM R16/5500VP6000FT RA BR SCT007 OVC010 09/08 A2993 RMK AO2 P0005=
201405051453 METAR KBLI 051453Z 36005KT 4SM -RA BR OVC007 09/08 A2992 RMK AO2 RAB10 CIG 003V010 SLP139 P0002 60002 T00890078 53014=
201405051438 SPECI KBLI 051438Z 34006KT 3SM RA BR BKN005 OVC012 09/08 A2991 RMK AO2 RAB10 CIG 003V010 P0001=
201405051431 SPECI KBLI 051431Z 34006KT 9SM BKN003 OVC012 09/08 A2991 RMK AO2 RAB10E22 CIG 003V007 P0000=
201405051401 SPECI KBLI 051401Z 36004KT 10SM FEW003 OVC014 09/08 A2991 RMK AO2=
201405051353 METAR KBLI 051353Z 35003KT 10SM OVC014 09/08 A2990 RMK AO2 RAE1256B22E38 SLP133 P0000 T00940078=
201405051326 SPECI KBLI 051326Z AUTO 36003KT 10SM -RA FEW006 OVC014 09/08 A2989 RMK AO2 RAE1256B22 P0000=
201405051253 METAR KBLI 051253Z AUTO 00000KT 10SM -RA OVC014 10/08 A2989 RMK AO2 RAB35 SLP127 P0000 T01000083=
201405051211 SPECI KBLI 051211Z AUTO 00000KT 10SM BKN014 OVC022 10/08 A2988 RMK AO2=
201405051153 METAR KBLI 051153Z AUTO 00000KT 10SM SCT018 BKN022 OVC029 09/08 A2988 RMK AO2 RAE04 SLP124 P0000 60037 70073 T00940083 10100 20094 53007=
201405051138 SPECI KBLI 051138Z AUTO 00000KT 10SM FEW019 BKN029 OVC040 09/08 A2988 RMK AO2 RAE04 P0000=
201405051128 SPECI KBLI 051128Z AUTO 00000KT 10SM FEW022 BKN038 OVC050 09/08 A2987 RMK AO2 RAE04 P0000=
201405051053 METAR KBLI 051053Z AUTO 00000KT 10SM -RA BKN024 OVC032 10/08 A2987 RMK AO2 SLP121 P0001 T01000083=
201405051032 SPECI KBLI 051032Z AUTO 00000KT 10SM -RA BKN025 OVC032 10/08 A2986 RMK AO2 P0001=
201405050953 METAR KBLI 050953Z AUTO 14004KT 10SM -RA FEW024 BKN042 OVC050 10/08 A2986 RMK AO2 RAB34 SLP118 P0000 T01000078=
201405050916 SPECI KBLI 050916Z AUTO 13003KT 10SM SCT017 BKN027 OVC035 10/08 A2986 RMK AO2=
201405050853 METAR KBLI 050853Z AUTO 00000KT 10SM FEW018 BKN039 OVC050 09/08 A2985 RMK AO2 RAE42 SLP116 P0001 60036 T00940083 52009=
201405050812 SPECI KBLI 050812Z AUTO 00000KT 9SM -RA FEW018 SCT035 OVC045 09/08 A2985 RMK AO2 P0001=
201405050753 METAR KBLI 050753Z AUTO 00000KT 10SM -RA SCT017 BKN021 OVC026 09/08 A2985 RMK AO2 SLP114 P0014 T00940083 401440094=
201405050720 SPECI KBLI 050720Z AUTO 01003KT 9SM -RA FEW004 SCT009 OVC015 09/08 A2984 RMK AO2 P0007=
201405050702 SPECI KBLI 050702Z AUTO 03003KT 5SM RA BR FEW004 BKN010 OVC021 09/09 A2984 RMK AO2 CIG 007V013 P0002=
201405050653 METAR KBLI 050653Z AUTO 00000KT 5SM -RA BR FEW010 BKN016 OVC021 09/08 A2983 RMK AO2 SLP109 P0021 T00940083=
201405050602 SPECI KBLI 050602Z AUTO 05003KT 3SM RA BR FEW004 BKN012 OVC019 10/09 A2983 RMK AO2 P0003=
201405050553 METAR KBLI 050553Z AUTO 03003KT 3SM R16/5000VP6000FT RA BR FEW004 OVC016 10/09 A2983 RMK AO2 SLP107 P0018 60024 T01000089 10144 20100 53013=
201405050548 SPECI KBLI 050548Z AUTO 01003KT 3SM R16/5000VP6000FT RA BR FEW004 BKN013 OVC018 10/09 A2983 RMK AO2 P0016=
201405050540 SPECI KBLI 050540Z AUTO 36003KT 2 1/2SM +RA BR FEW004 OVC020 11/09 A2982 RMK AO2 P0013=
201405050528 SPECI KBLI 050528Z 00000KT 3SM RA BR BKN018 OVC023 11/09 A2982 RMK AO2 P0009=
201405050515 SPECI KBLI 050515Z 00000KT 2SM +RA BR OVC020 11/09 A2982 RMK AO2 P0005=
201405050507 SPECI KBLI 050507Z 00000KT 1 3/4SM R16/3000VP6000FT RA BR BKN020 OVC025 11/09 A2981 RMK AO2 P0002=
201405050453 METAR KBLI 050453Z 00000KT 9SM -RA BKN020 OVC025 11/09 A2981 RMK AO2 SLP100 P0003 T01060094=
201405050353 METAR KBLI 050353Z 14003KT 8SM -RA SCT020 BKN027 OVC060 11/09 A2979 RMK AO2 RAB22 SLP094 P0002 T01110089=
201405050300 SPECI KBLI 050300Z 15009KT 10SM FEW034 BKN070 OVC100 12/08 A2977 RMK AO2=
201405050253 METAR KBLI 050253Z 16007KT 10SM BKN026 BKN037 OVC070 12/08 A2977 RMK AO2 RAE44 SLP087 P0001 60001 T01220083 51012=
201405050153 METAR KBLI 050153Z 14011G19KT 8SM -RA BKN026 OVC034 13/08 A2976 RMK AO2 RAE03B34 SLP083 P0000 T01280083=
201405050138 SPECI KBLI 050138Z 14010KT 10SM -RA BKN026 OVC034 13/08 A2975 RMK AO2 RAE03B34 P0000=
201405050053 METAR KBLI 050053Z 15011G18KT 10SM -RA SCT030 BKN037 OVC075 13/08 A2975 RMK AO2 RAB52 SLP081 P0000 T01330083=
201405042353 METAR KBLI 042353Z 15017G20KT 10SM FEW031 BKN070 OVC090 14/09 A2973 RMK AO2 SLP076 60003 T01440089 10144 20106 55001=
201405042253 METAR KBLI 042253Z 14013KT 10SM BKN026 BKN031 OVC037 14/09 A2973 RMK AO2 SLP075 T01390089=
201405042153 METAR KBLI 042153Z 14013G21KT 10SM BKN022 OVC065 14/09 A2974 RMK AO2 RAB12E26 SLP076 P0000 T01390094=
201405042053 METAR KBLI 042053Z 15014G18KT 10SM OVC020 13/09 A2974 RMK AO2 RAB1956E48 SLP076 P0001 60003 T01280089 50000=
201405041953 METAR KBLI 041953Z 13012G17KT 10SM OVC026 13/08 A2974 RMK AO2 SLP077 T01280083=
201405041853 METAR KBLI 041853Z 11008KT 8SM BKN022 OVC033 12/08 A2974 RMK AO2 RAE19 SLP076 P0002 T01170083=
201405041805 SPECI KBLI 041805Z 08005KT 7SM -RA BKN026 OVC049 11/08 A2973 RMK AO2 P0001=
201405041753 METAR KBLI 041753Z 09006KT 7SM -RA SCT024 OVC049 11/08 A2974 RMK AO2 SLP076 P0005 60009 T01060083 10111 20106 53008=
201405041653 METAR KBLI 041653Z 10006KT 10SM -RA BKN021 OVC025 11/08 A2972 RMK AO2 RAE18B41 SLP072 P0000 T01110078=
201405041553 METAR KBLI 041553Z 09006KT 10SM -RA OVC021 11/08 A2972 RMK AO2 SLP070 P0002 T01060083=
201405041453 METAR KBLI 041453Z 10005KT 10SM -RA BKN021 OVC029 11/08 A2971 RMK AO2 RAB09 SLP068 P0002 60002 T01060078 53000=
201405041353 METAR KBLI 041353Z 13007KT 10SM BKN023 OVC050 11/07 A2971 RMK AO2 RAE13 SLP068 P0000 T01060072=
201405041319 SPECI KBLI 041319Z AUTO 14008KT 10SM BKN021 BKN033 OVC060 11/07 A2971 RMK AO2 RAE13 P0000=
201405041253 METAR KBLI 041253Z AUTO 14010G16KT 10SM -RA SCT021 BKN048 OVC060 11/07 A2971 RMK AO2 RAB1157E06B40 SLP066 P0000 T01060072=
201405041153 METAR KBLI 041153Z AUTO 15009KT 10SM SCT023 BKN029 OVC044 11/07 A2971 RMK AO2 RAE34 SLP068 P0000 60015 70019 T01060072 10111 20100 58002=
201405041119 SPECI KBLI 041119Z AUTO 12005KT 10SM -RA FEW023 SCT037 OVC050 10/07 A2971 RMK AO2 P0000=
201405041107 SPECI KBLI 041107Z AUTO 12006KT 10SM -RA BKN023 BKN035 OVC050 10/07 A2972 RMK AO2 P0000=
201405041053 METAR KBLI 041053Z AUTO 12009KT 10SM -RA SCT025 OVC035 10/07 A2972 RMK AO2 RAE30B53 SLP070 P0000 T01000072=
201405040953 METAR KBLI 040953Z AUTO 13005KT 10SM -RA OVC041 10/08 A2972 RMK AO2 SLP071 P0014 T01000078=
201405040853 METAR KBLI 040853Z AUTO 14011G16KT 9SM -RA SCT022 BKN037 OVC050 11/07 A2972 RMK AO2 SLP070 P0001 60001 T01110072 56000=
201405040753 METAR KBLI 040753Z AUTO 09003KT 10SM -RA BKN038 OVC055 10/08 A2972 RMK AO2 RAB52 SLP070 P0000 T01000078 401560100=
201405040653 METAR KBLI 040653Z AUTO 05003KT 10SM OVC043 10/08 A2971 RMK AO2 SLP068 T01000078=
201405040553 METAR KBLI 040553Z AUTO 07004KT 10SM FEW045 BKN060 BKN070 11/08 A2972 RMK AO2 RAE30 SLP070 P0001 60003 T01060078 10144 20100 58011=
201405040453 METAR KBLI 040453Z 09006KT 10SM -RA SCT028 OVC060 11/08 A2974 RMK AO2 SLP076 P0002 T01060078=
201405040408 SPECI KBLI 040408Z 12010KT 10SM -RA BKN028 OVC036 12/07 A2975 RMK AO2 P0000=
201405040353 METAR KBLI 040353Z 13008KT 10SM -RA BKN032 OVC041 12/07 A2975 RMK AO2 RAB51 SLP081 P0000 T01220067=
201405040253 METAR KBLI 040253Z 14008KT 10SM FEW040 OVC085 13/07 A2975 RMK AO2 SLP081 60000 T01280067 58010=
201405040153 METAR KBLI 040153Z 15012KT 10SM FEW032 BKN070 BKN085 14/06 A2976 RMK AO2 RAB11E26 SLP084 P0000 T01390061=
201405040053 METAR KBLI 040053Z 13008KT 10SM OVC070 14/07 A2977 RMK AO2 RAB38E51 SLP089 P0000 T01390067=
201405032353 METAR KBLI 032353Z 14013G20KT 10SM BKN035 BKN095 14/07 A2978 RMK AO2 SLP091 60001 T01440067 10156 20128 56010=
201405032253 METAR KBLI 032253Z 13011G17KT 10SM SCT038 BKN047 OVC085 14/07 A2979 RMK AO2 RAE2158 SLP094 P0000 T01440072=
201405032153 METAR KBLI 032153Z 15009KT 10SM -RA SCT032 BKN048 OVC090 14/08 A2980 RMK AO2 RAE2055B48 SLP099 P0000 T01440078=
201405032053 METAR KBLI 032053Z 15006KT 10SM -RA SCT024 BKN049 OVC075 14/08 A2981 RMK AO2 RAB02 SLP102 P0000 60001 T01440083 56012=
201405031953 METAR KBLI 031953Z 17009KT 10SM SCT027 BKN039 BKN095 14/08 A2982 RMK AO2 RAB1859E11 SLP104 P0001 T01440083=
201405031853 METAR KBLI 031853Z 15005KT 10SM SCT019 SCT023 BKN033 13/08 A2984 RMK AO2 SLP110 T01330083=
201405031753 METAR KBLI 031753Z 13007KT 10SM SCT019 SCT029 BKN033 13/08 A2985 RMK AO2 RAE20 SLP114 P0000 60000 T01330083 10133 20100 58001=
201405031653 METAR KBLI 031653Z 15006KT 10SM -RA FEW042 OVC055 12/08 A2985 RMK AO2 RAB17 SLP116 P0000 T01170083=
201405031553 METAR KBLI 031553Z 18006KT 10SM SCT014 BKN100 12/08 A2985 RMK AO2 SLP114 T01170078=
201405031500 SPECI KBLI 031500Z 15005KT 10SM SCT014 BKN100 11/08 A2985 RMK AO2=
201405031453 METAR KBLI 031453Z 15004KT 10SM BKN014 BKN075 11/08 A2985 RMK AO2 SLP115 60000 T01060083 55006=
201405031353 METAR KBLI 031353Z 15003KT 10SM BKN010 OVC055 11/08 A2985 RMK AO2 SLP114 T01060083=
201405031253 METAR KBLI 031253Z AUTO 16003KT 10SM OVC060 10/08 A2986 RMK AO2 RAE01 SLP119 P0000 T01000078=
201405031153 METAR KBLI 031153Z AUTO 16005KT 10SM -RA FEW047 OVC060 10/08 A2987 RMK AO2 SLP121 P0002 60013 70028 T01000083 10128 20100 58006=
201405031053 METAR KBLI 031053Z AUTO 16006KT 10SM -RA OVC050 11/08 A2988 RMK AO2 SLP125 P0002 T01060078=
201405030953 METAR KBLI 030953Z AUTO 15009KT 10SM -RA OVC055 11/08 A2988 RMK AO2 RAB00 SLP125 P0003 T01110083=
201405030853 METAR KBLI 030853Z AUTO 16006KT 10SM OVC055 12/09 A2989 RMK AO2 RAE0758B38E51 SLP127 P0000 60006 T01170089 53006=
201405030753 METAR KBLI 030753Z AUTO 15006KT 10SM -RA BKN060 OVC075 12/09 A2987 RMK AO2 SLP121 P0005 T01170089 401890083=
201405030653 METAR KBLI 030653Z AUTO 17009G17KT 10SM -RA FEW016 SCT047 OVC055 13/11 A2987 RMK AO2 RAE07B48 SLP120 P0001 T01280106=
201405030608 SPECI KBLI 030608Z AUTO 16004KT 10SM OVC036 13/12 A2986 RMK AO2 RAE07 P0000=
201405030553 METAR KBLI 030553Z AUTO 16005KT 10SM -RA BKN028 OVC034 13/11 A2987 RMK AO2 SLP120 P0002 60015 T01280111 10172 20122 58002=
201405030513 SPECI KBLI 030513Z 18005KT 4SM -RA BR FEW011 BKN024 OVC043 12/11 A2988 RMK AO2 P0002=
201405030453 METAR KBLI 030453Z 18006KT 4SM -RA BR BKN035 OVC043 12/11 A2988 RMK AO2 RAB0356 SLP125 P0013 T01220111=
201405030419 SPECI KBLI 030419Z 17007KT 4SM RA BR FEW006 OVC035 13/12 A2988 RMK AO2 RAB0356 P0005=
201405030353 METAR KBLI 030353Z 19009G14KT 10SM OVC040 14/11 A2987 RMK AO2 SLP122 T01390106=
201405030253 METAR KBLI 030253Z 17005KT 10SM OVC046 15/10 A2987 RMK AO2 RAB09E26 SLP122 P0000 60000 T01500100 56019=
201405030153 METAR KBLI 030153Z 17005KT 10SM SCT050 BKN100 OVC120 16/10 A2989 RMK AO2 SLP127 T01610100=
201405030053 METAR KBLI 030053Z 17009KT 10SM BKN110 17/10 A2991 RMK AO2 SLP135 T01720100=
201405022353 METAR KBLI 022353Z 18006KT 10SM BKN100 BKN120 17/10 A2993 RMK AO2 SLP142 T01670100 10189 20161 57017=
201405022253 METAR KBLI 022253Z 19006KT 10SM BKN110 18/09 A2995 RMK AO2 SLP147 T01780094=
201405022153 METAR KBLI 022153Z 17009G15KT 10SM CLR 18/09 A2996 RMK AO2 SLP153 T01830089=
201405022053 METAR KBLI 022053Z 17010KT 10SM CLR 18/09 A2998 RMK AO2 SLP158 T01780089 58010=
201405021953 METAR KBLI 021953Z 17007G16KT 10SM CLR 17/09 A3000 RMK AO2 SLP166 T01720089=
201405021853 METAR KBLI 021853Z 17010G17KT 10SM CLR 17/09 A3001 RMK AO2 SLP168 T01670094=
201405021753 METAR KBLI 021753Z 16013G20KT 10SM CLR 17/09 A3001 RMK AO2 SLP169 T01720094 10172 20083 53005=
201405021653 METAR KBLI 021653Z 16013G23KT 10SM CLR 17/09 A3000 RMK AO2 PK WND 16026/1643 SLP164 T01720094=
201405021553 METAR KBLI 021553Z 17011G19KT 10SM CLR 17/08 A2999 RMK AO2 SLP163 T01670083=
201405021453 METAR KBLI 021453Z 16009G19KT 10SM CLR 17/07 A3000 RMK AO2 SLP164 T01670072 51007=
201405021353 METAR KBLI 021353Z AUTO 00000KT 10SM CLR 11/09 A3000 RMK AO2 SLP163 T01060089=
201405021253 METAR KBLI 021253Z AUTO 00000KT 10SM CLR 09/08 A2999 RMK AO2 SLP161 T00940078=
201405021240 SPECI KBLI 021240Z AUTO 00000KT 2SM BR CLR 09/08 A2999 RMK AO2=
201405021232 SPECI KBLI 021232Z AUTO 00000KT 1SM R16/P6000FT BR VV002 08/07 A2999 RMK AO2 VIS 1/2V5=
201405021230 SPECI KBLI 021230Z AUTO 00000KT 1 3/4SM BR CLR 09/08 A2999 RMK AO2 VIS 1/2V5=
201405021153 METAR KBLI 021153Z AUTO 00000KT 10SM CLR 10/08 A2998 RMK AO2 SLP156 T01000083 10150 20094 50000=
201405021053 METAR KBLI 021053Z AUTO 00000KT 10SM CLR 11/09 A2998 RMK AO2 SLP157 T01060089=
201405020953 METAR KBLI 020953Z AUTO 00000KT 10SM CLR 12/09 A2998 RMK AO2 SLP156 T01220094=
201405020853 METAR KBLI 020853Z AUTO 17003KT 10SM CLR 14/10 A2998 RMK AO2 SLP155 T01390100 51004=
201405020753 METAR KBLI 020753Z AUTO 00000KT 10SM CLR 12/09 A2997 RMK AO2 SLP156 T01220089 402560072=
201405020653 METAR KBLI 020653Z 00000KT 10SM CLR 12/09 A2997 RMK AO2 SLP154 T01220089=
201405020553 METAR KBLI 020553Z 06003KT 10SM CLR 12/08 A2996 RMK AO2 SLP153 T01220083 10250 20122 51007=
201405020453 METAR KBLI 020453Z 18004KT 10SM CLR 16/09 A2996 RMK AO2 SLP152 T01610094=
201405020353 METAR KBLI 020353Z 00000KT 10SM CLR 16/10 A2994 RMK AO2 SLP146 T01610100=
201405020253 METAR KBLI 020253Z 00000KT 10SM CLR 19/09 A2994 RMK AO2 SLP145 T01940094 56010=
201405020153 METAR KBLI 020153Z 25003KT 10SM CLR 23/11 A2995 RMK AO2 SLP147 T02330106=
201405020053 METAR KBLI 020053Z 27003KT 10SM CLR 24/09 A2995 RMK AO2 SLP149 T02440089=
201405012353 METAR KBLI 012353Z 27006KT 10SM CLR 24/09 A2997 RMK AO2 SLP155 T02440094 10256 20217 56017=
201405012253 METAR KBLI 012253Z 29004KT 10SM CLR 25/10 A2998 RMK AO2 SLP158 T02500100=
201405012153 METAR KBLI 012153Z 28004KT 10SM CLR 24/11 A3000 RMK AO2 SLP166 T02440106=
201405012053 METAR KBLI 012053Z 30005KT 10SM CLR 24/10 A3002 RMK AO2 SLP172 T02440100 58014=
201405011953 METAR KBLI 011953Z 30003KT 10SM CLR 23/09 A3004 RMK AO2 SLP177 T02280094=
201405011853 METAR KBLI 011853Z 36006KT 10SM CLR 23/08 A3006 RMK AO2 SLP183 T02330083=
201405011753 METAR KBLI 011753Z 01006G14KT 10SM CLR 22/07 A3006 RMK AO2 SLP186 T02170072 10217 20072 56012=
201405011653 METAR KBLI 011653Z 03008KT 10SM CLR 20/08 A3008 RMK AO2 SLP190 T02000078=
201405011553 METAR KBLI 011553Z 02006KT 10SM CLR 17/08 A3008 RMK AO2 SLP193 T01720083=
201405011453 METAR KBLI 011453Z 02004KT 10SM CLR 13/09 A3010 RMK AO2 SLP198 T01330089 58010=
201405011353 METAR KBLI 011353Z 00000KT 10SM CLR 09/08 A3011 RMK AO2 SLP203 T00940083=
201405011309 SPECI KBLI 011309Z AUTO 00000KT 4SM BR CLR 08/07 A3012 RMK AO2=
201405011301 SPECI KBLI 011301Z AUTO 00000KT 2 1/2SM BR CLR 08/07 A3012 RMK AO2=
201405011253 METAR KBLI 011253Z AUTO 00000KT 4SM BR CLR 08/07 A3012 RMK AO2 SLP206 T00780067=
201405011153 METAR KBLI 011153Z AUTO 00000KT 9SM CLR 09/07 A3013 RMK AO2 SLP208 T00890072 10122 20083 57008=
201405011053 METAR KBLI 011053Z AUTO 00000KT 10SM CLR 09/07 A3014 RMK AO2 SLP211 T00890072=
201405010953 METAR KBLI 010953Z AUTO 00000KT 10SM CLR 09/08 A3015 RMK AO2 SLP214 T00940078=
201405010853 METAR KBLI 010853Z AUTO 00000KT 10SM CLR 09/08 A3015 RMK AO2 SLP217 T00940078 56014=
201405010753 METAR KBLI 010753Z AUTO 00000KT 10SM CLR 10/08 A3017 RMK AO2 SLP221 T01000078 402390056=
201405010653 METAR KBLI 010653Z AUTO 00000KT 10SM CLR 11/08 A3018 RMK AO2 SLP226 T01110083=
201405010553 METAR KBLI 010553Z AUTO 00000KT 10SM CLR 12/08 A3019 RMK AO2 SLP230 T01170083 10233 20117 58002=
201405010453 METAR KBLI 010453Z 00000KT 10SM CLR 13/09 A3020 RMK AO2 SLP234 T01330094=
201405010353 METAR KBLI 010353Z 00000KT 10SM CLR 15/10 A3020 RMK AO2 SLP233 T01500100=
201405010253 METAR KBLI 010253Z 00000KT 10SM CLR 18/10 A3020 RMK AO2 SLP233 T01830100 56021=
201405010153 METAR KBLI 010153Z 28004KT 10SM CLR 21/09 A3022 RMK AO2 SLP239 T02060094=
201405010053 METAR KBLI 010053Z 28005KT 10SM CLR 22/10 A3024 RMK AO2 SLP245 T02220100=

# No short TAF reports from KBLI in databse.

###################################
#  large TAF from KBLI
###################################
201405312320 TAF KBLI 312320Z 0100/0124 19005KT P6SM FEW050 SCT250 FM011200
                       17005KT P6SM FEW012 SCT250 FM011500 17005KT
                       P6SM OVC012 FM011900 19007KT P6SM FEW020=
201405311720 TAF KBLI 311720Z 3118/0118 17005KT P6SM SKC FM011200 17005KT P6SM
                       FEW012 FM011500 17005KT P6SM OVC012=
201405311120 TAF KBLI 311120Z 3112/0112 VRB03KT P6SM SKC FM311800 20006KT P6SM
                       FEW045 FM010300 18005KT P6SM SKC FM010900
                       19005KT P6SM SCT011 FM011100 18005KT P6SM
                       OVC011=
201405310520 TAF KBLI 310520Z 3106/0106 18004KT P6SM SKC
                      TEMPO 3110/3114 00000KT SCT002 FM311800 20006KT
                       P6SM FEW050 FM010400 18005KT P6SM SKC=
201405302320 TAF KBLI 302320Z 3100/3124 25006KT P6SM FEW050 FM310300 18004KT
                       P6SM SKC FM311800 21006KT P6SM FEW050=
201405301720 TAF KBLI 301720Z 3018/3118 36007KT P6SM FEW050 FM302000 25006KT
                       P6SM FEW050 FM310300 18004KT P6SM SKC=
201405301327 TAF AMD KBLI 301327Z 3013/3112 VRB04KT 5SM BR SCT002 SCT250
                      TEMPO 3013/3015 1/2SM FG BKN001 OVC250 FM301800
                       24006KT P6SM FEW050 SCT250 FM302000 28006KT
                       P6SM SCT250 FM310300 18004KT P6SM SKC=
201405301200 TAF AMD KBLI 301200Z 3012/3112 VRB04KT P6SM SCT250
                      TEMPO 3012/3014 1SM BR FM301800 24006KT P6SM
                       FEW050 SCT250 FM302000 28006KT P6SM SCT250
                       FM310300 18004KT P6SM SKC=
201405301120 TAF KBLI 301120Z 3012/3112 VRB04KT P6SM SCT250 FM301800 24006KT
                       P6SM FEW050 SCT250 FM302000 28006KT P6SM
                       SCT250 FM310300 18004KT P6SM SKC=
201405300520 TAF KBLI 300520Z 3006/3106 17006KT P6SM SCT070 BKN250 FM300900
                       VRB04KT P6SM SCT070 BKN250 FM301800 24006KT
                       P6SM FEW070 SCT250 FM302000 28006KT P6SM
                       SCT250 FM310300 18004KT P6SM SKC=
201405292320 TAF KBLI 292320Z 3000/3024 16009KT P6SM OVC070 FM300400 17008KT
                       P6SM SCT070 BKN250 FM300800 VRB03KT P6SM
                       BKN250 FM301800 20007KT P6SM SCT250=
201405291730 TAF KBLI 291730Z 2918/3018 16008KT P6SM BKN045 OVC070 FM300100
                       17008KT P6SM SCT070 BKN250 FM300800 VRB03KT
                       P6SM BKN250=
201405291120 TAF KBLI 291120Z 2912/3012 17006KT P6SM SCT018 BKN050
                      TEMPO 2912/2916 OVC018 FM291800 18009KT P6SM
                       BKN030 BKN080 FM292100 18008KT P6SM SCT040
                       SCT080 FM300000 19008KT P6SM FEW040=
201405290520 TAF KBLI 290520Z 2906/3006 16008KT P6SM SCT030 BKN080 FM291000
                       17010KT P6SM BKN018 BKN080 FM291800 18009KT
                       P6SM BKN030 BKN080 FM292100 18008KT P6SM
                       SCT040 SCT080 FM300000 19008KT P6SM FEW040=
201405290032 TAF KBLI 290032Z 2901/2924 17010KT P6SM BKN070 FM290600 16010KT
                       P6SM BKN030 FM291400 17010KT P6SM BKN025
                       FM292100 19008KT P6SM BKN035=
201405281725 TAF KBLI 281725Z 2818/2918 17008KT P6SM VCSH OVC027
                      TEMPO 2818/2822 SCT027 BKN040 OVC070 FM282200
                       17010KT P6SM -SHRA BKN040 BKN070 FM290600
                       16007KT P6SM BKN030=
201405281120 TAF KBLI 281120Z 2812/2912 17005KT P6SM SCT070 FM282000 17010KT
                       P6SM -SHRA BKN040 BKN070 FM290600 16007KT
                       P6SM BKN030=
201405280526 TAF KBLI 280526Z 2806/2906 17005KT P6SM SCT040 SCT070 FM281200
                       17008KT P6SM SCT025 BKN040 OVC070 FM281700
                       17013KT P6SM -SHRA BKN025 OVC050=
201405272338 TAF KBLI 272338Z 2800/2824 VRB03KT P6SM FEW070 SCT250 FM280600
                       17005KT P6SM SCT040 SCT070 FM281200 17008KT
                       P6SM SCT028 BKN040 OVC070
                      PROB30 2812/2818 -RA FM281800 17013KT P6SM
                       -RA FEW015 BKN028 OVC040=
201405271824 TAF AMD KBLI 271824Z 2718/2818 21007KT P6SM SCT025 BKN060 BKN250
                       TEMPO 2718/2720 BKN025 OVC060 FM272000 21007KT
                       P6SM FEW030 BKN060 BKN250 FM280000 19005KT
                       P6SM SCT060 SCT100 SCT250 FM280900 17005KT
                       P6SM SCT030 SCT060 BKN100 FM281200 17005KT
                       P6SM VCSH FEW018 SCT030 OVC060
                      PROB30 2812/2815 -RA FEW018 BKN030 OVC060
                       FM281500 17010KT P6SM -RA SCT018 OVC030=
201405271731 TAF KBLI 271731Z 2718/2818 21007KT P6SM BKN060 BKN250 FM272000
                       21007KT P6SM BKN060 BKN250 FM280000 19005KT
                       P6SM SCT060 SCT100 SCT250 FM280900 17005KT
                       P6SM SCT030 SCT060 BKN100 FM281200 17005KT
                       P6SM VCSH FEW018 SCT030 OVC060
                      PROB30 2812/2815 -RA FEW018 BKN030 OVC060
                       FM281500 17010KT P6SM -RA SCT018 OVC030=
201405271441 TAF AMD KBLI 271441Z 2715/2812 VRB03KT P6SM SCT060 BKN250
                      TEMPO 2715/2719 BKN060 BKN250 FM271900 21006KT
                       P6SM BKN060 BKN250 FM280200 17005KT P6SM
                       BKN060 BKN250=
201405271121 TAF KBLI 271121Z 2712/2812 15006KT P6SM BKN070 FM271800 18005KT
                       P6SM SCT060 BKN100 FM280000 18005KT P6SM
                       BKN060=
201405270520 TAF KBLI 270520Z 2706/2806 15006KT P6SM BKN070 FM271800 18005KT
                       P6SM SCT060 BKN100=
201405262320 TAF KBLI 262320Z 2700/2724 17010KT P6SM VCSH SCT060
                      TEMPO 2700/2702 BKN060 FM270300 VRB03KT P6SM
                       FEW060=
201405261749 TAF KBLI 261749Z 2618/2718 17010KT P6SM VCSH FEW008 SCT030 OVC060
                       TEMPO 2618/2620 -SHRA FEW008 BKN030 OVC060
                       FM262000 17013KT P6SM VCSH SCT030 BKN060
                       FM270000 19009KT P6SM SCT060 FM270300 17005KT
                       P6SM SCT060=
201405261537 TAF AMD KBLI 261537Z 2616/2712 18008KT P6SM -SHRA SCT006 BKN015
                       OVC030
                      TEMPO 2616/2618 2SM +SHRA BKN006 OVC015 FM262000
                       18008KT P6SM BKN040=
201405261448 TAF AMD KBLI 261448Z 2615/2712 18008KT P6SM -SHRA SCT015 SCT030
                       OVC060
                      TEMPO 2615/2618 4SM SHRA FEW007 BKN015 OVC030
                       FM262000 18008KT P6SM BKN040=
201405261409 TAF AMD KBLI 261409Z 2614/2712 18008KT P6SM -SHRA SCT015 SCT030
                       OVC060
                      TEMPO 2614/2618 BKN015 OVC030 FM262000 18008KT
                       P6SM BKN040=
201405261120 TAF KBLI 261120Z 2612/2712 16004KT P6SM -RA SCT005 SCT020 OVC045
                       TEMPO 2612/2616 BKN020 FM262000 18008KT
                       P6SM BKN040=
201405260525 TAF KBLI 260525Z 2606/2706 16004KT P6SM -RA SCT025 OVC045
                      TEMPO 2606/2610 BKN025 FM261000 19008KT P6SM
                       -RA SCT020 OVC030 FM262100 18010KT P6SM
                       BKN040=
201405252320 TAF KBLI 252320Z 2600/2624 16007KT P6SM -RA BKN020 OVC060 FM260500
                       16007KT P6SM -RA OVC020 FM261500 19008KT
                       P6SM -RA SCT020 OVC030 FM262100 18010KT
                       P6SM BKN035 OVC040=
201405251725 TAF KBLI 251725Z 2518/2618 17007KT P6SM SCT050 OVC080
                      TEMPO 2518/2522 5SM -RA BR OVC040 FM260000
                       16007KT P6SM VCSH BKN030 OVC070 FM260500
                       16007KT P6SM -RA OVC030 FM261500 19008KT
                       P6SM -RA SCT020 OVC030=
201405251120 TAF KBLI 251120Z 2512/2612 18006KT P6SM BKN060 BKN120 FM251800
                       17007KT P6SM BKN040 OVC100 FM260000 16007KT
                       P6SM BKN030 OVC070 FM260500 16007KT P6SM
                       -RA OVC030=
201405250520 TAF KBLI 250520Z 2506/2606 18008KT P6SM BKN070 FM251800 17010KT
                       P6SM BKN040 OVC070=
201405242320 TAF KBLI 242320Z 2500/2524 18008KT P6SM SCT040 BKN070 FM251200
                       17010KT P6SM SCT020 BKN040=
201405241723 TAF KBLI 241723Z 2418/2518 17006KT P6SM SCT030 BKN060 FM242000
                       18008KT P6SM SCT040 BKN070 FM251200 17010KT
                       P6SM SCT020 BKN040=
201405241120 TAF KBLI 241120Z 2412/2512 17006KT P6SM SCT030 BKN060 FM242000
                       18008KT P6SM SCT040 BKN070=
201405240520 TAF KBLI 240520Z 2406/2506 18007KT P6SM SKC FM240900 17006KT P6SM
                       BKN025 FM241800 18005KT P6SM SCT025 BKN035
                       FM242000 18008KT P6SM SCT035 BKN070=
201405232320 TAF KBLI 232320Z 2400/2424 18007KT P6SM SCT025 BKN050 FM241200
                       17006KT P6SM BKN025 FM241500 18005KT P6SM
                       SCT025 BKN035 FM242000 18008KT P6SM SCT035
                       BKN070=
201405231825 TAF AMD KBLI 231825Z 2318/2418 18008KT P6SM VCSH BKN025 BKN045
                       TEMPO 2318/2322 2SM -RA BR BKN005 OVC020
                       FM232300 18007KT P6SM SCT025 BKN050 FM241200
                       17006KT P6SM BKN025 FM241500 18005KT P6SM
                       SCT025 BKN035=
201405231737 TAF KBLI 231737Z 2318/2418 18008KT P6SM VCSH BKN025 BKN045
                      TEMPO 2318/2322 4SM -RA BR SCT005 BKN010
                       OVC030 FM232300 18007KT P6SM SCT025 BKN050
                       FM241200 17006KT P6SM BKN025 FM241500 18005KT
                       P6SM SCT025 BKN035=
201405231417 TAF AMD KBLI 231417Z 2314/2412 17008KT P6SM -RA SCT030 OVC045
                      TEMPO 2314/2318 3SM -RA BR BKN005 OVC030
                       FM231900 18008KT P6SM VCSH BKN025 BKN045
                       FM232300 18007KT P6SM SCT025 BKN050=
201405231120 TAF KBLI 231120Z 2312/2412 17005KT P6SM BKN050 OVC080 FM231400
                       17008KT P6SM -RA SCT030 OVC045
                      TEMPO 2315/2319 5SM -RA BR BKN018 OVC030
                       FM231900 18008KT P6SM VCSH BKN025 BKN045
                       FM232300 18007KT P6SM SCT025 BKN050=
201405230533 TAF KBLI 230533Z 2306/2406 00000KT P6SM FEW080 OVC150 FM231200
                       16003KT P6SM SCT025 OVC040 FM231500 17008KT
                       5SM -RA BR BKN020 OVC035 FM231900 18008KT
                       P6SM VCSH BKN025 BKN045 FM232300 18007KT
                       P6SM SCT025 BKN050=
201405222320 TAF KBLI 222320Z 2300/2324 20005KT P6SM BKN150 OVC250 FM230600
                       19007KT P6SM SCT040 OVC120 FM231000 18007KT
                       P6SM SCT020 OVC035 FM231400 18007KT 5SM
                       -RA BR BKN015 OVC030 FM231900 23007KT P6SM
                       BKN020 BKN040 FM232300 23007KT P6SM SCT025
                       BKN050=
201405221720 TAF KBLI 221720Z 2218/2318 16006KT P6SM SCT150 BKN250 FM230200
                       18006KT P6SM SCT040 BKN120 OVC200 FM231000
                       18006KT P6SM SCT020 OVC035 FM231400 18008KT
                       5SM -RA BR BKN015 OVC030=
201405221120 TAF KBLI 221120Z 2212/2312 00000KT P6SM BKN160 FM221900 18008KT
                       P6SM SCT040 BKN150 FM230400 VRB03KT P6SM
                       FEW040 OVC120=
201405220524 TAF KBLI 220524Z 2206/2306 17006KT P6SM FEW030 BKN060 OVC200=
201405212320 TAF KBLI 212320Z 2200/2224 17010KT P6SM SCT030 SCT120 BKN200 FM220800
                       18008KT P6SM BKN030 BKN120 BKN200 FM221800
                       18008KT P6SM SCT030 OVC120=
201405211720 TAF KBLI 211720Z 2118/2218 18014KT P6SM SCT025 BKN200 FM212100
                       18012KT P6SM SCT030 SCT120 BKN200 FM220800
                       18008KT P6SM BKN030 BKN120 BKN200 FM221700
                       18008KT P6SM SCT030 OVC120=
201405211120 TAF KBLI 211120Z 2112/2212 16003KT P6SM SCT250 FM211300 17006KT
                       P6SM SCT025 SCT250
                      TEMPO 2113/2117 BKN025 BKN250 FM212100 20007KT
                       P6SM BKN040 BKN100 BKN250 FM220500 18006KT
                       P6SM BKN035 BKN090 BKN250=
201405210520 TAF KBLI 210520Z 2106/2206 17008KT P6SM SCT250 FM211300 17006KT
                       P6SM SCT025 SCT250
                      TEMPO 2113/2117 BKN025 BKN250 FM211700 18010KT
                       P6SM SCT030 SCT250 FM212000 20007KT P6SM
                       SCT040 SCT250=
201405202320 TAF KBLI 202320Z 2100/2124 19006KT P6SM SCT035 SCT080 FM210200
                       20008KT P6SM FEW035 FM210600 18008KT P6SM
                       SCT025 FM211200 17006KT P6SM BKN025 FM211700
                       18010KT P6SM SCT030 FM212000 20007KT P6SM
                       SCT040 SCT250=
201405201720 TAF KBLI 201720Z 2018/2118 18005KT P6SM BKN080 FM202000 19006KT
                       P6SM SCT035 SCT080 FM210200 20008KT P6SM
                       FEW035 FM210600 18008KT P6SM SCT025 FM211200
                       17006KT P6SM BKN025 FM211700 18010KT P6SM
                       SCT030=
201405201120 TAF KBLI 201120Z 2012/2112 18005KT P6SM BKN080 FM202000 19006KT
                       P6SM SCT035 SCT080 FM210200 20008KT P6SM
                       FEW035 FM210600 18008KT P6SM SCT025=
201405200520 TAF KBLI 200520Z 2006/2106 00000KT P6SM BKN090 FM201400 16005KT
                       P6SM BKN030 BKN070 FM202000 19006KT P6SM
                       SCT035 FM210200 20008KT P6SM FEW035=
201405192320 TAF KBLI 192320Z 2000/2024 18008KT P6SM SCT035 BKN060 FM200500
                       18008KT P6SM SCT070 FM201400 16005KT P6SM
                       SCT010 BKN060 FM202000 19008KT P6SM SCT060
                       SCT250=
201405191723 TAF KBLI 191723Z 1918/2018 18008KT P6SM SCT035 BKN060 FM200500
                       18008KT P6SM SCT070 FM201400 16005KT P6SM
                       SCT010 BKN060=
201405191130 TAF KBLI 191130Z 1912/2012 18008KT P6SM SCT035 BKN050 FM200500
                       18008KT P6SM SCT060=
201405190536 TAF KBLI 190536Z 1906/2006 18008KT P6SM SCT070 FM191200 18008KT
                       P6SM SCT035 BKN050 FM191900 18008KT P6SM
                       SCT060=
201405182341 TAF KBLI 182341Z 1900/1924 18008KT P6SM SCT070 FM190900 17010KT
                       P6SM SCT035 BKN050 FM191300 17010KT P6SM
                       SCT025 BKN035 FM191900 20007KT P6SM SCT060=
201405181742 TAF KBLI 181742Z 1818/1918 17007KT P6SM SCT045 SCT060 FM182000
                       18008KT P6SM SCT070 FM190700 16007KT P6SM
                       SCT035 BKN050=
201405181127 TAF KBLI 181127Z 1812/1912 17005KT P6SM OVC080 FM181800 18008KT
                       P6SM SCT040 OVC060 FM190200 20008KT P6SM
                       SCT035 BKN050=
201405180538 TAF KBLI 180538Z 1806/1906 18006KT P6SM SCT060 SCT150 FM181800
                       18008KT P6SM -SHRA BKN040 OVC060 FM190300
                       20008KT P6SM VCSH SCT035 BKN050=
201405172340 TAF KBLI 172340Z 1800/1824 17006KT P6SM SCT060 FM181000 16005KT
                       P6SM VCSH BKN035 OVC050 FM182100 18008KT
                       P6SM SCT050=
201405171739 TAF KBLI 171739Z 1718/1818 19006KT P6SM BKN040 FM172100 24006KT
                       P6SM SCT045 FM181000 17006KT P6SM BKN035
                       OVC050=
201405171132 TAF KBLI 171132Z 1712/1812 19006KT P6SM OVC035 FM171900 17006KT
                       P6SM SCT035 BKN050 FM181000 17006KT P6SM
                       BKN035 OVC050=
201405170530 TAF KBLI 170530Z 1706/1806 19008KT P6SM BKN060 FM172100 17008KT
                       P6SM VCSH SCT035 BKN050=
201405162320 TAF KBLI 162320Z 1700/1724 18006KT P6SM BKN250 FM170200 19008KT
                       P6SM BKN100 FM171100 17010KT P6SM BKN060
                       FM172100 17010KT P6SM -RA BKN030=
201405161722 TAF KBLI 161722Z 1618/1718 18006KT P6SM BKN250 FM170200 19008KT
                       P6SM BKN100 FM171100 17010KT P6SM BKN060=
201405161132 TAF KBLI 161132Z 1612/1712 18006KT P6SM BKN250 FM170200 19010KT
                       P6SM BKN250=
201405160526 TAF KBLI 160526Z 1606/1706 19006KT P6SM BKN250 FM170200 19010KT
                       P6SM BKN250=
201405152320 TAF KBLI 152320Z 1600/1624 VRB04KT P6SM BKN250 FM160400 19006KT
                       P6SM BKN250 FM161400 17007KT P6SM BKN050
                       FM161600 18008KT P6SM SCT100 BKN250=
201405151720 TAF KBLI 151720Z 1518/1618 VRB04KT P6SM BKN250 FM160400 19006KT
                       P6SM BKN250=
201405151122 TAF KBLI 151122Z 1512/1612 VRB03KT P6SM BKN250 FM160400 19006KT
                       P6SM BKN250=
201405150526 TAF KBLI 150526Z 1506/1606 VRB03KT P6SM BKN250 FM160400 19006KT
                       P6SM BKN250=
201405142320 TAF KBLI 142320Z 1500/1524 27006KT P6SM BKN250 FM150400 00000KT
                       P6SM SCT250 FM151800 VRB03KT P6SM SCT250=
201405141745 TAF KBLI 141745Z 1418/1518 VRB03KT P6SM BKN250 FM142000 28006KT
                       P6SM BKN250 FM150400 00000KT P6SM BKN250=
201405141125 TAF KBLI 141125Z 1412/1512 VRB03KT P6SM BKN250 FM141600 35006KT
                       P6SM BKN250 FM142000 28006KT P6SM BKN250
                       FM150200 VRB03KT P6SM BKN250=
201405140526 TAF KBLI 140526Z 1406/1506 VRB03KT P6SM BKN250 FM141600 35006KT
                       P6SM BKN250 FM142000 28006KT P6SM BKN250
                       FM150200 VRB03KT P6SM BKN250=
201405132320 TAF KBLI 132320Z 1400/1424 28006KT P6SM FEW250 FM140200 VRB03KT
                       P6SM SKC FM141700 24005KT P6SM SKC=
201405131734 TAF KBLI 131734Z 1318/1418 36005KT P6SM SCT100 SCT250 FM132100
                       28006KT P6SM FEW250 FM140200 VRB03KT P6SM
                       SKC=
201405131128 TAF KBLI 131128Z 1312/1412 VRB03KT P6SM BKN090 OVC200 FM131800
                       33005KT P6SM BKN250 FM132100 26006KT P6SM
                       FEW250 FM140000 VRB03KT P6SM SKC=
201405130904 TAF AMD KBLI 130904Z 1309/1406 VRB03KT P6SM BKN100 OVC200 FM131800
                       33005KT P6SM SCT100 BKN250 FM132100 26006KT
                       P6SM SCT250 FM140000 VRB03KT P6SM SCT250=
201405130540 TAF KBLI 130540Z 1306/1406 VRB03KT P6SM SCT100 OVC200 FM131800
                       33005KT P6SM BKN250 FM132100 26006KT P6SM
                       SCT250 FM140000 VRB03KT P6SM SCT250=
201405130302 TAF AMD KBLI 130302Z 1303/1324 VRB03KT P6SM BKN250 FM130600 00000KT
                       P6SM BKN100 BKN200 FM131500 VRB03KT P6SM
                       SCT200=
201405122320 TAF KBLI 122320Z 1300/1324 VRB03KT P6SM SCT200 FM130500 00000KT
                       P6SM BKN100 BKN200 FM131500 VRB03KT P6SM
                       SCT200=
201405121720 TAF KBLI 121720Z 1218/1318 VRB03KT P6SM BKN200 FM122000 25006KT
                       P6SM BKN200 FM130200 VRB03KT P6SM SCT200=
201405121130 TAF KBLI 121130Z 1212/1312 VRB03KT P6SM OVC200 FM122000 25005KT
                       P6SM FEW090 SCT130 OVC200 FM130000 VRB03KT
                       P6SM FEW090 BKN130 OVC200=
201405120522 TAF KBLI 120522Z 1206/1306 VRB03KT P6SM BKN250 FM122000 25005KT
                       P6SM FEW090 BKN200 FM130000 30005KT P6SM
                       FEW090 BKN200=
201405120303 TAF AMD KBLI 120303Z 1203/1224 VRB03KT P6SM BKN250 FM120600 VRB04KT
                       P6SM SCT250=
201405112320 TAF KBLI 112320Z 1200/1224 VRB04KT P6SM SKC FM120600 VRB04KT P6SM
                       SCT250=
201405111720 TAF KBLI 111720Z 1118/1218 19005KT P6SM SCT050 FM112000 21006KT
                       P6SM SKC FM120100 VRB03KT P6SM FEW250=
201405111121 TAF KBLI 111121Z 1112/1212 VRB03KT P6SM FEW035 OVC060 FM111800
                       17006KT P6SM SCT060 FM112000 21006KT P6SM
                       SCT250 FM120100 VRB03KT P6SM SCT250=
201405110905 TAF AMD KBLI 110905Z 1109/1206 VRB03KT P6SM BKN060 FM111500 VRB03KT
                       P6SM SCT060 FM112000 21006KT P6SM SKC FM120100
                       VRB03KT P6SM SKC=
201405110524 TAF KBLI 110524Z 1106/1206 VRB03KT P6SM SCT060
                      TEMPO 1107/1111 BKN060 FM112000 21006KT P6SM
                       SKC FM120100 VRB03KT P6SM SKC=
201405110301 TAF AMD KBLI 110301Z 1103/1124 VRB03KT P6SM SKC FM111800 17007KT
                       P6SM SKC=
201405102320 TAF KBLI 102320Z 1100/1124 16008KT P6SM SCT035 BKN060 FM110400
                       15005KT P6SM BKN060 FM110600 15005KT P6SM
                       SCT060 FM111800 17007KT P6SM SKC=
201405102006 TAF AMD KBLI 102006Z 1020/1118 17009KT P6SM SCT025 BKN050 FM110300
                       16004KT P6SM SCT050=
201405101720 TAF KBLI 101720Z 1018/1118 17008KT P6SM SCT015 OVC050
                      TEMPO 1018/1022 -RA BKN015 OVC050 FM102200
                       17008KT P6SM BKN050 FM110600 16004KT P6SM
                       SCT050=
201405101124 TAF KBLI 101124Z 1012/1112 15006KT P6SM FEW020 BKN070 FM101400
                       17012KT P6SM SCT020 BKN070
                      TEMPO 1014/1018 BKN020 OVC070 FM101800 19008KT
                       P6SM SCT070 FM110100 VRB03KT P6SM FEW080=
201405100906 TAF AMD KBLI 100906Z 1009/1106 15008KT P6SM FEW020 SCT050 SCT070
                       TEMPO 1009/1013 FEW020 BKN050 BKN070 FM101800
                       17012KT P6SM SCT028 BKN050 FM102100 20007KT
                       P6SM FEW050 FM110200 VRB03KT P6SM SKC=
201405100726 TAF AMD KBLI 100726Z 1007/1106 15008KT P6SM SCT020 BKN050
                      TEMPO 1007/1009 BKN020 OVC050 FM100900 15008KT
                       P6SM BKN020 OVC050 FM101800 17012KT P6SM
                       SCT028 BKN050 FM102100 20007KT P6SM FEW050
                       FM110200 VRB03KT P6SM SKC=
201405100520 TAF KBLI 100520Z 1006/1106 17008KT P6SM SCT025 BKN050 FM100900
                       17008KT P6SM BKN025 OVC050 FM101800 17012KT
                       P6SM SCT028 BKN050 FM102100 20007KT P6SM
                       FEW050 FM110200 VRB03KT P6SM SKC=
201405100152 TAF AMD KBLI 100152Z 1002/1024 17009KT P6SM SCT060 FM101200 18006KT
                       P6SM VCSH SCT025 BKN050 FM101800 18009KT
                       P6SM BKN050 FM102000 17011KT P6SM SCT050=
201405092320 TAF KBLI 092320Z 1000/1024 17008KT P6SM BKN050 FM101200 18006KT
                       P6SM VCSH SCT025 BKN050 FM101800 18009KT
                       P6SM BKN050 FM102000 17011KT P6SM SCT050=
201405091720 TAF KBLI 091720Z 0918/1018 16010KT P6SM -SHRA BKN035 BKN060 FM092000
                       17008KT P6SM VCSH SCT025 OVC040 FM100600
                       18008KT P6SM VCSH OVC018=
201405091125 TAF KBLI 091125Z 0912/1012 17010KT P6SM -SHRA SCT016 OVC045
                      TEMPO 0912/0916 5SM -SHRA BR BKN016 OVC030
                       FM091600 16014G22KT P6SM -SHRA OVC025 FM092000
                       17010KT P6SM VCSH SCT025 OVC040=
201405090525 TAF KBLI 090525Z 0906/1006 17005KT P6SM -SHRA SCT008 BKN025 OVC060
                       FM091000 16015G22KT P6SM -SHRA OVC025 FM092000
                       17010KT P6SM VCSH SCT025 OVC040=
201405082320 TAF KBLI 082320Z 0900/0924 18012G20KT P6SM -RA SCT015 OVC025
                      TEMPO 0901/0905 4SM -RA BR OVC015 FM090800
                       16015G22KT P6SM -RA OVC025 FM091500 18012KT
                       P6SM -SHRA BKN025 OVC035=
201405081720 TAF KBLI 081720Z 0818/0918 16005KT P6SM SCT035 OVC045
                      TEMPO 0818/0820 -RA OVC035 FM082000 16012G20KT
                       P6SM -RA OVC030
                      TEMPO 0900/0904 5SM -RA BR OVC018 FM090800
                       16015G22KT P6SM -SHRA BKN030 OVC050=
201405081130 TAF KBLI 081130Z 0812/0912 18003KT P6SM BKN060 FM081800 16008KT
                       P6SM -RA OVC035 FM082200 16012G20KT P6SM
                       -RA OVC025
                      TEMPO 0900/0904 4SM -RA BR OVC015 FM090800
                       16015KT P6SM -SHRA BKN030 OVC050=
201405080535 TAF KBLI 080535Z 0806/0906 16004KT P6SM BKN250 FM081400 15008KT
                       P6SM FEW007 BKN040 FM082000 16010G15KT P6SM
                       BKN025 OVC040 FM090000 16014G22KT 4SM -RA
                       BR OVC015=
201405072340 TAF KBLI 072340Z 0800/0824 18007KT P6SM FEW250 FM080600 18003KT
                       P6SM BKN250 FM081400 15008KT P6SM FEW007
                       BKN040 FM082000 16010G15KT P6SM BKN025 OVC040=
201405071741 TAF KBLI 071741Z 0718/0818 18007KT P6SM FEW250 FM080600 18003KT
                       P6SM BKN250 FM081400 15008KT P6SM FEW007
                       OVC040=
201405071125 TAF KBLI 071125Z 0712/0812 00000KT P6SM SCT070
                      TEMPO 0714/0718 BKN070 FM071800 18007KT P6SM
                       SCT070 BKN250 FM080900 17006KT P6SM BKN120
                       OVC250=
201405070530 TAF KBLI 070530Z 0706/0806 16004KT P6SM SKC FM070900 17005KT P6SM
                       SCT025 BKN060 FM071800 18007KT P6SM SCT060
                       BKN250=
201405062340 TAF KBLI 062340Z 0700/0724 18008KT P6SM SCT060 FM070800 17005KT
                       P6SM SCT025 BKN060=
201405062103 TAF AMD KBLI 062103Z 0621/0718 17010G15KT P6SM FEW035 FM070000
                       18008KT P6SM SCT035 BKN090 FM070600 17005KT
                       P6SM SCT012 SCT040 BKN090=
201405061754 TAF AMD KBLI 061754Z 0618/0718 17005KT P6SM BKN026 FM062200 18003KT
                       P6SM SCT030 BKN090 FM070600 17003KT P6SM
                       SCT012 SCT040 BKN090=
201405061740 TAF KBLI 061740Z 0618/0718 16004KT P6SM FEW070 OVC090 FM061900
                       23005KT P6SM SCT040 SCT060 FM070300 18003KT
                       P6SM SCT060 SCT250=
201405061529 TAF AMD KBLI 061529Z 0615/0712 16004KT P6SM FEW070 OVC090
                      TEMPO 0615/0618 OVC030 FM061900 23005KT P6SM
                       SCT040 SCT060 FM070300 18003KT P6SM SCT060
                       SCT250=
201405061125 TAF KBLI 061125Z 0612/0712 16004KT P6SM FEW070 OVC090 FM061900
                       23005KT P6SM SCT040 SCT060 FM070300 18003KT
                       P6SM SCT060 SCT250=
201405060525 TAF KBLI 060525Z 0606/0706 16005KT P6SM OVC100 FM061000 17006KT
                       P6SM BKN020 OVC050 FM061900 23005KT P6SM
                       SCT040 SCT060=
201405052333 TAF KBLI 052333Z 0600/0624 17006KT P6SM SCT020 SCT060 FM061000
                       17006KT P6SM BKN020 OVC050 FM061900 23005KT
                       P6SM SCT040 SCT060=
201405051729 TAF KBLI 051729Z 0518/0618 31003KT 4SM -RA BR BKN004 OVC011 FM052000
                       22004KT P6SM VCSH SCT015 BKN050
                      TEMPO 0520/0522 -SHRA BKN015 OVC050 FM060200
                       17004KT P6SM SCT025 BKN050 FM061000 17006KT
                       P6SM BKN025 OVC050=
201405051708 TAF AMD KBLI 051708Z 0517/0612 31003KT 4SM -RA BR BKN004 OVC011
                       FM052000 22004KT P6SM VCSH SCT015 BKN050
                       TEMPO 0520/0522 -SHRA BKN015 OVC050 FM061000
                       17006KT P6SM BKN025 OVC050=
201405051459 TAF AMD KBLI 051459Z 0515/0612 36005KT P6SM SCT004 BKN015 OVC025
                       TEMPO 0515/0517 3SM -SHRA BR BKN003 OVC012
                       FM051700 16006KT P6SM SCT025 OVC060
                      TEMPO 0517/0520 -SHRA BKN025 OVC050 FM052100
                       18008KT P6SM SCT025 BKN050 FM061000 17006KT
                       P6SM BKN025 OVC050=
201405051120 TAF KBLI 051120Z 0512/0612 14005KT P6SM -SHRA SCT025 OVC050
                      TEMPO 0512/0516 -SHRA BKN025 OVC040 FM051600
                       16006KT P6SM SCT025 OVC060
                      TEMPO 0516/0520 -SHRA BKN025 OVC050 FM052100
                       18008KT P6SM SCT025 BKN050 FM061000 17006KT
                       P6SM BKN025 OVC050=
201405050522 TAF KBLI 050522Z 0506/0606 15006KT P6SM SCT020 OVC060
                      TEMPO 0506/0510 3SM -SHRA BR BKN020 OVC040
                       FM051000 13004KT P6SM SCT025 OVC060
                      TEMPO 0510/0514 -SHRA BKN025 OVC040 FM052000
                       18008KT P6SM SCT025 BKN050=
201405042320 TAF KBLI 042320Z 0500/0524 14013KT P6SM SCT020 BKN035 OVC050
                      TEMPO 0500/0502 -SHRA BKN020 OVC035 FM050200
                       16010KT P6SM -SHRA BKN025 OVC040 FM051000
                       VRB04KT P6SM -SHRA BKN020 OVC035 FM052000
                       19010KT P6SM VCSH SCT025 BKN045=
201405042102 TAF AMD KBLI 042102Z 0421/0518 15014G18KT P6SM -SHRA BKN025 OVC040
                       FM050200 16010KT P6SM -SHRA BKN025 OVC040
                       FM051000 VRB04KT P6SM -SHRA BKN020 OVC035=
201405041732 TAF KBLI 041732Z 0418/0518 10006KT P6SM -SHRA BKN021 OVC035 FM042000
                       15010KT P6SM -SHRA SCT020 OVC035 FM051000
                       VRB04KT P6SM -SHRA BKN020 OVC035=
201405041633 TAF AMD KBLI 041633Z 0417/0512 09006KT P6SM -SHRA OVC021 FM041900
                       12010KT P6SM -SHRA SCT025 OVC045 FM042300
                       15012KT P6SM -SHRA SCT025 OVC045=
201405041120 TAF KBLI 041120Z 0412/0512 13005KT P6SM SCT025 OVC040
                      TEMPO 0412/0416 5SM -SHRA BR BKN025 OVC035
                       FM041800 16010KT P6SM -SHRA SCT030 OVC045
                       PROB30 0421/0503 -SHRA OVC030=
201405040520 TAF KBLI 040520Z 0406/0506 07004KT P6SM SCT025 OVC060
                      TEMPO 0406/0410 -SHRA BKN025 OVC060 FM041000
                       09004KT P6SM -SHRA BKN025 OVC050 FM041800
                       16010KT P6SM -SHRA SCT030 OVC045=
201405040118 TAF AMD KBLI 040118Z 0401/0424 11008KT P6SM SCT035 OVC070
                      TEMPO 0401/0403 -RA BKN035 OVC070 FM040300
                       VRB04KT 6SM -RA BR SCT018 OVC035
                      TEMPO 0403/0406 3SM RA BR BKN018 OVC035 FM040600
                       13010KT P6SM -SHRA BKN030 OVC045 FM041800
                       16010KT P6SM -SHRA SCT030 OVC045=
201405032321 TAF KBLI 032321Z 0400/0424 13011G17KT P6SM -SHRA SCT030 BKN045
                       OVC090 FM040400 13010KT P6SM -SHRA BKN030
                       OVC045 FM041800 16010KT P6SM -SHRA SCT030
                       OVC045=
201405032155 TAF AMD KBLI 032155Z 0322/0418 15006KT P6SM -SHRA SCT025 BKN035
                       OVC080 FM040400 14004KT P6SM -SHRA BKN025
                       OVC040=
201405031741 TAF KBLI 031741Z 0318/0418 15006KT P6SM -SHRA SCT040 OVC060 FM032000
                       16008KT P6SM -SHRA BKN030 OVC045 FM040400
                       14004KT P6SM -SHRA BKN025 OVC040=
201405031120 TAF KBLI 031120Z 0312/0412 16006KT P6SM -SHRA OVC050 FM031400 17008KT
                       P6SM FEW025 BKN060
                      TEMPO 0314/0318 BKN025 OVC060 FM031800 17010KT
                       P6SM SCT030 BKN060
                      TEMPO 0318/0322 -RA BKN030 OVC060 FM032200
                       16008KT P6SM -RA BKN030 OVC045 FM040600
                       14004KT P6SM -SHRA BKN025 OVC040=
201405031044 TAF AMD KBLI 031044Z 0311/0406 16008KT P6SM -SHRA FEW025 OVC060
                       FM031200 16008KT P6SM FEW025 BKN060
                      TEMPO 0312/0316 -SHRA BKN025 OVC060 FM031600
                       17010KT P6SM SCT030 BKN060
                      TEMPO 0316/0320 -RA BKN030 OVC060 FM032000
                       16008KT P6SM -RA BKN030 OVC045=
201405030520 TAF KBLI 030520Z 0306/0406 17008KT P6SM BKN040 BKN080
                      TEMPO 0306/0310 5SM -SHRA BKN025 OVC040 FM031000
                       18008KT P6SM OVC025 FM032000 16008KT P6SM
                       -RA BKN030 OVC045=
201405030120 TAF AMD KBLI 030120Z 0301/0324 17008KT P6SM VCSH SCT040 BKN080
                       BKN130
                      TEMPO 0301/0304 -SHRA FM030900 18008KT P6SM
                       OVC025 FM032000 16008KT P6SM -SHRA SCT025
                       BKN035=
201405022320 TAF KBLI 022320Z 0300/0324 19008KT P6SM SCT040 BKN090 BKN200 FM030900
                       18008KT P6SM OVC025 FM032000 16008KT P6SM
                       -SHRA SCT025 BKN035=
201405021731 TAF KBLI 021731Z 0218/0318 16013G23KT P6SM BKN250 FM022300 17013G20KT
                       P6SM FEW030 BKN090 FM030200 18009KT P6SM
                       SCT040 OVC060 FM030900 18009KT P6SM OVC025=
201405021700 TAF AMD KBLI 021700Z 0217/0312 16013G23KT P6SM SKC FM022200 17013G20KT
                       P6SM FEW030 BKN090 FM030200 18007KT P6SM
                       BKN060=
201405021120 TAF KBLI 021120Z 0212/0312 17004KT P6SM SCT250 FM021600 17010KT
                       P6SM SCT250 FM022100 17013KT P6SM FEW030
                       BKN090 FM030200 18007KT P6SM BKN060=
201405020520 TAF KBLI 020520Z 0206/0306 18005KT P6SM SCT250 FM021600 18010KT
                       P6SM SCT250 FM022100 18013KT P6SM SCT030
                       BKN080=
201405020118 TAF AMD KBLI 020118Z 0201/0224 VRB03KT P6SM BKN250 FM020600 18006KT
                       P6SM SCT250 FM021400 18008KT P6SM SCT250
                       FM022100 18010KT P6SM SCT030 BKN100=
201405012324 TAF KBLI 012324Z 0200/0224 28005KT P6SM SCT250 FM020600 18006KT
                       P6SM SCT250 FM021400 18008KT P6SM SCT250
                       FM022100 18010KT P6SM SCT030 BKN100=
201405011725 TAF KBLI 011725Z 0118/0218 03008KT P6SM SCT250 FM012000 28005KT
                       P6SM SCT250 FM020200 19005KT P6SM SCT250=
201405011120 TAF KBLI 011120Z 0112/0212 00000KT P6SM SCT250 FM012000 28005KT
                       P6SM SCT250 FM020200 19005KT P6SM SCT250=
201405010520 TAF KBLI 010520Z 0106/0206 00000KT P6SM SCT250 FM012000 28005KT
                       P6SM SCT250 FM020200 19005KT P6SM SCT250=