##########################################################
# Query made at 02/16/2025 20:57:33 UTC
# Time interval: from 04/01/2015 00:00  to 04/30/2015 23:59  UTC
##########################################################

##########################################################
# KBLI, Bellingham, Bellingham International Airport (United States)
# WMO index: -----. WIGOS ID: Unknown
# Latitude 48-47-58N. Longitude 122-32-21W. Altitude 48 m.
##########################################################

###################################
#  METAR/SPECI from KBLI
###################################
201504302353 METAR KBLI 302353Z 21004KT 10SM BKN100 15/05 A3021 RMK AO2 SLP237 60001 T01500050 10156 20122 58022=
201504302253 METAR KBLI 302253Z 18008G14KT 150V240 10SM CLR 15/04 A3024 RMK AO2 SLP246 T01500044=
201504302153 METAR KBLI 302153Z 18007KT 10SM CLR 15/06 A3026 RMK AO2 SLP252 T01500056=
201504302053 METAR KBLI 302053Z 17009KT 10SM FEW065 14/06 A3028 RMK AO2 SLP259 P0001 60001 T01440056 58009=
201504301953 METAR KBLI 301953Z 18010G14KT 10SM CLR 13/06 A3029 RMK AO2 SLP265 T01330056=
201504301853 METAR KBLI 301853Z 17011KT 10SM OVC055 13/06 A3030 RMK AO2 SLP267 T01280056=
201504301753 METAR KBLI 301753Z 15010KT 10SM BKN055 13/06 A3030 RMK AO2 SLP268 T01280061 10128 20100 50001=
201504301653 METAR KBLI 301653Z 16009KT 10SM OVC050 11/06 A3030 RMK AO2 SLP269 T01110061=
201504301553 METAR KBLI 301553Z 16009KT 10SM BKN055 BKN085 11/05 A3030 RMK AO2 SLP267 T01110050=
201504301453 METAR KBLI 301453Z 17006KT 10SM CLR 11/06 A3030 RMK AO2 SLP266 T01110056 53005=
201504301353 METAR KBLI 301353Z 17009KT 10SM OVC050 11/05 A3028 RMK AO2 SLP260 T01060050=
201504301315 METAR KBLI 301315Z AUTO 170/04 10SM 6500 BKN055 BKN095 10/04 A3028=
201504301253 METAR KBLI 301253Z AUTO 17005KT 10SM OVC055 11/04 A3028 RMK AO2 SLP259 T01060044=
201504301153 METAR KBLI 301153Z AUTO 18003KT 10SM BKN050 OVC095 10/04 A3028 RMK AO2 SLP261 60000 70002 T01000039 10117 20089 51004=
201504301053 METAR KBLI 301053Z AUTO 00000KT 10SM BKN050 OVC065 11/05 A3028 RMK AO2 SLP260 T01060050=
201504300953 METAR KBLI 300953Z AUTO 19004KT 10SM SCT060 09/06 A3028 RMK AO2 SLP259 T00890056=
201504300853 METAR KBLI 300853Z AUTO 15004KT 10SM BKN060 10/05 A3027 RMK AO2 SLP257 60000 T01000050 52008=
201504300753 METAR KBLI 300753Z AUTO 18004KT 10SM OVC060 11/04 A3026 RMK AO2 SLP254 T01110044 401560089=
201504300653 METAR KBLI 300653Z AUTO 17005KT 10SM OVC047 11/06 A3025 RMK AO2 RAE02 SLP251 P0000 T01110056=
201504300553 METAR KBLI 300553Z AUTO 17005KT 10SM -RA BKN047 OVC065 12/06 A3024 RMK AO2 RAB51 SLP248 P0000 60001 T01170061 10156 20117 51015=
201504300453 METAR KBLI 300453Z AUTO VRB03KT 10SM OVC049 12/06 A3023 RMK AO2 RAB03E14 SLP245 P0001 T01170061=
201504300353 METAR KBLI 300353Z 25006KT 10SM BKN070 OVC085 13/06 A3022 RMK AO2 SLP240 T01280056=
201504300253 METAR KBLI 300253Z 27003KT 10SM BKN080 OVC095 14/04 A3020 RMK AO2 SLP234 T01390039 56007=
201504300153 METAR KBLI 300153Z 18003KT 10SM SCT060 OVC085 14/04 A3020 RMK AO2 SLP235 T01440039=
201504300053 METAR KBLI 300053Z 17005KT 10SM SCT075 BKN095 BKN110 16/04 A3022 RMK AO2 SLP239 T01560039=
201504292353 METAR KBLI 292353Z 17009KT 10SM OVC110 16/02 A3022 RMK AO2 SLP241 60000 T01560022 10156 20094 56007=
201504292253 METAR KBLI 292253Z 18009KT 10SM CLR 15/04 A3023 RMK AO2 SLP243 T01500044=
201504292153 METAR KBLI 292153Z 15008KT 130V190 10SM CLR 15/06 A3024 RMK AO2 SLP246 T01500056=
201504292053 METAR KBLI 292053Z 17008KT 10SM CLR 14/06 A3024 RMK AO2 SLP249 60000 T01390061 58001=
201504291953 METAR KBLI 291953Z 15009KT 10SM CLR 13/07 A3025 RMK AO2 SLP250 T01280072=
201504291853 METAR KBLI 291853Z 16008KT 10SM FEW018 SCT110 12/08 A3025 RMK AO2 RAE19 SLP251 P0000 T01170078=
201504291753 METAR KBLI 291753Z 15007KT 4SM -RA BR FEW019 BKN030 OVC043 10/08 A3025 RMK AO2 RAB33 SLP250 P0000 60001 T01000083 10117 20089 51013=
201504291653 METAR KBLI 291653Z 15010KT 10SM FEW033 OVC050 11/07 A3024 RMK AO2 SLP246 T01110067=
201504291553 METAR KBLI 291553Z 16009KT 10SM FEW019 OVC038 11/07 A3023 RMK AO2 SLP243 T01060067=
201504291453 METAR KBLI 291453Z 16009KT 10SM FEW021 11/07 A3021 RMK AO2 SLP237 P0001 60001 T01060067 53013=
201504291353 METAR KBLI 291353Z AUTO 17004KT 10SM FEW055 09/06 A3020 RMK AO2 SLP232 T00940061=
201504291253 METAR KBLI 291253Z AUTO 17005KT 10SM SCT060 09/06 A3018 RMK AO2 SLP228 T00940056=
201504291153 METAR KBLI 291153Z AUTO 17005KT 10SM CLR 09/06 A3017 RMK AO2 SLP224 70001 T00890056 10106 20089 51007=
201504291053 METAR KBLI 291053Z AUTO 16006KT 10SM CLR 09/06 A3017 RMK AO2 SLP223 T00940061=
201504290953 METAR KBLI 290953Z AUTO 17006KT 10SM FEW048 10/04 A3016 RMK AO2 SLP220 T01000044=
201504290853 METAR KBLI 290853Z AUTO 17006KT 10SM CLR 09/04 A3015 RMK AO2 SLP216 T00940039 53008=
201504290753 METAR KBLI 290753Z AUTO 16004KT 10SM CLR 09/06 A3014 RMK AO2 SLP213 T00890056 401500089=
201504290653 METAR KBLI 290653Z AUTO 16004KT 10SM FEW060 BKN085 10/06 A3013 RMK AO2 SLP210 T01000061=
201504290553 METAR KBLI 290553Z AUTO 15008KT 10SM OVC065 11/06 A3012 RMK AO2 SLP208 T01060061 10128 20106 51006=
201504290453 METAR KBLI 290453Z AUTO 16009KT 10SM BKN070 OVC085 11/07 A3012 RMK AO2 SLP206 T01060067=
201504290353 METAR KBLI 290353Z 16006KT 10SM CLR 11/07 A3011 RMK AO2 SLP205 T01110067=
201504290253 METAR KBLI 290253Z 16010KT 10SM CLR 12/08 A3011 RMK AO2 SLP202 T01170078 55003=
201504290153 METAR KBLI 290153Z 17007KT 10SM OVC085 12/08 A3011 RMK AO2 SLP202 T01220083=
201504290053 METAR KBLI 290053Z 17008KT 10SM OVC090 12/08 A3011 RMK AO2 SLP204 T01220078=
201504282353 METAR KBLI 282353Z 16004KT 10SM OVC075 12/08 A3012 RMK AO2 RAE13 SLP205 P0000 60001 T01170078 10133 20111 58003=
201504282253 METAR KBLI 282253Z 15003KT 10SM -RA OVC060 11/08 A3012 RMK AO2 SLP208 P0000 T01110078=
201504282153 METAR KBLI 282153Z 00000KT 10SM -RA SCT013 OVC060 12/09 A3013 RMK AO2 SLP209 P0001 T01170094=
201504282053 METAR KBLI 282053Z 00000KT 10SM -RA FEW028 OVC050 13/07 A3013 RMK AO2 RAB53 SLP209 P0000 60000 T01280067 51016=
201504281953 METAR KBLI 281953Z 14004KT 10SM FEW029 OVC043 13/07 A3011 RMK AO2 SLP204 VCSH T01280067=
201504281853 METAR KBLI 281853Z VRB03KT 10SM OVC041 12/07 A3011 RMK AO2 RAB41E50 SLP203 P0000 T01220072=
201504281753 METAR KBLI 281753Z VRB05KT 10SM SCT025 OVC033 13/06 A3008 RMK AO2 SLP193 T01280061 10150 20128 53032=
201504281653 METAR KBLI 281653Z 20005KT 10SM SCT027 BKN036 OVC044 14/10 A3004 RMK AO2 SLP178 T01390100=
201504281553 METAR KBLI 281553Z 16008KT 10SM OVC044 14/11 A3001 RMK AO2 SLP168 T01440106=
201504281453 METAR KBLI 281453Z 17009G14KT 10SM OVC046 14/10 A2999 RMK AO2 SLP160 T01440100 53014=
201504281353 METAR KBLI 281353Z 16009G16KT 10SM BKN048 14/11 A2997 RMK AO2 SLP153 T01440106=
201504281253 METAR KBLI 281253Z AUTO 17008KT 10SM BKN048 BKN055 BKN095 14/11 A2995 RMK AO2 SLP148 T01440111=
201504281153 METAR KBLI 281153Z AUTO 17003KT 10SM SCT048 BKN110 13/11 A2994 RMK AO2 SLP145 70002 T01330106 10139 20106 51020=
201504281053 METAR KBLI 281053Z AUTO 11003KT 10SM FEW100 11/10 A2993 RMK AO2 SLP140 T01110100=
201504280953 METAR KBLI 280953Z AUTO 23004KT 10SM CLR 12/11 A2990 RMK AO2 SLP131 T01170106=
201504280853 METAR KBLI 280853Z AUTO 00000KT 10SM CLR 11/10 A2988 RMK AO2 SLP125 T01110100 55006=
201504280753 METAR KBLI 280753Z AUTO 00000KT 10SM CLR 11/11 A2988 RMK AO2 SLP126 T01110106 402060094=
201504280653 METAR KBLI 280653Z AUTO 00000KT 10SM CLR 11/11 A2989 RMK AO2 SLP128 T01110106=
201504280553 METAR KBLI 280553Z AUTO 00000KT 10SM CLR 12/11 A2990 RMK AO2 SLP132 P0001 60001 T01220111 10206 20122 56018=
201504280453 METAR KBLI 280453Z 00000KT 10SM CLR 15/11 A2991 RMK AO2 SLP136 T01500111=
201504280353 METAR KBLI 280353Z 01004KT 10SM CLR 16/11 A2993 RMK AO2 SLP142 T01560111=
201504280253 METAR KBLI 280253Z 01007KT 10SM CLR 18/12 A2996 RMK AO2 SLP151 T01780122 56035=
201504280153 METAR KBLI 280153Z 01006KT 10SM CLR 19/13 A2999 RMK AO2 SLP161 T01940128=
201504280053 METAR KBLI 280053Z 01009KT 10SM CLR 19/12 A3002 RMK AO2 SLP171 T01940122=
201504272353 METAR KBLI 272353Z 36008G15KT 10SM CLR 19/12 A3006 RMK AO2 SLP185 60001 T01940122 10200 20128 58041=
201504272253 METAR KBLI 272253Z 01008G15KT 10SM CLR 19/12 A3010 RMK AO2 SLP200 T01890122=
201504272153 METAR KBLI 272153Z 34010KT 10SM CLR 18/12 A3015 RMK AO2 SLP214 T01830122=
201504272053 METAR KBLI 272053Z 35009KT 10SM SCT080 OVC100 18/12 A3018 RMK AO2 SLP226 60001 T01780117 58021=
201504271953 METAR KBLI 271953Z 02007KT 10SM SCT029 OVC100 17/12 A3021 RMK AO2 SLP237 P0001 T01670117=
201504271907 SPECI KBLI 271907Z 04008KT 10SM SCT029 OVC100 15/11 A3022 RMK AO2=
201504271900 SPECI KBLI 271900Z 03006KT 10SM BKN029 OVC100 15/12 A3022 RMK AO2=
201504271853 METAR KBLI 271853Z 01007KT 10SM SCT029 OVC100 15/12 A3022 RMK AO2 SLP241 T01500117=
201504271800 SPECI KBLI 271800Z 02009KT 10SM SCT006 BKN049 OVC060 13/11 A3024 RMK AO2=
201504271753 METAR KBLI 271753Z 01007KT 8SM FEW006 OVC019 12/11 A3024 RMK AO2 RAE39 SLP248 P0000 60000 T01220111 10122 20094 58002=
201504271700 SPECI KBLI 271700Z 02005KT 6SM BR FEW005 OVC019 11/10 A3026 RMK AO2 RAE1658 P0000=
201504271653 METAR KBLI 271653Z 02003KT 3SM -RA BR BKN012 OVC017 11/11 A3026 RMK AO2 SLP253 P0000 T01110106=
201504271553 METAR KBLI 271553Z 01004KT 3SM -RA BR BKN012 OVC017 10/09 A3026 RMK AO2 SLP255 P0000 T01000094=
201504271540 SPECI KBLI 271540Z 02004KT 3SM -RA BR BKN009 OVC017 10/09 A3026 RMK AO2 CIG 008V012 P0000=
201504271524 SPECI KBLI 271524Z 01004KT 3SM -RA BR BKN012 OVC018 10/09 A3026 RMK AO2 P0000=
201504271502 SPECI KBLI 271502Z 02004KT 3SM -RA BR BKN015 OVC019 10/09 A3025 RMK AO2 P0000=
201504271453 METAR KBLI 271453Z 01004KT 2 1/2SM -RA BR OVC015 10/09 A3025 RMK AO2 RAE09B27 SLP250 P0000 60000 T01000089 53000=
201504271353 METAR KBLI 271353Z 00000KT 4SM -RA BR OVC017 09/09 A3024 RMK AO2 SLP249 P0000 T00940089=
201504271253 METAR KBLI 271253Z AUTO 05004KT 4SM -RA BR OVC019 09/08 A3025 RMK AO2 SLP249 P0000 T00940083=
201504271153 METAR KBLI 271153Z AUTO 05004KT 3SM -RA BR OVC024 09/09 A3025 RMK AO2 SLP249 P0000 60001 70002 T00940089 10128 20094 53001=
201504271053 METAR KBLI 271053Z AUTO 00000KT 9SM -RA OVC024 11/08 A3024 RMK AO2 RAB52 SLP248 P0000 T01060083=
201504270953 METAR KBLI 270953Z AUTO 00000KT 10SM OVC024 10/08 A3024 RMK AO2 RAE45 SLP246 P0000 T01000083=
201504270853 METAR KBLI 270853Z AUTO 00000KT 10SM -RA OVC026 11/08 A3024 RMK AO2 RAB0759 SLP248 P0000 60001 T01060078 50005=
201504270819 SPECI KBLI 270819Z AUTO 00000KT 10SM -RA OVC028 11/08 A3024 RMK AO2 RAB0759 P0000=
201504270753 METAR KBLI 270753Z AUTO 36004KT 10SM OVC032 11/07 A3025 RMK AO2 SLP249 P0001 T01110072 401500022=
201504270653 METAR KBLI 270653Z AUTO 13003KT 10SM OVC036 13/06 A3023 RMK AO2 SLP245 T01280061=
201504270553 METAR KBLI 270553Z AUTO 12007KT 10SM OVC040 13/06 A3023 RMK AO2 SLP244 60000 T01280061 10150 20128 50013=
201504270453 METAR KBLI 270453Z 14009G14KT 10SM OVC042 13/06 A3023 RMK AO2 RAE23 SLP244 P0000 T01330061=
201504270353 METAR KBLI 270353Z 16006KT 10SM -RA OVC050 14/06 A3021 RMK AO2 RAB40 SLP236 P0000 T01390056=
201504270253 METAR KBLI 270253Z 00000KT 10SM OVC070 14/06 A3019 RMK AO2 RAB21E32 SLP230 P0000 60000 T01390056 55003=
201504270153 METAR KBLI 270153Z 18005KT 10SM OVC090 14/04 A3019 RMK AO2 SLP230 T01390044=
201504270053 METAR KBLI 270053Z 17006KT 10SM BKN110 14/04 A3019 RMK AO2 SLP232 T01440039=
201504262353 METAR KBLI 262353Z 17007KT 10SM FEW095 15/05 A3020 RMK AO2 SLP234 T01500050 10150 20117 50000=
201504262253 METAR KBLI 262253Z 17006KT 10SM OVC100 14/05 A3020 RMK AO2 SLP236 T01440050=
201504262153 METAR KBLI 262153Z 17008KT 10SM BKN110 14/03 A3020 RMK AO2 SLP236 T01440033=
201504262053 METAR KBLI 262053Z 17007KT 10SM BKN120 14/04 A3020 RMK AO2 SLP234 T01390044 50001=
201504261953 METAR KBLI 261953Z 17007KT 10SM CLR 13/05 A3020 RMK AO2 SLP236 T01330050=
201504261853 METAR KBLI 261853Z 16005KT 10SM CLR 12/04 A3021 RMK AO2 SLP237 T01220044=
201504261753 METAR KBLI 261753Z 14004KT 10SM CLR 12/04 A3020 RMK AO2 SLP233 P0001 60001 T01220039 10122 20022 51012=
201504261653 METAR KBLI 261653Z 00000KT 10SM CLR 12/06 A3019 RMK AO2 SLP232 T01170056=
201504261553 METAR KBLI 261553Z 00000KT 10SM CLR 09/06 A3018 RMK AO2 SLP227 T00890056=
201504261453 METAR KBLI 261453Z 00000KT 10SM CLR 07/04 A3016 RMK AO2 SLP221 T00720044 53008=
201504261353 METAR KBLI 261353Z AUTO 00000KT 10SM CLR 04/03 A3015 RMK AO2 SLP217 T00440033 TSNO=
201504261253 METAR KBLI 261253Z AUTO 00000KT 10SM CLR 03/02 A3014 RMK AO2 SLP214 T00280022 TSNO=
201504261153 METAR KBLI 261153Z AUTO 00000KT 10SM CLR 03/02 A3014 RMK AO2 SLP213 60001 70010 T00280022 10072 20022 53014 TSNO=
201504261053 METAR KBLI 261053Z AUTO 00000KT 10SM CLR 03/02 A3012 RMK AO2 SLP206 T00330022 TSNO=
201504260953 METAR KBLI 260953Z AUTO 00000KT 10SM CLR 04/03 A3011 RMK AO2 SLP204 T00440028 TSNO=
201504260853 METAR KBLI 260853Z AUTO 00000KT 10SM CLR 05/03 A3010 RMK AO2 SLP199 60001 T00500033 53008 TSNO=
201504260753 METAR KBLI 260753Z AUTO 00000KT 10SM CLR 05/03 A3009 RMK AO2 SLP196 P0001 T00500033 401170022 TSNO=
201504260653 METAR KBLI 260653Z AUTO 00000KT 10SM CLR 06/04 A3008 RMK AO2 SLP193 T00610039 TSNO=
201504260553 METAR KBLI 260553Z AUTO 14003KT 10SM CLR 07/04 A3007 RMK AO2 SLP191 60001 T00670039 10117 20061 51011 TSNO=
201504260453 METAR KBLI 260453Z 15003KT 10SM CLR 07/04 A3006 RMK AO2 SLP187 T00670039=
201504260353 METAR KBLI 260353Z 00000KT 10SM CLR 06/03 A3005 RMK AO2 SLP184 T00610033=
201504260253 METAR KBLI 260253Z 00000KT 10SM CLR 08/03 A3004 RMK AO2 SLP180 P0001 60001 T00830033 53009=
201504260153 METAR KBLI 260153Z 26003KT 10SM CLR 11/02 A3003 RMK AO2 SLP176 T01110017=
201504260053 METAR KBLI 260053Z 00000KT 10SM CLR 12/03 A3002 RMK AO2 SLP173 T01170028=
201504252353 METAR KBLI 252353Z 16005KT 10SM CLR 12/04 A3001 RMK AO2 SLP170 P0001 60004 T01170039 10117 20072 52002=
201504252253 METAR KBLI 252253Z VRB05KT 10SM CLR 11/04 A3001 RMK AO2 SLP169 P0001 T01110044=
201504252153 METAR KBLI 252153Z 16005KT 10SM SCT038 10/04 A3001 RMK AO2 SLP170 T01000044=
201504252053 METAR KBLI 252053Z VRB06KT 10SM CLR 09/04 A3000 RMK AO2 SLP168 P0001 60002 T00940044 51005=
201504251953 METAR KBLI 251953Z 14007KT 10SM FEW018 09/04 A3000 RMK AO2 SLP167 P0001 T00890039 $=
201504251911 SPECI KBLI 251911Z 18007KT 10SM FEW028 08/04 A3000 RMK AO2 P0001 $=
201504251853 METAR KBLI 251853Z 17008KT 10SM BKN028 08/04 A3000 RMK AO2 SLP165 T00830039 $=
201504251753 METAR KBLI 251753Z VRB06KT 10SM OVC019 07/03 A2999 RMK AO2 SLP162 P0001 60004 T00720033 10078 20022 51016 $=
201504251653 METAR KBLI 251653Z 15008KT 10SM FEW014 SCT021 BKN026 07/04 A2997 RMK AO2 SLP157 T00720039 $=
201504251553 METAR KBLI 251553Z 15006KT 10SM SCT020 OVC026 07/04 A2996 RMK AO2 SLP152 P0001 T00720039 $=
201504251453 METAR KBLI 251453Z 14004KT 10SM BKN019 OVC027 07/04 A2994 RMK AO2 RAB1358E09B33E46 SLP146 P0001 60002 T00670044 53013 $=
201504251353 METAR KBLI 251353Z 00000KT 10SM OVC019 04/04 A2992 RMK AO2 SLP139 T00440039 $=
201504251253 METAR KBLI 251253Z AUTO 00000KT 10SM BKN019 03/02 A2991 RMK AO2 SLP136 P0001 T00280022 $=
201504251237 SPECI KBLI 251237Z AUTO 00000KT 9SM BKN019 03/02 A2991 RMK AO2 P0001 $=
201504251229 SPECI KBLI 251229Z AUTO 00000KT 2SM BR FEW001 BKN019 02/02 A2991 RMK AO2 P0001 $=
201504251215 SPECI KBLI 251215Z AUTO 00000KT 1 1/2SM BR FEW001 SCT017 03/02 A2990 RMK AO2 VIS 3/4V5 $=
201504251201 SPECI KBLI 251201Z AUTO 00000KT 2SM BR FEW001 SCT018 03/02 A2990 RMK AO2 $=
201504251153 METAR KBLI 251153Z AUTO 00000KT 1SM R16/P6000FT BR SCT001 BKN018 03/02 A2990 RMK AO2 SLP134 60004 7//// T00280022 10061 20022 51008 $=
201504251140 SPECI KBLI 251140Z AUTO 00000KT 1SM R16/3000VP6000FT BR SCT001 BKN018 03/02 A2990 RMK AO2 $=
201504251134 SPECI KBLI 251134Z AUTO 00000KT 3/4SM R16/4000VP6000FT BR SCT001 SCT018 02/02 A2990 RMK AO2 $=
201504251122 SPECI KBLI 251122Z AUTO 00000KT 1/2SM R16/4500VP6000FT FG VV001 04/03 A2990 RMK AO2 $=
201504251117 SPECI KBLI 251117Z AUTO 00000KT 3/4SM R16/6000VP6000FT BR FEW001 SCT035 03/03 A2990 RMK AO2 $=
201504251111 SPECI KBLI 251111Z AUTO 00000KT 2SM R16/6000VP6000FT BR FEW001 SCT035 04/03 A2990 RMK AO2 VIS 3/4V5 $=
201504251053 METAR KBLI 251053Z AUTO 00000KT 10SM FEW019 OVC035 05/04 A2989 RMK AO2 SLP132 P0001 T00500039 $=
201504251025 SPECI KBLI 251025Z AUTO 00000KT 10SM FEW021 OVC033 04/04 A2989 RMK AO2 $=
201504251014 SPECI KBLI 251014Z AUTO 00000KT 10SM BKN021 OVC031 05/04 A2989 RMK AO2 $=
201504250953 METAR KBLI 250953Z AUTO 00000KT 9SM SCT021 BKN031 04/04 A2989 RMK AO2 SLP129 P0001 T00440039 $=
201504250853 METAR KBLI 250853Z AUTO 00000KT 7SM BKN025 BKN110 04/04 A2988 RMK AO2 SLP126 60002 T00440039 53005 $=
201504250753 METAR KBLI 250753Z AUTO 00000KT 10SM OVC110 05/05 A2987 RMK AO2 SLP124 P0001 T00500050 401280039 $=
201504250708 SPECI KBLI 250708Z AUTO 00000KT 3SM BR FEW026 SCT120 04/04 A2987 RMK AO2 $=
201504250700 SPECI KBLI 250700Z AUTO 01003KT 1 3/4SM BR CLR 04/03 A2986 RMK AO2 VIS 3/4V5 $=
201504250653 METAR KBLI 250653Z AUTO 00000KT 8SM CLR 05/04 A2986 RMK AO2 SLP120 P0001 T00500044 $=
201504250553 METAR KBLI 250553Z AUTO 00000KT 10SM SCT029 BKN041 BKN049 06/05 A2987 RMK AO2 SLP121 P0001 60006 T00610050 10106 20056 53012 $=
201504250453 METAR KBLI 250453Z 00000KT 10SM FEW035 06/04 A2985 RMK AO2 RAB00E31 SLP117 P0001 T00560044 $=
201504250353 METAR KBLI 250353Z 01003KT 10SM FEW035 BKN047 OVC065 06/04 A2984 RMK AO2 SLP112 P0001 T00610044 $=
201504250253 METAR KBLI 250253Z 00000KT 10SM FEW026 SCT045 BKN055 07/05 A2983 RMK AO2 SLP110 P0001 60003 T00720050 53009 $=
201504250153 METAR KBLI 250153Z 02005KT 10SM FEW047 SCT065 BKN085 08/05 A2982 RMK AO2 LTG DSNT E SLP106 P0001 T00830050 $=
201504250053 METAR KBLI 250053Z 02007KT 10SM SCT055 09/06 A2981 RMK AO2 SLP104 P0001 T00940056 $=
201504242353 METAR KBLI 242353Z 04004KT 10SM BKN038 BKN047 10/05 A2980 RMK AO2 TSE35B38E53RAE07 SLP101 6//// T01000050 10128 20056 51012 $=
201504242338 SPECI KBLI 242338Z 01003KT 10SM VCTS SCT038 SCT050 11/06 A2981 RMK AO2 TSE35B38RAE07 $=
201504242307 SPECI KBLI 242307Z 00000KT 10SM VCTS FEW029 BKN038 OVC047 07/06 A2980 RMK AO2 LTG DSNT NE RAE07 PNO $=
201504242300 SPECI KBLI 242300Z 00000KT 2 1/2SM -TSRA BR SCT030 BKN038 OVC047 06/05 A2980 RMK AO2 VIS 1 3/4V5 LTG DSNT NE PNO $=
201504242253 METAR KBLI 242253Z 00000KT 4SM R16/6000VP6000FT +TSRA BR BKN030 BKN039 OVC047 06/04 A2979 RMK AO2 LTG DSNT NE TSB23E38B44RAB03 SLP096 T00610044 PNO $=
201504242244 SPECI KBLI 242244Z VRB06KT 4SM VCTS RA OVC030 08/05 A2979 RMK AO2 LTG DSNT NE TSB23E38B44RAB03 P0000=
201504242229 SPECI KBLI 242229Z 30004KT 10SM VCTS -RA BKN030 OVC038 07/05 A2979 RMK AO2 LTG DSNT NE TSB23RAB03 P0000=
201504242153 METAR KBLI 242153Z 27010G14KT 10SM FEW039 BKN065 BKN080 11/04 A2979 RMK AO2 LTG DSNT N TSB20E51 SLP095 T01110044=
201504242126 SPECI KBLI 242126Z 18009G15KT 10SM VCTS SCT090 12/04 A2977 RMK AO2 LTG DSNT W TSB20=
201504242053 METAR KBLI 242053Z 17011G18KT 140V210 10SM BKN080 12/05 A2977 RMK AO2 SLP088 P0001 60001 T01220050 50002=
201504241953 METAR KBLI 241953Z 18009G18KT 10SM FEW038 SCT110 12/06 A2977 RMK AO2 SLP090 T01170056=
201504241853 METAR KBLI 241853Z 17009G15KT 10SM SCT026 BKN034 OVC042 10/06 A2978 RMK AO2 RAB29E49 SLP092 P0000 T01000056=
201504241753 METAR KBLI 241753Z 15015G21KT 10SM SCT019 OVC075 11/05 A2977 RMK AO2 SLP087 60001 T01060050 10106 20067 51005=
201504241653 METAR KBLI 241653Z 15010KT 10SM SCT019 OVC075 09/04 A2977 RMK AO2 SLP087 T00890044=
201504241553 METAR KBLI 241553Z 16006KT 10SM FEW041 OVC055 08/04 A2976 RMK AO2 SLP085 T00830044=
201504241453 METAR KBLI 241453Z 16009G16KT 10SM FEW016 OVC036 08/04 A2975 RMK AO2 SLP082 60001 T00780044 53013=
201504241445 SPECI KBLI 241445Z 16010G17KT 10SM FEW016 OVC034 08/04 A2975 RMK AO2=
201504241411 SPECI KBLI 241411Z 15010G17KT 10SM BKN016 BKN028 OVC034 07/04 A2974 RMK AO2=
201504241353 METAR KBLI 241353Z 16013G18KT 10SM BKN014 OVC034 07/05 A2973 RMK AO2 SLP076 T00720050=
201504241345 SPECI KBLI 241345Z 15013G20KT 10SM BKN014 OVC036 07/04 A2973 RMK AO2=
201504241253 METAR KBLI 241253Z AUTO 15015G25KT 10SM FEW026 BKN040 OVC070 07/04 A2971 RMK AO2 RAE08 SLP070 P0001 T00720044=
201504241245 SPECI KBLI 241245Z AUTO 15012G19KT 10SM SCT026 BKN049 OVC070 07/04 A2971 RMK AO2 RAE08 P0001=
201504241204 SPECI KBLI 241204Z AUTO 14010KT 10SM -RA SCT017 BKN023 OVC055 07/05 A2971 RMK AO2 P0000=
201504241153 METAR KBLI 241153Z AUTO 13009KT 10SM -RA SCT021 BKN048 OVC085 07/05 A2971 RMK AO2 RAE05B33 SLP070 P0000 60000 70012 T00720050 10078 20056 55010=
201504241053 METAR KBLI 241053Z AUTO 13011KT 10SM -RA OVC033 07/04 A2971 RMK AO2 RAB32 SLP069 P0000 T00720039=
201504240953 METAR KBLI 240953Z AUTO 13009KT 10SM SCT031 BKN039 OVC049 07/04 A2972 RMK AO2 RAE08 SLP073 P0000 T00720039=
201504240941 SPECI KBLI 240941Z AUTO 11009KT 10SM SCT029 BKN038 OVC050 07/04 A2973 RMK AO2 RAE08 P0000=
201504240906 SPECI KBLI 240906Z AUTO 12005KT 10SM -RA BKN026 OVC039 07/04 A2974 RMK AO2 P0000=
201504240853 METAR KBLI 240853Z AUTO 11008KT 10SM -RA SCT030 OVC041 07/04 A2974 RMK AO2 RAB43 SLP079 P0000 60000 T00720039 56007=
201504240753 METAR KBLI 240753Z AUTO 10005KT 10SM BKN075 BKN095 07/04 A2975 RMK AO2 SLP082 T00670044 401060056=
201504240653 METAR KBLI 240653Z AUTO 13007KT 10SM CLR 07/04 A2975 RMK AO2 SLP082 T00670044=
201504240553 METAR KBLI 240553Z AUTO 00000KT 10SM FEW022 BKN060 07/04 A2976 RMK AO2 SLP086 60003 T00720039 10094 20072 51010=
201504240453 METAR KBLI 240453Z VRB03KT 10SM OVC065 08/04 A2976 RMK AO2 SLP085 T00830039=
201504240353 METAR KBLI 240353Z 18005KT 10SM BKN095 09/04 A2975 RMK AO2 SLP081 T00890044=
201504240253 METAR KBLI 240253Z 17007KT 10SM SCT024 BKN085 09/05 A2973 RMK AO2 SLP076 P0001 60003 T00890050 55011=
201504240235 SPECI KBLI 240235Z 16006KT 10SM BKN024 09/05 A2973 RMK AO2 P0001=
201504240153 METAR KBLI 240153Z 16004KT 10SM OVC065 09/06 A2973 RMK AO2 SLP074 P0001 T00940056=
201504240053 METAR KBLI 240053Z 15008KT 10SM SCT014 OVC065 09/07 A2974 RMK AO2 RAE24 SLP079 P0001 T00890067=
201504232353 METAR KBLI 232353Z 15010KT 8SM -RA FEW010 BKN013 OVC035 09/07 A2976 RMK AO2 SLP086 P0001 60009 T00890067 10106 20083 56011=
201504232253 METAR KBLI 232253Z 16006G18KT 10SM -RA OVC029 09/05 A2977 RMK AO2 SLP089 P0002 T00890050=
201504232245 SPECI KBLI 232245Z 15009G14KT 10SM -RA OVC029 09/05 A2977 RMK AO2 P0002=
201504232153 METAR KBLI 232153Z 13007KT 9SM -RA OVC033 09/06 A2978 RMK AO2 RAB2054 SLP092 P0001 T00890056=
201504232100 SPECI KBLI 232100Z 11009G17KT 10SM -RA BKN037 OVC049 09/05 A2979 RMK AO2 RAB2054 P0000=
201504232053 METAR KBLI 232053Z 14009KT 10SM OVC024 09/05 A2980 RMK AO2 RAE46 SLP098 P0002 60005 T00940050 58017=
201504231953 METAR KBLI 231953Z 14005KT 10SM -RA OVC024 09/05 A2982 RMK AO2 SLP105 P0002 T00890050 $=
201504231922 SPECI KBLI 231922Z 13005KT 10SM -RA OVC024 09/04 A2982 RMK AO2 P0001=
201504231853 METAR KBLI 231853Z 13008KT 10SM -RA OVC036 09/04 A2983 RMK AO2 SLP109 P0001 T00890044=
201504231753 METAR KBLI 231753Z 13007KT 10SM -RA BKN040 OVC050 11/02 A2985 RMK AO2 RAB28 SLP114 P0000 60000 T01060022 10106 20083 57022=
201504231653 METAR KBLI 231653Z 13010G20KT 10SM OVC080 10/02 A2987 RMK AO2 SLP120 T01000022=
201504231553 METAR KBLI 231553Z 15012G16KT 10SM OVC032 09/02 A2989 RMK AO2 SLP129 T00940022=
201504231453 METAR KBLI 231453Z 16006KT 10SM SCT030 OVC095 09/03 A2991 RMK AO2 SLP135 T00890033 58015=
201504231353 METAR KBLI 231353Z 15009KT 10SM SCT042 SCT100 BKN120 08/03 A2993 RMK AO2 SLP142 T00830033=
201504231253 METAR KBLI 231253Z AUTO 15006KT 10SM FEW050 SCT070 08/03 A2994 RMK AO2 SLP146 T00830033=
201504231153 METAR KBLI 231153Z AUTO 15006KT 10SM OVC048 09/03 A2995 RMK AO2 SLP150 T00890028 10100 20089 57011=
201504231053 METAR KBLI 231053Z AUTO 15008KT 10SM BKN050 09/03 A2997 RMK AO2 SLP154 T00890028=
201504230953 METAR KBLI 230953Z AUTO 16006KT 10SM OVC100 09/02 A2997 RMK AO2 SLP157 T00890017=
201504230853 METAR KBLI 230853Z AUTO 15005KT 10SM OVC100 09/01 A2999 RMK AO2 SLP161 T00940006 58013=
201504230753 METAR KBLI 230753Z AUTO 17007KT 10SM OVC110 09/M01 A3000 RMK AO2 SLP166 T00941006 401390078=
201504230653 METAR KBLI 230653Z AUTO 17007KT 10SM OVC100 09/00 A3002 RMK AO2 SLP172 T00940000=
201504230553 METAR KBLI 230553Z AUTO 14009G15KT 10SM FEW120 10/M01 A3002 RMK AO2 SLP174 T01001006 10133 20094 56010=
201504230453 METAR KBLI 230453Z 17005KT 10SM CLR 09/02 A3003 RMK AO2 SLP177 T00940017=
201504230353 METAR KBLI 230353Z 16007KT 10SM CLR 10/02 A3004 RMK AO2 SLP180 T01000017=
201504230253 METAR KBLI 230253Z 16008KT 10SM CLR 11/02 A3005 RMK AO2 SLP184 T01110017 56019=
201504230153 METAR KBLI 230153Z 17010G17KT 10SM CLR 12/02 A3007 RMK AO2 SLP188 T01170017=
201504230053 METAR KBLI 230053Z 17009G17KT 10SM CLR 12/02 A3009 RMK AO2 SLP198 T01220022=
201504222353 METAR KBLI 222353Z 16011G15KT 10SM CLR 13/01 A3011 RMK AO2 SLP203 T01330011 10139 20106 58014=
201504222253 METAR KBLI 222253Z 15010G14KT 10SM CLR 13/M01 A3012 RMK AO2 SLP207 T01331011=
201504222153 METAR KBLI 222153Z 16009KT 10SM CLR 13/02 A3014 RMK AO2 SLP213 T01280022=
201504222053 METAR KBLI 222053Z 15008KT 10SM CLR 13/02 A3015 RMK AO2 SLP217 T01280022 56004 $=
201504221953 METAR KBLI 221953Z VRB04KT 10SM CLR 12/01 A3016 RMK AO2 SLP219 T01220006 $=
201504221853 METAR KBLI 221853Z 19005KT 10SM OVC070 11/03 A3016 RMK AO2 SLP219 T01110028 $=
201504221753 METAR KBLI 221753Z 18005KT 10SM OVC075 11/03 A3016 RMK AO2 SLP221 T01060033 10111 20078 53006 $=
201504221653 METAR KBLI 221653Z 16007KT 10SM BKN075 11/06 A3015 RMK AO2 SLP217 T01110061 $=
201504221553 METAR KBLI 221553Z 15007KT 10SM CLR 09/06 A3015 RMK AO2 SLP218 T00940056 $=
201504221453 METAR KBLI 221453Z 00000KT 10SM BKN060 OVC075 08/05 A3015 RMK AO2 SLP216 T00830050 53016 $=
201504221353 METAR KBLI 221353Z 17003KT 10SM OVC070 08/05 A3013 RMK AO2 SLP209 T00780050 $=
201504221253 METAR KBLI 221253Z AUTO 16005KT 10SM BKN075 08/06 A3011 RMK AO2 SLP203 T00830056 $=
201504221202 SPECI KBLI 221202Z AUTO 16005KT 10SM SCT019 SCT050 OVC080 08/06 A3010 RMK AO2 $=
201504221153 METAR KBLI 221153Z AUTO 17008KT 10SM BKN019 BKN050 OVC080 08/06 A3010 RMK AO2 SLP200 7//// T00830056 10094 20078 53005 $=
201504221053 METAR KBLI 221053Z AUTO 17004KT 10SM OVC070 08/05 A3009 RMK AO2 SLP195 T00830050 $=
201504220953 METAR KBLI 220953Z AUTO 00000KT 10SM OVC060 08/04 A3008 RMK AO2 SLP194 T00830044 $=
201504220853 METAR KBLI 220853Z AUTO 19004KT 10SM BKN100 08/04 A3008 RMK AO2 SLP194 T00830044 51009 $=
201504220753 METAR KBLI 220753Z AUTO 18004KT 10SM BKN060 08/04 A3008 RMK AO2 SLP193 T00830039 401610072 $=
201504220653 METAR KBLI 220653Z AUTO VRB06KT 10SM OVC060 09/03 A3007 RMK AO2 SLP189 T00890028 $=
201504220553 METAR KBLI 220553Z AUTO 15009KT 10SM OVC050 09/04 A3006 RMK AO2 SLP185 6//// T00890044 10106 20078 51013 $=
201504220453 METAR KBLI 220453Z 14008KT 10SM OVC085 08/04 A3005 RMK AO2 SLP182 P0001 T00830039 $=
201504220353 METAR KBLI 220353Z VRB04KT 10SM FEW046 OVC060 08/04 A3004 RMK AO2 RAE52 SLP178 P0001 T00830039 $=
201504220253 METAR KBLI 220253Z VRB05KT 10SM -RA SCT039 OVC060 09/04 A3002 RMK AO2 RAE23B44 SLP172 P0002 6//// T00940044 53012 $=
201504220153 METAR KBLI 220153Z 16007KT 4SM -RA BR FEW026 SCT033 OVC044 09/08 A2999 RMK AO2 SLP164 T00940078 $=
201504220146 SPECI KBLI 220146Z 17005KT 4SM -RA BR SCT026 OVC040 09/08 A3000 RMK AO2 $=
201504220133 SPECI KBLI 220133Z 17005KT 4SM -RA BR BKN026 OVC032 09/08 A2999 RMK AO2 $=
201504220053 METAR KBLI 220053Z VRB03KT 4SM RA FEW019 SCT030 OVC037 10/07 A2999 RMK AO2 SLP162 P0003 T01000072=
201504220051 SPECI KBLI 220051Z VRB03KT 5SM -RA BR FEW019 OVC032 10/08 A2999 RMK AO2 P0002=
201504220007 SPECI KBLI 220007Z 17006KT 7SM -RA FEW023 BKN027 OVC049 10/08 A2997 RMK AO2 P0001=
201504212353 METAR KBLI 212353Z 16008KT 8SM -RA FEW023 OVC042 11/08 A2996 RMK AO2 SLP154 P0008 60010 T01060083 10161 20106 51015=
201504212253 METAR KBLI 212253Z 16009G16KT 10SM -RA SCT038 BKN055 OVC070 11/08 A2995 RMK AO2 RAB09 SLP148 P0002 T01110083=
201504212153 METAR KBLI 212153Z 16012G20KT 10SM OVC042 14/08 A2993 RMK AO2 SLP143 T01390078=
201504212053 METAR KBLI 212053Z 17012G18KT 10SM SCT040 OVC100 14/09 A2992 RMK AO2 SLP137 T01390089 51004=
201504211953 METAR KBLI 211953Z 16012G19KT 10SM OVC100 15/09 A2992 RMK AO2 SLP137 T01500094=
201504211853 METAR KBLI 211853Z 17010KT 10SM OVC100 14/10 A2991 RMK AO2 SLP137 T01440100=
201504211753 METAR KBLI 211753Z 15011G17KT 10SM CLR 15/10 A2991 RMK AO2 SLP133 T01500100 10150 20072 52011=
201504211653 METAR KBLI 211653Z 18006KT 10SM CLR 14/09 A2989 RMK AO2 SLP130 T01390094=
201504211553 METAR KBLI 211553Z 13008KT 10SM R16/3500VP6000FT CLR 13/09 A2988 RMK AO2 SLP126 T01330094=
201504211453 METAR KBLI 211453Z 13008KT 10SM CLR 12/09 A2987 RMK AO2 SLP123 T01220089 53006=
201504211353 METAR KBLI 211353Z 18004KT 10SM CLR 11/09 A2986 RMK AO2 SLP118 T01110089=
201504211253 METAR KBLI 211253Z AUTO 00000KT 10SM CLR 08/07 A2985 RMK AO2 SLP117 T00780067=
201504211153 METAR KBLI 211153Z AUTO 00000KT 10SM CLR 08/07 A2985 RMK AO2 SLP115 T00830067 10133 20078 53004=
201504211053 METAR KBLI 211053Z AUTO 00000KT 10SM CLR 09/07 A2985 RMK AO2 SLP113 T00890072=
201504210953 METAR KBLI 210953Z AUTO 14005KT 10SM CLR 12/07 A2984 RMK AO2 SLP111 T01170072=
201504210853 METAR KBLI 210853Z AUTO 17003KT 10SM CLR 11/08 A2984 RMK AO2 SLP111 T01110078 50002=
201504210753 METAR KBLI 210753Z AUTO 00000KT 10SM CLR 12/08 A2985 RMK AO2 SLP112 T01170083 402060056=
201504210653 METAR KBLI 210653Z AUTO 17005KT 10SM CLR 13/08 A2983 RMK AO2 SLP108 T01330078=
201504210553 METAR KBLI 210553Z AUTO 16007KT 10SM CLR 13/08 A2984 RMK AO2 SLP109 T01330078 10206 20117 50001=
201504210453 METAR KBLI 210453Z 17004KT 10SM CLR 12/09 A2984 RMK AO2 SLP111 T01220089=
201504210353 METAR KBLI 210353Z 00000KT 10SM CLR 13/07 A2984 RMK AO2 SLP110 T01280072=
201504210253 METAR KBLI 210253Z 00000KT 10SM CLR 14/07 A2983 RMK AO2 SLP109 T01440072 56008=
201504210153 METAR KBLI 210153Z 27004KT 10SM CLR 18/05 A2984 RMK AO2 SLP110 T01830050=
201504210053 METAR KBLI 210053Z 00000KT 10SM CLR 20/06 A2985 RMK AO2 SLP113 T02000056=
201504202353 METAR KBLI 202353Z 00000KT 10SM CLR 20/07 A2986 RMK AO2 SLP117 T02000067 10200 20156 58018=
201504202253 METAR KBLI 202253Z VRB04KT 10SM CLR 19/08 A2987 RMK AO2 SLP123 T01940083=
201504202153 METAR KBLI 202153Z 20004KT 10SM CLR 19/08 A2989 RMK AO2 SLP130 T01890078=
201504202053 METAR KBLI 202053Z VRB05KT 10SM CLR 19/08 A2991 RMK AO2 SLP134 T01890083 58013=
201504201953 METAR KBLI 201953Z 00000KT 10SM CLR 18/08 A2992 RMK AO2 SLP140 T01780078=
201504201853 METAR KBLI 201853Z 18006KT 10SM CLR 17/11 A2994 RMK AO2 SLP146 T01670106=
201504201753 METAR KBLI 201753Z 26004KT 10SM CLR 16/08 A2995 RMK AO2 SLP148 T01610083 10161 20056 56007=
201504201653 METAR KBLI 201653Z 00000KT 10SM CLR 14/09 A2995 RMK AO2 SLP149 T01440089=
201504201553 METAR KBLI 201553Z 00000KT 10SM CLR 13/09 A2996 RMK AO2 SLP152 T01280094=
201504201453 METAR KBLI 201453Z 00000KT 10SM CLR 10/08 A2997 RMK AO2 SLP155 T01000078 54000=
201504201353 METAR KBLI 201353Z 00000KT 10SM CLR 06/06 A2997 RMK AO2 SLP155 T00610056=
201504201253 METAR KBLI 201253Z AUTO 00000KT 10SM CLR 06/05 A2997 RMK AO2 SLP155 T00610050=
201504201153 METAR KBLI 201153Z AUTO 00000KT 10SM CLR 06/04 A2997 RMK AO2 SLP155 T00610044 10094 20056 56003=
201504201053 METAR KBLI 201053Z AUTO 00000KT 10SM CLR 07/05 A2997 RMK AO2 SLP156 T00670050=
201504200953 METAR KBLI 200953Z AUTO 00000KT 10SM CLR 08/06 A2997 RMK AO2 SLP157 T00780061=
201504200853 METAR KBLI 200853Z AUTO 00000KT 10SM CLR 08/06 A2998 RMK AO2 SLP158 T00830061 56006=
201504200753 METAR KBLI 200753Z AUTO 00000KT 10SM CLR 08/07 A2998 RMK AO2 SLP159 T00780067 401780044=
201504200653 METAR KBLI 200653Z AUTO 00000KT 10SM CLR 09/07 A2998 RMK AO2 SLP160 T00890067=
201504200553 METAR KBLI 200553Z AUTO 00000KT 10SM CLR 09/07 A2999 RMK AO2 SLP164 T00890067 10172 20089 58008=
201504200453 METAR KBLI 200453Z 00000KT 10SM CLR 10/07 A3000 RMK AO2 SLP167 T01000072=
201504200353 METAR KBLI 200353Z 00000KT 10SM CLR 11/08 A3001 RMK AO2 SLP170 T01110083=
201504200253 METAR KBLI 200253Z 00000KT 10SM CLR 14/09 A3002 RMK AO2 SLP172 T01390089 56018=
201504200153 METAR KBLI 200153Z 00000KT 10SM CLR 16/08 A3003 RMK AO2 SLP177 T01560078=
201504200053 METAR KBLI 200053Z 25003KT 10SM CLR 17/08 A3005 RMK AO2 SLP183 T01670083=
201504192353 METAR KBLI 192353Z 26005KT 10SM CLR 17/09 A3007 RMK AO2 SLP190 T01670089 10178 20150 58022=
201504192253 METAR KBLI 192253Z 27005KT 10SM CLR 18/08 A3010 RMK AO2 SLP198 T01780083=
201504192153 METAR KBLI 192153Z 25008KT 10SM CLR 17/07 A3012 RMK AO2 SLP205 T01720067=
201504192053 METAR KBLI 192053Z 28008KT 10SM CLR 17/07 A3014 RMK AO2 SLP212 T01670067 58019=
201504191953 METAR KBLI 191953Z 31008KT 10SM CLR 17/08 A3016 RMK AO2 SLP220 T01670083=
201504191853 METAR KBLI 191853Z VRB05KT 10SM CLR 16/08 A3018 RMK AO2 SLP226 T01610078=
201504191753 METAR KBLI 191753Z 31005KT 10SM CLR 16/07 A3019 RMK AO2 SLP231 T01560072 10156 20044 56011=
201504191653 METAR KBLI 191653Z 02005KT 10SM CLR 14/07 A3020 RMK AO2 SLP233 T01390067=
201504191553 METAR KBLI 191553Z 35004KT 10SM CLR 11/07 A3022 RMK AO2 SLP239 T01110067=
201504191453 METAR KBLI 191453Z 00000KT 10SM CLR 07/06 A3022 RMK AO2 SLP242 T00720061 56002=
201504191353 METAR KBLI 191353Z 00000KT 10SM CLR 05/04 A3023 RMK AO2 SLP242 T00500039=
201504191253 METAR KBLI 191253Z AUTO 00000KT 10SM CLR 06/04 A3022 RMK AO2 SLP241 T00560039=
201504191153 METAR KBLI 191153Z AUTO 00000KT 10SM CLR 06/04 A3023 RMK AO2 SLP244 T00560039 10089 20050 55001=
201504191053 METAR KBLI 191053Z AUTO 00000KT 10SM CLR 06/04 A3023 RMK AO2 SLP243 T00560039=
201504190953 METAR KBLI 190953Z AUTO 00000KT 10SM CLR 07/05 A3023 RMK AO2 SLP243 T00670050=
201504190853 METAR KBLI 190853Z AUTO 00000KT 10SM CLR 07/05 A3023 RMK AO2 SLP245 T00720050 58003=
201504190753 METAR KBLI 190753Z AUTO 00000KT 10SM CLR 07/06 A3024 RMK AO2 SLP247 T00720056 401830039=
201504190653 METAR KBLI 190653Z AUTO 00000KT 10SM CLR 08/06 A3024 RMK AO2 SLP247 T00780061=
201504190553 METAR KBLI 190553Z AUTO 00000KT 10SM CLR 08/07 A3024 RMK AO2 SLP248 T00830067 10161 20078 58004=
201504190453 METAR KBLI 190453Z 00000KT 10SM CLR 09/07 A3025 RMK AO2 SLP252 T00940067=
201504190353 METAR KBLI 190353Z 00000KT 10SM CLR 10/06 A3026 RMK AO2 SLP255 T01000061=
201504190253 METAR KBLI 190253Z 00000KT 10SM CLR 12/07 A3026 RMK AO2 SLP253 T01220067 56012=
201504190153 METAR KBLI 190153Z 00000KT 10SM CLR 15/06 A3027 RMK AO2 SLP256 T01500061=
201504190053 METAR KBLI 190053Z 28004KT 10SM CLR 16/06 A3028 RMK AO2 SLP260 T01560061=
201504182353 METAR KBLI 182353Z 29007KT 10SM CLR 16/06 A3029 RMK AO2 SLP264 T01610061 10183 20139 58013=
201504182253 METAR KBLI 182253Z 26006G14KT 10SM CLR 16/06 A3031 RMK AO2 SLP270 T01610056=
201504182153 METAR KBLI 182153Z 28010G14KT 10SM CLR 17/08 A3032 RMK AO2 SLP275 T01670078=
201504182053 METAR KBLI 182053Z 33005KT 10SM CLR 18/06 A3033 RMK AO2 SLP277 T01830061 58020=
201504181953 METAR KBLI 181953Z 03006KT 10SM CLR 17/06 A3035 RMK AO2 SLP285 T01720061=
201504181853 METAR KBLI 181853Z VRB04KT 10SM CLR 15/04 A3037 RMK AO2 SLP292 T01500044=
201504181753 METAR KBLI 181753Z 33004KT 10SM CLR 14/06 A3039 RMK AO2 SLP297 T01390056 10139 20039 50004=
201504181653 METAR KBLI 181653Z VRB03KT 10SM CLR 13/06 A3039 RMK AO2 SLP297 T01280061=
201504181553 METAR KBLI 181553Z 00000KT 10SM CLR 11/07 A3038 RMK AO2 SLP296 T01060067=
201504181453 METAR KBLI 181453Z 00000KT 10SM CLR 08/07 A3037 RMK AO2 SLP293 T00830067 53007=
201504181353 METAR KBLI 181353Z 00000KT 10SM CLR 05/04 A3037 RMK AO2 SLP291 T00500039=
201504181253 METAR KBLI 181253Z AUTO 00000KT 10SM CLR 04/03 A3035 RMK AO2 SLP286 T00440033=
201504181153 METAR KBLI 181153Z AUTO 00000KT 10SM CLR 06/04 A3035 RMK AO2 SLP285 T00560044 10100 20050 53003=
201504181053 METAR KBLI 181053Z AUTO 00000KT 10SM CLR 06/04 A3034 RMK AO2 SLP283 T00560044=
201504180953 METAR KBLI 180953Z AUTO 00000KT 10SM CLR 07/04 A3034 RMK AO2 SLP281 T00670044=
201504180853 METAR KBLI 180853Z AUTO 00000KT 10SM CLR 08/04 A3034 RMK AO2 SLP282 T00830044 53011=
201504180753 METAR KBLI 180753Z AUTO 27003KT 10SM CLR 09/04 A3033 RMK AO2 SLP278 T00940039 401720050=
201504180653 METAR KBLI 180653Z AUTO 00000KT 10SM CLR 09/03 A3032 RMK AO2 SLP275 T00890028=
201504180553 METAR KBLI 180553Z AUTO VRB04KT 10SM CLR 09/03 A3031 RMK AO2 SLP271 T00940028 10156 20072 51017=
201504180453 METAR KBLI 180453Z 00000KT 10SM CLR 09/04 A3030 RMK AO2 SLP266 T00940039=
201504180353 METAR KBLI 180353Z 00000KT 10SM FEW065 11/04 A3028 RMK AO2 SLP260 T01110039=
201504180253 METAR KBLI 180253Z 26003KT 10SM BKN060 13/04 A3026 RMK AO2 SLP254 T01330044 53001=
201504180153 METAR KBLI 180153Z VRB04KT 10SM CLR 15/06 A3026 RMK AO2 SLP252 T01500056=
201504180053 METAR KBLI 180053Z VRB04KT 10SM CLR 16/07 A3025 RMK AO2 SLP252 T01560067=
201504172353 METAR KBLI 172353Z 30007KT 10SM CLR 16/07 A3026 RMK AO2 SLP254 T01560072 10172 20128 50004=
201504172253 METAR KBLI 172253Z 27009KT 10SM CLR 17/06 A3026 RMK AO2 SLP254 T01670061=
201504172153 METAR KBLI 172153Z 27005KT 10SM CLR 17/06 A3025 RMK AO2 SLP251 T01670061=
201504172053 METAR KBLI 172053Z 15006KT 10SM CLR 16/08 A3025 RMK AO2 SLP250 T01610083 58005=
201504171953 METAR KBLI 171953Z 21003KT 10SM CLR 16/08 A3025 RMK AO2 SLP252 T01560083=
201504171853 METAR KBLI 171853Z 15005KT 10SM CLR 14/09 A3026 RMK AO2 SLP254 T01440089=
201504171807 SPECI KBLI 171807Z 00000KT 10SM SCT018 13/08 A3026 RMK AO2=
201504171800 SPECI KBLI 171800Z VRB03KT 10SM BKN018 13/08 A3026 RMK AO2=
201504171753 METAR KBLI 171753Z 00000KT 10SM SCT018 12/08 A3026 RMK AO2 SLP255 60000 T01220078 10133 20056 53005=
201504171653 METAR KBLI 171653Z 00000KT 10SM CLR 12/08 A3025 RMK AO2 SLP251 T01170083=
201504171553 METAR KBLI 171553Z 27005KT 10SM SCT095 SCT110 11/08 A3023 RMK AO2 RAB04E13 SLP245 P0000 T01060083=
201504171534 SPECI KBLI 171534Z 14007KT 10SM FEW070 SCT095 BKN110 11/08 A3021 RMK AO2 RAB04E13 P0000=
201504171453 METAR KBLI 171453Z 10004KT 10SM OVC010 10/08 A3025 RMK AO2 RAB27E38 SLP250 P0000 60000 T01000083 51007=
201504171353 METAR KBLI 171353Z 00000KT 10SM SCT008 BKN010 07/06 A3024 RMK AO2 SLP249 T00720061=
201504171342 SPECI KBLI 171342Z 00000KT 10SM SCT008 BKN010 07/06 A3024 RMK AO2=
201504171328 SPECI KBLI 171328Z AUTO 00000KT 10SM FEW006 SCT110 07/06 A3024 RMK AO2=
201504171253 METAR KBLI 171253Z AUTO 00000KT 10SM CLR 06/05 A3023 RMK AO2 SLP244 T00560050=
201504171153 METAR KBLI 171153Z AUTO 00000KT 10SM CLR 06/05 A3023 RMK AO2 SLP242 T00610050 10083 20050 53001=
201504171053 METAR KBLI 171053Z AUTO 00000KT 10SM CLR 06/05 A3023 RMK AO2 SLP242 T00610050=
201504170953 METAR KBLI 170953Z AUTO 00000KT 10SM CLR 06/05 A3022 RMK AO2 SLP240 T00610050=
201504170853 METAR KBLI 170853Z AUTO 00000KT 10SM CLR 07/05 A3022 RMK AO2 SLP241 T00670050 58003=
201504170753 METAR KBLI 170753Z AUTO 00000KT 10SM CLR 06/04 A3022 RMK AO2 SLP242 T00560039 401670011=
201504170653 METAR KBLI 170653Z AUTO 00000KT 10SM CLR 07/04 A3023 RMK AO2 SLP244 T00670044=
201504170553 METAR KBLI 170553Z AUTO 00000KT 10SM CLR 08/04 A3023 RMK AO2 SLP244 T00830044 10167 20078 58000=
201504170453 METAR KBLI 170453Z 00000KT 10SM CLR 09/05 A3023 RMK AO2 SLP246 T00890050=
201504170353 METAR KBLI 170353Z 00000KT 10SM CLR 11/06 A3023 RMK AO2 SLP246 T01060056=
201504170253 METAR KBLI 170253Z 27003KT 10SM CLR 13/05 A3023 RMK AO2 SLP245 T01280050 56016=
201504170153 METAR KBLI 170153Z 00000KT 10SM CLR 16/04 A3024 RMK AO2 SLP249 T01560039=
201504170053 METAR KBLI 170053Z 27006KT 10SM CLR 16/03 A3026 RMK AO2 SLP256 T01560033=
201504162353 METAR KBLI 162353Z 29004KT 10SM CLR 16/04 A3028 RMK AO2 SLP262 T01610044 10167 20122 58017=
201504162253 METAR KBLI 162253Z 30006KT 10SM CLR 16/04 A3030 RMK AO2 SLP268 T01610044=
201504162153 METAR KBLI 162153Z 27007KT 220V310 10SM CLR 16/06 A3032 RMK AO2 SLP274 T01560056=
201504162053 METAR KBLI 162053Z 29007KT 10SM CLR 16/05 A3033 RMK AO2 SLP278 T01560050 58022=
201504161953 METAR KBLI 161953Z VRB03KT 10SM CLR 16/04 A3036 RMK AO2 SLP287 T01560039=
201504161853 METAR KBLI 161853Z 00000KT 10SM CLR 13/03 A3038 RMK AO2 SLP295 T01330033=
201504161753 METAR KBLI 161753Z 34003KT 10SM CLR 12/04 A3040 RMK AO2 SLP301 T01220039 10122 20011 56011=
201504161653 METAR KBLI 161653Z 00000KT 10SM CLR 10/02 A3040 RMK AO2 SLP304 T01000022=
201504161553 METAR KBLI 161553Z 00000KT 10SM CLR 08/02 A3042 RMK AO2 SLP309 T00780022=
201504161453 METAR KBLI 161453Z 00000KT 10SM CLR 05/02 A3043 RMK AO2 SLP312 T00500022 55000=
201504161353 METAR KBLI 161353Z 00000KT 10SM CLR 02/01 A3042 RMK AO2 SLP309 T00170006=
201504161253 METAR KBLI 161253Z AUTO 00000KT 10SM CLR 01/00 A3042 RMK AO2 SLP310 T00110000=
201504161153 METAR KBLI 161153Z AUTO 00000KT 10SM CLR 02/01 A3043 RMK AO2 SLP313 T00220006 10067 20017 56009=
201504161053 METAR KBLI 161053Z AUTO 00000KT 10SM CLR 03/01 A3044 RMK AO2 SLP315 T00330011=
201504160953 METAR KBLI 160953Z AUTO 00000KT 10SM CLR 03/01 A3044 RMK AO2 SLP317 T00280011=
201504160853 METAR KBLI 160853Z AUTO 00000KT 10SM CLR 05/02 A3046 RMK AO2 SLP322 T00500017 58006=
201504160753 METAR KBLI 160753Z AUTO 00000KT 10SM CLR 05/02 A3046 RMK AO2 SLP325 T00500017 401280033=
201504160653 METAR KBLI 160653Z AUTO 00000KT 10SM CLR 05/02 A3047 RMK AO2 SLP327 T00500022=
201504160553 METAR KBLI 160553Z AUTO 00000KT 10SM BKN070 07/03 A3048 RMK AO2 SLP328 T00670033 10128 20061 50000=
201504160453 METAR KBLI 160453Z 00000KT 10SM BKN070 07/03 A3048 RMK AO2 SLP331 T00720033=
201504160353 METAR KBLI 160353Z 00000KT 10SM CLR 08/03 A3048 RMK AO2 SLP329 T00780028=
201504160253 METAR KBLI 160253Z 00000KT 10SM CLR 09/03 A3047 RMK AO2 SLP328 T00940028 56009=
201504160153 METAR KBLI 160153Z 22004KT 10SM CLR 12/01 A3048 RMK AO2 SLP330 T01170011=
201504160053 METAR KBLI 160053Z 20004KT 10SM CLR 12/M01 A3049 RMK AO2 SLP334 T01221006=
201504152353 METAR KBLI 152353Z 16006KT 10SM BKN100 13/M01 A3050 RMK AO2 SLP337 T01281006 10128 20100 58010=
201504152253 METAR KBLI 152253Z 19007KT 10SM CLR 12/01 A3051 RMK AO2 SLP340 T01220006=
201504152153 METAR KBLI 152153Z VRB06KT 10SM CLR 12/02 A3053 RMK AO2 SLP345 T01220017=
201504152053 METAR KBLI 152053Z 18009KT 10SM CLR 12/02 A3053 RMK AO2 SLP347 T01170022 58003=
201504151953 METAR KBLI 151953Z 16010KT 10SM CLR 11/03 A3053 RMK AO2 SLP348 T01110028=
201504151853 METAR KBLI 151853Z 17007G15KT 10SM CLR 10/04 A3054 RMK AO2 SLP352 T01000039=
201504151753 METAR KBLI 151753Z 17010KT 10SM CLR 09/04 A3054 RMK AO2 SLP350 T00940039 10100 20033 53011=
201504151653 METAR KBLI 151653Z 16011KT 10SM OVC060 09/04 A3053 RMK AO2 SLP345 T00940039=
201504151553 METAR KBLI 151553Z 16009KT 10SM CLR 08/03 A3052 RMK AO2 SLP343 T00830033=
201504151453 METAR KBLI 151453Z 14005KT 10SM CLR 07/03 A3051 RMK AO2 SLP339 T00720033 51014=
201504151353 METAR KBLI 151353Z AUTO 00000KT 10SM SCT060 04/03 A3050 RMK AO2 SLP336 T00440033=
201504151253 METAR KBLI 151253Z AUTO 11003KT 10SM OVC060 05/03 A3048 RMK AO2 SLP330 T00500028=
201504151153 METAR KBLI 151153Z AUTO 00000KT 10SM FEW050 04/02 A3046 RMK AO2 SLP325 T00390022 10061 20033 53010=
201504151053 METAR KBLI 151053Z AUTO 16003KT 10SM CLR 05/03 A3045 RMK AO2 SLP318 T00500028=
201504150953 METAR KBLI 150953Z AUTO 00000KT 10SM CLR 05/03 A3044 RMK AO2 SLP317 T00500028=
201504150853 METAR KBLI 150853Z AUTO 00000KT 10SM CLR 04/03 A3044 RMK AO2 SLP315 T00440028 53010=
201504150753 METAR KBLI 150753Z AUTO 17003KT 10SM CLR 05/03 A3043 RMK AO2 SLP311 T00500033 401220033=
201504150653 METAR KBLI 150653Z AUTO 00000KT 10SM CLR 06/03 A3041 RMK AO2 SLP306 T00610033=
201504150553 METAR KBLI 150553Z AUTO 00000KT 10SM FEW041 06/03 A3041 RMK AO2 SLP305 T00560033 10117 20056 51022=
201504150453 METAR KBLI 150453Z 00000KT 10SM FEW085 06/03 A3039 RMK AO2 SLP298 T00610033=
201504150353 METAR KBLI 150353Z 00000KT 10SM BKN100 08/04 A3037 RMK AO2 SLP291 T00780039=
201504150253 METAR KBLI 150253Z 00000KT 10SM OVC110 09/03 A3034 RMK AO2 SLP282 T00940033 53010=
201504150153 METAR KBLI 150153Z VRB03KT 10SM CLR 10/02 A3033 RMK AO2 SLP279 T01000017=
201504150053 METAR KBLI 150053Z 17004KT 10SM FEW035 11/02 A3032 RMK AO2 SLP274 T01110022=
201504142353 METAR KBLI 142353Z 17007KT 10SM FEW050 11/02 A3031 RMK AO2 SLP272 T01110022 10122 20094 51009=
201504142253 METAR KBLI 142253Z 16010KT 10SM CLR 12/02 A3031 RMK AO2 SLP270 T01170022=
201504142153 METAR KBLI 142153Z 21008G15KT 170V250 10SM BKN060 12/03 A3030 RMK AO2 SLP268 T01170028=
201504142053 METAR KBLI 142053Z 17009KT 130V200 10SM CLR 12/00 A3028 RMK AO2 SLP263 T01170000 51014=
201504141953 METAR KBLI 141953Z 21005KT 10SM CLR 11/M03 A3027 RMK AO2 SLP260 T01061033=
201504141853 METAR KBLI 141853Z 20003KT 10SM CLR 11/M01 A3026 RMK AO2 SLP255 T01111006=
201504141753 METAR KBLI 141753Z 23007KT 10SM CLR 09/02 A3024 RMK AO2 SLP249 T00940017 10094 20033 53026=
201504141653 METAR KBLI 141653Z VRB04KT 10SM CLR 09/01 A3021 RMK AO2 SLP239 T00890006=
201504141553 METAR KBLI 141553Z 17007KT 160V220 10SM CLR 08/03 A3018 RMK AO2 SLP228 T00780028=
201504141453 METAR KBLI 141453Z 00000KT 10SM CLR 07/03 A3017 RMK AO2 SLP223 T00670028 53031=
201504141353 METAR KBLI 141353Z 17003KT 10SM CLR 03/02 A3012 RMK AO2 SLP210 T00330022=
201504141253 METAR KBLI 141253Z AUTO 00000KT 10SM FEW024 04/03 A3009 RMK AO2 SLP199 T00390028=
201504141153 METAR KBLI 141153Z AUTO 00000KT 10SM FEW029 BKN065 03/03 A3007 RMK AO2 SLP192 60001 70019 T00330028 10072 20033 53022=
201504141053 METAR KBLI 141053Z AUTO 16003KT 10SM BKN065 OVC080 04/03 A3004 RMK AO2 RAE31 SLP181 P0000 T00440033=
201504140953 METAR KBLI 140953Z AUTO 31009KT 8SM -RA FEW022 BKN030 OVC055 06/03 A3002 RMK AO2 RAB49 SLP174 P0001 T00610028=
201504140853 METAR KBLI 140853Z AUTO 00000KT 10SM FEW017 BKN034 07/03 A3001 RMK AO2 SLP169 T00670033 53017=
201504140753 METAR KBLI 140753Z AUTO 17003KT 10SM CLR 06/03 A2998 RMK AO2 SLP159 T00560028 401000056=
201504140653 METAR KBLI 140653Z AUTO 18004KT 10SM CLR 07/03 A2996 RMK AO2 SLP154 T00670028=
201504140553 METAR KBLI 140553Z AUTO 17007KT 10SM SCT019 SCT110 07/04 A2996 RMK AO2 SLP152 60000 T00720039 10078 20061 51015=
201504140453 METAR KBLI 140453Z 16006KT 10SM SCT110 07/04 A2995 RMK AO2 SLP149 T00720039=
201504140353 METAR KBLI 140353Z 15006KT 10SM OVC110 07/04 A2993 RMK AO2 RAE0254 SLP144 T00670039=
201504140253 METAR KBLI 140253Z 15006KT 10SM -RA BKN055 BKN070 OVC080 07/04 A2991 RMK AO2 RAB44 SLP137 P0000 60000 T00720044 51010=
201504140153 METAR KBLI 140153Z 17005KT 10SM OVC065 08/04 A2990 RMK AO2 RAE0059 SLP134 P0000 T00780039=
201504140053 METAR KBLI 140053Z VRB04KT 10SM -RA FEW020 BKN044 OVC055 08/05 A2990 RMK AO2 RAE2356B51 SLP133 P0000 T00780050=
201504132353 METAR KBLI 132353Z 17007KT 10SM -RA FEW034 SCT043 OVC055 08/06 A2988 RMK AO2 SLP127 P0002 60015 T00780056 10100 20078 51018=
201504132253 METAR KBLI 132253Z VRB05KT 7SM -RA BKN023 BKN034 OVC050 08/06 A2988 RMK AO2 SLP125 P0003 T00830061=
201504132153 METAR KBLI 132153Z 20007KT 170V230 7SM -RA BKN023 OVC038 09/07 A2984 RMK AO2 SLP113 P0003 T00890067=
201504132130 SPECI KBLI 132130Z 16012G18KT 10SM -RA OVC027 09/06 A2983 RMK AO2 P0000=
201504132053 METAR KBLI 132053Z 17010G16KT 10SM -RA SCT026 OVC034 09/06 A2983 RMK AO2 SLP109 P0002 60007 T00940061 56011=
201504131953 METAR KBLI 131953Z 14008G18KT 130V190 10SM -RA OVC039 10/06 A2983 RMK AO2 SLP109 P0001 T01000061=
201504131853 METAR KBLI 131853Z 12006KT 6SM -RA OVC041 09/07 A2984 RMK AO2 SLP112 P0004 T00940067=
201504131753 METAR KBLI 131753Z 04004KT 8SM -RA BKN046 OVC055 08/06 A2986 RMK AO2 SLP119 P0001 60003 T00780061 10078 20056 55007=
201504131653 METAR KBLI 131653Z 33003KT 10SM -RA BKN055 OVC070 07/06 A2986 RMK AO2 SLP118 P0000 T00720056=
201504131553 METAR KBLI 131553Z 05006KT 8SM -RA BKN044 OVC055 07/04 A2986 RMK AO2 RAB11 SLP119 P0002 T00670044=
201504131453 METAR KBLI 131453Z 00000KT 10SM BKN060 OVC080 07/04 A2988 RMK AO2 SLP126 T00670039 56010=
201504131353 METAR KBLI 131353Z AUTO 00000KT 10SM SCT065 SCT120 06/03 A2988 RMK AO2 SLP126 T00610033=
201504131253 METAR KBLI 131253Z AUTO 00000KT 10SM FEW120 06/03 A2990 RMK AO2 SLP133 T00610033=
201504131153 METAR KBLI 131153Z AUTO 05003KT 10SM FEW120 06/03 A2991 RMK AO2 SLP137 T00610033 10072 20056 56025=
201504131053 METAR KBLI 131053Z AUTO 02006KT 10SM CLR 06/04 A2993 RMK AO2 SLP144 T00610039=
201504130953 METAR KBLI 130953Z AUTO 36005KT 10SM CLR 06/04 A2996 RMK AO2 SLP154 T00610039=
201504130853 METAR KBLI 130853Z AUTO 02005KT 10SM CLR 06/04 A2998 RMK AO2 SLP162 T00610044 56030=
201504130753 METAR KBLI 130753Z AUTO 01004KT 10SM CLR 06/04 A3001 RMK AO2 SLP169 T00610044 401280039=
201504130653 METAR KBLI 130653Z AUTO 01005KT 10SM SCT048 06/04 A3004 RMK AO2 SLP181 T00610044=
201504130553 METAR KBLI 130553Z AUTO 01005KT 10SM SCT047 BKN055 OVC075 07/06 A3007 RMK AO2 RAE28 SLP191 P0000 60000 T00720056 10117 20072 58014=
201504130453 METAR KBLI 130453Z 32004KT 10SM -RA SCT042 OVC055 08/06 A3010 RMK AO2 SLP201 P0000 T00780056=
201504130353 METAR KBLI 130353Z 05003KT 10SM -RA BKN042 OVC050 08/04 A3011 RMK AO2 RAB38 SLP204 P0000 T00830039=
201504130253 METAR KBLI 130253Z 00000KT 10SM BKN043 BKN050 OVC070 09/03 A3012 RMK AO2 RAE36 SLP206 P0000 60000 T00890033 56012=
201504130153 METAR KBLI 130153Z 15008KT 10SM -RA BKN048 OVC055 11/01 A3013 RMK AO2 RAB47 SLP210 P0000 T01110011=
201504130053 METAR KBLI 130053Z 00000KT 10SM OVC090 12/M02 A3013 RMK AO2 SLP211 T01171017=
201504122353 METAR KBLI 122353Z 17006KT 10SM OVC100 12/00 A3015 RMK AO2 SLP218 T01220000 10128 20083 58011=
201504122253 METAR KBLI 122253Z 17007KT 10SM OVC110 12/01 A3016 RMK AO2 SLP223 T01220011=
201504122153 METAR KBLI 122153Z 17010KT 10SM FEW080 BKN110 11/01 A3018 RMK AO2 SLP227 T01110006=
201504122053 METAR KBLI 122053Z 16007KT 10SM OVC080 11/02 A3018 RMK AO2 SLP229 T01060017 56013=
201504121953 METAR KBLI 121953Z 18009KT 150V210 10SM BKN110 11/03 A3019 RMK AO2 SLP233 T01060033=
201504121853 METAR KBLI 121853Z VRB06KT 10SM FEW060 OVC110 10/04 A3021 RMK AO2 SLP237 T01000039=
201504121753 METAR KBLI 121753Z 14007KT 10SM BKN042 08/04 A3022 RMK AO2 RAB1654E13 SLP242 P0000 60000 T00830039 10083 20039 51010=
201504121653 METAR KBLI 121653Z 16009KT 10SM SCT041 BKN049 OVC055 07/03 A3022 RMK AO2 RAE02 SLP242 P0000 T00670033=
201504121553 METAR KBLI 121553Z 17010KT 10SM -RA SCT021 BKN036 OVC070 07/03 A3021 RMK AO2 RAB45 SLP237 P0000 T00670028=
201504121543 SPECI KBLI 121543Z 16012G17KT 10SM SCT017 BKN045 OVC070 07/03 A3021 RMK AO2=
201504121453 METAR KBLI 121453Z 16009G16KT 10SM FEW014 BKN023 BKN047 07/04 A3019 RMK AO2 SLP232 T00670039 53009=
201504121444 SPECI KBLI 121444Z 17010G16KT 10SM FEW018 BKN025 OVC047 07/04 A3019 RMK AO2=
201504121353 METAR KBLI 121353Z 18006KT 10SM OVC070 07/02 A3018 RMK AO2 SLP227 T00670022=
201504121253 METAR KBLI 121253Z AUTO 00000KT 10SM CLR 04/02 A3017 RMK AO2 SLP225 T00440017=
201504121153 METAR KBLI 121153Z AUTO 16003KT 10SM BKN110 06/02 A3017 RMK AO2 SLP223 70004 T00560017 10072 20044 53015=
201504121053 METAR KBLI 121053Z AUTO 15005KT 10SM CLR 06/01 A3015 RMK AO2 SLP218 T00560006=
201504120953 METAR KBLI 120953Z AUTO 16004KT 10SM CLR 07/00 A3013 RMK AO2 SLP212 T00670000=
201504120853 METAR KBLI 120853Z AUTO 00000KT 10SM CLR 06/00 A3012 RMK AO2 SLP208 T00610000 53025=
201504120753 METAR KBLI 120753Z AUTO 00000KT 10SM CLR 07/00 A3009 RMK AO2 SLP198 T00670000 401170061=
201504120653 METAR KBLI 120653Z AUTO 19008KT 10SM CLR 07/02 A3006 RMK AO2 SLP188 T00670017=
201504120553 METAR KBLI 120553Z AUTO 18011G18KT 10SM BKN095 OVC110 07/02 A3005 RMK AO2 SLP182 T00720022 10117 20072 53024=
201504120453 METAR KBLI 120453Z 17007G17KT 10SM SCT100 08/02 A3002 RMK AO2 SLP172 T00780022=
201504120353 METAR KBLI 120353Z VRB04KT 10SM FEW034 SCT041 BKN080 08/01 A3000 RMK AO2 SLP168 T00830011=
201504120253 METAR KBLI 120253Z VRB05KT 10SM BKN085 09/M01 A2998 RMK AO2 SLP159 T00941006 51014=
201504120153 METAR KBLI 120153Z VRB04KT 10SM SCT080 SCT110 10/01 A2997 RMK AO2 SLP155 T01000011=
201504120053 METAR KBLI 120053Z 22009G19KT 10SM FEW060 SCT070 11/01 A2996 RMK AO2 SLP153 T01060006=
201504112353 METAR KBLI 112353Z 18008G16KT 10SM BKN041 BKN049 BKN060 11/03 A2994 RMK AO2 SLP145 60000 T01060028 10111 20083 51006=
201504112253 METAR KBLI 112253Z 17008G15KT 10SM OVC041 11/03 A2993 RMK AO2 SLP144 T01110033=
201504112153 METAR KBLI 112153Z 18008G15KT 10SM BKN100 OVC120 09/02 A2993 RMK AO2 RAB12E23 SLP142 P0000 T00940022=
201504112053 METAR KBLI 112053Z 19007KT 160V220 10SM SCT041 BKN050 BKN110 10/02 A2992 RMK AO2 SLP139 T01000022 53007=
201504111953 METAR KBLI 111953Z 18006KT 10SM BKN085 BKN110 09/02 A2991 RMK AO2 SLP135 T00940022=
201504111853 METAR KBLI 111853Z 18008G17KT 10SM SCT037 BKN100 10/03 A2990 RMK AO2 SLP134 T01000028=
201504111753 METAR KBLI 111753Z 17008G15KT 10SM BKN060 BKN075 OVC090 08/05 A2990 RMK AO2 RAE35 SLP132 P0003 60004 T00830050 10083 20061 50008=
201504111726 SPECI KBLI 111726Z 20003KT 10SM -RA FEW027 BKN033 OVC055 07/04 A2990 RMK AO2 P0003=
201504111704 SPECI KBLI 111704Z VRB04KT 3SM -RA BKN027 OVC050 06/03 A2990 RMK AO2 P0001=
201504111653 METAR KBLI 111653Z VRB04G18KT 6SM -RA FEW024 BKN030 OVC070 07/02 A2990 RMK AO2 RAB04 SLP132 P0001 T00670022=
201504111553 METAR KBLI 111553Z 19007KT 10SM SCT060 BKN070 BKN110 08/03 A2989 RMK AO2 SLP128 T00780028=
201504111453 METAR KBLI 111453Z 19007KT 150V270 10SM BKN065 OVC090 08/03 A2987 RMK AO2 SLP124 T00780028 53016=
201504111353 METAR KBLI 111353Z 19006KT 10SM FEW055 BKN070 OVC090 07/02 A2985 RMK AO2 SLP117 T00720022=
201504111253 METAR KBLI 111253Z AUTO 17005KT 10SM OVC070 07/02 A2984 RMK AO2 SLP111 T00720022=
201504111153 METAR KBLI 111153Z AUTO 22003KT 10SM SCT070 06/02 A2983 RMK AO2 SLP108 60001 70006 T00610017 10089 20061 51018=
201504111053 METAR KBLI 111053Z AUTO 18003KT 10SM FEW110 07/01 A2981 RMK AO2 SLP102 T00720011=
201504110953 METAR KBLI 110953Z AUTO VRB04KT 10SM BKN110 08/01 A2979 RMK AO2 SLP095 T00780011=
201504110853 METAR KBLI 110853Z AUTO VRB03KT 10SM FEW100 08/02 A2977 RMK AO2 SLP088 60001 T00780022 51016=
201504110753 METAR KBLI 110753Z AUTO VRB04KT 10SM OVC080 08/04 A2976 RMK AO2 SLP083 T00830039 401440039=
201504110653 METAR KBLI 110653Z AUTO 18006KT 10SM BKN049 OVC070 08/05 A2974 RMK AO2 RAB08E52 SLP078 P0001 T00830050=
201504110622 SPECI KBLI 110622Z AUTO 18006KT 10SM -RA FEW017 BKN041 OVC047 09/06 A2973 RMK AO2 RAB08 P0000=
201504110553 METAR KBLI 110553Z AUTO 17011G17KT 10SM OVC019 09/06 A2972 RMK AO2 RAE08B25E37 SLP072 P0000 60005 T00890056 10122 20089 53006=
201504110508 SPECI KBLI 110508Z 17015G23KT 10SM BKN023 BKN032 OVC060 09/06 A2972 RMK AO2 RAE08 P0000=
201504110453 METAR KBLI 110453Z 16014G26KT 10SM -RA SCT028 SCT038 OVC050 09/06 A2971 RMK AO2 PK WND 17028/0443 RAB10E33B50 SLP068 P0000 T00940061=
201504110353 METAR KBLI 110353Z 16014G25KT 10SM FEW021 SCT026 OVC060 10/07 A2971 RMK AO2 PK WND 16026/0332 RAE04 SLP066 P0000 T01000067=
201504110253 METAR KBLI 110253Z 17006KT 10SM -RA OVC019 09/08 A2971 RMK AO2 SLP069 P0003 60005 T00940078 56013=
201504110153 METAR KBLI 110153Z 17016G26KT 10SM -RA OVC025 10/07 A2972 RMK AO2 PK WND 17031/0106 RAB07 SLP072 P0002 T01000067=
201504110053 METAR KBLI 110053Z 16017G35KT 10SM OVC034 12/06 A2974 RMK AO2 PK WND 17035/0045 SLP080 T01170056=
201504102353 METAR KBLI 102353Z 17013G21KT 10SM BKN075 OVC085 12/06 A2975 RMK AO2 PK WND 16029/2334 SLP083 T01220056 10144 20122 55011=
201504102253 METAR KBLI 102253Z 15021G29KT 10SM OVC080 13/03 A2975 RMK AO2 PK WND 14030/2218 SLP082 T01330028=
201504102153 METAR KBLI 102153Z 16018G27KT 10SM OVC100 13/03 A2977 RMK AO2 PK WND 17029/2124 SLP087 T01330033=
201504102053 METAR KBLI 102053Z 15013G23KT 10SM OVC100 14/02 A2979 RMK AO2 PK WND 17027/2028 SLP093 T01390022 57015=
201504101953 METAR KBLI 101953Z 15019G30KT 10SM OVC110 14/02 A2980 RMK AO2 PK WND 14030/1953 SLP098 T01390022=
201504101853 METAR KBLI 101853Z 16015G25KT 10SM FEW110 14/02 A2981 RMK AO2 SLP102 T01390022=
201504101753 METAR KBLI 101753Z 17007KT 10SM FEW120 12/07 A2983 RMK AO2 SLP108 T01220067 10122 20039 56013=
201504101653 METAR KBLI 101653Z 16003KT 10SM FEW120 11/06 A2984 RMK AO2 SLP112 T01110061=
201504101553 METAR KBLI 101553Z 00000KT 10SM CLR 10/07 A2985 RMK AO2 SLP116 T01000067=
201504101453 METAR KBLI 101453Z 00000KT 10SM CLR 08/07 A2987 RMK AO2 SLP121 T00780067 56008=
201504101353 METAR KBLI 101353Z 00000KT 10SM BKN070 04/04 A2987 RMK AO2 SLP122 T00440039=
201504101253 METAR KBLI 101253Z AUTO 00000KT 10SM CLR 05/03 A2988 RMK AO2 SLP123 T00500033 TSNO=
201504101153 METAR KBLI 101153Z AUTO 00000KT 10SM CLR 05/04 A2989 RMK AO2 SLP128 70001 T00500039 10106 20050 56016 TSNO=
201504101053 METAR KBLI 101053Z AUTO 00000KT 10SM CLR 06/04 A2990 RMK AO2 SLP133 T00610044 TSNO=
201504100953 METAR KBLI 100953Z AUTO 00000KT 10SM CLR 07/05 A2992 RMK AO2 SLP139 T00670050 TSNO=
201504100853 METAR KBLI 100853Z AUTO 00000KT 10SM CLR 08/06 A2994 RMK AO2 SLP145 T00780061 58008 TSNO=
201504100753 METAR KBLI 100753Z AUTO 16003KT 10SM CLR 09/06 A2995 RMK AO2 SLP149 T00940061 401670022 TSNO=
201504100653 METAR KBLI 100653Z AUTO 00000KT 10SM CLR 08/06 A2995 RMK AO2 SLP150 T00830056 TSNO=
201504100553 METAR KBLI 100553Z AUTO 15004KT 10SM CLR 11/05 A2996 RMK AO2 SLP153 T01060050 10167 20083 58004 TSNO=
201504100453 METAR KBLI 100453Z 00000KT 10SM CLR 10/06 A2997 RMK AO2 SLP157 T01000056=
201504100353 METAR KBLI 100353Z 00000KT 10SM CLR 10/06 A2998 RMK AO2 SLP158 T01000056=
201504100253 METAR KBLI 100253Z 00000KT 10SM CLR 13/06 A2998 RMK AO2 SLP157 T01280056 58009=
201504100153 METAR KBLI 100153Z 18006KT 10SM CLR 14/04 A3000 RMK AO2 SLP167 T01440044=
201504100053 METAR KBLI 100053Z VRB04KT 10SM CLR 16/03 A3000 RMK AO2 LTG DSNT SE SLP164 T01610033=
201504092353 METAR KBLI 092353Z 27005KT 10SM CLR 16/04 A3000 RMK AO2 SLP167 T01610044 10167 20122 56021=
201504092253 METAR KBLI 092253Z VRB05KT 10SM CLR 16/04 A3002 RMK AO2 SLP172 T01610039=
201504092153 METAR KBLI 092153Z 00000KT 10SM CLR 16/04 A3004 RMK AO2 SLP180 T01560039=
201504092053 METAR KBLI 092053Z 17006KT 10SM CLR 14/06 A3007 RMK AO2 SLP188 T01440056 56020 $=
201504091953 METAR KBLI 091953Z 18005KT 10SM CLR 14/04 A3009 RMK AO2 SLP195 T01390039 $=
201504091853 METAR KBLI 091853Z 20005KT 10SM CLR 13/05 A3011 RMK AO2 SLP202 T01280050 $=
201504091753 METAR KBLI 091753Z 00000KT 10SM CLR 12/ A3013 RMK AO2 SLP209 P0001 60001 T0122 10122 20022 58007 $=
201504091653 METAR KBLI 091653Z 21005KT 10SM CLR 10/03 A3014 RMK AO2 SLP213 T01000033=
201504091553 METAR KBLI 091553Z 14003KT 10SM CLR 11/04 A3014 RMK AO2 SLP213 T01060044=
201504091453 METAR KBLI 091453Z 00000KT 10SM CLR 07/04 A3015 RMK AO2 SLP217 T00670039 53002=
201504091353 METAR KBLI 091353Z 00000KT 10SM CLR 03/02 A3014 RMK AO2 SLP215 T00330017=
201504091253 METAR KBLI 091253Z AUTO 00000KT 10SM CLR 03/01 A3014 RMK AO2 SLP213 T00330011=
201504091153 METAR KBLI 091153Z AUTO 00000KT 10SM CLR 03/01 A3014 RMK AO2 SLP214 T00330011 10089 20033 53003=
201504091053 METAR KBLI 091053Z AUTO 11003KT 10SM CLR 04/02 A3013 RMK AO2 SLP212 T00440022=
201504090953 METAR KBLI 090953Z AUTO 00000KT 10SM CLR 04/02 A3013 RMK AO2 SLP211 T00440022=
201504090853 METAR KBLI 090853Z AUTO 00000KT 10SM CLR 05/02 A3013 RMK AO2 SLP210 T00500017 53007=
201504090753 METAR KBLI 090753Z AUTO 00000KT 10SM CLR 07/03 A3012 RMK AO2 SLP206 T00720028 401560022=
201504090653 METAR KBLI 090653Z AUTO 16004KT 10SM CLR 08/04 A3011 RMK AO2 SLP203 T00780039=
201504090553 METAR KBLI 090553Z AUTO 16003KT 10SM CLR 08/04 A3011 RMK AO2 SLP204 T00780039 10156 20078 51010=
201504090453 METAR KBLI 090453Z 16003KT 10SM CLR 09/05 A3010 RMK AO2 SLP199 T00940050=
201504090353 METAR KBLI 090353Z 18004KT 10SM CLR 11/06 A3009 RMK AO2 SLP198 T01110056=
201504090253 METAR KBLI 090253Z 17006KT 10SM CLR 12/06 A3008 RMK AO2 SLP193 T01170056 53001=
201504090153 METAR KBLI 090153Z 17006KT 10SM CLR 14/06 A3007 RMK AO2 SLP192 T01390056=
201504090053 METAR KBLI 090053Z 17003KT 10SM CLR 15/04 A3008 RMK AO2 SLP192 T01500039=
201504082353 METAR KBLI 082353Z 16006KT 10SM CLR 15/05 A3008 RMK AO2 SLP192 T01500050 10156 20111 55003=
201504082253 METAR KBLI 082253Z 15006KT 10SM CLR 16/04 A3007 RMK AO2 SLP191 T01560044=
201504082153 METAR KBLI 082153Z 17006KT 10SM CLR 16/05 A3008 RMK AO2 SLP192 T01560050=
201504082053 METAR KBLI 082053Z VRB05KT 10SM CLR 14/06 A3009 RMK AO2 SLP195 T01440056 50003=
201504081953 METAR KBLI 081953Z 16005KT 10SM CLR 13/06 A3009 RMK AO2 SLP195 T01330056=
201504081853 METAR KBLI 081853Z VRB05KT 10SM CLR 12/06 A3008 RMK AO2 SLP195 T01220056=
201504081753 METAR KBLI 081753Z 16006KT 10SM CLR 11/04 A3008 RMK AO2 SLP192 T01110044 10111 20022 51014=
201504081653 METAR KBLI 081653Z 31003KT 10SM CLR 11/07 A3007 RMK AO2 SLP188 T01060067=
201504081610 SPECI KBLI 081610Z 29004KT 10SM SCT009 10/06 A3005 RMK AO2=
201504081553 METAR KBLI 081553Z 00000KT 10SM BKN009 09/06 A3005 RMK AO2 SLP184 T00890061=
201504081518 SPECI KBLI 081518Z 00000KT 10SM BKN007 07/05 A3004 RMK AO2=
201504081507 SPECI KBLI 081507Z 00000KT 10SM SCT007 06/05 A3004 RMK AO2=
201504081453 METAR KBLI 081453Z 00000KT 10SM CLR 04/03 A3004 RMK AO2 SLP179 T00440033 53020=
201504081401 SPECI KBLI 081401Z 00000KT 10SM FEW100 03/01 A3002 RMK AO2=
201504081353 METAR KBLI 081353Z 00000KT 2 1/2SM BR FEW100 03/02 A3002 RMK AO2 VIS 3/4V5 SLP173 T00280017=
201504081253 METAR KBLI 081253Z AUTO 00000KT 9SM CLR 04/02 A2999 RMK AO2 SLP164 T00390017=
201504081232 SPECI KBLI 081232Z AUTO 00000KT 4SM BR CLR 03/02 A2999 RMK AO2=
201504081222 SPECI KBLI 081222Z AUTO 00000KT 1 3/4SM BR CLR 03/02 A2999 RMK AO2 VIS 1/2V5=
201504081153 METAR KBLI 081153Z AUTO 00000KT 10SM SCT100 04/02 A2998 RMK AO2 SLP159 T00390022 10089 20033 53013=
201504081053 METAR KBLI 081053Z AUTO 00000KT 8SM CLR 04/02 A2996 RMK AO2 SLP153 T00390022=
201504080953 METAR KBLI 080953Z AUTO 00000KT 10SM OVC100 06/04 A2994 RMK AO2 SLP148 T00560039=
201504080853 METAR KBLI 080853Z AUTO 00000KT 10SM SCT090 06/03 A2994 RMK AO2 SLP147 T00560033 53008=
201504080753 METAR KBLI 080753Z AUTO 00000KT 10SM BKN095 07/04 A2993 RMK AO2 SLP142 T00670039 401390022=
201504080653 METAR KBLI 080653Z AUTO 00000KT 10SM OVC100 07/05 A2992 RMK AO2 SLP139 T00670050=
201504080553 METAR KBLI 080553Z AUTO 00000KT 10SM OVC100 08/05 A2992 RMK AO2 SLP137 T00830050 10128 20078 51013=
201504080453 METAR KBLI 080453Z 00000KT 10SM BKN090 09/05 A2990 RMK AO2 SLP134 T00890050=
201504080353 METAR KBLI 080353Z 00000KT 10SM BKN095 09/04 A2989 RMK AO2 SLP130 T00890044=
201504080253 METAR KBLI 080253Z 00000KT 10SM OVC100 11/04 A2988 RMK AO2 SLP125 T01110044 53005=
201504080153 METAR KBLI 080153Z 00000KT 10SM CLR 13/03 A2986 RMK AO2 SLP120 T01280033=
201504080053 METAR KBLI 080053Z 29004KT 10SM SCT080 BKN095 12/04 A2986 RMK AO2 SLP119 T01220039=
201504072353 METAR KBLI 072353Z 26004KT 10SM CLR 13/04 A2986 RMK AO2 SLP120 T01280039 10139 20111 56009=
201504072253 METAR KBLI 072253Z AUTO 25005KT 10SM BKN100 13/04 A2987 RMK AO2 SLP122 T01280039 TSNO=
201504072153 METAR KBLI 072153Z VRB04KT 10SM BKN100 13/03 A2988 RMK AO2 SLP126 T01280033=
201504072053 METAR KBLI 072053Z 22005KT 10SM CLR 13/04 A2989 RMK AO2 SLP129 T01280044 53004=
201504071953 METAR KBLI 071953Z 00000KT 10SM CLR 14/03 A2988 RMK AO2 SLP124 T01390033=
201504071853 METAR KBLI 071853Z VRB03KT 10SM CLR 13/04 A2987 RMK AO2 SLP124 T01280039=
201504071753 METAR KBLI 071753Z VRB03KT 10SM CLR 11/04 A2988 RMK AO2 SLP125 T01110044 10111 20022 52005=
201504071653 METAR KBLI 071653Z 01007KT 10SM CLR 09/04 A2987 RMK AO2 SLP123 T00940044=
201504071553 METAR KBLI 071553Z 36006KT 10SM CLR 07/04 A2987 RMK AO2 SLP121 T00720039=
201504071453 METAR KBLI 071453Z 36004KT 10SM CLR 05/03 A2986 RMK AO2 SLP119 T00500033 53009=
201504071353 METAR KBLI 071353Z 02003KT 9SM CLR 02/01 A2985 RMK AO2 SLP116 T00220011=
201504071253 METAR KBLI 071253Z AUTO 01003KT 10SM CLR 03/02 A2984 RMK AO2 SLP112 T00330022=
201504071153 METAR KBLI 071153Z AUTO 02004KT 10SM CLR 03/02 A2983 RMK AO2 SLP110 T00330022 10056 20028 56006=
201504071053 METAR KBLI 071053Z AUTO 34003KT 10SM CLR 03/02 A2984 RMK AO2 SLP112 T00330022=
201504070953 METAR KBLI 070953Z AUTO 33003KT 10SM CLR 03/02 A2984 RMK AO2 SLP114 T00330017=
201504070853 METAR KBLI 070853Z AUTO 00000KT 10SM CLR 03/02 A2985 RMK AO2 SLP117 T00330017 58004=
201504070753 METAR KBLI 070753Z AUTO 00000KT 10SM CLR 03/02 A2986 RMK AO2 SLP121 T00330017 401220022=
201504070653 METAR KBLI 070653Z AUTO 00000KT 10SM CLR 04/02 A2987 RMK AO2 SLP123 T00440022=
201504070553 METAR KBLI 070553Z AUTO 00000KT 10SM CLR 06/03 A2986 RMK AO2 SLP121 T00560033 10122 20056 51007=
201504070453 METAR KBLI 070453Z AUTO 00000KT 10SM CLR 07/04 A2986 RMK AO2 SLP119 T00670039=
201504070353 METAR KBLI 070353Z 00000KT 10SM CLR 07/04 A2986 RMK AO2 SLP119 T00720039=
201504070253 METAR KBLI 070253Z 00000KT 10SM CLR 09/04 A2984 RMK AO2 SLP113 T00890044 53006=
201504070153 METAR KBLI 070153Z 18004KT 10SM CLR 11/04 A2983 RMK AO2 SLP111 T01110039=
201504070053 METAR KBLI 070053Z 18007KT 10SM CLR 12/03 A2982 RMK AO2 SLP107 T01170033=
201504062353 METAR KBLI 062353Z 18008KT 10SM CLR 12/03 A2983 RMK AO2 SLP108 T01220033 10122 20100 55001=
201504062253 METAR KBLI 062253Z 18010KT 10SM CLR 12/03 A2982 RMK AO2 SLP107 T01170033=
201504062153 METAR KBLI 062153Z 16010G18KT 10SM CLR 12/04 A2982 RMK AO2 SLP107 T01220044=
201504062053 METAR KBLI 062053Z 17009G18KT 10SM CLR 11/04 A2983 RMK AO2 SLP109 T01110044 51004=
201504061953 METAR KBLI 061953Z 17011G17KT 10SM SCT030 11/04 A2983 RMK AO2 SLP109 T01110039=
201504061853 METAR KBLI 061853Z 16010KT 10SM SCT029 11/04 A2982 RMK AO2 SLP107 T01060039=
201504061753 METAR KBLI 061753Z 17007G15KT 10SM CLR 11/04 A2982 RMK AO2 SLP105 T01060039 10106 20039 51017=
201504061653 METAR KBLI 061653Z 16009KT 10SM FEW025 SCT120 09/04 A2980 RMK AO2 SLP100 T00940039=
201504061553 METAR KBLI 061553Z 15005KT 10SM CLR 09/03 A2979 RMK AO2 SLP094 T00940033=
201504061453 METAR KBLI 061453Z 00000KT 10SM BKN110 08/03 A2977 RMK AO2 SLP088 T00780033 53016=
201504061353 METAR KBLI 061353Z 15004KT 10SM FEW100 04/02 A2975 RMK AO2 SLP082 T00440022=
201504061253 METAR KBLI 061253Z AUTO 00000KT 10SM FEW020 OVC100 07/02 A2973 RMK AO2 SLP076 T00670022=
201504061153 METAR KBLI 061153Z AUTO 14005KT 10SM OVC110 06/02 A2972 RMK AO2 SLP072 T00610022 10072 20022 53013=
201504061053 METAR KBLI 061053Z AUTO 16005KT 10SM OVC110 07/04 A2970 RMK AO2 SLP065 T00670044=
201504060953 METAR KBLI 060953Z AUTO 00000KT 10SM FEW110 04/02 A2969 RMK AO2 SLP062 T00390022=
201504060853 METAR KBLI 060853Z AUTO 00000KT 6SM BR CLR 03/02 A2968 RMK AO2 SLP059 T00330022 53004=
201504060811 SPECI KBLI 060811Z AUTO 00000KT 6SM BR CLR 04/03 A2968 RMK AO2=
201504060803 SPECI KBLI 060803Z AUTO 00000KT 2SM BR CLR 03/02 A2967 RMK AO2 VIS 1/2V5=
201504060753 METAR KBLI 060753Z AUTO 00000KT 10SM CLR 04/02 A2968 RMK AO2 SLP057 T00390022 401440006=
201504060653 METAR KBLI 060653Z AUTO 00000KT 10SM CLR 04/03 A2967 RMK AO2 SLP056 T00440033=
201504060553 METAR KBLI 060553Z AUTO 00000KT 9SM CLR 06/04 A2967 RMK AO2 SLP055 T00560039 10128 20050 50000=
201504060453 METAR KBLI 060453Z 00000KT 10SM CLR 06/03 A2967 RMK AO2 SLP056 T00560033=
201504060353 METAR KBLI 060353Z 00000KT 10SM CLR 07/04 A2968 RMK AO2 SLP057 T00720044=
201504060253 METAR KBLI 060253Z 00000KT 10SM CLR 09/04 A2967 RMK AO2 SLP056 T00890044 56007=
201504060153 METAR KBLI 060153Z 00000KT 10SM CLR 12/05 A2968 RMK AO2 SLP057 T01170050=
201504060053 METAR KBLI 060053Z VRB04KT 10SM CLR 13/05 A2969 RMK AO2 SLP060 T01280050=
201504052353 METAR KBLI 052353Z 26004KT 10SM CLR 13/06 A2969 RMK AO2 SLP063 T01280056 10144 20100 58017=
201504052253 METAR KBLI 052253Z 22005KT 10SM CLR 13/06 A2971 RMK AO2 SLP069 T01280056=
201504052153 METAR KBLI 052153Z 30007KT 10SM FEW100 14/01 A2973 RMK AO2 SLP075 T01440006=
201504052053 METAR KBLI 052053Z VRB03KT 10SM CLR 14/00 A2974 RMK AO2 SLP080 T01390000 58016=
201504051953 METAR KBLI 051953Z 19006KT 10SM CLR 11/03 A2976 RMK AO2 SLP086 T01110028=
201504051853 METAR KBLI 051853Z 17005KT 10SM CLR 10/02 A2978 RMK AO2 SLP092 T01000022=
201504051753 METAR KBLI 051753Z 00000KT 10SM CLR 11/01 A2979 RMK AO2 SLP096 T01060011 10106 20006 56010=
201504051653 METAR KBLI 051653Z 05005KT 10SM CLR 08/01 A2980 RMK AO2 SLP099 T00780011=
201504051553 METAR KBLI 051553Z 03005KT 10SM CLR 05/01 A2981 RMK AO2 SLP102 T00500006=
201504051453 METAR KBLI 051453Z 00000KT 10SM CLR 02/00 A2982 RMK AO2 SLP107 T00220000 56015=
201504051353 METAR KBLI 051353Z 00000KT 10SM CLR 01/M01 A2983 RMK AO2 SLP110 T00111006=
201504051253 METAR KBLI 051253Z AUTO 00000KT 10SM CLR 01/M01 A2985 RMK AO2 SLP115 T00111011=
201504051153 METAR KBLI 051153Z AUTO 00000KT 10SM CLR 02/M01 A2986 RMK AO2 SLP121 T00171006 10050 20011 56015=
201504051053 METAR KBLI 051053Z AUTO 00000KT 10SM CLR 02/M01 A2988 RMK AO2 SLP125 T00171006=
201504050953 METAR KBLI 050953Z AUTO 01003KT 10SM CLR 02/00 A2989 RMK AO2 SLP130 T00220000=
201504050853 METAR KBLI 050853Z AUTO 03004KT 10SM CLR 03/01 A2991 RMK AO2 SLP136 T00280006 56014=
201504050753 METAR KBLI 050753Z AUTO 03004KT 10SM CLR 03/01 A2992 RMK AO2 SLP141 T00330011 401220022=
201504050653 METAR KBLI 050653Z AUTO 00000KT 10SM CLR 03/02 A2994 RMK AO2 SLP146 T00330017=
201504050553 METAR KBLI 050553Z AUTO 00000KT 10SM CLR 05/02 A2995 RMK AO2 SLP151 T00500017 10122 20050 58009=
201504050453 METAR KBLI 050453Z 00000KT 10SM CLR 06/02 A2996 RMK AO2 SLP155 T00610017=
201504050353 METAR KBLI 050353Z 00000KT 10SM CLR 07/02 A2998 RMK AO2 SLP159 T00670017=
201504050253 METAR KBLI 050253Z 00000KT 10SM CLR 09/01 A2998 RMK AO2 SLP160 T00890011 56015=
201504050153 METAR KBLI 050153Z 33005KT 10SM OVC050 12/02 A2999 RMK AO2 SLP164 T01170022=
201504050053 METAR KBLI 050053Z 17005KT 10SM FEW055 12/00 A3000 RMK AO2 SLP168 T01170000=
201504042353 METAR KBLI 042353Z 17004KT 10SM FEW060 12/01 A3002 RMK AO2 SLP175 T01170011 10122 20089 56016=
201504042253 METAR KBLI 042253Z 17006KT 10SM FEW110 12/03 A3004 RMK AO2 SLP180 T01220028=
201504042153 METAR KBLI 042153Z VRB06KT 10SM CLR 12/03 A3005 RMK AO2 SLP184 T01170028=
201504042053 METAR KBLI 042053Z 16009KT 10SM CLR 11/03 A3007 RMK AO2 SLP191 T01060028 58011=
201504041953 METAR KBLI 041953Z 18006KT 10SM CLR 11/03 A3008 RMK AO2 SLP195 T01110033=
201504041853 METAR KBLI 041853Z 17008G15KT 130V220 10SM CLR 10/03 A3010 RMK AO2 SLP200 T01000028=
201504041753 METAR KBLI 041753Z 18007G15KT 10SM CLR 09/03 A3010 RMK AO2 SLP202 T00890028 10089 20022 56003=
201504041653 METAR KBLI 041653Z 16011KT 10SM CLR 08/02 A3010 RMK AO2 SLP202 T00830022=
201504041553 METAR KBLI 041553Z 16009KT 10SM CLR 08/02 A3011 RMK AO2 SLP203 T00780022=
201504041453 METAR KBLI 041453Z 16004KT 10SM FEW060 06/03 A3011 RMK AO2 SLP204 T00560028 55001=
201504041353 METAR KBLI 041353Z 00000KT 10SM SCT060 03/01 A3011 RMK AO2 SLP204 T00280011=
201504041335 SPECI KBLI 041335Z AUTO 00000KT 3SM BR CLR 03/02 A3011 RMK AO2 TSNO=
201504041326 SPECI KBLI 041326Z AUTO 00000KT 1 1/2SM BR CLR 03/02 A3011 RMK AO2 TSNO=
201504041253 METAR KBLI 041253Z AUTO 00000KT 10SM CLR 04/03 A3011 RMK AO2 SLP203 T00440028 TSNO=
201504041153 METAR KBLI 041153Z AUTO 00000KT 10SM FEW037 06/03 A3011 RMK AO2 SLP205 60000 70011 T00560028 10072 20044 56008 TSNO=
201504041053 METAR KBLI 041053Z AUTO 17003KT 10SM SCT027 SCT046 OVC065 06/03 A3012 RMK AO2 RAB0958E08 SLP207 P0000 T00610033 TSNO=
201504040953 METAR KBLI 040953Z AUTO 16005KT 10SM SCT040 BKN050 OVC060 06/03 A3013 RMK AO2 SLP212 T00610033 TSNO=
201504040853 METAR KBLI 040853Z AUTO 14003KT 10SM FEW024 OVC039 06/03 A3014 RMK AO2 SLP214 60000 T00610033 58002 TSNO=
201504040845 SPECI KBLI 040845Z AUTO 12004KT 10SM SCT029 OVC039 06/03 A3014 RMK AO2 TSNO=
201504040827 SPECI KBLI 040827Z AUTO 00000KT 10SM BKN029 OVC037 06/03 A3014 RMK AO2 TSNO=
201504040753 METAR KBLI 040753Z AUTO 00000KT 10SM FEW048 04/02 A3014 RMK AO2 SLP214 T00440022 401280044 TSNO=
201504040653 METAR KBLI 040653Z AUTO 17004KT 10SM OVC055 06/03 A3015 RMK AO2 RAE0558 SLP216 P0000 T00610028 TSNO=
201504040553 METAR KBLI 040553Z AUTO 17004KT 10SM -RA BKN060 OVC070 08/03 A3014 RMK AO2 RAB49 SLP215 P0000 60000 T00780028 10089 20056 50005 TSNO=
201504040453 METAR KBLI 040453Z 14004KT 10SM FEW100 06/03 A3015 RMK AO2 SLP216 T00610028=
201504040353 METAR KBLI 040353Z 14006KT 10SM CLR 07/03 A3014 RMK AO2 SLP213 T00670033=
201504040253 METAR KBLI 040253Z 16005KT 10SM CLR 07/03 A3013 RMK AO2 SLP210 60000 T00720033 58001=
201504040153 METAR KBLI 040153Z 13007KT 10SM FEW120 08/04 A3013 RMK AO2 RAE0057 SLP211 P0000 T00830044=
201504040053 METAR KBLI 040053Z 15005KT 10SM -RA FEW034 BKN045 OVC060 08/04 A3013 RMK AO2 RAB09 SLP212 P0000 T00780044=
201504040031 SPECI KBLI 040031Z 17003KT 10SM -RA FEW020 SCT029 OVC042 07/04 A3013 RMK AO2 RAB09 P0000=
201504032353 METAR KBLI 032353Z 17006KT 10SM BKN021 BKN028 OVC070 07/04 A3013 RMK AO2 RAE41 SLP211 P0001 60011 T00720044 10122 20072 53004=
201504032300 SPECI KBLI 032300Z 17005KT 9SM -RA BKN026 OVC031 07/04 A3012 RMK AO2 P0001=
201504032253 METAR KBLI 032253Z 18006KT 8SM -RA FEW016 BKN033 OVC045 07/04 A3013 RMK AO2 SLP209 P0007 T00720044=
201504032203 SPECI KBLI 032203Z 15014G21KT 6SM -RA BKN026 OVC031 08/05 A3012 RMK AO2 P0001=
201504032153 METAR KBLI 032153Z 15016G23KT 7SM -RA FEW026 BKN031 OVC043 08/05 A3012 RMK AO2 PK WND 15027/2122 SLP206 P0003 T00830050=
201504032053 METAR KBLI 032053Z 16014G25KT 8SM -RA FEW030 SCT037 OVC070 10/04 A3012 RMK AO2 RAB1954E20B46 SLP207 P0000 60000 T01000039 55003=
201504031953 METAR KBLI 031953Z 16014G21KT 10SM FEW048 BKN060 OVC075 11/02 A3010 RMK AO2 SLP202 T01110022=
201504031853 METAR KBLI 031853Z 16012G17KT 10SM BKN041 12/02 A3012 RMK AO2 PK WND 14026/1830 SLP205 T01170022=
201504031753 METAR KBLI 031753Z VRB03KT 10SM OVC045 12/02 A3013 RMK AO2 SLP209 T01170022 10117 20050 56013=
201504031653 METAR KBLI 031653Z 34003KT 10SM BKN048 OVC055 10/03 A3014 RMK AO2 SLP214 T01000033=
201504031553 METAR KBLI 031553Z 00000KT 10SM BKN045 OVC050 09/04 A3015 RMK AO2 SLP219 T00940044=
201504031453 METAR KBLI 031453Z 02003KT 10SM OVC041 07/04 A3017 RMK AO2 SLP223 T00720039 56015=
201504031353 METAR KBLI 031353Z 00000KT 10SM FEW050 SCT120 06/03 A3018 RMK AO2 SLP227 T00560033=
201504031253 METAR KBLI 031253Z AUTO 00000KT 10SM FEW120 06/03 A3019 RMK AO2 SLP232 T00560033=
201504031153 METAR KBLI 031153Z AUTO 00000KT 10SM BKN110 06/04 A3021 RMK AO2 SLP238 T00610039 10083 20056 58020=
201504031053 METAR KBLI 031053Z AUTO 00000KT 10SM FEW120 06/04 A3023 RMK AO2 SLP244 T00610039=
201504030953 METAR KBLI 030953Z AUTO 00000KT 10SM OVC100 07/04 A3025 RMK AO2 SLP252 T00720039=
201504030853 METAR KBLI 030853Z AUTO 00000KT 10SM BKN110 07/04 A3027 RMK AO2 SLP258 T00720039 58013=
201504030753 METAR KBLI 030753Z AUTO 00000KT 10SM BKN050 OVC065 08/04 A3028 RMK AO2 SLP262 T00780039 401220044=
201504030653 METAR KBLI 030653Z AUTO 00000KT 10SM SCT048 OVC070 08/04 A3030 RMK AO2 SLP267 T00830044=
201504030553 METAR KBLI 030553Z AUTO 00000KT 10SM OVC080 08/04 A3031 RMK AO2 SLP270 T00830044 10122 20078 58008=
201504030453 METAR KBLI 030453Z 00000KT 10SM OVC080 08/04 A3031 RMK AO2 SLP273 T00830044=
201504030353 METAR KBLI 030353Z 00000KT 10SM BKN080 09/04 A3033 RMK AO2 SLP278 T00890044=
201504030253 METAR KBLI 030253Z 00000KT 10SM OVC080 10/04 A3033 RMK AO2 SLP278 T01000039 58011=
201504030153 METAR KBLI 030153Z 00000KT 10SM CLR 11/03 A3034 RMK AO2 SLP283 T01110033=
201504030053 METAR KBLI 030053Z 17006KT 10SM CLR 12/02 A3035 RMK AO2 SLP286 T01170022=
201504022353 METAR KBLI 022353Z 17007KT 10SM CLR 12/02 A3036 RMK AO2 SLP289 T01220022 10122 20089 58009=
201504022253 METAR KBLI 022253Z 16008KT 10SM CLR 12/03 A3037 RMK AO2 SLP294 T01220028=
201504022153 METAR KBLI 022153Z 18007KT 130V210 10SM CLR 12/02 A3038 RMK AO2 SLP296 T01170022=
201504022053 METAR KBLI 022053Z 17011KT 10SM CLR 11/02 A3039 RMK AO2 SLP299 T01110022 56001=
201504021953 METAR KBLI 021953Z 17012G18KT 10SM CLR 11/05 A3039 RMK AO2 SLP300 T01060050=
201504021853 METAR KBLI 021853Z 16010KT 10SM BKN065 10/05 A3039 RMK AO2 SLP299 T01000050=
201504021753 METAR KBLI 021753Z 16010G16KT 10SM BKN060 09/05 A3039 RMK AO2 SLP300 T00890050 10094 20044 53008 $=
201504021653 METAR KBLI 021653Z 16006KT 10SM OVC050 09/04 A3038 RMK AO2 SLP296 T00890044 $=
201504021553 METAR KBLI 021553Z 16007KT 10SM BKN055 08/04 A3038 RMK AO2 SLP294 T00830044 $=
201504021539 SPECI KBLI 021539Z 16007KT 10SM SCT015 08/04 A3037 RMK AO2 $=
201504021529 SPECI KBLI 021529Z VRB06KT 10SM BKN015 08/04 A3037 RMK AO2 $=
201504021520 SPECI KBLI 021520Z 17007KT 10SM BKN014 08/05 A3037 RMK AO2 $=
201504021453 METAR KBLI 021453Z 17003KT 10SM CLR 08/04 A3037 RMK AO2 SLP292 T00780044 53009 $=
201504021445 METAR KBLI 021445Z AUTO 140/07 10SM 6500 FEW019 07/04 A3037=
201504021426 SPECI KBLI 021426Z 16004KT 10SM SCT021 07/04 A3036 RMK AO2 $=
201504021353 METAR KBLI 021353Z 17004KT 10SM BKN021 06/04 A3036 RMK AO2 SLP288 T00610039 $=
201504021314 SPECI KBLI 021314Z AUTO 00000KT 10SM BKN021 06/04 A3035 RMK AO2 $=
201504021253 METAR KBLI 021253Z AUTO 00000KT 10SM CLR 05/03 A3035 RMK AO2 SLP284 T00500033 $=
201504021153 METAR KBLI 021153Z AUTO 00000KT 10SM OVC037 07/04 A3034 RMK AO2 SLP283 T00670039 10072 20044 53007 $=
201504021053 METAR KBLI 021053Z AUTO 17003KT 10SM SCT039 OVC065 07/04 A3033 RMK AO2 SLP279 T00670039 $=
201504020953 METAR KBLI 020953Z AUTO 00000KT 10SM BKN039 BKN047 OVC065 07/03 A3033 RMK AO2 SLP278 T00670033 $=
201504020853 METAR KBLI 020853Z AUTO 16004KT 10SM OVC060 07/04 A3032 RMK AO2 SLP276 T00670039 53008 $=
201504020753 METAR KBLI 020753Z AUTO 14005KT 10SM CLR 05/03 A3031 RMK AO2 SLP272 T00500028 401220044 $=
201504020653 METAR KBLI 020653Z AUTO 00000KT 10SM CLR 05/03 A3030 RMK AO2 SLP270 T00500033 $=
201504020553 METAR KBLI 020553Z AUTO 00000KT 10SM CLR 06/03 A3030 RMK AO2 SLP267 T00560033 10117 20056 $=
201504020453 METAR KBLI 020453Z 00000KT 10SM CLR 06/03 A3028 RMK AO2 SLP263 T00610033 $=
201504020353 METAR KBLI 020353Z 00000KT 10SM CLR 07/03 A3028 RMK AO2 SLP261 T00720033 $=
201504020253 METAR KBLI 020253Z 00000KT 10SM CLR 08/03 A3026 RMK AO2 SLP254 T00780028 53005=
201504020153 METAR KBLI 020153Z 28004KT 10SM CLR 10/02 A3025 RMK AO2 SLP252 T01000017=
201504020053 METAR KBLI 020053Z VRB03KT 10SM FEW033 11/04 A3025 RMK AO2 SLP250 T01060039=
201504012353 METAR KBLI 012353Z 17008KT 10SM BKN038 BKN049 12/03 A3024 RMK AO2 SLP249 T01170028 10122 20094 55001=
201504012253 METAR KBLI 012253Z 18007KT 150V220 10SM FEW039 12/03 A3024 RMK AO2 SLP249 T01170033=
201504012153 METAR KBLI 012153Z 17011KT 10SM CLR 11/03 A3024 RMK AO2 SLP248 T01110033=
201504012053 METAR KBLI 012053Z 16009G18KT 10SM CLR 11/04 A3025 RMK AO2 SLP250 T01110039 58005=
201504011953 METAR KBLI 011953Z 17009G14KT 10SM FEW032 BKN042 OVC055 10/03 A3026 RMK AO2 SLP254 T01000033=
201504011853 METAR KBLI 011853Z 17010KT 10SM BKN055 11/04 A3026 RMK AO2 SLP255 T01060044=
201504011753 METAR KBLI 011753Z 17009G16KT 10SM SCT017 10/05 A3026 RMK AO2 SLP256 T01000050 10100 20056 51008=
201504011653 METAR KBLI 011653Z 16008KT 10SM BKN036 09/04 A3026 RMK AO2 SLP255 T00890044=
201504011553 METAR KBLI 011553Z 17005KT 10SM OVC040 08/04 A3025 RMK AO2 SLP252 T00830039=
201504011453 METAR KBLI 011453Z 16004KT 10SM SCT042 SCT049 07/03 A3024 RMK AO2 SLP248 T00670033 53011=
201504011353 METAR KBLI 011353Z 16005KT 10SM FEW055 07/03 A3023 RMK AO2 SLP244 T00670033=
201504011253 METAR KBLI 011253Z AUTO 00000KT 10SM SCT025 OVC060 06/04 A3022 RMK AO2 SLP241 T00610044=
201504011153 METAR KBLI 011153Z AUTO 00000KT 10SM FEW035 SCT047 OVC060 06/04 A3021 RMK AO2 RAE46 SLP237 P0002 60002 70003 T00610044 10083 20061 53007=
201504011122 SPECI KBLI 011122Z AUTO 00000KT 10SM -RA FEW027 OVC035 07/04 A3021 RMK AO2 P0001=
201504011100 SPECI KBLI 011100Z AUTO 29004KT 9SM -RA BKN028 OVC037 07/03 A3020 RMK AO2 P0001=
201504011053 METAR KBLI 011053Z AUTO 31004KT 10SM -RA SCT028 OVC037 07/03 A3020 RMK AO2 RAB34 SLP234 P0000 T00720033=
201504010953 METAR KBLI 010953Z AUTO 23003KT 10SM OVC045 08/03 A3019 RMK AO2 SLP230 T00830028=
201504010853 METAR KBLI 010853Z AUTO 17004KT 10SM BKN043 OVC060 08/03 A3018 RMK AO2 SLP228 T00830028 51015=
201504010753 METAR KBLI 010753Z AUTO 17003KT 10SM SCT041 BKN049 08/03 A3017 RMK AO2 SLP224 T00780028 401280067=
201504010653 METAR KBLI 010653Z AUTO 19004KT 10SM FEW070 08/03 A3016 RMK AO2 SLP220 T00780028=
201504010553 METAR KBLI 010553Z AUTO 00000KT 10SM BKN041 BKN070 BKN090 08/03 A3014 RMK AO2 SLP215 T00830028 10122 20083 51014=
201504010453 METAR KBLI 010453Z 17004KT 10SM SCT041 BKN080 08/03 A3013 RMK AO2 SLP211 T00830028=
201504010353 METAR KBLI 010353Z 00000KT 10SM FEW065 SCT100 09/03 A3012 RMK AO2 SLP207 T00890028=
201504010253 METAR KBLI 010253Z 19004KT 10SM OVC100 10/02 A3010 RMK AO2 SLP201 T01000022 51007=
201504010153 METAR KBLI 010153Z 00000KT 10SM FEW100 11/02 A3010 RMK AO2 SLP200 T01060022=
201504010053 METAR KBLI 010053Z VRB04KT 10SM BKN095 BKN110 11/01 A3009 RMK AO2 SLP195 T01110011=

# No short TAF reports from KBLI in databse.

###################################
#  large TAF from KBLI
###################################
201504302335 TAF KBLI 302335Z 0100/0124 18008G14KT P6SM BKN200 FM010300 18009KT
                       P6SM SCT050 BKN200=
201504301734 TAF KBLI 301734Z 3018/0118 16009KT P6SM OVC050 FM010100 18009KT
                       P6SM SCT050 BKN200=
201504301120 TAF KBLI 301120Z 3012/0112 00000KT P6SM VCSH BKN050 OVC070 FM301900
                       16012KT P6SM VCSH BKN060 FM010100 18009KT
                       P6SM SCT050 BKN100=
201504300522 TAF KBLI 300522Z 3006/0106 VRB03KT P6SM VCSH OVC050 FM301900 16012KT
                       P6SM VCSH OVC050 FM010100 18009KT P6SM SCT050
                       BKN100=
201504292332 TAF KBLI 292332Z 3000/3024 18009KT P6SM SCT045 BKN070 BKN200
                      TEMPO 3000/3004 P6SM -SHRA OVC030 FM300400
                       17007KT P6SM VCSH SCT025 BKN070 FM300600
                       17008KT P6SM VCSH OVC040 FM302100 16014KT
                       P6SM VCSH OVC050=
201504291741 TAF KBLI 291741Z 2918/3018 15010KT P6SM FEW035 OVC050
                      TEMPO 2918/2922 P6SM -SHRA OVC030 FM292200
                       17012KT P6SM SCT025 OVC040
                      TEMPO 2922/3002 P6SM -SHRA OVC025 FM300200
                       17009KT P6SM VCSH SCT025 BKN045 FM300600
                       17006KT P6SM OVC050 FM301500 16012KT P6SM
                       BKN050=
201504291130 TAF KBLI 291130Z 2912/3012 16008KT P6SM SCT050 FM292000 16008KT
                       P6SM SCT045 BKN070 FM292300 16012KT P6SM
                       -RA BKN035 OVC050 FM300300 19008KT P6SM
                       SCT035 OVC050=
201504290539 TAF KBLI 290539Z 2906/3006 16008KT P6SM SCT035 BKN060 FM292200
                       16012KT P6SM -RA BKN035 OVC050 FM300300
                       19008KT P6SM SCT035 OVC050=
201504282332 TAF KBLI 282332Z 2900/2924 15003KT P6SM -RA SCT040 OVC060 FM290300
                       18006KT P6SM SCT035 BKN050 FM291600 16012KT
                       P6SM SCT035 BKN050 FM292200 16015KT P6SM
                       -RA BKN035 OVC050=
201504281729 TAF KBLI 281729Z 2818/2918 20005KT P6SM -SHRA SCT025 BKN035 OVC045
                       TEMPO 2818/2822 -SHRA BKN025 OVC035 FM282200
                       20008KT P6SM VCSH SCT025 BKN040=
201504281218 TAF KBLI 281218Z 2812/2912 16008KT P6SM SCT050 BKN080 OVC200 FM281600
                       16014KT P6SM -RA SCT022 OVC035 FM281900
                       19012KT P6SM -SHRA BKN025 BKN040 FM282200
                       19008KT P6SM VCSH SCT025 BKN040=
201504280534 TAF KBLI 280534Z 2806/2906 VRB03KT P6SM BKN250 FM281100 16008KT
                       P6SM BKN250 FM281300 16008KT P6SM SCT050
                       BKN100 OVC200 FM281600 16012KT P6SM -RA
                       BKN022 OVC035 FM282000 18010KT P6SM -SHRA
                       BKN025 BKN040 FM290000 18010KT P6SM VCSH
                       SCT025 BKN040=
201504272320 TAF KBLI 272320Z 2800/2824 01008G15KT P6SM SCT250 FM280400 VRB02KT
                       P6SM SCT250 FM281100 16008KT P6SM SCT040
                       BKN070 FM281500 17014G25KT P6SM -RA BKN035
                       OVC060 FM281900 18009KT P6SM VCSH BKN030
                       BKN045=
201504272303 TAF AMD KBLI 272303Z 2723/2818 01008G15KT P6SM SCT250 FM280400
                       VRB02KT P6SM SCT250 FM281100 16008KT P6SM
                       SCT040 BKN070 FM281500 17014G25KT P6SM -RA
                       BKN035 OVC060=
201504271728 TAF KBLI 271728Z 2718/2818 02005KT 6SM BR FEW005 OVC019 FM272000
                       27005KT P6SM SCT025 BKN050 BKN100 FM272200
                       27005KT P6SM SCT100 FM280300 VRB02KT P6SM
                       SKC FM281100 16008KT P6SM SCT040 BKN070
                       FM281500 17014G25KT P6SM -RA BKN035 OVC060=
201504271500 TAF AMD KBLI 271500Z 2715/2812 01004KT 3SM -RA BR OVC015 FM271800
                       17006KT P6SM SCT022 OVC035 FM272300 VRB03KT
                       P6SM SCT100 FM281000 13008KT P6SM SCT060
                       BKN120=
201504271136 TAF KBLI 271136Z 2712/2812 VRB03KT P6SM OVC021
                      TEMPO 2712/2716 5SM -RA FM271800 17006KT
                       P6SM SCT022 OVC035 FM272300 VRB03KT P6SM
                       SCT100 FM281000 13008KT P6SM SCT060 BKN120=
201504270536 TAF KBLI 270536Z 2706/2806 16010KT P6SM SCT025 OVC040 FM271400
                       16010KT P6SM SCT035 OVC050 FM272000 18006KT
                       P6SM SCT050 BKN100 FM280000 VRB03KT P6SM
                       SCT100=
201504262321 TAF KBLI 262321Z 2700/2724 17006KT P6SM BKN100 OVC200 FM270500
                       16010KT P6SM -RA SCT025 OVC040 FM270900
                       16010KT P6SM SCT035 OVC050 FM272000 18006KT
                       P6SM SCT050 BKN100 FM272300 33005KT P6SM
                       SCT100=
201504261720 TAF KBLI 261720Z 2618/2718 11004KT P6SM SCT120 OVC250 FM262200
                       15008KT P6SM SCT050 OVC080 FM270500 16010KT
                       P6SM -RA SCT025 OVC040 FM270900 16010KT
                       P6SM SCT035 OVC050=
201504261122 TAF KBLI 261122Z 2612/2712 VRB03KT P6SM BKN250
                      TEMPO 2612/2613 4SM BR FM261600 14006KT P6SM
                       SCT070 OVC150 FM262200 14014KT P6SM SCT040
                       OVC070 FM270400 16010KT P6SM -RA SCT025
                       OVC040 FM270800 16010KT P6SM SCT035 OVC050=
201504260535 TAF KBLI 260535Z 2606/2706 VRB03KT P6SM SKC
                      TEMPO 2609/2613 4SM BR FM261600 14008KT P6SM
                       SCT070 OVC150 FM262200 14014KT P6SM SCT040
                       OVC070 FM270400 16010KT P6SM -RA SCT025
                       OVC040=
201504252331 TAF KBLI 252331Z 2600/2624 16005KT P6SM SCT040 FM261600 16010G17KT
                       P6SM BKN150 FM262300 17008KT P6SM BKN070
                       BKN150=
201504251740 TAF KBLI 251740Z 2518/2618 15008KT P6SM FEW014 BKN026 FM251900
                       17007KT P6SM SCT025 BKN035 FM252200 20006KT
                       P6SM SCT050 FM260700 15003KT P6SM SCT150
                       FM261600 16010KT P6SM BKN150=
201504251128 TAF KBLI 251128Z 2512/2612 VRB03KT 5SM BR SCT001 SCT035
                      TEMPO 2512/2514 1/2SM FG BKN001 BKN035 FM251500
                       VRB03KT P6SM SCT025 BKN040 BKN060 FM252200
                       20006KT P6SM SCT050 SCT100=
201504250526 TAF KBLI 250526Z 2506/2606 VRB03KT P6SM SCT035 BKN060 FM251900
                       20006KT P6SM SCT050 SCT100=
201504242322 TAF KBLI 242322Z 2500/2524 17006KT P6SM SCT035 BKN050 BKN100 FM251900
                       20006KT P6SM SCT050 BKN250=
201504241720 TAF KBLI 241720Z 2418/2518 17012KT P6SM SCT020 BKN080
                      TEMPO 2420/2424 -SHRA BKN020 OVC080 FM250300
                       16006KT P6SM SCT025 BKN040 BKN060=
201504241327 TAF AMD KBLI 241327Z 2413/2512 15015G25KT P6SM -SHRA BKN025 OVC040
                       FM241800 15012G20KT P6SM -SHRA BKN025 OVC040
                       FM250100 19012KT P6SM -SHRA SCT025 BKN040
                       BKN060=
201504241133 TAF KBLI 241133Z 2412/2512 15010KT P6SM -SHRA BKN025 OVC040 FM241800
                       15012G20KT P6SM -SHRA BKN025 OVC040 FM250100
                       19012KT P6SM -SHRA SCT025 BKN040 BKN060=
201504240539 TAF KBLI 240539Z 2406/2506 16008KT P6SM SCT035 BKN050 FM241000
                       16008KT P6SM -SHRA BKN025 OVC040 FM241800
                       16012G20KT P6SM -SHRA BKN025 OVC040 FM250100
                       19012KT P6SM SCT025 BKN040 BKN060=
201504232330 TAF KBLI 232330Z 2400/2424 16010G20KT P6SM -RA OVC029 FM240600
                       16008KT P6SM -RA OVC030 FM241000 15008KT
                       P6SM VCSH OVC035 FM241800 15015G25KT P6SM
                       -RA OVC030=
201504231730 TAF KBLI 231730Z 2318/2418 13010G20KT P6SM OVC080 FM232000 17014G22KT
                       P6SM -RA OVC025 FM240300 16008KT P6SM -RA
                       OVC030 FM240800 15008KT P6SM VCSH OVC035=
201504231132 TAF KBLI 231132Z 2312/2412 16006KT P6SM BKN050 OVC250 FM231700
                       17008KT P6SM -RA OVC040 FM232000 17014G22KT
                       P6SM -RA OVC025 FM240300 16008KT P6SM -RA
                       OVC030 FM240800 15008KT P6SM VCSH OVC035=
201504230544 TAF KBLI 230544Z 2306/2406 17005KT P6SM SKC FM230800 17006KT P6SM
                       SCT045 BKN120 OVC250 FM231600 17008KT P6SM
                       -RA OVC040 FM232000 17014G22KT P6SM -RA
                       OVC025=
201504222320 TAF KBLI 222320Z 2300/2324 15010G14KT P6SM SCT040 FM230300 18008KT
                       P6SM SCT045 BKN120 OVC250 FM231600 17008KT
                       P6SM -RA OVC040 FM232000 17014G22KT P6SM
                       -RA OVC025=
201504221730 TAF KBLI 221730Z 2218/2318 16007KT P6SM SCT030 BKN080
                      TEMPO 2221/2301 BKN030 FM230100 18007KT P6SM
                       SCT045 BKN100 OVC250 FM231600 17008KT P6SM
                       -RA OVC040=
201504221500 TAF AMD KBLI 221500Z 2215/2312 00000KT P6SM BKN060 OVC080 FM221800
                       18008KT P6SM SCT025 BKN050 FM230100 18010KT
                       P6SM FEW050 FM230800 17003KT P6SM BKN040=
201504221159 TAF AMD KBLI 221159Z 2212/2312 17008KT P6SM BKN019 BKN050 OVC080
                       FM221800 18008KT P6SM SCT025 BKN050 FM230100
                       18010KT P6SM FEW050 FM230800 17003KT P6SM
                       BKN040=
201504221130 TAF KBLI 221130Z 2212/2312 17005KT P6SM OVC070 FM221400 18006KT
                       P6SM OVC030 FM221800 18008KT P6SM SCT025
                       BKN050 FM230100 18010KT P6SM FEW050 FM230800
                       17003KT P6SM BKN040=
201504220537 TAF KBLI 220537Z 2206/2306 15008KT P6SM VCSH SCT045 OVC060 FM221000
                       18008KT P6SM VCSH OVC025 FM222100 17009KT
                       P6SM SCT025 BKN050=
201504212335 TAF KBLI 212335Z 2200/2224 16012G20KT P6SM -SHRA SCT035 BKN050
                       OVC070
                      TEMPO 2200/2204 -SHRA OVC035 FM221000 18010KT
                       P6SM VCSH OVC025 FM222100 17009KT P6SM SCT025
                       BKN050=
201504211730 TAF KBLI 211730Z 2118/2218 18006KT P6SM SCT025 SCT070 BKN250 FM212000
                       18010KT P6SM VCSH SCT030 OVC050 FM220000
                       19012G20KT P6SM VCSH OVC030 FM220600 16006KT
                       P6SM OVC025=
201504211500 TAF AMD KBLI 211500Z 2115/2212 13008KT P6SM SCT070 BKN250 FM211800
                       18008KT P6SM SCT200 FM212000 18010KT P6SM
                       VCSH SCT030 OVC050 FM220000 19012G20KT P6SM
                       VCSH OVC030 FM220600 16006KT P6SM OVC025=
201504211143 TAF KBLI 211143Z 2112/2212 00000KT P6SM SKC FM211800 18008KT P6SM
                       SCT200 FM212000 18010KT P6SM VCSH SCT030
                       OVC050 FM220000 19012G20KT P6SM VCSH OVC030
                       FM220600 16006KT P6SM OVC025=
201504210524 TAF KBLI 210524Z 2106/2206 18004KT P6SM SKC FM211200 19003KT P6SM
                       SCT030 BKN080 OVC200 FM211800 18010KT P6SM
                       VCSH SCT030 OVC050=
201504202330 TAF KBLI 202330Z 2100/2124 VRB04KT P6SM SKC FM211200 17003KT P6SM
                       SCT030 BKN080 OVC200 FM211800 18010KT P6SM
                       VCSH SCT030 OVC050=
201504201725 TAF KBLI 201725Z 2018/2118 18005KT P6SM SKC FM211200 17003KT P6SM
                       SCT030 BKN080 OVC200=
201504201120 TAF KBLI 201120Z 2012/2112 00000KT P6SM FEW250 FM201800 18005KT
                       P6SM SKC=
201504200520 TAF KBLI 200520Z 2006/2106 00000KT P6SM SCT250 FM201800 18005KT
                       P6SM SKC=
201504192320 TAF KBLI 192320Z 2000/2024 30005KT P6SM SCT250 FM200400 VRB03KT
                       P6SM SKC=
201504191720 TAF KBLI 191720Z 1918/2018 02005KT P6SM SCT250 FM192100 30005KT
                       P6SM SKC FM200400 VRB03KT P6SM SKC=
201504191120 TAF KBLI 191120Z 1912/2012 VRB04KT P6SM SCT250 FM191800 30005KT
                       P6SM SKC FM200400 VRB03KT P6SM SKC=
201504190530 TAF KBLI 190530Z 1906/2006 VRB04KT P6SM SCT250=
201504182320 TAF KBLI 182320Z 1900/1924 26008KT P6SM SCT250 FM190600 VRB04KT
                       P6SM SCT250=
201504181821 TAF KBLI 181821Z 1818/1918 33007KT P6SM SKC FM190400 VRB04KT P6SM
                       SCT250=
201504181120 TAF KBLI 181120Z 1812/1912 36004KT P6SM SKC FM182000 28005KT P6SM
                       SKC FM190000 VRB04KT P6SM SCT250=
201504180520 TAF KBLI 180520Z 1806/1906 VRB04KT P6SM SKC FM181700 36006KT P6SM
                       SKC=
201504172320 TAF KBLI 172320Z 1800/1824 30012KT P6SM SKC FM181100 04004KT P6SM
                       SCT003
                      TEMPO 1812/1815 3SM BR BKN003 FM181700 36006KT
                       P6SM SKC=
201504171720 TAF KBLI 171720Z 1718/1818 VRB03KT P6SM SCT060 SCT120 FM180000
                       33012KT P6SM SCT040 FM181100 04004KT P6SM
                       SCT003
                      TEMPO 1812/1815 3SM BR BKN003 FM181700 36006KT
                       P6SM SKC=
201504171509 TAF AMD KBLI 171509Z 1715/1812 VRB04KT P6SM SCT010 BKN090
                      TEMPO 1715/1718 BKN010 BKN090 FM171800 VRB04KT
                       P6SM SCT015 SCT050 BKN090 FM172100 23007KT
                       P6SM SCT050 BKN090 FM180400 30010KT P6SM
                       SCT015 FM181100 VRB03KT 5SM BR BKN005=
201504171120 TAF KBLI 171120Z 1712/1812 18006KT P6SM SCT150 BKN250 FM172100
                       20010KT P6SM SCT050 SCT250 FM180400 VRB04KT
                       P6SM SKC=
201504170520 TAF KBLI 170520Z 1706/1806 20003KT P6SM FEW250 FM171500 18006KT
                       P6SM SCT150 SCT250 FM172100 20010KT P6SM
                       SCT050 SCT250=
201504162320 TAF KBLI 162320Z 1700/1724 30006KT P6SM FEW250 FM170400 VRB03KT
                       P6SM SKC FM171500 16005KT P6SM SCT200=
201504161729 TAF KBLI 161729Z 1618/1718 00000KT P6SM SCT250 FM170400 VRB03KT
                       P6SM SKC FM171500 16005KT P6SM SCT200=
201504161120 TAF KBLI 161120Z 1612/1712 19004KT P6SM SCT250 FM161800 17006KT
                       P6SM SKC=
201504160520 TAF KBLI 160520Z 1606/1706 19004KT P6SM BKN070 FM161200 18003KT
                       P6SM SKC FM161800 17006KT P6SM SKC=
201504152324 TAF KBLI 152324Z 1600/1624 19007KT P6SM SCT250 FM160200 16004KT
                       P6SM BKN200=
201504151727 TAF KBLI 151727Z 1518/1618 16011KT P6SM OVC060 FM152300 19007KT
                       P6SM BKN100 FM160200 16004KT P6SM BKN250=
201504151120 TAF KBLI 151120Z 1512/1612 16003KT P6SM SKC FM151900 17007KT P6SM
                       BKN040 FM160300 16004KT P6SM SCT035=
201504150520 TAF KBLI 150520Z 1506/1606 00000KT P6SM SCT090 FM151400 15005KT
                       P6SM SCT040 FM151900 17007KT P6SM BKN040=
201504142329 TAF KBLI 142329Z 1500/1524 16010KT P6SM VCSH SCT040 BKN070 FM150400
                       18007KT P6SM SCT050=
201504141728 TAF KBLI 141728Z 1418/1518 18004KT P6SM SKC FM142000 19008KT P6SM
                       VCSH SCT030 BKN050 FM150300 18007KT P6SM
                       SCT030 BKN050=
201504141120 TAF KBLI 141120Z 1412/1512 16003KT P6SM SCT030 OVC070 FM141900
                       19008KT P6SM VCSH SCT030 BKN050 FM150300
                       18007KT P6SM SCT030 BKN050=
201504141006 TAF AMD KBLI 141006Z 1410/1506 31009KT P6SM -SHRA FEW022 BKN030
                       OVC060 FM141900 19011G18KT P6SM VCSH SCT030
                       BKN050 FM150300 18007KT P6SM SCT030 BKN050=
201504140524 TAF KBLI 140524Z 1406/1506 16006KT P6SM BKN060 FM140900 17006KT
                       P6SM -SHRA SCT025 BKN040 FM141900 17011G18KT
                       P6SM VCSH SCT030 BKN050 FM150300 18007KT
                       P6SM SCT030 BKN050=
201504140408 TAF AMD KBLI 140408Z 1404/1424 15006KT P6SM OVC060 FM140700 18005KT
                       P6SM VCSH SCT025 OVC040 FM141600 17016KT
                       P6SM SCT025 BKN050=
201504132326 TAF KBLI 132326Z 1400/1424 22005KT P6SM -RA BKN023 BKN035 OVC050
                       FM140300 17007G14KT P6SM -RA OVC025 FM140700
                       18005KT P6SM VCSH OVC025 FM141600 17016KT
                       P6SM SCT025 BKN050=
201504132101 TAF AMD KBLI 132101Z 1321/1418 17010G16KT P6SM -RA SCT026 OVC035
                       FM132300 19008KT 4SM -RA BR OVC025 FM140300
                       17008KT P6SM -RA BKN025 OVC050 FM140800
                       17006KT P6SM VCSH BKN025 BKN050 FM141700
                       17009G15KT P6SM SCT025 BKN050=
201504131725 TAF KBLI 131725Z 1318/1418 33003KT P6SM -RA BKN060 OVC070 FM132000
                       15010G17KT 4SM -RA BR BKN025 OVC050 FM132300
                       19008KT 4SM -RA BR OVC025 FM140300 17008KT
                       P6SM -RA BKN025 OVC050 FM140800 17006KT
                       P6SM VCSH BKN025 BKN050 FM141700 17009G15KT
                       P6SM SCT025 BKN050=
201504131122 TAF KBLI 131122Z 1312/1412 02006KT P6SM BKN100 FM131600 12008KT
                       P6SM -RA OVC040 FM131800 15015G25KT P6SM
                       OVC035 FM132100 18010KT P6SM -SHRA BKN025
                       OVC035 FM140300 18008KT P6SM VCSH SCT025
                       BKN040=
201504130528 TAF KBLI 130528Z 1306/1406 05005KT P6SM -RA SCT040 OVC060 FM130700
                       06005KT P6SM SCT040 OVC100 FM131500 12008KT
                       P6SM -RA OVC040 FM131800 15015G25KT P6SM
                       OVC035 FM132100 18010KT P6SM -SHRA BKN025
                       OVC035 FM140300 18008KT P6SM VCSH SCT025
                       BKN040=
201504122336 TAF KBLI 122336Z 1300/1324 17006KT P6SM SCT060 BKN100 FM130600
                       15004KT P6SM SCT060 FM130900 15008KT P6SM
                       SCT060 BKN120 FM131700 15012KT P6SM -RA
                       OVC040 FM132200 15014G20KT P6SM -RA BKN025
                       OVC040=
201504121728 TAF KBLI 121728Z 1218/1318 17006KT P6SM SCT040 BKN060 FM130400
                       15004KT P6SM SCT060 FM130900 15008KT P6SM
                       SCT060 BKN150 FM131700 15012KT P6SM -RA
                       OVC040=
201504121120 TAF KBLI 121120Z 1212/1312 15005KT P6SM SCT030 SCT100 FM122000
                       16010KT P6SM BKN035 BKN070 FM130400 16012KT
                       P6SM SCT035 SCT140=
201504120522 TAF KBLI 120522Z 1206/1306 17007G17KT P6SM SCT035 BKN080 FM120800
                       17007KT P6SM SCT035 BKN080 FM122000 16010KT
                       P6SM BKN035 BKN070 FM130400 16012KT P6SM
                       SCT035 SCT140=
201504120142 TAF AMD KBLI 120142Z 1202/1224 22009G19KT P6SM VCSH SCT040 SCT070
                       FM120500 18008KT P6SM SCT025 BKN050 FM122000
                       VRB03KT P6SM SCT070=
201504112332 TAF KBLI 112332Z 1200/1224 18012KT P6SM VCSH SCT025 BKN040 FM120600
                       18008KT P6SM SCT025 BKN050 FM122000 VRB03KT
                       P6SM SCT070=
201504111726 TAF KBLI 111726Z 1118/1218 18008KT P6SM SCT025 BKN050
                      TEMPO 1118/1121 4SM -SHRA BKN025 OVC050 FM112100
                       18014KT P6SM VCSH SCT025 BKN050 FM120400
                       18008KT P6SM SCT025 BKN050=
201504111323 TAF AMD KBLI 111323Z 1113/1212 17007KT P6SM VCSH OVC070 FM112100
                       18014KT P6SM VCSH SCT025 BKN050 FM120400
                       18008KT P6SM SCT025 BKN050=
201504111120 TAF KBLI 111120Z 1112/1212 18003KT P6SM VCSH SCT050 BKN100 FM112100
                       18014KT P6SM VCSH SCT025 BKN050 FM120400
                       18008KT P6SM SCT025 BKN050=
201504110856 TAF AMD KBLI 110856Z 1109/1206 VRB04KT P6SM VCSH SCT050 OVC080
                       FM111600 18014KT P6SM VCSH SCT025 BKN050=
201504110532 TAF KBLI 110532Z 1106/1206 16014G26KT P6SM -RA SCT028 BKN040 OVC050
                       FM110700 18010KT P6SM -SHRA BKN025 BKN050
                       FM111600 18014KT P6SM VCSH SCT025 BKN050=
201504110257 TAF AMD KBLI 110257Z 1103/1124 17010KT P6SM -RA OVC019 FM110500
                       18012G20KT P6SM -SHRA BKN025 BKN050 FM110800
                       18012KT P6SM VCSH SCT025 BKN050=
201504102335 TAF KBLI 102335Z 1100/1124 16015G25KT P6SM -RA OVC035 FM110500
                       18012G20KT P6SM -SHRA BKN025 BKN050 FM110800
                       18012KT P6SM VCSH SCT025 BKN050=
201504101730 TAF KBLI 101730Z 1018/1118 16008KT P6SM SCT050 OVC100 FM102100
                       16015G25KT P6SM OVC050 FM110000 16015G25KT
                       P6SM -RA OVC035 FM110500 18015G25KT P6SM
                       -SHRA BKN025 BKN050 FM110800 18012KT P6SM
                       VCSH SCT025 BKN050=
201504101120 TAF KBLI 101120Z 1012/1112 00000KT P6SM SCT080 FM101500 16008KT
                       P6SM BKN050 OVC180 FM101900 16016G25KT P6SM
                       OVC050 FM110000 16015G25KT 5SM -RA BR OVC030
                       FM110400 18018G25KT P6SM -SHRA BKN025 BKN050
                       FM110700 17012KT P6SM VCSH SCT025 BKN050=
201504100525 TAF KBLI 100525Z 1006/1106 00000KT P6SM SCT200 FM101500 16008KT
                       P6SM BKN050 OVC180 FM101900 16016G25KT P6SM
                       OVC050 FM110000 16015G25KT 5SM -RA BR OVC030
                       FM110400 18018G25KT P6SM -SHRA BKN025 BKN050=
201504100135 TAF AMD KBLI 100135Z 1002/1024 VRB04KT P6SM VCTS SCT060CB FM100400
                       VRB03KT P6SM SCT060 SCT250 FM101700 16015G25KT
                       P6SM BKN060=
201504092320 TAF KBLI 092320Z 1000/1024 18005KT P6SM SCT250 FM100300 VRB03KT
                       P6SM SCT250 FM101700 16015G25KT P6SM BKN060=
201504091720 TAF KBLI 091720Z 0918/1018 22006KT P6SM SCT250 FM100300 VRB03KT
                       P6SM BKN250 FM101400 16007KT P6SM BKN250=
201504091126 TAF KBLI 091126Z 0912/1012 VRB03KT P6SM SKC FM092000 21006KT P6SM
                       FEW070 SCT250 FM100200 VRB03KT P6SM BKN250=
201504090521 TAF KBLI 090521Z 0906/1006 16003KT P6SM SKC=
201504082320 TAF KBLI 082320Z 0900/0924 17005KT P6SM SKC=
201504081728 TAF KBLI 081728Z 0818/0918 VRB03KT P6SM SKC FM082100 22006KT P6SM
                       SCT040 FM090200 19004KT P6SM SKC=
201504081533 TAF AMD KBLI 081533Z 0816/0912 00000KT P6SM SCT007
                      TEMPO 0816/0818 BKN007 FM081800 VRB03KT P6SM
                       SCT100 FM082200 20006KT P6SM SCT040 SCT250=
201504081120 TAF KBLI 081120Z 0812/0912 00000KT P6SM OVC100 FM081700 VRB03KT
                       P6SM SCT100 FM082200 20006KT P6SM SCT250=
201504080522 TAF KBLI 080522Z 0806/0906 00000KT P6SM BKN090 FM081500 VRB03KT
                       P6SM SKC FM081900 20006KT P6SM SCT250=
201504072320 TAF KBLI 072320Z 0800/0824 VRB05KT P6SM SCT100 BKN200 FM080400
                       00000KT P6SM BKN200 FM081500 VRB03KT P6SM
                       SKC FM081900 20006KT P6SM SCT250=
201504071727 TAF KBLI 071727Z 0718/0818 36007KT P6SM BKN200 FM072100 30007KT
                       P6SM SCT080 BKN200 FM080400 VRB03KT P6SM
                       BKN200 FM081400 VRB03KT P6SM SCT250=
201504071130 TAF KBLI 071130Z 0712/0812 VRB03KT P6SM BKN250 FM071800 01007KT
                       P6SM BKN250 FM072100 25006KT P6SM FEW080
                       BKN250 FM080200 VRB03KT P6SM SCT250=
201504070546 TAF KBLI 070546Z 0706/0806 VRB03KT P6SM BKN250 FM071800 01005KT
                       P6SM BKN250 FM072100 25006KT P6SM FEW080
                       BKN250 FM080200 VRB03KT P6SM SCT250=
201504070314 TAF AMD KBLI 070314Z 0703/0724 VRB03KT P6SM BKN250 FM072000 23005KT
                       P6SM BKN090 BKN150=
201504062326 TAF KBLI 062326Z 0700/0724 18010KT P6SM FEW040 BKN250 FM070300
                       VRB03KT P6SM SCT120 BKN250 FM072000 23005KT
                       P6SM BKN090 BKN150=
201504061722 TAF KBLI 061722Z 0618/0718 16008KT P6SM FEW025 BKN120 FM070200
                       VRB03KT P6SM SCT120 BKN200=
201504061143 TAF KBLI 061143Z 0612/0712 17009KT P6SM FEW035 BKN120 OVC200 FM061800
                       19009KT P6SM SCT070 BKN120 OVC200 FM070200
                       VRB03KT P6SM SCT120 BKN200=
201504060528 TAF KBLI 060528Z 0606/0706 VRB03KT P6SM OVC200 FM061200 17005KT
                       P6SM SCT120 OVC200 FM061800 19009KT P6SM
                       VCSH SCT070 BKN120 OVC200
                      PROB30 0618/0624 -SHRA OVC070 FM070100 VRB04KT
                       P6SM SCT120 BKN200=
201504060323 TAF AMD KBLI 060323Z 0603/0624 VRB03KT P6SM OVC200 FM060600 VRB03KT
                       P6SM SCT100 OVC200 FM061600 18007KT P6SM
                       SCT050 BKN100=
201504052320 TAF KBLI 052320Z 0600/0624 VRB05KT P6SM SCT060 SCT150 FM060300
                       VRB04KT P6SM BKN150 FM061600 18007KT P6SM
                       SCT050 BKN100=
201504051720 TAF KBLI 051720Z 0518/0618 06006KT P6SM SKC FM060300 VRB04KT P6SM
                       VCSH SCT100 FM061300 18006KT P6SM SCT050
                       BKN100=
201504051129 TAF KBLI 051129Z 0512/0612 VRB03KT P6SM MIFG SCT200 FM051500 02006KT
                       P6SM BKN200 FM052100 31006KT P6SM SCT100
                       BKN200 FM060200 VRB03KT P6SM SCT100 BKN200=
201504050541 TAF KBLI 050541Z 0506/0606 00000KT P6SM SKC FM050900 VRB03KT P6SM
                       MIFG SKC FM051500 01005KT P6SM SCT200 FM052100
                       31005KT P6SM SCT050 SCT100 BKN200 FM060200
                       VRB03KT P6SM SCT100 BKN200=
201504050229 TAF AMD KBLI 050229Z 0502/0524 VRB05KT P6SM VCSH SCT050
                      TEMPO 0502/0504 BKN050 FM050600 00000KT P6SM
                       SKC FM051200 VRB03KT P6SM SCT010 FM051700
                       36006KT P6SM SCT040=
201504042320 TAF KBLI 042320Z 0500/0524 18006KT P6SM SCT040 SCT150 FM050600
                       00000KT P6SM SKC FM051200 VRB03KT P6SM SCT010
                       FM051700 36006KT P6SM SCT040=
201504041720 TAF KBLI 041720Z 0418/0518 16008KT P6SM SCT040 FM042100 21008KT
                       P6SM VCSH BKN040 FM050200 VRB03KT P6SM SCT050
                       FM050900 VRB03KT P6SM SCT010
                      TEMPO 0513/0516 BKN010 FM051700 33006KT P6SM
                       SCT040=
201504041541 TAF AMD KBLI 041541Z 0416/0512 17005KT P6SM SCT040 FM042000 23007KT
                       P6SM VCSH BKN040 FM050300 VRB03KT P6SM SCT050
                       FM050900 VRB03KT P6SM SCT015=
201504041135 TAF KBLI 041135Z 0412/0512 15005KT P6SM VCSH BKN035 BKN070 FM041400
                       17008KT P6SM VCSH BKN025 BKN050 FM041800
                       18013KT P6SM VCSH SCT035 BKN050
                      PROB30 0421/0503 -SHRA OVC035 FM050300 15005KT
                       P6SM SCT050 SCT100 FM050900 15005KT P6SM
                       BKN030=
201504040549 TAF KBLI 040549Z 0406/0506 15005KT P6SM VCSH SCT035 BKN100
                      TEMPO 0406/0410 -SHRA BKN035 BKN100 FM041000
                       15005KT P6SM BKN035 BKN070 FM041800 17013KT
                       P6SM SCT035 BKN050 FM042000 19009KT P6SM
                       BKN050
                      PROB30 0420/0502 -SHRA FM050200 17005KT P6SM
                       SCT050 SCT100=
201504040314 TAF AMD KBLI 040314Z 0403/0424 17006KT P6SM SCT040 SCT100
                      TEMPO 0403/0406 BKN040 BKN100 FM040600 17006KT
                       P6SM VCSH SCT030 BKN050 FM040800 18008KT
                       P6SM BKN030 OVC050 FM041700 VRB04KT P6SM
                       SCT030 BKN050=
201504040119 TAF AMD KBLI 040119Z 0401/0424 15005KT P6SM -SHRA SCT020 BKN045
                       OVC060 FM040400 22012KT P6SM VCSH SCT030
                       BKN050 FM040800 18008KT P6SM BKN030 OVC050
                       FM041700 VRB04KT P6SM SCT030 BKN050=
201504032320 TAF KBLI 032320Z 0400/0424 21012G22KT P6SM -SHRA BKN030 BKN080
                       FM040400 22012KT P6SM VCSH SCT030 BKN050
                       FM040800 18008KT P6SM BKN030 OVC050 FM041700
                       VRB04KT P6SM SCT030 BKN050=
201504031720 TAF KBLI 031720Z 0318/0418 16012KT P6SM -RA BKN040 OVC080 FM032300
                       21012G22KT P6SM -SHRA BKN030 BKN080 FM040400
                       22012KT P6SM VCSH SCT030 BKN050 FM040800
                       18008KT P6SM BKN030 OVC050 FM041700 VRB04KT
                       P6SM SCT030 BKN050=
201504031129 TAF KBLI 031129Z 0312/0412 13007KT P6SM SCT050 OVC100 FM031800
                       16015G25KT P6SM -RA SCT028 OVC050
                      TEMPO 0320/0324 5SM -RA BR OVC028 FM040200
                       17008KT P6SM -SHRA BKN035 OVC050=
201504030538 TAF KBLI 030538Z 0306/0406 VRB03KT P6SM BKN080 OVC200 FM031200
                       14007KT P6SM SCT050 BKN080 OVC200 FM031800
                       16015G25KT P6SM -RA SCT028 OVC050
                      TEMPO 0320/0324 5SM -RA BR OVC028 FM040000
                       18010KT P6SM -SHRA SCT035 OVC050=
201504022320 TAF KBLI 022320Z 0300/0324 18008KT P6SM SCT050 SCT200 FM030600
                       18008KT P6SM SCT050 BKN120 BKN200 FM031100
                       16012KT P6SM BKN050 OVC100 FM031400 16015G25KT
                       P6SM -RA SCT020 OVC040 FM031600 18012KT
                       P6SM -RA SCT025 OVC040
                      TEMPO 0318/0322 5SM -RA BR OVC025 FM032200
                       21012KT P6SM -SHRA BKN020 BKN040=
201504021800 TAF AMD KBLI 021800Z 0218/0318 16012KT P6SM SCT020 BKN050 FM022100
                       20010KT P6SM SCT050 SCT200 FM030600 18008KT
                       P6SM SCT050 BKN120 BKN200 FM031000 16012KT
                       P6SM BKN050 OVC100 FM031400 16015G25KT P6SM
                       -RA SCT020 OVC040=
201504021722 TAF KBLI 021722Z 0218/0318 16006KT P6SM SCT020 BKN050 FM022100
                       23006KT P6SM SCT050 SCT200 FM030600 18006KT
                       P6SM SCT050 BKN120 BKN200 FM031000 16012KT
                       P6SM BKN050 OVC100 FM031400 16015G25KT P6SM
                       -RA SCT020 OVC040=
201504021142 TAF KBLI 021142Z 0212/0312 17005KT P6SM SCT040 BKN070 BKN200 FM021500
                       17009KT P6SM BKN030 BKN070 BKN200 FM021800
                       17012KT P6SM SCT050 SCT110 BKN200
                      PROB30 0221/0302 -SHRA OVC050 FM030200 17006KT
                       P6SM SCT050 BKN110 OVC200 FM030900 14007KT
                       P6SM -RA FEW030 BKN050 OVC110=
201504020541 TAF KBLI 020541Z 0206/0306 VRB03KT P6SM FEW035 FM021200 17005KT
                       P6SM SCT030 SCT200
                      TEMPO 0214/0218 BKN030 BKN200 FM021800 17012KT
                       P6SM SCT050 SCT110 BKN200
                      PROB30 0221/0302 -SHRA OVC050 FM030200 17006KT
                       P6SM SCT050 BKN110 OVC200=
201504020207 TAF AMD KBLI 020207Z 0202/0224 VRB04KT P6SM FEW035 FM021000 18005KT
                       P6SM BKN020 FM021800 21006KT P6SM SCT040=
201504012320 TAF KBLI 012320Z 0200/0224 20008KT P6SM SCT040 FM021000 18005KT
                       P6SM BKN020 FM021800 21006KT P6SM SCT040=
201504011720 TAF KBLI 011720Z 0118/0218 17010KT P6SM BKN035 FM012200 VRB04KT
                       P6SM VCSH SCT025 BKN050 FM021000 18005KT
                       P6SM BKN020=
201504011211 TAF AMD KBLI 011211Z 0112/0212 00000KT P6SM FEW035 SCT045 OVC060
                       TEMPO 0112/0115 -SHRA BKN028 OVC040 FM011500
                       17012KT P6SM -SHRA OVC025 FM012100 17012KT
                       P6SM -SHRA SCT025 BKN040 BKN080 FM020300
                       17006KT P6SM VCSH SCT040 BKN080=
201504011125 TAF KBLI 011125Z 0112/0212 29004KT P6SM -SHRA BKN028 OVC035 FM011500
                       17012KT P6SM -SHRA OVC025 FM012100 17012KT
                       P6SM -SHRA SCT025 BKN040 BKN080 FM020300
                       17006KT P6SM VCSH SCT040 BKN080=
201504010530 TAF KBLI 010530Z 0106/0206 17004KT P6SM VCSH SCT040 BKN080 FM011500
                       17012KT P6SM -SHRA OVC025 FM012100 17012KT
                       P6SM -SHRA SCT025 BKN040 BKN080=