##########################################################
# Query made at 02/16/2025 21:03:59 UTC
# Time interval: from 08/01/2015 00:00  to 08/31/2015 23:59  UTC
##########################################################

##########################################################
# KBLI, Bellingham, Bellingham International Airport (United States)
# WMO index: -----. WIGOS ID: Unknown
# Latitude 48-47-58N. Longitude 122-32-21W. Altitude 48 m.
##########################################################

###################################
#  METAR/SPECI from KBLI
###################################
201508312353 METAR KBLI 312353Z 16009G17KT 6SM -RA BR BKN016 OVC020 16/14 A2987 RMK AO2 SLP121 P0010 60031 T01560144 10167 20156 57003 $=
201508312253 METAR KBLI 312253Z 17012G19KT 6SM -RA BR BKN016 OVC020 16/14 A2987 RMK AO2 SLP121 P0009 T01560144 $=
201508312153 METAR KBLI 312153Z 16013G22KT 9SM -RA BKN016 OVC020 16/14 A2988 RMK AO2 SLP125 P0005 T01610139 $=
201508312053 METAR KBLI 312053Z 16014G24KT 10SM -RA BKN016 OVC020 16/14 A2988 RMK AO2 SLP125 P0004 60007 T01610139 50000 $=
201508311953 METAR KBLI 311953Z 16012G19KT 10SM -RA BKN016 OVC020 16/14 A2990 RMK AO2 PK WND 15027/1903 SLP131 P0002 T01610139 $=
201508311853 METAR KBLI 311853Z 16015G25KT 10SM -RA BKN016 OVC020 16/13 A2989 RMK AO2 PK WND 14026/1800 SLP128 P0001 T01610128 $=
201508311815 METAR KBLI 311815Z AUTO 150/15G24 10SM 6500 BKN016 OVC020 16/13 A2989=
201508311800 SPECI KBLI 311800Z 15017G26KT 10SM -RA 16/13 RMK AO2 PK WND 14026/1800 P0000 $=
201508311753 METAR KBLI 311753Z 15015G23KT 10SM -RA BKN016 OVC020 16/13 A2988 RMK AO2 SLP125 P0001 60005 T01610128 10161 20150 56003 $=
201508311708 SPECI KBLI 311708Z 15015G22KT 10SM -RA BKN028 OVC035 16/13 A2988 RMK AO2 P0001 $=
201508311700 SPECI KBLI 311700Z 15015G25KT 10SM -RA 16/13 RMK AO2 P0000 $=
201508311653 METAR KBLI 311653Z 15014G22KT 10SM -RA BKN028 OVC035 16/13 A2988 RMK AO2 PK WND 14026/1621 SLP125 P0000 T01560128 $=
201508311640 SPECI KBLI 311640Z 15016G23KT 10SM -RA BKN028 OVC035 16/13 A2988 RMK AO2 PK WND 14026/1621 P0000 $=
201508311600 SPECI KBLI 311600Z 15014G20KT 10SM -RA 16/13 RMK AO2 P0000 $=
201508311553 METAR KBLI 311553Z 15013G20KT 10SM -RA OVC028 16/13 A2988 RMK AO2 SLP125 P0002 T01560128 $=
201508311539 SPECI KBLI 311539Z 16013G19KT 10SM -RA OVC028 15/13 A2988 RMK AO2 P0002 $=
201508311500 SPECI KBLI 311500Z 15014G21KT 10SM -RA 16/12 RMK AO2 P0001 $=
201508311453 METAR KBLI 311453Z 15012G21KT 10SM -RA OVC028 16/12 A2989 RMK AO2 PK WND 14026/1424 SLP128 P0000 60002 T01560122 $=
201508311418 SPECI KBLI 311418Z 15014G22KT 10SM -RA OVC028 16/12 A2987 RMK AO2 P0000 $=
201508311353 METAR KBLI 311353Z AUTO 15017G29KT 10SM -RA 16/12 RMK AO2 PK WND 14029/1347 SLPNO P0001 T01560117 $=
201508311253 METAR KBLI 311253Z AUTO 16016G25KT 8SM -RA 16/12 RMK AO2 SLPNO P0001 T01560122 $=
201508311153 METAR KBLI 311153Z AUTO 15015G24KT 10SM -RA 16/12 RMK AO2 PK WND 15030/1100 RAB1055 SLPNO P0002 60003 70011 T01560122 10172 20156 $=
201508311053 METAR KBLI 311053Z AUTO 16019G28KT 10SM FEW047 OVC060 17/11 RMK AO2 PK WND 14035/1027 SLPNO T01720106 $=
201508310953 METAR KBLI 310953Z AUTO 15019G32KT 10SM 17/11 RMK AO2 PK WND 15035/0854 RAB03E20 SLPNO P0000 T01720111 $=
201508310853 METAR KBLI 310853Z AUTO 15020G32KT 10SM OVC070 17/11 RMK AO2 PK WND 15032/0853 RAB20E38 SLPNO P0000 60001 T01720111 $=
201508310753 METAR KBLI 310753Z AUTO 15018G27KT 10SM 17/11 RMK AO2 PK WND 15030/0732 RAE16 SLPNO P0001 T01720111 402060139 $=
201508310653 METAR KBLI 310653Z AUTO 16012G21KT 10SM -RA 17/12 RMK AO2 RAE31B48 SLPNO P0000 T01670117 $=
201508310553 METAR KBLI 310553Z AUTO 15015G19KT 10SM -RA 17/12 RMK AO2 RAB0454E20B37 SLPNO P0000 60005 T01670122 10200 20161 $=
201508310453 METAR KBLI 310453Z 15006KT 10SM SCT036 BKN042 OVC080 17/13 A2991 RMK AO2 RAE49 SLP135 P0005 T01670128 $=
201508310353 METAR KBLI 310353Z 17004KT 10SM -RA FEW042 SCT070 OVC080 17/13 A2992 RMK AO2 RAB11 SLP138 P0000 T01670133 $=
201508310253 METAR KBLI 310253Z 17005KT 10SM BKN065 OVC095 18/13 A2991 RMK AO2 SLP135 T01780128 $=
201508310153 METAR KBLI 310153Z 17009KT 10SM FEW035 OVC060 18/13 A2991 RMK AO2 SLP135 T01830128 $=
201508310053 METAR KBLI 310053Z 17007G14KT 10SM SCT065 OVC080 19/13 A2990 RMK AO2 SLP131 T01890128 $=
201508302353 METAR KBLI 302353Z 17008G18KT 10SM OVC090 20/12 RMK AO2 SLPNO T02000122 10206 20167 $=
201508302253 METAR KBLI 302253Z 17012G17KT 10SM SCT080 21/12 RMK AO2 SLPNO T02060122 $=
201508302153 METAR KBLI 302153Z 17011G19KT 10SM BKN080 20/12 RMK AO2 SLPNO T02000117 $=
201508302053 METAR KBLI 302053Z 16012G17KT 10SM BKN070 18/12 A2990 RMK AO2 SLP131 T01830122 $=
201508301953 METAR KBLI 301953Z 18010G17KT 140V210 10SM CLR 18/13 RMK AO2 SLPNO T01830128 $=
201508301853 METAR KBLI 301853Z 16013G20KT 10SM BKN075 17/12 RMK AO2 SLPNO T01720122 $=
201508301753 METAR KBLI 301753Z 17011G20KT 10SM FEW015 17/12 A2987 RMK AO2 SLP121 60003 T01670122 10167 20139 53027 $=
201508301653 METAR KBLI 301653Z 17010G18KT 10SM FEW013 OVC080 16/12 A2983 RMK AO2 SLP108 T01560122 $=
201508301608 SPECI KBLI 301608Z 15010G17KT 10SM SCT015 BKN070 15/12 A2983 RMK AO2 $=
201508301553 METAR KBLI 301553Z 15010KT 10SM BKN015 OVC065 15/13 A2981 RMK AO2 RAE02 SLP101 P0000 T01500128 $=
201508301546 SPECI KBLI 301546Z 16010KT 10SM BKN015 OVC065 15/12 A2981 RMK AO2 RAE02 P0000 $=
201508301500 SPECI KBLI 301500Z 17007KT 10SM -RA OVC060 14/12 RMK AO2 P0000 $=
201508301453 METAR KBLI 301453Z 17007KT 10SM -RA SCT002 BKN026 14/13 A2979 RMK AO2 RAB52 SLP094 P0000 60003 T01440128 $=
201508301401 SPECI KBLI 301401Z 16008KT 10SM SCT002 BKN026 14/12 A2979 RMK AO2 $=
201508301400 SPECI KBLI 301400Z 16008KT 10SM SCT002 BKN026 14/12 A2979 RMK AO2 $=
201508301353 METAR KBLI 301353Z 16008G15KT 10SM SCT003 BKN026 14/13 A2997 RMK AO2 SLP155 T01440128 $=
201508301253 METAR KBLI 301253Z AUTO 17006KT 10SM 14/13 RMK AO2 RAE34 SLPNO P0003 T01390128 $=
201508301153 METAR KBLI 301153Z AUTO 16008G16KT 10SM -RA 14/13 RMK AO2 SLPNO P0010 60017 7//// T01390128 10167 20139 $=
201508301053 METAR KBLI 301053Z AUTO 17011G17KT 7SM -RA 14/13 RMK AO2 SLPNO P0007 T01440133 $=
201508301004 SPECI KBLI 301004Z AUTO 16009G16KT 10SM -RA FEW019 BKN030 OVC080 15/13 RMK AO2 P0001 $=
201508300953 METAR KBLI 300953Z AUTO 16009KT 10SM -RA FEW013 OVC028 15/13 RMK AO2 RAB45 SLPNO P0000 T01500128 $=
201508300853 METAR KBLI 300853Z AUTO 17008KT 10SM OVC019 16/13 RMK AO2 RAE24 SLPNO P0000 60000 T01560128 $=
201508300753 METAR KBLI 300753Z AUTO 17007G16KT 10SM -RA OVC021 15/13 RMK AO2 RAB32 SLPNO P0000 T01500128 402330150 $=
201508300713 SPECI KBLI 300713Z AUTO 17009KT 10SM BKN025 OVC080 17/12 RMK AO2 $=
201508300653 METAR KBLI 300653Z AUTO 17009KT 10SM SCT023 BKN080 OVC100 16/12 RMK AO2 SLPNO T01610122 $=
201508300607 SPECI KBLI 300607Z AUTO 17008G17KT 10SM FEW017 BKN047 OVC120 16/13 RMK AO2 $=
201508300553 METAR KBLI 300553Z AUTO 17009G17KT 10SM BKN017 BKN023 OVC045 16/13 A2972 RMK AO2 SLP069 60001 T01610133 10200 20161 51014 $=
201508300453 METAR KBLI 300453Z 16009G17KT 10SM OVC019 17/14 A2972 RMK AO2 RAE40 SLP070 P0000 T01670139 $=
201508300353 METAR KBLI 300353Z 18007G14KT 10SM -RA BKN026 OVC035 17/13 A2971 RMK AO2 RAB53 SLP067 P0000 T01720133 $=
201508300300 SPECI KBLI 300300Z 19008G19KT 170V230 10SM BKN026 OVC035 17/13 A2968 RMK AO2 $=
201508300253 METAR KBLI 300253Z 17014G24KT 10SM FEW022 BKN033 18/13 A2968 RMK AO2 PK WND 17031/0206 RAE46 SLP057 P0001 60001 T01780133 53007 $=
201508300153 METAR KBLI 300153Z 16017G34KT 10SM -RA BKN085 19/13 A2966 RMK AO2 PK WND 17034/0148 RAB47 SLP050 P0000 T01940128 $=
201508300053 METAR KBLI 300053Z 17017G32KT 10SM FEW039 BKN100 BKN120 20/12 A2966 RMK AO2 PK WND 17032/0046 SLP049 T02000122 $=
201508292353 METAR KBLI 292353Z 16019G29KT 10SM BKN035 BKN100 20/13 A2966 RMK AO2 PK WND 15030/2302 LTG DSNT N RAB09E19 SLP049 P0000 6//// T02000128 10233 20189 51033 $=
201508292253 METAR KBLI 292253Z 16030G42KT 10SM SCT039 BKN050 OVC100 21/12 A2964 RMK AO2 PK WND 16033/2225 SLP042 T02100120 $=
201508292153 METAR KBLI 292153Z 16020G32KT 10SM SCT039 BKN050 BKN100 21/12 A2964 RMK AO2 PRESRR SLP042 T02060120 $=
201508292053 METAR KBLI 292053Z 21/12 A2956 RMK AO2 SLP016 6//// T02060122 53035 $=
201508291953 METAR KBLI 291953Z 16032G43KT 10SM CLR 23/12 A2949 RMK AO2 PK WND 16050/1923 SLP992 P0002 T02280117=
201508291853 METAR KBLI 291853Z 15025G46KT 10SM BKN055 23/12 A2946 RMK AO2 PK WND 15047/1839 SLP979 T02330117=
201508291753 METAR KBLI 291753Z 15024G40KT 10SM SCT080 BKN095 22/12 A2946 RMK AO2 PK WND 17044/1739 SLP981 60028 T02220122 10222 20167 56022=
201508291653 METAR KBLI 291653Z 14025G35KT 10SM CLR 19/14 A2947 RMK AO2 PK WND 14041/1640 SLP986 T01940144=
201508291553 METAR KBLI 291553Z 14017G28KT 10SM SCT030 OVC085 18/14 A2949 RMK AO2 PK WND 15028/1548 RAE43 SLP991 P0002 T01830139 $=
201508291453 METAR KBLI 291453Z 15013G21KT 7SM -RA FEW017 SCT055 OVC085 17/15 A2953 RMK AO2 SLP004 P0016 60026 T01670150 53010=
201508291414 SPECI KBLI 291414Z VRB04KT 5SM RA BR BKN010 BKN020 OVC050 17/16 A2954 RMK AO2 P0007=
201508291353 METAR KBLI 291353Z 00000KT 5SM RA BR FEW048 BKN060 OVC085 17/16 A2952 RMK AO2 PRESRR SLP001 P0010 T01670161=
201508291253 METAR KBLI 291253Z AUTO 01007KT 10SM -RA OVC090 18/14 A2946 RMK AO2 RAE1158B46 SLP982 P0000 T01780144=
201508291153 METAR KBLI 291153Z AUTO 02008KT 10SM -RA SCT080 OVC100 18/15 A2950 RMK AO2 RAB17 SLP993 P0000 60006 70022 T01780150 10178 20167 58039=
201508291053 METAR KBLI 291053Z AUTO 03007KT 10SM BKN110 17/15 A2954 RMK AO2 RAE15 SLP008 P0001 T01720150=
201508290953 METAR KBLI 290953Z AUTO 02007KT 10SM -RA OVC110 17/15 A2959 RMK AO2 SLP025 P0000 T01720150=
201508290853 METAR KBLI 290853Z AUTO 01007KT 10SM -RA BKN110 17/16 A2961 RMK AO2 PRESFR SLP033 P0001 60005 T01720156 58049=
201508290753 METAR KBLI 290753Z AUTO 03006KT 10SM -RA BKN100 OVC110 17/16 A2968 RMK AO2 SLP056 P0003 T01670156 402170156=
201508290653 METAR KBLI 290653Z AUTO 01005KT 10SM -RA FEW080 OVC100 17/16 A2970 RMK AO2 SLP064 P0001 T01670156=
201508290553 METAR KBLI 290553Z AUTO 00000KT 10SM -RA BKN110 17/16 A2976 RMK AO2 SLP082 P0001 60003 T01720156 10217 20167 58020=
201508290453 METAR KBLI 290453Z 00000KT 10SM -RA OVC100 17/16 A2979 RMK AO2 RAB03 SLP093 P0002 T01720161=
201508290353 METAR KBLI 290353Z 00000KT 10SM OVC100 18/15 A2981 RMK AO2 SLP101 T01830150=
201508290253 METAR KBLI 290253Z 00000KT 10SM OVC050 20/14 A2982 RMK AO2 SLP102 T02000139 56020=
201508290153 METAR KBLI 290153Z 02003KT 10SM OVC050 21/14 A2983 RMK AO2 SLP107 T02110139=
201508290053 METAR KBLI 290053Z 00000KT 10SM OVC070 21/14 A2985 RMK AO2 SLP114 T02110144=
201508282353 METAR KBLI 282353Z 17004KT 10SM FEW070 21/15 A2988 RMK AO2 SLP123 T02060150 10211 20189 58019=
201508282253 METAR KBLI 282253Z 16003KT 10SM BKN050 21/14 A2991 RMK AO2 SLP131 T02110139=
201508282153 METAR KBLI 282153Z 17005KT 10SM BKN045 OVC070 20/15 A2993 RMK AO2 SLP139 T02000150=
201508282053 METAR KBLI 282053Z 17008KT 10SM OVC047 19/15 A2993 RMK AO2 SLP142 T01940150 58004=
201508281953 METAR KBLI 281953Z VRB06KT 10SM BKN041 OVC049 19/14 A2994 RMK AO2 SLP144 T01940144=
201508281853 METAR KBLI 281853Z 19006KT 10SM OVC033 19/14 A2995 RMK AO2 SLP146 T01940144=
201508281831 SPECI KBLI 281831Z 19006KT 10SM BKN031 OVC055 19/15 A2994 RMK AO2=
201508281753 METAR KBLI 281753Z 18007KT 10SM OVC025 19/15 A2995 RMK AO2 SLP145 60013 T01890150 10194 20156 55000=
201508281653 METAR KBLI 281653Z 16006KT 10SM OVC027 19/14 A2994 RMK AO2 SLP143 T01890144=
201508281553 METAR KBLI 281553Z 18005KT 10SM BKN026 BKN033 16/14 A2994 RMK AO2 SLP143 T01610144=
201508281453 METAR KBLI 281453Z VRB06KT 10SM OVC035 16/14 A2995 RMK AO2 RAE46 SLP146 P0001 60013 T01610139 51002=
201508281353 METAR KBLI 281353Z AUTO 16004KT 10SM -RA OVC055 16/15 A2994 RMK AO2 SLP145 P0006 T01610150=
201508281253 METAR KBLI 281253Z AUTO 17006KT 8SM -RA SCT043 SCT060 OVC080 16/14 A2995 RMK AO2 SLP148 P0006 T01560144 $=
201508281153 METAR KBLI 281153Z AUTO 00000KT 10SM -RA BKN041 BKN070 OVC085 16/16 A2994 RMK AO2 SLP143 P0002 60007 70007 T01610156 10194 20156 56007 $=
201508281053 METAR KBLI 281053Z AUTO 00000KT 10SM -RA FEW070 BKN090 OVC110 16/16 A2995 RMK AO2 SLP146 P0002 T01610156 $=
201508280953 METAR KBLI 280953Z AUTO 00000KT 10SM -RA FEW060 SCT095 BKN110 16/16 A2994 RMK AO2 RAB0855E04B22 SLP143 P0000 T01610156 $=
201508280853 METAR KBLI 280853Z AUTO 00000KT 10SM OVC110 16/14 A2996 RMK AO2 RAE49 SLP150 P0003 60003 T01610144 51006 $=
201508280753 METAR KBLI 280753Z AUTO 19005KT 10SM -RA OVC100 18/14 A2996 RMK AO2 RAB04 SLP150 P0000 T01780139 402670111 $=
201508280653 METAR KBLI 280653Z AUTO VRB04KT 10SM BKN100 OVC110 19/13 A2996 RMK AO2 SLP149 T01890128 $=
201508280553 METAR KBLI 280553Z AUTO 00000KT 10SM SCT120 19/12 A2994 RMK AO2 SLP144 T01890117 10261 20172 55000 $=
201508280453 METAR KBLI 280453Z 00000KT 10SM CLR 18/11 A2994 RMK AO2 SLP144 T01780111 $=
201508280353 METAR KBLI 280353Z 00000KT 10SM CLR 18/11 A2994 RMK AO2 SLP143 T01830106 $=
201508280253 METAR KBLI 280253Z 00000KT 10SM CLR 21/11 A2994 RMK AO2 SLP144 T02060106 56015 $=
201508280153 METAR KBLI 280153Z 00000KT 10SM CLR 24/08 A2995 RMK AO2 SLP148 T02390083 $=
201508280053 METAR KBLI 280053Z VRB03KT 10SM CLR 26/09 A2997 RMK AO2 SLP153 T02610089 $=
201508272353 METAR KBLI 272353Z VRB03KT 10SM CLR 26/09 A2999 RMK AO2 SLP159 T02560094 10267 20211 56022 $=
201508272253 METAR KBLI 272253Z 16004KT 10SM CLR 26/08 A3000 RMK AO2 SLP165 T02610083 $=
201508272153 METAR KBLI 272153Z 20006KT 10SM CLR 25/07 A3003 RMK AO2 SLP173 T02500067 $=
201508272053 METAR KBLI 272053Z 17007KT 10SM CLR 24/10 A3005 RMK AO2 SLP181 T02390100 58006 $=
201508271953 METAR KBLI 271953Z VRB05KT 10SM CLR 22/11 A3006 RMK AO2 SLP185 T02220111 $=
201508271853 METAR KBLI 271853Z 18007KT 10SM CLR 22/11 A3006 RMK AO2 SLP185 T02170111 $=
201508271753 METAR KBLI 271753Z 16007G15KT 10SM CLR 22/11 A3007 RMK AO2 SLP187 T02170106 10217 20111 50001 $=
201508271653 METAR KBLI 271653Z VRB05KT 10SM CLR 21/12 A3007 RMK AO2 SLP189 T02060117 $=
201508271553 METAR KBLI 271553Z 17008KT 10SM CLR 20/11 A3007 RMK AO2 SLP187 T02000111 $=
201508271453 METAR KBLI 271453Z 13004KT 10SM CLR 19/11 A3006 RMK AO2 SLP185 T01890111 51012 $=
201508271353 METAR KBLI 271353Z AUTO 00000KT 10SM CLR 13/11 A3006 RMK AO2 SLP184 T01280111 TSNO $=
201508271253 METAR KBLI 271253Z AUTO 00000KT 10SM CLR 12/11 A3004 RMK AO2 SLP177 T01220106 TSNO $=
201508271153 METAR KBLI 271153Z AUTO 00000KT 10SM CLR 12/10 A3003 RMK AO2 SLP174 T01170100 10167 20117 53006 TSNO $=
201508271053 METAR KBLI 271053Z AUTO 19003KT 10SM CLR 16/12 A3002 RMK AO2 SLP169 T01560122 TSNO $=
201508270953 METAR KBLI 270953Z AUTO 00000KT 10SM CLR 16/12 A3001 RMK AO2 SLP168 T01560117 TSNO $=
201508270853 METAR KBLI 270853Z AUTO 19004KT 10SM CLR 16/12 A3001 RMK AO2 SLP167 T01610122 53004 TSNO $=
201508270753 METAR KBLI 270753Z AUTO 00000KT 10SM CLR 14/11 A3001 RMK AO2 SLP167 T01440111 402560094 TSNO $=
201508270653 METAR KBLI 270653Z AUTO 10SM CLR 16/12 A3000 RMK AO2 SLP164 T01610117 TSNO $=
201508270553 METAR KBLI 270553Z AUTO 18003KT 10SM CLR 16/11 A3000 RMK AO2 SLP164 T01560111 10250 20150 51011 TSNO=
201508270453 METAR KBLI 270453Z 00000KT 10SM CLR 16/11 A2999 RMK AO2 SLP162 T01560106=
201508270353 METAR KBLI 270353Z 00000KT 10SM CLR 17/10 A2998 RMK AO2 SLP159 T01670100=
201508270253 METAR KBLI 270253Z 00000KT 10SM CLR 19/11 A2997 RMK AO2 SLP153 T01890106 55001=
201508270153 METAR KBLI 270153Z 00000KT 10SM CLR 22/11 A2996 RMK AO2 SLP150 T02220106=
201508270053 METAR KBLI 270053Z 00000KT 10SM CLR 23/09 A2996 RMK AO2 SLP152 T02330094=
201508262353 METAR KBLI 262353Z 00000KT 10SM CLR 25/09 A2997 RMK AO2 SLP154 T02500094 10256 20194 58010=
201508262326 METAR KBLI 262326Z AUTO VRB03KT 10SM 6500 FU CLR 25/09 A2997=
201508262253 METAR KBLI 262253Z VRB03KT 10SM CLR 24/09 A2998 RMK AO2 SLP157 T02440094=
201508262153 METAR KBLI 262153Z 00000KT 10SM CLR 24/09 A2999 RMK AO2 SLP162 T02390089=
201508262053 METAR KBLI 262053Z 00000KT 10SM CLR 23/11 A3000 RMK AO2 SLP164 T02280106 58009=
201508261953 METAR KBLI 261953Z VRB04KT 10SM CLR 22/10 A3001 RMK AO2 SLP169 T02170100=
201508261853 METAR KBLI 261853Z 22004KT 10SM CLR 21/09 A3002 RMK AO2 SLP172 T02060094=
201508261753 METAR KBLI 261753Z 17004KT 10SM CLR 19/10 A3003 RMK AO2 SLP173 T01940100 10200 20094 58002=
201508261653 METAR KBLI 261653Z 16003KT 10SM CLR 18/11 A3003 RMK AO2 SLP176 T01830111 $=
201508261553 METAR KBLI 261553Z 15004KT 10SM CLR 17/11 A3003 RMK AO2 SLP176 T01720106 $=
201508261453 METAR KBLI 261453Z 16003KT 10SM CLR 15/11 A3003 RMK AO2 SLP176 T01500111 53012 $=
201508261353 METAR KBLI 261353Z AUTO 00000KT 10SM CLR 10/08 A3002 RMK AO2 SLP171 T01000083 $=
201508261253 METAR KBLI 261253Z AUTO 00000KT 10SM CLR 10/08 A3000 RMK AO2 SLP166 T01000083 $=
201508261153 METAR KBLI 261153Z AUTO 00000KT 10SM CLR 09/08 A3000 RMK AO2 SLP164 T00940083 10144 20094 53005 $=
201508261053 METAR KBLI 261053Z AUTO 00000KT 10SM CLR 11/09 A2999 RMK AO2 SLP160 T01060089 $=
201508260953 METAR KBLI 260953Z AUTO 00000KT 10SM CLR 11/09 A2998 RMK AO2 SLP160 T01110094 $=
201508260853 METAR KBLI 260853Z AUTO 00000KT 10SM CLR 12/09 A2998 RMK AO2 SLP158 T01220094 58003 $=
201508260753 METAR KBLI 260753Z AUTO 00000KT 10SM CLR 12/09 A2999 RMK AO2 SLP160 T01170094 402390089 $=
201508260653 METAR KBLI 260653Z AUTO 00000KT 10SM CLR 13/10 A2999 RMK AO2 SLP160 T01330100 $=
201508260553 METAR KBLI 260553Z AUTO 00000KT 10SM CLR 14/10 A2999 RMK AO2 SLP161 T01390100 10228 20139 58001 $=
201508260453 METAR KBLI 260453Z 10SM CLR 14/09 A3000 RMK AO2 SLP164 T01440094 $=
201508260353 METAR KBLI 260353Z 00000KT 10SM CLR 16/10 A3000 RMK AO2 SLP165 T01610100=
201508260253 METAR KBLI 260253Z 00000KT 10SM CLR 18/10 A2999 RMK AO2 SLP162 T01780100 56009=
201508260153 METAR KBLI 260153Z 00000KT 10SM CLR 21/09 A2999 RMK AO2 SLP162 T02110089=
201508260053 METAR KBLI 260053Z VRB03KT 10SM CLR 22/09 A3000 RMK AO2 SLP166 T02170089=
201508252353 METAR KBLI 252353Z VRB06KT 10SM CLR 23/08 A3002 RMK AO2 SLP172 T02280083 10239 20178 56014=
201508252253 METAR KBLI 252253Z 24007KT 200V260 10SM CLR 23/08 A3003 RMK AO2 SLP176 T02330078=
201508252153 METAR KBLI 252153Z VRB04KT 10SM CLR 23/08 A3004 RMK AO2 SLP179 T02330083=
201508252053 METAR KBLI 252053Z VRB04KT 10SM CLR 22/10 A3006 RMK AO2 SLP185 T02220100 56013=
201508251953 METAR KBLI 251953Z VRB04KT 10SM CLR 21/10 A3008 RMK AO2 SLP191 T02060100=
201508251853 METAR KBLI 251853Z 00000KT 10SM CLR 21/09 A3009 RMK AO2 SLP194 T02060094=
201508251753 METAR KBLI 251753Z VRB04KT 10SM CLR 18/11 A3010 RMK AO2 SLP199 T01780111 10178 20089 58001=
201508251653 METAR KBLI 251653Z 25004KT 10SM FU CLR 17/11 A3010 RMK AO2 SLP199 T01670111=
201508251553 METAR KBLI 251553Z 00000KT 10SM FU CLR 16/10 A3011 RMK AO2 SLP201 T01610100=
201508251453 METAR KBLI 251453Z 00000KT 10SM FU CLR 11/08 A3011 RMK AO2 SLP200 T01060083 53011=
201508251353 METAR KBLI 251353Z 00000KT 10SM FU CLR 09/08 A3009 RMK AO2 SLP196 T00940078=
201508251253 METAR KBLI 251253Z AUTO 00000KT 10SM FU CLR 09/08 A3008 RMK AO2 SLP193 T00940078=
201508251153 METAR KBLI 251153Z AUTO 00000KT 10SM FU CLR 10/08 A3007 RMK AO2 SLP189 T01000083 10161 20094 53005=
201508251053 METAR KBLI 251053Z AUTO 00000KT 10SM FU CLR 11/09 A3007 RMK AO2 SLP187 T01060089=
201508250953 METAR KBLI 250953Z AUTO 00000KT 10SM FU CLR 13/09 A3006 RMK AO2 SLP186 T01330094=
201508250853 METAR KBLI 250853Z AUTO 17007KT 10SM FU CLR 15/10 A3006 RMK AO2 SLP184 T01500100 51008=
201508250753 METAR KBLI 250753Z AUTO 17006KT 10SM FU CLR 15/10 A3005 RMK AO2 SLP181 T01500100 402060139=
201508250653 METAR KBLI 250653Z AUTO 19004KT 10SM FU CLR 15/08 A3004 RMK AO2 SLP179 T01500078=
201508250553 METAR KBLI 250553Z AUTO 16005KT 10SM FU CLR 16/08 A3003 RMK AO2 SLP176 T01610078 10206 20156 51009=
201508250453 METAR KBLI 250453Z 17005KT 10SM FU CLR 17/09 A3003 RMK AO2 SLP174 T01720094=
201508250353 METAR KBLI 250353Z 16006KT 10SM FU CLR 18/09 A3002 RMK AO2 SLP171 T01780094=
201508250253 METAR KBLI 250253Z 17006KT 10SM FU CLR 19/08 A3001 RMK AO2 SLP167 T01890083 57001=
201508250153 METAR KBLI 250153Z 16008KT 10SM FU CLR 19/09 A3001 RMK AO2 SLP168 T01940089=
201508250053 METAR KBLI 250053Z 17009KT 10SM FU CLR 20/09 A3001 RMK AO2 SLP168 T02000089=
201508242353 METAR KBLI 242353Z 17009G16KT 10SM FU CLR 20/09 A3001 RMK AO2 SLP169 T02000094 10206 20172 58006=
201508242253 METAR KBLI 242253Z 16010G15KT 10SM FU CLR 20/10 A3002 RMK AO2 SLP172 T02000100=
201508242153 METAR KBLI 242153Z 18010G17KT 10SM FU CLR 20/10 A3003 RMK AO2 SLP176 T02000100=
201508242053 METAR KBLI 242053Z 17009KT 10SM FU CLR 19/10 A3003 RMK AO2 SLP174 T01940100 58005=
201508241953 METAR KBLI 241953Z 16009G16KT 10SM FU CLR 18/11 A3004 RMK AO2 SLP177 T01830106=
201508241853 METAR KBLI 241853Z 19009G18KT 10SM FU CLR 18/11 A3005 RMK AO2 SLP180 T01780111 $=
201508241753 METAR KBLI 241753Z 17008G15KT 10SM FU CLR 18/12 A3004 RMK AO2 SLP179 T01780117 10178 20139 51005 $=
201508241653 METAR KBLI 241653Z 17010G16KT 10SM FU CLR 17/12 A3004 RMK AO2 SLP179 T01670117 $=
201508241553 METAR KBLI 241553Z 17009G14KT 10SM FU CLR 15/12 A3004 RMK AO2 SLP177 T01500117 $=
201508241453 METAR KBLI 241453Z 17007KT 10SM FU CLR 14/12 A3003 RMK AO2 SLP174 T01440117 53011 $=
201508241353 METAR KBLI 241353Z 17008KT 10SM FU CLR 14/11 A3001 RMK AO2 SLP169 T01390111 $=
201508241253 METAR KBLI 241253Z AUTO 18006KT 10SM FU CLR 14/11 A3000 RMK AO2 SLP166 T01390111 $=
201508241153 METAR KBLI 241153Z AUTO 18007KT 10SM FU CLR 14/11 A3000 RMK AO2 SLP162 T01440111 10178 20144 53009 $=
201508241053 METAR KBLI 241053Z AUTO 18007KT 10SM FU CLR 14/11 A2999 RMK AO2 SLP160 T01440111 $=
201508241000 METAR KBLI NIL=
201508240953 METAR KBLI 240953Z AUTO 18008KT 10SM FU CLR 15/11 A2998 RMK AO2 SLP156 T01500111 $=
201508240853 METAR KBLI 240853Z AUTO 18008KT 10SM FU CLR 15/11 A2997 RMK AO2 SLP153 T01500111 51011 $=
201508240753 METAR KBLI 240753Z AUTO 18008KT 10SM FU CLR 17/10 A2996 RMK AO2 SLP150 T01670100 402610094 $=
201508240653 METAR KBLI 240653Z AUTO 18005KT 10SM FU CLR 17/09 A2995 RMK AO2 SLP147 T01720089 $=
201508240553 METAR KBLI 240553Z AUTO 17011G19KT 10SM FU CLR 18/08 A2994 RMK AO2 SLP143 T01780083 10244 20178 53012 $=
201508240453 METAR KBLI 240453Z 10SM FU CLR 19/12 A2992 RMK AO2 SLP137 T01940117 $=
201508240353 METAR KBLI 240353Z 19006KT 10SM FU CLR 19/13 A2991 RMK AO2 SLP135 T01890133=
201508240253 METAR KBLI 240253Z 17003KT 10SM FU CLR 21/11 A2990 RMK AO2 SLP132 T02110106 56004=
201508240200 METAR KBLI NIL=
201508240100 METAR KBLI NIL=
201508232353 METAR KBLI 232353Z 19004KT 10SM FU CLR 24/12 A2992 RMK AO2 SLP136 T02440122 10261 20206 56009=
201508232253 METAR KBLI 232253Z 17005KT 5SM HZ FU CLR 25/13 A2992 RMK AO2 SLP138 T02500128=
201508232153 METAR KBLI 232153Z 00000KT 5SM HZ FU CLR 26/12 A2993 RMK AO2 SLP141 T02560117=
201508232053 METAR KBLI 232053Z VRB03KT 8SM HZ FU CLR 25/12 A2994 RMK AO2 SLP144 T02500122 56010=
201508231953 METAR KBLI 231953Z 00000KT 5SM HZ FU CLR 24/12 A2995 RMK AO2 SLP148 T02390122=
201508231853 METAR KBLI 231853Z 19004KT 5SM HZ FU CLR 22/12 A2996 RMK AO2 SLP152 T02220122=
201508231753 METAR KBLI 231753Z 00000KT 9SM FU CLR 21/13 A2997 RMK AO2 SLP155 T02060128 10206 20094 58001=
201508231653 METAR KBLI 231653Z 00000KT 9SM FU CLR 19/12 A2997 RMK AO2 SLP155 T01890117=
201508231553 METAR KBLI 231553Z 00000KT 8SM FU CLR 17/11 A2998 RMK AO2 SLP157 T01670111=
201508231453 METAR KBLI 231453Z 00000KT 9SM FU CLR 13/11 A2998 RMK AO2 SLP156 T01280106 51007=
201508231353 METAR KBLI 231353Z 00000KT 9SM FU CLR 10/08 A2997 RMK AO2 SLP155 T01000083=
201508231253 METAR KBLI 231253Z AUTO 00000KT 10SM FU CLR 11/09 A2996 RMK AO2 SLP152 T01060094=
201508231153 METAR KBLI 231153Z AUTO 00000KT 10SM FU CLR 11/09 A2996 RMK AO2 SLP150 T01060094 10150 20106 58003=
201508231053 METAR KBLI 231053Z AUTO 00000KT 10SM FU CLR 11/09 A2996 RMK AO2 SLP152 T01110094=
201508231000 METAR KBLI NIL=
201508230953 METAR KBLI 230953Z AUTO 00000KT 10SM FU CLR 12/11 A2996 RMK AO2 SLP152 T01170106=
201508230853 METAR KBLI 230853Z AUTO 00000KT 10SM FU CLR 13/11 A2997 RMK AO2 SLP153 T01280111 58004=
201508230753 METAR KBLI 230753Z AUTO 00000KT 10SM FU CLR 13/11 A2997 RMK AO2 SLP156 T01280106 402560100=
201508230653 METAR KBLI 230653Z AUTO 00000KT 10SM FU CLR 14/10 A2998 RMK AO2 SLP157 T01440100=
201508230553 METAR KBLI 230553Z AUTO 00000KT 10SM FU CLR 14/11 A2998 RMK AO2 SLP157 T01440106 10250 20144 50000=
201508230453 METAR KBLI 230453Z 00000KT 10SM FU FEW065 16/11 A2998 RMK AO2 SLP157 T01610106=
201508230353 METAR KBLI 230353Z 00000KT 5SM HZ FU BKN060 17/11 A2998 RMK AO2 SLP158 T01720106=
201508230253 METAR KBLI 230253Z 00000KT 10SM FU SCT050 19/12 A2998 RMK AO2 SLP157 T01890117 56015=
201508230153 METAR KBLI 230153Z 00000KT 6SM HZ FU SCT025 23/09 A2999 RMK AO2 SLP161 T02330094=
201508230053 SPECI KBLI 230053Z 28004KT 6SM HZ FU OVC015 24/10 A3001 RMK AO2 SLP167 T02440100=
201508230053 METAR KBLI 230053Z 28004KT 6SM HZ FU OVC015 24/10 A3001 RMK AO2 SLP167 T02440100=
201508230000 SPECI KBLI 230000Z 00000KT 10SM CLR 24/11 A3002 RMK AO2=
201508222353 METAR KBLI 222353Z 31003KT 10SM OVC014 24/11 A3002 RMK AO2 SLP172 T02390111 10256 20206 58020=
201508222300 SPECI KBLI 222300Z VRB04KT 10SM CLR 25/11 A3004 RMK AO2=
201508222253 METAR KBLI 222253Z 30004KT 10SM BKN015 25/11 A3005 RMK AO2 SLP180 T02500111=
201508222229 SPECI KBLI 222229Z VRB04KT 10SM BKN015 25/11 A3006 RMK AO2=
201508222153 METAR KBLI 222153Z 31004KT 10SM CLR 24/11 A3007 RMK AO2 SLP188 T02440106=
201508222053 METAR KBLI 222053Z VRB05KT 10SM CLR 23/12 A3008 RMK AO2 SLP193 T02330117 58011=
201508221953 METAR KBLI 221953Z VRB04KT 10SM CLR 23/12 A3010 RMK AO2 SLP199 T02280117=
201508221853 METAR KBLI 221853Z 00000KT 10SM CLR 22/12 A3011 RMK AO2 SLP201 T02170122=
201508221753 METAR KBLI 221753Z 00000KT 10SM CLR 21/11 A3012 RMK AO2 SLP204 T02060106 10206 20100 58001=
201508221653 METAR KBLI 221653Z 13003KT 10SM CLR 18/12 A3012 RMK AO2 SLP206 T01780117=
201508221553 METAR KBLI 221553Z 15005KT 10SM CLR 17/12 A3013 RMK AO2 SLP207 T01670117=
201508221453 METAR KBLI 221453Z 00000KT 10SM CLR 14/10 A3012 RMK AO2 SLP205 T01390100 53006=
201508221353 METAR KBLI 221353Z 00000KT 10SM CLR 10/09 A3011 RMK AO2 SLP201 T01000089=
201508221253 METAR KBLI 221253Z AUTO 03003KT 10SM CLR 10/08 A3010 RMK AO2 SLP199 T01000083=
201508221153 METAR KBLI 221153Z AUTO 00000KT 10SM CLR 11/09 A3010 RMK AO2 SLP199 T01060094 10144 20106 51003=
201508221053 METAR KBLI 221053Z AUTO 01003KT 10SM CLR 11/09 A3010 RMK AO2 SLP199 T01060089=
201508220953 METAR KBLI 220953Z AUTO 00000KT 10SM CLR 12/09 A3010 RMK AO2 SLP199 T01170094=
201508220853 METAR KBLI 220853Z AUTO 35003KT 10SM CLR 13/09 A3009 RMK AO2 SLP195 T01330094 51006=
201508220753 METAR KBLI 220753Z AUTO 00000KT 10SM CLR 12/10 A3009 RMK AO2 SLP195 T01220100 402220117=
201508220653 METAR KBLI 220653Z AUTO 00000KT 10SM CLR 12/11 A3008 RMK AO2 SLP193 T01220106=
201508220553 METAR KBLI 220553Z AUTO 00000KT 10SM CLR 14/11 A3007 RMK AO2 SLP189 T01440111 10222 20133 51017=
201508220453 METAR KBLI 220453Z AUTO 00000KT 10SM CLR 16/11 A3006 RMK AO2 SLP186 T01560111=
201508220353 METAR KBLI 220353Z 00000KT 10SM CLR 16/11 A3004 RMK AO2 SLP180 T01610111=
201508220253 METAR KBLI 220253Z 00000KT 10SM CLR 18/10 A3002 RMK AO2 SLP172 T01830100 53002=
201508220153 METAR KBLI 220153Z VRB04KT 10SM CLR 21/10 A3001 RMK AO2 SLP169 T02110100=
201508220053 METAR KBLI 220053Z 00000KT 10SM CLR 22/09 A3001 RMK AO2 SLP168 T02220094=
201508212353 METAR KBLI 212353Z 18005KT 10SM FEW047 21/09 A3001 RMK AO2 SLP169 T02110094 10217 20167 50005=
201508212253 METAR KBLI 212253Z VRB03KT 10SM CLR 21/09 A3002 RMK AO2 SLP170 T02110094=
201508212153 METAR KBLI 212153Z 16007KT 10SM OVC049 21/09 A3001 RMK AO2 SLP168 T02060094=
201508212053 METAR KBLI 212053Z 15006KT 10SM BKN042 19/10 A3000 RMK AO2 SLP164 T01890100 53010=
201508211953 METAR KBLI 211953Z VRB05KT 10SM OVC046 19/09 A2998 RMK AO2 SLP159 T01890094=
201508211853 METAR KBLI 211853Z 19007KT 10SM BKN048 18/11 A2998 RMK AO2 SLP156 T01830111=
201508211753 METAR KBLI 211753Z 17007KT 10SM BKN048 17/12 A2997 RMK AO2 SLP154 T01670117 10172 20139 53017=
201508211653 METAR KBLI 211653Z 15010KT 10SM FEW032 SCT043 17/12 A2994 RMK AO2 SLP146 T01670117=
201508211553 METAR KBLI 211553Z 17009KT 10SM BKN070 15/12 A2993 RMK AO2 SLP140 T01500122=
201508211453 METAR KBLI 211453Z 16009G15KT 10SM SCT030 BKN070 14/12 A2992 RMK AO2 SLP136 T01440122 53008=
201508211353 METAR KBLI 211353Z 17010KT 10SM FEW008 SCT027 BKN060 14/12 A2990 RMK AO2 SLP131 T01390117 $=
201508211350 SPECI KBLI 211350Z 17008KT 10SM FEW008 BKN060 OVC075 14/12 A2990 RMK AO2 $=
201508211253 METAR KBLI 211253Z AUTO 18006KT 10SM FEW026 OVC055 14/12 A2989 RMK AO2 SLP128 T01440117 $=
201508211201 SPECI KBLI 211201Z AUTO 16008KT 10SM FEW022 BKN035 OVC050 14/12 A2988 RMK AO2 $=
201508211153 METAR KBLI 211153Z AUTO 17008G17KT 10SM BKN020 BKN035 OVC050 14/12 A2988 RMK AO2 SLP124 60000 T01440117 10178 20144 52010 $=
201508211053 METAR KBLI 211053Z AUTO VRB06KT 10SM FEW011 OVC020 14/12 A2987 RMK AO2 RAB15E25 SLP121 P0000 T01440117 $=
201508210953 METAR KBLI 210953Z AUTO 15013G21KT 10SM OVC024 14/11 A2986 RMK AO2 SLP116 T01440111 $=
201508210916 SPECI KBLI 210916Z AUTO 10SM SCT021 BKN027 OVC047 14/12 A2986 RMK AO2 $=
201508210853 METAR KBLI 210853Z AUTO 17016G23KT 10SM SCT045 OVC090 14/12 A2985 RMK AO2 SLP114 T01440117 58000 $=
201508210753 METAR KBLI 210753Z AUTO 16015G20KT 10SM BKN095 16/11 A2985 RMK AO2 SLP113 T01560111 402170150 $=
201508210653 METAR KBLI 210653Z AUTO 16011G19KT 10SM BKN060 BKN070 16/12 A2985 RMK AO2 SLP115 T01610122 $=
201508210553 METAR KBLI 210553Z AUTO 10SM OVC075 18/12 A2985 RMK AO2 SLP114 T01780122 10211 20172 58003 $=
201508210453 METAR KBLI 210453Z 15006KT 10SM FEW055 OVC070 18/13 A2986 RMK AO2 SLP118 T01780133=
201508210353 METAR KBLI 210353Z 16005KT 10SM OVC060 19/13 A2987 RMK AO2 SLP119 T01890133=
201508210253 METAR KBLI 210253Z 17005KT 10SM FEW050 19/13 A2986 RMK AO2 SLP117 T01940133 56013=
201508210153 METAR KBLI 210153Z 17006KT 10SM CLR 21/13 A2987 RMK AO2 SLP120 T02060133=
201508210053 METAR KBLI 210053Z 16008KT 10SM SCT050 21/13 A2988 RMK AO2 SLP124 T02110128=
201508202353 METAR KBLI 202353Z VRB05KT 10SM OVC050 21/13 A2990 RMK AO2 SLP130 T02110128 10217 20178 58012=
201508202253 METAR KBLI 202253Z 16010G16KT 10SM OVC048 21/13 A2991 RMK AO2 SLP133 T02110128=
201508202153 METAR KBLI 202153Z 17009G16KT 10SM OVC050 21/13 A2993 RMK AO2 SLP139 T02060133=
201508202138 SPECI KBLI 202138Z 18007KT 10SM FEW027 OVC048 20/13 A2993 RMK AO2=
201508202053 METAR KBLI 202053Z VRB05KT 10SM SCT023 BKN029 OVC044 19/14 A2993 RMK AO2 SLP142 T01940139 51002=
201508201953 METAR KBLI 201953Z VRB05KT 10SM OVC021 18/14 A2993 RMK AO2 SLP141 T01830144=
201508201853 METAR KBLI 201853Z 17006KT 10SM OVC022 18/14 A2993 RMK AO2 SLP141 T01830144=
201508201814 SPECI KBLI 201814Z 20007KT 160V240 10SM SCT022 OVC033 18/14 A2993 RMK AO2=
201508201753 METAR KBLI 201753Z 20006KT 10SM OVC022 18/14 A2993 RMK AO2 SLP140 T01830144 10183 20150 53006=
201508201653 METAR KBLI 201653Z 17007KT 10SM OVC039 18/14 A2992 RMK AO2 SLP138 T01780144=
201508201553 METAR KBLI 201553Z 17003KT 10SM OVC031 17/14 A2992 RMK AO2 SLP136 T01720144=
201508201453 METAR KBLI 201453Z 17008KT 10SM FEW015 OVC031 17/14 A2991 RMK AO2 SLP133 T01670144 52013=
201508201418 SPECI KBLI 201418Z 16006KT 10SM BKN013 OVC033 17/14 A2990 RMK AO2=
201508201353 METAR KBLI 201353Z 17006KT 10SM OVC035 16/14 A2990 RMK AO2 SLP129 T01610139=
201508201253 METAR KBLI 201253Z AUTO VRB06KT 10SM FEW033 16/14 A2988 RMK AO2 SLP124 T01560139 $=
201508201153 METAR KBLI 201153Z AUTO VRB05KT 10SM FEW004 15/14 A2987 RMK AO2 SLP120 T01500139 10172 20150 51010=
201508201144 SPECI KBLI 201144Z AUTO VRB03KT 10SM FEW004 15/14 A2987 RMK AO2=
201508201053 METAR KBLI 201053Z AUTO 18006KT 10SM CLR 16/14 A2986 RMK AO2 SLP117 T01610144=
201508200953 METAR KBLI 200953Z AUTO 18004KT 10SM CLR 16/15 A2986 RMK AO2 SLP115 T01610150=
201508200853 METAR KBLI 200853Z AUTO 18007KT 10SM CLR 17/15 A2984 RMK AO2 SLP110 T01670150 51006=
201508200753 METAR KBLI 200753Z AUTO 18005KT 10SM CLR 17/14 A2984 RMK AO2 SLP108 T01670144 402830133=
201508200653 METAR KBLI 200653Z AUTO 18003KT 10SM CLR 17/14 A2983 RMK AO2 SLP107 T01670144=
201508200553 METAR KBLI 200553Z AUTO 18005KT 10SM CLR 17/14 A2982 RMK AO2 SLP104 T01720144 10278 20172 51008=
201508200453 METAR KBLI 200453Z 18006KT 10SM CLR 18/14 A2983 RMK AO2 SLP104 T01780139=
201508200353 METAR KBLI 200353Z 20004KT 10SM CLR 19/14 A2982 RMK AO2 SLP102 T01890139=
201508200253 METAR KBLI 200253Z 18007KT 10SM CLR 21/14 A2980 RMK AO2 SLP096 T02060139 55010=
201508200153 METAR KBLI 200153Z 17009KT 10SM CLR 22/14 A2980 RMK AO2 SLP096 T02220139=
201508200053 METAR KBLI 200053Z 18010KT 10SM CLR 26/13 A2982 RMK AO2 SLP102 T02560133=
201508192353 METAR KBLI 192353Z 17006KT 10SM CLR 28/13 A2983 RMK AO2 SLP106 T02780128 10283 20211 58018=
201508192253 METAR KBLI 192253Z 16005KT 10SM CLR 27/14 A2985 RMK AO2 SLP114 T02720139=
201508192153 METAR KBLI 192153Z 15006KT 10SM CLR 27/14 A2988 RMK AO2 SLP121 T02670139=
201508192053 METAR KBLI 192053Z VRB05KT 10SM CLR 24/13 A2988 RMK AO2 SLP124 T02440133 56008=
201508191953 METAR KBLI 191953Z VRB04KT 10SM CLR 24/13 A2989 RMK AO2 SLP127 T02390133=
201508191853 METAR KBLI 191853Z VRB03KT 10SM CLR 23/14 A2989 RMK AO2 SLP128 T02280139=
201508191753 METAR KBLI 191753Z 16007KT 10SM CLR 21/14 A2991 RMK AO2 SLP132 T02110139 10211 20133 58005=
201508191653 METAR KBLI 191653Z 17008KT 10SM R16/4000VP6000FT CLR 21/14 A2992 RMK AO2 SLP135 T02060144=
201508191553 METAR KBLI 191553Z 15005KT 10SM CLR 20/15 A2992 RMK AO2 SLP137 T02000150=
201508191453 METAR KBLI 191453Z VRB03KT 10SM CLR 18/15 A2992 RMK AO2 SLP137 T01830150 53003=
201508191353 METAR KBLI 191353Z 17005KT 10SM CLR 17/15 A2992 RMK AO2 SLP136 T01670150=
201508191253 METAR KBLI 191253Z AUTO 17003KT 10SM CLR 15/14 A2991 RMK AO2 SLP133 T01500139=
201508191153 METAR KBLI 191153Z AUTO 00000KT 10SM CLR 16/14 A2991 RMK AO2 SLP134 T01560139 10189 20150 58002=
201508191053 METAR KBLI 191053Z AUTO 00000KT 10SM CLR 16/14 A2992 RMK AO2 SLP137 T01610144=
201508190953 METAR KBLI 190953Z AUTO 00000KT 10SM CLR 16/14 A2992 RMK AO2 SLP137 T01610144=
201508190853 METAR KBLI 190853Z AUTO 00000KT 10SM CLR 16/14 A2992 RMK AO2 SLP136 T01610144 58000=
201508190753 METAR KBLI 190753Z AUTO 17004KT 10SM CLR 18/15 A2992 RMK AO2 SLP137 T01780150 402780117=
201508190653 METAR KBLI 190653Z AUTO 00000KT 10SM CLR 19/14 A2992 RMK AO2 SLP137 T01890139=
201508190553 METAR KBLI 190553Z AUTO 00000KT 10SM CLR 18/14 A2992 RMK AO2 SLP137 T01780144 10261 20172 58001=
201508190453 METAR KBLI 190453Z 00000KT 10SM CLR 18/14 A2993 RMK AO2 SLP140 T01780144=
201508190353 METAR KBLI 190353Z 00000KT 10SM CLR 19/15 A2993 RMK AO2 SLP139 T01890150=
201508190253 METAR KBLI 190253Z 19003KT 10SM CLR 21/16 A2993 RMK AO2 SLP138 T02110156 56012=
201508190153 METAR KBLI 190153Z 18004KT 10SM CLR 23/16 A2994 RMK AO2 SLP144 T02330156=
201508190053 METAR KBLI 190053Z 21005KT 10SM CLR 25/15 A2995 RMK AO2 SLP145 T02500150=
201508182353 METAR KBLI 182353Z 23006KT 10SM CLR 26/15 A2996 RMK AO2 SLP151 T02610150 10278 20244 58019=
201508182253 METAR KBLI 182253Z 28008KT 10SM CLR 26/15 A2998 RMK AO2 SLP158 T02610150=
201508182153 METAR KBLI 182153Z 26007KT 10SM CLR 27/15 A3000 RMK AO2 SLP165 T02670150=
201508182053 METAR KBLI 182053Z 29007G14KT 10SM CLR 27/14 A3002 RMK AO2 SLP170 T02670139 56018=
201508181953 METAR KBLI 181953Z 30007KT 250V320 10SM CLR 26/14 A3003 RMK AO2 SLP174 T02610139=
201508181853 METAR KBLI 181853Z VRB04KT 10SM CLR 26/14 A3006 RMK AO2 SLP182 T02610139=
201508181753 METAR KBLI 181753Z 30006KT 10SM CLR 24/14 A3007 RMK AO2 SLP188 T02440139 10244 20117 58005=
201508181653 METAR KBLI 181653Z VRB05KT 10SM CLR 22/14 A3008 RMK AO2 SLP191 T02170139=
201508181553 METAR KBLI 181553Z 36004KT 10SM CLR 19/13 A3008 RMK AO2 SLP193 T01890133=
201508181453 METAR KBLI 181453Z 00000KT 10SM CLR 16/13 A3009 RMK AO2 SLP194 T01610128 53009=
201508181353 METAR KBLI 181353Z 00000KT 10SM CLR 13/12 A3007 RMK AO2 SLP189 T01280122=
201508181253 METAR KBLI 181253Z AUTO 00000KT 10SM CLR 13/12 A3006 RMK AO2 SLP187 T01280117=
201508181153 METAR KBLI 181153Z AUTO 00000KT 10SM CLR 13/12 A3006 RMK AO2 SLP183 T01330122 10156 20133 58000=
201508181053 METAR KBLI 181053Z AUTO 16003KT 10SM CLR 14/12 A3006 RMK AO2 SLP185 T01390117=
201508180953 METAR KBLI 180953Z AUTO 00000KT 10SM CLR 15/12 A3006 RMK AO2 SLP185 T01500122=
201508180853 METAR KBLI 180853Z AUTO 24003KT 10SM CLR 15/12 A3006 RMK AO2 SLP184 T01500122 50001=
201508180753 METAR KBLI 180753Z AUTO 00000KT 10SM CLR 16/13 A3006 RMK AO2 SLP184 T01560128 402500106=
201508180653 METAR KBLI 180653Z AUTO 00000KT 10SM CLR 16/13 A3006 RMK AO2 SLP184 T01560128=
201508180553 METAR KBLI 180553Z AUTO 00000KT 10SM CLR 15/13 A3005 RMK AO2 SLP183 T01500128 10250 20150 50001=
201508180453 METAR KBLI 180453Z 00000KT 10SM CLR 17/13 A3006 RMK AO2 SLP185 T01670133=
201508180353 METAR KBLI 180353Z 00000KT 10SM CLR 18/12 A3006 RMK AO2 SLP185 T01780122=
201508180253 METAR KBLI 180253Z 25003KT 10SM CLR 21/12 A3005 RMK AO2 SLP183 T02060122 56005=
201508180153 METAR KBLI 180153Z 27005KT 10SM CLR 24/12 A3005 RMK AO2 SLP182 T02440122=
201508180053 METAR KBLI 180053Z VRB04KT 10SM CLR 24/13 A3006 RMK AO2 SLP185 T02390128=
201508172353 METAR KBLI 172353Z VRB04KT 10SM CLR 25/12 A3007 RMK AO2 SLP188 T02500122 10250 20206 56015=
201508172253 METAR KBLI 172253Z 31006KT 10SM CLR 24/12 A3008 RMK AO2 SLP190 T02440117=
201508172153 METAR KBLI 172153Z 25006KT 10SM CLR 24/12 A3010 RMK AO2 SLP196 T02390117=
201508172053 METAR KBLI 172053Z 27008KT 10SM CLR 23/13 A3011 RMK AO2 SLP201 T02330128 58009=
201508171953 METAR KBLI 171953Z 28006KT 10SM CLR 22/13 A3013 RMK AO2 SLP206 T02220133=
201508171853 METAR KBLI 171853Z VRB05KT 10SM CLR 21/13 A3014 RMK AO2 SLP210 T02110133=
201508171753 METAR KBLI 171753Z VRB05KT 10SM CLR 21/13 A3014 RMK AO2 SLP212 T02110133 10211 20106 58001=
201508171653 METAR KBLI 171653Z 20004KT 10SM CLR 19/14 A3014 RMK AO2 SLP213 T01940139=
201508171553 METAR KBLI 171553Z 15004KT 10SM CLR 17/13 A3015 RMK AO2 SLP214 T01720133=
201508171453 METAR KBLI 171453Z 00000KT 10SM CLR 14/12 A3014 RMK AO2 SLP213 T01440122 53002=
201508171353 METAR KBLI 171353Z AUTO 00000KT 10SM CLR 13/12 A3014 RMK AO2 SLP211 T01280117=
201508171253 METAR KBLI 171253Z AUTO 00000KT 10SM CLR 12/11 A3013 RMK AO2 SLP209 T01170111=
201508171153 METAR KBLI 171153Z AUTO 00000KT 10SM CLR 11/10 A3014 RMK AO2 SLP211 T01110100 10150 20111 55001=
201508171053 METAR KBLI 171053Z AUTO 20003KT 10SM CLR 13/12 A3013 RMK AO2 SLP209 T01280117=
201508170953 METAR KBLI 170953Z AUTO 00000KT 10SM CLR 14/12 A3013 RMK AO2 SLP208 T01440122=
201508170853 METAR KBLI 170853Z AUTO 18003KT 10SM CLR 14/13 A3014 RMK AO2 SLP211 T01440128 58001=
201508170753 METAR KBLI 170753Z AUTO 17004KT 10SM CLR 15/13 A3014 RMK AO2 SLP213 T01500128 402390122=
201508170653 METAR KBLI 170653Z AUTO 16003KT 10SM CLR 14/13 A3014 RMK AO2 SLP211 T01440128=
201508170553 METAR KBLI 170553Z AUTO 18003KT 10SM CLR 15/13 A3014 RMK AO2 SLP212 T01500133 10233 20144 50001=
201508170453 METAR KBLI 170453Z 18003KT 10SM CLR 16/13 A3015 RMK AO2 SLP214 T01610128=
201508170353 METAR KBLI 170353Z 00000KT 10SM CLR 17/12 A3014 RMK AO2 SLP213 T01670117=
201508170253 METAR KBLI 170253Z 00000KT 10SM CLR 19/12 A3014 RMK AO2 SLP211 T01940117 57010=
201508170153 METAR KBLI 170153Z 26005KT 10SM CLR 22/10 A3015 RMK AO2 SLP214 T02170100=
201508170053 METAR KBLI 170053Z VRB03KT 10SM CLR 23/11 A3016 RMK AO2 SLP218 T02280111=
201508162353 METAR KBLI 162353Z VRB04KT 10SM CLR 23/11 A3017 RMK AO2 SLP220 T02330111 10239 20183 58019=
201508162253 METAR KBLI 162253Z 25005KT 10SM CLR 23/12 A3019 RMK AO2 SLP228 T02280122=
201508162153 METAR KBLI 162153Z 26007KT 10SM CLR 23/13 A3021 RMK AO2 SLP235 T02280133=
201508162053 METAR KBLI 162053Z VRB06KT 10SM CLR 22/13 A3022 RMK AO2 SLP241 T02170133 56010=
201508161953 METAR KBLI 161953Z VRB05KT 10SM SCT022 21/14 A3023 RMK AO2 SLP243 T02110139=
201508161931 SPECI KBLI 161931Z 22007KT 10SM SCT022 20/13 A3023 RMK AO2=
201508161924 SPECI KBLI 161924Z VRB06KT 10SM BKN022 21/14 A3024 RMK AO2=
201508161917 SPECI KBLI 161917Z 20006KT 10SM SCT022 21/14 A3023 RMK AO2=
201508161853 METAR KBLI 161853Z VRB06KT 10SM BKN025 21/14 A3025 RMK AO2 SLP249 T02060139=
201508161753 METAR KBLI 161753Z VRB03KT 10SM SCT021 18/13 A3026 RMK AO2 SLP251 T01830128 10183 20144 56006=
201508161653 METAR KBLI 161653Z VRB03KT 10SM SCT021 BKN050 16/12 A3026 RMK AO2 SLP253 T01610122=
201508161553 METAR KBLI 161553Z 16006KT 10SM SCT050 15/13 A3027 RMK AO2 SLP255 T01500128=
201508161453 METAR KBLI 161453Z VRB03KT 10SM OVC050 14/13 A3027 RMK AO2 SLP257 T01440128 53009=
201508161353 METAR KBLI 161353Z AUTO 00000KT 10SM OVC050 14/13 A3026 RMK AO2 SLP254 T01440128=
201508161253 METAR KBLI 161253Z AUTO 00000KT 10SM OVC050 14/13 A3025 RMK AO2 SLP250 T01440128=
201508161153 METAR KBLI 161153Z AUTO 16003KT 10SM OVC050 14/13 A3025 RMK AO2 SLP248 T01440128 10144 20122 50002=
201508161053 METAR KBLI 161053Z AUTO 00000KT 10SM OVC055 14/13 A3025 RMK AO2 SLP248 T01440128=
201508160953 METAR KBLI 160953Z AUTO 00000KT 10SM BKN055 13/12 A3024 RMK AO2 SLP247 T01280117=
201508160853 METAR KBLI 160853Z AUTO 16003KT 10SM BKN055 14/13 A3024 RMK AO2 SLP246 T01440128 50001=
201508160753 METAR KBLI 160753Z AUTO 18003KT 10SM CLR 14/12 A3024 RMK AO2 SLP248 T01390122 402060133=
201508160653 METAR KBLI 160653Z AUTO 19004KT 10SM CLR 14/13 A3024 RMK AO2 SLP246 T01440128=
201508160553 METAR KBLI 160553Z AUTO 17003KT 10SM FEW060 14/13 A3024 RMK AO2 SLP245 T01440128 10206 20144 50004=
201508160453 METAR KBLI 160453Z 18003KT 10SM BKN060 16/13 A3024 RMK AO2 SLP246 T01610128=
201508160353 METAR KBLI 160353Z 16003KT 10SM CLR 16/12 A3023 RMK AO2 SLP241 T01560122=
201508160253 METAR KBLI 160253Z 18003KT 10SM CLR 17/12 A3023 RMK AO2 SLP241 T01720122 57005=
201508160153 METAR KBLI 160153Z 17004KT 10SM CLR 19/12 A3023 RMK AO2 SLP242 T01890117=
201508160053 METAR KBLI 160053Z VRB04KT 10SM CLR 20/11 A3024 RMK AO2 SLP244 T02000111=
201508152353 METAR KBLI 152353Z 16007KT 10SM FEW070 21/11 A3024 RMK AO2 SLP246 T02060111 10206 20172 56002=
201508152253 METAR KBLI 152253Z 19006KT 10SM OVC080 19/11 A3024 RMK AO2 SLP246 T01890111=
201508152153 METAR KBLI 152153Z 17007KT 10SM OVC110 19/11 A3024 RMK AO2 SLP247 T01890111=
201508152053 METAR KBLI 152053Z 18006KT 10SM FEW075 OVC110 19/12 A3025 RMK AO2 SLP248 T01940122 51004=
201508151953 METAR KBLI 151953Z 17007KT 10SM BKN075 OVC100 18/12 A3024 RMK AO2 SLP247 T01830122=
201508151853 METAR KBLI 151853Z 18009G14KT 10SM FEW075 OVC100 18/13 A3025 RMK AO2 SLP248 T01780128=
201508151753 METAR KBLI 151753Z 16006KT 10SM OVC075 17/12 A3023 RMK AO2 SLP244 T01720122 10178 20156 51010=
201508151653 METAR KBLI 151653Z 17009KT 10SM OVC075 17/12 A3023 RMK AO2 SLP241 T01720122=
201508151553 METAR KBLI 151553Z 17006KT 10SM OVC070 17/12 A3022 RMK AO2 SLP239 T01720122=
201508151453 METAR KBLI 151453Z 17006KT 10SM OVC060 16/13 A3020 RMK AO2 SLP234 T01610128 53011=
201508151353 METAR KBLI 151353Z 16005KT 10SM BKN055 OVC075 16/12 A3019 RMK AO2 SLP229 T01610122=
201508151253 METAR KBLI 151253Z AUTO 17008KT 10SM FEW065 OVC090 16/12 A3017 RMK AO2 SLP224 T01610122=
201508151153 METAR KBLI 151153Z AUTO 17008KT 10SM FEW019 SCT095 BKN120 16/12 A3017 RMK AO2 SLP223 70014 T01560122 10167 20156 51016=
201508151053 METAR KBLI 151053Z AUTO 17012G18KT 10SM FEW049 OVC065 16/12 A3016 RMK AO2 SLP218 T01560117=
201508150953 METAR KBLI 150953Z AUTO 16007KT 10SM OVC060 16/11 A3014 RMK AO2 SLP212 T01610111=
201508150853 METAR KBLI 150853Z AUTO VRB06KT 10SM BKN060 16/12 A3012 RMK AO2 SLP207 T01610117 51013=
201508150753 METAR KBLI 150753Z AUTO 16007G14KT 10SM BKN041 OVC050 16/12 A3011 RMK AO2 SLP203 T01610117 401720144=
201508150653 METAR KBLI 150653Z AUTO 16008KT 10SM OVC037 16/12 A3010 RMK AO2 SLP198 T01610117=
201508150553 METAR KBLI 150553Z AUTO 19008KT 10SM BKN048 17/12 A3008 RMK AO2 SLP193 60003 T01670117 10167 20161 51019=
201508150453 METAR KBLI 150453Z 16006KT 10SM OVC043 17/14 A3006 RMK AO2 SLP186 T01670139=
201508150353 METAR KBLI 150353Z 16009KT 10SM FEW006 OVC043 16/15 A3005 RMK AO2 SLP182 T01610150=
201508150253 METAR KBLI 150253Z 16005KT 10SM FEW009 OVC039 17/15 A3003 RMK AO2 SLP174 60003 T01670150 53006=
201508150153 METAR KBLI 150153Z 15013G19KT 10SM FEW008 OVC016 17/16 A3002 RMK AO2 RAE24 SLP172 P0001 T01670156=
201508150144 SPECI KBLI 150144Z 15009G16KT 10SM FEW008 OVC016 17/16 A3002 RMK AO2 RAE24 P0001=
201508150053 METAR KBLI 150053Z 17008KT 10SM -RA SCT008 BKN010 OVC100 17/16 A3001 RMK AO2 SLP169 P0002 T01670156 $=
201508150000 SPECI KBLI 150000Z 16011G16KT 10SM -RA SCT008 OVC018 16/15 A3001 RMK AO2 P0000=
201508142353 METAR KBLI 142353Z 17012G19KT 10SM -RA FEW011 BKN018 OVC075 16/15 A3001 RMK AO2 SLP168 P0000 60010 T01610150 10172 20156 53015=
201508142341 SPECI KBLI 142341Z 17013G22KT 10SM -RA FEW011 BKN018 OVC075 17/15 A3000 RMK AO2 P0000=
201508142253 METAR KBLI 142253Z 17013G22KT 10SM -RA FEW008 SCT085 OVC110 17/16 A2998 RMK AO2 SLP158 P0006 T01670156=
201508142153 METAR KBLI 142153Z 17008G18KT 10SM -RA SCT008 OVC100 17/16 A2997 RMK AO2 SLP155 P0004 T01670156=
201508142103 SPECI KBLI 142103Z 16011G17KT 10SM -RA FEW010 OVC110 17/16 A2997 RMK AO2 P0001=
201508142053 METAR KBLI 142053Z 16010G17KT 10SM -RA BKN010 OVC110 17/16 A2996 RMK AO2 RAB22 SLP153 P0000 60000 T01720156 53010=
201508141953 METAR KBLI 141953Z 17009G17KT 10SM OVC012 17/15 A2995 RMK AO2 RAB30E42 SLP148 P0000 T01720150=
201508141902 SPECI KBLI 141902Z 17007KT 10SM OVC010 17/14 A2994 RMK AO2=
201508141853 METAR KBLI 141853Z 17009KT 10SM OVC008 17/14 A2994 RMK AO2 SLP144 T01670139=
201508141753 METAR KBLI 141753Z 18007KT 7SM BKN008 OVC014 16/14 A2993 RMK AO2 SLP142 60001 T01610144 10172 20144 55000=
201508141653 METAR KBLI 141653Z 17009KT 6SM BR BKN008 OVC013 16/15 A2993 RMK AO2 CIG 006V011 SLP140 T01610150=
201508141651 SPECI KBLI 141651Z 17008KT 6SM BR BKN008 OVC015 16/15 A2993 RMK AO2 CIG 006V011=
201508141642 SPECI KBLI 141642Z 18007G15KT 6SM BR SCT008 BKN015 17/15 A2993 RMK AO2=
201508141634 SPECI KBLI 141634Z 17008G17KT 6SM BR BKN010 BKN015 17/15 A2993 RMK AO2 CIG 006V013=
201508141553 METAR KBLI 141553Z 18005KT 10SM FEW095 15/14 A2993 RMK AO2 RAE34 SLP142 P0001 T01500139=
201508141453 METAR KBLI 141453Z 17009G16KT 10SM -RA FEW016 BKN110 16/14 A2993 RMK AO2 PRESRR SLP140 P0000 60000 T01560139 50021=
201508141353 METAR KBLI 141353Z 18007G16KT 10SM -RA FEW006 SCT090 BKN110 16/14 A2993 RMK AO2 RAB50 SLP141 P0000 T01560139=
201508141305 SPECI KBLI 141305Z AUTO 17013G19KT 10SM SCT006 BKN110 15/13 A2992 RMK AO2=
201508141253 METAR KBLI 141253Z AUTO 17009G15KT 10SM SCT006 BKN013 BKN110 14/13 A2991 RMK AO2 SLP134 T01440133=
201508141153 METAR KBLI 141153Z AUTO 27008KT 10SM FEW004 SCT110 15/13 A2987 RMK AO2 SLP119 T01500133 10178 20150 58007=
201508141128 SPECI KBLI 141128Z AUTO 18013G20KT 10SM FEW004 15/14 A2994 RMK AO2=
201508141053 METAR KBLI 141053Z AUTO VRB03KT 10SM CLR 15/14 A2989 RMK AO2 SLP127 T01500139=
201508140953 METAR KBLI 140953Z AUTO 16005KT 10SM CLR 16/14 A2988 RMK AO2 SLP124 T01560139=
201508140853 METAR KBLI 140853Z AUTO 17005KT 10SM CLR 16/14 A2989 RMK AO2 SLP126 T01610139 56010=
201508140753 METAR KBLI 140753Z AUTO 17005KT 10SM CLR 17/14 A2990 RMK AO2 SLP129 T01670144 402780167=
201508140653 METAR KBLI 140653Z AUTO 18005KT 10SM CLR 17/14 A2990 RMK AO2 SLP131 T01720144=
201508140553 METAR KBLI 140553Z AUTO 16005KT 10SM CLR 18/15 A2992 RMK AO2 SLP137 T01780150 10272 20178 50007=
201508140453 METAR KBLI 140453Z AUTO 17007KT 10SM CLR 19/14 A2993 RMK AO2 SLP139 T01890144=
201508140353 METAR KBLI 140353Z 18006KT 10SM CLR 19/14 A2992 RMK AO2 SLP135 T01940139=
201508140253 METAR KBLI 140253Z 19003KT 10SM CLR 22/14 A2990 RMK AO2 SLP130 T02170144 56004=
201508140153 METAR KBLI 140153Z 24003KT 10SM CLR 24/13 A2990 RMK AO2 SLP130 T02390128=
201508140053 METAR KBLI 140053Z 27006KT 10SM CLR 26/13 A2990 RMK AO2 SLP131 T02610128=
201508132353 METAR KBLI 132353Z 22004KT 10SM CLR 26/13 A2991 RMK AO2 SLP134 T02610128 10278 20200 56025=
201508132253 METAR KBLI 132253Z VRB03KT 10SM CLR 27/14 A2993 RMK AO2 SLP141 T02670144=
201508132153 METAR KBLI 132153Z 19004KT 10SM CLR 24/14 A2996 RMK AO2 SLP152 T02440144=
201508132053 METAR KBLI 132053Z VRB06KT 10SM CLR 23/14 A2999 RMK AO2 SLP159 T02330144 58013=
201508131953 METAR KBLI 131953Z 16006KT 10SM CLR 22/15 A3000 RMK AO2 SLP164 T02170150=
201508131853 METAR KBLI 131853Z 17008KT 10SM CLR 22/14 A3002 RMK AO2 SLP170 T02170144=
201508131753 METAR KBLI 131753Z 16009G14KT 10SM CLR 21/14 A3003 RMK AO2 SLP173 T02060139 10206 20172 50003=
201508131653 METAR KBLI 131653Z VRB05KT 10SM CLR 19/14 A3003 RMK AO2 SLP173 T01940139=
201508131553 METAR KBLI 131553Z VRB06KT 10SM CLR 19/13 A3002 RMK AO2 SLP172 T01890133=
201508131453 METAR KBLI 131453Z 17004KT 10SM CLR 19/13 A3002 RMK AO2 SLP170 T01940133 51008=
201508131353 METAR KBLI 131353Z 16005KT 10SM CLR 18/13 A3001 RMK AO2 SLP168 T01780128=
201508131253 METAR KBLI 131253Z AUTO 18006KT 10SM CLR 18/13 A3000 RMK AO2 SLP165 T01780133=
201508131153 METAR KBLI 131153Z AUTO 17007KT 10SM CLR 18/14 A2999 RMK AO2 SLP162 T01780139 10211 20172 51006=
201508131053 METAR KBLI 131053Z AUTO 17007KT 10SM CLR 18/15 A2999 RMK AO2 SLP161 T01830150=
201508130953 METAR KBLI 130953Z AUTO 14006KT 10SM CLR 18/15 A2998 RMK AO2 SLP156 T01780150=
201508130853 METAR KBLI 130853Z AUTO 16004KT 10SM CLR 19/13 A2998 RMK AO2 SLP155 T01940128 50006=
201508130753 METAR KBLI 130753Z AUTO 17009G14KT 10SM CLR 21/15 A2998 RMK AO2 LTG DSNT E SLP156 T02110150 402890139=
201508130653 METAR KBLI 130653Z AUTO 16006KT 10SM CLR 21/15 A2997 RMK AO2 SLP151 T02060150=
201508130553 METAR KBLI 130553Z AUTO 17005KT 10SM CLR 21/15 A2996 RMK AO2 SLP149 T02060150 10278 20206 53017=
201508130453 METAR KBLI 130453Z 16005KT 10SM CLR 21/14 A2994 RMK AO2 SLP143 T02110144=
201508130353 METAR KBLI 130353Z 17005KT 10SM CLR 22/14 A2992 RMK AO2 SLP137 T02220139=
201508130253 METAR KBLI 130253Z 18004KT 10SM CLR 23/13 A2991 RMK AO2 SLP132 T02280128 55001=
201508130153 METAR KBLI 130153Z 17005KT 10SM CLR 23/13 A2990 RMK AO2 SLP131 T02280133=
201508130053 METAR KBLI 130053Z 18005KT 10SM CLR 27/13 A2991 RMK AO2 SLP133 T02670133=
201508122353 METAR KBLI 122353Z 26004KT 10SM CLR 27/14 A2991 RMK AO2 SLP133 T02720139 10289 20211 56025=
201508122253 METAR KBLI 122253Z 00000KT 10SM CLR 28/13 A2993 RMK AO2 SLP140 T02830128=
201508122153 METAR KBLI 122153Z 00000KT 10SM CLR 26/12 A2995 RMK AO2 SLP145 T02610122=
201508122053 METAR KBLI 122053Z 00000KT 10SM CLR 22/14 A2998 RMK AO2 SLP157 T02170139 53010=
201508121953 METAR KBLI 121953Z 26007KT 10SM CLR 22/16 A2998 RMK AO2 PRESRR SLP157 T02220156=
201508121853 METAR KBLI 121853Z VRB06KT 10SM CLR 27/16 A2994 RMK AO2 SLP142 T02670161=
201508121753 METAR KBLI 121753Z VRB03KT 10SM CLR 26/14 A2995 RMK AO2 SLP147 T02560144 10256 20139 50000=
201508121653 METAR KBLI 121653Z 36005KT 10SM CLR 23/14 A2996 RMK AO2 SLP150 T02330144=
201508121553 METAR KBLI 121553Z 00000KT 10SM CLR 21/14 A2996 RMK AO2 SLP151 T02060144=
201508121453 METAR KBLI 121453Z 00000KT 10SM CLR 17/14 A2995 RMK AO2 SLP147 T01720144 53006=
201508121353 METAR KBLI 121353Z 00000KT 10SM CLR 16/14 A2994 RMK AO2 SLP144 T01560139=
201508121253 METAR KBLI 121253Z AUTO 00000KT 10SM CLR 14/13 A2994 RMK AO2 SLP144 T01390128=
201508121153 METAR KBLI 121153Z AUTO 00000KT 10SM CLR 15/13 A2993 RMK AO2 SLP141 T01500133 10211 20150 51007=
201508121053 METAR KBLI 121053Z AUTO 00000KT 10SM CLR 16/13 A2993 RMK AO2 SLP139 T01560128=
201508120953 METAR KBLI 120953Z AUTO 00000KT 10SM CLR 16/14 A2992 RMK AO2 SLP138 T01610139=
201508120853 METAR KBLI 120853Z AUTO 00000KT 10SM CLR 17/14 A2991 RMK AO2 SLP134 T01720139 50002=
201508120753 METAR KBLI 120753Z AUTO 00000KT 10SM CLR 18/13 A2993 RMK AO2 SLP138 T01780133 403000117=
201508120653 METAR KBLI 120653Z AUTO 00000KT 10SM CLR 19/13 A2991 RMK AO2 SLP134 T01940133=
201508120553 METAR KBLI 120553Z AUTO 18005KT 10SM CLR 21/13 A2991 RMK AO2 SLP132 T02060133 10283 20183 51013=
201508120453 METAR KBLI 120453Z AUTO 00000KT 10SM CLR 19/15 A2990 RMK AO2 SLP130 T01940150=
201508120353 METAR KBLI 120353Z 00000KT 10SM CLR 21/15 A2989 RMK AO2 SLP125 T02110150=
201508120253 METAR KBLI 120253Z 17003KT 10SM CLR 23/16 A2987 RMK AO2 SLP119 T02330156 56004=
201508120153 METAR KBLI 120153Z 21005KT 10SM CLR 25/15 A2987 RMK AO2 SLP120 T02500150=
201508120053 METAR KBLI 120053Z 26003KT 10SM CLR 28/14 A2987 RMK AO2 SLP121 T02780144=
201508120038 SPECI KBLI 120038Z VRB03KT 10SM CLR 28/14 A2988 RMK AO2=
201508120029 SPECI KBLI 120029Z 25005KT 2 1/2SM HZ CLR 28/15 A2988 RMK AO2=
201508112353 METAR KBLI 112353Z 24006KT 10SM CLR 28/16 A2988 RMK AO2 SLP124 T02780156 10300 20244 56019=
201508112253 METAR KBLI 112253Z 27006KT 10SM CLR 29/15 A2990 RMK AO2 SLP128 T02890150=
201508112153 METAR KBLI 112153Z 30006KT 10SM CLR 29/13 A2991 RMK AO2 SLP134 T02890133=
201508112053 METAR KBLI 112053Z 26007KT 10SM CLR 27/16 A2994 RMK AO2 SLP143 T02720156 58015=
201508111953 METAR KBLI 111953Z VRB05KT 10SM CLR 25/15 A2996 RMK AO2 SLP150 T02500150=
201508111853 METAR KBLI 111853Z VRB04KT 10SM CLR 24/15 A2997 RMK AO2 SLP153 T02440150=
201508111753 METAR KBLI 111753Z VRB04KT 10SM CLR 24/14 A2998 RMK AO2 SLP158 T02440139 10244 20117 58006=
201508111653 METAR KBLI 111653Z VRB04KT 10SM CLR 22/14 A2998 RMK AO2 SLP158 T02220139=
201508111553 METAR KBLI 111553Z 00000KT 10SM CLR 19/14 A3000 RMK AO2 SLP164 T01940139=
201508111453 METAR KBLI 111453Z 00000KT 10SM CLR 16/14 A3000 RMK AO2 SLP164 T01610144 53008=
201508111353 METAR KBLI 111353Z 00000KT 10SM CLR 13/12 A2998 RMK AO2 SLP158 T01330122=
201508111253 METAR KBLI 111253Z AUTO 00000KT 10SM CLR 13/12 A2998 RMK AO2 SLP156 T01280117=
201508111244 SPECI KBLI 111244Z AUTO 00000KT 10SM CLR 13/12 A2998 RMK AO2=
201508111235 SPECI KBLI 111235Z AUTO 00000KT 2 1/2SM BR CLR 13/12 A2997 RMK AO2=
201508111153 METAR KBLI 111153Z AUTO 00000KT 10SM CLR 13/12 A2998 RMK AO2 SLP156 T01330122 10178 20133 53003=
201508111053 METAR KBLI 111053Z AUTO 00000KT 10SM CLR 14/13 A2997 RMK AO2 SLP153 T01440133=
201508110953 METAR KBLI 110953Z AUTO 00000KT 10SM CLR 15/13 A2997 RMK AO2 SLP152 T01500128=
201508110853 METAR KBLI 110853Z AUTO 00000KT 10SM CLR 16/14 A2997 RMK AO2 SLP153 T01610139 53006=
201508110753 METAR KBLI 110753Z AUTO 00000KT 10SM CLR 17/14 A2996 RMK AO2 SLP151 T01670139 402670128=
201508110653 METAR KBLI 110653Z AUTO 00000KT 10SM CLR 16/13 A2995 RMK AO2 SLP147 T01610133=
201508110553 METAR KBLI 110553Z AUTO 00000KT 10SM CLR 16/13 A2995 RMK AO2 SLP147 T01610133 10256 20161 51018=
201508110453 METAR KBLI 110453Z AUTO 00000KT 10SM CLR 19/14 A2993 RMK AO2 SLP141 T01890139=
201508110353 METAR KBLI 110353Z 00000KT 10SM BKN110 19/14 A2992 RMK AO2 SLP136 T01940139=
201508110253 METAR KBLI 110253Z 18003KT 10SM CLR 21/14 A2990 RMK AO2 SLP128 T02110139 53005=
201508110153 METAR KBLI 110153Z VRB03KT 10SM CLR 24/12 A2987 RMK AO2 SLP121 T02390122=
201508110053 METAR KBLI 110053Z 26006KT 10SM CLR 25/14 A2988 RMK AO2 SLP123 T02500139=
201508102353 METAR KBLI 102353Z 28006KT 10SM CLR 25/14 A2988 RMK AO2 SLP123 T02500139 10267 20183 58012=
201508102253 METAR KBLI 102253Z VRB05KT 10SM CLR 24/14 A2990 RMK AO2 SLP128 T02440139=
201508102153 METAR KBLI 102153Z 25008KT 10SM CLR 25/14 A2991 RMK AO2 SLP132 T02500144=
201508102053 METAR KBLI 102053Z VRB05KT 10SM CLR 24/14 A2992 RMK AO2 SLP135 T02440139 58020=
201508101953 METAR KBLI 101953Z 32005KT 10SM FEW095 SCT120 23/14 A2994 RMK AO2 SLP143 T02330144=
201508101853 METAR KBLI 101853Z 00000KT 10SM SCT120 21/13 A2996 RMK AO2 SLP149 T02110128=
201508101753 METAR KBLI 101753Z VRB03KT 10SM BKN110 18/14 A2997 RMK AO2 RAB21E46 SLP156 P0000 60000 T01830139 10183 20128 51011=
201508101653 METAR KBLI 101653Z 00000KT 10SM OVC100 17/14 A2996 RMK AO2 RAB1558E28 SLP153 P0000 T01720139=
201508101553 METAR KBLI 101553Z 00000KT 10SM BKN090 OVC110 17/14 A2996 RMK AO2 SLP152 T01720139=
201508101523 SPECI KBLI 101523Z 17005KT 10SM FEW009 SCT085 BKN120 17/14 A2996 RMK AO2=
201508101453 METAR KBLI 101453Z 17004KT 10SM BKN085 17/14 A2994 RMK AO2 SLP144 T01670139 53008=
201508101353 METAR KBLI 101353Z AUTO 00000KT 10SM CLR 15/13 A2992 RMK AO2 SLP135 T01500128=
201508101253 METAR KBLI 101253Z AUTO 00000KT 10SM BKN090 13/12 A2991 RMK AO2 SLP135 T01330117=
201508101153 METAR KBLI 101153Z AUTO 00000KT 10SM BKN090 13/12 A2992 RMK AO2 SLP136 T01330117 10161 20128 58003=
201508101053 METAR KBLI 101053Z AUTO 00000KT 10SM BKN090 13/11 A2992 RMK AO2 SLP137 T01280111=
201508100953 METAR KBLI 100953Z AUTO 00000KT 10SM CLR 14/12 A2993 RMK AO2 SLP139 T01390117=
201508100853 METAR KBLI 100853Z AUTO 00000KT 10SM CLR 14/12 A2993 RMK AO2 SLP139 T01440117 58005=
201508100753 METAR KBLI 100753Z AUTO 00000KT 10SM CLR 15/12 A2994 RMK AO2 SLP142 T01500117 402560144=
201508100653 METAR KBLI 100653Z AUTO 00000KT 10SM CLR 15/11 A2994 RMK AO2 SLP144 T01500111=
201508100553 METAR KBLI 100553Z AUTO 00000KT 10SM CLR 16/11 A2994 RMK AO2 SLP145 T01560106 10250 20150 53007=
201508100453 METAR KBLI 100453Z AUTO 00000KT 10SM CLR 17/11 A2993 RMK AO2 SLP140 T01720111=
201508100353 METAR KBLI 100353Z 00000KT 10SM CLR 18/12 A2992 RMK AO2 SLP138 T01830117=
201508100253 METAR KBLI 100253Z 00000KT 10SM CLR 21/12 A2992 RMK AO2 SLP137 T02110117 56009=
201508100153 METAR KBLI 100153Z 00000KT 10SM CLR 23/11 A2992 RMK AO2 SLP138 T02330106=
201508100053 METAR KBLI 100053Z 25004KT 10SM CLR 23/11 A2994 RMK AO2 SLP142 T02330106=
201508092353 METAR KBLI 092353Z 28007KT 10SM CLR 24/11 A2995 RMK AO2 SLP146 T02440106 10256 20206 56010=
201508092253 METAR KBLI 092253Z 26008KT 10SM CLR 25/11 A2995 RMK AO2 SLP148 T02500111=
201508092153 METAR KBLI 092153Z 00000KT 10SM CLR 25/12 A2996 RMK AO2 SLP151 T02500117=
201508092053 METAR KBLI 092053Z 28005KT 10SM CLR 24/11 A2998 RMK AO2 SLP156 T02390111 58006=
201508091953 METAR KBLI 091953Z 19006KT 10SM CLR 22/11 A2999 RMK AO2 SLP161 T02220106=
201508091853 METAR KBLI 091853Z 17009KT 10SM CLR 22/12 A2999 RMK AO2 SLP161 T02170122=
201508091753 METAR KBLI 091753Z 17008KT 10SM CLR 21/13 A2999 RMK AO2 SLP161 60000 T02060133 10206 20172 58001=
201508091653 METAR KBLI 091653Z 16009KT 10SM CLR 20/13 A3000 RMK AO2 SLP164 T02000128=
201508091553 METAR KBLI 091553Z 16009KT 10SM CLR 19/13 A3001 RMK AO2 SLP166 T01890133=
201508091453 METAR KBLI 091453Z 17008KT 10SM SCT049 BKN060 18/13 A3000 RMK AO2 SLP162 60000 T01780133 53007=
201508091353 METAR KBLI 091353Z 16008G15KT 10SM BKN044 BKN055 18/14 A2998 RMK AO2 SLP158 T01780139=
201508091253 METAR KBLI 091253Z AUTO 17006KT 10SM FEW022 BKN031 OVC040 18/14 A2997 RMK AO2 RAB09E24 SLP155 P0000 T01780139=
201508091249 SPECI KBLI 091249Z AUTO 15006KT 10SM SCT022 BKN031 OVC038 18/14 A2997 RMK AO2 RAB09E24 P0000=
201508091153 METAR KBLI 091153Z AUTO 17010G17KT 10SM OVC024 17/14 A2997 RMK AO2 SLP152 T01720144 10200 20172 53009=
201508091123 SPECI KBLI 091123Z AUTO 17009KT 10SM BKN023 BKN028 OVC038 17/14 A2996 RMK AO2=
201508091101 SPECI KBLI 091101Z AUTO 16009G17KT 10SM BKN030 OVC035 17/14 A2995 RMK AO2=
201508091053 METAR KBLI 091053Z AUTO 17010G18KT 10SM BKN027 OVC033 17/14 A2995 RMK AO2 SLP148 T01720144=
201508091019 SPECI KBLI 091019Z AUTO 16012G20KT 10SM BKN025 18/14 A2995 RMK AO2=
201508090953 METAR KBLI 090953Z AUTO 17010G16KT 10SM CLR 17/14 A2994 RMK AO2 SLP144 T01720144=
201508090853 METAR KBLI 090853Z AUTO 18007KT 10SM CLR 18/14 A2994 RMK AO2 SLP142 T01780144 51008=
201508090839 SPECI KBLI 090839Z AUTO 18005KT 10SM SCT027 18/14 A2994 RMK AO2=
201508090753 METAR KBLI 090753Z AUTO 19005KT 10SM BKN027 OVC070 18/14 A2993 RMK AO2 SLP140 T01830144 402280161=
201508090748 SPECI KBLI 090748Z AUTO 20004KT 10SM BKN027 BKN070 18/14 A2993 RMK AO2 402280161=
201508090653 METAR KBLI 090653Z AUTO 18007KT 10SM BKN070 BKN085 19/14 A2991 RMK AO2 SLP134 T01890144=
201508090553 METAR KBLI 090553Z AUTO 17008KT 10SM BKN075 OVC090 19/14 A2990 RMK AO2 SLP130 60000 T01940144 10228 20194 53018=
201508090453 METAR KBLI 090453Z 15009KT 10SM OVC070 21/14 A2988 RMK AO2 SLP122 T02060144=
201508090353 METAR KBLI 090353Z 15010G18KT 10SM OVC080 22/13 A2986 RMK AO2 RAE24 SLP116 P0000 T02220133=
201508090253 METAR KBLI 090253Z 16005KT 10SM -RA OVC100 22/14 A2985 RMK AO2 RAB31 SLP112 P0000 60000 T02170144 55001=
201508090153 METAR KBLI 090153Z VRB06KT 10SM OVC100 22/14 A2985 RMK AO2 SLP111 T02220139=
201508090053 METAR KBLI 090053Z 00000KT 10SM BKN100 BKN110 22/15 A2984 RMK AO2 RAE05 SLP110 P0000 T02220150=
201508082353 METAR KBLI 082353Z 18003KT 10SM -RA FEW041 OVC100 21/16 A2985 RMK AO2 RAB23 SLP113 P0000 60000 T02110156 10217 20194 50001=
201508082253 METAR KBLI 082253Z 16006KT 10SM CLR 21/15 A2986 RMK AO2 SLP116 T02110150=
201508082153 METAR KBLI 082153Z 19004KT 10SM CLR 21/15 A2986 RMK AO2 SLP117 T02060150=
201508082053 METAR KBLI 082053Z VRB06KT 10SM FEW080 20/15 A2985 RMK AO2 SLP113 T02000150 55000=
201508081953 METAR KBLI 081953Z 17010G14KT 10SM FEW055 OVC100 20/15 A2984 RMK AO2 SLP110 T02000150=
201508081853 METAR KBLI 081853Z 16008G16KT 10SM FEW055 21/15 A2984 RMK AO2 SLP110 T02110150=
201508081753 METAR KBLI 081753Z VRB06KT 10SM CLR 19/15 A2985 RMK AO2 SLP113 T01890150 10194 20161 58000=
201508081653 METAR KBLI 081653Z 18008KT 10SM BKN060 OVC075 18/15 A2985 RMK AO2 SLP114 T01830150=
201508081553 METAR KBLI 081553Z 18006KT 10SM SCT070 OVC080 18/15 A2986 RMK AO2 SLP116 T01780150=
201508081453 METAR KBLI 081453Z 17009G15KT 10SM FEW016 OVC080 17/15 A2985 RMK AO2 SLP112 T01720150 56001=
201508081443 SPECI KBLI 081443Z 16009G15KT 10SM SCT016 OVC080 18/15 A2985 RMK AO2=
201508081432 SPECI KBLI 081432Z 16005KT 10SM BKN014 OVC080 18/15 A2985 RMK AO2=
201508081422 SPECI KBLI 081422Z 16007KT 10SM SCT014 OVC085 18/15 A2985 RMK AO2=
201508081411 SPECI KBLI 081411Z 17010KT 10SM BKN012 OVC090 18/15 A2985 RMK AO2=
201508081353 METAR KBLI 081353Z AUTO 16006KT 10SM SCT010 BKN090 17/15 A2985 RMK AO2 SLP113 T01720150=
201508081253 METAR KBLI 081253Z AUTO 19004KT 10SM BKN085 16/14 A2985 RMK AO2 SLP112 T01610144=
201508081153 METAR KBLI 081153Z AUTO 18003KT 10SM CLR 16/14 A2985 RMK AO2 SLP114 T01610144 10178 20161 58001=
201508081053 METAR KBLI 081053Z AUTO 17004KT 10SM CLR 17/14 A2985 RMK AO2 SLP114 T01670144=
201508080953 METAR KBLI 080953Z AUTO 18004KT 10SM CLR 17/14 A2985 RMK AO2 SLP114 T01670144=
201508080853 METAR KBLI 080853Z AUTO 18003KT 10SM CLR 17/14 A2985 RMK AO2 SLP114 T01670144 55002=
201508080753 METAR KBLI 080753Z AUTO 19003KT 10SM CLR 17/14 A2985 RMK AO2 SLP114 T01670144 402610106=
201508080653 METAR KBLI 080653Z AUTO 19005KT 10SM CLR 17/15 A2985 RMK AO2 SLP113 T01720150=
201508080553 METAR KBLI 080553Z AUTO 17003KT 10SM CLR 18/13 A2986 RMK AO2 SLP117 T01780133 10256 20172 53001=
201508080453 METAR KBLI 080453Z 18004KT 10SM CLR 18/13 A2986 RMK AO2 SLP116 T01830133=
201508080353 METAR KBLI 080353Z 00000KT 10SM CLR 18/13 A2986 RMK AO2 SLP116 T01830133=
201508080253 METAR KBLI 080253Z 16004KT 10SM CLR 21/13 A2986 RMK AO2 SLP116 T02110133 56010=
201508080153 METAR KBLI 080153Z 17005KT 10SM CLR 23/13 A2986 RMK AO2 SLP118 T02330128=
201508080053 METAR KBLI 080053Z 19005KT 10SM CLR 24/11 A2987 RMK AO2 SLP121 T02440106=
201508072353 METAR KBLI 072353Z VRB04KT 10SM CLR 25/11 A2989 RMK AO2 SLP127 T02500106 10261 20206 58017=
201508072253 METAR KBLI 072253Z 19007KT 10SM CLR 26/11 A2991 RMK AO2 SLP133 T02560111=
201508072153 METAR KBLI 072153Z VRB04KT 10SM CLR 26/11 A2993 RMK AO2 SLP139 T02560111=
201508072053 METAR KBLI 072053Z 19004KT 10SM CLR 23/12 A2994 RMK AO2 SLP143 T02330122 58010=
201508071953 METAR KBLI 071953Z VRB05KT 10SM CLR 22/11 A2995 RMK AO2 SLP147 T02220111=
201508071853 METAR KBLI 071853Z 19007KT 10SM CLR 21/11 A2996 RMK AO2 SLP150 T02110106=
201508071753 METAR KBLI 071753Z VRB03KT 10SM CLR 21/13 A2997 RMK AO2 SLP154 T02060128 10206 20106 58010=
201508071653 METAR KBLI 071653Z 18004KT 10SM CLR 18/13 A2999 RMK AO2 SLP160 T01830128=
201508071553 METAR KBLI 071553Z 00000KT 10SM CLR 18/13 A2999 RMK AO2 SLP162 T01780128=
201508071453 METAR KBLI 071453Z 00000KT 10SM CLR 16/13 A3000 RMK AO2 SLP164 T01560128 55000=
201508071353 METAR KBLI 071353Z 00000KT 10SM CLR 12/11 A3000 RMK AO2 SLP163 T01220111=
201508071253 METAR KBLI 071253Z AUTO 00000KT 10SM CLR 11/09 A2999 RMK AO2 SLP161 T01060094=
201508071153 METAR KBLI 071153Z AUTO 00000KT 10SM CLR 12/11 A3000 RMK AO2 SLP164 T01170106 10144 20106 58005=
201508071053 METAR KBLI 071053Z AUTO 00000KT 10SM CLR 11/10 A3000 RMK AO2 SLP165 T01110100=
201508070953 METAR KBLI 070953Z AUTO 00000KT 10SM CLR 12/11 A3001 RMK AO2 SLP168 T01170106=
201508070853 METAR KBLI 070853Z AUTO 00000KT 10SM CLR 13/11 A3001 RMK AO2 SLP169 T01280111 56007=
201508070753 METAR KBLI 070753Z AUTO 00000KT 10SM CLR 13/11 A3002 RMK AO2 SLP171 T01280111 402390128=
201508070653 METAR KBLI 070653Z AUTO 00000KT 10SM CLR 14/12 A3002 RMK AO2 SLP172 T01390117=
201508070553 METAR KBLI 070553Z AUTO 00000KT 10SM CLR 14/11 A3003 RMK AO2 SLP175 T01440111 10228 20133 58004=
201508070453 METAR KBLI 070453Z 00000KT 10SM CLR 14/11 A3004 RMK AO2 SLP179 T01440111=
201508070353 METAR KBLI 070353Z 00000KT 10SM CLR 17/11 A3004 RMK AO2 SLP179 T01670111=
201508070319 SPECI KBLI 070319Z 00000KT 10SM CLR 19/11 A3004 RMK AO2=
201508070253 METAR KBLI 070253Z 00000KT 10SM CLR 21/10 A3004 RMK AO2 SLP179 T02060100 57010=
201508070153 METAR KBLI 070153Z VRB03KT 10SM CLR 22/10 A3005 RMK AO2 SLP182 T02220100=
201508070053 METAR KBLI 070053Z VRB04KT 10SM CLR 22/11 A3007 RMK AO2 SLP187 T02220106=
201508062353 METAR KBLI 062353Z 27005KT 10SM CLR 22/12 A3008 RMK AO2 SLP189 T02220117 10239 20172 56019=
201508062253 METAR KBLI 062253Z 35007KT 310V020 10SM SCT044 BKN055 24/12 A3009 RMK AO2 SLP194 T02390117=
201508062153 METAR KBLI 062153Z VRB03KT 10SM FEW060 22/11 A3011 RMK AO2 SLP201 T02220111=
201508062053 METAR KBLI 062053Z 20005KT 10SM OVC060 21/12 A3013 RMK AO2 SLP209 T02060117 58002=
201508061953 METAR KBLI 061953Z 17005KT 10SM OVC060 19/12 A3013 RMK AO2 SLP210 T01890117=
201508061853 METAR KBLI 061853Z 20007KT 10SM BKN041 OVC060 19/12 A3014 RMK AO2 SLP212 T01890122=
201508061753 METAR KBLI 061753Z 16009KT 10SM BKN041 OVC060 17/12 A3014 RMK AO2 SLP211 T01720122 10172 20144 51006=
201508061653 METAR KBLI 061653Z 17007KT 10SM FEW041 OVC060 17/13 A3013 RMK AO2 SLP210 T01670128=
201508061553 METAR KBLI 061553Z 17007KT 10SM SCT014 OVC060 16/13 A3013 RMK AO2 SLP208 T01560128=
201508061453 METAR KBLI 061453Z 16009G16KT 10SM FEW011 OVC055 15/12 A3012 RMK AO2 SLP204 T01500122 51008=
201508061401 SPECI KBLI 061401Z 17010KT 10SM SCT009 OVC055 14/13 A3012 RMK AO2=
201508061353 METAR KBLI 061353Z 16007KT 10SM BKN009 OVC055 14/13 A3011 RMK AO2 SLP203 T01440128=
201508061333 SPECI KBLI 061333Z 16008KT 10SM FEW009 OVC060 14/13 A3011 RMK AO2=
201508061253 METAR KBLI 061253Z AUTO 17006KT 10SM OVC055 14/12 A3010 RMK AO2 PK WND 04027/1154 SLP199 T01440122=
201508061153 METAR KBLI 061153Z AUTO 18007KT 140V210 10SM BKN040 OVC050 15/12 A3009 RMK AO2 PK WND 21028/1153 SLP196 70008 T01500122 10156 20144 53005 $=
201508061053 METAR KBLI 061053Z AUTO 00000KT 10SM BKN042 OVC050 14/12 A3008 RMK AO2 SLP193 T01440122=
201508060953 METAR KBLI 060953Z AUTO 15005KT 10SM BKN050 OVC080 15/12 A3007 RMK AO2 SLP190 T01500122=
201508060853 METAR KBLI 060853Z AUTO 16005KT 10SM OVC041 15/13 A3008 RMK AO2 SLP191 T01500128 52007=
201508060753 METAR KBLI 060753Z AUTO 18005KT 10SM OVC060 15/12 A3007 RMK AO2 SLP189 T01500122 401780144=
201508060653 METAR KBLI 060653Z AUTO 17005KT 10SM OVC060 16/12 A3006 RMK AO2 SLP185 T01560122=
201508060553 METAR KBLI 060553Z AUTO 16004KT 10SM BKN060 16/12 A3005 RMK AO2 SLP183 T01560117 10178 20156 53001=
201508060453 METAR KBLI 060453Z 16006KT 10SM SCT043 OVC080 16/12 A3006 RMK AO2 SLP184 T01610117=
201508060353 METAR KBLI 060353Z 16005KT 10SM BKN047 BKN110 16/12 A3005 RMK AO2 SLP181 T01610117=
201508060253 METAR KBLI 060253Z 17008KT 10SM SCT039 SCT050 BKN090 17/12 A3005 RMK AO2 SLP182 T01720117 53001=
201508060153 METAR KBLI 060153Z 16007KT 10SM OVC043 17/12 A3005 RMK AO2 SLP180 T01720117=
201508060053 METAR KBLI 060053Z 17008KT 10SM OVC045 17/12 A3004 RMK AO2 SLP180 T01720117=
201508052353 METAR KBLI 052353Z 16008KT 10SM OVC043 16/12 A3005 RMK AO2 RAE03B31E40 SLP181 P0000 60007 T01610122 10161 20150 50000=
201508052253 METAR KBLI 052253Z 17012G17KT 10SM -RA BKN050 OVC070 16/13 A3005 RMK AO2 RAE19B50 SLP182 P0000 T01560128=
201508052153 METAR KBLI 052153Z 16010G18KT 8SM -RA FEW016 OVC047 16/13 A3005 RMK AO2 SLP182 P0002 T01610133=
201508052053 METAR KBLI 052053Z 17006G14KT 10SM -RA OVC047 16/13 A3005 RMK AO2 SLP181 P0001 60005 T01560128 58001=
201508051953 METAR KBLI 051953Z 17008G15KT 10SM -RA SCT025 OVC075 16/13 A3005 RMK AO2 SLP182 P0001 T01560128=
201508051853 METAR KBLI 051853Z 17008KT 10SM -RA OVC025 16/13 A3005 RMK AO2 SLP181 P0003 T01560128=
201508051753 METAR KBLI 051753Z 17009G14KT 10SM -RA OVC025 16/13 A3005 RMK AO2 RAB1657 SLP182 P0001 60001 T01560128 10161 20150 51009=
201508051653 METAR KBLI 051653Z 16012G18KT 10SM OVC025 16/12 A3005 RMK AO2 SLP181 T01610117=
201508051553 METAR KBLI 051553Z 16010G19KT 10SM OVC023 16/11 A3004 RMK AO2 SLP180 T01610111=
201508051453 METAR KBLI 051453Z 16014G24KT 10SM BKN017 OVC110 15/12 A3002 RMK AO2 SLP173 T01500117 53007=
201508051353 METAR KBLI 051353Z 16013G22KT 10SM BKN017 OVC060 15/11 A3001 RMK AO2 SLP170 T01500111=
201508051313 SPECI KBLI 051313Z AUTO 15013G20KT 10SM BKN017 BKN050 OVC060 15/11 A3001 RMK AO2=
201508051253 METAR KBLI 051253Z AUTO 15015G21KT 10SM SCT017 BKN050 15/11 A3001 RMK AO2 SLP168 T01500111=
201508051153 METAR KBLI 051153Z AUTO 16008KT 10SM SCT090 15/11 A3000 RMK AO2 SLP165 7//// T01500111 10167 20144 51008=
201508051053 METAR KBLI 051053Z AUTO 16004KT 10SM CLR 15/11 A3000 RMK AO2 SLP163 T01500111=
201508050953 METAR KBLI 050953Z AUTO 16004KT 10SM FEW090 15/11 A2999 RMK AO2 SLP160 T01500106=
201508050853 METAR KBLI 050853Z AUTO 15006KT 10SM CLR 15/11 A2998 RMK AO2 SLP156 T01500106 51004=
201508050753 METAR KBLI 050753Z AUTO 17005KT 10SM CLR 16/11 A2998 RMK AO2 SLP155 T01610106 402330150=
201508050653 METAR KBLI 050653Z AUTO 17006KT 10SM FEW080 16/11 A2997 RMK AO2 SLP155 T01610111=
201508050553 METAR KBLI 050553Z AUTO VRB05KT 10SM CLR 17/11 A2997 RMK AO2 SLP153 T01670106 10233 20167 51008=
201508050453 METAR KBLI 050453Z 18006KT 10SM CLR 17/11 A2996 RMK AO2 SLP151 T01720106=
201508050353 METAR KBLI 050353Z 17010KT 10SM CLR 18/10 A2995 RMK AO2 SLP147 T01830100=
201508050253 METAR KBLI 050253Z 16008KT 10SM CLR 20/11 A2994 RMK AO2 SLP145 T02000106 58006=
201508050153 METAR KBLI 050153Z 17009G16KT 10SM CLR 22/11 A2994 RMK AO2 SLP146 T02170111=
201508050053 METAR KBLI 050053Z 16006KT 10SM CLR 22/13 A2996 RMK AO2 SLP150 T02220128=
201508042353 METAR KBLI 042353Z 17006G15KT 10SM CLR 23/13 A2996 RMK AO2 SLP150 6//// T02280133 10233 20189 56007=
201508042253 METAR KBLI 042253Z 17005KT 10SM CLR 22/13 A2997 RMK AO2 SLP153 T02220128=
201508042153 METAR KBLI 042153Z 19009KT 10SM CLR 23/13 A2997 RMK AO2 SLP155 T02280133 $=
201508042053 METAR KBLI 042053Z 19007KT 10SM CLR 22/13 A2998 RMK AO2 SLP157 6//// T02220133 56003 $=
201508041953 METAR KBLI 041953Z 16009G15KT 10SM CLR 21/13 A2999 RMK AO2 SLP158 T02110128 $=
201508041853 METAR KBLI 041853Z VRB06KT 10SM CLR 21/12 A2999 RMK AO2 SLP159 T02060122 $=
201508041753 METAR KBLI 041753Z 17007KT 10SM CLR 19/13 A2999 RMK AO2 SLP161 T01890128 10194 20150 58001=
201508041653 METAR KBLI 041653Z 17007KT 10SM CLR 18/12 A2999 RMK AO2 SLP162 T01830122=
201508041553 METAR KBLI 041553Z 19005KT 10SM CLR 18/12 A3000 RMK AO2 SLP163 T01780122=
201508041453 METAR KBLI 041453Z 17008KT 10SM CLR 17/12 A2999 RMK AO2 SLP161 T01670122 51011=
201508041353 METAR KBLI 041353Z 17007KT 10SM CLR 15/12 A2998 RMK AO2 SLP159 T01500122=
201508041253 METAR KBLI 041253Z AUTO 17007KT 10SM CLR 15/13 A2997 RMK AO2 SLP156 T01500128=
201508041153 METAR KBLI 041153Z AUTO 20005KT 10SM CLR 16/13 A2996 RMK AO2 SLP150 T01560128 10172 20156 51005=
201508041053 METAR KBLI 041053Z AUTO 17007KT 10SM CLR 16/13 A2996 RMK AO2 SLP149 T01560128=
201508040953 METAR KBLI 040953Z AUTO 18006KT 10SM FEW065 16/13 A2995 RMK AO2 SLP147 T01560133=
201508040853 METAR KBLI 040853Z AUTO 18004KT 10SM CLR 16/13 A2995 RMK AO2 SLP145 T01610133 51008=
201508040753 METAR KBLI 040753Z AUTO 18006KT 10SM BKN070 17/13 A2994 RMK AO2 SLP143 T01670133 402390150=
201508040653 METAR KBLI 040653Z AUTO 17006KT 10SM CLR 17/13 A2993 RMK AO2 SLP141 T01670133=
201508040553 METAR KBLI 040553Z AUTO 17007KT 10SM CLR 17/13 A2992 RMK AO2 SLP138 T01720133 10233 20172 51013=
201508040453 METAR KBLI 040453Z 17006KT 10SM CLR 18/13 A2991 RMK AO2 SLP134 T01780128=
201508040353 METAR KBLI 040353Z 18006KT 10SM CLR 19/13 A2990 RMK AO2 SLP131 T01890128=
201508040253 METAR KBLI 040253Z 18008KT 10SM CLR 21/13 A2988 RMK AO2 SLP125 T02060128 53001=
201508040153 METAR KBLI 040153Z 17011G17KT 10SM CLR 21/13 A2988 RMK AO2 SLP123 T02110128=
201508040053 METAR KBLI 040053Z 16011G19KT 10SM CLR 22/13 A2988 RMK AO2 SLP123 T02170128=
201508032353 METAR KBLI 032353Z 16012G19KT 10SM CLR 23/13 A2988 RMK AO2 SLP123 T02280128 10239 20194 57004=
201508032253 METAR KBLI 032253Z 16011G19KT 10SM CLR 23/12 A2988 RMK AO2 SLP124 T02330122=
201508032153 METAR KBLI 032153Z 18010G18KT 10SM CLR 23/12 A2989 RMK AO2 SLP126 T02280122=
201508032053 METAR KBLI 032053Z 17012G20KT 10SM CLR 22/13 A2989 RMK AO2 SLP127 T02220128 56004=
201508031953 METAR KBLI 031953Z 16012G20KT 10SM CLR 21/13 A2990 RMK AO2 SLP128 T02110128=
201508031853 METAR KBLI 031853Z 17013G20KT 10SM CLR 19/13 A2989 RMK AO2 SLP126 T01940128=
201508031753 METAR KBLI 031753Z 17013G20KT 10SM CLR 19/12 A2990 RMK AO2 SLP131 T01940122 10194 20150 50006=
201508031653 METAR KBLI 031653Z 16010G14KT 10SM CLR 18/13 A2991 RMK AO2 SLP132 T01830128=
201508031553 METAR KBLI 031553Z 16011G20KT 10SM CLR 16/13 A2989 RMK AO2 SLP128 T01610128=
201508031453 METAR KBLI 031453Z 17009KT 10SM CLR 16/12 A2989 RMK AO2 SLP125 T01560122 51007=
201508031353 METAR KBLI 031353Z 18009KT 10SM CLR 15/12 A2988 RMK AO2 SLP124 T01500122=
201508031253 METAR KBLI 031253Z AUTO 19006G14KT 10SM CLR 16/12 A2987 RMK AO2 SLP120 T01560122=
201508031153 METAR KBLI 031153Z AUTO 18010KT 10SM CLR 16/12 A2986 RMK AO2 SLP117 T01610117 10194 20161 53004=
201508031053 METAR KBLI 031053Z AUTO VRB05KT 10SM CLR 17/12 A2986 RMK AO2 SLP116 T01670117=
201508030953 METAR KBLI 030953Z AUTO 19005KT 10SM CLR 17/11 A2985 RMK AO2 SLP114 T01720111=
201508030853 METAR KBLI 030853Z AUTO 21003KT 10SM CLR 18/11 A2985 RMK AO2 SLP114 T01780106 56004=
201508030753 METAR KBLI 030753Z AUTO 19005KT 10SM CLR 18/10 A2986 RMK AO2 SLP115 T01830100 402720156=
201508030653 METAR KBLI 030653Z AUTO 19006KT 10SM CLR 19/10 A2986 RMK AO2 SLP115 T01940100=
201508030553 METAR KBLI 030553Z AUTO 18007KT 10SM CLR 19/11 A2986 RMK AO2 SLP118 T01940106 10272 20194 58002=
201508030453 METAR KBLI 030453Z 17007KT 10SM CLR 21/14 A2987 RMK AO2 SLP119 T02060139=
201508030353 METAR KBLI 030353Z 00000KT 10SM CLR 21/13 A2987 RMK AO2 SLP118 T02110133=
201508030253 METAR KBLI 030253Z 16004KT 10SM CLR 23/14 A2987 RMK AO2 SLP120 T02280144 58006=
201508030153 METAR KBLI 030153Z 00000KT 10SM CLR 24/14 A2988 RMK AO2 SLP122 T02390144=
201508030053 METAR KBLI 030053Z VRB03KT 10SM CLR 27/13 A2989 RMK AO2 SLP124 T02670133=
201508022353 METAR KBLI 022353Z 22005KT 10SM CLR 27/14 A2989 RMK AO2 SLP125 T02670139 10272 20222 56011=
201508022253 METAR KBLI 022253Z VRB04KT 10SM CLR 26/16 A2989 RMK AO2 SLP128 T02610156=
201508022153 METAR KBLI 022153Z 25005KT 10SM CLR 26/14 A2991 RMK AO2 SLP133 T02560144=
201508022053 METAR KBLI 022053Z VRB05KT 10SM CLR 26/14 A2992 RMK AO2 SLP137 T02560144 58007=
201508021953 METAR KBLI 021953Z 27004KT 10SM CLR 24/14 A2993 RMK AO2 SLP140 T02390144=
201508021853 METAR KBLI 021853Z 00000KT 10SM CLR 24/16 A2994 RMK AO2 SLP142 T02390156=
201508021753 METAR KBLI 021753Z 15006KT 10SM CLR 22/16 A2994 RMK AO2 SLP144 T02220161 10228 20156 58001=
201508021653 METAR KBLI 021653Z 14007KT 10SM CLR 21/16 A2995 RMK AO2 SLP148 T02110161=
201508021553 METAR KBLI 021553Z 21003KT 10SM CLR 19/16 A2995 RMK AO2 SLP146 T01940161=
201508021453 METAR KBLI 021453Z 21003KT 10SM CLR 19/16 A2994 RMK AO2 SLP145 T01890156 53007=
201508021353 METAR KBLI 021353Z 15003KT 10SM CLR 17/15 A2993 RMK AO2 SLP140 T01670150=
201508021253 METAR KBLI 021253Z AUTO 00000KT 10SM CLR 17/14 A2993 RMK AO2 SLP138 T01670144=
201508021153 METAR KBLI 021153Z AUTO 20003KT 10SM CLR 17/14 A2992 RMK AO2 SLP137 T01720144 10189 20156 51003=
201508021053 METAR KBLI 021053Z AUTO 20003KT 10SM CLR 18/15 A2992 RMK AO2 SLP137 T01780150=
201508020953 METAR KBLI 020953Z AUTO 17003KT 10SM CLR 17/15 A2992 RMK AO2 SLP136 T01720150=
201508020853 METAR KBLI 020853Z AUTO 00000KT 10SM CLR 17/14 A2991 RMK AO2 SLP134 T01670139 58002=
201508020753 METAR KBLI 020753Z AUTO 19003KT 10SM CLR 18/14 A2992 RMK AO2 SLP137 T01830144 403000139=
201508020653 METAR KBLI 020653Z AUTO 00000KT 10SM CLR 18/14 A2991 RMK AO2 SLP134 T01780139=
201508020553 METAR KBLI 020553Z AUTO 00000KT 10SM CLR 18/14 A2992 RMK AO2 SLP136 60000 T01830139 10294 20172 50002=
201508020453 METAR KBLI 020453Z 00000KT 10SM CLR 19/14 A2993 RMK AO2 RAE0357 SLP139 P0000 T01940139=
201508020353 METAR KBLI 020353Z 00000KT 10SM -RA CLR 20/14 A2992 RMK AO2 RAB49 SLP135 P0000 T02000139=
201508020253 METAR KBLI 020253Z 00000KT 10SM CLR 24/13 A2991 RMK AO2 SLP133 T02440128 56007=
201508020153 METAR KBLI 020153Z 27006KT 10SM CLR 26/11 A2991 RMK AO2 SLP133 T02610106=
201508020053 METAR KBLI 020053Z VRB03KT 10SM CLR 28/11 A2992 RMK AO2 SLP137 T02780106=
201508012353 METAR KBLI 012353Z VRB03KT 10SM CLR 29/12 A2993 RMK AO2 SLP140 T02940122 10300 20228 58017=
201508012253 METAR KBLI 012253Z 00000KT 10SM CLR 28/12 A2995 RMK AO2 SLP146 T02830122=
201508012153 METAR KBLI 012153Z 25006KT 10SM CLR 27/15 A2997 RMK AO2 SLP154 T02720150=
201508012053 METAR KBLI 012053Z 29005KT 10SM CLR 27/16 A2998 RMK AO2 SLP158 T02670156 57009=
201508011953 METAR KBLI 011953Z VRB05KT 10SM CLR 25/16 A2999 RMK AO2 SLP160 T02500156=
201508011853 METAR KBLI 011853Z 00000KT 10SM CLR 23/15 A3000 RMK AO2 SLP165 T02330150=
201508011753 METAR KBLI 011753Z VRB03KT 10SM CLR 23/16 A3001 RMK AO2 SLP167 T02280156 10233 20150 58004=
201508011653 METAR KBLI 011653Z 16005KT 10SM CLR 22/16 A3002 RMK AO2 SLP170 T02170156=
201508011553 METAR KBLI 011553Z VRB03KT 10SM CLR 20/16 A3003 RMK AO2 SLP172 T02000156=
201508011453 METAR KBLI 011453Z 17005KT 10SM CLR 19/15 A3002 RMK AO2 SLP171 T01940150 51009=
201508011353 METAR KBLI 011353Z 15004KT 10SM CLR 18/14 A3002 RMK AO2 SLP170 T01780144=
201508011253 METAR KBLI 011253Z AUTO 18004KT 10SM CLR 16/13 A3000 RMK AO2 SLP165 T01560133=
201508011153 METAR KBLI 011153Z AUTO 18003KT 10SM CLR 14/13 A3000 RMK AO2 SLP162 T01440133 10183 20139 53001=
201508011053 METAR KBLI 011053Z AUTO 00000KT 10SM CLR 14/12 A2999 RMK AO2 SLP161 T01390122=
201508010953 METAR KBLI 010953Z AUTO 00000KT 10SM CLR 15/13 A2999 RMK AO2 SLP162 T01500133=
201508010853 METAR KBLI 010853Z AUTO 00000KT 10SM CLR 16/13 A2999 RMK AO2 SLP161 T01560133 50002=
201508010753 METAR KBLI 010753Z AUTO 14003KT 10SM CLR 16/14 A2999 RMK AO2 SLP161 T01610139 403060122=
201508010653 METAR KBLI 010653Z AUTO 16006KT 10SM CLR 18/14 A2999 RMK AO2 SLP161 T01780144=
201508010553 METAR KBLI 010553Z AUTO 00000KT 10SM CLR 17/13 A2999 RMK AO2 SLP159 T01670128 10300 20167 53005=
201508010453 METAR KBLI 010453Z 00000KT 10SM CLR 17/14 A2998 RMK AO2 SLP156 T01720144=
201508010353 METAR KBLI 010353Z 00000KT 10SM CLR 19/16 A2997 RMK AO2 SLP155 T01940156=
201508010253 METAR KBLI 010253Z 18003KT 10SM CLR 25/14 A2997 RMK AO2 SLP154 T02500139 56014=
201508010153 METAR KBLI 010153Z 24003KT 10SM CLR 28/09 A2998 RMK AO2 SLP155 T02830094=
201508010053 METAR KBLI 010053Z 27004KT 10SM CLR 29/11 A2999 RMK AO2 SLP162 T02890106=

# No short TAF reports from KBLI in databse.

###################################
#  large TAF from KBLI
###################################
201508312320 TAF KBLI 312320Z 0100/0124 17012G22KT P6SM SCT020 OVC040
                      TEMPO 0100/0104 5SM -RA BR OVC020 FM010400
                       18010G20KT 5SM -RA BR OVC015 FM010900 20010KT
                       P6SM -RA BKN020 OVC040 FM012000 20008KT
                       P6SM VCSH BKN025 BKN050=
201508311720 TAF KBLI 311720Z 3118/0118 16015G25KT P6SM -RA BKN025 OVC035 FM010400
                       18012G22KT P6SM -RA BKN020 OVC040=
201508311130 TAF KBLI 311130Z 3112/0112 16015G25KT P6SM -RA SCT025 BKN040 OVC060
                       FM311600 16015G25KT P6SM -RA BKN025 OVC040
                       TEMPO 3116/3120 4SM -RA FM010000 18012KT
                       P6SM -SHRA BKN035 OVC070 FM011100 21008KT
                       P6SM -RA BKN025 OVC040=
201508310526 TAF KBLI 310526Z 3106/0106 16008KT P6SM -RA SCT025 BKN040 OVC060
                       FM311300 16012KT P6SM -RA BKN025 OVC040
                       TEMPO 3113/3117 4SM -RA FM010000 18012KT
                       P6SM -SHRA BKN035 OVC070=
201508302341 TAF KBLI 302341Z 3100/3124 17012G20KT P6SM BKN080 BKN120 FM310400
                       16008KT P6SM SCT060 OVC100 FM311000 16012KT
                       P6SM BKN030 OVC060
                      TEMPO 3110/3113 3SM -RA BR BKN020 OVC040
                       FM311600 17012KT P6SM -SHRA BKN035 OVC100=
201508301750 TAF KBLI 301750Z 3018/3118 17012G20KT P6SM FEW015 OVC080 FM302100
                       18012KT P6SM SCT035 BKN050 BKN070 FM310400
                       16010KT P6SM OVC060 FM310700 15012KT P6SM
                       -RA OVC035=
201508301128 TAF KBLI 301128Z 3012/3112 16012KT P6SM SCT025 BKN040
                      TEMPO 3012/3016 -SHRA BKN025 OVC040 FM302100
                       18012KT P6SM SCT035 BKN050 BKN070 FM310700
                       15012KT P6SM -RA OVC035=
201508300537 TAF KBLI 300537Z 3006/3106 16012KT P6SM OVC022 FM300900 16008KT
                       P6SM SCT025 BKN045 FM301300 16008KT P6SM
                       -SHRA BKN030 OVC050 FM302100 18012KT P6SM
                       SCT035 BKN050 BKN070=
201508292351 TAF KBLI 292351Z 3000/3024 16030G40KT P6SM SCT040 BKN050 OVC100
                       FM300300 16012G20KT P6SM -RA BKN025 OVC040
                       FM300900 16008KT P6SM -SHRA SCT030 OVC050
                       FM301500 16008KT P6SM BKN025 OVC060 FM302000
                       17015KT P6SM BKN050 OVC080=
201508291945 TAF AMD KBLI 291945Z 2920/3018 15025G45KT P6SM BKN050 FM292200
                       18020G30KT P6SM -RA BKN025 OVC040 FM292300
                       18020G30KT P6SM -SHRA SCT030 BKN040 OVC050
                       FM300300 18014KT P6SM -RA BKN028 OVC040
                       FM300900 16008KT P6SM VCSH SCT030 OVC050=
201508291755 TAF KBLI 291755Z 2918/3018 14025G35KT P6SM SCT060 FM292000 18020G30KT
                       P6SM -RA BKN025 OVC040 FM292300 18020G30KT
                       P6SM -SHRA SCT030 BKN040 OVC050 FM300300
                       18014KT P6SM -RA BKN028 OVC040 FM300900
                       16008KT P6SM VCSH SCT030 OVC050=
201508291501 TAF AMD KBLI 291501Z 2915/3012 15012G20KT P6SM -RA BKN050 OVC080
                       FM291700 16020G30KT P6SM -RA BKN025 OVC040
                       FM292100 18020G30KT P6SM -SHRA SCT030 BKN040
                       OVC050 FM300200 18014KT P6SM -RA BKN028
                       OVC040=
201508291137 TAF KBLI 291137Z 2912/3012 03006KT P6SM OVC100 FM291500 11008KT
                       P6SM -RA BKN060 OVC100 FM291800 16020G30KT
                       P6SM -RA BKN025 OVC040 FM292100 18020G30KT
                       P6SM -SHRA SCT030 BKN040 OVC050 FM300200
                       18014KT P6SM -RA BKN028 OVC040=
201508290541 TAF KBLI 290541Z 2906/3006 VRB03KT P6SM BKN100 OVC150 FM291300
                       11008KT P6SM BKN060 OVC100 FM291500 13010KT
                       P6SM -RA BKN025 OVC040 FM291800 16020G30KT
                       P6SM -RA BKN025 OVC040 FM292100 18020G30KT
                       P6SM -SHRA SCT030 BKN040 OVC050 FM300200
                       18014KT P6SM -RA BKN028 OVC040=
201508282353 TAF KBLI 282353Z 2900/2924 16003KT P6SM BKN050 FM290300 VRB02KT
                       P6SM SCT060 BKN100 FM291700 15008KT P6SM
                       -RA BKN030 OVC060 FM292000 17010G25KT P6SM
                       -SHRA BKN035 OVC060
                      TEMPO 2921/2924 17020G30KT=
201508281807 TAF KBLI 281807Z 2818/2918 16006KT P6SM OVC025 FM282200 17008KT
                       P6SM SCT035 BKN060 FM290300 VRB02KT P6SM
                       SCT060 BKN100 FM291700 15008KT P6SM -RA
                       BKN035 OVC070=
201508281227 TAF AMD KBLI 281227Z 2812/2912 15007KT P6SM -RA SCT025 OVC040
                      TEMPO 2815/2819 5SM -RA BR OVC025 FM282200
                       17008KT P6SM SCT035 BKN060 FM290300 VRB02KT
                       P6SM SCT060 BKN100=
201508281120 TAF KBLI 281120Z 2812/2912 15003KT P6SM -RA BKN060 OVC120
                      TEMPO 2815/2819 5SM -RA BR BKN030 OVC060
                       FM282200 17008KT P6SM SCT035 BKN060 FM290300
                       VRB02KT P6SM SCT060 BKN100=
201508280529 TAF KBLI 280529Z 2806/2906 00000KT P6SM SCT100 BKN200 FM281000
                       16003KT P6SM BKN080 OVC150 FM281300 17006KT
                       P6SM -RA BKN030 OVC060 FM282200 17009KT
                       P6SM BKN040 OVC060
                      PROB30 2822/2902 -SHRA=
201508272320 TAF KBLI 272320Z 2800/2824 19006KT P6SM BKN250 FM280700 16003KT
                       P6SM BKN080 OVC150 FM281200 17006KT P6SM
                       -RA BKN030 OVC050 FM281900 17009KT P6SM
                       BKN040 OVC060
                      PROB30 2819/2824 -RA=
201508271736 TAF KBLI 271736Z 2718/2818 18008KT P6SM BKN250 FM280600 16003KT
                       P6SM BKN080 OVC150 FM281200 17005KT P6SM
                       -RA BKN040 OVC060=
201508271120 TAF KBLI 271120Z 2712/2812 17005KT P6SM BKN250 FM271600 18008KT
                       P6SM BKN250 FM280900 16003KT P6SM BKN090
                       OVC200=
201508270525 TAF KBLI 270525Z 2706/2806 00000KT P6SM BKN250 FM271600 18008KT
                       P6SM BKN250=
201508262320 TAF KBLI 262320Z 2700/2724 28004KT P6SM BKN250 FM270400 18003KT
                       P6SM BKN250 FM271600 18008KT P6SM BKN250=
201508261720 TAF KBLI 261720Z 2618/2718 18003KT P6SM BKN250 FM262200 24005KT
                       P6SM BKN250 FM270400 18004KT P6SM BKN250
                       FM271400 18008KT P6SM BKN250=
201508261120 TAF KBLI 261120Z 2612/2712 00000KT P6SM SCT250 FM262000 24005KT
                       P6SM BKN250 FM270300 00000KT P6SM BKN250
                       FM270900 17004KT P6SM BKN250=
201508260522 TAF KBLI 260522Z 2606/2706 00000KT P6SM SKC FM262000 24005KT P6SM
                       BKN250 FM270300 00000KT P6SM BKN250=
201508252320 TAF KBLI 252320Z 2600/2624 25005KT P6SM SCT250 FM260300 00000KT
                       P6SM SCT250 FM261700 22006KT P6SM SCT250=
201508251720 TAF KBLI 251720Z 2518/2618 25005KT P6SM BKN250 FM260300 00000KT
                       P6SM SCT250 FM261700 19005KT P6SM SCT250=
201508251120 TAF KBLI 251120Z 2512/2612 00000KT P6SM SCT250 FM251900 23006KT
                       P6SM SCT250 FM260400 17003KT P6SM BKN250=
201508250520 TAF KBLI 250520Z 2506/2606 17005KT P6SM SCT250 FM251900 23006KT
                       P6SM SCT250=
201508242320 TAF KBLI 242320Z 2500/2524 18010KT P6SM BKN250 FM250500 18006KT
                       P6SM SCT250 FM251900 23006KT P6SM SCT250=
201508241720 TAF KBLI 241720Z 2418/2518 18010KT P6SM BKN250=
201508241121 TAF KBLI 241121Z 2412/2512 17009KT P6SM BKN250=
201508240558 TAF AMD KBLI 240558Z 2406/2506 17011KT P6SM BKN250=
201508240523 TAF KBLI 240523Z 2406/2506 17006KT P6SM BKN250 FM241800 17010KT
                       P6SM BKN250=
201508240309 TAF AMD KBLI 240309Z 2403/2424 VRB03KT P6SM BKN200 FM241800 17007KT
                       P6SM SCT250=
201508232320 TAF KBLI 232320Z 2400/2424 VRB04KT 5SM FU SCT250 FM241800 17007KT
                       P6SM SCT250=
201508231720 TAF KBLI 231720Z 2318/2418 VRB03KT P6SM SCT250 FM232000 20006KT
                       P6SM SCT250 FM240200 17006KT P6SM SCT250=
201508231132 TAF KBLI 231132Z 2312/2412 VRB03KT P6SM SCT060 FM231800 VRB03KT
                       P6SM SCT090 FM232000 23006KT P6SM SCT250
                       FM240200 17006KT P6SM SCT250=
201508230915 TAF AMD KBLI 230915Z 2309/2406 VRB03KT P6SM SCT060 FM231800 VRB03KT
                       P6SM SCT090 FM232000 23006KT P6SM SCT250
                       FM240200 17006KT P6SM SCT250=
201508230540 TAF KBLI 230540Z 2306/2406 VRB03KT P6SM SCT060
                      TEMPO 2306/2309 6SM FU VV060 FM230900 VRB03KT
                       4SM FU VV040 FM231800 VRB03KT 6SM FU SCT090
                       FM232000 23006KT P6SM SCT250 FM240200 17006KT
                       P6SM SCT250=
201508230303 TAF AMD KBLI 230303Z 2303/2324 VRB03KT P6SM SCT050
                      TEMPO 2303/2306 6SM FU VV020 FM230600 VRB03KT
                       2SM FU VV015 FM231900 22006KT P6SM SKC=
201508230143 TAF AMD KBLI 230143Z 2302/2324 VRB03KT 6SM FU VV015 FM230600 VRB03KT
                       2SM FU VV015 FM231900 22006KT P6SM SKC=
201508222320 TAF KBLI 222320Z 2300/2324 28005KT P6SM FEW015 FM230300 VRB03KT
                       P6SM SKC FM231900 22006KT P6SM SKC=
201508221720 TAF KBLI 221720Z 2218/2318 VRB04KT P6SM FEW070 FM222000 25006KT
                       P6SM SKC FM230300 VRB03KT P6SM SKC=
201508221124 TAF KBLI 221124Z 2212/2312 02004KT P6SM SCT250 FM222000 25006KT
                       P6SM SCT250 FM230100 VRB03KT P6SM SKC=
201508220529 TAF KBLI 220529Z 2206/2306 VRB03KT P6SM SKC FM222000 25006KT P6SM
                       SKC FM230100 VRB03KT P6SM SKC=
201508212320 TAF KBLI 212320Z 2200/2224 18007KT P6SM SCT050 FM220300 VRB03KT
                       P6SM SKC=
201508211720 TAF KBLI 211720Z 2118/2218 16010KT P6SM VCSH SCT030 OVC050 FM212000
                       19009KT P6SM FEW035 BKN050 FM212200 19007KT
                       P6SM SCT050 SCT250 FM220100 VRB03KT P6SM
                       SKC=
201508211217 TAF AMD KBLI 211217Z 2112/2212 16008KT P6SM VCSH FEW020 BKN035
                       OVC050
                      TEMPO 2112/2116 BKN020 OVC035 FM211800 17013KT
                       P6SM VCSH BKN028 OVC050 FM212000 19009KT
                       P6SM SCT035 BKN050 FM212200 19007KT P6SM
                       SCT050 SCT250 FM220100 VRB03KT P6SM SKC=
201508211131 TAF KBLI 211131Z 2112/2212 17013KT P6SM VCSH OVC015
                      TEMPO 2112/2116 3SM -DZ BR OVC007 FM211800
                       17013KT P6SM VCSH BKN028 OVC050 FM212000
                       19009KT P6SM SCT035 BKN050 FM212200 19007KT
                       P6SM SCT050 SCT250 FM220100 VRB03KT P6SM
                       SKC=
201508210921 TAF AMD KBLI 210921Z 2109/2206 17013KT P6SM SCT025 OVC050
                      TEMPO 2109/2112 17013G23KT BKN025 OVC050
                       FM211200 17013KT P6SM OVC020
                      TEMPO 2113/2117 5SM -DZ BR OVC010 FM211800
                       17013KT P6SM BKN030 BKN050 FM212100 19009KT
                       P6SM FEW035 SCT050 FM220100 17004KT P6SM
                       SCT250=
201508210900 TAF AMD KBLI 210900Z 2109/2206 17013KT P6SM SCT035 OVC070
                      TEMPO 2109/2112 17013G23KT FM211200 17013KT
                       P6SM OVC025
                      TEMPO 2113/2117 5SM -DZ BR OVC010 FM211800
                       17013KT P6SM BKN030 BKN050 FM212100 19009KT
                       P6SM FEW035 SCT050 FM220100 17004KT P6SM
                       SCT250=
201508210708 TAF AMD KBLI 210708Z 2107/2206 17013KT P6SM FEW035 OVC050 FM210900
                       17013KT P6SM OVC035 FM211200 17009KT P6SM
                       OVC025
                      TEMPO 2113/2117 5SM -DZ BR OVC010 FM211800
                       17013KT P6SM BKN030 BKN050 FM212100 19009KT
                       P6SM FEW035 SCT050 FM220100 17004KT P6SM
                       SCT250=
201508210544 TAF KBLI 210544Z 2106/2206 17007KT P6SM FEW035 OVC050 FM210900
                       17009KT P6SM OVC035 FM211200 17009KT P6SM
                       OVC025
                      TEMPO 2113/2117 5SM -DZ BR OVC010 FM211800
                       17013KT P6SM BKN030 BKN050 FM212100 19009KT
                       P6SM FEW035 SCT050 FM220100 17004KT P6SM
                       SCT250=
201508202320 TAF KBLI 202320Z 2100/2124 17009KT P6SM SCT050 FM210900 17008KT
                       P6SM OVC025 FM211200 18010KT 5SM -DZ BR
                       OVC018 FM211800 18008KT P6SM BKN025 FM212000
                       18010KT P6SM SCT035=
201508201720 TAF KBLI 201720Z 2018/2118 17007KT P6SM SCT020 OVC030 FM202100
                       17010KT P6SM BKN035 BKN250 FM211000 17008KT
                       P6SM OVC025=
201508201132 TAF KBLI 201132Z 2012/2112 17009KT P6SM SCT015
                      TEMPO 2012/2014 BKN015 FM201400 17009KT P6SM
                       OVC015 FM201800 17015KT P6SM OVC022 FM202100
                       17015KT P6SM SCT035 BKN250 FM210600 17010KT
                       P6SM BKN035 BKN250 FM210900 17008KT P6SM
                       OVC025=
201508200609 TAF AMD KBLI 200609Z 2006/2106 17006KT P6SM SKC FM201200 17009KT
                       P6SM FEW015 FM201500 17015KT P6SM OVC011
                       FM202000 17015KT P6SM BKN025 BKN250 FM202200
                       17015KT P6SM SCT035 BKN250=
201508200545 TAF KBLI 200545Z 2006/2106 17005KT P6SM SKC
                      TEMPO 2012/2016 5SM BR BKN010 FM201600 19007KT
                       P6SM SCT025
                      TEMPO 2016/2018 BKN022 FM201900 17009KT P6SM
                       SCT035=
201508192320 TAF KBLI 192320Z 2000/2024 17005KT P6SM SKC
                      TEMPO 2012/2016 5SM BR BKN010 FM201600 19007KT
                       P6SM SCT025
                      TEMPO 2016/2018 BKN022 FM201900 17009KT P6SM
                       SCT035=
201508191720 TAF KBLI 191720Z 1918/2018 16004KT P6SM SKC
                      TEMPO 2012/2016 5SM BR BKN010 FM201700 19007KT
                       P6SM SCT025=
201508191130 TAF KBLI 191130Z 1912/2012 00000KT P6SM SKC FM191900 20007KT P6SM
                       SKC=
201508190525 TAF KBLI 190525Z 1906/2006 00000KT P6SM SKC FM191500 19007KT P6SM
                       SKC=
201508182320 TAF KBLI 182320Z 1900/1924 28007KT P6SM SKC FM190300 00000KT P6SM
                       SKC FM191500 19007KT P6SM SKC=
201508181720 TAF KBLI 181720Z 1818/1918 35006KT P6SM SKC FM182100 30008KT P6SM
                       SKC FM190300 00000KT P6SM SKC FM191500 18005KT
                       P6SM SKC=
201508181120 TAF KBLI 181120Z 1812/1912 16003KT P6SM SKC FM181600 35006KT P6SM
                       SKC FM190300 00000KT P6SM SKC=
201508180524 TAF KBLI 180524Z 1806/1906 00000KT P6SM SKC FM181600 35006KT P6SM
                       SKC=
201508172321 TAF KBLI 172321Z 1800/1824 26006KT P6SM SCT250 FM180400 00000KT
                       P6SM SCT250 FM181600 35006KT P6SM SKC=
201508171720 TAF KBLI 171720Z 1718/1818 20004KT P6SM SKC FM172000 26006KT P6SM
                       SKC FM180400 VRB03KT P6SM SKC=
201508171130 TAF KBLI 171130Z 1712/1812 20003KT P6SM SKC FM172000 27006KT P6SM
                       SKC FM180600 00000KT P6SM SKC=
201508170520 TAF KBLI 170520Z 1706/1806 18003KT P6SM SKC=
201508162320 TAF KBLI 162320Z 1700/1724 25005KT P6SM SKC FM170400 VRB03KT P6SM
                       SKC FM171800 19004KT P6SM SKC=
201508161720 TAF KBLI 161720Z 1618/1718 VRB03KT P6SM SCT021 SCT050 FM162100
                       22006KT P6SM SKC FM170300 VRB02KT P6SM SKC=
201508161120 TAF KBLI 161120Z 1612/1712 00000KT P6SM OVC060 FM161800 23007KT
                       P6SM SCT060 FM170000 23005KT P6SM SKC=
201508160520 TAF KBLI 160520Z 1606/1706 18003KT P6SM BKN060 FM160900 00000KT
                       P6SM SCT080 FM161500 18006KT P6SM SKC FM162000
                       20007KT P6SM SKC=
201508152324 TAF KBLI 152324Z 1600/1624 19006KT P6SM OVC080 FM160600 00000KT
                       P6SM SCT080 FM161500 18006KT P6SM SKC FM162000
                       20007KT P6SM SKC=
201508151720 TAF KBLI 151720Z 1518/1618 17009KT P6SM OVC080 FM152200 18010KT
                       P6SM SCT080 FM160600 00000KT P6SM SCT250=
201508151609 TAF AMD KBLI 151609Z 1516/1612 17006KT P6SM OVC070 FM152200 18010KT
                       P6SM SCT070 FM160600 00000KT P6SM SCT250=
201508151120 TAF KBLI 151120Z 1512/1612 17012G18KT P6SM SCT025 OVC070
                      TEMPO 1513/1517 OVC025 FM151900 18010KT P6SM
                       SCT025 BKN050 FM160600 00000KT P6SM SCT250=
201508150530 TAF KBLI 150530Z 1506/1606 16006KT P6SM OVC045 FM151000 18014G20KT
                       P6SM SCT015 OVC045 FM151200 18012KT P6SM
                       OVC018 FM151900 18010KT P6SM SCT025 BKN050=
201508142329 TAF KBLI 142329Z 1500/1524 17013G22KT P6SM -RA SCT008 OVC090 FM150500
                       18014G20KT P6SM SCT015 OVC050 FM151000 18012KT
                       P6SM OVC018 FM151900 18010KT P6SM SCT025
                       BKN050=
201508141726 TAF KBLI 141726Z 1418/1518 17009KT P6SM SCT008 BKN013 OVC040 FM142200
                       18014G20KT P6SM -SHRA VCTS BKN025CB OVC040
                       FM150500 18014G20KT P6SM OVC025 FM151000
                       18010KT P6SM OVC018=
201508141510 TAF AMD KBLI 141510Z 1415/1512 17009G16KT P6SM -SHRA FEW016 BKN110
                       FM141800 18010KT P6SM -SHRA BKN040 BKN060
                       BKN250 FM142100 18014G20KT P6SM -SHRA VCTS
                       BKN025CB OVC040 FM150300 17014G20KT P6SM
                       OVC025=
201508141122 TAF KBLI 141122Z 1412/1512 17006KT P6SM SCT060 BKN150 FM141800
                       18010KT P6SM -SHRA BKN040 BKN060 BKN250
                       FM142100 18014G20KT P6SM -SHRA BKN025 OVC040
                       FM150300 17014G20KT P6SM OVC025=
201508140520 TAF KBLI 140520Z 1406/1506 17007KT P6SM SCT250 FM141400 17008KT
                       P6SM SCT060 BKN250 FM141800 18010KT P6SM
                       VCSH BKN040 BKN060 BKN250 FM142100 18012KT
                       P6SM -SHRA BKN025 OVC040=
201508132326 TAF KBLI 132326Z 1400/1424 20004KT P6SM SKC FM140600 18004KT P6SM
                       SCT250 FM141400 17008KT P6SM SCT060 BKN250
                       FM142000 18010KT P6SM VCSH BKN040 BKN060
                       BKN250=
201508131727 TAF KBLI 131727Z 1318/1418 17005KT P6SM SKC FM132000 23006KT P6SM
                       SKC FM140900 18004KT P6SM SCT250 FM141400
                       17008KT P6SM BKN060 BKN250=
201508131120 TAF KBLI 131120Z 1312/1412 17007KT P6SM SCT250 FM132000 23006KT
                       P6SM SCT250 FM140300 18004KT P6SM SCT250=
201508130521 TAF KBLI 130521Z 1306/1406 16005KT P6SM SCT250 FM132000 23006KT
                       P6SM SCT250 FM140300 18004KT P6SM SCT250=
201508122320 TAF KBLI 122320Z 1300/1324 22004KT P6SM VCTS FEW060CB BKN150 BKN250
                       TEMPO 1300/1303 -TSRA SCT040CB FM130400
                       18005KT P6SM BKN150 BKN250 FM130700 17006KT
                       P6SM SCT250=
201508121723 TAF KBLI 121723Z 1218/1318 22004KT P6SM SCT250 FM122000 20006KT
                       P6SM SCT120 BKN250 FM130600 18005KT P6SM
                       SCT250=
201508121120 TAF KBLI 121120Z 1212/1312 00000KT P6SM SCT250 FM121800 27006KT
                       P6SM FEW120 BKN250 FM130200 19005KT P6SM
                       BKN250=
201508120520 TAF KBLI 120520Z 1206/1306 00000KT P6SM BKN250 FM121800 27006KT
                       P6SM FEW120 BKN250 FM130200 19005KT P6SM
                       BKN250=
201508112320 TAF KBLI 112320Z 1200/1224 27006KT P6SM FEW150 BKN250 FM120400
                       20004KT P6SM SCT250 FM121800 27006KT P6SM
                       FEW120 BKN250=
201508111725 TAF KBLI 111725Z 1118/1218 VRB04KT P6SM SCT250 FM112200 27006KT
                       P6SM SCT090 BKN250 FM120400 19005KT P6SM
                       SCT250=
201508111122 TAF KBLI 111122Z 1112/1212 00000KT P6SM BKN250 FM112000 27006KT
                       P6SM FEW090 SCT250 FM120300 19005KT P6SM
                       SCT250=
201508110522 TAF KBLI 110522Z 1106/1206 00000KT P6SM BKN250 FM112000 25006KT
                       P6SM SCT250=
201508102330 TAF KBLI 102330Z 1100/1124 31005KT P6SM SCT090 BKN200 FM110500
                       VRB03KT P6SM SCT200=
201508101726 TAF KBLI 101726Z 1018/1118 00000KT P6SM BKN100 BKN250 FM102100
                       29004KT P6SM BKN250=
201508101120 TAF KBLI 101120Z 1012/1112 VRB04KT P6SM VCSH BKN080 OVC150 FM102000
                       VRB04KT P6SM SCT050 SCT150 FM110500 VRB04KT
                       P6SM VCSH BKN050 OVC120=
201508100520 TAF KBLI 100520Z 1006/1106 VRB03KT P6SM SCT060 BKN120 BKN200 FM102000
                       21007KT P6SM SCT050 SCT200=
201508092320 TAF KBLI 092320Z 1000/1024 29008KT P6SM SCT200=
201508091730 TAF KBLI 091730Z 0918/1018 16009KT P6SM SCT025=
201508091120 TAF KBLI 091120Z 0912/1012 18012KT P6SM SCT025
                      TEMPO 0912/0916 BKN025 FM091800 23006KT P6SM
                       SCT025 SCT050 FM100000 VRB04KT P6SM SCT050=
201508091005 TAF AMD KBLI 091005Z 0910/1006 18012KT P6SM SCT015
                      TEMPO 0912/0916 BKN015 FM091800 23006KT P6SM
                       SCT025 SCT050 FM100000 VRB04KT P6SM SCT050=
201508090520 TAF KBLI 090520Z 0906/1006 17008KT P6SM VCSH BKN040 BKN100 FM091000
                       18008KT P6SM BKN020 OVC040 FM091800 23006KT
                       P6SM SCT025 BKN050=
201508082321 TAF KBLI 082321Z 0900/0924 16006KT P6SM VCSH SCT025 OVC050 FM090700
                       18006KT P6SM OVC050 FM091700 17007KT P6SM
                       BKN050=
201508081728 TAF KBLI 081728Z 0818/0918 18008KT P6SM BKN060 OVC080 FM082300
                       18005KT P6SM VCSH OVC050 FM091200 17008KT
                       P6SM OVC025 FM091700 17007KT P6SM OVC050=
201508081501 TAF AMD KBLI 081501Z 0815/0912 17009G15KT P6SM FEW016 OVC080
                      TEMPO 0815/0816 BKN008 FM081600 18007KT P6SM
                       BKN015 FM082100 21007KT P6SM BKN025 FM090000
                       21007KT P6SM -SHRA BKN025 OVC050=
201508081120 TAF KBLI 081120Z 0812/0912 18005KT P6SM SCT008
                      TEMPO 0812/0816 BKN008 FM081600 18007KT P6SM
                       BKN015 FM082100 21007KT P6SM BKN025 FM090000
                       21007KT P6SM -SHRA BKN025 OVC050=
201508080520 TAF KBLI 080520Z 0806/0906 18006KT P6SM FEW050 FM081200 18006KT
                       P6SM BKN020 FM081700 19005KT P6SM VCSH OVC025=
201508072326 TAF KBLI 072326Z 0800/0824 19007KT P6SM SKC FM080900 18004KT P6SM
                       OVC100 FM081400 17006KT P6SM OVC050=
201508071727 TAF KBLI 071727Z 0718/0818 18004KT P6SM FEW250 FM080000 21006KT
                       P6SM SCT050 BKN150 FM081100 18008KT P6SM
                       BKN020 BKN050=
201508071120 TAF KBLI 071120Z 0712/0812 VRB03KT P6SM SCT250 FM080000 21006KT
                       P6SM SCT050 BKN150 FM081100 18008KT P6SM
                       BKN020 BKN050=
201508070520 TAF KBLI 070520Z 0706/0806 17004KT P6SM SCT250 FM071900 18008KT
                       P6SM BKN080 BKN200=
201508062320 TAF KBLI 062320Z 0700/0724 35007KT P6SM SCT045 BKN060 FM070400
                       17004KT P6SM SCT250 FM071900 18008KT P6SM
                       BKN080 BKN200=
201508061720 TAF KBLI 061720Z 0618/0718 17007KT P6SM FEW040 OVC060 FM062000
                       18008KT P6SM FEW040 SCT050 FM070400 17004KT
                       P6SM SCT250=
201508061616 TAF AMD KBLI 061616Z 0616/0712 17007KT P6SM SCT014 OVC060 FM061900
                       22005KT P6SM SCT030 BKN050 FM070000 30005KT
                       P6SM SCT050 BKN150 FM071100 VRB04KT P6SM
                       BKN025=
201508061120 TAF KBLI 061120Z 0612/0712 18005KT P6SM SCT020 BKN040 FM061600
                       18005KT P6SM BKN025 BKN050 FM061800 22005KT
                       P6SM SCT030 BKN050 FM070000 30005KT P6SM
                       SCT050 BKN150 FM071100 VRB04KT P6SM BKN025=
201508060520 TAF KBLI 060520Z 0606/0706 16008KT P6SM BKN040 BKN080 FM060900
                       16006KT P6SM BKN030 BKN050 FM061800 18007KT
                       P6SM SCT030 BKN050=
201508052328 TAF KBLI 052328Z 0600/0624 16009KT P6SM -SHRA SCT025 OVC040 FM060900
                       16006KT P6SM VCSH OVC025 FM061800 18007KT
                       P6SM SCT030 BKN050=
201508052123 TAF AMD KBLI 052123Z 0521/0618 17006G14KT P6SM -RA OVC045 FM060000
                       16009KT P6SM -SHRA SCT025 OVC040 FM060900
                       16006KT P6SM VCSH OVC025=
201508051734 TAF KBLI 051734Z 0518/0618 16012G18KT P6SM -SHRA OVC025 FM060000
                       16009KT P6SM -SHRA OVC025 FM060900 16006KT
                       P6SM VCSH OVC025=
201508051631 TAF AMD KBLI 051631Z 0517/0612 16010G19KT P6SM -SHRA BKN025 OVC050
                       FM060400 18006KT P6SM BKN030 OVC050=
201508051401 TAF AMD KBLI 051401Z 0514/0612 16013G22KT P6SM BKN017 OVC060 FM052000
                       17012KT P6SM -SHRA BKN030 OVC050 FM060400
                       18006KT P6SM BKN030 OVC050=
201508051301 TAF AMD KBLI 051301Z 0513/0612 16012G20KT P6SM BKN050 OVC080 FM052000
                       17012KT P6SM -SHRA BKN030 OVC050 FM060400
                       18006KT P6SM BKN030 OVC050=
201508051124 TAF KBLI 051124Z 0512/0612 18007KT P6SM SCT080 FM051500 17012KT
                       P6SM SCT050 OVC080 FM052000 17012KT P6SM
                       -SHRA BKN030 OVC050 FM060400 18006KT P6SM
                       BKN030 OVC050=
201508050525 TAF KBLI 050525Z 0506/0606 18010KT P6SM SCT200 FM051500 18007KT
                       P6SM BKN030 BKN050 FM052000 17010KT P6SM
                       -RA BKN025 BKN050 FM060200 19005KT P6SM
                       OVC025=
201508042329 TAF KBLI 042329Z 0500/0524 18006KT P6SM SKC FM050600 18007KT P6SM
                       BKN030 BKN050 FM051800 18012KT P6SM VCSH
                       BKN030 BKN050=
201508041724 TAF KBLI 041724Z 0418/0518 18006KT P6SM FEW050 SCT200 FM042100
                       19006KT P6SM FEW050 SCT200 FM050600 18007KT
                       P6SM BKN050=
201508041120 TAF KBLI 041120Z 0412/0512 18006KT P6SM SCT070 FM042100 19006KT
                       P6SM SCT250 FM050600 18007KT P6SM BKN050=
201508040520 TAF KBLI 040520Z 0406/0506 18008KT P6SM SCT250 FM041400 18006KT
                       P6SM SCT015 SCT050 FM041800 18008KT P6SM
                       SCT050 SCT250=
201508032320 TAF KBLI 032320Z 0400/0424 16011G19KT P6SM SCT200 FM040200 18010KT
                       P6SM BKN200 FM040600 18010KT P6SM SCT050
                       BKN100 FM041200 18010KT P6SM SCT020 BKN050
                       FM041800 17010G17KT P6SM SCT050 SCT100=
201508031729 TAF KBLI 031729Z 0318/0418 16010G14KT P6SM SCT200 FM040100 18010KT
                       P6SM BKN200 FM040600 18010KT P6SM SCT050
                       BKN100 FM041200 18010KT P6SM SCT020 BKN050=
201508031120 TAF KBLI 031120Z 0312/0412 19006KT P6SM BKN200 FM031700 18010G18KT
                       P6SM SCT200 FM040600 18010KT P6SM SCT050=
201508030521 TAF KBLI 030521Z 0306/0406 19006KT P6SM BKN200 FM032000 18011G18KT
                       P6SM SCT200=
201508022330 TAF KBLI 022330Z 0300/0324 19006KT P6SM SCT250 FM032100 18011KT
                       P6SM SCT250=
201508021735 TAF KBLI 021735Z 0218/0318 14007KT P6SM FEW120 BKN250 FM022000
                       23007KT P6SM SCT120 BKN250 FM030300 18005KT
                       P6SM SCT120 BKN250=
201508021120 TAF KBLI 021120Z 0212/0312 19003KT P6SM SCT200 FM021800 23007KT
                       P6SM SCT150 FM030300 18005KT P6SM SCT150=
201508020520 TAF KBLI 020520Z 0206/0306 19003KT P6SM SKC FM021800 23006KT P6SM
                       SCT150 FM030300 18005KT P6SM SCT150=
201508012330 TAF KBLI 012330Z 0200/0224 26006KT P6SM SKC FM020300 19003KT P6SM
                       SKC FM022100 23006KT P6SM SKC=
201508011726 TAF KBLI 011726Z 0118/0218 16005KT P6SM SKC FM011900 25007KT P6SM
                       SKC FM020300 19003KT P6SM SKC=
201508011120 TAF KBLI 011120Z 0112/0212 00000KT P6SM SKC FM011400 18004KT P6SM
                       SKC FM011900 25007KT P6SM SKC FM020300 19003KT
                       P6SM SKC=
201508010524 TAF KBLI 010524Z 0106/0206 00000KT P6SM SKC FM011400 18005KT P6SM
                       SKC FM012000 25005KT P6SM SKC=