##########################################################
# Query made at 02/16/2025 21:05:35 UTC
# Time interval: from 09/01/2015 00:00  to 09/30/2015 23:59  UTC
##########################################################

##########################################################
# KBLI, Bellingham, Bellingham International Airport (United States)
# WMO index: -----. WIGOS ID: Unknown
# Latitude 48-47-58N. Longitude 122-32-21W. Altitude 48 m.
##########################################################

###################################
#  METAR/SPECI from KBLI
###################################
201509302353 METAR KBLI 302353Z 27004KT 10SM CLR 18/10 A2997 RMK AO2 SLP155 T01830100 10194 20144 56003=
201509302253 METAR KBLI 302253Z 23004KT 10SM CLR 18/11 A2997 RMK AO2 SLP156 T01830111=
201509302153 METAR KBLI 302153Z 20005KT 10SM CLR 18/11 A2997 RMK AO2 SLP155 T01830111=
201509302053 METAR KBLI 302053Z 00000KT 10SM CLR 19/09 A2998 RMK AO2 SLP159 T01890094 58014=
201509301953 METAR KBLI 301953Z 21005KT 10SM CLR 17/09 A2999 RMK AO2 SLP164 T01670094=
201509301853 METAR KBLI 301853Z 16004KT 10SM CLR 16/09 A3001 RMK AO2 SLP169 T01610089=
201509301753 METAR KBLI 301753Z 15005KT 10SM CLR 14/09 A3002 RMK AO2 SLP173 P0001 60001 T01440089 10144 20061 51006=
201509301653 METAR KBLI 301653Z 00000KT 10SM CLR 13/11 A3002 RMK AO2 SLP171 T01330111=
201509301553 METAR KBLI 301553Z 00000KT 10SM CLR 11/10 A3001 RMK AO2 SLP169 T01060100=
201509301525 SPECI KBLI 301525Z 00000KT 9SM SCT001 09/09 A3001 RMK AO2=
201509301503 SPECI KBLI 301503Z 00000KT 9SM R16/2200VP6000FT SCT001 08/08 A3000 RMK AO2=
201509301455 SPECI KBLI 301455Z 00000KT 1SM R16/1000V3000FT BR VV001 08/08 A3000 RMK AO2=
201509301453 METAR KBLI 301453Z 00000KT 1/4SM R16/1000V1800FT FG VV001 08/08 A3000 RMK AO2 SLP167 T00830078 51008=
201509301434 SPECI KBLI 301434Z 00000KT M1/4SM R16/0500V1400FT FG VV001 08/08 A3000 RMK AO2=
201509301353 METAR KBLI 301353Z 00000KT 1/4SM R16/1400V1600FT FG VV002 07/07 A2999 RMK AO2 SLP163 T00670067=
201509301323 SPECI KBLI 301323Z 00000KT 1/2SM R16/2000VP6000FT FG VV002 06/06 A2998 RMK AO2=
201509301318 SPECI KBLI 301318Z 00000KT 1 3/4SM R16/2600VP6000FT BR OVC001 06/06 A2998 RMK AO2 VIS 1V5=
201509301306 SPECI KBLI 301306Z 00000KT 4SM BR OVC001 06/06 A2998 RMK AO2=
201509301303 SPECI KBLI 301303Z 00000KT 1SM R16/P6000FT BR VV001 06/06 A2998 RMK AO2=
201509301253 METAR KBLI 301253Z 00000KT 1/4SM R16/P6000FT FG VV001 07/06 A2998 RMK AO2 SLP159 T00670061=
201509301241 SPECI KBLI 301241Z 00000KT 1/2SM R16/1400VP6000FT FG VV002 06/06 A2998 RMK AO2 VIS M1/4V5=
201509301235 SPECI KBLI 301235Z 00000KT 1 3/4SM R16/1400V2400FT BR OVC002 07/06 A2998 RMK AO2=
201509301232 SPECI KBLI 301232Z 00000KT 4SM R16/1400VP6000FT BR OVC002 07/06 A2998 RMK AO2=
201509301218 SPECI KBLI 301218Z 00000KT 1 3/4SM R16/2800VP6000FT BR OVC003 07/06 A2998 RMK AO2 VIS 1/2V5=
201509301208 SPECI KBLI 301208Z 00000KT 10SM BKN003 07/06 A2997 RMK AO2=
201509301153 METAR KBLI 301153Z 00000KT 10SM FEW003 07/06 A2997 RMK AO2 SLP157 T00720061 10100 20067 53006=
201509301144 SPECI KBLI 301144Z 00000KT 3SM BR FEW003 07/06 A2997 RMK AO2=
201509301140 SPECI KBLI 301140Z 00000KT 1 1/4SM BR FEW003 07/06 A2997 RMK AO2=
201509301127 SPECI KBLI 301127Z 00000KT 3/4SM R16/P6000FT BR VV003 07/06 A2997 RMK AO2=
201509301114 SPECI KBLI 301114Z 00000KT 1 3/4SM BR FEW003 07/06 A2997 RMK AO2=
201509301053 METAR KBLI 301053Z 00000KT 7SM SCT001 07/06 A2997 RMK AO2 SLP155 T00720061=
201509301025 SPECI KBLI 301025Z 00000KT 3SM R16/4000VP6000FT BR BKN001 08/07 A2996 RMK AO2=
201509301018 SPECI KBLI 301018Z 00000KT 1 3/4SM R16/3000VP6000FT BR BKN001 08/07 A2996 RMK AO2 VIS 1 1/4V5=
201509301010 SPECI KBLI 301010Z 00000KT 7SM R16/1600VP6000FT BKN001 07/06 A2996 RMK AO2=
201509301002 SPECI KBLI 301002Z 00000KT 1 1/4SM R16/1800VP6000FT BR BKN001 08/07 A2996 RMK AO2=
201509300953 METAR KBLI 300953Z 00000KT 1/2SM R16/2000VP6000FT FG VV001 07/07 A2996 RMK AO2 SLP152 T00720067=
201509300940 SPECI KBLI 300940Z 00000KT 3/4SM R16/P6000FT BR VV001 08/07 A2996 RMK AO2=
201509300936 SPECI KBLI 300936Z 00000KT 1 1/2SM BR BKN002 07/07 A2996 RMK AO2 VIS 1/2V5=
201509300853 METAR KBLI 300853Z 00000KT 10SM BKN002 08/07 A2995 RMK AO2 SLP150 T00830072 51006=
201509300834 SPECI KBLI 300834Z 00000KT 4SM R16/5500VP6000FT BR SCT002 08/07 A2995 RMK AO2=
201509300831 SPECI KBLI 300831Z 00000KT 1 3/4SM R16/4500VP6000FT BR SCT002 08/07 A2995 RMK AO2=
201509300824 SPECI KBLI 300824Z 00000KT 2SM R16/3500VP6000FT BR FEW002 08/08 A2995 RMK AO2 VIS 1/2V5=
201509300753 METAR KBLI 300753Z 00000KT 10SM R16/3500VP6000FT CLR 09/08 A2995 RMK AO2 SLP149 T00890083 402000050=
201509300653 METAR KBLI 300653Z 00000KT 9SM R16/4500VP6000FT CLR 09/08 A2994 RMK AO2 SLP147 T00890078=
201509300553 METAR KBLI 300553Z 00000KT 10SM CLR 10/08 A2994 RMK AO2 SLP144 T01000083 10189 20100 51009=
201509300453 METAR KBLI 300453Z 00000KT 10SM CLR 11/09 A2993 RMK AO2 SLP141 T01060094=
201509300400 METAR KBLI NIL=
201509300353 METAR KBLI 300353Z 00000KT 10SM CLR 11/09 A2992 RMK AO2 SLP139 T01110089=
201509300253 METAR KBLI 300253Z 00000KT 10SM CLR 12/10 A2991 RMK AO2 SLP136 T01170100 53002=
201509300153 METAR KBLI 300153Z 00000KT 10SM CLR 14/11 A2990 RMK AO2 SLP132 T01440111=
201509300053 METAR KBLI 300053Z 26003KT 10SM CLR 18/11 A2990 RMK AO2 SLP130 T01830111=
201509292353 METAR KBLI 292353Z 29003KT 10SM CLR 19/12 A2990 RMK AO2 SLP133 T01890117 10200 20161 58012=
201509292253 METAR KBLI 292253Z 29004KT 10SM CLR 19/12 A2991 RMK AO2 SLP136 T01890117=
201509292153 METAR KBLI 292153Z VRB06KT 10SM CLR 19/11 A2993 RMK AO2 SLP141 T01890111=
201509292053 METAR KBLI 292053Z 30005KT 10SM CLR 19/12 A2994 RMK AO2 SLP145 T01940122 58012=
201509291953 METAR KBLI 291953Z 00000KT 10SM CLR 19/10 A2995 RMK AO2 SLP150 T01940100=
201509291853 METAR KBLI 291853Z 00000KT 10SM CLR 18/10 A2997 RMK AO2 SLP154 T01780100=
201509291753 METAR KBLI 291753Z 36005KT 5SM HZ CLR 16/09 A2997 RMK AO2 SLP156 T01560094 10161 20050 51003 $=
201509291653 METAR KBLI 291653Z 34004KT 10SM CLR 13/09 A2997 RMK AO2 SLP156 T01330094=
201509291553 METAR KBLI 291553Z 00000KT 10SM FEW002 11/09 A2997 RMK AO2 SLP155 T01060089=
201509291502 SPECI KBLI 291502Z 00000KT 10SM FEW002 07/06 A2997 RMK AO2=
201509291453 METAR KBLI 291453Z 00000KT 10SM BKN002 06/05 A2996 RMK AO2 SLP154 T00560050 53004=
201509291421 SPECI KBLI 291421Z 00000KT 10SM FEW002 06/05 A2996 RMK AO2=
201509291353 METAR KBLI 291353Z 00000KT 9SM R16/3000VP6000FT CLR 06/05 A2996 RMK AO2 SLP151 T00560050=
201509291253 METAR KBLI 291253Z 34003KT 10SM SCT001 06/05 A2995 RMK AO2 SLP149 T00610050=
201509291248 SPECI KBLI 291248Z 34003KT 10SM SCT001 06/05 A2995 RMK AO2=
201509291241 SPECI KBLI 291241Z 00000KT 1SM R16/2400VP6000FT BR VV001 06/05 A2995 RMK AO2=
201509291239 SPECI KBLI 291239Z 00000KT 1/2SM R16/2400VP6000FT FG VV001 06/05 A2995 RMK AO2=
201509291231 SPECI KBLI 291231Z 00000KT 3/4SM R16/2400VP6000FT BR VV001 06/05 A2995 RMK AO2=
201509291229 SPECI KBLI 291229Z 00000KT 1 1/2SM R16/3000VP6000FT BR BKN002 06/05 A2995 RMK AO2=
201509291221 SPECI KBLI 291221Z 00000KT 10SM BKN002 06/04 A2995 RMK AO2=
201509291153 METAR KBLI 291153Z 00000KT 10SM SCT002 06/05 A2995 RMK AO2 SLP149 60001 70001 T00560050 10094 20050 58001=
201509291149 SPECI KBLI 291149Z 00000KT 3SM BR BKN002 06/05 A2995 RMK AO2=
201509291143 SPECI KBLI 291143Z 00000KT 1SM R16/4500VP6000FT BR VV002 06/05 A2995 RMK AO2=
201509291132 SPECI KBLI 291132Z 00000KT 1/2SM R16/2600VP6000FT FG VV002 06/06 A2995 RMK AO2=
201509291127 SPECI KBLI 291127Z 00000KT 1 1/2SM R16/2600VP6000FT BR BKN002 06/06 A2995 RMK AO2=
201509291125 SPECI KBLI 291125Z 00000KT 3SM R16/2600VP6000FT BR BKN002 06/05 A2995 RMK AO2=
201509291119 SPECI KBLI 291119Z 00000KT 2SM R16/5000VP6000FT BR FEW002 06/05 A2995 RMK AO2=
201509291104 SPECI KBLI 291104Z 00000KT 1 3/4SM BR CLR 06/06 A2995 RMK AO2=
201509291053 METAR KBLI 291053Z 00000KT 9SM CLR 06/06 A2995 RMK AO2 SLP150 T00560056=
201509291011 SPECI KBLI 291011Z 00000KT 10SM SCT002 07/06 A2995 RMK AO2=
201509291002 SPECI KBLI 291002Z 00000KT 2SM R16/3500VP6000FT BR BKN002 07/06 A2995 RMK AO2=
201509290953 METAR KBLI 290953Z 00000KT 3SM BR SCT002 07/06 A2995 RMK AO2 SLP150 T00670061=
201509290950 SPECI KBLI 290950Z 00000KT 2 1/2SM BR FEW002 07/06 A2995 RMK AO2 VIS 1V5=
201509290931 SPECI KBLI 290931Z 00000KT 3SM BR FEW002 07/06 A2996 RMK AO2=
201509290901 SPECI KBLI 290901Z 00000KT 3SM BR CLR 07/06 A2996 RMK AO2=
201509290853 METAR KBLI 290853Z 00000KT 1 1/2SM BR CLR 07/07 A2995 RMK AO2 SLP150 60001 T00720067 58003=
201509290829 SPECI KBLI 290829Z 00000KT 3SM BR CLR 08/07 A2995 RMK AO2=
201509290826 SPECI KBLI 290826Z 00000KT 1 1/4SM BR FEW002 08/07 A2995 RMK AO2=
201509290819 SPECI KBLI 290819Z 00000KT 3/4SM R16/4500VP6000FT BR VV002 08/07 A2996 RMK AO2=
201509290809 SPECI KBLI 290809Z 00000KT 1 3/4SM R16/6000VP6000FT BR CLR 08/07 A2996 RMK AO2 VIS 1V5=
201509290753 METAR KBLI 290753Z 00000KT 10SM CLR 08/07 A2996 RMK AO2 SLP151 P0001 T00830072 402060033=
201509290653 METAR KBLI 290653Z 00000KT 10SM CLR 08/07 A2996 RMK AO2 SLP152 T00830072=
201509290553 METAR KBLI 290553Z 00000KT 9SM CLR 09/08 A2996 RMK AO2 SLP153 T00890083 10194 20089 51001=
201509290453 METAR KBLI 290453Z 00000KT 10SM CLR 09/08 A2996 RMK AO2 SLP152 T00940083=
201509290353 METAR KBLI 290353Z 00000KT 10SM CLR 11/09 A2996 RMK AO2 SLP153 T01060094=
201509290253 METAR KBLI 290253Z 00000KT 10SM CLR 11/09 A2996 RMK AO2 SLP153 T01110094 55004=
201509290153 METAR KBLI 290153Z 00000KT 10SM CLR 14/11 A2996 RMK AO2 SLP152 T01440106=
201509290053 METAR KBLI 290053Z 30003KT 10SM CLR 18/08 A2996 RMK AO2 SLP153 T01830083=
201509282353 METAR KBLI 282353Z 29007KT 10SM CLR 19/08 A2997 RMK AO2 SLP156 T01940083 10206 20144 56016=
201509282253 METAR KBLI 282253Z 27006KT 10SM CLR 19/09 A2998 RMK AO2 SLP160 T01890094=
201509282153 METAR KBLI 282153Z 26006KT 10SM CLR 19/10 A3000 RMK AO2 SLP165 T01890100=
201509282053 METAR KBLI 282053Z 02006KT 10SM CLR 21/09 A3002 RMK AO2 SLP173 T02060089 58022=
201509281953 METAR KBLI 281953Z 00000KT 10SM CLR 19/09 A3004 RMK AO2 SLP181 T01890089=
201509281853 METAR KBLI 281853Z 03003KT 10SM CLR 17/09 A3007 RMK AO2 SLP189 T01720089=
201509281753 METAR KBLI 281753Z 01005KT 10SM CLR 14/08 A3009 RMK AO2 SLP195 T01440083 10144 20033 58003=
201509281653 METAR KBLI 281653Z 35003KT 10SM R16/6000FT CLR 12/09 A3009 RMK AO2 SLP196 T01220089=
201509281553 METAR KBLI 281553Z 00000KT 10SM R16/6000FT CLR 10/08 A3010 RMK AO2 SLP199 T01000083=
201509281453 METAR KBLI 281453Z 00000KT 10SM R16/6000FT FEW002 05/04 A3010 RMK AO2 SLP199 T00500044 51003=
201509281353 METAR KBLI 281353Z 00000KT 10SM R16/6000FT FEW003 04/03 A3009 RMK AO2 SLP198 T00440033=
201509281348 SPECI KBLI 281348Z 00000KT 10SM R16/6000FT FEW003 04/04 A3009 RMK AO2=
201509281341 SPECI KBLI 281341Z 00000KT 1 1/4SM R16/2600VP6000FT BR CLR 04/03 A3009 RMK AO2=
201509281337 SPECI KBLI 281337Z 00000KT 9SM R16/2600VP6000FT CLR 04/03 A3009 RMK AO2=
201509281328 SPECI KBLI 281328Z 00000KT 2SM R16/2600VP6000FT BR CLR 04/03 A3009 RMK AO2 VIS 3/4V5=
201509281253 METAR KBLI 281253Z 00000KT 10SM R16/3000VP6000FT CLR 05/04 A3009 RMK AO2 SLP195 T00500039=
201509281230 SPECI KBLI 281230Z 00000KT 10SM FEW003 04/03 A3008 RMK AO2=
201509281153 METAR KBLI 281153Z 00000KT 10SM CLR 04/04 A3009 RMK AO2 SLP197 T00440039 10078 20033 58004=
201509281141 SPECI KBLI 281141Z 00000KT 9SM FEW002 04/03 A3009 RMK AO2=
201509281119 SPECI KBLI 281119Z 00000KT 3SM BR CLR 04/03 A3010 RMK AO2=
201509281053 METAR KBLI 281053Z 00000KT 1 1/4SM R16/3500VP6000FT BR CLR 05/04 A3010 RMK AO2 SLP200 T00500044=
201509281051 SPECI KBLI 281051Z 00000KT 1 3/4SM R16/3500VP6000FT BR CLR 05/04 A3010 RMK AO2 VIS 1V5=
201509280953 METAR KBLI 280953Z 00000KT 5SM BR CLR 05/04 A3011 RMK AO2 SLP202 T00500044=
201509280900 SPECI KBLI 280900Z 00000KT 10SM CLR 06/04 A3010 RMK AO2=
201509280853 METAR KBLI 280853Z 00000KT 2SM BR CLR 06/05 A3010 RMK AO2 SLP201 T00560050 55003=
201509280753 METAR KBLI 280753Z 00000KT 4SM BR CLR 06/05 A3010 RMK AO2 SLP201 T00560050 401610022=
201509280653 METAR KBLI 280653Z 00000KT 10SM CLR 06/06 A3011 RMK AO2 SLP204 T00610056=
201509280553 METAR KBLI 280553Z 00000KT 10SM CLR 08/07 A3012 RMK AO2 SLP205 T00780067 10156 20067 54000=
201509280453 METAR KBLI 280453Z 00000KT 10SM CLR 08/06 A3012 RMK AO2 SLP207 T00780061=
201509280353 METAR KBLI 280353Z 00000KT 10SM CLR 08/07 A3012 RMK AO2 SLP206 T00780067=
201509280253 METAR KBLI 280253Z 00000KT 10SM CLR 09/07 A3012 RMK AO2 SLP207 T00890067 56005=
201509280153 METAR KBLI 280153Z 00000KT 10SM CLR 11/07 A3012 RMK AO2 SLP207 T01110072=
201509280053 METAR KBLI 280053Z 28003KT 10SM CLR 15/05 A3012 RMK AO2 SLP208 T01500050=
201509272353 METAR KBLI 272353Z 31007KT 10SM CLR 16/08 A3013 RMK AO2 SLP212 T01560078 10161 20128 56015=
201509272253 METAR KBLI 272253Z 29007KT 10SM CLR 16/08 A3014 RMK AO2 SLP214 T01560083=
201509272153 METAR KBLI 272153Z 27007KT 10SM CLR 14/08 A3016 RMK AO2 SLP222 T01440078=
201509272053 METAR KBLI 272053Z 27008KT 10SM FEW030 14/08 A3018 RMK AO2 SLP227 T01440078 58016=
201509271953 METAR KBLI 271953Z 31004KT 10SM FEW028 15/07 A3020 RMK AO2 SLP233 T01500072=
201509271853 METAR KBLI 271853Z VRB03KT 10SM CLR 14/08 A3021 RMK AO2 SLP237 T01440078=
201509271753 METAR KBLI 271753Z 35005KT 10SM CLR 13/07 A3023 RMK AO2 SLP242 T01280072 10128 20022 51002=
201509271653 METAR KBLI 271653Z 00000KT 10SM SCT005 10/07 A3022 RMK AO2 SLP243 T01000072=
201509271626 SPECI KBLI 271626Z 02003KT 10SM FEW005 08/07 A3022 RMK AO2=
201509271619 SPECI KBLI 271619Z 36003KT 10SM BKN005 08/07 A3022 RMK AO2=
201509271610 SPECI KBLI 271610Z 00000KT 10SM SCT005 08/06 A3022 RMK AO2=
201509271553 METAR KBLI 271553Z 00000KT 10SM CLR 07/06 A3022 RMK AO2 SLP242 T00670056=
201509271453 METAR KBLI 271453Z 00000KT 10SM CLR 04/04 A3022 RMK AO2 SLP241 T00390039 53005=
201509271353 METAR KBLI 271353Z 00000KT 9SM CLR 03/02 A3021 RMK AO2 SLP238 T00280022=
201509271253 METAR KBLI 271253Z AUTO 00000KT 10SM CLR 03/02 A3020 RMK AO2 SLP235 T00330022=
201509271153 METAR KBLI 271153Z AUTO 00000KT 10SM CLR 03/02 A3020 RMK AO2 SLP235 70004 T00330022 10072 20033 58003=
201509271140 SPECI KBLI 271140Z AUTO 00000KT 3SM BR CLR 03/02 A3020 RMK AO2=
201509271130 SPECI KBLI 271130Z AUTO 00000KT 1 3/4SM R16/2600VP6000FT BR CLR 04/03 A3020 RMK AO2=
201509271127 SPECI KBLI 271127Z AUTO 00000KT 3SM R16/4000VP6000FT BR CLR 04/03 A3020 RMK AO2=
201509271118 SPECI KBLI 271118Z AUTO 00000KT 2SM R16/3000VP6000FT BR CLR 04/03 A3020 RMK AO2 VIS 1V5=
201509271053 METAR KBLI 271053Z AUTO 00000KT 10SM R16/5500VP6000FT CLR 04/04 A3021 RMK AO2 SLP236 T00440039=
201509270953 METAR KBLI 270953Z AUTO 00000KT 10SM CLR 04/03 A3021 RMK AO2 SLP238 T00440033=
201509270853 METAR KBLI 270853Z AUTO 00000KT 10SM CLR 04/04 A3021 RMK AO2 SLP238 T00440039 55001=
201509270835 SPECI KBLI 270835Z AUTO 00000KT 3SM BR FEW002 04/04 A3021 RMK AO2=
201509270828 SPECI KBLI 270828Z AUTO 00000KT 1 1/4SM BR FEW002 04/04 A3021 RMK AO2=
201509270821 SPECI KBLI 270821Z AUTO 00000KT 2SM BR FEW002 04/04 A3021 RMK AO2 VIS 1V5=
201509270808 SPECI KBLI 270808Z AUTO 00000KT 1 3/4SM BR CLR 05/04 A3021 RMK AO2 VIS 1V5=
201509270753 METAR KBLI 270753Z AUTO 00000KT 10SM CLR 06/04 A3021 RMK AO2 SLP237 T00560044 401610050=
201509270653 METAR KBLI 270653Z AUTO 00000KT 10SM CLR 07/06 A3021 RMK AO2 SLP237 T00670056=
201509270553 METAR KBLI 270553Z AUTO 00000KT 9SM CLR 07/06 A3021 RMK AO2 SLP239 T00670061 10156 20067 51006=
201509270453 METAR KBLI 270453Z 00000KT 10SM CLR 07/06 A3021 RMK AO2 SLP237 T00720061=
201509270353 METAR KBLI 270353Z 00000KT 10SM CLR 08/07 A3020 RMK AO2 PK WND 03052/0305 SLP235 T00830067=
201509270253 METAR KBLI 270253Z 14003KT 10SM CLR 09/08 A3019 RMK AO2 SLP232 T00940078 51003=
201509270153 METAR KBLI 270153Z 00000KT 10SM CLR 11/09 A3019 RMK AO2 SLP232 T01110089=
201509270053 METAR KBLI 270053Z 00000KT 10SM CLR 14/07 A3019 RMK AO2 SLP230 T01440072=
201509262353 METAR KBLI 262353Z 27005KT 10SM CLR 15/07 A3018 RMK AO2 SLP228 T01500067 10161 20122 56002=
201509262253 METAR KBLI 262253Z VRB05KT 10SM CLR 16/06 A3019 RMK AO2 SLP229 T01610061=
201509262153 METAR KBLI 262153Z 25008KT 10SM SCT024 SCT029 16/06 A3019 RMK AO2 SLP229 T01560056=
201509262053 METAR KBLI 262053Z VRB03KT 10SM FEW015 SCT022 SCT065 14/08 A3019 RMK AO2 SLP230 T01440083 50004=
201509262037 SPECI KBLI 262037Z VRB04KT 10SM FEW015 SCT022 SCT065 14/09 A3019 RMK AO2=
201509262000 SPECI KBLI 262000Z VRB04KT 10SM SCT019 BKN026 OVC031 14/11 A3019 RMK AO2=
201509261953 METAR KBLI 261953Z 17005KT 10SM SCT026 BKN031 13/10 A3019 RMK AO2 SLP230 T01330100=
201509261907 SPECI KBLI 261907Z VRB03KT 10SM FEW012 OVC031 13/11 A3019 RMK AO2=
201509261853 METAR KBLI 261853Z VRB04KT 10SM FEW009 BKN015 OVC031 13/11 A3019 RMK AO2 SLP229 T01280106=
201509261828 SPECI KBLI 261828Z VRB03KT 10SM FEW008 SCT019 OVC029 12/11 A3018 RMK AO2=
201509261808 SPECI KBLI 261808Z VRB04KT 10SM SCT012 OVC031 12/11 A3018 RMK AO2=
201509261753 METAR KBLI 261753Z 18003KT 10SM SCT005 BKN010 OVC014 12/11 A3018 RMK AO2 RAE24 SLP226 P0002 60004 T01220111 10122 20100 51018=
201509261712 SPECI KBLI 261712Z VRB05KT 6SM -RA BR SCT003 BKN010 OVC014 12/11 A3017 RMK AO2 P0002=
201509261653 METAR KBLI 261653Z 20006KT 6SM -RA BR BKN010 OVC016 12/11 A3016 RMK AO2 RAB40 SLP220 P0002 T01170106=
201509261630 SPECI KBLI 261630Z 20004KT 10SM OVC010 12/11 A3015 RMK AO2 CIG 007V013=
201509261603 SPECI KBLI 261603Z 00000KT 9SM BKN008 BKN043 BKN075 12/11 A3014 RMK AO2=
201509261553 METAR KBLI 261553Z 00000KT 7SM SCT006 BKN026 BKN040 11/10 A3014 RMK AO2 SLP214 T01110100=
201509261514 SPECI KBLI 261514Z 15004KT 10SM SCT006 SCT040 BKN065 12/10 A3013 RMK AO2=
201509261453 METAR KBLI 261453Z 00000KT 8SM OVC006 12/10 A3012 RMK AO2 SLP208 T01170100 51013=
201509261353 METAR KBLI 261353Z AUTO 15003KT 8SM OVC006 11/10 A3011 RMK AO2 SLP204 T01110100=
201509261253 METAR KBLI 261253Z AUTO 00000KT 7SM OVC006 10/09 A3010 RMK AO2 SLP199 T01000094=
201509261200 SPECI KBLI 261200Z AUTO 00000KT 7SM OVC005 11/10 A3009 RMK AO2 CIG 004V008=
201509261153 METAR KBLI 261153Z AUTO 00000KT 6SM BR OVC003 11/10 A3009 RMK AO2 SLP195 60001 70004 T01060100 10106 20072 53007=
201509261132 SPECI KBLI 261132Z AUTO 00000KT 5SM BR OVC003 11/10 A3008 RMK AO2=
201509261122 SPECI KBLI 261122Z AUTO 00000KT 2 1/2SM R16/5500VP6000FT BR OVC003 11/10 A3008 RMK AO2=
201509261111 SPECI KBLI 261111Z AUTO 00000KT 1 3/4SM R16/4500V6000FT BR OVC003 11/11 A3008 RMK AO2=
201509261057 SPECI KBLI 261057Z AUTO 00000KT 3SM BR BKN003 OVC007 09/08 A3008 RMK AO2=
201509261053 METAR KBLI 261053Z AUTO 00000KT 1 1/4SM R16/2600VP6000FT BR BKN003 BKN007 08/08 A3008 RMK AO2 SLP191 P0001 T00830078=
201509261050 SPECI KBLI 261050Z AUTO 00000KT 1SM R16/1800VP6000FT BR BKN003 BKN007 08/07 A3008 RMK AO2 VIS 1/2V2 1/2 P0001=
201509261044 SPECI KBLI 261044Z AUTO 00000KT 3/4SM R16/1800V2800FT BR FEW003 BKN007 07/07 A3008 RMK AO2 P0001=
201509261031 SPECI KBLI 261031Z AUTO 00000KT 1 1/4SM R16/1600V4000FT BR BKN005 BKN020 08/07 A3007 RMK AO2 P0001=
201509261021 SPECI KBLI 261021Z AUTO 00000KT 2SM R16/2200VP6000FT BR BKN005 BKN020 08/08 A3007 RMK AO2 P0001=
201509261013 SPECI KBLI 261013Z AUTO 00000KT 1 3/4SM R16/2200VP6000FT BR FEW005 BKN020 08/07 A3007 RMK AO2 P0001=
201509260953 METAR KBLI 260953Z AUTO 00000KT 6SM BR OVC020 10/09 A3007 RMK AO2 SLP190 T01000089=
201509260913 SPECI KBLI 260913Z AUTO 00000KT 3SM R16/2400VP6000FT BR BKN020 09/08 A3007 RMK AO2=
201509260906 SPECI KBLI 260906Z AUTO 00000KT 2 1/2SM R16/2400VP6000FT BR SCT020 08/08 A3007 RMK AO2=
201509260853 METAR KBLI 260853Z AUTO 00000KT 1 1/4SM R16/2600VP6000FT BR FEW021 09/08 A3006 RMK AO2 SLP187 T00890078 51005=
201509260850 SPECI KBLI 260850Z AUTO 00000KT 1 1/2SM R16/2600VP6000FT BR FEW021 09/08 A3006 RMK AO2=
201509260843 SPECI KBLI 260843Z AUTO 00000KT 8SM FEW021 08/07 A3006 RMK AO2=
201509260828 SPECI KBLI 260828Z AUTO 00000KT 3SM BR BKN021 09/08 A3006 RMK AO2=
201509260818 SPECI KBLI 260818Z AUTO 00000KT 3/4SM R16/5000VP6000FT BR FEW002 BKN021 09/08 A3006 RMK AO2=
201509260813 SPECI KBLI 260813Z AUTO 00000KT 1 3/4SM R16/4000VP6000FT BR BKN021 09/08 A3006 RMK AO2=
201509260753 METAR KBLI 260753Z AUTO 00000KT 10SM BKN019 09/08 A3006 RMK AO2 SLP186 T00940083 401610078=
201509260743 SPECI KBLI 260743Z AUTO 00000KT 10SM BKN019 09/08 A3006 RMK AO2=
201509260730 SPECI KBLI 260730Z AUTO 00000KT 2 1/2SM R16/4500VP6000FT BR BKN019 08/08 A3006 RMK AO2=
201509260726 SPECI KBLI 260726Z AUTO 00000KT 7SM R16/4500VP6000FT SCT019 09/08 A3006 RMK AO2=
201509260706 SPECI KBLI 260706Z AUTO 00000KT 2 1/2SM BR CLR 09/08 A3006 RMK AO2=
201509260653 METAR KBLI 260653Z AUTO 00000KT 7SM CLR 08/08 A3006 RMK AO2 SLP186 T00780078=
201509260640 SPECI KBLI 260640Z AUTO 00000KT 1 3/4SM BR CLR 08/07 A3005 RMK AO2 VIS 1V5=
201509260622 SPECI KBLI 260622Z AUTO 00000KT 3SM BR CLR 09/08 A3005 RMK AO2=
201509260600 METAR KBLI NIL=
201509260553 METAR KBLI 260553Z AUTO 00000KT 2SM BR CLR 09/08 A3005 RMK AO2 SLP183 T00940083 10156 20089 53001=
201509260453 METAR KBLI 260453Z 00000KT 9SM CLR 11/10 A3005 RMK AO2 SLP182 T01060100=
201509260353 METAR KBLI 260353Z 00000KT 10SM CLR 11/10 A3004 RMK AO2 SLP181 T01110100=
201509260253 METAR KBLI 260253Z 00000KT 10SM CLR 13/12 A3005 RMK AO2 SLP182 T01280117 55002=
201509260153 METAR KBLI 260153Z 00000KT 10SM CLR 14/12 A3004 RMK AO2 SLP181 T01440122=
201509260053 METAR KBLI 260053Z 00000KT 10SM OVC100 15/12 A3005 RMK AO2 SLP183 T01500117=
201509260012 SPECI KBLI 260012Z VRB03KT 10SM SCT019 OVC095 15/12 A3005 RMK AO2=
201509260000 SPECI KBLI 260000Z 26003KT 10SM BKN019 OVC095 16/12 A3005 RMK AO2=
201509252353 METAR KBLI 252353Z 28003KT 10SM FEW019 SCT025 BKN100 16/12 A3005 RMK AO2 SLP184 60000 T01560122 10161 20133 57001=
201509252253 METAR KBLI 252253Z 00000KT 10SM FEW041 OVC090 16/11 A3005 RMK AO2 SLP183 T01560111=
201509252208 SPECI KBLI 252208Z 28003KT 10SM FEW014 BKN060 OVC085 15/12 A3006 RMK AO2=
201509252153 METAR KBLI 252153Z VRB03KT 10SM SCT014 BKN021 OVC085 16/12 A3006 RMK AO2 SLP184 T01560122=
201509252126 SPECI KBLI 252126Z 32003KT 10SM SCT014 OVC080 16/12 A3006 RMK AO2=
201509252053 METAR KBLI 252053Z 00000KT 10SM BKN012 BKN017 OVC080 16/12 A3006 RMK AO2 RAE19 SLP184 P0000 60000 T01560122 50001=
201509252034 SPECI KBLI 252034Z 02003KT 10SM BKN012 BKN016 OVC085 15/12 A3006 RMK AO2 RAE19 P0000=
201509251953 METAR KBLI 251953Z 00000KT 10SM -RA FEW010 SCT049 OVC090 14/12 A3006 RMK AO2 RAE02B33 SLP185 P0000 T01440122=
201509251853 METAR KBLI 251853Z 01003KT 10SM -RA FEW006 BKN050 OVC085 14/12 A3006 RMK AO2 SLP184 P0000 T01390122=
201509251753 METAR KBLI 251753Z 02003KT 5SM -RA BR FEW005 OVC045 13/12 A3005 RMK AO2 SLP184 P0000 60003 T01330122 10133 20122 51009=
201509251720 SPECI KBLI 251720Z 36003KT 6SM -RA BR SCT004 BKN050 OVC090 13/12 A3005 RMK AO2 P0000=
201509251653 METAR KBLI 251653Z 35004KT 10SM -RA OVC095 13/12 A3005 RMK AO2 SLP182 P0001 T01330122=
201509251553 METAR KBLI 251553Z 00000KT 10SM -RA OVC090 13/12 A3004 RMK AO2 SLP179 P0000 T01280117=
201509251453 METAR KBLI 251453Z 34003KT 10SM -RA OVC075 12/12 A3003 RMK AO2 RAE15B51 SLP175 P0001 60002 T01220117 53000=
201509251353 METAR KBLI 251353Z 31004KT 10SM -RA OVC080 12/12 A3002 RMK AO2 PK WND 02058/1308 RAB14 SLP173 P0001 T01220117=
201509251253 METAR KBLI 251253Z 33004KT 10SM OVC070 12/12 A3002 RMK AO2 SLP170 T01220117 $=
201509251153 METAR KBLI 251153Z VRB03KT 10SM OVC070 12/12 A3003 RMK AO2 RAE04 SLP174 P0000 60008 70028 T01220117 10139 20122 56012 $=
201509251053 METAR KBLI 251053Z 08005KT 10SM -RA OVC070 13/11 A3003 RMK AO2 RAB41 SLP174 P0000 T01330111=
201509250953 METAR KBLI 250953Z 00000KT 10SM OVC070 13/12 A3005 RMK AO2 RAE09 SLP182 P0000 T01330122=
201509250853 METAR KBLI 250853Z 11004KT 10SM -RA OVC070 14/12 A3006 RMK AO2 RAE00B17 SLP185 P0003 60008 T01390122 51003=
201509250753 METAR KBLI 250753Z 10004KT 10SM -RA OVC065 14/13 A3005 RMK AO2 SLP181 P0001 T01390128 402110111=
201509250653 METAR KBLI 250653Z 16003KT 8SM -RA FEW044 OVC055 14/13 A3007 RMK AO2 SLP187 P0004 T01390133=
201509250553 METAR KBLI 250553Z 00000KT 3SM RA BR FEW016 BKN036 OVC045 14/13 A3005 RMK AO2 SLP182 P0019 60020 T01390133 10189 20139 53009=
201509250516 SPECI KBLI 250516Z 00000KT 3SM RA BR FEW007 BKN037 OVC045 14/13 A3005 RMK AO2 P0011=
201509250508 SPECI KBLI 250508Z 00000KT 2 1/2SM +RA BR SCT007 OVC039 14/13 A3005 RMK AO2 P0007=
201509250453 METAR KBLI 250453Z 00000KT 10SM -RA BKN007 OVC039 14/13 A3003 RMK AO2 RAB38 SLP177 P0001 T01440128=
201509250405 SPECI KBLI 250405Z VRB03KT 10SM FEW009 BKN013 OVC037 14/13 A3003 RMK AO2=
201509250353 METAR KBLI 250353Z 30003KT 10SM SCT015 OVC035 14/13 A3002 RMK AO2 SLP174 T01440128=
201509250253 METAR KBLI 250253Z 31003KT 10SM OVC065 16/12 A2999 RMK AO2 SLP163 T01560122 53009=
201509250153 METAR KBLI 250153Z 33003KT 10SM OVC070 16/12 A2998 RMK AO2 SLP157 T01610122=
201509250053 METAR KBLI 250053Z 31005KT 10SM OVC050 17/12 A2998 RMK AO2 SLP157 T01720122=
201509242353 METAR KBLI 242353Z 29004KT 10SM BKN048 OVC090 19/12 A2996 RMK AO2 RAB14E23 SLP152 P0000 60000 T01890117 10211 20144 53004=
201509242253 METAR KBLI 242253Z VRB03KT 10SM OVC090 20/11 A2995 RMK AO2 SLP148 T02000111=
201509242153 METAR KBLI 242153Z 17007KT 10SM BKN085 OVC110 20/11 A2994 RMK AO2 SLP146 T02000111=
201509242053 METAR KBLI 242053Z 00000KT 10SM OVC090 19/11 A2995 RMK AO2 SLP149 T01940111 58000=
201509241953 METAR KBLI 241953Z 21003KT 10SM FEW049 OVC100 19/11 A2996 RMK AO2 SLP152 T01890106=
201509241853 METAR KBLI 241853Z VRB03KT 10SM SCT100 17/11 A2997 RMK AO2 SLP153 T01670106=
201509241753 METAR KBLI 241753Z 00000KT 10SM FEW050 BKN100 BKN110 14/11 A2995 RMK AO2 SLP149 60000 T01440111 10144 20111 53002=
201509241653 METAR KBLI 241653Z 00000KT 10SM OVC100 13/11 A2993 RMK AO2 RAB17E19 SLP144 P0000 T01330106=
201509241600 METAR KBLI NIL=
201509241553 METAR KBLI 241553Z 00000KT 10SM OVC110 13/10 A2994 RMK AO2 SLP144 T01280100=
201509241453 METAR KBLI 241453Z 00000KT 10SM OVC110 12/09 A2995 RMK AO2 SLP148 T01170094 57004=
201509241353 METAR KBLI 241353Z 00000KT 10SM FEW120 12/09 A2995 RMK AO2 SLP148 T01170094=
201509241253 METAR KBLI 241253Z 35003KT 10SM SCT120 12/09 A2996 RMK AO2 SLP151 T01170094=
201509241153 METAR KBLI 241153Z 00000KT 10SM CLR 11/09 A2996 RMK AO2 SLP151 T01110094 10167 20111 58023=
201509241100 METAR KBLI NIL=
201509241053 METAR KBLI 241053Z 36003KT 10SM FEW060 12/09 A2999 RMK AO2 SLP161 T01170094=
201509240953 METAR KBLI 240953Z 00000KT 10SM FEW060 12/09 A3002 RMK AO2 SLP171 T01170094=
201509240853 METAR KBLI 240853Z 00000KT 10SM FEW055 12/10 A3003 RMK AO2 SLP174 T01170100 50001=
201509240753 METAR KBLI 240753Z 00000KT 10SM FEW060 13/10 A3003 RMK AO2 SLP175 T01280100 402060044=
201509240653 METAR KBLI 240653Z 35004KT 10SM OVC075 13/10 A3003 RMK AO2 SLP176 T01330100=
201509240553 METAR KBLI 240553Z 18004KT 10SM FEW080 16/10 A3002 RMK AO2 SLP173 T01560100 10194 20111 51008=
201509240453 METAR KBLI 240453Z 00000KT 10SM FEW090 12/09 A3001 RMK AO2 SLP170 T01170094=
201509240400 METAR KBLI NIL=
201509240353 METAR KBLI 240353Z 00000KT 10SM BKN100 13/09 A3002 RMK AO2 SLP171 T01280094=
201509240253 METAR KBLI 240253Z 00000KT 10SM SCT080 BKN100 13/09 A3000 RMK AO2 SLP166 T01330094 53003=
201509240153 METAR KBLI 240153Z 06003KT 10SM BKN100 17/08 A2999 RMK AO2 SLP162 T01670083=
201509240053 METAR KBLI 240053Z 00000KT 10SM SCT070 OVC100 18/09 A3000 RMK AO2 SLP165 T01830089=
201509232353 METAR KBLI 232353Z 33004KT 10SM SCT100 18/08 A2999 RMK AO2 SLP163 T01830083 10206 20144 56009=
201509232253 METAR KBLI 232253Z 35005KT 10SM BKN100 20/08 A3000 RMK AO2 SLP164 T02000083=
201509232153 METAR KBLI 232153Z 15003KT 10SM FEW100 19/07 A3001 RMK AO2 SLP168 T01890072=
201509232053 METAR KBLI 232053Z 03004KT 10SM CLR 19/07 A3002 RMK AO2 SLP172 T01940072 58008=
201509232000 METAR KBLI NIL=
201509231953 METAR KBLI 231953Z 00000KT 10SM CLR 18/08 A3003 RMK AO2 SLP177 T01780078=
201509231900 METAR KBLI NIL=
201509231753 METAR KBLI 231753Z 03004KT 10SM CLR 14/08 A3004 RMK AO2 SLP181 T01440083 10144 20044 50003=
201509231653 METAR KBLI 231653Z 00000KT 10SM CLR 12/08 A3005 RMK AO2 SLP182 T01220078=
201509231553 METAR KBLI 231553Z 00000KT 10SM SCT055 09/07 A3004 RMK AO2 SLP181 T00890067=
201509231453 METAR KBLI 231453Z 00000KT 10SM OVC060 07/06 A3004 RMK AO2 SLP179 T00670056 53012=
201509231353 METAR KBLI 231353Z 00000KT 10SM CLR 04/03 A3003 RMK AO2 SLP175 T00440033=
201509231253 METAR KBLI 231253Z 00000KT 10SM CLR 06/04 A3001 RMK AO2 SLP169 T00560044=
201509231153 METAR KBLI 231153Z 00000KT 10SM CLR 06/04 A3000 RMK AO2 SLP166 T00610044 10083 20050 51009=
201509231053 METAR KBLI 231053Z 00000KT 10SM BKN070 06/04 A2999 RMK AO2 SLP164 T00560044=
201509230953 METAR KBLI 230953Z 00000KT 10SM CLR 06/04 A2999 RMK AO2 SLP161 T00560044=
201509230853 METAR KBLI 230853Z 00000KT 10SM CLR 07/06 A2998 RMK AO2 SLP157 T00670056 53003=
201509230753 METAR KBLI 230753Z 00000KT 10SM CLR 07/06 A2997 RMK AO2 SLP154 T00720061 401720039=
201509230653 METAR KBLI 230653Z 00000KT 7SM CLR 07/06 A2997 RMK AO2 SLP154 T00670056=
201509230553 METAR KBLI 230553Z 00000KT 10SM CLR 08/07 A2997 RMK AO2 SLP154 T00830067 10172 20078 58004=
201509230453 METAR KBLI 230453Z 00000KT 10SM CLR 09/07 A2997 RMK AO2 SLP156 T00890072=
201509230353 METAR KBLI 230353Z 00000KT 10SM CLR 09/08 A2998 RMK AO2 SLP159 T00890078=
201509230253 METAR KBLI 230253Z 18003KT 10SM CLR 12/09 A2998 RMK AO2 SLP160 T01170089 56002=
201509230153 METAR KBLI 230153Z 00000KT 10SM CLR 13/09 A2998 RMK AO2 SLP161 T01280089=
201509230053 METAR KBLI 230053Z 17004KT 10SM CLR 16/07 A2998 RMK AO2 SLP158 T01560072=
201509222353 METAR KBLI 222353Z 00000KT 10SM CLR 17/08 A2999 RMK AO2 SLP161 T01670078 10172 20128 56010=
201509222253 METAR KBLI 222253Z VRB04KT 10SM CLR 17/08 A3000 RMK AO2 SLP164 T01670083=
201509222200 METAR KBLI NIL=
201509222153 METAR KBLI 222153Z VRB03KT 10SM CLR 16/07 A3001 RMK AO2 SLP167 T01610072=
201509222053 METAR KBLI 222053Z 15007KT 10SM CLR 15/08 A3002 RMK AO2 SLP171 T01500078 58005=
201509221953 METAR KBLI 221953Z 21004KT 10SM CLR 14/09 A3003 RMK AO2 SLP174 T01440089=
201509221853 METAR KBLI 221853Z 17005KT 10SM CLR 14/09 A3003 RMK AO2 SLP177 T01390094=
201509221753 METAR KBLI 221753Z 21004KT 10SM CLR 13/08 A3003 RMK AO2 SLP177 T01330083 10139 20039 51005=
201509221653 METAR KBLI 221653Z 35003KT 10SM CLR 12/08 A3003 RMK AO2 SLP176 T01220083=
201509221553 METAR KBLI 221553Z 00000KT 10SM CLR 09/07 A3002 RMK AO2 SLP175 T00940072=
201509221453 METAR KBLI 221453Z 00000KT 10SM CLR 06/05 A3002 RMK AO2 SLP172 T00610050 53007=
201509221416 SPECI KBLI 221416Z 00000KT 10SM CLR 04/03 A3001 RMK AO2=
201509221405 SPECI KBLI 221405Z 00000KT 1 1/2SM BR CLR 04/03 A3001 RMK AO2=
201509221353 METAR KBLI 221353Z AUTO 00000KT 10SM CLR 04/03 A3000 RMK AO2 SLP168 T00440033=
201509221341 SPECI KBLI 221341Z AUTO 00000KT 10SM CLR 04/03 A3000 RMK AO2=
201509221332 SPECI KBLI 221332Z AUTO 00000KT 2SM BR CLR 04/03 A3000 RMK AO2=
201509221253 METAR KBLI 221253Z AUTO 00000KT 10SM CLR 04/03 A3000 RMK AO2 SLP166 T00440033=
201509221153 METAR KBLI 221153Z AUTO 00000KT 10SM CLR 05/04 A3000 RMK AO2 SLP164 T00500039 10083 20039 53004=
201509221112 SPECI KBLI 221112Z AUTO 01003KT 4SM BR CLR 05/04 A2999 RMK AO2=
201509221102 SPECI KBLI 221102Z AUTO 00000KT 1 3/4SM BR CLR 06/05 A2999 RMK AO2=
201509221053 METAR KBLI 221053Z AUTO 00000KT 10SM CLR 06/06 A2999 RMK AO2 SLP161 T00610056=
201509220953 METAR KBLI 220953Z AUTO 00000KT 10SM CLR 07/06 A2998 RMK AO2 SLP161 T00670056=
201509220853 METAR KBLI 220853Z AUTO 00000KT 9SM CLR 07/06 A2998 RMK AO2 SLP160 T00670056 55001=
201509220753 METAR KBLI 220753Z AUTO 00000KT 10SM CLR 07/06 A2998 RMK AO2 SLP158 T00720056 401670067=
201509220653 METAR KBLI 220653Z AUTO 00000KT 10SM CLR 08/06 A2998 RMK AO2 SLP158 T00780061=
201509220553 METAR KBLI 220553Z AUTO 00000KT 10SM CLR 08/06 A2999 RMK AO2 SLP161 60000 T00780061 10167 20072 56002=
201509220453 METAR KBLI 220453Z 00000KT 10SM CLR 08/07 A2999 RMK AO2 SLP162 T00830067=
201509220353 METAR KBLI 220353Z 00000KT 10SM CLR 09/07 A2999 RMK AO2 SLP163 T00940072=
201509220253 METAR KBLI 220253Z 00000KT 10SM CLR 10/08 A2999 RMK AO2 RAB22E30 SLP164 P0000 60000 T01000078 56015=
201509220153 METAR KBLI 220153Z 27003KT 10SM CLR 13/07 A3001 RMK AO2 SLP168 T01330067=
201509220053 METAR KBLI 220053Z 00000KT 10SM CLR 16/06 A3002 RMK AO2 SLP173 T01560056=
201509212353 METAR KBLI 212353Z 00000KT 10SM CLR 16/06 A3004 RMK AO2 SLP179 T01610061 10167 20139 58017=
201509212253 METAR KBLI 212253Z VRB05KT 10SM CLR 16/07 A3006 RMK AO2 SLP185 T01610067=
201509212153 METAR KBLI 212153Z 29007KT 270V330 10SM CLR 16/07 A3007 RMK AO2 SLP191 T01610072=
201509212053 METAR KBLI 212053Z 28008G14KT 10SM CLR 16/06 A3009 RMK AO2 SLP196 T01560056 58003=
201509211953 METAR KBLI 211953Z 29005KT 10SM CLR 16/07 A3010 RMK AO2 SLP199 T01560067=
201509211853 METAR KBLI 211853Z VRB03KT 10SM CLR 14/08 A3011 RMK AO2 SLP201 T01440083=
201509211753 METAR KBLI 211753Z 32004KT 10SM FEW023 14/09 A3010 RMK AO2 SLP199 T01440089 10144 20078 50001=
201509211719 SPECI KBLI 211719Z VRB03KT 10SM FEW021 14/08 A3011 RMK AO2=
201509211653 METAR KBLI 211653Z 00000KT 10SM SCT021 BKN028 13/08 A3011 RMK AO2 SLP202 T01330083=
201509211553 METAR KBLI 211553Z 00000KT 10SM OVC024 13/08 A3011 RMK AO2 SLP202 T01280083=
201509211453 METAR KBLI 211453Z 00000KT 10SM OVC026 12/10 A3009 RMK AO2 SLP198 T01170100 51014=
201509211353 METAR KBLI 211353Z AUTO 00000KT 10SM OVC026 09/09 A3008 RMK AO2 SLP194 T00940089=
201509211253 METAR KBLI 211253Z AUTO 00000KT 10SM OVC026 09/08 A3007 RMK AO2 SLP189 T00890083=
201509211240 SPECI KBLI 211240Z AUTO 00000KT 10SM BKN026 BKN049 08/08 A3006 RMK AO2=
201509211153 METAR KBLI 211153Z AUTO 00000KT 10SM BKN049 08/08 A3005 RMK AO2 SLP184 P0001 60001 70042 T00830078 10106 20072 51019=
201509211053 METAR KBLI 211053Z AUTO 00000KT 10SM CLR 08/07 A3004 RMK AO2 SLP180 T00830072=
201509211011 SPECI KBLI 211011Z AUTO 00000KT 6SM BR CLR 09/08 A3003 RMK AO2=
201509211002 SPECI KBLI 211002Z AUTO 00000KT 2 1/2SM BR CLR 08/08 A3003 RMK AO2 VIS 1 1/4V5=
201509210953 METAR KBLI 210953Z AUTO 00000KT 1 1/4SM BR CLR 08/07 A3002 RMK AO2 VIS 3/4V3 SLP174 T00780072=
201509210947 SPECI KBLI 210947Z AUTO 00000KT 1 3/4SM BR CLR 08/07 A3002 RMK AO2=
201509210853 METAR KBLI 210853Z AUTO 00000KT 10SM FEW055 09/08 A3000 RMK AO2 SLP165 T00890083 51016=
201509210753 METAR KBLI 210753Z AUTO VRB03KT 10SM BKN050 10/09 A2999 RMK AO2 SLP161 T01000089 401890089=
201509210653 METAR KBLI 210653Z AUTO VRB03KT 10SM CLR 10/09 A2997 RMK AO2 SLP154 T01000089=
201509210553 METAR KBLI 210553Z AUTO 00000KT 10SM CLR 11/09 A2995 RMK AO2 SLP148 60011 T01060094 10150 20106 51019=
201509210453 METAR KBLI 210453Z 00000KT 10SM SCT048 12/10 A2993 RMK AO2 SLP142 T01170100=
201509210353 METAR KBLI 210353Z 00000KT 10SM OVC044 13/12 A2992 RMK AO2 SLP139 T01280117=
201509210253 METAR KBLI 210253Z 00000KT 10SM OVC032 13/11 A2989 RMK AO2 RAE09 SLP129 P0000 60011 T01280111 53019=
201509210153 METAR KBLI 210153Z 20003KT 5SM -RA BR OVC027 13/12 A2987 RMK AO2 SLP120 P0011 T01280117=
201509210053 METAR KBLI 210053Z 22003KT 4SM -RA BR SCT007 BKN023 OVC055 14/13 A2985 RMK AO2 RAB00E21B39 SLP114 P0000 T01390128=
201509202353 METAR KBLI 202353Z 28005KT 3SM BR FEW006 BKN023 OVC043 15/14 A2984 RMK AO2 RAB13E52 SLP109 P0018 60028 T01500139 10189 20150 53009=
201509202253 METAR KBLI 202253Z 16010KT 10SM SCT006 BKN023 OVC047 17/16 A2981 RMK AO2 RAE15 SLP100 P0001 T01720161=
201509202226 SPECI KBLI 202226Z 16009G16KT 10SM FEW004 BKN027 OVC050 18/17 A2980 RMK AO2 RAE15 P0001=
201509202153 METAR KBLI 202153Z 17010G18KT 4SM -RA BR SCT018 BKN023 OVC029 18/17 A2980 RMK AO2 SLP097 P0002 T01780167=
201509202053 METAR KBLI 202053Z 16011KT 5SM -RA BR SCT017 BKN020 OVC029 17/16 A2981 RMK AO2 SLP100 P0002 60007 T01720161 50005=
201509201953 METAR KBLI 201953Z 17012G18KT 5SM -RA BR SCT018 BKN023 OVC038 17/16 A2982 RMK AO2 SLP103 P0002 T01670156=
201509201853 METAR KBLI 201853Z 16013G21KT 8SM -RA BKN019 BKN027 OVC034 17/16 A2982 RMK AO2 RAB14 SLP104 P0003 T01720156=
201509201846 SPECI KBLI 201846Z 17015G21KT 8SM -RA BKN019 BKN027 OVC060 17/16 A2982 RMK AO2 RAB14 P0003=
201509201753 METAR KBLI 201753Z 16015G24KT 10SM FEW025 BKN060 OVC075 19/16 A2979 RMK AO2 PK WND 16026/1743 SLP094 60002 T01890156 10189 20167 58016=
201509201653 METAR KBLI 201653Z 16012G22KT 10SM FEW025 BKN070 OVC100 18/16 A2982 RMK AO2 RAB14E48 SLP104 P0000 T01830156=
201509201553 METAR KBLI 201553Z 17014G21KT 10SM FEW016 BKN055 OVC065 18/16 A2983 RMK AO2 SLP108 T01780156=
201509201453 METAR KBLI 201453Z 16011G16KT 10SM SCT017 OVC032 17/16 A2984 RMK AO2 RAE24 SLP111 P0002 60002 T01670156 55001=
201509201353 METAR KBLI 201353Z 17012G23KT 10SM -RA FEW009 BKN055 OVC065 17/16 A2984 RMK AO2 RAB08E24B41 SLP110 P0000 T01720156=
201509201253 METAR KBLI 201253Z AUTO 17011G17KT 10SM FEW009 OVC035 17/16 A2985 RMK AO2 SLP112 T01720156=
201509201237 SPECI KBLI 201237Z AUTO 17013G17KT 10SM FEW009 BKN043 OVC060 17/16 A2985 RMK AO2=
201509201202 SPECI KBLI 201202Z AUTO 16016G20KT 10SM FEW018 BKN036 OVC100 17/16 A2984 RMK AO2=
201509201153 METAR KBLI 201153Z AUTO 17008G16KT 10SM BKN018 BKN036 OVC100 17/16 A2985 RMK AO2 SLP112 P0001 60004 70015 T01720156 10183 20161 58015=
201509201053 METAR KBLI 201053Z AUTO 16010G16KT 10SM SCT016 BKN028 OVC032 17/15 A2987 RMK AO2 SLP120 T01720150=
201509201020 SPECI KBLI 201020Z AUTO 17013G19KT 10SM FEW009 BKN030 OVC095 17/15 A2988 RMK AO2=
201509200953 METAR KBLI 200953Z AUTO 15007G16KT 10SM FEW009 SCT016 OVC025 17/15 A2989 RMK AO2 SLP128 T01720150=
201509200943 SPECI KBLI 200943Z AUTO 17007KT 10SM FEW007 SCT016 OVC025 17/15 A2989 RMK AO2=
201509200929 SPECI KBLI 200929Z AUTO 17008G16KT 10SM BKN025 OVC031 17/15 A2989 RMK AO2=
201509200900 SPECI KBLI 200900Z AUTO 16011G18KT 10SM FEW018 OVC031 17/15 A2989 RMK AO2=
201509200853 METAR KBLI 200853Z AUTO 17011G16KT 10SM SCT020 BKN029 OVC033 17/15 A2989 RMK AO2 SLP127 60003 T01720150 58001=
201509200830 SPECI KBLI 200830Z AUTO 18011G18KT 10SM FEW018 OVC029 17/15 A2989 RMK AO2=
201509200753 METAR KBLI 200753Z AUTO 17008KT 10SM OVC031 17/15 A2989 RMK AO2 RAE09 SLP128 P0000 T01720150 401940139=
201509200705 SPECI KBLI 200705Z AUTO 17008KT 10SM -RA OVC031 17/15 A2990 RMK AO2 P0000=
201509200653 METAR KBLI 200653Z AUTO 17008KT 10SM -RA OVC029 17/15 A2990 RMK AO2 RAB07 SLP132 P0003 T01670150=
201509200630 SPECI KBLI 200630Z AUTO 18010G17KT 6SM -RA BR BKN029 OVC037 16/15 A2991 RMK AO2 RAB07 P0002=
201509200553 METAR KBLI 200553Z AUTO 18012G23KT 150V210 10SM BKN041 OVC049 18/14 A2989 RMK AO2 SLP129 60000 T01830139 10194 20178 58002=
201509200453 METAR KBLI 200453Z 17011G19KT 10SM BKN043 OVC070 18/14 A2991 RMK AO2 SLP133 T01830139=
201509200353 METAR KBLI 200353Z 18010G21KT 10SM BKN047 BKN055 18/13 A2991 RMK AO2 SLP134 T01830133=
201509200253 METAR KBLI 200253Z 16013G22KT 10SM OVC049 19/13 A2990 RMK AO2 SLP131 60000 T01940133 56015=
201509200153 METAR KBLI 200153Z 16008G15KT 10SM OVC045 19/13 A2990 RMK AO2 SLP132 T01890133=
201509200053 METAR KBLI 200053Z 15009KT 10SM OVC043 18/14 A2992 RMK AO2 RAE2355 SLP137 P0000 T01830139=
201509192353 METAR KBLI 192353Z 14010KT 10SM -RA OVC035 18/14 A2994 RMK AO2 RAB10 SLP146 P0000 60002 T01780139 10183 20156 58009=
201509192253 METAR KBLI 192253Z 15008KT 10SM OVC033 18/14 A2995 RMK AO2 SLP149 T01830139=
201509192200 SPECI KBLI 192200Z 13007KT 10SM OVC039 18/14 A2997 RMK AO2=
201509192153 METAR KBLI 192153Z 14008KT 10SM BKN021 OVC039 18/14 A2997 RMK AO2 RAB04E17 SLP153 P0000 T01780139=
201509192124 SPECI KBLI 192124Z 15013G19KT 10SM SCT023 OVC045 18/14 A2996 RMK AO2 RAB04E17 P0000=
201509192053 METAR KBLI 192053Z 16007KT 10SM OVC021 18/14 A2997 RMK AO2 RAB27E43 SLP155 P0000 60002 T01780139 58007=
201509191953 METAR KBLI 191953Z 16008KT 10SM OVC019 17/14 A2998 RMK AO2 RAE48 SLP159 P0000 T01720144=
201509191930 SPECI KBLI 191930Z 16009KT 10SM BKN019 OVC060 17/14 A2998 RMK AO2 RAE27 P0000=
201509191853 METAR KBLI 191853Z 17008KT 10SM -RA OVC060 16/14 A2999 RMK AO2 SLP161 P0002 T01610139=
201509191753 METAR KBLI 191753Z 16007KT 10SM -RA OVC055 16/14 A2999 RMK AO2 SLP162 P0003 60009 T01560139 10167 20150 56004=
201509191653 METAR KBLI 191653Z 18006KT 10SM -RA OVC055 16/14 A2999 RMK AO2 SLP162 P0005 T01560139=
201509191553 METAR KBLI 191553Z 16005KT 10SM -RA OVC050 16/13 A3000 RMK AO2 SLP164 P0001 T01560133=
201509191453 METAR KBLI 191453Z 21003KT 10SM -RA OVC060 16/13 A3000 RMK AO2 RAE1359B43 SLP166 P0000 60000 T01610128 53000=
201509191353 METAR KBLI 191353Z 18004KT 10SM -RA OVC080 16/12 A3000 RMK AO2 RAB46 SLP165 P0000 T01610122=
201509191253 METAR KBLI 191253Z 18005KT 10SM SCT035 BKN055 BKN110 16/12 A3000 RMK AO2 SLP165 T01610122=
201509191153 METAR KBLI 191153Z 17005KT 10SM SCT037 BKN049 OVC120 16/12 A3000 RMK AO2 SLP165 60000 T01610122 10161 20139 58010=
201509191053 METAR KBLI 191053Z 00000KT 10SM FEW039 BKN047 OVC120 14/13 A3002 RMK AO2 SLP171 T01440128=
201509190953 METAR KBLI 190953Z 00000KT 10SM OVC045 14/12 A3002 RMK AO2 SLP171 T01440122=
201509190853 METAR KBLI 190853Z 00000KT 10SM OVC033 14/13 A3003 RMK AO2 RAB21E30 SLP175 P0000 60000 T01440128 56004=
201509190753 METAR KBLI 190753Z 00000KT 10SM OVC035 15/12 A3003 RMK AO2 SLP176 T01500122 401830122=
201509190653 METAR KBLI 190653Z 00000KT 10SM FEW041 OVC055 15/12 A3004 RMK AO2 SLP178 T01500122=
201509190553 METAR KBLI 190553Z 00000KT 10SM BKN041 OVC070 16/12 A3004 RMK AO2 SLP179 T01560117 10178 20156 58002=
201509190453 METAR KBLI 190453Z 10004KT 10SM OVC043 17/11 A3005 RMK AO2 SLP181 T01670111=
201509190432 SPECI KBLI 190432Z 13006KT 10SM FEW028 OVC044 17/11 A3005 RMK AO2=
201509190353 METAR KBLI 190353Z 12004KT 10SM BKN027 OVC035 17/11 A3006 RMK AO2 SLP185 T01670111=
201509190333 SPECI KBLI 190333Z 15006KT 10SM BKN027 OVC035 17/12 A3006 RMK AO2=
201509190253 METAR KBLI 190253Z 08003KT 10SM BKN037 OVC047 17/11 A3005 RMK AO2 SLP182 T01720106 55004=
201509190153 METAR KBLI 190153Z 04003KT 10SM OVC040 16/13 A3005 RMK AO2 SLP181 T01610128=
201509190053 METAR KBLI 190053Z 00000KT 10SM BKN041 OVC055 17/12 A3005 RMK AO2 SLP182 T01720122=
201509182353 METAR KBLI 182353Z 04005KT 10SM FEW036 SCT043 OVC060 17/12 A3006 RMK AO2 SLP185 60000 T01720122 10183 20167 58010=
201509182253 METAR KBLI 182253Z 01006KT 10SM OVC050 17/12 A3007 RMK AO2 SLP189 T01720122=
201509182153 METAR KBLI 182153Z 11008KT 10SM OVC060 18/11 A3008 RMK AO2 RAB09E25 SLP193 P0000 T01780106=
201509182053 METAR KBLI 182053Z 14007KT 10SM FEW046 OVC070 18/09 A3009 RMK AO2 SLP195 T01830094 55002=
201509181953 METAR KBLI 181953Z 15008KT 10SM OVC075 18/10 A3008 RMK AO2 SLP193 T01780100=
201509181853 METAR KBLI 181853Z 17007KT 10SM OVC090 18/11 A3009 RMK AO2 SLP197 T01780111=
201509181753 METAR KBLI 181753Z 14009G16KT 10SM OVC070 17/11 A3010 RMK AO2 SLP197 T01670111 10167 20139 58001=
201509181653 METAR KBLI 181653Z 16008KT 10SM FEW028 BKN060 OVC080 16/11 A3010 RMK AO2 SLP198 T01610106=
201509181553 METAR KBLI 181553Z 13003KT 10SM OVC050 16/11 A3011 RMK AO2 SLP201 T01560106=
201509181453 METAR KBLI 181453Z 14006KT 10SM OVC055 14/11 A3010 RMK AO2 SLP199 T01440106 53003=
201509181353 METAR KBLI 181353Z 15004KT 10SM OVC090 14/11 A3010 RMK AO2 SLP197 T01390111=
201509181253 METAR KBLI 181253Z 17004KT 10SM BKN100 14/12 A3008 RMK AO2 SLP193 T01390117=
201509181237 SPECI KBLI 181237Z 16004KT 10SM SCT017 BKN100 14/12 A3008 RMK AO2=
201509181153 METAR KBLI 181153Z 15004KT 10SM BKN015 BKN021 14/12 A3009 RMK AO2 RAB22E32 SLP195 P0000 60000 T01390122 10150 20122 50003=
201509181053 METAR KBLI 181053Z 00000KT 10SM OVC029 13/12 A3009 RMK AO2 SLP197 T01330117=
201509181037 SPECI KBLI 181037Z 00000KT 10SM BKN029 13/11 A3009 RMK AO2=
201509180953 METAR KBLI 180953Z 16004KT 10SM BKN080 14/12 A3009 RMK AO2 SLP194 T01440117=
201509180853 METAR KBLI 180853Z 17008KT 10SM OVC036 14/12 A3008 RMK AO2 SLP192 T01440122 51007=
201509180753 METAR KBLI 180753Z 17005KT 10SM BKN038 14/13 A3008 RMK AO2 SLP191 T01440128 401780111=
201509180653 METAR KBLI 180653Z 17005KT 10SM FEW044 14/12 A3007 RMK AO2 SLP189 T01440117=
201509180553 METAR KBLI 180553Z 18004KT 10SM OVC065 15/12 A3006 RMK AO2 SLP185 60000 T01500117 10167 20144 51015=
201509180453 METAR KBLI 180453Z 17006KT 10SM FEW080 14/11 A3005 RMK AO2 SLP181 T01440111=
201509180353 METAR KBLI 180353Z 16007KT 10SM BKN080 15/11 A3004 RMK AO2 RAE0258 SLP178 P0000 T01500106=
201509180253 METAR KBLI 180253Z 17005KT 10SM -RA SCT046 OVC060 15/12 A3002 RMK AO2 RAB47 SLP171 P0000 60000 T01500117 53015=
201509180153 METAR KBLI 180153Z 17005KT 10SM BKN065 OVC090 16/12 A3000 RMK AO2 SLP165 T01560117=
201509180053 METAR KBLI 180053Z VRB04KT 10SM BKN085 16/12 A2998 RMK AO2 SLP160 T01560122=
201509172353 METAR KBLI 172353Z 15007KT 10SM SCT038 17/12 A2997 RMK AO2 SLP155 T01670117 10178 20156 51007=
201509172253 METAR KBLI 172253Z 18005KT 10SM OVC036 17/12 A2997 RMK AO2 SLP153 T01670117=
201509172153 METAR KBLI 172153Z 17007KT 10SM FEW040 BKN048 OVC065 17/12 A2996 RMK AO2 SLP150 T01720117=
201509172053 METAR KBLI 172053Z 16005KT 10SM OVC070 17/11 A2995 RMK AO2 SLP148 T01670111 51015=
201509171953 METAR KBLI 171953Z 19005KT 10SM BKN047 BKN065 OVC080 17/11 A2994 RMK AO2 SLP144 T01670111=
201509171853 METAR KBLI 171853Z 14008KT 10SM OVC036 17/11 A2992 RMK AO2 SLP138 T01720106=
201509171753 METAR KBLI 171753Z 03005KT 10SM BKN040 OVC048 16/11 A2991 RMK AO2 SLP132 60000 T01560111 10161 20117 53014=
201509171653 METAR KBLI 171653Z 03004KT 10SM BKN042 OVC070 14/11 A2989 RMK AO2 RAB18E28 SLP127 P0000 T01390111=
201509171553 METAR KBLI 171553Z 36003KT 10SM SCT036 BKN043 OVC065 13/11 A2987 RMK AO2 RAB10E19 SLP123 P0000 T01280111=
201509171453 METAR KBLI 171453Z 04003KT 10SM OVC039 12/11 A2986 RMK AO2 RAB01E11 SLP119 P0000 60000 T01220106 53013=
201509171353 METAR KBLI 171353Z 04003KT 10SM OVC043 12/10 A2985 RMK AO2 RAB14E34 SLP113 P0000 T01170100=
201509171253 METAR KBLI 171253Z 00000KT 10SM OVC055 12/11 A2983 RMK AO2 SLP107 T01170106=
201509171153 METAR KBLI 171153Z 00000KT 10SM OVC065 12/11 A2982 RMK AO2 SLP105 60003 70003 T01170106 10133 20111 56005=
201509171053 METAR KBLI 171053Z 02004KT 10SM OVC055 12/11 A2982 RMK AO2 RAE04B41E50 SLP105 P0000 T01170106=
201509170953 METAR KBLI 170953Z 04004KT 10SM -RA OVC070 12/11 A2983 RMK AO2 SLP108 P0003 T01170106=
201509170853 METAR KBLI 170853Z 05003KT 10SM -RA BKN065 OVC080 12/11 A2984 RMK AO2 RAB16 SLP110 P0000 60000 T01220106 53007=
201509170753 METAR KBLI 170753Z 00000KT 10SM SCT060 BKN075 OVC110 12/09 A2983 RMK AO2 SLP108 T01170089 401890061=
201509170653 METAR KBLI 170653Z 00000KT 10SM BKN080 12/09 A2982 RMK AO2 SLP102 T01170089=
201509170553 METAR KBLI 170553Z 00000KT 10SM CLR 13/09 A2982 RMK AO2 SLP103 T01280089 10189 20117 57006=
201509170453 METAR KBLI 170453Z 00000KT 10SM CLR 12/09 A2982 RMK AO2 SLP105 T01220089=
201509170353 METAR KBLI 170353Z 00000KT 10SM CLR 12/08 A2983 RMK AO2 SLP108 T01220083=
201509170253 METAR KBLI 170253Z 00000KT 10SM CLR 13/09 A2984 RMK AO2 SLP110 T01330089 53001=
201509170153 METAR KBLI 170153Z 00000KT 10SM CLR 16/09 A2983 RMK AO2 SLP107 T01610094=
201509170053 METAR KBLI 170053Z 00000KT 10SM FEW110 18/07 A2983 RMK AO2 SLP107 T01830072=
201509162353 METAR KBLI 162353Z 24003KT 10SM SCT120 18/07 A2983 RMK AO2 SLP109 T01830072 10189 20161 56006 TSNO=
201509162253 METAR KBLI 162253Z 19006KT 10SM FEW060 BKN120 18/07 A2983 RMK AO2 SLP109 T01830067=
201509162153 METAR KBLI 162153Z 20008KT 10SM FEW120 18/07 A2983 RMK AO2 SLP108 T01830072=
201509162053 METAR KBLI 162053Z VRB05KT 10SM BKN120 18/07 A2985 RMK AO2 SLP114 T01780067 58001=
201509161953 METAR KBLI 161953Z VRB04KT 10SM CLR 18/07 A2986 RMK AO2 SLP116 T01780072=
201509161853 METAR KBLI 161853Z 16007KT 10SM R16/0500VP6000FT FEW095 17/06 A2986 RMK AO2 SLP116 T01720061=
201509161753 METAR KBLI 161753Z VRB05KT 10SM CLR 17/07 A2985 RMK AO2 SLP115 T01670067 10167 20061 51005=
201509161653 METAR KBLI 161653Z 00000KT 10SM OVC100 16/08 A2985 RMK AO2 SLP114 T01560083=
201509161553 METAR KBLI 161553Z 00000KT 10SM CLR 12/08 A2985 RMK AO2 SLP113 T01220083=
201509161453 METAR KBLI 161453Z 00000KT 10SM CLR 08/07 A2984 RMK AO2 SLP111 T00830072 52009=
201509161353 METAR KBLI 161353Z 00000KT 9SM CLR 07/06 A2983 RMK AO2 SLP108 T00670056=
201509161253 METAR KBLI 161253Z AUTO 00000KT 10SM CLR 07/06 A2982 RMK AO2 SLP105 T00720061=
201509161153 METAR KBLI 161153Z AUTO 00000KT 10SM CLR 09/07 A2981 RMK AO2 SLP102 T00890072 10122 20089 52003=
201509161053 METAR KBLI 161053Z AUTO 00000KT 10SM CLR 09/08 A2981 RMK AO2 SLP101 T00940078=
201509160953 METAR KBLI 160953Z AUTO 00000KT 10SM CLR 10/08 A2981 RMK AO2 SLP100 T01000078=
201509160853 METAR KBLI 160853Z AUTO 00000KT 10SM CLR 11/08 A2980 RMK AO2 SLP098 T01060083 53001=
201509160753 METAR KBLI 160753Z AUTO 00000KT 10SM FEW085 11/08 A2980 RMK AO2 SLP098 T01110083 401720106=
201509160653 METAR KBLI 160653Z AUTO 00000KT 10SM SCT100 11/09 A2980 RMK AO2 SLP098 T01110089=
201509160553 METAR KBLI 160553Z AUTO 00000KT 10SM SCT110 12/09 A2980 RMK AO2 SLP098 T01170089 10172 20117 50001=
201509160453 METAR KBLI 160453Z 00000KT 10SM SCT080 13/08 A2980 RMK AO2 SLP099 T01330083=
201509160353 METAR KBLI 160353Z 00000KT 10SM BKN080 13/08 A2980 RMK AO2 SLP099 T01330078=
201509160253 METAR KBLI 160253Z 00000KT 10SM CLR 15/07 A2980 RMK AO2 SLP097 T01500072 50002=
201509160153 METAR KBLI 160153Z 00000KT 10SM SCT060 16/08 A2980 RMK AO2 SLP098 T01560083=
201509160053 METAR KBLI 160053Z VRB05KT 10SM SCT060 BKN075 17/07 A2979 RMK AO2 SLP095 T01670072=
201509152353 METAR KBLI 152353Z 22004KT 10SM BKN050 17/06 A2979 RMK AO2 SLP094 T01670061 10172 20139 56009=
201509152253 METAR KBLI 152253Z VRB04KT 10SM CLR 17/07 A2980 RMK AO2 SLP096 T01670067=
201509152153 METAR KBLI 152153Z 21007KT 10SM SCT050 BKN070 16/07 A2981 RMK AO2 SLP099 T01610067=
201509152053 METAR KBLI 152053Z VRB04KT 10SM CLR 16/07 A2982 RMK AO2 SLP104 T01610067 57001=
201509151953 METAR KBLI 151953Z 16009G15KT 10SM CLR 16/07 A2982 RMK AO2 SLP104 T01610072=
201509151853 METAR KBLI 151853Z 18008G14KT 150V220 10SM CLR 16/07 A2982 RMK AO2 SLP104 T01560072=
201509151753 METAR KBLI 151753Z 18006KT 10SM FEW035 SCT045 14/08 A2982 RMK AO2 SLP105 T01390078 10139 20117 51005=
201509151700 SPECI KBLI 151700Z 16007KT 10SM SCT023 BKN041 13/08 A2982 RMK AO2=
201509151653 METAR KBLI 151653Z 17006KT 10SM BKN023 BKN043 13/08 A2982 RMK AO2 SLP104 T01330078=
201509151553 METAR KBLI 151553Z 16009G14KT 10SM FEW021 BKN027 OVC032 12/08 A2981 RMK AO2 SLP103 T01220083=
201509151537 SPECI KBLI 151537Z 16008KT 10SM BKN029 OVC085 12/08 A2982 RMK AO2=
201509151453 METAR KBLI 151453Z 17006KT 10SM FEW021 SCT050 BKN090 12/08 A2981 RMK AO2 SLP100 T01220078 53013=
201509151353 METAR KBLI 151353Z AUTO 16008KT 10SM FEW023 OVC055 12/08 A2980 RMK AO2 SLP096 T01170078=
201509151253 METAR KBLI 151253Z AUTO 17009KT 10SM FEW019 SCT055 OVC090 12/08 A2978 RMK AO2 SLP090 T01220078=
201509151153 METAR KBLI 151153Z AUTO 17009G15KT 10SM FEW018 OVC065 12/08 A2977 RMK AO2 SLP086 T01220078 10122 20089 51006=
201509151053 METAR KBLI 151053Z AUTO 17010KT 10SM FEW070 OVC085 12/08 A2976 RMK AO2 SLP085 T01220078=
201509150953 METAR KBLI 150953Z AUTO 16007KT 10SM BKN085 12/08 A2976 RMK AO2 SLP083 T01220078=
201509150853 METAR KBLI 150853Z AUTO 16005KT 10SM FEW100 11/08 A2975 RMK AO2 SLP081 T01110083 51003=
201509150753 METAR KBLI 150753Z AUTO 17006KT 10SM FEW075 12/09 A2975 RMK AO2 SLP080 T01220089 401610089=
201509150653 METAR KBLI 150653Z AUTO 00000KT 10SM SCT039 BKN075 09/08 A2974 RMK AO2 SLP079 T00890078=
201509150553 METAR KBLI 150553Z AUTO 00000KT 10SM SCT080 09/08 A2974 RMK AO2 SLP078 T00940083 10161 20094 51003=
201509150453 METAR KBLI 150453Z 00000KT 10SM SCT033 11/09 A2974 RMK AO2 SLP077 T01060089=
201509150353 METAR KBLI 150353Z 00000KT 10SM FEW034 10/08 A2974 RMK AO2 SLP078 T01000083=
201509150253 METAR KBLI 150253Z 00000KT 10SM FEW055 12/08 A2973 RMK AO2 SLP075 T01170078 56003=
201509150153 METAR KBLI 150153Z 00000KT 10SM CLR 14/07 A2973 RMK AO2 SLP075 T01440067=
201509150053 METAR KBLI 150053Z 29003KT 10SM CLR 15/05 A2973 RMK AO2 SLP075 T01500050=
201509142353 METAR KBLI 142353Z 28006KT 10SM CLR 16/05 A2974 RMK AO2 SLP078 T01610050 10161 20139 56018=
201509142253 METAR KBLI 142253Z 29005KT 10SM BKN080 16/06 A2976 RMK AO2 SLP083 T01560061=
201509142153 METAR KBLI 142153Z 26005KT 10SM SCT080 15/07 A2977 RMK AO2 SLP089 T01500067=
201509142053 METAR KBLI 142053Z 28006KT 10SM BKN080 16/06 A2980 RMK AO2 SLP096 T01560061 56011=
201509141953 METAR KBLI 141953Z 25004KT 10SM CLR 16/08 A2980 RMK AO2 SLP099 T01560078=
201509141853 METAR KBLI 141853Z 23005KT 10SM FEW042 BKN075 15/09 A2982 RMK AO2 SLP103 T01500089=
201509141800 SPECI KBLI 141800Z 00000KT 10SM FEW020 SCT095 14/08 A2983 RMK AO2=
201509141753 METAR KBLI 141753Z 23003KT 10SM BKN020 BKN037 14/09 A2983 RMK AO2 SLP107 T01440089 10144 20106 58005=
201509141653 METAR KBLI 141653Z 15003KT 10SM BKN020 OVC035 13/09 A2984 RMK AO2 SLP110 T01330094=
201509141650 SPECI KBLI 141650Z 12003KT 10SM BKN020 OVC035 13/09 A2984 RMK AO2=
201509141553 METAR KBLI 141553Z 00000KT 10SM OVC033 13/09 A2984 RMK AO2 SLP113 T01330089=
201509141453 METAR KBLI 141453Z 00000KT 10SM FEW031 BKN085 12/09 A2985 RMK AO2 SLP115 T01220094 53003=
201509141353 METAR KBLI 141353Z 16003KT 10SM FEW075 SCT095 12/09 A2984 RMK AO2 SLP113 T01170089=
201509141253 METAR KBLI 141253Z AUTO 16005KT 10SM OVC070 12/09 A2984 RMK AO2 SLP111 T01220089=
201509141153 METAR KBLI 141153Z AUTO 00000KT 10SM FEW070 11/08 A2984 RMK AO2 SLP111 T01060083 10122 20100 56006=
201509141053 METAR KBLI 141053Z AUTO 18003KT 10SM SCT070 OVC090 11/09 A2984 RMK AO2 SLP111 T01110089=
201509140953 METAR KBLI 140953Z AUTO 00000KT 10SM OVC090 11/08 A2985 RMK AO2 SLP113 T01060083=
201509140853 METAR KBLI 140853Z AUTO 00000KT 10SM CLR 10/08 A2986 RMK AO2 SLP117 T01000083 58002=
201509140753 METAR KBLI 140753Z AUTO 15003KT 10SM CLR 10/08 A2986 RMK AO2 SLP118 T01000078 401940100=
201509140653 METAR KBLI 140653Z AUTO 17003KT 10SM CLR 11/08 A2987 RMK AO2 SLP119 T01060078=
201509140553 METAR KBLI 140553Z AUTO 15004KT 10SM CLR 12/08 A2986 RMK AO2 SLP119 T01170078 10178 20111 50000=
201509140453 METAR KBLI 140453Z 17003KT 10SM CLR 13/08 A2987 RMK AO2 SLP120 T01330078=
201509140353 METAR KBLI 140353Z 17005KT 10SM FEW080 14/08 A2987 RMK AO2 SLP119 T01440078=
201509140253 METAR KBLI 140253Z 17007KT 10SM FEW080 16/08 A2986 RMK AO2 SLP119 T01560078 56013=
201509140153 METAR KBLI 140153Z 20004KT 10SM CLR 16/08 A2987 RMK AO2 SLP120 T01610083=
201509140053 METAR KBLI 140053Z 18005KT 10SM BKN055 OVC070 17/08 A2989 RMK AO2 SLP127 T01670078=
201509132353 METAR KBLI 132353Z VRB06KT 10SM FEW060 18/07 A2990 RMK AO2 SLP131 T01780067 10194 20167 57014=
201509132253 METAR KBLI 132253Z 18006KT 10SM BKN065 18/05 A2991 RMK AO2 SLP136 T01830050=
201509132153 METAR KBLI 132153Z 00000KT 10SM CLR 19/05 A2993 RMK AO2 SLP141 T01890050=
201509132053 METAR KBLI 132053Z VRB05KT 10SM CLR 18/05 A2994 RMK AO2 SLP145 T01830050 56007=
201509131953 METAR KBLI 131953Z VRB05KT 10SM CLR 18/07 A2995 RMK AO2 SLP148 T01830067=
201509131853 METAR KBLI 131853Z 00000KT 10SM OVC060 18/07 A2995 RMK AO2 SLP148 T01830067=
201509131753 METAR KBLI 131753Z 26005KT 10SM BKN060 17/06 A2996 RMK AO2 SLP152 T01720056 10178 20122 58001=
201509131653 METAR KBLI 131653Z 27003KT 10SM SCT065 17/06 A2996 RMK AO2 SLP152 T01720061=
201509131553 METAR KBLI 131553Z 00000KT 10SM BKN070 16/08 A2997 RMK AO2 SLP154 T01610078=
201509131453 METAR KBLI 131453Z 00000KT 10SM OVC070 15/11 A2997 RMK AO2 SLP153 T01500111 53002=
201509131353 METAR KBLI 131353Z 00000KT 10SM CLR 13/12 A2996 RMK AO2 SLP152 T01280117=
201509131253 METAR KBLI 131253Z AUTO 19003KT 10SM BKN050 BKN070 14/13 A2996 RMK AO2 SLP151 T01440128=
201509131153 METAR KBLI 131153Z AUTO 16004KT 10SM BKN060 OVC070 15/14 A2996 RMK AO2 SLP152 T01500139 10178 20144 50001=
201509131053 METAR KBLI 131053Z AUTO 20004KT 10SM BKN060 OVC075 16/14 A2996 RMK AO2 SLP153 T01560139=
201509130953 METAR KBLI 130953Z AUTO 17003KT 10SM OVC065 16/14 A2996 RMK AO2 SLP151 T01560139=
201509130853 METAR KBLI 130853Z AUTO 00000KT 10SM CLR 16/14 A2996 RMK AO2 SLP150 T01610139 50005=
201509130753 METAR KBLI 130753Z AUTO VRB03KT 10SM CLR 17/13 A2996 RMK AO2 SLP152 T01670133 402170111=
201509130653 METAR KBLI 130653Z AUTO 19008KT 170V230 10SM CLR 17/14 A2995 RMK AO2 SLP149 T01670139=
201509130553 METAR KBLI 130553Z AUTO 17008KT 10SM CLR 17/13 A2994 RMK AO2 SLP146 T01720133 10211 20167 51000=
201509130453 METAR KBLI 130453Z 17008KT 10SM CLR 18/13 A2994 RMK AO2 SLP145 T01780133=
201509130353 METAR KBLI 130353Z 16006KT 10SM CLR 18/13 A2995 RMK AO2 SLP149 T01830133=
201509130253 METAR KBLI 130253Z 00000KT 10SM CLR 17/13 A2994 RMK AO2 SLP146 T01720133 58008=
201509130153 METAR KBLI 130153Z 17003KT 10SM CLR 20/13 A2995 RMK AO2 SLP148 T02000133=
201509130053 METAR KBLI 130053Z 16004KT 10SM CLR 21/12 A2996 RMK AO2 SLP152 T02110122=
201509122353 METAR KBLI 122353Z 18006KT 10SM CLR 21/13 A2997 RMK AO2 SLP153 T02110133 10217 20167 56013=
201509122253 METAR KBLI 122253Z 18005KT 10SM CLR 21/14 A2998 RMK AO2 SLP157 T02060144=
201509122153 METAR KBLI 122153Z 16006KT 10SM CLR 21/14 A3000 RMK AO2 SLP163 T02110144=
201509122053 METAR KBLI 122053Z 00000KT 10SM CLR 21/14 A3001 RMK AO2 SLP167 T02110144 58012=
201509121953 METAR KBLI 121953Z VRB03KT 10SM SCT010 20/14 A3002 RMK AO2 SLP173 T02000144=
201509121917 SPECI KBLI 121917Z 00000KT 10SM SCT010 19/15 A3002 RMK AO2=
201509121853 METAR KBLI 121853Z 16003KT 10SM BKN010 18/15 A3003 RMK AO2 SLP173 T01830150=
201509121827 SPECI KBLI 121827Z 16004KT 10SM SCT007 OVC010 18/16 A3003 RMK AO2=
201509121753 METAR KBLI 121753Z 00000KT 9SM OVC005 17/15 A3004 RMK AO2 SLP179 T01670150 10167 20111 50002=
201509121748 SPECI KBLI 121748Z 00000KT 9SM OVC004 17/15 A3005 RMK AO2=
201509121653 METAR KBLI 121653Z 00000KT 2SM BR OVC002 15/15 A3005 RMK AO2 SLP181 T01500150=
201509121621 SPECI KBLI 121621Z 20003KT 1 3/4SM R16/2200VP6000FT BR OVC002 15/15 A3004 RMK AO2 VIS 1 1/4V3=
201509121608 SPECI KBLI 121608Z 20003KT 3/4SM R16/2000V3500FT BR VV002 15/14 A3004 RMK AO2=
201509121553 METAR KBLI 121553Z 00000KT 1/2SM R16/1800V2400FT FG VV002 15/14 A3004 RMK AO2 SLP177 T01500144=
201509121453 METAR KBLI 121453Z 00000KT 1/4SM R16/1200V1800FT FG VV002 14/14 A3003 RMK AO2 SLP175 T01440139 53007=
201509121443 SPECI KBLI 121443Z 00000KT 1/2SM R16/1400V4500FT FG OVC003 14/14 A3003 RMK AO2=
201509121423 SPECI KBLI 121423Z 00000KT 1SM R16/P6000FT BR OVC003 13/13 A3002 RMK AO2=
201509121353 METAR KBLI 121353Z 00000KT 10SM BKN003 12/11 A3002 RMK AO2 SLP171 T01170111=
201509121330 SPECI KBLI 121330Z AUTO 00000KT 9SM BKN003 12/12 A3001 RMK AO2=
201509121311 SPECI KBLI 121311Z AUTO 00000KT 10SM FEW003 12/11 A3001 RMK AO2=
201509121253 METAR KBLI 121253Z AUTO 00000KT 10SM CLR 12/11 A3001 RMK AO2 SLP169 T01170111=
201509121153 METAR KBLI 121153Z AUTO 00000KT 10SM CLR 12/12 A3001 RMK AO2 SLP168 60001 70001 T01220117 10150 20117 55001=
201509121053 METAR KBLI 121053Z AUTO 00000KT 10SM CLR 13/12 A3001 RMK AO2 SLP167 P0001 T01280117=
201509120953 METAR KBLI 120953Z AUTO 19003KT 10SM CLR 14/13 A3001 RMK AO2 SLP168 T01440133=
201509120853 METAR KBLI 120853Z AUTO 00000KT 10SM CLR 15/14 A3001 RMK AO2 SLP168 T01500139 51003=
201509120753 METAR KBLI 120753Z AUTO 17003KT 10SM CLR 14/13 A3001 RMK AO2 SLP168 T01390128 402390106=
201509120653 METAR KBLI 120653Z AUTO 00000KT 10SM CLR 14/13 A3001 RMK AO2 SLP167 T01440128=
201509120553 METAR KBLI 120553Z AUTO 00000KT 10SM CLR 15/13 A3000 RMK AO2 SLP166 T01500133 10228 20139 51006=
201509120453 METAR KBLI 120453Z 00000KT 10SM CLR 16/14 A3000 RMK AO2 SLP164 T01560139=
201509120353 METAR KBLI 120353Z 00000KT 10SM CLR 16/14 A3000 RMK AO2 SLP163 T01610139=
201509120253 METAR KBLI 120253Z 00000KT 10SM CLR 17/15 A2999 RMK AO2 SLP160 T01720150 56005=
201509120153 METAR KBLI 120153Z 00000KT 10SM CLR 21/14 A2999 RMK AO2 SLP160 T02060144=
201509120053 METAR KBLI 120053Z 27003KT 10SM CLR 22/15 A3000 RMK AO2 SLP163 T02220150=
201509112353 METAR KBLI 112353Z 27005KT 10SM CLR 23/16 A3000 RMK AO2 SLP165 T02280156 10239 20211 58015=
201509112253 METAR KBLI 112253Z VRB05KT 10SM CLR 23/16 A3002 RMK AO2 SLP170 T02330161=
201509112153 METAR KBLI 112153Z 27007KT 10SM CLR 22/16 A3004 RMK AO2 SLP177 T02220156=
201509112053 METAR KBLI 112053Z 27007KT 10SM CLR 23/16 A3005 RMK AO2 SLP180 T02330161 58016=
201509111953 METAR KBLI 111953Z 30008KT 10SM CLR 23/16 A3007 RMK AO2 SLP187 T02280156=
201509111853 METAR KBLI 111853Z 26007KT 10SM CLR 22/16 A3008 RMK AO2 SLP192 T02170161=
201509111753 METAR KBLI 111753Z VRB03KT 10SM CLR 22/16 A3009 RMK AO2 SLP196 T02170156 10217 20106 52001=
201509111653 METAR KBLI 111653Z 00000KT 10SM CLR 19/15 A3009 RMK AO2 SLP196 T01890150=
201509111553 METAR KBLI 111553Z 00000KT 10SM CLR 17/15 A3009 RMK AO2 SLP195 T01670150=
201509111453 METAR KBLI 111453Z 00000KT 10SM SCT004 13/13 A3009 RMK AO2 SLP195 T01330128 53008=
201509111409 SPECI KBLI 111409Z 00000KT 10SM SCT004 11/11 A3008 RMK AO2=
201509111402 SPECI KBLI 111402Z 00000KT 2 1/2SM R16/4000VP6000FT BR BKN004 11/11 A3008 RMK AO2 VIS 1V5=
201509111353 METAR KBLI 111353Z 00000KT 1 3/4SM R16/4500VP6000FT BR SCT004 11/11 A3008 RMK AO2 SLP192 T01110106=
201509111349 SPECI KBLI 111349Z 00000KT 1 1/4SM BR SCT004 11/11 A3008 RMK AO2=
201509111336 SPECI KBLI 111336Z 00000KT 1/2SM R16/2000VP6000FT FG VV004 11/11 A3008 RMK AO2=
201509111328 SPECI KBLI 111328Z 00000KT 1SM R16/3000VP6000FT BR VV004 11/11 A3007 RMK AO2=
201509111325 SPECI KBLI 111325Z 00000KT 1 3/4SM BR CLR 11/11 A3007 RMK AO2 VIS 3/4V5=
201509111257 SPECI KBLI 111257Z 00000KT 4SM R16/2200VP6000FT BR SCT002 12/11 A3007 RMK AO2=
201509111253 METAR KBLI 111253Z 00000KT 1SM R16/1200VP6000FT BR VV002 11/11 A3007 RMK AO2 SLP188 T01110106=
201509111243 SPECI KBLI 111243Z 00000KT 1/2SM R16/1000V2600FT FG VV002 11/11 A3007 RMK AO2=
201509111238 SPECI KBLI 111238Z 00000KT 1SM R16/1400VP6000FT BR VV002 11/11 A3007 RMK AO2=
201509111235 SPECI KBLI 111235Z 00000KT 2SM R16/2000VP6000FT BR SCT002 12/11 A3007 RMK AO2=
201509111216 SPECI KBLI 111216Z 00000KT 10SM R16/1800VP6000FT BKN002 11/11 A3007 RMK AO2=
201509111209 SPECI KBLI 111209Z 00000KT 2 1/2SM R16/1400V2800FT BR OVC002 12/11 A3007 RMK AO2=
201509111202 SPECI KBLI 111202Z 00000KT 3/4SM R16/2200VP6000FT BR VV002 12/11 A3007 RMK AO2=
201509111153 METAR KBLI 111153Z 00000KT 1 1/2SM R16/2000VP6000FT BR OVC001 12/11 A3007 RMK AO2 SLP187 T01170111 10150 20111 51001=
201509111142 SPECI KBLI 111142Z 00000KT 2SM R16/1600VP6000FT BR BKN001 12/11 A3007 RMK AO2=
201509111133 SPECI KBLI 111133Z 00000KT 3/4SM R16/2600VP6000FT BR VV001 12/11 A3007 RMK AO2=
201509111129 SPECI KBLI 111129Z 00000KT 1 1/2SM R16/2600VP6000FT BR SCT003 12/11 A3007 RMK AO2=
201509111053 METAR KBLI 111053Z 00000KT 10SM FEW002 12/11 A3007 RMK AO2 SLP188 T01170111=
201509111039 SPECI KBLI 111039Z 00000KT 4SM BR SCT002 12/11 A3007 RMK AO2=
201509111037 SPECI KBLI 111037Z 00000KT 1 1/2SM BR SCT002 12/11 A3007 RMK AO2=
201509111028 SPECI KBLI 111028Z 00000KT 3/4SM R16/2200VP6000FT BR VV002 12/11 A3007 RMK AO2 VIS 1/2V4=
201509111024 SPECI KBLI 111024Z 00000KT 1 3/4SM R16/2200VP6000FT BR CLR 12/11 A3006 RMK AO2 VIS 3/4V5=
201509111008 SPECI KBLI 111008Z 00000KT 10SM FEW002 12/12 A3006 RMK AO2=
201509111001 SPECI KBLI 111001Z 00000KT 2 1/2SM BR FEW002 13/12 A3006 RMK AO2=
201509110953 METAR KBLI 110953Z 00000KT 1SM R16/5500VP6000FT BR VV002 12/12 A3006 RMK AO2 SLP186 T01220117=
201509110950 SPECI KBLI 110950Z 00000KT 1 1/2SM R16/5500VP6000FT BR FEW002 12/12 A3006 RMK AO2=
201509110900 SPECI KBLI 110900Z 00000KT 7SM CLR 13/13 A3006 RMK AO2=
201509110853 METAR KBLI 110853Z 00000KT 2 1/2SM BR CLR 13/12 A3006 RMK AO2 SLP186 T01330122 53001=
201509110844 SPECI KBLI 110844Z 00000KT 1 3/4SM BR CLR 13/12 A3006 RMK AO2 VIS 1/2V5=
201509110753 METAR KBLI 110753Z 00000KT 10SM CLR 14/13 A3006 RMK AO2 SLP186 T01390128 402330100=
201509110653 METAR KBLI 110653Z 00000KT 10SM CLR 14/13 A3006 RMK AO2 SLP186 T01390128=
201509110553 METAR KBLI 110553Z 00000KT 10SM CLR 14/13 A3006 RMK AO2 SLP186 T01440128 10233 20144 51005=
201509110453 METAR KBLI 110453Z 00000KT 10SM CLR 15/13 A3006 RMK AO2 SLP185 T01500133=
201509110353 METAR KBLI 110353Z 00000KT 10SM CLR 15/13 A3005 RMK AO2 SLP183 T01500133=
201509110253 METAR KBLI 110253Z 00000KT 10SM CLR 17/14 A3005 RMK AO2 SLP181 T01720144 55004=
201509110153 METAR KBLI 110153Z 27003KT 10SM CLR 21/14 A3005 RMK AO2 SLP181 T02060144=
201509110053 METAR KBLI 110053Z 28005KT 10SM CLR 23/14 A3005 RMK AO2 SLP183 T02280144=
201509102353 METAR KBLI 102353Z 28005KT 10SM CLR 23/14 A3006 RMK AO2 SLP185 T02330139 10233 20200 56014=
201509102253 METAR KBLI 102253Z VRB05KT 10SM CLR 23/14 A3007 RMK AO2 SLP189 T02280144=
201509102153 METAR KBLI 102153Z VRB06KT 10SM CLR 23/15 A3008 RMK AO2 SLP193 T02280150=
201509102053 METAR KBLI 102053Z 28007KT 10SM CLR 22/14 A3010 RMK AO2 SLP199 T02220144 58008=
201509101953 METAR KBLI 101953Z 26007KT 10SM CLR 21/14 A3011 RMK AO2 SLP202 T02110144=
201509101853 METAR KBLI 101853Z 31006KT 10SM FEW026 21/15 A3012 RMK AO2 SLP206 T02110150=
201509101753 METAR KBLI 101753Z 32006KT 10SM CLR 20/14 A3012 RMK AO2 SLP207 T02000144 10206 20100 58001=
201509101653 METAR KBLI 101653Z 35006KT 10SM CLR 18/14 A3013 RMK AO2 SLP208 T01830139=
201509101553 METAR KBLI 101553Z 01003KT 10SM CLR 15/14 A3013 RMK AO2 SLP209 T01500139=
201509101453 METAR KBLI 101453Z 00000KT 6SM BR FEW001 13/12 A3013 RMK AO2 SLP207 T01280122 53005=
201509101412 SPECI KBLI 101412Z 00000KT 6SM R16/3500VP6000FT BR FEW001 12/11 A3011 RMK AO2=
201509101401 SPECI KBLI 101401Z 00000KT 1/4SM R16/1800V4500FT FG VV001 11/11 A3011 RMK AO2=
201509101353 METAR KBLI 101353Z 00000KT 1/4SM R16/1600V2000FT FG VV001 11/11 A3011 RMK AO2 SLP203 T01110106=
201509101320 SPECI KBLI 101320Z 00000KT 1/2SM R16/1800V6000FT FG VV001 11/10 A3011 RMK AO2=
201509101309 SPECI KBLI 101309Z 00000KT 3/4SM R16/2400VP6000FT BR VV001 10/09 A3011 RMK AO2=
201509101304 SPECI KBLI 101304Z 00000KT 2SM R16/2400VP6000FT BR BKN001 10/09 A3011 RMK AO2=
201509101253 METAR KBLI 101253Z 00000KT 10SM FEW001 11/09 A3011 RMK AO2 SLP202 T01060094=
201509101244 SPECI KBLI 101244Z 00000KT 3SM BR FEW001 11/10 A3011 RMK AO2=
201509101239 SPECI KBLI 101239Z 00000KT 1 3/4SM BR FEW001 11/10 A3011 RMK AO2 VIS 1V5=
201509101205 SPECI KBLI 101205Z 00000KT 3SM BR FEW002 11/10 A3011 RMK AO2=
201509101153 METAR KBLI 101153Z 00000KT 10SM CLR 11/10 A3011 RMK AO2 SLP202 T01060100 10139 20106 52005=
201509101123 SPECI KBLI 101123Z 00000KT 10SM FEW002 11/10 A3011 RMK AO2=
201509101053 METAR KBLI 101053Z 00000KT 10SM CLR 11/11 A3011 RMK AO2 SLP201 T01110106=
201509100953 METAR KBLI 100953Z 00000KT 4SM BR CLR 12/11 A3010 RMK AO2 SLP198 T01170111=
201509100853 METAR KBLI 100853Z 00000KT 10SM CLR 13/12 A3010 RMK AO2 SLP197 T01330117 51008=
201509100753 METAR KBLI 100753Z 00000KT 10SM CLR 13/12 A3009 RMK AO2 SLP196 T01330117 402220117=
201509100653 METAR KBLI 100653Z 00000KT 10SM CLR 13/12 A3008 RMK AO2 SLP193 T01280122=
201509100553 METAR KBLI 100553Z 00000KT 10SM CLR 14/12 A3007 RMK AO2 SLP189 T01390117 10222 20133 51006=
201509100453 METAR KBLI 100453Z 00000KT 10SM CLR 15/12 A3007 RMK AO2 SLP188 T01500122=
201509100353 METAR KBLI 100353Z 00000KT 10SM CLR 16/12 A3006 RMK AO2 SLP185 T01560122=
201509100253 METAR KBLI 100253Z 00000KT 10SM CLR 17/13 A3005 RMK AO2 SLP183 T01720133 55002=
201509100153 METAR KBLI 100153Z 00000KT 10SM CLR 19/13 A3005 RMK AO2 SLP182 T01940133=
201509100053 METAR KBLI 100053Z 18003KT 10SM CLR 21/12 A3005 RMK AO2 SLP183 T02110122=
201509092353 METAR KBLI 092353Z 18004KT 10SM CLR 22/12 A3006 RMK AO2 SLP185 T02170122 10222 20172 58007=
201509092253 METAR KBLI 092253Z VRB04KT 10SM CLR 22/13 A3007 RMK AO2 SLP187 T02170128=
201509092153 METAR KBLI 092153Z 19007KT 150V220 10SM CLR 22/13 A3008 RMK AO2 SLP190 T02170133=
201509092053 METAR KBLI 092053Z VRB06KT 10SM CLR 21/13 A3008 RMK AO2 SLP192 T02110128 58003=
201509091953 METAR KBLI 091953Z 17006KT 10SM CLR 20/14 A3008 RMK AO2 SLP192 T02000139=
201509091853 METAR KBLI 091853Z 18006KT 10SM CLR 19/15 A3009 RMK AO2 SLP196 T01890150=
201509091753 METAR KBLI 091753Z 19005KT 10SM SCT007 BKN037 17/14 A3009 RMK AO2 SLP195 T01720144 10172 20117 53007=
201509091653 METAR KBLI 091653Z 17005KT 10SM BKN037 16/14 A3008 RMK AO2 SLP192 T01610144=
201509091553 METAR KBLI 091553Z 17007KT 10SM FEW039 OVC049 16/13 A3008 RMK AO2 SLP190 T01560133=
201509091508 SPECI KBLI 091508Z 17003KT 10SM SCT003 BKN049 15/14 A3007 RMK AO2=
201509091453 METAR KBLI 091453Z 15003KT 10SM SCT049 14/14 A3007 RMK AO2 SLP188 T01440139 51003=
201509091353 METAR KBLI 091353Z 00000KT 9SM R16/3500VP6000FT BKN050 12/12 A3007 RMK AO2 SLP187 T01220117=
201509091348 SPECI KBLI 091348Z 00000KT 1SM R16/3500VP6000FT BR SCT050 12/12 A3007 RMK AO2=
201509091337 SPECI KBLI 091337Z 00000KT 1/2SM R16/5500VP6000FT FG CLR 12/11 A3007 RMK AO2=
201509091334 SPECI KBLI 091334Z 00000KT 1 1/2SM R16/5500VP6000FT BR CLR 12/11 A3007 RMK AO2=
201509091253 METAR KBLI 091253Z 00000KT 10SM CLR 12/12 A3007 RMK AO2 SLP187 T01220117=
201509091233 SPECI KBLI 091233Z 00000KT 10SM SCT004 13/12 A3007 RMK AO2=
201509091203 SPECI KBLI 091203Z 00000KT 10SM BKN004 OVC120 13/13 A3007 RMK AO2=
201509091153 METAR KBLI 091153Z 00000KT 10SM SCT004 OVC120 13/12 A3006 RMK AO2 SLP185 70005 T01280122 10161 20128 55002=
201509091146 SPECI KBLI 091146Z 02004KT 10SM FEW004 BKN120 13/12 A3006 RMK AO2=
201509091053 METAR KBLI 091053Z 15004KT 10SM CLR 14/13 A3006 RMK AO2 SLP184 T01390133=
201509090953 METAR KBLI 090953Z 00000KT 10SM FEW060 14/13 A3006 RMK AO2 SLP184 T01390133=
201509090853 METAR KBLI 090853Z 16003KT 10SM OVC060 15/14 A3007 RMK AO2 SLP188 T01500139 53001=
201509090753 METAR KBLI 090753Z 19006KT 10SM CLR 15/14 A3007 RMK AO2 SLP187 T01500144 401890144=
201509090653 METAR KBLI 090653Z 17005KT 10SM CLR 16/14 A3006 RMK AO2 SLP184 T01560144=
201509090553 METAR KBLI 090553Z 17005KT 10SM CLR 16/14 A3006 RMK AO2 SLP186 T01610139 10189 20161 50002=
201509090453 METAR KBLI 090453Z 18005KT 10SM CLR 16/14 A3007 RMK AO2 SLP188 T01610139=
201509090353 METAR KBLI 090353Z 17007KT 10SM CLR 17/14 A3006 RMK AO2 SLP186 T01670139=
201509090253 METAR KBLI 090253Z 18006KT 10SM CLR 17/14 A3006 RMK AO2 SLP185 T01720144 58006=
201509090153 METAR KBLI 090153Z 17008KT 10SM CLR 18/14 A3007 RMK AO2 SLP188 T01830139=
201509090053 METAR KBLI 090053Z 17010G15KT 10SM FEW060 18/14 A3007 RMK AO2 SLP190 T01830139=
201509082353 METAR KBLI 082353Z 16010G15KT 10SM FEW045 BKN060 BKN080 19/14 A3008 RMK AO2 SLP191 T01890139 10189 20161 58009=
201509082253 METAR KBLI 082253Z 17012G16KT 10SM CLR 18/14 A3008 RMK AO2 SLP193 T01830139=
201509082153 METAR KBLI 082153Z 16013G17KT 10SM OVC043 18/14 A3010 RMK AO2 SLP199 T01830139=
201509082105 SPECI KBLI 082105Z 16011KT 10SM SCT021 OVC043 18/14 A3010 RMK AO2=
201509082053 METAR KBLI 082053Z 16011G19KT 10SM BKN021 BKN035 OVC043 18/14 A3011 RMK AO2 SLP200 T01830139 56001=
201509081953 METAR KBLI 081953Z 17013KT 10SM OVC021 17/13 A3011 RMK AO2 SLP201 T01670133=
201509081853 METAR KBLI 081853Z 18010G18KT 10SM OVC021 16/13 A3010 RMK AO2 SLP199 T01610133=
201509081753 METAR KBLI 081753Z 16009KT 10SM OVC023 17/13 A3011 RMK AO2 SLP201 60005 T01670133 10167 20144 51005=
201509081700 SPECI KBLI 081700Z 17010KT 10SM OVC023 16/13 A3010 RMK AO2=
201509081653 METAR KBLI 081653Z 16008G14KT 10SM SCT028 OVC033 16/13 A3010 RMK AO2 SLP198 T01560133=
201509081553 METAR KBLI 081553Z 16006KT 10SM OVC030 15/12 A3010 RMK AO2 RAE30 SLP200 P0001 T01500122=
201509081453 METAR KBLI 081453Z 15013G22KT 5SM -RA OVC036 15/12 A3009 RMK AO2 SLP196 P0003 60004 T01500117 55000=
201509081353 METAR KBLI 081353Z AUTO 16010G15KT 10SM -RA OVC036 15/13 A3008 RMK AO2 SLP192 P0001 T01500128=
201509081253 METAR KBLI 081253Z AUTO 16010G15KT 10SM -RA FEW030 OVC038 15/12 A3008 RMK AO2 RAB11E25B51 SLP191 P0000 T01500122=
201509081153 METAR KBLI 081153Z AUTO 20004KT 10SM OVC038 14/13 A3009 RMK AO2 RAE13 SLP196 P0000 60000 T01440128 10161 20144 56009=
201509081053 METAR KBLI 081053Z AUTO 19006KT 10SM -RA OVC040 15/12 A3010 RMK AO2 RAB22 SLP197 P0000 T01500117=
201509080953 METAR KBLI 080953Z AUTO 18005KT 10SM OVC046 16/12 A3011 RMK AO2 SLP201 T01560117=
201509080853 METAR KBLI 080853Z AUTO 17006KT 10SM OVC055 16/12 A3012 RMK AO2 SLP206 T01560122 58012=
201509080753 METAR KBLI 080753Z AUTO 17004KT 10SM OVC060 16/12 A3013 RMK AO2 SLP209 T01610117 401940100=
201509080653 METAR KBLI 080653Z AUTO 00000KT 10SM OVC060 16/12 A3015 RMK AO2 SLP216 T01560117=
201509080553 METAR KBLI 080553Z AUTO 00000KT 10SM OVC060 16/11 A3015 RMK AO2 SLP217 T01610111 10194 20156 50001=
201509080453 METAR KBLI 080453Z 00000KT 10SM OVC070 16/12 A3016 RMK AO2 SLP219 T01610117=
201509080353 METAR KBLI 080353Z 00000KT 10SM OVC070 17/11 A3016 RMK AO2 SLP220 T01670111=
201509080253 METAR KBLI 080253Z 16003KT 10SM OVC070 17/11 A3015 RMK AO2 SLP216 T01720111 58006=
201509080153 METAR KBLI 080153Z 16003KT 10SM OVC075 18/10 A3016 RMK AO2 SLP220 T01830100=
201509080053 METAR KBLI 080053Z 00000KT 10SM BKN080 19/10 A3017 RMK AO2 SLP224 T01890100=
201509072353 METAR KBLI 072353Z 18004KT 10SM CLR 19/09 A3017 RMK AO2 SLP223 T01940089 10194 20156 58009=
201509072253 METAR KBLI 072253Z 18008KT 10SM CLR 19/09 A3018 RMK AO2 SLP227 T01940089=
201509072153 METAR KBLI 072153Z VRB05KT 10SM CLR 19/09 A3019 RMK AO2 SLP230 T01890089=
201509072053 METAR KBLI 072053Z 16006KT 10SM SCT030 18/09 A3020 RMK AO2 SLP232 T01830094 58002=
201509071953 METAR KBLI 071953Z 17008KT 10SM SCT030 18/10 A3021 RMK AO2 SLP235 T01830100=
201509071853 METAR KBLI 071853Z VRB04KT 10SM CLR 17/12 A3021 RMK AO2 SLP236 T01720117=
201509071753 METAR KBLI 071753Z 15007KT 10SM FEW075 16/11 A3020 RMK AO2 SLP235 T01560111 10161 20100 55000=
201509071653 METAR KBLI 071653Z 13003KT 10SM SCT005 OVC085 16/12 A3020 RMK AO2 SLP234 T01560117=
201509071553 METAR KBLI 071553Z 13004KT 10SM SCT005 OVC090 14/12 A3020 RMK AO2 SLP235 T01390122=
201509071453 METAR KBLI 071453Z 00000KT 10SM FEW006 BKN090 11/11 A3020 RMK AO2 SLP235 T01110106 53010=
201509071353 METAR KBLI 071353Z 00000KT 10SM OVC110 11/09 A3018 RMK AO2 SLP226 T01060094=
201509071253 METAR KBLI 071253Z AUTO 00000KT 10SM FEW005 SCT120 11/10 A3017 RMK AO2 SLP225 T01110100=
201509071244 SPECI KBLI 071244Z AUTO 00000KT 10SM SCT005 BKN120 11/10 A3018 RMK AO2=
201509071153 METAR KBLI 071153Z AUTO 00000KT 10SM BKN005 OVC110 11/10 A3017 RMK AO2 SLP225 70037 T01060100 10122 20100 50004=
201509071151 SPECI KBLI 071151Z AUTO 00000KT 10SM BKN005 OVC110 11/10 A3017 RMK AO2=
201509071053 METAR KBLI 071053Z AUTO 00000KT 10SM SCT005 BKN120 11/10 A3017 RMK AO2 SLP224 T01060100=
201509071006 SPECI KBLI 071006Z AUTO 00000KT 10SM SCT004 11/10 A3016 RMK AO2=
201509070953 METAR KBLI 070953Z AUTO 00000KT 10SM BKN004 11/10 A3016 RMK AO2 SLP220 T01060100=
201509070919 SPECI KBLI 070919Z AUTO 00000KT 10SM BKN004 10/09 A3016 RMK AO2=
201509070911 SPECI KBLI 070911Z AUTO 00000KT 10SM SCT004 10/09 A3016 RMK AO2=
201509070853 METAR KBLI 070853Z AUTO 00000KT 10SM CLR 11/09 A3016 RMK AO2 SLP221 T01060094 53002=
201509070753 METAR KBLI 070753Z AUTO 00000KT 10SM CLR 12/11 A3015 RMK AO2 SLP218 T01170106 401670106=
201509070653 METAR KBLI 070653Z AUTO 00000KT 10SM CLR 12/11 A3015 RMK AO2 SLP218 T01170106=
201509070553 METAR KBLI 070553Z AUTO 00000KT 10SM CLR 12/11 A3016 RMK AO2 SLP219 T01220111 10161 20111 50004=
201509070453 METAR KBLI 070453Z 00000KT 10SM FEW050 11/11 A3016 RMK AO2 SLP219 T01110106=
201509070353 METAR KBLI 070353Z 00000KT 10SM CLR 11/10 A3015 RMK AO2 SLP217 T01110100=
201509070253 METAR KBLI 070253Z 18004KT 10SM FEW031 13/11 A3015 RMK AO2 SLP215 T01330111 53004=
201509070153 METAR KBLI 070153Z 00000KT 10SM SCT032 14/11 A3015 RMK AO2 SLP216 T01440111=
201509070053 METAR KBLI 070053Z 17004KT 10SM CLR 16/11 A3013 RMK AO2 SLP209 T01560106=
201509062353 METAR KBLI 062353Z 19003KT 10SM SCT032 16/10 A3013 RMK AO2 SLP211 T01560100 10167 20139 50001=
201509062253 METAR KBLI 062253Z 17008KT 10SM BKN037 BKN055 16/11 A3014 RMK AO2 SLP212 T01560106=
201509062153 METAR KBLI 062153Z VRB05KT 10SM FEW050 16/09 A3014 RMK AO2 SLP211 T01610094=
201509062053 METAR KBLI 062053Z 19007KT 10SM FEW021 BKN047 BKN060 15/10 A3013 RMK AO2 SLP210 T01500100 53004=
201509061953 METAR KBLI 061953Z 18005KT 10SM OVC060 14/11 A3013 RMK AO2 SLP209 T01440106=
201509061853 METAR KBLI 061853Z 00000KT 10SM FEW028 BKN047 OVC060 15/09 A3012 RMK AO2 SLP206 T01500094=
201509061753 METAR KBLI 061753Z 00000KT 10SM OVC043 14/09 A3012 RMK AO2 SLP207 60037 T01390094 10139 20111 52006=
201509061653 METAR KBLI 061653Z 00000KT 10SM BKN033 OVC040 12/11 A3012 RMK AO2 RAE1559 SLP205 P0000 T01220111=
201509061553 METAR KBLI 061553Z 00000KT 10SM -RA FEW055 OVC070 12/11 A3011 RMK AO2 SLP201 P0003 T01170106=
201509061453 METAR KBLI 061453Z 36003KT 10SM -RA SCT035 SCT055 OVC070 11/10 A3010 RMK AO2 SLP200 P0002 60034 T01110100 53003=
201509061353 METAR KBLI 061353Z 02003KT 10SM -RA FEW055 OVC080 11/11 A3009 RMK AO2 SLP197 P0009 T01110106=
201509061253 METAR KBLI 061253Z AUTO 10003KT 7SM RA FEW023 OVC060 12/11 A3009 RMK AO2 SLP196 P0023 T01170106=
201509061153 METAR KBLI 061153Z AUTO 15004KT 8SM -RA OVC060 12/11 A3009 RMK AO2 SLP196 P0008 60020 70020 T01220111 10144 20117 55003=
201509061053 METAR KBLI 061053Z AUTO 15003KT 10SM -RA OVC065 12/11 A3009 RMK AO2 SLP194 P0009 T01220111=
201509060953 METAR KBLI 060953Z AUTO 20003KT 10SM -RA OVC060 12/11 A3010 RMK AO2 SLP197 P0003 T01220106=
201509060853 METAR KBLI 060853Z AUTO 18003KT 10SM -RA OVC060 12/10 A3010 RMK AO2 RAE27B52 SLP199 P0000 60000 T01220100 50000=
201509060753 METAR KBLI 060753Z AUTO 18003KT 10SM -RA OVC070 13/08 A3011 RMK AO2 RAB49 SLP201 P0000 T01280083 401890061=
201509060653 METAR KBLI 060653Z AUTO 17004KT 10SM OVC100 14/08 A3011 RMK AO2 SLP201 T01390083=
201509060553 METAR KBLI 060553Z AUTO 00000KT 10SM CLR 12/08 A3010 RMK AO2 SLP200 T01220083 10183 20122 51007=
201509060453 METAR KBLI 060453Z 18003KT 10SM CLR 14/08 A3009 RMK AO2 SLP197 T01390078=
201509060353 METAR KBLI 060353Z 18006KT 10SM CLR 14/08 A3009 RMK AO2 SLP196 T01440078=
201509060253 METAR KBLI 060253Z 17007KT 10SM FEW065 15/07 A3008 RMK AO2 SLP193 T01500072 55001=
201509060153 METAR KBLI 060153Z 18005KT 10SM BKN065 BKN080 BKN100 17/08 A3008 RMK AO2 SLP192 T01670083=
201509060053 METAR KBLI 060053Z 17009G15KT 10SM FEW095 18/11 A3008 RMK AO2 SLP192 T01780106=
201509052353 METAR KBLI 052353Z 17009G15KT 10SM SCT090 18/09 A3008 RMK AO2 SLP194 T01830094 10189 20139 53002=
201509052253 METAR KBLI 052253Z 17010G16KT 10SM CLR 18/09 A3008 RMK AO2 SLP193 T01780089=
201509052153 METAR KBLI 052153Z 17009G16KT 10SM CLR 18/10 A3008 RMK AO2 SLP193 T01780100=
201509052053 METAR KBLI 052053Z 18009G17KT 10SM CLR 17/11 A3008 RMK AO2 SLP192 T01720106 53002=
201509051953 METAR KBLI 051953Z 18011G18KT 10SM CLR 16/11 A3007 RMK AO2 SLP191 T01560106=
201509051853 METAR KBLI 051853Z 17009G16KT 10SM CLR 15/10 A3007 RMK AO2 SLP190 T01500100=
201509051753 METAR KBLI 051753Z 16010G15KT 10SM CLR 14/10 A3007 RMK AO2 SLP190 T01390100 10144 20061 51007=
201509051653 METAR KBLI 051653Z 15008KT 10SM SCT012 13/09 A3007 RMK AO2 SLP189 T01330094=
201509051553 METAR KBLI 051553Z 16006KT 10SM FEW008 12/09 A3006 RMK AO2 SLP187 T01220094=
201509051502 SPECI KBLI 051502Z 15003KT 10SM FEW007 11/09 A3005 RMK AO2=
201509051453 METAR KBLI 051453Z 00000KT 10SM CLR 10/09 A3005 RMK AO2 SLP183 T01000094 53009=
201509051353 METAR KBLI 051353Z 00000KT 10SM SCT007 06/06 A3003 RMK AO2 SLP177 T00610056=
201509051349 SPECI KBLI 051349Z 00000KT 10SM SCT007 07/06 A3003 RMK AO2=
201509051330 SPECI KBLI 051330Z 00000KT 4SM BR BKN007 07/06 A3003 RMK AO2=
201509051322 SPECI KBLI 051322Z 00000KT 2 1/2SM R16/6000VP6000FT BR FEW007 07/06 A3003 RMK AO2=
201509051253 METAR KBLI 051253Z 00000KT 10SM CLR 07/06 A3002 RMK AO2 SLP174 T00670056=
201509051153 METAR KBLI 051153Z 00000KT 3SM R16/5000VP6000FT BR FEW004 07/06 A3002 RMK AO2 SLP172 70001 T00670061 10094 20067 53006=
201509051124 SPECI KBLI 051124Z 00000KT 9SM SCT006 07/06 A3001 RMK AO2=
201509051053 METAR KBLI 051053Z 00000KT 10SM CLR 08/07 A3000 RMK AO2 SLP167 T00780067=
201509050953 METAR KBLI 050953Z 00000KT 5SM BR CLR 08/07 A3000 RMK AO2 SLP165 T00780067=
201509050853 METAR KBLI 050853Z 00000KT 10SM CLR 08/07 A3000 RMK AO2 SLP166 T00780067 50002=
201509050753 METAR KBLI 050753Z 00000KT 10SM CLR 09/08 A3001 RMK AO2 SLP169 T00890078 401940072=
201509050653 METAR KBLI 050653Z 00000KT 10SM CLR 09/08 A3000 RMK AO2 SLP166 T00940083=
201509050553 METAR KBLI 050553Z 00000KT 10SM CLR 11/09 A3000 RMK AO2 SLP164 T01060089 10178 20094 58003=
201509050453 METAR KBLI 050453Z 00000KT 10SM BKN049 11/09 A3000 RMK AO2 SLP167 T01060094=
201509050353 METAR KBLI 050353Z 18004KT 10SM CLR 14/10 A3001 RMK AO2 SLP168 T01390100=
201509050253 METAR KBLI 050253Z 18006KT 10SM SCT049 SCT080 15/09 A3000 RMK AO2 SLP167 T01500094 51012=
201509050153 METAR KBLI 050153Z 00000KT 10SM CLR 17/08 A3000 RMK AO2 SLP164 T01720083=
201509050053 METAR KBLI 050053Z 27005KT 10SM CLR 18/08 A2998 RMK AO2 SLP159 T01780078=
201509042353 METAR KBLI 042353Z 29007G15KT 10SM CLR 17/09 A2997 RMK AO2 SLP155 T01720089 10194 20139 56006=
201509042253 METAR KBLI 042253Z 27008G15KT 220V290 10SM FEW033 SCT041 17/10 A2997 RMK AO2 SLP155 T01720100=
201509042153 METAR KBLI 042153Z 00000KT 10SM CLR 19/09 A2997 RMK AO2 SLP157 T01890094=
201509042053 METAR KBLI 042053Z 34005KT 10SM CLR 18/08 A2999 RMK AO2 SLP162 T01830083 58014=
201509041953 METAR KBLI 041953Z 01005KT 10SM FEW033 BKN100 17/09 A3001 RMK AO2 SLP168 T01720089=
201509041853 METAR KBLI 041853Z VRB03KT 10SM SCT025 15/08 A3002 RMK AO2 SLP174 T01500083=
201509041753 METAR KBLI 041753Z 32005KT 10SM SCT018 SCT024 14/09 A3003 RMK AO2 SLP176 60001 T01390094 10144 20072 53001=
201509041653 METAR KBLI 041653Z 00000KT 10SM FEW019 13/11 A3003 RMK AO2 SLP175 T01330106=
201509041648 SPECI KBLI 041648Z 00000KT 10SM FEW019 13/11 A3003 RMK AO2=
201509041600 SPECI KBLI 041600Z 00000KT 10SM BKN021 11/10 A3003 RMK AO2=
201509041553 METAR KBLI 041553Z 00000KT 10SM FEW002 SCT015 11/10 A3003 RMK AO2 SLP175 T01060100=
201509041453 METAR KBLI 041453Z 00000KT 10SM FEW002 SCT010 08/08 A3002 RMK AO2 SLP173 60001 T00830078 $=
201509041402 SPECI KBLI 041402Z 00000KT 10SM FEW002 07/07 A3002 RMK AO2 $=
201509041353 METAR KBLI 041353Z 00000KT 1/2SM R16/P6000FT FG VV002 08/07 RMK AO2 SLPNO P0001 T00780072 $=
201509041337 SPECI KBLI 041337Z 00000KT 1/2SM R16/P6000FT FG VV002 07/07 RMK AO2 VIS 1/4V3 P0001 $=
201509041329 SPECI KBLI 041329Z 00000KT 1 3/4SM BR CLR 08/08 RMK AO2 VIS 1 1/4V4 P0001 $=
201509041253 METAR KBLI 041253Z 00000KT 10SM BKN075 08/08 RMK AO2 SLPNO T00830083 $=
201509041153 METAR KBLI 041153Z 34003KT 10SM FEW001 BKN070 09/08 RMK AO2 SLPNO 70028 T00890083 10100 20083 $=
201509041144 SPECI KBLI 041144Z 33003KT 10SM SCT001 BKN070 09/08 RMK AO2 $=
201509041136 SPECI KBLI 041136Z 34004KT 3SM R16/3500VP6000FT BR BKN001 BKN070 09/08 RMK AO2 $=
201509041132 SPECI KBLI 041132Z 33004KT 1SM R16/2000VP6000FT BR VV001 08/08 RMK AO2 $=
201509041120 SPECI KBLI 041120Z 00000KT 1/2SM R16/2200V3500FT FG VV001 09/08 RMK AO2 $=
201509041112 SPECI KBLI 041112Z 00000KT 1 3/4SM R16/3500VP6000FT BR OVC001 09/08 RMK AO2 $=
201509041100 SPECI KBLI 041100Z 00000KT 3SM R16/4000VP6000FT BR BKN001 OVC080 09/08 RMK AO2 $=
201509041053 METAR KBLI 041053Z 00000KT 1SM R16/2600V5000FT BR BKN001 OVC080 09/08 RMK AO2 SLPNO T00890083 $=
201509041040 SPECI KBLI 041040Z 00000KT 3/4SM R16/3000VP6000FT BR BKN001 OVC080 09/08 RMK AO2 $=
201509041021 SPECI KBLI 041021Z 00000KT 1 1/4SM R16/2400V4000FT BR OVC001 09/08 RMK AO2 $=
201509041005 SPECI KBLI 041005Z 00000KT 3/4SM R16/2000V4000FT BR VV001 09/08 RMK AO2 $=
201509040953 METAR KBLI 040953Z 00000KT 1/2SM R16/1800V2200FT FG VV001 09/08 RMK AO2 SLPNO T00890083 $=
201509040929 SPECI KBLI 040929Z 00000KT 1/2SM R16/2000V2600FT FG BKN001 OVC080 09/08 RMK AO2 $=
201509040853 METAR KBLI 040853Z 00000KT 1/4SM R16/1000V1200FT FG VV001 09/08 RMK AO2 SLPNO T00890083 $=
201509040846 SPECI KBLI 040846Z 00000KT 1/4SM R16/1200V2000FT FG VV001 09/08 RMK AO2 $=
201509040838 SPECI KBLI 040838Z 00000KT 3/4SM R16/1800V4500FT BR VV001 09/08 RMK AO2 $=
201509040828 SPECI KBLI 040828Z 00000KT 1SM R16/6000VP6000FT BR VV002 09/08 RMK AO2 $=
201509040817 SPECI KBLI 040817Z 00000KT 1/2SM R16/P6000FT FG VV002 08/08 RMK AO2 $=
201509040807 SPECI KBLI 040807Z 00000KT 3/4SM R16/P6000FT BR FEW003 SCT100 09/08 RMK AO2 $=
201509040757 SPECI KBLI 040757Z 00000KT 1 3/4SM BR SCT100 09/08 RMK AO2 $=
201509040753 METAR KBLI 040753Z 00000KT 3SM BR SCT100 09/08 RMK AO2 SLPNO T00890083 401670089 $=
201509040653 METAR KBLI 040653Z 00000KT 10SM OVC065 10/09 RMK AO2 SLPNO T01000094 $=
201509040638 SPECI KBLI 040638Z 00000KT 2SM R16/4000VP6000FT BR BKN065 BKN100 09/09 RMK AO2 $=
201509040553 METAR KBLI 040553Z 00000KT 10SM OVC065 10/09 RMK AO2 SLPNO 60004 T01000094 10156 20100 $=
201509040453 METAR KBLI 040453Z 00000KT 10SM SCT038 BKN070 11/09 A3002 RMK AO2 SLP172 T01060094=
201509040353 METAR KBLI 040353Z 00000KT 10SM FEW038 SCT075 11/09 A3001 RMK AO2 SLP169 T01060094=
201509040253 METAR KBLI 040253Z 00000KT 10SM FEW050 SCT080 11/11 A3001 RMK AO2 RAE28 SLP168 P0004 60004 T01110106 50006=
201509040153 METAR KBLI 040153Z 00000KT 10SM -RA SCT055 OVC070 13/09 A3001 RMK AO2 RAB26 SLP169 P0000 T01280094=
201509040053 METAR KBLI 040053Z 28004KT 10SM SCT034 OVC060 15/09 A3000 RMK AO2 SLP166 T01500094=
201509032353 METAR KBLI 032353Z 18004KT 10SM OVC065 16/08 A2999 RMK AO2 SLP163 60010 T01560083 10167 20111 55005=
201509032253 METAR KBLI 032253Z VRB03KT 10SM CLR 17/09 A2999 RMK AO2 SLP161 T01670094=
201509032153 METAR KBLI 032153Z 14004KT 10SM FEW027 SCT075 16/09 A3000 RMK AO2 SLP163 T01560094=
201509032053 METAR KBLI 032053Z 09004KT 10SM FEW050 BKN060 14/11 A3001 RMK AO2 RAE02 SLP167 P0000 60010 T01390111 58002=
201509031953 METAR KBLI 031953Z 12004KT 10SM -RA BKN060 OVC075 12/10 A3001 RMK AO2 RAE24B44 SLP170 P0001 T01170100=
201509031900 SPECI KBLI 031900Z 17006KT 9SM -RA BKN050 OVC070 11/09 A3002 RMK AO2 P0001=
201509031853 METAR KBLI 031853Z 17006KT 4SM -RA BR SCT009 BKN013 OVC026 11/09 A3002 RMK AO2 SLP173 P0009 T01110094=
201509031758 SPECI KBLI 031758Z 26003KT 6SM -RA BR FEW008 BKN013 OVC032 12/11 A3001 RMK AO2 P0001=
201509031753 METAR KBLI 031753Z 27003KT 7SM -RA BKN015 BKN026 OVC047 12/11 A3001 RMK AO2 SLP169 P0008 60014 T01170106 10133 20111 53006=
201509031653 METAR KBLI 031653Z 17008KT 5SM R16/4500VP6000FT -RA SCT027 BKN033 OVC065 13/10 A3000 RMK AO2 RAB50 SLP167 P0006 T01280100=
201509031553 METAR KBLI 031553Z 19006KT 10SM SCT023 BKN030 BKN035 13/09 A3000 RMK AO2 SLP165 T01280094=
201509031453 METAR KBLI 031453Z 18005KT 10SM BKN030 13/11 A2999 RMK AO2 SLP163 T01280106 53009=
201509031429 SPECI KBLI 031429Z 16005KT 10SM BKN030 12/10 A2999 RMK AO2=
201509031420 SPECI KBLI 031420Z 17005KT 10SM BKN027 12/10 A2998 RMK AO2=
201509031353 METAR KBLI 031353Z 19004KT 10SM CLR 12/09 A2998 RMK AO2 SLP158 T01170094=
201509031253 METAR KBLI 031253Z 18003KT 10SM FEW090 12/09 A2997 RMK AO2 SLP156 T01170094=
201509031153 METAR KBLI 031153Z 18005KT 10SM CLR 12/09 A2996 RMK AO2 SLP154 70025 T01170094 10133 20117 53008=
201509031053 METAR KBLI 031053Z 18004KT 10SM FEW024 BKN034 12/09 A2995 RMK AO2 SLP150 T01220089=
201509031032 SPECI KBLI 031032Z VRB03KT 10SM FEW022 12/09 A2995 RMK AO2=
201509031023 SPECI KBLI 031023Z VRB05KT 10SM BKN022 12/09 A2995 RMK AO2=
201509030953 METAR KBLI 030953Z 16006KT 10SM SCT022 13/08 A2994 RMK AO2 SLP147 T01280083=
201509030853 METAR KBLI 030853Z 17006KT 10SM OVC100 13/09 A2994 RMK AO2 SLP144 T01280089 53003=
201509030753 METAR KBLI 030753Z 17007KT 10SM FEW046 BKN090 13/08 A2994 RMK AO2 SLP143 T01280083 401780094=
201509030653 METAR KBLI 030653Z 17007KT 10SM OVC070 13/09 A2993 RMK AO2 SLP141 T01330089=
201509030553 METAR KBLI 030553Z 17007KT 10SM BKN070 OVC085 13/09 A2993 RMK AO2 SLP142 60001 T01330089 10133 20094 50004=
201509030502 SPECI KBLI 030502Z 00000KT 10SM SCT070 BKN110 11/09 A2994 RMK AO2=
201509030453 METAR KBLI 030453Z 00000KT 10SM FEW065 BKN110 10/09 A2994 RMK AO2 SLP144 T01000094=
201509030353 METAR KBLI 030353Z 00000KT 10SM FEW070 10/09 A2993 RMK AO2 SLP143 T01000094=
201509030253 METAR KBLI 030253Z 00000KT 10SM SCT075 11/11 A2992 RMK AO2 SLP139 60001 T01110106 55002=
201509030153 METAR KBLI 030153Z 10004KT 10SM SCT060 13/10 A2992 RMK AO2 RAE0054 SLP137 T01330100=
201509030053 METAR KBLI 030053Z 08005KT 10SM -RA SCT060 OVC075 12/10 A2992 RMK AO2 RAB2354 SLP139 P0001 T01220100=
201509022353 METAR KBLI 022353Z 07005KT 10SM SCT040 BKN060 OVC095 13/10 A2993 RMK AO2 RAB31E50 SLP141 P0000 60011 T01280100 10178 20111 53011=
201509022253 METAR KBLI 022253Z 02003KT 10SM FEW007 SCT030 BKN041 12/11 A2992 RMK AO2 RAB15E53 SLP140 P0010 T01220106=
201509022240 SPECI KBLI 022240Z 34004KT 4SM -RA BR FEW007 BKN035 OVC050 12/10 A2992 RMK AO2 RAB15 P0010=
201509022153 METAR KBLI 022153Z 34006KT 10SM BKN065 OVC080 12/11 A2989 RMK AO2 TSB16E33RAB08E50 SLP130 P0001 T01220106=
201509022139 SPECI KBLI 022139Z 32006KT 10SM -RA OVC065 12/09 A2989 RMK AO2 TSB16E33RAB08 P0001=
201509022122 SPECI KBLI 022122Z 31013G19KT 8SM TSRA FEW031 SCT060 OVC070 12/08 A2990 RMK AO2 TSB16RAB08 TS 1 N MOV NE LTG CTG P0001=
201509022053 METAR KBLI 022053Z 27011G17KT 10SM FEW055 OVC085 16/09 A2989 RMK AO2 SLP129 TS 7 W MOV E-NE LTG CTG T01560089 51004=
201509022038 SPECI KBLI 022038Z 16006KT 10SM BKN085 17/09 A2988 RMK AO2 TS 7 W MOV E-NE=
201509021953 METAR KBLI 021953Z 17008KT 10SM BKN085 17/11 A2989 RMK AO2 SLP126 T01670106=
201509021853 METAR KBLI 021853Z 16007KT 10SM FEW075 BKN095 16/11 A2989 RMK AO2 SLP128 T01610111=
201509021803 SPECI KBLI 021803Z 16012G17KT 10SM FEW001 SCT030 BKN065 15/12 A2988 RMK AO2 $=
201509021753 METAR KBLI 021753Z 15010KT 10SM FEW010 BKN031 15/11 A2988 RMK AO2 RAE17 SLP124 P0000 60013 T01500111 10150 20094 51012 $=
201509021653 METAR KBLI 021653Z 16005KT 10SM -RA SCT010 BKN030 12/11 A2987 RMK AO2 SLP123 P0008 T01220106=
201509021553 METAR KBLI 021553Z VRB03KT 5SM RA BR SCT010 BKN030 12/11 A2987 RMK AO2 RAB15 SLP123 P0005 T01170106=
201509021453 METAR KBLI 021453Z 16003KT 10SM SCT035 12/11 A2985 RMK AO2 SLP113 T01170106 53015=
201509021353 METAR KBLI 021353Z 16003KT 10SM 11/09 A2983 RMK AO2 SLP106 T01060094=
201509021253 METAR KBLI 021253Z 00000KT 10SM 11/09 A2981 RMK AO2 SLP101 T01110094=
201509021153 METAR KBLI 021153Z 00000KT 6SM BR 10/09 A2980 RMK AO2 SLP098 60002 7//// T01000089 10144 20100 51015=
201509021053 METAR KBLI 021053Z 00000KT 10SM 11/10 A2979 RMK AO2 SLP094 T01110100=
201509020953 METAR KBLI 020953Z VRB03KT 10SM 12/11 A2977 RMK AO2 SLP088 T01220106=
201509020853 METAR KBLI 020853Z 17003KT 10SM 13/11 A2976 RMK AO2 RAE04 SLP082 P0000 60002 T01330106 50004=
201509020753 METAR KBLI 020753Z 18005KT 10SM -RA 14/11 A2976 RMK AO2 SLP082 P0002 T01390111 401780133=
201509020653 METAR KBLI 020653Z 15004KT 10SM -RA 14/11 A2975 RMK AO2 RAB07 SLP080 P0000 T01390111=
201509020553 METAR KBLI 020553Z VRB04KT 10SM SCT045 14/11 A2974 RMK AO2 RAB0456E28 SLP077 P0001 60016 T01390111 10167 20133 50002=
201509020526 SPECI KBLI 020526Z 16006KT 10SM -RA SCT045 14/12 A2975 RMK AO2 RAB0456 P0001=
201509020453 METAR KBLI 020453Z 16004KT 10SM OVC015 14/12 A2975 RMK AO2 RAE43 SLP079 P0002 T01390122=
201509020353 METAR KBLI 020353Z 14005KT 4SM -RA BR FEW007 OVC015 14/13 A2975 RMK AO2 SLP079 P0007 T01390128=
201509020253 METAR KBLI 020253Z 00000KT 7SM -RA FEW007 OVC015 15/14 A2974 RMK AO2 SLP075 P0004 60006 T01500139 56007=
201509020200 SPECI KBLI 020200Z VRB03KT 10SM -RA FEW013 OVC030 16/14 A2974 RMK AO2 P0000=
201509020153 METAR KBLI 020153Z 00000KT 10SM -RA FEW013 OVC022 16/14 A2974 RMK AO2 SLP077 P0002 T01560139=
201509020053 METAR KBLI 020053Z 00000KT 10SM -RA FEW032 OVC050 16/13 A2975 RMK AO2 RAB44 SLP081 P0000 T01610133=
201509012353 METAR KBLI 012353Z 00000KT 10SM FEW032 OVC050 17/13 A2976 RMK AO2 SLP084 6//// T01670133 10178 20150 58016=
201509012253 METAR KBLI 012253Z 13004KT 10SM SCT017 OVC050 16/13 A2979 RMK AO2 SLP094 T01610128=
201509012153 METAR KBLI 012153Z 10007KT 10SM SCT017 OVC047 16/12 A2980 RMK AO2 RAB26E44 SLP096 P0000 T01560122=
201509012108 METAR KBLI 012108Z AUTO 150/10 10SM 6500 FEW002 SCT017 OVC047 16/13 A2981=
201509012053 METAR KBLI 012053Z 14004KT 10SM FEW002 SCT017 OVC047 16/13 A2981 RMK AO2 RAE12 SLP101 P0002 6//// T01610128 56004 $=
201509012000 SPECI KBLI 012000Z 17007KT 5SM R16/0200VP6000FT -RA BR BKN017 OVC047 16/14 A2982 RMK AO2 P0002 $=
201509011953 METAR KBLI 011953Z 18006KT 10SM R16/3500VP6000FT -RA FEW017 OVC047 16/14 A2982 RMK AO2 RAB12 SLP102 P0000 T01560139 $=
201509011853 METAR KBLI 011853Z 18006KT 10SM 17/12 A2981 RMK AO2 SLP100 T01670122 $=
201509011753 METAR KBLI 011753Z 16007KT 10SM FEW003 OVC043 17/13 A2982 RMK AO2 SLP104 60000 T01670128 10167 20144 58003 $=
201509011653 METAR KBLI 011653Z 17007KT 10SM FEW003 OVC047 16/12 A2983 RMK AO2 SLP108 T01610122 $=
201509011553 METAR KBLI 011553Z 18004KT 10SM FEW003 OVC047 16/13 A2983 RMK AO2 SLP108 T01560128 $=
201509011453 METAR KBLI 011453Z 17007KT 10SM FEW002 OVC047 15/13 A2983 RMK AO2 SLP108 60000 T01500128 $=
201509011417 SPECI KBLI 011417Z 17006KT 10SM SCT002 OVC060 15/14 A2983 RMK AO2 $=
201509011402 SPECI KBLI 011402Z 17009KT 10SM SCT002 BKN020 OVC035 14/13 A2983 RMK AO2 $=
201509011353 METAR KBLI 011353Z 17009KT 10SM 14/14 RMK AO2 RAE1257B18E30 SLPNO P0000 T01440139 $=
201509011253 METAR KBLI 011253Z AUTO 17008KT 10SM -RA 15/14 RMK AO2 RAB38 SLPNO P0000 T01500144 $=
201509011153 METAR KBLI 011153Z AUTO 16007KT 10SM 16/14 RMK AO2 RAE02B22E43 SLPNO P0000 60021 70062 T01560139 10167 20150 $=
201509011053 METAR KBLI 011053Z AUTO 15009KT 8SM -RA 15/14 RMK AO2 SLPNO P0003 T01500139 $=
201509010953 METAR KBLI 010953Z AUTO 16011KT 5SM RA BR 16/14 RMK AO2 SLPNO P0005 T01560139 $=
201509010853 METAR KBLI 010853Z AUTO 16010G17KT 7SM RA 16/14 RMK AO2 PK WND 17027/0754 RAB0754 SLPNO P0011 60013 T01610139 $=
201509010753 METAR KBLI 010753Z AUTO 16016G21KT 10SM 17/13 RMK AO2 PK WND 14029/0735 RAB09E46 SLPNO P0002 T01670133 402110150 $=
201509010653 METAR KBLI 010653Z AUTO 15014G23KT 10SM 17/13 RMK AO2 RAE45 SLPNO P0000 T01670133 $=
201509010553 METAR KBLI 010553Z AUTO 16012G18KT 10SM -RA 17/14 RMK AO2 RAB02 SLPNO P0000 60005 T01670139 10172 20156 $=
201509010533 SPECI KBLI 010533Z 16013G23KT 10SM 17/14 RMK AO2 RAB02E21 P0000 $=
201509010453 METAR KBLI 010453Z 15012G19KT 6SM BR BKN023 OVC035 16/14 A2982 RMK AO2 RAE53 SLP104 P0002 T01610139 $=
201509010353 METAR KBLI 010353Z 17007G21KT 7SM -RA BKN016 OVC020 17/14 A2983 RMK AO2 RAB36 SLP108 P0000 T01670139 $=
201509010253 METAR KBLI 010253Z 15013G19KT 7SM BKN016 OVC020 17/14 A2982 RMK AO2 SLP104 60003 T01720139 58017 $=
201509010153 METAR KBLI 010153Z 16006KT 7SM BKN016 OVC020 17/14 A2986 RMK AO2 RAE18 SLP118 P0001 T01670144 $=
201509010053 METAR KBLI 010053Z 16007G15KT 6SM -RA BR BKN016 OVC020 16/14 A2987 RMK AO2 SLP121 P0002 T01560144 $=

# No short TAF reports from KBLI in databse.

###################################
#  large TAF from KBLI
###################################
201509302320 TAF KBLI 302320Z 0100/0124 22004KT P6SM SKC FM010100 00000KT P6SM
                       SKC FM011100 00000KT 2SM BR BKN002 FM011200
                       00000KT 1/2SM FG VV002 FM011700 00000KT
                       3SM BR BKN004 FM011900 34004KT P6SM SKC=
201509301722 TAF KBLI 301722Z 3018/0118 22004KT P6SM SKC FM010100 00000KT P6SM
                       SKC FM011100 00000KT 2SM BR BKN002 FM011200
                       00000KT 1/2SM FG VV002 FM011700 00000KT
                       3SM BR BKN004=
201509301120 TAF KBLI 301120Z 3012/0112 00000KT P6SM MIFG SCT002
                      TEMPO 3012/3015 1 1/2SM BR BKN002 FM301600
                       22004KT P6SM SKC FM010100 00000KT P6SM SKC=
201509301000 TAF AMD KBLI 301000Z 3010/0106 00000KT 1/2SM FG VV001
                      TEMPO 3010/3014 3SM BR SCT002 FM301400 00000KT
                       P6SM MIFG SKC
                      TEMPO 3014/3016 2SM BR BKN002 FM301700 22004KT
                       P6SM SKC FM010100 00000KT P6SM SKC=
201509300520 TAF KBLI 300520Z 3006/0106 00000KT P6SM SKC
                      TEMPO 3008/3011 2SM BR SCT002 FM301100 00000KT
                       P6SM MIFG SKC
                      TEMPO 3011/3015 2SM BR BKN002 FM301700 22004KT
                       P6SM SKC FM010100 00000KT P6SM SKC=
201509292320 TAF KBLI 292320Z 3000/3024 VRB04KT P6SM SKC=
201509291720 TAF KBLI 291720Z 2918/3018 VRB04KT P6SM SKC=
201509291120 TAF KBLI 291120Z 2912/3012 00000KT P6SM MIFG SKC
                      TEMPO 2912/2915 2SM BR FEW002 FM292000 27006KT
                       P6SM SKC FM300200 00000KT P6SM SKC=
201509290524 TAF KBLI 290524Z 2906/3006 00000KT P6SM SKC
                      TEMPO 2909/2913 1 1/2SM BR FM292000 27006KT
                       P6SM SKC FM300200 00000KT P6SM SKC=
201509282320 TAF KBLI 282320Z 2900/2924 29007KT P6SM SKC FM290300 00000KT P6SM
                       SKC FM292000 27006KT P6SM SKC=
201509281720 TAF KBLI 281720Z 2818/2918 VRB03KT P6SM SKC FM282000 29007KT P6SM
                       SKC FM290300 00000KT P6SM SKC=
201509281302 TAF AMD KBLI 281302Z 2813/2912 00000KT P6SM MIFG FEW002
                      TEMPO 2813/2815 1SM BR FM281700 32004KT P6SM
                       SKC FM282100 28007KT P6SM SKC FM290200 00000KT
                       P6SM SKC=
201509281120 TAF KBLI 281120Z 2812/2912 00000KT 5SM BR FEW002
                      TEMPO 2812/2815 1SM BR FM281800 32004KT P6SM
                       SKC FM282100 28007KT P6SM SKC FM290200 00000KT
                       P6SM SKC=
201509280521 TAF KBLI 280521Z 2806/2906 00000KT P6SM SKC
                      TEMPO 2808/2812 2SM BR FEW002 FM281800 32004KT
                       P6SM SKC FM282100 28007KT P6SM SKC FM290200
                       00000KT P6SM SKC=
201509272320 TAF KBLI 272320Z 2800/2824 29007KT P6SM SKC FM280300 00000KT P6SM
                       SKC FM281800 32005KT P6SM SKC=
201509271720 TAF KBLI 271720Z 2718/2818 00000KT P6SM SCT005 FM271900 VRB03KT
                       P6SM SKC FM280300 00000KT P6SM SKC=
201509271120 TAF KBLI 271120Z 2712/2812 00000KT P6SM MIFG SKC
                      TEMPO 2712/2716 1 1/2SM BR FM272000 27006KT
                       P6SM SKC FM280300 00000KT P6SM SKC=
201509270520 TAF KBLI 270520Z 2706/2806 00000KT P6SM SKC FM272000 27006KT P6SM
                       SKC=
201509262320 TAF KBLI 262320Z 2700/2724 VRB03KT P6SM SKC=
201509261728 TAF KBLI 261728Z 2618/2718 VRB03KT P6SM VCSH SCT003 BKN010 OVC014
                       FM262000 29005KT P6SM SCT015 BKN050 FM270200
                       00000KT P6SM FEW250=
201509261640 TAF AMD KBLI 261640Z 2617/2712 20004KT P6SM OVC010 FM261800 18006KT
                       P6SM SCT010 SCT070 FM270200 00000KT P6SM
                       SKC=
201509261342 TAF AMD KBLI 261342Z 2614/2712 00000KT P6SM SCT006 BKN020
                      TEMPO 2614/2616 3/4SM BR BKN006 OVC020 FM261900
                       18006KT P6SM SCT070 FM270200 00000KT P6SM
                       SKC=
201509261120 TAF KBLI 261120Z 2612/2712 00000KT 3SM BR SCT003 BKN020
                      TEMPO 2612/2616 3/4SM BR BKN003 OVC007 FM261900
                       18006KT P6SM SCT070 FM270200 00000KT P6SM
                       SKC=
201509260646 TAF AMD KBLI 260646Z 2607/2706 00000KT 1 1/2SM BR SCT150
                      TEMPO 2612/2616 1/2SM FG BKN002 FM261600
                       00000KT 4SM BR BKN015 FM261900 VRB05KT P6SM
                       SCT070=
201509260523 TAF KBLI 260523Z 2606/2706 00000KT P6SM BKN150 FM261200 00000KT
                       P6SM BKN015 FM261900 VRB05KT P6SM SCT070=
201509252320 TAF KBLI 252320Z 2600/2624 28003KT P6SM FEW014 BKN060 OVC090 FM261200
                       00000KT P6SM BKN015 FM261900 VRB05KT P6SM
                       FEW250=
201509251720 TAF KBLI 251720Z 2518/2618 35004KT P6SM VCSH SCT050 OVC100 FM252000
                       32006KT P6SM SCT050 BKN120 FM260600 04004KT
                       P6SM SCT050=
201509251120 TAF KBLI 251120Z 2512/2612 VRB04KT P6SM -RA OVC050 FM252000 32006KT
                       P6SM BKN050 BKN120 FM260600 04004KT P6SM
                       SCT050=
201509250520 TAF KBLI 250520Z 2506/2606 00000KT P6SM -RA SCT007 OVC035
                      TEMPO 2506/2510 3SM -RA BR BKN007 OVC030
                       FM251000 21006KT 5SM -RA BR SCT015 OVC030
                       TEMPO 2510/2514 3SM -RA BR BKN012 OVC030
                       FM251400 21006KT P6SM VCSH SCT015 BKN040
                       FM252000 32006KT P6SM SCT040 BKN120=
201509242328 TAF KBLI 242328Z 2500/2524 VRB03KT P6SM OVC090 FM250200 18005KT
                       5SM -RA SCT020 OVC040 FM250500 18005KT 4SM
                       -RA BR BKN015 OVC035 FM250800 20004KT P6SM
                       -RA BKN015 OVC035 FM251600 20005KT P6SM
                       SCT030 BKN050 OVC100=
201509241735 TAF KBLI 241735Z 2418/2518 00000KT P6SM SCT050 OVC100 FM242000
                       18008KT P6SM BKN050 OVC090 FM250200 18005KT
                       5SM -RA SCT020 OVC040 FM250500 18005KT 4SM
                       -RA BR BKN015 OVC035 FM250800 20004KT P6SM
                       -SHRA BKN025 BKN040 FM251400 18005KT P6SM
                       SCT035 BKN050=
201509241120 TAF KBLI 241120Z 2412/2512 12005KT P6SM SCT060 BKN120 BKN250 FM242000
                       18008KT P6SM BKN050 OVC120 FM250200 18008KT
                       P6SM -RA SCT020 OVC040 FM250500 21007KT
                       5SM -RA BR BKN015 OVC040=
201509240520 TAF KBLI 240520Z 2406/2506 VRB03KT P6SM BKN060 OVC120 FM241800
                       VRB04KT P6SM BKN050 OVC080
                      PROB30 2420/2424 -RA=
201509232320 TAF KBLI 232320Z 2400/2424 35005KT P6SM SCT040 BKN090 OVC200 FM240400
                       02004KT P6SM BKN060 OVC120 FM241800 VRB04KT
                       P6SM BKN050 OVC080
                      PROB30 2420/2424 -RA=
201509231721 TAF KBLI 231721Z 2318/2418 VRB04KT P6SM FEW100 SCT250 FM240400
                       00000KT P6SM SCT060 OVC120=
201509231120 TAF KBLI 231120Z 2312/2412 00000KT P6SM SCT070 BKN150 FM231800
                       18008KT P6SM BKN060 BKN120 FM240600 18012KT
                       P6SM BKN050 OVC120=
201509230520 TAF KBLI 230520Z 2306/2406 00000KT P6SM SKC FM231400 16010KT P6SM
                       BKN050 OVC120=
201509222321 TAF KBLI 222321Z 2300/2324 VRB04KT P6SM SKC FM231400 16010KT P6SM
                       BKN050 OVC120=
201509221724 TAF KBLI 221724Z 2218/2318 VRB03KT P6SM SKC FM230000 18007KT P6SM
                       SCT050 SCT150 FM231400 16010KT P6SM BKN050
                       OVC120=
201509221526 TAF AMD KBLI 221526Z 2215/2312 00000KT P6SM SKC FM221800 21004KT
                       P6SM SKC FM230000 18007KT P6SM SCT050 SCT150=
201509221120 TAF KBLI 221120Z 2212/2312 00000KT P6SM SKC
                      TEMPO 2214/2218 3SM BR SCT003 FM221800 21004KT
                       P6SM SKC FM230000 18007KT P6SM SCT050 SCT150=
201509220520 TAF KBLI 220520Z 2206/2306 18002KT P6SM SCT010 SCT250
                      TEMPO 2214/2218 5SM BR BKN010 BKN250 FM221800
                       18007KT P6SM SCT025 SCT250=
201509212320 TAF KBLI 212320Z 2200/2224 VRB05KT P6SM SKC FM220400 18002KT P6SM
                       SCT010 SCT250
                      TEMPO 2214/2218 5SM BR BKN010 BKN250 FM221800
                       18007KT P6SM SCT025 SCT250=
201509211723 TAF KBLI 211723Z 2118/2218 00000KT P6SM SCT030 SCT250 FM212000
                       22005KT P6SM SCT250 FM220400 18002KT P6SM
                       SCT010 SCT250
                      TEMPO 2214/2218 5SM BR BKN010 BKN250=
201509211407 TAF AMD KBLI 211407Z 2114/2212 00000KT P6SM OVC026 FM211600 VRB03KT
                       P6SM SCT030 BKN050 FM212000 22005KT P6SM
                       SCT050=
201509211120 TAF KBLI 211120Z 2112/2212 00000KT P6SM MIFG SCT250
                      TEMPO 2112/2115 1SM BCFG SCT001 SCT250 FM211600
                       VRB03KT P6SM SCT250 FM212000 22005KT P6SM
                       SCT050=
201509210520 TAF KBLI 210520Z 2106/2206 VRB03KT P6SM FEW020 SCT050 FM211000
                       00000KT P6SM BKN012 BKN050 FM211600 VRB03KT
                       P6SM BKN020 BKN050 FM211800 20005KT P6SM
                       SCT050=
201509202338 TAF KBLI 202338Z 2100/2124 18013KT P6SM SCT006 BKN025 OVC040 WS020/23030KT
                       TEMPO 2100/2103 18013G23KT -RA FM210300
                       18009KT P6SM BKN035 BKN050 FM210600 VRB03KT
                       P6SM FEW020 SCT035 BKN050
                      TEMPO 2112/2116 BKN020 OVC035 FM211800 22007KT
                       P6SM SCT050=
201509202251 TAF AMD KBLI 202251Z 2023/2118 17015KT P6SM VCSH FEW008 BKN025
                       OVC050 FM210000 19013G20KT P6SM -SHRA BKN025
                       OVC040 WS020/23030KT FM210300 17009KT P6SM
                       SCT028 BKN050 FM210600 VRB03KT P6SM SCT022
                       SCT050=
201509202114 TAF AMD KBLI 202114Z 2021/2118 17015KT 5SM -RA BR SCT008 OVC020
                       FM210000 19013G20KT P6SM -SHRA BKN025 OVC040
                       FM210300 17009KT P6SM SCT028 BKN050 FM210600
                       VRB03KT P6SM SCT022 SCT050=
201509201914 TAF AMD KBLI 201914Z 2019/2118 16013G23KT P6SM SCT028 OVC070
                      TEMPO 2019/2021 -RA BKN028 OVC040 FM202100
                       17020G30KT 5SM -RA BR SCT008 OVC020 FM210000
                       19013G20KT P6SM -SHRA BKN025 OVC040 FM210300
                       17009KT P6SM SCT028 BKN050 FM210600 VRB03KT
                       P6SM SCT022 SCT050=
201509201738 TAF KBLI 201738Z 2018/2118 16013G23KT P6SM SCT028 OVC070
                      TEMPO 2018/2020 -RA FM202000 17020G30KT 5SM
                       -RA BR SCT008 OVC020 FM210000 19013G20KT
                       P6SM -SHRA BKN025 OVC040 FM210300 17009KT
                       P6SM SCT028 BKN050 FM210600 VRB03KT P6SM
                       SCT022 SCT050=
201509201434 TAF AMD KBLI 201434Z 2015/2112 17015G25KT P6SM FEW009 SCT030 OVC050
                       TEMPO 2015/2018 -RA FEW009 BKN030 OVC050
                       FM201800 17018G28KT P6SM -RA SCT009 BKN015
                       OVC030
                      TEMPO 2018/2022 4SM -RA BR BKN009 OVC015
                       FM202200 19018G28KT P6SM -SHRA SCT015 BKN030
                       OVC050 FM210200 19013KT P6SM SCT030 BKN050=
201509201120 TAF KBLI 201120Z 2012/2112 17012G22KT P6SM SCT009 BKN025 OVC060
                       TEMPO 2012/2016 6SM -RA BR BKN009 OVC025
                       FM201600 17015G25KT 6SM -RA BR BKN009 OVC020
                       FM202000 16015G25KT 3SM -RA BR BKN009 OVC020
                       FM210200 16010KT P6SM BKN020 OVC040=
201509200637 TAF AMD KBLI 200637Z 2007/2106 17012G22KT P6SM BKN040 OVC060
                      TEMPO 2007/2010 6SM -RA BR BKN025 OVC040
                       FM201000 15015G25KT 6SM -RA BR BKN025 OVC040
                       FM201900 16015G25KT 5SM -RA BR BKN015 OVC030
                       FM202300 19012KT P6SM BKN025 OVC040=
201509200538 TAF KBLI 200538Z 2006/2106 17012G22KT P6SM BKN040 OVC060
                      TEMPO 2006/2010 -RA FM201000 15015G25KT P6SM
                       -RA BKN025 OVC040 FM201900 16015G25KT 5SM
                       -RA BR BKN015 OVC030 FM202300 19012KT P6SM
                       BKN025 OVC040=
201509192340 TAF KBLI 192340Z 2000/2024 15009KT P6SM VCSH BKN035 OVC050 FM200600
                       15013KT P6SM VCSH BKN028 OVC050
                      TEMPO 2008/2012 -RA FM201200 17013G20KT 6SM
                       -RA BR OVC020 FM201800 17020G30KT 4SM -RA
                       BR SCT009 OVC020 FM202100 18015G25KT P6SM
                       -SHRA BKN025 OVC040=
201509191748 TAF KBLI 191748Z 1918/2018 17009KT P6SM -RA SCT030 OVC050
                      TEMPO 1920/1924 5SM -RA BR OVC030 FM200000
                       15009KT P6SM -RA SCT025 OVC050 FM200600
                       15013KT P6SM -RA BKN025 OVC050 FM201200
                       15013KT 5SM -RA BR FEW011 OVC025
                      TEMPO 2014/2018 15015G25KT=
201509191520 TAF AMD KBLI 191520Z 1915/2012 19005KT P6SM -RA SCT028 OVC050
                      TEMPO 1915/1918 BKN028 OVC050 FM191800 19008KT
                       P6SM -RA BKN025 OVC050 FM192100 17010KT
                       P6SM -RA BKN020 OVC030 FM200300 16010KT
                       P6SM -RA SCT030 OVC045=
201509191120 TAF KBLI 191120Z 1912/2012 17003KT P6SM OVC045 FM191500 16005KT
                       P6SM -RA BKN030 OVC040 FM192100 17010KT
                       P6SM -RA BKN020 OVC030 FM200300 16010KT
                       P6SM -RA SCT030 OVC045=
201509190534 TAF KBLI 190534Z 1906/2006 15005KT P6SM OVC040 FM191500 16005KT
                       P6SM -RA BKN025 OVC040 FM192000 17010KT
                       P6SM -RA BKN015 OVC030=
201509182343 TAF KBLI 182343Z 1900/1924 VRB05KT P6SM VCSH SCT035 OVC050 FM191200
                       16005KT P6SM BKN035 OVC050 FM191500 16005KT
                       P6SM -RA BKN025 OVC040 FM192000 17010KT
                       4SM -RA BR OVC018=
201509182108 TAF AMD KBLI 182108Z 1821/1918 16009KT P6SM SCT035 OVC070
                      TEMPO 1821/1824 -RA FM190600 VRB04KT P6SM
                       BKN035 OVC060 FM191200 16005KT P6SM OVC025
                       PROB30 1912/1918 -RA=
201509181745 TAF KBLI 181745Z 1818/1918 16009KT P6SM SCT028 OVC060
                      TEMPO 1818/1820 -RA BKN028 OVC040 FM182000
                       16009KT 6SM -RA BR BKN025 OVC040 FM190600
                       VRB04KT P6SM BKN035 OVC060 FM191200 16005KT
                       P6SM OVC025
                      PROB30 1912/1918 -RA=
201509181422 TAF AMD KBLI 181422Z 1814/1912 16005KT P6SM FEW008 OVC080 FM181700
                       16010KT P6SM SCT030 OVC060 FM182100 18008KT
                       P6SM -RA SCT030 OVC050 FM190300 16005KT
                       P6SM OVC040=
201509181126 TAF KBLI 181126Z 1812/1912 16005KT P6SM BKN025 OVC200 FM181700
                       16010KT P6SM SCT030 OVC060 FM182100 18008KT
                       P6SM -RA SCT030 OVC050 FM190300 16005KT
                       P6SM OVC040=
201509180852 TAF AMD KBLI 180852Z 1809/1906 17006KT P6SM BKN035 BKN070 FM181100
                       16006KT P6SM BKN025 BKN050 OVC080 FM181800
                       16008KT P6SM SCT030 BKN050 OVC080 FM182100
                       18008KT P6SM -RA SCT030 OVC050=
201509180524 TAF KBLI 180524Z 1806/1906 17006KT P6SM BKN080 FM181000 16006KT
                       P6SM BKN025 BKN050 OVC080 FM181600 16008KT
                       P6SM SCT030 BKN050 OVC080 FM182100 18007KT
                       P6SM -RA SCT030 OVC050=
201509172325 TAF KBLI 172325Z 1800/1824 18005KT P6SM BKN035 BKN050 FM181000
                       16005KT P6SM BKN020 OVC040 FM181800 VRB04KT
                       P6SM SCT030 BKN050=
201509171728 TAF KBLI 171728Z 1718/1818 03004KT P6SM VCSH BKN040 OVC070 FM172200
                       16005KT P6SM VCSH SCT025 BKN040 BKN070 FM180200
                       18006KT P6SM SCT020 BKN040 FM181000 16005KT
                       P6SM BKN020 OVC040=
201509171124 TAF KBLI 171124Z 1712/1812 VRB03KT P6SM -RA SCT025 OVC050 FM171700
                       18006KT P6SM VCSH SCT025 OVC060=
201509170527 TAF KBLI 170527Z 1706/1806 00000KT P6SM -RA SCT040 OVC060 FM171000
                       VRB03KT P6SM -RA SCT025 OVC040 FM171700
                       18006KT P6SM VCSH SCT025 BKN050=
201509162322 TAF KBLI 162322Z 1700/1724 19006KT P6SM FEW060 BKN120 FM170500
                       VRB03KT P6SM SCT040 OVC060 FM171200 17006KT
                       P6SM -RA SCT025 OVC040 FM172000 18008KT
                       P6SM -SHRA SCT025 BKN040=
201509161720 TAF KBLI 161720Z 1618/1718 00000KT P6SM OVC100 FM162200 15006KT
                       P6SM BKN100 OVC200 FM170400 VRB03KT P6SM
                       -RA OVC040 FM171100 15006KT P6SM -RA SCT012
                       OVC022=
201509161130 TAF KBLI 161130Z 1612/1712 VRB03KT P6SM SCT100 BKN200 FM162200
                       15006KT P6SM BKN100 OVC200 FM170400 VRB03KT
                       P6SM -RA OVC040 FM171100 15006KT P6SM -RA
                       SCT012 OVC022=
201509160539 TAF KBLI 160539Z 1606/1706 VRB03KT P6SM SCT100 BKN200 FM162300
                       15006KT P6SM BKN100 OVC200 FM170500 VRB03KT
                       P6SM -RA OVC040=
201509152320 TAF KBLI 152320Z 1600/1624 VRB04KT P6SM SCT060 BKN150 FM160300
                       VRB02KT P6SM BKN080 FM162000 15006KT P6SM
                       SCT100 BKN200=
201509151721 TAF KBLI 151721Z 1518/1618 16007KT P6SM SCT023 BKN040 BKN080 FM152000
                       16010KT P6SM SCT050 BKN200 FM160100 17006KT
                       P6SM OVC090 FM160800 VRB03KT P6SM OVC050=
201509151545 TAF AMD KBLI 151545Z 1516/1612 16010KT P6SM SCT030 BKN080
                      TEMPO 1516/1519 BKN030 BKN080 FM152000 16010KT
                       P6SM SCT050 SCT120 BKN200 FM160800 04006KT
                       P6SM SCT050 BKN100 OVC200=
201509151136 TAF KBLI 151136Z 1512/1612 16010KT P6SM SCT050 BKN100 FM152000
                       16010KT P6SM SCT050 SCT120 BKN200 FM160800
                       04006KT P6SM SCT050 BKN100 OVC200=
201509150542 TAF KBLI 150542Z 1506/1606 VRB03KT P6SM SCT050 SCT200 FM152000
                       16010KT P6SM SCT050 BKN120 BKN200=
201509142320 TAF KBLI 142320Z 1500/1524 29005KT P6SM BKN080 FM150200 18008KT
                       P6SM SCT050 BKN100 FM151000 18008KT P6SM
                       BKN020 OVC035 FM152000 16010KT P6SM SCT025
                       BKN050 OVC120=
201509141726 TAF KBLI 141726Z 1418/1518 15003KT P6SM BKN020 OVC035 FM142000
                       16005KT P6SM BKN040 BKN060 OVC120 FM150200
                       18008KT P6SM SCT050 BKN100=
201509141138 TAF KBLI 141138Z 1412/1512 18006KT P6SM BKN060 FM141900 18010KT
                       P6SM BKN040 BKN060 FM150300 18006KT P6SM
                       SCT050 BKN100=
201509140532 TAF KBLI 140532Z 1406/1506 18006KT P6SM SCT060 BKN250 FM141600
                       18006KT P6SM BKN040 BKN250 FM150000 18006KT
                       P6SM SCT050 BKN100=
201509132320 TAF KBLI 132320Z 1400/1424 18005KT P6SM SCT060 BKN250 FM141300
                       VRB03KT P6SM BKN040 BKN250 FM142000 19006KT
                       P6SM SCT050 BKN100=
201509131721 TAF KBLI 131721Z 1318/1418 24006KT P6SM SCT070 SCT250 FM140300
                       00000KT P6SM SCT250 FM141300 VRB03KT P6SM
                       BKN035=
201509131134 TAF KBLI 131134Z 1312/1412 18008KT P6SM SCT005 BKN050 FM131900
                       18008KT P6SM SCT250=
201509130532 TAF KBLI 130532Z 1306/1406 18008KT P6SM SKC FM131300 18008KT P6SM
                       OVC015 FM131700 18010KT P6SM BKN020 FM131900
                       18012KT P6SM SCT250=
201509122320 TAF KBLI 122320Z 1300/1324 18005KT P6SM SKC FM131300 18008KT P6SM
                       OVC015 FM131900 18010KT P6SM BKN020 FM132100
                       18012KT P6SM SCT250=
201509121726 TAF KBLI 121726Z 1218/1318 00000KT 2SM BR OVC002 FM122000 24006KT
                       P6SM SKC FM130300 17008KT P6SM SKC FM131300
                       18008KT P6SM BKN015=
201509121702 TAF AMD KBLI 121702Z 1217/1312 00000KT 2SM BR OVC002 FM122000 24006KT
                       P6SM SKC=
201509121501 TAF AMD KBLI 121501Z 1215/1312 00000KT 5SM BR SCT002
                      TEMPO 1215/1217 1/2SM FG VV002 FM121700 24006KT
                       P6SM SKC=
201509121335 TAF AMD KBLI 121335Z 1214/1312 00000KT P6SM FEW003
                      TEMPO 1214/1216 BKN003 FM121900 24006KT P6SM
                       SKC=
201509121136 TAF KBLI 121136Z 1212/1312 00000KT P6SM SKC FM121900 24006KT P6SM
                       SKC=
201509120536 TAF KBLI 120536Z 1206/1306 00000KT P6SM SKC
                      TEMPO 1209/1213 2SM BR SCT002 FM121900 24006KT
                       P6SM SKC=
201509112336 TAF KBLI 112336Z 1200/1224 28005KT P6SM SKC FM120300 00000KT P6SM
                       SKC
                      TEMPO 1209/1213 2SM BR FM121900 21006KT P6SM
                       SKC=
201509111720 TAF KBLI 111720Z 1118/1218 30006KT P6SM SKC FM120300 VRB03KT P6SM
                       SKC
                      TEMPO 1209/1213 2SM BR=
201509111120 TAF KBLI 111120Z 1112/1212 VRB04KT P6SM SKC
                      TEMPO 1112/1115 2SM BR BKN002 FM112000 30006KT
                       P6SM SKC FM120300 VRB03KT P6SM SKC=
201509110520 TAF KBLI 110520Z 1106/1206 VRB04KT P6SM SKC FM112000 30006KT P6SM
                       SKC FM120300 VRB03KT P6SM SKC=
201509102325 TAF KBLI 102325Z 1100/1124 28006KT P6SM SKC FM110400 VRB04KT P6SM
                       SKC FM112000 28006KT P6SM SKC=
201509101722 TAF KBLI 101722Z 1018/1118 35006KT P6SM SKC FM102000 29007KT P6SM
                       SKC FM110400 VRB04KT P6SM SKC=
201509101315 TAF AMD KBLI 101315Z 1013/1112 VRB03KT 3SM BR SCT001
                      TEMPO 1013/1016 1/2SM FG VV001 FM101600 30006KT
                       P6SM SKC FM110400 VRB04KT P6SM SKC=
201509101120 TAF KBLI 101120Z 1012/1112 VRB03KT 5SM BR SKC
                      TEMPO 1012/1016 2SM BR SCT002 FM101700 30006KT
                       P6SM SKC FM110400 VRB04KT P6SM SKC=
201509100520 TAF KBLI 100520Z 1006/1106 VRB03KT P6SM SKC FM101100 VRB03KT 5SM
                       BR SCT006
                      TEMPO 1012/1016 2SM BR BKN002 FM101700 30006KT
                       P6SM SKC FM110300 35004KT P6SM SKC=
201509092340 TAF KBLI 092340Z 1000/1024 19006KT P6SM SCT035 FM100400 VRB03KT
                       P6SM SKC FM101100 VRB03KT 4SM BR SCT005
                       TEMPO 1012/1016 2SM BR BKN002 FM101700 31005KT
                       P6SM SKC=
201509091740 TAF KBLI 091740Z 0918/1018 VRB03KT P6SM BKN035 FM091900 19008KT
                       P6SM SCT035 FM100400 VRB03KT P6SM SKC FM101100
                       VRB03KT 4SM BR SCT005
                      TEMPO 1012/1016 3/4SM BR BKN002 FM101700
                       VRB03KT P6SM SKC=
201509091211 TAF AMD KBLI 091211Z 0912/1012 VRB03KT 5SM BR SCT006 SCT050
                      TEMPO 0912/0916 2SM BR BKN004 FM091700 VRB03KT
                       P6SM SCT010 SCT050 FM091900 19008KT P6SM
                       SKC FM100400 VRB03KT P6SM SKC FM101100 VRB03KT
                       4SM BR SCT005=
201509091120 TAF KBLI 091120Z 0912/1012 VRB03KT 5SM BR SCT006 SCT050
                      TEMPO 0913/0916 2SM BR BKN006 FM091700 VRB03KT
                       P6SM SCT010 SCT050 FM091900 19008KT P6SM
                       SKC FM100400 VRB03KT P6SM SKC FM101100 VRB03KT
                       4SM BR SCT005=
201509090520 TAF KBLI 090520Z 0906/1006 17008KT P6SM SCT040 BKN200 FM091100
                       VRB03KT 5SM BR BKN005
                      TEMPO 0913/0916 2SM BR BKN002 FM091700 VRB03KT
                       P6SM SCT010 BKN120 FM091900 19008KT P6SM
                       SCT120=
201509082320 TAF KBLI 082320Z 0900/0924 18012KT P6SM SCT040 BKN200 FM091100
                       VRB03KT 5SM BR BKN005
                      TEMPO 0913/0916 2SM BR BKN002 FM091700 VRB03KT
                       P6SM SCT010 BKN120 FM091900 21007KT P6SM
                       BKN120=
201509082104 TAF AMD KBLI 082104Z 0821/0918 17012G20KT P6SM BKN022 BKN040 FM090000
                       20010KT P6SM SCT025 BKN050 FM091000 18005KT
                       5SM BR BKN005 FM091700 21005KT P6SM SCT020=
201509081720 TAF KBLI 081720Z 0818/0918 18008KT P6SM OVC022 FM082100 21007KT
                       P6SM BKN025 OVC040
                      TEMPO 0822/0902 SCT020 BKN040 FM090900 00000KT
                       5SM BR OVC008 FM091700 VRB04KT P6SM SCT020=
201509081301 TAF AMD KBLI 081301Z 0813/0912 16010G15KT P6SM VCSH FEW030 OVC040
                       TEMPO 0813/0817 -RA BKN020 FM081700 19012KT
                       P6SM SCT020 BKN030 OVC045 FM090600 18008KT
                       P6SM OVC025 FM091000 16006KT P6SM OVC015=
201509081120 TAF KBLI 081120Z 0812/0912 18009KT P6SM SCT020 OVC040 FM081300
                       19009KT P6SM OVC020
                      TEMPO 0813/0817 -RA FM081900 19012KT P6SM
                       SCT020 BKN030 OVC045 FM090600 18008KT P6SM
                       OVC025 FM091000 16006KT P6SM OVC015=
201509080901 TAF AMD KBLI 080901Z 0809/0906 18007KT P6SM FEW020 OVC050 FM081100
                       18009KT P6SM -RA OVC020 FM081900 19012KT
                       P6SM SCT020 BKN030 OVC045 FM090500 18008KT
                       P6SM OVC025=
201509080521 TAF KBLI 080521Z 0806/0906 16006KT P6SM BKN040 OVC070 FM080900
                       18007KT P6SM BKN020 OVC040 FM081100 18009KT
                       P6SM -RA OVC020 FM081900 19012KT P6SM SCT020
                       BKN030 OVC045 FM090500 18008KT P6SM OVC025=
201509072320 TAF KBLI 072320Z 0800/0824 VRB04KT P6SM SCT040 SCT200 FM080500
                       16006KT P6SM BKN040 BKN100 FM080900 18007KT
                       P6SM BKN020 OVC040 FM081700 21005KT P6SM
                       SCT030 BKN050=
201509071720 TAF KBLI 071720Z 0718/0818 VRB04KT P6SM SCT020 SCT060 FM072100
                       VRB04KT P6SM SCT040 BKN100 FM080000 16006KT
                       P6SM BKN040 BKN100 FM080900 18007KT P6SM
                       BKN020 OVC040=
201509071126 TAF KBLI 071126Z 0712/0812 00000KT P6SM SCT005 BKN120
                      TEMPO 0712/0715 BKN005 OVC120 FM071500 17004KT
                       P6SM SCT010 BKN060
                      TEMPO 0715/0718 BKN010 OVC060 FM072100 18005KT
                       P6SM SCT060 BKN120=
201509070934 TAF AMD KBLI 070934Z 0710/0806 00000KT P6SM BKN004
                      TEMPO 0710/0713 SCT004 SCT050 FM071300 17005KT
                       P6SM SCT006 BKN050
                      TEMPO 0713/0717 BKN006 OVC050 FM072100 18005KT
                       P6SM SCT050 BKN100=
201509070528 TAF KBLI 070528Z 0706/0806 00000KT P6SM SCT050 BKN150 FM071100
                       17005KT P6SM SCT030 BKN050 FM072100 18005KT
                       P6SM SCT050 BKN100=
201509062320 TAF KBLI 062320Z 0700/0724 17007KT P6SM VCSH BKN040 FM070500 20005KT
                       P6SM BKN020 BKN050 FM071700 30005KT P6SM
                       SCT030 BKN050=
201509061720 TAF KBLI 061720Z 0618/0718 VRB04KT P6SM VCSH OVC035 FM062100 VRB04KT
                       P6SM VCSH BKN040 FM070500 20005KT P6SM BKN020
                       BKN050 FM071700 30005KT P6SM SCT030 BKN050=
201509061130 TAF KBLI 061130Z 0612/0712 15003KT P6SM -RA SCT025 OVC070
                      TEMPO 0613/0617 4SM BR OVC020 FM062000 19007KT
                       P6SM VCSH SCT025 BKN050 FM070100 18007KT
                       P6SM SCT040 BKN090=
201509060536 TAF KBLI 060536Z 0606/0706 18003KT P6SM SCT050 OVC120 FM060800
                       18006KT P6SM -RA BKN040 OVC080 FM061300
                       17006KT P6SM -RA SCT020 OVC040
                      TEMPO 0613/0617 4SM BR OVC020 FM062000 19007KT
                       P6SM VCSH SCT025 BKN050 FM070100 18007KT
                       P6SM SCT040 BKN090=
201509052320 TAF KBLI 052320Z 0600/0624 17012KT P6SM SCT040 BKN150 FM060800
                       18007KT P6SM -RA BKN040 OVC080 FM061400
                       VRB03KT 5SM -DZ BR OVC020 FM061800 VRB03KT
                       P6SM VCSH BKN025 BKN050=
201509051720 TAF KBLI 051720Z 0518/0618 17007KT P6SM SCT015
                      TEMPO 0518/0520 BKN015 FM052000 20007KT P6SM
                       SCT015 SCT150 FM060000 23007KT P6SM SCT040
                       BKN150 FM060900 18007KT P6SM -RA BKN040
                       OVC080 FM061400 VRB03KT 5SM -DZ BR OVC020
                       FM061700 VRB03KT P6SM VCSH BKN025 BKN050=
201509051127 TAF KBLI 051127Z 0512/0612 00000KT P6SM SKC
                      TEMPO 0512/0516 3SM BR OVC010 FM051600 17010KT
                       P6SM FEW020 SCT070 FM060100 17007KT P6SM
                       SCT200=
201509050536 TAF KBLI 050536Z 0506/0606 00000KT P6SM BKN050 FM051100 20005KT
                       P6SM SCT015 BKN050
                      TEMPO 0511/0515 3SM BR BKN015 OVC050 FM051900
                       17010KT P6SM SCT050 BKN100 FM060100 17007KT
                       P6SM SCT100=
201509042340 TAF KBLI 042340Z 0500/0524 29010KT P6SM SCT040 FM050100 29007KT
                       P6SM BKN070 FM050400 00000KT P6SM SCT070
                       FM051300 20005KT P6SM SCT003 FM051800 17010KT
                       P6SM SCT100=
201509041740 TAF KBLI 041740Z 0418/0518 30003KT P6SM SCT020 FM042100 30003KT
                       P6SM SCT020 FM050300 00000KT P6SM SCT150=
201509041308 TAF AMD KBLI 041308Z 0413/0512 00000KT P6SM FEW001 BKN080
                      TEMPO 0413/0416 1/2SM FG BKN001 OVC080 FM041600
                       00000KT P6SM FEW002 BKN090 FM042100 02004KT
                       P6SM SCT090 FM050500 00000KT P6SM FEW100
                       SCT200=
201509041128 TAF KBLI 041128Z 0412/0512 00000KT 4SM BR SCT001 OVC080
                      TEMPO 0412/0416 1/2SM FG BKN001 OVC080 FM041600
                       00000KT P6SM FEW002 BKN090 FM042100 02004KT
                       P6SM SCT090 FM050500 00000KT P6SM FEW100
                       SCT200=
201509040838 TAF AMD KBLI 040838Z 0409/0506 00000KT 4SM BR SCT002 BKN100
                      TEMPO 0409/0413 1SM BR VV002 FM041600 00000KT
                       P6SM FEW005 BKN090 FM041900 02004KT P6SM
                       SCT090=
201509040537 TAF KBLI 040537Z 0406/0506 00000KT P6SM SCT040 BKN070 FM040900
                       VRB03KT P6SM SCT020 BKN050 FM041800 02004KT
                       P6SM BKN080=
201509032347 TAF KBLI 032347Z 0400/0424 17008KT P6SM -SHRA BKN040 BKN060 FM040100
                       VRB04KT P6SM BKN060 FM040400 14003KT P6SM
                       SCT060 BKN100 FM040900 VRB03KT P6SM SCT020
                       BKN050 FM041800 02003KT P6SM BKN080=
201509031747 TAF KBLI 031747Z 0318/0418 17008KT P6SM -SHRA BKN030 OVC060 FM031900
                       17008KT P6SM VCSH BKN030 BKN080 FM040100
                       VRB04KT P6SM BKN060 FM040400 14003KT P6SM
                       SCT060 BKN100 FM040900 VRB03KT P6SM SCT020
                       BKN050=
201509031127 TAF KBLI 031127Z 0312/0412 18004KT P6SM FEW024 BKN035
                      TEMPO 0313/0317 BKN025 OVC040 FM031800 17008KT
                       P6SM VCSH BKN035 OVC080 FM040200 17004KT
                       P6SM SCT050 BKN100 FM040900 17006KT P6SM
                       SCT025 BKN050=
201509030538 TAF KBLI 030538Z 0306/0406 00000KT P6SM SCT070 BKN110 FM030900
                       17007KT P6SM BKN025 OVC040
                      TEMPO 0309/0313 SCT030 BKN050 FM031800 17010KT
                       P6SM BKN035 OVC080 FM040200 17004KT P6SM
                       SCT050 BKN100=
201509022345 TAF KBLI 022345Z 0300/0324 16008KT P6SM SCT030 BKN040 FM031000
                       17008KT P6SM BKN025 OVC040 FM031800 17010KT
                       P6SM BKN035 OVC080=
201509021755 TAF KBLI 021755Z 0218/0318 16008KT P6SM -SHRA SCT010 BKN030 FM031200
                       17006KT P6SM -SHRA BKN015 OVC040=
201509021126 TAF KBLI 021126Z 0212/0312 16008KT P6SM -SHRA BKN020 OVC030
                      TEMPO 0213/0217 4SM -TSRA BKN020CB OVC030
                       FM021800 18010KT P6SM -SHRA SCT020 BKN035
                       BKN050 FM030030 18010KT P6SM SCT035 BKN060=
201509020539 TAF KBLI 020539Z 0206/0306 16008KT P6SM SCT020 BKN045
                      TEMPO 0206/0210 -SHRA BKN020 OVC045 FM021400
                       18010KT P6SM -SHRA BKN020 OVC030 FM021800
                       18010KT P6SM -SHRA SCT020 BKN035 BKN050
                       FM022300 18010KT P6SM SCT035 BKN060=
201509012344 TAF KBLI 012344Z 0200/0224 14005KT P6SM SCT015 OVC050 FM020800
                       17006KT P6SM -RA BKN030 OVC040 FM021200
                       18006KT P6SM -SHRA BKN025 OVC040 FM021600
                       18008KT P6SM BKN035 OVC060 FM022000 18010KT
                       P6SM BKN040 BKN080=
201509011744 TAF KBLI 011744Z 0118/0218 20008KT P6SM -SHRA OVC050 FM011900 22010KT
                       P6SM BKN025 OVC050 FM012300 18008KT P6SM
                       -SHRA SCT030 BKN050 FM020900 17008KT P6SM
                       BKN025 OVC040 FM021200 17008KT P6SM BKN015
                       OVC040=
201509011124 TAF KBLI 011124Z 0112/0212 16010KT P6SM -RA BKN020 OVC035 FM011800
                       20008KT P6SM -SHRA BKN025 BKN050 FM012300
                       20008KT P6SM SCT025 BKN045 FM020900 20008KT
                       P6SM BKN025 OVC040=
201509010536 TAF KBLI 010536Z 0106/0206 17012G22KT 5SM -RA BR OVC020 FM011200
                       20010KT P6SM -RA BKN020 OVC040 FM011900
                       20008KT P6SM -SHRA BKN025 BKN050 FM012300
                       20008KT P6SM SCT025 BKN045=
201509010312 TAF AMD KBLI 010312Z 0103/0124 17012G22KT 5SM -RA BR OVC015 FM010900
                       20010KT P6SM -RA BKN020 OVC040 FM012000
                       20008KT P6SM VCSH BKN025 BKN050=