##########################################################
# Query made at 02/16/2025 20:59:10 UTC
# Time interval: from 05/01/2015 00:00  to 05/31/2015 23:59  UTC
##########################################################

##########################################################
# KBLI, Bellingham, Bellingham International Airport (United States)
# WMO index: -----. WIGOS ID: Unknown
# Latitude 48-47-58N. Longitude 122-32-21W. Altitude 48 m.
##########################################################

###################################
#  METAR/SPECI from KBLI
###################################
201505312353 METAR KBLI 312353Z 00000KT 10SM BKN110 20/13 A2982 RMK AO2 SLP102 T02000128 10211 20172 58018=
201505312308 METAR KBLI 312308Z AUTO 230/06 10SM 6500 FEW110 20/12 A2983=
201505312253 METAR KBLI 312253Z 00000KT 10SM FEW100 20/12 A2984 RMK AO2 SLP109 T02000117=
201505312153 METAR KBLI 312153Z 27006KT 10SM CLR 21/13 A2986 RMK AO2 SLP116 T02110128=
201505312053 METAR KBLI 312053Z 28005KT 10SM CLR 19/13 A2987 RMK AO2 SLP120 T01940128 55008=
201505311953 METAR KBLI 311953Z VRB05KT 10SM CLR 19/13 A2987 RMK AO2 SLP119 T01940128=
201505311853 METAR KBLI 311853Z 19004KT 10SM CLR 18/12 A2988 RMK AO2 SLP125 T01780122=
201505311753 METAR KBLI 311753Z 00000KT 10SM CLR 17/11 A2989 RMK AO2 SLP127 T01720111 10178 20094 58007=
201505311653 METAR KBLI 311653Z 00000KT 10SM CLR 16/11 A2990 RMK AO2 SLP131 T01560106=
201505311553 METAR KBLI 311553Z 20003KT 10SM SCT200 13/11 A2991 RMK AO2 SLP134 T01330106=
201505311517 SPECI KBLI 311517Z VRB05KT 10SM FEW006 13/11 A2992 RMK AO2=
201505311453 SPECI KBLI 311453Z 18003KT 10SM FEW020 SCT200 14/10 A2991 RMK AO2 SLP135 T01390100 51001=
201505311453 METAR KBLI 311453Z 18003KT 10SM FEW020 SCT200 14/10 A2991 RMK AO2 SLP135 T01390100 51001=
201505311353 METAR KBLI 311353Z 00000KT 10SM CLR 12/11 A2991 RMK AO2 SLP133 T01220106=
201505311253 METAR KBLI 311253Z AUTO 16004KT 9SM CLR 12/10 A2991 RMK AO2 SLP136 T01170100=
201505311153 METAR KBLI 311153Z AUTO 00000KT 10SM CLR 10/09 A2991 RMK AO2 SLP135 T01000089 10150 20100 58002=
201505311053 METAR KBLI 311053Z AUTO 16005KT 10SM CLR 12/10 A2991 RMK AO2 SLP134 T01220100=
201505310953 METAR KBLI 310953Z AUTO 16009KT 10SM CLR 12/10 A2992 RMK AO2 SLP137 T01220100=
201505310853 METAR KBLI 310853Z AUTO 15006KT 10SM CLR 13/09 A2992 RMK AO2 SLP136 T01330089 50003=
201505310753 METAR KBLI 310753Z AUTO 18007G14KT 10SM CLR 13/09 A2992 RMK AO2 SLP137 T01330094 401890133=
201505310653 METAR KBLI 310653Z AUTO 17008G15KT 10SM CLR 14/09 A2991 RMK AO2 SLP134 T01440094=
201505310553 METAR KBLI 310553Z AUTO 17004KT 10SM CLR 15/11 A2991 RMK AO2 SLP133 T01500106 10183 20150 53006=
201505310453 METAR KBLI 310453Z 17008KT 10SM CLR 15/11 A2990 RMK AO2 SLP131 T01500106=
201505310353 METAR KBLI 310353Z 17009KT 10SM CLR 15/10 A2989 RMK AO2 SLP127 T01500100=
201505310253 METAR KBLI 310253Z 17008KT 10SM CLR 16/09 A2989 RMK AO2 SLP127 T01610094 55007=
201505310153 METAR KBLI 310153Z 16010G17KT 10SM CLR 17/09 A2989 RMK AO2 SLP127 T01670094=
201505310053 METAR KBLI 310053Z 17009KT 10SM CLR 17/10 A2990 RMK AO2 SLP129 T01720100=
201505302353 METAR KBLI 302353Z 18007KT 10SM CLR 18/10 A2991 RMK AO2 SLP135 T01780100 10189 20144 58010=
201505302253 METAR KBLI 302253Z 17008G15KT 10SM CLR 18/10 A2993 RMK AO2 SLP140 T01830100=
201505302153 METAR KBLI 302153Z 18009G16KT 160V220 10SM CLR 19/11 A2993 RMK AO2 SLP142 T01890106=
201505302053 METAR KBLI 302053Z VRB06KT 10SM CLR 17/11 A2994 RMK AO2 SLP145 T01720106 58001=
201505301953 METAR KBLI 301953Z 18008KT 160V220 10SM CLR 16/10 A2995 RMK AO2 SLP146 T01610100=
201505301853 METAR KBLI 301853Z 19009G16KT 150V220 10SM CLR 16/09 A2995 RMK AO2 SLP148 T01560094=
201505301753 METAR KBLI 301753Z 18010G16KT 10SM CLR 15/09 A2994 RMK AO2 SLP146 T01500094 10156 20133 50004=
201505301653 METAR KBLI 301653Z 16012G19KT 10SM CLR 14/09 A2995 RMK AO2 SLP147 T01440094=
201505301553 METAR KBLI 301553Z 17013G21KT 10SM CLR 14/09 A2994 RMK AO2 SLP145 T01390094=
201505301453 METAR KBLI 301453Z 16013G19KT 10SM FEW075 14/08 A2993 RMK AO2 SLP142 T01390078 51009=
201505301353 METAR KBLI 301353Z 16012G18KT 10SM BKN055 14/08 A2993 RMK AO2 SLP140 T01390078=
201505301253 METAR KBLI 301253Z AUTO 16012G18KT 10SM FEW070 14/07 A2992 RMK AO2 SLP136 T01390072=
201505301153 METAR KBLI 301153Z AUTO 17011G17KT 10SM OVC070 13/08 A2990 RMK AO2 SLP132 T01330083 10167 20133 51006=
201505301053 METAR KBLI 301053Z AUTO 17009G18KT 10SM OVC065 13/09 A2990 RMK AO2 SLP130 T01330089=
201505300953 METAR KBLI 300953Z AUTO 18011G18KT 10SM SCT065 BKN085 13/09 A2989 RMK AO2 SLP129 T01330094=
201505300853 METAR KBLI 300853Z AUTO 17009KT 10SM BKN065 BKN080 14/09 A2989 RMK AO2 SLP126 T01390094 51003=
201505300753 METAR KBLI 300753Z AUTO 17012G18KT 10SM CLR 15/09 A2988 RMK AO2 SLP125 T01500094 402280128=
201505300653 METAR KBLI 300653Z AUTO 17011G16KT 10SM CLR 16/09 A2988 RMK AO2 SLP125 T01560094=
201505300553 METAR KBLI 300553Z AUTO 17011KT 10SM CLR 17/09 A2988 RMK AO2 SLP123 T01670094 10222 20167 53004=
201505300453 METAR KBLI 300453Z 18010G16KT 10SM CLR 18/11 A2987 RMK AO2 SLP120 T01780106=
201505300353 METAR KBLI 300353Z 17009G16KT 10SM CLR 19/08 A2986 RMK AO2 SLP117 T01940083=
201505300253 METAR KBLI 300253Z 17009KT 10SM CLR 21/09 A2987 RMK AO2 SLP119 T02110094 56009=
201505300153 METAR KBLI 300153Z 17008KT 10SM CLR 21/12 A2987 RMK AO2 SLP119 T02110122=
201505300053 METAR KBLI 300053Z 17007KT 10SM CLR 21/12 A2988 RMK AO2 SLP124 T02110122=
201505292353 METAR KBLI 292353Z 19007KT 10SM CLR 22/13 A2989 RMK AO2 SLP128 T02170128 10228 20172 56015=
201505292253 METAR KBLI 292253Z 16007KT 10SM CLR 22/13 A2991 RMK AO2 SLP133 T02220133=
201505292153 METAR KBLI 292153Z 17006KT 10SM CLR 22/14 A2992 RMK AO2 SLP137 T02220139=
201505292053 METAR KBLI 292053Z 16006KT 10SM CLR 21/13 A2994 RMK AO2 SLP144 T02110133 58012=
201505291953 METAR KBLI 291953Z VRB06KT 10SM CLR 21/13 A2995 RMK AO2 SLP148 T02060133=
201505291853 METAR KBLI 291853Z 17007KT 10SM CLR 18/13 A2997 RMK AO2 SLP154 T01830128=
201505291753 METAR KBLI 291753Z 17006KT 10SM FEW075 17/12 A2997 RMK AO2 SLP156 T01720122 10172 20128 58003=
201505291653 METAR KBLI 291653Z VRB05KT 10SM CLR 16/12 A2998 RMK AO2 SLP158 T01560122=
201505291553 METAR KBLI 291553Z 16007KT 10SM CLR 14/12 A2999 RMK AO2 SLP160 T01440117=
201505291453 METAR KBLI 291453Z 17006KT 10SM CLR 14/12 A2998 RMK AO2 SLP159 T01390117 51004=
201505291353 METAR KBLI 291353Z 17005KT 10SM CLR 13/11 A2998 RMK AO2 SLP159 T01330111=
201505291253 METAR KBLI 291253Z AUTO 00000KT 10SM CLR 13/11 A2998 RMK AO2 SLP157 T01280111=
201505291153 METAR KBLI 291153Z AUTO 16004KT 10SM CLR 13/12 A2997 RMK AO2 SLP156 T01280117 10167 20128 58000=
201505291053 METAR KBLI 291053Z AUTO 00000KT 10SM CLR 13/12 A2998 RMK AO2 SLP156 T01330122=
201505290953 METAR KBLI 290953Z AUTO 18003KT 10SM CLR 14/12 A2998 RMK AO2 SLP156 T01390122=
201505290853 METAR KBLI 290853Z AUTO 18003KT 10SM CLR 15/13 A2997 RMK AO2 SLP156 T01500128 56004=
201505290753 METAR KBLI 290753Z AUTO 17004KT 10SM CLR 16/13 A2998 RMK AO2 SLP156 T01560133 402440117=
201505290653 METAR KBLI 290653Z AUTO 18004KT 10SM CLR 16/13 A2998 RMK AO2 SLP156 T01560133=
201505290553 METAR KBLI 290553Z AUTO 18006KT 10SM CLR 17/14 A2999 RMK AO2 SLP160 T01720139 10239 20172 50001=
201505290453 METAR KBLI 290453Z 16005KT 10SM CLR 18/13 A2999 RMK AO2 SLP162 T01780133=
201505290353 METAR KBLI 290353Z 18004KT 10SM CLR 19/14 A2998 RMK AO2 SLP159 T01890144=
201505290253 METAR KBLI 290253Z 00000KT 10SM CLR 21/14 A2998 RMK AO2 SLP159 T02110139 56004=
201505290153 METAR KBLI 290153Z 00000KT 10SM CLR 22/13 A2999 RMK AO2 SLP161 T02220133=
201505290053 METAR KBLI 290053Z 24003KT 10SM CLR 23/15 A2999 RMK AO2 SLP160 T02330150=
201505282353 METAR KBLI 282353Z 17004KT 10SM CLR 24/14 A3000 RMK AO2 SLP163 T02390144 10244 20183 58016=
201505282253 METAR KBLI 282253Z VRB03KT 10SM CLR 24/13 A3001 RMK AO2 SLP168 T02390128=
201505282153 METAR KBLI 282153Z VRB05KT 10SM CLR 23/14 A3003 RMK AO2 SLP174 T02330144=
201505282053 METAR KBLI 282053Z VRB03KT 10SM CLR 22/14 A3004 RMK AO2 SLP179 T02170144 58011=
201505281953 METAR KBLI 281953Z VRB03KT 10SM CLR 22/14 A3006 RMK AO2 SLP185 T02170139=
201505281853 METAR KBLI 281853Z 18004KT 10SM CLR 19/14 A3007 RMK AO2 SLP188 T01940139=
201505281753 METAR KBLI 281753Z 20004KT 10SM CLR 18/13 A3008 RMK AO2 SLP190 T01830128 10183 20122 58001=
201505281653 METAR KBLI 281653Z VRB03KT 10SM CLR 17/13 A3008 RMK AO2 SLP191 T01670128=
201505281553 METAR KBLI 281553Z 23003KT 10SM CLR 15/12 A3008 RMK AO2 SLP193 T01500117=
201505281453 METAR KBLI 281453Z 00000KT 10SM CLR 14/12 A3008 RMK AO2 SLP191 T01440122 52009=
201505281353 METAR KBLI 281353Z 20003KT 10SM CLR 14/12 A3007 RMK AO2 SLP189 T01390122=
201505281253 METAR KBLI 281253Z AUTO 00000KT 10SM CLR 13/12 A3006 RMK AO2 SLP184 T01280117=
201505281153 METAR KBLI 281153Z AUTO 19004KT 10SM CLR 13/12 A3005 RMK AO2 SLP182 T01280117 10156 20117 53006=
201505281053 METAR KBLI 281053Z AUTO 17003KT 10SM CLR 13/12 A3005 RMK AO2 SLP180 T01330117=
201505280953 METAR KBLI 280953Z AUTO 19003KT 10SM CLR 13/12 A3004 RMK AO2 SLP179 T01330122=
201505280853 METAR KBLI 280853Z AUTO 17005KT 10SM CLR 14/12 A3004 RMK AO2 SLP177 T01390122 51004=
201505280753 METAR KBLI 280753Z AUTO 17004KT 10SM CLR 14/12 A3003 RMK AO2 SLP176 T01440122 402280128=
201505280653 METAR KBLI 280653Z AUTO 18004KT 10SM CLR 15/13 A3003 RMK AO2 SLP174 T01500128=
201505280553 METAR KBLI 280553Z AUTO 17006KT 10SM CLR 16/13 A3002 RMK AO2 SLP172 T01560128 10228 20150 50006=
201505280453 METAR KBLI 280453Z 00000KT 10SM CLR 15/13 A3003 RMK AO2 SLP173 T01500128=
201505280353 METAR KBLI 280353Z 17004KT 10SM CLR 17/13 A3001 RMK AO2 SLP166 T01720133=
201505280253 METAR KBLI 280253Z 00000KT 10SM CLR 20/12 A3000 RMK AO2 SLP166 T02000122 55002=
201505280153 METAR KBLI 280153Z 00000KT 10SM CLR 22/11 A3000 RMK AO2 SLP163 T02170111=
201505280053 METAR KBLI 280053Z 17004KT 10SM CLR 23/13 A3000 RMK AO2 SLP164 T02280133=
201505272353 METAR KBLI 272353Z VRB03KT 10SM CLR 22/12 A3001 RMK AO2 SLP169 T02220117 10228 20156 56013=
201505272253 METAR KBLI 272253Z 00000KT 10SM CLR 22/12 A3002 RMK AO2 SLP171 T02220122 TSNO=
201505272153 METAR KBLI 272153Z 19006KT 10SM CLR 21/13 A3004 RMK AO2 SLP177 T02110128=
201505272053 METAR KBLI 272053Z 23004KT 10SM CLR 21/13 A3005 RMK AO2 SLP182 T02060128 58008=
201505271953 METAR KBLI 271953Z 17004KT 10SM CLR 19/12 A3007 RMK AO2 SLP187 T01940122=
201505271853 METAR KBLI 271853Z 00000KT 10SM OVC045 18/12 A3007 RMK AO2 SLP190 T01780122=
201505271753 METAR KBLI 271753Z 00000KT 10SM OVC045 15/12 A3008 RMK AO2 SLP190 T01500117 10150 20128 53002=
201505271653 METAR KBLI 271653Z 16004KT 10SM OVC045 14/11 A3007 RMK AO2 SLP189 T01440111=
201505271553 METAR KBLI 271553Z 17007KT 10SM OVC045 13/11 A3007 RMK AO2 SLP189 T01330111=
201505271453 METAR KBLI 271453Z 18005KT 10SM OVC043 13/11 A3007 RMK AO2 SLP188 T01330111 51010=
201505271353 METAR KBLI 271353Z 17005KT 10SM FEW004 OVC041 13/11 A3006 RMK AO2 SLP187 T01280111=
201505271320 SPECI KBLI 271320Z AUTO 16006KT 10SM FEW004 OVC041 13/11 A3006 RMK AO2=
201505271253 METAR KBLI 271253Z AUTO 17008KT 10SM OVC041 13/11 A3005 RMK AO2 SLP182 T01280111=
201505271153 METAR KBLI 271153Z AUTO 17007KT 10SM OVC043 13/11 A3004 RMK AO2 SLP178 T01280111 10150 20128 53001=
201505271053 METAR KBLI 271053Z AUTO 16006KT 10SM BKN095 13/11 A3004 RMK AO2 SLP177 T01330111=
201505270953 METAR KBLI 270953Z AUTO 17004KT 10SM SCT041 13/12 A3003 RMK AO2 SLP176 T01330117=
201505270853 METAR KBLI 270853Z AUTO 16007KT 10SM SCT100 14/12 A3004 RMK AO2 SLP177 T01390117 53006=
201505270753 METAR KBLI 270753Z AUTO 17004KT 10SM BKN100 14/12 A3003 RMK AO2 SLP174 T01440117 402110128=
201505270653 METAR KBLI 270653Z AUTO 16006KT 10SM CLR 14/12 A3003 RMK AO2 SLP173 T01440117=
201505270553 METAR KBLI 270553Z AUTO 17004KT 10SM BKN095 15/12 A3002 RMK AO2 SLP171 T01500122 10211 20150 53008=
201505270453 METAR KBLI 270453Z 17005KT 10SM CLR 16/12 A3002 RMK AO2 SLP170 T01560122=
201505270353 METAR KBLI 270353Z 00000KT 10SM SCT100 16/12 A3000 RMK AO2 SLP164 T01610122=
201505270253 METAR KBLI 270253Z 17003KT 10SM SCT110 18/13 A3000 RMK AO2 SLP163 T01780128 56006=
201505270153 METAR KBLI 270153Z 18004KT 10SM SCT085 BKN100 19/13 A3000 RMK AO2 SLP164 T01890128=
201505270053 METAR KBLI 270053Z 00000KT 10SM CLR 21/09 A3000 RMK AO2 SLP165 T02060094=
201505262353 METAR KBLI 262353Z VRB04KT 10SM CLR 21/11 A3002 RMK AO2 SLP170 T02060111 10206 20156 56010=
201505262253 METAR KBLI 262253Z VRB03KT 10SM CLR 21/11 A3002 RMK AO2 SLP172 T02060111=
201505262153 METAR KBLI 262153Z 00000KT 10SM SCT028 BKN100 20/11 A3003 RMK AO2 SLP176 T02000111=
201505262053 METAR KBLI 262053Z 00000KT 10SM OVC034 18/11 A3004 RMK AO2 SLP180 T01780111 58001=
201505261953 METAR KBLI 261953Z 26005KT 10SM OVC032 17/12 A3005 RMK AO2 SLP182 T01670117=
201505261853 METAR KBLI 261853Z VRB04KT 10SM FEW032 BKN100 17/12 A3005 RMK AO2 SLP180 T01720117=
201505261753 METAR KBLI 261753Z 17005KT 10SM BKN036 16/12 A3005 RMK AO2 SLP181 T01610117 10161 20128 51001=
201505261653 METAR KBLI 261653Z VRB04KT 10SM OVC055 16/12 A3005 RMK AO2 SLP181 T01560117=
201505261553 METAR KBLI 261553Z 18003KT 10SM BKN055 15/12 A3005 RMK AO2 SLP181 T01500117=
201505261453 METAR KBLI 261453Z 17004KT 10SM OVC039 13/12 A3004 RMK AO2 SLP180 T01330117 53007=
201505261353 METAR KBLI 261353Z 19003KT 10SM OVC035 13/12 A3003 RMK AO2 SLP176 T01330117=
201505261253 METAR KBLI 261253Z AUTO 00000KT 10SM OVC033 13/12 A3003 RMK AO2 SLP175 T01330122=
201505261153 METAR KBLI 261153Z AUTO 00000KT 10SM OVC033 13/12 A3002 RMK AO2 SLP173 70004 T01330117 10139 20128 53002=
201505261053 METAR KBLI 261053Z AUTO 16004KT 10SM FEW034 OVC050 13/11 A3002 RMK AO2 SLP171 T01330111=
201505260953 METAR KBLI 260953Z AUTO 00000KT 10SM OVC055 13/11 A3002 RMK AO2 SLP172 T01330111=
201505260853 METAR KBLI 260853Z AUTO 17003KT 10SM BKN035 OVC060 13/12 A3002 RMK AO2 SLP172 T01330117 51004=
201505260753 METAR KBLI 260753Z AUTO 00000KT 10SM OVC033 13/12 A3001 RMK AO2 SLP171 T01280117 401670111=
201505260653 METAR KBLI 260653Z AUTO 00000KT 10SM BKN035 OVC090 13/11 A3001 RMK AO2 SLP170 T01280111=
201505260553 METAR KBLI 260553Z 00000KT 10SM FEW070 OVC090 14/12 A3001 RMK AO2 SLP168 T01390117 10161 20133 53005=
201505260453 METAR KBLI 260453Z 00000KT 10SM FEW075 OVC095 14/12 A3000 RMK AO2 SLP167 T01440117=
201505260353 METAR KBLI 260353Z 00000KT 10SM OVC095 14/11 A2999 RMK AO2 SLP163 T01440111=
201505260253 METAR KBLI 260253Z 00000KT 10SM FEW034 OVC100 15/11 A2999 RMK AO2 SLP163 T01500111 55002=
201505260153 METAR KBLI 260153Z 17006KT 10SM SCT090 16/11 A2999 RMK AO2 SLP161 T01610106=
201505260053 METAR KBLI 260053Z 16005KT 10SM SCT024 16/11 A2999 RMK AO2 SLP162 T01560106=
201505252353 METAR KBLI 252353Z VRB06KT 10SM FEW028 OVC046 16/11 A3000 RMK AO2 SLP165 60001 T01610106 10167 20111 58005=
201505252253 METAR KBLI 252253Z 16008KT 10SM SCT023 OVC034 16/11 A3001 RMK AO2 SLP167 T01560106=
201505252153 METAR KBLI 252153Z 17007KT 10SM BKN034 16/11 A3001 RMK AO2 SLP168 T01560111=
201505252100 SPECI KBLI 252100Z 16010KT 10SM FEW024 OVC034 15/11 A3001 RMK AO2=
201505252053 METAR KBLI 252053Z 17010KT 10SM OVC020 14/12 A3001 RMK AO2 SLP170 60001 T01440117 50003=
201505252018 SPECI KBLI 252018Z 18007KT 10SM SCT014 OVC030 13/11 A3001 RMK AO2=
201505252000 SPECI KBLI 252000Z 16008KT 10SM FEW007 BKN014 OVC030 13/11 A3001 RMK AO2=
201505251953 METAR KBLI 251953Z 16008KT 9SM BKN014 OVC030 13/12 A3001 RMK AO2 SLP170 T01280117=
201505251853 METAR KBLI 251853Z 16005KT 5SM BR SCT006 OVC010 12/11 A3001 RMK AO2 SLP168 P0001 T01170111=
201505251819 SPECI KBLI 251819Z 17004KT 10SM BKN005 OVC010 12/11 A3001 RMK AO2 CIG 004V008=
201505251753 METAR KBLI 251753Z 18006KT 10SM OVC004 11/11 A3000 RMK AO2 RAB25E33 SLP167 P0000 60003 T01110106 10117 20111 51008=
201505251653 METAR KBLI 251653Z 17007KT 10SM OVC004 11/11 A2999 RMK AO2 RAB02E36 SLP164 P0003 T01110106=
201505251553 METAR KBLI 251553Z 18007KT 10SM OVC004 11/10 A2999 RMK AO2 SLP163 T01110100=
201505251453 METAR KBLI 251453Z 17006KT 10SM OVC004 11/10 A2998 RMK AO2 SLP158 T01110100 51005=
201505251437 SPECI KBLI 251437Z 17009KT 10SM OVC004 11/10 A2997 RMK AO2=
201505251353 METAR KBLI 251353Z 16007KT 10SM OVC006 11/10 A2998 RMK AO2 SLP158 T01110100=
201505251253 METAR KBLI 251253Z AUTO 17009KT 10SM OVC008 12/10 A2997 RMK AO2 SLP157 T01170100=
201505251211 SPECI KBLI 251211Z AUTO 17008G16KT 10SM BKN008 OVC060 12/10 A2997 RMK AO2=
201505251153 METAR KBLI 251153Z AUTO 17009KT 10SM SCT008 OVC060 12/10 A2996 RMK AO2 SLP152 T01170100 10133 20117 58005=
201505251146 SPECI KBLI 251146Z AUTO 17008KT 10SM BKN008 BKN040 OVC060 12/10 A2997 RMK AO2=
201505251130 SPECI KBLI 251130Z AUTO 17007KT 10SM SCT008 OVC060 12/10 A2997 RMK AO2=
201505251053 METAR KBLI 251053Z AUTO 16007KT 10SM BKN038 OVC060 12/10 A2997 RMK AO2 SLP155 T01220100=
201505250953 METAR KBLI 250953Z AUTO 17007KT 10SM OVC038 12/10 A2997 RMK AO2 SLP157 T01220100=
201505250853 METAR KBLI 250853Z AUTO 17007KT 10SM BKN036 OVC060 13/11 A2998 RMK AO2 SLP158 T01280106 58003=
201505250753 METAR KBLI 250753Z AUTO 18006KT 10SM OVC060 13/10 A2998 RMK AO2 SLP160 T01280100 401670117=
201505250653 METAR KBLI 250653Z AUTO 17007KT 10SM BKN035 OVC065 13/10 A2999 RMK AO2 SLP161 T01330100=
201505250553 METAR KBLI 250553Z AUTO 16006KT 10SM FEW035 13/10 A2999 RMK AO2 SLP162 T01330100 10167 20128 57003=
201505250453 METAR KBLI 250453Z 17008KT 10SM CLR 13/10 A2999 RMK AO2 SLP163 T01330100=
201505250353 METAR KBLI 250353Z 17006KT 10SM CLR 14/11 A2999 RMK AO2 SLP163 T01390106=
201505250253 METAR KBLI 250253Z 19006KT 10SM CLR 15/11 A3000 RMK AO2 SLP165 T01500106 56009=
201505250153 METAR KBLI 250153Z 17007KT 10SM CLR 16/11 A3000 RMK AO2 SLP165 T01610111=
201505250053 METAR KBLI 250053Z 17007KT 10SM CLR 16/11 A3001 RMK AO2 SLP170 T01610106=
201505242353 METAR KBLI 242353Z 18008G14KT 150V220 10SM CLR 17/11 A3003 RMK AO2 SLP173 T01670106 10167 20128 56020=
201505242253 METAR KBLI 242253Z 18008G16KT 10SM FEW043 16/10 A3005 RMK AO2 SLP180 T01610100=
201505242153 METAR KBLI 242153Z 16012G17KT 10SM FEW045 16/09 A3006 RMK AO2 SLP187 T01560094=
201505242053 METAR KBLI 242053Z 17008KT 150V210 10SM FEW046 15/09 A3008 RMK AO2 SLP194 T01500094 58009=
201505241953 METAR KBLI 241953Z 17010G17KT 10SM CLR 14/09 A3009 RMK AO2 SLP196 T01440094=
201505241853 METAR KBLI 241853Z 16007G16KT 10SM SCT010 BKN040 14/09 A3011 RMK AO2 SLP203 T01390094=
201505241753 METAR KBLI 241753Z 16008KT 10SM SCT010 OVC040 13/09 A3011 RMK AO2 SLP204 T01280094 10128 20117 58008=
201505241723 SPECI KBLI 241723Z 17008KT 10SM BKN010 OVC037 12/09 A3012 RMK AO2=
201505241653 METAR KBLI 241653Z 15010KT 10SM SCT012 OVC037 12/09 A3012 RMK AO2 SLP207 T01220094=
201505241553 METAR KBLI 241553Z 16008KT 10SM OVC012 12/09 A3014 RMK AO2 SLP212 T01170094=
201505241453 METAR KBLI 241453Z 17006KT 10SM OVC012 12/09 A3014 RMK AO2 SLP212 T01220094 51002=
201505241353 METAR KBLI 241353Z 17007KT 10SM OVC010 12/09 A3013 RMK AO2 CIG 007V012 SLP211 T01170094=
201505241321 SPECI KBLI 241321Z AUTO 17007KT 10SM OVC008 12/10 A3014 RMK AO2 CIG 007V011=
201505241253 METAR KBLI 241253Z AUTO 17007KT 10SM BKN010 OVC016 12/10 A3013 RMK AO2 SLP210 T01170100=
201505241201 SPECI KBLI 241201Z AUTO 16008KT 10SM BKN014 OVC048 12/10 A3013 RMK AO2=
201505241153 METAR KBLI 241153Z AUTO 16008KT 10SM BKN016 OVC048 12/10 A3013 RMK AO2 SLP210 T01220100 10128 20122 58005=
201505241053 METAR KBLI 241053Z AUTO 16007KT 10SM OVC044 12/10 A3013 RMK AO2 SLP211 T01220100=
201505241010 SPECI KBLI 241010Z AUTO 16007KT 10SM FEW007 OVC040 12/11 A3014 RMK AO2=
201505240953 METAR KBLI 240953Z AUTO 16009G15KT 10SM OVC042 12/10 A3014 RMK AO2 SLP214 T01220100=
201505240853 METAR KBLI 240853Z AUTO 16008KT 10SM OVC042 12/10 A3015 RMK AO2 SLP215 T01220100 58002=
201505240753 METAR KBLI 240753Z AUTO 17007G14KT 10SM OVC042 13/10 A3016 RMK AO2 SLP219 T01280100 401560128=
201505240653 METAR KBLI 240653Z AUTO 17009KT 10SM OVC044 13/11 A3016 RMK AO2 SLP219 T01280106=
201505240553 METAR KBLI 240553Z AUTO 17007KT 10SM BKN046 13/11 A3015 RMK AO2 SLP217 T01280106 10156 20128 53005=
201505240453 METAR KBLI 240453Z 17005KT 10SM CLR 13/11 A3015 RMK AO2 SLP215 T01280106=
201505240353 METAR KBLI 240353Z 17007KT 10SM CLR 13/11 A3014 RMK AO2 SLP213 T01330111=
201505240253 METAR KBLI 240253Z 17005KT 10SM CLR 14/11 A3014 RMK AO2 SLP213 T01390111 55004=
201505240153 METAR KBLI 240153Z 18005KT 10SM SCT046 14/11 A3014 RMK AO2 SLP212 T01440111=
201505240053 METAR KBLI 240053Z 16009KT 10SM FEW045 15/11 A3014 RMK AO2 SLP213 T01500111=
201505232353 METAR KBLI 232353Z 17008KT 10SM FEW120 14/11 A3015 RMK AO2 RAE2258 SLP217 P0000 60000 T01440111 10144 20128 58008=
201505232253 METAR KBLI 232253Z 18006KT 10SM -RA FEW046 SCT070 BKN110 14/11 A3017 RMK AO2 RAB45 SLP223 P0000 T01390111=
201505232153 METAR KBLI 232153Z 16007KT 10SM CLR 14/11 A3017 RMK AO2 SLP225 T01390111=
201505232053 METAR KBLI 232053Z VRB05KT 10SM CLR 14/11 A3017 RMK AO2 SLP225 60000 T01390111 51004=
201505231953 METAR KBLI 231953Z 21004KT 10SM OVC046 13/11 A3017 RMK AO2 SLP224 T01330111=
201505231853 METAR KBLI 231853Z 16005KT 10SM OVC034 13/11 A3017 RMK AO2 RAB22E39 SLP223 P0000 T01280111=
201505231753 METAR KBLI 231753Z 17005KT 10SM FEW018 OVC032 13/11 A3016 RMK AO2 RAB33E50 SLP220 P0000 60000 T01280111 10133 20128 51010=
201505231743 SPECI KBLI 231743Z VRB04KT 10SM -RA FEW018 OVC032 13/12 A3016 RMK AO2 RAB33 P0000=
201505231653 METAR KBLI 231653Z VRB03KT 10SM OVC016 13/11 A3015 RMK AO2 RAB27E36 SLP218 P0000 T01280111=
201505231553 METAR KBLI 231553Z 18005KT 10SM SCT016 OVC035 13/11 A3014 RMK AO2 SLP213 T01280111=
201505231453 METAR KBLI 231453Z 18005KT 10SM FEW017 OVC035 13/11 A3013 RMK AO2 SLP210 T01280111 51012=
201505231353 METAR KBLI 231353Z 18006KT 10SM OVC033 13/11 A3012 RMK AO2 SLP207 T01280106=
201505231331 SPECI KBLI 231331Z AUTO 18006KT 10SM SCT018 OVC033 13/11 A3012 RMK AO2=
201505231303 SPECI KBLI 231303Z AUTO 17007KT 10SM BKN018 OVC033 13/11 A3011 RMK AO2=
201505231253 METAR KBLI 231253Z AUTO 17005KT 10SM SCT018 OVC033 13/11 A3011 RMK AO2 SLP201 T01280106=
201505231230 SPECI KBLI 231230Z AUTO 17007KT 10SM FEW019 OVC033 13/11 A3010 RMK AO2=
201505231153 METAR KBLI 231153Z AUTO 17005KT 10SM OVC019 13/11 A3010 RMK AO2 SLP198 T01280106 10139 20128 51007=
201505231053 METAR KBLI 231053Z AUTO 17006KT 10SM BKN019 OVC036 13/11 A3009 RMK AO2 SLP195 T01330111=
201505231048 SPECI KBLI 231048Z AUTO 18007KT 10SM BKN019 OVC036 13/11 A3009 RMK AO2=
201505230953 METAR KBLI 230953Z AUTO 18006KT 10SM OVC038 13/11 A3008 RMK AO2 SLP191 T01330111=
201505230853 METAR KBLI 230853Z AUTO 18008KT 10SM OVC036 13/11 A3007 RMK AO2 SLP188 T01330111 53012=
201505230753 METAR KBLI 230753Z AUTO 17009KT 10SM OVC030 14/11 A3005 RMK AO2 SLP184 T01390111 401670122=
201505230653 METAR KBLI 230653Z AUTO 17011G17KT 10SM OVC034 14/11 A3004 RMK AO2 SLP181 T01390111=
201505230553 METAR KBLI 230553Z AUTO 17008KT 10SM CLR 13/11 A3003 RMK AO2 SLP177 T01330106 10167 20133 53016=
201505230453 METAR KBLI 230453Z 17007KT 10SM CLR 13/11 A3002 RMK AO2 SLP171 T01330111=
201505230353 METAR KBLI 230353Z 17006KT 10SM CLR 14/11 A2999 RMK AO2 SLP164 T01440111=
201505230253 METAR KBLI 230253Z 18009KT 10SM CLR 15/11 A2998 RMK AO2 SLP160 T01500111 53002=
201505230153 METAR KBLI 230153Z 17007G15KT 10SM CLR 16/11 A2996 RMK AO2 SLP151 T01610111=
201505230053 METAR KBLI 230053Z 18010G16KT 10SM CLR 16/12 A2997 RMK AO2 SLP155 T01610117=
201505222353 METAR KBLI 222353Z 17011KT 10SM OVC110 16/12 A2998 RMK AO2 SLP158 60000 T01560117 10167 20128 53003=
201505222253 METAR KBLI 222253Z 18008G18KT 10SM SCT120 16/12 A2997 RMK AO2 SLP153 T01560117=
201505222153 METAR KBLI 222153Z 17010KT 10SM SCT016 16/12 A2997 RMK AO2 SLP153 T01610117=
201505222125 SPECI KBLI 222125Z 17010G16KT 10SM BKN016 BKN110 15/12 A2997 RMK AO2=
201505222053 METAR KBLI 222053Z 17009G15KT 10SM SCT009 OVC110 14/12 A2997 RMK AO2 RAB30E41 SLP155 P0000 60000 T01440117 51004=
201505221953 METAR KBLI 221953Z 18008G15KT 10SM SCT009 OVC100 13/11 A2997 RMK AO2 RAB26E43 SLP156 P0000 T01330111=
201505221853 METAR KBLI 221853Z 17008KT 10SM SCT007 OVC013 13/11 A2996 RMK AO2 SLP152 T01330106=
201505221753 METAR KBLI 221753Z 17007G15KT 140V220 10SM SCT007 OVC013 13/11 A2996 RMK AO2 SLP151 T01330106 10133 20122 51011=
201505221653 METAR KBLI 221653Z 17009G16KT 10SM BKN007 13/11 A2995 RMK AO2 CIG 007V011 SLP147 T01330106=
201505221634 SPECI KBLI 221634Z 17011KT 10SM BKN007 13/11 A2995 RMK AO2 CIG 007V010=
201505221607 SPECI KBLI 221607Z 17011G16KT 10SM FEW007 13/11 A2994 RMK AO2=
201505221553 METAR KBLI 221553Z 16011G18KT 10SM CLR 13/11 A2994 RMK AO2 SLP144 T01330106=
201505221453 METAR KBLI 221453Z 17009G17KT 10SM CLR 12/10 A2993 RMK AO2 SLP139 T01220100 51010=
201505221353 METAR KBLI 221353Z AUTO 17011G17KT 10SM CLR 13/10 A2992 RMK AO2 SLP136 T01280100=
201505221253 METAR KBLI 221253Z AUTO 16009G17KT 10SM CLR 13/09 A2991 RMK AO2 SLP133 T01330094=
201505221153 METAR KBLI 221153Z AUTO 16009G17KT 10SM CLR 13/10 A2990 RMK AO2 SLP129 T01280100 10161 20128 53009=
201505221053 METAR KBLI 221053Z AUTO 17008G15KT 10SM CLR 13/10 A2988 RMK AO2 SLP125 T01330100=
201505220953 METAR KBLI 220953Z AUTO 17008G15KT 10SM CLR 13/11 A2987 RMK AO2 SLP122 T01330106=
201505220853 METAR KBLI 220853Z AUTO 17010KT 10SM CLR 14/11 A2987 RMK AO2 SLP120 T01440106 51010=
201505220753 METAR KBLI 220753Z AUTO 19005KT 10SM CLR 14/12 A2986 RMK AO2 SLP118 T01440117 402390117=
201505220653 METAR KBLI 220653Z AUTO 18008KT 10SM CLR 15/12 A2985 RMK AO2 SLP114 T01500117=
201505220553 METAR KBLI 220553Z AUTO 17008KT 10SM CLR 16/11 A2984 RMK AO2 SLP110 T01560111 10228 20150 51009=
201505220453 METAR KBLI 220453Z 18008KT 10SM CLR 15/11 A2983 RMK AO2 SLP108 T01500111=
201505220353 METAR KBLI 220353Z 18004KT 10SM CLR 16/12 A2983 RMK AO2 SLP106 T01610117=
201505220253 METAR KBLI 220253Z 18007KT 10SM CLR 17/12 A2981 RMK AO2 SLP100 T01720117 50003=
201505220153 METAR KBLI 220153Z 17008KT 10SM CLR 18/13 A2981 RMK AO2 SLP101 T01780128=
201505220053 METAR KBLI 220053Z 17007KT 10SM CLR 19/13 A2981 RMK AO2 SLP100 T01890128=
201505212353 METAR KBLI 212353Z 18005KT 10SM CLR 23/14 A2980 RMK AO2 SLP097 T02280139 10239 20167 56014=
201505212253 METAR KBLI 212253Z 21004KT 10SM CLR 23/14 A2980 RMK AO2 SLP098 T02280139=
201505212153 METAR KBLI 212153Z 16005KT 10SM CLR 21/13 A2983 RMK AO2 SLP105 T02110133=
201505212053 METAR KBLI 212053Z 18004KT 10SM CLR 21/13 A2984 RMK AO2 SLP112 T02060128 58009=
201505211953 METAR KBLI 211953Z VRB04KT 10SM CLR 20/13 A2985 RMK AO2 SLP115 T02000133=
201505211853 METAR KBLI 211853Z 20005KT 10SM CLR 18/13 A2986 RMK AO2 SLP119 T01780128=
201505211753 METAR KBLI 211753Z 00000KT 10SM CLR 16/12 A2987 RMK AO2 SLP121 T01610117 10167 20117 58002=
201505211653 METAR KBLI 211653Z 17003KT 10SM FEW003 14/11 A2988 RMK AO2 SLP125 T01390111=
201505211553 METAR KBLI 211553Z VRB04KT 10SM FEW004 14/11 A2988 RMK AO2 SLP123 T01440111=
201505211453 METAR KBLI 211453Z 18004KT 10SM SCT004 12/11 A2988 RMK AO2 SLP123 T01220106 51001=
201505211401 SPECI KBLI 211401Z 17007KT 10SM FEW004 12/11 A2988 RMK AO2=
201505211353 METAR KBLI 211353Z 17004KT 10SM CLR 12/11 A2988 RMK AO2 SLP123 T01170106=
201505211253 METAR KBLI 211253Z AUTO 18005KT 10SM CLR 12/11 A2988 RMK AO2 SLP123 T01170106=
201505211153 METAR KBLI 211153Z AUTO 18003KT 10SM CLR 12/11 A2987 RMK AO2 SLP122 T01170106 10144 20117 50003=
201505211053 METAR KBLI 211053Z AUTO 17004KT 10SM CLR 12/11 A2987 RMK AO2 SLP122 T01220111=
201505210953 METAR KBLI 210953Z AUTO 18004KT 10SM CLR 13/11 A2987 RMK AO2 SLP119 T01330111=
201505210853 METAR KBLI 210853Z AUTO 17004KT 10SM CLR 14/12 A2986 RMK AO2 SLP118 T01390117 51002=
201505210753 METAR KBLI 210753Z AUTO 18003KT 10SM CLR 14/12 A2986 RMK AO2 SLP118 T01390117 402280111=
201505210653 METAR KBLI 210653Z AUTO 18003KT 10SM CLR 14/12 A2986 RMK AO2 SLP118 T01440122=
201505210553 METAR KBLI 210553Z AUTO 18005KT 10SM CLR 14/12 A2986 RMK AO2 SLP118 T01440117 10222 20144 51004=
201505210453 METAR KBLI 210453Z AUTO 17005KT 10SM FEW120 16/13 A2986 RMK AO2 SLP117 T01610128=
201505210353 METAR KBLI 210353Z 00000KT 10SM CLR 17/13 A2986 RMK AO2 SLP118 T01720133=
201505210253 METAR KBLI 210253Z 00000KT 10SM CLR 20/12 A2985 RMK AO2 SLP113 T02000117 55014=
201505210153 METAR KBLI 210153Z 25004KT 10SM CLR 22/11 A2984 RMK AO2 SLP111 T02170106=
201505210053 METAR KBLI 210053Z 19004KT 10SM CLR 22/13 A2987 RMK AO2 SLP120 T02220128=
201505202353 METAR KBLI 202353Z VRB03KT 10SM CLR 22/11 A2989 RMK AO2 SLP126 T02220111 10228 20122 56021=
201505202253 METAR KBLI 202253Z 28004KT 10SM CLR 22/12 A2990 RMK AO2 SLP130 T02170117=
201505202153 METAR KBLI 202153Z VRB03KT 10SM CLR 21/14 A2993 RMK AO2 SLP140 T02110139=
201505202053 METAR KBLI 202053Z VRB03KT 10SM CLR 19/13 A2995 RMK AO2 SLP147 T01890128 58019=
201505201953 METAR KBLI 201953Z VRB05KT 10SM CLR 17/12 A2998 RMK AO2 SLP156 T01670122=
201505201853 METAR KBLI 201853Z 17005KT 10SM SCT002 14/11 A3000 RMK AO2 SLP165 CIG SE-SW LWR VSBY S-SW3 T01390111=
201505201824 SPECI KBLI 201824Z 16007KT 10SM FEW005 13/11 A3000 RMK AO2 CIG SE-SW LWR VSBY SE-SW3=
201505201753 METAR KBLI 201753Z 18006KT 3SM BR OVC003 12/10 A3000 RMK AO2 SLP167 T01220100 10128 20111 56004=
201505201751 SPECI KBLI 201751Z 16007KT 3SM BR OVC003 12/10 A3001 RMK AO2=
201505201713 SPECI KBLI 201713Z 17007KT 2SM BR OVC003 12/10 A3001 RMK AO2=
201505201700 SPECI KBLI 201700Z 18005KT 8SM OVC003 12/10 A3001 RMK AO2=
201505201653 METAR KBLI 201653Z VRB06KT 2SM BR OVC003 12/11 A3001 RMK AO2 SLP170 T01170106=
201505201645 SPECI KBLI 201645Z 19007KT 2SM BR OVC003 12/10 A3001 RMK AO2=
201505201553 METAR KBLI 201553Z 18005KT 4SM BR OVC003 12/11 A3002 RMK AO2 SLP171 T01170106=
201505201500 SPECI KBLI 201500Z 16007KT 2SM BR OVC003 11/10 A3002 RMK AO2=
201505201453 METAR KBLI 201453Z 18006KT 6SM BR OVC003 11/10 A3002 RMK AO2 SLP173 T01110100 53003=
201505201353 METAR KBLI 201353Z AUTO 17009G14KT 10SM OVC003 11/10 A3002 RMK AO2 SLP172 T01110100=
201505201253 METAR KBLI 201253Z AUTO 17010G16KT 6SM BR OVC003 11/10 A3001 RMK AO2 SLP169 T01110100=
201505201243 SPECI KBLI 201243Z AUTO 17012KT 8SM OVC003 11/10 A3001 RMK AO2=
201505201228 SPECI KBLI 201228Z AUTO 16011G16KT 10SM BKN005 11/10 A3001 RMK AO2=
201505201217 SPECI KBLI 201217Z AUTO 16009KT 10SM SCT005 12/10 A3001 RMK AO2=
201505201153 METAR KBLI 201153Z AUTO 17009G16KT 10SM CLR 12/10 A3001 RMK AO2 SLP168 T01170100 10139 20117 50000=
201505201053 METAR KBLI 201053Z AUTO 16008KT 10SM CLR 12/10 A3001 RMK AO2 SLP170 T01220100=
201505200953 METAR KBLI 200953Z AUTO 17007KT 10SM FEW120 13/11 A3001 RMK AO2 SLP169 T01280106=
201505200853 METAR KBLI 200853Z AUTO 16005KT 10SM CLR 13/11 A3001 RMK AO2 SLP168 T01280106 51004=
201505200753 METAR KBLI 200753Z AUTO 17004KT 10SM CLR 13/11 A3001 RMK AO2 SLP168 T01330106 401720111=
201505200653 METAR KBLI 200653Z AUTO 17011KT 10SM CLR 13/11 A3000 RMK AO2 SLP166 T01330106=
201505200553 METAR KBLI 200553Z AUTO 17012G16KT 10SM CLR 13/11 A3000 RMK AO2 SLP166 T01330106 10172 20133 50006=
201505200453 METAR KBLI 200453Z 18008KT 10SM CLR 14/11 A3000 RMK AO2 SLP167 T01390111=
201505200353 METAR KBLI 200353Z 18008KT 10SM CLR 14/12 A2999 RMK AO2 SLP162 T01440117=
201505200253 METAR KBLI 200253Z 18010KT 10SM CLR 16/12 A2998 RMK AO2 SLP159 T01560117 56011=
201505200153 METAR KBLI 200153Z 17011KT 10SM CLR 17/12 A2999 RMK AO2 SLP160 T01670117=
201505200053 METAR KBLI 200053Z 17007KT 10SM CLR 16/12 A3000 RMK AO2 SLP166 T01610117=
201505192353 METAR KBLI 192353Z 17008KT 140V200 10SM CLR 17/12 A3001 RMK AO2 SLP169 T01670117 10167 20133 56016=
201505192253 METAR KBLI 192253Z 16007KT 10SM CLR 16/12 A3002 RMK AO2 SLP173 T01610117=
201505192153 METAR KBLI 192153Z 18008KT 10SM CLR 16/12 A3005 RMK AO2 SLP181 T01560117=
201505192053 METAR KBLI 192053Z 17009G16KT 10SM CLR 16/12 A3006 RMK AO2 SLP185 T01560117 58010=
201505191953 METAR KBLI 191953Z 18011G16KT 10SM FEW006 15/11 A3007 RMK AO2 SLP189 T01500111=
201505191853 METAR KBLI 191853Z 18010G15KT 10SM SCT006 14/11 A3008 RMK AO2 SLP193 T01440111=
201505191831 SPECI KBLI 191831Z 16010G17KT 10SM SCT006 14/11 A3008 RMK AO2=
201505191809 SPECI KBLI 191809Z 17009G16KT 10SM OVC010 13/11 A3009 RMK AO2=
201505191753 METAR KBLI 191753Z 17009KT 10SM BKN005 13/11 A3009 RMK AO2 SLP195 T01330106 10133 20111 56004=
201505191653 METAR KBLI 191653Z 18009G16KT 10SM BKN005 13/11 A3009 RMK AO2 SLP198 T01280106=
201505191650 SPECI KBLI 191650Z 17010KT 10SM BKN005 13/11 A3010 RMK AO2=
201505191553 METAR KBLI 191553Z 17007KT 10SM OVC003 12/11 A3010 RMK AO2 SLP201 T01220106=
201505191453 METAR KBLI 191453Z 18007KT 10SM OVC003 12/11 A3010 RMK AO2 SLP199 T01170106 53014=
201505191353 METAR KBLI 191353Z 17009G14KT 7SM BKN003 12/11 A3009 RMK AO2 SLP194 T01170106=
201505191253 METAR KBLI 191253Z AUTO 17008KT 4SM BR OVC003 11/11 A3007 RMK AO2 SLP188 T01110106=
201505191213 SPECI KBLI 191213Z AUTO 17008G14KT 6SM BR BKN003 11/11 A3006 RMK AO2=
201505191153 METAR KBLI 191153Z AUTO 18008KT 10SM FEW003 12/11 A3006 RMK AO2 SLP185 T01170106 10150 20117 53003=
201505191053 METAR KBLI 191053Z AUTO 17007KT 10SM CLR 12/11 A3006 RMK AO2 SLP184 T01220111=
201505190953 METAR KBLI 190953Z AUTO 17007KT 10SM CLR 13/11 A3005 RMK AO2 SLP183 T01280111=
201505190853 METAR KBLI 190853Z AUTO 17005KT 10SM CLR 13/11 A3005 RMK AO2 SLP182 T01330111 53001=
201505190753 METAR KBLI 190753Z AUTO 17007KT 10SM CLR 14/12 A3004 RMK AO2 SLP179 T01390117 402330106=
201505190653 METAR KBLI 190653Z AUTO VRB03KT 10SM CLR 14/13 A3005 RMK AO2 SLP180 T01440128=
201505190553 METAR KBLI 190553Z AUTO 16003KT 10SM CLR 15/13 A3005 RMK AO2 SLP181 T01500128 10228 20139 53012=
201505190453 METAR KBLI 190453Z 00000KT 10SM CLR 14/12 A3004 RMK AO2 SLP178 T01440117=
201505190353 METAR KBLI 190353Z 00000KT 10SM CLR 16/12 A3002 RMK AO2 SLP171 T01560122=
201505190253 METAR KBLI 190253Z 00000KT 10SM CLR 18/12 A3001 RMK AO2 SLP169 T01780117 53002=
201505190153 METAR KBLI 190153Z 29003KT 10SM CLR 21/11 A3000 RMK AO2 SLP166 T02060106=
201505190053 METAR KBLI 190053Z 25004KT 10SM CLR 22/12 A3000 RMK AO2 SLP166 T02170117=
201505182353 METAR KBLI 182353Z 25007KT 210V280 10SM CLR 22/12 A3001 RMK AO2 SLP168 T02220117 10233 20189 56011=
201505182253 METAR KBLI 182253Z 28007KT 10SM CLR 23/12 A3001 RMK AO2 SLP169 T02280117=
201505182153 METAR KBLI 182153Z 28007KT 240V320 10SM CLR 22/12 A3003 RMK AO2 SLP174 T02220122=
201505182053 METAR KBLI 182053Z 27009KT 10SM CLR 21/14 A3004 RMK AO2 SLP179 T02110139 58012=
201505181953 METAR KBLI 181953Z VRB05KT 10SM CLR 21/14 A3005 RMK AO2 SLP182 T02110139=
201505181853 METAR KBLI 181853Z 00000KT 10SM CLR 20/14 A3007 RMK AO2 SLP188 T02000139=
201505181753 METAR KBLI 181753Z 00000KT 10SM CLR 19/13 A3008 RMK AO2 SLP191 T01890133 10194 20106 58002=
201505181653 METAR KBLI 181653Z VRB03KT 10SM CLR 18/13 A3008 RMK AO2 SLP193 T01830128=
201505181553 METAR KBLI 181553Z VRB03KT 10SM CLR 15/12 A3009 RMK AO2 SLP194 T01500117=
201505181453 METAR KBLI 181453Z 00000KT 10SM SCT090 BKN120 14/12 A3008 RMK AO2 SLP193 T01390117 53006=
201505181353 METAR KBLI 181353Z AUTO 00000KT 10SM OVC090 13/12 A3007 RMK AO2 SLP189 T01280117=
201505181253 METAR KBLI 181253Z AUTO 00000KT 10SM BKN080 11/11 A3006 RMK AO2 SLP186 T01110106=
201505181153 METAR KBLI 181153Z AUTO 00000KT 10SM FEW085 OVC110 11/10 A3006 RMK AO2 SLP186 T01110100 10144 20111 53001=
201505181053 METAR KBLI 181053Z AUTO 00000KT 10SM SCT080 12/11 A3006 RMK AO2 SLP185 T01170106=
201505180953 METAR KBLI 180953Z AUTO 00000KT 10SM BKN120 12/11 A3006 RMK AO2 SLP184 T01170106=
201505180853 METAR KBLI 180853Z AUTO 19003KT 10SM CLR 13/11 A3006 RMK AO2 SLP185 T01280111 56003=
201505180753 METAR KBLI 180753Z AUTO 00000KT 10SM CLR 12/11 A3006 RMK AO2 SLP187 T01220106 401940117=
201505180653 METAR KBLI 180653Z AUTO 00000KT 10SM FEW110 13/11 A3006 RMK AO2 SLP185 T01280111=
201505180553 METAR KBLI 180553Z AUTO 00000KT 10SM FEW110 14/12 A3007 RMK AO2 SLP188 T01390117 10189 20139 53008=
201505180453 METAR KBLI 180453Z 00000KT 10SM SCT090 14/12 A3005 RMK AO2 SLP183 T01440117=
201505180353 METAR KBLI 180353Z 00000KT 10SM FEW085 14/12 A3005 RMK AO2 SLP180 T01440117=
201505180253 METAR KBLI 180253Z 18003KT 10SM CLR 17/12 A3004 RMK AO2 SLP180 T01670117 53000=
201505180153 METAR KBLI 180153Z VRB03KT 10SM CLR 18/10 A3004 RMK AO2 SLP179 T01830100=
201505180053 METAR KBLI 180053Z VRB05KT 10SM CLR 19/11 A3004 RMK AO2 SLP179 T01890106=
201505172353 METAR KBLI 172353Z 28003KT 10SM CLR 19/11 A3004 RMK AO2 SLP179 T01890106 10194 20156 58004=
201505172253 METAR KBLI 172253Z 27005KT 10SM CLR 18/11 A3005 RMK AO2 SLP181 T01830106=
201505172153 METAR KBLI 172153Z VRB04KT 10SM CLR 19/11 A3005 RMK AO2 SLP183 T01890106=
201505172053 METAR KBLI 172053Z 17006KT 10SM CLR 18/11 A3005 RMK AO2 SLP183 T01780111 56005=
201505171953 METAR KBLI 171953Z 17005KT 10SM CLR 18/11 A3006 RMK AO2 SLP184 T01780106=
201505171853 METAR KBLI 171853Z VRB04KT 10SM CLR 16/10 A3006 RMK AO2 SLP187 T01610100=
201505171753 METAR KBLI 171753Z 18006KT 10SM SCT029 16/11 A3007 RMK AO2 SLP189 T01610106 10161 20122 56000=
201505171707 SPECI KBLI 171707Z 19004KT 10SM SCT029 14/09 A3007 RMK AO2=
201505171700 SPECI KBLI 171700Z VRB03KT 10SM BKN028 15/09 A3007 RMK AO2=
201505171653 METAR KBLI 171653Z VRB03KT 10SM OVC030 14/09 A3007 RMK AO2 SLP190 T01440094=
201505171553 METAR KBLI 171553Z 16003KT 10SM OVC030 14/09 A3007 RMK AO2 SLP190 T01390089=
201505171543 SPECI KBLI 171543Z 00000KT 10SM OVC029 14/09 A3007 RMK AO2=
201505171453 METAR KBLI 171453Z 13004KT 10SM OVC031 13/09 A3007 RMK AO2 SLP190 T01330089 52007=
201505171353 METAR KBLI 171353Z 15004KT 10SM OVC031 13/09 A3007 RMK AO2 SLP188 T01280089=
201505171253 METAR KBLI 171253Z AUTO 16005KT 10SM OVC033 12/09 A3006 RMK AO2 SLP185 T01220089=
201505171153 METAR KBLI 171153Z AUTO 16006KT 10SM OVC037 12/09 A3005 RMK AO2 SLP183 T01220089 10133 20122 53001=
201505171053 METAR KBLI 171053Z AUTO 16004KT 10SM OVC041 12/09 A3005 RMK AO2 SLP182 T01220089=
201505170953 METAR KBLI 170953Z AUTO 16004KT 10SM FEW025 BKN040 OVC050 12/09 A3004 RMK AO2 SLP180 T01220094=
201505170941 SPECI KBLI 170941Z AUTO 17003KT 10SM FEW018 SCT040 OVC055 12/09 A3005 RMK AO2=
201505170853 METAR KBLI 170853Z AUTO 19004KT 10SM OVC022 12/09 A3005 RMK AO2 SLP182 T01220094 53007=
201505170753 METAR KBLI 170753Z AUTO 16006KT 10SM OVC018 13/09 A3004 RMK AO2 SLP179 T01280094 401560128=
201505170718 SPECI KBLI 170718Z AUTO 16005KT 10SM BKN018 OVC055 13/09 A3003 RMK AO2=
201505170653 METAR KBLI 170653Z AUTO 15006KT 10SM SCT018 OVC055 13/09 A3003 RMK AO2 SLP175 T01280094=
201505170640 SPECI KBLI 170640Z AUTO 15010KT 10SM BKN018 OVC050 13/09 A3002 RMK AO2=
201505170633 SPECI KBLI 170633Z AUTO 15010KT 10SM SCT018 OVC050 13/09 A3002 RMK AO2=
201505170606 SPECI KBLI 170606Z AUTO 16008KT 10SM BKN018 OVC050 13/09 A3003 RMK AO2=
201505170553 METAR KBLI 170553Z AUTO 17007KT 10SM FEW018 OVC050 13/09 A3003 RMK AO2 SLP174 T01330094 10144 20128 51010=
201505170453 METAR KBLI 170453Z 17009G15KT 10SM OVC055 13/09 A3002 RMK AO2 SLP173 T01330094=
201505170353 METAR KBLI 170353Z 16008G16KT 10SM OVC050 13/10 A3001 RMK AO2 SLP169 T01330100=
201505170253 METAR KBLI 170253Z 17009KT 10SM CLR 13/10 A3000 RMK AO2 SLP164 T01330100 53003=
201505170153 METAR KBLI 170153Z 17010KT 10SM CLR 14/10 A2999 RMK AO2 SLP161 T01390100=
201505170053 METAR KBLI 170053Z 19008KT 10SM SCT030 14/10 A2998 RMK AO2 SLP160 T01390100=
201505162353 METAR KBLI 162353Z 16010G18KT 10SM OVC030 14/09 A2999 RMK AO2 SLP161 T01440094 10156 20139 53004=
201505162253 METAR KBLI 162253Z 17011G17KT 10SM OVC026 15/09 A2998 RMK AO2 SLP157 T01500094=
201505162216 SPECI KBLI 162216Z 17012G18KT 10SM BKN026 15/09 A2997 RMK AO2=
201505162153 METAR KBLI 162153Z 16011G20KT 10SM CLR 16/09 A2997 RMK AO2 SLP155 T01560094=
201505162053 METAR KBLI 162053Z 17010G18KT 10SM FEW026 16/10 A2998 RMK AO2 SLP156 T01560100 50003=
201505162009 SPECI KBLI 162009Z 17014KT 10SM BKN026 OVC055 15/10 A2997 RMK AO2=
201505161953 METAR KBLI 161953Z 16010G17KT 10SM FEW028 BKN055 15/10 A2997 RMK AO2 SLP156 T01500100=
201505161853 METAR KBLI 161853Z 17012G17KT 10SM OVC050 14/10 A2997 RMK AO2 SLP153 T01440100=
201505161753 METAR KBLI 161753Z 17010G17KT 10SM FEW035 SCT043 OVC050 14/09 A2996 RMK AO2 SLP150 T01390089 10144 20128 51007=
201505161653 METAR KBLI 161653Z 16011KT 10SM OVC048 14/10 A2995 RMK AO2 SLP149 T01390100=
201505161553 METAR KBLI 161553Z 17009KT 10SM OVC039 13/09 A2995 RMK AO2 SLP147 T01280094=
201505161453 METAR KBLI 161453Z 17013G17KT 10SM BKN039 BKN048 13/09 A2994 RMK AO2 SLP144 T01280089 52010=
201505161353 METAR KBLI 161353Z 16008KT 10SM OVC090 13/09 A2993 RMK AO2 SLP141 T01330094=
201505161253 METAR KBLI 161253Z AUTO 16010G16KT 10SM BKN045 OVC080 13/09 A2992 RMK AO2 SLP136 T01280094=
201505161153 METAR KBLI 161153Z AUTO 16010G19KT 10SM SCT045 OVC080 13/09 A2991 RMK AO2 SLP134 T01330089 10150 20128 50007=
201505161053 METAR KBLI 161053Z AUTO 16011G19KT 10SM SCT041 OVC050 13/09 A2991 RMK AO2 SLP134 T01330089=
201505160953 METAR KBLI 160953Z AUTO 16006KT 10SM BKN050 OVC080 13/09 A2990 RMK AO2 SLP132 T01330094=
201505160853 METAR KBLI 160853Z AUTO 17007KT 10SM SCT046 OVC075 13/09 A2989 RMK AO2 SLP127 T01330094 55001=
201505160753 METAR KBLI 160753Z AUTO 18006KT 10SM BKN046 OVC075 13/11 A2989 RMK AO2 SLP127 T01330106 401830083=
201505160653 METAR KBLI 160653Z AUTO 15005KT 10SM BKN044 OVC075 15/09 A2989 RMK AO2 SLP127 T01500094=
201505160553 METAR KBLI 160553Z AUTO 17008KT 10SM OVC075 14/11 A2989 RMK AO2 SLP128 T01440106 10178 20144 51012=
201505160453 METAR KBLI 160453Z 17006KT 10SM OVC075 15/11 A2989 RMK AO2 SLP129 T01500111=
201505160353 METAR KBLI 160353Z 17006KT 10SM OVC075 16/11 A2987 RMK AO2 SLP123 T01560106=
201505160253 METAR KBLI 160253Z 17005KT 10SM BKN070 16/11 A2986 RMK AO2 SLP117 T01560106 53000=
201505160153 METAR KBLI 160153Z 17007KT 10SM CLR 17/11 A2985 RMK AO2 SLP115 T01670106=
201505160053 METAR KBLI 160053Z 17005KT 10SM SCT070 17/11 A2985 RMK AO2 SLP116 T01720106=
201505152353 METAR KBLI 152353Z 16007KT 10SM OVC070 18/11 A2986 RMK AO2 SLP117 T01780111 10183 20133 55003=
201505152253 METAR KBLI 152253Z 16004KT 10SM OVC065 17/11 A2985 RMK AO2 SLP116 T01670106=
201505152153 METAR KBLI 152153Z VRB05KT 10SM BKN065 17/11 A2986 RMK AO2 SLP118 T01720106=
201505152053 METAR KBLI 152053Z 17007KT 10SM OVC047 16/11 A2986 RMK AO2 SLP119 T01610111 58002=
201505151953 METAR KBLI 151953Z 16008KT 10SM OVC047 16/11 A2987 RMK AO2 SLP120 T01560111=
201505151853 METAR KBLI 151853Z 17007KT 10SM OVC049 15/11 A2987 RMK AO2 SLP121 T01500111=
201505151753 METAR KBLI 151753Z 18007KT 10SM OVC047 14/11 A2987 RMK AO2 SLP121 T01390106 10144 20089 51002=
201505151653 METAR KBLI 151653Z 18007KT 10SM FEW008 BKN070 13/10 A2987 RMK AO2 SLP121 T01280100=
201505151553 METAR KBLI 151553Z 17006KT 10SM SCT003 OVC040 12/11 A2987 RMK AO2 SLP120 T01220106=
201505151543 SPECI KBLI 151543Z 16009KT 10SM SCT003 OVC040 12/10 A2986 RMK AO2=
201505151509 SPECI KBLI 151509Z 17007KT 10SM OVC003 11/10 A2986 RMK AO2=
201505151453 METAR KBLI 151453Z 18007KT 10SM BKN005 OVC039 11/10 A2986 RMK AO2 SLP119 T01110100 53008=
201505151440 SPECI KBLI 151440Z 17004KT 10SM SCT005 OVC039 11/10 A2986 RMK AO2=
201505151353 METAR KBLI 151353Z VRB06KT 10SM OVC037 11/10 A2985 RMK AO2 SLP113 T01110100=
201505151253 METAR KBLI 151253Z AUTO 00000KT 10SM OVC037 10/09 A2984 RMK AO2 SLP113 T01000089=
201505151153 METAR KBLI 151153Z AUTO 00000KT 10SM OVC033 09/08 A2984 RMK AO2 SLP111 T00940083 10106 20083 58003=
201505151053 METAR KBLI 151053Z AUTO 00000KT 10SM CLR 09/08 A2984 RMK AO2 SLP112 T00890078=
201505150953 METAR KBLI 150953Z AUTO 16004KT 10SM FEW028 10/09 A2985 RMK AO2 SLP113 T01000089=
201505150942 SPECI KBLI 150942Z AUTO 00000KT 10SM FEW028 09/08 A2985 RMK AO2=
201505150920 SPECI KBLI 150920Z AUTO 00000KT 10SM BKN028 10/09 A2985 RMK AO2=
201505150853 METAR KBLI 150853Z AUTO 00000KT 10SM CLR 10/09 A2985 RMK AO2 SLP114 T01000089 50001=
201505150753 METAR KBLI 150753Z AUTO 17003KT 10SM CLR 10/09 A2985 RMK AO2 SLP115 T01000094 401780094=
201505150653 METAR KBLI 150653Z AUTO 00000KT 10SM CLR 10/09 A2985 RMK AO2 SLP115 T01000089=
201505150553 METAR KBLI 150553Z AUTO 00000KT 10SM CLR 11/09 A2985 RMK AO2 SLP113 T01060094 10178 20100 50006=
201505150453 METAR KBLI 150453Z 00000KT 10SM CLR 11/09 A2985 RMK AO2 SLP114 T01060089=
201505150353 METAR KBLI 150353Z 00000KT 10SM CLR 13/09 A2984 RMK AO2 SLP110 T01280094=
201505150253 METAR KBLI 150253Z 00000KT 10SM CLR 16/09 A2983 RMK AO2 SLP108 T01560094 56005=
201505150153 METAR KBLI 150153Z VRB03KT 10SM CLR 17/08 A2983 RMK AO2 SLP108 T01670083=
201505150053 METAR KBLI 150053Z 28005KT 10SM CLR 17/08 A2984 RMK AO2 SLP110 T01720083=
201505142353 METAR KBLI 142353Z 26005KT 10SM CLR 17/08 A2985 RMK AO2 SLP113 T01720083 10178 20133 56011=
201505142253 METAR KBLI 142253Z VRB06KT 10SM CLR 17/09 A2986 RMK AO2 SLP117 T01720094=
201505142153 METAR KBLI 142153Z VRB04KT 10SM SCT025 17/09 A2987 RMK AO2 SLP120 T01720094=
201505142053 METAR KBLI 142053Z 29006KT 10SM SCT025 17/10 A2988 RMK AO2 SLP125 T01670100 58010=
201505141953 METAR KBLI 141953Z 19004KT 10SM SCT023 15/10 A2989 RMK AO2 SLP129 T01500100=
201505141853 METAR KBLI 141853Z 16006KT 10SM SCT020 15/10 A2991 RMK AO2 SLP134 T01500100=
201505141753 METAR KBLI 141753Z VRB03KT 10SM SCT018 14/09 A2991 RMK AO2 SLP135 T01390094 10144 20100 58008=
201505141653 METAR KBLI 141653Z 00000KT 10SM SCT018 13/10 A2992 RMK AO2 SLP138 T01330100=
201505141608 SPECI KBLI 141608Z 14003KT 10SM SCT009 BKN028 12/10 A2993 RMK AO2=
201505141600 SPECI KBLI 141600Z VRB03KT 10SM SCT009 OVC032 12/09 A2993 RMK AO2=
201505141553 METAR KBLI 141553Z 15004KT 10SM SCT012 OVC027 12/09 A2994 RMK AO2 SLP144 T01220094=
201505141520 SPECI KBLI 141520Z 16005KT 10SM SCT012 OVC027 11/09 A2993 RMK AO2=
201505141453 METAR KBLI 141453Z 16003KT 10SM BKN012 OVC031 11/09 A2993 RMK AO2 SLP143 T01110089 53004=
201505141353 METAR KBLI 141353Z 18004KT 10SM FEW100 11/09 A2992 RMK AO2 SLP139 T01060089=
201505141253 METAR KBLI 141253Z AUTO 00000KT 10SM OVC050 10/09 A2992 RMK AO2 SLP138 T01000094=
201505141153 METAR KBLI 141153Z AUTO 00000KT 10SM OVC060 11/08 A2992 RMK AO2 SLP139 60001 70006 T01060083 10111 20100 50002=
201505141053 METAR KBLI 141053Z AUTO 00000KT 10SM OVC060 11/08 A2993 RMK AO2 SLP141 T01060083=
201505140953 METAR KBLI 140953Z AUTO 00000KT 10SM BKN060 OVC080 11/08 A2992 RMK AO2 SLP139 T01060078=
201505140853 METAR KBLI 140853Z AUTO 16005KT 10SM FEW031 BKN070 OVC080 11/08 A2992 RMK AO2 SLP137 60001 T01110078 50001=
201505140753 METAR KBLI 140753Z AUTO 15004KT 10SM BKN031 OVC065 11/08 A2992 RMK AO2 SLP138 T01110083 401390111=
201505140653 METAR KBLI 140653Z AUTO 16005KT 10SM OVC060 11/08 A2992 RMK AO2 SLP139 P0001 T01110083=
201505140553 METAR KBLI 140553Z AUTO 16006KT 10SM OVC055 11/09 A2991 RMK AO2 RAE21 SLP136 P0003 60005 T01110089 10139 20111 50007=
201505140453 METAR KBLI 140453Z 15008KT 10SM -RA OVC060 11/09 A2992 RMK AO2 SLP138 P0002 T01110094=
201505140353 METAR KBLI 140353Z 15007KT 8SM -RA OVC044 12/09 A2990 RMK AO2 SLP133 P0000 T01170094=
201505140253 METAR KBLI 140253Z 15011KT 10SM -RA OVC044 12/09 A2989 RMK AO2 RAB18 SLP129 P0000 60000 T01220089 53005=
201505140153 METAR KBLI 140153Z 16010KT 10SM OVC044 13/09 A2988 RMK AO2 SLP126 T01280094=
201505140053 METAR KBLI 140053Z 17010G17KT 10SM OVC046 13/09 A2988 RMK AO2 SLP125 T01280094=
201505132353 METAR KBLI 132353Z 16007KT 10SM OVC044 14/08 A2988 RMK AO2 SLP124 T01390083 10139 20128 51004=
201505132253 METAR KBLI 132253Z 17011G17KT 10SM OVC046 13/09 A2988 RMK AO2 SLP124 T01330089=
201505132230 SPECI KBLI 132230Z 17009G18KT 10SM FEW009 OVC046 13/10 A2988 RMK AO2=
201505132153 METAR KBLI 132153Z 17013G17KT 10SM OVC044 13/09 A2988 RMK AO2 SLP123 T01330094=
201505132053 METAR KBLI 132053Z 16012G19KT 10SM SCT046 OVC070 13/09 A2987 RMK AO2 SLP120 T01330094 51007=
201505131953 METAR KBLI 131953Z 16012G18KT 10SM OVC040 13/09 A2986 RMK AO2 SLP119 T01330089=
201505131853 METAR KBLI 131853Z 16009KT 10SM OVC038 14/09 A2986 RMK AO2 SLP118 T01390094=
201505131753 METAR KBLI 131753Z 17010KT 10SM FEW055 OVC100 13/09 A2985 RMK AO2 SLP113 T01330094 10133 20117 53003=
201505131727 SPECI KBLI 131727Z 16011G14KT 10SM OVC055 13/09 A2984 RMK AO2=
201505131653 METAR KBLI 131653Z 17011KT 10SM SCT008 BKN018 OVC055 12/09 A2984 RMK AO2 SLP111 T01220094=
201505131605 SPECI KBLI 131605Z 16009G17KT 10SM SCT008 BKN023 OVC035 12/10 A2984 RMK AO2=
201505131553 METAR KBLI 131553Z 17010KT 10SM FEW008 SCT018 OVC055 12/10 A2984 RMK AO2 SLP111 T01220100=
201505131549 SPECI KBLI 131549Z 17011KT 10SM SCT018 OVC055 12/10 A2984 RMK AO2=
201505131510 SPECI KBLI 131510Z 16008G17KT 10SM FEW013 BKN020 OVC046 12/10 A2983 RMK AO2=
201505131453 METAR KBLI 131453Z 16007KT 10SM FEW013 OVC045 12/10 A2982 RMK AO2 SLP106 T01220100 53002=
201505131408 SPECI KBLI 131408Z 17011G15KT 10SM FEW007 OVC042 12/11 A2982 RMK AO2=
201505131353 METAR KBLI 131353Z 17009KT 10SM OVC042 12/11 A2982 RMK AO2 SLP103 T01220106=
201505131316 SPECI KBLI 131316Z AUTO 16008KT 10SM SCT012 OVC042 12/10 A2982 RMK AO2=
201505131253 METAR KBLI 131253Z AUTO 15010KT 10SM BKN012 OVC017 12/11 A2982 RMK AO2 SLP105 T01220106=
201505131230 SPECI KBLI 131230Z AUTO 16008KT 10SM OVC011 12/11 A2982 RMK AO2=
201505131153 METAR KBLI 131153Z AUTO 17008KT 10SM OVC009 12/11 A2982 RMK AO2 CIG 006V012 SLP104 60001 70002 T01220106 10133 20122 58002=
201505131115 SPECI KBLI 131115Z AUTO 17008KT 10SM OVC009 13/11 A2983 RMK AO2=
201505131053 METAR KBLI 131053Z AUTO 16009G15KT 10SM OVC011 13/11 A2983 RMK AO2 SLP108 P0001 T01280111=
201505131014 SPECI KBLI 131014Z AUTO 17010KT 10SM OVC013 13/11 A2982 RMK AO2=
201505131004 SPECI KBLI 131004Z AUTO 15008KT 10SM OVC015 13/11 A2982 RMK AO2=
201505130953 METAR KBLI 130953Z AUTO 16008KT 10SM OVC013 13/11 A2982 RMK AO2 SLP103 T01330111=
201505130936 SPECI KBLI 130936Z AUTO 17005KT 10SM OVC013 13/11 A2982 RMK AO2=
201505130853 METAR KBLI 130853Z AUTO 16006KT 10SM OVC015 13/11 A2983 RMK AO2 RAB30E42 SLP106 P0000 60000 T01330111 53001=
201505130811 SPECI KBLI 130811Z AUTO 17006KT 10SM BKN017 OVC060 13/11 A2982 RMK AO2=
201505130753 METAR KBLI 130753Z AUTO 16008KT 10SM BKN060 OVC080 13/11 A2982 RMK AO2 RAB28E43 SLP105 P0000 T01330111 401830072=
201505130653 METAR KBLI 130653Z AUTO 17006KT 10SM OVC085 13/11 A2982 RMK AO2 SLP105 T01330111=
201505130553 METAR KBLI 130553Z AUTO 16004KT 10SM CLR 13/11 A2982 RMK AO2 SLP106 60001 T01280111 10172 20128 50007=
201505130453 METAR KBLI 130453Z AUTO 00000KT 10SM CLR 13/12 A2982 RMK AO2 SLP106 T01330117=
201505130353 METAR KBLI 130353Z 16005KT 10SM BKN100 14/12 A2981 RMK AO2 SLP102 T01390122=
201505130253 METAR KBLI 130253Z 16008KT 10SM BKN080 OVC095 15/12 A2980 RMK AO2 SLP099 60001 T01500122 55003=
201505130153 METAR KBLI 130153Z 17005KT 10SM OVC085 15/12 A2979 RMK AO2 RAE46 SLP095 P0000 T01500117=
201505130053 METAR KBLI 130053Z 17003KT 10SM -RA BKN080 OVC095 15/13 A2980 RMK AO2 RAB2359 SLP099 P0001 T01500128=
201505122353 METAR KBLI 122353Z 17006KT 10SM SCT060 OVC085 17/10 A2981 RMK AO2 SLP102 T01670100 10183 20133 53004=
201505122253 METAR KBLI 122253Z 21007KT 170V240 10SM CLR 17/09 A2980 RMK AO2 SLP099 T01720094=
201505122153 METAR KBLI 122153Z VRB06KT 10SM CLR 18/10 A2980 RMK AO2 SLP097 T01780100=
201505122053 METAR KBLI 122053Z 21009KT 10SM CLR 17/10 A2980 RMK AO2 SLP097 T01670100 56006=
201505121953 METAR KBLI 121953Z 17009KT 10SM CLR 16/10 A2980 RMK AO2 SLP099 T01560100=
201505121853 METAR KBLI 121853Z 19009G17KT 10SM CLR 14/10 A2981 RMK AO2 SLP101 T01440100=
201505121753 METAR KBLI 121753Z 19008G14KT 10SM CLR 13/10 A2982 RMK AO2 SLP103 T01330100 10139 20072 58003=
201505121653 METAR KBLI 121653Z 16006KT 10SM FEW008 SCT110 13/10 A2982 RMK AO2 SLP105 T01330100=
201505121553 METAR KBLI 121553Z 23003KT 10SM SCT007 OVC035 12/10 A2983 RMK AO2 SLP107 T01220100=
201505121530 SPECI KBLI 121530Z 21003KT 10SM FEW007 OVC033 12/09 A2983 RMK AO2=
201505121453 METAR KBLI 121453Z 16003KT 10SM OVC031 12/10 A2983 RMK AO2 SLP107 T01170100 55002=
201505121434 SPECI KBLI 121434Z 19005KT 10SM OVC031 11/09 A2983 RMK AO2=
201505121353 METAR KBLI 121353Z AUTO 17004KT 10SM OVC029 11/09 A2982 RMK AO2 SLP106 T01060094=
201505121343 SPECI KBLI 121343Z AUTO 18005KT 10SM BKN029 11/09 A2983 RMK AO2=
201505121253 METAR KBLI 121253Z AUTO 00000KT 10SM CLR 08/07 A2983 RMK AO2 SLP107 T00780067=
201505121153 METAR KBLI 121153Z AUTO 00000KT 10SM CLR 08/08 A2983 RMK AO2 SLP109 70004 T00830078 10122 20078 56006=
201505121053 METAR KBLI 121053Z AUTO 00000KT 10SM CLR 09/08 A2983 RMK AO2 SLP109 T00940078=
201505120953 METAR KBLI 120953Z AUTO 15003KT 10SM CLR 11/08 A2984 RMK AO2 SLP112 T01060083=
201505120853 METAR KBLI 120853Z AUTO 12004KT 10SM CLR 11/08 A2985 RMK AO2 SLP115 T01060083 58009=
201505120753 METAR KBLI 120753Z AUTO 00000KT 10SM CLR 10/08 A2986 RMK AO2 SLP118 T01000083 401610100=
201505120653 METAR KBLI 120653Z AUTO 00000KT 10SM FEW100 12/09 A2987 RMK AO2 SLP122 T01170089=
201505120553 METAR KBLI 120553Z AUTO 00000KT 10SM FEW100 13/09 A2988 RMK AO2 SLP125 T01280089 10161 20122 56004=
201505120453 METAR KBLI 120453Z 15005KT 10SM FEW120 13/08 A2988 RMK AO2 SLP125 T01330083=
201505120353 METAR KBLI 120353Z 17008KT 10SM CLR 14/09 A2989 RMK AO2 SLP127 T01390089=
201505120253 METAR KBLI 120253Z 17007KT 10SM CLR 14/08 A2989 RMK AO2 SLP129 T01440083 55009=
201505120153 METAR KBLI 120153Z 17006KT 10SM CLR 14/08 A2988 RMK AO2 SLP125 T01440083=
201505120053 METAR KBLI 120053Z 16009KT 10SM CLR 16/08 A2990 RMK AO2 SLP133 T01560083=
201505112353 METAR KBLI 112353Z 18008KT 10SM CLR 16/08 A2992 RMK AO2 SLP138 T01560083 10161 20133 58019=
201505112253 METAR KBLI 112253Z 18008KT 10SM CLR 16/09 A2994 RMK AO2 SLP146 T01610089=
201505112153 METAR KBLI 112153Z 19006KT 10SM FEW033 16/09 A2995 RMK AO2 SLP150 T01560089=
201505112053 METAR KBLI 112053Z 17008G15KT 10SM OVC033 14/08 A2997 RMK AO2 SLP157 T01390083 56010=
201505111953 METAR KBLI 111953Z 17012KT 10SM OVC033 14/08 A2998 RMK AO2 SLP159 T01440083=
201505111907 SPECI KBLI 111907Z 16008KT 10SM OVC031 14/09 A2999 RMK AO2=
201505111853 METAR KBLI 111853Z 16012KT 10SM OVC029 14/09 A3000 RMK AO2 SLP164 T01390089=
201505111753 METAR KBLI 111753Z 16010KT 10SM OVC027 13/09 A3000 RMK AO2 SLP167 60004 T01330089 10133 20111 58002=
201505111653 METAR KBLI 111653Z 17010G17KT 10SM OVC023 12/09 A3001 RMK AO2 SLP169 T01220089=
201505111553 METAR KBLI 111553Z 17010G15KT 10SM OVC023 12/08 A3001 RMK AO2 RAE41 SLP170 P0004 T01220083=
201505111536 SPECI KBLI 111536Z 16008G14KT 10SM -RA BKN023 OVC100 12/09 A3001 RMK AO2 P0003=
201505111453 METAR KBLI 111453Z 17009G16KT 9SM -RA FEW028 BKN065 OVC090 12/08 A3001 RMK AO2 RAB49 SLP169 P0000 60000 T01170083 53002=
201505111353 METAR KBLI 111353Z 16009G14KT 10SM BKN110 12/08 A3001 RMK AO2 SLP169 T01220083=
201505111253 METAR KBLI 111253Z AUTO 16012G18KT 10SM CLR 12/09 A3000 RMK AO2 SLP164 T01170089=
201505111153 METAR KBLI 111153Z AUTO 15009G15KT 10SM FEW120 12/08 A3001 RMK AO2 SLP167 T01170083 10139 20117 56002=
201505111053 METAR KBLI 111053Z AUTO 17012G21KT 10SM FEW120 12/09 A3001 RMK AO2 SLP168 T01170089=
201505110953 METAR KBLI 110953Z AUTO 17011G17KT 10SM SCT110 12/08 A3001 RMK AO2 SLP167 T01220083=
201505110853 METAR KBLI 110853Z AUTO 15006KT 10SM FEW120 13/08 A3001 RMK AO2 SLP169 T01280083 53003=
201505110753 METAR KBLI 110753Z AUTO 15005KT 10SM BKN110 13/08 A3000 RMK AO2 SLP166 T01330078 401940100=
201505110653 METAR KBLI 110653Z AUTO 15006KT 10SM FEW110 13/08 A3000 RMK AO2 SLP166 T01330078=
201505110553 METAR KBLI 110553Z AUTO 17010KT 10SM CLR 14/08 A3000 RMK AO2 SLP166 T01390078 10183 20133 51008=
201505110453 METAR KBLI 110453Z 16006KT 10SM CLR 14/09 A3000 RMK AO2 SLP164 T01390089=
201505110353 METAR KBLI 110353Z 18010KT 10SM CLR 14/09 A2999 RMK AO2 SLP163 T01390094=
201505110253 METAR KBLI 110253Z 17011G18KT 10SM CLR 14/10 A2998 RMK AO2 SLP158 T01440100 56004=
201505110153 METAR KBLI 110153Z 18007KT 10SM CLR 16/10 A2998 RMK AO2 SLP158 T01560100=
201505110053 METAR KBLI 110053Z 18006KT 10SM CLR 17/09 A2999 RMK AO2 SLP160 T01720089=
201505102353 METAR KBLI 102353Z VRB05KT 10SM CLR 18/08 A2999 RMK AO2 SLP162 T01830078 10194 20150 56010=
201505102253 METAR KBLI 102253Z 18008KT 10SM CLR 18/08 A3000 RMK AO2 SLP165 T01830083=
201505102153 METAR KBLI 102153Z VRB05KT 10SM CLR 19/08 A3001 RMK AO2 SLP168 T01890083=
201505102053 METAR KBLI 102053Z 18009KT 10SM CLR 18/07 A3002 RMK AO2 SLP172 T01780072 58006=
201505101953 METAR KBLI 101953Z 19008KT 10SM SCT110 17/08 A3003 RMK AO2 SLP175 T01670078=
201505101853 METAR KBLI 101853Z 19006KT 10SM SCT100 16/08 A3003 RMK AO2 SLP176 T01610078=
201505101753 METAR KBLI 101753Z 19007G14KT 150V230 10SM SCT110 15/09 A3004 RMK AO2 SLP179 T01500089 10156 20117 58001=
201505101653 METAR KBLI 101653Z 18006KT 10SM CLR 14/09 A3005 RMK AO2 SLP180 T01440089=
201505101553 METAR KBLI 101553Z 17005KT 10SM CLR 13/08 A3005 RMK AO2 SLP182 T01330083=
201505101453 METAR KBLI 101453Z 20004KT 10SM CLR 13/09 A3004 RMK AO2 SLP179 T01280089 51008=
201505101353 METAR KBLI 101353Z 00000KT 10SM CLR 13/08 A3004 RMK AO2 SLP178 T01280083=
201505101253 METAR KBLI 101253Z AUTO 19004KT 10SM CLR 12/07 A3003 RMK AO2 SLP175 T01220072=
201505101153 METAR KBLI 101153Z AUTO 19003KT 10SM CLR 12/08 A3002 RMK AO2 SLP171 T01220078 10144 20100 56002=
201505101053 METAR KBLI 101053Z AUTO 20004KT 10SM CLR 12/08 A3002 RMK AO2 SLP172 T01170083=
201505100953 METAR KBLI 100953Z AUTO 00000KT 10SM CLR 12/08 A3002 RMK AO2 SLP172 T01170078=
201505100853 METAR KBLI 100853Z AUTO 20003KT 10SM CLR 11/09 A3003 RMK AO2 SLP173 T01110089 52001=
201505100753 METAR KBLI 100753Z AUTO 00000KT 10SM CLR 13/09 A3002 RMK AO2 SLP173 T01280089 402390056=
201505100653 METAR KBLI 100653Z 18003KT 10SM CLR 13/09 A3002 RMK AO2 SLP172 T01330094=
201505100553 METAR KBLI 100553Z 18003KT 10SM CLR 14/09 A3002 RMK AO2 SLP172 T01440094 10239 20144 50002=
201505100453 METAR KBLI 100453Z 17005KT 10SM CLR 16/09 A3002 RMK AO2 SLP173 T01560089=
201505100353 METAR KBLI 100353Z 20004KT 10SM CLR 16/09 A3003 RMK AO2 SLP173 T01610094=
201505100253 METAR KBLI 100253Z 00000KT 10SM CLR 18/09 A3002 RMK AO2 SLP170 T01780094 56007=
201505100153 METAR KBLI 100153Z 25003KT 10SM CLR 21/07 A3002 RMK AO2 SLP171 T02110067=
201505100053 METAR KBLI 100053Z 26003KT 10SM CLR 23/07 A3003 RMK AO2 SLP173 T02280067=
201505092353 METAR KBLI 092353Z 00000KT 10SM CLR 23/07 A3004 RMK AO2 SLP177 T02330072 10233 20183 58015=
201505092253 METAR KBLI 092253Z VRB03KT 10SM CLR 23/08 A3005 RMK AO2 SLP182 T02280078=
201505092153 METAR KBLI 092153Z VRB03KT 10SM CLR 22/06 A3007 RMK AO2 SLP188 T02220056=
201505092053 METAR KBLI 092053Z 00000KT 10SM CLR 22/09 A3008 RMK AO2 SLP192 T02170089 58007=
201505091953 METAR KBLI 091953Z VRB05KT 10SM CLR 21/06 A3009 RMK AO2 SLP195 T02110056=
201505091853 METAR KBLI 091853Z VRB03KT 10SM CLR 19/03 A3010 RMK AO2 SLP198 T01940028=
201505091753 METAR KBLI 091753Z 16005KT 10SM CLR 19/03 A3010 RMK AO2 SLP199 T01890028 10189 20056 50001=
201505091653 METAR KBLI 091653Z 29004KT 10SM CLR 17/07 A3011 RMK AO2 SLP201 T01720072=
201505091553 METAR KBLI 091553Z VRB03KT 10SM CLR 15/08 A3011 RMK AO2 SLP201 T01500078=
201505091453 METAR KBLI 091453Z 00000KT 10SM CLR 12/08 A3010 RMK AO2 SLP198 T01220083 51009=
201505091353 METAR KBLI 091353Z 00000KT 10SM CLR 09/08 A3009 RMK AO2 SLP195 T00940078=
201505091253 METAR KBLI 091253Z AUTO 00000KT 10SM CLR 07/05 A3008 RMK AO2 SLP193 T00670050=
201505091153 METAR KBLI 091153Z AUTO 00000KT 10SM CLR 07/06 A3007 RMK AO2 SLP189 T00670056 10117 20061 53013=
201505091053 METAR KBLI 091053Z AUTO 00000KT 10SM CLR 08/06 A3005 RMK AO2 SLP182 T00780061=
201505090953 METAR KBLI 090953Z AUTO 00000KT 10SM CLR 08/07 A3004 RMK AO2 SLP178 T00780067=
201505090853 METAR KBLI 090853Z AUTO 00000KT 10SM CLR 09/07 A3003 RMK AO2 SLP176 T00940072 53011=
201505090753 METAR KBLI 090753Z AUTO 19003KT 10SM CLR 11/08 A3002 RMK AO2 SLP172 T01060078 402440050=
201505090653 METAR KBLI 090653Z AUTO 00000KT 10SM CLR 11/07 A3001 RMK AO2 SLP168 T01060072=
201505090553 METAR KBLI 090553Z AUTO 00000KT 10SM CLR 12/08 A3000 RMK AO2 SLP165 T01170083 10222 20111 51009=
201505090453 METAR KBLI 090453Z 00000KT 10SM CLR 13/08 A3000 RMK AO2 SLP164 T01280078=
201505090353 METAR KBLI 090353Z 00000KT 10SM CLR 13/09 A2998 RMK AO2 SLP160 T01330089=
201505090253 METAR KBLI 090253Z 00000KT 10SM CLR 16/09 A2997 RMK AO2 SLP157 T01610089 53001=
201505090153 METAR KBLI 090153Z 00000KT 10SM CLR 21/06 A2997 RMK AO2 SLP155 T02060061=
201505090053 METAR KBLI 090053Z 26006KT 10SM CLR 22/04 A2997 RMK AO2 SLP154 T02170044=
201505082353 METAR KBLI 082353Z 28008KT 10SM CLR 22/05 A2997 RMK AO2 SLP156 T02170050 10244 20200 57011=
201505082253 METAR KBLI 082253Z 27010KT 10SM CLR 21/07 A2998 RMK AO2 SLP159 T02110072=
201505082153 METAR KBLI 082153Z 23010G14KT 10SM CLR 21/09 A3000 RMK AO2 SLP164 T02060094=
201505082053 METAR KBLI 082053Z 02007KT 10SM CLR 24/02 A3001 RMK AO2 SLP166 T02390022 58016=
201505081953 METAR KBLI 081953Z 32007KT 280V030 10SM CLR 23/03 A3002 RMK AO2 SLP172 T02330028=
201505081853 METAR KBLI 081853Z 03010KT 10SM CLR 22/04 A3004 RMK AO2 SLP178 T02170039=
201505081753 METAR KBLI 081753Z 33005G14KT 10SM CLR 20/07 A3005 RMK AO2 SLP182 T02000072 10200 20050 58012=
201505081653 METAR KBLI 081653Z 35007KT 10SM CLR 17/07 A3006 RMK AO2 SLP186 T01720067=
201505081553 METAR KBLI 081553Z 33005KT 10SM CLR 14/08 A3008 RMK AO2 SLP192 T01440078=
201505081453 METAR KBLI 081453Z 00000KT 10SM CLR 11/08 A3009 RMK AO2 SLP195 T01110078 53005=
201505081353 METAR KBLI 081353Z 00000KT 10SM CLR 07/07 A3008 RMK AO2 SLP192 T00720067=
201505081253 METAR KBLI 081253Z AUTO 00000KT 10SM CLR 05/04 A3007 RMK AO2 SLP191 T00500044=
201505081153 METAR KBLI 081153Z AUTO 00000KT 10SM CLR 06/05 A3007 RMK AO2 SLP189 T00560050 10100 20056 53002=
201505081053 METAR KBLI 081053Z AUTO 00000KT 10SM CLR 06/06 A3006 RMK AO2 SLP187 T00560056=
201505080953 METAR KBLI 080953Z AUTO 00000KT 10SM CLR 07/06 A3006 RMK AO2 SLP188 T00670061=
201505080853 METAR KBLI 080853Z AUTO 00000KT 10SM CLR 07/07 A3006 RMK AO2 SLP188 T00720067 53005=
201505080753 METAR KBLI 080753Z AUTO 00000KT 10SM CLR 09/08 A3006 RMK AO2 SLP186 T00940078 401830028=
201505080653 METAR KBLI 080653Z AUTO 00000KT 10SM CLR 09/08 A3005 RMK AO2 SLP184 T00890078=
201505080553 METAR KBLI 080553Z 00000KT 10SM CLR 09/08 A3005 RMK AO2 SLP182 T00940078 10183 20089 50005=
201505080453 METAR KBLI 080453Z 00000KT 10SM CLR 11/08 A3005 RMK AO2 SLP183 T01060083=
201505080353 METAR KBLI 080353Z 00000KT 10SM CLR 12/09 A3004=
201505080253 METAR KBLI 080253Z 00000KT 10SM CLR 15/11 A3003 RMK AO2 SLP177 T01500106 56006=
201505080153 METAR KBLI 080153Z 00000KT 10SM CLR 17/09 A3004 RMK AO2 SLP178 T01670089=
201505080053 METAR KBLI 080053Z 00000KT 10SM CLR 18/09 A3005 RMK AO2 SLP181 T01780089=
201505072353 METAR KBLI 072353Z VRB04KT 10SM CLR 18/08 A3005 RMK AO2 SLP183 T01830078 10183 20139 56018=
201505072253 METAR KBLI 072253Z VRB05KT 10SM CLR 18/06 A3007 RMK AO2 SLP189 T01780061=
201505072153 METAR KBLI 072153Z 28007KT 10SM CLR 18/06 A3009 RMK AO2 SLP195 T01780061=
201505072053 METAR KBLI 072053Z VRB04KT 10SM CLR 17/07 A3011 RMK AO2 SLP202 T01670067 57014=
201505071953 METAR KBLI 071953Z 27006KT 10SM CLR 16/07 A3012 RMK AO2 SLP206 T01560072=
201505071853 METAR KBLI 071853Z VRB04KT 10SM CLR 15/08 A3013 RMK AO2 SLP211 T01500083=
201505071753 METAR KBLI 071753Z 18003KT 10SM CLR 14/07 A3015 RMK AO2 SLP216 T01390072 10144 20028 58005=
201505071653 METAR KBLI 071653Z 15003KT 10SM CLR 13/07 A3016 RMK AO2 SLP219 T01280072=
201505071553 METAR KBLI 071553Z 00000KT 10SM CLR 11/07 A3016 RMK AO2 SLP221 T01110067=
201505071453 METAR KBLI 071453Z 00000KT 10SM CLR 09/06 A3016 RMK AO2 SLP220 T00890061 53008=
201505071353 METAR KBLI 071353Z AUTO 00000KT 10SM CLR 06/06 A3015 RMK AO2 SLP217 T00610056=
201505071253 METAR KBLI 071253Z AUTO 00000KT 10SM CLR 04/03 A3014 RMK AO2 SLP214 T00390033=
201505071153 METAR KBLI 071153Z AUTO 00000KT 10SM CLR 03/03 A3014 RMK AO2 SLP213 70003 T00330028 10083 20033 55001=
201505071053 METAR KBLI 071053Z AUTO 00000KT 10SM CLR 04/03 A3013 RMK AO2 SLP212 T00390033=
201505070953 METAR KBLI 070953Z AUTO 00000KT 10SM CLR 06/04 A3013 RMK AO2 SLP210 T00560044=
201505070853 METAR KBLI 070853Z AUTO 00000KT 10SM CLR 06/05 A3014 RMK AO2 SLP213 T00610050 50003=
201505070753 METAR KBLI 070753Z AUTO 00000KT 10SM CLR 07/06 A3014 RMK AO2 SLP215 T00720056 401610050=
201505070653 METAR KBLI 070653Z AUTO 00000KT 10SM CLR 07/06 A3013 RMK AO2 SLP212 T00720061=
201505070553 METAR KBLI 070553Z AUTO 00000KT 10SM CLR 07/07 A3013 RMK AO2 SLP211 T00720067 10161 20072 50012=
201505070453 METAR KBLI 070453Z AUTO 00000KT 10SM CLR 08/07 A3013 RMK AO2 SLP210 T00830072=
201505070353 METAR KBLI 070353Z 00000KT 10SM CLR 10/06 A3011 RMK AO2 SLP205 T01000061=
201505070253 METAR KBLI 070253Z 00000KT 10SM CLR 14/04 A3009 RMK AO2 SLP198 T01390044 53001=
201505070153 METAR KBLI 070153Z 28004KT 10SM CLR 15/03 A3009 RMK AO2 SLP197 T01500028=
201505070053 METAR KBLI 070053Z 28008KT 10SM FEW100 16/04 A3009 RMK AO2 SLP196 T01560039=
201505062353 METAR KBLI 062353Z VRB04KT 10SM CLR 16/05 A3009 RMK AO2 SLP197 60001 T01560050 10161 20111 58009=
201505062253 METAR KBLI 062253Z 27008KT 10SM CLR 15/05 A3010 RMK AO2 SLP201 T01500050=
201505062153 METAR KBLI 062153Z 27007G15KT 10SM CLR 14/06 A3011 RMK AO2 SLP205 T01440061=
201505062053 METAR KBLI 062053Z 28007KT 10SM FEW025 14/08 A3012 RMK AO2 SLP206 60001 T01440078 58008=
201505061953 METAR KBLI 061953Z 28007KT 10SM SCT024 BKN032 BKN047 13/07 A3013 RMK AO2 SLP209 P0001 T01280072=
201505061853 METAR KBLI 061853Z 28004KT 10SM FEW026 SCT036 OVC043 12/07 A3014 RMK AO2 SLP212 T01170067=
201505061753 METAR KBLI 061753Z 32003KT 10SM FEW020 SCT030 OVC039 12/07 A3014 RMK AO2 SLP214 60002 T01170067 10128 20050 53002=
201505061740 SPECI KBLI 061740Z 29003KT 10SM FEW023 BKN031 OVC039 12/07 A3014 RMK AO2=
201505061653 METAR KBLI 061653Z 26004KT 10SM BKN020 BKN025 11/07 A3014 RMK AO2 SLP212 P0001 T01110067=
201505061553 METAR KBLI 061553Z 17003KT 10SM FEW034 SCT045 BKN100 11/07 A3014 RMK AO2 SLP212 T01060067=
201505061532 SPECI KBLI 061532Z 00000KT 10SM SCT024 OVC034 10/06 A3014 RMK AO2 $=
201505061505 SPECI KBLI 061505Z 00000KT 10SM SCT012 OVC024 09/06 A3014 RMK AO2 $=
201505061453 METAR KBLI 061453Z 00000KT 10SM BKN012 OVC024 09/06 A3014 RMK AO2 SLP212 60001 T00940056 53009 $=
201505061353 METAR KBLI 061353Z 00000KT 10SM BKN010 BKN060 08/07 A3012 RMK AO2 SLP207 T00830067 $=
201505061253 METAR KBLI 061253Z AUTO 00000KT 10SM OVC060 05/05 A3011 RMK AO2 SLP204 P0001 T00500050 $=
201505061153 METAR KBLI 061153Z AUTO 00000KT 10SM OVC060 07/06 A3010 RMK AO2 SLP200 60001 70019 T00720061 10094 20050 55000 $=
201505061053 METAR KBLI 061053Z AUTO 00000KT 10SM FEW013 SCT065 06/05 A3010 RMK AO2 SLP200 T00560050 $=
201505060953 METAR KBLI 060953Z AUTO 00000KT 10SM FEW065 06/06 A3009 RMK AO2 SLP199 T00610056 $=
201505060853 METAR KBLI 060853Z AUTO 15003KT 10SM CLR 08/06 A3010 RMK AO2 SLP200 60001 T00780056 50002 $=
201505060753 METAR KBLI 060753Z AUTO 15006KT 10SM CLR 09/06 A3011 RMK AO2 SLP202 P0001 T00890061 401330072 $=
201505060653 METAR KBLI 060653Z AUTO 13003KT 10SM CLR 09/06 A3010 RMK AO2 SLP201 T00890056 $=
201505060553 METAR KBLI 060553Z AUTO 17007KT 10SM CLR 09/06 A3010 RMK AO2 SLP199 60003 T00940061 10133 20094 51010 $=
201505060453 METAR KBLI 060453Z AUTO 16008KT 10SM CLR 10/06 A3009 RMK AO2 SLP198 P0001 T01000061 $=
201505060353 METAR KBLI 060353Z 17004KT 10SM CLR 11/07 A3007 RMK AO2 SLP191 T01060067 $=
201505060253 METAR KBLI 060253Z 17005KT 10SM CLR 11/06 A3007 RMK AO2 SLP189 60002 T01110056 53007 $=
201505060153 METAR KBLI 060153Z 17006KT 10SM CLR 12/06 A3005 RMK AO2 SLP183 P0001 T01220056 $=
201505060053 METAR KBLI 060053Z 18005KT 10SM CLR 13/06 A3005 RMK AO2 SLP183 P0001 T01280061 $=
201505052353 METAR KBLI 052353Z 17007KT 10SM CLR 13/05 A3004 RMK AO2 SLP180 60006 T01330050 10133 20094 58003 $=
201505052253 METAR KBLI 052253Z 16007KT 10SM SCT019 13/05 A3005 RMK AO2 SLP183 P0001 T01280050 $=
201505052153 METAR KBLI 052153Z 16010KT 10SM CLR 13/06 A3005 RMK AO2 SLP183 P0002 T01280061 $=
201505052053 METAR KBLI 052053Z 17011G17KT 10SM SCT019 12/06 A3005 RMK AO2 SLP183 P0001 60003 T01220056 51009 $=
201505051953 METAR KBLI 051953Z 18010G17KT 10SM CLR 12/07 A3005 RMK AO2 SLP181 P0001 T01170067 $=
201505051853 METAR KBLI 051853Z 16011G15KT 10SM SCT019 10/06 A3004 RMK AO2 SLP180 P0001 T01000061 $=
201505051825 SPECI KBLI 051825Z 17010KT 10SM SCT021 10/06 A3003 RMK AO2 $=
201505051753 METAR KBLI 051753Z 16008KT 10SM BKN019 OVC025 09/07 A3003 RMK AO2 RAE02 SLP174 P0002 60009 T00940067 10094 20072 51018 $=
201505051653 METAR KBLI 051653Z 15008KT 10SM -RA BKN018 BKN027 OVC043 09/07 A3001 RMK AO2 RAB20 CIG 011V024 SLP169 P0001 T00890067 $=
201505051553 METAR KBLI 051553Z 12005KT 10SM BKN016 BKN022 OVC038 08/07 A2999 RMK AO2 RAE33 SLP164 P0001 T00780067 $=
201505051527 SPECI KBLI 051527Z 12006KT 10SM -RA BKN016 BKN038 OVC075 08/07 A2999 RMK AO2 P0001 $=
201505051453 METAR KBLI 051453Z 12006KT 10SM -RA FEW014 BKN048 OVC060 07/07 A2997 RMK AO2 SLP158 P0001 60005 T00720067 52010 $=
201505051442 SPECI KBLI 051442Z 12007KT 10SM -RA SCT014 BKN022 OVC060 07/06 A2997 RMK AO2 P0001 $=
201505051353 METAR KBLI 051353Z 11005KT 5SM -RA BR SCT026 OVC042 07/07 A2996 RMK AO2 SLP154 P0002 T00720067 $=
201505051253 METAR KBLI 051253Z AUTO 13007KT 10SM -RA BKN035 OVC042 08/07 A2995 RMK AO2 RAE1156B32 SLP150 P0002 T00780067 $=
201505051153 METAR KBLI 051153Z AUTO 12009KT 10SM -RA BKN043 BKN065 OVC080 08/07 A2994 RMK AO2 RAB1056 SLP147 P0001 6//// 7//// T00780067 10100 20078 58002 $=
201505051053 METAR KBLI 051053Z AUTO 12003KT 10SM BKN037 OVC044 08/07 A2995 RMK AO2 RAE30 SLP149 T00830072 $=
201505051004 SPECI KBLI 051004Z AUTO 13005KT 5SM RA BR SCT027 OVC035 08/07 A2996 RMK AO2 PNO $=
201505050953 METAR KBLI 050953Z AUTO 00000KT 5SM -RA BR BKN025 BKN035 OVC046 08/08 A2995 RMK AO2 RAB39 SLP150 P0001 T00830078=
201505050853 METAR KBLI 050853Z AUTO 14004KT 10SM FEW039 OVC050 08/08 A2995 RMK AO2 SLP149 P0002 60005 T00830078 51008=
201505050753 METAR KBLI 050753Z AUTO 15004KT 10SM OVC045 09/08 A2995 RMK AO2 RAE0655 SLP149 P0001 T00940078 401610050=
201505050653 METAR KBLI 050653Z AUTO 15004KT 10SM -RA BKN046 OVC060 09/08 A2994 RMK AO2 RAB01 SLP146 P0002 T00940078=
201505050553 METAR KBLI 050553Z 13005KT 10SM OVC060 10/08 A2993 RMK AO2 RAB30E43 SLP142 P0003 60007 T01000083 10156 20094 50005=
201505050453 METAR KBLI 050453Z 10007KT 10SM BKN049 OVC070 09/08 A2993 RMK AO2 RAE51 SLP142 P0002 T00940078=
201505050353 METAR KBLI 050353Z 00000KT 6SM -RA BR OVC043 09/08 A2994 RMK AO2 SLP145 P0002 T00940083=
201505050253 METAR KBLI 050253Z 28009KT 10SM -RA OVC045 11/07 A2991 RMK AO2 RAE35B51 SLP136 P0000 60000 T01110067 58000=
201505050153 METAR KBLI 050153Z 26005KT 10SM -RA SCT055 BKN070 OVC085 12/07 A2992 RMK AO2 RAB12 SLP138 P0000 T01220072=
201505050053 METAR KBLI 050053Z 22005KT 10SM OVC047 14/05 A2992 RMK AO2 SLP138 T01440050=
201505042353 METAR KBLI 042353Z 18007KT 10SM BKN055 OVC100 16/06 A2991 RMK AO2 SLP137 T01560056 10161 20122 58001=
201505042253 METAR KBLI 042253Z 17012G16KT 10SM FEW055 16/06 A2992 RMK AO2 SLP138 T01610061=
201505042153 METAR KBLI 042153Z 16008G17KT 10SM CLR 16/06 A2992 RMK AO2 SLP139 T01560056=
201505042053 METAR KBLI 042053Z 17011G17KT 10SM CLR 15/06 A2992 RMK AO2 SLP138 T01500056 51012=
201505041953 METAR KBLI 041953Z 17012G19KT 10SM SCT033 14/06 A2991 RMK AO2 SLP137 T01390056=
201505041853 METAR KBLI 041853Z 16013G20KT 10SM SCT025 13/06 A2990 RMK AO2 SLP131 T01330061=
201505041807 SPECI KBLI 041807Z 17012G17KT 10SM SCT025 13/07 A2989 RMK AO2=
201505041800 SPECI KBLI 041800Z 17010G17KT 10SM BKN025 13/06 A2988 RMK AO2=
201505041753 METAR KBLI 041753Z 16011G18KT 10SM SCT025 13/07 A2988 RMK AO2 SLP126 T01280067 10128 20050 53008=
201505041741 SPECI KBLI 041741Z 17011KT 10SM BKN025 13/07 A2988 RMK AO2=
201505041653 METAR KBLI 041653Z 17010G18KT 10SM CLR 12/08 A2987 RMK AO2 SLP121 T01220078=
201505041553 METAR KBLI 041553Z 16009G16KT 10SM CLR 11/08 A2986 RMK AO2 SLP117 T01110083=
201505041453 METAR KBLI 041453Z 16010KT 10SM CLR 11/08 A2986 RMK AO2 SLP118 T01060078 53002=
201505041353 METAR KBLI 041353Z 00000KT 10SM CLR 09/07 A2986 RMK AO2 SLP117 T00890072=
201505041253 METAR KBLI 041253Z AUTO 16004KT 10SM CLR 08/07 A2985 RMK AO2 SLP114 T00830067=
201505041153 METAR KBLI 041153Z AUTO 00000KT 10SM CLR 06/04 A2985 RMK AO2 SLP117 T00560039 10089 20050 58002=
201505041053 METAR KBLI 041053Z AUTO 00000KT 10SM CLR 06/04 A2986 RMK AO2 SLP118 T00560044=
201505040953 METAR KBLI 040953Z AUTO 00000KT 10SM CLR 07/05 A2986 RMK AO2 SLP118 T00670050=
201505040853 METAR KBLI 040853Z AUTO 00000KT 10SM CLR 08/06 A2986 RMK AO2 SLP119 T00780056 58004=
201505040753 METAR KBLI 040753Z AUTO 00000KT 10SM CLR 08/06 A2987 RMK AO2 SLP122 T00830061 401830022=
201505040653 METAR KBLI 040653Z AUTO 00000KT 10SM CLR 08/06 A2987 RMK AO2 SLP123 T00780061=
201505040553 METAR KBLI 040553Z AUTO 00000KT 10SM CLR 09/07 A2987 RMK AO2 SLP123 T00890067 10183 20083 58002=
201505040453 METAR KBLI 040453Z 00000KT 10SM CLR 09/05 A2989 RMK AO2 SLP127 T00890050=
201505040353 METAR KBLI 040353Z 00000KT 10SM CLR 11/06 A2988 RMK AO2 SLP125 T01110061=
201505040253 METAR KBLI 040253Z 00000KT 10SM CLR 14/06 A2988 RMK AO2 SLP125 T01390061 56014=
201505040153 METAR KBLI 040153Z 26003KT 10SM CLR 17/04 A2989 RMK AO2 SLP127 T01720044=
201505040053 METAR KBLI 040053Z 27003KT 10SM CLR 18/02 A2990 RMK AO2 SLP132 T01830022=
201505032353 METAR KBLI 032353Z 26004KT 10SM CLR 18/03 A2992 RMK AO2 SLP139 T01780033 10183 20139 58019=
201505032253 METAR KBLI 032253Z 27005KT 10SM CLR 18/06 A2994 RMK AO2 SLP146 T01830056=
201505032153 METAR KBLI 032153Z 28007KT 10SM CLR 18/08 A2997 RMK AO2 SLP154 T01780078=
201505032053 METAR KBLI 032053Z 30006KT 10SM CLR 17/09 A2998 RMK AO2 SLP159 T01720089 58012=
201505031953 METAR KBLI 031953Z 28006KT 10SM CLR 16/07 A2999 RMK AO2 SLP163 T01610072=
201505031853 METAR KBLI 031853Z 02005KT 10SM CLR 16/06 A3001 RMK AO2 SLP168 T01610056=
201505031753 METAR KBLI 031753Z 00000KT 10SM CLR 14/06 A3001 RMK AO2 SLP170 T01440056 10144 20022 58005=
201505031653 METAR KBLI 031653Z 00000KT 10SM CLR 12/06 A3002 RMK AO2 SLP173 T01220061=
201505031553 METAR KBLI 031553Z 02003KT 10SM CLR 11/07 A3003 RMK AO2 SLP176 T01060067=
201505031453 METAR KBLI 031453Z 00000KT 10SM CLR 08/06 A3003 RMK AO2 SLP175 T00830056 53006=
201505031353 METAR KBLI 031353Z 00000KT 10SM CLR 04/03 A3002 RMK AO2 SLP173 T00390028=
201505031253 METAR KBLI 031253Z AUTO 00000KT 10SM CLR 03/02 A3001 RMK AO2 SLP170 T00330022=
201505031153 METAR KBLI 031153Z AUTO 00000KT 10SM CLR 03/02 A3001 RMK AO2 SLP170 70001 T00330022 10072 20033 56002=
201505031053 METAR KBLI 031053Z AUTO 00000KT 10SM CLR 04/03 A3001 RMK AO2 SLP169 T00440033=
201505030953 METAR KBLI 030953Z AUTO 00000KT 10SM CLR 05/03 A3001 RMK AO2 SLP168 T00500033=
201505030853 METAR KBLI 030853Z AUTO 00000KT 10SM CLR 06/04 A3002 RMK AO2 SLP171 T00610039 56001=
201505030753 METAR KBLI 030753Z AUTO 00000KT 10SM CLR 06/04 A3002 RMK AO2 SLP171 T00610044 401610056=
201505030653 METAR KBLI 030653Z AUTO 00000KT 10SM CLR 07/06 A3002 RMK AO2 SLP172 T00670056=
201505030553 METAR KBLI 030553Z AUTO 00000KT 10SM CLR 07/06 A3002 RMK AO2 SLP172 T00720056 10150 20061 50002=
201505030453 METAR KBLI 030453Z 00000KT 10SM CLR 08/06 A3002 RMK AO2 SLP175 T00780056=
201505030353 METAR KBLI 030353Z 00000KT 10SM CLR 09/06 A3002 RMK AO2 SLP171 T00890061=
201505030253 METAR KBLI 030253Z 26003KT 10SM CLR 12/05 A3001 RMK AO2 SLP170 T01170050 56009=
201505030153 METAR KBLI 030153Z 28004KT 10SM CLR 13/03 A3002 RMK AO2 SLP172 T01330028=
201505030053 METAR KBLI 030053Z 26005KT 10SM CLR 14/01 A3003 RMK AO2 SLP176 T01440011=
201505022353 METAR KBLI 022353Z 28006KT 10SM CLR 15/03 A3004 RMK AO2 SLP179 T01500028 10161 20117 58015=
201505022253 METAR KBLI 022253Z 29007G15KT 10SM CLR 16/01 A3006 RMK AO2 SLP185 T01560006=
201505022153 METAR KBLI 022153Z 28007KT 10SM CLR 15/02 A3007 RMK AO2 SLP190 T01500022=
201505022053 METAR KBLI 022053Z 30008KT 10SM CLR 15/04 A3008 RMK AO2 SLP194 T01500044 58007=
201505021953 METAR KBLI 021953Z 27008KT 10SM CLR 14/04 A3009 RMK AO2 SLP197 T01390044=
201505021853 METAR KBLI 021853Z 31005KT 10SM CLR 13/06 A3010 RMK AO2 SLP201 T01280056=
201505021753 METAR KBLI 021753Z 00000KT 10SM SCT023 12/06 A3011 RMK AO2 SLP202 60001 T01220056 10128 20067 51003=
201505021653 METAR KBLI 021653Z 28005KT 10SM SCT021 11/06 A3010 RMK AO2 SLP200 T01110056=
201505021553 METAR KBLI 021553Z 00000KT 10SM SCT021 11/06 A3010 RMK AO2 SLP200 T01110056=
201505021453 METAR KBLI 021453Z 00000KT 10SM SCT021 SCT060 10/06 A3010 RMK AO2 SLP198 P0001 60001 T01000056 51012=
201505021353 METAR KBLI 021353Z 27003KT 10SM FEW021 SCT065 08/05 A3009 RMK AO2 SLP196 T00830050=
201505021253 METAR KBLI 021253Z AUTO 00000KT 10SM SCT070 07/05 A3007 RMK AO2 SLP190 T00720050=
201505021153 METAR KBLI 021153Z AUTO 00000KT 10SM OVC065 08/05 A3006 RMK AO2 SLP186 70001 T00830050 10117 20083 53002=
201505021053 METAR KBLI 021053Z AUTO 00000KT 10SM BKN070 09/04 A3005 RMK AO2 SLP184 T00890044=
201505020953 METAR KBLI 020953Z AUTO 30006KT 10SM OVC065 10/04 A3006 RMK AO2 SLP185 T01000039=
201505020853 METAR KBLI 020853Z AUTO VRB03KT 10SM BKN049 OVC070 11/04 A3005 RMK AO2 SLP184 T01060044 53006=
201505020753 METAR KBLI 020753Z AUTO 29006KT 10SM BKN047 OVC065 12/04 A3004 RMK AO2 SLP181 T01170039 401610072=
201505020653 METAR KBLI 020653Z AUTO 00000KT 10SM FEW049 BKN060 BKN075 11/07 A3004 RMK AO2 SLP179 T01060072=
201505020553 METAR KBLI 020553Z AUTO 00000KT 10SM BKN039 BKN050 OVC065 12/07 A3004 RMK AO2 SLP178 T01170072 10156 20111 51013=
201505020453 METAR KBLI 020453Z 31003KT 10SM BKN070 12/07 A3003 RMK AO2 SLP176 T01170072=
201505020450 METAR KBLI 020450Z AUTO 320/03 10SM 6500 BKN055 12/07 A3003 RMK CC=
201505020353 METAR KBLI 020353Z 26004KT 10SM BKN070 12/08 A3002 RMK AO2 SLP172 T01220078=
201505020253 METAR KBLI 020253Z 19003KT 10SM CLR 13/08 A3000 RMK AO2 SLP166 T01330078 57006=
201505020153 METAR KBLI 020153Z 17005KT 10SM CLR 15/08 A3000 RMK AO2 SLP167 T01500078=
201505020053 METAR KBLI 020053Z 18006KT 10SM CLR 14/07 A3002 RMK AO2 SLP171 T01440072=
201505012353 METAR KBLI 012353Z 17009KT 10SM CLR 16/07 A3002 RMK AO2 SLP172 T01560072 10161 20133 57010=
201505012253 METAR KBLI 012253Z 17007KT 10SM CLR 16/06 A3003 RMK AO2 SLP175 T01560061=
201505012153 METAR KBLI 012153Z 17007KT 10SM CLR 16/06 A3004 RMK AO2 SLP179 T01560061=
201505012053 METAR KBLI 012053Z 18010KT 10SM CLR 15/06 A3005 RMK AO2 SLP182 T01500061 58002=
201505011953 METAR KBLI 011953Z 16007KT 10SM CLR 16/08 A3005 RMK AO2 SLP183 T01560083=
201505011853 METAR KBLI 011853Z 18007KT 10SM FEW080 14/08 A3006 RMK AO2 SLP184 T01390083=
201505011753 METAR KBLI 011753Z 17006KT 10SM CLR 14/09 A3005 RMK AO2 SLP184 60001 T01390089 10139 20094 55001=
201505011653 METAR KBLI 011653Z 18008KT 10SM FEW100 12/09 A3005 RMK AO2 SLP183 T01220089=
201505011553 METAR KBLI 011553Z VRB05KT 10SM OVC100 12/08 A3006 RMK AO2 SLP185 P0001 T01170083=
201505011453 METAR KBLI 011453Z 16006KT 10SM SCT090 OVC120 11/08 A3006 RMK AO2 SLP186 T01110078 55005=
201505011353 METAR KBLI 011353Z 17003KT 10SM CLR 11/07 A3006 RMK AO2 SLP185 T01060072=
201505011253 METAR KBLI 011253Z AUTO 16004KT 10SM FEW085 10/08 A3006 RMK AO2 SLP185 T01000078=
201505011153 METAR KBLI 011153Z AUTO 16004KT 10SM CLR 09/07 A3007 RMK AO2 SLP190 70001 T00940072 10117 20072 58008=
201505011053 METAR KBLI 011053Z AUTO 00000KT 10SM OVC050 08/07 A3008 RMK AO2 SLP194 T00830072=
201505010953 METAR KBLI 010953Z AUTO 16003KT 10SM FEW050 SCT110 11/08 A3009 RMK AO2 SLP196 T01060078=
201505010853 METAR KBLI 010853Z AUTO 17003KT 10SM FEW110 09/07 A3010 RMK AO2 SLP198 T00940072 56016=
201505010753 METAR KBLI 010753Z AUTO 00000KT 10SM FEW060 BKN110 09/07 A3011 RMK AO2 SLP204 T00940072 401560089=
201505010653 METAR KBLI 010653Z AUTO 15003KT 10SM BKN060 BKN100 11/08 A3012 RMK AO2 SLP207 T01060083=
201505010553 METAR KBLI 010553Z AUTO 00000KT 10SM BKN060 OVC110 11/08 A3014 RMK AO2 SLP214 T01110078 10150 20111 50001=
201505010453 METAR KBLI 010453Z 00000KT 10SM BKN060 OVC110 12/08 A3015 RMK AO2 SLP217 T01170078=
201505010353 METAR KBLI 010353Z 00000KT 10SM FEW060 OVC110 12/07 A3014 RMK AO2 SLP213 T01220072=
201505010253 METAR KBLI 010253Z 00000KT 10SM BKN110 13/07 A3014 RMK AO2 SLP213 T01280072 56024=
201505010153 METAR KBLI 010153Z 00000KT 10SM OVC110 14/07 A3016 RMK AO2 SLP219 T01390067=
201505010053 METAR KBLI 010053Z 19003KT 10SM BKN110 14/06 A3019 RMK AO2 SLP229 T01440056=

# No short TAF reports from KBLI in databse.

###################################
#  large TAF from KBLI
###################################
201505312330 TAF KBLI 312330Z 0100/0124 25006KT P6SM SCT120 BKN200 FM010300
                       00000KT P6SM BKN120 BKN200 FM011500 18005KT
                       P6SM SCT020 BKN100 OVC200 FM011800 18014KT
                       P6SM SCT025 BKN100 OVC200=
201505311740 TAF KBLI 311740Z 3118/0118 24006KT P6SM SCT120 BKN200 FM010000
                       18005KT P6SM BKN200 FM010300 00000KT P6SM
                       BKN200 FM011500 18005KT P6SM BKN100 OVC200=
201505311120 TAF KBLI 311120Z 3112/0112 16005KT P6SM BKN200 FM311900 24006KT
                       P6SM BKN200 FM010000 18005KT P6SM BKN200=
201505310522 TAF KBLI 310522Z 3106/0106 17008KT P6SM SCT200 FM311900 VRB03KT
                       P6SM SCT200 FM010000 18005KT P6SM SCT200=
201505302320 TAF KBLI 302320Z 3100/3124 18012KT P6SM SKC FM310300 18007KT P6SM
                       SCT250 FM311700 22006KT P6SM SCT200=
201505302101 TAF AMD KBLI 302101Z 3021/3118 18008KT P6SM SKC FM310300 18005KT
                       P6SM SCT250=
201505301734 TAF KBLI 301734Z 3018/3118 17012G20KT P6SM SKC FM310300 18005KT
                       P6SM SCT250=
201505301656 TAF AMD KBLI 301656Z 3017/3112 17012G20KT P6SM SKC FM310300 18006KT
                       P6SM SCT250=
201505301120 TAF KBLI 301120Z 3012/3112 17009G18KT P6SM OVC070 FM301400 18008KT
                       P6SM SCT012 BKN070 OVC250 FM301800 18009KT
                       P6SM SCT250 FM310300 17004KT P6SM SCT250=
201505300520 TAF KBLI 300520Z 3006/3106 18010G16KT P6SM SCT250 FM300800 18008KT
                       P6SM SCT250 FM301200 18009KT P6SM BKN010
                       BKN250 FM301800 18009KT P6SM SCT250 FM310300
                       17004KT P6SM SCT250=
201505292321 TAF KBLI 292321Z 3000/3024 17007KT P6SM SCT250 FM300400 18010KT
                       P6SM BKN250 FM301400 18009KT P6SM FEW012
                       BKN250 FM301800 18010KT P6SM SCT250=
201505291736 TAF KBLI 291736Z 2918/3018 19008KT P6SM SCT250 FM300300 18010KT
                       P6SM SKC=
201505291120 TAF KBLI 291120Z 2912/3012 00000KT P6SM SCT250 FM292000 20006KT
                       P6SM SKC FM300400 17007KT P6SM SKC=
201505290520 TAF KBLI 290520Z 2906/3006 17005KT P6SM BKN250 FM292000 20004KT
                       P6SM SKC=
201505282320 TAF KBLI 282320Z 2900/2924 VRB04KT P6SM SKC FM291200 00000KT P6SM
                       VCFG SCT003
                      TEMPO 2913/2916 3SM BR BKN003 FM291700 33007KT
                       P6SM SKC=
201505281720 TAF KBLI 281720Z 2818/2918 VRB04KT P6SM SKC FM291200 00000KT P6SM
                       VCFG SCT003
                      TEMPO 2913/2916 3SM BR BKN003 FM291700 33007KT
                       P6SM SKC=
201505281123 TAF KBLI 281123Z 2812/2912 17003KT P6SM SKC FM281300 18003KT P6SM
                       SCT007
                      TEMPO 2813/2817 3SM BR BKN007 FM281800 18005KT
                       P6SM SKC=
201505280525 TAF KBLI 280525Z 2806/2906 00000KT P6SM SKC FM281200 18004KT P6SM
                       SCT005
                      TEMPO 2813/2816 3SM BR BKN005 FM281800 18005KT
                       P6SM SKC=
201505272320 TAF KBLI 272320Z 2800/2824 VRB04KT P6SM SKC FM281200 VRB03KT P6SM
                       SCT005
                      TEMPO 2812/2816 3SM BR BKN005 FM281800 VRB04KT
                       P6SM SKC=
201505271720 TAF KBLI 271720Z 2718/2818 16006KT P6SM BKN050 FM272200 30005KT
                       P6SM SCT050 FM281000 VRB03KT P6SM BKN040=
201505271228 TAF AMD KBLI 271228Z 2712/2812 17006KT P6SM FEW003 OVC040 FM271800
                       19006KT P6SM SCT040 BKN100 FM280000 18005KT
                       P6SM BKN250=
201505271120 TAF KBLI 271120Z 2712/2812 16006KT P6SM BKN100 FM271400 18005KT
                       P6SM OVC004 FM271800 19006KT P6SM SCT005
                       BKN100 FM280000 18005KT P6SM BKN250=
201505270705 TAF AMD KBLI 270705Z 2707/2806 16006KT P6SM BKN200
                      TEMPO 2712/2716 BKN015 BKN050 FM271700 21006KT
                       P6SM SCT050 BKN200=
201505270539 TAF KBLI 270539Z 2706/2806 17005KT P6SM SKC FM271200 00000KT P6SM
                       BKN015 BKN050 FM271700 21006KT P6SM SCT050=
201505262320 TAF KBLI 262320Z 2700/2724 21006KT P6SM SCT050 SCT120 FM270400
                       VRB03KT P6SM SCT040 BKN100 FM271200 00000KT
                       P6SM BKN015 BKN050 FM271700 21006KT P6SM
                       SCT050=
201505261720 TAF KBLI 261720Z 2618/2718 VRB04KT P6SM BKN050 FM262100 21006KT
                       P6SM BKN050 BKN120 FM270300 VRB03KT P6SM
                       BKN040 BKN100 FM271200 00000KT P6SM BKN015
                       BKN050 FM271700 21006KT P6SM SCT050=
201505261120 TAF KBLI 261120Z 2612/2712 16004KT P6SM FEW035 OVC050 FM262000
                       20006KT P6SM SCT050 BKN100=
201505260527 TAF KBLI 260527Z 2606/2706 00000KT P6SM FEW080 OVC100 FM262300
                       24005KT P6SM BKN100 FM270500 17005KT P6SM
                       SCT250=
201505252335 TAF KBLI 252335Z 2600/2624 17007KT P6SM SCT025 BKN040 FM261100
                       17005KT P6SM BKN012 OVC020 FM262000 19007KT
                       P6SM SCT025 BKN040=
201505251741 TAF KBLI 251741Z 2518/2618 17007KT P6SM VCSH OVC006 FM252000 18007KT
                       P6SM SCT012 OVC025 FM252300 18007KT P6SM
                       SCT030 BKN045 FM261100 17005KT P6SM BKN012
                       OVC020=
201505251511 TAF AMD KBLI 251511Z 2515/2612 17007KT P6SM OVC005
                      TEMPO 2516/2519 -RA FM251900 18006KT P6SM
                       SCT010 OVC040 FM252300 18006KT P6SM BKN050=
201505251312 TAF AMD KBLI 251312Z 2513/2612 16007KT P6SM BKN008 OVC040 FM251800
                       18006KT P6SM SCT010 OVC040 FM252300 18006KT
                       P6SM BKN050=
201505251120 TAF KBLI 251120Z 2512/2612 16007KT P6SM BKN040 OVC060 FM252300
                       18006KT P6SM BKN050=
201505250520 TAF KBLI 250520Z 2506/2606 17008KT P6SM SCT120 BKN200 FM251200
                       17006KT P6SM OVC015 FM260000 17007KT P6SM
                       VCSH OVC050 FM260300 17004KT P6SM VCSH OVC025=
201505242320 TAF KBLI 242320Z 2500/2524 16012G18KT P6SM FEW015 BKN045 FM250200
                       17012KT P6SM SCT015 BKN045 FM250900 17010KT
                       P6SM SCT015 BKN030 FM251100 17008KT 5SM
                       -DZ BR OVC020 FM251600 18010KT P6SM BKN030
                       OVC050 FM252100 18010KT P6SM BKN050=
201505241720 TAF KBLI 241720Z 2418/2518 17009KT P6SM BKN012 OVC030 FM242000
                       18010KT P6SM SCT018 OVC030 FM242300 18010KT
                       P6SM BKN022 OVC035 FM250200 17010KT P6SM
                       BKN035 FM250900 17010KT P6SM OVC022 FM251100
                       17008KT 5SM -DZ BR OVC018=
201505241314 TAF AMD KBLI 241314Z 2413/2512 18006KT P6SM BKN010 OVC016 FM241700
                       18010KT P6SM SCT010 BKN016 OVC030 FM241900
                       18010KT P6SM SCT016 BKN030 OVC045 FM242300
                       18010KT P6SM SCT030 BKN050 FM250600 18010KT
                       P6SM OVC045=
201505241120 TAF KBLI 241120Z 2412/2512 16007KT P6SM OVC045 FM241700 18010KT
                       P6SM BKN050 FM250600 17010KT P6SM OVC045=
201505240523 TAF KBLI 240523Z 2406/2506 17005KT P6SM SCT120 BKN200 FM241100
                       18010KT P6SM OVC028 FM242000 18010KT P6SM
                       BKN045=
201505232320 TAF KBLI 232320Z 2400/2424 18008KT P6SM BKN045 FM241100 18010KT
                       P6SM OVC028 FM242000 18010KT P6SM BKN045=
201505231720 TAF KBLI 231720Z 2318/2418 18006KT P6SM SCT018 OVC035 FM232100
                       18008KT P6SM OVC045 FM241100 18010KT P6SM
                       OVC020=
201505231120 TAF KBLI 231120Z 2312/2412 17006KT P6SM BKN019 OVC035 FM231900
                       17008KT P6SM OVC050 FM241100 17012KT P6SM
                       OVC025=
201505230520 TAF KBLI 230520Z 2306/2406 17007KT P6SM BKN120 FM230800 17011KT
                       P6SM OVC050 FM231200 17010KT P6SM OVC025
                       FM232000 17008KT P6SM OVC050=
201505222329 TAF KBLI 222329Z 2300/2324 17013KT P6SM VCTS SCT050CB BKN110 OVC250
                       FM230300 17008KT P6SM SCT050 BKN110 BKN250
                       FM230900 17008KT P6SM FEW025 BKN110 BKN250
                       FM231200 17008KT P6SM OVC018 FM231800 17013KT
                       P6SM BKN025 BKN110 BKN250 FM232000 19009KT
                       P6SM BKN035 BKN110 BKN250=
201505221738 TAF KBLI 221738Z 2218/2318 17013KT P6SM SCT009 SCT060
                      TEMPO 2218/2220 BKN009 BKN060 FM222000 17013KT
                       P6SM SCT060 SCT110
                      TEMPO 2222/2302 BKN060 BKN110 FM230200 17008KT
                       P6SM SCT060 BKN110 FM230900 17008KT P6SM
                       FEW025 SCT060 BKN110 FM231100 17008KT P6SM
                       OVC018=
201505221430 TAF AMD KBLI 221430Z 2215/2312 17013KT P6SM SCT015 BKN130 BKN250
                       TEMPO 2215/2218 BKN015 BKN130 BKN250 FM221800
                       17013KT P6SM SCT022 SCT050 BKN130 FM222000
                       18012KT P6SM SCT015 OVC025 FM222300 18012KT
                       P6SM SCT020 BKN040 FM230800 18008KT P6SM
                       OVC025=
201505221130 TAF KBLI 221130Z 2212/2312 18012KT P6SM SCT250 FM221400 18008KT
                       P6SM OVC009 FM221700 18008KT P6SM OVC015
                       FM222000 18012KT P6SM SCT015 OVC025 FM222300
                       18012KT P6SM SCT020 BKN040 FM230800 18008KT
                       P6SM OVC025=
201505220528 TAF KBLI 220528Z 2206/2306 18008KT P6SM SCT250 FM221300 18008KT
                       P6SM OVC009 FM221700 18008KT P6SM OVC015
                       FM222000 18012KT P6SM SCT015 OVC025 FM222300
                       18012KT P6SM SCT020 BKN040=
201505212329 TAF KBLI 212329Z 2200/2224 19005KT P6SM SCT110 BKN250 FM221200
                       17007KT P6SM SCT018 BKN110 BKN250 FM221500
                       17012KT P6SM OVC011 FM222000 17012G20KT
                       P6SM BKN022 BKN110 FM222100 17012G20KT P6SM
                       SCT035 SCT060 BKN110=
201505211741 TAF KBLI 211741Z 2118/2218 19006KT P6SM FEW110 BKN250 FM220300
                       17005KT P6SM SCT110 BKN250 FM220900 17005KT
                       P6SM BKN110 BKN250 FM221200 17007KT P6SM
                       SCT018 BKN110 BKN250 FM221500 17012KT P6SM
                       OVC010=
201505211518 TAF AMD KBLI 211518Z 2115/2212 18006KT P6SM VCFG SCT004 SCT250
                       FM211700 18006KT P6SM SCT250 FM212300 22006KT
                       P6SM FEW050 BKN250=
201505211138 TAF KBLI 211138Z 2112/2212 18006KT P6SM SCT003
                      TEMPO 2114/2116 4SM BR BKN003 FM211600 18006KT
                       P6SM SCT250 FM212300 22006KT P6SM FEW050
                       BKN250=
201505210525 TAF KBLI 210525Z 2106/2206 18006KT P6SM SCT250 FM212300 22006KT
                       P6SM FEW050 BKN120 BKN250=
201505202320 TAF KBLI 202320Z 2100/2124 VRB03KT P6SM SKC FM211200 VRB03KT P6SM
                       VCFG FEW003 FM211800 19007KT P6SM FEW050
                       SCT250=
201505201741 TAF KBLI 201741Z 2018/2118 17007KT 6SM BR BKN004
                      TEMPO 2018/2019 2SM BR FM201900 19007KT P6SM
                       VCFG FEW007 FM202000 21007KT P6SM SKC FM210300
                       VRB03KT P6SM SKC FM211200 VRB03KT P6SM VCFG
                       FEW003=
201505201521 TAF AMD KBLI 201521Z 2015/2112 17010KT 6SM BR OVC003
                      TEMPO 2015/2017 2SM BR FM201800 19008KT P6SM
                       BKN003 FM201900 20008KT P6SM SCT250=
201505201259 TAF AMD KBLI 201259Z 2013/2112 17010KT P6SM OVC003
                      TEMPO 2013/2015 4SM BR FM201600 16008KT P6SM
                       OVC006 FM201800 20008KT P6SM SCT250=
201505201130 TAF KBLI 201130Z 2012/2112 18008KT P6SM SCT250 FM201400 18008KT
                       P6SM OVC004 FM201800 20008KT P6SM SCT250=
201505200530 TAF KBLI 200530Z 2006/2106 18008KT P6SM SCT250 FM201400 18008KT
                       P6SM OVC006 FM201800 20008KT P6SM SCT250=
201505192342 TAF KBLI 192342Z 2000/2024 17007KT P6SM FEW050 BKN250 FM200200
                       17004KT P6SM FEW120 BKN250 FM201200 VRB03KT
                       P6SM VCFG FEW004 FM201800 21006KT P6SM FEW050
                       SCT250=
201505192006 TAF AMD KBLI 192006Z 1920/2018 19010KT P6SM FEW050 SCT250 FM200200
                       VRB04KT P6SM SCT120 BKN250=
201505191909 TAF AMD KBLI 191909Z 1919/2018 19010KT P6SM FEW008 FM192000 21006KT
                       P6SM FEW050 SCT250 FM200200 VRB04KT P6SM
                       SCT120 BKN250=
201505191740 TAF KBLI 191740Z 1918/2018 19010KT P6SM VCFG SCT007
                      TEMPO 1918/1920 BKN007 FM192000 21006KT P6SM
                       FEW050 SCT250 FM200200 VRB04KT P6SM SCT120
                       BKN250=
201505191420 TAF AMD KBLI 191420Z 1914/2012 17010KT 6SM BR BKN003
                      TEMPO 1914/1916 4SM BR FM191700 17010KT P6SM
                       BKN007 FM191800 20008KT P6SM FEW050 SCT250
                       FM200300 VRB03KT P6SM SCT250=
201505191220 TAF AMD KBLI 191220Z 1912/2012 17008KT P6SM SCT003 BKN250
                      TEMPO 1912/1914 3SM BR BKN003 OVC250 FM191400
                       18006KT P6SM OVC004 FM191700 19005KT P6SM
                       SCT006 SCT120 FM192100 26006KT P6SM SCT250
                       FM200300 VRB03KT P6SM SCT250=
201505191126 TAF KBLI 191126Z 1912/2012 18006KT P6SM SCT250 FM192100 26006KT
                       P6SM SCT250 FM200300 VRB03KT P6SM SCT250=
201505190526 TAF KBLI 190526Z 1906/2006 VRB03KT P6SM SCT250 FM192100 26006KT
                       P6SM SCT250 FM200300 VRB03KT P6SM SCT250=
201505182321 TAF KBLI 182321Z 1900/1924 26007KT P6SM FEW050 SCT250 FM190300
                       VRB03KT P6SM SCT250 FM191800 18007KT P6SM
                       FEW050 FM192100 21007KT P6SM FEW050 SCT250=
201505182103 TAF AMD KBLI 182103Z 1821/1918 25007KT P6SM FEW050 FM190300 VRB03KT
                       P6SM SCT100=
201505181745 TAF KBLI 181745Z 1818/1918 22007KT P6SM SCT050 SCT100 FM190300
                       VRB03KT P6SM SCT100=
201505181451 TAF AMD KBLI 181451Z 1815/1912 00000KT P6SM BKN080 FM182100 26005KT
                       P6SM SCT080 FM190200 18006KT P6SM SCT120
                       BKN250=
201505181125 TAF KBLI 181125Z 1812/1912 00000KT P6SM SCT080 BKN250 FM182100
                       26005KT P6SM SCT120 BKN250 FM190200 18006KT
                       P6SM SCT120 BKN250=
201505180535 TAF KBLI 180535Z 1806/1906 00000KT P6SM SCT090 FM181200 VRB04KT
                       P6SM OVC100 FM181800 22005KT P6SM SCT120
                       BKN250=
201505172335 TAF KBLI 172335Z 1800/1824 25005KT P6SM SCT060 BKN100
                      TEMPO 1800/1804 -SHRA BKN060 FM180600 19005KT
                       P6SM VCSH BKN060 OVC100 FM181200 VRB04KT
                       P6SM OVC100 FM181800 22005KT P6SM SCT120=
201505171723 TAF KBLI 171723Z 1718/1818 18004KT P6SM SCT030 BKN050 FM172100
                       25005KT P6SM SCT040 BKN100 FM180200 19005KT
                       P6SM SCT100 BKN250=
201505171120 TAF KBLI 171120Z 1712/1812 16004KT P6SM OVC040 FM172000 20006KT
                       P6SM SCT025 BKN035 FM172200 25005KT P6SM
                       SCT040 BKN120 FM180200 19005KT P6SM SCT100
                       BKN250=
201505170910 TAF AMD KBLI 170910Z 1709/1806 19004KT P6SM OVC022 FM172000 20006KT
                       P6SM SCT025 BKN035 FM172200 25005KT P6SM
                       SCT040 BKN120=
201505170520 TAF KBLI 170520Z 1706/1806 17009G15KT P6SM OVC060 FM171200 17005KT
                       P6SM OVC020 FM172000 20006KT P6SM SCT025
                       BKN035 FM172200 25005KT P6SM SCT040 BKN120=
201505162320 TAF KBLI 162320Z 1700/1724 17010KT P6SM BKN025 BKN040 FM170400
                       17005KT P6SM OVC025 FM171200 17005KT P6SM
                       OVC020 FM172000 20006KT P6SM SCT025 BKN035=
201505161728 TAF KBLI 161728Z 1618/1718 16010KT P6SM SCT030 OVC050 FM162300
                       17005KT P6SM SCT040 BKN100 FM170400 17005KT
                       P6SM OVC035=
201505161120 TAF KBLI 161120Z 1612/1712 16010KT P6SM SCT030 OVC050 FM162300
                       17005KT P6SM SCT040 BKN100 FM170400 17005KT
                       P6SM OVC035=
201505160520 TAF KBLI 160520Z 1606/1706 17006KT P6SM OVC080 FM161100 17010KT
                       P6SM OVC014 FM162000 18009KT P6SM BKN040=
201505152320 TAF KBLI 152320Z 1600/1624 19007KT P6SM SCT025 BKN060 FM160600
                       17010KT P6SM SCT025 OVC050 FM161100 17010KT
                       P6SM OVC014 FM162000 18009KT P6SM BKN025=
201505151722 TAF KBLI 151722Z 1518/1618 18007KT P6SM SCT015 BKN040 FM151900
                       19007KT P6SM SCT025 BKN100 FM160400 17010KT
                       P6SM SCT023 OVC050 FM161100 17010KT P6SM
                       OVC020=
201505151120 TAF KBLI 151120Z 1512/1612 00000KT P6SM SCT015 OVC035
                      TEMPO 1512/1516 OVC015 FM151800 19007KT P6SM
                       SCT025 BKN100 FM160400 17010KT P6SM SCT023
                       OVC050 FM161100 17010KT P6SM OVC020=
201505150905 TAF AMD KBLI 150905Z 1509/1606 00000KT P6SM SKC FM151200 20004KT
                       P6SM SCT015
                      TEMPO 1512/1516 OVC015 FM151800 19007KT P6SM
                       SCT020 BKN100=
201505150530 TAF KBLI 150530Z 1506/1606 00000KT P6SM SKC FM150900 18004KT P6SM
                       OVC015 FM151600 19005KT P6SM BKN025 BKN050
                       FM151800 19007KT P6SM SCT030 BKN050=
201505142320 TAF KBLI 142320Z 1500/1524 20008KT P6SM SCT025 BKN050 FM151300
                       19005KT P6SM BKN025 BKN050 FM151800 19007KT
                       P6SM SCT030 BKN050=
201505141720 TAF KBLI 141720Z 1418/1518 16006KT P6SM SCT015 BKN050 FM150000
                       20008KT P6SM SCT050 BKN100 FM150400 18003KT
                       P6SM BKN250 FM151100 04004KT P6SM OVC015=
201505141120 TAF KBLI 141120Z 1412/1512 00000KT P6SM SCT025 OVC060
                      TEMPO 1412/1416 -SHRA OVC025 FM141800 19008KT
                       P6SM SCT030 BKN050 FM150000 20008KT P6SM
                       SCT050 BKN100 FM150400 18003KT P6SM BKN250=
201505140525 TAF KBLI 140525Z 1406/1506 15008KT P6SM -SHRA SCT025 OVC060
                      TEMPO 1408/1412 -SHRA OVC025 FM141800 19008KT
                       P6SM SCT030 BKN050 FM150000 20008KT P6SM
                       SCT050 BKN100=
201505132320 TAF KBLI 132320Z 1400/1424 17012G18KT P6SM -SHRA SCT022 OVC045
                       FM140300 16010KT P6SM BKN025 OVC050 FM140900
                       13003KT P6SM SCT030 OVC080 FM141500 14006KT
                       P6SM SCT030 SCT050 FM141800 19008KT P6SM
                       FEW050=
201505131731 TAF KBLI 131731Z 1318/1418 17010KT P6SM -SHRA BKN018 OVC050 FM132100
                       17010KT P6SM -SHRA SCT018 OVC050 FM140300
                       16006KT P6SM BKN025 OVC050 FM140900 13003KT
                       P6SM SCT030 OVC080 FM141500 14006KT P6SM
                       SCT030 SCT050=
201505131120 TAF KBLI 131120Z 1312/1412 17010KT P6SM OVC012 FM132100 17010KT
                       P6SM -SHRA OVC015 FM140300 16006KT P6SM
                       BKN025 OVC050 FM140900 13003KT P6SM SCT030
                       OVC080=
201505130521 TAF KBLI 130521Z 1306/1406 00000KT P6SM SCT030 BKN080 FM131000
                       18008KT P6SM BKN020 OVC040 FM132100 17010KT
                       P6SM -SHRA OVC020=
201505130113 TAF AMD KBLI 130113Z 1301/1324 17005KT P6SM SCT045 OVC080
                      TEMPO 1301/1303 -SHRA BKN045 OVC080 FM130300
                       18008KT P6SM VCSH SCT020 BKN040 FM130800
                       18008KT P6SM BKN020 OVC040 FM131900 21007KT
                       P6SM SCT020 BKN040=
201505122320 TAF KBLI 122320Z 1300/1324 21008KT P6SM VCTS SCT025CB BKN060
                      TEMPO 1300/1303 5SM -TSRA BKN025CB OVC060
                       FM130300 18008KT P6SM VCSH SCT020 BKN040
                       FM130800 18008KT P6SM BKN020 OVC040 FM131900
                       21007KT P6SM SCT020 BKN040=
201505121720 TAF KBLI 121720Z 1218/1318 18007KT P6SM BKN040 FM130300 18007KT
                       P6SM BKN040 FM130800 18007KT P6SM BKN020
                       OVC040=
201505121502 TAF AMD KBLI 121502Z 1215/1312 14004KT P6SM OVC030 FM122100 18007KT
                       P6SM BKN040 BKN100 FM130300 18007KT P6SM
                       BKN050 OVC100 FM130800 18007KT P6SM BKN020
                       OVC050=
201505121120 TAF KBLI 121120Z 1212/1312 00000KT P6SM BKN050 OVC150 FM121500
                       18004KT P6SM BKN015 OVC050 FM122100 18010KT
                       P6SM SCT050 BKN100 FM130300 16008KT P6SM
                       BKN050 OVC100 FM130800 16008KT P6SM BKN020
                       OVC050=
201505120522 TAF KBLI 120522Z 1206/1306 15005KT P6SM FEW030 BKN120 FM121000
                       18008KT P6SM BKN025 OVC040 FM122100 18010KT
                       P6SM SCT040 BKN100=
201505112320 TAF KBLI 112320Z 1200/1224 18008KT P6SM SCT035
                      TEMPO 1202/1206 SCT035 FM120600 21008KT P6SM
                       BKN035 BKN060 FM121000 18008KT P6SM BKN025
                       OVC040=
201505112204 TAF AMD KBLI 112204Z 1122/1218 19007KT P6SM BKN035
                      TEMPO 1122/1202 SCT035 FM120200 21008KT P6SM
                       BKN035 BKN060 FM121000 18008KT P6SM BKN025
                       OVC040=
201505111720 TAF KBLI 111720Z 1118/1218 18010KT P6SM BKN025 BKN050 FM120000
                       21008KT P6SM SCT030 BKN060 FM121000 18008KT
                       P6SM BKN025 OVC040=
201505111120 TAF KBLI 111120Z 1112/1212 17010KT P6SM SCT025 BKN100 FM111500
                       17008KT P6SM BKN025 OVC060 FM111900 17008KT
                       P6SM BKN060 BKN120=
201505110520 TAF KBLI 110520Z 1106/1206 16006KT P6SM FEW050 SCT120 OVC250 FM111200
                       VRB03KT P6SM OVC020 FM111900 21006KT P6SM
                       OVC040=
201505102326 TAF KBLI 102326Z 1100/1124 18008KT P6SM BKN150 OVC220 FM110200
                       17005KT P6SM OVC120 FM110500 18004KT P6SM
                       OVC050 FM111200 VRB03KT P6SM VCSH OVC020
                       FM111900 21006KT P6SM VCSH OVC025=
201505101734 TAF KBLI 101734Z 1018/1118 18006KT P6SM SCT120 BKN200 FM110100
                       17005KT P6SM OVC120 FM110500 18004KT P6SM
                       OVC050 FM111200 VRB03KT P6SM VCSH OVC020=
201505101121 TAF KBLI 101121Z 1012/1112 20004KT P6SM BKN250 FM101800 19008KT
                       P6SM BKN200 FM110900 17008KT P6SM BKN050
                       OVC200=
201505100523 TAF KBLI 100523Z 1006/1106 17004KT P6SM BKN250 FM101800 19008KT
                       P6SM BKN200=
201505092329 TAF KBLI 092329Z 1000/1024 27003KT P6SM SCT250 FM101700 20006KT
                       P6SM OVC200=
201505091757 TAF KBLI 091757Z 0918/1018 16005KT P6SM SCT250 FM091900 21005KT
                       P6SM BKN250 FM100300 16004KT P6SM BKN250=
201505091120 TAF KBLI 091120Z 0912/1012 00000KT P6SM FEW250 FM091900 21005KT
                       P6SM BKN250 FM100300 16004KT P6SM BKN250=
201505090526 TAF KBLI 090526Z 0906/1006 00000KT P6SM FEW250 FM091900 21005KT
                       P6SM SCT250=
201505082325 TAF KBLI 082325Z 0900/0924 27007KT P6SM SKC=
201505081726 TAF KBLI 081726Z 0818/0918 35007KT P6SM SKC=
201505081120 TAF KBLI 081120Z 0812/0912 VRB03KT P6SM SKC=
201505080520 TAF KBLI 080520Z 0806/0906 VRB03KT P6SM SKC=
201505072320 TAF KBLI 072320Z 0800/0824 VRB05KT P6SM SKC FM080300 VRB02KT P6SM
                       SKC=
201505071720 TAF KBLI 071720Z 0718/0818 15003KT P6SM SKC FM071900 27006KT P6SM
                       SKC FM080300 VRB03KT P6SM SKC=
201505071121 TAF KBLI 071121Z 0712/0812 00000KT P6SM SKC FM071900 29008KT P6SM
                       SKC FM080300 VRB03KT P6SM SKC=
201505070530 TAF KBLI 070530Z 0706/0806 00000KT P6SM SKC
                      TEMPO 0710/0713 5SM BR FM071900 29008KT P6SM
                       SKC FM080300 VRB03KT P6SM SKC=
201505062320 TAF KBLI 062320Z 0700/0724 27008KT P6SM SKC FM070300 VRB04KT P6SM
                       SKC FM071900 32006KT P6SM SKC=
201505062206 TAF AMD KBLI 062206Z 0622/0718 27007G15KT P6SM SKC FM070300 VRB04KT
                       P6SM SKC=
201505061847 TAF AMD KBLI 061847Z 0619/0718 VRB03KT P6SM SCT030 OVC040 FM062200
                       VRB05KT P6SM SCT050 FM070300 04004KT P6SM
                       SKC=
201505061720 TAF KBLI 061720Z 0618/0718 26004KT P6SM BKN020 BKN025 FM062000
                       25005KT P6SM SCT050 FM070300 04004KT P6SM
                       SKC=
201505061627 TAF AMD KBLI 061627Z 0616/0712 VRB03KT P6SM SCT025 SCT040 FM062000
                       25005KT P6SM SCT050 FM070300 04004KT P6SM
                       SKC=
201505061505 TAF AMD KBLI 061505Z 0615/0712 00000KT P6SM SCT012 OVC024
                      TEMPO 0615/0617 BKN012 OVC024 FM061700 VRB03KT
                       P6SM SCT025 SCT040 FM062000 25005KT P6SM
                       SCT050 FM070300 04004KT P6SM SKC=
201505061120 TAF KBLI 061120Z 0612/0712 VRB03KT P6SM SCT015 SCT050 FM062000
                       25005KT P6SM SCT050 FM070300 04004KT P6SM
                       SKC=
201505060520 TAF KBLI 060520Z 0606/0706 17007KT P6SM SCT050 FM061200 18006KT
                       P6SM BKN040 FM062000 33007KT P6SM SCT040
                       FM070300 04004KT P6SM SKC=
201505052320 TAF KBLI 052320Z 0600/0624 16010KT P6SM VCSH SCT025 BKN050 FM060600
                       VRB03KT P6SM BKN025 BKN050 FM061800 29005KT
                       P6SM SCT050=
201505051733 TAF KBLI 051733Z 0518/0618 15008KT P6SM -SHRA BKN018 BKN027 OVC045
                       FM052200 18005KT P6SM VCSH SCT025 BKN040
                       FM060100 21005KT P6SM VCSH SCT025 BKN050
                       FM060600 VRB03KT P6SM BKN025 BKN050=
201505051120 TAF KBLI 051120Z 0512/0612 17007KT P6SM VCSH SCT025 BKN050
                      TEMPO 0512/0516 5SM -SHRA BR BKN025 OVC050
                       FM051800 21007KT P6SM -SHRA BKN025 BKN050
                       FM060000 21005KT P6SM VCSH SCT030 BKN050
                       FM061100 VRB03KT P6SM BKN025 BKN050=
201505050520 TAF KBLI 050520Z 0506/0606 VRB04KT P6SM -SHRA BKN040 FM051800 18008KT
                       P6SM VCSH BKN040=
201505042321 TAF KBLI 042321Z 0500/0524 17012G16KT P6SM VCSH BKN050 FM050300
                       19012KT P6SM -SHRA BKN035 FM050700 16005KT
                       P6SM -SHRA BKN035=
201505041720 TAF KBLI 041720Z 0418/0518 17010G18KT P6SM SKC FM042000 17014G20KT
                       P6SM SCT040 FM042200 17014G20KT P6SM BKN040
                       FM050200 19012KT P6SM -SHRA SCT020 BKN040
                       FM050700 16007KT P6SM -SHRA OVC030=
201505041120 TAF KBLI 041120Z 0412/0512 00000KT P6SM SCT250 FM041600 22006KT
                       P6SM SCT050 SCT250 FM042100 22012KT P6SM
                       VCSH BKN050 FM050400 22012KT P6SM -SHRA
                       SCT020 BKN040 FM051100 18008KT P6SM VCSH
                       BKN020 OVC040=
201505040520 TAF KBLI 040520Z 0406/0506 00000KT P6SM SKC FM041500 17007KT P6SM
                       BKN250 FM041800 17013KT P6SM FEW025 SCT080
                       BKN250 FM042100 17015G22KT P6SM SCT035 SCT080
                       SCT250=
201505032341 TAF KBLI 032341Z 0400/0424 25005KT P6SM SKC FM040200 VRB03KT P6SM
                       SKC FM041500 17007KT P6SM BKN250 FM041800
                       17013KT P6SM FEW025 SCT080 BKN250 FM042100
                       17015G22KT P6SM SCT035 SCT080 SCT250=
201505031743 TAF KBLI 031743Z 0318/0418 VRB03KT P6SM SKC FM032100 25006KT P6SM
                       SKC FM040200 VRB03KT P6SM SKC FM041500 17007KT
                       P6SM SCT250=
201505031120 TAF KBLI 031120Z 0312/0412 00000KT P6SM SKC FM031800 24005KT P6SM
                       SCT250 FM040300 18003KT P6SM BKN200=
201505030524 TAF KBLI 030524Z 0306/0406 00000KT P6SM SKC FM030900 00000KT P6SM
                       MIFG SKC FM031400 VRB03KT P6SM SKC FM031800
                       26005KT P6SM SKC FM040300 VRB03KT P6SM SKC=
201505022346 TAF KBLI 022346Z 0300/0324 28007KT P6SM SKC FM030200 32004KT P6SM
                       SCT250 FM030900 VRB03KT P6SM SCT009
                      TEMPO 0312/0316 BKN009 FM031800 30005KT P6SM
                       SKC FM032100 25006KT P6SM SKC=
201505022105 TAF AMD KBLI 022105Z 0221/0318 28007KT P6SM SCT050 FM030200 VRB03KT
                       P6SM SCT250=
201505021742 TAF KBLI 021742Z 0218/0318 28005KT P6SM FEW025 SCT040 FM022000
                       25007KT P6SM SCT050 FM030200 VRB03KT P6SM
                       SCT250=
201505021120 TAF KBLI 021120Z 0212/0312 VRB03KT P6SM BKN060 FM021600 35005KT
                       P6SM FEW060 SCT200 FM021900 26008KT P6SM
                       SCT200 FM030300 VRB03KT P6SM SKC=
201505020529 TAF KBLI 020529Z 0206/0306 VRB03KT P6SM BKN070 BKN200 FM021200
                       VRB03KT P6SM SCT200 FM021800 29008KT P6SM
                       SCT200 FM030100 21005KT P6SM SKC=
201505012322 TAF KBLI 012322Z 0200/0224 17005KT P6SM BKN200 FM020600 VRB03KT
                       P6SM SCT200 FM021200 VRB03KT P6SM SCT010
                       FM021800 35006KT P6SM SKC FM022100 25007KT
                       P6SM SKC=
201505012302 TAF AMD KBLI 012302Z 0123/0218 18010KT P6SM FEW090 BKN200 FM020200
                       17006KT P6SM BKN200 FM020600 VRB03KT P6SM
                       SCT090 FM021200 VRB03KT P6SM SCT010=
201505011725 TAF KBLI 011725Z 0118/0218 18010KT P6SM SCT050 SCT090 FM012000
                       18010KT P6SM BKN050 BKN090 FM020200 17006KT
                       P6SM SCT050 BKN090 FM020600 VRB03KT P6SM
                       SCT090 FM021200 VRB03KT P6SM SCT010=
201505011417 TAF AMD KBLI 011417Z 0114/0212 17005KT P6SM BKN130 FM011800 18008KT
                       P6SM BKN050 BKN200 FM012100 20010KT P6SM
                       SCT050 SCT200 FM020400 19009KT P6SM SCT200=
201505011120 TAF KBLI 011120Z 0112/0212 18005KT P6SM BKN050 BKN100 FM011800
                       18008KT P6SM BKN050 BKN200 FM012100 20010KT
                       P6SM SCT050 SCT200 FM020400 19009KT P6SM
                       SCT200=
201505010538 TAF KBLI 010538Z 0106/0206 VRB03KT P6SM BKN050 OVC110 FM011200
                       18005KT P6SM SCT025 BKN050 BKN200 FM011800
                       18008KT P6SM BKN050 BKN200 FM020000 21008KT
                       P6SM SCT050 BKN200=