##########################################################
# Query made at 02/16/2025 21:10:30 UTC
# Time interval: from 12/01/2015 00:00  to 12/31/2015 23:59  UTC
##########################################################

##########################################################
# KBLI, Bellingham, Bellingham International Airport (United States)
# WMO index: -----. WIGOS ID: Unknown
# Latitude 48-47-58N. Longitude 122-32-21W. Altitude 48 m.
##########################################################

###################################
#  METAR/SPECI from KBLI
###################################
201512312353 METAR KBLI 312353Z 02006KT 10SM CLR 01/M06 A3055 RMK AO2 SLP356 T00111061 10039 21017 56011=
201512312253 METAR KBLI 312253Z 01005KT 10SM CLR 03/M06 A3056 RMK AO2 SLP359 T00281056=
201512312153 METAR KBLI 312153Z 01005KT 10SM CLR 03/M04 A3056 RMK AO2 SLP358 T00331044=
201512312053 METAR KBLI 312053Z 00000KT 10SM CLR 03/M06 A3059 RMK AO2 SLP368 T00281056 58001=
201512311953 METAR KBLI 311953Z 36004KT 10SM CLR 02/M04 A3059 RMK AO2 SLP367 T00221044=
201512311853 METAR KBLI 311853Z 04005KT 10SM CLR 01/M06 A3059 RMK AO2 SLP371 T00061056=
201512311753 METAR KBLI 311753Z 04004KT 10SM CLR M02/M06 A3059 RMK AO2 SLP368 T10171056 11017 21050 53014=
201512311653 METAR KBLI 311653Z 00000KT 10SM CLR M03/M07 A3056 RMK AO2 SLP361 T10331072=
201512311553 METAR KBLI 311553Z 00000KT 10SM CLR M04/M08 A3055 RMK AO2 SLP357 T10441083=
201512311453 METAR KBLI 311453Z 02004KT 10SM CLR M04/M08 A3054 RMK AO2 SLP355 T10441083 53002=
201512311353 METAR KBLI 311353Z AUTO 00000KT 10SM CLR M04/M08 A3054 RMK AO2 SLP353 T10441078=
201512311253 METAR KBLI 311253Z AUTO 02003KT 10SM CLR M04/M08 A3054 RMK AO2 SLP352 T10391078=
201512311153 METAR KBLI 311153Z AUTO 36003KT 10SM CLR M04/M08 A3054 RMK AO2 SLP352 T10391078 11022 21044 50007=
201512311053 METAR KBLI 311053Z AUTO 03003KT 10SM CLR M04/M07 A3054 RMK AO2 SLP353 T10391072=
201512310953 METAR KBLI 310953Z AUTO 02005KT 10SM CLR M03/M08 A3053 RMK AO2 SLP348 T10331078=
201512310853 METAR KBLI 310853Z AUTO 02006KT 10SM CLR M03/M07 A3052 RMK AO2 SLP345 T10331072 51006=
201512310753 METAR KBLI 310753Z AUTO 01006KT 10SM CLR M03/M07 A3052 RMK AO2 SLP344 T10281072 400331033=
201512310653 METAR KBLI 310653Z AUTO 02005KT 10SM CLR M03/M07 A3051 RMK AO2 SLP341 T10281072=
201512310553 METAR KBLI 310553Z 02004KT 10SM CLR M03/M07 A3050 RMK AO2 SLP339 T10281072 10006 21033 51006=
201512310453 METAR KBLI 310453Z 00000KT 10SM CLR M03/M07 A3050 RMK AO2 SLP337 T10281067=
201512310353 METAR KBLI 310353Z 03006KT 10SM CLR M02/M07 A3049 RMK AO2 SLP335 T10221067=
201512310253 METAR KBLI 310253Z 01004KT 10SM CLR M02/M07 A3048 RMK AO2 SLP333 T10171072 51003=
201512310153 METAR KBLI 310153Z 01006KT 10SM CLR M01/M07 A3048 RMK AO2 SLP331 T10111072=
201512310053 METAR KBLI 310053Z 36005KT 10SM CLR M01/M07 A3048 RMK AO2 SLP332 T10111067=
201512302353 METAR KBLI 302353Z 02007KT 10SM CLR 01/M07 A3047 RMK AO2 SLP330 T00061067 10033 20000 53005=
201512302253 METAR KBLI 302253Z 01006KT 10SM CLR 02/M06 A3046 RMK AO2 SLP326 T00221061=
201512302153 METAR KBLI 302153Z 36005KT 10SM CLR 03/M06 A3046 RMK AO2 SLP325 T00281061=
201512302053 METAR KBLI 302053Z 01005KT 10SM CLR 03/M06 A3046 RMK AO2 SLP325 T00281056 51004=
201512301953 METAR KBLI 301953Z 04005KT 10SM CLR 02/M05 A3046 RMK AO2 SLP324 T00221050=
201512301853 METAR KBLI 301853Z 02005KT 10SM CLR 01/M06 A3046 RMK AO2 SLP324 T00111061=
201512301753 METAR KBLI 301753Z 02005KT 10SM CLR 00/M07 A3045 RMK AO2 SLP321 T00001067 10000 21033 51021=
201512301653 METAR KBLI 301653Z 02004KT 10SM CLR M02/M07 A3043 RMK AO2 SLP317 T10221067=
201512301553 METAR KBLI 301553Z 36005KT 10SM CLR M03/M07 A3040 RMK AO2 SLP306 T10281072=
201512301453 METAR KBLI 301453Z 36004KT 10SM CLR M03/M07 A3039 RMK AO2 SLP300 T10281072 53018=
201512301353 METAR KBLI 301353Z AUTO 03004KT 10SM CLR M03/M07 A3036 RMK AO2 SLP293 T10281067=
201512301253 METAR KBLI 301253Z AUTO 03005KT 10SM CLR M02/M07 A3034 RMK AO2 SLP285 T10171067=
201512301153 METAR KBLI 301153Z AUTO 02005KT 10SM CLR M02/M07 A3033 RMK AO2 SLP282 T10171067 10000 21017 51016=
201512301053 METAR KBLI 301053Z AUTO 36008KT 10SM CLR M02/M06 A3033 RMK AO2 SLP280 T10171061=
201512300953 METAR KBLI 300953Z AUTO 02009KT 10SM CLR M01/M06 A3030 RMK AO2 SLP270 T10111056=
201512300853 METAR KBLI 300853Z AUTO 02008KT 10SM CLR M01/M05 A3028 RMK AO2 SLP264 T10061050 51016=
201512300753 METAR KBLI 300753Z AUTO 36008KT 10SM CLR M01/M05 A3028 RMK AO2 SLP262 T10061050 400501011=
201512300653 METAR KBLI 300653Z AUTO 36008KT 10SM CLR M01/M04 A3025 RMK AO2 SLP255 T10061044=
201512300553 METAR KBLI 300553Z 36010KT 10SM CLR M01/M04 A3024 RMK AO2 SLP249 T10061044 10033 21006 51014=
201512300453 METAR KBLI 300453Z 01008KT 10SM CLR 00/M04 A3023 RMK AO2 SLP245 T00001039=
201512300353 METAR KBLI 300353Z 01006KT 10SM CLR 00/M04 A3021 RMK AO2 SLP241 T00001039=
201512300307 METAR KBLI 300307Z AUTO 30608 10SM CLR 00/M04 A3020=
201512300253 METAR KBLI 300253Z 36007KT 10SM CLR 01/M04 A3019 RMK AO2 SLP235 T00061039 51008=
201512300153 METAR KBLI 300153Z 36007KT 10SM CLR 01/M04 A3019 RMK AO2 SLP233 T00111039=
201512300053 METAR KBLI 300053Z 36006KT 10SM CLR 02/M03 A3018 RMK AO2 SLP230 T00171033=
201512292353 METAR KBLI 292353Z 36009KT 10SM FEW070 03/M03 A3017 RMK AO2 SLP226 T00281033 10050 20011 53008=
201512292253 METAR KBLI 292253Z 01013G18KT 10SM SCT070 04/M03 A3016 RMK AO2 SLP220 T00391033=
201512292153 METAR KBLI 292153Z 03007KT 360V070 10SM CLR 05/M03 A3015 RMK AO2 SLP219 T00501028=
201512292053 METAR KBLI 292053Z 01009KT 10SM SCT070 04/M02 A3015 RMK AO2 SLP217 T00441017 58009=
201512291953 METAR KBLI 291953Z 01009KT 10SM OVC070 03/M02 A3016 RMK AO2 SLP223 T00331022=
201512291853 METAR KBLI 291853Z 02007KT 10SM OVC070 03/M01 A3017 RMK AO2 SLP226 T00281011=
201512291753 METAR KBLI 291753Z 04003KT 10SM OVC070 01/M01 A3017 RMK AO2 SLP226 T00111006 10011 21006 53010=
201512291653 METAR KBLI 291653Z 01003KT 10SM OVC070 01/M01 A3016 RMK AO2 SLP222 T00061006=
201512291553 METAR KBLI 291553Z 03003KT 10SM OVC070 01/M01 A3015 RMK AO2 SLP218 T00061011=
201512291453 METAR KBLI 291453Z 00000KT 10SM OVC070 00/M01 A3014 RMK AO2 SLP217 T00001006 55003=
201512291353 METAR KBLI 291353Z AUTO 00000KT 10SM OVC070 00/M01 A3014 RMK AO2 SLP215 T00001006=
201512291253 METAR KBLI 291253Z AUTO 00000KT 10SM OVC075 01/M01 A3014 RMK AO2 SLP215 T00061006=
201512291153 METAR KBLI 291153Z AUTO 00000KT 6SM BR OVC075 01/M01 A3015 RMK AO2 SLP219 70001 T00061006 10017 20000 50002=
201512291053 METAR KBLI 291053Z AUTO 00000KT 5SM BR OVC075 01/00 A3015 RMK AO2 SLP220 T00060000=
201512290953 METAR KBLI 290953Z AUTO 00000KT 5SM BR OVC080 01/00 A3014 RMK AO2 SLP216 T00110000=
201512290917 SPECI KBLI 290917Z AUTO 00000KT 5SM BR FEW009 OVC080 01/00 A3014 RMK AO2=
201512290905 SPECI KBLI 290905Z AUTO 00000KT 5SM BR BKN009 OVC080 01/00 A3014 RMK AO2=
201512290853 METAR KBLI 290853Z AUTO 00000KT 6SM BR BKN011 OVC075 01/00 A3014 RMK AO2 SLP217 T00110000 58004=
201512290838 SPECI KBLI 290838Z AUTO 00000KT 6SM BR BKN011 OVC080 01/00 A3015 RMK AO2=
201512290753 METAR KBLI 290753Z AUTO 00000KT 6SM BR OVC075 01/00 A3015 RMK AO2 SLP220 T00110000 400500011=
201512290653 METAR KBLI 290653Z AUTO 00000KT 10SM BKN070 OVC080 02/01 A3016 RMK AO2 SLP221 T00170006=
201512290553 METAR KBLI 290553Z 00000KT 10SM BKN055 OVC085 02/01 A3015 RMK AO2 SLP220 T00170011 10033 20017 51003=
201512290453 METAR KBLI 290453Z 00000KT 10SM OVC085 02/01 A3015 RMK AO2 SLP219 T00220011=
201512290353 METAR KBLI 290353Z 00000KT 10SM OVC085 02/01 A3015 RMK AO2 SLP220 T00170006=
201512290253 METAR KBLI 290253Z 00000KT 10SM FEW055 OVC085 02/01 A3015 RMK AO2 SLP218 T00220011 51007=
201512290153 METAR KBLI 290153Z 00000KT 8SM OVC085 02/02 A3014 RMK AO2 SLP216 T00220017=
201512290053 METAR KBLI 290053Z 00000KT 10SM OVC085 03/02 A3014 RMK AO2 SLP214 T00280017=
201512282353 METAR KBLI 282353Z 00000KT 10SM SCT019 BKN044 03/02 A3013 RMK AO2 SLP211 T00330017 10050 20022 53002=
201512282253 METAR KBLI 282253Z 00000KT 10SM FEW019 OVC044 03/01 A3012 RMK AO2 SLP210 T00330011=
201512282248 SPECI KBLI 282248Z 00000KT 10SM FEW019 OVC044 04/01 A3012 RMK AO2=
201512282153 METAR KBLI 282153Z 00000KT 10SM FEW008 SCT013 OVC027 04/02 A3012 RMK AO2 SLP209 T00440022=
201512282112 SPECI KBLI 282112Z 00000KT 10SM FEW013 OVC027 04/02 A3012 RMK AO2=
201512282053 METAR KBLI 282053Z 30005KT 10SM BKN013 BKN017 OVC027 04/02 A3013 RMK AO2 SLP212 T00390022 53001=
201512282046 SPECI KBLI 282046Z 29004KT 10SM OVC011 04/02 A3013 RMK AO2=
201512281953 METAR KBLI 281953Z VRB03KT 10SM SCT008 OVC048 04/02 A3011 RMK AO2 SLP207 T00390022=
201512281910 SPECI KBLI 281910Z 01004KT 10SM SCT008 OVC048 03/02 A3012 RMK AO2=
201512281903 SPECI KBLI 281903Z 01004KT 10SM BKN008 OVC048 04/02 A3012 RMK AO2=
201512281853 METAR KBLI 281853Z 36005KT 10SM SCT006 OVC048 04/02 A3013 RMK AO2 SLP211 T00390022=
201512281818 SPECI KBLI 281818Z 02004KT 4SM BR SCT002 OVC080 03/02 A3013 RMK AO2=
201512281800 SPECI KBLI 281800Z 02004KT 3SM BR BKN002 OVC080 02/02 A3013 RMK AO2=
201512281753 METAR KBLI 281753Z 01003KT 2SM BR BKN004 OVC045 02/02 A3013 RMK AO2 SLP211 60001 T00220017 10022 20011 51011=
201512281745 SPECI KBLI 281745Z 00000KT 2SM BR BKN004 OVC045 02/01 A3013 RMK AO2=
201512281653 METAR KBLI 281653Z 02004KT 5SM BR FEW002 OVC045 02/01 A3012 RMK AO2 SLP207 T00170011=
201512281649 SPECI KBLI 281649Z 03003KT 5SM BR FEW002 SCT021 OVC045 02/01 A3011 RMK AO2=
201512281641 SPECI KBLI 281641Z 03004KT 2SM BR FEW002 SCT010 OVC043 02/01 A3011 RMK AO2=
201512281553 METAR KBLI 281553Z 03003KT 1SM R16/2800V3500FT BR OVC002 02/01 A3010 RMK AO2 RAB03E40 SLP200 P0000 T00170011=
201512281531 SPECI KBLI 281531Z 00000KT 1 1/4SM R16/4000V5500FT -RA BR BKN002 OVC016 02/01 A3010 RMK AO2 RAB03 P0000=
201512281522 SPECI KBLI 281522Z 00000KT 1 3/4SM R16/5500VP6000FT -RA BR SCT002 BKN005 OVC016 02/01 A3010 RMK AO2 RAB03 P0000=
201512281507 SPECI KBLI 281507Z 00000KT 2SM R16/6000VP6000FT -RA BR SCT002 BKN005 OVC016 02/01 A3010 RMK AO2 RAB03 P0000=
201512281501 SPECI KBLI 281501Z AUTO 00000KT 1 3/4SM BR BKN002 OVC016 02/01 A3010 RMK AO2 $=
201512281453 METAR KBLI 281453Z AUTO 00000KT 2SM BR BKN002 OVC016 02/01 A3009 RMK AO2 SLP199 60001 T00170011 53005 $=
201512281435 SPECI KBLI 281435Z AUTO 01003KT 2SM BR BKN002 OVC017 02/01 A3009 RMK AO2 $=
201512281420 SPECI KBLI 281420Z AUTO 35003KT 1 3/4SM R16/5500VP6000FT BR FEW002 SCT009 OVC019 02/01 A3008 RMK AO2 $=
201512281412 SPECI KBLI 281412Z AUTO 36003KT 1 1/4SM R16/4500VP6000FT BR SCT002 BKN009 OVC019 02/01 A3008 RMK AO2 $=
201512281401 SPECI KBLI 281401Z AUTO 00000KT 3/4SM R16/2400V4000FT BR SCT004 BKN009 OVC019 02/01 A3008 RMK AO2 $=
201512281353 METAR KBLI 281353Z AUTO 00000KT 1/2SM R16/2200V2800FT FG BKN004 OVC009 02/01 A3008 RMK AO2 SLP195 T00170011 $=
201512281350 SPECI KBLI 281350Z AUTO 00000KT 1/2SM R16/2200V2600FT FG VV004 02/01 A3008 RMK AO2 $=
201512281322 SPECI KBLI 281322Z AUTO 00000KT 1/2SM R16/1800V2200FT FG VV002 01/01 A3008 RMK AO2 $=
201512281300 SPECI KBLI 281300Z AUTO 00000KT 1/2SM R16/2800V3500FT FG BKN003 OVC007 02/01 A3008 RMK AO2 $=
201512281253 METAR KBLI 281253Z AUTO 00000KT 3/4SM R16/2600V3000FT BR OVC006 02/01 A3008 RMK AO2 SLP194 P0001 T00170011 $=
201512281251 SPECI KBLI 281251Z AUTO 00000KT 3/4SM R16/2600V3000FT BR OVC008 02/01 A3008 RMK AO2 P0001 $=
201512281205 SPECI KBLI 281205Z AUTO 00000KT 1 3/4SM R16/4500VP6000FT BR SCT001 BKN008 OVC027 02/01 A3007 RMK AO2 $=
201512281153 METAR KBLI 281153Z AUTO 00000KT 2 1/2SM BR BKN001 BKN008 OVC027 02/01 A3008 RMK AO2 SLP194 60002 70055 T00170011 10017 20017 51007 $=
201512281134 SPECI KBLI 281134Z AUTO 00000KT 2 1/2SM BR BKN001 BKN008 OVC014 02/01 A3008 RMK AO2 $=
201512281126 SPECI KBLI 281126Z AUTO 00000KT 3SM BR BKN001 OVC008 02/01 A3008 RMK AO2 $=
201512281101 SPECI KBLI 281101Z AUTO 00000KT 2 1/2SM BR BKN001 OVC016 02/01 A3007 RMK AO2 $=
201512281053 METAR KBLI 281053Z AUTO 00000KT 3SM BR BKN001 OVC016 02/01 A3007 RMK AO2 SLP192 T00170011 $=
201512280953 METAR KBLI 280953Z AUTO 00000KT 3SM BR BKN001 OVC017 02/01 A3006 RMK AO2 SLP189 T00170011 $=
201512280927 SPECI KBLI 280927Z AUTO 00000KT 2 1/2SM BR BKN001 OVC017 02/01 A3006 RMK AO2 $=
201512280853 METAR KBLI 280853Z AUTO 00000KT 2 1/2SM BR SCT001 OVC017 02/01 A3006 RMK AO2 SLP187 60002 T00170011 50001 $=
201512280834 SPECI KBLI 280834Z AUTO 00000KT 2SM BR SCT001 OVC015 02/02 A3005 RMK AO2 $=
201512280800 SPECI KBLI 280800Z AUTO 00000KT 2SM BR FEW002 OVC013 02/01 A3006 RMK AO2 $=
201512280753 METAR KBLI 280753Z AUTO 00000KT 1 3/4SM BR OVC013 02/02 A3006 RMK AO2 SLP187 P0001 T00170017 400500011 $=
201512280726 SPECI KBLI 280726Z AUTO 00000KT 1 3/4SM BR FEW003 OVC013 02/01 A3005 RMK AO2 P0001 $=
201512280714 SPECI KBLI 280714Z AUTO 00000KT 2SM BR FEW003 SCT007 OVC013 02/01 A3005 RMK AO2 $=
201512280710 SPECI KBLI 280710Z AUTO 36003KT 1 3/4SM BR SCT003 SCT007 OVC015 02/02 A3005 RMK AO2 $=
201512280707 SPECI KBLI 280707Z AUTO 00000KT 1 3/4SM BR SCT003 BKN009 OVC015 02/02 A3005 RMK AO2 $=
201512280653 METAR KBLI 280653Z AUTO 00000KT 2 1/2SM BR FEW003 OVC015 02/01 A3005 RMK AO2 RAE19 SLP186 P0001 T00170011 $=
201512280651 SPECI KBLI 280651Z AUTO 00000KT 2 1/2SM BR FEW003 OVC015 02/01 A3005 RMK AO2 RAE19 P0001 $=
201512280642 SPECI KBLI 280642Z AUTO 36003KT 2 1/2SM BR OVC015 02/01 A3005 RMK AO2 RAE19 P0001 $=
201512280600 SPECI KBLI 280600Z 00000KT 3SM -RA BR FEW003 BKN015 OVC022 02/01 A3004 RMK AO2 P0000 $=
201512280553 METAR KBLI 280553Z 00000KT 3SM -RA BR SCT015 OVC022 02/01 A3004 RMK AO2 SLP183 P0001 60014 T00170011 10017 20011 53004 $=
201512280453 METAR KBLI 280453Z 00000KT 3SM -RA BR BKN002 OVC017 02/01 A3004 RMK AO2 UPB09E13RAB13 SLP181 P0002 T00170011 $=
201512280353 METAR KBLI 280353Z 00000KT 3SM BR BKN002 OVC019 02/01 A3004 RMK AO2 RAE30 SLP181 P0001 T00170011 $=
201512280253 METAR KBLI 280253Z 00000KT 3SM -RA BR BKN002 OVC019 01/01 A3003 RMK AO2 SLP179 P0001 60010 T00110006 53006 $=
201512280153 METAR KBLI 280153Z 00000KT 5SM -RA BR BKN004 OVC024 01/01 A3002 RMK AO2 SLP175 P0004 T00110006 $=
201512280053 METAR KBLI 280053Z 00000KT 3SM -RA BR BKN002 BKN006 OVC022 02/01 A3002 RMK AO2 SLP174 P0005 T00170011 $=
201512272353 METAR KBLI 272353Z 00000KT 3SM -RA BR BKN004 OVC020 01/01 A3002 RMK AO2 SLP173 P0005 60038 T00110006 10033 20011 56002 $=
201512272253 METAR KBLI 272253Z 00000KT 7SM -RA FEW004 OVC018 02/01 A3002 RMK AO2 SLP175 P0007 T00170011 $=
201512272239 SPECI KBLI 272239Z 01003KT 8SM R16/4500VP6000FT -RA FEW004 OVC018 02/01 A3001 RMK AO2 P0005 $=
201512272153 METAR KBLI 272153Z 35003KT 8SM -RA OVC020 02/01 A3002 RMK AO2 SLP174 P0007 T00170006 $=
201512272120 SPECI KBLI 272120Z 01004KT 6SM -RA BR SCT011 OVC023 02/01 A3002 RMK AO2 P0003 $=
201512272053 METAR KBLI 272053Z 01005KT 10SM -RA BKN013 OVC021 02/01 A3002 RMK AO2 SLP176 P0007 60019 T00170011 56010 $=
201512272050 SPECI KBLI 272050Z 01005KT 9SM -RA BKN013 OVC021 02/01 A3002 RMK AO2 P0007 $=
201512271953 METAR KBLI 271953Z 36003KT 9SM -RA BKN016 OVC021 03/02 A3005 RMK AO2 SLP183 P0008 T00280022 $=
201512271853 METAR KBLI 271853Z 03008KT 9SM -RA OVC024 03/02 A3005 RMK AO2 SLP186 P0004 T00280017 $=
201512271837 SPECI KBLI 271837Z 01003KT 9SM -RA BKN026 OVC034 03/02 A3006 RMK AO2 P0002 $=
201512271753 METAR KBLI 271753Z 02005KT 10SM -RA OVC035 03/02 A3005 RMK AO2 RAB1657 SLP186 P0001 60001 T00280017 10033 20017 55005 $=
201512271653 METAR KBLI 271653Z 05003KT 10SM OVC060 03/01 A3005 RMK AO2 SLP183 T00330011 $=
201512271553 METAR KBLI 271553Z 03008KT 10SM OVC060 03/01 A3005 RMK AO2 RAB17E50UPB18E19 SLP185 P0000 T00280011 $=
201512271453 METAR KBLI 271453Z 02004KT 10SM FEW050 OVC070 03/01 A3007 RMK AO2 RAB19E31 SLP191 P0000 60000 T00280011 56027 $=
201512271353 METAR KBLI 271353Z AUTO 02008KT 10SM OVC070 02/01 A3009 RMK AO2 SLP199 T00220006 $=
201512271253 METAR KBLI 271253Z AUTO 02007KT 10SM BKN060 OVC075 02/01 A3011 RMK AO2 SLP207 T00170006 $=
201512271153 METAR KBLI 271153Z AUTO 02006KT 10SM FEW005 BKN065 OVC080 02/01 A3015 RMK AO2 SLP219 60000 T00170006 10050 20017 56018 $=
201512271149 SPECI KBLI 271149Z AUTO 02007KT 10SM FEW005 BKN065 OVC080 02/01 A3015 RMK AO2 $=
201512271053 METAR KBLI 271053Z AUTO 03008KT 10SM FEW060 OVC080 02/00 A3016 RMK AO2 RAE23 SLP223 P0000 T00170000 $=
201512271013 SPECI KBLI 271013Z AUTO 09008KT 10SM -RA BKN034 OVC050 03/00 A3018 RMK AO2 P0000 $=
201512270953 METAR KBLI 270953Z AUTO 12009G18KT 10SM -RA OVC028 03/00 A3020 RMK AO2 WSHFT 0905 RAB14 SLP237 P0000 T00330000 $=
201512270944 SPECI KBLI 270944Z AUTO 12012KT 10SM -RA OVC028 04/00 A3021 RMK AO2 WSHFT 0905 RAB14 P0000 $=
201512270925 SPECI KBLI 270925Z AUTO 13015G22KT 10SM -RA OVC038 04/M01 A3022 RMK AO2 WSHFT 0905 RAB14 P0000 $=
201512270853 METAR KBLI 270853Z AUTO 00000KT 10SM OVC050 02/M01 A3022 RMK AO2 SLP244 T00221006 58023 $=
201512270753 METAR KBLI 270753Z AUTO 03005KT 10SM OVC075 02/M01 A3025 RMK AO2 SLP253 T00171006 400281011 $=
201512270653 METAR KBLI 270653Z AUTO 03006KT 10SM OVC085 02/M01 A3027 RMK AO2 SLP259 T00171006 $=
201512270553 METAR KBLI 270553Z 01004KT 10SM OVC080 02/M01 A3029 RMK AO2 SLP268 T00171006 10022 20017 56021 $=
201512270453 METAR KBLI 270453Z AUTO 01007KT 10SM OVC080 02/M01 A3031 RMK AO2 SLP274 T00171006 $=
201512270353 METAR KBLI 270353Z AUTO 03005KT 10SM OVC085 02/M01 A3033 RMK AO2 SLP282 T00171011 $=
201512270253 METAR KBLI 270253Z 36006KT 10SM FEW038 OVC045 02/M01 A3035 RMK AO2 SLP289 T00171011 56023 $=
201512270153 METAR KBLI 270153Z 36003KT 10SM FEW044 BKN050 OVC090 02/M01 A3038 RMK AO2 SLP297 T00171006 $=
201512270053 METAR KBLI 270053Z 03004KT 10SM OVC095 02/M01 A3039 RMK AO2 SLP301 T00171006 $=
201512262353 METAR KBLI 262353Z 05005KT 10SM SCT055 BKN070 OVC100 02/M01 A3042 RMK AO2 SLP312 T00221006 10028 20006 58023 $=
201512262253 METAR KBLI 262253Z 02004KT 10SM OVC090 03/M01 A3045 RMK AO2 SLP321 T00281006 $=
201512262153 METAR KBLI 262153Z 03005KT 10SM OVC075 03/M01 A3046 RMK AO2 SLP326 T00281006 $=
201512262053 METAR KBLI 262053Z 36004KT 10SM BKN036 OVC100 02/M01 A3049 RMK AO2 SLP335 T00221006 58018 $=
201512261953 METAR KBLI 261953Z 03006KT 10SM OVC095 02/00 A3050 RMK AO2 SLP339 T00220000 $=
201512261853 METAR KBLI 261853Z 04005KT 10SM FEW035 01/M01 A3053 RMK AO2 SLP349 T00111006 $=
201512261753 METAR KBLI 261753Z 02004KT 10SM OVC035 01/M01 A3054 RMK AO2 SLP353 T00061011 10006 21011 53001 $=
201512261653 METAR KBLI 261653Z 00000KT 10SM BKN033 OVC047 01/M01 A3054 RMK AO2 SLP353 T00061011 $=
201512261553 METAR KBLI 261553Z 00000KT 10SM BKN033 OVC047 00/M01 A3053 RMK AO2 SLP350 T00001011 $=
201512261453 METAR KBLI 261453Z 01004KT 10SM BKN033 OVC040 00/M02 A3054 RMK AO2 SLP352 T00001017 53003 $=
201512261353 METAR KBLI 261353Z AUTO 00000KT 10SM OVC037 00/M01 A3052 RMK AO2 SLP346 T00001011 $=
201512261253 METAR KBLI 261253Z AUTO 01003KT 10SM SCT028 BKN034 OVC047 00/M01 A3053 RMK AO2 SLP349 T00001011 $=
201512261216 SPECI KBLI 261216Z AUTO 35003KT 10SM BKN025 M01/M02 A3054 RMK AO2 $=
201512261153 METAR KBLI 261153Z AUTO 00000KT 10SM CLR M01/M02 A3053 RMK AO2 SLP349 T10061017 10000 21011 50004 $=
201512261053 METAR KBLI 261053Z AUTO 00000KT 10SM SCT022 BKN039 OVC055 M01/M02 A3054 RMK AO2 SLP352 T10061017 $=
201512260953 METAR KBLI 260953Z AUTO 00000KT 10SM FEW028 M01/M02 A3052 RMK AO2 SLP345 T10111022 $=
201512260853 METAR KBLI 260853Z AUTO 00000KT 10SM BKN038 BKN060 M01/M02 A3052 RMK AO2 SLP344 T10061017 51015 $=
201512260753 METAR KBLI 260753Z AUTO 34003KT 10SM OVC034 M01/M01 A3051 RMK AO2 SLP342 T10061011 400501011 $=
201512260653 METAR KBLI 260653Z AUTO 00000KT 10SM SCT040 BKN050 OVC065 00/M02 A3050 RMK AO2 SLP338 T00001017 $=
201512260553 METAR KBLI 260553Z 35003KT 10SM BKN065 M01/M02 A3048 RMK AO2 SLP331 T10061017 10033 21011 53019 $=
201512260453 METAR KBLI 260453Z 00000KT 10SM OVC065 M01/M01 A3046 RMK AO2 SLP325 T10061011 $=
201512260353 METAR KBLI 260353Z 00000KT 10SM OVC070 M01/M01 A3043 RMK AO2 SLP315 T10061011 $=
201512260253 METAR KBLI 260253Z 00000KT 10SM CLR 00/M01 A3042 RMK AO2 SLP311 T00001011 51023 $=
201512260153 METAR KBLI 260153Z 00000KT 10SM BKN035 01/M01 A3040 RMK AO2 SLP305 T00061006 $=
201512260053 METAR KBLI 260053Z 00000KT 10SM OVC035 02/01 A3038 RMK AO2 SLP299 T00220006 $=
201512252353 METAR KBLI 252353Z 00000KT 10SM OVC031 03/01 A3035 RMK AO2 SLP287 60000 T00280011 10050 20006 53028 $=
201512252253 METAR KBLI 252253Z 00000KT 10SM FEW050 04/M01 A3031 RMK AO2 SLP273 T00441011 $=
201512252153 METAR KBLI 252153Z 02004KT 10SM R16/4000V6000FT OVC040 05/M01 A3028 RMK AO2 SLP263 T00501006 $=
201512252053 METAR KBLI 252053Z 00000KT 10SM BKN030 BKN036 OVC044 04/01 A3027 RMK AO2 RAE1954 SLP259 60000 T00390006 51017 $=
201512251953 METAR KBLI 251953Z 00000KT 10SM -RA BKN037 OVC044 04/M01 A3025 RMK AO2 RAB44SNE17 SLP252 P0000 T00391011 $=
201512251853 METAR KBLI 251853Z 00000KT 9SM -SN FEW033 OVC045 02/01 A3024 RMK AO2 UPB40E46SNB46 SLP250 P0000 T00220011 $=
201512251753 METAR KBLI 251753Z 00000KT 8SM BKN040 OVC060 01/00 A3022 RMK AO2 SLP242 T00060000 10006 21011 51039 $=
201512251653 METAR KBLI 251653Z 00000KT 4SM BR SCT028 OVC045 00/00 A3018 RMK AO2 SLP229 T00000000 $=
201512251553 METAR KBLI 251553Z 00000KT 8SM OVC040 00/M01 A3014 RMK AO2 SLP218 T00001011 $=
201512251453 METAR KBLI 251453Z 00000KT 7SM BKN043 BKN050 M01/M01 A3010 RMK AO2 SLP204 T10061006 53025 $=
201512251402 SPECI KBLI 251402Z 00000KT 3SM BR FEW001 OVC041 M01/M01 A3008 RMK AO2 $=
201512251353 METAR KBLI 251353Z 00000KT 1 1/4SM R16/4500VP6000FT BR SCT001 OVC041 M01/M01 A3007 RMK AO2 SLP193 T10111011 $=
201512251348 SPECI KBLI 251348Z 00000KT 3/4SM R16/3500VP6000FT BR SCT001 BKN041 M01/M01 A3007 RMK AO2 $=
201512251333 SPECI KBLI 251333Z 00000KT 1/4SM R16/2000V2800FT FZFG BKN001 OVC043 M01/M02 A3007 RMK AO2=
201512251253 METAR KBLI 251253Z 00000KT 1/4SM R16/1400V1600FT FZFG VV001 M01/M01 A3005 RMK AO2 SLP187 T10061011=
201512251245 SPECI KBLI 251245Z 00000KT 1/2SM R16/1600V4500FT FZFG BKN001 BKN046 OVC065 M01/M01 A3005 RMK AO2=
201512251240 SPECI KBLI 251240Z 03003KT 1 1/2SM R16/1800VP6000FT BR BKN001 BKN046 OVC065 M01/M01 A3004 RMK AO2=
201512251211 SPECI KBLI 251211Z 00000KT 3SM R16/4500VP6000FT BR FEW001 OVC065 M01/M01 A3004 RMK AO2=
201512251153 METAR KBLI 251153Z 00000KT 2 1/2SM BR BKN070 00/M01 A3003 RMK AO2 SLP177 70020 T00001006 10022 20000 53027=
201512251133 SPECI KBLI 251133Z 00000KT 2SM BR FEW040 BKN070 00/M01 A3002 RMK AO2=
201512251053 METAR KBLI 251053Z 00000KT 5SM BR OVC070 01/01 A3000 RMK AO2 SLP168 T00060006=
201512251040 SPECI KBLI 251040Z 00000KT 3SM BR OVC070 01/M01 A2999 RMK AO2=
201512251017 SPECI KBLI 251017Z 00000KT 1 3/4SM R16/5500VP6000FT BR OVC070 01/00 A2998 RMK AO2=
201512250953 METAR KBLI 250953Z 00000KT 5SM BR OVC070 01/01 A2997 RMK AO2 SLP158 T00110006=
201512250853 METAR KBLI 250853Z 00000KT 4SM BR OVC035 01/01 A2995 RMK AO2 SLP150 T00060006 51022=
201512250753 METAR KBLI 250753Z 00000KT 7SM FEW030 OVC035 02/01 A2993 RMK AO2 SLP144 T00170011 400440017=
201512250653 METAR KBLI 250653Z 00000KT 8SM BKN033 OVC075 02/01 A2990 RMK AO2 SLP135 T00170011=
201512250620 SPECI KBLI 250620Z 00000KT 10SM FEW024 OVC031 02/01 A2989 RMK AO2=
201512250553 METAR KBLI 250553Z 00000KT 10SM BKN020 OVC033 02/01 A2988 RMK AO2 SLP128 P0001 60002 T00220011 10028 20022 51022=
201512250545 SPECI KBLI 250545Z 00000KT 10SM BKN020 OVC033 02/01 A2988 RMK AO2 P0001=
201512250453 METAR KBLI 250453Z 00000KT 7SM OVC033 02/02 A2987 RMK AO2 SLP122 T00220017=
201512250442 SPECI KBLI 250442Z 00000KT 7SM FEW027 OVC033 02/02 A2986 RMK AO2=
201512250353 METAR KBLI 250353Z 00000KT 9SM FEW002 SCT020 OVC025 02/02 A2984 RMK AO2 SLP113 T00220017=
201512250253 METAR KBLI 250253Z 00000KT 10SM BKN027 OVC070 02/02 A2982 RMK AO2 SLP106 60001 T00220017 51019=
201512250200 SPECI KBLI 250200Z 00000KT 10SM FEW001 OVC024 02/02 A2981 RMK AO2=
201512250153 METAR KBLI 250153Z 00000KT 10SM SCT003 BKN013 OVC047 02/02 A2980 RMK AO2 SLP101 T00220017=
201512250053 METAR KBLI 250053Z 00000KT 7SM SCT003 BKN013 OVC032 03/02 A2978 RMK AO2 RAE24 SLP094 P0001 T00280017=
201512250007 SPECI KBLI 250007Z 04003KT 8SM -RA SCT003 BKN010 OVC032 03/02 A2976 RMK AO2 P0001=
201512242353 METAR KBLI 242353Z 01003KT 5SM -RA BR BKN003 OVC011 03/02 A2976 RMK AO2 SLP087 P0002 60016 T00280022 10044 20028 53025=
201512242318 SPECI KBLI 242318Z 36003KT 4SM -RA BR SCT002 OVC006 03/02 A2975 RMK AO2 CIG 004V009 P0001=
201512242253 METAR KBLI 242253Z 35004KT 6SM -RA BR OVC004 03/02 A2973 RMK AO2 RAE30B46 CIG 002V007 SLP076 P0001 T00280022=
201512242213 SPECI KBLI 242213Z 00000KT 6SM -RA BR BKN004 OVC008 03/02 A2971 RMK AO2 P0000=
201512242204 SPECI KBLI 242204Z 34003KT 6SM -RA BR SCT004 OVC010 03/02 A2971 RMK AO2 CIG 007V012 P0000=
201512242153 METAR KBLI 242153Z 01003KT 6SM -RA BR OVC010 03/02 A2970 RMK AO2 CIG 006V012 SLP067 P0001 T00330022=
201512242053 METAR KBLI 242053Z 02003KT 6SM -RA BR SCT008 OVC012 03/02 A2968 RMK AO2 SLP061 P0002 60012 T00280022 53008=
201512241953 METAR KBLI 241953Z 02004KT 6SM -RA BR FEW004 BKN010 OVC015 03/02 A2967 RMK AO2 SLP056 P0008 T00280022=
201512241853 METAR KBLI 241853Z 00000KT 7SM -RA FEW004 OVC013 04/02 A2966 RMK AO2 RAB28 SLP052 P0002 T00390022=
201512241850 SPECI KBLI 241850Z 00000KT 10SM -RA OVC013 04/02 A2966 RMK AO2 RAB28 P0002=
201512241753 METAR KBLI 241753Z 17007KT 10SM FEW008 OVC016 04/02 A2964 RMK AO2 SLP045 60002 T00390017 10039 20033 53027=
201512241748 SPECI KBLI 241748Z 16009KT 10SM FEW008 OVC016 04/02 A2964 RMK AO2=
201512241653 METAR KBLI 241653Z 15008KT 10SM BKN014 OVC025 04/02 A2961 RMK AO2 RAB1556E11 SLP035 P0000 T00390017=
201512241553 METAR KBLI 241553Z 13007KT 10SM OVC012 03/02 A2958 RMK AO2 SLP027 T00330017=
201512241453 METAR KBLI 241453Z 17010G16KT 10SM OVC014 04/02 A2956 RMK AO2 SLP018 60002 T00390017 53018=
201512241353 METAR KBLI 241353Z AUTO 13006KT 10SM OVC012 04/02 A2953 RMK AO2 SLP010 T00390022=
201512241342 SPECI KBLI 241342Z AUTO 16008KT 10SM BKN012 OVC018 04/02 A2953 RMK AO2=
201512241253 METAR KBLI 241253Z AUTO 16011G17KT 10SM BKN018 OVC025 04/02 A2952 RMK AO2 RAB1158E45 SLP004 P0002 T00390022=
201512241212 SPECI KBLI 241212Z AUTO 16009G17KT 10SM -RA SCT015 BKN021 OVC030 04/02 A2951 RMK AO2 RAB1158 P0000=
201512241153 METAR KBLI 241153Z AUTO 14006KT 10SM OVC014 03/02 A2950 RMK AO2 RAE48 SLP999 P0002 60020 70039 T00330022 10044 20028 51015=
201512241135 SPECI KBLI 241135Z AUTO 12008KT 10SM -RA FEW009 BKN014 OVC020 03/02 A2950 RMK AO2 P0002=
201512241108 SPECI KBLI 241108Z AUTO 00000KT 10SM -RA OVC009 03/02 A2949 RMK AO2 CIG 007V012 P0001=
201512241053 METAR KBLI 241053Z AUTO 01003KT 10SM -RA OVC013 03/02 A2949 RMK AO2 SLP996 P0005 T00330022=
201512240953 METAR KBLI 240953Z AUTO 15012G20KT 10SM -RA BKN018 OVC024 04/02 A2946 RMK AO2 RAB0856 SLP984 P0006 T00440022=
201512240853 METAR KBLI 240853Z AUTO 17010KT 10SM BKN019 OVC026 04/03 A2945 RMK AO2 RAB23E41 SLP981 P0000 60007 T00440028 53007=
201512240753 METAR KBLI 240753Z AUTO 12009KT 10SM SCT013 BKN019 OVC035 03/02 A2944 RMK AO2 RAE44 SLP976 P0002 T00330017 400560022=
201512240737 SPECI KBLI 240737Z AUTO 13013G17KT 10SM -RA BKN013 OVC017 04/02 A2943 RMK AO2 P0002=
201512240714 SPECI KBLI 240714Z AUTO 11005KT 8SM -RA OVC016 03/02 A2943 RMK AO2 P0001=
201512240653 METAR KBLI 240653Z AUTO 13007KT 10SM -RA BKN014 OVC018 03/02 A2943 RMK AO2 SLP976 P0005 T00330017=
201512240609 SPECI KBLI 240609Z 12009KT 10SM BKN014 BKN028 OVC037 03/01 A2943 RMK AO2 RAE03 P0000=
201512240553 METAR KBLI 240553Z 12009KT 10SM -RA BKN016 OVC021 03/02 A2943 RMK AO2 RAB50 SLP974 P0000 60001 T00330017 10044 20033 53004=
201512240453 METAR KBLI 240453Z 14010KT 10SM OVC019 03/02 A2942 RMK AO2 RAE07 SLP972 P0000 T00330017=
201512240353 METAR KBLI 240353Z 13010KT 10SM -RA BKN015 BKN020 OVC031 03/02 A2941 RMK AO2 SLP969 P0001 T00330017=
201512240307 SPECI KBLI 240307Z 15011KT 10SM SCT014 BKN020 OVC038 04/02 A2941 RMK AO2 RAE01 P0001=
201512240253 METAR KBLI 240253Z 15013G19KT 10SM -RA BKN014 OVC022 04/02 A2942 RMK AO2 RAB37 SLP970 P0000 60000 T00390017 55000=
201512240153 METAR KBLI 240153Z 14010KT 10SM BKN014 OVC029 04/02 A2942 RMK AO2 SLP970 T00440017=
201512240053 METAR KBLI 240053Z 15014G20KT 10SM BKN014 OVC031 04/02 A2941 RMK AO2 SLP969 T00440022=
201512240037 SPECI KBLI 240037Z 16015G19KT 10SM OVC014 04/02 A2942 RMK AO2=
201512232353 METAR KBLI 232353Z 15014G21KT 10SM BKN016 BKN035 OVC075 04/02 A2942 RMK AO2 RAB11E42 SLP970 P0000 60008 T00440022 10056 20033 58007=
201512232253 METAR KBLI 232253Z 15014G20KT 10SM BKN021 BKN029 OVC080 05/02 A2943 RMK AO2 SLP974 T00500022=
201512232153 METAR KBLI 232153Z 14013G21KT 10SM SCT019 BKN027 OVC070 05/02 A2943 RMK AO2 SLP975 T00500022=
201512232148 SPECI KBLI 232148Z 14015G20KT 10SM BKN019 BKN027 OVC070 05/02 A2944 RMK AO2=
201512232053 METAR KBLI 232053Z 15013KT 10SM FEW013 SCT019 BKN046 06/03 A2945 RMK AO2 SLP982 60008 T00560028 58013=
201512231953 METAR KBLI 231953Z 13009KT 10SM BKN015 BKN019 OVC030 04/02 A2947 RMK AO2 RAB1856E50 SLP989 P0002 T00390022=
201512231853 METAR KBLI 231853Z 14011KT 10SM SCT017 BKN023 OVC060 04/02 A2948 RMK AO2 RAE48 SLP993 P0006 T00440022=
201512231753 METAR KBLI 231753Z 15012KT 5SM -RA BR OVC010 04/02 A2949 RMK AO2 SLP994 P0004 60010 T00390022 10044 20022 53004=
201512231653 METAR KBLI 231653Z 14011KT 10SM -RA OVC012 03/02 A2948 RMK AO2 SLP993 P0006 T00330022=
201512231553 METAR KBLI 231553Z 16012G19KT 10SM -RA OVC014 04/03 A2947 RMK AO2 RAB46 SLP989 P0000 T00440028=
201512231514 SPECI KBLI 231514Z 15009KT 10SM BKN014 OVC020 04/02 A2948 RMK AO2=
201512231453 METAR KBLI 231453Z AUTO 13007KT 10SM OVC017 04/02 A2948 RMK AO2 SLP990 T00390017 50003=
201512231437 SPECI KBLI 231437Z AUTO 14007KT 10SM BKN017 OVC045 04/02 A2948 RMK AO2 $=
201512231353 METAR KBLI 231353Z AUTO 15004KT 10SM FEW026 OVC090 03/02 A2948 RMK AO2 SLP991 T00280017 $=
201512231333 SPECI KBLI 231333Z AUTO 15005KT 10SM FEW012 SCT030 OVC080 03/02 A2948 RMK AO2 $=
201512231253 METAR KBLI 231253Z AUTO 13005KT 10SM OVC010 03/02 A2948 RMK AO2 SLP991 T00280017 $=
201512231153 METAR KBLI 231153Z AUTO 00000KT 10SM OVC014 03/02 A2947 RMK AO2 RAE11 SLP987 P0000 60007 70016 T00280017 10033 20022 51016 $=
201512231143 SPECI KBLI 231143Z AUTO 00000KT 10SM OVC014 02/02 A2946 RMK AO2 RAE11 P0000 $=
201512231105 SPECI KBLI 231105Z AUTO 00000KT 10SM -RA OVC016 03/02 A2946 RMK AO2 P0000 $=
201512231053 METAR KBLI 231053Z AUTO 00000KT 10SM -RA BKN014 OVC018 03/02 A2946 RMK AO2 SLP986 P0004 T00280017 $=
201512231040 SPECI KBLI 231040Z AUTO 00000KT 10SM -RA BKN014 OVC018 03/02 A2946 RMK AO2 P0003 $=
201512230953 METAR KBLI 230953Z AUTO 00000KT 10SM -RA OVC016 03/02 A2944 RMK AO2 SLP977 P0002 T00280022 $=
201512230853 METAR KBLI 230853Z AUTO 00000KT 6SM -RA BR OVC016 03/02 A2942 RMK AO2 SLP970 P0001 60001 T00280017 53010 $=
201512230806 SPECI KBLI 230806Z AUTO 02003KT 10SM -RA BKN022 OVC030 03/02 A2941 RMK AO2 P0000 $=
201512230753 METAR KBLI 230753Z AUTO 00000KT 10SM -RA SCT026 OVC030 03/02 A2940 RMK AO2 RAB36 SLP966 P0000 T00330017 400560017 $=
201512230653 METAR KBLI 230653Z AUTO 02006KT 10SM OVC045 03/01 A2940 RMK AO2 SLP963 T00330011 $=
201512230623 SPECI KBLI 230623Z 01003KT 10SM OVC041 03/02 A2939 RMK AO2 $=
201512230553 METAR KBLI 230553Z 04003KT 10SM BKN025 OVC039 03/02 A2939 RMK AO2 SLP960 60001 T00330017 10050 20033 53001 $=
201512230453 METAR KBLI 230453Z 06004KT 10SM BKN023 BKN042 OVC050 04/02 A2937 RMK AO2 RAE36 SLP955 P0001 T00390022 $=
201512230353 METAR KBLI 230353Z 10005KT 10SM -RA BKN023 OVC034 04/02 A2938 RMK AO2 RAB20 SLP959 P0000 T00440017 $=
201512230253 METAR KBLI 230253Z 04006KT 10SM OVC025 03/02 A2938 RMK AO2 SLP959 T00330017 56016 $=
201512230200 SPECI KBLI 230200Z 03005KT 10SM SCT034 BKN095 OVC110 03/02 A2940 RMK AO2 $=
201512230153 METAR KBLI 230153Z 03006KT 10SM OVC028 03/02 A2941 RMK AO2 SLP967 T00330017 $=
201512230151 SPECI KBLI 230151Z 04004KT 10SM OVC028 03/02 A2941 RMK AO2 $=
201512230100 SPECI KBLI 230100Z 03004KT 10SM OVC030 04/02 A2943 RMK AO2 $=
201512230053 METAR KBLI 230053Z 05004KT 10SM BKN028 OVC048 04/02 A2943 RMK AO2 SLP975 T00440022 $=
201512230036 SPECI KBLI 230036Z 08005KT 10SM BKN025 BKN048 OVC095 05/02 A2944 RMK AO2 $=
201512230010 SPECI KBLI 230010Z 11007KT 10SM SCT025 BKN049 OVC095 05/02 A2945 RMK AO2 $=
201512222353 METAR KBLI 222353Z 10006KT 10SM BKN025 OVC038 05/02 A2946 RMK AO2 SLP985 60008 T00500017 10056 20033 56023 $=
201512222253 METAR KBLI 222253Z 13009KT 10SM SCT013 BKN023 OVC070 05/02 A2948 RMK AO2 RAE02 SLP991 P0000 T00500022 $=
201512222153 METAR KBLI 222153Z 13006KT 10SM -RA SCT017 BKN031 OVC065 04/02 A2950 RMK AO2 SLP997 P0003 T00440022 $=
201512222053 METAR KBLI 222053Z 13006KT 9SM -RA BKN016 OVC023 04/02 A2953 RMK AO2 SLP009 P0004 60005 T00390022 58010=
201512221953 METAR KBLI 221953Z 15006KT 9SM -RA BKN013 OVC029 04/03 A2955 RMK AO2 RAB52 SLP015 P0000 T00440028=
201512221853 METAR KBLI 221853Z 15006KT 10SM OVC011 05/03 A2956 RMK AO2 SLP018 P0001 T00500028=
201512221753 METAR KBLI 221753Z 15007KT 10SM BKN013 OVC036 04/03 A2956 RMK AO2 RAB25E44 SLP019 P0000 60000 T00440028 10044 20017 53012=
201512221653 METAR KBLI 221653Z 15003KT 10SM SCT042 OVC050 03/02 A2955 RMK AO2 SLP014 T00330022=
201512221622 SPECI KBLI 221622Z 00000KT 10SM FEW024 OVC046 03/02 A2954 RMK AO2=
201512221553 METAR KBLI 221553Z 00000KT 10SM OVC024 03/02 A2954 RMK AO2 SLP011 T00280022=
201512221520 SPECI KBLI 221520Z 00000KT 10SM OVC028 03/02 A2953 RMK AO2=
201512221453 METAR KBLI 221453Z 13003KT 10SM BKN031 02/01 A2952 RMK AO2 SLP007 60000 T00220011 52007=
201512221353 METAR KBLI 221353Z AUTO 17004KT 10SM SCT043 02/01 A2952 RMK AO2 SLP004 T00220011 $=
201512221253 METAR KBLI 221253Z AUTO 16004KT 10SM SCT021 BKN038 03/02 A2951 RMK AO2 RAE11 SLP002 P0000 T00280022 $=
201512221246 SPECI KBLI 221246Z AUTO 15004KT 10SM SCT019 SCT024 BKN036 03/02 A2951 RMK AO2 RAE11 P0000 $=
201512221153 METAR KBLI 221153Z AUTO 00000KT 10SM -RA SCT017 BKN022 OVC050 03/02 A2950 RMK AO2 SLP999 P0004 60032 70034 T00330022 10044 20028 53018 $=
201512221140 SPECI KBLI 221140Z AUTO 14003KT 10SM -RA BKN020 BKN031 OVC041 03/02 A2950 RMK AO2 P0004 $=
201512221131 SPECI KBLI 221131Z AUTO 15003KT 10SM SCT023 BKN034 OVC050 03/02 A2949 RMK AO2 RAE30 P0004 $=
201512221053 METAR KBLI 221053Z AUTO 17003KT 10SM -RA BKN020 OVC026 03/02 A2949 RMK AO2 RAE05B31 SLP993 P0003 T00330022 $=
201512220953 METAR KBLI 220953Z AUTO 16005KT 10SM -RA OVC017 03/02 A2946 RMK AO2 SLP986 P0001 T00280017 $=
201512220931 SPECI KBLI 220931Z AUTO 15005KT 10SM -RA BKN017 BKN023 OVC030 03/02 A2946 RMK AO2 P0001 $=
201512220916 SPECI KBLI 220916Z AUTO 16003KT 10SM -RA SCT010 SCT022 OVC030 03/02 A2945 RMK AO2 P0000 $=
201512220853 METAR KBLI 220853Z AUTO 00000KT 10SM -RA OVC010 03/02 A2945 RMK AO2 CIG 007V013 SLP981 P0004 60024 T00280022 51018 $=
201512220827 SPECI KBLI 220827Z AUTO 18003KT 10SM -RA BKN010 OVC023 03/02 A2944 RMK AO2 P0003 $=
201512220753 METAR KBLI 220753Z AUTO 17004KT 8SM -RA FEW008 OVC021 03/02 A2943 RMK AO2 SLP976 P0008 T00280022 400610028 $=
201512220740 SPECI KBLI 220740Z AUTO 17005KT 8SM -RA FEW008 OVC019 03/02 A2943 RMK AO2 P0007 $=
201512220733 SPECI KBLI 220733Z AUTO 17007KT 7SM RA BKN008 OVC017 03/02 A2943 RMK AO2 P0006 $=
201512220700 SPECI KBLI 220700Z AUTO 19005KT 10SM -RA FEW008 BKN014 OVC020 04/02 A2941 RMK AO2 P0001 $=
201512220653 METAR KBLI 220653Z AUTO 10SM -RA OVC018 04/02 A2941 RMK AO2 SLP968 P0012 T00390022 $=
201512220619 SPECI KBLI 220619Z 4SM RA BR SCT008 BKN015 OVC020 04/03 A2940 RMK AO2 P0005 $=
201512220553 METAR KBLI 220553Z 00000KT 10SM -RA OVC022 04/04 A2939 RMK AO2 SLP962 P0002 60002 T00440039 10061 20033 51009=
201512220453 METAR KBLI 220453Z 16003KT 10SM -RA BKN024 BKN042 OVC055 05/04 A2939 RMK AO2 RAE0359B15 SLP960 P0000 T00500039=
201512220353 METAR KBLI 220353Z VRB03KT 10SM -RA SCT024 BKN029 OVC037 06/03 A2938 RMK AO2 RAB44 SLP958 P0000 T00610028=
201512220253 METAR KBLI 220253Z 00000KT 10SM BKN018 OVC028 04/03 A2937 RMK AO2 RAB36E50 SLP953 P0000 60000 T00440028 51026=
201512220200 SPECI KBLI 220200Z 00000KT 10SM BKN019 OVC024 03/02 A2935 RMK AO2=
201512220153 METAR KBLI 220153Z 00000KT 10SM SCT019 BKN080 03/02 A2935 RMK AO2 SLP946 T00330017=
201512220146 SPECI KBLI 220146Z 00000KT 10SM BKN019 BKN080 03/01 A2934 RMK AO2=
201512220053 METAR KBLI 220053Z 00000KT 10SM BKN100 05/02 A2931 RMK AO2 SLP935 T00500017=
201512212353 METAR KBLI 212353Z 00000KT 10SM FEW055 OVC080 06/02 A2929 RMK AO2 SLP926 T00560017 10056 20039 53023=
201512212253 METAR KBLI 212253Z 29003KT 10SM BKN060 OVC080 06/02 A2926 RMK AO2 SLP915 T00560017=
201512212153 METAR KBLI 212153Z 33005KT 10SM BKN055 OVC070 06/01 A2922 RMK AO2 SLP903 T00560011=
201512212053 METAR KBLI 212053Z 35008KT 10SM OVC070 05/01 A2922 RMK AO2 SLP904 T00500011 56029=
201512211953 METAR KBLI 211953Z 36007KT 10SM OVC050 04/01 A2925 RMK AO2 SLP912 T00440011=
201512211853 METAR KBLI 211853Z 01009KT 10SM OVC070 04/01 A2928 RMK AO2 SLP923 T00440011=
201512211753 METAR KBLI 211753Z 02007KT 10SM OVC100 04/01 A2931 RMK AO2 SLP932 T00390011 10056 20033 56054=
201512211653 METAR KBLI 211653Z 01007KT 10SM BKN050 OVC100 04/02 A2934 RMK AO2 SLP945 T00390017=
201512211553 METAR KBLI 211553Z 01006KT 10SM BKN036 OVC055 04/02 A2940 RMK AO2 PRESFR SLP963 T00390022=
201512211509 SPECI KBLI 211509Z 01005KT 10SM BKN033 OVC043 04/02 A2945 RMK AO2=
201512211453 METAR KBLI 211453Z 02004KT 10SM OVC029 04/02 A2947 RMK AO2 SLP986 T00440022 56032=
201512211449 SPECI KBLI 211449Z 02003KT 10SM OVC029 04/02 A2947 RMK AO2=
201512211425 SPECI KBLI 211425Z AUTO 03003KT 10SM OVC031 04/02 A2949 RMK AO2=
201512211353 METAR KBLI 211353Z AUTO 02004KT 10SM BKN029 OVC036 05/02 A2952 RMK AO2 SLP004 T00500022=
201512211253 METAR KBLI 211253Z AUTO 12010KT 10SM BKN023 BKN060 OVC085 06/02 A2956 RMK AO2 SLP018 T00560017=
201512211153 METAR KBLI 211153Z AUTO 15009KT 10SM OVC017 06/03 A2960 RMK AO2 SLP031 70021 T00560028 10061 20056 58032=
201512211053 METAR KBLI 211053Z AUTO 14009KT 10SM OVC019 06/03 A2964 RMK AO2 SLP044 T00610028=
201512210953 METAR KBLI 210953Z AUTO 14009KT 10SM BKN018 BKN025 OVC030 06/03 A2966 RMK AO2 SLP053 T00610028=
201512210913 SPECI KBLI 210913Z AUTO 13008KT 10SM BKN020 BKN065 OVC095 06/03 A2968 RMK AO2=
201512210853 METAR KBLI 210853Z AUTO 14010KT 10SM SCT065 BKN100 06/02 A2970 RMK AO2 SLP064 T00560022 58015=
201512210753 METAR KBLI 210753Z AUTO 15012KT 10SM SCT042 BKN075 OVC110 06/02 A2972 RMK AO2 SLP071 T00610022 400830050=
201512210653 METAR KBLI 210653Z AUTO 16007KT 10SM FEW035 BKN060 OVC080 06/03 A2973 RMK AO2 SLP075 T00610028=
201512210628 SPECI KBLI 210628Z AUTO 16011G19KT 10SM FEW031 BKN041 BKN095 06/03 A2973 RMK AO2=
201512210555 SPECI KBLI 210555Z 16010G17KT 10SM BKN028 OVC100 06/03 A2974 RMK AO2=
201512210553 METAR KBLI 210553Z 16011G17KT 10SM BKN024 BKN030 06/03 A2974 RMK AO2 SLP078 60007 T00560033 10067 20050 53006=
201512210453 METAR KBLI 210453Z 17013G21KT 10SM BKN027 BKN034 06/03 A2973 RMK AO2 SLP076 P0001 T00610033=
201512210353 METAR KBLI 210353Z 17009KT 10SM BKN025 BKN070 OVC080 06/04 A2972 RMK AO2 SLP072 T00610039=
201512210253 METAR KBLI 210253Z 18005KT 10SM BKN021 BKN042 OVC050 06/03 A2972 RMK AO2 RAE36 SLP072 P0000 60006 T00610028 51008=
201512210153 METAR KBLI 210153Z 18005KT 10SM -RA BKN017 BKN024 OVC042 06/03 A2972 RMK AO2 RAB03 SLP071 P0003 T00560033=
201512210053 METAR KBLI 210053Z VRB05KT 10SM BKN017 BKN021 OVC034 06/04 A2971 RMK AO2 RAB06E42 SLP068 P0003 T00610039=
201512210020 SPECI KBLI 210020Z 18007KT 8SM -RA SCT017 BKN022 OVC070 07/04 A2971 RMK AO2 RAB06 P0002=
201512202353 METAR KBLI 202353Z 17010KT 10SM SCT022 SCT090 OVC110 07/03 A2970 RMK AO2 SLP064 60004 T00670033 10072 20056 53012=
201512202253 METAR KBLI 202253Z 17006KT 10SM FEW020 SCT028 OVC085 07/04 A2968 RMK AO2 RAB15E29 SLP060 P0000 T00670039=
201512202153 METAR KBLI 202153Z 16012G17KT 10SM FEW022 SCT028 BKN040 06/04 A2967 RMK AO2 RAE2057 SLP054 P0000 T00610044=
201512202053 METAR KBLI 202053Z 15012G20KT 9SM -RA FEW016 BKN021 OVC032 06/04 A2966 RMK AO2 RAB17 SLP052 P0004 60004 T00610039 53008=
201512202031 SPECI KBLI 202031Z 16010G20KT 6SM RA BR FEW014 BKN022 OVC035 06/04 A2967 RMK AO2 RAB17 P0001=
201512201953 METAR KBLI 201953Z 17008KT 10SM FEW045 BKN065 OVC110 07/03 A2965 RMK AO2 SLP050 T00670033=
201512201853 METAR KBLI 201853Z 16011G18KT 10SM SCT023 06/04 A2965 RMK AO2 SLP047 T00610039=
201512201753 METAR KBLI 201753Z 16012G19KT 10SM FEW022 07/03 A2964 RMK AO2 SLP044 60010 T00670033 10072 20056 51019=
201512201727 SPECI KBLI 201727Z 16010KT 10SM SCT022 06/03 A2964 RMK AO2=
201512201653 METAR KBLI 201653Z 15008KT 10SM FEW011 OVC021 06/04 A2963 RMK AO2 RAB16E30 SLP042 P0000 T00560039=
201512201553 METAR KBLI 201553Z 16013G20KT 10SM OVC026 06/03 A2961 RMK AO2 PK WND 16028/1505 SLP034 P0001 T00610033=
201512201453 METAR KBLI 201453Z 16015G23KT 10SM BKN018 BKN024 OVC028 06/04 A2958 RMK AO2 PK WND 14030/1358 RAE52 SLP026 P0006 60009 T00610039 53018=
201512201353 METAR KBLI 201353Z AUTO 16019G35KT 9SM -RA FEW023 OVC027 06/03 A2956 RMK AO2 PK WND 14039/1300 SLP019 P0003 T00610033=
201512201253 METAR KBLI 201253Z AUTO 15017G31KT 10SM -RA SCT030 BKN055 OVC070 07/03 A2954 RMK AO2 PK WND 15040/1156 RAE21B47 SLP011 P0000 T00720028=
201512201153 METAR KBLI 201153Z AUTO 15028G44KT 10SM -RA FEW029 OVC045 07/02 A2953 RMK AO2 PK WND 14044/1153 RAB28 SLP008 P0000 60000 70001 T00720022 10083 20072 56034=
201512201053 METAR KBLI 201053Z AUTO 15019G32KT 10SM FEW033 BKN080 OVC100 08/02 A2957 RMK AO2 PK WND 14042/1011 SLP021 T00780017=
201512200953 METAR KBLI 200953Z AUTO 15018G33KT 10SM SCT036 BKN090 OVC110 08/02 A2959 RMK AO2 PK WND 15033/0950 SLP028 T00780017=
201512200853 METAR KBLI 200853Z AUTO 14022G29KT 10SM FEW034 SCT090 OVC120 08/02 A2963 RMK AO2 PK WND 14032/0838 SLP042 T00780017 58031=
201512200753 METAR KBLI 200753Z AUTO 14024G34KT 10SM FEW032 BKN090 BKN120 08/02 A2967 RMK AO2 PK WND 15034/0746 SLP056 T00780017 400830006=
201512200653 METAR KBLI 200653Z AUTO 14020G33KT 10SM BKN034 OVC110 08/02 A2970 RMK AO2 PK WND 13033/0649 SLP065 T00780017=
201512200553 METAR KBLI 200553Z 14024G32KT 10SM OVC032 08/02 A2972 RMK AO2 PK WND 14032/0553 SLP073 60001 T00780017 10083 20072 58016=
201512200453 METAR KBLI 200453Z 14018G27KT 10SM OVC030 08/02 A2974 RMK AO2 PK WND 15031/0442 SLP079 T00780017=
201512200438 SPECI KBLI 200438Z 14017G27KT 10SM OVC030 08/02 A2975 RMK AO2 PK WND 14030/0415=
201512200353 METAR KBLI 200353Z 15021G31KT 10SM OVC028 08/02 A2976 RMK AO2 PK WND 15033/0340 SLP087 T00780017=
201512200302 SPECI KBLI 200302Z 14018G30KT 10SM OVC028 08/02 A2977 RMK AO2 PK WND 14030/0257=
201512200253 METAR KBLI 200253Z 15017G30KT 10SM OVC030 08/02 A2977 RMK AO2 PK WND 14033/0241 SLP090 60001 T00780022 58008=
201512200153 METAR KBLI 200153Z 15013G29KT 10SM OVC032 08/02 A2979 RMK AO2 PK WND 14029/0148 SLP096 T00780022=
201512200053 METAR KBLI 200053Z 15018G24KT 10SM BKN032 OVC085 08/02 A2979 RMK AO2 PK WND 14029/0016 SLP096 P0001 T00780022=
201512192353 METAR KBLI 192353Z 15018G28KT 10SM SCT030 BKN085 OVC110 08/02 A2979 RMK AO2 PK WND 14028/2350 SLP098 T00780017 10083 20061 56012=
201512192253 METAR KBLI 192253Z 16013G17KT 10SM BKN030 BKN090 08/02 A2980 RMK AO2 SLP100 T00780022=
201512192153 METAR KBLI 192153Z 16013KT 10SM OVC030 08/02 A2980 RMK AO2 SLP101 T00830022=
201512192120 SPECI KBLI 192120Z 14012G16KT 10SM BKN030 OVC095 08/03 A2981 RMK AO2=
201512192053 METAR KBLI 192053Z 16010G19KT 10SM BKN028 08/02 A2983 RMK AO2 SLP109 T00780022 58013=
201512191953 METAR KBLI 191953Z 16009G28KT 10SM OVC026 07/03 A2985 RMK AO2 PK WND 16028/1945 SLP116 T00720028=
201512191853 METAR KBLI 191853Z 15015KT 10SM FEW014 BKN023 07/02 A2987 RMK AO2 SLP123 T00670022=
201512191753 METAR KBLI 191753Z 14012KT 10SM FEW032 07/02 A2986 RMK AO2 SLP122 T00670022 10067 20006 51004=
201512191734 SPECI KBLI 191734Z 15009KT 10SM SCT032 07/02 A2987 RMK AO2=
201512191653 METAR KBLI 191653Z 14008KT 10SM BKN029 OVC036 06/03 A2986 RMK AO2 SLP122 T00610028=
201512191553 METAR KBLI 191553Z 14005KT 10SM OVC021 04/02 A2986 RMK AO2 SLP120 T00390017=
201512191453 METAR KBLI 191453Z 00000KT 10SM OVC021 02/01 A2985 RMK AO2 SLP117 T00170006 53003=
201512191353 METAR KBLI 191353Z AUTO 35004KT 10SM OVC023 01/00 A2985 RMK AO2 SLP116 T00110000=
201512191327 SPECI KBLI 191327Z AUTO 00000KT 10SM BKN025 OVC038 01/01 A2984 RMK AO2=
201512191253 METAR KBLI 191253Z AUTO 34003KT 10SM BKN036 OVC090 01/M01 A2984 RMK AO2 SLP114 T00061006=
201512191153 METAR KBLI 191153Z AUTO 14003KT 10SM OVC095 02/01 A2984 RMK AO2 SLP114 70025 T00170011 10044 20011 50000=
201512191053 METAR KBLI 191053Z AUTO 00000KT 10SM SCT030 OVC100 02/02 A2984 RMK AO2 SLP115 T00220017=
201512191013 SPECI KBLI 191013Z AUTO 13003KT 10SM FEW023 BKN030 BKN037 03/02 A2984 RMK AO2=
201512190953 METAR KBLI 190953Z AUTO 15003KT 10SM BKN024 OVC034 02/01 A2984 RMK AO2 SLP114 T00220011=
201512190909 SPECI KBLI 190909Z AUTO 00000KT 10SM BKN026 BKN036 OVC090 02/01 A2984 RMK AO2=
201512190853 METAR KBLI 190853Z AUTO 00000KT 10SM FEW024 BKN034 OVC090 02/01 A2984 RMK AO2 SLP114 T00170006 52002=
201512190753 METAR KBLI 190753Z AUTO 01003KT 10SM OVC030 01/01 A2984 RMK AO2 SLP114 T00110006 400830011=
201512190653 METAR KBLI 190653Z AUTO 14005KT 10SM FEW038 SCT060 04/02 A2984 RMK AO2 SLP112 T00440022=
201512190553 METAR KBLI 190553Z 12003KT 10SM CLR 03/02 A2984 RMK AO2 SLP111 60017 T00330017 10067 20022 51006=
201512190453 METAR KBLI 190453Z 00000KT 10SM CLR 03/02 A2984 RMK AO2 SLP112 T00280017=
201512190353 METAR KBLI 190353Z 14004KT 10SM CLR 03/01 A2983 RMK AO2 SLP111 T00280011=
201512190253 METAR KBLI 190253Z 12007KT 10SM BKN055 BKN110 03/02 A2982 RMK AO2 SLP106 60017 T00330022 51012=
201512190153 METAR KBLI 190153Z 12008KT 10SM FEW041 SCT085 OVC110 04/03 A2981 RMK AO2 RAE12 SLP104 P0002 T00440028=
201512190118 SPECI KBLI 190118Z 12004KT 10SM FEW018 SCT028 OVC043 05/03 A2981 RMK AO2 RAE12 P0002=
201512190053 METAR KBLI 190053Z 00000KT 3SM RA BR BKN021 OVC026 05/03 A2981 RMK AO2 RAB01 SLP102 P0015 T00500033=
201512182353 METAR KBLI 182353Z 24003KT 10SM BKN019 OVC032 06/03 A2978 RMK AO2 RAB34E51 SLP095 P0003 60003 T00610033 10083 20056 53018=
201512182346 SPECI KBLI 182346Z 26005KT 9SM -RA BKN019 BKN035 OVC047 06/03 A2978 RMK AO2 RAB34 P0003=
201512182253 METAR KBLI 182253Z 16008KT 10SM SCT075 08/04 A2976 RMK AO2 RAB20E29 SLP087 P0000 T00780044=
201512182153 METAR KBLI 182153Z 16008KT 10SM SCT033 BKN046 OVC060 08/04 A2975 RMK AO2 SLP083 T00780044=
201512182053 METAR KBLI 182053Z 16006KT 10SM FEW023 08/04 A2973 RMK AO2 SLP075 T00830044 51017=
201512181953 METAR KBLI 181953Z 17010KT 10SM FEW012 SCT027 BKN050 08/04 A2972 RMK AO2 SLP073 T00830044=
201512181853 METAR KBLI 181853Z 19006KT 10SM SCT027 BKN035 08/05 A2970 RMK AO2 SLP067 T00780050=
201512181753 METAR KBLI 181753Z 17008KT 10SM FEW025 BKN060 OVC090 08/05 A2968 RMK AO2 SLP060 60005 T00830050 10083 20028 53040=
201512181653 METAR KBLI 181653Z 17007KT 10SM FEW012 SCT025 BKN038 08/04 A2964 RMK AO2 SLP046 T00780044=
201512181553 METAR KBLI 181553Z 17005KT 10SM FEW012 SCT025 BKN032 08/04 A2960 RMK AO2 SLP033 T00780044=
201512181520 SPECI KBLI 181520Z 17009KT 10SM FEW017 BKN085 07/04 A2958 RMK AO2=
201512181453 METAR KBLI 181453Z 17010G16KT 10SM FEW012 BKN017 BKN085 07/04 A2956 RMK AO2 PRESRR SLP020 60005 T00720044 53035=
201512181423 SPECI KBLI 181423Z AUTO 16009G17KT 10SM FEW012 SCT017 BKN085 07/05 A2953 RMK AO2=
201512181353 METAR KBLI 181353Z AUTO 17009G17KT 10SM FEW009 BKN017 OVC065 07/05 A2952 RMK AO2 RAB13E46 SLP006 P0001 T00670050=
201512181303 SPECI KBLI 181303Z AUTO 17012G18KT 10SM SCT003 BKN016 OVC050 07/05 A2949 RMK AO2 PRESRR=
201512181253 METAR KBLI 181253Z AUTO 18008KT 10SM BKN003 BKN016 OVC038 05/04 A2948 RMK AO2 RAE51 PRESRR SLP990 P0004 T00500044=
201512181248 SPECI KBLI 181248Z AUTO 15004KT 10SM -RA BKN003 BKN007 OVC030 04/04 A2946 RMK AO2 P0004=
201512181231 SPECI KBLI 181231Z AUTO 11006KT 4SM -RA BR BKN007 OVC023 03/02 A2945 RMK AO2 P0004=
201512181222 SPECI KBLI 181222Z AUTO 00000KT 4SM -RA BR BKN010 OVC013 03/03 A2947 RMK AO2 P0004=
201512181153 METAR KBLI 181153Z AUTO 12003KT 10SM -RA BKN015 OVC044 03/02 A2946 RMK AO2 SLP985 P0007 60039 70103 T00280022 10033 20022 50019=
201512181053 METAR KBLI 181053Z AUTO 33007KT 6SM RA BR FEW006 OVC016 03/02 A2947 RMK AO2 SLP987 P0013 T00280017=
201512181015 SPECI KBLI 181015Z AUTO 33006KT 10SM -RA FEW006 OVC014 03/02 A2941 RMK AO2 P0001=
201512180953 METAR KBLI 180953Z AUTO 33006KT 10SM -RA FEW006 BKN017 OVC024 03/02 A2941 RMK AO2 SLP967 P0006 T00280017=
201512180948 SPECI KBLI 180948Z AUTO 31007KT 10SM -RA FEW006 BKN017 OVC024 03/02 A2940 RMK AO2 P0006=
201512180853 METAR KBLI 180853Z AUTO 01006KT 8SM RA BKN020 OVC026 03/02 A2943 RMK AO2 RAB0758 PRESFR SLP976 P0008 60013 T00330022 56026=
201512180753 METAR KBLI 180753Z AUTO 02005KT 10SM OVC024 03/02 A2947 RMK AO2 RAE29 SLP988 P0000 T00330022 400390011=
201512180653 METAR KBLI 180653Z AUTO 02008KT 10SM -RA OVC028 03/02 A2947 RMK AO2 SLP988 P0005 T00280017=
201512180553 METAR KBLI 180553Z 02006KT 5SM -RA BR OVC028 03/02 A2951 RMK AO2 SLP002 P0005 60024 T00280017 10028 20017 58032=
201512180453 METAR KBLI 180453Z 03006KT 5SM -RA BR BKN028 OVC032 03/02 A2955 RMK AO2 SLP014 P0004 T00280022=
201512180353 METAR KBLI 180353Z 05004KT 5SM -RA BR BKN025 OVC032 03/02 A2958 RMK AO2 SLP024 P0005 T00280022=
201512180253 METAR KBLI 180253Z 02006KT 5SM -RA BR OVC028 02/01 A2961 RMK AO2 RAB11 SLP035 P0005 60010 T00220011 55022=
201512180153 METAR KBLI 180153Z 02009KT 5SM BR BKN025 OVC032 03/01 A2960 RMK AO2 RAE40 SLP032 P0001 T00280011=
201512180053 METAR KBLI 180053Z 02009KT 5SM -RA BR BKN025 OVC032 02/01 A2964 RMK AO2 SLP047 P0004 T00220011=
201512172353 METAR KBLI 172353Z 02010G16KT 5SM -RA BR BKN023 OVC031 02/01 A2967 RMK AO2 SLP057 P0006 60037 T00170006 10028 20017 58020=
201512172253 METAR KBLI 172253Z 02008G16KT 3SM -RA BR BKN015 OVC025 02/01 A2970 RMK AO2 SLP065 P0003 T00170011=
201512172153 METAR KBLI 172153Z 02012KT 6SM -RA BR OVC025 02/01 A2972 RMK AO2 SLP073 P0005 T00170006=
201512172053 METAR KBLI 172053Z 02011KT 10SM -RA OVC027 02/01 A2973 RMK AO2 SLP077 P0003 60023 T00170006 58021=
201512171953 METAR KBLI 171953Z 02009G15KT 4SM -RA BR SCT022 OVC027 02/00 A2975 RMK AO2 SLP083 P0011 T00170000=
201512171853 METAR KBLI 171853Z 02008KT 3SM -RA BR OVC026 02/M01 A2979 RMK AO2 SLP097 P0009 T00171006=
201512171823 SPECI KBLI 171823Z 01008KT 3SM RA OVC028 02/M01 A2980 RMK AO2 P0005=
201512171753 METAR KBLI 171753Z 36006KT 6SM -RA OVC036 02/M01 A2980 RMK AO2 RAB04 SLP099 P0003 60003 T00221011 10039 20022 55008=
201512171653 METAR KBLI 171653Z 02007KT 10SM FEW035 OVC046 03/M03 A2979 RMK AO2 RAE39 SLP098 P0000 T00331028=
201512171553 METAR KBLI 171553Z 02009KT 10SM -RA OVC050 03/M03 A2981 RMK AO2 RAB53 SLP106 P0000 T00331033=
201512171453 METAR KBLI 171453Z 03009KT 10SM OVC085 03/M04 A2982 RMK AO2 SLP106 T00331039 58034=
201512171353 METAR KBLI 171353Z AUTO 04005KT 10SM OVC085 03/M04 A2986 RMK AO2 SLP120 T00331039=
201512171253 METAR KBLI 171253Z AUTO 03009KT 10SM OVC085 03/M04 A2988 RMK AO2 SLP129 T00281039=
201512171153 METAR KBLI 171153Z AUTO 02009KT 10SM FEW050 OVC100 03/M04 A2992 RMK AO2 SLP140 T00281039 10028 20006 58037=
201512171053 METAR KBLI 171053Z AUTO 03009KT 10SM OVC055 03/M03 A2997 RMK AO2 SLP156 T00281033=
201512170953 METAR KBLI 170953Z AUTO 03008KT 10SM BKN048 BKN110 02/M03 A2999 RMK AO2 SLP165 T00221033=
201512170853 METAR KBLI 170853Z AUTO 02006KT 10SM CLR 01/M03 A3003 RMK AO2 SLP177 T00111028 58021=
201512170753 METAR KBLI 170753Z AUTO 03005KT 10SM CLR 01/M02 A3006 RMK AO2 SLP187 T00111022 400611017=
201512170653 METAR KBLI 170653Z AUTO 04003KT 10SM CLR 01/M02 A3009 RMK AO2 SLP198 T00061022=
201512170553 METAR KBLI 170553Z 02006KT 10SM CLR 01/M02 A3009 RMK AO2 SLP199 T00061022 10022 21017 58025=
201512170453 METAR KBLI 170453Z 01004KT 10SM CLR 00/M02 A3013 RMK AO2 SLP212 T00001017=
201512170353 METAR KBLI 170353Z 02005KT 10SM CLR M01/M02 A3014 RMK AO2 SLP218 T10111022=
201512170253 METAR KBLI 170253Z 02005KT 10SM CLR M01/M02 A3016 RMK AO2 SLP225 T10061022 58016=
201512170153 METAR KBLI 170153Z 00000KT 9SM CLR M01/M01 A3018 RMK AO2 SLP230 T10061011=
201512170053 METAR KBLI 170053Z 00000KT 10SM CLR 00/M01 A3020 RMK AO2 SLP235 T00001006=
201512162353 METAR KBLI 162353Z 00000KT 10SM CLR 02/01 A3021 RMK AO2 SLP239 T00220011 10061 20017 58012=
201512162253 METAR KBLI 162253Z 00000KT 10SM CLR 04/01 A3022 RMK AO2 SLP244 T00440011=
201512162153 METAR KBLI 162153Z 02003KT 10SM CLR 06/00 A3024 RMK AO2 SLP251 T00560000=
201512162053 METAR KBLI 162053Z 00000KT 10SM CLR 06/00 A3024 RMK AO2 SLP251 T00610000 56004=
201512161953 METAR KBLI 161953Z 01003KT 10SM CLR 06/01 A3024 RMK AO2 SLP251 T00560011=
201512161853 METAR KBLI 161853Z 05003KT 10SM CLR 04/02 A3025 RMK AO2 SLP253 T00390017=
201512161753 METAR KBLI 161753Z 08003KT 10SM CLR 02/01 A3026 RMK AO2 SLP254 T00220011 10022 20000 53008=
201512161653 METAR KBLI 161653Z 02003KT 10SM CLR 01/01 A3024 RMK AO2 SLP250 T00110006=
201512161553 METAR KBLI 161553Z 00000KT 5SM BR SCT004 01/00 A3023 RMK AO2 SLP246 T00060000=
201512161551 SPECI KBLI 161551Z 00000KT 6SM BR SCT004 01/00 A3023 RMK AO2=
201512161517 SPECI KBLI 161517Z 32004KT 7SM BKN004 02/01 A3023 RMK AO2=
201512161510 SPECI KBLI 161510Z 33004KT 7SM SCT004 02/01 A3022 RMK AO2=
201512161453 METAR KBLI 161453Z AUTO 36005KT 6SM BR OVC004 02/01 A3023 RMK AO2 CIG 002V006 SLP245 T00170011 50014=
201512161426 SPECI KBLI 161426Z AUTO 36005KT 3SM BR OVC002 02/02 A3023 RMK AO2=
201512161401 SPECI KBLI 161401Z AUTO 32005KT 1SM R16/2200V6000FT BR VV002 02/02 A3023 RMK AO2=
201512161353 METAR KBLI 161353Z AUTO 33004KT 1/2SM R16/1800V2800FT FG VV002 02/02 A3023 RMK AO2 SLP245 T00170017=
201512161315 SPECI KBLI 161315Z AUTO 32004KT 1/4SM R16/1400V1600FT FG VV002 02/01 A3022 RMK AO2=
201512161253 METAR KBLI 161253Z AUTO 32005KT 1/4SM R16/1400V1600FT FG VV001 01/01 A3021 RMK AO2 SLP238 T00110011=
201512161213 SPECI KBLI 161213Z AUTO 32005KT 1/4SM R16/1200FT FG VV001 01/01 A3019 RMK AO2=
201512161201 SPECI KBLI 161201Z AUTO 33005KT 1/2SM R16/1600VP6000FT FG VV001 02/01 A3019 RMK AO2=
201512161158 SPECI KBLI 161158Z AUTO 32005KT 1SM R16/1800VP6000FT BR VV001 02/01 A3018 RMK AO2=
201512161153 METAR KBLI 161153Z AUTO 33004KT 1 3/4SM BR SCT002 01/01 A3018 RMK AO2 SLP231 60003 70019 T00110006 10039 20006 51005=
201512161146 SPECI KBLI 161146Z AUTO 33003KT 1 1/4SM R16/6000VP6000FT BR FEW002 01/00 A3018 RMK AO2=
201512161128 SPECI KBLI 161128Z AUTO 00000KT 3/4SM R16/4500VP6000FT BR VV002 01/01 A3018 RMK AO2=
201512161123 SPECI KBLI 161123Z AUTO 00000KT 1 3/4SM BR FEW044 02/01 A3018 RMK AO2=
201512161053 METAR KBLI 161053Z AUTO 00000KT 9SM FEW017 SCT029 OVC038 02/01 A3018 RMK AO2 SLP230 T00220011=
201512161024 SPECI KBLI 161024Z AUTO 00000KT 9SM BKN017 BKN034 03/02 A3018 RMK AO2=
201512161008 SPECI KBLI 161008Z AUTO 00000KT 7SM FEW017 BKN034 02/02 A3018 RMK AO2=
201512160953 METAR KBLI 160953Z AUTO 04003KT 2 1/2SM BR BKN034 02/01 A3017 RMK AO2 SLP226 T00170011=
201512160906 SPECI KBLI 160906Z AUTO 07003KT 7SM FEW002 BKN034 OVC090 03/03 A3017 RMK AO2=
201512160853 METAR KBLI 160853Z AUTO 00000KT 5SM BR SCT002 BKN019 OVC034 03/03 A3017 RMK AO2 SLP225 60003 T00330028 50004=
201512160835 SPECI KBLI 160835Z 00000KT 6SM BR BKN002 OVC037 03/03 A3017 RMK AO2=
201512160823 SPECI KBLI 160823Z 06003KT 7SM SCT002 OVC035 03/03 A3017 RMK AO2=
201512160810 SPECI KBLI 160810Z 00000KT 7SM OVC033 03/03 A3017 RMK AO2=
201512160753 METAR KBLI 160753Z 01004KT 9SM FEW016 OVC029 03/03 A3017 RMK AO2 RAB00E43 SLP226 P0003 T00330028 400610033=
201512160733 SPECI KBLI 160733Z 36003KT 9SM -RA FEW003 BKN016 OVC025 04/03 A3017 RMK AO2 RAB00 P0003=
201512160726 SPECI KBLI 160726Z 01004KT 7SM -RA SCT003 BKN011 OVC027 04/03 A3017 RMK AO2 RAB00 P0003=
201512160714 SPECI KBLI 160714Z 34006KT 5SM -RA BR BKN003 OVC006 04/03 A3017 RMK AO2 RAB00 P0002=
201512160653 METAR KBLI 160653Z 00000KT 10SM OVC006 04/03 A3016 RMK AO2 RAE29 CIG 002V008 SLP223 P0000 T00390033=
201512160613 SPECI KBLI 160613Z 00000KT 9SM -RA OVC008 04/03 A3016 RMK AO2 CIG 007V012 P0000=
201512160553 METAR KBLI 160553Z 00000KT 10SM -RA BKN012 OVC017 04/03 A3016 RMK AO2 RAE0455B19 SLP221 P0002 60011 T00390033 10050 20039 58004=
201512160453 METAR KBLI 160453Z 12005KT 10SM -RA OVC011 04/03 A3016 RMK AO2 SLP222 P0001 T00390028=
201512160354 SPECI KBLI 160354Z 11005KT 10SM -RA OVC013 04/03 A3016 RMK AO2 P0000=
201512160353 METAR KBLI 160353Z 11005KT 10SM -RA OVC016 04/03 A3016 RMK AO2 SLP224 P0006 T00390028=
201512160253 METAR KBLI 160253Z 09003KT 10SM -RA OVC016 04/02 A3017 RMK AO2 SLP224 P0001 60002 T00390022 56009=
201512160153 METAR KBLI 160153Z 15008KT 10SM -RA BKN016 OVC028 04/03 A3017 RMK AO2 RAB21 SLP225 P0000 T00440028=
201512160053 METAR KBLI 160053Z 15007KT 10SM OVC018 04/02 A3019 RMK AO2 SLP232 P0001 T00440022=
201512152353 METAR KBLI 152353Z 16009KT 10SM OVC024 04/02 A3019 RMK AO2 RAE39 SLP233 P0000 60005 T00440022 10061 20044 56015=
201512152253 METAR KBLI 152253Z 16011G16KT 10SM -RA OVC024 04/03 A3021 RMK AO2 SLP238 P0002 T00440028=
201512152153 METAR KBLI 152153Z 16014G18KT 10SM -RA FEW018 OVC026 05/03 A3022 RMK AO2 SLP242 P0002 T00500028=
201512152053 METAR KBLI 152053Z 16012G19KT 10SM -RA FEW016 OVC028 05/03 A3024 RMK AO2 RAB00 SLP249 P0001 60001 T00500028 58016=
201512151953 METAR KBLI 151953Z 16011G19KT 10SM OVC036 06/02 A3026 RMK AO2 SLP257 T00560022=
201512151853 METAR KBLI 151853Z 17008KT 140V210 10SM OVC036 06/03 A3028 RMK AO2 SLP261 T00560033=
201512151753 METAR KBLI 151753Z 15008KT 10SM SCT019 OVC055 06/02 A3028 RMK AO2 SLP264 T00560022 10056 20039 56002=
201512151653 METAR KBLI 151653Z 15004KT 10SM OVC060 05/02 A3029 RMK AO2 SLP265 T00500022=
201512151553 METAR KBLI 151553Z 13005KT 10SM BR FEW037 OVC060 04/03 A3028 RMK AO2 SLP263 T00440028=
201512151453 METAR KBLI 151453Z 16004KT 10SM BR OVC070 04/03 A3029 RMK AO2 SLP266 T00440028 58006=
201512151353 METAR KBLI 151353Z AUTO 00000KT 10SM BR OVC070 04/03 A3030 RMK AO2 SLP270 T00390028=
201512151253 METAR KBLI 151253Z AUTO 16004KT 10SM BR OVC075 04/03 A3031 RMK AO2 SLP272 T00440028=
201512151153 METAR KBLI 151153Z AUTO 16005KT 10SM BR SCT006 OVC100 04/03 A3031 RMK AO2 SLP273 60002 70002 T00440033 10050 20033 53005=
201512151123 SPECI KBLI 151123Z AUTO 17006KT 8SM BR BKN004 04/03 A3030 RMK AO2=
201512151102 SPECI KBLI 151102Z AUTO 18004KT 10SM BR FEW004 04/03 A3030 RMK AO2=
201512151053 METAR KBLI 151053Z AUTO 19003KT 10SM BR CLR 04/03 A3030 RMK AO2 RAE0957 SLP271 P0000 T00390028=
201512151032 SPECI KBLI 151032Z AUTO 17003KT 10SM BR SCT022 04/03 A3030 RMK AO2 RAE0957 P0000=
201512151011 SPECI KBLI 151011Z AUTO 16004KT 10SM BR BKN022 BKN041 04/03 A3029 RMK AO2 RAE0957 P0000=
201512150953 METAR KBLI 150953Z AUTO 16003KT 10SM -RA BR SCT024 BKN030 OVC041 04/04 A3029 RMK AO2 RAB14 SLP267 P0001 T00440039=
201512150931 SPECI KBLI 150931Z AUTO 00000KT 10SM -RA BR BKN028 OVC038 05/04 A3029 RMK AO2 RAB14 P0001=
201512150907 SPECI KBLI 150907Z AUTO 18003KT 10SM BR FEW022 OVC033 05/03 A3029 RMK AO2=
201512150853 METAR KBLI 150853Z AUTO 00000KT 10SM BR FEW010 BKN022 OVC028 05/04 A3029 RMK AO2 RAB18E51 SLP268 P0001 60001 T00500039 51003=
201512150830 SPECI KBLI 150830Z AUTO 16005KT 7SM -RA BR FEW020 BKN026 OVC031 05/04 A3029 RMK AO2 RAB18 P0001=
201512150753 METAR KBLI 150753Z AUTO 17004KT 10SM BR OVC033 04/04 A3029 RMK AO2 SLP267 T00440039 400720017=
201512150653 METAR KBLI 150653Z AUTO 14003KT 6SM BR OVC033 04/03 A3029 RMK AO2 SLP267 T00440033=
201512150610 SPECI KBLI 150610Z 00000KT 3SM BR OVC033 03/03 A3029 RMK AO2=
201512150603 SPECI KBLI 150603Z 00000KT 2 1/2SM BR OVC033 03/03 A3029 RMK AO2=
201512150553 METAR KBLI 150553Z 00000KT 3SM BR OVC033 03/03 A3029 RMK AO2 SLP265 T00330028 10056 20017 53014=
201512150545 SPECI KBLI 150545Z 00000KT 2 1/2SM BR OVC035 03/03 A3028 RMK AO2=
201512150504 SPECI KBLI 150504Z 00000KT 3SM BR OVC035 02/02 A3027 RMK AO2=
201512150453 METAR KBLI 150453Z 00000KT 1 3/4SM BR OVC035 02/02 A3027 RMK AO2 SLP259 T00220017=
201512150440 SPECI KBLI 150440Z 00000KT 3SM BR FEW004 OVC035 02/02 A3027 RMK AO2=
201512150427 SPECI KBLI 150427Z 00000KT 2 1/2SM R16/2400VP6000FT BR SCT004 OVC035 02/02 A3026 RMK AO2=
201512150418 SPECI KBLI 150418Z 00000KT 1 1/4SM R16/1000V2400FT BR BKN004 BKN035 02/01 A3026 RMK AO2=
201512150414 SPECI KBLI 150414Z 00000KT 3/4SM R16/1000V2000FT BR BKN004 BKN035 02/01 A3026 RMK AO2=
201512150409 SPECI KBLI 150409Z 00000KT 1/2SM R16/1200V2200FT BR BKN006 BKN035 02/01 A3026 RMK AO2=
201512150403 SPECI KBLI 150403Z 00000KT 3/4SM R16/1600V5500FT BR FEW006 SCT035 02/01 A3026 RMK AO2=
201512150355 SPECI KBLI 150355Z 00000KT 1 3/4SM R16/3000VP6000FT BR FEW036 02/01 A3025 RMK AO2=
201512150353 METAR KBLI 150353Z 00000KT 4SM R16/3500VP6000FT BR FEW003 SCT036 02/01 A3025 RMK AO2 SLP254 T00220011=
201512150253 METAR KBLI 150253Z 00000KT 6SM BR FEW003 BKN033 04/04 A3024 RMK AO2 SLP250 T00440039 51016=
201512150213 SPECI KBLI 150213Z 00000KT 7SM BR SCT003 OVC031 05/04 A3024 RMK AO2=
201512150200 SPECI KBLI 150200Z 00000KT 8SM BR BKN003 OVC031 05/04 A3024 RMK AO2=
201512150153 METAR KBLI 150153Z 00000KT 6SM BR BKN005 05/04 A3024 RMK AO2 SLP248 T00500044=
201512150100 SPECI KBLI 150100Z 00000KT 10SM OVC005 05/04 A3022 RMK AO2=
201512150053 METAR KBLI 150053Z 00000KT 8SM SCT008 OVC029 05/04 A3022 RMK AO2 SLP241 T00500044=
201512150009 SPECI KBLI 150009Z 31003KT 10SM SCT008 OVC029 06/04 A3020 RMK AO2=
201512142353 METAR KBLI 142353Z 31003KT 10SM OVC010 06/04 A3020 RMK AO2 SLP233 60000 T00560044 10067 20050 51016=
201512142341 SPECI KBLI 142341Z 29003KT 10SM BKN010 OVC021 06/04 A3019 RMK AO2=
201512142310 SPECI KBLI 142310Z 00000KT 3SM BR SCT006 OVC017 05/04 A3018 RMK AO2=
201512142305 SPECI KBLI 142305Z 29004KT 4SM BR BKN006 OVC013 06/04 A3018 RMK AO2 CIG 003V009=
201512142253 METAR KBLI 142253Z 28005KT 9SM OVC004 06/04 A3018 RMK AO2 CIG 003V008 SLP228 T00560044=
201512142238 SPECI KBLI 142238Z 00000KT 5SM BR OVC004 06/04 A3017 RMK AO2 CIG 003V007=
201512142228 SPECI KBLI 142228Z 29003KT 2SM R16/6000VP6000FT BR OVC004 06/04 A3017 RMK AO2 CIG 003V007=
201512142217 SPECI KBLI 142217Z 00000KT 1 3/4SM R16/6000VP6000FT BR BKN006 OVC009 06/04 A3017 RMK AO2 CIG 003V008=
201512142208 SPECI KBLI 142208Z 00000KT 4SM BR OVC008 06/04 A3017 RMK AO2 CIG 005V011=
201512142153 METAR KBLI 142153Z 32003KT 10SM OVC010 06/04 A3016 RMK AO2 SLP222 T00610039=
201512142053 METAR KBLI 142053Z 00000KT 10SM OVC010 06/03 A3015 RMK AO2 CIG 009V013 SLP217 60000 T00610033 53006=
201512142000 SPECI KBLI 142000Z 00000KT 10SM OVC010 06/04 A3015 RMK AO2=
201512141953 METAR KBLI 141953Z 22003KT 10SM FEW014 BKN018 OVC036 06/04 A3014 RMK AO2 SLP216 T00610039=
201512141853 METAR KBLI 141853Z 17003KT 10SM SCT012 BKN018 OVC036 06/04 A3013 RMK AO2 RAE13 SLP211 P0000 T00610039=
201512141839 SPECI KBLI 141839Z 18004KT 10SM SCT012 OVC036 06/04 A3013 RMK AO2 RAE13 P0000=
201512141826 SPECI KBLI 141826Z 21003KT 10SM BKN012 BKN020 OVC036 06/04 A3012 RMK AO2 RAE13 P0000=
201512141753 METAR KBLI 141753Z 17004KT 10SM -RA OVC018 06/02 A3011 RMK AO2 RAB36 SLP206 P0000 60000 T00560022 10067 20056 52028=
201512141653 METAR KBLI 141653Z 17005KT 10SM OVC022 06/02 A3009 RMK AO2 SLP197 T00560022=
201512141553 METAR KBLI 141553Z 17007KT 10SM OVC028 06/03 A3006 RMK AO2 SLP186 T00560033=
201512141453 METAR KBLI 141453Z 16005KT 10SM OVC031 06/02 A3003 RMK AO2 SLP177 T00610017 53024=
201512141353 METAR KBLI 141353Z AUTO VRB05KT 10SM OVC033 06/02 A3000 RMK AO2 SLP168 T00560022=
201512141253 METAR KBLI 141253Z AUTO VRB03KT 10SM BKN035 OVC060 07/M01 A2998 RMK AO2 SLP161 T00671006=
201512141153 METAR KBLI 141153Z AUTO VRB04KT 10SM OVC035 07/M01 A2996 RMK AO2 SLP153 70051 T00671011 10078 20067 51028=
201512141053 METAR KBLI 141053Z AUTO VRB03KT 10SM OVC033 07/M01 A2993 RMK AO2 SLP145 T00671006=
201512140953 METAR KBLI 140953Z AUTO 27009KT 10SM FEW035 OVC065 07/00 A2990 RMK AO2 SLP132 T00670000=
201512140853 METAR KBLI 140853Z AUTO VRB06KT 10SM OVC035 07/00 A2987 RMK AO2 SLP124 T00720000 51024=
201512140753 METAR KBLI 140753Z AUTO VRB06KT 10SM OVC037 07/00 A2986 RMK AO2 SLP118 T00720000 400830050=
201512140653 METAR KBLI 140653Z AUTO 27006KT 10SM OVC065 07/00 A2983 RMK AO2 SLP109 T00720000=
201512140553 METAR KBLI 140553Z 27010G17KT 10SM BKN060 OVC080 07/01 A2980 RMK AO2 SLP100 60001 T00670006 10078 20061 51034=
201512140453 METAR KBLI 140453Z VRB04KT 10SM BKN045 OVC060 08/01 A2978 RMK AO2 SLP091 T00780011=
201512140353 METAR KBLI 140353Z 20009G14KT 160V230 10SM FEW036 SCT043 OVC049 07/04 A2973 RMK AO2 SLP076 P0001 T00720039=
201512140253 METAR KBLI 140253Z 17005KT 10SM FEW039 BKN047 OVC060 07/04 A2970 RMK AO2 SLP066 60000 T00670044 53030=
201512140153 METAR KBLI 140153Z 15006KT 10SM BKN046 BKN055 OVC065 07/04 A2967 RMK AO2 SLP055 T00670044=
201512140053 METAR KBLI 140053Z 18005KT 10SM FEW036 SCT043 OVC110 07/05 A2964 RMK AO2 RAE16 SLP046 P0000 T00670050=
201512132353 METAR KBLI 132353Z 18007KT 10SM -RA BKN040 OVC050 07/05 A2962 RMK AO2 RAE08B43 SLP036 P0000 60022 T00670050 10072 20050 53031=
201512132308 SPECI KBLI 132308Z 17006KT 10SM SCT023 BKN033 OVC070 07/05 A2959 RMK AO2 RAE08 P0000=
201512132253 METAR KBLI 132253Z 17006KT 10SM -RA FEW009 BKN025 OVC035 07/05 A2959 RMK AO2 SLP027 P0001 T00670050=
201512132210 SPECI KBLI 132210Z 17003KT 10SM -RA FEW009 OVC024 06/05 A2955 RMK AO2 P0000=
201512132153 METAR KBLI 132153Z 15005KT 10SM -RA BKN025 OVC037 06/05 A2954 RMK AO2 SLP012 P0002 T00610050=
201512132053 METAR KBLI 132053Z 16004KT 10SM -RA FEW011 SCT020 OVC029 05/04 A2952 RMK AO2 SLP005 P0016 60019 T00500044 53025=
201512132020 SPECI KBLI 132020Z 18003KT 3SM RA BR FEW009 BKN023 OVC029 06/04 A2951 RMK AO2 P0012=
201512132011 SPECI KBLI 132011Z 29005KT 1 3/4SM +RA BR SCT009 BKN017 OVC028 06/04 A2950 RMK AO2 PRESRR P0010=
201512131953 METAR KBLI 131953Z 16014G27KT 6SM -RA BR SCT013 OVC026 07/05 A2948 RMK AO2 PK WND 16027/1944 RAB11 SLP990 P0001 T00720050=
201512131853 METAR KBLI 131853Z 16013G25KT 6SM BR SCT013 OVC026 07/06 A2947 RMK AO2 PK WND 16027/1830 RAE53 SLP987 P0002 T00720056=
201512131753 METAR KBLI 131753Z 16015G27KT 6SM -RA BR BKN020 BKN044 OVC055 07/05 A2945 RMK AO2 PK WND 15028/1718 SLP980 P0001 60028 T00720050 10078 20072 53034=
201512131653 METAR KBLI 131653Z 16018G25KT 6SM -RA BR SCT013 BKN020 OVC032 07/06 A2941 RMK AO2 PK WND 15033/1626 SLP966 P0010 T00720056=
201512131553 METAR KBLI 131553Z 17021G33KT 6SM -RA BR SCT017 BKN022 OVC032 07/05 A2939 RMK AO2 PK WND 14035/1458 SLP959 P0007 T00720050=
201512131540 SPECI KBLI 131540Z 16020G27KT 7SM -RA FEW015 BKN022 OVC032 07/05 A2938 RMK AO2 PK WND 14035/1458 P0005=
201512131453 METAR KBLI 131453Z 15017G29KT 6SM -RA OVC040 07/04 A2935 RMK AO2 PK WND 14037/1414 SLP946 P0001 60010 T00720044 50006=
201512131353 METAR KBLI 131353Z AUTO 15020G32KT 10SM -RA OVC044 07/04 A2935 RMK AO2 PK WND 15032/1346 SLP947 P0003 T00720044=
201512131301 SPECI KBLI 131301Z AUTO 16022G31KT 10SM -RA FEW019 SCT029 OVC042 07/05 A2934 RMK AO2 PK WND 15030/1301 P0000=
201512131253 METAR KBLI 131253Z AUTO 16021G33KT 10SM -RA FEW019 BKN026 OVC036 07/05 A2935 RMK AO2 PK WND 14034/1210 SLP945 P0006 T00720050=
201512131246 SPECI KBLI 131246Z AUTO 16021G30KT 10SM -RA SCT019 OVC029 08/05 A2934 RMK AO2 PK WND 14034/1210 P0006=
201512131153 METAR KBLI 131153Z AUTO 16017G32KT 8SM -RA OVC035 08/04 A2933 RMK AO2 PK WND 14037/1114 SLP940 P0004 60009 70034 T00780044 10083 20078 53006=
201512131053 METAR KBLI 131053Z AUTO 15017G30KT 10SM -RA OVC048 08/04 A2931 RMK AO2 PK WND 15037/1021 SLP933 P0000 T00830044=
201512130953 METAR KBLI 130953Z AUTO 16020G31KT 10SM -RA OVC046 08/04 A2931 RMK AO2 PK WND 15033/0856 RAB31 SLP931 P0000 T00830044=
201512130853 METAR KBLI 130853Z AUTO 15017G29KT 10SM OVC046 08/04 A2931 RMK AO2 PK WND 14031/0822 RAE09 SLP934 P0000 60005 T00830044 50006=
201512130753 METAR KBLI 130753Z AUTO 16014G27KT 10SM -RA FEW023 OVC042 08/05 A2932 RMK AO2 PK WND 16027/0746 SLP935 P0002 T00780050 400891006=
201512130703 SPECI KBLI 130703Z AUTO 15019G26KT 9SM -RA FEW018 BKN035 OVC042 08/06 A2930 RMK AO2 PK WND 16026/0702 P0001=
201512130653 METAR KBLI 130653Z AUTO 17011G22KT 8SM -RA FEW018 BKN026 OVC047 08/06 A2930 RMK AO2 SLP930 P0003 T00830056=
201512130650 SPECI KBLI 130650Z AUTO 17011G22KT 9SM -RA SCT018 BKN024 OVC047 08/06 A2929 RMK AO2 P0003=
201512130553 METAR KBLI 130553Z 17013G25KT 9SM -RA FEW019 SCT028 OVC041 08/06 A2927 RMK AO2 PK WND 17031/0456 SLP919 P0003 60012 T00830061 10089 20083 53026=
201512130506 SPECI KBLI 130506Z 17016G27KT 10SM -RA SCT017 SCT027 OVC037 08/06 A2923 RMK AO2 PK WND 17031/0456 P0000=
201512130453 METAR KBLI 130453Z 17014G31KT 10SM -RA SCT017 BKN027 OVC038 08/06 A2923 RMK AO2 PK WND 17032/0359 SLP905 P0006 T00830061=
201512130444 SPECI KBLI 130444Z 17015G27KT 9SM -RA SCT017 BKN024 OVC040 08/06 A2923 RMK AO2 PK WND 17032/0359 P0005=
201512130434 SPECI KBLI 130434Z 16015G25KT 10SM -RA FEW017 SCT024 OVC040 08/06 A2922 RMK AO2 PK WND 17032/0359 P0004=
201512130402 SPECI KBLI 130402Z 16018G32KT 10SM -RA SCT017 BKN023 OVC043 09/06 A2921 RMK AO2 PK WND 17032/0359 P0000=
201512130353 METAR KBLI 130353Z 16017G31KT 10SM -RA SCT019 OVC043 09/06 A2919 RMK AO2 PK WND 14036/0313 SLP892 P0002 T00890061=
201512130349 SPECI KBLI 130349Z 16022G33KT 10SM -RA SCT017 SCT024 OVC045 09/06 A2919 RMK AO2 PK WND 14036/0313 P0002=
201512130253 METAR KBLI 130253Z 15023G35KT 9SM -RA OVC019 08/06 A2921 RMK AO2 PK WND 15035/0252 RAB24 SLP897 P0001 60001 T00830056 58015=
201512130153 METAR KBLI 130153Z 14019G26KT 10SM OVC019 08/04 A2923 RMK AO2 PK WND 14033/0114 SLP906 T00830044=
201512130053 METAR KBLI 130053Z 14019G32KT 10SM BKN025 OVC033 08/04 A2923 RMK AO2 PK WND 13038/0018 SLP907 T00830039=
201512122353 METAR KBLI 122353Z 15014G31KT 10SM BKN031 OVC038 08/03 A2925 RMK AO2 PK WND 15033/2333 RAE2257 SLP913 P0000 60012 T00830033 10083 20061 56067=
201512122253 METAR KBLI 122253Z 13012G25KT 120V180 10SM -RA SCT012 OVC039 08/04 A2929 RMK AO2 PK WND 16031/2232 SLP926 P0001 T00780039=
201512122153 METAR KBLI 122153Z 11010G18KT 8SM -RA OVC037 07/04 A2935 RMK AO2 PRESFR SLP948 P0002 T00720039=
201512122053 METAR KBLI 122053Z 10010G18KT 9SM -RA OVC036 06/03 A2945 RMK AO2 PRESFR SLP980 P0005 60009 T00610033 58077=
201512121953 METAR KBLI 121953Z 11015G24KT 10SM -RA SCT019 OVC034 06/03 A2955 RMK AO2 PK WND 14028/1900 PRESFR SLP015 P0002 T00610033=
201512121853 METAR KBLI 121853Z 13014G21KT 7SM -RA SCT029 OVC034 07/04 A2963 RMK AO2 PK WND 14026/1755 PRESFR SLP041 P0002 T00670039=
201512121753 METAR KBLI 121753Z 14015G26KT 10SM -RA FEW046 BKN060 OVC075 07/04 A2968 RMK AO2 PK WND 14026/1745 SLP058 P0000 60001 T00720039 10078 20011 56029=
201512121653 METAR KBLI 121653Z 13012G21KT 10SM -RA SCT023 BKN033 OVC042 07/04 A2971 RMK AO2 RAB11 SLP069 P0001 T00670044=
201512121553 METAR KBLI 121553Z 13015G20KT 10SM BKN026 BKN031 OVC055 08/03 A2973 RMK AO2 RAB27E43 SLP074 P0000 T00780033=
201512121453 METAR KBLI 121453Z 13008KT 10SM BKN028 OVC085 07/03 A2976 RMK AO2 SLP087 T00670033 56013=
201512121450 SPECI KBLI 121450Z 12007KT 10SM BKN028 OVC080 07/03 A2976 RMK AO2=
201512121419 SPECI KBLI 121419Z AUTO 00000KT 10SM SCT022 OVC085 03/02 A2978 RMK AO2=
201512121353 METAR KBLI 121353Z AUTO 00000KT 10SM OVC022 02/01 A2978 RMK AO2 SLP094 T00220011=
201512121330 SPECI KBLI 121330Z AUTO 00000KT 10SM BKN022 BKN036 02/01 A2979 RMK AO2=
201512121253 METAR KBLI 121253Z AUTO 00000KT 10SM BKN035 OVC075 02/01 A2980 RMK AO2 SLP100 T00170011=
201512121153 METAR KBLI 121153Z AUTO 00000KT 10SM OVC035 01/01 A2982 RMK AO2 SLP106 T00110006 10017 21006 58001=
201512121142 SPECI KBLI 121142Z AUTO 00000KT 10SM FEW026 OVC035 01/00 A2982 RMK AO2=
201512121110 SPECI KBLI 121110Z AUTO 00000KT 10SM BKN020 OVC080 00/M01 A2984 RMK AO2=
201512121053 METAR KBLI 121053Z AUTO 00000KT 10SM SCT018 OVC080 00/M01 A2984 RMK AO2 SLP114 T00001011=
201512120953 METAR KBLI 120953Z AUTO 00000KT 10SM FEW075 00/M01 A2982 RMK AO2 SLP107 T00001011=
201512120943 SPECI KBLI 120943Z AUTO 00000KT 10SM FEW001 00/M01 A2982 RMK AO2=
201512120853 METAR KBLI 120853Z AUTO 00000KT 10SM SCT015 00/M01 A2982 RMK AO2 SLP107 T00001006 51008=
201512120850 SPECI KBLI 120850Z AUTO 00000KT 10SM SCT015 BKN020 00/M01 A2982 RMK AO2=
201512120753 METAR KBLI 120753Z AUTO 00000KT 10SM CLR 01/M01 A2981 RMK AO2 SLP102 T00061006 400940000=
201512120653 METAR KBLI 120653Z AUTO 00000KT 10SM CLR 00/M01 A2979 RMK AO2 SLP098 T00001011=
201512120553 METAR KBLI 120553Z 00000KT 10SM CLR 02/01 A2977 RMK AO2 SLP090 T00170006 10072 20011 51012=
201512120453 METAR KBLI 120453Z 00000KT 10SM CLR 02/01 A2975 RMK AO2 SLP084 T00220006=
201512120353 METAR KBLI 120353Z 00000KT 10SM CLR 04/02 A2975 RMK AO2 SLP085 T00390022=
201512120253 METAR KBLI 120253Z 34003KT 10SM CLR 04/03 A2974 RMK AO2 SLP079 T00440028 53022=
201512120153 METAR KBLI 120153Z 36004KT 10SM CLR 06/03 A2972 RMK AO2 SLP070 T00560028=
201512120053 METAR KBLI 120053Z 36004KT 10SM CLR 06/03 A2969 RMK AO2 SLP063 T00610028=
201512112353 METAR KBLI 112353Z 36004KT 10SM FEW110 07/03 A2967 RMK AO2 SLP056 T00720033 10094 20056 53018=
201512112253 METAR KBLI 112253Z 01008KT 10SM CLR 08/04 A2965 RMK AO2 SLP049 T00830039=
201512112153 METAR KBLI 112153Z 36008KT 10SM CLR 09/04 A2963 RMK AO2 SLP040 T00890039=
201512112053 METAR KBLI 112053Z 02009KT 10SM CLR 08/04 A2962 RMK AO2 SLP038 T00830039 53002=
201512111953 METAR KBLI 111953Z 01007KT 10SM CLR 07/04 A2961 RMK AO2 SLP036 T00720039=
201512111853 METAR KBLI 111853Z 02009KT 10SM CLR 07/04 A2961 RMK AO2 SLP036 T00670039=
201512111753 METAR KBLI 111753Z 36005KT 10SM FEW046 06/03 A2961 RMK AO2 SLP035 T00560033 10083 20039 51016=
201512111653 METAR KBLI 111653Z 36003KT 10SM BKN046 OVC090 06/03 A2960 RMK AO2 SLP032 T00560033=
201512111555 SPECI KBLI 111555Z 00000KT 10SM SCT044 04/03 A2959 RMK AO2=
201512111553 METAR KBLI 111553Z 00000KT 10SM SCT070 04/03 A2959 RMK AO2 SLP027 T00440028=
201512111453 METAR KBLI 111453Z 02005KT 10SM BKN041 05/03 A2956 RMK AO2 SLP019 T00500028 51018=
201512111353 METAR KBLI 111353Z AUTO VRB05KT 10SM SCT037 07/02 A2955 RMK AO2 SLP013 T00720022=
201512111253 METAR KBLI 111253Z AUTO 08004KT 10SM OVC035 07/03 A2953 RMK AO2 SLP008 T00720033=
201512111153 METAR KBLI 111153Z AUTO 13007KT 10SM BKN033 08/03 A2951 RMK AO2 SLP000 70036 T00830028 10089 20078 51020=
201512111053 METAR KBLI 111053Z AUTO 13012KT 10SM FEW031 SCT120 08/03 A2949 RMK AO2 SLP995 T00780033=
201512111002 SPECI KBLI 111002Z AUTO 14014G22KT 10SM SCT029 BKN075 08/03 A2948 RMK AO2=
201512110953 METAR KBLI 110953Z AUTO 14014G22KT 10SM BKN029 BKN075 08/03 A2947 RMK AO2 SLP988 T00830033=
201512110940 SPECI KBLI 110940Z AUTO 14015G25KT 10SM BKN029 BKN075 BKN095 08/03 A2947 RMK AO2=
201512110853 METAR KBLI 110853Z AUTO 14013G21KT 10SM FEW110 09/03 A2945 RMK AO2 SLP980 T00890028 51015=
201512110753 METAR KBLI 110753Z AUTO 14015G23KT 10SM FEW032 08/03 A2944 RMK AO2 PK WND 15026/0708 SLP975 T00830028 401060067=
201512110653 METAR KBLI 110653Z AUTO 14011G21KT 10SM FEW032 09/03 A2942 RMK AO2 SLP971 T00890028=
201512110553 METAR KBLI 110553Z 14012G20KT 10SM SCT028 BKN100 08/03 A2941 RMK AO2 PK WND 14028/0454 SLP966 T00830033 10100 20083 51022=
201512110453 METAR KBLI 110453Z 15018G26KT 10SM SCT028 OVC085 09/04 A2940 RMK AO2 PK WND 14030/0410 SLP962 T00890039=
201512110353 METAR KBLI 110353Z 15016G25KT 10SM SCT026 BKN090 09/04 A2937 RMK AO2 PK WND 15026/0305 SLP953 T00890044=
201512110320 SPECI KBLI 110320Z 15014G24KT 10SM SCT026 BKN100 09/04 A2936 RMK AO2 PK WND 15026/0305=
201512110253 METAR KBLI 110253Z 15014G23KT 10SM BKN023 BKN095 09/04 A2934 RMK AO2 PK WND 15028/0216 SLP944 T00890044 51026=
201512110153 METAR KBLI 110153Z 15016G24KT 10SM SCT026 09/04 A2933 RMK AO2 PK WND 15028/0131 SLP939 T00940044=
201512110053 METAR KBLI 110053Z 15015G28KT 10SM FEW015 BKN026 09/05 A2930 RMK AO2 PK WND 12028/0046 SLP930 T00940050=
201512102353 METAR KBLI 102353Z 15017G26KT 10SM FEW015 SCT029 BKN040 09/06 A2927 RMK AO2 PK WND 15030/2316 RAB00E34 SLP918 P0003 60020 T00940056 10106 20089 51039=
201512102253 METAR KBLI 102253Z 16014G23KT 10SM SCT018 BKN055 OVC070 09/06 A2924 RMK AO2 PK WND 15029/2157 RAE35 SLP909 P0004 T00940061=
201512102200 SPECI KBLI 102200Z 16016G29KT 5SM -RA BR BKN020 BKN030 OVC037 09/07 A2921 RMK AO2 PK WND 15029/2157 P0002=
201512102153 METAR KBLI 102153Z AUTO 16014G31KT 5SM RA BR BKN020 BKN031 OVC049 09/07 A2920 RMK AO2 PK WND 14034/2106 SLP895 P0008 T00890067 TSNO=
201512102100 SPECI KBLI 102100Z 16017G27KT 8SM -RA BKN023 BKN029 OVC050 09/06 A2916 RMK AO2 PK WND 16027/2054 P0001 $=
201512102053 METAR KBLI 102053Z 15015G25KT 10SM -RA BKN030 OVC035 09/06 A2915 RMK AO2 PK WND 13045/2003 RAE23B53 PRESRR SLP879 P0003 60005 T00940056 53022 $=
201512101953 METAR KBLI 101953Z 15022G47KT 10SM -RA BKN030 OVC035 10/06 A2910 RMK AO2 PK WND 14047/1950 SLP862 P0001 T01000056 $=
201512101853 METAR KBLI 101853Z 15019G31KT 10SM -RA BKN038 OVC050 11/04 A2908 RMK AO2 SLP855 P0001 T01060044 $=
201512101753 METAR KBLI 101753Z 14024G32KT 10SM -RA BKN046 OVC055 10/04 A2909 RMK AO2 PK WND 13032/1748 RAB19 SLP857 P0001 60016 T01000044 10106 20067 56024=
201512101653 METAR KBLI 101653Z 07003KT 10SM OVC050 08/04 A2910 RMK AO2 SLP861 T00830044=
201512101553 METAR KBLI 101553Z 06007KT 10SM OVC055 08/05 A2911 RMK AO2 RAE10 SLP866 P0000 T00830050=
201512101453 METAR KBLI 101453Z 07006KT 10SM -RA OVC041 07/05 A2916 RMK AO2 PRESFR SLP881 P0001 60015 T00720050 58016=
201512101353 METAR KBLI 101353Z AUTO 12011KT 10SM -RA OVC041 07/05 A2920 RMK AO2 PK WND 14026/1320 SLP897 P0013 T00720050=
201512101253 METAR KBLI 101253Z AUTO 12010KT 10SM -RA OVC050 09/03 A2920 RMK AO2 SLP897 P0001 T00890033=
201512101153 METAR KBLI 101153Z 07006KT 10SM -RA BKN055 OVC070 09/01 A2920 RMK AO2 RAB33 SLP897 P0000 60000 70010 T00890011 10089 20061 56066=
201512101053 METAR KBLI 101053Z 03009G17KT 10SM OVC100 08/01 A2922 RMK AO2 SLP901 T00830011=
201512100953 METAR KBLI 100953Z 03010G19KT 10SM FEW120 08/01 A2929 RMK AO2 SLP927 T00780011=
201512100853 METAR KBLI 100853Z 02010KT 10SM CLR 07/02 A2940 RMK AO2 SLP963 T00720022 58077=
201512100753 METAR KBLI 100753Z 03010KT 10SM CLR 07/03 A2947 RMK AO2 SLP988 T00670028 401170056=
201512100653 METAR KBLI 100653Z 03006KT 10SM CLR 07/03 A2957 RMK AO2 SLP022 T00670033=
201512100553 METAR KBLI 100553Z 05003KT 10SM CLR 06/03 A2963 RMK AO2 SLP041 T00610033 10100 20056 58050=
201512100453 METAR KBLI 100453Z 12006KT 10SM FEW040 08/04 A2970 RMK AO2 SLP065 T00780039=
201512100353 METAR KBLI 100353Z 10003KT 10SM FEW070 08/04 A2975 RMK AO2 SLP083 T00780039=
201512100253 METAR KBLI 100253Z 11007KT 10SM BKN070 09/04 A2978 RMK AO2 SLP091 T00890044 58006=
201512100153 METAR KBLI 100153Z 00000KT 10SM BKN060 08/04 A2981 RMK AO2 SLP101 T00830039=
201512100053 METAR KBLI 100053Z 17006KT 10SM FEW070 09/04 A2980 RMK AO2 SLP099 T00890039=
201512092353 METAR KBLI 092353Z 17006KT 10SM SCT070 10/04 A2980 RMK AO2 SLP097 60000 T01000039 10111 20094 51015=
201512092253 METAR KBLI 092253Z 17006G15KT 10SM SCT070 SCT085 10/06 A2978 RMK AO2 SLP092 T01000056=
201512092153 METAR KBLI 092153Z 17012G17KT 10SM FEW032 SCT047 BKN055 10/06 A2978 RMK AO2 RAE2054 SLP090 T01000056=
201512092053 METAR KBLI 092053Z 17012G19KT 10SM -RA SCT029 BKN035 BKN048 10/06 A2975 RMK AO2 RAB40 SLP082 P0000 60000 T01000061 51034=
201512091953 METAR KBLI 091953Z 17008G17KT 10SM FEW031 BKN060 11/06 A2972 RMK AO2 SLP073 T01110061=
201512091853 METAR KBLI 091853Z 19009G21KT 10SM FEW026 10/06 A2969 RMK AO2 SLP060 T01000061=
201512091753 METAR KBLI 091753Z 19009G18KT 10SM SCT110 09/05 A2965 RMK AO2 RAE02 SLP048 P0000 60010 T00940050 10111 20089 53049=
201512091706 SPECI KBLI 091706Z 18009G18KT 160V230 10SM FEW023 BKN030 OVC080 09/06 A2961 RMK AO2 RAE02 P0000=
201512091653 METAR KBLI 091653Z 19012G29KT 7SM -RA BKN025 BKN030 OVC043 09/06 A2960 RMK AO2 PK WND 16029/1648 RAB03 SLP030 P0006 T00890061=
201512091629 SPECI KBLI 091629Z 16013G24KT 10SM -RA FEW021 BKN027 OVC049 09/06 A2956 RMK AO2 RAB03 P0000=
201512091553 METAR KBLI 091553Z 19013G34KT 160V220 10SM BKN047 BKN065 OVC080 10/05 A2954 RMK AO2 PK WND 17034/1546 RAB30E49 PRESRR SLP009 P0001 T01000050=
201512091453 METAR KBLI 091453Z AUTO 19011G22KT 10SM FEW042 SCT060 BKN110 10/04 A2950 RMK AO2 PK WND 19029/1357 RAB05E42 SLP997 P0003 60003 T01000044 51047=
201512091353 METAR KBLI 091353Z AUTO 18013G24KT 10SM SCT038 SCT045 11/05 A2947 RMK AO2 SLP986 T01110050=
201512091253 METAR KBLI 091253Z AUTO 20012G19KT 10SM FEW039 11/05 A2945 RMK AO2 PRESRR SLP978 T01110050=
201512091153 METAR KBLI 091153Z AUTO 18010G16KT 10SM BKN065 OVC095 10/07 A2936 RMK AO2 RAE41 SLP950 P0004 60031 70061 T01000067 10117 20072 50010=
201512091105 SPECI KBLI 091105Z AUTO VRB06G20KT 9SM RA FEW008 OVC050 11/09 A2940 RMK AO2 PRESRR P0002=
201512091053 METAR KBLI 091053Z AUTO 17012G19KT 10SM -RA SCT010 OVC048 10/09 A2938 RMK AO2 PK WND 16027/1026 SLP956 P0009 T01000094=
201512091049 SPECI KBLI 091049Z AUTO 17013G20KT 8SM -RA FEW008 SCT012 OVC048 11/09 A2937 RMK AO2 PK WND 16027/1026 P0009=
201512091031 SPECI KBLI 091031Z AUTO 17015G27KT 7SM RA FEW012 OVC048 11/09 A2936 RMK AO2 PK WND 16027/1026 P0004=
201512091022 SPECI KBLI 091022Z AUTO 17015G24KT 9SM -RA FEW009 BKN025 OVC048 11/09 A2935 RMK AO2 PK WND 16026/1004 P0002=
201512090953 METAR KBLI 090953Z AUTO 16016G21KT 10SM -RA OVC015 11/09 A2933 RMK AO2 RAE01B21 SLP940 P0001 T01110094=
201512090853 METAR KBLI 090853Z AUTO 00000KT 10SM -RA OVC017 07/07 A2937 RMK AO2 SLP952 P0000 60017 T00720067 58044=
201512090753 METAR KBLI 090753Z AUTO 10004KT 10SM -RA OVC025 08/07 A2941 RMK AO2 SLP966 P0007 T00780067 401440072=
201512090729 SPECI KBLI 090729Z AUTO 06003KT 10SM -RA BKN027 OVC032 08/06 A2944 RMK AO2 P0005=
201512090653 METAR KBLI 090653Z AUTO 02003KT 8SM RA FEW042 OVC050 07/06 A2946 RMK AO2 SLP984 P0010 T00720061=
201512090553 METAR KBLI 090553Z 02004KT 10SM -RA OVC050 08/07 A2950 RMK AO2 SLP996 P0002 60006 T00780067 10117 20078 58035=
201512090453 METAR KBLI 090453Z 11008KT 10SM -RA OVC044 08/06 A2956 RMK AO2 SLP016 P0003 T00830061=
201512090353 METAR KBLI 090353Z 11009KT 10SM -RA OVC050 09/06 A2960 RMK AO2 SLP031 P0000 T00940056=
201512090253 METAR KBLI 090253Z 11018G22KT 10SM -RA FEW034 OVC060 10/06 A2960 RMK AO2 RAB02 SLP031 P0001 60001 T01000061 58008=
201512090153 METAR KBLI 090153Z 16006KT 10SM BKN065 OVC085 11/08 A2963 RMK AO2 RAB26E39 SLP039 P0000 T01110083=
201512090053 METAR KBLI 090053Z 18005KT 10SM OVC100 11/08 A2961 RMK AO2 SLP035 T01110083=
201512082353 METAR KBLI 082353Z 00000KT 10SM BKN120 11/08 A2963 RMK AO2 SLP039 60012 T01110083 10139 20111 50006=
201512082253 METAR KBLI 082253Z 17006KT 10SM CLR 12/08 A2963 RMK AO2 SLP041 T01170083=
201512082153 METAR KBLI 082153Z 17009KT 10SM CLR 12/09 A2962 RMK AO2 SLP036 T01220094=
201512082053 METAR KBLI 082053Z 21005KT 10SM BKN060 14/10 A2961 RMK AO2 RAE13 SLP033 P0000 60012 T01390100 53017=
201512082020 SPECI KBLI 082020Z 19005KT 10SM SCT026 BKN043 OVC075 13/12 A2961 RMK AO2 RAE13 P0000=
201512082005 SPECI KBLI 082005Z VRB06KT 10SM -RA BKN026 BKN044 OVC090 14/12 A2959 RMK AO2 P0000=
201512081953 METAR KBLI 081953Z 20007KT 10SM -RA FEW019 SCT026 OVC080 14/12 A2958 RMK AO2 SLP024 P0006 T01390122=
201512081951 SPECI KBLI 081951Z VRB06G14KT 10SM -RA FEW021 SCT030 OVC080 14/12 A2958 RMK AO2 P0006=
201512081853 METAR KBLI 081853Z 17014G30KT 8SM -RA BKN023 BKN029 OVC070 14/12 A2956 RMK AO2 PK WND 16030/1848 SLP016 P0006 T01390122=
201512081839 SPECI KBLI 081839Z 17017G27KT 7SM -RA FEW012 BKN025 OVC070 13/12 A2955 RMK AO2 PK WND 16028/1819 P0005=
201512081828 SPECI KBLI 081828Z 16018G28KT 7SM -RA SCT014 BKN034 OVC070 13/12 A2956 RMK AO2 PK WND 16028/1819 P0004=
201512081753 METAR KBLI 081753Z 17015G27KT 7SM -RA BKN014 BKN023 OVC037 13/12 A2954 RMK AO2 PK WND 17038/1702 RAB1655 SLP008 P0008 60012 T01330117 10144 20117 50014=
201512081751 SPECI KBLI 081751Z 17014G27KT 8SM -RA BKN014 BKN019 OVC037 13/12 A2954 RMK AO2 PK WND 17038/1702 RAB1655 PRESRR P0008=
201512081731 SPECI KBLI 081731Z 17016G27KT 4SM -RA BR SCT014 BKN018 OVC046 14/12 A2952 RMK AO2 PK WND 17038/1702 RAB1655 P0006=
201512081653 METAR KBLI 081653Z 16020G33KT 10SM SCT018 OVC060 14/11 A2950 RMK AO2 PK WND 15038/1622 SLP997 T01440111=
201512081642 SPECI KBLI 081642Z 16022G35KT 10SM SCT018 BKN065 OVC090 14/11 A2948 RMK AO2 PK WND 15038/1622=
201512081553 METAR KBLI 081553Z 15019G35KT 10SM BKN020 OVC065 14/11 A2949 RMK AO2 PK WND 14036/1506 RAB00E15 SLP994 P0001 T01390106=
201512081545 SPECI KBLI 081545Z 15025G35KT 10SM BKN022 OVC070 14/11 A2950 RMK AO2 PK WND 14036/1506 RAB00E15 P0001=
201512081453 METAR KBLI 081453Z 15019G33KT 10SM SCT060 BKN075 OVC090 14/09 A2955 RMK AO2 PK WND 14034/1435 RAE24 SLP012 P0000 60003 T01390094 58040=
201512081353 METAR KBLI 081353Z AUTO 15020G29KT 10SM -RA FEW055 SCT070 OVC085 13/09 A2959 RMK AO2 PK WND 15033/1333 SLP026 P0000 T01280089=
201512081253 METAR KBLI 081253Z AUTO 15015G27KT 10SM -RA BKN070 OVC080 12/08 A2962 RMK AO2 PK WND 14027/1250 SLP038 P0003 T01220083=
201512081217 SPECI KBLI 081217Z AUTO 15014G21KT 10SM -RA SCT025 BKN046 OVC070 12/09 A2964 RMK AO2 P0001=
201512081153 METAR KBLI 081153Z AUTO 14015G21KT 10SM -RA BKN025 BKN033 OVC070 12/09 A2966 RMK AO2 PRESFR SLP052 P0003 60006 70012 T01170094 10122 20094 58047=
201512081053 METAR KBLI 081053Z AUTO 15014KT 10SM -RA OVC015 12/10 A2973 RMK AO2 SLP075 P0003 T01220100=
201512080953 METAR KBLI 080953Z AUTO 15013G19KT 10SM -RA OVC017 12/09 A2977 RMK AO2 RAB14 SLP088 P0000 T01220094=
201512080853 METAR KBLI 080853Z AUTO 15010G17KT 10SM OVC015 12/09 A2980 RMK AO2 SLP099 60000 T01170089 56008=
201512080753 METAR KBLI 080753Z AUTO 12010KT 10SM BKN022 BKN044 OVC060 11/07 A2980 RMK AO2 RAB24E47 SLP099 P0000 T01060067 401220094=
201512080749 SPECI KBLI 080749Z AUTO 12007KT 10SM BKN022 BKN044 OVC065 10/07 A2980 RMK AO2 RAB24E47 P0000 401220094=
201512080653 METAR KBLI 080653Z AUTO 17007KT 10SM OVC070 09/07 A2983 RMK AO2 SLP107 T00940067=
201512080553 METAR KBLI 080553Z AUTO 15008KT 10SM SCT070 OVC085 10/06 A2981 RMK AO2 RAB13E22 SLP101 P0000 60000 T01000061 10100 20094 51013=
201512080453 METAR KBLI 080453Z 15007KT 10SM OVC090 09/07 A2980 RMK AO2 SLP099 T00940067=
201512080353 METAR KBLI 080353Z 15007KT 10SM BKN041 OVC050 09/07 A2978 RMK AO2 SLP093 T00940067=
201512080253 METAR KBLI 080253Z 16010G16KT 10SM OVC043 09/07 A2977 RMK AO2 SLP087 T00940067 51037=
201512080153 METAR KBLI 080153Z 15006KT 10SM SCT028 OVC043 09/08 A2974 RMK AO2 SLP078 T00940078=
201512080102 SPECI KBLI 080102Z 17005KT 10SM FEW010 SCT024 OVC045 09/08 A2973 RMK AO2=
201512080053 METAR KBLI 080053Z 16005KT 10SM FEW010 BKN024 OVC047 09/08 A2972 RMK AO2 SLP072 T00940078=
201512080030 SPECI KBLI 080030Z 17007KT 10SM FEW011 BKN030 OVC049 09/08 A2970 RMK AO2=
201512072353 METAR KBLI 072353Z 16005KT 10SM SCT011 OVC020 09/08 A2966 RMK AO2 RAE21 SLP050 P0001 60003 T00940078 10122 20094 52017=
201512072253 METAR KBLI 072253Z 17006KT 10SM -RA BKN018 OVC050 09/08 A2964 RMK AO2 SLP044 P0002 T00940083=
201512072153 METAR KBLI 072153Z 18008G14KT 10SM -RA BKN020 BKN042 OVC070 10/08 A2963 RMK AO2 RAB23 SLP039 P0000 T01000078=
201512072053 METAR KBLI 072053Z 17010G18KT 10SM OVC016 10/08 A2961 RMK AO2 SLP033 T01000078 56019=
201512071953 METAR KBLI 071953Z 17012G18KT 10SM BKN027 OVC034 11/07 A2962 RMK AO2 SLP038 T01110072=
201512071853 METAR KBLI 071853Z 15011G19KT 10SM OVC026 12/07 A2964 RMK AO2 SLP044 T01170072=
201512071753 METAR KBLI 071753Z 13012KT 10SM OVC026 11/07 A2967 RMK AO2 SLP053 60003 T01110072 10117 20106 56002=
201512071653 METAR KBLI 071653Z 13010G19KT 10SM BKN028 OVC075 11/07 A2967 RMK AO2 RAE03 SLP054 P0000 T01110067=
201512071553 METAR KBLI 071553Z 15013G18KT 10SM -RA BKN028 BKN049 OVC060 11/06 A2966 RMK AO2 RAB20 SLP050 P0000 T01110061=
201512071543 SPECI KBLI 071543Z 15013G24KT 10SM -RA BKN028 BKN049 OVC060 11/07 A2967 RMK AO2 RAB20 P0000=
201512071453 METAR KBLI 071453Z 15011KT 10SM SCT029 OVC045 12/06 A2967 RMK AO2 SLP054 60003 T01170061 58012=
201512071404 SPECI KBLI 071404Z AUTO 16010G20KT 10SM BKN031 OVC041 11/06 A2970 RMK AO2=
201512071353 METAR KBLI 071353Z AUTO 17010G18KT 10SM BKN028 BKN034 OVC055 11/06 A2970 RMK AO2 RAE48 SLP065 P0001 T01110061=
201512071328 SPECI KBLI 071328Z AUTO 17010G20KT 10SM -RA BKN028 OVC036 11/06 A2972 RMK AO2 P0000=
201512071301 SPECI KBLI 071301Z AUTO 16014G23KT 10SM -RA BKN030 BKN036 OVC050 11/07 A2972 RMK AO2 P0000=
201512071253 METAR KBLI 071253Z AUTO 16012G20KT 8SM RA BKN028 BKN036 OVC048 11/07 A2971 RMK AO2 PK WND 17026/1225 SLP067 P0002 T01060067=
201512071153 METAR KBLI 071153Z AUTO 15018G27KT 10SM -RA BKN028 BKN039 OVC060 11/06 A2971 RMK AO2 PK WND 16032/1104 RAB01 SLP066 P0004 60004 70007 T01060061 10122 20106 56005=
201512071053 METAR KBLI 071053Z AUTO 15019G33KT 10SM BKN047 OVC060 12/06 A2971 RMK AO2 PK WND 16033/1050 SLP067 T01170061=
201512070953 METAR KBLI 070953Z AUTO 14019G30KT 10SM FEW027 OVC047 11/06 A2971 RMK AO2 PK WND 15035/0913 RAE00B40E53 SLP068 P0000 T01110061=
201512070853 METAR KBLI 070853Z AUTO 16019G32KT 10SM -RA FEW025 BKN043 OVC055 11/06 A2972 RMK AO2 PK WND 15038/0842 SLP072 P0000 60000 T01110061 50014=
201512070753 METAR KBLI 070753Z AUTO 16022G34KT 10SM -RA OVC060 12/06 A2973 RMK AO2 PK WND 14046/0718 RAB02 SLP073 P0000 T01170061 401280100=
201512070653 METAR KBLI 070653Z AUTO 15021G48KT 10SM FEW033 12/05 A2971 RMK AO2 PK WND 13048/0644 SLP068 T01170050=
201512070553 METAR KBLI 070553Z 15025G43KT 10SM SCT090 SCT110 12/04 A2968 RMK AO2 PK WND 17051/0456 SLP058 60000 T01170044 10128 20117 56005=
201512070453 METAR KBLI 070453Z 16028G51KT 10SM SCT034 12/05 A2969 RMK AO2 PK WND 15059/0437 SLP061 T01220050=
201512070353 METAR KBLI 070353Z 15034G49KT 10SM CLR 12/05 A2968 RMK AO2 PK WND 14051/0338 SLP058 T01220050=
201512070253 METAR KBLI 070253Z 15033G48KT 10SM FEW037 BKN100 12/05 A2970 RMK AO2 PK WND 14049/0225 SLP063 60000 T01220050 56029=
201512070153 METAR KBLI 070153Z 15028G43KT 10SM FEW065 BKN090 BKN110 13/05 A2971 RMK AO2 PK WND 16047/0118 RAB10E19 SLP069 P0000 T01280050=
201512070053 METAR KBLI 070053Z 14029G37KT 10SM SCT038 OVC095 13/05 A2976 RMK AO2 PK WND 15044/0041 SLP085 T01280050=
201512062353 METAR KBLI 062353Z 15026G37KT 10SM FEW040 BKN100 13/05 A2978 RMK AO2 PK WND 14039/2300 SLP092 T01280050 10128 20111 55022=
201512062253 METAR KBLI 062253Z 14024G34KT 10SM FEW033 12/06 A2978 RMK AO2 PK WND 14035/2242 SLP091 T01220061=
201512062153 METAR KBLI 062153Z 15019G28KT 10SM FEW030 12/07 A2982 RMK AO2 PK WND 15034/2132 SLP104 T01220067=
201512062100 SPECI KBLI 062100Z 14013KT 10SM FEW025 OVC032 12/07 A2984 RMK AO2=
201512062053 METAR KBLI 062053Z 14012G21KT 10SM FEW022 BKN029 OVC037 12/08 A2985 RMK AO2 SLP114 T01170078 51010=
201512061953 METAR KBLI 061953Z 14012G20KT 10SM BKN020 OVC024 12/08 A2984 RMK AO2 SLP112 T01170078=
201512061853 METAR KBLI 061853Z 14010G20KT 10SM BKN018 OVC025 11/08 A2984 RMK AO2 SLP113 T01110078=
201512061753 METAR KBLI 061753Z 15015G22KT 10SM OVC018 11/07 A2982 RMK AO2 SLP104 60003 T01060072 10111 20100 53044=
201512061701 SPECI KBLI 061701Z 14016G24KT 10SM SCT020 BKN028 OVC060 10/07 A2977 RMK AO2 PRESRR=
201512061653 METAR KBLI 061653Z 14013G21KT 10SM SCT020 SCT029 OVC060 10/07 A2977 RMK AO2 PK WND 14028/1631 RAE45 PRESRR SLP086 P0001 T01000072=
201512061553 METAR KBLI 061553Z 15011G19KT 7SM -RA OVC055 10/07 A2971 RMK AO2 SLP067 P0002 T01000067=
201512061453 METAR KBLI 061453Z 15013G23KT 10SM -RA OVC060 11/06 A2969 RMK AO2 PK WND 14026/1423 RAB38 SLP059 P0000 60000 T01060061 55001=
201512061353 METAR KBLI 061353Z AUTO 14014G25KT 10SM BKN065 OVC080 11/06 A2968 RMK AO2 PK WND 13028/1308 SLP056 T01110056=
201512061253 METAR KBLI 061253Z AUTO 14018G25KT 10SM FEW031 OVC070 11/06 A2968 RMK AO2 PK WND 13028/1243 RAE04 SLP057 P0000 T01060061=
201512061153 METAR KBLI 061153Z AUTO 14017G25KT 10SM -RA OVC060 11/06 A2969 RMK AO2 PK WND 13026/1058 SLP060 P0001 60003 70006 T01060061 10117 20106 55006=
201512061053 METAR KBLI 061053Z AUTO 14013G24KT 10SM -RA OVC060 11/06 A2969 RMK AO2 RAB20 SLP059 P0001 T01110061=
201512060953 METAR KBLI 060953Z AUTO 15019G24KT 10SM BKN034 OVC090 12/06 A2969 RMK AO2 PK WND 14028/0937 SLP061 T01170056=
201512060853 METAR KBLI 060853Z AUTO 14015G22KT 10SM BKN036 OVC085 12/06 A2971 RMK AO2 PK WND 16027/0820 SLP067 60001 T01170056 58002=
201512060753 METAR KBLI 060753Z AUTO 15018G24KT 10SM FEW060 OVC075 12/06 A2972 RMK AO2 PK WND 14033/0724 RAE48 SLP069 P0000 T01170061 401280089=
201512060653 METAR KBLI 060653Z AUTO 15020G31KT 10SM -RA OVC080 11/06 A2971 RMK AO2 PK WND 16031/0653 SLP068 P0001 T01110061=
201512060553 METAR KBLI 060553Z AUTO 15019G32KT 10SM -RA OVC070 11/06 A2971 RMK AO2 PK WND 15036/0509 RAB25 SLP068 P0000 60001 T01110061 10128 20106 53004=
201512060453 METAR KBLI 060453Z 14024G32KT 10SM SCT070 OVC085 12/05 A2970 RMK AO2 PK WND 15036/0417 SLP064 T01220050=
201512060353 METAR KBLI 060353Z 15018G39KT 10SM OVC090 12/04 A2970 RMK AO2 PK WND 14039/0344 SLP065 T01220044=
201512060253 METAR KBLI 060253Z 14021G32KT 10SM BKN075 OVC090 12/04 A2970 RMK AO2 PK WND 14036/0234 SLP064 60001 T01220044 56025=
201512060153 METAR KBLI 060153Z 14021G30KT 10SM OVC070 12/04 A2971 RMK AO2 PK WND 14035/0138 SLP067 P0001 T01170044=
201512060053 METAR KBLI 060053Z 11011G21KT 10SM SCT043 OVC070 11/04 A2974 RMK AO2 PK WND 14027/2354 SLP076 T01110039=
201512052353 METAR KBLI 052353Z 13017G30KT 10SM FEW041 OVC065 11/04 A2977 RMK AO2 PK WND 14030/2353 RAE22 SLP089 P0000 60002 T01060039 10106 20089 56025=
201512052253 METAR KBLI 052253Z 13018G29KT 10SM -RA FEW039 OVC070 10/04 A2980 RMK AO2 PK WND 13029/2244 RAB2154 SLP097 P0000 T01000044=
201512052153 METAR KBLI 052153Z 14015G25KT 10SM BKN041 OVC070 11/04 A2982 RMK AO2 RAE21 SLP106 P0000 T01060039=
201512052053 METAR KBLI 052053Z 13009KT 10SM -RA FEW055 BKN080 OVC095 09/04 A2985 RMK AO2 RAE14B35 SLP114 P0001 60002 T00940044 58015=
201512051953 METAR KBLI 051953Z 10009KT 10SM -RA SCT043 OVC050 09/04 A2987 RMK AO2 SLP123 P0001 T00940044=
201512051853 METAR KBLI 051853Z 14009G19KT 10SM -RA BKN060 OVC075 10/03 A2988 RMK AO2 PK WND 14029/1815 SLP126 P0000 T01000028=
201512051753 METAR KBLI 051753Z 13012G24KT 10SM -RA OVC050 10/03 A2989 RMK AO2 PK WND 15027/1703 SLP129 P0000 60000 T01000028 10111 20094 55009=
201512051653 METAR KBLI 051653Z 13016G29KT 10SM -RA BKN055 OVC075 11/01 A2989 RMK AO2 PK WND 12035/1603 RAB49 SLP129 P0000 T01060011=
201512051553 METAR KBLI 051553Z 12020G25KT 10SM FEW060 SCT080 OVC100 11/01 A2990 RMK AO2 PK WND 11027/1543 SLP133 T01110011=
201512051453 METAR KBLI 051453Z 13015G27KT 10SM FEW060 OVC100 11/01 A2992 RMK AO2 PK WND 12027/1447 SLP139 60000 T01110011 56023=
201512051353 METAR KBLI 051353Z AUTO 12010KT 10SM FEW060 BKN080 OVC095 11/02 A2993 RMK AO2 SLP141 T01060022=
201512051253 METAR KBLI 051253Z AUTO 11012KT 10SM BKN055 OVC070 10/03 A2996 RMK AO2 PK WND 14029/1229 RAB14E43 SLP152 P0000 T01000033=
201512051153 METAR KBLI 051153Z AUTO 15015G25KT 10SM OVC100 11/02 A2999 RMK AO2 PK WND 13032/1123 SLP161 70005 T01060022 10106 20094 56015=
201512051053 METAR KBLI 051053Z AUTO 14014KT 10SM CLR 10/03 A3000 RMK AO2 PK WND 13028/0956 SLP166 T01000028=
201512050953 METAR KBLI 050953Z AUTO 14016G26KT 10SM CLR 10/03 A3001 RMK AO2 PK WND 15028/0928 SLP171 T01000028=
201512050853 METAR KBLI 050853Z AUTO 14017G22KT 10SM FEW110 10/03 A3003 RMK AO2 PK WND 13027/0805 SLP178 T01000033 58009=
201512050753 METAR KBLI 050753Z AUTO 15017G24KT 10SM BKN110 10/03 A3005 RMK AO2 SLP183 T01000033 401000061=
201512050653 METAR KBLI 050653Z AUTO 14013G19KT 10SM SCT035 OVC110 09/04 A3006 RMK AO2 SLP186 T00940039=
201512050602 SPECI KBLI 050602Z AUTO 15010G20KT 10SM SCT026 BKN120 09/04 A3006 RMK AO2=
201512050553 METAR KBLI 050553Z AUTO 15012G22KT 10SM BKN026 BKN100 09/04 A3006 RMK AO2 SLP187 60001 T00940044 10094 20089 58003=
201512050453 METAR KBLI 050453Z 15015G23KT 10SM OVC028 09/04 A3007 RMK AO2 SLP191 T00940044=
201512050451 SPECI KBLI 050451Z 15013G23KT 10SM OVC028 09/04 A3007 RMK AO2=
201512050353 METAR KBLI 050353Z 15010KT 10SM BKN030 BKN070 09/05 A3007 RMK AO2 SLP189 P0001 T00940050=
201512050253 METAR KBLI 050253Z 15013G20KT 10SM FEW028 SCT033 BKN070 09/05 A3005 RMK AO2 SLP182 T00940050 50011=
201512050153 METAR KBLI 050153Z 15010KT 10SM FEW037 OVC080 09/05 A3005 RMK AO2 SLP185 T00940050=
201512050053 METAR KBLI 050053Z 15010KT 10SM SCT060 OVC080 09/05 A3003 RMK AO2 SLP177 T00940050=
201512042353 METAR KBLI 042353Z 16008KT 10SM BKN070 09/05 A3001 RMK AO2 SLP171 60001 T00940050 10100 20083 53013=
201512042253 METAR KBLI 042253Z 15006KT 10SM FEW023 10/06 A3000 RMK AO2 SLP166 T01000061=
201512042153 METAR KBLI 042153Z 15010KT 10SM FEW019 SCT055 BKN070 10/07 A2998 RMK AO2 RAE04 SLP160 P0000 T01000067=
201512042053 METAR KBLI 042053Z 15015G19KT 10SM -RA FEW019 SCT037 OVC055 08/06 A2997 RMK AO2 RAE01B38 SLP158 P0000 60001 T00830061 51012=
201512041953 METAR KBLI 041953Z 15007KT 10SM -RA SCT017 BKN048 OVC070 09/06 A2997 RMK AO2 RAB11 SLP157 P0001 T00890061=
201512041853 METAR KBLI 041853Z 17010KT 10SM FEW014 SCT038 BKN050 09/06 A2996 RMK AO2 RAB04E16 SLP154 P0000 T00940061=
201512041753 METAR KBLI 041753Z 18007G15KT 10SM FEW014 BKN030 OVC036 08/06 A2994 RMK AO2 RAE48 SLP146 P0001 60003 T00830061 10083 20061 51037=
201512041653 METAR KBLI 041653Z VRB05G15KT 10SM -RA BKN031 OVC047 08/06 A2990 RMK AO2 RAB24 SLP134 P0001 T00830056=
201512041553 METAR KBLI 041553Z 19005KT 10SM SCT035 07/06 A2987 RMK AO2 SLP122 T00720056=
201512041453 METAR KBLI 041453Z 15006KT 10SM FEW049 07/06 A2983 RMK AO2 SLP109 60001 T00720056 53020=
201512041353 METAR KBLI 041353Z AUTO 15005KT 10SM SCT049 SCT090 08/07 A2980 RMK AO2 SLP099 T00830067=
201512041253 METAR KBLI 041253Z AUTO 16006KT 10SM BKN048 BKN055 OVC070 08/07 A2978 RMK AO2 RAE43 SLP092 P0001 T00830072=
201512041153 METAR KBLI 041153Z AUTO 18006KT 10SM -RA FEW026 OVC048 08/07 A2977 RMK AO2 RAB14 SLP088 P0001 60001 70011 T00830072 10100 20083 51018=
201512041101 SPECI KBLI 041101Z AUTO 18005KT 10SM SCT026 SCT055 OVC100 09/07 A2975 RMK AO2=
201512041053 METAR KBLI 041053Z AUTO 17006KT 10SM BKN026 OVC110 09/07 A2975 RMK AO2 SLP082 T00890072=
201512041048 SPECI KBLI 041048Z AUTO 18007KT 10SM BKN026 BKN120 08/07 A2975 RMK AO2=
201512040953 METAR KBLI 040953Z AUTO 16006KT 10SM BKN050 BKN070 09/06 A2972 RMK AO2 SLP070 T00940056=
201512040853 METAR KBLI 040853Z AUTO 17006KT 10SM CLR 09/06 A2970 RMK AO2 SLP063 T00940061 51028=
201512040753 METAR KBLI 040753Z AUTO 17007KT 10SM OVC065 10/07 A2967 RMK AO2 SLP054 T01000067 401670089=
201512040653 METAR KBLI 040653Z AUTO 16010G16KT 10SM OVC060 09/07 A2964 RMK AO2 SLP045 T00940067=
201512040553 METAR KBLI 040553Z 17008G15KT 10SM BKN060 BKN090 09/07 A2961 RMK AO2 RAE29 SLP034 P0000 60010 T00940067 10156 20089 51039=
201512040453 METAR KBLI 040453Z 16008KT 10SM -RA SCT065 BKN080 OVC090 09/07 A2958 RMK AO2 SLP022 P0000 T00890067=
201512040353 METAR KBLI 040353Z 15007KT 10SM -RA OVC060 09/06 A2955 RMK AO2 RAB34 SLP012 P0000 T00940061=
201512040253 METAR KBLI 040253Z 17010G14KT 10SM BKN075 OVC090 09/06 A2950 RMK AO2 RAE18 SLP995 P0002 60010 T00940061 51066=
201512040153 METAR KBLI 040153Z 16011KT 10SM -RA OVC050 09/07 A2945 RMK AO2 SLP978 P0005 T00940067=
201512040053 METAR KBLI 040053Z 18012G28KT 8SM -RA FEW021 BKN031 OVC048 12/08 A2939 RMK AO2 PK WND 16043/2355 RAB2357 SLP958 P0003 T01170078=
201512032353 METAR KBLI 032353Z 16025G46KT 10SM OVC060 16/05 A2930 RMK AO2 PK WND 15054/2322 SLP927 T01560050 10167 20150 55006=
201512032253 METAR KBLI 032253Z 15025G37KT 10SM CLR 17/05 A2928 RMK AO2 PK WND 15037/2251 SLP919 T01670050=
201512032153 METAR KBLI 032153Z 14027G36KT 10SM SCT060 16/05 A2930 RMK AO2 PK WND 14037/2142 SLP929 T01610050=
201512032053 METAR KBLI 032053Z 13023G34KT 10SM BKN060 16/06 A2932 RMK AO2 PK WND 13046/1959 SLP935 T01560061 58020=
201512031953 METAR KBLI 031953Z 14026G38KT 10SM OVC060 17/06 A2935 RMK AO2 PK WND 15038/1952 SLP947 T01670056=
201512031853 METAR KBLI 031853Z 13018G32KT 10SM FEW055 BKN090 OVC110 16/07 A2936 RMK AO2 PK WND 13036/1821 SLP948 T01610067=
201512031753 METAR KBLI 031753Z 13012G23KT 10SM OVC060 16/07 A2938 RMK AO2 PK WND 13030/1656 SLP954 T01610072 10161 20139 58013=
201512031653 METAR KBLI 031653Z 14022G33KT 10SM FEW070 BKN110 15/08 A2941 RMK AO2 PK WND 13033/1651 SLP967 T01500078=
201512031553 METAR KBLI 031553Z 13021G32KT 10SM SCT040 BKN080 OVC100 15/08 A2942 RMK AO2 PK WND 13032/1545 SLP968 T01500078=
201512031453 METAR KBLI 031453Z 13025G35KT 10SM FEW045 BKN090 OVC100 15/07 A2942 RMK AO2 PK WND 12035/1451 SLP967 T01500072 58035=
201512031353 METAR KBLI 031353Z AUTO 14018G29KT 10SM OVC041 15/07 A2945 RMK AO2 PK WND 13033/1339 SLP979 T01500072=
201512031253 METAR KBLI 031253Z AUTO 14015G23KT 10SM OVC043 15/08 A2949 RMK AO2 PK WND 12030/1223 SLP994 T01500078=
201512031153 METAR KBLI 031153Z AUTO 14018G28KT 10SM SCT038 BKN045 OVC075 14/08 A2952 RMK AO2 PK WND 13028/1145 RAE25 SLP002 P0000 60006 70006 T01390083 10156 20089 58033=
201512031053 METAR KBLI 031053Z AUTO 14010G14KT 10SM -RA BKN035 BKN041 OVC075 12/09 A2957 RMK AO2 SLP020 P0003 T01170089=
201512030953 METAR KBLI 030953Z AUTO 27003KT 10SM -RA BKN042 BKN055 OVC080 09/08 A2960 RMK AO2 SLP030 P0002 T00890078=
201512030853 METAR KBLI 030853Z AUTO 17007G16KT 10SM -RA OVC075 11/06 A2961 RMK AO2 RAB18 SLP036 P0001 60001 T01060061 56030=
201512030753 METAR KBLI 030753Z AUTO 28004KT 10SM OVC060 11/06 A2963 RMK AO2 SLP042 T01110061 401560050=
201512030653 METAR KBLI 030653Z AUTO 13015G21KT 10SM FEW070 16/07 A2966 RMK AO2 SLP051 T01560072=
201512030553 METAR KBLI 030553Z 12008KT 10SM BKN045 10/06 A2971 RMK AO2 SLP067 T01000061 10100 20072 58038=
201512030453 METAR KBLI 030453Z 00000KT 10SM OVC043 08/05 A2975 RMK AO2 SLP082 T00780050=
201512030353 METAR KBLI 030353Z 33005KT 10SM OVC047 08/05 A2979 RMK AO2 SLP095 T00830050=
201512030253 METAR KBLI 030253Z 30004KT 10SM BKN049 OVC080 08/06 A2982 RMK AO2 SLP105 T00780056 58027=
201512030153 METAR KBLI 030153Z 00000KT 10SM OVC045 09/06 A2986 RMK AO2 SLP118 T00890056=
201512030053 METAR KBLI 030053Z 03006KT 10SM OVC045 08/06 A2987 RMK AO2 SLP122 T00830056=
201512022353 METAR KBLI 022353Z 02008KT 10SM OVC035 08/06 A2990 RMK AO2 SLP132 T00780056 10083 20067 56036=
201512022253 METAR KBLI 022253Z 01007KT 10SM OVC033 08/06 A2992 RMK AO2 SLP139 T00830061=
201512022237 SPECI KBLI 022237Z 01006KT 10SM OVC031 08/06 A2993 RMK AO2 PRESFR=
201512022153 METAR KBLI 022153Z 36006KT 10SM OVC025 08/06 A2998 RMK AO2 SLP160 T00830061=
201512022053 METAR KBLI 022053Z 35003KT 10SM OVC025 08/06 A3000 RMK AO2 SLP168 T00780061 58008=
201512021953 METAR KBLI 021953Z 02005KT 10SM OVC023 07/06 A3002 RMK AO2 SLP174 T00720056=
201512021853 METAR KBLI 021853Z 01003KT 10SM BKN025 OVC030 07/06 A3002 RMK AO2 SLP173 T00720061=
201512021839 SPECI KBLI 021839Z 02005KT 10SM OVC029 07/06 A3003 RMK AO2=
201512021753 METAR KBLI 021753Z 03006KT 10SM FEW029 OVC035 07/06 A3003 RMK AO2 SLP177 T00670056 10067 20050 53002=
201512021653 METAR KBLI 021653Z 00000KT 10SM OVC031 06/05 A3001 RMK AO2 SLP172 T00610050=
201512021553 METAR KBLI 021553Z 01003KT 10SM OVC024 06/04 A3002 RMK AO2 SLP175 T00560044=
201512021453 METAR KBLI 021453Z AUTO 36004KT 10SM OVC022 05/04 A3002 RMK AO2 SLP175 T00500044 50000=
201512021353 METAR KBLI 021353Z AUTO 01003KT 10SM OVC024 06/05 A3002 RMK AO2 SLP174 T00560050=
201512021253 METAR KBLI 021253Z AUTO 00000KT 9SM OVC024 06/05 A3002 RMK AO2 SLP175 T00560050=
201512021153 METAR KBLI 021153Z AUTO 30005KT 10SM OVC024 06/06 A3002 RMK AO2 RAE42 SLP175 P0003 60012 70036 T00610056 10094 20056 53021=
201512021139 SPECI KBLI 021139Z AUTO 31005KT 10SM -RA BKN024 BKN035 OVC050 07/06 A3001 RMK AO2 P0003=
201512021124 SPECI KBLI 021124Z AUTO 00000KT 8SM -RA SCT024 BKN033 OVC050 07/06 A3001 RMK AO2 P0003=
201512021107 SPECI KBLI 021107Z AUTO 00000KT 10SM -RA BKN024 BKN033 OVC048 09/07 A3001 RMK AO2 P0001=
201512021053 METAR KBLI 021053Z AUTO 15005KT 10SM -RA SCT026 BKN033 OVC050 09/06 A3000 RMK AO2 RAB02 SLP167 P0000 T00890061=
201512020953 METAR KBLI 020953Z AUTO 14009G15KT 10SM FEW043 OVC050 09/06 A2997 RMK AO2 SLP156 T00940061=
201512020913 SPECI KBLI 020913Z AUTO VRB04KT 10SM SCT028 OVC048 07/06 A2996 RMK AO2=
201512020853 METAR KBLI 020853Z AUTO 00000KT 10SM BKN028 OVC048 06/05 A2996 RMK AO2 RAB0754E32 SLP153 P0000 60009 T00560050 51007=
201512020843 SPECI KBLI 020843Z AUTO 00000KT 10SM BKN028 BKN037 OVC048 06/05 A2996 RMK AO2 RAB0754E32 P0000=
201512020831 SPECI KBLI 020831Z AUTO 35005KT 9SM -RA SCT028 BKN037 OVC050 06/05 A2996 RMK AO2 RAB0754 P0000=
201512020822 SPECI KBLI 020822Z AUTO 00000KT 9SM -RA BKN028 BKN040 OVC050 06/05 A2996 RMK AO2 RAB0754 P0000=
201512020753 METAR KBLI 020753Z AUTO 00000KT 10SM FEW026 SCT031 OVC050 06/06 A2996 RMK AO2 RAE31 SLP153 P0004 T00610056 401000028=
201512020653 METAR KBLI 020653Z AUTO 18006KT 10SM -RA OVC047 07/05 A2995 RMK AO2 SLP150 P0005 T00670050=
201512020553 METAR KBLI 020553Z VRB05KT 9SM -RA OVC045 08/07 A2994 RMK AO2 SLP146 P0005 60023 T00780067 10094 20050 55001=
201512020453 METAR KBLI 020453Z 15011G15KT 10SM -RA OVC045 09/06 A2993 RMK AO2 SLP144 P0005 T00890056=
201512020353 METAR KBLI 020353Z 04007KT 10SM -RA FEW049 OVC055 06/04 A2993 RMK AO2 SLP142 P0005 T00560044=
201512020253 METAR KBLI 020253Z 17007KT 10SM -RA OVC050 08/04 A2994 RMK AO2 SLP148 P0005 60008 T00780044 55013=
201512020153 METAR KBLI 020153Z 04005KT 10SM -RA OVC055 07/04 A2994 RMK AO2 SLP147 P0002 T00670044=
201512020053 METAR KBLI 020053Z 18006KT 10SM -RA OVC055 07/05 A2996 RMK AO2 SLP156 P0001 T00670050=
201512012353 METAR KBLI 012353Z 01003KT 10SM -RA OVC055 07/03 A2998 RMK AO2 RAB20 SLP162 P0001 60001 T00670028 10100 20056 56024=
201512012253 METAR KBLI 012253Z 00000KT 10SM FEW120 08/01 A3000 RMK AO2 SLP168 T00780011=
201512012153 METAR KBLI 012153Z 02006KT 10SM CLR 08/02 A3002 RMK AO2 SLP174 T00830017=
201512012100 METAR KBLI 012100Z AUTO 11009 10SM SCT047 09/01 A3005 RMK PC=
201512012053 METAR KBLI 012053Z 34003KT 10SM SCT047 09/01 A3005 RMK AO2 SLP185 T00890011 58025=
201512011953 METAR KBLI 011953Z 36005KT 10SM CLR 09/01 A3008 RMK AO2 SLP195 T00890006=
201512011853 METAR KBLI 011853Z 01006KT 10SM SCT038 08/00 A3011 RMK AO2 SLP203 T00830000=
201512011753 METAR KBLI 011753Z 02007KT 10SM BKN035 OVC055 06/M01 A3013 RMK AO2 SLP212 T00561011 10056 20033 58010=
201512011700 SPECI KBLI 011700Z 35004KT 10SM BKN031 OVC038 05/M01 A3014 RMK AO2=
201512011653 METAR KBLI 011653Z 02006KT 10SM OVC025 05/M01 A3014 RMK AO2 SLP214 T00501011=
201512011553 METAR KBLI 011553Z VRB03KT 10SM OVC025 04/M02 A3015 RMK AO2 SLP220 T00441017=
201512011453 METAR KBLI 011453Z 35004KT 10SM OVC025 04/M02 A3016 RMK AO2 SLP222 T00391022 51008=
201512011353 METAR KBLI 011353Z AUTO 34004KT 10SM OVC025 04/M02 A3016 RMK AO2 SLP222 T00391022=
201512011253 METAR KBLI 011253Z AUTO 33004KT 10SM OVC025 04/M02 A3015 RMK AO2 SLP218 T00391022=
201512011153 METAR KBLI 011153Z AUTO 33003KT 10SM OVC025 03/M02 A3013 RMK AO2 SLP214 T00331017 10044 20028 51005=
201512011053 METAR KBLI 011053Z AUTO 36003KT 10SM OVC029 03/M02 A3013 RMK AO2 SLP214 T00331017=
201512011039 SPECI KBLI 011039Z AUTO 00000KT 10SM OVC029 03/M02 A3014 RMK AO2=
201512010953 METAR KBLI 010953Z AUTO 34003KT 10SM OVC033 03/M02 A3014 RMK AO2 SLP215 T00281022=
201512010853 METAR KBLI 010853Z 36005KT 10SM OVC035 03/M03 A3012 RMK AO2 SLP208 T00281028 53002=
201512010753 METAR KBLI 010753Z 02003KT 10SM OVC037 03/M02 A3012 RMK AO2 SLP208 T00331022 400781067=
201512010653 METAR KBLI 010653Z 00000KT 10SM OVC035 04/M02 A3011 RMK AO2 SLP205 T00391022=
201512010553 METAR KBLI 010553Z 34004KT 10SM OVC031 03/M02 A3011 RMK AO2 SLP207 T00331017 10078 20028 53003=
201512010549 SPECI KBLI 010549Z 34004KT 10SM OVC031 03/M02 A3011 RMK AO2=
201512010516 SPECI KBLI 010516Z 35006KT 10SM OVC028 06/01 A3011 RMK AO2=
201512010504 SPECI KBLI 010504Z 00000KT 10SM OVC030 07/03 A3011 RMK AO2=
201512010453 METAR KBLI 010453Z 08004KT 10SM BKN028 OVC033 07/03 A3011 RMK AO2 SLP204 T00720028=
201512010442 SPECI KBLI 010442Z 03003KT 10SM BKN028 OVC033 04/M01 A3010 RMK AO2=
201512010420 SPECI KBLI 010420Z 35003KT 10SM OVC031 03/M02 A3010 RMK AO2=
201512010353 METAR KBLI 010353Z 00000KT 10SM OVC027 03/M03 A3011 RMK AO2 SLP205 T00331028=
201512010336 SPECI KBLI 010336Z VRB05KT 10SM BKN027 OVC036 07/01 A3010 RMK AO2=
201512010327 SPECI KBLI 010327Z 15010G14KT 10SM SCT026 OVC036 07/02 A3010 RMK AO2=
201512010253 METAR KBLI 010253Z 03006KT 10SM BKN028 OVC034 03/M03 A3010 RMK AO2 SLP204 T00331028 50008=
201512010249 SPECI KBLI 010249Z VRB06KT 10SM BKN030 OVC034 07/01 A3010 RMK AO2=
201512010153 METAR KBLI 010153Z 02003KT 10SM BKN025 OVC050 03/M03 A3009 RMK AO2 SLP199 T00281033=
201512010053 METAR KBLI 010053Z 00000KT 10SM BKN050 OVC085 03/M04 A3008 RMK AO2 SLP196 T00281039=

# No short TAF reports from KBLI in databse.

###################################
#  large TAF from KBLI
###################################
201512312320 TAF KBLI 312320Z 0100/0124 02005KT P6SM SKC=
201512311720 TAF KBLI 311720Z 3118/0118 02006KT P6SM SKC=
201512311130 TAF KBLI 311130Z 3112/0112 02006KT P6SM SKC=
201512310530 TAF KBLI 310530Z 3106/0106 00000KT P6SM SKC=
201512302320 TAF KBLI 302320Z 3100/3124 02005KT P6SM SKC=
201512301720 TAF KBLI 301720Z 3018/3118 02004KT P6SM SKC=
201512301124 TAF KBLI 301124Z 3012/3112 36008KT P6SM SKC FM310600 02004KT P6SM
                       SKC=
201512300530 TAF KBLI 300530Z 3006/3106 01008KT P6SM SKC=
201512292325 TAF KBLI 292325Z 3000/3024 01010KT P6SM SCT070 FM300600 01006KT
                       P6SM SKC=
201512291724 TAF KBLI 291724Z 2918/3018 01004KT P6SM OVC070 FM292100 01005KT
                       P6SM SCT070 FM300300 01006KT P6SM SKC=
201512291406 TAF AMD KBLI 291406Z 2914/3012 00000KT P6SM OVC070 FM292000 01005KT
                       P6SM SCT250 FM300300 01006KT P6SM SKC=
201512291130 TAF KBLI 291130Z 2912/3012 00000KT 5SM BR SCT015 OVC080
                      TEMPO 2913/2917 BKN015 FM292220 01005KT P6SM
                       SCT250 FM300300 01006KT P6SM SKC=
201512290530 TAF KBLI 290530Z 2906/3006 00000KT P6SM OVC090 FM291100 00000KT
                       P6SM OVC025 FM291800 03004KT P6SM SCT030
                       BKN060 FM292300 02006KT P6SM SCT250=
201512290132 TAF AMD KBLI 290132Z 2902/2924 00000KT P6SM FEW015 SCT050 OVC090
                       FM290600 02003KT P6SM OVC012 FM291800 03004KT
                       P6SM SCT025 FM292100 02006KT P6SM SKC=
201512282320 TAF KBLI 282320Z 2900/2924 35004KT P6SM SCT020 BKN040 FM290600
                       02003KT P6SM OVC012 FM291800 03004KT P6SM
                       SCT025 FM292100 02006KT P6SM SKC=
201512281720 TAF KBLI 281720Z 2818/2918 02004KT P6SM FEW002 SCT020 OVC040
                      TEMPO 2818/2821 5SM BR BKN002 FM282100 35004KT
                       P6SM SCT025 BKN040 FM290600 02003KT P6SM
                       OVC012=
201512281305 TAF AMD KBLI 281305Z 2813/2912 00000KT 3SM BR SCT001 OVC008
                      TEMPO 2813/2817 1/2SM FG BKN001 OVC008 FM281700
                       00000KT 5SM BR SCT002 OVC008 FM282000 00000KT
                       P6SM SCT006 OVC012=
201512281141 TAF KBLI 281141Z 2812/2912 00000KT 3SM BR BKN001 OVC008 FM281700
                       00000KT 4SM BR SCT002 OVC008 FM282000 00000KT
                       P6SM SCT006 OVC012=
201512280540 TAF KBLI 280540Z 2806/2906 00000KT P6SM SCT002 OVC015
                      TEMPO 2806/2810 3SM -RA BKN002 OVC015 FM282000
                       00000KT P6SM SCT012 OVC022=
201512280340 TAF AMD KBLI 280340Z 2804/2824 00000KT P6SM SCT002 OVC015
                      TEMPO 2804/2805 3SM -RA BKN002 OVC015 FM282000
                       00000KT P6SM SCT012 OVC022=
201512272332 TAF KBLI 272332Z 2800/2824 00000KT P6SM -RA FEW004 OVC018 FM280400
                       00000KT 5SM BR VCSH OVC017 FM281200 00000KT
                       P6SM OVC015=
201512271727 TAF KBLI 271727Z 2718/2818 05007KT P6SM OVC060 FM271900 05008KT
                       P6SM -RA OVC025 FM280500 VRB03KT P6SM VCSH
                       OVC020=
201512271121 TAF KBLI 271121Z 2712/2812 08010KT P6SM SCT050 OVC080 FM271300
                       10014G20KT P6SM -RA SCT025 OVC045 FM271700
                       12014G21KT P6SM -RA OVC025 FM272300 12008KT
                       P6SM -RA OVC015 FM280600 04003KT P6SM OVC015=
201512270520 TAF KBLI 270520Z 2706/2806 04006KT P6SM SCT040 OVC080 FM270800
                       10011G20KT P6SM SCT040 OVC080 FM271300 10014G20KT
                       P6SM -RA SCT025 OVC045 FM271700 12014G21KT
                       P6SM -RA OVC025 FM272300 12008KT P6SM -RA
                       OVC015=
201512262323 TAF KBLI 262323Z 2700/2724 02004KT P6SM OVC090 FM270200 10011G20KT
                       P6SM SCT045 OVC090 FM271300 10014G20KT P6SM
                       -RA SCT025 OVC045 FM271700 12014G21KT P6SM
                       -RA OVC025=
201512261732 TAF KBLI 261732Z 2618/2718 00000KT P6SM BKN035 OVC120 FM270100
                       10010KT P6SM BKN035 OVC100 FM271200 17012KT
                       P6SM -RA SCT020 OVC035=
201512261120 TAF KBLI 261120Z 2612/2712 15005KT P6SM SCT020 OVC040 FM261900
                       12007KT P6SM OVC050 FM270300 10010KT P6SM
                       SCT050 OVC100=
201512260520 TAF KBLI 260520Z 2606/2706 13003KT P6SM SCT250 FM260900 15005KT
                       P6SM OVC030 FM261900 10007KT P6SM SCT050
                       OVC120=
201512252334 TAF KBLI 252334Z 2600/2624 00000KT P6SM FEW050 FM260300 10003KT
                       P6SM SCT250 FM260900 10005KT P6SM OVC025
                       FM261900 13007KT P6SM SCT050 OVC120=
201512251725 TAF KBLI 251725Z 2518/2618 00000KT 4SM BR SCT028 OVC045 FM252000
                       33002KT P6SM SCT011 BKN020 OVC030 FM252100
                       34003KT P6SM BKN030 FM260500 VRB03KT P6SM
                       OVC035=
201512251120 TAF KBLI 251120Z 2512/2612 04003KT 4SM BR SCT015 OVC040 FM251900
                       35005KT P6SM SCT025 SCT250 FM260000 VRB03KT
                       P6SM SCT100 SCT250=
201512250520 TAF KBLI 250520Z 2506/2606 04003KT P6SM SCT015 OVC030 FM251500
                       01004KT P6SM BKN015 OVC025 FM251900 01005KT
                       P6SM SCT025 SCT250=
201512250038 TAF AMD KBLI 250038Z 2501/2524 04003KT P6SM -SHRA SCT003 BKN010
                       OVC030 FM250230 04003KT P6SM SCT015 OVC025
                       FM251500 01004KT P6SM SCT025 BKN050 FM251900
                       01005KT P6SM SCT250=
201512242327 TAF KBLI 242327Z 2500/2524 35004KT 6SM -SHRA BR OVC004 FM250200
                       05003KT P6SM OVC015 FM250500 01003KT P6SM
                       OVC025 FM251500 01004KT P6SM SCT025 BKN050
                       FM251900 01005KT P6SM SCT250=
201512242254 TAF AMD KBLI 242254Z 2423/2518 00000KT 6SM -SHRA BKN004 OVC008
                       FM250200 05003KT P6SM OVC015 FM250500 01003KT
                       P6SM OVC025 FM251500 01004KT P6SM SCT025
                       BKN050=
201512241735 TAF KBLI 241735Z 2418/2518 15008KT P6SM VCSH BKN014 OVC025 FM250000
                       05003KT P6SM OVC020 FM250500 01003KT P6SM
                       OVC025 FM251500 01004KT P6SM SCT025 BKN050=
201512241129 TAF KBLI 241129Z 2412/2512 16008KT P6SM -SHRA OVC010 FM241800 02005KT
                       P6SM -SHRA OVC010 FM250000 05003KT P6SM
                       OVC020 FM250500 01003KT P6SM OVC025=
201512240520 TAF KBLI 240520Z 2406/2506 15010KT P6SM -SHRA OVC020 FM241200 16008KT
                       P6SM -SHRA BKN015 OVC020 FM241800 02005KT
                       P6SM -SHRA OVC010 FM250000 36003KT P6SM
                       OVC020=
201512232333 TAF KBLI 232333Z 2400/2424 15014G20KT P6SM -SHRA BKN021 BKN029
                       OVC080 FM241200 16008KT P6SM -SHRA BKN015
                       OVC020=
201512231745 TAF KBLI 231745Z 2318/2418 14011KT P6SM -SHRA OVC012 FM232100 16012KT
                       P6SM -SHRA SCT012 OVC020 FM241200 16008KT
                       P6SM -SHRA BKN012 OVC020=
201512231136 TAF KBLI 231136Z 2312/2412 00000KT P6SM -RA BKN014 OVC018 FM231400
                       16008KT P6SM SCT015 OVC030
                      TEMPO 2314/2318 -SHRA OVC014 FM232100 16012KT
                       P6SM VCSH SCT025 BKN040=
201512230526 TAF KBLI 230526Z 2306/2406 06004KT P6SM BKN023 BKN040 OVC050 FM230800
                       16014G22KT P6SM -SHRA BKN025 BKN035 FM231800
                       16012KT P6SM VCSH SCT025 BKN040=
201512230003 TAF AMD KBLI 230003Z 2300/2324 15010KT P6SM BKN025 OVC040 FM230300
                       14010KT P6SM -RA BKN025 OVC040 FM230800
                       16014G22KT P6SM -SHRA BKN025 BKN035 FM231800
                       16012KT P6SM VCSH SCT025 BKN040=
201512222328 TAF KBLI 222328Z 2300/2324 15010KT P6SM SCT015 BKN040 FM230300
                       14010KT P6SM -RA BKN025 OVC040 FM230800
                       16014G22KT P6SM -SHRA BKN025 BKN035 FM231800
                       16012KT P6SM VCSH SCT025 BKN040=
201512222111 TAF AMD KBLI 222111Z 2221/2318 15006KT P6SM SCT015 BKN045
                      TEMPO 2221/2223 -SHRA BKN015 OVC035 FM230300
                       14010KT P6SM -RA BKN025 OVC040 FM230800
                       16014KT P6SM -SHRA BKN025 BKN035=
201512221727 TAF KBLI 221727Z 2218/2318 15006KT P6SM SCT035 BKN050 FM230300
                       14010KT P6SM -RA BKN025 OVC040 FM230800
                       16014KT P6SM -SHRA BKN025 BKN035=
201512221139 TAF KBLI 221139Z 2212/2312 17004KT P6SM -SHRA BKN018 OVC030
                      TEMPO 2212/2215 SCT020 BKN035 OVC050 FM221500
                       15004KT P6SM BKN020 OVC040
                      TEMPO 2216/2218 SCT020 BKN050 FM221900 14009KT
                       P6SM SCT025 BKN045 FM230000 12010KT P6SM
                       -RA BKN025 OVC040 FM230300 12009KT P6SM
                       -RA BKN015 OVC030=
201512220744 TAF AMD KBLI 220744Z 2208/2306 VRB03KT P6SM -SHRA SCT015 BKN025
                       OVC045
                      TEMPO 2208/2212 BKN008 BKN015 OVC025 FM221200
                       VRB03KT 6SM BR BKN008 BKN015 OVC025 FM222000
                       15009KT P6SM VCSH BKN025 BKN040 FM222300
                       12010KT P6SM -RA OVC025=
201512220535 TAF KBLI 220535Z 2206/2306 VRB03KT P6SM -SHRA BKN025 OVC045 FM220900
                       VRB03KT P6SM VCSH BKN015 OVC030 FM222000
                       15009KT P6SM VCSH BKN025 BKN040 FM222300
                       12010KT P6SM -RA OVC025=
201512220256 TAF AMD KBLI 220256Z 2203/2224 VRB03KT P6SM VCSH SCT025 OVC050
                       TEMPO 2203/2207 BKN019 BKN025 OVC050 FM220700
                       VRB03KT P6SM -SHRA BKN030 BKN045 FM221800
                       16007KT P6SM VCSH SCT030 OVC050 FM222300
                       15008KT P6SM -RA BKN035 OVC050=
201512212332 TAF KBLI 212332Z 2200/2224 VRB03KT P6SM VCSH SCT035 OVC050 FM220700
                       VRB03KT P6SM -SHRA BKN030 BKN045 FM221800
                       16007KT P6SM VCSH SCT030 OVC050 FM222300
                       15008KT P6SM -RA BKN035 OVC050=
201512212105 TAF AMD KBLI 212105Z 2121/2218 34009KT P6SM SCT035 OVC050
                      TEMPO 2121/2201 -RA OVC035 FM220100 VRB03KT
                       P6SM -SHRA BKN030 OVC045=
201512211730 TAF KBLI 211730Z 2118/2218 01009KT P6SM -RA BKN030 OVC045 FM220300
                       VRB03KT P6SM -SHRA BKN030 OVC045=
201512211140 TAF KBLI 211140Z 2112/2212 14010KT P6SM BKN020 OVC030 FM211600
                       10010KT P6SM -RA SCT020 OVC040 FM211800
                       03009KT P6SM -RA BKN025 OVC040 FM220300
                       VRB04KT P6SM -SHRA BKN020 OVC040=
201512210534 TAF KBLI 210534Z 2106/2206 17012KT P6SM BKN025 OVC040 FM211300
                       12010KT P6SM -RA OVC020 FM211700 03010KT
                       P6SM -RA OVC025 FM212100 36010KT P6SM -RA
                       BKN025 OVC050=
201512202335 TAF KBLI 202335Z 2100/2124 17006KT P6SM FEW020 SCT028 OVC090
                      TEMPO 2100/2104 -SHRA BKN028 FM210800 18006KT
                       P6SM OVC015
                      TEMPO 2110/2114 -RA FM211400 12008KT P6SM
                       -RA OVC015
                      TEMPO 2120/2124 4SM -RA BR OVC010=
201512201730 TAF KBLI 201730Z 2018/2118 15008KT P6SM FEW011 OVC021 FM202200
                       18012G20KT P6SM -SHRA BKN030 OVC060 FM210000
                       16012KT P6SM -SHRA BKN035 BKN060 FM211200
                       02010KT P6SM -RA OVC035=
201512201228 TAF AMD KBLI 201228Z 2012/2112 14025G40KT P6SM -RA BKN030 OVC050
                       FM201400 15020G30KT 5SM -RA BR BKN025 OVC040
                       FM201800 18012G20KT P6SM -SHRA BKN030 OVC060
                       FM210000 16012KT P6SM -SHRA BKN035 BKN060=
201512201137 TAF KBLI 201137Z 2012/2112 14020G30KT P6SM -RA BKN030 OVC050 FM201400
                       15015G25KT 5SM -RA BR BKN025 OVC040 FM201800
                       18012G20KT P6SM -SHRA BKN030 OVC060=
201512200538 TAF KBLI 200538Z 2006/2106 15018G30KT P6SM OVC030 FM200800 14024G36KT
                       6SM -RA BR OVC020 FM201300 15016G28KT 4SM
                       -RA BR OVC015 FM201800 18012G20KT P6SM -SHRA
                       BKN030 OVC060=
201512200254 TAF AMD KBLI 200254Z 2003/2024 16016G28KT P6SM BKN030 OVC080 FM200600
                       14024G36KT P6SM -RA OVC050 FM201200 15021KT
                       4SM -RA BR OVC025 FM201800 19012KT P6SM
                       -SHRA BKN030 OVC060=
201512192335 TAF KBLI 192335Z 2000/2024 16013G17KT P6SM VCSH BKN030 BKN090
                      TEMPO 2000/2004 SCT030 BKN090 FM200600 14024G36KT
                       P6SM -RA OVC050 FM201200 15021KT 4SM -RA
                       BR OVC025 FM201800 19012KT P6SM -SHRA BKN030
                       OVC060=
201512191730 TAF KBLI 191730Z 1918/2018 14008KT P6SM VCSH BKN030 OVC040
                      TEMPO 1920/1924 SCT040 FM200500 16014KT P6SM
                       -RA BKN040 OVC070 FM200800 16016G28KT P6SM
                       -RA OVC035=
201512191124 TAF KBLI 191124Z 1912/2012 15006KT P6SM VCSH SCT025 BKN050
                      TEMPO 1912/1916 BKN025 OVC045 FM191800 15010KT
                       P6SM BKN050 BKN250 FM200500 16014KT P6SM
                       -RA BKN040 OVC070 FM200800 16016G28KT P6SM
                       -RA OVC035=
201512190801 TAF AMD KBLI 190801Z 1908/2006 16006KT P6SM VCSH SCT030 BKN050
                       TEMPO 1908/1912 BKN030 FM192100 16014KT
                       P6SM -RA BKN040 OVC080 FM200300 16016KT
                       P6SM -RA OVC030=
201512190521 TAF KBLI 190521Z 1906/2006 16006KT P6SM VCSH SCT030 BKN050 FM192100
                       16014KT P6SM -RA BKN040 OVC080 FM200300
                       16016KT P6SM -RA OVC030=
201512182330 TAF KBLI 182330Z 1900/1924 16008KT P6SM VCSH SCT045 BKN080
                      TEMPO 1900/1904 -SHRA BKN045 BKN080 FM190400
                       16008KT P6SM VCSH BKN070 OVC250=
201512181730 TAF KBLI 181730Z 1818/1918 17007KT P6SM VCSH FEW012 SCT025 BKN040
                       FM190300 15006KT P6SM SCT040 BKN070=
201512181134 TAF KBLI 181134Z 1812/1912 VRB03KT P6SM SCT010 BKN022 OVC035 FM181400
                       18008KT P6SM SCT022 BKN035 BKN050 FM181700
                       18012G18KT P6SM SCT035 BKN050 FM190300 15006KT
                       P6SM SCT040 BKN070=
201512180537 TAF KBLI 180537Z 1806/1906 05008KT 4SM -RA BKN025 OVC035 FM181200
                       15015G25KT 6SM -RA BR BKN015 OVC030 FM181800
                       17010KT P6SM -SHRA SCT020 BKN030 OVC060=
201512180013 TAF AMD KBLI 180013Z 1800/1824 03012KT 5SM -RASN BR SCT015 OVC030
                       WS020/15025KT
                      TEMPO 1800/1804 3SM -RASN BR BKN015 OVC030
                       FM180400 06010KT 4SM -RASN BR BKN015 OVC030
                       WS020/15025KT FM180900 10010KT 4SM -RA BR
                       OVC015 FM181200 15015G25KT 6SM -RA BR BKN015
                       OVC030 FM181800 17010KT P6SM -SHRA FEW018
                       BKN030 OVC060=
201512172345 TAF KBLI 172345Z 1800/1824 03012KT 5SM -RASN BR SCT015 OVC030
                      TEMPO 1800/1804 3SM -RASN BR BKN015 OVC030
                       FM180400 06010KT 4SM -RASN BR BKN015 OVC030
                       FM180900 10010KT 4SM -RA BR OVC015 FM181200
                       15015G25KT 6SM -RA BR BKN015 OVC030 FM181800
                       17010KT P6SM -SHRA FEW018 BKN030 OVC060=
201512172259 TAF AMD KBLI 172259Z 1723/1818 03012KT 3SM -RASN BR OVC015 WS020/14025KT
                       FM180600 10012KT 5SM -RA BR OVC020 WS020/16025KT
                       FM181200 15013G20KT 5SM -RA BR SCT008 OVC020
                       FM181500 17015G25KT 6SM -RA BR SCT008 BKN020
                       OVC035=
201512172238 TAF KBLI 172238Z 1723/1818 03012KT 6SM -RASN BR OVC025 WS020/14025KT
                       FM180600 10012KT 5SM -RA BR OVC020 WS020/16025KT
                       FM181200 15013G20KT 5SM -RA BR SCT008 OVC020
                       FM181500 17015G25KT 6SM -RA BR SCT008 BKN020
                       OVC035=
201512172236 TAF AMD KBLI 172236Z 1723/1818 05012KT 6SM -RASN BR OVC025 WS020/14025KT
                       FM180600 10012KT 5SM -RA BR OVC020 WS020/16025KT
                       FM181200 15013G20KT 5SM -RA BR SCT008 OVC020
                       FM181500 17015G25KT 6SM -RA BR SCT008 BKN020
                       OVC035=
201512171945 TAF AMD KBLI 171945Z 1720/1818 02008KT 6SM -RASN BR OVC025 WS020/14025KT
                       TEMPO 1720/1722 3SM -RASN BR FM172200 05012KT
                       3SM -RASN BR OVC020 WS020/14025KT FM180600
                       10012KT 5SM -RA BR OVC020 WS020/16025KT
                       FM181200 15013G20KT 5SM -RA BR SCT008 OVC020
                       FM181500 17015G25KT 6SM -RA BR SCT008 BKN020
                       OVC035=
201512171720 TAF KBLI 171720Z 1718/1818 02007KT P6SM FEW035 OVC045 WS020/14025KT
                       FM172300 05012KT 6SM -RA BR SCT020 OVC035
                       WS020/14025KT FM180600 10012KT 5SM -RA BR
                       OVC020 WS020/16025KT FM181200 15013G20KT
                       5SM -RA BR SCT008 OVC020 FM181500 17015G25KT
                       6SM -RA BR SCT008 BKN020 OVC035=
201512171132 TAF KBLI 171132Z 1712/1812 04008KT P6SM OVC050 FM171600 04008KT
                       P6SM -RA OVC040=
201512170541 TAF KBLI 170541Z 1706/1806 02008KT P6SM OVC150 FM170900 02008KT
                       P6SM OVC100 FM171400 04008KT P6SM -RA OVC050
                       FM172300 06008KT 5SM -RA OVC030=
201512170039 TAF AMD KBLI 170039Z 1701/1724 VRB03KT P6SM FEW110 OVC200 FM170600
                       05008KT P6SM SCT110 OVC200 FM171500 07013KT
                       P6SM FEW030 BKN050 OVC110
                      TEMPO 1715/1718 -RA FM171800 07013KT P6SM
                       -RA FEW018 BKN030 OVC050=
201512162341 TAF KBLI 162341Z 1700/1724 04006KT P6SM FEW050 BKN200 FM170300
                       06008KT P6SM SCT110 OVC200 FM171200 08012KT
                       P6SM SCT050 OVC110
                      PROB30 1712/1718 -RA OVC050=
201512161823 TAF AMD KBLI 161823Z 1618/1718 04007KT P6SM FEW050 BKN200 FM170300
                       06008KT P6SM SCT110 OVC200 FM171200 08012KT
                       P6SM SCT050 OVC110
                      PROB30 1712/1718 -RA OVC050=
201512161749 TAF KBLI 161749Z 1618/1718 02008KT P6SM SCT200 FM162000 04010KT
                       P6SM SCT050 BKN200 FM171000 04010KT P6SM
                       SCT050 OVC100=
201512161513 TAF AMD KBLI 161513Z 1615/1712 36005KT 6SM BR OVC004
                      TEMPO 1615/1617 2SM BR VV002 FM161800 02008KT
                       P6SM SCT007 SCT035 BKN200 FM162000 04010KT
                       P6SM SCT050 BKN200 FM171000 04010KT P6SM
                       SCT050 OVC100=
201512161147 TAF KBLI 161147Z 1612/1712 00000KT 4SM BR SCT002 BKN050
                      TEMPO 1612/1616 3/4SM BR BKN002 OVC050 FM161700
                       03006KT P6SM SCT010 BKN050 FM162000 04010KT
                       P6SM SCT050 BKN200 FM171000 04010KT P6SM
                       SCT050 OVC100=
201512160540 TAF KBLI 160540Z 1606/1706 12006KT P6SM -RA OVC009 FM161200 01006KT
                       5SM BR OVC012 FM161800 01006KT P6SM BKN015
                       BKN200 FM162000 04006KT P6SM BKN200=
201512160058 TAF AMD KBLI 160058Z 1601/1624 17010KT P6SM -RA SCT009 OVC020
                      TEMPO 1604/1608 3SM -RA BR BKN009 OVC020
                       FM160800 VRB05KT 3SM -RA BR OVC009 FM161200
                       01006KT 5SM BR OVC012 FM161800 01006KT P6SM
                       BKN015 BKN200 FM162000 04006KT P6SM BKN200=
201512152341 TAF KBLI 152341Z 1600/1624 16012KT 5SM -RA BR OVC024 FM160600 VRB04KT
                       3SM BR OVC008=
201512152115 TAF AMD KBLI 152115Z 1521/1618 16013KT P6SM -RA SCT015 OVC030
                      TEMPO 1521/1524 5SM -RA BR BKN015 OVC030
                       FM160000 12006KT 4SM -RA BR OVC015 FM160600
                       VRB04KT 3SM BR OVC008=
201512152005 TAF AMD KBLI 152005Z 1520/1618 16013KT P6SM FEW018 OVC035
                      TEMPO 1520/1522 -RA FM152200 15008KT 6SM
                       -RA BR BKN018 OVC030
                      TEMPO 1522/1524 4SM -RA BR BKN018 OVC030
                       FM160000 12006KT 4SM -RA BR OVC018 FM160600
                       VRB04KT 3SM BR OVC008=
201512151743 TAF KBLI 151743Z 1518/1618 15008KT P6SM SCT035 OVC060
                      TEMPO 1518/1522 -RA FM152200 15008KT 6SM
                       -RA BR SCT018 OVC035
                      TEMPO 1522/1524 4SM -RA BR BKN018 OVC035
                       FM160000 12006KT 4SM -RA BR OVC018 FM160600
                       VRB04KT 3SM BR OVC008=
201512151502 TAF AMD KBLI 151502Z 1515/1612 15006KT P6SM SCT035 OVC070 FM151900
                       15008KT P6SM -RA BKN015 OVC025 FM160600
                       02008KT P6SM SCT025 BKN050=
201512151138 TAF KBLI 151138Z 1512/1612 17006KT P6SM SCT004 BKN025
                      TEMPO 1512/1516 BKN004 OVC025 FM151900 15008KT
                       P6SM -RA BKN015 OVC025 FM160600 02008KT
                       P6SM SCT025 BKN050=
201512150543 TAF KBLI 150543Z 1506/1606 VRB03KT P6SM BKN035 OVC050
                      TEMPO 1506/1510 3SM BR FM151900 15008KT P6SM
                       -RA BKN015 OVC030=
201512142344 TAF KBLI 142344Z 1500/1524 VRB03KT 6SM BR SCT006 OVC015
                      TEMPO 1500/1504 3SM BR BKN006 OVC015 FM150400
                       00000KT 2SM BR OVC006
                      TEMPO 1509/1513 3/4SM BR OVC004 FM151800
                       15007KT 5SM BR OVC012
                      PROB30 1518/1524 3SM -RA BR=
201512142259 TAF AMD KBLI 142259Z 1423/1518 VRB03KT 6SM BR VCSH OVC007
                      TEMPO 1423/1502 1 1/2SM BR OVC004 FM150300
                       VRB03KT P6SM SCT040 BKN070 OVC150 FM151200
                       15005KT P6SM SCT030 OVC060=
201512142230 TAF AMD KBLI 142230Z 1423/1518 VRB03KT 4SM BR VCSH OVC007
                      TEMPO 1423/1502 1 1/2SM BR OVC005 FM150300
                       VRB03KT P6SM SCT040 BKN070 OVC150 FM151200
                       15005KT P6SM SCT030 OVC060=
201512142102 TAF AMD KBLI 142102Z 1421/1518 VRB03KT P6SM VCSH BKN010 OVC035
                       FM150000 VRB03KT P6SM SCT040 BKN070 FM150300
                       VRB03KT P6SM SCT040 BKN070 OVC150 FM151200
                       15005KT P6SM SCT030 OVC060=
201512141846 TAF AMD KBLI 141846Z 1419/1518 17005KT P6SM VCSH SCT015 OVC035
                       TEMPO 1419/1421 -SHRA BKN015 OVC035 FM142100
                       VRB03KT P6SM BKN035 OVC060 FM150000 VRB03KT
                       P6SM SCT040 BKN070 FM150300 VRB03KT P6SM
                       SCT040 BKN070 OVC150 FM151200 15005KT P6SM
                       SCT030 OVC060=
201512141801 TAF AMD KBLI 141801Z 1418/1518 17005KT P6SM OVC022
                      TEMPO 1418/1420 -SHRA FM142000 VRB03KT P6SM
                       BKN028 OVC060 FM150000 VRB03KT P6SM BKN035
                       BKN070 FM150300 VRB03KT P6SM SCT040 BKN070
                       OVC150 FM151200 15005KT P6SM SCT030 OVC060=
201512141740 TAF KBLI 141740Z 1418/1518 17005KT P6SM OVC022 FM142000 VRB03KT
                       P6SM BKN028 OVC060 FM150000 VRB03KT P6SM
                       BKN035 BKN070 FM150300 VRB03KT P6SM SCT040
                       BKN070 OVC150 FM151200 15005KT P6SM SCT030
                       OVC060=
201512141509 TAF KBLI 141509Z 1415/1512 17004KT P6SM VCSH OVC035
                      TEMPO 1415/1418 OVC028 FM141900 34005KT P6SM
                       SCT035 BKN060 FM150300 VRB04KT P6SM BKN030=
201512141508 TAF AMD KBLI 141508Z 1415/1512 20004KT P6SM VCSH OVC035
                      TEMPO 1415/1418 OVC028 FM141900 34005KT P6SM
                       SCT035 BKN060 FM150300 VRB04KT P6SM BKN030=
201512141151 TAF KBLI 141151Z 1412/1512 20004KT P6SM BKN035 OVC060 FM141900
                       34005KT P6SM SCT035 BKN060 FM150300 VRB04KT
                       P6SM BKN030=
201512140542 TAF KBLI 140542Z 1406/1506 20004KT P6SM BKN035 OVC060 FM141900
                       34005KT P6SM SCT035 BKN060 FM150300 VRB04KT
                       P6SM BKN035=
201512132321 TAF KBLI 132321Z 1400/1424 17006KT P6SM FEW010 BKN035 OVC070
                      TEMPO 1400/1403 -SHRA SCT010 BKN030 OVC050
                       FM140400 33004KT P6SM BKN030 OVC060 FM141900
                       34005KT P6SM SCT035 BKN070=
201512131724 TAF KBLI 131724Z 1318/1418 16015G25KT P6SM -SHRA SCT015 BKN020
                       OVC030 FM140000 18010KT P6SM OVC025=
201512131137 TAF KBLI 131137Z 1312/1412 16022G40KT P6SM -RA BKN030 OVC045 FM131600
                       17018G32KT P6SM -RA OVC020 FM131900 18015KT
                       P6SM -SHRA OVC020 FM140000 18010KT P6SM
                       VCSH OVC025=
201512130547 TAF KBLI 130547Z 1306/1406 16018G28KT P6SM -RA SCT020 OVC035 FM130900
                       17025G42KT P6SM -RA BKN020 OVC035 FM131600
                       18018G30KT P6SM -RA OVC020 FM131900 18015KT
                       P6SM -SHRA OVC020 FM140000 18010KT P6SM
                       -SHRA OVC020=
201512122323 TAF KBLI 122323Z 1300/1324 13015G25KT P6SM -RA FEW020 OVC040 FM130400
                       16018G28KT P6SM -SHRA SCT020 OVC040 FM130900
                       16024G38KT P6SM BKN020 OVC035 FM131500 18014G22KT
                       P6SM OVC020=
201512122237 TAF AMD KBLI 122237Z 1223/1318 11013G22KT P6SM -RA OVC035 FM130000
                       15020G32KT P6SM -RA BKN025 OVC035 FM130400
                       16020G32KT P6SM -SHRA SCT025 OVC045 FM130900
                       16024G38KT P6SM -SHRA BKN020 OVC035=
201512121720 TAF KBLI 121720Z 1218/1318 13014G24KT P6SM -RA SCT025 OVC035 FM122100
                       15025G45KT P6SM -RA BKN025 OVC035 FM130400
                       16020G40KT P6SM -SHRA SCT025 OVC045 FM130900
                       16018G30KT P6SM -SHRA BKN020 OVC035=
201512121129 TAF KBLI 121129Z 1212/1312 16005KT P6SM SCT015 BKN080 BKN200 FM121500
                       14012G22KT P6SM -RA FEW025 OVC050 FM121800
                       15022G25KT 6SM -RA SCT025 OVC045 FM122100
                       15025G45KT P6SM -RA BKN025 OVC040 FM130400
                       16020G40KT P6SM -SHRA SCT025 OVC045 FM130900
                       16018G30KT P6SM -SHRA BKN030 BKN050=
201512120521 TAF KBLI 120521Z 1206/1306 VRB04KT P6SM SCT100 SCT200 FM120900
                       16005KT P6SM BKN080 BKN200 FM121500 14012G22KT
                       P6SM -RA FEW025 OVC050 FM121700 15022G25KT
                       6SM -RA SCT025 OVC045 FM122100 15025G45KT
                       P6SM -RA BKN025 OVC040 FM130400 16020G40KT
                       P6SM -SHRA SCT025 OVC045=
201512112320 TAF KBLI 112320Z 1200/1224 01008KT P6SM SCT100 BKN200 FM120300
                       01004KT P6SM SCT100 SCT200 FM120900 16005KT
                       P6SM BKN080 BKN200 FM121600 14012G20KT P6SM
                       -RA FEW025 OVC050 FM122000 15022G34KT 6SM
                       -RA SCT025 OVC045=
201512111726 TAF KBLI 111726Z 1118/1218 36003KT P6SM SCT050 BKN090 BKN200 FM120300
                       01004KT P6SM SCT090 SCT200 FM120900 16005KT
                       P6SM BKN080 BKN200 FM121600 14012G20KT P6SM
                       -RA FEW025 OVC050=
201512111145 TAF KBLI 111145Z 1112/1212 13010KT P6SM SCT030 BKN080 FM111600
                       08006KT P6SM SCT080 FM111900 03006KT P6SM
                       SCT080 FM120600 16005KT P6SM BKN080 BKN200
                       FM121100 14008KT P6SM SCT050 OVC080=
201512110536 TAF KBLI 110536Z 1106/1206 15015G25KT P6SM VCSH SCT030 BKN050 FM110900
                       14012KT P6SM VCSH SCT030 BKN050 FM111200
                       05007KT P6SM SCT030 BKN050 FM111800 03006KT
                       P6SM SCT050=
201512102334 TAF KBLI 102334Z 1100/1124 16016G24KT P6SM -SHRA SCT020 BKN040
                       FM110500 15014G22KT P6SM VCSH SCT030 BKN050
                       FM111200 05007KT P6SM SCT030 BKN050 FM112000
                       03007KT P6SM SCT050=
201512101728 TAF KBLI 101728Z 1018/1118 07003KT P6SM -RA SCT025 OVC050 FM102000
                       15016G24KT 6SM -SHRA OVC025 FM102200 16017G24KT
                       P6SM -SHRA SCT035 BKN050 BKN070 FM110300
                       17012G18KT P6SM -SHRA SCT035 BKN060 FM110700
                       17008G15KT P6SM VCSH SCT035 BKN060=
201512101357 TAF AMD KBLI 101357Z 1014/1112 12011G25KT P6SM -RA OVC040 FM101900
                       16020G35KT P6SM -SHRA SCT035 OVC050 FM110200
                       12008KT P6SM -SHRA SCT035 BKN060=
201512101141 TAF KBLI 101141Z 1012/1112 04010G18KT P6SM OVC100 FM101500 05014G20KT
                       P6SM -RA OVC050 FM101900 16020G35KT P6SM
                       -SHRA SCT035 OVC050 FM110200 12008KT P6SM
                       -SHRA SCT035 BKN060=
201512100548 TAF KBLI 100548Z 1006/1106 12010KT P6SM SCT040 SCT120 OVC200 FM101200
                       12018G30KT P6SM -RA SCT030 OVC060 FM101600
                       17020G35KT P6SM -RA OVC030 FM110000 14012G22KT
                       5SM -RA BKN030 OVC060=
201512092329 TAF KBLI 092329Z 1000/1024 17006G15KT P6SM SCT070 BKN200 FM100300
                       10013G19KT P6SM OVC200 FM101200 11020G27KT
                       P6SM -RA SCT030 OVC060 FM102100 14022G29KT
                       5SM -RA BKN030 OVC060=
201512091723 TAF KBLI 091723Z 0918/1018 18009G18KT P6SM VCSH FEW023 BKN030 OVC080
                       FM092100 18010G20KT P6SM VCSH BKN040 BKN200
                       FM100400 13012G19KT P6SM BKN025 BKN200 FM100700
                       09016G24KT P6SM OVC070 FM101500 11018G27KT
                       P6SM -RA SCT030 OVC060=
201512091121 TAF KBLI 091121Z 0912/1012 18015G25KT P6SM -SHRA SCT012 BKN040
                       FM091500 20020G30KT P6SM -SHRA BKN030 FM092100
                       19011KT P6SM VCSH BKN030=
201512090523 TAF KBLI 090523Z 0906/1006 11010KT P6SM -RA SCT015 OVC040 FM090900
                       14015G25KT 5SM -RA BR BKN007 OVC020 FM091500
                       18020G30KT P6SM -RA OVC020 FM092000 19011KT
                       P6SM -SHRA OVC030=
201512082320 TAF KBLI 082320Z 0900/0924 16010KT P6SM -RA OVC030 FM091500 18016G25KT
                       P6SM -RA OVC020 FM091800 19011KT P6SM VCSH
                       OVC030=
201512081722 TAF KBLI 081722Z 0818/0918 15020G30KT P6SM -RA SCT006 OVC025 FM082200
                       14012KT P6SM -RA OVC030 FM091500 18016G25KT
                       P6SM -RA OVC020=
201512081128 TAF KBLI 081128Z 0812/0912 15018G30KT P6SM -RA SCT020 OVC040
                      TEMPO 0812/0816 BKN015 FM081800 15020G30KT
                       4SM RA BR SCT006 OVC025 FM082200 14012KT
                       P6SM -RA OVC030=
201512080520 TAF KBLI 080520Z 0806/0906 16011KT P6SM VCSH SCT005 SCT025 OVC040
                       FM081200 15018G30KT 5SM -RA BR SCT015 OVC025
                       FM081800 15015G25KT 4SM RA BR SCT006 BKN012
                       OVC018 FM082200 14006KT P6SM -RA SCT010
                       BKN018=
201512072352 TAF KBLI 072352Z 0800/0824 15004KT P6SM VCSH SCT010 BKN018 OVC035
                       FM080500 16011KT P6SM VCSH SCT005 SCT025
                       OVC040 FM081200 15018G30KT 5SM -RA BR SCT015
                       OVC025 FM081800 15015G25KT 4SM RA BR SCT006
                       BKN012 OVC018 FM082200 14006KT P6SM VCSH
                       SCT010 BKN018=
201512071754 TAF KBLI 071754Z 0718/0818 14010G18KT P6SM VCSH BKN025 OVC045 FM072000
                       16008KT 5SM -RA BR SCT015 BKN020 OVC030
                       FM080100 05004KT P6SM VCSH SCT006 BKN030
                       TEMPO 0801/0805 BKN006 OVC012 FM080500 15011KT
                       P6SM VCSH SCT025 OVC040 FM081500 15018G30KT
                       4SM RA BR SCT015 OVC025=
201512071600 TAF AMD KBLI 071600Z 0716/0812 15013KT P6SM VCSH SCT028 OVC050
                       TEMPO 0716/0719 -RA BKN028 OVC050 FM071900
                       15013KT P6SM BKN060 BKN120 FM072200 16010KT
                       P6SM -RA OVC040=
201512071120 TAF KBLI 071120Z 0712/0812 17020G30KT P6SM -RA BKN040 OVC060 FM071400
                       17012KT P6SM BKN060 BKN120 FM072200 16010KT
                       P6SM -RA OVC040=
201512070522 TAF KBLI 070522Z 0706/0806 16030G50KT P6SM -RA SCT030 OVC050 FM070900
                       16020G30KT P6SM -RA OVC030 FM071200 17014G22KT
                       P6SM -RA OVC015 FM071700 17012KT P6SM -RA
                       OVC050 FM072100 16010KT 5SM -RA BR OVC015=
201512062332 TAF KBLI 062332Z 0700/0724 14025G35KT P6SM -RA OVC050 FM070700
                       16020G30KT P6SM -RA OVC025 FM071200 17014G22KT
                       P6SM -RA OVC015 FM071700 17012KT P6SM -RA
                       OVC050 FM072100 16010KT 5SM -RA BR OVC015=
201512061845 TAF AMD KBLI 061845Z 0619/0718 14015G25KT P6SM VCSH SCT030 OVC050
                       TEMPO 0619/0621 BKN020 BKN030 FM062200 14018G28KT
                       P6SM VCSH BKN035 BKN060 FM070200 14020G30KT
                       P6SM -RA OVC030=
201512061721 TAF KBLI 061721Z 0618/0718 14015G25KT P6SM VCSH SCT030 OVC050
                      TEMPO 0618/0621 BKN030 FM062200 14018G28KT
                       P6SM VCSH BKN035 BKN060 FM070200 14020G30KT
                       P6SM -RA OVC030=
201512061122 TAF KBLI 061122Z 0612/0712 14014G22KT P6SM -RA SCT030 OVC050 FM061800
                       14013KT P6SM -SHRA SCT030 BKN050 FM062200
                       14018G28KT P6SM VCSH BKN035 BKN060 FM070300
                       14020G30KT P6SM -RA OVC030 WS020/18040KT=
201512060527 TAF KBLI 060527Z 0606/0706 14020G30KT P6SM -RA SCT030 OVC050 WS020/18045KT
                       FM061300 17014G24KT P6SM -SHRA BKN030 BKN050
                       FM061800 14013KT P6SM -SHRA SCT030 BKN050
                       FM070000 14020G30KT P6SM -RA OVC035=
201512052340 TAF KBLI 052340Z 0600/0624 15018G28KT P6SM -RA SCT030 OVC050 WS020/18045KT
                       FM061400 17014KT P6SM -SHRA BKN030 BKN050
                       FM061800 14010KT P6SM -SHRA SCT030 BKN050=
201512052107 TAF AMD KBLI 052107Z 0521/0618 14018G29KT P6SM -RA OVC060 WS020/18045KT
                       FM060000 15018G28KT 6SM -RA BR OVC035 WS020/18045KT
                       FM060800 15015G25KT 6SM -RA BR OVC025 FM061400
                       16014KT P6SM -SHRA BKN030 BKN050=
201512051725 TAF KBLI 051725Z 0518/0618 14020G30KT P6SM -RA OVC050 WS020/18045KT
                       FM052100 15025G35KT 6SM -RA BR OVC035 WS020/18045KT
                       FM060800 15015G25KT 6SM -RA BR OVC025 FM061400
                       16014KT P6SM -SHRA BKN030 BKN050=
201512051123 TAF KBLI 051123Z 0512/0612 14012G20KT P6SM SCT050 BKN090 FM051600
                       12020G30KT P6SM -RA SCT006 OVC040 WS020/18045KT
                       FM052100 12020G30KT 6SM -RA BR OVC035 FM060800
                       15015G25KT 6SM -RA BR OVC025=
201512050520 TAF KBLI 050520Z 0506/0606 15012G22KT P6SM SCT025 BKN040 FM051000
                       14016G26KT P6SM SCT050 BKN090 FM051600 12020G30KT
                       P6SM -RA SCT006 OVC040 WS020/18045KT FM052100
                       15020G30KT 6SM -RA BR OVC035 FM060500 14017G27KT
                       6SM -RA BR OVC028=
201512042356 TAF KBLI 042356Z 0500/0524 15008KT P6SM SCT025 SCT050 FM050700
                       14016G26KT P6SM SCT070 BKN120 FM051500 08005KT
                       P6SM -RA SCT006 OVC040 WS020/18045KT FM052000
                       15022G35KT 6SM -RA BR OVC035=
201512042155 TAF AMD KBLI 042155Z 0422/0518 15011KT P6SM VCSH SCT020 SCT045
                       FM050800 14012G20KT P6SM BKN120 FM051500
                       14020G30KT P6SM -RA OVC040=
201512041751 TAF KBLI 041751Z 0418/0518 17008KT P6SM SCT035 BKN050
                      TEMPO 0418/0422 -SHRA BKN030 OVC050 FM042200
                       16009KT P6SM VCSH SCT020 BKN045 FM050900
                       14012G20KT P6SM BKN120 FM051500 14020G30KT
                       P6SM -RA OVC040=
201512041120 TAF KBLI 041120Z 0412/0512 18005KT P6SM -SHRA BKN020 OVC060 FM041300
                       18005KT P6SM VCSH BKN020 OVC060 FM041800
                       17008KT P6SM BKN060 OVC120 FM051000 14012G20KT
                       P6SM -RA OVC050=
201512040529 TAF KBLI 040529Z 0406/0506 16008KT P6SM -SHRA SCT050 BKN080 OVC090
                       FM040800 17008KT P6SM VCSH SCT025 BKN050
                       FM041800 17010KT P6SM SCT030 BKN060=
201512040304 TAF AMD KBLI 040304Z 0403/0424 17010G14KT P6SM BKN080 OVC090 FM040800
                       18010KT P6SM VCSH SCT025 BKN050 FM041800
                       16008KT P6SM SCT030 BKN060=
201512040027 TAF AMD KBLI 040027Z 0400/0424 16025G45KT P6SM -RA SCT025 OVC050
                       WS020/18050KT
                      TEMPO 0400/0404 4SM RA BR BKN025 OVC050 FM040400
                       20020G30KT 3SM RA BR OVC020 FM040800 18012G20KT
                       P6SM VCSH BKN025 BKN050 FM041800 16008KT
                       P6SM SCT030 BKN060=
201512032320 TAF KBLI 032320Z 0400/0424 16025G37KT P6SM -RA SCT025 OVC050 WS020/18050KT
                       TEMPO 0400/0404 4SM RA BR BKN025 OVC050
                       FM040400 20020G30KT 3SM RA BR OVC020 FM040800
                       18012G20KT P6SM VCSH BKN025 BKN050 FM041800
                       16008KT P6SM SCT030 BKN060=
201512031720 TAF KBLI 031720Z 0318/0418 14020G30KT P6SM -RA OVC040 FM040200
                       18028G45KT 6SM SHRA BKN020 OVC040 FM040600
                       19015G22KT 6SM SHRA BKN020 OVC040 FM041200
                       18012KT P6SM VCSH BKN025 BKN050=
201512031124 TAF KBLI 031124Z 0312/0412 14010G14KT P6SM -RA BKN035 OVC080 FM031500
                       14015G25KT P6SM -RA OVC035 FM031900 14020G30KT
                       P6SM -RA SCT025 OVC035 FM040200 18028G45KT
                       6SM SHRA BKN020 OVC040 FM040600 19015G22KT
                       6SM SHRA BKN020 OVC040=
201512030908 TAF AMD KBLI 030908Z 0309/0406 16007G16KT P6SM -RA OVC080 FM031300
                       14015G25KT P6SM -RA OVC045 FM031700 16020G30KT
                       P6SM -RA SCT025 OVC035 FM040200 18028G45KT
                       6SM SHRA BKN020 OVC040=
201512030541 TAF KBLI 030541Z 0306/0406 00000KT P6SM OVC045 FM031000 14015G25KT
                       P6SM -RA OVC045 FM031700 16020G30KT P6SM
                       -RA SCT025 OVC035 FM040200 18028G45KT 6SM
                       SHRA BKN020 OVC040=
201512030308 TAF AMD KBLI 030308Z 0303/0324 07006KT P6SM BKN050 OVC080 FM031000
                       14015G25KT 5SM -RA BR OVC025 FM031700 16020G30KT
                       P6SM -RA BKN025 OVC050 FM032300 18020G30KT
                       P6SM -SHRA BKN020 BKN040=
201512022320 TAF KBLI 022320Z 0300/0324 02007KT P6SM OVC035 FM030400 12012G22KT
                       P6SM -RA OVC030 FM031000 14015G25KT 5SM
                       -RA BR OVC025 FM031700 16020G30KT P6SM -RA
                       BKN025 OVC050 FM032300 18020G30KT P6SM -SHRA
                       BKN020 BKN040=
201512022030 TAF AMD KBLI 022030Z 0221/0318 VRB03KT P6SM OVC025 FM030400 12012G22KT
                       P6SM -RA OVC040=
201512021720 TAF KBLI 021720Z 0218/0318 VRB03KT P6SM OVC030 FM022000 12008KT
                       P6SM BKN040 BKN080 FM030400 12012G22KT P6SM
                       -RA OVC040=
201512021412 TAF AMD KBLI 021412Z 0214/0312 02005KT P6SM BKN025 OVC040 FM022000
                       07010KT P6SM BKN050 BKN120 FM030400 07010KT
                       P6SM -RA OVC050=
201512021123 TAF KBLI 021123Z 0212/0312 00000KT P6SM -RA BKN024 BKN035 OVC050
                       FM021400 10008KT P6SM SCT025 BKN035 OVC050
                       FM022000 07010KT P6SM BKN050 BKN120 FM030400
                       07010KT P6SM -RA OVC050=
201512020929 TAF AMD KBLI 020929Z 0209/0306 VRB04KT P6SM SCT028 OVC050 FM021700
                       10008KT P6SM SCT030 BKN050 BKN120 FM022000
                       07010KT P6SM BKN060 BKN120=
201512020525 TAF KBLI 020525Z 0206/0306 15011G15KT P6SM -RA OVC045 FM021100
                       15008KT P6SM BKN030 OVC050 FM021700 10008KT
                       P6SM SCT030 BKN050 BKN120 FM022000 07010KT
                       P6SM BKN060 BKN120=
201512012322 TAF KBLI 012322Z 0200/0224 VRB04KT P6SM -RA BKN050 OVC100 FM020300
                       14012G22KT P6SM -RA OVC040 FM020700 14012G22KT
                       4SM -RA BR OVC020 FM021400 18010KT P6SM
                       VCSH BKN025 BKN050 FM021700 18008KT P6SM
                       SCT030 BKN060 BKN120=
201512011720 TAF KBLI 011720Z 0118/0218 VRB04KT P6SM BKN035 FM012100 12012KT
                       P6SM BKN040 BKN080 FM020000 14012G22KT P6SM
                       -RA OVC040 FM020700 14012G22KT 4SM -RA BR
                       OVC020 FM021400 18010KT P6SM VCSH BKN025
                       BKN050 FM021700 18008KT P6SM SCT030 BKN060
                       BKN120=
201512011120 TAF KBLI 011120Z 0112/0212 36003KT P6SM VCSH OVC029 FM011900 11010KT
                       P6SM SCT050 OVC100 FM020300 14014G22KT P6SM
                       -RA SCT030 OVC050=
201512010533 TAF KBLI 010533Z 0106/0206 00000KT P6SM OVC030
                      TEMPO 0106/0108 -RA FM011100 10008KT P6SM
                       -RA OVC050 FM011900 11010KT P6SM SCT050
                       OVC100 FM020300 14014G22KT P6SM -RA SCT030
                       OVC050=