##########################################################
# Query made at 02/16/2025 21:25:13 UTC
# Time interval: from 09/01/2016 00:00  to 09/30/2016 23:59  UTC
##########################################################

##########################################################
# KBLI, Bellingham, Bellingham International Airport (United States)
# WMO index: -----. WIGOS ID: Unknown
# Latitude 48-47-58N. Longitude 122-32-21W. Altitude 48 m.
##########################################################

###################################
#  METAR/SPECI from KBLI
###################################
201609302353 METAR KBLI 302353Z 00000KT 10SM CLR 16/08 A2995 RMK AO2 SLP148 T01560083 10161 20122 56011=
201609302253 METAR KBLI 302253Z 26005KT 10SM CLR 16/07 A2996 RMK AO2 SLP151 T01560072=
201609302153 METAR KBLI 302153Z 21004KT 10SM CLR 15/08 A2997 RMK AO2 SLP155 T01500078=
201609302053 METAR KBLI 302053Z 16006KT 10SM CLR 15/08 A2998 RMK AO2 SLP159 T01500083 58019=
201609302012 SPECI KBLI 302012Z 17006KT 10SM CLR 14/07 A2999 RMK AO2 T01440072 $=
201609301953 METAR KBLI 301953Z 18007KT CLR 14/07 A3000 RMK AO2 SLP167 T01390072 $=
201609301853 METAR KBLI 301853Z 17004KT 10SM CLR 13/08 A3002 RMK AO2 SLP173 T01330083=
201609301753 METAR KBLI 301753Z 22003KT 10SM SCT011 13/09 A3004 RMK AO2 SLP178 T01280089 10128 20039 58004=
201609301724 SPECI KBLI 301724Z VRB04KT 10SM SCT011 12/09 A3004 RMK AO2 T01220089=
201609301723 SPECI KBLI 301723Z VRB03KT 10SM SCT011 12/09 A3004 RMK AO2 T01220089=
201609301719 SPECI KBLI 301719Z VRB03KT 10SM SCT011 12/09 A3004 RMK AO2 T01170089=
201609301653 METAR KBLI 301653Z 00000KT 10SM FEW015 12/09 A3004 RMK AO2 SLP181 T01170089=
201609301621 SPECI KBLI 301621Z 00000KT 10SM FEW002 10/09 A3005 RMK AO2 T01000089=
201609301553 METAR KBLI 301553Z 00000KT 3SM BR SCT002 08/07 A3005 RMK AO2 SLP183 T00780067=
201609301549 SPECI KBLI 301549Z 00000KT 3SM BR SCT002 07/06 A3005 RMK AO2=
201609301453 METAR KBLI 301453Z 02003KT 1SM R16/P6000FT BR VV002 04/03 A3005 RMK AO2 SLP183 T00390033 53001=
201609301409 SPECI KBLI 301409Z 00000KT 1SM R16/P6000FT BR BKN002 04/03 A3005 RMK AO2 T00440033=
201609301353 METAR KBLI 301353Z 00000KT 10SM R16/2600VP6000FT SCT002 04/03 A3004 RMK AO2 SLP182 T00440033 $=
201609301315 SPECI KBLI 301315Z AUTO 00000KT SCT002 05/04 A3004 RMK AO2 T00500039 $=
201609301253 METAR KBLI 301253Z AUTO 00000KT R16/1800VP6000FT OVC001 04/03 A3005 RMK AO2 SLP183 T00440033 $=
201609301230 SPECI KBLI 301230Z AUTO 00000KT R16/4000VP6000FT BKN002 05/04 A3005 RMK AO2 T00500039 $=
201609301153 METAR KBLI 301153Z AUTO 00000KT SCT003 04/04 A3005 RMK AO2 SLP181 T00440039 10083 20044 56001 $=
201609301151 SPECI KBLI 301151Z AUTO 00000KT R16/1800VP6000FT SCT003 05/04 A3005 RMK AO2 $=
201609301053 METAR KBLI 301053Z AUTO 00000KT R16/1600VP6000FT BKN004 04/04 A3005 RMK AO2 SLP182 T00440039 $=
201609301045 SPECI KBLI 301045Z AUTO 00000KT 5SM R16/1200VP6000FT BR SCT004 05/04 A3005 RMK AO2 T00500039 $=
201609301024 SPECI KBLI 301024Z AUTO 00000KT 4SM R16/2200VP6000FT BR CLR 05/04 A3005 RMK AO2 T00500039=
201609301022 SPECI KBLI 301022Z AUTO 00000KT 1SM R16/2200VP6000FT BR CLR 05/04 A3005 RMK AO2 T00500039=
201609301018 SPECI KBLI 301018Z AUTO 00000KT 1/2SM R16/2200VP6000FT FG CLR 06/04 A3005 RMK AO2 T00560039=
201609301011 SPECI KBLI 301011Z AUTO 00000KT 3/4SM R16/P6000FT BR CLR 05/04 A3005 RMK AO2 T00500039=
201609300953 METAR KBLI 300953Z AUTO 00000KT 10SM CLR 06/04 A3005 RMK AO2 SLP183 T00560039=
201609300853 METAR KBLI 300853Z AUTO 00000KT 8SM CLR 06/04 A3004 RMK AO2 SLP180 T00610044 58001=
201609300753 METAR KBLI 300753Z AUTO 00000KT 10SM CLR 06/05 A3004 RMK AO2 SLP180 T00610050 401610061=
201609300653 METAR KBLI 300653Z AUTO 00000KT 10SM CLR 07/06 A3005 RMK AO2 SLP183 T00720056=
201609300553 METAR KBLI 300553Z AUTO 15003KT 10SM CLR 08/06 A3005 RMK AO2 SLP182 T00830061 10156 20083 58005=
201609300453 METAR KBLI 300453Z 16005KT 10SM CLR 09/07 A3006 RMK AO2 SLP185 T00890072=
201609300353 METAR KBLI 300353Z 17004KT 10SM CLR 10/08 A3006 RMK AO2 SLP185 T01000083=
201609300253 METAR KBLI 300253Z 00000KT 10SM CLR 09/07 A3006 RMK AO2 SLP187 T00940072 52002=
201609300153 METAR KBLI 300153Z 00000KT 10SM CLR 11/08 A3006 RMK AO2 SLP187 T01110083=
201609300053 METAR KBLI 300053Z 22003KT 10SM CLR 14/09 A3005 RMK AO2 SLP184 T01390089=
201609292353 METAR KBLI 292353Z 27006KT 10SM CLR 16/07 A3005 RMK AO2 SLP184 T01560067 10161 20106 56005=
201609292253 METAR KBLI 292253Z AUTO 18007KT 10SM CLR 16/10 A3006 RMK AO2 SLP185 T01560100=
201609292153 METAR KBLI 292153Z VRB04KT 10SM CLR 16/11 A3006 RMK AO2 SLP185 T01560106=
201609292100 SPECI KBLI 292100Z 25005KT 10SM SCT015 15/10 A3007 RMK AO2 T01500100=
201609292053 METAR KBLI 292053Z VRB06KT 10SM BKN010 15/11 A3007 RMK AO2 SLP189 T01500106 58007=
201609292006 SPECI KBLI 292006Z VRB05KT 10SM BKN010 13/10 A3008 RMK AO2 T01330100=
201609291953 METAR KBLI 291953Z 00000KT 4SM BR OVC009 13/10 A3008 RMK AO2 SLP193 T01330100=
201609291853 METAR KBLI 291853Z 00000KT 8SM OVC005 11/10 A3009 RMK AO2 SLP195 T01110100=
201609291753 METAR KBLI 291753Z 00000KT 3SM BR OVC003 11/10 A3009 RMK AO2 SLP197 T01060100 10106 20089 51005=
201609291749 SPECI KBLI 291749Z 00000KT 3SM BR OVC002 11/10 A3009 RMK AO2=
201609291703 SPECI KBLI 291703Z 00000KT 2 1/2SM BR OVC003 11/10 A3008 RMK AO2 T01060100=
201609291653 METAR KBLI 291653Z 00000KT 3SM BR OVC003 11/10 A3008 RMK AO2 SLP194 T01060100=
201609291638 SPECI KBLI 291638Z 00000KT 2 1/2SM BR OVC003 11/10 A3008 RMK AO2 T01060100=
201609291612 SPECI KBLI 291612Z 00000KT 3SM BR OVC003 10/10 A3007 RMK AO2 T01000100=
201609291604 SPECI KBLI 291604Z 00000KT 2 1/2SM BR OVC003 11/09 A3008 RMK AO2 T01060094=
201609291553 METAR KBLI 291553Z 00000KT 1SM R16/P6000FT BR OVC002 11/10 A3007 RMK AO2 SLP191 T01060100=
201609291517 SPECI KBLI 291517Z 00000KT 1SM R16/2000V2400FT BR VV003 10/09 A3006 RMK AO2 T01000094=
201609291458 SPECI KBLI 291458Z 00000KT 1SM R16/1600V2200FT BR VV003 10/09 A3006 RMK AO2 T01000094=
201609291453 METAR KBLI 291453Z 00000KT 1SM R16/1600V1800FT BR VV003 10/09 A3006 RMK AO2 SLP187 T01000089 51006=
201609291425 SPECI KBLI 291425Z 00000KT 1SM R16/1400V1600FT BR VV002 09/09 A3006 RMK AO2 T00940089=
201609291414 SPECI KBLI 291414Z 00000KT 1SM R16/1400VP6000FT BR OVC002 09/09 A3006 RMK AO2 T00940089=
201609291408 SPECI KBLI 291408Z 00000KT 1 3/4SM R16/4000VP6000FT BR OVC002 09/08 A3006 RMK AO2 T00940083=
201609291353 METAR KBLI 291353Z 00000KT 10SM OVC003 09/08 A3006 RMK AO2 SLP185 T00940083=
201609291308 SPECI KBLI 291308Z AUTO 00000KT 10SM BKN004 OVC010 09/08 A3005 RMK AO2 T00940083=
201609291304 SPECI KBLI 291304Z AUTO 00000KT 10SM SCT005 OVC010 09/08 A3005 RMK AO2 T00940083=
201609291253 METAR KBLI 291253Z AUTO 00000KT 10SM OVC010 09/08 A3005 RMK AO2 SLP183 T00940083=
201609291230 SPECI KBLI 291230Z AUTO 00000KT 10SM OVC010 09/08 A3005 RMK AO2 T00940083=
201609291153 METAR KBLI 291153Z AUTO 00000KT 10SM OVC007 09/08 A3004 RMK AO2 SLP181 T00890078 10094 20061 58001=
201609291123 SPECI KBLI 291123Z AUTO 00000KT 10SM OVC009 09/08 A3005 RMK AO2 T00890078=
201609291053 METAR KBLI 291053Z AUTO 00000KT 10SM BKN010 08/07 A3005 RMK AO2 SLP183 T00780067=
201609290953 METAR KBLI 290953Z AUTO 00000KT 8SM CLR 07/06 A3005 RMK AO2 SLP183 T00720056=
201609290853 METAR KBLI 290853Z AUTO 00000KT 10SM CLR 07/06 A3005 RMK AO2 SLP182 T00720061 52000=
201609290848 SPECI KBLI 290848Z AUTO 00000KT 5SM BR FEW002 08/07 A3005 RMK AO2=
201609290753 METAR KBLI 290753Z AUTO 00000KT 9SM CLR 08/06 A3005 RMK AO2 SLP182 T00780061 401890056=
201609290653 METAR KBLI 290653Z AUTO 00000KT 10SM CLR 08/07 A3005 RMK AO2 SLP181 T00830067=
201609290553 METAR KBLI 290553Z AUTO 00000KT 10SM CLR 08/07 A3005 RMK AO2 SLP183 T00830067 10167 20083 53003=
201609290453 METAR KBLI 290453Z 00000KT 10SM CLR 09/08 A3004 RMK AO2 SLP180 T00940078=
201609290353 METAR KBLI 290353Z 00000KT 10SM CLR 10/08 A3004 RMK AO2 SLP180 T01000083=
201609290253 METAR KBLI 290253Z 00000KT 10SM CLR 11/09 A3004 RMK AO2 SLP181 T01060089 55003=
201609290153 METAR KBLI 290153Z 17003KT 10SM CLR 13/09 A3004 RMK AO2 SLP180 T01280094=
201609290053 METAR KBLI 290053Z 00000KT 10SM CLR 16/08 A3005 RMK AO2 SLP181 T01610083=
201609282353 METAR KBLI 282353Z 23003KT 10SM CLR 17/09 A3005 RMK AO2 SLP183 T01670089 10189 20156 57010=
201609282253 METAR KBLI 282253Z 26003KT 10SM CLR 17/09 A3006 RMK AO2 SLP186 T01720094=
201609282153 METAR KBLI 282153Z 24007KT 210V300 10SM CLR 17/09 A3007 RMK AO2 SLP190 T01720089=
201609282053 METAR KBLI 282053Z 29006KT 10SM CLR 17/09 A3008 RMK AO2 SLP193 T01720094 58013=
201609281953 METAR KBLI 281953Z VRB06KT 10SM CLR 17/09 A3010 RMK AO2 SLP199 T01720094=
201609281853 METAR KBLI 281853Z 35006KT 10SM CLR 17/07 A3011 RMK AO2 SLP202 T01720067=
201609281753 METAR KBLI 281753Z 30005KT 10SM CLR 16/09 A3012 RMK AO2 SLP206 T01560094 10156 20056 58001=
201609281653 METAR KBLI 281653Z 01004KT 10SM FEW006 14/11 A3012 RMK AO2 SLP208 T01390111=
201609281553 METAR KBLI 281553Z 00000KT 10SM FEW006 12/10 A3013 RMK AO2 SLP208 T01220100=
201609281453 METAR KBLI 281453Z 00000KT 10SM BCFG FEW006 06/06 A3012 RMK AO2 SLP208 T00610056 52003=
201609281353 METAR KBLI 281353Z 00000KT 10SM R16/2400VP6000FT BCFG FEW006 06/05 A3012 RMK AO2 SLP206 T00610050=
201609281340 SPECI KBLI 281340Z AUTO 00000KT 3/4SM R16/1800VP6000FT BR VV006 06/05 A3012 RMK AO2 VIS 1/2V5 T00610050=
201609281331 SPECI KBLI 281331Z AUTO 00000KT 2SM R16/1800VP6000FT BR BKN006 07/06 A3012 RMK AO2 VIS 3/4V5 T00720061=
201609281321 SPECI KBLI 281321Z AUTO 00000KT 3/4SM R16/4500VP6000FT BR VV006 07/06 A3012 RMK AO2 T00670056=
201609281316 SPECI KBLI 281316Z AUTO 00000KT 2SM R16/3000VP6000FT BR BKN006 07/06 A3012 RMK AO2 VIS 3/4V5 T00720061=
201609281311 SPECI KBLI 281311Z AUTO 00000KT 3SM R16/2000VP6000FT BR SCT006 08/06 A3012 RMK AO2 T00780061=
201609281302 SPECI KBLI 281302Z AUTO 00000KT 1 1/4SM R16/2400VP6000FT BR SCT006 07/07 A3012 RMK AO2 VIS 3/4V4 T00720067=
201609281253 METAR KBLI 281253Z AUTO 00000KT 3/4SM R16/P6000FT BR VV006 08/07 A3012 RMK AO2 SLP206 T00780067=
201609281247 SPECI KBLI 281247Z AUTO 00000KT 1 3/4SM R16/3500VP6000FT BR CLR 08/07 A3012 RMK AO2 VIS 3/4V5=
201609281222 SPECI KBLI 281222Z AUTO 12003KT 3SM R16/3500VP6000FT BR CLR 08/07 A3011 RMK AO2 T00830072=
201609281213 SPECI KBLI 281213Z AUTO 00000KT 1 3/4SM R16/2600VP6000FT BR CLR 08/07 A3011 RMK AO2 VIS 1V5 T00780072=
201609281153 METAR KBLI 281153Z AUTO 00000KT 10SM R16/3500VP6000FT CLR 08/07 A3011 RMK AO2 SLP204 T00830072 10106 20078 58004=
201609281133 SPECI KBLI 281133Z AUTO 15003KT 10SM CLR 09/08 A3012 RMK AO2 T00890078=
201609281126 SPECI KBLI 281126Z AUTO 00000KT 2 1/2SM BR CLR 09/08 A3012 RMK AO2 VIS 1V5 T00890078=
201609281053 METAR KBLI 281053Z AUTO 00000KT 10SM CLR 09/08 A3012 RMK AO2 SLP207 T00940078=
201609280953 METAR KBLI 280953Z AUTO 00000KT 8SM CLR 09/08 A3012 RMK AO2 SLP208 T00940078=
201609280853 METAR KBLI 280853Z AUTO 00000KT 10SM CLR 09/08 A3012 RMK AO2 SLP208 T00940078 58004=
201609280753 METAR KBLI 280753Z AUTO 00000KT 10SM CLR 10/08 A3013 RMK AO2 SLP210 T01000083 401780094=
201609280653 METAR KBLI 280653Z AUTO 00000KT 10SM CLR 10/09 A3013 RMK AO2 SLP211 T01000089=
201609280553 METAR KBLI 280553Z AUTO 00000KT 10SM CLR 10/09 A3014 RMK AO2 SLP212 T01000089 10172 20100 56004=
201609280453 METAR KBLI 280453Z 00000KT 10SM CLR 11/09 A3014 RMK AO2 SLP213 T01060089=
201609280353 METAR KBLI 280353Z 00000KT 10SM CLR 11/09 A3015 RMK AO2 SLP216 T01110089=
201609280253 METAR KBLI 280253Z 00000KT 10SM CLR 12/09 A3015 RMK AO2 SLP217 T01170094 55004=
201609280153 METAR KBLI 280153Z 00000KT 10SM CLR 13/10 A3015 RMK AO2 SLP216 T01330100=
201609280053 METAR KBLI 280053Z VRB05KT 10SM CLR 17/10 A3016 RMK AO2 SLP219 T01670100=
201609272353 METAR KBLI 272353Z 25007KT 10SM CLR 17/11 A3016 RMK AO2 SLP220 T01720106 10178 20144 56013=
201609272253 METAR KBLI 272253Z VRB05KT 10SM CLR 18/11 A3017 RMK AO2 SLP223 T01780106=
201609272153 METAR KBLI 272153Z 29005KT 10SM CLR 18/10 A3019 RMK AO2 SLP229 T01780100=
201609272053 METAR KBLI 272053Z 27004KT 10SM CLR 17/09 A3020 RMK AO2 SLP233 T01670094 58009=
201609271953 METAR KBLI 271953Z 25007KT 10SM FEW021 16/09 A3021 RMK AO2 SLP235 T01560089=
201609271853 METAR KBLI 271853Z 30008KT 10SM SCT019 16/09 A3022 RMK AO2 SLP240 T01560094=
201609271753 METAR KBLI 271753Z 32005KT 10SM SCT019 14/09 A3023 RMK AO2 SLP242 T01440089 10150 20100 51011=
201609271653 METAR KBLI 271653Z VRB03KT 10SM SCT019 14/09 A3023 RMK AO2 SLP241 T01390089=
201609271553 METAR KBLI 271553Z 30006KT 10SM SCT019 13/09 A3022 RMK AO2 SLP238 T01330089=
201609271453 METAR KBLI 271453Z 00000KT 10SM CLR 11/09 A3020 RMK AO2 SLP232 T01110094 51015=
201609271353 METAR KBLI 271353Z 00000KT 10SM FEW050 11/09 A3018 RMK AO2 SLP226 T01110094=
201609271253 METAR KBLI 271253Z AUTO 00000KT 10SM OVC050 13/10 A3017 RMK AO2 SLP222 T01330100=
201609271153 METAR KBLI 271153Z AUTO 00000KT 10SM OVC043 14/11 A3015 RMK AO2 SLP216 T01390106 10156 20128 51022=
201609271053 METAR KBLI 271053Z AUTO 29004KT 10SM FEW010 BKN070 OVC100 14/12 A3014 RMK AO2 SLP211 T01390117=
201609271015 SPECI KBLI 271015Z AUTO 26003KT 10SM SCT009 BKN041 OVC075 14/12 A3013 RMK AO2 T01440122=
201609270953 METAR KBLI 270953Z AUTO 00000KT 10SM BKN080 OVC100 14/12 A3012 RMK AO2 SLP205 T01440122=
201609270853 METAR KBLI 270853Z AUTO 21004KT 10SM FEW050 SCT075 OVC100 16/13 A3009 RMK AO2 SLP194 T01560133 53013=
201609270753 METAR KBLI 270753Z AUTO 17007KT 10SM BKN090 16/13 A3007 RMK AO2 SLP187 T01560128 402220089=
201609270653 METAR KBLI 270653Z AUTO 17007KT 10SM SCT060 BKN075 OVC095 16/13 A3005 RMK AO2 SLP181 T01560128=
201609270553 METAR KBLI 270553Z AUTO VRB03KT 10SM FEW080 16/12 A3005 RMK AO2 SLP181 60000 T01560122 10183 20156 53012=
201609270453 METAR KBLI 270453Z 19004KT 10SM OVC085 16/13 A3004 RMK AO2 RAE00 SLP177 P0000 T01560128=
201609270353 METAR KBLI 270353Z 18004KT 10SM -RA OVC090 16/12 A3002 RMK AO2 RAB50 SLP173 P0000 T01610122=
201609270253 METAR KBLI 270253Z 17003KT 10SM OVC100 17/13 A3002 RMK AO2 SLP171 T01670128 55001=
201609270153 METAR KBLI 270153Z 00000KT 10SM BKN100 OVC110 17/14 A3000 RMK AO2 SLP166 T01720139=
201609270053 METAR KBLI 270053Z 00000KT 10SM OVC100 18/13 A3001 RMK AO2 SLP167 T01830133=
201609262353 METAR KBLI 262353Z 00000KT 10SM FEW065 SCT090 BKN110 18/14 A3002 RMK AO2 RAB15E25B41E53 SLP170 P0000 60000 T01830139 10222 20183 56011=
201609262253 METAR KBLI 262253Z 27005KT 10SM FEW100 19/13 A3002 RMK AO2 SLP172 T01890133=
201609262153 METAR KBLI 262153Z 00000KT 10SM CLR 19/13 A3003 RMK AO2 SLP175 T01890133=
201609262053 METAR KBLI 262053Z 26007KT 10SM CLR 20/13 A3005 RMK AO2 SLP182 T02000128 56015=
201609261953 METAR KBLI 261953Z 26009KT 10SM BKN120 20/13 A3006 RMK AO2 SLP185 T02000128=
201609261853 METAR KBLI 261853Z 06005KT 10SM CLR 21/13 A3007 RMK AO2 SLP189 T02060128=
201609261753 METAR KBLI 261753Z 00000KT 10SM CLR 18/12 A3009 RMK AO2 SLP196 T01830122 10183 20089 58016=
201609261653 METAR KBLI 261653Z 03005KT 10SM CLR 16/12 A3011 RMK AO2 SLP203 T01610122=
201609261553 METAR KBLI 261553Z 33003KT 10SM CLR 13/11 A3013 RMK AO2 SLP209 T01330111=
201609261453 METAR KBLI 261453Z 00000KT 10SM FEW002 10/09 A3014 RMK AO2 SLP213 T01000094 58007=
201609261357 SPECI KBLI 261357Z 11003KT 10SM FEW002 09/09 A3015 RMK AO2 T00940089=
201609261353 METAR KBLI 261353Z AUTO 00000KT 3SM BR FEW002 09/09 A3015 RMK AO2 SLP217 T00940089=
201609261349 SPECI KBLI 261349Z AUTO 00000KT 1 1/4SM BR FEW002 09/09 A3015 RMK AO2=
201609261343 SPECI KBLI 261343Z AUTO 00000KT 3/4SM R16/5000VP6000FT BR VV002 09/08 A3015 RMK AO2 T00940083=
201609261338 SPECI KBLI 261338Z AUTO 00000KT 1 3/4SM R16/5000VP6000FT BR CLR 09/09 A3015 RMK AO2 T00940089=
201609261326 SPECI KBLI 261326Z AUTO 00000KT 10SM CLR 10/09 A3015 RMK AO2 T01000089=
201609261319 SPECI KBLI 261319Z AUTO 00000KT 2SM BR CLR 10/09 A3015 RMK AO2 T01000089=
201609261316 SPECI KBLI 261316Z AUTO 00000KT 1SM R16/P6000FT BR VV002 10/09 A3015 RMK AO2 T01000089=
201609261308 SPECI KBLI 261308Z AUTO 00000KT 1 1/2SM BR FEW002 10/09 A3015 RMK AO2 T01000089=
201609261253 METAR KBLI 261253Z AUTO 00000KT 10SM CLR 11/09 A3015 RMK AO2 SLP216 T01060094=
201609261153 METAR KBLI 261153Z AUTO 31003KT 10SM CLR 11/10 A3016 RMK AO2 SLP219 T01110100 10139 20094 58025=
201609261053 METAR KBLI 261053Z AUTO 00000KT 10SM CLR 11/09 A3019 RMK AO2 SLP228 T01110094=
201609260953 METAR KBLI 260953Z AUTO 00000KT 10SM CLR 11/09 A3021 RMK AO2 SLP236 T01110094=
201609260853 METAR KBLI 260853Z AUTO 32004KT 10SM CLR 13/11 A3023 RMK AO2 SLP244 T01280111 56012=
201609260753 METAR KBLI 260753Z AUTO 00000KT 10SM CLR 12/10 A3024 RMK AO2 SLP247 T01170100 402280111=
201609260653 METAR KBLI 260653Z AUTO 34005KT 10SM CLR 14/11 A3026 RMK AO2 SLP252 T01390111=
201609260553 METAR KBLI 260553Z AUTO 32004KT 10SM CLR 14/11 A3027 RMK AO2 SLP256 T01390111 10222 20111 58010=
201609260453 METAR KBLI 260453Z 00000KT 10SM CLR 12/11 A3028 RMK AO2 SLP260 T01220111=
201609260353 METAR KBLI 260353Z 00000KT 10SM CLR 13/12 A3030 RMK AO2 SLP268 T01330117=
201609260253 METAR KBLI 260253Z 00000KT 10SM CLR 14/12 A3030 RMK AO2 SLP268 T01390117 56015=
201609260153 METAR KBLI 260153Z 00000KT 10SM CLR 18/13 A3031 RMK AO2 SLP271 T01780128=
201609260053 METAR KBLI 260053Z 00000KT 10SM CLR 21/12 A3033 RMK AO2 SLP277 T02110117=
201609260000 METAR KBLI NIL=
201609252353 METAR KBLI 252353Z 33006KT 10SM CLR 22/11 A3035 RMK AO2 SLP282 T02220106 10228 20178 58019=
201609252253 METAR KBLI 252253Z 04005KT 10SM SCT075 22/11 A3037 RMK AO2 SLP289 T02220106=
201609252153 METAR KBLI 252153Z VRB04KT 10SM FEW046 22/10 A3038 RMK AO2 SLP295 T02170100=
201609252053 METAR KBLI 252053Z 32004KT 10SM OVC047 21/11 A3040 RMK AO2 SLP300 T02060106 58006=
201609251953 METAR KBLI 251953Z 01007KT 10SM FEW043 OVC055 20/11 A3041 RMK AO2 SLP304 T02000106=
201609251853 METAR KBLI 251853Z 01005KT 10SM OVC047 19/11 A3042 RMK AO2 SLP306 T01890111=
201609251753 METAR KBLI 251753Z 01005KT 10SM BKN049 BKN060 OVC080 18/12 A3042 RMK AO2 SLP306 60000 T01780117 10178 20128 51004=
201609251653 METAR KBLI 251653Z 02005KT 10SM OVC045 16/12 A3042 RMK AO2 SLP306 T01560117=
201609251553 METAR KBLI 251553Z 03005KT 10SM OVC048 14/12 A3041 RMK AO2 SLP302 T01390117=
201609251453 METAR KBLI 251453Z 01003KT 10SM OVC048 13/11 A3040 RMK AO2 RAB1359E10B35E45 SLP301 P0000 60000 T01280111 53007=
201609251353 METAR KBLI 251353Z 36003KT 10SM OVC049 13/11 A3039 RMK AO2 RAB30E44 SLP296 P0000 T01280111=
201609251253 METAR KBLI 251253Z AUTO 01003KT 10SM OVC049 13/11 A3038 RMK AO2 SLP295 T01280111=
201609251153 METAR KBLI 251153Z AUTO 34004KT 10SM OVC060 13/11 A3038 RMK AO2 SLP294 60001 70003 T01280111 10139 20128 56002=
201609251053 METAR KBLI 251053Z AUTO 02003KT 10SM OVC060 13/11 A3038 RMK AO2 SLP294 T01330111=
201609250953 METAR KBLI 250953Z AUTO 36003KT 10SM BKN065 OVC075 13/11 A3038 RMK AO2 SLP293 T01330106=
201609250853 METAR KBLI 250853Z AUTO 36003KT 10SM OVC070 13/11 A3039 RMK AO2 SLP296 60001 T01330111 58001=
201609250753 METAR KBLI 250753Z AUTO 06003KT 10SM BKN075 OVC085 13/11 A3039 RMK AO2 RAE07 SLP297 P0000 T01330111 401830100=
201609250653 METAR KBLI 250653Z AUTO 00000KT 10SM -RA FEW049 BKN070 OVC095 13/12 A3040 RMK AO2 RAB02 SLP302 P0001 T01330117=
201609250553 METAR KBLI 250553Z AUTO 00000KT 8SM OVC080 13/12 A3039 RMK AO2 RAE00B36E53 SLP298 P0000 60002 T01330122 10178 20133 51015=
201609250453 METAR KBLI 250453Z 03005KT 9SM -RA BKN070 OVC085 13/12 A3038 RMK AO2 SLP295 P0001 T01330122=
201609250353 METAR KBLI 250353Z 00000KT 9SM -RA BKN070 OVC085 14/12 A3038 RMK AO2 RAB01 SLP296 P0001 T01440122=
201609250253 METAR KBLI 250253Z 00000KT 10SM OVC080 16/11 A3034 RMK AO2 SLP282 T01560106 55000=
201609250153 METAR KBLI 250153Z 00000KT 10SM OVC080 16/10 A3034 RMK AO2 SLP280 T01610100=
201609250053 METAR KBLI 250053Z 00000KT 10SM OVC120 17/09 A3034 RMK AO2 SLP280 T01720094=
201609242353 METAR KBLI 242353Z 31004KT 10SM OVC110 18/09 A3034 RMK AO2 SLP282 T01780089 10183 20139 56010=
201609242253 METAR KBLI 242253Z 26005KT 10SM SCT100 18/09 A3035 RMK AO2 SLP282 T01780089=
201609242153 METAR KBLI 242153Z 14004KT 10SM SCT110 17/09 A3035 RMK AO2 SLP283 T01720089=
201609242053 METAR KBLI 242053Z VRB03KT 10SM OVC120 16/09 A3038 RMK AO2 SLP293 T01610089 58006=
201609241953 METAR KBLI 241953Z VRB04KT 10SM CLR 16/10 A3038 RMK AO2 SLP295 T01560100=
201609241853 METAR KBLI 241853Z VRB05KT 10SM SCT021 SCT035 16/10 A3040 RMK AO2 SLP300 T01610100=
201609241753 METAR KBLI 241753Z 19003KT 10SM FEW003 SCT008 BKN120 14/11 A3039 RMK AO2 SLP299 T01390111 10139 20100 53016=
201609241653 METAR KBLI 241653Z 16005KT 10SM FEW003 SCT005 BKN030 13/12 A3037 RMK AO2 SLP290 T01330117=
201609241625 SPECI KBLI 241625Z 16007KT 10SM FEW003 SCT005 BKN030 12/11 A3036 RMK AO2 T01220111=
201609241600 SPECI KBLI 241600Z 18006KT 9SM OVC003 12/11 A3036 RMK AO2 T01170111=
201609241553 METAR KBLI 241553Z 17006KT 10SM SCT004 OVC030 12/11 A3035 RMK AO2 SLP284 T01170106=
201609241534 SPECI KBLI 241534Z 18005KT 8SM SCT004 OVC030 12/11 A3035 RMK AO2 T01220111=
201609241524 SPECI KBLI 241524Z 17004KT 9SM BKN004 OVC030 12/11 A3035 RMK AO2 T01220111=
201609241515 SPECI KBLI 241515Z 17005KT 10SM SCT004 BKN030 OVC035 12/11 A3035 RMK AO2 T01170111=
201609241506 SPECI KBLI 241506Z 16005KT 10SM FEW004 BKN028 OVC035 12/11 A3034 RMK AO2 T01170106=
201609241453 METAR KBLI 241453Z 17004KT 10SM OVC032 11/11 A3035 RMK AO2 SLP283 T01110106 53021=
201609241353 METAR KBLI 241353Z 00000KT 6SM BR OVC030 11/10 A3031 RMK AO2 SLP272 T01060100=
201609241316 SPECI KBLI 241316Z AUTO 00000KT 3SM BR BKN030 11/10 A3031 RMK AO2 T01060100=
201609241305 SPECI KBLI 241305Z AUTO 00000KT 1 3/4SM R16/5000VP6000FT BR BKN030 10/09 A3031 RMK AO2 T01000094=
201609241253 METAR KBLI 241253Z AUTO 00000KT 3SM BR SCT028 BKN034 10/09 A3030 RMK AO2 SLP268 T01000094=
201609241245 SPECI KBLI 241245Z AUTO 00000KT 1 3/4SM BR BKN028 10/09 A3030 RMK AO2 VIS 1V4 T01000094=
201609241240 SPECI KBLI 241240Z AUTO 00000KT 3SM BR BKN027 11/09 A3030 RMK AO2 T01060094=
201609241226 SPECI KBLI 241226Z AUTO 00000KT 1SM R16/3500VP6000FT BR BKN027 10/09 A3029 RMK AO2 T01000094=
201609241214 SPECI KBLI 241214Z AUTO 00000KT 1/2SM R16/2600VP6000FT FG FEW020 BKN026 10/09 A3029 RMK AO2 T01000094=
201609241202 SPECI KBLI 241202Z AUTO 00000KT 1 3/4SM BR FEW020 BKN026 10/09 A3028 RMK AO2 VIS 1V5 T01000094=
201609241153 METAR KBLI 241153Z AUTO 00000KT 6SM BR BKN023 11/09 A3028 RMK AO2 SLP262 60000 70022 T01060094 10128 20100 51016=
201609241149 SPECI KBLI 241149Z AUTO 00000KT 3SM BR BKN023 11/10 A3028 RMK AO2=
201609241138 SPECI KBLI 241138Z AUTO 00000KT 1 1/4SM BR BKN023 10/09 A3028 RMK AO2 T01000094=
201609241131 SPECI KBLI 241131Z AUTO 00000KT 3/4SM R16/3500VP6000FT BR FEW018 BKN023 11/09 A3028 RMK AO2 T01060094=
201609241121 SPECI KBLI 241121Z AUTO 00000KT 1 3/4SM BR SCT017 BKN023 11/09 A3028 RMK AO2 VIS 1V3 T01060094=
201609241053 METAR KBLI 241053Z AUTO 00000KT 6SM BR BKN019 OVC023 11/10 A3027 RMK AO2 SLP258 T01060100=
201609241045 SPECI KBLI 241045Z AUTO 00000KT 3SM R16/4000VP6000FT BR BKN019 BKN023 10/09 A3027 RMK AO2 T01000094=
201609241025 SPECI KBLI 241025Z AUTO 00000KT 2SM R16/4000VP6000FT BR FEW001 BKN017 11/09 A3026 RMK AO2 VIS 1V5 T01060094=
201609241016 SPECI KBLI 241016Z AUTO 00000KT 1 1/4SM R16/2800VP6000FT BR FEW001 SCT019 11/09 A3026 RMK AO2 T01060094=
201609241007 SPECI KBLI 241007Z AUTO 00000KT 3/4SM R16/P6000FT BR FEW002 BKN019 10/09 A3026 RMK AO2 T01000094=
201609241005 SPECI KBLI 241005Z AUTO 00000KT 1/2SM R16/P6000FT FG FEW002 SCT019 11/09 A3026 RMK AO2 T01060094=
201609240958 SPECI KBLI 240958Z AUTO 00000KT 3/4SM R16/P6000FT BR FEW002 BKN018 11/09 A3025 RMK AO2 T01060094=
201609240953 METAR KBLI 240953Z AUTO 00000KT 2SM BR FEW002 BKN017 11/10 A3025 RMK AO2 SLP251 T01060100=
201609240906 SPECI KBLI 240906Z AUTO 00000KT 4SM BR BKN015 11/11 A3024 RMK AO2 T01110106=
201609240853 METAR KBLI 240853Z AUTO 00000KT 4SM BR SCT017 12/11 A3024 RMK AO2 SLP246 60000 T01170106 51023=
201609240753 METAR KBLI 240753Z AUTO 00000KT 10SM BKN015 OVC060 12/11 A3022 RMK AO2 SLP240 T01220111 401610117=
201609240739 SPECI KBLI 240739Z AUTO 00000KT 10SM FEW008 SCT013 OVC060 12/11 A3021 RMK AO2 T01220111=
201609240730 SPECI KBLI 240730Z AUTO VRB03KT 10SM SCT008 BKN013 OVC060 12/12 A3020 RMK AO2 T01220117=
201609240653 METAR KBLI 240653Z AUTO 00000KT 10SM BKN006 OVC050 13/12 A3019 RMK AO2 RAE11 CIG 004V009 SLP232 P0000 T01280117=
201609240620 SPECI KBLI 240620Z AUTO 00000KT 10SM SCT005 SCT021 OVC040 13/12 A3017 RMK AO2 RAE11 P0000 T01280122=
201609240610 SPECI KBLI 240610Z AUTO 00000KT 10SM -RA SCT013 BKN037 OVC044 13/12 A3017 RMK AO2 P0000 T01280122=
201609240553 METAR KBLI 240553Z AUTO VRB03KT 6SM -RA BR FEW005 BKN012 OVC017 13/12 A3017 RMK AO2 SLP223 P0009 60014 T01280117 10161 20128 51034=
201609240543 SPECI KBLI 240543Z AUTO 28004KT 8SM -RA SCT005 OVC010 13/12 A3017 RMK AO2 P0008 T01280122=
201609240531 SPECI KBLI 240531Z AUTO VRB04KT 9SM -RA BKN005 BKN010 OVC014 13/12 A3016 RMK AO2 P0008 T01280122=
201609240522 SPECI KBLI 240522Z VRB04KT 2SM +RA BR SCT007 BKN015 OVC022 13/12 A3015 RMK AO2 P0008 T01330122=
201609240514 SPECI KBLI 240514Z 27004KT 2 1/2SM +RA BR FEW005 BKN009 OVC018 13/12 A3015 RMK AO2 CIG 006V012 P0004 T01330117=
201609240509 SPECI KBLI 240509Z 28004KT 5SM RA BR FEW007 BKN012 OVC018 13/12 A3015 RMK AO2 P0002 T01330117=
201609240453 METAR KBLI 240453Z 19003KT 5SM -RA BR BKN019 OVC026 13/12 A3014 RMK AO2 RAB27 SLP214 P0005 T01330117=
201609240444 SPECI KBLI 240444Z VRB05KT 3SM -RA BR BKN019 BKN026 OVC030 14/12 A3014 RMK AO2 RAB27 P0004 T01390117=
201609240353 METAR KBLI 240353Z 19003KT 10SM OVC036 14/12 A3010 RMK AO2 RAB12E21B41E52 SLP200 P0000 T01440117=
201609240253 METAR KBLI 240253Z 17004KT 10SM BKN045 OVC060 14/11 A3007 RMK AO2 SLP190 T01440111 53020=
201609240153 METAR KBLI 240153Z 15005KT 10SM BKN049 BKN075 OVC085 15/11 A3005 RMK AO2 SLP181 T01500106=
201609240053 METAR KBLI 240053Z 16007G20KT 10SM SCT075 15/11 A3002 RMK AO2 SLP171 T01500106=
201609232353 METAR KBLI 232353Z 16011KT 10SM BKN044 OVC065 16/11 A3001 RMK AO2 SLP169 60007 T01560106 10156 20128 53014=
201609232253 METAR KBLI 232253Z 17010KT 10SM BKN046 OVC060 16/10 A2998 RMK AO2 SLP159 T01560100=
201609232213 SPECI KBLI 232213Z 16014G22KT 10SM FEW028 OVC046 16/10 A2997 RMK AO2 T01560100=
201609232153 METAR KBLI 232153Z 14014G19KT 10SM BKN027 OVC046 15/10 A2997 RMK AO2 RAE29 SLP154 P0000 T01500100=
201609232053 METAR KBLI 232053Z 14012G23KT 10SM -RA OVC027 14/09 A2997 RMK AO2 SLP156 P0001 60007 T01390094 50004=
201609231953 METAR KBLI 231953Z 11007G16KT 6SM -RA BKN023 OVC030 13/10 A2998 RMK AO2 SLP159 P0005 T01280100=
201609231937 SPECI KBLI 231937Z 13005KT 6SM -RA FEW022 BKN028 OVC035 13/10 A2998 RMK AO2 P0003 T01330100=
201609231930 SPECI KBLI 231930Z 14007KT 2 1/2SM -RA SCT024 BKN029 OVC037 13/09 A2997 RMK AO2 P0002 T01330094=
201609231853 METAR KBLI 231853Z 12009KT 10SM -RA SCT036 BKN047 OVC055 14/09 A2996 RMK AO2 RAB1754 SLP152 P0001 T01440094=
201609231753 METAR KBLI 231753Z 12006KT 10SM BKN037 BKN046 OVC055 15/08 A2996 RMK AO2 RAB13E22 SLP151 P0000 60001 T01500083 10150 20122 56004=
201609231653 METAR KBLI 231653Z 13007KT 10SM FEW041 BKN055 OVC070 14/09 A2996 RMK AO2 SLP151 T01440089=
201609231553 METAR KBLI 231553Z 03004KT 10SM OVC070 12/10 A2997 RMK AO2 SLP154 T01220100=
201609231453 METAR KBLI 231453Z 10004KT 10SM OVC075 13/09 A2997 RMK AO2 RAE45 SLP156 P0001 60001 T01280094 58018=
201609231353 METAR KBLI 231353Z 14008KT 10SM -RA SCT055 BKN075 OVC090 13/09 A3000 RMK AO2 RAB1256 SLP163 P0000 T01330094=
201609231253 METAR KBLI 231253Z AUTO 16009KT 10SM FEW030 BKN038 OVC060 14/08 A3001 RMK AO2 RAB41E50 SLP170 P0000 T01440083=
201609231153 METAR KBLI 231153Z AUTO 16009G17KT 10SM BKN032 14/08 A3002 RMK AO2 SLP173 T01440083 10144 20133 55000=
201609231053 METAR KBLI 231053Z AUTO 18005KT 10SM CLR 13/09 A3002 RMK AO2 SLP172 T01330089=
201609230953 METAR KBLI 230953Z AUTO 17010G17KT 10SM CLR 14/08 A3002 RMK AO2 SLP171 T01390083=
201609230853 METAR KBLI 230853Z AUTO 17013G18KT 10SM CLR 14/09 A3002 RMK AO2 SLP173 T01390094 50006=
201609230753 METAR KBLI 230753Z AUTO 17009KT 10SM CLR 13/09 A3003 RMK AO2 SLP174 T01330094 401830061=
201609230653 METAR KBLI 230653Z AUTO 17008KT 10SM CLR 14/09 A3001 RMK AO2 SLP169 T01390089=
201609230553 METAR KBLI 230553Z AUTO 13009KT 10SM CLR 14/08 A3001 RMK AO2 SLP167 T01440083 10178 20139 50000=
201609230453 METAR KBLI 230453Z 17009KT 10SM CLR 14/09 A3002 RMK AO2 SLP174 T01440094=
201609230353 METAR KBLI 230353Z 17010KT 10SM CLR 14/09 A3001 RMK AO2 SLP170 T01440094=
201609230253 METAR KBLI 230253Z 16008KT 10SM CLR 14/09 A3001 RMK AO2 SLP168 T01440094 56002=
201609230153 METAR KBLI 230153Z 18008KT 10SM CLR 16/09 A3001 RMK AO2 SLP168 T01560094=
201609230053 METAR KBLI 230053Z 18007KT 10SM CLR 16/09 A3001 RMK AO2 SLP167 T01610094=
201609222353 METAR KBLI 222353Z 16007KT 10SM CLR 18/09 A3001 RMK AO2 SLP170 T01780089 10183 20144 58003=
201609222253 METAR KBLI 222253Z 16007KT 10SM CLR 17/10 A3002 RMK AO2 SLP173 T01720100=
201609222153 METAR KBLI 222153Z 18009KT 10SM CLR 18/10 A3002 RMK AO2 SLP171 T01780100=
201609222053 METAR KBLI 222053Z 18010G16KT 10SM CLR 17/09 A3002 RMK AO2 SLP173 T01670094 55003=
201609221953 METAR KBLI 221953Z 17010G14KT 10SM CLR 16/10 A3002 RMK AO2 SLP173 T01610100=
201609221853 METAR KBLI 221853Z 17007KT 10SM CLR 15/09 A3002 RMK AO2 SLP172 T01500094=
201609221753 METAR KBLI 221753Z 17006KT 10SM CLR 15/09 A3003 RMK AO2 SLP176 T01500094 10150 20061 51011=
201609221653 METAR KBLI 221653Z 16006KT 10SM CLR 13/09 A3003 RMK AO2 SLP175 T01330089=
201609221553 METAR KBLI 221553Z VRB03KT 10SM CLR 12/09 A3001 RMK AO2 SLP171 T01220094=
201609221453 METAR KBLI 221453Z 00000KT 10SM CLR 09/07 A3000 RMK AO2 SLP165 T00890072 53008=
201609221353 METAR KBLI 221353Z 00000KT 10SM CLR 06/05 A2998 RMK AO2 SLP161 T00610050=
201609221342 SPECI KBLI 221342Z AUTO 00000KT 3SM BR CLR 06/05 A2998 RMK AO2 T00610050=
201609221331 SPECI KBLI 221331Z AUTO 00000KT 1 3/4SM BR CLR 07/06 A2998 RMK AO2 T00670056=
201609221253 METAR KBLI 221253Z AUTO 00000KT 10SM CLR 07/06 A2997 RMK AO2 SLP157 T00720056=
201609221153 METAR KBLI 221153Z AUTO 00000KT 10SM CLR 07/06 A2997 RMK AO2 SLP156 T00670061 10111 20061 51008=
201609221053 METAR KBLI 221053Z AUTO 00000KT 10SM CLR 07/06 A2996 RMK AO2 SLP154 T00720061=
201609220953 METAR KBLI 220953Z AUTO 00000KT 10SM CLR 08/07 A2995 RMK AO2 SLP150 T00830067=
201609220853 METAR KBLI 220853Z AUTO 00000KT 5SM BR CLR 08/08 A2995 RMK AO2 SLP148 T00830078 55000=
201609220753 METAR KBLI 220753Z AUTO 00000KT 10SM CLR 09/08 A2994 RMK AO2 SLP145 T00940083 402060056=
201609220653 METAR KBLI 220653Z AUTO 00000KT 10SM CLR 10/09 A2994 RMK AO2 SLP146 T01000089=
201609220553 METAR KBLI 220553Z AUTO 00000KT 10SM CLR 11/09 A2995 RMK AO2 SLP147 T01060089 10200 20100 58002=
201609220453 METAR KBLI 220453Z 18003KT 10SM CLR 12/09 A2995 RMK AO2 SLP148 T01170094=
201609220353 METAR KBLI 220353Z 16004KT 10SM CLR 12/11 A2996 RMK AO2 SLP152 T01220106=
201609220253 METAR KBLI 220253Z 17004KT 10SM CLR 13/10 A2995 RMK AO2 SLP149 T01330100 56007=
201609220153 METAR KBLI 220153Z 18003KT 10SM CLR 16/10 A2995 RMK AO2 LTG DSNT E SLP149 T01560100=
201609220053 METAR KBLI 220053Z 29006KT 10SM CLR 19/07 A2995 RMK AO2 SLP150 T01890072=
201609212353 METAR KBLI 212353Z 28011KT 10SM CLR 20/07 A2997 RMK AO2 SLP157 T02000067 10206 20167 57017=
201609212253 METAR KBLI 212253Z 28012G17KT 10SM CLR 20/07 A2999 RMK AO2 SLP163 T02000072=
201609212153 METAR KBLI 212153Z 28011KT 10SM CLR 19/11 A3001 RMK AO2 SLP168 T01890106=
201609212053 METAR KBLI 212053Z 27009KT 10SM CLR 19/11 A3003 RMK AO2 SLP174 T01890111 58020=
201609211953 METAR KBLI 211953Z 30007KT 10SM CLR 20/08 A3005 RMK AO2 SLP180 T02000083=
201609211853 METAR KBLI 211853Z 32004KT 10SM CLR 18/09 A3007 RMK AO2 SLP190 T01830089=
201609211753 METAR KBLI 211753Z 30008KT 10SM CLR 17/08 A3009 RMK AO2 SLP195 T01670083 10167 20056 58004=
201609211653 METAR KBLI 211653Z 00000KT 10SM CLR 14/09 A3009 RMK AO2 SLP197 T01440089=
201609211553 METAR KBLI 211553Z 32003KT 10SM CLR 12/09 A3010 RMK AO2 SLP199 T01220089=
201609211453 METAR KBLI 211453Z 31004KT 10SM CLR 08/07 A3010 RMK AO2 SLP199 T00780072 55002=
201609211353 METAR KBLI 211353Z 00000KT 10SM CLR 06/04 A3010 RMK AO2 SLP199 T00560044=
201609211302 SPECI KBLI 211302Z AUTO 00000KT 4SM BR FEW002 06/05 A3010 RMK AO2 T00610050=
201609211253 METAR KBLI 211253Z AUTO 00000KT 1 1/2SM BR FEW002 06/05 A3010 RMK AO2 SLP201 T00560050=
201609211153 METAR KBLI 211153Z AUTO 00000KT 8SM CLR 07/06 A3011 RMK AO2 SLP202 T00670056 10100 20061 52001=
201609211053 METAR KBLI 211053Z AUTO 00000KT 7SM CLR 07/06 A3010 RMK AO2 SLP201 T00670061=
201609211038 SPECI KBLI 211038Z AUTO 33003KT 9SM FEW002 08/07 A3010 RMK AO2 T00780067=
201609211018 SPECI KBLI 211018Z AUTO 00000KT 2 1/2SM R16/2400VP6000FT BR SCT002 08/06 A3010 RMK AO2 VIS 1 1/2V5 T00780061=
201609210953 METAR KBLI 210953Z AUTO 00000KT 10SM CLR 08/07 A3010 RMK AO2 SLP201 T00780067=
201609210918 SPECI KBLI 210918Z AUTO 35003KT 3SM R16/5500VP6000FT BR FEW002 07/06 A3010 RMK AO2 T00720061=
201609210914 SPECI KBLI 210914Z AUTO 00000KT 1 1/4SM R16/5000VP6000FT BR FEW002 07/06 A3010 RMK AO2 T00720061=
201609210906 SPECI KBLI 210906Z AUTO 00000KT 3/4SM R16/5000VP6000FT BR VV003 07/07 A3010 RMK AO2 T00720067=
201609210904 SPECI KBLI 210904Z AUTO 00000KT 1 1/4SM BR FEW003 08/07 A3010 RMK AO2 T00780067=
201609210853 METAR KBLI 210853Z AUTO 00000KT 10SM R16/4500VP6000FT CLR 08/07 A3010 RMK AO2 SLP201 T00780072 50001=
201609210804 SPECI KBLI 210804Z AUTO 00000KT 3SM BR CLR 09/08 A3010 RMK AO2 T00890078=
201609210758 SPECI KBLI 210758Z AUTO 00000KT 1 3/4SM BR CLR 08/07 A3010 RMK AO2 T00830072=
201609210753 METAR KBLI 210753Z AUTO 00000KT 4SM BR CLR 09/08 A3010 RMK AO2 SLP201 T00890078 401830083=
201609210653 METAR KBLI 210653Z AUTO 00000KT 10SM CLR 09/08 A3011 RMK AO2 SLP202 T00940083=
201609210553 METAR KBLI 210553Z AUTO 00000KT 10SM CLR 10/09 A3010 RMK AO2 SLP200 T01000089 10178 20094 50001=
201609210453 METAR KBLI 210453Z 00000KT 10SM CLR 11/09 A3010 RMK AO2 SLP200 T01060089=
201609210353 METAR KBLI 210353Z 00000KT 10SM CLR 11/09 A3010 RMK AO2 SLP201 T01110094=
201609210253 METAR KBLI 210253Z 00000KT 10SM CLR 12/10 A3010 RMK AO2 SLP198 T01220100 51000=
201609210153 METAR KBLI 210153Z 29003KT 10SM CLR 16/10 A3010 RMK AO2 SLP198 T01560100=
201609210053 METAR KBLI 210053Z 31009KT 10SM CLR 17/09 A3010 RMK AO2 SLP197 T01720089=
201609202353 METAR KBLI 202353Z 28009KT 10SM CLR 18/09 A3010 RMK AO2 SLP197 T01780089 10183 20161 56012=
201609202253 METAR KBLI 202253Z 31011KT 10SM CLR 18/10 A3010 RMK AO2 SLP200 T01830100=
201609202153 METAR KBLI 202153Z 29009KT 10SM CLR 18/11 A3012 RMK AO2 SLP204 T01780106=
201609202053 METAR KBLI 202053Z VRB05KT 10SM SCT029 BKN040 17/11 A3013 RMK AO2 SLP210 T01670106 56007=
201609201953 METAR KBLI 201953Z 30006KT 10SM FEW028 SCT037 16/10 A3013 RMK AO2 SLP211 T01610100=
201609201853 METAR KBLI 201853Z 02009KT 10SM CLR 18/09 A3014 RMK AO2 SLP212 T01780089=
201609201753 METAR KBLI 201753Z 01009KT 10SM CLR 17/10 A3015 RMK AO2 SLP216 T01670100 10167 20106 58002=
201609201653 METAR KBLI 201653Z 35007KT 10SM SCT070 15/10 A3015 RMK AO2 SLP218 T01500100=
201609201553 METAR KBLI 201553Z 03005KT 10SM CLR 13/11 A3016 RMK AO2 SLP220 T01280106=
201609201546 SPECI KBLI 201546Z 02007KT 10SM CLR 13/11 A3016 RMK AO2 T01280106=
201609201453 METAR KBLI 201453Z 36005KT 10SM FEW040 11/10 A3016 RMK AO2 SLP220 T01110100 52004=
201609201353 METAR KBLI 201353Z 00000KT 10SM OVC038 11/10 A3016 RMK AO2 SLP219 T01110100=
201609201253 METAR KBLI 201253Z AUTO 03004KT 10SM BKN034 OVC047 12/10 A3015 RMK AO2 SLP216 T01170100=
201609201153 METAR KBLI 201153Z AUTO 02005KT 10SM OVC034 12/11 A3015 RMK AO2 SLP215 60000 70025 T01170106 10117 20111 50000=
201609201053 METAR KBLI 201053Z AUTO 36004KT 10SM OVC037 12/11 A3015 RMK AO2 SLP216 T01170106=
201609200953 METAR KBLI 200953Z AUTO 02004KT 10SM BKN041 OVC075 12/11 A3015 RMK AO2 SLP216 T01170106=
201609200853 METAR KBLI 200853Z AUTO 01004KT 10SM FEW050 OVC075 11/11 A3015 RMK AO2 RAB02E11 SLP216 P0000 60000 T01110106 52002=
201609200753 METAR KBLI 200753Z AUTO 36003KT 9SM FEW027 SCT060 OVC075 12/11 A3015 RMK AO2 SLP215 T01170106 401780117=
201609200653 METAR KBLI 200653Z AUTO 01003KT 10SM OVC065 12/11 A3015 RMK AO2 SLP215 T01170106=
201609200553 METAR KBLI 200553Z AUTO 02005KT 10SM BKN060 OVC070 12/11 A3014 RMK AO2 RAE18 SLP214 P0001 60003 T01170106 10172 20117 51011=
201609200453 METAR KBLI 200453Z 36006KT 9SM -RA SCT039 OVC060 13/11 A3014 RMK AO2 RAB07 SLP214 P0002 T01280111=
201609200353 METAR KBLI 200353Z 00000KT 10SM OVC050 14/11 A3012 RMK AO2 SLP207 T01390106=
201609200253 METAR KBLI 200253Z 18004KT 10SM BKN070 OVC095 15/11 A3011 RMK AO2 SLP202 T01500106 53009=
201609200153 METAR KBLI 200153Z VRB03KT 10SM SCT065 OVC080 16/10 A3010 RMK AO2 SLP197 T01560100=
201609200053 METAR KBLI 200053Z 17005KT 10SM OVC065 16/09 A3009 RMK AO2 SLP194 T01610089=
201609192353 METAR KBLI 192353Z 16005KT 10SM FEW070 BKN090 OVC110 17/08 A3008 RMK AO2 RAB19E31 SLP193 P0000 60003 T01720083 10178 20133 53005=
201609192253 METAR KBLI 192253Z 16005KT 10SM SCT070 OVC090 17/08 A3008 RMK AO2 RAB20E43 SLP191 P0000 T01670083=
201609192153 METAR KBLI 192153Z 17008KT 10SM BKN085 17/08 A3007 RMK AO2 SLP188 T01720083=
201609192053 METAR KBLI 192053Z 15009KT 10SM CLR 17/09 A3007 RMK AO2 LTG DSNT NE SLP188 60003 T01670089 51007=
201609191953 METAR KBLI 191953Z VRB06KT 10SM FEW080 16/09 A3006 RMK AO2 SLP187 T01560089=
201609191853 METAR KBLI 191853Z 19003KT 10SM FEW040 BKN060 OVC090 13/09 A3005 RMK AO2 RAB06E48 SLP184 P0003 T01330094=
201609191800 SPECI KBLI 191800Z 17011G18KT 10SM SCT065 BKN075 OVC100 14/11 A3005 RMK AO2 T01440111=
201609191753 METAR KBLI 191753Z 16011KT 10SM FEW007 BKN020 BKN046 14/11 A3005 RMK AO2 SLP181 60019 T01440111 10150 20133 53012=
201609191653 METAR KBLI 191653Z 16006KT 10SM FEW007 BKN020 BKN046 14/12 A3002 RMK AO2 RAE35 SLP172 P0002 T01440117=
201609191651 SPECI KBLI 191651Z 16006KT 10SM FEW007 SCT020 BKN046 14/12 A3002 RMK AO2 RAE35 P0002=
201609191555 SPECI KBLI 191555Z 20005KT 6SM -RA BR SCT009 BKN025 OVC060 14/12 A3002 RMK AO2 P0000 T01390122=
201609191553 METAR KBLI 191553Z 18006KT 5SM -RA BR BKN009 BKN025 OVC060 14/12 A3001 RMK AO2 RAB05 SLP169 P0002 T01390122=
201609191453 METAR KBLI 191453Z 18006KT 10SM FEW007 BKN015 14/12 A3000 RMK AO2 RAE09 SLP166 P0001 60015 T01390122 53003=
201609191450 SPECI KBLI 191450Z 18008KT 10SM FEW007 BKN015 14/12 A3000 RMK AO2 RAE09 P0001=
201609191358 SPECI KBLI 191358Z 15009G16KT 6SM -RA BR FEW013 BKN042 OVC070 14/12 A2998 RMK AO2 P0001 T01390122=
201609191353 METAR KBLI 191353Z 14012KT 3SM +RA BR SCT013 BKN044 OVC065 14/12 A2998 RMK AO2 RAB03 SLP158 P0014 T01390122=
201609191253 METAR KBLI 191253Z AUTO 16009KT 10SM SCT042 SCT060 OVC080 15/11 A2999 RMK AO2 LTG DSNT W SLP162 T01500111=
201609191153 METAR KBLI 191153Z AUTO 16007KT 10SM FEW019 BKN060 OVC075 15/12 A2999 RMK AO2 RAB05E27 SLP163 P0000 60002 70002 T01500117 10150 20133 56006=
201609191127 SPECI KBLI 191127Z AUTO 17009KT 10SM BKN018 BKN060 OVC080 15/12 A2999 RMK AO2 RAB05E27 P0000 T01500117=
201609191053 METAR KBLI 191053Z AUTO 16008KT 10SM FEW018 BKN034 OVC090 15/11 A2999 RMK AO2 RAE06 SLP162 P0001 T01500111=
201609190953 METAR KBLI 190953Z AUTO 17009KT 10SM -RA FEW027 BKN047 OVC085 14/12 A3001 RMK AO2 RAE12B39 SLP169 P0000 T01440117=
201609190853 METAR KBLI 190853Z AUTO 16007KT 10SM -RA FEW033 SCT046 OVC080 15/11 A3001 RMK AO2 RAB0755 SLP170 P0001 60001 T01500111 58003=
201609190753 METAR KBLI 190753Z AUTO 16004KT 10SM FEW044 BKN090 OVC110 14/12 A3002 RMK AO2 SLP172 T01390117 401940128=
201609190653 METAR KBLI 190653Z AUTO 15003KT 10SM FEW038 OVC070 14/12 A3002 RMK AO2 RAB00E11 SLP173 P0000 T01390117=
201609190553 METAR KBLI 190553Z AUTO 00000KT 10SM SCT043 OVC070 14/12 A3002 RMK AO2 RAB08E31 SLP173 P0000 60000 T01390117 10194 20139 50002=
201609190453 METAR KBLI 190453Z 00000KT 10SM BKN041 BKN080 OVC110 14/11 A3003 RMK AO2 SLP174 T01440111=
201609190353 METAR KBLI 190353Z 28004KT 10SM FEW075 SCT090 BKN120 16/11 A3003 RMK AO2 RAB24E38 SLP174 P0000 T01560111=
201609190253 METAR KBLI 190253Z 00000KT 10SM OVC065 16/10 A3002 RMK AO2 SLP171 T01610100 58001=
201609190153 METAR KBLI 190153Z 17003KT 10SM SCT080 OVC120 17/11 A3002 RMK AO2 SLP172 T01670111=
201609190053 METAR KBLI 190053Z 19004KT 10SM CLR 18/09 A3002 RMK AO2 SLP173 T01780094=
201609182353 METAR KBLI 182353Z VRB05KT 10SM CLR 19/10 A3002 RMK AO2 SLP172 T01940100 10194 20161 58010=
201609182253 METAR KBLI 182253Z 17007KT 130V200 10SM OVC100 19/11 A3003 RMK AO2 SLP175 T01890106=
201609182153 METAR KBLI 182153Z 15009KT 10SM FEW100 18/10 A3004 RMK AO2 SLP179 T01830100=
201609182053 METAR KBLI 182053Z 15009KT 10SM CLR 19/10 A3005 RMK AO2 SLP182 T01890100 58001=
201609181953 METAR KBLI 181953Z 17009G14KT 10SM CLR 18/12 A3005 RMK AO2 SLP183 T01780117=
201609181853 METAR KBLI 181853Z 17011G16KT 10SM FEW031 17/11 A3005 RMK AO2 SLP183 T01720111=
201609181753 METAR KBLI 181753Z 17009KT 10SM SCT023 16/11 A3005 RMK AO2 SLP182 T01610111 10161 20128 53004=
201609181653 METAR KBLI 181653Z 17008KT 10SM SCT023 14/11 A3005 RMK AO2 SLP180 T01440111=
201609181553 METAR KBLI 181553Z 16008KT 10SM FEW020 14/12 A3004 RMK AO2 SLP180 T01390117=
201609181537 SPECI KBLI 181537Z 17006KT 10SM FEW019 14/12 A3004 RMK AO2 T01390117=
201609181453 METAR KBLI 181453Z 17007KT 10SM BKN018 13/12 A3004 RMK AO2 SLP179 T01330117 53007=
201609181353 METAR KBLI 181353Z 16006KT 10SM CLR 13/11 A3003 RMK AO2 SLP175 T01330111=
201609181253 METAR KBLI 181253Z AUTO 16006KT 10SM CLR 13/11 A3002 RMK AO2 SLP172 T01330106=
201609181153 METAR KBLI 181153Z AUTO 17005KT 10SM CLR 13/11 A3002 RMK AO2 SLP171 70065 T01330106 10144 20133 53010=
201609181053 METAR KBLI 181053Z AUTO 17008KT 10SM CLR 14/11 A3001 RMK AO2 SLP167 T01390106=
201609180953 METAR KBLI 180953Z AUTO 17006KT 10SM CLR 14/11 A3000 RMK AO2 SLP163 T01390106=
201609180853 METAR KBLI 180853Z AUTO 17006KT 10SM OVC075 14/11 A2999 RMK AO2 SLP161 T01440106 51013=
201609180753 METAR KBLI 180753Z AUTO 16006KT 10SM OVC080 14/11 A2997 RMK AO2 SLP155 T01440106 401780128=
201609180653 METAR KBLI 180653Z AUTO 17004KT 10SM BKN070 14/11 A2997 RMK AO2 SLP154 T01440106=
201609180553 METAR KBLI 180553Z AUTO 16007KT 10SM CLR 14/11 A2995 RMK AO2 SLP147 T01440106 10178 20139 51019=
201609180453 METAR KBLI 180453Z 18005KT 10SM CLR 14/11 A2993 RMK AO2 SLP142 T01440106=
201609180353 METAR KBLI 180353Z 00000KT 10SM FEW080 SCT110 15/11 A2991 RMK AO2 SLP135 T01500106=
201609180253 METAR KBLI 180253Z 17006KT 10SM OVC110 16/10 A2989 RMK AO2 SLP129 T01610100 53013=
201609180153 METAR KBLI 180153Z 19009KT 10SM BKN090 OVC110 17/10 A2988 RMK AO2 SLP125 T01720100=
201609180053 METAR KBLI 180053Z 18004KT 10SM BKN090 OVC110 18/11 A2986 RMK AO2 SLP118 T01780111=
201609172353 METAR KBLI 172353Z 17008KT 10SM FEW021 BKN044 OVC050 16/13 A2986 RMK AO2 SLP116 60010 T01610133 10167 20150 51014=
201609172329 SPECI KBLI 172329Z 16011G18KT 10SM FEW021 BKN044 OVC050 16/14 A2985 RMK AO2 T01610139=
201609172253 METAR KBLI 172253Z AUTO 17010G18KT 10SM BKN021 BKN055 OVC070 17/14 A2985 RMK AO2 RAB2154E31 SLP113 P0002 T01670144=
201609172153 METAR KBLI 172153Z 17013G20KT 10SM BKN019 BKN025 OVC080 17/14 A2983 RMK AO2 RAE35 SLP106 P0001 T01670144=
201609172053 METAR KBLI 172053Z 17013G19KT 9SM -RA BKN018 BKN025 OVC034 16/14 A2982 RMK AO2 PK WND 17029/1954 SLP102 P0002 60007 T01610144 51007=
201609171953 METAR KBLI 171953Z 17013G21KT 10SM -RA BKN019 OVC025 16/14 A2981 RMK AO2 SLP101 P0001 T01610139=
201609171853 METAR KBLI 171853Z 17013G21KT 5SM RA BR SCT020 OVC027 16/13 A2980 RMK AO2 PK WND 15026/1830 RAE04B38 SLP098 P0004 T01560133=
201609171800 SPECI KBLI 171800Z 15014G21KT 5SM -RA BR SCT018 BKN024 OVC029 15/13 A2979 RMK AO2 P0000 T01500128=
201609171753 METAR KBLI 171753Z 16012G22KT 2 1/2SM -RA BR SCT009 BKN018 OVC030 15/13 A2980 RMK AO2 SLP095 P0021 60055 T01500128 10150 20128 56014=
201609171711 SPECI KBLI 171711Z 17005KT 2 1/2SM RA BR BKN021 OVC027 14/13 A2980 RMK AO2 P0008 T01440128=
201609171703 SPECI KBLI 171703Z 14006KT 3SM +RA BR OVC023 14/13 A2980 RMK AO2 P0005 T01440128=
201609171653 METAR KBLI 171653Z VRB04KT 2SM RA BR SCT023 BKN032 OVC041 14/13 A2980 RMK AO2 SLP098 P0025 T01440128=
201609171632 SPECI KBLI 171632Z 17005KT 3SM R16/2000VP6000FT +RA BR FEW022 SCT028 OVC037 14/13 A2980 RMK AO2 P0015 T01440128=
201609171553 METAR KBLI 171553Z 15007KT 7SM -RA BKN023 BKN030 OVC034 15/12 A2981 RMK AO2 SLP101 P0004 T01500122=
201609171539 SPECI KBLI 171539Z 13009KT 8SM -RA FEW022 SCT028 OVC036 15/13 A2981 RMK AO2 P0003 T01500128=
201609171453 METAR KBLI 171453Z 11006KT 8SM -RA SCT004 BKN024 OVC036 14/13 A2984 RMK AO2 SLP110 P0003 60005 T01390128 58023=
201609171353 METAR KBLI 171353Z VRB03KT 8SM -RA SCT004 BKN024 OVC036 14/13 A2986 RMK AO2 RAB03 SLP117 P0001 T01390133=
201609171303 SPECI KBLI 171303Z AUTO 00000KT 10SM -RA BKN007 OVC010 13/12 A2988 RMK AO2 RAB03 CIG 003V009 P0000 T01330122=
201609171253 METAR KBLI 171253Z AUTO 00000KT 7SM BKN004 OVC010 13/12 A2989 RMK AO2 RAE43 CIG 003V007 SLP127 P0001 T01280122=
201609171206 SPECI KBLI 171206Z AUTO 00000KT 4SM -RA BR OVC004 13/12 A2990 RMK AO2 P0001 T01280122=
201609171153 METAR KBLI 171153Z AUTO 00000KT 5SM -RA BR BKN005 OVC019 13/12 A2991 RMK AO2 CIG 003V008 SLP133 P0003 60011 70012 T01280122 10150 20128 56013=
201609171136 SPECI KBLI 171136Z AUTO 00000KT 4SM -RA BR BKN006 BKN014 OVC020 13/12 A2991 RMK AO2 P0002 T01280117=
201609171117 SPECI KBLI 171117Z AUTO 00000KT 3SM -RA BR SCT004 OVC020 13/12 A2991 RMK AO2 P0001 T01280117=
201609171053 METAR KBLI 171053Z AUTO 03003KT 5SM -RA BR SCT022 OVC027 13/12 A2992 RMK AO2 SLP136 P0003 T01280117=
201609171048 SPECI KBLI 171048Z AUTO 00000KT 6SM -RA BR OVC027 13/12 A2992 RMK AO2 P0003=
201609170953 METAR KBLI 170953Z AUTO 33003KT 6SM -RA BR BKN032 OVC042 13/12 A2994 RMK AO2 RAB0856 SLP145 P0002 T01330122=
201609170853 METAR KBLI 170853Z AUTO 00000KT 10SM OVC039 14/13 A2996 RMK AO2 RAB20E52 SLP151 P0001 60003 T01390128 51005=
201609170753 METAR KBLI 170753Z AUTO 00000KT 10SM BKN042 BKN055 OVC070 14/13 A2996 RMK AO2 RAB38E49 SLP150 P0000 T01440128 401940100=
201609170653 METAR KBLI 170653Z AUTO 16006KT 10SM FEW045 OVC055 15/13 A2996 RMK AO2 RAB0555E42 SLP150 P0002 T01500133=
201609170553 METAR KBLI 170553Z AUTO 17003KT 10SM OVC075 15/13 A2994 RMK AO2 RAE50 SLP146 P0000 60001 T01500133 10172 20144 58006=
201609170453 METAR KBLI 170453Z 17006KT 10SM -RA OVC090 16/12 A2996 RMK AO2 RAB12 SLP150 P0001 T01560122=
201609170353 METAR KBLI 170353Z 17008KT 10SM OVC100 17/12 A2996 RMK AO2 RAB0258E25 SLP152 P0000 T01670117=
201609170253 METAR KBLI 170253Z 16013KT 10SM FEW090 OVC110 16/12 A2996 RMK AO2 RAE21 SLP152 P0000 60000 T01610117 58003=
201609170153 METAR KBLI 170153Z 16008KT 10SM -RA FEW060 OVC100 16/12 A2996 RMK AO2 RAB47 SLP152 P0000 T01610117=
201609170053 METAR KBLI 170053Z 19010KT 10SM CLR 16/12 A2997 RMK AO2 SLP157 T01610117=
201609162353 METAR KBLI 162353Z 18009KT 10SM FEW120 17/12 A2997 RMK AO2 SLP155 T01720117 10194 20161 56014=
201609162253 METAR KBLI 162253Z 17010KT 10SM BKN120 18/12 A2998 RMK AO2 SLP159 T01780117=
201609162153 METAR KBLI 162153Z 19008KT 160V220 10SM BKN120 19/12 A3000 RMK AO2 SLP163 T01890122=
201609162053 METAR KBLI 162053Z 19006KT 10SM CLR 18/12 A3001 RMK AO2 SLP169 T01830122 58014=
201609161953 METAR KBLI 161953Z VRB04KT 10SM CLR 17/12 A3003 RMK AO2 SLP176 T01720122=
201609161853 METAR KBLI 161853Z 16007KT 10SM CLR 17/11 A3005 RMK AO2 SLP180 T01720111=
201609161753 METAR KBLI 161753Z 16007KT 10SM CLR 16/12 A3005 RMK AO2 SLP183 T01610122 10161 20106 58004=
201609161653 METAR KBLI 161653Z 17005KT 10SM CLR 15/12 A3007 RMK AO2 SLP189 T01500117=
201609161553 METAR KBLI 161553Z 17005KT 10SM CLR 14/12 A3006 RMK AO2 SLP186 T01440117=
201609161453 METAR KBLI 161453Z 18003KT 10SM CLR 14/12 A3007 RMK AO2 SLP187 T01390117 58007=
201609161353 METAR KBLI 161353Z 18003KT 10SM CLR 13/12 A3008 RMK AO2 SLP190 T01280117=
201609161253 METAR KBLI 161253Z AUTO 00000KT 8SM CLR 12/11 A3008 RMK AO2 SLP193 T01170106=
201609161153 METAR KBLI 161153Z AUTO 00000KT 10SM CLR 11/09 A3009 RMK AO2 SLP195 T01110094 10144 20100 58002=
201609161053 METAR KBLI 161053Z AUTO 00000KT 10SM CLR 13/11 A3009 RMK AO2 SLP197 T01280111=
201609160953 METAR KBLI 160953Z AUTO 18004KT 10SM CLR 13/11 A3010 RMK AO2 SLP199 T01280111=
201609160853 METAR KBLI 160853Z AUTO 16004KT 10SM CLR 13/12 A3010 RMK AO2 SLP197 T01330117 56011=
201609160753 METAR KBLI 160753Z AUTO 16006KT 10SM CLR 14/12 A3010 RMK AO2 SLP198 T01390117 402060100=
201609160653 METAR KBLI 160653Z AUTO 00000KT 10SM CLR 12/10 A3011 RMK AO2 SLP204 T01220100=
201609160553 METAR KBLI 160553Z AUTO 18003KT 10SM CLR 13/11 A3013 RMK AO2 SLP209 T01330106 10200 20117 51010=
201609160453 METAR KBLI 160453Z 00000KT 10SM CLR 13/11 A3012 RMK AO2 SLP206 T01280111=
201609160353 METAR KBLI 160353Z 17005KT 10SM CLR 14/12 A3011 RMK AO2 SLP203 T01440117=
201609160253 METAR KBLI 160253Z 18003KT 10SM CLR 16/11 A3010 RMK AO2 SLP199 T01560111 56007=
201609160153 METAR KBLI 160153Z 16004KT 10SM CLR 17/12 A3010 RMK AO2 SLP198 T01670117=
201609160053 METAR KBLI 160053Z 19004KT 10SM CLR 19/11 A3010 RMK AO2 SLP200 T01890111=
201609152353 METAR KBLI 152353Z 00000KT 10SM CLR 19/11 A3012 RMK AO2 SLP205 T01940111 10206 20139 56009=
201609152253 METAR KBLI 152253Z 19006KT 10SM CLR 20/12 A3013 RMK AO2 SLP207 T02000117=
201609152153 METAR KBLI 152153Z 18006KT 10SM CLR 19/11 A3013 RMK AO2 SLP210 T01890111=
201609152053 METAR KBLI 152053Z 17005KT 10SM CLR 19/12 A3015 RMK AO2 SLP215 T01890117 58010=
201609151953 METAR KBLI 151953Z 20005KT 10SM CLR 17/12 A3016 RMK AO2 SLP220 T01720117=
201609151853 METAR KBLI 151853Z 19008KT 10SM CLR 14/11 A3017 RMK AO2 SLP223 T01390111=
201609151753 METAR KBLI 151753Z 16006KT 10SM CLR 14/12 A3018 RMK AO2 SLP225 T01390117 10144 20100 58000=
201609151653 METAR KBLI 151653Z 16007KT 10SM CLR 14/12 A3018 RMK AO2 SLP226 T01440117=
201609151553 METAR KBLI 151553Z 17003KT 10SM CLR 14/11 A3018 RMK AO2 SLP225 T01440106=
201609151453 METAR KBLI 151453Z 00000KT 10SM CLR 12/09 A3018 RMK AO2 SLP225 T01170094 53011=
201609151353 METAR KBLI 151353Z 15005KT 10SM CLR 13/11 A3017 RMK AO2 SLP222 T01280111=
201609151253 METAR KBLI 151253Z AUTO 16005KT 10SM CLR 13/11 A3015 RMK AO2 SLP216 T01280106=
201609151153 METAR KBLI 151153Z AUTO 17006KT 10SM CLR 13/11 A3015 RMK AO2 SLP214 T01330106 10161 20133 53008=
201609151053 METAR KBLI 151053Z AUTO 17009KT 10SM CLR 14/11 A3013 RMK AO2 SLP210 T01390106=
201609150953 METAR KBLI 150953Z AUTO 16008KT 10SM CLR 14/11 A3013 RMK AO2 SLP207 T01390106=
201609150853 METAR KBLI 150853Z AUTO 18005KT 10SM CLR 14/11 A3012 RMK AO2 SLP206 T01440106 51013=
201609150753 METAR KBLI 150753Z AUTO 00000KT 10SM CLR 13/10 A3011 RMK AO2 SLP202 T01330100 402280067=
201609150653 METAR KBLI 150653Z AUTO 19005KT 10SM CLR 15/11 A3010 RMK AO2 SLP198 T01500111=
201609150553 METAR KBLI 150553Z AUTO 17007KT 10SM CLR 16/10 A3008 RMK AO2 SLP193 T01610100 10222 20150 51012=
201609150453 METAR KBLI 150453Z AUTO 16004KT 10SM CLR 16/10 A3008 RMK AO2 SLP192 T01610100=
201609150353 METAR KBLI 150353Z 16005KT 10SM CLR 16/09 A3007 RMK AO2 SLP188 T01610094=
201609150253 METAR KBLI 150253Z 18005KT 10SM CLR 18/09 A3005 RMK AO2 SLP182 T01780089 53005=
201609150153 METAR KBLI 150153Z 21003KT 10SM CLR 20/09 A3004 RMK AO2 SLP178 T02000089=
201609150053 METAR KBLI 150053Z 19004KT 10SM CLR 21/09 A3004 RMK AO2 SLP177 T02110089=
201609142353 METAR KBLI 142353Z VRB06KT 10SM CLR 22/08 A3003 RMK AO2 SLP176 T02220078 10228 20172 55001=
201609142253 METAR KBLI 142253Z VRB05KT 10SM CLR 23/08 A3003 RMK AO2 SLP176 T02280078=
201609142153 METAR KBLI 142153Z 20007KT 170V240 10SM CLR 22/07 A3004 RMK AO2 SLP177 T02170072=
201609142053 METAR KBLI 142053Z 17004KT 10SM CLR 21/08 A3004 RMK AO2 SLP177 T02110083 50000=
201609141953 METAR KBLI 141953Z 18006KT 10SM CLR 20/08 A3004 RMK AO2 SLP177 T02000083=
201609141853 METAR KBLI 141853Z VRB06KT 10SM CLR 18/08 A3004 RMK AO2 SLP178 T01830083=
201609141753 METAR KBLI 141753Z VRB05KT 10SM CLR 18/08 A3004 RMK AO2 SLP177 T01780078 10178 20067 51007=
201609141653 METAR KBLI 141653Z 22004KT 10SM CLR 16/08 A3004 RMK AO2 SLP179 T01560083=
201609141553 METAR KBLI 141553Z 00000KT 10SM CLR 14/09 A3003 RMK AO2 SLP175 T01440089=
201609141453 METAR KBLI 141453Z 00000KT 10SM CLR 10/08 A3002 RMK AO2 SLP172 T01000083 53014=
201609141353 METAR KBLI 141353Z 00000KT 10SM CLR 08/07 A3000 RMK AO2 SLP166 T00830067=
201609141253 METAR KBLI 141253Z AUTO 00000KT 10SM CLR 07/06 A2998 RMK AO2 SLP161 T00720056=
201609141153 METAR KBLI 141153Z AUTO 00000KT 10SM CLR 07/06 A2998 RMK AO2 SLP157 T00720056 10117 20072 51004=
201609141053 METAR KBLI 141053Z AUTO 00000KT 10SM CLR 08/06 A2997 RMK AO2 SLP156 T00780061=
201609140953 METAR KBLI 140953Z AUTO 00000KT 10SM CLR 08/07 A2997 RMK AO2 SLP154 T00830067=
201609140853 METAR KBLI 140853Z AUTO 00000KT 10SM CLR 09/07 A2997 RMK AO2 SLP153 T00940067 53005=
201609140753 METAR KBLI 140753Z AUTO 00000KT 10SM CLR 11/07 A2996 RMK AO2 SLP150 T01060072 402170050=
201609140653 METAR KBLI 140653Z AUTO 00000KT 10SM CLR 11/07 A2995 RMK AO2 SLP149 T01060072 TSNO=
201609140553 METAR KBLI 140553Z AUTO 00000KT 10SM CLR 11/08 A2995 RMK AO2 SLP148 T01110078 10217 20106 51003 TSNO=
201609140453 METAR KBLI 140453Z 00000KT 10SM CLR 12/08 A2995 RMK AO2 SLP148 T01220083=
201609140353 METAR KBLI 140353Z 00000KT 10SM CLR 13/09 A2995 RMK AO2 SLP148 T01330094=
201609140253 METAR KBLI 140253Z 00000KT 10SM CLR 14/10 A2994 RMK AO2 SLP146 T01440100 56008=
201609140153 METAR KBLI 140153Z 00000KT 10SM CLR 18/09 A2994 RMK AO2 SLP146 T01780094=
201609140053 METAR KBLI 140053Z VRB03KT 10SM CLR 21/07 A2995 RMK AO2 SLP149 T02060067=
201609132353 METAR KBLI 132353Z 27006KT 10SM CLR 21/08 A2997 RMK AO2 SLP154 T02110078 10217 20194 56023=
201609132253 METAR KBLI 132253Z VRB04KT 10SM CLR 21/08 A2999 RMK AO2 SLP161 T02060078=
201609132153 METAR KBLI 132153Z 26005KT 10SM CLR 21/09 A3001 RMK AO2 SLP167 T02060089=
201609132053 METAR KBLI 132053Z 27007KT 10SM CLR 21/09 A3003 RMK AO2 SLP176 T02060089 56014=
201609131953 METAR KBLI 131953Z VRB06KT 10SM CLR 21/08 A3004 RMK AO2 SLP179 T02060083=
201609131853 METAR KBLI 131853Z 27006KT 10SM CLR 20/08 A3006 RMK AO2 SLP185 T02000083=
201609131753 METAR KBLI 131753Z 00000KT 10SM CLR 21/06 A3008 RMK AO2 SLP191 T02060056 10206 20050 58007=
201609131659 SPECI KBLI 131659Z 32004KT 10SM CLR 18/06 A3009 RMK AO2 T01830061=
201609131653 METAR KBLI 131653Z 35006KT 10SM CLR 18/06 A3009 RMK AO2 SLP194 T01780061=
201609131553 METAR KBLI 131553Z 00000KT 10SM CLR 14/07 A3010 RMK AO2 SLP199 T01390067=
201609131453 METAR KBLI 131453Z 31004KT 10SM CLR 10/06 A3010 RMK AO2 SLP199 T01000056 55001=
201609131353 METAR KBLI 131353Z 34003KT 10SM CLR 08/05 A3009 RMK AO2 SLP197 T00780050=
201609131253 METAR KBLI 131253Z AUTO 33003KT 10SM CLR 07/05 A3009 RMK AO2 SLP197 T00720050=
201609131153 METAR KBLI 131153Z AUTO 00000KT 10SM CLR 06/04 A3010 RMK AO2 SLP199 T00610044 10111 20061 58002=
201609131053 METAR KBLI 131053Z AUTO 00000KT 10SM CLR 07/05 A3010 RMK AO2 SLP200 T00670050=
201609130953 METAR KBLI 130953Z AUTO 00000KT 10SM CLR 08/06 A3010 RMK AO2 SLP200 T00780061=
201609130853 METAR KBLI 130853Z AUTO 00000KT 10SM CLR 09/07 A3011 RMK AO2 SLP201 T00890067 58000=
201609130753 METAR KBLI 130753Z AUTO 00000KT 10SM CLR 09/07 A3011 RMK AO2 SLP203 T00890067 402500078=
201609130653 METAR KBLI 130653Z AUTO 00000KT 10SM CLR 10/07 A3011 RMK AO2 SLP201 T01000072=
201609130553 METAR KBLI 130553Z AUTO 00000KT 10SM CLR 11/08 A3011 RMK AO2 SLP201 T01110078 10228 20106 58004=
201609130453 METAR KBLI 130453Z 00000KT 10SM CLR 12/08 A3012 RMK AO2 SLP205 T01170078=
201609130353 METAR KBLI 130353Z 00000KT 10SM CLR 13/07 A3012 RMK AO2 SLP206 T01330072=
201609130253 METAR KBLI 130253Z 00000KT 10SM CLR 15/07 A3012 RMK AO2 SLP205 T01500067 56006=
201609130153 METAR KBLI 130153Z 26003KT 10SM CLR 21/04 A3012 RMK AO2 SLP205 T02060044=
201609130053 METAR KBLI 130053Z 29008KT 10SM CLR 22/02 A3013 RMK AO2 SLP208 T02220017=
201609122353 METAR KBLI 122353Z 30009KT 10SM CLR 22/05 A3014 RMK AO2 SLP211 T02220050 10250 20206 58011=
201609122253 METAR KBLI 122253Z 27010G14KT 10SM CLR 22/08 A3015 RMK AO2 SLP216 T02170078=
201609122153 METAR KBLI 122153Z 26011G16KT 10SM CLR 21/09 A3016 RMK AO2 SLP220 T02110089=
201609122053 METAR KBLI 122053Z 34006KT 10SM CLR 24/02 A3017 RMK AO2 SLP223 T02440022 58015=
201609121953 METAR KBLI 121953Z 02014G21KT 10SM CLR 24/02 A3019 RMK AO2 SLP228 T02390022=
201609121853 METAR KBLI 121853Z 04015G20KT 10SM CLR 23/03 A3021 RMK AO2 SLP234 T02280033=
201609121753 METAR KBLI 121753Z 04010G21KT 010V070 10SM CLR 21/03 A3022 RMK AO2 PK WND 03026/1707 SLP238 T02110033 10211 20078 58001=
201609121653 METAR KBLI 121653Z 02013G16KT 10SM CLR 20/04 A3022 RMK AO2 SLP240 T02000044=
201609121553 METAR KBLI 121553Z 02008KT 350V050 10SM CLR 17/06 A3023 RMK AO2 SLP242 T01670056=
201609121453 METAR KBLI 121453Z 35006KT 10SM CLR 13/06 A3022 RMK AO2 SLP239 T01330061 53005=
201609121420 SPECI KBLI 121420Z 36006KT 10SM CLR 10/06 A3021 RMK AO2 T01000056=
201609121353 METAR KBLI 121353Z 00000KT 10SM CLR 08/06 A3021 RMK AO2 SLP238 T00830056=
201609121253 METAR KBLI 121253Z AUTO VRB03KT 10SM CLR 09/06 A3020 RMK AO2 SLP234 T00940056=
201609121153 METAR KBLI 121153Z AUTO 33005KT 10SM CLR 11/06 A3020 RMK AO2 SLP234 T01060061 10111 20078 53004=
201609121053 METAR KBLI 121053Z AUTO 32007KT 10SM CLR 11/06 A3020 RMK AO2 SLP231 T01060061=
201609120953 METAR KBLI 120953Z AUTO 32005KT 10SM CLR 09/06 A3020 RMK AO2 SLP232 T00940061=
201609120853 METAR KBLI 120853Z AUTO 05003KT 10SM CLR 09/07 A3019 RMK AO2 SLP231 T00890067 53004=
201609120753 METAR KBLI 120753Z AUTO 31004KT 10SM CLR 09/07 A3018 RMK AO2 SLP228 T00940072 402060083=
201609120653 METAR KBLI 120653Z AUTO 00000KT 10SM CLR 09/07 A3018 RMK AO2 SLP228 T00890072=
201609120553 METAR KBLI 120553Z AUTO 00000KT 10SM CLR 11/08 A3018 RMK AO2 SLP226 T01060078 10206 20100 52009=
201609120453 METAR KBLI 120453Z 00000KT 10SM CLR 12/08 A3017 RMK AO2 SLP222 T01170078=
201609120353 METAR KBLI 120353Z 00000KT 10SM CLR 13/07 A3016 RMK AO2 SLP221 T01280072=
201609120253 METAR KBLI 120253Z 00000KT 10SM CLR 15/07 A3015 RMK AO2 SLP216 T01500072 53002=
201609120153 METAR KBLI 120153Z 31004KT 10SM CLR 18/06 A3015 RMK AO2 SLP214 T01830061=
201609120053 METAR KBLI 120053Z 29009KT 10SM CLR 20/07 A3014 RMK AO2 SLP213 T02000072=
201609112353 METAR KBLI 112353Z 30007KT 10SM CLR 20/08 A3014 RMK AO2 SLP214 T02000078 10200 20167 58006=
201609112253 METAR KBLI 112253Z 27009KT 240V300 10SM CLR 19/08 A3015 RMK AO2 SLP216 T01940083=
201609112153 METAR KBLI 112153Z 25008KT 10SM CLR 19/09 A3016 RMK AO2 SLP218 T01940094=
201609112053 METAR KBLI 112053Z 28009KT 10SM CLR 19/09 A3016 RMK AO2 SLP219 T01890094 50000=
201609111953 METAR KBLI 111953Z 26007KT 210V290 10SM FEW030 18/10 A3016 RMK AO2 SLP220 T01830100=
201609111853 METAR KBLI 111853Z 00000KT 10SM BKN032 19/10 A3016 RMK AO2 SLP220 T01890100=
201609111753 METAR KBLI 111753Z 28006KT 10SM SCT028 18/10 A3016 RMK AO2 SLP219 T01780100 10178 20111 53006=
201609111654 SPECI KBLI 111654Z VRB04KT 10SM FEW027 17/09 A3015 RMK AO2 T01670094=
201609111653 METAR KBLI 111653Z VRB05KT 10SM FEW040 17/09 A3015 RMK AO2 SLP215 T01670094=
201609111553 METAR KBLI 111553Z 00000KT 10SM FEW045 FEW055 SCT070 15/09 A3015 RMK AO2 SLP215 T01500094=
201609111453 METAR KBLI 111453Z 00000KT 10SM OVC031 14/09 A3014 RMK AO2 SLP214 T01390094 53019=
201609111353 METAR KBLI 111353Z 00000KT 10SM OVC028 13/08 A3011 RMK AO2 SLP204 T01330083=
201609111313 SPECI KBLI 111313Z AUTO 18003KT 10SM OVC029 13/08 A3010 RMK AO2 T01280083=
201609111253 METAR KBLI 111253Z AUTO 17003KT 10SM BKN030 12/08 A3010 RMK AO2 SLP198 T01170083=
201609111153 METAR KBLI 111153Z AUTO 00000KT 10SM SCT065 BKN085 14/08 A3009 RMK AO2 SLP195 T01390078 10167 20139 53010=
201609111053 METAR KBLI 111053Z AUTO VRB05KT 10SM OVC065 15/08 A3008 RMK AO2 SLP190 T01500078=
201609110953 METAR KBLI 110953Z AUTO 00000KT 10SM OVC060 15/09 A3007 RMK AO2 SLP188 T01500089=
201609110853 METAR KBLI 110853Z AUTO 00000KT 10SM BKN055 16/10 A3006 RMK AO2 SLP185 T01560100 50002=
201609110753 METAR KBLI 110753Z AUTO VRB03KT 10SM OVC050 16/10 A3006 RMK AO2 SLP185 T01610100 402110133=
201609110653 METAR KBLI 110653Z AUTO VRB03KT 10SM OVC047 17/11 A3005 RMK AO2 SLP182 T01670111=
201609110553 METAR KBLI 110553Z AUTO 26004KT 10SM OVC047 17/11 A3005 RMK AO2 SLP182 T01670111 10211 20156 53003=
201609110453 METAR KBLI 110453Z 17004KT 10SM OVC042 17/13 A3005 RMK AO2 SLP181 T01670128=
201609110353 METAR KBLI 110353Z VRB03KT 10SM OVC048 17/12 A3005 RMK AO2 SLP180 T01670122=
201609110253 METAR KBLI 110253Z 00000KT 10SM BKN046 17/12 A3004 RMK AO2 SLP179 T01670122 55004=
201609110153 METAR KBLI 110153Z 18006KT 10SM CLR 18/12 A3004 RMK AO2 SLP177 T01780122=
201609110053 METAR KBLI 110053Z 17010KT 10SM CLR 20/12 A3004 RMK AO2 SLP179 T02000122=
201609102353 METAR KBLI 102353Z 16008KT 10SM FEW046 21/13 A3006 RMK AO2 SLP183 T02110133 10211 20178 57011=
201609102253 METAR KBLI 102253Z AUTO 18008KT 10SM CLR 21/14 A3006 RMK AO2 SLP186 T02060139=
201609102153 METAR KBLI 102153Z 18010G16KT 10SM SCT048 BKN060 20/14 A3008 RMK AO2 SLP191 T02000139=
201609102053 METAR KBLI 102053Z 17010G16KT 120V190 10SM SCT039 SCT048 BKN070 20/13 A3009 RMK AO2 SLP194 T02000133 58010=
201609101953 METAR KBLI 101953Z 17007KT 10SM SCT065 19/13 A3010 RMK AO2 SLP197 T01940128=
201609101853 METAR KBLI 101853Z 17008KT 10SM OVC060 18/12 A3011 RMK AO2 SLP202 T01830122=
201609101753 METAR KBLI 101753Z 17009KT 10SM SCT060 BKN070 18/12 A3012 RMK AO2 SLP204 60000 T01780122 10183 20144 56005=
201609101653 METAR KBLI 101653Z 18008KT 10SM OVC065 17/12 A3012 RMK AO2 SLP206 T01670117=
201609101553 METAR KBLI 101553Z 18007KT 10SM OVC050 16/12 A3012 RMK AO2 SLP207 T01610117=
201609101453 METAR KBLI 101453Z 18008KT 10SM OVC055 16/11 A3013 RMK AO2 SLP209 60000 T01560111 56008=
201609101353 METAR KBLI 101353Z 17010KT 10SM FEW041 OVC055 15/11 A3014 RMK AO2 SLP212 T01500106=
201609101253 METAR KBLI 101253Z AUTO 16006KT 10SM OVC055 15/10 A3014 RMK AO2 RAB14E23 SLP212 P0000 T01500100=
201609101153 METAR KBLI 101153Z AUTO 00000KT 10SM SCT043 BKN075 OVC100 14/11 A3016 RMK AO2 SLP218 T01440106 10161 20128 55002=
201609101053 METAR KBLI 101053Z AUTO 15006KT 10SM OVC100 16/10 A3015 RMK AO2 SLP214 T01610100=
201609100953 METAR KBLI 100953Z AUTO 17006KT 10SM BKN110 15/12 A3015 RMK AO2 SLP216 T01500117=
201609100853 METAR KBLI 100853Z AUTO 17009KT 10SM BKN110 14/11 A3016 RMK AO2 SLP220 T01440111 58018=
201609100753 METAR KBLI 100753Z AUTO 17003KT 10SM FEW080 SCT120 13/11 A3018 RMK AO2 SLP227 T01280106 402220067=
201609100653 METAR KBLI 100653Z AUTO 13003KT 10SM SCT080 OVC100 14/11 A3020 RMK AO2 SLP234 T01390111=
201609100553 METAR KBLI 100553Z AUTO 00000KT 10SM BKN095 13/11 A3022 RMK AO2 SLP238 T01330111 10222 20122 55001=
201609100453 METAR KBLI 100453Z 00000KT 10SM CLR 13/10 A3021 RMK AO2 SLP237 T01280100=
201609100353 METAR KBLI 100353Z 00000KT 10SM CLR 14/09 A3022 RMK AO2 SLP239 T01440094=
201609100253 METAR KBLI 100253Z 00000KT 10SM CLR 16/11 A3022 RMK AO2 SLP241 T01610106 58016=
201609100153 METAR KBLI 100153Z 19003KT 10SM CLR 19/09 A3024 RMK AO2 SLP245 T01940094=
201609100053 METAR KBLI 100053Z 00000KT 10SM CLR 22/07 A3026 RMK AO2 SLP252 T02170072=
201609092353 METAR KBLI 092353Z VRB03KT 10SM CLR 22/07 A3027 RMK AO2 SLP255 T02220072 10222 20167 58016=
201609092253 METAR KBLI 092253Z 26007KT 10SM CLR 21/08 A3029 RMK AO2 SLP263 T02110078=
201609092153 METAR KBLI 092153Z VRB04KT 10SM CLR 21/08 A3030 RMK AO2 SLP267 T02060078=
201609092053 METAR KBLI 092053Z 17005KT 10SM CLR 19/10 A3032 RMK AO2 SLP272 T01940100 58012=
201609091953 METAR KBLI 091953Z 22004KT 10SM SCT110 19/09 A3033 RMK AO2 SLP275 T01890094=
201609091853 METAR KBLI 091853Z VRB04KT 10SM CLR 18/11 A3035 RMK AO2 SLP282 T01780106=
201609091753 METAR KBLI 091753Z VRB04KT 10SM CLR 17/11 A3035 RMK AO2 SLP283 T01670106 10167 20067 56001=
201609091653 METAR KBLI 091653Z 18004KT 10SM CLR 14/10 A3035 RMK AO2 SLP285 T01390100=
201609091553 METAR KBLI 091553Z 00000KT 10SM CLR 13/09 A3035 RMK AO2 SLP283 T01280094=
201609091453 METAR KBLI 091453Z 00000KT 10SM CLR 09/08 A3035 RMK AO2 SLP286 T00890078 50001=
201609091408 SPECI KBLI 091408Z 00000KT 10SM CLR 07/07 A3037 RMK AO2 T00720067=
201609091401 SPECI KBLI 091401Z 00000KT 1 3/4SM BR CLR 07/07 A3036 RMK AO2 T00720067=
201609091353 METAR KBLI 091353Z 00000KT 10SM CLR 07/07 A3036 RMK AO2 SLP287 T00720067=
201609091253 METAR KBLI 091253Z AUTO 00000KT 10SM CLR 07/06 A3035 RMK AO2 SLP285 T00720061=
201609091153 METAR KBLI 091153Z AUTO 00000KT 10SM CLR 09/07 A3035 RMK AO2 SLP283 T00890072 10128 20072 53004=
201609091053 METAR KBLI 091053Z AUTO 00000KT 6SM BR CLR 08/07 A3034 RMK AO2 SLP279 T00780067=
201609090953 METAR KBLI 090953Z AUTO 00000KT 10SM CLR 09/08 A3033 RMK AO2 SLP278 T00890078=
201609090853 METAR KBLI 090853Z AUTO 00000KT 10SM CLR 09/08 A3034 RMK AO2 SLP279 T00940078 53009=
201609090753 METAR KBLI 090753Z AUTO 00000KT 10SM CLR 11/09 A3033 RMK AO2 SLP277 T01110089 402060106=
201609090653 METAR KBLI 090653Z AUTO 00000KT 10SM CLR 11/09 A3032 RMK AO2 SLP273 T01060089=
201609090553 METAR KBLI 090553Z AUTO 15004KT 10SM CLR 13/09 A3031 RMK AO2 SLP270 60000 T01330094 10200 20111 53015=
201609090453 METAR KBLI 090453Z 15003KT 10SM CLR 11/09 A3029 RMK AO2 SLP263 T01110094=
201609090353 METAR KBLI 090353Z 00000KT 10SM CLR 13/11 A3028 RMK AO2 RAB05E15 SLP261 P0000 T01330111=
201609090253 METAR KBLI 090253Z 00000KT 10SM CLR 15/10 A3027 RMK AO2 SLP255 T01500100 53004=
201609090153 METAR KBLI 090153Z 18003KT 10SM CLR 18/09 A3026 RMK AO2 SLP252 T01780094=
201609090053 METAR KBLI 090053Z 20006KT 10SM CLR 19/09 A3025 RMK AO2 SLP251 T01890089=
201609082353 METAR KBLI 082353Z VRB03KT 10SM FEW045 19/07 A3025 RMK AO2 SLP250 T01940072 10206 20167 53002=
201609082254 SPECI KBLI 082254Z VRB04KT 10SM FEW045 21/07 A3025 RMK AO2 T02060072=
201609082253 METAR KBLI 082253Z VRB04KT 10SM CLR 21/08 A3025 RMK AO2 SLP249 T02060078=
201609082153 METAR KBLI 082153Z VRB05KT 10SM SCT045 BKN055 20/09 A3025 RMK AO2 SLP249 T02000089=
201609082053 METAR KBLI 082053Z VRB05KT 10SM FEW035 BKN045 BKN060 19/11 A3025 RMK AO2 SLP248 T01890106 51004=
201609081953 METAR KBLI 081953Z 18006KT 10SM FEW018 BKN038 18/11 A3024 RMK AO2 SLP247 T01830111=
201609081853 METAR KBLI 081853Z 16007KT 10SM FEW038 17/12 A3024 RMK AO2 SLP247 T01720117=
201609081839 SPECI KBLI 081839Z 16006KT 10SM SCT018 BKN020 17/12 A3024 RMK AO2 T01670122=
201609081832 SPECI KBLI 081832Z 16006KT 10SM FEW018 17/12 A3023 RMK AO2 T01670117=
201609081753 METAR KBLI 081753Z VRB05KT 10SM BKN018 17/12 A3023 RMK AO2 SLP244 T01670122 10167 20133 51017=
201609081653 METAR KBLI 081653Z 17006KT 10SM OVC015 15/13 A3023 RMK AO2 SLP242 T01500128=
201609081553 METAR KBLI 081553Z 20004KT 10SM OVC011 14/12 A3021 RMK AO2 SLP237 T01390122=
201609081532 SPECI KBLI 081532Z 19004KT 10SM FEW006 BKN011 14/12 A3020 RMK AO2 CIG 009V013 T01390122=
201609081500 SPECI KBLI 081500Z 17004KT 10SM BKN009 13/12 A3019 RMK AO2 CIG 005V010 T01330122=
201609081453 METAR KBLI 081453Z 17006KT 10SM SCT009 BKN014 13/12 A3019 RMK AO2 SLP229 T01330122 53010=
201609081415 SPECI KBLI 081415Z 17007KT 10SM SCT009 BKN014 13/12 A3018 RMK AO2 T01330122=
201609081353 METAR KBLI 081353Z 17008KT 10SM SCT007 OVC016 14/12 A3018 RMK AO2 SLP224 T01390122=
201609081341 SPECI KBLI 081341Z 17008KT 10SM SCT007 BKN018 OVC039 14/13 A3017 RMK AO2 T01390128=
201609081329 SPECI KBLI 081329Z AUTO 17005KT 10SM BKN006 BKN011 OVC018 14/13 A3017 RMK AO2 CIG 005V010 T01440128=
201609081318 SPECI KBLI 081318Z AUTO 19006KT 10SM SCT006 BKN010 OVC020 14/13 A3017 RMK AO2 CIG 009V012 T01440128=
201609081310 SPECI KBLI 081310Z AUTO 17005KT 10SM FEW006 SCT010 OVC021 14/13 A3016 RMK AO2 T01440133=
201609081253 METAR KBLI 081253Z AUTO 17005KT 10SM FEW012 OVC021 14/13 A3016 RMK AO2 SLP220 T01390128=
201609081203 SPECI KBLI 081203Z AUTO 17006KT 10SM FEW006 BKN028 OVC048 14/13 A3016 RMK AO2 T01440128=
201609081153 METAR KBLI 081153Z AUTO 17008KT 10SM FEW010 BKN028 OVC050 14/13 A3015 RMK AO2 SLP217 60004 70014 T01440128 10150 20133 53012=
201609081114 SPECI KBLI 081114Z AUTO 17006KT 10SM SCT007 BKN050 OVC070 14/13 A3014 RMK AO2 T01440133=
201609081053 METAR KBLI 081053Z AUTO 17009KT 10SM BKN007 OVC049 14/13 A3014 RMK AO2 SLP211 T01440133=
201609081044 SPECI KBLI 081044Z AUTO 17008KT 10SM BKN007 BKN028 OVC049 14/13 A3014 RMK AO2 T01440133=
201609081025 SPECI KBLI 081025Z AUTO 17007KT 10SM FEW007 BKN026 OVC032 14/13 A3014 RMK AO2 T01440133=
201609080953 METAR KBLI 080953Z AUTO 17008KT 10SM OVC032 15/13 A3013 RMK AO2 RAE03 SLP209 P0000 T01500133=
201609080906 SPECI KBLI 080906Z AUTO 18007KT 10SM SCT010 SCT030 OVC034 14/13 A3012 RMK AO2 RAE03 P0000 T01440128=
201609080853 METAR KBLI 080853Z AUTO 16007G17KT 140V200 5SM -RA BR BKN011 BKN026 OVC030 15/13 A3012 RMK AO2 RAE0756B22 SLP205 P0003 60004 T01500128 53001=
201609080826 SPECI KBLI 080826Z AUTO VRB03KT 10SM -RA BKN013 BKN018 OVC026 14/13 A3012 RMK AO2 RAE0756B22 P0000 T01390128=
201609080813 SPECI KBLI 080813Z AUTO 00000KT 10SM SCT017 BKN027 OVC033 14/13 A3012 RMK AO2 RAE0756 P0000 T01390128=
201609080753 METAR KBLI 080753Z AUTO 00000KT 8SM -RA FEW016 BKN030 OVC035 14/13 A3011 RMK AO2 SLP202 P0001 T01390128 401780133=
201609080653 METAR KBLI 080653Z AUTO 00000KT 10SM -RA BKN023 BKN027 OVC041 13/13 A3012 RMK AO2 RAB46 SLP204 P0000 T01330128=
201609080553 METAR KBLI 080553Z AUTO 15004KT 10SM OVC045 14/12 A3011 RMK AO2 RAE10 SLP204 P0000 60005 T01390122 10144 20133 58001=
201609080453 METAR KBLI 080453Z 14003KT 4SM RA BR OVC045 14/12 A3012 RMK AO2 RAB15 SLP207 P0003 T01390122=
201609080353 METAR KBLI 080353Z 00000KT 10SM OVC055 14/12 A3012 RMK AO2 SLP206 T01390122=
201609080253 METAR KBLI 080253Z 15004KT 10SM OVC065 14/12 A3012 RMK AO2 RAB16E40 SLP206 P0001 60002 T01390122 58009=
201609080153 METAR KBLI 080153Z 18004KT 10SM OVC060 14/12 A3013 RMK AO2 RAB27E40 SLP209 P0001 T01440117=
201609080053 METAR KBLI 080053Z 16007KT 10SM BKN060 OVC080 14/12 A3014 RMK AO2 RAB01E49 SLP211 P0000 T01440117=
201609072353 METAR KBLI 072353Z 17006KT 10SM BKN075 OVC095 14/12 A3014 RMK AO2 RAE37 SLP214 P0002 60005 T01440117 10178 20144 50007=
201609072253 METAR KBLI 072253Z 17007KT 7SM -RA FEW038 BKN080 OVC090 14/12 A3015 RMK AO2 SLP215 P0003 T01440117=
201609072153 METAR KBLI 072153Z 16011G17KT 10SM -RA OVC085 16/12 A3014 RMK AO2 RAB48 SLP211 P0000 T01610117=
201609072053 METAR KBLI 072053Z 17013KT 10SM BKN110 17/11 A3012 RMK AO2 SLP207 T01670111 57000=
201609071953 METAR KBLI 071953Z 17011KT 10SM BKN050 17/12 A3012 RMK AO2 SLP205 T01670117=
201609071853 METAR KBLI 071853Z 16010KT 10SM OVC043 16/12 A3013 RMK AO2 SLP208 T01610117=
201609071753 METAR KBLI 071753Z 16008KT 10SM OVC044 16/12 A3012 RMK AO2 SLP207 T01560122 10156 20133 53007=
201609071653 METAR KBLI 071653Z 17009KT 10SM SCT003 BKN037 OVC045 14/12 A3012 RMK AO2 SLP206 T01440122=
201609071626 SPECI KBLI 071626Z 17009KT 10SM SCT003 BKN037 OVC045 14/12 A3012 RMK AO2 T01390122=
201609071553 METAR KBLI 071553Z 18009KT 10SM BKN035 OVC045 14/12 A3011 RMK AO2 SLP201 T01390122=
201609071453 METAR KBLI 071453Z 17005KT 10SM FEW028 BKN033 OVC050 14/12 A3010 RMK AO2 SLP200 T01390122 52010=
201609071353 METAR KBLI 071353Z 18003KT 10SM FEW006 BKN037 OVC046 13/12 A3009 RMK AO2 SLP197 T01330117=
201609071311 SPECI KBLI 071311Z AUTO 00000KT 10SM SCT007 OVC036 14/12 A3009 RMK AO2 T01390122=
201609071253 METAR KBLI 071253Z AUTO VRB03KT 10SM OVC038 14/12 A3009 RMK AO2 SLP194 T01390122=
201609071153 METAR KBLI 071153Z AUTO 17005KT 10SM BKN043 OVC050 14/12 A3008 RMK AO2 SLP190 70001 T01440122 10150 20128 50001=
201609071053 METAR KBLI 071053Z AUTO 00000KT 10SM OVC048 15/12 A3008 RMK AO2 SLP191 T01500117=
201609070953 METAR KBLI 070953Z AUTO 15004KT 10SM OVC046 15/13 A3007 RMK AO2 SLP189 T01500128=
201609070853 METAR KBLI 070853Z AUTO 16003KT 10SM OVC039 14/12 A3007 RMK AO2 SLP189 T01440117 50003=
201609070753 METAR KBLI 070753Z AUTO 00000KT 10SM OVC043 14/12 A3007 RMK AO2 SLP189 T01390122 401890122=
201609070653 METAR KBLI 070653Z AUTO 00000KT 10SM BKN050 OVC080 14/12 A3007 RMK AO2 SLP188 T01390117=
201609070553 METAR KBLI 070553Z AUTO 00000KT 10SM FEW044 OVC095 13/11 A3006 RMK AO2 SLP186 T01280111 10183 20122 51014=
201609070453 METAR KBLI 070453Z 00000KT 10SM BKN100 13/11 A3005 RMK AO2 SLP182 T01280111=
201609070353 METAR KBLI 070353Z 18003KT 10SM OVC100 15/12 A3005 RMK AO2 SLP180 T01500122=
201609070253 METAR KBLI 070253Z 17003KT 10SM BKN120 15/12 A3002 RMK AO2 SLP173 T01500117 51006=
201609070153 METAR KBLI 070153Z 17003KT 10SM CLR 17/11 A3002 RMK AO2 SLP170 T01670111=
201609070053 METAR KBLI 070053Z 18006KT 10SM CLR 18/11 A3001 RMK AO2 SLP168 T01830106=
201609062353 METAR KBLI 062353Z VRB03KT 10SM CLR 18/11 A3000 RMK AO2 SLP165 T01830111 10189 20161 53005=
201609062253 METAR KBLI 062253Z 25003KT 10SM SCT023 18/11 A3000 RMK AO2 SLP163 T01780111=
201609062153 METAR KBLI 062153Z 23004KT 10SM SCT023 OVC046 17/11 A2999 RMK AO2 SLP160 T01670111=
201609062053 METAR KBLI 062053Z VRB04KT 10SM FEW019 BKN026 OVC039 16/12 A2999 RMK AO2 SLP160 T01610117 53011=
201609061953 METAR KBLI 061953Z 00000KT 10SM BKN023 OVC031 17/11 A2997 RMK AO2 SLP155 T01670111=
201609061853 METAR KBLI 061853Z 00000KT 10SM OVC025 17/11 A2996 RMK AO2 SLP152 T01670111=
201609061753 METAR KBLI 061753Z 03005KT 10SM BKN016 OVC048 16/11 A2995 RMK AO2 SLP149 60001 T01610111 10161 20122 51006=
201609061732 SPECI KBLI 061732Z 06005KT 10SM SCT014 BKN019 OVC047 16/12 A2996 RMK AO2 T01560117=
201609061653 METAR KBLI 061653Z 02005KT 10SM OVC034 14/12 A2995 RMK AO2 SLP149 T01440122=
201609061553 METAR KBLI 061553Z 02004KT 10SM FEW007 SCT028 OVC033 13/12 A2995 RMK AO2 SLP147 T01330122=
201609061541 SPECI KBLI 061541Z 02004KT 10SM SCT028 OVC035 13/12 A2994 RMK AO2 T01330117=
201609061453 METAR KBLI 061453Z 00000KT 9SM OVC029 13/12 A2994 RMK AO2 SLP144 60001 T01280117 53003=
201609061353 METAR KBLI 061353Z 00000KT 7SM SCT007 OVC022 12/12 A2993 RMK AO2 RAE10 SLP141 P0000 T01220117=
201609061318 SPECI KBLI 061318Z AUTO 36003KT 5SM BR FEW007 SCT012 OVC023 12/12 A2992 RMK AO2 RAE10 P0000 T01220117=
201609061253 METAR KBLI 061253Z AUTO 00000KT 5SM -RA BR FEW018 BKN027 OVC032 12/12 A2992 RMK AO2 RAE27B45 SLP139 P0001 T01220117=
201609061153 METAR KBLI 061153Z AUTO 00000KT 6SM -RA BR OVC017 13/12 A2993 RMK AO2 SLP140 P0001 60003 70003 T01280117 10133 20128 55000=
201609061053 METAR KBLI 061053Z AUTO 00000KT 6SM -RA BR OVC026 13/11 A2992 RMK AO2 RAB00E28B29 SLP139 P0002 T01280111=
201609061028 SPECI KBLI 061028Z AUTO 00000KT 10SM BKN028 OVC033 13/11 A2992 RMK AO2 RAB00E28 P0000 T01280111=
201609060953 METAR KBLI 060953Z AUTO 00000KT 10SM BKN033 OVC060 13/11 A2992 RMK AO2 SLP137 T01280111=
201609060853 METAR KBLI 060853Z AUTO 00000KT 10SM BKN065 OVC090 13/11 A2993 RMK AO2 SLP141 T01280106 56006=
201609060811 SPECI KBLI 060811Z AUTO 00000KT 10SM SCT030 OVC037 13/11 A2994 RMK AO2 T01330106=
201609060753 METAR KBLI 060753Z AUTO 00000KT 10SM OVC029 13/11 A2993 RMK AO2 SLP143 T01280111 401560122=
201609060751 SPECI KBLI 060751Z AUTO 00000KT 10SM OVC029 13/11 A2993 RMK AO2=
201609060653 METAR KBLI 060653Z AUTO 00000KT 10SM OVC060 13/11 A2994 RMK AO2 SLP147 T01280111=
201609060553 METAR KBLI 060553Z AUTO 00000KT 10SM OVC065 13/11 A2997 RMK AO2 RAE04 SLP155 P0000 60000 T01330111 10156 20133 58001=
201609060453 METAR KBLI 060453Z 00000KT 10SM -RA OVC065 14/11 A2998 RMK AO2 RAB51 SLP158 P0000 T01440106=
201609060353 METAR KBLI 060353Z 20004KT 10SM OVC070 15/10 A2998 RMK AO2 SLP158 T01500100=
201609060253 METAR KBLI 060253Z 16004KT 10SM BKN090 15/09 A2997 RMK AO2 SLP156 60000 T01500094 58004=
201609060153 METAR KBLI 060153Z 14008KT 10SM OVC090 16/09 A2998 RMK AO2 SLP158 T01560094=
201609060053 METAR KBLI 060053Z 17006KT 10SM OVC090 16/10 A2999 RMK AO2 RAB05E13 SLP163 P0000 T01560100=
201609052353 METAR KBLI 052353Z 17007KT 10SM OVC100 16/10 A2998 RMK AO2 SLP159 T01560100 10156 20133 58008=
201609052253 METAR KBLI 052253Z 18007KT 10SM OVC110 15/11 A3000 RMK AO2 SLP164 T01500106=
201609052153 METAR KBLI 052153Z 17007KT 10SM SCT023 16/11 A3000 RMK AO2 SLP165 T01560106=
201609052053 METAR KBLI 052053Z 17009KT 10SM OVC019 15/11 A3001 RMK AO2 SLP168 T01500106 58006=
201609051953 METAR KBLI 051953Z 17009KT 10SM OVC019 14/11 A3001 RMK AO2 SLP169 T01440111=
201609051853 METAR KBLI 051853Z 19005KT 10SM FEW008 BKN015 OVC021 14/11 A3003 RMK AO2 SLP174 T01390111=
201609051820 SPECI KBLI 051820Z 17007KT 10SM BKN008 OVC014 14/11 A3002 RMK AO2 CIG 007V012 T01390111=
201609051812 SPECI KBLI 051812Z 17007KT 10SM SCT008 OVC016 14/11 A3002 RMK AO2 T01390111=
201609051804 SPECI KBLI 051804Z 17010G16KT 10SM BKN013 OVC020 14/11 A3002 RMK AO2 T01390106=
201609051753 METAR KBLI 051753Z 16009G16KT 10SM SCT006 OVC015 14/11 A3001 RMK AO2 SLP170 T01390106 10139 20122 50006=
201609051746 SPECI KBLI 051746Z 16011KT 10SM SCT006 OVC015 14/11 A3001 RMK AO2 T01390106=
201609051653 METAR KBLI 051653Z 17008G17KT 7SM BKN006 OVC011 13/11 A3002 RMK AO2 CIG 004V008 SLP172 T01280111=
201609051553 METAR KBLI 051553Z 16011KT 10SM BKN008 OVC015 13/11 A3001 RMK AO2 CIG 006V011 SLP168 T01280106=
201609051453 METAR KBLI 051453Z 17011KT 10SM FEW009 OVC019 13/10 A3000 RMK AO2 SLP164 T01280100 53008=
201609051353 METAR KBLI 051353Z 17009KT 10SM BKN019 BKN050 OVC060 13/10 A2999 RMK AO2 SLP160 T01280100=
201609051253 METAR KBLI 051253Z AUTO 16010G16KT 10SM BKN055 13/10 A2998 RMK AO2 SLP157 T01280100=
201609051153 METAR KBLI 051153Z AUTO 16009KT 10SM CLR 13/10 A2997 RMK AO2 SLP156 T01280100 10144 20128 51001=
201609051053 METAR KBLI 051053Z AUTO 16009KT 10SM FEW060 SCT080 SCT100 13/10 A2997 RMK AO2 SLP156 T01330100=
201609050953 METAR KBLI 050953Z AUTO 16011G16KT 10SM FEW060 14/09 A2997 RMK AO2 SLP155 T01390094=
201609050853 METAR KBLI 050853Z AUTO 16004KT 10SM BKN060 13/09 A2997 RMK AO2 SLP154 T01280094 51004=
201609050753 METAR KBLI 050753Z AUTO 16004KT 10SM FEW050 BKN060 13/10 A2997 RMK AO2 SLP154 T01330100 402000067=
201609050653 METAR KBLI 050653Z AUTO 16005KT 10SM CLR 13/10 A2996 RMK AO2 SLP151 T01330100=
201609050553 METAR KBLI 050553Z AUTO 16006KT 10SM CLR 14/12 A2996 RMK AO2 SLP150 T01440117 10200 20144 50003=
201609050453 METAR KBLI 050453Z 17009KT 10SM CLR 14/11 A2996 RMK AO2 SLP152 T01440106=
201609050353 METAR KBLI 050353Z 17007KT 10SM FEW085 15/11 A2996 RMK AO2 SLP152 T01500111=
201609050253 METAR KBLI 050253Z 16006KT 10SM CLR 16/12 A2995 RMK AO2 SLP149 T01610117 53001=
201609050153 METAR KBLI 050153Z 17006KT 10SM CLR 18/11 A2994 RMK AO2 SLP147 T01780106=
201609050053 METAR KBLI 050053Z 16006KT 10SM CLR 19/11 A2995 RMK AO2 SLP149 T01890111=
201609042353 METAR KBLI 042353Z 28004KT 10SM CLR 20/08 A2995 RMK AO2 SLP147 T02000083 10200 20156 56009=
201609042253 METAR KBLI 042253Z VRB05KT 10SM CLR 19/09 A2995 RMK AO2 SLP147 T01940089=
201609042153 METAR KBLI 042153Z 22007KT 10SM CLR 19/10 A2996 RMK AO2 SLP149 T01890100=
201609042053 METAR KBLI 042053Z 21007KT 180V240 10SM SCT040 18/11 A2997 RMK AO2 SLP156 T01830111 56009=
201609041953 METAR KBLI 041953Z VRB06KT 10SM SCT037 17/11 A2998 RMK AO2 SLP160 T01720106=
201609041940 SPECI KBLI 041940Z VRB05KT 10SM FEW019 SCT026 BKN034 17/11 A2998 RMK AO2 T01670111=
201609041908 SPECI KBLI 041908Z VRB04KT 10SM SCT019 BKN029 BKN038 16/11 A2999 RMK AO2 T01610111=
201609041853 METAR KBLI 041853Z VRB05KT 10SM FEW017 SCT023 BKN030 16/12 A2999 RMK AO2 SLP163 T01610122=
201609041827 SPECI KBLI 041827Z 32004KT 10SM BKN018 17/11 A3000 RMK AO2 T01670106=
201609041753 METAR KBLI 041753Z VRB04KT 10SM SCT030 16/11 A3000 RMK AO2 SLP166 T01610111 10161 20067 51000=
201609041653 METAR KBLI 041653Z 29003KT 10SM OVC030 14/11 A3000 RMK AO2 SLP166 T01440111=
201609041634 SPECI KBLI 041634Z 29003KT 10SM BKN030 14/11 A3000 RMK AO2 T01440111=
201609041553 METAR KBLI 041553Z 01003KT 10SM OVC029 14/12 A3001 RMK AO2 SLP169 T01440117=
201609041453 METAR KBLI 041453Z 00000KT 10SM FEW002 FEW031 09/09 A3000 RMK AO2 SLP166 T00940089 53005=
201609041353 METAR KBLI 041353Z 00000KT 10SM CLR 07/06 A2999 RMK AO2 SLP162 T00720061=
201609041319 SPECI KBLI 041319Z AUTO 00000KT 10SM R16/3500VP6000FT CLR 08/07 A2999 RMK AO2 T00780067=
201609041312 SPECI KBLI 041312Z AUTO 00000KT 2 1/2SM BR CLR 08/06 A2999 RMK AO2 T00780061=
201609041253 METAR KBLI 041253Z AUTO 00000KT 10SM CLR 08/07 A2998 RMK AO2 SLP160 T00830067=
201609041231 SPECI KBLI 041231Z AUTO 00000KT 10SM CLR 08/07 A2998 RMK AO2 T00780067=
201609041224 SPECI KBLI 041224Z AUTO 00000KT 2 1/2SM BR CLR 08/07 A2998 RMK AO2 VIS 1V5 T00780072=
201609041153 METAR KBLI 041153Z AUTO 00000KT 9SM CLR 09/08 A2998 RMK AO2 SLP160 T00890078 10111 20083 53001=
201609041053 METAR KBLI 041053Z AUTO 00000KT 4SM BR CLR 09/08 A2998 RMK AO2 SLP160 T00940083=
201609041045 SPECI KBLI 041045Z AUTO 00000KT 1 3/4SM BR CLR 09/08 A2998 RMK AO2 T00890078=
201609040953 METAR KBLI 040953Z AUTO 34003KT 10SM CLR 09/08 A2998 RMK AO2 SLP159 T00940083=
201609040853 METAR KBLI 040853Z AUTO 00000KT 10SM CLR 10/09 A2998 RMK AO2 SLP160 T01000089 58004=
201609040753 METAR KBLI 040753Z AUTO 00000KT 10SM CLR 10/08 A2999 RMK AO2 SLP162 T01000083 401940094=
201609040653 METAR KBLI 040653Z AUTO 00000KT 10SM CLR 09/08 A2999 RMK AO2 SLP162 T00940083=
201609040553 METAR KBLI 040553Z AUTO 00000KT 10SM CLR 11/09 A2999 RMK AO2 SLP163 T01110094 10189 20106 50004=
201609040453 METAR KBLI 040453Z 00000KT 10SM CLR 12/10 A2999 RMK AO2 SLP164 T01170100=
201609040353 METAR KBLI 040353Z 00000KT 10SM CLR 12/10 A2999 RMK AO2 SLP161 T01220100=
201609040253 METAR KBLI 040253Z 00000KT 10SM CLR 14/11 A2998 RMK AO2 SLP159 T01390106 53001=
201609040153 METAR KBLI 040153Z VRB03KT 10SM CLR 17/10 A2998 RMK AO2 SLP156 T01720100=
201609040053 METAR KBLI 040053Z VRB06KT 10SM CLR 18/09 A2998 RMK AO2 SLP157 T01780094=
201609032353 METAR KBLI 032353Z 18005KT 10SM CLR 18/09 A2998 RMK AO2 SLP157 T01830094 10194 20150 56014=
201609032253 METAR KBLI 032253Z VRB05KT 10SM CLR 18/09 A2999 RMK AO2 SLP160 T01830089=
201609032153 METAR KBLI 032153Z 17008KT 10SM OVC090 18/09 A3000 RMK AO2 SLP165 T01830089=
201609032053 METAR KBLI 032053Z 19006KT 10SM FEW042 BKN050 OVC095 18/09 A3002 RMK AO2 SLP171 T01780089 50002=
201609031953 METAR KBLI 031953Z 17008KT 10SM OVC047 17/09 A3002 RMK AO2 SLP172 T01670094=
201609031853 METAR KBLI 031853Z 19008KT 10SM OVC049 16/11 A3002 RMK AO2 SLP170 T01610106=
201609031753 METAR KBLI 031753Z 17007KT 10SM OVC038 15/11 A3001 RMK AO2 SLP169 T01500106 10150 20133 51004=
201609031653 METAR KBLI 031653Z 18008KT 150V220 10SM BKN060 OVC090 15/11 A3001 RMK AO2 SLP167 T01500106=
201609031553 METAR KBLI 031553Z 17009KT 10SM FEW016 FEW065 OVC090 14/10 A3001 RMK AO2 SLP168 T01390100=
201609031453 METAR KBLI 031453Z 17006KT 10SM OVC090 14/09 A3000 RMK AO2 SLP165 T01390094 53006=
201609031353 METAR KBLI 031353Z 17007KT 10SM FEW070 OVC090 13/10 A2999 RMK AO2 SLP161 T01330100=
201609031253 METAR KBLI 031253Z AUTO 17009KT 10SM FEW050 OVC090 13/10 A2999 RMK AO2 SLP160 T01330100=
201609031153 METAR KBLI 031153Z AUTO 17008G14KT 10SM FEW060 OVC085 13/10 A2998 RMK AO2 SLP159 70007 T01330100 10156 20133 51001=
201609031053 METAR KBLI 031053Z AUTO 18008G16KT 10SM OVC085 14/11 A2998 RMK AO2 SLP159 T01390106=
201609030953 METAR KBLI 030953Z AUTO 18006KT 10SM OVC085 14/11 A2998 RMK AO2 SLP158 T01440106=
201609030853 METAR KBLI 030853Z AUTO 16006KT 10SM OVC080 14/10 A2998 RMK AO2 SLP158 T01440100 58000=
201609030753 METAR KBLI 030753Z AUTO 16007KT 10SM FEW055 OVC075 15/10 A2999 RMK AO2 SLP160 T01500100 401940128=
201609030653 METAR KBLI 030653Z AUTO 17007KT 10SM FEW036 BKN050 OVC080 15/10 A2999 RMK AO2 SLP161 T01500100=
201609030553 METAR KBLI 030553Z AUTO 17005KT 10SM SCT055 BKN070 OVC085 16/11 A2998 RMK AO2 RAE02 SLP158 P0000 60000 T01560106 10194 20156 50004=
201609030453 METAR KBLI 030453Z 17011KT 10SM -RA SCT045 OVC060 16/11 A2999 RMK AO2 RAB53 SLP160 P0000 T01560111=
201609030400 METAR KBLI NIL=
201609030353 METAR KBLI 030353Z 18005KT 10SM BKN065 OVC100 16/12 A2998 RMK AO2 SLP158 T01560122=
201609030253 METAR KBLI 030253Z 00000KT 10SM FEW070 OVC085 16/11 A2997 RMK AO2 SLP154 T01610106 53005=
201609030153 METAR KBLI 030153Z 19006KT 10SM SCT075 OVC120 17/10 A2996 RMK AO2 SLP151 T01720100=
201609030053 METAR KBLI 030053Z 18005KT 10SM BKN120 18/11 A2996 RMK AO2 SLP149 T01830111=
201609022353 METAR KBLI 022353Z 17008KT 10SM SCT045 19/11 A2995 RMK AO2 SLP148 60000 T01940106 10194 20144 58001=
201609022253 METAR KBLI 022253Z 20008KT 10SM CLR 19/11 A2995 RMK AO2 SLP149 T01890111=
201609022153 METAR KBLI 022153Z 16010KT 10SM SCT045 18/11 A2996 RMK AO2 SLP150 T01780111=
201609022053 METAR KBLI 022053Z 18008KT 140V200 10SM SCT010 BKN060 17/12 A2995 RMK AO2 RAB25E51 SLP149 P0000 60000 T01720117 51005=
201609021954 SPECI KBLI 021954Z 17010KT 10SM SCT010 BKN050 17/12 A2995 RMK AO2 T01670122=
201609021953 METAR KBLI 021953Z 17009KT 10SM SCT075 17/12 A2995 RMK AO2 SLP147 T01670122=
201609021853 METAR KBLI 021853Z 19006KT 10SM FEW010 FEW050 BKN070 16/12 A2995 RMK AO2 SLP147 T01560122=
201609021753 METAR KBLI 021753Z 00000KT 10SM FEW060 OVC080 14/12 A2994 RMK AO2 SLP144 60007 T01440122 10150 20128 53002=
201609021653 METAR KBLI 021653Z 12004KT 10SM FEW012 FEW021 SCT090 14/12 A2993 RMK AO2 RAE31 SLP139 P0001 T01440122=
201609021628 SPECI KBLI 021628Z 09004KT 10SM -RA FEW011 SCT021 BKN070 14/13 A2993 RMK AO2 P0001 T01440128=
201609021601 SPECI KBLI 021601Z 15005KT 10SM -RA BKN011 OVC070 14/12 A2993 RMK AO2 P0001 T01390122=
201609021600 SPECI KBLI 021600Z 15005KT 10SM -RA OVC075 14/12 A2993 RMK AO2 P0000 T01390122=
201609021553 METAR KBLI 021553Z 14006KT 8SM -RA BKN011 OVC070 14/12 A2993 RMK AO2 SLP140 P0004 T01390122=
201609021453 METAR KBLI 021453Z 16006KT 8SM -RA BKN011 OVC022 14/12 A2993 RMK AO2 RAB00 SLP141 P0002 60002 T01390117 53010=
201609021404 SPECI KBLI 021404Z 17006KT 10SM -RA BKN025 BKN075 OVC120 14/11 A2992 RMK AO2 RAB00 P0000 T01440111=
201609021353 METAR KBLI 021353Z 16006KT 10SM SCT025 SCT075 BKN090 14/11 A2992 RMK AO2 SLP136 T01390111=
201609021253 METAR KBLI 021253Z AUTO 14006KT 10SM BKN095 13/11 A2990 RMK AO2 SLP131 T01330111=
201609021153 METAR KBLI 021153Z AUTO 16006KT 10SM BKN050 14/11 A2990 RMK AO2 SLP131 60001 70001 T01390111 10144 20133 56003=
201609021053 METAR KBLI 021053Z AUTO 15004KT 10SM BKN035 OVC047 14/12 A2990 RMK AO2 SLP131 T01390117=
201609021015 SPECI KBLI 021015Z AUTO 15008KT 10SM SCT022 BKN034 OVC047 14/12 A2990 RMK AO2 T01440117=
201609020953 METAR KBLI 020953Z AUTO 16005KT 10SM BKN021 OVC050 14/12 A2990 RMK AO2 RAB35E49 SLP132 P0000 T01440117=
201609020853 METAR KBLI 020853Z AUTO 00000KT 10SM OVC028 13/12 A2991 RMK AO2 SLP134 60001 T01330122 57002=
201609020851 SPECI KBLI 020851Z AUTO 00000KT 10SM OVC028 13/12 A2991 RMK AO2=
201609020753 METAR KBLI 020753Z AUTO 00000KT 10SM OVC034 14/12 A2992 RMK AO2 RAE19 SLP136 P0000 T01390122 401940133=
201609020653 METAR KBLI 020653Z AUTO 00000KT 10SM -RA BKN038 OVC060 14/12 A2992 RMK AO2 SLP136 P0001 T01390117=
201609020553 METAR KBLI 020553Z AUTO 00000KT 10SM -RA OVC075 13/12 A2991 RMK AO2 RAB22 SLP135 P0000 60000 T01330117 10194 20133 55004=
201609020453 METAR KBLI 020453Z 11003KT 10SM OVC080 15/11 A2990 RMK AO2 SLP132 T01500106=
201609020353 METAR KBLI 020353Z 13005KT 10SM SCT028 OVC090 15/11 A2991 RMK AO2 RAE12B41E52 SLP135 P0000 T01500111=
201609020253 METAR KBLI 020253Z 15007KT 10SM -RA OVC090 16/11 A2993 RMK AO2 SLP139 P0000 60000 T01560111 58007=
201609020153 METAR KBLI 020153Z 15010G17KT 10SM -RA FEW034 BKN090 OVC110 17/11 A2994 RMK AO2 RAB43 SLP143 P0000 T01720111=
201609020053 METAR KBLI 020053Z 17011KT 10SM FEW039 BKN050 OVC110 19/10 A2994 RMK AO2 SLP143 T01890100=
201609012353 METAR KBLI 012353Z 16006G15KT 10SM FEW038 BKN046 BKN110 19/10 A2995 RMK AO2 SLP147 T01940100 10194 20161 58012=
201609012253 METAR KBLI 012253Z 15009G19KT 10SM BKN036 BKN047 19/10 A2996 RMK AO2 SLP152 T01890100=
201609012153 METAR KBLI 012153Z 16007KT 10SM BKN035 BKN046 19/11 A2998 RMK AO2 SLP157 T01890111=
201609012053 METAR KBLI 012053Z 14009KT 10SM FEW055 19/10 A2998 RMK AO2 SLP159 T01940100 58006=
201609011953 METAR KBLI 011953Z 17006KT 10SM OVC055 17/13 A3000 RMK AO2 SLP164 T01720128=
201609011853 METAR KBLI 011853Z 16008KT 10SM FEW025 BKN065 17/13 A2999 RMK AO2 SLP162 T01720128=
201609011753 METAR KBLI 011753Z 17011KT 10SM SCT060 16/12 A3000 RMK AO2 SLP164 60000 T01610122 10172 20144 53003=
201609011653 METAR KBLI 011653Z 17006G15KT 10SM CLR 17/13 A2999 RMK AO2 SLP162 T01670128=
201609011553 METAR KBLI 011553Z 16006KT 10SM CLR 17/12 A2999 RMK AO2 SLP161 T01670117=
201609011453 METAR KBLI 011453Z 14005KT 10SM CLR 15/13 A2999 RMK AO2 SLP161 60000 T01500128 53005=
201609011353 METAR KBLI 011353Z 15006KT 10SM OVC100 15/12 A2999 RMK AO2 SLP160 T01500122=
201609011253 METAR KBLI 011253Z AUTO 18003KT 10SM OVC090 14/12 A2997 RMK AO2 RAB02E11 SLP156 P0000 T01440122=
201609011153 METAR KBLI 011153Z AUTO 16008KT 10SM FEW009 SCT013 OVC080 15/13 A2997 RMK AO2 RAB1059E34 SLP156 P0001 60009 70023 T01500133 10167 20150 53004=
201609011053 METAR KBLI 011053Z AUTO 15007KT 10SM SCT006 BKN070 OVC080 15/14 A2996 RMK AO2 RAE25B31E40 SLP152 P0003 T01500139=
201609011026 SPECI KBLI 011026Z AUTO 16008KT 10SM FEW006 BKN039 OVC046 16/14 A2996 RMK AO2 RAE25 P0003 T01560144=
201609011016 SPECI KBLI 011016Z AUTO 15009KT 8SM -RA FEW006 BKN018 OVC046 16/14 A2997 RMK AO2 CIG 011V025 P0003 T01560144=
201609011005 SPECI KBLI 011005Z AUTO 15005KT 6SM RA BR SCT008 BKN014 OVC028 16/14 A2997 RMK AO2 P0002 T01560139=
201609010953 METAR KBLI 010953Z AUTO 17004KT 8SM -RA FEW010 BKN026 OVC055 15/14 A2997 RMK AO2 RAB22 SLP154 P0003 T01500139=
201609010853 METAR KBLI 010853Z AUTO 14006KT 10SM OVC033 15/14 A2996 RMK AO2 SLP152 60002 T01500139 51006=
201609010753 METAR KBLI 010753Z AUTO 13006KT 10SM SCT038 BKN047 OVC070 16/14 A2996 RMK AO2 RAB05E32 SLP151 P0001 T01560139 401830139=
201609010653 METAR KBLI 010653Z AUTO 17004KT 10SM BKN036 OVC055 16/14 A2995 RMK AO2 RAB0557E11 SLP149 P0001 T01610139=
201609010553 METAR KBLI 010553Z AUTO 17006KT 10SM OVC042 17/13 A2994 RMK AO2 SLP146 T01670133 10172 20161 55000=
201609010453 METAR KBLI 010453Z 17003KT 10SM OVC050 16/14 A2994 RMK AO2 LTG DSNT S SLP144 T01610144=
201609010353 METAR KBLI 010353Z 00000KT 10SM BKN050 16/14 A2994 RMK AO2 SLP145 T01610144=
201609010253 METAR KBLI 010253Z 12005KT 10SM OVC055 17/14 A2995 RMK AO2 SLP146 T01670139 55000=
201609010153 METAR KBLI 010153Z 15005KT 10SM BKN055 17/14 A2994 RMK AO2 SLP146 T01670144=
201609010053 METAR KBLI 010053Z 17007KT 10SM OVC060 17/15 A2995 RMK AO2 SLP146 T01670150=
201609010025 SPECI KBLI 010025Z 16009KT 10SM FEW006 OVC055 17/16 A2995 RMK AO2 T01720156=

# No short TAF reports from KBLI in databse.

###################################
#  large TAF from KBLI
###################################
201609302329 TAF KBLI 302329Z 0100/0124 26005KT P6SM SKC FM010400 VRB03KT P6SM
                       SCT120 BKN200 FM011100 13005KT P6SM BKN080
                       FM011600 14007KT P6SM VCSH BKN050 FM011900
                       15012KT 6SM -SHRA BKN050=
201609301741 TAF KBLI 301741Z 3018/0118 VRB04KT P6SM SCT011 FM010400 VRB03KT
                       P6SM SCT120 BKN200 FM011100 13005KT P6SM
                       BKN080 FM011500 14007KT P6SM VCSH BKN050=
201609301619 KBLI 301619Z 3016/0112 00000KT 3SM BR SCT002 FM301800 18005KT P6SM
                       SCT250 FM010400 VRB03KT P6SM SCT120 BKN200=
201609301120 TAF KBLI 301120Z 3012/0112 00000KT P6SM SCT004 SCT250
                      TEMPO 3012/3016 1SM BR BKN005 BKN250 FM301800
                       18005KT P6SM SCT250 FM010400 VRB03KT P6SM
                       SCT120 BKN200=
201609300523 TAF KBLI 300523Z 3006/0106 16005KT P6SM SCT250
                      TEMPO 3014/3018 BKN005 FM010400 VRB03KT P6SM
                       SCT120 BKN200=
201609300037 KBLI 300037Z 3001/3024 25005KT P6SM BKN250 FM300400 17004KT P6SM
                       BKN250
                      TEMPO 3012/3016 BKN005=
201609292324 TAF KBLI 292324Z 3000/3024 18006KT P6SM FEW150 BKN250 FM300400
                       17004KT P6SM SCT250
                      TEMPO 3012/3016 BKN005=
201609291901 KBLI 291901Z 2919/3018 00000KT P6SM BKN005 BKN250 FM292000 23004KT
                       P6SM SCT250 FM300300 00000KT P6SM SCT250=
201609291721 TAF KBLI 291721Z 2918/3018 00000KT P6SM VCFG BKN010 BKN250
                      TEMPO 2918/2919 2SM BR VV003 FM291900 23004KT
                       P6SM SCT250 FM300300 00000KT P6SM SCT250=
201609291503 KBLI 291503Z 2915/3012 00000KT P6SM VCFG BKN010 BKN250
                      TEMPO 2915/2918 1SM BR VV003 FM291800 00000KT
                       P6SM FEW010 BKN250 FM291900 23004KT P6SM
                       BKN250 FM300300 00000KT P6SM SCT150 BKN250=
201609291317 KBLI 291317Z 2913/3012 00000KT P6SM VCFG BKN010 BKN250
                      TEMPO 2913/2915 4SM BR BKN004 BKN010 BKN250
                       FM291600 00000KT P6SM FEW010 BKN250 FM291800
                       23004KT P6SM BKN250 FM300300 00000KT P6SM
                       SCT150 BKN250=
201609291121 TAF KBLI 291121Z 2912/3012 00000KT P6SM VCFG SCT010 BKN250
                      TEMPO 2912/2916 4SM BR BKN010 BKN250 FM291800
                       23004KT P6SM BKN250 FM300300 00000KT P6SM
                       SCT150 BKN250=
201609290520 TAF KBLI 290520Z 2906/3006 00000KT P6SM SCT250 FM291300 00000KT
                       P6SM VCFG SCT003 BKN250 FM291800 23004KT
                       P6SM BKN250 FM300300 00000KT P6SM SCT150
                       BKN250=
201609290042 KBLI 290042Z 2901/2924 VRB03KT P6SM FEW250 FM291300 VRB03KT P6SM
                       VCFG SCT003 BKN200 FM291700 19005KT P6SM
                       SCT200=
201609282320 TAF KBLI 282320Z 2900/2924 27006KT P6SM SCT200 FM290400 VRB03KT
                       P6SM SCT200 FM291300 VRB03KT P6SM VCFG SCT003
                       BKN200 FM291700 19005KT P6SM SCT200=
201609281729 TAF KBLI 281729Z 2818/2918 01005KT P6SM SCT006 SCT200 FM281900
                       29007KT P6SM SCT200 FM290400 VRB03KT P6SM
                       BKN200 FM291200 VRB03KT P6SM VCFG SCT005
                       BKN200=
201609281506 KBLI 281506Z 2815/2912 00000KT P6SM BCFG SCT006 BKN200
                      TEMPO 2815/2816 1/2SM FG FEW002 BKN006 BKN200
                       FM281800 33006KT P6SM SCT200 FM290400 VRB03KT
                       P6SM BKN200=
201609281328 KBLI 281328Z 2813/2912 00000KT P6SM BKN200
                      TEMPO 2813/2816 1/2SM FG BKN006 BKN200 FM281800
                       33006KT P6SM SCT200 FM290400 VRB03KT P6SM
                       BKN200=
201609281223 KBLI 281223Z 2812/2912 00000KT P6SM BKN200
                      TEMPO 2812/2815 1SM BR SCT001 BKN200 FM281800
                       33006KT P6SM SCT200 FM290400 VRB03KT P6SM
                       BKN200=
201609281120 TAF KBLI 281120Z 2812/2912 00000KT P6SM BKN200 FM281800 33006KT
                       P6SM SCT200 FM290400 VRB03KT P6SM BKN200=
201609280520 TAF KBLI 280520Z 2806/2906 00000KT P6SM BKN200 FM281100 00000KT
                       P6SM VCFG SKC FM281600 VRB03KT P6SM SKC
                       FM281800 30006KT P6SM SKC=
201609272320 TAF KBLI 272320Z 2800/2824 29006KT P6SM SKC FM280400 VRB03KT P6SM
                       SKC FM281100 00000KT P6SM VCFG SKC FM281600
                       VRB03KT P6SM SKC FM281800 30006KT P6SM SKC=
201609271731 TAF KBLI 271731Z 2718/2818 27006KT P6SM SCT020 FM272000 30008KT
                       P6SM SKC FM280400 VRB03KT P6SM SKC FM281000
                       00000KT P6SM VCFG SKC=
201609271120 TAF KBLI 271120Z 2712/2812 30006KT P6SM BKN050 FM271800 23006KT
                       P6SM SCT050 FM272200 33010KT P6SM SKC=
201609270520 TAF KBLI 270520Z 2706/2806 18006KT P6SM SCT040 OVC080 FM270900
                       20007KT P6SM SCT015 BKN040 OVC080
                      TEMPO 2710/2714 5SM -SHRA BKN015 OVC040 FM271800
                       23006KT P6SM SCT020 BKN040 FM272200 33010KT
                       P6SM SCT040=
201609262320 TAF KBLI 262320Z 2700/2724 27005KT P6SM SCT120 BKN200 FM270300
                       19006KT P6SM BKN040 BKN120 FM270900 18006KT
                       P6SM VCSH BKN020 OVC040 FM271300 18006KT
                       5SM BR VCSH OVC015 FM271400 12005KT 5SM
                       -SHRA BR OVC012
                      TEMPO 2714/2717 2SM -RA BR OVC006 FM271800
                       35005KT P6SM OVC020 FM272100 35005KT P6SM
                       SCT035=
201609261744 TAF KBLI 261744Z 2618/2718 03004KT P6SM BKN250 FM262200 29006KT
                       P6SM SCT120 BKN200 FM270300 20010KT P6SM
                       BKN040 BKN120 FM270900 18008KT P6SM VCSH
                       BKN020 OVC040 FM271300 18006KT 5SM BR VCSH
                       OVC015 FM271400 05005KT 5SM -SHRA BR OVC012=
201609261121 TAF KBLI 261121Z 2612/2712 VRB03KT P6SM BKN250 FM262200 21006KT
                       P6SM SCT120 BKN200 FM270300 21010KT P6SM
                       BKN040 BKN120 FM270800 21006KT P6SM VCSH
                       BKN020 OVC040=
201609260520 TAF KBLI 260520Z 2606/2706 VRB04KT P6SM BKN250 FM270000 21008KT
                       P6SM BKN200 FM270300 21010KT P6SM BKN040
                       BKN120=
201609252324 TAF KBLI 252324Z 2600/2624 VRB03KT P6SM FEW070 BKN250 FM260900
                       00000KT 4SM BCFG BKN250 FM261700 VRB04KT
                       P6SM BKN250=
201609252111 KBLI 252111Z 2521/2618 29005KT P6SM BKN050 BKN200 FM260000 VRB03KT
                       P6SM SCT060 BKN200 FM260300 VRB03KT P6SM
                       SCT200 FM260900 00000KT 4SM BCFG FEW250=
201609251720 TAF KBLI 251720Z 2518/2618 02005KT P6SM OVC040 FM252100 28005KT
                       P6SM BKN040 OVC060 FM260000 VRB03KT P6SM
                       SCT040 BKN060 FM260300 VRB03KT P6SM SCT060
                       FM260900 00000KT 4SM BCFG FEW250=
201609251450 KBLI 251450Z 2515/2612 02003KT P6SM OVC050 FM252000 VRB04KT P6SM
                       SCT060 FM252200 33006KT P6SM SKC=
201609251120 TAF KBLI 251120Z 2512/2612 02003KT P6SM OVC060 FM251800 VRB04KT
                       P6SM SCT060 FM252200 33006KT P6SM SKC=
201609250520 TAF KBLI 250520Z 2506/2606 03005KT P6SM VCSH OVC060 FM251200 00000KT
                       P6SM SCT010 BKN070 FM251800 VRB04KT P6SM
                       SCT070 FM252200 33006KT P6SM SKC=
201609242342 TAF KBLI 242342Z 2500/2524 VRB03KT P6SM VCSH SCT060 BKN110 OVC200
                       FM250300 VRB03KT P6SM VCSH BKN060 OVC110
                       FM252000 23006KT P6SM SCT060 BKN110 BKN200=
201609242115 KBLI 242115Z 2421/2518 19005KT P6SM FEW060 OVC110 FM250000 VRB03KT
                       P6SM VCSH SCT060 OVC110 FM250600 VRB03KT
                       P6SM BKN060 OVC110=
201609241726 TAF KBLI 241726Z 2418/2518 17007KT P6SM SCT005 SCT030 OVC200
                      TEMPO 2418/2420 FEW005 BKN030 OVC200 FM242000
                       19007KT P6SM SCT040 SCT110 OVC200 FM250000
                       VRB03KT P6SM SCT060 OVC110 FM250600 VRB03KT
                       P6SM BKN060 OVC110=
201609241626 KBLI 241626Z 2416/2512 17007KT P6SM VCFG SCT003 BKN035 BKN200
                      TEMPO 2416/2418 BKN003 OVC028 FM241900 17007KT
                       P6SM FEW040 SCT110 BKN200 FM242100 20004KT
                       P6SM BKN110 OVC200=
201609241512 KBLI 241512Z 2415/2512 17007KT P6SM FEW004 BKN035 BKN200
                      TEMPO 2415/2418 FEW004 OVC028 FM241900 17007KT
                       P6SM FEW040 SCT110 BKN200 FM242100 20004KT
                       P6SM BKN110 OVC200=
201609241505 KBLI 241505Z 2415/2512 17007KT P6SM FEW007 BKN035 BKN200 FM241900
                       17007KT P6SM FEW040 SCT110 BKN200 FM242100
                       20004KT P6SM BKN110 OVC200=
201609241120 TAF KBLI 241120Z 2412/2512 00000KT 6SM BR BKN020
                      TEMPO 2412/2414 3SM BR OVC015 FM241400 VRB03KT
                       P6SM SCT005 OVC015 FM241900 VRB03KT P6SM
                       BKN022 BKN200 FM242100 VRB03KT P6SM BKN150=
201609241012 KBLI 241012Z 2410/2506 00000KT 3SM BR SCT002 BKN018
                      TEMPO 2410/2414 1/2SM FG BKN002 OVC015 FM241400
                       VRB03KT P6SM SCT005 OVC015 FM241900 VRB03KT
                       P6SM BKN022 BKN200 FM242100 VRB03KT P6SM
                       BKN150=
201609240605 KBLI 240605Z 2406/2506 18006KT 6SM -DZ BR SCT005 OVC015 FM241200
                       VRB03KT P6SM SCT005 OVC015 FM241900 17009KT
                       P6SM BKN022 BKN200 FM242100 20005KT P6SM
                       FEW030 SCT110 BKN200=
201609240520 TAF KBLI 240520Z 2406/2506 18006KT P6SM OVC020 FM241200 VRB03KT
                       P6SM FEW007 OVC015 FM241900 17009KT P6SM
                       BKN022 BKN200 FM242100 20005KT P6SM FEW030
                       SCT110 BKN200=
201609232345 TAF KBLI 232345Z 2400/2424 17013KT P6SM FEW028 OVC050 FM240600
                       17007KT P6SM BKN035 FM240900 VRB03KT P6SM
                       OVC022 FM241200 VRB03KT P6SM FEW007 OVC015
                       FM241900 17009KT P6SM BKN022 BKN200 FM242100
                       20005KT P6SM FEW030 SCT110 BKN200=
201609232239 KBLI 232239Z 2323/2418 16013G22KT P6SM SCT028 BKN050
                      TEMPO 2323/2401 BKN028 OVC050 FM240200 15007KT
                       P6SM OVC025 FM241200 VRB03KT P6SM OVC015=
201609231940 KBLI 231940Z 2320/2418 15010KT P6SM -RA SCT018 OVC030
                      TEMPO 2320/2324 15015G25KT 3SM -RA BR FM240200
                       15007KT P6SM OVC025 FM241200 VRB03KT P6SM
                       OVC015=
201609231742 TAF KBLI 231742Z 2318/2418 13010KT P6SM FEW035 OVC050
                      TEMPO 2318/2320 -RA FM232000 15015G20KT P6SM
                       SCT018 OVC035
                      TEMPO 2320/2324 -RA FM240200 15007KT P6SM
                       OVC025 FM241200 VRB03KT P6SM OVC015=
201609231430 KBLI 231430Z 2315/2412 15009KT P6SM -RA OVC070 FM231600 15009KT
                       P6SM -RA SCT030 OVC050 FM231800 11008G14KT
                       P6SM -RA BKN030 OVC070 FM232200 15008G15KT
                       P6SM -RA OVC035 FM240000 16010KT P6SM VCSH
                       BKN030 OVC040 FM240600 18003KT P6SM BKN035
                       OVC050=
201609231144 TAF KBLI 231144Z 2312/2412 18005KT P6SM SKC FM231400 16007G15KT
                       P6SM OVC030 FM231800 11008G14KT P6SM -RA
                       BKN030 OVC070 FM232200 15008G15KT P6SM -RA
                       OVC035 FM240000 16010KT P6SM VCSH BKN030
                       OVC040 FM240600 18003KT P6SM BKN035 OVC050=
201609230538 TAF KBLI 230538Z 2306/2406 17009KT P6SM SKC FM231200 16007G15KT
                       P6SM OVC030 FM231600 11008G14KT P6SM VCSH
                       BKN030 OVC070 FM232200 15008G15KT P6SM VCSH
                       OVC035=
201609222320 TAF KBLI 222320Z 2300/2324 16007KT P6SM SKC FM231200 16007G15KT
                       P6SM OVC030 FM231600 11008G14KT P6SM VCSH
                       BKN030 OVC070 FM232200 15008G15KT P6SM VCSH
                       OVC035=
201609221720 TAF KBLI 221720Z 2218/2318 16006KT P6SM SKC FM222000 19006KT P6SM
                       SCT050 FM231200 15008G15KT P6SM VCSH OVC035=
201609221145 TAF KBLI 221145Z 2212/2312 00000KT P6SM SKC
                      TEMPO 2212/2215 1 1/2SM BR SCT001 FM221800
                       19004KT P6SM SKC FM230600 17008KT P6SM SKC=
201609220539 TAF KBLI 220539Z 2206/2306 18003KT P6SM SKC FM221200 VRB03KT P6SM
                       SCT025 FM221800 19004KT P6SM SKC=
201609212320 TAF KBLI 212320Z 2200/2224 28011KT P6SM SKC FM220200 00000KT P6SM
                       SCT040 FM221200 VRB03KT P6SM SCT025 FM221800
                       21004KT P6SM SKC=
201609211727 TAF KBLI 211727Z 2118/2218 00000KT P6SM SKC FM212100 30004KT P6SM
                       SKC FM220600 00000KT P6SM SCT040 FM221200
                       00000KT P6SM SCT025=
201609211120 TAF KBLI 211120Z 2112/2212 00000KT P6SM SKC
                      TEMPO 2112/2115 3/4SM BR VV003 FM211500 35005KT
                       P6SM SKC FM212000 31008KT P6SM SKC FM220600
                       VRB03KT P6SM SKC=
201609210913 KBLI 210913Z 2109/2206 00000KT 1SM BR SKC
                      TEMPO 2109/2112 1/2SM FG VV003 FM211200 36003KT
                       P6SM SKC FM212000 31007KT P6SM SKC FM220300
                       34004KT P6SM SKC=
201609210542 TAF KBLI 210542Z 2106/2206 00000KT P6SM SKC FM211200 36003KT P6SM
                       SKC FM212000 31007KT P6SM SKC FM220300 34004KT
                       P6SM SKC=
201609202320 TAF KBLI 202320Z 2100/2124 31011KT P6SM SKC FM210400 VRB03KT P6SM
                       FEW040=
201609201720 TAF KBLI 201720Z 2018/2118 35007KT P6SM SCT070 FM202000 31004KT
                       P6SM SCT060 FM210600 00000KT P6SM FEW040=
201609201127 TAF KBLI 201127Z 2012/2112 VRB04KT P6SM OVC035 FM201400 36002KT
                       5SM BR BKN060 BKN080 FM201800 36005KT P6SM
                       BKN060 BKN080 FM202100 30005KT P6SM SCT050
                       FM210600 00000KT P6SM FEW030 SCT070=
201609200549 TAF KBLI 200549Z 2006/2106 16005KT P6SM VCSH SCT040 OVC060 FM200800
                       VRB03KT P6SM BKN060 BKN080 FM201400 36002KT
                       5SM BR BKN060 BKN080 FM201700 36005KT P6SM
                       BKN060 BKN080 FM202100 30005KT P6SM SCT050=
201609192320 TAF KBLI 192320Z 2000/2024 16005KT P6SM SCT070 OVC090 FM200700
                       VRB03KT P6SM BKN060 BKN080=
201609191721 TAF KBLI 191721Z 1918/2018 16006KT P6SM VCSH FEW007 BKN020 BKN045
                       FM192000 17008G14KT 5SM -SHRA BKN019 FM192300
                       16007KT P6SM SCT025 BKN035 BKN060 FM200000
                       17004KT P6SM SCT040 BKN080 FM200700 00000KT
                       P6SM OVC060 FM201400 00000KT 5SM BR OVC019=
201609191128 TAF KBLI 191128Z 1912/2012 17010KT P6SM SCT025 BKN035 BKN060
                      TEMPO 1912/1916 -SHRA BKN025 OVC035 FM191600
                       17010KT P6SM -SHRA SCT025 BKN035 BKN060
                       TEMPO 1916/1920 5SM -SHRA BKN025 OVC035
                       FM200300 17008KT P6SM SCT040 BKN080 FM200800
                       17008KT P6SM SCT080 BKN200=
201609190538 TAF KBLI 190538Z 1906/2006 VRB03KT P6SM BKN040 BKN080 FM191200
                       16008KT P6SM OVC030
                      TEMPO 1912/1916 5SM -RA BR OVC025 FM191600
                       16012KT 5SM -RA BR OVC020 FM192200 16010KT
                       P6SM -SHRA BKN040 OVC060 FM200400 18008KT
                       P6SM SCT040 BKN060=
201609182320 TAF KBLI 182320Z 1900/1924 17007KT P6SM OVC100 FM191200 16008KT
                       P6SM OVC030
                      TEMPO 1912/1916 5SM -RA BR OVC025 FM191600
                       16012KT 5SM -RA BR OVC020 FM192200 16010KT
                       P6SM -RA BKN040 OVC050=
201609181725 TAF KBLI 181725Z 1818/1918 17008KT P6SM SCT023 FM182000 17008KT
                       P6SM SCT030 BKN060 FM191200 15007KT 6SM
                       -RA OVC030=
201609181500 KBLI 181500Z 1815/1912 17007KT P6SM SCT018 FM181700 17008KT P6SM
                       SCT030 BKN060=
201609181134 TAF KBLI 181134Z 1812/1912 17008KT P6SM SCT030 SCT060 FM181700
                       17008KT P6SM SCT030 BKN060=
201609180540 TAF KBLI 180540Z 1806/1906 18008KT P6SM SCT020 SCT060 FM181000
                       17005KT P6SM OVC008 FM181600 17005KT P6SM
                       SCT008 BKN015 FM181900 17009KT P6SM SCT025
                       BKN050=
201609172330 TAF KBLI 172330Z 1800/1824 17010G18KT P6SM -SHRA BKN021 BKN060
                       OVC070 FM180600 18008KT P6SM SCT015 BKN025
                       BKN040 FM180900 17005KT P6SM OVC015 FM182000
                       17009KT P6SM VCSH SCT025 BKN050=
201609171730 TAF KBLI 171730Z 1718/1818 17005KT 5SM -RA BR BKN021 OVC027
                      TEMPO 1718/1721 2SM RA BR OVC015 FM172100
                       18014KT P6SM -SHRA BKN025 BKN045 FM180600
                       18008KT P6SM SCT015 BKN025 BKN040 FM180900
                       17005KT P6SM OVC015=
201609171204 KBLI 171204Z 1712/1812 VRB03KT 5SM -RA BR SCT006 OVC015
                      TEMPO 1712/1716 3SM -RA BKN006 OVC015 FM171600
                       17005KT 3SM RA BR OVC006 FM172100 18014KT
                       P6SM -SHRA BKN025 BKN045 FM180600 18008KT
                       P6SM SCT015 BKN025 BKN040=
201609171141 TAF KBLI 171141Z 1712/1812 VRB03KT 4SM -RA BR SCT006 OVC015
                      TEMPO 1717/1720 2SM -RA BKN006 OVC015 FM172100
                       18014KT P6SM -SHRA BKN025 BKN045 FM180600
                       18008KT P6SM SCT015 BKN025 BKN040=
201609170539 TAF KBLI 170539Z 1706/1806 17008KT P6SM -RA OVC060 FM171000 17010KT
                       P6SM -RA OVC035 FM171400 16006KT 5SM -RA
                       BR OVC015 FM172100 18014G20KT P6SM -SHRA
                       BKN025 BKN045 FM180100 18010KT P6SM -SHRA
                       BKN025 BKN040=
201609162335 TAF KBLI 162335Z 1700/1724 17010KT P6SM BKN120 OVC220 FM170700
                       17010KT P6SM -RA OVC035 FM171200 16006KT
                       5SM -RA BR OVC015 FM172100 17013G20KT P6SM
                       -SHRA BKN025 BKN045=
201609161725 TAF KBLI 161725Z 1618/1718 17005KT P6SM BKN150 OVC250 FM170000
                       17006KT P6SM SCT070 BKN120 OVC250 FM170400
                       17010KT P6SM -RA OVC035 FM170900 17010KT
                       P6SM -RA OVC022 FM171500 16006KT 5SM -RA
                       BR OVC015=
201609161136 TAF KBLI 161136Z 1612/1712 00000KT P6SM BKN250 FM161600 17006KT
                       P6SM SCT120 BKN250 FM170000 17006KT P6SM
                       SCT070 BKN120 OVC250 FM170400 17010KT P6SM
                       -RA OVC035 FM170900 17010KT P6SM -RA OVC022=
201609160909 TAF AMD KBLI 160909Z 1609/1706 00000KT P6SM SCT250 FM161100 00000KT
                       P6SM VCFG SCT001 SCT250
                      TEMPO 1611/1614 2SM BR SCT001 SCT250 FM161600
                       17006KT P6SM SCT120 BKN250 FM170000 17006KT
                       P6SM SCT070 BKN120 OVC250 FM170400 17010KT
                       P6SM -RA OVC035=
201609160524 TAF KBLI 160524Z 1606/1706 00000KT P6SM SCT250 FM161100 00000KT
                       P6SM VCFG SCT001 SCT250
                      TEMPO 1611/1614 2SM BR SCT001 SCT250 FM161600
                       17006KT P6SM SCT120 BKN250 FM170000 17006KT
                       P6SM SCT070 BKN120 OVC250 FM170400 17010KT
                       P6SM -RA OVC035=
201609152340 TAF KBLI 152340Z 1600/1624 17004KT P6SM SCT250 FM161200 17004KT
                       P6SM VCFG SCT007 SCT250
                      TEMPO 1613/1617 5SM BR BKN007 BKN250 FM161800
                       17008KT P6SM SCT120 BKN250=
201609151739 TAF KBLI 151739Z 1518/1618 17007KT P6SM SKC FM152100 20005KT P6SM
                       SCT250 FM160100 VRB03KT P6SM SCT250=
201609151410 TAF AMD KBLI 151410Z 1514/1612 17008KT P6SM VCFG SCT007 SCT250
                       FM151800 19008KT P6SM SCT250=
201609151136 TAF KBLI 151136Z 1512/1612 17004KT P6SM SCT250 FM151400 17008KT
                       P6SM SCT007 SCT250 FM151700 19008KT P6SM
                       SCT250=
201609150536 TAF KBLI 150536Z 1506/1606 17004KT P6SM SCT250 FM151400 17008KT
                       P6SM SCT007 SCT250 FM151800 19008KT P6SM
                       SCT250=
201609142336 TAF KBLI 142336Z 1500/1524 19004KT P6SM SCT250 FM150200 17004KT
                       P6SM SCT250 FM151400 17008KT P6SM VCFG SCT007
                       SCT250 FM151800 19008KT P6SM SCT250=
201609141736 TAF KBLI 141736Z 1418/1518 20006KT P6SM SCT250 FM150200 17004KT
                       P6SM SCT250 FM151500 17008KT P6SM VCFG SCT007
                       SCT250=
201609141120 TAF KBLI 141120Z 1412/1512 VRB03KT P6SM SKC FM141500 18005KT P6SM
                       SKC FM141800 19006KT P6SM SKC FM150400 17005KT
                       P6SM SKC=
201609140520 TAF KBLI 140520Z 1406/1506 VRB03KT P6SM SKC FM141500 18005KT P6SM
                       SKC FM141800 19006KT P6SM SKC FM150400 15005KT
                       P6SM SKC=
201609132338 TAF KBLI 132338Z 1400/1424 27006KT P6SM SKC FM140300 VRB03KT P6SM
                       SKC FM141500 18006KT P6SM SKC=
201609131745 TAF KBLI 131745Z 1318/1418 32004KT P6SM SKC FM132100 27006KT P6SM
                       SKC FM140300 VRB03KT P6SM SKC=
201609131120 TAF KBLI 131120Z 1312/1412 00000KT P6SM SKC FM131900 34005KT P6SM
                       SKC FM132100 27006KT P6SM SKC FM140300 VRB03KT
                       P6SM SKC=
201609130520 TAF KBLI 130520Z 1306/1406 VRB04KT P6SM SKC FM131900 34005KT P6SM
                       SKC FM140300 VRB03KT P6SM SKC=
201609122320 TAF KBLI 122320Z 1300/1324 27010KT P6SM SKC FM130300 VRB04KT P6SM
                       SKC FM131800 36005KT P6SM SKC=
201609122129 TAF AMD KBLI 122129Z 1221/1318 34006KT P6SM SKC FM130300 VRB04KT
                       P6SM SKC=
201609121733 TAF KBLI 121733Z 1218/1318 02012KT P6SM SKC FM130300 VRB04KT P6SM
                       SKC=
201609121120 TAF KBLI 121120Z 1212/1312 33007KT P6SM SKC FM130300 VRB04KT P6SM
                       SKC=
201609120520 TAF KBLI 120520Z 1206/1306 VRB04KT P6SM SKC FM121800 33006KT P6SM
                       SKC FM130300 VRB04KT P6SM SKC=
201609112320 TAF KBLI 112320Z 1200/1224 28008KT P6SM SKC FM120600 05006KT P6SM
                       SKC FM121700 33006KT P6SM SKC=
201609111720 TAF KBLI 111720Z 1118/1218 VRB04KT P6SM FEW030 FM112100 33006KT
                       P6SM SCT040 FM120600 05006KT P6SM SKC FM121700
                       33006KT P6SM SKC=
201609111209 TAF AMD KBLI 111209Z 1112/1212 VRB03KT P6SM SCT050 BKN080
                      TEMPO 1112/1116 BKN050 FM111600 35007KT P6SM
                       SCT050 FM120000 VRB03KT P6SM FEW045=
201609111124 TAF KBLI 111124Z 1112/1212 VRB03KT P6SM SCT030 OVC060
                      TEMPO 1112/1116 BKN030 FM111700 35007KT P6SM
                       SCT050 FM120000 VRB03KT P6SM FEW045=
201609110536 TAF KBLI 110536Z 1106/1206 17004KT P6SM FEW020 OVC035 FM111000
                       VRB03KT P6SM BKN020 OVC035 FM111700 34006KT
                       P6SM SCT025 BKN040 FM111800 35007KT P6SM
                       SCT045 FM120000 VRB03KT P6SM FEW045=
201609102320 TAF KBLI 102320Z 1100/1124 18008KT P6SM SCT040 FM110400 21012KT
                       P6SM BKN040 FM110800 33012KT P6SM BKN025
                       FM111700 33008KT P6SM SCT030=
201609101720 TAF KBLI 101720Z 1018/1118 18008KT P6SM BKN050 FM110000 21008KT
                       P6SM BKN040 FM110600 33012KT P6SM BKN020
                       FM111700 33008KT P6SM SCT030=
201609101127 TAF KBLI 101127Z 1011/1112 17005KT P6SM FEW040 BKN100 OVC200 FM101300
                       16005KT P6SM SCT050 BKN080 OVC200 FM101500
                       17006KT P6SM BKN040 OVC060 FM102000 18006KT
                       P6SM OVC035 FM110400 18004KT P6SM SCT020
                       BKN040=
201609101120 TAF KBLI 101120Z 1012/1112 17005KT P6SM BKN100 BKN200 FM101800
                       17006KT P6SM SCT040 BKN100 FM102100 18006KT
                       P6SM BKN040 FM110400 18004KT P6SM SCT020
                       BKN040=
201609100534 TAF KBLI 100534Z 1006/1106 19004KT P6SM BKN200 FM100800 VRB04KT
                       P6SM SCT120 BKN200 FM101800 VRB04KT P6SM
                       SCT040 BKN120 FM102200 19006KT P6SM BKN040
                       FM110400 17004KT P6SM SCT020 BKN040=
201609092320 TAF KBLI 092320Z 1000/1024 26006KT P6SM SCT200 FM100800 VRB04KT
                       P6SM SCT120 BKN200 FM101800 VRB04KT P6SM
                       SCT040 BKN120 FM102200 22008KT P6SM BKN040=
201609091720 TAF KBLI 091720Z 0918/1018 VRB04KT P6SM SCT250 FM100800 18005KT
                       P6SM SCT100 BKN250=
201609091511 TAF AMD KBLI 091511Z 0915/1012 VRB04KT P6SM SCT250 FM100800 18005KT
                       P6SM SCT100 BKN250=
201609091120 TAF KBLI 091120Z 0912/1012 00000KT P6SM VCFG SCT002 SCT010
                      TEMPO 0912/0916 1SM BR BKN002 FM091700 23006KT
                       P6SM SKC FM100200 17004KT P6SM SCT250 FM100800
                       18005KT P6SM SCT100 BKN250=
201609090520 TAF KBLI 090520Z 0906/1006 VRB04KT P6SM SCT250 FM091200 00000KT
                       P6SM VCFG SCT002
                      TEMPO 0912/0916 1SM BR BKN002 FM091700 23006KT
                       P6SM SKC FM100200 17004KT P6SM SCT250=
201609082320 TAF KBLI 082320Z 0900/0924 VRB04KT P6SM SCT030 SCT250 FM091200
                       00000KT P6SM VCFG SCT002
                      TEMPO 0912/0916 1SM BR BKN002 FM091700 23006KT
                       P6SM SKC=
201609081756 TAF KBLI 081756Z 0818/0918 VRB05KT P6SM BKN018 FM082000 19008KT
                       P6SM SCT035 BKN200 FM090000 20005KT P6SM
                       SCT200 FM090500 16003KT P6SM SCT250=
201609081121 TAF KBLI 081121Z 0812/0912 17008KT P6SM BKN010 OVC040 FM081800
                       17010KT P6SM BKN025 BKN200 FM082000 19008KT
                       P6SM SCT035 BKN200 FM090000 20005KT P6SM
                       SCT200 FM090500 16003KT P6SM SCT250=
201609080524 TAF KBLI 080524Z 0806/0906 17008KT P6SM BKN025 OVC040
                      TEMPO 0806/0810 4SM RA BR OVC025 FM081200
                       17008KT P6SM OVC020 FM081800 17010KT P6SM
                       BKN025 BKN200 FM082000 19008KT P6SM SCT035
                       BKN200 FM090000 20003KT P6SM SCT200=
201609080004 TAF AMD KBLI 080004Z 0800/0824 17007KT P6SM SCT035 OVC070
                      TEMPO 0800/0803 -RA FM080600 17008KT P6SM
                       BKN025 OVC040 FM081200 17008KT P6SM OVC020
                       FM081800 17010KT P6SM BKN025 BKN200 FM082000
                       19008KT P6SM SCT035 BKN200=
201609072341 TAF KBLI 072341Z 0800/0824 17009KT P6SM -RA SCT035 OVC070 FM080600
                       17008KT P6SM BKN025 OVC040 FM081200 17008KT
                       P6SM OVC020=
201609072218 TAF AMD KBLI 072218Z 0722/0818 17013KT P6SM -RA SCT035 OVC050 FM080000
                       17009KT P6SM -RA SCT020 OVC035 FM080600
                       17008KT P6SM BKN025 OVC040 FM081200 17008KT
                       P6SM OVC020=
201609071838 TAF AMD KBLI 071838Z 0719/0818 17009KT P6SM BKN050 OVC200 FM072100
                       17009KT P6SM SCT035 OVC050
                      TEMPO 0721/0723 -RA FM072300 17006KT P6SM
                       -RA SCT020 OVC035 FM080600 17008KT P6SM
                       BKN025 OVC040 FM081200 17008KT P6SM OVC020=
201609071746 TAF KBLI 071746Z 0718/0818 17009KT P6SM BKN035 BKN050 OVC200 FM072000
                       17009KT P6SM SCT035 BKN050 BKN200 FM080300
                       17005KT P6SM SCT030 OVC060 FM081000 17005KT
                       P6SM OVC025=
201609071120 TAF KBLI 071120Z 0712/0812 VRB03KT P6SM OVC040 FM071900 17008KT
                       P6SM SCT015 BKN040 FM072200 17006KT P6SM
                       -RA SCT020 BKN035 OVC060 FM080300 17005KT
                       P6SM SCT030 OVC060 FM081000 17005KT P6SM
                       OVC025=
201609070524 TAF KBLI 070524Z 0706/0806 VRB03KT P6SM SCT030 OVC100 FM070800
                       17006KT P6SM SCT020 OVC030 FM071900 17008KT
                       P6SM SCT015 BKN030 FM072200 17006KT P6SM
                       -RA SCT020 BKN035 OVC060 FM080300 17005KT
                       P6SM SCT030 OVC060=
201609062338 TAF KBLI 062338Z 0700/0724 22005KT P6SM SCT030 FM070400 18006KT
                       P6SM SCT020 BKN030 OVC050 FM070800 17006KT
                       P6SM VCSH SCT012 OVC018 FM071900 17010KT
                       P6SM SCT018 BKN030 FM072200 17009KT P6SM
                       -RA SCT020 BKN035 OVC060=
201609062104 TAF AMD KBLI 062104Z 0621/0718 VRB04KT P6SM BKN025 OVC035 FM062300
                       19005KT P6SM SCT030 BKN040
                      TEMPO 0623/0703 SCT040 FM070900 17005KT P6SM
                       VCSH SCT012 OVC018=
201609061736 TAF KBLI 061736Z 0618/0718 24004KT P6SM SCT030 BKN040 FM062100
                       23006KT P6SM SCT040 FM070300 18006KT P6SM
                       SCT030 OVC040 FM070900 17005KT P6SM VCSH
                       SCT012 OVC018=
201609061120 TAF KBLI 061120Z 0612/0712 16003KT P6SM VCSH SCT010 OVC025
                      TEMPO 0612/0614 5SM -RA BR SCT006 OVC015
                       FM061400 17004KT P6SM VCSH SCT007 OVC015
                       FM061800 19007KT P6SM SCT020 BKN040 FM070000
                       18005KT P6SM SCT035 BKN070=
201609060526 TAF KBLI 060526Z 0606/0706 15005KT P6SM -RA SCT025 SCT040 OVC060
                       FM061000 16003KT P6SM VCSH SCT010 OVC020
                       TEMPO 0610/0614 5SM BR SCT006 OVC015 FM061400
                       17004KT P6SM VCSH SCT007 OVC015 FM061800
                       19007KT P6SM SCT020 BKN040 FM070000 18005KT
                       P6SM SCT035 BKN070=
201609052338 TAF KBLI 052338Z 0600/0624 17007KT P6SM VCSH OVC080 FM060400 15005KT
                       P6SM -RA SCT025 BKN040 OVC060 FM061000 13003KT
                       5SM BR VCSH SCT006 OVC015 FM061400 VRB03KT
                       4SM BR VCSH SCT006 OVC010 FM061800 VRB03KT
                       P6SM SCT015 BKN030 FM062100 21005KT P6SM
                       SCT035 BKN070=
201609051737 TAF KBLI 051737Z 0518/0618 17009KT P6SM SCT008 OVC012 FM052000
                       17011KT P6SM VCSH SCT015 OVC080 FM060100
                       15005KT P6SM -RA SCT020 BKN040 OVC060 FM061100
                       17003KT 5SM -RA BR SCT006 OVC015 FM061400
                       16004KT P6SM VCSH SCT005 OVC012=
201609051615 TAF AMD KBLI 051615Z 0516/0612 16009KT P6SM SCT008 OVC015 FM051900
                       16013KT P6SM SCT018 BKN025 FM052100 17011KT
                       P6SM SCT100 BKN250 FM060600 16005KT P6SM
                       VCSH BKN035 OVC100 FM061100 17003KT 5SM
                       -RA SCT015 BKN025=
201609051138 TAF KBLI 051138Z 0512/0612 16009KT P6SM FEW015 SCT080 SCT100 FM051800
                       16013KT P6SM SCT018 BKN025 FM052100 17011KT
                       P6SM SCT100 BKN250 FM060600 16005KT P6SM
                       VCSH BKN035 OVC100 FM061100 17003KT 5SM
                       -RA SCT015 BKN025=
201609050536 TAF KBLI 050536Z 0506/0606 17009KT P6SM SKC FM051200 17010KT P6SM
                       SCT012 BKN018 FM051800 16011KT P6SM SCT018
                       BKN025 FM052100 17011KT P6SM FEW120 BKN250
                       FM060500 14002KT P6SM -SHRA SCT035 BKN050=
201609042335 TAF KBLI 042335Z 0500/0524 21007KT P6SM SKC FM050400 17006KT P6SM
                       SCT045 FM051300 17010KT P6SM SCT012 BKN018
                       FM051800 16011KT P6SM SCT018 SCT030 FM052100
                       17011KT P6SM OVC120=
201609041739 TAF KBLI 041739Z 0418/0518 23005KT P6SM SCT025 SCT035 FM042000
                       21007KT P6SM SKC FM050400 17006KT P6SM SCT050
                       FM051400 17010KT P6SM BKN020=
201609041438 TAF AMD KBLI 041438Z 0415/0512 00000KT P6SM VCFG FEW008 FM041700
                       18005KT P6SM SCT015 FM041900 21007KT P6SM
                       SKC FM050200 19003KT P6SM BKN150=
201609041126 TAF KBLI 041126Z 0412/0512 00000KT 4SM BR BKN200
                      TEMPO 0412/0416 1SM BR SCT002 FM041600 18005KT
                       P6SM BKN150 FM041900 21007KT P6SM SCT150
                       FM050200 19003KT P6SM BKN150=
201609040544 TAF KBLI 040544Z 0406/0506 00000KT P6SM SKC FM041200 VRB03KT 5SM
                       BR SKC FM041600 VRB03KT P6SM SCT100 FM041900
                       20006KT P6SM SCT050 BKN100=
201609032322 TAF KBLI 032322Z 0400/0424 19004KT P6SM SCT020 SCT080 FM040200
                       VRB03KT P6SM BKN080 FM041200 VRB03KT P6SM
                       BKN050 FM041900 20006KT P6SM SCT050 BKN100=
201609031720 TAF KBLI 031720Z 0318/0418 17006KT P6SM BKN060 FM031900 19006KT
                       P6SM SCT020 BKN080 FM040200 VRB03KT P6SM
                       BKN100 FM041200 VRB03KT P6SM BKN050=
201609031130 TAF KBLI 031130Z 0312/0412 18008G16KT P6SM FEW020 OVC090 FM031500
                       17006KT P6SM BKN020 FM031900 19006KT P6SM
                       SCT020 BKN080 FM040200 00000KT P6SM BKN100=
201609030541 TAF KBLI 030541Z 0306/0406 17011KT P6SM -RA SCT045 OVC060 FM031200
                       18006KT P6SM BKN020 FM031900 17004KT P6SM
                       SCT040 FM040200 21003KT P6SM SCT100=
201609022320 TAF KBLI 022320Z 0300/0324 20008KT P6SM SCT040 FM031200 18006KT
                       P6SM BKN020 FM031800 VRB04KT P6SM SCT040=
201609021720 TAF KBLI 021720Z 0218/0318 17007KT P6SM SCT025 BKN050
                      TEMPO 0218/0221 -SHRA BKN025 OVC050 FM030000
                       22008KT P6SM VCSH SCT025 BKN050 FM031200
                       18005KT P6SM BKN020 FM031700 23006KT P6SM
                       SCT030=
201609021120 TAF KBLI 021120Z 0212/0312 15004KT P6SM BKN035 OVC045 FM021500
                       16005KT P6SM VCSH OVC015 FM022200 17007KT
                       P6SM SCT015 OVC050=
201609020538 TAF KBLI 020538Z 0206/0306 11003KT P6SM VCSH SCT015 OVC080 FM021000
                       16007KT P6SM OVC015 FM021500 16005KT P6SM
                       VCSH OVC015 FM022200 17007KT P6SM SCT015
                       OVC050=
201609012320 TAF KBLI 012320Z 0200/0224 15012KT P6SM BKN035 OVC060 FM020400
                       18010KT P6SM -RA BKN025 OVC040 FM021000
                       21007KT P6SM VCSH BKN020 BKN050 FM022000
                       21007KT P6SM SCT025 BKN050=
201609012105 TAF AMD KBLI 012105Z 0121/0218 16010KT P6SM SCT030 OVC060 FM020000
                       18012KT P6SM -RA SCT020 OVC040
                      TEMPO 0204/0208 5SM -RA BR OVC020 FM020800
                       21008KT P6SM VCSH BKN020 BKN050=
201609011720 TAF KBLI 011720Z 0118/0218 18012KT P6SM SCT025 BKN060 OVC120
                      TEMPO 0118/0122 BKN025 OVC060 FM012200 18012KT
                       P6SM -RA BKN025 OVC050 FM020800 21008KT
                       P6SM VCSH BKN020 BKN040=
201609011123 TAF KBLI 011123Z 0112/0212 16006KT P6SM VCSH SCT010 BKN035 BKN060
                       FM011800 16010KT P6SM -RA BKN025 OVC050
                       FM020400 15005KT P6SM -SHRA BKN022 BKN040=
201609010521 TAF KBLI 010521Z 0106/0206 18008KT P6SM VCSH SCT025 BKN050 BKN120
                       FM010800 18006KT P6SM VCSH BKN035 BKN060
                       FM012100 18010KT P6SM -RA BKN025 OVC050=