##########################################################
# Query made at 02/16/2025 21:18:43 UTC
# Time interval: from 05/01/2016 00:00  to 05/31/2016 23:59  UTC
##########################################################

##########################################################
# KBLI, Bellingham, Bellingham International Airport (United States)
# WMO index: -----. WIGOS ID: Unknown
# Latitude 48-47-58N. Longitude 122-32-21W. Altitude 48 m.
##########################################################

###################################
#  METAR/SPECI from KBLI
###################################
201605312353 METAR KBLI 312353Z 00000KT 10SM CLR 24/10 A2999 RMK AO2 SLP162 T02390100 10239 20194 58019=
201605312253 METAR KBLI 312253Z 27008KT 10SM CLR 23/11 A3002 RMK AO2 SLP170 T02330106=
201605312153 METAR KBLI 312153Z 27008KT 10SM CLR 22/11 A3003 RMK AO2 SLP174 T02220111=
201605312053 METAR KBLI 312053Z 31005KT 10SM CLR 23/12 A3005 RMK AO2 SLP181 T02280122 58015=
201605311953 METAR KBLI 311953Z 31007KT 10SM CLR 22/12 A3007 RMK AO2 SLP190 T02170122=
201605311853 METAR KBLI 311853Z 19006KT 10SM CLR 21/12 A3009 RMK AO2 SLP195 T02110122=
201605311753 METAR KBLI 311753Z 06003KT 10SM CLR 20/11 A3009 RMK AO2 RAB23E32 SLP196 P0000 60000 T02000106 10200 20078 58012=
201605311653 METAR KBLI 311653Z 00000KT 10SM CLR 18/11 A3011 RMK AO2 SLP203 T01830106=
201605311553 METAR KBLI 311553Z 00000KT 10SM CLR 17/10 A3013 RMK AO2 SLP209 T01670100=
201605311453 METAR KBLI 311453Z 00000KT 10SM CLR 14/11 A3013 RMK AO2 SLP208 T01440106 58006=
201605311353 METAR KBLI 311353Z 00000KT 10SM CLR 10/09 A3014 RMK AO2 SLP211 T01000089=
201605311253 METAR KBLI 311253Z AUTO 00000KT 10SM CLR 08/07 A3014 RMK AO2 SLP214 T00830072=
201605311153 METAR KBLI 311153Z AUTO 30003KT 10SM CLR 09/08 A3015 RMK AO2 SLP214 T00940083 10117 20083 56009=
201605311053 METAR KBLI 311053Z AUTO 00000KT 10SM CLR 09/08 A3015 RMK AO2 SLP215 T00890078=
201605310953 METAR KBLI 310953Z AUTO 00000KT 10SM CLR 10/08 A3017 RMK AO2 SLP221 T01000083=
201605310853 METAR KBLI 310853Z AUTO 00000KT 10SM CLR 09/08 A3017 RMK AO2 SLP224 T00890078 56006=
201605310753 METAR KBLI 310753Z AUTO 00000KT 10SM CLR 11/08 A3018 RMK AO2 SLP224 T01060083 402110061=
201605310653 METAR KBLI 310653Z AUTO 00000KT 10SM CLR 11/08 A3018 RMK AO2 SLP226 T01060078=
201605310553 METAR KBLI 310553Z AUTO 00000KT 10SM CLR 11/08 A3019 RMK AO2 SLP231 T01110078 10211 20106 57005=
201605310453 METAR KBLI 310453Z 00000KT 10SM CLR 11/08 A3020 RMK AO2 SLP234 T01110083=
201605310400 METAR KBLI NIL=
201605310353 METAR KBLI 310353Z 00000KT 10SM CLR 14/09 A3020 RMK AO2 SLP232 T01440089=
201605310253 METAR KBLI 310253Z 27004KT 10SM CLR 18/09 A3021 RMK AO2 SLP235 T01830089 56010=
201605310153 METAR KBLI 310153Z 28004KT 10SM CLR 20/08 A3022 RMK AO2 SLP238 T02000078=
201605310053 METAR KBLI 310053Z 27005KT 10SM CLR 20/09 A3023 RMK AO2 SLP243 T02000089=
201605302353 METAR KBLI 302353Z 25005KT 10SM CLR 20/07 A3024 RMK AO2 SLP246 T02000072 10206 20167 58011=
201605302253 METAR KBLI 302253Z 31006KT 10SM CLR 21/08 A3025 RMK AO2 SLP251 T02060083=
201605302153 METAR KBLI 302153Z VRB05KT 10SM CLR 20/08 A3026 RMK AO2 SLP255 T02000083=
201605302053 METAR KBLI 302053Z 31005KT 10SM FEW040 19/09 A3027 RMK AO2 SLP257 T01890094 56009=
201605301954 SPECI KBLI 301954Z VRB04KT 10SM FEW040 19/09 A3028 RMK AO2 T01890094=
201605301953 METAR KBLI 301953Z VRB05KT 10SM CLR 19/09 A3028 RMK AO2 SLP258 T01890094=
201605301853 METAR KBLI 301853Z 31004KT 10SM FEW040 18/09 A3029 RMK AO2 SLP261 T01830089=
201605301753 METAR KBLI 301753Z 10SM CLR 17/08 A3030 RMK AO2 SLP265 T01670083 10172 20061 58005=
201605301653 METAR KBLI 301653Z 28003KT 10SM CLR 16/09 A3031 RMK AO2 SLP270 T01560089=
201605301553 METAR KBLI 301553Z 03004KT 10SM CLR 14/08 A3031 RMK AO2 SLP272 T01390083=
201605301453 METAR KBLI 301453Z 36003KT 10SM CLR 12/08 A3031 RMK AO2 SLP271 T01220078 53009=
201605301353 METAR KBLI 301353Z 00000KT 10SM CLR 09/08 A3030 RMK AO2 SLP268 T00940078=
201605301253 METAR KBLI 301253Z AUTO 00000KT 10SM CLR 07/06 A3029 RMK AO2 SLP264 T00670061=
201605301153 METAR KBLI 301153Z AUTO 00000KT 10SM CLR 06/05 A3028 RMK AO2 SLP263 70001 T00610050 10128 20061 51010=
201605301053 METAR KBLI 301053Z AUTO 00000KT 10SM CLR 08/07 A3028 RMK AO2 SLP260 T00780067=
201605300953 METAR KBLI 300953Z AUTO 00000KT 10SM CLR 07/06 A3027 RMK AO2 SLP256 T00720061=
201605300853 METAR KBLI 300853Z AUTO 00000KT 10SM CLR 08/07 A3025 RMK AO2 SLP252 T00830072 53012=
201605300753 METAR KBLI 300753Z AUTO 16003KT 10SM CLR 10/07 A3024 RMK AO2 SLP247 T01000072 401780100=
201605300653 METAR KBLI 300653Z AUTO 15005KT 10SM CLR 11/08 A3023 RMK AO2 SLP243 T01110078=
201605300553 METAR KBLI 300553Z 17005KT 10SM CLR 13/09 A3022 RMK AO2 SLP240 T01280089 10178 20122 53014=
201605300453 METAR KBLI 300453Z 17004KT 10SM CLR 13/09 A3020 RMK AO2 SLP235 T01280089=
201605300353 METAR KBLI 300353Z 17004KT 10SM CLR 13/08 A3019 RMK AO2 SLP229 T01280083=
201605300253 METAR KBLI 300253Z 17004KT 10SM CLR 16/08 A3018 RMK AO2 SLP226 T01560078 52005=
201605300153 METAR KBLI 300153Z 18004KT 10SM CLR 17/07 A3017 RMK AO2 SLP222 T01670072=
201605300053 METAR KBLI 300053Z 18005KT 10SM CLR 17/07 A3017 RMK AO2 SLP223 T01720072=
201605292353 METAR KBLI 292353Z 16007KT 10SM CLR 17/08 A3016 RMK AO2 SLP220 T01720083 10172 20128 51004=
201605292253 METAR KBLI 292253Z 18008KT 10SM CLR 17/08 A3016 RMK AO2 SLP219 T01670078=
201605292153 METAR KBLI 292153Z 18005KT 10SM CLR 17/09 A3016 RMK AO2 SLP217 T01720094=
201605292053 METAR KBLI 292053Z 23005KT 10SM FEW055 16/09 A3015 RMK AO2 SLP216 T01610089 51012=
201605291953 METAR KBLI 291953Z 16008KT 10SM FEW055 15/09 A3014 RMK AO2 SLP215 T01500094=
201605291853 METAR KBLI 291853Z VRB06KT 10SM SCT037 BKN100 14/09 A3014 RMK AO2 SLP212 T01390094=
201605291753 METAR KBLI 291753Z 15008KT 10SM FEW037 SCT100 13/09 A3012 RMK AO2 SLP206 60001 T01330094 10133 20111 51014=
201605291653 METAR KBLI 291653Z 17009KT 10SM SCT022 BKN070 OVC100 12/09 A3011 RMK AO2 SLP202 CIG LWR NW T01220094=
201605291553 METAR KBLI 291553Z 17006KT 10SM BKN022 BKN037 OVC055 12/10 A3009 RMK AO2 RAE1454 SLP197 P0000 T01170100=
201605291453 METAR KBLI 291453Z 17009KT 10SM -RA FEW008 BKN022 OVC032 11/09 A3007 RMK AO2 RAB44 SLP191 P0000 60001 T01110094 53015=
201605291353 METAR KBLI 291353Z 18007KT 10SM FEW008 BKN020 OVC050 12/10 A3006 RMK AO2 RAE16 SLP186 P0001 T01170100=
201605291253 METAR KBLI 291253Z AUTO 18006KT 10SM -RA SCT008 BKN050 OVC060 12/11 A3004 RMK AO2 RAB51 SLP180 P0000 T01170106=
201605291241 SPECI KBLI 291241Z AUTO 17007KT 10SM BKN007 BKN049 OVC060 12/10 A3004 RMK AO2 T01170100=
201605291232 SPECI KBLI 291232Z AUTO 17008KT 10SM SCT007 BKN049 OVC060 12/11 A3004 RMK AO2 T01170106=
201605291225 SPECI KBLI 291225Z AUTO 16006KT 10SM BKN006 BKN048 OVC095 12/11 A3004 RMK AO2 T01170106=
201605291153 METAR KBLI 291153Z AUTO 17006KT 10SM SCT005 SCT050 BKN080 12/11 A3003 RMK AO2 RAE06 SLP176 P0000 60006 70045 T01170106 10133 20117 53007=
201605291110 SPECI KBLI 291110Z AUTO 17007KT 10SM FEW005 BKN070 OVC090 12/11 A3002 RMK AO2 RAE06 P0000 T01220111=
201605291053 METAR KBLI 291053Z AUTO 17008KT 10SM -RA FEW055 BKN070 OVC090 12/11 A3002 RMK AO2 RAB40 SLP172 P0000 T01220106=
201605290953 METAR KBLI 290953Z AUTO 18004KT 10SM FEW060 12/11 A3001 RMK AO2 SLP170 T01220106=
201605290853 METAR KBLI 290853Z AUTO 17007KT 10SM FEW015 BKN060 OVC080 12/11 A3001 RMK AO2 RAB06E22 SLP169 P0000 60006 T01220111 53003=
201605290753 METAR KBLI 290753Z AUTO 18004KT 10SM BKN050 OVC060 13/11 A3000 RMK AO2 RAB08E51 SLP166 P0001 T01280111 401500094=
201605290653 METAR KBLI 290653Z AUTO 16009KT 10SM OVC050 13/11 A3000 RMK AO2 RAB0554E49 SLP165 P0005 T01280111=
201605290553 METAR KBLI 290553Z AUTO 17009KT 7SM FEW031 OVC041 13/11 A3000 RMK AO2 RAE30 SLP166 P0006 60014 T01330111 10150 20128 51008=
201605290536 SPECI KBLI 290536Z AUTO 16011KT 10SM FEW017 SCT032 OVC040 13/11 A3000 RMK AO2 RAE30 P0004 T01280111=
201605290453 METAR KBLI 290453Z 16009KT 5SM -RA BR BKN018 BKN027 OVC041 13/11 A3000 RMK AO2 RAB0357E22B39 SLP165 P0003 T01330111=
201605290425 SPECI KBLI 290425Z 16008KT 10SM FEW021 SCT027 OVC045 13/11 A2999 RMK AO2 RAB0357E22 P0001 T01330111=
201605290416 SPECI KBLI 290416Z 16008KT 9SM -RA FEW023 BKN029 OVC043 13/11 A2999 RMK AO2 RAB0357 P0001 T01330111=
201605290353 METAR KBLI 290353Z 17008KT 10SM FEW020 BKN032 OVC042 14/11 A2999 RMK AO2 RAE53 SLP161 P0001 T01390106=
201605290304 SPECI KBLI 290304Z 17011G20KT 7SM -RA SCT025 BKN039 OVC060 14/11 A2998 RMK AO2 P0001 T01390111=
201605290253 METAR KBLI 290253Z 17009KT 8SM -RA BKN025 OVC038 14/11 A2998 RMK AO2 RAB13 SLP159 P0002 60004 T01390111 53004=
201605290153 METAR KBLI 290153Z 16011G17KT 10SM FEW025 BKN040 OVC060 14/11 A2997 RMK AO2 RAB00E53 SLP154 P0001 T01390106=
201605290053 METAR KBLI 290053Z 17011G16KT 10SM SCT024 BKN032 OVC060 14/11 A2997 RMK AO2 RAB32E50 SLP155 P0001 T01440106=
201605282353 METAR KBLI 282353Z 16013G21KT 10SM SCT024 BKN034 OVC065 14/10 A2997 RMK AO2 RAE48 SLP155 P0000 60008 T01440100 10150 20117 58003=
201605282253 METAR KBLI 282253Z 15014KT 10SM -RA SCT024 OVC065 14/11 A2997 RMK AO2 SLP157 P0000 T01440106=
201605282200 SPECI KBLI 282200Z 15013G20KT 10SM -RA OVC070 13/10 A2998 RMK AO2 P0000 T01330100=
201605282153 METAR KBLI 282153Z 15012G20KT 8SM -RA SCT016 BKN023 OVC070 13/10 A2998 RMK AO2 SLP158 P0006 T01330100=
201605282053 METAR KBLI 282053Z 15014G22KT 10SM -RA SCT016 BKN023 OVC070 13/09 A2998 RMK AO2 PK WND 13030/2003 SLP158 P0001 60002 T01330094 56006=
201605281953 METAR KBLI 281953Z 15019G30KT 10SM -RA SCT016 BKN021 OVC060 13/08 A2998 RMK AO2 PK WND 15031/1902 SLP160 P0000 T01330083=
201605281853 METAR KBLI 281853Z 15012G24KT 10SM -RA SCT016 OVC021 12/09 A2999 RMK AO2 SLP163 P0001 T01220089=
201605281753 METAR KBLI 281753Z 15016G25KT 10SM -RA SCT016 BKN026 OVC050 12/08 A3000 RMK AO2 PK WND 14029/1705 RAB27 SLP165 P0000 60017 T01170078 10117 20094 56010=
201605281653 METAR KBLI 281653Z 14014G22KT 10SM SCT016 BKN026 OVC050 11/08 A3000 RMK AO2 RAE15 SLP165 P0000 T01110083=
201605281553 METAR KBLI 281553Z 14011KT 10SM -RA BKN020 BKN032 OVC042 11/08 A3001 RMK AO2 SLP169 P0001 T01060083=
201605281453 METAR KBLI 281453Z 13008KT 8SM -RA BKN020 BKN032 OVC042 10/08 A3003 RMK AO2 SLP175 P0005 60016 T01000083 56012=
201605281353 METAR KBLI 281353Z 16009KT 8SM -RA SCT015 BKN024 OVC050 10/08 A3004 RMK AO2 SLP178 P0007 T01000078=
201605281253 METAR KBLI 281253Z AUTO 13007KT 10SM -RA FEW030 OVC045 09/08 A3005 RMK AO2 SLP182 P0004 T00940078=
201605281245 SPECI KBLI 281245Z AUTO 13006KT 10SM -RA FEW018 SCT028 OVC040 09/08 A3005 RMK AO2 P0004 T00940078=
201605281153 METAR KBLI 281153Z AUTO 14006KT 9SM -RA BKN015 OVC041 09/08 A3006 RMK AO2 SLP187 P0004 60009 70010 T00940083 10117 20094 56007=
201605281128 SPECI KBLI 281128Z AUTO 15007KT 10SM -RA SCT011 OVC015 10/08 A3007 RMK AO2 P0002 T01000083=
201605281105 SPECI KBLI 281105Z AUTO 16005KT 7SM -RA BKN012 BKN016 OVC043 10/08 A3007 RMK AO2 P0001 T01000083=
201605281053 METAR KBLI 281053Z AUTO 15006KT 8SM -RA FEW012 OVC043 10/08 A3007 RMK AO2 SLP188 P0003 T01000083=
201605280953 METAR KBLI 280953Z AUTO 16006KT 10SM -RA OVC042 10/08 A3008 RMK AO2 SLP192 P0002 T01000078=
201605280853 METAR KBLI 280853Z AUTO 16008KT 10SM -RA OVC050 11/07 A3009 RMK AO2 RAB31 SLP195 P0000 60000 T01060072 56002=
201605280753 METAR KBLI 280753Z AUTO 16007KT 10SM OVC060 12/06 A3009 RMK AO2 SLP195 T01170061 401560094=
201605280653 METAR KBLI 280653Z AUTO 17003KT 10SM FEW060 11/06 A3009 RMK AO2 SLP196 T01110061=
201605280553 METAR KBLI 280553Z AUTO 16006KT 10SM SCT080 12/06 A3009 RMK AO2 SLP197 T01170056 10150 20117 50003=
201605280453 METAR KBLI 280453Z 16004KT 10SM BKN070 OVC100 12/06 A3009 RMK AO2 SLP197 T01220056=
201605280353 METAR KBLI 280353Z VRB05KT 10SM OVC100 13/06 A3008 RMK AO2 SLP194 T01280056=
201605280253 METAR KBLI 280253Z 15006KT 10SM FEW075 OVC110 13/07 A3008 RMK AO2 SLP194 T01330067 56005=
201605280153 METAR KBLI 280153Z 16010G18KT 10SM SCT070 14/06 A3009 RMK AO2 SLP196 T01390056=
201605280053 METAR KBLI 280053Z 16012G17KT 10SM SCT075 14/07 A3009 RMK AO2 SLP196 T01390067=
201605272353 METAR KBLI 272353Z 16010G17KT 10SM CLR 14/06 A3010 RMK AO2 SLP199 60000 T01440061 10156 20122 58007=
201605272253 METAR KBLI 272253Z 17011G17KT 10SM BKN047 BKN060 OVC075 14/07 A3011 RMK AO2 SLP203 T01390067=
201605272153 METAR KBLI 272153Z 15012G18KT 10SM CLR 15/07 A3011 RMK AO2 SLP204 T01500072=
201605272053 METAR KBLI 272053Z 15013G17KT 10SM FEW047 OVC060 14/07 A3012 RMK AO2 RAB22E53 SLP206 P0000 60000 T01390072 58002=
201605271953 METAR KBLI 271953Z 15008KT 10SM BKN060 BKN095 14/08 A3013 RMK AO2 RAB1856E16 SLP208 P0000 T01390083=
201605271853 METAR KBLI 271853Z 18007KT 10SM OVC048 13/08 A3013 RMK AO2 SLP210 T01280083=
201605271753 METAR KBLI 271753Z 16009KT 10SM FEW037 BKN060 OVC100 13/08 A3013 RMK AO2 SLP209 60001 T01280083 10128 20094 53001=
201605271653 METAR KBLI 271653Z 15010KT 10SM FEW015 BKN060 OVC100 12/09 A3013 RMK AO2 SLP208 T01220089=
201605271553 METAR KBLI 271553Z 16009KT 10SM FEW010 SCT029 OVC060 11/09 A3012 RMK AO2 SLP208 T01060089=
201605271453 METAR KBLI 271453Z 15007KT 10SM OVC039 10/08 A3012 RMK AO2 RAE12 SLP207 P0000 60001 T01000078 52007=
201605271353 METAR KBLI 271353Z 16005KT 10SM -RA OVC037 09/08 A3012 RMK AO2 RAE08B53 SLP205 P0000 T00940078=
201605271253 METAR KBLI 271253Z AUTO 15007KT 9SM -RA OVC033 09/08 A3011 RMK AO2 SLP202 P0001 T00940078=
201605271153 METAR KBLI 271153Z AUTO 17004KT 8SM -RA OVC041 09/08 A3010 RMK AO2 SLP200 P0007 60008 70008 T00940078 10117 20094 52001=
201605271053 METAR KBLI 271053Z AUTO 17005KT 8SM -RA OVC048 10/08 A3010 RMK AO2 RAB01 SLP200 P0001 T01000078=
201605270953 METAR KBLI 270953Z AUTO 17005KT 10SM BKN065 OVC080 11/07 A3010 RMK AO2 SLP199 T01060067=
201605270853 METAR KBLI 270853Z AUTO 17006KT 10SM BKN070 OVC080 11/07 A3010 RMK AO2 SLP199 T01110067 58005=
201605270753 METAR KBLI 270753Z AUTO 17006KT 10SM OVC070 11/06 A3010 RMK AO2 SLP199 T01110061 401500111=
201605270653 METAR KBLI 270653Z AUTO 17007KT 10SM OVC043 12/06 A3011 RMK AO2 SLP204 T01170056=
201605270553 METAR KBLI 270553Z AUTO VRB04KT 10SM FEW033 BKN060 12/04 A3011 RMK AO2 SLP204 T01170044 10144 20111 51011=
201605270453 METAR KBLI 270453Z AUTO 00000KT 10SM BKN060 11/05 A3011 RMK AO2 SLP202 T01110050=
201605270353 METAR KBLI 270353Z 16008KT 10SM OVC055 12/06 A3009 RMK AO2 SLP195 T01220056=
201605270253 METAR KBLI 270253Z 18008KT 10SM BKN037 13/06 A3008 RMK AO2 SLP193 T01280056 56013=
201605270153 METAR KBLI 270153Z 15012G18KT 10SM SCT039 SCT120 14/07 A3008 RMK AO2 SLP193 T01390067=
201605270053 METAR KBLI 270053Z 15010G17KT 10SM BKN060 14/08 A3010 RMK AO2 SLP200 T01390078=
201605262353 METAR KBLI 262353Z 16012G20KT 10SM SCT055 BKN070 14/08 A3012 RMK AO2 SLP205 T01440083 10150 20128 56011=
201605262253 METAR KBLI 262253Z 17009G17KT 10SM OVC050 14/08 A3012 RMK AO2 SLP207 T01440078=
201605262153 METAR KBLI 262153Z 17009KT 10SM OVC045 14/08 A3014 RMK AO2 SLP214 T01390078=
201605262053 METAR KBLI 262053Z 17009KT 10SM OVC041 14/08 A3015 RMK AO2 SLP216 T01390083 58004=
201605261953 METAR KBLI 261953Z 16011KT 10SM OVC030 13/08 A3016 RMK AO2 SLP219 T01330078=
201605261936 SPECI KBLI 261936Z 17008KT 10SM OVC030 13/08 A3016 RMK AO2 T01330078=
201605261853 METAR KBLI 261853Z 17008KT 10SM OVC027 13/08 A3016 RMK AO2 SLP221 T01330083=
201605261753 METAR KBLI 261753Z 17011KT 10SM BKN025 OVC030 13/08 A3016 RMK AO2 SLP220 T01280078 10128 20117 50000=
201605261653 METAR KBLI 261653Z 17011KT 10SM BKN026 OVC033 12/07 A3016 RMK AO2 SLP221 T01220072=
201605261553 METAR KBLI 261553Z 17010G19KT 10SM OVC055 13/07 A3016 RMK AO2 SLP220 T01280072=
201605261453 METAR KBLI 261453Z 17011G17KT 10SM OVC055 12/08 A3016 RMK AO2 SLP220 T01220078 53003=
201605261353 METAR KBLI 261353Z 16010G19KT 10SM OVC060 12/08 A3016 RMK AO2 SLP217 T01220078=
201605261253 METAR KBLI 261253Z AUTO 17009G18KT 10SM OVC055 12/08 A3015 RMK AO2 SLP216 T01170078=
201605261153 METAR KBLI 261153Z AUTO 16009KT 10SM BKN050 OVC070 12/08 A3015 RMK AO2 SLP216 60000 T01220078 10139 20122 50001=
201605261053 METAR KBLI 261053Z AUTO 16012KT 10SM BKN070 OVC090 12/08 A3016 RMK AO2 RAB04E17 SLP218 P0000 T01220078=
201605260953 METAR KBLI 260953Z AUTO 16009KT 10SM SCT029 OVC075 12/07 A3016 RMK AO2 SLP219 T01220072=
201605260853 METAR KBLI 260853Z AUTO 16011G19KT 10SM FEW030 BKN075 13/08 A3015 RMK AO2 SLP215 T01280078 51004=
201605260753 METAR KBLI 260753Z AUTO 16012G17KT 10SM BKN080 13/08 A3014 RMK AO2 SLP213 T01280078 401890111=
201605260653 METAR KBLI 260653Z AUTO 16009G16KT 10SM CLR 13/08 A3015 RMK AO2 SLP215 T01330078=
201605260553 METAR KBLI 260553Z AUTO 16010KT 10SM CLR 14/08 A3014 RMK AO2 SLP211 T01390078 10189 20139 53006=
201605260453 METAR KBLI 260453Z 15012KT 10SM CLR 14/09 A3013 RMK AO2 SLP209 T01440089=
201605260353 METAR KBLI 260353Z 15011KT 10SM CLR 15/09 A3012 RMK AO2 SLP207 T01500094=
201605260253 METAR KBLI 260253Z 17011KT 10SM CLR 16/10 A3012 RMK AO2 SLP205 T01560100 55001=
201605260153 METAR KBLI 260153Z 17011KT 10SM CLR 16/10 A3011 RMK AO2 SLP203 T01610100=
201605260053 METAR KBLI 260053Z 16010KT 10SM CLR 17/11 A3012 RMK AO2 SLP204 T01720111=
201605252353 METAR KBLI 252353Z 17009G17KT 10SM CLR 19/11 A3012 RMK AO2 SLP206 T01890106 10189 20144 58003=
201605252253 METAR KBLI 252253Z 17012KT 10SM CLR 18/10 A3013 RMK AO2 SLP208 T01830100=
201605252153 METAR KBLI 252153Z 16010G16KT 10SM CLR 18/11 A3013 RMK AO2 SLP210 T01830106=
201605252053 METAR KBLI 252053Z 18007KT 150V210 10SM CLR 18/11 A3013 RMK AO2 SLP209 T01780106 53004=
201605251953 METAR KBLI 251953Z 19008KT 10SM CLR 17/11 A3013 RMK AO2 SLP208 T01720106=
201605251853 METAR KBLI 251853Z 16010G15KT 10SM CLR 17/11 A3013 RMK AO2 SLP207 T01670106=
201605251753 METAR KBLI 251753Z 17006KT 10SM FEW050 BKN075 14/10 A3012 RMK AO2 SLP206 T01440100 10156 20122 53013=
201605251653 METAR KBLI 251653Z 18009KT 10SM OVC055 14/11 A3011 RMK AO2 SLP200 T01390106=
201605251553 METAR KBLI 251553Z 18008KT 10SM BKN055 OVC070 13/10 A3009 RMK AO2 SLP198 T01280100=
201605251453 METAR KBLI 251453Z 17007KT 10SM FEW044 BKN050 OVC075 13/10 A3008 RMK AO2 SLP193 T01280100 52011=
201605251353 METAR KBLI 251353Z 17008KT 10SM BKN050 OVC075 13/09 A3007 RMK AO2 SLP188 T01280094=
201605251253 METAR KBLI 251253Z AUTO 16006KT 10SM OVC075 12/09 A3006 RMK AO2 SLP186 T01220094=
201605251153 METAR KBLI 251153Z AUTO 17009KT 10SM BKN075 12/09 A3005 RMK AO2 SLP181 T01170094 10139 20111 53009=
201605251053 METAR KBLI 251053Z AUTO 16004KT 10SM CLR 12/09 A3004 RMK AO2 SLP177 T01170089=
201605250953 METAR KBLI 250953Z AUTO 16006KT 10SM CLR 12/09 A3003 RMK AO2 SLP175 T01220089=
201605250853 METAR KBLI 250853Z AUTO 16006KT 10SM SCT070 13/10 A3002 RMK AO2 SLP172 T01280100 51003=
201605250753 METAR KBLI 250753Z AUTO 17005KT 10SM BKN070 13/11 A3002 RMK AO2 SLP171 T01330106 401830122=
201605250653 METAR KBLI 250653Z AUTO 15004KT 10SM CLR 13/11 A3002 RMK AO2 SLP172 T01280106=
201605250553 METAR KBLI 250553Z AUTO 18004KT 10SM BKN070 14/11 A3001 RMK AO2 SLP170 T01390106 10167 20139 51009=
201605250453 METAR KBLI 250453Z 16005KT 10SM OVC070 15/10 A3001 RMK AO2 SLP167 T01500100=
201605250353 METAR KBLI 250353Z 16006KT 10SM OVC065 15/10 A2999 RMK AO2 SLP163 T01500100=
201605250253 METAR KBLI 250253Z 17007KT 10SM OVC065 15/11 A2999 RMK AO2 SLP161 T01500106 55001=
201605250153 METAR KBLI 250153Z 17006KT 10SM OVC070 16/11 A2998 RMK AO2 SLP158 T01610111=
201605250053 METAR KBLI 250053Z 17007KT 10SM OVC065 16/11 A2998 RMK AO2 SLP159 T01610111=
201605242353 METAR KBLI 242353Z 16007KT 10SM OVC065 17/11 A2999 RMK AO2 SLP160 T01670106 10183 20139 56002=
201605242253 METAR KBLI 242253Z AUTO 16008KT 10SM OVC065 17/10 A2999 RMK AO2 SLP161 T01720100=
201605242153 METAR KBLI 242153Z 17007KT 10SM OVC070 18/11 A2999 RMK AO2 SLP162 T01780106=
201605242053 METAR KBLI 242053Z 18007KT 10SM OVC065 17/11 A2999 RMK AO2 SLP163 T01670106 53006=
201605241953 METAR KBLI 241953Z 17006KT 10SM FEW038 OVC065 16/11 A2999 RMK AO2 SLP160 T01560106=
201605241853 METAR KBLI 241853Z 17007KT 10SM OVC033 14/11 A2998 RMK AO2 SLP158 T01440106=
201605241753 METAR KBLI 241753Z 18007KT 10SM OVC035 13/10 A2998 RMK AO2 SLP158 T01330100 10139 20122 53010=
201605241653 METAR KBLI 241653Z 19005KT 10SM OVC039 13/10 A2997 RMK AO2 SLP154 T01330100=
201605241553 METAR KBLI 241553Z 18006KT 10SM OVC040 13/10 A2996 RMK AO2 SLP151 T01280100=
201605241453 METAR KBLI 241453Z 18006KT 10SM OVC043 13/10 A2995 RMK AO2 SLP148 T01280100 53005 $=
201605241353 METAR KBLI 241353Z 17006KT 10SM OVC041 13/10 A2994 RMK AO2 SLP144 T01280100=
201605241253 METAR KBLI 241253Z AUTO 17005KT 10SM OVC041 13/09 A2993 RMK AO2 SLP142 T01330094=
201605241153 METAR KBLI 241153Z AUTO 00000KT 10SM OVC043 13/09 A2993 RMK AO2 SLP142 70001 T01280094 10144 20122 50003=
201605241053 METAR KBLI 241053Z AUTO 16003KT 10SM SCT043 OVC060 13/09 A2993 RMK AO2 SLP142 T01330094=
201605241000 METAR KBLI NIL=
201605240953 METAR KBLI 240953Z AUTO 18004KT 10SM OVC047 13/09 A2993 RMK AO2 SLP142 T01330094=
201605240853 METAR KBLI 240853Z AUTO 18006KT 10SM OVC049 14/09 A2992 RMK AO2 SLP140 T01390089 50000=
201605240753 METAR KBLI 240753Z AUTO 18004KT 10SM OVC055 14/09 A2993 RMK AO2 SLP141 T01390094 401610117=
201605240653 METAR KBLI 240653Z AUTO 00000KT 10SM OVC050 14/10 A2993 RMK AO2 SLP141 T01390100=
201605240553 METAR KBLI 240553Z AUTO 16003KT 10SM OVC060 14/10 A2992 RMK AO2 SLP140 T01440100 10161 20139 50003=
201605240453 METAR KBLI 240453Z 00000KT 10SM OVC065 14/09 A2993 RMK AO2 SLP140 T01390094=
201605240353 METAR KBLI 240353Z 16004KT 10SM OVC065 14/09 A2992 RMK AO2 SLP138 T01390094=
201605240253 METAR KBLI 240253Z 18004KT 10SM OVC070 14/10 A2991 RMK AO2 SLP137 T01440100 56006=
201605240153 METAR KBLI 240153Z 17004KT 10SM OVC070 15/10 A2992 RMK AO2 SLP137 T01500100=
201605240053 METAR KBLI 240053Z 18005KT 10SM OVC070 16/10 A2992 RMK AO2 SLP138 T01560100=
201605232353 METAR KBLI 232353Z 17007KT 10SM OVC075 16/11 A2993 RMK AO2 SLP142 60001 T01560106 10156 20122 58001=
201605232253 METAR KBLI 232253Z 15008KT 10SM FEW047 OVC070 15/10 A2994 RMK AO2 SLP144 T01500100=
201605232153 METAR KBLI 232153Z 17008KT 10SM FEW050 OVC065 14/09 A2993 RMK AO2 SLP143 T01440094=
201605232053 METAR KBLI 232053Z 16007KT 10SM FEW015 OVC050 13/11 A2994 RMK AO2 SLP144 60001 T01330106 50001=
201605232013 SPECI KBLI 232013Z 15007KT 10SM FEW010 BKN043 OVC050 13/11 A2993 RMK AO2 T01330106=
201605231953 METAR KBLI 231953Z 16005KT 6SM BR SCT010 OVC016 13/11 A2994 RMK AO2 RAB10E37 SLP145 P0000 T01280111=
201605231853 METAR KBLI 231853Z 16005KT 10SM OVC016 12/11 A2993 RMK AO2 RAE1754B19E41 SLP143 P0001 T01220106=
201605231822 SPECI KBLI 231822Z 17006KT 6SM -RA BR BKN014 OVC018 12/10 A2993 RMK AO2 RAE1754B19 P0000 T01220100=
201605231800 SPECI KBLI 231800Z 17006KT 5SM BR OVC016 12/10 A2993 RMK AO2 RAE1754 P0000 T01220100=
201605231753 METAR KBLI 231753Z 17007KT 5SM -RA BR SCT016 OVC031 12/10 A2993 RMK AO2 RAB41 SLP143 P0000 60000 T01220100 10133 20117 53005=
201605231653 METAR KBLI 231653Z 16008KT 10SM FEW012 OVC034 12/09 A2993 RMK AO2 SLP141 T01220089=
201605231558 SPECI KBLI 231558Z 16009KT 10SM SCT015 OVC045 12/09 A2991 RMK AO2 T01220094=
201605231553 METAR KBLI 231553Z 16010KT 10SM SCT015 OVC060 12/09 A2992 RMK AO2 RAE07 SLP138 P0000 T01170094=
201605231453 METAR KBLI 231453Z 17008KT 10SM -RA SCT015 OVC060 12/09 A2992 RMK AO2 RAB07E18B36 SLP137 P0000 60000 T01170094 53009=
201605231353 METAR KBLI 231353Z 16010G16KT 10SM SCT017 OVC060 12/09 A2990 RMK AO2 SLP132 T01220089=
201605231253 METAR KBLI 231253Z AUTO 17008G16KT 10SM BKN065 OVC085 13/08 A2990 RMK AO2 SLP130 T01280083=
201605231153 METAR KBLI 231153Z AUTO 16008KT 10SM FEW038 OVC080 13/08 A2989 RMK AO2 RAB05E27 SLP128 P0000 60000 T01280078 10139 20128 53002=
201605231053 METAR KBLI 231053Z AUTO 16007KT 10SM SCT044 OVC070 13/08 A2989 RMK AO2 SLP127 T01330078=
201605230953 METAR KBLI 230953Z AUTO 17008KT 10SM FEW045 FEW060 OVC085 13/09 A2988 RMK AO2 SLP125 T01330089=
201605230853 METAR KBLI 230853Z AUTO 17008KT 10SM BKN045 OVC080 13/09 A2989 RMK AO2 SLP126 T01330089 58001=
201605230753 METAR KBLI 230753Z AUTO 16007KT 10SM BKN055 BKN080 14/08 A2989 RMK AO2 SLP127 T01390083 401830122=
201605230653 METAR KBLI 230653Z AUTO 17008KT 10SM BKN060 14/08 A2989 RMK AO2 SLP127 T01390083=
201605230553 METAR KBLI 230553Z AUTO 17009KT 10SM CLR 14/08 A2989 RMK AO2 SLP127 T01390083 10178 20139 52005=
201605230453 METAR KBLI 230453Z 17007KT 10SM FEW070 14/08 A2989 RMK AO2 SLP126 T01440083=
201605230353 METAR KBLI 230353Z 17009KT 10SM CLR 14/08 A2988 RMK AO2 SLP123 T01440083=
201605230253 METAR KBLI 230253Z 17008KT 10SM CLR 16/08 A2987 RMK AO2 SLP121 T01560083 56003=
201605230153 METAR KBLI 230153Z 17007KT 10SM CLR 16/09 A2987 RMK AO2 SLP122 T01610089=
201605230053 METAR KBLI 230053Z 17008KT 10SM CLR 17/08 A2987 RMK AO2 SLP122 T01670083=
201605222353 METAR KBLI 222353Z 17009KT 10SM FEW100 18/08 A2988 RMK AO2 SLP124 T01780083 10183 20144 58003=
201605222253 METAR KBLI 222253Z 16010KT 10SM BKN100 18/08 A2989 RMK AO2 SLP126 T01780083=
201605222153 METAR KBLI 222153Z 16011KT 10SM SCT065 17/09 A2989 RMK AO2 SLP128 T01720089=
201605222053 METAR KBLI 222053Z 16015KT 10SM FEW045 16/09 A2989 RMK AO2 SLP127 T01610094 52002=
201605221953 METAR KBLI 221953Z 16010G19KT 10SM FEW043 BKN049 16/09 A2989 RMK AO2 SLP126 T01610089=
201605221853 METAR KBLI 221853Z 16009G17KT 10SM BKN049 15/09 A2989 RMK AO2 SLP126 T01500094=
201605221753 METAR KBLI 221753Z 16010G17KT 10SM BKN044 14/09 A2988 RMK AO2 SLP125 T01440089 10150 20122 50000=
201605221653 METAR KBLI 221653Z 17007KT 10SM BKN040 14/09 A2989 RMK AO2 SLP128 T01390089=
201605221553 METAR KBLI 221553Z 16010KT 10SM FEW065 SCT110 14/09 A2989 RMK AO2 SLP128 T01390094=
201605221453 METAR KBLI 221453Z 17008KT 10SM BKN065 OVC100 13/08 A2988 RMK AO2 SLP126 T01280083 51009=
201605221353 METAR KBLI 221353Z 17012KT 10SM BKN100 13/09 A2987 RMK AO2 SLP123 T01280089=
201605221253 METAR KBLI 221253Z AUTO 17009KT 10SM BKN060 OVC100 12/09 A2987 RMK AO2 SLP121 T01220089=
201605221153 METAR KBLI 221153Z AUTO 16006KT 10SM BKN055 OVC095 13/08 A2986 RMK AO2 SLP116 70001 T01280083 10139 20128 53005=
201605221053 METAR KBLI 221053Z AUTO 18006KT 10SM OVC055 13/08 A2985 RMK AO2 SLP114 T01280083=
201605220953 METAR KBLI 220953Z AUTO 17009KT 10SM FEW055 OVC090 13/09 A2984 RMK AO2 SLP113 T01280089=
201605220853 METAR KBLI 220853Z AUTO 17009KT 10SM OVC090 13/09 A2984 RMK AO2 SLP111 T01330089 55000=
201605220753 METAR KBLI 220753Z AUTO 16010KT 10SM FEW065 OVC080 13/10 A2984 RMK AO2 SLP110 T01330100 401560100=
201605220719 SPECI KBLI 220719Z AUTO 16009KT 10SM SCT012 OVC075 13/11 A2984 RMK AO2 T01330111=
201605220653 METAR KBLI 220653Z AUTO 16011KT 10SM BKN014 OVC080 13/11 A2984 RMK AO2 SLP112 T01330111=
201605220643 SPECI KBLI 220643Z AUTO 17010KT 10SM BKN014 BKN080 13/11 A2984 RMK AO2 T01330106=
201605220553 METAR KBLI 220553Z AUTO 15013G22KT 10SM FEW014 OVC110 14/11 A2984 RMK AO2 SLP111 60000 T01390106 10156 20133 51008=
201605220453 METAR KBLI 220453Z 15012G18KT 10SM SCT090 OVC120 14/10 A2984 RMK AO2 SLP110 T01390100=
201605220353 METAR KBLI 220353Z 16007KT 10SM OVC095 14/09 A2983 RMK AO2 RAB23E43 SLP107 P0000 T01390094=
201605220253 METAR KBLI 220253Z 16011G18KT 10SM OVC090 14/10 A2982 RMK AO2 SLP103 T01440100 53008=
201605220153 METAR KBLI 220153Z 17011G19KT 10SM OVC080 15/11 A2980 RMK AO2 SLP099 T01500106=
201605220053 METAR KBLI 220053Z 17011KT 10SM BKN095 15/11 A2980 RMK AO2 SLP098 T01500106=
201605212353 METAR KBLI 212353Z 17009KT 10SM OVC085 16/11 A2979 RMK AO2 SLP095 60000 T01560111 10156 20133 53003=
201605212253 METAR KBLI 212253Z 17010KT 10SM SCT080 BKN090 16/11 A2979 RMK AO2 SLP093 T01560111=
201605212153 METAR KBLI 212153Z 17008KT 10SM SCT020 OVC070 15/12 A2979 RMK AO2 SLP093 T01500117=
201605212053 METAR KBLI 212053Z 16010KT 10SM OVC065 14/12 A2978 RMK AO2 RAE19 SLP092 P0000 60000 T01440117 51006=
201605211953 METAR KBLI 211953Z 17009KT 10SM -RA SCT021 OVC070 14/11 A2978 RMK AO2 RAB17E27B43 SLP090 P0000 T01440111=
201605211853 METAR KBLI 211853Z 17009KT 10SM FEW045 OVC075 14/11 A2978 RMK AO2 RAB00E19 SLP090 P0000 T01390106=
201605211753 METAR KBLI 211753Z 16007KT 10SM FEW050 BKN075 14/11 A2976 RMK AO2 SLP085 60001 T01390106 10139 20111 51009=
201605211653 METAR KBLI 211653Z 18006KT 10SM OVC075 13/11 A2975 RMK AO2 SLP082 T01330106=
201605211553 METAR KBLI 211553Z 17007KT 10SM OVC090 13/11 A2975 RMK AO2 SLP080 T01280106=
201605211453 METAR KBLI 211453Z 18005KT 10SM OVC080 12/11 A2974 RMK AO2 RAE06 SLP075 P0001 60001 T01220106 52006=
201605211353 METAR KBLI 211353Z 20004KT 10SM -RA OVC070 12/11 A2973 RMK AO2 RAB03 SLP073 P0000 T01220106=
201605211253 METAR KBLI 211253Z AUTO VRB03KT 10SM FEW060 OVC080 12/10 A2973 RMK AO2 SLP072 T01170100=
201605211153 METAR KBLI 211153Z AUTO 00000KT 10SM BKN080 OVC120 11/09 A2972 RMK AO2 SLP069 T01110089 10133 20100 56002=
201605211053 METAR KBLI 211053Z AUTO 00000KT 10SM BKN120 11/09 A2972 RMK AO2 SLP071 T01060089=
201605210953 METAR KBLI 210953Z AUTO 00000KT 10SM BKN120 11/08 A2972 RMK AO2 SLP069 T01110083=
201605210853 METAR KBLI 210853Z AUTO 29005KT 10SM CLR 12/09 A2972 RMK AO2 SLP071 T01170089 55006=
201605210753 METAR KBLI 210753Z AUTO 28005KT 10SM CLR 13/09 A2972 RMK AO2 SLP071 T01280094 401830078=
201605210653 METAR KBLI 210653Z AUTO 26003KT 10SM CLR 11/08 A2974 RMK AO2 SLP077 T01060083=
201605210553 METAR KBLI 210553Z AUTO 32004KT 10SM CLR 13/08 A2974 RMK AO2 SLP077 T01280083 10183 20122 58003=
201605210453 METAR KBLI 210453Z 30004KT 10SM CLR 14/08 A2975 RMK AO2 SLP080 T01440078=
201605210353 METAR KBLI 210353Z 30007KT 10SM CLR 16/08 A2974 RMK AO2 SLP078 T01560083=
201605210253 METAR KBLI 210253Z 29010KT 10SM CLR 18/08 A2975 RMK AO2 SLP080 T01780083 56003=
201605210153 METAR KBLI 210153Z 27008KT 10SM BKN110 18/08 A2975 RMK AO2 SLP081 T01780083=
201605210053 METAR KBLI 210053Z 29010G15KT 10SM FEW095 18/08 A2975 RMK AO2 SLP082 T01780083=
201605202353 METAR KBLI 202353Z 27008KT 10SM BKN110 18/08 A2976 RMK AO2 SLP084 T01780078 10183 20150 58009=
201605202253 METAR KBLI 202253Z 29010G16KT 10SM FEW110 17/08 A2977 RMK AO2 SLP089 T01720083=
201605202153 METAR KBLI 202153Z 31011KT 10SM SCT039 SCT120 18/09 A2978 RMK AO2 SLP092 T01780094=
201605202053 METAR KBLI 202053Z 27009KT 10SM SCT038 BKN048 18/10 A2979 RMK AO2 SLP093 T01830100 58017=
201605201953 METAR KBLI 201953Z 35006KT 10SM SCT040 17/08 A2980 RMK AO2 SLP099 T01720083=
201605201853 METAR KBLI 201853Z 35005KT 10SM FEW034 16/08 A2982 RMK AO2 SLP105 T01610078=
201605201753 METAR KBLI 201753Z 36009KT 10SM BKN033 16/08 A2984 RMK AO2 SLP110 60000 T01610078 10161 20089 56009=
201605201653 METAR KBLI 201653Z VRB05KT 10SM SCT015 BKN048 15/08 A2984 RMK AO2 SLP111 T01500083=
201605201553 METAR KBLI 201553Z 00000KT 10SM SCT015 BKN048 13/08 A2986 RMK AO2 SLP118 T01280083=
201605201453 METAR KBLI 201453Z 02003KT 10SM FEW012 BKN055 12/09 A2986 RMK AO2 SLP119 60000 T01170089 58000=
201605201353 METAR KBLI 201353Z 02003KT 10SM BKN070 OVC100 10/09 A2987 RMK AO2 SLP122 T01000089=
201605201253 METAR KBLI 201253Z AUTO 00000KT 10SM OVC065 09/08 A2986 RMK AO2 RAE1156B30E41 SLP120 P0000 T00890078=
201605201153 METAR KBLI 201153Z AUTO 00000KT 10SM -RA FEW050 OVC070 09/07 A2986 RMK AO2 RAB25 SLP120 P0001 60001 70009 T00890072 10100 20072 50001=
201605201053 METAR KBLI 201053Z AUTO 00000KT 10SM FEW032 BKN070 OVC095 09/07 A2986 RMK AO2 SLP120 T00890072=
201605200953 METAR KBLI 200953Z AUTO 00000KT 10SM OVC075 09/07 A2986 RMK AO2 SLP119 T00890072=
201605200853 METAR KBLI 200853Z AUTO 00000KT 10SM BKN100 08/07 A2986 RMK AO2 SLP118 T00830072 55000=
201605200753 METAR KBLI 200753Z AUTO 00000KT 10SM CLR 08/06 A2986 RMK AO2 SLP117 T00780061 401440072=
201605200653 METAR KBLI 200653Z AUTO 00000KT 10SM CLR 08/07 A2986 RMK AO2 SLP119 T00830067=
201605200553 METAR KBLI 200553Z AUTO 16003KT 10SM SCT070 10/07 A2986 RMK AO2 SLP119 T01000072 10144 20083 53005=
201605200453 METAR KBLI 200453Z 00000KT 10SM FEW070 09/07 A2986 RMK AO2 SLP117 T00940072=
201605200353 METAR KBLI 200353Z 00000KT 10SM SCT065 11/08 A2985 RMK AO2 SLP114 T01060078=
201605200253 METAR KBLI 200253Z 18003KT 10SM SCT065 13/07 A2985 RMK AO2 SLP113 T01280072 56002=
201605200153 METAR KBLI 200153Z 17005KT 10SM OVC065 14/07 A2985 RMK AO2 SLP114 T01390067=
201605200053 METAR KBLI 200053Z VRB04KT 10SM OVC065 14/07 A2985 RMK AO2 SLP114 T01390072=
201605192353 METAR KBLI 192353Z 16008KT 10SM OVC060 14/07 A2985 RMK AO2 SLP115 T01390067 10144 20117 58003=
201605192253 METAR KBLI 192253Z 16007KT 10SM OVC055 13/07 A2986 RMK AO2 SLP118 T01330067=
201605192153 METAR KBLI 192153Z VRB06KT 10SM SCT026 SCT060 BKN110 14/07 A2986 RMK AO2 SLP118 T01390067=
201605192053 METAR KBLI 192053Z 17009KT 10SM BKN022 OVC060 14/07 A2986 RMK AO2 SLP119 T01390072 56008=
201605191953 METAR KBLI 191953Z 17011G19KT 10SM BKN022 OVC060 13/07 A2987 RMK AO2 SLP121 T01330072=
201605191853 METAR KBLI 191853Z 18010G15KT 150V240 10SM BKN017 BKN022 OVC050 13/08 A2988 RMK AO2 SLP125 T01330078=
201605191753 METAR KBLI 191753Z 17008KT 10SM BKN015 BKN035 OVC050 12/08 A2989 RMK AO2 RAE08 SLP128 P0000 60008 T01170083 10117 20100 58005=
201605191708 SPECI KBLI 191708Z 17008KT 10SM SCT013 BKN018 OVC040 11/09 A2989 RMK AO2 RAE08 P0000 T01110089=
201605191701 SPECI KBLI 191701Z 17006KT 10SM -RA SCT013 BKN030 OVC040 11/09 A2989 RMK AO2 P0000 T01110089=
201605191653 METAR KBLI 191653Z 17006KT 10SM -RA SCT013 BKN025 OVC040 11/09 A2989 RMK AO2 SLP130 P0001 T01060089=
201605191553 METAR KBLI 191553Z 15008KT 10SM -RA BKN011 BKN043 OVC060 10/09 A2990 RMK AO2 SLP132 P0004 T01000089=
201605191453 METAR KBLI 191453Z 18005KT 10SM -RA SCT024 BKN032 OVC043 10/08 A2990 RMK AO2 SLP133 P0001 60003 T01000083 56000=
201605191353 METAR KBLI 191353Z 00000KT 8SM -RA SCT024 BKN032 OVC045 10/09 A2990 RMK AO2 RAB02 SLP133 P0002 T01000089=
201605191305 SPECI KBLI 191305Z AUTO 17003KT 10SM -RA SCT024 BKN034 OVC042 10/08 A2990 RMK AO2 RAB02 P0000 T01000083=
201605191253 METAR KBLI 191253Z AUTO 17003KT 10SM FEW012 BKN028 OVC045 10/09 A2990 RMK AO2 RAB1157E18 SLP132 P0000 T01000089=
201605191200 SPECI KBLI 191200Z AUTO 17007KT 10SM -RA SCT013 BKN028 OVC047 10/09 A2990 RMK AO2 RAB1157 P0000 T01000089=
201605191153 METAR KBLI 191153Z AUTO 16006KT 10SM FEW013 BKN035 OVC046 10/08 A2990 RMK AO2 SLP133 60014 70019 T01000083 10106 20094 58007=
201605191144 SPECI KBLI 191144Z AUTO 17005KT 10SM FEW011 SCT028 OVC044 10/09 A2991 RMK AO2 T01000089=
201605191135 SPECI KBLI 191135Z AUTO 18003KT 10SM SCT011 BKN028 OVC044 10/09 A2991 RMK AO2 T01000089=
201605191114 SPECI KBLI 191114Z AUTO 17005KT 10SM FEW009 BKN038 OVC045 10/09 A2991 RMK AO2 T01000089=
201605191053 METAR KBLI 191053Z AUTO 16006KT 10SM SCT009 BKN026 OVC039 10/09 A2991 RMK AO2 RAE44 SLP136 P0003 T01000089=
201605191034 SPECI KBLI 191034Z AUTO 16007KT 10SM -RA BKN007 BKN014 OVC033 09/08 A2991 RMK AO2 CIG 006V012 P0003 T00940083=
201605190953 METAR KBLI 190953Z AUTO 16006KT 4SM -RA BR FEW007 SCT010 OVC023 10/08 A2992 RMK AO2 RAE09B35 SLP139 P0001 T01000083=
201605190927 SPECI KBLI 190927Z AUTO 17007KT 10SM FEW009 SCT014 OVC025 10/08 A2992 RMK AO2 RAE09 P0000 T01000083=
201605190853 METAR KBLI 190853Z AUTO 16007KT 10SM -RA OVC024 10/08 A2992 RMK AO2 RAB53 SLP140 P0000 60010 T01000083 58001=
201605190753 METAR KBLI 190753Z AUTO 16007KT 10SM OVC026 10/09 A2993 RMK AO2 RAE41 SLP143 P0003 T01000089 401670100=
201605190653 METAR KBLI 190653Z AUTO 17004KT 10SM -RA FEW020 OVC027 11/08 A2993 RMK AO2 SLP143 P0007 T01060083=
201605190553 METAR KBLI 190553Z AUTO VRB06KT 7SM -RA OVC022 11/08 A2993 RMK AO2 RAB37 SLP142 P0001 60005 T01060083 10156 20106 50004=
201605190525 SPECI KBLI 190525Z AUTO 16006KT 10SM OVC029 11/08 A2993 RMK AO2 T01110083=
201605190453 METAR KBLI 190453Z 15007KT 10SM FEW034 BKN042 OVC080 11/09 A2993 RMK AO2 SLP143 T01110089=
201605190353 METAR KBLI 190353Z 15008KT 10SM OVC065 11/09 A2992 RMK AO2 RAE43 SLP139 P0001 T01110089=
201605190253 METAR KBLI 190253Z 15011KT 5SM -RA OVC049 12/08 A2992 RMK AO2 RAB0154E13B41 SLP137 P0003 60003 T01170083 56021=
201605190153 METAR KBLI 190153Z 12009KT 10SM OVC038 13/08 A2993 RMK AO2 RAB41E50 SLP142 P0000 T01330078=
201605190053 METAR KBLI 190053Z 17008G16KT 10SM OVC046 14/08 A2995 RMK AO2 SLP150 T01440083=
201605182353 METAR KBLI 182353Z 15011G17KT 10SM OVC050 15/09 A2998 RMK AO2 SLP157 T01500094 10167 20144 58015=
201605182253 METAR KBLI 182253Z 16009KT 10SM OVC048 15/09 A3000 RMK AO2 SLP164 T01500094=
201605182153 METAR KBLI 182153Z 16010G15KT 10SM OVC050 16/10 A3001 RMK AO2 SLP169 T01560100=
201605182053 METAR KBLI 182053Z 17009KT 10SM BKN050 OVC060 16/09 A3002 RMK AO2 SLP172 T01610094 58011=
201605181953 METAR KBLI 181953Z 16010G16KT 10SM OVC050 16/10 A3004 RMK AO2 SLP178 T01560100=
201605181853 SPECI KBLI 181853Z 17015G21KT 10SM OVC050 15/10 A3005 RMK AO2 SLP182 T01500100=
201605181853 METAR KBLI 181853Z 17015G21KT 10SM OVC050 15/10 A3005 RMK AO2 SLP182 T01500100=
201605181753 METAR KBLI 181753Z 17012G21KT 10SM SCT043 BKN060 16/10 A3005 RMK AO2 SLP183 T01610100 10161 20128 58012=
201605181653 METAR KBLI 181653Z 16010G18KT 10SM OVC047 16/08 A3007 RMK AO2 SLP187 T01560083=
201605181553 METAR KBLI 181553Z 16010KT 10SM SCT055 BKN080 BKN100 14/07 A3008 RMK AO2 SLP193 T01390072=
201605181453 METAR KBLI 181453Z 17012G19KT 10SM SCT075 OVC100 13/07 A3009 RMK AO2 SLP195 T01330072 56004=
201605181353 METAR KBLI 181353Z 17010G15KT 10SM SCT080 BKN100 13/06 A3009 RMK AO2 SLP195 T01330061=
201605181253 METAR KBLI 181253Z AUTO 17010G17KT 10SM OVC085 13/07 A3010 RMK AO2 SLP198 T01280072=
201605181153 METAR KBLI 181153Z AUTO 17009KT 10SM BKN075 13/06 A3010 RMK AO2 SLP199 T01330056 10156 20122 58008=
201605181053 METAR KBLI 181053Z AUTO 17008KT 10SM BKN090 13/07 A3011 RMK AO2 SLP203 T01330072=
201605180953 METAR KBLI 180953Z AUTO 18004KT 10SM CLR 14/07 A3011 RMK AO2 SLP203 T01390072=
201605180853 METAR KBLI 180853Z AUTO 15007KT 10SM OVC085 15/08 A3012 RMK AO2 SLP207 T01500083 57010=
201605180753 METAR KBLI 180753Z AUTO 16008KT 10SM OVC085 14/10 A3013 RMK AO2 SLP210 T01440100 402060111=
201605180653 METAR KBLI 180653Z AUTO 16008KT 10SM CLR 16/09 A3015 RMK AO2 SLP214 T01560089=
201605180553 METAR KBLI 180553Z AUTO 16006KT 10SM OVC120 16/10 A3015 RMK AO2 SLP217 T01560100 10206 20144 58004=
201605180453 METAR KBLI 180453Z 16007KT 10SM FEW120 15/10 A3016 RMK AO2 SLP220 T01500100=
201605180353 METAR KBLI 180353Z 17007KT 10SM CLR 16/11 A3016 RMK AO2 SLP220 T01560106=
201605180253 METAR KBLI 180253Z 16005KT 10SM CLR 17/11 A3017 RMK AO2 SLP222 T01670111 56015=
201605180153 METAR KBLI 180153Z 16006KT 10SM CLR 18/11 A3018 RMK AO2 SLP225 T01830111=
201605180053 METAR KBLI 180053Z 17004KT 10SM CLR 19/10 A3019 RMK AO2 SLP230 T01940100=
201605172353 METAR KBLI 172353Z VRB03KT 10SM CLR 20/11 A3021 RMK AO2 SLP237 T02000111 10200 20161 58014=
201605172253 METAR KBLI 172253Z 19004KT 10SM CLR 19/10 A3023 RMK AO2 SLP243 T01890100=
201605172153 METAR KBLI 172153Z VRB04KT 10SM CLR 19/11 A3025 RMK AO2 SLP249 T01890106=
201605172053 METAR KBLI 172053Z 15007KT 10SM CLR 19/11 A3025 RMK AO2 SLP251 T01890111 58009=
201605171953 METAR KBLI 171953Z VRB04KT 10SM CLR 18/10 A3027 RMK AO2 SLP256 T01780100=
201605171853 METAR KBLI 171853Z VRB06KT 10SM CLR 17/09 A3028 RMK AO2 SLP260 T01720094=
201605171753 METAR KBLI 171753Z 21004KT 10SM CLR 16/09 A3028 RMK AO2 SLP260 T01610089 10161 20111 56004=
201605171653 METAR KBLI 171653Z 20006KT 10SM FEW036 14/09 A3028 RMK AO2 SLP261 T01440089=
201605171553 METAR KBLI 171553Z VRB03KT 10SM SCT036 14/09 A3029 RMK AO2 SLP262 T01390094=
201605171453 METAR KBLI 171453Z 17005KT 10SM SCT037 13/08 A3029 RMK AO2 SLP265 T01330083 53008=
201605171353 METAR KBLI 171353Z 17007KT 10SM SCT033 12/09 A3028 RMK AO2 SLP261 T01220089=
201605171253 METAR KBLI 171253Z AUTO 19003KT 10SM OVC033 11/08 A3027 RMK AO2 SLP259 T01110083=
201605171153 METAR KBLI 171153Z AUTO 16004KT 10SM OVC033 12/08 A3027 RMK AO2 SLP257 T01170083 10139 20117 51001=
201605171053 METAR KBLI 171053Z AUTO 17006KT 10SM SCT034 12/08 A3027 RMK AO2 SLP256 T01170083=
201605170953 METAR KBLI 170953Z AUTO 15003KT 10SM OVC033 12/08 A3027 RMK AO2 SLP255 T01220078=
201605170853 METAR KBLI 170853Z AUTO 16005KT 10SM BKN033 13/08 A3027 RMK AO2 SLP255 T01330083 50003=
201605170753 METAR KBLI 170753Z AUTO 15007KT 10SM OVC033 13/08 A3027 RMK AO2 SLP256 T01330078 401670122=
201605170653 METAR KBLI 170653Z AUTO 16007KT 10SM OVC033 14/08 A3026 RMK AO2 SLP253 T01390078=
201605170553 METAR KBLI 170553Z AUTO 16007KT 10SM OVC033 14/08 A3026 RMK AO2 SLP252 T01390078 10156 20133 51010=
201605170453 METAR KBLI 170453Z AUTO 17006KT 10SM OVC033 13/08 A3025 RMK AO2 SLP250 T01330083=
201605170353 METAR KBLI 170353Z 16006KT 10SM OVC031 14/08 A3024 RMK AO2 SLP247 T01440083=
201605170253 METAR KBLI 170253Z 17007KT 10SM OVC038 14/09 A3023 RMK AO2 SLP243 T01440089 55003=
201605170153 METAR KBLI 170153Z 16006KT 10SM OVC050 16/08 A3023 RMK AO2 SLP243 T01560083=
201605170053 METAR KBLI 170053Z 16006KT 10SM OVC050 16/08 A3024 RMK AO2 SLP245 T01560083=
201605162353 METAR KBLI 162353Z 18005KT 10SM OVC050 16/08 A3024 RMK AO2 SLP246 T01560083 10167 20144 51008=
201605162253 METAR KBLI 162253Z 17009KT 10SM SCT050 OVC070 16/09 A3023 RMK AO2 SLP243 T01560089=
201605162153 METAR KBLI 162153Z 17010KT 10SM BKN036 OVC048 17/08 A3023 RMK AO2 SLP244 T01670083=
201605162053 METAR KBLI 162053Z 16010KT 10SM OVC033 16/08 A3021 RMK AO2 SLP237 T01610083 51008=
201605161953 METAR KBLI 161953Z 16009KT 10SM OVC037 16/08 A3021 RMK AO2 SLP237 T01560083=
201605161853 METAR KBLI 161853Z 17009KT 10SM FEW033 BKN050 OVC065 15/09 A3021 RMK AO2 SLP237 T01500094=
201605161753 METAR KBLI 161753Z 17012G16KT 10SM BKN050 OVC060 14/09 A3019 RMK AO2 SLP230 T01440094 10144 20122 51013=
201605161653 METAR KBLI 161653Z 17009KT 10SM OVC050 13/09 A3018 RMK AO2 SLP227 T01330089=
201605161553 METAR KBLI 161553Z 17009KT 10SM FEW049 BKN065 OVC090 13/08 A3017 RMK AO2 SLP222 T01280083=
201605161453 METAR KBLI 161453Z 17006G16KT 10SM OVC055 13/08 A3015 RMK AO2 SLP217 T01280078 53017=
201605161353 METAR KBLI 161353Z 15003KT 10SM FEW036 OVC065 12/08 A3013 RMK AO2 SLP210 T01220078=
201605161253 METAR KBLI 161253Z AUTO 15007KT 10SM OVC036 13/07 A3011 RMK AO2 SLP203 T01280072=
201605161153 METAR KBLI 161153Z AUTO 16007KT 10SM BKN036 OVC060 12/08 A3010 RMK AO2 SLP200 T01220078 10133 20122 53008=
201605161053 METAR KBLI 161053Z AUTO 14007KT 10SM SCT048 OVC060 13/08 A3008 RMK AO2 SLP194 T01280078=
201605160953 METAR KBLI 160953Z AUTO 16008KT 10SM OVC048 13/08 A3008 RMK AO2 SLP194 T01280078=
201605160853 METAR KBLI 160853Z AUTO 17009KT 10SM OVC040 13/08 A3008 RMK AO2 SLP192 T01280078 53008=
201605160753 METAR KBLI 160753Z AUTO 17009KT 140V200 10SM OVC030 13/08 A3006 RMK AO2 SLP186 T01280078 401500122=
201605160653 METAR KBLI 160653Z AUTO 16010G21KT 10SM OVC032 13/08 A3006 RMK AO2 SLP186 T01280083=
201605160553 METAR KBLI 160553Z AUTO 16007KT 10SM BKN037 OVC060 13/08 A3005 RMK AO2 SLP183 T01280083 10150 20128 52011=
201605160453 METAR KBLI 160453Z 16008KT 10SM FEW039 OVC060 13/08 A3004 RMK AO2 SLP180 T01330083=
201605160353 METAR KBLI 160353Z 16008KT 10SM OVC060 13/09 A3003 RMK AO2 SLP176 T01330089=
201605160253 METAR KBLI 160253Z 17012G19KT 10SM FEW034 OVC050 13/09 A3002 RMK AO2 SLP173 T01330089 53006=
201605160153 METAR KBLI 160153Z 16014G19KT 10SM BKN047 14/09 A3001 RMK AO2 SLP170 T01390094=
201605160053 METAR KBLI 160053Z 16011G18KT 10SM OVC031 14/09 A3001 RMK AO2 SLP168 T01440094=
201605160036 SPECI KBLI 160036Z 16011KT 10SM OVC031 14/09 A3000 RMK AO2 T01440094=
201605152353 METAR KBLI 152353Z 16012G20KT 10SM OVC027 14/09 A3000 RMK AO2 SLP167 T01440094 10150 20133 52002=
201605152253 METAR KBLI 152253Z 16009G17KT 10SM OVC024 14/10 A3000 RMK AO2 SLP166 T01440100=
201605152153 METAR KBLI 152153Z 17010G19KT 10SM BKN028 OVC039 14/10 A3000 RMK AO2 SLP165 T01440100=
201605152149 SPECI KBLI 152149Z 16010G19KT 10SM BKN028 OVC039 14/10 A3000 RMK AO2=
201605152053 METAR KBLI 152053Z 16011G20KT 10SM OVC042 14/09 A2999 RMK AO2 SLP163 T01440094 53005=
201605152026 SPECI KBLI 152026Z 16010KT 10SM FEW015 SCT030 OVC040 14/09 A2999 RMK AO2 T01440094=
201605152000 SPECI KBLI 152000Z 16009KT 10SM OVC015 14/10 A2999 RMK AO2 T01440100=
201605151953 METAR KBLI 151953Z 16009KT 10SM SCT014 BKN035 OVC042 14/10 A2999 RMK AO2 SLP161 T01440100=
201605151902 SPECI KBLI 151902Z 17009G17KT 10SM BKN013 BKN035 OVC042 13/10 A2998 RMK AO2 T01330100=
201605151853 METAR KBLI 151853Z 16012G17KT 10SM SCT013 BKN035 OVC042 14/10 A2998 RMK AO2 SLP160 T01390100=
201605151819 SPECI KBLI 151819Z 16012KT 10SM SCT017 BKN032 OVC040 14/09 A2998 RMK AO2 T01390094=
201605151753 METAR KBLI 151753Z 17010KT 10SM OVC018 13/09 A2998 RMK AO2 SLP158 T01330094 10133 20122 51004=
201605151653 METAR KBLI 151653Z 15010KT 10SM SCT018 OVC028 13/10 A2997 RMK AO2 SLP157 T01330100=
201605151605 METAR KBLI 151605Z AUTO 17012KT 10SM BKN016 BKN027 13/09 A2997=
201605151553 METAR KBLI 151553Z 16009KT 10SM BKN016 OVC029 13/09 A2997 RMK AO2 SLP156 T01330094=
201605151453 METAR KBLI 151453Z 16010KT 10SM OVC016 13/09 A2996 RMK AO2 SLP154 T01280094 53005=
201605151353 METAR KBLI 151353Z 16010KT 10SM OVC016 13/09 A2996 RMK AO2 SLP151 T01280094=
201605151313 SPECI KBLI 151313Z AUTO 16010KT 10SM OVC015 12/09 A2995 RMK AO2 T01220094=
201605151253 METAR KBLI 151253Z AUTO 16010KT 10SM OVC012 12/09 A2995 RMK AO2 SLP150 T01220094=
201605151230 SPECI KBLI 151230Z AUTO 17009G15KT 10SM OVC010 12/10 A2995 RMK AO2 T01220100=
201605151153 METAR KBLI 151153Z AUTO 17006G15KT 10SM OVC009 12/10 A2995 RMK AO2 SLP149 T01220100 10128 20122 55001=
201605151053 METAR KBLI 151053Z AUTO 16010KT 130V190 10SM OVC007 12/10 A2995 RMK AO2 SLP148 T01220100=
201605150953 METAR KBLI 150953Z AUTO 16006KT 10SM OVC006 12/11 A2995 RMK AO2 SLP150 T01220106=
201605150914 SPECI KBLI 150914Z AUTO 17007KT 10SM BKN006 OVC013 12/11 A2995 RMK AO2 T01220106=
201605150905 SPECI KBLI 150905Z AUTO VRB06KT 10SM SCT006 OVC013 12/11 A2995 RMK AO2 T01220106=
201605150853 METAR KBLI 150853Z AUTO 17007KT 10SM OVC013 12/11 A2995 RMK AO2 SLP150 T01220106 55003=
201605150753 METAR KBLI 150753Z AUTO 17009KT 10SM BKN013 OVC075 12/11 A2995 RMK AO2 SLP148 T01220106 401720100=
201605150737 SPECI KBLI 150737Z AUTO 17011KT 10SM BKN013 OVC075 12/11 A2995 RMK AO2 T01220106=
201605150653 METAR KBLI 150653Z AUTO 17010KT 10SM FEW120 13/11 A2996 RMK AO2 SLP150 T01280106=
201605150553 METAR KBLI 150553Z AUTO 17010KT 10SM OVC080 13/11 A2996 RMK AO2 SLP152 T01280106 10144 20128 51007=
201605150509 SPECI KBLI 150509Z 17009G15KT 10SM FEW008 BKN080 OVC120 13/11 A2996 RMK AO2 T01330106=
201605150501 SPECI KBLI 150501Z 17010KT 10SM SCT014 BKN080 OVC120 13/11 A2996 RMK AO2 T01330106=
201605150453 METAR KBLI 150453Z 16008G16KT 10SM BKN015 OVC080 13/11 A2996 RMK AO2 SLP150 T01330106=
201605150400 SPECI KBLI 150400Z 16008G17KT 10SM OVC015 14/11 A2995 RMK AO2 T01390106=
201605150353 METAR KBLI 150353Z 16009G18KT 10SM SCT015 OVC080 14/11 A2995 RMK AO2 SLP147 T01390106=
201605150348 SPECI KBLI 150348Z 16010G18KT 10SM SCT015 OVC080 14/11 A2994 RMK AO2=
201605150330 SPECI KBLI 150330Z 15009KT 10SM OVC014 14/11 A2994 RMK AO2 T01390106=
201605150300 SPECI KBLI 150300Z 16009KT 10SM BKN015 14/11 A2994 RMK AO2 T01390106=
201605150253 METAR KBLI 150253Z 15010KT 10SM FEW015 BKN080 14/11 A2994 RMK AO2 SLP145 T01390106 51003=
201605150250 SPECI KBLI 150250Z 16009KT 10SM FEW015 BKN080 14/11 A2994 RMK AO2=
201605150240 SPECI KBLI 150240Z 16010G16KT 10SM BKN014 BKN080 14/11 A2994 RMK AO2 T01390106=
201605150153 METAR KBLI 150153Z 17009G16KT 10SM FEW120 14/11 A2994 RMK AO2 SLP144 T01440106=
201605150053 METAR KBLI 150053Z 17009KT 10SM FEW110 14/11 A2993 RMK AO2 SLP143 T01440106=
201605142353 METAR KBLI 142353Z 16012KT 10SM BKN110 14/11 A2993 RMK AO2 SLP142 60000 T01440106 10172 20144 51005=
201605142253 METAR KBLI 142253Z 17011KT 10SM CLR 15/11 A2993 RMK AO2 SLP141 T01500106=
201605142153 METAR KBLI 142153Z 18012G18KT 10SM CLR 15/11 A2992 RMK AO2 SLP139 T01500106=
201605142053 METAR KBLI 142053Z 17011G20KT 10SM CLR 16/11 A2992 RMK AO2 SLP136 60000 T01560106 53003=
201605141953 METAR KBLI 141953Z 17014G21KT 10SM CLR 17/11 A2991 RMK AO2 SLP134 T01670106=
201605141853 METAR KBLI 141853Z 17015G21KT 10SM BKN120 16/11 A2991 RMK AO2 RAB24E33 SLP133 P0000 T01610111=
201605141753 METAR KBLI 141753Z 18010G18KT 140V210 10SM BKN120 16/11 A2991 RMK AO2 SLP133 T01610111 10167 20100 51002=
201605141653 METAR KBLI 141653Z 17008G17KT 10SM BKN120 17/12 A2991 RMK AO2 SLP133 T01670117=
201605141553 METAR KBLI 141553Z 17007KT 10SM CLR 16/11 A2990 RMK AO2 SLP132 T01610111=
201605141453 METAR KBLI 141453Z 18008KT 10SM CLR 15/12 A2990 RMK AO2 SLP131 T01500117 51003=
201605141353 METAR KBLI 141353Z AUTO 16003KT 10SM CLR 14/13 A2989 RMK AO2 SLP129 T01390128=
201605141253 METAR KBLI 141253Z AUTO 16003KT 10SM CLR 11/11 A2990 RMK AO2 SLP131 T01110106=
201605141153 METAR KBLI 141153Z AUTO 00000KT 10SM CLR 11/10 A2989 RMK AO2 SLP128 T01110100 10150 20100 53003=
201605141053 METAR KBLI 141053Z AUTO 00000KT 10SM CLR 11/09 A2989 RMK AO2 SLP126 T01060094=
201605140953 METAR KBLI 140953Z AUTO 00000KT 10SM CLR 12/11 A2988 RMK AO2 SLP125 T01170106=
201605140853 METAR KBLI 140853Z AUTO 00000KT 10SM CLR 13/11 A2988 RMK AO2 SLP124 T01280111 58004=
201605140753 METAR KBLI 140753Z AUTO 00000KT 10SM CLR 13/11 A2990 RMK AO2 SLP129 T01280111 402670083=
201605140653 METAR KBLI 140653Z AUTO 00000KT 10SM CLR 13/11 A2990 RMK AO2 SLP128 T01330111=
201605140553 METAR KBLI 140553Z AUTO 00000KT 10SM BKN110 15/11 A2989 RMK AO2 SLP127 T01500111 10250 20150 55000=
201605140453 METAR KBLI 140453Z 00000KT 10SM CLR 16/12 A2989 RMK AO2 SLP126 T01610117=
201605140353 METAR KBLI 140353Z 00000KT 10SM CLR 18/12 A2989 RMK AO2 SLP125 T01780122=
201605140253 METAR KBLI 140253Z 00000KT 10SM BKN120 21/13 A2989 RMK AO2 SLP129 T02060128 56010=
201605140153 METAR KBLI 140153Z 00000KT 10SM CLR 23/11 A2990 RMK AO2 SLP130 T02280111=
201605140053 METAR KBLI 140053Z 18003KT 10SM CLR 23/11 A2991 RMK AO2 SLP134 T02330106=
201605132353 METAR KBLI 132353Z 27008KT 10SM CLR 24/11 A2992 RMK AO2 SLP138 T02440106 10267 20228 58013=
201605132253 METAR KBLI 132253Z 27008KT 10SM CLR 24/11 A2994 RMK AO2 SLP143 T02390106=
201605132153 METAR KBLI 132153Z 27007KT 10SM CLR 24/12 A2995 RMK AO2 SLP148 T02390117=
201605132053 METAR KBLI 132053Z 36008KT 10SM CLR 27/09 A2996 RMK AO2 SLP152 T02670094 56014=
201605131953 METAR KBLI 131953Z 02012KT 10SM CLR 26/09 A2998 RMK AO2 SLP156 T02560094=
201605131853 METAR KBLI 131853Z 01011KT 10SM CLR 24/08 A2999 RMK AO2 SLP161 T02390078=
201605131753 METAR KBLI 131753Z 03010G17KT 10SM CLR 23/08 A3001 RMK AO2 SLP166 T02330078 10233 20083 58003=
201605131653 METAR KBLI 131653Z 03008KT 10SM CLR 22/07 A3001 RMK AO2 SLP168 T02170072=
201605131553 METAR KBLI 131553Z 04008KT 10SM CLR 19/08 A3001 RMK AO2 SLP169 T01940078=
201605131453 METAR KBLI 131453Z 18003KT 10SM CLR 15/11 A3001 RMK AO2 SLP169 T01500111 58001=
201605131353 METAR KBLI 131353Z 00000KT 10SM CLR 11/10 A3002 RMK AO2 SLP170 T01110100=
201605131253 METAR KBLI 131253Z AUTO 00000KT 10SM CLR 09/08 A3002 RMK AO2 SLP171 T00940083=
201605131153 METAR KBLI 131153Z AUTO 00000KT 10SM CLR 09/08 A3002 RMK AO2 SLP170 7//// T00890078 10128 20083 57004=
201605131053 METAR KBLI 131053Z AUTO 00000KT 6SM BR CLR 09/08 A3002 RMK AO2 SLP171 T00890078=
201605130953 METAR KBLI 130953Z AUTO 00000KT 10SM CLR 09/08 A3003 RMK AO2 SLP174 T00940083=
201605130853 METAR KBLI 130853Z AUTO 00000KT 9SM CLR 10/09 A3003 RMK AO2 SLP174 T01000089 50000=
201605130753 METAR KBLI 130753Z AUTO 00000KT 10SM CLR 11/09 A3003 RMK AO2 SLP175 T01060094 402170067=
201605130653 METAR KBLI 130653Z AUTO VRB03KT 10SM CLR 12/10 A3004 RMK AO2 SLP177 T01170100=
201605130553 METAR KBLI 130553Z AUTO 00000KT 10SM CLR 13/11 A3003 RMK AO2 SLP174 T01280106 10211 20122 53007=
201605130453 METAR KBLI 130453Z 00000KT 10SM CLR 13/10 A3002 RMK AO2 SLP174 T01330100=
201605130353 METAR KBLI 130353Z 00000KT 10SM CLR 15/10 A3001 RMK AO2 SLP168 T01500100=
201605130253 METAR KBLI 130253Z 00000KT 10SM CLR 18/10 A3001 RMK AO2 SLP167 T01780100 58004=
201605130153 METAR KBLI 130153Z 28005KT 10SM CLR 21/09 A3001 RMK AO2 SLP168 T02060094=
201605130053 METAR KBLI 130053Z 18004KT 10SM CLR 21/09 A3002 RMK AO2 SLP171 T02060089=
201605122353 METAR KBLI 122353Z 17007KT 10SM CLR 21/12 A3002 RMK AO2 SLP171 T02110117 10217 20150 55000=
201605122253 METAR KBLI 122253Z VRB04KT 10SM CLR 21/10 A3002 RMK AO2 SLP171 T02060100=
201605122153 METAR KBLI 122153Z 18007KT 10SM CLR 19/08 A3001 RMK AO2 SLP171 T01940083=
201605122053 METAR KBLI 122053Z 18008KT 10SM CLR 19/10 A3002 RMK AO2 SLP171 T01890100 50001=
201605121953 METAR KBLI 121953Z 16010KT 10SM CLR 18/10 A3002 RMK AO2 SLP171 T01830100=
201605121853 METAR KBLI 121853Z 16008KT 10SM CLR 17/10 A3002 RMK AO2 SLP171 T01670100=
201605121753 METAR KBLI 121753Z 19004KT 10SM CLR 16/11 A3001 RMK AO2 SLP169 6//// T01610106 10161 20067=
201605121653 METAR KBLI 121653Z 16007KT 10SM 14/10 A3001 RMK AO2 SLP169 T01390100 $=
201605121553 METAR KBLI 121553Z 21005KT 10SM CLR 13/09 A3001 RMK AO2 SLP168 T01280094 $=
201605121453 METAR KBLI 121453Z 17003KT 10SM CLR 13/11 A3000 RMK AO2 SLP164 T01330106 53010 $=
201605121353 METAR KBLI 121353Z AUTO 20003KT 10SM CLR 11/09 A2998 RMK AO2 SLP159 T01060094 $=
201605121253 METAR KBLI 121253Z AUTO 00000KT 3SM BR FEW006 08/07 A2997 RMK AO2 SLP156 T00780067 $=
201605121240 SPECI KBLI 121240Z AUTO 00000KT 2SM BR FEW006 07/07 A2997 RMK AO2 VIS 1V5 T00720072 $=
201605121153 METAR KBLI 121153Z AUTO 00000KT 8SM CLR 08/07 A2997 RMK AO2 SLP155 T00780072 10128 20067 51006 $=
201605121053 METAR KBLI 121053Z AUTO 00000KT 10SM CLR 08/07 A2996 RMK AO2 SLP152 T00780067 $=
201605120953 METAR KBLI 120953Z AUTO 00000KT 10SM CLR 08/07 A2996 RMK AO2 SLP151 T00830072 $=
201605120853 METAR KBLI 120853Z AUTO 00000KT 10SM CLR 09/07 A2995 RMK AO2 SLP147 T00940072 53002 $=
201605120753 METAR KBLI 120753Z AUTO 00000KT 10SM CLR 11/08 A2994 RMK AO2 SLP145 T01110078 402280094 $=
201605120653 METAR KBLI 120653Z AUTO 00000KT 10SM CLR 12/08 A2994 RMK AO2 SLP144 T01220078 $=
201605120553 METAR KBLI 120553Z AUTO 00000KT 10SM BKN110 13/08 A2994 RMK AO2 SLP146 60000 T01330083 10211 20133 56001 $=
201605120453 METAR KBLI 120453Z AUTO 35003KT 10SM BKN110 15/08 A2995 RMK AO2 SLP147 T01500083 $=
201605120353 METAR KBLI 120353Z 36005KT 10SM OVC100 16/08 A2994 RMK AO2 RAB0257E13 SLP144 P0000 T01560083 $=
201605120253 METAR KBLI 120253Z 01006KT 10SM OVC100 17/08 A2995 RMK AO2 SLP146 T01670078 56015 $=
201605120153 METAR KBLI 120153Z 01007KT 10SM BKN110 18/08 A2996 RMK AO2 SLP151 T01780078 $=
201605120053 METAR KBLI 120053Z 02008KT 10SM BKN110 19/08 A2997 RMK AO2 SLP156 T01940078 $=
201605112353 METAR KBLI 112353Z 03007KT 10SM BKN110 20/08 A2999 RMK AO2 SLP162 T02000078 10228 20183 56014 $=
201605112253 METAR KBLI 112253Z 33005KT 10SM CLR 22/06 A3001 RMK AO2 SLP166 T02170061 $=
201605112153 METAR KBLI 112153Z 00000KT 10SM BKN120 22/06 A3002 RMK AO2 SLP171 T02170061 $=
201605112053 METAR KBLI 112053Z 00000KT 10SM OVC110 21/06 A3003 RMK AO2 SLP176 T02060056 58013 $=
201605111953 METAR KBLI 111953Z 00000KT 10SM BKN120 20/06 A3005 RMK AO2 SLP181 T02000056 $=
201605111853 METAR KBLI 111853Z 15005KT 10SM SCT110 20/07 A3006 RMK AO2 SLP185 T02000072 $=
201605111753 METAR KBLI 111753Z VRB04KT 10SM FEW110 18/09 A3007 RMK AO2 SLP189 T01830089 10183 20128 58011 $=
201605111653 METAR KBLI 111653Z 14003KT 10SM CLR 17/08 A3009 RMK AO2 SLP195 T01670083 $=
201605111553 METAR KBLI 111553Z 17008KT 10SM CLR 14/08 A3010 RMK AO2 SLP198 T01440083 $=
201605111453 METAR KBLI 111453Z 17005KT 10SM CLR 14/08 A3011 RMK AO2 SLP201 T01390078 56003 $=
201605111353 METAR KBLI 111353Z 18005KT 10SM CLR 13/08 A3011 RMK AO2 SLP202 T01330078 $=
201605111253 METAR KBLI 111253Z AUTO 18005KT 10SM CLR 13/07 A3011 RMK AO2 SLP202 T01330072 $=
201605111153 METAR KBLI 111153Z AUTO 17011KT 10SM CLR 14/06 A3011 RMK AO2 SLP204 T01440056 10150 20094 58003 $=
201605111053 METAR KBLI 111053Z AUTO 17009KT 10SM CLR 14/06 A3012 RMK AO2 SLP205 T01440061 $=
201605110953 METAR KBLI 110953Z AUTO 00000KT 10SM CLR 10/07 A3013 RMK AO2 SLP208 T01000067 $=
201605110853 METAR KBLI 110853Z AUTO 00000KT 10SM CLR 12/07 A3012 RMK AO2 SLP207 T01220067 56007 $=
201605110753 METAR KBLI 110753Z AUTO 00000KT 10SM CLR 12/06 A3013 RMK AO2 SLP208 T01220061 402170044 $=
201605110653 METAR KBLI 110653Z AUTO 15003KT 10SM CLR 13/06 A3013 RMK AO2 SLP210 T01280061 $=
201605110553 METAR KBLI 110553Z AUTO 15004KT 10SM CLR 13/07 A3014 RMK AO2 SLP214 T01280072 10217 20128 58002 $=
201605110453 METAR KBLI 110453Z 00000KT 10SM CLR 13/08 A3015 RMK AO2 SLP216 T01280078=
201605110353 METAR KBLI 110353Z 19004KT 10SM CLR 16/08 A3015 RMK AO2 SLP215 T01560083=
201605110253 METAR KBLI 110253Z 24004KT 10SM CLR 18/08 A3015 RMK AO2 SLP216 T01830078 56010=
201605110153 METAR KBLI 110153Z 00000KT 10SM CLR 21/06 A3015 RMK AO2 SLP217 T02110061=
201605110053 METAR KBLI 110053Z 21003KT 10SM CLR 22/04 A3016 RMK AO2 SLP221 T02170039=
201605102353 METAR KBLI 102353Z 25005KT 10SM CLR 21/03 A3018 RMK AO2 SLP227 T02110028 10217 20178 58015=
201605102253 METAR KBLI 102253Z VRB05KT 10SM CLR 21/03 A3020 RMK AO2 SLP233 T02110033=
201605102153 METAR KBLI 102153Z 28007KT 10SM CLR 21/06 A3022 RMK AO2 SLP239 T02060056=
201605102053 METAR KBLI 102053Z 26007KT 220V300 10SM CLR 20/06 A3023 RMK AO2 SLP242 T02000056 58011=
201605101953 METAR KBLI 101953Z 27005KT 10SM CLR 21/09 A3023 RMK AO2 SLP245 T02060089=
201605101853 METAR KBLI 101853Z 27007KT 230V300 10SM CLR 18/09 A3025 RMK AO2 SLP251 T01830089=
201605101753 METAR KBLI 101753Z VRB04KT 10SM CLR 18/08 A3026 RMK AO2 SLP253 T01830078 10183 20044 58003=
201605101653 METAR KBLI 101653Z VRB04KT 10SM CLR 16/06 A3027 RMK AO2 SLP258 T01560061=
201605101553 METAR KBLI 101553Z 00000KT 10SM CLR 13/07 A3027 RMK AO2 SLP258 T01330072=
201605101453 METAR KBLI 101453Z 00000KT 10SM CLR 11/06 A3027 RMK AO2 SLP257 T01110061 51012=
201605101353 METAR KBLI 101353Z 00000KT 10SM CLR 08/06 A3026 RMK AO2 SLP254 T00780056=
201605101253 METAR KBLI 101253Z 00000KT 10SM CLR 04/03 A3025 RMK AO2 SLP249 T00440033=
201605101153 METAR KBLI 101153Z 00000KT 10SM CLR 05/03 A3023 RMK AO2 SLP245 T00500033 10117 20044 51009=
201605101053 METAR KBLI 101053Z 00000KT 10SM CLR 07/04 A3023 RMK AO2 SLP243 T00670039=
201605100953 METAR KBLI 100953Z 00000KT 10SM CLR 07/04 A3022 RMK AO2 SLP239 T00670039=
201605100853 METAR KBLI 100853Z 00000KT 10SM CLR 07/05 A3021 RMK AO2 SLP236 T00720050 53017=
201605100753 METAR KBLI 100753Z 36003KT 10SM CLR 07/05 A3019 RMK AO2 SLP230 T00670050 401830050=
201605100653 METAR KBLI 100653Z 15004KT 10SM CLR 11/07 A3017 RMK AO2 SLP224 T01060072=
201605100553 METAR KBLI 100553Z 16005KT 10SM CLR 12/07 A3016 RMK AO2 SLP219 T01170072 10183 20106 53015=
201605100453 METAR KBLI 100453Z 00000KT 10SM CLR 12/07 A3014 RMK AO2 SLP214 T01170072=
201605100353 METAR KBLI 100353Z 00000KT 10SM CLR 12/07 A3012 RMK AO2 SLP207 T01220072=
201605100253 METAR KBLI 100253Z 17003KT 10SM CLR 15/08 A3011 RMK AO2 SLP204 T01500078 53004=
201605100153 METAR KBLI 100153Z 00000KT 10SM CLR 18/06 A3011 RMK AO2 SLP202 T01780056=
201605100053 METAR KBLI 100053Z VRB03KT 10SM CLR 18/05 A3010 RMK AO2 SLP199 T01780050=
201605092353 METAR KBLI 092353Z 24004KT 10SM CLR 18/04 A3010 RMK AO2 SLP199 T01780039 10178 20139 56002=
201605092253 METAR KBLI 092253Z VRB05KT 10SM CLR 17/06 A3010 RMK AO2 SLP200 T01720056=
201605092153 METAR KBLI 092153Z 29006KT 10SM CLR 17/07 A3010 RMK AO2 SLP200 T01720072=
201605092053 METAR KBLI 092053Z 20006KT 10SM CLR 17/08 A3011 RMK AO2 SLP202 T01670083 53000=
201605091953 METAR KBLI 091953Z VRB04KT 10SM CLR 16/08 A3010 RMK AO2 SLP201 T01560083=
201605091853 METAR KBLI 091853Z 28007KT 10SM SCT022 15/08 A3011 RMK AO2 SLP202 T01500083=
201605091828 SPECI KBLI 091828Z 00000KT 10SM BKN022 14/08 A3011 RMK AO2 T01390078=
201605091753 METAR KBLI 091753Z 00000KT 10SM SCT022 13/08 A3011 RMK AO2 SLP201 T01330078 10139 20050 51007=
201605091653 METAR KBLI 091653Z VRB04KT 10SM SCT019 14/08 A3010 RMK AO2 SLP199 T01390083=
201605091553 METAR KBLI 091553Z 00000KT 10SM SCT019 12/08 A3009 RMK AO2 SLP198 T01220083=
201605091453 METAR KBLI 091453Z 00000KT 10SM SCT019 10/08 A3008 RMK AO2 SLP194 T01000078 53015=
201605091353 METAR KBLI 091353Z 00000KT 10SM FEW019 08/07 A3006 RMK AO2 SLP188 T00830072=
201605091319 SPECI KBLI 091319Z AUTO 00000KT 10SM SCT019 07/06 A3005 RMK AO2 T00670061=
201605091253 METAR KBLI 091253Z AUTO 00000KT 10SM BKN019 07/06 A3005 RMK AO2 SLP181 T00720061=
201605091241 SPECI KBLI 091241Z AUTO 00000KT 10SM BKN019 06/06 A3004 RMK AO2 T00610056=
201605091153 METAR KBLI 091153Z AUTO 00000KT 10SM CLR 06/05 A3004 RMK AO2 SLP179 60000 70002 T00610050 10106 20056 51017=
201605091053 METAR KBLI 091053Z AUTO 00000KT 10SM CLR 06/05 A3003 RMK AO2 SLP174 T00610050=
201605090953 METAR KBLI 090953Z AUTO 35003KT 10SM CLR 07/06 A3001 RMK AO2 SLP170 T00720061=
201605090853 METAR KBLI 090853Z AUTO 00000KT 10SM CLR 08/07 A2999 RMK AO2 SLP162 60000 T00780067 53007=
201605090753 METAR KBLI 090753Z AUTO 03004KT 10SM FEW100 08/07 A2997 RMK AO2 SLP155 T00830067 401670083=
201605090653 METAR KBLI 090653Z AUTO 35003KT 10SM FEW060 SCT080 BKN110 09/07 A2995 RMK AO2 RAB32E47 PRESRR SLP149 P0000 T00940067=
201605090553 METAR KBLI 090553Z AUTO 03004KT 10SM SCT034 BKN060 OVC090 10/07 A2997 RMK AO2 SLP155 60002 T01000072 10161 20089 53022=
201605090453 METAR KBLI 090453Z 31004KT 10SM CLR 10/07 A2994 RMK AO2 SLP144 T01000067=
201605090353 METAR KBLI 090353Z 16006KT 10SM CLR 12/08 A2991 RMK AO2 SLP135 T01220078=
201605090253 METAR KBLI 090253Z 18005KT 10SM SCT085 13/08 A2990 RMK AO2 RAE0159 SLP132 P0000 60002 T01330083 55005=
201605090153 METAR KBLI 090153Z 30005KT 10SM -RA FEW019 BKN030 BKN060 12/08 A2990 RMK AO2 RAB20 SLP131 P0002 T01220083=
201605090053 METAR KBLI 090053Z 20004KT 10SM BKN070 15/07 A2990 RMK AO2 SLP132 T01500072=
201605082353 METAR KBLI 082353Z 22007KT 10SM FEW075 16/07 A2992 RMK AO2 SLP138 T01560072 10167 20139 58013=
201605082253 METAR KBLI 082253Z 17009KT 10SM CLR 16/08 A2993 RMK AO2 SLP143 T01610078=
201605082153 METAR KBLI 082153Z 17008KT 10SM CLR 16/07 A2995 RMK AO2 SLP147 T01560072=
201605082053 METAR KBLI 082053Z 17008G16KT 10SM CLR 16/06 A2995 RMK AO2 SLP150 T01560061 58004=
201605081953 METAR KBLI 081953Z VRB06KT 10SM BKN043 16/05 A2997 RMK AO2 SLP154 T01610050=
201605081853 METAR KBLI 081853Z 00000KT 10SM OVC043 14/04 A2997 RMK AO2 SLP156 T01440044=
201605081753 METAR KBLI 081753Z 04003KT 10SM OVC042 14/04 A2997 RMK AO2 SLP154 T01390039 10144 20111 50003=
201605081653 METAR KBLI 081653Z 34006KT 10SM BKN044 14/05 A2997 RMK AO2 SLP154 T01390050=
201605081553 METAR KBLI 081553Z 31004KT 10SM OVC041 12/04 A2997 RMK AO2 SLP156 T01220044=
201605081453 METAR KBLI 081453Z 30004KT 10SM OVC039 12/06 A2996 RMK AO2 SLP150 T01170056 53007=
201605081353 METAR KBLI 081353Z 00000KT 10SM OVC040 11/07 A2995 RMK AO2 SLP148 T01110067=
201605081253 METAR KBLI 081253Z AUTO 29004KT 10SM BKN050 11/06 A2994 RMK AO2 SLP144 T01110056=
201605081153 METAR KBLI 081153Z AUTO VRB05KT 10SM OVC049 12/05 A2994 RMK AO2 SLP143 T01220050 10139 20106 53014=
201605081053 METAR KBLI 081053Z AUTO VRB05KT 10SM FEW013 BKN047 BKN055 12/09 A2993 RMK AO2 SLP140 T01170094=
201605080953 METAR KBLI 080953Z AUTO 00000KT 10SM OVC055 11/07 A2990 RMK AO2 SLP132 T01060072=
201605080853 METAR KBLI 080853Z AUTO 12003KT 10SM CLR 12/07 A2990 RMK AO2 SLP129 T01220067 51016=
201605080753 METAR KBLI 080753Z AUTO VRB03KT 10SM CLR 13/09 A2988 RMK AO2 SLP125 T01280089 402330067=
201605080653 METAR KBLI 080653Z AUTO 18008KT 10SM CLR 13/10 A2987 RMK AO2 SLP122 T01280100=
201605080553 METAR KBLI 080553Z AUTO 18009G17KT 10SM CLR 14/11 A2985 RMK AO2 SLP113 T01390106 10211 20139 53016=
201605080453 METAR KBLI 080453Z 18005KT 10SM CLR 16/10 A2983 RMK AO2 SLP105 T01610100=
201605080353 METAR KBLI 080353Z 17012G17KT 10SM CLR 16/11 A2981 RMK AO2 SLP101 T01560106=
201605080253 METAR KBLI 080253Z 17009KT 10SM CLR 17/10 A2980 RMK AO2 SLP097 T01670100 58007=
201605080153 METAR KBLI 080153Z 22007KT 10SM CLR 18/08 A2982 RMK AO2 SLP105 T01830083=
201605080053 METAR KBLI 080053Z 21007KT 10SM CLR 21/09 A2982 RMK AO2 SLP102 T02060094=
201605072353 METAR KBLI 072353Z 17008G15KT 10SM CLR 20/09 A2982 RMK AO2 SLP104 T02000094 10233 20178 58017=
201605072253 METAR KBLI 072253Z 16009KT 10SM CLR 21/11 A2985 RMK AO2 SLP114 T02110106=
201605072153 METAR KBLI 072153Z VRB05KT 10SM CLR 23/11 A2986 RMK AO2 SLP116 T02280111=
201605072053 METAR KBLI 072053Z VRB03KT 10SM CLR 22/10 A2987 RMK AO2 SLP122 T02220100 58013=
201605071953 METAR KBLI 071953Z VRB03KT 10SM CLR 21/10 A2990 RMK AO2 SLP130 T02060100=
201605071853 METAR KBLI 071853Z 25006KT 10SM CLR 20/09 A2991 RMK AO2 SLP133 T02000094=
201605071753 METAR KBLI 071753Z VRB04KT 10SM CLR 18/12 A2991 RMK AO2 SLP134 T01830122 10189 20067 57015=
201605071653 METAR KBLI 071653Z VRB03KT 10SM CLR 18/10 A2992 RMK AO2 SLP138 T01830100=
201605071600 METAR KBLI NIL=
201605071553 METAR KBLI 071553Z 00000KT 10SM CLR 16/10 A2994 RMK AO2 SLP145 T01560100=
201605071453 METAR KBLI 071453Z 00000KT 10SM CLR 14/11 A2995 RMK AO2 SLP149 T01390106 56001=
201605071353 METAR KBLI 071353Z 00000KT 10SM CLR 09/09 A2996 RMK AO2 SLP150 T00940089=
201605071253 METAR KBLI 071253Z AUTO 00000KT 10SM CLR 08/07 A2995 RMK AO2 SLP147 T00830067=
201605071153 METAR KBLI 071153Z AUTO 00000KT 10SM CLR 08/07 A2996 RMK AO2 SLP150 T00830067 10128 20083 58001=
201605071053 METAR KBLI 071053Z AUTO 00000KT 10SM CLR 09/07 A2996 RMK AO2 SLP151 T00940072=
201605070953 METAR KBLI 070953Z AUTO 00000KT 10SM CLR 10/07 A2997 RMK AO2 SLP153 T01000072=
201605070853 METAR KBLI 070853Z AUTO 00000KT 10SM CLR 11/08 A2996 RMK AO2 SLP152 T01110078 56002=
201605070753 METAR KBLI 070753Z AUTO 00000KT 10SM CLR 11/08 A2996 RMK AO2 SLP152 T01110078 402390056=
201605070653 METAR KBLI 070653Z AUTO 00000KT 10SM CLR 12/08 A2997 RMK AO2 SLP153 T01170078=
201605070553 METAR KBLI 070553Z AUTO 00000KT 10SM CLR 13/08 A2997 RMK AO2 SLP154 T01280083 10239 20117 55000=
201605070453 METAR KBLI 070453Z 16003KT 10SM CLR 13/09 A2997 RMK AO2 SLP154 T01280094=
201605070353 METAR KBLI 070353Z 00000KT 10SM CLR 14/10 A2997 RMK AO2 SLP154 T01440100=
201605070253 METAR KBLI 070253Z 16003KT 10SM CLR 17/11 A2997 RMK AO2 SLP154 T01720106 56013=
201605070153 METAR KBLI 070153Z 29003KT 10SM CLR 22/07 A2998 RMK AO2 SLP157 T02220067=
201605070053 METAR KBLI 070053Z 00000KT 10SM CLR 23/09 A3000 RMK AO2 SLP163 T02280089=
201605062353 METAR KBLI 062353Z VRB05KT 10SM CLR 24/06 A3001 RMK AO2 SLP168 T02390061 10239 20200 58014=
201605062253 METAR KBLI 062253Z 29009KT 10SM CLR 24/05 A3003 RMK AO2 SLP173 T02390050=
201605062153 METAR KBLI 062153Z 29009G18KT 10SM CLR 23/05 A3004 RMK AO2 SLP177 T02280050=
201605062053 METAR KBLI 062053Z 29008KT 10SM CLR 22/07 A3005 RMK AO2 SLP182 T02220067 58010=
201605061953 METAR KBLI 061953Z 29011KT 10SM CLR 21/07 A3006 RMK AO2 SLP185 T02110067=
201605061853 METAR KBLI 061853Z 27010KT 10SM CLR 20/10 A3007 RMK AO2 SLP189 T02000100=
201605061753 METAR KBLI 061753Z 29007KT 250V310 10SM CLR 20/09 A3008 RMK AO2 SLP192 T02000089 10200 20056 58002=
201605061653 METAR KBLI 061653Z 30006KT 10SM CLR 19/06 A3009 RMK AO2 SLP194 T01940061=
201605061553 METAR KBLI 061553Z VRB06KT 10SM CLR 17/06 A3008 RMK AO2 SLP193 T01720061=
201605061453 METAR KBLI 061453Z 32005KT 10SM CLR 14/08 A3009 RMK AO2 SLP195 T01390078 58002=
201605061353 METAR KBLI 061353Z 32004KT 10SM CLR 09/08 A3010 RMK AO2 SLP198 T00940078=
201605061253 METAR KBLI 061253Z AUTO 00000KT 10SM CLR 06/04 A3010 RMK AO2 SLP199 T00560044=
201605061153 METAR KBLI 061153Z AUTO 00000KT 6SM BR CLR 07/06 A3009 RMK AO2 SLP197 T00670056 10111 20061 53006=
201605061053 METAR KBLI 061053Z AUTO 00000KT 10SM CLR 07/06 A3009 RMK AO2 SLP195 T00670056=
201605060953 METAR KBLI 060953Z AUTO 00000KT 10SM CLR 07/07 A3008 RMK AO2 SLP192 T00720067=
201605060853 METAR KBLI 060853Z AUTO 00000KT 10SM CLR 09/07 A3007 RMK AO2 SLP191 T00890072 53011=
201605060753 METAR KBLI 060753Z AUTO 00000KT 10SM CLR 09/08 A3006 RMK AO2 SLP185 T00940078 401940067=
201605060653 METAR KBLI 060653Z AUTO 00000KT 10SM CLR 10/08 A3004 RMK AO2 SLP180 T01000078=
201605060553 METAR KBLI 060553Z AUTO 00000KT 10SM CLR 11/08 A3004 RMK AO2 SLP180 T01060083 10189 20100 50008=
201605060453 METAR KBLI 060453Z 00000KT 10SM CLR 12/09 A3005 RMK AO2 SLP182 T01170089=
201605060353 METAR KBLI 060353Z 00000KT 10SM CLR 12/09 A3003 RMK AO2 SLP176 T01170089=
201605060253 METAR KBLI 060253Z 17003KT 10SM CLR 15/09 A3002 RMK AO2 SLP172 T01500094 53001=
201605060153 METAR KBLI 060153Z 17005KT 10SM CLR 17/09 A3001 RMK AO2 SLP169 T01670094=
201605060053 METAR KBLI 060053Z 00000KT 10SM CLR 18/10 A3001 RMK AO2 SLP169 T01830100=
201605052353 METAR KBLI 052353Z 22004KT 10SM CLR 18/09 A3001 RMK AO2 SLP171 T01830094 10194 20144 55006=
201605052253 METAR KBLI 052253Z 25007KT 210V270 10SM CLR 18/09 A3001 RMK AO2 SLP168 T01830094=
201605052153 METAR KBLI 052153Z 27005KT 10SM CLR 18/09 A3002 RMK AO2 SLP173 T01830094=
201605052053 METAR KBLI 052053Z 28008KT 10SM CLR 17/10 A3003 RMK AO2 SLP177 T01720100 58005=
201605051953 METAR KBLI 051953Z 25007KT 200V310 10SM FEW030 17/11 A3004 RMK AO2 SLP178 T01720106=
201605051935 SPECI KBLI 051935Z 27007KT 10SM FEW023 SCT029 17/11 A3004 RMK AO2 T01670106=
201605051853 METAR KBLI 051853Z VRB06KT 10SM BKN021 BKN029 BKN090 16/11 A3004 RMK AO2 SLP181 T01610106=
201605051753 METAR KBLI 051753Z 29007KT 10SM BKN018 OVC090 14/10 A3005 RMK AO2 SLP182 T01440100 10144 20067 50003=
201605051740 SPECI KBLI 051740Z 30005KT 10SM FEW018 SCT023 OVC090 14/09 A3005 RMK AO2 T01440094=
201605051653 METAR KBLI 051653Z 00000KT 10SM BKN025 BKN033 OVC085 13/09 A3005 RMK AO2 SLP184 T01280094=
201605051627 SPECI KBLI 051627Z 00000KT 10SM SCT023 OVC085 12/09 A3005 RMK AO2 T01220094=
201605051608 SPECI KBLI 051608Z 00000KT 10SM BKN023 BKN060 OVC090 12/09 A3005 RMK AO2 T01170094=
201605051553 METAR KBLI 051553Z 34004KT 10SM FEW023 BKN060 OVC090 11/09 A3005 RMK AO2 SLP181 T01110094=
201605051453 METAR KBLI 051453Z 00000KT 10SM FEW090 09/08 A3004 RMK AO2 SLP179 T00890078 53005=
201605051353 METAR KBLI 051353Z 00000KT 10SM CLR 08/07 A3003 RMK AO2 SLP177 T00780067=
201605051253 METAR KBLI 051253Z AUTO 00000KT 10SM CLR 07/07 A3003 RMK AO2 SLP175 T00720067=
201605051153 METAR KBLI 051153Z AUTO 00000KT 10SM CLR 08/07 A3002 RMK AO2 SLP174 70010 T00830067 10117 20078 50004=
201605051053 METAR KBLI 051053Z AUTO 00000KT 10SM CLR 09/07 A3002 RMK AO2 SLP174 T00890072=
201605050953 METAR KBLI 050953Z AUTO 00000KT 10SM BKN090 09/07 A3002 RMK AO2 SLP172 T00940072=
201605050853 METAR KBLI 050853Z AUTO 00000KT 10SM SCT085 10/08 A3001 RMK AO2 SLP170 T01000078 50003=
201605050753 METAR KBLI 050753Z AUTO 00000KT 10SM SCT038 OVC085 11/08 A3002 RMK AO2 SLP171 T01110078 401610100=
201605050653 METAR KBLI 050653Z AUTO 00000KT 10SM OVC080 11/08 A3001 RMK AO2 SLP168 T01110083=
201605050553 METAR KBLI 050553Z AUTO 16003KT 10SM OVC080 11/08 A3000 RMK AO2 SLP167 60000 T01110083 10150 20111 51005=
201605050453 METAR KBLI 050453Z 00000KT 10SM OVC085 12/08 A3000 RMK AO2 SLP166 T01170078=
201605050353 METAR KBLI 050353Z 00000KT 10SM OVC085 12/08 A2999 RMK AO2 SLP164 T01220078=
201605050253 METAR KBLI 050253Z 27004KT 10SM OVC085 13/08 A2999 RMK AO2 SLP162 60000 T01330078 56008=
201605050153 METAR KBLI 050153Z 28004KT 10SM FEW080 FEW120 13/08 A2999 RMK AO2 SLP162 T01330078=
201605050053 METAR KBLI 050053Z 25005KT 10SM FEW038 SCT120 14/08 A3000 RMK AO2 RAB22E34 SLP166 P0000 T01440083=
201605042353 METAR KBLI 042353Z VRB05KT 10SM SCT110 15/08 A3001 RMK AO2 SLP170 T01500083 10161 20111 56016=
201605042253 METAR KBLI 042253Z VRB04KT 10SM CLR 15/08 A3003 RMK AO2 SLP175 T01500083=
201605042153 METAR KBLI 042153Z 27006KT 10SM BKN090 16/08 A3004 RMK AO2 SLP179 T01610078=
201605042053 METAR KBLI 042053Z 29005KT 10SM BKN085 14/08 A3006 RMK AO2 SLP186 T01390083 58008=
201605041953 METAR KBLI 041953Z VRB05KT 10SM FEW019 OVC085 12/08 A3007 RMK AO2 SLP190 T01220078=
201605041903 SPECI KBLI 041903Z 29005KT 10SM SCT016 OVC080 12/08 A3008 RMK AO2 T01170083=
201605041857 SPECI KBLI 041857Z 29005KT 10SM BKN013 BKN018 OVC080 12/09 A3009 RMK AO2 T01170089=
201605041853 METAR KBLI 041853Z 29003KT 10SM SCT011 OVC075 12/08 A3008 RMK AO2 SLP194 T01170083=
201605041753 METAR KBLI 041753Z VRB04KT 10SM FEW011 SCT037 OVC080 11/09 A3008 RMK AO2 RAE49 SLP194 P0001 60010 T01060089 10122 20100 57001=
201605041706 SPECI KBLI 041706Z 30004KT 10SM -RA SCT012 BKN060 OVC085 10/08 A3008 RMK AO2 P0000 T01000083=
201605041653 METAR KBLI 041653Z 29003KT 5SM -RA BR BKN012 BKN060 OVC075 10/08 A3008 RMK AO2 SLP194 P0006 T01000083=
201605041645 SPECI KBLI 041645Z VRB04KT 7SM -RA BKN014 OVC060 10/08 A3008 RMK AO2 P0005 T01000083=
201605041606 SPECI KBLI 041606Z VRB03KT 7SM -RA SCT015 BKN040 OVC050 10/08 A3009 RMK AO2 P0001 T01000083=
201605041553 METAR KBLI 041553Z VRB04KT 6SM -RA BR BKN015 OVC048 10/08 A3008 RMK AO2 SLP194 P0002 T01000083=
201605041548 SPECI KBLI 041548Z 28004KT 8SM -RA BKN015 OVC048 10/08 A3008 RMK AO2 P0001=
201605041453 METAR KBLI 041453Z VRB03KT 10SM -RA OVC013 11/08 A3008 RMK AO2 SLP193 P0001 60001 T01060083 51006=
201605041407 SPECI KBLI 041407Z VRB03KT 10SM -RA OVC014 11/08 A3008 RMK AO2 P0000 T01060083=
201605041353 METAR KBLI 041353Z 28006KT 10SM -RA OVC015 11/08 A3008 RMK AO2 RAB1259 SLP192 P0000 T01060083=
201605041253 METAR KBLI 041253Z AUTO 31007KT 10SM BKN015 OVC039 12/08 A3008 RMK AO2 SLP190 T01170083=
201605041219 SPECI KBLI 041219Z AUTO 30010KT 10SM BKN015 OVC041 12/09 A3007 RMK AO2 T01170089=
201605041153 METAR KBLI 041153Z AUTO 30008KT 10SM OVC013 12/09 A3006 RMK AO2 SLP186 T01220094 10144 20122 58007=
201605041053 METAR KBLI 041053Z AUTO 29004KT 10SM OVC011 12/10 A3007 RMK AO2 SLP190 T01220100=
201605041014 SPECI KBLI 041014Z AUTO 30004KT 10SM BKN014 OVC050 13/10 A3008 RMK AO2 T01330100=
201605040953 METAR KBLI 040953Z AUTO 27004KT 10SM OVC048 13/10 A3008 RMK AO2 SLP192 T01330100=
201605040910 SPECI KBLI 040910Z AUTO 16006KT 10SM SCT015 OVC048 13/10 A3008 RMK AO2 T01330100=
201605040853 METAR KBLI 040853Z AUTO 17005KT 10SM BKN014 OVC048 13/10 A3009 RMK AO2 SLP194 T01330100 51003=
201605040825 SPECI KBLI 040825Z AUTO 17006KT 10SM BKN016 OVC046 13/10 A3008 RMK AO2 T01330100=
201605040753 METAR KBLI 040753Z AUTO 18006KT 10SM OVC045 13/10 A3008 RMK AO2 SLP193 T01330100 402060133=
201605040653 METAR KBLI 040653Z AUTO 17010KT 10SM OVC044 13/09 A3008 RMK AO2 SLP191 T01330094=
201605040553 METAR KBLI 040553Z AUTO 17007KT 10SM SCT047 OVC065 14/11 A3008 RMK AO2 SLP190 T01440106 10200 20144 51012=
201605040453 METAR KBLI 040453Z 18005KT 10SM FEW043 15/11 A3007 RMK AO2 SLP187 T01500111=
201605040400 METAR KBLI NIL=
201605040353 METAR KBLI 040353Z 00000KT 10SM CLR 16/12 A3006 RMK AO2 SLP184 T01560117=
201605040253 METAR KBLI 040253Z 18003KT 10SM BKN070 17/11 A3004 RMK AO2 SLP178 T01670111 51004=
201605040153 METAR KBLI 040153Z 17003KT 10SM CLR 18/11 A3003 RMK AO2 SLP175 T01780111=
201605040053 METAR KBLI 040053Z 17008KT 10SM CLR 18/11 A3004 RMK AO2 SLP178 T01780111=
201605032353 METAR KBLI 032353Z 21005KT 10SM CLR 20/11 A3003 RMK AO2 SLP174 60000 T02000106 10206 20172 57001=
201605032253 METAR KBLI 032253Z 26004KT 10SM SCT120 20/11 A3002 RMK AO2 RAE04 SLP173 P0000 T02000106=
201605032153 METAR KBLI 032153Z VRB04KT 10SM -RA FEW060 FEW095 BKN120 18/11 A3004 RMK AO2 RAB53 SLP177 P0000 T01830111=
201605032053 METAR KBLI 032053Z VRB04KT 10SM CLR 19/11 A3003 RMK AO2 SLP175 T01890106 52002=
201605031953 METAR KBLI 031953Z 18007KT 10SM CLR 19/11 A3003 RMK AO2 SLP174 T01890106=
201605031853 METAR KBLI 031853Z 16008G14KT 10SM CLR 18/11 A3003 RMK AO2 SLP176 T01830111=
201605031753 METAR KBLI 031753Z 17008G15KT 10SM CLR 17/11 A3003 RMK AO2 SLP174 60000 T01720111 10172 20133 51008=
201605031653 METAR KBLI 031653Z 16009G15KT 10SM CLR 16/11 A3002 RMK AO2 RAB22E32 SLP171 P0000 T01610111=
201605031553 METAR KBLI 031553Z 17006KT 10SM FEW120 16/11 A3002 RMK AO2 SLP170 T01610111=
201605031453 METAR KBLI 031453Z 19007KT 10SM CLR 15/10 A3000 RMK AO2 SLP165 60000 T01500100 51014=
201605031353 METAR KBLI 031353Z 18007KT 10SM FEW110 15/10 A2999 RMK AO2 RAB08E22 SLP161 P0000 T01500100=
201605031253 METAR KBLI 031253Z AUTO 19004KT 10SM SCT120 14/10 A2998 RMK AO2 SLP158 T01440100=
201605031153 METAR KBLI 031153Z AUTO 12005KT 10SM FEW120 13/10 A2996 RMK AO2 SLP151 60000 T01330100 10194 20133 50006=
201605031053 METAR KBLI 031053Z AUTO 19006KT 10SM CLR 16/10 A2997 RMK AO2 SLP152 T01610100=
201605030953 METAR KBLI 030953Z AUTO 18006KT 10SM CLR 16/11 A2995 RMK AO2 SLP148 T01610111=
201605030853 METAR KBLI 030853Z AUTO 17007KT 10SM CLR 17/11 A2995 RMK AO2 SLP145 60000 T01720111 55001=
201605030753 METAR KBLI 030753Z AUTO 00000KT 10SM CLR 18/09 A2993 RMK AO2 SLP140 T01780094 403000072=
201605030653 METAR KBLI 030653Z AUTO 02003KT 10SM BKN110 17/13 A2994 RMK AO2 RAB00E34 SLP143 P0000 T01720128=
201605030553 METAR KBLI 030553Z 21007KT 10SM OVC110 19/12 A2995 RMK AO2 PRESRR SLP146 T01890117 10294 20167 53024=
201605030453 METAR KBLI 030453Z 17005KT 10SM CLR 19/10 A2992 RMK AO2 SLP136 T01940100=
201605030353 METAR KBLI 030353Z 16003KT 10SM CLR 21/09 A2990 RMK AO2 SLP128 T02060094=
201605030253 METAR KBLI 030253Z 22005KT 10SM CLR 24/14 A2988 RMK AO2 SLP121 T02390139 55003=
201605030153 METAR KBLI 030153Z 00000KT 10SM CLR 26/11 A2986 RMK AO2 SLP118 T02610111=
201605030053 METAR KBLI 030053Z 18003KT 10SM CLR 29/06 A2987 RMK AO2 SLP119 T02890056=
201605022353 METAR KBLI 022353Z 18005KT 10SM CLR 29/07 A2988 RMK AO2 SLP124 T02940067 10300 20233 56018=
201605022253 METAR KBLI 022253Z 00000KT 10SM CLR 29/11 A2990 RMK AO2 SLP129 T02890106=
201605022153 METAR KBLI 022153Z 03006KT 10SM CLR 28/11 A2992 RMK AO2 SLP136 T02830106=
201605022053 METAR KBLI 022053Z 34003KT 10SM CLR 28/09 A2994 RMK AO2 SLP142 T02780089 58012=
201605021953 METAR KBLI 021953Z 01005KT 10SM CLR 27/11 A2996 RMK AO2 SLP149 T02670106=
201605021853 METAR KBLI 021853Z 32005KT 10SM CLR 25/11 A2996 RMK AO2 SLP152 T02500111=
201605021753 METAR KBLI 021753Z 36006KT 10SM CLR 23/11 A2997 RMK AO2 SLP155 T02330111 10239 20072 58001=
201605021653 METAR KBLI 021653Z 01006KT 10SM CLR 22/10 A2997 RMK AO2 SLP155 T02170100=
201605021553 METAR KBLI 021553Z 02005KT 10SM CLR 18/09 A2998 RMK AO2 SLP157 T01830094=
201605021453 METAR KBLI 021453Z 00000KT 10SM CLR 14/09 A2998 RMK AO2 SLP156 T01440089 53004=
201605021355 SPECI KBLI 021355Z 00000KT 10SM CLR 11/08 A2997 RMK AO2 T01110078=
201605021353 METAR KBLI 021353Z AUTO 00000KT 10SM CLR 11/08 A2997 RMK AO2 SLP153 T01060078=
201605021253 METAR KBLI 021253Z AUTO 00000KT 10SM CLR 08/07 A2996 RMK AO2 SLP152 T00830067=
201605021153 METAR KBLI 021153Z AUTO 00000KT 10SM CLR 08/07 A2996 RMK AO2 SLP152 T00780067 10128 20078 51005=
201605021053 METAR KBLI 021053Z AUTO 00000KT 10SM CLR 09/08 A2996 RMK AO2 SLP150 T00940078=
201605020953 METAR KBLI 020953Z AUTO 00000KT 10SM CLR 10/08 A2995 RMK AO2 SLP149 T01000078=
201605020853 METAR KBLI 020853Z AUTO 00000KT 10SM CLR 10/08 A2995 RMK AO2 SLP147 T01000083 50000=
201605020753 METAR KBLI 020753Z AUTO 00000KT 10SM CLR 11/09 A2995 RMK AO2 SLP148 T01060089 402220044=
201605020653 METAR KBLI 020653Z AUTO 00000KT 10SM CLR 12/09 A2994 RMK AO2 SLP146 T01170094=
201605020553 METAR KBLI 020553Z 00000KT 10SM CLR 13/10 A2995 RMK AO2 SLP147 T01280100 10222 20122 55000=
201605020453 METAR KBLI 020453Z 00000KT 10SM CLR 14/10 A2994 RMK AO2 SLP146 T01390100=
201605020353 METAR KBLI 020353Z 00000KT 10SM CLR 15/09 A2995 RMK AO2 SLP147 T01500094=
201605020253 METAR KBLI 020253Z 00000KT 10SM CLR 18/09 A2995 RMK AO2 SLP148 T01780094 56019=
201605020153 METAR KBLI 020153Z 00000KT 10SM CLR 21/08 A2996 RMK AO2 SLP151 T02110083=
201605020053 METAR KBLI 020053Z VRB03KT 10SM CLR 22/08 A2998 RMK AO2 SLP159 T02170083=
201605012353 METAR KBLI 012353Z 31003KT 10SM CLR 21/09 A3000 RMK AO2 SLP167 T02110089 10217 20183 58026=
201605012253 METAR KBLI 012253Z 31007KT 10SM CLR 21/10 A3003 RMK AO2 SLP177 T02110100=
201605012153 METAR KBLI 012153Z 27008KT 10SM CLR 20/10 A3006 RMK AO2 SLP186 T02000100=
201605012053 METAR KBLI 012053Z VRB06KT 10SM CLR 20/11 A3008 RMK AO2 SLP193 T02000111 58028=
201605011953 METAR KBLI 011953Z 26007KT 10SM CLR 21/10 A3011 RMK AO2 SLP202 T02060100=
201605011853 METAR KBLI 011853Z 04008KT 10SM CLR 21/07 A3014 RMK AO2 SLP212 T02060072=
201605011753 METAR KBLI 011753Z 34007KT 10SM CLR 18/08 A3016 RMK AO2 SLP222 T01830078 10183 20044 58021=
201605011653 METAR KBLI 011653Z 02008KT 10SM CLR 17/08 A3019 RMK AO2 SLP230 T01670078=
201605011553 METAR KBLI 011553Z 36005KT 10SM CLR 14/08 A3021 RMK AO2 SLP238 T01390083=
201605011453 METAR KBLI 011453Z 03003KT 10SM CLR 10/08 A3023 RMK AO2 SLP243 T01000078 56008=
201605011353 METAR KBLI 011353Z 00000KT 10SM CLR 07/06 A3023 RMK AO2 SLP246 T00670061=
201605011253 METAR KBLI 011253Z AUTO 00000KT 9SM CLR 06/04 A3024 RMK AO2 SLP247 T00560044=
201605011153 METAR KBLI 011153Z AUTO 00000KT 10SM CLR 06/05 A3025 RMK AO2 SLP251 T00610050 10100 20056 56009=
201605011053 METAR KBLI 011053Z AUTO 00000KT 10SM CLR 06/06 A3026 RMK AO2 SLP254 T00610056=
201605010953 METAR KBLI 010953Z AUTO 00000KT 10SM CLR 07/06 A3027 RMK AO2 SLP256 T00720061=
201605010853 METAR KBLI 010853Z AUTO 00000KT 10SM CLR 08/07 A3028 RMK AO2 SLP260 T00780067 56007=
201605010753 METAR KBLI 010753Z AUTO 00000KT 10SM CLR 08/07 A3029 RMK AO2 SLP263 T00780067 401830056=
201605010653 METAR KBLI 010653Z AUTO 00000KT 10SM CLR 09/07 A3029 RMK AO2 SLP264 T00940072=
201605010553 METAR KBLI 010553Z AUTO 00000KT 10SM CLR 09/07 A3030 RMK AO2 SLP267 T00940072 10183 20089 50001=
201605010453 METAR KBLI 010453Z 00000KT 10SM CLR 11/07 A3030 RMK AO2 SLP269 T01060072=
201605010353 METAR KBLI 010353Z 00000KT 10SM CLR 11/07 A3030 RMK AO2 SLP267 T01110072=
201605010253 METAR KBLI 010253Z 00000KT 10SM CLR 14/07 A3030 RMK AO2 SLP267 T01390072 56008=
201605010153 METAR KBLI 010153Z 25004KT 10SM CLR 17/06 A3030 RMK AO2 SLP268 T01720056=
201605010053 METAR KBLI 010053Z 00000KT 10SM CLR 18/05 A3031 RMK AO2 SLP272 T01780050=

# No short TAF reports from KBLI in databse.

###################################
#  large TAF from KBLI
###################################
201605312334 TAF KBLI 312334Z 0100/0124 28005KT P6SM BKN250 FM010400 18004KT
                       P6SM BKN250 FM011200 18008KT P6SM SCT150
                       BKN250 FM012200 18008KT P6SM BKN070 OVC120=
201605311735 TAF KBLI 311735Z 3118/0118 00000KT P6SM SCT250 FM312100 28005KT
                       P6SM SCT250 FM010200 18004KT P6SM SCT250
                       FM011200 18008KT P6SM SCT100 BKN200=
201605311120 TAF KBLI 311120Z 3112/0112 00000KT P6SM BKN250 FM311900 25005KT
                       P6SM BKN250 FM010200 18004KT P6SM BKN250=
201605310522 TAF KBLI 310522Z 3106/0106 00000KT P6SM SCT250 FM311900 27005KT
                       P6SM SCT250=
201605302338 TAF KBLI 302338Z 3100/3124 29004KT P6SM SCT250 FM310400 VRB03KT
                       P6SM SKC FM311900 31006KT P6SM SKC=
201605301726 TAF KBLI 301726Z 3018/3118 29004KT P6SM SCT250 FM310400 VRB03KT
                       P6SM SKC=
201605301120 TAF KBLI 301120Z 3012/3112 VRB03KT P6SM FEW250 FM301900 21006KT
                       P6SM SCT250 FM310300 VRB03KT P6SM SCT250=
201605300520 TAF KBLI 300520Z 3006/3106 17004KT P6SM FEW250 FM301900 21006KT
                       P6SM SCT250 FM310400 VRB03KT P6SM SCT250=
201605292320 TAF KBLI 292320Z 3000/3024 18008KT P6SM SCT060 FM300400 18004KT
                       P6SM SCT060 FM301400 VRB03KT P6SM SCT250
                       FM301900 22006KT P6SM SCT250=
201605291721 TAF KBLI 291721Z 2918/3018 17009KT P6SM SCT030 BKN070 FM300400
                       18004KT P6SM SCT060 FM301400 VRB03KT P6SM
                       SCT250=
201605291446 TAF AMD KBLI 291446Z 2915/3012 18007KT P6SM VCSH FEW008 BKN020
                       OVC050 FM291900 18008KT P6SM SCT030 BKN050
                       FM300300 17006KT P6SM SCT050=
201605291120 TAF KBLI 291120Z 2912/3012 17008KT P6SM VCSH SCT025 BKN035 OVC050
                       TEMPO 2912/2916 BKN025 OVC035 FM291900 18008KT
                       P6SM SCT030 BKN050 FM300300 17006KT P6SM
                       SCT050=
201605290520 TAF KBLI 290520Z 2906/3006 16008KT P6SM VCSH SCT025 OVC035 FM291000
                       17008KT P6SM VCSH OVC020 FM291600 18004KT
                       P6SM BKN025 OVC035 FM291900 18008KT P6SM
                       SCT025 BKN050 FM300300 17006KT P6SM SCT050=
201605282320 TAF KBLI 282320Z 2900/2924 15014KT P6SM -SHRA SCT024 OVC070 FM290400
                       16008KT P6SM VCSH OVC030 FM290800 18004KT
                       P6SM OVC015 FM291600 18004KT P6SM OVC025
                       FM291900 18008KT P6SM SCT025 SCT050=
201605281739 TAF KBLI 281739Z 2818/2918 14014G22KT P6SM -SHRA SCT016 BKN026
                       OVC050 FM282100 17014G22KT P6SM VCSH BKN030
                       BKN050 FM290400 16008KT P6SM OVC030 FM290800
                       18004KT P6SM OVC015 FM291600 18004KT P6SM
                       OVC025=
201605281120 TAF KBLI 281120Z 2812/2912 15010KT 6SM -RA BR SCT020 OVC040
                      TEMPO 2814/2818 5SM -RA BR OVC020 FM282100
                       17014G22KT P6SM VCSH BKN030 BKN050 FM290400
                       16012KT P6SM OVC030=
201605280812 TAF AMD KBLI 280812Z 2808/2906 15006KT P6SM OVC060 FM280900 16008KT
                       P6SM BKN030 OVC060
                      TEMPO 2809/2812 -RA OVC030 FM281200 15015G22KT
                       5SM -RA BR BKN030 OVC050 FM282200 17014KT
                       P6SM VCSH BKN030 BKN050 FM290300 16012KT
                       P6SM VCSH OVC030=
201605280524 TAF KBLI 280524Z 2806/2906 15006KT P6SM SCT030 OVC080 FM281000
                       16010KT P6SM BKN030 OVC060 FM281500 15015G22KT
                       5SM -RA BR BKN030 OVC050 FM282200 17014KT
                       P6SM VCSH BKN030 BKN050 FM290300 16012KT
                       P6SM VCSH OVC030=
201605272329 TAF KBLI 272329Z 2800/2824 17011G17KT P6SM BKN045 BKN060 OVC080
                       FM280500 15008KT P6SM OVC035 FM281000 16012KT
                       P6SM BKN030 OVC050
                      PROB30 2810/2815 -RA FM281500 15015G22KT
                       5SM -RA BR BKN030 OVC050 FM282200 17014KT
                       P6SM VCSH BKN030 BKN050=
201605271720 TAF KBLI 271720Z 2718/2818 15010KT P6SM FEW015 BKN060 OVC100 FM272000
                       17010KT P6SM BKN035 FM280500 15008KT P6SM
                       OVC035 FM281200 16012KT P6SM -RA BKN030
                       OVC050=
201605271123 TAF KBLI 271123Z 2712/2812 17006KT P6SM VCSH OVC035
                      TEMPO 2712/2715 -SHRA FM271500 17010KT P6SM
                       VCSH OVC030 FM272000 16010KT P6SM VCSH BKN035
                       FM280500 15008KT P6SM OVC030=
201605270520 TAF KBLI 270520Z 2706/2806 16008KT P6SM VCSH OVC045 FM270900 20007KT
                       P6SM VCSH OVC035 FM271200 17007KT P6SM VCSH
                       OVC030 FM271400 17010G17KT P6SM VCSH OVC035
                       FM272100 16010KT P6SM VCSH BKN035=
201605262332 TAF KBLI 262332Z 2700/2724 17009G17KT P6SM VCSH OVC050 FM270400
                       17008KT P6SM VCSH OVC040 FM270700 17008KT
                       P6SM VCSH OVC035 FM271100 17006KT P6SM VCSH
                       OVC030 FM271200 17007KT P6SM VCSH OVC025
                       FM271400 17010G17KT P6SM VCSH OVC035 FM272100
                       16010KT P6SM VCSH BKN035=
201605261736 TAF KBLI 261736Z 2618/2718 17011KT P6SM BKN026 OVC035 FM262000
                       17012G18KT P6SM SCT030 BKN040 FM270000 17014G20KT
                       P6SM VCSH BKN040 FM270400 17012G18KT P6SM
                       VCSH BKN025 OVC040 FM271200 17007KT P6SM
                       VCSH OVC025=
201605261120 TAF KBLI 261120Z 2612/2712 16010KT P6SM SCT025 BKN060
                      TEMPO 2612/2615 OVC025 FM261500 17010G20KT
                       P6SM OVC025 FM262000 18014G22KT P6SM -SHRA
                       OVC035 FM270700 17010KT P6SM -SHRA OVC025=
201605260913 TAF AMD KBLI 260913Z 2609/2706 17012G20KT P6SM BKN030 BKN060 FM261200
                       17012G20KT P6SM OVC025 FM262000 17014G22KT
                       P6SM -SHRA OVC035=
201605260520 TAF KBLI 260520Z 2606/2706 16012KT P6SM SCT035 FM260900 17012KT
                       P6SM OVC030 FM261100 17014G20KT P6SM OVC020
                       FM262100 17012G18KT P6SM -SHRA OVC035=
201605252334 TAF KBLI 252334Z 2600/2624 17012KT P6SM SKC FM260600 17012KT P6SM
                       OVC035 FM261000 17014G20KT P6SM OVC020 FM262300
                       17012G18KT P6SM OVC035=
201605251729 TAF KBLI 251729Z 2518/2618 18009KT P6SM OVC060 FM252000 17009KT
                       P6SM SCT030 BKN060 FM260600 17011KT P6SM
                       SCT025 BKN040 FM261100 17011G17KT P6SM BKN025
                       FM261700 17013G19KT P6SM SCT025 BKN040=
201605251120 TAF KBLI 251120Z 2512/2612 16004KT P6SM SKC FM252000 17010KT P6SM
                       SCT025 BKN040 FM260500 17012KT P6SM SCT025
                       OVC040=
201605250520 TAF KBLI 250520Z 2506/2606 16005KT P6SM OVC070 FM251200 17005KT
                       P6SM BKN020 BKN040 FM252000 17010KT P6SM
                       SCT025 BKN040=
201605242320 TAF KBLI 242320Z 2500/2524 18006KT P6SM SCT040 BKN070 FM250600
                       17005KT P6SM BKN040 FM251200 17005KT P6SM
                       BKN020 BKN040 FM252000 17010KT P6SM SCT025
                       BKN040=
201605241720 TAF KBLI 241720Z 2418/2518 18006KT P6SM BKN040 FM242200 18007KT
                       P6SM SCT040 FM250600 17005KT P6SM BKN040
                       FM251200 17005KT P6SM BKN020 BKN040=
201605241120 TAF KBLI 241120Z 2412/2512 17005KT P6SM SCT045 OVC060 FM241800
                       18006KT P6SM SCT040 FM250300 17005KT P6SM
                       BKN040=
201605240520 TAF KBLI 240520Z 2406/2506 VRB03KT P6SM OVC070 FM240900 16007KT
                       P6SM SCT020 OVC040 FM241800 18006KT P6SM
                       SCT040 FM250300 20004KT P6SM BKN040=
201605232320 TAF KBLI 232320Z 2400/2424 18005KT P6SM SCT050 OVC070 FM240900
                       16007KT P6SM SCT020 OVC040 FM241800 18006KT
                       P6SM SCT040=
201605231720 TAF KBLI 231720Z 2318/2418 18007KT P6SM VCSH SCT015 BKN040 BKN200
                       FM240000 19005KT P6SM SCT050 BKN100 FM240900
                       16007KT P6SM SCT020 BKN050=
201605231120 TAF KBLI 231120Z 2312/2412 17008KT P6SM SCT045 BKN060 FM231400
                       17010KT P6SM BKN030 OVC050 FM231800 18007KT
                       P6SM SCT030 OVC050 FM240000 19005KT P6SM
                       SCT050 BKN100=
201605230520 TAF KBLI 230520Z 2306/2406 17007KT P6SM FEW070 FM230800 17008KT
                       P6SM BKN050 OVC070 FM231400 17008KT P6SM
                       BKN030 OVC050 FM231800 18007KT P6SM SCT030
                       OVC050 FM240000 19005KT P6SM SCT050 BKN100=
201605222320 TAF KBLI 222320Z 2300/2324 16012G20KT P6SM BKN100 OVC200 FM230300
                       16010KT P6SM BKN080 FM230700 17008KT P6SM
                       OVC050 FM231400 17008KT P6SM BKN030 OVC050
                       PROB30 2314/2318 -SHRA FM231800 18007KT
                       P6SM SCT030 OVC050=
201605221731 TAF KBLI 221731Z 2218/2318 18012KT P6SM SCT025 BKN040 FM222000
                       18012G20KT P6SM SCT025 OVC040 FM230000 17010KT
                       P6SM BKN050 FM231200 17008KT P6SM BKN030
                       OVC050=
201605221120 TAF KBLI 221120Z 2212/2312 18006KT P6SM OVC060 FM221800 17012G20KT
                       P6SM SCT025 BKN050 FM230000 17009KT P6SM
                       SCT025 BKN050=
201605220520 TAF KBLI 220520Z 2206/2306 15010KT P6SM SCT060 OVC100 FM220800
                       17008KT P6SM BKN025 OVC050 FM221800 17010G18KT
                       P6SM SCT025 BKN050 FM230000 17009KT P6SM
                       SCT025 BKN050=
201605212324 TAF KBLI 212324Z 2200/2224 18010KT P6SM OVC080 FM220800 17008KT
                       P6SM BKN025 OVC050 FM221800 17010G18KT P6SM
                       SCT025 BKN050=
201605211732 TAF KBLI 211732Z 2118/2218 18006KT P6SM OVC080
                      TEMPO 2118/2120 -RA FM212000 18007KT P6SM
                       OVC120 FM220100 17011KT P6SM BKN050 OVC080
                       FM220900 17008KT P6SM BKN030 OVC050=
201605211512 TAF AMD KBLI 211512Z 2115/2212 18006KT P6SM OVC080
                      TEMPO 2115/2119 -RA FM211900 18007KT P6SM
                       OVC120 FM212300 17011KT P6SM SCT050 OVC100
                       FM220200 17011KT P6SM SCT025 OVC050=
201605211121 TAF KBLI 211121Z 2112/2212 VRB03KT P6SM BKN100 FM211500 20006KT
                       P6SM BKN025 OVC050 FM211800 17007KT P6SM
                       BKN025 OVC050
                      TEMPO 2123/2202 16013G22KT FM220200 17011KT
                       P6SM SCT025 OVC050=
201605210526 TAF KBLI 210526Z 2106/2206 VRB03KT P6SM BKN200 FM211000 VRB03KT
                       P6SM BKN100 FM211500 18006KT P6SM BKN025
                       OVC050 FM211800 17010KT P6SM BKN025 OVC050
                       TEMPO 2123/2202 16013G22KT FM220200 17011KT
                       P6SM SCT025 OVC050=
201605202320 TAF KBLI 202320Z 2100/2124 29009KT P6SM SCT040 SCT200 FM210400
                       00000KT P6SM BKN200 FM211000 00000KT P6SM
                       BKN100 FM211500 18006KT P6SM BKN025 OVC050
                       FM211800 17010KT P6SM BKN025 OVC050=
201605201728 TAF KBLI 201728Z 2018/2118 VRB03KT P6SM BKN050 FM202000 29007KT
                       P6SM SCT200 FM210300 00000KT P6SM BKN200
                       FM211000 00000KT P6SM BKN100 FM211700 18004KT
                       P6SM SCT040 BKN100=
201605201428 TAF AMD KBLI 201428Z 2014/2112 VRB03KT P6SM SCT035 BKN070 FM202000
                       25008KT P6SM SCT100 BKN200 FM210300 VRB03KT
                       P6SM SCT100 BKN200=
201605201137 TAF KBLI 201137Z 2012/2112 VRB03KT P6SM BKN035 OVC060 FM202000
                       25008KT P6SM SCT100 BKN200 FM210300 VRB03KT
                       P6SM SCT100 BKN200=
201605200542 TAF KBLI 200542Z 2006/2106 VRB03KT P6SM BKN050 FM201100 VRB03KT
                       P6SM SCT060 FM202100 25008KT P6SM SCT100
                       BKN200=
201605192342 TAF KBLI 192342Z 2000/2024 17005KT P6SM FEW035 BKN060 BKN200 FM201800
                       35004KT P6SM SCT040 BKN080 BKN200 FM202100
                       25008KT P6SM SCT080 BKN200=
201605192040 TAF AMD KBLI 192040Z 1921/2018 18013KT P6SM VCSH SCT028 BKN050
                       TEMPO 1921/1924 -SHRA BKN028 OVC050 FM200000
                       VRB04KT P6SM SCT035 BKN050=
201605191741 TAF KBLI 191741Z 1918/2018 18009KT P6SM VCSH BKN020 OVC040
                      TEMPO 1918/1920 -SHRA FM192000 18009KT P6SM
                       VCSH SCT028 BKN050
                      TEMPO 1920/1924 -SHRA BKN028 OVC050 FM200000
                       VRB04KT P6SM SCT035 BKN050=
201605191408 TAF AMD KBLI 191408Z 1914/2012 17005KT P6SM -SHRA SCT025 OVC040
                       TEMPO 1914/1918 BKN025 OVC040 FM191800 17009KT
                       P6SM VCSH SCT025 OVC040 FM192200 16008KT
                       P6SM SCT025 BKN040=
201605191130 TAF KBLI 191130Z 1912/2012 16008KT P6SM -SHRA SCT025 OVC040
                      TEMPO 1912/1916 BKN025 OVC040 FM192200 16008KT
                       P6SM SCT025 BKN040=
201605190535 TAF KBLI 190535Z 1906/2006 16008KT P6SM -SHRA BKN025 OVC040 FM192100
                       16008KT P6SM SCT025 BKN040=
201605190114 TAF AMD KBLI 190114Z 1901/1924 17010G18KT P6SM VCSH SCT030 OVC045
                       FM190300 17010KT P6SM -SHRA SCT015 OVC030
                       FM190600 16008KT P6SM -SHRA SCT015 OVC025
                       TEMPO 1910/1914 5SM -SHRA BR BKN012 OVC025
                       FM192000 17010KT P6SM -SHRA BKN030 OVC045=
201605182320 TAF KBLI 182320Z 1900/1924 17013KT P6SM VCSH SCT028 OVC050
                      TEMPO 1900/1903 17013G22KT -SHRA BKN028 OVC050
                       FM190300 17010KT P6SM -SHRA FEW020 OVC035
                       FM190600 17010KT P6SM -SHRA SCT012 OVC028
                       TEMPO 1910/1914 5SM -SHRA BR BKN012 OVC028
                       FM191800 17010KT P6SM -SHRA BKN028 OVC040=
201605182100 TAF AMD KBLI 182100Z 1821/1918 17013KT P6SM VCSH FEW035 OVC050
                       FM190000 17013G22KT P6SM -SHRA SCT020 OVC035
                       FM190600 17009KT P6SM -SHRA SCT012 OVC028
                       TEMPO 1914/1918 BKN012 OVC028=
201605181819 TAF AMD KBLI 181819Z 1818/1918 17013G22KT P6SM VCSH FEW035 OVC050
                       FM190000 17013G22KT P6SM -SHRA SCT020 OVC035
                       FM190600 17009KT P6SM -SHRA SCT012 OVC028
                       TEMPO 1914/1918 BKN012 OVC028=
201605181742 TAF KBLI 181742Z 1818/1918 17012KT P6SM VCSH FEW030 OVC050
                      TEMPO 1818/1821 -SHRA FM182100 17012KT P6SM
                       -SHRA BKN030 OVC050 FM190600 20008KT P6SM
                       SCT030 BKN045=
201605181414 TAF AMD KBLI 181414Z 1814/1912 17012KT P6SM VCSH OVC080 FM181800
                       17012KT P6SM VCSH FEW030 OVC050
                      TEMPO 1818/1821 -SHRA FM182100 17012KT P6SM
                       -SHRA BKN030 OVC050 FM190600 20008KT P6SM
                       SCT030 BKN045=
201605181135 TAF KBLI 181135Z 1812/1912 17008KT P6SM BKN100 BKN200 FM181600
                       17008KT P6SM BKN050 OVC080 FM181900 20012KT
                       P6SM -SHRA BKN030 OVC050 FM190600 20008KT
                       P6SM SCT030 BKN045=
201605180538 TAF KBLI 180538Z 1806/1906 17006KT P6SM SCT250 FM181600 17006KT
                       P6SM BKN060 OVC120 FM181900 20012KT P6SM
                       -SHRA BKN030 OVC050=
201605172344 TAF KBLI 172344Z 1800/1824 17006KT P6SM FEW120 OVC250 FM181200
                       17008KT P6SM FEW060 BKN120 BKN250 FM181800
                       17013KT P6SM SCT035 OVC060 FM182000 17010KT
                       P6SM -SHRA OVC035=
201605171722 TAF KBLI 171722Z 1718/1818 20007KT P6SM FEW040 BKN250 FM180300
                       17007KT P6SM FEW100 BKN250 FM181000 17007KT
                       P6SM BKN100 OVC250 FM181500 17011KT P6SM
                       BKN050 OVC100=
201605171121 TAF KBLI 171121Z 1712/1812 17006KT P6SM SCT035
                      TEMPO 1712/1715 BKN035 FM171500 17006KT P6SM
                       SCT035 BKN250 FM171800 19008KT P6SM BKN250=
201605170530 TAF KBLI 170530Z 1706/1806 17006KT P6SM OVC035 FM171500 17006KT
                       P6SM SCT035 BKN250 FM171800 19008KT P6SM
                       BKN250=
201605162340 TAF KBLI 162340Z 1700/1724 17009KT P6SM BKN070 BKN250 FM170300
                       17005KT P6SM SCT070 BKN250
                      TEMPO 1703/1707 BKN070 BKN250 FM171200 VRB03KT
                       P6SM SCT025 BKN250
                      TEMPO 1714/1718 BKN025 BKN250 FM171800 19007KT
                       P6SM BKN250=
201605162153 TAF AMD KBLI 162153Z 1622/1718 17009KT P6SM BKN035 OVC050 FM170300
                       17005KT P6SM SCT035 BKN050 BKN250=
201605161740 TAF KBLI 161740Z 1618/1718 17009KT P6SM FEW035 OVC050 FM162100
                       17009KT P6SM SCT050
                      TEMPO 1621/1624 BKN050 FM170300 17005KT P6SM
                       SCT050 BKN250=
201605161125 TAF KBLI 161125Z 1612/1712 14007KT P6SM SCT050 OVC060
                      TEMPO 1613/1617 OVC025 FM162000 17010KT P6SM
                       SCT025 BKN050 FM170900 17004KT P6SM OVC035=
201605160535 TAF KBLI 160535Z 1606/1706 16008KT P6SM FEW040 OVC060 FM162000
                       17010KT P6SM SCT025 BKN050=
201605152323 TAF KBLI 152323Z 1600/1624 16010G18KT P6SM BKN020 OVC040 FM160600
                       17008KT P6SM OVC015 FM162000 17010KT P6SM
                       SCT025 BKN050=
201605151720 TAF KBLI 151720Z 1518/1618 15010KT P6SM SCT015 OVC030
                      TEMPO 1518/1520 OVC015 FM152200 18007KT P6SM
                       BKN030 BKN050 FM160100 17007KT P6SM SCT025
                       OVC050 FM160600 17008KT P6SM OVC015=
201605151125 TAF KBLI 151125Z 1512/1612 16010KT P6SM OVC007 FM151800 18008KT
                       P6SM SCT008 OVC013 FM152200 18007KT P6SM
                       BKN025 OVC040 FM160100 17007KT P6SM SCT025
                       OVC050 FM160600 17008KT P6SM OVC015=
201605150900 TAF AMD KBLI 150900Z 1509/1606 17007KT P6SM OVC013 FM152100 17010KT
                       P6SM SCT025 OVC050=
201605150530 TAF KBLI 150530Z 1506/1606 17009G15KT P6SM FEW008 BKN080 OVC120
                       FM150900 16009KT P6SM OVC050 FM151200 16008KT
                       P6SM OVC015 FM152100 17010KT P6SM SCT025
                       OVC050=
201605142324 TAF KBLI 142324Z 1500/1524 17011KT P6SM SCT060 BKN120 FM150700
                       16009KT P6SM OVC050 FM151100 16008KT P6SM
                       OVC015 FM152100 17010KT P6SM SCT025 OVC050=
201605141724 TAF KBLI 141724Z 1418/1518 17008KT P6SM BKN120 FM142000 19008KT
                       P6SM SCT090 OVC200 FM150700 16009KT P6SM
                       VCSH OVC050 FM151100 16008KT P6SM OVC015=
201605141130 TAF KBLI 141130Z 1412/1512 00000KT P6SM SKC FM142000 19008KT P6SM
                       SCT090 OVC200 FM150700 16009KT P6SM VCSH
                       OVC050=
201605140540 TAF KBLI 140540Z 1406/1506 00000KT P6SM SKC FM142000 19008KT P6SM
                       SCT090 OVC200=
201605132323 TAF KBLI 132323Z 1400/1424 27008KT P6SM SCT120 BKN250 FM140400
                       00000KT P6SM SCT120 BKN250 FM142000 19008KT
                       P6SM SCT090 OVC200=
201605131720 TAF KBLI 131720Z 1318/1418 02008KT P6SM SCT250 FM132100 29006KT
                       P6SM SCT250 FM140400 00000KT P6SM SCT120
                       BKN250=
201605131125 TAF KBLI 131125Z 1312/1412 01004KT 6SM BR SCT250 FM131900 32010KT
                       P6SM SCT250 FM140400 00000KT P6SM SCT120
                       BKN250=
201605130535 TAF KBLI 130535Z 1306/1406 00000KT P6SM SKC FM131700 02008KT P6SM
                       SCT250 FM132100 32006KT P6SM BKN250=
201605122334 TAF KBLI 122334Z 1300/1324 VRB03KT P6SM SCT250 FM131700 02008KT
                       P6SM SCT250 FM132100 32006KT P6SM BKN250=
201605122108 TAF AMD KBLI 122108Z 1221/1318 18008KT P6SM SKC FM130200 VRB03KT
                       P6SM FEW250=
201605121730 TAF KBLI 121730Z 1218/1318 21005KT P6SM SKC FM130200 VRB03KT P6SM
                       FEW250=
201605121510 TAF AMD KBLI 121510Z 1215/1312 17005KT P6SM VCFG FEW100 FM121800
                       18008KT P6SM FEW100 FM130300 00000KT P6SM
                       SKC=
201605121314 TAF AMD KBLI 121314Z 1213/1312 00000KT P6SM FEW006
                      TEMPO 1213/1215 2SM BR FM121800 18008KT P6SM
                       FEW040 FM130300 00000KT P6SM SKC=
201605121120 TAF KBLI 121120Z 1212/1312 00000KT P6SM SKC
                      TEMPO 1213/1216 SCT002 FM121800 18008KT P6SM
                       FEW040 FM130300 00000KT P6SM SKC=
201605120535 TAF KBLI 120535Z 1206/1306 35003KT P6SM BKN110 FM120900 VRB03KT
                       P6SM SCT250 FM121800 18008KT P6SM FEW040=
201605120300 TAF AMD KBLI 120300Z 1203/1224 01006KT P6SM VCSH OVC100 FM120600
                       VRB03KT P6SM SCT090 FM121400 VRB03KT P6SM
                       FEW025 FM121800 18008KT P6SM FEW040=
201605112339 TAF KBLI 112339Z 1200/1224 VRB03KT P6SM VCSH BKN090
                      TEMPO 1200/1202 -SHRA FM120600 VRB03KT P6SM
                       SCT090 FM121400 VRB03KT P6SM FEW025 FM121800
                       18008KT P6SM FEW040=
201605111737 TAF KBLI 111737Z 1118/1218 VRB04KT P6SM SCT100 BKN200 FM112000
                       19007KT P6SM VCSH BKN100 BKN200 FM120300
                       17004KT P6SM SCT100 SCT200=
201605111504 TAF AMD KBLI 111504Z 1115/1212 17007KT P6SM SCT090 BKN200 FM111800
                       18008KT P6SM BKN090 BKN200 FM120600 17004KT
                       P6SM SCT090 SCT200=
201605111120 TAF KBLI 111120Z 1112/1212 17007KT P6SM BKN250 FM111800 18008KT
                       P6SM SCT090 BKN250=
201605110520 TAF KBLI 110520Z 1106/1206 17004KT P6SM SCT250 FM111800 18008KT
                       P6SM SCT090 BKN250=
201605102340 TAF KBLI 102340Z 1100/1124 28006KT P6SM FEW050 SCT250 FM110200
                       VRB02KT P6SM SCT250 FM111800 18008KT P6SM
                       SCT090 BKN250=
201605101720 TAF KBLI 101720Z 1018/1118 VRB03KT P6SM SCT250 FM102000 25006KT
                       P6SM SCT250 FM110200 VRB02KT P6SM SCT250=
201605101120 TAF KBLI 101120Z 1012/1112 VRB03KT P6SM SKC FM102000 20006KT P6SM
                       SKC=
201605100520 TAF KBLI 100520Z 1006/1106 VRB03KT P6SM SKC FM102000 23006KT P6SM
                       SKC=
201605092339 TAF KBLI 092339Z 1000/1024 VRB03KT P6SM SKC FM102000 23006KT P6SM
                       SKC=
201605091730 TAF KBLI 091730Z 0918/1018 20005KT P6SM SCT020 SCT060 FM092000
                       25005KT P6SM SKC FM100300 VRB03KT P6SM SKC=
201605091120 TAF KBLI 091120Z 0912/1012 VRB03KT P6SM SCT030 FM091800 24007KT
                       P6SM SKC=
201605090520 TAF KBLI 090520Z 0906/1006 20010KT P6SM BKN040
                      TEMPO 0906/0908 -SHRA SCT030 OVC040 FM090800
                       05005KT P6SM SCT030 BKN050 FM091000 VRB03KT
                       P6SM SCT025 SCT080 FM091800 24007KT P6SM
                       SKC=
201605082333 TAF KBLI 082333Z 0900/0924 20010KT P6SM BKN040
                      TEMPO 0901/0904 -SHRA SCT030 OVC040 FM090700
                       05005KT P6SM SCT030 BKN050 FM091000 VRB03KT
                       P6SM SCT025 SCT080 FM091800 24007KT P6SM
                       SKC=
201605081738 TAF KBLI 081738Z 0818/0918 20010KT P6SM SCT040 FM082100 19010KT
                       P6SM SKC FM090500 17005KT P6SM SCT030 BKN050
                       FM091000 VRB03KT P6SM SCT025 SCT080=
201605081507 TAF AMD KBLI 081507Z 0815/0912 19005KT P6SM BKN040 FM081800 19010KT
                       P6SM SCT040 FM082000 19010KT P6SM SKC=
201605081120 TAF KBLI 081120Z 0812/0912 17005KT P6SM SCT012 BKN040
                      TEMPO 0812/0816 BKN012 FM081800 18010KT P6SM
                       SCT030 FM082000 18010KT P6SM SKC=
201605080526 TAF KBLI 080526Z 0806/0906 18013KT P6SM FEW200 FM081000 18010KT
                       P6SM SKC FM081900 18014G22KT P6SM SKC=
201605072320 TAF KBLI 072320Z 0800/0824 19010KT P6SM FEW100 SCT200 FM080600
                       18013KT P6SM SCT100 SCT200 FM081000 18010KT
                       P6SM OVC020 FM081900 18014G22KT P6SM BKN030
                       FM082100 18015G25KT P6SM SCT035=
201605071720 TAF KBLI 071720Z 0718/0818 17006KT P6SM FEW200 FM072300 19010KT
                       P6SM FEW100 SCT200 FM081100 18007KT P6SM
                       OVC015=
201605071120 TAF KBLI 071120Z 0712/0812 VRB03KT P6SM FEW250 FM071600 17006KT
                       P6SM FEW250 FM072300 19010KT P6SM FEW250=
201605070520 TAF KBLI 070520Z 0706/0806 VRB03KT P6SM FEW250 FM071600 17006KT
                       P6SM FEW250 FM072000 19008KT P6SM SCT250=
201605062320 TAF KBLI 062320Z 0700/0724 29008KT P6SM SKC FM070300 VRB03KT P6SM
                       SKC FM071600 17006KT P6SM FEW250 FM072000
                       19008KT P6SM SCT200=
201605061724 TAF KBLI 061724Z 0618/0718 33005KT P6SM SKC FM061900 33008KT P6SM
                       SKC FM062200 30008KT P6SM SKC FM070300 00000KT
                       P6SM SKC FM071600 17006KT P6SM FEW250=
201605061120 TAF KBLI 061120Z 0612/0712 00000KT P6SM SKC FM062000 33008KT P6SM
                       SKC FM070300 00000KT P6SM SKC=
201605060520 TAF KBLI 060520Z 0606/0706 00000KT P6SM SCT250 FM060900 04004KT
                       P6SM SKC FM062000 33008KT P6SM SKC=
201605052321 TAF KBLI 052321Z 0600/0624 26007KT P6SM FEW050 SCT200 FM060900
                       04004KT P6SM SKC FM062000 33008KT P6SM SKC=
201605052111 TAF AMD KBLI 052111Z 0521/0618 28008KT P6SM SCT120 SCT200 FM060400
                       02006KT P6SM SCT120 SCT200=
201605051720 TAF KBLI 051720Z 0518/0618 VRB04KT P6SM BKN030 BKN080 FM052200
                       30006KT P6SM SCT040 BKN100 BKN200 FM060400
                       02006KT P6SM SCT120 SCT200=
201605051120 TAF KBLI 051120Z 0512/0612 00000KT P6SM SCT070 BKN120 FM051300
                       VRB03KT P6SM SCT025 BKN050 FM052100 33007KT
                       P6SM SCT050 FM060600 00000KT P6SM SCT250=
201605050520 TAF KBLI 050520Z 0506/0606 00000KT P6SM SCT050 OVC090 FM051200
                       VRB03KT P6SM SCT025 BKN050 FM052100 33007KT
                       P6SM SCT050=
201605042320 TAF KBLI 042320Z 0500/0524 VRB04KT P6SM SCT040 BKN090 FM051200
                       VRB03KT P6SM SCT025 BKN050 FM052100 33007KT
                       P6SM SCT050=
201605041729 TAF KBLI 041729Z 0418/0518 30006KT P6SM SCT012 OVC050
                      TEMPO 0418/0421 5SM -RA BR BKN012 OVC040
                       FM050500 VRB03KT P6SM SCT025 BKN050
                      TEMPO 0512/0516 BKN025 OVC050=
201605041343 TAF AMD KBLI 041343Z 0414/0512 31006KT P6SM VCSH BKN015 OVC040
                       TEMPO 0415/0418 -SHRA FM041900 23007KT P6SM
                       SCT025 BKN050 FM050000 27006KT P6SM SCT040
                       BKN080 OVC200 FM051000 00000KT P6SM BKN040
                       OVC070=
201605041125 TAF KBLI 041125Z 0412/0512 29004KT P6SM OVC011
                      TEMPO 0415/0419 SCT013 OVC040 FM041900 23007KT
                       P6SM SCT025 BKN050 FM050000 27006KT P6SM
                       SCT040 BKN080 OVC200 FM051000 00000KT P6SM
                       BKN040 OVC070=
201605040520 TAF KBLI 040520Z 0406/0506 18005KT P6SM SCT045 BKN120 FM040800
                       23007KT P6SM VCSH BKN045 OVC120 FM041200
                       18007KT P6SM SCT015 OVC040 FM041900 23007KT
                       P6SM SCT025 BKN050 FM050000 27006KT P6SM
                       SCT040 BKN080 OVC200=
201605032320 TAF KBLI 032320Z 0400/0424 23007KT P6SM SCT060 SCT120 BKN250 FM040300
                       23007KT P6SM SCT060 BKN120 BKN200 FM040600
                       23007KT P6SM VCSH BKN050 OVC120 FM041200
                       18007KT P6SM SCT015 OVC040 FM041900 23007KT
                       P6SM SCT025 BKN050=
201605031720 TAF KBLI 031720Z 0318/0418 17010KT P6SM SCT120 BKN200 FM032200
                       22008KT P6SM SCT060 BKN120 FM040600 22008KT
                       P6SM BKN040 OVC080 FM041200 18008KT P6SM
                       VCSH BKN018 OVC040 FM041700 20006KT P6SM
                       BKN022 BKN050=
201605031120 TAF KBLI 031120Z 0312/0412 17005KT P6SM SCT130 FM032000 19007KT
                       P6SM SCT130 BKN250 FM040000 19008KT P6SM
                       BKN070 OVC130 FM040600 18008KT P6SM VCSH
                       BKN045 OVC080=
201605030530 TAF KBLI 030530Z 0306/0406 17005KT P6SM SCT130 FM031200 17005KT
                       P6SM SCT130 BKN250 FM032000 19007KT P6SM
                       SCT130 BKN250 FM040200 19008KT P6SM BKN070
                       OVC130=
201605022320 TAF KBLI 022320Z 0300/0324 VRB04KT P6SM SCT070 SCT120 FM030600
                       22008KT P6SM SCT070 BKN120 FM031200 18008KT
                       P6SM SCT015 BKN070 FM031800 22006KT P6SM
                       SCT025 BKN050=
201605021720 TAF KBLI 021720Z 0218/0318 02005KT P6SM SKC FM030200 23007KT P6SM
                       BKN120 FM031200 18008KT P6SM SCT015 SCT080
                       BKN200=
201605021120 TAF KBLI 021120Z 0212/0312 VRB03KT P6SM SKC FM022000 21007KT P6SM
                       SKC FM030200 VRB03KT P6SM SCT250=
201605020520 TAF KBLI 020520Z 0206/0306 VRB03KT P6SM SKC FM022100 21007KT P6SM
                       SKC FM030200 VRB03KT P6SM SKC=
201605012335 TAF KBLI 012335Z 0200/0224 30006KT P6SM SKC FM020400 VRB03KT P6SM
                       SKC=
201605011730 TAF KBLI 011730Z 0118/0218 02006KT P6SM SKC FM012100 30006KT P6SM
                       SKC FM020400 VRB03KT P6SM SKC=
201605011120 TAF KBLI 011120Z 0112/0212 VRB03KT P6SM SKC FM012100 30006KT P6SM
                       SKC FM020200 VRB03KT P6SM SKC=
201605010542 TAF KBLI 010542Z 0106/0206 VRB03KT P6SM SKC FM012100 32006KT P6SM
                       SKC FM020300 VRB03KT P6SM SKC=