##########################################################
# Query made at 02/16/2025 21:17:06 UTC
# Time interval: from 04/01/2016 00:00  to 04/30/2016 23:59  UTC
##########################################################

##########################################################
# KBLI, Bellingham, Bellingham International Airport (United States)
# WMO index: -----. WIGOS ID: Unknown
# Latitude 48-47-58N. Longitude 122-32-21W. Altitude 48 m.
##########################################################

###################################
#  METAR/SPECI from KBLI
###################################
201604302353 METAR KBLI 302353Z VRB05KT 10SM CLR 18/06 A3032 RMK AO2 SLP275 T01780056 10178 20139 55006=
201604302253 METAR KBLI 302253Z VRB05KT 10SM CLR 17/08 A3032 RMK AO2 SLP275 T01720083=
201604302153 METAR KBLI 302153Z 30008KT 10SM CLR 17/09 A3033 RMK AO2 SLP278 T01720094=
201604302053 METAR KBLI 302053Z VRB05KT 10SM CLR 17/10 A3034 RMK AO2 SLP281 T01670100 58006=
201604301953 METAR KBLI 301953Z 28005KT 10SM CLR 16/09 A3035 RMK AO2 SLP286 T01560094=
201604301853 METAR KBLI 301853Z 15006KT 10SM FEW025 16/10 A3035 RMK AO2 SLP286 T01560100=
201604301753 METAR KBLI 301753Z 00000KT 10SM SCT024 14/08 A3036 RMK AO2 SLP287 T01390083 10150 20067 50001=
201604301653 METAR KBLI 301653Z 13005KT 10SM FEW024 13/08 A3036 RMK AO2 SLP290 T01280083=
201604301554 SPECI KBLI 301554Z 16005KT 10SM FEW024 12/08 A3037 RMK AO2 T01170078=
201604301553 METAR KBLI 301553Z 15005KT 10SM CLR 12/08 A3037 RMK AO2 SLP290 T01170078=
201604301453 METAR KBLI 301453Z 16003KT 10SM FEW024 11/08 A3035 RMK AO2 SLP286 T01110078 53017=
201604301353 METAR KBLI 301353Z 14004KT 10SM CLR 09/07 A3034 RMK AO2 SLP281 T00890067=
201604301253 METAR KBLI 301253Z AUTO 17004KT 10SM CLR 08/07 A3032 RMK AO2 SLP273 T00780067=
201604301153 METAR KBLI 301153Z AUTO 00000KT 10SM CLR 07/05 A3030 RMK AO2 SLP269 70005 T00670050 10106 20056 51017=
201604301053 METAR KBLI 301053Z AUTO 00000KT 10SM CLR 07/05 A3029 RMK AO2 SLP263 T00720050=
201604300953 METAR KBLI 300953Z AUTO 00000KT 10SM CLR 09/07 A3028 RMK AO2 SLP260 T00890067=
201604300853 METAR KBLI 300853Z AUTO 18008KT 10SM CLR 11/08 A3026 RMK AO2 SLP253 T01060078 51017=
201604300753 METAR KBLI 300753Z AUTO 00000KT 10SM CLR 07/06 A3024 RMK AO2 SLP248 T00720061 401610072=
201604300653 METAR KBLI 300653Z AUTO 00000KT 10SM CLR 08/07 A3023 RMK AO2 SLP243 T00780067=
201604300553 METAR KBLI 300553Z AUTO 17003KT 10SM BKN100 10/07 A3021 RMK AO2 SLP236 T01000072 10156 20100 51020=
201604300453 METAR KBLI 300453Z 18004KT 10SM CLR 12/08 A3019 RMK AO2 SLP231 T01220078=
201604300353 METAR KBLI 300353Z 17006KT 10SM CLR 13/08 A3016 RMK AO2 SLP221 T01280083=
201604300253 METAR KBLI 300253Z 18004KT 10SM CLR 14/08 A3015 RMK AO2 SLP215 T01390078 53008=
201604300153 METAR KBLI 300153Z 17006KT 10SM FEW090 16/06 A3013 RMK AO2 SLP211 T01560056=
201604300053 METAR KBLI 300053Z 17007KT 10SM CLR 16/06 A3013 RMK AO2 SLP210 T01560061=
201604292353 METAR KBLI 292353Z 16008KT 10SM CLR 16/06 A3012 RMK AO2 SLP207 60000 T01560061 10161 20111 51005=
201604292253 METAR KBLI 292253Z VRB06G15KT 10SM SCT070 16/04 A3012 RMK AO2 SLP207 T01560039=
201604292153 METAR KBLI 292153Z 22008KT 10SM CLR 16/04 A3011 RMK AO2 SLP203 T01560044=
201604292053 METAR KBLI 292053Z 10SM FEW030 FEW037 SCT060 15/07 A3011 RMK AO2 SLP201 60000 T01500072 53002=
201604291953 METAR KBLI 291953Z VRB05KT 10SM SCT033 14/07 A3010 RMK AO2 SLP199 T01440067=
201604291853 METAR KBLI 291853Z VRB04KT 10SM SCT022 BKN030 OVC095 12/08 A3010 RMK AO2 RAE00 SLP199 P0000 T01220083=
201604291850 SPECI KBLI 291850Z VRB03KT 10SM SCT022 BKN030 OVC090 12/09 A3010 RMK AO2 RAE00 P0000=
201604291753 METAR KBLI 291753Z 18005KT 10SM -RA BKN021 BKN027 OVC034 11/09 A3010 RMK AO2 SLP198 P0003 60005 T01110089 10111 20100 51013=
201604291653 METAR KBLI 291653Z 18006KT 10SM -RA OVC018 10/08 A3009 RMK AO2 RAB00 SLP195 P0002 T01000083=
201604291553 METAR KBLI 291553Z 16008KT 10SM OVC020 11/07 A3007 RMK AO2 SLP189 T01060072=
201604291453 METAR KBLI 291453Z 17005KT 10SM OVC022 11/06 A3006 RMK AO2 SLP185 T01060061 53003=
201604291353 METAR KBLI 291353Z 17005KT 10SM OVC022 11/06 A3005 RMK AO2 SLP184 T01060056=
201604291324 SPECI KBLI 291324Z AUTO 16004KT 10SM BKN025 11/06 A3005 RMK AO2 T01060056=
201604291316 SPECI KBLI 291316Z AUTO 15007KT 10SM SCT025 BKN080 11/06 A3005 RMK AO2 T01060056=
201604291308 SPECI KBLI 291308Z AUTO 16005KT 10SM BKN025 BKN075 11/06 A3005 RMK AO2 T01060056=
201604291253 METAR KBLI 291253Z AUTO 16006KT 10SM FEW023 BKN075 10/06 A3005 RMK AO2 SLP182 T01000056=
201604291153 METAR KBLI 291153Z AUTO 16005KT 10SM BKN042 BKN070 11/06 A3005 RMK AO2 SLP182 T01060056 10128 20106 58002=
201604291053 METAR KBLI 291053Z AUTO 16005KT 10SM SCT029 OVC100 11/06 A3006 RMK AO2 SLP185 T01060061=
201604291050 SPECI KBLI 291050Z AUTO 17006KT 10SM SCT029 OVC100 11/06 A3006 RMK AO2=
201604291029 SPECI KBLI 291029Z AUTO 16005KT 10SM BKN029 BKN100 11/06 A3006 RMK AO2 T01060061=
201604290953 METAR KBLI 290953Z AUTO 17005KT 10SM BKN110 11/06 A3005 RMK AO2 SLP184 T01110061=
201604290853 METAR KBLI 290853Z AUTO 16008KT 10SM OVC110 11/07 A3006 RMK AO2 SLP187 T01110067 50002=
201604290753 METAR KBLI 290753Z AUTO 16007KT 10SM OVC110 12/06 A3006 RMK AO2 SLP188 T01170061 401610100=
201604290653 METAR KBLI 290653Z AUTO 17008KT 10SM OVC110 12/06 A3006 RMK AO2 SLP186 T01220056=
201604290553 METAR KBLI 290553Z AUTO 15008KT 10SM CLR 13/06 A3006 RMK AO2 SLP185 T01280056 10156 20128 50001=
201604290453 METAR KBLI 290453Z 16008KT 10SM OVC085 13/07 A3006 RMK AO2 SLP186 T01330067=
201604290353 METAR KBLI 290353Z 16007KT 10SM OVC080 13/07 A3006 RMK AO2 SLP185 T01330072=
201604290253 METAR KBLI 290253Z 15008KT 10SM OVC075 14/07 A3005 RMK AO2 SLP183 T01390072 56004=
201604290153 METAR KBLI 290153Z 16007KT 10SM BKN070 OVC090 14/08 A3005 RMK AO2 SLP184 T01440078=
201604290053 METAR KBLI 290053Z 17009KT 10SM OVC070 15/07 A3006 RMK AO2 SLP186 T01500067=
201604282353 METAR KBLI 282353Z 17008KT 10SM OVC070 15/07 A3006 RMK AO2 SLP188 T01500067 10161 20128 58002=
201604282253 METAR KBLI 282253Z 16009G15KT 10SM OVC065 16/07 A3007 RMK AO2 SLP191 T01560067=
201604282153 METAR KBLI 282153Z 17007G16KT 10SM CLR 16/07 A3007 RMK AO2 SLP191 T01610067=
201604282053 METAR KBLI 282053Z 17009KT 130V200 10SM CLR 16/08 A3007 RMK AO2 SLP189 T01560083 58006=
201604281953 METAR KBLI 281953Z 17013G17KT 10SM CLR 14/08 A3008 RMK AO2 SLP192 T01440083=
201604281853 METAR KBLI 281853Z 17008G17KT 140V200 10SM FEW085 14/08 A3008 RMK AO2 SLP194 T01390083=
201604281753 METAR KBLI 281753Z 17008KT 10SM CLR 13/09 A3009 RMK AO2 SLP196 T01330089 10139 20106 58001=
201604281653 METAR KBLI 281653Z 16006KT 10SM OVC060 12/08 A3009 RMK AO2 SLP197 T01220083=
201604281553 METAR KBLI 281553Z 18006KT 10SM OVC060 12/08 A3009 RMK AO2 SLP198 T01220083=
201604281453 METAR KBLI 281453Z 17005KT 10SM OVC060 12/08 A3009 RMK AO2 SLP196 T01170083 53010=
201604281353 METAR KBLI 281353Z 00000KT 10SM OVC060 11/07 A3008 RMK AO2 SLP193 T01110072=
201604281253 METAR KBLI 281253Z AUTO 17003KT 10SM OVC060 11/07 A3007 RMK AO2 SLP188 T01110067=
201604281153 METAR KBLI 281153Z AUTO 00000KT 10SM OVC055 11/07 A3006 RMK AO2 SLP186 60000 T01060067 10122 20100 53007=
201604281053 METAR KBLI 281053Z AUTO 00000KT 10SM OVC050 10/07 A3005 RMK AO2 SLP183 T01000067=
201604280953 METAR KBLI 280953Z AUTO 00000KT 10SM FEW055 SCT100 OVC120 11/07 A3005 RMK AO2 RAB0854E03 SLP181 P0000 T01060067=
201604280853 METAR KBLI 280853Z AUTO 15004KT 10SM SCT055 BKN100 OVC120 11/06 A3004 RMK AO2 SLP179 T01110061 53003=
201604280753 METAR KBLI 280753Z AUTO 15003KT 10SM OVC055 12/06 A3004 RMK AO2 SLP178 T01170061 401610072=
201604280653 METAR KBLI 280653Z AUTO 00000KT 10SM FEW090 OVC110 12/06 A3003 RMK AO2 SLP176 T01170061=
201604280553 METAR KBLI 280553Z AUTO 00000KT 10SM BKN090 OVC110 12/07 A3003 RMK AO2 SLP176 T01220067 10161 20111 51005=
201604280453 METAR KBLI 280453Z 00000KT 10SM BKN085 OVC110 11/07 A3003 RMK AO2 SLP175 T01110067=
201604280353 METAR KBLI 280353Z 00000KT 10SM OVC110 12/07 A3002 RMK AO2 SLP174 T01220067=
201604280253 METAR KBLI 280253Z 00000KT 10SM OVC110 14/05 A3002 RMK AO2 SLP171 T01390050 53003=
201604280153 METAR KBLI 280153Z 28006KT 10SM OVC120 14/05 A3001 RMK AO2 SLP168 T01440050=
201604280053 METAR KBLI 280053Z 27007KT 230V290 10SM CLR 16/05 A3000 RMK AO2 SLP167 T01560050=
201604272353 METAR KBLI 272353Z 31009KT 10SM CLR 16/06 A3001 RMK AO2 SLP168 T01560056 10161 20128 50000=
201604272253 METAR KBLI 272253Z 29008KT 240V310 10SM SCT085 15/06 A3001 RMK AO2 SLP170 T01500056=
201604272153 METAR KBLI 272153Z VRB03KT 10SM OVC100 14/06 A3001 RMK AO2 SLP169 T01440056=
201604272053 METAR KBLI 272053Z 26008KT 10SM BKN046 OVC110 15/06 A3001 RMK AO2 SLP168 T01500056 53002=
201604271953 METAR KBLI 271953Z VRB05KT 10SM SCT029 OVC040 14/08 A3000 RMK AO2 SLP166 T01440078=
201604271853 METAR KBLI 271853Z VRB03KT 10SM FEW028 FEW036 14/07 A3000 RMK AO2 SLP166 T01390067=
201604271753 METAR KBLI 271753Z 22003KT 10SM SCT024 13/06 A3000 RMK AO2 SLP166 T01280061 10139 20072 51004=
201604271653 METAR KBLI 271653Z 00000KT 10SM SCT020 BKN030 BKN110 13/08 A3000 RMK AO2 SLP164 T01330078=
201604271553 METAR KBLI 271553Z 00000KT 10SM SCT110 12/08 A2999 RMK AO2 SLP164 T01170083=
201604271453 METAR KBLI 271453Z 17004KT 10SM FEW017 BKN100 11/07 A2999 RMK AO2 SLP162 T01060072 53001=
201604271353 METAR KBLI 271353Z 15003KT 10SM FEW120 08/06 A2998 RMK AO2 SLP160 T00830061=
201604271253 METAR KBLI 271253Z AUTO 00000KT 10SM SCT110 07/06 A2998 RMK AO2 SLP159 T00720056=
201604271153 METAR KBLI 271153Z AUTO 00000KT 10SM BKN110 07/06 A2999 RMK AO2 SLP161 T00720056 10106 20072 58003=
201604271053 METAR KBLI 271053Z AUTO 00000KT 10SM FEW110 08/06 A2999 RMK AO2 SLP163 T00780056=
201604270953 METAR KBLI 270953Z AUTO 00000KT 10SM CLR 08/06 A2999 RMK AO2 SLP164 T00780061=
201604270853 METAR KBLI 270853Z AUTO 00000KT 10SM CLR 08/06 A2999 RMK AO2 SLP164 T00780056 56004=
201604270753 METAR KBLI 270753Z AUTO 00000KT 10SM CLR 09/06 A3000 RMK AO2 SLP165 T00890061 401500067=
201604270653 METAR KBLI 270653Z AUTO 17003KT 10SM CLR 11/06 A3000 RMK AO2 SLP165 T01060056=
201604270553 METAR KBLI 270553Z AUTO 00000KT 10SM CLR 10/06 A3001 RMK AO2 SLP168 T01000056 10144 20100 56001=
201604270453 METAR KBLI 270453Z 17003KT 10SM CLR 11/06 A3001 RMK AO2 SLP168 T01110056=
201604270353 METAR KBLI 270353Z 17005KT 10SM CLR 11/07 A3001 RMK AO2 SLP168 T01110067=
201604270253 METAR KBLI 270253Z 00000KT 10SM CLR 12/06 A3001 RMK AO2 SLP169 T01170061 56008=
201604270153 METAR KBLI 270153Z 00000KT 10SM CLR 13/06 A3002 RMK AO2 SLP171 T01280056=
201604270053 METAR KBLI 270053Z 10SM CLR 13/05 A3003 RMK AO2 SLP175 T01330050=
201604262353 METAR KBLI 262353Z VRB04KT 10SM CLR 14/05 A3003 RMK AO2 SLP177 T01440050 10150 20111 56012=
201604262253 METAR KBLI 262253Z 17006KT 10SM CLR 14/04 A3004 RMK AO2 SLP181 T01390044=
201604262153 METAR KBLI 262153Z VRB05KT 10SM CLR 15/06 A3005 RMK AO2 SLP184 T01500056=
201604262053 METAR KBLI 262053Z VRB04KT 10SM CLR 14/06 A3007 RMK AO2 SLP189 T01390056 56017=
201604261953 METAR KBLI 261953Z 17003KT 10SM CLR 13/06 A3009 RMK AO2 SLP195 T01280056=
201604261853 METAR KBLI 261853Z VRB04KT 10SM CLR 12/05 A3010 RMK AO2 SLP200 T01220050=
201604261753 METAR KBLI 261753Z 21006KT 10SM CLR 12/04 A3012 RMK AO2 SLP206 T01170044 10117 20067 58007=
201604261653 METAR KBLI 261653Z 18009KT 10SM CLR 11/04 A3013 RMK AO2 SLP209 T01110044=
201604261553 METAR KBLI 261553Z 17007KT 10SM CLR 11/05 A3013 RMK AO2 SLP211 T01060050=
201604261453 METAR KBLI 261453Z 15009KT 10SM CLR 10/05 A3014 RMK AO2 SLP213 T01000050 58004=
201604261353 METAR KBLI 261353Z 15007KT 10SM CLR 08/04 A3015 RMK AO2 SLP215 T00780044=
201604261253 METAR KBLI 261253Z AUTO 14007KT 10SM FEW055 08/04 A3015 RMK AO2 SLP217 T00780044=
201604261153 METAR KBLI 261153Z AUTO VRB03KT 10SM CLR 07/04 A3015 RMK AO2 SLP218 T00720039 10089 20067 56001=
201604261053 METAR KBLI 261053Z AUTO 14003KT 10SM CLR 07/03 A3015 RMK AO2 SLP218 T00720033=
201604260953 METAR KBLI 260953Z AUTO 15004KT 10SM CLR 08/03 A3015 RMK AO2 SLP217 T00780028=
201604260853 METAR KBLI 260853Z AUTO 15004KT 10SM CLR 07/03 A3016 RMK AO2 SLP219 T00720028 58001=
201604260753 METAR KBLI 260753Z AUTO 14005KT 10SM CLR 08/03 A3017 RMK AO2 SLP222 T00780028 401440067=
201604260653 METAR KBLI 260653Z AUTO 15003KT 10SM CLR 08/03 A3016 RMK AO2 SLP221 T00830033=
201604260553 METAR KBLI 260553Z AUTO 16003KT 10SM CLR 09/04 A3016 RMK AO2 SLP220 T00890044 10144 20072 51002=
201604260453 METAR KBLI 260453Z 14003KT 10SM CLR 10/04 A3016 RMK AO2 SLP220 T01000039=
201604260353 METAR KBLI 260353Z 00000KT 10SM CLR 09/05 A3017 RMK AO2 SLP222 T00940050=
201604260253 METAR KBLI 260253Z 00000KT 10SM CLR 11/04 A3015 RMK AO2 SLP218 T01110044 56006=
201604260153 METAR KBLI 260153Z 17005KT 10SM CLR 13/03 A3016 RMK AO2 SLP219 T01330028=
201604260053 METAR KBLI 260053Z VRB03KT 10SM CLR 14/03 A3016 RMK AO2 SLP221 T01390033=
201604252353 METAR KBLI 252353Z 26006KT 10SM CLR 14/01 A3017 RMK AO2 SLP224 T01440011 10144 20111 56007=
201604252253 METAR KBLI 252253Z VRB03KT 10SM CLR 14/02 A3017 RMK AO2 SLP225 T01440022=
201604252153 METAR KBLI 252153Z 25007KT 10SM CLR 14/02 A3018 RMK AO2 SLP228 T01390022=
201604252053 METAR KBLI 252053Z 10SM FEW060 13/03 A3019 RMK AO2 SLP232 T01330028 58005=
201604251953 METAR KBLI 251953Z 27007KT 10SM FEW030 SCT055 13/05 A3020 RMK AO2 SLP234 T01280050=
201604251853 METAR KBLI 251853Z 25004KT 10SM SCT025 BKN060 12/06 A3021 RMK AO2 SLP238 T01170056=
201604251809 SPECI KBLI 251809Z VRB05KT 10SM SCT023 BKN065 12/07 A3021 RMK AO2 T01220067=
201604251800 SPECI KBLI 251800Z 25006KT 10SM BKN023 BKN029 BKN065 11/06 A3021 RMK AO2 T01110056=
201604251753 METAR KBLI 251753Z VRB04KT 10SM FEW023 SCT029 OVC065 11/06 A3021 RMK AO2 SLP237 T01110056 10111 20067 51007=
201604251659 SPECI KBLI 251659Z VRB04KT 10SM FEW023 SCT029 OVC065 11/06 A3021 RMK AO2 T01060056=
201604251653 METAR KBLI 251653Z VRB03KT 10SM SCT023 11/06 A3021 RMK AO2 SLP237 T01060056=
201604251553 METAR KBLI 251553Z 27005KT 10SM SCT023 BKN030 10/05 A3019 RMK AO2 SLP232 T01000050=
201604251453 METAR KBLI 251453Z 00000KT 10SM FEW026 09/07 A3019 RMK AO2 SLP229 T00940067 51007=
201604251357 SPECI KBLI 251357Z 00000KT 10SM FEW015 SCT029 07/06 A3018 RMK AO2 T00720061=
201604251353 METAR KBLI 251353Z VRB03KT 10SM BKN029 07/06 A3018 RMK AO2 SLP229 T00720061=
201604251317 SPECI KBLI 251317Z AUTO 00000KT 10SM FEW021 FEW027 SCT075 07/06 A3017 RMK AO2 T00720061=
201604251307 SPECI KBLI 251307Z AUTO 00000KT 10SM SCT022 BKN026 BKN080 07/06 A3017 RMK AO2 T00720061=
201604251253 METAR KBLI 251253Z AUTO 16003KT 10SM SCT022 BKN031 OVC075 08/07 A3017 RMK AO2 SLP224 T00780067=
201604251153 METAR KBLI 251153Z AUTO 00000KT 10SM FEW034 BKN060 OVC070 08/07 A3017 RMK AO2 RAE31 SLP222 P0001 60002 70015 T00780067 10100 20067 51008=
201604251107 SPECI KBLI 251107Z AUTO 15004KT 10SM -RA FEW019 BKN035 OVC043 08/07 A3016 RMK AO2 P0001 T00830072=
201604251053 METAR KBLI 251053Z AUTO 00000KT 9SM -RA SCT020 BKN026 OVC060 08/07 A3016 RMK AO2 RAB37 SLP219 P0001 T00830067=
201604250953 METAR KBLI 250953Z AUTO 18003KT 10SM OVC065 08/06 A3014 RMK AO2 SLP214 T00830061=
201604250853 METAR KBLI 250853Z AUTO 00000KT 10SM FEW022 OVC070 08/06 A3014 RMK AO2 SLP214 T00830056 53007=
201604250753 METAR KBLI 250753Z AUTO 00000KT 10SM CLR 07/06 A3013 RMK AO2 SLP212 T00670056 401280067=
201604250653 METAR KBLI 250653Z AUTO 21003KT 10SM SCT038 OVC070 09/06 A3012 RMK AO2 SLP208 T00940061=
201604250553 METAR KBLI 250553Z AUTO 20003KT 10SM OVC040 09/07 A3012 RMK AO2 SLP206 60000 T00940072 10128 20078 51014=
201604250453 METAR KBLI 250453Z 00000KT 10SM BKN048 08/07 A3011 RMK AO2 SLP204 T00830067=
201604250353 METAR KBLI 250353Z 00000KT 10SM FEW032 09/07 A3010 RMK AO2 RAB03E15 SLP198 P0000 T00890067=
201604250253 METAR KBLI 250253Z 19004KT 10SM BKN060 OVC075 12/05 A3008 RMK AO2 SLP192 T01170050 53004=
201604250153 METAR KBLI 250153Z 17007KT 10SM FEW055 SCT075 12/05 A3006 RMK AO2 SLP188 T01170050=
201604250053 METAR KBLI 250053Z 17008KT 10SM CLR 12/06 A3006 RMK AO2 SLP185 T01220061=
201604242353 METAR KBLI 242353Z 16008KT 10SM CLR 12/06 A3006 RMK AO2 SLP188 60001 T01220061 10128 20094 50003=
201604242253 METAR KBLI 242253Z 16011G20KT 10SM SCT050 12/07 A3007 RMK AO2 SLP188 T01220067=
201604242153 METAR KBLI 242153Z 16012KT 10SM FEW021 12/07 A3006 RMK AO2 SLP186 T01170067=
201604242138 SPECI KBLI 242138Z 15011G16KT 10SM FEW020 11/07 A3006 RMK AO2 T01110067=
201604242100 SPECI KBLI 242100Z 14009KT 10SM BKN018 OVC100 11/07 A3006 RMK AO2 T01110072=
201604242053 METAR KBLI 242053Z 14009KT 10SM SCT018 OVC100 11/07 A3005 RMK AO2 SLP184 60001 T01060072 53008=
201604241953 METAR KBLI 241953Z 19005KT 10SM FEW023 BKN055 OVC095 10/07 A3005 RMK AO2 RAE05 SLP181 P0000 T01000072=
201604241853 METAR KBLI 241853Z 11008KT 9SM -RA FEW023 BKN042 OVC070 09/07 A3003 RMK AO2 RAB03E13B22 SLP176 P0001 T00940072=
201604241851 SPECI KBLI 241851Z 11009KT 9SM -RA FEW012 SCT023 OVC042 09/07 A3003 RMK AO2 RAB03E13B22 P0001=
201604241840 SPECI KBLI 241840Z 13009KT 10SM -RA SCT012 BKN023 OVC038 10/07 A3003 RMK AO2 RAB03E13B22 P0000 T01000072=
201604241821 SPECI KBLI 241821Z 14007KT 10SM BKN010 BKN023 OVC044 11/08 A3002 RMK AO2 RAB03E13 P0000 T01060078=
201604241800 SPECI KBLI 241800Z 13005KT 10SM FEW008 BKN032 OVC045 11/08 A3002 RMK AO2 T01060078=
201604241753 METAR KBLI 241753Z 14004KT 10SM FEW011 BKN017 OVC042 11/08 A3002 RMK AO2 RAE17 SLP171 P0003 60012 T01060078 10111 20094 53013=
201604241653 METAR KBLI 241653Z 00000KT 6SM -RA BR FEW011 BKN017 OVC042 09/07 A3000 RMK AO2 RAB01 SLP165 P0009 T00940072=
201604241619 SPECI KBLI 241619Z 00000KT 5SM -RA BR FEW012 BKN019 OVC038 09/08 A2999 RMK AO2 RAB01 P0005 T00940083=
201604241611 SPECI KBLI 241611Z VRB03KT 2SM RA BR SCT012 OVC021 10/08 A2999 RMK AO2 RAB01 P0004 T01000083=
201604241553 METAR KBLI 241553Z 17005KT 10SM SCT010 OVC022 11/09 A2999 RMK AO2 SLP161 CIG LWR SW-NW T01060089=
201604241453 METAR KBLI 241453Z 16008KT 10SM BKN025 OVC080 11/08 A2998 RMK AO2 SLP158 T01060083 53005=
201604241353 METAR KBLI 241353Z 17007KT 10SM FEW009 BKN025 OVC080 10/08 A2997 RMK AO2 SLP157 T01000083=
201604241336 SPECI KBLI 241336Z 16006KT 10SM FEW009 BKN025 BKN080 10/08 A2997 RMK AO2 T01000083=
201604241253 METAR KBLI 241253Z AUTO 16003KT 10SM FEW060 10/08 A2997 RMK AO2 SLP154 T01000083=
201604241153 METAR KBLI 241153Z AUTO 17004KT 10SM CLR 10/08 A2996 RMK AO2 SLP153 60010 70064 T01000083 10111 20100 50002=
201604241053 METAR KBLI 241053Z AUTO 16007KT 10SM BKN100 OVC120 11/08 A2996 RMK AO2 RAE40 SLP154 P0000 T01060083=
201604241032 SPECI KBLI 241032Z AUTO 16006KT 10SM -RA SCT021 BKN080 OVC090 11/09 A2996 RMK AO2 P0000 T01060089=
201604240953 METAR KBLI 240953Z AUTO 19005KT 10SM -RA BKN017 BKN023 OVC065 11/09 A2996 RMK AO2 SLP153 P0002 T01060089=
201604240908 SPECI KBLI 240908Z AUTO 17007KT 10SM -RA SCT016 BKN047 OVC055 11/09 A2996 RMK AO2 P0001 T01060089=
201604240853 METAR KBLI 240853Z AUTO 17006KT 10SM -RA BKN016 BKN026 OVC050 11/09 A2996 RMK AO2 SLP152 P0001 60008 T01060094 53002=
201604240830 SPECI KBLI 240830Z AUTO 18004KT 10SM -RA BKN018 BKN023 OVC055 11/09 A2996 RMK AO2 P0001 T01060089=
201604240753 METAR KBLI 240753Z AUTO 16005KT 10SM -RA OVC055 11/09 A2995 RMK AO2 SLP149 P0002 T01060094 401610106=
201604240653 METAR KBLI 240653Z AUTO 14005KT 10SM -RA OVC050 11/10 A2995 RMK AO2 SLP150 P0005 T01060100=
201604240553 METAR KBLI 240553Z AUTO 27005KT 4SM RA BR OVC045 11/09 A2995 RMK AO2 SLP149 P0019 60054 T01060094 10161 20106 51004=
201604240453 METAR KBLI 240453Z VRB04KT 3SM RA BR SCT029 OVC038 11/10 A2995 RMK AO2 SLP149 P0024 T01060100=
201604240450 SPECI KBLI 240450Z 26004KT 3SM RA BR SCT029 OVC038 11/10 A2995 RMK AO2 P0023=
201604240444 SPECI KBLI 240444Z VRB04KT 2 1/2SM +RA BR BKN029 OVC036 11/10 A2996 RMK AO2 P0021 T01110100=
201604240434 SPECI KBLI 240434Z 18004KT 5SM RA BR OVC030 11/10 A2996 RMK AO2 P0014 T01110100=
201604240424 SPECI KBLI 240424Z 30005KT 7SM -RA OVC029 11/10 A2995 RMK AO2 P0011 T01110100=
201604240353 METAR KBLI 240353Z 27009KT 4SM RA BR FEW038 OVC048 12/11 A2995 RMK AO2 RAB06 SLP148 P0011 T01170106=
201604240253 METAR KBLI 240253Z 00000KT 10SM FEW065 OVC080 14/10 A2994 RMK AO2 SLP145 T01440100 56013=
201604240153 METAR KBLI 240153Z 18005KT 10SM OVC070 15/09 A2995 RMK AO2 SLP148 T01500094=
201604240053 METAR KBLI 240053Z VRB05KT 10SM CLR 15/09 A2996 RMK AO2 SLP152 T01500089=
201604232353 METAR KBLI 232353Z 17010KT 10SM SCT095 15/08 A2998 RMK AO2 SLP157 T01500083 10161 20139 58013=
201604232253 METAR KBLI 232253Z 16008KT 10SM SCT050 BKN100 15/08 A2999 RMK AO2 SLP162 T01500078=
201604232153 METAR KBLI 232153Z 17009KT 10SM OVC048 14/09 A3001 RMK AO2 SLP168 T01440094=
201604232053 METAR KBLI 232053Z 17006KT 10SM OVC046 14/10 A3001 RMK AO2 SLP171 T01440100 58000=
201604231953 METAR KBLI 231953Z 17010G15KT 10SM OVC050 14/09 A3002 RMK AO2 SLP173 T01440094=
201604231853 METAR KBLI 231853Z 18006KT 10SM FEW049 SCT070 OVC080 14/09 A3002 RMK AO2 SLP173 T01390094=
201604231753 METAR KBLI 231753Z 17007KT 10SM SCT075 14/09 A3002 RMK AO2 SLP171 T01390089 10139 20117 51009=
201604231653 METAR KBLI 231653Z 16009KT 10SM OVC055 13/08 A3001 RMK AO2 SLP169 T01330078=
201604231553 METAR KBLI 231553Z 16011KT 10SM OVC055 12/09 A3000 RMK AO2 SLP166 T01220089=
201604231453 METAR KBLI 231453Z 17006KT 10SM OVC044 12/08 A2999 RMK AO2 SLP161 T01220083 53006=
201604231355 SPECI KBLI 231355Z 16007KT 10SM BKN047 OVC055 12/09 A2997 RMK AO2 T01220089=
201604231353 METAR KBLI 231353Z AUTO 16006KT 10SM SCT047 OVC055 12/09 A2997 RMK AO2 SLP156 T01220089=
201604231253 METAR KBLI 231253Z AUTO 16009KT 10SM OVC041 12/09 A2997 RMK AO2 SLP157 T01220094=
201604231153 METAR KBLI 231153Z AUTO 16008KT 10SM OVC032 13/10 A2997 RMK AO2 SLP154 60001 70001 T01280100 10133 20122 51018=
201604231053 METAR KBLI 231053Z AUTO 17007KT 10SM OVC033 13/11 A2995 RMK AO2 SLP149 T01280106=
201604230953 METAR KBLI 230953Z AUTO 17008KT 10SM OVC055 13/11 A2993 RMK AO2 SLP143 T01280106=
201604230853 METAR KBLI 230853Z AUTO 17009KT 10SM SCT065 OVC095 13/11 A2992 RMK AO2 RAE38 SLP137 P0000 60001 T01280106 51012=
201604230753 METAR KBLI 230753Z AUTO 16006KT 10SM -RA OVC085 13/11 A2990 RMK AO2 RAB33 SLP133 P0001 T01280106 401720100=
201604230653 METAR KBLI 230653Z AUTO 17005KT 10SM OVC070 13/10 A2989 RMK AO2 SLP129 T01330100=
201604230553 METAR KBLI 230553Z AUTO 15007KT 10SM BKN041 BKN049 OVC080 13/11 A2988 RMK AO2 SLP125 60000 T01330106 10156 20128 51019=
201604230453 METAR KBLI 230453Z 17009KT 10SM OVC033 13/11 A2986 RMK AO2 SLP119 T01280111=
201604230353 METAR KBLI 230353Z 17011KT 10SM FEW023 BKN039 OVC050 13/11 A2984 RMK AO2 SLP112 T01330106=
201604230253 METAR KBLI 230253Z 17008KT 10SM SCT018 BKN038 OVC050 14/11 A2982 RMK AO2 SLP106 60000 T01390106 51024=
201604230231 SPECI KBLI 230231Z 17008KT 10SM SCT018 BKN038 OVC050 14/11 A2982 RMK AO2 T01390106=
201604230213 SPECI KBLI 230213Z 17010KT 10SM BKN017 BKN040 OVC060 14/11 A2981 RMK AO2 T01390106=
201604230153 METAR KBLI 230153Z 17010KT 10SM FEW020 BKN055 OVC070 14/11 A2980 RMK AO2 RAB09E19 SLP099 P0000 T01390106=
201604230053 METAR KBLI 230053Z 17011G18KT 10SM SCT055 OVC070 14/11 A2978 RMK AO2 SLP092 T01440106=
201604222353 METAR KBLI 222353Z 16009KT 10SM OVC055 16/11 A2975 RMK AO2 SLP082 60000 T01560106 10172 20133 51022=
201604222253 METAR KBLI 222253Z 16010KT 10SM FEW047 BKN060 OVC095 16/11 A2973 RMK AO2 RAE2155 SLP075 P0000 T01610106=
201604222153 METAR KBLI 222153Z 17007KT 10SM -RA OVC075 15/13 A2971 RMK AO2 RAB2058E20B43 SLP067 P0000 T01500128=
201604222053 METAR KBLI 222053Z 18006KT 10SM FEW030 OVC080 14/12 A2969 RMK AO2 RAB03E51 SLP059 P0000 60000 T01390117 52021=
201604221953 METAR KBLI 221953Z VRB04KT 10SM FEW085 BKN110 15/11 A2967 RMK AO2 SLP054 T01500111=
201604221853 METAR KBLI 221853Z 18006KT 10SM BKN110 15/11 A2964 RMK AO2 RAE02 SLP044 P0000 T01500111=
201604221753 METAR KBLI 221753Z 16006KT 10SM -RA FEW037 OVC090 14/11 A2963 RMK AO2 RAB27 SLP037 P0000 60000 T01440111 10150 20100 53003=
201604221653 METAR KBLI 221653Z 16007KT 10SM FEW029 OVC110 14/11 A2961 RMK AO2 SLP034 T01440106=
201604221605 SPECI KBLI 221605Z 17006KT 10SM BKN030 OVC110 14/11 A2961 RMK AO2 T01440106=
201604221553 METAR KBLI 221553Z 17005KT 10SM BKN025 OVC031 14/11 A2962 RMK AO2 SLP035 T01440106=
201604221453 METAR KBLI 221453Z 15003KT 10SM OVC021 13/10 A2962 RMK AO2 SLP035 T01330100 50005=
201604221416 SPECI KBLI 221416Z 17004KT 10SM SCT014 OVC022 13/10 A2962 RMK AO2 T01280100=
201604221353 METAR KBLI 221353Z 16006KT 10SM OVC012 13/10 A2962 RMK AO2 SLP036 T01280100=
201604221349 SPECI KBLI 221349Z AUTO 16005KT 10SM OVC012 13/10 A2962 RMK AO2=
201604221324 SPECI KBLI 221324Z AUTO 16008KT 10SM FEW006 BKN009 OVC016 12/11 A2961 RMK AO2 T01220106=
201604221306 SPECI KBLI 221306Z AUTO 18005KT 10SM FEW006 OVC015 12/11 A2961 RMK AO2 T01220111=
201604221253 METAR KBLI 221253Z AUTO 17005KT 10SM OVC015 12/11 A2960 RMK AO2 SLP030 T01220106=
201604221214 SPECI KBLI 221214Z AUTO 00000KT 10SM BKN014 11/09 A2960 RMK AO2 T01060094=
201604221153 METAR KBLI 221153Z AUTO 00000KT 10SM FEW014 11/09 A2960 RMK AO2 SLP028 70002 T01060094 10139 20106 55006=
201604221053 METAR KBLI 221053Z AUTO 00000KT 10SM CLR 11/09 A2958 RMK AO2 SLP023 T01060094=
201604220953 METAR KBLI 220953Z AUTO 31005KT 10SM FEW090 11/09 A2960 RMK AO2 SLP028 T01060089=
201604220853 METAR KBLI 220853Z AUTO 32003KT 10SM CLR 12/09 A2962 RMK AO2 SLP034 T01170094 58021=
201604220753 METAR KBLI 220753Z AUTO 00000KT 10SM OVC100 13/10 A2965 RMK AO2 SLP044 T01280100 401890122=
201604220653 METAR KBLI 220653Z AUTO 00000KT 10SM OVC090 13/11 A2966 RMK AO2 SLP051 T01280106=
201604220553 METAR KBLI 220553Z AUTO 00000KT 10SM OVC100 14/10 A2968 RMK AO2 SLP056 T01390100 10183 20133 58004=
201604220453 METAR KBLI 220453Z 18004KT 10SM BKN095 BKN120 14/09 A2970 RMK AO2 SLP062 T01440094=
201604220353 METAR KBLI 220353Z 17006KT 10SM FEW090 15/09 A2970 RMK AO2 LTG DSNT NE SLP063 T01500094=
201604220253 METAR KBLI 220253Z 17006KT 10SM BKN090 15/09 A2969 RMK AO2 SLP061 T01500094 56001=
201604220153 METAR KBLI 220153Z 17006KT 10SM SCT090 BKN110 16/09 A2969 RMK AO2 SLP060 T01610094=
201604220053 METAR KBLI 220053Z 21006KT 10SM FEW110 17/09 A2969 RMK AO2 SLP059 T01720089=
201604212353 METAR KBLI 212353Z 17006KT 10SM FEW110 18/09 A2969 RMK AO2 SLP061 T01830094 10189 20156 58019=
201604212300 METAR KBLI NIL=
201604212253 METAR KBLI 212253Z 17006KT 10SM FEW120 18/08 A2971 RMK AO2 SLP067 T01830078=
201604212200 METAR KBLI NIL=
201604212153 METAR KBLI 212153Z 16007KT 10SM CLR 18/09 A2974 RMK AO2 SLP075 T01780089=
201604212053 METAR KBLI 212053Z 16008KT 10SM CLR 19/09 A2975 RMK AO2 SLP080 T01890089 56012=
201604211953 METAR KBLI 211953Z 19005KT 10SM CLR 17/10 A2976 RMK AO2 SLP083 T01720100=
201604211853 METAR KBLI 211853Z 18006KT 10SM CLR 17/11 A2977 RMK AO2 SLP086 T01670111=
201604211753 METAR KBLI 211753Z 17007KT 10SM CLR 16/11 A2979 RMK AO2 SLP093 60002 T01610111 10161 20122 58004=
201604211653 METAR KBLI 211653Z VRB05KT 10SM FEW011 14/11 A2980 RMK AO2 SLP096 T01390111=
201604211553 METAR KBLI 211553Z 19006KT 10SM FEW100 13/11 A2980 RMK AO2 SLP098 T01330106=
201604211453 METAR KBLI 211453Z 17008KT 10SM BKN100 13/11 A2980 RMK AO2 RAB10E25 SLP097 P0002 60002 T01280106 51005=
201604211353 METAR KBLI 211353Z 17008KT 10SM OVC100 12/11 A2980 RMK AO2 RAB11E47 SLP095 P0000 T01220106=
201604211253 METAR KBLI 211253Z AUTO 17009KT 10SM OVC100 13/11 A2979 RMK AO2 SLP093 T01330106=
201604211153 METAR KBLI 211153Z AUTO 16006KT 10SM OVC095 13/11 A2978 RMK AO2 RAB09E28 SLP091 P0000 60000 T01330111 10178 20128 55002=
201604211053 METAR KBLI 211053Z AUTO 18007KT 10SM OVC100 13/10 A2978 RMK AO2 SLP088 T01280100=
201604210953 METAR KBLI 210953Z AUTO 17009KT 10SM OVC110 13/10 A2980 RMK AO2 SLP095 T01280100=
201604210853 METAR KBLI 210853Z AUTO 17010KT 10SM CLR 14/10 A2979 RMK AO2 SLP093 T01390100 51019=
201604210753 METAR KBLI 210753Z AUTO 17011G17KT 10SM CLR 16/10 A2978 RMK AO2 SLP090 T01560100 402560078=
201604210653 METAR KBLI 210653Z AUTO 17017G23KT 10SM BKN110 16/10 A2975 RMK AO2 SLP078 T01610100=
201604210553 METAR KBLI 210553Z AUTO 20007KT 10SM CLR 17/10 A2974 RMK AO2 SLP074 T01670100 10250 20150 51017=
201604210453 METAR KBLI 210453Z 21004KT 10SM CLR 16/11 A2972 RMK AO2 SLP070 T01560111=
201604210353 METAR KBLI 210353Z 18008KT 10SM CLR 18/10 A2971 RMK AO2 SLP065 T01780100=
201604210253 METAR KBLI 210253Z 16005KT 10SM CLR 18/11 A2968 RMK AO2 SLP058 T01780106 56010=
201604210153 METAR KBLI 210153Z 00000KT 10SM CLR 21/09 A2969 RMK AO2 SLP059 T02110094=
201604210053 METAR KBLI 210053Z 28006KT 10SM CLR 23/10 A2969 RMK AO2 SLP060 T02280100=
201604202353 METAR KBLI 202353Z 29005KT 10SM CLR 25/11 A2972 RMK AO2 SLP068 T02500106 10256 20217 58028=
201604202253 METAR KBLI 202253Z 27008KT 10SM CLR 25/09 A2974 RMK AO2 SLP077 T02500094=
201604202153 METAR KBLI 202153Z VRB06KT 10SM CLR 24/11 A2977 RMK AO2 SLP088 T02440111=
201604202053 METAR KBLI 202053Z 28005KT 10SM CLR 23/11 A2980 RMK AO2 SLP096 T02330111 58018=
201604201953 METAR KBLI 201953Z VRB04KT 10SM CLR 22/12 A2982 RMK AO2 SLP104 T02220117=
201604201946 SPECI KBLI 201946Z 27006KT 10SM CLR 22/11 A2982 RMK AO2 T02220111=
201604201853 METAR KBLI 201853Z 01006KT 10SM CLR 23/10 A2983 RMK AO2 SLP107 T02330100=
201604201753 METAR KBLI 201753Z 05005KT 10SM CLR 21/09 A2985 RMK AO2 SLP114 T02110094 10217 20078 58004=
201604201719 SPECI KBLI 201719Z 01007KT 350V060 10SM CLR 21/10 A2985 RMK AO2 T02060100=
201604201653 METAR KBLI 201653Z 02004KT 10SM CLR 19/11 A2986 RMK AO2 SLP116 T01940106=
201604201553 METAR KBLI 201553Z 36005KT 10SM CLR 16/10 A2986 RMK AO2 SLP116 T01610100=
201604201453 METAR KBLI 201453Z 00000KT 10SM CLR 13/11 A2986 RMK AO2 SLP118 T01330106 55001=
201604201353 METAR KBLI 201353Z 00000KT 10SM CLR 09/09 A2986 RMK AO2 SLP117 T00940089=
201604201344 SPECI KBLI 201344Z AUTO 00000KT 4SM BR CLR 09/08 A2986 RMK AO2 T00890083=
201604201341 SPECI KBLI 201341Z AUTO 00000KT 1SM R16/P6000FT BR CLR 09/08 A2986 RMK AO2 T00890078=
201604201330 SPECI KBLI 201330Z AUTO 00000KT 1/2SM R16/P6000FT FG VV003 08/07 A2986 RMK AO2 T00780072=
201604201328 SPECI KBLI 201328Z AUTO 00000KT 1 1/4SM BR CLR 08/07 A2986 RMK AO2 T00830072=
201604201253 METAR KBLI 201253Z AUTO 00000KT 8SM CLR 09/08 A2986 RMK AO2 SLP117 T00890078=
201604201246 SPECI KBLI 201246Z AUTO 00000KT 3SM BR CLR 08/08 A2986 RMK AO2 T00830078=
201604201242 SPECI KBLI 201242Z AUTO 00000KT 1 3/4SM BR CLR 08/08 A2986 RMK AO2 VIS 1V5 T00830078=
201604201214 SPECI KBLI 201214Z AUTO 00000KT 3SM BR CLR 09/08 A2986 RMK AO2 T00940083=
201604201205 SPECI KBLI 201205Z AUTO 00000KT 1 3/4SM BR CLR 09/08 A2987 RMK AO2 VIS 3/4V4 T00940083=
201604201200 SPECI KBLI 201200Z AUTO 00000KT 3SM BR CLR 09/08 A2987 RMK AO2 T00890083=
201604201153 METAR KBLI 201153Z AUTO 00000KT 1 3/4SM BR CLR 09/08 A2987 RMK AO2 VIS 1V4 SLP120 T00890078 10133 20089 51002=
201604201100 SPECI KBLI 201100Z AUTO 00000KT 10SM CLR 10/09 A2987 RMK AO2 T01000089=
201604201053 METAR KBLI 201053Z AUTO 00000KT 2 1/2SM BR CLR 10/09 A2987 RMK AO2 SLP119 T01000089=
201604201051 SPECI KBLI 201051Z AUTO 00000KT 2SM BR CLR 10/09 A2987 RMK AO2=
201604200953 METAR KBLI 200953Z AUTO 00000KT 10SM CLR 10/09 A2986 RMK AO2 SLP118 T01000089=
201604200853 METAR KBLI 200853Z AUTO 00000KT 10SM CLR 11/09 A2986 RMK AO2 SLP118 T01060094 56002=
201604200753 METAR KBLI 200753Z AUTO 00000KT 10SM CLR 12/10 A2987 RMK AO2 SLP120 T01170100 402330083=
201604200653 METAR KBLI 200653Z AUTO 00000KT 10SM CLR 12/10 A2986 RMK AO2 SLP118 T01170100=
201604200553 METAR KBLI 200553Z AUTO 00000KT 10SM CLR 13/10 A2987 RMK AO2 SLP120 T01330100 10233 20122 58002=
201604200453 METAR KBLI 200453Z 00000KT 10SM CLR 13/10 A2988 RMK AO2 SLP123 T01330100=
201604200353 METAR KBLI 200353Z 00000KT 10SM CLR 15/11 A2987 RMK AO2 SLP121 T01500106=
201604200253 METAR KBLI 200253Z 00000KT 10SM CLR 17/12 A2988 RMK AO2 SLP123 T01720122 56009=
201604200153 METAR KBLI 200153Z 00000KT 10SM CLR 20/11 A2988 RMK AO2 SLP124 T02000111=
201604200053 METAR KBLI 200053Z 28007KT 10SM CLR 22/11 A2989 RMK AO2 SLP126 T02170111=
201604192353 METAR KBLI 192353Z 30004KT 10SM CLR 23/11 A2991 RMK AO2 SLP132 T02280111 10233 20200 58022=
201604192253 METAR KBLI 192253Z 27006KT 10SM CLR 22/11 A2993 RMK AO2 SLP140 T02220106=
201604192153 METAR KBLI 192153Z 27007KT 10SM CLR 23/12 A2995 RMK AO2 SLP149 T02280117=
201604192053 METAR KBLI 192053Z 28007KT 8SM CLR 23/12 A2997 RMK AO2 SLP155 T02280122 57014=
201604191953 METAR KBLI 191953Z 29006KT 10SM CLR 22/12 A2998 RMK AO2 SLP159 T02170117=
201604191853 METAR KBLI 191853Z 28003KT 10SM CLR 22/12 A3000 RMK AO2 SLP164 T02170117=
201604191753 METAR KBLI 191753Z 03003KT 10SM CLR 20/11 A3001 RMK AO2 SLP168 T02000111 10200 20083 58005=
201604191653 METAR KBLI 191653Z 29003KT 10SM CLR 17/10 A3002 RMK AO2 SLP173 T01720100=
201604191553 METAR KBLI 191553Z 00000KT 10SM CLR 15/11 A3003 RMK AO2 SLP173 T01500106=
201604191453 METAR KBLI 191453Z 00000KT 10SM CLR 12/11 A3003 RMK AO2 SLP174 T01220111 55000=
201604191353 METAR KBLI 191353Z 00000KT 10SM CLR 10/09 A3003 RMK AO2 SLP174 T01000089=
201604191253 METAR KBLI 191253Z 00000KT 10SM CLR 09/08 A3002 RMK AO2 SLP173 T00940083=
201604191153 METAR KBLI 191153Z 00000KT 10SM CLR 09/08 A3003 RMK AO2 SLP174 T00940083 10144 20094 53001=
201604191053 METAR KBLI 191053Z 00000KT 10SM CLR 10/08 A3002 RMK AO2 SLP171 T01000083=
201604190953 METAR KBLI 190953Z 00000KT 10SM CLR 11/09 A3002 RMK AO2 SLP171 T01060089=
201604190853 METAR KBLI 190853Z 00000KT 10SM CLR 11/09 A3002 RMK AO2 SLP173 T01060089 50001=
201604190753 METAR KBLI 190753Z 00000KT 10SM CLR 12/09 A3003 RMK AO2 SLP173 T01220089 402830061=
201604190653 METAR KBLI 190653Z 00000KT 10SM CLR 12/09 A3002 RMK AO2 SLP173 T01220094=
201604190553 METAR KBLI 190553Z 14003KT 10SM CLR 14/11 A3002 RMK AO2 SLP172 T01440111 10272 20139 53007=
201604190453 METAR KBLI 190453Z 18003KT 10SM CLR 16/11 A3001 RMK AO2 SLP167 T01560111=
201604190353 METAR KBLI 190353Z 00000KT 10SM CLR 17/12 A3001 RMK AO2 SLP167 T01670122=
201604190253 METAR KBLI 190253Z 00000KT 10SM CLR 19/13 A3000 RMK AO2 SLP165 T01940133 58008=
201604190153 METAR KBLI 190153Z 00000KT 10SM CLR 24/13 A3001 RMK AO2 SLP168 T02440128=
201604190053 METAR KBLI 190053Z 30005KT 10SM CLR 26/12 A3002 RMK AO2 SLP171 T02610122=
201604182353 METAR KBLI 182353Z 31006KT 10SM CLR 27/13 A3003 RMK AO2 SLP174 T02670128 10283 20200 58018=
201604182253 METAR KBLI 182253Z 00000KT 10SM CLR 28/10 A3004 RMK AO2 SLP178 T02830100=
201604182153 METAR KBLI 182153Z 00000KT 10SM CLR 27/08 A3007 RMK AO2 SLP187 T02720083=
201604182053 METAR KBLI 182053Z 36005KT 10SM CLR 26/11 A3008 RMK AO2 SLP191 T02610111 58009=
201604182042 SPECI KBLI 182042Z 01004KT 10SM CLR 26/11 A3008 RMK AO2 T02560106=
201604181953 METAR KBLI 181953Z 32004KT 10SM CLR 24/11 A3009 RMK AO2 SLP195 T02390111=
201604181853 METAR KBLI 181853Z VRB04KT 10SM CLR 22/11 A3010 RMK AO2 SLP198 T02220106=
201604181753 METAR KBLI 181753Z 01003KT 10SM CLR 20/10 A3011 RMK AO2 SLP200 T02000100 10200 20061 50004=
201604181653 METAR KBLI 181653Z 00000KT 10SM CLR 17/09 A3011 RMK AO2 SLP202 T01670089=
201604181553 METAR KBLI 181553Z 29003KT 10SM CLR 14/09 A3011 RMK AO2 SLP204 T01390094=
201604181453 METAR KBLI 181453Z VRB03KT 10SM CLR 12/10 A3009 RMK AO2 SLP197 T01220100 53003=
201604181353 METAR KBLI 181353Z 00000KT 10SM CLR 08/07 A3008 RMK AO2 SLP195 T00780072=
201604181351 SPECI KBLI 181351Z 00000KT 10SM CLR 08/07 A3009 RMK AO2=
201604181342 SPECI KBLI 181342Z AUTO 00000KT 2 1/2SM BR CLR 07/06 A3009 RMK AO2 T00720061=
201604181319 SPECI KBLI 181319Z AUTO 00000KT 8SM CLR 07/07 A3008 RMK AO2 T00720067=
201604181312 SPECI KBLI 181312Z AUTO 00000KT 2SM BR CLR 08/07 A3008 RMK AO2 T00780067=
201604181305 SPECI KBLI 181305Z AUTO 00000KT 3/4SM R16/P6000FT BR CLR 07/06 A3008 RMK AO2 T00720056=
201604181253 METAR KBLI 181253Z AUTO 00000KT 6SM BR CLR 07/07 A3008 RMK AO2 SLP194 T00720067=
201604181153 METAR KBLI 181153Z AUTO 00000KT 10SM CLR 08/06 A3008 RMK AO2 SLP192 T00780061 10106 20072 56005=
201604181135 SPECI KBLI 181135Z AUTO 00000KT 9SM CLR 08/07 A3008 RMK AO2 T00780067=
201604181128 SPECI KBLI 181128Z AUTO 00000KT 2SM BR CLR 07/07 A3008 RMK AO2 T00720067=
201604181053 METAR KBLI 181053Z AUTO 00000KT 8SM CLR 09/08 A3008 RMK AO2 SLP191 T00890078=
201604180953 METAR KBLI 180953Z AUTO 00000KT 3SM BR CLR 08/07 A3008 RMK AO2 SLP193 T00780067=
201604180853 METAR KBLI 180853Z AUTO 00000KT 10SM CLR 09/08 A3009 RMK AO2 SLP196 T00890078 56007=
201604180753 METAR KBLI 180753Z AUTO 00000KT 10SM CLR 10/08 A3010 RMK AO2 SLP198 T01000083 402110050=
201604180653 METAR KBLI 180653Z AUTO 00000KT 10SM CLR 10/08 A3010 RMK AO2 SLP199 T01000083=
201604180553 METAR KBLI 180553Z AUTO 00000KT 10SM CLR 11/09 A3011 RMK AO2 SLP204 T01060089 10211 20106 50000=
201604180453 METAR KBLI 180453Z 00000KT 10SM CLR 12/09 A3011 RMK AO2 SLP204 T01170089=
201604180353 METAR KBLI 180353Z 00000KT 10SM CLR 13/09 A3011 RMK AO2 SLP204 T01280094=
201604180253 METAR KBLI 180253Z 00000KT 10SM CLR 14/10 A3011 RMK AO2 SLP203 T01440100 56011=
201604180153 METAR KBLI 180153Z 25003KT 10SM CLR 17/10 A3012 RMK AO2 SLP205 T01720100=
201604180053 METAR KBLI 180053Z 28005KT 10SM CLR 21/11 A3013 RMK AO2 SLP208 T02060111=
201604172353 METAR KBLI 172353Z 27006KT 10SM CLR 20/11 A3014 RMK AO2 SLP214 T02000106 10211 20167 58017=
201604172253 METAR KBLI 172253Z 29003KT 10SM CLR 20/11 A3016 RMK AO2 SLP221 T02000111=
201604172153 METAR KBLI 172153Z 26006KT 10SM CLR 18/10 A3018 RMK AO2 SLP228 T01830100=
201604172053 METAR KBLI 172053Z 29005KT 10SM CLR 20/11 A3019 RMK AO2 SLP232 T02000106 57018=
201604171953 METAR KBLI 171953Z 32003KT 10SM CLR 20/10 A3021 RMK AO2 SLP237 T02000100=
201604171853 METAR KBLI 171853Z VRB03KT 10SM CLR 18/09 A3023 RMK AO2 SLP244 T01830089=
201604171753 METAR KBLI 171753Z VRB04KT 10SM CLR 17/09 A3025 RMK AO2 SLP250 T01720089 10172 20050 58008=
201604171653 METAR KBLI 171653Z 04005KT 10SM CLR 15/08 A3026 RMK AO2 SLP253 T01500078=
201604171553 METAR KBLI 171553Z 00000KT 10SM CLR 12/07 A3027 RMK AO2 SLP257 T01220072=
201604171453 METAR KBLI 171453Z 00000KT 10SM CLR 10/07 A3027 RMK AO2 SLP258 T01000067 56004=
201604171353 METAR KBLI 171353Z 00000KT 10SM CLR 08/06 A3027 RMK AO2 SLP258 T00780061=
201604171253 METAR KBLI 171253Z AUTO 00000KT 10SM CLR 06/05 A3028 RMK AO2 SLP261 T00560050=
201604171153 METAR KBLI 171153Z AUTO 00000KT 9SM CLR 06/05 A3028 RMK AO2 SLP262 T00610050 10100 20050 58009=
201604171053 METAR KBLI 171053Z AUTO 00000KT 8SM CLR 06/04 A3029 RMK AO2 SLP266 T00560044=
201604171037 SPECI KBLI 171037Z AUTO 00000KT 3SM BR CLR 06/06 A3029 RMK AO2 T00610056=
201604171011 SPECI KBLI 171011Z AUTO 00000KT 1 3/4SM BR CLR 06/06 A3030 RMK AO2 T00610056=
201604170953 METAR KBLI 170953Z AUTO 00000KT 7SM CLR 07/06 A3031 RMK AO2 SLP270 T00670061=
201604170913 SPECI KBLI 170913Z AUTO 00000KT 3SM BR FEW004 06/06 A3031 RMK AO2 T00610056=
201604170909 SPECI KBLI 170909Z AUTO 00000KT 1SM R16/P6000FT BR VV004 06/06 A3031 RMK AO2 T00610056=
201604170904 SPECI KBLI 170904Z AUTO 00000KT 1/2SM R16/P6000FT FG VV004 07/06 A3031 RMK AO2 T00720061=
201604170857 SPECI KBLI 170857Z AUTO 00000KT 3/4SM R16/P6000FT BR VV004 07/06 A3031 RMK AO2 T00670061=
201604170853 METAR KBLI 170853Z AUTO 00000KT 1 3/4SM BR CLR 07/06 A3031 RMK AO2 VIS 3/4V5 SLP271 T00670061 50001=
201604170753 METAR KBLI 170753Z AUTO 00000KT 6SM BR CLR 08/07 A3031 RMK AO2 SLP273 T00780067 401780044=
201604170653 METAR KBLI 170653Z AUTO 00000KT 10SM CLR 09/08 A3031 RMK AO2 SLP272 T00890078=
201604170553 METAR KBLI 170553Z AUTO 00000KT 10SM SCT085 10/08 A3031 RMK AO2 SLP270 T01000083 10172 20100 51006=
201604170453 METAR KBLI 170453Z 00000KT 10SM OVC085 11/08 A3031 RMK AO2 SLP269 T01060083=
201604170353 METAR KBLI 170353Z 00000KT 10SM CLR 11/08 A3030 RMK AO2 SLP267 T01110078=
201604170253 METAR KBLI 170253Z 26005KT 10SM FEW090 13/08 A3029 RMK AO2 SLP264 T01280083 55004=
201604170153 METAR KBLI 170153Z 27004KT 10SM SCT100 14/07 A3029 RMK AO2 SLP264 T01440072=
201604170053 METAR KBLI 170053Z 29003KT 10SM OVC110 16/07 A3029 RMK AO2 SLP263 T01610072=
201604162353 METAR KBLI 162353Z 28005KT 10SM SCT090 17/06 A3030 RMK AO2 SLP269 T01720056 10178 20117 58006=
201604162253 METAR KBLI 162253Z 02005KT 10SM BKN110 17/06 A3031 RMK AO2 SLP271 T01670056=
201604162200 METAR KBLI NIL=
201604162153 METAR KBLI 162153Z VRB03KT 10SM BKN110 17/06 A3032 RMK AO2 SLP274 T01670056=
201604162053 METAR KBLI 162053Z 01004KT 10SM BKN120 16/07 A3032 RMK AO2 SLP275 T01610067 58007=
201604161953 METAR KBLI 161953Z 00000KT 10SM CLR 14/06 A3034 RMK AO2 SLP282 T01440061=
201604161853 METAR KBLI 161853Z 00000KT 10SM CLR 13/07 A3034 RMK AO2 SLP283 T01330067=
201604161753 METAR KBLI 161753Z 00000KT 10SM CLR 12/06 A3034 RMK AO2 SLP283 T01170061 10117 20044 58002=
201604161653 METAR KBLI 161653Z 00000KT 10SM CLR 11/06 A3035 RMK AO2 SLP284 T01060061=
201604161553 METAR KBLI 161553Z 03003KT 10SM CLR 09/07 A3035 RMK AO2 SLP286 T00890067=
201604161453 METAR KBLI 161453Z 00000KT 10SM CLR 08/06 A3035 RMK AO2 SLP284 T00780056 53002=
201604161353 METAR KBLI 161353Z 00000KT 10SM CLR 04/04 A3035 RMK AO2 SLP285 T00440039=
201604161253 METAR KBLI 161253Z AUTO 00000KT 10SM OVC095 06/04 A3034 RMK AO2 SLP283 T00610044=
201604161153 METAR KBLI 161153Z AUTO 36003KT 10SM OVC095 06/04 A3034 RMK AO2 SLP283 T00560044 10083 20044 56001=
201604161053 METAR KBLI 161053Z AUTO 00000KT 10SM CLR 06/05 A3034 RMK AO2 SLP283 T00610050=
201604160953 METAR KBLI 160953Z AUTO 00000KT 10SM OVC110 06/06 A3034 RMK AO2 SLP283 T00610056=
201604160853 METAR KBLI 160853Z AUTO 01003KT 10SM BKN110 06/05 A3035 RMK AO2 SLP284 T00610050 55002=
201604160753 METAR KBLI 160753Z AUTO 00000KT 10SM BKN060 06/05 A3034 RMK AO2 SLP283 T00610050 401330061=
201604160653 METAR KBLI 160653Z AUTO 00000KT 10SM FEW100 07/06 A3034 RMK AO2 SLP283 T00720061=
201604160553 METAR KBLI 160553Z AUTO 00000KT 10SM BKN075 BKN110 08/06 A3035 RMK AO2 SLP285 T00780061 10133 20078 50006=
201604160453 METAR KBLI 160453Z 00000KT 10SM BKN070 OVC120 09/07 A3035 RMK AO2 SLP286 T00890072=
201604160353 METAR KBLI 160353Z 00000KT 10SM OVC065 11/07 A3035 RMK AO2 SLP283 T01060072=
201604160253 METAR KBLI 160253Z 15003KT 10SM BKN065 12/07 A3033 RMK AO2 SLP279 T01170072 53003=
201604160153 METAR KBLI 160153Z 17005KT 10SM CLR 13/07 A3032 RMK AO2 SLP275 T01280072=
201604160053 METAR KBLI 160053Z 17005KT 10SM CLR 13/06 A3032 RMK AO2 SLP274 T01280061=
201604152353 METAR KBLI 152353Z 17006KT 10SM CLR 13/07 A3032 RMK AO2 SLP275 T01280067 10133 20106 58001=
201604152253 METAR KBLI 152253Z VRB04KT 10SM OVC060 12/07 A3034 RMK AO2 SLP280 T01220067=
201604152153 METAR KBLI 152153Z 00000KT 10SM OVC043 12/06 A3034 RMK AO2 SLP280 T01170056=
201604152053 METAR KBLI 152053Z 17004KT 10SM OVC036 11/07 A3033 RMK AO2 SLP277 T01060067 51012=
201604151953 METAR KBLI 151953Z 17006KT 10SM OVC043 11/07 A3032 RMK AO2 SLP274 T01110067=
201604151853 METAR KBLI 151853Z 16010KT 10SM OVC047 11/07 A3031 RMK AO2 SLP273 T01110067=
201604151753 METAR KBLI 151753Z 16009KT 10SM BKN050 12/06 A3029 RMK AO2 SLP264 T01170061 10117 20094 53023=
201604151653 METAR KBLI 151653Z 16010KT 10SM FEW070 11/07 A3026 RMK AO2 SLP255 T01060067=
201604151553 METAR KBLI 151553Z 16009G15KT 10SM OVC065 11/07 A3024 RMK AO2 SLP248 T01060067=
201604151531 SPECI KBLI 151531Z 17009G16KT 10SM SCT026 BKN065 11/06 A3024 RMK AO2 T01060061=
201604151453 METAR KBLI 151453Z 16009KT 10SM OVC025 11/06 A3022 RMK AO2 SLP241 T01060056 53024=
201604151353 METAR KBLI 151353Z 16010KT 10SM OVC026 10/06 A3019 RMK AO2 SLP231 T01000056=
201604151253 METAR KBLI 151253Z AUTO 16009KT 10SM OVC026 10/06 A3018 RMK AO2 SLP226 T01000061=
201604151153 METAR KBLI 151153Z AUTO 15012KT 10SM BKN022 09/06 A3015 RMK AO2 SLP217 70001 T00940056 10094 20067 53025=
201604151053 METAR KBLI 151053Z AUTO 15010G17KT 10SM OVC019 09/06 A3012 RMK AO2 SLP208 T00940056=
201604151004 SPECI KBLI 151004Z AUTO 15009KT 10SM BKN018 09/06 A3010 RMK AO2 T00890061=
201604150953 METAR KBLI 150953Z AUTO 14009KT 10SM SCT018 08/06 A3010 RMK AO2 SLP199 T00830056=
201604150853 METAR KBLI 150853Z AUTO 14007KT 10SM CLR 08/05 A3008 RMK AO2 SLP192 T00780050 51027=
201604150753 METAR KBLI 150753Z AUTO 15006KT 10SM CLR 07/04 A3005 RMK AO2 SLP185 T00720044 401000067=
201604150653 METAR KBLI 150653Z AUTO 15005KT 10SM CLR 08/04 A3002 RMK AO2 SLP175 T00780044=
201604150553 METAR KBLI 150553Z AUTO 13008KT 10SM CLR 08/05 A2999 RMK AO2 SLP165 T00830050 10100 20083 51023=
201604150453 METAR KBLI 150453Z 13007KT 10SM CLR 08/06 A2998 RMK AO2 SLP160 T00830061=
201604150353 METAR KBLI 150353Z 16009KT 10SM CLR 09/06 A2995 RMK AO2 SLP150 T00890061=
201604150253 METAR KBLI 150253Z 17006KT 10SM SCT006 09/07 A2992 RMK AO2 SLP141 T00890072 51015=
201604150153 METAR KBLI 150153Z 17007KT 10SM FEW075 OVC095 09/06 A2990 RMK AO2 SLP134 T00940061=
201604150053 METAR KBLI 150053Z 16004KT 10SM BKN039 OVC090 10/06 A2988 RMK AO2 SLP126 T01000056=
201604142353 METAR KBLI 142353Z 18005KT 10SM SCT075 09/06 A2986 RMK AO2 SLP120 60001 T00940061 10094 20083 51018=
201604142253 METAR KBLI 142253Z 16004KT 10SM SCT022 SCT045 OVC060 09/07 A2985 RMK AO2 RAB18E39 SLP116 P0000 T00890067=
201604142153 METAR KBLI 142153Z 17005KT 10SM OVC060 09/07 A2983 RMK AO2 RAE48 SLP109 P0000 T00890067=
201604142053 METAR KBLI 142053Z 16006KT 10SM -RA SCT022 SCT045 OVC060 08/06 A2981 RMK AO2 RAB13 SLP102 P0000 60001 T00830061 51020=
201604141953 METAR KBLI 141953Z VRB04KT 10SM OVC032 09/05 A2979 RMK AO2 SLP096 T00890050=
201604141853 METAR KBLI 141853Z VRB03KT 10SM FEW013 FEW028 OVC034 09/07 A2977 RMK AO2 RAE40 SLP090 P0001 T00890067=
201604141753 METAR KBLI 141753Z 00000KT 10SM -RA BKN036 OVC055 09/06 A2975 RMK AO2 SLP082 P0000 60000 T00890061 10094 20083 53009=
201604141653 METAR KBLI 141653Z 00000KT 10SM -RA OVC070 09/06 A2974 RMK AO2 RAB45 SLP077 P0000 T00940056=
201604141553 METAR KBLI 141553Z 00000KT 10SM BKN080 OVC090 09/06 A2973 RMK AO2 RAE03 SLP074 P0000 T00890061=
201604141453 METAR KBLI 141453Z 08004KT 10SM -RA BKN060 OVC075 09/04 A2972 RMK AO2 RAB19 SLP073 P0000 60000 T00890044 55000=
201604141353 METAR KBLI 141353Z 15003KT 10SM FEW060 OVC085 08/04 A2972 RMK AO2 SLP070 T00830039=
201604141253 METAR KBLI 141253Z AUTO 12006KT 10SM FEW055 08/04 A2972 RMK AO2 SLP070 T00830039=
201604141153 METAR KBLI 141153Z AUTO 16006KT 10SM BKN080 OVC110 09/04 A2972 RMK AO2 RAE04 SLP072 P0000 60000 70005 T00940044 10100 20078 51014=
201604141053 METAR KBLI 141053Z AUTO 13010KT 10SM -RA SCT049 BKN055 OVC075 09/05 A2971 RMK AO2 RAB46 SLP068 P0000 T00940050=
201604140953 METAR KBLI 140953Z AUTO 17004KT 10SM BKN055 BKN070 OVC080 08/04 A2971 RMK AO2 SLP067 T00830044=
201604140853 METAR KBLI 140853Z AUTO 00000KT 10SM SCT080 OVC100 08/04 A2968 RMK AO2 SLP059 T00830044 55001=
201604140753 METAR KBLI 140753Z AUTO 01005KT 10SM OVC110 08/04 A2967 RMK AO2 SLP053 T00780044 401330067=
201604140653 METAR KBLI 140653Z AUTO 36006KT 10SM CLR 08/04 A2967 RMK AO2 SLP055 T00780044=
201604140553 METAR KBLI 140553Z AUTO 35004KT 10SM CLR 08/04 A2969 RMK AO2 SLP060 T00830039 10128 20083 56030=
201604140453 METAR KBLI 140453Z 36004KT 10SM CLR 09/03 A2971 RMK AO2 SLP069 T00890033=
201604140353 METAR KBLI 140353Z 03007KT 10SM FEW110 09/04 A2974 RMK AO2 SLP079 T00940039=
201604140253 METAR KBLI 140253Z 03005KT 10SM SCT110 10/04 A2978 RMK AO2 SLP091 T01000044 58040=
201604140153 METAR KBLI 140153Z 02006KT 10SM SCT095 12/05 A2981 RMK AO2 SLP104 T01220050=
201604140053 METAR KBLI 140053Z 00000KT 10SM OVC075 12/04 A2987 RMK AO2 SLP120 T01220044=
201604132353 METAR KBLI 132353Z 00000KT 10SM FEW110 13/04 A2989 RMK AO2 SLP130 T01280044 10133 20111 56029=
201604132253 METAR KBLI 132253Z 15004KT 10SM FEW060 13/04 A2992 RMK AO2 SLP138 T01280039=
201604132153 METAR KBLI 132153Z 18006KT 10SM BKN050 BKN070 13/04 A2995 RMK AO2 SLP149 T01280039=
201604132053 METAR KBLI 132053Z 15007KT 10SM SCT040 BKN048 BKN060 12/04 A2998 RMK AO2 SLP159 T01220044 58016=
201604131953 METAR KBLI 131953Z 12008KT 10SM BKN040 BKN049 12/05 A3000 RMK AO2 SLP167 T01220050=
201604131853 METAR KBLI 131853Z 16011G18KT 10SM BKN036 OVC046 12/04 A3003 RMK AO2 SLP176 T01170039=
201604131753 METAR KBLI 131753Z 16008G16KT 10SM SCT028 BKN035 12/05 A3003 RMK AO2 SLP176 60005 T01170050 10117 20067 58022=
201604131653 METAR KBLI 131653Z 14010KT 10SM SCT041 10/06 A3005 RMK AO2 SLP185 T01000056=
201604131630 SPECI KBLI 131630Z 15007KT 100V170 10SM FEW025 SCT030 BKN040 10/07 A3006 RMK AO2 T01000067=
201604131553 METAR KBLI 131553Z 06003KT 10SM OVC024 08/06 A3008 RMK AO2 RAE1456 SLP195 P0000 T00830061=
201604131453 METAR KBLI 131453Z 00000KT 8SM -RA SCT016 BKN025 07/06 A3009 RMK AO2 RAB00 SLP199 P0005 60005 T00670056 58004=
201604131353 METAR KBLI 131353Z 11008KT 10SM OVC065 07/04 A3010 RMK AO2 RAB36E51 SLP200 P0000 T00670044=
201604131253 METAR KBLI 131253Z AUTO 14004KT 10SM OVC065 07/05 A3011 RMK AO2 SLP203 T00720050=
201604131153 METAR KBLI 131153Z AUTO 11008KT 10SM SCT042 OVC060 07/05 A3011 RMK AO2 SLP203 60001 70051 T00720050 10078 20067 51002=
201604131053 METAR KBLI 131053Z AUTO 00000KT 10SM SCT039 OVC055 08/06 A3010 RMK AO2 SLP202 T00780056=
201604130953 METAR KBLI 130953Z AUTO 15005KT 10SM BKN038 OVC080 07/06 A3010 RMK AO2 SLP202 T00720061=
201604130853 METAR KBLI 130853Z AUTO 00000KT 10SM OVC035 07/06 A3010 RMK AO2 RAE24 SLP200 P0001 60001 T00720061 52010=
201604130753 METAR KBLI 130753Z AUTO 00000KT 10SM -RA FEW047 BKN075 OVC090 07/07 A3009 RMK AO2 RAB48 SLP198 P0000 T00720067 401330067=
201604130653 METAR KBLI 130653Z AUTO 00000KT 10SM OVC080 07/06 A3008 RMK AO2 SLP193 T00670061=
201604130553 METAR KBLI 130553Z AUTO 14006KT 10SM SCT043 OVC050 08/07 A3007 RMK AO2 RAE48 SLP190 P0006 60041 T00780067 10111 20067 50007=
201604130535 SPECI KBLI 130535Z AUTO 12004KT 8SM -RA FEW022 SCT027 OVC041 07/06 A3007 RMK AO2 P0005 T00720061=
201604130453 METAR KBLI 130453Z 00000KT 4SM RA BR FEW011 BKN020 OVC025 07/06 A3008 RMK AO2 RAB10 SLP192 P0034 T00670061=
201604130450 SPECI KBLI 130450Z 00000KT 3SM RA BR FEW011 BKN020 OVC032 07/06 A3007 RMK AO2 RAB10 P0033=
201604130443 SPECI KBLI 130443Z 15005KT 2 1/2SM +RA BR FEW011 BKN023 OVC032 07/06 A3007 RMK AO2 VIS 2V4 RAB10 P0030 T00670061=
201604130427 SPECI KBLI 130427Z VRB03KT 1 3/4SM R16/5500VP6000FT +RA BR FEW011 BKN020 OVC032 07/06 A3007 RMK AO2 RAB10 P0015 T00670056=
201604130422 SPECI KBLI 130422Z 25005KT 5SM RA BR FEW009 BKN020 OVC033 07/06 A3008 RMK AO2 RAB10 P0005 T00720056=
201604130353 METAR KBLI 130353Z 15008KT 10SM BKN020 OVC045 10/07 A3005 RMK AO2 LTG DSNT NW RAE34 SLP182 P0001 T01000067=
201604130349 SPECI KBLI 130349Z 15008KT 10SM BKN020 OVC045 10/07 A3005 RMK AO2 LTG DSNT NW RAE34 P0001=
201604130253 METAR KBLI 130253Z 15007KT 10SM -RA FEW025 SCT035 OVC048 10/07 A3004 RMK AO2 RAB10E20B44 SLP180 P0000 60000 T01000067 53006=
201604130153 METAR KBLI 130153Z 13011KT 10SM BKN065 OVC080 11/07 A3002 RMK AO2 RAB17E38 SLP174 P0000 T01060067=
201604130053 METAR KBLI 130053Z 14007KT 10SM OVC080 11/08 A3003 RMK AO2 SLP176 T01060083=
201604122353 METAR KBLI 122353Z 12010KT 10SM FEW055 OVC075 11/07 A3003 RMK AO2 RAE2259B28E38 SLP174 P0000 60009 T01060072 10133 20100 58012=
201604122253 METAR KBLI 122253Z 15009KT 10SM -RA SCT029 OVC035 11/08 A3005 RMK AO2 SLP183 P0005 T01060083=
201604122153 METAR KBLI 122153Z VRB04KT 10SM -RA OVC032 11/08 A3007 RMK AO2 RAB01 SLP190 P0004 T01110078=
201604122053 METAR KBLI 122053Z 17009G18KT 10SM OVC039 13/06 A3006 RMK AO2 SLP186 T01330056 55002=
201604121953 METAR KBLI 121953Z 15007G19KT 10SM OVC035 13/06 A3005 RMK AO2 SLP184 T01330056=
201604121853 METAR KBLI 121853Z 16011G18KT 10SM FEW032 SCT110 12/06 A3006 RMK AO2 SLP187 T01220056=
201604121753 METAR KBLI 121753Z 16013G20KT 10SM SCT026 12/05 A3007 RMK AO2 PK WND 16027/1658 SLP188 T01220050 10128 20100 51014=
201604121653 METAR KBLI 121653Z 15019G26KT 10SM SCT026 BKN075 11/06 A3006 RMK AO2 PK WND 15026/1653 SLP186 T01110056=
201604121553 METAR KBLI 121553Z 15018G27KT 10SM FEW030 OVC075 11/04 A3006 RMK AO2 PK WND 14027/1552 SLP187 T01060044=
201604121453 METAR KBLI 121453Z 15013G19KT 10SM OVC090 11/04 A3003 RMK AO2 SLP174 T01060039 58001=
201604121353 METAR KBLI 121353Z 16014G21KT 10SM SCT033 OVC060 11/04 A3003 RMK AO2 SLP177 T01060044=
201604121253 METAR KBLI 121253Z AUTO 16010G19KT 10SM SCT029 OVC041 11/04 A3003 RMK AO2 SLP175 T01060039=
201604121153 METAR KBLI 121153Z AUTO 16010KT 10SM SCT026 OVC041 10/07 A3003 RMK AO2 SLP175 T01000072 10106 20100 53003=
201604121053 METAR KBLI 121053Z AUTO 15007KT 10SM BKN025 BKN045 OVC055 10/07 A3002 RMK AO2 SLP173 T01000067=
201604120953 METAR KBLI 120953Z AUTO 17008KT 10SM FEW049 OVC060 10/07 A3002 RMK AO2 SLP172 T01000072=
201604120853 METAR KBLI 120853Z AUTO 18006KT 10SM OVC055 10/07 A3002 RMK AO2 SLP172 T01000067 58001=
201604120753 METAR KBLI 120753Z AUTO 16005KT 10SM OVC060 10/07 A3002 RMK AO2 SLP173 T01000072 401390094=
201604120653 METAR KBLI 120653Z AUTO 16005KT 10SM OVC060 10/07 A3002 RMK AO2 SLP172 T01000067=
201604120553 METAR KBLI 120553Z AUTO 15005KT 10SM OVC060 10/07 A3002 RMK AO2 SLP173 T01000067 10133 20100 58005=
201604120453 METAR KBLI 120453Z 15003KT 10SM BKN060 10/07 A3003 RMK AO2 SLP176 T01000067=
201604120353 METAR KBLI 120353Z 16004KT 10SM CLR 11/07 A3003 RMK AO2 SLP177 T01060067=
201604120253 METAR KBLI 120253Z 16005KT 10SM OVC060 11/07 A3003 RMK AO2 SLP178 T01110072 56015=
201604120153 METAR KBLI 120153Z 18003KT 10SM OVC060 12/06 A3005 RMK AO2 SLP181 T01220061=
201604120053 METAR KBLI 120053Z 18006KT 10SM OVC060 13/06 A3006 RMK AO2 SLP187 T01330061=
201604112353 METAR KBLI 112353Z 16007KT 10SM OVC060 13/06 A3008 RMK AO2 SLP192 T01330061 10139 20100 58009=
201604112253 METAR KBLI 112253Z 17010KT 10SM OVC060 13/06 A3010 RMK AO2 SLP198 T01330056=
201604112153 METAR KBLI 112153Z 16009KT 10SM OVC060 13/07 A3010 RMK AO2 SLP201 T01280067=
201604112053 METAR KBLI 112053Z 17009G15KT 10SM OVC055 13/07 A3011 RMK AO2 SLP201 T01280067 58004=
201604111953 METAR KBLI 111953Z 12011KT 10SM OVC050 13/08 A3011 RMK AO2 SLP203 T01280078=
201604111853 METAR KBLI 111853Z 15013KT 10SM OVC041 11/07 A3012 RMK AO2 SLP207 T01110072=
201604111753 METAR KBLI 111753Z 17008KT 10SM FEW010 BKN030 OVC044 10/08 A3012 RMK AO2 RAB11E36 SLP207 P0000 60000 T01000078 10111 20094 51009=
201604111727 SPECI KBLI 111727Z 16009KT 7SM -RA FEW010 BKN030 OVC044 10/08 A3011 RMK AO2 RAB11 P0000 T01000083=
201604111720 SPECI KBLI 111720Z 16008KT 8SM -RA FEW013 BKN029 OVC044 09/08 A3011 RMK AO2 RAB11 P0000 T00940083=
201604111653 METAR KBLI 111653Z 17005KT 10SM FEW028 BKN040 OVC050 11/07 A3011 RMK AO2 SLP202 T01060072=
201604111553 METAR KBLI 111553Z 17004KT 10SM BKN038 OVC048 11/07 A3010 RMK AO2 SLP200 T01060072=
201604111453 METAR KBLI 111453Z 17006KT 10SM SCT028 OVC034 11/07 A3009 RMK AO2 SLP196 60000 T01060072 53008=
201604111353 METAR KBLI 111353Z 17004KT 10SM OVC029 11/07 A3007 RMK AO2 SLP191 T01060067=
201604111253 METAR KBLI 111253Z AUTO 17005KT 10SM OVC025 10/07 A3006 RMK AO2 RAB19E31 SLP187 P0000 T01000072=
201604111204 SPECI KBLI 111204Z AUTO 17005KT 10SM FEW014 BKN026 OVC031 11/08 A3006 RMK AO2 T01060078=
201604111153 METAR KBLI 111153Z AUTO 18006KT 10SM OVC030 11/08 A3006 RMK AO2 SLP187 T01060078 10111 20083 51011=
201604111053 METAR KBLI 111053Z AUTO 16005KT 10SM OVC035 11/08 A3006 RMK AO2 SLP185 T01110078=
201604110953 METAR KBLI 110953Z AUTO 17003KT 10SM OVC038 11/07 A3004 RMK AO2 SLP180 T01110072=
201604110853 METAR KBLI 110853Z AUTO 15003KT 10SM OVC044 11/07 A3003 RMK AO2 SLP176 T01060067 53015=
201604110753 METAR KBLI 110753Z AUTO 00000KT 10SM OVC045 09/07 A3001 RMK AO2 SLP170 T00940067 401500067=
201604110653 METAR KBLI 110653Z AUTO 00000KT 10SM BKN044 08/06 A3000 RMK AO2 SLP165 T00830061=
201604110553 METAR KBLI 110553Z AUTO 00000KT 10SM FEW042 09/06 A2999 RMK AO2 SLP161 T00890056 10150 20089 51012=
201604110453 METAR KBLI 110453Z 16004KT 10SM CLR 11/06 A2998 RMK AO2 SLP158 T01060061=
201604110353 METAR KBLI 110353Z 17005KT 10SM CLR 12/06 A2996 RMK AO2 SLP154 T01170061=
201604110253 METAR KBLI 110253Z 16006KT 10SM OVC041 12/07 A2995 RMK AO2 SLP150 T01220067 53007=
201604110153 METAR KBLI 110153Z 18004KT 10SM OVC038 13/07 A2994 RMK AO2 SLP146 T01330067=
201604110053 METAR KBLI 110053Z 18005KT 10SM OVC035 14/06 A2993 RMK AO2 SLP144 T01440061=
201604102353 METAR KBLI 102353Z 18007KT 10SM OVC035 14/06 A2993 RMK AO2 SLP142 T01440061 10150 20111 55002=
201604102253 METAR KBLI 102253Z 18007KT 10SM SCT034 14/06 A2993 RMK AO2 SLP140 T01390061=
201604102153 METAR KBLI 102153Z 19005KT 10SM OVC036 14/07 A2993 RMK AO2 SLP141 T01390067=
201604102053 METAR KBLI 102053Z 19007KT 160V220 10SM BKN036 OVC050 13/07 A2994 RMK AO2 SLP144 T01330067 58002=
201604101953 METAR KBLI 101953Z 16010KT 10SM BKN033 OVC049 12/06 A2994 RMK AO2 SLP147 T01220061=
201604101853 METAR KBLI 101853Z 17010G17KT 10SM SCT031 OVC049 11/06 A2995 RMK AO2 SLP149 T01110061=
201604101753 METAR KBLI 101753Z 17011KT 10SM SCT025 OVC050 11/06 A2994 RMK AO2 SLP146 T01110061 10117 20094 53012=
201604101653 METAR KBLI 101653Z 17009KT 10SM OVC022 11/06 A2993 RMK AO2 SLP142 T01060061=
201604101553 METAR KBLI 101553Z 17010G15KT 10SM BKN018 OVC049 10/07 A2992 RMK AO2 SLP138 T01000067=
201604101453 METAR KBLI 101453Z 16010KT 10SM FEW010 BKN015 OVC049 09/08 A2991 RMK AO2 SLP134 T00940078 53015=
201604101408 SPECI KBLI 101408Z 16006KT 10SM OVC013 10/08 A2990 RMK AO2 T01000083=
201604101353 METAR KBLI 101353Z 17007KT 10SM OVC015 09/08 A2989 RMK AO2 SLP129 T00940078=
201604101338 SPECI KBLI 101338Z 16006KT 10SM FEW009 OVC015 09/08 A2989 RMK AO2 T00940078=
201604101253 METAR KBLI 101253Z AUTO 16009KT 10SM BKN010 09/08 A2988 RMK AO2 SLP123 T00940078=
201604101153 METAR KBLI 101153Z AUTO 16011KT 10SM FEW008 10/08 A2986 RMK AO2 SLP120 T01000078 10100 20067 50007=
201604101148 SPECI KBLI 101148Z AUTO 17010KT 10SM FEW008 10/08 A2986 RMK AO2=
201604101053 METAR KBLI 101053Z AUTO 18007KT 10SM CLR 09/08 A2986 RMK AO2 SLP117 T00940083=
201604100953 METAR KBLI 100953Z AUTO 15004KT 10SM CLR 07/06 A2984 RMK AO2 SLP112 T00670061=
201604100853 METAR KBLI 100853Z AUTO 00000KT 10SM CLR 07/06 A2983 RMK AO2 SLP109 T00720061 53010=
201604100753 METAR KBLI 100753Z AUTO 00000KT 10SM CLR 07/06 A2982 RMK AO2 SLP105 T00720061 401610061=
201604100653 METAR KBLI 100653Z AUTO 00000KT 10SM CLR 09/07 A2981 RMK AO2 SLP101 T00890072=
201604100553 METAR KBLI 100553Z AUTO 00000KT 10SM CLR 09/07 A2980 RMK AO2 SLP098 T00890072 10161 20089 50004=
201604100453 METAR KBLI 100453Z 00000KT 10SM CLR 09/07 A2980 RMK AO2 SLP099 T00940072=
201604100353 METAR KBLI 100353Z 00000KT 10SM CLR 10/07 A2980 RMK AO2 SLP097 T01000067=
201604100253 METAR KBLI 100253Z 00000KT 10SM CLR 12/07 A2979 RMK AO2 SLP094 T01170072 56004=
201604100153 METAR KBLI 100153Z 17004KT 10SM CLR 14/07 A2979 RMK AO2 SLP094 T01440072=
201604100053 METAR KBLI 100053Z 23004KT 10SM CLR 16/07 A2979 RMK AO2 SLP095 T01560067=
201604092353 METAR KBLI 092353Z VRB03KT 10SM CLR 16/08 A2980 RMK AO2 SLP098 T01560078 10161 20122 56014=
201604092253 METAR KBLI 092253Z 20005KT 10SM CLR 16/08 A2981 RMK AO2 SLP101 T01560083=
201604092153 METAR KBLI 092153Z VRB04KT 10SM CLR 15/08 A2983 RMK AO2 SLP107 T01500083=
201604092053 METAR KBLI 092053Z 21007KT 10SM CLR 14/08 A2984 RMK AO2 SLP112 T01440083 58006=
201604091953 METAR KBLI 091953Z 26007KT 10SM CLR 14/08 A2985 RMK AO2 SLP116 T01390083=
201604091853 METAR KBLI 091853Z 24004KT 10SM CLR 13/08 A2986 RMK AO2 SLP118 T01330078=
201604091753 METAR KBLI 091753Z 15007KT 10SM SCT011 13/09 A2986 RMK AO2 SLP118 T01280089 10128 20061 51001=
201604091653 METAR KBLI 091653Z 18005KT 10SM OVC010 11/08 A2986 RMK AO2 SLP118 T01110083=
201604091553 METAR KBLI 091553Z 14006KT 10SM SCT008 11/08 A2986 RMK AO2 SLP118 T01060083=
201604091528 SPECI KBLI 091528Z 15005KT 10SM FEW008 11/08 A2986 RMK AO2 T01060083=
201604091453 METAR KBLI 091453Z 15004KT 10SM CLR 09/08 A2986 RMK AO2 SLP117 T00940078 53004=
201604091353 METAR KBLI 091353Z 00000KT 10SM CLR 06/04 A2984 RMK AO2 SLP113 T00610044=
201604091253 METAR KBLI 091253Z AUTO 00000KT 10SM CLR 07/06 A2984 RMK AO2 SLP113 T00670056=
201604091153 METAR KBLI 091153Z AUTO 00000KT 10SM CLR 07/06 A2985 RMK AO2 SLP113 T00720061 10133 20061 56004=
201604091053 METAR KBLI 091053Z AUTO 19003KT 10SM CLR 08/07 A2985 RMK AO2 SLP114 T00830067=
201604090953 METAR KBLI 090953Z AUTO 16003KT 10SM CLR 08/06 A2985 RMK AO2 SLP114 T00830061=
201604090853 METAR KBLI 090853Z AUTO 00000KT 10SM CLR 09/06 A2986 RMK AO2 SLP117 T00890061 50002=
201604090753 METAR KBLI 090753Z AUTO 00000KT 10SM CLR 11/06 A2986 RMK AO2 SLP117 T01110061 401830067=
201604090653 METAR KBLI 090653Z AUTO 27006KT 10SM CLR 13/06 A2985 RMK AO2 SLP115 T01280061=
201604090553 METAR KBLI 090553Z AUTO 00000KT 10SM CLR 14/07 A2985 RMK AO2 SLP114 T01390067 10167 20117 51009=
201604090453 METAR KBLI 090453Z AUTO 30005KT 10SM CLR 14/08 A2985 RMK AO2 SLP112 T01390078=
201604090353 METAR KBLI 090353Z 10SM CLR 12/09 A2984 RMK AO2 SLP110 T01220094=
201604090253 METAR KBLI 090253Z 16004KT 10SM CLR 14/10 A2982 RMK AO2 SLP105 T01390100 55007=
201604090153 METAR KBLI 090153Z 18004KT 10SM CLR 16/09 A2982 RMK AO2 SLP104 T01560089=
201604090053 METAR KBLI 090053Z 00000KT 10SM CLR 17/08 A2982 RMK AO2 SLP106 T01670083=
201604082353 METAR KBLI 082353Z VRB04KT 10SM CLR 17/09 A2984 RMK AO2 SLP113 T01670094 10183 20156 56010=
201604082253 METAR KBLI 082253Z 18008KT 160V230 10SM CLR 17/09 A2985 RMK AO2 SLP114 T01670089=
201604082153 METAR KBLI 082153Z 17009KT 10SM CLR 18/10 A2987 RMK AO2 SLP122 T01780100=
201604082053 METAR KBLI 082053Z VRB05KT 10SM CLR 17/11 A2988 RMK AO2 SLP124 T01670106 57009=
201604081953 METAR KBLI 081953Z 18009KT 10SM CLR 17/09 A2989 RMK AO2 SLP127 T01720094=
201604081853 METAR KBLI 081853Z 16008KT 10SM CLR 17/09 A2989 RMK AO2 SLP129 T01670089=
201604081753 METAR KBLI 081753Z 18006KT 10SM CLR 16/08 A2990 RMK AO2 SLP133 T01610083 10161 20067 51000=
201604081653 METAR KBLI 081653Z 15005KT 10SM CLR 15/09 A2990 RMK AO2 SLP133 T01500089=
201604081553 METAR KBLI 081553Z 00000KT 10SM CLR 14/11 A2990 RMK AO2 SLP133 T01440106=
201604081453 METAR KBLI 081453Z 00000KT 10SM CLR 11/09 A2990 RMK AO2 SLP133 T01060094 53003=
201604081353 METAR KBLI 081353Z 00000KT 10SM CLR 07/06 A2990 RMK AO2 SLP132 T00720061=
201604081346 SPECI KBLI 081346Z AUTO 00000KT 5SM BR CLR 07/06 A2990 RMK AO2 T00720061=
201604081344 SPECI KBLI 081344Z AUTO 00000KT 1SM R16/P6000FT BR CLR 07/06 A2990 RMK AO2 T00720061=
201604081336 SPECI KBLI 081336Z AUTO 00000KT 1/2SM R16/P6000FT FG CLR 07/07 A2990 RMK AO2 VIS 1/4V4 T00720067=
201604081330 SPECI KBLI 081330Z AUTO 00000KT 1 3/4SM BR CLR 08/07 A2990 RMK AO2 VIS 1V5 T00780067=
201604081253 METAR KBLI 081253Z AUTO 00000KT 10SM CLR 08/07 A2989 RMK AO2 SLP130 T00780067=
201604081153 METAR KBLI 081153Z AUTO 00000KT 10SM CLR 08/07 A2989 RMK AO2 SLP130 T00830072 10111 20072 56006=
201604081053 METAR KBLI 081053Z AUTO 00000KT 10SM CLR 08/07 A2989 RMK AO2 SLP130 T00830072=
201604080953 METAR KBLI 080953Z AUTO 00000KT 10SM CLR 08/07 A2990 RMK AO2 SLP131 T00830072=
201604080853 METAR KBLI 080853Z AUTO 00000KT 10SM CLR 09/08 A2991 RMK AO2 SLP135 T00940078 51001=
201604080753 METAR KBLI 080753Z AUTO 00000KT 10SM CLR 10/08 A2991 RMK AO2 SLP135 T01000083 402170094=
201604080653 METAR KBLI 080653Z AUTO 00000KT 10SM CLR 10/08 A2991 RMK AO2 SLP136 T01000083=
201604080553 METAR KBLI 080553Z AUTO 00000KT 10SM CLR 11/09 A2991 RMK AO2 SLP134 T01110089 10178 20111 51012=
201604080453 METAR KBLI 080453Z 00000KT 10SM CLR 12/09 A2990 RMK AO2 SLP133 T01170089=
201604080353 METAR KBLI 080353Z 16003KT 10SM CLR 13/10 A2990 RMK AO2 SLP130 T01280100=
201604080253 METAR KBLI 080253Z 00000KT 10SM CLR 15/09 A2988 RMK AO2 SLP124 T01500094 56011=
201604080153 METAR KBLI 080153Z 00000KT 10SM CLR 18/09 A2988 RMK AO2 SLP126 T01780094=
201604080053 METAR KBLI 080053Z VRB04KT 10SM CLR 18/10 A2990 RMK AO2 SLP131 T01780100=
201604072353 METAR KBLI 072353Z VRB05KT 10SM CLR 17/10 A2991 RMK AO2 SLP135 T01720100 10217 20167 56021=
201604072253 METAR KBLI 072253Z 25005KT 10SM CLR 19/11 A2992 RMK AO2 SLP138 T01890111=
201604072153 METAR KBLI 072153Z 29005KT 10SM CLR 21/11 A2994 RMK AO2 SLP145 T02060111=
201604072053 METAR KBLI 072053Z 30007KT 10SM CLR 20/10 A2997 RMK AO2 SLP155 T02000100 56019=
201604071953 METAR KBLI 071953Z 02008KT 10SM CLR 21/09 A2999 RMK AO2 SLP160 T02060089=
201604071853 METAR KBLI 071853Z 01011KT 10SM CLR 19/08 A3001 RMK AO2 SLP169 T01890083=
201604071753 METAR KBLI 071753Z 01013KT 10SM CLR 17/07 A3003 RMK AO2 SLP175 T01720072 10172 20094 56016=
201604071653 METAR KBLI 071653Z 02011G20KT 10SM CLR 15/07 A3004 RMK AO2 SLP179 T01500072=
201604071553 METAR KBLI 071553Z 01008KT 10SM CLR 13/07 A3006 RMK AO2 SLP188 T01330067=
201604071453 METAR KBLI 071453Z 01010KT 10SM CLR 11/07 A3008 RMK AO2 SLP191 T01110067 58015=
201604071353 METAR KBLI 071353Z AUTO 36006KT 10SM CLR 09/06 A3010 RMK AO2 SLP200 T00940061=
201604071253 METAR KBLI 071253Z AUTO 36010KT 10SM CLR 10/07 A3011 RMK AO2 SLP202 T01000067=
201604071153 METAR KBLI 071153Z AUTO 36010KT 10SM CLR 11/07 A3012 RMK AO2 SLP205 T01060067 10122 20106 56026=
201604071053 METAR KBLI 071053Z AUTO 36011KT 10SM CLR 11/07 A3014 RMK AO2 SLP211 T01060072=
201604070953 METAR KBLI 070953Z AUTO 36010KT 10SM CLR 11/07 A3017 RMK AO2 SLP222 T01060072=
201604070853 METAR KBLI 070853Z AUTO 36010KT 10SM CLR 11/07 A3020 RMK AO2 SLP232 T01060072 58019=
201604070753 METAR KBLI 070753Z AUTO 36008KT 10SM CLR 11/07 A3022 RMK AO2 SLP242 T01110072 401830100=
201604070653 METAR KBLI 070653Z AUTO 35008KT 10SM CLR 11/07 A3023 RMK AO2 SLP245 T01110072=
201604070553 METAR KBLI 070553Z AUTO 35008KT 10SM CLR 12/08 A3025 RMK AO2 SLP251 T01220078 10183 20122 58009=
201604070453 METAR KBLI 070453Z 35006KT 10SM CLR 13/08 A3026 RMK AO2 SLP255 T01280078=
201604070353 METAR KBLI 070353Z 32004KT 10SM CLR 13/08 A3028 RMK AO2 SLP260 T01330078=
201604070253 METAR KBLI 070253Z 34004KT 10SM CLR 14/08 A3028 RMK AO2 SLP260 T01440078 56021=
201604070153 METAR KBLI 070153Z 32005KT 10SM CLR 16/08 A3030 RMK AO2 SLP266 T01560083=
201604070053 METAR KBLI 070053Z 35008KT 10SM CLR 17/08 A3031 RMK AO2 SLP272 T01720078=
201604062353 METAR KBLI 062353Z 34007KT 10SM CLR 18/08 A3034 RMK AO2 SLP281 T01780078 10183 20133 56025=
201604062253 METAR KBLI 062253Z 03008KT 10SM CLR 18/08 A3036 RMK AO2 SLP287 T01780083=
201604062153 METAR KBLI 062153Z VRB06KT 10SM CLR 18/08 A3039 RMK AO2 SLP297 T01780083=
201604062053 METAR KBLI 062053Z VRB03KT 10SM CLR 17/06 A3041 RMK AO2 SLP306 T01670061 58016=
201604061953 METAR KBLI 061953Z 00000KT 10SM FEW030 OVC055 16/08 A3044 RMK AO2 SLP317 T01560083=
201604061853 METAR KBLI 061853Z VRB04KT 10SM FEW023 OVC055 14/09 A3046 RMK AO2 SLP321 T01390089=
201604061822 SPECI KBLI 061822Z 34005KT 10SM SCT019 OVC065 14/09 A3046 RMK AO2 T01390089=
201604061815 SPECI KBLI 061815Z VRB05KT 10SM BKN019 OVC065 14/09 A3046 RMK AO2 T01390089=
201604061753 METAR KBLI 061753Z 00000KT 10SM FEW019 OVC060 13/08 A3046 RMK AO2 SLP322 T01330083 10133 20100 51009=
201604061653 METAR KBLI 061653Z 18005KT 10SM FEW050 OVC060 11/08 A3046 RMK AO2 SLP320 T01110078=
201604061553 METAR KBLI 061553Z VRB04KT 10SM OVC045 11/07 A3046 RMK AO2 SLP321 T01060072=
201604061453 METAR KBLI 061453Z 16006KT 10SM OVC042 11/07 A3044 RMK AO2 SLP313 T01060067 53004=
201604061353 METAR KBLI 061353Z 18006KT 10SM OVC043 10/06 A3042 RMK AO2 SLP308 T01000061=
201604061253 METAR KBLI 061253Z AUTO 17007KT 10SM OVC047 11/06 A3041 RMK AO2 SLP305 T01060061=
201604061153 METAR KBLI 061153Z AUTO 17006KT 10SM OVC050 11/07 A3042 RMK AO2 SLP309 70012 T01060067 10117 20106 56012=
201604061053 METAR KBLI 061053Z AUTO 10SM FEW050 OVC080 11/07 A3043 RMK AO2 SLP313 T01060067=
201604060953 METAR KBLI 060953Z AUTO 18007KT 10SM SCT055 OVC070 11/06 A3044 RMK AO2 SLP315 T01060061=
201604060853 METAR KBLI 060853Z AUTO 19007KT 10SM OVC055 11/06 A3046 RMK AO2 SLP321 T01110061 55002=
201604060753 METAR KBLI 060753Z AUTO 18008KT 10SM OVC060 11/06 A3045 RMK AO2 SLP318 T01110061 401220078=
201604060653 METAR KBLI 060653Z AUTO 18007KT 10SM OVC060 11/07 A3046 RMK AO2 SLP321 T01110067=
201604060553 METAR KBLI 060553Z AUTO 17005KT 10SM SCT036 OVC060 11/07 A3046 RMK AO2 SLP323 T01110067 10122 20111 52004=
201604060453 METAR KBLI 060453Z 19004KT 10SM OVC033 11/07 A3046 RMK AO2 SLP322 T01110072=
201604060353 METAR KBLI 060353Z 16005KT 10SM SCT031 OVC060 12/06 A3045 RMK AO2 SLP319 T01170061=
201604060351 SPECI KBLI 060351Z 17005KT 10SM SCT031 OVC060 12/06 A3045 RMK AO2=
201604060344 SPECI KBLI 060344Z 16006KT 10SM BKN029 BKN034 OVC060 12/07 A3045 RMK AO2 T01170067=
201604060253 METAR KBLI 060253Z 17006KT 10SM OVC060 12/07 A3045 RMK AO2 SLP319 T01170072 58010=
201604060153 METAR KBLI 060153Z 16006KT 10SM OVC060 12/07 A3046 RMK AO2 SLP322 T01220067=
201604060053 METAR KBLI 060053Z 19004KT 10SM OVC070 12/07 A3048 RMK AO2 SLP330 T01170072=
201604052353 METAR KBLI 052353Z 18007KT 10SM FEW060 OVC080 12/07 A3048 RMK AO2 SLP329 60002 T01220067 10122 20094 58019=
201604052253 METAR KBLI 052253Z VRB05KT 10SM OVC046 11/07 A3051 RMK AO2 SLP340 T01110072=
201604052153 METAR KBLI 052153Z 18008KT 10SM SCT027 OVC049 11/07 A3052 RMK AO2 SLP343 T01110067=
201604052053 METAR KBLI 052053Z 17006KT 10SM OVC050 11/07 A3054 RMK AO2 SLP348 60002 T01110072 51005=
201604051953 METAR KBLI 051953Z 17009KT 10SM FEW029 FEW065 OVC090 10/07 A3054 RMK AO2 RAE33 SLP349 P0001 T01000072=
201604051853 METAR KBLI 051853Z 17010KT 10SM -RA OVC040 09/07 A3054 RMK AO2 RAB23 SLP349 P0001 T00940067=
201604051753 METAR KBLI 051753Z 17013G18KT 10SM OVC042 09/06 A3052 RMK AO2 RAB1655E05 SLP344 P0000 60010 T00940061 10094 20078 50016=
201604051653 METAR KBLI 051653Z 18008KT 10SM SCT015 BKN044 OVC080 09/06 A3053 RMK AO2 RAB31E53 SLP347 P0000 T00890061=
201604051553 METAR KBLI 051553Z 16009KT 10SM SCT020 OVC040 08/06 A3050 RMK AO2 RAE31 SLP338 P0000 T00830061=
201604051453 METAR KBLI 051453Z 17008KT 9SM -RA SCT009 BKN024 OVC030 08/06 A3048 RMK AO2 SLP328 P0004 60010 T00830061 51006=
201604051353 METAR KBLI 051353Z 19007KT 6SM -RA BR SCT009 BKN024 OVC032 08/07 A3047 RMK AO2 SLP327 P0006 T00830067=
201604051347 SPECI KBLI 051347Z VRB04KT 6SM -RA BR SCT010 BKN019 OVC032 08/07 A3047 RMK AO2 P0006=
201604051335 SPECI KBLI 051335Z 18004KT 5SM RA BR BKN010 BKN017 OVC025 08/07 A3047 RMK AO2 P0003 T00830067=
201604051253 METAR KBLI 051253Z AUTO VRB06KT 10SM -RA FEW022 BKN029 OVC040 09/05 A3047 RMK AO2 RAB50 SLP326 P0000 T00940050=
201604051153 METAR KBLI 051153Z AUTO 18007KT 10SM OVC043 09/04 A3046 RMK AO2 SLP321 70004 T00940044 10094 20078 53009=
201604051053 METAR KBLI 051053Z AUTO 16005KT 10SM SCT045 09/04 A3044 RMK AO2 SLP314 T00890044=
201604050953 METAR KBLI 050953Z AUTO 17005KT 10SM CLR 08/05 A3043 RMK AO2 SLP313 T00830050=
201604050853 METAR KBLI 050853Z AUTO 16005KT 10SM CLR 08/05 A3043 RMK AO2 SLP311 T00830050 52020=
201604050753 METAR KBLI 050753Z AUTO 16006KT 10SM SCT021 08/04 A3041 RMK AO2 SLP304 T00830044 401390078=
201604050653 METAR KBLI 050653Z AUTO 15007KT 10SM CLR 08/04 A3039 RMK AO2 SLP300 T00830039=
201604050553 METAR KBLI 050553Z AUTO 16005KT 10SM CLR 09/04 A3037 RMK AO2 SLP292 T00890039 10133 20089 51025=
201604050453 METAR KBLI 050453Z 20005KT 10SM CLR 09/04 A3035 RMK AO2 SLP284 T00890039=
201604050353 METAR KBLI 050353Z 18004KT 10SM FEW050 09/04 A3033 RMK AO2 SLP278 T00940044=
201604050253 METAR KBLI 050253Z VRB06KT 10SM BKN047 11/04 A3030 RMK AO2 SLP267 T01060039 51016=
201604050153 METAR KBLI 050153Z VRB03KT 10SM SCT070 12/03 A3028 RMK AO2 SLP262 T01220028=
201604050053 METAR KBLI 050053Z 21009G16KT 180V250 10SM FEW100 13/03 A3027 RMK AO2 SLP259 T01280028=
201604042353 METAR KBLI 042353Z 18007KT 160V220 10SM FEW070 13/04 A3025 RMK AO2 SLP251 T01330039 10139 20111 53018=
201604042253 METAR KBLI 042253Z VRB06G14KT 10SM SCT042 13/04 A3023 RMK AO2 SLP244 T01330044=
201604042153 METAR KBLI 042153Z 20007G16KT 160V240 10SM SCT043 14/04 A3021 RMK AO2 SLP237 T01390044=
201604042053 METAR KBLI 042053Z 18007KT 10SM SCT042 12/05 A3020 RMK AO2 SLP233 T01220050 51021=
201604041953 METAR KBLI 041953Z 17011KT 10SM BKN040 13/05 A3018 RMK AO2 SLP228 T01280050=
201604041853 METAR KBLI 041853Z 17008KT 10SM SCT030 BKN035 12/06 A3017 RMK AO2 SLP222 T01170056=
201604041753 METAR KBLI 041753Z 17011KT 10SM FEW033 BKN120 12/07 A3014 RMK AO2 SLP212 60004 T01170067 10117 20100 53027=
201604041653 METAR KBLI 041653Z 15011G16KT 10SM FEW025 SCT045 11/06 A3010 RMK AO2 SLP200 T01110056=
201604041553 METAR KBLI 041553Z 16007G16KT 10SM FEW025 10/06 A3007 RMK AO2 SLP190 T01000061=
201604041453 METAR KBLI 041453Z 18004KT 10SM FEW027 SCT047 10/05 A3005 RMK AO2 SLP184 60004 T01000050 53015=
201604041353 METAR KBLI 041353Z 18006KT 10SM FEW027 SCT035 BKN047 10/08 A3003 RMK AO2 RAE04 SLP175 P0000 T01000078=
201604041253 METAR KBLI 041253Z AUTO 15008KT 10SM -RA FEW034 OVC060 10/08 A3001 RMK AO2 SLP170 P0004 T01000083=
201604041153 METAR KBLI 041153Z AUTO 16009KT 10SM -RA FEW024 FEW035 OVC045 10/08 A3001 RMK AO2 SLP168 P0019 60083 70084 T01000083 10122 20100 53017=
201604041144 SPECI KBLI 041144Z AUTO 17008KT 7SM -RA SCT022 SCT033 OVC043 10/09 A3000 RMK AO2 P0018 T01000089=
201604041132 SPECI KBLI 041132Z AUTO VRB06G17KT 5SM RA BR SCT020 BKN026 OVC039 10/08 A3000 RMK AO2 P0017 T01000083=
201604041120 SPECI KBLI 041120Z AUTO 19012G20KT 2 1/2SM +RA BR FEW007 BKN022 OVC027 11/09 A3001 RMK AO2 PRESRR P0012 T01060089=
201604041053 METAR KBLI 041053Z AUTO 16009G19KT 8SM RA BKN023 BKN030 OVC046 11/08 A2998 RMK AO2 SLP158 P0005 T01110083=
201604040953 METAR KBLI 040953Z AUTO 15010KT 10SM -RA FEW023 BKN055 OVC070 12/10 A2995 RMK AO2 SLP149 P0010 T01170100=
201604040938 SPECI KBLI 040938Z AUTO 17013G18KT 10SM -RA FEW007 BKN021 OVC050 12/11 A2996 RMK AO2 P0010 T01170106=
201604040929 SPECI KBLI 040929Z AUTO 17009G18KT 9SM -RA SCT007 SCT017 OVC050 12/11 A2995 RMK AO2 P0009 T01170106=
201604040916 SPECI KBLI 040916Z AUTO 16015G25KT 5SM RA BR BKN006 BKN016 OVC047 12/11 A2995 RMK AO2 P0007 T01170106=
201604040859 SPECI KBLI 040859Z AUTO 15007KT 3SM RA BR BKN004 BKN047 OVC055 11/11 A2996 RMK AO2 P0002 T01110106=
201604040853 METAR KBLI 040853Z AUTO VRB03KT 1 1/2SM +RA BR BKN004 OVC008 11/11 A2996 RMK AO2 CIG 002V007 SLP151 P0033 60049 T01110106 53021=
201604040844 SPECI KBLI 040844Z AUTO 1 3/4SM +RA BR BKN005 OVC008 11/11 A2995 RMK AO2 CIG 002V007 P0022 T01110106=
201604040840 SPECI KBLI 040840Z AUTO VRB04KT 2 1/2SM +RA BR BKN003 OVC008 11/11 A2994 RMK AO2 CIG 002V006 P0015 T01110106=
201604040818 SPECI KBLI 040818Z AUTO 18006KT 6SM RA BR BKN008 OVC011 12/11 A2993 RMK AO2 CIG 005V009 P0005 T01220111=
201604040753 METAR KBLI 040753Z AUTO VRB03KT 4SM RA BR SCT010 BKN014 OVC023 11/10 A2993 RMK AO2 SLP141 P0012 T01110100 402000050=
201604040732 SPECI KBLI 040732Z AUTO 18006KT 5SM RA BR BKN025 OVC060 11/10 A2993 RMK AO2 P0007 T01110100=
201604040653 METAR KBLI 040653Z AUTO 17005KT 8SM -RA OVC060 11/10 A2992 RMK AO2 SLP137 P0004 T01110100=
201604040553 METAR KBLI 040553Z AUTO 19003KT 10SM -RA OVC070 11/11 A2989 RMK AO2 SLP130 P0001 60001 T01110106 10183 20111 53009=
201604040453 METAR KBLI 040453Z 00000KT 10SM -RA FEW065 BKN080 OVC090 13/08 A2988 RMK AO2 RAB49 SLP126 P0000 T01280078=
201604040353 METAR KBLI 040353Z 00000KT 10SM SCT090 BKN120 13/08 A2988 RMK AO2 SLP124 T01330083=
201604040253 METAR KBLI 040253Z 00000KT 10SM CLR 14/09 A2987 RMK AO2 SLP121 T01440089 56014=
201604040153 METAR KBLI 040153Z 26006KT 10SM CLR 16/10 A2987 RMK AO2 SLP123 T01610100=
201604040053 METAR KBLI 040053Z 00000KT 10SM CLR 18/09 A2988 RMK AO2 SLP126 T01780089=
201604032353 METAR KBLI 032353Z 00000KT 10SM FEW090 18/07 A2991 RMK AO2 RAE36 SLP136 P0000 60000 T01830072 10200 20139 56023=
201604032253 METAR KBLI 032253Z VRB03KT 10SM -RA CLR 20/08 A2993 RMK AO2 RAB49 SLP142 P0000 T02000083=
201604032153 METAR KBLI 032153Z 00000KT 10SM CLR 19/08 A2996 RMK AO2 SLP151 T01890078=
201604032053 METAR KBLI 032053Z VRB04KT 10SM CLR 18/08 A2998 RMK AO2 SLP159 T01780083 58022=
201604031953 METAR KBLI 031953Z 07004KT 10SM CLR 17/08 A3001 RMK AO2 SLP169 T01670078=
201604031853 METAR KBLI 031853Z 00000KT 10SM CLR 15/07 A3004 RMK AO2 SLP179 T01500072=
201604031753 METAR KBLI 031753Z 02003KT 10SM CLR 14/08 A3004 RMK AO2 SLP181 T01390078 10139 20050 58014=
201604031653 METAR KBLI 031653Z 01003KT 10SM SCT090 12/08 A3006 RMK AO2 SLP186 T01170078=
201604031553 METAR KBLI 031553Z 05003KT 10SM OVC090 10/07 A3007 RMK AO2 SLP189 T01000072=
201604031453 METAR KBLI 031453Z 00000KT 10SM FEW090 08/07 A3009 RMK AO2 SLP195 T00780067 55002=
201604031353 METAR KBLI 031353Z 00000KT 10SM CLR 06/05 A3008 RMK AO2 SLP194 T00610050=
201604031253 METAR KBLI 031253Z AUTO 00000KT 10SM CLR 05/04 A3009 RMK AO2 SLP196 T00500044=
201604031153 METAR KBLI 031153Z AUTO 00000KT 10SM CLR 06/04 A3009 RMK AO2 SLP198 T00560044 10106 20056 58009=
201604031053 METAR KBLI 031053Z AUTO 00000KT 10SM CLR 06/04 A3010 RMK AO2 SLP202 T00560044=
201604030953 METAR KBLI 030953Z AUTO 00000KT 10SM CLR 07/05 A3011 RMK AO2 SLP203 T00670050=
201604030853 METAR KBLI 030853Z AUTO 00000KT 10SM SCT095 07/06 A3012 RMK AO2 SLP206 T00720056 53001=
201604030753 METAR KBLI 030753Z AUTO 13003KT 10SM BKN100 09/06 A3012 RMK AO2 SLP205 T00890056 401330083=
201604030653 METAR KBLI 030653Z AUTO 12003KT 10SM OVC100 09/06 A3011 RMK AO2 SLP204 T00940056=
201604030553 METAR KBLI 030553Z AUTO 16006KT 10SM SCT100 11/06 A3012 RMK AO2 SLP205 T01060056 10128 20106 51008=
201604030453 METAR KBLI 030453Z 16006KT 10SM FEW100 11/06 A3012 RMK AO2 SLP205 T01060056=
201604030353 METAR KBLI 030353Z 16005KT 10SM SCT095 11/06 A3011 RMK AO2 SLP202 T01110056=
201604030253 METAR KBLI 030253Z 15008KT 10SM OVC095 12/06 A3009 RMK AO2 SLP198 T01170061 58003=
201604030153 METAR KBLI 030153Z 17010KT 10SM SCT080 11/06 A3010 RMK AO2 SLP199 T01110061=
201604030053 METAR KBLI 030053Z 16008KT 10SM CLR 12/07 A3010 RMK AO2 SLP199 T01220072=
201604022353 METAR KBLI 022353Z 19008KT 10SM CLR 13/07 A3010 RMK AO2 SLP201 60000 T01280067 10133 20117 58010=
201604022253 METAR KBLI 022253Z 16013G17KT 10SM CLR 13/07 A3012 RMK AO2 SLP206 T01280067=
201604022153 METAR KBLI 022153Z 18009G19KT 10SM CLR 13/06 A3014 RMK AO2 SLP212 T01280061=
201604022053 METAR KBLI 022053Z 17012G20KT 10SM CLR 13/07 A3013 RMK AO2 RAB21E31 SLP211 P0000 60000 T01280067 58007=
201604021953 METAR KBLI 021953Z 16014G21KT 10SM CLR 12/08 A3014 RMK AO2 RAB13E49 SLP214 P0000 T01220078=
201604021853 METAR KBLI 021853Z 17012G19KT 10SM CLR 13/07 A3015 RMK AO2 SLP215 T01280072=
201604021753 METAR KBLI 021753Z 14013KT 10SM SCT021 12/07 A3015 RMK AO2 SLP218 60000 T01170072 10117 20089 50008=
201604021653 METAR KBLI 021653Z 17010KT 10SM OVC019 10/07 A3015 RMK AO2 RAB07E35 SLP218 P0000 T01000072=
201604021613 SPECI KBLI 021613Z 16009G19KT 10SM -RA FEW010 BKN021 11/07 A3015 RMK AO2 RAB07 P0000 T01060072=
201604021553 METAR KBLI 021553Z 17010KT 10SM FEW010 10/07 A3014 RMK AO2 RAE43 SLP213 P0000 T01000072=
201604021453 METAR KBLI 021453Z 16010G20KT 10SM -RA CLR 09/07 A3013 RMK AO2 RAB15 SLP210 P0000 60000 T00940067 53006=
201604021353 METAR KBLI 021353Z 17013KT 10SM SCT085 10/06 A3011 RMK AO2 SLP203 T01000061=
201604021253 METAR KBLI 021253Z AUTO 17011G17KT 10SM BKN080 11/04 A3011 RMK AO2 SLP204 T01060044=
201604021153 METAR KBLI 021153Z AUTO 18008KT 10SM BKN075 10/06 A3011 RMK AO2 SLP203 T01000056 10117 20100 55000=
201604021053 METAR KBLI 021053Z AUTO 18006KT 10SM BKN065 11/06 A3010 RMK AO2 SLP199 T01060061=
201604020953 METAR KBLI 020953Z AUTO VRB04KT 10SM BKN080 11/07 A3011 RMK AO2 SLP202 T01060067=
201604020853 METAR KBLI 020853Z AUTO 17009KT 10SM FEW085 11/07 A3011 RMK AO2 SLP203 T01060072 53001=
201604020753 METAR KBLI 020753Z AUTO 17008KT 10SM FEW085 11/07 A3010 RMK AO2 SLP201 T01060072 401560083=
201604020653 METAR KBLI 020653Z AUTO 18008KT 10SM SCT085 11/08 A3011 RMK AO2 SLP203 T01110078=
201604020553 METAR KBLI 020553Z AUTO 17005G14KT 10SM SCT085 12/07 A3011 RMK AO2 SLP202 T01170072 10150 20117 53002=
201604020453 METAR KBLI 020453Z 18006KT 10SM CLR 12/08 A3010 RMK AO2 SLP201 T01170083=
201604020353 METAR KBLI 020353Z 18006KT 10SM CLR 12/08 A3010 RMK AO2 SLP199 T01220078=
201604020253 METAR KBLI 020253Z 18006KT 10SM CLR 13/08 A3010 RMK AO2 SLP200 T01280083 56014=
201604020153 METAR KBLI 020153Z 17004KT 10SM CLR 14/08 A3011 RMK AO2 SLP203 T01390083=
201604020053 METAR KBLI 020053Z 16006KT 10SM CLR 14/08 A3013 RMK AO2 SLP208 T01440083=
201604012353 METAR KBLI 012353Z 16006KT 10SM CLR 14/08 A3014 RMK AO2 SLP213 T01440083 10156 20106 56014=
201604012300 METAR KBLI NIL=
201604012200 METAR KBLI NIL=
201604012100 METAR KBLI NIL=
201604012000 METAR KBLI NIL=
201604011853 METAR KBLI 011853Z 17008KT 10SM CLR 12/09 A3020 RMK AO2 SLP232 T01170089=
201604011753 METAR KBLI 011753Z 18006KT 10SM SCT004 11/08 A3019 RMK AO2 SLP231 T01060083 10111 20089 51005=
201604011745 SPECI KBLI 011745Z VRB04KT 10SM SCT004 11/08 A3019 RMK AO2 T01060083=
201604011653 METAR KBLI 011653Z 17005KT 2SM BR OVC004 09/08 A3019 RMK AO2 SLP231 T00940083=
201604011641 SPECI KBLI 011641Z 17004KT 2SM BR OVC004 10/08 A3019 RMK AO2 T01000083=
201604011600 SPECI KBLI 011600Z 15005KT 10SM OVC003 09/08 A3019 RMK AO2 T00940083=
201604011553 METAR KBLI 011553Z 17004KT 1SM R16/P6000FT BR OVC003 09/08 A3019 RMK AO2 SLP231 T00940083=
201604011541 SPECI KBLI 011541Z 16007KT 1SM R16/P6000FT BR OVC003 09/08 A3019 RMK AO2 T00940078=
201604011500 SPECI KBLI 011500Z 16005KT 4SM BR OVC002 09/08 A3018 RMK AO2 T00890083=
201604011453 METAR KBLI 011453Z 17006KT 3/4SM R16/P6000FT BR OVC002 09/08 A3018 RMK AO2 SLP227 T00890083 53010=
201604011441 SPECI KBLI 011441Z 17005KT 3/4SM R16/P6000FT BR OVC002 09/08 A3018 RMK AO2 T00890083=
201604011353 METAR KBLI 011353Z 17005KT 3SM BR OVC002 09/08 A3016 RMK AO2 SLP222 T00890083=
201604011306 SPECI KBLI 011306Z 16006KT 10SM BKN003 09/08 A3015 RMK AO2 T00890078=
201604011253 METAR KBLI 011253Z 17007KT 10SM FEW003 09/08 A3015 RMK AO2 SLP217 T00940083=
201604011153 METAR KBLI 011153Z 17007KT 10SM CLR 11/07 A3015 RMK AO2 SLP215 T01060072 10117 20083 53004=
201604011053 METAR KBLI 011053Z 19007KT 10SM CLR 10/08 A3014 RMK AO2 SLP211 T01000078=
201604010953 METAR KBLI 010953Z 21003KT 10SM CLR 09/07 A3014 RMK AO2 SLP212 T00940072=
201604010853 METAR KBLI 010853Z 00000KT 10SM CLR 09/07 A3014 RMK AO2 SLP212 T00890072 51012=
201604010753 METAR KBLI 010753Z 17007KT 10SM CLR 11/08 A3013 RMK AO2 SLP209 T01060083 402000044=
201604010653 METAR KBLI 010653Z 17007KT 10SM CLR 11/09 A3012 RMK AO2 SLP205 T01110089=
201604010553 METAR KBLI 010553Z 18007KT 10SM CLR 12/09 A3010 RMK AO2 SLP200 T01170089 10200 20117 51012=
201604010453 METAR KBLI 010453Z 16006KT 10SM CLR 13/08 A3010 RMK AO2 SLP198 T01330083=
201604010353 METAR KBLI 010353Z 18005KT 10SM CLR 14/09 A3008 RMK AO2 SLP194 T01390089=
201604010253 METAR KBLI 010253Z 00000KT 10SM CLR 14/09 A3007 RMK AO2 SLP188 T01390089 55003=
201604010153 METAR KBLI 010153Z 00000KT 10SM CLR 18/08 A3006 RMK AO2 SLP187 T01830083=
201604010053 METAR KBLI 010053Z 18004KT 10SM CLR 19/09 A3006 RMK AO2 SLP186 T01940089=

# No short TAF reports from KBLI in databse.

###################################
#  large TAF from KBLI
###################################
201604302328 TAF KBLI 302328Z 0100/0124 29006KT P6SM SKC FM010600 VRB03KT P6SM
                       SKC FM012100 32006KT P6SM SKC=
201604301728 TAF KBLI 301728Z 3018/0118 VRB03KT P6SM SCT022 FM302100 20006KT
                       P6SM SCT050 FM010600 VRB03KT P6SM SKC=
201604301305 TAF AMD KBLI 301305Z 3013/0112 VRB03KT P6SM BKN200 FM302000 23007KT
                       P6SM SCT200 FM010100 VRB03KT P6SM SCT250=
201604301120 TAF KBLI 301120Z 3012/0112 VRB03KT P6SM SCT025 BKN050 FM301600
                       18006KT P6SM SCT050 FM302100 26007KT P6SM
                       FEW050 SCT250 FM010300 VRB03KT P6SM SKC=
201604300520 TAF KBLI 300520Z 3006/0106 18006KT P6SM SCT050 FM301100 18006KT
                       P6SM BKN025 FM301600 18006KT P6SM SCT050
                       FM302100 26007KT P6SM FEW050 SCT250 FM010300
                       VRB03KT P6SM SKC=
201604292338 TAF KBLI 292338Z 3000/3024 18006KT P6SM SCT050 FM301100 18006KT
                       P6SM BKN025 FM301600 18006KT P6SM SCT050=
201604291735 TAF KBLI 291735Z 2918/3018 18006KT P6SM OVC020 FM292100 18006KT
                       P6SM SCT020 BKN040 FM300400 18006KT P6SM
                       SCT060 FM301100 18006KT P6SM BKN025=
201604291120 TAF KBLI 291120Z 2912/3012 17006KT P6SM SCT035 BKN080 FM291300
                       17007KT P6SM VCSH SCT012 BKN020 OVC035
                      TEMPO 2914/2917 -SHRA SCT010 OVC020 FM292100
                       18010KT P6SM SCT020 BKN040 FM292300 19006KT
                       P6SM SCT060 FM300300 17005KT P6SM SCT100=
201604290523 TAF KBLI 290523Z 2906/3006 17006KT P6SM SCT035 BKN080 FM291200
                       17007KT P6SM VCSH SCT012 BKN020 OVC035
                      TEMPO 2914/2917 -SHRA SCT010 OVC020 FM292100
                       18008KT P6SM SCT020 BKN040 FM292300 19006KT
                       P6SM SCT060=
201604282334 TAF KBLI 282334Z 2900/2924 19010KT P6SM BKN060 FM290600 17006KT
                       P6SM SCT035 BKN050 FM291200 17007KT P6SM
                       VCSH SCT012 BKN020 OVC035 FM291900 18008KT
                       P6SM SCT020 BKN040 FM292300 19009KT P6SM
                       SCT060=
201604281740 TAF KBLI 281740Z 2818/2918 19008KT P6SM SCT060 FM290600 17006KT
                       P6SM SCT020 BKN050 FM291200 17006KT P6SM
                       VCSH SCT012 BKN020 OVC035=
201604281120 TAF KBLI 281120Z 2812/2912 VRB03KT P6SM OVC050 FM281600 18008KT
                       P6SM SCT040 BKN060 FM282000 17009KT P6SM
                       SCT040 SCT060 BKN100 FM290500 17006KT P6SM
                       SCT040 BKN060=
201604280520 TAF KBLI 280520Z 2806/2906 VRB03KT P6SM SCT050 BKN090 FM281600
                       18008KT P6SM SCT040 BKN080 FM290400 17009KT
                       P6SM BKN040=
201604272320 TAF KBLI 272320Z 2800/2824 30006KT P6SM SCT040 SCT080 FM280600
                       VRB03KT P6SM SCT040 FM281700 VRB03KT P6SM
                       BKN040=
201604271720 TAF KBLI 271720Z 2718/2818 VRB03KT P6SM BKN040 FM281700 32006KT
                       P6SM SCT040=
201604271126 TAF KBLI 271126Z 2712/2812 VRB03KT P6SM SCT060 OVC120 FM271500
                       VRB03KT P6SM OVC060 FM271800 19007KT P6SM
                       BKN060 OVC100 FM272100 23007KT P6SM SCT060
                       BKN100 FM280200 17004KT P6SM SCT100=
201604270544 TAF KBLI 270544Z 2706/2806 VRB03KT P6SM OVC130 FM271200 VRB03KT
                       P6SM SCT090 OVC130 FM271800 18008KT P6SM
                       SCT060 BKN100 FM272100 21006KT P6SM SCT060
                       SCT100 FM280200 17004KT P6SM FEW100=
201604270313 TAF AMD KBLI 270313Z 2703/2724 VRB03KT P6SM FEW070 OVC150 FM270600
                       VRB03KT P6SM SCT070 OVC120 FM270900 VRB03KT
                       P6SM BKN070 OVC120=
201604262320 TAF KBLI 262320Z 2700/2724 16006KT P6SM SCT070 BKN120 BKN200 FM270900
                       VRB03KT P6SM SCT070 BKN120 OVC200=
201604261720 TAF KBLI 261720Z 2618/2718 18008KT P6SM SCT040 SCT120 BKN250 FM262200
                       20006KT P6SM SCT070 BKN120 BKN200 FM270600
                       VRB03KT P6SM SCT070 BKN120 OVC200=
201604261132 TAF KBLI 261132Z 2612/2712 16004KT P6SM SCT200 FM261800 18008KT
                       P6SM FEW120 BKN200 FM270000 18005KT P6SM
                       FEW070 BKN120 OVC200 FM270600 VRB03KT P6SM
                       BKN070 BKN120 OVC200=
201604260534 TAF KBLI 260534Z 2606/2706 16004KT P6SM SCT200 FM261800 18008KT
                       P6SM FEW120 BKN200 FM270000 18005KT P6SM
                       FEW070 BKN120 OVC200=
201604260221 TAF AMD KBLI 260221Z 2602/2624 VRB03KT P6SM BKN200 FM261600 04006KT
                       P6SM OVC120=
201604252320 TAF KBLI 252320Z 2600/2624 26006KT P6SM SKC FM260900 00000KT P6SM
                       BKN200 FM261600 04006KT P6SM OVC120=
201604251720 TAF KBLI 251720Z 2518/2618 VRB04KT P6SM SCT025 BKN050 FM252100
                       30006KT P6SM SCT040 FM260900 00000KT P6SM
                       SCT120 OVC200 FM261600 04006KT P6SM OVC120=
201604251120 TAF KBLI 251120Z 2512/2612 17005KT P6SM VCSH SCT025 OVC060
                      TEMPO 2512/2516 -SHRA BKN025 OVC050 FM251800
                       19009KT P6SM SCT035 BKN070 FM252100 21007KT
                       P6SM SCT070 FM260200 17004KT P6SM BKN200=
201604251057 TAF AMD KBLI 251057Z 2511/2606 VRB03KT P6SM VCSH SCT025 OVC060
                       TEMPO 2511/2513 -SHRA BKN025 OVC060 FM251300
                       VRB03KT P6SM SCT030 BKN070 FM251800 19007KT
                       P6SM SCT035 BKN080 FM252000 19007KT P6SM
                       SCT080 SCT200 FM260200 17004KT P6SM SCT200=
201604251000 TAF AMD KBLI 251000Z 2510/2606 VRB03KT P6SM VCSH SCT035 OVC060
                       FM251200 VRB03KT P6SM SCT030 BKN070 FM251800
                       19007KT P6SM SCT035 BKN080 FM252000 19007KT
                       P6SM SCT080 SCT200 FM260200 17004KT P6SM
                       SCT200=
201604250523 TAF KBLI 250523Z 2506/2606 VRB03KT P6SM SCT035 SCT050
                      TEMPO 2506/2510 SCT035 BKN050 FM251200 VRB03KT
                       P6SM SCT030 BKN070 FM251800 19007KT P6SM
                       SCT035 BKN080 FM252000 19007KT P6SM SCT080
                       SCT200 FM260200 17004KT P6SM SCT200=
201604250313 TAF AMD KBLI 250313Z 2503/2524 19004KT P6SM VCSH FEW035 OVC060
                       FM250600 VRB03KT P6SM FEW035 BKN060 FM251200
                       17005KT P6SM BKN030=
201604242324 TAF KBLI 242324Z 2500/2524 17010KT P6SM VCSH SCT040 BKN050 FM250600
                       17009KT P6SM SCT040 FM251200 17005KT P6SM
                       BKN030=
201604241727 TAF KBLI 241727Z 2418/2518 17010KT P6SM VCSH SCT020 BKN030 OVC080
                       TEMPO 2418/2422 5SM -SHRA BR FEW015 BKN020
                       FM250300 17009KT P6SM SCT035 SCT050 BKN100
                       FM250900 VRB03KT P6SM BKN030=
201604241131 TAF KBLI 241131Z 2412/2512 17009KT P6SM VCSH SCT035 SCT050 BKN100
                       FM241800 19013KT P6SM SCT035 BKN050 BKN100
                       PROB30 2421/2502 -SHRA FM250200 17009KT
                       P6SM VCSH SCT035 SCT050 BKN100 FM250600
                       VRB03KT P6SM SCT035 BKN050 BKN100=
201604240716 TAF AMD KBLI 240716Z 2407/2506 VRB05KT P6SM -SHRA SCT025 OVC050
                       TEMPO 2407/2411 5SM SHRA BKN025 OVC050 FM241200
                       17009KT P6SM -SHRA SCT030 BKN050 OVC100
                       FM241800 19013KT P6SM VCSH BKN035 OVC050
                       PROB30 2418/2424 -SHRA FM250000 19009KT
                       P6SM VCSH SCT035 BKN050 BKN100=
201604240535 TAF KBLI 240535Z 2406/2506 VRB05KT 3SM SHRA BR SCT020 OVC035 FM240800
                       VRB05KT 5SM SHRA SCT015 OVC030
                      TEMPO 2408/2412 3SM +SHRA BKN015 OVC030 FM241200
                       17009KT P6SM -SHRA BKN030 OVC050 FM241800
                       19013KT P6SM VCSH BKN035 OVC050
                      PROB30 2418/2424 -SHRA FM250000 19009KT P6SM
                       VCSH SCT035 BKN050 BKN100=
201604240416 TAF AMD KBLI 240416Z 2404/2424 25007KT P6SM -SHRA BKN035 OVC050
                       TEMPO 2404/2408 4SM SHRA OVC028 FM241200
                       20009KT P6SM -SHRA BKN030 OVC050=
201604240212 TAF AMD KBLI 240212Z 2402/2424 17010KT P6SM VCSH SCT035 OVC070
                       TEMPO 2402/2404 -SHRA BKN035 OVC070 FM240400
                       17013KT P6SM -SHRA BKN035 OVC050
                      TEMPO 2404/2408 OVC028 FM241200 20009KT P6SM
                       -SHRA BKN030 OVC050=
201604232324 TAF KBLI 232324Z 2400/2424 17010KT P6SM VCSH SCT050 BKN080 BKN200
                       FM240300 17013KT P6SM -SHRA BKN030 BKN050
                       OVC080 FM241200 20009KT P6SM -SHRA BKN030
                       OVC050=
201604231720 TAF KBLI 231720Z 2318/2418 17009KT P6SM SCT040 BKN060 BKN100 FM240000
                       17013KT P6SM -SHRA BKN030 OVC050 FM240300
                       17013KT P6SM -SHRA OVC025 FM240900 17009KT
                       P6SM -SHRA BKN030 OVC050=
201604231147 TAF KBLI 231147Z 2312/2412 17009KT P6SM VCSH OVC035 FM231500 17009KT
                       P6SM VCSH OVC028 FM231800 17013KT P6SM BKN035
                       BKN050 OVC110
                      PROB30 2321/2324 -SHRA FM240000 17013KT P6SM
                       -SHRA BKN030 OVC050 FM240300 17013KT P6SM
                       -SHRA OVC025 FM240900 17009KT P6SM -SHRA
                       BKN030 OVC050=
201604230905 TAF AMD KBLI 230905Z 2309/2406 17009KT P6SM VCSH SCT028 OVC090
                       TEMPO 2314/2318 BKN028 OVC090 FM231800 17013KT
                       P6SM BKN035 BKN050 OVC110
                      PROB30 2321/2324 -SHRA FM240000 17009KT P6SM
                       -SHRA BKN030 OVC050=
201604230541 TAF KBLI 230541Z 2306/2406 17009KT P6SM VCSH BKN035 OVC050 FM230900
                       17009KT P6SM OVC028 FM231800 17013KT P6SM
                       BKN035 BKN050 OVC110
                      PROB30 2321/2324 -SHRA FM240000 17009KT P6SM
                       -SHRA BKN030 OVC050=
201604230308 TAF AMD KBLI 230308Z 2303/2324 17008KT P6SM VCSH SCT018 BKN040
                       OVC050
                      TEMPO 2303/2305 BKN018 OVC040 FM230900 17010KT
                       P6SM OVC030=
201604222320 TAF KBLI 222320Z 2300/2324 17010KT P6SM -SHRA SCT040 BKN060 BKN100
                       TEMPO 2300/2304 -SHRA SCT015 BKN040 FM230900
                       17010KT P6SM OVC030=
201604221732 TAF KBLI 221732Z 2218/2318 17006KT P6SM VCSH SCT030 BKN045 OVC080
                       TEMPO 2218/2222 -SHRA BKN030 FM222200 17010KT
                       P6SM -SHRA OVC030 FM230900 17010KT P6SM
                       OVC030=
201604221311 TAF AMD KBLI 221311Z 2213/2312 17005KT P6SM OVC015 FM221500 17006KT
                       P6SM VCSH SCT015 BKN045 OVC080
                      TEMPO 2215/2217 BKN015 OVC045 FM222200 17010KT
                       P6SM -SHRA OVC030 FM230300 17010KT P6SM
                       VCSH OVC030=
201604221120 TAF KBLI 221120Z 2212/2312 00000KT P6SM SCT045 BKN140 FM221400
                       17006KT P6SM VCSH BKN045 OVC080 FM222200
                       17010KT P6SM -SHRA OVC030 FM230300 17010KT
                       P6SM VCSH OVC030=
201604220535 TAF KBLI 220535Z 2206/2306 18004KT P6SM BKN090 OVC150 FM221200
                       17008KT P6SM VCSH BKN045 OVC080 FM222200
                       17010KT P6SM -SHRA OVC030 FM230300 17010KT
                       P6SM VCSH OVC030=
201604212320 TAF KBLI 212320Z 2200/2224 16007KT P6SM SCT100 SCT250 FM220300
                       18005KT P6SM SCT120 BKN250 FM221200 17005KT
                       P6SM VCSH BKN050 BKN100 FM221600 17008KT
                       P6SM -SHRA BKN040 OVC080 FM222200 18008KT
                       P6SM -SHRA BKN030 OVC050=
201604211720 TAF KBLI 211720Z 2118/2218 19006KT P6SM BKN100 BKN250 FM212000
                       20007KT P6SM SCT100 SCT250 FM220100 VRB03KT
                       P6SM SCT080 BKN250 FM221200 17005KT P6SM
                       VCSH BKN045 BKN080 FM221500 17008KT P6SM
                       -SHRA BKN040 OVC080=
201604211120 TAF KBLI 211120Z 2112/2212 17009KT P6SM SCT030 OVC110
                      TEMPO 2112/2116 -SHRA OVC030 FM211600 17006KT
                       P6SM SCT030 BKN090 FM211900 18007KT P6SM
                       FEW030 SCT100 FM220600 00000KT P6SM SCT050
                       OVC100
                      PROB30 2206/2212 -SHRA OVC050=
201604210527 TAF KBLI 210527Z 2106/2206 21004KT P6SM SKC FM211300 17009KT P6SM
                       VCSH BKN030 BKN090 FM211600 17006KT P6SM
                       SCT030 BKN090 FM211900 18007KT P6SM FEW030
                       SCT100=
201604202323 TAF KBLI 202323Z 2100/2124 27008KT P6SM FEW250 FM210400 20010KT
                       P6SM SCT040 SCT100 BKN200 FM210600 18015G25KT
                       P6SM -SHRA BKN040 BKN090 BKN200 FM211300
                       17009KT P6SM VCSH BKN030 BKN090 FM211600
                       17006KT P6SM SCT030 BKN090 FM211900 18007KT
                       P6SM FEW030 SCT100=
201604201729 TAF KBLI 201729Z 2018/2118 01004KT P6SM SKC FM202000 27007KT P6SM
                       SCT250 FM210200 20010KT P6SM SCT040 SCT100
                       BKN200 FM210600 18015G25KT P6SM -SHRA BKN040
                       BKN090 BKN200 FM211200 17009KT P6SM BKN030
                       BKN090=
201604201449 TAF AMD KBLI 201449Z 2015/2112 00000KT P6SM SKC FM202000 23006KT
                       P6SM SCT250 FM210200 20010KT P6SM SCT040
                       SCT100 BKN200 FM210600 18015G25KT P6SM -SHRA
                       BKN040 BKN090 BKN200
                      TEMPO 2107/2110 TS BKN040CB BKN090 OVC200=
201604201342 TAF AMD KBLI 201342Z 2014/2112 00000KT 5SM BR SCT002
                      TEMPO 2014/2015 1/2SM FG VV002 FM201500 00000KT
                       P6SM SKC FM202000 21006KT P6SM SCT250 FM210400
                       19008KT P6SM VCSH SCT040 BKN080 BKN250=
201604201125 TAF KBLI 201125Z 2012/2112 00000KT P6SM SKC FM202000 21006KT P6SM
                       SCT250 FM210400 19008KT P6SM VCSH SCT040
                       BKN080 BKN250=
201604200535 TAF KBLI 200535Z 2006/2106 00000KT P6SM SKC FM202000 21006KT P6SM
                       SCT250 FM210400 19008KT P6SM VCSH SCT040
                       BKN080 BKN250=
201604192331 TAF KBLI 192331Z 2000/2024 27006KT P6SM SCT250 FM200300 00000KT
                       P6SM SCT250 FM202000 21006KT P6SM SCT250=
201604191723 TAF KBLI 191723Z 1918/2018 00000KT P6SM SCT250 FM192100 26006KT
                       P6SM FEW250 FM200300 00000KT P6SM SKC=
201604191122 TAF KBLI 191122Z 1912/2012 00000KT P6SM SKC FM192100 22006KT P6SM
                       SKC FM200300 00000KT P6SM SKC=
201604190520 TAF KBLI 190520Z 1906/2006 18003KT P6SM SKC FM192100 22006KT P6SM
                       SKC FM200300 00000KT P6SM SKC=
201604182320 TAF KBLI 182320Z 1900/1924 VRB03KT P6SM SCT250 FM192100 22006KT
                       P6SM SKC=
201604181720 TAF KBLI 181720Z 1818/1918 00000KT P6SM BKN250 FM182000 25005KT
                       P6SM SCT250 FM190300 00000KT P6SM FEW250=
201604181120 TAF KBLI 181120Z 1812/1912 00000KT P6SM SCT250 FM182000 25005KT
                       P6SM SCT250 FM190300 00000KT P6SM FEW250=
201604180520 TAF KBLI 180520Z 1806/1906 00000KT P6SM SCT250 FM182000 25005KT
                       P6SM SCT250 FM190300 00000KT P6SM FEW250=
201604172320 TAF KBLI 172320Z 1800/1824 29003KT P6SM SCT250 FM180300 VRB03KT
                       P6SM SKC FM182100 24005KT P6SM SKC=
201604171721 TAF KBLI 171721Z 1718/1818 04005KT P6SM SKC FM172000 32006KT P6SM
                       SCT250 FM180300 VRB03KT P6SM SKC=
201604171120 TAF KBLI 171120Z 1712/1812 00000KT P6SM SCT250 FM171900 32006KT
                       P6SM SCT250 FM180300 00000KT P6SM SCT250=
201604170520 TAF KBLI 170520Z 1706/1806 00000KT P6SM SCT090 BKN250
                      TEMPO 1706/1710 BKN090 OVC250 FM171900 32006KT
                       P6SM SCT250=
201604162320 TAF KBLI 162320Z 1700/1724 02005KT P6SM BKN110 FM170300 00000KT
                       P6SM SCT250 FM171900 32006KT P6SM SKC=
201604161745 TAF KBLI 161745Z 1618/1718 00000KT P6SM BKN250 FM162000 25005KT
                       P6SM BKN250 FM170300 00000KT P6SM SCT250=
201604161120 TAF KBLI 161120Z 1612/1712 00000KT P6SM SCT100 BKN250 FM162000
                       25005KT P6SM BKN100 BKN250 FM170300 00000KT
                       P6SM FEW120 BKN250=
201604160520 TAF KBLI 160520Z 1606/1706 00000KT P6SM SCT070 SCT120 BKN250
                      TEMPO 1606/1609 BKN070 BKN120 OVC250 FM162000
                       25005KT P6SM BKN100 BKN250 FM170300 00000KT
                       P6SM FEW120 BKN250=
201604152320 TAF KBLI 152320Z 1600/1624 VRB04KT P6SM OVC060 FM160300 VRB03KT
                       P6SM SCT060 BKN140 FM161100 12005KT P6SM
                       OVC060 FM162000 22005KT P6SM SCT060 BKN250=
201604151720 TAF KBLI 151720Z 1518/1618 16010KT P6SM SCT035 BKN070 FM160100
                       17008KT P6SM SCT060 BKN200 FM160700 16006KT
                       P6SM SCT060 BKN120 FM161100 VRB02KT P6SM
                       OVC060=
201604151502 TAF AMD KBLI 151502Z 1515/1612 16009KT P6SM OVC025 FM151800 16014KT
                       P6SM BKN040 BKN150 FM160100 17006KT P6SM
                       SCT050 BKN200=
201604151122 TAF KBLI 151122Z 1512/1612 16012KT P6SM BKN018 OVC040 FM151800
                       16014KT P6SM BKN040 BKN150 FM160100 17006KT
                       P6SM SCT050 BKN200=
201604150520 TAF KBLI 150520Z 1506/1606 16006KT P6SM FEW080 BKN250 FM151000
                       16007KT P6SM BKN040 BKN250 FM151800 18004KT
                       P6SM SCT040=
201604142320 TAF KBLI 142320Z 1500/1524 18005KT P6SM VCSH SCT025 SCT050 OVC060
                       FM150400 19004KT P6SM SCT060 BKN250 FM151000
                       16007KT P6SM BKN040 FM151800 18004KT P6SM
                       SCT040=
201604142207 TAF AMD KBLI 142207Z 1422/1518 18005KT P6SM VCSH OVC060 FM150200
                       19004KT P6SM SCT060 BKN200 FM150900 16007KT
                       P6SM BKN030 BKN100=
201604141726 TAF KBLI 141726Z 1418/1518 VRB03KT P6SM VCSH BKN070 BKN120 FM142100
                       28005KT P6SM SCT070 BKN150 FM150200 19004KT
                       P6SM SCT100 BKN200 FM150900 16007KT P6SM
                       BKN060 BKN100=
201604141122 TAF KBLI 141122Z 1412/1512 13006KT P6SM -SHRA BKN050 OVC080 FM141600
                       VRB03KT P6SM BKN060 BKN120 FM142100 28005KT
                       P6SM SCT070 BKN150 FM150200 19004KT P6SM
                       SCT100 BKN200 FM150900 16007KT P6SM BKN060
                       BKN100=
201604140522 TAF KBLI 140522Z 1406/1506 36004KT P6SM FEW120 BKN250 FM141200
                       VRB03KT P6SM BKN070 BKN120 FM142000 28005KT
                       P6SM SCT070 BKN150 FM150200 19004KT P6SM
                       FEW100 BKN250=
201604132324 TAF KBLI 132324Z 1400/1424 15008KT P6SM BKN040 OVC200 FM140200
                       15008KT P6SM -SHRA BKN040 OVC080 FM140900
                       18005KT P6SM -SHRA BKN030=
201604131720 TAF KBLI 131720Z 1318/1418 15010KT P6SM SCT040 SCT250 FM140000
                       18012KT P6SM -SHRA BKN040 OVC080 FM140600
                       VRB05KT P6SM -SHRA BKN030=
201604131120 TAF KBLI 131120Z 1312/1412 VRB03KT P6SM BKN050 FM131600 16006KT
                       P6SM BKN050 BKN120 FM140000 18012KT P6SM
                       -RA BKN040 OVC080 FM140500 20012KT P6SM
                       VCSH BKN030=
201604130732 TAF AMD KBLI 130732Z 1308/1406 VRB03KT P6SM BKN050 FM131600 16006KT
                       P6SM BKN050 BKN120 FM140000 18012KT P6SM
                       -RA BKN040 OVC080 FM140500 20012KT P6SM
                       VCSH BKN030=
201604130520 TAF KBLI 130520Z 1306/1406 00000KT 4SM RA BR FEW011 BKN020 OVC025
                       FM130900 15008KT P6SM VCSH OVC030 FM131800
                       15007KT P6SM BKN040=
201604122355 TAF KBLI 122355Z 1300/1324 15010KT P6SM -RA OVC035 FM130600 18008KT
                       P6SM -SHRA BKN035 FM130900 15008KT P6SM
                       VCSH OVC030 FM131800 15007KT P6SM BKN040=
201604122323 TAF KBLI 122323Z 1300/1324 15010KT P6SM -RA OVC035 FM130600 18008KT
                       P6SM -SHRA BKN035 FM130900 15008KT P6SM
                       VCSH OVC030 FM131800 15007KT P6SM BKN040=
201604121720 TAF KBLI 121720Z 1218/1318 16015G25KT P6SM SCT030 OVC060
                      TEMPO 1218/1220 OVC030 FM122000 16017G28KT
                       P6SM -RA OVC030 FM130000 17013KT P6SM -RA
                       OVC030 FM130600 18008KT P6SM -SHRA BKN035
                       FM130900 15006KT P6SM VCSH OVC030=
201604121417 TAF AMD KBLI 121417Z 1214/1312 16014G22KT P6SM SCT025 OVC050
                      TEMPO 1214/1216 BKN025 OVC050 FM121600 17015G25KT
                       P6SM OVC040
                      TEMPO 1216/1220 -RA OVC030 FM122000 18012KT
                       P6SM -RA OVC020 FM130400 18012KT P6SM -SHRA
                       BKN030 FM130800 18008KT P6SM VCSH OVC030=
201604121303 TAF AMD KBLI 121303Z 1213/1312 17010KT P6SM SCT025 OVC040
                      TEMPO 1213/1216 BKN025 OVC050 FM121600 18012KT
                       P6SM OVC040
                      TEMPO 1216/1220 -RA OVC030 FM122000 18012KT
                       P6SM -RA OVC020 FM130400 18012KT P6SM -SHRA
                       BKN030 FM130800 18008KT P6SM VCSH OVC030=
201604121120 TAF KBLI 121120Z 1212/1312 17007KT P6SM SCT025 OVC050
                      TEMPO 1212/1216 BKN025 OVC050 FM121600 18012KT
                       P6SM OVC040
                      TEMPO 1216/1220 -RA OVC030 FM122000 18012KT
                       P6SM -RA OVC020 FM130400 18012KT P6SM -SHRA
                       BKN030 FM130800 18008KT P6SM VCSH OVC030=
201604120520 TAF KBLI 120520Z 1206/1306 VRB03KT P6SM BKN050 FM121200 16008KT
                       P6SM OVC040 FM121800 18012G20KT P6SM -RA
                       OVC040 FM130000 22012KT P6SM -SHRA BKN035=
201604112320 TAF KBLI 112320Z 1200/1224 16009KT P6SM OVC050 FM120700 17009KT
                       P6SM OVC035 FM121200 15013KT P6SM OVC030
                       FM121600 16017G28KT P6SM OVC030 FM122100
                       18013KT P6SM -RA BKN030 BKN045=
201604111731 TAF KBLI 111731Z 1118/1218 16009KT P6SM BKN030 BKN045 FM112000
                       16009KT P6SM BKN040 FM120700 18009KT P6SM
                       OVC030 FM121200 16013KT P6SM OVC030 FM121600
                       16015G25KT P6SM OVC030=
201604111120 TAF KBLI 111120Z 1112/1212 17007KT P6SM OVC035 FM112000 22008KT
                       P6SM BKN040 FM120600 18008KT P6SM OVC030=
201604110520 TAF KBLI 110520Z 1106/1206 17007KT P6SM SCT040 FM110900 17007KT
                       P6SM BKN040 FM111200 17007KT P6SM OVC030
                       FM112000 22008KT P6SM BKN040=
201604102334 TAF KBLI 102334Z 1100/1124 17007KT P6SM SCT035 SCT050 FM110900
                       17007KT P6SM SCT025 BKN050
                      TEMPO 1109/1112 BKN025 OVC050 FM111200 17010KT
                       6SM BR OVC015 FM111800 17013KT P6SM BKN028
                       BKN050 FM112100 19010KT P6SM SCT035 BKN050=
201604102115 TAF AMD KBLI 102115Z 1021/1118 19009KT P6SM SCT035 BKN050 FM110000
                       17007KT P6SM SCT035 BKN050 FM110900 17007KT
                       P6SM SCT028 BKN050
                      TEMPO 1109/1112 BKN028 OVC050 FM111200 17013KT
                       P6SM OVC015
                      PROB30 1112/1118 4SM -DZ BR OVC008=
201604101847 TAF AMD KBLI 101847Z 1019/1118 17011KT P6SM SCT030 OVC050 FM102000
                       17011KT P6SM OVC035 FM110000 17007KT P6SM
                       SCT035 BKN050 FM110900 17007KT P6SM SCT028
                       BKN050
                      TEMPO 1109/1112 BKN028 OVC050 FM111200 17013KT
                       P6SM OVC015
                      PROB30 1112/1118 4SM -DZ BR OVC008=
201604101738 TAF KBLI 101738Z 1018/1118 17011KT P6SM OVC025 FM102000 17011KT
                       P6SM BKN035 FM110000 17007KT P6SM SCT035
                       FM110900 17007KT P6SM SCT028 SCT060
                      TEMPO 1109/1112 BKN028 OVC060 FM111200 17013KT
                       P6SM OVC015
                      PROB30 1112/1118 4SM -DZ BR OVC008=
201604101629 TAF AMD KBLI 101629Z 1016/1112 17012KT P6SM OVC020 FM101900 19009KT
                       P6SM SCT030 FM110000 17007KT P6SM SKC FM110800
                       18007KT P6SM BKN030=
201604101423 TAF AMD KBLI 101423Z 1014/1112 17010KT P6SM OVC015 FM101900 19008KT
                       P6SM FEW028 FM110000 17006KT P6SM SKC FM110800
                       18007KT P6SM BKN030=
201604101120 TAF KBLI 101120Z 1012/1112 18010KT P6SM SCT020 SCT040
                      TEMPO 1014/1018 BKN020 BKN040 FM101800 18008KT
                       P6SM SCT020 BKN040 FM102100 22007KT P6SM
                       SCT040 FM110800 18007KT P6SM BKN030=
201604100520 TAF KBLI 100520Z 1006/1106 00000KT P6SM SKC FM101200 15006KT 5SM
                       BR SCT004
                      TEMPO 1014/1018 2SM BR BKN004 FM101800 17009KT
                       P6SM FEW007 FM101900 19009KT P6SM SCT250=
201604092320 TAF KBLI 092320Z 1000/1024 19005KT P6SM SKC FM100200 17004KT P6SM
                       SKC FM101200 15006KT 5SM BR SCT004
                      TEMPO 1014/1018 2SM BR BKN004 FM101800 17009KT
                       P6SM FEW007 FM101900 19009KT P6SM SCT250=
201604091742 TAF KBLI 091742Z 0918/1018 19006KT P6SM VCFG SCT010
                      TEMPO 0918/0919 BKN010 FM091900 22006KT P6SM
                       SKC FM100200 VRB03KT P6SM SKC FM101200 15004KT
                       5SM BR SCT004
                      TEMPO 1014/1018 2SM BR BKN004=
201604091704 TAF AMD KBLI 091704Z 0917/1012 19007KT P6SM SCT010
                      TEMPO 0917/0919 BKN010 FM091900 21007KT P6SM
                       SKC FM100200 17005KT P6SM SKC=
201604091120 TAF KBLI 091120Z 0912/1012 16003KT P6SM SKC FM091800 30007KT P6SM
                       SKC=
201604090520 TAF KBLI 090520Z 0906/1006 30007KT P6SM SCT250 FM091800 30007KT
                       P6SM SKC=
201604082342 TAF KBLI 082342Z 0900/0924 19008KT P6SM BKN250 FM090200 21004KT
                       P6SM BKN250 FM090600 VRB03KT P6SM SKC FM091200
                       35004KT P6SM VCFG FEW008 FM091800 35007KT
                       P6SM SKC FM092100 28006KT P6SM SKC=
201604081730 TAF KBLI 081730Z 0818/0918 17007KT P6SM BKN250 FM082000 19009KT
                       P6SM BKN250 FM090300 17006KT P6SM BKN250
                       FM090600 VRB03KT P6SM SCT250 FM091200 35004KT
                       P6SM VCFG FEW009 SCT250=
201604081120 TAF KBLI 081120Z 0812/0912 VRB03KT P6SM FEW250 FM081800 18008KT
                       P6SM FEW250=
201604080520 TAF KBLI 080520Z 0806/0906 17004KT P6SM SCT250 FM081200 VRB03KT
                       P6SM FEW250 FM081800 18008KT P6SM FEW250=
201604072335 TAF KBLI 072335Z 0800/0824 29006KT P6SM SKC FM080400 17004KT P6SM
                       SCT250=
201604071735 TAF KBLI 071735Z 0718/0818 02011G20KT P6SM SKC FM080300 VRB03KT
                       P6SM SCT250=
201604071120 TAF KBLI 071120Z 0712/0812 01008KT P6SM SCT250 FM080300 VRB03KT
                       P6SM SCT250=
201604070520 TAF KBLI 070520Z 0706/0806 01008KT P6SM SCT250=
201604062332 TAF KBLI 062332Z 0700/0724 03008KT P6SM SCT250=
201604061728 TAF KBLI 061728Z 0618/0718 18005KT P6SM FEW050 OVC060 FM062100
                       18007KT P6SM SCT060 SCT250 FM070000 04009KT
                       P6SM SCT250=
201604061120 TAF KBLI 061120Z 0612/0712 18005KT P6SM SCT050 BKN080 FM061400
                       16009KT P6SM SCT050 BKN100 FM062000 22007KT
                       P6SM BKN100 FM070000 29004KT P6SM SCT250
                       FM070300 VRB03KT P6SM SCT250=
201604060520 TAF KBLI 060520Z 0606/0706 18005KT P6SM OVC035 FM061400 16009KT
                       P6SM BKN050 BKN200 FM062000 22007KT P6SM
                       BKN100 FM070000 29004KT P6SM SCT250 FM070300
                       20003KT P6SM SCT250=
201604052328 TAF KBLI 052328Z 0600/0624 17005KT P6SM OVC045 FM061400 16009KT
                       P6SM BKN050 BKN200 FM062300 22007KT P6SM
                       BKN120=
201604051724 TAF KBLI 051724Z 0518/0618 18008KT P6SM SCT015 BKN045 OVC080
                      TEMPO 0518/0521 -RA BKN015 OVC040 FM052100
                       16011G17KT P6SM OVC040 FM060100 16011KT
                       P6SM SCT035 BKN060 FM060600 16009KT P6SM
                       BKN060=
201604051301 TAF AMD KBLI 051301Z 0513/0612 17007KT P6SM SCT025 OVC040
                      TEMPO 0513/0516 -RA BKN025 OVC040 FM051600
                       17008KT P6SM SCT030 OVC045
                      TEMPO 0516/0520 -SHRA BKN030 OVC045 FM060000
                       15008KT P6SM SCT040 BKN060 FM060900 VRB03KT
                       P6SM SCT060=
201604051134 TAF KBLI 051134Z 0512/0612 15008KT P6SM SCT045 OVC120 FM051400
                       15008KT P6SM SCT030 OVC045
                      TEMPO 0517/0521 -SHRA FM060000 15008KT P6SM
                       SCT040 BKN060 FM060900 VRB03KT P6SM SCT060=
201604050539 TAF KBLI 050539Z 0506/0606 18008KT P6SM SCT050 FM051000 18008KT
                       P6SM BKN045 FM051800 22012KT P6SM SCT030
                       BKN045=
201604042333 TAF KBLI 042333Z 0500/0524 VRB06G14KT P6SM SCT040 FM050600 17008KT
                       P6SM SCT025 OVC045 FM051000 16012G22KT P6SM
                       OVC025 FM051800 16016G22KT P6SM OVC035=
201604041724 TAF KBLI 041724Z 0418/0518 15011G16KT P6SM FEW025 SCT045 BKN150
                       FM050200 17008KT P6SM OVC045=
201604041142 TAF KBLI 041142Z 0412/0512 18016G24KT P6SM -SHRA SCT015 BKN025
                       OVC040
                      TEMPO 0412/0416 5SM -SHRA FM041900 18012G20KT
                       P6SM -SHRA SCT025 BKN035 BKN060 FM050100
                       18012KT P6SM SCT035 BKN050=
201604040538 TAF KBLI 040538Z 0406/0506 VRB03KT P6SM -RA OVC040 FM040900 18012KT
                       P6SM -RA SCT018 OVC028 FM041200 18016G24KT
                       P6SM -RA SCT010 OVC018 FM041500 18016G24KT
                       P6SM -SHRA BKN035 BKN060 FM050100 18012KT
                       P6SM SCT035 BKN050=
201604032325 TAF KBLI 032325Z 0400/0424 VRB03KT P6SM SCT130 BKN220 FM040500
                       16012KT P6SM -RA SCT018 OVC028 FM041000
                       18016G24KT P6SM -RA SCT010 OVC018 FM041400
                       17016G24KT P6SM -SHRA BKN035 BKN060=
201604031720 TAF KBLI 031720Z 0318/0418 VRB03KT P6SM SCT120 BKN200 FM040000
                       VRB03KT P6SM BKN070 OVC100 FM040500 16012KT
                       P6SM -RA SCT018 OVC028 FM041200 18016G24KT
                       P6SM -RA SCT010 OVC018=
201604031132 TAF KBLI 031132Z 0312/0412 VRB03KT P6SM SCT120 BKN200 FM040000
                       VRB03KT P6SM BKN070 OVC100 FM040400 14010KT
                       P6SM -RA SCT018 OVC028 FM040900 18014KT
                       P6SM -RA SCT010 OVC018=
201604030540 TAF KBLI 030540Z 0306/0406 17008KT P6SM SCT200 FM030800 VRB03KT
                       P6SM BKN120 BKN200 FM040000 VRB03KT P6SM
                       BKN070 OVC100 FM040400 14010KT P6SM -RA
                       SCT018 OVC028=
201604022330 TAF KBLI 022330Z 0300/0324 17011G18KT P6SM SCT090 FM030900 15003KT
                       P6SM SCT020 BKN030 OVC070 FM031600 VRB03KT
                       P6SM SCT030 BKN070 OVC200=
201604021734 TAF KBLI 021734Z 0218/0318 17009KT P6SM BKN020 FM022000 19008KT
                       P6SM SCT250 FM030900 15003KT P6SM SCT020
                       BKN035 OVC070 FM031700 VRB03KT P6SM SCT030
                       BKN120=
201604021130 TAF KBLI 021130Z 0212/0312 18006KT P6SM BKN060 FM021900 18006KT
                       P6SM SCT250=
201604020538 TAF KBLI 020538Z 0206/0306 18006KT P6SM SKC FM021400 18006KT P6SM
                       BKN009 FM021700 18006KT P6SM SCT015 FM021900
                       18006KT P6SM SCT250=
201604012320 TAF KBLI 012320Z 0200/0224 17005KT P6SM SKC FM021400 18008KT P6SM
                       BKN006 FM021900 18005KT P6SM SCT020 FM022000
                       18005KT P6SM SCT030=
201604011720 TAF KBLI 011720Z 0118/0218 17005KT P6SM SKC
                      TEMPO 0118/0119 2SM BR BKN004 FM021400 18008KT
                       P6SM BKN008=
201604011503 TAF AMD KBLI 011503Z 0115/0212 19006KT P6SM FEW250
                      TEMPO 0115/0118 1SM BR OVC002=
201604011311 TAF AMD KBLI 011311Z 0113/0212 19006KT P6SM FEW250
                      TEMPO 0113/0116 BKN005=
201604011136 TAF KBLI 011136Z 0112/0212 19006KT P6SM FEW250=
201604010536 TAF KBLI 010536Z 0106/0206 17004KT P6SM FEW250 FM011200 VRB03KT
                       P6SM VCFG SKC FM011600 19006KT P6SM FEW250=