##########################################################
# Query made at 02/16/2025 21:13:51 UTC
# Time interval: from 02/01/2016 00:00  to 02/29/2016 23:59  UTC
##########################################################

##########################################################
# KBLI, Bellingham, Bellingham International Airport (United States)
# WMO index: -----. WIGOS ID: Unknown
# Latitude 48-47-58N. Longitude 122-32-21W. Altitude 48 m.
##########################################################

###################################
#  METAR/SPECI from KBLI
###################################
201602292353 METAR KBLI 292353Z 16005KT 10SM FEW055 11/02 A3015 RMK AO2 SLP218 T01110022 10111 20083 56009=
201602292253 METAR KBLI 292253Z 18006KT 10SM CLR 11/02 A3016 RMK AO2 SLP220 T01110022=
201602292153 METAR KBLI 292153Z 17006KT 10SM SCT047 10/03 A3016 RMK AO2 SLP221 T01000033=
201602292053 METAR KBLI 292053Z 18008KT 150V210 10SM BKN036 10/03 A3018 RMK AO2 SLP227 T01000028 58012=
201602291953 METAR KBLI 291953Z VRB06KT 10SM BKN030 10/03 A3019 RMK AO2 SLP232 T01000028=
201602291853 METAR KBLI 291853Z 14006KT 10SM SCT024 09/03 A3021 RMK AO2 SLP238 T00940033=
201602291753 METAR KBLI 291753Z 17011KT 10SM FEW025 08/03 A3021 RMK AO2 SLP239 T00830033 10083 20056 51013=
201602291653 METAR KBLI 291653Z 14008G15KT 10SM SCT025 08/04 A3021 RMK AO2 SLP238 T00830039=
201602291553 METAR KBLI 291553Z 15008KT 10SM FEW080 07/03 A3019 RMK AO2 SLP232 T00720028=
201602291453 METAR KBLI 291453Z 16007KT 10SM SCT085 07/03 A3017 RMK AO2 SLP226 T00670028 50004=
201602291353 METAR KBLI 291353Z AUTO 16009KT 10SM BKN050 BKN060 08/03 A3018 RMK AO2 SLP227 T00780028=
201602291253 METAR KBLI 291253Z AUTO 13008KT 10SM FEW050 07/03 A3017 RMK AO2 SLP225 T00670028=
201602291153 METAR KBLI 291153Z AUTO 17006KT 10SM SCT050 07/03 A3016 RMK AO2 SLP222 60001 70007 T00670033 10083 20067 52004=
201602291053 METAR KBLI 291053Z AUTO 15008KT 10SM OVC050 07/04 A3016 RMK AO2 RAE06 SLP220 P0000 T00670044=
201602290953 METAR KBLI 290953Z AUTO 15008KT 10SM -RA SCT032 BKN045 OVC070 07/04 A3016 RMK AO2 SLP220 P0001 T00670044=
201602290853 METAR KBLI 290853Z AUTO 15007KT 10SM -RA SCT029 BKN039 OVC048 07/04 A3015 RMK AO2 RAB20 SLP218 P0000 60000 T00720039 51016=
201602290753 METAR KBLI 290753Z AUTO 15009KT 10SM SCT035 BKN050 07/04 A3013 RMK AO2 SLP212 T00720039 401220072=
201602290653 METAR KBLI 290653Z AUTO 20007KT 10SM FEW035 BKN055 OVC070 08/04 A3012 RMK AO2 RAB0555E24 SLP207 P0000 T00830039=
201602290553 METAR KBLI 290553Z 20007KT 10SM SCT060 OVC070 08/03 A3010 RMK AO2 SLP202 60002 T00780033 10100 20078 51028=
201602290453 METAR KBLI 290453Z 18007KT 10SM SCT038 BKN046 OVC085 08/04 A3008 RMK AO2 RAE20 SLP193 P0001 T00780039=
201602290353 METAR KBLI 290353Z 20005KT 9SM -RA BKN048 OVC070 08/04 A3005 RMK AO2 RAB30 SLP185 P0001 T00780039=
201602290253 METAR KBLI 290253Z 18007G17KT 160V220 10SM SCT055 OVC075 09/03 A3002 RMK AO2 SLP174 60000 T00890033 53031=
201602290153 METAR KBLI 290153Z 18009G16KT 10SM SCT042 SCT050 BKN060 09/03 A2998 RMK AO2 SLP161 T00940033=
201602290053 METAR KBLI 290053Z 18007G18KT 10SM BKN065 BKN075 10/03 A2996 RMK AO2 RAE2359 SLP153 P0000 T01000033=
201602282353 METAR KBLI 282353Z 19009G18KT 10SM -RA FEW043 BKN060 OVC100 10/04 A2993 RMK AO2 RAB23 SLP142 P0000 60000 T01000039 10122 20100 51035=
201602282253 METAR KBLI 282253Z 20007G19KT 150V240 10SM FEW047 BKN055 BKN120 11/03 A2991 RMK AO2 PRESRR SLP135 T01060033=
201602282153 METAR KBLI 282153Z 19009G17KT 160V230 10SM SCT044 SCT055 BKN070 11/04 A2986 RMK AO2 PK WND 21026/2104 SLP118 T01110039=
201602282053 METAR KBLI 282053Z 18012G22KT 10SM FEW028 BKN037 OVC045 11/07 A2982 RMK AO2 PK WND 16030/1955 SLP106 60000 T01110072 53038=
201602281953 METAR KBLI 281953Z 16020G32KT 10SM FEW030 BKN034 BKN044 11/07 A2978 RMK AO2 PK WND 16037/1858 RAB26E39 SLP092 P0000 T01110067=
201602281929 SPECI KBLI 281929Z 16023G34KT 10SM -RA SCT026 BKN038 OVC055 11/07 A2977 RMK AO2 PK WND 16037/1858 RAB26 PRESRR P0000 T01110067=
201602281916 SPECI KBLI 281916Z 16017G34KT 10SM BKN028 BKN032 OVC055 12/06 A2976 RMK AO2 PK WND 16037/1858 PRESRR T01170061=
201602281853 METAR KBLI 281853Z 15022G36KT 10SM SCT033 BKN042 BKN050 12/06 A2973 RMK AO2 PK WND 17039/1838 SLP073 T01170056=
201602281753 METAR KBLI 281753Z 13024G33KT 10SM BKN041 BKN049 OVC090 10/05 A2971 RMK AO2 PK WND 14034/1733 SLP068 P0001 60004 T01000050 10106 20072 58012=
201602281653 METAR KBLI 281653Z 15018G25KT 10SM BKN048 OVC065 11/04 A2973 RMK AO2 RAE19 SLP074 P0000 T01060044=
201602281553 METAR KBLI 281553Z 01005KT 10SM -RA OVC050 08/06 A2974 RMK AO2 SLP079 P0000 T00780056=
201602281453 METAR KBLI 281453Z 05006KT 10SM -RA BKN060 OVC075 09/05 A2975 RMK AO2 RAB06 SLP079 P0001 60003 T00890050 56043=
201602281353 METAR KBLI 281353Z AUTO 07006KT 10SM OVC060 09/06 A2978 RMK AO2 RAB04E42 SLP092 P0000 T00890056=
201602281253 METAR KBLI 281253Z AUTO 08006KT 10SM SCT055 OVC075 09/06 A2983 RMK AO2 RAE38 SLP110 P0002 T00890056=
201602281153 METAR KBLI 281153Z AUTO 02005KT 10SM -RA BKN050 OVC065 08/06 A2987 RMK AO2 RAE00B42 SLP124 P0001 60001 70004 T00780056 10106 20072 58038=
201602281053 METAR KBLI 281053Z AUTO 01007KT 10SM -RA OVC060 07/06 A2992 RMK AO2 RAB42 SLP139 P0000 T00720056=
201602280953 METAR KBLI 280953Z AUTO 00000KT 10SM BKN070 OVC080 07/06 A2996 RMK AO2 SLP154 T00720061=
201602280853 METAR KBLI 280853Z AUTO 00000KT 10SM BKN110 09/06 A2999 RMK AO2 SLP163 T00890056 56021=
201602280753 METAR KBLI 280753Z AUTO 12006KT 10SM FEW120 09/06 A3001 RMK AO2 SLP168 T00940056 401170078=
201602280653 METAR KBLI 280653Z AUTO 08004KT 10SM CLR 09/06 A3002 RMK AO2 SLP175 T00890056=
201602280553 METAR KBLI 280553Z 11005KT 10SM CLR 09/06 A3005 RMK AO2 SLP184 60002 T00940056 10117 20083 56009=
201602280453 METAR KBLI 280453Z 00000KT 7SM FEW036 09/08 A3005 RMK AO2 SLP184 T00890078=
201602280434 SPECI KBLI 280434Z 09003KT 8SM FEW025 SCT029 BKN036 09/08 A3005 RMK AO2 T00940083=
201602280427 SPECI KBLI 280427Z 08003KT 8SM BKN025 BKN030 OVC065 10/08 A3005 RMK AO2 T01000083=
201602280420 SPECI KBLI 280420Z 07003KT 9SM SCT025 BKN030 BKN039 09/08 A3006 RMK AO2 T00940083=
201602280353 METAR KBLI 280353Z 06003KT 10SM BKN025 OVC033 10/09 A3007 RMK AO2 RAB27E47 SLP189 P0002 T01000089=
201602280345 SPECI KBLI 280345Z 07003KT 10SM -RA BKN025 BKN031 OVC050 10/08 A3006 RMK AO2 RAB27 P0002 T01000083=
201602280253 METAR KBLI 280253Z 05004KT 10SM SCT024 OVC070 11/08 A3008 RMK AO2 SLP193 60000 T01060083 56012=
201602280153 METAR KBLI 280153Z 03003KT 10SM OVC060 11/08 A3009 RMK AO2 SLP196 T01060083=
201602280053 METAR KBLI 280053Z 00000KT 10SM OVC060 12/08 A3010 RMK AO2 RAB05E22 SLP199 P0000 T01170083=
201602272353 METAR KBLI 272353Z 20004KT 10SM FEW039 OVC060 11/08 A3011 RMK AO2 SLP204 T01110083 10117 20089 56006=
201602272253 METAR KBLI 272253Z 17004KT 10SM FEW009 SCT019 BKN046 11/08 A3011 RMK AO2 SLP205 T01110083=
201602272215 SPECI KBLI 272215Z 14006KT 10SM FEW009 SCT019 BKN046 11/08 A3011 RMK AO2 T01110078=
201602272153 METAR KBLI 272153Z 17005KT 10SM SCT009 BKN019 OVC050 10/08 A3012 RMK AO2 SLP207 T01000078=
201602272054 SPECI KBLI 272054Z 20003KT 10SM SCT007 BKN019 OVC050 10/08 A3013 RMK AO2 T01000083=
201602272053 METAR KBLI 272053Z 21004KT 10SM BKN007 OVC019 10/08 A3013 RMK AO2 SLP211 T01000083 51011=
201602271953 METAR KBLI 271953Z 15004KT 7SM BKN006 OVC017 10/08 A3012 RMK AO2 SLP207 T01000083=
201602271853 METAR KBLI 271853Z 18003KT 7SM BKN006 OVC010 09/08 A3011 RMK AO2 SLP206 T00890083=
201602271753 METAR KBLI 271753Z 18003KT 5SM BR BKN004 OVC014 09/08 A3010 RMK AO2 RAB1657E32 SLP200 P0000 60001 T00890078 10089 20078 51022=
201602271653 METAR KBLI 271653Z 00000KT 2SM BR OVC003 08/08 A3008 RMK AO2 RAB26E41 SLP193 P0001 T00830078=
201602271555 SPECI KBLI 271555Z 00000KT 1SM R16/3500V5500FT BR BKN002 OVC005 08/08 A3006 RMK AO2 T00830078=
201602271553 METAR KBLI 271553Z 00000KT 3/4SM R16/3500V6000FT BR BKN002 OVC017 08/08 A3006 RMK AO2 RAB35E49 SLP187 P0000 T00830078=
201602271536 SPECI KBLI 271536Z 00000KT 1SM R16/P6000FT -RA BR SCT002 OVC018 08/07 A3006 RMK AO2 RAB35 P0000 T00780072=
201602271529 SPECI KBLI 271529Z 21003KT 3SM BR FEW002 OVC018 08/07 A3005 RMK AO2 T00780072=
201602271525 SPECI KBLI 271525Z VRB03KT 2 1/2SM BR FEW002 OVC018 08/07 A3005 RMK AO2 T00780072=
201602271453 METAR KBLI 271453Z 16003KT 4SM BR OVC017 08/07 A3003 RMK AO2 RAB02E12 SLP178 P0000 60000 T00780072 51009=
201602271448 SPECI KBLI 271448Z AUTO 16004KT 4SM BR OVC017 08/07 A3003 RMK AO2 RAB02E12 P0000=
201602271406 SPECI KBLI 271406Z AUTO 00000KT 3SM -RA BR FEW005 OVC010 08/07 A3002 RMK AO2 RAB02 P0000 T00780072=
201602271353 METAR KBLI 271353Z AUTO 00000KT 2 1/2SM BR OVC008 08/08 A3002 RMK AO2 CIG 005V011 SLP174 T00780078=
201602271326 SPECI KBLI 271326Z AUTO 00000KT 5SM BR BKN008 OVC011 08/07 A3001 RMK AO2 CIG 006V010 T00830072=
201602271253 METAR KBLI 271253Z AUTO 00000KT 5SM BR OVC010 08/07 A3001 RMK AO2 SLP169 T00830072=
201602271232 SPECI KBLI 271232Z AUTO 00000KT 3SM BR FEW003 BKN010 OVC016 08/07 A3000 RMK AO2 CIG 008V012 T00830072=
201602271224 SPECI KBLI 271224Z AUTO 00000KT 2 1/2SM BR SCT003 BKN010 OVC023 08/08 A3000 RMK AO2 T00830078=
201602271153 METAR KBLI 271153Z AUTO 00000KT 3SM BR OVC004 08/08 A2998 RMK AO2 SLP162 60002 70012 T00830078 10083 20078 53008=
201602271134 SPECI KBLI 271134Z AUTO 00000KT 3SM BR BKN005 OVC009 08/08 A2998 RMK AO2 CIG 002V006 T00830078=
201602271124 SPECI KBLI 271124Z AUTO 00000KT 3SM BR BKN002 OVC009 08/08 A2998 RMK AO2 T00830078=
201602271109 SPECI KBLI 271109Z AUTO 00000KT 2 1/2SM BR OVC003 08/08 A2998 RMK AO2 T00830078=
201602271053 METAR KBLI 271053Z AUTO 00000KT 4SM BR OVC003 08/08 A2997 RMK AO2 SLP157 T00830078=
201602271019 SPECI KBLI 271019Z AUTO 00000KT 4SM BR OVC004 08/07 A2997 RMK AO2 T00830072=
201602271002 SPECI KBLI 271002Z AUTO 00000KT 3SM BR OVC005 08/08 A2997 RMK AO2 T00830078=
201602270953 METAR KBLI 270953Z AUTO 28003KT 2 1/2SM BR BKN005 OVC009 08/07 A2997 RMK AO2 RAB06E21 SLP155 P0000 T00780067=
201602270939 SPECI KBLI 270939Z AUTO 00000KT 2SM BR BKN007 OVC043 08/07 A2996 RMK AO2 RAB06E21 CIG 005V012 P0000 T00780072=
201602270853 METAR KBLI 270853Z AUTO 00000KT 4SM BR OVC009 08/08 A2996 RMK AO2 RAE40 SLP153 P0001 60002 T00830078 51004=
201602270849 SPECI KBLI 270849Z AUTO 00000KT 4SM BR BKN009 OVC018 08/08 A2996 RMK AO2 RAE40 P0001=
201602270841 SPECI KBLI 270841Z AUTO 00000KT 4SM BR BKN010 OVC018 08/08 A2996 RMK AO2 RAE40 P0001 T00830078=
201602270753 METAR KBLI 270753Z AUTO 00000KT 5SM -RA BR FEW010 BKN020 OVC046 08/08 A2995 RMK AO2 RAB10 SLP148 P0001 T00830078 401390017=
201602270751 SPECI KBLI 270751Z AUTO 00000KT 5SM -RA BR FEW010 BKN020 OVC046 08/08 A2995 RMK AO2 RAB10 P0001=
201602270741 SPECI KBLI 270741Z AUTO 00000KT 4SM -RA BR SCT010 BKN042 OVC049 08/08 A2995 RMK AO2 RAB10 P0001 T00830078=
201602270733 SPECI KBLI 270733Z AUTO 00000KT 4SM -RA BR BKN010 BKN034 OVC044 08/08 A2995 RMK AO2 RAB10 P0001 T00830078=
201602270653 METAR KBLI 270653Z AUTO 09003KT 7SM FEW020 FEW029 OVC037 08/08 A2994 RMK AO2 RAE00 SLP146 P0000 T00830078=
201602270631 SPECI KBLI 270631Z AUTO 00000KT 6SM BR FEW017 SCT028 OVC038 08/08 A2994 RMK AO2 RAE00 P0000 T00830078=
201602270553 METAR KBLI 270553Z 00000KT 9SM -RA SCT017 BKN026 OVC041 08/08 A2994 RMK AO2 SLP148 P0001 60010 T00830078 10111 20083 50002=
201602270503 SPECI KBLI 270503Z 00000KT 8SM -RA OVC015 08/08 A2994 RMK AO2 P0000 T00830078=
201602270453 METAR KBLI 270453Z 00000KT 8SM -RA OVC014 08/08 A2995 RMK AO2 SLP148 P0002 T00830078=
201602270439 SPECI KBLI 270439Z 00000KT 6SM -RA BR BKN014 BKN042 OVC050 08/07 A2994 RMK AO2 P0002 T00830072=
201602270353 METAR KBLI 270353Z 00000KT 8SM -RA FEW016 BKN037 OVC045 08/07 A2994 RMK AO2 SLP147 P0004 T00830072=
201602270253 METAR KBLI 270253Z 00000KT 10SM -RA BKN038 OVC047 08/07 A2994 RMK AO2 SLP147 P0003 60003 T00830072 53010=
201602270153 METAR KBLI 270153Z 28003KT 10SM -RA OVC055 09/07 A2992 RMK AO2 RAB27 SLP140 P0000 T00890067=
201602270053 METAR KBLI 270053Z 27003KT 10SM OVC080 11/05 A2991 RMK AO2 SLP136 T01060050=
201602262353 METAR KBLI 262353Z 00000KT 10SM OVC100 11/05 A2991 RMK AO2 SLP136 T01060050 10139 20094 55011=
201602262253 METAR KBLI 262253Z 15006KT 10SM FEW120 12/04 A2990 RMK AO2 SLP134 T01170044=
201602262153 METAR KBLI 262153Z 20003KT 10SM CLR 13/04 A2993 RMK AO2 SLP141 T01280039=
201602262053 METAR KBLI 262053Z 19003KT 10SM FEW120 14/04 A2994 RMK AO2 SLP147 T01390044 58009=
201602261953 METAR KBLI 261953Z 00000KT 10SM CLR 13/04 A2997 RMK AO2 SLP155 T01330044=
201602261853 METAR KBLI 261853Z 34004KT 10SM CLR 12/04 A2997 RMK AO2 SLP157 T01170044=
201602261753 METAR KBLI 261753Z 02003KT 10SM CLR 09/05 A2997 RMK AO2 SLP156 T00940050 10100 20017 56010=
201602261653 METAR KBLI 261653Z 03003KT 10SM CLR 06/04 A2998 RMK AO2 SLP159 T00610039=
201602261553 METAR KBLI 261553Z 00000KT 10SM CLR 03/02 A2998 RMK AO2 SLP162 T00330022=
201602261453 METAR KBLI 261453Z 00000KT 10SM CLR 02/02 A3000 RMK AO2 SLP167 T00220017 56015=
201602261353 METAR KBLI 261353Z AUTO 00000KT 10SM CLR 03/03 A3001 RMK AO2 SLP171 T00330028=
201602261253 METAR KBLI 261253Z AUTO 00000KT 10SM CLR 03/02 A3003 RMK AO2 SLP175 T00280022=
201602261153 METAR KBLI 261153Z AUTO 00000KT 10SM CLR 03/02 A3004 RMK AO2 SLP181 T00330022 10050 20028 56012=
201602261053 METAR KBLI 261053Z AUTO 00000KT 10SM CLR 04/03 A3004 RMK AO2 SLP181 T00390033=
201602260953 METAR KBLI 260953Z AUTO 33003KT 10SM CLR 04/03 A3007 RMK AO2 SLP191 T00390028=
201602260853 METAR KBLI 260853Z AUTO 35003KT 10SM CLR 03/02 A3008 RMK AO2 SLP193 T00330022 58003=
201602260753 METAR KBLI 260753Z AUTO 00000KT 10SM CLR 04/03 A3008 RMK AO2 SLP195 T00390028 401560022=
201602260653 METAR KBLI 260653Z AUTO 00000KT 10SM CLR 04/02 A3009 RMK AO2 SLP197 T00390022=
201602260553 METAR KBLI 260553Z 00000KT 10SM CLR 04/03 A3009 RMK AO2 SLP196 T00440033 10150 20039 56007=
201602260453 METAR KBLI 260453Z 00000KT 10SM CLR 06/04 A3009 RMK AO2 SLP197 T00610039=
201602260353 METAR KBLI 260353Z 00000KT 10SM CLR 06/04 A3009 RMK AO2 SLP199 T00560039=
201602260253 METAR KBLI 260253Z 00000KT 10SM CLR 07/04 A3011 RMK AO2 SLP205 T00670044 56009=
201602260153 METAR KBLI 260153Z 25005KT 10SM CLR 09/05 A3012 RMK AO2 SLP206 T00940050=
201602260053 METAR KBLI 260053Z 30004KT 10SM CLR 13/06 A3012 RMK AO2 SLP206 T01330061=
201602252353 METAR KBLI 252353Z 35005KT 10SM CLR 15/04 A3014 RMK AO2 SLP212 T01500039 10156 20083 56023=
201602252253 METAR KBLI 252253Z 36008KT 10SM CLR 15/04 A3015 RMK AO2 SLP218 T01500039=
201602252153 METAR KBLI 252153Z VRB05KT 10SM CLR 15/03 A3018 RMK AO2 SLP227 T01500033=
201602252053 METAR KBLI 252053Z 36005KT 10SM CLR 14/04 A3020 RMK AO2 SLP236 T01390044 58013=
201602251953 METAR KBLI 251953Z 34005KT 10SM CLR 12/04 A3023 RMK AO2 SLP244 T01220044=
201602251853 METAR KBLI 251853Z 02005KT 10SM CLR 11/04 A3023 RMK AO2 SLP245 T01110039=
201602251753 METAR KBLI 251753Z VRB03KT 10SM CLR 08/03 A3024 RMK AO2 SLP249 T00830033 10083 20028 50000=
201602251653 METAR KBLI 251653Z 01003KT 10SM CLR 07/03 A3025 RMK AO2 SLP250 T00670028=
201602251553 METAR KBLI 251553Z 02004KT 10SM SCT055 05/02 A3024 RMK AO2 SLP250 T00500022=
201602251453 METAR KBLI 251453Z 00000KT 10SM BKN050 03/02 A3024 RMK AO2 SLP250 T00330022 53000=
201602251353 METAR KBLI 251353Z AUTO 00000KT 10SM OVC050 05/03 A3024 RMK AO2 SLP250 T00500028=
201602251253 METAR KBLI 251253Z AUTO 33003KT 10SM BKN048 04/02 A3023 RMK AO2 SLP247 T00440022=
201602251153 METAR KBLI 251153Z AUTO 35004KT 10SM OVC043 05/03 A3024 RMK AO2 SLP247 T00500028 10050 20022 58002=
201602251053 METAR KBLI 251053Z AUTO 36004KT 10SM OVC045 04/02 A3024 RMK AO2 SLP250 T00390022=
201602250953 METAR KBLI 250953Z AUTO 36004KT 10SM BKN048 04/02 A3025 RMK AO2 SLP252 T00440022=
201602250853 METAR KBLI 250853Z AUTO 00000KT 10SM CLR 04/02 A3024 RMK AO2 SLP250 T00390022 51007=
201602250753 METAR KBLI 250753Z AUTO 00000KT 10SM CLR 04/03 A3024 RMK AO2 SLP249 T00440028 401500033=
201602250653 METAR KBLI 250653Z AUTO 00000KT 10SM FEW070 04/02 A3025 RMK AO2 SLP251 T00390022=
201602250553 METAR KBLI 250553Z 00000KT 10SM CLR 05/03 A3022 RMK AO2 SLP243 T00500028 10150 20044 55004=
201602250453 METAR KBLI 250453Z 00000KT 10SM CLR 06/03 A3022 RMK AO2 SLP242 T00560028=
201602250353 METAR KBLI 250353Z 00000KT 10SM CLR 06/03 A3023 RMK AO2 SLP246 T00610033=
201602250253 METAR KBLI 250253Z 00000KT 10SM SCT090 08/03 A3024 RMK AO2 SLP247 T00780033 53011=
201602250153 METAR KBLI 250153Z 24004KT 10SM SCT080 BKN095 10/04 A3023 RMK AO2 SLP243 T01000039=
201602250053 METAR KBLI 250053Z 30003KT 10SM OVC095 12/03 A3021 RMK AO2 SLP239 T01220028=
201602242353 METAR KBLI 242353Z 00000KT 10SM FEW065 OVC095 15/02 A3020 RMK AO2 SLP235 T01500017 10150 20083 55001=
201602242253 METAR KBLI 242253Z 30004KT 10SM CLR 14/01 A3020 RMK AO2 SLP235 T01390006=
201602242153 METAR KBLI 242153Z 36004KT 10SM BKN090 14/02 A3020 RMK AO2 SLP232 T01390022=
201602242053 METAR KBLI 242053Z 30003KT 10SM SCT100 13/02 A3021 RMK AO2 SLP236 T01280017 58005=
201602241953 METAR KBLI 241953Z 36003KT 10SM OVC100 12/03 A3021 RMK AO2 SLP239 T01220028=
201602241853 METAR KBLI 241853Z 00000KT 10SM OVC110 09/02 A3022 RMK AO2 SLP240 T00940022=
201602241753 METAR KBLI 241753Z 35003KT 10SM OVC100 08/02 A3022 RMK AO2 SLP242 T00830022 10083 20039 53015=
201602241653 METAR KBLI 241653Z 04003KT 10SM OVC100 07/02 A3021 RMK AO2 SLP237 T00670017=
201602241553 METAR KBLI 241553Z 00000KT 10SM OVC110 05/01 A3019 RMK AO2 SLP232 T00500011=
201602241453 METAR KBLI 241453Z 00000KT 10SM OVC110 04/01 A3018 RMK AO2 SLP227 T00440011 53012=
201602241353 METAR KBLI 241353Z 00000KT 10SM OVC110 04/02 A3016 RMK AO2 SLP221 T00440017=
201602241253 METAR KBLI 241253Z 00000KT 10SM CLR 04/01 A3014 RMK AO2 SLP214 T00440011=
201602241153 METAR KBLI 241153Z 36003KT 10SM CLR 04/00 A3014 RMK AO2 SLP214 T00440000 10061 20033 52003=
201602241053 METAR KBLI 241053Z 00000KT 10SM CLR 04/00 A3014 RMK AO2 SLP214 T00440000=
201602240953 METAR KBLI 240953Z 33004KT 10SM SCT110 06/01 A3013 RMK AO2 SLP212 T00610006=
201602240853 METAR KBLI 240853Z 02004KT 10SM BKN095 BKN120 06/01 A3013 RMK AO2 SLP212 T00610011 58000=
201602240753 METAR KBLI 240753Z 00000KT 10SM CLR 04/01 A3013 RMK AO2 SLP213 T00390011 401281011=
201602240653 METAR KBLI 240653Z 00000KT 10SM CLR 04/01 A3014 RMK AO2 SLP213 T00440006=
201602240553 METAR KBLI 240553Z 32003KT 10SM CLR 04/01 A3013 RMK AO2 SLP212 T00440011 10117 20039 53009=
201602240453 METAR KBLI 240453Z 00000KT 10SM CLR 05/01 A3011 RMK AO2 SLP206 T00500011=
201602240353 METAR KBLI 240353Z 02005KT 10SM CLR 06/01 A3009 RMK AO2 SLP199 T00610006=
201602240253 METAR KBLI 240253Z 36003KT 10SM CLR 08/00 A3011 RMK AO2 SLP204 T00780000 53002=
201602240153 METAR KBLI 240153Z 01004KT 10SM CLR 09/00 A3010 RMK AO2 SLP201 T00940000=
201602240053 METAR KBLI 240053Z 01007KT 10SM CLR 11/01 A3010 RMK AO2 SLP200 T01060006=
201602232353 METAR KBLI 232353Z 02007KT 10SM CLR 12/00 A3010 RMK AO2 SLP201 T01170000 10128 20072 56022=
201602232253 METAR KBLI 232253Z 02010KT 10SM CLR 12/01 A3012 RMK AO2 SLP206 T01220006=
201602232153 METAR KBLI 232153Z 03012KT 10SM CLR 12/00 A3013 RMK AO2 SLP211 T01170000=
201602232053 METAR KBLI 232053Z 02012KT 10SM CLR 11/01 A3017 RMK AO2 SLP223 T01110006 58037=
201602231953 METAR KBLI 231953Z 02010KT 10SM CLR 11/01 A3021 RMK AO2 SLP237 T01060011=
201602231853 METAR KBLI 231853Z 01009KT 10SM CLR 09/01 A3025 RMK AO2 SLP253 T00890011=
201602231753 METAR KBLI 231753Z 03009KT 10SM CLR 07/01 A3028 RMK AO2 SLP261 T00720006 10072 21011 58013=
201602231653 METAR KBLI 231653Z 02007KT 10SM CLR 04/00 A3029 RMK AO2 SLP266 T00390000=
201602231553 METAR KBLI 231553Z 01003KT 10SM CLR 01/M01 A3031 RMK AO2 SLP272 T00111011=
201602231453 METAR KBLI 231453Z 00000KT 10SM CLR M01/M02 A3031 RMK AO2 SLP274 T10111022 56011=
201602231353 METAR KBLI 231353Z 00000KT 10SM CLR 01/M01 A3032 RMK AO2 SLP278 T00061011=
201602231253 METAR KBLI 231253Z 02006KT 10SM CLR 00/M01 A3032 RMK AO2 SLP278 T00001011=
201602231153 METAR KBLI 231153Z 02003KT 10SM CLR 01/00 A3035 RMK AO2 SLP286 I6001 T00110000 10022 20000 58009=
201602231053 METAR KBLI 231053Z 36006KT 10SM CLR 01/00 A3036 RMK AO2 SLP291 I1001 T00110000=
201602230953 METAR KBLI 230953Z 36004KT 10SM CLR 02/01 A3037 RMK AO2 SLP294 T00170006=
201602230853 METAR KBLI 230853Z 03005KT 9SM CLR 01/00 A3037 RMK AO2 SLP294 T00110000 56017=
201602230753 METAR KBLI 230753Z 36003KT 10SM CLR 01/00 A3039 RMK AO2 SLP299 T00110000 401000000=
201602230653 METAR KBLI 230653Z 33003KT 10SM CLR 01/M01 A3040 RMK AO2 SLP304 T00061006=
201602230553 METAR KBLI 230553Z 00000KT 10SM CLR 02/01 A3042 RMK AO2 SLP311 T00170006 10100 20017 58002=
201602230453 METAR KBLI 230453Z 00000KT 10SM CLR 02/01 A3043 RMK AO2 SLP314 T00220011=
201602230353 METAR KBLI 230353Z 00000KT 10SM CLR 03/02 A3043 RMK AO2 SLP312 T00330017=
201602230253 METAR KBLI 230253Z 00000KT 10SM CLR 04/02 A3043 RMK AO2 SLP313 T00390022 53004=
201602230153 METAR KBLI 230153Z 00000KT 10SM CLR 06/03 A3042 RMK AO2 SLP310 T00560028=
201602230053 METAR KBLI 230053Z VRB03KT 10SM CLR 09/02 A3042 RMK AO2 SLP310 T00890022=
201602222353 METAR KBLI 222353Z 16003KT 10SM SCT060 09/03 A3042 RMK AO2 SLP309 T00940028 10100 20067 50002=
201602222253 METAR KBLI 222253Z 15004KT 10SM CLR 09/03 A3042 RMK AO2 SLP310 T00890033=
201602222153 METAR KBLI 222153Z 17007KT 10SM BKN031 09/03 A3042 RMK AO2 SLP309 T00890033=
201602222053 METAR KBLI 222053Z 17009KT 10SM CLR 09/04 A3041 RMK AO2 SLP306 T00890044 51002=
201602221953 METAR KBLI 221953Z 00000KT 10SM FEW011 SCT020 08/04 A3041 RMK AO2 SLP306 T00830044=
201602221853 METAR KBLI 221853Z 00000KT 10SM FEW037 OVC055 08/05 A3043 RMK AO2 SLP311 T00780050=
201602221754 SPECI KBLI 221754Z 01005KT 10SM SCT017 07/05 A3040 RMK AO2 T00720050=
201602221753 METAR KBLI 221753Z 01005KT 10SM BKN017 07/05 A3040 RMK AO2 SLP304 60000 T00720050 10083 20039 53015=
201602221653 METAR KBLI 221653Z 00000KT 10SM FEW024 OVC060 07/06 A3039 RMK AO2 SLP299 T00720056=
201602221553 METAR KBLI 221553Z 00000KT 10SM FEW023 04/04 A3037 RMK AO2 SLP292 T00440039=
201602221500 SPECI KBLI 221500Z 07003KT 9SM FEW022 05/04 A3036 RMK AO2 T00500039=
201602221453 METAR KBLI 221453Z 06003KT 9SM BKN022 05/04 A3036 RMK AO2 RAE11 SLP289 P0000 60000 T00500039 51005=
201602221353 METAR KBLI 221353Z 00000KT 10SM -RA BKN022 BKN040 OVC060 07/04 A3036 RMK AO2 RAB1256E11B30 SLP288 P0000 T00720044=
201602221319 SPECI KBLI 221319Z 18005KT 10SM SCT023 OVC042 07/04 A3035 RMK AO2 RAB1256E11 P0000 T00720044=
201602221253 METAR KBLI 221253Z 00000KT 10SM SCT012 BKN022 OVC044 07/05 A3035 RMK AO2 RAB00E11 SLP284 P0000 T00670050=
201602221153 METAR KBLI 221153Z 16003KT 10SM SCT035 SCT043 OVC050 06/05 A3034 RMK AO2 RAE27 SLP284 P0001 60002 70004 T00610050 10083 20061 50002=
201602221128 SPECI KBLI 221128Z 00000KT 10SM FEW019 BKN033 OVC040 07/05 A3035 RMK AO2 RAE27 P0001 T00670050=
201602221114 SPECI KBLI 221114Z VRB03KT 10SM -RA FEW020 BKN027 OVC060 07/05 A3035 RMK AO2 P0001 T00670050=
201602221053 METAR KBLI 221053Z 25003KT 9SM -RA BKN030 BKN040 OVC070 07/04 A3035 RMK AO2 RAB27 SLP286 P0001 T00670044=
201602220953 METAR KBLI 220953Z 15006KT 10SM CLR 07/04 A3034 RMK AO2 SLP283 T00720044=
201602220853 METAR KBLI 220853Z 17005KT 10SM FEW040 OVC065 07/04 A3034 RMK AO2 SLP282 T00720044 51014=
201602220753 METAR KBLI 220753Z 17005KT 10SM SCT070 OVC090 08/04 A3033 RMK AO2 SLP277 T00780039 400890006=
201602220653 METAR KBLI 220653Z 16005KT 10SM BKN070 08/04 A3031 RMK AO2 SLP273 T00780044=
201602220553 METAR KBLI 220553Z 17008KT 10SM FEW120 08/04 A3030 RMK AO2 SLP268 T00830044 10089 20078 51017=
201602220453 METAR KBLI 220453Z 16006KT 10SM SCT070 08/05 A3029 RMK AO2 SLP265 T00780050=
201602220353 METAR KBLI 220353Z 18006KT 10SM FEW028 BKN037 OVC080 08/04 A3027 RMK AO2 SLP258 T00830039=
201602220253 METAR KBLI 220253Z 17008KT 10SM BKN033 BKN045 08/04 A3025 RMK AO2 SLP251 T00830039 51023=
201602220211 SPECI KBLI 220211Z 16010KT 10SM SCT027 08/04 A3024 RMK AO2 T00830039=
201602220153 METAR KBLI 220153Z 16010G18KT 10SM OVC027 08/04 A3023 RMK AO2 SLP247 T00830044=
201602220120 SPECI KBLI 220120Z 16013G17KT 10SM BKN026 OVC034 08/04 A3023 RMK AO2 T00830039=
201602220053 METAR KBLI 220053Z 16013G20KT 10SM BKN030 BKN043 OVC065 08/04 A3021 RMK AO2 SLP240 T00830044=
201602212353 METAR KBLI 212353Z 16015G24KT 10SM FEW065 BKN090 BKN110 08/04 A3018 RMK AO2 PK WND 16028/2305 RAB01E34 SLP228 P0000 60002 T00780044 10083 20056 51023=
201602212325 SPECI KBLI 212325Z 16017G26KT 10SM -RA SCT023 BKN065 OVC080 08/04 A3018 RMK AO2 PK WND 16028/2305 RAB01 P0000 T00780044=
201602212253 METAR KBLI 212253Z 16017G26KT 10SM BKN023 OVC030 08/04 A3017 RMK AO2 PK WND 16033/2232 RAE30 PRESRR SLP227 P0001 T00780039=
201602212232 SPECI KBLI 212232Z 16019G33KT 10SM OVC028 08/03 A3015 RMK AO2 PK WND 16033/2232 RAE30 P0001 T00830033=
201602212153 METAR KBLI 212153Z 16013G25KT 10SM -RA OVC038 07/03 A3015 RMK AO2 PK WND 15026/2143 RAB27 SLP217 P0001 T00720033=
201602212053 METAR KBLI 212053Z 22004KT 10SM OVC110 07/01 A3011 RMK AO2 RAB1957E08 PRESRR SLP205 P0000 60000 T00720011 50005=
201602211953 METAR KBLI 211953Z 21004KT 10SM FEW055 SCT070 OVC095 07/00 A3013 RMK AO2 SLP211 T00670000=
201602211853 METAR KBLI 211853Z VRB03KT 10SM CLR 08/01 A3009 RMK AO2 SLP199 T00780006=
201602211753 METAR KBLI 211753Z 01007KT 10SM CLR 06/01 A3009 RMK AO2 SLP200 T00560006 10056 20006 56011=
201602211653 METAR KBLI 211653Z 02008KT 10SM CLR 05/M01 A3010 RMK AO2 SLP201 T00501006=
201602211553 METAR KBLI 211553Z 02008KT 10SM CLR 03/M01 A3011 RMK AO2 SLP205 T00331011=
201602211453 METAR KBLI 211453Z 01006KT 10SM CLR 02/M02 A3013 RMK AO2 SLP211 T00171017 58015=
201602211353 METAR KBLI 211353Z AUTO 05003KT 10SM CLR 01/M02 A3015 RMK AO2 SLP218 T00111017=
201602211253 METAR KBLI 211253Z AUTO 01006KT 10SM CLR 01/M01 A3016 RMK AO2 SLP222 T00111011=
201602211153 METAR KBLI 211153Z AUTO 03004KT 10SM CLR 02/M01 A3017 RMK AO2 SLP225 70004 T00221006 10039 20011 58022=
201602211053 METAR KBLI 211053Z AUTO 03004KT 10SM CLR 03/M01 A3020 RMK AO2 SLP235 T00281006=
201602210953 METAR KBLI 210953Z AUTO 03006KT 10SM CLR 02/01 A3021 RMK AO2 SLP240 T00220006=
201602210853 METAR KBLI 210853Z AUTO 01004KT 10SM CLR 03/01 A3024 RMK AO2 SLP248 T00280011 56021=
201602210753 METAR KBLI 210753Z AUTO 02004KT 10SM CLR 03/02 A3024 RMK AO2 SLP251 T00280017 400940028=
201602210653 METAR KBLI 210653Z AUTO 02006KT 10SM FEW120 03/02 A3027 RMK AO2 SLP260 T00330017=
201602210553 METAR KBLI 210553Z 02006KT 10SM CLR 03/02 A3030 RMK AO2 SLP269 T00330017 10094 20028 57016=
201602210453 METAR KBLI 210453Z 01005KT 10SM CLR 04/02 A3031 RMK AO2 SLP274 T00390017=
201602210353 METAR KBLI 210353Z 36004KT 10SM CLR 06/02 A3033 RMK AO2 SLP278 T00560017=
201602210253 METAR KBLI 210253Z 04003KT 10SM CLR 06/02 A3034 RMK AO2 SLP283 T00560017 56009=
201602210153 METAR KBLI 210153Z 03003KT 10SM FEW055 06/02 A3035 RMK AO2 SLP287 T00560022=
201602210053 METAR KBLI 210053Z 00000KT 10SM FEW050 08/03 A3036 RMK AO2 SLP290 T00830028=
201602202353 METAR KBLI 202353Z VRB03KT 10SM SCT029 09/02 A3037 RMK AO2 SLP293 60000 T00940022 10094 20067 55003=
201602202253 METAR KBLI 202253Z 18007KT 10SM CLR 09/03 A3037 RMK AO2 SLP292 T00890028=
201602202153 METAR KBLI 202153Z 18009KT 160V230 10SM FEW030 09/03 A3037 RMK AO2 SLP293 T00890028=
201602202053 METAR KBLI 202053Z 19008G16KT 10SM FEW070 08/03 A3038 RMK AO2 SLP295 60000 T00830028 51004=
201602201953 METAR KBLI 201953Z 17008G16KT 10SM SCT070 08/03 A3038 RMK AO2 SLP295 T00830028=
201602201853 METAR KBLI 201853Z 17010KT 10SM SCT065 BKN095 08/03 A3037 RMK AO2 RAE05 SLP294 P0000 T00780033=
201602201753 METAR KBLI 201753Z 16010KT 10SM -RA BKN046 OVC060 07/03 A3037 RMK AO2 RAE08B48 SLP291 P0000 60004 T00670028 10067 20056 51026=
201602201653 METAR KBLI 201653Z 17010G21KT 10SM -RA FEW031 BKN050 OVC090 06/03 A3035 RMK AO2 RAB34 SLP284 P0000 T00610028=
201602201553 METAR KBLI 201553Z 16010G17KT 10SM SCT027 BKN042 OVC060 06/03 A3032 RMK AO2 RAB20E39 SLP274 P0000 T00610028=
201602201453 METAR KBLI 201453Z 15010KT 10SM SCT028 OVC041 06/03 A3029 RMK AO2 RAE30 SLP265 P0000 60004 T00610028 51030=
201602201440 SPECI KBLI 201440Z 16008KT 10SM SCT028 OVC039 06/04 A3028 RMK AO2 RAE30 P0000 T00560039=
201602201353 METAR KBLI 201353Z AUTO 17007KT 10SM -RA OVC028 06/03 A3026 RMK AO2 SLP255 P0003 T00560033=
201602201333 SPECI KBLI 201333Z AUTO 16009KT 10SM -RA OVC028 06/03 A3025 RMK AO2 P0001 T00560033=
201602201253 METAR KBLI 201253Z AUTO 16010KT 10SM -RA SCT030 BKN035 OVC042 06/03 A3023 RMK AO2 SLP246 P0001 T00560033=
201602201153 METAR KBLI 201153Z AUTO 14012KT 10SM -RA FEW025 OVC039 06/03 A3020 RMK AO2 RAE01B37 SLP235 P0001 60006 70008 T00610028 10078 20056 51016=
201602201101 SPECI KBLI 201101Z AUTO 15011KT 10SM FEW016 SCT021 BKN032 06/03 A3018 RMK AO2 RAE01 P0000 T00560033=
201602201053 METAR KBLI 201053Z AUTO 16013G19KT 10SM -RA FEW015 BKN020 OVC030 06/03 A3018 RMK AO2 SLP229 P0005 T00610033=
201602201014 SPECI KBLI 201014Z AUTO 15009KT 10SM -RA FEW024 OVC032 06/03 A3016 RMK AO2 P0002 T00560028=
201602201006 SPECI KBLI 201006Z AUTO 14011KT 10SM -RA FEW022 BKN029 OVC037 06/03 A3015 RMK AO2 P0001 T00610028=
201602200953 METAR KBLI 200953Z AUTO VRB04KT 10SM -RA FEW022 SCT030 OVC037 06/03 A3015 RMK AO2 RAB26 SLP218 P0000 T00610033=
201602200853 METAR KBLI 200853Z AUTO 17005KT 10SM SCT027 BKN039 BKN080 06/03 A3011 RMK AO2 RAE08 SLP203 P0000 60000 T00560033 51038=
201602200753 METAR KBLI 200753Z AUTO 18009KT 10SM -RA FEW034 OVC050 06/03 A3008 RMK AO2 RAB47 SLP194 P0000 T00610033 401170061=
201602200653 METAR KBLI 200653Z AUTO 18007KT 10SM SCT042 SCT049 OVC075 08/03 A3004 RMK AO2 RAB32E44 SLP180 P0000 T00780028=
201602200553 METAR KBLI 200553Z 17006KT 10SM FEW039 BKN120 08/03 A2999 RMK AO2 SLP165 60000 T00780028 10094 20078 51049=
201602200453 METAR KBLI 200453Z 17008KT 10SM OVC110 08/03 A2995 RMK AO2 SLP150 T00780033=
201602200353 METAR KBLI 200353Z 18005KT 10SM FEW055 OVC090 08/03 A2990 RMK AO2 RAE0258 SLP133 P0000 T00780033=
201602200253 METAR KBLI 200253Z 18006KT 10SM -RA FEW036 BKN050 OVC070 08/03 A2985 RMK AO2 RAE0158B27 SLP115 P0000 60000 T00830033 51052=
201602200153 METAR KBLI 200153Z 17010KT 10SM -RA FEW037 BKN060 OVC075 09/06 A2980 RMK AO2 RAE24B49 SLP097 P0000 T00890056=
201602200132 SPECI KBLI 200132Z 16012G19KT 10SM FEW021 BKN060 OVC070 08/06 A2978 RMK AO2 RAE24 P0000 T00830061=
201602200053 METAR KBLI 200053Z 16016G24KT 10SM -RA BKN027 BKN034 OVC041 09/06 A2975 RMK AO2 PK WND 15030/0005 RAB50 SLP081 P0000 T00890056=
201602192353 METAR KBLI 192353Z 15020G29KT 10SM FEW024 BKN033 OVC120 09/05 A2969 RMK AO2 PK WND 16032/2320 PRESRR SLP063 60002 T00940050 10117 20083 53043=
201602192334 SPECI KBLI 192334Z 16017G30KT 10SM SCT027 OVC110 10/05 A2967 RMK AO2 PK WND 16032/2320 PRESRR T01000050=
201602192325 SPECI KBLI 192325Z 16019G32KT 10SM BKN027 BKN090 OVC110 10/05 A2965 RMK AO2 PK WND 16032/2320 PRESRR T01000050=
201602192304 SPECI KBLI 192304Z 15018G30KT 10SM FEW024 BKN030 OVC090 10/06 A2963 RMK AO2 PK WND 15030/2301 T01000056=
201602192253 METAR KBLI 192253Z 16012G25KT 10SM BKN029 OVC037 11/06 A2962 RMK AO2 PK WND 16026/2232 RAE30 PRESRR SLP038 P0001 T01060056=
201602192153 METAR KBLI 192153Z VRB03KT 10SM -RA OVC047 09/06 A2958 RMK AO2 RAB44 SLP026 P0000 T00940061=
201602192053 METAR KBLI 192053Z 07003KT 10SM BKN050 OVC060 10/06 A2957 RMK AO2 RAB1957E18 SLP019 P0001 60001 T01000056 56017=
201602191953 METAR KBLI 191953Z 04007KT 10SM OVC070 09/06 A2957 RMK AO2 RAB08E38 SLP020 P0000 T00940056=
201602191853 METAR KBLI 191853Z 04007KT 10SM BKN046 BKN060 OVC100 09/05 A2960 RMK AO2 SLP030 T00890050=
201602191753 METAR KBLI 191753Z 03007KT 10SM BKN044 OVC060 08/05 A2962 RMK AO2 SLP036 T00830050 10089 20072 58008=
201602191653 METAR KBLI 191653Z 03006KT 10SM SCT041 BKN049 OVC060 08/05 A2963 RMK AO2 SLP040 T00780050=
201602191553 METAR KBLI 191553Z VRB04KT 10SM OVC060 09/04 A2963 RMK AO2 SLP043 T00890039=
201602191453 METAR KBLI 191453Z 10006KT 10SM SCT070 OVC085 08/04 A2964 RMK AO2 SLP044 T00830039 58009=
201602191353 METAR KBLI 191353Z AUTO 11009KT 10SM SCT037 BKN055 OVC070 09/03 A2965 RMK AO2 SLP049 T00890033=
201602191253 METAR KBLI 191253Z AUTO 13007KT 10SM BKN035 BKN043 OVC060 08/04 A2966 RMK AO2 SLP050 T00830039=
201602191153 METAR KBLI 191153Z AUTO 12013G23KT 10SM OVC080 09/04 A2967 RMK AO2 SLP053 60000 70009 T00890039 10094 20078 58004=
201602191134 SPECI KBLI 191134Z AUTO 14014G21KT 10SM FEW027 SCT060 OVC070 09/04 A2967 RMK AO2 T00890039=
201602191053 METAR KBLI 191053Z AUTO 15014G18KT 10SM OVC024 09/04 A2968 RMK AO2 SLP058 T00890044=
201602191009 SPECI KBLI 191009Z AUTO 15012KT 10SM BKN025 OVC034 09/04 A2970 RMK AO2 T00890044=
201602190953 METAR KBLI 190953Z AUTO 15012G19KT 10SM SCT025 OVC034 09/04 A2969 RMK AO2 SLP061 T00890044=
201602190931 SPECI KBLI 190931Z AUTO 15014G22KT 10SM SCT028 BKN034 09/04 A2969 RMK AO2 T00890044=
201602190853 METAR KBLI 190853Z AUTO 15017G26KT 10SM BKN025 OVC031 08/04 A2968 RMK AO2 PK WND 14027/0805 SLP058 60000 T00830044 53024=
201602190753 METAR KBLI 190753Z AUTO 15015G25KT 10SM BKN026 BKN045 OVC055 08/04 A2965 RMK AO2 RAE50 SLP049 P0000 T00830044 401110078=
201602190653 METAR KBLI 190653Z AUTO 15015G24KT 10SM -RA FEW019 OVC065 08/05 A2963 RMK AO2 PK WND 14026/0602 SLP041 P0000 T00830050=
201602190553 METAR KBLI 190553Z 15015G22KT 10SM -RA BKN055 OVC075 09/04 A2961 RMK AO2 RAB41 SLP033 P0000 60000 T00940039 10106 20094 53026=
201602190453 METAR KBLI 190453Z 14012G21KT 10SM FEW110 09/03 A2958 RMK AO2 SLP023 T00940033=
201602190353 METAR KBLI 190353Z 15009KT 10SM CLR 09/03 A2955 RMK AO2 SLP013 T00940033=
201602190253 METAR KBLI 190253Z 15008KT 10SM OVC080 09/04 A2953 RMK AO2 SLP007 T00940039 53037=
201602190153 METAR KBLI 190153Z 15012G20KT 10SM OVC085 10/03 A2949 RMK AO2 SLP994 T01000033=
201602190053 METAR KBLI 190053Z 15012G23KT 10SM FEW032 FEW080 10/03 A2945 RMK AO2 SLP980 T01000033=
201602182353 METAR KBLI 182353Z 16016G25KT 10SM OVC040 10/04 A2942 RMK AO2 SLP970 T01000039 10111 20094 53033=
201602182253 METAR KBLI 182253Z 16012G21KT 10SM BKN040 11/04 A2938 RMK AO2 PK WND 16026/2204 SLP955 T01060039=
201602182153 METAR KBLI 182153Z 16014G29KT 10SM OVC100 11/04 A2935 RMK AO2 PK WND 16029/2151 SLP945 T01060039=
201602182053 METAR KBLI 182053Z 16018G24KT 10SM FEW039 BKN070 OVC090 11/04 A2932 RMK AO2 PK WND 17033/1954 SLP936 T01060039 51012=
201602181953 METAR KBLI 181953Z 15019G30KT 10SM BKN031 11/04 A2931 RMK AO2 PK WND 14031/1913 SLP931 T01060039=
201602181853 METAR KBLI 181853Z 16014G22KT 10SM BKN031 10/04 A2931 RMK AO2 SLP931 T01000044=
201602181826 SPECI KBLI 181826Z 15014G24KT 10SM SCT029 BKN110 10/04 A2929 RMK AO2 T01000044=
201602181753 METAR KBLI 181753Z 15017G24KT 10SM OVC028 09/04 A2929 RMK AO2 PK WND 14027/1736 SLP925 60009 T00940044 10094 20083 51011=
201602181700 SPECI KBLI 181700Z 15012G20KT 10SM BKN027 BKN033 OVC090 09/04 A2928 RMK AO2 T00940044=
201602181653 METAR KBLI 181653Z 15015G21KT 10SM SCT027 OVC100 09/04 A2928 RMK AO2 SLP921 T00940044=
201602181633 SPECI KBLI 181633Z 14011G17KT 10SM SCT027 OVC100 09/05 A2927 RMK AO2 T00890050=
201602181615 SPECI KBLI 181615Z 15011KT 10SM SCT025 BKN029 OVC100 09/06 A2928 RMK AO2 T00890056=
201602181553 METAR KBLI 181553Z 15013G21KT 10SM SCT032 BKN045 09/06 A2927 RMK AO2 SLP920 T00890056=
201602181453 METAR KBLI 181453Z 15010KT 10SM OVC023 09/06 A2926 RMK AO2 RAE19 SLP914 P0001 60009 T00890056 53007=
201602181353 METAR KBLI 181353Z AUTO 16011KT 10SM -RA OVC015 08/07 A2925 RMK AO2 SLP911 P0004 T00830067=
201602181253 METAR KBLI 181253Z AUTO 16011G17KT 10SM -RA OVC018 09/06 A2924 RMK AO2 SLP907 P0004 T00890061=
201602181153 METAR KBLI 181153Z AUTO 15010KT 10SM -RA OVC023 09/06 A2923 RMK AO2 SLP907 P0001 60065 70087 T00890061 10094 20083 56005=
201602181053 METAR KBLI 181053Z AUTO 15007KT 10SM -RA BKN028 OVC036 09/06 A2923 RMK AO2 SLP906 P0003 T00890061=
201602181000 SPECI KBLI 181000Z AUTO 15008KT 10SM -RA BKN022 BKN029 OVC046 09/06 A2925 RMK AO2 P0000 T00890061=
201602180953 METAR KBLI 180953Z AUTO 15007KT 10SM -RA SCT024 BKN031 OVC045 09/07 A2925 RMK AO2 SLP910 P0002 T00890067=
201602180853 METAR KBLI 180853Z AUTO 15011G19KT 10SM -RA SCT021 BKN025 OVC044 09/07 A2925 RMK AO2 SLP911 P0015 60059 T00940067 51018=
201602180836 SPECI KBLI 180836Z AUTO 16011G23KT 10SM -RA SCT019 BKN024 OVC048 09/07 A2925 RMK AO2 P0014 T00940067=
201602180814 SPECI KBLI 180814Z AUTO 15015G23KT 5SM RA BR SCT019 BKN041 OVC048 09/07 A2926 RMK AO2 P0010 T00890072=
201602180753 METAR KBLI 180753Z AUTO 16013G18KT 8SM RA BKN018 OVC022 09/07 A2925 RMK AO2 SLP913 P0025 T00940067 401170072=
201602180734 SPECI KBLI 180734Z AUTO 18012G18KT 7SM RA SCT009 BKN016 OVC029 09/07 A2924 RMK AO2 P0019 T00940072=
201602180728 SPECI KBLI 180728Z AUTO VRB06KT 5SM RA BR BKN009 OVC015 09/08 A2924 RMK AO2 CIG 005V013 P0017 T00940078=
201602180719 SPECI KBLI 180719Z AUTO 17005KT 2 1/2SM +RA BR OVC010 09/08 A2924 RMK AO2 CIG 005V011 P0015 T00890078=
201602180712 SPECI KBLI 180712Z AUTO 20004KT 3SM RA BR FEW005 OVC010 08/08 A2923 RMK AO2 CIG 007V013 P0010 T00830078=
201602180653 METAR KBLI 180653Z AUTO 16004KT 2 1/2SM +RA BR BKN010 OVC015 08/08 A2923 RMK AO2 CIG 008V012 SLP904 P0019 T00830078=
201602180632 SPECI KBLI 180632Z AUTO VRB03KT 3SM RA BR FEW003 BKN012 OVC050 08/08 A2922 RMK AO2 P0009 T00830078=
201602180624 SPECI KBLI 180624Z AUTO 23004KT 5SM RA BR FEW014 BKN019 OVC050 08/07 A2922 RMK AO2 P0006 T00830072=
201602180553 METAR KBLI 180553Z 00000KT 6SM -RA BR OVC065 08/07 A2920 RMK AO2 RAE00B26 SLP894 P0004 60011 T00830072 10100 20078 53003=
201602180453 METAR KBLI 180453Z 18003KT 10SM -RA BKN070 OVC090 08/07 A2919 RMK AO2 RAB0358 SLP891 P0001 T00830072=
201602180353 METAR KBLI 180353Z 36009KT 10SM OVC085 09/07 A2917 RMK AO2 SLP884 T00890067=
201602180253 METAR KBLI 180253Z 36007KT 10SM BKN070 OVC085 09/07 A2919 RMK AO2 RAE06 SLP891 P0000 60006 T00940072 56029=
201602180153 METAR KBLI 180153Z 01006KT 10SM -RA BKN065 OVC080 09/07 A2921 RMK AO2 RAE32B50 SLP900 P0002 T00940072=
201602180053 METAR KBLI 180053Z 01005KT 10SM -RA OVC070 09/07 A2925 RMK AO2 SLP911 P0004 T00940072=
201602172353 METAR KBLI 172353Z 02005KT 10SM -RA OVC070 10/07 A2928 RMK AO2 RAB10 SLP921 P0001 60001 T01000072 10117 20089 56020=
201602172253 METAR KBLI 172253Z 01005KT 10SM BKN070 OVC090 11/06 A2928 RMK AO2 SLP920 T01060061=
201602172203 SPECI KBLI 172203Z 02011KT 10SM SCT085 BKN110 11/07 A2929 RMK AO2 T01110067=
201602172153 METAR KBLI 172153Z 02010G17KT 10SM BKN100 11/07 A2929 RMK AO2 SLP926 T01110067=
201602172053 METAR KBLI 172053Z 02011KT 10SM BKN080 OVC090 12/07 A2934 RMK AO2 SLP940 60000 T01170072 58024=
201602171953 METAR KBLI 171953Z 03010KT 10SM OVC085 09/06 A2938 RMK AO2 RAE01 SLP956 P0000 T00940061=
201602171853 METAR KBLI 171853Z 36007KT 10SM -RA OVC075 09/06 A2940 RMK AO2 RAB29 SLP963 P0000 T00890056=
201602171753 METAR KBLI 171753Z 02013KT 10SM BKN100 OVC120 09/05 A2941 RMK AO2 SLP966 60010 T00940050 10094 20072 56029=
201602171653 METAR KBLI 171653Z 02012KT 10SM OVC100 08/06 A2942 RMK AO2 RAE19 PRESFR SLP970 P0000 T00830056=
201602171553 METAR KBLI 171553Z 02010KT 10SM -RA OVC070 08/05 A2947 RMK AO2 SLP988 P0001 T00780050=
201602171453 METAR KBLI 171453Z 02011KT 10SM -RA BKN060 OVC070 07/06 A2949 RMK AO2 PRESFR SLP995 P0005 60009 T00720056 58037=
201602171353 METAR KBLI 171353Z 03009KT 10SM -RA BKN065 OVC085 08/05 A2955 RMK AO2 SLP015 P0001 T00780050=
201602171253 METAR KBLI 171253Z 03009KT 10SM -RA BKN065 OVC075 08/05 A2957 RMK AO2 RAB11 PRESFR SLP021 P0003 T00780050=
201602171153 METAR KBLI 171153Z 02006KT 10SM BKN070 BKN085 OVC110 09/03 A2961 RMK AO2 SLP032 T00890033 10089 20078 58029=
201602171053 METAR KBLI 171053Z 02007KT 10SM BKN120 09/03 A2964 RMK AO2 SLP045 T00890033=
201602170953 METAR KBLI 170953Z 04008KT 10SM OVC110 09/03 A2967 RMK AO2 SLP053 T00890033=
201602170853 METAR KBLI 170853Z 03009KT 10SM BKN110 09/03 A2969 RMK AO2 SLP061 T00890033 56033=
201602170753 METAR KBLI 170753Z 02008KT 10SM FEW075 SCT110 08/04 A2971 RMK AO2 SLP069 T00830044 401220050=
201602170653 METAR KBLI 170653Z 02007KT 10SM OVC075 08/06 A2975 RMK AO2 SLP081 T00830056=
201602170553 METAR KBLI 170553Z 01006KT 10SM OVC095 08/06 A2979 RMK AO2 SLP095 T00830061 10117 20078 58031=
201602170453 METAR KBLI 170453Z 04003KT 10SM BKN048 09/06 A2982 RMK AO2 SLP107 T00890061=
201602170353 METAR KBLI 170353Z 03006KT 10SM BKN120 09/06 A2986 RMK AO2 SLP120 T00940061=
201602170253 METAR KBLI 170253Z 03003KT 10SM CLR 09/07 A2988 RMK AO2 SLP127 T00940067 56018=
201602170228 SPECI KBLI 170228Z 03003KT 10SM FEW029 BKN038 09/08 A2989 RMK AO2 T00940078=
201602170153 METAR KBLI 170153Z 00000KT 10SM BKN029 OVC040 10/08 A2990 RMK AO2 SLP133 T01000078=
201602170141 SPECI KBLI 170141Z 00000KT 10SM SCT029 BKN040 OVC110 10/08 A2990 RMK AO2 T01000078=
201602170132 SPECI KBLI 170132Z 00000KT 10SM BKN029 BKN040 OVC110 10/08 A2990 RMK AO2 T01000078=
201602170053 METAR KBLI 170053Z 00000KT 10SM CLR 11/08 A2992 RMK AO2 SLP138 T01060078=
201602162353 METAR KBLI 162353Z 00000KT 10SM SCT026 12/08 A2993 RMK AO2 SLP143 T01170078 10122 20094 56022=
201602162253 METAR KBLI 162253Z 17004KT 10SM FEW028 SCT039 12/07 A2996 RMK AO2 SLP151 T01170067=
201602162153 METAR KBLI 162153Z 15006KT 10SM CLR 12/07 A2997 RMK AO2 SLP156 T01170067=
201602162053 METAR KBLI 162053Z VRB03KT 10SM OVC044 11/07 A3000 RMK AO2 SLP165 T01060072 58009=
201602161953 METAR KBLI 161953Z 19004KT 10SM OVC044 11/08 A3002 RMK AO2 SLP171 T01060078=
201602161853 METAR KBLI 161853Z 18006KT 10SM OVC042 09/08 A3003 RMK AO2 SLP174 T00940078=
201602161753 METAR KBLI 161753Z 17006KT 10SM OVC036 10/08 A3003 RMK AO2 SLP174 T01000078 10100 20050 53002=
201602161653 METAR KBLI 161653Z 17005KT 10SM OVC039 09/08 A3002 RMK AO2 SLP172 T00940078=
201602161553 METAR KBLI 161553Z 17004KT 10SM BKN050 08/07 A3002 RMK AO2 SLP174 T00830072=
201602161453 METAR KBLI 161453Z 16005KT 10SM FEW049 07/06 A3002 RMK AO2 SLP173 T00720061 53003=
201602161353 METAR KBLI 161353Z 17003KT 8SM CLR 05/05 A3001 RMK AO2 SLP171 T00500050=
201602161253 METAR KBLI 161253Z 16005KT 10SM CLR 08/07 A3001 RMK AO2 SLP170 T00830072=
201602161153 METAR KBLI 161153Z 16006KT 10SM CLR 09/07 A3001 RMK AO2 SLP170 60008 70131 T00940072 10106 20094 51014=
201602161053 METAR KBLI 161053Z 17008KT 10SM CLR 09/08 A3000 RMK AO2 SLP166 T00940078=
201602161000 SPECI KBLI 161000Z 16011KT 10SM FEW013 09/08 A2999 RMK AO2 T00940083=
201602160953 METAR KBLI 160953Z 16010KT 10SM SCT013 BKN017 09/08 A2999 RMK AO2 SLP162 T00940083=
201602160853 METAR KBLI 160853Z 18008KT 10SM FEW007 BKN013 OVC060 10/09 A2997 RMK AO2 SLP156 60008 T01000089 53016=
201602160839 SPECI KBLI 160839Z VRB05G16KT 10SM FEW007 BKN013 OVC060 11/09 A2997 RMK AO2 T01060089=
201602160825 SPECI KBLI 160825Z 16012G16KT 10SM SCT014 BKN019 OVC060 11/09 A2996 RMK AO2 T01060089=
201602160809 SPECI KBLI 160809Z 16007G15KT 10SM BKN014 OVC065 10/09 A2995 RMK AO2 T01000089=
201602160753 METAR KBLI 160753Z 16012KT 10SM BKN015 BKN060 OVC075 11/08 A2993 RMK AO2 RAE28 SLP142 P0001 T01060083 401170078=
201602160749 SPECI KBLI 160749Z 16010G20KT 10SM BKN016 BKN060 OVC075 11/08 A2993 RMK AO2 RAE28 P0001=
201602160707 SPECI KBLI 160707Z 16011KT 10SM -RA FEW014 SCT040 OVC060 10/09 A2991 RMK AO2 P0001 T01000089=
201602160653 METAR KBLI 160653Z 16012G18KT 10SM -RA SCT014 BKN025 OVC055 10/09 A2992 RMK AO2 SLP139 P0007 T01000089=
201602160553 METAR KBLI 160553Z 17015G23KT 7SM RA SCT018 OVC023 11/09 A2990 RMK AO2 SLP133 P0009 60039 T01060089 10117 20089 53011=
201602160537 SPECI KBLI 160537Z 17013G24KT 8SM -RA FEW018 BKN028 OVC046 11/09 A2990 RMK AO2 P0006 T01060089=
201602160453 METAR KBLI 160453Z 16014G24KT 9SM -RA FEW016 BKN031 OVC042 11/09 A2987 RMK AO2 PK WND 16028/0440 SLP124 P0014 T01060089=
201602160419 SPECI KBLI 160419Z 17017G25KT 6SM -RA BR BKN016 BKN023 OVC036 11/09 A2987 RMK AO2 PK WND 14028/0355 P0008 T01060089=
201602160353 METAR KBLI 160353Z 16016G25KT 3SM -RA BR OVC014 11/09 A2987 RMK AO2 PK WND 16032/0254 SLP124 P0005 T01060089=
201602160350 SPECI KBLI 160350Z 16014G25KT 3SM -RA BR OVC014 11/09 A2987 RMK AO2 PK WND 16032/0254 P0004=
201602160253 METAR KBLI 160253Z 15020G31KT 8SM -RA OVC016 11/09 A2985 RMK AO2 PK WND 14031/0215 RAE09B23 PRESFR SLP115 P0001 60011 T01110089 58033=
201602160219 SPECI KBLI 160219Z 14015G31KT 10SM OVC015 11/09 A2988 RMK AO2 PK WND 14031/0215 RAE09 P0000 T01110089=
201602160153 METAR KBLI 160153Z 15011KT 10SM -RA OVC014 11/09 A2989 RMK AO2 SLP130 P0007 T01060089=
201602160146 SPECI KBLI 160146Z 14010KT 10SM -RA OVC014 11/09 A2989 RMK AO2 P0006 T01060089=
201602160053 METAR KBLI 160053Z 13008KT 7SM -RA BKN015 OVC019 10/08 A2993 RMK AO2 SLP142 P0003 T01000083=
201602152353 METAR KBLI 152353Z 09006KT 6SM -RA BR OVC022 09/08 A2995 RMK AO2 SLP149 P0003 60055 T00940078 10094 20083 58036=
201602152253 METAR KBLI 152253Z 07004KT 5SM -RA BR OVC026 09/08 A2999 RMK AO2 SLP164 P0009 T00890078=
201602152242 SPECI KBLI 152242Z 05003KT 6SM -RA BR OVC028 09/08 A3000 RMK AO2 P0008 T00890083=
201602152153 METAR KBLI 152153Z 00000KT 4SM -RA BR BKN003 BKN047 OVC055 09/09 A3003 RMK AO2 SLP177 P0011 T00940089=
201602152135 SPECI KBLI 152135Z 03005KT 4SM -RA BR BKN013 BKN047 OVC055 09/09 A3003 RMK AO2 P0008 T00940089=
201602152053 METAR KBLI 152053Z 03003KT 1SM R16/5000VP6000FT RA BR BKN009 OVC043 09/08 A3005 RMK AO2 SLP185 P0012 60032 T00890083 58009=
201602152000 SPECI KBLI 152000Z 00000KT 1SM R16/P6000FT -RA BR BKN009 BKN036 OVC050 09/08 A3007 RMK AO2 P0001 T00940083=
201602151953 METAR KBLI 151953Z 00000KT 1SM R16/P6000FT -RA BR SCT009 BKN036 OVC050 09/08 A3008 RMK AO2 SLP193 P0008 T00890083=
201602151853 METAR KBLI 151853Z 00000KT 1SM R16/P6000FT -RA BR OVC007 09/08 A3008 RMK AO2 SLP195 P0012 T00890083=
201602151834 SPECI KBLI 151834Z 00000KT 1SM R16/P6000FT RA BR OVC006 08/08 A3009 RMK AO2 CIG 002V008 P0008 T00830078=
201602151814 SPECI KBLI 151814Z 00000KT 1SM R16/P6000FT RA BR BKN004 OVC009 08/08 A3009 RMK AO2 CIG 002V006 P0004 T00830078=
201602151753 METAR KBLI 151753Z 00000KT 1SM R16/4500VP6000FT -RA BR FEW003 OVC007 09/08 A3008 RMK AO2 SLP195 P0006 60029 T00890078 10089 20078 53007=
201602151705 SPECI KBLI 151705Z 00000KT 3SM -RA BR FEW002 OVC013 08/08 A3007 RMK AO2 P0001 T00830078=
201602151653 METAR KBLI 151653Z 00000KT 3SM -RA BR FEW002 OVC015 08/08 A3007 RMK AO2 SLP190 P0002 T00830078=
201602151636 SPECI KBLI 151636Z 00000KT 3SM -RA BR FEW002 OVC016 08/08 A3007 RMK AO2 P0001 T00830078=
201602151608 SPECI KBLI 151608Z 00000KT 3SM -RA BR FEW002 BKN006 OVC019 08/08 A3006 RMK AO2 P0000 T00830078=
201602151601 SPECI KBLI 151601Z 00000KT 3SM -RA BR FEW002 SCT006 OVC019 08/08 A3006 RMK AO2 P0000 T00830078=
201602151553 METAR KBLI 151553Z 00000KT 3SM -RA BR SCT002 BKN006 OVC019 08/08 A3006 RMK AO2 SLP188 P0002 T00830078=
201602151535 SPECI KBLI 151535Z 00000KT 3SM -RA BR BKN008 BKN021 OVC045 08/08 A3006 RMK AO2 P0002 T00830078=
201602151500 SPECI KBLI 151500Z 00000KT 6SM -RA BR FEW008 FEW014 BKN028 08/08 A3006 RMK AO2 P0000 T00780078=
201602151453 METAR KBLI 151453Z 00000KT 7SM -RA BKN024 OVC031 08/08 A3006 RMK AO2 SLP187 P0006 60019 T00830078 53001=
201602151353 METAR KBLI 151353Z 00000KT 10SM -RA BKN028 BKN036 OVC048 08/08 A3005 RMK AO2 SLP183 P0005 T00830078=
201602151253 METAR KBLI 151253Z 00000KT 9SM -RA FEW033 OVC045 08/07 A3004 RMK AO2 SLP181 P0008 T00830072=
201602151153 METAR KBLI 151153Z 00000KT 5SM -RA BR OVC035 08/08 A3006 RMK AO2 SLP185 P0006 60046 70074 T00830078 10100 20083 56002=
201602151053 METAR KBLI 151053Z 00000KT 7SM -RA BKN042 OVC050 08/08 A3006 RMK AO2 SLP186 P0011 T00830078=
201602151036 SPECI KBLI 151036Z 00000KT 5SM -RA BR FEW025 BKN033 OVC047 09/08 A3006 RMK AO2 P0009 T00890078=
201602151021 SPECI KBLI 151021Z 00000KT 4SM RA BR FEW006 OVC026 09/08 A3006 RMK AO2 P0006 T00890083=
201602150953 METAR KBLI 150953Z 00000KT 5SM -RA BR OVC029 09/08 A3004 RMK AO2 SLP180 P0010 T00890083=
201602150931 SPECI KBLI 150931Z 19003KT 5SM -RA BR OVC029 09/08 A3004 RMK AO2 P0007 T00890083=
201602150853 METAR KBLI 150853Z 17003KT 5SM -RA BR FEW017 FEW027 OVC032 09/08 A3006 RMK AO2 SLP188 P0007 60019 T00890083 53002=
201602150829 SPECI KBLI 150829Z 19005KT 6SM -RA BR SCT003 SCT015 OVC036 09/08 A3007 RMK AO2 P0004 T00940083=
201602150753 METAR KBLI 150753Z 20003KT 3SM -RA BR BKN003 OVC007 09/09 A3005 RMK AO2 SLP183 P0008 T00940089 401170072=
201602150748 SPECI KBLI 150748Z 00000KT 4SM -RA BR BKN003 OVC007 09/09 A3005 RMK AO2 P0008=
201602150733 SPECI KBLI 150733Z 22003KT 3SM -RA BR BKN005 OVC011 09/09 A3006 RMK AO2 P0006 T00940089=
201602150718 SPECI KBLI 150718Z 00000KT 2 1/2SM -RA BR SCT005 BKN008 OVC015 09/09 A3006 RMK AO2 CIG 008V011 P0003 T00940089=
201602150706 SPECI KBLI 150706Z 18003KT 4SM -RA BR FEW005 BKN008 OVC014 09/08 A3006 RMK AO2 CIG 007V011 P0001 T00940083=
201602150653 METAR KBLI 150653Z 16004KT 3SM -RA BR SCT008 BKN015 OVC027 09/09 A3006 RMK AO2 SLP185 P0004 T00940089=
201602150642 SPECI KBLI 150642Z 18004KT 5SM -RA BR BKN014 OVC027 09/08 A3006 RMK AO2 P0003 T00940083=
201602150615 SPECI KBLI 150615Z 17004KT 7SM -RA SCT014 BKN019 OVC035 10/08 A3006 RMK AO2 P0001 T01000083=
201602150553 METAR KBLI 150553Z 16004KT 10SM -RA FEW017 BKN038 OVC047 10/08 A3006 RMK AO2 SLP188 P0004 60017 T01000083 10117 20100 55008=
201602150549 SPECI KBLI 150549Z 14007KT 10SM -RA FEW017 BKN038 OVC045 10/09 A3005 RMK AO2 P0004=
201602150511 SPECI KBLI 150511Z 19003KT 7SM -RA SCT012 BKN018 OVC030 10/09 A3007 RMK AO2 P0002 T01000089=
201602150501 SPECI KBLI 150501Z 18005KT 8SM -RA SCT020 BKN031 OVC046 10/09 A3007 RMK AO2 P0001 T01000089=
201602150453 METAR KBLI 150453Z 17007KT 10SM -RA FEW024 BKN029 OVC048 10/09 A3007 RMK AO2 SLP189 P0005 T01000089=
201602150444 SPECI KBLI 150444Z 17006KT 10SM -RA FEW016 SCT026 OVC048 10/09 A3007 RMK AO2 P0005 T01000089=
201602150416 SPECI KBLI 150416Z 18006KT 7SM -RA FEW009 BKN021 OVC047 11/09 A3009 RMK AO2 P0002 T01060094=
201602150353 METAR KBLI 150353Z 17006KT 7SM -RA FEW014 SCT038 OVC050 11/09 A3009 RMK AO2 SLP196 P0007 T01060094=
201602150310 SPECI KBLI 150310Z 17011G17KT 10SM -RA SCT017 SCT027 OVC055 11/09 A3009 RMK AO2 P0001 T01060089=
201602150253 METAR KBLI 150253Z 16009KT 10SM -RA BKN017 BKN023 OVC055 11/09 A3008 RMK AO2 RAE11B36 SLP193 P0001 60001 T01110089 51000=
201602150153 METAR KBLI 150153Z 15013G18KT 10SM -RA SCT018 BKN022 OVC027 11/09 A3007 RMK AO2 RAB49 SLP190 P0000 T01110089=
201602150053 METAR KBLI 150053Z 17011KT 10SM OVC019 12/09 A3009 RMK AO2 SLP196 T01170089=
201602142353 METAR KBLI 142353Z 17014G22KT 10SM BKN017 OVC024 11/09 A3008 RMK AO2 SLP192 60001 T01110089 10111 20083 50007=
201602142253 METAR KBLI 142253Z 17012G23KT 10SM OVC017 11/09 A3008 RMK AO2 SLP192 T01110089=
201602142210 SPECI KBLI 142210Z 16014G22KT 10SM BKN018 OVC029 11/09 A3007 RMK AO2 T01110089=
201602142200 SPECI KBLI 142200Z 17011G21KT 10SM SCT020 BKN030 OVC036 11/09 A3007 RMK AO2 T01110089=
201602142153 METAR KBLI 142153Z 17012G24KT 8SM BKN012 BKN022 OVC032 11/09 A3007 RMK AO2 PK WND 16026/2117 SLP190 T01110089=
201602142053 METAR KBLI 142053Z 16014G22KT 6SM BR BKN012 OVC034 11/08 A3006 RMK AO2 RAE02 SLP185 P0000 60001 T01060083 58011=
201602141953 METAR KBLI 141953Z 16009G16KT 10SM -RA OVC013 10/08 A3008 RMK AO2 RAB1859E28B49 SLP195 P0000 T01000083=
201602141923 SPECI KBLI 141923Z VRB05KT 10SM -RA OVC014 10/09 A3009 RMK AO2 RAB1859 P0000 T01000089=
201602141900 SPECI KBLI 141900Z 13005KT 7SM -RA BKN018 OVC050 10/08 A3008 RMK AO2 RAB1859 P0000 T01000083=
201602141853 METAR KBLI 141853Z 13005KT 7SM BKN014 BKN050 OVC060 10/08 A3008 RMK AO2 RAE35 SLP194 P0001 T01000083=
201602141801 SPECI KBLI 141801Z 06003KT 3SM -RA BR BKN014 BKN041 OVC055 08/08 A3009 RMK AO2 P0000 T00830078=
201602141753 METAR KBLI 141753Z 00000KT 3SM R16/5500VP6000FT -RA BR SCT014 BKN041 OVC055 09/08 A3009 RMK AO2 SLP198 P0004 60010 T00890078 10094 20072 51000=
201602141653 METAR KBLI 141653Z 16003KT 6SM -RA BR BKN014 BKN042 OVC049 09/08 A3009 RMK AO2 SLP196 P0001 T00940083=
201602141604 SPECI KBLI 141604Z 15010KT 6SM -RA BR BKN014 BKN035 OVC049 09/08 A3009 RMK AO2 P0000 T00940078=
201602141553 METAR KBLI 141553Z 16006KT 6SM -RA BR OVC016 08/07 A3010 RMK AO2 SLP200 P0004 T00830072=
201602141453 METAR KBLI 141453Z 00000KT 7SM -RA FEW015 BKN029 OVC060 07/07 A3009 RMK AO2 RAB01 SLP197 P0001 60001 T00720067 51001=
201602141353 METAR KBLI 141353Z AUTO 13004KT 10SM SCT014 OVC021 09/07 A3009 RMK AO2 SLP197 T00890067=
201602141334 SPECI KBLI 141334Z AUTO 13004KT 10SM BKN013 OVC019 09/07 A3009 RMK AO2 T00890067=
201602141301 SPECI KBLI 141301Z AUTO 15004KT 10SM OVC015 09/07 A3009 RMK AO2 T00890067=
201602141253 METAR KBLI 141253Z AUTO 14004KT 10SM BKN013 OVC018 09/07 A3009 RMK AO2 SLP196 T00890067=
201602141153 METAR KBLI 141153Z AUTO 16006KT 10SM OVC012 09/07 A3009 RMK AO2 SLP197 60001 70004 T00890072 10089 20083 58003=
201602141136 SPECI KBLI 141136Z AUTO 16006KT 10SM OVC014 09/07 A3009 RMK AO2 T00890067=
201602141053 METAR KBLI 141053Z AUTO 16005KT 10SM OVC017 08/07 A3011 RMK AO2 RAE0957 SLP203 P0000 T00830067=
201602140953 METAR KBLI 140953Z AUTO 17004KT 10SM -RA OVC015 08/07 A3010 RMK AO2 RAB0859 SLP200 P0001 T00830067=
201602140853 METAR KBLI 140853Z AUTO 15009KT 10SM OVC018 09/07 A3010 RMK AO2 RAB40E51 SLP200 P0000 60000 T00890067 53020=
201602140753 METAR KBLI 140753Z AUTO 16010KT 10SM BKN019 OVC024 09/06 A3007 RMK AO2 SLP192 T00890061 401000067=
201602140653 METAR KBLI 140653Z AUTO 17013KT 10SM OVC026 09/06 A3005 RMK AO2 SLP185 T00890056=
201602140616 SPECI KBLI 140616Z 16016G25KT 10SM OVC028 09/05 A3003 RMK AO2 T00890050=
201602140553 METAR KBLI 140553Z 15012KT 10SM FEW021 SCT028 OVC033 09/05 A3004 RMK AO2 PK WND 15026/0457 SLP180 60001 T00890050 10089 20078 51016=
201602140453 METAR KBLI 140453Z 15017G25KT 10SM FEW028 BKN033 OVC043 09/04 A3002 RMK AO2 PK WND 14027/0421 SLP172 T00890044=
201602140421 SPECI KBLI 140421Z 15017G27KT 10SM SCT024 OVC044 09/04 A3000 RMK AO2 PK WND 14027/0421 T00890044=
201602140353 METAR KBLI 140353Z 14015G23KT 10SM BKN023 OVC028 08/04 A3002 RMK AO2 PK WND 15029/0308 SLP172 T00830044=
201602140253 METAR KBLI 140253Z 15015G27KT 10SM BKN026 OVC055 08/04 A2999 RMK AO2 PK WND 15032/0207 RAB00E28 SLP164 P0000 60001 T00830044 55005=
201602140249 SPECI KBLI 140249Z 14019G27KT 10SM BKN026 OVC055 08/04 A2999 RMK AO2 PK WND 15032/0207 RAB00E28 P0000=
201602140230 SPECI KBLI 140230Z 15018G30KT 10SM FEW020 SCT025 OVC055 08/04 A2999 RMK AO2 PK WND 15032/0207 RAB00E28 P0000 T00780044=
201602140153 METAR KBLI 140153Z 14020G28KT 10SM BKN022 BKN030 OVC060 08/04 A2999 RMK AO2 PK WND 14034/0131 RAE17 SLP164 P0000 T00830044=
201602140053 METAR KBLI 140053Z 14017G25KT 10SM -RA BKN023 BKN028 OVC037 08/05 A3001 RMK AO2 PK WND 15029/2354 SLP169 P0001 T00830050=
201602132353 METAR KBLI 132353Z 14017G24KT 5SM -RA BKN021 BKN029 OVC045 08/06 A3005 RMK AO2 PK WND 14028/2300 RAB2258 SLP183 P0000 60002 T00830056 10100 20083 56036=
201602132300 SPECI KBLI 132300Z 15018G28KT 10SM -RA OVC028 09/05 A3007 RMK AO2 PK WND 14028/2300 RAB2258 P0000 T00890050=
201602132253 METAR KBLI 132253Z 14020G27KT 10SM SCT028 OVC035 09/05 A3007 RMK AO2 PK WND 13027/2244 RAE17 SLP191 P0001 T00890050=
201602132153 METAR KBLI 132153Z 12010KT 10SM -RA SCT025 OVC036 08/06 A3012 RMK AO2 RAB23 SLP207 P0001 T00830056=
201602132053 METAR KBLI 132053Z 14010KT 10SM SCT028 BKN033 OVC075 09/04 A3015 RMK AO2 SLP219 T00940044 56023=
201602131953 METAR KBLI 131953Z 15014KT 10SM FEW023 SCT060 OVC095 09/04 A3017 RMK AO2 SLP223 T00940044=
201602131853 METAR KBLI 131853Z 15008G16KT 10SM FEW023 OVC090 09/04 A3021 RMK AO2 SLP236 T00890044=
201602131818 SPECI KBLI 131818Z 14007KT 10SM FEW025 BKN110 09/05 A3022 RMK AO2 T00890050=
201602131753 METAR KBLI 131753Z 13010KT 10SM SCT026 SCT033 09/04 A3022 RMK AO2 SLP243 T00890044 10089 20072 58003=
201602131653 METAR KBLI 131653Z 15009KT 10SM SCT025 BKN037 08/06 A3024 RMK AO2 SLP248 T00830056=
201602131553 METAR KBLI 131553Z 16005KT 10SM SCT025 OVC033 08/05 A3022 RMK AO2 SLP242 T00780050=
201602131536 SPECI KBLI 131536Z 16006KT 10SM BKN030 OVC035 08/05 A3022 RMK AO2 T00780050=
201602131453 METAR KBLI 131453Z 17005KT 10SM OVC026 08/05 A3023 RMK AO2 SLP246 T00780050 51013=
201602131353 METAR KBLI 131353Z AUTO 17007KT 10SM BKN024 OVC060 08/05 A3022 RMK AO2 SLP242 T00780050=
201602131344 SPECI KBLI 131344Z AUTO 17006KT 10SM BKN026 BKN031 OVC060 08/05 A3022 RMK AO2 T00780050=
201602131253 METAR KBLI 131253Z AUTO 16008KT 10SM OVC080 08/05 A3020 RMK AO2 SLP235 T00830050=
201602131153 METAR KBLI 131153Z AUTO 15008KT 10SM BKN038 BKN050 OVC080 07/06 A3019 RMK AO2 RAE10 SLP231 P0000 60056 70093 T00720056 10094 20067 53019=
201602131053 METAR KBLI 131053Z AUTO 09006KT 9SM -RA FEW033 OVC041 07/06 A3016 RMK AO2 SLP221 P0010 T00670061=
201602130953 METAR KBLI 130953Z AUTO 00000KT 7SM -RA OVC033 07/06 A3016 RMK AO2 SLP219 P0042 T00720056=
201602130940 SPECI KBLI 130940Z AUTO 12005KT 3SM RA BR FEW019 SCT024 OVC035 07/06 A3015 RMK AO2 P0039 T00720061=
201602130932 SPECI KBLI 130932Z AUTO 00000KT 2 1/2SM +RA BR FEW012 BKN024 OVC037 07/06 A3015 RMK AO2 P0037 T00720061=
201602130920 SPECI KBLI 130920Z AUTO 28007G16KT 1 1/2SM +RA BR SCT014 BKN020 OVC030 07/05 A3015 RMK AO2 P0030 T00670050=
201602130912 SPECI KBLI 130912Z AUTO 27012G16KT 1 3/4SM +RA BR BKN014 OVC019 08/07 A3015 RMK AO2 P0019 T00780067=
201602130906 SPECI KBLI 130906Z AUTO 25004KT 2 1/2SM R16/6000VP6000FT RA BR BKN017 OVC029 08/07 A3014 RMK AO2 P0007 T00830072=
201602130853 METAR KBLI 130853Z AUTO 20003KT 5SM RA BR BKN017 BKN025 OVC043 09/07 A3014 RMK AO2 RAB10 SLP212 P0004 60004 T00890072 51004=
201602130848 SPECI KBLI 130848Z AUTO 20003KT 10SM -RA SCT017 BKN022 OVC043 09/07 A3013 RMK AO2 RAB10 P0002=
201602130753 METAR KBLI 130753Z AUTO 15004KT 10SM FEW028 SCT033 OVC046 09/07 A3013 RMK AO2 SLP210 T00890067 401330078=
201602130653 METAR KBLI 130653Z AUTO 00000KT 10SM FEW075 BKN110 08/07 A3012 RMK AO2 SLP209 T00830067=
201602130553 METAR KBLI 130553Z 15004KT 10SM FEW050 SCT075 SCT120 09/07 A3012 RMK AO2 SLP207 60002 T00890067 10128 20083 51006=
201602130453 METAR KBLI 130453Z 13004KT 10SM BKN065 08/06 A3012 RMK AO2 SLP207 T00830061=
201602130353 METAR KBLI 130353Z 16006KT 10SM FEW034 BKN055 09/08 A3011 RMK AO2 SLP205 T00890078=
201602130253 METAR KBLI 130253Z 16007KT 10SM OVC044 10/08 A3010 RMK AO2 RAE42 SLP201 P0000 60002 T01000083 53005=
201602130153 METAR KBLI 130153Z 18006KT 10SM -RA BKN048 OVC060 10/09 A3010 RMK AO2 RAB18 SLP199 P0002 T01000089=
201602130053 METAR KBLI 130053Z 16009KT 10SM OVC095 11/08 A3009 RMK AO2 SLP195 T01110083=
201602122353 METAR KBLI 122353Z 17007KT 10SM FEW100 13/08 A3009 RMK AO2 SLP196 60031 T01280083 10133 20106 53004=
201602122253 METAR KBLI 122253Z 16007KT 10SM CLR 13/08 A3007 RMK AO2 SLP188 T01330078=
201602122153 METAR KBLI 122153Z VRB05KT 10SM CLR 13/08 A3006 RMK AO2 SLP185 T01330083=
201602122053 METAR KBLI 122053Z 17007KT 10SM OVC060 13/09 A3008 RMK AO2 SLP191 60031 T01280089 51014=
201602121953 METAR KBLI 121953Z VRB04KT 10SM FEW044 SCT080 SCT095 12/10 A3005 RMK AO2 RAE49 SLP184 P0005 T01170100=
201602121910 SPECI KBLI 121910Z 17007G14KT 6SM -RA BR FEW005 BKN055 OVC065 11/09 A3006 RMK AO2 P0002 T01060094=
201602121900 SPECI KBLI 121900Z 16008KT 10SM -RA FEW007 BKN026 OVC050 11/09 A3007 RMK AO2 P0000 T01060094=
201602121853 METAR KBLI 121853Z 16008KT 6SM -RA BR SCT013 BKN028 OVC048 11/10 A3006 RMK AO2 SLP187 P0026 T01060100=
201602121845 SPECI KBLI 121845Z VRB06KT 5SM -RA BR SCT013 BKN028 OVC048 11/10 A3006 RMK AO2 P0025 T01060100=
201602121834 SPECI KBLI 121834Z 17005KT 5SM -RA BR FEW008 BKN037 OVC048 11/11 A3005 RMK AO2 P0023 T01110106=
201602121827 SPECI KBLI 121827Z 17007KT 2 1/2SM RA BR FEW008 BKN037 OVC048 11/10 A3005 RMK AO2 P0022 T01110100=
201602121824 SPECI KBLI 121824Z 16007KT 1 3/4SM R16/6000VP6000FT +RA BR SCT010 BKN037 OVC048 11/11 A3004 RMK AO2 P0022 T01110106=
201602121802 SPECI KBLI 121802Z 22007KT 180V270 1 1/2SM R16/5000VP6000FT +RA BR BKN010 OVC013 11/10 A3005 RMK AO2 CIG 007V013 PRESRR P0007 T01110100=
201602121753 METAR KBLI 121753Z VRB06KT 4SM -RA BR OVC013 11/10 A3003 RMK AO2 RAB10 SLP177 P0004 60004 T01110100 10122 20083 53004=
201602121653 METAR KBLI 121653Z 17008G19KT 10SM OVC017 12/10 A3001 RMK AO2 LTG DSNT NW SLP168 T01220100=
201602121553 METAR KBLI 121553Z 34003KT 10SM OVC019 09/08 A3002 RMK AO2 SLP175 T00940083=
201602121453 METAR KBLI 121453Z AUTO 00000KT 9SM OVC015 11/09 A3002 RMK AO2 RAB02E12 SLP174 P0000 60000 T01060094 56008=
201602121417 SPECI KBLI 121417Z AUTO 30003KT 9SM OVC015 09/08 A3002 RMK AO2 RAB02E12 P0000 T00890083=
201602121353 METAR KBLI 121353Z AUTO 00000KT 10SM OVC014 09/08 A3003 RMK AO2 SLP176 T00890078=
201602121343 SPECI KBLI 121343Z AUTO 00000KT 10SM OVC014 09/08 A3003 RMK AO2 T00890083=
201602121253 METAR KBLI 121253Z AUTO 34004KT 10SM OVC016 09/08 A3004 RMK AO2 SLP180 T00890078=
201602121153 METAR KBLI 121153Z AUTO 00000KT 10SM FEW012 OVC019 08/08 A3005 RMK AO2 RAE47 SLP183 P0000 60026 70043 T00830078 10094 20083 58002=
201602121148 SPECI KBLI 121148Z AUTO 00000KT 10SM FEW002 FEW012 OVC019 08/08 A3005 RMK AO2 RAE47 P0000=
201602121053 METAR KBLI 121053Z AUTO 34003KT 10SM -RA FEW013 OVC020 09/08 A3006 RMK AO2 SLP185 P0008 T00890078=
201602121017 SPECI KBLI 121017Z AUTO 00000KT 5SM RA BR FEW008 OVC018 09/08 A3005 RMK AO2 P0004 T00890078=
201602120953 METAR KBLI 120953Z AUTO 00000KT 8SM -RA OVC019 09/08 A3005 RMK AO2 SLP184 P0007 T00890083=
201602120853 METAR KBLI 120853Z AUTO 01004KT 7SM RA OVC025 09/08 A3004 RMK AO2 SLP181 P0006 60011 T00890078 56003 TSNO=
201602120753 METAR KBLI 120753Z AUTO 36005KT 10SM -RA OVC025 09/08 A3005 RMK AO2 SLP183 P0005 T00890078 401220022=
201602120653 METAR KBLI 120653Z AUTO 01005KT 10SM -RA OVC026 09/08 A3005 RMK AO2 RAB10E26B44 SLP184 P0000 T00940078=
201602120553 METAR KBLI 120553Z 01005KT 10SM OVC028 09/08 A3005 RMK AO2 RAE0456B28E43 SLP185 P0000 60015 T00890078 10100 20089 58012=
201602120530 SPECI KBLI 120530Z 02006KT 10SM -RA OVC028 09/08 A3006 RMK AO2 RAE0456B28 P0000 T00890078=
201602120453 METAR KBLI 120453Z 01005KT 10SM -RA OVC031 09/08 A3007 RMK AO2 SLP190 P0002 T00890078=
201602120353 METAR KBLI 120353Z 06003KT 10SM -RA FEW055 OVC080 09/08 A3008 RMK AO2 SLP193 P0004 T00890078=
201602120253 METAR KBLI 120253Z 04007KT 10SM -RA FEW031 BKN040 OVC075 09/08 A3009 RMK AO2 SLP197 P0004 60009 T00890078 56001=
201602120153 METAR KBLI 120153Z 02008KT 10SM -RA OVC037 09/07 A3009 RMK AO2 SLP197 P0004 T00940072=
201602120053 METAR KBLI 120053Z 03007KT 7SM -RA BKN040 OVC048 10/07 A3009 RMK AO2 SLP196 P0001 T01000072=
201602112353 METAR KBLI 112353Z 02007KT 10SM -RA OVC047 10/07 A3009 RMK AO2 SLP199 P0001 60002 T01000072 10122 20089 56015=
201602112253 METAR KBLI 112253Z 35005KT 10SM -RA OVC055 11/06 A3010 RMK AO2 SLP199 P0001 T01060061=
201602112153 METAR KBLI 112153Z 35006KT 10SM -RA OVC065 11/06 A3011 RMK AO2 RAB02 SLP204 P0000 T01110056=
201602112053 METAR KBLI 112053Z 00000KT 10SM OVC075 11/05 A3014 RMK AO2 RAE01 SLP214 P0000 60000 T01110050 58012=
201602111953 METAR KBLI 111953Z 01008KT 10SM -RA OVC075 10/06 A3014 RMK AO2 RAB1854E19B38 SLP214 P0000 T01000056=
201602111853 METAR KBLI 111853Z 00000KT 10SM FEW060 BKN070 OVC110 09/05 A3019 RMK AO2 SLP232 T00890050=
201602111753 METAR KBLI 111753Z 36005KT 10SM OVC095 09/05 A3017 RMK AO2 SLP226 T00940050 10094 20044 56012=
201602111653 METAR KBLI 111653Z 00000KT 10SM SCT110 08/05 A3018 RMK AO2 SLP229 T00830050=
201602111553 METAR KBLI 111553Z 02005KT 10SM CLR 07/05 A3019 RMK AO2 SLP231 T00720050=
201602111453 METAR KBLI 111453Z 03005KT 10SM FEW110 07/05 A3021 RMK AO2 SLP237 T00670050 56015=
201602111353 METAR KBLI 111353Z AUTO 36007KT 10SM CLR 07/05 A3022 RMK AO2 SLP242 T00670050=
201602111253 METAR KBLI 111253Z AUTO 36007KT 10SM CLR 06/05 A3023 RMK AO2 SLP246 T00560050=
201602111153 METAR KBLI 111153Z AUTO 36006KT 9SM FEW002 04/04 A3025 RMK AO2 SLP252 70010 T00440039 10067 20022 58013=
201602111142 SPECI KBLI 111142Z AUTO 01006KT 3SM BR FEW002 04/04 A3026 RMK AO2 T00440039=
201602111139 SPECI KBLI 111139Z AUTO 01006KT 1 1/4SM BR FEW002 04/04 A3025 RMK AO2 T00390039=
201602111132 SPECI KBLI 111132Z AUTO 36006KT 3/4SM R16/P6000FT BR VV002 04/04 A3026 RMK AO2 T00390039=
201602111126 SPECI KBLI 111126Z AUTO 36005KT 1 1/4SM BR FEW002 04/04 A3026 RMK AO2 T00390039=
201602111120 SPECI KBLI 111120Z AUTO 36005KT 3/4SM R16/P6000FT BR CLR 03/03 A3027 RMK AO2 T00330028=
201602111110 SPECI KBLI 111110Z AUTO 34004KT 1/2SM R16/4000VP6000FT FG VV002 03/02 A3027 RMK AO2 T00280022=
201602111102 SPECI KBLI 111102Z AUTO 34003KT 3/4SM R16/6000VP6000FT BR VV001 04/03 A3027 RMK AO2 T00390033=
201602111053 METAR KBLI 111053Z AUTO 00000KT 1/2SM R16/3000VP6000FT FG VV001 04/03 A3028 RMK AO2 SLP261 T00390028=
201602111041 SPECI KBLI 111041Z AUTO 00000KT 1/2SM R16/2400V3000FT FG VV001 02/02 A3028 RMK AO2 T00220017=
201602110953 METAR KBLI 110953Z AUTO 00000KT 1/2SM R16/1800V2800FT FG VV003 04/03 A3028 RMK AO2 SLP261 T00390033=
201602110921 SPECI KBLI 110921Z AUTO 00000KT 1/4SM R16/1200V3000FT FG VV002 03/03 A3028 RMK AO2 T00330028=
201602110904 SPECI KBLI 110904Z AUTO 00000KT 1/4SM R16/2000V5000FT FG CLR 03/02 A3029 RMK AO2 T00280022=
201602110853 METAR KBLI 110853Z AUTO 00000KT 1/2SM R16/2400VP6000FT FG VV004 03/03 A3029 RMK AO2 SLP265 T00330028 58001=
201602110826 SPECI KBLI 110826Z AUTO 00000KT 1/2SM R16/5000VP6000FT FG VV004 03/03 A3030 RMK AO2 T00280028=
201602110815 SPECI KBLI 110815Z AUTO 00000KT 1SM R16/P6000FT BR VV002 04/04 A3031 RMK AO2 T00440039=
201602110753 METAR KBLI 110753Z AUTO 00000KT 1/2SM R16/P6000FT FG VV002 04/04 A3030 RMK AO2 SLP270 T00440039 401390039=
201602110737 SPECI KBLI 110737Z AUTO 36003KT 1/2SM R16/1600VP6000FT FG VV003 04/04 A3030 RMK AO2 T00440039=
201602110725 SPECI KBLI 110725Z AUTO 00000KT 1 3/4SM BR CLR 05/04 A3030 RMK AO2 VIS 3/4V3 T00500044=
201602110653 METAR KBLI 110653Z AUTO 13003KT 9SM CLR 05/05 A3029 RMK AO2 SLP266 T00500050=
201602110646 SPECI KBLI 110646Z AUTO 00000KT 3SM BR CLR 07/06 A3029 RMK AO2 T00670061=
201602110637 SPECI KBLI 110637Z AUTO 00000KT 1 3/4SM BR CLR 05/04 A3029 RMK AO2 VIS 3/4V5 T00500044=
201602110553 METAR KBLI 110553Z 00000KT 10SM CLR 07/06 A3029 RMK AO2 SLP266 60000 T00670061 10133 20067 51014=
201602110453 METAR KBLI 110453Z 18006KT 10SM CLR 09/08 A3029 RMK AO2 SLP264 T00940078=
201602110353 METAR KBLI 110353Z 18006KT 10SM CLR 11/08 A3026 RMK AO2 SLP254 T01060083=
201602110253 METAR KBLI 110253Z 17006KT 10SM CLR 11/09 A3025 RMK AO2 SLP252 60000 T01060089 51021=
201602110225 SPECI KBLI 110225Z 16007KT 10SM FEW019 BKN049 11/09 A3024 RMK AO2 T01060089=
201602110153 METAR KBLI 110153Z 16010KT 10SM BKN021 OVC030 11/08 A3024 RMK AO2 SLP247 T01110083=
201602110053 METAR KBLI 110053Z 18009KT 10SM BKN026 BKN046 BKN080 12/08 A3021 RMK AO2 RAE10 SLP238 P0000 T01170083=
201602102353 METAR KBLI 102353Z 16013G18KT 10SM -RA BKN025 BKN080 13/09 A3019 RMK AO2 PK WND 15027/2305 RAB35 SLP231 P0000 60009 T01280089 10139 20072 53008=
201602102324 SPECI KBLI 102324Z 15013G19KT 10SM BKN025 BKN080 13/08 A3017 RMK AO2 PK WND 15027/2305 T01330083=
201602102312 SPECI KBLI 102312Z 15015G27KT 10SM SCT025 BKN080 13/08 A3016 RMK AO2 PK WND 15027/2305 T01330083=
201602102253 METAR KBLI 102253Z 14016G22KT 10SM OVC024 13/08 A3017 RMK AO2 PK WND 17027/2158 SLP223 T01330083=
201602102153 METAR KBLI 102153Z 15016G26KT 10SM OVC024 13/08 A3016 RMK AO2 PK WND 15026/2149 SLP222 T01280083=
201602102100 SPECI KBLI 102100Z 15013G19KT 10SM BKN029 BKN080 OVC110 13/08 A3017 RMK AO2 T01280083=
201602102053 METAR KBLI 102053Z 16010KT 10SM SCT031 BKN075 OVC110 13/08 A3016 RMK AO2 RAE1959 SLP222 P0000 60009 T01280083 50006=
201602101953 METAR KBLI 101953Z 13013KT 10SM -RA BKN070 OVC090 11/08 A3016 RMK AO2 SLP222 P0004 T01060078=
201602101853 METAR KBLI 101853Z 06003KT 8SM -RA BKN060 OVC070 07/06 A3016 RMK AO2 SLP221 P0005 T00720061=
201602101753 METAR KBLI 101753Z 00000KT 8SM -RA BKN065 OVC080 07/05 A3015 RMK AO2 RAB26 SLP216 P0001 60001 T00720050 10078 20056 53024=
201602101653 METAR KBLI 101653Z 00000KT 10SM FEW075 BKN090 OVC120 07/05 A3008 RMK AO2 RAE10 SLP193 P0000 T00720050=
201602101553 METAR KBLI 101553Z VRB04KT 10SM -RA SCT060 BKN090 OVC100 07/04 A3009 RMK AO2 RAE11B50 SLP197 P0000 T00670044=
201602101453 METAR KBLI 101453Z 05003KT 10SM -RA BKN100 OVC120 07/04 A3007 RMK AO2 RAB52 SLP191 P0000 60000 T00670039 53003=
201602101353 METAR KBLI 101353Z 00000KT 10SM BKN120 06/04 A3008 RMK AO2 RAB1255E02 SLP193 P0000 T00610039=
201602101253 METAR KBLI 101253Z 00000KT 10SM SCT095 OVC120 06/04 A3005 RMK AO2 SLP183 T00610039=
201602101153 METAR KBLI 101153Z 35003KT 10SM FEW070 FEW095 SCT120 06/03 A3006 RMK AO2 SLP187 T00560033 10072 20044 58011=
201602101053 METAR KBLI 101053Z 00000KT 10SM CLR 06/03 A3009 RMK AO2 SLP197 T00560033=
201602100953 METAR KBLI 100953Z 00000KT 10SM CLR 05/03 A3010 RMK AO2 SLP200 T00500033=
201602100853 METAR KBLI 100853Z 02004KT 10SM CLR 06/03 A3010 RMK AO2 SLP199 T00560033 51003=
201602100753 METAR KBLI 100753Z 35003KT 10SM CLR 07/03 A3009 RMK AO2 SLP196 T00670033 401610000=
201602100653 METAR KBLI 100653Z 00000KT 10SM CLR 06/03 A3009 RMK AO2 SLP199 T00560033=
201602100553 METAR KBLI 100553Z 00000KT 10SM CLR 07/04 A3009 RMK AO2 SLP196 T00720039 10150 20044 57006=
201602100453 METAR KBLI 100453Z 00000KT 10SM CLR 06/03 A3009 RMK AO2 SLP200 T00560028=
201602100353 METAR KBLI 100353Z 00000KT 10SM CLR 05/03 A3010 RMK AO2 SLP201 T00500028=
201602100253 METAR KBLI 100253Z 02004KT 10SM CLR 09/04 A3010 RMK AO2 SLP203 T00890039 58002=
201602100153 METAR KBLI 100153Z 00000KT 10SM CLR 11/04 A3011 RMK AO2 SLP205 T01060039=
201602100053 METAR KBLI 100053Z 02006KT 10SM CLR 12/04 A3011 RMK AO2 SLP205 T01220039=
201602092353 METAR KBLI 092353Z 01007KT 10SM CLR 16/04 A3011 RMK AO2 SLP204 T01560039 10161 20083 56014=
201602092253 METAR KBLI 092253Z 04007KT 10SM CLR 16/05 A3011 RMK AO2 SLP204 T01560050=
201602092153 METAR KBLI 092153Z 02005KT 10SM CLR 16/05 A3013 RMK AO2 SLP209 T01560050=
201602092053 METAR KBLI 092053Z 02006KT 10SM CLR 14/04 A3015 RMK AO2 SLP218 T01440044 58017=
201602091953 METAR KBLI 091953Z 03006KT 10SM CLR 13/04 A3018 RMK AO2 SLP227 T01330044=
201602091853 METAR KBLI 091853Z 03006KT 10SM CLR 11/05 A3020 RMK AO2 SLP234 T01110050=
201602091844 SPECI KBLI 091844Z 03007KT 10SM CLR 11/04 A3020 RMK AO2 T01060044=
201602091753 METAR KBLI 091753Z 02003KT 10SM CLR 08/06 A3020 RMK AO2 SLP235 I6001 T00830056 10083 20000 53004=
201602091653 METAR KBLI 091653Z 00000KT 10SM CLR 03/03 A3020 RMK AO2 SLP235 T00330033=
201602091553 METAR KBLI 091553Z 00000KT 10SM CLR 02/02 A3018 RMK AO2 SLP228 T00220017=
201602091453 METAR KBLI 091453Z 00000KT 10SM CLR 02/01 A3019 RMK AO2 SLP232 I3001 T00170011 56012=
201602091414 SPECI KBLI 091414Z AUTO 04003KT 3SM BR SCT001 02/01 A3019 RMK AO2 T00220011=
201602091411 SPECI KBLI 091411Z AUTO 00000KT 1SM R16/3000VP6000FT BR VV001 01/01 A3019 RMK AO2 T00110006=
201602091353 METAR KBLI 091353Z AUTO 00000KT 1/2SM R16/2600VP6000FT FG VV001 01/00 A3019 RMK AO2 SLP233 I1001 T00060000=
201602091331 SPECI KBLI 091331Z AUTO 00000KT 1/4SM R16/1400VP6000FT FG VV001 01/00 A3020 RMK AO2 I1000 T00060000=
201602091316 SPECI KBLI 091316Z AUTO 00000KT 1/4SM R16/1400V2000FT FG VV001 01/01 A3020 RMK AO2 T00060006=
201602091308 SPECI KBLI 091308Z AUTO 00000KT 1/2SM R16/1400V2200FT FG VV002 01/00 A3021 RMK AO2 T00060000=
201602091300 SPECI KBLI 091300Z AUTO 00000KT 3/4SM R16/1800VP6000FT BR VV002 01/00 A3021 RMK AO2 T00060000=
201602091253 METAR KBLI 091253Z AUTO 00000KT 1SM R16/2600VP6000FT BR VV002 01/01 A3021 RMK AO2 SLP240 T00060006=
201602091248 SPECI KBLI 091248Z AUTO 00000KT 1SM R16/2600V4000FT BR VV002 01/01 A3021 RMK AO2=
201602091224 SPECI KBLI 091224Z AUTO 00000KT 1/4SM R16/2800VP6000FT FG VV002 01/01 A3021 RMK AO2 T00060006=
201602091213 SPECI KBLI 091213Z AUTO 00000KT 1/4SM R16/1600V4000FT FG VV001 01/01 A3022 RMK AO2 T00110006=
201602091204 SPECI KBLI 091204Z AUTO 00000KT 1/4SM R16/1600V3500FT FG VV002 01/01 A3022 RMK AO2 T00060006=
201602091153 METAR KBLI 091153Z AUTO 00000KT 1/2SM R16/1200V3000FT FG VV001 01/01 A3022 RMK AO2 SLP243 T00060006 10044 20006 56017=
201602091150 SPECI KBLI 091150Z AUTO 00000KT 1/2SM R16/1800V5000FT FG VV001 01/01 A3023 RMK AO2=
201602091143 SPECI KBLI 091143Z AUTO 00000KT 1 3/4SM R16/2800VP6000FT BR BKN001 02/01 A3023 RMK AO2 VIS 3/4V4 T00170011=
201602091139 SPECI KBLI 091139Z AUTO 00000KT 2SM R16/4500VP6000FT BR SCT001 01/01 A3023 RMK AO2 VIS 3/4V4 T00110006=
201602091137 SPECI KBLI 091137Z AUTO 00000KT 1SM R16/6000VP6000FT BR VV001 01/01 A3023 RMK AO2 T00110006=
201602091134 SPECI KBLI 091134Z AUTO 00000KT 1/2SM R16/1000VP6000FT FG VV001 01/01 A3023 RMK AO2 T00110006=
201602091123 SPECI KBLI 091123Z AUTO 00000KT 1/2SM R16/1000V1800FT FG VV001 01/01 A3023 RMK AO2 T00110011=
201602091119 SPECI KBLI 091119Z AUTO 16003KT 3/4SM R16/1000V3000FT BR VV002 01/01 A3023 RMK AO2 T00110006=
201602091116 SPECI KBLI 091116Z AUTO 00000KT 1 3/4SM R16/1200VP6000FT BR FEW002 01/01 A3023 RMK AO2 T00110006=
201602091108 SPECI KBLI 091108Z AUTO 00000KT 3SM R16/1400VP6000FT BR FEW002 02/01 A3023 RMK AO2 T00170011=
201602091102 SPECI KBLI 091102Z AUTO 00000KT 1 1/4SM R16/1400V4500FT BR FEW002 01/01 A3023 RMK AO2 T00110011=
201602091053 METAR KBLI 091053Z AUTO 16004KT 3/4SM R16/3000VP6000FT BR VV002 02/01 A3023 RMK AO2 VIS 1/2V5 SLP246 T00170011=
201602091049 SPECI KBLI 091049Z AUTO 14003KT 1 1/2SM BR FEW002 02/01 A3023 RMK AO2 VIS 3/4V5=
201602091045 SPECI KBLI 091045Z AUTO 00000KT 3SM R16/5000VP6000FT BR CLR 02/01 A3023 RMK AO2 T00170011=
201602091028 SPECI KBLI 091028Z AUTO 00000KT 2SM R16/6000VP6000FT BR CLR 02/01 A3024 RMK AO2 VIS 1 1/4V5 T00170011=
201602091017 SPECI KBLI 091017Z AUTO 00000KT 3SM R16/2400VP6000FT BR CLR 02/01 A3025 RMK AO2 T00170011=
201602091014 SPECI KBLI 091014Z AUTO 00000KT 1 3/4SM R16/2400V4500FT BR FEW001 01/01 A3025 RMK AO2 T00110006=
201602091004 SPECI KBLI 091004Z AUTO 00000KT 1SM R16/2200V4000FT BR VV001 01/01 A3025 RMK AO2 T00110006=
201602090953 METAR KBLI 090953Z AUTO 00000KT 1/4SM R16/1600V3000FT FG VV001 02/01 A3025 RMK AO2 SLP252 T00220011=
201602090927 SPECI KBLI 090927Z AUTO 00000KT 1/2SM R16/2000VP6000FT FG VV001 02/02 A3026 RMK AO2 T00170017=
201602090924 SPECI KBLI 090924Z AUTO 14003KT 1 3/4SM R16/2000VP6000FT BR FEW001 02/02 A3026 RMK AO2 T00220022=
201602090853 METAR KBLI 090853Z AUTO 00000KT 10SM CLR 02/02 A3027 RMK AO2 SLP260 T00220017 58019=
201602090753 METAR KBLI 090753Z AUTO 00000KT 10SM CLR 03/02 A3030 RMK AO2 SLP267 T00280022 401500022=
201602090653 METAR KBLI 090653Z AUTO 00000KT 4SM BR CLR 03/02 A3031 RMK AO2 SLP273 T00280022=
201602090643 SPECI KBLI 090643Z AUTO 14003KT 3SM BR CLR 03/03 A3031 RMK AO2 T00330033=
201602090639 SPECI KBLI 090639Z AUTO 00000KT 1SM R16/P6000FT BR CLR 04/03 A3031 RMK AO2 T00390028=
201602090634 SPECI KBLI 090634Z AUTO 00000KT 1/2SM R16/P6000FT FG CLR 03/03 A3031 RMK AO2 VIS 1/2V2 1/2 T00280028=
201602090628 SPECI KBLI 090628Z AUTO 00000KT 1 1/2SM BR CLR 04/03 A3032 RMK AO2 VIS 1/2V5 T00390028=
201602090615 SPECI KBLI 090615Z 31003KT 3SM R16/2400VP6000FT BR CLR 04/03 A3032 RMK AO2 T00390033=
201602090553 METAR KBLI 090553Z 00000KT 1 1/4SM BR CLR 04/03 A3033 RMK AO2 VIS 3/4V4 SLP279 T00390033 10117 20028 58011=
201602090550 SPECI KBLI 090550Z 00000KT 1 3/4SM BR CLR 04/03 A3033 RMK AO2 VIS 3/4V5=
201602090453 METAR KBLI 090453Z 00000KT 10SM CLR 04/04 A3034 RMK AO2 SLP283 T00440039=
201602090353 METAR KBLI 090353Z 00000KT 10SM CLR 05/04 A3035 RMK AO2 SLP287 T00500039=
201602090253 METAR KBLI 090253Z 00000KT 10SM CLR 06/05 A3036 RMK AO2 SLP291 T00610050 58008=
201602090153 METAR KBLI 090153Z 00000KT 10SM CLR 07/06 A3037 RMK AO2 SLP293 T00720056=
201602090053 METAR KBLI 090053Z 00000KT 10SM CLR 10/07 A3038 RMK AO2 SLP297 T01000067=
201602082353 METAR KBLI 082353Z 28005KT 10SM CLR 12/07 A3039 RMK AO2 SLP298 T01170072 10150 20083 56017=
201602082253 METAR KBLI 082253Z 36006KT 10SM CLR 14/07 A3040 RMK AO2 SLP301 T01440072=
201602082153 METAR KBLI 082153Z 36008KT 10SM CLR 14/07 A3041 RMK AO2 SLP305 T01390072=
201602082053 METAR KBLI 082053Z VRB04KT 10SM CLR 13/07 A3044 RMK AO2 SLP314 T01330067 58019=
201602081953 METAR KBLI 081953Z 36007KT 340V040 10SM CLR 12/06 A3046 RMK AO2 SLP324 T01220061=
201602081853 METAR KBLI 081853Z 36005KT 10SM CLR 10/05 A3049 RMK AO2 SLP333 T01000050=
201602081753 METAR KBLI 081753Z 02007KT 10SM CLR 08/04 A3049 RMK AO2 SLP334 T00830039 10083 20039 51003=
201602081653 METAR KBLI 081653Z 34006KT 10SM CLR 07/04 A3049 RMK AO2 SLP333 T00720039=
201602081553 METAR KBLI 081553Z VRB03KT 10SM CLR 04/02 A3049 RMK AO2 SLP334 T00390022=
201602081453 METAR KBLI 081453Z 01005KT 10SM CLR 05/03 A3048 RMK AO2 SLP331 T00500028 50000=
201602081353 METAR KBLI 081353Z 02005KT 10SM SCT075 06/03 A3049 RMK AO2 SLP333 T00560028=
201602081253 METAR KBLI 081253Z 35004KT 10SM OVC075 06/03 A3049 RMK AO2 SLP333 T00610028=
201602081153 METAR KBLI 081153Z 00000KT 10SM OVC075 07/03 A3048 RMK AO2 SLP331 70001 T00670033 10072 20061 56013=
201602081053 METAR KBLI 081053Z 31003KT 10SM BKN075 07/03 A3049 RMK AO2 SLP334 T00670033=
201602080953 METAR KBLI 080953Z 02004KT 10SM BKN085 07/03 A3050 RMK AO2 SLP336 T00670033=
201602080853 METAR KBLI 080853Z 01006KT 10SM OVC085 07/03 A3052 RMK AO2 SLP344 T00720033 56002=
201602080753 METAR KBLI 080753Z 36007KT 10SM OVC090 07/03 A3052 RMK AO2 SLP344 T00670028 400890000=
201602080653 METAR KBLI 080653Z 01005KT 10SM OVC095 07/03 A3052 RMK AO2 SLP343 T00670028=
201602080553 METAR KBLI 080553Z 02007KT 10SM BKN100 07/03 A3053 RMK AO2 SLP347 T00670028 10083 20067 58006=
201602080453 METAR KBLI 080453Z 01008KT 10SM FEW075 SCT100 07/02 A3054 RMK AO2 SLP350 T00720022=
201602080353 METAR KBLI 080353Z 02006KT 10SM OVC060 08/02 A3054 RMK AO2 SLP352 T00780022=
201602080253 METAR KBLI 080253Z 02008KT 10SM FEW050 OVC060 08/03 A3055 RMK AO2 SLP354 T00780028 57007=
201602080153 METAR KBLI 080153Z 36008KT 10SM OVC055 08/03 A3055 RMK AO2 SLP356 T00780028=
201602080053 METAR KBLI 080053Z 01005KT 10SM BKN050 OVC080 08/03 A3056 RMK AO2 SLP359 T00780033=
201602072353 METAR KBLI 072353Z 01006KT 10SM OVC075 08/03 A3057 RMK AO2 SLP361 60001 T00830033 10089 20044 55009=
201602072253 METAR KBLI 072253Z 36005KT 10SM SCT050 BKN065 OVC110 08/03 A3056 RMK AO2 SLP358 T00830033=
201602072153 METAR KBLI 072153Z 36006KT 10SM OVC050 08/03 A3057 RMK AO2 SLP363 T00780028=
201602072053 METAR KBLI 072053Z 36008KT 10SM OVC060 07/03 A3060 RMK AO2 RAE1957 SLP370 P0000 60001 T00720028 51006=
201602071953 METAR KBLI 071953Z 02008KT 10SM -RA OVC060 07/03 A3059 RMK AO2 RAB31 SLP367 P0000 T00670028=
201602071853 METAR KBLI 071853Z 02008KT 10SM OVC060 06/03 A3059 RMK AO2 RAB1755E35 SLP368 P0001 T00560033=
201602071753 METAR KBLI 071753Z 36005KT 10SM BKN070 OVC080 04/03 A3058 RMK AO2 RAB25E44 SLP364 P0000 60000 T00440028 10044 20000 51014=
201602071653 METAR KBLI 071653Z 00000KT 10SM BKN070 OVC085 03/02 A3055 RMK AO2 RAE06 SLP356 P0000 T00330022=
201602071553 METAR KBLI 071553Z 00000KT 10SM -RA SCT070 OVC095 02/02 A3056 RMK AO2 RAB48 SLP357 P0000 T00220017=
201602071453 METAR KBLI 071453Z 00000KT 10SM OVC100 01/01 A3054 RMK AO2 SLP350 T00110011 55000=
201602071353 METAR KBLI 071353Z AUTO 00000KT 10SM CLR 00/M01 A3052 RMK AO2 SLP345 T00001006=
201602071253 METAR KBLI 071253Z AUTO 00000KT 10SM CLR 01/00 A3052 RMK AO2 SLP344 T00060000=
201602071153 METAR KBLI 071153Z AUTO 00000KT 10SM CLR 01/00 A3054 RMK AO2 SLP350 T00110000 10033 20006 50010=
201602071053 METAR KBLI 071053Z AUTO 02003KT 10SM FEW100 03/01 A3054 RMK AO2 SLP350 T00280011=
201602070953 METAR KBLI 070953Z AUTO 36006KT 10SM OVC120 02/01 A3053 RMK AO2 SLP346 T00220011=
201602070853 METAR KBLI 070853Z AUTO 35003KT 10SM CLR 02/01 A3050 RMK AO2 SLP339 T00220011 58001=
201602070753 METAR KBLI 070753Z AUTO 02003KT 10SM CLR 02/01 A3051 RMK AO2 SLP343 T00170011 400940006=
201602070653 METAR KBLI 070653Z AUTO 34003KT 10SM CLR 01/00 A3052 RMK AO2 SLP343 T00110000=
201602070553 METAR KBLI 070553Z 00000KT 6SM CLR 02/01 A3051 RMK AO2 SLP340 T00170011 10083 20017 53013=
201602070532 SPECI KBLI 070532Z 00000KT 8SM SCT029 02/02 A3050 RMK AO2 T00220017=
201602070519 SPECI KBLI 070519Z 00000KT 10SM BKN029 02/02 A3050 RMK AO2 T00220017=
201602070453 METAR KBLI 070453Z 00000KT 10SM CLR 02/02 A3050 RMK AO2 SLP338 T00220017=
201602070353 METAR KBLI 070353Z 00000KT 10SM CLR 03/02 A3047 RMK AO2 SLP329 T00330022=
201602070253 METAR KBLI 070253Z 00000KT 10SM CLR 03/02 A3047 RMK AO2 SLP327 T00330022 53005=
201602070153 METAR KBLI 070153Z 13003KT 10SM CLR 05/03 A3047 RMK AO2 SLP326 T00500033=
201602070053 METAR KBLI 070053Z 00000KT 10SM CLR 08/04 A3045 RMK AO2 SLP319 T00780044=
201602062353 METAR KBLI 062353Z 16006KT 10SM CLR 08/04 A3046 RMK AO2 SLP321 T00830039 10094 20072 53002=
201602062253 METAR KBLI 062253Z 17006KT 10SM FEW028 08/05 A3045 RMK AO2 SLP321 T00830050=
201602062153 METAR KBLI 062153Z 16008KT 10SM SCT020 09/04 A3045 RMK AO2 SLP318 T00940039=
201602062053 METAR KBLI 062053Z 16009KT 10SM SCT020 08/04 A3045 RMK AO2 SLP320 T00830044 50009=
201602061953 METAR KBLI 061953Z 17009KT 10SM SCT020 08/04 A3046 RMK AO2 SLP322 T00830044=
201602061853 METAR KBLI 061853Z 17009KT 10SM CLR 08/04 A3045 RMK AO2 SLP319 T00780044=
201602061753 METAR KBLI 061753Z 16007KT 10SM FEW027 BKN095 07/04 A3042 RMK AO2 SLP310 T00720044 10078 20072 52021=
201602061653 METAR KBLI 061653Z 17009KT 10SM BKN080 OVC095 07/04 A3041 RMK AO2 SLP305 T00720039=
201602061553 METAR KBLI 061553Z 17007KT 10SM FEW065 OVC085 07/03 A3038 RMK AO2 SLP295 T00720028=
201602061453 METAR KBLI 061453Z 17006KT 10SM SCT040 OVC049 07/03 A3036 RMK AO2 SLP289 T00720033 51030=
201602061353 METAR KBLI 061353Z AUTO 19006G14KT 10SM FEW042 SCT049 OVC065 07/03 A3033 RMK AO2 SLP279 T00720033=
201602061253 METAR KBLI 061253Z AUTO 18006KT 10SM FEW060 SCT080 07/03 A3030 RMK AO2 SLP270 T00720028=
201602061153 METAR KBLI 061153Z AUTO 18005KT 10SM FEW036 FEW075 08/03 A3027 RMK AO2 SLP258 70022 T00780033 10083 20078 53024=
201602061053 METAR KBLI 061053Z AUTO 16009KT 10SM FEW030 BKN044 BKN110 08/03 A3025 RMK AO2 SLP249 T00780033=
201602060953 METAR KBLI 060953Z AUTO VRB06KT 10SM CLR 08/02 A3022 RMK AO2 SLP240 T00830022=
201602060853 METAR KBLI 060853Z AUTO VRB06KT 10SM CLR 08/03 A3020 RMK AO2 SLP234 T00780028 51050=
201602060753 METAR KBLI 060753Z AUTO VRB03KT 10SM CLR 08/03 A3016 RMK AO2 SLP221 T00830028 401560050=
201602060653 METAR KBLI 060653Z AUTO 19004KT 10SM FEW070 OVC085 08/04 A3011 RMK AO2 SLP203 T00780039=
201602060553 METAR KBLI 060553Z 20010G21KT 170V240 10SM FEW060 SCT100 08/04 A3005 RMK AO2 PK WND 21027/0520 RAE08 PRESRR SLP184 P0006 60022 T00780044 10139 20072 53043=
201602060515 SPECI KBLI 060515Z 20013G25KT 10SM FEW015 SCT021 08/04 A3000 RMK AO2 RAE08 P0006 T00780044=
201602060453 METAR KBLI 060453Z 17015G23KT 4SM +RA BR BKN016 BKN027 OVC034 09/07 A3000 RMK AO2 PK WND 15030/0404 RAB26 SLP166 P0009 T00890072=
201602060353 METAR KBLI 060353Z 17014G27KT 10SM OVC022 09/06 A2995 RMK AO2 PK WND 16035/0310 RAB0257E49 SLP150 P0001 T00940061=
201602060327 SPECI KBLI 060327Z 16017G27KT 10SM -RA BKN020 OVC055 09/06 A2995 RMK AO2 PK WND 16035/0310 RAB0257 P0000 T00940061=
201602060253 METAR KBLI 060253Z 15019G30KT 10SM BKN070 OVC085 10/06 A2992 RMK AO2 PK WND 17030/0243 RAE16 SLP140 P0000 60006 T01000061 50019=
201602060153 METAR KBLI 060153Z 15017G26KT 10SM -RA OVC065 09/07 A2993 RMK AO2 PK WND 16032/0102 SLP142 P0006 T00940067=
201602060053 METAR KBLI 060053Z 17019G34KT 10SM -RA OVC055 11/04 A2993 RMK AO2 PK WND 17042/0035 RAB06 PRESRR SLP141 P0000 T01110039=
201602052353 METAR KBLI 052353Z 16020G31KT 10SM OVC070 13/02 A2986 RMK AO2 PK WND 15046/2322 RAE15 SLP120 P0000 60000 T01330017 10156 20061 56035=
201602052253 METAR KBLI 052253Z 15020G35KT 10SM -RA BKN070 OVC085 14/01 A2988 RMK AO2 PK WND 15052/2207 RAB51 SLP125 P0000 T01440011=
201602052153 METAR KBLI 052153Z 15020G38KT 10SM OVC100 15/M01 A2991 RMK AO2 PK WND 14046/2130 SLP135 T01501011=
201602052053 METAR KBLI 052053Z 15021G35KT 10SM OVC100 14/00 A2997 RMK AO2 PK WND 14038/2039 SLP155 60000 T01440000 56043=
201602051953 METAR KBLI 051953Z 15024G42KT 10SM OVC095 14/00 A3000 RMK AO2 PK WND 14042/1951 SLP165 T01440000=
201602051853 METAR KBLI 051853Z 13015G25KT 10SM OVC095 13/02 A3004 RMK AO2 PK WND 15030/1839 RAB1754E25 SLP179 P0000 T01330017=
201602051753 METAR KBLI 051753Z 32004KT 10SM OVC090 06/04 A3009 RMK AO2 RAE1656B26E35 SLP199 P0000 60000 T00610044 10061 20050 58018=
201602051653 METAR KBLI 051653Z 02003KT 10SM -RA OVC090 06/04 A3013 RMK AO2 RAB45 SLP212 P0000 T00610044=
201602051553 METAR KBLI 051553Z 32004KT 10SM BKN100 OVC120 06/04 A3015 RMK AO2 SLP218 T00610039=
201602051453 METAR KBLI 051453Z 31005KT 10SM BKN120 06/04 A3015 RMK AO2 SLP217 T00610039 56031=
201602051353 METAR KBLI 051353Z AUTO 00000KT 10SM FEW110 06/04 A3017 RMK AO2 SLP224 T00560039=
201602051253 METAR KBLI 051253Z AUTO 00000KT 10SM BKN110 06/04 A3021 RMK AO2 SLP239 T00560039=
201602051153 METAR KBLI 051153Z AUTO 01006KT 10SM SCT120 06/04 A3024 RMK AO2 SLP249 70008 T00610044 10111 20061 58019=
201602051053 METAR KBLI 051053Z AUTO 35006KT 10SM FEW120 07/04 A3026 RMK AO2 SLP256 T00670044=
201602050953 METAR KBLI 050953Z AUTO 10007KT 10SM SCT110 11/04 A3028 RMK AO2 SLP261 T01110044=
201602050853 METAR KBLI 050853Z AUTO 10SM OVC032 10/06 A3030 RMK AO2 SLP268 T01000056 57009=
201602050826 SPECI KBLI 050826Z AUTO VRB03KT 10SM OVC030 08/06 A3031 RMK AO2 T00780056=
201602050753 METAR KBLI 050753Z AUTO 01004KT 10SM OVC029 07/05 A3031 RMK AO2 SLP273 T00670050 400940067=
201602050653 METAR KBLI 050653Z AUTO 04006KT 10SM OVC026 07/05 A3031 RMK AO2 SLP271 T00670050=
201602050553 METAR KBLI 050553Z 05006KT 10SM OVC028 07/05 A3032 RMK AO2 SLP277 60002 T00670050 10083 20067 56008=
201602050453 METAR KBLI 050453Z 09005KT 10SM BKN026 OVC031 07/05 A3033 RMK AO2 SLP279 T00720050=
201602050449 SPECI KBLI 050449Z 07004KT 10SM BKN026 BKN031 07/05 A3033 RMK AO2=
201602050353 METAR KBLI 050353Z 00000KT 10SM CLR 07/05 A3035 RMK AO2 SLP286 T00670050=
201602050253 METAR KBLI 050253Z 12011KT 10SM SCT070 OVC090 08/04 A3033 RMK AO2 SLP278 60002 T00780044 58012=
201602050153 METAR KBLI 050153Z 10SM FEW042 BKN065 OVC100 08/05 A3034 RMK AO2 RAE41 SLP282 P0001 T00780050=
201602050053 METAR KBLI 050053Z 14006KT 10SM -RA OVC060 08/06 A3035 RMK AO2 SLP285 P0001 T00780056=
201602042353 METAR KBLI 042353Z 16008KT 10SM -RA FEW034 BKN044 OVC055 08/06 A3036 RMK AO2 SLP289 P0001 60001 T00830061 10094 20078 51007=
201602042253 METAR KBLI 042253Z 17008KT 10SM -RA OVC055 08/06 A3036 RMK AO2 RAB43 SLP289 P0000 T00830061=
201602042153 METAR KBLI 042153Z 16005KT 10SM OVC070 09/05 A3035 RMK AO2 SLP284 T00890050=
201602042053 METAR KBLI 042053Z 17009KT 10SM OVC085 09/05 A3034 RMK AO2 SLP282 T00890050 51012=
201602041953 METAR KBLI 041953Z 17010G16KT 10SM OVC090 08/05 A3033 RMK AO2 SLP277 T00830050=
201602041853 METAR KBLI 041853Z 17009G14KT 10SM BKN110 08/04 A3032 RMK AO2 SLP276 T00830044=
201602041753 METAR KBLI 041753Z 17010KT 10SM FEW060 FEW120 08/04 A3030 RMK AO2 SLP270 60005 T00780044 10078 20072 51029=
201602041653 METAR KBLI 041653Z 16008KT 10SM SCT027 BKN050 BKN070 08/04 A3028 RMK AO2 SLP262 T00780044=
201602041553 METAR KBLI 041553Z 17010G16KT 10SM FEW050 FEW060 07/04 A3025 RMK AO2 SLP251 T00720044=
201602041453 METAR KBLI 041453Z AUTO 17010G17KT 10SM SCT027 BKN046 OVC060 07/04 A3022 RMK AO2 RAB1358E43 SLP241 P0000 60005 T00720044 51015=
201602041448 SPECI KBLI 041448Z AUTO 17011G17KT 10SM BKN027 BKN046 OVC065 08/04 A3022 RMK AO2 RAB1358E43 P0000=
201602041441 SPECI KBLI 041441Z AUTO 17008G17KT 10SM -RA SCT023 BKN030 OVC070 08/04 A3021 RMK AO2 RAB1358 P0000 T00780044=
201602041353 METAR KBLI 041353Z AUTO 18007G18KT 10SM BKN024 BKN029 OVC036 08/04 A3019 RMK AO2 RAE01 SLP233 P0000 T00780044=
201602041253 METAR KBLI 041253Z AUTO 17010G20KT 10SM -RA OVC023 07/05 A3017 RMK AO2 RAB1154 SLP226 P0005 T00720050=
201602041213 SPECI KBLI 041213Z AUTO 16011G19KT 6SM -RA BR FEW017 BKN027 OVC035 07/05 A3016 RMK AO2 RAB1154 P0001 T00720050=
201602041153 METAR KBLI 041153Z AUTO 17010G18KT 10SM FEW017 BKN035 OVC070 08/04 A3014 RMK AO2 SLP214 60000 70013 T00780044 10078 20072 51023=
201602041149 SPECI KBLI 041149Z AUTO 17011G18KT 10SM SCT017 BKN035 OVC070 08/04 A3014 RMK AO2=
201602041053 METAR KBLI 041053Z AUTO 16012G18KT 10SM OVC020 08/04 A3010 RMK AO2 SLP201 T00780044=
201602040953 METAR KBLI 040953Z AUTO 17008G17KT 10SM BKN019 OVC024 08/04 A3007 RMK AO2 RAB0857E14 SLP191 P0000 T00780044=
201602040853 METAR KBLI 040853Z AUTO 15004KT 10SM BKN023 OVC045 07/04 A3007 RMK AO2 SLP190 T00720039 51004=
201602040846 SPECI KBLI 040846Z AUTO 12005KT 10SM BKN022 OVC045 07/04 A3007 RMK AO2 T00720039=
201602040753 METAR KBLI 040753Z AUTO 15009KT 10SM SCT028 BKN034 OVC070 07/04 A3006 RMK AO2 SLP188 T00720039 400830033=
201602040700 SPECI KBLI 040700Z AUTO 15009KT 10SM BKN026 OVC038 07/04 A3006 RMK AO2 T00720044=
201602040653 METAR KBLI 040653Z AUTO 16008KT 10SM SCT025 BKN030 OVC040 07/04 A3005 RMK AO2 SLP185 T00720044=
201602040649 SPECI KBLI 040649Z AUTO 16009KT 10SM BKN028 BKN038 OVC047 07/04 A3005 RMK AO2=
201602040553 METAR KBLI 040553Z 17009KT 10SM FEW022 BKN033 BKN042 08/04 A3003 RMK AO2 SLP178 60008 T00780044 10083 20044 51044=
201602040453 METAR KBLI 040453Z 16014G26KT 10SM BKN023 BKN040 OVC055 07/05 A3000 RMK AO2 PK WND 17030/0356 RAE44 SLP168 P0002 T00720050=
201602040353 METAR KBLI 040353Z 16019G30KT 8SM -RA FEW017 BKN025 OVC034 08/06 A2996 RMK AO2 PK WND 15030/0348 SLP152 P0005 T00780056=
201602040337 SPECI KBLI 040337Z 16015G26KT 7SM -RA BKN028 OVC039 08/05 A2994 RMK AO2 PK WND 15028/0318 PRESRR P0003 T00780050=
201602040253 METAR KBLI 040253Z VRB03KT 10SM -RA OVC032 05/04 A2990 RMK AO2 SLP135 P0001 60001 T00500039 55014=
201602040153 METAR KBLI 040153Z 00000KT 10SM -RA OVC038 04/03 A2990 RMK AO2 RAB46 SLP133 P0000 T00440033=
201602040053 METAR KBLI 040053Z 36004KT 10SM BKN045 OVC060 04/03 A2991 RMK AO2 RAE2357 SLP137 P0000 T00440028=
201602032353 METAR KBLI 032353Z 35005KT 10SM -RA FEW030 OVC044 04/03 A2994 RMK AO2 SLP149 P0002 60005 T00440033 10072 20044 58022=
201602032253 METAR KBLI 032253Z 03005KT 10SM -RA SCT038 BKN046 OVC055 04/03 A2997 RMK AO2 SLP157 P0001 T00440028=
201602032153 METAR KBLI 032153Z VRB03KT 10SM -RA OVC038 05/03 A3000 RMK AO2 SLP168 P0002 T00500028=
201602032053 METAR KBLI 032053Z 01005KT 10SM -RA OVC037 06/03 A3001 RMK AO2 RAB07 SLP171 P0000 60000 T00610028 57025=
201602031953 METAR KBLI 031953Z 02007KT 10SM OVC042 07/02 A3003 RMK AO2 SLP179 T00670017=
201602031853 METAR KBLI 031853Z 03008KT 10SM BKN039 BKN065 OVC110 06/02 A3006 RMK AO2 SLP189 T00610017=
201602031753 METAR KBLI 031753Z 03008KT 10SM BKN037 OVC060 06/01 A3008 RMK AO2 SLP197 T00560011 10056 20033 58016=
201602031702 SPECI KBLI 031702Z 03006KT 10SM OVC030 05/01 A3010 RMK AO2 T00500011=
201602031653 METAR KBLI 031653Z 04007KT 10SM OVC029 04/01 A3010 RMK AO2 SLP203 T00440006=
201602031553 METAR KBLI 031553Z 03008KT 10SM OVC029 04/01 A3012 RMK AO2 SLP210 T00390006=
201602031453 METAR KBLI 031453Z AUTO 02007KT 10SM OVC028 04/00 A3013 RMK AO2 SLP213 T00390000 58013=
201602031425 SPECI KBLI 031425Z AUTO 04006KT 10SM OVC029 04/00 A3013 RMK AO2 T00390000=
201602031353 METAR KBLI 031353Z AUTO 01004KT 10SM OVC030 04/00 A3014 RMK AO2 SLP217 T00390000=
201602031253 METAR KBLI 031253Z AUTO 35005KT 10SM OVC030 04/00 A3016 RMK AO2 SLP223 T00390000=
201602031153 METAR KBLI 031153Z AUTO 35003KT 10SM OVC030 04/00 A3017 RMK AO2 SLP226 60000 T00390000 10039 20033 56006=
201602031053 METAR KBLI 031053Z AUTO 03006KT 10SM OVC031 04/01 A3017 RMK AO2 RAB12E21 SLP226 P0000 T00390006=
201602030953 METAR KBLI 030953Z AUTO 02006KT 10SM OVC036 04/01 A3018 RMK AO2 SLP229 T00390006=
201602030853 METAR KBLI 030853Z AUTO 02004KT 10SM BKN046 OVC080 04/01 A3019 RMK AO2 SLP232 T00390006 50000=
201602030753 METAR KBLI 030753Z AUTO 03005KT 10SM OVC050 03/01 A3019 RMK AO2 SLP233 T00330006 400720017=
201602030653 METAR KBLI 030653Z AUTO 02004KT 10SM OVC050 04/01 A3020 RMK AO2 SLP235 T00390006=
201602030553 METAR KBLI 030553Z 02006KT 10SM OVC055 03/01 A3019 RMK AO2 SLP232 T00330006 10056 20017 56003=
201602030453 METAR KBLI 030453Z 36004KT 10SM OVC060 03/01 A3019 RMK AO2 SLP232 T00330006=
201602030353 METAR KBLI 030353Z 01005KT 10SM BKN050 03/01 A3019 RMK AO2 SLP232 T00280006=
201602030253 METAR KBLI 030253Z 01004KT 10SM OVC050 03/00 A3020 RMK AO2 SLP235 T00330000 55001=
201602030153 METAR KBLI 030153Z 36004KT 10SM CLR 03/M01 A3019 RMK AO2 SLP234 T00281006=
201602030053 METAR KBLI 030053Z 02007KT 10SM CLR 04/01 A3019 RMK AO2 SLP234 T00440006=
201602022353 METAR KBLI 022353Z 01008KT 10SM CLR 06/01 A3020 RMK AO2 SLP236 T00560011 10072 20039 53000=
201602022253 METAR KBLI 022253Z 01007KT 10SM CLR 06/01 A3020 RMK AO2 SLP236 T00610011=
201602022153 METAR KBLI 022153Z 01008KT 10SM CLR 07/02 A3020 RMK AO2 SLP235 T00670017=
201602022053 METAR KBLI 022053Z 03008KT 10SM FEW120 07/02 A3020 RMK AO2 SLP236 T00670017 58002=
201602021953 METAR KBLI 021953Z 02006KT 10SM CLR 06/02 A3020 RMK AO2 SLP237 T00610022=
201602021853 METAR KBLI 021853Z 04006KT 10SM BKN042 BKN120 06/02 A3021 RMK AO2 SLP241 T00610017=
201602021753 METAR KBLI 021753Z 03004KT 10SM OVC041 04/02 A3021 RMK AO2 SLP238 T00390017 10039 20017 51009=
201602021653 METAR KBLI 021653Z 05003KT 10SM SCT039 03/01 A3020 RMK AO2 SLP234 T00280011=
201602021553 METAR KBLI 021553Z 03003KT 10SM OVC037 02/01 A3019 RMK AO2 SLP234 T00220011=
201602021453 METAR KBLI 021453Z AUTO 02005KT 10SM OVC035 03/01 A3018 RMK AO2 SLP229 T00280011 50000=
201602021353 METAR KBLI 021353Z AUTO 01003KT 10SM OVC035 03/01 A3018 RMK AO2 SLP230 T00280011=
201602021253 METAR KBLI 021253Z AUTO 36003KT 10SM BKN036 OVC075 03/01 A3018 RMK AO2 SLP230 T00280011=
201602021153 METAR KBLI 021153Z AUTO 36003KT 10SM SCT035 OVC075 02/01 A3018 RMK AO2 SLP229 70015 T00220011 10033 20022 53000=
201602021053 METAR KBLI 021053Z AUTO 36004KT 10SM OVC031 03/02 A3017 RMK AO2 SLP227 T00280017=
201602020953 METAR KBLI 020953Z AUTO 02003KT 10SM SCT029 BKN037 OVC050 03/02 A3017 RMK AO2 SLP227 T00330022=
201602020928 SPECI KBLI 020928Z AUTO 36003KT 10SM SCT029 OVC039 03/02 A3017 RMK AO2 T00330022=
201602020853 METAR KBLI 020853Z AUTO 00000KT 10SM OVC027 03/02 A3018 RMK AO2 SLP228 T00330022 51006=
201602020753 METAR KBLI 020753Z AUTO 01005KT 10SM BKN029 OVC065 03/02 A3017 RMK AO2 SLP226 T00330022 400610028=
201602020729 SPECI KBLI 020729Z AUTO 02004KT 10SM BKN027 BKN035 OVC050 03/02 A3017 RMK AO2 T00330022=
201602020653 METAR KBLI 020653Z AUTO 02003KT 10SM FEW027 BKN032 OVC050 03/02 A3017 RMK AO2 SLP225 T00330022=
201602020613 SPECI KBLI 020613Z 00000KT 10SM SCT025 OVC050 03/02 A3016 RMK AO2 T00330022=
201602020553 METAR KBLI 020553Z 00000KT 10SM OVC024 03/02 A3016 RMK AO2 SLP222 T00330022 10061 20028 57003=
201602020453 METAR KBLI 020453Z 00000KT 10SM OVC050 03/02 A3017 RMK AO2 SLP224 T00280022=
201602020353 METAR KBLI 020353Z 00000KT 10SM OVC041 04/03 A3016 RMK AO2 SLP223 T00440028=
201602020253 METAR KBLI 020253Z 16006KT 10SM SCT060 04/03 A3017 RMK AO2 SLP225 T00440028 50000=
201602020153 METAR KBLI 020153Z 14006KT 10SM FEW019 SCT029 OVC070 04/03 A3017 RMK AO2 SLP226 T00440028=
201602020053 METAR KBLI 020053Z 09004KT 10SM FEW026 04/03 A3017 RMK AO2 SLP226 T00440028=
201602020042 SPECI KBLI 020042Z 07004KT 10SM FEW026 05/03 A3017 RMK AO2 T00500033=
201602020004 SPECI KBLI 020004Z 16003KT 10SM BKN025 BKN049 06/03 A3017 RMK AO2 T00610033=
201602012353 METAR KBLI 012353Z 15003KT 10SM SCT027 SCT034 BKN049 06/03 A3017 RMK AO2 RAB2259E19 SLP225 P0000 60011 T00610028 10061 20044 55000=
201602012253 METAR KBLI 012253Z 19003KT 10SM SCT042 OVC055 06/04 A3016 RMK AO2 RAB32E48 SLP223 P0000 T00560039=
201602012153 METAR KBLI 012153Z 14006KT 10SM SCT014 SCT024 BKN055 06/03 A3016 RMK AO2 RAE11 SLP222 P0001 T00560033=
201602012148 SPECI KBLI 012148Z 14005KT 10SM SCT014 SCT019 BKN050 06/03 A3016 RMK AO2 RAE11 P0001=
201602012053 METAR KBLI 012053Z 11005KT 4SM -RA BR FEW007 BKN014 OVC020 04/03 A3017 RMK AO2 SLP225 P0009 60010 T00440033 50004=
201602012046 SPECI KBLI 012046Z 3SM -RA BR FEW007 BKN014 OVC020 04/03 A3017 RMK AO2 P0009 T00440033=
201602012035 SPECI KBLI 012035Z 00000KT 2 1/2SM RA BR FEW008 BKN014 OVC022 04/03 A3018 RMK AO2 P0007 T00440033=
201602012017 SPECI KBLI 012017Z 21003KT 3SM -RA BR FEW010 BKN013 OVC021 04/03 A3018 RMK AO2 P0004 T00440028=
201602012006 SPECI KBLI 012006Z 00000KT 2 1/2SM RA BR FEW009 BKN015 OVC024 04/03 A3018 RMK AO2 P0002 T00440033=
201602011953 METAR KBLI 011953Z 17003KT 7SM -RA BKN021 BKN029 OVC038 05/03 A3018 RMK AO2 RAB36 SLP228 P0001 T00500028=
201602011938 SPECI KBLI 011938Z 16005KT 10SM -RA BKN027 BKN037 OVC046 04/03 A3018 RMK AO2 RAB36 P0000 T00440028=
201602011853 METAR KBLI 011853Z 16009KT 10SM FEW019 SCT027 BKN060 05/03 A3017 RMK AO2 SLP226 T00500028=
201602011822 SPECI KBLI 011822Z 17005KT 10SM SCT012 BKN018 OVC065 04/03 A3017 RMK AO2 T00440028=
201602011753 METAR KBLI 011753Z 16008KT 10SM BKN060 05/03 A3016 RMK AO2 SLP221 60004 T00500028 10050 20028 50004=
201602011653 METAR KBLI 011653Z 17005KT 10SM BKN030 OVC060 04/03 A3016 RMK AO2 SLP221 T00440033=
201602011553 METAR KBLI 011553Z 19003KT 10SM SCT027 BKN032 03/02 A3015 RMK AO2 RAB1456E17 SLP218 P0002 T00330022=
201602011539 SPECI KBLI 011539Z 19003KT 10SM BKN028 BKN032 OVC050 04/03 A3015 RMK AO2 RAB1456E17 P0002 T00390028=
201602011453 METAR KBLI 011453Z AUTO 00000KT 10SM FEW019 BKN045 OVC060 04/03 A3015 RMK AO2 RAE05 SLP217 P0000 60002 T00390033 51005=
201602011410 SPECI KBLI 011410Z AUTO 18005KT 10SM SCT027 OVC055 04/03 A3013 RMK AO2 RAE05 P0000 T00440028=
201602011353 METAR KBLI 011353Z AUTO 00000KT 6SM -RA BR BKN027 BKN034 OVC050 04/03 A3014 RMK AO2 RAB38 SLP216 P0002 T00440028=
201602011311 SPECI KBLI 011311Z AUTO 00000KT 10SM FEW011 BKN037 OVC065 04/03 A3014 RMK AO2 T00390033=
201602011303 SPECI KBLI 011303Z AUTO 00000KT 10SM SCT011 BKN022 OVC065 04/03 A3014 RMK AO2 T00390033=
201602011253 METAR KBLI 011253Z AUTO 00000KT 10SM BKN013 OVC022 04/03 A3014 RMK AO2 RAE11 SLP216 P0000 T00390033=
201602011153 METAR KBLI 011153Z AUTO 00000KT 9SM -RA OVC016 04/03 A3013 RMK AO2 SLP212 P0003 60007 70012 T00390033 10050 20039 53009=
201602011053 METAR KBLI 011053Z AUTO 00000KT 7SM -RA FEW009 BKN018 OVC026 04/03 A3013 RMK AO2 RAB16E27B49 SLP211 P0001 T00390033=
201602011031 SPECI KBLI 011031Z AUTO 00000KT 10SM SCT012 BKN017 OVC035 04/03 A3012 RMK AO2 RAB16E27 P0000 T00390033=
201602011009 SPECI KBLI 011009Z AUTO 00000KT 10SM SCT025 BKN033 OVC046 04/03 A3011 RMK AO2 T00440033=
201602010953 METAR KBLI 010953Z AUTO 10003KT 10SM FEW018 BKN025 OVC035 04/03 A3010 RMK AO2 RAB05E51 SLP202 P0003 T00440033=
201602010938 SPECI KBLI 010938Z AUTO 08004KT 10SM -RA SCT006 BKN020 OVC026 04/03 A3010 RMK AO2 RAB05 P0003 T00440033=
201602010918 SPECI KBLI 010918Z AUTO 36004KT 5SM -RA BR BKN006 BKN016 OVC022 04/03 A3010 RMK AO2 RAB05 P0002 T00440033=
201602010911 SPECI KBLI 010911Z AUTO 01004KT 6SM -RA BR SCT006 BKN012 OVC030 04/03 A3010 RMK AO2 RAB05 P0001 T00440033=
201602010904 SPECI KBLI 010904Z AUTO 00000KT 10SM BKN006 BKN013 OVC022 04/03 A3010 RMK AO2 CIG 005V009 T00440033=
201602010853 METAR KBLI 010853Z AUTO 13004KT 10SM FEW008 BKN020 OVC033 04/03 A3010 RMK AO2 SLP203 T00440033 50001=
201602010848 SPECI KBLI 010848Z AUTO 13004KT 10SM FEW008 BKN020 OVC033 04/03 A3010 RMK AO2=
201602010841 SPECI KBLI 010841Z AUTO 15003KT 10SM FEW007 BKN014 OVC032 04/03 A3011 RMK AO2 T00440033=
201602010820 SPECI KBLI 010820Z AUTO 15003KT 10SM BKN015 BKN036 OVC060 04/03 A3010 RMK AO2 T00440033=
201602010753 METAR KBLI 010753Z AUTO 00000KT 10SM FEW017 OVC033 04/04 A3010 RMK AO2 SLP203 T00440039 400610039=
201602010720 SPECI KBLI 010720Z AUTO 00000KT 10SM OVC031 04/04 A3011 RMK AO2 T00440039=
201602010653 METAR KBLI 010653Z AUTO 16003KT 10SM OVC028 04/04 A3010 RMK AO2 SLP202 T00440039=
201602010553 METAR KBLI 010553Z 00000KT 10SM SCT011 OVC029 05/04 A3008 RMK AO2 SLP197 60002 T00500039 10061 20039 51008=
201602010453 METAR KBLI 010453Z 00000KT 10SM BKN011 OVC029 05/04 A3008 RMK AO2 SLP195 T00500039=
201602010353 METAR KBLI 010353Z 00000KT 10SM OVC015 05/04 A3006 RMK AO2 RAE27 SLP190 P0001 T00500039=
201602010253 METAR KBLI 010253Z 17005KT 10SM -RA BKN024 BKN031 OVC060 04/03 A3006 RMK AO2 RAE0155B38 SLP188 P0001 60001 T00440033 53013=
201602010153 METAR KBLI 010153Z 13007KT 10SM -RA FEW016 SCT026 OVC035 05/03 A3004 RMK AO2 RAB33 SLP181 P0000 T00500028=
201602010145 SPECI KBLI 010145Z 15005KT 10SM -RA FEW016 SCT026 OVC034 05/03 A3004 RMK AO2 RAB33 P0000 T00500033=
201602010113 SPECI KBLI 010113Z 17004KT 10SM BKN015 BKN034 OVC049 06/03 A3004 RMK AO2 T00560033=
201602010053 METAR KBLI 010053Z 16004KT 10SM BKN036 OVC049 06/03 A3003 RMK AO2 RAE08 SLP179 P0000 T00560033=
201602010024 SPECI KBLI 010024Z 17003KT 10SM SCT022 BKN040 OVC070 06/03 A3003 RMK AO2 RAE08 P0000 T00560033=

# No short TAF reports from KBLI in databse.

###################################
#  large TAF from KBLI
###################################
201602292342 TAF KBLI 292342Z 0100/0124 07006KT P6SM SCT035 OVC150 FM011000
                       05007KT P6SM -RA OVC045 FM011300 06009KT
                       5SM -RA BR OVC030 FM011700 15020G30KT P6SM
                       -RA SCT035 BKN050 FM012300 16022G34KT 5SM
                       -SHRA BR OVC040=
201602291739 TAF KBLI 291739Z 2918/0118 15008KT P6SM SCT030 FM010000 07006KT
                       P6SM SCT040 OVC150 FM011000 05007KT P6SM
                       -RA OVC045 FM011600 14015G25KT 5SM -RA BR
                       OVC030=
201602291123 TAF KBLI 291123Z 2912/0112 18010KT P6SM VCSH OVC050 FM292200 16007KT
                       P6SM BKN070 FM010000 10009KT P6SM SCT070
                       OVC100 FM011000 09013G20KT P6SM -RA OVC060=
201602290520 TAF KBLI 290520Z 2906/0106 17007KT P6SM VCSH SCT030 OVC050 FM290900
                       18010KT P6SM VCSH OVC030 FM292200 16007KT
                       P6SM BKN070 FM010000 10009KT P6SM SCT070
                       OVC100=
201602282333 TAF KBLI 282333Z 2900/2924 20007G19KT P6SM VCSH FEW045 BKN060 BKN120
                       TEMPO 2900/2903 5SM -SHRA BKN030 OVC045
                       FM290300 17007G16KT P6SM VCSH SCT030 OVC045
                       FM290900 18010KT P6SM VCSH OVC030 FM292200
                       16007KT P6SM BKN070=
201602281737 TAF KBLI 281737Z 2818/2918 15018G25KT P6SM -RA BKN050 OVC070
                      TEMPO 2818/2822 5SM -RA BR OVC030 FM282200
                       21015G25KT P6SM -SHRA BKN040 BKN060 FM290400
                       22012KT P6SM VCSH OVC030=
201602281420 TAF AMD KBLI 281420Z 2814/2912 10010KT P6SM SCT030 OVC060
                      TEMPO 2815/2817 -RA BKN020 OVC050 FM281700
                       15015G25KT 5SM -RA BKN020 OVC040 FM290200
                       18009KT P6SM -SHRA SCT020 OVC040 FM291000
                       17006KT P6SM VCSH SCT030 OVC050=
201602281120 TAF KBLI 281120Z 2812/2912 10010KT P6SM SCT030 OVC060
                      TEMPO 2812/2814 -RA BKN020 OVC050 FM281400
                       15019G26KT 5SM -RA OVC019 FM290200 18009KT
                       P6SM -SHRA SCT020 OVC040 FM291000 17006KT
                       P6SM VCSH SCT030 OVC050=
201602280520 TAF KBLI 280520Z 2806/2906 14009KT P6SM SCT035 SCT120 FM280700
                       12010KT P6SM SCT035 OVC100 FM281400 15019G26KT
                       5SM -RA OVC019 FM290200 18009KT P6SM -SHRA
                       SCT020 OVC040=
201602272331 TAF KBLI 272331Z 2800/2824 17004KT P6SM SCT019 BKN045 FM280400
                       14009KT P6SM SCT045 OVC120 FM281400 15019G26KT
                       5SM -RA OVC019=
201602271856 TAF AMD KBLI 271856Z 2719/2818 18003KT P6SM BKN006 OVC010 FM272000
                       18005KT P6SM SCT008 OVC015 FM272100 18006KT
                       P6SM OVC021 FM280200 15005KT P6SM OVC030
                       FM280400 13009G18KT P6SM BKN040 OVC100 FM281500
                       16014G21KT 5SM -RA BR OVC030=
201602271723 TAF KBLI 271723Z 2718/2818 00000KT 2SM BR OVC003 FM272000 18005KT
                       5SM BR OVC019 FM272100 18006KT P6SM OVC021
                       FM280200 15005KT P6SM OVC030 FM280400 13009G18KT
                       P6SM BKN040 OVC100 FM281500 16014G21KT 5SM
                       -RA BR OVC030=
201602271240 TAF AMD KBLI 271240Z 2713/2812 19004KT 4SM BR FEW003 OVC010 FM271600
                       17009KT P6SM OVC010 FM272200 16009KT P6SM
                       BKN025 OVC100 FM280300 14007KT P6SM SCT035
                       OVC100 FM281000 14012G20KT P6SM BKN050=
201602271120 TAF KBLI 271120Z 2712/2812 19004KT 4SM BR VCSH OVC005 FM271600
                       17009KT P6SM OVC010 FM272200 16009KT P6SM
                       BKN025 OVC100 FM280300 14007KT P6SM SCT035
                       OVC100 FM281000 14012G20KT P6SM BKN050=
201602271044 TAF AMD KBLI 271044Z 2711/2806 19004KT 4SM -SHRA BR OVC005 FM271600
                       17009KT P6SM VCSH OVC015 FM272200 16009KT
                       P6SM BKN035 OVC100 FM280300 14007KT P6SM
                       SCT035 OVC100=
201602270910 TAF AMD KBLI 270910Z 2709/2806 19004KT 4SM -SHRA BR OVC010 FM271600
                       17009KT P6SM VCSH OVC015 FM272200 16009KT
                       P6SM BKN035 OVC100 FM280300 14007KT P6SM
                       SCT035 OVC100=
201602270520 TAF KBLI 270520Z 2706/2806 19004KT P6SM -SHRA OVC015 FM271600 17009KT
                       P6SM VCSH OVC015 FM272200 16009KT P6SM BKN035
                       OVC100 FM280300 14007KT P6SM SCT035 OVC100=
201602262339 TAF KBLI 262339Z 2700/2724 15006KT P6SM -RA OVC060 FM270300 17004KT
                       P6SM -RA OVC035 FM270500 16004KT P6SM -RA
                       OVC025 FM270600 19004KT 6SM -SHRA BR OVC015
                       FM271600 17009KT P6SM VCSH OVC015 FM272200
                       16009KT P6SM BKN035 OVC100=
201602261734 TAF KBLI 261734Z 2618/2718 03003KT P6SM SCT150 BKN250 FM262000
                       VRB03KT P6SM FEW050 SCT100 OVC200 FM270000
                       VRB03KT P6SM -RA FEW028 BKN050 OVC100 FM270600
                       13006KT P6SM -RA BKN028 OVC050 FM270900
                       18008KT P6SM -RA OVC018=
201602261141 TAF KBLI 261141Z 2612/2712 VRB03KT P6SM OVC200 FM262000 VRB03KT
                       P6SM FEW050 SCT100 OVC200 FM270000 VRB03KT
                       P6SM -RA FEW028 BKN050 OVC100 FM270600 13006KT
                       P6SM -RA BKN028 OVC050 FM270900 18008KT
                       P6SM -RA OVC018=
201602260545 TAF KBLI 260545Z 2606/2706 VRB03KT P6SM FEW100 OVC200 FM262000
                       VRB03KT P6SM SCT050 BKN100 OVC200 FM270000
                       15005KT P6SM -RA SCT028 OVC050=
201602260311 TAF AMD KBLI 260311Z 2603/2624 VRB03KT P6SM BKN200 FM260900 17004KT
                       P6SM FEW110 BKN200=
201602252327 TAF KBLI 252327Z 2600/2624 36008KT P6SM BKN250 FM260300 00000KT
                       P6SM BKN200 FM260900 17004KT P6SM FEW110
                       BKN200=
201602251733 TAF KBLI 251733Z 2518/2618 01003KT P6SM BKN250=
201602251137 TAF KBLI 251137Z 2512/2612 02005KT P6SM SCT040 BKN200
                      TEMPO 2512/2516 BKN040 BKN200 FM251800 02005KT
                       P6SM BKN200=
201602250909 TAF AMD KBLI 250909Z 2509/2606 VRB03KT P6SM SCT200 FM251200 VRB03KT
                       P6SM FEW030 BKN050 BKN200 FM251800 01004KT
                       P6SM FEW050 BKN200=
201602250538 TAF KBLI 250538Z 2506/2606 VRB03KT P6SM SCT050 BKN200
                      TEMPO 2508/2512 BKN050 BKN200 FM251200 VRB03KT
                       P6SM FEW030 BKN050 BKN200 FM251800 01004KT
                       P6SM FEW050 BKN200=
201602242320 TAF KBLI 242320Z 2500/2524 30004KT P6SM SCT080 FM250600 00000KT
                       P6SM BKN050 FM251200 04004KT P6SM SCT200=
201602241720 TAF KBLI 241720Z 2418/2518 VRB03KT P6SM OVC080 FM250600 VRB03KT
                       P6SM OVC050 FM251600 VRB03KT P6SM BKN040=
201602241143 TAF KBLI 241143Z 2412/2512 VRB03KT P6SM SCT110 BKN200 FM250300
                       VRB03KT P6SM FEW060 SCT110 FM250900 VRB03KT
                       P6SM BKN060 BKN110=
201602240906 TAF AMD KBLI 240906Z 2409/2506 VRB03KT P6SM BKN100 OVC200=
201602240528 TAF KBLI 240528Z 2406/2506 VRB03KT P6SM SCT110 OVC200=
201602240315 TAF AMD KBLI 240315Z 2403/2424 VRB03KT P6SM SCT110 OVC200 FM240600
                       06006KT P6SM BKN120 OVC200 FM241200 14008KT
                       P6SM BKN060 OVC120 FM241700 16006KT P6SM
                       OVC050=
201602232320 TAF KBLI 232320Z 2400/2424 02010KT P6SM SCT120 BKN200 FM240600
                       06006KT P6SM BKN120 OVC200 FM241200 14008KT
                       P6SM BKN060 OVC120 FM241700 16006KT P6SM
                       OVC050=
201602231720 TAF KBLI 231720Z 2318/2418 02007KT P6SM SKC FM240000 06006KT P6SM
                       BKN200 FM241000 06006KT P6SM BKN120 OVC200
                       FM241700 12006KT P6SM BKN060 BKN120=
201602231120 TAF KBLI 231120Z 2312/2412 01006KT P6SM VCFG SKC FM231800 01008KT
                       P6SM SCT200 FM240100 VRB04KT P6SM OVC200=
201602230818 TAF AMD KBLI 230818Z 2308/2406 01004KT P6SM MIFG SKC
                      TEMPO 2310/2314 2SM MIFG FM231500 02009KT
                       P6SM SKC=
201602230520 TAF KBLI 230520Z 2306/2406 00000KT P6SM MIFG SKC FM230800 02004KT
                       3SM MIFG SKC
                      TEMPO 2310/2314 3/4SM MIFG FM231500 02009KT
                       P6SM SKC=
201602230311 TAF AMD KBLI 230311Z 2303/2324 VRB03KT P6SM SKC FM230600 06006KT
                       P6SM SKC=
201602222320 TAF KBLI 222320Z 2300/2324 VRB04KT P6SM FEW040 FM230600 06006KT
                       P6SM SKC=
201602221734 TAF KBLI 221734Z 2218/2318 VRB04KT P6SM BKN040 FM222000 16006KT
                       P6SM SCT030 BKN050 FM222300 36005KT P6SM
                       SCT050 FM230300 02005KT P6SM SKC=
201602221128 TAF KBLI 221128Z 2212/2312 16006KT P6SM VCSH SCT025 BKN045
                      TEMPO 2212/2216 -SHRA OVC025 FM221600 18005KT
                       P6SM VCSH BKN030 FM222000 16006KT P6SM SCT030
                       BKN050 FM222300 36005KT P6SM SCT050 FM230300
                       02005KT P6SM SKC=
201602220537 TAF KBLI 220537Z 2206/2306 16008KT P6SM VCSH SCT030 BKN050 FM221000
                       16006KT P6SM SCT025 BKN045
                      TEMPO 2210/2214 -SHRA OVC025 FM221400 18005KT
                       P6SM VCSH BKN030 FM221700 16006KT P6SM SCT030
                       BKN050 FM222300 36005KT P6SM SCT050=
201602212321 TAF KBLI 212321Z 2200/2224 18015G25KT P6SM -SHRA BKN025 BKN040
                       FM220300 16008KT P6SM VCSH BKN030 BKN040
                       FM220900 18005KT P6SM -SHRA OVC025 FM221400
                       18005KT P6SM BKN030=
201602211722 TAF KBLI 211722Z 2118/2218 05008KT P6SM SCT050 BKN150 OVC200 FM212100
                       15012KT P6SM -RA BKN035 OVC050 FM212300
                       15012G24KT P6SM -RA BKN025 OVC040 FM220200
                       18010G18KT P6SM -SHRA BKN035 BKN050 FM220700
                       16008KT P6SM VCSH SCT035 BKN050=
201602211121 TAF KBLI 211121Z 2112/2212 05006KT P6SM SCT120 BKN200 FM211600
                       05008KT P6SM SCT050 BKN090 OVC150 FM212100
                       15012KT P6SM -RA BKN035 OVC050 FM212300
                       15012G24KT P6SM -RA BKN025 OVC040 FM220200
                       18010G18KT P6SM -SHRA BKN035 BKN050 FM220700
                       16008KT P6SM VCSH SCT035 BKN050=
201602210522 TAF KBLI 210522Z 2106/2206 02005KT P6SM SCT120 BKN200 FM211200
                       05006KT P6SM SCT050 BKN090 OVC150 FM212100
                       15012KT P6SM -RA BKN035 OVC050 FM212300
                       15012G24KT P6SM -RA BKN025 OVC040 FM220200
                       18010G18KT P6SM -SHRA BKN035 BKN050=
201602202329 TAF KBLI 202329Z 2100/2124 16008KT P6SM FEW030 SCT250 FM210300
                       02004KT P6SM BKN250 FM211200 05005KT P6SM
                       SCT050 BKN120 OVC200 FM212100 18007KT P6SM
                       -RA BKN030 BKN060=
201602201727 TAF KBLI 201727Z 2018/2118 18010KT P6SM VCSH SCT030 BKN050
                      TEMPO 2018/2020 -SHRA BKN030 FM202000 16008KT
                       P6SM SCT030 FM210300 VRB03KT P6SM SCT050
                       BKN200=
201602201122 TAF KBLI 201122Z 2012/2112 16011KT P6SM SCT020 BKN045
                      TEMPO 2012/2016 -SHRA BKN020 OVC040 FM201600
                       16008KT P6SM SCT025 BKN045
                      TEMPO 2016/2020 BKN025 BKN045 FM202000 16008KT
                       P6SM SCT030 BKN050 FM210300 VRB03KT P6SM
                       SCT050 BKN200=
201602200523 TAF KBLI 200523Z 2006/2106 17011KT P6SM SCT030 BKN050
                      TEMPO 2006/2010 -SHRA BKN030 OVC050 FM201000
                       17010KT P6SM VCSH BKN030 BKN050 FM201900
                       16010KT P6SM SCT030 BKN050 FM210300 VRB03KT
                       P6SM SCT050=
201602200304 TAF AMD KBLI 200304Z 2003/2024 18011KT P6SM -SHRA SCT025 BKN035
                       TEMPO 2003/2007 BKN025 OVC035 FM200700 18010KT
                       P6SM -SHRA BKN025 BKN050 FM201200 18007KT
                       P6SM BKN025=
201602192320 TAF KBLI 192320Z 2000/2024 18018G30KT P6SM -SHRA SCT025 BKN030
                       OVC045 FM200400 17014G24KT P6SM -SHRA BKN030
                       BKN050 FM200800 18010KT P6SM -SHRA BKN025
                       BKN050 FM201200 18007KT P6SM BKN025=
201602191721 TAF KBLI 191721Z 1918/2018 02007KT P6SM -RA OVC040
                      TEMPO 1919/1921 18012KT FM192100 14018G30KT
                       P6SM -RA BKN030 OVC045 FM200200 17014G24KT
                       P6SM -SHRA BKN035 BKN050 FM200800 18010KT
                       P6SM VCSH BKN030 BKN050=
201602191127 TAF KBLI 191127Z 1912/2012 15014G24KT P6SM -RA BKN025 OVC040
                      TEMPO 1912/1916 SCT025 BKN040 FM191600 15018G30KT
                       P6SM SCT025 BKN040 OVC060
                      TEMPO 1916/1920 -RA BKN025 OVC040 FM192000
                       14018G30KT P6SM -RA BKN030 OVC045 FM200200
                       17014G24KT P6SM -SHRA BKN035 BKN050 FM200800
                       18010KT P6SM -SHRA BKN035 BKN050=
201602190906 TAF AMD KBLI 190906Z 1909/2006 15014G24KT P6SM VCSH SCT025 OVC040
                       TEMPO 1909/1913 -SHRA BKN025 OVC040 FM192000
                       14018G30KT P6SM -RA BKN030 OVC045 FM200200
                       17014G24KT P6SM -SHRA BKN035 BKN050=
201602190523 TAF KBLI 190523Z 1906/2006 15012G22KT P6SM -RA BKN035 OVC050 FM190800
                       15012G22KT P6SM VCSH SCT025 OVC040 FM192000
                       14018G30KT P6SM -RA BKN030 OVC045 FM200200
                       17014G24KT P6SM -SHRA BKN035 BKN050=
201602182326 TAF KBLI 182326Z 1900/1924 16012G21KT P6SM VCSH BKN040 FM190600
                       16010G17KT P6SM VCSH BKN020 BKN040 FM191500
                       13014G20KT P6SM -RA BKN030 OVC045=
201602182024 TAF AMD KBLI 182024Z 1820/1918 15019G25KT P6SM -SHRA BKN030 FM190600
                       16010G17KT P6SM VCSH BKN020 FM191500 13014G20KT
                       P6SM -RA BKN035 OVC045=
201602181720 TAF KBLI 181720Z 1818/1918 15012G20KT P6SM VCSH BKN027 BKN035 OVC090
                       FM182100 16010G19KT P6SM -SHRA SCT025 BKN040
                       FM190600 16010G17KT P6SM VCSH BKN020 FM191500
                       13014G20KT P6SM -RA BKN035 OVC045=
201602181120 TAF KBLI 181120Z 1812/1912 16010KT P6SM SCT025 OVC040
                      TEMPO 1812/1816 -SHRA BKN025 OVC035 FM181600
                       16010KT P6SM VCSH BKN030 BKN045 FM182100
                       16006KT P6SM VCSH SCT030 BKN045 FM190600
                       15008KT P6SM VCSH SCT025 OVC040=
201602181008 TAF AMD KBLI 181008Z 1810/1906 16012G22KT P6SM -SHRA SCT020 OVC040
                       TEMPO 1810/1812 -SHRA BKN020 OVC030 FM181600
                       16010KT P6SM VCSH BKN030 OVC045 FM182200
                       17006KT P6SM VCSH SCT030 BKN045=
201602180722 TAF AMD KBLI 180722Z 1807/1906 16012G22KT P6SM -SHRA SCT015 OVC045
                       TEMPO 1807/1810 3SM SHRA BKN012 OVC035 FM181600
                       16010KT P6SM VCSH BKN030 OVC045 FM182200
                       17006KT P6SM VCSH SCT030 BKN045=
201602180520 TAF KBLI 180520Z 1806/1906 16012G22KT P6SM -SHRA SCT025 OVC045
                       TEMPO 1806/1810 5SM SHRA BKN020 OVC035 FM181600
                       16010KT P6SM VCSH BKN030 OVC045 FM182200
                       17006KT P6SM VCSH SCT030 BKN045=
201602172329 TAF KBLI 172329Z 1800/1824 01005KT P6SM -RA BKN060 OVC090 FM180400
                       05008KT P6SM -RA SCT025 OVC050 FM180700
                       16010G19KT P6SM -RA BKN025 OVC040 FM181800
                       18010KT P6SM VCSH BKN025 OVC040 FM182200
                       19012KT P6SM VCSH SCT025 OVC040=
201602171720 TAF KBLI 171720Z 1718/1818 02012KT P6SM OVC100 FM180000 04005KT
                       P6SM SCT050 OVC100 FM180400 15006KT P6SM
                       -RA SCT025 OVC050 FM180700 16008KT 5SM -RA
                       BR BKN020 OVC035=
201602171121 TAF KBLI 171121Z 1712/1812 03008KT P6SM BKN120 OVC250 FM180000
                       04005KT P6SM SCT050 OVC100 FM180400 15006KT
                       P6SM -RA SCT025 OVC050 FM180700 16008KT
                       5SM -RA BR BKN020 OVC035=
201602170528 TAF KBLI 170528Z 1706/1806 04003KT P6SM SCT050 BKN100 OVC200
                      TEMPO 1706/1710 BKN050 OVC100 FM171000 03006KT
                       P6SM BKN050 OVC100
                      TEMPO 1710/1714 -RA FM171800 06006KT P6SM
                       SCT040 BKN120 FM180400 10006KT P6SM -RA
                       BKN025 OVC040=
201602170203 TAF AMD KBLI 170203Z 1702/1724 VRB03KT P6SM SCT028 OVC040
                      TEMPO 1702/1706 BKN028 OVC040 FM170600 VRB04KT
                       P6SM BKN028 OVC040
                      TEMPO 1706/1710 -RA FM171800 06006KT P6SM
                       SCT040 BKN120=
201602162320 TAF KBLI 162320Z 1700/1724 16006KT P6SM SCT040 BKN120 FM170400
                       VRB04KT P6SM BKN040 OVC080
                      TEMPO 1706/1710 -RA OVC040 FM171800 06006KT
                       P6SM SCT040 BKN120=
201602161733 TAF KBLI 161733Z 1618/1718 16005KT P6SM BKN040 FM170200 VRB03KT
                       P6SM -RA OVC040 FM170800 04006KT P6SM OVC035
                       FM171600 04006KT P6SM BKN050=
201602161127 TAF KBLI 161127Z 1612/1712 17008KT P6SM FEW035 BKN100 FM170200
                       04005KT P6SM SCT100 FM170800 03005KT P6SM
                       -RA BKN050 OVC100=
201602160520 TAF KBLI 160520Z 1606/1706 16014G24KT P6SM -RA SCT015 OVC030 FM161000
                       21008KT P6SM BKN030 OVC050 FM161700 18006KT
                       P6SM SCT030 BKN050=
201602160158 TAF AMD KBLI 160158Z 1602/1624 15012KT P6SM -RA OVC015
                      TEMPO 1602/1604 4SM -RA BR FM160400 18010KT
                       4SM -RA BR SCT005 OVC012 FM161000 21008KT
                       P6SM BKN020 BKN040 FM161700 18006KT P6SM
                       SCT025 BKN050=
201602152320 TAF KBLI 152320Z 1600/1624 VRB04KT 5SM -RA BR SCT015 OVC025
                      TEMPO 1600/1604 4SM -RA BR BKN015 OVC025
                       FM160400 18010KT 4SM -RA BR SCT005 OVC012
                       FM161000 21008KT P6SM BKN020 BKN040 FM161700
                       18006KT P6SM SCT025 BKN050=
201602152223 TAF AMD KBLI 152223Z 1522/1618 VRB03KT 4SM -RA BR SCT003 OVC015
                       TEMPO 1522/1602 1SM -RA BR BKN003 OVC010
                       FM160400 18012KT 3SM -RA BR BKN006 OVC012
                       FM161000 22008KT P6SM BKN020 BKN040 FM161700
                       18006KT P6SM SCT025 BKN050=
201602151720 TAF KBLI 151720Z 1518/1618 VRB03KT 3SM -RA BR SCT003 OVC015
                      TEMPO 1518/1522 1SM -RA BR BKN003 OVC010
                       FM152200 18008KT P6SM SCT006 BKN015 OVC030
                       FM160400 18012KT 3SM -RA BR BKN006 OVC012
                       FM161000 22008KT P6SM BKN020 BKN040 FM161700
                       18006KT P6SM SCT025 BKN050=
201602151622 TAF AMD KBLI 151622Z 1516/1612 VRB03KT 3SM -RA BR BKN006 OVC020
                       FM152200 18012KT 5SM -RA BR BKN010 OVC025
                       FM160400 20012KT 3SM -RA BR BKN006 OVC020=
201602151139 TAF KBLI 151139Z 1512/1612 VRB03KT P6SM -RA SCT020 OVC035 FM151800
                       VRB03KT 5SM -RA BR BKN010 OVC020 FM160000
                       18012KT P6SM -RA BKN015 OVC030=
201602150539 TAF KBLI 150539Z 1506/1606 18008KT P6SM -RA BKN015 OVC030 FM151800
                       VRB03KT 5SM -RA BR BKN010 OVC020=
201602150236 TAF AMD KBLI 150236Z 1503/1524 15013KT P6SM -RA SCT018 OVC025
                      TEMPO 1503/1507 2SM -RA BR OVC018 FM151400
                       VRB03KT 6SM -RA BR SCT010 BKN018 OVC030=
201602142339 TAF KBLI 142339Z 1500/1524 17012G20KT P6SM OVC014 FM150200 19014G22KT
                       5SM -RA BR OVC010
                      TEMPO 1503/1506 1SM +RA BR OVC006 FM151400
                       VRB03KT 6SM -RA BR SCT010 BKN018 OVC030=
201602141741 TAF KBLI 141741Z 1418/1518 17006KT 6SM -RA BR BKN015 OVC035 FM150000
                       17011KT 4SM -RA BR BKN008 OVC015 FM151200
                       VRB03KT 6SM -RA BR SCT008 OVC015=
201602141140 TAF KBLI 141140Z 1412/1512 17006KT P6SM SCT012 OVC022 FM142300
                       15014KT P6SM -RA SCT015 OVC025=
201602140545 TAF KBLI 140545Z 1406/1506 16018G28KT P6SM BKN030 OVC045 FM141100
                       17010KT P6SM SCT015 OVC025 FM142300 15014KT
                       P6SM -RA SCT015 OVC025=
201602132338 TAF KBLI 132338Z 1400/1424 16018G28KT P6SM -RA OVC025 FM140300
                       16018G28KT P6SM VCSH OVC020 FM141300 17007KT
                       6SM -RA BR OVC018=
201602131738 TAF KBLI 131738Z 1318/1418 16010KT P6SM SCT030 BKN045 FM132100
                       16014G24KT 6SM -RA BR OVC040 FM140400 16018G30KT
                       P6SM VCSH OVC020 FM141000 16010KT 6SM -RA
                       BR OVC015=
201602131133 TAF KBLI 131133Z 1312/1412 12008KT P6SM SCT025 BKN045
                      TEMPO 1312/1315 -SHRA BKN025 OVC045 FM131700
                       06008KT P6SM SCT030 BKN050 FM132000 12008KT
                       P6SM -RA OVC040 FM140100 15014G24KT 4SM
                       -RA SCT010 OVC020=
201602130533 TAF KBLI 130533Z 1306/1406 16008KT P6SM SCT030 BKN060 FM130900
                       16008KT P6SM SCT025 BKN045
                      TEMPO 1309/1313 -SHRA BKN025 OVC045 FM132000
                       15012G22KT P6SM -RA OVC040 FM140200 17012G22KT
                       4SM -RA SCT010 OVC020=
201602122339 TAF KBLI 122339Z 1300/1324 16008KT P6SM SCT025 SCT040 FM130900
                       16007KT 5SM -SHRA SCT020 OVC030 FM131300
                       16011KT P6SM SCT020 OVC035 FM132100 15012G22KT
                       P6SM -RA OVC035=
201602121735 TAF KBLI 121735Z 1218/1318 15012G18KT 3SM -RA BR SCT008 OVC012
                       FM122000 18010KT P6SM VCSH SCT018 BKN035
                       FM131000 16007KT P6SM -RA SCT020 OVC040=
201602121130 TAF KBLI 121130Z 1212/1312 35005KT P6SM -RA OVC022 FM121400 15012G18KT
                       P6SM -RA OVC022 FM122000 18012KT P6SM VCSH
                       SCT025 BKN050=
201602120533 TAF KBLI 120533Z 1206/1306 35005KT P6SM -RA OVC035 FM121300 15012G18KT
                       P6SM -RA OVC035 FM121600 17012G18KT P6SM
                       -RA BKN025 OVC035 FM121900 18010G16KT P6SM
                       VCSH SCT025 BKN050=
201602112322 TAF KBLI 112322Z 1200/1224 35005KT P6SM -RA OVC050 FM120900 14008KT
                       P6SM -RA OVC035 FM121300 15012G18KT 4SM
                       -RA BR OVC030 FM121700 16012G20KT P6SM -SHRA
                       BKN025 OVC045 FM122100 18010G16KT P6SM VCSH
                       SCT025 BKN050=
201602111724 TAF KBLI 111724Z 1118/1218 02006KT P6SM OVC080 FM112300 04006KT
                       P6SM -RA OVC050 FM120600 14008G14KT P6SM
                       -RA OVC035 FM121300 15012G18KT 4SM -RA BR
                       OVC030 FM121700 16012G20KT 4SM -RA BR OVC030=
201602111501 TAF AMD KBLI 111501Z 1115/1212 03005KT P6SM OVC100 FM111700 03006KT
                       P6SM BKN050 OVC090 FM112300 VRB04KT P6SM
                       -RA OVC040 FM120600 16008KT 5SM -RA OVC025=
201602111131 TAF KBLI 111131Z 1112/1212 00000KT 3SM BR SCT002 OVC120
                      TEMPO 1112/1116 1SM BR BKN002 FM111700 03006KT
                       P6SM BKN050 OVC090 FM112300 VRB04KT P6SM
                       -RA OVC040 FM120600 16008KT 5SM -RA OVC025=
201602110824 TAF AMD KBLI 110824Z 1108/1206 00000KT 3SM BR BKN003
                      TEMPO 1108/1112 1/2SM FG VV002 FM111300 06006KT
                       P6SM BKN005 BKN050 FM111800 06006KT P6SM
                       SCT010 BKN050 FM112100 06006KT P6SM -RA
                       OVC040 FM120500 16012KT 5SM -RA OVC035=
201602110520 TAF KBLI 110520Z 1106/1206 16006KT P6SM SCT020 SCT050 FM110900
                       VRB04KT P6SM BKN020 BKN050 FM111300 06006KT
                       P6SM BKN050 FM112100 06006KT P6SM -RA OVC040
                       FM120500 16012KT 5SM -RA OVC035=
201602102332 TAF KBLI 102332Z 1100/1124 15015G27KT P6SM -SHRA BKN025 BKN080
                       FM110200 16005KT P6SM VCSH BKN035 BKN070
                       FM111500 01005KT P6SM SCT030 OVC070 FM112300
                       03006KT P6SM -RA OVC050=
201602102205 TAF AMD KBLI 102205Z 1022/1118 15016G26KT P6SM OVC024 FM110000
                       15010KT P6SM SCT025 BKN080 FM110400 16004KT
                       P6SM VCSH BKN035 BKN070 FM111500 01005KT
                       P6SM OVC070=
201602101734 TAF KBLI 101734Z 1018/1118 00000KT P6SM -RA OVC070 FM102000 16012KT
                       P6SM -RA OVC050 FM110200 16004KT P6SM VCSH
                       OVC025 FM111500 01005KT P6SM OVC070=
201602101120 TAF KBLI 101120Z 1012/1112 VRB03KT P6SM BKN120 BKN200 FM102100
                       16008KT P6SM BKN060 BKN120
                      TEMPO 1021/1101 -RA OVC050 FM110600 16006KT
                       P6SM BKN050 BKN100=
201602100648 TAF KBLI 100648Z 1007/1106 04007KT P6SM SCT250 FM101200 16005KT
                       P6SM OVC100 FM101700 16008KT P6SM OVC050
                       FM102000 16010G18KT P6SM OVC045
                      TEMPO 1020/1024 -RA=
201602092320 TAF KBLI 092320Z 1000/1024 04007KT P6SM SCT250 FM101200 16005KT
                       P6SM OVC100 FM101700 16008KT P6SM OVC050
                       FM102000 16010G18KT P6SM OVC045
                      TEMPO 1020/1024 -RA=
201602091729 TAF KBLI 091729Z 0918/1018 VRB03KT P6SM BKN250 FM101200 16005KT
                       P6SM OVC100=
201602091200 TAF AMD KBLI 091200Z 0912/1012 VRB04KT 2SM BR SCT002
                      TEMPO 0912/0916 1/2SM FG VV001 FM091600 VRB04KT
                       P6SM BKN250=
201602091120 TAF KBLI 091120Z 0912/1012 VRB04KT 2SM BR SCT002
                      TEMPO 0912/0914 1SM BR VV002 FM091600 VRB04KT
                       P6SM BKN250=
201602090625 TAF AMD KBLI 090625Z 0906/1006 VRB03KT P6SM SKC
                      TEMPO 0906/0910 3SM MIFG FM091000 00000KT
                       P6SM SKC
                      TEMPO 0910/0914 2SM MIFG FM091800 VRB04KT
                       P6SM BKN250=
201602090520 TAF KBLI 090520Z 0906/1006 04005KT P6SM SCT250=
201602082320 TAF KBLI 082320Z 0900/0924 36006KT P6SM SCT250 FM090500 04005KT
                       P6SM SCT250=
201602081726 TAF KBLI 081726Z 0818/0918 34006KT P6SM SCT250 FM090500 04005KT
                       P6SM SCT250=
201602081120 TAF KBLI 081120Z 0812/0912 VRB03KT P6SM BKN080 FM081800 35003KT
                       P6SM SCT250 FM090300 VRB03KT P6SM SCT250=
201602080520 TAF KBLI 080520Z 0806/0906 36005KT P6SM SCT070 SCT100 FM081200
                       VRB03KT P6SM SCT050 SCT080 SCT200 FM081800
                       VRB03KT P6SM SCT250=
201602072341 TAF KBLI 072341Z 0800/0824 36005KT P6SM BKN050 OVC090 FM081200
                       VRB03KT P6SM SCT050 SCT080 OVC200 FM081800
                       VRB03KT P6SM BKN250=
201602072132 TAF AMD KBLI 072132Z 0722/0818 35007KT P6SM VCSH OVC060
                      TEMPO 0722/0724 -RA FM080200 VRB03KT P6SM
                       BKN080 OVC120 FM080600 VRB03KT P6SM SCT120
                       BKN200 FM081200 VRB03KT 4SM MIFG SCT200=
201602071745 TAF KBLI 071745Z 0718/0818 VRB03KT P6SM VCSH OVC070
                      TEMPO 0718/0722 -RA FM080200 VRB03KT P6SM
                       BKN080 OVC120 FM080600 VRB03KT P6SM SCT120
                       BKN200 FM081200 VRB03KT 4SM MIFG SCT200=
201602071120 TAF KBLI 071120Z 0712/0812 02005KT P6SM SCT120 FM071600 04004KT
                       P6SM VCSH SCT040 OVC060 FM071900 VRB03KT
                       P6SM VCSH OVC030 FM072300 35004KT P6SM OVC040
                       FM080300 35003KT P6SM SCT040 OVC100=
201602070520 TAF KBLI 070520Z 0706/0806 17005KT P6SM SCT120 FM071600 04004KT
                       P6SM VCSH SCT040 OVC060 FM071900 VRB03KT
                       P6SM VCSH OVC030 FM072300 35004KT P6SM OVC040
                       FM080300 35003KT P6SM SCT040 OVC100=
201602062337 TAF KBLI 062337Z 0700/0724 17005KT P6SM BKN120 FM071600 04004KT
                       P6SM SCT040 OVC060 FM071900 VRB03KT P6SM
                       -RA OVC030=
201602061738 TAF KBLI 061738Z 0618/0718 17009KT P6SM SCT030 BKN080 FM062200
                       17005KT P6SM BKN120 FM071600 04004KT P6SM
                       SCT040 OVC060
                      PROB30 0716/0718 -RA=
201602061120 TAF KBLI 061120Z 0612/0712 17010KT P6SM BKN040 OVC100 FM061300
                       18009KT P6SM SCT040 BKN100 FM070200 12004KT
                       P6SM SCT050 BKN100 FM071000 06005KT P6SM
                       BKN050=
201602060520 TAF KBLI 060520Z 0606/0706 18017G24KT P6SM -SHRA BKN020 OVC050
                       TEMPO 0606/0609 4SM SHRA BR BKN015 FM061300
                       18009KT P6SM VCSH SCT030 BKN050 FM070200
                       12004KT P6SM SCT050 BKN100=
201602052328 TAF KBLI 052328Z 0600/0624 15020G35KT 5SM RA SCT035 OVC050 FM060300
                       18017G24KT P6SM -SHRA SCT020 OVC050
                      TEMPO 0603/0607 -SHRA BKN020 FM061300 18009KT
                       P6SM VCSH SCT030 BKN050=
201602052046 TAF AMD KBLI 052046Z 0521/0618 15024G42KT P6SM OVC100 WS015/17050KT
                       FM052200 16025G40KT P6SM -RA OVC050 FM060100
                       16024G34KT P6SM -RA OVC020 FM060600 18017G24KT
                       P6SM VCSH SCT020 OVC050
                      TEMPO 0606/0610 -SHRA BKN020 FM061200 20010KT
                       P6SM VCSH SCT030 BKN050=
201602051735 TAF KBLI 051735Z 0518/0618 02003KT P6SM -RA OVC090 WS015/17050KT
                       FM052200 16020G30KT 6SM -RA BR OVC030 FM060100
                       16024G34KT P6SM -RA OVC020 FM060600 18017G24KT
                       P6SM VCSH SCT020 OVC050
                      TEMPO 0606/0610 -SHRA BKN020 FM061200 20010KT
                       P6SM VCSH SCT030 BKN050=
201602051121 TAF KBLI 051121Z 0512/0612 06003KT P6SM SCT030 BKN120 FM051600
                       07004KT P6SM OVC045 WS015/17050KT FM052200
                       16020G30KT 6SM -RA BR OVC030 FM060100 16024G34KT
                       P6SM -RA OVC020 FM060600 18017G24KT P6SM
                       VCSH SCT020 OVC050
                      TEMPO 0606/0610 -RA BKN020=
201602050526 TAF KBLI 050526Z 0506/0606 07004KT P6SM BKN025 OVC030 FM050700
                       06003KT P6SM SCT030 BKN120 FM051600 07004KT
                       P6SM -RA OVC045 WS015/17050KT FM052200 16020G30KT
                       6SM -RA BR OVC030 FM060100 16024G34KT P6SM
                       -RA OVC020=
201602042340 TAF KBLI 042340Z 0500/0524 16007KT P6SM VCSH SCT030 OVC050 FM050400
                       06003KT P6SM BKN120 FM051600 07004KT P6SM
                       -RA OVC045 WS015/17050KT FM052200 16020G30KT
                       6SM -RA BR OVC030=
201602041751 TAF KBLI 041751Z 0418/0518 16007KT P6SM SCT025 BKN045
                      TEMPO 0421/0424 -RA SCT015 BKN025 OVC040
                       FM050200 06003KT P6SM SCT015 BKN100 FM051000
                       06005KT P6SM OVC080 FM051700 07004KT P6SM
                       -RA OVC045 WS015/17050KT=
201602041120 TAF KBLI 041120Z 0412/0512 17007KT P6SM SCT015 BKN020 FM042100
                       15013G20KT P6SM -RA OVC015 FM050000 16008KT
                       P6SM SCT015 OVC025 FM050300 15008KT P6SM
                       SCT025 OVC040=
201602040524 TAF KBLI 040524Z 0406/0506 18015G25KT P6SM VCSH SCT012 BKN020 OVC035
                       TEMPO 0409/0412 5SM -SHRA BR BKN012 OVC020
                       FM041200 17007KT P6SM SCT018 BKN030 FM042100
                       15010KT P6SM -RA SCT015 OVC030 FM050200
                       15008KT P6SM SCT020 OVC040=
201602032354 TAF KBLI 032354Z 0400/0424 15012G20KT P6SM -RA OVC035 FM040400
                       18015G25KT P6SM VCSH SCT012 BKN020 OVC035
                       TEMPO 0409/0412 5SM -SHRA BR BKN012 OVC020
                       FM041400 17007KT P6SM SCT018 BKN030=
201602031751 TAF KBLI 031751Z 0318/0418 04006KT P6SM OVC030 FM032100 15014G22KT
                       P6SM -RA OVC030 FM040300 18012G20KT P6SM
                       VCSH SCT012 BKN020 OVC035
                      TEMPO 0410/0414 5SM -SHRA BR BKN012 OVC020=
201602031142 TAF KBLI 031142Z 0312/0412 01006KT P6SM OVC035 FM032000 12012G22KT
                       P6SM -RA OVC035 FM032300 16020G30KT 5SM
                       -RA BR OVC030 FM040200 18012KT P6SM -SHRA
                       SCT012 BKN022 OVC035=
201602030538 TAF KBLI 030538Z 0306/0406 01006KT P6SM OVC050 FM032000 12012G22KT
                       P6SM -RA OVC050 FM032300 16020G30KT 5SM
                       -RA BR OVC035 FM040200 18012KT P6SM -SHRA
                       SCT012 BKN022 OVC035=
201602022327 TAF KBLI 022327Z 0300/0324 01007KT P6SM SCT130 BKN250 FM031000
                       05008KT P6SM BKN045 OVC080 FM031500 10010KT
                       P6SM OVC050 FM031800 12012G22KT P6SM -RA
                       OVC050 FM032200 16020G30KT 5SM -RA BR OVC035=
201602021720 TAF KBLI 021720Z 0218/0318 05003KT P6SM SCT040 FM022100 02006KT
                       P6SM SCT045 BKN200 FM031000 05008KT P6SM
                       BKN045 OVC080 FM031600 12012G17KT P6SM OVC060=
201602021139 TAF KBLI 021139Z 0212/0312 02006KT P6SM BKN035 FM022100 02006KT
                       P6SM SCT045 BKN200=
201602020540 TAF KBLI 020540Z 0206/0306 VRB03KT P6SM BKN050 FM021200 04005KT
                       P6SM SCT050 BKN100 OVC200 FM030200 04005KT
                       P6SM BKN060 OVC100=
201602012324 TAF KBLI 012324Z 0200/0224 19003KT P6SM SCT035 OVC050 FM020400
                       VRB03KT P6SM SCT050 BKN200 FM021200 04005KT
                       P6SM OVC100 FM022300 04005KT P6SM OVC060=
201602012005 TAF AMD KBLI 012005Z 0120/0218 17003KT P6SM -SHRA BKN021 BKN029
                       OVC040 FM012200 VRB03KT P6SM SCT030 OVC050
                       FM020300 VRB03KT P6SM SCT050 BKN200 FM021200
                       VRB03KT P6SM OVC100=
201602011815 TAF AMD KBLI 011815Z 0118/0218 16008KT P6SM SCT030 BKN050 FM020300
                       VRB03KT P6SM SCT050 BKN200 FM021200 VRB03KT
                       P6SM OVC100=
201602011728 TAF KBLI 011728Z 0118/0218 17005KT P6SM BKN030 OVC060 FM012000
                       VRB03KT P6SM SCT030 BKN050 FM020300 VRB03KT
                       P6SM SCT050 BKN200 FM021200 VRB03KT P6SM
                       OVC100=
201602011138 TAF KBLI 011138Z 0112/0212 VRB03KT P6SM SCT012 OVC022 FM012000
                       VRB03KT P6SM SCT025 BKN050 FM020300 VRB03KT
                       P6SM SCT050 BKN200=
201602010533 TAF KBLI 010533Z 0106/0206 VRB03KT P6SM BKN012 OVC022 FM011200
                       VRB03KT P6SM SCT012 OVC022 FM012000 16005KT
                       P6SM SCT025 BKN050 FM020300 VRB03KT P6SM
                       SCT050 BKN200=